station,valid,lon,lat,elevation,tmpf,dwpf,relh,drct,sknt,p01i,alti,mslp,vsby,gust,skyc1,skyc2,skyc3,skyc4,skyl1,skyl2,skyl3,skyl4,wxcodes,ice_accretion_1hr,ice_accretion_3hr,ice_accretion_6hr,peak_wind_gust,peak_wind_drct,peak_wind_time,feel,metar,snowdepth
INS,2023-09-02 00:09,-115.6733,36.5872,955.00,71.60,64.40,78.04,80.00,20.00,0.00,29.92,1009.00,10.00,M,FEW,SCT,OVC,M,4600.00,8500.00,11000.00,M,-RA,M,M,M,M,M,M,71.60,KINS 020009Z AUTO 08020KT 10SM -RA FEW046 SCT085 OVC110 22/18 A2992 RMK AO2 LTG DSNT NE AND SE DZE2359RAB09 SLP090 $,M
05U,2023-09-02 00:10,-116.0051,39.6042,1811.23,77.00,50.00,38.74,M,M,0.00,29.94,M,10.00,M,CLR,M,M,M,M,M,M,M,M,M,M,M,M,M,M,77.00,K05U 020010Z AUTO 10SM CLR 25/10 A2994 RMK A01,M
BVU,2023-09-02 00:15,-114.8611,35.9475,671.00,77.00,62.60,61.13,120.00,9.00,0.00,29.93,M,10.00,M,FEW,SCT,BKN,M,300.00,6000.00,7000.00,M,-RA,M,M,M,M,M,M,77.00,KBVU 020015Z AUTO 12009KT 10SM -RA FEW003 SCT060 BKN070 25/17 A2993 RMK AO2 LTG DSNT W AND NW,M
CXP,2023-09-02 00:15,-119.7326,39.1923,1431.00,62.60,42.80,48.28,260.00,10.00,0.00,29.93,M,10.00,M,BKN,OVC,M,M,7500.00,8500.00,M,M,M,M,M,M,M,M,M,62.60,KCXP 020015Z AUTO 26010KT 10SM BKN075 OVC085 17/06 A2993 RMK AO2,M
RTS,2023-09-02 00:15,-119.8764,39.6682,1539.00,60.80,44.60,55.12,230.00,7.00,0.00,29.93,M,10.00,14.00,SCT,SCT,M,M,6000.00,7000.00,M,M,M,M,M,M,M,M,M,60.80,KRTS 020015Z AUTO 23007G14KT 10SM SCT060 SCT070 16/07 A2993 RMK AO2,M
MEV,2023-09-02 00:15,-119.7500,38.9963,1441.42,62.60,39.20,42.00,200.00,13.00,0.00,29.91,M,10.00,27.00,OVC,M,M,M,6500.00,M,M,M,M,M,M,M,M,M,M,62.60,KMEV 020015Z AUTO 20013G27KT 10SM OVC065 17/04 A2991 RMK AO2,M
BAM,2023-09-02 00:15,-116.8743,40.5990,1382.36,84.20,30.20,14.18,350.00,8.00,0.00,29.76,M,10.00,M,CLR,M,M,M,M,M,M,M,M,M,M,M,M,M,M,81.26,KBAM 020015Z AUTO 35008KT 10SM CLR 29/M01 A2976 RMK AO1,M
HTH,2023-09-02 00:15,-118.6315,38.5448,1282.89,84.20,15.80,7.74,240.00,15.00,0.00,29.77,M,10.00,34.00,CLR,M,M,M,M,M,M,M,M,M,M,M,M,M,M,80.51,KHTH 020015Z AUTO 24015G34KT 200V270 10SM CLR 29/M09 A2977 RMK A01,M
10U,2023-09-02 00:15,-116.1876,41.9532,1637.00,77.00,37.40,23.93,60.00,19.00,0.00,29.85,M,10.00,29.00,CLR,M,M,M,M,M,M,M,M,M,M,M,M,M,M,77.00,K10U 020015Z AUTO 06019G29KT 10SM CLR 25/03 A2985 RMK AO2,M
TMT,2023-09-02 00:15,-117.1971,39.4643,1749.34,79.00,32.70,18.58,190.00,17.00,0.00,29.86,M,M,22.00,SCT,M,M,M,12000.00,M,M,M,M,M,M,M,M,M,M,79.00,KTMT 020015Z AUTO 19017G22KT SCT120 26/00 A2986 RMK AO2 LTG DSNT NW T02620004 PWINO,M
LSV,2023-09-02 00:28,-115.0343,36.2362,570.00,73.40,73.40,100.00,40.00,12.00,0.00,29.90,1010.60,9.00,M,BKN,M,M,M,8000.00,M,M,M,-RA,M,M,M,M,M,M,73.40,KLSV 020028Z AUTO 04012KT 9SM -RA BKN080 23/23 A2990 RMK AO2 LTG DSNT E AND W RAB28 SLP106 $,M
05U,2023-09-02 00:30,-116.0051,39.6042,1811.23,75.20,50.00,41.14,M,M,0.00,29.94,M,10.00,M,CLR,M,M,M,M,M,M,M,M,M,M,M,M,M,M,75.20,K05U 020030Z AUTO 10SM CLR 24/10 A2994 RMK A01,M
BVU,2023-09-02 00:35,-114.8611,35.9475,671.00,75.20,64.40,69.14,150.00,15.00,0.00,29.95,M,9.00,22.00,FEW,SCT,BKN,M,1000.00,3500.00,6000.00,M,-RA,M,M,M,M,M,M,75.20,KBVU 020035Z AUTO 15015G22KT 9SM -RA FEW010 SCT035 BKN060 24/18 A2995 RMK AO2 LTG DSNT N AND SW,M
CXP,2023-09-02 00:35,-119.7326,39.1923,1431.00,60.80,42.80,51.45,250.00,9.00,0.00,29.93,M,10.00,14.00,FEW,OVC,M,M,5500.00,7500.00,M,M,M,M,M,M,M,M,M,60.80,KCXP 020035Z AUTO 25009G14KT 10SM FEW055 OVC075 16/06 A2993 RMK AO2,M
RTS,2023-09-02 00:35,-119.8764,39.6682,1539.00,62.60,42.80,48.28,250.00,10.00,0.00,29.93,M,10.00,M,SCT,SCT,M,M,5500.00,7000.00,M,M,M,M,M,M,M,M,M,62.60,KRTS 020035Z AUTO 25010KT 10SM SCT055 SCT070 17/06 A2993 RMK AO2,M
MEV,2023-09-02 00:35,-119.7500,38.9963,1441.42,62.60,41.00,45.04,200.00,20.00,0.00,29.91,M,10.00,26.00,OVC,M,M,M,6000.00,M,M,M,M,M,M,M,M,M,M,62.60,KMEV 020035Z AUTO 20020G26KT 10SM OVC060 17/05 A2991 RMK AO2,M
BAM,2023-09-02 00:35,-116.8743,40.5990,1382.36,84.20,32.00,15.25,320.00,15.00,0.00,29.77,M,10.00,19.00,CLR,M,M,M,M,M,M,M,M,M,M,M,M,M,M,81.28,KBAM 020035Z AUTO 32015G19KT 10SM CLR 29/00 A2977 RMK AO1,M
HTH,2023-09-02 00:35,-118.6315,38.5448,1282.89,84.20,15.80,7.74,250.00,11.00,0.00,29.79,M,10.00,21.00,CLR,M,M,M,M,M,M,M,M,M,M,M,M,M,M,80.51,KHTH 020035Z AUTO 25011G21KT 10SM CLR 29/M09 A2979 RMK A01,M
TMT,2023-09-02 00:35,-117.1971,39.4643,1749.34,79.00,32.70,18.58,220.00,20.00,0.00,29.87,M,M,28.00,BKN,M,M,M,11000.00,M,M,M,M,M,M,M,M,M,M,79.00,KTMT 020035Z AUTO 22020G28KT BKN110 26/00 A2987 RMK AO2 T02620004 PWINO,M
10U,2023-09-02 00:40,-116.1876,41.9532,1637.00,77.00,37.40,23.93,40.00,22.00,0.00,29.85,M,10.00,28.00,CLR,M,M,M,M,M,M,M,M,M,M,M,M,M,M,77.00,K10U 020040Z AUTO 04022G28KT 10SM CLR 25/03 A2985 RMK AO2,M
HND,2023-09-02 00:41,-115.1344,35.9729,742.79,78.80,62.60,57.60,130.00,18.00,0.00,29.95,M,10.00,25.00,OVC,M,M,M,5000.00,M,M,M,VCTS,M,M,M,M,M,M,78.80,KHND 020041Z 13018G25KT 10SM VCTS OVC050 26/17 A2995 RMK AO2 LTG DSNT SW-NW TSB35,M
INS,2023-09-02 00:47,-115.6733,36.5872,955.00,71.60,62.60,73.27,80.00,27.00,0.00,29.91,1008.70,10.00,32.00,SCT,OVC,M,M,4600.00,11000.00,M,M,VCTS,M,M,M,M,M,M,71.60,KINS 020047Z AUTO 08027G32KT 10SM VCTS SCT046 OVC110 22/17 A2991 RMK AO2 DZE2359RAB09E45DZB45E46RAB46E47 SLP087 $,M
LSV,2023-09-02 00:49,-115.0343,36.2362,570.00,71.60,71.60,100.00,20.00,12.00,0.00,29.91,1011.00,10.00,M,BKN,M,M,M,8500.00,M,M,M,M,M,M,M,M,M,M,71.60,KLSV 020049Z AUTO 02012KT 10SM BKN085 22/22 A2991 RMK AO2 LTG DSNT SW-W RAB28E45DZB45E49 SLP110 $,M
05U,2023-09-02 00:50,-116.0051,39.6042,1811.23,75.20,50.00,41.14,M,M,0.00,29.94,M,10.00,M,CLR,M,M,M,M,M,M,M,M,M,M,M,M,M,M,75.20,K05U 020050Z AUTO 10SM CLR 24/10 A2994 RMK A01,M
INS,2023-09-02 00:52,-115.6733,36.5872,955.00,71.60,64.40,78.04,80.00,28.00,0.00,29.92,1009.00,10.00,M,SCT,OVC,M,M,4600.00,10000.00,M,M,VCTS -DZ,M,M,M,M,M,M,71.60,KINS 020052Z AUTO 08028KT 10SM VCTS -DZ SCT046 OVC100 22/18 A2992 RMK AO2 DZE2359RAB09E45DZB45E46RAB46E47DZB52 SLP090 $,M
P68,2023-09-02 00:53,-116.0056,39.6014,1993.00,74.00,50.00,42.82,170.00,22.00,0.00,29.91,1005.10,M,33.00,M,M,M,M,M,M,M,M,M,M,M,M,35.00,180.00,2023-09-02 00:13,74.00,KP68 020053Z AUTO 17022G33KT 23/10 A2991 RMK AO1 PK WND 18035/0013 SLP051 T02330100,M
DRA,2023-09-02 00:53,-116.0278,36.6206,1009.00,75.00,61.00,61.75,110.00,15.00,0.00,29.89,1007.20,10.00,26.00,FEW,BKN,M,M,8000.00,10000.00,M,M,M,M,M,M,30.00,130.00,2023-09-02 00:04,75.00,KDRA 020053Z AUTO 11015G26KT 10SM FEW080 BKN100 24/16 A2989 RMK AO2 PK WND 13030/0004 SLP072 T02390161,M
ELY,2023-09-02 00:53,-114.8453,39.2950,1909.00,65.00,51.00,60.47,160.00,18.00,0.00,30.05,1008.80,10.00,32.00,CLR,M,M,M,M,M,M,M,M,M,M,M,33.00,170.00,2023-09-02 00:34,65.00,KELY 020053Z AUTO 16018G32KT 10SM CLR 18/11 A3005 RMK AO2 PK WND 17033/0034 LTG DSNT SE SLP088 T01830106,M
VGT,2023-09-02 00:53,-115.1933,36.2111,667.00,75.00,67.00,76.19,100.00,10.00,T,29.94,1013.40,10.00,M,FEW,OVC,M,M,3100.00,7000.00,M,M,-RA,M,M,M,M,M,M,75.00,KVGT 020053Z 10010KT 10SM -RA FEW031 OVC070 24/19 A2994 RMK AO2 LTG DSNT ALQDS RAB42 SLP134 P0000 T02390194,M
LOL,2023-09-02 00:53,-118.5701,40.0684,1192.43,69.00,45.00,42.04,280.00,15.00,0.00,29.84,1007.70,10.00,M,CLR,M,M,M,M,M,M,M,M,M,M,M,M,M,M,69.00,KLOL 020053Z AUTO 28015KT 10SM CLR 21/07 A2984 RMK AO2 SLP077 T02060072,M
BVU,2023-09-02 00:55,-114.8611,35.9475,671.00,73.40,66.20,78.19,160.00,16.00,0.00,29.95,M,10.00,M,FEW,BKN,OVC,M,2700.00,3500.00,9500.00,M,VCTS,M,M,M,M,M,M,73.40,KBVU 020055Z AUTO 16016KT 10SM VCTS FEW027 BKN035 OVC095 23/19 A2995 RMK AO2 LTG DSNT SW-N,M
CXP,2023-09-02 00:55,-119.7326,39.1923,1431.00,59.00,46.40,62.92,240.00,7.00,0.00,29.94,M,6.00,15.00,FEW,SCT,BKN,M,2900.00,5000.00,7500.00,M,-RA HZ,M,M,M,M,M,M,59.00,KCXP 020055Z AUTO 24007G15KT 6SM -RA HZ FEW029 SCT050 BKN075 15/08 A2994 RMK AO2,M
RNO,2023-09-02 00:55,-119.7711,39.4839,1341.00,60.00,51.00,72.12,180.00,12.00,0.01,29.91,1008.40,10.00,M,SCT,BKN,BKN,M,4000.00,5500.00,8000.00,M,-RA,M,M,M,M,M,M,60.00,KRNO 020055Z 18012KT 10SM -RA SCT040 BKN055 BKN080 16/11 A2991 RMK AO2 RAB08 SLP084 MTN TOPS OBSCD DSNT S THRU W P0001 T01560106,M
RTS,2023-09-02 00:55,-119.8764,39.6682,1539.00,60.80,44.60,55.12,240.00,6.00,0.00,29.94,M,10.00,12.00,FEW,BKN,BKN,M,3700.00,4500.00,5500.00,M,M,M,M,M,M,M,M,60.80,KRTS 020055Z AUTO 24006G12KT 10SM FEW037 BKN045 BKN055 16/07 A2994 RMK AO2,M
MEV,2023-09-02 00:55,-119.7500,38.9963,1441.42,62.60,39.20,42.00,210.00,15.00,0.00,29.91,M,10.00,20.00,OVC,M,M,M,6000.00,M,M,M,M,M,M,M,M,M,M,62.60,KMEV 020055Z AUTO 21015G20KT 10SM OVC060 17/04 A2991 RMK AO2,M
BAM,2023-09-02 00:55,-116.8743,40.5990,1382.36,80.60,33.80,18.42,330.00,20.00,0.00,29.78,M,10.00,28.00,CLR,M,M,M,M,M,M,M,M,M,M,M,M,M,M,78.88,KBAM 020055Z AUTO 33020G28KT 10SM CLR 27/01 A2978 RMK AO1,M
HTH,2023-09-02 00:55,-118.6315,38.5448,1282.89,80.60,28.40,14.81,290.00,15.00,0.00,29.79,M,10.00,M,CLR,M,M,M,M,M,M,M,M,M,M,M,M,M,M,78.72,KHTH 020055Z AUTO 29015KT 10SM CLR 27/M02 A2979 RMK A01,M
TMT,2023-09-02 00:55,-117.1971,39.4643,1749.34,76.30,30.00,18.21,210.00,7.00,0.00,29.87,M,M,M,OVC,M,M,M,11000.00,M,M,M,M,M,M,M,M,M,M,76.30,KTMT 020055Z AUTO 21007KT OVC110 25/M01 A2987 RMK AO2 T02461012 PWINO,M
INS,2023-09-02 00:55,-115.6733,36.5872,955.00,70.50,63.70,79.06,80.00,30.00,0.02,29.91,1008.80,10.00,M,SCT,OVC,M,M,4900.00,10000.00,M,M,VCTS -RA,M,M,M,34.00,80.00,2023-09-02 00:52,70.50,KINS 020055Z AUTO 08030KT 10SM VCTS -RA SCT049 OVC100 21/18 A2991 RMK AO2 PK WND 08034/52 DZE2359RAB09E45DZB45E46RAB46E47DZB52E54RAB54 SLP088 P0002 T02140176 $,M
LSV,2023-09-02 00:55,-115.0343,36.2362,570.00,72.00,71.60,98.65,20.00,14.00,0.01,29.90,1010.70,10.00,M,FEW,BKN,M,M,7000.00,8500.00,M,M,M,M,M,M,M,M,M,72.00,KLSV 020055Z AUTO 02014KT 10SM FEW070 BKN085 22/22 A2990 RMK AO2 LTG DSNT SW-NW RAB28E45DZB45E49 SLP107 P0001 T02220220 $,M
EKO,2023-09-02 00:56,-115.7860,40.8242,1367.00,81.00,44.00,27.09,170.00,17.00,0.00,29.81,1004.30,10.00,30.00,CLR,M,M,M,M,M,M,M,M,M,M,M,34.00,170.00,2023-09-02 00:45,79.61,KEKO 020056Z AUTO 17017G30KT 10SM CLR 27/07 A2981 RMK AO2 PK WND 17034/0045 SLP043 T02720067,M
WMC,2023-09-02 00:56,-117.8072,40.9019,1315.00,68.00,42.00,38.79,290.00,10.00,0.00,29.87,1007.40,10.00,23.00,CLR,M,M,M,M,M,M,M,M,M,M,M,29.00,280.00,2023-09-02 00:08,68.00,KWMC 020056Z AUTO 29010G23KT 10SM CLR 20/06 A2987 RMK AO2 PK WND 28029/0008 SLP074 T02000056,M
NFL,2023-09-02 00:56,-118.7010,39.4166,1199.00,69.00,46.00,43.67,330.00,14.00,0.00,29.84,1008.10,10.00,M,FEW,BKN,BKN,M,6000.00,10000.00,15000.00,M,M,M,M,M,M,M,M,69.00,KNFL 020056Z 33014KT 10SM FEW060 BKN100 BKN150 21/08 A2984 RMK AO2 SLP081 SH DSNT W-NW T02060078,M
HND,2023-09-02 00:56,-115.1344,35.9729,742.79,74.00,65.00,73.50,130.00,20.00,T,29.96,1013.80,10.00,28.00,FEW,BKN,OVC,M,3800.00,4800.00,8000.00,M,VCTS -RA,M,M,M,28.00,130.00,2023-09-02 00:56,74.00,KHND 020056Z 13020G28KT 10SM VCTS -RA FEW038 BKN048 OVC080 23/18 A2996 RMK AO2 PK WND 13028/0056 LTG DSNT W-N TSB35RAB42 SLP138 P0000 T02330183,M
TPH,2023-09-02 00:56,-117.0904,38.0505,1654.00,78.00,38.00,23.70,180.00,19.00,0.00,29.92,1005.90,10.00,33.00,FEW,M,M,M,9000.00,M,M,M,M,M,M,M,34.00,190.00,2023-09-02 00:11,78.00,KTPH 020056Z AUTO 18019G33KT 10SM FEW090 26/03 A2992 RMK AO2 PK WND 19034/0011 SLP059 T02560033,M
LAS,2023-09-02 00:56,-115.1634,36.0719,663.00,76.00,73.00,90.44,90.00,10.00,0.00,29.94,1011.80,10.00,M,SCT,BKN,OVC,M,3000.00,5000.00,18000.00,M,TS,M,M,M,M,M,M,76.00,KLAS 020056Z 09010KT 10SM TS SCT030 BKN050CB OVC180 25/23 A2994 RMK AO2 LTG DSNT SW-NW TSB56 SLP118 OCNL LTGICCCCG ALQDS TS ALQDS MOV NE T02440228 $,M
10U,2023-09-02 01:00,-116.1876,41.9532,1637.00,75.20,39.20,27.26,40.00,15.00,0.00,29.85,M,10.00,24.00,CLR,M,M,M,M,M,M,M,M,M,M,M,M,M,M,75.20,K10U 020100Z AUTO 04015G24KT 10SM CLR 24/04 A2985 RMK AO2,M
VGT,2023-09-02 01:03,-115.1933,36.2111,667.00,75.00,67.00,76.19,100.00,7.00,T,29.95,M,10.00,M,BKN,BKN,OVC,M,6000.00,7000.00,8500.00,M,VCTS -RA,M,M,M,M,M,M,75.00,KVGT 020103Z 10007KT 10SM VCTS -RA BKN060 BKN070 OVC085 24/19 A2995 RMK AO2 LTG DSNT ALQDS P0000 T02390194,M
INS,2023-09-02 01:04,-115.6733,36.5872,955.00,69.80,62.60,77.90,90.00,29.00,0.00,29.91,1008.80,10.00,35.00,FEW,OVC,M,M,7000.00,10000.00,M,M,TS -DZ,M,M,M,M,M,M,69.80,KINS 020104Z AUTO 09029G35KT 10SM TS -DZ FEW070 OVC100 21/17 A2991 RMK AO2 RAE03DZB03 TSB04 SLP088 $,M
LSV,2023-09-02 01:06,-115.0343,36.2362,570.00,71.60,71.60,100.00,30.00,14.00,0.00,29.91,1011.10,10.00,M,SCT,M,M,M,8000.00,M,M,M,-RA,M,M,M,M,M,M,71.60,KLSV 020106Z AUTO 03014KT 10SM -RA SCT080 22/22 A2991 RMK AO2 LTG DSNT NW RAB06 SLP111 $,M
05U,2023-09-02 01:10,-116.0051,39.6042,1811.23,75.20,51.80,43.97,M,M,0.00,29.95,M,10.00,M,CLR,M,M,M,M,M,M,M,M,M,M,M,M,M,M,75.20,K05U 020110Z AUTO 10SM CLR 24/11 A2995 RMK A01,M
VGT,2023-09-02 01:11,-115.1933,36.2111,667.00,75.00,67.00,76.19,110.00,6.00,0.03,29.95,M,5.00,M,FEW,BKN,OVC,M,4200.00,6000.00,11000.00,M,-TSRA,M,M,M,M,M,M,75.00,KVGT 020111Z 11006KT 5SM -TSRA FEW042 BKN060 OVC110 24/19 A2995 RMK AO2 LTG DSNT ALQDS TSB05 P0003 T02390194,M
BVU,2023-09-02 01:15,-114.8611,35.9475,671.00,73.40,66.20,78.19,160.00,15.00,0.00,29.97,M,10.00,M,FEW,BKN,OVC,M,2600.00,3700.00,9500.00,M,M,M,M,M,M,M,M,73.40,KBVU 020115Z AUTO 16015KT 10SM FEW026 BKN037 OVC095 23/19 A2997 RMK AO2 LTG DSNT E AND W,M
CXP,2023-09-02 01:15,-119.7326,39.1923,1431.00,59.00,44.60,58.77,250.00,7.00,0.00,29.94,M,10.00,15.00,FEW,OVC,M,M,5000.00,7000.00,M,M,-RA,M,M,M,M,M,M,59.00,KCXP 020115Z AUTO 25007G15KT 10SM -RA FEW050 OVC070 15/07 A2994 RMK AO2,M
RTS,2023-09-02 01:15,-119.8764,39.6682,1539.00,60.80,42.80,51.45,210.00,13.00,0.00,29.94,M,10.00,M,SCT,OVC,M,M,3600.00,4400.00,M,M,M,M,M,M,M,M,M,60.80,KRTS 020115Z AUTO 21013KT 10SM SCT036 OVC044 16/06 A2994 RMK AO2,M
MEV,2023-09-02 01:15,-119.7500,38.9963,1441.42,60.80,39.20,44.76,200.00,13.00,0.00,29.91,M,10.00,M,BKN,OVC,M,M,6500.00,7000.00,M,M,M,M,M,M,M,M,M,60.80,KMEV 020115Z AUTO 20013KT 10SM BKN065 OVC070 16/04 A2991 RMK AO2,M
BAM,2023-09-02 01:15,-116.8743,40.5990,1382.36,77.00,37.40,23.93,340.00,18.00,0.00,29.81,M,10.00,25.00,CLR,M,M,M,M,M,M,M,M,M,M,M,M,M,M,77.00,KBAM 020115Z AUTO 34018G25KT 10SM CLR 25/03 A2981 RMK AO1,M
HTH,2023-09-02 01:15,-118.6315,38.5448,1282.89,78.80,37.40,22.54,320.00,18.00,0.00,29.80,M,10.00,29.00,CLR,M,M,M,M,M,M,M,M,M,M,M,M,M,M,78.80,KHTH 020115Z AUTO 32018G29KT 10SM CLR 26/03 A2980 RMK A01,M
10U,2023-09-02 01:15,-116.1876,41.9532,1637.00,75.20,39.20,27.26,30.00,13.00,0.00,29.85,M,10.00,21.00,CLR,M,M,M,M,M,M,M,M,M,M,M,M,M,M,75.20,K10U 020115Z AUTO 03013G21KT 10SM CLR 24/04 A2985 RMK AO2,M
TMT,2023-09-02 01:15,-117.1971,39.4643,1749.34,75.20,35.60,23.66,220.00,7.00,0.00,29.89,M,M,M,OVC,M,M,M,11000.00,M,M,M,M,M,M,M,M,M,M,75.20,KTMT 020115Z AUTO 22007KT OVC110 24/02 A2989 RMK AO2 T02400020 PWINO,M
INS,2023-09-02 01:18,-115.6733,36.5872,955.00,69.80,62.60,77.90,90.00,25.00,0.00,29.92,1009.20,10.00,M,SCT,OVC,M,M,5000.00,9500.00,M,M,TS,M,M,M,M,M,M,69.80,KINS 020118Z AUTO 09025KT 10SM TS SCT050 OVC095 21/17 A2992 RMK AO2 RAE03DZB03E05RAB05E18 TSB04 SLP092 $,M
VGT,2023-09-02 01:19,-115.1933,36.2111,667.00,74.00,67.00,78.78,130.00,3.00,0.12,29.96,M,1.75,M,FEW,BKN,OVC,M,2700.00,5500.00,7500.00,M,+TSRA,M,M,M,M,M,M,74.00,KVGT 020119Z 13003KT 1 3/4SM +TSRA FEW027 BKN055 OVC075 23/19 A2996 RMK AO2 LTG DSNT ALQDS TSB05 P0012 T02330194,M
INS,2023-09-02 01:20,-115.6733,36.5872,955.00,69.80,62.60,77.90,100.00,23.00,0.00,29.92,1009.20,10.00,M,SCT,OVC,M,M,5000.00,9500.00,M,M,TS -DZ,M,M,M,M,M,M,69.80,KINS 020120Z AUTO 10023KT 10SM TS -DZ SCT050 OVC095 21/17 A2992 RMK AO2 RAE03DZB03E05RAB05E18DZB20 TSB04 SLP092 $,M
LSV,2023-09-02 01:22,-115.0343,36.2362,570.00,71.60,71.60,100.00,10.00,10.00,0.00,29.92,1011.50,3.00,M,SCT,BKN,BKN,M,2400.00,3200.00,8000.00,M,VCTS +RA BR,M,M,M,M,M,M,71.60,KLSV 020122Z AUTO 01010KT 3SM VCTS +RA BR SCT024 BKN032 BKN080 22/22 A2992 RMK AO2 RAB06 SLP115 $,M
LSV,2023-09-02 01:23,-115.0343,36.2362,570.00,71.60,71.60,100.00,20.00,10.00,0.00,29.93,1011.80,2.00,M,SCT,BKN,M,M,2400.00,3200.00,M,M,VCTS +RA BR,M,M,M,M,M,M,71.60,KLSV 020123Z AUTO 02010KT 2SM VCTS +RA BR SCT024 BKN032 22/22 A2993 RMK AO2 VIS 2V10 RAB06 SLP118 $,M
LSV,2023-09-02 01:24,-115.0343,36.2362,570.00,71.60,71.60,100.00,30.00,8.00,0.00,29.93,1011.80,1.00,M,SCT,BKN,M,M,2400.00,3200.00,M,M,VCTS +RA BR,M,M,M,M,M,M,71.60,KLSV 020124Z AUTO 03008KT 1SM R21L/3500VP6000FT VCTS +RA BR SCT024 BKN032 22/22 A2993 RMK AO2 VIS 1V10 RAB06 SLP118 $,M
LSV,2023-09-02 01:25,-115.0343,36.2362,570.00,71.60,71.60,100.00,30.00,7.00,0.00,29.93,1011.80,1.00,M,BKN,BKN,M,M,2500.00,3200.00,M,M,VCTS +RA BR,M,M,M,M,M,M,71.60,KLSV 020125Z AUTO 03007KT 1SM R21L/3500VP6000FT VCTS +RA BR BKN025 BKN032 22/22 A2993 RMK AO2 VIS 1V9 RAB06 CIG 025V085 SLP118 $,M
LSV,2023-09-02 01:26,-115.0343,36.2362,570.00,71.60,71.60,100.00,30.00,7.00,0.00,29.93,1011.80,1.12,M,BKN,BKN,M,M,2500.00,3200.00,M,M,VCTS +RA BR,M,M,M,M,M,M,71.60,KLSV 020126Z AUTO 03007KT 1 1/8SM VCTS +RA BR BKN025 BKN032 22/22 A2993 RMK AO2 VIS 1V8 RAB06 CIG 025V085 SLP118 $,M
VGT,2023-09-02 01:27,-115.1933,36.2111,667.00,73.00,68.00,84.34,80.00,9.00,0.18,29.97,M,1.25,M,FEW,BKN,OVC,M,2700.00,3500.00,6500.00,M,+TSRA,M,M,M,M,M,M,73.00,KVGT 020127Z 08009KT 1 1/4SM +TSRA FEW027 BKN035 OVC065 23/20 A2997 RMK AO2 LTG DSNT ALQDS TSB05 P0018 T02280200,M
LSV,2023-09-02 01:27,-115.0343,36.2362,570.00,71.60,69.80,94.06,30.00,6.00,0.00,29.93,1011.80,1.38,M,BKN,BKN,M,M,2500.00,3200.00,M,M,VCTS +RA BR,M,M,M,M,M,M,71.60,KLSV 020127Z AUTO 03006KT 1 3/8SM VCTS +RA BR BKN025 BKN032 22/21 A2993 RMK AO2 VIS 1V7 RAB06 CIG 025V085 SLP118 $,M
LSV,2023-09-02 01:28,-115.0343,36.2362,570.00,71.60,69.80,94.06,30.00,6.00,0.00,29.94,1012.20,1.50,M,BKN,BKN,M,M,2500.00,3200.00,M,M,VCTS +RA BR,M,M,M,M,M,M,71.60,KLSV 020128Z AUTO 03006KT 1 1/2SM VCTS +RA BR BKN025 BKN032 22/21 A2994 RMK AO2 VIS 1V6 RAB06 CIG 025V085 SLP122 $,M
INS,2023-09-02 01:29,-115.6733,36.5872,955.00,69.80,62.60,77.90,90.00,22.00,0.00,29.92,1009.20,10.00,30.00,FEW,OVC,M,M,3100.00,10000.00,M,M,-DZ,M,M,M,M,M,M,69.80,KINS 020129Z AUTO 09022G30KT 10SM -DZ FEW031 OVC100 21/17 A2992 RMK AO2 LTG DSNT NE-SE RAE03DZB03E05RAB05E18DZB20 TSB04E29 SLP092 $,M
LSV,2023-09-02 01:29,-115.0343,36.2362,570.00,71.60,69.80,94.06,40.00,6.00,0.00,29.94,1012.20,1.75,M,BKN,BKN,M,M,2500.00,3200.00,M,M,VCTS +RA BR,M,M,M,M,M,M,71.60,KLSV 020129Z AUTO 04006KT 1 3/4SM VCTS +RA BR BKN025 BKN032 22/21 A2994 RMK AO2 VIS 1V5 RAB06 CIG 025V080 SLP122 $,M
VGT,2023-09-02 01:30,-115.1933,36.2111,667.00,73.00,68.00,84.34,100.00,8.00,0.20,29.97,M,2.50,M,SCT,BKN,OVC,M,2500.00,3700.00,5500.00,M,TSRA,M,M,M,M,M,M,73.00,KVGT 020130Z 10008KT 2 1/2SM TSRA SCT025 BKN037 OVC055 23/20 A2997 RMK AO2 LTG DSNT ALQDS TSB05 P0020 T02280200,M
05U,2023-09-02 01:30,-116.0051,39.6042,1811.23,71.60,51.80,49.64,M,M,0.00,29.96,M,10.00,M,FEW,M,M,M,12000.00,M,M,M,M,M,M,M,M,M,M,71.60,K05U 020130Z AUTO 10SM FEW120 22/11 A2996 RMK A01,M
INS,2023-09-02 01:32,-115.6733,36.5872,955.00,69.80,62.60,77.90,90.00,22.00,0.00,29.92,1009.20,10.00,30.00,FEW,OVC,M,M,3700.00,10000.00,M,M,M,M,M,M,M,M,M,69.80,KINS 020132Z AUTO 09022G30KT 10SM FEW037 OVC100 21/17 A2992 RMK AO2 LTG DSNT NE-SE RAE03DZB03E05RAB05E18DZB20E32 TSB04E29 SLP092 $,M
INS,2023-09-02 01:33,-115.6733,36.5872,955.00,69.80,62.60,77.90,90.00,24.00,0.00,29.92,1009.20,10.00,30.00,FEW,OVC,M,M,3700.00,10000.00,M,M,-DZ,M,M,M,M,M,M,69.80,KINS 020133Z AUTO 09024G30KT 10SM -DZ FEW037 OVC100 21/17 A2992 RMK AO2 LTG DSNT NE-SE RAE03DZB03E05RAB05E18DZB20E32DZB33 TSB04E29 SLP092 $,M
LSV,2023-09-02 01:33,-115.0343,36.2362,570.00,69.80,69.80,100.00,70.00,8.00,0.00,29.94,1012.30,1.62,M,BKN,BKN,M,M,2500.00,3200.00,M,M,VCTS +RA BR,M,M,M,M,M,M,69.80,KLSV 020133Z AUTO 07008KT 1 5/8SM VCTS +RA BR BKN025 BKN032 21/21 A2994 RMK AO2 VIS 1V1 3/4 RAB06 CIG 025V032 SLP123 $,M
BVU,2023-09-02 01:35,-114.8611,35.9475,671.00,71.60,64.40,78.04,190.00,12.00,0.00,29.99,M,2.50,26.00,FEW,SCT,BKN,M,300.00,2700.00,3800.00,M,RA,M,M,M,M,M,M,71.60,KBVU 020135Z AUTO 19012G26KT 2 1/2SM RA FEW003 SCT027 BKN038 22/18 A2999 RMK AO2 LTG DSNT NW,M
CXP,2023-09-02 01:35,-119.7326,39.1923,1431.00,59.00,44.60,58.77,230.00,8.00,0.00,29.94,M,9.00,14.00,FEW,OVC,M,M,5000.00,7000.00,M,M,-RA,M,M,M,M,M,M,59.00,KCXP 020135Z AUTO 23008G14KT 9SM -RA FEW050 OVC070 15/07 A2994 RMK AO2,M
RTS,2023-09-02 01:35,-119.8764,39.6682,1539.00,60.80,41.00,48.00,210.00,12.00,0.00,29.95,M,10.00,19.00,FEW,SCT,BKN,M,4200.00,4900.00,5500.00,M,M,M,M,M,M,M,M,60.80,KRTS 020135Z AUTO 21012G19KT 10SM FEW042 SCT049 BKN055 16/05 A2995 RMK AO2,M
MEV,2023-09-02 01:35,-119.7500,38.9963,1441.42,59.00,42.80,54.86,260.00,9.00,0.00,29.92,M,10.00,16.00,BKN,OVC,M,M,6000.00,7500.00,M,M,M,M,M,M,M,M,M,59.00,KMEV 020135Z AUTO 26009G16KT 10SM BKN060 OVC075 15/06 A2992 RMK AO2,M
BAM,2023-09-02 01:35,-116.8743,40.5990,1382.36,73.40,37.40,26.98,350.00,20.00,0.00,29.81,M,10.00,26.00,SCT,M,M,M,12000.00,M,M,M,M,M,M,M,M,M,M,73.40,KBAM 020135Z AUTO 35020G26KT 10SM SCT120 23/03 A2981 RMK AO1,M
HTH,2023-09-02 01:35,-118.6315,38.5448,1282.89,77.00,35.60,22.28,310.00,16.00,0.00,29.81,M,10.00,28.00,CLR,M,M,M,M,M,M,M,M,M,M,M,M,M,M,77.00,KHTH 020135Z AUTO 31016G28KT 10SM CLR 25/02 A2981 RMK A01,M
TMT,2023-09-02 01:35,-117.1971,39.4643,1749.34,74.50,29.50,18.95,210.00,8.00,0.00,29.89,M,M,M,OVC,M,M,M,11000.00,M,M,M,M,M,M,M,M,M,M,74.50,KTMT 020135Z AUTO 21008KT OVC110 24/M01 A2989 RMK AO2 T02361014 PWINO,M
10U,2023-09-02 01:35,-116.1876,41.9532,1637.00,73.40,39.20,28.96,20.00,14.00,0.00,29.86,M,10.00,19.00,FEW,M,M,M,12000.00,M,M,M,M,M,M,M,M,M,M,73.40,K10U 020135Z AUTO 02014G19KT 10SM FEW120 23/04 A2986 RMK AO2,M
VGT,2023-09-02 01:37,-115.1933,36.2111,667.00,72.00,68.00,87.24,90.00,11.00,0.31,29.97,M,3.00,M,FEW,BKN,OVC,M,1900.00,3000.00,4100.00,M,+TSRA BR,M,M,M,M,M,M,72.00,KVGT 020137Z 09011KT 3SM +TSRA BR FEW019 BKN030 OVC041 22/20 A2997 RMK AO2 LTG DSNT ALQDS TSB05 P0031 T02220200,M
LSV,2023-09-02 01:38,-115.0343,36.2362,570.00,71.60,69.80,94.06,20.00,10.00,0.00,29.94,1012.20,1.75,M,FEW,BKN,BKN,M,1400.00,2500.00,3200.00,M,VCTS +RA BR,M,M,M,M,M,M,71.60,KLSV 020138Z AUTO 02010KT 1 3/4SM VCTS +RA BR FEW014 BKN025 BKN032 22/21 A2994 RMK AO2 RAB06 SLP122 $,M
LSV,2023-09-02 01:39,-115.0343,36.2362,570.00,71.60,69.80,94.06,20.00,9.00,0.00,29.94,1012.20,2.25,M,FEW,BKN,OVC,M,1400.00,2500.00,3200.00,M,VCTS RA BR,M,M,M,M,M,M,71.60,KLSV 020139Z AUTO 02009KT 2 1/4SM VCTS RA BR FEW014 BKN025 OVC032 22/21 A2994 RMK AO2 VIS 1 1/2V2 1/4 RAB06 SLP122 $,M
LSV,2023-09-02 01:40,-115.0343,36.2362,570.00,71.60,69.80,94.06,20.00,8.00,0.00,29.94,1012.20,3.00,M,FEW,FEW,BKN,OVC,1200.00,1700.00,2500.00,3200.00,VCTS RA BR,M,M,M,M,M,M,71.60,KLSV 020140Z AUTO 02008KT 3SM VCTS RA BR FEW012 FEW017 BKN025 OVC032 22/21 A2994 RMK AO2 RAB06 SLP122 $,M
HND,2023-09-02 01:41,-115.1344,35.9729,742.79,71.60,64.40,78.04,190.00,15.00,0.01,29.98,M,10.00,19.00,BKN,OVC,M,M,9000.00,11000.00,M,M,-RA,M,M,M,33.00,140.00,2023-09-02 01:12,71.60,KHND 020141Z 19015G19KT 10SM -RA BKN090 OVC110 22/18 A2998 RMK AO2 PK WND 14033/0112 LTG DSNT ALQDS TSE35 P0001,M
LSV,2023-09-02 01:41,-115.0343,36.2362,570.00,71.60,69.80,94.06,20.00,7.00,0.00,29.94,1012.20,4.00,M,FEW,FEW,OVC,M,1200.00,1700.00,2400.00,M,VCTS -RA BR,M,M,M,M,M,M,71.60,KLSV 020141Z AUTO 02007KT 4SM VCTS -RA BR FEW012 FEW017 OVC024 22/21 A2994 RMK AO2 RAB06 SLP122 $,M
05U,2023-09-02 01:50,-116.0051,39.6042,1811.23,69.80,53.60,56.38,M,M,0.00,29.97,M,10.00,M,SCT,M,M,M,12000.00,M,M,M,M,M,M,M,M,M,M,69.80,K05U 020150Z AUTO 10SM SCT120 21/12 A2997 RMK A01,M
INS,2023-09-02 01:51,-115.6733,36.5872,955.00,68.00,60.80,77.75,80.00,26.00,0.00,29.94,1010.00,10.00,34.00,OVC,M,M,M,9500.00,M,M,M,VCTS,M,M,M,M,M,M,68.00,KINS 020151Z AUTO 08026G34KT 10SM VCTS OVC095 20/16 A2994 RMK AO2 RAE03DZB03E05RAB05E18DZB20E32DZB33E35RAB35E44DZB44E51 TSB04E29 PRESRR SLP100 $,M
INS,2023-09-02 01:53,-115.6733,36.5872,955.00,68.00,60.80,77.75,80.00,28.00,0.00,29.94,1010.00,10.00,34.00,OVC,M,M,M,10000.00,M,M,M,VCTS -RA,M,M,M,M,M,M,68.00,KINS 020153Z AUTO 08028G34KT 10SM VCTS -RA OVC100 20/16 A2994 RMK AO2 RAE03DZB03E05RAB05E18DZB20E32DZB33E35RAB35E44DZB44E51RAB53 TSB04E29 SLP100 $,M
P68,2023-09-02 01:53,-116.0056,39.6014,1993.00,69.00,53.00,56.69,140.00,23.00,0.00,29.95,1006.80,M,33.00,M,M,M,M,M,M,M,M,M,M,M,M,33.00,130.00,2023-09-02 01:49,69.00,KP68 020153Z AUTO 14023G33KT 21/12 A2995 RMK AO1 PK WND 13033/0149 SLP068 T02060117,M
DRA,2023-09-02 01:53,-116.0278,36.6206,1009.00,77.00,58.00,51.90,120.00,10.00,0.00,29.90,1007.70,10.00,M,SCT,M,M,M,9000.00,M,M,M,M,M,M,M,M,M,M,77.00,KDRA 020153Z AUTO 12010KT 10SM SCT090 25/14 A2990 RMK AO2 SLP077 T02500144,M
ELY,2023-09-02 01:53,-114.8453,39.2950,1909.00,62.00,51.00,67.18,170.00,20.00,0.00,30.08,1009.80,10.00,28.00,CLR,M,M,M,M,M,M,M,M,M,M,M,32.00,170.00,2023-09-02 01:00,62.00,KELY 020153Z AUTO 17020G28KT 10SM CLR 17/11 A3008 RMK AO2 PK WND 17032/0100 SLP098 T01670106,M
VGT,2023-09-02 01:53,-115.1933,36.2111,667.00,72.00,68.00,87.24,120.00,15.00,0.38,29.97,1014.90,8.00,22.00,SCT,BKN,OVC,M,2300.00,3500.00,8000.00,M,-TSRA,M,M,M,M,M,M,72.00,KVGT 020153Z 12015G22KT 8SM -TSRA SCT023 BKN035 OVC080 22/20 A2997 RMK AO2 LTG DSNT ALQDS TSB05 SLP149 P0038 T02220200,M
LOL,2023-09-02 01:53,-118.5701,40.0684,1192.43,66.00,45.00,46.62,310.00,10.00,0.00,29.87,1008.90,10.00,20.00,CLR,M,M,M,M,M,M,M,M,M,M,M,M,M,M,66.00,KLOL 020153Z AUTO 31010G20KT 10SM CLR 19/07 A2987 RMK AO2 SLP089 T01890072,M
BVU,2023-09-02 01:55,-114.8611,35.9475,671.00,69.80,66.20,88.34,220.00,6.00,0.00,29.99,M,6.00,M,FEW,BKN,OVC,M,300.00,3600.00,7000.00,M,-RA,M,M,M,M,M,M,69.80,KBVU 020155Z AUTO 22006KT 6SM -RA FEW003 BKN036 OVC070 21/19 A2999 RMK AO2 LTG DSNT E AND W AND NW,M
CXP,2023-09-02 01:55,-119.7326,39.1923,1431.00,57.20,48.20,71.83,160.00,3.00,0.02,29.95,M,5.00,M,FEW,BKN,OVC,M,3000.00,5000.00,7000.00,M,-RA HZ,M,M,M,M,M,M,57.20,KCXP 020155Z AUTO 16003KT 5SM -RA HZ FEW030 BKN050 OVC070 14/09 A2995 RMK AO2 P0002,M
RNO,2023-09-02 01:55,-119.7711,39.4839,1341.00,58.00,50.00,74.64,140.00,5.00,T,29.93,1009.30,10.00,M,BKN,BKN,M,M,5000.00,8000.00,M,M,-RA,M,M,M,M,M,M,58.00,KRNO 020155Z 14005KT 10SM -RA BKN050 BKN080 14/10 A2993 RMK AO2 SLP093 P0000 T01440100,M
RTS,2023-09-02 01:55,-119.8764,39.6682,1539.00,59.00,41.00,51.18,240.00,13.00,0.00,29.94,M,10.00,20.00,BKN,OVC,M,M,4800.00,6000.00,M,M,M,M,M,M,M,M,M,59.00,KRTS 020155Z AUTO 24013G20KT 10SM BKN048 OVC060 15/05 A2994 RMK AO2,M
MEV,2023-09-02 01:55,-119.7500,38.9963,1441.42,59.00,42.80,54.86,240.00,7.00,0.00,29.92,M,10.00,M,FEW,BKN,OVC,M,6500.00,7500.00,8500.00,M,M,M,M,M,M,M,M,59.00,KMEV 020155Z AUTO 24007KT 10SM FEW065 BKN075 OVC085 15/06 A2992 RMK AO2,M
BAM,2023-09-02 01:55,-116.8743,40.5990,1382.36,71.60,39.20,30.77,340.00,21.00,0.00,29.82,M,10.00,29.00,SCT,M,M,M,12000.00,M,M,M,M,M,M,M,M,M,M,71.60,KBAM 020155Z AUTO 34021G29KT 10SM SCT120 22/04 A2982 RMK AO1,M
HTH,2023-09-02 01:55,-118.6315,38.5448,1282.89,75.20,39.20,27.26,290.00,10.00,0.00,29.82,M,10.00,21.00,CLR,M,M,M,M,M,M,M,M,M,M,M,M,M,M,75.20,KHTH 020155Z AUTO 29010G21KT 240V350 10SM CLR 24/04 A2982 RMK A01,M
TMT,2023-09-02 01:55,-117.1971,39.4643,1749.34,72.50,31.50,21.98,240.00,5.00,0.00,29.90,M,M,M,BKN,M,M,M,11000.00,M,M,M,M,M,M,M,M,M,M,72.50,KTMT 020155Z AUTO 24005KT BKN110 23/00 A2990 RMK AO2 T02251003 PWINO,M
INS,2023-09-02 01:55,-115.6733,36.5872,955.00,67.50,60.30,77.71,80.00,28.00,T,29.94,1010.00,10.00,34.00,OVC,M,M,M,10000.00,M,M,M,VCTS -RA,M,M,M,35.00,80.00,2023-09-02 00:58,67.50,KINS 020155Z AUTO 08028G34KT 10SM VCTS -RA OVC100 20/16 A2994 RMK AO2 PK WND 08035/0058 RAE03DZB03E05RAB05E18DZB20E32DZB33E35RAB35E44DZB44E51RAB53 TSB04E29 SLP100 P0000 T01970157 $,M
LSV,2023-09-02 01:55,-115.0343,36.2362,570.00,70.30,70.00,98.98,20.00,7.00,0.39,29.94,1012.30,8.00,M,FEW,SCT,OVC,M,700.00,1300.00,2200.00,M,RA,M,M,M,M,M,M,70.30,KLSV 020155Z AUTO 02007KT 8SM RA FEW007 SCT013 OVC022 21/21 A2994 RMK AO2 LTG DSNT N RAB06E47DZB47E52RAB52 SLP123 P0039 T02130211 $,M
EKO,2023-09-02 01:56,-115.7860,40.8242,1367.00,73.00,51.00,45.96,170.00,22.00,0.04,29.84,1005.80,10.00,34.00,FEW,FEW,BKN,M,2400.00,9500.00,11000.00,M,M,M,M,M,34.00,160.00,2023-09-02 01:50,73.00,KEKO 020156Z AUTO 17022G34KT 10SM FEW024 FEW095 BKN110 23/11 A2984 RMK AO2 PK WND 16034/0150 LTG DSNT N AND NE RAB27E46 SLP058 P0004 T02280106,M
WMC,2023-09-02 01:56,-117.8072,40.9019,1315.00,65.00,44.00,46.47,280.00,8.00,0.00,29.89,1008.30,10.00,M,CLR,M,M,M,M,M,M,M,M,M,M,M,M,M,M,65.00,KWMC 020156Z AUTO 28008KT 10SM CLR 18/07 A2989 RMK AO2 SLP083 T01830067,M
NFL,2023-09-02 01:56,-118.7010,39.4166,1199.00,67.00,45.00,45.04,350.00,10.00,0.00,29.86,1008.70,10.00,M,FEW,BKN,BKN,M,6000.00,9000.00,14000.00,M,M,M,M,M,M,M,M,67.00,KNFL 020156Z 35010KT 10SM FEW060 BKN090 BKN140 19/07 A2986 RMK AO2 SLP087 SH VC NW T01940072,M
HND,2023-09-02 01:56,-115.1344,35.9729,742.79,70.00,64.00,81.27,210.00,17.00,0.01,29.99,1015.30,10.00,M,FEW,OVC,M,M,7500.00,9000.00,M,M,-RA,M,M,M,33.00,140.00,2023-09-02 01:12,70.00,KHND 020156Z 21017KT 10SM -RA FEW075 OVC090 21/18 A2999 RMK AO2 PK WND 14033/0112 LTG DSNT W-NE TSE35 SLP153 P0001 T02110178,M
TPH,2023-09-02 01:56,-117.0904,38.0505,1654.00,74.00,51.00,44.44,170.00,25.00,0.00,29.94,1007.20,10.00,38.00,FEW,BKN,M,M,8000.00,11000.00,M,M,M,M,M,M,38.00,170.00,2023-09-02 01:54,74.00,KTPH 020156Z AUTO 17025G38KT 10SM FEW080 BKN110 23/11 A2994 RMK AO2 PK WND 17038/0154 SLP072 T02330106,M
LAS,2023-09-02 01:56,-115.1634,36.0719,663.00,76.00,73.00,90.44,60.00,9.00,0.00,29.98,1013.20,7.00,M,SCT,BKN,OVC,M,1900.00,3000.00,12000.00,M,TSRA,M,M,M,M,M,M,76.00,KLAS 020156Z 06009KT 7SM TSRA SCT019 BKN030CB OVC120 25/23 A2998 RMK AO2 LTG DSNT ALQDS RAB55 SLP132 OCNL LTGICCCCG ALQDS TS ALQDS MOV NE T02440228 PNO $,M
10U,2023-09-02 02:00,-116.1876,41.9532,1637.00,73.40,39.20,28.96,20.00,12.00,0.00,29.87,M,10.00,19.00,FEW,SCT,SCT,M,5000.00,8500.00,11000.00,M,M,M,M,M,M,M,M,73.40,K10U 020200Z AUTO 02012G19KT 10SM FEW050 SCT085 SCT110 23/04 A2987 RMK AO2,M
LSV,2023-09-02 02:00,-115.0343,36.2362,570.00,69.80,69.80,100.00,70.00,4.00,0.00,29.96,1013.00,2.75,M,FEW,SCT,OVC,M,700.00,1300.00,2200.00,M,+RA BR,M,M,M,M,M,M,69.80,KLSV 020200Z AUTO 07004KT 2 3/4SM +RA BR FEW007 SCT013 OVC022 21/21 A2996 RMK AO2 VIS 2 3/4V10 PRESRR SLP130 $,M
LSV,2023-09-02 02:02,-115.0343,36.2362,570.00,69.80,69.80,100.00,180.00,10.00,0.00,29.97,1013.30,2.25,M,FEW,SCT,OVC,M,700.00,1300.00,2200.00,M,+RA BR,M,M,M,M,M,M,69.80,KLSV 020202Z AUTO 18010KT 2 1/4SM +RA BR FEW007 SCT013 OVC022 21/21 A2997 RMK AO2 VIS 2 1/4V9 SLP133 $,M
VGT,2023-09-02 02:04,-115.1933,36.2111,667.00,72.00,66.00,81.41,120.00,12.00,T,29.98,M,8.00,22.00,SCT,BKN,OVC,M,2900.00,7000.00,8500.00,M,VCTS -RA,M,M,M,M,M,M,72.00,KVGT 020204Z 12012G22KT 8SM VCTS -RA SCT029 BKN070 OVC085 22/19 A2998 RMK AO2 LTG DSNT ALQDS TSE0158 P0000 T02220189,M
LSV,2023-09-02 02:05,-115.0343,36.2362,570.00,69.80,69.80,100.00,210.00,9.00,0.00,29.96,1013.00,2.00,M,FEW,SCT,OVC,M,700.00,1200.00,2200.00,M,+RA BR,M,M,M,M,M,M,69.80,KLSV 020205Z AUTO 21009KT 2SM +RA BR FEW007 SCT012 OVC022 21/21 A2996 RMK AO2 VIS 2V6 SLP130 $,M
LSV,2023-09-02 02:06,-115.0343,36.2362,570.00,69.80,69.80,100.00,200.00,9.00,0.00,29.96,1013.00,2.25,M,FEW,SCT,BKN,OVC,600.00,1200.00,2000.00,2600.00,+RA BR,M,M,M,M,M,M,69.80,KLSV 020206Z AUTO 20009KT 2 1/4SM +RA BR FEW006 SCT012 BKN020 OVC026 21/21 A2996 RMK AO2 VIS 2V5 BKN V OVC SLP130 $,M
LSV,2023-09-02 02:07,-115.0343,36.2362,570.00,69.80,69.80,100.00,190.00,10.00,0.00,29.96,1013.00,2.75,M,FEW,SCT,BKN,OVC,600.00,1400.00,2200.00,3200.00,+RA BR,M,M,M,M,M,M,69.80,KLSV 020207Z AUTO 19010KT 2 3/4SM +RA BR FEW006 SCT014 BKN022 OVC032 21/21 A2996 RMK AO2 VIS 2V4 BKN V OVC SLP130 $,M
LAS,2023-09-02 02:10,-115.1634,36.0719,663.00,76.00,73.00,90.44,150.00,14.00,0.00,29.99,M,10.00,M,SCT,BKN,OVC,M,1900.00,3000.00,12000.00,M,-TSRA,M,M,M,M,M,M,76.00,KLAS 020210Z 15014KT 10SM -TSRA SCT019 BKN030CB OVC120 24/23 A2999 RMK AO2 LTG DSNT ALQDS OCNL LTGICCCCG ALQDS TS ALQDS MOV NE T02440228 PNO,M
05U,2023-09-02 02:10,-116.0051,39.6042,1811.23,68.00,51.80,56.13,M,M,0.00,29.98,M,10.00,M,BKN,M,M,M,12000.00,M,M,M,M,M,M,M,M,M,M,68.00,K05U 020210Z AUTO 10SM BKN120 20/11 A2998 RMK A01,M
LSV,2023-09-02 02:10,-115.0343,36.2362,570.00,69.80,69.80,100.00,200.00,6.00,0.00,29.96,M,3.00,M,FEW,FEW,SCT,BKN,600.00,1200.00,1900.00,2400.00,+RA BR,M,M,M,M,M,M,69.80,KLSV 020210Z AUTO 20006KT 3SM +RA BR FEW006 FEW012 SCT019 BKN024 OVC035 21/21 A2996 RMK AO2 SLPNO $,M
LSV,2023-09-02 02:11,-115.0343,36.2362,570.00,69.80,69.80,100.00,200.00,7.00,0.00,29.97,M,4.00,M,FEW,FEW,BKN,OVC,600.00,1200.00,2200.00,4000.00,+RA BR,M,M,M,M,M,M,69.80,KLSV 020211Z AUTO 20007KT 4SM +RA BR FEW006 FEW012 BKN022 OVC040 21/21 A2997 RMK AO2 BKN V OVC SLPNO $,M
VGT,2023-09-02 02:13,-115.1933,36.2111,667.00,73.00,66.00,78.70,180.00,9.00,T,30.00,M,10.00,21.00,SCT,BKN,OVC,M,4700.00,6000.00,8000.00,M,-TSRA,M,M,M,M,M,M,73.00,KVGT 020213Z 18009G21KT 140V240 10SM -TSRA SCT047 BKN060 OVC080 23/19 A3000 RMK AO2 LTG DSNT ALQDS TSE0158B07 PRESRR P0000 T02280189,M
BVU,2023-09-02 02:15,-114.8611,35.9475,671.00,69.80,66.20,88.34,230.00,5.00,0.00,30.00,M,4.00,M,FEW,BKN,OVC,M,300.00,3200.00,8000.00,M,-RA,M,M,M,M,M,M,69.80,KBVU 020215Z AUTO 23005KT 4SM -RA FEW003 BKN032 OVC080 21/19 A3000 RMK AO2 LTG DSNT N AND E AND W,M
CXP,2023-09-02 02:15,-119.7326,39.1923,1431.00,55.40,48.20,76.66,0.00,0.00,0.00,29.96,M,3.00,M,SCT,BKN,OVC,M,3800.00,4800.00,7000.00,M,-RA HZ,M,M,M,M,M,M,55.40,KCXP 020215Z AUTO 00000KT 3SM -RA HZ SCT038 BKN048 OVC070 13/09 A2996 RMK AO2,M
RTS,2023-09-02 02:15,-119.8764,39.6682,1539.00,59.00,41.00,51.18,220.00,12.00,0.00,29.95,M,10.00,18.00,FEW,BKN,BKN,M,4900.00,6000.00,12000.00,M,M,M,M,M,M,M,M,59.00,KRTS 020215Z AUTO 22012G18KT 10SM FEW049 BKN060 BKN120 15/05 A2995 RMK AO2,M
MEV,2023-09-02 02:15,-119.7500,38.9963,1441.42,59.00,41.00,51.18,220.00,23.00,0.00,29.93,M,10.00,28.00,BKN,OVC,M,M,7000.00,7500.00,M,M,M,M,M,M,M,M,M,59.00,KMEV 020215Z AUTO 22023G28KT 10SM BKN070 OVC075 15/05 A2993 RMK AO2,M
BAM,2023-09-02 02:15,-116.8743,40.5990,1382.36,71.60,39.20,30.77,340.00,18.00,0.00,29.84,M,10.00,27.00,SCT,M,M,M,11000.00,M,M,M,M,M,M,M,M,M,M,71.60,KBAM 020215Z AUTO 34018G27KT 10SM SCT110 22/04 A2984 RMK AO1,M
HTH,2023-09-02 02:15,-118.6315,38.5448,1282.89,73.40,39.20,28.96,270.00,12.00,0.00,29.84,M,10.00,23.00,M,M,M,M,M,M,M,M,M,M,M,M,M,M,M,73.40,KHTH 020215Z AUTO 27012G23KT 10SM 23/04 A2984 RMK A01,M
LSV,2023-09-02 02:15,-115.0343,36.2362,570.00,69.80,69.80,100.00,200.00,8.00,0.00,29.97,1013.30,6.00,M,FEW,FEW,SCT,BKN,600.00,1200.00,2200.00,4000.00,-RA BR,M,M,M,M,M,M,69.80,KLSV 020215Z AUTO 20008KT 6SM -RA BR FEW006 FEW012 SCT022 BKN040 OVC050 21/21 A2997 RMK AO2 SLP133 $,M
TMT,2023-09-02 02:15,-117.1971,39.4643,1749.34,71.20,32.40,23.82,260.00,3.00,0.00,29.92,M,M,M,OVC,M,M,M,10000.00,M,M,M,M,M,M,M,M,M,M,71.20,KTMT 020215Z AUTO 26003KT OVC100 22/00 A2992 RMK AO2 T02180002 PWINO,M
10U,2023-09-02 02:20,-116.1876,41.9532,1637.00,64.40,48.20,55.63,50.00,12.00,0.00,29.87,M,7.00,19.00,FEW,FEW,SCT,M,5500.00,6500.00,11000.00,M,-RA,M,M,M,M,M,M,64.40,K10U 020220Z AUTO 05012G19KT 7SM -RA FEW055 FEW065 SCT110 18/09 A2987 RMK AO2,M
VGT,2023-09-02 02:22,-115.1933,36.2111,667.00,66.00,63.00,90.05,300.00,29.00,0.14,30.00,M,1.75,37.00,FEW,BKN,OVC,M,1600.00,3300.00,9000.00,M,+TSRA BR,M,M,M,37.00,300.00,2023-09-02 02:22,66.00,KVGT 020222Z 30029G37KT 1 3/4SM +TSRA BR FEW016 BKN033 OVC090 19/17 A3000 RMK AO2 PK WND 30037/0222 LTG DSNT ALQDS TSE0158B07 P0014 T01890172,M
VGT,2023-09-02 02:26,-115.1933,36.2111,667.00,65.00,62.00,90.01,300.00,21.00,0.40,30.00,M,0.75,37.00,SCT,BKN,OVC,M,1200.00,3300.00,7000.00,M,+TSRA BR,M,M,M,37.00,300.00,2023-09-02 02:22,65.00,KVGT 020226Z 30021G37KT 3/4SM +TSRA BR SCT012 BKN033 OVC070 18/17 A3000 RMK AO2 PK WND 30037/0222 LTG DSNT ALQDS TSE0158B07 P0040 T01830167,M
LSV,2023-09-02 02:26,-115.0343,36.2362,570.00,69.80,69.80,100.00,160.00,6.00,0.00,29.97,1013.30,9.00,M,FEW,FEW,SCT,BKN,2400.00,3300.00,4300.00,5000.00,-RA,M,M,M,M,M,M,69.80,KLSV 020226Z AUTO 16006KT 9SM -RA FEW024 FEW033 SCT043 BKN050 OVC080 21/21 A2997 RMK AO2 SLP133 $,M
LSV,2023-09-02 02:27,-115.0343,36.2362,570.00,69.80,69.80,100.00,150.00,6.00,0.00,29.97,1013.30,9.00,M,FEW,FEW,BKN,BKN,2400.00,3300.00,4300.00,5000.00,-RA,M,M,M,M,M,M,69.80,KLSV 020227Z AUTO 15006KT 9SM -RA FEW024 FEW033 BKN043 BKN050 OVC080 21/21 A2997 RMK AO2 SLP133 $,M
LSV,2023-09-02 02:29,-115.0343,36.2362,570.00,69.80,69.80,100.00,150.00,6.00,0.00,29.98,1013.70,10.00,M,FEW,SCT,BKN,BKN,3200.00,4600.00,5500.00,8000.00,-RA,M,M,M,M,M,M,69.80,KLSV 020229Z AUTO 15006KT 10SM -RA FEW032 SCT046 BKN055 BKN080 21/21 A2998 RMK AO2 SLP137 $,M
VGT,2023-09-02 02:31,-115.1933,36.2111,667.00,65.00,62.00,90.01,340.00,13.00,0.52,30.01,M,0.75,37.00,BKN,BKN,OVC,M,1400.00,2900.00,5000.00,M,+TSRA BR,M,M,M,37.00,300.00,2023-09-02 02:22,65.00,KVGT 020231Z 34013G37KT 3/4SM +TSRA BR BKN014 BKN029 OVC050 18/17 A3001 RMK AO2 PK WND 30037/0222 WSHFT 0214 LTG DSNT ALQDS TSE0158B07 P0052 T01830167 $,M
LSV,2023-09-02 02:31,-115.0343,36.2362,570.00,69.80,69.80,100.00,130.00,8.00,0.00,29.98,1013.70,10.00,M,FEW,FEW,BKN,BKN,2900.00,3400.00,4700.00,5500.00,-RA,M,M,M,M,M,M,69.80,KLSV 020231Z AUTO 13008KT 10SM -RA FEW029 FEW034 BKN047 BKN055 OVC080 21/21 A2998 RMK AO2 SLP137 $,M
LSV,2023-09-02 02:33,-115.0343,36.2362,570.00,69.80,69.80,100.00,150.00,9.00,0.00,29.98,1013.70,10.00,17.00,FEW,FEW,SCT,OVC,2900.00,3400.00,4100.00,5000.00,-RA,M,M,M,M,M,M,69.80,KLSV 020233Z AUTO 15009G17KT 10SM -RA FEW029 FEW034 SCT041 OVC050 21/21 A2998 RMK AO2 SLP137 $,M
BVU,2023-09-02 02:35,-114.8611,35.9475,671.00,69.80,66.20,88.34,180.00,5.00,0.00,30.00,M,10.00,M,SCT,OVC,M,M,2900.00,3400.00,M,M,VCTS RA,M,M,M,M,M,M,69.80,KBVU 020235Z AUTO 18005KT 10SM VCTS RA SCT029 OVC034 21/19 A3000 RMK AO2 LTG DSNT N AND E,M
CXP,2023-09-02 02:35,-119.7326,39.1923,1431.00,55.40,50.00,81.99,70.00,4.00,0.00,29.96,M,3.00,M,BKN,BKN,OVC,M,4000.00,4700.00,7000.00,M,-RA HZ,M,M,M,M,M,M,55.40,KCXP 020235Z AUTO 07004KT 3SM -RA HZ BKN040 BKN047 OVC070 13/10 A2996 RMK AO2,M
RTS,2023-09-02 02:35,-119.8764,39.6682,1539.00,57.20,46.40,67.12,120.00,8.00,0.00,29.96,M,10.00,13.00,FEW,BKN,BKN,M,4300.00,5500.00,6500.00,M,M,M,M,M,M,M,M,57.20,KRTS 020235Z AUTO 12008G13KT 10SM FEW043 BKN055 BKN065 14/08 A2996 RMK AO2,M
05U,2023-09-02 02:35,-116.0051,39.6042,1811.23,68.00,51.80,56.13,M,M,0.00,30.00,M,10.00,M,BKN,M,M,M,12000.00,M,M,M,M,M,M,M,M,M,M,68.00,K05U 020235Z AUTO 10SM BKN120 20/11 A3000 RMK A01,M
MEV,2023-09-02 02:35,-119.7500,38.9963,1441.42,59.00,41.00,51.18,200.00,13.00,0.00,29.93,M,9.00,21.00,FEW,BKN,OVC,M,5000.00,7000.00,9500.00,M,M,M,M,M,M,M,M,59.00,KMEV 020235Z AUTO 20013G21KT 9SM FEW050 BKN070 OVC095 15/05 A2993 RMK AO2,M
BAM,2023-09-02 02:35,-116.8743,40.5990,1382.36,69.80,39.20,32.72,350.00,15.00,0.00,29.87,M,10.00,21.00,CLR,M,M,M,M,M,M,M,M,M,M,M,M,M,M,69.80,KBAM 020235Z AUTO 35015G21KT 10SM CLR 21/04 A2987 RMK AO1,M
HTH,2023-09-02 02:35,-118.6315,38.5448,1282.89,73.40,41.00,31.05,330.00,18.00,0.00,29.85,M,10.00,M,CLR,M,M,M,M,M,M,M,M,M,M,M,M,M,M,73.40,KHTH 020235Z AUTO 33018KT 10SM CLR 23/05 A2985 RMK A01,M
10U,2023-09-02 02:35,-116.1876,41.9532,1637.00,66.20,46.40,48.83,50.00,9.00,0.00,29.88,M,10.00,19.00,FEW,FEW,M,M,6500.00,12000.00,M,M,M,M,M,M,M,M,M,66.20,K10U 020235Z AUTO 05009G19KT 10SM FEW065 FEW120 19/08 A2988 RMK AO2,M
TMT,2023-09-02 02:35,-117.1971,39.4643,1749.34,69.40,32.00,24.93,80.00,3.00,0.00,29.93,M,M,M,OVC,M,M,M,11000.00,M,M,M,M,M,M,M,M,M,M,69.40,KTMT 020235Z AUTO 08003KT OVC110 21/00 A2993 RMK AO2 LTG DSNT W T02080000 PWINO,M
VGT,2023-09-02 02:36,-115.1933,36.2111,667.00,64.00,61.00,89.97,360.00,11.00,0.64,30.01,M,1.00,M,BKN,BKN,OVC,M,1900.00,2900.00,5000.00,M,+TSRA BR,M,M,M,37.00,300.00,2023-09-02 02:22,64.00,KVGT 020236Z 36011KT 1SM +TSRA BR BKN019 BKN029 OVC050 18/16 A3001 RMK AO2 PK WND 30037/0222 WSHFT 0214 VIS 1/2V2 LTG DSNT ALQDS TSE0158B07 P0064 T01780161 $,M
VGT,2023-09-02 02:38,-115.1933,36.2111,667.00,65.00,62.00,90.01,340.00,11.00,0.65,30.01,M,1.50,M,BKN,BKN,OVC,M,1900.00,2900.00,7000.00,M,+TSRA BR,M,M,M,37.00,300.00,2023-09-02 02:22,65.00,KVGT 020238Z 34011KT 1 1/2SM +TSRA BR BKN019 BKN029 OVC070 18/17 A3001 RMK AO2 PK WND 30037/0222 WSHFT 0223 LTG DSNT ALQDS TSE0158B07 P0065 T01830167 $,M
VGT,2023-09-02 02:42,-115.1933,36.2111,667.00,65.00,62.00,90.01,340.00,11.00,0.65,30.01,M,2.50,M,BKN,BKN,OVC,M,1900.00,2800.00,7000.00,M,VCTS RA BR,M,M,M,37.00,300.00,2023-09-02 02:22,65.00,KVGT 020242Z 34011KT 2 1/2SM VCTS RA BR BKN019 BKN028 OVC070 18/17 A3001 RMK AO2 PK WND 30037/0222 WSHFT 0223 LTG DSNT NW-NE TSE0158B07E42 P0065 T01830167 $,M
LSV,2023-09-02 02:43,-115.0343,36.2362,570.00,69.80,69.80,100.00,180.00,12.00,0.00,29.99,1014.00,10.00,M,FEW,SCT,OVC,M,2900.00,4500.00,5500.00,M,-DZ,M,M,M,M,M,M,69.80,KLSV 020243Z AUTO 18012KT 10SM -DZ FEW029 SCT045 OVC055 21/21 A2999 RMK AO2 WSHFT 37 RAE42DZB42 SLP140 $,M
VGT,2023-09-02 02:44,-115.1933,36.2111,667.00,65.00,62.00,90.01,340.00,12.00,0.66,30.01,M,4.00,M,SCT,BKN,OVC,M,1900.00,3200.00,6500.00,M,VCTS RA BR,M,M,M,37.00,300.00,2023-09-02 02:22,65.00,KVGT 020244Z 34012KT 4SM VCTS RA BR SCT019 BKN032 OVC065 18/17 A3001 RMK AO2 PK WND 30037/0222 WSHFT 0223 LTG DSNT NW-NE TSE0158B07E42 P0066 T01830167 $,M
LSV,2023-09-02 02:44,-115.0343,36.2362,570.00,69.80,69.80,100.00,230.00,13.00,0.00,29.99,1014.00,10.00,M,FEW,SCT,OVC,M,2900.00,4500.00,5500.00,M,-DZ,M,M,M,M,M,M,69.80,KLSV 020244Z AUTO 23013KT 10SM -DZ FEW029 SCT045 OVC055 21/21 A2999 RMK AO2 WSHFT 43 RAE42DZB42 SLP140 $,M
LSV,2023-09-02 02:45,-115.0343,36.2362,570.00,69.80,69.80,100.00,260.00,13.00,0.00,30.00,1014.40,9.00,M,BKN,BKN,M,M,4600.00,5500.00,M,M,-RA,M,M,M,M,M,M,69.80,KLSV 020245Z AUTO 26013KT 9SM -RA BKN046 BKN055 21/21 A3000 RMK AO2 RAE42DZB42E45RAB45 SLP144 $,M
05U,2023-09-02 02:50,-116.0051,39.6042,1811.23,68.00,51.80,56.13,M,M,0.00,30.01,M,10.00,M,BKN,M,M,M,12000.00,M,M,M,M,M,M,M,M,M,M,68.00,K05U 020250Z AUTO 10SM BKN120 20/11 A3001 RMK A01,M
LSV,2023-09-02 02:50,-115.0343,36.2362,570.00,69.80,69.80,100.00,0.00,0.00,0.00,30.00,1014.40,7.00,M,FEW,SCT,SCT,OVC,2600.00,3300.00,4200.00,5500.00,-RA,M,M,M,M,M,M,69.80,KLSV 020250Z AUTO 00000KT 7SM -RA FEW026 SCT033 SCT042 OVC055 21/21 A3000 RMK AO2 RAE42DZB42E45RAB45 SLP144 $,M
LSV,2023-09-02 02:51,-115.0343,36.2362,570.00,69.80,69.80,100.00,270.00,6.00,0.00,29.99,1014.00,7.00,M,FEW,SCT,BKN,BKN,2600.00,3300.00,4100.00,4900.00,-RA,M,M,M,M,M,M,69.80,KLSV 020251Z AUTO 27006KT 7SM -RA FEW026 SCT033 BKN041 BKN049 OVC055 21/21 A2999 RMK AO2 RAE42DZB42E45RAB45 SLP140 $,M
P68,2023-09-02 02:53,-116.0056,39.6014,1993.00,67.00,52.00,58.53,140.00,26.00,0.00,29.99,1007.50,M,37.00,M,M,M,M,M,M,M,M,M,M,M,M,37.00,130.00,2023-09-02 02:53,67.00,KP68 020253Z AUTO 14026G37KT 19/11 A2999 RMK AO1 PK WND 13037/0253 SLP075 T01940111 53023,M
DRA,2023-09-02 02:53,-116.0278,36.6206,1009.00,70.00,59.00,68.09,120.00,20.00,0.00,29.95,1009.70,10.00,28.00,FEW,M,M,M,7500.00,M,M,M,M,M,M,M,28.00,110.00,2023-09-02 02:49,70.00,KDRA 020253Z AUTO 12020G28KT 10SM FEW075 21/15 A2995 RMK AO2 PK WND 11028/0249 SLP097 T02110150 53020,M
ELY,2023-09-02 02:53,-114.8453,39.2950,1909.00,58.00,52.00,80.38,210.00,16.00,T,30.14,1011.90,10.00,23.00,SCT,OVC,M,M,7500.00,10000.00,M,M,-RA,M,M,M,31.00,160.00,2023-09-02 02:21,58.00,KELY 020253Z AUTO 21016G23KT 10SM -RA SCT075 OVC100 14/11 A3014 RMK AO2 PK WND 16031/0221 LTG DSNT SE AND S RAB37 PRESRR SLP119 P0000 60000 T01440111 53024,M
VGT,2023-09-02 02:53,-115.1933,36.2111,667.00,66.00,63.00,90.05,360.00,8.00,0.66,30.01,1016.50,10.00,M,SCT,BKN,OVC,M,1700.00,6000.00,7000.00,M,-RA,M,M,M,37.00,300.00,2023-09-02 02:22,66.00,KVGT 020253Z 36008KT 10SM -RA SCT017 BKN060 OVC070 19/17 A3001 RMK AO2 PK WND 30037/0222 WSHFT 0223 LTG DSNT NW-NE TSE0158B07E42 SLP165 P0066 60104 T01890172 53028 $,M
LOL,2023-09-02 02:53,-118.5701,40.0684,1192.43,65.00,45.00,48.28,330.00,8.00,0.00,29.90,1009.50,10.00,M,CLR,M,M,M,M,M,M,M,M,M,M,M,M,M,M,65.00,KLOL 020253Z AUTO 33008KT 10SM CLR 18/07 A2990 RMK AO2 SLP095 T01830072 52024,M
BVU,2023-09-02 02:55,-114.8611,35.9475,671.00,69.80,64.40,82.98,150.00,9.00,0.00,30.00,M,10.00,M,SCT,BKN,OVC,M,3400.00,4400.00,12000.00,M,-RA,M,M,M,M,M,M,69.80,KBVU 020255Z AUTO 15009KT 10SM -RA SCT034 BKN044 OVC120 21/18 A3000 RMK AO2 LTG DSNT N AND NE,M
CXP,2023-09-02 02:55,-119.7326,39.1923,1431.00,55.40,50.00,81.99,0.00,0.00,0.06,29.96,M,7.00,M,FEW,BKN,OVC,M,4100.00,5000.00,7000.00,M,-RA,M,M,M,M,M,M,55.40,KCXP 020255Z AUTO 00000KT 7SM -RA FEW041 BKN050 OVC070 13/10 A2996 RMK AO2 P0006,M
RNO,2023-09-02 02:55,-119.7711,39.4839,1341.00,58.00,48.00,69.27,160.00,12.00,T,29.93,1009.20,10.00,M,BKN,BKN,M,M,5000.00,8000.00,M,M,-RA,M,M,M,M,M,M,58.00,KRNO 020255Z 16012KT 10SM -RA BKN050 BKN080 14/09 A2993 RMK AO2 SLP092 MTN TOPS OBSCD DSNT S THRU W P0000 60001 T01440089 51013,M
RTS,2023-09-02 02:55,-119.8764,39.6682,1539.00,57.20,48.20,71.83,90.00,6.00,0.00,29.97,M,10.00,M,BKN,OVC,M,M,3200.00,4300.00,M,M,M,M,M,M,M,M,M,57.20,KRTS 020255Z AUTO 09006KT 10SM BKN032 OVC043 14/09 A2997 RMK AO2,M
MEV,2023-09-02 02:55,-119.7500,38.9963,1441.42,55.40,44.60,66.91,200.00,16.00,0.00,29.94,M,9.00,M,FEW,OVC,M,M,5500.00,7000.00,M,M,-RA,M,M,M,M,M,M,55.40,KMEV 020255Z AUTO 20016KT 9SM -RA FEW055 OVC070 13/07 A2994 RMK AO2,M
BAM,2023-09-02 02:55,-116.8743,40.5990,1382.36,69.80,39.20,32.72,350.00,18.00,0.00,29.86,M,10.00,24.00,SCT,M,M,M,11000.00,M,M,M,M,M,M,M,M,M,M,69.80,KBAM 020255Z AUTO 35018G24KT 10SM SCT110 21/04 A2986 RMK AO1,M
HTH,2023-09-02 02:55,-118.6315,38.5448,1282.89,71.60,41.00,33.00,330.00,12.00,0.00,29.86,M,10.00,22.00,CLR,M,M,M,M,M,M,M,M,M,M,M,M,M,M,71.60,KHTH 020255Z AUTO 33012G22KT 10SM CLR 22/05 A2986 RMK A01,M
TMT,2023-09-02 02:55,-117.1971,39.4643,1749.34,68.70,33.80,27.45,30.00,11.00,0.00,29.94,M,M,M,OVC,M,M,M,11000.00,M,M,M,M,M,M,M,M,M,M,68.70,KTMT 020255Z AUTO 03011KT OVC110 20/01 A2994 RMK AO2 T02040010 PWINO,M
10U,2023-09-02 02:55,-116.1876,41.9532,1637.00,68.00,46.40,45.88,50.00,11.00,0.00,29.89,M,10.00,17.00,SCT,SCT,M,M,10000.00,12000.00,M,M,M,M,M,M,M,M,M,68.00,K10U 020255Z AUTO 05011G17KT 10SM SCT100 SCT120 20/08 A2989 RMK AO2,M
INS,2023-09-02 02:55,-115.6733,36.5872,955.00,63.50,63.00,98.26,70.00,32.00,0.08,29.96,1010.90,4.00,M,FEW,M,M,M,500.00,M,M,M,-RA BR,M,M,M,41.00,80.00,2023-09-02 02:41,63.50,KINS 020255Z AUTO 07032KT 4SM -RA BR FEW005 18/17 A2996 RMK AO2 PK WND 08041/41 RAE0159DZB0159E04RAB04 SLP109 P0008 60010 T01750173 53014 $,M
LSV,2023-09-02 02:55,-115.0343,36.2362,570.00,69.40,69.00,98.64,280.00,14.00,0.27,29.99,1014.00,8.00,17.00,FEW,SCT,BKN,BKN,2600.00,3300.00,4100.00,4900.00,-RA,M,M,M,M,M,M,69.40,KLSV 020255Z AUTO 28014G17KT 8SM -RA FEW026 SCT033 BKN041 BKN049 OVC060 21/21 A2999 RMK AO2 RAE42DZB42E45RAB45 SLP140 P0027 60067 T02080206 52036 $,M
EKO,2023-09-02 02:56,-115.7860,40.8242,1367.00,74.00,51.00,44.44,170.00,26.00,0.00,29.88,1006.80,10.00,35.00,CLR,M,M,M,M,M,M,M,M,M,M,M,40.00,180.00,2023-09-02 02:04,74.00,KEKO 020256Z AUTO 17026G35KT 10SM CLR 23/11 A2988 RMK AO2 PK WND 18040/0204 LTG DSNT W SLP068 60004 T02330106 53021,M
WMC,2023-09-02 02:56,-117.8072,40.9019,1315.00,63.00,45.00,51.78,270.00,6.00,0.00,29.93,1009.70,10.00,M,CLR,M,M,M,M,M,M,M,M,M,M,M,M,M,M,63.00,KWMC 020256Z AUTO 27006KT 10SM CLR 17/07 A2993 RMK AO2 SLP097 T01720072 53028,M
NFL,2023-09-02 02:56,-118.7010,39.4166,1199.00,66.00,47.00,50.29,30.00,10.00,0.00,29.90,1010.00,10.00,M,FEW,BKN,BKN,M,6000.00,10000.00,14000.00,M,M,M,M,M,M,M,M,66.00,KNFL 020256Z 03010KT 10SM FEW060 BKN100 BKN140 19/08 A2990 RMK AO2 SLP100 SH DSNT W-NW T01890083 53029,M
HND,2023-09-02 02:56,-115.1344,35.9729,742.79,69.00,62.00,78.38,10.00,7.00,T,30.04,1017.10,10.00,M,FEW,OVC,M,M,2400.00,3600.00,M,M,M,M,M,M,M,M,M,69.00,KHND 020256Z 01007KT 10SM FEW024 OVC036 21/17 A3004 RMK AO2 LTG DSNT N RAE12 SLP171 P0000 60001 T02060167 53027,M
TPH,2023-09-02 02:56,-117.0904,38.0505,1654.00,71.00,56.00,59.07,170.00,18.00,0.00,29.97,1007.90,10.00,32.00,FEW,M,M,M,12000.00,M,M,M,M,M,M,M,37.00,160.00,2023-09-02 02:26,71.00,KTPH 020256Z AUTO 17018G32KT 10SM FEW120 22/13 A2997 RMK AO2 PK WND 16037/0226 SLP079 T02170133 53018,M
LAS,2023-09-02 02:56,-115.1634,36.0719,663.00,72.00,70.00,93.43,350.00,9.00,0.00,30.02,1014.80,10.00,M,SCT,BKN,OVC,M,1900.00,3000.00,12000.00,M,TS,M,M,M,M,M,M,72.00,KLAS 020256Z 35009KT 10SM TS SCT019 BKN030CB OVC120 22/21 A3002 RMK AO2 LTG DSNT N AND NW RAE56 SLP148 OCNL LTGIC SW-NW-N TS SW-NW-N MOV NE 6//// T02220211 53030 PNO,M
LSV,2023-09-02 03:06,-115.0343,36.2362,570.00,68.00,68.00,100.00,320.00,6.00,0.00,30.00,1014.40,10.00,M,BKN,BKN,OVC,M,2400.00,3400.00,4700.00,M,-RA,M,M,M,M,M,M,68.00,KLSV 020306Z AUTO 32006KT 10SM -RA BKN024 BKN034 OVC047 20/20 A3000 RMK AO2 CIG 024V044 BKN024 V SCT SLP144 $,M
LSV,2023-09-02 03:09,-115.0343,36.2362,570.00,68.00,68.00,100.00,320.00,7.00,0.00,30.00,1014.40,10.00,M,SCT,BKN,BKN,OVC,2400.00,3000.00,3500.00,4700.00,-RA,M,M,M,M,M,M,68.00,KLSV 020309Z AUTO 32007KT 10SM -RA SCT024 BKN030 BKN035 OVC047 20/20 A3000 RMK AO2 SLP144 $,M
05U,2023-09-02 03:10,-116.0051,39.6042,1811.23,64.40,53.60,67.95,M,M,0.00,30.02,M,10.00,M,BKN,M,M,M,11000.00,M,M,M,M,M,M,M,M,M,M,64.40,K05U 020310Z AUTO 10SM BKN110 18/12 A3002 RMK A01,M
INS,2023-09-02 03:12,-115.6733,36.5872,955.00,64.40,64.40,100.00,70.00,24.00,0.00,30.00,1012.30,10.00,M,OVC,M,M,M,7000.00,M,M,M,M,M,M,M,M,M,M,64.40,KINS 020312Z AUTO 07024KT 10SM OVC070 18/18 A3000 RMK AO2 RAE12 PRESRR SLP123 $,M
LSV,2023-09-02 03:14,-115.0343,36.2362,570.00,68.00,68.00,100.00,320.00,8.00,0.00,29.99,1014.00,10.00,M,SCT,BKN,BKN,OVC,2400.00,3000.00,3500.00,8500.00,M,M,M,M,M,M,M,68.00,KLSV 020314Z AUTO 32008KT 10SM SCT024 BKN030 BKN035 OVC085 20/20 A2999 RMK AO2 RAE11DZB11E14 SLP140 $,M
BVU,2023-09-02 03:15,-114.8611,35.9475,671.00,69.80,64.40,82.98,140.00,6.00,0.00,30.01,M,10.00,M,FEW,SCT,BKN,M,3400.00,4600.00,12000.00,M,M,M,M,M,M,M,M,69.80,KBVU 020315Z AUTO 14006KT 10SM FEW034 SCT046 BKN120 21/18 A3001 RMK AO2,M
CXP,2023-09-02 03:15,-119.7326,39.1923,1431.00,55.40,50.00,81.99,0.00,0.00,0.00,29.98,M,4.00,M,FEW,SCT,BKN,M,3900.00,4900.00,5500.00,M,-RA HZ,M,M,M,M,M,M,55.40,KCXP 020315Z AUTO 00000KT 4SM -RA HZ FEW039 SCT049 BKN055 13/10 A2998 RMK AO2,M
INS,2023-09-02 03:15,-115.6733,36.5872,955.00,64.40,64.40,100.00,80.00,26.00,0.00,30.00,1012.50,10.00,M,FEW,OVC,M,M,3900.00,7000.00,M,M,-RA,M,M,M,M,M,M,64.40,KINS 020315Z AUTO 08026KT 10SM -RA FEW039 OVC070 18/18 A3000 RMK AO2 RAE12RAB15 SLP125 $,M
RTS,2023-09-02 03:15,-119.8764,39.6682,1539.00,55.40,48.20,76.66,M,4.00,0.00,29.98,M,10.00,M,FEW,SCT,OVC,M,3300.00,4000.00,4700.00,M,M,M,M,M,M,M,M,55.40,KRTS 020315Z AUTO VRB04KT 10SM FEW033 SCT040 OVC047 13/09 A2998 RMK AO2,M
MEV,2023-09-02 03:15,-119.7500,38.9963,1441.42,55.40,44.60,66.91,220.00,10.00,0.00,29.94,M,10.00,M,BKN,OVC,M,M,7000.00,9500.00,M,M,VCTS,M,M,M,M,M,M,55.40,KMEV 020315Z AUTO 22010KT 10SM VCTS BKN070 OVC095 13/07 A2994 RMK AO2 LTG DSNT SW,M
BAM,2023-09-02 03:15,-116.8743,40.5990,1382.36,69.80,39.20,32.72,350.00,18.00,0.00,29.88,M,10.00,22.00,SCT,M,M,M,11000.00,M,M,M,M,M,M,M,M,M,M,69.80,KBAM 020315Z AUTO 35018G22KT 10SM SCT110 21/04 A2988 RMK AO1,M
HTH,2023-09-02 03:15,-118.6315,38.5448,1282.89,69.80,46.40,43.13,320.00,22.00,0.00,29.88,M,10.00,28.00,CLR,M,M,M,M,M,M,M,M,M,M,M,M,M,M,69.80,KHTH 020315Z AUTO 32022G28KT 10SM CLR 21/08 A2988 RMK A01,M
10U,2023-09-02 03:15,-116.1876,41.9532,1637.00,66.20,46.40,48.83,0.00,0.00,0.00,29.90,M,10.00,M,FEW,FEW,BKN,M,6000.00,7500.00,10000.00,M,M,M,M,M,M,M,M,66.20,K10U 020315Z AUTO 00000KT 10SM FEW060 FEW075 BKN100 19/08 A2990 RMK AO2,M
TMT,2023-09-02 03:15,-117.1971,39.4643,1749.34,67.00,34.70,30.16,10.00,8.00,0.00,29.95,M,M,M,BKN,M,M,M,11000.00,M,M,M,M,M,M,M,M,M,M,67.00,KTMT 020315Z AUTO 01008KT BKN110 20/02 A2995 RMK AO2 T01950015 PWINO,M
LSV,2023-09-02 03:19,-115.0343,36.2362,570.00,68.00,68.00,100.00,330.00,7.00,0.00,29.99,1013.90,10.00,M,FEW,BKN,BKN,OVC,2300.00,2900.00,3900.00,10000.00,M,M,M,M,M,M,M,68.00,KLSV 020319Z AUTO 33007KT 10SM FEW023 BKN029 BKN039 OVC100 20/20 A2999 RMK AO2 RAE11DZB11E14 SLP139 $,M
LSV,2023-09-02 03:23,-115.0343,36.2362,570.00,68.00,68.00,100.00,330.00,6.00,0.00,29.99,1013.90,10.00,M,FEW,SCT,OVC,M,2300.00,2900.00,10000.00,M,M,M,M,M,M,M,M,68.00,KLSV 020323Z AUTO 33006KT 10SM FEW023 SCT029 OVC100 20/20 A2999 RMK AO2 RAE11DZB11E14 SLP139 $,M
05U,2023-09-02 03:30,-116.0051,39.6042,1811.23,62.60,53.60,72.38,M,M,0.00,30.03,M,10.00,M,BKN,M,M,M,12000.00,M,M,M,M,M,M,M,M,M,M,62.60,K05U 020330Z AUTO 10SM BKN120 17/12 A3003 RMK A01,M
LAS,2023-09-02 03:32,-115.1634,36.0719,663.00,72.00,70.00,93.43,30.00,7.00,0.00,30.01,M,10.00,M,SCT,BKN,OVC,M,2500.00,3600.00,12000.00,M,M,M,M,M,M,M,M,72.00,KLAS 020332Z 03007KT 10SM SCT025 BKN036 OVC120 22/21 A3001 RMK AO2 TSE32 TS MOV NE T02220211 PNO,M
BVU,2023-09-02 03:35,-114.8611,35.9475,671.00,69.80,64.40,82.98,110.00,9.00,0.00,30.01,M,10.00,M,FEW,SCT,BKN,M,3500.00,8000.00,9000.00,M,M,M,M,M,M,M,M,69.80,KBVU 020335Z AUTO 11009KT 10SM FEW035 SCT080 BKN090 21/18 A3001 RMK AO2,M
CXP,2023-09-02 03:35,-119.7326,39.1923,1431.00,55.40,50.00,81.99,310.00,4.00,0.00,29.98,M,7.00,M,FEW,BKN,OVC,M,800.00,5000.00,6500.00,M,-RA,M,M,M,M,M,M,55.40,KCXP 020335Z AUTO 31004KT 7SM -RA FEW008 BKN050 OVC065 13/10 A2998 RMK AO2,M
INS,2023-09-02 03:35,-115.6733,36.5872,955.00,62.60,62.60,100.00,80.00,27.00,0.00,30.02,1013.20,6.00,M,BKN,OVC,M,M,400.00,7500.00,M,M,-RA BR,M,M,M,M,M,M,62.60,KINS 020335Z AUTO 08027KT 6SM -RA BR BKN004 OVC075 17/17 A3002 RMK AO2 RAE12RAB15 CIG 004V075 BKN V SCT SLP132 $,M
RTS,2023-09-02 03:35,-119.8764,39.6682,1539.00,55.40,48.20,76.66,60.00,6.00,0.00,29.98,M,10.00,M,FEW,OVC,M,M,3800.00,4700.00,M,M,M,M,M,M,M,M,M,55.40,KRTS 020335Z AUTO 06006KT 10SM FEW038 OVC047 13/09 A2998 RMK AO2,M
MEV,2023-09-02 03:35,-119.7500,38.9963,1441.42,55.40,46.40,71.64,240.00,8.00,0.00,29.95,M,9.00,M,OVC,M,M,M,7000.00,M,M,M,-RA,M,M,M,M,M,M,55.40,KMEV 020335Z AUTO 24008KT 9SM -RA OVC070 13/08 A2995 RMK AO2,M
HTH,2023-09-02 03:35,-118.6315,38.5448,1282.89,68.00,46.40,45.88,310.00,12.00,0.00,29.90,M,10.00,27.00,CLR,M,M,M,M,M,M,M,M,M,M,M,M,M,M,68.00,KHTH 020335Z AUTO 31012G27KT 10SM CLR 20/08 A2990 RMK A01,M
BAM,2023-09-02 03:35,-116.8743,40.5990,1382.36,69.80,41.00,35.09,360.00,17.00,0.00,29.89,M,10.00,23.00,BKN,M,M,M,12000.00,M,M,M,M,M,M,M,M,M,M,69.80,KBAM 020335Z AUTO 36017G23KT 10SM BKN120 21/05 A2989 RMK AO1,M
TMT,2023-09-02 03:35,-117.1971,39.4643,1749.34,65.00,34.70,32.33,30.00,7.00,0.00,29.96,M,M,M,OVC,M,M,M,10000.00,M,M,M,M,M,M,M,M,M,M,65.00,KTMT 020335Z AUTO 03007KT OVC100 18/02 A2996 RMK AO2 T01840015 PWINO,M
10U,2023-09-02 03:40,-116.1876,41.9532,1637.00,68.00,44.60,42.85,100.00,13.00,0.00,29.91,M,10.00,20.00,FEW,FEW,M,M,8000.00,11000.00,M,M,M,M,M,M,M,M,M,68.00,K10U 020340Z AUTO 10013G20KT 10SM FEW080 FEW110 20/07 A2991 RMK AO2,M
INS,2023-09-02 03:50,-115.6733,36.5872,955.00,62.60,62.60,100.00,80.00,20.00,0.00,30.01,1012.80,9.00,M,SCT,M,M,M,400.00,M,M,M,-RA,M,M,M,M,M,M,62.60,KINS 020350Z AUTO 08020KT 9SM -RA SCT004 17/17 A3001 RMK AO2 RAE12RAB15 SLP128 $,M
P68,2023-09-02 03:53,-116.0056,39.6014,1993.00,61.00,56.00,83.59,160.00,17.00,0.07,30.04,1009.40,M,40.00,M,M,M,M,M,M,M,M,M,M,M,M,41.00,170.00,2023-09-02 03:43,61.00,KP68 020353Z AUTO 16017G40KT 16/13 A3004 RMK AO1 PK WND 17041/0343 SLP094 P0007 T01610133 $,M
DRA,2023-09-02 03:53,-116.0278,36.6206,1009.00,71.00,59.00,65.81,0.00,0.00,0.00,29.97,1010.50,10.00,M,SCT,BKN,M,M,6000.00,8000.00,M,M,M,M,M,M,27.00,110.00,2023-09-02 03:04,71.00,KDRA 020353Z AUTO 00000KT 10SM SCT060 BKN080 22/15 A2997 RMK AO2 PK WND 11027/0304 SLP105 T02170150,M
ELY,2023-09-02 03:53,-114.8453,39.2950,1909.00,57.00,52.00,83.33,150.00,22.00,0.03,30.13,1011.80,10.00,30.00,SCT,OVC,M,M,8000.00,10000.00,M,M,-RA,M,M,M,30.00,150.00,2023-09-02 03:52,57.00,KELY 020353Z AUTO 15022G30KT 10SM -RA SCT080 OVC100 14/11 A3013 RMK AO2 PK WND 15030/0352 SLP118 P0003 T01390111,M
VGT,2023-09-02 03:53,-115.1933,36.2111,667.00,68.00,64.00,87.03,0.00,0.00,T,30.01,1016.20,10.00,M,SCT,M,M,M,11000.00,M,M,M,-RA,M,M,M,M,M,M,68.00,KVGT 020353Z 00000KT 10SM -RA SCT110 20/18 A3001 RMK AO2 SLP162 P0000 T02000178 $,M
LOL,2023-09-02 03:53,-118.5701,40.0684,1192.43,63.00,46.00,53.78,10.00,11.00,0.00,29.91,1009.90,10.00,M,CLR,M,M,M,M,M,M,M,M,M,M,M,M,M,M,63.00,KLOL 020353Z AUTO 01011KT 10SM CLR 17/08 A2991 RMK AO2 SLP099 T01720078,M
BVU,2023-09-02 03:55,-114.8611,35.9475,671.00,69.80,64.40,82.98,100.00,5.00,0.00,30.00,M,10.00,12.00,FEW,FEW,SCT,M,3500.00,5500.00,12000.00,M,M,M,M,M,M,M,M,69.80,KBVU 020355Z AUTO 10005G12KT 10SM FEW035 FEW055 SCT120 21/18 A3000 RMK AO2,M
CXP,2023-09-02 03:55,-119.7326,39.1923,1431.00,53.60,50.00,87.56,0.00,0.00,0.07,29.99,M,4.00,M,FEW,SCT,BKN,M,4200.00,4800.00,5500.00,M,-RA BR,M,M,M,M,M,M,53.60,KCXP 020355Z AUTO 00000KT 4SM -RA BR FEW042 SCT048 BKN055 12/10 A2999 RMK AO2 P0007,M
RNO,2023-09-02 03:55,-119.7711,39.4839,1341.00,57.00,49.00,74.55,150.00,8.00,T,29.96,1010.20,10.00,M,BKN,BKN,M,M,5000.00,8500.00,M,M,-RA,M,M,M,M,M,M,57.00,KRNO 020355Z 15008KT 10SM -RA BKN050 BKN085 14/09 A2996 RMK AO2 RAE00B37 SLP102 P0000 T01390094,M
RTS,2023-09-02 03:55,-119.8764,39.6682,1539.00,55.40,46.40,71.64,100.00,6.00,0.00,29.99,M,10.00,M,SCT,BKN,OVC,M,4300.00,5000.00,7500.00,M,M,M,M,M,M,M,M,55.40,KRTS 020355Z AUTO 10006KT 10SM SCT043 BKN050 OVC075 13/08 A2999 RMK AO2,M
05U,2023-09-02 03:55,-116.0051,39.6042,1811.23,60.80,57.20,87.92,M,M,0.11,30.07,M,3.00,M,SCT,BKN,OVC,M,700.00,3300.00,12000.00,M,BR,M,M,M,M,M,M,60.80,K05U 020355Z AUTO 3SM BR SCT007 BKN033 OVC120 16/14 A3007 RMK A01 P0011,M
MEV,2023-09-02 03:55,-119.7500,38.9963,1441.42,53.60,50.00,87.56,30.00,5.00,0.00,29.96,M,10.00,M,OVC,M,M,M,7000.00,M,M,M,-RA,M,M,M,M,M,M,53.60,KMEV 020355Z AUTO 03005KT 10SM -RA OVC070 12/10 A2996 RMK AO2,M
BAM,2023-09-02 03:55,-116.8743,40.5990,1382.36,68.00,41.00,37.32,350.00,14.00,0.00,29.91,M,10.00,23.00,SCT,M,M,M,12000.00,M,M,M,M,M,M,M,M,M,M,68.00,KBAM 020355Z AUTO 35014G23KT 10SM SCT120 20/05 A2991 RMK AO1,M
HTH,2023-09-02 03:55,-118.6315,38.5448,1282.89,68.00,46.40,45.88,320.00,19.00,0.00,29.90,M,10.00,M,CLR,M,M,M,M,M,M,M,M,M,M,M,M,M,M,68.00,KHTH 020355Z AUTO 32019KT 10SM CLR 20/08 A2990 RMK A01,M
TMT,2023-09-02 03:55,-117.1971,39.4643,1749.34,64.20,34.30,32.72,20.00,3.00,0.00,29.98,M,M,M,BKN,M,M,M,10000.00,M,M,M,M,M,M,M,M,M,M,64.20,KTMT 020355Z AUTO 02003KT BKN100 18/01 A2998 RMK AO2 LTG DSNT E AND W T01790013 PWINO,M
INS,2023-09-02 03:55,-115.6733,36.5872,955.00,63.00,62.60,98.60,70.00,21.00,0.09,30.00,1012.50,8.00,M,SCT,M,M,M,400.00,M,M,M,-RA,M,M,M,35.00,100.00,2023-09-02 02:56,63.00,KINS 020355Z AUTO 07021KT 8SM -RA SCT004 17/17 A3000 RMK AO2 PK WND 10035/0256 RAE12RAB15 SLP125 P0009 T01720170 $,M
LSV,2023-09-02 03:55,-115.0343,36.2362,570.00,69.00,68.50,98.30,60.00,8.00,0.01,29.97,1013.10,10.00,M,SCT,SCT,SCT,M,12000.00,14000.00,16000.00,M,M,M,M,M,M,M,M,69.00,KLSV 020355Z AUTO 06008KT 10SM SCT120 SCT140 SCT160 21/20 A2997 RMK AO2 RAE11DZB11E14 SLP131 P0001 T02050203 $,M
EKO,2023-09-02 03:56,-115.7860,40.8242,1367.00,71.00,52.00,51.03,190.00,12.00,0.00,29.93,1007.80,10.00,23.00,CLR,M,M,M,M,M,M,M,M,M,M,M,36.00,170.00,2023-09-02 03:04,71.00,KEKO 020356Z AUTO 19012G23KT 10SM CLR 22/11 A2993 RMK AO2 PK WND 17036/0304 LTG DSNT N SLP078 T02170111,M
WMC,2023-09-02 03:56,-117.8072,40.9019,1315.00,60.00,46.00,59.80,260.00,9.00,0.00,29.96,1010.60,10.00,M,CLR,M,M,M,M,M,M,M,M,M,M,M,M,M,M,60.00,KWMC 020356Z AUTO 26009KT 10SM CLR 16/08 A2996 RMK AO2 SLP106 T01560078,M
NFL,2023-09-02 03:56,-118.7010,39.4166,1199.00,63.00,49.00,60.20,20.00,5.00,T,29.92,1010.50,10.00,M,SCT,BKN,OVC,M,6000.00,9000.00,12000.00,M,M,M,M,M,M,M,M,63.00,KNFL 020356Z 02005KT 10SM SCT060 BKN090 OVC120 17/09 A2992 RMK AO2 RAB23E55 SLP105 SH VC SW-NW P0000 T01720094,M
HND,2023-09-02 03:56,-115.1344,35.9729,742.79,68.00,64.00,87.03,350.00,5.00,0.00,30.04,1016.80,10.00,M,FEW,M,M,M,3800.00,M,M,M,M,M,M,M,M,M,M,68.00,KHND 020356Z AUTO 35005KT 10SM FEW038 20/18 A3004 RMK AO2 SLP168 T02000178,M
TPH,2023-09-02 03:56,-117.0904,38.0505,1654.00,68.00,55.00,63.12,170.00,18.00,0.00,30.00,1008.50,10.00,27.00,BKN,M,M,M,12000.00,M,M,M,M,M,M,M,32.00,160.00,2023-09-02 03:04,68.00,KTPH 020356Z AUTO 17018G27KT 10SM BKN120 20/13 A3000 RMK AO2 PK WND 16032/0304 SLP085 T02000128,M
LAS,2023-09-02 03:56,-115.1634,36.0719,663.00,71.00,69.00,93.40,330.00,6.00,0.00,30.01,1014.50,10.00,M,FEW,BKN,OVC,M,2500.00,3600.00,12000.00,M,M,M,M,M,M,M,M,71.00,KLAS 020356Z 33006KT 10SM FEW025 BKN036 OVC120 22/21 A3001 RMK AO2 TSE32 SLP145 TS MOV NE T02170206 PNO,M
10U,2023-09-02 04:00,-116.1876,41.9532,1637.00,68.00,44.60,42.85,120.00,16.00,0.00,29.91,M,10.00,M,CLR,M,M,M,M,M,M,M,M,M,M,M,M,M,M,68.00,K10U 020400Z AUTO 12016KT 10SM CLR 20/07 A2991 RMK AO2,M
BVU,2023-09-02 04:15,-114.8611,35.9475,671.00,69.80,64.40,82.98,80.00,8.00,0.00,30.01,M,10.00,M,FEW,SCT,BKN,M,6000.00,7500.00,9500.00,M,M,M,M,M,M,M,M,69.80,KBVU 020415Z AUTO 08008KT 10SM FEW060 SCT075 BKN095 21/18 A3001 RMK AO2,M
CXP,2023-09-02 04:15,-119.7326,39.1923,1431.00,53.60,50.00,87.56,280.00,6.00,0.00,29.99,M,4.00,M,FEW,BKN,OVC,M,4100.00,5000.00,6500.00,M,-RA HZ,M,M,M,M,M,M,53.60,KCXP 020415Z AUTO 28006KT 4SM -RA HZ FEW041 BKN050 OVC065 12/10 A2999 RMK AO2,M
RTS,2023-09-02 04:15,-119.8764,39.6682,1539.00,55.40,46.40,71.64,50.00,4.00,0.00,29.99,M,10.00,M,FEW,BKN,OVC,M,4900.00,6000.00,7500.00,M,M,M,M,M,M,M,M,55.40,KRTS 020415Z AUTO 05004KT 10SM FEW049 BKN060 OVC075 13/08 A2999 RMK AO2,M
MEV,2023-09-02 04:15,-119.7500,38.9963,1441.42,55.40,50.00,81.99,310.00,6.00,0.00,29.97,M,10.00,M,OVC,M,M,M,7000.00,M,M,M,-RA,M,M,M,M,M,M,55.40,KMEV 020415Z AUTO 31006KT 10SM -RA OVC070 13/10 A2997 RMK AO2,M
HTH,2023-09-02 04:15,-118.6315,38.5448,1282.89,66.20,44.60,45.60,320.00,14.00,0.00,29.91,M,10.00,21.00,CLR,M,M,M,M,M,M,M,M,M,M,M,M,M,M,66.20,KHTH 020415Z AUTO 32014G21KT 10SM CLR 19/07 A2991 RMK A01,M
BAM,2023-09-02 04:15,-116.8743,40.5990,1382.36,68.00,41.00,37.32,350.00,17.00,0.00,29.92,M,10.00,M,SCT,M,M,M,12000.00,M,M,M,M,M,M,M,M,M,M,68.00,KBAM 020415Z AUTO 35017KT 10SM SCT120 20/05 A2992 RMK AO1,M
TMT,2023-09-02 04:15,-117.1971,39.4643,1749.34,64.00,35.00,33.89,330.00,5.00,0.00,29.96,M,M,M,SCT,BKN,M,M,10000.00,12000.00,M,M,M,M,M,M,M,M,M,64.00,KTMT 020415Z AUTO 33005KT SCT100 BKN120 18/02 A2996 RMK AO2 LTG DSNT NE AND S T01770016 PWINO,M
10U,2023-09-02 04:20,-116.1876,41.9532,1637.00,68.00,46.40,45.88,130.00,18.00,0.00,29.92,M,10.00,24.00,CLR,M,M,M,M,M,M,M,M,M,M,M,M,M,M,68.00,K10U 020420Z AUTO 13018G24KT 10SM CLR 20/08 A2992 RMK AO2,M
BVU,2023-09-02 04:35,-114.8611,35.9475,671.00,69.80,64.40,82.98,90.00,9.00,0.00,30.01,M,10.00,M,FEW,SCT,M,M,7500.00,9000.00,M,M,M,M,M,M,M,M,M,69.80,KBVU 020435Z AUTO 09009KT 10SM FEW075 SCT090 21/18 A3001 RMK AO2,M
CXP,2023-09-02 04:35,-119.7326,39.1923,1431.00,53.60,48.20,81.87,250.00,6.00,0.00,29.97,M,3.00,13.00,SCT,BKN,OVC,M,4000.00,5000.00,6500.00,M,-RA HZ,M,M,M,M,M,M,53.60,KCXP 020435Z AUTO 25006G13KT 3SM -RA HZ SCT040 BKN050 OVC065 12/09 A2997 RMK AO2,M
RTS,2023-09-02 04:35,-119.8764,39.6682,1539.00,55.40,46.40,71.64,350.00,3.00,0.00,29.98,M,10.00,M,BKN,OVC,M,M,5500.00,7000.00,M,M,M,M,M,M,M,M,M,55.40,KRTS 020435Z AUTO 35003KT 10SM BKN055 OVC070 13/08 A2998 RMK AO2,M
MEV,2023-09-02 04:35,-119.7500,38.9963,1441.42,55.40,48.20,76.66,350.00,5.00,0.00,29.96,M,10.00,M,FEW,FEW,OVC,M,2800.00,4700.00,7000.00,M,M,M,M,M,M,M,M,55.40,KMEV 020435Z AUTO 35005KT 10SM FEW028 FEW047 OVC070 13/09 A2996 RMK AO2,M
BAM,2023-09-02 04:35,-116.8743,40.5990,1382.36,68.00,42.80,40.00,360.00,14.00,0.00,29.92,M,10.00,19.00,SCT,M,M,M,12000.00,M,M,M,M,M,M,M,M,M,M,68.00,KBAM 020435Z AUTO 36014G19KT 10SM SCT120 20/06 A2992 RMK AO1,M
HTH,2023-09-02 04:35,-118.6315,38.5448,1282.89,66.20,44.60,45.60,310.00,15.00,0.00,29.92,M,10.00,M,CLR,M,M,M,M,M,M,M,M,M,M,M,M,M,M,66.20,KHTH 020435Z AUTO 31015KT 10SM CLR 19/07 A2992 RMK A01,M
10U,2023-09-02 04:35,-116.1876,41.9532,1637.00,66.20,46.40,48.83,130.00,17.00,0.00,29.92,M,10.00,24.00,CLR,M,M,M,M,M,M,M,M,M,M,M,M,M,M,66.20,K10U 020435Z AUTO 13017G24KT 10SM CLR 19/08 A2992 RMK AO2,M
TMT,2023-09-02 04:35,-117.1971,39.4643,1749.34,62.40,36.00,37.30,330.00,3.00,0.00,29.97,M,M,M,SCT,SCT,M,M,9000.00,12000.00,M,M,VCTS,M,M,M,M,M,M,62.40,KTMT 020435Z AUTO 33003KT VCTS SCT090 SCT120 17/02 A2997 RMK AO2 LTG DSNT SE AND S T01690023,M
DRA,2023-09-02 04:53,-116.0278,36.6206,1009.00,68.00,59.00,72.92,140.00,11.00,0.00,29.99,1011.30,10.00,16.00,FEW,M,M,M,10000.00,M,M,M,M,M,M,M,M,M,M,68.00,KDRA 020453Z AUTO 14011G16KT 10SM FEW100 20/15 A2999 RMK AO2 SLP113 T02000150,M
ELY,2023-09-02 04:53,-114.8453,39.2950,1909.00,57.00,49.00,74.55,190.00,21.00,T,30.13,1011.80,10.00,35.00,OVC,M,M,M,11000.00,M,M,M,M,M,M,M,35.00,170.00,2023-09-02 04:49,57.00,KELY 020453Z AUTO 19021G35KT 10SM OVC110 14/09 A3013 RMK AO2 PK WND 17035/0449 RAE42 SLP118 P0000 T01390094,M
VGT,2023-09-02 04:53,-115.1933,36.2111,667.00,69.00,65.00,87.08,0.00,0.00,T,30.00,1015.90,10.00,M,FEW,M,M,M,11000.00,M,M,M,M,M,M,M,M,M,M,69.00,KVGT 020453Z AUTO 00000KT 10SM FEW110 21/18 A3000 RMK AO2 RAE0354 SLP159 P0000 T02060183 $,M
LOL,2023-09-02 04:53,-118.5701,40.0684,1192.43,63.00,46.00,53.78,50.00,8.00,0.00,29.93,1010.50,10.00,M,CLR,M,M,M,M,M,M,M,M,M,M,M,M,M,M,63.00,KLOL 020453Z AUTO 05008KT 10SM CLR 17/08 A2993 RMK AO2 SLP105 T01720078,M
INS,2023-09-02 04:54,-115.6733,36.5872,955.00,66.20,59.00,77.60,90.00,17.00,0.00,29.99,1011.80,10.00,M,FEW,BKN,OVC,M,2800.00,10000.00,12000.00,M,M,M,M,M,M,M,M,66.20,KINS 020454Z AUTO 09017KT 10SM FEW028 BKN100 OVC120 19/15 A2999 RMK AO2 RAE26DZB26E36RAB36E54 SLP118 $,M
BVU,2023-09-02 04:55,-114.8611,35.9475,671.00,69.80,64.40,82.98,100.00,11.00,0.00,30.01,M,10.00,M,CLR,M,M,M,M,M,M,M,M,M,M,M,M,M,M,69.80,KBVU 020455Z AUTO 10011KT 10SM CLR 21/18 A3001 RMK AO2,M
CXP,2023-09-02 04:55,-119.7326,39.1923,1431.00,53.60,50.00,87.56,280.00,3.00,0.11,29.96,M,4.00,M,FEW,SCT,BKN,M,400.00,3700.00,5000.00,M,-RA HZ,M,M,M,M,M,M,53.60,KCXP 020455Z AUTO 28003KT 4SM -RA HZ FEW004 SCT037 BKN050 12/10 A2996 RMK AO2 P0011,M
RNO,2023-09-02 04:55,-119.7711,39.4839,1341.00,56.00,51.00,83.26,170.00,9.00,0.01,29.96,1010.20,10.00,M,BKN,BKN,M,M,6500.00,10000.00,M,M,-RA,M,M,M,M,M,M,56.00,KRNO 020455Z 17009KT 10SM -RA BKN065 BKN100 13/11 A2996 RMK AO2 SLP102 P0001 T01330106,M
RTS,2023-09-02 04:55,-119.8764,39.6682,1539.00,55.40,46.40,71.64,0.00,0.00,0.00,29.99,M,10.00,M,BKN,OVC,M,M,5500.00,7000.00,M,M,M,M,M,M,M,M,M,55.40,KRTS 020455Z AUTO 00000KT 10SM BKN055 OVC070 13/08 A2999 RMK AO2,M
MEV,2023-09-02 04:55,-119.7500,38.9963,1441.42,55.40,50.00,81.99,40.00,5.00,0.00,29.96,M,10.00,M,BKN,OVC,M,M,7500.00,8500.00,M,M,M,M,M,M,M,M,M,55.40,KMEV 020455Z AUTO 04005KT 10SM BKN075 OVC085 13/10 A2996 RMK AO2,M
BAM,2023-09-02 04:55,-116.8743,40.5990,1382.36,66.20,42.80,42.57,360.00,12.00,0.00,29.92,M,10.00,M,CLR,M,M,M,M,M,M,M,M,M,M,M,M,M,M,66.20,KBAM 020455Z AUTO 36012KT 10SM CLR 19/06 A2992 RMK AO1,M
HTH,2023-09-02 04:55,-118.6315,38.5448,1282.89,66.20,44.60,45.60,320.00,17.00,0.00,29.91,M,10.00,23.00,CLR,M,M,M,M,M,M,M,M,M,M,M,M,M,M,66.20,KHTH 020455Z AUTO 32017G23KT 10SM CLR 19/07 A2991 RMK A01,M
TMT,2023-09-02 04:55,-117.1971,39.4643,1749.34,61.00,36.00,39.19,160.00,4.00,0.00,30.00,M,M,M,BKN,BKN,OVC,M,7000.00,9000.00,11000.00,M,TS,M,M,M,M,M,M,61.00,KTMT 020455Z AUTO 16004KT TS BKN070 BKN090 OVC110 16/02 A3000 RMK AO2 LTG DSNT E THRU SW T01620023,M
10U,2023-09-02 04:55,-116.1876,41.9532,1637.00,66.20,46.40,48.83,120.00,16.00,0.00,29.93,M,10.00,23.00,SCT,SCT,M,M,6500.00,10000.00,M,M,M,M,M,M,M,M,M,66.20,K10U 020455Z AUTO 12016G23KT 10SM SCT065 SCT100 19/08 A2993 RMK AO2,M
INS,2023-09-02 04:55,-115.6733,36.5872,955.00,65.70,59.40,80.09,90.00,16.00,0.02,30.00,1012.10,10.00,M,FEW,BKN,OVC,M,2800.00,10000.00,12000.00,M,M,M,M,M,27.00,90.00,2023-09-02 03:57,65.70,KINS 020455Z AUTO 09016KT 10SM FEW028 BKN100 OVC120 19/15 A3000 RMK AO2 PK WND 09027/0357 RAE26DZB26E36RAB36E54 SLP121 P0002 T01870152 $,M
LSV,2023-09-02 04:55,-115.0343,36.2362,570.00,69.30,69.00,98.98,20.00,5.00,0.00,29.98,1013.50,10.00,M,FEW,M,M,M,12000.00,M,M,M,M,M,M,M,M,M,M,69.30,KLSV 020455Z AUTO 02005KT 10SM FEW120 21/21 A2998 RMK AO2 SLP135 T02070205 $,M
EKO,2023-09-02 04:56,-115.7860,40.8242,1367.00,72.00,52.00,49.33,180.00,21.00,0.00,29.95,1007.90,10.00,32.00,CLR,M,M,M,M,M,M,M,M,M,M,M,32.00,180.00,2023-09-02 04:55,72.00,KEKO 020456Z AUTO 18021G32KT 10SM CLR 22/11 A2995 RMK AO2 PK WND 18032/0455 SLP079 T02220111,M
WMC,2023-09-02 04:56,-117.8072,40.9019,1315.00,60.00,45.00,57.58,360.00,3.00,0.00,29.96,1010.60,10.00,M,FEW,M,M,M,12000.00,M,M,M,M,M,M,M,M,M,M,60.00,KWMC 020456Z AUTO 36003KT 10SM FEW120 16/07 A2996 RMK AO2 SLP106 T01560072,M
NFL,2023-09-02 04:56,-118.7010,39.4166,1199.00,62.00,49.00,62.36,20.00,7.00,0.00,29.93,1010.80,10.00,M,FEW,SCT,BKN,M,4000.00,6000.00,9000.00,M,M,M,M,M,M,M,M,62.00,KNFL 020456Z 02007KT 10SM FEW040 SCT060 BKN090 17/09 A2993 RMK AO2 SLP108 SH VC SW-NW T01670094,M
HND,2023-09-02 04:56,-115.1344,35.9729,742.79,67.00,63.00,86.98,300.00,4.00,0.00,30.05,1017.20,10.00,M,SCT,M,M,M,1100.00,M,M,M,M,M,M,M,M,M,M,67.00,KHND 020456Z AUTO 30004KT 10SM SCT011 19/17 A3005 RMK AO2 SLP172 T01940172,M
TPH,2023-09-02 04:56,-117.0904,38.0505,1654.00,66.00,55.00,67.64,170.00,23.00,0.00,30.04,1009.60,10.00,31.00,BKN,M,M,M,12000.00,M,M,M,M,M,M,M,33.00,160.00,2023-09-02 04:39,66.00,KTPH 020456Z AUTO 17023G31KT 10SM BKN120 19/13 A3004 RMK AO2 PK WND 16033/0439 SLP096 T01890128,M
LAS,2023-09-02 04:56,-115.1634,36.0719,663.00,69.00,69.00,100.00,330.00,6.00,0.00,30.02,1014.70,10.00,M,FEW,BKN,OVC,M,2500.00,3600.00,12000.00,M,M,M,M,M,M,M,M,69.00,KLAS 020456Z 33006KT 10SM FEW025 BKN036 OVC120 21/21 A3002 RMK AO2 SLP147 T02060206,M
BVU,2023-09-02 05:15,-114.8611,35.9475,671.00,69.80,64.40,82.98,90.00,7.00,0.00,30.02,M,10.00,M,CLR,M,M,M,M,M,M,M,M,M,M,M,M,M,M,69.80,KBVU 020515Z AUTO 09007KT 10SM CLR 21/18 A3002 RMK AO2,M
CXP,2023-09-02 05:15,-119.7326,39.1923,1431.00,53.60,50.00,87.56,120.00,4.00,0.00,29.98,M,9.00,M,FEW,SCT,BKN,M,400.00,4900.00,7000.00,M,-RA,M,M,M,M,M,M,53.60,KCXP 020515Z AUTO 12004KT 9SM -RA FEW004 SCT049 BKN070 12/10 A2998 RMK AO2 LTG DSNT SW,M
RTS,2023-09-02 05:15,-119.8764,39.6682,1539.00,55.40,46.40,71.64,50.00,3.00,0.00,29.99,M,10.00,M,BKN,OVC,M,M,6000.00,7000.00,M,M,M,M,M,M,M,M,M,55.40,KRTS 020515Z AUTO 05003KT 10SM BKN060 OVC070 13/08 A2999 RMK AO2,M
MEV,2023-09-02 05:15,-119.7500,38.9963,1441.42,53.60,50.00,87.56,80.00,3.00,0.00,29.96,M,10.00,M,OVC,M,M,M,7500.00,M,M,M,M,M,M,M,M,M,M,53.60,KMEV 020515Z AUTO 08003KT 10SM OVC075 12/10 A2996 RMK AO2 LTG DSNT SW,M
HTH,2023-09-02 05:15,-118.6315,38.5448,1282.89,66.20,44.60,45.60,330.00,13.00,0.00,29.92,M,10.00,20.00,CLR,M,M,M,M,M,M,M,M,M,M,M,M,M,M,66.20,KHTH 020515Z AUTO 33013G20KT 10SM CLR 19/07 A2992 RMK A01,M
10U,2023-09-02 05:15,-116.1876,41.9532,1637.00,66.20,46.40,48.83,130.00,19.00,0.00,29.93,M,10.00,30.00,FEW,BKN,M,M,7000.00,10000.00,M,M,M,M,M,M,M,M,M,66.20,K10U 020515Z AUTO 13019G30KT 10SM FEW070 BKN100 19/08 A2993 RMK AO2,M
BAM,2023-09-02 05:15,-116.8743,40.5990,1382.36,66.20,42.80,42.57,360.00,11.00,0.00,29.94,M,10.00,16.00,CLR,M,M,M,M,M,M,M,M,M,M,M,M,M,M,66.20,KBAM 020515Z AUTO 36011G16KT 10SM CLR 19/06 A2994 RMK AO1,M
TMT,2023-09-02 05:15,-117.1971,39.4643,1749.34,62.00,40.00,44.25,30.00,5.00,0.00,29.99,M,M,M,OVC,M,M,M,7000.00,M,M,M,VCTS,M,M,M,M,M,M,62.00,KTMT 020515Z AUTO 03005KT VCTS OVC070 17/04 A2999 RMK AO2 LTG DSNT NE E AND W T01670044,M
HND,2023-09-02 05:16,-115.1344,35.9729,742.79,66.20,62.60,88.18,290.00,4.00,0.00,30.06,M,8.00,M,BKN,M,M,M,1100.00,M,M,M,M,M,M,M,M,M,M,66.20,KHND 020516Z AUTO 29004KT 8SM BKN011 19/17 A3006 RMK AO2,M
TPH,2023-09-02 05:21,-117.0904,38.0505,1654.00,65.00,56.00,72.62,160.00,19.00,0.00,30.05,M,10.00,31.00,BKN,M,M,M,2400.00,M,M,M,M,M,M,M,32.00,170.00,2023-09-02 05:07,65.00,KTPH 020521Z AUTO 16019G31KT 10SM BKN024 18/13 A3005 RMK AO2 PK WND 17032/0507 T01830133,M
BVU,2023-09-02 05:35,-114.8611,35.9475,671.00,69.80,64.40,82.98,110.00,8.00,0.00,30.02,M,10.00,M,CLR,M,M,M,M,M,M,M,M,M,M,M,M,M,M,69.80,KBVU 020535Z AUTO 11008KT 10SM CLR 21/18 A3002 RMK AO2,M
CXP,2023-09-02 05:35,-119.7326,39.1923,1431.00,53.60,51.80,93.60,100.00,4.00,0.00,29.98,M,9.00,M,FEW,SCT,OVC,M,5000.00,6500.00,8000.00,M,M,M,M,M,M,M,M,53.60,KCXP 020535Z AUTO 10004KT 9SM FEW050 SCT065 OVC080 12/11 A2998 RMK AO2 LTG DSNT SW,M
VGT,2023-09-02 05:35,-115.1933,36.2111,667.00,70.00,65.00,84.16,0.00,0.00,0.00,30.03,M,10.00,M,BKN,M,M,M,2800.00,M,M,M,M,M,M,M,M,M,M,70.00,KVGT 020535Z AUTO 00000KT 10SM BKN028 21/18 A3003 RMK AO2 T02110183 $,M
RTS,2023-09-02 05:35,-119.8764,39.6682,1539.00,55.40,46.40,71.64,0.00,0.00,0.00,30.00,M,10.00,M,BKN,OVC,M,M,6000.00,7000.00,M,M,M,M,M,M,M,M,M,55.40,KRTS 020535Z AUTO 00000KT 10SM BKN060 OVC070 13/08 A3000 RMK AO2,M
MEV,2023-09-02 05:35,-119.7500,38.9963,1441.42,53.60,48.20,81.87,140.00,4.00,0.00,29.98,M,10.00,M,FEW,BKN,OVC,M,5000.00,7500.00,9000.00,M,M,M,M,M,M,M,M,53.60,KMEV 020535Z AUTO 14004KT 10SM FEW050 BKN075 OVC090 12/09 A2998 RMK AO2 LTG DSNT SW AND W,M
BAM,2023-09-02 05:35,-116.8743,40.5990,1382.36,66.20,42.80,42.57,360.00,11.00,0.00,29.95,M,10.00,M,CLR,M,M,M,M,M,M,M,M,M,M,M,M,M,M,66.20,KBAM 020535Z AUTO 36011KT 10SM CLR 19/06 A2995 RMK AO1,M
HTH,2023-09-02 05:35,-118.6315,38.5448,1282.89,66.20,46.40,48.83,330.00,16.00,0.00,29.92,M,10.00,M,CLR,M,M,M,M,M,M,M,M,M,M,M,M,M,M,66.20,KHTH 020535Z AUTO 33016KT 10SM CLR 19/08 A2992 RMK A01,M
TMT,2023-09-02 05:35,-117.1971,39.4643,1749.34,61.30,40.00,45.36,80.00,5.00,0.00,30.00,M,M,M,OVC,M,M,M,8000.00,M,M,M,M,M,M,M,M,M,M,61.30,KTMT 020535Z AUTO 08005KT OVC080 16/05 A3000 RMK AO2 LTG DSNT W THRU E T01630045 PWINO,M
10U,2023-09-02 05:40,-116.1876,41.9532,1637.00,66.20,48.20,52.25,120.00,17.00,0.00,29.95,M,10.00,24.00,BKN,M,M,M,11000.00,M,M,M,M,M,M,M,M,M,M,66.20,K10U 020540Z AUTO 12017G24KT 10SM BKN110 19/09 A2995 RMK AO2,M
DRA,2023-09-02 05:53,-116.0278,36.6206,1009.00,68.00,60.00,75.57,330.00,4.00,0.00,30.02,1012.00,10.00,M,FEW,OVC,M,M,7000.00,11000.00,M,M,M,M,M,M,M,M,M,68.00,KDRA 020553Z AUTO 33004KT 10SM FEW070 OVC110 20/16 A3002 RMK AO2 SLP120 T02000156 10250 20200 53021,M
ELY,2023-09-02 05:53,-114.8453,39.2950,1909.00,56.00,50.00,80.23,190.00,15.00,0.00,30.15,1012.30,10.00,22.00,CLR,M,M,M,M,M,M,M,M,M,M,M,29.00,180.00,2023-09-02 04:58,56.00,KELY 020553Z AUTO 19015G22KT 10SM CLR 13/10 A3015 RMK AO2 PK WND 18029/0458 SLP123 60003 T01330100 10183 20128 53003,M
VGT,2023-09-02 05:53,-115.1933,36.2111,667.00,71.00,65.00,81.34,90.00,3.00,0.00,30.04,1016.90,10.00,M,BKN,OVC,M,M,2700.00,10000.00,M,M,M,M,M,M,M,M,M,71.00,KVGT 020553Z AUTO 09003KT 10SM BKN027 OVC100 22/18 A3004 RMK AO2 SLP169 60104 T02170183 10244 20178 53008 $,M
LOL,2023-09-02 05:53,-118.5701,40.0684,1192.43,63.00,46.00,53.78,20.00,8.00,0.00,29.94,1010.90,10.00,M,CLR,M,M,M,M,M,M,M,M,M,M,M,M,M,M,63.00,KLOL 020553Z AUTO 02008KT 10SM CLR 17/08 A2994 RMK AO2 SLP109 T01720078 10217 20172 51014,M
BVU,2023-09-02 05:55,-114.8611,35.9475,671.00,69.80,64.40,82.98,120.00,12.00,0.00,30.03,M,10.00,M,CLR,M,M,M,M,M,M,M,M,M,M,M,M,M,M,69.80,KBVU 020555Z AUTO 12012KT 10SM CLR 21/18 A3003 RMK AO2,M
CXP,2023-09-02 05:55,-119.7326,39.1923,1431.00,53.60,51.80,93.60,0.00,0.00,0.01,30.00,M,10.00,M,FEW,BKN,OVC,M,5000.00,6500.00,8000.00,M,M,M,M,M,M,M,M,53.60,KCXP 020555Z AUTO 00000KT 10SM FEW050 BKN065 OVC080 12/11 A3000 RMK AO2 LTG DSNT SW AND W P0001,M
RNO,2023-09-02 05:55,-119.7711,39.4839,1341.00,55.00,51.00,86.34,260.00,5.00,0.08,29.97,1010.40,6.00,M,OVC,M,M,M,8000.00,M,M,M,RA BR,M,M,M,M,M,M,55.00,KRNO 020555Z 26005KT 6SM RA BR OVC080 13/11 A2997 RMK AO2 SLP104 P0008 60010 T01280106 10183 20128 51010,M
RTS,2023-09-02 05:55,-119.8764,39.6682,1539.00,55.40,48.20,76.66,0.00,0.00,0.01,30.01,M,6.00,M,FEW,BKN,OVC,M,2800.00,3500.00,6000.00,M,-RA,M,M,M,M,M,M,55.40,KRTS 020555Z AUTO 00000KT 6SM -RA FEW028 BKN035 OVC060 13/09 A3001 RMK AO2 P0001,M
MEV,2023-09-02 05:55,-119.7500,38.9963,1441.42,53.60,46.40,76.50,180.00,4.00,0.00,29.98,M,10.00,11.00,FEW,BKN,OVC,M,4600.00,7000.00,11000.00,M,M,M,M,M,M,M,M,53.60,KMEV 020555Z AUTO 18004G11KT 10SM FEW046 BKN070 OVC110 12/08 A2998 RMK AO2 LTG DSNT W,M
BAM,2023-09-02 05:55,-116.8743,40.5990,1382.36,66.20,42.80,42.57,10.00,11.00,0.00,29.95,M,10.00,M,CLR,M,M,M,M,M,M,M,M,M,M,M,M,M,M,66.20,KBAM 020555Z AUTO 01011KT 10SM CLR 19/06 A2995 RMK AO1,M
HTH,2023-09-02 05:55,-118.6315,38.5448,1282.89,64.40,46.40,51.98,320.00,14.00,0.00,29.93,M,10.00,M,CLR,M,M,M,M,M,M,M,M,M,M,M,M,M,M,64.40,KHTH 020555Z AUTO 32014KT 10SM CLR 18/08 A2993 RMK A01,M
TMT,2023-09-02 05:55,-117.1971,39.4643,1749.34,60.80,41.40,48.75,320.00,4.00,0.00,30.02,M,M,M,BKN,OVC,M,M,7500.00,10000.00,M,M,M,M,M,M,M,M,M,60.80,KTMT 020555Z AUTO 32004KT BKN075 OVC100 16/05 A3002 RMK AO2 LTG DSNT NE AND W T01600052 10264 20158 PWINO,M
INS,2023-09-02 05:55,-115.6733,36.5872,955.00,67.50,59.00,74.19,140.00,11.00,0.00,30.01,1012.30,10.00,M,BKN,OVC,M,M,8500.00,11000.00,M,M,M,M,M,M,27.00,80.00,2023-09-02 05:21,67.50,KINS 020555Z AUTO 14011KT 10SM BKN085 OVC110 20/15 A3001 RMK AO2 PK WND 08027/21 SLP123 60021 T01970149 10218 20172 50013 $,M
LSV,2023-09-02 05:55,-115.0343,36.2362,570.00,69.80,69.40,98.64,350.00,4.00,0.00,30.00,1014.00,10.00,M,FEW,SCT,BKN,M,2600.00,4300.00,12000.00,M,M,M,M,M,M,M,M,69.80,KLSV 020555Z AUTO 35004KT 10SM FEW026 SCT043 BKN120 21/21 A3000 RMK AO2 SLP140 60068 T02100208 10233 20199 53003 $,M
EKO,2023-09-02 05:56,-115.7860,40.8242,1367.00,69.00,50.00,50.74,180.00,16.00,T,29.96,1008.10,10.00,22.00,BKN,BKN,OVC,M,5500.00,7000.00,11000.00,M,M,M,M,M,35.00,170.00,2023-09-02 05:23,69.00,KEKO 020556Z AUTO 18016G22KT 10SM BKN055 BKN070 OVC110 21/10 A2996 RMK AO2 PK WND 17035/0523 RAB29E42 SLP081 P0000 60004 T02060100 10278 20200 51023,M
WMC,2023-09-02 05:56,-117.8072,40.9019,1315.00,60.00,44.00,55.42,290.00,6.00,0.00,29.98,1011.00,10.00,M,OVC,M,M,M,12000.00,M,M,M,M,M,M,M,M,M,M,60.00,KWMC 020556Z AUTO 29006KT 10SM OVC120 16/07 A2998 RMK AO2 SLP110 T01560067 10211 20150 51015,M
NFL,2023-09-02 05:56,-118.7010,39.4166,1199.00,62.00,48.00,60.07,340.00,6.00,0.00,29.94,1011.20,10.00,M,FEW,SCT,BKN,M,4000.00,6000.00,9000.00,M,M,M,M,M,M,M,M,62.00,KNFL 020556Z 34006KT 10SM FEW040 SCT060 BKN090 17/09 A2994 RMK AO2 SLP112 LTG DSNT NE-E SH VC SW-NW 60000 T01670089 10228 20167 51012,M
HND,2023-09-02 05:56,-115.1344,35.9729,742.79,67.00,62.00,83.97,300.00,4.00,0.00,30.06,1017.70,10.00,M,BKN,M,M,M,1100.00,M,M,M,M,M,M,M,M,M,M,67.00,KHND 020556Z AUTO 30004KT 10SM BKN011 19/17 A3006 RMK AO2 SLP177 60001 T01940167 10256 20194 53006,M
TPH,2023-09-02 05:56,-117.0904,38.0505,1654.00,63.00,56.00,77.89,170.00,23.00,0.00,30.05,1010.30,10.00,33.00,SCT,BKN,M,M,2000.00,2500.00,M,M,M,M,M,M,34.00,160.00,2023-09-02 05:33,63.00,KTPH 020556Z AUTO 17023G33KT 10SM SCT020 BKN025 17/13 A3005 RMK AO2 PK WND 16034/0533 SLP103 T01720133 10256 20172 51021,M
LAS,2023-09-02 05:56,-115.1634,36.0719,663.00,69.00,69.00,100.00,330.00,6.00,0.00,30.04,1015.30,10.00,M,FEW,BKN,OVC,M,2500.00,3600.00,12000.00,M,M,M,M,M,M,M,M,69.00,KLAS 020556Z 33006KT 10SM FEW025 BKN036 OVC120 21/21 A3004 RMK AO2 SLP153 6//// T02060206 10244 20206 53005,M
10U,2023-09-02 06:00,-116.1876,41.9532,1637.00,66.20,42.80,42.57,190.00,12.00,0.00,29.98,M,10.00,22.00,SCT,M,M,M,12000.00,M,M,M,M,M,M,M,M,M,M,66.20,K10U 020600Z AUTO 19012G22KT 10SM SCT120 19/06 A2998 RMK AO2,M
HND,2023-09-02 06:03,-115.1344,35.9729,742.79,66.20,62.60,88.18,310.00,3.00,0.00,30.07,M,10.00,M,SCT,M,M,M,1100.00,M,M,M,M,M,M,M,M,M,M,66.20,KHND 020603Z AUTO 31003KT 10SM SCT011 19/17 A3007 RMK AO2,M
TPH,2023-09-02 06:03,-117.0904,38.0505,1654.00,63.00,56.00,77.89,170.00,25.00,0.00,30.05,M,10.00,34.00,SCT,M,M,M,2000.00,M,M,M,M,M,M,M,34.00,170.00,2023-09-02 06:02,63.00,KTPH 020603Z AUTO 17025G34KT 10SM SCT020 17/13 A3005 RMK AO2 PK WND 17034/0602 T01720133,M
VGT,2023-09-02 06:07,-115.1933,36.2111,667.00,71.00,65.00,81.34,110.00,4.00,0.00,30.03,M,10.00,M,SCT,OVC,M,M,2700.00,10000.00,M,M,M,M,M,M,M,M,M,71.00,KVGT 020607Z AUTO 11004KT 10SM SCT027 OVC100 22/18 A3003 RMK AO2 T02170183 $,M
BVU,2023-09-02 06:15,-114.8611,35.9475,671.00,69.80,64.40,82.98,110.00,10.00,0.00,30.03,M,10.00,M,CLR,M,M,M,M,M,M,M,M,M,M,M,M,M,M,69.80,KBVU 020615Z AUTO 11010KT 10SM CLR 21/18 A3003 RMK AO2,M
CXP,2023-09-02 06:15,-119.7326,39.1923,1431.00,53.60,51.80,93.60,0.00,0.00,0.00,29.99,M,10.00,M,FEW,BKN,OVC,M,4900.00,7000.00,9500.00,M,M,M,M,M,M,M,M,53.60,KCXP 020615Z AUTO 00000KT 10SM FEW049 BKN070 OVC095 12/11 A2999 RMK AO2,M
RTS,2023-09-02 06:15,-119.8764,39.6682,1539.00,53.60,50.00,87.56,0.00,0.00,0.00,30.01,M,4.00,11.00,FEW,SCT,BKN,M,300.00,2800.00,3200.00,M,-RA,M,M,M,M,M,M,53.60,KRTS 020615Z AUTO 00000G11KT 4SM -RA FEW003 SCT028 BKN032 12/10 A3001 RMK AO2,M
MEV,2023-09-02 06:15,-119.7500,38.9963,1441.42,53.60,46.40,76.50,110.00,6.00,0.00,29.98,M,10.00,M,FEW,SCT,BKN,M,4200.00,6500.00,7500.00,M,M,M,M,M,M,M,M,53.60,KMEV 020615Z AUTO 11006KT 10SM FEW042 SCT065 BKN075 12/08 A2998 RMK AO2 LTG DSNT W,M
BAM,2023-09-02 06:15,-116.8743,40.5990,1382.36,64.40,42.80,45.32,360.00,10.00,0.00,29.96,M,10.00,M,SCT,M,M,M,12000.00,M,M,M,M,M,M,M,M,M,M,64.40,KBAM 020615Z AUTO 36010KT 10SM SCT120 18/06 A2996 RMK AO1,M
HTH,2023-09-02 06:15,-118.6315,38.5448,1282.89,64.40,46.40,51.98,320.00,14.00,0.00,29.94,M,10.00,M,CLR,M,M,M,M,M,M,M,M,M,M,M,M,M,M,64.40,KHTH 020615Z AUTO 32014KT 10SM CLR 18/08 A2994 RMK A01,M
TMT,2023-09-02 06:15,-117.1971,39.4643,1749.34,60.00,43.00,53.34,330.00,12.00,0.00,30.01,M,M,15.00,BKN,BKN,OVC,M,7500.00,9000.00,11000.00,M,VCTS,M,M,M,M,M,M,60.00,KTMT 020615Z AUTO 33012G15KT VCTS BKN075 BKN090 OVC110 16/06 A3001 RMK AO2 LTG DSNT W AND NW T01550062,M
10U,2023-09-02 06:20,-116.1876,41.9532,1637.00,62.60,41.00,45.04,150.00,11.00,0.00,30.00,M,10.00,M,SCT,M,M,M,12000.00,M,M,M,M,M,M,M,M,M,M,62.60,K10U 020620Z AUTO 15011KT 10SM SCT120 17/05 A3000 RMK AO2,M
BVU,2023-09-02 06:35,-114.8611,35.9475,671.00,69.80,64.40,82.98,110.00,8.00,0.00,30.04,M,10.00,M,CLR,M,M,M,M,M,M,M,M,M,M,M,M,M,M,69.80,KBVU 020635Z AUTO 11008KT 10SM CLR 21/18 A3004 RMK AO2,M
CXP,2023-09-02 06:35,-119.7326,39.1923,1431.00,55.40,50.00,81.99,0.00,0.00,0.00,29.99,M,10.00,M,BKN,M,M,M,10000.00,M,M,M,M,M,M,M,M,M,M,55.40,KCXP 020635Z AUTO 00000KT 10SM BKN100 13/10 A2999 RMK AO2,M
HND,2023-09-02 06:35,-115.1344,35.9729,742.79,66.20,62.60,88.18,320.00,4.00,0.00,30.07,M,10.00,M,FEW,SCT,BKN,M,1100.00,1700.00,2300.00,M,M,M,M,M,M,M,M,66.20,KHND 020635Z AUTO 32004KT 10SM FEW011 SCT017 BKN023 19/17 A3007 RMK AO2,M
RTS,2023-09-02 06:35,-119.8764,39.6682,1539.00,51.80,50.00,93.55,0.00,0.00,0.00,30.00,M,9.00,10.00,FEW,SCT,BKN,M,3000.00,3900.00,6500.00,M,-DZ,M,M,M,M,M,M,51.80,KRTS 020635Z AUTO 00000G10KT 9SM -DZ FEW030 SCT039 BKN065 11/10 A3000 RMK AO2,M
05U,2023-09-02 06:35,-116.0051,39.6042,1811.23,60.80,53.60,77.14,M,M,0.00,30.09,M,10.00,M,M,M,M,M,M,M,M,M,M,M,M,M,M,M,M,60.80,K05U 020635Z AUTO 10SM 16/12 A3009 RMK A01,M
MEV,2023-09-02 06:35,-119.7500,38.9963,1441.42,51.80,44.60,76.34,150.00,6.00,0.00,29.99,M,10.00,M,FEW,FEW,SCT,M,4000.00,6000.00,7500.00,M,M,M,M,M,M,M,M,51.80,KMEV 020635Z AUTO 15006KT 10SM FEW040 FEW060 SCT075 11/07 A2999 RMK AO2,M
BAM,2023-09-02 06:35,-116.8743,40.5990,1382.36,66.20,42.80,42.57,350.00,3.00,0.00,30.01,M,10.00,M,BKN,BKN,M,M,10000.00,12000.00,M,M,M,M,M,M,M,M,M,66.20,KBAM 020635Z AUTO 35003KT 10SM BKN100 BKN120 19/06 A3001 RMK AO1,M
HTH,2023-09-02 06:35,-118.6315,38.5448,1282.89,64.40,46.40,51.98,330.00,12.00,0.00,29.95,M,10.00,20.00,CLR,M,M,M,M,M,M,M,M,M,M,M,M,M,M,64.40,KHTH 020635Z AUTO 33012G20KT 10SM CLR 18/08 A2995 RMK A01,M
TMT,2023-09-02 06:35,-117.1971,39.4643,1749.34,60.00,43.00,53.34,340.00,4.00,0.00,30.03,M,M,M,BKN,BKN,OVC,M,7000.00,9000.00,11000.00,M,M,M,M,M,M,M,M,60.00,KTMT 020635Z AUTO 34004KT BKN070 BKN090 OVC110 16/06 A3003 RMK AO2 LTG DSNT NW T01550061 PWINO,M
10U,2023-09-02 06:40,-116.1876,41.9532,1637.00,60.80,42.80,51.45,160.00,13.00,0.00,30.00,M,10.00,M,BKN,M,M,M,12000.00,M,M,M,M,M,M,M,M,M,M,60.80,K10U 020640Z AUTO 16013KT 10SM BKN120 16/06 A3000 RMK AO2,M
HND,2023-09-02 06:42,-115.1344,35.9729,742.79,66.20,62.60,88.18,310.00,3.00,0.00,30.08,M,10.00,M,FEW,SCT,BKN,M,1100.00,1600.00,10000.00,M,M,M,M,M,M,M,M,66.20,KHND 020642Z AUTO 31003KT 10SM FEW011 SCT016 BKN100 19/17 A3008 RMK AO2,M
05U,2023-09-02 06:50,-116.0051,39.6042,1811.23,60.80,53.60,77.14,M,M,0.00,30.10,M,10.00,M,M,M,M,M,M,M,M,M,M,M,M,M,M,M,M,60.80,K05U 020650Z AUTO 10SM 16/12 A3010 RMK A01,M
P68,2023-09-02 06:53,-116.0056,39.6014,1993.00,61.00,54.00,77.72,140.00,17.00,0.01,30.07,1010.10,M,28.00,M,M,M,M,M,M,M,M,M,M,M,M,28.00,150.00,2023-09-02 06:52,61.00,KP68 020653Z AUTO 14017G28KT 16/12 A3007 RMK AO1 PK WND 15028/0652 SLP101 P0001 T01610122 $,M
DRA,2023-09-02 06:53,-116.0278,36.6206,1009.00,67.00,60.00,78.22,0.00,0.00,0.00,30.02,1012.00,10.00,M,FEW,M,M,M,11000.00,M,M,M,M,M,M,M,M,M,M,67.00,KDRA 020653Z AUTO 00000KT 10SM FEW110 19/16 A3002 RMK AO2 SLP120 T01940156,M
ELY,2023-09-02 06:53,-114.8453,39.2950,1909.00,56.00,53.00,89.64,190.00,11.00,T,30.17,1012.80,10.00,19.00,SCT,BKN,BKN,M,3500.00,4700.00,11000.00,M,M,M,M,M,26.00,190.00,2023-09-02 06:02,56.00,KELY 020653Z AUTO 19011G19KT 10SM SCT035 BKN047 BKN110 13/12 A3017 RMK AO2 PK WND 19026/0602 RAB22E45 SLP128 P0000 T01330117,M
VGT,2023-09-02 06:53,-115.1933,36.2111,667.00,71.00,66.00,84.22,0.00,0.00,0.00,30.04,1016.90,10.00,M,BKN,M,M,M,11000.00,M,M,M,M,M,M,M,M,M,M,71.00,KVGT 020653Z AUTO 00000KT 10SM BKN110 22/19 A3004 RMK AO2 SLP169 T02170189 $,M
LOL,2023-09-02 06:53,-118.5701,40.0684,1192.43,61.00,46.00,57.72,50.00,7.00,0.00,29.96,1011.50,10.00,M,CLR,M,M,M,M,M,M,M,M,M,M,M,M,M,M,61.00,KLOL 020653Z AUTO 05007KT 10SM CLR 16/08 A2996 RMK AO2 SLP115 T01610078,M
BVU,2023-09-02 06:55,-114.8611,35.9475,671.00,69.80,64.40,82.98,100.00,6.00,0.00,30.04,M,10.00,M,CLR,M,M,M,M,M,M,M,M,M,M,M,M,M,M,69.80,KBVU 020655Z AUTO 10006KT 10SM CLR 21/18 A3004 RMK AO2,M
CXP,2023-09-02 06:55,-119.7326,39.1923,1431.00,55.40,46.40,71.64,0.00,0.00,0.01,30.00,M,10.00,M,SCT,M,M,M,10000.00,M,M,M,M,M,M,M,M,M,M,55.40,KCXP 020655Z AUTO 00000KT 10SM SCT100 13/08 A3000 RMK AO2 LTG DSNT W P0001,M
RNO,2023-09-02 06:55,-119.7711,39.4839,1341.00,56.00,51.00,83.26,0.00,0.00,0.01,29.97,1010.90,10.00,M,SCT,BKN,M,M,7500.00,10000.00,M,M,M,M,M,M,M,M,M,56.00,KRNO 020655Z 00000KT 10SM SCT075 BKN100 13/11 A2997 RMK AO2 RAE46 SLP109 P0001 T01330106,M
RTS,2023-09-02 06:55,-119.8764,39.6682,1539.00,53.60,48.20,81.87,350.00,4.00,0.06,30.01,M,10.00,M,OVC,M,M,M,6500.00,M,M,M,M,M,M,M,M,M,M,53.60,KRTS 020655Z AUTO 35004KT 10SM OVC065 12/09 A3001 RMK AO2 P0006,M
MEV,2023-09-02 06:55,-119.7500,38.9963,1441.42,51.80,44.60,76.34,0.00,0.00,0.00,29.99,M,10.00,M,FEW,FEW,SCT,M,4900.00,6000.00,11000.00,M,M,M,M,M,M,M,M,51.80,KMEV 020655Z AUTO 00000KT 10SM FEW049 FEW060 SCT110 11/07 A2999 RMK AO2 LTG DSNT W,M
BAM,2023-09-02 06:55,-116.8743,40.5990,1382.36,62.60,51.80,67.75,100.00,4.00,0.00,30.01,M,10.00,M,SCT,BKN,OVC,M,4700.00,7000.00,12000.00,M,M,M,M,M,M,M,M,62.60,KBAM 020655Z AUTO 10004KT 10SM SCT047 BKN070 OVC120 17/11 A3001 RMK AO1,M
HTH,2023-09-02 06:55,-118.6315,38.5448,1282.89,64.40,46.40,51.98,320.00,11.00,0.00,29.96,M,10.00,16.00,CLR,M,M,M,M,M,M,M,M,M,M,M,M,M,M,64.40,KHTH 020655Z AUTO 32011G16KT 10SM CLR 18/08 A2996 RMK A01,M
TMT,2023-09-02 06:55,-117.1971,39.4643,1749.34,58.00,42.30,55.78,80.00,7.00,0.00,30.05,M,M,M,BKN,BKN,BKN,M,6000.00,8000.00,11000.00,M,M,M,M,M,M,M,M,58.00,KTMT 020655Z AUTO 08007KT BKN060 BKN080 BKN110 15/06 A3005 RMK AO2 T01450057 PWINO,M
10U,2023-09-02 06:55,-116.1876,41.9532,1637.00,60.80,42.80,51.45,180.00,14.00,0.00,30.01,M,10.00,19.00,SCT,M,M,M,12000.00,M,M,M,M,M,M,M,M,M,M,60.80,K10U 020655Z AUTO 18014G19KT 10SM SCT120 16/06 A3001 RMK AO2,M
INS,2023-09-02 06:55,-115.6733,36.5872,955.00,67.00,61.00,81.05,90.00,18.00,0.00,30.01,1012.30,10.00,M,BKN,OVC,M,M,9500.00,12000.00,M,M,M,M,M,M,M,M,M,67.00,KINS 020655Z AUTO 09018KT 10SM BKN095 OVC120 19/16 A3001 RMK AO2 SLP123 T01940162 $,M
LSV,2023-09-02 06:55,-115.0343,36.2362,570.00,70.50,70.00,98.31,30.00,6.00,0.00,30.01,1014.50,10.00,M,BKN,M,M,M,11000.00,M,M,M,M,M,M,M,M,M,M,70.50,KLSV 020655Z AUTO 03006KT 10SM BKN110 21/21 A3001 RMK AO2 SLP145 T02140212 $,M
EKO,2023-09-02 06:56,-115.7860,40.8242,1367.00,67.00,49.00,52.37,190.00,7.00,0.00,30.00,1009.50,10.00,19.00,OVC,M,M,M,10000.00,M,M,M,M,M,M,M,33.00,170.00,2023-09-02 06:25,67.00,KEKO 020656Z AUTO 19007G19KT 160V230 10SM OVC100 19/09 A3000 RMK AO2 PK WND 17033/0625 LTG DSNT SW SLP095 T01940094,M
WMC,2023-09-02 06:56,-117.8072,40.9019,1315.00,58.00,44.00,59.54,270.00,3.00,0.00,30.01,1011.80,10.00,M,SCT,M,M,M,11000.00,M,M,M,M,M,M,M,M,M,M,58.00,KWMC 020656Z AUTO 27003KT 10SM SCT110 14/07 A3001 RMK AO2 SLP118 T01440067,M
NFL,2023-09-02 06:56,-118.7010,39.4166,1199.00,62.00,47.00,57.85,350.00,7.00,0.00,29.95,1011.60,10.00,M,CLR,M,M,M,M,M,M,M,M,M,M,M,M,M,M,62.00,KNFL 020656Z AUTO 35007KT 10SM CLR 17/08 A2995 RMK AO2 SLP116 T01670083,M
HND,2023-09-02 06:56,-115.1344,35.9729,742.79,68.00,64.00,87.03,0.00,0.00,0.00,30.07,1018.00,10.00,M,FEW,SCT,BKN,M,1600.00,3200.00,11000.00,M,M,M,M,M,M,M,M,68.00,KHND 020656Z AUTO 00000KT 10SM FEW016 SCT032 BKN110 20/18 A3007 RMK AO2 SLP180 T02000178 403170194,M
TPH,2023-09-02 06:56,-117.0904,38.0505,1654.00,63.00,56.00,77.89,170.00,26.00,0.00,30.05,1010.30,10.00,39.00,FEW,SCT,M,M,1800.00,11000.00,M,M,M,M,M,M,39.00,170.00,2023-09-02 06:50,63.00,KTPH 020656Z AUTO 17026G39KT 10SM FEW018 SCT110 17/13 A3005 RMK AO2 PK WND 17039/0650 SLP103 T01720133,M
LAS,2023-09-02 06:56,-115.1634,36.0719,663.00,69.00,69.00,100.00,330.00,6.00,0.00,30.04,1015.40,10.00,M,SCT,BKN,OVC,M,2500.00,3600.00,12000.00,M,M,M,M,M,M,M,M,69.00,KLAS 020656Z 33006KT 10SM SCT025 BKN036 OVC120 21/21 A3004 RMK AO2 SLP154 T02060206,M
TPH,2023-09-02 07:12,-117.0904,38.0505,1654.00,63.00,56.00,77.89,170.00,22.00,0.00,30.05,M,10.00,36.00,BKN,M,M,M,1800.00,M,M,M,M,M,M,M,36.00,170.00,2023-09-02 07:05,63.00,KTPH 020712Z AUTO 17022G36KT 10SM BKN018 17/13 A3005 RMK AO2 PK WND 17036/0705 T01720133,M
INS,2023-09-02 07:14,-115.6733,36.5872,955.00,68.00,60.80,77.75,90.00,17.00,0.00,30.02,1012.50,10.00,23.00,OVC,M,M,M,9000.00,M,M,M,-RA,M,M,M,M,M,M,68.00,KINS 020714Z AUTO 09017G23KT 10SM -RA OVC090 20/16 A3002 RMK AO2 RAB14 SLP125 $,M
HND,2023-09-02 07:14,-115.1344,35.9729,742.79,68.00,64.40,88.26,0.00,0.00,0.00,30.07,M,10.00,M,BKN,OVC,M,M,2800.00,11000.00,M,M,M,M,M,M,M,M,M,68.00,KHND 020714Z AUTO 00000KT 10SM BKN028 OVC110 20/18 A3007 RMK AO2,M
BVU,2023-09-02 07:15,-114.8611,35.9475,671.00,69.80,64.40,82.98,80.00,5.00,0.00,30.04,M,10.00,M,CLR,M,M,M,M,M,M,M,M,M,M,M,M,M,M,69.80,KBVU 020715Z AUTO 08005KT 10SM CLR 21/18 A3004 RMK AO2,M
CXP,2023-09-02 07:15,-119.7326,39.1923,1431.00,53.60,48.20,81.87,0.00,0.00,0.00,30.01,M,10.00,M,FEW,SCT,M,M,9000.00,12000.00,M,M,M,M,M,M,M,M,M,53.60,KCXP 020715Z AUTO 00000KT 10SM FEW090 SCT120 12/09 A3001 RMK AO2,M
RTS,2023-09-02 07:15,-119.8764,39.6682,1539.00,51.80,50.00,93.55,70.00,5.00,0.00,30.01,M,10.00,M,OVC,M,M,M,7000.00,M,M,M,M,M,M,M,M,M,M,51.80,KRTS 020715Z AUTO 07005KT 10SM OVC070 11/10 A3001 RMK AO2,M
05U,2023-09-02 07:15,-116.0051,39.6042,1811.23,60.80,53.60,77.14,M,M,0.00,30.10,M,10.00,M,FEW,SCT,BKN,M,4300.00,5500.00,7500.00,M,M,M,M,M,M,M,M,60.80,K05U 020715Z AUTO 10SM FEW043 SCT055 BKN075 16/12 A3010 RMK A01,M
MEV,2023-09-02 07:15,-119.7500,38.9963,1441.42,51.80,42.80,71.26,0.00,0.00,0.00,29.99,M,10.00,M,FEW,BKN,BKN,M,4900.00,5500.00,12000.00,M,M,M,M,M,M,M,M,51.80,KMEV 020715Z AUTO 00000KT 10SM FEW049 BKN055 BKN120 11/06 A2999 RMK AO2 LTG DSNT W,M
BAM,2023-09-02 07:15,-116.8743,40.5990,1382.36,62.60,46.40,55.37,350.00,7.00,0.00,30.01,M,10.00,M,SCT,BKN,BKN,M,7000.00,10000.00,12000.00,M,M,M,M,M,M,M,M,62.60,KBAM 020715Z AUTO 35007KT 10SM SCT070 BKN100 BKN120 17/08 A3001 RMK AO1,M
HTH,2023-09-02 07:15,-118.6315,38.5448,1282.89,64.40,46.40,51.98,330.00,15.00,0.00,29.97,M,10.00,M,CLR,M,M,M,M,M,M,M,M,M,M,M,M,M,M,64.40,KHTH 020715Z AUTO 33015KT 10SM CLR 18/08 A2997 RMK A01,M
10U,2023-09-02 07:15,-116.1876,41.9532,1637.00,60.80,42.80,51.45,190.00,16.00,0.00,29.99,M,10.00,M,FEW,M,M,M,9500.00,M,M,M,M,M,M,M,M,M,M,60.80,K10U 020715Z AUTO 19016KT 10SM FEW095 16/06 A2999 RMK AO2,M
TMT,2023-09-02 07:15,-117.1971,39.4643,1749.34,57.00,42.00,57.16,0.00,0.00,0.00,30.03,M,M,M,SCT,BKN,M,M,6000.00,8000.00,M,M,VCTS,M,M,M,M,M,M,57.00,KTMT 020715Z AUTO 00000KT VCTS SCT060 BKN080 14/06 A3003 RMK AO2 LTG DSNT S T01390055,M
TPH,2023-09-02 07:19,-117.0904,38.0505,1654.00,63.00,56.00,77.89,170.00,23.00,0.00,30.06,M,10.00,33.00,SCT,M,M,M,1800.00,M,M,M,M,M,M,M,36.00,170.00,2023-09-02 07:05,63.00,KTPH 020719Z AUTO 17023G33KT 10SM SCT018 17/13 A3006 RMK AO2 PK WND 17036/0705 T01720133,M
TPH,2023-09-02 07:29,-117.0904,38.0505,1654.00,62.00,56.00,80.68,170.00,26.00,0.00,30.06,M,10.00,36.00,BKN,BKN,M,M,1700.00,10000.00,M,M,M,M,M,M,36.00,170.00,2023-09-02 07:05,62.00,KTPH 020729Z AUTO 17026G36KT 10SM BKN017 BKN100 17/13 A3006 RMK AO2 PK WND 17036/0705 T01670133,M
05U,2023-09-02 07:30,-116.0051,39.6042,1811.23,60.80,53.60,77.14,M,M,0.00,30.10,M,10.00,M,FEW,BKN,OVC,M,5500.00,7000.00,11000.00,M,M,M,M,M,M,M,M,60.80,K05U 020730Z AUTO 10SM FEW055 BKN070 OVC110 16/12 A3010 RMK A01,M
EKO,2023-09-02 07:31,-115.7860,40.8242,1367.00,65.00,49.00,56.13,300.00,4.00,0.00,30.01,M,10.00,M,BKN,OVC,M,M,10000.00,12000.00,M,M,VCTS,M,M,M,M,M,M,65.00,KEKO 020731Z AUTO 30004KT 10SM VCTS BKN100 OVC120 18/09 A3001 RMK AO2 LTG DSNT SW-NW T01830094,M
BVU,2023-09-02 07:35,-114.8611,35.9475,671.00,69.80,64.40,82.98,100.00,5.00,0.00,30.04,M,10.00,M,CLR,M,M,M,M,M,M,M,M,M,M,M,M,M,M,69.80,KBVU 020735Z AUTO 10005KT 10SM CLR 21/18 A3004 RMK AO2,M
CXP,2023-09-02 07:35,-119.7326,39.1923,1431.00,53.60,48.20,81.87,0.00,0.00,0.00,30.01,M,10.00,M,BKN,BKN,M,M,9000.00,12000.00,M,M,M,M,M,M,M,M,M,53.60,KCXP 020735Z AUTO 00000KT 10SM BKN090 BKN120 12/09 A3001 RMK AO2,M
RTS,2023-09-02 07:35,-119.8764,39.6682,1539.00,51.80,50.00,93.55,60.00,8.00,0.00,30.01,M,10.00,M,OVC,M,M,M,7000.00,M,M,M,M,M,M,M,M,M,M,51.80,KRTS 020735Z AUTO 06008KT 10SM OVC070 11/10 A3001 RMK AO2,M
MEV,2023-09-02 07:35,-119.7500,38.9963,1441.42,55.40,41.00,58.27,200.00,9.00,0.00,29.98,M,10.00,M,FEW,FEW,BKN,M,3900.00,4700.00,5500.00,M,M,M,M,M,M,M,M,55.40,KMEV 020735Z AUTO 20009KT 10SM FEW039 FEW047 BKN055 13/05 A2998 RMK AO2,M
BAM,2023-09-02 07:35,-116.8743,40.5990,1382.36,62.60,46.40,55.37,0.00,0.00,0.00,30.01,M,10.00,M,SCT,M,M,M,10000.00,M,M,M,M,M,M,M,M,M,M,62.60,KBAM 020735Z AUTO 00000KT 10SM SCT100 17/08 A3001 RMK AO1,M
HTH,2023-09-02 07:35,-118.6315,38.5448,1282.89,64.40,46.40,51.98,330.00,14.00,0.00,29.97,M,10.00,19.00,CLR,M,M,M,M,M,M,M,M,M,M,M,M,M,M,64.40,KHTH 020735Z AUTO 33014G19KT 10SM CLR 18/08 A2997 RMK A01,M
TMT,2023-09-02 07:35,-117.1971,39.4643,1749.34,57.40,41.70,55.69,70.00,5.00,0.00,30.04,M,M,M,BKN,BKN,BKN,M,6000.00,7000.00,8000.00,M,M,M,M,M,M,M,M,57.40,KTMT 020735Z AUTO 07005KT BKN060 BKN070 BKN080 14/05 A3004 RMK AO2 LTG DSNT NE THRU S T01410054 PWINO,M
10U,2023-09-02 07:40,-116.1876,41.9532,1637.00,60.80,42.80,51.45,190.00,13.00,0.00,30.01,M,10.00,M,CLR,M,M,M,M,M,M,M,M,M,M,M,M,M,M,60.80,K10U 020740Z AUTO 19013KT 10SM CLR 16/06 A3001 RMK AO2,M
P68,2023-09-02 07:53,-116.0056,39.6014,1993.00,61.00,54.00,77.72,150.00,20.00,0.00,30.08,1010.20,M,27.00,M,M,M,M,M,M,M,M,M,M,M,M,29.00,140.00,2023-09-02 07:32,61.00,KP68 020753Z AUTO 15020G27KT 16/12 A3008 RMK AO1 PK WND 14029/0732 SLP102 T01610122 402780078 $,M
DRA,2023-09-02 07:53,-116.0278,36.6206,1009.00,67.00,62.00,83.97,290.00,5.00,T,30.03,1012.30,10.00,M,BKN,BKN,OVC,M,4800.00,7000.00,11000.00,M,-RA,M,M,M,M,M,M,67.00,KDRA 020753Z AUTO 29005KT 10SM -RA BKN048 BKN070 OVC110 19/17 A3003 RMK AO2 RAB48 SLP123 P0000 T01940167 403280194,M
ELY,2023-09-02 07:53,-114.8453,39.2950,1909.00,56.00,50.00,80.23,170.00,13.00,0.00,30.17,1012.40,10.00,26.00,OVC,M,M,M,6500.00,M,M,M,M,M,M,M,26.00,160.00,2023-09-02 07:40,56.00,KELY 020753Z AUTO 17013G26KT 10SM OVC065 13/10 A3017 RMK AO2 PK WND 16026/0740 SLP124 T01330100 402330128,M
VGT,2023-09-02 07:53,-115.1933,36.2111,667.00,71.00,65.00,81.34,0.00,0.00,0.00,30.04,1017.20,10.00,M,SCT,OVC,M,M,2100.00,11000.00,M,M,M,M,M,M,M,M,M,71.00,KVGT 020753Z AUTO 00000KT 10SM SCT021 OVC110 22/18 A3004 RMK AO2 SLP172 T02170183 403280178 $,M
LOL,2023-09-02 07:53,-118.5701,40.0684,1192.43,59.00,47.00,64.36,40.00,6.00,T,29.98,1012.10,10.00,M,CLR,M,M,M,M,M,M,M,M,M,M,M,M,M,M,59.00,KLOL 020753Z AUTO 04006KT 10SM CLR 15/08 A2998 RMK AO2 RAB0659E08 SLP121 P0000 T01500083 402500150,M
BVU,2023-09-02 07:55,-114.8611,35.9475,671.00,68.00,64.40,88.26,80.00,5.00,0.00,30.04,M,10.00,M,SCT,M,M,M,11000.00,M,M,M,M,M,M,M,M,M,M,68.00,KBVU 020755Z AUTO 08005KT 10SM SCT110 20/18 A3004 RMK AO2,M
CXP,2023-09-02 07:55,-119.7326,39.1923,1431.00,55.40,46.40,71.64,0.00,0.00,0.00,30.01,M,10.00,M,OVC,M,M,M,9000.00,M,M,M,M,M,M,M,M,M,M,55.40,KCXP 020755Z AUTO 00000KT 10SM OVC090 13/08 A3001 RMK AO2,M
RNO,2023-09-02 07:55,-119.7711,39.4839,1341.00,55.00,51.00,86.34,30.00,7.00,0.00,29.98,1011.60,10.00,M,SCT,BKN,M,M,9000.00,14000.00,M,M,M,M,M,M,M,M,M,55.00,KRNO 020755Z 03007KT 10SM SCT090 BKN140 13/11 A2998 RMK AO2 SLP116 T01280106 402440128,M
RTS,2023-09-02 07:55,-119.8764,39.6682,1539.00,51.80,50.00,93.55,60.00,10.00,0.00,30.01,M,10.00,M,OVC,M,M,M,7000.00,M,M,M,M,M,M,M,M,M,M,51.80,KRTS 020755Z AUTO 06010KT 10SM OVC070 11/10 A3001 RMK AO2,M
05U,2023-09-02 07:55,-116.0051,39.6042,1811.23,60.80,53.60,77.14,M,M,0.00,30.11,M,10.00,M,BKN,OVC,M,M,9500.00,11000.00,M,M,M,M,M,M,M,M,M,60.80,K05U 020755Z AUTO 10SM BKN095 OVC110 16/12 A3011 RMK A01,M
MEV,2023-09-02 07:55,-119.7500,38.9963,1441.42,53.60,42.80,66.70,70.00,5.00,0.00,29.98,M,10.00,M,SCT,SCT,BKN,M,3600.00,4200.00,5000.00,M,M,M,M,M,M,M,M,53.60,KMEV 020755Z AUTO 07005KT 10SM SCT036 SCT042 BKN050 12/06 A2998 RMK AO2,M
BAM,2023-09-02 07:55,-116.8743,40.5990,1382.36,60.80,48.20,63.15,0.00,0.00,0.00,30.01,M,10.00,M,SCT,SCT,M,M,9000.00,10000.00,M,M,M,M,M,M,M,M,M,60.80,KBAM 020755Z AUTO 00000KT 10SM SCT090 SCT100 16/09 A3001 RMK AO1,M
HTH,2023-09-02 07:55,-118.6315,38.5448,1282.89,64.40,48.20,55.63,330.00,9.00,0.00,29.98,M,10.00,16.00,CLR,M,M,M,M,M,M,M,M,M,M,M,M,M,M,64.40,KHTH 020755Z AUTO 33009G16KT 10SM CLR 18/09 A2998 RMK A01,M
TMT,2023-09-02 07:55,-117.1971,39.4643,1749.34,57.70,42.30,56.38,350.00,4.00,0.00,30.05,M,M,M,OVC,M,M,M,6000.00,M,M,M,M,M,M,M,M,M,M,57.70,KTMT 020755Z AUTO 35004KT OVC060 14/06 A3005 RMK AO2 LTG DSNT S T01430057 402930040 PWINO,M
INS,2023-09-02 07:55,-115.6733,36.5872,955.00,65.70,65.30,98.62,80.00,17.00,T,30.04,1013.30,10.00,22.00,SCT,OVC,M,M,6000.00,10000.00,M,M,-DZ,M,M,M,M,M,M,65.70,KINS 020755Z AUTO 08017G22KT 10SM -DZ SCT060 OVC100 19/19 A3004 RMK AO2 RAB14E35DZB35E37RAB37E47DZB47 SLP133 P0000 T01870185 403190172 $,M
LSV,2023-09-02 07:55,-115.0343,36.2362,570.00,70.00,69.80,99.32,30.00,7.00,0.00,30.01,1014.40,10.00,M,BKN,M,M,M,11000.00,M,M,M,M,M,M,M,M,M,M,70.00,KLSV 020755Z AUTO 03007KT 10SM BKN110 21/21 A3001 RMK AO2 SLP144 T02120210 403340199 $,M
EKO,2023-09-02 07:56,-115.7860,40.8242,1367.00,63.00,51.00,64.85,250.00,8.00,T,30.05,1011.30,10.00,M,BKN,BKN,OVC,M,6000.00,7500.00,9500.00,M,VCTS,M,M,M,M,M,M,63.00,KEKO 020756Z AUTO 25008KT 10SM VCTS BKN060 BKN075 OVC095 17/11 A3005 RMK AO2 LTG DSNT W-N RAB43E53 SLP113 P0000 T01720106 403220106,M
WMC,2023-09-02 07:56,-117.8072,40.9019,1315.00,58.00,44.00,59.54,240.00,3.00,0.00,30.02,1012.10,10.00,M,OVC,M,M,M,11000.00,M,M,M,M,M,M,M,M,M,M,58.00,KWMC 020756Z AUTO 24003KT 10SM OVC110 14/07 A3002 RMK AO2 SLP121 T01440067 402780139,M
NFL,2023-09-02 07:56,-118.7010,39.4166,1199.00,61.00,47.00,59.94,350.00,5.00,0.00,29.97,1012.00,10.00,M,CLR,M,M,M,M,M,M,M,M,M,M,M,M,M,M,61.00,KNFL 020756Z AUTO 35005KT 10SM CLR 16/08 A2997 RMK AO2 SLP120 T01610083 402670161,M
HND,2023-09-02 07:56,-115.1344,35.9729,742.79,68.00,64.00,87.03,0.00,0.00,0.00,30.08,1018.20,10.00,M,BKN,OVC,M,M,2400.00,9000.00,M,M,M,M,M,M,M,M,M,68.00,KHND 020756Z AUTO 00000KT 10SM BKN024 OVC090 20/18 A3008 RMK AO2 SLP182 T02000178,M
TPH,2023-09-02 07:56,-117.0904,38.0505,1654.00,62.00,56.00,80.68,170.00,21.00,0.00,30.07,1010.50,10.00,31.00,SCT,M,M,M,1700.00,M,M,M,M,M,M,M,36.00,170.00,2023-09-02 07:05,62.00,KTPH 020756Z AUTO 17021G31KT 10SM SCT017 17/13 A3007 RMK AO2 PK WND 17036/0705 SLP105 T01670133 402780117,M
LAS,2023-09-02 07:56,-115.1634,36.0719,663.00,68.00,66.00,93.32,300.00,6.00,0.00,30.05,1015.60,10.00,M,FEW,SCT,SCT,M,2000.00,4000.00,12000.00,M,M,M,M,M,M,M,M,68.00,KLAS 020756Z 30006KT 10SM FEW020 SCT040 SCT120 20/19 A3005 RMK AO2 SLP156 T02000189 403170200,M
10U,2023-09-02 08:00,-116.1876,41.9532,1637.00,60.80,42.80,51.45,210.00,15.00,0.00,30.02,M,10.00,M,BKN,M,M,M,12000.00,M,M,M,M,M,M,M,M,M,M,60.80,K10U 020800Z AUTO 21015KT 10SM BKN120 16/06 A3002 RMK AO2 LTG DSNT S,M
EKO,2023-09-02 08:10,-115.7860,40.8242,1367.00,60.00,51.00,72.12,230.00,9.00,0.00,30.06,M,10.00,M,BKN,BKN,OVC,M,5000.00,6000.00,7500.00,M,M,M,M,M,M,M,M,60.00,KEKO 020810Z AUTO 23009KT 10SM BKN050 BKN060 OVC075 16/11 A3006 RMK AO2 LTG DSNT N AND NW T01560106,M
05U,2023-09-02 08:10,-116.0051,39.6042,1811.23,60.80,53.60,77.14,M,M,0.00,30.12,M,10.00,M,FEW,SCT,BKN,M,3400.00,8000.00,10000.00,M,M,M,M,M,M,M,M,60.80,K05U 020810Z AUTO 10SM FEW034 SCT080 BKN100 16/12 A3012 RMK A01,M
DRA,2023-09-02 08:11,-116.0278,36.6206,1009.00,66.00,62.00,86.93,0.00,0.00,0.03,30.04,M,2.50,M,SCT,BKN,OVC,M,3200.00,4800.00,11000.00,M,RA BR,M,M,M,M,M,M,66.00,KDRA 020811Z AUTO 00000KT 2 1/2SM RA BR SCT032 BKN048 OVC110 19/17 A3004 RMK AO2 P0003 T01890167,M
BVU,2023-09-02 08:15,-114.8611,35.9475,671.00,68.00,64.40,88.26,70.00,6.00,0.00,30.04,M,10.00,M,SCT,BKN,BKN,M,4800.00,5500.00,12000.00,M,M,M,M,M,M,M,M,68.00,KBVU 020815Z AUTO 07006KT 10SM SCT048 BKN055 BKN120 20/18 A3004 RMK AO2,M
CXP,2023-09-02 08:15,-119.7326,39.1923,1431.00,55.40,48.20,76.66,100.00,6.00,0.00,30.00,M,10.00,M,OVC,M,M,M,10000.00,M,M,M,M,M,M,M,M,M,M,55.40,KCXP 020815Z AUTO 10006KT 10SM OVC100 13/09 A3000 RMK AO2,M
RTS,2023-09-02 08:15,-119.8764,39.6682,1539.00,51.80,48.20,87.47,20.00,3.00,0.00,30.02,M,10.00,10.00,BKN,OVC,M,M,7500.00,8500.00,M,M,M,M,M,M,M,M,M,51.80,KRTS 020815Z AUTO 02003G10KT 10SM BKN075 OVC085 11/09 A3002 RMK AO2,M
MEV,2023-09-02 08:15,-119.7500,38.9963,1441.42,53.60,41.00,62.23,160.00,7.00,0.00,29.99,M,10.00,M,FEW,SCT,BKN,M,3500.00,4200.00,6000.00,M,M,M,M,M,M,M,M,53.60,KMEV 020815Z AUTO 16007KT 10SM FEW035 SCT042 BKN060 12/05 A2999 RMK AO2,M
BAM,2023-09-02 08:15,-116.8743,40.5990,1382.36,60.80,46.40,59.01,30.00,3.00,0.00,30.02,M,10.00,M,SCT,M,M,M,10000.00,M,M,M,M,M,M,M,M,M,M,60.80,KBAM 020815Z AUTO 03003KT 10SM SCT100 16/08 A3002 RMK AO1,M
HTH,2023-09-02 08:15,-118.6315,38.5448,1282.89,62.60,46.40,55.37,330.00,12.00,0.00,29.98,M,10.00,18.00,CLR,M,M,M,M,M,M,M,M,M,M,M,M,M,M,62.60,KHTH 020815Z AUTO 33012G18KT 10SM CLR 17/08 A2998 RMK A01,M
TMT,2023-09-02 08:15,-117.1971,39.4643,1749.34,58.50,42.80,55.85,360.00,3.00,0.00,30.05,M,M,M,OVC,M,M,M,6000.00,M,M,M,M,M,M,M,M,M,M,58.50,KTMT 020815Z AUTO 36003KT OVC060 15/06 A3005 RMK AO2 LTG DSNT N NE AND S T01470060 PWINO,M
DRA,2023-09-02 08:19,-116.0278,36.6206,1009.00,66.00,62.00,86.93,0.00,0.00,0.06,30.04,M,5.00,M,FEW,BKN,OVC,M,3300.00,7500.00,10000.00,M,-RA BR,M,M,M,M,M,M,66.00,KDRA 020819Z AUTO 00000KT 5SM -RA BR FEW033 BKN075 OVC100 19/17 A3004 RMK AO2 P0006 T01890167,M
10U,2023-09-02 08:20,-116.1876,41.9532,1637.00,59.00,42.80,54.86,200.00,12.00,0.00,30.04,M,10.00,19.00,FEW,OVC,M,M,9000.00,12000.00,M,M,M,M,M,M,M,M,M,59.00,K10U 020820Z AUTO 20012G19KT 10SM FEW090 OVC120 15/06 A3004 RMK AO2,M
BVU,2023-09-02 08:35,-114.8611,35.9475,671.00,69.80,64.40,82.98,90.00,3.00,0.00,30.04,M,10.00,M,OVC,M,M,M,4800.00,M,M,M,M,M,M,M,M,M,M,69.80,KBVU 020835Z AUTO 09003KT 10SM OVC048 21/18 A3004 RMK AO2,M
CXP,2023-09-02 08:35,-119.7326,39.1923,1431.00,55.40,46.40,71.64,80.00,8.00,0.00,30.00,M,10.00,M,SCT,BKN,M,M,10000.00,12000.00,M,M,M,M,M,M,M,M,M,55.40,KCXP 020835Z AUTO 08008KT 10SM SCT100 BKN120 13/08 A3000 RMK AO2,M
RTS,2023-09-02 08:35,-119.8764,39.6682,1539.00,51.80,48.20,87.47,0.00,0.00,0.00,30.02,M,10.00,M,BKN,OVC,M,M,7000.00,8500.00,M,M,M,M,M,M,M,M,M,51.80,KRTS 020835Z AUTO 00000KT 10SM BKN070 OVC085 11/09 A3002 RMK AO2,M
05U,2023-09-02 08:35,-116.0051,39.6042,1811.23,60.80,53.60,77.14,M,M,0.00,30.12,M,10.00,M,BKN,BKN,OVC,M,3100.00,3600.00,5500.00,M,M,M,M,M,M,M,M,60.80,K05U 020835Z AUTO 10SM BKN031 BKN036 OVC055 16/12 A3012 RMK A01,M
MEV,2023-09-02 08:35,-119.7500,38.9963,1441.42,57.20,39.20,50.91,190.00,14.00,0.00,29.98,M,10.00,21.00,SCT,SCT,BKN,M,4000.00,4600.00,5000.00,M,M,M,M,M,M,M,M,57.20,KMEV 020835Z AUTO 19014G21KT 10SM SCT040 SCT046 BKN050 14/04 A2998 RMK AO2,M
BAM,2023-09-02 08:35,-116.8743,40.5990,1382.36,60.80,46.40,59.01,0.00,0.00,0.00,30.03,M,10.00,M,BKN,M,M,M,10000.00,M,M,M,M,M,M,M,M,M,M,60.80,KBAM 020835Z AUTO 00000KT 10SM BKN100 16/08 A3003 RMK AO1,M
HTH,2023-09-02 08:35,-118.6315,38.5448,1282.89,62.60,46.40,55.37,320.00,10.00,0.00,29.98,M,10.00,M,CLR,M,M,M,M,M,M,M,M,M,M,M,M,M,M,62.60,KHTH 020835Z AUTO 32010KT 10SM CLR 17/08 A2998 RMK A01,M
10U,2023-09-02 08:35,-116.1876,41.9532,1637.00,59.00,42.80,54.86,200.00,14.00,0.00,30.06,M,10.00,M,SCT,SCT,OVC,M,5000.00,9000.00,11000.00,M,M,M,M,M,M,M,M,59.00,K10U 020835Z AUTO 20014KT 10SM SCT050 SCT090 OVC110 15/06 A3006 RMK AO2,M
TMT,2023-09-02 08:35,-117.1971,39.4643,1749.34,58.00,43.00,57.30,0.00,0.00,0.00,30.05,M,M,M,OVC,M,M,M,5000.00,M,M,M,M,M,M,M,M,M,M,58.00,KTMT 020835Z AUTO 00000KT OVC050 14/06 A3005 RMK AO2 LTG DSNT N NE AND S T01440061 PWINO,M
DRA,2023-09-02 08:37,-116.0278,36.6206,1009.00,65.00,63.00,93.24,300.00,3.00,0.14,30.04,M,2.50,M,FEW,BKN,OVC,M,3000.00,5000.00,7000.00,M,RA BR,M,M,M,M,M,M,65.00,KDRA 020837Z AUTO 30003KT 2 1/2SM RA BR FEW030 BKN050 OVC070 18/17 A3004 RMK AO2 VIS 1 1/4V5 P0014 T01830172,M
DRA,2023-09-02 08:42,-116.0278,36.6206,1009.00,65.00,63.00,93.24,20.00,4.00,0.18,30.03,M,4.00,M,FEW,BKN,OVC,M,3000.00,4800.00,7000.00,M,-RA BR,M,M,M,M,M,M,65.00,KDRA 020842Z AUTO 02004KT 4SM -RA BR FEW030 BKN048 OVC070 18/17 A3003 RMK AO2 P0018 T01830172,M
TPH,2023-09-02 08:47,-117.0904,38.0505,1654.00,61.00,57.00,86.67,150.00,17.00,0.00,30.07,M,10.00,28.00,SCT,BKN,BKN,M,1200.00,1700.00,11000.00,M,M,M,M,M,33.00,150.00,2023-09-02 08:01,61.00,KTPH 020847Z AUTO 15017G28KT 10SM SCT012 BKN017 BKN110 16/14 A3007 RMK AO2 PK WND 15033/0801 T01610139,M
05U,2023-09-02 08:50,-116.0051,39.6042,1811.23,60.80,53.60,77.14,M,M,0.00,30.12,M,10.00,M,SCT,BKN,OVC,M,3000.00,3600.00,4700.00,M,M,M,M,M,M,M,M,60.80,K05U 020850Z AUTO 10SM SCT030 BKN036 OVC047 16/12 A3012 RMK A01,M
P68,2023-09-02 08:53,-116.0056,39.6014,1993.00,61.00,54.00,77.72,150.00,13.00,0.00,30.09,1010.60,M,M,M,M,M,M,M,M,M,M,M,M,M,M,M,M,M,61.00,KP68 020853Z AUTO 15013KT 16/12 A3009 RMK AO1 SLP106 60001 T01610122 $,M
DRA,2023-09-02 08:53,-116.0278,36.6206,1009.00,66.00,63.00,90.05,10.00,6.00,0.18,30.03,1012.20,10.00,M,FEW,BKN,OVC,M,3600.00,5000.00,6000.00,M,M,M,M,M,M,M,M,66.00,KDRA 020853Z AUTO 01006KT 10SM FEW036 BKN050 OVC060 19/17 A3003 RMK AO2 RAE49 SLP122 P0018 60018 T01890172 50003,M
ELY,2023-09-02 08:53,-114.8453,39.2950,1909.00,55.00,50.00,83.20,180.00,13.00,0.00,30.18,1013.10,10.00,M,FEW,OVC,M,M,6000.00,8000.00,M,M,M,M,M,M,M,M,M,55.00,KELY 020853Z AUTO 18013KT 10SM FEW060 OVC080 13/10 A3018 RMK AO2 SLP131 60000 T01280100 51010,M
VGT,2023-09-02 08:53,-115.1933,36.2111,667.00,71.00,65.00,81.34,90.00,4.00,0.00,30.04,1017.10,10.00,M,BKN,BKN,M,M,4100.00,10000.00,M,M,M,M,M,M,M,M,M,71.00,KVGT 020853Z AUTO 09004KT 10SM BKN041 BKN100 22/18 A3004 RMK AO2 SLP171 T02170183 51003 $,M
LOL,2023-09-02 08:53,-118.5701,40.0684,1192.43,59.00,46.00,61.98,40.00,6.00,0.00,29.98,1012.00,10.00,M,CLR,M,M,M,M,M,M,M,M,M,M,M,M,M,M,59.00,KLOL 020853Z AUTO 04006KT 10SM CLR 15/08 A2998 RMK AO2 SLP120 60000 T01500078 51010,M
BVU,2023-09-02 08:55,-114.8611,35.9475,671.00,69.80,64.40,82.98,0.00,0.00,0.00,30.04,M,10.00,M,OVC,M,M,M,4700.00,M,M,M,M,M,M,M,M,M,M,69.80,KBVU 020855Z AUTO 00000KT 10SM OVC047 21/18 A3004 RMK AO2,M
CXP,2023-09-02 08:55,-119.7326,39.1923,1431.00,55.40,46.40,71.64,100.00,8.00,0.00,30.00,M,10.00,M,FEW,FEW,M,M,9000.00,12000.00,M,M,M,M,M,M,M,M,M,55.40,KCXP 020855Z AUTO 10008KT 10SM FEW090 FEW120 13/08 A3000 RMK AO2,M
RNO,2023-09-02 08:55,-119.7711,39.4839,1341.00,56.00,51.00,83.26,10.00,4.00,0.00,29.99,1011.10,10.00,M,SCT,BKN,M,M,9000.00,14000.00,M,M,M,M,M,M,M,M,M,56.00,KRNO 020855Z 01004KT 10SM SCT090 BKN140 13/11 A2999 RMK AO2 SLP111 60001 T01330106 51006,M
RTS,2023-09-02 08:55,-119.8764,39.6682,1539.00,51.80,50.00,93.55,0.00,0.00,0.00,30.02,M,10.00,M,OVC,M,M,M,7000.00,M,M,M,M,M,M,M,M,M,M,51.80,KRTS 020855Z AUTO 00000KT 10SM OVC070 11/10 A3002 RMK AO2,M
MEV,2023-09-02 08:55,-119.7500,38.9963,1441.42,60.80,39.20,44.76,210.00,13.00,0.00,29.98,M,10.00,21.00,FEW,BKN,BKN,M,4200.00,5000.00,6000.00,M,M,M,M,M,M,M,M,60.80,KMEV 020855Z AUTO 21013G21KT 10SM FEW042 BKN050 BKN060 16/04 A2998 RMK AO2,M
BAM,2023-09-02 08:55,-116.8743,40.5990,1382.36,62.60,44.60,51.72,30.00,10.00,0.00,30.01,M,10.00,M,BKN,M,M,M,10000.00,M,M,M,M,M,M,M,M,M,M,62.60,KBAM 020855Z AUTO 03010KT 10SM BKN100 17/07 A3001 RMK AO1,M
HTH,2023-09-02 08:55,-118.6315,38.5448,1282.89,62.60,46.40,55.37,320.00,12.00,0.00,29.98,M,10.00,M,CLR,M,M,M,M,M,M,M,M,M,M,M,M,M,M,62.60,KHTH 020855Z AUTO 32012KT 10SM CLR 17/08 A2998 RMK A01,M
TMT,2023-09-02 08:55,-117.1971,39.4643,1749.34,56.30,44.40,64.27,360.00,4.00,0.00,30.05,M,M,M,BKN,BKN,OVC,M,5000.00,6000.00,11000.00,M,M,M,M,M,M,M,M,56.30,KTMT 020855Z AUTO 36004KT BKN050 BKN060 OVC110 14/07 A3005 RMK AO2 LTG DSNT NW T01350069 PWINO,M
10U,2023-09-02 08:55,-116.1876,41.9532,1637.00,59.00,42.80,54.86,200.00,11.00,0.00,30.09,M,10.00,20.00,FEW,SCT,BKN,M,3700.00,5500.00,7500.00,M,M,M,M,M,M,M,M,59.00,K10U 020855Z AUTO 20011G20KT 10SM FEW037 SCT055 BKN075 15/06 A3009 RMK AO2,M
INS,2023-09-02 08:55,-115.6733,36.5872,955.00,64.80,64.40,98.61,80.00,16.00,0.06,30.05,1013.70,10.00,M,OVC,M,M,M,9500.00,M,M,M,-RA,M,M,M,M,M,M,64.80,KINS 020855Z AUTO 08016KT 10SM -RA OVC095 18/18 A3005 RMK AO2 DZE15RAB15 SLP137 P0006 60006 T01820180 52012 $,M
LSV,2023-09-02 08:55,-115.0343,36.2362,570.00,69.80,69.40,98.64,60.00,6.00,0.00,30.01,1014.50,10.00,M,FEW,OVC,M,M,6000.00,11000.00,M,M,M,M,M,M,M,M,M,69.80,KLSV 020855Z AUTO 06006KT 10SM FEW060 OVC110 21/21 A3001 RMK AO2 SLP145 T02100208 52003 $,M
EKO,2023-09-02 08:56,-115.7860,40.8242,1367.00,56.00,52.00,86.40,210.00,4.00,T,30.06,1012.30,10.00,M,BKN,OVC,M,M,4500.00,6000.00,M,M,M,M,M,M,M,M,M,56.00,KEKO 020856Z AUTO 21004KT 10SM BKN045 OVC060 13/11 A3006 RMK AO2 RAB16E40 SLP123 P0000 60000 T01330111 51030,M
WMC,2023-09-02 08:56,-117.8072,40.9019,1315.00,54.00,42.00,63.74,0.00,0.00,0.00,30.01,1012.20,10.00,M,SCT,M,M,M,10000.00,M,M,M,M,M,M,M,M,M,M,54.00,KWMC 020856Z AUTO 00000KT 10SM SCT100 12/06 A3001 RMK AO2 SLP122 T01220056 50009,M
NFL,2023-09-02 08:56,-118.7010,39.4166,1199.00,61.00,47.00,59.94,330.00,6.00,0.00,29.97,1012.00,10.00,M,CLR,M,M,M,M,M,M,M,M,M,M,M,M,M,M,61.00,KNFL 020856Z AUTO 33006KT 10SM CLR 16/08 A2997 RMK AO2 SLP120 T01610083 51008,M
HND,2023-09-02 08:56,-115.1344,35.9729,742.79,68.00,64.00,87.03,0.00,0.00,0.00,30.08,1018.40,10.00,M,FEW,OVC,M,M,2300.00,2700.00,M,M,M,M,M,M,M,M,M,68.00,KHND 020856Z AUTO 00000KT 10SM FEW023 OVC027 20/18 A3008 RMK AO2 SLP184 T02000178 51004,M
TPH,2023-09-02 08:56,-117.0904,38.0505,1654.00,61.00,57.00,86.67,150.00,16.00,0.00,30.07,1011.00,10.00,M,SCT,BKN,OVC,M,1200.00,1700.00,11000.00,M,M,M,M,M,33.00,150.00,2023-09-02 08:01,61.00,KTPH 020856Z AUTO 15016KT 10SM SCT012 BKN017 OVC110 16/14 A3007 RMK AO2 PK WND 15033/0801 SLP110 T01610139 51005,M
LAS,2023-09-02 08:56,-115.1634,36.0719,663.00,68.00,66.00,93.32,300.00,6.00,0.00,30.05,1015.90,10.00,M,SCT,SCT,M,M,3000.00,12000.00,M,M,M,M,M,M,M,M,M,68.00,KLAS 020856Z 30006KT 10SM SCT030 SCT120 20/19 A3005 RMK AO2 SLP159 T02000189 53003,M
BVU,2023-09-02 09:15,-114.8611,35.9475,671.00,69.80,64.40,82.98,50.00,4.00,0.00,30.04,M,10.00,M,OVC,M,M,M,4100.00,M,M,M,M,M,M,M,M,M,M,69.80,KBVU 020915Z AUTO 05004KT 10SM OVC041 21/18 A3004 RMK AO2,M
CXP,2023-09-02 09:15,-119.7326,39.1923,1431.00,57.20,46.40,67.12,70.00,11.00,0.00,30.00,M,10.00,18.00,SCT,M,M,M,12000.00,M,M,M,M,M,M,M,M,M,M,57.20,KCXP 020915Z AUTO 07011G18KT 10SM SCT120 14/08 A3000 RMK AO2,M
RTS,2023-09-02 09:15,-119.8764,39.6682,1539.00,51.80,50.00,93.55,330.00,4.00,0.00,30.02,M,10.00,M,BKN,OVC,M,M,7000.00,9000.00,M,M,M,M,M,M,M,M,M,51.80,KRTS 020915Z AUTO 33004KT 10SM BKN070 OVC090 11/10 A3002 RMK AO2,M
05U,2023-09-02 09:15,-116.0051,39.6042,1811.23,60.80,53.60,77.14,M,M,0.00,30.12,M,10.00,M,SCT,BKN,OVC,M,3200.00,4900.00,7000.00,M,M,M,M,M,M,M,M,60.80,K05U 020915Z AUTO 10SM SCT032 BKN049 OVC070 16/12 A3012 RMK A01,M
MEV,2023-09-02 09:15,-119.7500,38.9963,1441.42,59.00,39.20,47.72,200.00,9.00,0.00,29.98,M,10.00,16.00,FEW,FEW,OVC,M,5000.00,6000.00,12000.00,M,M,M,M,M,M,M,M,59.00,KMEV 020915Z AUTO 20009G16KT 10SM FEW050 FEW060 OVC120 15/04 A2998 RMK AO2,M
BAM,2023-09-02 09:15,-116.8743,40.5990,1382.36,59.00,50.00,72.01,60.00,5.00,0.00,30.03,M,10.00,M,SCT,BKN,M,M,9000.00,12000.00,M,M,M,M,M,M,M,M,M,59.00,KBAM 020915Z AUTO 06005KT 10SM SCT090 BKN120 15/10 A3003 RMK AO1,M
HTH,2023-09-02 09:15,-118.6315,38.5448,1282.89,62.60,46.40,55.37,340.00,8.00,0.00,29.98,M,10.00,M,CLR,M,M,M,M,M,M,M,M,M,M,M,M,M,M,62.60,KHTH 020915Z AUTO 34008KT 10SM CLR 17/08 A2998 RMK A01,M
10U,2023-09-02 09:15,-116.1876,41.9532,1637.00,57.20,44.60,62.69,220.00,7.00,0.00,30.10,M,10.00,14.00,SCT,OVC,M,M,4800.00,7000.00,M,M,-RA,M,M,M,M,M,M,57.20,K10U 020915Z AUTO 22007G14KT 10SM -RA SCT048 OVC070 14/07 A3010 RMK AO2,M
TMT,2023-09-02 09:15,-117.1971,39.4643,1749.34,55.40,44.60,66.91,330.00,3.00,0.00,30.05,M,M,M,SCT,BKN,M,M,6000.00,11000.00,M,M,M,M,M,M,M,M,M,55.40,KTMT 020915Z AUTO 33003KT SCT060 BKN110 13/07 A3005 RMK AO2 LTG DSNT S T01300070 PWINO,M
05U,2023-09-02 09:30,-116.0051,39.6042,1811.23,59.00,55.40,87.83,M,M,0.00,30.12,M,8.00,M,FEW,SCT,BKN,M,3200.00,4900.00,6500.00,M,M,M,M,M,M,M,M,59.00,K05U 020930Z AUTO 8SM FEW032 SCT049 BKN065 15/13 A3012 RMK A01,M
TPH,2023-09-02 09:31,-117.0904,38.0505,1654.00,61.00,57.00,86.67,170.00,22.00,0.00,30.08,M,10.00,30.00,BKN,BKN,OVC,M,1400.00,2600.00,11000.00,M,M,M,M,M,30.00,170.00,2023-09-02 09:31,61.00,KTPH 020931Z AUTO 17022G30KT 10SM BKN014 BKN026 OVC110 16/14 A3008 RMK AO2 PK WND 17030/0931 T01610139,M
BVU,2023-09-02 09:35,-114.8611,35.9475,671.00,69.80,64.40,82.98,0.00,0.00,0.00,30.04,M,10.00,M,OVC,M,M,M,3800.00,M,M,M,M,M,M,M,M,M,M,69.80,KBVU 020935Z AUTO 00000KT 10SM OVC038 21/18 A3004 RMK AO2,M
CXP,2023-09-02 09:35,-119.7326,39.1923,1431.00,57.20,48.20,71.83,70.00,10.00,0.00,30.01,M,10.00,M,FEW,OVC,M,M,8500.00,12000.00,M,M,M,M,M,M,M,M,M,57.20,KCXP 020935Z AUTO 07010KT 10SM FEW085 OVC120 14/09 A3001 RMK AO2,M
RTS,2023-09-02 09:35,-119.8764,39.6682,1539.00,51.80,50.00,93.55,0.00,0.00,0.00,30.03,M,10.00,M,BKN,OVC,M,M,7500.00,9000.00,M,M,M,M,M,M,M,M,M,51.80,KRTS 020935Z AUTO 00000KT 10SM BKN075 OVC090 11/10 A3003 RMK AO2,M
MEV,2023-09-02 09:35,-119.7500,38.9963,1441.42,59.00,39.20,47.72,150.00,5.00,0.00,29.98,M,10.00,11.00,OVC,M,M,M,11000.00,M,M,M,M,M,M,M,M,M,M,59.00,KMEV 020935Z AUTO 15005G11KT 10SM OVC110 15/04 A2998 RMK AO2,M
BAM,2023-09-02 09:35,-116.8743,40.5990,1382.36,59.00,50.00,72.01,60.00,6.00,0.00,30.05,M,10.00,M,BKN,BKN,BKN,M,8000.00,10000.00,12000.00,M,M,M,M,M,M,M,M,59.00,KBAM 020935Z AUTO 06006KT 10SM BKN080 BKN100 BKN120 15/10 A3005 RMK AO1,M
HTH,2023-09-02 09:35,-118.6315,38.5448,1282.89,60.80,46.40,59.01,10.00,5.00,0.00,29.99,M,10.00,M,CLR,M,M,M,M,M,M,M,M,M,M,M,M,M,M,60.80,KHTH 020935Z AUTO 01005KT 10SM CLR 16/08 A2999 RMK A01,M
TMT,2023-09-02 09:35,-117.1971,39.4643,1749.34,55.00,44.80,68.41,310.00,3.00,0.00,30.05,M,M,M,SCT,BKN,M,M,6000.00,11000.00,M,M,M,M,M,M,M,M,M,55.00,KTMT 020935Z AUTO 31003KT SCT060 BKN110 13/07 A3005 RMK AO2 LTG DSNT NE T01270071 PWINO,M
TPH,2023-09-02 09:38,-117.0904,38.0505,1654.00,60.00,57.00,89.80,170.00,17.00,0.00,30.08,M,10.00,30.00,SCT,BKN,OVC,M,1400.00,3000.00,11000.00,M,M,M,M,M,30.00,170.00,2023-09-02 09:31,60.00,KTPH 020938Z AUTO 17017G30KT 10SM SCT014 BKN030 OVC110 16/14 A3008 RMK AO2 PK WND 17030/0931 T01560139,M
INS,2023-09-02 09:39,-115.6733,36.5872,955.00,64.40,64.40,100.00,80.00,19.00,0.00,30.04,1013.30,10.00,M,FEW,SCT,OVC,M,1900.00,7500.00,9000.00,M,M,M,M,M,M,M,M,64.40,KINS 020939Z AUTO 08019KT 10SM FEW019 SCT075 OVC090 18/18 A3004 RMK AO2 RAE36DZB36E39 SLP133 $,M
EKO,2023-09-02 09:40,-115.7860,40.8242,1367.00,56.00,52.00,86.40,210.00,4.00,T,30.08,M,7.00,M,BKN,OVC,M,M,3400.00,4400.00,M,M,VCTS -RA,M,M,M,M,M,M,56.00,KEKO 020940Z AUTO 21004KT 7SM VCTS -RA BKN034 OVC044 13/11 A3008 RMK AO2 LTG DSNT SW-N RAB36 P0000 T01330111,M
10U,2023-09-02 09:40,-116.1876,41.9532,1637.00,55.40,48.20,76.66,110.00,4.00,0.00,30.08,M,9.00,M,FEW,BKN,OVC,M,2700.00,5500.00,7000.00,M,-RA,M,M,M,M,M,M,55.40,K10U 020940Z AUTO 11004KT 9SM -RA FEW027 BKN055 OVC070 13/09 A3008 RMK AO2,M
TPH,2023-09-02 09:41,-117.0904,38.0505,1654.00,60.00,57.00,89.80,170.00,13.00,0.00,30.09,M,10.00,25.00,BKN,BKN,OVC,M,1400.00,2900.00,11000.00,M,M,M,M,M,30.00,170.00,2023-09-02 09:31,60.00,KTPH 020941Z AUTO 17013G25KT 10SM BKN014 BKN029 OVC110 16/14 A3009 RMK AO2 PK WND 17030/0931 CIG 011V024 T01560139,M
LSV,2023-09-02 09:49,-115.0343,36.2362,570.00,69.80,69.80,100.00,60.00,6.00,0.00,30.01,1014.70,10.00,M,SCT,BKN,OVC,M,3500.00,4600.00,6000.00,M,M,M,M,M,M,M,M,69.80,KLSV 020949Z AUTO 06006KT 10SM SCT035 BKN046 OVC060 21/21 A3001 RMK AO2 SLP147 $,M
P68,2023-09-02 09:53,-116.0056,39.6014,1993.00,59.00,55.00,86.56,150.00,10.00,0.00,30.10,1010.70,M,M,M,M,M,M,M,M,M,M,M,M,M,M,M,M,M,59.00,KP68 020953Z AUTO 15010KT 15/13 A3010 RMK AO1 SLP107 T01500128 $,M
DRA,2023-09-02 09:53,-116.0278,36.6206,1009.00,66.00,62.00,86.93,100.00,14.00,0.00,30.03,1012.60,10.00,21.00,OVC,M,M,M,6000.00,M,M,M,M,M,M,M,M,M,M,66.00,KDRA 020953Z AUTO 10014G21KT 10SM OVC060 19/17 A3003 RMK AO2 SLP126 T01890167,M
ELY,2023-09-02 09:53,-114.8453,39.2950,1909.00,55.00,50.00,83.20,190.00,10.00,0.00,30.18,1013.30,10.00,M,SCT,OVC,M,M,7500.00,9500.00,M,M,M,M,M,M,M,M,M,55.00,KELY 020953Z AUTO 19010KT 10SM SCT075 OVC095 13/10 A3018 RMK AO2 SLP133 T01280100,M
VGT,2023-09-02 09:53,-115.1933,36.2111,667.00,71.00,64.00,78.54,110.00,4.00,0.00,30.04,1017.20,10.00,M,OVC,M,M,M,3700.00,M,M,M,M,M,M,M,M,M,M,71.00,KVGT 020953Z AUTO 11004KT 10SM OVC037 22/18 A3004 RMK AO2 SLP172 T02170178 $,M
LOL,2023-09-02 09:53,-118.5701,40.0684,1192.43,59.00,46.00,61.98,30.00,7.00,0.00,29.98,1011.90,10.00,M,CLR,M,M,M,M,M,M,M,M,M,M,M,M,M,M,59.00,KLOL 020953Z AUTO 03007KT 10SM CLR 15/08 A2998 RMK AO2 SLP119 T01500078,M
EKO,2023-09-02 09:54,-115.7860,40.8242,1367.00,55.40,51.80,87.65,190.00,5.05,M,30.08,M,10.00,M,OVC,M,M,M,3900.00,M,M,M,M,M,M,M,M,M,M,55.40,SPECI KEKO 020954Z 19005KT 10SM OVC039 13/11 A3008 RMK AO2 LTG DSNT SW-N RAB36E54 P0001 FIBI,M
BVU,2023-09-02 09:55,-114.8611,35.9475,671.00,69.80,64.40,82.98,0.00,0.00,0.00,30.04,M,10.00,M,OVC,M,M,M,3700.00,M,M,M,M,M,M,M,M,M,M,69.80,KBVU 020955Z AUTO 00000KT 10SM OVC037 21/18 A3004 RMK AO2,M
CXP,2023-09-02 09:55,-119.7326,39.1923,1431.00,57.20,48.20,71.83,60.00,7.00,0.00,30.01,M,10.00,13.00,FEW,OVC,M,M,8000.00,12000.00,M,M,M,M,M,M,M,M,M,57.20,KCXP 020955Z AUTO 06007G13KT 10SM FEW080 OVC120 14/09 A3001 RMK AO2,M
RNO,2023-09-02 09:55,-119.7711,39.4839,1341.00,56.00,51.00,83.26,290.00,5.00,0.00,29.99,1011.60,10.00,M,SCT,BKN,M,M,9000.00,15000.00,M,M,M,M,M,M,M,M,M,56.00,KRNO 020955Z 29005KT 10SM SCT090 BKN150 13/11 A2999 RMK AO2 SLP116 T01330106,M
RTS,2023-09-02 09:55,-119.8764,39.6682,1539.00,51.80,50.00,93.55,320.00,3.00,0.00,30.03,M,10.00,M,FEW,BKN,OVC,M,6000.00,7500.00,8500.00,M,M,M,M,M,M,M,M,51.80,KRTS 020955Z AUTO 32003KT 10SM FEW060 BKN075 OVC085 11/10 A3003 RMK AO2,M
05U,2023-09-02 09:55,-116.0051,39.6042,1811.23,59.00,55.40,87.83,M,M,0.01,30.12,M,4.00,M,FEW,BKN,OVC,M,400.00,3000.00,7500.00,M,BR,M,M,M,M,M,M,59.00,K05U 020955Z AUTO 4SM BR FEW004 BKN030 OVC075 15/13 A3012 RMK A01 P0001,M
MEV,2023-09-02 09:55,-119.7500,38.9963,1441.42,55.40,41.00,58.27,200.00,6.00,0.00,29.99,M,10.00,M,OVC,M,M,M,11000.00,M,M,M,M,M,M,M,M,M,M,55.40,KMEV 020955Z AUTO 20006KT 10SM OVC110 13/05 A2999 RMK AO2,M
BAM,2023-09-02 09:55,-116.8743,40.5990,1382.36,59.00,50.00,72.01,60.00,11.00,0.00,30.04,M,10.00,16.00,SCT,SCT,BKN,M,8000.00,10000.00,12000.00,M,M,M,M,M,M,M,M,59.00,KBAM 020955Z AUTO 06011G16KT 10SM SCT080 SCT100 BKN120 15/10 A3004 RMK AO1,M
HTH,2023-09-02 09:55,-118.6315,38.5448,1282.89,60.80,44.60,55.12,340.00,7.00,0.00,29.98,M,10.00,M,SCT,M,M,M,11000.00,M,M,M,M,M,M,M,M,M,M,60.80,KHTH 020955Z AUTO 34007KT 10SM SCT110 16/07 A2998 RMK A01,M
TMT,2023-09-02 09:55,-117.1971,39.4643,1749.34,53.00,43.50,70.04,160.00,3.00,0.00,30.06,M,M,M,BKN,OVC,M,M,6500.00,10000.00,M,M,M,M,M,M,M,M,M,53.00,KTMT 020955Z AUTO 16003KT BKN065 OVC100 12/06 A3006 RMK AO2 LTG DSNT W T01160064 PWINO,M
INS,2023-09-02 09:55,-115.6733,36.5872,955.00,65.00,63.30,94.22,90.00,19.00,0.03,30.04,1013.30,10.00,M,BKN,OVC,M,M,7500.00,9500.00,M,M,M,M,M,M,M,M,M,65.00,KINS 020955Z AUTO 09019KT 10SM BKN075 OVC095 18/17 A3004 RMK AO2 RAE36DZB36E39 SLP133 P0003 T01840174 $,M
LSV,2023-09-02 09:55,-115.0343,36.2362,570.00,69.80,69.40,98.64,60.00,6.00,0.00,30.01,1014.70,10.00,M,BKN,BKN,OVC,M,3400.00,6000.00,11000.00,M,M,M,M,M,M,M,M,69.80,KLSV 020955Z AUTO 06006KT 10SM BKN034 BKN060 OVC110 21/21 A3001 RMK AO2 SLP147 T02100208 $,M
EKO,2023-09-02 09:56,-115.7860,40.8242,1367.00,56.00,52.00,86.40,190.00,5.00,0.01,30.08,1013.30,10.00,M,OVC,M,M,M,3900.00,M,M,M,M,M,M,M,M,M,M,56.00,KEKO 020956Z AUTO 19005KT 10SM OVC039 13/11 A3008 RMK AO2 LTG DSNT SW-N RAB36E54 SLP133 P0001 T01330111,M
WMC,2023-09-02 09:56,-117.8072,40.9019,1315.00,55.00,43.00,63.86,0.00,0.00,0.00,30.02,1012.30,10.00,M,OVC,M,M,M,10000.00,M,M,M,M,M,M,M,M,M,M,55.00,KWMC 020956Z AUTO 00000KT 10SM OVC100 13/06 A3002 RMK AO2 SLP123 T01280061,M
NFL,2023-09-02 09:56,-118.7010,39.4166,1199.00,60.00,48.00,64.49,320.00,4.00,0.00,29.97,1012.10,10.00,M,CLR,M,M,M,M,M,M,M,M,M,M,M,M,M,M,60.00,KNFL 020956Z AUTO 32004KT 10SM CLR 16/09 A2997 RMK AO2 SLP121 T01560089,M
HND,2023-09-02 09:56,-115.1344,35.9729,742.79,69.00,65.00,87.08,0.00,0.00,0.00,30.07,1018.10,10.00,M,OVC,M,M,M,2500.00,M,M,M,M,M,M,M,M,M,M,69.00,KHND 020956Z AUTO 00000KT 10SM OVC025 21/18 A3007 RMK AO2 SLP181 T02060183,M
TPH,2023-09-02 09:56,-117.0904,38.0505,1654.00,60.00,58.00,93.10,160.00,16.00,T,30.08,1011.50,8.00,25.00,BKN,BKN,OVC,M,1100.00,2800.00,11000.00,M,-RA,M,M,M,30.00,170.00,2023-09-02 09:31,60.00,KTPH 020956Z AUTO 16016G25KT 8SM -RA BKN011 BKN028 OVC110 16/14 A3008 RMK AO2 PK WND 17030/0931 LTG DSNT NE RAB52 SLP115 P0000 T01560144,M
LAS,2023-09-02 09:56,-115.1634,36.0719,663.00,68.00,66.00,93.32,280.00,8.00,0.00,30.05,1015.70,10.00,M,SCT,BKN,M,M,3000.00,12000.00,M,M,M,M,M,M,M,M,M,68.00,KLAS 020956Z 28008KT 10SM SCT030 BKN120 20/19 A3005 RMK AO2 SLP157 T02000189,M
10U,2023-09-02 10:00,-116.1876,41.9532,1637.00,55.40,50.00,81.99,90.00,10.00,0.00,30.04,M,10.00,20.00,FEW,SCT,BKN,M,1400.00,3100.00,4800.00,M,-RA,M,M,M,M,M,M,55.40,K10U 021000Z AUTO 09010G20KT 10SM -RA FEW014 SCT031 BKN048 13/10 A3004 RMK AO2,M
05U,2023-09-02 10:10,-116.0051,39.6042,1811.23,59.00,55.40,87.83,M,M,0.00,30.12,M,10.00,M,BKN,BKN,OVC,M,3100.00,4400.00,11000.00,M,M,M,M,M,M,M,M,59.00,K05U 021010Z AUTO 10SM BKN031 BKN044 OVC110 15/13 A3012 RMK A01,M
BVU,2023-09-02 10:15,-114.8611,35.9475,671.00,69.80,64.40,82.98,70.00,3.00,0.00,30.04,M,10.00,M,OVC,M,M,M,3400.00,M,M,M,M,M,M,M,M,M,M,69.80,KBVU 021015Z AUTO 07003KT 10SM OVC034 21/18 A3004 RMK AO2,M
CXP,2023-09-02 10:15,-119.7326,39.1923,1431.00,57.20,48.20,71.83,0.00,0.00,0.00,30.02,M,10.00,10.00,BKN,OVC,M,M,8000.00,12000.00,M,M,M,M,M,M,M,M,M,57.20,KCXP 021015Z AUTO 00000G10KT 10SM BKN080 OVC120 14/09 A3002 RMK AO2,M
RTS,2023-09-02 10:15,-119.8764,39.6682,1539.00,51.80,50.00,93.55,330.00,3.00,0.00,30.03,M,10.00,M,FEW,OVC,M,M,6000.00,8000.00,M,M,M,M,M,M,M,M,M,51.80,KRTS 021015Z AUTO 33003KT 10SM FEW060 OVC080 11/10 A3003 RMK AO2,M
MEV,2023-09-02 10:15,-119.7500,38.9963,1441.42,55.40,42.80,62.46,0.00,0.00,0.00,30.00,M,10.00,M,OVC,M,M,M,11000.00,M,M,M,M,M,M,M,M,M,M,55.40,KMEV 021015Z AUTO 00000KT 10SM OVC110 13/06 A3000 RMK AO2,M
BAM,2023-09-02 10:15,-116.8743,40.5990,1382.36,59.00,50.00,72.01,70.00,12.00,0.00,30.03,M,10.00,M,BKN,M,M,M,11000.00,M,M,M,M,M,M,M,M,M,M,59.00,KBAM 021015Z AUTO 07012KT 10SM BKN110 15/10 A3003 RMK AO1,M
HTH,2023-09-02 10:15,-118.6315,38.5448,1282.89,60.80,44.60,55.12,0.00,0.00,0.00,29.99,M,10.00,M,FEW,M,M,M,11000.00,M,M,M,M,M,M,M,M,M,M,60.80,KHTH 021015Z AUTO 00000KT 10SM FEW110 16/07 A2999 RMK A01,M
10U,2023-09-02 10:15,-116.1876,41.9532,1637.00,55.40,50.00,81.99,M,6.00,0.00,30.07,M,10.00,M,FEW,SCT,BKN,M,1300.00,3200.00,8000.00,M,M,M,M,M,M,M,M,55.40,K10U 021015Z AUTO VRB06KT 10SM FEW013 SCT032 BKN080 13/10 A3007 RMK AO2,M
TMT,2023-09-02 10:15,-117.1971,39.4643,1749.34,54.00,43.70,68.04,0.00,0.00,0.00,30.05,M,M,M,SCT,BKN,M,M,5500.00,6500.00,M,M,VCTS,M,M,M,M,M,M,54.00,KTMT 021015Z AUTO 00000KT VCTS SCT055 BKN065 12/07 A3005 RMK AO2 T01220065,M
INS,2023-09-02 10:16,-115.6733,36.5872,955.00,66.20,64.40,93.92,90.00,17.00,0.00,30.04,1013.30,10.00,M,FEW,BKN,OVC,M,5000.00,7500.00,10000.00,M,-RA,M,M,M,M,M,M,66.20,KINS 021016Z AUTO 09017KT 10SM -RA FEW050 BKN075 OVC100 19/18 A3004 RMK AO2 RAB16 SLP133 $,M
05U,2023-09-02 10:30,-116.0051,39.6042,1811.23,59.00,53.60,82.25,M,M,0.00,30.13,M,10.00,M,FEW,SCT,BKN,M,3000.00,5000.00,8000.00,M,M,M,M,M,M,M,M,59.00,K05U 021030Z AUTO 10SM FEW030 SCT050 BKN080 15/12 A3013 RMK A01,M
BVU,2023-09-02 10:35,-114.8611,35.9475,671.00,69.80,64.40,82.98,60.00,5.00,0.00,30.04,M,10.00,M,OVC,M,M,M,3100.00,M,M,M,M,M,M,M,M,M,M,69.80,KBVU 021035Z AUTO 06005KT 10SM OVC031 21/18 A3004 RMK AO2,M
CXP,2023-09-02 10:35,-119.7326,39.1923,1431.00,55.40,48.20,76.66,70.00,3.00,0.00,30.02,M,10.00,M,BKN,OVC,M,M,9000.00,11000.00,M,M,M,M,M,M,M,M,M,55.40,KCXP 021035Z AUTO 07003KT 10SM BKN090 OVC110 13/09 A3002 RMK AO2,M
RTS,2023-09-02 10:35,-119.8764,39.6682,1539.00,51.80,50.00,93.55,360.00,3.00,0.00,30.03,M,10.00,M,OVC,M,M,M,8000.00,M,M,M,M,M,M,M,M,M,M,51.80,KRTS 021035Z AUTO 36003KT 10SM OVC080 11/10 A3003 RMK AO2,M
MEV,2023-09-02 10:35,-119.7500,38.9963,1441.42,55.40,46.40,71.64,M,6.00,0.00,30.00,M,10.00,M,OVC,M,M,M,11000.00,M,M,M,M,M,M,M,M,M,M,55.40,KMEV 021035Z AUTO VRB06KT 10SM OVC110 13/08 A3000 RMK AO2,M
BAM,2023-09-02 10:35,-116.8743,40.5990,1382.36,59.00,51.80,76.98,50.00,8.00,0.00,30.04,M,10.00,M,SCT,BKN,M,M,9000.00,11000.00,M,M,M,M,M,M,M,M,M,59.00,KBAM 021035Z AUTO 05008KT 10SM SCT090 BKN110 15/11 A3004 RMK AO1,M
HTH,2023-09-02 10:35,-118.6315,38.5448,1282.89,60.80,44.60,55.12,0.00,0.00,0.00,30.00,M,10.00,M,CLR,M,M,M,M,M,M,M,M,M,M,M,M,M,M,60.80,KHTH 021035Z AUTO 00000KT 10SM CLR 16/07 A3000 RMK A01,M
10U,2023-09-02 10:35,-116.1876,41.9532,1637.00,55.40,50.00,81.99,0.00,0.00,0.00,30.06,M,10.00,M,FEW,FEW,SCT,M,7500.00,8500.00,11000.00,M,M,M,M,M,M,M,M,55.40,K10U 021035Z AUTO 00000KT 10SM FEW075 FEW085 SCT110 13/10 A3006 RMK AO2,M
TMT,2023-09-02 10:35,-117.1971,39.4643,1749.34,53.60,43.30,67.99,320.00,3.00,0.00,30.05,M,M,M,SCT,M,M,M,6500.00,M,M,M,M,M,M,M,M,M,M,53.60,KTMT 021035Z AUTO 32003KT SCT065 12/06 A3005 RMK AO2 LTG DSNT W T01200063 PWINO,M
TPH,2023-09-02 10:36,-117.0904,38.0505,1654.00,60.00,58.00,93.10,160.00,19.00,0.01,30.08,M,10.00,25.00,SCT,BKN,BKN,M,1100.00,2000.00,4800.00,M,M,M,M,M,28.00,160.00,2023-09-02 10:14,60.00,KTPH 021036Z AUTO 16019G25KT 10SM SCT011 BKN020 BKN048 16/14 A3008 RMK AO2 PK WND 16028/1014 RAE11 CIG 015V027 P0001 T01560144,M
TPH,2023-09-02 10:44,-117.0904,38.0505,1654.00,60.00,58.00,93.10,170.00,18.00,0.01,30.08,M,10.00,25.00,BKN,BKN,BKN,M,1300.00,3500.00,4800.00,M,M,M,M,M,28.00,160.00,2023-09-02 10:14,60.00,KTPH 021044Z AUTO 17018G25KT 10SM BKN013 BKN035 BKN048 16/14 A3008 RMK AO2 PK WND 16028/1014 RAE11 P0001 T01560144,M
INS,2023-09-02 10:49,-115.6733,36.5872,955.00,64.40,64.40,100.00,80.00,18.00,0.00,30.04,1013.50,10.00,M,FEW,BKN,M,M,500.00,7000.00,M,M,M,M,M,M,M,M,M,64.40,KINS 021049Z AUTO 08018KT 10SM FEW005 BKN070 18/18 A3004 RMK AO2 RAB16E46DZB46E49 SLP135 $,M
05U,2023-09-02 10:50,-116.0051,39.6042,1811.23,57.20,55.40,93.69,M,M,0.00,30.13,M,5.00,M,FEW,SCT,BKN,M,400.00,4900.00,7500.00,M,BR,M,M,M,M,M,M,57.20,K05U 021050Z AUTO 5SM BR FEW004 SCT049 BKN075 14/13 A3013 RMK A01,M
P68,2023-09-02 10:53,-116.0056,39.6014,1993.00,57.00,55.00,93.01,150.00,15.00,0.02,30.11,1011.00,M,24.00,M,M,M,M,M,M,M,M,M,M,M,M,M,M,M,57.00,KP68 021053Z AUTO 15015G24KT 14/13 A3011 RMK AO1 SLP110 P0002 T01390128 $,M
DRA,2023-09-02 10:53,-116.0278,36.6206,1009.00,67.00,62.00,83.97,140.00,3.00,0.00,30.04,1013.50,10.00,M,OVC,M,M,M,4400.00,M,M,M,M,M,M,M,M,M,M,67.00,KDRA 021053Z AUTO 14003KT 10SM OVC044 19/17 A3004 RMK AO2 SLP135 T01940167,M
ELY,2023-09-02 10:53,-114.8453,39.2950,1909.00,55.00,50.00,83.20,190.00,9.00,0.00,30.18,1013.50,10.00,M,OVC,M,M,M,7000.00,M,M,M,M,M,M,M,M,M,M,55.00,KELY 021053Z AUTO 19009KT 10SM OVC070 13/10 A3018 RMK AO2 SLP135 T01280100,M
VGT,2023-09-02 10:53,-115.1933,36.2111,667.00,71.00,65.00,81.34,90.00,4.00,0.00,30.04,1017.30,10.00,M,OVC,M,M,M,3200.00,M,M,M,M,M,M,M,M,M,M,71.00,KVGT 021053Z AUTO 09004KT 10SM OVC032 22/18 A3004 RMK AO2 SLP173 T02170183 $,M
LOL,2023-09-02 10:53,-118.5701,40.0684,1192.43,59.00,47.00,64.36,30.00,6.00,0.00,29.98,1012.10,10.00,M,CLR,M,M,M,M,M,M,M,M,M,M,M,M,M,M,59.00,KLOL 021053Z AUTO 03006KT 10SM CLR 15/08 A2998 RMK AO2 SLP121 T01500083,M
BVU,2023-09-02 10:55,-114.8611,35.9475,671.00,69.80,64.40,82.98,90.00,5.00,0.00,30.04,M,10.00,M,OVC,M,M,M,3300.00,M,M,M,M,M,M,M,M,M,M,69.80,KBVU 021055Z AUTO 09005KT 10SM OVC033 21/18 A3004 RMK AO2,M
CXP,2023-09-02 10:55,-119.7326,39.1923,1431.00,55.40,48.20,76.66,320.00,5.00,0.00,30.02,M,10.00,M,OVC,M,M,M,9500.00,M,M,M,M,M,M,M,M,M,M,55.40,KCXP 021055Z AUTO 32005KT 10SM OVC095 13/09 A3002 RMK AO2,M
RNO,2023-09-02 10:55,-119.7711,39.4839,1341.00,55.00,50.00,83.20,280.00,6.00,0.00,30.00,1012.20,10.00,M,SCT,BKN,M,M,9000.00,15000.00,M,M,M,M,M,M,M,M,M,55.00,KRNO 021055Z 28006KT 10SM SCT090 BKN150 13/10 A3000 RMK AO2 SLP122 T01280100,M
RTS,2023-09-02 10:55,-119.8764,39.6682,1539.00,51.80,50.00,93.55,110.00,5.00,0.00,30.03,M,10.00,M,OVC,M,M,M,8000.00,M,M,M,M,M,M,M,M,M,M,51.80,KRTS 021055Z AUTO 11005KT 10SM OVC080 11/10 A3003 RMK AO2,M
MEV,2023-09-02 10:55,-119.7500,38.9963,1441.42,55.40,46.40,71.64,M,5.00,0.00,30.00,M,10.00,10.00,FEW,FEW,BKN,M,4000.00,5500.00,11000.00,M,M,M,M,M,M,M,M,55.40,KMEV 021055Z AUTO VRB05G10KT 10SM FEW040 FEW055 BKN110 13/08 A3000 RMK AO2,M
BAM,2023-09-02 10:55,-116.8743,40.5990,1382.36,57.20,51.80,82.12,60.00,9.00,0.00,30.04,M,10.00,M,SCT,SCT,M,M,8000.00,9000.00,M,M,M,M,M,M,M,M,M,57.20,KBAM 021055Z AUTO 06009KT 10SM SCT080 SCT090 14/11 A3004 RMK AO1,M
HTH,2023-09-02 10:55,-118.6315,38.5448,1282.89,59.00,44.60,58.77,0.00,0.00,0.00,29.99,M,10.00,M,SCT,M,M,M,11000.00,M,M,M,M,M,M,M,M,M,M,59.00,KHTH 021055Z AUTO 00000KT 10SM SCT110 15/07 A2999 RMK A01,M
TMT,2023-09-02 10:55,-117.1971,39.4643,1749.34,52.70,43.50,70.81,0.00,0.00,0.00,30.06,M,M,M,SCT,M,M,M,6500.00,M,M,M,M,M,M,M,M,M,M,52.70,KTMT 021055Z AUTO 00000KT SCT065 12/06 A3006 RMK AO2 LTG DSNT NE T01150064 PWINO,M
10U,2023-09-02 10:55,-116.1876,41.9532,1637.00,55.40,50.00,81.99,80.00,4.00,0.00,30.07,M,10.00,M,FEW,SCT,M,M,8500.00,12000.00,M,M,M,M,M,M,M,M,M,55.40,K10U 021055Z AUTO 08004KT 10SM FEW085 SCT120 13/10 A3007 RMK AO2,M
INS,2023-09-02 10:55,-115.6733,36.5872,955.00,65.00,64.80,99.30,80.00,17.00,0.03,30.04,1013.50,10.00,M,FEW,OVC,M,M,300.00,7000.00,M,M,M,M,M,M,M,M,M,65.00,KINS 021055Z AUTO 08017KT 10SM FEW003 OVC070 18/18 A3004 RMK AO2 RAB16E46DZB46E49 SLP135 P0003 T01840182 $,M
LSV,2023-09-02 10:55,-115.0343,36.2362,570.00,70.00,69.80,99.32,50.00,8.00,0.00,30.01,1014.60,10.00,M,BKN,OVC,M,M,3600.00,4300.00,M,M,M,M,M,M,M,M,M,70.00,KLSV 021055Z AUTO 05008KT 10SM BKN036 OVC043 21/21 A3001 RMK AO2 SLP146 T02120210 $,M
EKO,2023-09-02 10:56,-115.7860,40.8242,1367.00,56.00,53.00,89.64,190.00,4.00,T,30.10,1014.10,10.00,M,OVC,M,M,M,3600.00,M,M,M,-RA,M,M,M,M,M,M,56.00,KEKO 021056Z AUTO 19004KT 10SM -RA OVC036 13/12 A3010 RMK AO2 RAB55 SLP141 P0000 T01330117,M
WMC,2023-09-02 10:56,-117.8072,40.9019,1315.00,54.00,43.00,66.24,270.00,7.00,0.00,30.01,1012.60,10.00,M,CLR,M,M,M,M,M,M,M,M,M,M,M,M,M,M,54.00,KWMC 021056Z AUTO 27007KT 10SM CLR 12/06 A3001 RMK AO2 SLP126 T01220061,M
NFL,2023-09-02 10:56,-118.7010,39.4166,1199.00,60.00,47.00,62.11,320.00,7.00,0.00,29.98,1012.30,10.00,M,SCT,M,M,M,11000.00,M,M,M,M,M,M,M,M,M,M,60.00,KNFL 021056Z AUTO 32007KT 10SM SCT110 16/08 A2998 RMK AO2 SLP123 T01560083,M
HND,2023-09-02 10:56,-115.1344,35.9729,742.79,69.00,65.00,87.08,20.00,4.00,0.00,30.08,1018.30,10.00,M,OVC,M,M,M,2300.00,M,M,M,M,M,M,M,M,M,M,69.00,KHND 021056Z AUTO 02004KT 10SM OVC023 21/18 A3008 RMK AO2 SLP183 T02060183,M
TPH,2023-09-02 10:56,-117.0904,38.0505,1654.00,60.00,57.00,89.80,160.00,18.00,0.01,30.08,1011.60,10.00,27.00,BKN,BKN,OVC,M,1300.00,2300.00,4800.00,M,M,M,M,M,28.00,160.00,2023-09-02 10:14,60.00,KTPH 021056Z AUTO 16018G27KT 10SM BKN013 BKN023 OVC048 16/14 A3008 RMK AO2 PK WND 16028/1014 RAE11 SLP116 P0001 T01560139,M
LAS,2023-09-02 10:56,-115.1634,36.0719,663.00,68.00,66.00,93.32,40.00,5.00,0.00,30.05,1015.80,10.00,M,BKN,BKN,M,M,3000.00,8000.00,M,M,M,M,M,M,M,M,M,68.00,KLAS 021056Z 04005KT 10SM BKN030 BKN080 20/19 A3005 RMK AO2 SLP158 T02000189,M
TPH,2023-09-02 11:12,-117.0904,38.0505,1654.00,60.00,57.00,89.80,170.00,20.00,0.00,30.08,M,10.00,28.00,SCT,BKN,OVC,M,1300.00,3100.00,4900.00,M,M,M,M,M,29.00,160.00,2023-09-02 11:01,60.00,KTPH 021112Z AUTO 17020G28KT 10SM SCT013 BKN031 OVC049 16/14 A3008 RMK AO2 PK WND 16029/1101 T01560139,M
BVU,2023-09-02 11:15,-114.8611,35.9475,671.00,69.80,64.40,82.98,100.00,6.00,0.00,30.04,M,10.00,M,FEW,OVC,M,M,2400.00,3200.00,M,M,M,M,M,M,M,M,M,69.80,KBVU 021115Z AUTO 10006KT 10SM FEW024 OVC032 21/18 A3004 RMK AO2,M
CXP,2023-09-02 11:15,-119.7326,39.1923,1431.00,55.40,48.20,76.66,40.00,5.00,0.00,30.02,M,10.00,M,OVC,M,M,M,10000.00,M,M,M,M,M,M,M,M,M,M,55.40,KCXP 021115Z AUTO 04005KT 10SM OVC100 13/09 A3002 RMK AO2,M
HND,2023-09-02 11:15,-115.1344,35.9729,742.79,69.80,64.40,82.98,40.00,3.00,0.00,30.08,M,10.00,M,SCT,BKN,OVC,M,2300.00,3100.00,5000.00,M,M,M,M,M,M,M,M,69.80,KHND 021115Z AUTO 04003KT 10SM SCT023 BKN031 OVC050 21/18 A3008 RMK AO2,M
RTS,2023-09-02 11:15,-119.8764,39.6682,1539.00,51.80,50.00,93.55,90.00,5.00,0.00,30.03,M,10.00,M,OVC,M,M,M,8000.00,M,M,M,M,M,M,M,M,M,M,51.80,KRTS 021115Z AUTO 09005KT 10SM OVC080 11/10 A3003 RMK AO2,M
05U,2023-09-02 11:15,-116.0051,39.6042,1811.23,57.20,55.40,93.69,M,M,0.00,30.14,M,7.00,M,FEW,SCT,BKN,M,3400.00,5000.00,6000.00,M,M,M,M,M,M,M,M,57.20,K05U 021115Z AUTO 7SM FEW034 SCT050 BKN060 14/13 A3014 RMK A01,M
MEV,2023-09-02 11:15,-119.7500,38.9963,1441.42,57.20,44.60,62.69,0.00,0.00,0.00,30.00,M,10.00,10.00,FEW,SCT,BKN,M,5500.00,10000.00,12000.00,M,M,M,M,M,M,M,M,57.20,KMEV 021115Z AUTO 00000G10KT 10SM FEW055 SCT100 BKN120 14/07 A3000 RMK AO2,M
HTH,2023-09-02 11:15,-118.6315,38.5448,1282.89,59.00,44.60,58.77,260.00,5.00,0.00,29.99,M,10.00,M,FEW,M,M,M,11000.00,M,M,M,M,M,M,M,M,M,M,59.00,KHTH 021115Z AUTO 26005KT 10SM FEW110 15/07 A2999 RMK A01,M
BAM,2023-09-02 11:15,-116.8743,40.5990,1382.36,57.20,51.80,82.12,70.00,11.00,0.00,30.03,M,10.00,M,SCT,M,M,M,8000.00,M,M,M,M,M,M,M,M,M,M,57.20,KBAM 021115Z AUTO 07011KT 10SM SCT080 14/11 A3003 RMK AO1,M
TMT,2023-09-02 11:15,-117.1971,39.4643,1749.34,53.00,43.70,70.58,0.00,0.00,0.00,30.06,M,M,M,BKN,BKN,M,M,5500.00,6500.00,M,M,M,M,M,M,M,M,M,53.00,KTMT 021115Z AUTO 00000KT BKN055 BKN065 12/07 A3006 RMK AO2 T01160065 PWINO,M
LSV,2023-09-02 11:17,-115.0343,36.2362,570.00,69.80,69.80,100.00,60.00,8.00,0.00,30.01,1014.60,10.00,M,SCT,BKN,OVC,M,4000.00,6500.00,8500.00,M,M,M,M,M,M,M,M,69.80,KLSV 021117Z AUTO 06008KT 10SM SCT040 BKN065 OVC085 21/21 A3001 RMK AO2 SLP146 $,M
10U,2023-09-02 11:20,-116.1876,41.9532,1637.00,55.40,50.00,81.99,230.00,4.00,0.00,30.08,M,10.00,M,FEW,M,M,M,12000.00,M,M,M,M,M,M,M,M,M,M,55.40,K10U 021120Z AUTO 23004KT 10SM FEW120 13/10 A3008 RMK AO2,M
05U,2023-09-02 11:30,-116.0051,39.6042,1811.23,57.20,55.40,93.69,M,M,0.00,30.13,M,10.00,M,FEW,BKN,OVC,M,3100.00,7000.00,8500.00,M,M,M,M,M,M,M,M,57.20,K05U 021130Z AUTO 10SM FEW031 BKN070 OVC085 14/13 A3013 RMK A01,M
LSV,2023-09-02 11:33,-115.0343,36.2362,570.00,69.80,69.80,100.00,70.00,6.00,0.00,30.01,1014.60,10.00,M,BKN,BKN,OVC,M,3800.00,6500.00,8500.00,M,M,M,M,M,M,M,M,69.80,KLSV 021133Z AUTO 07006KT 10SM BKN038 BKN065 OVC085 21/21 A3001 RMK AO2 SLP146 $,M
BVU,2023-09-02 11:35,-114.8611,35.9475,671.00,69.80,64.40,82.98,80.00,5.00,0.00,30.05,M,10.00,M,OVC,M,M,M,2900.00,M,M,M,M,M,M,M,M,M,M,69.80,KBVU 021135Z AUTO 08005KT 10SM OVC029 21/18 A3005 RMK AO2,M
CXP,2023-09-02 11:35,-119.7326,39.1923,1431.00,55.40,50.00,81.99,M,4.00,0.00,30.02,M,10.00,M,OVC,M,M,M,10000.00,M,M,M,M,M,M,M,M,M,M,55.40,KCXP 021135Z AUTO VRB04KT 10SM OVC100 13/10 A3002 RMK AO2,M
RTS,2023-09-02 11:35,-119.8764,39.6682,1539.00,51.80,50.00,93.55,120.00,3.00,0.00,30.03,M,10.00,M,OVC,M,M,M,8000.00,M,M,M,M,M,M,M,M,M,M,51.80,KRTS 021135Z AUTO 12003KT 10SM OVC080 11/10 A3003 RMK AO2,M
MEV,2023-09-02 11:35,-119.7500,38.9963,1441.42,60.80,39.20,44.76,180.00,5.00,0.00,29.99,M,10.00,11.00,FEW,BKN,BKN,M,5500.00,9500.00,12000.00,M,M,M,M,M,M,M,M,60.80,KMEV 021135Z AUTO 18005G11KT 10SM FEW055 BKN095 BKN120 16/04 A2999 RMK AO2,M
BAM,2023-09-02 11:35,-116.8743,40.5990,1382.36,59.00,51.80,76.98,50.00,10.00,0.00,30.04,M,10.00,M,SCT,M,M,M,8000.00,M,M,M,M,M,M,M,M,M,M,59.00,KBAM 021135Z AUTO 05010KT 10SM SCT080 15/11 A3004 RMK AO1,M
HTH,2023-09-02 11:35,-118.6315,38.5448,1282.89,59.00,44.60,58.77,260.00,4.00,0.00,29.99,M,10.00,M,CLR,M,M,M,M,M,M,M,M,M,M,M,M,M,M,59.00,KHTH 021135Z AUTO 26004KT 10SM CLR 15/07 A2999 RMK A01,M
TMT,2023-09-02 11:35,-117.1971,39.4643,1749.34,51.40,42.00,70.13,150.00,7.00,0.00,30.07,M,M,M,SCT,OVC,M,M,5500.00,6500.00,M,M,M,M,M,M,M,M,M,51.40,KTMT 021135Z AUTO 15007KT SCT055 OVC065 11/06 A3007 RMK AO2 LTG DSNT W AND NW T01080056 PWINO,M
10U,2023-09-02 11:40,-116.1876,41.9532,1637.00,55.40,50.00,81.99,160.00,6.00,0.00,30.08,M,10.00,M,FEW,SCT,BKN,M,5500.00,6000.00,12000.00,M,M,M,M,M,M,M,M,55.40,K10U 021140Z AUTO 16006KT 10SM FEW055 SCT060 BKN120 13/10 A3008 RMK AO2,M
VGT,2023-09-02 11:42,-115.1933,36.2111,667.00,71.00,65.00,81.34,90.00,6.00,0.00,30.04,M,10.00,M,OVC,M,M,M,2900.00,M,M,M,M,M,M,M,M,M,M,71.00,KVGT 021142Z AUTO 09006KT 10SM OVC029 22/18 A3004 RMK AO2 T02170183 $,M
P68,2023-09-02 11:53,-116.0056,39.6014,1993.00,57.00,54.00,89.68,160.00,15.00,0.02,30.11,1011.20,M,23.00,M,M,M,M,M,M,M,M,M,M,M,M,M,M,M,57.00,KP68 021153Z AUTO 16015G23KT 14/12 A3011 RMK AO1 SLP112 P0002 60005 7//// T01390122 10161 20139 52005 $,M
DRA,2023-09-02 11:53,-116.0278,36.6206,1009.00,67.00,62.00,83.97,120.00,5.00,0.00,30.04,1013.50,10.00,M,BKN,BKN,OVC,M,4600.00,6500.00,9000.00,M,M,M,M,M,M,M,M,67.00,KDRA 021153Z AUTO 12005KT 10SM BKN046 BKN065 OVC090 19/17 A3004 RMK AO2 SLP135 60018 70026 T01940167 10206 20178 53005,M
ELY,2023-09-02 11:53,-114.8453,39.2950,1909.00,55.00,49.00,80.15,180.00,12.00,0.00,30.19,1014.30,10.00,22.00,FEW,FEW,BKN,M,2900.00,8000.00,10000.00,M,M,M,M,M,M,M,M,55.00,KELY 021153Z AUTO 18012G22KT 10SM FEW029 FEW080 BKN100 13/09 A3019 RMK AO2 SLP143 60000 70003 T01280094 10144 20122 53002,M
VGT,2023-09-02 11:53,-115.1933,36.2111,667.00,71.00,66.00,84.22,100.00,6.00,0.00,30.04,1017.30,10.00,M,OVC,M,M,M,2900.00,M,M,M,M,M,M,M,M,M,M,71.00,KVGT 021153Z AUTO 10006KT 10SM OVC029 22/19 A3004 RMK AO2 SLP173 70152 T02170189 10217 20217 55000 $,M
LOL,2023-09-02 11:53,-118.5701,40.0684,1192.43,59.00,46.00,61.98,50.00,5.00,0.00,29.98,1012.30,10.00,M,BKN,M,M,M,10000.00,M,M,M,M,M,M,M,M,M,M,59.00,KLOL 021153Z AUTO 05005KT 10SM BKN100 15/08 A2998 RMK AO2 SLP123 60000 T01500078 10172 20150 55000,M
BVU,2023-09-02 11:55,-114.8611,35.9475,671.00,69.80,64.40,82.98,50.00,4.00,0.00,30.05,M,10.00,M,OVC,M,M,M,2600.00,M,M,M,M,M,M,M,M,M,M,69.80,KBVU 021155Z AUTO 05004KT 10SM OVC026 21/18 A3005 RMK AO2,M
CXP,2023-09-02 11:55,-119.7326,39.1923,1431.00,55.40,48.20,76.66,M,4.00,0.00,30.02,M,10.00,M,OVC,M,M,M,10000.00,M,M,M,M,M,M,M,M,M,M,55.40,KCXP 021155Z AUTO VRB04KT 10SM OVC100 13/09 A3002 RMK AO2,M
RNO,2023-09-02 11:55,-119.7711,39.4839,1341.00,55.00,50.00,83.20,280.00,5.00,0.00,30.00,1012.40,10.00,M,BKN,M,M,M,10000.00,M,M,M,M,M,M,M,M,M,M,55.00,KRNO 021155Z 28005KT 10SM BKN100 13/10 A3000 RMK AO2 SLP124 60001 70011 T01280100 10133 20128 51005,M
RTS,2023-09-02 11:55,-119.8764,39.6682,1539.00,51.80,50.00,93.55,0.00,0.00,0.00,30.04,M,10.00,M,BKN,OVC,M,M,8000.00,9000.00,M,M,M,M,M,M,M,M,M,51.80,KRTS 021155Z AUTO 00000KT 10SM BKN080 OVC090 11/10 A3004 RMK AO2,M
05U,2023-09-02 11:55,-116.0051,39.6042,1811.23,57.20,53.60,87.74,M,M,0.01,30.14,M,9.00,M,FEW,SCT,OVC,M,5500.00,7000.00,8000.00,M,M,M,M,M,M,M,M,57.20,K05U 021155Z AUTO 9SM FEW055 SCT070 OVC080 14/12 A3014 RMK A01 P0001,M
MEV,2023-09-02 11:55,-119.7500,38.9963,1441.42,59.00,39.20,47.72,M,3.00,0.00,29.99,M,10.00,M,FEW,BKN,BKN,M,5500.00,9500.00,12000.00,M,M,M,M,M,M,M,M,59.00,KMEV 021155Z AUTO VRB03KT 10SM FEW055 BKN095 BKN120 15/04 A2999 RMK AO2,M
BAM,2023-09-02 11:55,-116.8743,40.5990,1382.36,59.00,51.80,76.98,50.00,10.00,0.00,30.04,M,10.00,16.00,SCT,M,M,M,12000.00,M,M,M,M,M,M,M,M,M,M,59.00,KBAM 021155Z AUTO 05010G16KT 10SM SCT120 15/11 A3004 RMK AO1,M
HTH,2023-09-02 11:55,-118.6315,38.5448,1282.89,59.00,46.40,62.92,260.00,3.00,0.00,30.00,M,10.00,M,BKN,M,M,M,10000.00,M,M,M,M,M,M,M,M,M,M,59.00,KHTH 021155Z AUTO 26003KT 10SM BKN100 15/08 A3000 RMK A01,M
TMT,2023-09-02 11:55,-117.1971,39.4643,1749.34,51.40,42.00,70.13,0.00,0.00,0.00,30.06,M,M,M,BKN,M,M,M,6500.00,M,M,M,M,M,M,M,M,M,M,51.40,KTMT 021155Z AUTO 00000KT BKN065 11/06 A3006 RMK AO2 T01080056 10164 20105 PWINO,M
10U,2023-09-02 11:55,-116.1876,41.9532,1637.00,53.60,50.00,87.56,150.00,6.00,0.00,30.09,M,10.00,M,SCT,SCT,BKN,M,5500.00,7500.00,12000.00,M,M,M,M,M,M,M,M,53.60,K10U 021155Z AUTO 15006KT 10SM SCT055 SCT075 BKN120 12/10 A3009 RMK AO2,M
INS,2023-09-02 11:55,-115.6733,36.5872,955.00,65.00,64.80,99.30,80.00,15.00,0.00,30.05,1014.00,10.00,M,FEW,BKN,M,M,8000.00,13000.00,M,M,M,M,M,M,M,M,M,65.00,KINS 021155Z AUTO 08015KT 10SM FEW080 BKN130 18/18 A3005 RMK AO2 SLP140 60012 70039 T01840182 10198 20182 53001 $,M
LSV,2023-09-02 11:55,-115.0343,36.2362,570.00,70.00,69.80,99.32,50.00,6.00,0.00,30.01,1014.60,10.00,M,OVC,M,M,M,3600.00,M,M,M,M,M,M,M,M,M,M,70.00,KLSV 021155Z AUTO 05006KT 10SM OVC036 21/21 A3001 RMK AO2 SLP146 70119 T02120210 10214 20209 55000 $,M
EKO,2023-09-02 11:56,-115.7860,40.8242,1367.00,58.00,54.00,86.51,60.00,5.00,0.01,30.09,1013.70,10.00,M,FEW,BKN,OVC,M,3600.00,4900.00,6500.00,M,M,M,M,M,M,M,M,58.00,KEKO 021156Z AUTO 06005KT 10SM FEW036 BKN049 OVC065 14/12 A3009 RMK AO2 RAE12 SLP137 P0001 60002 70006 T01440122 10206 20133 50003,M
WMC,2023-09-02 11:56,-117.8072,40.9019,1315.00,55.00,44.00,66.36,360.00,3.00,0.00,30.01,1012.70,10.00,M,CLR,M,M,M,M,M,M,M,M,M,M,M,M,M,M,55.00,KWMC 021156Z AUTO 36003KT 10SM CLR 13/07 A3001 RMK AO2 SLP127 T01280067 10156 20122 58001,M
NFL,2023-09-02 11:56,-118.7010,39.4166,1199.00,59.00,48.00,66.83,320.00,6.00,0.00,29.98,1012.30,10.00,M,SCT,M,M,M,10000.00,M,M,M,M,M,M,M,M,M,M,59.00,KNFL 021156Z AUTO 32006KT 10SM SCT100 15/09 A2998 RMK AO2 SLP123 7//// T01500089 10167 20150 50003,M
HND,2023-09-02 11:56,-115.1344,35.9729,742.79,69.00,64.00,84.09,40.00,4.00,0.00,30.08,1018.30,10.00,M,FEW,SCT,OVC,M,2100.00,3300.00,5000.00,M,M,M,M,M,M,M,M,69.00,KHND 021156Z AUTO 04004KT 10SM FEW021 SCT033 OVC050 21/18 A3008 RMK AO2 SLP183 70026 T02060178 10206 20194 53000,M
TPH,2023-09-02 11:56,-117.0904,38.0505,1654.00,60.00,56.00,86.61,170.00,20.00,0.00,30.09,1012.10,10.00,28.00,SCT,BKN,BKN,M,3300.00,4100.00,4700.00,M,M,M,M,M,30.00,170.00,2023-09-02 11:24,60.00,KTPH 021156Z AUTO 17020G28KT 10SM SCT033 BKN041 BKN047 16/13 A3009 RMK AO2 PK WND 17030/1124 SLP121 60001 70001 T01560133 10172 20150 53008,M
LAS,2023-09-02 11:56,-115.1634,36.0719,663.00,68.00,66.00,93.32,80.00,5.00,0.00,30.05,1015.90,10.00,M,BKN,BKN,M,M,3000.00,8000.00,M,M,M,M,M,M,M,M,M,68.00,KLAS 021156Z 08005KT 10SM BKN030 BKN080 20/19 A3005 RMK AO2 SLP159 7//// T02000189 10211 20200 53001,M
05U,2023-09-02 12:10,-116.0051,39.6042,1811.23,57.20,53.60,87.74,M,M,0.00,30.15,M,9.00,M,SCT,BKN,OVC,M,4700.00,6500.00,7500.00,M,M,M,M,M,M,M,M,57.20,K05U 021210Z AUTO 9SM SCT047 BKN065 OVC075 14/12 A3015 RMK A01,M
BVU,2023-09-02 12:15,-114.8611,35.9475,671.00,69.80,64.40,82.98,80.00,5.00,0.00,30.05,M,10.00,M,OVC,M,M,M,2600.00,M,M,M,M,M,M,M,M,M,M,69.80,KBVU 021215Z AUTO 08005KT 10SM OVC026 21/18 A3005 RMK AO2,M
CXP,2023-09-02 12:15,-119.7326,39.1923,1431.00,55.40,50.00,81.99,0.00,0.00,0.00,30.02,M,10.00,M,OVC,M,M,M,10000.00,M,M,M,M,M,M,M,M,M,M,55.40,KCXP 021215Z AUTO 00000KT 10SM OVC100 13/10 A3002 RMK AO2,M
RTS,2023-09-02 12:15,-119.8764,39.6682,1539.00,51.80,50.00,93.55,0.00,0.00,0.00,30.04,M,10.00,M,OVC,M,M,M,8500.00,M,M,M,M,M,M,M,M,M,M,51.80,KRTS 021215Z AUTO 00000KT 10SM OVC085 11/10 A3004 RMK AO2,M
MEV,2023-09-02 12:15,-119.7500,38.9963,1441.42,57.20,42.80,58.52,80.00,3.00,0.00,30.00,M,10.00,M,BKN,OVC,M,M,10000.00,12000.00,M,M,M,M,M,M,M,M,M,57.20,KMEV 021215Z AUTO 08003KT 10SM BKN100 OVC120 14/06 A3000 RMK AO2,M
BAM,2023-09-02 12:15,-116.8743,40.5990,1382.36,59.00,51.80,76.98,60.00,10.00,0.00,30.04,M,10.00,M,BKN,M,M,M,11000.00,M,M,M,M,M,M,M,M,M,M,59.00,KBAM 021215Z AUTO 06010KT 10SM BKN110 15/11 A3004 RMK AO1,M
HTH,2023-09-02 12:15,-118.6315,38.5448,1282.89,59.00,44.60,58.77,0.00,0.00,0.00,30.00,M,10.00,M,BKN,M,M,M,10000.00,M,M,M,M,M,M,M,M,M,M,59.00,KHTH 021215Z AUTO 00000KT 10SM BKN100 15/07 A3000 RMK A01,M
TMT,2023-09-02 12:15,-117.1971,39.4643,1749.34,52.70,42.80,68.94,110.00,4.00,0.00,30.07,M,M,M,SCT,OVC,M,M,5000.00,6500.00,M,M,M,M,M,M,M,M,M,52.70,KTMT 021215Z AUTO 11004KT SCT050 OVC065 12/06 A3007 RMK AO2 T01150060 PWINO,M
10U,2023-09-02 12:20,-116.1876,41.9532,1637.00,53.60,50.00,87.56,210.00,4.00,0.00,30.09,M,10.00,M,FEW,SCT,BKN,M,4700.00,7500.00,11000.00,M,M,M,M,M,M,M,M,53.60,K10U 021220Z AUTO 21004KT 10SM FEW047 SCT075 BKN110 12/10 A3009 RMK AO2,M
TPH,2023-09-02 12:22,-117.0904,38.0505,1654.00,59.00,56.00,89.76,160.00,19.00,0.00,30.10,M,10.00,26.00,SCT,BKN,BKN,M,1600.00,2000.00,3100.00,M,M,M,M,M,30.00,160.00,2023-09-02 12:03,59.00,KTPH 021222Z AUTO 16019G26KT 10SM SCT016 BKN020 BKN031 15/13 A3010 RMK AO2 PK WND 16030/1203 T01500133,M
05U,2023-09-02 12:30,-116.0051,39.6042,1811.23,57.20,53.60,87.74,M,M,0.00,30.16,M,4.00,M,FEW,BKN,OVC,M,3300.00,4000.00,5500.00,M,BR,M,M,M,M,M,M,57.20,K05U 021230Z AUTO 4SM BR FEW033 BKN040 OVC055 14/12 A3016 RMK A01,M
HTH,2023-09-02 12:30,-118.6315,38.5448,1282.89,59.00,46.40,62.92,240.00,3.00,0.00,30.01,M,10.00,M,BKN,M,M,M,9500.00,M,M,M,M,M,M,M,M,M,M,59.00,KHTH 021230Z AUTO 24003KT 10SM BKN095 15/08 A3001 RMK A01,M
LSV,2023-09-02 12:32,-115.0343,36.2362,570.00,69.80,69.80,100.00,40.00,7.00,0.00,30.02,1014.90,10.00,M,SCT,OVC,M,M,3200.00,6000.00,M,M,M,M,M,M,M,M,M,69.80,KLSV 021232Z AUTO 04007KT 10SM SCT032 OVC060 21/21 A3002 RMK AO2 SLP149 $,M
TPH,2023-09-02 12:34,-117.0904,38.0505,1654.00,59.00,56.00,89.76,160.00,15.00,0.00,30.11,M,10.00,24.00,BKN,BKN,OVC,M,1400.00,2100.00,5500.00,M,M,M,M,M,30.00,160.00,2023-09-02 12:03,59.00,KTPH 021234Z AUTO 16015G24KT 10SM BKN014 BKN021 OVC055 15/13 A3011 RMK AO2 PK WND 16030/1203 T01500133,M
BVU,2023-09-02 12:35,-114.8611,35.9475,671.00,69.80,66.20,88.34,90.00,7.00,0.00,30.05,M,10.00,M,BKN,BKN,OVC,M,2600.00,3500.00,6000.00,M,M,M,M,M,M,M,M,69.80,KBVU 021235Z AUTO 09007KT 10SM BKN026 BKN035 OVC060 21/19 A3005 RMK AO2,M
CXP,2023-09-02 12:35,-119.7326,39.1923,1431.00,55.40,50.00,81.99,0.00,0.00,0.00,30.03,M,10.00,M,OVC,M,M,M,10000.00,M,M,M,M,M,M,M,M,M,M,55.40,KCXP 021235Z AUTO 00000KT 10SM OVC100 13/10 A3003 RMK AO2,M
RTS,2023-09-02 12:35,-119.8764,39.6682,1539.00,50.00,50.00,100.00,0.00,0.00,0.00,30.04,M,10.00,M,SCT,OVC,M,M,7500.00,9000.00,M,M,M,M,M,M,M,M,M,50.00,KRTS 021235Z AUTO 00000KT 10SM SCT075 OVC090 10/10 A3004 RMK AO2,M
MEV,2023-09-02 12:35,-119.7500,38.9963,1441.42,55.40,42.80,62.46,120.00,6.00,0.00,30.00,M,10.00,M,OVC,M,M,M,9500.00,M,M,M,M,M,M,M,M,M,M,55.40,KMEV 021235Z AUTO 12006KT 10SM OVC095 13/06 A3000 RMK AO2,M
BAM,2023-09-02 12:35,-116.8743,40.5990,1382.36,59.00,51.80,76.98,50.00,9.00,0.00,30.05,M,10.00,M,SCT,OVC,M,M,7000.00,10000.00,M,M,M,M,M,M,M,M,M,59.00,KBAM 021235Z AUTO 05009KT 10SM SCT070 OVC100 15/11 A3005 RMK AO1,M
TMT,2023-09-02 12:35,-117.1971,39.4643,1749.34,53.60,44.60,71.45,70.00,8.00,0.00,30.07,M,M,M,SCT,BKN,OVC,M,4400.00,5000.00,6500.00,M,M,M,M,M,M,M,M,53.60,KTMT 021235Z AUTO 07008KT SCT044 BKN050 OVC065 12/07 A3007 RMK AO2 LTG DSNT W AND NW T01200070 PWINO,M
TPH,2023-09-02 12:40,-117.0904,38.0505,1654.00,59.00,56.00,89.76,170.00,13.00,0.00,30.11,M,10.00,22.00,SCT,BKN,OVC,M,1500.00,3400.00,5000.00,M,M,M,M,M,30.00,160.00,2023-09-02 12:03,59.00,KTPH 021240Z AUTO 17013G22KT 10SM SCT015 BKN034 OVC050 15/13 A3011 RMK AO2 PK WND 16030/1203 T01500133,M
10U,2023-09-02 12:40,-116.1876,41.9532,1637.00,53.60,50.00,87.56,0.00,0.00,0.00,30.08,M,10.00,M,SCT,M,M,M,11000.00,M,M,M,M,M,M,M,M,M,M,53.60,K10U 021240Z AUTO 00000KT 10SM SCT110 12/10 A3008 RMK AO2,M
HND,2023-09-02 12:46,-115.1344,35.9729,742.79,68.00,64.40,88.26,30.00,4.00,0.00,30.09,M,10.00,M,BKN,BKN,M,M,2100.00,4500.00,M,M,M,M,M,M,M,M,M,68.00,KHND 021246Z AUTO 03004KT 10SM BKN021 BKN045 20/18 A3009 RMK AO2,M
TPH,2023-09-02 12:49,-117.0904,38.0505,1654.00,59.00,56.00,89.76,170.00,11.00,0.00,30.11,M,10.00,M,BKN,BKN,OVC,M,1400.00,3500.00,5000.00,M,M,M,M,M,30.00,160.00,2023-09-02 12:03,59.00,KTPH 021249Z AUTO 17011KT 10SM BKN014 BKN035 OVC050 15/13 A3011 RMK AO2 PK WND 16030/1203 T01500133,M
LSV,2023-09-02 12:49,-115.0343,36.2362,570.00,69.80,69.80,100.00,20.00,7.00,0.00,30.02,1014.90,10.00,M,BKN,OVC,M,M,3000.00,6000.00,M,M,M,M,M,M,M,M,M,69.80,KLSV 021249Z AUTO 02007KT 10SM BKN030 OVC060 21/21 A3002 RMK AO2 SLP149 $,M
05U,2023-09-02 12:50,-116.0051,39.6042,1811.23,57.20,53.60,87.74,M,M,0.00,30.15,M,3.00,M,BKN,BKN,OVC,M,3800.00,4800.00,5500.00,M,BR,M,M,M,M,M,M,57.20,K05U 021250Z AUTO 3SM BR BKN038 BKN048 OVC055 14/12 A3015 RMK A01,M
P68,2023-09-02 12:53,-116.0056,39.6014,1993.00,57.00,53.00,86.45,150.00,11.00,0.09,30.13,1011.80,M,20.00,M,M,M,M,M,M,M,M,M,M,M,M,M,M,M,57.00,KP68 021253Z AUTO 15011G20KT 14/12 A3013 RMK AO1 SLP118 P0009 T01390117 $,M
DRA,2023-09-02 12:53,-116.0278,36.6206,1009.00,68.00,62.00,81.12,M,3.00,0.00,30.05,1013.70,10.00,M,BKN,BKN,OVC,M,3600.00,5000.00,6000.00,M,M,M,M,M,M,M,M,68.00,KDRA 021253Z AUTO VRB03KT 10SM BKN036 BKN050 OVC060 20/17 A3005 RMK AO2 SLP137 T02000167,M
ELY,2023-09-02 12:53,-114.8453,39.2950,1909.00,57.00,49.00,74.55,160.00,14.00,0.00,30.20,1014.30,10.00,23.00,FEW,SCT,BKN,M,4100.00,9500.00,12000.00,M,M,M,M,M,M,M,M,57.00,KELY 021253Z AUTO 16014G23KT 10SM FEW041 SCT095 BKN120 14/09 A3020 RMK AO2 SLP143 T01390094,M
VGT,2023-09-02 12:53,-115.1933,36.2111,667.00,71.00,66.00,84.22,90.00,4.00,0.00,30.05,1017.60,10.00,M,OVC,M,M,M,2600.00,M,M,M,M,M,M,M,M,M,M,71.00,KVGT 021253Z 09004KT 10SM OVC026 22/19 A3005 RMK AO2 SLP176 T02170189 $,M
LOL,2023-09-02 12:53,-118.5701,40.0684,1192.43,58.00,46.00,64.24,40.00,4.00,0.00,29.99,1012.90,10.00,M,CLR,M,M,M,M,M,M,M,M,M,M,M,M,M,M,58.00,KLOL 021253Z AUTO 04004KT 10SM CLR 14/08 A2999 RMK AO2 SLP129 T01440078,M
BVU,2023-09-02 12:55,-114.8611,35.9475,671.00,69.80,66.20,88.34,80.00,6.00,0.00,30.06,M,10.00,M,OVC,M,M,M,2800.00,M,M,M,M,M,M,M,M,M,M,69.80,KBVU 021255Z AUTO 08006KT 10SM OVC028 21/19 A3006 RMK AO2,M
CXP,2023-09-02 12:55,-119.7326,39.1923,1431.00,55.40,48.20,76.66,30.00,3.00,0.00,30.02,M,10.00,M,OVC,M,M,M,10000.00,M,M,M,M,M,M,M,M,M,M,55.40,KCXP 021255Z AUTO 03003KT 10SM OVC100 13/09 A3002 RMK AO2,M
RNO,2023-09-02 12:55,-119.7711,39.4839,1341.00,56.00,51.00,83.26,290.00,3.00,0.00,30.01,1013.10,10.00,M,BKN,M,M,M,10000.00,M,M,M,M,M,M,M,M,M,M,56.00,KRNO 021255Z 29003KT 10SM BKN100 13/11 A3001 RMK AO2 SLP131 T01330106,M
RTS,2023-09-02 12:55,-119.8764,39.6682,1539.00,51.80,50.00,93.55,0.00,0.00,0.00,30.05,M,10.00,M,BKN,OVC,M,M,8000.00,9000.00,M,M,M,M,M,M,M,M,M,51.80,KRTS 021255Z AUTO 00000KT 10SM BKN080 OVC090 11/10 A3005 RMK AO2,M
MEV,2023-09-02 12:55,-119.7500,38.9963,1441.42,53.60,42.80,66.70,80.00,3.00,0.00,30.00,M,10.00,M,OVC,M,M,M,9500.00,M,M,M,M,M,M,M,M,M,M,53.60,KMEV 021255Z AUTO 08003KT 10SM OVC095 12/06 A3000 RMK AO2,M
BAM,2023-09-02 12:55,-116.8743,40.5990,1382.36,59.00,51.80,76.98,50.00,10.00,0.00,30.06,M,10.00,M,SCT,OVC,M,M,7000.00,10000.00,M,M,M,M,M,M,M,M,M,59.00,KBAM 021255Z AUTO 05010KT 10SM SCT070 OVC100 15/11 A3006 RMK AO1,M
HTH,2023-09-02 12:55,-118.6315,38.5448,1282.89,59.00,46.40,62.92,240.00,6.00,0.00,30.01,M,10.00,M,FEW,SCT,BKN,M,6000.00,7000.00,11000.00,M,M,M,M,M,M,M,M,59.00,KHTH 021255Z AUTO 24006KT 10SM FEW060 SCT070 BKN110 15/08 A3001 RMK A01,M
TMT,2023-09-02 12:55,-117.1971,39.4643,1749.34,53.00,47.30,80.91,60.00,4.00,0.00,30.07,M,M,M,SCT,SCT,BKN,M,4700.00,5500.00,7000.00,M,M,M,M,M,M,M,M,53.00,KTMT 021255Z AUTO 06004KT SCT047 SCT055 BKN070 12/09 A3007 RMK AO2 LTG DSNT SW THRU NW T01170085 PWINO,M
INS,2023-09-02 12:55,-115.6733,36.5872,955.00,66.00,62.40,88.17,80.00,16.00,0.00,30.06,1014.30,10.00,M,BKN,M,M,M,12000.00,M,M,M,M,M,M,M,M,M,M,66.00,KINS 021255Z AUTO 08016KT 10SM BKN120 19/17 A3006 RMK AO2 SLP143 T01880169 $,M
LSV,2023-09-02 12:55,-115.0343,36.2362,570.00,70.30,70.00,98.98,20.00,7.00,0.00,30.02,1014.90,10.00,M,BKN,OVC,M,M,3000.00,6000.00,M,M,M,M,M,M,M,M,M,70.30,KLSV 021255Z AUTO 02007KT 10SM BKN030 OVC060 21/21 A3002 RMK AO2 SLP149 T02130211 $,M
EKO,2023-09-02 12:56,-115.7860,40.8242,1367.00,58.00,55.00,89.72,290.00,4.00,0.00,30.12,1014.60,10.00,M,OVC,M,M,M,3400.00,M,M,M,M,M,M,M,M,M,M,58.00,KEKO 021256Z AUTO 29004KT 10SM OVC034 14/13 A3012 RMK AO2 SLP146 T01440128,M
WMC,2023-09-02 12:56,-117.8072,40.9019,1315.00,53.00,43.00,68.71,300.00,4.00,0.00,30.02,1013.40,10.00,M,CLR,M,M,M,M,M,M,M,M,M,M,M,M,M,M,53.00,KWMC 021256Z AUTO 30004KT 10SM CLR 12/06 A3002 RMK AO2 SLP134 T01170061,M
HND,2023-09-02 12:56,-115.1344,35.9729,742.79,68.00,65.00,90.13,40.00,5.00,0.00,30.09,1018.50,10.00,M,OVC,M,M,M,2100.00,M,M,M,M,M,M,M,M,M,M,68.00,KHND 021256Z 04005KT 10SM OVC021 20/18 A3009 RMK AO2 SLP185 T02000183,M
TPH,2023-09-02 12:56,-117.0904,38.0505,1654.00,59.00,56.00,89.76,160.00,17.00,0.00,30.11,1012.50,10.00,24.00,BKN,BKN,BKN,M,1400.00,3500.00,5000.00,M,M,M,M,M,30.00,160.00,2023-09-02 12:03,59.00,KTPH 021256Z AUTO 16017G24KT 10SM BKN014 BKN035 BKN050 15/13 A3011 RMK AO2 PK WND 16030/1203 SLP125 T01500133,M
LAS,2023-09-02 12:56,-115.1634,36.0719,663.00,70.00,64.00,81.27,80.00,7.00,0.00,30.06,1015.90,10.00,M,FEW,BKN,BKN,M,2000.00,3000.00,8000.00,M,M,M,M,M,M,M,M,70.00,KLAS 021256Z 08007KT 10SM FEW020 BKN030 BKN080 21/18 A3006 RMK AO2 SLP159 T02110178,M
NFL,2023-09-02 12:56,-118.7010,39.4166,1199.00,58.00,48.00,69.27,310.00,6.00,0.00,29.99,1012.70,10.00,M,SCT,M,M,M,9500.00,M,M,M,M,M,M,M,M,M,M,58.00,KNFL 021256Z AUTO 31006KT 10SM SCT095 14/09 A2999 RMK AO2 SLP127 T01440089,M
10U,2023-09-02 13:00,-116.1876,41.9532,1637.00,53.60,50.00,87.56,0.00,0.00,0.00,30.09,M,10.00,M,FEW,M,M,M,12000.00,M,M,M,M,M,M,M,M,M,M,53.60,K10U 021300Z AUTO 00000KT 10SM FEW120 12/10 A3009 RMK AO2,M
TPH,2023-09-02 13:05,-117.0904,38.0505,1654.00,59.00,56.00,89.76,160.00,16.00,0.00,30.10,M,10.00,M,SCT,SCT,BKN,M,1300.00,3800.00,4900.00,M,M,M,M,M,M,M,M,59.00,KTPH 021305Z AUTO 16016KT 10SM SCT013 SCT038 BKN049 15/13 A3010 RMK AO2 T01500133,M
NFL,2023-09-02 13:06,-118.7010,39.4166,1199.00,58.00,48.00,69.27,300.00,5.00,0.00,29.99,M,10.00,M,FEW,SCT,SCT,M,5000.00,7000.00,9500.00,M,M,M,M,M,M,M,M,58.00,KNFL 021306Z 30005KT 10SM FEW050 SCT070 SCT095 14/09 A2999 RMK AO2 CB DSNT NE-SE T01440089,M
LSV,2023-09-02 13:06,-115.0343,36.2362,570.00,69.80,69.80,100.00,30.00,8.00,0.00,30.03,1015.30,10.00,M,OVC,M,M,M,2900.00,M,M,M,M,M,M,M,M,M,M,69.80,KLSV 021306Z AUTO 03008KT 10SM OVC029 21/21 A3003 RMK AO2 SLP153 $,M
05U,2023-09-02 13:10,-116.0051,39.6042,1811.23,57.20,53.60,87.74,M,M,0.00,30.16,M,5.00,M,FEW,SCT,BKN,M,400.00,3900.00,6000.00,M,BR,M,M,M,M,M,M,57.20,K05U 021310Z AUTO 5SM BR FEW004 SCT039 BKN060 14/12 A3016 RMK A01,M
BVU,2023-09-02 13:15,-114.8611,35.9475,671.00,69.80,66.20,88.34,80.00,8.00,0.00,30.05,M,10.00,M,SCT,SCT,OVC,M,2800.00,3700.00,6000.00,M,M,M,M,M,M,M,M,69.80,KBVU 021315Z AUTO 08008KT 10SM SCT028 SCT037 OVC060 21/19 A3005 RMK AO2,M
CXP,2023-09-02 13:15,-119.7326,39.1923,1431.00,55.40,48.20,76.66,340.00,4.00,0.00,30.03,M,10.00,10.00,OVC,M,M,M,10000.00,M,M,M,M,M,M,M,M,M,M,55.40,KCXP 021315Z AUTO 34004G10KT 10SM OVC100 13/09 A3003 RMK AO2,M
RTS,2023-09-02 13:15,-119.8764,39.6682,1539.00,51.80,50.00,93.55,0.00,0.00,0.00,30.05,M,10.00,M,BKN,OVC,M,M,7500.00,9000.00,M,M,M,M,M,M,M,M,M,51.80,KRTS 021315Z AUTO 00000KT 10SM BKN075 OVC090 11/10 A3005 RMK AO2,M
MEV,2023-09-02 13:15,-119.7500,38.9963,1441.42,53.60,42.80,66.70,360.00,3.00,0.00,30.01,M,10.00,M,BKN,OVC,M,M,10000.00,12000.00,M,M,M,M,M,M,M,M,M,53.60,KMEV 021315Z AUTO 36003KT 10SM BKN100 OVC120 12/06 A3001 RMK AO2,M
BAM,2023-09-02 13:15,-116.8743,40.5990,1382.36,59.00,53.60,82.25,60.00,7.00,0.00,30.06,M,10.00,M,OVC,M,M,M,9000.00,M,M,M,M,M,M,M,M,M,M,59.00,KBAM 021315Z AUTO 06007KT 10SM OVC090 15/12 A3006 RMK AO1,M
HTH,2023-09-02 13:15,-118.6315,38.5448,1282.89,59.00,46.40,62.92,260.00,5.00,0.00,30.01,M,10.00,M,BKN,M,M,M,10000.00,M,M,M,M,M,M,M,M,M,M,59.00,KHTH 021315Z AUTO 26005KT 10SM BKN100 15/08 A3001 RMK A01,M
10U,2023-09-02 13:15,-116.1876,41.9532,1637.00,53.60,50.00,87.56,220.00,4.00,0.00,30.10,M,10.00,M,SCT,SCT,M,M,9500.00,11000.00,M,M,M,M,M,M,M,M,M,53.60,K10U 021315Z AUTO 22004KT 10SM SCT095 SCT110 12/10 A3010 RMK AO2,M
TMT,2023-09-02 13:15,-117.1971,39.4643,1749.34,54.30,47.00,76.28,10.00,5.00,0.00,30.08,M,M,M,SCT,BKN,BKN,M,4700.00,5000.00,7000.00,M,M,M,M,M,M,M,M,54.30,KTMT 021315Z AUTO 01005KT SCT047 BKN050 BKN070 12/08 A3008 RMK AO2 LTG DSNT W T01240083 PWINO,M
05U,2023-09-02 13:30,-116.0051,39.6042,1811.23,57.20,55.40,93.69,M,M,0.00,30.17,M,7.00,M,FEW,SCT,BKN,M,3400.00,4200.00,5500.00,M,M,M,M,M,M,M,M,57.20,K05U 021330Z AUTO 7SM FEW034 SCT042 BKN055 14/13 A3017 RMK A01,M
TPH,2023-09-02 13:31,-117.0904,38.0505,1654.00,60.00,57.00,89.80,140.00,14.00,0.00,30.11,M,10.00,20.00,BKN,BKN,OVC,M,1300.00,2300.00,4800.00,M,M,M,M,M,M,M,M,60.00,KTPH 021331Z AUTO 14014G20KT 10SM BKN013 BKN023 OVC048 16/14 A3011 RMK AO2 T01560139,M
BVU,2023-09-02 13:35,-114.8611,35.9475,671.00,69.80,66.20,88.34,80.00,7.00,0.00,30.06,M,10.00,M,SCT,M,M,M,6000.00,M,M,M,M,M,M,M,M,M,M,69.80,KBVU 021335Z AUTO 08007KT 10SM SCT060 21/19 A3006 RMK AO2,M
CXP,2023-09-02 13:35,-119.7326,39.1923,1431.00,55.40,48.20,76.66,0.00,0.00,0.00,30.04,M,10.00,M,OVC,M,M,M,10000.00,M,M,M,M,M,M,M,M,M,M,55.40,KCXP 021335Z AUTO 00000KT 10SM OVC100 13/09 A3004 RMK AO2,M
RTS,2023-09-02 13:35,-119.8764,39.6682,1539.00,51.80,50.00,93.55,0.00,0.00,0.00,30.05,M,10.00,M,OVC,M,M,M,7500.00,M,M,M,M,M,M,M,M,M,M,51.80,KRTS 021335Z AUTO 00000KT 10SM OVC075 11/10 A3005 RMK AO2,M
MEV,2023-09-02 13:35,-119.7500,38.9963,1441.42,51.80,44.60,76.34,0.00,0.00,0.00,30.02,M,10.00,M,SCT,BKN,M,M,10000.00,12000.00,M,M,M,M,M,M,M,M,M,51.80,KMEV 021335Z AUTO 00000KT 10SM SCT100 BKN120 11/07 A3002 RMK AO2,M
BAM,2023-09-02 13:35,-116.8743,40.5990,1382.36,57.20,51.80,82.12,100.00,5.00,0.00,30.07,M,10.00,M,OVC,M,M,M,9000.00,M,M,M,M,M,M,M,M,M,M,57.20,KBAM 021335Z AUTO 10005KT 10SM OVC090 14/11 A3007 RMK AO1,M
HTH,2023-09-02 13:35,-118.6315,38.5448,1282.89,59.00,46.40,62.92,300.00,3.00,0.00,30.02,M,10.00,M,BKN,M,M,M,10000.00,M,M,M,M,M,M,M,M,M,M,59.00,KHTH 021335Z AUTO 30003KT 10SM BKN100 15/08 A3002 RMK A01,M
10U,2023-09-02 13:35,-116.1876,41.9532,1637.00,53.60,50.00,87.56,0.00,0.00,0.00,30.10,M,10.00,M,FEW,SCT,M,M,9500.00,12000.00,M,M,M,M,M,M,M,M,M,53.60,K10U 021335Z AUTO 00000KT 10SM FEW095 SCT120 12/10 A3010 RMK AO2,M
TMT,2023-09-02 13:35,-117.1971,39.4643,1749.34,55.00,47.50,75.77,350.00,6.00,0.00,30.09,M,M,M,BKN,OVC,M,M,4500.00,6000.00,M,M,M,M,M,M,M,M,M,55.00,KTMT 021335Z AUTO 35006KT BKN045 OVC060 13/09 A3009 RMK AO2 T01270086 PWINO,M
ELY,2023-09-02 13:37,-114.8453,39.2950,1909.00,56.00,50.00,80.23,180.00,10.00,0.00,30.22,M,10.00,M,BKN,BKN,M,M,2600.00,4300.00,M,M,M,M,M,M,M,M,M,56.00,KELY 021337Z AUTO 18010KT 10SM BKN026 BKN043 13/10 A3022 RMK AO2 T01330100,M
05U,2023-09-02 13:50,-116.0051,39.6042,1811.23,57.20,55.40,93.69,M,M,0.00,30.18,M,8.00,M,FEW,SCT,BKN,M,3300.00,4300.00,5000.00,M,M,M,M,M,M,M,M,57.20,K05U 021350Z AUTO 8SM FEW033 SCT043 BKN050 14/13 A3018 RMK A01,M
P68,2023-09-02 13:53,-116.0056,39.6014,1993.00,57.00,54.00,89.68,150.00,14.00,0.02,30.15,1012.80,M,21.00,M,M,M,M,M,M,M,M,M,M,M,M,M,M,M,57.00,KP68 021353Z AUTO 15014G21KT 14/12 A3015 RMK AO1 SLP128 P0002 T01390122 $,M
DRA,2023-09-02 13:53,-116.0278,36.6206,1009.00,67.00,63.00,86.98,0.00,0.00,0.00,30.07,1014.10,10.00,M,FEW,SCT,M,M,6000.00,9000.00,M,M,M,M,M,M,M,M,M,67.00,KDRA 021353Z AUTO 00000KT 10SM FEW060 SCT090 19/17 A3007 RMK AO2 SLP141 T01940172,M
ELY,2023-09-02 13:53,-114.8453,39.2950,1909.00,57.00,50.00,77.38,170.00,16.00,T,30.22,1015.30,10.00,23.00,BKN,BKN,BKN,M,2300.00,5500.00,9000.00,M,-RA,M,M,M,M,M,M,57.00,KELY 021353Z AUTO 17016G23KT 10SM -RA BKN023 BKN055 BKN090 14/10 A3022 RMK AO2 RAB51 SLP153 P0000 T01390100,M
VGT,2023-09-02 13:53,-115.1933,36.2111,667.00,72.00,66.00,81.41,60.00,5.00,0.00,30.07,1018.10,10.00,M,BKN,OVC,M,M,2200.00,2700.00,M,M,M,M,M,M,M,M,M,72.00,KVGT 021353Z 06005KT 10SM BKN022 OVC027 22/19 A3007 RMK AO2 SLP181 T02220189 $,M
LOL,2023-09-02 13:53,-118.5701,40.0684,1192.43,56.00,46.00,69.05,350.00,4.00,0.00,30.00,1013.70,10.00,M,CLR,M,M,M,M,M,M,M,M,M,M,M,M,M,M,56.00,KLOL 021353Z AUTO 35004KT 10SM CLR 13/08 A3000 RMK AO2 SLP137 T01330078,M
BVU,2023-09-02 13:55,-114.8611,35.9475,671.00,69.80,66.20,88.34,30.00,3.00,0.00,30.07,M,10.00,M,FEW,M,M,M,3000.00,M,M,M,M,M,M,M,M,M,M,69.80,KBVU 021355Z AUTO 03003KT 10SM FEW030 21/19 A3007 RMK AO2,M
CXP,2023-09-02 13:55,-119.7326,39.1923,1431.00,55.40,48.20,76.66,0.00,0.00,0.00,30.05,M,10.00,M,OVC,M,M,M,11000.00,M,M,M,M,M,M,M,M,M,M,55.40,KCXP 021355Z AUTO 00000KT 10SM OVC110 13/09 A3005 RMK AO2,M
RNO,2023-09-02 13:55,-119.7711,39.4839,1341.00,56.00,50.00,80.23,0.00,0.00,0.00,30.03,1013.70,10.00,M,FEW,BKN,M,M,5500.00,10000.00,M,M,M,M,M,M,M,M,M,56.00,KRNO 021355Z 00000KT 10SM FEW055 BKN100 13/10 A3003 RMK AO2 SLP137 T01330100,M
RTS,2023-09-02 13:55,-119.8764,39.6682,1539.00,51.80,50.00,93.55,0.00,0.00,0.00,30.06,M,10.00,M,OVC,M,M,M,7500.00,M,M,M,M,M,M,M,M,M,M,51.80,KRTS 021355Z AUTO 00000KT 10SM OVC075 11/10 A3006 RMK AO2,M
MEV,2023-09-02 13:55,-119.7500,38.9963,1441.42,51.80,46.40,81.74,350.00,5.00,0.00,30.02,M,10.00,M,CLR,M,M,M,M,M,M,M,M,M,M,M,M,M,M,51.80,KMEV 021355Z AUTO 35005KT 10SM CLR 11/08 A3002 RMK AO2,M
HTH,2023-09-02 13:55,-118.6315,38.5448,1282.89,57.20,46.40,67.12,0.00,0.00,0.00,30.03,M,10.00,M,BKN,M,M,M,11000.00,M,M,M,M,M,M,M,M,M,M,57.20,KHTH 021355Z AUTO 00000KT 10SM BKN110 14/08 A3003 RMK A01,M
BAM,2023-09-02 13:55,-116.8743,40.5990,1382.36,59.00,51.80,76.98,140.00,6.00,0.00,30.08,M,10.00,M,SCT,OVC,M,M,7000.00,8000.00,M,M,M,M,M,M,M,M,M,59.00,KBAM 021355Z AUTO 14006KT 10SM SCT070 OVC080 15/11 A3008 RMK AO1,M
TMT,2023-09-02 13:55,-117.1971,39.4643,1749.34,54.70,51.00,87.29,20.00,4.00,0.02,30.10,M,M,M,M,M,M,M,M,M,M,M,M,M,M,M,M,M,M,54.70,KTMT 021355Z AUTO 02004KT 13/11 A3010 RMK AO2 P0002 T01260105 PWINO,M
10U,2023-09-02 13:55,-116.1876,41.9532,1637.00,53.60,50.00,87.56,0.00,0.00,0.00,30.12,M,10.00,M,SCT,M,M,M,12000.00,M,M,M,M,M,M,M,M,M,M,53.60,K10U 021355Z AUTO 00000KT 10SM SCT120 12/10 A3012 RMK AO2,M
INS,2023-09-02 13:55,-115.6733,36.5872,955.00,65.70,64.40,95.57,80.00,17.00,0.00,30.07,1014.90,10.00,M,FEW,M,M,M,4800.00,M,M,M,M,M,M,M,M,M,M,65.70,KINS 021355Z AUTO 08017KT 10SM FEW048 19/18 A3007 RMK AO2 SLP149 T01870180 $,M
LSV,2023-09-02 13:55,-115.0343,36.2362,570.00,70.70,70.30,98.65,20.00,7.00,0.00,30.04,1015.60,10.00,M,OVC,M,M,M,2900.00,M,M,M,M,M,M,M,M,M,M,70.70,KLSV 021355Z AUTO 02007KT 10SM OVC029 22/21 A3004 RMK AO2 SLP156 T02150213 $,M
EKO,2023-09-02 13:56,-115.7860,40.8242,1367.00,58.00,55.00,89.72,0.00,0.00,T,30.13,1015.60,10.00,M,FEW,BKN,BKN,M,3500.00,4300.00,11000.00,M,M,M,M,M,M,M,M,58.00,KEKO 021356Z AUTO 00000KT 10SM FEW035 BKN043 BKN110 14/13 A3013 RMK AO2 RAB1257E11 SLP156 P0000 T01440128,M
WMC,2023-09-02 13:56,-117.8072,40.9019,1315.00,57.00,44.00,61.72,70.00,12.00,0.00,30.03,1013.80,10.00,M,FEW,M,M,M,8500.00,M,M,M,M,M,M,M,M,M,M,57.00,KWMC 021356Z AUTO 07012KT 10SM FEW085 14/07 A3003 RMK AO2 SLP138 T01390067,M
NFL,2023-09-02 13:56,-118.7010,39.4166,1199.00,53.00,48.00,83.06,160.00,3.00,0.00,30.01,1013.40,10.00,M,FEW,SCT,SCT,M,5000.00,7000.00,9500.00,M,M,M,M,M,M,M,M,53.00,KNFL 021356Z 16003KT 10SM FEW050 SCT070 SCT095 12/09 A3001 RMK AO2 SLP134 CB DSNT NE-SE T01170089,M
HND,2023-09-02 13:56,-115.1344,35.9729,742.79,69.00,65.00,87.08,20.00,5.00,0.00,30.10,1019.10,10.00,M,OVC,M,M,M,1900.00,M,M,M,M,M,M,M,M,M,M,69.00,KHND 021356Z 02005KT 10SM OVC019 21/18 A3010 RMK AO2 SLP191 T02060183,M
TPH,2023-09-02 13:56,-117.0904,38.0505,1654.00,60.00,57.00,89.80,160.00,11.00,0.00,30.12,1013.60,10.00,M,OVC,M,M,M,1200.00,M,M,M,M,M,M,M,M,M,M,60.00,KTPH 021356Z AUTO 16011KT 10SM OVC012 16/14 A3012 RMK AO2 SLP136 T01560139,M
LAS,2023-09-02 13:56,-115.1634,36.0719,663.00,70.00,65.00,84.16,70.00,5.00,0.00,30.07,1016.40,10.00,M,FEW,BKN,BKN,M,2000.00,3000.00,8000.00,M,M,M,M,M,M,M,M,70.00,KLAS 021356Z 07005KT 10SM FEW020 BKN030 BKN080 21/19 A3007 RMK AO2 SLP164 T02110183,M
TPH,2023-09-02 14:09,-117.0904,38.0505,1654.00,61.00,57.00,86.67,160.00,12.00,0.00,30.13,M,10.00,M,FEW,BKN,OVC,M,900.00,1600.00,3200.00,M,M,M,M,M,M,M,M,61.00,KTPH 021409Z AUTO 16012KT 10SM FEW009 BKN016 OVC032 16/14 A3013 RMK AO2 T01610139,M
05U,2023-09-02 14:10,-116.0051,39.6042,1811.23,57.20,55.40,93.69,M,M,0.00,30.18,M,10.00,M,FEW,BKN,OVC,M,3300.00,8000.00,10000.00,M,M,M,M,M,M,M,M,57.20,K05U 021410Z AUTO 10SM FEW033 BKN080 OVC100 14/13 A3018 RMK A01,M
VGT,2023-09-02 14:12,-115.1933,36.2111,667.00,72.00,66.00,81.41,70.00,6.00,0.00,30.07,M,10.00,M,FEW,BKN,OVC,M,2200.00,3400.00,4300.00,M,M,M,M,M,M,M,M,72.00,KVGT 021412Z 07006KT 10SM FEW022 BKN034 OVC043 22/19 A3007 RMK AO2 T02220189 $,M
BVU,2023-09-02 14:15,-114.8611,35.9475,671.00,69.80,66.20,88.34,40.00,6.00,0.00,30.07,M,10.00,M,FEW,SCT,M,M,2700.00,3300.00,M,M,M,M,M,M,M,M,M,69.80,KBVU 021415Z AUTO 04006KT 10SM FEW027 SCT033 21/19 A3007 RMK AO2,M
CXP,2023-09-02 14:15,-119.7326,39.1923,1431.00,55.40,48.20,76.66,0.00,0.00,0.00,30.06,M,10.00,M,OVC,M,M,M,11000.00,M,M,M,M,M,M,M,M,M,M,55.40,KCXP 021415Z AUTO 00000KT 10SM OVC110 13/09 A3006 RMK AO2,M
RTS,2023-09-02 14:15,-119.8764,39.6682,1539.00,51.80,50.00,93.55,0.00,0.00,0.00,30.07,M,10.00,M,OVC,M,M,M,8000.00,M,M,M,M,M,M,M,M,M,M,51.80,KRTS 021415Z AUTO 00000KT 10SM OVC080 11/10 A3007 RMK AO2,M
MEV,2023-09-02 14:15,-119.7500,38.9963,1441.42,51.80,46.40,81.74,0.00,0.00,0.00,30.03,M,10.00,M,CLR,M,M,M,M,M,M,M,M,M,M,M,M,M,M,51.80,KMEV 021415Z AUTO 00000KT 10SM CLR 11/08 A3003 RMK AO2,M
BAM,2023-09-02 14:15,-116.8743,40.5990,1382.36,59.00,51.80,76.98,120.00,5.00,0.00,30.10,M,10.00,M,BKN,OVC,M,M,7000.00,7500.00,M,M,M,M,M,M,M,M,M,59.00,KBAM 021415Z AUTO 12005KT 10SM BKN070 OVC075 15/11 A3010 RMK AO1,M
HTH,2023-09-02 14:15,-118.6315,38.5448,1282.89,59.00,46.40,62.92,0.00,0.00,0.00,30.04,M,10.00,M,FEW,OVC,M,M,5000.00,10000.00,M,M,M,M,M,M,M,M,M,59.00,KHTH 021415Z AUTO 00000KT 10SM FEW050 OVC100 15/08 A3004 RMK A01,M
10U,2023-09-02 14:15,-116.1876,41.9532,1637.00,55.40,50.00,81.99,0.00,0.00,0.00,30.13,M,10.00,M,FEW,M,M,M,12000.00,M,M,M,M,M,M,M,M,M,M,55.40,K10U 021415Z AUTO 00000KT 10SM FEW120 13/10 A3013 RMK AO2,M
TMT,2023-09-02 14:15,-117.1971,39.4643,1749.34,53.20,50.40,90.18,0.00,0.00,0.00,30.10,M,M,M,BKN,OVC,M,M,4900.00,6000.00,M,M,M,M,M,M,M,M,M,53.20,KTMT 021415Z AUTO 00000KT BKN049 OVC060 12/10 A3010 RMK AO2 LTG DSNT N AND SW T01180102 PWINO,M
05U,2023-09-02 14:30,-116.0051,39.6042,1811.23,59.00,55.40,87.83,M,M,0.00,30.18,M,9.00,M,FEW,SCT,BKN,M,2900.00,7500.00,9000.00,M,M,M,M,M,M,M,M,59.00,K05U 021430Z AUTO 9SM FEW029 SCT075 BKN090 15/13 A3018 RMK A01,M
TPH,2023-09-02 14:31,-117.0904,38.0505,1654.00,61.00,57.00,86.67,160.00,17.00,0.00,30.13,M,10.00,22.00,BKN,OVC,M,M,1400.00,3100.00,M,M,M,M,M,M,M,M,M,61.00,KTPH 021431Z AUTO 16017G22KT 10SM BKN014 OVC031 16/14 A3013 RMK AO2 T01610139,M
LSV,2023-09-02 14:33,-115.0343,36.2362,570.00,71.60,71.60,100.00,30.00,9.00,0.00,30.04,1015.60,10.00,M,SCT,BKN,M,M,3000.00,4000.00,M,M,M,M,M,M,M,M,M,71.60,KLSV 021433Z AUTO 03009KT 10SM SCT030 BKN040 22/22 A3004 RMK AO2 SLP156 $,M
BVU,2023-09-02 14:35,-114.8611,35.9475,671.00,69.80,66.20,88.34,60.00,6.00,0.00,30.08,M,10.00,M,BKN,BKN,BKN,M,2400.00,3000.00,4400.00,M,M,M,M,M,M,M,M,69.80,KBVU 021435Z AUTO 06006KT 10SM BKN024 BKN030 BKN044 21/19 A3008 RMK AO2,M
CXP,2023-09-02 14:35,-119.7326,39.1923,1431.00,57.20,48.20,71.83,0.00,0.00,0.00,30.06,M,10.00,M,BKN,M,M,M,11000.00,M,M,M,M,M,M,M,M,M,M,57.20,KCXP 021435Z AUTO 00000KT 10SM BKN110 14/09 A3006 RMK AO2,M
RTS,2023-09-02 14:35,-119.8764,39.6682,1539.00,51.80,50.00,93.55,0.00,0.00,0.00,30.08,M,10.00,M,OVC,M,M,M,8000.00,M,M,M,M,M,M,M,M,M,M,51.80,KRTS 021435Z AUTO 00000KT 10SM OVC080 11/10 A3008 RMK AO2,M
MEV,2023-09-02 14:35,-119.7500,38.9963,1441.42,53.60,48.20,81.87,360.00,4.00,0.00,30.04,M,10.00,M,FEW,M,M,M,11000.00,M,M,M,M,M,M,M,M,M,M,53.60,KMEV 021435Z AUTO 36004KT 10SM FEW110 12/09 A3004 RMK AO2,M
BAM,2023-09-02 14:35,-116.8743,40.5990,1382.36,59.00,55.40,87.83,120.00,7.00,0.00,30.10,M,10.00,M,SCT,BKN,OVC,M,6000.00,6500.00,9000.00,M,M,M,M,M,M,M,M,59.00,KBAM 021435Z AUTO 12007KT 10SM SCT060 BKN065 OVC090 15/13 A3010 RMK AO1,M
HTH,2023-09-02 14:35,-118.6315,38.5448,1282.89,60.80,46.40,59.01,0.00,0.00,0.00,30.05,M,10.00,M,FEW,SCT,OVC,M,3300.00,4900.00,9000.00,M,M,M,M,M,M,M,M,60.80,KHTH 021435Z AUTO 00000KT 10SM FEW033 SCT049 OVC090 16/08 A3005 RMK A01,M
TMT,2023-09-02 14:35,-117.1971,39.4643,1749.34,53.40,51.30,92.56,260.00,4.00,0.00,30.12,M,M,M,BKN,BKN,OVC,M,4700.00,5500.00,7000.00,M,M,M,M,M,M,M,M,53.40,KTMT 021435Z AUTO 26004KT BKN047 BKN055 OVC070 12/11 A3012 RMK AO2 T01190107 PWINO,M
10U,2023-09-02 14:35,-116.1876,41.9532,1637.00,55.40,51.80,87.65,0.00,0.00,0.00,30.14,M,10.00,M,FEW,M,M,M,12000.00,M,M,M,M,M,M,M,M,M,M,55.40,K10U 021435Z AUTO 00000KT 10SM FEW120 13/11 A3014 RMK AO2,M
05U,2023-09-02 14:50,-116.0051,39.6042,1811.23,59.00,55.40,87.83,M,M,0.00,30.19,M,6.00,M,FEW,SCT,BKN,M,3900.00,6000.00,8000.00,M,BR,M,M,M,M,M,M,59.00,K05U 021450Z AUTO 6SM BR FEW039 SCT060 BKN080 15/13 A3019 RMK A01,M
P68,2023-09-02 14:53,-116.0056,39.6014,1993.00,57.00,55.00,93.01,160.00,13.00,0.01,30.16,1013.80,M,21.00,M,M,M,M,M,M,M,M,M,M,M,M,M,M,M,57.00,KP68 021453Z AUTO 16013G21KT 14/13 A3016 RMK AO1 SLP138 P0001 60012 T01390128 52015 $,M
DRA,2023-09-02 14:53,-116.0278,36.6206,1009.00,69.00,62.00,78.38,340.00,5.00,0.00,30.08,1014.90,10.00,M,BKN,BKN,OVC,M,3500.00,4300.00,5500.00,M,M,M,M,M,M,M,M,69.00,KDRA 021453Z AUTO 34005KT 10SM BKN035 BKN043 OVC055 21/17 A3008 RMK AO2 SLP149 T02060167 53012,M
ELY,2023-09-02 14:53,-114.8453,39.2950,1909.00,61.00,52.00,72.22,160.00,14.00,T,30.24,1015.90,10.00,M,BKN,BKN,BKN,M,2200.00,4700.00,6000.00,M,M,M,M,M,M,M,M,61.00,KELY 021453Z AUTO 16014KT 10SM BKN022 BKN047 BKN060 16/11 A3024 RMK AO2 RAE04 SLP159 P0000 60000 T01610111 53013,M
VGT,2023-09-02 14:53,-115.1933,36.2111,667.00,73.00,66.00,78.70,90.00,6.00,0.00,30.08,1018.70,10.00,M,FEW,OVC,M,M,1600.00,3500.00,M,M,M,M,M,M,M,M,M,73.00,KVGT 021453Z 09006KT 10SM FEW016 OVC035 23/19 A3008 RMK AO2 SLP187 T02280189 53010 $,M
LOL,2023-09-02 14:53,-118.5701,40.0684,1192.43,59.00,47.00,64.36,0.00,0.00,0.00,30.03,1014.40,10.00,M,CLR,M,M,M,M,M,M,M,M,M,M,M,M,M,M,59.00,KLOL 021453Z AUTO 00000KT 10SM CLR 15/08 A3003 RMK AO2 SLP144 T01500083 53015,M
BVU,2023-09-02 14:55,-114.8611,35.9475,671.00,71.60,66.20,83.09,80.00,6.00,0.00,30.08,M,10.00,M,OVC,M,M,M,2800.00,M,M,M,M,M,M,M,M,M,M,71.60,KBVU 021455Z AUTO 08006KT 10SM OVC028 22/19 A3008 RMK AO2,M
CXP,2023-09-02 14:55,-119.7326,39.1923,1431.00,57.20,48.20,71.83,0.00,0.00,0.00,30.07,M,10.00,M,BKN,M,M,M,11000.00,M,M,M,M,M,M,M,M,M,M,57.20,KCXP 021455Z AUTO 00000KT 10SM BKN110 14/09 A3007 RMK AO2,M
RNO,2023-09-02 14:55,-119.7711,39.4839,1341.00,57.00,50.00,77.38,0.00,0.00,0.00,30.06,1014.60,10.00,M,SCT,BKN,M,M,5000.00,7000.00,M,M,M,M,M,M,M,M,M,57.00,KRNO 021455Z 00000KT 10SM SCT050 BKN070 14/10 A3006 RMK AO2 SLP146 T01390100 53016,M
RTS,2023-09-02 14:55,-119.8764,39.6682,1539.00,53.60,50.00,87.56,0.00,0.00,0.00,30.09,M,10.00,M,OVC,M,M,M,8500.00,M,M,M,M,M,M,M,M,M,M,53.60,KRTS 021455Z AUTO 00000KT 10SM OVC085 12/10 A3009 RMK AO2,M
MEV,2023-09-02 14:55,-119.7500,38.9963,1441.42,53.60,48.20,81.87,10.00,4.00,0.00,30.04,M,10.00,M,FEW,BKN,M,M,8500.00,12000.00,M,M,M,M,M,M,M,M,M,53.60,KMEV 021455Z AUTO 01004KT 10SM FEW085 BKN120 12/09 A3004 RMK AO2,M
BAM,2023-09-02 14:55,-116.8743,40.5990,1382.36,59.00,55.40,87.83,70.00,5.00,0.00,30.11,M,7.00,M,SCT,OVC,M,M,5000.00,7000.00,M,M,M,M,M,M,M,M,M,59.00,KBAM 021455Z AUTO 07005KT 7SM SCT050 OVC070 15/13 A3011 RMK AO1,M
HTH,2023-09-02 14:55,-118.6315,38.5448,1282.89,60.80,46.40,59.01,300.00,4.00,0.00,30.04,M,10.00,M,FEW,FEW,BKN,M,3800.00,6500.00,9000.00,M,M,M,M,M,M,M,M,60.80,KHTH 021455Z AUTO 30004KT 10SM FEW038 FEW065 BKN090 16/08 A3004 RMK A01,M
TMT,2023-09-02 14:55,-117.1971,39.4643,1749.34,54.50,51.40,89.24,0.00,0.00,0.00,30.12,M,M,M,BKN,OVC,M,M,4700.00,5500.00,M,M,M,M,M,M,M,M,M,54.50,KTMT 021455Z AUTO 00000KT BKN047 OVC055 13/11 A3012 RMK AO2 60002 T01250108 PWINO,M
INS,2023-09-02 14:55,-115.6733,36.5872,955.00,67.50,63.50,87.01,80.00,16.00,0.00,30.08,1015.20,10.00,M,CLR,M,M,M,M,M,M,M,M,M,M,M,M,M,M,67.50,KINS 021455Z AUTO 08016KT 10SM CLR 20/18 A3008 RMK AO2 SLP152 T01970175 52009 $,M
LSV,2023-09-02 14:55,-115.0343,36.2362,570.00,72.00,71.60,98.65,40.00,9.00,0.00,30.05,1016.10,10.00,M,BKN,BKN,M,M,3200.00,4100.00,M,M,M,M,M,M,M,M,M,72.00,KLSV 021455Z 04009KT 10SM BKN032 BKN041 22/22 A3005 RMK AO2A SLP161 T02220220 52010 $,M
EKO,2023-09-02 14:56,-115.7860,40.8242,1367.00,59.00,56.00,89.76,90.00,6.00,0.04,30.15,1016.10,10.00,M,SCT,BKN,OVC,M,3700.00,7500.00,9000.00,M,-RA,M,M,M,M,M,M,59.00,KEKO 021456Z AUTO 09006KT 10SM -RA SCT037 BKN075 OVC090 15/13 A3015 RMK AO2 RAB19 SLP161 P0004 60004 T01500133 51016,M
WMC,2023-09-02 14:56,-117.8072,40.9019,1315.00,57.00,44.00,61.72,130.00,5.00,0.00,30.06,1014.90,10.00,M,CLR,M,M,M,M,M,M,M,M,M,M,M,M,M,M,57.00,KWMC 021456Z AUTO 13005KT 10SM CLR 14/07 A3006 RMK AO2 SLP149 T01390067 53015,M
NFL,2023-09-02 14:56,-118.7010,39.4166,1199.00,59.00,50.00,72.01,M,4.00,0.00,30.03,1013.90,10.00,M,FEW,SCT,SCT,M,5000.00,7000.00,10000.00,M,M,M,M,M,M,M,M,59.00,KNFL 021456Z VRB04KT 10SM FEW050 SCT070 SCT100 15/10 A3003 RMK AO2 SLP139 CB DSNT NE-SW T01500100 53016,M
HND,2023-09-02 14:56,-115.1344,35.9729,742.79,70.00,65.00,84.16,70.00,3.00,0.00,30.12,1019.70,10.00,M,OVC,M,M,M,1900.00,M,M,M,M,M,M,M,M,M,M,70.00,KHND 021456Z 07003KT 10SM OVC019 21/18 A3012 RMK AO2 SLP197 T02110183 53012,M
TPH,2023-09-02 14:56,-117.0904,38.0505,1654.00,62.00,57.00,83.65,160.00,14.00,0.00,30.14,1014.20,10.00,M,BKN,BKN,BKN,M,1400.00,2900.00,5500.00,M,M,M,M,M,M,M,M,62.00,KTPH 021456Z AUTO 16014KT 10SM BKN014 BKN029 BKN055 17/14 A3014 RMK AO2 SLP142 T01670139 53014,M
LAS,2023-09-02 14:56,-115.1634,36.0719,663.00,70.00,67.00,90.21,70.00,6.00,0.00,30.08,1017.00,10.00,M,FEW,BKN,BKN,M,2000.00,3000.00,8000.00,M,M,M,M,M,M,M,M,70.00,KLAS 021456Z 07006KT 10SM FEW020 BKN030 BKN080 21/20 A3008 RMK AO2 SLP170 T02110194 53010 $,M
10U,2023-09-02 15:00,-116.1876,41.9532,1637.00,57.20,50.00,76.82,0.00,0.00,0.00,30.15,M,10.00,M,BKN,M,M,M,12000.00,M,M,M,M,M,M,M,M,M,M,57.20,K10U 021500Z AUTO 00000KT 10SM BKN120 14/10 A3015 RMK AO2,M
ELY,2023-09-02 15:03,-114.8453,39.2950,1909.00,61.00,52.00,72.22,180.00,14.00,0.00,30.24,M,10.00,22.00,SCT,BKN,BKN,M,2200.00,4200.00,4900.00,M,M,M,M,M,M,M,M,61.00,KELY 021503Z AUTO 18014G22KT 10SM SCT022 BKN042 BKN049 16/11 A3024 RMK AO2 T01610111,M
TPH,2023-09-02 15:08,-117.0904,38.0505,1654.00,62.00,57.00,83.65,160.00,15.00,0.00,30.14,M,10.00,23.00,SCT,BKN,OVC,M,1400.00,3000.00,5500.00,M,M,M,M,M,M,M,M,62.00,KTPH 021508Z AUTO 16015G23KT 10SM SCT014 BKN030 OVC055 17/14 A3014 RMK AO2 T01670139,M
VGT,2023-09-02 15:09,-115.1933,36.2111,667.00,73.00,66.00,78.70,100.00,5.00,0.00,30.08,M,10.00,M,BKN,OVC,M,M,1800.00,3400.00,M,M,M,M,M,M,M,M,M,73.00,KVGT 021509Z 10005KT 10SM BKN018 OVC034 23/19 A3008 RMK AO2 T02280189 $,M
05U,2023-09-02 15:10,-116.0051,39.6042,1811.23,57.20,55.40,93.69,M,M,0.00,30.19,M,9.00,M,SCT,SCT,BKN,M,3500.00,6500.00,8000.00,M,M,M,M,M,M,M,M,57.20,K05U 021510Z AUTO 9SM SCT035 SCT065 BKN080 14/13 A3019 RMK A01,M
BVU,2023-09-02 15:15,-114.8611,35.9475,671.00,71.60,66.20,83.09,90.00,6.00,0.00,30.08,M,10.00,M,OVC,M,M,M,2600.00,M,M,M,M,M,M,M,M,M,M,71.60,KBVU 021515Z AUTO 09006KT 10SM OVC026 22/19 A3008 RMK AO2,M
CXP,2023-09-02 15:15,-119.7326,39.1923,1431.00,59.00,50.00,72.01,0.00,0.00,0.00,30.08,M,10.00,M,BKN,M,M,M,11000.00,M,M,M,M,M,M,M,M,M,M,59.00,KCXP 021515Z AUTO 00000KT 10SM BKN110 15/10 A3008 RMK AO2,M
RTS,2023-09-02 15:15,-119.8764,39.6682,1539.00,53.60,50.00,87.56,0.00,0.00,0.00,30.09,M,10.00,M,FEW,OVC,M,M,7500.00,9000.00,M,M,M,M,M,M,M,M,M,53.60,KRTS 021515Z AUTO 00000KT 10SM FEW075 OVC090 12/10 A3009 RMK AO2,M
MEV,2023-09-02 15:15,-119.7500,38.9963,1441.42,55.40,50.00,81.99,360.00,8.00,0.00,30.04,M,10.00,M,FEW,BKN,M,M,8500.00,12000.00,M,M,M,M,M,M,M,M,M,55.40,KMEV 021515Z AUTO 36008KT 10SM FEW085 BKN120 13/10 A3004 RMK AO2,M
BAM,2023-09-02 15:15,-116.8743,40.5990,1382.36,59.00,57.20,93.74,70.00,10.00,0.00,30.11,M,10.00,M,OVC,M,M,M,7000.00,M,M,M,M,M,M,M,M,M,M,59.00,KBAM 021515Z AUTO 07010KT 10SM OVC070 15/14 A3011 RMK AO1,M
HTH,2023-09-02 15:15,-118.6315,38.5448,1282.89,60.80,46.40,59.01,0.00,0.00,0.00,30.06,M,10.00,M,FEW,SCT,BKN,M,3700.00,5000.00,9000.00,M,M,M,M,M,M,M,M,60.80,KHTH 021515Z AUTO 00000KT 10SM FEW037 SCT050 BKN090 16/08 A3006 RMK A01,M
TMT,2023-09-02 15:15,-117.1971,39.4643,1749.34,55.60,52.30,88.63,120.00,5.00,0.00,30.13,M,M,M,M,M,M,M,M,M,M,M,M,M,M,M,M,M,M,55.60,KTMT 021515Z AUTO 12005KT 13/11 A3013 RMK AO2 T01310113 PWINO,M
TPH,2023-09-02 15:16,-117.0904,38.0505,1654.00,62.00,57.00,83.65,160.00,17.00,0.00,30.14,M,10.00,25.00,BKN,BKN,OVC,M,1400.00,3000.00,4800.00,M,M,M,M,M,M,M,M,62.00,KTPH 021516Z AUTO 16017G25KT 10SM BKN014 BKN030 OVC048 17/14 A3014 RMK AO2 T01670139,M
10U,2023-09-02 15:20,-116.1876,41.9532,1637.00,60.80,51.80,72.20,0.00,0.00,0.00,30.16,M,10.00,M,BKN,M,M,M,12000.00,M,M,M,M,M,M,M,M,M,M,60.80,K10U 021520Z AUTO 00000KT 10SM BKN120 16/11 A3016 RMK AO2,M
VGT,2023-09-02 15:25,-115.1933,36.2111,667.00,73.00,65.00,76.01,110.00,6.00,0.00,30.08,M,10.00,M,OVC,M,M,M,3100.00,M,M,M,M,M,M,M,M,M,M,73.00,KVGT 021525Z 11006KT 10SM OVC031 23/18 A3008 RMK AO2 T02280183 $,M
05U,2023-09-02 15:30,-116.0051,39.6042,1811.23,59.00,55.40,87.83,M,M,0.00,30.19,M,8.00,M,SCT,M,M,M,8000.00,M,M,M,M,M,M,M,M,M,M,59.00,K05U 021530Z AUTO 8SM SCT080 15/13 A3019 RMK A01,M
LSV,2023-09-02 15:34,-115.0343,36.2362,570.00,71.60,71.60,100.00,20.00,8.00,0.00,30.06,1016.40,10.00,M,BKN,OVC,M,M,2900.00,3400.00,M,M,M,M,M,M,M,M,M,71.60,KLSV 021534Z 02008KT 10SM BKN029 OVC034 22/22 A3006 RMK AO2A SLP164 $,M
BVU,2023-09-02 15:35,-114.8611,35.9475,671.00,71.60,66.20,83.09,80.00,5.00,0.00,30.08,M,10.00,M,SCT,OVC,M,M,2600.00,3100.00,M,M,M,M,M,M,M,M,M,71.60,KBVU 021535Z AUTO 08005KT 10SM SCT026 OVC031 22/19 A3008 RMK AO2,M
CXP,2023-09-02 15:35,-119.7326,39.1923,1431.00,57.20,50.00,76.82,130.00,3.00,0.00,30.07,M,10.00,M,BKN,M,M,M,11000.00,M,M,M,M,M,M,M,M,M,M,57.20,KCXP 021535Z AUTO 13003KT 10SM BKN110 14/10 A3007 RMK AO2,M
RTS,2023-09-02 15:35,-119.8764,39.6682,1539.00,53.60,51.80,93.60,0.00,0.00,0.00,30.10,M,10.00,M,OVC,M,M,M,9000.00,M,M,M,M,M,M,M,M,M,M,53.60,KRTS 021535Z AUTO 00000KT 10SM OVC090 12/11 A3010 RMK AO2,M
MEV,2023-09-02 15:35,-119.7500,38.9963,1441.42,59.00,48.20,67.33,10.00,5.00,0.00,30.04,M,10.00,M,OVC,M,M,M,12000.00,M,M,M,M,M,M,M,M,M,M,59.00,KMEV 021535Z AUTO 01005KT 10SM OVC120 15/09 A3004 RMK AO2,M
BAM,2023-09-02 15:35,-116.8743,40.5990,1382.36,59.00,57.20,93.74,40.00,8.00,0.00,30.13,M,3.00,M,SCT,OVC,M,M,5000.00,6000.00,M,M,M,M,M,M,M,M,M,59.00,KBAM 021535Z AUTO 04008KT 3SM SCT050 OVC060 15/14 A3013 RMK AO1,M
HTH,2023-09-02 15:35,-118.6315,38.5448,1282.89,60.80,48.20,63.15,20.00,4.00,0.00,30.05,M,7.00,M,FEW,SCT,BKN,M,3800.00,5000.00,6500.00,M,M,M,M,M,M,M,M,60.80,KHTH 021535Z AUTO 02004KT 7SM FEW038 SCT050 BKN065 16/09 A3005 RMK A01,M
10U,2023-09-02 15:35,-116.1876,41.9532,1637.00,60.80,50.00,67.54,0.00,0.00,0.00,30.16,M,10.00,M,FEW,BKN,M,M,7500.00,12000.00,M,M,M,M,M,M,M,M,M,60.80,K10U 021535Z AUTO 00000KT 10SM FEW075 BKN120 16/10 A3016 RMK AO2,M
TMT,2023-09-02 15:35,-117.1971,39.4643,1749.34,55.00,52.70,91.93,110.00,4.00,0.01,30.13,M,M,M,M,M,M,M,M,M,M,M,M,M,M,M,M,M,M,55.00,KTMT 021535Z AUTO 11004KT 13/12 A3013 RMK AO2 P0001 T01280115 PWINO,M
LSV,2023-09-02 15:37,-115.0343,36.2362,570.00,71.60,71.60,100.00,20.00,8.00,0.00,30.06,1016.40,10.00,M,OVC,M,M,M,3100.00,M,M,M,M,M,M,M,M,M,M,71.60,KLSV 021537Z 02008KT 10SM OVC031 22/22 A3006 RMK AO2A SLP164 $,M
05U,2023-09-02 15:50,-116.0051,39.6042,1811.23,60.80,55.40,82.37,M,M,0.00,30.19,M,10.00,M,FEW,FEW,SCT,M,8000.00,9000.00,12000.00,M,M,M,M,M,M,M,M,60.80,K05U 021550Z AUTO 10SM FEW080 FEW090 SCT120 16/13 A3019 RMK A01,M
P68,2023-09-02 15:53,-116.0056,39.6014,1993.00,60.00,56.00,86.61,160.00,14.00,0.03,30.17,1013.90,M,21.00,M,M,M,M,M,M,M,M,M,M,M,M,M,M,M,60.00,KP68 021553Z AUTO 16014G21KT 16/13 A3017 RMK AO1 SLP139 P0003 T01560133 $,M
DRA,2023-09-02 15:53,-116.0278,36.6206,1009.00,70.00,63.00,78.46,120.00,9.00,0.00,30.08,1014.70,10.00,M,SCT,BKN,OVC,M,4100.00,6000.00,7500.00,M,M,M,M,M,M,M,M,70.00,KDRA 021553Z AUTO 12009KT 10SM SCT041 BKN060 OVC075 21/17 A3008 RMK AO2 SLP147 T02110172,M
ELY,2023-09-02 15:53,-114.8453,39.2950,1909.00,61.00,52.00,72.22,180.00,15.00,0.00,30.24,1016.40,10.00,22.00,FEW,SCT,SCT,M,2700.00,3300.00,4400.00,M,M,M,M,M,M,M,M,61.00,KELY 021553Z AUTO 18015G22KT 10SM FEW027 SCT033 SCT044 16/11 A3024 RMK AO2 SLP164 T01610111,M
VGT,2023-09-02 15:53,-115.1933,36.2111,667.00,73.00,66.00,78.70,100.00,5.00,0.00,30.08,1018.90,10.00,M,OVC,M,M,M,3100.00,M,M,M,M,M,M,M,M,M,M,73.00,KVGT 021553Z 10005KT 10SM OVC031 23/19 A3008 RMK AO2 SLP189 T02280189 $,M
LSV,2023-09-02 15:53,-115.0343,36.2362,570.00,73.40,71.60,94.10,30.00,9.00,0.00,30.06,1016.30,10.00,M,OVC,M,M,M,2900.00,M,M,M,M,M,M,M,M,M,M,73.40,KLSV 021553Z 03009KT 10SM OVC029 23/22 A3006 RMK AO2A SLP163 $,M
LOL,2023-09-02 15:53,-118.5701,40.0684,1192.43,65.00,45.00,48.28,50.00,7.00,0.00,30.03,1014.50,10.00,M,CLR,M,M,M,M,M,M,M,M,M,M,M,M,M,M,65.00,KLOL 021553Z AUTO 05007KT 10SM CLR 18/07 A3003 RMK AO2 SLP145 T01830072,M
BVU,2023-09-02 15:55,-114.8611,35.9475,671.00,73.40,66.20,78.19,50.00,5.00,0.00,30.08,M,10.00,M,BKN,OVC,M,M,3300.00,4000.00,M,M,M,M,M,M,M,M,M,73.40,KBVU 021555Z AUTO 05005KT 10SM BKN033 OVC040 23/19 A3008 RMK AO2,M
CXP,2023-09-02 15:55,-119.7326,39.1923,1431.00,60.80,48.20,63.15,50.00,5.00,0.00,30.07,M,10.00,M,SCT,OVC,M,M,7500.00,12000.00,M,M,M,M,M,M,M,M,M,60.80,KCXP 021555Z AUTO 05005KT 10SM SCT075 OVC120 16/09 A3007 RMK AO2,M
RNO,2023-09-02 15:55,-119.7711,39.4839,1341.00,60.00,50.00,69.49,0.00,0.00,0.00,30.07,1014.80,10.00,M,SCT,BKN,M,M,5000.00,7000.00,M,M,M,M,M,M,M,M,M,60.00,KRNO 021555Z 00000KT 10SM SCT050 BKN070 16/10 A3007 RMK AO2 SLP148 T01560100,M
RTS,2023-09-02 15:55,-119.8764,39.6682,1539.00,53.60,51.80,93.60,0.00,0.00,0.00,30.10,M,10.00,M,BKN,M,M,M,9500.00,M,M,M,M,M,M,M,M,M,M,53.60,KRTS 021555Z AUTO 00000KT 10SM BKN095 12/11 A3010 RMK AO2,M
MEV,2023-09-02 15:55,-119.7500,38.9963,1441.42,60.80,48.20,63.15,350.00,10.00,0.00,30.05,M,10.00,M,SCT,M,M,M,12000.00,M,M,M,M,M,M,M,M,M,M,60.80,KMEV 021555Z AUTO 35010KT 10SM SCT120 16/09 A3005 RMK AO2,M
BAM,2023-09-02 15:55,-116.8743,40.5990,1382.36,59.00,57.20,93.74,50.00,9.00,0.00,30.13,M,2.50,M,SCT,SCT,OVC,M,4300.00,5000.00,5500.00,M,M,M,M,M,M,M,M,59.00,KBAM 021555Z AUTO 05009KT 2 1/2SM SCT043 SCT050 OVC055 15/14 A3013 RMK AO1,M
HTH,2023-09-02 15:55,-118.6315,38.5448,1282.89,62.60,48.20,59.26,30.00,4.00,0.00,30.06,M,10.00,M,FEW,FEW,SCT,M,3700.00,6000.00,11000.00,M,M,M,M,M,M,M,M,62.60,KHTH 021555Z AUTO 03004KT 10SM FEW037 FEW060 SCT110 17/09 A3006 RMK A01,M
10U,2023-09-02 15:55,-116.1876,41.9532,1637.00,60.80,51.80,72.20,120.00,5.00,0.00,30.17,M,10.00,M,FEW,SCT,M,M,7500.00,12000.00,M,M,M,M,M,M,M,M,M,60.80,K10U 021555Z AUTO 12005KT 10SM FEW075 SCT120 16/11 A3017 RMK AO2,M
TMT,2023-09-02 15:55,-117.1971,39.4643,1749.34,56.00,53.60,91.63,40.00,4.00,0.03,30.14,M,M,M,M,M,M,M,M,M,M,M,M,M,M,M,M,M,M,56.00,KTMT 021555Z AUTO 04004KT 13/12 A3014 RMK AO2 P0003 T01330120 PWINO,M
INS,2023-09-02 15:55,-115.6733,36.5872,955.00,70.50,63.00,77.14,80.00,18.00,0.00,30.08,1015.20,10.00,M,CLR,M,M,M,M,M,M,M,M,M,M,M,M,M,M,70.50,KINS 021555Z AUTO 08018KT 10SM CLR 21/17 A3008 RMK AO2 SLP152 T02140172 $,M
EKO,2023-09-02 15:56,-115.7860,40.8242,1367.00,61.00,56.00,83.59,60.00,6.00,0.01,30.15,1016.40,10.00,M,BKN,OVC,M,M,8500.00,10000.00,M,M,M,M,M,M,M,M,M,61.00,KEKO 021556Z AUTO 06006KT 10SM BKN085 OVC100 16/13 A3015 RMK AO2 RAE05 SLP164 P0001 T01610133,M
WMC,2023-09-02 15:56,-117.8072,40.9019,1315.00,63.00,45.00,51.78,140.00,6.00,0.00,30.06,1014.80,10.00,M,FEW,M,M,M,11000.00,M,M,M,M,M,M,M,M,M,M,63.00,KWMC 021556Z AUTO 14006KT 10SM FEW110 17/07 A3006 RMK AO2 SLP148 T01720072,M
LSV,2023-09-02 15:56,-115.0343,36.2362,570.00,72.70,72.30,98.66,30.00,8.00,0.00,30.06,1016.30,10.00,M,BKN,OVC,M,M,2900.00,3500.00,M,M,M,M,M,M,M,M,M,72.70,KLSV 021556Z 03008KT 10SM BKN029 OVC035 23/22 A3006 RMK AO2A BKN V OVC SLP163 T02260224 $,M
NFL,2023-09-02 15:56,-118.7010,39.4166,1199.00,64.00,49.00,58.13,M,4.00,0.00,30.04,1014.10,10.00,M,FEW,SCT,BKN,BKN,5000.00,7000.00,12000.00,20000.00,M,M,M,M,M,M,M,64.00,KNFL 021556Z VRB04KT 10SM FEW050 SCT070 BKN120 BKN200 18/09 A3004 RMK AO2 SLP141 CB DSNT E T01780094,M
HND,2023-09-02 15:56,-115.1344,35.9729,742.79,71.00,66.00,84.22,40.00,4.00,0.00,30.12,1020.00,10.00,M,OVC,M,M,M,2100.00,M,M,M,M,M,M,M,M,M,M,71.00,KHND 021556Z 04004KT 10SM OVC021 22/19 A3012 RMK AO2 SLP200 T02170189,M
TPH,2023-09-02 15:56,-117.0904,38.0505,1654.00,63.00,57.00,80.76,150.00,14.00,0.00,30.15,1014.70,10.00,24.00,BKN,OVC,M,M,1300.00,1900.00,M,M,M,M,M,M,M,M,M,63.00,KTPH 021556Z AUTO 15014G24KT 10SM BKN013 OVC019 17/14 A3015 RMK AO2 SLP147 T01720139,M
LAS,2023-09-02 15:56,-115.1634,36.0719,663.00,72.00,68.00,87.24,30.00,4.00,0.00,30.09,1017.20,10.00,M,FEW,BKN,BKN,M,2000.00,3000.00,8000.00,M,M,M,M,M,M,M,M,72.00,KLAS 021556Z 03004KT 10SM FEW020 BKN030 BKN080 22/20 A3009 RMK AO2 SLP172 T02220200 $,M
LSV,2023-09-02 15:59,-115.0343,36.2362,570.00,73.40,73.40,100.00,30.00,8.00,0.00,30.06,1016.30,10.00,M,OVC,M,M,M,3200.00,M,M,M,M,M,M,M,M,M,M,73.40,KLSV 021559Z 03008KT 10SM OVC032 23/23 A3006 RMK AO2A SLP163 $,M
VGT,2023-09-02 16:00,-115.1933,36.2111,667.00,73.00,66.00,78.70,100.00,4.00,0.00,30.09,M,10.00,M,BKN,OVC,M,M,2200.00,2900.00,M,M,M,M,M,M,M,M,M,73.00,KVGT 021600Z 10004KT 10SM BKN022 OVC029 23/19 A3009 RMK AO2 T02280189 $,M
05U,2023-09-02 16:10,-116.0051,39.6042,1811.23,62.60,57.20,82.50,M,M,0.00,30.19,M,10.00,M,FEW,FEW,M,M,8500.00,12000.00,M,M,M,M,M,M,M,M,M,62.60,K05U 021610Z AUTO 10SM FEW085 FEW120 17/14 A3019 RMK A01,M
BVU,2023-09-02 16:15,-114.8611,35.9475,671.00,73.40,66.20,78.19,0.00,0.00,0.00,30.09,M,10.00,M,FEW,SCT,BKN,M,1600.00,3400.00,6500.00,M,M,M,M,M,M,M,M,73.40,KBVU 021615Z AUTO 00000KT 10SM FEW016 SCT034 BKN065 23/19 A3009 RMK AO2,M
CXP,2023-09-02 16:15,-119.7326,39.1923,1431.00,62.60,48.20,59.26,290.00,4.00,0.00,30.08,M,10.00,M,BKN,OVC,M,M,7500.00,11000.00,M,M,M,M,M,M,M,M,M,62.60,KCXP 021615Z AUTO 29004KT 10SM BKN075 OVC110 17/09 A3008 RMK AO2,M
RTS,2023-09-02 16:15,-119.8764,39.6682,1539.00,55.40,50.00,81.99,0.00,0.00,0.00,30.11,M,10.00,M,FEW,M,M,M,10000.00,M,M,M,M,M,M,M,M,M,M,55.40,KRTS 021615Z AUTO 00000KT 10SM FEW100 13/10 A3011 RMK AO2,M
MEV,2023-09-02 16:15,-119.7500,38.9963,1441.42,60.80,48.20,63.15,350.00,13.00,0.00,30.05,M,10.00,M,FEW,M,M,M,7500.00,M,M,M,M,M,M,M,M,M,M,60.80,KMEV 021615Z AUTO 35013KT 10SM FEW075 16/09 A3005 RMK AO2,M
BAM,2023-09-02 16:15,-116.8743,40.5990,1382.36,59.00,57.20,93.74,70.00,10.00,0.00,30.14,M,1.50,M,SCT,BKN,OVC,M,2600.00,4800.00,6000.00,M,M,M,M,M,M,M,M,59.00,KBAM 021615Z AUTO 07010KT 1 1/2SM SCT026 BKN048 OVC060 15/14 A3014 RMK AO1,M
HTH,2023-09-02 16:15,-118.6315,38.5448,1282.89,64.40,48.20,55.63,330.00,6.00,0.00,30.06,M,10.00,M,SCT,M,M,M,10000.00,M,M,M,M,M,M,M,M,M,M,64.40,KHTH 021615Z AUTO 33006KT 10SM SCT100 18/09 A3006 RMK A01,M
10U,2023-09-02 16:15,-116.1876,41.9532,1637.00,62.60,51.80,67.75,140.00,5.00,0.00,30.18,M,10.00,M,FEW,SCT,M,M,6500.00,11000.00,M,M,M,M,M,M,M,M,M,62.60,K10U 021615Z AUTO 14005KT 10SM FEW065 SCT110 17/11 A3018 RMK AO2,M
TMT,2023-09-02 16:15,-117.1971,39.4643,1749.34,56.70,54.50,92.32,20.00,3.00,0.00,30.14,M,M,M,M,M,M,M,M,M,M,M,M,M,M,M,M,M,M,56.70,KTMT 021615Z AUTO 02003KT 14/13 A3014 RMK AO2 T01370125 PWINO,M
TPH,2023-09-02 16:25,-117.0904,38.0505,1654.00,65.00,57.00,75.30,150.00,21.00,0.00,30.15,M,10.00,27.00,BKN,BKN,OVC,M,1500.00,2000.00,5500.00,M,M,M,M,M,27.00,140.00,2023-09-02 16:16,65.00,KTPH 021625Z AUTO 15021G27KT 10SM BKN015 BKN020 OVC055 18/14 A3015 RMK AO2 PK WND 14027/1616 T01830139,M
05U,2023-09-02 16:30,-116.0051,39.6042,1811.23,64.40,57.20,77.45,M,M,0.00,30.19,M,10.00,M,CLR,M,M,M,M,M,M,M,M,M,M,M,M,M,M,64.40,K05U 021630Z AUTO 10SM CLR 18/14 A3019 RMK A01,M
BVU,2023-09-02 16:35,-114.8611,35.9475,671.00,73.40,68.00,83.21,60.00,5.00,0.00,30.09,M,10.00,M,BKN,BKN,BKN,M,3400.00,4300.00,6500.00,M,M,M,M,M,M,M,M,73.40,KBVU 021635Z AUTO 06005KT 10SM BKN034 BKN043 BKN065 23/20 A3009 RMK AO2,M
CXP,2023-09-02 16:35,-119.7326,39.1923,1431.00,62.60,48.20,59.26,M,3.00,0.00,30.08,M,10.00,M,SCT,OVC,M,M,7500.00,12000.00,M,M,M,M,M,M,M,M,M,62.60,KCXP 021635Z AUTO VRB03KT 10SM SCT075 OVC120 17/09 A3008 RMK AO2,M
RTS,2023-09-02 16:35,-119.8764,39.6682,1539.00,55.40,50.00,81.99,0.00,0.00,0.00,30.11,M,10.00,M,SCT,M,M,M,10000.00,M,M,M,M,M,M,M,M,M,M,55.40,KRTS 021635Z AUTO 00000KT 10SM SCT100 13/10 A3011 RMK AO2,M
MEV,2023-09-02 16:35,-119.7500,38.9963,1441.42,60.80,48.20,63.15,360.00,8.00,0.00,30.07,M,10.00,14.00,FEW,SCT,BKN,M,5000.00,6500.00,7500.00,M,M,M,M,M,M,M,M,60.80,KMEV 021635Z AUTO 36008G14KT 10SM FEW050 SCT065 BKN075 16/09 A3007 RMK AO2,M
BAM,2023-09-02 16:35,-116.8743,40.5990,1382.36,59.00,57.20,93.74,70.00,9.00,0.00,30.14,M,4.00,M,SCT,SCT,OVC,M,3200.00,4600.00,7000.00,M,M,M,M,M,M,M,M,59.00,KBAM 021635Z AUTO 07009KT 4SM SCT032 SCT046 OVC070 15/14 A3014 RMK AO1,M
HTH,2023-09-02 16:35,-118.6315,38.5448,1282.89,64.40,48.20,55.63,350.00,6.00,0.00,30.07,M,10.00,M,M,M,M,M,M,M,M,M,M,M,M,M,M,M,M,64.40,KHTH 021635Z AUTO 35006KT 10SM 18/09 A3007 RMK A01,M
TMT,2023-09-02 16:35,-117.1971,39.4643,1749.34,57.60,55.00,91.02,30.00,3.00,0.00,30.15,M,M,M,M,M,M,M,M,M,M,M,M,M,M,M,M,M,M,57.60,KTMT 021635Z AUTO 03003KT 14/13 A3015 RMK AO2 T01420128 PWINO,M
10U,2023-09-02 16:40,-116.1876,41.9532,1637.00,60.80,53.60,77.14,190.00,7.00,0.00,30.20,M,9.00,15.00,FEW,SCT,BKN,M,5000.00,7000.00,9000.00,M,-RA,M,M,M,M,M,M,60.80,K10U 021640Z AUTO 19007G15KT 9SM -RA FEW050 SCT070 BKN090 16/12 A3020 RMK AO2,M
LSV,2023-09-02 16:49,-115.0343,36.2362,570.00,75.20,75.20,100.00,20.00,8.00,0.00,30.07,1016.60,10.00,M,SCT,SCT,BKN,M,3000.00,13000.00,20000.00,M,M,M,M,M,M,M,M,75.20,KLSV 021649Z 02008KT 10SM SCT030 SCT130 BKN200 24/24 A3007 RMK AO2A SLP166 $,M
05U,2023-09-02 16:50,-116.0051,39.6042,1811.23,66.20,57.20,72.74,M,M,0.00,30.20,M,10.00,M,CLR,M,M,M,M,M,M,M,M,M,M,M,M,M,M,66.20,K05U 021650Z AUTO 10SM CLR 19/14 A3020 RMK A01,M
P68,2023-09-02 16:53,-116.0056,39.6014,1993.00,64.00,57.00,77.97,150.00,16.00,0.00,30.18,1014.20,M,22.00,M,M,M,M,M,M,M,M,M,M,M,M,M,M,M,64.00,KP68 021653Z AUTO 15016G22KT 18/14 A3018 RMK AO1 SLP142 T01780139 $,M
DRA,2023-09-02 16:53,-116.0278,36.6206,1009.00,72.00,63.00,73.31,120.00,8.00,0.00,30.10,1015.30,10.00,M,BKN,OVC,M,M,4300.00,5000.00,M,M,M,M,M,M,M,M,M,72.00,KDRA 021653Z AUTO 12008KT 10SM BKN043 OVC050 22/17 A3010 RMK AO2 SLP153 T02220172,M
ELY,2023-09-02 16:53,-114.8453,39.2950,1909.00,66.00,52.00,60.60,170.00,19.00,0.00,30.25,1016.00,10.00,26.00,SCT,BKN,OVC,M,4700.00,5500.00,9500.00,M,M,M,M,M,28.00,140.00,2023-09-02 16:26,66.00,KELY 021653Z AUTO 17019G26KT 10SM SCT047 BKN055 OVC095 19/11 A3025 RMK AO2 PK WND 14028/1626 SLP160 T01890111,M
VGT,2023-09-02 16:53,-115.1933,36.2111,667.00,74.00,66.00,76.10,100.00,7.00,0.00,30.10,1019.30,10.00,M,SCT,OVC,M,M,2000.00,2700.00,M,M,M,M,M,M,M,M,M,74.00,KVGT 021653Z 10007KT 10SM SCT020 OVC027 23/19 A3010 RMK AO2 SLP193 T02330189 $,M
LOL,2023-09-02 16:53,-118.5701,40.0684,1192.43,69.00,45.00,42.04,10.00,8.00,0.00,30.04,1014.20,10.00,M,SCT,M,M,M,12000.00,M,M,M,M,M,M,M,M,M,M,69.00,KLOL 021653Z AUTO 01008KT 10SM SCT120 21/07 A3004 RMK AO2 SLP142 T02060072,M
BVU,2023-09-02 16:55,-114.8611,35.9475,671.00,75.20,68.00,78.34,50.00,7.00,0.00,30.10,M,10.00,M,FEW,BKN,OVC,M,2700.00,3300.00,3900.00,M,M,M,M,M,M,M,M,75.20,KBVU 021655Z AUTO 05007KT 10SM FEW027 BKN033 OVC039 24/20 A3010 RMK AO2,M
CXP,2023-09-02 16:55,-119.7326,39.1923,1431.00,60.80,50.00,67.54,100.00,7.00,0.00,30.11,M,10.00,M,FEW,BKN,OVC,M,5000.00,6500.00,12000.00,M,-RA,M,M,M,M,M,M,60.80,KCXP 021655Z AUTO 10007KT 10SM -RA FEW050 BKN065 OVC120 16/10 A3011 RMK AO2,M
RNO,2023-09-02 16:55,-119.7711,39.4839,1341.00,62.00,49.00,62.36,330.00,3.00,0.00,30.08,1015.10,10.00,M,SCT,BKN,M,M,4000.00,6000.00,M,M,M,M,M,M,M,M,M,62.00,KRNO 021655Z 33003KT 10SM SCT040 BKN060 17/09 A3008 RMK AO2 SLP151 T01670094,M
RTS,2023-09-02 16:55,-119.8764,39.6682,1539.00,57.20,50.00,76.82,0.00,0.00,0.00,30.11,M,10.00,M,SCT,M,M,M,11000.00,M,M,M,M,M,M,M,M,M,M,57.20,KRTS 021655Z AUTO 00000KT 10SM SCT110 14/10 A3011 RMK AO2,M
MEV,2023-09-02 16:55,-119.7500,38.9963,1441.42,62.60,48.20,59.26,340.00,11.00,0.00,30.07,M,10.00,M,BKN,BKN,BKN,M,6000.00,7500.00,9000.00,M,M,M,M,M,M,M,M,62.60,KMEV 021655Z AUTO 34011KT 10SM BKN060 BKN075 BKN090 17/09 A3007 RMK AO2,M
BAM,2023-09-02 16:55,-116.8743,40.5990,1382.36,59.00,59.00,100.00,70.00,9.00,0.00,30.14,M,5.00,M,SCT,SCT,OVC,M,4600.00,5500.00,7000.00,M,M,M,M,M,M,M,M,59.00,KBAM 021655Z AUTO 07009KT 5SM SCT046 SCT055 OVC070 15/15 A3014 RMK AO1,M
HTH,2023-09-02 16:55,-118.6315,38.5448,1282.89,66.20,48.20,52.25,340.00,6.00,0.00,30.06,M,10.00,M,FEW,M,M,M,9000.00,M,M,M,M,M,M,M,M,M,M,66.20,KHTH 021655Z AUTO 34006KT 10SM FEW090 19/09 A3006 RMK A01,M
TMT,2023-09-02 16:55,-117.1971,39.4643,1749.34,59.00,55.00,86.56,0.00,0.00,0.00,30.16,M,M,M,BKN,BKN,OVC,M,1000.00,6000.00,8000.00,M,M,M,M,M,M,M,M,59.00,KTMT 021655Z AUTO 00000KT BKN010 BKN060 OVC080 15/13 A3016 RMK AO2 T01490127 PWINO,M
INS,2023-09-02 16:55,-115.6733,36.5872,955.00,72.70,63.50,72.86,80.00,17.00,0.00,30.09,1015.20,10.00,M,CLR,M,M,M,M,M,M,M,M,M,M,M,M,M,M,72.70,KINS 021655Z AUTO 08017KT 10SM CLR 23/18 A3009 RMK AO2 SLP152 T02260175 $,M
LSV,2023-09-02 16:55,-115.0343,36.2362,570.00,75.00,74.50,98.34,20.00,8.00,0.00,30.07,1016.60,10.00,M,SCT,SCT,BKN,M,3000.00,13000.00,20000.00,M,M,M,M,M,M,M,M,75.00,KLSV 021655Z 02008KT 10SM SCT030 SCT130 BKN200 24/24 A3007 RMK AO2A SLP166 T02380236 $,M
EKO,2023-09-02 16:56,-115.7860,40.8242,1367.00,65.00,56.00,72.62,60.00,9.00,0.00,30.16,1016.30,10.00,M,BKN,M,M,M,8000.00,M,M,M,M,M,M,M,M,M,M,65.00,KEKO 021656Z AUTO 06009KT 10SM BKN080 18/13 A3016 RMK AO2 SLP163 T01830133,M
WMC,2023-09-02 16:56,-117.8072,40.9019,1315.00,68.00,43.00,40.31,M,4.00,0.00,30.08,1014.90,10.00,M,FEW,M,M,M,9000.00,M,M,M,M,M,M,M,M,M,M,68.00,KWMC 021656Z AUTO VRB04KT 10SM FEW090 20/06 A3008 RMK AO2 SLP149 T02000061,M
NFL,2023-09-02 16:56,-118.7010,39.4166,1199.00,66.00,47.00,50.29,0.00,0.00,0.00,30.05,1014.50,10.00,M,FEW,BKN,BKN,M,5000.00,7000.00,10000.00,M,M,M,M,M,M,M,M,66.00,KNFL 021656Z 00000KT 10SM FEW050 BKN070 BKN100 19/08 A3005 RMK AO2 SLP145 SH VC S T01890083,M
HND,2023-09-02 16:56,-115.1344,35.9729,742.79,74.00,66.00,76.10,10.00,4.00,0.00,30.13,1020.10,10.00,M,FEW,BKN,OVC,M,1700.00,2300.00,6000.00,M,M,M,M,M,M,M,M,74.00,KHND 021656Z 01004KT 10SM FEW017 BKN023 OVC060 23/19 A3013 RMK AO2 SLP201 T02330189,M
TPH,2023-09-02 16:56,-117.0904,38.0505,1654.00,67.00,57.00,70.24,150.00,19.00,0.00,30.15,1014.60,10.00,28.00,SCT,BKN,M,M,1700.00,7000.00,M,M,M,M,M,M,29.00,160.00,2023-09-02 16:43,67.00,KTPH 021656Z AUTO 15019G28KT 10SM SCT017 BKN070 19/14 A3015 RMK AO2 PK WND 16029/1643 SLP146 T01940139,M
LAS,2023-09-02 16:56,-115.1634,36.0719,663.00,78.00,68.00,71.38,80.00,3.00,0.00,30.10,1017.50,10.00,M,FEW,BKN,BKN,M,2000.00,3000.00,10000.00,M,M,M,M,M,M,M,M,78.00,KLAS 021656Z 08003KT 10SM FEW020 BKN030 BKN100 26/20 A3010 RMK AO2 SLP175 T02560200 $,M
10U,2023-09-02 17:00,-116.1876,41.9532,1637.00,59.00,55.40,87.83,170.00,10.00,0.00,30.20,M,9.00,M,FEW,FEW,BKN,M,5000.00,6500.00,7500.00,M,-RA,M,M,M,M,M,M,59.00,K10U 021700Z AUTO 17010KT 9SM -RA FEW050 FEW065 BKN075 15/13 A3020 RMK AO2,M
05U,2023-09-02 17:10,-116.0051,39.6042,1811.23,66.20,57.20,72.74,M,M,0.00,30.21,M,10.00,M,FEW,FEW,SCT,M,1900.00,3600.00,6000.00,M,M,M,M,M,M,M,M,66.20,K05U 021710Z AUTO 10SM FEW019 FEW036 SCT060 19/14 A3021 RMK A01,M
BVU,2023-09-02 17:15,-114.8611,35.9475,671.00,75.20,68.00,78.34,80.00,5.00,0.00,30.10,M,10.00,M,FEW,BKN,OVC,M,2600.00,3400.00,4700.00,M,M,M,M,M,M,M,M,75.20,KBVU 021715Z AUTO 08005KT 10SM FEW026 BKN034 OVC047 24/20 A3010 RMK AO2,M
CXP,2023-09-02 17:15,-119.7326,39.1923,1431.00,60.80,48.20,63.15,50.00,10.00,0.00,30.10,M,10.00,M,FEW,BKN,BKN,M,5000.00,6000.00,8500.00,M,M,M,M,M,M,M,M,60.80,KCXP 021715Z AUTO 05010KT 10SM FEW050 BKN060 BKN085 16/09 A3010 RMK AO2,M
RTS,2023-09-02 17:15,-119.8764,39.6682,1539.00,59.00,50.00,72.01,0.00,0.00,0.00,30.12,M,10.00,M,SCT,M,M,M,11000.00,M,M,M,M,M,M,M,M,M,M,59.00,KRTS 021715Z AUTO 00000KT 10SM SCT110 15/10 A3012 RMK AO2,M
MEV,2023-09-02 17:15,-119.7500,38.9963,1441.42,62.60,48.20,59.26,340.00,15.00,0.00,30.08,M,10.00,M,SCT,SCT,BKN,M,6000.00,7500.00,9000.00,M,M,M,M,M,M,M,M,62.60,KMEV 021715Z AUTO 34015KT 10SM SCT060 SCT075 BKN090 17/09 A3008 RMK AO2,M
BAM,2023-09-02 17:15,-116.8743,40.5990,1382.36,60.80,59.00,93.79,80.00,9.00,0.00,30.14,M,10.00,M,SCT,SCT,BKN,M,2800.00,4000.00,8000.00,M,M,M,M,M,M,M,M,60.80,KBAM 021715Z AUTO 08009KT 10SM SCT028 SCT040 BKN080 16/15 A3014 RMK AO1,M
HTH,2023-09-02 17:15,-118.6315,38.5448,1282.89,66.20,46.40,48.83,320.00,8.00,0.00,30.07,M,10.00,M,SCT,M,M,M,10000.00,M,M,M,M,M,M,M,M,M,M,66.20,KHTH 021715Z AUTO 32008KT 10SM SCT100 19/08 A3007 RMK A01,M
TMT,2023-09-02 17:15,-117.1971,39.4643,1749.34,59.50,55.60,86.90,0.00,0.00,0.00,30.16,M,M,M,BKN,BKN,OVC,M,1100.00,5500.00,7500.00,M,M,M,M,M,M,M,M,59.50,KTMT 021715Z AUTO 00000KT BKN011 BKN055 OVC075 15/13 A3016 RMK AO2 T01530131 PWINO,M
10U,2023-09-02 17:20,-116.1876,41.9532,1637.00,57.20,53.60,87.74,180.00,11.00,0.00,30.21,M,5.00,18.00,SCT,M,M,M,7500.00,M,M,M,-RA,M,M,M,M,M,M,57.20,K10U 021720Z AUTO 18011G18KT 5SM -RA SCT075 14/12 A3021 RMK AO2,M
VGT,2023-09-02 17:28,-115.1933,36.2111,667.00,75.00,66.00,73.59,130.00,3.00,0.00,30.10,M,10.00,M,SCT,BKN,M,M,2600.00,7000.00,M,M,M,M,M,M,M,M,M,75.00,KVGT 021728Z 13003KT 10SM SCT026 BKN070 24/19 A3010 RMK AO2 T02390189 $,M
05U,2023-09-02 17:30,-116.0051,39.6042,1811.23,66.20,57.20,72.74,M,M,0.00,30.21,M,10.00,M,FEW,SCT,BKN,M,2100.00,3800.00,8500.00,M,M,M,M,M,M,M,M,66.20,K05U 021730Z AUTO 10SM FEW021 SCT038 BKN085 19/14 A3021 RMK A01,M
BVU,2023-09-02 17:35,-114.8611,35.9475,671.00,75.20,68.00,78.34,M,4.00,0.00,30.10,M,10.00,M,BKN,BKN,OVC,M,2600.00,3400.00,4300.00,M,M,M,M,M,M,M,M,75.20,KBVU 021735Z AUTO VRB04KT 10SM BKN026 BKN034 OVC043 24/20 A3010 RMK AO2,M
CXP,2023-09-02 17:35,-119.7326,39.1923,1431.00,60.80,48.20,63.15,50.00,10.00,0.00,30.11,M,10.00,15.00,SCT,BKN,BKN,M,6000.00,7500.00,8500.00,M,M,M,M,M,M,M,M,60.80,KCXP 021735Z AUTO 05010G15KT 10SM SCT060 BKN075 BKN085 16/09 A3011 RMK AO2,M
RTS,2023-09-02 17:35,-119.8764,39.6682,1539.00,59.00,48.20,67.33,120.00,5.00,0.00,30.13,M,10.00,M,FEW,SCT,BKN,M,2000.00,8000.00,10000.00,M,M,M,M,M,M,M,M,59.00,KRTS 021735Z AUTO 12005KT 10SM FEW020 SCT080 BKN100 15/09 A3013 RMK AO2,M
MEV,2023-09-02 17:35,-119.7500,38.9963,1441.42,62.60,48.20,59.26,350.00,14.00,0.00,30.07,M,10.00,M,BKN,BKN,OVC,M,5500.00,6500.00,7500.00,M,M,M,M,M,M,M,M,62.60,KMEV 021735Z AUTO 35014KT 10SM BKN055 BKN065 OVC075 17/09 A3007 RMK AO2,M
BAM,2023-09-02 17:35,-116.8743,40.5990,1382.36,60.80,59.00,93.79,80.00,5.00,0.00,30.17,M,10.00,M,BKN,OVC,M,M,6500.00,7500.00,M,M,M,M,M,M,M,M,M,60.80,KBAM 021735Z AUTO 08005KT 10SM BKN065 OVC075 16/15 A3017 RMK AO1,M
HTH,2023-09-02 17:35,-118.6315,38.5448,1282.89,68.00,46.40,45.88,M,6.00,0.00,30.07,M,10.00,13.00,FEW,FEW,M,M,9500.00,11000.00,M,M,M,M,M,M,M,M,M,68.00,KHTH 021735Z AUTO VRB06G13KT 10SM FEW095 FEW110 20/08 A3007 RMK A01,M
10U,2023-09-02 17:35,-116.1876,41.9532,1637.00,57.20,53.60,87.74,180.00,11.00,0.00,30.21,M,5.00,M,FEW,M,M,M,7000.00,M,M,M,RA,M,M,M,M,M,M,57.20,K10U 021735Z AUTO 18011KT 5SM RA FEW070 14/12 A3021 RMK AO2,M
TMT,2023-09-02 17:35,-117.1971,39.4643,1749.34,61.00,55.40,81.79,360.00,5.00,0.00,30.16,M,M,M,BKN,BKN,OVC,M,1300.00,5000.00,8500.00,M,M,M,M,M,M,M,M,61.00,KTMT 021735Z AUTO 36005KT BKN013 BKN050 OVC085 16/13 A3016 RMK AO2 T01610130 PWINO,M
VGT,2023-09-02 17:45,-115.1933,36.2111,667.00,75.00,66.00,73.59,120.00,6.00,0.00,30.10,M,10.00,M,SCT,BKN,BKN,M,2000.00,2600.00,7000.00,M,M,M,M,M,M,M,M,75.00,KVGT 021745Z 12006KT 10SM SCT020 BKN026 BKN070 24/19 A3010 RMK AO2 T02390189 $,M
05U,2023-09-02 17:50,-116.0051,39.6042,1811.23,68.00,57.20,68.35,M,M,0.00,30.22,M,10.00,M,FEW,FEW,BKN,M,2200.00,4300.00,9500.00,M,M,M,M,M,M,M,M,68.00,K05U 021750Z AUTO 10SM FEW022 FEW043 BKN095 20/14 A3022 RMK A01,M
P68,2023-09-02 17:53,-116.0056,39.6014,1993.00,67.00,57.00,70.24,160.00,21.00,0.00,30.19,1015.00,M,27.00,M,M,M,M,M,M,M,M,M,M,M,M,27.00,150.00,2023-09-02 17:53,67.00,KP68 021753Z AUTO 16021G27KT 19/14 A3019 RMK AO1 PK WND 15027/1753 SLP150 60015 T01940139 10194 20133 53007 $,M
DRA,2023-09-02 17:53,-116.0278,36.6206,1009.00,75.00,63.00,66.27,130.00,8.00,0.00,30.10,1015.30,10.00,M,BKN,BKN,M,M,4000.00,4900.00,M,M,M,M,M,M,M,M,M,75.00,KDRA 021753Z AUTO 13008KT 10SM BKN040 BKN049 24/17 A3010 RMK AO2 SLP153 T02390172 10239 20189 53005,M
ELY,2023-09-02 17:53,-114.8453,39.2950,1909.00,65.00,52.00,62.74,170.00,16.00,0.00,30.26,1016.50,10.00,26.00,SCT,BKN,M,M,5000.00,7500.00,M,M,M,M,M,M,27.00,170.00,2023-09-02 16:58,65.00,KELY 021753Z AUTO 17016G26KT 10SM SCT050 BKN075 18/11 A3026 RMK AO2 PK WND 17027/1658 SLP165 60000 T01830111 10194 20122 53006,M
VGT,2023-09-02 17:53,-115.1933,36.2111,667.00,75.00,67.00,76.19,90.00,5.00,0.00,30.10,1019.40,10.00,M,SCT,BKN,OVC,M,2000.00,2600.00,6500.00,M,M,M,M,M,M,M,M,75.00,KVGT 021753Z 09005KT 10SM SCT020 BKN026 OVC065 24/19 A3010 RMK AO2 SLP194 T02390194 10239 20217 51008 $,M
LOL,2023-09-02 17:53,-118.5701,40.0684,1192.43,68.00,46.00,45.19,0.00,0.00,0.00,30.04,1014.40,10.00,M,FEW,BKN,M,M,8000.00,10000.00,M,M,M,M,M,M,M,M,M,68.00,KLOL 021753Z AUTO 00000KT 10SM FEW080 BKN100 20/08 A3004 RMK AO2 SLP144 T02000078 10206 20128 53005,M
BVU,2023-09-02 17:55,-114.8611,35.9475,671.00,75.20,68.00,78.34,100.00,9.00,0.00,30.10,M,5.00,15.00,BKN,OVC,M,M,2600.00,3300.00,M,M,-RA,M,M,M,M,M,M,75.20,KBVU 021755Z AUTO 10009G15KT 070V130 5SM -RA BKN026 OVC033 24/20 A3010 RMK AO2,M
CXP,2023-09-02 17:55,-119.7326,39.1923,1431.00,60.80,48.20,63.15,30.00,7.00,0.00,30.11,M,10.00,12.00,BKN,BKN,BKN,M,6000.00,7500.00,9000.00,M,UP,M,M,M,M,M,M,60.80,KCXP 021755Z AUTO 03007G12KT 10SM UP BKN060 BKN075 BKN090 16/09 A3011 RMK AO2,M
RNO,2023-09-02 17:55,-119.7711,39.4839,1341.00,61.00,51.00,69.60,0.00,0.00,T,30.09,1015.90,10.00,M,SCT,BKN,M,M,3000.00,4000.00,M,M,-RA,M,M,M,M,M,M,61.00,KRNO 021755Z 00000KT 10SM -RA SCT030 BKN040 16/11 A3009 RMK AO2 RAB47 SLP159 P0000 60000 T01610106 10172 20128 53011,M
RTS,2023-09-02 17:55,-119.8764,39.6682,1539.00,59.00,48.20,67.33,170.00,3.00,0.00,30.12,M,10.00,M,FEW,SCT,SCT,M,4100.00,7500.00,8500.00,M,M,M,M,M,M,M,M,59.00,KRTS 021755Z AUTO 17003KT 10SM FEW041 SCT075 SCT085 15/09 A3012 RMK AO2,M
MEV,2023-09-02 17:55,-119.7500,38.9963,1441.42,60.80,50.00,67.54,340.00,12.00,0.00,30.08,M,9.00,M,FEW,BKN,OVC,M,3600.00,5000.00,6000.00,M,-RA,M,M,M,M,M,M,60.80,KMEV 021755Z AUTO 34012KT 9SM -RA FEW036 BKN050 OVC060 16/10 A3008 RMK AO2,M
HTH,2023-09-02 17:55,-118.6315,38.5448,1282.89,66.20,46.40,48.83,320.00,7.00,0.00,30.07,M,10.00,12.00,FEW,FEW,M,M,9000.00,11000.00,M,M,M,M,M,M,M,M,M,66.20,KHTH 021755Z AUTO 32007G12KT 10SM FEW090 FEW110 19/08 A3007 RMK A01,M
BAM,2023-09-02 17:55,-116.8743,40.5990,1382.36,60.80,59.00,93.79,80.00,6.00,0.00,30.16,M,3.00,M,SCT,BKN,OVC,M,4200.00,5000.00,6500.00,M,M,M,M,M,M,M,M,60.80,KBAM 021755Z AUTO 08006KT 3SM SCT042 BKN050 OVC065 16/15 A3016 RMK AO1,M
TMT,2023-09-02 17:55,-117.1971,39.4643,1749.34,63.00,55.40,76.21,0.00,0.00,0.00,30.16,M,M,M,SCT,SCT,BKN,M,1500.00,5000.00,7000.00,M,M,M,M,M,M,M,M,63.00,KTMT 021755Z AUTO 00000KT SCT015 SCT050 BKN070 17/13 A3016 RMK AO2 60005 T01730130 10173 20110 PWINO,M
10U,2023-09-02 17:55,-116.1876,41.9532,1637.00,57.20,53.60,87.74,150.00,6.00,0.00,30.21,M,7.00,M,SCT,M,M,M,7000.00,M,M,M,-RA,M,M,M,M,M,M,57.20,K10U 021755Z AUTO 15006KT 7SM -RA SCT070 14/12 A3021 RMK AO2,M
INS,2023-09-02 17:55,-115.6733,36.5872,955.00,72.70,64.00,74.15,90.00,20.00,0.00,30.10,1015.50,10.00,M,BKN,M,M,M,11000.00,M,M,M,M,M,M,M,M,M,M,72.70,KINS 021755Z AUTO 09020KT 10SM BKN110 23/18 A3010 RMK AO2 SLP155 T02260177 10229 20184 52006 $,M
LSV,2023-09-02 17:55,-115.0343,36.2362,570.00,77.70,77.40,99.01,30.00,8.00,0.00,30.07,1016.50,10.00,M,FEW,FEW,FEW,SCT,2700.00,3900.00,16000.00,18000.00,M,M,M,M,M,M,M,77.70,KLSV 021755Z 03008KT 10SM FEW027 FEW039 FEW160 SCT180 SCT200 25/25 A3007 RMK AO2A SLP165 T02540252 10254 20212 50006 $,M
EKO,2023-09-02 17:56,-115.7860,40.8242,1367.00,70.00,55.00,58.94,30.00,6.00,0.00,30.15,1015.70,10.00,M,FEW,FEW,M,M,8000.00,11000.00,M,M,M,M,M,M,M,M,M,70.00,KEKO 021756Z AUTO 03006KT 10SM FEW080 FEW110 21/13 A3015 RMK AO2 SLP157 60005 T02110128 10211 20144 50001,M
WMC,2023-09-02 17:56,-117.8072,40.9019,1315.00,68.00,45.00,43.51,130.00,8.00,0.00,30.08,1015.10,10.00,M,BKN,OVC,M,M,9000.00,11000.00,M,M,M,M,M,M,M,M,M,68.00,KWMC 021756Z AUTO 13008KT 10SM BKN090 OVC110 20/07 A3008 RMK AO2 SLP151 T02000072 10206 20111 51007,M
NFL,2023-09-02 17:56,-118.7010,39.4166,1199.00,67.00,47.00,48.58,M,3.00,0.00,30.05,1014.50,10.00,M,FEW,SCT,BKN,BKN,6000.00,8000.00,11000.00,16000.00,M,M,M,M,M,M,M,67.00,KNFL 021756Z VRB03KT 10SM FEW060 SCT080 BKN110 BKN160 19/08 A3005 RMK AO2 SLP145 SH DSNT S AND W T01940083 10200 20117 51006,M
HND,2023-09-02 17:56,-115.1344,35.9729,742.79,75.00,67.00,76.19,40.00,5.00,0.00,30.14,1020.20,10.00,M,SCT,BKN,OVC,M,1900.00,2400.00,4500.00,M,M,M,M,M,M,M,M,75.00,KHND 021756Z 04005KT 10SM SCT019 BKN024 OVC045 24/19 A3014 RMK AO2 SLP202 T02390194 10239 20200 51006,M
TPH,2023-09-02 17:56,-117.0904,38.0505,1654.00,70.00,57.00,63.37,170.00,20.00,0.00,30.15,1014.70,10.00,28.00,SCT,BKN,BKN,M,2100.00,7500.00,9500.00,M,M,M,M,M,30.00,160.00,2023-09-02 17:27,70.00,KTPH 021756Z AUTO 17020G28KT 10SM SCT021 BKN075 BKN095 21/14 A3015 RMK AO2 PK WND 16030/1727 SLP147 T02110139 10211 20150 51004,M
LAS,2023-09-02 17:56,-115.1634,36.0719,663.00,78.00,69.00,73.87,110.00,4.00,0.00,30.10,1017.60,10.00,M,SCT,BKN,BKN,M,2000.00,3000.00,12000.00,M,M,M,M,M,M,M,M,78.00,KLAS 021756Z 11004KT 10SM SCT020 BKN030 BKN120 26/21 A3010 RMK AO2 SLP176 T02560206 10256 20200 51007 $,M
05U,2023-09-02 18:10,-116.0051,39.6042,1811.23,64.40,57.20,77.45,M,M,0.00,30.22,M,3.00,M,FEW,FEW,BKN,M,2400.00,4300.00,7500.00,M,HZ,M,M,M,M,M,M,64.40,K05U 021810Z AUTO 3SM HZ FEW024 FEW043 BKN075 18/14 A3022 RMK A01,M
BVU,2023-09-02 18:15,-114.8611,35.9475,671.00,77.00,68.00,73.78,110.00,7.00,0.00,30.09,M,10.00,M,BKN,OVC,M,M,2700.00,3400.00,M,M,M,M,M,M,M,M,M,77.00,KBVU 021815Z AUTO 11007KT 10SM BKN027 OVC034 25/20 A3009 RMK AO2,M
CXP,2023-09-02 18:15,-119.7326,39.1923,1431.00,60.80,50.00,67.54,50.00,8.00,0.00,30.11,M,7.00,M,BKN,BKN,M,M,5500.00,7000.00,M,M,-RA,M,M,M,M,M,M,60.80,KCXP 021815Z AUTO 05008KT 7SM -RA BKN055 BKN070 16/10 A3011 RMK AO2 LTG DSNT S,M
RTS,2023-09-02 18:15,-119.8764,39.6682,1539.00,60.80,48.20,63.15,100.00,5.00,0.00,30.12,M,10.00,M,SCT,SCT,BKN,M,2700.00,3100.00,4100.00,M,M,M,M,M,M,M,M,60.80,KRTS 021815Z AUTO 10005KT 10SM SCT027 SCT031 BKN041 16/09 A3012 RMK AO2,M
MEV,2023-09-02 18:15,-119.7500,38.9963,1441.42,60.80,50.00,67.54,350.00,14.00,0.00,30.08,M,10.00,M,BKN,BKN,M,M,5000.00,8500.00,M,M,-RA,M,M,M,M,M,M,60.80,KMEV 021815Z AUTO 35014KT 10SM -RA BKN050 BKN085 16/10 A3008 RMK AO2 LTG DSNT S,M
BAM,2023-09-02 18:15,-116.8743,40.5990,1382.36,60.80,59.00,93.79,70.00,6.00,0.00,30.15,M,10.00,M,SCT,BKN,OVC,M,4400.00,5000.00,6500.00,M,M,M,M,M,M,M,M,60.80,KBAM 021815Z AUTO 07006KT 10SM SCT044 BKN050 OVC065 16/15 A3015 RMK AO1,M
HTH,2023-09-02 18:15,-118.6315,38.5448,1282.89,69.80,48.20,46.16,350.00,9.00,0.00,30.06,M,10.00,M,FEW,FEW,FEW,M,2200.00,2700.00,9000.00,M,M,M,M,M,M,M,M,69.80,KHTH 021815Z AUTO 35009KT 10SM FEW022 FEW027 FEW090 21/09 A3006 RMK A01,M
10U,2023-09-02 18:15,-116.1876,41.9532,1637.00,59.00,53.60,82.25,140.00,8.00,0.00,30.21,M,10.00,M,SCT,SCT,BKN,M,5500.00,6500.00,7500.00,M,-DZ,M,M,M,M,M,M,59.00,K10U 021815Z AUTO 14008KT 10SM -DZ SCT055 SCT065 BKN075 15/12 A3021 RMK AO2,M
TMT,2023-09-02 18:15,-117.1971,39.4643,1749.34,64.40,54.00,68.95,0.00,0.00,0.00,30.15,M,M,M,SCT,SCT,M,M,5000.00,9000.00,M,M,M,M,M,M,M,M,M,64.40,KTMT 021815Z AUTO 00000KT SCT050 SCT090 18/12 A3015 RMK AO2 T01800123 PWINO,M
VGT,2023-09-02 18:16,-115.1933,36.2111,667.00,77.00,67.00,71.28,100.00,6.00,0.00,30.10,M,10.00,M,SCT,SCT,BKN,M,2700.00,3600.00,5000.00,M,M,M,M,M,M,M,M,77.00,KVGT 021816Z 10006KT 10SM SCT027 SCT036 BKN050 25/19 A3010 RMK AO2 T02500194 $,M
HND,2023-09-02 18:16,-115.1344,35.9729,742.79,75.20,66.20,73.61,M,6.00,0.00,30.13,M,10.00,M,FEW,BKN,OVC,M,2700.00,3500.00,6000.00,M,M,M,M,M,M,M,M,75.20,KHND 021816Z VRB06KT 10SM FEW027 BKN035 OVC060 24/19 A3013 RMK AO2,M
05U,2023-09-02 18:30,-116.0051,39.6042,1811.23,66.20,57.20,72.74,M,M,0.00,30.22,M,10.00,M,FEW,FEW,SCT,M,2600.00,4000.00,10000.00,M,M,M,M,M,M,M,M,66.20,K05U 021830Z AUTO 10SM FEW026 FEW040 SCT100 19/14 A3022 RMK A01,M
BVU,2023-09-02 18:35,-114.8611,35.9475,671.00,78.80,68.00,69.52,190.00,8.00,0.00,30.08,M,10.00,15.00,BKN,BKN,OVC,M,3100.00,3700.00,4200.00,M,M,M,M,M,M,M,M,78.80,KBVU 021835Z AUTO 19008G15KT 10SM BKN031 BKN037 OVC042 26/20 A3008 RMK AO2,M
CXP,2023-09-02 18:35,-119.7326,39.1923,1431.00,60.80,48.20,63.15,40.00,7.00,0.00,30.10,M,10.00,M,FEW,SCT,SCT,M,4900.00,7000.00,9000.00,M,-RA,M,M,M,M,M,M,60.80,KCXP 021835Z AUTO 04007KT 10SM -RA FEW049 SCT070 SCT090 16/09 A3010 RMK AO2,M
RTS,2023-09-02 18:35,-119.8764,39.6682,1539.00,60.80,48.20,63.15,90.00,6.00,0.00,30.12,M,10.00,M,SCT,BKN,OVC,M,3000.00,4000.00,9500.00,M,M,M,M,M,M,M,M,60.80,KRTS 021835Z AUTO 09006KT 10SM SCT030 BKN040 OVC095 16/09 A3012 RMK AO2,M
MEV,2023-09-02 18:35,-119.7500,38.9963,1441.42,62.60,48.20,59.26,360.00,14.00,0.00,30.08,M,10.00,M,FEW,SCT,BKN,M,5000.00,6000.00,9000.00,M,M,M,M,M,M,M,M,62.60,KMEV 021835Z AUTO 36014KT 10SM FEW050 SCT060 BKN090 17/09 A3008 RMK AO2,M
HTH,2023-09-02 18:35,-118.6315,38.5448,1282.89,68.00,48.20,49.10,340.00,7.00,0.00,30.06,M,9.00,M,FEW,FEW,SCT,M,3200.00,3800.00,9000.00,M,M,M,M,M,M,M,M,68.00,KHTH 021835Z AUTO 34007KT 9SM FEW032 FEW038 SCT090 20/09 A3006 RMK A01,M
BAM,2023-09-02 18:35,-116.8743,40.5990,1382.36,60.80,59.00,93.79,0.00,0.00,0.00,30.17,M,10.00,M,SCT,OVC,M,M,4600.00,5500.00,M,M,M,M,M,M,M,M,M,60.80,KBAM 021835Z AUTO 00000KT 10SM SCT046 OVC055 16/15 A3017 RMK AO1,M
TMT,2023-09-02 18:35,-117.1971,39.4643,1749.34,65.50,54.00,66.36,0.00,0.00,0.00,30.15,M,M,M,SCT,SCT,SCT,M,2300.00,6500.00,7500.00,M,M,M,M,M,M,M,M,65.50,KTMT 021835Z AUTO 00000KT SCT023 SCT065 SCT075 19/12 A3015 RMK AO2 T01860122 PWINO,M
VGT,2023-09-02 18:36,-115.1933,36.2111,667.00,77.00,67.00,71.28,100.00,6.00,0.00,30.09,M,10.00,M,BKN,BKN,BKN,M,2300.00,4400.00,6000.00,M,M,M,M,M,M,M,M,77.00,KVGT 021836Z 10006KT 10SM BKN023 BKN044 BKN060 25/19 A3009 RMK AO2 T02500194 $,M
10U,2023-09-02 18:40,-116.1876,41.9532,1637.00,57.20,53.60,87.74,140.00,6.00,0.00,30.21,M,10.00,M,BKN,OVC,M,M,6500.00,7500.00,M,M,-RA,M,M,M,M,M,M,57.20,K10U 021840Z AUTO 14006KT 10SM -RA BKN065 OVC075 14/12 A3021 RMK AO2,M
05U,2023-09-02 18:50,-116.0051,39.6042,1811.23,68.00,57.20,68.35,M,M,0.00,30.22,M,10.00,M,SCT,BKN,BKN,M,8000.00,10000.00,12000.00,M,M,M,M,M,M,M,M,68.00,K05U 021850Z AUTO 10SM SCT080 BKN100 BKN120 20/14 A3022 RMK A01,M
HTH,2023-09-02 18:50,-118.6315,38.5448,1282.89,69.80,48.20,46.16,340.00,11.00,0.00,30.06,M,10.00,M,CLR,M,M,M,M,M,M,M,M,M,M,M,M,M,M,69.80,KHTH 021850Z AUTO 34011KT 10SM CLR 21/09 A3006 RMK A01,M
P68,2023-09-02 18:53,-116.0056,39.6014,1993.00,67.00,56.00,67.75,150.00,17.00,0.01,30.19,1015.10,M,27.00,M,M,M,M,M,M,M,M,M,M,M,M,28.00,150.00,2023-09-02 17:55,67.00,KP68 021853Z AUTO 15017G27KT 19/13 A3019 RMK AO1 PK WND 15028/1755 SLP151 P0001 T01940133 $,M
DRA,2023-09-02 18:53,-116.0278,36.6206,1009.00,76.00,63.00,64.09,130.00,8.00,0.00,30.09,1015.00,10.00,M,BKN,OVC,M,M,4000.00,5000.00,M,M,M,M,M,M,M,M,M,76.00,KDRA 021853Z AUTO 13008KT 10SM BKN040 OVC050 24/17 A3009 RMK AO2 SLP150 T02440172,M
ELY,2023-09-02 18:53,-114.8453,39.2950,1909.00,67.00,53.00,60.73,170.00,15.00,0.00,30.26,1016.20,10.00,27.00,OVC,M,M,M,7500.00,M,M,M,M,M,M,M,27.00,160.00,2023-09-02 18:36,67.00,KELY 021853Z AUTO 17015G27KT 10SM OVC075 19/12 A3026 RMK AO2 PK WND 16027/1836 SLP162 T01940117,M
VGT,2023-09-02 18:53,-115.1933,36.2111,667.00,78.00,67.00,68.96,M,4.00,0.00,30.08,1018.40,10.00,M,OVC,M,M,M,2300.00,M,M,M,M,M,M,M,M,M,M,78.00,KVGT 021853Z VRB04KT 10SM OVC023 26/19 A3008 RMK AO2 SLP184 T02560194 $,M
LOL,2023-09-02 18:53,-118.5701,40.0684,1192.43,72.00,47.00,40.94,240.00,5.00,0.00,30.04,1014.20,10.00,M,CLR,M,M,M,M,M,M,M,M,M,M,M,M,M,M,72.00,KLOL 021853Z AUTO 24005KT 10SM CLR 22/08 A3004 RMK AO2 SLP142 T02220083,M
BVU,2023-09-02 18:55,-114.8611,35.9475,671.00,80.60,68.00,65.54,190.00,3.00,0.00,30.07,M,10.00,M,SCT,BKN,BKN,M,3200.00,3900.00,4800.00,M,M,M,M,M,M,M,M,83.29,KBVU 021855Z AUTO 19003KT 10SM SCT032 BKN039 BKN048 27/20 A3007 RMK AO2,M
CXP,2023-09-02 18:55,-119.7326,39.1923,1431.00,62.60,48.20,59.26,40.00,7.00,0.00,30.10,M,10.00,M,FEW,SCT,SCT,M,7500.00,8500.00,12000.00,M,M,M,M,M,M,M,M,62.60,KCXP 021855Z AUTO 04007KT 10SM FEW075 SCT085 SCT120 17/09 A3010 RMK AO2,M
RNO,2023-09-02 18:55,-119.7711,39.4839,1341.00,63.00,53.00,69.82,0.00,0.00,0.02,30.10,1015.60,10.00,M,FEW,SCT,BKN,M,2000.00,4000.00,5000.00,M,M,M,M,M,M,M,M,63.00,KRNO 021855Z 00000KT 10SM FEW020 SCT040 BKN050 17/12 A3010 RMK AO2 RAE07B31E53 SLP156 P0002 T01720117,M
RTS,2023-09-02 18:55,-119.8764,39.6682,1539.00,60.80,48.20,63.15,120.00,6.00,0.00,30.12,M,10.00,M,FEW,BKN,BKN,M,3200.00,4300.00,6000.00,M,M,M,M,M,M,M,M,60.80,KRTS 021855Z AUTO 12006KT 10SM FEW032 BKN043 BKN060 16/09 A3012 RMK AO2,M
MEV,2023-09-02 18:55,-119.7500,38.9963,1441.42,62.60,48.20,59.26,350.00,12.00,0.00,30.08,M,10.00,M,SCT,BKN,BKN,M,5000.00,7500.00,9000.00,M,M,M,M,M,M,M,M,62.60,KMEV 021855Z AUTO 35012KT 10SM SCT050 BKN075 BKN090 17/09 A3008 RMK AO2,M
BAM,2023-09-02 18:55,-116.8743,40.5990,1382.36,60.80,59.00,93.79,70.00,4.00,0.00,30.15,M,3.00,M,SCT,BKN,OVC,M,3000.00,5000.00,7000.00,M,M,M,M,M,M,M,M,60.80,KBAM 021855Z AUTO 07004KT 3SM SCT030 BKN050 OVC070 16/15 A3015 RMK AO1,M
TMT,2023-09-02 18:55,-117.1971,39.4643,1749.34,67.50,55.00,64.21,10.00,6.00,0.00,30.15,M,M,M,SCT,SCT,M,M,6500.00,7500.00,M,M,M,M,M,M,M,M,M,67.50,KTMT 021855Z AUTO 01006KT SCT065 SCT075 20/13 A3015 RMK AO2 T01970128 PWINO,M
INS,2023-09-02 18:55,-115.6733,36.5872,955.00,73.20,63.70,72.15,80.00,17.00,0.00,30.10,1015.50,10.00,M,SCT,SCT,OVC,M,7500.00,10000.00,12000.00,M,M,M,M,M,M,M,M,73.20,KINS 021855Z AUTO 08017KT 10SM SCT075 SCT100 OVC120 23/18 A3010 RMK AO2 SLP155 T02290176 $,M
LSV,2023-09-02 18:55,-115.0343,36.2362,570.00,80.20,73.40,79.80,50.00,3.00,0.00,30.05,1015.80,10.00,M,FEW,FEW,FEW,M,2500.00,3700.00,16000.00,M,M,M,M,M,M,M,M,84.63,KLSV 021855Z 05003KT 10SM FEW025 FEW037 FEW160 27/23 A3005 RMK AO2A SLP158 T02680230 $,M
EKO,2023-09-02 18:56,-115.7860,40.8242,1367.00,74.00,55.00,51.47,90.00,4.00,0.00,30.14,1015.00,10.00,17.00,FEW,M,M,M,4200.00,M,M,M,M,M,M,M,M,M,M,74.00,KEKO 021856Z AUTO 09004G17KT 10SM FEW042 23/13 A3014 RMK AO2 LTG DSNT NW SLP150 T02330128,M
WMC,2023-09-02 18:56,-117.8072,40.9019,1315.00,70.00,50.00,49.03,190.00,11.00,T,30.08,1014.90,10.00,M,OVC,M,M,M,8000.00,M,M,M,-RA,M,M,M,M,M,M,70.00,KWMC 021856Z AUTO 19011KT 10SM -RA OVC080 21/10 A3008 RMK AO2 RAB51 SLP149 P0000 T02110100,M
NFL,2023-09-02 18:56,-118.7010,39.4166,1199.00,70.00,48.00,45.50,260.00,6.00,0.00,30.04,1014.30,10.00,M,FEW,SCT,BKN,BKN,6000.00,9000.00,12000.00,20000.00,M,M,M,M,M,M,M,70.00,KNFL 021856Z 26006KT 10SM FEW060 SCT090 BKN120 BKN200 21/09 A3004 RMK AO2 SLP143 SH VC E-SE T02110089,M
HND,2023-09-02 18:56,-115.1344,35.9729,742.79,78.00,68.00,71.38,10.00,7.00,0.00,30.11,1019.30,10.00,M,BKN,BKN,M,M,3400.00,4600.00,M,M,M,M,M,M,M,M,M,78.00,KHND 021856Z 01007KT 10SM BKN034 BKN046 26/20 A3011 RMK AO2 LTG DSNT SW SLP193 T02560200,M
TPH,2023-09-02 18:56,-117.0904,38.0505,1654.00,69.00,57.00,65.57,160.00,23.00,0.00,30.15,1014.90,10.00,32.00,FEW,FEW,SCT,M,2300.00,2800.00,12000.00,M,M,M,M,M,33.00,160.00,2023-09-02 18:41,69.00,KTPH 021856Z AUTO 16023G32KT 10SM FEW023 FEW028 SCT120 21/14 A3015 RMK AO2 PK WND 16033/1841 SLP149 T02060139,M
LAS,2023-09-02 18:56,-115.1634,36.0719,663.00,80.00,69.00,69.17,10.00,4.00,0.00,30.09,1016.80,10.00,M,SCT,BKN,BKN,M,2500.00,4000.00,10000.00,M,M,M,M,M,M,M,M,82.85,KLAS 021856Z 01004KT 10SM SCT025 BKN040 BKN100 27/20 A3009 RMK AO2 LTG DSNT SW SLP168 T02670206 $,M
10U,2023-09-02 19:00,-116.1876,41.9532,1637.00,57.20,53.60,87.74,160.00,8.00,0.00,30.22,M,4.00,M,FEW,SCT,M,M,4500.00,6500.00,M,M,-RA,M,M,M,M,M,M,57.20,K10U 021900Z AUTO 16008KT 4SM -RA FEW045 SCT065 14/12 A3022 RMK AO2,M
05U,2023-09-02 19:10,-116.0051,39.6042,1811.23,68.00,57.20,68.35,M,M,0.00,M,M,10.00,M,FEW,BKN,BKN,M,8000.00,10000.00,12000.00,M,M,M,M,M,M,M,M,68.00,K05U 021910Z AUTO 10SM FEW080 BKN100 BKN120 20/14 RMK A01,M
BVU,2023-09-02 19:15,-114.8611,35.9475,671.00,80.60,68.00,65.54,M,4.00,0.00,30.07,M,10.00,M,BKN,BKN,BKN,M,3600.00,4300.00,4900.00,M,M,M,M,M,M,M,M,83.29,KBVU 021915Z AUTO VRB04KT 10SM BKN036 BKN043 BKN049 27/20 A3007 RMK AO2,M
CXP,2023-09-02 19:15,-119.7326,39.1923,1431.00,62.60,48.20,59.26,60.00,5.00,0.00,30.10,M,10.00,M,BKN,BKN,BKN,M,7500.00,9000.00,12000.00,M,M,M,M,M,M,M,M,62.60,KCXP 021915Z AUTO 06005KT 10SM BKN075 BKN090 BKN120 17/09 A3010 RMK AO2,M
RTS,2023-09-02 19:15,-119.8764,39.6682,1539.00,60.80,48.20,63.15,130.00,5.00,0.00,30.12,M,10.00,M,SCT,BKN,OVC,M,2800.00,6000.00,7000.00,M,M,M,M,M,M,M,M,60.80,KRTS 021915Z AUTO 13005KT 10SM SCT028 BKN060 OVC070 16/09 A3012 RMK AO2,M
MEV,2023-09-02 19:15,-119.7500,38.9963,1441.42,62.60,50.00,63.38,350.00,11.00,0.00,30.08,M,10.00,M,SCT,SCT,BKN,M,4800.00,5500.00,7000.00,M,-RA,M,M,M,M,M,M,62.60,KMEV 021915Z AUTO 35011KT 10SM -RA SCT048 SCT055 BKN070 17/10 A3008 RMK AO2,M
BAM,2023-09-02 19:15,-116.8743,40.5990,1382.36,62.60,59.00,88.00,50.00,3.00,0.00,30.15,M,10.00,M,BKN,OVC,M,M,5000.00,7000.00,M,M,M,M,M,M,M,M,M,62.60,KBAM 021915Z AUTO 05003KT 10SM BKN050 OVC070 17/15 A3015 RMK AO1,M
HTH,2023-09-02 19:15,-118.6315,38.5448,1282.89,66.20,50.00,55.88,340.00,12.00,0.00,30.06,M,10.00,M,FEW,FEW,FEW,M,3000.00,9000.00,12000.00,M,M,M,M,M,M,M,M,66.20,KHTH 021915Z AUTO 34012KT 10SM FEW030 FEW090 FEW120 19/10 A3006 RMK A01,M
10U,2023-09-02 19:15,-116.1876,41.9532,1637.00,57.20,53.60,87.74,160.00,7.00,0.00,30.22,M,4.00,M,FEW,FEW,BKN,M,4500.00,5000.00,6000.00,M,-RA,M,M,M,M,M,M,57.20,K10U 021915Z AUTO 16007KT 4SM -RA FEW045 FEW050 BKN060 14/12 A3022 RMK AO2,M
TMT,2023-09-02 19:15,-117.1971,39.4643,1749.34,68.00,54.00,60.86,350.00,6.00,0.00,30.13,M,M,M,CLR,M,M,M,M,M,M,M,M,M,M,M,M,M,M,68.00,KTMT 021915Z AUTO 35006KT CLR 20/12 A3013 RMK AO2 T02000122 PWINO,M
05U,2023-09-02 19:30,-116.0051,39.6042,1811.23,68.00,55.40,64.04,M,M,0.00,30.21,M,10.00,M,BKN,BKN,M,M,10000.00,12000.00,M,M,M,M,M,M,M,M,M,68.00,K05U 021930Z AUTO 10SM BKN100 BKN120 20/13 A3021 RMK A01,M
BVU,2023-09-02 19:35,-114.8611,35.9475,671.00,80.60,66.20,61.58,150.00,11.00,0.00,30.06,M,10.00,17.00,BKN,M,M,M,3700.00,M,M,M,M,M,M,M,M,M,M,82.75,KBVU 021935Z AUTO 15011G17KT 10SM BKN037 27/19 A3006 RMK AO2,M
CXP,2023-09-02 19:35,-119.7326,39.1923,1431.00,62.60,50.00,63.38,80.00,7.00,0.00,30.10,M,10.00,M,BKN,BKN,OVC,M,7000.00,7500.00,9500.00,M,-RA,M,M,M,M,M,M,62.60,KCXP 021935Z AUTO 08007KT 10SM -RA BKN070 BKN075 OVC095 17/10 A3010 RMK AO2,M
RTS,2023-09-02 19:35,-119.8764,39.6682,1539.00,60.80,50.00,67.54,130.00,7.00,0.00,30.12,M,10.00,M,BKN,BKN,OVC,M,2800.00,3200.00,6000.00,M,M,M,M,M,M,M,M,60.80,KRTS 021935Z AUTO 13007KT 10SM BKN028 BKN032 OVC060 16/10 A3012 RMK AO2,M
MEV,2023-09-02 19:35,-119.7500,38.9963,1441.42,64.40,48.20,55.63,350.00,9.00,0.00,30.08,M,10.00,M,FEW,BKN,BKN,M,4900.00,6500.00,8000.00,M,M,M,M,M,M,M,M,64.40,KMEV 021935Z AUTO 35009KT 10SM FEW049 BKN065 BKN080 18/09 A3008 RMK AO2,M
BAM,2023-09-02 19:35,-116.8743,40.5990,1382.36,62.60,59.00,88.00,0.00,0.00,0.00,30.15,M,10.00,M,SCT,BKN,OVC,M,5000.00,6000.00,7000.00,M,M,M,M,M,M,M,M,62.60,KBAM 021935Z AUTO 00000KT 10SM SCT050 BKN060 OVC070 17/15 A3015 RMK AO1,M
HTH,2023-09-02 19:35,-118.6315,38.5448,1282.89,68.00,51.80,56.13,330.00,9.00,0.00,30.05,M,10.00,M,FEW,M,M,M,9000.00,M,M,M,M,M,M,M,M,M,M,68.00,KHTH 021935Z AUTO 33009KT 10SM FEW090 20/11 A3005 RMK A01,M
TMT,2023-09-02 19:35,-117.1971,39.4643,1749.34,69.00,54.50,59.89,330.00,6.00,0.00,30.13,M,M,M,SCT,M,M,M,10000.00,M,M,M,M,M,M,M,M,M,M,69.00,KTMT 021935Z AUTO 33006KT SCT100 21/13 A3013 RMK AO2 LTG DSNT NE T02060125 PWINO,M
10U,2023-09-02 19:35,-116.1876,41.9532,1637.00,57.20,53.60,87.74,140.00,4.00,0.00,30.22,M,8.00,M,BKN,OVC,M,M,5500.00,6500.00,M,M,-RA,M,M,M,M,M,M,57.20,K10U 021935Z AUTO 14004KT 8SM -RA BKN055 OVC065 14/12 A3022 RMK AO2,M
P68,2023-09-02 19:53,-116.0056,39.6014,1993.00,66.00,54.00,65.21,160.00,18.00,0.00,30.18,1014.90,M,M,M,M,M,M,M,M,M,M,M,M,M,M,29.00,170.00,2023-09-02 19:37,66.00,KP68 021953Z AUTO 16018KT 19/12 A3018 RMK AO1 PK WND 17029/1937 SLP149 T01890122 $,M
DRA,2023-09-02 19:53,-116.0278,36.6206,1009.00,77.00,63.00,62.00,110.00,11.00,0.00,30.07,1014.30,10.00,M,BKN,OVC,M,M,4200.00,4900.00,M,M,M,M,M,M,M,M,M,77.00,KDRA 021953Z AUTO 11011KT 10SM BKN042 OVC049 25/17 A3007 RMK AO2 SLP143 T02500172,M
ELY,2023-09-02 19:53,-114.8453,39.2950,1909.00,70.00,53.00,54.78,170.00,17.00,0.00,30.24,1015.20,10.00,M,FEW,BKN,BKN,M,2700.00,8000.00,9500.00,M,M,M,M,M,29.00,180.00,2023-09-02 19:20,70.00,KELY 021953Z AUTO 17017KT 10SM FEW027 BKN080 BKN095 21/12 A3024 RMK AO2 PK WND 18029/1920 SLP152 T02110117,M
VGT,2023-09-02 19:53,-115.1933,36.2111,667.00,81.00,68.00,64.69,M,3.00,0.00,30.06,1017.60,10.00,M,OVC,M,M,M,3000.00,M,M,M,M,M,M,M,M,M,M,83.76,KVGT 021953Z VRB03KT 10SM OVC030 27/20 A3006 RMK AO2 LTG DSNT S AND SW SLP176 T02720200 $,M
LOL,2023-09-02 19:53,-118.5701,40.0684,1192.43,75.00,48.00,38.43,20.00,4.00,0.00,30.02,1013.60,10.00,M,BKN,M,M,M,6000.00,M,M,M,M,M,M,M,M,M,M,75.00,KLOL 021953Z AUTO 02004KT 10SM BKN060 24/09 A3002 RMK AO2 SLP136 T02390089,M
BVU,2023-09-02 19:55,-114.8611,35.9475,671.00,80.60,66.20,61.58,140.00,12.00,0.00,30.05,M,10.00,M,SCT,SCT,BKN,M,3800.00,4500.00,11000.00,M,M,M,M,M,M,M,M,82.75,KBVU 021955Z AUTO 14012KT 10SM SCT038 SCT045 BKN110 27/19 A3005 RMK AO2,M
CXP,2023-09-02 19:55,-119.7326,39.1923,1431.00,62.60,48.20,59.26,60.00,6.00,0.00,30.10,M,10.00,M,BKN,BKN,M,M,7000.00,9000.00,M,M,M,M,M,M,M,M,M,62.60,KCXP 021955Z AUTO 06006KT 10SM BKN070 BKN090 17/09 A3010 RMK AO2,M
RNO,2023-09-02 19:55,-119.7711,39.4839,1341.00,63.00,54.00,72.42,310.00,6.00,T,30.08,1015.20,7.00,M,SCT,BKN,M,M,2000.00,4000.00,M,M,-RA,M,M,M,M,M,M,63.00,KRNO 021955Z 31006KT 7SM -RA SCT020 BKN040 17/12 A3008 RMK AO2 RAB32 SLP152 P0000 T01720122,M
RTS,2023-09-02 19:55,-119.8764,39.6682,1539.00,60.80,50.00,67.54,90.00,8.00,0.00,30.11,M,10.00,M,BKN,OVC,M,M,2800.00,4100.00,M,M,M,M,M,M,M,M,M,60.80,KRTS 021955Z AUTO 09008KT 10SM BKN028 OVC041 16/10 A3011 RMK AO2,M
05U,2023-09-02 19:55,-116.0051,39.6042,1811.23,66.20,55.40,68.15,M,M,0.00,30.21,M,10.00,M,FEW,BKN,M,M,9000.00,11000.00,M,M,M,M,M,M,M,M,M,66.20,K05U 021955Z AUTO 10SM FEW090 BKN110 19/13 A3021 RMK A01,M
MEV,2023-09-02 19:55,-119.7500,38.9963,1441.42,66.20,48.20,52.25,360.00,11.00,0.00,30.06,M,10.00,M,FEW,SCT,SCT,M,7000.00,8000.00,10000.00,M,M,M,M,M,M,M,M,66.20,KMEV 021955Z AUTO 36011KT 10SM FEW070 SCT080 SCT100 19/09 A3006 RMK AO2,M
BAM,2023-09-02 19:55,-116.8743,40.5990,1382.36,62.60,59.00,88.00,60.00,6.00,0.00,30.13,M,7.00,M,SCT,BKN,OVC,M,5000.00,7000.00,8500.00,M,M,M,M,M,M,M,M,62.60,KBAM 021955Z AUTO 06006KT 7SM SCT050 BKN070 OVC085 17/15 A3013 RMK AO1,M
HTH,2023-09-02 19:55,-118.6315,38.5448,1282.89,66.20,57.20,72.74,320.00,11.00,0.00,30.05,M,4.00,M,FEW,FEW,SCT,M,3400.00,6000.00,9000.00,M,HZ,M,M,M,M,M,M,66.20,KHTH 021955Z AUTO 32011KT 4SM HZ FEW034 FEW060 SCT090 19/14 A3005 RMK A01,M
TMT,2023-09-02 19:55,-117.1971,39.4643,1749.34,70.70,55.20,57.97,350.00,7.00,0.00,30.12,M,M,M,SCT,SCT,M,M,3500.00,10000.00,M,M,M,M,M,M,M,M,M,70.70,KTMT 021955Z AUTO 35007KT SCT035 SCT100 22/13 A3012 RMK AO2 T02150129 PWINO,M
INS,2023-09-02 19:55,-115.6733,36.5872,955.00,75.40,63.00,65.39,70.00,16.00,0.00,30.08,1014.90,10.00,M,FEW,BKN,M,M,8000.00,10000.00,M,M,M,M,M,M,M,M,M,75.40,KINS 021955Z AUTO 07016KT 10SM FEW080 BKN100 24/17 A3008 RMK AO2 SLP149 T02410173 $,M
EKO,2023-09-02 19:56,-115.7860,40.8242,1367.00,79.00,54.00,42.03,170.00,15.00,0.00,30.11,1014.10,10.00,26.00,FEW,M,M,M,4500.00,M,M,M,VCTS,M,M,M,26.00,160.00,2023-09-02 19:50,79.00,KEKO 021956Z AUTO 17015G26KT 10SM VCTS FEW045 26/12 A3011 RMK AO2 PK WND 16026/1950 LTG DSNT SW-N SLP141 T02610122,M
WMC,2023-09-02 19:56,-117.8072,40.9019,1315.00,72.00,52.00,49.33,180.00,6.00,T,30.07,1014.70,10.00,M,BKN,OVC,M,M,7500.00,9000.00,M,M,-RA,M,M,M,M,M,M,72.00,KWMC 021956Z AUTO 18006KT 10SM -RA BKN075 OVC090 22/11 A3007 RMK AO2 RAE09B47 SLP147 P0000 T02220111,M
HND,2023-09-02 19:56,-115.1344,35.9729,742.79,79.00,67.00,66.72,360.00,7.00,0.00,30.09,1018.40,10.00,M,BKN,OVC,M,M,4000.00,5000.00,M,M,M,M,M,M,M,M,M,79.00,KHND 021956Z 36007KT 10SM BKN040 OVC050 26/19 A3009 RMK AO2 LTG DSNT SW AND W SLP184 T02610194,M
TPH,2023-09-02 19:56,-117.0904,38.0505,1654.00,71.00,57.00,61.24,170.00,21.00,0.00,30.15,1014.50,10.00,31.00,SCT,BKN,OVC,M,2700.00,9000.00,11000.00,M,M,M,M,M,32.00,150.00,2023-09-02 19:21,71.00,KTPH 021956Z AUTO 17021G31KT 10SM SCT027 BKN090 OVC110 22/14 A3015 RMK AO2 PK WND 15032/1921 SLP145 T02170139,M
LAS,2023-09-02 19:56,-115.1634,36.0719,663.00,88.00,65.00,46.55,10.00,7.00,0.00,30.07,1016.00,10.00,M,SCT,SCT,BKN,BKN,2500.00,5000.00,10000.00,20000.00,M,M,M,M,M,M,M,89.85,KLAS 021956Z 01007KT 10SM SCT025 SCT050 BKN100 BKN200 31/18 A3007 RMK AO2 LTG DSNT SW AND W SLP160 CB DSNT E AND SW-W T03110183 $,M
NFL,2023-09-02 19:56,-118.7010,39.4166,1199.00,71.00,50.00,47.39,M,6.00,0.00,30.03,1013.80,10.00,M,SCT,BKN,BKN,M,6000.00,8000.00,12000.00,M,M,M,M,M,M,M,M,71.00,KNFL 021956Z VRB06KT 10SM SCT060 BKN080 BKN120 22/10 A3003 RMK AO2 SLP138 SH VC E-S T02170100,M
10U,2023-09-02 20:00,-116.1876,41.9532,1637.00,55.40,51.80,87.65,0.00,0.00,0.00,30.22,M,3.00,M,OVC,M,M,M,5000.00,M,M,M,RA,M,M,M,M,M,M,55.40,K10U 022000Z AUTO 00000KT 3SM RA OVC050 13/11 A3022 RMK AO2,M
05U,2023-09-02 20:10,-116.0051,39.6042,1811.23,66.20,57.20,72.74,M,M,0.00,30.20,M,9.00,M,SCT,BKN,M,M,8500.00,11000.00,M,M,M,M,M,M,M,M,M,66.20,K05U 022010Z AUTO 9SM SCT085 BKN110 19/14 A3020 RMK A01,M
BVU,2023-09-02 20:15,-114.8611,35.9475,671.00,82.40,66.20,58.08,150.00,12.00,0.00,30.04,M,10.00,M,SCT,SCT,BKN,M,4200.00,5500.00,11000.00,M,M,M,M,M,M,M,M,84.63,KBVU 022015Z AUTO 15012KT 10SM SCT042 SCT055 BKN110 28/19 A3004 RMK AO2,M
CXP,2023-09-02 20:15,-119.7326,39.1923,1431.00,64.40,48.20,55.63,M,4.00,0.00,30.09,M,10.00,M,SCT,BKN,BKN,M,7000.00,8000.00,9000.00,M,M,M,M,M,M,M,M,64.40,KCXP 022015Z AUTO VRB04KT 10SM SCT070 BKN080 BKN090 18/09 A3009 RMK AO2,M
RTS,2023-09-02 20:15,-119.8764,39.6682,1539.00,60.80,48.20,63.15,110.00,7.00,0.00,30.11,M,10.00,M,FEW,BKN,OVC,M,2700.00,3400.00,8500.00,M,M,M,M,M,M,M,M,60.80,KRTS 022015Z AUTO 11007KT 10SM FEW027 BKN034 OVC085 16/09 A3011 RMK AO2,M
MEV,2023-09-02 20:15,-119.7500,38.9963,1441.42,68.00,46.40,45.88,340.00,9.00,0.00,30.06,M,10.00,14.00,FEW,FEW,SCT,M,7000.00,8000.00,9000.00,M,M,M,M,M,M,M,M,68.00,KMEV 022015Z AUTO 34009G14KT 10SM FEW070 FEW080 SCT090 20/08 A3006 RMK AO2,M
BAM,2023-09-02 20:15,-116.8743,40.5990,1382.36,64.40,60.80,88.09,70.00,9.00,0.00,30.13,M,10.00,M,SCT,SCT,BKN,M,3800.00,7000.00,10000.00,M,M,M,M,M,M,M,M,64.40,KBAM 022015Z AUTO 07009KT 10SM SCT038 SCT070 BKN100 18/16 A3013 RMK AO1,M
HTH,2023-09-02 20:15,-118.6315,38.5448,1282.89,66.20,53.60,63.82,10.00,5.00,0.00,30.05,M,10.00,M,FEW,FEW,SCT,M,2000.00,2400.00,9000.00,M,M,M,M,M,M,M,M,66.20,KHTH 022015Z AUTO 01005KT 10SM FEW020 FEW024 SCT090 19/12 A3005 RMK A01,M
TMT,2023-09-02 20:15,-117.1971,39.4643,1749.34,72.30,54.30,53.13,70.00,4.00,0.00,30.11,M,M,M,SCT,M,M,M,10000.00,M,M,M,M,M,M,M,M,M,M,72.30,KTMT 022015Z AUTO 07004KT SCT100 22/12 A3011 RMK AO2 T02240124 PWINO,M
10U,2023-09-02 20:20,-116.1876,41.9532,1637.00,55.40,53.60,93.65,200.00,3.00,0.00,30.23,M,6.00,M,BKN,BKN,M,M,5000.00,6000.00,M,M,-RA,M,M,M,M,M,M,55.40,K10U 022020Z AUTO 20003KT 6SM -RA BKN050 BKN060 13/12 A3023 RMK AO2,M
LAS,2023-09-02 20:21,-115.1634,36.0719,663.00,88.00,65.00,46.55,10.00,7.00,0.00,30.05,M,10.00,M,SCT,BKN,BKN,M,2500.00,5000.00,12000.00,M,TS,M,M,M,M,M,M,89.85,KLAS 022021Z 01007KT 10SM TS SCT025 BKN050CB BKN120 31/18 A3005 RMK AO2 LTG DSNT SW TSE19B21 OCNL LTG ICCC SW-W TS SW-W MOV N T03110183 $,M
HND,2023-09-02 20:25,-115.1344,35.9729,742.79,78.80,68.00,69.52,360.00,7.00,0.00,30.08,M,10.00,M,BKN,OVC,M,M,3800.00,4700.00,M,M,VCTS,M,M,M,M,M,M,78.80,KHND 022025Z 36007KT 10SM VCTS BKN038 OVC047 26/20 A3008 RMK AO2 TSB19,M
05U,2023-09-02 20:30,-116.0051,39.6042,1811.23,68.00,55.40,64.04,M,M,0.00,30.20,M,10.00,M,SCT,BKN,M,M,8500.00,11000.00,M,M,M,M,M,M,M,M,M,68.00,K05U 022030Z AUTO 10SM SCT085 BKN110 20/13 A3020 RMK A01,M
BVU,2023-09-02 20:35,-114.8611,35.9475,671.00,84.20,66.20,54.80,150.00,15.00,0.00,30.03,M,10.00,M,SCT,SCT,M,M,4200.00,5000.00,M,M,M,M,M,M,M,M,M,86.50,KBVU 022035Z AUTO 15015KT 10SM SCT042 SCT050 29/19 A3003 RMK AO2,M
CXP,2023-09-02 20:35,-119.7326,39.1923,1431.00,64.40,48.20,55.63,M,5.00,0.00,30.09,M,10.00,M,BKN,BKN,OVC,M,6000.00,7000.00,8000.00,M,M,M,M,M,M,M,M,64.40,KCXP 022035Z AUTO VRB05KT 10SM BKN060 BKN070 OVC080 18/09 A3009 RMK AO2,M
RTS,2023-09-02 20:35,-119.8764,39.6682,1539.00,60.80,50.00,67.54,120.00,7.00,0.00,30.12,M,9.00,M,FEW,SCT,BKN,M,3400.00,4700.00,5500.00,M,-DZ,M,M,M,M,M,M,60.80,KRTS 022035Z AUTO 12007KT 9SM -DZ FEW034 SCT047 BKN055 16/10 A3012 RMK AO2,M
MEV,2023-09-02 20:35,-119.7500,38.9963,1441.42,68.00,46.40,45.88,330.00,8.00,0.00,30.06,M,10.00,M,SCT,SCT,M,M,7500.00,8500.00,M,M,M,M,M,M,M,M,M,68.00,KMEV 022035Z AUTO 33008KT 10SM SCT075 SCT085 20/08 A3006 RMK AO2,M
HTH,2023-09-02 20:35,-118.6315,38.5448,1282.89,68.00,53.60,59.97,310.00,7.00,0.00,30.05,M,M,M,M,M,M,M,M,M,M,M,M,M,M,M,M,M,M,68.00,KHTH 022035Z AUTO 31007KT 290V350 20/12 A3005 RMK A01,M
10U,2023-09-02 20:35,-116.1876,41.9532,1637.00,57.20,51.80,82.12,110.00,4.00,0.00,30.22,M,8.00,M,SCT,BKN,BKN,M,5000.00,6000.00,8000.00,M,-RA,M,M,M,M,M,M,57.20,K10U 022035Z AUTO 11004KT 8SM -RA SCT050 BKN060 BKN080 14/11 A3022 RMK AO2,M
BAM,2023-09-02 20:35,-116.8743,40.5990,1382.36,66.20,60.80,82.74,60.00,10.00,0.00,30.12,M,10.00,M,SCT,M,M,M,10000.00,M,M,M,M,M,M,M,M,M,M,66.20,KBAM 022035Z AUTO 06010KT 10SM SCT100 19/16 A3012 RMK AO1,M
TMT,2023-09-02 20:35,-117.1971,39.4643,1749.34,74.00,53.00,47.84,350.00,4.00,0.00,30.10,M,M,M,CLR,M,M,M,M,M,M,M,M,M,M,M,M,M,M,74.00,KTMT 022035Z AUTO 35004KT CLR 23/12 A3010 RMK AO2 T02330116 PWINO,M
VGT,2023-09-02 20:42,-115.1933,36.2111,667.00,82.00,66.00,58.43,20.00,3.00,0.00,30.05,M,10.00,M,BKN,OVC,M,M,3600.00,4700.00,M,M,VCTS,M,M,M,M,M,M,84.15,KVGT 022042Z 02003KT 10SM VCTS BKN036 OVC047 28/19 A3005 RMK AO2 LTG DSNT S AND SW T02780189 $,M
05U,2023-09-02 20:50,-116.0051,39.6042,1811.23,68.00,53.60,59.97,M,M,0.00,30.20,M,10.00,M,FEW,OVC,M,M,8500.00,10000.00,M,M,M,M,M,M,M,M,M,68.00,K05U 022050Z AUTO 10SM FEW085 OVC100 20/12 A3020 RMK A01,M
EKO,2023-09-02 20:51,-115.7860,40.8242,1367.00,73.40,57.20,56.88,250.00,21.00,0.00,30.11,M,10.00,31.00,SCT,SCT,BKN,M,5000.00,8500.00,11000.00,M,M,M,M,M,31.00,260.00,2023-09-02 20:51,73.40,KEKO 022051Z AUTO 25021G31KT 10SM SCT050 SCT085 BKN110 23/14 A3011 RMK AO2 PK WND 26031/2051 LTG DSNT N AND NW,M
INS,2023-09-02 20:53,-115.6733,36.5872,955.00,75.20,64.40,69.14,90.00,14.00,0.00,30.08,1014.90,10.00,M,BKN,OVC,M,M,10000.00,12000.00,M,M,-DZ,M,M,M,M,M,M,75.20,KINS 022053Z AUTO 09014KT 10SM -DZ BKN100 OVC120 24/18 A3008 RMK AO2 DZB53 SLP149 $,M
P68,2023-09-02 20:53,-116.0056,39.6014,1993.00,66.00,54.00,65.21,160.00,23.00,0.00,30.17,1014.40,M,31.00,M,M,M,M,M,M,M,M,M,M,M,M,31.00,150.00,2023-09-02 20:48,66.00,KP68 022053Z AUTO 16023G31KT 19/12 A3017 RMK AO1 PK WND 15031/2048 SLP144 60001 T01890122 58006 $,M
DRA,2023-09-02 20:53,-116.0278,36.6206,1009.00,78.00,63.00,59.98,140.00,7.00,0.00,30.07,1014.40,10.00,18.00,BKN,M,M,M,4700.00,M,M,M,M,M,M,M,M,M,M,78.00,KDRA 022053Z AUTO 14007G18KT 10SM BKN047 26/17 A3007 RMK AO2 SLP144 T02560172 55008,M
ELY,2023-09-02 20:53,-114.8453,39.2950,1909.00,73.00,53.00,49.48,170.00,18.00,0.00,30.22,1014.50,10.00,27.00,FEW,M,M,M,3700.00,M,M,M,M,M,M,M,28.00,150.00,2023-09-02 20:43,73.00,KELY 022053Z AUTO 17018G27KT 10SM FEW037 23/12 A3022 RMK AO2 PK WND 15028/2043 SLP145 T02280117 58010,M
VGT,2023-09-02 20:53,-115.1933,36.2111,667.00,81.00,67.00,62.49,280.00,12.00,0.00,30.04,1016.80,10.00,16.00,BKN,OVC,M,M,3600.00,4600.00,M,M,TS,M,M,M,M,M,M,83.43,KVGT 022053Z 28012G16KT 10SM TS BKN036 OVC046 27/19 A3004 RMK AO2 LTG DSNT S AND SW TSB51 SLP168 T02720194 56021 $,M
LOL,2023-09-02 20:53,-118.5701,40.0684,1192.43,73.00,49.00,42.67,0.00,0.00,0.00,30.01,1013.20,10.00,M,BKN,M,M,M,10000.00,M,M,M,M,M,M,M,M,M,M,73.00,KLOL 022053Z AUTO 00000KT 10SM BKN100 23/09 A3001 RMK AO2 SLP132 T02280094 58010,M
NFL,2023-09-02 20:54,-118.7010,39.4166,1199.00,69.80,53.60,56.38,120.00,5.00,T,30.02,M,10.00,M,SCT,BKN,BKN,M,3500.00,5000.00,8000.00,M,TS,M,M,M,M,M,M,69.80,KNFL 022054Z COR 12005KT 10SM TS SCT035 BKN050CB BKN080 21/12 A3002 RMK AO2 RAB13E24B42E50 TSB48 TS E MOV N OCNL LTGICCG VC E P0000,M
BVU,2023-09-02 20:55,-114.8611,35.9475,671.00,84.20,66.20,54.80,130.00,13.00,0.00,30.02,M,10.00,M,CLR,M,M,M,M,M,M,M,M,M,M,M,M,M,M,86.50,KBVU 022055Z AUTO 13013KT 10SM CLR 29/19 A3002 RMK AO2 LTG DSNT NE AND W,M
CXP,2023-09-02 20:55,-119.7326,39.1923,1431.00,64.40,51.80,63.60,330.00,8.00,0.00,30.09,M,10.00,M,BKN,OVC,M,M,6000.00,7000.00,M,M,M,M,M,M,M,M,M,64.40,KCXP 022055Z AUTO 33008KT 10SM BKN060 OVC070 18/11 A3009 RMK AO2,M
RNO,2023-09-02 20:55,-119.7711,39.4839,1341.00,60.00,53.00,77.64,280.00,7.00,0.01,30.09,1015.70,7.00,M,BKN,OVC,M,M,2000.00,3000.00,M,M,-RA,M,M,M,M,M,M,60.00,KRNO 022055Z 28007KT 7SM -RA BKN020 OVC030 16/12 A3009 RMK AO2 SLP157 P0001 60003 T01560117 55002,M
LSV,2023-09-02 20:55,-115.0343,36.2362,570.00,83.00,67.60,59.79,50.00,9.00,0.00,30.00,1013.90,10.00,M,FEW,FEW,M,M,14000.00,18000.00,M,M,M,M,M,M,M,M,M,85.87,KLSV 022055Z 05009KT 10SM FEW140 FEW180 28/20 A3000 RMK AO2A SLP139 T02830198 57021 $,M
RTS,2023-09-02 20:55,-119.8764,39.6682,1539.00,59.00,48.20,67.33,90.00,6.00,0.00,30.11,M,10.00,M,BKN,OVC,M,M,5000.00,6000.00,M,M,M,M,M,M,M,M,M,59.00,KRTS 022055Z AUTO 09006KT 10SM BKN050 OVC060 15/09 A3011 RMK AO2,M
MEV,2023-09-02 20:55,-119.7500,38.9963,1441.42,66.20,48.20,52.25,350.00,11.00,0.00,30.06,M,10.00,M,SCT,BKN,BKN,M,6000.00,7000.00,8000.00,M,-RA,M,M,M,M,M,M,66.20,KMEV 022055Z AUTO 35011KT 10SM -RA SCT060 BKN070 BKN080 19/09 A3006 RMK AO2,M
BAM,2023-09-02 20:55,-116.8743,40.5990,1382.36,68.00,60.80,77.75,60.00,13.00,0.00,30.11,M,10.00,18.00,CLR,M,M,M,M,M,M,M,M,M,M,M,M,M,M,68.00,KBAM 022055Z AUTO 06013G18KT 10SM CLR 20/16 A3011 RMK AO1,M
HTH,2023-09-02 20:55,-118.6315,38.5448,1282.89,69.80,51.80,52.77,290.00,7.00,0.00,30.03,M,10.00,M,M,M,M,M,M,M,M,M,M,M,M,M,M,M,M,69.80,KHTH 022055Z AUTO 29007KT 10SM 21/11 A3003 RMK A01,M
10U,2023-09-02 20:55,-116.1876,41.9532,1637.00,57.20,53.60,87.74,90.00,5.00,0.00,30.22,M,10.00,M,FEW,BKN,M,M,6000.00,8000.00,M,M,-RA,M,M,M,M,M,M,57.20,K10U 022055Z AUTO 09005KT 10SM -RA FEW060 BKN080 14/12 A3022 RMK AO2 LTG DSNT SE,M
TMT,2023-09-02 20:55,-117.1971,39.4643,1749.34,73.80,52.00,46.43,270.00,3.00,0.00,30.09,M,M,M,SCT,SCT,SCT,M,5000.00,7000.00,10000.00,M,VCTS,M,M,M,M,M,M,73.80,KTMT 022055Z AUTO 27003KT VCTS SCT050 SCT070 SCT100 23/11 A3009 RMK AO2 LTG DSNT N T02320112,M
INS,2023-09-02 20:55,-115.6733,36.5872,955.00,75.40,64.40,68.68,80.00,13.00,T,30.08,1014.90,10.00,M,BKN,OVC,M,M,10000.00,12000.00,M,M,-DZ,M,M,M,M,M,M,75.40,KINS 022055Z AUTO 08013KT 10SM -DZ BKN100 OVC120 24/18 A3008 RMK AO2 DZB53 SLP149 P0000 60000 T02410180 55004 $,M
EKO,2023-09-02 20:56,-115.7860,40.8242,1367.00,74.00,57.00,55.34,260.00,17.00,0.00,30.12,1015.40,10.00,31.00,SCT,SCT,BKN,M,5500.00,7000.00,8500.00,M,M,M,M,M,31.00,260.00,2023-09-02 20:51,74.00,KEKO 022056Z AUTO 26017G31KT 10SM SCT055 SCT070 BKN085 23/14 A3012 RMK AO2 PK WND 26031/2051 WSHFT 2041 LTG DSNT N AND NW SLP154 T02330139 55006,M
WMC,2023-09-02 20:56,-117.8072,40.9019,1315.00,76.00,50.00,40.05,10.00,10.00,T,30.04,1013.60,10.00,15.00,FEW,SCT,M,M,9000.00,12000.00,M,M,M,M,M,M,M,M,M,76.00,KWMC 022056Z AUTO 01010G15KT 10SM FEW090 SCT120 24/10 A3004 RMK AO2 RAE00 SLP136 P0000 60000 T02440100 58012,M
HND,2023-09-02 20:56,-115.1344,35.9729,742.79,78.00,64.00,62.12,300.00,13.00,0.00,30.07,1018.00,10.00,M,FEW,OVC,M,M,2800.00,3600.00,M,M,TS,M,M,M,M,M,M,78.00,KHND 022056Z 30013KT 10SM TS FEW028 OVC036 26/18 A3007 RMK AO2 LTG DSNT SW-N TSB19 SLP180 T02560178 56019,M
TPH,2023-09-02 20:56,-117.0904,38.0505,1654.00,75.00,56.00,51.62,170.00,22.00,0.00,30.13,1013.70,10.00,31.00,SCT,M,M,M,3400.00,M,M,M,M,M,M,M,34.00,160.00,2023-09-02 20:42,75.00,KTPH 022056Z AUTO 17022G31KT 10SM SCT034 24/13 A3013 RMK AO2 PK WND 16034/2042 SLP137 T02390133 58006,M
LAS,2023-09-02 20:56,-115.1634,36.0719,663.00,81.00,71.00,71.68,270.00,26.00,0.00,30.04,1015.30,8.00,32.00,SCT,BKN,BKN,M,2500.00,5000.00,12000.00,M,-TSRA SQ,M,M,M,M,M,M,84.91,KLAS 022056Z 27026G32KT 8SM -TSRA SQ SCT025 BKN050CB BKN120 27/22 A3004 RMK AO2 RAB55 TSE19B21 SLP153 OCNL LTGICCC SW-W TS SW-W MOV N 6//// T02720217 58021 PNO $,M
NFL,2023-09-02 20:56,-118.7010,39.4166,1199.00,69.00,54.00,58.80,110.00,5.00,T,30.02,1013.60,10.00,M,SCT,BKN,BKN,M,3500.00,5000.00,8000.00,M,TS,M,M,M,M,M,M,69.00,COR KNFL 022056Z 11005KT 10SM TS SCT035 BKN050CB BKN080 21/12 A3002 RMK AO2 RAB13E24B42E50 TSB48 SLP136 TS E MOV N OCNL LTGICCG VC E P0000 60000 T02060122 56006,M
EKO,2023-09-02 21:03,-115.7860,40.8242,1367.00,71.00,56.00,59.07,270.00,15.00,0.00,30.12,M,10.00,27.00,SCT,BKN,BKN,M,5500.00,7000.00,8500.00,M,M,M,M,M,M,M,M,71.00,KEKO 022103Z AUTO 27015G27KT 10SM SCT055 BKN070 BKN085 22/13 A3012 RMK AO2 WSHFT 2043 LTG DSNT N AND NW T02170133,M
LSV,2023-09-02 21:06,-115.0343,36.2362,570.00,82.40,68.00,61.81,60.00,10.00,0.00,29.99,1013.60,10.00,M,FEW,FEW,M,M,13000.00,18000.00,M,M,-DZ,M,M,M,M,M,M,85.38,KLSV 022106Z 06010KT 10SM -DZ FEW130 FEW180 28/20 A2999 RMK AO2A LTG DSNT N-NE AND S DZB06 SLP136 $,M
HND,2023-09-02 21:09,-115.1344,35.9729,742.79,75.20,62.60,64.91,280.00,12.00,0.00,30.08,M,10.00,M,FEW,BKN,OVC,M,2800.00,3400.00,4500.00,M,TS,M,M,M,M,M,M,75.20,KHND 022109Z 28012KT 10SM TS FEW028 BKN034 OVC045 24/17 A3008 RMK AO2 WSHFT 2049 LTG DSNT W-NE,M
LSV,2023-09-02 21:10,-115.0343,36.2362,570.00,82.40,66.20,58.08,70.00,6.00,0.00,30.00,1013.90,10.00,M,FEW,M,M,M,17000.00,M,M,M,M,M,M,M,M,M,M,84.63,KLSV 022110Z 07006KT 10SM FEW170 28/19 A3000 RMK AO2A LTG DSNT N-NE AND SE-SW DZB06E10 SLP139 $,M
05U,2023-09-02 21:10,-116.0051,39.6042,1811.23,68.00,55.40,64.04,M,M,0.00,30.19,M,10.00,M,FEW,BKN,M,M,7500.00,10000.00,M,M,M,M,M,M,M,M,M,68.00,K05U 022110Z AUTO 10SM FEW075 BKN100 20/13 A3019 RMK A01,M
BVU,2023-09-02 21:15,-114.8611,35.9475,671.00,86.00,66.20,51.72,140.00,13.00,0.00,30.02,M,10.00,19.00,FEW,M,M,M,4400.00,M,M,M,M,M,M,M,M,M,M,88.39,KBVU 022115Z AUTO 14013G19KT 10SM FEW044 30/19 A3002 RMK AO2 LTG DSNT ALQDS,M
CXP,2023-09-02 21:15,-119.7326,39.1923,1431.00,62.60,51.80,67.75,330.00,10.00,0.00,30.09,M,10.00,M,BKN,OVC,M,M,5500.00,7000.00,M,M,M,M,M,M,M,M,M,62.60,KCXP 022115Z AUTO 33010KT 10SM BKN055 OVC070 17/11 A3009 RMK AO2,M
LSV,2023-09-02 21:15,-115.0343,36.2362,570.00,82.40,68.00,61.81,120.00,4.00,0.00,30.01,1014.30,10.00,M,FEW,M,M,M,4100.00,M,M,M,-DZ,M,M,M,M,M,M,85.38,KLSV 022115Z 12004KT 10SM -DZ FEW041 28/20 A3001 RMK AO2A LTG DSNT NW-NE AND SE-SW DZB06E10DZB15 SLP143 $,M
RTS,2023-09-02 21:15,-119.8764,39.6682,1539.00,57.20,51.80,82.12,110.00,5.00,0.00,30.13,M,3.00,M,FEW,FEW,BKN,M,2800.00,3300.00,4900.00,M,-DZ,M,M,M,M,M,M,57.20,KRTS 022115Z AUTO 11005KT 3SM -DZ FEW028 FEW033 BKN049 14/11 A3013 RMK AO2,M
MEV,2023-09-02 21:15,-119.7500,38.9963,1441.42,68.00,48.20,49.10,360.00,13.00,0.00,30.06,M,10.00,M,SCT,BKN,BKN,M,6000.00,7500.00,10000.00,M,M,M,M,M,M,M,M,68.00,KMEV 022115Z AUTO 36013KT 10SM SCT060 BKN075 BKN100 20/09 A3006 RMK AO2,M
BAM,2023-09-02 21:15,-116.8743,40.5990,1382.36,68.00,60.80,77.75,60.00,13.00,0.00,30.10,M,10.00,18.00,SCT,M,M,M,12000.00,M,M,M,M,M,M,M,M,M,M,68.00,KBAM 022115Z AUTO 06013G18KT 10SM SCT120 20/16 A3010 RMK AO1,M
HTH,2023-09-02 21:15,-118.6315,38.5448,1282.89,69.80,55.40,60.21,290.00,12.00,0.00,30.05,M,10.00,M,SCT,M,M,M,10000.00,M,M,M,M,M,M,M,M,M,M,69.80,KHTH 022115Z AUTO 29012KT 10SM SCT100 21/13 A3005 RMK A01,M
TMT,2023-09-02 21:15,-117.1971,39.4643,1749.34,74.30,51.60,44.98,310.00,4.00,0.00,30.08,M,M,M,SCT,SCT,BKN,M,6000.00,7000.00,10000.00,M,M,M,M,M,M,M,M,74.30,KTMT 022115Z AUTO 31004KT SCT060 SCT070 BKN100 24/11 A3008 RMK AO2 LTG DSNT N T02350109 PWINO,M
10U,2023-09-02 21:20,-116.1876,41.9532,1637.00,59.00,53.60,82.25,110.00,5.00,0.00,30.21,M,10.00,M,FEW,SCT,OVC,M,5500.00,7500.00,9500.00,M,M,M,M,M,M,M,M,59.00,K10U 022120Z AUTO 11005KT 10SM FEW055 SCT075 OVC095 15/12 A3021 RMK AO2,M
INS,2023-09-02 21:25,-115.6733,36.5872,955.00,73.40,68.00,83.21,70.00,12.00,0.00,30.07,1014.50,10.00,M,SCT,BKN,OVC,M,5000.00,10000.00,13000.00,M,M,M,M,M,M,M,M,73.40,KINS 022125Z AUTO 07012KT 10SM SCT050 BKN100 OVC130 23/20 A3007 RMK AO2 DZE2057RAB2057E20DZB20E25 SLP145 $,M
WMC,2023-09-02 21:25,-117.8072,40.9019,1315.00,73.00,52.00,47.69,M,M,T,30.05,M,9.00,M,FEW,BKN,OVC,M,5000.00,7000.00,10000.00,M,-TSRA,M,M,M,M,M,M,73.00,KWMC 022125Z AUTO 9SM -TSRA FEW050 BKN070 OVC100 23/11 A3005 RMK AO2 LTG DSNT S RAB20 TSB19 P0000 T02280111,M
LSV,2023-09-02 21:27,-115.0343,36.2362,570.00,80.60,64.40,57.84,210.00,20.00,0.00,30.01,1014.40,8.00,26.00,FEW,M,M,M,3900.00,M,M,M,VCTS,M,M,M,M,M,M,82.27,KLSV 022127Z 21020G26KT 8SM VCTS FEW039 27/18 A3001 RMK AO2A DZB06E10DZB15E17RAB17E27 SLP144 $,M
NFL,2023-09-02 21:27,-118.7010,39.4166,1199.00,69.80,55.40,60.21,140.00,6.00,0.00,30.01,M,10.00,M,SCT,BKN,BKN,M,3100.00,6000.00,9000.00,M,M,M,M,M,M,M,M,69.80,KNFL 022127Z 14006KT 10SM SCT031 BKN060 BKN090 21/13 A3001 RMK TSE21 TS DSPTD CB DSNT NE-SE TO2110128,M
LSV,2023-09-02 21:29,-115.0343,36.2362,570.00,78.80,64.40,61.36,200.00,23.00,0.00,30.01,1014.40,8.00,27.00,FEW,M,M,M,3900.00,M,M,M,VCTS -RA,M,M,M,M,M,M,78.80,KLSV 022129Z 20023G27KT 8SM VCTS -RA FEW039 26/18 A3001 RMK AO2A DZB06E10DZB15E17RAB17E27RAB29 SLP144 $,M
05U,2023-09-02 21:30,-116.0051,39.6042,1811.23,68.00,55.40,64.04,M,M,0.00,30.19,M,8.00,M,BKN,BKN,M,M,8500.00,10000.00,M,M,M,M,M,M,M,M,M,68.00,K05U 022130Z AUTO 8SM BKN085 BKN100 20/13 A3019 RMK A01,M
WMC,2023-09-02 21:33,-117.8072,40.9019,1315.00,64.00,57.00,77.97,280.00,14.00,0.02,30.07,M,1.75,28.00,SCT,OVC,M,M,4600.00,7000.00,M,M,+TSRA,M,M,M,28.00,280.00,2023-09-02 21:31,64.00,KWMC 022133Z AUTO 28014G28KT 260V330 1 3/4SM +TSRA SCT046 OVC070 18/14 A3007 RMK AO2 PK WND 28028/2131 LTG DSNT S RAB20 TSB19 PRESRR P0002 T01780139,M
BVU,2023-09-02 21:35,-114.8611,35.9475,671.00,84.20,66.20,54.80,150.00,13.00,0.00,30.01,M,10.00,20.00,CLR,M,M,M,M,M,M,M,M,M,M,M,M,M,M,86.50,KBVU 022135Z AUTO 15013G20KT 10SM CLR 29/19 A3001 RMK AO2 LTG DSNT NW-E,M
CXP,2023-09-02 21:35,-119.7326,39.1923,1431.00,62.60,51.80,67.75,320.00,12.00,0.00,30.09,M,10.00,M,BKN,OVC,M,M,5500.00,6500.00,M,M,M,M,M,M,M,M,M,62.60,KCXP 022135Z AUTO 32012KT 10SM BKN055 OVC065 17/11 A3009 RMK AO2,M
RTS,2023-09-02 21:35,-119.8764,39.6682,1539.00,57.20,51.80,82.12,90.00,5.00,0.00,30.12,M,5.00,M,FEW,FEW,SCT,M,3000.00,4800.00,6000.00,M,-DZ,M,M,M,M,M,M,57.20,KRTS 022135Z AUTO 09005KT 5SM -DZ FEW030 FEW048 SCT060 14/11 A3012 RMK AO2,M
MEV,2023-09-02 21:35,-119.7500,38.9963,1441.42,68.00,48.20,49.10,340.00,15.00,0.00,30.05,M,10.00,M,SCT,BKN,BKN,M,6000.00,7500.00,10000.00,M,M,M,M,M,M,M,M,68.00,KMEV 022135Z AUTO 34015KT 10SM SCT060 BKN075 BKN100 20/09 A3005 RMK AO2,M
BAM,2023-09-02 21:35,-116.8743,40.5990,1382.36,69.80,60.80,73.09,60.00,16.00,0.00,30.09,M,10.00,19.00,BKN,M,M,M,12000.00,M,M,M,M,M,M,M,M,M,M,69.80,KBAM 022135Z AUTO 06016G19KT 10SM BKN120 21/16 A3009 RMK AO1,M
HTH,2023-09-02 21:35,-118.6315,38.5448,1282.89,66.20,55.40,68.15,20.00,4.00,0.00,30.03,M,6.00,M,FEW,SCT,BKN,M,3000.00,5000.00,7500.00,M,HZ,M,M,M,M,M,M,66.20,KHTH 022135Z AUTO 02004KT 6SM HZ FEW030 SCT050 BKN075 19/13 A3003 RMK A01,M
TMT,2023-09-02 21:35,-117.1971,39.4643,1749.34,75.40,51.30,42.88,280.00,3.00,0.00,30.07,M,M,M,SCT,SCT,M,M,7000.00,9000.00,M,M,M,M,M,M,M,M,M,75.40,KTMT 022135Z AUTO 28003KT SCT070 SCT090 24/11 A3007 RMK AO2 LTG DSNT SW T02410107 PWINO,M
10U,2023-09-02 21:35,-116.1876,41.9532,1637.00,59.00,51.80,76.98,120.00,4.00,0.00,30.20,M,10.00,M,FEW,FEW,BKN,M,5000.00,6000.00,9000.00,M,M,M,M,M,M,M,M,59.00,K10U 022135Z AUTO 12004KT 10SM FEW050 FEW060 BKN090 15/11 A3020 RMK AO2,M
LSV,2023-09-02 21:37,-115.0343,36.2362,570.00,77.00,66.20,69.33,180.00,16.00,0.00,30.02,1014.80,4.00,27.00,SCT,SCT,M,M,3200.00,4100.00,M,M,VCTS +RA,M,M,M,M,M,M,77.00,KLSV 022137Z 18016G27KT 4SM VCTS +RA SCT032 SCT041 25/19 A3002 RMK AO2A DZB06E10DZB15E17RAB17E27RAB29 SLP148 $,M
LSV,2023-09-02 21:39,-115.0343,36.2362,570.00,77.00,64.40,65.12,170.00,15.00,0.00,30.01,1014.50,4.00,M,SCT,SCT,M,M,3200.00,4100.00,M,M,VCTS -RA,M,M,M,M,M,M,77.00,KLSV 022139Z 17015KT 4SM VCTS -RA SCT032 SCT041 25/18 A3001 RMK AO2A VIS 2 1/2V8 DZB06E10DZB15E17RAB17E27RAB29 SLP145 $,M
LSV,2023-09-02 21:40,-115.0343,36.2362,570.00,75.20,64.40,69.14,160.00,14.00,0.00,30.01,1014.50,4.00,M,SCT,BKN,M,M,3200.00,4100.00,M,M,VCTS -RA,M,M,M,M,M,M,75.20,KLSV 022140Z 16014KT 4SM VCTS -RA SCT032 BKN041 24/18 A3001 RMK AO2A WSHFT 26 VIS 2 1/4V8 DZB06E10DZB15E17RAB17E27RAB29 SLP145 $,M
WMC,2023-09-02 21:41,-117.8072,40.9019,1315.00,64.00,58.00,80.83,10.00,12.00,0.09,30.06,M,1.25,25.00,FEW,BKN,OVC,M,3800.00,4600.00,8000.00,M,TSRA,M,M,M,28.00,280.00,2023-09-02 21:31,64.00,KWMC 022141Z AUTO 01012G25KT 1 1/4SM TSRA FEW038 BKN046 OVC080 18/14 A3006 RMK AO2 PK WND 28028/2131 RAB20 TSB19 P0009 T01780144,M
LSV,2023-09-02 21:41,-115.0343,36.2362,570.00,75.20,64.40,69.14,150.00,15.00,0.00,30.01,1014.50,3.00,M,SCT,BKN,M,M,3200.00,4100.00,M,M,VCTS -RA,M,M,M,M,M,M,75.20,KLSV 022141Z 15015KT 3SM VCTS -RA SCT032 BKN041 24/18 A3001 RMK AO2A VIS 1 3/4V7 DZB06E10DZB15E17RAB17E27RAB29 SLP145 $,M
LSV,2023-09-02 21:42,-115.0343,36.2362,570.00,75.20,64.40,69.14,140.00,15.00,0.00,30.01,1014.50,1.50,M,SCT,BKN,M,M,3200.00,3900.00,M,M,VCTS +RA,M,M,M,M,M,M,75.20,KLSV 022142Z 14015KT 1 1/2SM VCTS +RA SCT032 BKN039 24/18 A3001 RMK AO2A VIS 1 1/2V6 DZB06E10DZB15E17RAB17E27RAB29 SLP145 $,M
LSV,2023-09-02 21:43,-115.0343,36.2362,570.00,75.20,64.40,69.14,130.00,13.00,0.00,30.01,1014.50,1.38,M,BKN,BKN,M,M,3000.00,3900.00,M,M,VCTS +RA,M,M,M,M,M,M,75.20,KLSV 022143Z 13013KT 1 3/8SM VCTS +RA BKN030 BKN039 24/18 A3001 RMK AO2A VIS 1 3/8V6 DZB06E10DZB15E17RAB17E27RAB29 SLP145 $,M
WMC,2023-09-02 21:44,-117.8072,40.9019,1315.00,65.00,58.00,78.06,30.00,8.00,0.10,30.06,M,2.00,18.00,SCT,BKN,OVC,M,4000.00,4800.00,8000.00,M,-TSRA,M,M,M,28.00,280.00,2023-09-02 21:31,65.00,KWMC 022144Z AUTO 03008G18KT 2SM -TSRA SCT040 BKN048 OVC080 18/14 A3006 RMK AO2 PK WND 28028/2131 RAB20 TSB19 P0010 T01830144,M
LSV,2023-09-02 21:46,-115.0343,36.2362,570.00,73.40,66.20,78.19,120.00,13.00,0.00,30.01,1014.60,1.25,18.00,BKN,BKN,M,M,3000.00,3900.00,M,M,VCTS +RA,M,M,M,M,M,M,73.40,KLSV 022146Z 12013G18KT 1 1/4SM R21L/6000FT VCTS +RA BKN030 BKN039 23/19 A3001 RMK AO2A VIS 1 1/4V4 DZB06E10DZB15E17RAB17E27RAB29 SLP146 $,M
LSV,2023-09-02 21:47,-115.0343,36.2362,570.00,73.40,66.20,78.19,110.00,14.00,0.00,30.01,1014.60,1.12,18.00,BKN,BKN,M,M,2700.00,3900.00,M,M,VCTS +RA,M,M,M,M,M,M,73.40,KLSV 022147Z 11014G18KT 1 1/8SM R21L/6000FT VCTS +RA BKN027 BKN039 23/19 A3001 RMK AO2A WSHFT 40 VIS 1 1/8V3 DZB06E10DZB15E17RAB17E27RAB29 CIG 027V041 SLP146 $,M
LSV,2023-09-02 21:48,-115.0343,36.2362,570.00,73.40,66.20,78.19,100.00,14.00,0.00,30.01,1014.60,3.00,18.00,BKN,BKN,M,M,2700.00,3900.00,M,M,VCTS +RA,M,M,M,M,M,M,73.40,KLSV 022148Z 10014G18KT 3SM VCTS +RA BKN027 BKN039 23/19 A3001 RMK AO2A VIS 1 1/8V2 1/2 DZB06E10DZB15E17RAB17E27RAB29 CIG 027V041 SLP146 $,M
LSV,2023-09-02 21:49,-115.0343,36.2362,570.00,73.40,66.20,78.19,100.00,16.00,0.00,30.01,1014.60,3.00,M,BKN,BKN,M,M,2700.00,3900.00,M,M,VCTS RA,M,M,M,M,M,M,73.40,KLSV 022149Z 10016KT 3SM VCTS RA BKN027 BKN039 23/19 A3001 RMK AO2A VIS 1 1/8V2 1/4 DZB06E10DZB15E17RAB17E27RAB29 CIG 027V041 SLP146 $,M
WMC,2023-09-02 21:51,-117.8072,40.9019,1315.00,64.40,57.20,77.45,10.00,9.00,0.11,30.05,M,5.00,M,SCT,BKN,OVC,M,4300.00,7000.00,9000.00,M,RA,M,M,M,28.00,280.00,2023-09-02 21:31,64.40,KWMC 022151Z AUTO 01009KT 5SM RA SCT043 BKN070 OVC090 18/14 A3005 RMK AO2 PK WND 28028/2131 RAB20 TSB19E46 P0011,M
LSV,2023-09-02 21:52,-115.0343,36.2362,570.00,71.60,66.20,83.09,100.00,22.00,0.00,30.01,1014.60,4.00,30.00,BKN,BKN,M,M,2700.00,3900.00,M,M,VCTS -RA,M,M,M,M,M,M,71.60,KLSV 022152Z 10022G30KT 4SM VCTS -RA BKN027 BKN039 22/19 A3001 RMK AO2A DZB06E10DZB15E17RAB17E27RAB29 SLP146 $,M
WMC,2023-09-02 21:52,-117.8072,40.9019,1315.00,65.00,58.00,78.06,10.00,8.00,0.11,30.05,1014.50,5.00,M,SCT,BKN,OVC,M,4300.00,6500.00,9000.00,M,RA,M,M,M,28.00,280.00,2023-09-02 21:31,65.00,KWMC 022152Z AUTO 01008KT 5SM RA SCT043 BKN065 OVC090 18/14 A3005 RMK AO2 PK WND 28028/2131 RAB20 TSB19E46 SLP145 P0011 T01830144,M
P68,2023-09-02 21:53,-116.0056,39.6014,1993.00,66.00,55.00,67.64,160.00,22.00,0.00,30.16,1014.30,M,33.00,M,M,M,M,M,M,M,M,M,M,M,M,36.00,150.00,2023-09-02 21:43,66.00,KP68 022153Z AUTO 16022G33KT 19/13 A3016 RMK AO1 PK WND 15036/2143 SLP143 T01890128 $,M
ELY,2023-09-02 21:53,-114.8453,39.2950,1909.00,65.00,55.00,70.03,260.00,12.00,T,30.22,1015.40,7.00,28.00,FEW,SCT,OVC,M,4100.00,7000.00,9000.00,M,-RA,M,M,M,30.00,160.00,2023-09-02 20:58,65.00,KELY 022153Z AUTO 26012G28KT 7SM -RA FEW041 SCT070 OVC090 18/13 A3022 RMK AO2 PK WND 16030/2058 RAB51 SLP154 P0000 T01830128,M
VGT,2023-09-02 21:53,-115.1933,36.2111,667.00,74.00,68.00,81.55,100.00,5.00,0.08,30.04,1017.30,10.00,M,FEW,SCT,OVC,M,1500.00,7000.00,11000.00,M,VCTS -RA,M,M,M,M,M,M,74.00,KVGT 022153Z 10005KT 10SM VCTS -RA FEW015 SCT070 OVC110 23/20 A3004 RMK AO2 LTG DSNT NE-SE RAB2058 TSE41 SLP173 P0008 T02330200 $,M
LSV,2023-09-02 21:53,-115.0343,36.2362,570.00,71.60,66.20,83.09,100.00,22.00,0.00,30.01,1014.60,4.00,30.00,BKN,BKN,M,M,2700.00,3900.00,M,M,-TSRA,M,M,M,M,M,M,71.60,KLSV 022153Z 10022G30KT 4SM -TSRA BKN027 BKN039 22/19 A3001 RMK AO2A DZB06E10DZB15E17RAB17E27RAB29 TSB53 SLP146 $,M
LOL,2023-09-02 21:53,-118.5701,40.0684,1192.43,74.00,52.00,46.11,120.00,11.00,T,30.00,1012.60,10.00,M,FEW,FEW,BKN,M,3400.00,7000.00,10000.00,M,-RA,M,M,M,M,M,M,74.00,KLOL 022153Z AUTO 12011KT 10SM -RA FEW034 FEW070 BKN100 23/11 A3000 RMK AO2 RAB53 SLP126 P0000 T02330111,M
LAS,2023-09-02 21:54,-115.1634,36.0719,663.00,78.80,68.00,69.52,360.00,9.00,0.00,30.04,M,10.00,M,SCT,BKN,M,M,4000.00,8000.00,M,M,M,M,M,M,M,M,M,78.80,KLAS 022154Z 36009KT 10SM SCT040 BKN080 26/20 A3004 RMK AO2 LTG DSNT NE AND E RAE48 TSE48 TS MOV N PNO $,M
BVU,2023-09-02 21:55,-114.8611,35.9475,671.00,84.20,64.40,51.47,150.00,13.00,0.00,30.01,M,10.00,M,CLR,M,M,M,M,M,M,M,M,M,M,M,M,M,M,85.71,KBVU 022155Z AUTO 15013KT 10SM CLR 29/18 A3001 RMK AO2 LTG DSNT N-E,M
CXP,2023-09-02 21:55,-119.7326,39.1923,1431.00,62.60,53.60,72.38,330.00,13.00,0.00,30.08,M,10.00,M,BKN,BKN,BKN,M,5500.00,6500.00,8000.00,M,M,M,M,M,M,M,M,62.60,KCXP 022155Z AUTO 33013KT 10SM BKN055 BKN065 BKN080 17/12 A3008 RMK AO2,M
RNO,2023-09-02 21:55,-119.7711,39.4839,1341.00,59.00,54.00,83.46,290.00,7.00,0.03,30.08,1015.40,9.00,M,SCT,BKN,M,M,2000.00,4000.00,M,M,-RA,M,M,M,26.00,350.00,2023-09-02 21:11,59.00,KRNO 022155Z 29007KT 9SM -RA SCT020 BKN040 15/12 A3008 RMK AO2 PK WND 35026/2111 SLP154 P0003 T01500122,M
LSV,2023-09-02 21:55,-115.0343,36.2362,570.00,72.00,66.20,81.97,100.00,23.00,0.28,30.01,1014.60,4.00,30.00,BKN,BKN,M,M,2700.00,3900.00,M,M,-TSRA,M,M,M,M,M,M,72.00,KLSV 022155Z 10023G30KT 4SM -TSRA BKN027 BKN039 22/19 A3001 RMK AO2A DZB06E10DZB15E17RAB17E27RAB29 TSB53 SLP146 P0028 T02220190 $,M
RTS,2023-09-02 21:55,-119.8764,39.6682,1539.00,57.20,51.80,82.12,0.00,0.00,0.02,30.12,M,4.00,M,SCT,BKN,BKN,M,4800.00,6000.00,7000.00,M,-DZ,M,M,M,M,M,M,57.20,KRTS 022155Z AUTO 00000KT 4SM -DZ SCT048 BKN060 BKN070 14/11 A3012 RMK AO2 P0002,M
05U,2023-09-02 21:55,-116.0051,39.6042,1811.23,66.20,53.60,63.82,M,M,0.00,30.19,M,10.00,M,BKN,OVC,M,M,8500.00,10000.00,M,M,M,M,M,M,M,M,M,66.20,K05U 022155Z AUTO 10SM BKN085 OVC100 19/12 A3019 RMK A01,M
MEV,2023-09-02 21:55,-119.7500,38.9963,1441.42,66.20,50.00,55.88,360.00,14.00,0.00,30.06,M,9.00,M,SCT,BKN,BKN,M,6000.00,7000.00,8500.00,M,-RA,M,M,M,M,M,M,66.20,KMEV 022155Z AUTO 36014KT 9SM -RA SCT060 BKN070 BKN085 19/10 A3006 RMK AO2,M
BAM,2023-09-02 21:55,-116.8743,40.5990,1382.36,68.00,60.80,77.75,70.00,12.00,0.00,30.09,M,10.00,15.00,SCT,M,M,M,12000.00,M,M,M,M,M,M,M,M,M,M,68.00,KBAM 022155Z AUTO 07012G15KT 10SM SCT120 20/16 A3009 RMK AO1,M
HTH,2023-09-02 21:55,-118.6315,38.5448,1282.89,68.00,55.40,64.04,30.00,4.00,0.00,30.03,M,M,M,M,M,M,M,M,M,M,M,M,M,M,M,M,M,M,68.00,KHTH 022155Z AUTO 03004KT 20/13 A3003 RMK A01,M
TMT,2023-09-02 21:55,-117.1971,39.4643,1749.34,74.50,49.30,41.03,0.00,0.00,0.00,30.06,M,M,M,SCT,BKN,M,M,8000.00,9000.00,M,M,M,M,M,M,M,M,M,74.50,KTMT 022155Z AUTO 00000KT SCT080 BKN090 24/10 A3006 RMK AO2 LTG DSNT SE T02360096 PWINO,M
INS,2023-09-02 21:55,-115.6733,36.5872,955.00,76.50,64.00,65.29,60.00,11.00,T,30.06,1014.00,10.00,M,SCT,BKN,M,M,12000.00,15000.00,M,M,M,M,M,M,M,M,M,76.50,KINS 022155Z AUTO 06011KT 10SM SCT120 BKN150 25/18 A3006 RMK AO2 DZE2057RAB2057E20DZB20E25 SLP140 P0000 T02470177 $,M
EKO,2023-09-02 21:56,-115.7860,40.8242,1367.00,73.00,54.00,51.33,280.00,6.00,0.00,30.10,1014.70,10.00,M,FEW,BKN,BKN,M,5500.00,9500.00,12000.00,M,M,M,M,M,M,M,M,73.00,KEKO 022156Z AUTO 28006KT 10SM FEW055 BKN095 BKN120 23/12 A3010 RMK AO2 WSHFT 2043 SLP147 T02280122,M
NFL,2023-09-02 21:56,-118.7010,39.4166,1199.00,73.00,56.00,55.20,80.00,8.00,0.00,30.00,1013.00,10.00,M,SCT,SCT,BKN,M,4500.00,7000.00,14000.00,M,M,M,M,M,M,M,M,73.00,KNFL 022156Z 08008KT 10SM SCT045 SCT070 BKN140 23/13 A3000 RMK AO2 TSE21 SLP130 CB DSNT NE T02280133,M
HND,2023-09-02 21:56,-115.1344,35.9729,742.79,73.00,67.00,81.48,80.00,4.00,0.05,30.07,1018.10,10.00,M,FEW,M,M,M,2900.00,M,M,M,M,M,M,M,M,M,M,73.00,KHND 022156Z 08004KT 10SM FEW029 23/19 A3007 RMK AO2 WSHFT 2049 LTG DSNT N AND NE TSE54RAB20E44 SLP181 P0005 T02280194,M
TPH,2023-09-02 21:56,-117.0904,38.0505,1654.00,76.00,54.00,46.42,180.00,24.00,0.00,30.11,1012.90,10.00,30.00,FEW,M,M,M,4000.00,M,M,M,M,M,M,M,31.00,180.00,2023-09-02 21:39,76.00,KTPH 022156Z AUTO 18024G30KT 10SM FEW040 24/12 A3011 RMK AO2 PK WND 18031/2139 SLP129 T02440122,M
LAS,2023-09-02 21:56,-115.1634,36.0719,663.00,79.00,69.00,71.48,360.00,9.00,0.00,30.04,1015.20,10.00,M,SCT,BKN,M,M,4000.00,8000.00,M,M,M,M,M,M,M,M,M,79.00,KLAS 022156Z 36009KT 10SM SCT040 BKN080 26/20 A3004 RMK AO2 LTG DSNT NE AND E RAE48 TSE48 SLP152 TS MOV N T02610206 PNO $,M
LSV,2023-09-02 21:57,-115.0343,36.2362,570.00,71.60,64.40,78.04,110.00,17.00,0.00,30.02,1014.90,5.00,30.00,SCT,BKN,M,M,2700.00,3800.00,M,M,-TSRA,M,M,M,M,M,M,71.60,KLSV 022157Z 11017G30KT 5SM -TSRA SCT027 BKN038 22/18 A3002 RMK AO2A SLP149 $,M
10U,2023-09-02 22:00,-116.1876,41.9532,1637.00,60.80,53.60,77.14,100.00,4.00,0.00,30.19,M,10.00,M,FEW,BKN,OVC,M,6000.00,8000.00,8500.00,M,M,M,M,M,M,M,M,60.80,K10U 022200Z AUTO 10004KT 10SM FEW060 BKN080 OVC085 16/12 A3019 RMK AO2,M
LSV,2023-09-02 22:00,-115.0343,36.2362,570.00,71.60,64.40,78.04,100.00,13.00,0.00,30.01,1014.60,4.00,30.00,BKN,BKN,M,M,2800.00,3800.00,M,M,-TSRA,M,M,M,M,M,M,71.60,KLSV 022200Z 10013G30KT 4SM -TSRA BKN028 BKN038 22/18 A3001 RMK AO2A CIG 027V038 SLP146 $,M
LSV,2023-09-02 22:05,-115.0343,36.2362,570.00,71.60,66.20,83.09,70.00,11.00,0.00,30.00,1014.20,3.00,M,FEW,BKN,BKN,M,2300.00,3000.00,3800.00,M,TSRA,M,M,M,M,M,M,71.60,KLSV 022205Z 07011KT 3SM TSRA FEW023 BKN030 BKN038 22/19 A3000 RMK AO2A SLP142 $,M
05U,2023-09-02 22:10,-116.0051,39.6042,1811.23,68.00,53.60,59.97,M,M,0.00,30.18,M,10.00,M,BKN,BKN,M,M,9000.00,11000.00,M,M,M,M,M,M,M,M,M,68.00,K05U 022210Z AUTO 10SM BKN090 BKN110 20/12 A3018 RMK A01,M
LSV,2023-09-02 22:11,-115.0343,36.2362,570.00,71.60,66.20,83.09,70.00,9.00,0.00,30.00,1014.20,4.00,M,FEW,BKN,BKN,M,2300.00,3000.00,3800.00,M,-TSRA,M,M,M,M,M,M,71.60,KLSV 022211Z 07009KT 4SM -TSRA FEW023 BKN030 BKN038 22/19 A3000 RMK AO2A SLP142 $,M
WMC,2023-09-02 22:14,-117.8072,40.9019,1315.00,68.00,60.00,75.57,50.00,10.00,0.01,30.05,M,10.00,M,BKN,OVC,M,M,8000.00,9000.00,M,M,VCTS,M,M,M,M,M,M,68.00,KWMC 022214Z AUTO 05010KT 10SM VCTS BKN080 OVC090 20/16 A3005 RMK AO2 RAE11 P0001 T02000156,M
LSV,2023-09-02 22:14,-115.0343,36.2362,570.00,71.60,68.00,88.43,50.00,8.00,0.00,29.99,1013.90,6.00,M,SCT,SCT,M,M,2900.00,3800.00,M,M,-TSRA BR,M,M,M,M,M,M,71.60,KLSV 022214Z 05008KT 6SM -TSRA BR SCT029 SCT038 22/20 A2999 RMK AO2A SLP139 $,M
BVU,2023-09-02 22:15,-114.8611,35.9475,671.00,78.80,66.20,65.33,330.00,21.00,0.00,30.00,M,10.00,M,SCT,SCT,M,M,5000.00,7000.00,M,M,M,M,M,M,M,M,M,78.80,KBVU 022215Z AUTO 33021KT 10SM SCT050 SCT070 26/19 A3000 RMK AO2 LTG DSNT N-E,M
CXP,2023-09-02 22:15,-119.7326,39.1923,1431.00,62.60,53.60,72.38,320.00,14.00,0.00,30.08,M,10.00,M,FEW,BKN,BKN,M,6000.00,7000.00,8500.00,M,M,M,M,M,M,M,M,62.60,KCXP 022215Z AUTO 32014KT 10SM FEW060 BKN070 BKN085 17/12 A3008 RMK AO2,M
RTS,2023-09-02 22:15,-119.8764,39.6682,1539.00,57.20,51.80,82.12,350.00,4.00,0.00,30.11,M,10.00,M,FEW,BKN,BKN,M,4800.00,6000.00,7000.00,M,M,M,M,M,M,M,M,57.20,KRTS 022215Z AUTO 35004KT 10SM FEW048 BKN060 BKN070 14/11 A3011 RMK AO2,M
MEV,2023-09-02 22:15,-119.7500,38.9963,1441.42,66.20,50.00,55.88,360.00,14.00,0.00,30.05,M,10.00,M,SCT,SCT,BKN,M,5500.00,6500.00,8500.00,M,M,M,M,M,M,M,M,66.20,KMEV 022215Z AUTO 36014KT 10SM SCT055 SCT065 BKN085 19/10 A3005 RMK AO2,M
BAM,2023-09-02 22:15,-116.8743,40.5990,1382.36,68.00,59.00,72.92,60.00,12.00,0.00,30.08,M,10.00,M,SCT,BKN,M,M,10000.00,12000.00,M,M,M,M,M,M,M,M,M,68.00,KBAM 022215Z AUTO 06012KT 10SM SCT100 BKN120 20/15 A3008 RMK AO1,M
HTH,2023-09-02 22:15,-118.6315,38.5448,1282.89,69.80,55.40,60.21,M,3.00,0.00,30.00,M,10.00,M,M,M,M,M,M,M,M,M,M,M,M,M,M,M,M,69.80,KHTH 022215Z AUTO VRB03KT 10SM 21/13 A3000 RMK A01,M
10U,2023-09-02 22:15,-116.1876,41.9532,1637.00,62.60,53.60,72.38,100.00,6.00,0.00,30.18,M,10.00,M,BKN,BKN,OVC,M,7500.00,9000.00,11000.00,M,M,M,M,M,M,M,M,62.60,K10U 022215Z AUTO 10006KT 10SM BKN075 BKN090 OVC110 17/12 A3018 RMK AO2,M
TMT,2023-09-02 22:15,-117.1971,39.4643,1749.34,74.50,50.40,42.74,250.00,7.00,0.00,30.06,M,M,M,SCT,BKN,OVC,M,6500.00,7500.00,8500.00,M,M,M,M,M,M,M,M,74.50,KTMT 022215Z AUTO 25007KT SCT065 BKN075 OVC085 24/10 A3006 RMK AO2 T02360102 PWINO,M
VGT,2023-09-02 22:17,-115.1933,36.2111,667.00,75.00,66.00,73.59,80.00,5.00,T,30.02,M,10.00,M,FEW,SCT,SCT,M,2700.00,9500.00,12000.00,M,M,M,M,M,M,M,M,75.00,KVGT 022217Z 08005KT 10SM FEW027 SCT095 SCT120 24/19 A3002 RMK AO2 LTG DSNT NE-SE RAE14 P0000 T02390189 $,M
LSV,2023-09-02 22:18,-115.0343,36.2362,570.00,71.60,71.60,100.00,60.00,11.00,0.00,29.99,1013.90,10.00,M,SCT,SCT,M,M,3200.00,20000.00,M,M,VCTS -RA,M,M,M,M,M,M,71.60,KLSV 022218Z 06011KT 10SM VCTS -RA SCT032 SCT200 22/22 A2999 RMK AO2A TSE18 SLP139 $,M
LSV,2023-09-02 22:20,-115.0343,36.2362,570.00,71.60,71.60,100.00,60.00,10.00,0.00,29.98,1013.60,10.00,M,FEW,SCT,M,M,3300.00,20000.00,M,M,VCTS,M,M,M,M,M,M,71.60,KLSV 022220Z 06010KT 10SM VCTS FEW033 SCT200 22/22 A2998 RMK AO2A RAE20 TSE18 SLP136 $,M
ELY,2023-09-02 22:21,-114.8453,39.2950,1909.00,60.00,56.00,86.61,260.00,12.00,0.03,30.24,M,2.50,20.00,SCT,BKN,OVC,M,3400.00,4700.00,7000.00,M,-RA BR,M,M,M,M,M,M,60.00,KELY 022221Z AUTO 26012G20KT 2 1/2SM -RA BR SCT034 BKN047 OVC070 16/13 A3024 RMK AO2 P0003 T01560133,M
ELY,2023-09-02 22:28,-114.8453,39.2950,1909.00,60.00,55.00,83.53,260.00,12.00,0.03,30.24,M,4.00,26.00,FEW,BKN,OVC,M,2900.00,4300.00,6000.00,M,-RA,M,M,M,26.00,260.00,2023-09-02 22:25,60.00,KELY 022228Z AUTO 26012G26KT 4SM -RA FEW029 BKN043 OVC060 16/13 A3024 RMK AO2 PK WND 26026/2225 P0003 T01560128,M
WMC,2023-09-02 22:29,-117.8072,40.9019,1315.00,67.00,59.00,75.48,50.00,9.00,0.01,30.05,M,10.00,M,BKN,OVC,M,M,8000.00,9500.00,M,M,M,M,M,M,M,M,M,67.00,KWMC 022229Z AUTO 05009KT 10SM BKN080 OVC095 19/15 A3005 RMK AO2 RAE11 P0001 T01940150,M
05U,2023-09-02 22:30,-116.0051,39.6042,1811.23,68.00,53.60,59.97,M,M,0.00,30.19,M,10.00,M,SCT,M,M,M,10000.00,M,M,M,M,M,M,M,M,M,M,68.00,K05U 022230Z AUTO 10SM SCT100 20/12 A3019 RMK A01,M
BVU,2023-09-02 22:35,-114.8611,35.9475,671.00,80.60,64.40,57.84,350.00,13.00,0.00,30.00,M,10.00,M,SCT,SCT,SCT,M,5000.00,6000.00,7000.00,M,M,M,M,M,M,M,M,82.27,KBVU 022235Z AUTO 35013KT 10SM SCT050 SCT060 SCT070 27/18 A3000 RMK AO2 LTG DSNT N AND W,M
CXP,2023-09-02 22:35,-119.7326,39.1923,1431.00,62.60,53.60,72.38,330.00,12.00,0.00,30.08,M,10.00,M,FEW,SCT,BKN,M,5500.00,7000.00,8500.00,M,M,M,M,M,M,M,M,62.60,KCXP 022235Z AUTO 33012KT 10SM FEW055 SCT070 BKN085 17/12 A3008 RMK AO2,M
RTS,2023-09-02 22:35,-119.8764,39.6682,1539.00,59.00,51.80,76.98,0.00,0.00,0.00,30.11,M,10.00,M,SCT,SCT,BKN,M,6500.00,7500.00,9500.00,M,M,M,M,M,M,M,M,59.00,KRTS 022235Z AUTO 00000KT 10SM SCT065 SCT075 BKN095 15/11 A3011 RMK AO2,M
MEV,2023-09-02 22:35,-119.7500,38.9963,1441.42,66.20,50.00,55.88,350.00,15.00,0.00,30.05,M,10.00,M,FEW,SCT,BKN,M,5000.00,6500.00,8500.00,M,M,M,M,M,M,M,M,66.20,KMEV 022235Z AUTO 35015KT 10SM FEW050 SCT065 BKN085 19/10 A3005 RMK AO2,M
BAM,2023-09-02 22:35,-116.8743,40.5990,1382.36,69.80,59.00,68.55,50.00,12.00,0.00,30.08,M,10.00,M,SCT,SCT,OVC,M,2700.00,4700.00,9000.00,M,M,M,M,M,M,M,M,69.80,KBAM 022235Z AUTO 05012KT 10SM SCT027 SCT047 OVC090 21/15 A3008 RMK AO1,M
HTH,2023-09-02 22:35,-118.6315,38.5448,1282.89,71.60,55.40,56.63,110.00,7.00,0.00,30.01,M,10.00,M,CLR,M,M,M,M,M,M,M,M,M,M,M,M,M,M,71.60,KHTH 022235Z AUTO 11007KT 10SM CLR 22/13 A3001 RMK A01,M
10U,2023-09-02 22:35,-116.1876,41.9532,1637.00,62.60,53.60,72.38,100.00,8.00,0.00,30.17,M,10.00,M,SCT,BKN,M,M,7500.00,10000.00,M,M,M,M,M,M,M,M,M,62.60,K10U 022235Z AUTO 10008KT 10SM SCT075 BKN100 17/12 A3017 RMK AO2,M
TMT,2023-09-02 22:35,-117.1971,39.4643,1749.34,71.40,55.60,57.43,310.00,19.00,0.00,30.07,M,M,23.00,BKN,OVC,M,M,6500.00,9000.00,M,M,M,M,M,M,M,M,M,71.40,KTMT 022235Z AUTO 31019G23KT BKN065 OVC090 22/13 A3007 RMK AO2 LTG DSNT N T02190131 PWINO,M
ELY,2023-09-02 22:39,-114.8453,39.2950,1909.00,58.00,54.00,86.51,260.00,13.00,0.05,30.24,M,1.75,28.00,SCT,BKN,OVC,M,2900.00,5000.00,6000.00,M,+RA BR,M,M,M,28.00,240.00,2023-09-02 22:31,58.00,KELY 022239Z AUTO 26013G28KT 1 3/4SM +RA BR SCT029 BKN050 OVC060 14/12 A3024 RMK AO2 PK WND 24028/2231 P0005 T01440122,M
ELY,2023-09-02 22:50,-114.8453,39.2950,1909.00,57.20,53.60,87.74,M,4.00,0.12,30.24,M,3.00,M,FEW,BKN,OVC,M,2900.00,6000.00,8000.00,M,RA BR,M,M,M,28.00,240.00,2023-09-02 22:31,57.20,KELY 022250Z AUTO VRB04KT 3SM RA BR FEW029 BKN060 OVC080 14/12 A3024 RMK AO2 PK WND 24028/2231 P0012,M
05U,2023-09-02 22:50,-116.0051,39.6042,1811.23,66.20,55.40,68.15,M,M,0.00,30.18,M,10.00,M,BKN,BKN,M,M,9500.00,11000.00,M,M,M,M,M,M,M,M,M,66.20,K05U 022250Z AUTO 10SM BKN095 BKN110 19/13 A3018 RMK A01,M
P68,2023-09-02 22:53,-116.0056,39.6014,1993.00,68.00,55.00,63.12,150.00,18.00,0.00,30.15,1014.00,M,29.00,M,M,M,M,M,M,M,M,M,M,M,M,30.00,160.00,2023-09-02 21:59,68.00,KP68 022253Z AUTO 15018G29KT 20/13 A3015 RMK AO1 PK WND 16030/2159 SLP140 T02000128 $,M
DRA,2023-09-02 22:53,-116.0278,36.6206,1009.00,83.00,59.00,44.20,180.00,12.00,0.00,30.03,1012.70,10.00,20.00,FEW,M,M,M,5500.00,M,M,M,M,M,M,M,M,M,M,82.94,KDRA 022253Z AUTO 18012G20KT 10SM FEW055 28/15 A3003 RMK AO2 SLP127 T02830150,M
ELY,2023-09-02 22:53,-114.8453,39.2950,1909.00,59.00,55.00,86.56,290.00,5.00,0.13,30.24,1016.80,4.00,M,FEW,BKN,OVC,M,2900.00,6000.00,8000.00,M,-RA BR,M,M,M,28.00,240.00,2023-09-02 22:31,59.00,KELY 022253Z AUTO 29005KT 4SM -RA BR FEW029 BKN060 OVC080 15/13 A3024 RMK AO2 PK WND 24028/2231 SLP168 P0013 T01500128,M
VGT,2023-09-02 22:53,-115.1933,36.2111,667.00,77.00,68.00,73.78,70.00,7.00,T,30.02,1016.50,10.00,M,FEW,M,M,M,7500.00,M,M,M,M,M,M,M,M,M,M,77.00,KVGT 022253Z 07007KT 10SM FEW075 25/20 A3002 RMK AO2 LTG DSNT NE AND S AND SW RAE14 SLP165 P0000 T02500200 $,M
LOL,2023-09-02 22:53,-118.5701,40.0684,1192.43,75.00,53.00,46.27,110.00,11.00,T,29.99,1012.50,10.00,M,CLR,M,M,M,M,M,M,M,M,M,M,M,M,M,M,75.00,KLOL 022253Z AUTO 11011KT 10SM CLR 24/12 A2999 RMK AO2 RAE04 SLP125 P0000 T02390117,M
BVU,2023-09-02 22:55,-114.8611,35.9475,671.00,80.60,66.20,61.58,340.00,13.00,0.00,29.99,M,10.00,M,FEW,SCT,SCT,M,4800.00,5500.00,7000.00,M,M,M,M,M,M,M,M,82.75,KBVU 022255Z AUTO 34013KT 10SM FEW048 SCT055 SCT070 27/19 A2999 RMK AO2 LTG DSNT SE AND W,M
CXP,2023-09-02 22:55,-119.7326,39.1923,1431.00,62.60,53.60,72.38,330.00,14.00,0.00,30.07,M,10.00,M,FEW,SCT,BKN,M,6000.00,9000.00,11000.00,M,M,M,M,M,M,M,M,62.60,KCXP 022255Z AUTO 33014KT 10SM FEW060 SCT090 BKN110 17/12 A3007 RMK AO2,M
RNO,2023-09-02 22:55,-119.7711,39.4839,1341.00,61.00,54.00,77.72,0.00,0.00,0.03,30.07,1015.00,10.00,M,FEW,BKN,BKN,M,3000.00,4500.00,7500.00,M,-RA,M,M,M,M,M,M,61.00,KRNO 022255Z 00000KT 10SM -RA FEW030 BKN045 BKN075 16/12 A3007 RMK AO2 SLP150 P0003 T01610122,M
RTS,2023-09-02 22:55,-119.8764,39.6682,1539.00,60.80,51.80,72.20,0.00,0.00,0.00,30.11,M,10.00,M,FEW,SCT,BKN,M,6500.00,7500.00,9500.00,M,M,M,M,M,M,M,M,60.80,KRTS 022255Z AUTO 00000KT 10SM FEW065 SCT075 BKN095 16/11 A3011 RMK AO2,M
MEV,2023-09-02 22:55,-119.7500,38.9963,1441.42,66.20,50.00,55.88,350.00,15.00,0.00,30.04,M,10.00,M,SCT,SCT,BKN,M,5500.00,7000.00,8500.00,M,M,M,M,M,M,M,M,66.20,KMEV 022255Z AUTO 35015KT 10SM SCT055 SCT070 BKN085 19/10 A3004 RMK AO2,M
HTH,2023-09-02 22:55,-118.6315,38.5448,1282.89,68.00,60.80,77.75,140.00,9.00,0.00,30.01,M,5.00,17.00,FEW,FEW,M,M,7000.00,11000.00,M,M,HZ,M,M,M,M,M,M,68.00,KHTH 022255Z AUTO 14009G17KT 5SM HZ FEW070 FEW110 20/16 A3001 RMK A01,M
BAM,2023-09-02 22:55,-116.8743,40.5990,1382.36,68.00,59.00,72.92,40.00,9.00,0.00,30.06,M,10.00,M,SCT,OVC,M,M,7500.00,8500.00,M,M,M,M,M,M,M,M,M,68.00,KBAM 022255Z AUTO 04009KT 10SM SCT075 OVC085 20/15 A3006 RMK AO1,M
10U,2023-09-02 22:55,-116.1876,41.9532,1637.00,62.60,53.60,72.38,120.00,9.00,0.00,30.16,M,10.00,M,FEW,OVC,M,M,7500.00,10000.00,M,M,M,M,M,M,M,M,M,62.60,K10U 022255Z AUTO 12009KT 10SM FEW075 OVC100 17/12 A3016 RMK AO2,M
INS,2023-09-02 22:55,-115.6733,36.5872,955.00,79.50,63.00,57.09,80.00,15.00,0.00,30.03,1013.00,10.00,M,CLR,M,M,M,M,M,M,M,M,M,M,M,M,M,M,79.50,KINS 022255Z AUTO 08015KT 10SM CLR 26/17 A3003 RMK AO2 SLP130 T02640172 $,M
LSV,2023-09-02 22:55,-115.0343,36.2362,570.00,76.50,76.00,98.35,20.00,8.00,0.08,29.99,1013.80,10.00,M,CLR,M,M,M,M,M,M,M,M,M,M,M,M,M,M,76.50,KLSV 022255Z AUTO 02008KT 10SM CLR 25/25 A2999 RMK AO2 RAE20 TSE18 SLP138 P0008 T02470245 $,M
EKO,2023-09-02 22:56,-115.7860,40.8242,1367.00,70.00,57.00,63.37,230.00,6.00,0.00,30.09,1014.80,10.00,M,CLR,M,M,M,M,M,M,M,M,M,M,M,M,M,M,70.00,KEKO 022256Z AUTO 23006KT 10SM CLR 21/14 A3009 RMK AO2 SLP148 T02110139,M
WMC,2023-09-02 22:56,-117.8072,40.9019,1315.00,68.00,58.00,70.35,0.00,0.00,0.01,30.06,1014.90,10.00,M,FEW,BKN,OVC,M,6000.00,8000.00,10000.00,M,-RA,M,M,M,M,M,M,68.00,KWMC 022256Z AUTO 00000KT 10SM -RA FEW060 BKN080 OVC100 20/14 A3006 RMK AO2 LTG DSNT S RAE11B41 SLP149 P0001 T02000144,M
HND,2023-09-02 22:56,-115.1344,35.9729,742.79,75.00,66.00,73.59,10.00,6.00,0.00,30.06,1017.80,10.00,M,SCT,BKN,BKN,M,6500.00,8500.00,10000.00,M,M,M,M,M,M,M,M,75.00,KHND 022256Z 01006KT 10SM SCT065 BKN085 BKN100 24/19 A3006 RMK AO2 LTG DSNT NE AND SW SLP178 T02390189,M
TPH,2023-09-02 22:56,-117.0904,38.0505,1654.00,76.00,53.00,44.75,180.00,19.00,0.00,30.11,1012.90,10.00,29.00,FEW,M,M,M,4400.00,M,M,M,M,M,M,M,35.00,170.00,2023-09-02 22:46,76.00,KTPH 022256Z AUTO 18019G29KT 10SM FEW044 24/12 A3011 RMK AO2 PK WND 17035/2246 SLP129 T02440117,M
LAS,2023-09-02 22:56,-115.1634,36.0719,663.00,78.00,67.00,68.96,30.00,6.00,0.00,30.03,1015.10,10.00,M,FEW,BKN,BKN,M,4000.00,8000.00,20000.00,M,M,M,M,M,M,M,M,78.00,KLAS 022256Z 03006KT 10SM FEW040TCU BKN080 BKN200 25/19 A3003 RMK AO2 LTG DSNT NE AND SW SLP151 TCU VC E AND DSNT SE SH DSNT SW T02560194 PNO $,M
NFL,2023-09-02 22:56,-118.7010,39.4166,1199.00,74.00,55.00,51.47,100.00,5.00,0.00,29.99,1012.60,10.00,M,BKN,M,M,M,11000.00,M,M,M,M,M,M,M,M,M,M,74.00,KNFL 022256Z AUTO 10005KT 10SM BKN110 23/13 A2999 RMK AO2 SLP126 T02330128,M
BVU,2023-09-02 23:15,-114.8611,35.9475,671.00,80.60,66.20,61.58,310.00,11.00,0.00,30.00,M,10.00,19.00,SCT,SCT,M,M,5000.00,9500.00,M,M,M,M,M,M,M,M,M,82.75,KBVU 022315Z AUTO 31011G19KT 10SM SCT050 SCT095 27/19 A3000 RMK AO2 LTG DSNT E AND SW AND W,M
CXP,2023-09-02 23:15,-119.7326,39.1923,1431.00,64.40,53.60,67.95,330.00,14.00,0.00,30.07,M,10.00,M,SCT,BKN,BKN,M,7000.00,8000.00,9500.00,M,M,M,M,M,M,M,M,64.40,KCXP 022315Z AUTO 33014KT 10SM SCT070 BKN080 BKN095 18/12 A3007 RMK AO2,M
RTS,2023-09-02 23:15,-119.8764,39.6682,1539.00,59.00,51.80,76.98,0.00,0.00,0.00,30.10,M,10.00,M,FEW,BKN,M,M,6500.00,9500.00,M,M,M,M,M,M,M,M,M,59.00,KRTS 022315Z AUTO 00000KT 10SM FEW065 BKN095 15/11 A3010 RMK AO2,M
05U,2023-09-02 23:15,-116.0051,39.6042,1811.23,69.80,53.60,56.38,M,M,0.00,30.17,M,10.00,M,SCT,BKN,M,M,10000.00,12000.00,M,M,M,M,M,M,M,M,M,69.80,K05U 022315Z AUTO 10SM SCT100 BKN120 21/12 A3017 RMK A01,M
MEV,2023-09-02 23:15,-119.7500,38.9963,1441.42,66.20,50.00,55.88,350.00,15.00,0.00,30.04,M,10.00,M,SCT,SCT,SCT,M,5500.00,7000.00,8000.00,M,M,M,M,M,M,M,M,66.20,KMEV 022315Z AUTO 35015KT 10SM SCT055 SCT070 SCT080 19/10 A3004 RMK AO2,M
BAM,2023-09-02 23:15,-116.8743,40.5990,1382.36,68.00,59.00,72.92,30.00,10.00,0.00,30.04,M,10.00,M,BKN,OVC,M,M,6500.00,8500.00,M,M,M,M,M,M,M,M,M,68.00,KBAM 022315Z AUTO 03010KT 10SM BKN065 OVC085 20/15 A3004 RMK AO1,M
HTH,2023-09-02 23:15,-118.6315,38.5448,1282.89,71.60,57.20,60.44,110.00,8.00,0.00,30.00,M,10.00,M,CLR,M,M,M,M,M,M,M,M,M,M,M,M,M,M,71.60,KHTH 022315Z AUTO 11008KT 10SM CLR 22/14 A3000 RMK A01,M
TMT,2023-09-02 23:15,-117.1971,39.4643,1749.34,65.00,54.00,67.52,290.00,12.00,0.00,30.10,M,M,M,SCT,SCT,BKN,M,3700.00,7000.00,10000.00,M,M,M,M,M,M,M,M,65.00,KTMT 022315Z AUTO 29012KT SCT037 SCT070 BKN100 18/12 A3010 RMK AO2 LTG DSNT N T01830122 PWINO,M
HND,2023-09-02 23:17,-115.1344,35.9729,742.79,75.20,64.40,69.14,0.00,0.00,0.00,30.06,M,10.00,M,FEW,M,M,M,6500.00,M,M,M,VCTS,M,M,M,M,M,M,75.20,KHND 022317Z 00000KT 10SM VCTS FEW065 24/18 A3006 RMK AO2 LTG DSNT SW TSB11,M
10U,2023-09-02 23:20,-116.1876,41.9532,1637.00,62.60,53.60,72.38,110.00,9.00,0.00,30.14,M,10.00,M,FEW,SCT,OVC,M,4400.00,5500.00,9000.00,M,M,M,M,M,M,M,M,62.60,K10U 022320Z AUTO 11009KT 10SM FEW044 SCT055 OVC090 17/12 A3014 RMK AO2,M
05U,2023-09-02 23:30,-116.0051,39.6042,1811.23,69.80,55.40,60.21,M,M,0.00,30.17,M,10.00,M,SCT,M,M,M,12000.00,M,M,M,M,M,M,M,M,M,M,69.80,K05U 022330Z AUTO 10SM SCT120 21/13 A3017 RMK A01,M
WMC,2023-09-02 23:31,-117.8072,40.9019,1315.00,67.00,59.00,75.48,50.00,6.00,0.02,30.06,M,10.00,M,OVC,M,M,M,8500.00,M,M,M,VCTS -RA,M,M,M,M,M,M,67.00,KWMC 022331Z AUTO 05006KT 10SM VCTS -RA OVC085 19/15 A3006 RMK AO2 LTG DSNT SE P0002 T01940150,M
BVU,2023-09-02 23:35,-114.8611,35.9475,671.00,80.60,66.20,61.58,M,4.00,0.00,30.01,M,10.00,10.00,BKN,BKN,OVC,M,5000.00,6000.00,8000.00,M,M,M,M,M,M,M,M,82.75,KBVU 022335Z AUTO VRB04G10KT 10SM BKN050 BKN060 OVC080 27/19 A3001 RMK AO2 LTG DSNT NE AND E AND SW,M
CXP,2023-09-02 23:35,-119.7326,39.1923,1431.00,62.60,53.60,72.38,330.00,12.00,0.00,30.06,M,10.00,M,SCT,OVC,M,M,7000.00,8500.00,M,M,M,M,M,M,M,M,M,62.60,KCXP 022335Z AUTO 33012KT 10SM SCT070 OVC085 17/12 A3006 RMK AO2,M
RTS,2023-09-02 23:35,-119.8764,39.6682,1539.00,59.00,51.80,76.98,110.00,4.00,0.00,30.10,M,10.00,M,BKN,BKN,M,M,8000.00,9000.00,M,M,M,M,M,M,M,M,M,59.00,KRTS 022335Z AUTO 11004KT 10SM BKN080 BKN090 15/11 A3010 RMK AO2,M
MEV,2023-09-02 23:35,-119.7500,38.9963,1441.42,64.40,51.80,63.60,340.00,12.00,0.00,30.04,M,10.00,M,SCT,SCT,M,M,5000.00,7000.00,M,M,M,M,M,M,M,M,M,64.40,KMEV 022335Z AUTO 34012KT 10SM SCT050 SCT070 18/11 A3004 RMK AO2,M
BAM,2023-09-02 23:35,-116.8743,40.5990,1382.36,68.00,60.80,77.75,330.00,13.00,0.00,30.04,M,10.00,16.00,SCT,BKN,OVC,M,4800.00,5500.00,7500.00,M,M,M,M,M,M,M,M,68.00,KBAM 022335Z AUTO 33013G16KT 10SM SCT048 BKN055 OVC075 20/16 A3004 RMK AO1,M
HTH,2023-09-02 23:35,-118.6315,38.5448,1282.89,73.40,53.60,49.90,M,4.00,0.00,30.00,M,10.00,M,CLR,M,M,M,M,M,M,M,M,M,M,M,M,M,M,73.40,KHTH 022335Z AUTO VRB04KT 10SM CLR 23/12 A3000 RMK A01,M
TMT,2023-09-02 23:35,-117.1971,39.4643,1749.34,64.60,54.50,69.73,300.00,8.00,0.00,30.13,M,M,M,SCT,BKN,OVC,M,4800.00,6000.00,9500.00,M,M,M,M,M,M,M,M,64.60,KTMT 022335Z AUTO 30008KT SCT048 BKN060 OVC095 18/13 A3013 RMK AO2 T01810125 PWINO,M
10U,2023-09-02 23:40,-116.1876,41.9532,1637.00,66.20,53.60,63.82,120.00,9.00,0.00,30.15,M,10.00,14.00,FEW,BKN,OVC,M,5500.00,8500.00,11000.00,M,M,M,M,M,M,M,M,66.20,K10U 022340Z AUTO 12009G14KT 10SM FEW055 BKN085 OVC110 19/12 A3015 RMK AO2,M
05U,2023-09-02 23:50,-116.0051,39.6042,1811.23,68.00,55.40,64.04,M,M,0.00,30.16,M,10.00,M,FEW,M,M,M,12000.00,M,M,M,M,M,M,M,M,M,M,68.00,K05U 022350Z AUTO 10SM FEW120 20/13 A3016 RMK A01,M
WMC,2023-09-02 23:51,-117.8072,40.9019,1315.00,64.40,60.80,88.09,120.00,8.00,0.02,30.06,M,10.00,M,OVC,M,M,M,9500.00,M,M,M,-RA,M,M,M,M,M,M,64.40,KWMC 022351Z AUTO 12008KT 10SM -RA OVC095 18/16 A3006 RMK AO2 LTG DSNT E AND SE P0002,M
P68,2023-09-02 23:53,-116.0056,39.6014,1993.00,67.00,55.00,65.33,140.00,21.00,0.00,30.13,1013.50,M,28.00,M,M,M,M,M,M,M,M,M,M,M,M,32.00,160.00,2023-09-02 23:05,67.00,KP68 022353Z AUTO 14021G28KT 19/13 A3013 RMK AO1 PK WND 16032/2305 SLP135 60001 T01940128 10206 20172 58011 $,M
DRA,2023-09-02 23:53,-116.0278,36.6206,1009.00,82.00,61.00,49.03,210.00,10.00,0.00,30.03,1012.60,10.00,M,FEW,M,M,M,8000.00,M,M,M,M,M,M,M,M,M,M,82.62,KDRA 022353Z AUTO 21010KT 10SM FEW080 28/16 A3003 RMK AO2 SLP126 T02780161 10289 20239 56013,M
ELY,2023-09-02 23:53,-114.8453,39.2950,1909.00,60.00,54.00,80.53,110.00,7.00,0.02,30.24,1016.50,9.00,M,FEW,OVC,M,M,4900.00,7000.00,M,M,-RA,M,M,M,M,M,M,60.00,KELY 022353Z AUTO 11007KT 9SM -RA FEW049 OVC070 16/12 A3024 RMK AO2 RAE05B22 SLP165 P0002 60015 T01560122 10228 20144 52004,M
VGT,2023-09-02 23:53,-115.1933,36.2111,667.00,77.00,67.00,71.28,220.00,3.00,0.00,30.02,1016.40,10.00,M,CLR,M,M,M,M,M,M,M,M,M,M,M,M,M,M,77.00,KVGT 022353Z 22003KT 10SM CLR 25/19 A3002 RMK AO2 LTG DSNT S AND SW SLP164 60008 T02500194 10278 20228 58006 $,M
LOL,2023-09-02 23:53,-118.5701,40.0684,1192.43,75.00,50.00,41.41,110.00,9.00,0.00,29.99,1012.40,10.00,M,FEW,M,M,M,11000.00,M,M,M,M,M,M,M,M,M,M,75.00,KLOL 022353Z AUTO 11009KT 10SM FEW110 24/10 A2999 RMK AO2 SLP124 60000 T02390100 10250 20206 56007,M
BVU,2023-09-02 23:55,-114.8611,35.9475,671.00,78.80,66.20,65.33,10.00,12.00,0.00,30.00,M,10.00,M,BKN,BKN,OVC,M,5000.00,6500.00,8000.00,M,M,M,M,M,M,M,M,78.80,KBVU 022355Z AUTO 01012KT 10SM BKN050 BKN065 OVC080 26/19 A3000 RMK AO2 LTG DSNT SW AND W,M
CXP,2023-09-02 23:55,-119.7326,39.1923,1431.00,62.60,53.60,72.38,320.00,11.00,0.00,30.07,M,10.00,M,FEW,BKN,M,M,7500.00,8500.00,M,M,M,M,M,M,M,M,M,62.60,KCXP 022355Z AUTO 32011KT 10SM FEW075 BKN085 17/12 A3007 RMK AO2,M
RNO,2023-09-02 23:55,-119.7711,39.4839,1341.00,63.00,55.00,75.11,0.00,0.00,T,30.06,1014.70,10.00,M,SCT,BKN,BKN,M,5000.00,7500.00,11000.00,M,M,M,M,M,M,M,M,63.00,KRNO 022355Z 00000KT 10SM SCT050 BKN075 BKN110 17/13 A3006 RMK AO2 RAE2258 SLP147 P0000 60009 T01720128 10189 20150 56007,M
RTS,2023-09-02 23:55,-119.8764,39.6682,1539.00,60.80,51.80,72.20,160.00,3.00,0.00,30.10,M,10.00,M,SCT,SCT,BKN,M,7500.00,8500.00,12000.00,M,M,M,M,M,M,M,M,60.80,KRTS 022355Z AUTO 16003KT 10SM SCT075 SCT085 BKN120 16/11 A3010 RMK AO2,M
MEV,2023-09-02 23:55,-119.7500,38.9963,1441.42,64.40,51.80,63.60,350.00,12.00,0.00,30.04,M,10.00,M,SCT,SCT,BKN,M,5500.00,6500.00,8000.00,M,M,M,M,M,M,M,M,64.40,KMEV 022355Z AUTO 35012KT 10SM SCT055 SCT065 BKN080 18/11 A3004 RMK AO2,M
BAM,2023-09-02 23:55,-116.8743,40.5990,1382.36,59.00,57.20,93.74,300.00,18.00,0.00,30.07,M,0.75,32.00,BKN,BKN,OVC,M,1000.00,3000.00,3800.00,M,M,M,M,M,M,M,M,59.00,KBAM 022355Z AUTO 30018G32KT 3/4SM BKN010 BKN030 OVC038 15/14 A3007 RMK AO1,M
HTH,2023-09-02 23:55,-118.6315,38.5448,1282.89,73.40,53.60,49.90,0.00,0.00,0.00,30.00,M,10.00,M,FEW,M,M,M,10000.00,M,M,M,M,M,M,M,M,M,M,73.40,KHTH 022355Z AUTO 00000KT 10SM FEW100 23/12 A3000 RMK A01,M
TMT,2023-09-02 23:55,-117.1971,39.4643,1749.34,63.00,53.80,71.89,50.00,5.00,0.00,30.13,M,M,M,BKN,BKN,OVC,M,4800.00,6000.00,7500.00,M,M,M,M,M,M,M,M,63.00,KTMT 022355Z AUTO 05005KT BKN048 BKN060 OVC075 17/12 A3013 RMK AO2 LTG DSNT N T01730121 10246 20171 PWINO,M
INS,2023-09-02 23:55,-115.6733,36.5872,955.00,78.80,63.00,58.42,90.00,14.00,0.00,30.03,1013.00,10.00,M,SCT,SCT,M,M,12000.00,16000.00,M,M,M,M,M,M,M,M,M,78.80,KINS 022355Z AUTO 09014KT 10SM SCT120 SCT160 26/17 A3003 RMK AO2 SLP130 60000 T02600173 10268 20224 55016 $,M
LSV,2023-09-02 23:55,-115.0343,36.2362,570.00,77.00,73.00,87.48,60.00,5.00,0.00,29.98,1013.50,10.00,M,FEW,M,M,M,5500.00,M,M,M,M,M,M,M,M,M,M,77.00,KLSV 022355Z AUTO 06005KT 10SM FEW055 25/23 A2998 RMK AO2 SLP135 60036 T02500228 10290 20217 58005 $,M
EKO,2023-09-02 23:56,-115.7860,40.8242,1367.00,74.00,51.00,44.44,170.00,10.00,0.00,30.08,1013.90,10.00,18.00,SCT,OVC,M,M,9000.00,11000.00,M,M,M,M,M,M,M,M,M,74.00,KEKO 022356Z AUTO 17010G18KT 10SM SCT090 OVC110 23/11 A3008 RMK AO2 SLP139 T02330106 10267 20211 56011,M
WMC,2023-09-02 23:56,-117.8072,40.9019,1315.00,65.00,61.00,86.88,100.00,7.00,0.02,30.05,1014.50,10.00,M,BKN,OVC,M,M,9000.00,10000.00,M,M,-RA,M,M,M,M,M,M,65.00,KWMC 022356Z AUTO 10007KT 10SM -RA BKN090 OVC100 18/16 A3005 RMK AO2 LTG DSNT E AND SE SLP145 P0002 60014 T01830161 10261 20172 58002,M
NFL,2023-09-02 23:56,-118.7010,39.4166,1199.00,75.00,50.00,41.41,160.00,9.00,0.00,29.99,1012.60,10.00,M,BKN,M,M,M,11000.00,M,M,M,M,M,M,M,M,M,M,75.00,KNFL 022356Z AUTO 16009KT 10SM BKN110 24/10 A2999 RMK AO2 SLP126 60000 T02390100 10250 20194 56010,M
HND,2023-09-02 23:56,-115.1344,35.9729,742.79,73.00,68.00,84.34,270.00,6.00,0.04,30.07,1017.80,10.00,M,SCT,BKN,OVC,M,6500.00,8000.00,11000.00,M,+TSRA,M,M,M,M,M,M,73.00,KHND 022356Z 27006KT 10SM +TSRA SCT065 BKN080 OVC110 23/20 A3007 RMK AO2 LTG DSNT E-SW TSB11RAB25 SLP178 P0004 60009 T02280200 10267 20222 55002,M
TPH,2023-09-02 23:56,-117.0904,38.0505,1654.00,76.00,53.00,44.75,170.00,25.00,0.00,30.09,1012.30,10.00,35.00,CLR,M,M,M,M,M,M,M,M,M,M,M,35.00,160.00,2023-09-02 23:47,76.00,KTPH 022356Z AUTO 17025G35KT 10SM CLR 24/12 A3009 RMK AO2 PK WND 16035/2347 SLP123 T02440117 10250 20206 56012,M
LAS,2023-09-02 23:56,-115.1634,36.0719,663.00,76.00,64.00,66.38,30.00,6.00,0.00,30.03,1015.10,10.00,M,FEW,BKN,BKN,M,5000.00,8000.00,20000.00,M,M,M,M,M,M,M,M,76.00,KLAS 022356Z 03006KT 10SM FEW050 BKN080 BKN200 25/18 A3003 RMK AO2 LTG DSNT E-SW SLP151 CB DSNT E SH DSNT SW 6//// T02440178 10311 20239 56003 $,M
LAS,2023-09-02 23:58,-115.1634,36.0719,663.00,76.00,66.00,71.18,210.00,3.00,0.00,30.03,M,10.00,M,SCT,BKN,BKN,M,8000.00,10000.00,20000.00,M,M,M,M,M,M,M,M,76.00,KLAS 022358Z 21003KT 10SM SCT080 BKN100 BKN200 24/19 A3003 RMK AO2 LTG DSNT E-SW T02440189 $,M
