station,valid,lon,lat,elevation,tmpf,dwpf,relh,drct,sknt,p01i,alti,mslp,vsby,gust,skyc1,skyc2,skyc3,skyc4,skyl1,skyl2,skyl3,skyl4,wxcodes,ice_accretion_1hr,ice_accretion_3hr,ice_accretion_6hr,peak_wind_gust,peak_wind_drct,peak_wind_time,feel,metar,snowdepth
CXP,2021-08-13 00:10,-119.7326,39.1923,1431.00,96.80,26.60,8.24,M,4.00,0.00,30.10,M,8.00,10.00,CLR,M,M,M,M,M,M,M,M,M,M,M,M,M,M,90.57,KCXP 130010Z AUTO VRB04G10KT 8SM CLR 36/M03 A3010 RMK AO2,M
HTH,2021-08-13 00:15,-118.6315,38.5448,1282.89,98.60,23.00,6.71,310.00,10.00,0.00,30.03,M,9.00,M,CLR,M,M,M,M,M,M,M,M,M,M,M,M,M,M,91.75,KHTH 130015Z AUTO 31010KT 9SM CLR 37/M05 A3003 RMK A01,M
BVU,2021-08-13 00:15,-114.8611,35.9475,671.00,100.40,59.00,25.67,170.00,9.00,0.00,29.87,M,10.00,M,CLR,M,M,M,M,M,M,M,M,M,M,M,M,M,M,100.57,KBVU 130015Z AUTO 17009KT 10SM CLR 38/15 A2987 RMK AO2,M
RTS,2021-08-13 00:15,-119.8764,39.6682,1539.00,93.20,28.40,9.91,50.00,8.00,0.00,30.14,M,10.00,M,CLR,M,M,M,M,M,M,M,M,M,M,M,M,M,M,87.89,KRTS 130015Z AUTO 05008KT 10SM CLR 34/M02 A3014 RMK AO2,M
TMT,2021-08-13 00:15,-117.1971,39.4643,1749.34,89.40,37.40,16.02,360.00,12.00,0.00,30.16,M,10.00,M,CLR,M,M,M,M,M,M,M,M,M,M,M,M,M,M,85.50,KTMT 130015Z AUTO 36012KT 10SM CLR 32/03 A3016 RMK AO2 T03190030,M
MEV,2021-08-13 00:15,-119.7500,38.9963,1441.42,96.80,26.60,8.24,280.00,6.00,0.00,30.09,M,5.00,11.00,CLR,M,M,M,M,M,M,M,HZ,M,M,M,M,M,M,90.57,KMEV 130015Z AUTO 28006G11KT 5SM HZ CLR 36/M03 A3009 RMK AO2,M
BAM,2021-08-13 00:15,-116.8743,40.5990,1382.36,98.60,35.60,11.23,110.00,5.00,0.00,30.05,M,10.00,M,CLR,M,M,M,M,M,M,M,M,M,M,M,M,M,M,93.23,KBAM 130015Z AUTO 11005KT 10SM CLR 37/02 A3005 RMK AO1,M
CXP,2021-08-13 00:30,-119.7326,39.1923,1431.00,96.80,26.60,8.24,270.00,6.00,0.00,30.10,M,8.00,15.00,CLR,M,M,M,M,M,M,M,M,M,M,M,M,M,M,90.57,KCXP 130030Z AUTO 27006G15KT 8SM CLR 36/M03 A3010 RMK AO2,M
RTS,2021-08-13 00:35,-119.8764,39.6682,1539.00,91.40,32.00,12.14,50.00,12.00,0.00,30.14,M,10.00,17.00,CLR,M,M,M,M,M,M,M,M,M,M,M,M,M,M,86.91,KRTS 130035Z AUTO 05012G17KT 10SM CLR 33/M00 A3014 RMK AO2,M
MEV,2021-08-13 00:35,-119.7500,38.9963,1441.42,93.20,37.40,14.23,250.00,15.00,0.00,30.10,M,7.00,21.00,CLR,M,M,M,M,M,M,M,M,M,M,M,M,M,M,88.83,KMEV 130035Z AUTO 25015G21KT 7SM CLR 34/03 A3010 RMK AO2,M
BAM,2021-08-13 00:35,-116.8743,40.5990,1382.36,98.60,35.60,11.23,90.00,5.00,0.00,30.04,M,10.00,M,CLR,M,M,M,M,M,M,M,M,M,M,M,M,M,M,93.23,KBAM 130035Z AUTO 09005KT 10SM CLR 37/02 A3004 RMK AO1,M
HTH,2021-08-13 00:35,-118.6315,38.5448,1282.89,98.60,24.80,7.24,320.00,12.00,0.00,30.03,M,9.00,M,CLR,M,M,M,M,M,M,M,M,M,M,M,M,M,M,91.90,KHTH 130035Z AUTO 32012KT 9SM CLR 37/M04 A3003 RMK A01,M
TMT,2021-08-13 00:35,-117.1971,39.4643,1749.34,88.70,37.40,16.38,10.00,6.00,0.00,30.17,M,10.00,M,CLR,M,M,M,M,M,M,M,TS,M,M,M,M,M,M,84.91,KTMT 130035Z AUTO 01006KT 10SM TS CLR 32/03 A3017 RMK AO2 LTG DSNT NE AND E T03150030,M
BVU,2021-08-13 00:35,-114.8611,35.9475,671.00,102.20,59.00,24.32,160.00,11.00,0.00,29.86,M,10.00,M,CLR,M,M,M,M,M,M,M,M,M,M,M,M,M,M,102.62,KBVU 130035Z AUTO 16011KT 10SM CLR 39/15 A2986 RMK AO2,M
CXP,2021-08-13 00:50,-119.7326,39.1923,1431.00,96.80,24.80,7.65,310.00,8.00,0.00,30.09,M,9.00,M,CLR,M,M,M,M,M,M,M,M,M,M,M,M,M,M,90.40,KCXP 130050Z AUTO 31008KT 9SM CLR 36/M04 A3009 RMK AO2,M
ELY,2021-08-13 00:53,-114.8453,39.2950,1909.00,86.00,33.00,15.05,130.00,5.00,0.00,30.20,1012.80,10.00,15.00,SCT,M,M,M,11000.00,M,M,M,M,M,M,M,M,M,M,82.65,KELY 130053Z AUTO 13005G15KT 10SM SCT110 30/01 A3020 RMK AO2 SLP128 T03000006,M
P68,2021-08-13 00:53,-116.0056,39.6014,1993.00,92.00,33.00,12.49,320.00,6.00,0.00,30.15,1011.60,M,M,M,M,M,M,M,M,M,M,M,M,M,M,M,M,M,87.44,KP68 130053Z AUTO 32006KT 33/01 A3015 RMK AO1 SLP116 T03330006,M
LOL,2021-08-13 00:53,-118.5701,40.0684,1192.43,102.00,35.00,9.93,60.00,10.00,0.00,29.99,1011.10,10.00,M,CLR,M,M,M,M,M,M,M,M,M,M,M,M,M,M,96.04,KLOL 130053Z AUTO 06010KT 10SM CLR 39/02 A2999 RMK AO2 SLP111 T03890017,M
VGT,2021-08-13 00:53,-115.1933,36.2111,667.00,103.00,58.00,22.89,140.00,4.00,0.00,29.84,1009.00,10.00,M,CLR,M,M,M,M,M,M,M,FU,M,M,M,M,M,M,102.89,KVGT 130053Z 14004KT 10SM FU CLR 39/14 A2984 RMK AO2 SLP090 T03940144,M
DRA,2021-08-13 00:53,-116.0278,36.6206,1009.00,100.00,38.00,11.78,260.00,11.00,0.00,29.95,1008.40,10.00,M,CLR,M,M,M,M,M,M,M,M,M,M,M,M,M,M,94.83,KDRA 130053Z AUTO 26011KT 10SM CLR 38/03 A2995 RMK AO2 SLP084 T03780033,M
BAM,2021-08-13 00:55,-116.8743,40.5990,1382.36,100.40,35.60,10.63,70.00,6.00,0.00,30.04,M,10.00,M,CLR,M,M,M,M,M,M,M,M,M,M,M,M,M,M,94.76,KBAM 130055Z AUTO 07006KT 10SM CLR 38/02 A3004 RMK AO1,M
TMT,2021-08-13 00:55,-117.1971,39.4643,1749.34,87.30,35.80,16.08,220.00,18.00,0.00,30.18,M,10.00,23.00,CLR,M,M,M,M,M,M,M,M,M,M,M,M,M,M,83.72,KTMT 130055Z AUTO 22018G23KT 10SM CLR 31/02 A3018 RMK AO2 LTG DSNT SE AND W T03070021,M
HTH,2021-08-13 00:55,-118.6315,38.5448,1282.89,98.60,24.80,7.24,320.00,12.00,0.00,30.03,M,9.00,M,CLR,M,M,M,M,M,M,M,M,M,M,M,M,M,M,91.90,KHTH 130055Z AUTO 32012KT 9SM CLR 37/M04 A3003 RMK A01,M
RNO,2021-08-13 00:55,-119.7711,39.4839,1341.00,97.00,32.00,10.21,0.00,0.00,0.00,30.06,1011.40,10.00,M,FEW,SCT,M,M,11000.00,18000.00,M,M,M,M,M,M,M,M,M,91.35,KRNO 130055Z 00000KT 10SM FEW110 SCT180 36/00 A3006 RMK AO2 SLP114 FU AND HZ ALQDS T03610000,M
BVU,2021-08-13 00:55,-114.8611,35.9475,671.00,100.40,59.00,25.67,150.00,10.00,0.00,29.86,M,10.00,M,CLR,M,M,M,M,M,M,M,M,M,M,M,M,M,M,100.57,KBVU 130055Z AUTO 15010KT 10SM CLR 38/15 A2986 RMK AO2,M
RTS,2021-08-13 00:55,-119.8764,39.6682,1539.00,91.40,32.00,12.14,50.00,11.00,0.00,30.14,M,10.00,M,CLR,M,M,M,M,M,M,M,M,M,M,M,M,M,M,86.91,KRTS 130055Z AUTO 05011KT 10SM CLR 33/M00 A3014 RMK AO2,M
MEV,2021-08-13 00:55,-119.7500,38.9963,1441.42,89.60,37.40,15.92,240.00,18.00,0.00,30.11,M,9.00,23.00,CLR,M,M,M,M,M,M,M,M,M,M,M,M,M,M,85.67,KMEV 130055Z AUTO 24018G23KT 9SM CLR 32/03 A3011 RMK AO2,M
TPH,2021-08-13 00:56,-117.0904,38.0505,1654.00,96.00,19.00,6.11,350.00,10.00,0.00,30.11,1010.30,10.00,M,CLR,M,M,M,M,M,M,M,M,M,M,M,M,M,M,89.38,KTPH 130056Z AUTO 35010KT 10SM CLR 36/M07 A3011 RMK AO2 SLP103 T03561072,M
NFL,2021-08-13 00:56,-118.7010,39.4166,1199.00,101.00,32.00,9.07,M,5.00,0.00,30.00,1012.90,10.00,M,SCT,SCT,SCT,M,7000.00,12000.00,25000.00,M,M,M,M,M,M,M,M,94.63,KNFL 130056Z VRB05KT 10SM SCT070 SCT120 SCT250 38/00 A3000 RMK AO2 SLP129 TCU DSNT E SH DSNT E T03830000,M
EKO,2021-08-13 00:56,-115.7860,40.8242,1367.00,96.00,37.00,12.81,0.00,0.00,0.00,30.07,1011.80,10.00,M,CLR,M,M,M,M,M,M,M,M,M,M,M,M,M,M,91.39,KEKO 130056Z AUTO 00000KT 10SM CLR 36/03 A3007 RMK AO2 SLP118 T03560028,M
HND,2021-08-13 00:56,-115.1344,35.9729,742.79,102.00,59.00,24.46,130.00,7.00,0.00,29.89,1010.30,10.00,M,CLR,M,M,M,M,M,M,M,M,M,M,M,M,M,M,102.39,KHND 130056Z 13007KT 10SM CLR 39/15 A2989 RMK AO2 SLP103 T03890150,M
WMC,2021-08-13 00:56,-117.8072,40.9019,1315.00,100.00,38.00,11.78,M,6.00,0.00,30.02,1011.30,10.00,M,CLR,M,M,M,M,M,M,M,M,M,M,M,M,M,M,94.83,KWMC 130056Z AUTO VRB06KT 10SM CLR 38/03 A3002 RMK AO2 SLP113 T03780033,M
LAS,2021-08-13 00:56,-115.1634,36.0719,663.00,103.00,57.00,22.16,90.00,9.00,0.00,29.86,1007.80,10.00,M,FEW,FEW,M,M,14000.00,20000.00,M,M,M,M,M,M,M,M,M,102.48,KLAS 130056Z 09009KT 10SM FEW140 FEW200 39/14 A2986 RMK AO2 SLP078 CB DSNT N-NE T03940139,M
INS,2021-08-13 00:58,-115.6733,36.5872,955.00,100.40,40.60,12.93,0.00,0.00,0.00,29.92,M,10.00,M,CLR,M,M,M,M,M,M,M,M,M,M,M,M,M,M,95.73,KINS 130058Z AUTO 00000KT 10SM CLR 38/05 A2992 RMK AO2 SLPNO T03800048 $,M
LSV,2021-08-13 00:58,-115.0343,36.2362,570.00,103.00,56.80,21.87,0.00,0.00,0.00,29.82,M,10.00,M,CLR,M,M,M,M,M,M,M,M,M,M,M,M,M,M,102.61,KLSV 130058Z AUTO 00000KT 10SM CLR 40/14 A2982 RMK AO2 SLPNO T03950138 $,M
CXP,2021-08-13 01:10,-119.7326,39.1923,1431.00,96.80,28.40,8.87,270.00,10.00,0.00,30.09,M,9.00,M,CLR,M,M,M,M,M,M,M,M,M,M,M,M,M,M,90.75,KCXP 130110Z AUTO 27010KT 240V300 9SM CLR 36/M02 A3009 RMK AO2,M
HTH,2021-08-13 01:15,-118.6315,38.5448,1282.89,96.80,26.60,8.24,330.00,12.00,0.00,30.02,M,9.00,M,CLR,M,M,M,M,M,M,M,M,M,M,M,M,M,M,90.57,KHTH 130115Z AUTO 33012KT 9SM CLR 36/M03 A3002 RMK A01,M
MEV,2021-08-13 01:15,-119.7500,38.9963,1441.42,89.60,35.60,14.83,210.00,13.00,0.00,30.10,M,9.00,19.00,CLR,M,M,M,M,M,M,M,M,M,M,M,M,M,M,85.62,KMEV 130115Z AUTO 21013G19KT 9SM CLR 32/02 A3010 RMK AO2,M
TMT,2021-08-13 01:15,-117.1971,39.4643,1749.34,81.50,41.00,23.75,150.00,14.00,0.00,30.21,M,10.00,26.00,BKN,M,M,M,12000.00,M,M,M,VCTS,M,M,M,M,M,M,79.73,KTMT 130115Z AUTO 15014G26KT 10SM VCTS BKN120 28/05 A3021 RMK AO2 LTG DSNT NE SE AND W T02750050,M
BAM,2021-08-13 01:15,-116.8743,40.5990,1382.36,98.60,35.60,11.23,40.00,5.00,0.00,30.04,M,10.00,M,CLR,M,M,M,M,M,M,M,M,M,M,M,M,M,M,93.23,KBAM 130115Z AUTO 04005KT 10SM CLR 37/02 A3004 RMK AO1,M
BVU,2021-08-13 01:15,-114.8611,35.9475,671.00,100.40,60.80,27.37,140.00,10.00,0.00,29.86,M,10.00,M,CLR,M,M,M,M,M,M,M,M,M,M,M,M,M,M,101.47,KBVU 130115Z AUTO 14010KT 10SM CLR 38/16 A2986 RMK AO2,M
RTS,2021-08-13 01:15,-119.8764,39.6682,1539.00,91.40,32.00,12.14,40.00,11.00,0.00,30.13,M,10.00,16.00,CLR,M,M,M,M,M,M,M,M,M,M,M,M,M,M,86.91,KRTS 130115Z AUTO 04011G16KT 10SM CLR 33/00 A3013 RMK AO2,M
CXP,2021-08-13 01:30,-119.7326,39.1923,1431.00,93.20,30.20,10.67,270.00,13.00,0.00,30.09,M,9.00,26.00,CLR,M,M,M,M,M,M,M,M,M,M,M,M,M,M,88.09,KCXP 130130Z AUTO 27013G26KT 9SM CLR 34/M01 A3009 RMK AO2,M
TPH,2021-08-13 01:31,-117.0904,38.0505,1654.00,93.00,28.00,9.81,30.00,10.00,0.00,30.11,M,10.00,M,CLR,M,M,M,M,M,M,M,M,M,M,M,M,M,M,87.70,KTPH 130131Z AUTO 03010KT 10SM CLR 34/M02 A3011 RMK AO2 WSHFT 0111 T03391022,M
RTS,2021-08-13 01:35,-119.8764,39.6682,1539.00,89.60,32.00,12.84,30.00,8.00,0.00,30.13,M,10.00,M,CLR,M,M,M,M,M,M,M,M,M,M,M,M,M,M,85.54,KRTS 130135Z AUTO 03008KT 10SM CLR 32/00 A3013 RMK AO2,M
MEV,2021-08-13 01:35,-119.7500,38.9963,1441.42,87.80,33.80,14.61,200.00,7.00,0.00,30.10,M,6.00,24.00,CLR,M,M,M,M,M,M,M,HZ,M,M,M,M,M,M,84.10,KMEV 130135Z AUTO 20007G24KT 6SM HZ CLR 31/01 A3010 RMK AO2,M
BAM,2021-08-13 01:35,-116.8743,40.5990,1382.36,98.60,33.80,10.45,30.00,7.00,0.00,30.04,M,10.00,M,CLR,M,M,M,M,M,M,M,M,M,M,M,M,M,M,92.94,KBAM 130135Z AUTO 03007KT 10SM CLR 37/01 A3004 RMK AO1,M
HTH,2021-08-13 01:35,-118.6315,38.5448,1282.89,96.80,32.00,10.27,330.00,12.00,0.00,30.02,M,10.00,M,CLR,M,M,M,M,M,M,M,M,M,M,M,M,M,M,91.19,KHTH 130135Z AUTO 33012KT 10SM CLR 36/M00 A3002 RMK A01,M
BVU,2021-08-13 01:35,-114.8611,35.9475,671.00,100.40,60.80,27.37,140.00,9.00,0.00,29.86,M,10.00,M,CLR,M,M,M,M,M,M,M,M,M,M,M,M,M,M,101.47,KBVU 130135Z AUTO 14009KT 10SM CLR 38/16 A2986 RMK AO2,M
TMT,2021-08-13 01:35,-117.1971,39.4643,1749.34,79.70,41.40,25.58,170.00,18.00,0.00,30.21,M,10.00,23.00,SCT,BKN,OVC,M,6000.00,10000.00,12000.00,M,-VCTSRA,M,M,M,M,M,M,79.70,KTMT 130135Z AUTO 17018G23KT 120V190 10SM -VCTSRA SCT060 BKN100 OVC120 27/05 A3021 RMK AO2 LTG DSNT W AND NW T02650052,M
CXP,2021-08-13 01:50,-119.7326,39.1923,1431.00,93.20,28.40,9.91,270.00,7.00,0.00,30.10,M,10.00,12.00,CLR,M,M,M,M,M,M,M,M,M,M,M,M,M,M,87.89,KCXP 130150Z AUTO 27007G12KT 10SM CLR 34/M02 A3010 RMK AO2,M
LOL,2021-08-13 01:53,-118.5701,40.0684,1192.43,99.00,38.00,12.15,300.00,12.00,0.00,29.98,1010.50,10.00,M,CLR,M,M,M,M,M,M,M,M,M,M,M,M,M,M,93.98,KLOL 130153Z AUTO 30012KT 10SM CLR 37/03 A2998 RMK AO2 SLP105 T03720033,M
P68,2021-08-13 01:53,-116.0056,39.6014,1993.00,88.00,30.90,12.92,20.00,4.00,0.00,30.15,1012.30,M,M,M,M,M,M,M,M,M,M,M,M,M,M,M,M,M,84.22,KP68 130153Z AUTO 02004KT 31/M01 A3015 RMK AO1 SLP123 T03111006,M
ELY,2021-08-13 01:53,-114.8453,39.2950,1909.00,83.00,33.00,16.62,90.00,4.00,T,30.19,1012.50,10.00,M,CLR,M,M,M,M,M,M,M,M,M,M,M,37.00,250.00,2021-08-13 01:24,80.36,KELY 130153Z AUTO 09004KT 10SM CLR 28/01 A3019 RMK AO2 PK WND 25037/0124 RAB06E33 SLP125 P0000 T02830006,M
VGT,2021-08-13 01:53,-115.1933,36.2111,667.00,103.00,58.00,22.89,130.00,3.00,0.00,29.85,1009.10,10.00,M,CLR,M,M,M,M,M,M,M,FU,M,M,M,M,M,M,102.89,KVGT 130153Z 13003KT 10SM FU CLR 39/14 A2985 RMK AO2 SLP091 T03940144,M
DRA,2021-08-13 01:53,-116.0278,36.6206,1009.00,98.00,37.00,12.05,250.00,6.00,0.00,29.94,1008.30,10.00,M,CLR,M,M,M,M,M,M,M,M,M,M,M,M,M,M,93.05,KDRA 130153Z AUTO 25006KT 10SM CLR 37/03 A2994 RMK AO2 SLP083 T03670028,M
TMT,2021-08-13 01:55,-117.1971,39.4643,1749.34,80.60,41.50,24.94,240.00,23.00,0.00,30.21,M,10.00,28.00,SCT,BKN,OVC,M,5000.00,10000.00,12000.00,M,-DZ,M,M,M,M,M,M,79.23,KTMT 130155Z AUTO 24023G28KT 10SM -DZ SCT050 BKN100 OVC120 27/05 A3021 RMK AO2 T02700053,M
RTS,2021-08-13 01:55,-119.8764,39.6682,1539.00,87.80,32.00,13.59,330.00,6.00,0.00,30.14,M,10.00,11.00,CLR,M,M,M,M,M,M,M,M,M,M,M,M,M,M,84.08,KRTS 130155Z AUTO 33006G11KT 10SM CLR 31/M00 A3014 RMK AO2,M
RNO,2021-08-13 01:55,-119.7711,39.4839,1341.00,95.00,36.00,12.73,20.00,10.00,0.00,30.05,1011.30,10.00,M,FEW,SCT,M,M,11000.00,18000.00,M,M,M,M,M,M,M,M,M,90.32,KRNO 130155Z 02010KT 10SM FEW110 SCT180 35/02 A3005 RMK AO2 SLP113 FU AND HZ ALQDS T03500022,M
HTH,2021-08-13 01:55,-118.6315,38.5448,1282.89,95.00,33.80,11.67,320.00,11.00,0.00,30.02,M,10.00,M,CLR,M,M,M,M,M,M,M,M,M,M,M,M,M,M,89.97,KHTH 130155Z AUTO 32011KT 10SM CLR 35/01 A3002 RMK A01,M
BAM,2021-08-13 01:55,-116.8743,40.5990,1382.36,96.80,33.80,11.04,30.00,5.00,0.00,30.04,M,10.00,M,CLR,M,M,M,M,M,M,M,M,M,M,M,M,M,M,91.44,KBAM 130155Z AUTO 03005KT 10SM CLR 36/01 A3004 RMK AO1,M
BVU,2021-08-13 01:55,-114.8611,35.9475,671.00,98.60,60.80,28.90,150.00,11.00,0.00,29.87,M,10.00,M,CLR,M,M,M,M,M,M,M,M,M,M,M,M,M,M,99.39,KBVU 130155Z AUTO 15011KT 10SM CLR 37/16 A2987 RMK AO2,M
MEV,2021-08-13 01:55,-119.7500,38.9963,1441.42,87.80,35.60,15.70,240.00,5.00,0.00,30.11,M,8.00,13.00,CLR,M,M,M,M,M,M,M,M,M,M,M,M,M,M,84.12,KMEV 130155Z AUTO 24005G13KT 8SM CLR 31/02 A3011 RMK AO2,M
HND,2021-08-13 01:56,-115.1344,35.9729,742.79,100.00,61.00,27.90,160.00,8.00,0.00,29.90,1010.50,10.00,M,CLR,M,M,M,M,M,M,M,M,M,M,M,M,M,M,101.12,KHND 130156Z 16008KT 10SM CLR 38/16 A2990 RMK AO2 SLP105 T03780161,M
EKO,2021-08-13 01:56,-115.7860,40.8242,1367.00,95.00,38.00,13.73,350.00,8.00,0.00,30.07,1011.50,10.00,16.00,CLR,M,M,M,M,M,M,M,M,M,M,M,M,M,M,90.48,KEKO 130156Z AUTO 35008G16KT 10SM CLR 35/03 A3007 RMK AO2 SLP115 T03500033,M
NFL,2021-08-13 01:56,-118.7010,39.4166,1199.00,99.00,32.00,9.60,30.00,8.00,0.00,29.99,1012.60,10.00,M,SCT,SCT,SCT,M,7000.00,12000.00,25000.00,M,M,M,M,M,M,M,M,93.03,KNFL 130156Z 03008KT 10SM SCT070 SCT120 SCT250 37/00 A2999 RMK AO2 SLP126 TCU DSNT E SH DSNT W-NW T03720000,M
WMC,2021-08-13 01:56,-117.8072,40.9019,1315.00,98.00,37.00,12.05,360.00,5.00,0.00,30.01,1010.90,10.00,M,CLR,M,M,M,M,M,M,M,M,M,M,M,M,M,M,93.05,KWMC 130156Z AUTO 36005KT 10SM CLR 37/03 A3001 RMK AO2 SLP109 T03670028,M
TPH,2021-08-13 01:56,-117.0904,38.0505,1654.00,89.00,35.00,14.77,20.00,24.00,0.00,30.12,1011.40,10.00,34.00,CLR,M,M,M,M,M,M,M,M,M,M,M,34.00,10.00,2021-08-13 01:47,85.19,KTPH 130156Z AUTO 02024G34KT 10SM CLR 32/02 A3012 RMK AO2 PK WND 01034/0147 WSHFT 0111 SLP114 T03170017,M
LAS,2021-08-13 01:56,-115.1634,36.0719,663.00,101.00,59.00,25.28,120.00,6.00,0.00,29.86,1007.90,10.00,M,FEW,FEW,M,M,14000.00,20000.00,M,M,M,M,M,M,M,M,M,101.14,KLAS 130156Z 12006KT 10SM FEW140 FEW200 38/15 A2986 RMK AO2 SLP079 T03830150,M
INS,2021-08-13 01:58,-115.6733,36.5872,955.00,98.80,37.20,11.89,260.00,4.00,0.00,29.93,M,10.00,M,CLR,M,M,M,M,M,M,M,M,M,M,M,M,M,M,93.68,KINS 130158Z AUTO 26004KT 10SM CLR 37/03 A2993 RMK AO2 SLPNO T03710029 $,M
LSV,2021-08-13 01:58,-115.0343,36.2362,570.00,101.00,59.70,25.92,120.00,9.00,0.00,29.82,1007.00,10.00,M,CLR,M,M,M,M,M,M,M,M,M,M,M,M,M,M,101.48,KLSV 130158Z AUTO 12009KT 10SM CLR 38/15 A2982 RMK AO2 SLP070 T03830154 $,M
CXP,2021-08-13 02:10,-119.7326,39.1923,1431.00,93.20,30.20,10.67,40.00,5.00,0.00,30.13,M,10.00,M,CLR,M,M,M,M,M,M,M,M,M,M,M,M,M,M,88.09,KCXP 130210Z AUTO 04005KT 10SM CLR 34/M01 A3013 RMK AO2,M
BVU,2021-08-13 02:15,-114.8611,35.9475,671.00,96.80,62.60,32.54,150.00,11.00,0.00,29.87,M,10.00,M,CLR,M,M,M,M,M,M,M,M,M,M,M,M,M,M,98.28,KBVU 130215Z AUTO 15011KT 10SM CLR 36/17 A2987 RMK AO2,M
RTS,2021-08-13 02:15,-119.8764,39.6682,1539.00,86.00,32.00,14.40,310.00,6.00,0.00,30.14,M,10.00,M,CLR,M,M,M,M,M,M,M,M,M,M,M,M,M,M,82.64,KRTS 130215Z AUTO 31006KT 10SM CLR 30/M00 A3014 RMK AO2,M
TMT,2021-08-13 02:15,-117.1971,39.4643,1749.34,79.00,42.00,26.89,210.00,20.00,0.00,30.22,M,10.00,28.00,SCT,SCT,SCT,M,5000.00,7000.00,9500.00,M,M,M,M,M,M,M,M,79.00,KTMT 130215Z AUTO 21020G28KT 10SM SCT050 SCT070 SCT095 26/06 A3022 RMK AO2 T02610056,M
MEV,2021-08-13 02:15,-119.7500,38.9963,1441.42,87.80,33.80,14.61,40.00,28.00,0.00,30.11,M,3.00,36.00,FEW,M,M,M,11000.00,M,M,M,HZ,M,M,M,M,M,M,84.10,KMEV 130215Z AUTO 04028G36KT 3SM HZ FEW110 31/01 A3011 RMK AO2,M
BAM,2021-08-13 02:15,-116.8743,40.5990,1382.36,95.00,35.60,12.53,50.00,12.00,0.00,30.04,M,10.00,16.00,CLR,M,M,M,M,M,M,M,M,M,M,M,M,M,M,90.25,KBAM 130215Z AUTO 05012G16KT 10SM CLR 35/02 A3004 RMK AO1,M
HTH,2021-08-13 02:15,-118.6315,38.5448,1282.89,93.20,39.20,15.27,320.00,11.00,0.00,30.03,M,10.00,M,CLR,M,M,M,M,M,M,M,M,M,M,M,M,M,M,88.92,KHTH 130215Z AUTO 32011KT 10SM CLR 34/04 A3003 RMK A01,M
P68,2021-08-13 02:18,-116.0056,39.6014,1993.00,84.00,38.00,19.41,180.00,18.00,0.00,30.18,M,M,22.00,M,M,M,M,M,M,M,M,M,M,M,M,M,M,M,81.25,KP68 130218Z AUTO 18018G22KT 29/03 A3018 RMK AO1 WSHFT 0201 T02890033,M
CXP,2021-08-13 02:30,-119.7326,39.1923,1431.00,91.40,30.20,11.28,340.00,12.00,0.00,30.13,M,9.00,20.00,CLR,M,M,M,M,M,M,M,M,M,M,M,M,M,M,86.71,KCXP 130230Z AUTO 34012G20KT 9SM CLR 33/M01 A3013 RMK AO2,M
BVU,2021-08-13 02:35,-114.8611,35.9475,671.00,96.80,60.80,30.53,150.00,11.00,0.00,29.87,M,10.00,M,CLR,M,M,M,M,M,M,M,M,M,M,M,M,M,M,97.33,KBVU 130235Z AUTO 15011KT 10SM CLR 36/16 A2987 RMK AO2,M
MEV,2021-08-13 02:35,-119.7500,38.9963,1441.42,89.60,32.00,12.84,310.00,20.00,0.00,30.10,M,6.00,28.00,FEW,FEW,FEW,M,6500.00,7500.00,9500.00,M,HZ,M,M,M,M,M,M,85.54,KMEV 130235Z AUTO 31020G28KT 6SM HZ FEW065 FEW075 FEW095 32/M00 A3010 RMK AO2,M
TMT,2021-08-13 02:35,-117.1971,39.4643,1749.34,77.50,43.70,30.05,230.00,15.00,0.00,30.22,M,10.00,22.00,SCT,BKN,BKN,M,7000.00,10000.00,12000.00,M,M,M,M,M,M,M,M,77.50,KTMT 130235Z AUTO 23015G22KT 10SM SCT070 BKN100 BKN120 25/07 A3022 RMK AO2 T02530065,M
HTH,2021-08-13 02:35,-118.6315,38.5448,1282.89,91.40,39.20,16.15,310.00,9.00,0.00,30.03,M,10.00,M,CLR,M,M,M,M,M,M,M,M,M,M,M,M,M,M,87.30,KHTH 130235Z AUTO 31009KT 10SM CLR 33/04 A3003 RMK A01,M
BAM,2021-08-13 02:35,-116.8743,40.5990,1382.36,95.00,35.60,12.53,40.00,10.00,0.00,30.04,M,10.00,15.00,CLR,M,M,M,M,M,M,M,M,M,M,M,M,M,M,90.25,KBAM 130235Z AUTO 04010G15KT 10SM CLR 35/02 A3004 RMK AO1,M
RTS,2021-08-13 02:35,-119.8764,39.6682,1539.00,84.20,32.00,15.25,270.00,5.00,0.00,30.15,M,9.00,M,CLR,M,M,M,M,M,M,M,M,M,M,M,M,M,M,81.28,KRTS 130235Z AUTO 27005KT 9SM CLR 29/00 A3015 RMK AO2,M
CXP,2021-08-13 02:50,-119.7326,39.1923,1431.00,89.60,32.00,12.84,340.00,9.00,0.00,30.13,M,9.00,17.00,CLR,M,M,M,M,M,M,M,M,M,M,M,M,M,M,85.54,KCXP 130250Z AUTO 34009G17KT 9SM CLR 32/M00 A3013 RMK AO2,M
ELY,2021-08-13 02:53,-114.8453,39.2950,1909.00,79.00,33.00,18.88,340.00,7.00,0.00,30.21,1012.40,10.00,M,FEW,M,M,M,12000.00,M,M,M,M,M,M,M,M,M,M,79.00,KELY 130253Z AUTO 34007KT 10SM FEW120 26/01 A3021 RMK AO2 SLP124 60000 T02610006 53004,M
LOL,2021-08-13 02:53,-118.5701,40.0684,1192.43,95.00,38.00,13.73,320.00,8.00,0.00,29.99,1010.70,10.00,M,CLR,M,M,M,M,M,M,M,M,M,M,M,M,M,M,90.48,KLOL 130253Z AUTO 32008KT 10SM CLR 35/03 A2999 RMK AO2 SLP107 T03500033 55003,M
P68,2021-08-13 02:53,-116.0056,39.6014,1993.00,81.00,38.00,21.39,190.00,10.00,0.00,30.20,1013.40,M,M,M,M,M,M,M,M,M,M,M,M,M,M,M,M,M,79.28,KP68 130253Z AUTO 19010KT 27/03 A3020 RMK AO1 WSHFT 0201 SLP134 T02720033 53013,M
VGT,2021-08-13 02:53,-115.1933,36.2111,667.00,101.00,60.00,26.30,110.00,7.00,0.00,29.85,1009.10,10.00,M,CLR,M,M,M,M,M,M,M,FU,M,M,M,M,M,M,101.68,KVGT 130253Z 11007KT 10SM FU CLR 38/16 A2985 RMK AO2 LTG DSNT NE SLP091 T03830156 55002,M
DRA,2021-08-13 02:53,-116.0278,36.6206,1009.00,94.00,36.00,13.17,260.00,6.00,0.00,29.95,1008.40,10.00,M,CLR,M,M,M,M,M,M,M,M,M,M,M,M,M,M,89.40,KDRA 130253Z AUTO 26006KT 10SM CLR 34/02 A2995 RMK AO2 SLP084 T03440022 55003,M
MEV,2021-08-13 02:55,-119.7500,38.9963,1441.42,89.60,32.00,12.84,330.00,11.00,0.00,30.11,M,7.00,17.00,CLR,M,M,M,M,M,M,M,M,M,M,M,M,M,M,85.54,KMEV 130255Z AUTO 33011G17KT 7SM CLR 32/00 A3011 RMK AO2,M
BAM,2021-08-13 02:55,-116.8743,40.5990,1382.36,91.40,33.80,13.05,50.00,7.00,0.00,30.05,M,10.00,M,CLR,M,M,M,M,M,M,M,M,M,M,M,M,M,M,87.13,KBAM 130255Z AUTO 05007KT 10SM CLR 33/01 A3005 RMK AO1,M
RTS,2021-08-13 02:55,-119.8764,39.6682,1539.00,84.20,32.00,15.25,250.00,3.00,0.00,30.15,M,9.00,M,CLR,M,M,M,M,M,M,M,M,M,M,M,M,M,M,81.28,KRTS 130255Z AUTO 25003KT 9SM CLR 29/00 A3015 RMK AO2,M
RNO,2021-08-13 02:55,-119.7711,39.4839,1341.00,92.00,36.00,14.02,250.00,7.00,0.00,30.08,1012.40,10.00,M,SCT,BKN,M,M,11000.00,18000.00,M,M,M,M,M,M,M,M,M,87.62,KRNO 130255Z 25007KT 10SM SCT110 BKN180 33/02 A3008 RMK AO2 SLP124 FU AND HZ ALQDS T03330022 53005,M
TMT,2021-08-13 02:55,-117.1971,39.4643,1749.34,75.20,44.00,32.93,200.00,14.00,0.00,30.22,M,10.00,19.00,SCT,BKN,M,M,10000.00,12000.00,M,M,M,M,M,M,M,M,M,75.20,KTMT 130255Z AUTO 20014G19KT 10SM SCT100 BKN120 24/07 A3022 RMK AO2 T02400067,M
BVU,2021-08-13 02:55,-114.8611,35.9475,671.00,95.00,60.80,32.27,140.00,10.00,0.00,29.88,M,10.00,M,CLR,M,M,M,M,M,M,M,M,M,M,M,M,M,M,95.30,KBVU 130255Z AUTO 14010KT 10SM CLR 35/16 A2988 RMK AO2,M
HTH,2021-08-13 02:55,-118.6315,38.5448,1282.89,91.40,35.60,14.02,310.00,9.00,0.00,30.04,M,10.00,M,CLR,M,M,M,M,M,M,M,M,M,M,M,M,M,M,87.17,KHTH 130255Z AUTO 31009KT 10SM CLR 33/02 A3004 RMK A01,M
EKO,2021-08-13 02:56,-115.7860,40.8242,1367.00,89.00,39.00,17.22,340.00,10.00,0.00,30.09,1012.20,10.00,M,CLR,M,M,M,M,M,M,M,M,M,M,M,M,M,M,85.30,KEKO 130256Z AUTO 34010KT 10SM CLR 32/04 A3009 RMK AO2 SLP122 T03170039 55001,M
TPH,2021-08-13 02:56,-117.0904,38.0505,1654.00,85.00,35.00,16.88,20.00,13.00,0.00,30.14,1011.50,10.00,M,CLR,M,M,M,M,M,M,M,M,M,M,M,29.00,10.00,2021-08-13 02:05,81.84,KTPH 130256Z AUTO 02013KT 10SM CLR 29/02 A3014 RMK AO2 PK WND 01029/0205 SLP115 T02940017 53005,M
NFL,2021-08-13 02:56,-118.7010,39.4166,1199.00,91.00,41.00,17.54,30.00,8.00,0.00,30.00,1012.90,10.00,M,SCT,SCT,SCT,M,7000.00,12000.00,25000.00,M,M,M,M,M,M,M,M,87.04,KNFL 130256Z 03008KT 10SM SCT070 SCT120 SCT250 33/05 A3000 RMK AO2 SLP129 CB DSNT E T03280050 55004,M
HND,2021-08-13 02:56,-115.1344,35.9729,742.79,97.00,61.00,30.56,150.00,12.00,0.00,29.90,1010.70,10.00,M,CLR,M,M,M,M,M,M,M,M,M,M,M,M,M,M,97.66,KHND 130256Z 15012KT 10SM CLR 36/16 A2990 RMK AO2 SLP107 T03610161 55001,M
LAS,2021-08-13 02:56,-115.1634,36.0719,663.00,100.00,59.00,25.98,180.00,7.00,0.00,29.86,1008.00,10.00,M,FEW,FEW,M,M,12000.00,20000.00,M,M,M,M,M,M,M,M,M,100.11,KLAS 130256Z 18007KT 10SM FEW120 FEW200 38/15 A2986 RMK AO2 SLP080 CB DSNT NE T03780150 55002,M
WMC,2021-08-13 02:56,-117.8072,40.9019,1315.00,90.00,36.00,14.88,350.00,6.00,0.00,30.03,1011.30,10.00,M,CLR,M,M,M,M,M,M,M,M,M,M,M,M,M,M,85.97,KWMC 130256Z AUTO 35006KT 10SM CLR 32/02 A3003 RMK AO2 SLP113 T03220022 55003,M
LSV,2021-08-13 02:58,-115.0343,36.2362,570.00,98.80,61.00,28.93,90.00,11.00,0.00,29.83,1007.30,10.00,M,FEW,M,M,M,14000.00,M,M,M,M,M,M,M,M,M,M,99.73,KLSV 130258Z AUTO 09011KT 10SM FEW140 37/16 A2983 RMK AO2 LTG DSNT N SLP073 T03710161 55002 $,M
INS,2021-08-13 02:58,-115.6733,36.5872,955.00,95.20,40.30,14.98,250.00,10.00,0.00,29.92,M,10.00,M,CLR,M,M,M,M,M,M,M,M,M,M,M,M,M,M,90.83,KINS 130258Z AUTO 25010KT 10SM CLR 35/05 A2992 RMK AO2 SLPNO T03510046 55004 $,M
CXP,2021-08-13 03:10,-119.7326,39.1923,1431.00,87.80,35.60,15.70,320.00,21.00,0.00,30.13,M,6.00,26.00,FEW,M,M,M,300.00,M,M,M,HZ,M,M,M,M,M,M,84.12,KCXP 130310Z AUTO 32021G26KT 6SM HZ FEW003 31/02 A3013 RMK AO2,M
LSV,2021-08-13 03:13,-115.0343,36.2362,570.00,96.80,60.80,30.53,30.00,31.00,0.00,29.87,1008.70,7.00,39.00,FEW,M,M,M,14000.00,M,M,M,M,M,M,M,M,M,M,97.33,KLSV 130313Z AUTO 03031G39KT 7SM FEW140 36/16 A2987 RMK AO2 WSHFT 07 LTG DSNT NE PRESRR SLP087 $,M
TMT,2021-08-13 03:15,-117.1971,39.4643,1749.34,75.00,44.00,33.16,190.00,11.00,0.00,30.22,M,10.00,M,SCT,M,M,M,12000.00,M,M,M,M,M,M,M,M,M,M,75.00,KTMT 130315Z AUTO 19011KT 10SM SCT120 24/07 A3022 RMK AO2 T02390067,M
HTH,2021-08-13 03:15,-118.6315,38.5448,1282.89,89.60,33.80,13.80,320.00,8.00,0.00,30.04,M,10.00,M,CLR,M,M,M,M,M,M,M,M,M,M,M,M,M,M,85.59,KHTH 130315Z AUTO 32008KT 10SM CLR 32/01 A3004 RMK A01,M
BAM,2021-08-13 03:15,-116.8743,40.5990,1382.36,87.80,33.80,14.61,70.00,6.00,0.00,30.05,M,10.00,M,CLR,M,M,M,M,M,M,M,M,M,M,M,M,M,M,84.10,KBAM 130315Z AUTO 07006KT 10SM CLR 31/01 A3005 RMK AO1,M
MEV,2021-08-13 03:15,-119.7500,38.9963,1441.42,86.00,32.00,14.40,350.00,5.00,0.00,30.12,M,7.00,M,CLR,M,M,M,M,M,M,M,M,M,M,M,M,M,M,82.64,KMEV 130315Z AUTO 35005KT 7SM CLR 30/00 A3012 RMK AO2,M
RTS,2021-08-13 03:15,-119.8764,39.6682,1539.00,84.20,32.00,15.25,280.00,6.00,0.00,30.15,M,10.00,M,CLR,M,M,M,M,M,M,M,M,M,M,M,M,M,M,81.28,KRTS 130315Z AUTO 28006KT 10SM CLR 29/M00 A3015 RMK AO2,M
BVU,2021-08-13 03:15,-114.8611,35.9475,671.00,95.00,60.80,32.27,140.00,10.00,0.00,29.89,M,10.00,15.00,CLR,M,M,M,M,M,M,M,M,M,M,M,M,M,M,95.30,KBVU 130315Z AUTO 14010G15KT 10SM CLR 35/16 A2989 RMK AO2 LTG DSNT N,M
CXP,2021-08-13 03:30,-119.7326,39.1923,1431.00,86.00,35.60,16.63,320.00,15.00,0.00,30.14,M,10.00,23.00,FEW,FEW,FEW,M,5500.00,9000.00,11000.00,M,M,M,M,M,M,M,M,82.69,KCXP 130330Z AUTO 32015G23KT 10SM FEW055 FEW090 FEW110 30/02 A3014 RMK AO2,M
RTS,2021-08-13 03:35,-119.8764,39.6682,1539.00,82.40,32.00,16.17,350.00,10.00,0.00,30.16,M,10.00,M,CLR,M,M,M,M,M,M,M,M,M,M,M,M,M,M,80.00,KRTS 130335Z AUTO 35010KT 10SM CLR 28/00 A3016 RMK AO2,M
HTH,2021-08-13 03:35,-118.6315,38.5448,1282.89,89.60,32.00,12.84,320.00,9.00,0.00,30.05,M,10.00,M,CLR,M,M,M,M,M,M,M,M,M,M,M,M,M,M,85.54,KHTH 130335Z AUTO 32009KT 10SM CLR 32/M00 A3005 RMK A01,M
TMT,2021-08-13 03:35,-117.1971,39.4643,1749.34,75.00,44.60,33.79,200.00,11.00,0.00,30.22,M,10.00,19.00,CLR,M,M,M,M,M,M,M,M,M,M,M,M,M,M,75.00,KTMT 130335Z AUTO 20011G19KT 10SM CLR 24/07 A3022 RMK AO2 T02390070,M
MEV,2021-08-13 03:35,-119.7500,38.9963,1441.42,86.00,33.80,15.48,10.00,11.00,0.00,30.12,M,9.00,17.00,CLR,M,M,M,M,M,M,M,M,M,M,M,M,M,M,82.66,KMEV 130335Z AUTO 01011G17KT 9SM CLR 30/01 A3012 RMK AO2,M
BAM,2021-08-13 03:35,-116.8743,40.5990,1382.36,86.00,33.80,15.48,70.00,6.00,0.00,30.05,M,10.00,M,CLR,M,M,M,M,M,M,M,M,M,M,M,M,M,M,82.66,KBAM 130335Z AUTO 07006KT 10SM CLR 30/01 A3005 RMK AO1,M
BVU,2021-08-13 03:35,-114.8611,35.9475,671.00,93.20,62.60,36.35,130.00,9.00,0.00,29.90,M,10.00,M,CLR,M,M,M,M,M,M,M,VCTS,M,M,M,M,M,M,94.20,KBVU 130335Z AUTO 13009KT 10SM VCTS CLR 34/17 A2990 RMK AO2 LTG DSNT N,M
LSV,2021-08-13 03:37,-115.0343,36.2362,570.00,89.60,64.40,43.34,60.00,17.00,0.00,29.89,1009.60,9.00,35.00,FEW,M,M,M,12000.00,M,M,M,TS,M,M,M,M,M,M,91.23,KLSV 130337Z AUTO 06017G35KT 9SM TS FEW120 32/18 A2989 RMK AO2 TSB37 SLP096 $,M
LSV,2021-08-13 03:39,-115.0343,36.2362,570.00,87.80,62.60,43.07,80.00,15.00,0.00,29.89,1009.60,9.00,33.00,FEW,M,M,M,12000.00,M,M,M,TS,M,M,M,M,M,M,88.48,KLSV 130339Z AUTO 08015G33KT 9SM TS FEW120 31/17 A2989 RMK AO2 WSHFT 26 TSB37 SLP096 $,M
LAS,2021-08-13 03:43,-115.1634,36.0719,663.00,93.00,57.00,29.96,40.00,26.00,0.00,29.91,M,6.00,37.00,FEW,FEW,M,M,12000.00,20000.00,M,M,HZ SQ,M,M,M,37.00,40.00,2021-08-13 03:36,91.64,KLAS 130343Z 04026G37KT 6SM HZ SQ FEW120 FEW200 34/14 A2991 RMK AO2 PK WND 04037/0336 LTG DSNT NE AND E FRQ LTGICCCCG DSNT NE-E T03390139,M
CXP,2021-08-13 03:50,-119.7326,39.1923,1431.00,86.00,35.60,16.63,330.00,16.00,0.00,30.15,M,10.00,25.00,FEW,SCT,BKN,M,4300.00,6500.00,7500.00,M,M,M,M,M,M,M,M,82.69,KCXP 130350Z AUTO 33016G25KT 10SM FEW043 SCT065 BKN075 30/02 A3015 RMK AO2,M
LSV,2021-08-13 03:52,-115.0343,36.2362,570.00,89.60,59.00,35.81,90.00,18.00,0.00,29.88,1009.30,10.00,28.00,CLR,M,M,M,M,M,M,M,VCTS,M,M,M,M,M,M,88.86,KLSV 130352Z AUTO 09018G28KT 10SM VCTS CLR 32/15 A2988 RMK AO2 TSB37E52 SLP093 $,M
P68,2021-08-13 03:53,-116.0056,39.6014,1993.00,74.00,41.00,30.54,120.00,8.00,0.00,30.22,1014.30,M,M,M,M,M,M,M,M,M,M,M,M,M,M,M,M,M,73.90,KP68 130353Z AUTO 12008KT 23/05 A3022 RMK AO1 SLP143 T02330050,M
LOL,2021-08-13 03:53,-118.5701,40.0684,1192.43,92.00,39.00,15.77,320.00,11.00,T,30.01,1010.90,10.00,M,CLR,M,M,M,M,M,M,M,M,M,M,M,M,M,M,87.74,KLOL 130353Z AUTO 32011KT 10SM CLR 33/04 A3001 RMK AO2 LTG DSNT N RAB0257E07 SLP109 P0000 T03330039,M
DRA,2021-08-13 03:53,-116.0278,36.6206,1009.00,92.00,42.00,17.79,M,3.00,0.00,29.97,1009.10,10.00,M,CLR,M,M,M,M,M,M,M,M,M,M,M,M,M,M,87.92,KDRA 130353Z AUTO VRB03KT 10SM CLR 33/06 A2997 RMK AO2 SLP091 T03330056,M
ELY,2021-08-13 03:53,-114.8453,39.2950,1909.00,72.00,34.00,24.72,M,3.00,0.00,30.23,1012.70,10.00,M,SCT,M,M,M,12000.00,M,M,M,M,M,M,M,M,M,M,72.00,KELY 130353Z AUTO VRB03KT 10SM SCT120 22/01 A3023 RMK AO2 SLP127 T02220011,M
VGT,2021-08-13 03:53,-115.1933,36.2111,667.00,89.00,61.00,39.06,60.00,21.00,0.00,29.91,1011.40,9.00,33.00,FEW,M,M,M,12000.00,M,M,M,FU,M,M,M,34.00,70.00,2021-08-13 03:39,89.11,KVGT 130353Z AUTO 06021G33KT 9SM FU FEW120 32/16 A2991 RMK AO2 PK WND 07034/0339 LTG DSNT E SLP114 T03170161,M
RTS,2021-08-13 03:55,-119.8764,39.6682,1539.00,82.40,32.00,16.17,290.00,8.00,0.00,30.17,M,8.00,M,CLR,M,M,M,M,M,M,M,M,M,M,M,M,M,M,80.00,KRTS 130355Z AUTO 29008KT 8SM CLR 28/00 A3017 RMK AO2,M
MEV,2021-08-13 03:55,-119.7500,38.9963,1441.42,84.20,33.80,16.39,20.00,8.00,0.00,30.14,M,10.00,M,FEW,FEW,M,M,4800.00,5500.00,M,M,M,M,M,M,M,M,M,81.30,KMEV 130355Z AUTO 02008KT 10SM FEW048 FEW055 29/01 A3014 RMK AO2,M
HTH,2021-08-13 03:55,-118.6315,38.5448,1282.89,86.00,35.60,16.63,330.00,5.00,0.00,30.05,M,10.00,M,CLR,M,M,M,M,M,M,M,M,M,M,M,M,M,M,82.69,KHTH 130355Z AUTO 33005KT 10SM CLR 30/02 A3005 RMK A01,M
TMT,2021-08-13 03:55,-117.1971,39.4643,1749.34,73.40,44.00,34.98,180.00,6.00,0.00,30.24,M,10.00,M,SCT,M,M,M,12000.00,M,M,M,M,M,M,M,M,M,M,73.40,KTMT 130355Z AUTO 18006KT 10SM SCT120 23/07 A3024 RMK AO2 T02300067,M
RNO,2021-08-13 03:55,-119.7711,39.4839,1341.00,90.00,38.00,16.04,270.00,8.00,0.00,30.09,1012.60,9.00,M,FEW,BKN,M,M,11000.00,18000.00,M,M,M,M,M,M,M,M,M,86.03,KRNO 130355Z 27008KT 9SM FEW110 BKN180 32/03 A3009 RMK AO2 WSHFT 0258 SLP126 FU AND HZ ALQDS T03220033,M
BVU,2021-08-13 03:55,-114.8611,35.9475,671.00,93.20,62.60,36.35,80.00,9.00,0.00,29.92,M,10.00,M,CLR,M,M,M,M,M,M,M,M,M,M,M,M,M,M,94.20,KBVU 130355Z AUTO 08009KT 10SM CLR 34/17 A2992 RMK AO2 LTG DSNT NW-NE,M
BAM,2021-08-13 03:55,-116.8743,40.5990,1382.36,86.00,33.80,15.48,70.00,8.00,0.00,30.06,M,10.00,M,CLR,M,M,M,M,M,M,M,M,M,M,M,M,M,M,82.66,KBAM 130355Z AUTO 07008KT 10SM CLR 30/01 A3006 RMK AO1,M
HND,2021-08-13 03:56,-115.1344,35.9729,742.79,95.00,62.00,33.79,30.00,13.00,0.00,29.96,1012.70,9.00,20.00,CLR,M,M,M,M,M,M,M,M,M,M,M,M,M,M,95.95,KHND 130356Z AUTO 03013G20KT 9SM CLR 35/17 A2996 RMK AO2 LTG DSNT NE PRESRR SLP127 T03500167,M
NFL,2021-08-13 03:56,-118.7010,39.4166,1199.00,87.00,40.00,19.01,M,5.00,0.00,30.01,1013.30,10.00,M,SCT,SCT,SCT,M,7000.00,12000.00,25000.00,M,M,M,M,M,M,M,M,83.68,KNFL 130356Z VRB05KT 10SM SCT070 SCT120 SCT250 31/04 A3001 RMK AO2 SLP133 SH DSNT N-NE T03060044,M
EKO,2021-08-13 03:56,-115.7860,40.8242,1367.00,82.00,40.00,22.39,0.00,0.00,0.00,30.11,1012.90,10.00,M,CLR,M,M,M,M,M,M,M,M,M,M,M,M,M,M,79.98,KEKO 130356Z AUTO 00000KT 10SM CLR 28/04 A3011 RMK AO2 SLP129 T02780044,M
LAS,2021-08-13 03:56,-115.1634,36.0719,663.00,93.00,57.00,29.96,30.00,13.00,0.00,29.92,1010.00,8.00,M,SCT,SCT,M,M,12000.00,20000.00,M,M,M,M,M,M,37.00,40.00,2021-08-13 03:36,91.64,KLAS 130356Z 03013KT 8SM SCT120 SCT200 34/14 A2992 RMK AO2 PK WND 04037/0336 WSHFT 0341 LTG DSNT NE AND E SLP100 FRQ LTGICCCCG DSNT NE-E T03390139,M
WMC,2021-08-13 03:56,-117.8072,40.9019,1315.00,88.00,35.00,15.29,50.00,4.00,0.00,30.04,1011.20,10.00,M,CLR,M,M,M,M,M,M,M,M,M,M,M,M,M,M,84.28,KWMC 130356Z AUTO 05004KT 10SM CLR 31/02 A3004 RMK AO2 SLP112 T03110017,M
TPH,2021-08-13 03:56,-117.0904,38.0505,1654.00,82.00,34.00,17.74,360.00,10.00,0.00,30.15,1011.90,10.00,M,CLR,M,M,M,M,M,M,M,M,M,M,M,M,M,M,79.77,KTPH 130356Z AUTO 36010KT 10SM CLR 28/01 A3015 RMK AO2 SLP119 T02780011,M
LSV,2021-08-13 03:58,-115.0343,36.2362,570.00,90.70,55.80,30.82,80.00,18.00,0.00,29.88,M,10.00,28.00,CLR,M,M,M,M,M,M,M,VCTS,M,M,M,41.00,30.00,2021-08-13 03:13,88.95,KLSV 130358Z AUTO 08018G28KT 10SM VCTS CLR 33/13 A2988 RMK AO2 PK WND 03041/13 TSB37E52 SLPNO T03260132 $,M
INS,2021-08-13 03:58,-115.6733,36.5872,955.00,93.70,43.70,17.89,230.00,3.00,0.00,29.95,M,10.00,M,CLR,M,M,M,M,M,M,M,M,M,M,M,M,M,M,89.72,KINS 130358Z AUTO 23003KT 10SM CLR 34/07 A2995 RMK AO2 SLPNO T03430065 $,M
LSV,2021-08-13 04:09,-115.0343,36.2362,570.00,91.40,57.20,31.72,60.00,13.00,0.00,29.90,M,10.00,21.00,CLR,M,M,M,M,M,M,M,M,M,M,M,M,M,M,90.06,KLSV 130409Z AUTO 06013G21KT 10SM CLR 33/14 A2990 RMK AO2 WSHFT 01 LTG DSNT SE AND NW PRESRR SLPNO $,M
CXP,2021-08-13 04:10,-119.7326,39.1923,1431.00,87.80,33.80,14.61,320.00,8.00,0.00,30.13,M,10.00,16.00,FEW,M,M,M,7000.00,M,M,M,M,M,M,M,M,M,M,84.10,KCXP 130410Z AUTO 32008G16KT 10SM FEW070 31/01 A3013 RMK AO2,M
TMT,2021-08-13 04:15,-117.1971,39.4643,1749.34,73.20,44.00,34.95,150.00,7.00,0.00,30.24,M,10.00,M,BKN,M,M,M,12000.00,M,M,M,M,M,M,M,M,M,M,73.20,KTMT 130415Z AUTO 15007KT 10SM BKN120 23/07 A3024 RMK AO2 T02290066,M
LAS,2021-08-13 04:15,-115.1634,36.0719,663.00,91.00,59.00,34.27,80.00,22.00,0.00,29.93,M,8.00,28.00,SCT,SCT,M,M,12000.00,20000.00,M,M,M,M,M,M,28.00,80.00,2021-08-13 04:12,90.27,KLAS 130415Z 08022G28KT 8SM SCT120 SCT200 33/15 A2993 RMK AO2 PK WND 08028/0412 WSHFT 0355 LTG DSNT E FRQ LTGICCCCG DSNT NE-E T03280150,M
MEV,2021-08-13 04:15,-119.7500,38.9963,1441.42,82.40,35.60,18.67,320.00,8.00,0.00,30.14,M,10.00,M,BKN,M,M,M,5000.00,M,M,M,M,M,M,M,M,M,M,80.08,KMEV 130415Z AUTO 32008KT 10SM BKN050 28/02 A3014 RMK AO2,M
BAM,2021-08-13 04:15,-116.8743,40.5990,1382.36,84.20,33.80,16.39,60.00,6.00,0.00,30.07,M,10.00,M,CLR,M,M,M,M,M,M,M,M,M,M,M,M,M,M,81.30,KBAM 130415Z AUTO 06006KT 10SM CLR 29/01 A3007 RMK AO1,M
HTH,2021-08-13 04:15,-118.6315,38.5448,1282.89,84.20,39.20,20.29,120.00,7.00,0.00,30.07,M,10.00,M,CLR,M,M,M,M,M,M,M,M,M,M,M,M,M,M,81.44,KHTH 130415Z AUTO 12007KT 10SM CLR 29/04 A3007 RMK A01,M
RTS,2021-08-13 04:15,-119.8764,39.6682,1539.00,82.40,32.00,16.17,330.00,7.00,0.00,30.19,M,9.00,M,CLR,M,M,M,M,M,M,M,M,M,M,M,M,M,M,80.00,KRTS 130415Z AUTO 33007KT 9SM CLR 28/00 A3019 RMK AO2,M
BVU,2021-08-13 04:15,-114.8611,35.9475,671.00,91.40,57.20,31.72,50.00,10.00,0.00,29.96,M,10.00,22.00,CLR,M,M,M,M,M,M,M,VCTS,M,M,M,M,M,M,90.06,KBVU 130415Z AUTO 05010G22KT 10SM VCTS CLR 33/14 A2996 RMK AO2 LTG DSNT N-SE,M
HND,2021-08-13 04:16,-115.1344,35.9729,742.79,91.40,62.60,38.45,80.00,15.00,0.00,29.95,M,7.00,20.00,FEW,M,M,M,2600.00,M,M,M,M,M,M,M,33.00,70.00,2021-08-13 04:03,92.23,KHND 130416Z AUTO 08015G20KT 7SM FEW026 33/17 A2995 RMK AO2 PK WND 07033/0403 WSHFT 0356 LTG DSNT NE AND E,M
LSV,2021-08-13 04:29,-115.0343,36.2362,570.00,87.80,55.40,33.29,90.00,15.00,0.00,29.90,M,10.00,M,CLR,M,M,M,M,M,M,M,M,M,M,M,M,M,M,86.11,KLSV 130429Z AUTO 09015KT 10SM CLR 31/13 A2990 RMK AO2 WSHFT 15 SLPNO $,M
CXP,2021-08-13 04:30,-119.7326,39.1923,1431.00,86.00,33.80,15.48,10.00,7.00,0.00,30.14,M,10.00,12.00,CLR,M,M,M,M,M,M,M,M,M,M,M,M,M,M,82.66,KCXP 130430Z AUTO 01007G12KT 10SM CLR 30/01 A3014 RMK AO2,M
HTH,2021-08-13 04:35,-118.6315,38.5448,1282.89,87.80,35.60,15.70,20.00,16.00,0.00,30.07,M,10.00,M,CLR,M,M,M,M,M,M,M,M,M,M,M,M,M,M,84.12,KHTH 130435Z AUTO 02016KT 10SM CLR 31/02 A3007 RMK A01,M
BVU,2021-08-13 04:35,-114.8611,35.9475,671.00,86.00,57.20,37.62,60.00,18.00,0.00,29.95,M,9.00,26.00,FEW,SCT,SCT,M,5000.00,6500.00,8000.00,M,VCTS,M,M,M,M,M,M,84.97,KBVU 130435Z AUTO 06018G26KT 9SM VCTS FEW050 SCT065 SCT080 30/14 A2995 RMK AO2 LTG DSNT NE-S,M
TMT,2021-08-13 04:35,-117.1971,39.4643,1749.34,70.30,43.00,37.26,130.00,5.00,0.00,30.24,M,10.00,M,SCT,M,M,M,12000.00,M,M,M,M,M,M,M,M,M,M,70.30,KTMT 130435Z AUTO 13005KT 10SM SCT120 21/06 A3024 RMK AO2 T02130061,M
BAM,2021-08-13 04:35,-116.8743,40.5990,1382.36,82.40,33.80,17.38,0.00,0.00,0.00,30.07,M,10.00,M,CLR,M,M,M,M,M,M,M,M,M,M,M,M,M,M,80.03,KBAM 130435Z AUTO 00000KT 10SM CLR 28/01 A3007 RMK AO1,M
MEV,2021-08-13 04:35,-119.7500,38.9963,1441.42,80.60,35.60,19.79,0.00,0.00,0.00,30.15,M,10.00,M,FEW,M,M,M,5000.00,M,M,M,M,M,M,M,M,M,M,78.94,KMEV 130435Z AUTO 00000KT 10SM FEW050 27/02 A3015 RMK AO2,M
RTS,2021-08-13 04:35,-119.8764,39.6682,1539.00,80.60,35.60,19.79,290.00,6.00,0.00,30.20,M,7.00,M,CLR,M,M,M,M,M,M,M,M,M,M,M,M,M,M,78.94,KRTS 130435Z AUTO 29006KT 7SM CLR 27/02 A3020 RMK AO2,M
CXP,2021-08-13 04:50,-119.7326,39.1923,1431.00,84.20,35.60,17.61,360.00,7.00,0.00,30.14,M,10.00,M,CLR,M,M,M,M,M,M,M,M,M,M,M,M,M,M,81.34,KCXP 130450Z AUTO 36007KT 10SM CLR 29/02 A3014 RMK AO2,M
DRA,2021-08-13 04:53,-116.0278,36.6206,1009.00,87.00,40.00,19.01,360.00,5.00,0.00,29.98,1009.40,10.00,M,CLR,M,M,M,M,M,M,M,M,M,M,M,M,M,M,83.68,KDRA 130453Z AUTO 36005KT 10SM CLR 31/04 A2998 RMK AO2 SLP094 T03060044,M
P68,2021-08-13 04:53,-116.0056,39.6014,1993.00,76.00,39.00,26.42,0.00,0.00,0.00,30.22,1013.70,M,M,M,M,M,M,M,M,M,M,M,M,M,M,M,M,M,75.90,KP68 130453Z AUTO 00000KT 24/04 A3022 RMK AO1 SLP137 T02440039,M
LOL,2021-08-13 04:53,-118.5701,40.0684,1192.43,91.00,39.00,16.23,180.00,7.00,0.00,30.03,1011.40,10.00,M,FEW,SCT,M,M,7000.00,8500.00,M,M,M,M,M,M,M,M,M,86.94,KLOL 130453Z AUTO 18007KT 10SM FEW070 SCT085 33/04 A3003 RMK AO2 SLP114 T03280039,M
ELY,2021-08-13 04:53,-114.8453,39.2950,1909.00,64.00,34.00,32.56,170.00,6.00,0.00,30.25,1013.40,10.00,M,CLR,M,M,M,M,M,M,M,M,M,M,M,M,M,M,64.00,KELY 130453Z AUTO 17006KT 10SM CLR 18/01 A3025 RMK AO2 SLP134 T01780011,M
VGT,2021-08-13 04:53,-115.1933,36.2111,667.00,92.00,55.00,28.84,80.00,9.00,0.00,29.94,1012.50,10.00,M,SCT,M,M,M,11000.00,M,M,M,FU,M,M,M,M,M,M,89.92,KVGT 130453Z AUTO 08009KT 10SM FU SCT110 33/13 A2994 RMK AO2 LTG DSNT SE SLP125 T03330128,M
HTH,2021-08-13 04:55,-118.6315,38.5448,1282.89,87.80,33.80,14.61,30.00,10.00,0.00,30.09,M,10.00,15.00,CLR,M,M,M,M,M,M,M,M,M,M,M,M,M,M,84.10,KHTH 130455Z AUTO 03010G15KT 10SM CLR 31/01 A3009 RMK A01,M
MEV,2021-08-13 04:55,-119.7500,38.9963,1441.42,75.20,41.00,29.23,170.00,7.00,0.00,30.14,M,10.00,M,CLR,M,M,M,M,M,M,M,M,M,M,M,M,M,M,75.20,KMEV 130455Z AUTO 17007KT 10SM CLR 24/05 A3014 RMK AO2,M
RNO,2021-08-13 04:55,-119.7711,39.4839,1341.00,87.00,39.00,18.35,350.00,10.00,0.00,30.13,1013.60,7.00,M,BKN,M,M,M,5500.00,M,M,M,M,M,M,M,M,M,M,83.65,KRNO 130455Z 35010KT 7SM BKN055 31/04 A3013 RMK AO2 SLP136 FU BKN055 T03060039,M
BVU,2021-08-13 04:55,-114.8611,35.9475,671.00,82.40,59.00,45.07,80.00,16.00,0.00,29.98,M,10.00,M,FEW,FEW,BKN,M,4900.00,6500.00,11000.00,M,TS,M,M,M,M,M,M,82.46,KBVU 130455Z AUTO 08016KT 10SM TS FEW049 FEW065 BKN110 28/15 A2998 RMK AO2 LTG DSNT ALQDS,M
TMT,2021-08-13 04:55,-117.1971,39.4643,1749.34,67.00,44.00,43.34,120.00,3.00,0.00,30.24,M,10.00,M,SCT,M,M,M,12000.00,M,M,M,M,M,M,M,M,M,M,66.90,KTMT 130455Z AUTO 12003KT 10SM SCT120 19/07 A3024 RMK AO2 LTG DSNT W T01940066,M
BAM,2021-08-13 04:55,-116.8743,40.5990,1382.36,82.40,35.60,18.67,270.00,7.00,0.00,30.08,M,10.00,M,CLR,M,M,M,M,M,M,M,M,M,M,M,M,M,M,80.08,KBAM 130455Z AUTO 27007KT 10SM CLR 28/02 A3008 RMK AO1,M
RTS,2021-08-13 04:55,-119.8764,39.6682,1539.00,80.60,37.40,21.25,300.00,4.00,0.00,30.21,M,8.00,M,FEW,M,M,M,12000.00,M,M,M,M,M,M,M,M,M,M,79.02,KRTS 130455Z AUTO 30004KT 8SM FEW120 27/03 A3021 RMK AO2,M
LAS,2021-08-13 04:56,-115.1634,36.0719,663.00,89.00,56.00,32.53,130.00,8.00,0.00,29.95,1011.30,10.00,M,FEW,SCT,SCT,M,4300.00,12000.00,20000.00,M,M,M,M,M,28.00,80.00,2021-08-13 04:12,87.44,KLAS 130456Z 13008KT 10SM FEW043 SCT120 SCT200 32/13 A2995 RMK AO2 PK WND 08028/0412 WSHFT 0355 LTG DSNT E AND SE SLP113 FRQ LTGICCCCG DSNT NE-E CB DSNT NE-SE BLDU DSNT NW-N T03170133,M
EKO,2021-08-13 04:56,-115.7860,40.8242,1367.00,80.00,40.00,23.82,0.00,0.00,0.00,30.12,1013.20,10.00,M,CLR,M,M,M,M,M,M,M,M,M,M,M,M,M,M,78.93,KEKO 130456Z AUTO 00000KT 10SM CLR 27/04 A3012 RMK AO2 SLP132 T02670044,M
NFL,2021-08-13 04:56,-118.7010,39.4166,1199.00,91.00,35.00,13.91,M,5.00,0.00,30.05,1014.40,10.00,M,SCT,SCT,SCT,M,7000.00,12000.00,25000.00,M,M,M,M,M,M,M,M,86.81,KNFL 130456Z VRB05KT 10SM SCT070 SCT120 SCT250 33/02 A3005 RMK AO2 SLP144 SH DSNT N-NE T03280017,M
WMC,2021-08-13 04:56,-117.8072,40.9019,1315.00,75.00,33.00,21.56,0.00,0.00,0.00,30.06,1011.90,10.00,M,CLR,M,M,M,M,M,M,M,M,M,M,M,M,M,M,75.00,KWMC 130456Z AUTO 00000KT 10SM CLR 24/01 A3006 RMK AO2 SLP119 T02390006,M
TPH,2021-08-13 04:56,-117.0904,38.0505,1654.00,80.00,34.00,18.88,20.00,10.00,0.00,30.18,1012.60,10.00,M,CLR,M,M,M,M,M,M,M,M,M,M,M,M,M,M,78.70,KTPH 130456Z AUTO 02010KT 10SM CLR 27/01 A3018 RMK AO2 SLP126 T02670011,M
HND,2021-08-13 04:56,-115.1344,35.9729,742.79,90.00,61.00,37.97,70.00,15.00,0.00,29.98,1013.60,10.00,22.00,CLR,M,M,M,M,M,M,M,M,M,M,M,33.00,70.00,2021-08-13 04:03,90.03,KHND 130456Z AUTO 07015G22KT 10SM CLR 32/16 A2998 RMK AO2 PK WND 07033/0403 WSHFT 0356 LTG DSNT E AND SE SLP136 T03220161,M
LSV,2021-08-13 04:58,-115.0343,36.2362,570.00,89.40,55.60,31.88,70.00,4.00,0.00,29.91,M,10.00,M,CLR,M,M,M,M,M,M,M,M,M,M,M,M,M,M,87.64,KLSV 130458Z AUTO 07004KT 10SM CLR 32/13 A2991 RMK AO2 LTG DSNT SE SLPNO T03190131 $,M
INS,2021-08-13 04:58,-115.6733,36.5872,955.00,92.00,46.40,20.96,110.00,6.00,0.00,29.98,M,10.00,M,CLR,M,M,M,M,M,M,M,M,M,M,M,M,M,M,88.33,KINS 130458Z AUTO 11006KT 10SM CLR 33/08 A2998 RMK AO2 SLPNO T03330080 $,M
CXP,2021-08-13 05:10,-119.7326,39.1923,1431.00,86.00,33.80,15.48,300.00,5.00,0.00,30.15,M,10.00,10.00,CLR,M,M,M,M,M,M,M,M,M,M,M,M,M,M,82.66,KCXP 130510Z AUTO 30005G10KT 10SM CLR 30/01 A3015 RMK AO2,M
MEV,2021-08-13 05:15,-119.7500,38.9963,1441.42,75.20,39.20,27.26,150.00,8.00,0.00,30.15,M,10.00,M,FEW,M,M,M,6000.00,M,M,M,M,M,M,M,M,M,M,75.20,KMEV 130515Z AUTO 15008KT 10SM FEW060 24/04 A3015 RMK AO2,M
TMT,2021-08-13 05:15,-117.1971,39.4643,1749.34,66.70,43.00,42.16,310.00,3.00,0.00,30.24,M,10.00,M,CLR,M,M,M,M,M,M,M,M,M,M,M,M,M,M,66.70,KTMT 130515Z AUTO 31003KT 10SM CLR 19/06 A3024 RMK AO2 T01930061,M
BAM,2021-08-13 05:15,-116.8743,40.5990,1382.36,80.60,35.60,19.79,260.00,3.00,0.00,30.08,M,10.00,M,CLR,M,M,M,M,M,M,M,M,M,M,M,M,M,M,78.94,KBAM 130515Z AUTO 26003KT 10SM CLR 27/02 A3008 RMK AO1,M
HTH,2021-08-13 05:15,-118.6315,38.5448,1282.89,86.00,35.60,16.63,70.00,9.00,0.00,30.09,M,10.00,M,FEW,M,M,M,4800.00,M,M,M,M,M,M,M,M,M,M,82.69,KHTH 130515Z AUTO 07009KT 10SM FEW048 30/02 A3009 RMK A01,M
RTS,2021-08-13 05:15,-119.8764,39.6682,1539.00,80.60,35.60,19.79,340.00,3.00,0.00,30.21,M,8.00,M,FEW,FEW,M,M,6500.00,12000.00,M,M,M,M,M,M,M,M,M,78.94,KRTS 130515Z AUTO 34003KT 8SM FEW065 FEW120 27/02 A3021 RMK AO2,M
BVU,2021-08-13 05:15,-114.8611,35.9475,671.00,82.40,64.40,54.55,120.00,13.00,0.00,29.96,M,10.00,21.00,FEW,SCT,BKN,M,4900.00,6500.00,10000.00,M,VCTS,M,M,M,M,M,M,83.98,KBVU 130515Z AUTO 12013G21KT 10SM VCTS FEW049 SCT065 BKN100 28/18 A2996 RMK AO2 LTG DSNT NE-SE,M
CXP,2021-08-13 05:30,-119.7326,39.1923,1431.00,84.20,35.60,17.61,200.00,5.00,0.00,30.16,M,10.00,M,CLR,M,M,M,M,M,M,M,M,M,M,M,M,M,M,81.34,KCXP 130530Z AUTO 20005KT 10SM CLR 29/02 A3016 RMK AO2,M
BAM,2021-08-13 05:35,-116.8743,40.5990,1382.36,84.20,35.60,17.61,260.00,7.00,0.00,30.09,M,10.00,M,CLR,M,M,M,M,M,M,M,M,M,M,M,M,M,M,81.34,KBAM 130535Z AUTO 26007KT 10SM CLR 29/02 A3009 RMK AO1,M
MEV,2021-08-13 05:35,-119.7500,38.9963,1441.42,75.20,37.40,25.40,120.00,9.00,0.00,30.15,M,10.00,M,SCT,M,M,M,6000.00,M,M,M,M,M,M,M,M,M,M,75.20,KMEV 130535Z AUTO 12009KT 10SM SCT060 24/03 A3015 RMK AO2,M
RTS,2021-08-13 05:35,-119.8764,39.6682,1539.00,77.00,35.60,22.28,290.00,8.00,0.00,30.20,M,10.00,M,CLR,M,M,M,M,M,M,M,M,M,M,M,M,M,M,77.00,KRTS 130535Z AUTO 29008KT 10SM CLR 25/02 A3020 RMK AO2,M
HTH,2021-08-13 05:35,-118.6315,38.5448,1282.89,84.20,35.60,17.61,M,3.00,0.00,30.10,M,10.00,M,CLR,M,M,M,M,M,M,M,M,M,M,M,M,M,M,81.34,KHTH 130535Z AUTO VRB03KT 10SM CLR 29/02 A3010 RMK A01,M
BVU,2021-08-13 05:35,-114.8611,35.9475,671.00,84.20,59.00,42.52,110.00,11.00,0.00,29.97,M,10.00,16.00,FEW,FEW,FEW,M,5000.00,6500.00,7500.00,M,M,M,M,M,M,M,M,83.92,KBVU 130535Z AUTO 11011G16KT 10SM FEW050 FEW065 FEW075 29/15 A2997 RMK AO2 LTG DSNT SE AND S,M
TMT,2021-08-13 05:35,-117.1971,39.4643,1749.34,65.00,42.00,43.05,320.00,5.00,0.00,30.24,M,10.00,M,CLR,M,M,M,M,M,M,M,M,M,M,M,M,M,M,65.10,KTMT 130535Z AUTO 32005KT 10SM CLR 18/06 A3024 RMK AO2 T01840056,M
CXP,2021-08-13 05:50,-119.7326,39.1923,1431.00,84.20,35.60,17.61,250.00,5.00,0.00,30.16,M,10.00,10.00,FEW,M,M,M,10000.00,M,M,M,M,M,M,M,M,M,M,81.34,KCXP 130550Z AUTO 25005G10KT 10SM FEW100 29/02 A3016 RMK AO2,M
LOL,2021-08-13 05:53,-118.5701,40.0684,1192.43,87.00,47.00,24.85,190.00,5.00,T,30.09,1013.20,10.00,M,FEW,SCT,BKN,M,5500.00,7000.00,9500.00,M,M,M,M,M,M,M,M,84.15,KLOL 130553Z AUTO 19005KT 10SM FEW055 SCT070 BKN095 31/08 A3009 RMK AO2 RAB37E52 PRESRR SLP132 P0000 60000 T03060083 10394 20300 53029,M
P68,2021-08-13 05:53,-116.0056,39.6014,1993.00,70.00,40.00,33.39,0.00,0.00,0.00,30.23,1014.10,M,M,M,M,M,M,M,M,M,M,M,M,M,M,M,M,M,70.00,KP68 130553Z AUTO 00000KT 21/04 A3023 RMK AO1 SLP141 T02110044 10339 20211 51009,M
ELY,2021-08-13 05:53,-114.8453,39.2950,1909.00,60.00,34.00,37.37,170.00,8.00,0.00,30.25,1013.40,10.00,M,CLR,M,M,M,M,M,M,M,M,M,M,M,M,M,M,60.10,KELY 130553Z AUTO 17008KT 10SM CLR 16/01 A3025 RMK AO2 SLP134 60000 T01560011 10300 20156 51011,M
DRA,2021-08-13 05:53,-116.0278,36.6206,1009.00,87.00,43.00,21.42,100.00,6.00,0.00,29.99,1009.90,10.00,M,CLR,M,M,M,M,M,M,M,M,M,M,M,M,M,M,83.84,KDRA 130553Z AUTO 10006KT 10SM CLR 31/06 A2999 RMK AO2 SLP099 T03060061 10389 20289 51014,M
VGT,2021-08-13 05:53,-115.1933,36.2111,667.00,92.00,59.00,33.31,220.00,5.00,0.00,29.95,1012.60,10.00,M,CLR,M,M,M,M,M,M,M,FU,M,M,M,M,M,M,91.20,KVGT 130553Z AUTO 22005KT 10SM FU CLR 33/15 A2995 RMK AO2 SLP126 T03330150 10400 20317 51031,M
RNO,2021-08-13 05:55,-119.7711,39.4839,1341.00,85.00,40.00,20.39,270.00,4.00,0.00,30.13,1013.50,7.00,M,SCT,SCT,M,M,5500.00,20000.00,M,M,M,M,M,M,M,M,M,81.98,KRNO 130555Z 27004KT 7SM SCT055 SCT200 29/04 A3013 RMK AO2 SLP135 FU SCT055 T02940044 10372 20294 51014,M
RTS,2021-08-13 05:55,-119.8764,39.6682,1539.00,73.40,35.60,25.13,300.00,7.00,0.00,30.20,M,10.00,M,CLR,M,M,M,M,M,M,M,M,M,M,M,M,M,M,73.40,KRTS 130555Z AUTO 30007KT 10SM CLR 23/02 A3020 RMK AO2,M
BAM,2021-08-13 05:55,-116.8743,40.5990,1382.36,82.40,39.20,21.51,270.00,6.00,0.00,30.10,M,10.00,M,CLR,M,M,M,M,M,M,M,M,M,M,M,M,M,M,80.21,KBAM 130555Z AUTO 27006KT 10SM CLR 28/04 A3010 RMK AO1,M
BVU,2021-08-13 05:55,-114.8611,35.9475,671.00,84.20,55.40,37.35,190.00,6.00,0.00,29.96,M,10.00,M,FEW,FEW,FEW,M,6000.00,10000.00,12000.00,M,VCTS,M,M,M,M,M,M,83.09,KBVU 130555Z AUTO 19006KT 10SM VCTS FEW060 FEW100 FEW120 29/13 A2996 RMK AO2 LTG DSNT SE AND S,M
TMT,2021-08-13 05:55,-117.1971,39.4643,1749.34,64.40,42.80,45.32,290.00,3.00,0.00,30.24,M,10.00,M,CLR,M,M,M,M,M,M,M,M,M,M,M,M,M,M,64.40,KTMT 130555Z AUTO 29003KT 10SM CLR 18/06 A3024 RMK AO2 T01800060 10320 20177,M
HTH,2021-08-13 05:55,-118.6315,38.5448,1282.89,84.20,35.60,17.61,0.00,0.00,0.00,30.10,M,10.00,M,CLR,M,M,M,M,M,M,M,M,M,M,M,M,M,M,81.34,KHTH 130555Z AUTO 00000KT 10SM CLR 29/02 A3010 RMK A01,M
MEV,2021-08-13 05:55,-119.7500,38.9963,1441.42,73.40,35.60,25.13,140.00,9.00,0.00,30.15,M,10.00,M,FEW,SCT,M,M,5000.00,6000.00,M,M,M,M,M,M,M,M,M,73.40,KMEV 130555Z AUTO 14009KT 10SM FEW050 SCT060 23/02 A3015 RMK AO2,M
NFL,2021-08-13 05:56,-118.7010,39.4166,1199.00,85.00,48.00,27.79,230.00,11.00,T,30.07,1015.20,6.00,20.00,SCT,BKN,OVC,M,7000.00,12000.00,25000.00,M,HZ,M,M,M,M,M,M,82.53,KNFL 130556Z 23011G20KT 6SM HZ SCT070 BKN120 OVC250 29/09 A3007 RMK AO2 RAB39E56 SLP152 OCNL LTGIC DSNT E SH DSNT E-SE P0000 60000 T02940089 10389 20261 53022,M
LAS,2021-08-13 05:56,-115.1634,36.0719,663.00,91.00,53.00,27.67,220.00,4.00,0.00,29.95,1011.20,10.00,M,FEW,SCT,BKN,M,9500.00,16000.00,20000.00,M,M,M,M,M,M,M,M,88.57,KLAS 130556Z 22004KT 10SM FEW095 SCT160 BKN200 33/12 A2995 RMK AO2 LTG DSNT SE SLP112 CONS LTGICCCCG DSNT E-SE CB DSNT E-SE T03280117 10400 20311 51028,M
HND,2021-08-13 05:56,-115.1344,35.9729,742.79,90.00,56.00,31.62,200.00,8.00,0.00,29.99,1013.70,10.00,15.00,CLR,M,M,M,M,M,M,M,M,M,M,M,M,M,M,88.29,KHND 130556Z AUTO 20008G15KT 10SM CLR 32/13 A2999 RMK AO2 LTG DSNT SE SLP137 T03220133 10394 20317 51028,M
WMC,2021-08-13 05:56,-117.8072,40.9019,1315.00,81.00,35.00,19.15,40.00,10.00,0.00,30.07,1011.90,10.00,M,CLR,M,M,M,M,M,M,M,M,M,M,M,M,M,M,79.17,KWMC 130556Z AUTO 04010KT 10SM CLR 27/02 A3007 RMK AO2 SLP119 T02720017 10383 20228 51012,M
TPH,2021-08-13 05:56,-117.0904,38.0505,1654.00,78.00,35.00,21.07,360.00,9.00,0.00,30.18,1012.30,10.00,M,CLR,M,M,M,M,M,M,M,M,M,M,M,M,M,M,78.10,KTPH 130556Z AUTO 36009KT 10SM CLR 26/02 A3018 RMK AO2 SLP123 T02560017 10361 20256 50012,M
EKO,2021-08-13 05:56,-115.7860,40.8242,1367.00,80.00,38.00,22.03,50.00,4.00,0.00,30.14,1013.30,10.00,M,CLR,M,M,M,M,M,M,M,M,M,M,M,M,M,M,78.85,KEKO 130556Z AUTO 05004KT 10SM CLR 27/03 A3014 RMK AO2 SLP133 T02670033 10361 20256 51015,M
LSV,2021-08-13 05:58,-115.0343,36.2362,570.00,90.00,54.30,29.83,270.00,10.00,0.00,29.92,1010.50,10.00,M,BKN,M,M,M,15000.00,M,M,M,M,M,M,M,M,M,M,87.89,KLSV 130558Z AUTO 27010KT 10SM BKN150 32/12 A2992 RMK AO2 SLP105 T03220124 10395 20303 51028 $,M
INS,2021-08-13 05:58,-115.6733,36.5872,955.00,90.70,50.00,24.91,150.00,16.00,0.00,29.99,M,10.00,M,CLR,M,M,M,M,M,M,M,M,M,M,M,M,M,M,87.71,KINS 130558Z AUTO 15016KT 10SM CLR 33/10 A2999 RMK AO2 SLPNO T03260100 10384 20326 51019 $,M
CXP,2021-08-13 06:10,-119.7326,39.1923,1431.00,84.20,37.40,18.91,270.00,6.00,0.00,30.17,M,10.00,M,FEW,M,M,M,10000.00,M,M,M,M,M,M,M,M,M,M,81.38,KCXP 130610Z AUTO 27006KT 10SM FEW100 29/03 A3017 RMK AO2,M
RTS,2021-08-13 06:15,-119.8764,39.6682,1539.00,75.20,35.60,23.66,0.00,0.00,0.00,30.21,M,10.00,M,CLR,M,M,M,M,M,M,M,M,M,M,M,M,M,M,75.20,KRTS 130615Z AUTO 00000KT 10SM CLR 24/02 A3021 RMK AO2,M
BAM,2021-08-13 06:15,-116.8743,40.5990,1382.36,82.40,41.00,23.07,220.00,7.00,0.00,30.10,M,10.00,M,CLR,M,M,M,M,M,M,M,M,M,M,M,M,M,M,80.29,KBAM 130615Z AUTO 22007KT 10SM CLR 28/05 A3010 RMK AO1,M
HTH,2021-08-13 06:15,-118.6315,38.5448,1282.89,86.00,35.60,16.63,230.00,6.00,0.00,30.10,M,10.00,M,CLR,M,M,M,M,M,M,M,M,M,M,M,M,M,M,82.69,KHTH 130615Z AUTO 23006KT 10SM CLR 30/02 A3010 RMK A01,M
BVU,2021-08-13 06:15,-114.8611,35.9475,671.00,86.00,59.00,40.14,220.00,10.00,0.00,29.94,M,10.00,M,FEW,SCT,BKN,M,2200.00,4200.00,6500.00,M,VCTS,M,M,M,M,M,M,85.47,KBVU 130615Z AUTO 22010KT 10SM VCTS FEW022 SCT042 BKN065 30/15 A2994 RMK AO2 LTG DSNT ALQDS,M
MEV,2021-08-13 06:15,-119.7500,38.9963,1441.42,71.60,37.40,28.68,M,4.00,0.00,30.17,M,10.00,M,FEW,FEW,FEW,M,4100.00,5000.00,5500.00,M,M,M,M,M,M,M,M,71.60,KMEV 130615Z AUTO VRB04KT 10SM FEW041 FEW050 FEW055 22/03 A3017 RMK AO2,M
TMT,2021-08-13 06:15,-117.1971,39.4643,1749.34,65.70,42.40,42.65,280.00,8.00,0.00,30.22,M,10.00,M,CLR,M,M,M,M,M,M,M,M,M,M,M,M,M,M,65.70,KTMT 130615Z AUTO 28008KT 10SM CLR 19/06 A3022 RMK AO2 T01870058,M
CXP,2021-08-13 06:30,-119.7326,39.1923,1431.00,82.40,37.40,20.04,250.00,4.00,0.00,30.17,M,10.00,M,CLR,M,M,M,M,M,M,M,M,M,M,M,M,M,M,80.14,KCXP 130630Z AUTO 25004KT 10SM CLR 28/03 A3017 RMK AO2,M
BAM,2021-08-13 06:35,-116.8743,40.5990,1382.36,82.40,39.20,21.51,220.00,3.00,0.00,30.12,M,10.00,M,CLR,M,M,M,M,M,M,M,M,M,M,M,M,M,M,80.21,KBAM 130635Z AUTO 22003KT 10SM CLR 28/04 A3012 RMK AO1,M
HTH,2021-08-13 06:35,-118.6315,38.5448,1282.89,82.40,35.60,18.67,190.00,4.00,0.00,30.11,M,10.00,M,CLR,M,M,M,M,M,M,M,M,M,M,M,M,M,M,80.08,KHTH 130635Z AUTO 19004KT 10SM CLR 28/02 A3011 RMK A01,M
TMT,2021-08-13 06:35,-117.1971,39.4643,1749.34,64.80,45.00,48.61,110.00,7.00,0.00,30.24,M,10.00,M,CLR,M,M,M,M,M,M,M,M,M,M,M,M,M,M,64.80,KTMT 130635Z AUTO 11007KT 10SM CLR 18/07 A3024 RMK AO2 T01820072,M
BVU,2021-08-13 06:35,-114.8611,35.9475,671.00,86.00,62.60,45.61,240.00,7.00,0.00,29.94,M,10.00,M,FEW,FEW,BKN,M,2200.00,3900.00,5500.00,M,M,M,M,M,M,M,M,86.72,KBVU 130635Z AUTO 24007KT 10SM FEW022 FEW039 BKN055 30/17 A2994 RMK AO2 LTG DSNT S,M
RTS,2021-08-13 06:35,-119.8764,39.6682,1539.00,73.40,35.60,25.13,310.00,10.00,0.00,30.21,M,10.00,M,CLR,M,M,M,M,M,M,M,M,M,M,M,M,M,M,73.40,KRTS 130635Z AUTO 31010KT 10SM CLR 23/02 A3021 RMK AO2,M
MEV,2021-08-13 06:35,-119.7500,38.9963,1441.42,68.00,37.40,32.43,180.00,6.00,0.00,30.18,M,10.00,M,FEW,M,M,M,4300.00,M,M,M,M,M,M,M,M,M,M,68.00,KMEV 130635Z AUTO 18006KT 10SM FEW043 20/03 A3018 RMK AO2,M
CXP,2021-08-13 06:50,-119.7326,39.1923,1431.00,80.60,39.20,22.81,230.00,4.00,0.00,30.18,M,10.00,M,CLR,M,M,M,M,M,M,M,M,M,M,M,M,M,M,79.10,KCXP 130650Z AUTO 23004KT 10SM CLR 27/04 A3018 RMK AO2,M
LOL,2021-08-13 06:53,-118.5701,40.0684,1192.43,85.00,46.00,25.77,260.00,7.00,T,30.09,1013.20,10.00,M,CLR,M,M,M,M,M,M,M,M,M,M,M,M,M,M,82.35,KLOL 130653Z AUTO 26007KT 10SM CLR 29/08 A3009 RMK AO2 RAB00E12 SLP132 P0000 T02940078,M
VGT,2021-08-13 06:53,-115.1933,36.2111,667.00,93.00,60.00,33.48,250.00,10.00,0.00,29.92,1011.50,10.00,M,CLR,M,M,M,M,M,M,M,FU,M,M,M,M,M,M,92.80,KVGT 130653Z AUTO 25010KT 10SM FU CLR 34/16 A2992 RMK AO2 SLP115 T03390156,M
DRA,2021-08-13 06:53,-116.0278,36.6206,1009.00,85.00,43.00,22.98,0.00,0.00,0.00,30.01,1010.30,10.00,M,CLR,M,M,M,M,M,M,M,M,M,M,M,M,M,M,82.13,KDRA 130653Z AUTO 00000KT 10SM CLR 29/06 A3001 RMK AO2 SLP103 T02940061,M
ELY,2021-08-13 06:53,-114.8453,39.2950,1909.00,61.00,33.00,34.91,190.00,11.00,0.00,30.26,1013.40,10.00,M,CLR,M,M,M,M,M,M,M,M,M,M,M,M,M,M,61.00,KELY 130653Z AUTO 19011KT 10SM CLR 16/01 A3026 RMK AO2 SLP134 T01610006,M
P68,2021-08-13 06:53,-116.0056,39.6014,1993.00,70.00,39.00,32.24,210.00,6.00,0.00,30.22,1013.50,M,M,M,M,M,M,M,M,M,M,M,M,M,M,M,M,M,70.00,KP68 130653Z AUTO 21006KT 21/04 A3022 RMK AO1 SLP135 T02110039,M
BAM,2021-08-13 06:55,-116.8743,40.5990,1382.36,80.60,39.20,22.81,180.00,7.00,0.00,30.12,M,10.00,M,CLR,M,M,M,M,M,M,M,M,M,M,M,M,M,M,79.10,KBAM 130655Z AUTO 18007KT 10SM CLR 27/04 A3012 RMK AO1,M
HTH,2021-08-13 06:55,-118.6315,38.5448,1282.89,80.60,35.60,19.79,270.00,4.00,0.00,30.11,M,10.00,M,CLR,M,M,M,M,M,M,M,M,M,M,M,M,M,M,78.94,KHTH 130655Z AUTO 27004KT 10SM CLR 27/02 A3011 RMK A01,M
TMT,2021-08-13 06:55,-117.1971,39.4643,1749.34,61.50,44.60,53.77,140.00,5.00,0.00,30.24,M,10.00,M,CLR,M,M,M,M,M,M,M,M,M,M,M,M,M,M,61.50,KTMT 130655Z AUTO 14005KT 10SM CLR 16/07 A3024 RMK AO2 T01640070,M
RNO,2021-08-13 06:55,-119.7711,39.4839,1341.00,82.00,40.00,22.39,20.00,9.00,0.00,30.15,1014.00,7.00,15.00,FEW,M,M,M,20000.00,M,M,M,M,M,M,M,M,M,M,79.98,KRNO 130655Z 02009G15KT 7SM FEW200 28/04 A3015 RMK AO2 SLP140 FU ALF AND HZ ALQDS T02780044,M
MEV,2021-08-13 06:55,-119.7500,38.9963,1441.42,66.20,37.40,34.51,110.00,5.00,0.00,30.18,M,10.00,M,FEW,SCT,M,M,4700.00,6000.00,M,M,M,M,M,M,M,M,M,66.20,KMEV 130655Z AUTO 11005KT 10SM FEW047 SCT060 19/03 A3018 RMK AO2,M
RTS,2021-08-13 06:55,-119.8764,39.6682,1539.00,77.00,35.60,22.28,50.00,5.00,0.00,30.22,M,10.00,M,CLR,M,M,M,M,M,M,M,M,M,M,M,M,M,M,77.00,KRTS 130655Z AUTO 05005KT 10SM CLR 25/02 A3022 RMK AO2,M
BVU,2021-08-13 06:55,-114.8611,35.9475,671.00,86.00,64.40,48.58,120.00,9.00,0.00,29.96,M,10.00,M,FEW,FEW,FEW,M,4900.00,6000.00,7500.00,M,M,M,M,M,M,M,M,87.49,KBVU 130655Z AUTO 12009KT 10SM FEW049 FEW060 FEW075 30/18 A2996 RMK AO2,M
EKO,2021-08-13 06:56,-115.7860,40.8242,1367.00,79.00,38.00,22.84,M,4.00,0.00,30.15,1013.70,10.00,M,CLR,M,M,M,M,M,M,M,M,M,M,M,M,M,M,79.00,KEKO 130656Z AUTO VRB04KT 10SM CLR 26/03 A3015 RMK AO2 SLP137 T02610033,M
HND,2021-08-13 06:56,-115.1344,35.9729,742.79,89.00,65.00,44.80,190.00,19.00,T,29.96,1012.70,10.00,25.00,FEW,M,M,M,12000.00,M,M,M,-RA,M,M,M,M,M,M,90.97,KHND 130656Z AUTO 19019G25KT 10SM -RA FEW120 32/18 A2996 RMK AO2 RAB50 SLP127 P0000 T03170183 403940272,M
TPH,2021-08-13 06:56,-117.0904,38.0505,1654.00,76.00,36.00,23.48,10.00,9.00,0.00,30.19,1012.40,10.00,M,CLR,M,M,M,M,M,M,M,M,M,M,M,M,M,M,75.90,KTPH 130656Z AUTO 01009KT 10SM CLR 24/02 A3019 RMK AO2 SLP124 T02440022,M
NFL,2021-08-13 06:56,-118.7010,39.4166,1199.00,86.00,45.00,23.95,280.00,11.00,T,30.10,1016.00,10.00,M,SCT,BKN,OVC,M,7000.00,12000.00,25000.00,M,M,M,M,M,M,M,M,83.10,KNFL 130656Z 28011KT 10SM SCT070 BKN120 OVC250 30/07 A3010 RMK AO2 RAB29E38 SLP160 SH VC N-NE AND SW WR// P0000 T03000072,M
WMC,2021-08-13 06:56,-117.8072,40.9019,1315.00,85.00,30.90,14.26,50.00,15.00,0.00,30.08,1011.90,10.00,M,CLR,M,M,M,M,M,M,M,M,M,M,M,M,M,M,81.79,KWMC 130656Z AUTO 05015KT 10SM CLR 29/M01 A3008 RMK AO2 SLP119 T02941006,M
LAS,2021-08-13 06:56,-115.1634,36.0719,663.00,91.00,60.00,35.64,240.00,14.00,0.00,29.93,1010.20,10.00,20.00,FEW,BKN,BKN,M,9500.00,12000.00,20000.00,M,M,M,M,M,M,M,M,90.69,KLAS 130656Z 24014G20KT 10SM FEW095 BKN120 BKN200 33/16 A2993 RMK AO2 PRESFR SLP102 BLDU DSNT NW-NE T03280156,M
LSV,2021-08-13 06:58,-115.0343,36.2362,570.00,89.80,55.00,30.80,110.00,10.00,0.00,29.93,1010.80,10.00,19.00,CLR,M,M,M,M,M,M,M,M,M,M,M,M,M,M,87.87,KLSV 130658Z AUTO 11010G19KT 10SM CLR 32/13 A2993 RMK AO2 SLP108 T03210128 $,M
INS,2021-08-13 06:58,-115.6733,36.5872,955.00,89.60,43.20,19.95,100.00,9.00,0.00,29.99,M,10.00,M,BKN,M,M,M,17000.00,M,M,M,M,M,M,M,M,M,M,85.96,KINS 130658Z AUTO 10009KT 10SM BKN170 32/06 A2999 RMK AO2 SLPNO T03200062 $,M
CXP,2021-08-13 07:10,-119.7326,39.1923,1431.00,78.80,37.40,22.54,240.00,5.00,0.00,30.18,M,10.00,M,SCT,SCT,M,M,5000.00,5500.00,M,M,M,M,M,M,M,M,M,78.80,KCXP 130710Z AUTO 24005KT 10SM SCT050 SCT055 26/03 A3018 RMK AO2,M
HTH,2021-08-13 07:15,-118.6315,38.5448,1282.89,80.60,33.80,18.42,0.00,0.00,0.00,30.11,M,10.00,M,CLR,M,M,M,M,M,M,M,M,M,M,M,M,M,M,78.88,KHTH 130715Z AUTO 00000KT 10SM CLR 27/01 A3011 RMK A01,M
BVU,2021-08-13 07:15,-114.8611,35.9475,671.00,86.00,62.60,45.61,110.00,10.00,0.00,29.96,M,10.00,M,CLR,M,M,M,M,M,M,M,M,M,M,M,M,M,M,86.72,KBVU 130715Z AUTO 11010KT 10SM CLR 30/17 A2996 RMK AO2,M
TMT,2021-08-13 07:15,-117.1971,39.4643,1749.34,62.00,43.30,50.44,0.00,0.00,0.00,30.25,M,10.00,M,BKN,M,M,M,12000.00,M,M,M,M,M,M,M,M,M,M,61.90,KTMT 130715Z AUTO 00000KT 10SM BKN120 17/06 A3025 RMK AO2 T01660063,M
BAM,2021-08-13 07:15,-116.8743,40.5990,1382.36,78.80,39.20,24.19,140.00,4.00,0.00,30.12,M,10.00,M,CLR,M,M,M,M,M,M,M,M,M,M,M,M,M,M,78.80,KBAM 130715Z AUTO 14004KT 10SM CLR 26/04 A3012 RMK AO1,M
MEV,2021-08-13 07:15,-119.7500,38.9963,1441.42,66.20,37.40,34.51,90.00,3.00,0.00,30.18,M,10.00,M,SCT,BKN,M,M,4600.00,5500.00,M,M,M,M,M,M,M,M,M,66.20,KMEV 130715Z AUTO 09003KT 10SM SCT046 BKN055 19/03 A3018 RMK AO2,M
RTS,2021-08-13 07:15,-119.8764,39.6682,1539.00,75.20,35.60,23.66,280.00,6.00,0.00,30.22,M,10.00,M,CLR,M,M,M,M,M,M,M,M,M,M,M,M,M,M,75.20,KRTS 130715Z AUTO 28006KT 10SM CLR 24/02 A3022 RMK AO2,M
CXP,2021-08-13 07:30,-119.7326,39.1923,1431.00,77.00,37.40,23.93,10.00,5.00,0.00,30.19,M,10.00,M,OVC,M,M,M,5000.00,M,M,M,M,M,M,M,M,M,M,77.00,KCXP 130730Z AUTO 01005KT 10SM OVC050 25/03 A3019 RMK AO2,M
HTH,2021-08-13 07:35,-118.6315,38.5448,1282.89,77.00,35.60,22.28,0.00,0.00,0.00,30.12,M,10.00,M,CLR,M,M,M,M,M,M,M,M,M,M,M,M,M,M,77.00,KHTH 130735Z AUTO 00000KT 10SM CLR 25/02 A3012 RMK A01,M
MEV,2021-08-13 07:35,-119.7500,38.9963,1441.42,62.60,39.20,42.00,120.00,6.00,0.00,30.18,M,10.00,M,BKN,BKN,M,M,4600.00,5500.00,M,M,M,M,M,M,M,M,M,62.60,KMEV 130735Z AUTO 12006KT 10SM BKN046 BKN055 17/04 A3018 RMK AO2,M
BAM,2021-08-13 07:35,-116.8743,40.5990,1382.36,77.00,39.20,25.67,160.00,6.00,0.00,30.12,M,10.00,M,CLR,M,M,M,M,M,M,M,M,M,M,M,M,M,M,77.00,KBAM 130735Z AUTO 16006KT 10SM CLR 25/04 A3012 RMK AO1,M
BVU,2021-08-13 07:35,-114.8611,35.9475,671.00,82.40,62.60,51.21,90.00,12.00,0.00,29.97,M,10.00,M,CLR,M,M,M,M,M,M,M,M,M,M,M,M,M,M,83.41,KBVU 130735Z AUTO 09012KT 10SM CLR 28/17 A2997 RMK AO2,M
RTS,2021-08-13 07:35,-119.8764,39.6682,1539.00,73.40,35.60,25.13,290.00,5.00,0.00,30.22,M,10.00,M,CLR,M,M,M,M,M,M,M,M,M,M,M,M,M,M,73.40,KRTS 130735Z AUTO 29005KT 10SM CLR 23/02 A3022 RMK AO2,M
TMT,2021-08-13 07:35,-117.1971,39.4643,1749.34,62.20,46.00,55.32,310.00,5.00,0.00,30.25,M,10.00,M,BKN,M,M,M,12000.00,M,M,M,-RA,M,M,M,M,M,M,62.20,KTMT 130735Z AUTO 31005KT 10SM -RA BKN120 17/08 A3025 RMK AO2 T01680078,M
CXP,2021-08-13 07:50,-119.7326,39.1923,1431.00,77.00,37.40,23.93,0.00,0.00,0.00,30.21,M,10.00,M,FEW,BKN,M,M,5000.00,6000.00,M,M,M,M,M,M,M,M,M,77.00,KCXP 130750Z AUTO 00000KT 10SM FEW050 BKN060 25/03 A3021 RMK AO2,M
VGT,2021-08-13 07:53,-115.1933,36.2111,667.00,91.00,57.00,31.89,100.00,8.00,0.00,29.95,1012.50,10.00,M,CLR,M,M,M,M,M,M,M,FU,M,M,M,M,M,M,89.59,KVGT 130753Z AUTO 10008KT 10SM FU CLR 33/14 A2995 RMK AO2 SLP125 T03280139 404000289,M
LOL,2021-08-13 07:53,-118.5701,40.0684,1192.43,83.00,46.00,27.48,260.00,7.00,0.00,30.10,1013.60,10.00,M,CLR,M,M,M,M,M,M,M,M,M,M,M,M,M,M,80.94,KLOL 130753Z AUTO 26007KT 10SM CLR 28/08 A3010 RMK AO2 SLP136 T02830078 404060117,M
DRA,2021-08-13 07:53,-116.0278,36.6206,1009.00,82.00,43.00,25.24,40.00,6.00,0.00,30.01,1010.30,10.00,M,CLR,M,M,M,M,M,M,M,M,M,M,M,M,M,M,80.15,KDRA 130753Z AUTO 04006KT 10SM CLR 28/06 A3001 RMK AO2 SLP103 T02780061 403940228,M
P68,2021-08-13 07:53,-116.0056,39.6014,1993.00,69.00,40.00,34.43,180.00,5.00,0.00,30.22,1013.50,M,M,M,M,M,M,M,M,M,M,M,M,M,M,M,M,M,69.10,KP68 130753Z AUTO 18005KT 21/04 A3022 RMK AO1 SLP135 T02060044 403440117,M
ELY,2021-08-13 07:53,-114.8453,39.2950,1909.00,57.00,34.00,41.76,180.00,9.00,0.00,30.27,1013.80,10.00,M,CLR,M,M,M,M,M,M,M,M,M,M,M,M,M,M,57.00,KELY 130753Z AUTO 18009KT 10SM CLR 14/01 A3027 RMK AO2 SLP138 T01390011 403330083,M
MEV,2021-08-13 07:55,-119.7500,38.9963,1441.42,62.60,37.40,39.14,110.00,8.00,0.00,30.19,M,10.00,M,OVC,M,M,M,4900.00,M,M,M,M,M,M,M,M,M,M,62.60,KMEV 130755Z AUTO 11008KT 10SM OVC049 17/03 A3019 RMK AO2,M
TMT,2021-08-13 07:55,-117.1971,39.4643,1749.34,63.00,42.80,47.60,270.00,7.00,0.00,30.25,M,10.00,M,SCT,M,M,M,12000.00,M,M,M,M,M,M,M,M,M,M,63.00,KTMT 130755Z AUTO 27007KT 10SM SCT120 17/06 A3025 RMK AO2 T01720060 403440045,M
RNO,2021-08-13 07:55,-119.7711,39.4839,1341.00,80.00,40.00,23.82,60.00,5.00,0.00,30.17,1014.70,7.00,M,FEW,M,M,M,15000.00,M,M,M,M,M,M,M,M,M,M,78.93,KRNO 130755Z 06005KT 7SM FEW150 27/04 A3017 RMK AO2 SLP147 FU ALF AND HZ ALQDS T02670044 403720178,M
BVU,2021-08-13 07:55,-114.8611,35.9475,671.00,82.40,60.80,48.05,130.00,9.00,0.00,29.96,M,10.00,M,CLR,M,M,M,M,M,M,M,M,M,M,M,M,M,M,82.90,KBVU 130755Z AUTO 13009KT 10SM CLR 28/16 A2996 RMK AO2,M
BAM,2021-08-13 07:55,-116.8743,40.5990,1382.36,73.40,39.20,28.96,150.00,4.00,0.00,30.13,M,10.00,M,CLR,M,M,M,M,M,M,M,M,M,M,M,M,M,M,73.40,KBAM 130755Z AUTO 15004KT 10SM CLR 23/04 A3013 RMK AO1,M
HTH,2021-08-13 07:55,-118.6315,38.5448,1282.89,77.00,33.80,20.74,140.00,4.00,0.00,30.12,M,10.00,M,CLR,M,M,M,M,M,M,M,M,M,M,M,M,M,M,77.00,KHTH 130755Z AUTO 14004KT 10SM CLR 25/01 A3012 RMK A01,M
RTS,2021-08-13 07:55,-119.8764,39.6682,1539.00,77.00,35.60,22.28,0.00,0.00,0.00,30.23,M,10.00,M,CLR,M,M,M,M,M,M,M,M,M,M,M,M,M,M,77.00,KRTS 130755Z AUTO 00000KT 10SM CLR 25/02 A3023 RMK AO2,M
WMC,2021-08-13 07:56,-117.8072,40.9019,1315.00,80.00,30.90,16.67,70.00,3.00,0.00,30.12,1013.30,10.00,M,CLR,M,M,M,M,M,M,M,M,M,M,M,M,M,M,78.59,KWMC 130756Z AUTO 07003KT 10SM CLR 27/M01 A3012 RMK AO2 SLP133 T02671006 403940111,M
HND,2021-08-13 07:56,-115.1344,35.9729,742.79,86.00,61.00,43.10,50.00,6.00,T,29.99,1013.80,10.00,M,CLR,M,M,M,M,M,M,M,M,M,M,M,M,M,M,86.12,KHND 130756Z AUTO 05006KT 10SM CLR 30/16 A2999 RMK AO2 RAE04 SLP138 P0000 T03000161,M
TPH,2021-08-13 07:56,-117.0904,38.0505,1654.00,73.00,36.00,25.88,20.00,9.00,0.00,30.20,1012.70,10.00,M,CLR,M,M,M,M,M,M,M,M,M,M,M,M,M,M,73.00,KTPH 130756Z AUTO 02009KT 10SM CLR 23/02 A3020 RMK AO2 SLP127 T02280022 403670161,M
LAS,2021-08-13 07:56,-115.1634,36.0719,663.00,90.00,61.00,37.97,80.00,8.00,0.00,29.96,1011.30,10.00,M,FEW,SCT,BKN,M,9500.00,12000.00,21000.00,M,M,M,M,M,M,M,M,90.03,KLAS 130756Z 08008KT 10SM FEW095 SCT120 BKN210 32/16 A2996 RMK AO2 SLP113 T03220161 404000283,M
EKO,2021-08-13 07:56,-115.7860,40.8242,1367.00,68.00,39.00,34.53,0.00,0.00,0.00,30.16,1014.50,10.00,M,CLR,M,M,M,M,M,M,M,M,M,M,M,M,M,M,68.00,KEKO 130756Z AUTO 00000KT 10SM CLR 20/04 A3016 RMK AO2 SLP145 T02000039 403670128,M
NFL,2021-08-13 07:56,-118.7010,39.4166,1199.00,83.00,44.00,25.57,360.00,7.00,0.00,30.08,1015.50,9.00,M,CLR,M,M,M,M,M,M,M,M,M,M,M,M,M,M,80.80,KNFL 130756Z AUTO 36007KT 9SM CLR 28/07 A3008 RMK AO2 SLP155 T02830067 403890167,M
INS,2021-08-13 07:58,-115.6733,36.5872,955.00,85.60,48.70,27.89,120.00,7.00,0.00,30.00,M,10.00,M,SCT,BKN,M,M,16000.00,20000.00,M,M,M,M,M,M,M,M,M,83.14,KINS 130758Z AUTO 12007KT 10SM SCT160 BKN200 30/09 A3000 RMK AO2 SLPNO T02980093 403840260 $,M
LSV,2021-08-13 07:58,-115.0343,36.2362,570.00,89.20,57.20,33.99,70.00,9.00,0.00,29.93,1010.70,10.00,M,BKN,M,M,M,16000.00,M,M,M,M,M,M,M,M,M,M,87.89,KLSV 130758Z AUTO 07009KT 10SM BKN160 32/14 A2993 RMK AO2 SLP107 T03180140 403950287 $,M
CXP,2021-08-13 08:10,-119.7326,39.1923,1431.00,77.00,37.40,23.93,270.00,4.00,0.00,30.21,M,10.00,M,CLR,M,M,M,M,M,M,M,M,M,M,M,M,M,M,77.00,KCXP 130810Z AUTO 27004KT 10SM CLR 25/03 A3021 RMK AO2,M
HTH,2021-08-13 08:15,-118.6315,38.5448,1282.89,77.00,35.60,22.28,170.00,4.00,0.00,30.12,M,10.00,M,CLR,M,M,M,M,M,M,M,M,M,M,M,M,M,M,77.00,KHTH 130815Z AUTO 17004KT 10SM CLR 25/02 A3012 RMK A01,M
TMT,2021-08-13 08:15,-117.1971,39.4643,1749.34,59.50,42.30,52.86,200.00,4.00,0.00,30.25,M,10.00,M,CLR,M,M,M,M,M,M,M,M,M,M,M,M,M,M,59.50,KTMT 130815Z AUTO 20004KT 10SM CLR 15/06 A3025 RMK AO2 T01530057,M
MEV,2021-08-13 08:15,-119.7500,38.9963,1441.42,66.20,39.20,37.03,0.00,0.00,0.00,30.20,M,10.00,M,BKN,BKN,OVC,M,5000.00,6500.00,7500.00,M,M,M,M,M,M,M,M,66.20,KMEV 130815Z AUTO 00000KT 10SM BKN050 BKN065 OVC075 19/04 A3020 RMK AO2,M
RTS,2021-08-13 08:15,-119.8764,39.6682,1539.00,71.60,35.60,26.71,90.00,4.00,0.00,30.24,M,10.00,M,CLR,M,M,M,M,M,M,M,M,M,M,M,M,M,M,71.60,KRTS 130815Z AUTO 09004KT 10SM CLR 22/02 A3024 RMK AO2,M
BAM,2021-08-13 08:15,-116.8743,40.5990,1382.36,75.20,39.20,27.26,50.00,3.00,0.00,30.13,M,10.00,M,CLR,M,M,M,M,M,M,M,M,M,M,M,M,M,M,75.20,KBAM 130815Z AUTO 05003KT 10SM CLR 24/04 A3013 RMK AO1,M
BVU,2021-08-13 08:15,-114.8611,35.9475,671.00,82.40,59.00,45.07,0.00,0.00,0.00,29.96,M,10.00,M,CLR,M,M,M,M,M,M,M,M,M,M,M,M,M,M,82.46,KBVU 130815Z AUTO 00000KT 10SM CLR 28/15 A2996 RMK AO2,M
CXP,2021-08-13 08:30,-119.7326,39.1923,1431.00,75.20,37.40,25.40,180.00,3.00,0.00,30.21,M,10.00,M,CLR,M,M,M,M,M,M,M,M,M,M,M,M,M,M,75.20,KCXP 130830Z AUTO 18003KT 10SM CLR 24/03 A3021 RMK AO2,M
BAM,2021-08-13 08:35,-116.8743,40.5990,1382.36,75.20,39.20,27.26,110.00,3.00,0.00,30.13,M,10.00,M,CLR,M,M,M,M,M,M,M,M,M,M,M,M,M,M,75.20,KBAM 130835Z AUTO 11003KT 10SM CLR 24/04 A3013 RMK AO1,M
TMT,2021-08-13 08:35,-117.1971,39.4643,1749.34,57.00,42.00,56.94,160.00,6.00,0.00,30.26,M,10.00,M,CLR,M,M,M,M,M,M,M,M,M,M,M,M,M,M,57.00,KTMT 130835Z AUTO 16006KT 10SM CLR 14/06 A3026 RMK AO2 T01390055,M
BVU,2021-08-13 08:35,-114.8611,35.9475,671.00,80.60,60.80,50.95,30.00,5.00,0.00,29.96,M,10.00,M,CLR,M,M,M,M,M,M,M,M,M,M,M,M,M,M,81.46,KBVU 130835Z AUTO 03005KT 10SM CLR 27/16 A2996 RMK AO2,M
RTS,2021-08-13 08:35,-119.8764,39.6682,1539.00,71.60,35.60,26.71,0.00,0.00,0.00,30.24,M,10.00,M,CLR,M,M,M,M,M,M,M,M,M,M,M,M,M,M,71.60,KRTS 130835Z AUTO 00000KT 10SM CLR 22/02 A3024 RMK AO2,M
MEV,2021-08-13 08:35,-119.7500,38.9963,1441.42,64.40,37.40,36.74,290.00,7.00,0.00,30.21,M,10.00,M,SCT,OVC,M,M,7500.00,9000.00,M,M,M,M,M,M,M,M,M,64.40,KMEV 130835Z AUTO 29007KT 10SM SCT075 OVC090 18/03 A3021 RMK AO2,M
HTH,2021-08-13 08:35,-118.6315,38.5448,1282.89,77.00,35.60,22.28,250.00,3.00,0.00,30.13,M,10.00,M,SCT,BKN,M,M,3200.00,4000.00,M,M,M,M,M,M,M,M,M,77.00,KHTH 130835Z AUTO 25003KT 10SM SCT032 BKN040 25/02 A3013 RMK A01,M
CXP,2021-08-13 08:50,-119.7326,39.1923,1431.00,73.40,37.40,26.98,0.00,0.00,0.00,30.21,M,10.00,M,CLR,M,M,M,M,M,M,M,M,M,M,M,M,M,M,73.40,KCXP 130850Z AUTO 00000KT 10SM CLR 23/03 A3021 RMK AO2,M
ELY,2021-08-13 08:53,-114.8453,39.2950,1909.00,57.00,35.00,43.63,180.00,7.00,0.00,30.27,1013.80,10.00,M,CLR,M,M,M,M,M,M,M,M,M,M,M,M,M,M,57.00,KELY 130853Z AUTO 18007KT 10SM CLR 14/02 A3027 RMK AO2 SLP138 T01390017 50005,M
DRA,2021-08-13 08:53,-116.0278,36.6206,1009.00,83.00,46.00,27.48,90.00,6.00,0.00,30.01,1010.10,10.00,M,CLR,M,M,M,M,M,M,M,M,M,M,M,M,M,M,80.94,KDRA 130853Z AUTO 09006KT 10SM CLR 28/08 A3001 RMK AO2 SLP101 T02830078 50004,M
LOL,2021-08-13 08:53,-118.5701,40.0684,1192.43,84.00,45.00,25.54,320.00,17.00,0.00,30.08,1012.90,10.00,M,CLR,M,M,M,M,M,M,M,M,M,M,M,M,M,M,81.61,KLOL 130853Z AUTO 32017KT 10SM CLR 29/07 A3008 RMK AO2 SLP129 60000 T02890072 58001,M
VGT,2021-08-13 08:53,-115.1933,36.2111,667.00,90.00,59.00,35.36,100.00,5.00,0.00,29.94,1012.30,10.00,M,CLR,M,M,M,M,M,M,M,FU,M,M,M,M,M,M,89.26,KVGT 130853Z AUTO 10005KT 10SM FU CLR 32/15 A2994 RMK AO2 SLP123 T03220150 56002,M
P68,2021-08-13 08:53,-116.0056,39.6014,1993.00,65.00,40.00,39.82,340.00,5.00,0.00,30.24,1014.20,M,M,M,M,M,M,M,M,M,M,M,M,M,M,M,M,M,64.90,KP68 130853Z AUTO 34005KT 18/04 A3024 RMK AO1 SLP142 T01830044 53001,M
HTH,2021-08-13 08:55,-118.6315,38.5448,1282.89,M,M,M,0.00,0.00,0.00,30.13,M,10.00,M,M,M,M,M,M,M,M,M,M,M,M,M,M,M,M,M,KHTH 130855Z AUTO 00000KT 10SM A3013 RMK A01,M
TMT,2021-08-13 08:55,-117.1971,39.4643,1749.34,58.00,43.00,57.51,210.00,8.00,0.00,30.26,M,10.00,M,CLR,M,M,M,M,M,M,M,M,M,M,M,M,M,M,57.90,KTMT 130855Z AUTO 21008KT 10SM CLR 14/06 A3026 RMK AO2 T01440061,M
RNO,2021-08-13 08:55,-119.7711,39.4839,1341.00,78.00,42.00,27.70,280.00,7.00,0.00,30.17,1014.40,7.00,M,FEW,M,M,M,15000.00,M,M,M,M,M,M,M,M,M,M,78.10,KRNO 130855Z 28007KT 7SM FEW150 26/06 A3017 RMK AO2 SLP144 FU ALF AND HZ ALQDS T02560056 50011,M
BVU,2021-08-13 08:55,-114.8611,35.9475,671.00,82.40,59.00,45.07,70.00,4.00,0.00,29.96,M,10.00,M,CLR,M,M,M,M,M,M,M,M,M,M,M,M,M,M,82.46,KBVU 130855Z AUTO 07004KT 10SM CLR 28/15 A2996 RMK AO2,M
MEV,2021-08-13 08:55,-119.7500,38.9963,1441.42,62.60,37.40,39.14,0.00,0.00,0.00,30.21,M,10.00,M,FEW,SCT,OVC,M,4300.00,5000.00,9500.00,M,M,M,M,M,M,M,M,62.60,KMEV 130855Z AUTO 00000KT 10SM FEW043 SCT050 OVC095 17/03 A3021 RMK AO2,M
BAM,2021-08-13 08:55,-116.8743,40.5990,1382.36,73.40,37.40,26.98,80.00,5.00,0.00,30.14,M,10.00,M,CLR,M,M,M,M,M,M,M,M,M,M,M,M,M,M,73.40,KBAM 130855Z AUTO 08005KT 10SM CLR 23/03 A3014 RMK AO1,M
RTS,2021-08-13 08:55,-119.8764,39.6682,1539.00,69.80,35.60,28.39,0.00,0.00,0.00,30.24,M,10.00,M,CLR,M,M,M,M,M,M,M,M,M,M,M,M,M,M,69.80,KRTS 130855Z AUTO 00000KT 10SM CLR 21/02 A3024 RMK AO2,M
WMC,2021-08-13 08:56,-117.8072,40.9019,1315.00,78.00,30.90,17.80,340.00,3.00,0.00,30.12,1013.40,10.00,M,CLR,M,M,M,M,M,M,M,M,M,M,M,M,M,M,78.10,KWMC 130856Z AUTO 34003KT 10SM CLR 26/M01 A3012 RMK AO2 SLP134 T02561006 51016,M
TPH,2021-08-13 08:56,-117.0904,38.0505,1654.00,69.00,35.00,28.51,340.00,7.00,0.00,30.21,1013.30,10.00,M,CLR,M,M,M,M,M,M,M,M,M,M,M,M,M,M,69.10,KTPH 130856Z AUTO 34007KT 10SM CLR 21/02 A3021 RMK AO2 SLP133 T02060017 51008,M
NFL,2021-08-13 08:56,-118.7010,39.4166,1199.00,82.00,46.00,28.30,350.00,10.00,0.00,30.08,1015.20,8.00,M,SCT,M,M,M,11000.00,M,M,M,M,M,M,M,M,M,M,80.36,KNFL 130856Z AUTO 35010KT 8SM SCT110 28/08 A3008 RMK AO2 SLP152 60000 T02780078 50001,M
HND,2021-08-13 08:56,-115.1344,35.9729,742.79,85.00,61.00,44.65,200.00,4.00,0.00,29.99,1013.70,10.00,M,CLR,M,M,M,M,M,M,M,M,M,M,M,M,M,M,85.12,KHND 130856Z AUTO 20004KT 10SM CLR 29/16 A2999 RMK AO2 SLP137 60000 T02940161 53001,M
EKO,2021-08-13 08:56,-115.7860,40.8242,1367.00,67.00,38.00,34.35,350.00,3.00,0.00,30.17,1014.90,10.00,M,CLR,M,M,M,M,M,M,M,M,M,M,M,M,M,M,66.90,KEKO 130856Z AUTO 35003KT 10SM CLR 19/03 A3017 RMK AO2 SLP149 T01940033 51011,M
LAS,2021-08-13 08:56,-115.1634,36.0719,663.00,86.00,61.00,43.10,110.00,5.00,0.00,29.95,1011.10,10.00,M,FEW,SCT,BKN,M,9500.00,12000.00,19000.00,M,M,M,M,M,M,M,M,86.12,KLAS 130856Z 11005KT 10SM FEW095 SCT120 BKN190 30/16 A2995 RMK AO2 SLP111 T03000161 55000,M
INS,2021-08-13 08:58,-115.6733,36.5872,955.00,85.00,51.00,30.99,90.00,8.00,0.00,30.00,M,10.00,M,FEW,M,M,M,18000.00,M,M,M,M,M,M,M,M,M,M,83.06,KINS 130858Z AUTO 09008KT 10SM FEW180 30/11 A3000 RMK AO2 SLPNO T02950106 52005 $,M
LSV,2021-08-13 08:58,-115.0343,36.2362,570.00,85.80,62.60,45.90,70.00,11.00,0.00,29.92,1010.40,10.00,M,BKN,M,M,M,16000.00,M,M,M,M,M,M,M,M,M,M,86.53,KLSV 130858Z AUTO 07011KT 10SM BKN160 30/17 A2992 RMK AO2 SLP104 T02990170 50001 $,M
CXP,2021-08-13 09:10,-119.7326,39.1923,1431.00,69.80,39.20,32.72,M,4.00,0.00,30.21,M,10.00,M,CLR,M,M,M,M,M,M,M,M,M,M,M,M,M,M,69.80,KCXP 130910Z AUTO VRB04KT 10SM CLR 21/04 A3021 RMK AO2,M
RTS,2021-08-13 09:15,-119.8764,39.6682,1539.00,68.00,35.60,30.20,330.00,3.00,0.00,30.24,M,10.00,M,CLR,M,M,M,M,M,M,M,M,M,M,M,M,M,M,68.00,KRTS 130915Z AUTO 33003KT 10SM CLR 20/02 A3024 RMK AO2,M
MEV,2021-08-13 09:15,-119.7500,38.9963,1441.42,60.80,39.20,44.76,150.00,4.00,0.00,30.20,M,10.00,M,FEW,SCT,BKN,M,4400.00,4900.00,9000.00,M,M,M,M,M,M,M,M,60.80,KMEV 130915Z AUTO 15004KT 10SM FEW044 SCT049 BKN090 16/04 A3020 RMK AO2,M
BAM,2021-08-13 09:15,-116.8743,40.5990,1382.36,73.40,39.20,28.96,30.00,5.00,0.00,30.13,M,10.00,M,CLR,M,M,M,M,M,M,M,M,M,M,M,M,M,M,73.40,KBAM 130915Z AUTO 03005KT 10SM CLR 23/04 A3013 RMK AO1,M
TMT,2021-08-13 09:15,-117.1971,39.4643,1749.34,59.70,41.20,50.30,150.00,3.00,0.00,30.26,M,10.00,M,CLR,M,M,M,M,M,M,M,M,M,M,M,M,M,M,59.70,KTMT 130915Z AUTO 15003KT 10SM CLR 15/05 A3026 RMK AO2 T01540051,M
BVU,2021-08-13 09:15,-114.8611,35.9475,671.00,80.60,60.80,50.95,50.00,5.00,0.00,29.96,M,10.00,M,CLR,M,M,M,M,M,M,M,M,M,M,M,M,M,M,81.46,KBVU 130915Z AUTO 05005KT 10SM CLR 27/16 A2996 RMK AO2,M
HTH,2021-08-13 09:15,-118.6315,38.5448,1282.89,75.20,35.60,23.66,170.00,4.00,0.00,30.13,M,10.00,M,M,M,M,M,M,M,M,M,M,M,M,M,M,M,M,75.20,KHTH 130915Z AUTO 17004KT 10SM 24/02 A3013 RMK A01,M
CXP,2021-08-13 09:30,-119.7326,39.1923,1431.00,71.60,37.40,28.68,160.00,3.00,0.00,30.21,M,10.00,M,CLR,M,M,M,M,M,M,M,M,M,M,M,M,M,M,71.60,KCXP 130930Z AUTO 16003KT 10SM CLR 22/03 A3021 RMK AO2,M
BAM,2021-08-13 09:35,-116.8743,40.5990,1382.36,73.40,41.00,31.05,0.00,0.00,0.00,30.13,M,10.00,M,CLR,M,M,M,M,M,M,M,M,M,M,M,M,M,M,73.40,KBAM 130935Z AUTO 00000KT 10SM CLR 23/05 A3013 RMK AO1,M
BVU,2021-08-13 09:35,-114.8611,35.9475,671.00,80.60,60.80,50.95,50.00,6.00,0.00,29.96,M,10.00,M,CLR,M,M,M,M,M,M,M,M,M,M,M,M,M,M,81.46,KBVU 130935Z AUTO 05006KT 10SM CLR 27/16 A2996 RMK AO2,M
MEV,2021-08-13 09:35,-119.7500,38.9963,1441.42,59.00,41.00,51.18,100.00,5.00,0.00,30.21,M,10.00,M,SCT,BKN,M,M,4000.00,9000.00,M,M,M,M,M,M,M,M,M,59.00,KMEV 130935Z AUTO 10005KT 10SM SCT040 BKN090 15/05 A3021 RMK AO2,M
TMT,2021-08-13 09:35,-117.1971,39.4643,1749.34,58.60,41.50,52.93,340.00,5.00,0.00,30.27,M,10.00,M,CLR,M,M,M,M,M,M,M,M,M,M,M,M,M,M,58.60,KTMT 130935Z AUTO 34005KT 10SM CLR 15/05 A3027 RMK AO2 T01480053,M
RTS,2021-08-13 09:35,-119.8764,39.6682,1539.00,68.00,37.40,32.43,360.00,4.00,0.00,30.24,M,10.00,M,CLR,M,M,M,M,M,M,M,M,M,M,M,M,M,M,68.00,KRTS 130935Z AUTO 36004KT 10SM CLR 20/03 A3024 RMK AO2,M
HTH,2021-08-13 09:35,-118.6315,38.5448,1282.89,75.20,37.40,25.40,180.00,3.00,0.00,30.13,M,10.00,M,FEW,BKN,BKN,M,3000.00,3800.00,4500.00,M,M,M,M,M,M,M,M,75.20,KHTH 130935Z AUTO 18003KT 10SM FEW030 BKN038 BKN045 24/03 A3013 RMK A01,M
CXP,2021-08-13 09:50,-119.7326,39.1923,1431.00,71.60,37.40,28.68,0.00,0.00,0.00,30.21,M,10.00,M,CLR,M,M,M,M,M,M,M,M,M,M,M,M,M,M,71.60,KCXP 130950Z AUTO 00000KT 10SM CLR 22/03 A3021 RMK AO2,M
VGT,2021-08-13 09:53,-115.1933,36.2111,667.00,87.00,62.00,43.27,20.00,5.00,0.00,29.95,1012.50,10.00,M,CLR,M,M,M,M,M,M,M,FU,M,M,M,M,M,M,87.58,KVGT 130953Z AUTO 02005KT 10SM FU CLR 31/17 A2995 RMK AO2 SLP125 T03060167,M
LOL,2021-08-13 09:53,-118.5701,40.0684,1192.43,81.00,45.00,28.15,70.00,7.00,0.00,30.10,1013.40,10.00,M,CLR,M,M,M,M,M,M,M,M,M,M,M,M,M,M,79.68,KLOL 130953Z AUTO 07007KT 10SM CLR 27/07 A3010 RMK AO2 SLP134 T02720072,M
ELY,2021-08-13 09:53,-114.8453,39.2950,1909.00,53.00,35.00,50.28,170.00,10.00,0.00,30.28,1014.50,10.00,M,CLR,M,M,M,M,M,M,M,M,M,M,M,M,M,M,53.10,KELY 130953Z AUTO 17010KT 10SM CLR 12/02 A3028 RMK AO2 SLP145 T01170017,M
DRA,2021-08-13 09:53,-116.0278,36.6206,1009.00,83.00,48.00,29.64,110.00,5.00,0.00,30.02,1010.40,10.00,M,CLR,M,M,M,M,M,M,M,M,M,M,M,M,M,M,81.11,KDRA 130953Z AUTO 11005KT 10SM CLR 28/09 A3002 RMK AO2 SLP104 T02830089,M
P68,2021-08-13 09:53,-116.0056,39.6014,1993.00,62.00,40.00,43.93,170.00,3.00,0.00,30.25,1014.70,M,M,M,M,M,M,M,M,M,M,M,M,M,M,M,M,M,62.10,KP68 130953Z AUTO 17003KT 17/04 A3025 RMK AO1 SLP147 T01670044,M
BAM,2021-08-13 09:55,-116.8743,40.5990,1382.36,71.60,41.00,33.00,0.00,0.00,0.00,30.14,M,10.00,M,CLR,M,M,M,M,M,M,M,M,M,M,M,M,M,M,71.60,KBAM 130955Z AUTO 00000KT 10SM CLR 22/05 A3014 RMK AO1,M
HTH,2021-08-13 09:55,-118.6315,38.5448,1282.89,75.20,37.40,25.40,190.00,4.00,0.00,30.14,M,10.00,M,FEW,SCT,M,M,2900.00,3600.00,M,M,M,M,M,M,M,M,M,75.20,KHTH 130955Z AUTO 19004KT 10SM FEW029 SCT036 24/03 A3014 RMK A01,M
RTS,2021-08-13 09:55,-119.8764,39.6682,1539.00,66.20,35.60,32.14,360.00,5.00,0.00,30.24,M,10.00,M,CLR,M,M,M,M,M,M,M,M,M,M,M,M,M,M,66.20,KRTS 130955Z AUTO 36005KT 10SM CLR 19/02 A3024 RMK AO2,M
MEV,2021-08-13 09:55,-119.7500,38.9963,1441.42,60.80,41.00,48.00,110.00,5.00,0.00,30.21,M,10.00,M,FEW,BKN,M,M,3000.00,3900.00,M,M,M,M,M,M,M,M,M,60.80,KMEV 130955Z AUTO 11005KT 10SM FEW030 BKN039 16/05 A3021 RMK AO2,M
TMT,2021-08-13 09:55,-117.1971,39.4643,1749.34,58.00,42.00,55.55,230.00,3.00,0.00,30.26,M,10.00,M,CLR,M,M,M,M,M,M,M,M,M,M,M,M,M,M,57.90,KTMT 130955Z AUTO 23003KT 10SM CLR 14/06 A3026 RMK AO2 T01440056,M
RNO,2021-08-13 09:55,-119.7711,39.4839,1341.00,75.00,42.00,30.71,210.00,3.00,0.00,30.17,1014.70,8.00,M,FEW,M,M,M,18000.00,M,M,M,M,M,M,M,M,M,M,75.00,KRNO 130955Z 21003KT 8SM FEW180 24/06 A3017 RMK AO2 SLP147 FU ALF AND HZ ALQDS T02390056,M
BVU,2021-08-13 09:55,-114.8611,35.9475,671.00,80.60,59.00,47.79,60.00,5.00,0.00,29.96,M,10.00,M,CLR,M,M,M,M,M,M,M,M,M,M,M,M,M,M,81.11,KBVU 130955Z AUTO 06005KT 10SM CLR 27/15 A2996 RMK AO2,M
NFL,2021-08-13 09:56,-118.7010,39.4166,1199.00,83.00,45.00,26.46,10.00,11.00,T,30.09,1015.80,10.00,M,FEW,SCT,SCT,M,5500.00,6500.00,9000.00,M,M,M,M,M,M,M,M,80.86,KNFL 130956Z AUTO 01011KT 10SM FEW055 SCT065 SCT090 28/07 A3009 RMK AO2 RAB08E17 SLP158 P0000 T02830072,M
LAS,2021-08-13 09:56,-115.1634,36.0719,663.00,85.00,62.00,46.42,0.00,0.00,0.00,29.95,1011.20,10.00,M,FEW,FEW,BKN,M,9500.00,12000.00,19000.00,M,M,M,M,M,M,M,M,85.49,KLAS 130956Z 00000KT 10SM FEW095 FEW120 BKN190 29/17 A2995 RMK AO2 SLP112 T02940167,M
TPH,2021-08-13 09:56,-117.0904,38.0505,1654.00,68.00,36.00,30.69,10.00,8.00,0.00,30.21,1013.40,10.00,M,CLR,M,M,M,M,M,M,M,M,M,M,M,M,M,M,68.00,KTPH 130956Z AUTO 01008KT 10SM CLR 20/02 A3021 RMK AO2 SLP134 T02000022,M
HND,2021-08-13 09:56,-115.1344,35.9729,742.79,86.00,63.00,46.25,170.00,5.00,0.00,29.99,1013.50,10.00,M,CLR,M,M,M,M,M,M,M,M,M,M,M,M,M,M,86.88,KHND 130956Z AUTO 17005KT 10SM CLR 30/17 A2999 RMK AO2 SLP135 T03000172,M
WMC,2021-08-13 09:56,-117.8072,40.9019,1315.00,72.00,30.90,21.82,260.00,3.00,0.00,30.13,1014.10,10.00,M,CLR,M,M,M,M,M,M,M,M,M,M,M,M,M,M,72.00,KWMC 130956Z AUTO 26003KT 10SM CLR 22/M01 A3013 RMK AO2 SLP141 T02221006,M
EKO,2021-08-13 09:56,-115.7860,40.8242,1367.00,66.00,38.00,35.44,80.00,5.00,0.00,30.18,1015.20,10.00,M,CLR,M,M,M,M,M,M,M,M,M,M,M,M,M,M,66.00,KEKO 130956Z AUTO 08005KT 10SM CLR 19/03 A3018 RMK AO2 SLP152 T01890033,M
INS,2021-08-13 09:58,-115.6733,36.5872,955.00,84.60,55.40,36.87,100.00,9.00,0.00,30.00,1010.10,10.00,M,FEW,FEW,M,M,17000.00,20000.00,M,M,M,M,M,M,M,M,M,83.40,KINS 130958Z AUTO 10009KT 10SM FEW170 FEW200 29/13 A3000 RMK AO2 SLP101 T02920130 $,M
LSV,2021-08-13 09:58,-115.0343,36.2362,570.00,85.60,63.70,48.02,60.00,8.00,0.00,29.92,1010.40,10.00,M,SCT,BKN,M,M,18000.00,20000.00,M,M,M,M,M,M,M,M,M,86.79,KLSV 130958Z AUTO 06008KT 10SM SCT180 BKN200 30/18 A2992 RMK AO2 SLP104 T02980176 $,M
NFL,2021-08-13 10:03,-118.7010,39.4166,1199.00,83.00,46.00,27.48,20.00,8.00,0.00,30.09,M,10.00,M,FEW,FEW,M,M,5500.00,9000.00,M,M,M,M,M,M,M,M,M,80.94,KNFL 131003Z AUTO 02008KT 10SM FEW055 FEW090 28/08 A3009 RMK AO2 WSHFT 0943 T02830078,M
CXP,2021-08-13 10:10,-119.7326,39.1923,1431.00,71.60,37.40,28.68,340.00,4.00,0.00,30.22,M,10.00,M,CLR,M,M,M,M,M,M,M,M,M,M,M,M,M,M,71.60,KCXP 131010Z AUTO 34004KT 10SM CLR 22/03 A3022 RMK AO2,M
BVU,2021-08-13 10:15,-114.8611,35.9475,671.00,80.60,60.80,50.95,60.00,5.00,0.00,29.96,M,10.00,M,CLR,M,M,M,M,M,M,M,M,M,M,M,M,M,M,81.46,KBVU 131015Z AUTO 06005KT 10SM CLR 27/16 A2996 RMK AO2,M
MEV,2021-08-13 10:15,-119.7500,38.9963,1441.42,60.80,39.20,44.76,130.00,7.00,0.00,30.21,M,10.00,M,SCT,BKN,M,M,3400.00,4100.00,M,M,M,M,M,M,M,M,M,60.80,KMEV 131015Z AUTO 13007KT 10SM SCT034 BKN041 16/04 A3021 RMK AO2,M
RTS,2021-08-13 10:15,-119.8764,39.6682,1539.00,64.40,37.40,36.74,340.00,5.00,0.00,30.23,M,10.00,M,CLR,M,M,M,M,M,M,M,M,M,M,M,M,M,M,64.40,KRTS 131015Z AUTO 34005KT 10SM CLR 18/03 A3023 RMK AO2,M
BAM,2021-08-13 10:15,-116.8743,40.5990,1382.36,71.60,41.00,33.00,20.00,5.00,0.00,30.15,M,10.00,M,CLR,M,M,M,M,M,M,M,M,M,M,M,M,M,M,71.60,KBAM 131015Z AUTO 02005KT 10SM CLR 22/05 A3015 RMK AO1,M
TMT,2021-08-13 10:15,-117.1971,39.4643,1749.34,57.20,41.50,55.66,290.00,4.00,0.00,30.27,M,10.00,M,CLR,M,M,M,M,M,M,M,M,M,M,M,M,M,M,57.20,KTMT 131015Z AUTO 29004KT 10SM CLR 14/05 A3027 RMK AO2 T01400053,M
HTH,2021-08-13 10:15,-118.6315,38.5448,1282.89,73.40,37.40,26.98,0.00,0.00,0.00,30.14,M,M,M,M,M,M,M,M,M,M,M,M,M,M,M,M,M,M,73.40,KHTH 131015Z AUTO 00000KT 23/03 A3014 RMK A01,M
CXP,2021-08-13 10:30,-119.7326,39.1923,1431.00,71.60,37.40,28.68,360.00,4.00,0.00,30.22,M,10.00,M,FEW,M,M,M,5500.00,M,M,M,M,M,M,M,M,M,M,71.60,KCXP 131030Z AUTO 36004KT 10SM FEW055 22/03 A3022 RMK AO2,M
HTH,2021-08-13 10:35,-118.6315,38.5448,1282.89,75.20,35.60,23.66,240.00,5.00,0.00,30.14,M,9.00,M,M,M,M,M,M,M,M,M,M,M,M,M,M,M,M,75.20,KHTH 131035Z AUTO 24005KT 9SM 24/02 A3014 RMK A01,M
MEV,2021-08-13 10:35,-119.7500,38.9963,1441.42,59.00,41.00,51.18,0.00,0.00,0.00,30.22,M,10.00,M,FEW,BKN,BKN,M,2600.00,3400.00,4100.00,M,M,M,M,M,M,M,M,59.00,KMEV 131035Z AUTO 00000KT 10SM FEW026 BKN034 BKN041 15/05 A3022 RMK AO2,M
RTS,2021-08-13 10:35,-119.8764,39.6682,1539.00,66.20,37.40,34.51,340.00,7.00,0.00,30.22,M,10.00,M,CLR,M,M,M,M,M,M,M,M,M,M,M,M,M,M,66.20,KRTS 131035Z AUTO 34007KT 10SM CLR 19/03 A3022 RMK AO2,M
BAM,2021-08-13 10:35,-116.8743,40.5990,1382.36,69.80,41.00,35.09,50.00,5.00,0.00,30.14,M,10.00,M,CLR,M,M,M,M,M,M,M,M,M,M,M,M,M,M,69.80,KBAM 131035Z AUTO 05005KT 10SM CLR 21/05 A3014 RMK AO1,M
TMT,2021-08-13 10:35,-117.1971,39.4643,1749.34,56.80,41.20,55.82,280.00,7.00,0.00,30.27,M,10.00,M,CLR,M,M,M,M,M,M,M,M,M,M,M,M,M,M,56.80,KTMT 131035Z AUTO 28007KT 10SM CLR 14/05 A3027 RMK AO2 T01380051,M
BVU,2021-08-13 10:35,-114.8611,35.9475,671.00,82.40,59.00,45.07,0.00,0.00,0.00,29.97,M,10.00,M,CLR,M,M,M,M,M,M,M,M,M,M,M,M,M,M,82.46,KBVU 131035Z AUTO 00000KT 10SM CLR 28/15 A2997 RMK AO2,M
CXP,2021-08-13 10:50,-119.7326,39.1923,1431.00,73.40,37.40,26.98,M,4.00,0.00,30.22,M,10.00,M,FEW,M,M,M,5500.00,M,M,M,M,M,M,M,M,M,M,73.40,KCXP 131050Z AUTO VRB04KT 10SM FEW055 23/03 A3022 RMK AO2,M
VGT,2021-08-13 10:53,-115.1933,36.2111,667.00,87.00,62.00,43.27,340.00,4.00,0.00,29.95,1012.60,10.00,M,CLR,M,M,M,M,M,M,M,FU,M,M,M,M,M,M,87.58,KVGT 131053Z AUTO 34004KT 10SM FU CLR 31/17 A2995 RMK AO2 SLP126 T03060167,M
LOL,2021-08-13 10:53,-118.5701,40.0684,1192.43,78.00,47.00,33.26,40.00,8.00,0.00,30.11,1014.00,10.00,M,FEW,FEW,SCT,M,7000.00,9000.00,12000.00,M,M,M,M,M,M,M,M,78.10,KLOL 131053Z AUTO 04008KT 10SM FEW070 FEW090 SCT120 26/08 A3011 RMK AO2 SLP140 T02560083,M
P68,2021-08-13 10:53,-116.0056,39.6014,1993.00,62.00,38.00,40.62,190.00,6.00,0.00,30.25,1014.90,M,M,M,M,M,M,M,M,M,M,M,M,M,M,M,M,M,62.10,KP68 131053Z AUTO 19006KT 17/03 A3025 RMK AO1 SLP149 T01670033,M
ELY,2021-08-13 10:53,-114.8453,39.2950,1909.00,53.00,35.00,50.28,180.00,9.00,0.00,30.28,1014.80,10.00,M,CLR,M,M,M,M,M,M,M,M,M,M,M,M,M,M,53.10,KELY 131053Z AUTO 18009KT 10SM CLR 12/02 A3028 RMK AO2 SLP148 T01170017,M
DRA,2021-08-13 10:53,-116.0278,36.6206,1009.00,81.00,46.00,29.23,20.00,3.00,0.00,30.02,1010.60,10.00,M,CLR,M,M,M,M,M,M,M,M,M,M,M,M,M,M,79.76,KDRA 131053Z AUTO 02003KT 10SM CLR 27/08 A3002 RMK AO2 SLP106 T02720078,M
MEV,2021-08-13 10:55,-119.7500,38.9963,1441.42,59.00,41.00,51.18,0.00,0.00,0.00,30.22,M,10.00,M,FEW,BKN,OVC,M,3500.00,4400.00,5000.00,M,M,M,M,M,M,M,M,59.00,KMEV 131055Z AUTO 00000KT 10SM FEW035 BKN044 OVC050 15/05 A3022 RMK AO2,M
BVU,2021-08-13 10:55,-114.8611,35.9475,671.00,80.60,60.80,50.95,0.00,0.00,0.00,29.96,M,10.00,M,CLR,M,M,M,M,M,M,M,M,M,M,M,M,M,M,81.46,KBVU 131055Z AUTO 00000KT 10SM CLR 27/16 A2996 RMK AO2,M
RNO,2021-08-13 10:55,-119.7711,39.4839,1341.00,74.00,43.00,32.98,250.00,3.00,0.00,30.17,1014.60,9.00,M,SCT,M,M,M,18000.00,M,M,M,M,M,M,M,M,M,M,73.90,KRNO 131055Z 25003KT 9SM SCT180 23/06 A3017 RMK AO2 SLP146 FU ALF AND HZ ALQDS T02330061,M
BAM,2021-08-13 10:55,-116.8743,40.5990,1382.36,68.00,41.00,37.32,70.00,3.00,0.00,30.15,M,10.00,M,CLR,M,M,M,M,M,M,M,M,M,M,M,M,M,M,68.00,KBAM 131055Z AUTO 07003KT 10SM CLR 20/05 A3015 RMK AO1,M
TMT,2021-08-13 10:55,-117.1971,39.4643,1749.34,57.00,40.80,54.57,220.00,4.00,0.00,30.27,M,10.00,M,CLR,M,M,M,M,M,M,M,M,M,M,M,M,M,M,57.00,KTMT 131055Z AUTO 22004KT 10SM CLR 14/05 A3027 RMK AO2 T01390049,M
HTH,2021-08-13 10:55,-118.6315,38.5448,1282.89,73.40,35.60,25.13,0.00,0.00,0.00,30.14,M,10.00,M,FEW,SCT,BKN,M,3400.00,4600.00,5500.00,M,M,M,M,M,M,M,M,73.40,KHTH 131055Z AUTO 00000KT 10SM FEW034 SCT046 BKN055 23/02 A3014 RMK A01,M
RTS,2021-08-13 10:55,-119.8764,39.6682,1539.00,68.00,37.40,32.43,340.00,7.00,0.00,30.23,M,10.00,M,CLR,M,M,M,M,M,M,M,M,M,M,M,M,M,M,68.00,KRTS 131055Z AUTO 34007KT 10SM CLR 20/03 A3023 RMK AO2,M
TPH,2021-08-13 10:56,-117.0904,38.0505,1654.00,66.00,36.00,32.88,30.00,9.00,0.00,30.22,1013.70,10.00,M,CLR,M,M,M,M,M,M,M,M,M,M,M,M,M,M,66.00,KTPH 131056Z AUTO 03009KT 10SM CLR 19/02 A3022 RMK AO2 SLP137 T01890022,M
NFL,2021-08-13 10:56,-118.7010,39.4166,1199.00,80.00,46.00,30.11,40.00,5.00,0.00,30.10,1016.00,10.00,M,CLR,M,M,M,M,M,M,M,M,M,M,M,M,M,M,79.26,KNFL 131056Z AUTO 04005KT 10SM CLR 27/08 A3010 RMK AO2 WSHFT 0943 SLP160 T02670078,M
HND,2021-08-13 10:56,-115.1344,35.9729,742.79,86.00,60.00,41.74,220.00,3.00,0.00,29.99,1013.70,10.00,M,CLR,M,M,M,M,M,M,M,M,M,M,M,M,M,M,85.81,KHND 131056Z AUTO 22003KT 10SM CLR 30/16 A2999 RMK AO2 SLP137 T03000156,M
LAS,2021-08-13 10:56,-115.1634,36.0719,663.00,85.00,62.00,46.42,0.00,0.00,0.00,29.96,1011.30,10.00,M,FEW,BKN,BKN,M,12000.00,16000.00,20000.00,M,M,M,M,M,M,M,M,85.49,KLAS 131056Z 00000KT 10SM FEW120 BKN160 BKN200 29/17 A2996 RMK AO2 SLP113 T02940167,M
EKO,2021-08-13 10:56,-115.7860,40.8242,1367.00,65.00,40.00,39.82,110.00,4.00,0.00,30.19,1015.50,10.00,M,CLR,M,M,M,M,M,M,M,M,M,M,M,M,M,M,64.90,KEKO 131056Z AUTO 11004KT 10SM CLR 18/04 A3019 RMK AO2 SLP155 T01830044,M
WMC,2021-08-13 10:56,-117.8072,40.9019,1315.00,70.00,32.00,24.42,340.00,3.00,0.00,30.14,1014.50,10.00,M,CLR,M,M,M,M,M,M,M,M,M,M,M,M,M,M,70.00,KWMC 131056Z AUTO 34003KT 10SM CLR 21/00 A3014 RMK AO2 SLP145 T02110000,M
INS,2021-08-13 10:58,-115.6733,36.5872,955.00,84.40,52.20,33.01,0.00,0.00,0.00,30.01,1010.50,10.00,M,BKN,M,M,M,15000.00,M,M,M,M,M,M,M,M,M,M,82.68,KINS 131058Z AUTO 00000KT 10SM BKN150 29/11 A3001 RMK AO2 SLP105 T02910112 $,M
LSV,2021-08-13 10:58,-115.0343,36.2362,570.00,86.00,62.80,45.93,0.00,0.00,0.00,29.93,1010.70,10.00,M,OVC,M,M,M,17000.00,M,M,M,M,M,M,M,M,M,M,86.80,KLSV 131058Z AUTO 00000KT 10SM OVC170 30/17 A2993 RMK AO2 SLP107 T03000171 $,M
CXP,2021-08-13 11:10,-119.7326,39.1923,1431.00,73.40,37.40,26.98,270.00,4.00,0.00,30.22,M,10.00,M,FEW,FEW,M,M,4700.00,5500.00,M,M,M,M,M,M,M,M,M,73.40,KCXP 131110Z AUTO 27004KT 10SM FEW047 FEW055 23/03 A3022 RMK AO2,M
BVU,2021-08-13 11:15,-114.8611,35.9475,671.00,80.60,62.60,54.30,30.00,3.00,0.00,29.97,M,10.00,M,CLR,M,M,M,M,M,M,M,M,M,M,M,M,M,M,81.84,KBVU 131115Z AUTO 03003KT 10SM CLR 27/17 A2997 RMK AO2,M
HTH,2021-08-13 11:15,-118.6315,38.5448,1282.89,69.80,35.60,28.39,130.00,4.00,0.00,30.15,M,10.00,M,FEW,BKN,BKN,M,3700.00,4400.00,5000.00,M,M,M,M,M,M,M,M,69.80,KHTH 131115Z AUTO 13004KT 10SM FEW037 BKN044 BKN050 21/02 A3015 RMK A01,M
BAM,2021-08-13 11:15,-116.8743,40.5990,1382.36,64.40,39.20,39.43,70.00,4.00,0.00,30.15,M,10.00,M,CLR,M,M,M,M,M,M,M,M,M,M,M,M,M,M,64.40,KBAM 131115Z AUTO 07004KT 10SM CLR 18/04 A3015 RMK AO1,M
MEV,2021-08-13 11:15,-119.7500,38.9963,1441.42,59.00,39.20,47.72,0.00,0.00,0.00,30.21,M,10.00,M,FEW,BKN,OVC,M,3400.00,4200.00,4800.00,M,M,M,M,M,M,M,M,59.00,KMEV 131115Z AUTO 00000KT 10SM FEW034 BKN042 OVC048 15/04 A3021 RMK AO2,M
RTS,2021-08-13 11:15,-119.8764,39.6682,1539.00,69.80,37.40,30.49,350.00,5.00,0.00,30.23,M,10.00,M,CLR,M,M,M,M,M,M,M,M,M,M,M,M,M,M,69.80,KRTS 131115Z AUTO 35005KT 10SM CLR 21/03 A3023 RMK AO2,M
TMT,2021-08-13 11:15,-117.1971,39.4643,1749.34,54.50,40.00,57.70,190.00,3.00,0.00,30.27,M,10.00,M,CLR,M,M,M,M,M,M,M,M,M,M,M,M,M,M,54.50,KTMT 131115Z AUTO 19003KT 10SM CLR 13/04 A3027 RMK AO2 T01250044,M
CXP,2021-08-13 11:30,-119.7326,39.1923,1431.00,71.60,37.40,28.68,0.00,0.00,0.00,30.22,M,10.00,M,SCT,SCT,M,M,4600.00,5000.00,M,M,M,M,M,M,M,M,M,71.60,KCXP 131130Z AUTO 00000KT 10SM SCT046 SCT050 22/03 A3022 RMK AO2,M
RTS,2021-08-13 11:35,-119.8764,39.6682,1539.00,71.60,37.40,28.68,0.00,0.00,0.00,30.23,M,10.00,M,CLR,M,M,M,M,M,M,M,M,M,M,M,M,M,M,71.60,KRTS 131135Z AUTO 00000KT 10SM CLR 22/03 A3023 RMK AO2,M
BVU,2021-08-13 11:35,-114.8611,35.9475,671.00,82.40,62.60,51.21,160.00,5.00,0.00,29.97,M,10.00,M,CLR,M,M,M,M,M,M,M,M,M,M,M,M,M,M,83.41,KBVU 131135Z AUTO 16005KT 10SM CLR 28/17 A2997 RMK AO2,M
HTH,2021-08-13 11:35,-118.6315,38.5448,1282.89,71.60,35.60,26.71,220.00,4.00,0.00,30.15,M,10.00,M,SCT,BKN,M,M,3800.00,4500.00,M,M,M,M,M,M,M,M,M,71.60,KHTH 131135Z AUTO 22004KT 10SM SCT038 BKN045 22/02 A3015 RMK A01,M
BAM,2021-08-13 11:35,-116.8743,40.5990,1382.36,64.40,37.40,36.74,0.00,0.00,0.00,30.15,M,10.00,M,CLR,M,M,M,M,M,M,M,M,M,M,M,M,M,M,64.40,KBAM 131135Z AUTO 00000KT 10SM CLR 18/03 A3015 RMK AO1,M
TMT,2021-08-13 11:35,-117.1971,39.4643,1749.34,50.00,42.60,75.59,110.00,3.00,0.00,30.27,M,10.00,M,CLR,M,M,M,M,M,M,M,M,M,M,M,M,M,M,50.00,KTMT 131135Z AUTO 11003KT 10SM CLR 10/06 A3027 RMK AO2 T01000059,M
MEV,2021-08-13 11:35,-119.7500,38.9963,1441.42,57.20,41.00,54.60,0.00,0.00,0.00,30.22,M,10.00,M,FEW,OVC,M,M,3200.00,4200.00,M,M,M,M,M,M,M,M,M,57.20,KMEV 131135Z AUTO 00000KT 10SM FEW032 OVC042 14/05 A3022 RMK AO2,M
CXP,2021-08-13 11:50,-119.7326,39.1923,1431.00,71.60,37.40,28.68,300.00,4.00,0.00,30.22,M,10.00,M,FEW,M,M,M,4600.00,M,M,M,M,M,M,M,M,M,M,71.60,KCXP 131150Z AUTO 30004KT 10SM FEW046 22/03 A3022 RMK AO2,M
VGT,2021-08-13 11:53,-115.1933,36.2111,667.00,87.00,63.00,44.66,50.00,5.00,0.00,29.95,1012.80,10.00,M,CLR,M,M,M,M,M,M,M,FU,M,M,M,M,M,M,87.96,KVGT 131153Z AUTO 05005KT 10SM FU CLR 31/17 A2995 RMK AO2 SLP128 T03060172 10339 20306 51005,M
DRA,2021-08-13 11:53,-116.0278,36.6206,1009.00,82.00,50.00,32.88,360.00,3.00,0.00,30.03,1010.90,10.00,M,CLR,M,M,M,M,M,M,M,M,M,M,M,M,M,M,80.73,KDRA 131153Z AUTO 36003KT 10SM CLR 28/10 A3003 RMK AO2 SLP109 T02780100 10311 20261 51008,M
ELY,2021-08-13 11:53,-114.8453,39.2950,1909.00,51.00,35.00,54.13,170.00,9.00,0.00,30.29,1015.70,10.00,M,CLR,M,M,M,M,M,M,M,M,M,M,M,M,M,M,51.10,KELY 131153Z AUTO 17009KT 10SM CLR 11/02 A3029 RMK AO2 SLP157 T01060017 10172 20106 51007,M
LOL,2021-08-13 11:53,-118.5701,40.0684,1192.43,82.00,46.00,28.30,30.00,10.00,T,30.11,1013.70,10.00,M,FEW,SCT,BKN,M,5500.00,7000.00,11000.00,M,-RA,M,M,M,M,M,M,80.36,KLOL 131153Z AUTO 03010KT 10SM -RA FEW055 SCT070 BKN110 28/08 A3011 RMK AO2 RAB46 SLP137 P0000 60000 T02780078 10317 20244 50007,M
P68,2021-08-13 11:53,-116.0056,39.6014,1993.00,62.00,39.00,42.41,170.00,6.00,0.00,30.25,1014.90,M,M,M,M,M,M,M,M,M,M,M,M,M,M,M,M,M,62.10,KP68 131153Z AUTO 17006KT 17/04 A3025 RMK AO1 SLP149 T01670039 10211 20156 51004,M
BAM,2021-08-13 11:55,-116.8743,40.5990,1382.36,62.60,37.40,39.14,0.00,0.00,0.00,30.16,M,10.00,M,CLR,M,M,M,M,M,M,M,M,M,M,M,M,M,M,62.60,KBAM 131155Z AUTO 00000KT 10SM CLR 17/03 A3016 RMK AO1,M
RNO,2021-08-13 11:55,-119.7711,39.4839,1341.00,75.00,42.00,30.71,260.00,6.00,0.00,30.17,1014.70,8.00,M,SCT,M,M,M,20000.00,M,M,M,M,M,M,M,M,M,M,75.00,KRNO 131155Z 26006KT 8SM SCT200 24/06 A3017 RMK AO2 SLP147 FU ALF AND HZ ALQDS T02390056 10294 20222 51002,M
BVU,2021-08-13 11:55,-114.8611,35.9475,671.00,82.40,60.80,48.05,160.00,5.00,0.00,29.98,M,10.00,M,CLR,M,M,M,M,M,M,M,M,M,M,M,M,M,M,82.90,KBVU 131155Z AUTO 16005KT 10SM CLR 28/16 A2998 RMK AO2,M
RTS,2021-08-13 11:55,-119.8764,39.6682,1539.00,69.80,37.40,30.49,0.00,0.00,0.00,30.23,M,10.00,M,CLR,M,M,M,M,M,M,M,M,M,M,M,M,M,M,69.80,KRTS 131155Z AUTO 00000KT 10SM CLR 21/03 A3023 RMK AO2,M
HTH,2021-08-13 11:55,-118.6315,38.5448,1282.89,71.60,35.60,26.71,210.00,4.00,0.00,30.16,M,10.00,M,SCT,BKN,M,M,3800.00,4500.00,M,M,M,M,M,M,M,M,M,71.60,KHTH 131155Z AUTO 21004KT 10SM SCT038 BKN045 22/02 A3016 RMK A01,M
MEV,2021-08-13 11:55,-119.7500,38.9963,1441.42,59.00,41.00,51.18,0.00,0.00,0.00,30.21,M,10.00,M,OVC,M,M,M,4500.00,M,M,M,M,M,M,M,M,M,M,59.00,KMEV 131155Z AUTO 00000KT 10SM OVC045 15/05 A3021 RMK AO2,M
TMT,2021-08-13 11:55,-117.1971,39.4643,1749.34,51.00,41.40,69.81,0.00,0.00,0.00,30.28,M,10.00,M,CLR,M,M,M,M,M,M,M,M,M,M,M,M,M,M,50.90,KTMT 131155Z AUTO 00000KT 10SM CLR 11/05 A3028 RMK AO2 T01050052 10191 20099,M
NFL,2021-08-13 11:56,-118.7010,39.4166,1199.00,79.00,46.00,31.21,M,4.00,0.00,30.11,1016.40,10.00,M,FEW,SCT,M,M,10000.00,12000.00,M,M,M,M,M,M,M,M,M,79.00,KNFL 131156Z AUTO VRB04KT 10SM FEW100 SCT120 26/08 A3011 RMK AO2 SLP164 60000 T02610078 10322 20256 51012,M
WMC,2021-08-13 11:56,-117.8072,40.9019,1315.00,67.00,34.00,29.44,320.00,5.00,0.00,30.15,1015.00,10.00,M,CLR,M,M,M,M,M,M,M,M,M,M,M,M,M,M,66.90,KWMC 131156Z AUTO 32005KT 10SM CLR 19/01 A3015 RMK AO2 SLP150 T01940011 10294 20189 51009 $,M
TPH,2021-08-13 11:56,-117.0904,38.0505,1654.00,65.00,35.00,32.97,10.00,10.00,0.00,30.22,1014.20,10.00,M,CLR,M,M,M,M,M,M,M,M,M,M,M,M,M,M,64.90,KTPH 131156Z AUTO 01010KT 10SM CLR 18/02 A3022 RMK AO2 SLP142 T01830017 10256 20183 53005,M
HND,2021-08-13 11:56,-115.1344,35.9729,742.79,86.00,58.00,38.58,200.00,8.00,0.00,30.00,1013.70,10.00,M,CLR,M,M,M,M,M,M,M,M,M,M,M,M,M,M,85.16,KHND 131156Z AUTO 20008KT 10SM CLR 30/14 A3000 RMK AO2 SLP137 60000 T03000144 10322 20289 53002,M
LAS,2021-08-13 11:56,-115.1634,36.0719,663.00,84.00,63.00,49.32,110.00,4.00,0.00,29.97,1011.50,10.00,M,FEW,BKN,BKN,M,12000.00,16000.00,20000.00,M,M,M,M,M,M,M,M,84.99,KLAS 131156Z 11004KT 10SM FEW120 BKN160 BKN200 29/17 A2997 RMK AO2 SLP115 T02890172 10333 20289 53004,M
EKO,2021-08-13 11:56,-115.7860,40.8242,1367.00,64.00,40.00,41.09,60.00,4.00,0.00,30.19,1015.70,10.00,M,CLR,M,M,M,M,M,M,M,M,M,M,M,M,M,M,64.00,KEKO 131156Z AUTO 06004KT 10SM CLR 18/04 A3019 RMK AO2 SLP157 T01780044 10272 20172 51007,M
INS,2021-08-13 11:58,-115.6733,36.5872,955.00,83.70,56.00,38.93,0.00,0.00,0.00,30.02,1010.80,10.00,M,FEW,M,M,M,15000.00,M,M,M,M,M,M,M,M,M,M,82.84,KINS 131158Z AUTO 00000KT 10SM FEW150 29/13 A3002 RMK AO2 SLP108 T02870134 10328 20287 53007 $,M
LSV,2021-08-13 11:58,-115.0343,36.2362,570.00,85.00,60.40,43.70,60.00,8.00,0.00,29.94,1011.10,10.00,M,OVC,M,M,M,16000.00,M,M,M,M,M,M,M,M,M,M,84.92,KLSV 131158Z AUTO 06008KT 10SM OVC160 29/16 A2994 RMK AO2 SLP111 T02940158 10329 20294 53007 $,M
CXP,2021-08-13 12:10,-119.7326,39.1923,1431.00,71.60,37.40,28.68,290.00,4.00,0.00,30.22,M,10.00,M,CLR,M,M,M,M,M,M,M,M,M,M,M,M,M,M,71.60,KCXP 131210Z AUTO 29004KT 10SM CLR 22/03 A3022 RMK AO2,M
BAM,2021-08-13 12:15,-116.8743,40.5990,1382.36,62.60,39.20,42.00,200.00,4.00,0.00,30.17,M,10.00,M,CLR,M,M,M,M,M,M,M,M,M,M,M,M,M,M,62.60,KBAM 131215Z AUTO 20004KT 10SM CLR 17/04 A3017 RMK AO1,M
MEV,2021-08-13 12:15,-119.7500,38.9963,1441.42,55.40,39.20,54.34,0.00,0.00,0.00,30.22,M,10.00,M,OVC,M,M,M,4500.00,M,M,M,M,M,M,M,M,M,M,55.40,KMEV 131215Z AUTO 00000KT 10SM OVC045 13/04 A3022 RMK AO2,M
TMT,2021-08-13 12:15,-117.1971,39.4643,1749.34,53.40,42.30,65.91,0.00,0.00,0.00,30.28,M,10.00,M,CLR,M,M,M,M,M,M,M,M,M,M,M,M,M,M,53.40,KTMT 131215Z AUTO 00000KT 10SM CLR 12/06 A3028 RMK AO2 T01190057,M
HTH,2021-08-13 12:15,-118.6315,38.5448,1282.89,73.40,35.60,25.13,210.00,4.00,0.00,30.16,M,10.00,M,BKN,BKN,M,M,3800.00,4500.00,M,M,M,M,M,M,M,M,M,73.40,KHTH 131215Z AUTO 21004KT 10SM BKN038 BKN045 23/02 A3016 RMK A01,M
BVU,2021-08-13 12:15,-114.8611,35.9475,671.00,82.40,62.60,51.21,120.00,4.00,0.00,29.99,M,10.00,M,CLR,M,M,M,M,M,M,M,M,M,M,M,M,M,M,83.41,KBVU 131215Z AUTO 12004KT 10SM CLR 28/17 A2999 RMK AO2,M
RTS,2021-08-13 12:15,-119.8764,39.6682,1539.00,68.00,37.40,32.43,0.00,0.00,0.00,30.23,M,10.00,M,CLR,M,M,M,M,M,M,M,M,M,M,M,M,M,M,68.00,KRTS 131215Z AUTO 00000KT 10SM CLR 20/03 A3023 RMK AO2,M
CXP,2021-08-13 12:30,-119.7326,39.1923,1431.00,71.60,37.40,28.68,0.00,0.00,0.00,30.22,M,10.00,M,CLR,M,M,M,M,M,M,M,M,M,M,M,M,M,M,71.60,KCXP 131230Z AUTO 00000KT 10SM CLR 22/03 A3022 RMK AO2,M
MEV,2021-08-13 12:35,-119.7500,38.9963,1441.42,55.40,39.20,54.34,90.00,5.00,0.00,30.22,M,10.00,M,OVC,M,M,M,4500.00,M,M,M,M,M,M,M,M,M,M,55.40,KMEV 131235Z AUTO 09005KT 10SM OVC045 13/04 A3022 RMK AO2,M
HTH,2021-08-13 12:35,-118.6315,38.5448,1282.89,73.40,35.60,25.13,230.00,4.00,0.00,30.16,M,10.00,M,FEW,OVC,M,M,2700.00,3600.00,M,M,M,M,M,M,M,M,M,73.40,KHTH 131235Z AUTO 23004KT 10SM FEW027 OVC036 23/02 A3016 RMK A01,M
BVU,2021-08-13 12:35,-114.8611,35.9475,671.00,82.40,62.60,51.21,80.00,5.00,0.00,30.00,M,10.00,M,CLR,M,M,M,M,M,M,M,M,M,M,M,M,M,M,83.41,KBVU 131235Z AUTO 08005KT 10SM CLR 28/17 A3000 RMK AO2,M
TMT,2021-08-13 12:35,-117.1971,39.4643,1749.34,55.40,39.20,54.34,210.00,4.00,0.00,30.29,M,10.00,M,CLR,M,M,M,M,M,M,M,M,M,M,M,M,M,M,55.40,KTMT 131235Z AUTO 21004KT 10SM CLR 13/04 A3029 RMK AO2 T01300040,M
BAM,2021-08-13 12:35,-116.8743,40.5990,1382.36,62.60,37.40,39.14,270.00,4.00,0.00,30.18,M,10.00,M,CLR,M,M,M,M,M,M,M,M,M,M,M,M,M,M,62.60,KBAM 131235Z AUTO 27004KT 10SM CLR 17/03 A3018 RMK AO1,M
RTS,2021-08-13 12:35,-119.8764,39.6682,1539.00,66.20,37.40,34.51,360.00,8.00,0.00,30.24,M,10.00,M,CLR,M,M,M,M,M,M,M,M,M,M,M,M,M,M,66.20,KRTS 131235Z AUTO 36008KT 10SM CLR 19/03 A3024 RMK AO2,M
CXP,2021-08-13 12:50,-119.7326,39.1923,1431.00,68.00,37.40,32.43,0.00,0.00,0.00,30.23,M,10.00,M,CLR,M,M,M,M,M,M,M,M,M,M,M,M,M,M,68.00,KCXP 131250Z AUTO 00000KT 10SM CLR 20/03 A3023 RMK AO2,M
ELY,2021-08-13 12:53,-114.8453,39.2950,1909.00,52.00,35.00,52.36,180.00,9.00,0.00,30.31,1016.30,10.00,M,CLR,M,M,M,M,M,M,M,M,M,M,M,M,M,M,52.00,KELY 131253Z AUTO 18009KT 10SM CLR 11/02 A3031 RMK AO2 SLP163 T01110017,M
LOL,2021-08-13 12:53,-118.5701,40.0684,1192.43,84.00,43.00,23.66,10.00,10.00,T,30.12,1014.10,10.00,16.00,CLR,M,M,M,M,M,M,M,M,M,M,M,M,M,M,81.48,KLOL 131253Z AUTO 01010G16KT 10SM CLR 29/06 A3012 RMK AO2 RAE00 SLP141 P0000 T02890061,M
P68,2021-08-13 12:53,-116.0056,39.6014,1993.00,59.00,39.00,47.35,210.00,6.00,0.00,30.27,1015.50,M,M,M,M,M,M,M,M,M,M,M,M,M,M,M,M,M,59.00,KP68 131253Z AUTO 21006KT 15/04 A3027 RMK AO1 SLP155 T01500039,M
DRA,2021-08-13 12:53,-116.0278,36.6206,1009.00,79.00,48.00,33.66,330.00,4.00,0.00,30.05,1011.80,10.00,M,CLR,M,M,M,M,M,M,M,M,M,M,M,M,M,M,79.00,KDRA 131253Z AUTO 33004KT 10SM CLR 26/09 A3005 RMK AO2 SLP118 T02610089,M
VGT,2021-08-13 12:53,-115.1933,36.2111,667.00,86.00,61.00,43.10,60.00,5.00,0.00,29.98,1013.70,10.00,M,CLR,M,M,M,M,M,M,M,FU,M,M,M,M,M,M,86.12,KVGT 131253Z 06005KT 10SM FU CLR 30/16 A2998 RMK AO2 SLP137 T03000161,M
BVU,2021-08-13 12:55,-114.8611,35.9475,671.00,82.40,62.60,51.21,100.00,7.00,0.00,30.01,M,10.00,M,CLR,M,M,M,M,M,M,M,M,M,M,M,M,M,M,83.41,KBVU 131255Z AUTO 10007KT 10SM CLR 28/17 A3001 RMK AO2,M
MEV,2021-08-13 12:55,-119.7500,38.9963,1441.42,57.20,39.20,50.91,100.00,6.00,0.00,30.23,M,9.00,M,BKN,OVC,M,M,4500.00,5000.00,M,M,M,M,M,M,M,M,M,57.20,KMEV 131255Z AUTO 10006KT 9SM BKN045 OVC050 14/04 A3023 RMK AO2,M
BAM,2021-08-13 12:55,-116.8743,40.5990,1382.36,60.80,37.40,41.71,270.00,5.00,0.00,30.19,M,10.00,M,CLR,M,M,M,M,M,M,M,M,M,M,M,M,M,M,60.80,KBAM 131255Z AUTO 27005KT 10SM CLR 16/03 A3019 RMK AO1,M
TMT,2021-08-13 12:55,-117.1971,39.4643,1749.34,51.30,37.80,59.78,140.00,4.00,0.00,30.29,M,10.00,M,CLR,M,M,M,M,M,M,M,M,M,M,M,M,M,M,51.30,KTMT 131255Z AUTO 14004KT 10SM CLR 11/03 A3029 RMK AO2 T01070032,M
RNO,2021-08-13 12:55,-119.7711,39.4839,1341.00,74.00,43.00,32.98,0.00,0.00,0.00,30.19,1015.30,10.00,M,BKN,M,M,M,20000.00,M,M,M,M,M,M,M,M,M,M,73.90,KRNO 131255Z 00000KT 10SM BKN200 23/06 A3019 RMK AO2 SLP153 HZ ALQDS T02330061,M
RTS,2021-08-13 12:55,-119.8764,39.6682,1539.00,68.00,37.40,32.43,330.00,4.00,0.00,30.24,M,10.00,M,CLR,M,M,M,M,M,M,M,M,M,M,M,M,M,M,68.00,KRTS 131255Z AUTO 33004KT 10SM CLR 20/03 A3024 RMK AO2,M
HTH,2021-08-13 12:55,-118.6315,38.5448,1282.89,71.60,35.60,26.71,0.00,0.00,0.00,30.17,M,10.00,M,FEW,BKN,BKN,M,2700.00,3300.00,3800.00,M,M,M,M,M,M,M,M,71.60,KHTH 131255Z AUTO 00000KT 10SM FEW027 BKN033 BKN038 22/02 A3017 RMK A01,M
EKO,2021-08-13 12:56,-115.7860,40.8242,1367.00,58.00,38.00,47.18,0.00,0.00,0.00,30.22,1017.00,10.00,M,CLR,M,M,M,M,M,M,M,M,M,M,M,M,M,M,57.90,KEKO 131256Z AUTO 00000KT 10SM CLR 14/03 A3022 RMK AO2 SLP170 T01440033,M
HND,2021-08-13 12:56,-115.1344,35.9729,742.79,84.00,61.00,45.96,70.00,3.00,0.00,30.02,1014.80,10.00,M,CLR,M,M,M,M,M,M,M,M,M,M,M,M,M,M,84.32,KHND 131256Z AUTO 07003KT 10SM CLR 29/16 A3002 RMK AO2 SLP148 T02890161,M
NFL,2021-08-13 12:56,-118.7010,39.4166,1199.00,78.00,49.00,35.86,360.00,3.00,0.00,30.13,1017.00,10.00,M,CLR,M,M,M,M,M,M,M,M,M,M,M,M,M,M,78.10,KNFL 131256Z AUTO 36003KT 10SM CLR 26/09 A3013 RMK AO2 SLP170 T02560094,M
TPH,2021-08-13 12:56,-117.0904,38.0505,1654.00,63.00,35.00,35.24,340.00,8.00,0.00,30.24,1014.80,10.00,M,CLR,M,M,M,M,M,M,M,M,M,M,M,M,M,M,63.00,KTPH 131256Z AUTO 34008KT 10SM CLR 17/02 A3024 RMK AO2 SLP148 T01720017,M
LAS,2021-08-13 12:56,-115.1634,36.0719,663.00,83.00,63.00,51.10,100.00,7.00,0.00,29.99,1012.50,10.00,M,SCT,BKN,OVC,M,11000.00,14000.00,20000.00,M,M,M,M,M,M,M,M,83.98,KLAS 131256Z 10007KT 10SM SCT110 BKN140 OVC200 28/17 A2999 RMK AO2 SLP125 VIRGA W T02830172,M
WMC,2021-08-13 12:56,-117.8072,40.9019,1315.00,62.00,32.00,32.13,260.00,7.00,0.00,30.16,1015.50,10.00,M,CLR,M,M,M,M,M,M,M,M,M,M,M,M,M,M,62.10,KWMC 131256Z AUTO 26007KT 10SM CLR 17/00 A3016 RMK AO2 SLP155 T01670000 $,M
LSV,2021-08-13 12:58,-115.0343,36.2362,570.00,84.70,62.20,46.88,130.00,11.00,0.00,29.96,1011.70,10.00,M,BKN,M,M,M,16000.00,M,M,M,M,M,M,M,M,M,M,85.35,KLSV 131258Z AUTO 13011KT 10SM BKN160 29/17 A2996 RMK AO2 SLP117 T02930168 $,M
INS,2021-08-13 12:58,-115.6733,36.5872,955.00,82.40,56.30,40.90,150.00,3.00,0.00,30.04,1011.50,10.00,M,SCT,BKN,M,M,15000.00,18000.00,M,M,M,M,M,M,M,M,M,81.91,KINS 131258Z AUTO 15003KT 10SM SCT150 BKN180 28/14 A3004 RMK AO2 SLP115 T02800135 $,M
CXP,2021-08-13 13:10,-119.7326,39.1923,1431.00,69.80,37.40,30.49,310.00,3.00,0.00,30.24,M,10.00,M,CLR,M,M,M,M,M,M,M,M,M,M,M,M,M,M,69.80,KCXP 131310Z AUTO 31003KT 10SM CLR 21/03 A3024 RMK AO2,M
BAM,2021-08-13 13:15,-116.8743,40.5990,1382.36,62.60,37.40,39.14,0.00,0.00,0.00,30.19,M,10.00,M,CLR,M,M,M,M,M,M,M,M,M,M,M,M,M,M,62.60,KBAM 131315Z AUTO 00000KT 10SM CLR 17/03 A3019 RMK AO1,M
TMT,2021-08-13 13:15,-117.1971,39.4643,1749.34,48.00,40.60,75.41,0.00,0.00,0.00,30.30,M,10.00,M,CLR,M,M,M,M,M,M,M,M,M,M,M,M,M,M,48.00,KTMT 131315Z AUTO 00000KT 10SM CLR 09/05 A3030 RMK AO2 T00890048,M
RTS,2021-08-13 13:15,-119.8764,39.6682,1539.00,64.40,37.40,36.74,300.00,4.00,0.00,30.25,M,10.00,M,CLR,M,M,M,M,M,M,M,M,M,M,M,M,M,M,64.40,KRTS 131315Z AUTO 30004KT 10SM CLR 18/03 A3025 RMK AO2,M
HTH,2021-08-13 13:15,-118.6315,38.5448,1282.89,69.80,37.40,30.49,180.00,4.00,0.00,30.17,M,9.00,M,FEW,FEW,M,M,2800.00,3500.00,M,M,M,M,M,M,M,M,M,69.80,KHTH 131315Z AUTO 18004KT 9SM FEW028 FEW035 21/03 A3017 RMK A01,M
BVU,2021-08-13 13:15,-114.8611,35.9475,671.00,82.40,62.60,51.21,110.00,9.00,0.00,30.01,M,10.00,M,CLR,M,M,M,M,M,M,M,M,M,M,M,M,M,M,83.41,KBVU 131315Z AUTO 11009KT 10SM CLR 28/17 A3001 RMK AO2,M
MEV,2021-08-13 13:15,-119.7500,38.9963,1441.42,57.20,41.00,54.60,0.00,0.00,0.00,30.23,M,7.00,M,FEW,SCT,M,M,4400.00,5000.00,M,M,M,M,M,M,M,M,M,57.20,KMEV 131315Z AUTO 00000KT 7SM FEW044 SCT050 14/05 A3023 RMK AO2,M
CXP,2021-08-13 13:30,-119.7326,39.1923,1431.00,68.00,39.20,34.80,0.00,0.00,0.00,30.25,M,10.00,M,CLR,M,M,M,M,M,M,M,M,M,M,M,M,M,M,68.00,KCXP 131330Z AUTO 00000KT 10SM CLR 20/04 A3025 RMK AO2,M
RTS,2021-08-13 13:35,-119.8764,39.6682,1539.00,64.40,39.20,39.43,290.00,4.00,0.00,30.25,M,10.00,M,CLR,M,M,M,M,M,M,M,M,M,M,M,M,M,M,64.40,KRTS 131335Z AUTO 29004KT 10SM CLR 18/04 A3025 RMK AO2,M
TMT,2021-08-13 13:35,-117.1971,39.4643,1749.34,50.50,41.00,69.76,0.00,0.00,0.00,30.30,M,10.00,M,CLR,M,M,M,M,M,M,M,M,M,M,M,M,M,M,50.50,KTMT 131335Z AUTO 00000KT 10SM CLR 10/05 A3030 RMK AO2 T01030050,M
BAM,2021-08-13 13:35,-116.8743,40.5990,1382.36,59.00,35.60,41.42,100.00,6.00,0.00,30.20,M,10.00,M,CLR,M,M,M,M,M,M,M,M,M,M,M,M,M,M,59.00,KBAM 131335Z AUTO 10006KT 10SM CLR 15/02 A3020 RMK AO1,M
HTH,2021-08-13 13:35,-118.6315,38.5448,1282.89,73.40,37.40,26.98,0.00,0.00,0.00,30.18,M,10.00,M,CLR,M,M,M,M,M,M,M,M,M,M,M,M,M,M,73.40,KHTH 131335Z AUTO 00000KT 10SM CLR 23/03 A3018 RMK A01,M
BVU,2021-08-13 13:35,-114.8611,35.9475,671.00,84.20,62.60,48.32,120.00,8.00,0.00,30.02,M,10.00,M,CLR,M,M,M,M,M,M,M,M,M,M,M,M,M,M,85.03,KBVU 131335Z AUTO 12008KT 10SM CLR 29/17 A3002 RMK AO2,M
MEV,2021-08-13 13:35,-119.7500,38.9963,1441.42,57.20,41.00,54.60,0.00,0.00,0.00,30.24,M,8.00,M,CLR,M,M,M,M,M,M,M,M,M,M,M,M,M,M,57.20,KMEV 131335Z AUTO 00000KT 8SM CLR 14/05 A3024 RMK AO2,M
CXP,2021-08-13 13:50,-119.7326,39.1923,1431.00,68.00,37.40,32.43,280.00,3.00,0.00,30.25,M,9.00,M,CLR,M,M,M,M,M,M,M,M,M,M,M,M,M,M,68.00,KCXP 131350Z AUTO 28003KT 9SM CLR 20/03 A3025 RMK AO2,M
P68,2021-08-13 13:53,-116.0056,39.6014,1993.00,62.00,41.00,45.84,0.00,0.00,0.00,30.29,1016.50,M,M,M,M,M,M,M,M,M,M,M,M,M,M,M,M,M,62.10,KP68 131353Z AUTO 00000KT 17/05 A3029 RMK AO1 SLP165 T01670050,M
DRA,2021-08-13 13:53,-116.0278,36.6206,1009.00,78.00,48.00,34.67,130.00,4.00,0.00,30.08,1012.90,10.00,M,CLR,M,M,M,M,M,M,M,M,M,M,M,M,M,M,78.10,KDRA 131353Z AUTO 13004KT 10SM CLR 26/09 A3008 RMK AO2 SLP129 T02560089,M
LOL,2021-08-13 13:53,-118.5701,40.0684,1192.43,81.00,47.00,30.24,10.00,6.00,T,30.16,1015.80,10.00,M,SCT,BKN,M,M,9000.00,11000.00,M,M,-RA,M,M,M,M,M,M,79.83,KLOL 131353Z AUTO 01006KT 10SM -RA SCT090 BKN110 27/08 A3016 RMK AO2 RAB50 SLP158 P0000 T02720083,M
VGT,2021-08-13 13:53,-115.1933,36.2111,667.00,86.00,61.00,43.10,10.00,3.00,0.00,30.01,1014.60,10.00,M,CLR,M,M,M,M,M,M,M,FU,M,M,M,M,M,M,86.12,KVGT 131353Z 01003KT 10SM FU CLR 30/16 A3001 RMK AO2 SLP146 T03000161,M
ELY,2021-08-13 13:53,-114.8453,39.2950,1909.00,56.00,37.00,48.95,180.00,8.00,0.00,30.32,1016.60,10.00,M,CLR,M,M,M,M,M,M,M,M,M,M,M,M,M,M,55.90,KELY 131353Z AUTO 18008KT 10SM CLR 13/03 A3032 RMK AO2 SLP166 T01330028,M
BAM,2021-08-13 13:55,-116.8743,40.5990,1382.36,60.80,35.60,38.85,150.00,3.00,0.00,30.20,M,10.00,M,CLR,M,M,M,M,M,M,M,M,M,M,M,M,M,M,60.80,KBAM 131355Z AUTO 15003KT 10SM CLR 16/02 A3020 RMK AO1,M
BVU,2021-08-13 13:55,-114.8611,35.9475,671.00,84.20,62.60,48.32,0.00,0.00,0.00,30.03,M,10.00,M,CLR,M,M,M,M,M,M,M,M,M,M,M,M,M,M,85.03,KBVU 131355Z AUTO 00000KT 10SM CLR 29/17 A3003 RMK AO2,M
RTS,2021-08-13 13:55,-119.8764,39.6682,1539.00,66.20,39.20,37.03,20.00,6.00,0.00,30.27,M,10.00,M,CLR,M,M,M,M,M,M,M,M,M,M,M,M,M,M,66.20,KRTS 131355Z AUTO 02006KT 10SM CLR 19/04 A3027 RMK AO2,M
MEV,2021-08-13 13:55,-119.7500,38.9963,1441.42,59.00,41.00,51.18,0.00,0.00,0.00,30.24,M,8.00,M,CLR,M,M,M,M,M,M,M,M,M,M,M,M,M,M,59.00,KMEV 131355Z AUTO 00000KT 8SM CLR 15/05 A3024 RMK AO2,M
HTH,2021-08-13 13:55,-118.6315,38.5448,1282.89,71.60,37.40,28.68,260.00,3.00,0.00,30.19,M,9.00,M,CLR,M,M,M,M,M,M,M,M,M,M,M,M,M,M,71.60,KHTH 131355Z AUTO 26003KT 9SM CLR 22/03 A3019 RMK A01,M
RNO,2021-08-13 13:55,-119.7711,39.4839,1341.00,72.00,44.00,36.68,160.00,3.00,0.00,30.21,1016.40,8.00,M,BKN,M,M,M,20000.00,M,M,M,M,M,M,M,M,M,M,72.00,KRNO 131355Z 16003KT 8SM BKN200 22/07 A3021 RMK AO2 SLP164 HZ ALQDS T02220067,M
TMT,2021-08-13 13:55,-117.1971,39.4643,1749.34,54.00,41.20,61.57,0.00,0.00,0.00,30.31,M,10.00,M,CLR,M,M,M,M,M,M,M,M,M,M,M,M,M,M,54.10,KTMT 131355Z AUTO 00000KT 10SM CLR 12/05 A3031 RMK AO2 T01230051,M
LAS,2021-08-13 13:56,-115.1634,36.0719,663.00,84.00,62.00,47.78,0.00,0.00,0.00,30.01,1013.20,10.00,M,FEW,BKN,BKN,M,11000.00,14000.00,20000.00,M,M,M,M,M,M,M,M,84.67,KLAS 131356Z 00000KT 10SM FEW110 BKN140 BKN200 29/17 A3001 RMK AO2 SLP132 VIRGA DSNT W-NW T02890167,M
WMC,2021-08-13 13:56,-117.8072,40.9019,1315.00,68.00,34.00,28.34,M,M,0.00,30.19,1016.60,10.00,M,CLR,M,M,M,M,M,M,M,M,M,M,M,M,M,M,68.00,KWMC 131356Z AUTO 10SM CLR 20/01 A3019 RMK AO2 SLP166 T02000011 $,M
EKO,2021-08-13 13:56,-115.7860,40.8242,1367.00,61.00,37.00,40.77,0.00,0.00,0.00,30.24,1017.50,10.00,M,CLR,M,M,M,M,M,M,M,M,M,M,M,M,M,M,61.00,KEKO 131356Z AUTO 00000KT 10SM CLR 16/03 A3024 RMK AO2 SLP175 T01610028,M
NFL,2021-08-13 13:56,-118.7010,39.4166,1199.00,79.00,48.00,33.66,20.00,4.00,0.00,30.15,1017.60,10.00,M,CLR,M,M,M,M,M,M,M,M,M,M,M,M,M,M,79.00,KNFL 131356Z AUTO 02004KT 10SM CLR 26/09 A3015 RMK AO2 SLP176 T02610089,M
TPH,2021-08-13 13:56,-117.0904,38.0505,1654.00,65.00,35.00,32.97,10.00,7.00,0.00,30.26,1016.40,10.00,M,CLR,M,M,M,M,M,M,M,M,M,M,M,M,M,M,64.90,KTPH 131356Z AUTO 01007KT 10SM CLR 18/02 A3026 RMK AO2 SLP164 T01830017,M
HND,2021-08-13 13:56,-115.1344,35.9729,742.79,84.00,62.00,47.78,180.00,10.00,0.00,30.04,1015.40,10.00,M,CLR,M,M,M,M,M,M,M,M,M,M,M,M,M,M,84.67,KHND 131356Z 18010KT 10SM CLR 29/17 A3004 RMK AO2 SLP154 T02890167,M
LSV,2021-08-13 13:58,-115.0343,36.2362,570.00,85.30,62.80,46.97,60.00,5.00,0.00,29.99,1012.80,10.00,M,FEW,M,M,M,16000.00,M,M,M,M,M,M,M,M,M,M,86.13,KLSV 131358Z AUTO 06005KT 10SM FEW160 30/17 A2999 RMK AO2 SLP128 T02960171 $,M
INS,2021-08-13 13:58,-115.6733,36.5872,955.00,83.00,56.80,40.97,140.00,3.00,0.00,30.06,1012.20,10.00,M,FEW,M,M,M,14000.00,M,M,M,M,M,M,M,M,M,M,82.37,KINS 131358Z AUTO 14003KT 10SM FEW140 28/14 A3006 RMK AO2 SLP122 T02830138 $,M
CXP,2021-08-13 14:10,-119.7326,39.1923,1431.00,68.00,39.20,34.80,0.00,0.00,0.00,30.26,M,9.00,M,CLR,M,M,M,M,M,M,M,M,M,M,M,M,M,M,68.00,KCXP 131410Z AUTO 00000KT 9SM CLR 20/04 A3026 RMK AO2,M
MEV,2021-08-13 14:15,-119.7500,38.9963,1441.42,57.20,41.00,54.60,0.00,0.00,0.00,30.25,M,8.00,M,CLR,M,M,M,M,M,M,M,M,M,M,M,M,M,M,57.20,KMEV 131415Z AUTO 00000KT 8SM CLR 14/05 A3025 RMK AO2,M
BVU,2021-08-13 14:15,-114.8611,35.9475,671.00,84.20,62.60,48.32,130.00,8.00,0.00,30.03,M,10.00,M,CLR,M,M,M,M,M,M,M,M,M,M,M,M,M,M,85.03,KBVU 131415Z AUTO 13008KT 10SM CLR 29/17 A3003 RMK AO2,M
HTH,2021-08-13 14:15,-118.6315,38.5448,1282.89,73.40,37.40,26.98,0.00,0.00,0.00,30.19,M,9.00,M,CLR,M,M,M,M,M,M,M,M,M,M,M,M,M,M,73.40,KHTH 131415Z AUTO 00000KT 9SM CLR 23/03 A3019 RMK A01,M
BAM,2021-08-13 14:15,-116.8743,40.5990,1382.36,62.60,37.40,39.14,0.00,0.00,0.00,30.21,M,10.00,M,CLR,M,M,M,M,M,M,M,M,M,M,M,M,M,M,62.60,KBAM 131415Z AUTO 00000KT 10SM CLR 17/03 A3021 RMK AO1,M
TMT,2021-08-13 14:15,-117.1971,39.4643,1749.34,56.30,41.20,56.84,0.00,0.00,0.00,30.32,M,10.00,M,CLR,M,M,M,M,M,M,M,M,M,M,M,M,M,M,56.30,KTMT 131415Z AUTO 00000KT 10SM CLR 14/05 A3032 RMK AO2 T01350051,M
RTS,2021-08-13 14:15,-119.8764,39.6682,1539.00,69.80,39.20,32.72,0.00,0.00,0.00,30.27,M,9.00,M,CLR,M,M,M,M,M,M,M,M,M,M,M,M,M,M,69.80,KRTS 131415Z AUTO 00000KT 9SM CLR 21/04 A3027 RMK AO2,M
CXP,2021-08-13 14:30,-119.7326,39.1923,1431.00,68.00,41.00,37.32,0.00,0.00,0.00,30.26,M,8.00,M,CLR,M,M,M,M,M,M,M,M,M,M,M,M,M,M,68.00,KCXP 131430Z AUTO 00000KT 8SM CLR 20/05 A3026 RMK AO2,M
RTS,2021-08-13 14:35,-119.8764,39.6682,1539.00,69.80,39.20,32.72,0.00,0.00,0.00,30.28,M,9.00,M,CLR,M,M,M,M,M,M,M,M,M,M,M,M,M,M,69.80,KRTS 131435Z AUTO 00000KT 9SM CLR 21/04 A3028 RMK AO2,M
MEV,2021-08-13 14:35,-119.7500,38.9963,1441.42,62.60,42.80,48.28,0.00,0.00,0.00,30.26,M,9.00,M,CLR,M,M,M,M,M,M,M,M,M,M,M,M,M,M,62.60,KMEV 131435Z AUTO 00000KT 9SM CLR 17/06 A3026 RMK AO2,M
TMT,2021-08-13 14:35,-117.1971,39.4643,1749.34,57.00,44.40,62.67,0.00,0.00,0.00,30.33,M,10.00,M,CLR,M,M,M,M,M,M,M,M,M,M,M,M,M,M,57.00,KTMT 131435Z AUTO 00000KT 10SM CLR 14/07 A3033 RMK AO2 T01390069,M
BVU,2021-08-13 14:35,-114.8611,35.9475,671.00,84.20,62.60,48.32,140.00,12.00,0.00,30.03,M,10.00,M,CLR,M,M,M,M,M,M,M,M,M,M,M,M,M,M,85.03,KBVU 131435Z AUTO 14012KT 10SM CLR 29/17 A3003 RMK AO2,M
BAM,2021-08-13 14:35,-116.8743,40.5990,1382.36,68.00,37.40,32.43,0.00,0.00,0.00,30.21,M,10.00,M,CLR,M,M,M,M,M,M,M,M,M,M,M,M,M,M,68.00,KBAM 131435Z AUTO 00000KT 10SM CLR 20/03 A3021 RMK AO1,M
HTH,2021-08-13 14:35,-118.6315,38.5448,1282.89,75.20,37.40,25.40,0.00,0.00,0.00,30.20,M,9.00,M,CLR,M,M,M,M,M,M,M,M,M,M,M,M,M,M,75.20,KHTH 131435Z AUTO 00000KT 9SM CLR 24/03 A3020 RMK A01,M
NFL,2021-08-13 14:38,-118.7010,39.4166,1199.00,79.00,49.00,34.81,310.00,3.00,0.00,30.16,M,10.00,M,FEW,SCT,BKN,M,7000.00,11000.00,17000.00,M,M,M,M,M,M,M,M,79.00,KNFL 131438Z 31003KT 10SM FEW070 SCT110 BKN170 26/09 A3016 RMK AO2 T02610094,M
CXP,2021-08-13 14:50,-119.7326,39.1923,1431.00,69.80,41.00,35.09,0.00,0.00,0.00,30.27,M,9.00,M,CLR,M,M,M,M,M,M,M,M,M,M,M,M,M,M,69.80,KCXP 131450Z AUTO 00000KT 9SM CLR 21/05 A3027 RMK AO2,M
ELY,2021-08-13 14:53,-114.8453,39.2950,1909.00,64.00,39.00,39.67,180.00,10.00,0.00,30.33,1016.50,10.00,M,CLR,M,M,M,M,M,M,M,M,M,M,M,M,M,M,64.00,KELY 131453Z AUTO 18010KT 10SM CLR 18/04 A3033 RMK AO2 SLP165 T01780039 51012,M
LOL,2021-08-13 14:53,-118.5701,40.0684,1192.43,85.00,45.00,24.81,0.00,0.00,T,30.14,1015.20,10.00,M,CLR,M,M,M,M,M,M,M,M,M,M,M,M,M,M,82.27,KLOL 131453Z AUTO 00000KT 10SM CLR 29/07 A3014 RMK AO2 RAE1359 SLP152 P0000 60000 T02940072 50012,M
VGT,2021-08-13 14:53,-115.1933,36.2111,667.00,87.00,63.00,44.66,40.00,6.00,0.00,30.03,1015.30,10.00,M,CLR,M,M,M,M,M,M,M,FU,M,M,M,M,M,M,87.96,KVGT 131453Z 04006KT 10SM FU CLR 31/17 A3003 RMK AO2 SLP153 T03060172 51023,M
P68,2021-08-13 14:53,-116.0056,39.6014,1993.00,68.00,42.00,38.94,0.00,0.00,0.00,30.31,1017.20,M,M,M,M,M,M,M,M,M,M,M,M,M,M,M,M,M,68.00,KP68 131453Z AUTO 00000KT 20/06 A3031 RMK AO1 SLP172 T02000056 53016,M
DRA,2021-08-13 14:53,-116.0278,36.6206,1009.00,82.00,52.00,35.41,300.00,3.00,0.00,30.09,1013.40,10.00,M,CLR,M,M,M,M,M,M,M,M,M,M,M,M,M,M,80.97,KDRA 131453Z AUTO 30003KT 10SM CLR 28/11 A3009 RMK AO2 SLP134 T02780111 51019,M
RNO,2021-08-13 14:55,-119.7711,39.4839,1341.00,74.00,45.00,35.60,260.00,6.00,0.00,30.23,1017.20,9.00,M,FEW,SCT,M,M,12000.00,20000.00,M,M,M,M,M,M,M,M,M,73.90,KRNO 131455Z 26006KT 9SM FEW120 SCT200 23/07 A3023 RMK AO2 SLP172 HZ ALQDS T02330072 53018,M
BVU,2021-08-13 14:55,-114.8611,35.9475,671.00,84.20,62.60,48.32,140.00,9.00,0.00,30.04,M,10.00,M,CLR,M,M,M,M,M,M,M,M,M,M,M,M,M,M,85.03,KBVU 131455Z AUTO 14009KT 10SM CLR 29/17 A3004 RMK AO2,M
HTH,2021-08-13 14:55,-118.6315,38.5448,1282.89,77.00,37.40,23.93,0.00,0.00,0.00,30.20,M,10.00,M,CLR,M,M,M,M,M,M,M,M,M,M,M,M,M,M,77.00,KHTH 131455Z AUTO 00000KT 10SM CLR 25/03 A3020 RMK A01,M
BAM,2021-08-13 14:55,-116.8743,40.5990,1382.36,71.60,39.20,30.77,220.00,3.00,0.00,30.22,M,10.00,M,CLR,M,M,M,M,M,M,M,M,M,M,M,M,M,M,71.60,KBAM 131455Z AUTO 22003KT 10SM CLR 22/04 A3022 RMK AO1,M
MEV,2021-08-13 14:55,-119.7500,38.9963,1441.42,66.20,42.80,42.57,0.00,0.00,0.00,30.26,M,9.00,M,CLR,M,M,M,M,M,M,M,M,M,M,M,M,M,M,66.20,KMEV 131455Z AUTO 00000KT 9SM CLR 19/06 A3026 RMK AO2,M
RTS,2021-08-13 14:55,-119.8764,39.6682,1539.00,69.80,39.20,32.72,0.00,0.00,0.00,30.29,M,10.00,M,CLR,M,M,M,M,M,M,M,M,M,M,M,M,M,M,69.80,KRTS 131455Z AUTO 00000KT 10SM CLR 21/04 A3029 RMK AO2,M
TMT,2021-08-13 14:55,-117.1971,39.4643,1749.34,60.00,44.60,56.51,0.00,0.00,0.00,30.34,M,10.00,M,CLR,M,M,M,M,M,M,M,M,M,M,M,M,M,M,60.10,KTMT 131455Z AUTO 00000KT 10SM CLR 16/07 A3034 RMK AO2 T01560070,M
TPH,2021-08-13 14:56,-117.0904,38.0505,1654.00,67.00,36.00,31.87,40.00,4.00,0.00,30.27,1017.00,10.00,M,CLR,M,M,M,M,M,M,M,M,M,M,M,M,M,M,66.90,KTPH 131456Z AUTO 04004KT 10SM CLR 19/02 A3027 RMK AO2 SLP170 T01940022 52014,M
NFL,2021-08-13 14:56,-118.7010,39.4166,1199.00,84.00,43.00,23.66,270.00,6.00,0.00,30.16,1017.90,7.00,M,SCT,BKN,BKN,M,7000.00,11000.00,17000.00,M,M,M,M,M,M,M,M,81.48,KNFL 131456Z 27006KT 7SM SCT070 BKN110 BKN170 29/06 A3016 RMK AO2 SLP179 T02890061 51015,M
HND,2021-08-13 14:56,-115.1344,35.9729,742.79,86.00,63.00,46.25,190.00,9.00,0.00,30.06,1016.10,10.00,M,CLR,M,M,M,M,M,M,M,M,M,M,M,M,M,M,86.88,KHND 131456Z 19009KT 10SM CLR 30/17 A3006 RMK AO2 SLP161 T03000172 51021,M
EKO,2021-08-13 14:56,-115.7860,40.8242,1367.00,69.00,37.00,30.74,0.00,0.00,0.00,30.25,1017.90,10.00,M,CLR,M,M,M,M,M,M,M,M,M,M,M,M,M,M,69.10,KEKO 131456Z AUTO 00000KT 10SM CLR 21/03 A3025 RMK AO2 SLP179 T02060028 51017,M
LAS,2021-08-13 14:56,-115.1634,36.0719,663.00,87.00,62.00,43.27,30.00,4.00,0.00,30.03,1013.80,10.00,M,BKN,BKN,M,M,14000.00,20000.00,M,M,M,M,M,M,M,M,M,87.58,KLAS 131456Z 03004KT 10SM BKN140 BKN200 31/17 A3003 RMK AO2 SLP138 T03060167 51021,M
WMC,2021-08-13 14:56,-117.8072,40.9019,1315.00,70.00,37.00,29.81,40.00,3.00,0.00,30.21,1017.30,10.00,M,CLR,M,M,M,M,M,M,M,M,M,M,M,M,M,M,70.00,KWMC 131456Z AUTO 04003KT 10SM CLR 21/03 A3021 RMK AO2 SLP173 T02110028 53017 $,M
INS,2021-08-13 14:58,-115.6733,36.5872,955.00,81.70,58.30,44.96,190.00,4.00,0.00,30.08,1013.20,10.00,M,CLR,M,M,M,M,M,M,M,M,M,M,M,M,M,M,81.78,KINS 131458Z AUTO 19004KT 10SM CLR 28/15 A3008 RMK AO2 SLP132 T02760146 52016 $,M
LSV,2021-08-13 14:58,-115.0343,36.2362,570.00,86.40,63.70,46.80,50.00,5.00,0.00,30.01,1013.40,10.00,M,FEW,M,M,M,16000.00,M,M,M,M,M,M,M,M,M,M,87.58,KLSV 131458Z AUTO 05005KT 10SM FEW160 30/18 A3001 RMK AO2 SLP134 T03020176 52021 $,M
CXP,2021-08-13 15:10,-119.7326,39.1923,1431.00,71.60,39.20,30.77,0.00,0.00,0.00,30.27,M,9.00,M,CLR,M,M,M,M,M,M,M,M,M,M,M,M,M,M,71.60,KCXP 131510Z AUTO 00000KT 9SM CLR 22/04 A3027 RMK AO2,M
MEV,2021-08-13 15:15,-119.7500,38.9963,1441.42,68.00,42.80,40.00,0.00,0.00,0.00,30.26,M,8.00,M,CLR,M,M,M,M,M,M,M,M,M,M,M,M,M,M,68.00,KMEV 131515Z AUTO 00000KT 8SM CLR 20/06 A3026 RMK AO2,M
RTS,2021-08-13 15:15,-119.8764,39.6682,1539.00,71.60,41.00,33.00,280.00,3.00,0.00,30.29,M,10.00,M,CLR,M,M,M,M,M,M,M,M,M,M,M,M,M,M,71.60,KRTS 131515Z AUTO 28003KT 10SM CLR 22/05 A3029 RMK AO2,M
HTH,2021-08-13 15:15,-118.6315,38.5448,1282.89,78.80,37.40,22.54,0.00,0.00,0.00,30.21,M,10.00,M,CLR,M,M,M,M,M,M,M,M,M,M,M,M,M,M,78.80,KHTH 131515Z AUTO 00000KT 10SM CLR 26/03 A3021 RMK A01,M
TMT,2021-08-13 15:15,-117.1971,39.4643,1749.34,65.00,43.00,44.88,180.00,3.00,0.00,30.34,M,10.00,M,CLR,M,M,M,M,M,M,M,M,M,M,M,M,M,M,64.90,KTMT 131515Z AUTO 18003KT 10SM CLR 18/06 A3034 RMK AO2 T01830061,M
BAM,2021-08-13 15:15,-116.8743,40.5990,1382.36,77.00,41.00,27.53,240.00,3.00,0.00,30.23,M,10.00,M,CLR,M,M,M,M,M,M,M,M,M,M,M,M,M,M,77.00,KBAM 131515Z AUTO 24003KT 10SM CLR 25/05 A3023 RMK AO1,M
BVU,2021-08-13 15:15,-114.8611,35.9475,671.00,86.00,62.60,45.61,150.00,10.00,0.00,30.04,M,10.00,M,CLR,M,M,M,M,M,M,M,M,M,M,M,M,M,M,86.72,KBVU 131515Z AUTO 15010KT 10SM CLR 30/17 A3004 RMK AO2,M
CXP,2021-08-13 15:30,-119.7326,39.1923,1431.00,73.40,37.40,26.98,0.00,0.00,0.00,30.27,M,10.00,M,CLR,M,M,M,M,M,M,M,M,M,M,M,M,M,M,73.40,KCXP 131530Z AUTO 00000KT 10SM CLR 23/03 A3027 RMK AO2,M
MEV,2021-08-13 15:35,-119.7500,38.9963,1441.42,69.80,42.80,37.61,180.00,3.00,0.00,30.26,M,8.00,M,CLR,M,M,M,M,M,M,M,M,M,M,M,M,M,M,69.80,KMEV 131535Z AUTO 18003KT 8SM CLR 21/06 A3026 RMK AO2,M
BAM,2021-08-13 15:35,-116.8743,40.5990,1382.36,78.80,35.60,21.00,0.00,0.00,0.00,30.23,M,10.00,M,CLR,M,M,M,M,M,M,M,M,M,M,M,M,M,M,78.80,KBAM 131535Z AUTO 00000KT 10SM CLR 26/02 A3023 RMK AO1,M
BVU,2021-08-13 15:35,-114.8611,35.9475,671.00,86.00,62.60,45.61,150.00,7.00,0.00,30.04,M,10.00,M,CLR,M,M,M,M,M,M,M,M,M,M,M,M,M,M,86.72,KBVU 131535Z AUTO 15007KT 10SM CLR 30/17 A3004 RMK AO2,M
RTS,2021-08-13 15:35,-119.8764,39.6682,1539.00,73.40,41.00,31.05,0.00,0.00,0.00,30.29,M,10.00,M,CLR,M,M,M,M,M,M,M,M,M,M,M,M,M,M,73.40,KRTS 131535Z AUTO 00000KT 10SM CLR 23/05 A3029 RMK AO2,M
HTH,2021-08-13 15:35,-118.6315,38.5448,1282.89,80.60,37.40,21.25,0.00,0.00,0.00,30.21,M,10.00,M,CLR,M,M,M,M,M,M,M,M,M,M,M,M,M,M,79.02,KHTH 131535Z AUTO 00000KT 10SM CLR 27/03 A3021 RMK A01,M
TMT,2021-08-13 15:35,-117.1971,39.4643,1749.34,67.80,43.20,40.90,240.00,3.00,0.00,30.33,M,10.00,M,CLR,M,M,M,M,M,M,M,M,M,M,M,M,M,M,67.80,KTMT 131535Z AUTO 24003KT 10SM CLR 20/06 A3033 RMK AO2 T01990062,M
CXP,2021-08-13 15:50,-119.7326,39.1923,1431.00,75.20,39.20,27.26,M,3.00,0.00,30.27,M,10.00,M,CLR,M,M,M,M,M,M,M,M,M,M,M,M,M,M,75.20,KCXP 131550Z AUTO VRB03KT 10SM CLR 24/04 A3027 RMK AO2,M
VGT,2021-08-13 15:53,-115.1933,36.2111,667.00,88.00,64.00,44.95,50.00,7.00,0.00,30.03,1015.70,10.00,M,CLR,M,M,M,M,M,M,M,FU,M,M,M,M,M,M,89.34,KVGT 131553Z 05007KT 10SM FU CLR 31/18 A3003 RMK AO2 SLP157 T03110178,M
DRA,2021-08-13 15:53,-116.0278,36.6206,1009.00,85.00,52.00,32.24,250.00,4.00,0.00,30.10,1013.50,10.00,M,CLR,M,M,M,M,M,M,M,M,M,M,M,M,M,M,83.03,KDRA 131553Z AUTO 25004KT 10SM CLR 29/11 A3010 RMK AO2 SLP135 T02940111,M
LOL,2021-08-13 15:53,-118.5701,40.0684,1192.43,87.00,51.00,29.07,M,4.00,0.00,30.15,1015.50,10.00,M,CLR,M,M,M,M,M,M,M,M,M,M,M,M,M,M,84.67,KLOL 131553Z AUTO VRB04KT 10SM CLR 31/11 A3015 RMK AO2 SLP155 T03060106,M
P68,2021-08-13 15:53,-116.0056,39.6014,1993.00,75.00,42.00,30.71,210.00,6.00,0.00,30.31,1017.10,M,M,M,M,M,M,M,M,M,M,M,M,M,M,M,M,M,75.00,KP68 131553Z AUTO 21006KT 24/06 A3031 RMK AO1 SLP171 T02390056,M
BAM,2021-08-13 15:55,-116.8743,40.5990,1382.36,80.60,35.60,19.79,0.00,0.00,0.00,30.23,M,10.00,M,CLR,M,M,M,M,M,M,M,M,M,M,M,M,M,M,78.94,KBAM 131555Z AUTO 00000KT 10SM CLR 27/02 A3023 RMK AO1,M
TMT,2021-08-13 15:55,-117.1971,39.4643,1749.34,70.70,44.60,39.07,0.00,0.00,0.00,30.33,M,10.00,M,CLR,M,M,M,M,M,M,M,M,M,M,M,M,M,M,70.70,KTMT 131555Z AUTO 00000KT 10SM CLR 22/07 A3033 RMK AO2 T02150070,M
MEV,2021-08-13 15:55,-119.7500,38.9963,1441.42,71.60,44.60,37.89,0.00,0.00,0.00,30.27,M,7.00,M,CLR,M,M,M,M,M,M,M,M,M,M,M,M,M,M,71.60,KMEV 131555Z AUTO 00000KT 7SM CLR 22/07 A3027 RMK AO2,M
RTS,2021-08-13 15:55,-119.8764,39.6682,1539.00,77.00,41.00,27.53,0.00,0.00,0.00,30.29,M,9.00,M,CLR,M,M,M,M,M,M,M,M,M,M,M,M,M,M,77.00,KRTS 131555Z AUTO 00000KT 9SM CLR 25/05 A3029 RMK AO2,M
BVU,2021-08-13 15:55,-114.8611,35.9475,671.00,87.80,62.60,43.07,190.00,4.00,0.00,30.04,M,10.00,10.00,CLR,M,M,M,M,M,M,M,M,M,M,M,M,M,M,88.48,KBVU 131555Z AUTO 19004G10KT 10SM CLR 31/17 A3004 RMK AO2,M
HTH,2021-08-13 15:55,-118.6315,38.5448,1282.89,82.40,37.40,20.04,290.00,4.00,0.00,30.21,M,9.00,M,CLR,M,M,M,M,M,M,M,M,M,M,M,M,M,M,80.14,KHTH 131555Z AUTO 29004KT 9SM CLR 28/03 A3021 RMK A01,M
RNO,2021-08-13 15:55,-119.7711,39.4839,1341.00,79.00,46.00,31.21,60.00,6.00,0.00,30.23,1017.10,10.00,M,FEW,FEW,M,M,12000.00,20000.00,M,M,M,M,M,M,M,M,M,79.00,KRNO 131555Z 06006KT 10SM FEW120 FEW200 26/08 A3023 RMK AO2 SLP171 HZ ALQDS T02610078,M
LAS,2021-08-13 15:56,-115.1634,36.0719,663.00,88.00,63.00,43.40,60.00,7.00,0.00,30.04,1014.20,10.00,M,BKN,BKN,M,M,15000.00,20000.00,M,M,M,M,M,M,M,M,M,88.86,KLAS 131556Z 06007KT 10SM BKN150 BKN200 31/17 A3004 RMK AO2 SLP142 T03110172,M
WMC,2021-08-13 15:56,-117.8072,40.9019,1315.00,79.00,37.00,22.05,0.00,0.00,0.00,30.21,1016.90,10.00,M,CLR,M,M,M,M,M,M,M,M,M,M,M,M,M,M,79.00,KWMC 131556Z AUTO 00000KT 10SM CLR 26/03 A3021 RMK AO2 SLP169 T02610028,M
HND,2021-08-13 15:56,-115.1344,35.9729,742.79,88.00,62.00,42.05,280.00,5.00,0.00,30.07,1016.50,10.00,M,CLR,M,M,M,M,M,M,M,M,M,M,M,M,M,M,88.47,KHND 131556Z 28005KT 10SM CLR 31/17 A3007 RMK AO2 SLP165 T03110167,M
TPH,2021-08-13 15:56,-117.0904,38.0505,1654.00,76.00,36.00,23.48,0.00,0.00,0.00,30.27,1016.30,10.00,M,CLR,M,M,M,M,M,M,M,M,M,M,M,M,M,M,75.90,KTPH 131556Z AUTO 00000KT 10SM CLR 24/02 A3027 RMK AO2 SLP163 T02440022,M
EKO,2021-08-13 15:56,-115.7860,40.8242,1367.00,77.00,38.00,24.40,0.00,0.00,0.00,30.25,1017.70,10.00,M,CLR,M,M,M,M,M,M,M,M,M,M,M,M,M,M,77.00,KEKO 131556Z AUTO 00000KT 10SM CLR 25/03 A3025 RMK AO2 SLP177 T02500033,M
NFL,2021-08-13 15:56,-118.7010,39.4166,1199.00,84.00,47.00,27.44,230.00,8.00,0.00,30.17,1018.10,7.00,M,FEW,BKN,M,M,7000.00,12000.00,M,M,M,M,M,M,M,M,M,81.77,KNFL 131556Z 23008KT 7SM FEW070 BKN120 29/08 A3017 RMK AO2 SLP181 T02890083,M
INS,2021-08-13 15:58,-115.6733,36.5872,955.00,86.00,58.00,38.86,90.00,9.00,0.00,30.09,1013.40,10.00,M,FEW,SCT,M,M,17000.00,20000.00,M,M,M,M,M,M,M,M,M,85.21,KINS 131558Z AUTO 09009KT 10SM FEW170 SCT200 30/15 A3009 RMK AO2 SLP134 T03000145 $,M
LSV,2021-08-13 15:58,-115.0343,36.2362,570.00,86.50,64.00,46.98,80.00,7.00,0.00,30.01,1013.70,10.00,M,FEW,SCT,M,M,16000.00,20000.00,M,M,M,M,M,M,M,M,M,87.77,KLSV 131558Z AUTO 08007KT 10SM FEW160 SCT200 30/18 A3001 RMK AO2 SLP137 T03030177 $,M
CXP,2021-08-13 16:10,-119.7326,39.1923,1431.00,77.00,39.20,25.67,230.00,4.00,0.00,30.27,M,9.00,M,CLR,M,M,M,M,M,M,M,M,M,M,M,M,M,M,77.00,KCXP 131610Z AUTO 23004KT 9SM CLR 25/04 A3027 RMK AO2,M
HTH,2021-08-13 16:15,-118.6315,38.5448,1282.89,84.20,37.40,18.91,310.00,5.00,0.00,30.21,M,9.00,M,CLR,M,M,M,M,M,M,M,M,M,M,M,M,M,M,81.38,KHTH 131615Z AUTO 31005KT 9SM CLR 29/03 A3021 RMK A01,M
RTS,2021-08-13 16:15,-119.8764,39.6682,1539.00,78.80,41.00,25.95,0.00,0.00,0.00,30.29,M,9.00,M,CLR,M,M,M,M,M,M,M,M,M,M,M,M,M,M,78.80,KRTS 131615Z AUTO 00000KT 9SM CLR 26/05 A3029 RMK AO2,M
MEV,2021-08-13 16:15,-119.7500,38.9963,1441.42,73.40,42.80,33.29,0.00,0.00,0.00,30.26,M,8.00,M,CLR,M,M,M,M,M,M,M,M,M,M,M,M,M,M,73.40,KMEV 131615Z AUTO 00000KT 8SM CLR 23/06 A3026 RMK AO2,M
TMT,2021-08-13 16:15,-117.1971,39.4643,1749.34,75.40,44.20,32.84,210.00,3.00,0.00,30.32,M,10.00,M,CLR,M,M,M,M,M,M,M,M,M,M,M,M,M,M,75.40,KTMT 131615Z AUTO 21003KT 10SM CLR 24/07 A3032 RMK AO2 T02410068,M
BVU,2021-08-13 16:15,-114.8611,35.9475,671.00,87.80,62.60,43.07,100.00,7.00,0.00,30.04,M,10.00,M,CLR,M,M,M,M,M,M,M,M,M,M,M,M,M,M,88.48,KBVU 131615Z AUTO 10007KT 10SM CLR 31/17 A3004 RMK AO2,M
BAM,2021-08-13 16:15,-116.8743,40.5990,1382.36,84.20,33.80,16.39,340.00,4.00,0.00,30.23,M,10.00,M,CLR,M,M,M,M,M,M,M,M,M,M,M,M,M,M,81.30,KBAM 131615Z AUTO 34004KT 10SM CLR 29/01 A3023 RMK AO1,M
CXP,2021-08-13 16:30,-119.7326,39.1923,1431.00,78.80,39.20,24.19,0.00,0.00,0.00,30.26,M,9.00,M,CLR,M,M,M,M,M,M,M,M,M,M,M,M,M,M,78.80,KCXP 131630Z AUTO 00000KT 9SM CLR 26/04 A3026 RMK AO2,M
BAM,2021-08-13 16:35,-116.8743,40.5990,1382.36,86.00,32.00,14.40,320.00,4.00,0.00,30.23,M,10.00,M,CLR,M,M,M,M,M,M,M,M,M,M,M,M,M,M,82.64,KBAM 131635Z AUTO 32004KT 10SM CLR 30/00 A3023 RMK AO1,M
RTS,2021-08-13 16:35,-119.8764,39.6682,1539.00,80.60,39.20,22.81,0.00,0.00,0.00,30.28,M,10.00,M,CLR,M,M,M,M,M,M,M,M,M,M,M,M,M,M,79.10,KRTS 131635Z AUTO 00000KT 10SM CLR 27/04 A3028 RMK AO2,M
BVU,2021-08-13 16:35,-114.8611,35.9475,671.00,87.80,62.60,43.07,110.00,8.00,0.00,30.05,M,10.00,M,CLR,M,M,M,M,M,M,M,M,M,M,M,M,M,M,88.48,KBVU 131635Z AUTO 11008KT 10SM CLR 31/17 A3005 RMK AO2,M
MEV,2021-08-13 16:35,-119.7500,38.9963,1441.42,77.00,42.80,29.51,0.00,0.00,0.00,30.26,M,8.00,M,CLR,M,M,M,M,M,M,M,M,M,M,M,M,M,M,77.00,KMEV 131635Z AUTO 00000KT 8SM CLR 25/06 A3026 RMK AO2,M
TMT,2021-08-13 16:35,-117.1971,39.4643,1749.34,78.00,45.50,31.76,190.00,3.00,0.00,30.32,M,10.00,M,CLR,M,M,M,M,M,M,M,M,M,M,M,M,M,M,77.90,KTMT 131635Z AUTO 19003KT 10SM CLR 26/08 A3032 RMK AO2 T02550075,M
HTH,2021-08-13 16:35,-118.6315,38.5448,1282.89,84.20,39.20,20.29,M,4.00,0.00,30.21,M,9.00,M,CLR,M,M,M,M,M,M,M,M,M,M,M,M,M,M,81.44,KHTH 131635Z AUTO VRB04KT 9SM CLR 29/04 A3021 RMK A01,M
CXP,2021-08-13 16:50,-119.7326,39.1923,1431.00,80.60,39.20,22.81,0.00,0.00,0.00,30.26,M,10.00,M,CLR,M,M,M,M,M,M,M,M,M,M,M,M,M,M,79.10,KCXP 131650Z AUTO 00000KT 10SM CLR 27/04 A3026 RMK AO2,M
ELY,2021-08-13 16:53,-114.8453,39.2950,1909.00,81.00,38.00,21.39,0.00,0.00,0.00,30.32,1015.70,10.00,M,CLR,M,M,M,M,M,M,M,M,M,M,M,M,M,M,79.28,KELY 131653Z AUTO 00000KT 10SM CLR 27/03 A3032 RMK AO2 SLP157 T02720033,M
P68,2021-08-13 16:53,-116.0056,39.6014,1993.00,82.00,39.00,21.62,0.00,0.00,0.00,30.30,1016.20,M,M,M,M,M,M,M,M,M,M,M,M,M,M,M,M,M,79.94,KP68 131653Z AUTO 00000KT 28/04 A3030 RMK AO1 SLP162 T02780039,M
DRA,2021-08-13 16:53,-116.0278,36.6206,1009.00,88.00,47.00,24.15,190.00,5.00,0.00,30.11,1013.90,10.00,M,CLR,M,M,M,M,M,M,M,M,M,M,M,M,M,M,84.90,KDRA 131653Z AUTO 19005KT 10SM CLR 31/08 A3011 RMK AO2 SLP139 T03110083,M
VGT,2021-08-13 16:53,-115.1933,36.2111,667.00,91.00,63.00,39.49,0.00,0.00,0.00,30.03,1015.60,M,M,CLR,M,M,M,M,M,M,M,FU,M,M,M,M,M,M,92.00,KVGT 131653Z AUTO 00000KT FU CLR 33/17 A3003 RMK AO2 SLP156 T03280172 PWINO $,M
BAM,2021-08-13 16:55,-116.8743,40.5990,1382.36,87.80,32.00,13.59,330.00,4.00,0.00,30.23,M,10.00,M,CLR,M,M,M,M,M,M,M,M,M,M,M,M,M,M,84.08,KBAM 131655Z AUTO 33004KT 10SM CLR 31/00 A3023 RMK AO1,M
HTH,2021-08-13 16:55,-118.6315,38.5448,1282.89,86.00,39.20,19.15,310.00,5.00,0.00,30.21,M,8.00,M,CLR,M,M,M,M,M,M,M,M,M,M,M,M,M,M,82.79,KHTH 131655Z AUTO 31005KT 8SM CLR 30/04 A3021 RMK A01,M
TMT,2021-08-13 16:55,-117.1971,39.4643,1749.34,80.60,44.60,28.08,200.00,3.00,0.00,30.32,M,10.00,M,CLR,M,M,M,M,M,M,M,M,M,M,M,M,M,M,79.42,KTMT 131655Z AUTO 20003KT 10SM CLR 27/07 A3032 RMK AO2 T02700070,M
RNO,2021-08-13 16:55,-119.7711,39.4839,1341.00,82.00,46.00,28.30,0.00,0.00,0.00,30.22,1016.70,10.00,M,FEW,M,M,M,20000.00,M,M,M,M,M,M,M,M,M,M,80.36,KRNO 131655Z 00000KT 10SM FEW200 28/08 A3022 RMK AO2 SLP167 HZ ALQDS T02780078,M
BVU,2021-08-13 16:55,-114.8611,35.9475,671.00,87.80,62.60,43.07,110.00,8.00,0.00,30.05,M,10.00,M,CLR,M,M,M,M,M,M,M,M,M,M,M,M,M,M,88.48,KBVU 131655Z AUTO 11008KT 10SM CLR 31/17 A3005 RMK AO2,M
MEV,2021-08-13 16:55,-119.7500,38.9963,1441.42,78.80,41.00,25.95,310.00,3.00,0.00,30.26,M,8.00,M,CLR,M,M,M,M,M,M,M,M,M,M,M,M,M,M,78.80,KMEV 131655Z AUTO 31003KT 8SM CLR 26/05 A3026 RMK AO2,M
RTS,2021-08-13 16:55,-119.8764,39.6682,1539.00,82.40,41.00,23.07,140.00,4.00,0.00,30.28,M,9.00,M,CLR,M,M,M,M,M,M,M,M,M,M,M,M,M,M,80.29,KRTS 131655Z AUTO 14004KT 9SM CLR 28/05 A3028 RMK AO2,M
EKO,2021-08-13 16:56,-115.7860,40.8242,1367.00,84.00,40.00,20.99,0.00,0.00,0.00,30.24,1017.20,10.00,M,CLR,M,M,M,M,M,M,M,M,M,M,M,M,M,M,81.33,KEKO 131656Z AUTO 00000KT 10SM CLR 29/04 A3024 RMK AO2 SLP172 T02890044,M
TPH,2021-08-13 16:56,-117.0904,38.0505,1654.00,79.00,36.00,21.19,170.00,5.00,0.00,30.28,1016.30,10.00,M,CLR,M,M,M,M,M,M,M,M,M,M,M,M,M,M,79.00,KTPH 131656Z AUTO 17005KT 10SM CLR 26/02 A3028 RMK AO2 SLP163 T02610022,M
HND,2021-08-13 16:56,-115.1344,35.9729,742.79,91.00,59.00,34.27,M,3.00,0.00,30.08,1016.80,10.00,M,CLR,M,M,M,M,M,M,M,M,M,M,M,M,M,M,90.27,KHND 131656Z VRB03KT 10SM CLR 33/15 A3008 RMK AO2 SLP168 T03280150,M
NFL,2021-08-13 16:56,-118.7010,39.4166,1199.00,89.00,44.00,20.97,300.00,7.00,0.00,30.17,1018.10,8.00,M,BKN,M,M,M,12000.00,M,M,M,M,M,M,M,M,M,M,85.59,KNFL 131656Z 30007KT 8SM BKN120 32/07 A3017 RMK AO2 SLP181 T03170067,M
WMC,2021-08-13 16:56,-117.8072,40.9019,1315.00,88.00,39.00,17.83,340.00,4.00,0.00,30.20,1017.00,10.00,M,CLR,M,M,M,M,M,M,M,M,M,M,M,M,M,M,84.38,KWMC 131656Z AUTO 34004KT 10SM CLR 31/04 A3020 RMK AO2 SLP170 T03110039,M
LAS,2021-08-13 16:56,-115.1634,36.0719,663.00,91.00,62.00,38.26,M,3.00,0.00,30.04,1014.40,10.00,M,BKN,BKN,M,M,15000.00,20000.00,M,M,M,M,M,M,M,M,M,91.56,KLAS 131656Z VRB03KT 10SM BKN150 BKN200 33/17 A3004 RMK AO2 SLP144 T03280167,M
LSV,2021-08-13 16:58,-115.0343,36.2362,570.00,89.00,64.00,43.69,60.00,4.00,0.00,30.02,1014.00,10.00,M,FEW,FEW,SCT,M,14000.00,18000.00,20000.00,M,M,M,M,M,M,M,M,90.28,KLSV 131658Z 06004KT 10SM FEW140 FEW180 SCT200 32/18 A3002 RMK AO2A SLP140 T03160178 $,M
INS,2021-08-13 16:58,-115.6733,36.5872,955.00,87.00,55.20,33.79,80.00,9.00,0.00,30.09,1013.40,10.00,M,FEW,SCT,M,M,16000.00,19000.00,M,M,M,M,M,M,M,M,M,85.45,KINS 131658Z AUTO 08009KT 10SM FEW160 SCT190 31/13 A3009 RMK AO2 SLP134 T03060129 $,M
CXP,2021-08-13 17:10,-119.7326,39.1923,1431.00,82.40,39.20,21.51,160.00,3.00,0.00,30.26,M,9.00,M,CLR,M,M,M,M,M,M,M,M,M,M,M,M,M,M,80.21,KCXP 131710Z AUTO 16003KT 9SM CLR 28/04 A3026 RMK AO2,M
BAM,2021-08-13 17:15,-116.8743,40.5990,1382.36,87.80,32.00,13.59,330.00,5.00,0.00,30.23,M,10.00,M,CLR,M,M,M,M,M,M,M,M,M,M,M,M,M,M,84.08,KBAM 131715Z AUTO 33005KT 10SM CLR 31/00 A3023 RMK AO1,M
HTH,2021-08-13 17:15,-118.6315,38.5448,1282.89,87.80,39.20,18.09,340.00,8.00,0.00,30.21,M,9.00,M,CLR,M,M,M,M,M,M,M,M,M,M,M,M,M,M,84.22,KHTH 131715Z AUTO 34008KT 9SM CLR 31/04 A3021 RMK A01,M
MEV,2021-08-13 17:15,-119.7500,38.9963,1441.42,82.40,42.80,24.72,0.00,0.00,0.00,30.25,M,8.00,M,CLR,M,M,M,M,M,M,M,M,M,M,M,M,M,M,80.39,KMEV 131715Z AUTO 00000KT 8SM CLR 28/06 A3025 RMK AO2,M
RTS,2021-08-13 17:15,-119.8764,39.6682,1539.00,82.40,41.00,23.07,160.00,4.00,0.00,30.28,M,9.00,M,CLR,M,M,M,M,M,M,M,M,M,M,M,M,M,M,80.29,KRTS 131715Z AUTO 16004KT 9SM CLR 28/05 A3028 RMK AO2,M
BVU,2021-08-13 17:15,-114.8611,35.9475,671.00,89.60,62.60,40.69,160.00,7.00,0.00,30.05,M,10.00,16.00,CLR,M,M,M,M,M,M,M,M,M,M,M,M,M,M,90.32,KBVU 131715Z AUTO 16007G16KT 10SM CLR 32/17 A3005 RMK AO2,M
TMT,2021-08-13 17:15,-117.1971,39.4643,1749.34,83.30,43.30,24.48,120.00,5.00,0.00,30.32,M,10.00,M,CLR,M,M,M,M,M,M,M,M,M,M,M,M,M,M,81.01,KTMT 131715Z AUTO 12005KT 10SM CLR 29/06 A3032 RMK AO2 T02850063,M
CXP,2021-08-13 17:30,-119.7326,39.1923,1431.00,84.20,39.20,20.29,0.00,0.00,0.00,30.26,M,9.00,M,CLR,M,M,M,M,M,M,M,M,M,M,M,M,M,M,81.44,KCXP 131730Z AUTO 00000KT 9SM CLR 29/04 A3026 RMK AO2,M
MEV,2021-08-13 17:35,-119.7500,38.9963,1441.42,82.40,44.60,26.49,0.00,0.00,0.00,30.25,M,8.00,M,CLR,M,M,M,M,M,M,M,M,M,M,M,M,M,M,80.50,KMEV 131735Z AUTO 00000KT 8SM CLR 28/07 A3025 RMK AO2,M
BVU,2021-08-13 17:35,-114.8611,35.9475,671.00,89.60,62.60,40.69,150.00,5.00,0.00,30.05,M,10.00,M,CLR,M,M,M,M,M,M,M,M,M,M,M,M,M,M,90.32,KBVU 131735Z AUTO 15005KT 10SM CLR 32/17 A3005 RMK AO2,M
TMT,2021-08-13 17:35,-117.1971,39.4643,1749.34,83.00,41.20,22.87,260.00,3.00,0.00,30.32,M,10.00,M,CLR,M,M,M,M,M,M,M,M,M,M,M,M,M,M,80.63,KTMT 131735Z AUTO 26003KT 10SM CLR 28/05 A3032 RMK AO2 T02830051,M
HTH,2021-08-13 17:35,-118.6315,38.5448,1282.89,89.60,39.20,17.09,340.00,10.00,0.00,30.20,M,10.00,M,CLR,M,M,M,M,M,M,M,M,M,M,M,M,M,M,85.73,KHTH 131735Z AUTO 34010KT 10SM CLR 32/04 A3020 RMK A01,M
RTS,2021-08-13 17:35,-119.8764,39.6682,1539.00,84.20,39.20,20.29,130.00,5.00,0.00,30.28,M,10.00,M,CLR,M,M,M,M,M,M,M,M,M,M,M,M,M,M,81.44,KRTS 131735Z AUTO 13005KT 10SM CLR 29/04 A3028 RMK AO2,M
BAM,2021-08-13 17:35,-116.8743,40.5990,1382.36,89.60,32.00,12.84,280.00,4.00,0.00,30.22,M,10.00,M,CLR,M,M,M,M,M,M,M,M,M,M,M,M,M,M,85.54,KBAM 131735Z AUTO 28004KT 10SM CLR 32/00 A3022 RMK AO1,M
CXP,2021-08-13 17:50,-119.7326,39.1923,1431.00,86.00,39.20,19.15,0.00,0.00,0.00,30.25,M,10.00,M,CLR,M,M,M,M,M,M,M,M,M,M,M,M,M,M,82.79,KCXP 131750Z AUTO 00000KT 10SM CLR 30/04 A3025 RMK AO2,M
ELY,2021-08-13 17:53,-114.8453,39.2950,1909.00,87.00,37.00,16.97,M,3.00,0.00,30.31,1015.50,10.00,M,CLR,M,M,M,M,M,M,M,M,M,M,M,M,M,M,83.59,KELY 131753Z AUTO VRB03KT 10SM CLR 31/03 A3031 RMK AO2 SLP155 T03060028 10306 20106 56005,M
P68,2021-08-13 17:53,-116.0056,39.6014,1993.00,86.00,39.00,19.01,30.00,7.00,0.00,30.29,1016.20,M,M,M,M,M,M,M,M,M,M,M,M,M,M,M,M,M,82.78,KP68 131753Z AUTO 03007KT 30/04 A3029 RMK AO1 SLP162 T03000039 10300 20150 58004,M
DRA,2021-08-13 17:53,-116.0278,36.6206,1009.00,88.00,46.00,23.34,210.00,5.00,0.00,30.11,1014.10,10.00,M,CLR,M,M,M,M,M,M,M,M,M,M,M,M,M,M,84.81,KDRA 131753Z AUTO 21005KT 10SM CLR 31/08 A3011 RMK AO2 SLP141 T03110078 10311 20250 51006,M
LOL,2021-08-13 17:53,-118.5701,40.0684,1192.43,94.00,43.00,17.31,0.00,0.00,0.00,30.15,1015.40,10.00,M,CLR,M,M,M,M,M,M,M,M,M,M,M,M,M,M,89.84,KLOL 131753Z AUTO 00000KT 10SM CLR 34/06 A3015 RMK AO2 SLP154 60000 T03440061 10350 20267 50002,M
VGT,2021-08-13 17:53,-115.1933,36.2111,667.00,94.00,62.00,34.95,M,M,0.00,30.03,1015.40,10.00,M,CLR,M,M,M,M,M,M,M,M,M,M,M,M,M,M,94.72,KVGT 131753Z 10SM CLR 34/17 A3003 RMK AO2 SLP154 T03440167 10344 20300 50000 $,M
BVU,2021-08-13 17:55,-114.8611,35.9475,671.00,89.60,62.60,40.69,140.00,6.00,0.00,30.05,M,10.00,M,CLR,M,M,M,M,M,M,M,M,M,M,M,M,M,M,90.32,KBVU 131755Z AUTO 14006KT 10SM CLR 32/17 A3005 RMK AO2,M
HTH,2021-08-13 17:55,-118.6315,38.5448,1282.89,89.60,39.20,17.09,320.00,11.00,0.00,30.20,M,10.00,M,CLR,M,M,M,M,M,M,M,M,M,M,M,M,M,M,85.73,KHTH 131755Z AUTO 32011KT 10SM CLR 32/04 A3020 RMK A01,M
BAM,2021-08-13 17:55,-116.8743,40.5990,1382.36,89.60,32.00,12.84,350.00,5.00,0.00,30.21,M,10.00,M,CLR,M,M,M,M,M,M,M,M,M,M,M,M,M,M,85.54,KBAM 131755Z AUTO 35005KT 10SM CLR 32/00 A3021 RMK AO1,M
TMT,2021-08-13 17:55,-117.1971,39.4643,1749.34,84.40,40.80,21.46,0.00,0.00,0.00,30.32,M,10.00,M,CLR,M,M,M,M,M,M,M,M,M,M,M,M,M,M,81.65,KTMT 131755Z AUTO 00000KT 10SM CLR 29/05 A3032 RMK AO2 T02910049 10293 20088,M
RNO,2021-08-13 17:55,-119.7711,39.4839,1341.00,87.00,43.00,21.42,0.00,0.00,0.00,30.22,1016.30,10.00,M,FEW,M,M,M,12000.00,M,M,M,M,M,M,M,M,M,M,83.84,KRNO 131755Z 00000KT 10SM FEW120 31/06 A3022 RMK AO2 SLP163 HZ ALQDS T03060061 10311 20217 58005,M
MEV,2021-08-13 17:55,-119.7500,38.9963,1441.42,84.20,42.80,23.33,0.00,0.00,0.00,30.25,M,8.00,M,CLR,M,M,M,M,M,M,M,M,M,M,M,M,M,M,81.61,KMEV 131755Z AUTO 00000KT 8SM CLR 29/06 A3025 RMK AO2,M
RTS,2021-08-13 17:55,-119.8764,39.6682,1539.00,86.00,39.20,19.15,0.00,0.00,0.00,30.28,M,10.00,M,CLR,M,M,M,M,M,M,M,M,M,M,M,M,M,M,82.79,KRTS 131755Z AUTO 00000KT 10SM CLR 30/04 A3028 RMK AO2,M
EKO,2021-08-13 17:56,-115.7860,40.8242,1367.00,89.00,39.00,17.22,0.00,0.00,0.00,30.24,1016.70,10.00,M,CLR,M,M,M,M,M,M,M,M,M,M,M,M,M,M,85.30,KEKO 131756Z AUTO 00000KT 10SM CLR 32/04 A3024 RMK AO2 SLP167 T03170039 10317 20128 58004,M
WMC,2021-08-13 17:56,-117.8072,40.9019,1315.00,92.00,37.00,14.58,10.00,4.00,0.00,30.19,1016.20,10.00,M,CLR,M,M,M,M,M,M,M,M,M,M,M,M,M,M,87.65,KWMC 131756Z AUTO 01004KT 10SM CLR 33/03 A3019 RMK AO2 SLP162 T03330028 10339 20161 58004,M
LAS,2021-08-13 17:56,-115.1634,36.0719,663.00,92.00,60.00,34.65,250.00,3.00,0.00,30.04,1014.20,10.00,M,SCT,BKN,M,M,15000.00,20000.00,M,M,M,M,M,M,M,M,M,91.63,KLAS 131756Z 25003KT 10SM SCT150 BKN200 33/16 A3004 RMK AO2 SLP142 T03330156 10344 20283 50003,M
NFL,2021-08-13 17:56,-118.7010,39.4166,1199.00,92.00,42.00,17.79,270.00,7.00,0.00,30.17,1018.00,10.00,M,BKN,M,M,M,12000.00,M,M,M,M,M,M,M,M,M,M,87.92,KNFL 131756Z 27007KT 10SM BKN120 33/06 A3017 RMK AO2 SLP180 T03330056 10333 20250 50001,M
HND,2021-08-13 17:56,-115.1344,35.9729,742.79,95.00,59.00,30.26,270.00,5.00,0.00,30.07,1016.50,10.00,M,CLR,M,M,M,M,M,M,M,M,M,M,M,M,M,M,94.51,KHND 131756Z 27005KT 10SM CLR 35/15 A3007 RMK AO2 SLP165 T03500150 10350 20283 50003,M
TPH,2021-08-13 17:56,-117.0904,38.0505,1654.00,86.00,37.00,17.57,0.00,0.00,0.00,30.28,1015.80,10.00,M,CLR,M,M,M,M,M,M,M,M,M,M,M,M,M,M,82.72,KTPH 131756Z AUTO 00000KT 10SM CLR 30/03 A3028 RMK AO2 SLP158 T03000028 10306 20167 50000,M
LSV,2021-08-13 17:58,-115.0343,36.2362,570.00,91.80,62.40,37.71,0.00,0.00,0.00,30.02,1013.90,10.00,M,FEW,FEW,SCT,M,17000.00,19000.00,21000.00,M,M,M,M,M,M,M,M,92.56,KLSV 131758Z AUTO 00000KT 10SM FEW170 FEW190 SCT210 33/17 A3002 RMK AO2 SLP139 T03320169 10333 20292 51002 $,M
INS,2021-08-13 17:58,-115.6733,36.5872,955.00,92.00,54.30,27.94,80.00,10.00,0.00,30.09,1013.20,10.00,M,FEW,SCT,BKN,M,15000.00,17000.00,20000.00,M,M,M,M,M,M,M,M,89.94,KINS 131758Z AUTO 08010KT 10SM FEW150 SCT170 BKN200 33/12 A3009 RMK AO2 SLP132 T03340124 10334 20275 51004 $,M
CXP,2021-08-13 18:10,-119.7326,39.1923,1431.00,87.80,39.20,18.09,0.00,0.00,0.00,30.25,M,10.00,M,CLR,M,M,M,M,M,M,M,M,M,M,M,M,M,M,84.22,KCXP 131810Z AUTO 00000KT 10SM CLR 31/04 A3025 RMK AO2,M
BAM,2021-08-13 18:15,-116.8743,40.5990,1382.36,91.40,32.00,12.14,20.00,4.00,0.00,30.21,M,10.00,M,CLR,M,M,M,M,M,M,M,M,M,M,M,M,M,M,86.91,KBAM 131815Z AUTO 02004KT 10SM CLR 33/00 A3021 RMK AO1,M
BVU,2021-08-13 18:15,-114.8611,35.9475,671.00,91.40,62.60,38.45,100.00,8.00,0.00,30.05,M,10.00,M,CLR,M,M,M,M,M,M,M,M,M,M,M,M,M,M,92.23,KBVU 131815Z AUTO 10008KT 10SM CLR 33/17 A3005 RMK AO2,M
RTS,2021-08-13 18:15,-119.8764,39.6682,1539.00,87.80,39.20,18.09,0.00,0.00,0.00,30.28,M,10.00,M,CLR,M,M,M,M,M,M,M,M,M,M,M,M,M,M,84.22,KRTS 131815Z AUTO 00000KT 10SM CLR 31/04 A3028 RMK AO2,M
MEV,2021-08-13 18:15,-119.7500,38.9963,1441.42,87.80,42.80,20.79,0.00,0.00,0.00,30.24,M,7.00,M,CLR,M,M,M,M,M,M,M,M,M,M,M,M,M,M,84.40,KMEV 131815Z AUTO 00000KT 7SM CLR 31/06 A3024 RMK AO2,M
HTH,2021-08-13 18:15,-118.6315,38.5448,1282.89,91.40,39.20,16.15,330.00,10.00,0.00,30.20,M,10.00,18.00,CLR,M,M,M,M,M,M,M,M,M,M,M,M,M,M,87.30,KHTH 131815Z AUTO 33010G18KT 10SM CLR 33/04 A3020 RMK A01,M
TMT,2021-08-13 18:15,-117.1971,39.4643,1749.34,85.50,39.70,19.85,0.00,0.00,0.00,30.31,M,10.00,M,CLR,M,M,M,M,M,M,M,M,M,M,M,M,M,M,82.42,KTMT 131815Z AUTO 00000KT 10SM CLR 30/04 A3031 RMK AO2 T02970043,M
CXP,2021-08-13 18:30,-119.7326,39.1923,1431.00,89.60,37.40,15.92,0.00,0.00,0.00,30.25,M,10.00,M,CLR,M,M,M,M,M,M,M,M,M,M,M,M,M,M,85.67,KCXP 131830Z AUTO 00000KT 10SM CLR 32/03 A3025 RMK AO2,M
RTS,2021-08-13 18:35,-119.8764,39.6682,1539.00,87.80,39.20,18.09,80.00,7.00,0.00,30.28,M,10.00,M,CLR,M,M,M,M,M,M,M,M,M,M,M,M,M,M,84.22,KRTS 131835Z AUTO 08007KT 040V120 10SM CLR 31/04 A3028 RMK AO2,M
TMT,2021-08-13 18:35,-117.1971,39.4643,1749.34,86.40,40.00,19.43,0.00,0.00,0.00,30.31,M,10.00,M,CLR,M,M,M,M,M,M,M,M,M,M,M,M,M,M,83.12,KTMT 131835Z AUTO 00000KT 10SM CLR 30/04 A3031 RMK AO2 T03020044,M
BVU,2021-08-13 18:35,-114.8611,35.9475,671.00,91.40,62.60,38.45,100.00,7.00,0.00,30.04,M,10.00,M,CLR,M,M,M,M,M,M,M,M,M,M,M,M,M,M,92.23,KBVU 131835Z AUTO 10007KT 10SM CLR 33/17 A3004 RMK AO2,M
HTH,2021-08-13 18:35,-118.6315,38.5448,1282.89,91.40,39.20,16.15,320.00,12.00,0.00,30.19,M,10.00,M,CLR,M,M,M,M,M,M,M,M,M,M,M,M,M,M,87.30,KHTH 131835Z AUTO 32012KT 10SM CLR 33/04 A3019 RMK A01,M
BAM,2021-08-13 18:35,-116.8743,40.5990,1382.36,91.40,33.80,13.05,0.00,0.00,0.00,30.21,M,10.00,M,CLR,M,M,M,M,M,M,M,M,M,M,M,M,M,M,87.13,KBAM 131835Z AUTO 00000KT 10SM CLR 33/01 A3021 RMK AO1,M
MEV,2021-08-13 18:35,-119.7500,38.9963,1441.42,89.60,41.00,18.33,270.00,4.00,0.00,30.24,M,9.00,M,CLR,M,M,M,M,M,M,M,M,M,M,M,M,M,M,85.82,KMEV 131835Z AUTO 27004KT 9SM CLR 32/05 A3024 RMK AO2,M
CXP,2021-08-13 18:50,-119.7326,39.1923,1431.00,91.40,37.40,15.05,0.00,0.00,0.00,30.24,M,10.00,M,CLR,M,M,M,M,M,M,M,M,M,M,M,M,M,M,87.23,KCXP 131850Z AUTO 00000KT 10SM CLR 33/03 A3024 RMK AO2,M
ELY,2021-08-13 18:53,-114.8453,39.2950,1909.00,89.00,33.00,13.64,M,3.00,0.00,30.30,1014.90,10.00,M,CLR,M,M,M,M,M,M,M,M,M,M,M,M,M,M,85.16,KELY 131853Z AUTO VRB03KT 10SM CLR 32/01 A3030 RMK AO2 SLP149 T03170006,M
DRA,2021-08-13 18:53,-116.0278,36.6206,1009.00,92.00,51.00,24.99,240.00,5.00,0.00,30.10,1013.60,10.00,M,CLR,M,M,M,M,M,M,M,M,M,M,M,M,M,M,89.04,KDRA 131853Z AUTO 24005KT 10SM CLR 33/11 A3010 RMK AO2 SLP136 T03330106,M
VGT,2021-08-13 18:53,-115.1933,36.2111,667.00,95.00,60.00,31.47,140.00,6.00,0.00,30.02,1015.10,10.00,M,CLR,M,M,M,M,M,M,M,M,M,M,M,M,M,M,94.98,KVGT 131853Z 14006KT 10SM CLR 35/16 A3002 RMK AO2 SLP151 T03500156,M
LOL,2021-08-13 18:53,-118.5701,40.0684,1192.43,96.00,41.00,14.97,M,4.00,0.00,30.15,1015.30,10.00,M,CLR,M,M,M,M,M,M,M,M,M,M,M,M,M,M,91.73,KLOL 131853Z AUTO VRB04KT 10SM CLR 36/05 A3015 RMK AO2 SLP153 T03560050,M
P68,2021-08-13 18:53,-116.0056,39.6014,1993.00,87.00,38.00,17.58,M,3.00,0.00,30.28,1015.60,M,M,M,M,M,M,M,M,M,M,M,M,M,M,M,M,M,83.61,KP68 131853Z AUTO VRB03KT 31/03 A3028 RMK AO1 SLP156 T03060033,M
RTS,2021-08-13 18:55,-119.8764,39.6682,1539.00,89.60,37.40,15.92,90.00,8.00,0.00,30.27,M,10.00,M,CLR,M,M,M,M,M,M,M,M,M,M,M,M,M,M,85.67,KRTS 131855Z AUTO 09008KT 10SM CLR 32/03 A3027 RMK AO2,M
BVU,2021-08-13 18:55,-114.8611,35.9475,671.00,93.20,62.60,36.35,100.00,7.00,0.00,30.04,M,10.00,M,CLR,M,M,M,M,M,M,M,M,M,M,M,M,M,M,94.20,KBVU 131855Z AUTO 10007KT 060V120 10SM CLR 34/17 A3004 RMK AO2,M
TMT,2021-08-13 18:55,-117.1971,39.4643,1749.34,89.00,41.70,19.13,70.00,5.00,0.00,30.30,M,10.00,M,CLR,M,M,M,M,M,M,M,M,M,M,M,M,M,M,85.43,KTMT 131855Z AUTO 07005KT 10SM CLR 32/05 A3030 RMK AO2 T03170054,M
BAM,2021-08-13 18:55,-116.8743,40.5990,1382.36,95.00,33.80,11.67,30.00,6.00,0.00,30.21,M,10.00,M,CLR,M,M,M,M,M,M,M,M,M,M,M,M,M,M,89.97,KBAM 131855Z AUTO 03006KT 10SM CLR 35/01 A3021 RMK AO1,M
MEV,2021-08-13 18:55,-119.7500,38.9963,1441.42,91.40,41.00,17.32,M,4.00,0.00,30.23,M,9.00,M,CLR,M,M,M,M,M,M,M,M,M,M,M,M,M,M,87.40,KMEV 131855Z AUTO VRB04KT 9SM CLR 33/05 A3023 RMK AO2,M
HTH,2021-08-13 18:55,-118.6315,38.5448,1282.89,93.20,39.20,15.27,320.00,12.00,0.00,30.19,M,10.00,M,CLR,M,M,M,M,M,M,M,M,M,M,M,M,M,M,88.92,KHTH 131855Z AUTO 32012KT 10SM CLR 34/04 A3019 RMK A01,M
RNO,2021-08-13 18:55,-119.7711,39.4839,1341.00,91.00,42.00,18.30,0.00,0.00,0.00,30.21,1016.00,10.00,M,FEW,M,M,M,12000.00,M,M,M,M,M,M,M,M,M,M,87.11,KRNO 131855Z 00000KT 10SM FEW120 33/06 A3021 RMK AO2 SLP160 HZ ALQDS T03280056,M
TPH,2021-08-13 18:56,-117.0904,38.0505,1654.00,91.00,36.00,14.42,40.00,4.00,0.00,30.26,1014.80,10.00,M,CLR,M,M,M,M,M,M,M,M,M,M,M,M,M,M,86.83,KTPH 131856Z AUTO 04004KT 10SM CLR 33/02 A3026 RMK AO2 SLP148 T03280022,M
NFL,2021-08-13 18:56,-118.7010,39.4166,1199.00,94.00,41.00,16.02,M,4.00,0.00,30.16,1017.90,10.00,M,CLR,M,M,M,M,M,M,M,M,M,M,M,M,M,M,89.68,KNFL 131856Z VRB04KT 10SM CLR 34/05 A3016 RMK AO2 SLP179 T03440050,M
LAS,2021-08-13 18:56,-115.1634,36.0719,663.00,97.00,59.00,28.46,M,6.00,0.00,30.03,1013.80,10.00,M,FEW,BKN,M,M,15000.00,20000.00,M,M,M,M,M,M,M,M,M,96.72,KLAS 131856Z VRB06KT 10SM FEW150 BKN200 36/15 A3003 RMK AO2 SLP138 T03610150,M
WMC,2021-08-13 18:56,-117.8072,40.9019,1315.00,96.00,38.00,13.27,10.00,9.00,0.00,30.18,1015.30,10.00,M,CLR,M,M,M,M,M,M,M,M,M,M,M,M,M,M,91.49,KWMC 131856Z AUTO 01009KT 10SM CLR 36/03 A3018 RMK AO2 SLP153 T03560033 $,M
EKO,2021-08-13 18:56,-115.7860,40.8242,1367.00,92.00,41.00,17.05,M,4.00,0.00,30.22,1015.90,10.00,M,CLR,M,M,M,M,M,M,M,M,M,M,M,M,M,M,87.85,KEKO 131856Z AUTO VRB04KT 10SM CLR 33/05 A3022 RMK AO2 SLP159 T03330050,M
HND,2021-08-13 18:56,-115.1344,35.9729,742.79,98.00,61.00,29.55,20.00,7.00,0.00,30.06,1016.00,10.00,M,CLR,M,M,M,M,M,M,M,M,M,M,M,M,M,M,98.92,KHND 131856Z 02007KT 10SM CLR 37/16 A3006 RMK AO2 SLP160 T03670161,M
INS,2021-08-13 18:58,-115.6733,36.5872,955.00,93.00,53.00,26.00,80.00,8.00,0.00,30.08,1012.90,10.00,M,FEW,FEW,SCT,BKN,12000.00,14000.00,17000.00,20000.00,M,M,M,M,M,M,M,90.54,KINS 131858Z AUTO 08008KT 10SM FEW120 FEW140 SCT170 BKN200 34/12 A3008 RMK AO2 SLP129 T03390117 $,M
LSV,2021-08-13 18:58,-115.0343,36.2362,570.00,94.00,62.20,34.86,110.00,7.00,0.00,30.01,1013.40,10.00,M,FEW,FEW,SCT,M,15000.00,19000.00,21000.00,M,M,M,M,M,M,M,M,94.99,KLSV 131858Z AUTO 11007KT 10SM FEW150 FEW190 SCT210 35/17 A3001 RMK AO2 SLP134 T03450168 $,M
CXP,2021-08-13 19:10,-119.7326,39.1923,1431.00,93.20,37.40,14.23,140.00,3.00,0.00,30.24,M,10.00,M,CLR,M,M,M,M,M,M,M,M,M,M,M,M,M,M,88.83,KCXP 131910Z AUTO 14003KT 10SM CLR 34/03 A3024 RMK AO2,M
HTH,2021-08-13 19:15,-118.6315,38.5448,1282.89,93.20,39.20,15.27,320.00,13.00,0.00,30.18,M,10.00,M,CLR,M,M,M,M,M,M,M,M,M,M,M,M,M,M,88.92,KHTH 131915Z AUTO 32013KT 10SM CLR 34/04 A3018 RMK A01,M
BVU,2021-08-13 19:15,-114.8611,35.9475,671.00,93.20,62.60,36.35,90.00,9.00,0.00,30.04,M,10.00,M,CLR,M,M,M,M,M,M,M,M,M,M,M,M,M,M,94.20,KBVU 131915Z AUTO 09009KT 070V130 10SM CLR 34/17 A3004 RMK AO2,M
RTS,2021-08-13 19:15,-119.8764,39.6682,1539.00,89.60,37.40,15.92,M,3.00,0.00,30.27,M,10.00,M,CLR,M,M,M,M,M,M,M,M,M,M,M,M,M,M,85.67,KRTS 131915Z AUTO VRB03KT 10SM CLR 32/03 A3027 RMK AO2,M
TMT,2021-08-13 19:15,-117.1971,39.4643,1749.34,89.00,40.30,18.12,310.00,7.00,0.00,30.29,M,10.00,M,CLR,M,M,M,M,M,M,M,M,M,M,M,M,M,M,85.35,KTMT 131915Z AUTO 31007KT 10SM CLR 32/05 A3029 RMK AO2 T03170046,M
BAM,2021-08-13 19:15,-116.8743,40.5990,1382.36,95.00,35.60,12.53,320.00,5.00,0.00,30.20,M,10.00,M,CLR,M,M,M,M,M,M,M,M,M,M,M,M,M,M,90.25,KBAM 131915Z AUTO 32005KT 10SM CLR 35/02 A3020 RMK AO1,M
MEV,2021-08-13 19:15,-119.7500,38.9963,1441.42,91.40,39.20,16.15,M,5.00,0.00,30.22,M,10.00,M,CLR,M,M,M,M,M,M,M,M,M,M,M,M,M,M,87.30,KMEV 131915Z AUTO VRB05KT 10SM CLR 33/04 A3022 RMK AO2,M
CXP,2021-08-13 19:30,-119.7326,39.1923,1431.00,95.00,37.40,13.46,50.00,5.00,0.00,30.23,M,10.00,M,CLR,M,M,M,M,M,M,M,M,M,M,M,M,M,M,90.46,KCXP 131930Z AUTO 05005KT 10SM CLR 35/03 A3023 RMK AO2,M
RTS,2021-08-13 19:35,-119.8764,39.6682,1539.00,89.60,37.40,15.92,0.00,0.00,0.00,30.26,M,10.00,M,CLR,M,M,M,M,M,M,M,M,M,M,M,M,M,M,85.67,KRTS 131935Z AUTO 00000KT 10SM CLR 32/03 A3026 RMK AO2,M
BVU,2021-08-13 19:35,-114.8611,35.9475,671.00,95.00,60.80,32.27,130.00,5.00,0.00,30.04,M,10.00,M,CLR,M,M,M,M,M,M,M,M,M,M,M,M,M,M,95.30,KBVU 131935Z AUTO 13005KT 10SM CLR 35/16 A3004 RMK AO2,M
HTH,2021-08-13 19:35,-118.6315,38.5448,1282.89,95.00,37.40,13.46,330.00,11.00,0.00,30.17,M,10.00,M,CLR,M,M,M,M,M,M,M,M,M,M,M,M,M,M,90.46,KHTH 131935Z AUTO 33011KT 10SM CLR 35/03 A3017 RMK A01,M
BAM,2021-08-13 19:35,-116.8743,40.5990,1382.36,96.80,35.60,11.86,340.00,8.00,0.00,30.19,M,10.00,M,CLR,M,M,M,M,M,M,M,M,M,M,M,M,M,M,91.72,KBAM 131935Z AUTO 34008KT 320V030 10SM CLR 36/02 A3019 RMK AO1,M
TMT,2021-08-13 19:35,-117.1971,39.4643,1749.34,88.50,39.00,17.55,160.00,3.00,0.00,30.29,M,10.00,M,CLR,M,M,M,M,M,M,M,M,M,M,M,M,M,M,84.79,KTMT 131935Z AUTO 16003KT 10SM CLR 31/04 A3029 RMK AO2 T03140039,M
MEV,2021-08-13 19:35,-119.7500,38.9963,1441.42,91.40,39.20,16.15,M,3.00,0.00,30.22,M,10.00,M,CLR,M,M,M,M,M,M,M,M,M,M,M,M,M,M,87.30,KMEV 131935Z AUTO VRB03KT 10SM CLR 33/04 A3022 RMK AO2,M
CXP,2021-08-13 19:50,-119.7326,39.1923,1431.00,93.20,37.40,14.23,0.00,0.00,0.00,30.22,M,8.00,M,CLR,M,M,M,M,M,M,M,M,M,M,M,M,M,M,88.83,KCXP 131950Z AUTO 00000KT 8SM CLR 34/03 A3022 RMK AO2,M
LOL,2021-08-13 19:53,-118.5701,40.0684,1192.43,98.00,41.00,14.08,320.00,5.00,0.00,30.13,1014.80,10.00,M,CLR,M,M,M,M,M,M,M,M,M,M,M,M,M,M,93.62,KLOL 131953Z AUTO 32005KT 10SM CLR 37/05 A3013 RMK AO2 SLP148 T03670050,M
DRA,2021-08-13 19:53,-116.0278,36.6206,1009.00,98.00,47.00,17.65,0.00,0.00,0.00,30.09,1013.10,10.00,M,CLR,M,M,M,M,M,M,M,M,M,M,M,M,M,M,94.43,KDRA 131953Z AUTO 00000KT 10SM CLR 37/08 A3009 RMK AO2 SLP131 T03670083,M
ELY,2021-08-13 19:53,-114.8453,39.2950,1909.00,89.00,32.00,13.05,0.00,0.00,0.00,30.30,1015.00,10.00,M,CLR,M,M,M,M,M,M,M,M,M,M,M,M,M,M,85.15,KELY 131953Z AUTO 00000KT 10SM CLR 32/00 A3030 RMK AO2 SLP150 T03170000,M
VGT,2021-08-13 19:53,-115.1933,36.2111,667.00,99.00,61.00,28.75,M,5.00,0.00,30.01,1014.80,10.00,M,CLR,M,M,M,M,M,M,M,M,M,M,M,M,M,M,99.96,KVGT 131953Z VRB05KT 10SM CLR 37/16 A3001 RMK AO2 SLP148 T03720161,M
P68,2021-08-13 19:53,-116.0056,39.6014,1993.00,88.00,37.00,16.49,140.00,5.00,0.00,30.27,1015.10,M,M,M,M,M,M,M,M,M,M,M,M,M,M,M,M,M,84.32,KP68 131953Z AUTO 14005KT 31/03 A3027 RMK AO1 SLP151 T03110028,M
HTH,2021-08-13 19:55,-118.6315,38.5448,1282.89,95.00,37.40,13.46,350.00,8.00,0.00,30.17,M,10.00,M,CLR,M,M,M,M,M,M,M,M,M,M,M,M,M,M,90.46,KHTH 131955Z AUTO 35008KT 310V020 10SM CLR 35/03 A3017 RMK A01,M
BAM,2021-08-13 19:55,-116.8743,40.5990,1382.36,95.00,35.60,12.53,150.00,3.00,0.00,30.19,M,10.00,M,CLR,M,M,M,M,M,M,M,M,M,M,M,M,M,M,90.25,KBAM 131955Z AUTO 15003KT 10SM CLR 35/02 A3019 RMK AO1,M
TMT,2021-08-13 19:55,-117.1971,39.4643,1749.34,89.60,39.00,16.95,180.00,3.00,0.00,30.28,M,10.00,M,CLR,M,M,M,M,M,M,M,M,M,M,M,M,M,M,85.72,KTMT 131955Z AUTO 18003KT 10SM CLR 32/04 A3028 RMK AO2 T03200039,M
MEV,2021-08-13 19:55,-119.7500,38.9963,1441.42,93.20,39.20,15.27,0.00,0.00,0.00,30.21,M,10.00,M,CLR,M,M,M,M,M,M,M,M,M,M,M,M,M,M,88.92,KMEV 131955Z AUTO 00000KT 10SM CLR 34/04 A3021 RMK AO2,M
RTS,2021-08-13 19:55,-119.8764,39.6682,1539.00,89.60,37.40,15.92,M,5.00,0.00,30.26,M,10.00,M,CLR,M,M,M,M,M,M,M,M,M,M,M,M,M,M,85.67,KRTS 131955Z AUTO VRB05KT 10SM CLR 32/03 A3026 RMK AO2,M
RNO,2021-08-13 19:55,-119.7711,39.4839,1341.00,94.00,41.00,16.02,0.00,0.00,0.00,30.19,1015.20,10.00,M,FEW,M,M,M,12000.00,M,M,M,M,M,M,M,M,M,M,89.68,KRNO 131955Z 00000KT 10SM FEW120 34/05 A3019 RMK AO2 SLP152 HZ ALQDS T03440050,M
BVU,2021-08-13 19:55,-114.8611,35.9475,671.00,95.00,60.80,32.27,80.00,7.00,0.00,30.03,M,10.00,14.00,CLR,M,M,M,M,M,M,M,M,M,M,M,M,M,M,95.30,KBVU 131955Z AUTO 08007G14KT 10SM CLR 35/16 A3003 RMK AO2,M
TPH,2021-08-13 19:56,-117.0904,38.0505,1654.00,93.00,35.00,13.07,300.00,4.00,0.00,30.24,1014.50,10.00,M,CLR,M,M,M,M,M,M,M,M,M,M,M,M,M,M,88.56,KTPH 131956Z AUTO 30004KT 10SM CLR 34/02 A3024 RMK AO2 SLP145 T03390017,M
HND,2021-08-13 19:56,-115.1344,35.9729,742.79,98.00,65.00,33.90,50.00,9.00,0.00,30.05,1015.70,10.00,M,CLR,M,M,M,M,M,M,M,M,M,M,M,M,M,M,101.24,KHND 131956Z 05009KT 10SM CLR 37/18 A3005 RMK AO2 SLP157 T03670183,M
WMC,2021-08-13 19:56,-117.8072,40.9019,1315.00,98.00,37.00,12.05,50.00,7.00,0.00,30.16,1014.90,10.00,M,CLR,M,M,M,M,M,M,M,M,M,M,M,M,M,M,93.05,KWMC 131956Z AUTO 05007KT 350V070 10SM CLR 37/03 A3016 RMK AO2 SLP149 T03670028 $,M
LAS,2021-08-13 19:56,-115.1634,36.0719,663.00,97.00,62.00,31.77,70.00,7.00,0.00,30.02,1013.50,10.00,17.00,FEW,SCT,BKN,M,12000.00,15000.00,20000.00,M,M,M,M,M,M,M,M,98.24,KLAS 131956Z 07007G17KT 10SM FEW120 SCT150 BKN200 36/17 A3002 RMK AO2 SLP135 CB DSNT N T03610167,M
NFL,2021-08-13 19:56,-118.7010,39.4166,1199.00,96.00,40.00,14.35,M,4.00,0.00,30.15,1017.30,10.00,M,FEW,SCT,M,M,7000.00,15000.00,M,M,M,M,M,M,M,M,M,91.64,KNFL 131956Z VRB04KT 10SM FEW070 SCT150 36/04 A3015 RMK AO2 SLP173 T03560044,M
EKO,2021-08-13 19:56,-115.7860,40.8242,1367.00,94.00,40.00,15.35,250.00,4.00,0.00,30.21,1016.20,10.00,M,CLR,M,M,M,M,M,M,M,M,M,M,M,M,M,M,89.60,KEKO 131956Z AUTO 25004KT 10SM CLR 34/04 A3021 RMK AO2 SLP162 T03440044,M
INS,2021-08-13 19:58,-115.6733,36.5872,955.00,96.00,51.00,21.95,90.00,7.00,0.00,30.07,1012.50,10.00,M,FEW,FEW,SCT,M,15000.00,18000.00,20000.00,M,M,M,M,M,M,M,M,93.23,KINS 131958Z AUTO 09007KT 10SM FEW150 FEW180 SCT200 36/11 A3007 RMK AO2 SLP125 T03560106 $,M
LSV,2021-08-13 19:58,-115.0343,36.2362,570.00,96.60,62.00,31.94,170.00,5.00,0.00,30.00,1013.10,10.00,M,FEW,BKN,BKN,M,13000.00,16000.00,18000.00,M,M,M,M,M,M,M,M,97.67,KLSV 131958Z AUTO 17005KT 10SM FEW130 BKN160 BKN180 36/17 A3000 RMK AO2 SLP131 T03590166 $,M
CXP,2021-08-13 20:10,-119.7326,39.1923,1431.00,96.80,35.60,11.86,M,6.00,0.00,30.21,M,10.00,M,CLR,M,M,M,M,M,M,M,M,M,M,M,M,M,M,91.72,KCXP 132010Z AUTO VRB06KT 10SM CLR 36/02 A3021 RMK AO2,M
BVU,2021-08-13 20:15,-114.8611,35.9475,671.00,95.00,60.80,32.27,110.00,9.00,0.00,30.02,M,10.00,M,CLR,M,M,M,M,M,M,M,M,M,M,M,M,M,M,95.30,KBVU 132015Z AUTO 11009KT 10SM CLR 35/16 A3002 RMK AO2,M
HTH,2021-08-13 20:15,-118.6315,38.5448,1282.89,95.00,35.60,12.53,M,4.00,0.00,30.16,M,10.00,14.00,CLR,M,M,M,M,M,M,M,M,M,M,M,M,M,M,90.25,KHTH 132015Z AUTO VRB04G14KT 10SM CLR 35/02 A3016 RMK A01,M
BAM,2021-08-13 20:15,-116.8743,40.5990,1382.36,96.80,35.60,11.86,360.00,6.00,0.00,30.18,M,10.00,M,CLR,M,M,M,M,M,M,M,M,M,M,M,M,M,M,91.72,KBAM 132015Z AUTO 36006KT 10SM CLR 36/02 A3018 RMK AO1,M
TMT,2021-08-13 20:15,-117.1971,39.4643,1749.34,91.20,38.70,15.94,310.00,3.00,0.00,30.28,M,10.00,M,CLR,M,M,M,M,M,M,M,M,M,M,M,M,M,M,87.10,KTMT 132015Z AUTO 31003KT 10SM CLR 33/04 A3028 RMK AO2 T03290037,M
MEV,2021-08-13 20:15,-119.7500,38.9963,1441.42,95.00,39.20,14.44,M,6.00,0.00,30.20,M,10.00,M,CLR,M,M,M,M,M,M,M,M,M,M,M,M,M,M,90.57,KMEV 132015Z AUTO VRB06KT 10SM CLR 35/04 A3020 RMK AO2,M
RTS,2021-08-13 20:15,-119.8764,39.6682,1539.00,91.40,37.40,15.05,0.00,0.00,0.00,30.25,M,10.00,12.00,CLR,M,M,M,M,M,M,M,M,M,M,M,M,M,M,87.23,KRTS 132015Z AUTO 00000G12KT 10SM CLR 33/03 A3025 RMK AO2,M
CXP,2021-08-13 20:30,-119.7326,39.1923,1431.00,96.80,35.60,11.86,M,4.00,0.00,30.20,M,10.00,10.00,CLR,M,M,M,M,M,M,M,M,M,M,M,M,M,M,91.72,KCXP 132030Z AUTO VRB04G10KT 10SM CLR 36/02 A3020 RMK AO2,M
LAS,2021-08-13 20:34,-115.1634,36.0719,663.00,98.00,62.00,30.72,90.00,8.00,0.00,30.02,M,10.00,18.00,FEW,SCT,BKN,M,12000.00,15000.00,20000.00,M,M,M,M,M,M,M,M,99.51,KLAS 132034Z 09008G18KT 10SM FEW120 SCT150 BKN200 37/17 A3002 RMK AO2 CB DSNT N T03670167,M
BAM,2021-08-13 20:35,-116.8743,40.5990,1382.36,96.80,33.80,11.04,0.00,0.00,0.00,30.17,M,10.00,M,CLR,M,M,M,M,M,M,M,M,M,M,M,M,M,M,91.44,KBAM 132035Z AUTO 00000KT 10SM CLR 36/01 A3017 RMK AO1,M
HTH,2021-08-13 20:35,-118.6315,38.5448,1282.89,96.80,35.60,11.86,330.00,8.00,0.00,30.15,M,10.00,M,CLR,M,M,M,M,M,M,M,M,M,M,M,M,M,M,91.72,KHTH 132035Z AUTO 33008KT 10SM CLR 36/02 A3015 RMK A01,M
BVU,2021-08-13 20:35,-114.8611,35.9475,671.00,95.00,60.80,32.27,90.00,8.00,0.00,30.02,M,10.00,M,CLR,M,M,M,M,M,M,M,M,M,M,M,M,M,M,95.30,KBVU 132035Z AUTO 09008KT 10SM CLR 35/16 A3002 RMK AO2 LTG DSNT SW,M
TMT,2021-08-13 20:35,-117.1971,39.4643,1749.34,92.80,38.00,14.69,300.00,5.00,0.00,30.28,M,10.00,M,CLR,M,M,M,M,M,M,M,M,M,M,M,M,M,M,88.49,KTMT 132035Z AUTO 30005KT 10SM CLR 34/03 A3028 RMK AO2 T03380033,M
RTS,2021-08-13 20:35,-119.8764,39.6682,1539.00,93.20,35.60,13.25,140.00,7.00,0.00,30.24,M,10.00,M,CLR,M,M,M,M,M,M,M,M,M,M,M,M,M,M,88.76,KRTS 132035Z AUTO 14007KT 10SM CLR 34/02 A3024 RMK AO2,M
MEV,2021-08-13 20:35,-119.7500,38.9963,1441.42,95.00,39.20,14.44,M,4.00,0.00,30.19,M,10.00,M,CLR,M,M,M,M,M,M,M,M,M,M,M,M,M,M,90.57,KMEV 132035Z AUTO VRB04KT 10SM CLR 35/04 A3019 RMK AO2,M
CXP,2021-08-13 20:50,-119.7326,39.1923,1431.00,96.80,33.80,11.04,0.00,0.00,0.00,30.19,M,10.00,M,CLR,M,M,M,M,M,M,M,M,M,M,M,M,M,M,91.44,KCXP 132050Z AUTO 00000KT 10SM CLR 36/01 A3019 RMK AO2,M
VGT,2021-08-13 20:53,-115.1933,36.2111,667.00,100.00,62.00,29.00,140.00,7.00,0.00,30.00,1014.50,10.00,M,CLR,M,M,M,M,M,M,M,M,M,M,M,M,M,M,101.73,KVGT 132053Z 14007KT 10SM CLR 38/17 A3000 RMK AO2 LTG DSNT N SLP145 T03780167 58008,M
ELY,2021-08-13 20:53,-114.8453,39.2950,1909.00,91.00,30.90,11.76,M,4.00,0.00,30.28,1014.20,10.00,M,CLR,M,M,M,M,M,M,M,M,M,M,M,M,M,M,86.48,KELY 132053Z AUTO VRB04KT 10SM CLR 33/M01 A3028 RMK AO2 SLP142 T03281006 58010,M
P68,2021-08-13 20:53,-116.0056,39.6014,1993.00,89.00,35.00,14.77,220.00,7.00,0.00,30.27,1015.40,M,M,M,M,M,M,M,M,M,M,M,M,M,M,M,M,M,85.19,KP68 132053Z AUTO 22007KT 32/02 A3027 RMK AO1 SLP154 T03170017 56008,M
DRA,2021-08-13 20:53,-116.0278,36.6206,1009.00,98.00,44.00,15.87,M,M,0.00,30.08,1012.60,10.00,M,CLR,M,M,M,M,M,M,M,M,M,M,M,M,M,M,93.99,KDRA 132053Z AUTO 10SM CLR 37/07 A3008 RMK AO2 SLP126 T03670067 58011,M
LOL,2021-08-13 20:53,-118.5701,40.0684,1192.43,100.00,41.00,13.30,M,M,0.00,30.11,1014.00,10.00,M,CLR,M,M,M,M,M,M,M,M,M,M,M,M,M,M,95.42,KLOL 132053Z AUTO 10SM CLR 38/05 A3011 RMK AO2 SLP140 T03780050 58011,M
RNO,2021-08-13 20:55,-119.7711,39.4839,1341.00,98.00,40.00,13.50,270.00,15.00,0.00,30.16,1014.20,10.00,22.00,FEW,SCT,M,M,10000.00,16000.00,M,M,M,M,M,M,M,M,M,93.51,KRNO 132055Z 27015G22KT 10SM FEW100 SCT160 37/04 A3016 RMK AO2 LTG DSNT W SLP142 TCU DSNT SE AND W THRU NW HZ ALQDS T03670044 58017,M
BAM,2021-08-13 20:55,-116.8743,40.5990,1382.36,98.60,35.60,11.23,110.00,4.00,0.00,30.17,M,10.00,M,CLR,M,M,M,M,M,M,M,M,M,M,M,M,M,M,93.23,KBAM 132055Z AUTO 11004KT 10SM CLR 37/02 A3017 RMK AO1,M
MEV,2021-08-13 20:55,-119.7500,38.9963,1441.42,95.00,39.20,14.44,M,5.00,0.00,30.19,M,10.00,M,CLR,M,M,M,M,M,M,M,M,M,M,M,M,M,M,90.57,KMEV 132055Z AUTO VRB05KT 10SM CLR 35/04 A3019 RMK AO2,M
RTS,2021-08-13 20:55,-119.8764,39.6682,1539.00,93.20,35.60,13.25,190.00,6.00,0.00,30.24,M,10.00,M,CLR,M,M,M,M,M,M,M,M,M,M,M,M,M,M,88.76,KRTS 132055Z AUTO 19006KT 10SM CLR 34/02 A3024 RMK AO2,M
BVU,2021-08-13 20:55,-114.8611,35.9475,671.00,96.80,62.60,32.54,120.00,14.00,0.00,30.02,M,10.00,M,CLR,M,M,M,M,M,M,M,M,M,M,M,M,M,M,98.28,KBVU 132055Z AUTO 12014KT 10SM CLR 36/17 A3002 RMK AO2,M
TMT,2021-08-13 20:55,-117.1971,39.4643,1749.34,91.80,37.80,15.10,60.00,3.00,0.00,30.27,M,10.00,M,CLR,M,M,M,M,M,M,M,M,M,M,M,M,M,M,87.60,KTMT 132055Z AUTO 06003KT 10SM CLR 33/03 A3027 RMK AO2 LTG DSNT E T03320032,M
HTH,2021-08-13 20:55,-118.6315,38.5448,1282.89,96.80,35.60,11.86,310.00,11.00,0.00,30.15,M,10.00,M,CLR,M,M,M,M,M,M,M,M,M,M,M,M,M,M,91.72,KHTH 132055Z AUTO 31011KT 10SM CLR 36/02 A3015 RMK A01,M
WMC,2021-08-13 20:56,-117.8072,40.9019,1315.00,100.00,36.00,10.93,350.00,8.00,0.00,30.14,1014.20,9.00,M,CLR,M,M,M,M,M,M,M,M,M,M,M,M,M,M,94.48,KWMC 132056Z AUTO 35008KT 9SM CLR 38/02 A3014 RMK AO2 SLP142 T03780022 58015 $,M
LAS,2021-08-13 20:56,-115.1634,36.0719,663.00,99.00,61.00,28.75,40.00,9.00,0.00,30.02,1013.30,10.00,17.00,FEW,SCT,BKN,M,12000.00,15000.00,20000.00,M,M,M,M,M,M,M,M,99.96,KLAS 132056Z 04009G17KT 10SM FEW120 SCT150 BKN200 37/16 A3002 RMK AO2 SLP133 CB DSNT N AND S T03720161 56008,M
HND,2021-08-13 20:56,-115.1344,35.9729,742.79,100.00,63.00,29.94,M,6.00,0.00,30.04,1015.30,10.00,M,CLR,M,M,M,M,M,M,M,M,M,M,M,M,M,M,102.27,KHND 132056Z VRB06KT 10SM CLR 38/17 A3004 RMK AO2 LTG DSNT S SLP153 T03780172 58010,M
TPH,2021-08-13 20:56,-117.0904,38.0505,1654.00,94.00,32.00,11.23,0.00,0.00,0.00,30.22,1013.90,10.00,M,CLR,M,M,M,M,M,M,M,M,M,M,M,M,M,M,88.85,KTPH 132056Z AUTO 00000KT 10SM CLR 34/00 A3022 RMK AO2 SLP139 T03440000 58015,M
EKO,2021-08-13 20:56,-115.7860,40.8242,1367.00,96.00,39.00,13.85,120.00,3.00,0.00,30.20,1015.40,10.00,M,CLR,M,M,M,M,M,M,M,M,M,M,M,M,M,M,91.57,KEKO 132056Z AUTO 12003KT 10SM CLR 36/04 A3020 RMK AO2 SLP154 T03560039 56013,M
NFL,2021-08-13 20:56,-118.7010,39.4166,1199.00,99.00,39.00,12.68,M,4.00,0.00,30.12,1016.60,10.00,M,SCT,SCT,M,M,7000.00,12000.00,M,M,M,M,M,M,M,M,M,94.19,KNFL 132056Z VRB04KT 10SM SCT070 SCT120 37/04 A3012 RMK AO2 SLP166 T03720039 58014,M
LSV,2021-08-13 20:58,-115.0343,36.2362,570.00,98.40,60.60,28.87,130.00,4.00,0.00,29.99,1012.90,10.00,M,CLR,M,M,M,M,M,M,M,M,M,M,M,M,M,M,99.06,KLSV 132058Z AUTO 13004KT 10SM CLR 37/16 A2999 RMK AO2 SLP129 T03690159 57009 $,M
INS,2021-08-13 20:58,-115.6733,36.5872,955.00,98.00,47.30,17.91,120.00,4.00,0.00,30.06,1012.20,10.00,M,FEW,FEW,SCT,SCT,9500.00,13000.00,15000.00,18000.00,M,M,M,M,M,M,M,94.50,KINS 132058Z AUTO 12004KT 10SM FEW095 FEW130 SCT150 SCT180 BKN200 37/09 A3006 RMK AO2 SLP122 T03670085 57008 $,M
LAS,2021-08-13 21:01,-115.1634,36.0719,663.00,100.00,61.00,27.90,60.00,11.00,0.00,30.01,M,10.00,M,FEW,SCT,BKN,M,12000.00,15000.00,20000.00,M,M,M,M,M,M,M,M,101.12,KLAS 132101Z 06011KT 10SM FEW120 SCT150 BKN200 38/16 A3001 RMK AO2 LTG DSNT N CB DSNT N AND S T03780161,M
CXP,2021-08-13 21:10,-119.7326,39.1923,1431.00,96.80,33.80,11.04,M,4.00,0.00,30.19,M,10.00,11.00,CLR,M,M,M,M,M,M,M,M,M,M,M,M,M,M,91.44,KCXP 132110Z AUTO VRB04G11KT 10SM CLR 36/01 A3019 RMK AO2,M
RNO,2021-08-13 21:11,-119.7711,39.4839,1341.00,96.00,38.00,13.27,0.00,0.00,0.00,30.16,M,10.00,M,FEW,SCT,M,M,10000.00,20000.00,M,M,TS,M,M,M,M,M,M,91.49,KRNO 132111Z 00000KT 10SM TS FEW100 SCT200 36/03 A3016 RMK AO2 LTG DSNT NW TSB05 CB DSNT W-NW HZ ALQDS T03560033,M
MEV,2021-08-13 21:15,-119.7500,38.9963,1441.42,96.80,39.20,13.66,240.00,11.00,0.00,30.19,M,10.00,M,CLR,M,M,M,M,M,M,M,M,M,M,M,M,M,M,92.23,KMEV 132115Z AUTO 24011KT 10SM CLR 36/04 A3019 RMK AO2,M
RTS,2021-08-13 21:15,-119.8764,39.6682,1539.00,93.20,35.60,13.25,M,5.00,0.00,30.23,M,10.00,M,CLR,M,M,M,M,M,M,M,M,M,M,M,M,M,M,88.76,KRTS 132115Z AUTO VRB05KT 10SM CLR 34/02 A3023 RMK AO2,M
BVU,2021-08-13 21:15,-114.8611,35.9475,671.00,95.00,60.80,32.27,120.00,9.00,0.00,30.02,M,10.00,16.00,CLR,M,M,M,M,M,M,M,M,M,M,M,M,M,M,95.30,KBVU 132115Z AUTO 12009G16KT 10SM CLR 35/16 A3002 RMK AO2,M
BAM,2021-08-13 21:15,-116.8743,40.5990,1382.36,98.60,35.60,11.23,330.00,5.00,0.00,30.16,M,10.00,M,CLR,M,M,M,M,M,M,M,M,M,M,M,M,M,M,93.23,KBAM 132115Z AUTO 33005KT 10SM CLR 37/02 A3016 RMK AO1,M
HTH,2021-08-13 21:15,-118.6315,38.5448,1282.89,96.80,35.60,11.86,320.00,8.00,0.00,30.14,M,10.00,M,CLR,M,M,M,M,M,M,M,M,M,M,M,M,M,M,91.72,KHTH 132115Z AUTO 32008KT 10SM CLR 36/02 A3014 RMK A01,M
TMT,2021-08-13 21:15,-117.1971,39.4643,1749.34,93.40,36.70,13.76,170.00,6.00,0.00,30.26,M,10.00,17.00,CLR,M,M,M,M,M,M,M,M,M,M,M,M,M,M,88.98,KTMT 132115Z AUTO 17006G17KT 10SM CLR 34/03 A3026 RMK AO2 T03410026,M
INS,2021-08-13 21:16,-115.6733,36.5872,955.00,100.40,51.80,19.76,110.00,14.00,0.00,30.06,1012.00,10.00,19.00,FEW,FEW,M,M,14000.00,19000.00,M,M,M,M,M,M,M,M,M,97.90,KINS 132116Z AUTO 11014G19KT 10SM FEW140 FEW190 38/11 A3006 RMK AO2 WSHFT 09 LTG DSNT E SLP120 $,M
RNO,2021-08-13 21:26,-119.7711,39.4839,1341.00,98.00,36.00,11.58,M,M,0.00,30.15,M,10.00,M,FEW,SCT,M,M,10000.00,20000.00,M,M,M,M,M,M,M,M,M,92.87,KRNO 132126Z 10SM FEW100 SCT200 37/02 A3015 RMK AO2 TSB05E20 CB DSNT W-NW HZ ALQDS T03670022,M
CXP,2021-08-13 21:30,-119.7326,39.1923,1431.00,96.80,32.00,10.27,290.00,15.00,0.00,30.19,M,10.00,21.00,FEW,M,M,M,12000.00,M,M,M,M,M,M,M,M,M,M,91.19,KCXP 132130Z AUTO 29015G21KT 10SM FEW120 36/00 A3019 RMK AO2,M
MEV,2021-08-13 21:35,-119.7500,38.9963,1441.42,91.40,35.60,14.02,230.00,25.00,0.00,30.19,M,8.00,M,CLR,M,M,M,M,M,M,M,M,M,M,M,M,M,M,87.17,KMEV 132135Z AUTO 23025KT 8SM CLR 33/02 A3019 RMK AO2,M
BAM,2021-08-13 21:35,-116.8743,40.5990,1382.36,96.80,33.80,11.04,240.00,7.00,0.00,30.16,M,10.00,M,CLR,M,M,M,M,M,M,M,M,M,M,M,M,M,M,91.44,KBAM 132135Z AUTO 24007KT 10SM CLR 36/01 A3016 RMK AO1,M
RTS,2021-08-13 21:35,-119.8764,39.6682,1539.00,91.40,35.60,14.02,M,3.00,0.00,30.24,M,10.00,M,CLR,M,M,M,M,M,M,M,M,M,M,M,M,M,M,87.17,KRTS 132135Z AUTO VRB03KT 10SM CLR 33/02 A3024 RMK AO2,M
BVU,2021-08-13 21:35,-114.8611,35.9475,671.00,95.00,60.80,32.27,100.00,12.00,0.00,30.01,M,10.00,M,CLR,M,M,M,M,M,M,M,M,M,M,M,M,M,M,95.30,KBVU 132135Z AUTO 10012KT 10SM CLR 35/16 A3001 RMK AO2,M
TMT,2021-08-13 21:35,-117.1971,39.4643,1749.34,92.00,37.40,14.72,220.00,6.00,0.00,30.26,M,10.00,14.00,CLR,M,M,M,M,M,M,M,M,M,M,M,M,M,M,87.85,KTMT 132135Z AUTO 22006G14KT 10SM CLR 33/03 A3026 RMK AO2 T03340030,M
HTH,2021-08-13 21:35,-118.6315,38.5448,1282.89,95.00,35.60,12.53,300.00,9.00,0.00,30.14,M,10.00,M,CLR,M,M,M,M,M,M,M,M,M,M,M,M,M,M,90.25,KHTH 132135Z AUTO 30009KT 10SM CLR 35/02 A3014 RMK A01,M
CXP,2021-08-13 21:50,-119.7326,39.1923,1431.00,93.20,30.20,10.67,290.00,13.00,0.00,30.19,M,10.00,19.00,FEW,M,M,M,12000.00,M,M,M,M,M,M,M,M,M,M,88.09,KCXP 132150Z AUTO 29013G19KT 10SM FEW120 34/M01 A3019 RMK AO2,M
DRA,2021-08-13 21:53,-116.0278,36.6206,1009.00,100.00,42.00,13.87,250.00,7.00,0.00,30.06,1011.90,10.00,M,CLR,M,M,M,M,M,M,M,M,M,M,M,M,M,M,95.56,KDRA 132153Z AUTO 25007KT 230V300 10SM CLR 38/06 A3006 RMK AO2 SLP119 T03780056,M
P68,2021-08-13 21:53,-116.0056,39.6014,1993.00,88.00,33.00,14.12,220.00,11.00,0.00,30.25,1015.30,M,M,M,M,M,M,M,M,M,M,M,M,M,M,M,M,M,84.25,KP68 132153Z AUTO 22011KT 31/01 A3025 RMK AO1 SLP153 T03110006,M
VGT,2021-08-13 21:53,-115.1933,36.2111,667.00,102.00,60.00,25.44,0.00,0.00,0.00,29.98,1013.70,10.00,M,CLR,M,M,M,M,M,M,M,M,M,M,M,M,M,M,102.95,KVGT 132153Z 00000KT 10SM CLR 39/16 A2998 RMK AO2 LTG DSNT W SLP137 T03890156,M
LOL,2021-08-13 21:53,-118.5701,40.0684,1192.43,100.00,40.00,12.74,M,3.00,0.00,30.10,1013.60,10.00,M,CLR,M,M,M,M,M,M,M,M,M,M,M,M,M,M,95.23,KLOL 132153Z AUTO VRB03KT 10SM CLR 38/04 A3010 RMK AO2 SLP136 T03780044,M
ELY,2021-08-13 21:53,-114.8453,39.2950,1909.00,89.00,28.90,11.50,110.00,5.00,0.00,30.27,1014.40,10.00,M,CLR,M,M,M,M,M,M,M,M,M,M,M,M,M,M,84.84,KELY 132153Z AUTO 11005KT 10SM CLR 32/M02 A3027 RMK AO2 SLP144 T03171017,M
RNO,2021-08-13 21:55,-119.7711,39.4839,1341.00,97.00,37.00,12.46,240.00,10.00,0.00,30.15,1014.00,10.00,M,FEW,SCT,M,M,10000.00,20000.00,M,M,M,M,M,M,M,M,M,92.13,KRNO 132155Z 24010KT 10SM FEW100 SCT200 36/03 A3015 RMK AO2 TSB05E20 SLP140 CB DSNT W-NW HZ ALQDS T03610028,M
TMT,2021-08-13 21:55,-117.1971,39.4643,1749.34,91.00,38.00,15.54,250.00,16.00,0.00,30.26,M,10.00,25.00,BKN,M,M,M,12000.00,M,M,M,M,M,M,M,M,M,M,86.90,KTMT 132155Z AUTO 25016G25KT 10SM BKN120 33/03 A3026 RMK AO2 T03280033,M
BAM,2021-08-13 21:55,-116.8743,40.5990,1382.36,96.80,33.80,11.04,320.00,3.00,0.00,30.15,M,10.00,M,CLR,M,M,M,M,M,M,M,M,M,M,M,M,M,M,91.44,KBAM 132155Z AUTO 32003KT 10SM CLR 36/01 A3015 RMK AO1,M
BVU,2021-08-13 21:55,-114.8611,35.9475,671.00,95.00,60.80,32.27,140.00,10.00,0.00,30.00,M,10.00,15.00,CLR,M,M,M,M,M,M,M,M,M,M,M,M,M,M,95.30,KBVU 132155Z AUTO 14010G15KT 10SM CLR 35/16 A3000 RMK AO2 LTG DSNT SW AND NW,M
MEV,2021-08-13 21:55,-119.7500,38.9963,1441.42,89.60,33.80,13.80,230.00,22.00,0.00,30.19,M,5.00,32.00,CLR,M,M,M,M,M,M,M,HZ,M,M,M,M,M,M,85.59,KMEV 132155Z AUTO 23022G32KT 5SM HZ CLR 32/01 A3019 RMK AO2,M
HTH,2021-08-13 21:55,-118.6315,38.5448,1282.89,95.00,37.40,13.46,280.00,10.00,0.00,30.14,M,10.00,M,CLR,M,M,M,M,M,M,M,M,M,M,M,M,M,M,90.46,KHTH 132155Z AUTO 28010KT 10SM CLR 35/03 A3014 RMK A01,M
RTS,2021-08-13 21:55,-119.8764,39.6682,1539.00,87.80,37.40,16.86,270.00,19.00,0.00,30.24,M,10.00,25.00,CLR,M,M,M,M,M,M,M,M,M,M,M,M,M,M,84.16,KRTS 132155Z AUTO 27019G25KT 10SM CLR 31/03 A3024 RMK AO2,M
HND,2021-08-13 21:56,-115.1344,35.9729,742.79,103.00,62.00,26.58,70.00,10.00,0.00,30.02,1014.40,10.00,M,CLR,M,M,M,M,M,M,M,M,M,M,M,M,M,M,105.15,KHND 132156Z 07010KT 10SM CLR 39/17 A3002 RMK AO2 SLP144 T03940167,M
NFL,2021-08-13 21:56,-118.7010,39.4166,1199.00,100.00,40.00,12.74,30.00,5.00,0.00,30.10,1016.10,10.00,M,SCT,SCT,M,M,7000.00,12000.00,M,M,M,M,M,M,M,M,M,95.23,KNFL 132156Z 03005KT 10SM SCT070 SCT120 38/04 A3010 RMK AO2 SLP161 CB DSNT SE T03780044,M
EKO,2021-08-13 21:56,-115.7860,40.8242,1367.00,97.00,39.00,13.48,230.00,5.00,0.00,30.17,1014.60,10.00,M,CLR,M,M,M,M,M,M,M,M,M,M,M,M,M,M,92.40,KEKO 132156Z AUTO 23005KT 10SM CLR 36/04 A3017 RMK AO2 SLP146 T03610039,M
TPH,2021-08-13 21:56,-117.0904,38.0505,1654.00,97.00,28.00,8.67,260.00,9.00,0.00,30.20,1013.10,10.00,18.00,CLR,M,M,M,M,M,M,M,M,M,M,M,M,M,M,90.87,KTPH 132156Z AUTO 26009G18KT 220V290 10SM CLR 36/M02 A3020 RMK AO2 SLP131 T03611022,M
WMC,2021-08-13 21:56,-117.8072,40.9019,1315.00,102.00,34.00,9.51,40.00,10.00,0.00,30.13,1013.80,8.00,M,CLR,M,M,M,M,M,M,M,M,M,M,M,M,M,M,95.87,KWMC 132156Z AUTO 04010KT 8SM CLR 39/01 A3013 RMK AO2 SLP138 T03890011 $,M
LAS,2021-08-13 21:56,-115.1634,36.0719,663.00,101.00,60.00,26.30,90.00,12.00,0.00,30.00,1012.60,10.00,20.00,FEW,SCT,BKN,M,12000.00,15000.00,20000.00,M,M,M,M,M,M,M,M,101.68,KLAS 132156Z 09012G20KT 10SM FEW120 SCT150 BKN200 38/16 A3000 RMK AO2 LTG DSNT NW SLP126 CB DSNT ALQDS T03830156,M
INS,2021-08-13 21:58,-115.6733,36.5872,955.00,99.30,43.50,14.95,110.00,12.00,0.00,30.05,1011.90,10.00,M,SCT,SCT,M,M,15000.00,19000.00,M,M,VCTS,M,M,M,M,M,M,95.07,KINS 132158Z AUTO 11012KT 10SM VCTS SCT150 SCT190 37/06 A3005 RMK AO2 SLP119 T03740064 $,M
LSV,2021-08-13 21:58,-115.0343,36.2362,570.00,100.20,61.20,27.93,120.00,11.00,0.00,29.96,1011.70,10.00,M,FEW,M,M,M,16000.00,M,M,M,M,M,M,M,M,M,M,101.46,KLSV 132158Z AUTO 12011KT 10SM FEW160 38/16 A2996 RMK AO2 SLP117 T03790162 $,M
CXP,2021-08-13 22:10,-119.7326,39.1923,1431.00,93.20,26.60,9.21,270.00,12.00,0.00,30.19,M,10.00,24.00,CLR,M,M,M,M,M,M,M,M,M,M,M,M,M,M,87.72,KCXP 132210Z AUTO 27012G24KT 10SM CLR 34/M03 A3019 RMK AO2,M
MEV,2021-08-13 22:15,-119.7500,38.9963,1441.42,91.40,33.80,13.05,230.00,20.00,0.00,30.19,M,2.50,35.00,CLR,M,M,M,M,M,M,M,HZ,M,M,M,M,M,M,87.13,KMEV 132215Z AUTO 23020G35KT 2 1/2SM HZ CLR 33/01 A3019 RMK AO2 VIS 1 1/4V5,M
RTS,2021-08-13 22:15,-119.8764,39.6682,1539.00,89.60,35.60,14.83,280.00,19.00,0.00,30.24,M,9.00,30.00,CLR,M,M,M,M,M,M,M,M,M,M,M,M,M,M,85.62,KRTS 132215Z AUTO 28019G30KT 9SM CLR 32/02 A3024 RMK AO2,M
BAM,2021-08-13 22:15,-116.8743,40.5990,1382.36,96.80,33.80,11.04,0.00,0.00,0.00,30.15,M,10.00,M,CLR,M,M,M,M,M,M,M,M,M,M,M,M,M,M,91.44,KBAM 132215Z AUTO 00000KT 10SM CLR 36/01 A3015 RMK AO1,M
TMT,2021-08-13 22:15,-117.1971,39.4643,1749.34,86.40,40.50,19.89,200.00,19.00,0.00,30.29,M,10.00,27.00,BKN,M,M,M,12000.00,M,M,M,M,M,M,M,M,M,M,83.15,KTMT 132215Z AUTO 20019G27KT 10SM BKN120 30/05 A3029 RMK AO2 T03020047,M
HTH,2021-08-13 22:15,-118.6315,38.5448,1282.89,95.00,26.60,8.71,240.00,20.00,0.00,30.14,M,10.00,26.00,CLR,M,M,M,M,M,M,M,M,M,M,M,M,M,M,89.08,KHTH 132215Z AUTO 24020G26KT 10SM CLR 35/M03 A3014 RMK A01,M
BVU,2021-08-13 22:15,-114.8611,35.9475,671.00,96.80,59.00,28.63,100.00,8.00,0.00,29.99,M,10.00,14.00,CLR,M,M,M,M,M,M,M,M,M,M,M,M,M,M,96.50,KBVU 132215Z AUTO 10008G14KT 10SM CLR 36/15 A2999 RMK AO2,M
CXP,2021-08-13 22:30,-119.7326,39.1923,1431.00,93.20,28.40,9.91,250.00,8.00,0.00,30.19,M,10.00,15.00,CLR,M,M,M,M,M,M,M,M,M,M,M,M,M,M,87.89,KCXP 132230Z AUTO 25008G15KT 10SM CLR 34/M02 A3019 RMK AO2,M
BVU,2021-08-13 22:35,-114.8611,35.9475,671.00,98.60,57.20,25.41,70.00,10.00,0.00,29.98,M,10.00,M,CLR,M,M,M,M,M,M,M,M,M,M,M,M,M,M,97.76,KBVU 132235Z AUTO 07010KT 10SM CLR 37/14 A2998 RMK AO2 LTG DSNT SW,M
RTS,2021-08-13 22:35,-119.8764,39.6682,1539.00,86.00,37.40,17.85,290.00,20.00,0.00,30.24,M,10.00,27.00,CLR,M,M,M,M,M,M,M,M,M,M,M,M,M,M,82.73,KRTS 132235Z AUTO 29020G27KT 10SM CLR 30/03 A3024 RMK AO2,M
BAM,2021-08-13 22:35,-116.8743,40.5990,1382.36,95.00,33.80,11.67,230.00,6.00,0.00,30.14,M,10.00,M,CLR,M,M,M,M,M,M,M,M,M,M,M,M,M,M,89.97,KBAM 132235Z AUTO 23006KT 10SM CLR 35/01 A3014 RMK AO1,M
MEV,2021-08-13 22:35,-119.7500,38.9963,1441.42,89.60,33.80,13.80,220.00,21.00,0.00,30.19,M,8.00,29.00,CLR,M,M,M,M,M,M,M,M,M,M,M,M,M,M,85.59,KMEV 132235Z AUTO 22021G29KT 8SM CLR 32/01 A3019 RMK AO2,M
TMT,2021-08-13 22:35,-117.1971,39.4643,1749.34,82.60,42.30,24.10,160.00,15.00,0.00,30.28,M,10.00,30.00,SCT,M,M,M,12000.00,M,M,M,M,M,M,M,M,M,M,80.49,KTMT 132235Z AUTO 16015G30KT 10SM SCT120 28/06 A3028 RMK AO2 T02810057,M
HTH,2021-08-13 22:35,-118.6315,38.5448,1282.89,91.40,35.60,14.02,230.00,32.00,0.00,30.13,M,2.50,41.00,CLR,M,M,M,M,M,M,M,HZ,M,M,M,M,M,M,87.17,KHTH 132235Z AUTO 23032G41KT 2 1/2SM HZ CLR 33/02 A3013 RMK A01,M
CXP,2021-08-13 22:50,-119.7326,39.1923,1431.00,95.00,30.20,10.09,M,6.00,0.00,30.21,M,10.00,M,CLR,M,M,M,M,M,M,M,M,M,M,M,M,M,M,89.48,KCXP 132250Z AUTO VRB06KT 10SM CLR 35/M01 A3021 RMK AO2,M
DRA,2021-08-13 22:53,-116.0278,36.6206,1009.00,101.00,42.00,13.50,210.00,6.00,0.00,30.04,1011.30,10.00,M,CLR,M,M,M,M,M,M,M,M,M,M,M,M,M,M,96.42,KDRA 132253Z AUTO 21006KT 10SM CLR 38/06 A3004 RMK AO2 SLP113 T03830056,M
LOL,2021-08-13 22:53,-118.5701,40.0684,1192.43,100.00,39.00,12.30,50.00,5.00,0.00,30.08,1013.10,10.00,M,CLR,M,M,M,M,M,M,M,M,M,M,M,M,M,M,95.05,KLOL 132253Z AUTO 05005KT 10SM CLR 38/04 A3008 RMK AO2 SLP131 T03780039,M
ELY,2021-08-13 22:53,-114.8453,39.2950,1909.00,88.00,32.00,13.51,260.00,12.00,0.00,30.26,1014.20,10.00,M,CLR,M,M,M,M,M,M,M,M,M,M,M,M,M,M,84.24,KELY 132253Z AUTO 26012KT 10SM CLR 31/00 A3026 RMK AO2 SLP142 T03110000,M
P68,2021-08-13 22:53,-116.0056,39.6014,1993.00,91.00,30.90,11.76,250.00,10.00,0.00,30.24,1014.50,M,M,M,M,M,M,M,M,M,M,M,M,M,M,M,M,M,86.48,KP68 132253Z AUTO 25010KT 33/M01 A3024 RMK AO1 SLP145 T03281006,M
VGT,2021-08-13 22:53,-115.1933,36.2111,667.00,102.00,58.00,23.52,50.00,4.00,0.00,29.96,1013.00,10.00,M,CLR,M,M,M,M,M,M,M,M,M,M,M,M,M,M,101.87,KVGT 132253Z 05004KT 10SM CLR 39/14 A2996 RMK AO2 LTG DSNT S-W SLP130 T03890144,M
RNO,2021-08-13 22:55,-119.7711,39.4839,1341.00,89.00,44.00,20.97,280.00,22.00,0.00,30.16,1014.80,8.00,32.00,SCT,SCT,BKN,M,11000.00,14000.00,22000.00,M,M,M,M,M,32.00,290.00,2021-08-13 22:46,85.59,KRNO 132255Z 28022G32KT 8SM SCT110CB SCT140 BKN220 32/07 A3016 RMK AO2 PK WND 29032/2246 LTG DSNT SE SLP148 CB SW THRU W MOV N CB DSNT SE SH VC SW HZ ALQDS T03170067,M
MEV,2021-08-13 22:55,-119.7500,38.9963,1441.42,89.60,33.80,13.80,220.00,9.00,0.00,30.21,M,5.00,27.00,CLR,M,M,M,M,M,M,M,HZ,M,M,M,M,M,M,85.59,KMEV 132255Z AUTO 22009G27KT 5SM HZ CLR 32/01 A3021 RMK AO2,M
BAM,2021-08-13 22:55,-116.8743,40.5990,1382.36,96.80,32.00,10.27,240.00,6.00,0.00,30.14,M,10.00,M,CLR,M,M,M,M,M,M,M,M,M,M,M,M,M,M,91.19,KBAM 132255Z AUTO 24006KT 10SM CLR 36/00 A3014 RMK AO1,M
HTH,2021-08-13 22:55,-118.6315,38.5448,1282.89,93.20,33.80,12.34,240.00,17.00,0.00,30.14,M,10.00,25.00,CLR,M,M,M,M,M,M,M,M,M,M,M,M,M,M,88.55,KHTH 132255Z AUTO 24017G25KT 10SM CLR 34/01 A3014 RMK A01,M
RTS,2021-08-13 22:55,-119.8764,39.6682,1539.00,87.80,39.20,18.09,240.00,19.00,0.00,30.24,M,9.00,26.00,CLR,M,M,M,M,M,M,M,M,M,M,M,M,M,M,84.22,KRTS 132255Z AUTO 24019G26KT 9SM CLR 31/04 A3024 RMK AO2,M
BVU,2021-08-13 22:55,-114.8611,35.9475,671.00,96.80,59.00,28.63,130.00,8.00,0.00,29.98,M,10.00,14.00,CLR,M,M,M,M,M,M,M,M,M,M,M,M,M,M,96.50,KBVU 132255Z AUTO 13008G14KT 090V150 10SM CLR 36/15 A2998 RMK AO2,M
TMT,2021-08-13 22:55,-117.1971,39.4643,1749.34,82.60,41.40,23.27,150.00,15.00,0.00,30.29,M,10.00,25.00,SCT,M,M,M,11000.00,M,M,M,M,M,M,M,M,M,M,80.44,KTMT 132255Z AUTO 15015G25KT 10SM SCT110 28/05 A3029 RMK AO2 T02810052,M
LAS,2021-08-13 22:56,-115.1634,36.0719,663.00,100.00,61.00,27.90,90.00,12.00,0.00,29.98,1012.00,10.00,M,FEW,BKN,BKN,M,12000.00,15000.00,20000.00,M,M,M,M,M,M,M,M,101.12,KLAS 132256Z 09012KT 10SM FEW120 BKN150 BKN200 38/16 A2998 RMK AO2 SLP120 CB DSNT E-S-W T03780161,M
WMC,2021-08-13 22:56,-117.8072,40.9019,1315.00,101.00,33.00,9.48,280.00,6.00,0.00,30.10,1013.20,10.00,M,CLR,M,M,M,M,M,M,M,M,M,M,M,M,M,M,94.79,KWMC 132256Z AUTO 28006KT 10SM CLR 38/01 A3010 RMK AO2 SLP132 T03830006 $,M
TPH,2021-08-13 22:56,-117.0904,38.0505,1654.00,96.00,28.00,8.92,260.00,5.00,0.00,30.19,1013.10,10.00,M,CLR,M,M,M,M,M,M,M,M,M,M,M,M,M,M,90.13,KTPH 132256Z AUTO 26005KT 10SM CLR 36/M02 A3019 RMK AO2 SLP131 T03561022,M
EKO,2021-08-13 22:56,-115.7860,40.8242,1367.00,97.00,38.00,12.91,190.00,5.00,0.00,30.15,1014.00,10.00,M,CLR,M,M,M,M,M,M,M,M,M,M,M,M,M,M,92.30,KEKO 132256Z AUTO 19005KT 10SM CLR 36/03 A3015 RMK AO2 LTG DSNT S SLP140 T03610033,M
HND,2021-08-13 22:56,-115.1344,35.9729,742.79,100.00,59.00,25.98,130.00,7.00,0.00,30.01,1014.30,10.00,M,CLR,M,M,M,M,M,M,M,M,M,M,M,M,M,M,100.11,KHND 132256Z 13007KT 10SM CLR 38/15 A3001 RMK AO2 SLP143 T03780150,M
NFL,2021-08-13 22:56,-118.7010,39.4166,1199.00,100.00,38.00,11.78,320.00,6.00,0.00,30.09,1015.50,10.00,M,SCT,SCT,M,M,8000.00,12000.00,M,M,M,M,M,M,M,M,M,94.83,KNFL 132256Z 32006KT 10SM SCT080 SCT120 38/03 A3009 RMK AO2 SLP155 CB DSNT SE-SW FU VC ALQDS T03780033,M
LSV,2021-08-13 22:58,-115.0343,36.2362,570.00,99.50,58.50,25.91,110.00,9.00,0.00,29.95,1011.40,10.00,16.00,FEW,FEW,M,M,15000.00,21000.00,M,M,M,M,M,M,M,M,M,99.31,KLSV 132258Z AUTO 11009G16KT 10SM FEW150 FEW210 38/15 A2995 RMK AO2 SLP114 T03750147 $,M
INS,2021-08-13 22:58,-115.6733,36.5872,955.00,99.50,37.80,11.92,110.00,12.00,0.00,30.03,1011.00,10.00,M,CLR,M,M,M,M,M,M,M,M,M,M,M,M,M,M,94.38,KINS 132258Z AUTO 11012KT 10SM CLR 38/03 A3003 RMK AO2 SLP110 T03750032 $,M
CXP,2021-08-13 23:10,-119.7326,39.1923,1431.00,89.60,37.40,15.92,140.00,14.00,0.00,30.22,M,10.00,21.00,CLR,M,M,M,M,M,M,M,M,M,M,M,M,M,M,85.67,KCXP 132310Z AUTO 14014G21KT 10SM CLR 32/03 A3022 RMK AO2,M
TMT,2021-08-13 23:15,-117.1971,39.4643,1749.34,81.70,41.20,23.78,130.00,9.00,0.00,30.30,M,10.00,M,SCT,BKN,M,M,8000.00,10000.00,M,M,M,M,M,M,M,M,M,79.86,KTMT 132315Z AUTO 13009KT 10SM SCT080 BKN100 28/05 A3030 RMK AO2 T02760051,M
BVU,2021-08-13 23:15,-114.8611,35.9475,671.00,95.00,59.00,30.26,250.00,13.00,0.00,29.98,M,7.00,M,CLR,M,M,M,M,M,M,M,M,M,M,M,M,M,M,94.51,KBVU 132315Z AUTO 25013KT 7SM CLR 35/15 A2998 RMK AO2,M
RTS,2021-08-13 23:15,-119.8764,39.6682,1539.00,86.00,37.40,17.85,230.00,26.00,0.00,30.23,M,8.00,M,CLR,M,M,M,M,M,M,M,M,M,M,M,M,M,M,82.73,KRTS 132315Z AUTO 23026KT 8SM CLR 30/03 A3023 RMK AO2,M
MEV,2021-08-13 23:15,-119.7500,38.9963,1441.42,89.60,33.80,13.80,200.00,12.00,0.00,30.22,M,8.00,27.00,CLR,M,M,M,M,M,M,M,M,M,M,M,M,M,M,85.59,KMEV 132315Z AUTO 20012G27KT 8SM CLR 32/01 A3022 RMK AO2,M
BAM,2021-08-13 23:15,-116.8743,40.5990,1382.36,95.00,32.00,10.85,0.00,0.00,0.00,30.13,M,10.00,M,CLR,M,M,M,M,M,M,M,M,M,M,M,M,M,M,89.71,KBAM 132315Z AUTO 00000KT 10SM CLR 35/00 A3013 RMK AO1,M
HTH,2021-08-13 23:15,-118.6315,38.5448,1282.89,95.00,28.40,9.38,250.00,7.00,0.00,30.13,M,10.00,12.00,CLR,M,M,M,M,M,M,M,M,M,M,M,M,M,M,89.27,KHTH 132315Z AUTO 25007G12KT 10SM CLR 35/M02 A3013 RMK A01,M
INS,2021-08-13 23:18,-115.6733,36.5872,955.00,98.60,44.60,15.93,180.00,13.00,0.00,30.03,1011.20,10.00,M,CLR,M,M,M,M,M,M,M,M,M,M,M,M,M,M,94.55,KINS 132318Z AUTO 18013KT 10SM CLR 37/07 A3003 RMK AO2 WSHFT 04 SLP112 $,M
HND,2021-08-13 23:19,-115.1344,35.9729,742.79,96.80,62.60,32.54,180.00,12.00,0.00,30.02,M,10.00,20.00,CLR,M,M,M,M,M,M,M,VCTS,M,M,M,M,M,M,98.28,KHND 132319Z 18012G20KT 10SM VCTS CLR 36/17 A3002 RMK AO2 LTG DSNT SW AND W TSB13,M
CXP,2021-08-13 23:30,-119.7326,39.1923,1431.00,89.60,37.40,15.92,140.00,11.00,0.00,30.22,M,10.00,22.00,CLR,M,M,M,M,M,M,M,M,M,M,M,M,M,M,85.67,KCXP 132330Z AUTO 14011G22KT 10SM CLR 32/03 A3022 RMK AO2,M
MEV,2021-08-13 23:35,-119.7500,38.9963,1441.42,91.40,32.00,12.14,220.00,14.00,0.00,30.20,M,9.00,M,CLR,M,M,M,M,M,M,M,M,M,M,M,M,M,M,86.91,KMEV 132335Z AUTO 22014KT 180V240 9SM CLR 33/M00 A3020 RMK AO2,M
RTS,2021-08-13 23:35,-119.8764,39.6682,1539.00,86.00,35.60,16.63,240.00,21.00,0.00,30.24,M,8.00,36.00,CLR,M,M,M,M,M,M,M,M,M,M,M,M,M,M,82.69,KRTS 132335Z AUTO 24021G36KT 8SM CLR 30/02 A3024 RMK AO2,M
BVU,2021-08-13 23:35,-114.8611,35.9475,671.00,95.00,57.20,28.37,240.00,9.00,0.00,29.98,M,10.00,M,CLR,M,M,M,M,M,M,M,M,M,M,M,M,M,M,93.82,KBVU 132335Z AUTO 24009KT 10SM CLR 35/14 A2998 RMK AO2 LTG DSNT W,M
HTH,2021-08-13 23:35,-118.6315,38.5448,1282.89,96.80,28.40,8.87,320.00,5.00,0.00,30.13,M,10.00,M,CLR,M,M,M,M,M,M,M,M,M,M,M,M,M,M,90.75,KHTH 132335Z AUTO 32005KT 10SM CLR 36/M02 A3013 RMK A01,M
BAM,2021-08-13 23:35,-116.8743,40.5990,1382.36,96.80,32.00,10.27,180.00,3.00,0.00,30.13,M,10.00,M,CLR,M,M,M,M,M,M,M,M,M,M,M,M,M,M,91.19,KBAM 132335Z AUTO 18003KT 10SM CLR 36/00 A3013 RMK AO1,M
TMT,2021-08-13 23:35,-117.1971,39.4643,1749.34,83.00,41.00,22.70,50.00,9.00,0.00,30.31,M,10.00,M,OVC,M,M,M,11000.00,M,M,M,M,M,M,M,M,M,M,80.62,KTMT 132335Z AUTO 05009KT 10SM OVC110 28/05 A3031 RMK AO2 T02830050,M
CXP,2021-08-13 23:50,-119.7326,39.1923,1431.00,91.40,37.40,15.05,120.00,14.00,0.00,30.23,M,10.00,M,SCT,M,M,M,11000.00,M,M,M,M,M,M,M,M,M,M,87.23,KCXP 132350Z AUTO 12014KT 10SM SCT110 33/03 A3023 RMK AO2,M
ELY,2021-08-13 23:53,-114.8453,39.2950,1909.00,86.00,33.00,15.05,220.00,12.00,0.00,30.28,1015.30,10.00,M,CLR,M,M,M,M,M,M,M,M,M,M,M,M,M,M,82.65,KELY 132353Z AUTO 22012KT 10SM CLR 30/01 A3028 RMK AO2 SLP153 T03000006 10333 20294 55000,M
LOL,2021-08-13 23:53,-118.5701,40.0684,1192.43,101.00,39.00,11.97,0.00,0.00,0.00,30.07,1012.50,10.00,M,CLR,M,M,M,M,M,M,M,M,M,M,M,M,M,M,95.82,KLOL 132353Z AUTO 00000KT 10SM CLR 38/04 A3007 RMK AO2 SLP125 T03830039 10389 20344 56013,M
P68,2021-08-13 23:53,-116.0056,39.6014,1993.00,87.00,36.00,16.31,300.00,17.00,0.00,30.28,1016.00,M,22.00,M,M,M,M,M,M,M,M,M,M,M,M,M,M,M,83.56,KP68 132353Z AUTO 30017G22KT 31/02 A3028 RMK AO1 SLP160 T03060022 10344 20300 53003,M
VGT,2021-08-13 23:53,-115.1933,36.2111,667.00,101.00,59.00,25.28,150.00,10.00,0.00,29.96,1012.90,10.00,M,CLR,M,M,M,M,M,M,M,M,M,M,M,M,M,M,101.14,KVGT 132353Z 15010KT 10SM CLR 38/15 A2996 RMK AO2 LTG DSNT S AND SW SLP129 T03830150 10400 20344 56014,M
DRA,2021-08-13 23:53,-116.0278,36.6206,1009.00,101.00,46.00,15.67,150.00,13.00,0.00,30.03,1010.80,10.00,M,CLR,M,M,M,M,M,M,M,M,M,M,M,M,M,M,97.06,KDRA 132353Z AUTO 15013KT 10SM CLR 38/08 A3003 RMK AO2 SLP108 T03830078 10389 20311 56015,M
HTH,2021-08-13 23:55,-118.6315,38.5448,1282.89,95.00,37.40,13.46,330.00,18.00,0.00,30.14,M,10.00,26.00,CLR,M,M,M,M,M,M,M,M,M,M,M,M,M,M,90.46,KHTH 132355Z AUTO 33018G26KT 10SM CLR 35/03 A3014 RMK A01,M
BVU,2021-08-13 23:55,-114.8611,35.9475,671.00,96.80,55.40,25.15,240.00,5.00,0.00,29.97,M,10.00,M,CLR,M,M,M,M,M,M,M,M,M,M,M,M,M,M,95.14,KBVU 132355Z AUTO 24005KT 10SM CLR 36/13 A2997 RMK AO2 LTG DSNT W,M
RNO,2021-08-13 23:55,-119.7711,39.4839,1341.00,91.00,38.00,15.54,260.00,8.00,0.00,30.17,1015.10,10.00,19.00,FEW,SCT,BKN,BKN,12000.00,14000.00,18000.00,24000.00,M,M,M,M,29.00,280.00,2021-08-13 23:30,86.90,KRNO 132355Z 26008G19KT 10SM FEW120 SCT140 BKN180 BKN240 33/03 A3017 RMK AO2 PK WND 28029/2330 SLP151 VIRGA DSNT NW TCU DSNT NE THRU SE AND NW HZ ALQDS T03280033 10367 20311 53003,M
RTS,2021-08-13 23:55,-119.8764,39.6682,1539.00,86.00,35.60,16.63,240.00,17.00,0.00,30.25,M,9.00,34.00,CLR,M,M,M,M,M,M,M,M,M,M,M,M,M,M,82.69,KRTS 132355Z AUTO 24017G34KT 9SM CLR 30/02 A3025 RMK AO2,M
MEV,2021-08-13 23:55,-119.7500,38.9963,1441.42,87.80,41.00,19.40,M,6.00,0.00,30.21,M,9.00,14.00,CLR,M,M,M,M,M,M,M,M,M,M,M,M,M,M,84.30,KMEV 132355Z AUTO VRB06G14KT 9SM CLR 31/05 A3021 RMK AO2,M
TMT,2021-08-13 23:55,-117.1971,39.4643,1749.34,84.60,41.40,21.82,40.00,14.00,0.00,30.28,M,10.00,23.00,SCT,M,M,M,11000.00,M,M,M,M,M,M,M,M,M,M,81.83,KTMT 132355Z AUTO 04014G23KT 10SM SCT110 29/05 A3028 RMK AO2 T02920052 10345 20275,M
BAM,2021-08-13 23:55,-116.8743,40.5990,1382.36,96.80,32.00,10.27,150.00,7.00,0.00,30.13,M,10.00,M,CLR,M,M,M,M,M,M,M,M,M,M,M,M,M,M,91.19,KBAM 132355Z AUTO 15007KT 10SM CLR 36/00 A3013 RMK AO1,M
EKO,2021-08-13 23:56,-115.7860,40.8242,1367.00,95.00,38.00,13.73,200.00,5.00,0.00,30.15,1014.10,10.00,M,CLR,M,M,M,M,M,M,M,M,M,M,M,M,M,M,90.48,KEKO 132356Z AUTO 20005KT 10SM CLR 35/03 A3015 RMK AO2 LTG DSNT SE SLP141 T03500033 10367 20317 56013,M
TPH,2021-08-13 23:56,-117.0904,38.0505,1654.00,93.00,33.00,12.07,350.00,14.00,0.00,30.21,1014.30,10.00,26.00,CLR,M,M,M,M,M,M,M,M,M,M,M,26.00,310.00,2021-08-13 23:27,88.29,KTPH 132356Z AUTO 35014G26KT 10SM CLR 34/01 A3021 RMK AO2 PK WND 31026/2327 SLP143 T03390006 10361 20300 55002,M
NFL,2021-08-13 23:56,-118.7010,39.4166,1199.00,100.00,37.00,11.37,250.00,7.00,0.00,30.08,1015.50,10.00,M,SCT,SCT,M,M,8000.00,12000.00,M,M,M,M,M,M,M,M,M,94.66,KNFL 132356Z 25007KT 220V280 10SM SCT080 SCT120 38/03 A3008 RMK AO2 SLP155 CB DSNT S-W FU VC ALQDS T03780028 10383 20333 56011,M
LAS,2021-08-13 23:56,-115.1634,36.0719,663.00,94.00,60.00,32.56,220.00,11.00,0.00,29.98,1012.30,10.00,21.00,SCT,BKN,BKN,M,12000.00,15000.00,20000.00,M,M,M,M,M,M,M,M,93.77,KLAS 132356Z 22011G21KT 10SM SCT120CB BKN150 BKN200 34/16 A2998 RMK AO2 LTG DSNT SW SLP123 CB S-W MOV NW T03440156 10389 20333 55011,M
WMC,2021-08-13 23:56,-117.8072,40.9019,1315.00,101.00,33.00,9.48,320.00,9.00,0.00,30.10,1013.20,10.00,15.00,CLR,M,M,M,M,M,M,M,M,M,M,M,M,M,M,94.79,KWMC 132356Z AUTO 32009G15KT 10SM CLR 38/01 A3010 RMK AO2 SLP132 T03830006 10394 20333 56013,M
HND,2021-08-13 23:56,-115.1344,35.9729,742.79,89.00,61.00,39.06,220.00,14.00,0.00,30.02,1015.00,10.00,M,CLR,M,M,M,M,M,M,M,M,M,M,M,M,M,M,89.11,KHND 132356Z 22014KT 10SM CLR 32/16 A3002 RMK AO2 LTG DSNT SW AND W TSB13E51 SLP150 T03170161 10394 20317 55006,M
LSV,2021-08-13 23:58,-115.0343,36.2362,570.00,99.70,55.20,22.86,150.00,6.00,0.00,29.94,1011.10,10.00,M,BKN,M,M,M,16000.00,M,M,M,M,M,M,M,M,M,M,98.22,KLSV 132358Z AUTO 15006KT 10SM BKN160 38/13 A2994 RMK AO2 LTG DSNT SW SLP111 T03760129 10383 20331 57016 $,M
INS,2021-08-13 23:58,-115.6733,36.5872,955.00,97.70,45.50,16.94,170.00,13.00,0.00,30.02,1010.80,10.00,M,CLR,M,M,M,M,M,M,M,M,M,M,M,M,M,M,93.80,KINS 132358Z AUTO 17013KT 10SM CLR 37/08 A3002 RMK AO2 SLP108 T03650075 10378 20332 57013 $,M
