station,valid,lon,lat,elevation,tmpf,dwpf,relh,drct,sknt,p01i,alti,mslp,vsby,gust,skyc1,skyc2,skyc3,skyc4,skyl1,skyl2,skyl3,skyl4,wxcodes,ice_accretion_1hr,ice_accretion_3hr,ice_accretion_6hr,peak_wind_gust,peak_wind_drct,peak_wind_time,feel,metar,snowdepth
LSV,2023-08-19 00:07,-115.0343,36.2362,570.00,87.80,53.60,31.17,0.00,0.00,0.00,29.80,1006.60,10.00,M,FEW,FEW,M,M,5000.00,14000.00,M,M,M,M,M,M,M,M,M,85.72,KLSV 190007Z AUTO 00000KT 10SM FEW050 FEW140 31/12 A2980 RMK AO2 LTG DSNT SE AND SW RAE07 SLP066 $,M
VGT,2023-08-19 00:14,-115.1933,36.2111,667.00,84.00,68.00,58.69,240.00,4.00,0.04,29.86,M,10.00,M,FEW,FEW,BKN,M,5000.00,9500.00,11000.00,M,-TSRA,M,M,M,M,M,M,87.18,KVGT 190014Z 24004KT 10SM -TSRA FEW050 FEW095 BKN110 29/20 A2986 RMK AO2 LTG DSNT ALQDS TSB08 P0004 T02890200,M
BVU,2023-08-19 00:15,-114.8611,35.9475,671.00,93.20,55.40,28.10,330.00,11.00,0.00,29.84,M,10.00,M,BKN,M,M,M,12000.00,M,M,M,M,M,M,M,M,M,M,91.35,KBVU 190015Z AUTO 33011KT 10SM BKN120 34/13 A2984 RMK AO2 LTG DSNT W AND NW,M
CXP,2023-08-19 00:15,-119.7326,39.1923,1431.00,82.40,41.00,23.07,M,5.00,0.00,30.03,M,10.00,11.00,BKN,M,M,M,10000.00,M,M,M,M,M,M,M,M,M,M,80.29,KCXP 190015Z AUTO VRB05G11KT 10SM BKN100 28/05 A3003 RMK AO2,M
RTS,2023-08-19 00:15,-119.8764,39.6682,1539.00,78.80,41.00,25.95,280.00,11.00,0.00,30.07,M,10.00,M,CLR,M,M,M,M,M,M,M,M,M,M,M,M,M,M,78.80,KRTS 190015Z AUTO 28011KT 10SM CLR 26/05 A3007 RMK AO2,M
05U,2023-08-19 00:15,-116.0051,39.6042,1811.23,89.60,35.60,14.83,M,M,0.00,30.07,M,10.00,M,M,M,M,M,M,M,M,M,M,M,M,M,M,M,M,85.62,K05U 190015Z AUTO 10SM 32/02 A3007 RMK A01,M
MEV,2023-08-19 00:15,-119.7500,38.9963,1441.42,80.60,42.80,26.22,330.00,10.00,0.00,30.02,M,10.00,M,FEW,M,M,M,11000.00,M,M,M,M,M,M,M,M,M,M,79.30,KMEV 190015Z AUTO 33010KT 10SM FEW110 27/06 A3002 RMK AO2,M
BAM,2023-08-19 00:15,-116.8743,40.5990,1382.36,95.00,35.60,12.53,270.00,9.00,0.00,29.93,M,10.00,16.00,CLR,M,M,M,M,M,M,M,M,M,M,M,M,M,M,90.25,KBAM 190015Z AUTO 27009G16KT 10SM CLR 35/02 A2993 RMK AO1,M
HTH,2023-08-19 00:15,-118.6315,38.5448,1282.89,87.80,37.40,16.86,350.00,10.00,0.00,29.90,M,10.00,M,CLR,M,M,M,M,M,M,M,M,M,M,M,M,M,M,84.16,KHTH 190015Z AUTO 35010KT 10SM CLR 31/03 A2990 RMK A01,M
10U,2023-08-19 00:15,-116.1876,41.9532,1637.00,89.60,33.80,13.80,270.00,9.00,0.00,30.00,M,10.00,M,CLR,M,M,M,M,M,M,M,M,M,M,M,M,M,M,85.59,K10U 190015Z AUTO 27009KT 10SM CLR 32/01 A3000 RMK AO2,M
TMT,2023-08-19 00:15,-117.1971,39.4643,1749.34,86.50,29.50,12.80,230.00,8.00,0.00,30.04,M,M,15.00,CLR,M,M,M,M,M,M,M,M,M,M,M,M,M,M,82.99,KTMT 190015Z AUTO 23008G15KT CLR 30/M01 A3004 RMK AO2 T03031014 PWINO,M
05U,2023-08-19 00:30,-116.0051,39.6042,1811.23,87.80,35.60,15.70,M,M,0.00,30.07,M,10.00,M,M,M,M,M,M,M,M,M,M,M,M,M,M,M,M,84.12,K05U 190030Z AUTO 10SM 31/02 A3007 RMK A01,M
HND,2023-08-19 00:34,-115.1344,35.9729,742.79,M,M,M,M,M,0.00,M,M,M,M,M,M,M,M,M,M,M,M,VCTS,M,M,M,M,M,M,M,KHND 190034Z VCTS RMK AO2 LTG DSNT ALQDS TSE33B34 $,M
BVU,2023-08-19 00:35,-114.8611,35.9475,671.00,93.20,53.60,26.31,10.00,11.00,0.00,29.83,M,10.00,M,SCT,M,M,M,12000.00,M,M,M,M,M,M,M,M,M,M,90.86,KBVU 190035Z AUTO 01011KT 10SM SCT120 34/12 A2983 RMK AO2 LTG DSNT S AND SW,M
CXP,2023-08-19 00:35,-119.7326,39.1923,1431.00,82.40,37.40,20.04,290.00,13.00,0.00,30.02,M,10.00,M,FEW,M,M,M,10000.00,M,M,M,M,M,M,M,M,M,M,80.14,KCXP 190035Z AUTO 29013KT 10SM FEW100 28/03 A3002 RMK AO2,M
RTS,2023-08-19 00:35,-119.8764,39.6682,1539.00,78.80,41.00,25.95,280.00,10.00,0.00,30.06,M,10.00,16.00,CLR,M,M,M,M,M,M,M,M,M,M,M,M,M,M,78.80,KRTS 190035Z AUTO 28010G16KT 10SM CLR 26/05 A3006 RMK AO2,M
MEV,2023-08-19 00:35,-119.7500,38.9963,1441.42,80.60,42.80,26.22,280.00,11.00,0.00,30.01,M,10.00,M,CLR,M,M,M,M,M,M,M,M,M,M,M,M,M,M,79.30,KMEV 190035Z AUTO 28011KT 10SM CLR 27/06 A3001 RMK AO2,M
BAM,2023-08-19 00:35,-116.8743,40.5990,1382.36,93.20,35.60,13.25,250.00,9.00,0.00,29.93,M,10.00,M,CLR,M,M,M,M,M,M,M,M,M,M,M,M,M,M,88.76,KBAM 190035Z AUTO 25009KT 190V290 10SM CLR 34/02 A2993 RMK AO1,M
HTH,2023-08-19 00:35,-118.6315,38.5448,1282.89,87.80,44.60,22.27,340.00,14.00,0.00,29.90,M,10.00,M,CLR,M,M,M,M,M,M,M,M,M,M,M,M,M,M,84.53,KHTH 190035Z AUTO 34014KT 10SM CLR 31/07 A2990 RMK A01,M
10U,2023-08-19 00:35,-116.1876,41.9532,1637.00,89.60,32.00,12.84,270.00,12.00,0.00,30.00,M,10.00,19.00,CLR,M,M,M,M,M,M,M,M,M,M,M,M,M,M,85.54,K10U 190035Z AUTO 27012G19KT 10SM CLR 32/00 A3000 RMK AO2,M
TMT,2023-08-19 00:35,-117.1971,39.4643,1749.34,86.00,29.00,12.75,210.00,10.00,0.00,30.04,M,M,16.00,CLR,M,M,M,M,M,M,M,M,M,M,M,M,M,M,82.59,KTMT 190035Z AUTO 21010G16KT CLR 30/M02 A3004 RMK AO2 T03011016 PWINO,M
EKO,2023-08-19 00:43,-115.7860,40.8242,1367.00,83.00,49.00,30.67,230.00,5.00,0.00,29.97,M,10.00,M,FEW,M,M,M,11000.00,M,M,M,VCTS,M,M,M,M,M,M,81.28,KEKO 190043Z AUTO 23005KT 10SM VCTS FEW110 28/09 A2997 RMK AO2 LTG DSNT NW T02830094,M
LAS,2023-08-19 00:48,-115.1634,36.0719,663.00,83.00,67.00,58.56,260.00,9.00,T,29.86,M,10.00,M,FEW,BKN,BKN,BKN,4900.00,10000.00,17000.00,22000.00,-TSRA,M,M,M,M,M,M,85.60,KLAS 190048Z 26009KT 10SM -TSRA FEW049 BKN100CB BKN170 BKN220 28/19 A2986 RMK AO2 LTG DSNT ALQDS RAB46 OCNL LTGICCCCG OHD-ALQDS TS OHD-ALQDS MOV N P0000 T02830194,M
05U,2023-08-19 00:50,-116.0051,39.6042,1811.23,86.00,35.60,16.63,M,M,0.00,30.07,M,10.00,M,M,M,M,M,M,M,M,M,M,M,M,M,M,M,M,82.69,K05U 190050Z AUTO 10SM 30/02 A3007 RMK A01,M
P68,2023-08-19 00:53,-116.0056,39.6014,1993.00,85.00,36.00,17.44,160.00,14.00,0.00,30.04,1009.20,M,18.00,M,M,M,M,M,M,M,M,M,M,M,M,M,M,M,81.93,KP68 190053Z AUTO 16014G18KT 29/02 A3004 RMK AO1 SLP092 T02940022,M
DRA,2023-08-19 00:53,-116.0278,36.6206,1009.00,93.00,50.00,23.18,90.00,13.00,0.00,29.86,1005.30,10.00,M,CLR,M,M,M,M,M,M,M,M,M,M,M,M,M,M,89.90,KDRA 190053Z AUTO 09013KT 10SM CLR 34/10 A2986 RMK AO2 SLP053 T03390100,M
ELY,2023-08-19 00:53,-114.8453,39.2950,1909.00,80.00,38.00,22.19,190.00,10.00,0.00,30.10,1009.90,10.00,M,FEW,M,M,M,10000.00,M,M,M,M,M,M,M,M,M,M,78.74,KELY 190053Z AUTO 19010KT 10SM FEW100 27/03 A3010 RMK AO2 SLP099 T02670033,M
VGT,2023-08-19 00:53,-115.1933,36.2111,667.00,82.00,69.00,64.80,340.00,5.00,0.06,29.86,1010.30,10.00,M,OVC,M,M,M,11000.00,M,M,M,-TSRA,M,M,M,M,M,M,85.35,KVGT 190053Z 34005KT 10SM -TSRA OVC110 28/21 A2986 RMK AO2 LTG DSNT SE-W TSB08 SLP103 P0006 T02780206,M
LOL,2023-08-19 00:53,-118.5701,40.0684,1192.43,90.00,38.00,16.10,0.00,0.00,0.00,29.88,1007.90,10.00,M,CLR,M,M,M,M,M,M,M,M,M,M,M,M,M,M,86.03,KLOL 190053Z AUTO 00000KT 10SM CLR 32/03 A2988 RMK AO2 SLP079 T03220033,M
BVU,2023-08-19 00:55,-114.8611,35.9475,671.00,91.40,53.60,27.83,30.00,13.00,0.00,29.82,M,10.00,M,FEW,FEW,BKN,M,6000.00,7000.00,12000.00,M,M,M,M,M,M,M,M,89.08,KBVU 190055Z AUTO 03013KT 10SM FEW060 FEW070 BKN120 33/12 A2982 RMK AO2 LTG DSNT ALQDS,M
CXP,2023-08-19 00:55,-119.7326,39.1923,1431.00,82.40,41.00,23.07,270.00,11.00,0.00,30.02,M,10.00,16.00,CLR,M,M,M,M,M,M,M,M,M,M,M,M,M,M,80.29,KCXP 190055Z AUTO 27011G16KT 10SM CLR 28/05 A3002 RMK AO2,M
RNO,2023-08-19 00:55,-119.7711,39.4839,1341.00,85.00,41.00,21.21,300.00,11.00,0.00,29.98,1009.60,10.00,M,FEW,FEW,M,M,9000.00,15000.00,M,M,M,M,M,M,28.00,280.00,2023-08-19 00:31,82.10,KRNO 190055Z 30011KT 10SM FEW090 FEW150 29/05 A2998 RMK AO2 PK WND 28028/0031 SLP096 CB DSNT NE AND S T02940050,M
RTS,2023-08-19 00:55,-119.8764,39.6682,1539.00,77.00,41.00,27.53,320.00,13.00,0.00,30.06,M,10.00,21.00,CLR,M,M,M,M,M,M,M,M,M,M,M,M,M,M,77.00,KRTS 190055Z AUTO 32013G21KT 10SM CLR 25/05 A3006 RMK AO2,M
MEV,2023-08-19 00:55,-119.7500,38.9963,1441.42,80.60,44.60,28.08,260.00,12.00,0.00,30.01,M,10.00,M,SCT,M,M,M,12000.00,M,M,M,M,M,M,M,M,M,M,79.42,KMEV 190055Z AUTO 26012KT 10SM SCT120 27/07 A3001 RMK AO2,M
HTH,2023-08-19 00:55,-118.6315,38.5448,1282.89,86.00,41.00,20.54,340.00,16.00,0.00,29.90,M,10.00,22.00,CLR,M,M,M,M,M,M,M,M,M,M,M,M,M,M,82.86,KHTH 190055Z AUTO 34016G22KT 10SM CLR 30/05 A2990 RMK A01,M
INS,2023-08-19 00:55,-115.6733,36.5872,955.00,88.70,48.40,24.99,130.00,21.00,0.00,29.86,1006.10,10.00,24.00,FEW,SCT,M,M,13000.00,16000.00,M,M,M,M,M,M,30.00,90.00,2023-08-19 00:37,85.67,KINS 190055Z AUTO 13021G24KT 10SM FEW130 SCT160 32/09 A2986 RMK AO2 PK WND 09030/37 SLP061 T03150091 $,M
BAM,2023-08-19 00:55,-116.8743,40.5990,1382.36,93.20,35.60,13.25,230.00,9.00,0.00,29.93,M,10.00,M,CLR,M,M,M,M,M,M,M,M,M,M,M,M,M,M,88.76,KBAM 190055Z AUTO 23009KT 10SM CLR 34/02 A2993 RMK AO1,M
TMT,2023-08-19 00:55,-117.1971,39.4643,1749.34,85.00,28.20,12.74,210.00,7.00,0.00,30.03,M,M,10.00,CLR,M,M,M,M,M,M,M,M,M,M,M,M,M,M,81.82,KTMT 190055Z AUTO 21007G10KT CLR 30/M02 A3003 RMK AO2 T02951021 PWINO,M
10U,2023-08-19 00:55,-116.1876,41.9532,1637.00,87.80,32.00,13.59,270.00,7.00,0.00,30.00,M,10.00,12.00,CLR,M,M,M,M,M,M,M,M,M,M,M,M,M,M,84.08,K10U 190055Z AUTO 27007G12KT 10SM CLR 31/M00 A3000 RMK AO2,M
LSV,2023-08-19 00:55,-115.0343,36.2362,570.00,86.40,65.00,48.98,220.00,6.00,T,29.81,1006.90,10.00,M,SCT,M,M,M,12000.00,M,M,M,-TSRA,M,M,M,M,M,M,88.19,KLSV 190055Z 22006KT 10SM -TSRA SCT120 30/18 A2981 RMK AO2A RAE07RAB51 SLP069 P0000 T03020183 $,M
EKO,2023-08-19 00:56,-115.7860,40.8242,1367.00,82.00,46.00,28.30,240.00,6.00,0.00,29.96,1009.10,10.00,M,CLR,M,M,M,M,M,M,M,M,M,M,M,M,M,M,80.36,KEKO 190056Z AUTO 24006KT 10SM CLR 28/08 A2996 RMK AO2 LTG DSNT NW SLP091 T02780078,M
WMC,2023-08-19 00:56,-117.8072,40.9019,1315.00,94.00,34.00,12.13,240.00,13.00,0.00,29.90,1007.10,10.00,17.00,CLR,M,M,M,M,M,M,M,M,M,M,M,M,M,M,89.21,KWMC 190056Z AUTO 24013G17KT 10SM CLR 34/01 A2990 RMK AO2 SLP071 T03440011,M
NFL,2023-08-19 00:56,-118.7010,39.4166,1199.00,91.00,41.00,17.54,290.00,9.00,0.00,29.90,1009.80,10.00,M,SCT,SCT,M,M,8000.00,15000.00,M,M,M,M,M,M,M,M,M,87.04,KNFL 190056Z 29009KT 10SM SCT080 SCT150 33/05 A2990 RMK AO2 SLP098 CB DSNT SW T03280050,M
HND,2023-08-19 00:56,-115.1344,35.9729,742.79,M,M,M,M,M,0.00,M,M,M,M,M,M,M,M,M,M,M,M,TS,M,M,M,M,M,M,M,KHND 190056Z TS RMK AO2 LTG DSNT ALQDS TSE33B34 SLPNO $,M
TPH,2023-08-19 00:56,-117.0904,38.0505,1654.00,86.00,43.00,22.19,220.00,17.00,0.00,30.03,1009.40,10.00,32.00,CLR,M,M,M,M,M,M,M,M,M,M,M,32.00,220.00,2023-08-19 00:54,82.97,KTPH 190056Z AUTO 22017G32KT 10SM CLR 30/06 A3003 RMK AO2 PK WND 22032/0054 SLP094 T03000061,M
LAS,2023-08-19 00:56,-115.1634,36.0719,663.00,81.00,65.00,58.30,310.00,8.00,T,29.86,1008.60,10.00,18.00,FEW,BKN,BKN,BKN,5500.00,7000.00,15000.00,22000.00,TS,M,M,M,M,M,M,82.82,KLAS 190056Z 31008G18KT 10SM TS FEW055 BKN070CB BKN150 BKN220 27/18 A2986 RMK AO2 LTG DSNT ALQDS RAB46E56 SLP086 FRQ LTGICCCCG OHD-ALQDS TS OHD-ALQDS MOV N P0000 T02720183,M
LAS,2023-08-19 01:11,-115.1634,36.0719,663.00,81.00,65.00,58.30,200.00,7.00,T,29.87,M,10.00,M,FEW,BKN,BKN,BKN,5500.00,7000.00,15000.00,22000.00,-TSRA,M,M,M,M,M,M,82.82,KLAS 190111Z 20007KT 10SM -TSRA FEW055 BKN070CB BKN150 BKN220 27/18 A2987 RMK AO2 LTG DSNT ALQDS RAB03 FRQ LTGICCCCG OHD-ALQDS TS OHD-ALQDS MOV N P0000 T02720183,M
BVU,2023-08-19 01:15,-114.8611,35.9475,671.00,77.00,64.40,65.12,220.00,31.00,0.00,29.91,M,1.00,45.00,BKN,BKN,OVC,M,400.00,4600.00,12000.00,M,TS,M,M,M,M,M,M,77.00,KBVU 190115Z AUTO 22031G45KT 1SM TS BKN004 BKN046 OVC120 25/18 A2991 RMK AO2 LTG DSNT ALQDS VIS 1/2V4,M
CXP,2023-08-19 01:15,-119.7326,39.1923,1431.00,80.60,39.20,22.81,250.00,8.00,0.00,30.02,M,10.00,M,CLR,M,M,M,M,M,M,M,M,M,M,M,M,M,M,79.10,KCXP 190115Z AUTO 25008KT 220V290 10SM CLR 27/04 A3002 RMK AO2,M
RTS,2023-08-19 01:15,-119.8764,39.6682,1539.00,77.00,42.80,29.51,310.00,15.00,0.00,30.05,M,10.00,20.00,CLR,M,M,M,M,M,M,M,M,M,M,M,M,M,M,77.00,KRTS 190115Z AUTO 31015G20KT 10SM CLR 25/06 A3005 RMK AO2,M
05U,2023-08-19 01:15,-116.0051,39.6042,1811.23,84.20,35.60,17.61,M,M,0.00,30.06,M,10.00,M,M,M,M,M,M,M,M,M,M,M,M,M,M,M,M,81.34,K05U 190115Z AUTO 10SM 29/02 A3006 RMK A01,M
MEV,2023-08-19 01:15,-119.7500,38.9963,1441.42,78.80,44.60,29.79,280.00,10.00,0.00,30.01,M,10.00,16.00,FEW,M,M,M,12000.00,M,M,M,M,M,M,M,M,M,M,78.80,KMEV 190115Z AUTO 28010G16KT 10SM FEW120 26/07 A3001 RMK AO2,M
BAM,2023-08-19 01:15,-116.8743,40.5990,1382.36,93.20,33.80,12.34,250.00,8.00,0.00,29.92,M,10.00,M,CLR,M,M,M,M,M,M,M,M,M,M,M,M,M,M,88.55,KBAM 190115Z AUTO 25008KT 10SM CLR 34/01 A2992 RMK AO1,M
HTH,2023-08-19 01:15,-118.6315,38.5448,1282.89,86.00,41.00,20.54,350.00,18.00,0.00,29.90,M,10.00,M,CLR,M,M,M,M,M,M,M,M,M,M,M,M,M,M,82.86,KHTH 190115Z AUTO 35018KT 10SM CLR 30/05 A2990 RMK A01,M
10U,2023-08-19 01:15,-116.1876,41.9532,1637.00,86.00,33.80,15.48,250.00,4.00,0.00,30.00,M,10.00,11.00,FEW,M,M,M,12000.00,M,M,M,M,M,M,M,M,M,M,82.66,K10U 190115Z AUTO 25004G11KT 10SM FEW120 30/01 A3000 RMK AO2,M
TMT,2023-08-19 01:15,-117.1971,39.4643,1749.34,85.00,27.50,12.38,230.00,8.00,0.00,30.03,M,M,M,CLR,M,M,M,M,M,M,M,M,M,M,M,M,M,M,81.76,KTMT 190115Z AUTO 23008KT CLR 30/M02 A3003 RMK AO2 T02951025 PWINO,M
LSV,2023-08-19 01:23,-115.0343,36.2362,570.00,84.20,66.20,54.80,310.00,10.00,0.00,29.80,1006.50,9.00,M,FEW,M,M,M,7000.00,M,M,M,-RA,M,M,M,M,M,M,86.50,KLSV 190123Z AUTO 31010KT 9SM -RA FEW070 29/19 A2980 RMK AO2 LTG DSNT SE-SW RAE02DZB02E08RAB08 TSE23 SLP065 $,M
VGT,2023-08-19 01:24,-115.1933,36.2111,667.00,83.00,66.00,56.57,230.00,4.00,T,29.86,M,10.00,M,FEW,SCT,M,M,3800.00,11000.00,M,M,VCTS,M,M,M,M,M,M,85.17,KVGT 190124Z 23004KT 10SM VCTS FEW038 SCT110 28/19 A2986 RMK AO2 LTG DSNT SE-W RAE18 TSE18 P0000 T02830189,M
LSV,2023-08-19 01:25,-115.0343,36.2362,570.00,82.40,66.20,58.08,310.00,6.00,0.00,29.80,1006.60,10.00,M,FEW,M,M,M,7000.00,M,M,M,-TSRA,M,M,M,M,M,M,84.63,KLSV 190125Z AUTO 31006KT 10SM -TSRA FEW070 28/19 A2980 RMK AO2 RAE02DZB02E08RAB08 TSE23TSB25 SLP066 $,M
05U,2023-08-19 01:30,-116.0051,39.6042,1811.23,82.40,37.40,20.04,M,M,0.00,30.06,M,10.00,M,M,M,M,M,M,M,M,M,M,M,M,M,M,M,M,80.14,K05U 190130Z AUTO 10SM 28/03 A3006 RMK A01,M
LSV,2023-08-19 01:31,-115.0343,36.2362,570.00,82.40,66.20,58.08,350.00,4.00,0.00,29.81,1006.90,10.00,M,FEW,FEW,M,M,7000.00,12000.00,M,M,TS,M,M,M,M,M,M,84.63,KLSV 190131Z AUTO 35004KT 10SM TS FEW070 FEW120 28/19 A2981 RMK AO2 RAE02DZB02E08RAB08E28DZB28E31 TSE23TSB25 SLP069 $,M
LAS,2023-08-19 01:32,-115.1634,36.0719,663.00,76.00,65.00,68.74,200.00,17.00,T,29.92,M,10.00,27.00,FEW,BKN,BKN,OVC,7000.00,10000.00,15000.00,22000.00,-TSRA,M,M,M,40.00,170.00,2023-08-19 01:18,76.00,KLAS 190132Z 20017G27KT 10SM -TSRA FEW070 BKN100CB BKN150 OVC220 24/18 A2992 RMK AO2 PK WND 17040/0118 WSHFT 0112 LTG DSNT ALQDS RAB03 PRESRR OCNL LTGICCCCG OHD-ALQDS TS OHD-ALQDS MOV N P0000 T02440183,M
BVU,2023-08-19 01:35,-114.8611,35.9475,671.00,71.60,66.20,83.09,260.00,10.00,0.00,29.94,M,4.00,28.00,FEW,SCT,OVC,M,300.00,2900.00,3800.00,M,-TSRA,M,M,M,M,M,M,71.60,KBVU 190135Z AUTO 26010G28KT 4SM -TSRA FEW003 SCT029 OVC038 22/19 A2994 RMK AO2,M
CXP,2023-08-19 01:35,-119.7326,39.1923,1431.00,80.60,39.20,22.81,260.00,6.00,0.00,30.01,M,10.00,12.00,CLR,M,M,M,M,M,M,M,M,M,M,M,M,M,M,79.10,KCXP 190135Z AUTO 26006G12KT 10SM CLR 27/04 A3001 RMK AO2,M
RTS,2023-08-19 01:35,-119.8764,39.6682,1539.00,75.20,41.00,29.23,310.00,17.00,0.00,30.05,M,10.00,M,CLR,M,M,M,M,M,M,M,M,M,M,M,M,M,M,75.20,KRTS 190135Z AUTO 31017KT 10SM CLR 24/05 A3005 RMK AO2,M
MEV,2023-08-19 01:35,-119.7500,38.9963,1441.42,78.80,44.60,29.79,M,4.00,0.00,30.01,M,10.00,M,SCT,M,M,M,10000.00,M,M,M,M,M,M,M,M,M,M,78.80,KMEV 190135Z AUTO VRB04KT 10SM SCT100 26/07 A3001 RMK AO2,M
HTH,2023-08-19 01:35,-118.6315,38.5448,1282.89,86.00,41.00,20.54,340.00,13.00,0.00,29.90,M,10.00,22.00,CLR,M,M,M,M,M,M,M,M,M,M,M,M,M,M,82.86,KHTH 190135Z AUTO 34013G22KT 10SM CLR 30/05 A2990 RMK A01,M
10U,2023-08-19 01:35,-116.1876,41.9532,1637.00,86.00,32.00,14.40,290.00,7.00,0.00,30.00,M,10.00,12.00,CLR,M,M,M,M,M,M,M,M,M,M,M,M,M,M,82.64,K10U 190135Z AUTO 29007G12KT 10SM CLR 30/M00 A3000 RMK AO2,M
BAM,2023-08-19 01:35,-116.8743,40.5990,1382.36,91.40,33.80,13.05,240.00,8.00,0.00,29.92,M,10.00,M,CLR,M,M,M,M,M,M,M,M,M,M,M,M,M,M,87.13,KBAM 190135Z AUTO 24008KT 10SM CLR 33/01 A2992 RMK AO1,M
TMT,2023-08-19 01:35,-117.1971,39.4643,1749.34,83.70,29.50,14.01,230.00,5.00,0.00,30.03,M,M,M,CLR,M,M,M,M,M,M,M,M,M,M,M,M,M,M,80.89,KTMT 190135Z AUTO 23005KT CLR 29/M01 A3003 RMK AO2 LTG DSNT NE T02871014 PWINO,M
VGT,2023-08-19 01:39,-115.1933,36.2111,667.00,81.00,65.00,58.30,210.00,27.00,0.01,29.91,M,10.00,36.00,BKN,M,M,M,10000.00,M,M,M,-TSRA,M,M,M,36.00,200.00,2023-08-19 01:38,82.82,KVGT 190139Z 21027G36KT 10SM -TSRA BKN100 27/18 A2991 RMK AO2 PK WND 20036/0138 LTG DSNT ALQDS RAE18B38 TSE18B33 P0001 T02720183,M
LSV,2023-08-19 01:42,-115.0343,36.2362,570.00,82.40,68.00,61.81,170.00,29.00,0.00,29.83,1007.60,9.00,32.00,FEW,M,M,M,6000.00,M,M,M,-TSRA,M,M,M,M,M,M,85.38,KLSV 190142Z AUTO 17029G32KT 9SM -TSRA FEW060 28/20 A2983 RMK AO2 RAE02DZB02E08RAB08E28DZB28E31RAB42 TSE23TSB25 PRESRR SLP076 $,M
P68,2023-08-19 01:53,-116.0056,39.6014,1993.00,82.00,36.00,19.21,150.00,10.00,0.00,30.03,1008.90,M,M,M,M,M,M,M,M,M,M,M,M,M,M,M,M,M,79.83,KP68 190153Z AUTO 15010KT 28/02 A3003 RMK AO1 SLP089 T02780022,M
DRA,2023-08-19 01:53,-116.0278,36.6206,1009.00,91.00,47.00,22.05,90.00,18.00,0.00,29.86,1005.60,10.00,25.00,CLR,M,M,M,M,M,M,M,M,M,M,M,M,M,M,87.57,KDRA 190153Z AUTO 09018G25KT 10SM CLR 33/08 A2986 RMK AO2 SLP056 T03280083,M
ELY,2023-08-19 01:53,-114.8453,39.2950,1909.00,75.00,40.00,28.31,180.00,4.00,0.00,30.10,1009.80,10.00,M,CLR,M,M,M,M,M,M,M,M,M,M,M,M,M,M,75.00,KELY 190153Z AUTO 18004KT 10SM CLR 24/04 A3010 RMK AO2 SLP098 T02390044,M
VGT,2023-08-19 01:53,-115.1933,36.2111,667.00,78.00,64.00,62.12,180.00,16.00,0.01,29.93,1012.60,10.00,30.00,BKN,M,M,M,11000.00,M,M,M,-TSRA,M,M,M,36.00,200.00,2023-08-19 01:38,78.00,KVGT 190153Z 18016G30KT 10SM -TSRA BKN110 26/18 A2993 RMK AO2 PK WND 20036/0138 LTG DSNT ALQDS RAE18B38 TSE18B33 SLP126 P0001 T02560178,M
LOL,2023-08-19 01:53,-118.5701,40.0684,1192.43,86.00,44.00,23.05,280.00,22.00,0.00,29.89,1008.20,10.00,26.00,CLR,M,M,M,M,M,M,M,M,M,M,M,28.00,280.00,2023-08-19 01:34,83.03,KLOL 190153Z AUTO 28022G26KT 10SM CLR 30/07 A2989 RMK AO2 PK WND 28028/0134 SLP082 T03000067,M
BVU,2023-08-19 01:55,-114.8611,35.9475,671.00,75.20,60.80,60.90,250.00,7.00,0.00,29.96,M,9.00,M,SCT,BKN,OVC,M,3400.00,3900.00,4500.00,M,VCTS DZ,M,M,M,M,M,M,75.20,KBVU 190155Z AUTO 25007KT 9SM VCTS DZ SCT034 BKN039 OVC045 24/16 A2996 RMK AO2 LTG DSNT NE-S,M
CXP,2023-08-19 01:55,-119.7326,39.1923,1431.00,80.60,37.40,21.25,0.00,0.00,0.00,30.02,M,10.00,10.00,CLR,M,M,M,M,M,M,M,VCTS,M,M,M,M,M,M,79.02,KCXP 190155Z AUTO 00000G10KT 10SM VCTS CLR 27/03 A3002 RMK AO2 LTG DSNT S AND SW,M
RNO,2023-08-19 01:55,-119.7711,39.4839,1341.00,82.00,41.00,23.37,290.00,14.00,0.00,29.99,1010.00,10.00,M,FEW,BKN,M,M,10000.00,16000.00,M,M,M,M,M,M,M,M,M,80.04,KRNO 190155Z 29014KT 10SM FEW100 BKN160 28/05 A2999 RMK AO2 LTG DSNT S SLP100 CB DSNT SE THRU S T02780050,M
RTS,2023-08-19 01:55,-119.8764,39.6682,1539.00,75.20,39.20,27.26,290.00,12.00,0.00,30.06,M,10.00,18.00,CLR,M,M,M,M,M,M,M,M,M,M,M,M,M,M,75.20,KRTS 190155Z AUTO 29012G18KT 10SM CLR 24/04 A3006 RMK AO2,M
05U,2023-08-19 01:55,-116.0051,39.6042,1811.23,82.40,35.60,18.67,M,M,0.00,30.06,M,10.00,M,M,M,M,M,M,M,M,M,M,M,M,M,M,M,M,80.08,K05U 190155Z AUTO 10SM 28/02 A3006 RMK A01,M
MEV,2023-08-19 01:55,-119.7500,38.9963,1441.42,77.00,48.20,36.22,190.00,5.00,0.00,30.03,M,10.00,15.00,FEW,FEW,BKN,M,5500.00,7000.00,10000.00,M,VCTS RA,M,M,M,M,M,M,77.00,KMEV 190155Z AUTO 19005G15KT 10SM VCTS RA FEW055 FEW070 BKN100 25/09 A3003 RMK AO2 LTG DSNT ALQDS,M
HTH,2023-08-19 01:55,-118.6315,38.5448,1282.89,86.00,41.00,20.54,330.00,13.00,0.00,29.91,M,10.00,21.00,CLR,M,M,M,M,M,M,M,M,M,M,M,M,M,M,82.86,KHTH 190155Z AUTO 33013G21KT 10SM CLR 30/05 A2991 RMK A01,M
LSV,2023-08-19 01:55,-115.0343,36.2362,570.00,78.00,65.70,65.92,190.00,24.00,0.03,29.89,1009.80,9.00,31.00,FEW,FEW,FEW,M,3600.00,4400.00,6000.00,M,-TSRA,M,M,M,34.00,170.00,2023-08-19 01:40,78.00,KLSV 190155Z AUTO 19024G31KT 9SM -TSRA FEW036 FEW044 FEW060 26/19 A2989 RMK AO2 PK WND 17034/40 RAE02DZB02E08RAB08E28DZB28E31RAB42 TSE23TSB25 PRESRR SLP098 P0003 T02550187 $,M
BAM,2023-08-19 01:55,-116.8743,40.5990,1382.36,89.60,33.80,13.80,230.00,6.00,0.00,29.92,M,10.00,M,CLR,M,M,M,M,M,M,M,M,M,M,M,M,M,M,85.59,KBAM 190155Z AUTO 23006KT 10SM CLR 32/01 A2992 RMK AO1,M
TMT,2023-08-19 01:55,-117.1971,39.4643,1749.34,82.60,30.00,14.81,210.00,6.00,0.00,30.03,M,M,M,CLR,M,M,M,M,M,M,M,M,M,M,M,M,M,M,80.10,KTMT 190155Z AUTO 21006KT CLR 28/M01 A3003 RMK AO2 T02811012 PWINO,M
10U,2023-08-19 01:55,-116.1876,41.9532,1637.00,86.00,33.80,15.48,250.00,8.00,0.00,30.00,M,10.00,M,CLR,M,M,M,M,M,M,M,M,M,M,M,M,M,M,82.66,K10U 190155Z AUTO 25008KT 10SM CLR 30/01 A3000 RMK AO2,M
INS,2023-08-19 01:55,-115.6733,36.5872,955.00,87.00,50.70,28.73,120.00,17.00,0.00,29.88,1006.80,10.00,21.00,FEW,M,M,M,19000.00,M,M,M,M,M,M,M,26.00,130.00,2023-08-19 01:21,84.53,KINS 190155Z AUTO 12017G21KT 10SM FEW190 31/10 A2988 RMK AO2 PK WND 13026/21 LTG DSNT SE SLP068 T03050104 $,M
EKO,2023-08-19 01:56,-115.7860,40.8242,1367.00,84.00,44.00,24.58,330.00,4.00,0.00,29.97,1009.20,10.00,M,CLR,M,M,M,M,M,M,M,M,M,M,M,M,M,M,81.54,KEKO 190156Z AUTO 33004KT 10SM CLR 29/07 A2997 RMK AO2 LTG DSNT N SLP092 T02890067,M
WMC,2023-08-19 01:56,-117.8072,40.9019,1315.00,89.00,37.00,15.97,310.00,6.00,0.00,29.90,1007.10,10.00,M,CLR,M,M,M,M,M,M,M,M,M,M,M,M,M,M,85.15,KWMC 190156Z AUTO 31006KT 10SM CLR 32/03 A2990 RMK AO2 SLP071 T03170028,M
NFL,2023-08-19 01:56,-118.7010,39.4166,1199.00,89.00,41.00,18.68,290.00,9.00,0.00,29.89,1009.50,10.00,M,SCT,SCT,M,M,9000.00,15000.00,M,M,M,M,M,M,M,M,M,85.30,KNFL 190156Z 29009KT 10SM SCT090 SCT150 32/05 A2989 RMK AO2 SLP095 CB DSNT SW T03170050,M
HND,2023-08-19 01:56,-115.1344,35.9729,742.79,M,M,M,M,M,0.00,M,M,M,M,M,M,M,M,M,M,M,M,TS,M,M,M,M,M,M,M,KHND 190156Z TS RMK AO2 LTG DSNT ALQDS SLPNO $,M
TPH,2023-08-19 01:56,-117.0904,38.0505,1654.00,84.00,41.00,21.90,210.00,14.00,0.00,30.02,1009.10,10.00,M,CLR,M,M,M,M,M,M,M,M,M,M,M,M,M,M,81.37,KTPH 190156Z AUTO 21014KT 10SM CLR 29/05 A3002 RMK AO2 SLP091 T02890050,M
LAS,2023-08-19 01:56,-115.1634,36.0719,663.00,74.00,66.00,76.10,150.00,6.00,T,29.94,1011.50,10.00,M,FEW,BKN,BKN,OVC,9500.00,11000.00,15000.00,22000.00,-TSRA,M,M,M,40.00,170.00,2023-08-19 01:18,74.00,KLAS 190156Z 15006KT 10SM -TSRA FEW095 BKN110CB BKN150 OVC220 23/19 A2994 RMK AO2 PK WND 17040/0118 WSHFT 0112 LTG DSNT ALQDS RAB03 SLP115 FRQ LTGICCCCG OHD-ALQDS TS OHD-ALQDS MOV N P0000 T02330189,M
LSV,2023-08-19 01:56,-115.0343,36.2362,570.00,77.00,66.20,69.33,190.00,18.00,0.00,29.90,1010.10,10.00,31.00,FEW,FEW,SCT,M,3600.00,4600.00,6500.00,M,TS,M,M,M,M,M,M,77.00,KLSV 190156Z AUTO 19018G31KT 10SM TS FEW036 FEW046 SCT065 25/19 A2990 RMK AO2 RAE54 SLP101 $,M
LSV,2023-08-19 02:06,-115.0343,36.2362,570.00,75.20,66.20,73.61,170.00,19.00,0.00,29.93,1011.20,10.00,25.00,FEW,SCT,SCT,SCT,3400.00,4500.00,6000.00,7500.00,-TSRA,M,M,M,M,M,M,75.20,KLSV 190206Z AUTO 17019G25KT 10SM -TSRA FEW034 SCT045 SCT060 SCT075 24/19 A2993 RMK AO2 RAE0154RAB06 PRESRR SLP112 $,M
VGT,2023-08-19 02:07,-115.1933,36.2111,667.00,77.00,65.00,66.50,240.00,10.00,0.01,29.96,M,10.00,18.00,OVC,M,M,M,11000.00,M,M,M,VCTS -RA,M,M,M,M,M,M,77.00,KVGT 190207Z 24010G18KT 10SM VCTS -RA OVC110 25/18 A2996 RMK AO2 LTG DSNT ALQDS TSE01 PRESRR P0001 T02500183,M
LSV,2023-08-19 02:08,-115.0343,36.2362,570.00,75.20,66.20,73.61,170.00,16.00,0.00,29.93,1011.20,9.00,25.00,FEW,SCT,SCT,M,3400.00,4500.00,5500.00,M,-RA,M,M,M,M,M,M,75.20,KLSV 190208Z AUTO 17016G25KT 9SM -RA FEW034 SCT045 SCT055 24/19 A2993 RMK AO2 LTG DSNT W-E AND S RAE0154RAB06 TSE08 SLP112 $,M
05U,2023-08-19 02:10,-116.0051,39.6042,1811.23,80.60,35.60,19.79,M,M,0.00,30.06,M,10.00,M,M,M,M,M,M,M,M,M,M,M,M,M,M,M,M,78.94,K05U 190210Z AUTO 10SM 27/02 A3006 RMK A01,M
LSV,2023-08-19 02:11,-115.0343,36.2362,570.00,75.20,64.40,69.14,180.00,13.00,0.00,29.94,1011.60,9.00,33.00,FEW,SCT,BKN,BKN,3400.00,4500.00,5500.00,7000.00,-TSRA,M,M,M,M,M,M,75.20,KLSV 190211Z AUTO 18013G33KT 9SM -TSRA FEW034 SCT045 BKN055 BKN070 24/18 A2994 RMK AO2 RAE0154RAB06 TSE08TSB11 SLP116 $,M
BVU,2023-08-19 02:15,-114.8611,35.9475,671.00,75.20,64.40,69.14,40.00,12.00,0.00,29.97,M,6.00,M,FEW,BKN,OVC,M,2800.00,3500.00,11000.00,M,TSRA,M,M,M,M,M,M,75.20,KBVU 190215Z AUTO 04012KT 6SM TSRA FEW028 BKN035 OVC110 24/18 A2997 RMK AO2 LTG DSNT ALQDS,M
CXP,2023-08-19 02:15,-119.7326,39.1923,1431.00,80.60,39.20,22.81,0.00,0.00,0.00,30.03,M,10.00,M,SCT,M,M,M,11000.00,M,M,M,M,M,M,M,M,M,M,79.10,KCXP 190215Z AUTO 00000KT 10SM SCT110 27/04 A3003 RMK AO2,M
RTS,2023-08-19 02:15,-119.8764,39.6682,1539.00,75.20,39.20,27.26,260.00,15.00,0.00,30.06,M,10.00,M,CLR,M,M,M,M,M,M,M,M,M,M,M,M,M,M,75.20,KRTS 190215Z AUTO 26015KT 10SM CLR 24/04 A3006 RMK AO2,M
MEV,2023-08-19 02:15,-119.7500,38.9963,1441.42,69.80,48.20,46.16,290.00,9.00,0.00,30.02,M,10.00,16.00,FEW,SCT,OVC,M,5000.00,7000.00,10000.00,M,VCTS,M,M,M,M,M,M,69.80,KMEV 190215Z AUTO 29009G16KT 10SM VCTS FEW050 SCT070 OVC100 21/09 A3002 RMK AO2 LTG DSNT S-NW,M
BAM,2023-08-19 02:15,-116.8743,40.5990,1382.36,87.80,35.60,15.70,240.00,4.00,0.00,29.92,M,10.00,M,CLR,M,M,M,M,M,M,M,M,M,M,M,M,M,M,84.12,KBAM 190215Z AUTO 24004KT 10SM CLR 31/02 A2992 RMK AO1,M
HTH,2023-08-19 02:15,-118.6315,38.5448,1282.89,86.00,39.20,19.15,320.00,13.00,0.00,29.92,M,10.00,19.00,CLR,M,M,M,M,M,M,M,M,M,M,M,M,M,M,82.79,KHTH 190215Z AUTO 32013G19KT 10SM CLR 30/04 A2992 RMK A01,M
10U,2023-08-19 02:15,-116.1876,41.9532,1637.00,84.20,32.00,15.25,290.00,8.00,0.00,30.00,M,10.00,M,CLR,M,M,M,M,M,M,M,M,M,M,M,M,M,M,81.28,K10U 190215Z AUTO 29008KT 10SM CLR 29/00 A3000 RMK AO2,M
TMT,2023-08-19 02:15,-117.1971,39.4643,1749.34,79.50,31.50,17.41,190.00,5.00,0.00,30.03,M,M,M,CLR,M,M,M,M,M,M,M,M,M,M,M,M,M,M,79.50,KTMT 190215Z AUTO 19005KT CLR 26/00 A3003 RMK AO2 T02641003 PWINO,M
VGT,2023-08-19 02:20,-115.1933,36.2111,667.00,76.00,65.00,68.74,80.00,17.00,0.03,29.92,M,9.00,M,OVC,M,M,M,11000.00,M,M,M,-RA,M,M,M,M,M,M,76.00,KVGT 190220Z 08017KT 9SM -RA OVC110 24/18 A2992 RMK AO2 LTG DSNT NE AND E TSE01 P0003 T02440183,M
HND,2023-08-19 02:22,-115.1344,35.9729,742.79,M,M,M,M,M,0.00,M,M,M,M,M,M,M,M,M,M,M,M,M,M,M,M,M,M,M,M,KHND 190222Z RMK AO2 LTG DSNT NE-SE TSE16 $,M
LAS,2023-08-19 02:24,-115.1634,36.0719,663.00,76.00,63.00,64.09,180.00,10.00,0.03,29.92,M,10.00,23.00,FEW,BKN,BKN,OVC,9500.00,11000.00,15000.00,22000.00,-TSRA,M,M,M,27.00,80.00,2023-08-19 02:12,76.00,KLAS 190224Z 18010G23KT 10SM -TSRA FEW095 BKN110CB BKN150 OVC220 24/17 A2992 RMK AO2 PK WND 08027/0212 WSHFT 0204 LTG DSNT NE-SE OCNL LTGICCCCG OHD-N-E-S TS OHD-N-E-S MOV N P0003 T02440172,M
LSV,2023-08-19 02:26,-115.0343,36.2362,570.00,73.40,66.20,78.19,180.00,5.00,0.00,29.96,1012.40,9.00,M,FEW,FEW,SCT,M,3600.00,4600.00,5500.00,M,-RA,M,M,M,M,M,M,73.40,KLSV 190226Z AUTO 18005KT 9SM -RA FEW036 FEW046 SCT055 23/19 A2996 RMK AO2 LTG DSNT S RAE0154RAB06 TSE08TSB11E26 PRESRR SLP124 $,M
BVU,2023-08-19 02:35,-114.8611,35.9475,671.00,73.40,66.20,78.19,110.00,17.00,0.00,30.00,M,8.00,M,SCT,BKN,OVC,M,3200.00,4900.00,11000.00,M,VCTS RA,M,M,M,M,M,M,73.40,KBVU 190235Z AUTO 11017KT 8SM VCTS RA SCT032 BKN049 OVC110 23/19 A3000 RMK AO2 LTG DSNT SE AND S AND NW,M
CXP,2023-08-19 02:35,-119.7326,39.1923,1431.00,78.80,41.00,25.95,240.00,10.00,0.00,30.03,M,10.00,16.00,FEW,BKN,M,M,9500.00,12000.00,M,M,M,M,M,M,M,M,M,78.80,KCXP 190235Z AUTO 24010G16KT 200V270 10SM FEW095 BKN120 26/05 A3003 RMK AO2,M
RTS,2023-08-19 02:35,-119.8764,39.6682,1539.00,73.40,41.00,31.05,300.00,10.00,0.00,30.06,M,10.00,15.00,CLR,M,M,M,M,M,M,M,M,M,M,M,M,M,M,73.40,KRTS 190235Z AUTO 30010G15KT 10SM CLR 23/05 A3006 RMK AO2,M
05U,2023-08-19 02:35,-116.0051,39.6042,1811.23,77.00,35.60,22.28,M,M,0.00,30.07,M,10.00,M,M,M,M,M,M,M,M,M,M,M,M,M,M,M,M,77.00,K05U 190235Z AUTO 10SM 25/02 A3007 RMK A01,M
MEV,2023-08-19 02:35,-119.7500,38.9963,1441.42,68.00,48.20,49.10,270.00,12.00,0.00,30.02,M,10.00,17.00,FEW,FEW,SCT,M,4600.00,6500.00,9500.00,M,M,M,M,M,M,M,M,68.00,KMEV 190235Z AUTO 27012G17KT 10SM FEW046 FEW065 SCT095 20/09 A3002 RMK AO2,M
BAM,2023-08-19 02:35,-116.8743,40.5990,1382.36,86.00,33.80,15.48,260.00,6.00,0.00,29.93,M,10.00,M,CLR,M,M,M,M,M,M,M,M,M,M,M,M,M,M,82.66,KBAM 190235Z AUTO 26006KT 10SM CLR 30/01 A2993 RMK AO1,M
HTH,2023-08-19 02:35,-118.6315,38.5448,1282.89,84.20,39.20,20.29,320.00,15.00,0.00,29.91,M,10.00,20.00,CLR,M,M,M,M,M,M,M,M,M,M,M,M,M,M,81.44,KHTH 190235Z AUTO 32015G20KT 10SM CLR 29/04 A2991 RMK A01,M
10U,2023-08-19 02:35,-116.1876,41.9532,1637.00,80.60,33.80,18.42,270.00,5.00,0.00,30.00,M,10.00,M,CLR,M,M,M,M,M,M,M,M,M,M,M,M,M,M,78.88,K10U 190235Z AUTO 27005KT 10SM CLR 27/01 A3000 RMK AO2,M
TMT,2023-08-19 02:35,-117.1971,39.4643,1749.34,74.70,30.40,19.53,190.00,9.00,0.00,30.03,M,M,M,CLR,M,M,M,M,M,M,M,M,M,M,M,M,M,M,74.70,KTMT 190235Z AUTO 19009KT CLR 24/M01 A3003 RMK AO2 T02371009 PWINO,M
VGT,2023-08-19 02:37,-115.1933,36.2111,667.00,77.00,65.00,66.50,220.00,16.00,0.03,29.95,M,10.00,31.00,FEW,OVC,M,M,9000.00,11000.00,M,M,-RA,M,M,M,33.00,80.00,2023-08-19 02:26,77.00,KVGT 190237Z 22016G31KT 10SM -RA FEW090 OVC110 25/18 A2995 RMK AO2 PK WND 08033/0226 WSHFT 0217 LTG DSNT NE-S TSE01 P0003 T02500183,M
05U,2023-08-19 02:50,-116.0051,39.6042,1811.23,75.20,35.60,23.66,M,M,0.00,30.07,M,10.00,M,M,M,M,M,M,M,M,M,M,M,M,M,M,M,M,75.20,K05U 190250Z AUTO 10SM 24/02 A3007 RMK A01,M
P68,2023-08-19 02:53,-116.0056,39.6014,1993.00,74.00,37.00,26.03,190.00,5.00,0.00,30.05,1009.30,M,M,M,M,M,M,M,M,M,M,M,M,M,M,M,M,M,74.00,KP68 190253Z AUTO 19005KT 23/03 A3005 RMK AO1 SLP093 T02330028 55002,M
DRA,2023-08-19 02:53,-116.0278,36.6206,1009.00,88.00,52.00,29.21,90.00,19.00,0.00,29.89,1006.80,10.00,26.00,CLR,M,M,M,M,M,M,M,M,M,M,M,26.00,80.00,2023-08-19 02:49,85.60,KDRA 190253Z AUTO 09019G26KT 10SM CLR 31/11 A2989 RMK AO2 PK WND 08026/0249 SLP068 T03110111 53003,M
ELY,2023-08-19 02:53,-114.8453,39.2950,1909.00,72.00,42.00,33.84,150.00,14.00,0.00,30.11,1009.20,10.00,20.00,CLR,M,M,M,M,M,M,M,M,M,M,M,M,M,M,72.00,KELY 190253Z AUTO 15014G20KT 10SM CLR 22/06 A3011 RMK AO2 SLP092 T02220056 55002,M
VGT,2023-08-19 02:53,-115.1933,36.2111,667.00,79.00,63.00,58.04,150.00,18.00,0.03,29.98,1014.30,10.00,29.00,BKN,M,M,M,11000.00,M,M,M,-RA,M,M,M,33.00,80.00,2023-08-19 02:26,79.00,KVGT 190253Z 15018G29KT 10SM -RA BKN110 26/17 A2998 RMK AO2 PK WND 08033/0226 WSHFT 0235 LTG DSNT SE TSE01 SLP143 P0003 60010 T02610172 53038,M
LOL,2023-08-19 02:53,-118.5701,40.0684,1192.43,83.00,43.00,24.44,290.00,15.00,0.00,29.89,1008.00,10.00,M,CLR,M,M,M,M,M,M,M,M,M,M,M,26.00,280.00,2023-08-19 01:56,80.79,KLOL 190253Z AUTO 29015KT 10SM CLR 28/06 A2989 RMK AO2 PK WND 28026/0156 SLP080 T02830061 55001,M
BVU,2023-08-19 02:55,-114.8611,35.9475,671.00,73.40,66.20,78.19,80.00,16.00,0.00,30.01,M,9.00,M,FEW,SCT,OVC,M,2900.00,3400.00,4000.00,M,-RA,M,M,M,M,M,M,73.40,KBVU 190255Z AUTO 08016KT 9SM -RA FEW029 SCT034 OVC040 23/19 A3001 RMK AO2 LTG DSNT NE-SE,M
CXP,2023-08-19 02:55,-119.7326,39.1923,1431.00,77.00,39.20,25.67,270.00,10.00,0.00,30.02,M,10.00,M,FEW,SCT,BKN,M,3800.00,10000.00,12000.00,M,M,M,M,M,M,M,M,77.00,KCXP 190255Z AUTO 27010KT 10SM FEW038 SCT100 BKN120 25/04 A3002 RMK AO2 LTG DSNT SE AND SW,M
INS,2023-08-19 02:55,-115.6733,36.5872,955.00,82.80,53.00,35.79,120.00,22.00,0.00,29.92,1008.00,10.00,31.00,FEW,FEW,M,M,19000.00,21000.00,M,M,M,M,M,M,36.00,90.00,2023-08-19 02:40,81.64,KINS 190255Z AUTO 12022G31KT 10SM FEW190 FEW210 28/12 A2992 RMK AO2 PK WND 09036/40 SLP080 T02820117 53011 $,M
RNO,2023-08-19 02:55,-119.7711,39.4839,1341.00,79.00,42.00,26.79,300.00,8.00,0.00,30.00,1010.40,10.00,M,FEW,SCT,BKN,M,9000.00,13000.00,20000.00,M,M,M,M,M,M,M,M,79.00,KRNO 190255Z 30008KT 10SM FEW090 SCT130 BKN200 26/06 A3000 RMK AO2 LTG DSNT S SLP104 T02610056 53001,M
RTS,2023-08-19 02:55,-119.8764,39.6682,1539.00,73.40,41.00,31.05,290.00,8.00,0.00,30.07,M,10.00,M,CLR,M,M,M,M,M,M,M,M,M,M,M,M,M,M,73.40,KRTS 190255Z AUTO 29008KT 10SM CLR 23/05 A3007 RMK AO2,M
MEV,2023-08-19 02:55,-119.7500,38.9963,1441.42,64.40,51.80,63.60,180.00,5.00,0.00,30.02,M,10.00,M,BKN,M,M,M,11000.00,M,M,M,VCTS,M,M,M,M,M,M,64.40,KMEV 190255Z AUTO 18005KT 10SM VCTS BKN110 18/11 A3002 RMK AO2 LTG DSNT SE AND W,M
HTH,2023-08-19 02:55,-118.6315,38.5448,1282.89,84.20,39.20,20.29,340.00,14.00,0.00,29.92,M,10.00,M,CLR,M,M,M,M,M,M,M,M,M,M,M,M,M,M,81.44,KHTH 190255Z AUTO 34014KT 10SM CLR 29/04 A2992 RMK A01,M
10U,2023-08-19 02:55,-116.1876,41.9532,1637.00,77.00,33.80,20.74,280.00,4.00,0.00,30.01,M,10.00,M,CLR,M,M,M,M,M,M,M,M,M,M,M,M,M,M,77.00,K10U 190255Z AUTO 28004KT 10SM CLR 25/01 A3001 RMK AO2,M
LSV,2023-08-19 02:55,-115.0343,36.2362,570.00,74.70,66.00,74.33,40.00,21.00,0.10,29.93,1011.20,7.00,M,CLR,M,M,M,M,M,M,M,RA,M,M,M,33.00,170.00,2023-08-19 02:08,74.70,KLSV 190255Z AUTO 04021KT 7SM RA CLR 24/19 A2993 RMK AO2 PK WND 17033/08 RAE0154RAB06 TSE08TSB11E26 PRESFR SLP112 P0010 60013 T02370188 53040 $,M
BAM,2023-08-19 02:55,-116.8743,40.5990,1382.36,82.40,32.00,16.17,250.00,6.00,0.00,29.93,M,10.00,M,CLR,M,M,M,M,M,M,M,M,M,M,M,M,M,M,80.00,KBAM 190255Z AUTO 25006KT 10SM CLR 28/00 A2993 RMK AO1,M
TMT,2023-08-19 02:55,-117.1971,39.4643,1749.34,70.00,37.20,30.04,220.00,7.00,0.00,30.05,M,M,M,CLR,M,M,M,M,M,M,M,M,M,M,M,M,M,M,70.00,KTMT 190255Z AUTO 22007KT CLR 21/03 A3005 RMK AO2 T02120029 PWINO,M
EKO,2023-08-19 02:56,-115.7860,40.8242,1367.00,80.00,44.00,27.99,90.00,4.00,0.00,29.97,1009.20,10.00,M,CLR,M,M,M,M,M,M,M,M,M,M,M,M,M,M,79.06,KEKO 190256Z AUTO 09004KT 10SM CLR 27/07 A2997 RMK AO2 SLP092 T02670067 53001,M
WMC,2023-08-19 02:56,-117.8072,40.9019,1315.00,78.00,37.00,22.79,290.00,8.00,0.00,29.91,1007.70,10.00,M,CLR,M,M,M,M,M,M,M,M,M,M,M,M,M,M,78.00,KWMC 190256Z AUTO 29008KT 10SM CLR 26/03 A2991 RMK AO2 SLP077 T02560028 55000,M
NFL,2023-08-19 02:56,-118.7010,39.4166,1199.00,83.00,43.00,24.44,290.00,12.00,0.00,29.91,1010.10,10.00,M,SCT,SCT,M,M,9000.00,18000.00,M,M,M,M,M,M,M,M,M,80.79,KNFL 190256Z 29012KT 10SM SCT090 SCT180 28/06 A2991 RMK AO2 SLP101 CB DSNT W T02830061 53002,M
HND,2023-08-19 02:56,-115.1344,35.9729,742.79,M,M,M,M,M,0.00,M,M,M,M,M,M,M,M,M,M,M,M,M,M,M,M,M,M,M,M,KHND 190256Z AUTO RMK AO2 LTG DSNT E TSE16 SLPNO 6//// PWINO FZRANO $,M
TPH,2023-08-19 02:56,-117.0904,38.0505,1654.00,78.00,35.00,21.05,210.00,6.00,0.00,30.04,1009.30,10.00,M,CLR,M,M,M,M,M,M,M,M,M,M,M,M,M,M,78.00,KTPH 190256Z AUTO 21006KT 10SM CLR 26/02 A3004 RMK AO2 SLP093 T02560017 55000,M
LAS,2023-08-19 02:56,-115.1634,36.0719,663.00,73.00,64.00,73.40,80.00,24.00,0.03,29.95,1011.80,9.00,29.00,FEW,BKN,BKN,OVC,9500.00,11000.00,15000.00,22000.00,-TSRA,M,M,M,29.00,80.00,2023-08-19 02:56,73.00,KLAS 190256Z 08024G29KT 9SM -TSRA FEW095 BKN110CB BKN150 OVC220 23/18 A2995 RMK AO2 PK WND 08029/0256 WSHFT 0204 LTG DSNT E AND SE SLP118 OCNL LTGICCCCG OHD-N-E-S TS OHD-N-E-S MOV N P0003 60003 T02280178 51029,M
LSV,2023-08-19 02:57,-115.0343,36.2362,570.00,75.20,66.20,73.61,40.00,25.00,0.00,29.93,1011.20,8.00,M,CLR,M,M,M,M,M,M,M,M,M,M,M,M,M,M,75.20,KLSV 190257Z AUTO 04025KT 8SM CLR 24/19 A2993 RMK AO2 LTG DSNT SE RAE57 SLP112 $,M
LSV,2023-08-19 02:58,-115.0343,36.2362,570.00,75.20,66.20,73.61,40.00,22.00,0.00,29.93,1011.20,8.00,M,CLR,M,M,M,M,M,M,M,-RA,M,M,M,M,M,M,75.20,KLSV 190258Z AUTO 04022KT 8SM -RA CLR 24/19 A2993 RMK AO2 LTG DSNT SE RAE57RAB58 SLP112 $,M
VGT,2023-08-19 03:02,-115.1933,36.2111,667.00,77.00,62.00,59.85,80.00,19.00,T,29.93,M,10.00,26.00,FEW,OVC,M,M,9000.00,11000.00,M,M,-RA,M,M,M,26.00,80.00,2023-08-19 02:59,77.00,KVGT 190302Z 08019G26KT 10SM -RA FEW090 OVC110 25/17 A2993 RMK AO2 PK WND 08026/0259 WSHFT 0242 LTG DSNT SE PRESFR P0000 T02500167,M
LSV,2023-08-19 03:04,-115.0343,36.2362,570.00,75.20,66.20,73.61,70.00,13.00,0.00,29.96,1012.30,9.00,19.00,CLR,M,M,M,M,M,M,M,M,M,M,M,M,M,M,75.20,KLSV 190304Z AUTO 07013G19KT 9SM CLR 24/19 A2996 RMK AO2 LTG DSNT E-SE RAE0257RAB0258E04 PRESRR SLP123 $,M
LAS,2023-08-19 03:05,-115.1634,36.0719,663.00,74.00,63.00,68.53,90.00,17.00,0.01,29.93,M,10.00,33.00,FEW,BKN,BKN,OVC,9500.00,11000.00,15000.00,22000.00,-TSRA,M,M,M,33.00,80.00,2023-08-19 03:00,74.00,KLAS 190305Z 09017G33KT 10SM -TSRA FEW095 BKN110CB BKN150 OVC220 23/17 A2993 RMK AO2 PK WND 08033/0300 WSHFT 0245 LTG DSNT NE PRESFR OCNL LTGICCCCG E-S TS E-S MOV N P0001 T02330172,M
LSV,2023-08-19 03:05,-115.0343,36.2362,570.00,75.20,66.20,73.61,80.00,14.00,0.00,29.97,1012.60,9.00,19.00,CLR,M,M,M,M,M,M,M,M,M,M,M,M,M,M,75.20,KLSV 190305Z AUTO 08014G19KT 9SM CLR 24/19 A2997 RMK AO2 WSHFT 0251 LTG DSNT E-SE RAE0257RAB0258E04 SLP126 $,M
LSV,2023-08-19 03:08,-115.0343,36.2362,570.00,75.20,66.20,73.61,90.00,18.00,0.00,29.98,1013.00,10.00,21.00,CLR,M,M,M,M,M,M,M,-RA,M,M,M,M,M,M,75.20,KLSV 190308Z AUTO 09018G21KT 10SM -RA CLR 24/19 A2998 RMK AO2 LTG DSNT E-SE RAE0257RAB0258E04RAB08 SLP130 $,M
VGT,2023-08-19 03:09,-115.1933,36.2111,667.00,77.00,62.00,59.85,110.00,12.00,0.01,29.96,M,10.00,21.00,BKN,M,M,M,11000.00,M,M,M,-RA,M,M,M,26.00,80.00,2023-08-19 02:59,77.00,KVGT 190309Z 11012G21KT 10SM -RA BKN110 25/17 A2996 RMK AO2 PK WND 08026/0259 WSHFT 0249 LTG DSNT E P0001 T02500167,M
05U,2023-08-19 03:10,-116.0051,39.6042,1811.23,71.60,35.60,26.71,M,M,0.00,30.08,M,10.00,M,M,M,M,M,M,M,M,M,M,M,M,M,M,M,M,71.60,K05U 190310Z AUTO 10SM 22/02 A3008 RMK A01,M
LSV,2023-08-19 03:14,-115.0343,36.2362,570.00,75.20,62.60,64.91,80.00,20.00,0.00,29.96,1012.30,9.00,23.00,CLR,M,M,M,M,M,M,M,M,M,M,M,M,M,M,75.20,KLSV 190314Z AUTO 08020G23KT 9SM CLR 24/17 A2996 RMK AO2 LTG DSNT E RAE0257RAB0258E04RAB08E14 PRESFR SLP123 $,M
BVU,2023-08-19 03:15,-114.8611,35.9475,671.00,71.60,66.20,83.09,60.00,21.00,0.00,29.98,M,7.00,M,BKN,OVC,M,M,3300.00,4000.00,M,M,RA,M,M,M,M,M,M,71.60,KBVU 190315Z AUTO 06021KT 7SM RA BKN033 OVC040 22/19 A2998 RMK AO2 LTG DSNT NE-S,M
CXP,2023-08-19 03:15,-119.7326,39.1923,1431.00,77.00,39.20,25.67,M,4.00,0.00,30.03,M,10.00,M,CLR,M,M,M,M,M,M,M,M,M,M,M,M,M,M,77.00,KCXP 190315Z AUTO VRB04KT 10SM CLR 25/04 A3003 RMK AO2,M
RTS,2023-08-19 03:15,-119.8764,39.6682,1539.00,71.60,41.00,33.00,310.00,8.00,0.00,30.08,M,10.00,M,CLR,M,M,M,M,M,M,M,M,M,M,M,M,M,M,71.60,KRTS 190315Z AUTO 31008KT 10SM CLR 22/05 A3008 RMK AO2,M
MEV,2023-08-19 03:15,-119.7500,38.9963,1441.42,64.40,53.60,67.95,120.00,5.00,0.00,30.03,M,10.00,M,BKN,M,M,M,11000.00,M,M,M,M,M,M,M,M,M,M,64.40,KMEV 190315Z AUTO 12005KT 10SM BKN110 18/12 A3003 RMK AO2,M
BAM,2023-08-19 03:15,-116.8743,40.5990,1382.36,80.60,32.00,17.14,250.00,5.00,0.00,29.94,M,10.00,M,CLR,M,M,M,M,M,M,M,M,M,M,M,M,M,M,78.82,KBAM 190315Z AUTO 25005KT 10SM CLR 27/00 A2994 RMK AO1,M
HTH,2023-08-19 03:15,-118.6315,38.5448,1282.89,82.40,39.20,21.51,330.00,8.00,0.00,29.94,M,10.00,M,CLR,M,M,M,M,M,M,M,M,M,M,M,M,M,M,80.21,KHTH 190315Z AUTO 33008KT 10SM CLR 28/04 A2994 RMK A01,M
10U,2023-08-19 03:15,-116.1876,41.9532,1637.00,73.40,33.80,23.39,300.00,5.00,0.00,30.01,M,10.00,M,CLR,M,M,M,M,M,M,M,M,M,M,M,M,M,M,73.40,K10U 190315Z AUTO 30005KT 10SM CLR 23/01 A3001 RMK AO2,M
TMT,2023-08-19 03:15,-117.1971,39.4643,1749.34,67.00,37.40,33.57,220.00,5.00,0.00,30.05,M,M,M,CLR,M,M,M,M,M,M,M,M,M,M,M,M,M,M,67.00,KTMT 190315Z AUTO 22005KT CLR 19/03 A3005 RMK AO2 T01940030 PWINO,M
LSV,2023-08-19 03:18,-115.0343,36.2362,570.00,75.20,62.60,64.91,80.00,19.00,0.00,29.97,1012.60,9.00,M,CLR,M,M,M,M,M,M,M,-RA,M,M,M,M,M,M,75.20,KLSV 190318Z AUTO 08019KT 9SM -RA CLR 24/17 A2997 RMK AO2 LTG DSNT NE RAE0257RAB0258E04RAB08E14RAB18 SLP126 $,M
LSV,2023-08-19 03:24,-115.0343,36.2362,570.00,73.40,64.40,73.44,80.00,22.00,0.00,29.97,1012.60,10.00,25.00,CLR,M,M,M,M,M,M,M,M,M,M,M,M,M,M,73.40,KLSV 190324Z AUTO 08022G25KT 10SM CLR 23/18 A2997 RMK AO2 LTG DSNT NE RAE0257RAB0258E04RAB08E14RAB18E24 SLP126 $,M
LSV,2023-08-19 03:25,-115.0343,36.2362,570.00,73.40,64.40,73.44,80.00,20.00,0.00,29.97,1012.60,10.00,26.00,CLR,M,M,M,M,M,M,M,-RA,M,M,M,M,M,M,73.40,KLSV 190325Z AUTO 08020G26KT 10SM -RA CLR 23/18 A2997 RMK AO2 LTG DSNT NE RAE0257RAB0258E04RAB08E14RAB18E24RAB25 SLP126 $,M
BVU,2023-08-19 03:35,-114.8611,35.9475,671.00,71.60,66.20,83.09,40.00,21.00,0.00,29.93,M,7.00,32.00,SCT,BKN,OVC,M,3300.00,4600.00,12000.00,M,-RA,M,M,M,M,M,M,71.60,KBVU 190335Z AUTO 04021G32KT 7SM -RA SCT033 BKN046 OVC120 22/19 A2993 RMK AO2 LTG DSNT NE-S,M
CXP,2023-08-19 03:35,-119.7326,39.1923,1431.00,77.00,35.60,22.28,310.00,10.00,0.00,30.03,M,10.00,17.00,FEW,M,M,M,11000.00,M,M,M,M,M,M,M,M,M,M,77.00,KCXP 190335Z AUTO 31010G17KT 10SM FEW110 25/02 A3003 RMK AO2,M
RTS,2023-08-19 03:35,-119.8764,39.6682,1539.00,69.80,41.00,35.09,300.00,4.00,0.00,30.07,M,10.00,M,CLR,M,M,M,M,M,M,M,M,M,M,M,M,M,M,69.80,KRTS 190335Z AUTO 30004KT 10SM CLR 21/05 A3007 RMK AO2,M
05U,2023-08-19 03:35,-116.0051,39.6042,1811.23,69.80,37.40,30.49,M,M,0.00,30.08,M,10.00,M,M,M,M,M,M,M,M,M,M,M,M,M,M,M,M,69.80,K05U 190335Z AUTO 10SM 21/03 A3008 RMK A01,M
MEV,2023-08-19 03:35,-119.7500,38.9963,1441.42,64.40,53.60,67.95,120.00,9.00,0.00,30.04,M,10.00,M,SCT,SCT,OVC,M,5500.00,8000.00,11000.00,M,M,M,M,M,M,M,M,64.40,KMEV 190335Z AUTO 12009KT 10SM SCT055 SCT080 OVC110 18/12 A3004 RMK AO2 LTG DSNT S,M
BAM,2023-08-19 03:35,-116.8743,40.5990,1382.36,77.00,32.00,19.30,150.00,4.00,0.00,29.95,M,10.00,M,CLR,M,M,M,M,M,M,M,M,M,M,M,M,M,M,77.00,KBAM 190335Z AUTO 15004KT 10SM CLR 25/00 A2995 RMK AO1,M
HTH,2023-08-19 03:35,-118.6315,38.5448,1282.89,82.40,39.20,21.51,340.00,5.00,0.00,29.94,M,10.00,M,CLR,M,M,M,M,M,M,M,M,M,M,M,M,M,M,80.21,KHTH 190335Z AUTO 34005KT 10SM CLR 28/04 A2994 RMK A01,M
10U,2023-08-19 03:35,-116.1876,41.9532,1637.00,73.40,33.80,23.39,350.00,4.00,0.00,30.02,M,10.00,M,SCT,M,M,M,12000.00,M,M,M,M,M,M,M,M,M,M,73.40,K10U 190335Z AUTO 35004KT 10SM SCT120 23/01 A3002 RMK AO2,M
TMT,2023-08-19 03:35,-117.1971,39.4643,1749.34,63.00,36.70,37.54,240.00,8.00,0.00,30.05,M,M,M,CLR,M,M,M,M,M,M,M,M,M,M,M,M,M,M,63.00,KTMT 190335Z AUTO 24008KT CLR 17/03 A3005 RMK AO2 T01720026 PWINO,M
LSV,2023-08-19 03:45,-115.0343,36.2362,570.00,73.40,66.20,78.19,40.00,26.00,0.00,29.93,1011.20,5.00,M,FEW,SCT,M,M,3400.00,4700.00,M,M,-RA,M,M,M,M,M,M,73.40,KLSV 190345Z AUTO 04026KT 5SM -RA FEW034 SCT047 23/19 A2993 RMK AO2 WSHFT 30 LTG DSNT SE RAE0257RAB0258E04RAB08E14RAB18E24RAB25 PRESFR SLP112 $,M
LSV,2023-08-19 03:48,-115.0343,36.2362,570.00,73.40,68.00,83.21,40.00,26.00,0.00,29.92,1010.90,6.00,M,FEW,SCT,M,M,3400.00,4700.00,M,M,HZ,M,M,M,M,M,M,73.40,KLSV 190348Z AUTO 04026KT 6SM HZ FEW034 SCT047 23/20 A2992 RMK AO2 LTG DSNT SE RAE0257RAB0258E04RAB08E14RAB18E24RAB25E48 SLP109 $,M
05U,2023-08-19 03:50,-116.0051,39.6042,1811.23,68.00,37.40,32.43,M,M,0.00,30.10,M,10.00,M,M,M,M,M,M,M,M,M,M,M,M,M,M,M,M,68.00,K05U 190350Z AUTO 10SM 20/03 A3010 RMK A01,M
LSV,2023-08-19 03:52,-115.0343,36.2362,570.00,71.60,68.00,88.43,40.00,23.00,0.00,29.93,1011.20,9.00,M,FEW,M,M,M,4600.00,M,M,M,-RA,M,M,M,M,M,M,71.60,KLSV 190352Z AUTO 04023KT 9SM -RA FEW046 22/20 A2993 RMK AO2 LTG DSNT SE RAE0257RAB0258E04RAB08E14RAB18E24RAB25E48RAB52 SLP112 $,M
P68,2023-08-19 03:53,-116.0056,39.6014,1993.00,67.00,36.00,31.76,M,4.00,0.00,30.07,1009.90,M,M,M,M,M,M,M,M,M,M,M,M,M,M,M,M,M,67.00,KP68 190353Z AUTO VRB04KT 19/02 A3007 RMK AO1 SLP099 T01940022,M
DRA,2023-08-19 03:53,-116.0278,36.6206,1009.00,85.00,52.00,32.14,90.00,17.00,0.00,29.91,1007.60,10.00,26.00,CLR,M,M,M,M,M,M,M,M,M,M,M,34.00,90.00,2023-08-19 02:59,83.11,KDRA 190353Z AUTO 09017G26KT 10SM CLR 29/11 A2991 RMK AO2 PK WND 09034/0259 SLP076 T02940111,M
ELY,2023-08-19 03:53,-114.8453,39.2950,1909.00,72.00,45.00,37.96,150.00,11.00,0.00,30.14,1009.60,10.00,M,CLR,M,M,M,M,M,M,M,M,M,M,M,M,M,M,72.00,KELY 190353Z AUTO 15011KT 10SM CLR 22/07 A3014 RMK AO2 SLP096 T02220072,M
VGT,2023-08-19 03:53,-115.1933,36.2111,667.00,79.00,58.00,48.59,0.00,0.00,0.01,29.99,1014.70,10.00,M,FEW,M,M,M,11000.00,M,M,M,M,M,M,M,27.00,90.00,2023-08-19 03:15,79.00,KVGT 190353Z 00000KT 10SM FEW110 26/14 A2999 RMK AO2 PK WND 09027/0315 WSHFT 0249 RAE52 SLP147 P0001 T02610144,M
LOL,2023-08-19 03:53,-118.5701,40.0684,1192.43,80.00,42.00,25.93,320.00,19.00,0.00,29.91,1008.50,10.00,22.00,CLR,M,M,M,M,M,M,M,M,M,M,M,M,M,M,78.92,KLOL 190353Z AUTO 32019G22KT 10SM CLR 27/06 A2991 RMK AO2 SLP085 T02670056,M
BVU,2023-08-19 03:55,-114.8611,35.9475,671.00,71.60,64.40,78.04,40.00,17.00,0.00,29.99,M,10.00,26.00,FEW,FEW,SCT,M,4500.00,6500.00,9000.00,M,VCTS,M,M,M,M,M,M,71.60,KBVU 190355Z AUTO 04017G26KT 10SM VCTS FEW045 FEW065 SCT090 22/18 A2999 RMK AO2 LTG DSNT E-S,M
CXP,2023-08-19 03:55,-119.7326,39.1923,1431.00,75.20,39.20,27.26,300.00,7.00,0.00,30.04,M,10.00,M,FEW,BKN,M,M,8000.00,11000.00,M,M,M,M,M,M,M,M,M,75.20,KCXP 190355Z AUTO 30007KT 10SM FEW080 BKN110 24/04 A3004 RMK AO2,M
INS,2023-08-19 03:55,-115.6733,36.5872,955.00,79.30,52.00,38.67,120.00,23.00,0.00,29.96,1009.60,10.00,35.00,SCT,OVC,M,M,13000.00,19000.00,M,M,M,M,M,M,38.00,100.00,2023-08-19 03:41,79.30,KINS 190355Z AUTO 12023G35KT 10SM SCT130 OVC190 26/11 A2996 RMK AO2 PK WND 10038/41 SLP096 T02630112 $,M
RNO,2023-08-19 03:55,-119.7711,39.4839,1341.00,78.00,41.00,26.64,340.00,10.00,0.00,30.00,1010.30,10.00,22.00,FEW,SCT,BKN,M,9000.00,13000.00,18000.00,M,M,M,M,M,M,M,M,78.00,KRNO 190355Z 34010G22KT 10SM FEW090 SCT130 BKN180 26/05 A3000 RMK AO2 SLP103 T02560050,M
RTS,2023-08-19 03:55,-119.8764,39.6682,1539.00,69.80,39.20,32.72,250.00,6.00,0.00,30.08,M,10.00,M,CLR,M,M,M,M,M,M,M,M,M,M,M,M,M,M,69.80,KRTS 190355Z AUTO 25006KT 10SM CLR 21/04 A3008 RMK AO2,M
MEV,2023-08-19 03:55,-119.7500,38.9963,1441.42,62.60,55.40,77.29,160.00,7.00,0.00,30.06,M,10.00,M,FEW,BKN,OVC,M,3000.00,5500.00,9000.00,M,-RA,M,M,M,M,M,M,62.60,KMEV 190355Z AUTO 16007KT 10SM -RA FEW030 BKN055 OVC090 17/13 A3006 RMK AO2 LTG DSNT S,M
BAM,2023-08-19 03:55,-116.8743,40.5990,1382.36,71.60,33.80,24.86,100.00,4.00,0.00,29.95,M,10.00,M,CLR,M,M,M,M,M,M,M,M,M,M,M,M,M,M,71.60,KBAM 190355Z AUTO 10004KT 10SM CLR 22/01 A2995 RMK AO1,M
HTH,2023-08-19 03:55,-118.6315,38.5448,1282.89,80.60,41.00,24.46,0.00,0.00,0.00,29.96,M,10.00,M,CLR,M,M,M,M,M,M,M,M,M,M,M,M,M,M,79.20,KHTH 190355Z AUTO 00000KT 10SM CLR 27/05 A2996 RMK A01,M
TMT,2023-08-19 03:55,-117.1971,39.4643,1749.34,65.30,34.00,31.12,240.00,7.00,0.00,30.06,M,M,M,CLR,M,M,M,M,M,M,M,M,M,M,M,M,M,M,65.30,KTMT 190355Z AUTO 24007KT CLR 19/01 A3006 RMK AO2 T01850011 PWINO,M
10U,2023-08-19 03:55,-116.1876,41.9532,1637.00,68.00,37.40,32.43,120.00,5.00,0.00,30.02,M,10.00,M,BKN,M,M,M,12000.00,M,M,M,M,M,M,M,M,M,M,68.00,K10U 190355Z AUTO 12005KT 10SM BKN120 20/03 A3002 RMK AO2,M
LSV,2023-08-19 03:55,-115.0343,36.2362,570.00,72.00,69.00,90.28,50.00,23.00,0.08,29.94,1011.60,10.00,M,FEW,M,M,M,4600.00,M,M,M,-DZ,M,M,M,31.00,40.00,2023-08-19 03:46,72.00,KLSV 190355Z AUTO 05023KT 10SM -DZ FEW046 22/21 A2994 RMK AO2 PK WND 04031/46 LTG DSNT SE RAE0257RAB0258E04RAB08E14RAB18E24RAB25E48RAB52E53DZB53 SLP116 P0008 T02220206 $,M
EKO,2023-08-19 03:56,-115.7860,40.8242,1367.00,73.00,47.00,39.58,50.00,5.00,0.00,29.98,1009.70,10.00,M,CLR,M,M,M,M,M,M,M,M,M,M,M,M,M,M,73.00,KEKO 190356Z AUTO 05005KT 10SM CLR 23/08 A2998 RMK AO2 SLP097 T02280083,M
WMC,2023-08-19 03:56,-117.8072,40.9019,1315.00,77.00,37.00,23.55,250.00,10.00,0.00,29.94,1008.40,10.00,M,CLR,M,M,M,M,M,M,M,M,M,M,M,M,M,M,77.00,KWMC 190356Z AUTO 25010KT 10SM CLR 25/03 A2994 RMK AO2 SLP084 T02500028,M
HND,2023-08-19 03:56,-115.1344,35.9729,742.79,M,M,M,M,M,0.00,M,M,M,M,M,M,M,M,M,M,M,M,M,M,M,M,M,M,M,M,KHND 190356Z AUTO RMK AO2 SLPNO PWINO FZRANO $,M
TPH,2023-08-19 03:56,-117.0904,38.0505,1654.00,74.00,33.00,22.20,0.00,0.00,0.00,30.07,1010.30,10.00,M,CLR,M,M,M,M,M,M,M,M,M,M,M,M,M,M,74.00,KTPH 190356Z AUTO 00000KT 10SM CLR 23/01 A3007 RMK AO2 SLP103 T02330006,M
LAS,2023-08-19 03:56,-115.1634,36.0719,663.00,73.00,64.00,73.40,100.00,6.00,0.01,30.01,1014.20,10.00,M,FEW,BKN,BKN,OVC,9500.00,11000.00,15000.00,22000.00,TS,M,M,M,33.00,80.00,2023-08-19 03:00,73.00,KLAS 190356Z 10006KT 10SM TS FEW095 BKN110CB BKN150 OVC220 23/18 A3001 RMK AO2 PK WND 08033/0300 WSHFT 0245 RAE25 PRESRR SLP142 OCNL LTGICCCCG E-S TS E-S MOV N P0001 T02280178,M
NFL,2023-08-19 03:56,-118.7010,39.4166,1199.00,81.00,43.00,26.08,320.00,13.00,0.00,29.93,1010.70,10.00,21.00,FEW,SCT,M,M,10000.00,18000.00,M,M,M,M,M,M,M,M,M,79.54,KNFL 190356Z 32013G21KT 10SM FEW100 SCT180 27/06 A2993 RMK AO2 SLP107 T02720061,M
LAS,2023-08-19 04:01,-115.1634,36.0719,663.00,72.00,65.00,78.62,70.00,8.00,0.00,30.02,M,10.00,M,FEW,SCT,BKN,OVC,9500.00,11000.00,15000.00,22000.00,M,M,M,M,M,M,M,72.00,KLAS 190401Z 07008KT 10SM FEW095 SCT110 BKN150 OVC220 22/18 A3002 RMK AO2 TSE01 TS DSIPTD T02220183,M
LSV,2023-08-19 04:01,-115.0343,36.2362,570.00,71.60,71.60,100.00,50.00,22.00,0.00,29.93,1011.20,10.00,M,CLR,M,M,M,M,M,M,M,M,M,M,M,M,M,M,71.60,KLSV 190401Z AUTO 05022KT 10SM CLR 22/22 A2993 RMK AO2 DZE01 SLP112 $,M
LSV,2023-08-19 04:02,-115.0343,36.2362,570.00,71.60,71.60,100.00,50.00,23.00,0.00,29.93,1011.20,10.00,M,CLR,M,M,M,M,M,M,M,-DZ,M,M,M,M,M,M,71.60,KLSV 190402Z AUTO 05023KT 10SM -DZ CLR 22/22 A2993 RMK AO2 DZE01DZB02 SLP112 $,M
LSV,2023-08-19 04:03,-115.0343,36.2362,570.00,71.60,71.60,100.00,50.00,23.00,0.00,29.93,1011.20,10.00,M,FEW,M,M,M,7000.00,M,M,M,M,M,M,M,M,M,M,71.60,KLSV 190403Z AUTO 05023KT 10SM FEW070 22/22 A2993 RMK AO2 DZE01DZB02E02 SLP112 $,M
BVU,2023-08-19 04:15,-114.8611,35.9475,671.00,71.60,66.20,83.09,50.00,18.00,0.00,30.01,M,10.00,25.00,FEW,SCT,BKN,M,4800.00,6000.00,8500.00,M,M,M,M,M,M,M,M,71.60,KBVU 190415Z AUTO 05018G25KT 10SM FEW048 SCT060 BKN085 22/19 A3001 RMK AO2 LTG DSNT NE AND E,M
CXP,2023-08-19 04:15,-119.7326,39.1923,1431.00,75.20,42.80,31.34,200.00,7.00,0.00,30.07,M,10.00,M,FEW,FEW,OVC,M,4900.00,7000.00,10000.00,M,M,M,M,M,M,M,M,75.20,KCXP 190415Z AUTO 20007KT 10SM FEW049 FEW070 OVC100 24/06 A3007 RMK AO2,M
RTS,2023-08-19 04:15,-119.8764,39.6682,1539.00,69.80,41.00,35.09,270.00,6.00,0.00,30.08,M,10.00,M,CLR,M,M,M,M,M,M,M,M,M,M,M,M,M,M,69.80,KRTS 190415Z AUTO 27006KT 10SM CLR 21/05 A3008 RMK AO2,M
05U,2023-08-19 04:15,-116.0051,39.6042,1811.23,68.00,33.80,28.11,M,M,0.00,30.11,M,10.00,M,M,M,M,M,M,M,M,M,M,M,M,M,M,M,M,68.00,K05U 190415Z AUTO 10SM 20/01 A3011 RMK A01,M
MEV,2023-08-19 04:15,-119.7500,38.9963,1441.42,62.60,57.20,82.50,250.00,13.00,0.00,30.08,M,9.00,M,FEW,BKN,OVC,M,3300.00,5500.00,7000.00,M,-RA,M,M,M,M,M,M,62.60,KMEV 190415Z AUTO 25013KT 9SM -RA FEW033 BKN055 OVC070 17/14 A3008 RMK AO2 LTG DSNT E-SW,M
HTH,2023-08-19 04:15,-118.6315,38.5448,1282.89,78.80,42.80,27.81,10.00,4.00,0.00,29.98,M,10.00,M,SCT,M,M,M,12000.00,M,M,M,M,M,M,M,M,M,M,78.80,KHTH 190415Z AUTO 01004KT 10SM SCT120 26/06 A2998 RMK A01,M
10U,2023-08-19 04:15,-116.1876,41.9532,1637.00,68.00,41.00,37.32,140.00,4.00,0.00,30.03,M,10.00,M,BKN,M,M,M,11000.00,M,M,M,M,M,M,M,M,M,M,68.00,K10U 190415Z AUTO 14004KT 10SM BKN110 20/05 A3003 RMK AO2,M
BAM,2023-08-19 04:15,-116.8743,40.5990,1382.36,71.60,37.40,28.68,130.00,5.00,0.00,29.96,M,10.00,M,CLR,M,M,M,M,M,M,M,M,M,M,M,M,M,M,71.60,KBAM 190415Z AUTO 13005KT 10SM CLR 22/03 A2996 RMK AO1,M
TMT,2023-08-19 04:15,-117.1971,39.4643,1749.34,63.00,33.80,33.46,240.00,7.00,0.00,30.08,M,M,M,CLR,M,M,M,M,M,M,M,M,M,M,M,M,M,M,63.00,KTMT 190415Z AUTO 24007KT CLR 17/01 A3008 RMK AO2 T01730010 PWINO,M
05U,2023-08-19 04:30,-116.0051,39.6042,1811.23,68.00,35.60,30.20,M,M,0.00,30.12,M,10.00,M,M,M,M,M,M,M,M,M,M,M,M,M,M,M,M,68.00,K05U 190430Z AUTO 10SM 20/02 A3012 RMK A01,M
BVU,2023-08-19 04:35,-114.8611,35.9475,671.00,73.40,64.40,73.44,0.00,0.00,0.00,30.07,M,10.00,15.00,FEW,BKN,BKN,M,3300.00,5500.00,7000.00,M,M,M,M,M,M,M,M,73.40,KBVU 190435Z AUTO 00000G15KT 10SM FEW033 BKN055 BKN070 23/18 A3007 RMK AO2,M
CXP,2023-08-19 04:35,-119.7326,39.1923,1431.00,69.80,48.20,46.16,210.00,7.00,0.00,30.08,M,10.00,18.00,SCT,BKN,OVC,M,4700.00,5500.00,12000.00,M,VCTS RA,M,M,M,M,M,M,69.80,KCXP 190435Z AUTO 21007G18KT 10SM VCTS RA SCT047 BKN055 OVC120 21/09 A3008 RMK AO2 LTG DSNT E-SW,M
RTS,2023-08-19 04:35,-119.8764,39.6682,1539.00,69.80,41.00,35.09,270.00,8.00,0.00,30.08,M,10.00,M,CLR,M,M,M,M,M,M,M,M,M,M,M,M,M,M,69.80,KRTS 190435Z AUTO 27008KT 10SM CLR 21/05 A3008 RMK AO2,M
MEV,2023-08-19 04:35,-119.7500,38.9963,1441.42,62.60,51.80,67.75,250.00,15.00,0.00,30.09,M,9.00,22.00,FEW,BKN,OVC,M,2900.00,5500.00,6500.00,M,-TSRA,M,M,M,M,M,M,62.60,KMEV 190435Z AUTO 25015G22KT 9SM -TSRA FEW029 BKN055 OVC065 17/11 A3009 RMK AO2 LTG DSNT NE AND NW,M
HTH,2023-08-19 04:35,-118.6315,38.5448,1282.89,78.80,42.80,27.81,20.00,7.00,0.00,29.99,M,10.00,M,FEW,M,M,M,11000.00,M,M,M,M,M,M,M,M,M,M,78.80,KHTH 190435Z AUTO 02007KT 10SM FEW110 26/06 A2999 RMK A01,M
10U,2023-08-19 04:35,-116.1876,41.9532,1637.00,66.20,41.00,39.72,140.00,6.00,0.00,30.03,M,10.00,M,FEW,M,M,M,11000.00,M,M,M,M,M,M,M,M,M,M,66.20,K10U 190435Z AUTO 14006KT 10SM FEW110 19/05 A3003 RMK AO2,M
BAM,2023-08-19 04:35,-116.8743,40.5990,1382.36,73.40,35.60,25.13,150.00,3.00,0.00,29.96,M,10.00,M,CLR,M,M,M,M,M,M,M,M,M,M,M,M,M,M,73.40,KBAM 190435Z AUTO 15003KT 10SM CLR 23/02 A2996 RMK AO1,M
TMT,2023-08-19 04:35,-117.1971,39.4643,1749.34,59.70,35.00,39.45,0.00,0.00,0.00,30.09,M,M,M,CLR,M,M,M,M,M,M,M,M,M,M,M,M,M,M,59.70,KTMT 190435Z AUTO 00000KT CLR 15/02 A3009 RMK AO2 T01540017 PWINO,M
P68,2023-08-19 04:53,-116.0056,39.6014,1993.00,69.00,34.00,27.38,180.00,6.00,0.00,30.09,1010.20,M,M,M,M,M,M,M,M,M,M,M,M,M,M,M,M,M,69.00,KP68 190453Z AUTO 18006KT 21/01 A3009 RMK AO1 SLP102 T02060011,M
DRA,2023-08-19 04:53,-116.0278,36.6206,1009.00,83.00,51.00,33.04,100.00,17.00,0.00,29.95,1008.80,10.00,26.00,FEW,FEW,M,M,10000.00,12000.00,M,M,M,M,M,M,34.00,110.00,2023-08-19 04:22,81.51,KDRA 190453Z AUTO 10017G26KT 10SM FEW100 FEW120 28/11 A2995 RMK AO2 PK WND 11034/0422 SLP088 T02830106,M
ELY,2023-08-19 04:53,-114.8453,39.2950,1909.00,71.00,48.00,43.98,160.00,14.00,0.00,30.17,1010.10,10.00,M,CLR,M,M,M,M,M,M,M,M,M,M,M,M,M,M,71.00,KELY 190453Z AUTO 16014KT 10SM CLR 22/09 A3017 RMK AO2 SLP101 T02170089,M
VGT,2023-08-19 04:53,-115.1933,36.2111,667.00,75.00,64.00,68.64,170.00,8.00,0.00,30.05,1016.80,10.00,M,FEW,M,M,M,11000.00,M,M,M,M,M,M,M,M,M,M,75.00,KVGT 190453Z AUTO 17008KT 10SM FEW110 24/18 A3005 RMK AO2 LTG DSNT W SLP168 T02390178,M
LOL,2023-08-19 04:53,-118.5701,40.0684,1192.43,77.00,43.00,29.74,350.00,6.00,0.00,29.95,1009.60,9.00,M,CLR,M,M,M,M,M,M,M,M,M,M,M,M,M,M,77.00,KLOL 190453Z AUTO 35006KT 9SM CLR 25/06 A2995 RMK AO2 SLP096 T02500061,M
BVU,2023-08-19 04:55,-114.8611,35.9475,671.00,73.40,62.60,68.94,120.00,6.00,0.00,30.06,M,10.00,11.00,FEW,SCT,BKN,M,3200.00,5000.00,6000.00,M,-DZ,M,M,M,M,M,M,73.40,KBVU 190455Z AUTO 12006G11KT 10SM -DZ FEW032 SCT050 BKN060 23/17 A3006 RMK AO2,M
CXP,2023-08-19 04:55,-119.7326,39.1923,1431.00,69.80,50.00,49.37,100.00,9.00,0.00,30.12,M,10.00,15.00,FEW,FEW,OVC,M,4700.00,5500.00,11000.00,M,M,M,M,M,M,M,M,69.80,KCXP 190455Z AUTO 10009G15KT 10SM FEW047 FEW055 OVC110 21/10 A3012 RMK AO2 LTG DSNT NE AND SE,M
INS,2023-08-19 04:55,-115.6733,36.5872,955.00,81.50,44.20,26.86,150.00,18.00,0.00,30.00,1010.80,10.00,24.00,SCT,OVC,M,M,9500.00,12000.00,M,M,M,M,M,M,39.00,100.00,2023-08-19 04:28,79.92,KINS 190455Z AUTO 15018G24KT 10SM SCT095 OVC120 28/07 A3000 RMK AO2 PK WND 10039/28 SLP108 T02750068 $,M
RNO,2023-08-19 04:55,-119.7711,39.4839,1341.00,76.00,43.00,30.75,340.00,4.00,0.00,30.03,1011.20,10.00,M,SCT,BKN,M,M,12000.00,17000.00,M,M,M,M,M,M,M,M,M,76.00,KRNO 190455Z 34004KT 10SM SCT120 BKN170 24/06 A3003 RMK AO2 LTG DSNT SE-SW SLP112 T02440061,M
RTS,2023-08-19 04:55,-119.8764,39.6682,1539.00,69.80,42.80,37.61,250.00,9.00,0.00,30.09,M,10.00,M,CLR,M,M,M,M,M,M,M,M,M,M,M,M,M,M,69.80,KRTS 190455Z AUTO 25009KT 10SM CLR 21/06 A3009 RMK AO2,M
05U,2023-08-19 04:55,-116.0051,39.6042,1811.23,69.80,33.80,26.43,M,M,0.00,30.12,M,10.00,M,M,M,M,M,M,M,M,M,M,M,M,M,M,M,M,69.80,K05U 190455Z AUTO 10SM 21/01 A3012 RMK A01,M
MEV,2023-08-19 04:55,-119.7500,38.9963,1441.42,62.60,51.80,67.75,230.00,20.00,0.00,30.12,M,9.00,M,SCT,BKN,OVC,M,4000.00,5500.00,6000.00,M,-RA,M,M,M,M,M,M,62.60,KMEV 190455Z AUTO 23020KT 9SM -RA SCT040 BKN055 OVC060 17/11 A3012 RMK AO2 LTG DSNT NE AND NW,M
HTH,2023-08-19 04:55,-118.6315,38.5448,1282.89,77.00,41.00,27.53,20.00,6.00,0.00,30.00,M,10.00,M,CLR,M,M,M,M,M,M,M,M,M,M,M,M,M,M,77.00,KHTH 190455Z AUTO 02006KT 10SM CLR 25/05 A3000 RMK A01,M
BAM,2023-08-19 04:55,-116.8743,40.5990,1382.36,71.60,35.60,26.71,160.00,4.00,0.00,29.97,M,10.00,M,CLR,M,M,M,M,M,M,M,M,M,M,M,M,M,M,71.60,KBAM 190455Z AUTO 16004KT 10SM CLR 22/02 A2997 RMK AO1,M
TMT,2023-08-19 04:55,-117.1971,39.4643,1749.34,61.00,33.80,35.90,270.00,3.00,0.00,30.09,M,M,M,CLR,M,M,M,M,M,M,M,M,M,M,M,M,M,M,61.00,KTMT 190455Z AUTO 27003KT CLR 16/01 A3009 RMK AO2 T01620010 PWINO,M
10U,2023-08-19 04:55,-116.1876,41.9532,1637.00,68.00,42.80,40.00,140.00,5.00,0.00,30.04,M,10.00,M,FEW,M,M,M,11000.00,M,M,M,M,M,M,M,M,M,M,68.00,K10U 190455Z AUTO 14005KT 10SM FEW110 20/06 A3004 RMK AO2,M
LSV,2023-08-19 04:55,-115.0343,36.2362,570.00,74.30,62.20,65.95,130.00,8.00,T,30.02,1014.40,10.00,M,SCT,M,M,M,12000.00,M,M,M,M,M,M,M,26.00,50.00,2023-08-19 03:59,74.30,KLSV 190455Z AUTO 13008KT 10SM SCT120 24/17 A3002 RMK AO2 PK WND 05026/0359 DZE01DZB02E02 PRESRR SLP144 P0000 T02350168 $,M
EKO,2023-08-19 04:56,-115.7860,40.8242,1367.00,67.00,47.00,48.58,270.00,3.00,0.00,30.01,1010.50,10.00,M,CLR,M,M,M,M,M,M,M,M,M,M,M,M,M,M,67.00,KEKO 190456Z AUTO 27003KT 10SM CLR 19/08 A3001 RMK AO2 SLP105 T01940083,M
WMC,2023-08-19 04:56,-117.8072,40.9019,1315.00,78.00,39.00,24.65,30.00,5.00,0.00,29.97,1009.20,10.00,M,CLR,M,M,M,M,M,M,M,M,M,M,M,M,M,M,78.00,KWMC 190456Z AUTO 03005KT 10SM CLR 26/04 A2997 RMK AO2 SLP092 T02560039,M
NFL,2023-08-19 04:56,-118.7010,39.4166,1199.00,73.00,44.00,35.32,170.00,4.00,0.00,29.97,1012.10,10.00,M,SCT,M,M,M,11000.00,M,M,M,M,M,M,M,M,M,M,73.00,KNFL 190456Z 17004KT 10SM SCT110 23/07 A2997 RMK AO2 SLP121 T02280067,M
HND,2023-08-19 04:56,-115.1344,35.9729,742.79,M,M,M,M,M,0.00,M,M,M,M,M,M,M,M,M,M,M,M,M,M,M,M,M,M,M,M,KHND 190456Z AUTO RMK AO2 SLPNO PWINO FZRANO $,M
TPH,2023-08-19 04:56,-117.0904,38.0505,1654.00,70.00,28.00,20.75,240.00,3.00,0.00,30.08,1010.30,10.00,M,CLR,M,M,M,M,M,M,M,M,M,M,M,M,M,M,70.00,KTPH 190456Z AUTO 24003KT 10SM CLR 21/M02 A3008 RMK AO2 SLP103 T02111022,M
LAS,2023-08-19 04:56,-115.1634,36.0719,663.00,73.00,64.00,73.40,110.00,4.00,0.00,30.05,1015.50,10.00,M,FEW,SCT,BKN,OVC,9500.00,11000.00,15000.00,22000.00,M,M,M,M,M,M,M,73.00,KLAS 190456Z 11004KT 10SM FEW095 SCT110 BKN150 OVC220 23/18 A3005 RMK AO2 TSE01 SLP155 TS DSIPTD T02280178,M
INS,2023-08-19 04:58,-115.6733,36.5872,955.00,82.40,44.60,26.49,150.00,15.00,0.00,30.01,1011.10,10.00,23.00,BKN,OVC,M,M,9000.00,12000.00,M,M,TS,M,M,M,M,M,M,80.50,KINS 190458Z AUTO 15015G23KT 10SM TS BKN090 OVC120 28/07 A3001 RMK AO2 TSB58 SLP111 $,M
INS,2023-08-19 05:03,-115.6733,36.5872,955.00,84.20,44.60,24.99,180.00,12.00,0.00,30.02,1011.30,10.00,23.00,BKN,OVC,M,M,9000.00,12000.00,M,M,TS,M,M,M,M,M,M,81.73,KINS 190503Z AUTO 18012G23KT 10SM TS BKN090 OVC120 29/07 A3002 RMK AO2 WSHFT 0449 TSB0458 SLP113 $,M
INS,2023-08-19 05:06,-115.6733,36.5872,955.00,82.40,48.20,30.35,220.00,19.00,0.00,30.04,1012.20,9.00,37.00,FEW,BKN,OVC,M,4800.00,9000.00,12000.00,M,TS -DZ,M,M,M,M,M,M,80.80,KINS 190506Z AUTO 22019G37KT 9SM TS -DZ FEW048 BKN090 OVC120 28/09 A3004 RMK AO2 DZB06 TSB0458 PRESRR SLP122 $,M
05U,2023-08-19 05:10,-116.0051,39.6042,1811.23,66.20,33.80,29.92,M,M,0.00,30.12,M,10.00,M,M,M,M,M,M,M,M,M,M,M,M,M,M,M,M,66.20,K05U 190510Z AUTO 10SM 19/01 A3012 RMK A01,M
INS,2023-08-19 05:14,-115.6733,36.5872,955.00,80.60,53.60,39.30,180.00,11.00,0.00,30.05,1012.50,5.00,37.00,FEW,SCT,BKN,M,5000.00,8000.00,9000.00,M,-TSRA,M,M,M,M,M,M,80.29,KINS 190514Z AUTO 18011G37KT 5SM -TSRA FEW050 SCT080 BKN090 27/12 A3005 RMK AO2 WSHFT 06 DZB06E11RAB11 TSB0458 SLP125 $,M
BVU,2023-08-19 05:15,-114.8611,35.9475,671.00,73.40,64.40,73.44,90.00,7.00,0.00,30.06,M,10.00,M,FEW,SCT,BKN,M,300.00,3900.00,7000.00,M,M,M,M,M,M,M,M,73.40,KBVU 190515Z AUTO 09007KT 10SM FEW003 SCT039 BKN070 23/18 A3006 RMK AO2 LTG DSNT SE AND NW,M
CXP,2023-08-19 05:15,-119.7326,39.1923,1431.00,69.80,46.40,43.13,200.00,14.00,0.00,30.13,M,9.00,21.00,FEW,SCT,OVC,M,6000.00,8000.00,11000.00,M,M,M,M,M,M,M,M,69.80,KCXP 190515Z AUTO 20014G21KT 9SM FEW060 SCT080 OVC110 21/08 A3013 RMK AO2,M
RTS,2023-08-19 05:15,-119.8764,39.6682,1539.00,69.80,41.00,35.09,240.00,9.00,0.00,30.09,M,10.00,M,BKN,M,M,M,11000.00,M,M,M,M,M,M,M,M,M,M,69.80,KRTS 190515Z AUTO 24009KT 10SM BKN110 21/05 A3009 RMK AO2,M
MEV,2023-08-19 05:15,-119.7500,38.9963,1441.42,62.60,50.00,63.38,270.00,17.00,0.00,30.08,M,8.00,22.00,FEW,SCT,BKN,M,2800.00,4300.00,5000.00,M,-RA,M,M,M,M,M,M,62.60,KMEV 190515Z AUTO 27017G22KT 8SM -RA FEW028 SCT043 BKN050 17/10 A3008 RMK AO2,M
HTH,2023-08-19 05:15,-118.6315,38.5448,1282.89,77.00,42.80,29.51,190.00,3.00,0.00,30.01,M,10.00,M,M,M,M,M,M,M,M,M,M,M,M,M,M,M,M,77.00,KHTH 190515Z AUTO 19003KT 10SM 25/06 A3001 RMK A01,M
10U,2023-08-19 05:15,-116.1876,41.9532,1637.00,66.20,42.80,42.57,140.00,5.00,0.00,30.05,M,10.00,M,FEW,M,M,M,11000.00,M,M,M,M,M,M,M,M,M,M,66.20,K10U 190515Z AUTO 14005KT 10SM FEW110 19/06 A3005 RMK AO2,M
BAM,2023-08-19 05:15,-116.8743,40.5990,1382.36,71.60,35.60,26.71,0.00,0.00,0.00,29.98,M,10.00,M,CLR,M,M,M,M,M,M,M,M,M,M,M,M,M,M,71.60,KBAM 190515Z AUTO 00000KT 10SM CLR 22/02 A2998 RMK AO1,M
TMT,2023-08-19 05:15,-117.1971,39.4643,1749.34,57.20,35.60,44.19,250.00,7.00,0.00,30.10,M,M,M,CLR,M,M,M,M,M,M,M,M,M,M,M,M,M,M,57.20,KTMT 190515Z AUTO 25007KT CLR 14/02 A3010 RMK AO2 T01400020 PWINO,M
INS,2023-08-19 05:28,-115.6733,36.5872,955.00,77.00,55.40,47.25,180.00,5.00,0.00,30.06,1013.00,8.00,M,FEW,FEW,BKN,OVC,500.00,2600.00,8000.00,9000.00,VCTS -RA,M,M,M,M,M,M,77.00,KINS 190528Z AUTO 18005KT 8SM VCTS -RA FEW005 FEW026 BKN080 OVC090 25/13 A3006 RMK AO2 DZB06E11RAB11 TSB0458E28 SLP130 $,M
BVU,2023-08-19 05:35,-114.8611,35.9475,671.00,71.60,64.40,78.04,60.00,10.00,0.00,30.05,M,10.00,M,FEW,SCT,BKN,M,4200.00,6000.00,7500.00,M,M,M,M,M,M,M,M,71.60,KBVU 190535Z AUTO 06010KT 10SM FEW042 SCT060 BKN075 22/18 A3005 RMK AO2,M
CXP,2023-08-19 05:35,-119.7326,39.1923,1431.00,68.00,46.40,45.88,250.00,7.00,0.00,30.10,M,10.00,18.00,FEW,SCT,OVC,M,4700.00,6500.00,11000.00,M,-RA,M,M,M,M,M,M,68.00,KCXP 190535Z AUTO 25007G18KT 10SM -RA FEW047 SCT065 OVC110 20/08 A3010 RMK AO2,M
RTS,2023-08-19 05:35,-119.8764,39.6682,1539.00,69.80,41.00,35.09,280.00,6.00,0.00,30.10,M,10.00,M,SCT,OVC,M,M,9500.00,11000.00,M,M,M,M,M,M,M,M,M,69.80,KRTS 190535Z AUTO 28006KT 10SM SCT095 OVC110 21/05 A3010 RMK AO2,M
05U,2023-08-19 05:35,-116.0051,39.6042,1811.23,64.40,33.80,31.85,M,M,0.00,30.12,M,10.00,M,M,M,M,M,M,M,M,M,M,M,M,M,M,M,M,64.40,K05U 190535Z AUTO 10SM 18/01 A3012 RMK A01,M
MEV,2023-08-19 05:35,-119.7500,38.9963,1441.42,64.40,50.00,59.50,10.00,7.00,0.00,30.07,M,10.00,15.00,FEW,SCT,BKN,M,2800.00,4100.00,5500.00,M,M,M,M,M,M,M,M,64.40,KMEV 190535Z AUTO 01007G15KT 10SM FEW028 SCT041 BKN055 18/10 A3007 RMK AO2,M
BAM,2023-08-19 05:35,-116.8743,40.5990,1382.36,69.80,35.60,28.39,0.00,0.00,0.00,29.98,M,10.00,M,CLR,M,M,M,M,M,M,M,M,M,M,M,M,M,M,69.80,KBAM 190535Z AUTO 00000KT 10SM CLR 21/02 A2998 RMK AO1,M
HTH,2023-08-19 05:35,-118.6315,38.5448,1282.89,77.00,41.00,27.53,190.00,4.00,0.00,30.01,M,10.00,M,CLR,M,M,M,M,M,M,M,M,M,M,M,M,M,M,77.00,KHTH 190535Z AUTO 19004KT 10SM CLR 25/05 A3001 RMK A01,M
10U,2023-08-19 05:35,-116.1876,41.9532,1637.00,64.40,42.80,45.32,0.00,0.00,0.00,30.05,M,10.00,M,FEW,FEW,SCT,M,6500.00,9500.00,12000.00,M,M,M,M,M,M,M,M,64.40,K10U 190535Z AUTO 00000KT 10SM FEW065 FEW095 SCT120 18/06 A3005 RMK AO2,M
TMT,2023-08-19 05:35,-117.1971,39.4643,1749.34,57.00,33.30,40.61,250.00,9.00,0.00,30.10,M,M,M,CLR,M,M,M,M,M,M,M,M,M,M,M,M,M,M,57.00,KTMT 190535Z AUTO 25009KT CLR 14/01 A3010 RMK AO2 T01390007 PWINO,M
LSV,2023-08-19 05:41,-115.0343,36.2362,570.00,75.20,64.40,69.14,40.00,10.00,0.00,30.02,1014.20,10.00,M,FEW,M,M,M,11000.00,M,M,M,M,M,M,M,M,M,M,75.20,KLSV 190541Z AUTO 04010KT 10SM FEW110 24/18 A3002 RMK AO2 WSHFT 30 SLP142 $,M
05U,2023-08-19 05:50,-116.0051,39.6042,1811.23,62.60,30.20,29.35,M,M,0.00,30.12,M,10.00,M,M,M,M,M,M,M,M,M,M,M,M,M,M,M,M,62.60,K05U 190550Z AUTO 10SM 17/M01 A3012 RMK A01,M
LSV,2023-08-19 05:52,-115.0343,36.2362,570.00,73.40,64.40,73.44,50.00,15.00,0.00,30.01,1014.00,10.00,21.00,FEW,SCT,M,M,7500.00,11000.00,M,M,-RA,M,M,M,M,M,M,73.40,KLSV 190552Z AUTO 05015G21KT 10SM -RA FEW075 SCT110 23/18 A3001 RMK AO2 RAB52 SLP140 $,M
P68,2023-08-19 05:53,-116.0056,39.6014,1993.00,64.00,31.00,28.86,150.00,6.00,0.00,30.10,1010.30,M,M,M,M,M,M,M,M,M,M,M,M,M,M,M,M,M,64.00,KP68 190553Z AUTO 15006KT 18/M01 A3010 RMK AO1 SLP103 T01781006 10306 20172 51014,M
DRA,2023-08-19 05:53,-116.0278,36.6206,1009.00,80.00,49.00,33.81,110.00,24.00,0.00,29.97,1009.30,10.00,33.00,SCT,M,M,M,10000.00,M,M,M,M,M,M,M,33.00,110.00,2023-08-19 05:52,79.46,KDRA 190553Z AUTO 11024G33KT 10SM SCT100 27/09 A2997 RMK AO2 PK WND 11033/0552 SLP093 T02670094 10367 20267 51027,M
ELY,2023-08-19 05:53,-114.8453,39.2950,1909.00,70.00,50.00,49.03,160.00,13.00,0.00,30.17,1010.10,10.00,22.00,CLR,M,M,M,M,M,M,M,M,M,M,M,M,M,M,70.00,KELY 190553Z AUTO 16013G22KT 10SM CLR 21/10 A3017 RMK AO2 SLP101 T02110100 10278 20211 51016,M
VGT,2023-08-19 05:53,-115.1933,36.2111,667.00,74.00,64.00,70.97,60.00,6.00,T,30.06,1017.30,10.00,M,FEW,OVC,M,M,8000.00,11000.00,M,M,-RA,M,M,M,M,M,M,74.00,KVGT 190553Z AUTO 06006KT 10SM -RA FEW080 OVC110 23/18 A3006 RMK AO2 RAB24 SLP173 P0000 60011 T02330178 10289 20233 53026,M
LOL,2023-08-19 05:53,-118.5701,40.0684,1192.43,75.00,42.00,30.59,80.00,4.00,0.00,29.96,1009.80,10.00,M,CLR,M,M,M,M,M,M,M,M,M,M,M,M,M,M,75.00,KLOL 190553Z AUTO 08004KT 10SM CLR 24/06 A2996 RMK AO2 SLP098 T02390056 10339 20239 51020,M
BVU,2023-08-19 05:55,-114.8611,35.9475,671.00,71.60,64.40,78.04,50.00,9.00,0.00,30.03,M,10.00,15.00,FEW,SCT,BKN,M,3500.00,4500.00,6000.00,M,M,M,M,M,M,M,M,71.60,KBVU 190555Z AUTO 05009G15KT 10SM FEW035 SCT045 BKN060 22/18 A3003 RMK AO2 LTG DSNT S AND SW,M
CXP,2023-08-19 05:55,-119.7326,39.1923,1431.00,69.80,44.60,40.29,320.00,10.00,0.00,30.07,M,10.00,16.00,FEW,OVC,M,M,7000.00,11000.00,M,M,M,M,M,M,M,M,M,69.80,KCXP 190555Z AUTO 32010G16KT 10SM FEW070 OVC110 21/07 A3007 RMK AO2,M
INS,2023-08-19 05:55,-115.6733,36.5872,955.00,73.60,57.40,56.90,110.00,24.00,0.03,30.05,1012.80,10.00,30.00,OVC,M,M,M,8500.00,M,M,M,-RA,M,M,M,37.00,220.00,2023-08-19 05:05,73.60,KINS 190555Z AUTO 11024G30KT 10SM -RA OVC085 23/14 A3005 RMK AO2 PK WND 22037/05 DZB06E11RAB11E35DZB35E37RAB37E47DZB47E52RAB52 TSB0458E28 SLP128 P0003 60003 T02310141 10327 20231 52042 $,M
RNO,2023-08-19 05:55,-119.7711,39.4839,1341.00,76.00,43.00,30.75,120.00,9.00,0.00,30.04,1011.20,10.00,M,SCT,BKN,M,M,11000.00,15000.00,M,M,M,M,M,M,M,M,M,76.00,KRNO 190555Z 12009KT 10SM SCT110 BKN150 24/06 A3004 RMK AO2 SLP112 T02440061 10300 20244 53013,M
RTS,2023-08-19 05:55,-119.8764,39.6682,1539.00,69.80,41.00,35.09,250.00,6.00,0.00,30.10,M,10.00,M,OVC,M,M,M,11000.00,M,M,M,M,M,M,M,M,M,M,69.80,KRTS 190555Z AUTO 25006KT 10SM OVC110 21/05 A3010 RMK AO2,M
MEV,2023-08-19 05:55,-119.7500,38.9963,1441.42,62.60,50.00,63.38,110.00,8.00,0.00,30.07,M,10.00,15.00,FEW,FEW,BKN,M,3600.00,5500.00,12000.00,M,M,M,M,M,M,M,M,62.60,KMEV 190555Z AUTO 11008G15KT 10SM FEW036 FEW055 BKN120 17/10 A3007 RMK AO2,M
BAM,2023-08-19 05:55,-116.8743,40.5990,1382.36,69.80,33.80,26.43,0.00,0.00,0.00,29.98,M,10.00,M,CLR,M,M,M,M,M,M,M,M,M,M,M,M,M,M,69.80,KBAM 190555Z AUTO 00000KT 10SM CLR 21/01 A2998 RMK AO1,M
HTH,2023-08-19 05:55,-118.6315,38.5448,1282.89,75.20,41.00,29.23,270.00,4.00,0.00,30.01,M,10.00,M,CLR,M,M,M,M,M,M,M,M,M,M,M,M,M,M,75.20,KHTH 190555Z AUTO 27004KT 10SM CLR 24/05 A3001 RMK A01,M
TMT,2023-08-19 05:55,-117.1971,39.4643,1749.34,59.00,32.00,35.87,240.00,8.00,0.00,30.10,M,M,M,CLR,M,M,M,M,M,M,M,M,M,M,M,M,M,M,59.00,KTMT 190555Z AUTO 24008KT CLR 15/00 A3010 RMK AO2 T01500001 10306 20129 PWINO,M
10U,2023-08-19 05:55,-116.1876,41.9532,1637.00,66.20,44.60,45.60,130.00,5.00,0.00,30.05,M,10.00,M,FEW,M,M,M,11000.00,M,M,M,M,M,M,M,M,M,M,66.20,K10U 190555Z AUTO 13005KT 10SM FEW110 19/07 A3005 RMK AO2,M
LSV,2023-08-19 05:55,-115.0343,36.2362,570.00,74.00,64.20,71.47,50.00,14.00,T,30.01,1013.90,10.00,M,FEW,SCT,SCT,M,7500.00,10000.00,11000.00,M,-RA,M,M,M,M,M,M,74.00,KLSV 190555Z AUTO 05014KT 10SM -RA FEW075 SCT100 SCT110 23/18 A3001 RMK AO2 RAB52 SLP139 P0000 60021 T02330179 10340 20220 50028 $,M
EKO,2023-08-19 05:56,-115.7860,40.8242,1367.00,65.00,48.00,54.07,100.00,4.00,0.00,30.02,1010.40,10.00,M,CLR,M,M,M,M,M,M,M,M,M,M,M,M,M,M,65.00,KEKO 190556Z AUTO 10004KT 10SM CLR 18/09 A3002 RMK AO2 SLP104 T01830089 10322 20172 51013,M
WMC,2023-08-19 05:56,-117.8072,40.9019,1315.00,74.00,41.00,30.43,350.00,5.00,0.00,29.98,1009.40,10.00,M,CLR,M,M,M,M,M,M,M,M,M,M,M,M,M,M,74.00,KWMC 190556Z AUTO 35005KT 10SM CLR 23/05 A2998 RMK AO2 SLP094 T02330050 10350 20228 51021,M
HND,2023-08-19 05:56,-115.1344,35.9729,742.79,M,M,M,M,M,0.00,M,M,M,M,M,M,M,M,M,M,M,M,M,M,M,M,M,M,M,M,KHND 190556Z AUTO RMK AO2 SLPNO 6//// PWINO FZRANO $,M
TPH,2023-08-19 05:56,-117.0904,38.0505,1654.00,67.00,25.00,20.32,70.00,6.00,0.00,30.08,1010.50,10.00,M,CLR,M,M,M,M,M,M,M,M,M,M,M,M,M,M,67.00,KTPH 190556Z AUTO 07006KT 10SM CLR 19/M04 A3008 RMK AO2 SLP105 T01941039 10311 20194 51014,M
LAS,2023-08-19 05:56,-115.1634,36.0719,663.00,73.00,64.00,73.40,330.00,9.00,T,30.06,1015.50,10.00,M,FEW,BKN,OVC,M,5500.00,11000.00,22000.00,M,-RA,M,M,M,M,M,M,73.00,KLAS 190556Z 33009KT 10SM -RA FEW055 BKN110 OVC220 23/18 A3006 RMK AO2 RAB18 SLP155 P0000 60004 T02280178 10289 20222 51036,M
NFL,2023-08-19 05:56,-118.7010,39.4166,1199.00,74.00,46.00,36.85,230.00,3.00,0.00,29.99,1012.70,10.00,M,SCT,SCT,M,M,10000.00,14000.00,M,M,M,M,M,M,M,M,M,74.00,KNFL 190556Z 23003KT 10SM SCT100 SCT140 23/08 A2999 RMK AO2 SLP127 SH DSNT SW-NW T02330078 10328 20222 53026,M
INS,2023-08-19 05:57,-115.6733,36.5872,955.00,73.40,59.00,60.67,90.00,28.00,0.00,30.03,1012.00,10.00,33.00,OVC,M,M,M,8500.00,M,M,M,-RA,M,M,M,M,M,M,73.40,KINS 190557Z AUTO 09028G33KT 10SM -RA OVC085 23/15 A3003 RMK AO2 WSHFT 43 PRESFR SLP120 $,M
05U,2023-08-19 06:10,-116.0051,39.6042,1811.23,62.60,32.00,31.56,M,M,0.00,30.12,M,10.00,M,M,M,M,M,M,M,M,M,M,M,M,M,M,M,M,62.60,K05U 190610Z AUTO 10SM 17/M00 A3012 RMK A01,M
HTH,2023-08-19 06:10,-118.6315,38.5448,1282.89,75.20,41.00,29.23,280.00,7.00,0.00,30.01,M,10.00,M,CLR,M,M,M,M,M,M,M,M,M,M,M,M,M,M,75.20,KHTH 190610Z AUTO 28007KT 10SM CLR 24/05 A3001 RMK A01,M
INS,2023-08-19 06:12,-115.6733,36.5872,955.00,69.80,59.00,68.55,120.00,21.00,0.00,30.04,1012.50,10.00,30.00,BKN,BKN,OVC,M,6000.00,12000.00,15000.00,M,M,M,M,M,M,M,M,69.80,KINS 190612Z AUTO 12021G30KT 10SM BKN060 BKN120 OVC150 21/15 A3004 RMK AO2 RAE12 SLP125 $,M
BVU,2023-08-19 06:15,-114.8611,35.9475,671.00,71.60,64.40,78.04,50.00,8.00,0.00,30.02,M,10.00,M,FEW,SCT,BKN,M,3900.00,5500.00,6000.00,M,M,M,M,M,M,M,M,71.60,KBVU 190615Z AUTO 05008KT 10SM FEW039 SCT055 BKN060 22/18 A3002 RMK AO2 LTG DSNT E AND SW,M
CXP,2023-08-19 06:15,-119.7326,39.1923,1431.00,69.80,46.40,43.13,80.00,5.00,0.00,30.06,M,10.00,11.00,BKN,M,M,M,11000.00,M,M,M,M,M,M,M,M,M,M,69.80,KCXP 190615Z AUTO 08005G11KT 10SM BKN110 21/08 A3006 RMK AO2,M
RTS,2023-08-19 06:15,-119.8764,39.6682,1539.00,69.80,41.00,35.09,0.00,0.00,0.00,30.10,M,10.00,M,BKN,M,M,M,11000.00,M,M,M,M,M,M,M,M,M,M,69.80,KRTS 190615Z AUTO 00000KT 10SM BKN110 21/05 A3010 RMK AO2,M
MEV,2023-08-19 06:15,-119.7500,38.9963,1441.42,60.80,51.80,72.20,160.00,7.00,0.00,30.08,M,10.00,M,FEW,FEW,SCT,M,5000.00,6500.00,11000.00,M,M,M,M,M,M,M,M,60.80,KMEV 190615Z AUTO 16007KT 10SM FEW050 FEW065 SCT110 16/11 A3008 RMK AO2,M
10U,2023-08-19 06:15,-116.1876,41.9532,1637.00,64.40,44.60,48.55,0.00,0.00,0.00,30.05,M,10.00,M,FEW,M,M,M,12000.00,M,M,M,M,M,M,M,M,M,M,64.40,K10U 190615Z AUTO 00000KT 10SM FEW120 18/07 A3005 RMK AO2,M
BAM,2023-08-19 06:15,-116.8743,40.5990,1382.36,69.80,33.80,26.43,0.00,0.00,0.00,29.99,M,10.00,M,CLR,M,M,M,M,M,M,M,M,M,M,M,M,M,M,69.80,KBAM 190615Z AUTO 00000KT 10SM CLR 21/01 A2999 RMK AO1,M
TMT,2023-08-19 06:15,-117.1971,39.4643,1749.34,57.40,31.50,37.23,180.00,3.00,0.00,30.10,M,M,M,CLR,M,M,M,M,M,M,M,M,M,M,M,M,M,M,57.40,KTMT 190615Z AUTO 18003KT CLR 14/00 A3010 RMK AO2 T01411003 PWINO,M
LSV,2023-08-19 06:15,-115.0343,36.2362,570.00,71.60,62.60,73.27,30.00,7.00,0.00,30.01,1014.00,10.00,M,FEW,FEW,SCT,M,7500.00,9000.00,15000.00,M,M,M,M,M,M,M,M,71.60,KLSV 190615Z AUTO 03007KT 10SM FEW075 FEW090 SCT150 22/17 A3001 RMK AO2 RAE11DZB11E15 SLP140 $,M
05U,2023-08-19 06:30,-116.0051,39.6042,1811.23,62.60,30.20,29.35,M,M,0.00,30.13,M,10.00,M,M,M,M,M,M,M,M,M,M,M,M,M,M,M,M,62.60,K05U 190630Z AUTO 10SM 17/M01 A3013 RMK A01,M
BVU,2023-08-19 06:35,-114.8611,35.9475,671.00,71.60,64.40,78.04,220.00,10.00,0.00,30.04,M,10.00,M,FEW,FEW,SCT,M,3200.00,5500.00,7500.00,M,M,M,M,M,M,M,M,71.60,KBVU 190635Z AUTO 22010KT 200V260 10SM FEW032 FEW055 SCT075 22/18 A3004 RMK AO2,M
CXP,2023-08-19 06:35,-119.7326,39.1923,1431.00,68.00,48.20,49.10,200.00,6.00,0.00,30.08,M,10.00,12.00,BKN,M,M,M,11000.00,M,M,M,M,M,M,M,M,M,M,68.00,KCXP 190635Z AUTO 20006G12KT 10SM BKN110 20/09 A3008 RMK AO2,M
RTS,2023-08-19 06:35,-119.8764,39.6682,1539.00,68.00,41.00,37.32,320.00,12.00,0.00,30.07,M,10.00,M,FEW,SCT,BKN,M,5000.00,6000.00,10000.00,M,M,M,M,M,M,M,M,68.00,KRTS 190635Z AUTO 32012KT 10SM FEW050 SCT060 BKN100 20/05 A3007 RMK AO2,M
MEV,2023-08-19 06:35,-119.7500,38.9963,1441.42,60.80,51.80,72.20,220.00,9.00,0.00,30.09,M,10.00,M,CLR,M,M,M,M,M,M,M,M,M,M,M,M,M,M,60.80,KMEV 190635Z AUTO 22009KT 10SM CLR 16/11 A3009 RMK AO2,M
HTH,2023-08-19 06:35,-118.6315,38.5448,1282.89,75.20,41.00,29.23,260.00,5.00,0.00,30.02,M,10.00,M,CLR,M,M,M,M,M,M,M,M,M,M,M,M,M,M,75.20,KHTH 190635Z AUTO 26005KT 10SM CLR 24/05 A3002 RMK A01,M
10U,2023-08-19 06:35,-116.1876,41.9532,1637.00,62.60,42.80,48.28,0.00,0.00,0.00,30.06,M,10.00,M,CLR,M,M,M,M,M,M,M,M,M,M,M,M,M,M,62.60,K10U 190635Z AUTO 00000KT 10SM CLR 17/06 A3006 RMK AO2,M
BAM,2023-08-19 06:35,-116.8743,40.5990,1382.36,73.40,35.60,25.13,360.00,6.00,0.00,29.99,M,10.00,M,CLR,M,M,M,M,M,M,M,M,M,M,M,M,M,M,73.40,KBAM 190635Z AUTO 36006KT 10SM CLR 23/02 A2999 RMK AO1,M
TMT,2023-08-19 06:35,-117.1971,39.4643,1749.34,57.70,32.40,38.19,0.00,0.00,0.00,30.11,M,M,M,CLR,M,M,M,M,M,M,M,M,M,M,M,M,M,M,57.70,KTMT 190635Z AUTO 00000KT CLR 14/00 A3011 RMK AO2 T01430002 PWINO,M
05U,2023-08-19 06:50,-116.0051,39.6042,1811.23,69.80,26.60,19.72,M,M,0.00,30.14,M,10.00,M,M,M,M,M,M,M,M,M,M,M,M,M,M,M,M,69.80,K05U 190650Z AUTO 10SM 21/M03 A3014 RMK A01,M
P68,2023-08-19 06:53,-116.0056,39.6014,1993.00,71.00,28.00,20.06,140.00,9.00,0.00,30.11,1009.80,M,M,M,M,M,M,M,M,M,M,M,M,M,M,M,M,M,71.00,KP68 190653Z AUTO 14009KT 22/M02 A3011 RMK AO1 SLP098 T02171022,M
DRA,2023-08-19 06:53,-116.0278,36.6206,1009.00,77.00,51.00,40.21,110.00,26.00,0.00,29.99,1010.30,10.00,37.00,CLR,M,M,M,M,M,M,M,M,M,M,M,41.00,100.00,2023-08-19 06:36,77.00,KDRA 190653Z AUTO 11026G37KT 10SM CLR 25/11 A2999 RMK AO2 PK WND 10041/0636 SLP103 T02500106,M
ELY,2023-08-19 06:53,-114.8453,39.2950,1909.00,67.00,50.00,54.35,210.00,10.00,0.00,30.18,1010.90,10.00,M,CLR,M,M,M,M,M,M,M,M,M,M,M,M,M,M,67.00,KELY 190653Z AUTO 21010KT 10SM CLR 19/10 A3018 RMK AO2 SLP109 T01940100,M
VGT,2023-08-19 06:53,-115.1933,36.2111,667.00,74.00,65.00,73.50,290.00,6.00,T,30.05,1016.90,10.00,M,CLR,M,M,M,M,M,M,M,M,M,M,M,M,M,M,74.00,KVGT 190653Z AUTO 29006KT 10SM CLR 23/18 A3005 RMK AO2 LTG DSNT S RAE30 SLP169 P0000 T02330183,M
LOL,2023-08-19 06:53,-118.5701,40.0684,1192.43,73.00,41.00,31.47,350.00,5.00,0.00,29.96,1009.90,10.00,M,CLR,M,M,M,M,M,M,M,M,M,M,M,M,M,M,73.00,KLOL 190653Z AUTO 35005KT 10SM CLR 23/05 A2996 RMK AO2 LTG DSNT SW AND W SLP099 T02280050,M
BVU,2023-08-19 06:55,-114.8611,35.9475,671.00,71.60,64.40,78.04,180.00,5.00,0.00,30.04,M,10.00,M,CLR,M,M,M,M,M,M,M,M,M,M,M,M,M,M,71.60,KBVU 190655Z AUTO 18005KT 10SM CLR 22/18 A3004 RMK AO2,M
CXP,2023-08-19 06:55,-119.7326,39.1923,1431.00,66.20,48.20,52.25,200.00,8.00,0.00,30.09,M,10.00,M,OVC,M,M,M,11000.00,M,M,M,M,M,M,M,M,M,M,66.20,KCXP 190655Z AUTO 20008KT 10SM OVC110 19/09 A3009 RMK AO2,M
INS,2023-08-19 06:55,-115.6733,36.5872,955.00,73.00,53.00,49.48,130.00,19.00,0.01,30.04,1012.30,10.00,27.00,SCT,M,M,M,18000.00,M,M,M,M,M,M,M,34.00,90.00,2023-08-19 05:58,73.00,KINS 190655Z AUTO 13019G27KT 10SM SCT180 23/12 A3004 RMK AO2 PK WND 09034/0558 RAE12 SLP123 P0001 T02270117 $,M
RNO,2023-08-19 06:55,-119.7711,39.4839,1341.00,76.00,42.00,29.59,30.00,5.00,0.00,30.03,1010.30,10.00,M,BKN,M,M,M,14000.00,M,M,M,M,M,M,M,M,M,M,76.00,KRNO 190655Z 03005KT 10SM BKN140 24/06 A3003 RMK AO2 SLP103 T02440056,M
RTS,2023-08-19 06:55,-119.8764,39.6682,1539.00,69.80,39.20,32.72,130.00,5.00,0.00,30.09,M,10.00,M,FEW,FEW,SCT,M,5000.00,6000.00,11000.00,M,M,M,M,M,M,M,M,69.80,KRTS 190655Z AUTO 13005KT 10SM FEW050 FEW060 SCT110 21/04 A3009 RMK AO2,M
MEV,2023-08-19 06:55,-119.7500,38.9963,1441.42,59.00,51.80,76.98,210.00,8.00,0.00,30.08,M,10.00,M,BKN,M,M,M,10000.00,M,M,M,M,M,M,M,M,M,M,59.00,KMEV 190655Z AUTO 21008KT 10SM BKN100 15/11 A3008 RMK AO2,M
HTH,2023-08-19 06:55,-118.6315,38.5448,1282.89,75.20,41.00,29.23,270.00,5.00,0.00,30.03,M,10.00,M,CLR,M,M,M,M,M,M,M,M,M,M,M,M,M,M,75.20,KHTH 190655Z AUTO 27005KT 10SM CLR 24/05 A3003 RMK A01,M
BAM,2023-08-19 06:55,-116.8743,40.5990,1382.36,75.20,39.20,27.26,350.00,9.00,0.00,29.99,M,10.00,M,CLR,M,M,M,M,M,M,M,M,M,M,M,M,M,M,75.20,KBAM 190655Z AUTO 35009KT 10SM CLR 24/04 A2999 RMK AO1,M
TMT,2023-08-19 06:55,-117.1971,39.4643,1749.34,52.50,32.00,45.41,0.00,0.00,0.00,30.11,M,M,M,CLR,M,M,M,M,M,M,M,M,M,M,M,M,M,M,52.50,KTMT 190655Z AUTO 00000KT CLR 11/00 A3011 RMK AO2 T01140001 PWINO,M
10U,2023-08-19 06:55,-116.1876,41.9532,1637.00,60.80,42.80,51.45,0.00,0.00,0.00,30.05,M,10.00,M,CLR,M,M,M,M,M,M,M,M,M,M,M,M,M,M,60.80,K10U 190655Z AUTO 00000KT 10SM CLR 16/06 A3005 RMK AO2,M
LSV,2023-08-19 06:55,-115.0343,36.2362,570.00,71.40,67.00,86.01,0.00,0.00,T,30.01,1014.00,10.00,M,FEW,M,M,M,14000.00,M,M,M,M,M,M,M,M,M,M,71.40,KLSV 190655Z AUTO 00000KT 10SM FEW140 22/19 A3001 RMK AO2 RAE11DZB11E15 SLP140 P0000 T02190194 $,M
EKO,2023-08-19 06:56,-115.7860,40.8242,1367.00,68.00,45.00,43.51,30.00,4.00,0.00,30.01,1009.90,10.00,M,CLR,M,M,M,M,M,M,M,M,M,M,M,M,M,M,68.00,KEKO 190656Z AUTO 03004KT 10SM CLR 20/07 A3001 RMK AO2 SLP099 T02000072,M
WMC,2023-08-19 06:56,-117.8072,40.9019,1315.00,70.00,41.00,34.85,0.00,0.00,0.00,29.98,1009.60,10.00,M,CLR,M,M,M,M,M,M,M,M,M,M,M,M,M,M,70.00,KWMC 190656Z AUTO 00000KT 10SM CLR 21/05 A2998 RMK AO2 SLP096 T02110050,M
HND,2023-08-19 06:56,-115.1344,35.9729,742.79,M,M,M,M,M,0.00,M,M,M,M,M,M,M,M,M,M,M,M,M,M,M,M,M,M,M,M,KHND 190656Z AUTO RMK AO2 LTG DSNT S AND SW SLPNO PWINO FZRANO $,M
TPH,2023-08-19 06:56,-117.0904,38.0505,1654.00,68.00,27.00,21.33,110.00,7.00,0.00,30.11,1011.00,10.00,M,CLR,M,M,M,M,M,M,M,M,M,M,M,M,M,M,68.00,KTPH 190656Z AUTO 11007KT 10SM CLR 20/M03 A3011 RMK AO2 SLP110 T02001028,M
LAS,2023-08-19 06:56,-115.1634,36.0719,663.00,73.00,63.00,70.87,0.00,0.00,T,30.06,1015.60,10.00,M,FEW,SCT,BKN,OVC,10000.00,12000.00,16000.00,22000.00,M,M,M,M,M,M,M,73.00,KLAS 190656Z 00000KT 10SM FEW100 SCT120 BKN160 OVC220 23/17 A3006 RMK AO2 LTG DSNT S RAE23 SLP156 P0000 T02280172,M
NFL,2023-08-19 06:56,-118.7010,39.4166,1199.00,73.00,46.00,38.11,260.00,10.00,0.00,29.99,1012.80,10.00,M,CLR,M,M,M,M,M,M,M,M,M,M,M,M,M,M,73.00,KNFL 190656Z AUTO 26010KT 10SM CLR 23/08 A2999 RMK AO2 SLP128 T02280078,M
HND,2023-08-19 07:12,-115.1344,35.9729,742.79,M,M,M,M,M,0.00,M,M,M,M,M,M,M,M,M,M,M,M,VCTS,M,M,M,M,M,M,M,KHND 190712Z AUTO VCTS RMK AO2 LTG DSNT S-NW TSB06 PWINO FZRANO $,M
BVU,2023-08-19 07:15,-114.8611,35.9475,671.00,71.60,64.40,78.04,270.00,7.00,0.00,30.07,M,10.00,M,FEW,FEW,SCT,M,6000.00,7500.00,12000.00,M,VCTS,M,M,M,M,M,M,71.60,KBVU 190715Z AUTO 27007KT 10SM VCTS FEW060 FEW075 SCT120 22/18 A3007 RMK AO2 LTG DSNT SW,M
CXP,2023-08-19 07:15,-119.7326,39.1923,1431.00,64.40,50.00,59.50,M,5.00,0.00,30.10,M,10.00,12.00,FEW,SCT,OVC,M,4700.00,6500.00,10000.00,M,M,M,M,M,M,M,M,64.40,KCXP 190715Z AUTO VRB05G12KT 10SM FEW047 SCT065 OVC100 18/10 A3010 RMK AO2,M
RTS,2023-08-19 07:15,-119.8764,39.6682,1539.00,68.00,39.20,34.80,30.00,6.00,0.00,30.09,M,10.00,M,SCT,M,M,M,12000.00,M,M,M,M,M,M,M,M,M,M,68.00,KRTS 190715Z AUTO 03006KT 10SM SCT120 20/04 A3009 RMK AO2,M
05U,2023-08-19 07:15,-116.0051,39.6042,1811.23,66.20,28.40,24.04,M,M,0.00,30.14,M,10.00,M,M,M,M,M,M,M,M,M,M,M,M,M,M,M,M,66.20,K05U 190715Z AUTO 10SM 19/M02 A3014 RMK A01,M
MEV,2023-08-19 07:15,-119.7500,38.9963,1441.42,59.00,51.80,76.98,140.00,6.00,0.00,30.09,M,10.00,M,BKN,M,M,M,11000.00,M,M,M,M,M,M,M,M,M,M,59.00,KMEV 190715Z AUTO 14006KT 10SM BKN110 15/11 A3009 RMK AO2,M
HTH,2023-08-19 07:15,-118.6315,38.5448,1282.89,71.60,44.60,37.89,270.00,5.00,0.00,30.03,M,10.00,M,CLR,M,M,M,M,M,M,M,M,M,M,M,M,M,M,71.60,KHTH 190715Z AUTO 27005KT 10SM CLR 22/07 A3003 RMK A01,M
10U,2023-08-19 07:15,-116.1876,41.9532,1637.00,62.60,44.60,51.72,0.00,0.00,0.00,30.06,M,10.00,M,CLR,M,M,M,M,M,M,M,M,M,M,M,M,M,M,62.60,K10U 190715Z AUTO 00000KT 10SM CLR 17/07 A3006 RMK AO2,M
BAM,2023-08-19 07:15,-116.8743,40.5990,1382.36,73.40,39.20,28.96,320.00,6.00,0.00,29.99,M,10.00,M,CLR,M,M,M,M,M,M,M,M,M,M,M,M,M,M,73.40,KBAM 190715Z AUTO 32006KT 10SM CLR 23/04 A2999 RMK AO1,M
TMT,2023-08-19 07:15,-117.1971,39.4643,1749.34,52.70,33.00,46.92,0.00,0.00,0.00,30.11,M,M,M,CLR,M,M,M,M,M,M,M,M,M,M,M,M,M,M,52.70,KTMT 190715Z AUTO 00000KT CLR 12/01 A3011 RMK AO2 T01150005 PWINO,M
LAS,2023-08-19 07:21,-115.1634,36.0719,663.00,73.00,63.00,70.87,230.00,3.00,0.00,30.09,M,10.00,M,FEW,SCT,BKN,OVC,4500.00,10000.00,16000.00,22000.00,TS,M,M,M,M,M,M,73.00,KLAS 190721Z 23003KT 10SM TS FEW045 SCT100CB BKN160 OVC220 23/17 A3009 RMK AO2 LTG DSNT S AND SW TSE18B21 TS OHD-S MOV N T02280172,M
05U,2023-08-19 07:30,-116.0051,39.6042,1811.23,64.40,28.40,25.60,M,M,0.00,30.14,M,10.00,M,M,M,M,M,M,M,M,M,M,M,M,M,M,M,M,64.40,K05U 190730Z AUTO 10SM 18/M02 A3014 RMK A01,M
BVU,2023-08-19 07:35,-114.8611,35.9475,671.00,71.60,64.40,78.04,240.00,7.00,0.00,30.09,M,10.00,14.00,FEW,BKN,OVC,M,6000.00,8000.00,12000.00,M,M,M,M,M,M,M,M,71.60,KBVU 190735Z AUTO 24007G14KT 10SM FEW060 BKN080 OVC120 22/18 A3009 RMK AO2,M
CXP,2023-08-19 07:35,-119.7326,39.1923,1431.00,64.40,50.00,59.50,M,4.00,0.00,30.11,M,10.00,M,FEW,SCT,BKN,M,3800.00,6500.00,7500.00,M,M,M,M,M,M,M,M,64.40,KCXP 190735Z AUTO VRB04KT 10SM FEW038 SCT065 BKN075 18/10 A3011 RMK AO2,M
RTS,2023-08-19 07:35,-119.8764,39.6682,1539.00,69.80,39.20,32.72,80.00,5.00,0.00,30.08,M,10.00,M,BKN,M,M,M,12000.00,M,M,M,M,M,M,M,M,M,M,69.80,KRTS 190735Z AUTO 08005KT 10SM BKN120 21/04 A3008 RMK AO2,M
MEV,2023-08-19 07:35,-119.7500,38.9963,1441.42,57.20,53.60,87.74,120.00,4.00,0.00,30.09,M,10.00,M,BKN,M,M,M,11000.00,M,M,M,M,M,M,M,M,M,M,57.20,KMEV 190735Z AUTO 12004KT 10SM BKN110 14/12 A3009 RMK AO2,M
BAM,2023-08-19 07:35,-116.8743,40.5990,1382.36,68.00,35.60,30.20,200.00,5.00,0.00,30.00,M,10.00,M,CLR,M,M,M,M,M,M,M,M,M,M,M,M,M,M,68.00,KBAM 190735Z AUTO 20005KT 10SM CLR 20/02 A3000 RMK AO1,M
HTH,2023-08-19 07:35,-118.6315,38.5448,1282.89,71.60,46.40,40.57,310.00,7.00,0.00,30.03,M,10.00,M,CLR,M,M,M,M,M,M,M,M,M,M,M,M,M,M,71.60,KHTH 190735Z AUTO 31007KT 10SM CLR 22/08 A3003 RMK A01,M
10U,2023-08-19 07:35,-116.1876,41.9532,1637.00,64.40,46.40,51.98,0.00,0.00,0.00,30.06,M,10.00,M,CLR,M,M,M,M,M,M,M,M,M,M,M,M,M,M,64.40,K10U 190735Z AUTO 00000KT 10SM CLR 18/08 A3006 RMK AO2,M
TMT,2023-08-19 07:35,-117.1971,39.4643,1749.34,51.40,35.00,53.32,0.00,0.00,0.00,30.12,M,M,M,CLR,M,M,M,M,M,M,M,M,M,M,M,M,M,M,51.40,KTMT 190735Z AUTO 00000KT CLR 11/02 A3012 RMK AO2 T01080016 PWINO,M
HND,2023-08-19 07:39,-115.1344,35.9729,742.79,M,M,M,M,M,0.00,M,M,M,M,M,M,M,M,M,M,M,M,M,M,M,M,M,M,M,M,KHND 190739Z AUTO RMK AO2 TSB06E33 PWINO FZRANO $,M
P68,2023-08-19 07:53,-116.0056,39.6014,1993.00,66.00,30.00,25.85,0.00,0.00,0.00,30.11,1010.20,M,M,M,M,M,M,M,M,M,M,M,M,M,M,M,M,M,66.00,KP68 190753Z AUTO 00000KT 19/M01 A3011 RMK AO1 SLP102 T01891011 403060072,M
DRA,2023-08-19 07:53,-116.0278,36.6206,1009.00,78.00,50.00,37.48,100.00,22.00,0.00,29.99,1010.00,10.00,31.00,CLR,M,M,M,M,M,M,M,M,M,M,M,39.00,110.00,2023-08-19 06:56,78.00,KDRA 190753Z AUTO 10022G31KT 10SM CLR 26/10 A2999 RMK AO2 PK WND 11039/0656 SLP100 T02560100 403830244,M
ELY,2023-08-19 07:53,-114.8453,39.2950,1909.00,66.00,49.00,54.21,200.00,11.00,0.00,30.19,1011.20,10.00,M,BKN,M,M,M,11000.00,M,M,M,M,M,M,M,M,M,M,66.00,KELY 190753Z AUTO 20011KT 10SM BKN110 19/09 A3019 RMK AO2 SLP112 T01890094 403000089,M
VGT,2023-08-19 07:53,-115.1933,36.2111,667.00,75.00,63.00,66.27,200.00,9.00,T,30.08,1017.70,10.00,M,FEW,BKN,M,M,9500.00,12000.00,M,M,-RA,M,M,M,M,M,M,75.00,KVGT 190753Z AUTO 20009KT 10SM -RA FEW095 BKN120 24/17 A3008 RMK AO2 RAB45 SLP177 P0000 T02390172 403670233,M
LOL,2023-08-19 07:53,-118.5701,40.0684,1192.43,64.00,40.00,41.25,0.00,0.00,0.00,29.98,1010.90,10.00,M,CLR,M,M,M,M,M,M,M,M,M,M,M,M,M,M,64.00,KLOL 190753Z AUTO 00000KT 10SM CLR 18/04 A2998 RMK AO2 SLP109 T01780044 403390122,M
BVU,2023-08-19 07:55,-114.8611,35.9475,671.00,71.60,64.40,78.04,260.00,7.00,0.00,30.09,M,10.00,M,FEW,SCT,BKN,M,3500.00,4900.00,8000.00,M,-DZ,M,M,M,M,M,M,71.60,KBVU 190755Z AUTO 26007KT 10SM -DZ FEW035 SCT049 BKN080 22/18 A3009 RMK AO2 LTG DSNT E AND SE,M
CXP,2023-08-19 07:55,-119.7326,39.1923,1431.00,64.40,50.00,59.50,300.00,4.00,0.00,30.11,M,10.00,M,SCT,BKN,OVC,M,3300.00,6000.00,11000.00,M,M,M,M,M,M,M,M,64.40,KCXP 190755Z AUTO 30004KT 10SM SCT033 BKN060 OVC110 18/10 A3011 RMK AO2,M
INS,2023-08-19 07:55,-115.6733,36.5872,955.00,76.50,48.20,36.83,140.00,22.00,0.00,30.01,1011.00,10.00,28.00,FEW,BKN,M,M,17000.00,20000.00,M,M,M,M,M,M,28.00,130.00,2023-08-19 07:39,76.50,KINS 190755Z AUTO 14022G28KT 10SM FEW170 BKN200 25/09 A3001 RMK AO2 PK WND 13028/39 SLP110 T02470090 403480211 $,M
RNO,2023-08-19 07:55,-119.7711,39.4839,1341.00,74.00,44.00,34.15,190.00,12.00,0.00,30.05,1011.30,10.00,M,BKN,M,M,M,11000.00,M,M,M,M,M,M,M,M,M,M,74.00,KRNO 190755Z 19012KT 10SM BKN110 23/07 A3005 RMK AO2 SLP113 T02330067 403280178,M
RTS,2023-08-19 07:55,-119.8764,39.6682,1539.00,68.00,39.20,34.80,0.00,0.00,0.00,30.09,M,10.00,M,OVC,M,M,M,11000.00,M,M,M,M,M,M,M,M,M,M,68.00,KRTS 190755Z AUTO 00000KT 10SM OVC110 20/04 A3009 RMK AO2,M
05U,2023-08-19 07:55,-116.0051,39.6042,1811.23,64.40,30.20,27.55,M,M,0.00,30.14,M,10.00,M,M,M,M,M,M,M,M,M,M,M,M,M,M,M,M,64.40,K05U 190755Z AUTO 10SM 18/M01 A3014 RMK A01,M
MEV,2023-08-19 07:55,-119.7500,38.9963,1441.42,57.20,51.80,82.12,0.00,0.00,0.00,30.09,M,10.00,M,BKN,M,M,M,11000.00,M,M,M,M,M,M,M,M,M,M,57.20,KMEV 190755Z AUTO 00000KT 10SM BKN110 14/11 A3009 RMK AO2,M
BAM,2023-08-19 07:55,-116.8743,40.5990,1382.36,68.00,35.60,30.20,200.00,4.00,0.00,30.01,M,10.00,M,CLR,M,M,M,M,M,M,M,M,M,M,M,M,M,M,68.00,KBAM 190755Z AUTO 20004KT 10SM CLR 20/02 A3001 RMK AO1,M
HTH,2023-08-19 07:55,-118.6315,38.5448,1282.89,71.60,46.40,40.57,290.00,6.00,0.00,30.03,M,10.00,M,CLR,M,M,M,M,M,M,M,M,M,M,M,M,M,M,71.60,KHTH 190755Z AUTO 29006KT 10SM CLR 22/08 A3003 RMK A01,M
TMT,2023-08-19 07:55,-117.1971,39.4643,1749.34,51.40,35.60,54.61,0.00,0.00,0.00,30.12,M,M,M,CLR,M,M,M,M,M,M,M,M,M,M,M,M,M,M,51.40,KTMT 190755Z AUTO 00000KT CLR 11/02 A3012 RMK AO2 T01080020 403160055 PWINO,M
10U,2023-08-19 07:55,-116.1876,41.9532,1637.00,64.40,48.20,55.63,110.00,4.00,0.00,30.05,M,10.00,M,CLR,M,M,M,M,M,M,M,M,M,M,M,M,M,M,64.40,K10U 190755Z AUTO 11004KT 10SM CLR 18/09 A3005 RMK AO2,M
LSV,2023-08-19 07:55,-115.0343,36.2362,570.00,72.70,72.30,98.66,160.00,10.00,0.00,30.04,1015.00,10.00,M,OVC,M,M,M,12000.00,M,M,M,M,M,M,M,M,M,M,72.70,KLSV 190755Z AUTO 16010KT 10SM OVC120 23/22 A3004 RMK AO2 SLP150 T02260224 403730219 $,M
EKO,2023-08-19 07:56,-115.7860,40.8242,1367.00,58.00,47.00,66.71,170.00,3.00,0.00,30.02,1010.80,10.00,M,CLR,M,M,M,M,M,M,M,M,M,M,M,M,M,M,58.00,KEKO 190756Z AUTO 17003KT 10SM CLR 14/08 A3002 RMK AO2 SLP108 T01440083 403220128,M
WMC,2023-08-19 07:56,-117.8072,40.9019,1315.00,64.00,39.00,39.67,0.00,0.00,0.00,29.99,1010.10,10.00,M,CLR,M,M,M,M,M,M,M,M,M,M,M,M,M,M,64.00,KWMC 190756Z AUTO 00000KT 10SM CLR 18/04 A2999 RMK AO2 SLP101 T01780039 403500161,M
NFL,2023-08-19 07:56,-118.7010,39.4166,1199.00,70.00,44.00,39.11,240.00,7.00,0.00,29.99,1012.70,10.00,M,CLR,M,M,M,M,M,M,M,M,M,M,M,M,M,M,70.00,KNFL 190756Z AUTO 24007KT 10SM CLR 21/07 A2999 RMK AO2 SLP127 T02110067 403500156,M
HND,2023-08-19 07:56,-115.1344,35.9729,742.79,M,M,M,M,M,0.00,M,M,M,M,M,M,M,M,M,M,M,M,M,M,M,M,M,M,M,M,KHND 190756Z AUTO RMK AO2 TSB06E33 SLPNO PWINO FZRANO $,M
TPH,2023-08-19 07:56,-117.0904,38.0505,1654.00,66.00,25.00,21.04,20.00,7.00,0.00,30.12,1011.30,10.00,M,CLR,M,M,M,M,M,M,M,M,M,M,M,M,M,M,66.00,KTPH 190756Z AUTO 02007KT 10SM CLR 19/M04 A3012 RMK AO2 SLP113 T01891039 403220133,M
LAS,2023-08-19 07:56,-115.1634,36.0719,663.00,72.00,65.00,78.62,110.00,6.00,T,30.07,1016.00,10.00,M,FEW,BKN,OVC,M,4500.00,10000.00,16000.00,M,-TSRA,M,M,M,M,M,M,72.00,KLAS 190756Z 11006KT 10SM -TSRA FEW045 BKN100CB OVC160 22/18 A3007 RMK AO2 SLP160 RAB27 TSB21 TS OHD-S MOV N P0000 T02220183 403500222,M
VGT,2023-08-19 08:04,-115.1933,36.2111,667.00,74.00,63.00,68.53,160.00,8.00,T,30.05,M,10.00,M,FEW,SCT,BKN,M,8000.00,10000.00,12000.00,M,-TSRA,M,M,M,M,M,M,74.00,KVGT 190804Z AUTO 16008KT 10SM -TSRA FEW080 SCT100 BKN120 23/17 A3005 RMK AO2 TSB0758 P0000 T02330172,M
LSV,2023-08-19 08:06,-115.0343,36.2362,570.00,73.40,71.60,94.10,200.00,6.00,0.00,30.05,1015.30,10.00,M,OVC,M,M,M,11000.00,M,M,M,-DZ,M,M,M,M,M,M,73.40,KLSV 190806Z AUTO 20006KT 10SM -DZ OVC110 23/22 A3005 RMK AO2 LTG DSNT NE AND SW DZB06 SLP153 $,M
05U,2023-08-19 08:10,-116.0051,39.6042,1811.23,68.00,32.00,26.15,M,M,0.00,30.14,M,10.00,M,M,M,M,M,M,M,M,M,M,M,M,M,M,M,M,68.00,K05U 190810Z AUTO 10SM 20/M00 A3014 RMK A01,M
BVU,2023-08-19 08:15,-114.8611,35.9475,671.00,71.60,64.40,78.04,260.00,4.00,0.00,30.07,M,10.00,M,FEW,SCT,BKN,M,2900.00,4100.00,6500.00,M,M,M,M,M,M,M,M,71.60,KBVU 190815Z AUTO 26004KT 10SM FEW029 SCT041 BKN065 22/18 A3007 RMK AO2,M
CXP,2023-08-19 08:15,-119.7326,39.1923,1431.00,64.40,51.80,63.60,340.00,7.00,0.00,30.10,M,10.00,M,SCT,BKN,OVC,M,3000.00,6500.00,10000.00,M,M,M,M,M,M,M,M,64.40,KCXP 190815Z AUTO 34007KT 10SM SCT030 BKN065 OVC100 18/11 A3010 RMK AO2,M
RTS,2023-08-19 08:15,-119.8764,39.6682,1539.00,68.00,41.00,37.32,0.00,0.00,0.00,30.11,M,10.00,M,FEW,OVC,M,M,8000.00,11000.00,M,M,M,M,M,M,M,M,M,68.00,KRTS 190815Z AUTO 00000KT 10SM FEW080 OVC110 20/05 A3011 RMK AO2,M
MEV,2023-08-19 08:15,-119.7500,38.9963,1441.42,57.20,53.60,87.74,310.00,4.00,0.00,30.08,M,10.00,M,BKN,M,M,M,11000.00,M,M,M,M,M,M,M,M,M,M,57.20,KMEV 190815Z AUTO 31004KT 10SM BKN110 14/12 A3008 RMK AO2,M
HTH,2023-08-19 08:15,-118.6315,38.5448,1282.89,71.60,46.40,40.57,260.00,4.00,0.00,30.03,M,10.00,M,CLR,M,M,M,M,M,M,M,M,M,M,M,M,M,M,71.60,KHTH 190815Z AUTO 26004KT 10SM CLR 22/08 A3003 RMK A01,M
10U,2023-08-19 08:15,-116.1876,41.9532,1637.00,62.60,46.40,55.37,100.00,4.00,0.00,30.06,M,10.00,M,CLR,M,M,M,M,M,M,M,M,M,M,M,M,M,M,62.60,K10U 190815Z AUTO 10004KT 10SM CLR 17/08 A3006 RMK AO2,M
BAM,2023-08-19 08:15,-116.8743,40.5990,1382.36,66.20,35.60,32.14,210.00,4.00,0.00,30.00,M,10.00,M,CLR,M,M,M,M,M,M,M,M,M,M,M,M,M,M,66.20,KBAM 190815Z AUTO 21004KT 10SM CLR 19/02 A3000 RMK AO1,M
TMT,2023-08-19 08:15,-117.1971,39.4643,1749.34,46.00,33.00,60.25,130.00,6.00,0.00,30.12,M,M,M,CLR,M,M,M,M,M,M,M,M,M,M,M,M,M,M,42.39,KTMT 190815Z AUTO 13006KT CLR 08/01 A3012 RMK AO2 T00780006 PWINO,M
VGT,2023-08-19 08:24,-115.1933,36.2111,667.00,73.00,64.00,73.40,240.00,4.00,T,30.05,M,10.00,M,FEW,SCT,BKN,M,8000.00,9500.00,12000.00,M,-RA,M,M,M,M,M,M,73.00,KVGT 190824Z AUTO 24004KT 10SM -RA FEW080 SCT095 BKN120 23/18 A3005 RMK AO2 TSB0758E18 P0000 T02280178,M
05U,2023-08-19 08:30,-116.0051,39.6042,1811.23,66.20,33.80,29.92,M,M,0.00,30.14,M,10.00,M,M,M,M,M,M,M,M,M,M,M,M,M,M,M,M,66.20,K05U 190830Z AUTO 10SM 19/01 A3014 RMK A01,M
BVU,2023-08-19 08:35,-114.8611,35.9475,671.00,69.80,64.40,82.98,30.00,17.00,0.00,29.99,M,10.00,M,SCT,BKN,OVC,M,3700.00,5000.00,10000.00,M,-RA,M,M,M,M,M,M,69.80,KBVU 190835Z AUTO 03017KT 10SM -RA SCT037 BKN050 OVC100 21/18 A2999 RMK AO2,M
CXP,2023-08-19 08:35,-119.7326,39.1923,1431.00,64.40,53.60,67.95,310.00,5.00,0.00,30.07,M,9.00,12.00,FEW,BKN,OVC,M,2500.00,5500.00,10000.00,M,-RA,M,M,M,M,M,M,64.40,KCXP 190835Z AUTO 31005G12KT 9SM -RA FEW025 BKN055 OVC100 18/12 A3007 RMK AO2,M
RTS,2023-08-19 08:35,-119.8764,39.6682,1539.00,69.80,41.00,35.09,150.00,14.00,0.00,30.12,M,10.00,M,FEW,SCT,BKN,M,6000.00,7500.00,9000.00,M,M,M,M,M,M,M,M,69.80,KRTS 190835Z AUTO 15014KT 10SM FEW060 SCT075 BKN090 21/05 A3012 RMK AO2,M
MEV,2023-08-19 08:35,-119.7500,38.9963,1441.42,55.40,53.60,93.65,100.00,5.00,0.00,30.08,M,10.00,M,BKN,BKN,M,M,10000.00,12000.00,M,M,M,M,M,M,M,M,M,55.40,KMEV 190835Z AUTO 10005KT 10SM BKN100 BKN120 13/12 A3008 RMK AO2,M
HTH,2023-08-19 08:35,-118.6315,38.5448,1282.89,69.80,46.40,43.13,280.00,6.00,0.00,30.03,M,10.00,M,CLR,M,M,M,M,M,M,M,M,M,M,M,M,M,M,69.80,KHTH 190835Z AUTO 28006KT 10SM CLR 21/08 A3003 RMK A01,M
10U,2023-08-19 08:35,-116.1876,41.9532,1637.00,64.40,46.40,51.98,0.00,0.00,0.00,30.05,M,10.00,M,CLR,M,M,M,M,M,M,M,M,M,M,M,M,M,M,64.40,K10U 190835Z AUTO 00000KT 10SM CLR 18/08 A3005 RMK AO2,M
BAM,2023-08-19 08:35,-116.8743,40.5990,1382.36,69.80,35.60,28.39,230.00,5.00,0.00,30.00,M,10.00,M,CLR,M,M,M,M,M,M,M,M,M,M,M,M,M,M,69.80,KBAM 190835Z AUTO 23005KT 10SM CLR 21/02 A3000 RMK AO1,M
TMT,2023-08-19 08:35,-117.1971,39.4643,1749.34,47.70,32.00,54.28,0.00,0.00,0.00,30.12,M,M,M,CLR,M,M,M,M,M,M,M,M,M,M,M,M,M,M,47.70,KTMT 190835Z AUTO 00000KT CLR 09/00 A3012 RMK AO2 T00870001 PWINO,M
LSV,2023-08-19 08:41,-115.0343,36.2362,570.00,71.60,71.60,100.00,360.00,10.00,0.00,29.98,1013.00,10.00,M,FEW,FEW,SCT,SCT,4300.00,7500.00,9500.00,12000.00,M,M,M,M,M,M,M,71.60,KLSV 190841Z AUTO 36010KT 10SM FEW043 FEW075 SCT095 SCT120 22/22 A2998 RMK AO2 DZB06E08RAB08E18DZB18E21RAB21E34DZB34E41 PRESFR SLP130 $,M
LAS,2023-08-19 08:46,-115.1634,36.0719,663.00,72.00,63.00,73.31,10.00,5.00,0.01,30.02,M,10.00,M,FEW,SCT,BKN,M,8000.00,12000.00,18000.00,M,M,M,M,M,M,M,M,72.00,KLAS 190846Z 01005KT 10SM FEW080 SCT120 BKN180 22/17 A3002 RMK AO2 RAE19 TSE40 TS MOV N P0001 T02220172,M
05U,2023-08-19 08:50,-116.0051,39.6042,1811.23,66.20,35.60,32.14,M,M,0.00,30.14,M,10.00,M,M,M,M,M,M,M,M,M,M,M,M,M,M,M,M,66.20,K05U 190850Z AUTO 10SM 19/02 A3014 RMK A01,M
DRA,2023-08-19 08:53,-116.0278,36.6206,1009.00,79.00,49.00,34.94,100.00,20.00,0.00,29.99,1009.80,10.00,31.00,CLR,M,M,M,M,M,M,M,M,M,M,M,35.00,90.00,2023-08-19 08:34,79.00,KDRA 190853Z AUTO 10020G31KT 10SM CLR 26/09 A2999 RMK AO2 PK WND 09035/0834 SLP098 T02610094 50004,M
ELY,2023-08-19 08:53,-114.8453,39.2950,1909.00,65.00,49.00,56.13,170.00,15.00,0.00,30.19,1011.00,10.00,21.00,CLR,M,M,M,M,M,M,M,M,M,M,M,M,M,M,65.00,KELY 190853Z AUTO 17015G21KT 10SM CLR 18/09 A3019 RMK AO2 SLP110 T01830094 50005,M
VGT,2023-08-19 08:53,-115.1933,36.2111,667.00,74.00,63.00,68.53,320.00,5.00,T,30.02,1015.70,10.00,M,CLR,M,M,M,M,M,M,M,M,M,M,M,M,M,M,74.00,KVGT 190853Z AUTO 32005KT 10SM CLR 23/17 A3002 RMK AO2 RAE35 TSB0758E18 SLP157 P0000 60000 T02330172 58013,M
LOL,2023-08-19 08:53,-118.5701,40.0684,1192.43,65.00,42.00,43.04,0.00,0.00,0.00,29.97,1010.50,10.00,M,CLR,M,M,M,M,M,M,M,M,M,M,M,M,M,M,65.00,KLOL 190853Z AUTO 00000KT 10SM CLR 18/06 A2997 RMK AO2 SLP105 T01830056 50005,M
BVU,2023-08-19 08:55,-114.8611,35.9475,671.00,71.60,62.60,73.27,40.00,18.00,0.00,29.95,M,10.00,29.00,FEW,SCT,BKN,M,1900.00,3600.00,4900.00,M,M,M,M,M,M,M,M,71.60,KBVU 190855Z AUTO 04018G29KT 10SM FEW019 SCT036 BKN049 22/17 A2995 RMK AO2,M
CXP,2023-08-19 08:55,-119.7326,39.1923,1431.00,64.40,50.00,59.50,320.00,11.00,0.00,30.07,M,10.00,M,FEW,FEW,SCT,M,4700.00,6000.00,10000.00,M,M,M,M,M,M,M,M,64.40,KCXP 190855Z AUTO 32011KT 10SM FEW047 FEW060 SCT100 18/10 A3007 RMK AO2,M
INS,2023-08-19 08:55,-115.6733,36.5872,955.00,77.40,46.80,33.91,130.00,19.00,0.00,30.01,1011.00,10.00,M,SCT,M,M,M,20000.00,M,M,M,M,M,M,M,30.00,110.00,2023-08-19 08:06,77.40,KINS 190855Z AUTO 13019KT 10SM SCT200 25/08 A3001 RMK AO2 PK WND 11030/06 SLP110 60001 T02520082 57013 $,M
RNO,2023-08-19 08:55,-119.7711,39.4839,1341.00,72.00,47.00,40.94,250.00,10.00,T,30.04,1010.70,10.00,M,SCT,OVC,M,M,8000.00,10000.00,M,M,M,M,M,M,M,M,M,72.00,KRNO 190855Z 25010KT 10SM SCT080 OVC100 22/08 A3004 RMK AO2 RAB22E38 PRESFR SLP107 P0000 60000 T02220083 57002,M
RTS,2023-08-19 08:55,-119.8764,39.6682,1539.00,68.00,44.60,42.85,230.00,9.00,0.00,30.11,M,10.00,M,FEW,SCT,BKN,M,3100.00,4800.00,6000.00,M,M,M,M,M,M,M,M,68.00,KRTS 190855Z AUTO 23009KT 10SM FEW031 SCT048 BKN060 20/07 A3011 RMK AO2,M
MEV,2023-08-19 08:55,-119.7500,38.9963,1441.42,55.40,51.80,87.65,110.00,7.00,0.00,30.07,M,10.00,M,FEW,M,M,M,10000.00,M,M,M,M,M,M,M,M,M,M,55.40,KMEV 190855Z AUTO 11007KT 10SM FEW100 13/11 A3007 RMK AO2,M
HTH,2023-08-19 08:55,-118.6315,38.5448,1282.89,69.80,44.60,40.29,240.00,6.00,0.00,30.03,M,10.00,M,CLR,M,M,M,M,M,M,M,M,M,M,M,M,M,M,69.80,KHTH 190855Z AUTO 24006KT 10SM CLR 21/07 A3003 RMK A01,M
LSV,2023-08-19 08:55,-115.0343,36.2362,570.00,71.80,71.40,98.65,250.00,10.00,0.01,29.99,1013.20,10.00,M,FEW,M,M,M,12000.00,M,M,M,M,M,M,M,M,M,M,71.80,KLSV 190855Z AUTO 25010KT 10SM FEW120 22/22 A2999 RMK AO2 DZB06E08RAB08E18DZB18E21RAB21E34DZB34E41 SLP132 P0001 60001 T02210219 58006 $,M
BAM,2023-08-19 08:55,-116.8743,40.5990,1382.36,68.00,35.60,30.20,0.00,0.00,0.00,30.00,M,10.00,M,CLR,M,M,M,M,M,M,M,M,M,M,M,M,M,M,68.00,KBAM 190855Z AUTO 00000KT 10SM CLR 20/02 A3000 RMK AO1,M
TMT,2023-08-19 08:55,-117.1971,39.4643,1749.34,49.60,32.00,50.55,0.00,0.00,0.00,30.12,M,M,M,CLR,M,M,M,M,M,M,M,M,M,M,M,M,M,M,49.60,KTMT 190855Z AUTO 00000KT CLR 10/00 A3012 RMK AO2 T00980000 PWINO,M
10U,2023-08-19 08:55,-116.1876,41.9532,1637.00,62.60,46.40,55.37,100.00,3.00,0.00,30.06,M,10.00,M,CLR,M,M,M,M,M,M,M,M,M,M,M,M,M,M,62.60,K10U 190855Z AUTO 10003KT 10SM CLR 17/08 A3006 RMK AO2,M
EKO,2023-08-19 08:56,-115.7860,40.8242,1367.00,59.00,46.00,61.98,0.00,0.00,0.00,30.03,1010.90,10.00,M,CLR,M,M,M,M,M,M,M,M,M,M,M,M,M,M,59.00,KEKO 190856Z AUTO 00000KT 10SM CLR 15/08 A3003 RMK AO2 SLP109 T01500078 53004,M
HND,2023-08-19 08:56,-115.1344,35.9729,742.79,M,M,M,M,M,0.00,M,M,M,M,M,M,M,M,M,M,M,M,M,M,M,M,M,M,M,M,KHND 190856Z AUTO RMK AO2 SLPNO 6//// PWINO FZRANO $,M
WMC,2023-08-19 08:56,-117.8072,40.9019,1315.00,61.00,39.00,44.10,0.00,0.00,0.00,29.98,1009.90,10.00,M,CLR,M,M,M,M,M,M,M,M,M,M,M,M,M,M,61.00,KWMC 190856Z AUTO 00000KT 10SM CLR 16/04 A2998 RMK AO2 SLP099 T01610039 50001,M
NFL,2023-08-19 08:56,-118.7010,39.4166,1199.00,67.00,44.00,43.35,280.00,5.00,0.00,29.99,1012.60,10.00,M,CLR,M,M,M,M,M,M,M,M,M,M,M,M,M,M,67.00,KNFL 190856Z AUTO 28005KT 10SM CLR 19/07 A2999 RMK AO2 SLP126 T01940067 58002,M
TPH,2023-08-19 08:56,-117.0904,38.0505,1654.00,69.00,45.00,42.04,110.00,7.00,0.00,30.13,1011.30,10.00,M,CLR,M,M,M,M,M,M,M,M,M,M,M,M,M,M,69.00,KTPH 190856Z AUTO 11007KT 10SM CLR 21/07 A3013 RMK AO2 SLP113 T02060072 51013,M
LAS,2023-08-19 08:56,-115.1634,36.0719,663.00,72.00,64.00,75.92,360.00,10.00,0.01,30.00,1013.50,10.00,M,FEW,SCT,BKN,M,8000.00,12000.00,18000.00,M,M,M,M,M,M,M,M,72.00,KLAS 190856Z 36010KT 10SM FEW080 SCT120 BKN180 22/18 A3000 RMK AO2 RAE19 TSE40 PRESFR SLP135 TS MOV N P0001 60001 T02220178 58018,M
LSV,2023-08-19 08:59,-115.0343,36.2362,570.00,71.60,71.60,100.00,300.00,10.00,0.00,29.98,1012.80,10.00,M,FEW,M,M,M,12000.00,M,M,M,M,M,M,M,M,M,M,71.60,KLSV 190859Z AUTO 30010KT 10SM FEW120 22/22 A2998 RMK AO2 WSHFT 54 SLP128 $,M
HTH,2023-08-19 09:10,-118.6315,38.5448,1282.89,69.80,46.40,43.13,270.00,6.00,0.00,30.03,M,10.00,M,CLR,M,M,M,M,M,M,M,M,M,M,M,M,M,M,69.80,KHTH 190910Z AUTO 27006KT 10SM CLR 21/08 A3003 RMK A01,M
BVU,2023-08-19 09:15,-114.8611,35.9475,671.00,71.60,62.60,73.27,30.00,14.00,0.00,29.96,M,10.00,24.00,FEW,FEW,FEW,M,2300.00,3400.00,4600.00,M,M,M,M,M,M,M,M,71.60,KBVU 190915Z AUTO 03014G24KT 10SM FEW023 FEW034 FEW046 22/17 A2996 RMK AO2,M
CXP,2023-08-19 09:15,-119.7326,39.1923,1431.00,66.20,48.20,52.25,M,5.00,0.00,30.07,M,10.00,M,CLR,M,M,M,M,M,M,M,M,M,M,M,M,M,M,66.20,KCXP 190915Z AUTO VRB05KT 10SM CLR 19/09 A3007 RMK AO2,M
RTS,2023-08-19 09:15,-119.8764,39.6682,1539.00,69.80,42.80,37.61,M,4.00,0.00,30.11,M,10.00,M,FEW,SCT,BKN,M,2600.00,5000.00,6500.00,M,M,M,M,M,M,M,M,69.80,KRTS 190915Z AUTO VRB04KT 10SM FEW026 SCT050 BKN065 21/06 A3011 RMK AO2,M
05U,2023-08-19 09:15,-116.0051,39.6042,1811.23,64.40,35.60,34.22,M,M,0.00,30.14,M,10.00,M,M,M,M,M,M,M,M,M,M,M,M,M,M,M,M,64.40,K05U 190915Z AUTO 10SM 18/02 A3014 RMK A01,M
MEV,2023-08-19 09:15,-119.7500,38.9963,1441.42,55.40,50.00,81.99,130.00,6.00,0.00,30.07,M,10.00,M,CLR,M,M,M,M,M,M,M,M,M,M,M,M,M,M,55.40,KMEV 190915Z AUTO 13006KT 10SM CLR 13/10 A3007 RMK AO2,M
10U,2023-08-19 09:15,-116.1876,41.9532,1637.00,59.00,44.60,58.77,0.00,0.00,0.00,30.06,M,10.00,M,CLR,M,M,M,M,M,M,M,M,M,M,M,M,M,M,59.00,K10U 190915Z AUTO 00000KT 10SM CLR 15/07 A3006 RMK AO2,M
BAM,2023-08-19 09:15,-116.8743,40.5990,1382.36,66.20,35.60,32.14,220.00,5.00,0.00,30.00,M,10.00,M,CLR,M,M,M,M,M,M,M,M,M,M,M,M,M,M,66.20,KBAM 190915Z AUTO 22005KT 10SM CLR 19/02 A3000 RMK AO1,M
TMT,2023-08-19 09:15,-117.1971,39.4643,1749.34,49.30,35.60,59.04,0.00,0.00,0.00,30.12,M,M,M,CLR,M,M,M,M,M,M,M,M,M,M,M,M,M,M,49.30,KTMT 190915Z AUTO 00000KT CLR 10/02 A3012 RMK AO2 T00960020 PWINO,M
INS,2023-08-19 09:23,-115.6733,36.5872,955.00,73.40,55.40,53.29,80.00,11.00,0.00,30.00,1010.90,10.00,M,SCT,BKN,M,M,18000.00,21000.00,M,M,M,M,M,M,M,M,M,73.40,KINS 190923Z AUTO 08011KT 10SM SCT180 BKN210 23/13 A3000 RMK AO2 WSHFT 09 SLP109 $,M
05U,2023-08-19 09:30,-116.0051,39.6042,1811.23,62.60,35.60,36.45,M,M,0.00,30.14,M,10.00,M,M,M,M,M,M,M,M,M,M,M,M,M,M,M,M,62.60,K05U 190930Z AUTO 10SM 17/02 A3014 RMK A01,M
BVU,2023-08-19 09:35,-114.8611,35.9475,671.00,69.80,64.40,82.98,260.00,10.00,0.00,29.99,M,10.00,20.00,CLR,M,M,M,M,M,M,M,M,M,M,M,M,M,M,69.80,KBVU 190935Z AUTO 26010G20KT 10SM CLR 21/18 A2999 RMK AO2,M
CXP,2023-08-19 09:35,-119.7326,39.1923,1431.00,64.40,50.00,59.50,220.00,4.00,0.00,30.07,M,10.00,M,CLR,M,M,M,M,M,M,M,M,M,M,M,M,M,M,64.40,KCXP 190935Z AUTO 22004KT 10SM CLR 18/10 A3007 RMK AO2,M
RTS,2023-08-19 09:35,-119.8764,39.6682,1539.00,68.00,42.80,40.00,340.00,12.00,0.00,30.07,M,10.00,M,FEW,SCT,BKN,M,2800.00,5500.00,6500.00,M,M,M,M,M,M,M,M,68.00,KRTS 190935Z AUTO 34012KT 10SM FEW028 SCT055 BKN065 20/06 A3007 RMK AO2,M
MEV,2023-08-19 09:35,-119.7500,38.9963,1441.42,53.60,50.00,87.56,210.00,4.00,0.00,30.08,M,10.00,M,CLR,M,M,M,M,M,M,M,M,M,M,M,M,M,M,53.60,KMEV 190935Z AUTO 21004KT 10SM CLR 12/10 A3008 RMK AO2,M
HTH,2023-08-19 09:35,-118.6315,38.5448,1282.89,68.00,44.60,42.85,240.00,8.00,0.00,30.03,M,10.00,M,CLR,M,M,M,M,M,M,M,M,M,M,M,M,M,M,68.00,KHTH 190935Z AUTO 24008KT 10SM CLR 20/07 A3003 RMK A01,M
10U,2023-08-19 09:35,-116.1876,41.9532,1637.00,59.00,44.60,58.77,320.00,3.00,0.00,30.06,M,10.00,M,CLR,M,M,M,M,M,M,M,M,M,M,M,M,M,M,59.00,K10U 190935Z AUTO 32003KT 10SM CLR 15/07 A3006 RMK AO2,M
BAM,2023-08-19 09:35,-116.8743,40.5990,1382.36,66.20,37.40,34.51,220.00,6.00,0.00,30.01,M,10.00,M,CLR,M,M,M,M,M,M,M,M,M,M,M,M,M,M,66.20,KBAM 190935Z AUTO 22006KT 10SM CLR 19/03 A3001 RMK AO1,M
TMT,2023-08-19 09:35,-117.1971,39.4643,1749.34,49.00,35.80,60.18,0.00,0.00,0.00,30.12,M,M,M,CLR,M,M,M,M,M,M,M,M,M,M,M,M,M,M,49.00,KTMT 190935Z AUTO 00000KT CLR 09/02 A3012 RMK AO2 T00940021 PWINO,M
P68,2023-08-19 09:53,-116.0056,39.6014,1993.00,63.00,36.00,36.52,320.00,3.00,0.00,30.12,1010.80,M,M,M,M,M,M,M,M,M,M,M,M,M,M,M,M,M,63.00,KP68 190953Z AUTO 32003KT 17/02 A3012 RMK AO1 SLP108 T01720022,M
DRA,2023-08-19 09:53,-116.0278,36.6206,1009.00,79.00,47.00,32.41,90.00,13.00,0.00,30.00,1010.00,10.00,21.00,CLR,M,M,M,M,M,M,M,M,M,M,M,31.00,80.00,2023-08-19 08:57,79.00,KDRA 190953Z AUTO 09013G21KT 10SM CLR 26/08 A3000 RMK AO2 PK WND 08031/0857 SLP100 T02610083,M
ELY,2023-08-19 09:53,-114.8453,39.2950,1909.00,63.00,49.00,60.20,190.00,13.00,0.00,30.20,1011.60,10.00,M,BKN,M,M,M,10000.00,M,M,M,M,M,M,M,M,M,M,63.00,KELY 190953Z AUTO 19013KT 10SM BKN100 17/09 A3020 RMK AO2 SLP116 T01720094,M
VGT,2023-08-19 09:53,-115.1933,36.2111,667.00,74.00,63.00,68.53,290.00,3.00,0.00,29.98,1014.30,10.00,M,CLR,M,M,M,M,M,M,M,M,M,M,M,M,M,M,74.00,KVGT 190953Z AUTO 29003KT 10SM CLR 23/17 A2998 RMK AO2 SLP143 T02330172,M
LOL,2023-08-19 09:53,-118.5701,40.0684,1192.43,60.00,44.00,55.42,60.00,5.00,0.00,29.98,1011.20,10.00,M,CLR,M,M,M,M,M,M,M,M,M,M,M,M,M,M,60.00,KLOL 190953Z AUTO 06005KT 10SM CLR 16/07 A2998 RMK AO2 SLP112 T01560067,M
BVU,2023-08-19 09:55,-114.8611,35.9475,671.00,69.80,64.40,82.98,270.00,7.00,0.00,30.00,M,10.00,13.00,CLR,M,M,M,M,M,M,M,M,M,M,M,M,M,M,69.80,KBVU 190955Z AUTO 27007G13KT 10SM CLR 21/18 A3000 RMK AO2,M
CXP,2023-08-19 09:55,-119.7326,39.1923,1431.00,60.80,50.00,67.54,200.00,9.00,0.00,30.08,M,10.00,M,CLR,M,M,M,M,M,M,M,M,M,M,M,M,M,M,60.80,KCXP 190955Z AUTO 20009KT 10SM CLR 16/10 A3008 RMK AO2,M
INS,2023-08-19 09:55,-115.6733,36.5872,955.00,71.40,53.40,53.00,40.00,8.00,0.00,30.00,1010.90,10.00,M,FEW,M,M,M,19000.00,M,M,M,M,M,M,M,26.00,100.00,2023-08-19 08:54,71.40,KINS 190955Z AUTO 04008KT 10SM FEW190 22/12 A3000 RMK AO2 PK WND 10026/0854 SLP109 T02190119 $,M
RNO,2023-08-19 09:55,-119.7711,39.4839,1341.00,69.00,49.00,48.88,160.00,3.00,0.00,30.03,1010.60,10.00,M,SCT,M,M,M,11000.00,M,M,M,M,M,M,M,M,M,M,69.00,KRNO 190955Z 16003KT 10SM SCT110 21/09 A3003 RMK AO2 SLP106 T02060094,M
RTS,2023-08-19 09:55,-119.8764,39.6682,1539.00,66.20,42.80,42.57,M,5.00,0.00,30.07,M,10.00,M,FEW,FEW,BKN,M,6500.00,8500.00,11000.00,M,M,M,M,M,M,M,M,66.20,KRTS 190955Z AUTO VRB05KT 10SM FEW065 FEW085 BKN110 19/06 A3007 RMK AO2,M
05U,2023-08-19 09:55,-116.0051,39.6042,1811.23,62.60,35.60,36.45,M,M,0.00,30.15,M,10.00,M,M,M,M,M,M,M,M,M,M,M,M,M,M,M,M,62.60,K05U 190955Z AUTO 10SM 17/02 A3015 RMK A01,M
MEV,2023-08-19 09:55,-119.7500,38.9963,1441.42,53.60,50.00,87.56,270.00,5.00,0.00,30.08,M,10.00,M,FEW,FEW,M,M,4700.00,5500.00,M,M,M,M,M,M,M,M,M,53.60,KMEV 190955Z AUTO 27005KT 10SM FEW047 FEW055 12/10 A3008 RMK AO2,M
HTH,2023-08-19 09:55,-118.6315,38.5448,1282.89,66.20,44.60,45.60,80.00,7.00,0.00,30.04,M,10.00,M,CLR,M,M,M,M,M,M,M,M,M,M,M,M,M,M,66.20,KHTH 190955Z AUTO 08007KT 10SM CLR 19/07 A3004 RMK A01,M
BAM,2023-08-19 09:55,-116.8743,40.5990,1382.36,68.00,37.40,32.43,220.00,5.00,0.00,30.01,M,10.00,M,CLR,M,M,M,M,M,M,M,M,M,M,M,M,M,M,68.00,KBAM 190955Z AUTO 22005KT 10SM CLR 20/03 A3001 RMK AO1,M
TMT,2023-08-19 09:55,-117.1971,39.4643,1749.34,46.60,35.20,64.30,0.00,0.00,0.00,30.12,M,M,M,CLR,M,M,M,M,M,M,M,M,M,M,M,M,M,M,46.60,KTMT 190955Z AUTO 00000KT CLR 08/02 A3012 RMK AO2 T00810018 PWINO,M
10U,2023-08-19 09:55,-116.1876,41.9532,1637.00,57.20,44.60,62.69,0.00,0.00,0.00,30.06,M,10.00,M,CLR,M,M,M,M,M,M,M,M,M,M,M,M,M,M,57.20,K10U 190955Z AUTO 00000KT 10SM CLR 14/07 A3006 RMK AO2,M
LSV,2023-08-19 09:55,-115.0343,36.2362,570.00,72.00,71.80,99.32,140.00,5.00,0.00,29.96,1012.20,10.00,M,FEW,BKN,M,M,15000.00,18000.00,M,M,M,M,M,M,M,M,M,72.00,KLSV 190955Z AUTO 14005KT 10SM FEW150 BKN180 22/22 A2996 RMK AO2 SLP122 T02230221 $,M
EKO,2023-08-19 09:56,-115.7860,40.8242,1367.00,57.00,46.00,66.59,310.00,3.00,0.00,30.04,1011.50,10.00,M,CLR,M,M,M,M,M,M,M,M,M,M,M,M,M,M,57.00,KEKO 190956Z AUTO 31003KT 10SM CLR 14/08 A3004 RMK AO2 SLP115 T01390078,M
WMC,2023-08-19 09:56,-117.8072,40.9019,1315.00,58.00,38.00,47.20,150.00,4.00,0.00,29.99,1010.50,10.00,M,CLR,M,M,M,M,M,M,M,M,M,M,M,M,M,M,58.00,KWMC 190956Z AUTO 15004KT 10SM CLR 14/03 A2999 RMK AO2 SLP105 T01440033,M
NFL,2023-08-19 09:56,-118.7010,39.4166,1199.00,64.00,44.00,48.12,0.00,0.00,0.00,29.99,1012.60,10.00,M,CLR,M,M,M,M,M,M,M,M,M,M,M,M,M,M,64.00,KNFL 190956Z AUTO 00000KT 10SM CLR 18/07 A2999 RMK AO2 SLP126 T01780067,M
HND,2023-08-19 09:56,-115.1344,35.9729,742.79,M,M,M,M,M,0.00,M,M,M,M,M,M,M,M,M,M,M,M,M,M,M,M,M,M,M,M,KHND 190956Z AUTO RMK AO2 SLPNO PWINO FZRANO $,M
TPH,2023-08-19 09:56,-117.0904,38.0505,1654.00,68.00,46.00,45.19,120.00,8.00,0.00,30.13,1011.50,10.00,M,CLR,M,M,M,M,M,M,M,M,M,M,M,M,M,M,68.00,KTPH 190956Z AUTO 12008KT 10SM CLR 20/08 A3013 RMK AO2 SLP115 T02000078,M
LAS,2023-08-19 09:56,-115.1634,36.0719,663.00,72.00,62.00,70.77,0.00,0.00,0.00,29.99,1013.00,10.00,M,FEW,SCT,BKN,M,12000.00,18000.00,22000.00,M,M,M,M,M,M,M,M,72.00,KLAS 190956Z 00000KT 10SM FEW120 SCT180 BKN220 22/17 A2999 RMK AO2 SLP130 T02220167,M
05U,2023-08-19 10:10,-116.0051,39.6042,1811.23,64.40,37.40,36.74,M,M,0.00,30.15,M,10.00,M,M,M,M,M,M,M,M,M,M,M,M,M,M,M,M,64.40,K05U 191010Z AUTO 10SM 18/03 A3015 RMK A01,M
BVU,2023-08-19 10:15,-114.8611,35.9475,671.00,68.00,64.40,88.26,M,4.00,0.00,29.99,M,10.00,M,CLR,M,M,M,M,M,M,M,M,M,M,M,M,M,M,68.00,KBVU 191015Z AUTO VRB04KT 10SM CLR 20/18 A2999 RMK AO2,M
CXP,2023-08-19 10:15,-119.7326,39.1923,1431.00,60.80,48.20,63.15,M,4.00,0.00,30.08,M,10.00,10.00,CLR,M,M,M,M,M,M,M,M,M,M,M,M,M,M,60.80,KCXP 191015Z AUTO VRB04G10KT 10SM CLR 16/09 A3008 RMK AO2,M
RTS,2023-08-19 10:15,-119.8764,39.6682,1539.00,66.20,44.60,45.60,230.00,6.00,0.00,30.08,M,10.00,M,CLR,M,M,M,M,M,M,M,M,M,M,M,M,M,M,66.20,KRTS 191015Z AUTO 23006KT 10SM CLR 19/07 A3008 RMK AO2,M
MEV,2023-08-19 10:15,-119.7500,38.9963,1441.42,55.40,51.80,87.65,0.00,0.00,0.00,30.08,M,10.00,M,CLR,M,M,M,M,M,M,M,M,M,M,M,M,M,M,55.40,KMEV 191015Z AUTO 00000KT 10SM CLR 13/11 A3008 RMK AO2,M
HTH,2023-08-19 10:15,-118.6315,38.5448,1282.89,64.40,44.60,48.55,130.00,5.00,0.00,30.04,M,10.00,M,CLR,M,M,M,M,M,M,M,M,M,M,M,M,M,M,64.40,KHTH 191015Z AUTO 13005KT 10SM CLR 18/07 A3004 RMK A01,M
10U,2023-08-19 10:15,-116.1876,41.9532,1637.00,55.40,42.80,62.46,0.00,0.00,0.00,30.06,M,10.00,M,CLR,M,M,M,M,M,M,M,M,M,M,M,M,M,M,55.40,K10U 191015Z AUTO 00000KT 10SM CLR 13/06 A3006 RMK AO2,M
BAM,2023-08-19 10:15,-116.8743,40.5990,1382.36,66.20,37.40,34.51,230.00,5.00,0.00,30.01,M,10.00,M,CLR,M,M,M,M,M,M,M,M,M,M,M,M,M,M,66.20,KBAM 191015Z AUTO 23005KT 10SM CLR 19/03 A3001 RMK AO1,M
TMT,2023-08-19 10:15,-117.1971,39.4643,1749.34,46.00,34.00,62.71,160.00,3.00,0.00,30.12,M,M,M,BKN,M,M,M,12000.00,M,M,M,M,M,M,M,M,M,M,44.69,KTMT 191015Z AUTO 16003KT BKN120 08/01 A3012 RMK AO2 T00770012 PWINO,M
BVU,2023-08-19 10:35,-114.8611,35.9475,671.00,68.00,62.60,82.86,340.00,6.00,0.00,29.99,M,10.00,M,CLR,M,M,M,M,M,M,M,M,M,M,M,M,M,M,68.00,KBVU 191035Z AUTO 34006KT 10SM CLR 20/17 A2999 RMK AO2,M
CXP,2023-08-19 10:35,-119.7326,39.1923,1431.00,60.80,50.00,67.54,0.00,0.00,0.00,30.09,M,10.00,M,CLR,M,M,M,M,M,M,M,M,M,M,M,M,M,M,60.80,KCXP 191035Z AUTO 00000KT 10SM CLR 16/10 A3009 RMK AO2,M
05U,2023-08-19 10:35,-116.0051,39.6042,1811.23,68.00,41.00,37.32,M,M,0.00,30.15,M,10.00,M,M,M,M,M,M,M,M,M,M,M,M,M,M,M,M,68.00,K05U 191035Z AUTO 10SM 20/05 A3015 RMK A01,M
RTS,2023-08-19 10:35,-119.8764,39.6682,1539.00,66.20,42.80,42.57,0.00,0.00,0.00,30.08,M,10.00,M,SCT,M,M,M,11000.00,M,M,M,M,M,M,M,M,M,M,66.20,KRTS 191035Z AUTO 00000KT 10SM SCT110 19/06 A3008 RMK AO2,M
MEV,2023-08-19 10:35,-119.7500,38.9963,1441.42,51.80,50.00,93.55,50.00,4.00,0.00,30.07,M,10.00,M,CLR,M,M,M,M,M,M,M,M,M,M,M,M,M,M,51.80,KMEV 191035Z AUTO 05004KT 10SM CLR 11/10 A3007 RMK AO2,M
HTH,2023-08-19 10:35,-118.6315,38.5448,1282.89,64.40,42.80,45.32,130.00,4.00,0.00,30.04,M,10.00,M,CLR,M,M,M,M,M,M,M,M,M,M,M,M,M,M,64.40,KHTH 191035Z AUTO 13004KT 10SM CLR 18/06 A3004 RMK A01,M
10U,2023-08-19 10:35,-116.1876,41.9532,1637.00,57.20,44.60,62.69,110.00,4.00,0.00,30.05,M,10.00,M,SCT,M,M,M,12000.00,M,M,M,M,M,M,M,M,M,M,57.20,K10U 191035Z AUTO 11004KT 10SM SCT120 14/07 A3005 RMK AO2,M
BAM,2023-08-19 10:35,-116.8743,40.5990,1382.36,66.20,39.20,37.03,210.00,5.00,0.00,30.01,M,10.00,M,CLR,M,M,M,M,M,M,M,M,M,M,M,M,M,M,66.20,KBAM 191035Z AUTO 21005KT 10SM CLR 19/04 A3001 RMK AO1,M
TMT,2023-08-19 10:35,-117.1971,39.4643,1749.34,46.80,34.30,61.57,0.00,0.00,0.00,30.13,M,M,M,OVC,M,M,M,12000.00,M,M,M,M,M,M,M,M,M,M,46.80,KTMT 191035Z AUTO 00000KT OVC120 08/01 A3013 RMK AO2 T00820013 PWINO,M
05U,2023-08-19 10:50,-116.0051,39.6042,1811.23,68.00,44.60,42.85,M,M,0.00,30.15,M,10.00,M,M,M,M,M,M,M,M,M,M,M,M,M,M,M,M,68.00,K05U 191050Z AUTO 10SM 20/07 A3015 RMK A01,M
P68,2023-08-19 10:53,-116.0056,39.6014,1993.00,68.00,45.00,43.51,150.00,4.00,0.00,30.12,1010.50,M,M,M,M,M,M,M,M,M,M,M,M,M,M,M,M,M,68.00,KP68 191053Z AUTO 15004KT 20/07 A3012 RMK AO1 SLP105 T02000072,M
DRA,2023-08-19 10:53,-116.0278,36.6206,1009.00,74.00,50.00,42.82,150.00,12.00,0.00,29.99,1010.10,10.00,M,CLR,M,M,M,M,M,M,M,M,M,M,M,M,M,M,74.00,KDRA 191053Z AUTO 15012KT 10SM CLR 23/10 A2999 RMK AO2 SLP101 T02330100,M
ELY,2023-08-19 10:53,-114.8453,39.2950,1909.00,61.00,49.00,64.61,210.00,11.00,0.00,30.20,1012.10,10.00,20.00,CLR,M,M,M,M,M,M,M,M,M,M,M,M,M,M,61.00,KELY 191053Z AUTO 21011G20KT 10SM CLR 16/09 A3020 RMK AO2 SLP121 T01610094,M
VGT,2023-08-19 10:53,-115.1933,36.2111,667.00,71.00,64.00,78.54,100.00,6.00,0.00,29.98,1014.50,10.00,M,CLR,M,M,M,M,M,M,M,M,M,M,M,M,M,M,71.00,KVGT 191053Z AUTO 10006KT 10SM CLR 22/18 A2998 RMK AO2 SLP145 T02170178,M
LOL,2023-08-19 10:53,-118.5701,40.0684,1192.43,60.00,42.00,51.33,330.00,4.00,0.00,29.98,1011.10,10.00,M,CLR,M,M,M,M,M,M,M,M,M,M,M,M,M,M,60.00,KLOL 191053Z AUTO 33004KT 10SM CLR 16/06 A2998 RMK AO2 SLP111 T01560056,M
BVU,2023-08-19 10:55,-114.8611,35.9475,671.00,69.80,62.60,77.90,310.00,6.00,0.00,29.99,M,10.00,M,CLR,M,M,M,M,M,M,M,M,M,M,M,M,M,M,69.80,KBVU 191055Z AUTO 31006KT 10SM CLR 21/17 A2999 RMK AO2,M
CXP,2023-08-19 10:55,-119.7326,39.1923,1431.00,60.80,50.00,67.54,330.00,4.00,0.00,30.08,M,10.00,M,CLR,M,M,M,M,M,M,M,M,M,M,M,M,M,M,60.80,KCXP 191055Z AUTO 33004KT 10SM CLR 16/10 A3008 RMK AO2,M
INS,2023-08-19 10:55,-115.6733,36.5872,955.00,69.60,54.70,59.10,300.00,3.00,0.00,30.00,1011.10,10.00,M,CLR,M,M,M,M,M,M,M,M,M,M,M,M,M,M,69.60,KINS 191055Z AUTO 30003KT 10SM CLR 21/13 A3000 RMK AO2 SLP111 T02090126 $,M
RNO,2023-08-19 10:55,-119.7711,39.4839,1341.00,69.00,48.00,47.09,230.00,3.00,0.00,30.03,1011.40,10.00,M,CLR,M,M,M,M,M,M,M,M,M,M,M,M,M,M,69.00,KRNO 191055Z 23003KT 10SM CLR 21/09 A3003 RMK AO2 SLP114 T02060089,M
RTS,2023-08-19 10:55,-119.8764,39.6682,1539.00,66.20,42.80,42.57,0.00,0.00,0.00,30.07,M,10.00,M,FEW,M,M,M,11000.00,M,M,M,M,M,M,M,M,M,M,66.20,KRTS 191055Z AUTO 00000KT 10SM FEW110 19/06 A3007 RMK AO2,M
MEV,2023-08-19 10:55,-119.7500,38.9963,1441.42,51.80,48.20,87.47,80.00,4.00,0.00,30.07,M,10.00,M,CLR,M,M,M,M,M,M,M,M,M,M,M,M,M,M,51.80,KMEV 191055Z AUTO 08004KT 10SM CLR 11/09 A3007 RMK AO2,M
HTH,2023-08-19 10:55,-118.6315,38.5448,1282.89,62.60,42.80,48.28,130.00,6.00,0.00,30.03,M,10.00,M,CLR,M,M,M,M,M,M,M,M,M,M,M,M,M,M,62.60,KHTH 191055Z AUTO 13006KT 10SM CLR 17/06 A3003 RMK A01,M
BAM,2023-08-19 10:55,-116.8743,40.5990,1382.36,62.60,39.20,42.00,150.00,4.00,0.00,30.01,M,10.00,M,CLR,M,M,M,M,M,M,M,M,M,M,M,M,M,M,62.60,KBAM 191055Z AUTO 15004KT 10SM CLR 17/04 A3001 RMK AO1,M
TMT,2023-08-19 10:55,-117.1971,39.4643,1749.34,49.50,35.00,57.22,0.00,0.00,0.00,30.13,M,M,M,SCT,M,M,M,12000.00,M,M,M,M,M,M,M,M,M,M,49.50,KTMT 191055Z AUTO 00000KT SCT120 10/02 A3013 RMK AO2 T00970016 PWINO,M
10U,2023-08-19 10:55,-116.1876,41.9532,1637.00,60.80,46.40,59.01,M,4.00,0.00,30.05,M,10.00,M,FEW,M,M,M,12000.00,M,M,M,M,M,M,M,M,M,M,60.80,K10U 191055Z AUTO VRB04KT 10SM FEW120 16/08 A3005 RMK AO2,M
LSV,2023-08-19 10:55,-115.0343,36.2362,570.00,71.00,70.70,98.98,30.00,8.00,0.00,29.96,1012.20,10.00,M,CLR,M,M,M,M,M,M,M,M,M,M,M,M,M,M,71.00,KLSV 191055Z AUTO 03008KT 10SM CLR 22/22 A2996 RMK AO2 SLP122 T02170215 $,M
EKO,2023-08-19 10:56,-115.7860,40.8242,1367.00,58.00,46.00,64.24,60.00,3.00,0.00,30.05,1011.80,10.00,M,CLR,M,M,M,M,M,M,M,M,M,M,M,M,M,M,58.00,KEKO 191056Z AUTO 06003KT 10SM CLR 14/08 A3005 RMK AO2 SLP118 T01440078,M
WMC,2023-08-19 10:56,-117.8072,40.9019,1315.00,58.00,39.00,49.08,80.00,3.00,0.00,30.01,1010.90,10.00,M,CLR,M,M,M,M,M,M,M,M,M,M,M,M,M,M,58.00,KWMC 191056Z AUTO 08003KT 10SM CLR 14/04 A3001 RMK AO2 SLP109 T01440039,M
NFL,2023-08-19 10:56,-118.7010,39.4166,1199.00,60.00,42.00,51.33,160.00,7.00,0.00,29.99,1012.60,10.00,M,CLR,M,M,M,M,M,M,M,M,M,M,M,M,M,M,60.00,KNFL 191056Z AUTO 16007KT 10SM CLR 16/06 A2999 RMK AO2 SLP126 T01560056,M
HND,2023-08-19 10:56,-115.1344,35.9729,742.79,M,M,M,M,M,0.00,M,M,M,M,M,M,M,M,M,M,M,M,M,M,M,M,M,M,M,M,KHND 191056Z AUTO RMK AO2 SLPNO PWINO FZRANO $,M
TPH,2023-08-19 10:56,-117.0904,38.0505,1654.00,68.00,47.00,46.93,170.00,11.00,0.00,30.13,1011.60,10.00,M,CLR,M,M,M,M,M,M,M,M,M,M,M,M,M,M,68.00,KTPH 191056Z AUTO 17011KT 10SM CLR 20/08 A3013 RMK AO2 SLP116 T02000083,M
LAS,2023-08-19 10:56,-115.1634,36.0719,663.00,70.00,65.00,84.16,170.00,3.00,0.00,29.99,1013.00,10.00,M,FEW,SCT,M,M,12000.00,18000.00,M,M,M,M,M,M,M,M,M,70.00,KLAS 191056Z 17003KT 10SM FEW120 SCT180 21/18 A2999 RMK AO2 SLP130 T02110183,M
BVU,2023-08-19 11:15,-114.8611,35.9475,671.00,69.80,62.60,77.90,330.00,4.00,0.00,29.98,M,10.00,M,CLR,M,M,M,M,M,M,M,M,M,M,M,M,M,M,69.80,KBVU 191115Z AUTO 33004KT 10SM CLR 21/17 A2998 RMK AO2,M
CXP,2023-08-19 11:15,-119.7326,39.1923,1431.00,59.00,50.00,72.01,180.00,3.00,0.00,30.08,M,10.00,M,CLR,M,M,M,M,M,M,M,M,M,M,M,M,M,M,59.00,KCXP 191115Z AUTO 18003KT 10SM CLR 15/10 A3008 RMK AO2,M
RTS,2023-08-19 11:15,-119.8764,39.6682,1539.00,62.60,42.80,48.28,120.00,5.00,0.00,30.08,M,10.00,M,CLR,M,M,M,M,M,M,M,M,M,M,M,M,M,M,62.60,KRTS 191115Z AUTO 12005KT 10SM CLR 17/06 A3008 RMK AO2,M
05U,2023-08-19 11:15,-116.0051,39.6042,1811.23,68.00,44.60,42.85,M,M,0.00,30.15,M,10.00,M,M,M,M,M,M,M,M,M,M,M,M,M,M,M,M,68.00,K05U 191115Z AUTO 10SM 20/07 A3015 RMK A01,M
MEV,2023-08-19 11:15,-119.7500,38.9963,1441.42,50.00,48.20,93.50,110.00,7.00,0.00,30.08,M,10.00,M,CLR,M,M,M,M,M,M,M,M,M,M,M,M,M,M,50.00,KMEV 191115Z AUTO 11007KT 10SM CLR 10/09 A3008 RMK AO2,M
HTH,2023-08-19 11:15,-118.6315,38.5448,1282.89,64.40,44.60,48.55,150.00,4.00,0.00,30.03,M,10.00,M,CLR,M,M,M,M,M,M,M,M,M,M,M,M,M,M,64.40,KHTH 191115Z AUTO 15004KT 10SM CLR 18/07 A3003 RMK A01,M
10U,2023-08-19 11:15,-116.1876,41.9532,1637.00,59.00,46.40,62.92,M,4.00,0.00,30.05,M,10.00,M,CLR,M,M,M,M,M,M,M,M,M,M,M,M,M,M,59.00,K10U 191115Z AUTO VRB04KT 10SM CLR 15/08 A3005 RMK AO2,M
BAM,2023-08-19 11:15,-116.8743,40.5990,1382.36,62.60,39.20,42.00,150.00,5.00,0.00,30.01,M,10.00,M,CLR,M,M,M,M,M,M,M,M,M,M,M,M,M,M,62.60,KBAM 191115Z AUTO 15005KT 10SM CLR 17/04 A3001 RMK AO1,M
TMT,2023-08-19 11:15,-117.1971,39.4643,1749.34,49.50,36.00,59.53,280.00,4.00,0.00,30.12,M,M,M,CLR,M,M,M,M,M,M,M,M,M,M,M,M,M,M,47.86,KTMT 191115Z AUTO 28004KT CLR 10/02 A3012 RMK AO2 T00970023 PWINO,M
05U,2023-08-19 11:30,-116.0051,39.6042,1811.23,68.00,44.60,42.85,M,M,0.00,30.16,M,10.00,M,M,M,M,M,M,M,M,M,M,M,M,M,M,M,M,68.00,K05U 191130Z AUTO 10SM 20/07 A3016 RMK A01,M
BVU,2023-08-19 11:35,-114.8611,35.9475,671.00,69.80,62.60,77.90,0.00,0.00,0.00,29.97,M,10.00,M,CLR,M,M,M,M,M,M,M,M,M,M,M,M,M,M,69.80,KBVU 191135Z AUTO 00000KT 10SM CLR 21/17 A2997 RMK AO2,M
CXP,2023-08-19 11:35,-119.7326,39.1923,1431.00,57.20,50.00,76.82,0.00,0.00,0.00,30.09,M,10.00,M,CLR,M,M,M,M,M,M,M,M,M,M,M,M,M,M,57.20,KCXP 191135Z AUTO 00000KT 10SM CLR 14/10 A3009 RMK AO2,M
RTS,2023-08-19 11:35,-119.8764,39.6682,1539.00,59.00,41.00,51.18,350.00,4.00,0.00,30.08,M,10.00,M,CLR,M,M,M,M,M,M,M,M,M,M,M,M,M,M,59.00,KRTS 191135Z AUTO 35004KT 10SM CLR 15/05 A3008 RMK AO2,M
MEV,2023-08-19 11:35,-119.7500,38.9963,1441.42,48.20,46.40,93.45,0.00,0.00,0.00,30.08,M,10.00,M,CLR,M,M,M,M,M,M,M,M,M,M,M,M,M,M,48.20,KMEV 191135Z AUTO 00000KT 10SM CLR 09/08 A3008 RMK AO2,M
HTH,2023-08-19 11:35,-118.6315,38.5448,1282.89,62.60,44.60,51.72,170.00,5.00,0.00,30.03,M,10.00,M,CLR,M,M,M,M,M,M,M,M,M,M,M,M,M,M,62.60,KHTH 191135Z AUTO 17005KT 10SM CLR 17/07 A3003 RMK A01,M
10U,2023-08-19 11:35,-116.1876,41.9532,1637.00,60.80,46.40,59.01,340.00,4.00,0.00,30.06,M,10.00,M,CLR,M,M,M,M,M,M,M,M,M,M,M,M,M,M,60.80,K10U 191135Z AUTO 34004KT 10SM CLR 16/08 A3006 RMK AO2,M
BAM,2023-08-19 11:35,-116.8743,40.5990,1382.36,62.60,41.00,45.04,170.00,4.00,0.00,30.01,M,10.00,M,CLR,M,M,M,M,M,M,M,M,M,M,M,M,M,M,62.60,KBAM 191135Z AUTO 17004KT 10SM CLR 17/05 A3001 RMK AO1,M
TMT,2023-08-19 11:35,-117.1971,39.4643,1749.34,50.00,37.00,60.79,0.00,0.00,0.00,30.13,M,M,M,SCT,M,M,M,12000.00,M,M,M,M,M,M,M,M,M,M,50.00,KTMT 191135Z AUTO 00000KT SCT120 10/03 A3013 RMK AO2 T00990028 PWINO,M
DRA,2023-08-19 11:53,-116.0278,36.6206,1009.00,71.00,53.00,52.95,110.00,7.00,0.00,29.99,1010.30,10.00,M,CLR,M,M,M,M,M,M,M,M,M,M,M,M,M,M,71.00,KDRA 191153Z AUTO 11007KT 10SM CLR 22/12 A2999 RMK AO2 SLP103 70004 T02170117 10261 20217 50001,M
ELY,2023-08-19 11:53,-114.8453,39.2950,1909.00,61.00,48.00,62.23,190.00,13.00,0.00,30.21,1012.30,10.00,19.00,FEW,M,M,M,11000.00,M,M,M,M,M,M,M,M,M,M,61.00,KELY 191153Z AUTO 19013G19KT 10SM FEW110 16/09 A3021 RMK AO2 SLP123 T01610089 10211 20161 51006,M
VGT,2023-08-19 11:53,-115.1933,36.2111,667.00,71.00,63.00,75.84,80.00,8.00,0.00,29.98,1014.90,10.00,M,CLR,M,M,M,M,M,M,M,M,M,M,M,M,M,M,71.00,KVGT 191153Z AUTO 08008KT 10SM CLR 22/17 A2998 RMK AO2 SLP149 60000 70014 T02170172 10239 20217 56013,M
LOL,2023-08-19 11:53,-118.5701,40.0684,1192.43,56.00,42.00,59.26,80.00,5.00,0.00,29.99,1011.40,10.00,M,CLR,M,M,M,M,M,M,M,M,M,M,M,M,M,M,56.00,KLOL 191153Z AUTO 08005KT 10SM CLR 13/06 A2999 RMK AO2 SLP114 T01330056 10244 20122 51004,M
BVU,2023-08-19 11:55,-114.8611,35.9475,671.00,71.60,60.80,68.75,350.00,3.00,0.00,29.97,M,10.00,M,CLR,M,M,M,M,M,M,M,M,M,M,M,M,M,M,71.60,KBVU 191155Z AUTO 35003KT 10SM CLR 22/16 A2997 RMK AO2,M
CXP,2023-08-19 11:55,-119.7326,39.1923,1431.00,57.20,50.00,76.82,0.00,0.00,0.00,30.09,M,10.00,M,CLR,M,M,M,M,M,M,M,M,M,M,M,M,M,M,57.20,KCXP 191155Z AUTO 00000KT 10SM CLR 14/10 A3009 RMK AO2,M
INS,2023-08-19 11:55,-115.6733,36.5872,955.00,68.50,55.40,62.95,260.00,3.00,0.00,30.01,1011.60,10.00,M,CLR,M,M,M,M,M,M,M,M,M,M,M,M,M,M,68.50,KINS 191155Z AUTO 26003KT 10SM CLR 20/13 A3001 RMK AO2 SLP116 60001 70004 T02030130 10253 20200 53001 $,M
RNO,2023-08-19 11:55,-119.7711,39.4839,1341.00,65.00,49.00,56.13,200.00,3.00,0.00,30.03,1011.50,10.00,M,FEW,M,M,M,12000.00,M,M,M,M,M,M,M,M,M,M,65.00,KRNO 191155Z 20003KT 10SM FEW120 18/09 A3003 RMK AO2 SLP115 60000 70002 T01830094 10250 20183 56001,M
RTS,2023-08-19 11:55,-119.8764,39.6682,1539.00,60.80,42.80,51.45,0.00,0.00,0.00,30.08,M,10.00,M,CLR,M,M,M,M,M,M,M,M,M,M,M,M,M,M,60.80,KRTS 191155Z AUTO 00000KT 10SM CLR 16/06 A3008 RMK AO2,M
05U,2023-08-19 11:55,-116.0051,39.6042,1811.23,68.00,44.60,42.85,M,M,0.00,30.16,M,10.00,M,M,M,M,M,M,M,M,M,M,M,M,M,M,M,M,68.00,K05U 191155Z AUTO 10SM 20/07 A3016 RMK A01,M
MEV,2023-08-19 11:55,-119.7500,38.9963,1441.42,50.00,48.20,93.50,0.00,0.00,0.00,30.08,M,10.00,M,CLR,M,M,M,M,M,M,M,M,M,M,M,M,M,M,50.00,KMEV 191155Z AUTO 00000KT 10SM CLR 10/09 A3008 RMK AO2,M
BAM,2023-08-19 11:55,-116.8743,40.5990,1382.36,60.80,41.00,48.00,280.00,3.00,0.00,30.01,M,10.00,M,CLR,M,M,M,M,M,M,M,M,M,M,M,M,M,M,60.80,KBAM 191155Z AUTO 28003KT 10SM CLR 16/05 A3001 RMK AO1,M
HTH,2023-08-19 11:55,-118.6315,38.5448,1282.89,62.60,44.60,51.72,210.00,4.00,0.00,30.04,M,10.00,M,CLR,M,M,M,M,M,M,M,M,M,M,M,M,M,M,62.60,KHTH 191155Z AUTO 21004KT 10SM CLR 17/07 A3004 RMK A01,M
TMT,2023-08-19 11:55,-117.1971,39.4643,1749.34,50.40,35.80,57.12,0.00,0.00,0.00,30.13,M,M,M,BKN,M,M,M,12000.00,M,M,M,M,M,M,M,M,M,M,50.40,KTMT 191155Z AUTO 00000KT BKN120 10/02 A3013 RMK AO2 T01020021 10159 20077 PWINO,M
10U,2023-08-19 11:55,-116.1876,41.9532,1637.00,60.80,46.40,59.01,0.00,0.00,0.00,30.05,M,10.00,M,CLR,M,M,M,M,M,M,M,M,M,M,M,M,M,M,60.80,K10U 191155Z AUTO 00000KT 10SM CLR 16/08 A3005 RMK AO2,M
LSV,2023-08-19 11:55,-115.0343,36.2362,570.00,70.00,69.80,99.32,20.00,9.00,0.00,29.94,1011.70,10.00,M,CLR,M,M,M,M,M,M,M,M,M,M,M,M,M,M,70.00,KLSV 191155Z COR 02009KT 10SM CLR 21/21 A2994 RMK AO2 SLP117 60006 70027 T02120210 10232 20212 55016 $ COR 1231,M
EKO,2023-08-19 11:56,-115.7860,40.8242,1367.00,53.00,45.00,74.16,240.00,3.00,0.00,30.05,1012.10,10.00,M,CLR,M,M,M,M,M,M,M,M,M,M,M,M,M,M,53.00,KEKO 191156Z AUTO 24003KT 10SM CLR 12/07 A3005 RMK AO2 SLP121 T01170072 10200 20111 51006,M
WMC,2023-08-19 11:56,-117.8072,40.9019,1315.00,56.00,38.00,50.73,0.00,0.00,0.00,30.01,1011.20,10.00,M,CLR,M,M,M,M,M,M,M,M,M,M,M,M,M,M,56.00,KWMC 191156Z AUTO 00000KT 10SM CLR 13/03 A3001 RMK AO2 SLP112 T01330033 10233 20128 51008,M
HND,2023-08-19 11:56,-115.1344,35.9729,742.79,M,M,M,M,M,0.00,M,M,M,M,M,M,M,M,M,M,M,M,M,M,M,M,M,M,M,M,KHND 191156Z AUTO RMK AO2 SLPNO 6//// 7//// PWINO FZRANO $,M
TPH,2023-08-19 11:56,-117.0904,38.0505,1654.00,64.00,46.00,51.93,330.00,4.00,0.00,30.14,1012.20,10.00,M,CLR,M,M,M,M,M,M,M,M,M,M,M,M,M,M,64.00,KTPH 191156Z AUTO 33004KT 10SM CLR 18/08 A3014 RMK AO2 SLP122 T01780078 10211 20172 51003,M
LAS,2023-08-19 11:56,-115.1634,36.0719,663.00,70.00,65.00,84.16,350.00,3.00,0.00,29.99,1013.30,10.00,M,FEW,SCT,M,M,12000.00,18000.00,M,M,M,M,M,M,M,M,M,70.00,KLAS 191156Z 35003KT 10SM FEW120 SCT180 21/18 A2999 RMK AO2 SLP133 60001 70031 T02110183 10228 20211 56005,M
NFL,2023-08-19 11:56,-118.7010,39.4166,1199.00,63.00,43.00,47.97,170.00,4.00,0.00,30.00,1013.00,10.00,M,CLR,M,M,M,M,M,M,M,M,M,M,M,M,M,M,63.00,KNFL 191156Z AUTO 17004KT 10SM CLR 17/06 A3000 RMK AO2 SLP130 T01720061 10239 20156 53004,M
05U,2023-08-19 12:10,-116.0051,39.6042,1811.23,66.20,44.60,45.60,M,M,0.00,30.16,M,10.00,M,M,M,M,M,M,M,M,M,M,M,M,M,M,M,M,66.20,K05U 191210Z AUTO 10SM 19/07 A3016 RMK A01,M
HTH,2023-08-19 12:10,-118.6315,38.5448,1282.89,62.60,44.60,51.72,220.00,4.00,0.00,30.03,M,10.00,M,CLR,M,M,M,M,M,M,M,M,M,M,M,M,M,M,62.60,KHTH 191210Z AUTO 22004KT 10SM CLR 17/07 A3003 RMK A01,M
BVU,2023-08-19 12:15,-114.8611,35.9475,671.00,71.60,60.80,68.75,350.00,5.00,0.00,29.97,M,10.00,M,CLR,M,M,M,M,M,M,M,M,M,M,M,M,M,M,71.60,KBVU 191215Z AUTO 35005KT 10SM CLR 22/16 A2997 RMK AO2,M
CXP,2023-08-19 12:15,-119.7326,39.1923,1431.00,57.20,50.00,76.82,0.00,0.00,0.00,30.09,M,10.00,M,CLR,M,M,M,M,M,M,M,M,M,M,M,M,M,M,57.20,KCXP 191215Z AUTO 00000KT 10SM CLR 14/10 A3009 RMK AO2,M
RTS,2023-08-19 12:15,-119.8764,39.6682,1539.00,55.40,41.00,58.27,M,4.00,0.00,30.08,M,10.00,M,FEW,M,M,M,12000.00,M,M,M,M,M,M,M,M,M,M,55.40,KRTS 191215Z AUTO VRB04KT 10SM FEW120 13/05 A3008 RMK AO2,M
MEV,2023-08-19 12:15,-119.7500,38.9963,1441.42,50.00,48.20,93.50,80.00,5.00,0.00,30.08,M,10.00,M,CLR,M,M,M,M,M,M,M,M,M,M,M,M,M,M,50.00,KMEV 191215Z AUTO 08005KT 10SM CLR 10/09 A3008 RMK AO2,M
BAM,2023-08-19 12:15,-116.8743,40.5990,1382.36,64.40,41.00,42.28,170.00,4.00,0.00,30.02,M,10.00,M,CLR,M,M,M,M,M,M,M,M,M,M,M,M,M,M,64.40,KBAM 191215Z AUTO 17004KT 10SM CLR 18/05 A3002 RMK AO1,M
10U,2023-08-19 12:15,-116.1876,41.9532,1637.00,62.60,46.40,55.37,0.00,0.00,0.00,30.06,M,10.00,M,CLR,M,M,M,M,M,M,M,M,M,M,M,M,M,M,62.60,K10U 191215Z AUTO 00000KT 10SM CLR 17/08 A3006 RMK AO2,M
TMT,2023-08-19 12:15,-117.1971,39.4643,1749.34,47.70,36.70,65.47,40.00,3.00,0.00,30.13,M,M,M,BKN,M,M,M,12000.00,M,M,M,M,M,M,M,M,M,M,46.64,KTMT 191215Z AUTO 04003KT BKN120 09/03 A3013 RMK AO2 T00870026 PWINO,M
05U,2023-08-19 12:30,-116.0051,39.6042,1811.23,66.20,44.60,45.60,M,M,0.00,30.17,M,10.00,M,M,M,M,M,M,M,M,M,M,M,M,M,M,M,M,66.20,K05U 191230Z AUTO 10SM 19/07 A3017 RMK A01,M
BVU,2023-08-19 12:35,-114.8611,35.9475,671.00,69.80,62.60,77.90,340.00,6.00,0.00,29.97,M,10.00,11.00,CLR,M,M,M,M,M,M,M,M,M,M,M,M,M,M,69.80,KBVU 191235Z AUTO 34006G11KT 10SM CLR 21/17 A2997 RMK AO2,M
CXP,2023-08-19 12:35,-119.7326,39.1923,1431.00,57.20,50.00,76.82,0.00,0.00,0.00,30.09,M,10.00,M,CLR,M,M,M,M,M,M,M,M,M,M,M,M,M,M,57.20,KCXP 191235Z AUTO 00000KT 10SM CLR 14/10 A3009 RMK AO2,M
RTS,2023-08-19 12:35,-119.8764,39.6682,1539.00,55.40,41.00,58.27,0.00,0.00,0.00,30.08,M,10.00,M,FEW,M,M,M,12000.00,M,M,M,M,M,M,M,M,M,M,55.40,KRTS 191235Z AUTO 00000KT 10SM FEW120 13/05 A3008 RMK AO2,M
MEV,2023-08-19 12:35,-119.7500,38.9963,1441.42,48.20,46.40,93.45,0.00,0.00,0.00,30.08,M,10.00,M,CLR,M,M,M,M,M,M,M,M,M,M,M,M,M,M,48.20,KMEV 191235Z AUTO 00000KT 10SM CLR 09/08 A3008 RMK AO2,M
BAM,2023-08-19 12:35,-116.8743,40.5990,1382.36,64.40,41.00,42.28,190.00,6.00,0.00,30.02,M,10.00,M,CLR,M,M,M,M,M,M,M,M,M,M,M,M,M,M,64.40,KBAM 191235Z AUTO 19006KT 10SM CLR 18/05 A3002 RMK AO1,M
HTH,2023-08-19 12:35,-118.6315,38.5448,1282.89,60.80,44.60,55.12,170.00,3.00,0.00,30.03,M,10.00,M,CLR,M,M,M,M,M,M,M,M,M,M,M,M,M,M,60.80,KHTH 191235Z AUTO 17003KT 10SM CLR 16/07 A3003 RMK A01,M
10U,2023-08-19 12:35,-116.1876,41.9532,1637.00,62.60,46.40,55.37,130.00,4.00,0.00,30.06,M,10.00,M,CLR,M,M,M,M,M,M,M,M,M,M,M,M,M,M,62.60,K10U 191235Z AUTO 13004KT 10SM CLR 17/08 A3006 RMK AO2,M
TMT,2023-08-19 12:35,-117.1971,39.4643,1749.34,50.00,36.00,58.44,0.00,0.00,0.00,30.14,M,M,M,BKN,M,M,M,12000.00,M,M,M,M,M,M,M,M,M,M,50.00,KTMT 191235Z AUTO 00000KT BKN120 10/02 A3014 RMK AO2 T01000023 PWINO,M
P68,2023-08-19 12:53,-116.0056,39.6014,1993.00,64.00,42.00,44.57,10.00,3.00,0.00,30.14,1011.30,M,M,M,M,M,M,M,M,M,M,M,M,M,M,M,M,M,64.00,KP68 191253Z AUTO 01003KT 18/06 A3014 RMK AO1 SLP113 T01780056,M
DRA,2023-08-19 12:53,-116.0278,36.6206,1009.00,70.00,54.00,56.82,100.00,5.00,0.00,30.00,1010.80,10.00,M,CLR,M,M,M,M,M,M,M,M,M,M,M,M,M,M,70.00,KDRA 191253Z AUTO 10005KT 10SM CLR 21/12 A3000 RMK AO2 SLP108 T02110122,M
ELY,2023-08-19 12:53,-114.8453,39.2950,1909.00,62.00,48.00,60.07,160.00,17.00,0.00,30.21,1012.30,10.00,26.00,BKN,M,M,M,11000.00,M,M,M,M,M,M,M,26.00,160.00,2023-08-19 12:45,62.00,KELY 191253Z AUTO 16017G26KT 10SM BKN110 17/09 A3021 RMK AO2 PK WND 16026/1245 SLP123 T01670089,M
VGT,2023-08-19 12:53,-115.1933,36.2111,667.00,71.00,63.00,75.84,150.00,5.00,0.00,29.97,1014.70,10.00,M,CLR,M,M,M,M,M,M,M,M,M,M,M,M,M,M,71.00,KVGT 191253Z 15005KT 10SM CLR 22/17 A2997 RMK AO2 SLP147 T02170172,M
LOL,2023-08-19 12:53,-118.5701,40.0684,1192.43,55.00,41.00,59.13,300.00,6.00,0.00,29.99,1011.80,10.00,M,CLR,M,M,M,M,M,M,M,M,M,M,M,M,M,M,55.00,KLOL 191253Z AUTO 30006KT 10SM CLR 13/05 A2999 RMK AO2 SLP118 T01280050,M
BVU,2023-08-19 12:55,-114.8611,35.9475,671.00,69.80,62.60,77.90,290.00,3.00,0.00,29.97,M,10.00,M,CLR,M,M,M,M,M,M,M,M,M,M,M,M,M,M,69.80,KBVU 191255Z AUTO 29003KT 10SM CLR 21/17 A2997 RMK AO2,M
CXP,2023-08-19 12:55,-119.7326,39.1923,1431.00,57.20,50.00,76.82,340.00,5.00,0.00,30.09,M,10.00,M,CLR,M,M,M,M,M,M,M,M,M,M,M,M,M,M,57.20,KCXP 191255Z AUTO 34005KT 10SM CLR 14/10 A3009 RMK AO2,M
INS,2023-08-19 12:55,-115.6733,36.5872,955.00,66.60,57.60,72.78,80.00,10.00,0.00,30.00,1011.40,10.00,M,CLR,M,M,M,M,M,M,M,M,M,M,M,M,M,M,66.60,KINS 191255Z AUTO 08010KT 10SM CLR 19/14 A3000 RMK AO2 SLP114 T01920142 $,M
RNO,2023-08-19 12:55,-119.7711,39.4839,1341.00,64.00,48.00,55.99,0.00,0.00,0.00,30.04,1011.70,10.00,M,FEW,M,M,M,12000.00,M,M,M,M,M,M,M,M,M,M,64.00,KRNO 191255Z 00000KT 10SM FEW120 18/09 A3004 RMK AO2 SLP117 T01780089,M
RTS,2023-08-19 12:55,-119.8764,39.6682,1539.00,55.40,41.00,58.27,10.00,3.00,0.00,30.08,M,10.00,M,CLR,M,M,M,M,M,M,M,M,M,M,M,M,M,M,55.40,KRTS 191255Z AUTO 01003KT 10SM CLR 13/05 A3008 RMK AO2,M
05U,2023-08-19 12:55,-116.0051,39.6042,1811.23,62.60,41.00,45.04,M,M,0.00,30.17,M,10.00,M,M,M,M,M,M,M,M,M,M,M,M,M,M,M,M,62.60,K05U 191255Z AUTO 10SM 17/05 A3017 RMK A01,M
MEV,2023-08-19 12:55,-119.7500,38.9963,1441.42,46.40,44.60,93.40,110.00,4.00,0.00,30.08,M,10.00,M,CLR,M,M,M,M,M,M,M,M,M,M,M,M,M,M,44.24,KMEV 191255Z AUTO 11004KT 10SM CLR 08/07 A3008 RMK AO2,M
BAM,2023-08-19 12:55,-116.8743,40.5990,1382.36,64.40,41.00,42.28,260.00,3.00,0.00,30.03,M,10.00,M,CLR,M,M,M,M,M,M,M,M,M,M,M,M,M,M,64.40,KBAM 191255Z AUTO 26003KT 10SM CLR 18/05 A3003 RMK AO1,M
HTH,2023-08-19 12:55,-118.6315,38.5448,1282.89,59.00,44.60,58.77,210.00,3.00,0.00,30.04,M,10.00,M,CLR,M,M,M,M,M,M,M,M,M,M,M,M,M,M,59.00,KHTH 191255Z AUTO 21003KT 10SM CLR 15/07 A3004 RMK A01,M
10U,2023-08-19 12:55,-116.1876,41.9532,1637.00,57.20,46.40,67.12,0.00,0.00,0.00,30.07,M,10.00,M,CLR,M,M,M,M,M,M,M,M,M,M,M,M,M,M,57.20,K10U 191255Z AUTO 00000KT 10SM CLR 14/08 A3007 RMK AO2,M
TMT,2023-08-19 12:55,-117.1971,39.4643,1749.34,48.70,35.60,60.37,0.00,0.00,0.00,30.14,M,M,M,SCT,M,M,M,12000.00,M,M,M,M,M,M,M,M,M,M,48.70,KTMT 191255Z AUTO 00000KT SCT120 09/02 A3014 RMK AO2 T00930020 PWINO,M
HND,2023-08-19 12:55,-115.1344,35.9729,742.79,M,M,M,0.00,0.00,0.00,30.02,M,10.00,M,SCT,M,M,M,12000.00,M,M,M,M,M,M,M,M,M,M,M,KHND 191255Z 00000KT 10SM SCT120 A3002,M
LSV,2023-08-19 12:55,-115.0343,36.2362,570.00,69.80,69.40,98.64,30.00,13.00,0.00,29.94,1011.80,10.00,M,CLR,M,M,M,M,M,M,M,M,M,M,M,M,M,M,69.80,KLSV 191255Z AUTO 03013KT 10SM CLR 21/21 A2994 RMK AO2 SLP118 T02100208 $,M
EKO,2023-08-19 12:56,-115.7860,40.8242,1367.00,56.00,44.00,63.99,270.00,3.00,0.00,30.06,1012.70,10.00,M,CLR,M,M,M,M,M,M,M,M,M,M,M,M,M,M,56.00,KEKO 191256Z AUTO 27003KT 10SM CLR 13/07 A3006 RMK AO2 SLP127 T01330067,M
WMC,2023-08-19 12:56,-117.8072,40.9019,1315.00,54.00,37.00,52.45,0.00,0.00,0.00,30.01,1011.30,10.00,M,CLR,M,M,M,M,M,M,M,M,M,M,M,M,M,M,54.00,KWMC 191256Z AUTO 00000KT 10SM CLR 12/03 A3001 RMK AO2 SLP113 T01220028,M
NFL,2023-08-19 12:56,-118.7010,39.4166,1199.00,61.00,42.00,49.54,160.00,6.00,0.00,30.00,1013.00,10.00,M,FEW,FEW,M,M,10000.00,20000.00,M,M,M,M,M,M,M,M,M,61.00,KNFL 191256Z 16006KT 10SM FEW100 FEW200 16/06 A3000 RMK AO2 SLP130 T01610056,M
HND,2023-08-19 12:56,-115.1344,35.9729,742.79,M,M,M,M,M,0.00,M,M,M,M,M,M,M,M,M,M,M,M,M,M,M,M,M,M,M,M,KHND 191256Z AUTO RMK AO2 SLPNO PWINO FZRANO $,M
TPH,2023-08-19 12:56,-117.0904,38.0505,1654.00,59.00,43.00,55.28,0.00,0.00,0.00,30.13,1012.50,10.00,M,CLR,M,M,M,M,M,M,M,M,M,M,M,M,M,M,59.00,KTPH 191256Z AUTO 00000KT 10SM CLR 15/06 A3013 RMK AO2 SLP125 T01500061,M
LAS,2023-08-19 12:56,-115.1634,36.0719,663.00,70.00,64.00,81.27,30.00,9.00,0.00,29.98,1013.20,10.00,M,FEW,SCT,M,M,12000.00,18000.00,M,M,M,M,M,M,M,M,M,70.00,KLAS 191256Z 03009KT 10SM FEW120 SCT180 21/18 A2998 RMK AO2 SLP132 T02110178,M
05U,2023-08-19 13:10,-116.0051,39.6042,1811.23,64.40,42.80,45.32,M,M,0.00,30.17,M,10.00,M,M,M,M,M,M,M,M,M,M,M,M,M,M,M,M,64.40,K05U 191310Z AUTO 10SM 18/06 A3017 RMK A01,M
BVU,2023-08-19 13:15,-114.8611,35.9475,671.00,69.80,62.60,77.90,310.00,8.00,0.00,29.97,M,10.00,M,CLR,M,M,M,M,M,M,M,M,M,M,M,M,M,M,69.80,KBVU 191315Z AUTO 31008KT 10SM CLR 21/17 A2997 RMK AO2,M
CXP,2023-08-19 13:15,-119.7326,39.1923,1431.00,57.20,50.00,76.82,0.00,0.00,0.00,30.09,M,10.00,M,CLR,M,M,M,M,M,M,M,M,M,M,M,M,M,M,57.20,KCXP 191315Z AUTO 00000KT 10SM CLR 14/10 A3009 RMK AO2,M
RTS,2023-08-19 13:15,-119.8764,39.6682,1539.00,55.40,41.00,58.27,0.00,0.00,0.00,30.08,M,10.00,M,FEW,M,M,M,11000.00,M,M,M,M,M,M,M,M,M,M,55.40,KRTS 191315Z AUTO 00000KT 10SM FEW110 13/05 A3008 RMK AO2,M
MEV,2023-08-19 13:15,-119.7500,38.9963,1441.42,46.40,44.60,93.40,140.00,5.00,0.00,30.08,M,10.00,M,BKN,M,M,M,12000.00,M,M,M,M,M,M,M,M,M,M,43.50,KMEV 191315Z AUTO 14005KT 10SM BKN120 08/07 A3008 RMK AO2,M
HTH,2023-08-19 13:15,-118.6315,38.5448,1282.89,60.80,46.40,59.01,220.00,5.00,0.00,30.04,M,10.00,M,CLR,M,M,M,M,M,M,M,M,M,M,M,M,M,M,60.80,KHTH 191315Z AUTO 22005KT 10SM CLR 16/08 A3004 RMK A01,M
10U,2023-08-19 13:15,-116.1876,41.9532,1637.00,60.80,46.40,59.01,120.00,6.00,0.00,30.06,M,10.00,M,CLR,M,M,M,M,M,M,M,M,M,M,M,M,M,M,60.80,K10U 191315Z AUTO 12006KT 10SM CLR 16/08 A3006 RMK AO2,M
BAM,2023-08-19 13:15,-116.8743,40.5990,1382.36,64.40,41.00,42.28,350.00,3.00,0.00,30.04,M,10.00,M,CLR,M,M,M,M,M,M,M,M,M,M,M,M,M,M,64.40,KBAM 191315Z AUTO 35003KT 10SM CLR 18/05 A3004 RMK AO1,M
TMT,2023-08-19 13:15,-117.1971,39.4643,1749.34,46.60,34.70,63.04,0.00,0.00,0.00,30.15,M,M,M,CLR,M,M,M,M,M,M,M,M,M,M,M,M,M,M,46.60,KTMT 191315Z AUTO 00000KT CLR 08/02 A3015 RMK AO2 T00810015 PWINO,M
BVU,2023-08-19 13:35,-114.8611,35.9475,671.00,69.80,62.60,77.90,310.00,5.00,0.00,29.98,M,10.00,M,CLR,M,M,M,M,M,M,M,M,M,M,M,M,M,M,69.80,KBVU 191335Z AUTO 31005KT 10SM CLR 21/17 A2998 RMK AO2,M
CXP,2023-08-19 13:35,-119.7326,39.1923,1431.00,55.40,50.00,81.99,200.00,3.00,0.00,30.10,M,10.00,M,CLR,M,M,M,M,M,M,M,M,M,M,M,M,M,M,55.40,KCXP 191335Z AUTO 20003KT 10SM CLR 13/10 A3010 RMK AO2,M
RTS,2023-08-19 13:35,-119.8764,39.6682,1539.00,55.40,41.00,58.27,0.00,0.00,0.00,30.09,M,10.00,M,SCT,M,M,M,11000.00,M,M,M,M,M,M,M,M,M,M,55.40,KRTS 191335Z AUTO 00000KT 10SM SCT110 13/05 A3009 RMK AO2,M
05U,2023-08-19 13:35,-116.0051,39.6042,1811.23,64.40,46.40,51.98,M,M,0.00,30.18,M,10.00,M,M,M,M,M,M,M,M,M,M,M,M,M,M,M,M,64.40,K05U 191335Z AUTO 10SM 18/08 A3018 RMK A01,M
MEV,2023-08-19 13:35,-119.7500,38.9963,1441.42,50.00,46.40,87.37,0.00,0.00,0.00,30.09,M,10.00,M,BKN,M,M,M,12000.00,M,M,M,M,M,M,M,M,M,M,50.00,KMEV 191335Z AUTO 00000KT 10SM BKN120 10/08 A3009 RMK AO2,M
HTH,2023-08-19 13:35,-118.6315,38.5448,1282.89,60.80,44.60,55.12,0.00,0.00,0.00,30.04,M,10.00,M,CLR,M,M,M,M,M,M,M,M,M,M,M,M,M,M,60.80,KHTH 191335Z AUTO 00000KT 10SM CLR 16/07 A3004 RMK A01,M
10U,2023-08-19 13:35,-116.1876,41.9532,1637.00,64.40,46.40,51.98,140.00,3.00,0.00,30.07,M,10.00,M,CLR,M,M,M,M,M,M,M,M,M,M,M,M,M,M,64.40,K10U 191335Z AUTO 14003KT 10SM CLR 18/08 A3007 RMK AO2,M
BAM,2023-08-19 13:35,-116.8743,40.5990,1382.36,66.20,41.00,39.72,0.00,0.00,0.00,30.05,M,10.00,M,CLR,M,M,M,M,M,M,M,M,M,M,M,M,M,M,66.20,KBAM 191335Z AUTO 00000KT 10SM CLR 19/05 A3005 RMK AO1,M
TMT,2023-08-19 13:35,-117.1971,39.4643,1749.34,47.00,35.80,64.87,0.00,0.00,0.00,30.15,M,M,M,CLR,M,M,M,M,M,M,M,M,M,M,M,M,M,M,47.00,KTMT 191335Z AUTO 00000KT CLR 08/02 A3015 RMK AO2 T00830021 PWINO,M
05U,2023-08-19 13:50,-116.0051,39.6042,1811.23,64.40,46.40,51.98,M,M,0.00,30.18,M,10.00,M,M,M,M,M,M,M,M,M,M,M,M,M,M,M,M,64.40,K05U 191350Z AUTO 10SM 18/08 A3018 RMK A01,M
P68,2023-08-19 13:53,-116.0056,39.6014,1993.00,66.00,46.00,48.43,0.00,0.00,0.00,30.15,1011.90,M,M,M,M,M,M,M,M,M,M,M,M,M,M,M,M,M,66.00,KP68 191353Z AUTO 00000KT 19/08 A3015 RMK AO1 SLP119 T01890078,M
DRA,2023-08-19 13:53,-116.0278,36.6206,1009.00,69.00,54.00,58.80,120.00,13.00,0.00,30.02,1011.90,10.00,20.00,CLR,M,M,M,M,M,M,M,M,M,M,M,M,M,M,69.00,KDRA 191353Z AUTO 12013G20KT 10SM CLR 21/12 A3002 RMK AO2 SLP119 T02060122,M
ELY,2023-08-19 13:53,-114.8453,39.2950,1909.00,61.00,48.00,62.23,180.00,5.00,0.00,30.22,1013.30,10.00,M,BKN,M,M,M,11000.00,M,M,M,M,M,M,M,M,M,M,61.00,KELY 191353Z AUTO 18005KT 10SM BKN110 16/09 A3022 RMK AO2 SLP133 T01610089,M
VGT,2023-08-19 13:53,-115.1933,36.2111,667.00,72.00,63.00,73.31,210.00,6.00,0.00,29.99,1015.50,10.00,M,CLR,M,M,M,M,M,M,M,M,M,M,M,M,M,M,72.00,KVGT 191353Z 21006KT 10SM CLR 22/17 A2999 RMK AO2 SLP155 T02220172,M
LOL,2023-08-19 13:53,-118.5701,40.0684,1192.43,54.00,40.00,58.99,140.00,5.00,0.00,30.01,1012.60,10.00,M,CLR,M,M,M,M,M,M,M,M,M,M,M,M,M,M,54.00,KLOL 191353Z AUTO 14005KT 10SM CLR 12/04 A3001 RMK AO2 SLP126 T01220044,M
BVU,2023-08-19 13:55,-114.8611,35.9475,671.00,69.80,62.60,77.90,300.00,5.00,0.00,29.98,M,10.00,M,CLR,M,M,M,M,M,M,M,M,M,M,M,M,M,M,69.80,KBVU 191355Z AUTO 30005KT 10SM CLR 21/17 A2998 RMK AO2,M
CXP,2023-08-19 13:55,-119.7326,39.1923,1431.00,57.20,50.00,76.82,0.00,0.00,0.00,30.10,M,10.00,M,CLR,M,M,M,M,M,M,M,M,M,M,M,M,M,M,57.20,KCXP 191355Z AUTO 00000KT 10SM CLR 14/10 A3010 RMK AO2,M
INS,2023-08-19 13:55,-115.6733,36.5872,955.00,65.50,60.00,82.40,110.00,6.00,0.00,30.03,1012.50,10.00,M,CLR,M,M,M,M,M,M,M,M,M,M,M,M,M,M,65.50,KINS 191355Z AUTO 11006KT 10SM CLR 19/16 A3003 RMK AO2 SLP125 T01860156 $,M
RNO,2023-08-19 13:55,-119.7711,39.4839,1341.00,65.00,49.00,56.13,0.00,0.00,0.00,30.04,1011.90,10.00,M,FEW,M,M,M,12000.00,M,M,M,M,M,M,M,M,M,M,65.00,KRNO 191355Z 00000KT 10SM FEW120 18/09 A3004 RMK AO2 SLP119 T01830094,M
RTS,2023-08-19 13:55,-119.8764,39.6682,1539.00,59.00,42.80,54.86,0.00,0.00,0.00,30.09,M,10.00,M,BKN,M,M,M,11000.00,M,M,M,M,M,M,M,M,M,M,59.00,KRTS 191355Z AUTO 00000KT 10SM BKN110 15/06 A3009 RMK AO2,M
MEV,2023-08-19 13:55,-119.7500,38.9963,1441.42,50.00,48.20,93.50,200.00,3.00,0.00,30.09,M,10.00,M,FEW,M,M,M,11000.00,M,M,M,M,M,M,M,M,M,M,50.00,KMEV 191355Z AUTO 20003KT 10SM FEW110 10/09 A3009 RMK AO2,M
HTH,2023-08-19 13:55,-118.6315,38.5448,1282.89,62.60,44.60,51.72,150.00,5.00,0.00,30.05,M,10.00,M,CLR,M,M,M,M,M,M,M,M,M,M,M,M,M,M,62.60,KHTH 191355Z AUTO 15005KT 10SM CLR 17/07 A3005 RMK A01,M
10U,2023-08-19 13:55,-116.1876,41.9532,1637.00,60.80,44.60,55.12,230.00,4.00,0.00,30.08,M,10.00,M,CLR,M,M,M,M,M,M,M,M,M,M,M,M,M,M,60.80,K10U 191355Z AUTO 23004KT 10SM CLR 16/07 A3008 RMK AO2,M
BAM,2023-08-19 13:55,-116.8743,40.5990,1382.36,64.40,42.80,45.32,270.00,3.00,0.00,30.05,M,10.00,M,CLR,M,M,M,M,M,M,M,M,M,M,M,M,M,M,64.40,KBAM 191355Z AUTO 27003KT 10SM CLR 18/06 A3005 RMK AO1,M
TMT,2023-08-19 13:55,-117.1971,39.4643,1749.34,49.00,36.00,60.66,310.00,3.00,0.00,30.15,M,M,M,CLR,M,M,M,M,M,M,M,M,M,M,M,M,M,M,48.12,KTMT 191355Z AUTO 31003KT CLR 10/02 A3015 RMK AO2 T00950023 PWINO,M
LSV,2023-08-19 13:55,-115.0343,36.2362,570.00,70.50,70.00,98.31,50.00,7.00,0.00,29.95,1012.40,10.00,M,CLR,M,M,M,M,M,M,M,M,M,M,M,M,M,M,70.50,KLSV 191355Z AUTO 05007KT 10SM CLR 21/21 A2995 RMK AO2 SLP124 T02140212 $,M
EKO,2023-08-19 13:56,-115.7860,40.8242,1367.00,57.00,47.00,69.16,0.00,0.00,0.00,30.07,1012.70,10.00,M,CLR,M,M,M,M,M,M,M,M,M,M,M,M,M,M,57.00,KEKO 191356Z AUTO 00000KT 10SM CLR 14/08 A3007 RMK AO2 SLP127 T01390083,M
WMC,2023-08-19 13:56,-117.8072,40.9019,1315.00,57.00,40.00,52.90,170.00,5.00,0.00,30.03,1011.90,10.00,M,CLR,M,M,M,M,M,M,M,M,M,M,M,M,M,M,57.00,KWMC 191356Z AUTO 17005KT 10SM CLR 14/04 A3003 RMK AO2 SLP119 T01390044,M
NFL,2023-08-19 13:56,-118.7010,39.4166,1199.00,63.00,44.00,49.84,160.00,5.00,0.00,30.01,1013.20,10.00,M,FEW,FEW,M,M,10000.00,20000.00,M,M,M,M,M,M,M,M,M,63.00,KNFL 191356Z 16005KT 10SM FEW100 FEW200 17/07 A3001 RMK AO2 SLP132 T01720067,M
HND,2023-08-19 13:56,-115.1344,35.9729,742.79,M,M,M,M,M,0.00,M,M,M,M,M,M,M,M,M,M,M,M,M,M,M,M,M,M,M,M,KHND 191356Z RMK AO2 SLPNO $,M
TPH,2023-08-19 13:56,-117.0904,38.0505,1654.00,61.00,43.00,51.48,340.00,4.00,0.00,30.13,1012.70,10.00,M,CLR,M,M,M,M,M,M,M,M,M,M,M,M,M,M,61.00,KTPH 191356Z AUTO 34004KT 10SM CLR 16/06 A3013 RMK AO2 SLP127 T01610061,M
LAS,2023-08-19 13:56,-115.1634,36.0719,663.00,71.00,63.00,75.84,0.00,0.00,0.00,30.00,1014.00,10.00,M,FEW,SCT,M,M,12000.00,18000.00,M,M,M,M,M,M,M,M,M,71.00,KLAS 191356Z 00000KT 10SM FEW120 SCT180 22/17 A3000 RMK AO2 SLP140 T02170172,M
05U,2023-08-19 14:10,-116.0051,39.6042,1811.23,64.40,44.60,48.55,M,M,0.00,30.18,M,10.00,M,M,M,M,M,M,M,M,M,M,M,M,M,M,M,M,64.40,K05U 191410Z AUTO 10SM 18/07 A3018 RMK A01,M
BVU,2023-08-19 14:15,-114.8611,35.9475,671.00,71.60,64.40,78.04,270.00,4.00,0.00,29.99,M,10.00,M,CLR,M,M,M,M,M,M,M,M,M,M,M,M,M,M,71.60,KBVU 191415Z AUTO 27004KT 10SM CLR 22/18 A2999 RMK AO2,M
CXP,2023-08-19 14:15,-119.7326,39.1923,1431.00,59.00,50.00,72.01,0.00,0.00,0.00,30.10,M,10.00,M,CLR,M,M,M,M,M,M,M,M,M,M,M,M,M,M,59.00,KCXP 191415Z AUTO 00000KT 10SM CLR 15/10 A3010 RMK AO2,M
RTS,2023-08-19 14:15,-119.8764,39.6682,1539.00,57.20,42.80,58.52,340.00,3.00,0.00,30.09,M,10.00,M,SCT,M,M,M,11000.00,M,M,M,M,M,M,M,M,M,M,57.20,KRTS 191415Z AUTO 34003KT 10SM SCT110 14/06 A3009 RMK AO2,M
MEV,2023-08-19 14:15,-119.7500,38.9963,1441.42,53.60,50.00,87.56,0.00,0.00,0.00,30.09,M,10.00,M,SCT,M,M,M,11000.00,M,M,M,M,M,M,M,M,M,M,53.60,KMEV 191415Z AUTO 00000KT 10SM SCT110 12/10 A3009 RMK AO2,M
BAM,2023-08-19 14:15,-116.8743,40.5990,1382.36,64.40,42.80,45.32,0.00,0.00,0.00,30.05,M,10.00,M,CLR,M,M,M,M,M,M,M,M,M,M,M,M,M,M,64.40,KBAM 191415Z AUTO 00000KT 10SM CLR 18/06 A3005 RMK AO1,M
HTH,2023-08-19 14:15,-118.6315,38.5448,1282.89,66.20,44.60,45.60,0.00,0.00,0.00,30.05,M,10.00,M,CLR,M,M,M,M,M,M,M,M,M,M,M,M,M,M,66.20,KHTH 191415Z AUTO 00000KT 10SM CLR 19/07 A3005 RMK A01,M
10U,2023-08-19 14:15,-116.1876,41.9532,1637.00,62.60,46.40,55.37,210.00,5.00,0.00,30.08,M,10.00,M,CLR,M,M,M,M,M,M,M,M,M,M,M,M,M,M,62.60,K10U 191415Z AUTO 21005KT 10SM CLR 17/08 A3008 RMK AO2,M
TMT,2023-08-19 14:15,-117.1971,39.4643,1749.34,51.30,37.60,59.31,0.00,0.00,0.00,30.15,M,M,M,CLR,M,M,M,M,M,M,M,M,M,M,M,M,M,M,51.30,KTMT 191415Z AUTO 00000KT CLR 11/03 A3015 RMK AO2 T01070031 PWINO,M
05U,2023-08-19 14:30,-116.0051,39.6042,1811.23,66.20,44.60,45.60,M,M,0.00,30.18,M,10.00,M,M,M,M,M,M,M,M,M,M,M,M,M,M,M,M,66.20,K05U 191430Z AUTO 10SM 19/07 A3018 RMK A01,M
BVU,2023-08-19 14:35,-114.8611,35.9475,671.00,71.60,64.40,78.04,280.00,5.00,0.00,30.00,M,10.00,M,CLR,M,M,M,M,M,M,M,M,M,M,M,M,M,M,71.60,KBVU 191435Z AUTO 28005KT 10SM CLR 22/18 A3000 RMK AO2,M
CXP,2023-08-19 14:35,-119.7326,39.1923,1431.00,60.80,48.20,63.15,0.00,0.00,0.00,30.10,M,10.00,M,CLR,M,M,M,M,M,M,M,M,M,M,M,M,M,M,60.80,KCXP 191435Z AUTO 00000KT 10SM CLR 16/09 A3010 RMK AO2,M
RTS,2023-08-19 14:35,-119.8764,39.6682,1539.00,60.80,42.80,51.45,0.00,0.00,0.00,30.09,M,10.00,M,FEW,M,M,M,12000.00,M,M,M,M,M,M,M,M,M,M,60.80,KRTS 191435Z AUTO 00000KT 10SM FEW120 16/06 A3009 RMK AO2,M
MEV,2023-08-19 14:35,-119.7500,38.9963,1441.42,55.40,50.00,81.99,0.00,0.00,0.00,30.09,M,10.00,M,FEW,M,M,M,11000.00,M,M,M,M,M,M,M,M,M,M,55.40,KMEV 191435Z AUTO 00000KT 10SM FEW110 13/10 A3009 RMK AO2,M
HTH,2023-08-19 14:35,-118.6315,38.5448,1282.89,68.00,46.40,45.88,0.00,0.00,0.00,30.05,M,10.00,M,CLR,M,M,M,M,M,M,M,M,M,M,M,M,M,M,68.00,KHTH 191435Z AUTO 00000KT 10SM CLR 20/08 A3005 RMK A01,M
10U,2023-08-19 14:35,-116.1876,41.9532,1637.00,64.40,44.60,48.55,230.00,8.00,0.00,30.09,M,10.00,M,CLR,M,M,M,M,M,M,M,M,M,M,M,M,M,M,64.40,K10U 191435Z AUTO 23008KT 10SM CLR 18/07 A3009 RMK AO2,M
BAM,2023-08-19 14:35,-116.8743,40.5990,1382.36,64.40,44.60,48.55,0.00,0.00,0.00,30.05,M,10.00,M,CLR,M,M,M,M,M,M,M,M,M,M,M,M,M,M,64.40,KBAM 191435Z AUTO 00000KT 10SM CLR 18/07 A3005 RMK AO1,M
TMT,2023-08-19 14:35,-117.1971,39.4643,1749.34,56.70,36.30,46.26,0.00,0.00,0.00,30.15,M,M,M,CLR,M,M,M,M,M,M,M,M,M,M,M,M,M,M,56.70,KTMT 191435Z AUTO 00000KT CLR 14/02 A3015 RMK AO2 T01370024 PWINO,M
DRA,2023-08-19 14:53,-116.0278,36.6206,1009.00,72.00,57.00,59.20,120.00,9.00,0.00,30.02,1011.90,10.00,M,CLR,M,M,M,M,M,M,M,M,M,M,M,M,M,M,72.00,KDRA 191453Z AUTO 12009KT 10SM CLR 22/14 A3002 RMK AO2 SLP119 T02220139 51010 $,M
ELY,2023-08-19 14:53,-114.8453,39.2950,1909.00,64.00,49.00,58.13,350.00,8.00,0.00,30.22,1013.50,10.00,M,BKN,M,M,M,11000.00,M,M,M,M,M,M,M,M,M,M,64.00,KELY 191453Z AUTO 35008KT 10SM BKN110 18/09 A3022 RMK AO2 SLP135 T01780094 53003,M
VGT,2023-08-19 14:53,-115.1933,36.2111,667.00,74.00,63.00,68.53,170.00,5.00,0.00,30.00,1015.60,10.00,M,CLR,M,M,M,M,M,M,M,M,M,M,M,M,M,M,74.00,KVGT 191453Z 17005KT 10SM CLR 23/17 A3000 RMK AO2 SLP156 T02330172 53006,M
LOL,2023-08-19 14:53,-118.5701,40.0684,1192.43,66.00,44.00,44.88,70.00,3.00,0.00,30.00,1012.00,10.00,M,CLR,M,M,M,M,M,M,M,M,M,M,M,M,M,M,66.00,KLOL 191453Z AUTO 07003KT 10SM CLR 19/07 A3000 RMK AO2 SLP120 T01890067 50005,M
BVU,2023-08-19 14:55,-114.8611,35.9475,671.00,71.60,64.40,78.04,260.00,4.00,0.00,30.00,M,10.00,M,CLR,M,M,M,M,M,M,M,M,M,M,M,M,M,M,71.60,KBVU 191455Z AUTO 26004KT 10SM CLR 22/18 A3000 RMK AO2,M
CXP,2023-08-19 14:55,-119.7326,39.1923,1431.00,60.80,48.20,63.15,0.00,0.00,0.00,30.10,M,10.00,M,CLR,M,M,M,M,M,M,M,M,M,M,M,M,M,M,60.80,KCXP 191455Z AUTO 00000KT 10SM CLR 16/09 A3010 RMK AO2,M
INS,2023-08-19 14:55,-115.6733,36.5872,955.00,70.00,58.60,67.12,120.00,5.00,0.00,30.04,1012.80,10.00,M,CLR,M,M,M,M,M,M,M,M,M,M,M,M,M,M,70.00,KINS 191455Z AUTO 12005KT 10SM CLR 21/15 A3004 RMK AO2 SLP128 T02120148 53010 $,M
RNO,2023-08-19 14:55,-119.7711,39.4839,1341.00,69.00,46.00,43.67,270.00,4.00,0.00,30.05,1012.00,10.00,M,SCT,SCT,M,M,4000.00,17000.00,M,M,M,M,M,M,M,M,M,69.00,KRNO 191455Z 27004KT 10SM SCT040 SCT170 21/08 A3005 RMK AO2 SLP120 T02060078 51005,M
LSV,2023-08-19 14:55,-115.0343,36.2362,570.00,73.00,72.00,96.68,0.00,0.00,0.00,29.98,1013.50,10.00,M,FEW,FEW,M,M,16000.00,20000.00,M,M,M,M,M,M,M,M,M,73.00,KLSV 191455Z AUTO 00000KT 10SM FEW160 FEW200 23/22 A2998 RMK AO2 SLP135 T02270222 53011 $,M
RTS,2023-08-19 14:55,-119.8764,39.6682,1539.00,62.60,42.80,48.28,0.00,0.00,0.00,30.09,M,10.00,M,FEW,M,M,M,11000.00,M,M,M,M,M,M,M,M,M,M,62.60,KRTS 191455Z AUTO 00000KT 10SM FEW110 17/06 A3009 RMK AO2,M
05U,2023-08-19 14:55,-116.0051,39.6042,1811.23,69.80,44.60,40.29,M,M,0.00,30.18,M,10.00,M,M,M,M,M,M,M,M,M,M,M,M,M,M,M,M,69.80,K05U 191455Z AUTO 10SM 21/07 A3018 RMK A01,M
MEV,2023-08-19 14:55,-119.7500,38.9963,1441.42,57.20,50.00,76.82,0.00,0.00,0.00,30.08,M,10.00,M,CLR,M,M,M,M,M,M,M,M,M,M,M,M,M,M,57.20,KMEV 191455Z AUTO 00000KT 10SM CLR 14/10 A3008 RMK AO2,M
HTH,2023-08-19 14:55,-118.6315,38.5448,1282.89,71.60,44.60,37.89,0.00,0.00,0.00,30.05,M,10.00,M,CLR,M,M,M,M,M,M,M,M,M,M,M,M,M,M,71.60,KHTH 191455Z AUTO 00000KT 10SM CLR 22/07 A3005 RMK A01,M
BAM,2023-08-19 14:55,-116.8743,40.5990,1382.36,68.00,42.80,40.00,170.00,3.00,0.00,30.05,M,10.00,M,CLR,M,M,M,M,M,M,M,M,M,M,M,M,M,M,68.00,KBAM 191455Z AUTO 17003KT 10SM CLR 20/06 A3005 RMK AO1,M
TMT,2023-08-19 14:55,-117.1971,39.4643,1749.34,60.80,37.80,42.37,0.00,0.00,0.00,30.15,M,M,M,CLR,M,M,M,M,M,M,M,M,M,M,M,M,M,M,60.80,KTMT 191455Z AUTO 00000KT CLR 16/03 A3015 RMK AO2 T01600032 PWINO,M
10U,2023-08-19 14:55,-116.1876,41.9532,1637.00,66.20,41.00,39.72,210.00,8.00,0.00,30.09,M,10.00,M,FEW,M,M,M,12000.00,M,M,M,M,M,M,M,M,M,M,66.20,K10U 191455Z AUTO 21008KT 10SM FEW120 19/05 A3009 RMK AO2,M
EKO,2023-08-19 14:56,-115.7860,40.8242,1367.00,62.00,47.00,57.85,0.00,0.00,0.00,30.08,1013.10,10.00,M,CLR,M,M,M,M,M,M,M,M,M,M,M,M,M,M,62.00,KEKO 191456Z AUTO 00000KT 10SM CLR 17/08 A3008 RMK AO2 SLP131 T01670083 53008,M
WMC,2023-08-19 14:56,-117.8072,40.9019,1315.00,66.00,41.00,39.99,150.00,4.00,0.00,30.02,1012.00,10.00,M,CLR,M,M,M,M,M,M,M,M,M,M,M,M,M,M,66.00,KWMC 191456Z AUTO 15004KT 10SM CLR 19/05 A3002 RMK AO2 SLP120 T01890050 50004,M
NFL,2023-08-19 14:56,-118.7010,39.4166,1199.00,71.00,49.00,45.66,170.00,5.00,0.00,30.01,1013.40,10.00,M,FEW,FEW,M,M,10000.00,20000.00,M,M,M,M,M,M,M,M,M,71.00,KNFL 191456Z 17005KT 10SM FEW100 FEW200 22/09 A3001 RMK AO2 SLP134 T02170094 53004,M
HND,2023-08-19 14:56,-115.1344,35.9729,742.79,M,M,M,M,M,0.00,M,M,M,M,M,M,M,M,M,M,M,M,M,M,M,M,M,M,M,M,KHND 191456Z RMK AO2 SLPNO 6//// $,M
TPH,2023-08-19 14:56,-117.0904,38.0505,1654.00,69.00,46.00,43.67,100.00,5.00,0.00,30.15,1013.00,10.00,M,CLR,M,M,M,M,M,M,M,M,M,M,M,M,M,M,69.00,KTPH 191456Z AUTO 10005KT 10SM CLR 21/08 A3015 RMK AO2 SLP130 T02060078 53003,M
LAS,2023-08-19 14:56,-115.1634,36.0719,663.00,72.00,63.00,73.31,200.00,4.00,0.00,30.01,1014.30,10.00,M,SCT,BKN,M,M,12000.00,18000.00,M,M,M,M,M,M,M,M,M,72.00,KLAS 191456Z 20004KT 10SM SCT120 BKN180 22/17 A3001 RMK AO2 SLP143 T02220172 53007,M
BVU,2023-08-19 15:15,-114.8611,35.9475,671.00,71.60,64.40,78.04,250.00,4.00,0.00,29.99,M,10.00,M,CLR,M,M,M,M,M,M,M,M,M,M,M,M,M,M,71.60,KBVU 191515Z AUTO 25004KT 10SM CLR 22/18 A2999 RMK AO2,M
CXP,2023-08-19 15:15,-119.7326,39.1923,1431.00,62.60,50.00,63.38,0.00,0.00,0.00,30.10,M,10.00,M,CLR,M,M,M,M,M,M,M,M,M,M,M,M,M,M,62.60,KCXP 191515Z AUTO 00000KT 10SM CLR 17/10 A3010 RMK AO2,M
RTS,2023-08-19 15:15,-119.8764,39.6682,1539.00,66.20,42.80,42.57,90.00,3.00,0.00,30.09,M,10.00,M,FEW,M,M,M,11000.00,M,M,M,M,M,M,M,M,M,M,66.20,KRTS 191515Z AUTO 09003KT 10SM FEW110 19/06 A3009 RMK AO2,M
05U,2023-08-19 15:15,-116.0051,39.6042,1811.23,71.60,44.60,37.89,M,M,0.00,30.18,M,10.00,M,M,M,M,M,M,M,M,M,M,M,M,M,M,M,M,71.60,K05U 191515Z AUTO 10SM 22/07 A3018 RMK A01,M
MEV,2023-08-19 15:15,-119.7500,38.9963,1441.42,59.00,50.00,72.01,0.00,0.00,0.00,30.09,M,10.00,M,CLR,M,M,M,M,M,M,M,M,M,M,M,M,M,M,59.00,KMEV 191515Z AUTO 00000KT 10SM CLR 15/10 A3009 RMK AO2,M
BAM,2023-08-19 15:15,-116.8743,40.5990,1382.36,71.60,44.60,37.89,200.00,3.00,0.00,30.05,M,10.00,M,CLR,M,M,M,M,M,M,M,M,M,M,M,M,M,M,71.60,KBAM 191515Z AUTO 20003KT 10SM CLR 22/07 A3005 RMK AO1,M
HTH,2023-08-19 15:15,-118.6315,38.5448,1282.89,71.60,44.60,37.89,0.00,0.00,0.00,30.06,M,10.00,M,CLR,M,M,M,M,M,M,M,M,M,M,M,M,M,M,71.60,KHTH 191515Z AUTO 00000KT 10SM CLR 22/07 A3006 RMK A01,M
10U,2023-08-19 15:15,-116.1876,41.9532,1637.00,66.20,39.20,37.03,210.00,6.00,0.00,30.10,M,10.00,M,FEW,M,M,M,11000.00,M,M,M,M,M,M,M,M,M,M,66.20,K10U 191515Z AUTO 21006KT 10SM FEW110 19/04 A3010 RMK AO2,M
TMT,2023-08-19 15:15,-117.1971,39.4643,1749.34,66.00,41.70,41.09,160.00,3.00,0.00,30.16,M,M,M,CLR,M,M,M,M,M,M,M,M,M,M,M,M,M,M,66.00,KTMT 191515Z AUTO 16003KT CLR 19/05 A3016 RMK AO2 T01890054 PWINO,M
BVU,2023-08-19 15:35,-114.8611,35.9475,671.00,73.40,64.40,73.44,0.00,0.00,0.00,29.99,M,10.00,M,CLR,M,M,M,M,M,M,M,M,M,M,M,M,M,M,73.40,KBVU 191535Z AUTO 00000KT 10SM CLR 23/18 A2999 RMK AO2,M
CXP,2023-08-19 15:35,-119.7326,39.1923,1431.00,64.40,50.00,59.50,0.00,0.00,0.00,30.10,M,10.00,M,CLR,M,M,M,M,M,M,M,M,M,M,M,M,M,M,64.40,KCXP 191535Z AUTO 00000KT 10SM CLR 18/10 A3010 RMK AO2,M
RTS,2023-08-19 15:35,-119.8764,39.6682,1539.00,68.00,44.60,42.85,0.00,0.00,0.00,30.09,M,10.00,M,CLR,M,M,M,M,M,M,M,M,M,M,M,M,M,M,68.00,KRTS 191535Z AUTO 00000KT 10SM CLR 20/07 A3009 RMK AO2,M
05U,2023-08-19 15:35,-116.0051,39.6042,1811.23,71.60,44.60,37.89,M,M,0.00,30.18,M,10.00,M,M,M,M,M,M,M,M,M,M,M,M,M,M,M,M,71.60,K05U 191535Z AUTO 10SM 22/07 A3018 RMK A01,M
MEV,2023-08-19 15:35,-119.7500,38.9963,1441.42,60.80,51.80,72.20,0.00,0.00,0.00,30.08,M,10.00,M,CLR,M,M,M,M,M,M,M,M,M,M,M,M,M,M,60.80,KMEV 191535Z AUTO 00000KT 10SM CLR 16/11 A3008 RMK AO2,M
HTH,2023-08-19 15:35,-118.6315,38.5448,1282.89,73.40,44.60,35.66,0.00,0.00,0.00,30.05,M,10.00,M,CLR,M,M,M,M,M,M,M,M,M,M,M,M,M,M,73.40,KHTH 191535Z AUTO 00000KT 10SM CLR 23/07 A3005 RMK A01,M
10U,2023-08-19 15:35,-116.1876,41.9532,1637.00,68.00,39.20,34.80,230.00,4.00,0.00,30.09,M,10.00,M,CLR,M,M,M,M,M,M,M,M,M,M,M,M,M,M,68.00,K10U 191535Z AUTO 23004KT 10SM CLR 20/04 A3009 RMK AO2,M
BAM,2023-08-19 15:35,-116.8743,40.5990,1382.36,73.40,44.60,35.66,180.00,4.00,0.00,30.05,M,10.00,M,CLR,M,M,M,M,M,M,M,M,M,M,M,M,M,M,73.40,KBAM 191535Z AUTO 18004KT 10SM CLR 23/07 A3005 RMK AO1,M
TMT,2023-08-19 15:35,-117.1971,39.4643,1749.34,68.40,43.00,39.76,230.00,3.00,0.00,30.15,M,M,M,CLR,M,M,M,M,M,M,M,M,M,M,M,M,M,M,68.40,KTMT 191535Z AUTO 23003KT CLR 20/06 A3015 RMK AO2 T02020062 PWINO,M
P68,2023-08-19 15:53,-116.0056,39.6014,1993.00,73.00,44.00,35.32,200.00,6.00,0.00,30.15,1012.40,M,M,M,M,M,M,M,M,M,M,M,M,M,M,M,M,M,73.00,KP68 191553Z AUTO 20006KT 23/07 A3015 RMK AO1 SLP124 T02280067,M
DRA,2023-08-19 15:53,-116.0278,36.6206,1009.00,76.00,56.00,49.92,110.00,15.00,0.00,30.03,1011.90,10.00,M,CLR,M,M,M,M,M,M,M,M,M,M,M,M,M,M,76.00,KDRA 191553Z AUTO 11015KT 10SM CLR 24/13 A3003 RMK AO2 SLP119 T02440133 $,M
ELY,2023-08-19 15:53,-114.8453,39.2950,1909.00,64.00,49.00,58.13,110.00,9.00,0.00,30.22,1013.40,10.00,M,OVC,M,M,M,10000.00,M,M,M,M,M,M,M,M,M,M,64.00,KELY 191553Z AUTO 11009KT 10SM OVC100 18/09 A3022 RMK AO2 SLP134 T01780094,M
VGT,2023-08-19 15:53,-115.1933,36.2111,667.00,74.00,62.00,66.15,180.00,5.00,0.00,30.00,1015.60,10.00,M,CLR,M,M,M,M,M,M,M,M,M,M,M,M,M,M,74.00,KVGT 191553Z 18005KT 10SM CLR 23/17 A3000 RMK AO2 SLP156 T02330167,M
LOL,2023-08-19 15:53,-118.5701,40.0684,1192.43,73.00,44.00,35.32,320.00,3.00,0.00,30.00,1011.70,10.00,M,CLR,M,M,M,M,M,M,M,M,M,M,M,M,M,M,73.00,KLOL 191553Z AUTO 32003KT 10SM CLR 23/07 A3000 RMK AO2 SLP117 T02280067,M
BVU,2023-08-19 15:55,-114.8611,35.9475,671.00,73.40,64.40,73.44,300.00,7.00,0.00,29.99,M,10.00,M,CLR,M,M,M,M,M,M,M,M,M,M,M,M,M,M,73.40,KBVU 191555Z AUTO 30007KT 10SM CLR 23/18 A2999 RMK AO2,M
CXP,2023-08-19 15:55,-119.7326,39.1923,1431.00,64.40,50.00,59.50,0.00,0.00,0.00,30.10,M,10.00,M,CLR,M,M,M,M,M,M,M,M,M,M,M,M,M,M,64.40,KCXP 191555Z AUTO 00000KT 10SM CLR 18/10 A3010 RMK AO2,M
INS,2023-08-19 15:55,-115.6733,36.5872,955.00,70.50,57.70,63.88,120.00,6.00,0.00,30.04,1013.00,10.00,M,SCT,M,M,M,20000.00,M,M,M,M,M,M,M,M,M,M,70.50,KINS 191555Z AUTO 12006KT 10SM SCT200 21/14 A3004 RMK AO2 SLP130 T02140143 $,M
RNO,2023-08-19 15:55,-119.7711,39.4839,1341.00,71.00,47.00,42.35,0.00,0.00,0.00,30.04,1011.70,10.00,M,FEW,FEW,M,M,4000.00,15000.00,M,M,M,M,M,M,M,M,M,71.00,KRNO 191555Z 00000KT 10SM FEW040 FEW150 22/08 A3004 RMK AO2 SLP117 T02170083,M
LSV,2023-08-19 15:55,-115.0343,36.2362,570.00,75.60,74.70,97.04,160.00,3.00,0.00,29.97,1013.10,10.00,M,SCT,M,M,M,20000.00,M,M,M,M,M,M,M,M,M,M,75.60,KLSV 191555Z AUTO 16003KT 10SM SCT200 24/24 A2997 RMK AO2 SLP131 T02420237 $,M
RTS,2023-08-19 15:55,-119.8764,39.6682,1539.00,68.00,44.60,42.85,0.00,0.00,0.00,30.09,M,10.00,M,CLR,M,M,M,M,M,M,M,M,M,M,M,M,M,M,68.00,KRTS 191555Z AUTO 00000KT 10SM CLR 20/07 A3009 RMK AO2,M
05U,2023-08-19 15:55,-116.0051,39.6042,1811.23,75.20,44.60,33.57,M,M,0.00,30.18,M,10.00,M,M,M,M,M,M,M,M,M,M,M,M,M,M,M,M,75.20,K05U 191555Z AUTO 10SM 24/07 A3018 RMK A01,M
MEV,2023-08-19 15:55,-119.7500,38.9963,1441.42,62.60,51.80,67.75,0.00,0.00,0.00,30.08,M,10.00,M,CLR,M,M,M,M,M,M,M,M,M,M,M,M,M,M,62.60,KMEV 191555Z AUTO 00000KT 10SM CLR 17/11 A3008 RMK AO2,M
BAM,2023-08-19 15:55,-116.8743,40.5990,1382.36,78.80,44.60,29.79,200.00,4.00,0.00,30.05,M,10.00,M,CLR,M,M,M,M,M,M,M,M,M,M,M,M,M,M,78.80,KBAM 191555Z AUTO 20004KT 10SM CLR 26/07 A3005 RMK AO1,M
HTH,2023-08-19 15:55,-118.6315,38.5448,1282.89,73.40,44.60,35.66,0.00,0.00,0.00,30.05,M,10.00,M,CLR,M,M,M,M,M,M,M,M,M,M,M,M,M,M,73.40,KHTH 191555Z AUTO 00000KT 10SM CLR 23/07 A3005 RMK A01,M
10U,2023-08-19 15:55,-116.1876,41.9532,1637.00,69.80,39.20,32.72,210.00,5.00,0.00,30.09,M,10.00,M,CLR,M,M,M,M,M,M,M,M,M,M,M,M,M,M,69.80,K10U 191555Z AUTO 21005KT 10SM CLR 21/04 A3009 RMK AO2,M
TMT,2023-08-19 15:55,-117.1971,39.4643,1749.34,70.50,43.70,38.01,0.00,0.00,0.00,30.15,M,M,M,CLR,M,M,M,M,M,M,M,M,M,M,M,M,M,M,70.50,KTMT 191555Z AUTO 00000KT CLR 21/07 A3015 RMK AO2 T02140065 PWINO,M
EKO,2023-08-19 15:56,-115.7860,40.8242,1367.00,68.00,51.00,54.50,0.00,0.00,0.00,30.08,1013.20,10.00,M,CLR,M,M,M,M,M,M,M,M,M,M,M,M,M,M,68.00,KEKO 191556Z AUTO 00000KT 10SM CLR 20/11 A3008 RMK AO2 SLP132 T02000106,M
WMC,2023-08-19 15:56,-117.8072,40.9019,1315.00,74.00,41.00,30.43,170.00,5.00,0.00,30.02,1011.50,10.00,M,CLR,M,M,M,M,M,M,M,M,M,M,M,M,M,M,74.00,KWMC 191556Z AUTO 17005KT 10SM CLR 23/05 A3002 RMK AO2 SLP115 T02330050,M
NFL,2023-08-19 15:56,-118.7010,39.4166,1199.00,75.00,47.00,37.01,190.00,4.00,0.00,30.01,1013.40,10.00,M,FEW,FEW,M,M,9000.00,14000.00,M,M,M,M,M,M,M,M,M,75.00,KNFL 191556Z 19004KT 10SM FEW090 FEW140 24/08 A3001 RMK AO2 SLP134 T02390083,M
HND,2023-08-19 15:56,-115.1344,35.9729,742.79,M,M,M,M,M,0.00,M,M,M,M,M,M,M,M,M,M,M,M,M,M,M,M,M,M,M,M,KHND 191556Z RMK AO2 SLPNO $,M
TPH,2023-08-19 15:56,-117.0904,38.0505,1654.00,71.00,46.00,40.78,160.00,7.00,0.00,30.14,1013.00,10.00,M,CLR,M,M,M,M,M,M,M,M,M,M,M,M,M,M,71.00,KTPH 191556Z AUTO 16007KT 10SM CLR 22/08 A3014 RMK AO2 SLP130 T02170078,M
LAS,2023-08-19 15:56,-115.1634,36.0719,663.00,73.00,62.00,68.42,220.00,3.00,0.00,30.00,1014.10,10.00,M,SCT,OVC,M,M,12000.00,18000.00,M,M,M,M,M,M,M,M,M,73.00,KLAS 191556Z 22003KT 10SM SCT120 OVC180 23/17 A3000 RMK AO2 SLP141 TS DSNT S MOV N T02280167,M
BVU,2023-08-19 16:15,-114.8611,35.9475,671.00,73.40,64.40,73.44,300.00,5.00,0.00,30.01,M,10.00,M,CLR,M,M,M,M,M,M,M,M,M,M,M,M,M,M,73.40,KBVU 191615Z AUTO 30005KT 10SM CLR 23/18 A3001 RMK AO2,M
CXP,2023-08-19 16:15,-119.7326,39.1923,1431.00,66.20,50.00,55.88,320.00,3.00,0.00,30.08,M,10.00,M,CLR,M,M,M,M,M,M,M,M,M,M,M,M,M,M,66.20,KCXP 191615Z AUTO 32003KT 10SM CLR 19/10 A3008 RMK AO2,M
RTS,2023-08-19 16:15,-119.8764,39.6682,1539.00,71.60,44.60,37.89,150.00,4.00,0.00,30.08,M,10.00,M,CLR,M,M,M,M,M,M,M,M,M,M,M,M,M,M,71.60,KRTS 191615Z AUTO 15004KT 10SM CLR 22/07 A3008 RMK AO2,M
05U,2023-08-19 16:15,-116.0051,39.6042,1811.23,78.80,42.80,27.81,M,M,0.00,30.17,M,10.00,M,M,M,M,M,M,M,M,M,M,M,M,M,M,M,M,78.80,K05U 191615Z AUTO 10SM 26/06 A3017 RMK A01,M
MEV,2023-08-19 16:15,-119.7500,38.9963,1441.42,64.40,51.80,63.60,M,3.00,0.00,30.07,M,10.00,M,CLR,M,M,M,M,M,M,M,M,M,M,M,M,M,M,64.40,KMEV 191615Z AUTO VRB03KT 10SM CLR 18/11 A3007 RMK AO2,M
HTH,2023-08-19 16:15,-118.6315,38.5448,1282.89,75.20,44.60,33.57,0.00,0.00,0.00,30.05,M,10.00,M,CLR,M,M,M,M,M,M,M,M,M,M,M,M,M,M,75.20,KHTH 191615Z AUTO 00000KT 10SM CLR 24/07 A3005 RMK A01,M
10U,2023-08-19 16:15,-116.1876,41.9532,1637.00,71.60,39.20,30.77,240.00,5.00,0.00,30.09,M,10.00,M,CLR,M,M,M,M,M,M,M,M,M,M,M,M,M,M,71.60,K10U 191615Z AUTO 24005KT 10SM CLR 22/04 A3009 RMK AO2,M
BAM,2023-08-19 16:15,-116.8743,40.5990,1382.36,78.80,42.80,27.81,210.00,4.00,0.00,30.05,M,10.00,M,CLR,M,M,M,M,M,M,M,M,M,M,M,M,M,M,78.80,KBAM 191615Z AUTO 21004KT 10SM CLR 26/06 A3005 RMK AO1,M
TMT,2023-08-19 16:15,-117.1971,39.4643,1749.34,71.00,45.00,39.27,20.00,3.00,0.00,30.14,M,M,M,CLR,M,M,M,M,M,M,M,M,M,M,M,M,M,M,71.00,KTMT 191615Z AUTO 02003KT CLR 22/07 A3014 RMK AO2 T02160072 PWINO,M
BVU,2023-08-19 16:35,-114.8611,35.9475,671.00,73.40,64.40,73.44,260.00,6.00,0.00,30.01,M,10.00,M,CLR,M,M,M,M,M,M,M,M,M,M,M,M,M,M,73.40,KBVU 191635Z AUTO 26006KT 10SM CLR 23/18 A3001 RMK AO2,M
CXP,2023-08-19 16:35,-119.7326,39.1923,1431.00,68.00,48.20,49.10,0.00,0.00,0.00,30.07,M,10.00,M,CLR,M,M,M,M,M,M,M,M,M,M,M,M,M,M,68.00,KCXP 191635Z AUTO 00000KT 10SM CLR 20/09 A3007 RMK AO2,M
RTS,2023-08-19 16:35,-119.8764,39.6682,1539.00,73.40,42.80,33.29,120.00,3.00,0.00,30.08,M,10.00,M,CLR,M,M,M,M,M,M,M,M,M,M,M,M,M,M,73.40,KRTS 191635Z AUTO 12003KT 10SM CLR 23/06 A3008 RMK AO2,M
05U,2023-08-19 16:35,-116.0051,39.6042,1811.23,80.60,42.80,26.22,M,M,0.00,30.17,M,10.00,M,M,M,M,M,M,M,M,M,M,M,M,M,M,M,M,79.30,K05U 191635Z AUTO 10SM 27/06 A3017 RMK A01,M
MEV,2023-08-19 16:35,-119.7500,38.9963,1441.42,64.40,51.80,63.60,M,3.00,0.00,30.06,M,10.00,M,CLR,M,M,M,M,M,M,M,M,M,M,M,M,M,M,64.40,KMEV 191635Z AUTO VRB03KT 10SM CLR 18/11 A3006 RMK AO2,M
HTH,2023-08-19 16:35,-118.6315,38.5448,1282.89,75.20,44.60,33.57,M,3.00,0.00,30.04,M,10.00,M,CLR,M,M,M,M,M,M,M,M,M,M,M,M,M,M,75.20,KHTH 191635Z AUTO VRB03KT 10SM CLR 24/07 A3004 RMK A01,M
10U,2023-08-19 16:35,-116.1876,41.9532,1637.00,71.60,39.20,30.77,0.00,0.00,0.00,30.08,M,10.00,M,FEW,M,M,M,12000.00,M,M,M,M,M,M,M,M,M,M,71.60,K10U 191635Z AUTO 00000KT 10SM FEW120 22/04 A3008 RMK AO2,M
BAM,2023-08-19 16:35,-116.8743,40.5990,1382.36,80.60,42.80,26.22,220.00,7.00,0.00,30.04,M,10.00,M,CLR,M,M,M,M,M,M,M,M,M,M,M,M,M,M,79.30,KBAM 191635Z AUTO 22007KT 10SM CLR 27/06 A3004 RMK AO1,M
TMT,2023-08-19 16:35,-117.1971,39.4643,1749.34,73.20,45.50,37.15,40.00,3.00,0.00,30.13,M,M,M,CLR,M,M,M,M,M,M,M,M,M,M,M,M,M,M,73.20,KTMT 191635Z AUTO 04003KT CLR 23/08 A3013 RMK AO2 T02290075 PWINO,M
P68,2023-08-19 16:53,-116.0056,39.6014,1993.00,77.00,42.00,28.62,180.00,10.00,0.00,30.13,1011.40,M,19.00,M,M,M,M,M,M,M,M,M,M,M,M,M,M,M,77.00,KP68 191653Z AUTO 18010G19KT 25/06 A3013 RMK AO1 SLP114 T02500056,M
DRA,2023-08-19 16:53,-116.0278,36.6206,1009.00,79.00,54.00,42.03,120.00,12.00,0.00,30.04,1012.30,10.00,M,CLR,M,M,M,M,M,M,M,M,M,M,M,M,M,M,79.00,KDRA 191653Z AUTO 12012KT 10SM CLR 26/12 A3004 RMK AO2 SLP123 T02610122 $,M
ELY,2023-08-19 16:53,-114.8453,39.2950,1909.00,65.00,49.00,56.13,200.00,5.00,T,30.22,1013.30,10.00,M,OVC,M,M,M,9000.00,M,M,M,M,M,M,M,M,M,M,65.00,KELY 191653Z AUTO 20005KT 10SM OVC090 18/09 A3022 RMK AO2 RAB15E24 SLP133 P0000 T01830094,M
VGT,2023-08-19 16:53,-115.1933,36.2111,667.00,76.00,62.00,61.87,180.00,5.00,0.00,30.01,1015.80,10.00,M,CLR,M,M,M,M,M,M,M,M,M,M,M,M,M,M,76.00,KVGT 191653Z 18005KT 10SM CLR 24/17 A3001 RMK AO2 SLP158 T02440167,M
LOL,2023-08-19 16:53,-118.5701,40.0684,1192.43,78.00,45.00,31.06,M,6.00,0.00,30.00,1011.40,10.00,M,CLR,M,M,M,M,M,M,M,M,M,M,M,M,M,M,78.00,KLOL 191653Z AUTO VRB06KT 10SM CLR 26/07 A3000 RMK AO2 SLP114 T02560072,M
BVU,2023-08-19 16:55,-114.8611,35.9475,671.00,73.40,64.40,73.44,210.00,8.00,0.00,30.02,M,10.00,M,CLR,M,M,M,M,M,M,M,M,M,M,M,M,M,M,73.40,KBVU 191655Z AUTO 21008KT 10SM CLR 23/18 A3002 RMK AO2,M
CXP,2023-08-19 16:55,-119.7326,39.1923,1431.00,69.80,46.40,43.13,M,3.00,0.00,30.06,M,10.00,M,CLR,M,M,M,M,M,M,M,M,M,M,M,M,M,M,69.80,KCXP 191655Z AUTO VRB03KT 10SM CLR 21/08 A3006 RMK AO2,M
INS,2023-08-19 16:55,-115.6733,36.5872,955.00,75.40,55.00,49.11,100.00,12.00,0.00,30.04,1012.70,10.00,M,BKN,BKN,M,M,16000.00,20000.00,M,M,M,M,M,M,M,M,M,75.40,KINS 191655Z AUTO 10012KT 10SM BKN160 BKN200 24/13 A3004 RMK AO2 SLP127 T02410127 $,M
RNO,2023-08-19 16:55,-119.7711,39.4839,1341.00,77.00,47.00,34.63,290.00,3.00,0.00,30.03,1010.90,10.00,M,SCT,M,M,M,6000.00,M,M,M,M,M,M,M,M,M,M,77.00,KRNO 191655Z 29003KT 10SM SCT060 25/08 A3003 RMK AO2 SLP109 T02500083,M
RTS,2023-08-19 16:55,-119.8764,39.6682,1539.00,75.20,42.80,31.34,140.00,6.00,0.00,30.08,M,10.00,M,CLR,M,M,M,M,M,M,M,M,M,M,M,M,M,M,75.20,KRTS 191655Z AUTO 14006KT 10SM CLR 24/06 A3008 RMK AO2,M
05U,2023-08-19 16:55,-116.0051,39.6042,1811.23,78.80,42.80,27.81,M,M,0.00,30.17,M,10.00,M,M,M,M,M,M,M,M,M,M,M,M,M,M,M,M,78.80,K05U 191655Z AUTO 10SM 26/06 A3017 RMK A01,M
MEV,2023-08-19 16:55,-119.7500,38.9963,1441.42,66.20,51.80,59.74,0.00,0.00,0.00,30.05,M,10.00,M,CLR,M,M,M,M,M,M,M,M,M,M,M,M,M,M,66.20,KMEV 191655Z AUTO 00000KT 10SM CLR 19/11 A3005 RMK AO2,M
HTH,2023-08-19 16:55,-118.6315,38.5448,1282.89,77.00,42.80,29.51,350.00,4.00,0.00,30.04,M,10.00,M,CLR,M,M,M,M,M,M,M,M,M,M,M,M,M,M,77.00,KHTH 191655Z AUTO 35004KT 10SM CLR 25/06 A3004 RMK A01,M
BAM,2023-08-19 16:55,-116.8743,40.5990,1382.36,80.60,42.80,26.22,210.00,6.00,0.00,30.04,M,10.00,M,CLR,M,M,M,M,M,M,M,M,M,M,M,M,M,M,79.30,KBAM 191655Z AUTO 21006KT 10SM CLR 27/06 A3004 RMK AO1,M
TMT,2023-08-19 16:55,-117.1971,39.4643,1749.34,76.00,42.00,29.59,200.00,4.00,0.00,30.13,M,M,M,CLR,M,M,M,M,M,M,M,M,M,M,M,M,M,M,76.00,KTMT 191655Z AUTO 20004KT CLR 25/06 A3013 RMK AO2 T02450055 PWINO,M
10U,2023-08-19 16:55,-116.1876,41.9532,1637.00,73.40,41.00,31.05,0.00,0.00,0.00,30.09,M,10.00,M,CLR,M,M,M,M,M,M,M,M,M,M,M,M,M,M,73.40,K10U 191655Z AUTO 00000KT 10SM CLR 23/05 A3009 RMK AO2,M
LSV,2023-08-19 16:55,-115.0343,36.2362,570.00,75.20,71.00,86.80,170.00,4.00,0.00,29.97,1013.00,10.00,M,FEW,SCT,SCT,M,12000.00,16000.00,19000.00,M,M,M,M,M,M,M,M,75.20,KLSV 191655Z AUTO 17004KT 10SM FEW120 SCT160 SCT190 24/22 A2997 RMK AO2 SLP130 T02400217 $,M
EKO,2023-08-19 16:56,-115.7860,40.8242,1367.00,74.00,47.00,38.27,260.00,4.00,0.00,30.09,1013.20,10.00,M,CLR,M,M,M,M,M,M,M,M,M,M,M,M,M,M,74.00,KEKO 191656Z AUTO 26004KT 10SM CLR 23/08 A3009 RMK AO2 SLP132 T02330083,M
WMC,2023-08-19 16:56,-117.8072,40.9019,1315.00,82.00,40.00,22.48,0.00,0.00,0.00,30.00,1010.30,10.00,M,CLR,M,M,M,M,M,M,M,M,M,M,M,M,M,M,79.99,KWMC 191656Z AUTO 00000KT 10SM CLR 28/04 A3000 RMK AO2 SLP103 T02780044,M
NFL,2023-08-19 16:56,-118.7010,39.4166,1199.00,80.00,43.00,26.94,200.00,6.00,0.00,30.00,1013.10,10.00,M,FEW,FEW,M,M,9000.00,14000.00,M,M,M,M,M,M,M,M,M,78.97,KNFL 191656Z 20006KT 10SM FEW090 FEW140 27/06 A3000 RMK AO2 SLP131 T02670061,M
HND,2023-08-19 16:56,-115.1344,35.9729,742.79,M,M,M,M,M,0.00,M,M,M,M,M,M,M,M,M,M,M,M,M,M,M,M,M,M,M,M,KHND 191656Z RMK AO2 LTG DSNT SW SLPNO $,M
TPH,2023-08-19 16:56,-117.0904,38.0505,1654.00,75.00,45.00,34.31,150.00,9.00,0.00,30.14,1013.00,10.00,17.00,CLR,M,M,M,M,M,M,M,M,M,M,M,M,M,M,75.00,KTPH 191656Z AUTO 15009G17KT 10SM CLR 24/07 A3014 RMK AO2 SLP130 T02390072,M
LAS,2023-08-19 16:56,-115.1634,36.0719,663.00,75.00,62.00,63.97,190.00,5.00,0.00,30.02,1014.60,10.00,M,SCT,OVC,M,M,12000.00,18000.00,M,M,M,M,M,M,M,M,M,75.00,KLAS 191656Z 19005KT 10SM SCT120 OVC180 24/17 A3002 RMK AO2 SLP146 T02390167,M
BVU,2023-08-19 17:15,-114.8611,35.9475,671.00,73.40,64.40,73.44,220.00,9.00,0.00,30.03,M,10.00,M,CLR,M,M,M,M,M,M,M,M,M,M,M,M,M,M,73.40,KBVU 191715Z AUTO 22009KT 10SM CLR 23/18 A3003 RMK AO2,M
CXP,2023-08-19 17:15,-119.7326,39.1923,1431.00,73.40,48.20,40.85,0.00,0.00,0.00,30.06,M,10.00,M,CLR,M,M,M,M,M,M,M,M,M,M,M,M,M,M,73.40,KCXP 191715Z AUTO 00000KT 10SM CLR 23/09 A3006 RMK AO2,M
RTS,2023-08-19 17:15,-119.8764,39.6682,1539.00,75.20,41.00,29.23,140.00,6.00,0.00,30.08,M,10.00,M,CLR,M,M,M,M,M,M,M,M,M,M,M,M,M,M,75.20,KRTS 191715Z AUTO 14006KT 10SM CLR 24/05 A3008 RMK AO2,M
05U,2023-08-19 17:15,-116.0051,39.6042,1811.23,78.80,41.00,25.95,M,M,0.00,30.17,M,10.00,M,M,M,M,M,M,M,M,M,M,M,M,M,M,M,M,78.80,K05U 191715Z AUTO 10SM 26/05 A3017 RMK A01,M
MEV,2023-08-19 17:15,-119.7500,38.9963,1441.42,68.00,51.80,56.13,200.00,3.00,0.00,30.05,M,10.00,M,CLR,M,M,M,M,M,M,M,M,M,M,M,M,M,M,68.00,KMEV 191715Z AUTO 20003KT 10SM CLR 20/11 A3005 RMK AO2,M
HTH,2023-08-19 17:15,-118.6315,38.5448,1282.89,77.00,41.00,27.53,0.00,0.00,0.00,30.03,M,10.00,M,CLR,M,M,M,M,M,M,M,M,M,M,M,M,M,M,77.00,KHTH 191715Z AUTO 00000KT 10SM CLR 25/05 A3003 RMK A01,M
10U,2023-08-19 17:15,-116.1876,41.9532,1637.00,75.20,41.00,29.23,0.00,0.00,0.00,30.08,M,10.00,M,CLR,M,M,M,M,M,M,M,M,M,M,M,M,M,M,75.20,K10U 191715Z AUTO 00000KT 10SM CLR 24/05 A3008 RMK AO2,M
BAM,2023-08-19 17:15,-116.8743,40.5990,1382.36,82.40,42.80,24.72,250.00,8.00,0.00,30.04,M,10.00,M,CLR,M,M,M,M,M,M,M,M,M,M,M,M,M,M,80.39,KBAM 191715Z AUTO 25008KT 10SM CLR 28/06 A3004 RMK AO1,M
TMT,2023-08-19 17:15,-117.1971,39.4643,1749.34,79.00,34.30,19.81,210.00,9.00,0.00,30.13,M,M,14.00,CLR,M,M,M,M,M,M,M,M,M,M,M,M,M,M,79.00,KTMT 191715Z AUTO 21009G14KT 160V220 CLR 26/01 A3013 RMK AO2 T02610013 PWINO,M
BVU,2023-08-19 17:35,-114.8611,35.9475,671.00,75.20,62.60,64.91,220.00,8.00,0.00,30.03,M,10.00,M,CLR,M,M,M,M,M,M,M,M,M,M,M,M,M,M,75.20,KBVU 191735Z AUTO 22008KT 10SM CLR 24/17 A3003 RMK AO2,M
CXP,2023-08-19 17:35,-119.7326,39.1923,1431.00,75.20,48.20,38.46,0.00,0.00,0.00,30.06,M,10.00,M,CLR,M,M,M,M,M,M,M,M,M,M,M,M,M,M,75.20,KCXP 191735Z AUTO 00000KT 10SM CLR 24/09 A3006 RMK AO2,M
RTS,2023-08-19 17:35,-119.8764,39.6682,1539.00,77.00,39.20,25.67,130.00,8.00,0.00,30.07,M,10.00,M,CLR,M,M,M,M,M,M,M,M,M,M,M,M,M,M,77.00,KRTS 191735Z AUTO 13008KT 10SM CLR 25/04 A3007 RMK AO2,M
05U,2023-08-19 17:35,-116.0051,39.6042,1811.23,78.80,39.20,24.19,M,M,0.00,30.17,M,10.00,M,M,M,M,M,M,M,M,M,M,M,M,M,M,M,M,78.80,K05U 191735Z AUTO 10SM 26/04 A3017 RMK A01,M
MEV,2023-08-19 17:35,-119.7500,38.9963,1441.42,69.80,53.60,56.38,0.00,0.00,0.00,30.05,M,10.00,M,CLR,M,M,M,M,M,M,M,M,M,M,M,M,M,M,69.80,KMEV 191735Z AUTO 00000KT 10SM CLR 21/12 A3005 RMK AO2,M
HTH,2023-08-19 17:35,-118.6315,38.5448,1282.89,78.80,41.00,25.95,0.00,0.00,0.00,30.03,M,10.00,M,CLR,M,M,M,M,M,M,M,M,M,M,M,M,M,M,78.80,KHTH 191735Z AUTO 00000KT 10SM CLR 26/05 A3003 RMK A01,M
10U,2023-08-19 17:35,-116.1876,41.9532,1637.00,77.00,42.80,29.51,110.00,6.00,0.00,30.08,M,10.00,M,CLR,M,M,M,M,M,M,M,M,M,M,M,M,M,M,77.00,K10U 191735Z AUTO 11006KT 10SM CLR 25/06 A3008 RMK AO2,M
BAM,2023-08-19 17:35,-116.8743,40.5990,1382.36,82.40,41.00,23.07,220.00,8.00,0.00,30.04,M,10.00,M,CLR,M,M,M,M,M,M,M,M,M,M,M,M,M,M,80.29,KBAM 191735Z AUTO 22008KT 10SM CLR 28/05 A3004 RMK AO1,M
TMT,2023-08-19 17:35,-117.1971,39.4643,1749.34,79.00,33.80,19.42,210.00,13.00,0.00,30.13,M,M,M,BKN,M,M,M,12000.00,M,M,M,M,M,M,M,M,M,M,79.00,KTMT 191735Z AUTO 21013KT BKN120 26/01 A3013 RMK AO2 T02620010 PWINO,M
P68,2023-08-19 17:53,-116.0056,39.6014,1993.00,77.00,39.00,25.47,210.00,9.00,0.00,30.14,1012.10,M,M,M,M,M,M,M,M,M,M,M,M,M,M,M,M,M,77.00,KP68 191753Z AUTO 21009KT 25/04 A3014 RMK AO1 SLP121 T02500039 10256 20172 55002,M
DRA,2023-08-19 17:53,-116.0278,36.6206,1009.00,80.00,54.00,40.67,130.00,12.00,0.00,30.03,1012.20,10.00,M,CLR,M,M,M,M,M,M,M,M,M,M,M,M,M,M,79.98,KDRA 191753Z AUTO 13012KT 10SM CLR 27/12 A3003 RMK AO2 SLP122 T02670122 10267 20206 50003 $,M
ELY,2023-08-19 17:53,-114.8453,39.2950,1909.00,67.00,49.00,52.37,200.00,8.00,0.00,30.21,1013.00,10.00,M,OVC,M,M,M,8000.00,M,M,M,M,M,M,M,M,M,M,67.00,KELY 191753Z AUTO 20008KT 10SM OVC080 19/09 A3021 RMK AO2 SLP130 60000 T01940094 10194 20161 56003,M
VGT,2023-08-19 17:53,-115.1933,36.2111,667.00,79.00,61.00,54.08,180.00,7.00,0.00,30.01,1016.00,10.00,M,CLR,M,M,M,M,M,M,M,M,M,M,M,M,M,M,79.00,KVGT 191753Z 18007KT 10SM CLR 26/16 A3001 RMK AO2 SLP160 T02610161 10261 20217 53004,M
LOL,2023-08-19 17:53,-118.5701,40.0684,1192.43,81.00,44.00,27.09,160.00,5.00,0.00,29.99,1011.20,10.00,M,CLR,M,M,M,M,M,M,M,M,M,M,M,M,M,M,79.61,KLOL 191753Z AUTO 16005KT 10SM CLR 27/07 A2999 RMK AO2 SLP112 T02720067 10278 20111 58003,M
BVU,2023-08-19 17:55,-114.8611,35.9475,671.00,75.20,62.60,64.91,210.00,7.00,0.00,30.03,M,10.00,M,CLR,M,M,M,M,M,M,M,M,M,M,M,M,M,M,75.20,KBVU 191755Z AUTO 21007KT 10SM CLR 24/17 A3003 RMK AO2,M
CXP,2023-08-19 17:55,-119.7326,39.1923,1431.00,77.00,48.20,36.22,0.00,0.00,0.00,30.05,M,10.00,M,CLR,M,M,M,M,M,M,M,M,M,M,M,M,M,M,77.00,KCXP 191755Z AUTO 00000KT 10SM CLR 25/09 A3005 RMK AO2,M
INS,2023-08-19 17:55,-115.6733,36.5872,955.00,76.60,51.80,41.97,100.00,7.00,0.00,30.04,1013.00,10.00,M,BKN,BKN,M,M,14000.00,16000.00,M,M,M,M,M,M,M,M,M,76.60,KINS 191755Z AUTO 10007KT 10SM BKN140 BKN160 25/11 A3004 RMK AO2 SLP130 T02480110 10248 20186 50000 $,M
RNO,2023-08-19 17:55,-119.7711,39.4839,1341.00,83.00,44.00,25.39,280.00,3.00,0.00,30.01,1009.90,10.00,M,SCT,M,M,M,8000.00,M,M,M,M,M,M,M,M,M,M,80.86,KRNO 191755Z 28003KT 10SM SCT080 28/07 A3001 RMK AO2 SLP099 T02830067 10283 20172 58011,M
RTS,2023-08-19 17:55,-119.8764,39.6682,1539.00,78.80,39.20,24.19,110.00,8.00,0.00,30.07,M,10.00,M,CLR,M,M,M,M,M,M,M,M,M,M,M,M,M,M,78.80,KRTS 191755Z AUTO 11008KT 070V130 10SM CLR 26/04 A3007 RMK AO2,M
05U,2023-08-19 17:55,-116.0051,39.6042,1811.23,78.80,39.20,24.19,M,M,0.00,30.17,M,10.00,M,M,M,M,M,M,M,M,M,M,M,M,M,M,M,M,78.80,K05U 191755Z AUTO 10SM 26/04 A3017 RMK A01,M
MEV,2023-08-19 17:55,-119.7500,38.9963,1441.42,71.60,50.00,46.43,0.00,0.00,0.00,30.05,M,10.00,M,CLR,M,M,M,M,M,M,M,M,M,M,M,M,M,M,71.60,KMEV 191755Z AUTO 00000KT 10SM CLR 22/10 A3005 RMK AO2,M
HTH,2023-08-19 17:55,-118.6315,38.5448,1282.89,80.60,41.00,24.46,40.00,4.00,0.00,30.02,M,10.00,M,CLR,M,M,M,M,M,M,M,M,M,M,M,M,M,M,79.20,KHTH 191755Z AUTO 04004KT 10SM CLR 27/05 A3002 RMK A01,M
BAM,2023-08-19 17:55,-116.8743,40.5990,1382.36,82.40,41.00,23.07,230.00,8.00,0.00,30.04,M,10.00,M,CLR,M,M,M,M,M,M,M,M,M,M,M,M,M,M,80.29,KBAM 191755Z AUTO 23008KT 10SM CLR 28/05 A3004 RMK AO1,M
TMT,2023-08-19 17:55,-117.1971,39.4643,1749.34,79.70,33.40,18.67,210.00,16.00,0.00,30.13,M,M,M,SCT,M,M,M,12000.00,M,M,M,M,M,M,M,M,M,M,79.70,KTMT 191755Z AUTO 21016KT SCT120 27/01 A3013 RMK AO2 T02650008 10267 20079 PWINO,M
10U,2023-08-19 17:55,-116.1876,41.9532,1637.00,78.80,44.60,29.79,M,5.00,0.00,30.08,M,10.00,M,CLR,M,M,M,M,M,M,M,M,M,M,M,M,M,M,78.80,K10U 191755Z AUTO VRB05KT 10SM CLR 26/07 A3008 RMK AO2,M
LSV,2023-08-19 17:55,-115.0343,36.2362,570.00,78.00,64.40,63.00,160.00,9.00,0.00,29.98,1013.30,10.00,M,FEW,SCT,SCT,BKN,11000.00,14000.00,16000.00,19000.00,M,M,M,M,M,M,M,78.00,KLSV 191755Z AUTO 16009KT 10SM FEW110 SCT140 SCT160 BKN190 BKN210 26/18 A2998 RMK AO2 SLP133 T02560180 10256 20209 53002 $,M
EKO,2023-08-19 17:56,-115.7860,40.8242,1367.00,80.00,45.00,29.08,240.00,6.00,0.00,30.07,1012.30,10.00,M,CLR,M,M,M,M,M,M,M,M,M,M,M,M,M,M,79.13,KEKO 191756Z AUTO 24006KT 10SM CLR 27/07 A3007 RMK AO2 SLP123 T02670072 10278 20117 58005,M
WMC,2023-08-19 17:56,-117.8072,40.9019,1315.00,85.00,40.00,20.40,M,M,0.00,30.00,1010.10,10.00,M,CLR,M,M,M,M,M,M,M,M,M,M,M,M,M,M,82.06,KWMC 191756Z AUTO 10SM CLR 29/04 A3000 RMK AO2 SLP101 T02940044 10300 20111 58008,M
NFL,2023-08-19 17:56,-118.7010,39.4166,1199.00,82.00,43.00,25.24,210.00,4.00,0.00,29.99,1012.70,10.00,M,FEW,FEW,M,M,9000.00,14000.00,M,M,M,M,M,M,M,M,M,80.15,KNFL 191756Z 21004KT 10SM FEW090 FEW140 28/06 A2999 RMK AO2 SLP127 T02780061 10283 20161 58007,M
HND,2023-08-19 17:56,-115.1344,35.9729,742.79,M,M,M,M,M,0.00,M,M,M,M,M,M,M,M,M,M,M,M,M,M,M,M,M,M,M,M,KHND 191756Z RMK AO2 SLPNO 6//// $,M
TPH,2023-08-19 17:56,-117.0904,38.0505,1654.00,76.00,46.00,34.47,150.00,14.00,0.00,30.15,1013.30,10.00,19.00,CLR,M,M,M,M,M,M,M,M,M,M,M,M,M,M,76.00,KTPH 191756Z AUTO 15014G19KT 10SM CLR 24/08 A3015 RMK AO2 SLP133 T02440078 10244 20144 55001,M
LAS,2023-08-19 17:56,-115.1634,36.0719,663.00,76.00,60.00,57.64,170.00,7.00,0.00,30.02,1014.60,10.00,M,SCT,BKN,BKN,M,12000.00,18000.00,22000.00,M,M,M,M,M,M,M,M,76.00,KLAS 191756Z 17007KT 10SM SCT120 BKN180 BKN220 24/16 A3002 RMK AO2 SLP146 T02440156 10244 20211 53003,M
05U,2023-08-19 18:10,-116.0051,39.6042,1811.23,77.00,39.20,25.67,M,M,0.00,30.18,M,10.00,M,M,M,M,M,M,M,M,M,M,M,M,M,M,M,M,77.00,K05U 191810Z AUTO 10SM 25/04 A3018 RMK A01,M
BVU,2023-08-19 18:15,-114.8611,35.9475,671.00,75.20,62.60,64.91,200.00,6.00,0.00,30.02,M,10.00,M,CLR,M,M,M,M,M,M,M,M,M,M,M,M,M,M,75.20,KBVU 191815Z AUTO 20006KT 10SM CLR 24/17 A3002 RMK AO2,M
CXP,2023-08-19 18:15,-119.7326,39.1923,1431.00,78.80,46.40,31.90,0.00,0.00,0.00,30.05,M,10.00,M,CLR,M,M,M,M,M,M,M,M,M,M,M,M,M,M,78.80,KCXP 191815Z AUTO 00000KT 10SM CLR 26/08 A3005 RMK AO2,M
RTS,2023-08-19 18:15,-119.8764,39.6682,1539.00,78.80,39.20,24.19,130.00,7.00,0.00,30.06,M,10.00,12.00,CLR,M,M,M,M,M,M,M,M,M,M,M,M,M,M,78.80,KRTS 191815Z AUTO 13007G12KT 10SM CLR 26/04 A3006 RMK AO2,M
MEV,2023-08-19 18:15,-119.7500,38.9963,1441.42,73.40,48.20,40.85,0.00,0.00,0.00,30.04,M,10.00,M,CLR,M,M,M,M,M,M,M,M,M,M,M,M,M,M,73.40,KMEV 191815Z AUTO 00000KT 10SM CLR 23/09 A3004 RMK AO2,M
HTH,2023-08-19 18:15,-118.6315,38.5448,1282.89,80.60,41.00,24.46,M,3.00,0.00,30.02,M,10.00,M,CLR,M,M,M,M,M,M,M,M,M,M,M,M,M,M,79.20,KHTH 191815Z AUTO VRB03KT 10SM CLR 27/05 A3002 RMK A01,M
10U,2023-08-19 18:15,-116.1876,41.9532,1637.00,78.80,42.80,27.81,110.00,5.00,0.00,30.08,M,10.00,11.00,CLR,M,M,M,M,M,M,M,M,M,M,M,M,M,M,78.80,K10U 191815Z AUTO 11005G11KT 10SM CLR 26/06 A3008 RMK AO2,M
BAM,2023-08-19 18:15,-116.8743,40.5990,1382.36,84.20,41.00,21.76,210.00,6.00,0.00,30.04,M,10.00,M,CLR,M,M,M,M,M,M,M,M,M,M,M,M,M,M,81.52,KBAM 191815Z AUTO 21006KT 10SM CLR 29/05 A3004 RMK AO1,M
TMT,2023-08-19 18:15,-117.1971,39.4643,1749.34,80.60,35.80,19.95,210.00,11.00,0.00,30.13,M,M,16.00,SCT,M,M,M,12000.00,M,M,M,M,M,M,M,M,M,M,78.95,KTMT 191815Z AUTO 21011G16KT SCT120 27/02 A3013 RMK AO2 T02700021 PWINO,M
BVU,2023-08-19 18:35,-114.8611,35.9475,671.00,77.00,60.80,57.36,240.00,4.00,0.00,30.01,M,10.00,M,CLR,M,M,M,M,M,M,M,M,M,M,M,M,M,M,77.00,KBVU 191835Z AUTO 24004KT 10SM CLR 25/16 A3001 RMK AO2,M
CXP,2023-08-19 18:35,-119.7326,39.1923,1431.00,78.80,46.40,31.90,0.00,0.00,0.00,30.04,M,10.00,M,CLR,M,M,M,M,M,M,M,M,M,M,M,M,M,M,78.80,KCXP 191835Z AUTO 00000KT 10SM CLR 26/08 A3004 RMK AO2,M
RTS,2023-08-19 18:35,-119.8764,39.6682,1539.00,78.80,37.40,22.54,100.00,8.00,0.00,30.06,M,10.00,M,CLR,M,M,M,M,M,M,M,M,M,M,M,M,M,M,78.80,KRTS 191835Z AUTO 10008KT 10SM CLR 26/03 A3006 RMK AO2,M
05U,2023-08-19 18:35,-116.0051,39.6042,1811.23,77.00,37.40,23.93,M,M,0.00,30.18,M,10.00,M,M,M,M,M,M,M,M,M,M,M,M,M,M,M,M,77.00,K05U 191835Z AUTO 10SM 25/03 A3018 RMK A01,M
MEV,2023-08-19 18:35,-119.7500,38.9963,1441.42,77.00,50.00,38.74,0.00,0.00,0.00,30.04,M,10.00,M,CLR,M,M,M,M,M,M,M,M,M,M,M,M,M,M,77.00,KMEV 191835Z AUTO 00000KT 10SM CLR 25/10 A3004 RMK AO2,M
HTH,2023-08-19 18:35,-118.6315,38.5448,1282.89,82.40,41.00,23.07,350.00,6.00,0.00,30.01,M,10.00,M,CLR,M,M,M,M,M,M,M,M,M,M,M,M,M,M,80.29,KHTH 191835Z AUTO 35006KT 10SM CLR 28/05 A3001 RMK A01,M
10U,2023-08-19 18:35,-116.1876,41.9532,1637.00,80.60,42.80,26.22,0.00,0.00,0.00,30.08,M,10.00,M,CLR,M,M,M,M,M,M,M,M,M,M,M,M,M,M,79.30,K10U 191835Z AUTO 00000KT 10SM CLR 27/06 A3008 RMK AO2,M
BAM,2023-08-19 18:35,-116.8743,40.5990,1382.36,86.00,41.00,20.54,220.00,9.00,0.00,30.04,M,10.00,M,CLR,M,M,M,M,M,M,M,M,M,M,M,M,M,M,82.86,KBAM 191835Z AUTO 22009KT 10SM CLR 30/05 A3004 RMK AO1,M
TMT,2023-08-19 18:35,-117.1971,39.4643,1749.34,80.20,35.60,20.05,250.00,7.00,0.00,30.13,M,M,16.00,SCT,M,M,M,12000.00,M,M,M,M,M,M,M,M,M,M,78.86,KTMT 191835Z AUTO 25007G16KT SCT120 27/02 A3013 RMK AO2 T02680020 PWINO,M
05U,2023-08-19 18:50,-116.0051,39.6042,1811.23,73.40,37.40,26.98,M,M,0.00,30.18,M,9.00,M,M,M,M,M,M,M,M,M,M,M,M,M,M,M,M,73.40,K05U 191850Z AUTO 9SM 23/03 A3018 RMK A01,M
P68,2023-08-19 18:53,-116.0056,39.6014,1993.00,75.00,38.00,26.18,0.00,0.00,0.00,30.16,1012.20,M,M,M,M,M,M,M,M,M,M,M,M,M,M,M,M,M,75.00,KP68 191853Z AUTO 00000KT 24/03 A3016 RMK AO1 SLP122 T02390033,M
DRA,2023-08-19 18:53,-116.0278,36.6206,1009.00,81.00,52.00,36.58,120.00,10.00,0.00,30.02,1012.00,10.00,M,CLR,M,M,M,M,M,M,M,M,M,M,M,M,M,M,80.34,KDRA 191853Z AUTO 12010KT 10SM CLR 27/11 A3002 RMK AO2 SLP120 T02720111 $,M
ELY,2023-08-19 18:53,-114.8453,39.2950,1909.00,68.00,48.00,48.73,M,3.00,T,30.21,1013.10,10.00,M,OVC,M,M,M,8000.00,M,M,M,M,M,M,M,M,M,M,68.00,KELY 191853Z AUTO VRB03KT 10SM OVC080 20/09 A3021 RMK AO2 RAB1756E07 SLP131 P0000 T02000089,M
VGT,2023-08-19 18:53,-115.1933,36.2111,667.00,79.00,60.00,52.19,180.00,7.00,0.00,30.00,1015.70,10.00,M,CLR,M,M,M,M,M,M,M,M,M,M,M,M,M,M,79.00,KVGT 191853Z 18007KT 10SM CLR 26/16 A3000 RMK AO2 SLP157 T02610156,M
LOL,2023-08-19 18:53,-118.5701,40.0684,1192.43,84.00,44.00,24.58,160.00,10.00,0.00,29.98,1010.80,10.00,17.00,CLR,M,M,M,M,M,M,M,M,M,M,M,M,M,M,81.54,KLOL 191853Z AUTO 16010G17KT 10SM CLR 29/07 A2998 RMK AO2 SLP108 T02890067,M
BVU,2023-08-19 18:55,-114.8611,35.9475,671.00,77.00,60.80,57.36,M,3.00,0.00,30.01,M,10.00,M,CLR,M,M,M,M,M,M,M,M,M,M,M,M,M,M,77.00,KBVU 191855Z AUTO VRB03KT 10SM CLR 25/16 A3001 RMK AO2,M
CXP,2023-08-19 18:55,-119.7326,39.1923,1431.00,82.40,41.00,23.07,0.00,0.00,0.00,30.03,M,10.00,M,CLR,M,M,M,M,M,M,M,M,M,M,M,M,M,M,80.29,KCXP 191855Z AUTO 00000KT 10SM CLR 28/05 A3003 RMK AO2,M
INS,2023-08-19 18:55,-115.6733,36.5872,955.00,80.00,50.70,36.02,110.00,9.00,0.00,30.02,1012.10,10.00,M,OVC,M,M,M,17000.00,M,M,M,M,M,M,M,M,M,M,79.62,KINS 191855Z AUTO 11009KT 10SM OVC170 27/10 A3002 RMK AO2 SLP121 T02670104 $,M
RNO,2023-08-19 18:55,-119.7711,39.4839,1341.00,87.00,43.00,21.49,70.00,6.00,0.00,29.99,1009.10,10.00,M,FEW,SCT,M,M,5000.00,9000.00,M,M,M,M,M,M,M,M,M,83.76,KRNO 191855Z 07006KT 10SM FEW050 SCT090 31/06 A2999 RMK AO2 SLP091 T03060061,M
LSV,2023-08-19 18:55,-115.0343,36.2362,570.00,80.00,62.20,54.60,190.00,5.00,0.00,29.97,1013.00,10.00,M,FEW,SCT,BKN,BKN,7000.00,10000.00,12000.00,15000.00,M,M,M,M,M,M,M,81.25,KLSV 191855Z AUTO 19005KT 10SM FEW070 SCT100 BKN120 BKN150 OVC210 27/17 A2997 RMK AO2 SLP130 T02660168 $,M
RTS,2023-08-19 18:55,-119.8764,39.6682,1539.00,80.60,37.40,21.25,80.00,7.00,0.00,30.05,M,10.00,12.00,CLR,M,M,M,M,M,M,M,M,M,M,M,M,M,M,79.02,KRTS 191855Z AUTO 08007G12KT 050V120 10SM CLR 27/03 A3005 RMK AO2,M
MEV,2023-08-19 18:55,-119.7500,38.9963,1441.42,78.80,44.60,29.79,300.00,5.00,0.00,30.03,M,10.00,M,CLR,M,M,M,M,M,M,M,M,M,M,M,M,M,M,78.80,KMEV 191855Z AUTO 30005KT 10SM CLR 26/07 A3003 RMK AO2,M
HTH,2023-08-19 18:55,-118.6315,38.5448,1282.89,84.20,39.20,20.29,360.00,7.00,0.00,30.00,M,10.00,M,CLR,M,M,M,M,M,M,M,M,M,M,M,M,M,M,81.44,KHTH 191855Z AUTO 36007KT 10SM CLR 29/04 A3000 RMK A01,M
BAM,2023-08-19 18:55,-116.8743,40.5990,1382.36,86.00,41.00,20.54,230.00,10.00,0.00,30.04,M,10.00,14.00,CLR,M,M,M,M,M,M,M,M,M,M,M,M,M,M,82.86,KBAM 191855Z AUTO 23010G14KT 10SM CLR 30/05 A3004 RMK AO1,M
TMT,2023-08-19 18:55,-117.1971,39.4643,1749.34,79.30,33.60,19.07,240.00,9.00,0.00,30.13,M,M,15.00,SCT,M,M,M,12000.00,M,M,M,M,M,M,M,M,M,M,79.30,KTMT 191855Z AUTO 24009G15KT SCT120 26/01 A3013 RMK AO2 T02630009 PWINO,M
10U,2023-08-19 18:55,-116.1876,41.9532,1637.00,82.40,41.00,23.07,0.00,0.00,0.00,30.07,M,10.00,M,CLR,M,M,M,M,M,M,M,M,M,M,M,M,M,M,80.29,K10U 191855Z AUTO 00000KT 10SM CLR 28/05 A3007 RMK AO2,M
EKO,2023-08-19 18:56,-115.7860,40.8242,1367.00,82.00,45.00,27.24,240.00,6.00,0.00,30.06,1011.80,10.00,M,FEW,M,M,M,12000.00,M,M,M,M,M,M,M,M,M,M,80.28,KEKO 191856Z AUTO 24006KT 10SM FEW120 28/07 A3006 RMK AO2 SLP118 T02780072,M
WMC,2023-08-19 18:56,-117.8072,40.9019,1315.00,89.00,38.00,16.61,150.00,8.00,0.00,29.99,1009.70,10.00,M,CLR,M,M,M,M,M,M,M,M,M,M,M,M,M,M,85.18,KWMC 191856Z AUTO 15008KT 10SM CLR 32/03 A2999 RMK AO2 SLP097 T03170033,M
NFL,2023-08-19 18:56,-118.7010,39.4166,1199.00,85.00,44.00,23.80,M,3.00,0.00,29.98,1012.30,10.00,M,FEW,FEW,SCT,M,9000.00,14000.00,20000.00,M,M,M,M,M,M,M,M,82.27,KNFL 191856Z VRB03KT 10SM FEW090 FEW140 SCT200 29/07 A2998 RMK AO2 SLP123 T02940067,M
HND,2023-08-19 18:56,-115.1344,35.9729,742.79,M,M,M,M,M,0.00,M,M,M,M,M,M,M,M,M,M,M,M,M,M,M,M,M,M,M,M,KHND 191856Z RMK AO2 SLPNO $,M
TPH,2023-08-19 18:56,-117.0904,38.0505,1654.00,78.00,46.00,32.26,190.00,13.00,0.00,30.13,1012.70,10.00,18.00,CLR,M,M,M,M,M,M,M,M,M,M,M,M,M,M,78.00,KTPH 191856Z AUTO 19013G18KT 10SM CLR 26/08 A3013 RMK AO2 SLP127 T02560078,M
LAS,2023-08-19 18:56,-115.1634,36.0719,663.00,77.00,60.00,55.75,190.00,4.00,0.00,30.00,1014.00,10.00,M,SCT,BKN,BKN,M,10000.00,15000.00,22000.00,M,M,M,M,M,M,M,M,77.00,KLAS 191856Z 19004KT 10SM SCT100 BKN150 BKN220 25/16 A3000 RMK AO2 SLP140 T02500156,M
BVU,2023-08-19 19:15,-114.8611,35.9475,671.00,78.80,60.80,54.05,0.00,0.00,0.00,30.01,M,10.00,M,CLR,M,M,M,M,M,M,M,M,M,M,M,M,M,M,78.80,KBVU 191915Z AUTO 00000KT 10SM CLR 26/16 A3001 RMK AO2,M
CXP,2023-08-19 19:15,-119.7326,39.1923,1431.00,82.40,39.20,21.51,M,4.00,0.00,30.03,M,10.00,M,CLR,M,M,M,M,M,M,M,M,M,M,M,M,M,M,80.21,KCXP 191915Z AUTO VRB04KT 10SM CLR 28/04 A3003 RMK AO2,M
RTS,2023-08-19 19:15,-119.8764,39.6682,1539.00,80.60,33.80,18.42,160.00,9.00,0.00,30.05,M,10.00,M,CLR,M,M,M,M,M,M,M,M,M,M,M,M,M,M,78.88,KRTS 191915Z AUTO 16009KT 10SM CLR 27/01 A3005 RMK AO2,M
05U,2023-08-19 19:15,-116.0051,39.6042,1811.23,77.00,37.40,23.93,M,M,0.00,30.17,M,10.00,M,M,M,M,M,M,M,M,M,M,M,M,M,M,M,M,77.00,K05U 191915Z AUTO 10SM 25/03 A3017 RMK A01,M
MEV,2023-08-19 19:15,-119.7500,38.9963,1441.42,78.80,44.60,29.79,0.00,0.00,0.00,30.02,M,10.00,M,CLR,M,M,M,M,M,M,M,M,M,M,M,M,M,M,78.80,KMEV 191915Z AUTO 00000KT 10SM CLR 26/07 A3002 RMK AO2,M
HTH,2023-08-19 19:15,-118.6315,38.5448,1282.89,86.00,35.60,16.63,M,5.00,0.00,29.98,M,10.00,11.00,CLR,M,M,M,M,M,M,M,M,M,M,M,M,M,M,82.69,KHTH 191915Z AUTO VRB05G11KT 10SM CLR 30/02 A2998 RMK A01,M
10U,2023-08-19 19:15,-116.1876,41.9532,1637.00,80.60,41.00,24.46,0.00,0.00,0.00,30.07,M,10.00,M,CLR,M,M,M,M,M,M,M,M,M,M,M,M,M,M,79.20,K10U 191915Z AUTO 00000KT 10SM CLR 27/05 A3007 RMK AO2,M
BAM,2023-08-19 19:15,-116.8743,40.5990,1382.36,86.00,41.00,20.54,230.00,7.00,0.00,30.03,M,10.00,M,CLR,M,M,M,M,M,M,M,M,M,M,M,M,M,M,82.86,KBAM 191915Z AUTO 23007KT 10SM CLR 30/05 A3003 RMK AO1,M
TMT,2023-08-19 19:15,-117.1971,39.4643,1749.34,78.80,34.00,19.70,220.00,7.00,0.00,30.12,M,M,M,SCT,M,M,M,11000.00,M,M,M,M,M,M,M,M,M,M,78.80,KTMT 191915Z AUTO 22007KT SCT110 26/01 A3012 RMK AO2 T02600011 PWINO,M
05U,2023-08-19 19:30,-116.0051,39.6042,1811.23,75.20,42.80,31.34,M,M,0.00,30.17,M,10.00,M,M,M,M,M,M,M,M,M,M,M,M,M,M,M,M,75.20,K05U 191930Z AUTO 10SM 24/06 A3017 RMK A01,M
BVU,2023-08-19 19:35,-114.8611,35.9475,671.00,78.80,62.60,57.60,190.00,5.00,0.00,30.01,M,10.00,M,SCT,M,M,M,9500.00,M,M,M,M,M,M,M,M,M,M,78.80,KBVU 191935Z AUTO 19005KT 10SM SCT095 26/17 A3001 RMK AO2,M
CXP,2023-08-19 19:35,-119.7326,39.1923,1431.00,84.20,39.20,20.29,200.00,7.00,0.00,30.03,M,10.00,M,CLR,M,M,M,M,M,M,M,M,M,M,M,M,M,M,81.44,KCXP 191935Z AUTO 20007KT 160V220 10SM CLR 29/04 A3003 RMK AO2,M
RTS,2023-08-19 19:35,-119.8764,39.6682,1539.00,82.40,33.80,17.38,M,3.00,0.00,30.04,M,10.00,14.00,CLR,M,M,M,M,M,M,M,M,M,M,M,M,M,M,80.03,KRTS 191935Z AUTO VRB03G14KT 10SM CLR 28/01 A3004 RMK AO2,M
MEV,2023-08-19 19:35,-119.7500,38.9963,1441.42,80.60,44.60,28.08,0.00,0.00,0.00,30.01,M,10.00,M,CLR,M,M,M,M,M,M,M,M,M,M,M,M,M,M,79.42,KMEV 191935Z AUTO 00000KT 10SM CLR 27/07 A3001 RMK AO2,M
HTH,2023-08-19 19:35,-118.6315,38.5448,1282.89,87.80,28.40,11.74,130.00,9.00,0.00,29.98,M,1.50,17.00,CLR,M,M,M,M,M,M,M,HZ,M,M,M,M,M,M,83.84,KHTH 191935Z AUTO 13009G17KT 1 1/2SM HZ CLR 31/M02 A2998 RMK A01 VIS 1/2V5,M
10U,2023-08-19 19:35,-116.1876,41.9532,1637.00,82.40,39.20,21.51,140.00,7.00,0.00,30.07,M,10.00,12.00,CLR,M,M,M,M,M,M,M,M,M,M,M,M,M,M,80.21,K10U 191935Z AUTO 14007G12KT 10SM CLR 28/04 A3007 RMK AO2,M
BAM,2023-08-19 19:35,-116.8743,40.5990,1382.36,86.00,39.20,19.15,240.00,8.00,0.00,30.03,M,10.00,M,SCT,M,M,M,11000.00,M,M,M,M,M,M,M,M,M,M,82.79,KBAM 191935Z AUTO 24008KT 10SM SCT110 30/04 A3003 RMK AO1,M
TMT,2023-08-19 19:35,-117.1971,39.4643,1749.34,79.70,34.70,19.67,220.00,11.00,0.00,30.11,M,M,16.00,SCT,M,M,M,11000.00,M,M,M,M,M,M,M,M,M,M,79.70,KTMT 191935Z AUTO 22011G16KT SCT110 27/02 A3011 RMK AO2 T02650015 PWINO,M
05U,2023-08-19 19:50,-116.0051,39.6042,1811.23,77.00,42.80,29.51,M,M,0.00,30.16,M,10.00,M,M,M,M,M,M,M,M,M,M,M,M,M,M,M,M,77.00,K05U 191950Z AUTO 10SM 25/06 A3016 RMK A01,M
P68,2023-08-19 19:53,-116.0056,39.6014,1993.00,76.00,42.00,29.59,70.00,8.00,0.00,30.14,1011.80,M,M,M,M,M,M,M,M,M,M,M,M,M,M,M,M,M,76.00,KP68 191953Z AUTO 07008KT 24/06 A3014 RMK AO1 SLP118 T02440056,M
DRA,2023-08-19 19:53,-116.0278,36.6206,1009.00,82.00,51.00,34.12,120.00,9.00,0.00,30.02,1011.70,10.00,M,CLR,M,M,M,M,M,M,M,M,M,M,M,M,M,M,80.84,KDRA 191953Z AUTO 12009KT 10SM CLR 28/11 A3002 RMK AO2 SLP117 T02780106 $,M
ELY,2023-08-19 19:53,-114.8453,39.2950,1909.00,69.00,47.00,45.35,0.00,0.00,0.00,30.20,1012.70,10.00,M,OVC,M,M,M,8000.00,M,M,M,M,M,M,M,M,M,M,69.00,KELY 191953Z AUTO 00000KT 10SM OVC080 21/08 A3020 RMK AO2 SLP127 T02060083,M
VGT,2023-08-19 19:53,-115.1933,36.2111,667.00,79.00,60.00,52.19,130.00,4.00,0.00,30.00,1015.50,10.00,M,CLR,M,M,M,M,M,M,M,M,M,M,M,M,M,M,79.00,KVGT 191953Z 13004KT 10SM CLR 26/16 A3000 RMK AO2 SLP155 T02610156,M
LOL,2023-08-19 19:53,-118.5701,40.0684,1192.43,86.00,43.00,22.19,M,M,0.00,29.96,1010.40,10.00,M,CLR,M,M,M,M,M,M,M,M,M,M,M,M,M,M,82.97,KLOL 191953Z AUTO 10SM CLR 30/06 A2996 RMK AO2 SLP104 T03000061,M
BVU,2023-08-19 19:55,-114.8611,35.9475,671.00,77.00,62.60,61.13,170.00,10.00,0.00,30.01,M,10.00,M,BKN,BKN,M,M,7500.00,9000.00,M,M,M,M,M,M,M,M,M,77.00,KBVU 191955Z AUTO 17010KT 10SM BKN075 BKN090 25/17 A3001 RMK AO2,M
CXP,2023-08-19 19:55,-119.7326,39.1923,1431.00,84.20,39.20,20.29,M,3.00,0.00,30.02,M,10.00,M,CLR,M,M,M,M,M,M,M,M,M,M,M,M,M,M,81.44,KCXP 191955Z AUTO VRB03KT 10SM CLR 29/04 A3002 RMK AO2,M
RNO,2023-08-19 19:55,-119.7711,39.4839,1341.00,88.00,38.00,17.15,140.00,10.00,0.00,29.98,1008.60,10.00,M,SCT,SCT,M,M,5000.00,10000.00,M,M,M,M,M,M,M,M,M,84.35,KRNO 191955Z 14010KT 10SM SCT050 SCT100 31/03 A2998 RMK AO2 LTG DSNT W SLP086 T03110033,M
LSV,2023-08-19 19:55,-115.0343,36.2362,570.00,81.00,62.00,52.48,0.00,0.00,0.00,29.96,1012.60,10.00,M,FEW,BKN,BKN,M,12000.00,15000.00,18000.00,M,M,M,M,M,M,M,M,82.04,KLSV 191955Z AUTO 00000KT 10SM FEW120 BKN150 BKN180 27/17 A2996 RMK AO2 SLP126 T02730166 $,M
RTS,2023-08-19 19:55,-119.8764,39.6682,1539.00,82.40,32.00,16.17,150.00,7.00,0.00,30.04,M,10.00,15.00,CLR,M,M,M,M,M,M,M,M,M,M,M,M,M,M,80.00,KRTS 191955Z AUTO 15007G15KT 10SM CLR 28/M00 A3004 RMK AO2,M
MEV,2023-08-19 19:55,-119.7500,38.9963,1441.42,82.40,46.40,28.36,290.00,4.00,0.00,30.01,M,9.00,M,CLR,M,M,M,M,M,M,M,M,M,M,M,M,M,M,80.64,KMEV 191955Z AUTO 29004KT 9SM CLR 28/08 A3001 RMK AO2,M
HTH,2023-08-19 19:55,-118.6315,38.5448,1282.89,89.60,30.20,11.94,130.00,13.00,0.00,29.97,M,10.00,18.00,CLR,M,M,M,M,M,M,M,M,M,M,M,M,M,M,85.34,KHTH 191955Z AUTO 13013G18KT 10SM CLR 32/M01 A2997 RMK A01,M
BAM,2023-08-19 19:55,-116.8743,40.5990,1382.36,84.20,37.40,18.91,180.00,4.00,0.00,30.03,M,10.00,13.00,BKN,M,M,M,11000.00,M,M,M,M,M,M,M,M,M,M,81.38,KBAM 191955Z AUTO 18004G13KT 10SM BKN110 29/03 A3003 RMK AO1,M
TMT,2023-08-19 19:55,-117.1971,39.4643,1749.34,80.00,34.50,19.32,240.00,10.00,0.00,30.11,M,M,M,CLR,M,M,M,M,M,M,M,M,M,M,M,M,M,M,78.61,KTMT 191955Z AUTO 24010KT CLR 27/01 A3011 RMK AO2 T02660014 PWINO,M
10U,2023-08-19 19:55,-116.1876,41.9532,1637.00,82.40,39.20,21.51,210.00,4.00,0.00,30.07,M,10.00,14.00,CLR,M,M,M,M,M,M,M,M,M,M,M,M,M,M,80.21,K10U 191955Z AUTO 21004G14KT 10SM CLR 28/04 A3007 RMK AO2,M
INS,2023-08-19 19:55,-115.6733,36.5872,955.00,79.50,52.30,38.85,100.00,13.00,0.00,30.01,1011.80,10.00,19.00,BKN,M,M,M,13000.00,M,M,M,M,M,M,M,M,M,M,79.50,KINS 191955Z AUTO 10013G19KT 10SM BKN130 26/11 A3001 RMK AO2 SLP118 T02640113 $,M
EKO,2023-08-19 19:56,-115.7860,40.8242,1367.00,82.00,45.00,27.24,230.00,5.00,0.00,30.05,1012.30,10.00,M,SCT,M,M,M,12000.00,M,M,M,M,M,M,M,M,M,M,80.28,KEKO 191956Z AUTO 23005KT 10SM SCT120 28/07 A3005 RMK AO2 SLP123 T02780072,M
WMC,2023-08-19 19:56,-117.8072,40.9019,1315.00,91.00,39.00,16.23,290.00,6.00,0.00,29.97,1009.20,10.00,M,FEW,M,M,M,10000.00,M,M,M,M,M,M,M,M,M,M,86.94,KWMC 191956Z AUTO 29006KT 10SM FEW100 33/04 A2997 RMK AO2 SLP092 T03280039,M
HND,2023-08-19 19:56,-115.1344,35.9729,742.79,M,M,M,M,M,0.00,M,M,M,M,M,M,M,M,M,M,M,M,M,M,M,M,M,M,M,M,KHND 191956Z RMK AO2 SLPNO $,M
TPH,2023-08-19 19:56,-117.0904,38.0505,1654.00,78.00,45.00,31.06,180.00,12.00,0.00,30.12,1012.50,10.00,19.00,CLR,M,M,M,M,M,M,M,M,M,M,M,M,M,M,78.00,KTPH 191956Z AUTO 18012G19KT 10SM CLR 26/07 A3012 RMK AO2 SLP125 T02560072,M
LAS,2023-08-19 19:56,-115.1634,36.0719,663.00,78.00,61.00,55.89,190.00,4.00,0.00,30.00,1013.80,10.00,M,CLR,M,M,M,M,M,M,M,M,M,M,M,M,M,M,78.00,KLAS 191956Z 19004KT 10SM CLR 26/16 A3000 RMK AO2 SLP138 T02560161,M
NFL,2023-08-19 19:56,-118.7010,39.4166,1199.00,89.00,35.00,14.76,M,6.00,0.00,29.96,1011.60,10.00,M,FEW,FEW,SCT,M,9000.00,14000.00,20000.00,M,M,M,M,M,M,M,M,85.10,KNFL 191956Z COR VRB06KT 10SM FEW090 FEW140 SCT200 32/02 A2996 RMK AO2 SLP116 TCU DSNT SW T03170017,M
LAS,2023-08-19 19:58,-115.1634,36.0719,663.00,78.00,61.00,55.89,170.00,5.00,0.00,30.00,M,10.00,M,SCT,BKN,BKN,M,8000.00,15000.00,22000.00,M,M,M,M,M,M,M,M,78.00,KLAS 191958Z 17005KT 10SM SCT080 BKN150 BKN220 26/16 A3000 RMK AO2 T02560161,M
05U,2023-08-19 20:10,-116.0051,39.6042,1811.23,77.00,41.00,27.53,M,M,0.00,30.16,M,10.00,M,M,M,M,M,M,M,M,M,M,M,M,M,M,M,M,77.00,K05U 192010Z AUTO 10SM 25/05 A3016 RMK A01,M
BVU,2023-08-19 20:15,-114.8611,35.9475,671.00,77.00,62.60,61.13,160.00,14.00,0.00,30.03,M,10.00,M,SCT,M,M,M,7500.00,M,M,M,M,M,M,M,M,M,M,77.00,KBVU 192015Z AUTO 16014KT 10SM SCT075 25/17 A3003 RMK AO2,M
CXP,2023-08-19 20:15,-119.7326,39.1923,1431.00,84.20,37.40,18.91,M,5.00,0.00,30.01,M,8.00,M,CLR,M,M,M,M,M,M,M,M,M,M,M,M,M,M,81.38,KCXP 192015Z AUTO VRB05KT 8SM CLR 29/03 A3001 RMK AO2,M
RTS,2023-08-19 20:15,-119.8764,39.6682,1539.00,82.40,32.00,16.17,70.00,4.00,0.00,30.03,M,10.00,12.00,CLR,M,M,M,M,M,M,M,M,M,M,M,M,M,M,80.00,KRTS 192015Z AUTO 07004G12KT 10SM CLR 28/M00 A3003 RMK AO2,M
MEV,2023-08-19 20:15,-119.7500,38.9963,1441.42,82.40,42.80,24.72,M,4.00,0.00,29.99,M,6.00,12.00,CLR,M,M,M,M,M,M,M,HZ,M,M,M,M,M,M,80.39,KMEV 192015Z AUTO VRB04G12KT 6SM HZ CLR 28/06 A2999 RMK AO2,M
10U,2023-08-19 20:15,-116.1876,41.9532,1637.00,82.40,37.40,20.04,M,5.00,0.00,30.06,M,10.00,M,CLR,M,M,M,M,M,M,M,M,M,M,M,M,M,M,80.14,K10U 192015Z AUTO VRB05KT 10SM CLR 28/03 A3006 RMK AO2,M
BAM,2023-08-19 20:15,-116.8743,40.5990,1382.36,86.00,37.40,17.85,170.00,9.00,0.00,30.03,M,10.00,14.00,OVC,M,M,M,11000.00,M,M,M,M,M,M,M,M,M,M,82.73,KBAM 192015Z AUTO 17009G14KT 10SM OVC110 30/03 A3003 RMK AO1,M
TMT,2023-08-19 20:15,-117.1971,39.4643,1749.34,80.00,34.70,19.48,220.00,10.00,0.00,30.11,M,M,19.00,SCT,M,M,M,12000.00,M,M,M,M,M,M,M,M,M,M,78.62,KTMT 192015Z AUTO 22010G19KT SCT120 27/02 A3011 RMK AO2 T02660015 PWINO,M
HTH,2023-08-19 20:15,-118.6315,38.5448,1282.89,89.60,32.00,12.84,150.00,10.00,0.00,29.96,M,10.00,20.00,CLR,M,M,M,M,M,M,M,M,M,M,M,M,M,M,85.54,KHTH 192015Z AUTO 15010G20KT 10SM CLR 32/M00 A2996 RMK A01,M
RTS,2023-08-19 20:35,-119.8764,39.6682,1539.00,82.40,32.00,16.17,210.00,8.00,0.00,30.03,M,10.00,15.00,CLR,M,M,M,M,M,M,M,M,M,M,M,M,M,M,80.00,KRTS 192035Z AUTO 21008G15KT 10SM CLR 28/00 A3003 RMK AO2,M
MEV,2023-08-19 20:35,-119.7500,38.9963,1441.42,82.40,44.60,26.49,240.00,8.00,0.00,29.99,M,10.00,M,CLR,M,M,M,M,M,M,M,M,M,M,M,M,M,M,80.50,KMEV 192035Z AUTO 24008KT 10SM CLR 28/07 A2999 RMK AO2,M
BAM,2023-08-19 20:35,-116.8743,40.5990,1382.36,86.00,35.60,16.63,160.00,6.00,0.00,30.03,M,10.00,M,BKN,M,M,M,11000.00,M,M,M,M,M,M,M,M,M,M,82.69,KBAM 192035Z AUTO 16006KT 10SM BKN110 30/02 A3003 RMK AO1,M
TMT,2023-08-19 20:35,-117.1971,39.4643,1749.34,79.70,34.50,19.51,230.00,11.00,0.00,30.10,M,M,M,CLR,M,M,M,M,M,M,M,M,M,M,M,M,M,M,79.70,KTMT 192035Z AUTO 23011KT CLR 27/01 A3010 RMK AO2 T02650014 PWINO,M
05U,2023-08-19 20:35,-116.0051,39.6042,1811.23,78.80,41.00,25.95,M,M,0.00,30.16,M,10.00,M,M,M,M,M,M,M,M,M,M,M,M,M,M,M,M,78.80,K05U 192035Z AUTO 10SM 26/05 A3016 RMK A01,M
10U,2023-08-19 20:35,-116.1876,41.9532,1637.00,82.40,39.20,21.51,200.00,6.00,0.00,30.06,M,10.00,M,CLR,M,M,M,M,M,M,M,M,M,M,M,M,M,M,80.21,K10U 192035Z AUTO 20006KT 10SM CLR 28/04 A3006 RMK AO2,M
HND,2023-08-19 20:48,-115.1344,35.9729,742.79,M,M,M,150.00,14.00,0.00,30.06,M,10.00,M,OVC,M,M,M,18000.00,M,M,M,M,M,M,M,M,M,M,M,KHND 192048Z 15014KT 10SM OVC180 A3006,M
P68,2023-08-19 20:53,-116.0056,39.6014,1993.00,78.00,39.00,24.65,M,5.00,0.00,30.12,1011.00,M,M,M,M,M,M,M,M,M,M,M,M,M,M,M,M,M,78.00,KP68 192053Z AUTO VRB05KT 26/04 A3012 RMK AO1 SLP110 T02560039 58006,M
DRA,2023-08-19 20:53,-116.0278,36.6206,1009.00,81.00,51.00,35.25,110.00,5.00,0.00,30.01,1011.30,10.00,M,SCT,M,M,M,11000.00,M,M,M,M,M,M,M,M,M,M,80.22,KDRA 192053Z AUTO 11005KT 10SM SCT110 27/11 A3001 RMK AO2 SLP113 T02720106 58008 $,M
ELY,2023-08-19 20:53,-114.8453,39.2950,1909.00,72.00,47.00,40.94,300.00,4.00,0.00,30.19,1012.10,10.00,M,OVC,M,M,M,8000.00,M,M,M,M,M,M,M,M,M,M,72.00,KELY 192053Z AUTO 30004KT 10SM OVC080 22/08 A3019 RMK AO2 SLP121 60000 T02220083 58007,M
VGT,2023-08-19 20:53,-115.1933,36.2111,667.00,81.00,60.00,48.88,140.00,13.00,0.00,30.01,1015.70,10.00,M,SCT,BKN,M,M,8000.00,15000.00,M,M,M,M,M,M,M,M,M,81.60,KVGT 192053Z 14013KT 10SM SCT080 BKN150 27/16 A3001 RMK AO2 SLP157 T02720156 55002,M
BVU,2023-08-19 20:55,-114.8611,35.9475,671.00,73.40,64.40,73.44,280.00,4.00,0.00,29.99,M,5.00,M,SCT,BKN,BKN,M,4000.00,5500.00,7000.00,M,RA,M,M,M,M,M,M,73.40,KBVU 192055Z AUTO 28004KT 5SM RA SCT040 BKN055 BKN070 23/18 A2999 RMK AO2,M
INS,2023-08-19 20:55,-115.6733,36.5872,955.00,79.70,53.20,39.89,130.00,12.00,0.00,30.01,1011.60,10.00,M,FEW,SCT,M,M,16000.00,20000.00,M,M,M,M,M,M,M,M,M,79.70,KINS 192055Z AUTO 13012KT 10SM FEW160 SCT200 27/12 A3001 RMK AO2 SLP116 T02650118 57010 $,M
RNO,2023-08-19 20:55,-119.7711,39.4839,1341.00,88.00,36.00,15.85,150.00,10.00,0.00,29.96,1008.00,10.00,18.00,SCT,SCT,M,M,5000.00,10000.00,M,M,M,M,M,M,M,M,M,84.29,KRNO 192055Z 15010G18KT 10SM SCT050 SCT100 31/02 A2996 RMK AO2 LTG DSNT W SLP080 T03110022 58016,M
RTS,2023-08-19 20:55,-119.8764,39.6682,1539.00,82.40,32.00,16.17,140.00,9.00,0.00,30.02,M,10.00,M,FEW,M,M,M,11000.00,M,M,M,M,M,M,M,M,M,M,80.00,KRTS 192055Z AUTO 14009KT 10SM FEW110 28/M00 A3002 RMK AO2,M
MEV,2023-08-19 20:55,-119.7500,38.9963,1441.42,82.40,41.00,23.07,280.00,7.00,0.00,29.99,M,10.00,M,CLR,M,M,M,M,M,M,M,M,M,M,M,M,M,M,80.29,KMEV 192055Z AUTO 28007KT 10SM CLR 28/05 A2999 RMK AO2,M
BAM,2023-08-19 20:55,-116.8743,40.5990,1382.36,86.00,35.60,16.63,150.00,5.00,0.00,30.02,M,10.00,M,SCT,OVC,M,M,10000.00,12000.00,M,M,M,M,M,M,M,M,M,82.69,KBAM 192055Z AUTO 15005KT 10SM SCT100 OVC120 30/02 A3002 RMK AO1,M
TMT,2023-08-19 20:55,-117.1971,39.4643,1749.34,79.70,34.30,19.36,240.00,9.00,0.00,30.10,M,M,16.00,CLR,M,M,M,M,M,M,M,M,M,M,M,M,M,M,79.70,KTMT 192055Z AUTO 24009G16KT CLR 27/01 A3010 RMK AO2 T02650013 PWINO,M
LSV,2023-08-19 20:55,-115.0343,36.2362,570.00,80.80,61.50,51.89,120.00,8.00,0.00,29.97,1012.90,10.00,M,FEW,SCT,SCT,BKN,7500.00,10000.00,12000.00,14000.00,M,M,M,M,M,M,M,81.76,KLSV 192055Z AUTO 12008KT 10SM FEW075 SCT100 SCT120 BKN140 BKN200 27/16 A2997 RMK AO2 SLP129 T02710164 55003 $,M
EKO,2023-08-19 20:56,-115.7860,40.8242,1367.00,83.00,44.00,25.39,240.00,7.00,0.00,30.05,1011.90,10.00,M,CLR,M,M,M,M,M,M,M,M,M,M,M,M,M,M,80.86,KEKO 192056Z AUTO 24007KT 10SM CLR 28/07 A3005 RMK AO2 SLP119 T02830067 58005,M
WMC,2023-08-19 20:56,-117.8072,40.9019,1315.00,90.00,36.00,14.88,260.00,5.00,0.00,29.95,1008.90,10.00,M,FEW,M,M,M,12000.00,M,M,M,M,M,M,M,M,M,M,85.97,KWMC 192056Z AUTO 26005KT 10SM FEW120 32/02 A2995 RMK AO2 SLP089 T03220022 58015,M
NFL,2023-08-19 20:56,-118.7010,39.4166,1199.00,90.00,34.00,13.74,130.00,7.00,0.00,29.93,1011.00,10.00,18.00,FEW,SCT,SCT,M,8000.00,15000.00,20000.00,M,M,M,M,M,M,M,M,85.93,KNFL 192056Z 13007G18KT 10SM FEW080 SCT150 SCT200 32/01 A2993 RMK AO2 SLP110 TCU DSNT SW T03220011 58018,M
RTS,2023-08-19 21:15,-119.8764,39.6682,1539.00,82.40,30.20,15.03,240.00,7.00,0.00,30.01,M,10.00,13.00,SCT,M,M,M,11000.00,M,M,M,M,M,M,M,M,M,M,79.97,KRTS 192115Z AUTO 24007G13KT 10SM SCT110 28/M01 A3001 RMK AO2,M
05U,2023-08-19 21:15,-116.0051,39.6042,1811.23,78.80,39.20,24.19,M,M,0.00,30.15,M,10.00,M,M,M,M,M,M,M,M,M,M,M,M,M,M,M,M,78.80,K05U 192115Z AUTO 10SM 26/04 A3015 RMK A01,M
MEV,2023-08-19 21:15,-119.7500,38.9963,1441.42,82.40,41.00,23.07,250.00,6.00,0.00,29.99,M,10.00,15.00,CLR,M,M,M,M,M,M,M,M,M,M,M,M,M,M,80.29,KMEV 192115Z AUTO 25006G15KT 10SM CLR 28/05 A2999 RMK AO2,M
HTH,2023-08-19 21:15,-118.6315,38.5448,1282.89,89.60,32.00,12.84,150.00,8.00,0.00,29.94,M,7.00,18.00,CLR,M,M,M,M,M,M,M,M,M,M,M,M,M,M,85.54,KHTH 192115Z AUTO 15008G18KT 7SM CLR 32/M00 A2994 RMK A01,M
10U,2023-08-19 21:15,-116.1876,41.9532,1637.00,82.40,35.60,18.67,200.00,4.00,0.00,30.05,M,10.00,11.00,CLR,M,M,M,M,M,M,M,M,M,M,M,M,M,M,80.08,K10U 192115Z AUTO 20004G11KT 10SM CLR 28/02 A3005 RMK AO2,M
CXP,2023-08-19 21:15,-119.7326,39.1923,1431.00,87.80,33.80,14.61,M,5.00,0.00,29.99,M,10.00,18.00,CLR,M,M,M,M,M,M,M,M,M,M,M,M,M,M,84.10,KCXP 192115Z AUTO VRB05G18KT 10SM CLR 31/01 A2999 RMK AO2,M
BAM,2023-08-19 21:15,-116.8743,40.5990,1382.36,86.00,35.60,16.63,160.00,5.00,0.00,30.01,M,10.00,M,SCT,OVC,M,M,9000.00,12000.00,M,M,M,M,M,M,M,M,M,82.69,KBAM 192115Z AUTO 16005KT 10SM SCT090 OVC120 30/02 A3001 RMK AO1,M
TMT,2023-08-19 21:15,-117.1971,39.4643,1749.34,80.60,36.70,20.67,220.00,11.00,0.00,30.10,M,M,14.00,CLR,M,M,M,M,M,M,M,M,M,M,M,M,M,M,78.99,KTMT 192115Z AUTO 22011G14KT CLR 27/03 A3010 RMK AO2 T02700026 PWINO,M
LSV,2023-08-19 21:24,-115.0343,36.2362,570.00,78.80,60.80,54.05,180.00,10.00,0.00,29.96,1012.70,10.00,M,FEW,FEW,BKN,M,4000.00,6500.00,9500.00,M,-RA,M,M,M,M,M,M,78.80,KLSV 192124Z AUTO 18010KT 10SM -RA FEW040 FEW065 BKN095 26/16 A2996 RMK AO2 RAB24 SLP127 $,M
LSV,2023-08-19 21:25,-115.0343,36.2362,570.00,78.80,62.60,57.60,190.00,10.00,0.00,29.96,1012.70,10.00,M,FEW,FEW,BKN,M,4000.00,6500.00,9500.00,M,-RA,M,M,M,M,M,M,78.80,KLSV 192125Z AUTO 19010KT 10SM -RA FEW040 FEW065 BKN095 26/17 A2996 RMK AO2 WSHFT 11 RAB24 SLP127 $,M
BVU,2023-08-19 21:35,-114.8611,35.9475,671.00,71.60,64.40,78.04,270.00,8.00,0.00,29.98,M,10.00,M,CLR,M,M,M,M,M,M,M,M,M,M,M,M,M,M,71.60,KBVU 192135Z AUTO 27008KT 10SM CLR 22/18 A2998 RMK AO2,M
CXP,2023-08-19 21:35,-119.7326,39.1923,1431.00,87.80,33.80,14.61,230.00,13.00,0.00,29.98,M,10.00,M,FEW,M,M,M,11000.00,M,M,M,M,M,M,M,M,M,M,84.10,KCXP 192135Z AUTO 23013KT 200V270 10SM FEW110 31/01 A2998 RMK AO2,M
RTS,2023-08-19 21:35,-119.8764,39.6682,1539.00,80.60,30.20,15.94,240.00,12.00,0.00,30.01,M,10.00,M,FEW,M,M,M,11000.00,M,M,M,M,M,M,M,M,M,M,78.77,KRTS 192135Z AUTO 24012KT 10SM FEW110 27/M01 A3001 RMK AO2,M
MEV,2023-08-19 21:35,-119.7500,38.9963,1441.42,82.40,39.20,21.51,210.00,18.00,0.00,29.98,M,10.00,24.00,SCT,M,M,M,11000.00,M,M,M,M,M,M,M,M,M,M,80.21,KMEV 192135Z AUTO 21018G24KT 10SM SCT110 28/04 A2998 RMK AO2 LTG DSNT S,M
HTH,2023-08-19 21:35,-118.6315,38.5448,1282.89,89.60,28.40,11.09,180.00,12.00,0.00,29.93,M,10.00,18.00,CLR,M,M,M,M,M,M,M,M,M,M,M,M,M,M,85.17,KHTH 192135Z AUTO 18012G18KT 10SM CLR 32/M02 A2993 RMK A01,M
BAM,2023-08-19 21:35,-116.8743,40.5990,1382.36,86.00,35.60,16.63,130.00,5.00,0.00,30.01,M,10.00,M,OVC,M,M,M,12000.00,M,M,M,M,M,M,M,M,M,M,82.69,KBAM 192135Z AUTO 13005KT 10SM OVC120 30/02 A3001 RMK AO1,M
TMT,2023-08-19 21:35,-117.1971,39.4643,1749.34,80.00,36.00,20.51,230.00,11.00,0.00,30.09,M,M,M,SCT,M,M,M,11000.00,M,M,M,M,M,M,M,M,M,M,78.66,KTMT 192135Z AUTO 23011KT SCT110 27/02 A3009 RMK AO2 T02660023 PWINO,M
05U,2023-08-19 21:50,-116.0051,39.6042,1811.23,78.80,39.20,24.19,M,M,0.00,30.13,M,10.00,M,M,M,M,M,M,M,M,M,M,M,M,M,M,M,M,78.80,K05U 192150Z AUTO 10SM 26/04 A3013 RMK A01,M
P68,2023-08-19 21:53,-116.0056,39.6014,1993.00,79.00,39.00,23.85,60.00,6.00,0.00,30.10,1010.60,M,M,M,M,M,M,M,M,M,M,M,M,M,M,M,M,M,79.00,KP68 192153Z AUTO 06006KT 26/04 A3010 RMK AO1 SLP106 T02610039,M
DRA,2023-08-19 21:53,-116.0278,36.6206,1009.00,81.00,53.00,37.95,130.00,8.00,0.00,30.00,1011.10,10.00,M,FEW,M,M,M,12000.00,M,M,M,M,M,M,M,M,M,M,80.46,KDRA 192153Z AUTO 13008KT 10SM FEW120 27/12 A3000 RMK AO2 SLP111 T02720117 $,M
ELY,2023-08-19 21:53,-114.8453,39.2950,1909.00,77.00,46.00,33.34,10.00,6.00,0.00,30.16,1010.80,10.00,M,BKN,M,M,M,11000.00,M,M,M,M,M,M,M,M,M,M,77.00,KELY 192153Z AUTO 01006KT 10SM BKN110 25/08 A3016 RMK AO2 SLP108 T02500078,M
VGT,2023-08-19 21:53,-115.1933,36.2111,667.00,77.00,65.00,66.50,340.00,6.00,0.02,29.96,1014.40,9.00,M,OVC,M,M,M,10000.00,M,M,M,-RA,M,M,M,26.00,120.00,2023-08-19 21:10,77.00,KVGT 192153Z 34006KT 9SM -RA OVC100 25/18 A2996 RMK AO2 PK WND 12026/2110 RAB21 SLP144 P0002 T02500183,M
LOL,2023-08-19 21:53,-118.5701,40.0684,1192.43,89.00,34.00,14.18,220.00,8.00,0.00,29.92,1009.00,10.00,M,CLR,M,M,M,M,M,M,M,M,M,M,M,M,M,M,85.09,KLOL 192153Z AUTO 22008KT 10SM CLR 32/01 A2992 RMK AO2 SLP090 T03170011,M
BVU,2023-08-19 21:55,-114.8611,35.9475,671.00,73.40,64.40,73.44,220.00,6.00,0.00,29.98,M,10.00,M,FEW,M,M,M,10000.00,M,M,M,M,M,M,M,M,M,M,73.40,KBVU 192155Z AUTO 22006KT 10SM FEW100 23/18 A2998 RMK AO2,M
CXP,2023-08-19 21:55,-119.7326,39.1923,1431.00,84.20,35.60,17.61,270.00,7.00,0.00,29.99,M,10.00,21.00,SCT,M,M,M,11000.00,M,M,M,TS,M,M,M,M,M,M,81.34,KCXP 192155Z AUTO 27007G21KT 10SM TS SCT110 29/02 A2999 RMK AO2 LTG DSNT SE,M
INS,2023-08-19 21:55,-115.6733,36.5872,955.00,78.40,55.20,44.79,110.00,20.00,0.00,30.00,1011.60,10.00,25.00,SCT,M,M,M,13000.00,M,M,M,M,M,M,M,29.00,100.00,2023-08-19 21:37,78.40,KINS 192155Z AUTO 11020G25KT 10SM SCT130 26/13 A3000 RMK AO2 PK WND 10029/37 SLP116 T02580129 $,M
RNO,2023-08-19 21:55,-119.7711,39.4839,1341.00,92.00,34.00,12.91,210.00,10.00,0.00,29.93,1007.00,10.00,19.00,BKN,BKN,M,M,5000.00,10000.00,M,M,M,M,M,M,M,M,M,87.64,KRNO 192155Z 21010G19KT 190V250 10SM BKN050CB BKN100 33/01 A2993 RMK AO2 LTG DSNT S-NW SLP070 CB E THRU DSNT SE MOV N T03330011,M
LSV,2023-08-19 21:55,-115.0343,36.2362,570.00,74.50,64.40,70.78,190.00,6.00,T,29.94,1012.10,10.00,M,FEW,FEW,SCT,SCT,4900.00,6000.00,7000.00,9500.00,-RA,M,M,M,M,M,M,74.50,KLSV 192155Z AUTO 19006KT 10SM -RA FEW049 FEW060 SCT070 SCT095 24/18 A2994 RMK AO2 RAB24 SLP121 P0000 T02360180 $,M
RTS,2023-08-19 21:55,-119.8764,39.6682,1539.00,82.40,32.00,16.17,250.00,6.00,0.00,30.00,M,10.00,12.00,CLR,M,M,M,M,M,M,M,M,M,M,M,M,M,M,80.00,KRTS 192155Z AUTO 25006G12KT 10SM CLR 28/M00 A3000 RMK AO2,M
MEV,2023-08-19 21:55,-119.7500,38.9963,1441.42,75.20,48.20,38.46,120.00,9.00,0.00,29.98,M,7.00,M,FEW,SCT,M,M,5500.00,12000.00,M,M,-RA,M,M,M,M,M,M,75.20,KMEV 192155Z AUTO 12009KT 7SM -RA FEW055 SCT120 24/09 A2998 RMK AO2 LTG DSNT NE AND S AND SW,M
HTH,2023-08-19 21:55,-118.6315,38.5448,1282.89,89.60,26.60,10.30,160.00,13.00,0.00,29.93,M,10.00,20.00,CLR,M,M,M,M,M,M,M,M,M,M,M,M,M,M,85.02,KHTH 192155Z AUTO 16013G20KT 10SM CLR 32/M03 A2993 RMK A01,M
BAM,2023-08-19 21:55,-116.8743,40.5990,1382.36,86.00,35.60,16.63,0.00,0.00,0.00,30.01,M,10.00,M,OVC,M,M,M,12000.00,M,M,M,M,M,M,M,M,M,M,82.69,KBAM 192155Z AUTO 00000KT 10SM OVC120 30/02 A3001 RMK AO1,M
TMT,2023-08-19 21:55,-117.1971,39.4643,1749.34,79.70,35.20,20.06,220.00,8.00,0.00,30.09,M,M,M,BKN,M,M,M,11000.00,M,M,M,M,M,M,M,M,M,M,79.70,KTMT 192155Z AUTO 22008KT BKN110 27/02 A3009 RMK AO2 T02650018 PWINO,M
10U,2023-08-19 21:55,-116.1876,41.9532,1637.00,82.40,35.60,18.67,160.00,7.00,0.00,30.05,M,10.00,M,BKN,M,M,M,11000.00,M,M,M,M,M,M,M,M,M,M,80.08,K10U 192155Z AUTO 16007KT 10SM BKN110 28/02 A3005 RMK AO2,M
EKO,2023-08-19 21:56,-115.7860,40.8242,1367.00,84.00,43.00,23.66,230.00,10.00,0.00,30.04,1011.50,10.00,M,FEW,M,M,M,9000.00,M,M,M,M,M,M,M,M,M,M,81.48,KEKO 192156Z AUTO 23010KT 10SM FEW090 29/06 A3004 RMK AO2 SLP115 T02890061,M
WMC,2023-08-19 21:56,-117.8072,40.9019,1315.00,90.00,33.00,13.20,140.00,10.00,0.00,29.93,1008.50,10.00,M,FEW,M,M,M,12000.00,M,M,M,M,M,M,M,M,M,M,85.92,KWMC 192156Z AUTO 14010KT 10SM FEW120 32/01 A2993 RMK AO2 SLP085 T03220006,M
HND,2023-08-19 21:56,-115.1344,35.9729,742.79,M,M,M,M,M,0.00,M,M,M,M,M,M,M,M,M,M,M,M,M,M,M,M,M,M,M,M,KHND 192156Z RMK AO2 SLPNO $,M
TPH,2023-08-19 21:56,-117.0904,38.0505,1654.00,78.00,45.00,31.06,170.00,12.00,0.00,30.09,1011.20,10.00,M,CLR,M,M,M,M,M,M,M,M,M,M,M,M,M,M,78.00,KTPH 192156Z AUTO 17012KT 10SM CLR 26/07 A3009 RMK AO2 SLP112 T02560072,M
LAS,2023-08-19 21:56,-115.1634,36.0719,663.00,75.00,65.00,71.08,230.00,5.00,0.01,29.97,1012.90,10.00,M,FEW,SCT,OVC,M,6000.00,9000.00,15000.00,M,-RA,M,M,M,M,M,M,75.00,KLAS 192156Z 23005KT 10SM -RA FEW060 SCT090 OVC150 24/18 A2997 RMK AO2 RAB11 SLP129 P0001 T02390183,M
HTH,2023-08-19 22:10,-118.6315,38.5448,1282.89,89.60,28.40,11.09,170.00,9.00,0.00,29.92,M,10.00,17.00,CLR,M,M,M,M,M,M,M,M,M,M,M,M,M,M,85.17,KHTH 192210Z AUTO 17009G17KT 10SM CLR 32/M02 A2992 RMK A01,M
BVU,2023-08-19 22:15,-114.8611,35.9475,671.00,73.40,64.40,73.44,180.00,5.00,0.00,29.98,M,10.00,M,FEW,M,M,M,10000.00,M,M,M,M,M,M,M,M,M,M,73.40,KBVU 192215Z AUTO 18005KT 10SM FEW100 23/18 A2998 RMK AO2,M
CXP,2023-08-19 22:15,-119.7326,39.1923,1431.00,78.80,41.00,25.95,70.00,15.00,0.00,30.00,M,10.00,M,BKN,M,M,M,11000.00,M,M,M,M,M,M,M,M,M,M,78.80,KCXP 192215Z AUTO 07015KT 10SM BKN110 26/05 A3000 RMK AO2 LTG DSNT S AND W,M
RTS,2023-08-19 22:15,-119.8764,39.6682,1539.00,82.40,30.20,15.03,220.00,16.00,0.00,30.00,M,10.00,M,CLR,M,M,M,M,M,M,M,M,M,M,M,M,M,M,79.97,KRTS 192215Z AUTO 22016KT 10SM CLR 28/M01 A3000 RMK AO2,M
05U,2023-08-19 22:15,-116.0051,39.6042,1811.23,80.60,39.20,22.81,M,M,0.00,30.12,M,10.00,M,M,M,M,M,M,M,M,M,M,M,M,M,M,M,M,79.10,K05U 192215Z AUTO 10SM 27/04 A3012 RMK A01,M
MEV,2023-08-19 22:15,-119.7500,38.9963,1441.42,78.80,39.20,24.19,170.00,14.00,0.00,30.00,M,9.00,23.00,FEW,FEW,SCT,M,4000.00,5500.00,9000.00,M,M,M,M,M,M,M,M,78.80,KMEV 192215Z AUTO 17014G23KT 9SM FEW040 FEW055 SCT090 26/04 A3000 RMK AO2 LTG DSNT S AND SW,M
10U,2023-08-19 22:15,-116.1876,41.9532,1637.00,82.40,35.60,18.67,230.00,8.00,0.00,30.04,M,10.00,15.00,BKN,M,M,M,11000.00,M,M,M,M,M,M,M,M,M,M,80.08,K10U 192215Z AUTO 23008G15KT 10SM BKN110 28/02 A3004 RMK AO2,M
BAM,2023-08-19 22:15,-116.8743,40.5990,1382.36,86.00,35.60,16.63,130.00,9.00,0.00,30.00,M,10.00,M,SCT,SCT,BKN,M,4100.00,7000.00,11000.00,M,M,M,M,M,M,M,M,82.69,KBAM 192215Z AUTO 13009KT 10SM SCT041 SCT070 BKN110 30/02 A3000 RMK AO1,M
TMT,2023-08-19 22:15,-117.1971,39.4643,1749.34,80.00,35.40,20.03,210.00,10.00,0.00,30.09,M,M,M,BKN,M,M,M,11000.00,M,M,M,M,M,M,M,M,M,M,78.64,KTMT 192215Z AUTO 21010KT BKN110 27/02 A3009 RMK AO2 T02670019 PWINO,M
RNO,2023-08-19 22:19,-119.7711,39.4839,1341.00,92.00,34.00,12.91,210.00,13.00,0.00,29.93,M,10.00,20.00,BKN,BKN,M,M,7000.00,12000.00,M,M,TS,M,M,M,M,M,M,87.64,KRNO 192219Z 21013G20KT 10SM TS BKN070CB BKN120 33/01 A2993 RMK AO2 LTG DSNT W TSB19 OCNL LGTIC E TS E MOV N T03330011,M
05U,2023-08-19 22:30,-116.0051,39.6042,1811.23,80.60,41.00,24.46,M,M,0.00,30.12,M,10.00,M,M,M,M,M,M,M,M,M,M,M,M,M,M,M,M,79.20,K05U 192230Z AUTO 10SM 27/05 A3012 RMK A01,M
LSV,2023-08-19 22:31,-115.0343,36.2362,570.00,75.20,69.80,83.32,170.00,9.00,0.00,29.92,1011.40,10.00,M,SCT,BKN,BKN,M,9500.00,15000.00,20000.00,M,M,M,M,M,M,M,M,75.20,KLSV 192231Z AUTO 17009KT 10SM SCT095 BKN150 BKN200 24/21 A2992 RMK AO2 RAE16DZB16E31 SLP114 $,M
BVU,2023-08-19 22:35,-114.8611,35.9475,671.00,73.40,64.40,73.44,180.00,4.00,0.00,29.98,M,10.00,M,SCT,M,M,M,10000.00,M,M,M,M,M,M,M,M,M,M,73.40,KBVU 192235Z AUTO 18004KT 10SM SCT100 23/18 A2998 RMK AO2,M
CXP,2023-08-19 22:35,-119.7326,39.1923,1431.00,77.00,41.00,27.53,120.00,5.00,0.00,30.00,M,10.00,11.00,FEW,SCT,BKN,M,6000.00,9000.00,10000.00,M,M,M,M,M,M,M,M,77.00,KCXP 192235Z AUTO 12005G11KT 10SM FEW060 SCT090 BKN100 25/05 A3000 RMK AO2 LTG DSNT N AND NE AND SW,M
RTS,2023-08-19 22:35,-119.8764,39.6682,1539.00,80.60,30.20,15.94,250.00,9.00,0.00,30.00,M,10.00,M,FEW,M,M,M,12000.00,M,M,M,M,M,M,M,M,M,M,78.77,KRTS 192235Z AUTO 25009KT 10SM FEW120 27/M01 A3000 RMK AO2,M
MEV,2023-08-19 22:35,-119.7500,38.9963,1441.42,77.00,41.00,27.53,270.00,12.00,0.00,29.99,M,10.00,27.00,FEW,FEW,M,M,6000.00,11000.00,M,M,VCTS,M,M,M,M,M,M,77.00,KMEV 192235Z AUTO 27012G27KT 10SM VCTS FEW060 FEW110 25/05 A2999 RMK AO2 LTG DSNT NE AND NW,M
HTH,2023-08-19 22:35,-118.6315,38.5448,1282.89,89.60,30.20,11.94,150.00,11.00,0.00,29.91,M,10.00,M,CLR,M,M,M,M,M,M,M,M,M,M,M,M,M,M,85.34,KHTH 192235Z AUTO 15011KT 10SM CLR 32/M01 A2991 RMK A01,M
10U,2023-08-19 22:35,-116.1876,41.9532,1637.00,82.40,33.80,17.38,220.00,7.00,0.00,30.03,M,10.00,M,FEW,M,M,M,11000.00,M,M,M,M,M,M,M,M,M,M,80.03,K10U 192235Z AUTO 22007KT 10SM FEW110 28/01 A3003 RMK AO2,M
BAM,2023-08-19 22:35,-116.8743,40.5990,1382.36,86.00,35.60,16.63,120.00,8.00,0.00,29.99,M,10.00,M,CLR,M,M,M,M,M,M,M,M,M,M,M,M,M,M,82.69,KBAM 192235Z AUTO 12008KT 10SM CLR 30/02 A2999 RMK AO1,M
TMT,2023-08-19 22:35,-117.1971,39.4643,1749.34,79.70,35.40,20.22,170.00,5.00,0.00,30.08,M,M,M,SCT,M,M,M,11000.00,M,M,M,M,M,M,M,M,M,M,79.70,KTMT 192235Z AUTO 17005KT SCT110 27/02 A3008 RMK AO2 LTG DSNT N T02650019 PWINO,M
P68,2023-08-19 22:53,-116.0056,39.6014,1993.00,79.00,39.00,23.85,10.00,5.00,0.00,30.08,1009.30,M,M,M,M,M,M,M,M,M,M,M,M,M,M,M,M,M,79.00,KP68 192253Z AUTO 01005KT 26/04 A3008 RMK AO1 SLP093 T02610039,M
DRA,2023-08-19 22:53,-116.0278,36.6206,1009.00,81.00,52.00,36.58,100.00,4.00,0.00,29.99,1010.80,10.00,M,BKN,M,M,M,11000.00,M,M,M,M,M,M,M,M,M,M,80.34,KDRA 192253Z AUTO 10004KT 10SM BKN110 27/11 A2999 RMK AO2 SLP108 T02720111 $,M
ELY,2023-08-19 22:53,-114.8453,39.2950,1909.00,77.00,44.00,30.90,M,3.00,0.00,30.14,1010.40,10.00,M,CLR,M,M,M,M,M,M,M,M,M,M,M,M,M,M,77.00,KELY 192253Z AUTO VRB03KT 10SM CLR 25/07 A3014 RMK AO2 LTG DSNT SW AND W SLP104 T02500067,M
VGT,2023-08-19 22:53,-115.1933,36.2111,667.00,77.00,65.00,66.50,190.00,4.00,0.01,29.95,1014.10,10.00,M,BKN,OVC,M,M,9000.00,11000.00,M,M,M,M,M,M,M,M,M,77.00,KVGT 192253Z 19004KT 10SM BKN090 OVC110 25/18 A2995 RMK AO2 RAE53 SLP141 P0001 T02500183,M
LOL,2023-08-19 22:53,-118.5701,40.0684,1192.43,88.00,33.00,14.06,180.00,7.00,0.00,29.89,1008.20,10.00,M,CLR,M,M,M,M,M,M,M,M,M,M,M,M,M,M,84.25,KLOL 192253Z AUTO 18007KT 10SM CLR 31/01 A2989 RMK AO2 SLP082 T03110006,M
HND,2023-08-19 22:54,-115.1344,35.9729,742.79,M,M,M,190.00,7.00,0.00,30.00,M,10.00,M,FEW,SCT,M,M,6000.00,9000.00,M,M,M,M,M,M,M,M,M,M,KHND 192254Z 19007KT 10SM FEW060 SCT090 A3000,M
BVU,2023-08-19 22:55,-114.8611,35.9475,671.00,73.40,64.40,73.44,210.00,3.00,0.00,29.97,M,10.00,M,BKN,M,M,M,11000.00,M,M,M,M,M,M,M,M,M,M,73.40,KBVU 192255Z AUTO 21003KT 10SM BKN110 23/18 A2997 RMK AO2,M
CXP,2023-08-19 22:55,-119.7326,39.1923,1431.00,77.00,41.00,27.53,250.00,14.00,0.00,30.01,M,10.00,25.00,FEW,FEW,FEW,M,6000.00,8000.00,10000.00,M,M,M,M,M,M,M,M,77.00,KCXP 192255Z AUTO 25014G25KT 10SM FEW060 FEW080 FEW100 25/05 A3001 RMK AO2,M
INS,2023-08-19 22:55,-115.6733,36.5872,955.00,78.00,55.00,45.05,110.00,10.00,0.00,29.98,1011.10,10.00,M,FEW,OVC,M,M,7500.00,10000.00,M,M,M,M,M,M,26.00,90.00,2023-08-19 21:55,78.00,KINS 192255Z AUTO 11010KT 10SM FEW075 OVC100 26/13 A2998 RMK AO2 PK WND 09026/2155 SLP111 T02560128 $,M
RNO,2023-08-19 22:55,-119.7711,39.4839,1341.00,83.00,40.00,21.76,120.00,20.00,0.00,29.95,1008.20,10.00,29.00,BKN,BKN,BKN,M,7000.00,12000.00,18000.00,M,M,M,M,M,29.00,110.00,2023-08-19 22:50,80.64,KRNO 192255Z 12020G29KT 10SM BKN070CB BKN120 BKN180 28/04 A2995 RMK AO2 PK WND 11029/2250 WSHFT 2230 LTG DSNT ALQDS TSB19E51 SLP082 TS MOVD N CB E AND S MOV N CB DSNT ALQDS T02830044,M
RTS,2023-08-19 22:55,-119.8764,39.6682,1539.00,78.80,33.80,19.55,300.00,10.00,0.00,30.01,M,10.00,17.00,BKN,M,M,M,11000.00,M,M,M,M,M,M,M,M,M,M,78.80,KRTS 192255Z AUTO 30010G17KT 10SM BKN110 26/01 A3001 RMK AO2,M
05U,2023-08-19 22:55,-116.0051,39.6042,1811.23,80.60,39.20,22.81,M,M,0.00,30.10,M,10.00,M,M,M,M,M,M,M,M,M,M,M,M,M,M,M,M,79.10,K05U 192255Z AUTO 10SM 27/04 A3010 RMK A01,M
MEV,2023-08-19 22:55,-119.7500,38.9963,1441.42,78.80,39.20,24.19,290.00,6.00,0.00,29.99,M,10.00,M,FEW,M,M,M,11000.00,M,M,M,M,M,M,M,M,M,M,78.80,KMEV 192255Z AUTO 29006KT 10SM FEW110 26/04 A2999 RMK AO2,M
BAM,2023-08-19 22:55,-116.8743,40.5990,1382.36,86.00,35.60,16.63,0.00,0.00,0.00,29.98,M,10.00,M,CLR,M,M,M,M,M,M,M,M,M,M,M,M,M,M,82.69,KBAM 192255Z AUTO 00000KT 10SM CLR 30/02 A2998 RMK AO1,M
HTH,2023-08-19 22:55,-118.6315,38.5448,1282.89,89.60,32.00,12.84,180.00,16.00,0.00,29.91,M,10.00,22.00,CLR,M,M,M,M,M,M,M,M,M,M,M,M,M,M,85.54,KHTH 192255Z AUTO 18016G22KT 10SM CLR 32/M00 A2991 RMK A01,M
10U,2023-08-19 22:55,-116.1876,41.9532,1637.00,84.20,33.80,16.39,220.00,8.00,0.00,30.03,M,10.00,M,CLR,M,M,M,M,M,M,M,M,M,M,M,M,M,M,81.30,K10U 192255Z AUTO 22008KT 10SM CLR 29/01 A3003 RMK AO2,M
TMT,2023-08-19 22:55,-117.1971,39.4643,1749.34,79.00,35.00,20.37,180.00,6.00,0.00,30.08,M,M,M,SCT,M,M,M,11000.00,M,M,M,M,M,M,M,M,M,M,79.00,KTMT 192255Z AUTO 18006KT SCT110 26/02 A3008 RMK AO2 T02620016 PWINO,M
LSV,2023-08-19 22:55,-115.0343,36.2362,570.00,75.00,68.40,79.95,150.00,9.00,T,29.92,1011.40,10.00,M,FEW,SCT,BKN,BKN,9000.00,12000.00,14000.00,20000.00,M,M,M,M,M,M,M,75.00,KLSV 192255Z AUTO 15009KT 10SM FEW090 SCT120 BKN140 BKN200 24/20 A2992 RMK AO2 RAE16DZB16E31 SLP114 P0000 T02390202 $,M
INS,2023-08-19 22:56,-115.6733,36.5872,955.00,78.80,55.40,44.52,110.00,10.00,0.00,29.98,1011.10,10.00,M,FEW,BKN,OVC,M,7500.00,10000.00,11000.00,M,-DZ,M,M,M,M,M,M,78.80,KINS 192256Z AUTO 11010KT 10SM -DZ FEW075 BKN100 OVC110 26/13 A2998 RMK AO2 DZB55 SLP111 $,M
EKO,2023-08-19 22:56,-115.7860,40.8242,1367.00,84.00,40.00,21.07,250.00,7.00,0.00,30.02,1010.70,10.00,M,SCT,M,M,M,10000.00,M,M,M,M,M,M,M,M,M,M,81.33,KEKO 192256Z AUTO 25007KT 10SM SCT100 29/04 A3002 RMK AO2 SLP107 T02890044,M
WMC,2023-08-19 22:56,-117.8072,40.9019,1315.00,90.00,31.00,12.18,150.00,8.00,0.00,29.92,1008.00,10.00,18.00,CLR,M,M,M,M,M,M,M,M,M,M,M,M,M,M,85.73,KWMC 192256Z AUTO 15008G18KT 10SM CLR 32/M01 A2992 RMK AO2 SLP080 T03221006,M
NFL,2023-08-19 22:56,-118.7010,39.4166,1199.00,90.00,33.00,13.20,M,M,0.00,29.88,1009.30,10.00,M,CLR,M,M,M,M,M,M,M,M,M,M,M,M,M,M,85.92,KNFL 192256Z AUTO 10SM CLR 32/01 A2988 RMK AO2 SLP093 T03220006,M
HND,2023-08-19 22:56,-115.1344,35.9729,742.79,M,M,M,M,M,0.00,M,M,M,M,M,M,M,M,M,M,M,M,M,M,M,M,M,M,M,M,KHND 192256Z AUTO RMK AO2 SLPNO PWINO FZRANO $,M
TPH,2023-08-19 22:56,-117.0904,38.0505,1654.00,77.00,48.00,35.95,180.00,15.00,0.00,30.08,1010.80,10.00,24.00,CLR,M,M,M,M,M,M,M,M,M,M,M,M,M,M,77.00,KTPH 192256Z AUTO 18015G24KT 10SM CLR 25/09 A3008 RMK AO2 SLP108 T02500089,M
LAS,2023-08-19 22:56,-115.1634,36.0719,663.00,76.00,63.00,64.09,200.00,7.00,T,29.96,1012.70,10.00,M,FEW,OVC,M,M,6500.00,9500.00,M,M,M,M,M,M,M,M,M,76.00,KLAS 192256Z 20007KT 10SM FEW065 OVC095 24/17 A2996 RMK AO2 RAE00 SLP127 P0000 T02440172,M
05U,2023-08-19 23:10,-116.0051,39.6042,1811.23,80.60,39.20,22.81,M,M,0.00,30.10,M,10.00,M,M,M,M,M,M,M,M,M,M,M,M,M,M,M,M,79.10,K05U 192310Z AUTO 10SM 27/04 A3010 RMK A01,M
BVU,2023-08-19 23:15,-114.8611,35.9475,671.00,73.40,64.40,73.44,230.00,6.00,0.00,29.96,M,10.00,M,FEW,FEW,BKN,M,6500.00,7500.00,8500.00,M,M,M,M,M,M,M,M,73.40,KBVU 192315Z AUTO 23006KT 10SM FEW065 FEW075 BKN085 23/18 A2996 RMK AO2,M
CXP,2023-08-19 23:15,-119.7326,39.1923,1431.00,77.00,41.00,27.53,M,6.00,0.00,30.00,M,10.00,14.00,CLR,M,M,M,M,M,M,M,M,M,M,M,M,M,M,77.00,KCXP 192315Z AUTO VRB06G14KT 10SM CLR 25/05 A3000 RMK AO2,M
RTS,2023-08-19 23:15,-119.8764,39.6682,1539.00,77.00,37.40,23.93,130.00,11.00,0.00,30.03,M,10.00,19.00,BKN,M,M,M,10000.00,M,M,M,M,M,M,M,M,M,M,77.00,KRTS 192315Z AUTO 13011G19KT 10SM BKN100 25/03 A3003 RMK AO2,M
MEV,2023-08-19 23:15,-119.7500,38.9963,1441.42,78.80,42.80,27.81,320.00,11.00,0.00,29.98,M,10.00,M,CLR,M,M,M,M,M,M,M,M,M,M,M,M,M,M,78.80,KMEV 192315Z AUTO 32011KT 10SM CLR 26/06 A2998 RMK AO2,M
HTH,2023-08-19 23:15,-118.6315,38.5448,1282.89,87.80,30.20,12.64,220.00,12.00,0.00,29.92,M,10.00,18.00,FEW,M,M,M,12000.00,M,M,M,M,M,M,M,M,M,M,84.01,KHTH 192315Z AUTO 22012G18KT 10SM FEW120 31/M01 A2992 RMK A01,M
10U,2023-08-19 23:15,-116.1876,41.9532,1637.00,84.20,33.80,16.39,M,7.00,0.00,30.03,M,10.00,M,CLR,M,M,M,M,M,M,M,M,M,M,M,M,M,M,81.30,K10U 192315Z AUTO VRB07KT 10SM CLR 29/01 A3003 RMK AO2,M
BAM,2023-08-19 23:15,-116.8743,40.5990,1382.36,87.80,35.60,15.70,130.00,6.00,0.00,29.98,M,10.00,M,CLR,M,M,M,M,M,M,M,M,M,M,M,M,M,M,84.12,KBAM 192315Z AUTO 13006KT 10SM CLR 31/02 A2998 RMK AO1,M
TMT,2023-08-19 23:15,-117.1971,39.4643,1749.34,79.70,34.70,19.67,150.00,6.00,0.00,30.07,M,M,M,CLR,M,M,M,M,M,M,M,M,M,M,M,M,M,M,79.70,KTMT 192315Z AUTO 15006KT CLR 27/02 A3007 RMK AO2 LTG DSNT SE T02650015 PWINO,M
05U,2023-08-19 23:30,-116.0051,39.6042,1811.23,80.60,39.20,22.81,M,M,0.00,30.10,M,10.00,M,M,M,M,M,M,M,M,M,M,M,M,M,M,M,M,79.10,K05U 192330Z AUTO 10SM 27/04 A3010 RMK A01,M
BVU,2023-08-19 23:35,-114.8611,35.9475,671.00,73.40,64.40,73.44,240.00,5.00,0.00,29.96,M,10.00,M,FEW,SCT,BKN,M,6500.00,9000.00,11000.00,M,M,M,M,M,M,M,M,73.40,KBVU 192335Z AUTO 24005KT 10SM FEW065 SCT090 BKN110 23/18 A2996 RMK AO2,M
CXP,2023-08-19 23:35,-119.7326,39.1923,1431.00,78.80,39.20,24.19,310.00,9.00,0.00,30.00,M,10.00,M,CLR,M,M,M,M,M,M,M,M,M,M,M,M,M,M,78.80,KCXP 192335Z AUTO 31009KT 10SM CLR 26/04 A3000 RMK AO2,M
RTS,2023-08-19 23:35,-119.8764,39.6682,1539.00,77.00,35.60,22.28,120.00,9.00,0.00,30.03,M,10.00,17.00,SCT,BKN,M,M,10000.00,12000.00,M,M,M,M,M,M,M,M,M,77.00,KRTS 192335Z AUTO 12009G17KT 10SM SCT100 BKN120 25/02 A3003 RMK AO2,M
MEV,2023-08-19 23:35,-119.7500,38.9963,1441.42,80.60,44.60,28.08,330.00,7.00,0.00,29.97,M,10.00,M,CLR,M,M,M,M,M,M,M,M,M,M,M,M,M,M,79.42,KMEV 192335Z AUTO 33007KT 10SM CLR 27/07 A2997 RMK AO2,M
HTH,2023-08-19 23:35,-118.6315,38.5448,1282.89,86.00,28.40,12.44,210.00,16.00,0.00,29.91,M,10.00,25.00,CLR,M,M,M,M,M,M,M,M,M,M,M,M,M,M,82.54,KHTH 192335Z AUTO 21016G25KT 10SM CLR 30/M02 A2991 RMK A01,M
10U,2023-08-19 23:35,-116.1876,41.9532,1637.00,84.20,32.00,15.25,220.00,6.00,0.00,30.03,M,10.00,11.00,CLR,M,M,M,M,M,M,M,M,M,M,M,M,M,M,81.28,K10U 192335Z AUTO 22006G11KT 10SM CLR 29/00 A3003 RMK AO2,M
BAM,2023-08-19 23:35,-116.8743,40.5990,1382.36,86.00,35.60,16.63,150.00,7.00,0.00,29.97,M,10.00,M,CLR,M,M,M,M,M,M,M,M,M,M,M,M,M,M,82.69,KBAM 192335Z AUTO 15007KT 10SM CLR 30/02 A2997 RMK AO1,M
TMT,2023-08-19 23:35,-117.1971,39.4643,1749.34,79.00,35.00,20.37,210.00,7.00,0.00,30.07,M,M,M,CLR,M,M,M,M,M,M,M,M,M,M,M,M,M,M,79.00,KTMT 192335Z AUTO 21007KT CLR 26/02 A3007 RMK AO2 T02620017 PWINO,M
05U,2023-08-19 23:50,-116.0051,39.6042,1811.23,78.80,41.00,25.95,M,M,0.00,30.10,M,10.00,M,M,M,M,M,M,M,M,M,M,M,M,M,M,M,M,78.80,K05U 192350Z AUTO 10SM 26/05 A3010 RMK A01,M
P68,2023-08-19 23:53,-116.0056,39.6014,1993.00,79.00,40.00,24.79,310.00,4.00,0.00,30.07,1009.10,M,M,M,M,M,M,M,M,M,M,M,M,M,M,M,M,M,79.00,KP68 192353Z AUTO 31004KT 26/04 A3007 RMK AO1 SLP091 T02610044 10267 20228 56014,M
DRA,2023-08-19 23:53,-116.0278,36.6206,1009.00,75.00,61.00,61.75,100.00,9.00,T,30.00,1011.90,10.00,M,OVC,M,M,M,10000.00,M,M,M,M,M,M,M,M,M,M,75.00,KDRA 192353Z AUTO 10009KT 10SM OVC100 24/16 A3000 RMK AO2 RAB25E50 SLP119 P0000 60000 T02390161 10278 20239 55001 $,M
ELY,2023-08-19 23:53,-114.8453,39.2950,1909.00,75.00,44.00,33.03,40.00,3.00,0.00,30.14,1010.60,10.00,M,FEW,M,M,M,12000.00,M,M,M,VCTS,M,M,M,M,M,M,75.00,KELY 192353Z AUTO 04003KT 10SM VCTS FEW120 24/07 A3014 RMK AO2 LTG DSNT E-S SLP106 60000 T02390067 10250 20189 56014,M
VGT,2023-08-19 23:53,-115.1933,36.2111,667.00,77.00,63.00,62.00,200.00,4.00,T,29.94,1013.70,10.00,M,OVC,M,M,M,11000.00,M,M,M,-RA,M,M,M,M,M,M,77.00,KVGT 192353Z 20004KT 10SM -RA OVC110 25/17 A2994 RMK AO2 RAB11 SLP137 P0000 60003 T02500172 10272 20250 56020,M
LOL,2023-08-19 23:53,-118.5701,40.0684,1192.43,88.00,32.00,13.51,230.00,8.00,0.00,29.89,1008.20,10.00,M,CLR,M,M,M,M,M,M,M,M,M,M,M,M,M,M,84.24,KLOL 192353Z AUTO 23008KT 10SM CLR 31/00 A2989 RMK AO2 SLP082 T03110000 10328 20272 56015,M
BVU,2023-08-19 23:55,-114.8611,35.9475,671.00,73.40,66.20,78.19,260.00,5.00,0.00,29.95,M,7.00,M,FEW,SCT,BKN,M,4100.00,5500.00,9000.00,M,-RA,M,M,M,M,M,M,73.40,KBVU 192355Z AUTO 26005KT 7SM -RA FEW041 SCT055 BKN090 23/19 A2995 RMK AO2,M
CXP,2023-08-19 23:55,-119.7326,39.1923,1431.00,80.60,41.00,24.46,340.00,12.00,0.00,29.99,M,10.00,M,FEW,M,M,M,12000.00,M,M,M,M,M,M,M,M,M,M,79.20,KCXP 192355Z AUTO 34012KT 10SM FEW120 27/05 A2999 RMK AO2 LTG DSNT NW,M
INS,2023-08-19 23:55,-115.6733,36.5872,955.00,72.30,61.50,68.83,120.00,9.00,T,30.01,1012.40,10.00,M,OVC,M,M,M,10000.00,M,M,M,-DZ,M,M,M,M,M,M,72.30,KINS 192355Z AUTO 12009KT 10SM -DZ OVC100 22/16 A3001 RMK AO2 DZB2255E01RAB01E15DZB15 SLP124 P0000 60000 T02240164 10269 20224 53001 $,M
RNO,2023-08-19 23:55,-119.7711,39.4839,1341.00,82.00,42.00,24.29,270.00,11.00,0.00,29.96,1009.10,10.00,24.00,SCT,BKN,BKN,M,7000.00,13000.00,18000.00,M,M,M,M,M,32.00,130.00,2023-08-19 23:05,80.09,KRNO 192355Z 27011G24KT 10SM SCT070 BKN130 BKN180 28/06 A2996 RMK AO2 PK WND 13032/2305 WSHFT 2329 LTG DSNT SW-NW SLP091 CB DSNT SW THRU N T02780056 10344 20278 53002 $,M
RTS,2023-08-19 23:55,-119.8764,39.6682,1539.00,75.20,39.20,27.26,240.00,19.00,0.00,30.05,M,10.00,25.00,BKN,BKN,M,M,9500.00,12000.00,M,M,M,M,M,M,M,M,M,75.20,KRTS 192355Z AUTO 24019G25KT 10SM BKN095 BKN120 24/04 A3005 RMK AO2,M
MEV,2023-08-19 23:55,-119.7500,38.9963,1441.42,80.60,39.20,22.81,350.00,6.00,0.00,29.96,M,10.00,M,FEW,M,M,M,12000.00,M,M,M,M,M,M,M,M,M,M,79.10,KMEV 192355Z AUTO 35006KT 10SM FEW120 27/04 A2996 RMK AO2,M
HTH,2023-08-19 23:55,-118.6315,38.5448,1282.89,84.20,32.00,15.25,210.00,22.00,0.00,29.92,M,10.00,M,CLR,M,M,M,M,M,M,M,M,M,M,M,M,M,M,81.28,KHTH 192355Z AUTO 21022KT 10SM CLR 29/00 A2992 RMK A01,M
BAM,2023-08-19 23:55,-116.8743,40.5990,1382.36,86.00,35.60,16.63,160.00,8.00,0.00,29.97,M,10.00,M,CLR,M,M,M,M,M,M,M,M,M,M,M,M,M,M,82.69,KBAM 192355Z AUTO 16008KT 10SM CLR 30/02 A2997 RMK AO1,M
TMT,2023-08-19 23:55,-117.1971,39.4643,1749.34,78.80,34.50,20.10,230.00,8.00,0.00,30.07,M,M,M,CLR,M,M,M,M,M,M,M,M,M,M,M,M,M,M,78.80,KTMT 192355Z AUTO 23008KT CLR 26/01 A3007 RMK AO2 T02600014 10272 20257 PWINO,M
10U,2023-08-19 23:55,-116.1876,41.9532,1637.00,82.40,32.00,16.17,220.00,9.00,0.00,30.02,M,10.00,M,CLR,M,M,M,M,M,M,M,M,M,M,M,M,M,M,80.00,K10U 192355Z AUTO 22009KT 10SM CLR 28/00 A3002 RMK AO2,M
LSV,2023-08-19 23:55,-115.0343,36.2362,570.00,76.00,68.00,76.27,170.00,5.00,0.00,29.91,1011.10,10.00,M,FEW,SCT,M,M,6500.00,10000.00,M,M,M,M,M,M,M,M,M,76.00,KLSV 192355Z AUTO 17005KT 10SM FEW065 SCT100 24/20 A2991 RMK AO2 SLP111 60000 T02440201 10277 20236 57020 $,M
INS,2023-08-19 23:56,-115.6733,36.5872,955.00,71.60,60.80,68.75,100.00,11.00,0.00,30.01,1012.40,10.00,M,OVC,M,M,M,10000.00,M,M,M,M,M,M,M,M,M,M,71.60,KINS 192356Z AUTO 10011KT 10SM OVC100 22/16 A3001 RMK AO2 DZE56 SLP124 $,M
EKO,2023-08-19 23:56,-115.7860,40.8242,1367.00,83.00,43.00,24.44,180.00,4.00,0.00,30.01,1011.10,10.00,M,OVC,M,M,M,10000.00,M,M,M,M,M,M,M,M,M,M,80.79,KEKO 192356Z AUTO 18004KT 10SM OVC100 28/06 A3001 RMK AO2 SLP111 T02830061 10294 20267 56012,M
WMC,2023-08-19 23:56,-117.8072,40.9019,1315.00,89.00,33.00,13.62,170.00,9.00,0.00,29.91,1007.90,10.00,M,CLR,M,M,M,M,M,M,M,M,M,M,M,M,M,M,85.08,KWMC 192356Z AUTO 17009KT 10SM CLR 32/01 A2991 RMK AO2 SLP079 T03170006 10339 20294 56012,M
NFL,2023-08-19 23:56,-118.7010,39.4166,1199.00,90.00,36.00,14.88,350.00,6.00,0.00,29.87,1009.00,10.00,M,CLR,M,M,M,M,M,M,M,M,M,M,M,M,M,M,85.97,KNFL 192356Z AUTO 35006KT 10SM CLR 32/02 A2987 RMK AO2 SLP090 T03220022 10333 20278 56019,M
HND,2023-08-19 23:56,-115.1344,35.9729,742.79,M,M,M,M,M,0.00,M,M,M,M,M,M,M,M,M,M,M,M,M,M,M,M,M,M,M,M,KHND 192356Z AUTO RMK AO2 SLPNO 6//// PWINO FZRANO $,M
TPH,2023-08-19 23:56,-117.0904,38.0505,1654.00,77.00,49.00,37.33,160.00,14.00,0.00,30.08,1011.10,10.00,21.00,CLR,M,M,M,M,M,M,M,M,M,M,M,M,M,M,77.00,KTPH 192356Z AUTO 16014G21KT 10SM CLR 25/09 A3008 RMK AO2 SLP111 T02500094 10256 20239 56009,M
LAS,2023-08-19 23:56,-115.1634,36.0719,663.00,74.00,65.00,73.50,200.00,5.00,0.01,29.96,1012.70,10.00,M,FEW,OVC,M,M,6000.00,10000.00,M,M,-RA,M,M,M,M,M,M,74.00,KLAS 192356Z 20005KT 10SM -RA FEW060 OVC100 23/18 A2996 RMK AO2 RAB2258 SLP127 P0001 60002 T02330183 10261 20228 56019,M
HND,2023-08-19 23:59,-115.1344,35.9729,742.79,M,M,M,180.00,9.00,0.00,30.00,M,10.00,M,FEW,OVC,M,M,5500.00,9000.00,M,M,M,M,M,M,M,M,M,M,KHND 192359Z 18009KT 10SM FEW055 OVC090 A3000,M
