station,valid,lon,lat,elevation,tmpf,dwpf,relh,drct,sknt,p01i,alti,mslp,vsby,gust,skyc1,skyc2,skyc3,skyc4,skyl1,skyl2,skyl3,skyl4,wxcodes,ice_accretion_1hr,ice_accretion_3hr,ice_accretion_6hr,peak_wind_gust,peak_wind_drct,peak_wind_time,feel,metar,snowdepth
BVU,2022-08-28 00:15,-114.8611,35.9475,671.00,102.20,30.20,8.11,230.00,11.00,0.00,29.70,M,M,20.00,M,M,M,M,M,M,M,M,M,M,M,M,M,M,M,95.50,KBVU 280015Z AUTO 23011G20KT 39/M01 A2970 RMK AO2 PWINO TSNO,M
MEV,2022-08-28 00:15,-119.7500,38.9963,1441.42,87.80,28.40,11.74,280.00,13.00,0.00,29.92,M,10.00,19.00,CLR,M,M,M,M,M,M,M,M,M,M,M,M,M,M,83.84,KMEV 280015Z AUTO 28013G19KT 10SM CLR 31/M02 A2992 RMK AO2,M
TMT,2022-08-28 00:15,-117.1971,39.4643,1749.34,M,M,M,250.00,10.00,0.00,29.99,M,10.00,M,CLR,M,M,M,M,M,M,M,M,M,M,M,M,M,M,M,KTMT 280015Z AUTO 25010KT 10SM CLR A2999 RMK AO2,M
BAM,2022-08-28 00:15,-116.8743,40.5990,1382.36,91.40,19.40,7.19,240.00,13.00,0.00,29.88,M,10.00,17.00,CLR,M,M,M,M,M,M,M,M,M,M,M,M,M,M,85.86,KBAM 280015Z AUTO 24013G17KT 10SM CLR 33/M07 A2988 RMK AO1,M
HTH,2022-08-28 00:15,-118.6315,38.5448,1282.89,91.40,24.80,9.04,320.00,10.00,0.00,29.84,M,10.00,M,CLR,M,M,M,M,M,M,M,M,M,M,M,M,M,M,86.21,KHTH 280015Z AUTO 32010KT 10SM CLR 33/M04 A2984 RMK A01,M
CXP,2022-08-28 00:15,-119.7326,39.1923,1431.00,86.00,33.80,15.48,270.00,15.00,0.00,29.94,M,10.00,20.00,CLR,M,M,M,M,M,M,M,M,M,M,M,M,M,M,82.66,KCXP 280015Z AUTO 27015G20KT 10SM CLR 30/01 A2994 RMK AO2,M
RTS,2022-08-28 00:15,-119.8764,39.6682,1539.00,86.00,26.60,11.55,270.00,12.00,0.00,29.96,M,10.00,17.00,CLR,M,M,M,M,M,M,M,M,M,M,M,M,M,M,82.39,KRTS 280015Z AUTO 27012G17KT 10SM CLR 30/M03 A2996 RMK AO2,M
CXP,2022-08-28 00:30,-119.7326,39.1923,1431.00,86.00,33.80,15.48,270.00,16.00,0.00,29.94,M,10.00,22.00,CLR,M,M,M,M,M,M,M,M,M,M,M,M,M,M,82.66,KCXP 280030Z AUTO 27016G22KT 10SM CLR 30/01 A2994 RMK AO2,M
RTS,2022-08-28 00:35,-119.8764,39.6682,1539.00,84.20,26.60,12.23,270.00,13.00,0.00,29.96,M,10.00,19.00,CLR,M,M,M,M,M,M,M,M,M,M,M,M,M,M,81.13,KRTS 280035Z AUTO 27013G19KT 10SM CLR 29/M03 A2996 RMK AO2,M
TMT,2022-08-28 00:35,-117.1971,39.4643,1749.34,M,M,M,220.00,11.00,0.00,29.98,M,10.00,M,CLR,M,M,M,M,M,M,M,M,M,M,M,M,M,M,M,KTMT 280035Z AUTO 22011KT 10SM CLR A2998 RMK AO2,M
BAM,2022-08-28 00:35,-116.8743,40.5990,1382.36,91.40,19.40,7.19,250.00,10.00,0.00,29.88,M,10.00,M,CLR,M,M,M,M,M,M,M,M,M,M,M,M,M,M,85.86,KBAM 280035Z AUTO 25010KT 10SM CLR 33/M07 A2988 RMK AO1,M
HTH,2022-08-28 00:35,-118.6315,38.5448,1282.89,91.40,24.80,9.04,340.00,9.00,0.00,29.84,M,10.00,M,CLR,M,M,M,M,M,M,M,M,M,M,M,M,M,M,86.21,KHTH 280035Z AUTO 34009KT 10SM CLR 33/M04 A2984 RMK A01,M
BVU,2022-08-28 00:35,-114.8611,35.9475,671.00,102.20,30.20,8.11,220.00,11.00,0.00,29.70,M,M,M,M,M,M,M,M,M,M,M,M,M,M,M,M,M,M,95.50,KBVU 280035Z AUTO 22011KT 39/M01 A2970 RMK AO2 PWINO TSNO,M
MEV,2022-08-28 00:35,-119.7500,38.9963,1441.42,86.00,28.40,12.44,270.00,13.00,0.00,29.92,M,10.00,19.00,CLR,M,M,M,M,M,M,M,M,M,M,M,M,M,M,82.54,KMEV 280035Z AUTO 27013G19KT 10SM CLR 30/M02 A2992 RMK AO2,M
DRA,2022-08-28 00:53,-116.0278,36.6206,1009.00,98.00,16.00,5.05,250.00,10.00,0.00,29.77,1002.50,10.00,19.00,CLR,M,M,M,M,M,M,M,M,M,M,M,26.00,200.00,2022-08-28 00:32,90.87,KDRA 280053Z AUTO 25010G19KT 10SM CLR 37/M09 A2977 RMK AO2 PK WND 20026/0032 SLP025 T03671089,M
VGT,2022-08-28 00:53,-115.1933,36.2111,667.00,103.00,34.00,9.25,180.00,11.00,0.00,29.68,1003.40,10.00,M,CLR,M,M,M,M,M,M,M,M,M,M,M,28.00,200.00,2022-08-28 00:20,96.64,KVGT 280053Z 18011KT 10SM CLR 39/01 A2968 RMK AO2 PK WND 20028/0020 SLP034 T03940011,M
LOL,2022-08-28 00:53,-118.5701,40.0684,1192.43,93.00,27.00,9.42,270.00,9.00,0.00,29.82,1005.70,10.00,M,CLR,M,M,M,M,M,M,M,M,M,M,M,M,M,M,87.60,KLOL 280053Z AUTO 27009KT 10SM CLR 34/M03 A2982 RMK AO2 SLP057 T03391028,M
INS,2022-08-28 00:53,-115.6733,36.5872,955.00,96.80,19.40,6.09,220.00,11.00,0.00,29.75,1002.00,10.00,17.00,CLR,M,M,M,M,M,M,M,M,M,M,M,M,M,M,89.99,KINS 280053Z AUTO 22011G17KT 10SM CLR 36/M07 A2975 RMK AO2 WSHFT 50 SLP020 $,M
P68,2022-08-28 00:53,-116.0056,39.6014,1993.00,85.00,26.10,11.72,310.00,12.00,0.00,29.94,1005.10,M,21.00,M,M,M,M,M,M,M,M,M,M,M,M,M,M,M,81.58,KP68 280053Z AUTO 31012G21KT 29/M03 A2994 RMK AO1 SLP051 T02941033,M
ELY,2022-08-28 00:53,-114.8453,39.2950,1909.00,78.00,39.00,24.56,140.00,5.00,0.00,30.00,1006.30,10.00,M,FEW,M,M,M,11000.00,M,M,M,M,M,M,M,M,M,M,78.10,KELY 280053Z AUTO 14005KT 10SM FEW110 26/04 A3000 RMK AO2 SLP063 T02560039,M
CXP,2022-08-28 00:55,-119.7326,39.1923,1431.00,84.20,33.80,16.39,270.00,13.00,0.00,29.94,M,10.00,21.00,CLR,M,M,M,M,M,M,M,M,M,M,M,M,M,M,81.30,KCXP 280055Z AUTO 27013G21KT 10SM CLR 29/01 A2994 RMK AO2,M
RNO,2022-08-28 00:55,-119.7711,39.4839,1341.00,90.00,33.00,13.26,280.00,14.00,0.00,29.89,1006.50,10.00,20.00,FEW,M,M,M,15000.00,M,M,M,M,M,M,M,M,M,M,85.92,KRNO 280055Z 28014G20KT 10SM FEW150 32/01 A2989 RMK AO2 SLP065 T03220006,M
BVU,2022-08-28 00:55,-114.8611,35.9475,671.00,102.20,28.40,7.53,240.00,10.00,0.00,29.70,M,M,17.00,M,M,M,M,M,M,M,M,M,M,M,M,M,M,M,95.28,KBVU 280055Z AUTO 24010G17KT 39/M02 A2970 RMK AO2 PWINO TSNO,M
RTS,2022-08-28 00:55,-119.8764,39.6682,1539.00,84.20,28.40,13.18,270.00,16.00,0.00,29.96,M,10.00,M,CLR,M,M,M,M,M,M,M,M,M,M,M,M,M,M,81.25,KRTS 280055Z AUTO 27016KT 10SM CLR 29/M02 A2996 RMK AO2,M
MEV,2022-08-28 00:55,-119.7500,38.9963,1441.42,86.00,30.20,13.38,270.00,10.00,0.00,29.93,M,10.00,15.00,CLR,M,M,M,M,M,M,M,M,M,M,M,M,M,M,82.64,KMEV 280055Z AUTO 27010G15KT 10SM CLR 30/M01 A2993 RMK AO2,M
BAM,2022-08-28 00:55,-116.8743,40.5990,1382.36,89.60,21.20,8.22,240.00,11.00,0.00,29.88,M,10.00,18.00,CLR,M,M,M,M,M,M,M,M,M,M,M,M,M,M,84.64,KBAM 280055Z AUTO 24011G18KT 10SM CLR 32/M06 A2988 RMK AO1,M
HTH,2022-08-28 00:55,-118.6315,38.5448,1282.89,93.20,24.80,8.54,340.00,9.00,0.00,29.84,M,10.00,M,CLR,M,M,M,M,M,M,M,M,M,M,M,M,M,M,87.56,KHTH 280055Z AUTO 34009KT 10SM CLR 34/M04 A2984 RMK A01,M
TMT,2022-08-28 00:55,-117.1971,39.4643,1749.34,M,M,M,290.00,11.00,0.00,29.99,M,10.00,M,CLR,M,M,M,M,M,M,M,M,M,M,M,M,M,M,M,KTMT 280055Z AUTO 29011KT 10SM CLR A2999 RMK AO2,M
LSV,2022-08-28 00:56,-115.0343,36.2362,570.00,104.20,34.20,8.97,200.00,16.00,0.00,29.65,1001.10,10.00,M,CLR,M,M,M,M,M,M,M,M,M,M,M,M,M,M,97.79,KLSV 280056Z AUTO 20016KT 10SM CLR 40/01 A2965 RMK AO2 SLP011 T04010012 $,M
INS,2022-08-28 00:56,-115.6733,36.5872,955.00,97.30,19.40,6.00,210.00,15.00,0.00,29.75,1002.00,10.00,M,CLR,M,M,M,M,M,M,M,M,M,M,M,M,M,M,90.41,KINS 280056Z AUTO 21015KT 10SM CLR 36/M07 A2975 RMK AO2 SLP020 T03631070 $,M
WMC,2022-08-28 00:56,-117.8072,40.9019,1315.00,90.00,24.10,9.17,270.00,10.00,0.00,29.86,1005.80,10.00,23.00,CLR,M,M,M,M,M,M,M,M,M,M,M,M,M,M,85.12,KWMC 280056Z AUTO 27010G23KT 10SM CLR 32/M04 A2986 RMK AO2 SLP058 T03221044,M
TPH,2022-08-28 00:56,-117.0904,38.0505,1654.00,89.00,30.90,12.48,280.00,12.00,0.00,29.93,1004.80,10.00,16.00,CLR,M,M,M,M,M,M,M,M,M,M,M,M,M,M,85.04,KTPH 280056Z AUTO 28012G16KT 10SM CLR 32/M01 A2993 RMK AO2 SLP048 T03171006,M
EKO,2022-08-28 00:56,-115.7860,40.8242,1367.00,81.00,19.90,10.24,270.00,16.00,0.00,29.89,1007.40,10.00,21.00,CLR,M,M,M,M,M,M,M,M,M,M,M,26.00,230.00,2022-08-28 00:04,78.56,KEKO 280056Z AUTO 27016G21KT 10SM CLR 27/M07 A2989 RMK AO2 PK WND 23026/0004 SLP074 T02721067,M
LAS,2022-08-28 00:56,-115.1634,36.0719,663.00,101.00,33.00,9.48,230.00,9.00,0.00,29.70,1002.30,10.00,M,FEW,M,M,M,12000.00,M,M,M,M,M,M,M,M,M,M,94.79,KLAS 280056Z 23009KT 180V250 10SM FEW120 38/01 A2970 RMK AO2 SLP023 T03830006,M
BAM,2022-08-28 01:15,-116.8743,40.5990,1382.36,87.80,21.20,8.70,220.00,6.00,0.00,29.88,M,10.00,10.00,CLR,M,M,M,M,M,M,M,M,M,M,M,M,M,M,83.33,KBAM 280115Z AUTO 22006G10KT 10SM CLR 31/M06 A2988 RMK AO1,M
HTH,2022-08-28 01:15,-118.6315,38.5448,1282.89,91.40,24.80,9.04,330.00,9.00,0.00,29.84,M,10.00,M,CLR,M,M,M,M,M,M,M,M,M,M,M,M,M,M,86.21,KHTH 280115Z AUTO 33009KT 10SM CLR 33/M04 A2984 RMK A01,M
TMT,2022-08-28 01:15,-117.1971,39.4643,1749.34,M,M,M,280.00,10.00,0.00,29.99,M,10.00,M,CLR,M,M,M,M,M,M,M,M,M,M,M,M,M,M,M,KTMT 280115Z AUTO 28010KT 10SM CLR A2999 RMK AO2,M
BVU,2022-08-28 01:15,-114.8611,35.9475,671.00,100.40,28.40,7.95,240.00,14.00,0.00,29.70,M,M,M,M,M,M,M,M,M,M,M,M,M,M,M,M,M,M,93.77,KBVU 280115Z AUTO 24014KT 38/M02 A2970 RMK AO2 PWINO TSNO,M
CXP,2022-08-28 01:15,-119.7326,39.1923,1431.00,84.20,35.60,17.61,270.00,12.00,0.00,29.94,M,10.00,18.00,CLR,M,M,M,M,M,M,M,M,M,M,M,M,M,M,81.34,KCXP 280115Z AUTO 27012G18KT 10SM CLR 29/02 A2994 RMK AO2,M
RTS,2022-08-28 01:15,-119.8764,39.6682,1539.00,82.40,28.40,13.96,290.00,15.00,0.00,29.96,M,10.00,21.00,CLR,M,M,M,M,M,M,M,M,M,M,M,M,M,M,79.94,KRTS 280115Z AUTO 29015G21KT 10SM CLR 28/M02 A2996 RMK AO2,M
MEV,2022-08-28 01:15,-119.7500,38.9963,1441.42,84.20,32.00,15.25,260.00,12.00,0.00,29.93,M,10.00,M,CLR,M,M,M,M,M,M,M,M,M,M,M,M,M,M,81.28,KMEV 280115Z AUTO 26012KT 10SM CLR 29/00 A2993 RMK AO2,M
BAM,2022-08-28 01:35,-116.8743,40.5990,1382.36,87.80,21.20,8.70,300.00,7.00,0.00,29.88,M,10.00,M,CLR,M,M,M,M,M,M,M,M,M,M,M,M,M,M,83.33,KBAM 280135Z AUTO 30007KT 10SM CLR 31/M06 A2988 RMK AO1,M
BVU,2022-08-28 01:35,-114.8611,35.9475,671.00,100.40,28.40,7.95,240.00,11.00,0.00,29.70,M,M,17.00,M,M,M,M,M,M,M,M,M,M,M,M,M,M,M,93.77,KBVU 280135Z AUTO 24011G17KT 38/M02 A2970 RMK AO2 PWINO TSNO,M
CXP,2022-08-28 01:35,-119.7326,39.1923,1431.00,84.20,35.60,17.61,270.00,12.00,0.00,29.94,M,10.00,20.00,CLR,M,M,M,M,M,M,M,M,M,M,M,M,M,M,81.34,KCXP 280135Z AUTO 27012G20KT 10SM CLR 29/02 A2994 RMK AO2,M
RTS,2022-08-28 01:35,-119.8764,39.6682,1539.00,82.40,30.20,15.03,290.00,16.00,0.00,29.96,M,10.00,M,CLR,M,M,M,M,M,M,M,M,M,M,M,M,M,M,79.97,KRTS 280135Z AUTO 29016KT 10SM CLR 28/M01 A2996 RMK AO2,M
MEV,2022-08-28 01:35,-119.7500,38.9963,1441.42,82.40,33.80,17.38,290.00,15.00,0.00,29.93,M,10.00,M,CLR,M,M,M,M,M,M,M,M,M,M,M,M,M,M,80.03,KMEV 280135Z AUTO 29015KT 10SM CLR 28/01 A2993 RMK AO2,M
HTH,2022-08-28 01:35,-118.6315,38.5448,1282.89,91.40,26.60,9.74,320.00,10.00,0.00,29.84,M,10.00,M,CLR,M,M,M,M,M,M,M,M,M,M,M,M,M,M,86.36,KHTH 280135Z AUTO 32010KT 10SM CLR 33/M03 A2984 RMK A01,M
TMT,2022-08-28 01:35,-117.1971,39.4643,1749.34,M,M,M,260.00,7.00,0.00,29.99,M,10.00,M,CLR,M,M,M,M,M,M,M,M,M,M,M,M,M,M,M,KTMT 280135Z AUTO 26007KT 10SM CLR A2999 RMK AO2,M
VGT,2022-08-28 01:53,-115.1933,36.2111,667.00,102.00,36.00,10.29,210.00,12.00,0.00,29.67,1003.10,10.00,M,CLR,M,M,M,M,M,M,M,M,M,M,M,M,M,M,96.20,KVGT 280153Z 21012KT 10SM CLR 39/02 A2967 RMK AO2 SLP031 T03890022,M
LOL,2022-08-28 01:53,-118.5701,40.0684,1192.43,91.00,28.90,10.84,290.00,10.00,0.00,29.81,1006.00,10.00,19.00,CLR,M,M,M,M,M,M,M,M,M,M,M,M,M,M,86.27,KLOL 280153Z AUTO 29010G19KT 10SM CLR 33/M02 A2981 RMK AO2 SLP060 T03281017,M
P68,2022-08-28 01:53,-116.0056,39.6014,1993.00,83.00,27.00,12.97,290.00,13.00,0.00,29.94,1005.40,M,19.00,M,M,M,M,M,M,M,M,M,M,M,M,M,M,M,80.28,KP68 280153Z AUTO 29013G19KT 28/M03 A2994 RMK AO1 SLP054 T02831028,M
DRA,2022-08-28 01:53,-116.0278,36.6206,1009.00,96.00,15.10,5.17,240.00,10.00,0.00,29.76,1002.40,10.00,M,CLR,M,M,M,M,M,M,M,M,M,M,M,M,M,M,89.16,KDRA 280153Z AUTO 24010KT 10SM CLR 36/M09 A2976 RMK AO2 SLP024 T03561094,M
ELY,2022-08-28 01:53,-114.8453,39.2950,1909.00,72.00,44.00,36.68,200.00,3.00,0.00,29.99,1006.40,10.00,M,CLR,M,M,M,M,M,M,M,M,M,M,M,M,M,M,72.00,KELY 280153Z AUTO 20003KT 10SM CLR 22/07 A2999 RMK AO2 SLP064 T02220067,M
BAM,2022-08-28 01:55,-116.8743,40.5990,1382.36,84.20,23.00,10.53,350.00,10.00,0.00,29.88,M,10.00,M,CLR,M,M,M,M,M,M,M,M,M,M,M,M,M,M,80.88,KBAM 280155Z AUTO 35010KT 10SM CLR 29/M05 A2988 RMK AO1,M
HTH,2022-08-28 01:55,-118.6315,38.5448,1282.89,89.60,26.60,10.30,310.00,7.00,0.00,29.85,M,10.00,M,CLR,M,M,M,M,M,M,M,M,M,M,M,M,M,M,85.02,KHTH 280155Z AUTO 31007KT 10SM CLR 32/M03 A2985 RMK A01,M
TMT,2022-08-28 01:55,-117.1971,39.4643,1749.34,M,M,M,280.00,10.00,0.00,29.99,M,10.00,M,CLR,M,M,M,M,M,M,M,M,M,M,M,M,M,M,M,KTMT 280155Z AUTO 28010KT 10SM CLR A2999 RMK AO2,M
RNO,2022-08-28 01:55,-119.7711,39.4839,1341.00,86.00,34.00,15.60,270.00,12.00,0.00,29.90,1006.80,10.00,24.00,FEW,M,M,M,15000.00,M,M,M,M,M,M,M,M,M,M,82.66,KRNO 280155Z 27012G24KT 10SM FEW150 30/01 A2990 RMK AO2 SLP068 T03000011,M
CXP,2022-08-28 01:55,-119.7326,39.1923,1431.00,82.40,35.60,18.67,260.00,9.00,0.00,29.94,M,10.00,20.00,CLR,M,M,M,M,M,M,M,M,M,M,M,M,M,M,80.08,KCXP 280155Z AUTO 26009G20KT 10SM CLR 28/02 A2994 RMK AO2,M
RTS,2022-08-28 01:55,-119.8764,39.6682,1539.00,80.60,32.00,17.14,280.00,13.00,0.00,29.97,M,10.00,18.00,CLR,M,M,M,M,M,M,M,M,M,M,M,M,M,M,78.82,KRTS 280155Z AUTO 28013G18KT 10SM CLR 27/M00 A2997 RMK AO2,M
BVU,2022-08-28 01:55,-114.8611,35.9475,671.00,98.60,30.20,9.04,210.00,12.00,0.00,29.70,M,M,18.00,M,M,M,M,M,M,M,M,M,M,M,M,M,M,M,92.46,KBVU 280155Z AUTO 21012G18KT 37/M01 A2970 RMK AO2 PWINO TSNO,M
MEV,2022-08-28 01:55,-119.7500,38.9963,1441.42,80.60,35.60,19.79,270.00,5.00,0.00,29.93,M,10.00,13.00,CLR,M,M,M,M,M,M,M,M,M,M,M,M,M,M,78.94,KMEV 280155Z AUTO 27005G13KT 10SM CLR 27/02 A2993 RMK AO2,M
WMC,2022-08-28 01:56,-117.8072,40.9019,1315.00,87.00,21.00,8.82,290.00,9.00,0.00,29.85,1005.70,10.00,M,CLR,M,M,M,M,M,M,M,M,M,M,M,M,M,M,82.81,KWMC 280156Z AUTO 29009KT 10SM CLR 31/M06 A2985 RMK AO2 SLP057 T03061061,M
TPH,2022-08-28 01:56,-117.0904,38.0505,1654.00,87.00,30.00,12.82,310.00,9.00,0.00,29.92,1004.90,10.00,M,CLR,M,M,M,M,M,M,M,M,M,M,M,M,M,M,83.48,KTPH 280156Z AUTO 31009KT 10SM CLR 31/M01 A2992 RMK AO2 SLP049 T03061011,M
LAS,2022-08-28 01:56,-115.1634,36.0719,663.00,100.00,36.00,10.93,210.00,6.00,0.00,29.69,1002.00,10.00,M,FEW,M,M,M,12000.00,M,M,M,M,M,M,M,M,M,M,94.48,KLAS 280156Z 21006KT 10SM FEW120 38/02 A2969 RMK AO2 SLP020 T03780022,M
EKO,2022-08-28 01:56,-115.7860,40.8242,1367.00,84.00,19.90,9.29,280.00,12.00,0.00,29.89,1006.70,10.00,M,CLR,M,M,M,M,M,M,M,M,M,M,M,M,M,M,80.57,KEKO 280156Z AUTO 28012KT 10SM CLR 29/M07 A2989 RMK AO2 SLP067 T02891067,M
LSV,2022-08-28 01:56,-115.0343,36.2362,570.00,102.20,32.70,8.97,210.00,12.00,0.00,29.64,1000.90,10.00,M,CLR,M,M,M,M,M,M,M,M,M,M,M,M,M,M,95.84,KLSV 280156Z AUTO 21012KT 10SM CLR 39/00 A2964 RMK AO2 SLP009 T03900004 $,M
INS,2022-08-28 01:56,-115.6733,36.5872,955.00,95.70,21.70,6.94,210.00,9.00,0.00,29.75,1002.20,10.00,M,CLR,M,M,M,M,M,M,M,M,M,M,M,M,M,M,89.24,KINS 280156Z AUTO 21009KT 10SM CLR 35/M06 A2975 RMK AO2 SLP022 T03541057 $,M
BVU,2022-08-28 02:15,-114.8611,35.9475,671.00,96.80,30.20,9.55,210.00,8.00,0.00,29.70,M,M,M,M,M,M,M,M,M,M,M,M,M,M,M,M,M,M,90.96,KBVU 280215Z AUTO 21008KT 36/M01 A2970 RMK AO2 PWINO TSNO,M
MEV,2022-08-28 02:15,-119.7500,38.9963,1441.42,78.80,37.40,22.54,270.00,6.00,0.00,29.93,M,10.00,11.00,CLR,M,M,M,M,M,M,M,M,M,M,M,M,M,M,78.80,KMEV 280215Z AUTO 27006G11KT 10SM CLR 26/03 A2993 RMK AO2,M
HTH,2022-08-28 02:15,-118.6315,38.5448,1282.89,87.80,30.20,12.64,300.00,8.00,0.00,29.85,M,10.00,M,CLR,M,M,M,M,M,M,M,M,M,M,M,M,M,M,84.01,KHTH 280215Z AUTO 30008KT 10SM CLR 31/M01 A2985 RMK A01,M
RTS,2022-08-28 02:15,-119.8764,39.6682,1539.00,78.80,30.20,16.90,280.00,11.00,0.00,29.97,M,10.00,M,CLR,M,M,M,M,M,M,M,M,M,M,M,M,M,M,78.80,KRTS 280215Z AUTO 28011KT 10SM CLR 26/M01 A2997 RMK AO2,M
CXP,2022-08-28 02:15,-119.7326,39.1923,1431.00,80.60,33.80,18.42,280.00,11.00,0.00,29.94,M,10.00,16.00,CLR,M,M,M,M,M,M,M,M,M,M,M,M,M,M,78.88,KCXP 280215Z AUTO 28011G16KT 10SM CLR 27/01 A2994 RMK AO2,M
TMT,2022-08-28 02:15,-117.1971,39.4643,1749.34,M,M,M,310.00,9.00,0.00,29.98,M,10.00,M,CLR,M,M,M,M,M,M,M,M,M,M,M,M,M,M,M,KTMT 280215Z AUTO 31009KT 10SM CLR A2998 RMK AO2,M
BAM,2022-08-28 02:15,-116.8743,40.5990,1382.36,82.40,24.80,12.03,340.00,7.00,0.00,29.88,M,10.00,M,CLR,M,M,M,M,M,M,M,M,M,M,M,M,M,M,79.79,KBAM 280215Z AUTO 34007KT 10SM CLR 28/M04 A2988 RMK AO1,M
CXP,2022-08-28 02:35,-119.7326,39.1923,1431.00,80.60,33.80,18.42,260.00,11.00,0.00,29.94,M,10.00,18.00,CLR,M,M,M,M,M,M,M,M,M,M,M,M,M,M,78.88,KCXP 280235Z AUTO 26011G18KT 230V290 10SM CLR 27/01 A2994 RMK AO2,M
MEV,2022-08-28 02:35,-119.7500,38.9963,1441.42,73.40,37.40,26.98,140.00,4.00,0.00,29.94,M,10.00,M,CLR,M,M,M,M,M,M,M,M,M,M,M,M,M,M,73.40,KMEV 280235Z AUTO 14004KT 10SM CLR 23/03 A2994 RMK AO2,M
BAM,2022-08-28 02:35,-116.8743,40.5990,1382.36,80.60,26.60,13.75,350.00,6.00,0.00,29.88,M,10.00,M,CLR,M,M,M,M,M,M,M,M,M,M,M,M,M,M,78.68,KBAM 280235Z AUTO 35006KT 10SM CLR 27/M03 A2988 RMK AO1,M
HTH,2022-08-28 02:35,-118.6315,38.5448,1282.89,87.80,30.20,12.64,320.00,9.00,0.00,29.85,M,10.00,M,CLR,M,M,M,M,M,M,M,M,M,M,M,M,M,M,84.01,KHTH 280235Z AUTO 32009KT 10SM CLR 31/M01 A2985 RMK A01,M
TMT,2022-08-28 02:35,-117.1971,39.4643,1749.34,M,M,M,320.00,5.00,0.00,29.99,M,10.00,M,CLR,M,M,M,M,M,M,M,M,M,M,M,M,M,M,M,KTMT 280235Z AUTO 32005KT 10SM CLR A2999 RMK AO2,M
RTS,2022-08-28 02:35,-119.8764,39.6682,1539.00,77.00,30.20,17.94,280.00,11.00,0.00,29.97,M,10.00,16.00,CLR,M,M,M,M,M,M,M,M,M,M,M,M,M,M,77.00,KRTS 280235Z AUTO 28011G16KT 10SM CLR 25/M01 A2997 RMK AO2,M
BVU,2022-08-28 02:35,-114.8611,35.9475,671.00,95.00,30.20,10.09,210.00,6.00,0.00,29.71,M,M,M,M,M,M,M,M,M,M,M,M,M,M,M,M,M,M,89.48,KBVU 280235Z AUTO 21006KT 35/M01 A2971 RMK AO2 PWINO TSNO,M
CXP,2022-08-28 02:50,-119.7326,39.1923,1431.00,78.80,33.80,19.55,280.00,8.00,0.00,29.94,M,10.00,13.00,CLR,M,M,M,M,M,M,M,M,M,M,M,M,M,M,78.80,KCXP 280250Z AUTO 28008G13KT 10SM CLR 26/01 A2994 RMK AO2,M
DRA,2022-08-28 02:53,-116.0278,36.6206,1009.00,90.00,19.00,7.39,250.00,4.00,0.00,29.76,1002.50,10.00,M,CLR,M,M,M,M,M,M,M,M,M,M,M,M,M,M,84.81,KDRA 280253Z AUTO 25004KT 10SM CLR 32/M07 A2976 RMK AO2 SLP025 T03221072 55002,M
P68,2022-08-28 02:53,-116.0056,39.6014,1993.00,76.00,25.00,15.02,320.00,8.00,0.00,29.97,1006.30,M,M,M,M,M,M,M,M,M,M,M,M,M,M,M,M,M,75.90,KP68 280253Z AUTO 32008KT 24/M04 A2997 RMK AO1 SLP063 T02441039 53006,M
VGT,2022-08-28 02:53,-115.1933,36.2111,667.00,100.00,36.00,10.93,200.00,10.00,0.00,29.68,1003.50,10.00,M,CLR,M,M,M,M,M,M,M,M,M,M,M,M,M,M,94.48,KVGT 280253Z 20010KT 10SM CLR 38/02 A2968 RMK AO2 SLP035 T03780022 55002,M
LOL,2022-08-28 02:53,-118.5701,40.0684,1192.43,84.00,27.00,12.52,290.00,8.00,0.00,29.82,1005.80,10.00,M,CLR,M,M,M,M,M,M,M,M,M,M,M,M,M,M,81.03,KLOL 280253Z AUTO 29008KT 10SM CLR 29/M03 A2982 RMK AO2 SLP058 T02891028 55004,M
ELY,2022-08-28 02:53,-114.8453,39.2950,1909.00,66.00,44.00,45.05,180.00,9.00,0.00,29.99,1006.00,10.00,M,FEW,M,M,M,12000.00,M,M,M,M,M,M,M,M,M,M,66.00,KELY 280253Z AUTO 18009KT 10SM FEW120 19/07 A2999 RMK AO2 SLP060 T01890067 55007,M
BVU,2022-08-28 02:55,-114.8611,35.9475,671.00,95.00,30.20,10.09,190.00,4.00,0.00,29.71,M,M,M,M,M,M,M,M,M,M,M,M,M,M,M,M,M,M,89.48,KBVU 280255Z AUTO 19004KT 35/M01 A2971 RMK AO2 PWINO TSNO,M
TMT,2022-08-28 02:55,-117.1971,39.4643,1749.34,M,M,M,340.00,6.00,0.00,29.99,M,10.00,M,CLR,M,M,M,M,M,M,M,M,M,M,M,M,M,M,M,KTMT 280255Z AUTO 34006KT 10SM CLR A2999 RMK AO2,M
HTH,2022-08-28 02:55,-118.6315,38.5448,1282.89,86.00,26.60,11.55,0.00,0.00,0.00,29.86,M,10.00,13.00,CLR,M,M,M,M,M,M,M,M,M,M,M,M,M,M,82.39,KHTH 280255Z AUTO 00000G13KT 10SM CLR 30/M03 A2986 RMK A01,M
RNO,2022-08-28 02:55,-119.7711,39.4839,1341.00,82.00,37.00,19.99,280.00,15.00,0.00,29.89,1006.80,10.00,M,FEW,M,M,M,10000.00,M,M,M,M,M,M,M,M,M,M,79.86,KRNO 280255Z 28015KT 10SM FEW100 28/03 A2989 RMK AO2 SLP068 T02780028 50001,M
RTS,2022-08-28 02:55,-119.8764,39.6682,1539.00,75.20,30.20,19.05,280.00,11.00,0.00,29.97,M,10.00,M,CLR,M,M,M,M,M,M,M,M,M,M,M,M,M,M,75.20,KRTS 280255Z AUTO 28011KT 10SM CLR 24/M01 A2997 RMK AO2,M
MEV,2022-08-28 02:55,-119.7500,38.9963,1441.42,73.40,37.40,26.98,140.00,7.00,0.00,29.94,M,10.00,M,CLR,M,M,M,M,M,M,M,M,M,M,M,M,M,M,73.40,KMEV 280255Z AUTO 14007KT 10SM CLR 23/03 A2994 RMK AO2,M
BAM,2022-08-28 02:55,-116.8743,40.5990,1382.36,78.80,26.60,14.59,350.00,4.00,0.00,29.88,M,10.00,M,CLR,M,M,M,M,M,M,M,M,M,M,M,M,M,M,78.80,KBAM 280255Z AUTO 35004KT 10SM CLR 26/M03 A2988 RMK AO1,M
WMC,2022-08-28 02:56,-117.8072,40.9019,1315.00,77.00,21.00,12.24,300.00,7.00,0.00,29.85,1005.80,10.00,M,CLR,M,M,M,M,M,M,M,M,M,M,M,M,M,M,77.00,KWMC 280256Z AUTO 30007KT 10SM CLR 25/M06 A2985 RMK AO2 SLP058 T02501061 56005,M
TPH,2022-08-28 02:56,-117.0904,38.0505,1654.00,82.00,30.90,15.66,290.00,4.00,0.00,29.93,1004.90,10.00,M,CLR,M,M,M,M,M,M,M,M,M,M,M,M,M,M,79.70,KTPH 280256Z AUTO 29004KT 10SM CLR 28/M01 A2993 RMK AO2 SLP049 T02781006 55003,M
LAS,2022-08-28 02:56,-115.1634,36.0719,663.00,98.00,37.00,12.05,180.00,4.00,0.00,29.70,1002.30,10.00,M,FEW,M,M,M,12000.00,M,M,M,M,M,M,M,M,M,M,93.05,KLAS 280256Z 18004KT 10SM FEW120 37/03 A2970 RMK AO2 SLP023 T03670028 55002,M
INS,2022-08-28 02:56,-115.6733,36.5872,955.00,92.00,22.30,7.96,190.00,5.00,0.00,29.76,1002.50,10.00,M,CLR,M,M,M,M,M,M,M,M,M,M,M,M,M,M,86.55,KINS 280256Z AUTO 19005KT 10SM CLR 33/M05 A2976 RMK AO2 SLP025 T03341054 55002 $,M
LSV,2022-08-28 02:56,-115.0343,36.2362,570.00,97.70,36.50,11.96,190.00,7.00,0.00,29.66,1001.50,10.00,M,CLR,M,M,M,M,M,M,M,M,M,M,M,M,M,M,92.63,KLSV 280256Z AUTO 19007KT 10SM CLR 37/03 A2966 RMK AO2 SLP015 T03650025 55000 $,M
EKO,2022-08-28 02:56,-115.7860,40.8242,1367.00,71.00,19.00,13.71,330.00,7.00,0.00,29.90,1007.70,10.00,M,CLR,M,M,M,M,M,M,M,M,M,M,M,M,M,M,71.10,KEKO 280256Z AUTO 33007KT 10SM CLR 22/M07 A2990 RMK AO2 SLP077 T02171072 53002,M
BAM,2022-08-28 03:15,-116.8743,40.5990,1382.36,73.40,26.60,17.46,220.00,3.00,0.00,29.89,M,10.00,M,CLR,M,M,M,M,M,M,M,M,M,M,M,M,M,M,73.40,KBAM 280315Z AUTO 22003KT 10SM CLR 23/M03 A2989 RMK AO1,M
HTH,2022-08-28 03:15,-118.6315,38.5448,1282.89,86.00,26.60,11.55,320.00,14.00,0.00,29.86,M,10.00,24.00,CLR,M,M,M,M,M,M,M,M,M,M,M,M,M,M,82.39,KHTH 280315Z AUTO 32014G24KT 10SM CLR 30/M03 A2986 RMK A01,M
BVU,2022-08-28 03:15,-114.8611,35.9475,671.00,93.20,30.20,10.67,170.00,4.00,0.00,29.71,M,M,M,M,M,M,M,M,M,M,M,M,M,M,M,M,M,M,88.09,KBVU 280315Z AUTO 17004KT 34/M01 A2971 RMK AO2 PWINO TSNO,M
TMT,2022-08-28 03:15,-117.1971,39.4643,1749.34,M,M,M,0.00,0.00,0.00,29.99,M,10.00,M,CLR,M,M,M,M,M,M,M,M,M,M,M,M,M,M,M,KTMT 280315Z AUTO 00000KT 10SM CLR A2999 RMK AO2,M
CXP,2022-08-28 03:15,-119.7326,39.1923,1431.00,77.00,33.80,20.74,0.00,0.00,0.00,29.95,M,10.00,M,CLR,M,M,M,M,M,M,M,M,M,M,M,M,M,M,77.00,KCXP 280315Z AUTO 00000KT 10SM CLR 25/01 A2995 RMK AO2,M
RTS,2022-08-28 03:15,-119.8764,39.6682,1539.00,73.40,32.00,21.76,290.00,8.00,0.00,29.98,M,10.00,M,CLR,M,M,M,M,M,M,M,M,M,M,M,M,M,M,73.40,KRTS 280315Z AUTO 29008KT 10SM CLR 23/00 A2998 RMK AO2,M
MEV,2022-08-28 03:15,-119.7500,38.9963,1441.42,77.00,37.40,23.93,0.00,0.00,0.00,29.95,M,10.00,17.00,CLR,M,M,M,M,M,M,M,M,M,M,M,M,M,M,77.00,KMEV 280315Z AUTO 00000G17KT 10SM CLR 25/03 A2995 RMK AO2,M
BVU,2022-08-28 03:35,-114.8611,35.9475,671.00,93.20,33.80,12.34,0.00,0.00,0.00,29.72,M,M,M,M,M,M,M,M,M,M,M,M,M,M,M,M,M,M,88.55,KBVU 280335Z AUTO 00000KT 34/01 A2972 RMK AO2 PWINO TSNO,M
CXP,2022-08-28 03:35,-119.7326,39.1923,1431.00,77.00,33.80,20.74,310.00,6.00,0.00,29.96,M,10.00,M,CLR,M,M,M,M,M,M,M,M,M,M,M,M,M,M,77.00,KCXP 280335Z AUTO 31006KT 10SM CLR 25/01 A2996 RMK AO2,M
RTS,2022-08-28 03:35,-119.8764,39.6682,1539.00,71.60,32.00,23.13,300.00,7.00,0.00,29.99,M,10.00,M,CLR,M,M,M,M,M,M,M,M,M,M,M,M,M,M,71.60,KRTS 280335Z AUTO 30007KT 10SM CLR 22/00 A2999 RMK AO2,M
MEV,2022-08-28 03:35,-119.7500,38.9963,1441.42,75.20,37.40,25.40,260.00,6.00,0.00,29.95,M,10.00,M,CLR,M,M,M,M,M,M,M,M,M,M,M,M,M,M,75.20,KMEV 280335Z AUTO 26006KT 10SM CLR 24/03 A2995 RMK AO2,M
BAM,2022-08-28 03:35,-116.8743,40.5990,1382.36,73.40,23.00,15.03,180.00,6.00,0.00,29.89,M,10.00,M,CLR,M,M,M,M,M,M,M,M,M,M,M,M,M,M,73.40,KBAM 280335Z AUTO 18006KT 10SM CLR 23/M05 A2989 RMK AO1,M
HTH,2022-08-28 03:35,-118.6315,38.5448,1282.89,84.20,28.40,13.18,M,M,0.00,29.87,M,10.00,M,CLR,M,M,M,M,M,M,M,M,M,M,M,M,M,M,81.25,KHTH 280335Z AUTO 8.52000009KT 10SM CLR 29/M02 A2987 RMK A01,M
TMT,2022-08-28 03:35,-117.1971,39.4643,1749.34,M,M,M,0.00,0.00,0.00,30.00,M,10.00,M,CLR,M,M,M,M,M,M,M,M,M,M,M,M,M,M,M,KTMT 280335Z AUTO 00000KT 10SM CLR A3000 RMK AO2,M
LOL,2022-08-28 03:53,-118.5701,40.0684,1192.43,80.00,25.00,13.08,330.00,10.00,0.00,29.84,1006.20,10.00,M,CLR,M,M,M,M,M,M,M,M,M,M,M,M,M,M,78.42,KLOL 280353Z AUTO 33010KT 10SM CLR 27/M04 A2984 RMK AO2 SLP062 T02671039,M
VGT,2022-08-28 03:53,-115.1933,36.2111,667.00,98.00,38.00,12.48,200.00,9.00,0.00,29.70,1004.00,10.00,M,CLR,M,M,M,M,M,M,M,M,M,M,M,M,M,M,93.22,KVGT 280353Z AUTO 20009KT 10SM CLR 37/03 A2970 RMK AO2 SLP040 T03670033,M
ELY,2022-08-28 03:53,-114.8453,39.2950,1909.00,65.00,45.00,48.44,190.00,4.00,0.00,30.01,1005.90,10.00,M,SCT,M,M,M,12000.00,M,M,M,M,M,M,M,M,M,M,64.90,KELY 280353Z AUTO 19004KT 10SM SCT120 18/07 A3001 RMK AO2 SLP059 T01830072,M
P68,2022-08-28 03:53,-116.0056,39.6014,1993.00,65.00,30.90,27.85,150.00,5.00,0.00,30.01,1007.80,M,M,M,M,M,M,M,M,M,M,M,M,M,M,M,M,M,64.90,KP68 280353Z AUTO 15005KT 18/M01 A3001 RMK AO1 SLP078 T01831006,M
DRA,2022-08-28 03:53,-116.0278,36.6206,1009.00,86.00,24.10,10.41,160.00,4.00,0.00,29.78,1003.00,10.00,M,CLR,M,M,M,M,M,M,M,M,M,M,M,M,M,M,82.21,KDRA 280353Z AUTO 16004KT 10SM CLR 30/M04 A2978 RMK AO2 SLP030 T03001044,M
BVU,2022-08-28 03:55,-114.8611,35.9475,671.00,91.40,35.60,14.02,0.00,0.00,0.00,29.73,M,M,M,M,M,M,M,M,M,M,M,M,M,M,M,M,M,M,87.17,KBVU 280355Z AUTO 00000KT 33/02 A2973 RMK AO2 PWINO TSNO,M
TMT,2022-08-28 03:55,-117.1971,39.4643,1749.34,M,M,M,120.00,3.00,0.00,30.01,M,10.00,M,CLR,M,M,M,M,M,M,M,M,M,M,M,M,M,M,M,KTMT 280355Z AUTO 12003KT 10SM CLR A3001 RMK AO2,M
BAM,2022-08-28 03:55,-116.8743,40.5990,1382.36,71.60,23.00,15.97,160.00,4.00,0.00,29.90,M,10.00,M,CLR,M,M,M,M,M,M,M,M,M,M,M,M,M,M,71.60,KBAM 280355Z AUTO 16004KT 10SM CLR 22/M05 A2990 RMK AO1,M
MEV,2022-08-28 03:55,-119.7500,38.9963,1441.42,73.40,35.60,25.13,280.00,4.00,0.00,29.95,M,10.00,M,CLR,M,M,M,M,M,M,M,M,M,M,M,M,M,M,73.40,KMEV 280355Z AUTO 28004KT 10SM CLR 23/02 A2995 RMK AO2,M
RTS,2022-08-28 03:55,-119.8764,39.6682,1539.00,68.00,32.00,26.15,260.00,7.00,0.00,30.00,M,10.00,M,CLR,M,M,M,M,M,M,M,M,M,M,M,M,M,M,68.00,KRTS 280355Z AUTO 26007KT 10SM CLR 20/00 A3000 RMK AO2,M
RNO,2022-08-28 03:55,-119.7711,39.4839,1341.00,80.00,37.00,21.27,280.00,11.00,0.00,29.93,1007.60,10.00,M,CLR,M,M,M,M,M,M,M,M,M,M,M,M,M,M,78.81,KRNO 280355Z 28011KT 10SM CLR 27/03 A2993 RMK AO2 SLP076 T02670028,M
CXP,2022-08-28 03:55,-119.7326,39.1923,1431.00,73.40,33.80,23.39,0.00,0.00,0.00,29.97,M,10.00,M,CLR,M,M,M,M,M,M,M,M,M,M,M,M,M,M,73.40,KCXP 280355Z AUTO 00000KT 10SM CLR 23/01 A2997 RMK AO2,M
HTH,2022-08-28 03:55,-118.6315,38.5448,1282.89,84.20,28.40,13.18,310.00,6.00,0.00,29.88,M,10.00,M,CLR,M,M,M,M,M,M,M,M,M,M,M,M,M,M,81.25,KHTH 280355Z AUTO 31006KT 10SM CLR 29/M02 A2988 RMK A01,M
WMC,2022-08-28 03:56,-117.8072,40.9019,1315.00,69.00,21.90,16.60,170.00,3.00,0.00,29.87,1006.40,10.00,M,CLR,M,M,M,M,M,M,M,M,M,M,M,M,M,M,69.10,KWMC 280356Z AUTO 17003KT 10SM CLR 21/M06 A2987 RMK AO2 SLP064 T02061056,M
LAS,2022-08-28 03:56,-115.1634,36.0719,663.00,95.00,38.00,13.73,180.00,5.00,0.00,29.71,1002.80,10.00,M,CLR,M,M,M,M,M,M,M,M,M,M,M,M,M,M,90.48,KLAS 280356Z 18005KT 10SM CLR 35/03 A2971 RMK AO2 SLP028 T03500033,M
EKO,2022-08-28 03:56,-115.7860,40.8242,1367.00,68.00,19.90,15.84,310.00,5.00,0.00,29.92,1007.70,10.00,M,CLR,M,M,M,M,M,M,M,M,M,M,M,M,M,M,68.00,KEKO 280356Z AUTO 31005KT 10SM CLR 20/M07 A2992 RMK AO2 SLP077 T02001067,M
INS,2022-08-28 03:56,-115.6733,36.5872,955.00,89.80,23.40,8.96,180.00,4.00,0.00,29.77,1002.70,10.00,M,CLR,M,M,M,M,M,M,M,M,M,M,M,M,M,M,84.93,KINS 280356Z AUTO 18004KT 10SM CLR 32/M05 A2977 RMK AO2 SLP027 T03211048 $,M
TPH,2022-08-28 03:56,-117.0904,38.0505,1654.00,77.00,30.90,18.46,360.00,5.00,0.00,29.94,1005.20,10.00,M,CLR,M,M,M,M,M,M,M,M,M,M,M,M,M,M,77.00,KTPH 280356Z AUTO 36005KT 10SM CLR 25/M01 A2994 RMK AO2 SLP052 T02501006,M
LSV,2022-08-28 03:56,-115.0343,36.2362,570.00,95.40,36.70,12.93,180.00,8.00,0.00,29.67,1001.80,10.00,M,CLR,M,M,M,M,M,M,M,M,M,M,M,M,M,M,90.77,KLSV 280356Z AUTO 18008KT 10SM CLR 35/03 A2967 RMK AO2 SLP018 T03520026 $,M
BVU,2022-08-28 04:15,-114.8611,35.9475,671.00,86.00,42.80,22.02,0.00,0.00,0.00,29.73,M,M,M,M,M,M,M,M,M,M,M,M,M,M,M,M,M,M,82.95,KBVU 280415Z AUTO 00000KT 30/06 A2973 RMK AO2 PWINO TSNO,M
CXP,2022-08-28 04:15,-119.7326,39.1923,1431.00,73.40,35.60,25.13,0.00,0.00,0.00,29.97,M,10.00,M,CLR,M,M,M,M,M,M,M,M,M,M,M,M,M,M,73.40,KCXP 280415Z AUTO 00000KT 10SM CLR 23/02 A2997 RMK AO2,M
RTS,2022-08-28 04:15,-119.8764,39.6682,1539.00,69.80,32.00,24.59,0.00,0.00,0.00,30.00,M,10.00,M,CLR,M,M,M,M,M,M,M,M,M,M,M,M,M,M,69.80,KRTS 280415Z AUTO 00000KT 10SM CLR 21/00 A3000 RMK AO2,M
MEV,2022-08-28 04:15,-119.7500,38.9963,1441.42,64.40,37.40,36.74,100.00,6.00,0.00,29.96,M,10.00,M,CLR,M,M,M,M,M,M,M,M,M,M,M,M,M,M,64.40,KMEV 280415Z AUTO 10006KT 10SM CLR 18/03 A2996 RMK AO2,M
TMT,2022-08-28 04:15,-117.1971,39.4643,1749.34,M,M,M,100.00,4.00,0.00,30.01,M,10.00,M,CLR,M,M,M,M,M,M,M,M,M,M,M,M,M,M,M,KTMT 280415Z AUTO 10004KT 10SM CLR A3001 RMK AO2 LTG DSNT E,M
HTH,2022-08-28 04:15,-118.6315,38.5448,1282.89,82.40,28.40,13.96,350.00,6.00,0.00,29.89,M,10.00,M,CLR,M,M,M,M,M,M,M,M,M,M,M,M,M,M,79.94,KHTH 280415Z AUTO 35006KT 10SM CLR 28/M02 A2989 RMK A01,M
BAM,2022-08-28 04:15,-116.8743,40.5990,1382.36,71.60,23.00,15.97,0.00,0.00,0.00,29.91,M,10.00,M,CLR,M,M,M,M,M,M,M,M,M,M,M,M,M,M,71.60,KBAM 280415Z AUTO 00000KT 10SM CLR 22/M05 A2991 RMK AO1,M
MEV,2022-08-28 04:35,-119.7500,38.9963,1441.42,66.20,37.40,34.51,50.00,3.00,0.00,29.97,M,10.00,M,CLR,M,M,M,M,M,M,M,M,M,M,M,M,M,M,66.20,KMEV 280435Z AUTO 05003KT 10SM CLR 19/03 A2997 RMK AO2,M
BAM,2022-08-28 04:35,-116.8743,40.5990,1382.36,68.00,23.00,18.06,110.00,3.00,0.00,29.91,M,10.00,M,CLR,M,M,M,M,M,M,M,M,M,M,M,M,M,M,68.00,KBAM 280435Z AUTO 11003KT 10SM CLR 20/M05 A2991 RMK AO1,M
HTH,2022-08-28 04:35,-118.6315,38.5448,1282.89,82.40,32.00,16.17,360.00,13.00,0.00,29.90,M,10.00,M,CLR,M,M,M,M,M,M,M,M,M,M,M,M,M,M,80.00,KHTH 280435Z AUTO 36013KT 10SM CLR 28/M00 A2990 RMK A01,M
TMT,2022-08-28 04:35,-117.1971,39.4643,1749.34,M,M,M,140.00,6.00,0.00,30.02,M,10.00,M,CLR,M,M,M,M,M,M,M,M,M,M,M,M,M,M,M,KTMT 280435Z AUTO 14006KT 10SM CLR A3002 RMK AO2,M
BVU,2022-08-28 04:35,-114.8611,35.9475,671.00,84.20,44.60,24.99,350.00,4.00,0.00,29.73,M,M,M,M,M,M,M,M,M,M,M,M,M,M,M,M,M,M,81.73,KBVU 280435Z AUTO 35004KT 29/07 A2973 RMK AO2 PWINO TSNO,M
CXP,2022-08-28 04:35,-119.7326,39.1923,1431.00,75.20,37.40,25.40,M,4.00,0.00,29.98,M,10.00,M,CLR,M,M,M,M,M,M,M,M,M,M,M,M,M,M,75.20,KCXP 280435Z AUTO VRB04KT 10SM CLR 24/03 A2998 RMK AO2,M
RTS,2022-08-28 04:35,-119.8764,39.6682,1539.00,69.80,32.00,24.59,270.00,4.00,0.00,30.01,M,10.00,M,CLR,M,M,M,M,M,M,M,M,M,M,M,M,M,M,69.80,KRTS 280435Z AUTO 27004KT 10SM CLR 21/00 A3001 RMK AO2,M
DRA,2022-08-28 04:53,-116.0278,36.6206,1009.00,89.00,37.00,15.92,210.00,12.00,0.00,29.80,1003.10,10.00,17.00,CLR,M,M,M,M,M,M,M,M,M,M,M,M,M,M,85.23,KDRA 280453Z AUTO 21012G17KT 10SM CLR 32/03 A2980 RMK AO2 SLP031 T03170028,M
P68,2022-08-28 04:53,-116.0056,39.6014,1993.00,65.00,27.00,23.75,170.00,5.00,0.00,30.01,1007.70,M,M,M,M,M,M,M,M,M,M,M,M,M,M,M,M,M,64.90,KP68 280453Z AUTO 17005KT 18/M03 A3001 RMK AO1 SLP077 T01831028,M
LOL,2022-08-28 04:53,-118.5701,40.0684,1192.43,79.00,23.00,12.47,220.00,3.00,0.00,29.86,1006.40,10.00,M,CLR,M,M,M,M,M,M,M,M,M,M,M,M,M,M,79.00,KLOL 280453Z AUTO 22003KT 10SM CLR 26/M05 A2986 RMK AO2 SLP064 T02611050,M
VGT,2022-08-28 04:53,-115.1933,36.2111,667.00,95.00,36.00,12.73,220.00,5.00,0.00,29.71,1004.50,10.00,M,CLR,M,M,M,M,M,M,M,M,M,M,M,M,M,M,90.32,KVGT 280453Z AUTO 22005KT 10SM CLR 35/02 A2971 RMK AO2 SLP045 T03500022,M
ELY,2022-08-28 04:53,-114.8453,39.2950,1909.00,64.00,43.00,46.32,180.00,9.00,0.00,30.01,1005.60,10.00,M,CLR,M,M,M,M,M,M,M,M,M,M,M,M,M,M,64.00,KELY 280453Z AUTO 18009KT 10SM CLR 18/06 A3001 RMK AO2 SLP056 T01780061,M
CXP,2022-08-28 04:55,-119.7326,39.1923,1431.00,71.60,35.60,26.71,100.00,3.00,0.00,29.98,M,10.00,M,CLR,M,M,M,M,M,M,M,M,M,M,M,M,M,M,71.60,KCXP 280455Z AUTO 10003KT 10SM CLR 22/02 A2998 RMK AO2,M
BVU,2022-08-28 04:55,-114.8611,35.9475,671.00,86.00,42.80,22.02,310.00,4.00,0.00,29.74,M,M,M,M,M,M,M,M,M,M,M,M,M,M,M,M,M,M,82.95,KBVU 280455Z AUTO 31004KT 30/06 A2974 RMK AO2 PWINO TSNO,M
RNO,2022-08-28 04:55,-119.7711,39.4839,1341.00,77.00,37.00,23.55,330.00,5.00,0.00,29.95,1008.10,10.00,M,CLR,M,M,M,M,M,M,M,M,M,M,M,M,M,M,77.00,KRNO 280455Z 33005KT 10SM CLR 25/03 A2995 RMK AO2 SLP081 T02500028,M
RTS,2022-08-28 04:55,-119.8764,39.6682,1539.00,68.00,32.00,26.15,290.00,8.00,0.00,30.01,M,10.00,M,CLR,M,M,M,M,M,M,M,M,M,M,M,M,M,M,68.00,KRTS 280455Z AUTO 29008KT 10SM CLR 20/00 A3001 RMK AO2,M
MEV,2022-08-28 04:55,-119.7500,38.9963,1441.42,64.40,39.20,39.43,70.00,3.00,0.00,29.97,M,10.00,M,CLR,M,M,M,M,M,M,M,M,M,M,M,M,M,M,64.40,KMEV 280455Z AUTO 07003KT 10SM CLR 18/04 A2997 RMK AO2,M
BAM,2022-08-28 04:55,-116.8743,40.5990,1382.36,68.00,23.00,18.06,130.00,6.00,0.00,29.91,M,10.00,M,CLR,M,M,M,M,M,M,M,M,M,M,M,M,M,M,68.00,KBAM 280455Z AUTO 13006KT 10SM CLR 20/M05 A2991 RMK AO1,M
HTH,2022-08-28 04:55,-118.6315,38.5448,1282.89,82.40,30.20,15.03,360.00,12.00,0.00,29.90,M,10.00,M,CLR,M,M,M,M,M,M,M,M,M,M,M,M,M,M,79.97,KHTH 280455Z AUTO 36012KT 10SM CLR 28/M01 A2990 RMK A01,M
TMT,2022-08-28 04:55,-117.1971,39.4643,1749.34,M,M,M,150.00,6.00,0.00,30.02,M,10.00,M,CLR,M,M,M,M,M,M,M,M,M,M,M,M,M,M,M,KTMT 280455Z AUTO 15006KT 10SM CLR A3002 RMK AO2,M
LSV,2022-08-28 04:56,-115.0343,36.2362,570.00,93.20,38.70,14.97,220.00,6.00,0.00,29.68,1002.20,10.00,M,CLR,M,M,M,M,M,M,M,M,M,M,M,M,M,M,88.89,KLSV 280456Z AUTO 22006KT 10SM CLR 34/04 A2968 RMK AO2 SLP022 T03400037 $,M
EKO,2022-08-28 04:56,-115.7860,40.8242,1367.00,63.00,21.00,19.75,270.00,6.00,0.00,29.93,1008.00,10.00,M,CLR,M,M,M,M,M,M,M,M,M,M,M,M,M,M,63.00,KEKO 280456Z AUTO 27006KT 10SM CLR 17/M06 A2993 RMK AO2 SLP080 T01721061,M
LAS,2022-08-28 04:56,-115.1634,36.0719,663.00,93.00,39.00,15.24,180.00,6.00,0.00,29.72,1003.20,10.00,M,CLR,M,M,M,M,M,M,M,M,M,M,M,M,M,M,88.73,KLAS 280456Z 18006KT 10SM CLR 34/04 A2972 RMK AO2 SLP032 T03390039,M
INS,2022-08-28 04:56,-115.6733,36.5872,955.00,85.00,26.80,11.98,210.00,5.00,0.00,29.78,1002.90,10.00,M,CLR,M,M,M,M,M,M,M,M,M,M,M,M,M,M,81.77,KINS 280456Z AUTO 21005KT 10SM CLR 30/M03 A2978 RMK AO2 SLP029 T02951029 $,M
TPH,2022-08-28 04:56,-117.0904,38.0505,1654.00,74.00,33.00,22.37,60.00,4.00,0.00,29.95,1005.60,10.00,M,CLR,M,M,M,M,M,M,M,M,M,M,M,M,M,M,73.90,KTPH 280456Z AUTO 06004KT 10SM CLR 23/01 A2995 RMK AO2 SLP056 T02330006,M
WMC,2022-08-28 04:56,-117.8072,40.9019,1315.00,67.00,21.00,17.24,260.00,3.00,0.00,29.88,1006.60,10.00,M,CLR,M,M,M,M,M,M,M,M,M,M,M,M,M,M,66.90,KWMC 280456Z AUTO 26003KT 10SM CLR 19/M06 A2988 RMK AO2 SLP066 T01941061 $,M
BAM,2022-08-28 05:15,-116.8743,40.5990,1382.36,62.60,21.20,20.20,180.00,3.00,0.00,29.91,M,10.00,M,CLR,M,M,M,M,M,M,M,M,M,M,M,M,M,M,62.60,KBAM 280515Z AUTO 18003KT 10SM CLR 17/M06 A2991 RMK AO1,M
TMT,2022-08-28 05:15,-117.1971,39.4643,1749.34,M,M,M,200.00,4.00,0.00,30.02,M,10.00,M,CLR,M,M,M,M,M,M,M,M,M,M,M,M,M,M,M,KTMT 280515Z AUTO 20004KT 10SM CLR A3002 RMK AO2,M
HTH,2022-08-28 05:15,-118.6315,38.5448,1282.89,80.60,33.80,18.42,10.00,10.00,0.00,29.90,M,10.00,M,CLR,M,M,M,M,M,M,M,M,M,M,M,M,M,M,78.88,KHTH 280515Z AUTO 01010KT 10SM CLR 27/01 A2990 RMK A01,M
MEV,2022-08-28 05:15,-119.7500,38.9963,1441.42,60.80,37.40,41.71,80.00,6.00,0.00,29.97,M,10.00,M,CLR,M,M,M,M,M,M,M,M,M,M,M,M,M,M,60.80,KMEV 280515Z AUTO 08006KT 10SM CLR 16/03 A2997 RMK AO2,M
BVU,2022-08-28 05:15,-114.8611,35.9475,671.00,84.20,39.20,20.29,300.00,4.00,0.00,29.74,M,M,M,M,M,M,M,M,M,M,M,M,M,M,M,M,M,M,81.44,KBVU 280515Z AUTO 30004KT 29/04 A2974 RMK AO2 PWINO TSNO,M
CXP,2022-08-28 05:15,-119.7326,39.1923,1431.00,69.80,37.40,30.49,50.00,3.00,0.00,29.98,M,10.00,M,CLR,M,M,M,M,M,M,M,M,M,M,M,M,M,M,69.80,KCXP 280515Z AUTO 05003KT 10SM CLR 21/03 A2998 RMK AO2,M
RTS,2022-08-28 05:15,-119.8764,39.6682,1539.00,69.80,32.00,24.59,290.00,14.00,0.00,30.01,M,10.00,M,CLR,M,M,M,M,M,M,M,M,M,M,M,M,M,M,69.80,KRTS 280515Z AUTO 29014KT 10SM CLR 21/00 A3001 RMK AO2,M
CXP,2022-08-28 05:35,-119.7326,39.1923,1431.00,69.80,37.40,30.49,100.00,3.00,0.00,29.99,M,10.00,M,CLR,M,M,M,M,M,M,M,M,M,M,M,M,M,M,69.80,KCXP 280535Z AUTO 10003KT 10SM CLR 21/03 A2999 RMK AO2,M
RTS,2022-08-28 05:35,-119.8764,39.6682,1539.00,69.80,33.80,26.43,270.00,10.00,0.00,30.01,M,10.00,15.00,CLR,M,M,M,M,M,M,M,M,M,M,M,M,M,M,69.80,KRTS 280535Z AUTO 27010G15KT 10SM CLR 21/01 A3001 RMK AO2,M
MEV,2022-08-28 05:35,-119.7500,38.9963,1441.42,62.60,37.40,39.14,90.00,6.00,0.00,29.98,M,10.00,M,CLR,M,M,M,M,M,M,M,M,M,M,M,M,M,M,62.60,KMEV 280535Z AUTO 09006KT 10SM CLR 17/03 A2998 RMK AO2,M
BAM,2022-08-28 05:35,-116.8743,40.5990,1382.36,64.40,23.00,20.46,270.00,6.00,0.00,29.91,M,10.00,M,CLR,M,M,M,M,M,M,M,M,M,M,M,M,M,M,64.40,KBAM 280535Z AUTO 27006KT 10SM CLR 18/M05 A2991 RMK AO1,M
HTH,2022-08-28 05:35,-118.6315,38.5448,1282.89,80.60,33.80,18.42,350.00,12.00,0.00,29.90,M,10.00,17.00,CLR,M,M,M,M,M,M,M,M,M,M,M,M,M,M,78.88,KHTH 280535Z AUTO 35012G17KT 10SM CLR 27/01 A2990 RMK A01,M
TMT,2022-08-28 05:35,-117.1971,39.4643,1749.34,M,M,M,240.00,9.00,0.00,30.02,M,10.00,M,CLR,M,M,M,M,M,M,M,M,M,M,M,M,M,M,M,KTMT 280535Z AUTO 24009KT 10SM CLR A3002 RMK AO2,M
BVU,2022-08-28 05:35,-114.8611,35.9475,671.00,84.20,39.20,20.29,310.00,4.00,0.00,29.74,M,M,M,M,M,M,M,M,M,M,M,M,M,M,M,M,M,M,81.44,KBVU 280535Z AUTO 31004KT 29/04 A2974 RMK AO2 PWINO TSNO,M
CXP,2022-08-28 05:50,-119.7326,39.1923,1431.00,68.00,37.40,32.43,80.00,3.00,0.00,29.99,M,10.00,M,CLR,M,M,M,M,M,M,M,M,M,M,M,M,M,M,68.00,KCXP 280550Z AUTO 08003KT 10SM CLR 20/03 A2999 RMK AO2,M
P68,2022-08-28 05:53,-116.0056,39.6014,1993.00,59.00,28.00,30.48,180.00,4.00,0.00,30.02,1008.00,M,M,M,M,M,M,M,M,M,M,M,M,M,M,M,M,M,59.00,KP68 280553Z AUTO 18004KT 15/M02 A3002 RMK AO1 SLP080 T01501022 10306 20144 51014,M
VGT,2022-08-28 05:53,-115.1933,36.2111,667.00,92.00,37.00,14.58,350.00,4.00,0.00,29.72,1004.90,10.00,M,CLR,M,M,M,M,M,M,M,M,M,M,M,M,M,M,87.65,KVGT 280553Z AUTO 35004KT 10SM CLR 33/03 A2972 RMK AO2 SLP049 T03330028 10406 20333 51013,M
ELY,2022-08-28 05:53,-114.8453,39.2950,1909.00,67.00,40.00,37.14,110.00,6.00,0.00,30.03,1006.40,10.00,M,FEW,M,M,M,12000.00,M,M,M,M,M,M,M,M,M,M,66.90,KELY 280553Z AUTO 11006KT 10SM FEW120 19/04 A3003 RMK AO2 SLP064 T01940044 10272 20172 53011,M
DRA,2022-08-28 05:53,-116.0278,36.6206,1009.00,88.00,39.00,17.83,200.00,11.00,0.00,29.80,1003.10,10.00,M,CLR,M,M,M,M,M,M,M,M,M,M,M,M,M,M,84.38,KDRA 280553Z AUTO 20011KT 10SM CLR 31/04 A2980 RMK AO2 SLP031 T03110039 10378 20289 51013,M
LOL,2022-08-28 05:53,-118.5701,40.0684,1192.43,79.00,27.00,14.73,330.00,8.00,0.00,29.87,1006.70,10.00,M,CLR,M,M,M,M,M,M,M,M,M,M,M,M,M,M,79.00,KLOL 280553Z AUTO 33008KT 10SM CLR 26/M03 A2987 RMK AO2 SLP067 T02611028 10344 20228 51017,M
BVU,2022-08-28 05:55,-114.8611,35.9475,671.00,86.00,42.80,22.02,0.00,0.00,0.00,29.75,M,M,M,M,M,M,M,M,M,M,M,M,M,M,M,M,M,M,82.95,KBVU 280555Z AUTO 00000KT 30/06 A2975 RMK AO2 PWINO TSNO,M
RNO,2022-08-28 05:55,-119.7711,39.4839,1341.00,74.00,37.00,26.12,30.00,6.00,0.00,29.96,1008.40,10.00,M,CLR,M,M,M,M,M,M,M,M,M,M,M,M,M,M,73.90,KRNO 280555Z 03006KT 10SM CLR 23/03 A2996 RMK AO2 SLP084 T02330028 10328 20233 51020,M
RTS,2022-08-28 05:55,-119.8764,39.6682,1539.00,68.00,33.80,28.11,290.00,11.00,0.00,30.02,M,10.00,M,CLR,M,M,M,M,M,M,M,M,M,M,M,M,M,M,68.00,KRTS 280555Z AUTO 29011KT 10SM CLR 20/01 A3002 RMK AO2,M
MEV,2022-08-28 05:55,-119.7500,38.9963,1441.42,60.80,33.80,36.16,90.00,9.00,0.00,29.98,M,10.00,M,CLR,M,M,M,M,M,M,M,M,M,M,M,M,M,M,60.80,KMEV 280555Z AUTO 09009KT 10SM CLR 16/01 A2998 RMK AO2,M
BAM,2022-08-28 05:55,-116.8743,40.5990,1382.36,64.40,23.00,20.46,170.00,4.00,0.00,29.91,M,10.00,M,CLR,M,M,M,M,M,M,M,M,M,M,M,M,M,M,64.40,KBAM 280555Z AUTO 17004KT 10SM CLR 18/M05 A2991 RMK AO1,M
HTH,2022-08-28 05:55,-118.6315,38.5448,1282.89,78.80,33.80,19.55,320.00,4.00,0.00,29.91,M,10.00,M,CLR,M,M,M,M,M,M,M,M,M,M,M,M,M,M,78.80,KHTH 280555Z AUTO 32004KT 10SM CLR 26/01 A2991 RMK A01,M
TMT,2022-08-28 05:55,-117.1971,39.4643,1749.34,54.70,26.60,33.60,260.00,6.00,0.00,30.02,M,10.00,M,CLR,M,M,M,M,M,M,M,M,M,M,M,M,M,M,54.70,KTMT 280555Z AUTO 26006KT 10SM CLR 13/M03 A3002 RMK AO2 T01261030,M
EKO,2022-08-28 05:56,-115.7860,40.8242,1367.00,58.00,23.00,25.76,0.00,0.00,0.00,29.93,1008.40,10.00,M,CLR,M,M,M,M,M,M,M,M,M,M,M,M,M,M,57.90,KEKO 280556Z AUTO 00000KT 10SM CLR 14/M05 A2993 RMK AO2 SLP084 T01441050 10306 20144 51009,M
TPH,2022-08-28 05:56,-117.0904,38.0505,1654.00,74.00,30.90,20.47,90.00,6.00,0.00,29.97,1005.70,10.00,M,CLR,M,M,M,M,M,M,M,M,M,M,M,M,M,M,73.90,KTPH 280556Z AUTO 09006KT 10SM CLR 23/M01 A2997 RMK AO2 SLP057 T02331006 10322 20233 53012,M
LSV,2022-08-28 05:56,-115.0343,36.2362,570.00,92.50,39.70,15.91,240.00,6.00,0.00,29.70,1002.70,10.00,M,CLR,M,M,M,M,M,M,M,M,M,M,M,M,M,M,88.31,KLSV 280556Z AUTO 24006KT 10SM CLR 34/04 A2970 RMK AO2 SLP027 T03360043 10413 20334 52013 $,M
INS,2022-08-28 05:56,-115.6733,36.5872,955.00,85.00,28.60,12.99,30.00,5.00,0.00,29.79,1003.20,10.00,M,CLR,M,M,M,M,M,M,M,M,M,M,M,M,M,M,81.78,KINS 280556Z AUTO 03005KT 10SM CLR 29/M02 A2979 RMK AO2 SLP032 T02941019 10369 20279 52011 $,M
LAS,2022-08-28 05:56,-115.1634,36.0719,663.00,92.00,39.00,15.77,230.00,7.00,0.00,29.73,1003.60,10.00,M,CLR,M,M,M,M,M,M,M,M,M,M,M,M,M,M,87.74,KLAS 280556Z 23007KT 10SM CLR 33/04 A2973 RMK AO2 SLP036 T03330039 10394 20328 52013,M
WMC,2022-08-28 05:56,-117.8072,40.9019,1315.00,66.00,M,M,260.00,7.00,0.00,29.90,1007.20,10.00,M,CLR,M,M,M,M,M,M,M,M,M,M,M,M,M,M,M,KWMC 280556Z AUTO 26007KT 10SM CLR 19/ A2990 RMK AO2 SLP072 T0189 10333 20167 53014 $,M
CXP,2022-08-28 06:15,-119.7326,39.1923,1431.00,68.00,37.40,32.43,0.00,0.00,0.00,29.99,M,10.00,M,CLR,M,M,M,M,M,M,M,M,M,M,M,M,M,M,68.00,KCXP 280615Z AUTO 00000KT 10SM CLR 20/03 A2999 RMK AO2,M
BAM,2022-08-28 06:15,-116.8743,40.5990,1382.36,64.40,23.00,20.46,180.00,5.00,0.00,29.91,M,10.00,M,CLR,M,M,M,M,M,M,M,M,M,M,M,M,M,M,64.40,KBAM 280615Z AUTO 18005KT 10SM CLR 18/M05 A2991 RMK AO1,M
BVU,2022-08-28 06:15,-114.8611,35.9475,671.00,84.20,42.80,23.33,320.00,3.00,0.00,29.75,M,M,M,M,M,M,M,M,M,M,M,M,M,M,M,M,M,M,81.61,KBVU 280615Z AUTO 32003KT 29/06 A2975 RMK AO2 PWINO TSNO,M
RTS,2022-08-28 06:15,-119.8764,39.6682,1539.00,64.40,33.80,31.85,290.00,10.00,0.00,30.02,M,10.00,M,CLR,M,M,M,M,M,M,M,M,M,M,M,M,M,M,64.40,KRTS 280615Z AUTO 29010KT 10SM CLR 18/01 A3002 RMK AO2,M
MEV,2022-08-28 06:15,-119.7500,38.9963,1441.42,59.00,33.80,38.56,90.00,8.00,0.00,29.98,M,10.00,M,CLR,M,M,M,M,M,M,M,M,M,M,M,M,M,M,59.00,KMEV 280615Z AUTO 09008KT 10SM CLR 15/01 A2998 RMK AO2,M
TMT,2022-08-28 06:15,-117.1971,39.4643,1749.34,M,M,M,200.00,4.00,0.00,30.03,M,10.00,M,CLR,M,M,M,M,M,M,M,M,M,M,M,M,M,M,M,KTMT 280615Z AUTO 20004KT 10SM CLR A3003 RMK AO2,M
HTH,2022-08-28 06:15,-118.6315,38.5448,1282.89,78.80,33.80,19.55,160.00,7.00,0.00,29.92,M,10.00,M,M,M,M,M,M,M,M,M,M,M,M,M,M,M,M,78.80,KHTH 280615Z AUTO 16007KT 10SM 26/01 A2992 RMK A01,M
BVU,2022-08-28 06:35,-114.8611,35.9475,671.00,89.60,37.40,15.92,M,3.00,0.00,29.75,M,M,M,M,M,M,M,M,M,M,M,M,M,M,M,M,M,M,85.67,KBVU 280635Z AUTO VRB03KT 32/03 A2975 RMK AO2 PWINO TSNO,M
CXP,2022-08-28 06:35,-119.7326,39.1923,1431.00,64.40,37.40,36.74,50.00,3.00,0.00,30.00,M,10.00,M,CLR,M,M,M,M,M,M,M,M,M,M,M,M,M,M,64.40,KCXP 280635Z AUTO 05003KT 10SM CLR 18/03 A3000 RMK AO2,M
RTS,2022-08-28 06:35,-119.8764,39.6682,1539.00,64.40,33.80,31.85,290.00,9.00,0.00,30.02,M,10.00,M,CLR,M,M,M,M,M,M,M,M,M,M,M,M,M,M,64.40,KRTS 280635Z AUTO 29009KT 10SM CLR 18/01 A3002 RMK AO2,M
MEV,2022-08-28 06:35,-119.7500,38.9963,1441.42,59.00,35.60,41.42,100.00,8.00,0.00,29.98,M,10.00,M,CLR,M,M,M,M,M,M,M,M,M,M,M,M,M,M,59.00,KMEV 280635Z AUTO 10008KT 10SM CLR 15/02 A2998 RMK AO2,M
HTH,2022-08-28 06:35,-118.6315,38.5448,1282.89,78.80,32.00,18.18,0.00,0.00,0.00,29.93,M,10.00,M,M,M,M,M,M,M,M,M,M,M,M,M,M,M,M,78.80,KHTH 280635Z AUTO 00000KT 10SM 26/M00 A2993 RMK A01,M
BAM,2022-08-28 06:35,-116.8743,40.5990,1382.36,62.60,21.20,20.20,0.00,0.00,0.00,29.91,M,10.00,M,CLR,M,M,M,M,M,M,M,M,M,M,M,M,M,M,62.60,KBAM 280635Z AUTO 00000KT 10SM CLR 17/M06 A2991 RMK AO1,M
LOL,2022-08-28 06:53,-118.5701,40.0684,1192.43,75.00,28.00,17.53,130.00,6.00,0.00,29.89,1007.30,10.00,M,CLR,M,M,M,M,M,M,M,M,M,M,M,M,M,M,75.00,KLOL 280653Z AUTO 13006KT 10SM CLR 24/M02 A2989 RMK AO2 SLP073 T02391022,M
P68,2022-08-28 06:53,-116.0056,39.6014,1993.00,55.00,27.00,33.79,170.00,4.00,0.00,30.02,1008.30,M,M,M,M,M,M,M,M,M,M,M,M,M,M,M,M,M,55.00,KP68 280653Z AUTO 17004KT 13/M03 A3002 RMK AO1 SLP083 T01281028,M
DRA,2022-08-28 06:53,-116.0278,36.6206,1009.00,86.00,38.00,18.20,240.00,5.00,0.00,29.81,1003.30,10.00,M,CLR,M,M,M,M,M,M,M,M,M,M,M,M,M,M,82.74,KDRA 280653Z AUTO 24005KT 10SM CLR 30/03 A2981 RMK AO2 SLP033 T03000033,M
ELY,2022-08-28 06:53,-114.8453,39.2950,1909.00,57.00,39.00,50.88,180.00,7.00,0.00,30.04,1007.50,10.00,M,CLR,M,M,M,M,M,M,M,M,M,M,M,M,M,M,57.00,KELY 280653Z AUTO 18007KT 10SM CLR 14/04 A3004 RMK AO2 SLP075 T01390039 402940094,M
VGT,2022-08-28 06:53,-115.1933,36.2111,667.00,92.00,38.00,15.11,160.00,3.00,0.00,29.73,1005.00,10.00,M,CLR,M,M,M,M,M,M,M,M,M,M,M,M,M,M,87.69,KVGT 280653Z AUTO 16003KT 10SM CLR 33/03 A2973 RMK AO2 SLP050 T03330033,M
HTH,2022-08-28 06:55,-118.6315,38.5448,1282.89,77.00,30.20,17.94,M,6.00,0.00,29.94,M,10.00,M,CLR,M,M,M,M,M,M,M,M,M,M,M,M,M,M,77.00,KHTH 280655Z AUTO VRB06KT 10SM CLR 25/M01 A2994 RMK A01,M
MEV,2022-08-28 06:55,-119.7500,38.9963,1441.42,55.40,35.60,47.16,0.00,0.00,0.00,29.99,M,10.00,M,CLR,M,M,M,M,M,M,M,M,M,M,M,M,M,M,55.40,KMEV 280655Z AUTO 00000KT 10SM CLR 13/02 A2999 RMK AO2,M
BAM,2022-08-28 06:55,-116.8743,40.5990,1382.36,62.60,21.20,20.20,190.00,6.00,0.00,29.92,M,10.00,M,CLR,M,M,M,M,M,M,M,M,M,M,M,M,M,M,62.60,KBAM 280655Z AUTO 19006KT 10SM CLR 17/M06 A2992 RMK AO1,M
TMT,2022-08-28 06:55,-117.1971,39.4643,1749.34,48.20,23.50,37.56,0.00,0.00,0.00,30.03,M,10.00,M,CLR,M,M,M,M,M,M,M,M,M,M,M,M,M,M,48.20,KTMT 280655Z AUTO 00000KT 10SM CLR 09/M05 A3003 RMK AO2 T00901047,M
RTS,2022-08-28 06:55,-119.8764,39.6682,1539.00,64.40,33.80,31.85,290.00,10.00,0.00,30.02,M,10.00,M,CLR,M,M,M,M,M,M,M,M,M,M,M,M,M,M,64.40,KRTS 280655Z AUTO 29010KT 10SM CLR 18/01 A3002 RMK AO2,M
RNO,2022-08-28 06:55,-119.7711,39.4839,1341.00,73.00,37.00,26.92,10.00,3.00,0.00,29.97,1008.40,10.00,M,CLR,M,M,M,M,M,M,M,M,M,M,M,M,M,M,73.00,KRNO 280655Z 01003KT 10SM CLR 23/03 A2997 RMK AO2 SLP084 T02280028,M
CXP,2022-08-28 06:55,-119.7326,39.1923,1431.00,64.40,37.40,36.74,0.00,0.00,0.00,30.01,M,10.00,M,CLR,M,M,M,M,M,M,M,M,M,M,M,M,M,M,64.40,KCXP 280655Z AUTO 00000KT 10SM CLR 18/03 A3001 RMK AO2,M
BVU,2022-08-28 06:55,-114.8611,35.9475,671.00,87.80,37.40,16.86,300.00,3.00,0.00,29.76,M,M,M,M,M,M,M,M,M,M,M,M,M,M,M,M,M,M,84.16,KBVU 280655Z AUTO 30003KT 31/03 A2976 RMK AO2 PWINO TSNO,M
EKO,2022-08-28 06:56,-115.7860,40.8242,1367.00,52.00,25.00,34.72,0.00,0.00,0.00,29.94,1009.00,10.00,M,CLR,M,M,M,M,M,M,M,M,M,M,M,M,M,M,52.00,KEKO 280656Z AUTO 00000KT 10SM CLR 11/M04 A2994 RMK AO2 SLP090 T01111039,M
LAS,2022-08-28 06:56,-115.1634,36.0719,663.00,91.00,39.00,16.23,220.00,7.00,0.00,29.74,1003.80,10.00,M,CLR,M,M,M,M,M,M,M,M,M,M,M,M,M,M,86.94,KLAS 280656Z 22007KT 10SM CLR 33/04 A2974 RMK AO2 SLP038 T03280039,M
LSV,2022-08-28 06:56,-115.0343,36.2362,570.00,87.80,39.00,17.95,60.00,5.00,0.00,29.71,1003.10,10.00,M,CLR,M,M,M,M,M,M,M,M,M,M,M,M,M,M,84.21,KLSV 280656Z AUTO 06005KT 10SM CLR 31/04 A2971 RMK AO2 SLP031 T03100039 $,M
TPH,2022-08-28 06:56,-117.0904,38.0505,1654.00,69.00,32.00,25.18,30.00,5.00,0.00,29.98,1006.60,10.00,M,CLR,M,M,M,M,M,M,M,M,M,M,M,M,M,M,69.10,KTPH 280656Z AUTO 03005KT 10SM CLR 21/00 A2998 RMK AO2 SLP066 T02060000,M
WMC,2022-08-28 06:56,-117.8072,40.9019,1315.00,62.00,M,M,300.00,6.00,0.00,29.91,1007.60,10.00,M,CLR,M,M,M,M,M,M,M,M,M,M,M,M,M,M,M,KWMC 280656Z AUTO 30006KT 10SM CLR 17/ A2991 RMK AO2 SLP076 T0167 $,M
INS,2022-08-28 06:56,-115.6733,36.5872,955.00,85.00,33.60,15.90,60.00,7.00,0.00,29.80,1003.40,10.00,M,CLR,M,M,M,M,M,M,M,M,M,M,M,M,M,M,81.82,KINS 280656Z AUTO 06007KT 10SM CLR 29/01 A2980 RMK AO2 SLP034 T02940009 $,M
CXP,2022-08-28 07:10,-119.7326,39.1923,1431.00,66.20,35.60,32.14,0.00,0.00,0.00,30.01,M,10.00,M,CLR,M,M,M,M,M,M,M,M,M,M,M,M,M,M,66.20,KCXP 280710Z AUTO 00000KT 10SM CLR 19/02 A3001 RMK AO2,M
BAM,2022-08-28 07:15,-116.8743,40.5990,1382.36,60.80,21.20,21.53,0.00,0.00,0.00,29.92,M,10.00,M,CLR,M,M,M,M,M,M,M,M,M,M,M,M,M,M,60.80,KBAM 280715Z AUTO 00000KT 10SM CLR 16/M06 A2992 RMK AO1,M
MEV,2022-08-28 07:15,-119.7500,38.9963,1441.42,57.20,35.60,44.19,0.00,0.00,0.00,29.99,M,10.00,M,CLR,M,M,M,M,M,M,M,M,M,M,M,M,M,M,57.20,KMEV 280715Z AUTO 00000KT 10SM CLR 14/02 A2999 RMK AO2,M
RTS,2022-08-28 07:15,-119.8764,39.6682,1539.00,62.60,33.80,33.93,290.00,7.00,0.00,30.03,M,10.00,M,CLR,M,M,M,M,M,M,M,M,M,M,M,M,M,M,62.60,KRTS 280715Z AUTO 29007KT 10SM CLR 17/01 A3003 RMK AO2,M
BVU,2022-08-28 07:15,-114.8611,35.9475,671.00,86.00,42.80,22.02,0.00,0.00,0.00,29.76,M,M,M,M,M,M,M,M,M,M,M,M,M,M,M,M,M,M,82.95,KBVU 280715Z AUTO 00000KT 30/06 A2976 RMK AO2 PWINO TSNO,M
TMT,2022-08-28 07:15,-117.1971,39.4643,1749.34,50.00,24.10,36.01,0.00,0.00,0.00,30.03,M,10.00,M,CLR,M,M,M,M,M,M,M,M,M,M,M,M,M,M,50.00,KTMT 280715Z AUTO 00000KT 10SM CLR 10/M04 A3003 RMK AO2 T01001044,M
HTH,2022-08-28 07:15,-118.6315,38.5448,1282.89,75.20,32.00,20.49,240.00,5.00,0.00,29.94,M,10.00,M,CLR,M,M,M,M,M,M,M,M,M,M,M,M,M,M,75.20,KHTH 280715Z AUTO 24005KT 10SM CLR 24/M00 A2994 RMK A01,M
HTH,2022-08-28 07:35,-118.6315,38.5448,1282.89,77.00,33.80,20.74,270.00,4.00,0.00,29.94,M,10.00,M,CLR,M,M,M,M,M,M,M,M,M,M,M,M,M,M,77.00,KHTH 280735Z AUTO 27004KT 10SM CLR 25/01 A2994 RMK A01,M
MEV,2022-08-28 07:35,-119.7500,38.9963,1441.42,57.20,35.60,44.19,0.00,0.00,0.00,30.00,M,10.00,M,CLR,M,M,M,M,M,M,M,M,M,M,M,M,M,M,57.20,KMEV 280735Z AUTO 00000KT 10SM CLR 14/02 A3000 RMK AO2,M
RTS,2022-08-28 07:35,-119.8764,39.6682,1539.00,59.00,33.80,38.56,300.00,6.00,0.00,30.03,M,10.00,M,CLR,M,M,M,M,M,M,M,M,M,M,M,M,M,M,59.00,KRTS 280735Z AUTO 30006KT 10SM CLR 15/01 A3003 RMK AO2,M
CXP,2022-08-28 07:35,-119.7326,39.1923,1431.00,66.20,35.60,32.14,300.00,5.00,0.00,30.01,M,10.00,M,CLR,M,M,M,M,M,M,M,M,M,M,M,M,M,M,66.20,KCXP 280735Z AUTO 30005KT 10SM CLR 19/02 A3001 RMK AO2,M
BVU,2022-08-28 07:35,-114.8611,35.9475,671.00,82.40,50.00,32.46,350.00,4.00,0.00,29.76,M,M,M,M,M,M,M,M,M,M,M,M,M,M,M,M,M,M,80.99,KBVU 280735Z AUTO 35004KT 28/10 A2976 RMK AO2 PWINO TSNO,M
TMT,2022-08-28 07:35,-117.1971,39.4643,1749.34,M,M,M,270.00,3.00,0.00,30.03,M,10.00,M,CLR,M,M,M,M,M,M,M,M,M,M,M,M,M,M,M,KTMT 280735Z AUTO 27003KT 10SM CLR A3003 RMK AO2,M
BAM,2022-08-28 07:35,-116.8743,40.5990,1382.36,62.60,23.00,21.79,330.00,5.00,0.00,29.93,M,10.00,M,CLR,M,M,M,M,M,M,M,M,M,M,M,M,M,M,62.60,KBAM 280735Z AUTO 33005KT 10SM CLR 17/M05 A2993 RMK AO1,M
VGT,2022-08-28 07:53,-115.1933,36.2111,667.00,90.00,39.00,16.74,110.00,7.00,0.00,29.74,1005.30,10.00,M,CLR,M,M,M,M,M,M,M,M,M,M,M,M,M,M,86.07,KVGT 280753Z AUTO 11007KT 10SM CLR 32/04 A2974 RMK AO2 SLP053 T03220039 404110278,M
P68,2022-08-28 07:53,-116.0056,39.6014,1993.00,53.00,28.00,37.74,150.00,5.00,0.00,30.03,1008.50,M,M,M,M,M,M,M,M,M,M,M,M,M,M,M,M,M,53.10,KP68 280753Z AUTO 15005KT 12/M02 A3003 RMK AO1 SLP085 T01171022 403170100,M
LOL,2022-08-28 07:53,-118.5701,40.0684,1192.43,74.00,28.90,18.87,100.00,5.00,0.00,29.91,1007.70,10.00,M,CLR,M,M,M,M,M,M,M,M,M,M,M,M,M,M,73.90,KLOL 280753Z AUTO 10005KT 10SM CLR 23/M02 A2991 RMK AO2 SLP077 T02331017 403440094,M
DRA,2022-08-28 07:53,-116.0278,36.6206,1009.00,86.00,38.00,18.20,300.00,5.00,0.00,29.81,1003.30,10.00,M,CLR,M,M,M,M,M,M,M,M,M,M,M,M,M,M,82.74,KDRA 280753Z AUTO 30005KT 10SM CLR 30/03 A2981 RMK AO2 SLP033 T03000033 403830194,M
ELY,2022-08-28 07:53,-114.8453,39.2950,1909.00,55.00,40.00,56.66,170.00,7.00,0.00,30.06,1007.70,10.00,M,CLR,M,M,M,M,M,M,M,M,M,M,M,M,M,M,55.00,KELY 280753Z AUTO 17007KT 10SM CLR 13/04 A3006 RMK AO2 SLP077 T01280044,M
RTS,2022-08-28 07:55,-119.8764,39.6682,1539.00,59.00,33.80,38.56,330.00,6.00,0.00,30.02,M,10.00,M,CLR,M,M,M,M,M,M,M,M,M,M,M,M,M,M,59.00,KRTS 280755Z AUTO 33006KT 10SM CLR 15/01 A3002 RMK AO2,M
BAM,2022-08-28 07:55,-116.8743,40.5990,1382.36,59.00,21.20,22.95,90.00,5.00,0.00,29.95,M,10.00,M,CLR,M,M,M,M,M,M,M,M,M,M,M,M,M,M,59.00,KBAM 280755Z AUTO 09005KT 10SM CLR 15/M06 A2995 RMK AO1,M
CXP,2022-08-28 07:55,-119.7326,39.1923,1431.00,62.60,37.40,39.14,0.00,0.00,0.00,30.01,M,10.00,M,CLR,M,M,M,M,M,M,M,M,M,M,M,M,M,M,62.60,KCXP 280755Z AUTO 00000KT 10SM CLR 17/03 A3001 RMK AO2,M
BVU,2022-08-28 07:55,-114.8611,35.9475,671.00,82.40,48.20,30.35,330.00,6.00,0.00,29.77,M,M,M,M,M,M,M,M,M,M,M,M,M,M,M,M,M,M,80.80,KBVU 280755Z AUTO 33006KT 28/09 A2977 RMK AO2 PWINO TSNO,M
RNO,2022-08-28 07:55,-119.7711,39.4839,1341.00,66.00,38.00,35.44,0.00,0.00,0.00,29.97,1009.00,10.00,M,CLR,M,M,M,M,M,M,M,M,M,M,M,M,M,M,66.00,KRNO 280755Z 00000KT 10SM CLR 19/03 A2997 RMK AO2 SLP090 T01890033 403440144,M
TMT,2022-08-28 07:55,-117.1971,39.4643,1749.34,M,M,M,300.00,12.00,0.00,30.05,M,10.00,M,CLR,M,M,M,M,M,M,M,M,M,M,M,M,M,M,M,KTMT 280755Z AUTO 30012KT 10SM CLR A3005 RMK AO2,M
MEV,2022-08-28 07:55,-119.7500,38.9963,1441.42,57.20,33.80,41.13,110.00,4.00,0.00,30.00,M,10.00,M,CLR,M,M,M,M,M,M,M,M,M,M,M,M,M,M,57.20,KMEV 280755Z AUTO 11004KT 10SM CLR 14/01 A3000 RMK AO2,M
HTH,2022-08-28 07:55,-118.6315,38.5448,1282.89,73.40,33.80,23.39,240.00,6.00,0.00,29.94,M,10.00,M,CLR,M,M,M,M,M,M,M,M,M,M,M,M,M,M,73.40,KHTH 280755Z AUTO 24006KT 10SM CLR 23/01 A2994 RMK A01,M
INS,2022-08-28 07:56,-115.6733,36.5872,955.00,83.30,34.00,17.01,70.00,4.00,0.00,29.81,1003.80,10.00,M,CLR,M,M,M,M,M,M,M,M,M,M,M,M,M,M,80.66,KINS 280756Z AUTO 07004KT 10SM CLR 29/01 A2981 RMK AO2 SLP038 T02850011 403760220 $,M
TPH,2022-08-28 07:56,-117.0904,38.0505,1654.00,69.00,32.00,25.18,10.00,5.00,0.00,29.99,1006.50,10.00,M,CLR,M,M,M,M,M,M,M,M,M,M,M,M,M,M,69.10,KTPH 280756Z AUTO 01005KT 10SM CLR 21/00 A2999 RMK AO2 SLP065 T02060000 403280167,M
WMC,2022-08-28 07:56,-117.8072,40.9019,1315.00,63.00,M,M,320.00,6.00,0.00,29.93,1008.00,10.00,M,CLR,M,M,M,M,M,M,M,M,M,M,M,M,M,M,M,KWMC 280756Z AUTO 32006KT 10SM CLR 17/ A2993 RMK AO2 SLP080 T0172 403390150 $,M
EKO,2022-08-28 07:56,-115.7860,40.8242,1367.00,54.00,25.00,32.26,100.00,5.00,0.00,29.95,1009.00,10.00,M,CLR,M,M,M,M,M,M,M,M,M,M,M,M,M,M,54.00,KEKO 280756Z AUTO 10005KT 10SM CLR 12/M04 A2995 RMK AO2 SLP090 T01221039 403060072,M
LAS,2022-08-28 07:56,-115.1634,36.0719,663.00,89.00,42.00,19.42,200.00,4.00,0.00,29.75,1004.10,10.00,M,CLR,M,M,M,M,M,M,M,M,M,M,M,M,M,M,85.45,KLAS 280756Z 20004KT 10SM CLR 32/06 A2975 RMK AO2 SLP041 T03170056 404000278,M
LSV,2022-08-28 07:56,-115.0343,36.2362,570.00,89.20,41.50,18.92,190.00,8.00,0.00,29.72,1003.30,10.00,M,CLR,M,M,M,M,M,M,M,M,M,M,M,M,M,M,85.50,KLSV 280756Z AUTO 19008KT 10SM CLR 32/05 A2972 RMK AO2 SLP033 T03180053 404280268 $,M
RTS,2022-08-28 08:15,-119.8764,39.6682,1539.00,55.40,32.00,40.84,350.00,6.00,0.00,30.03,M,10.00,M,CLR,M,M,M,M,M,M,M,M,M,M,M,M,M,M,55.40,KRTS 280815Z AUTO 35006KT 10SM CLR 13/00 A3003 RMK AO2,M
BVU,2022-08-28 08:15,-114.8611,35.9475,671.00,82.40,50.00,32.46,360.00,5.00,0.00,29.77,M,M,M,M,M,M,M,M,M,M,M,M,M,M,M,M,M,M,80.99,KBVU 280815Z AUTO 36005KT 28/10 A2977 RMK AO2 PWINO TSNO,M
CXP,2022-08-28 08:15,-119.7326,39.1923,1431.00,59.00,39.20,47.72,0.00,0.00,0.00,30.01,M,10.00,M,CLR,M,M,M,M,M,M,M,M,M,M,M,M,M,M,59.00,KCXP 280815Z AUTO 00000KT 10SM CLR 15/04 A3001 RMK AO2,M
MEV,2022-08-28 08:15,-119.7500,38.9963,1441.42,51.80,35.60,53.81,120.00,3.00,0.00,30.00,M,10.00,M,CLR,M,M,M,M,M,M,M,M,M,M,M,M,M,M,51.80,KMEV 280815Z AUTO 12003KT 10SM CLR 11/02 A3000 RMK AO2,M
BAM,2022-08-28 08:15,-116.8743,40.5990,1382.36,62.60,23.00,21.79,0.00,0.00,0.00,29.95,M,10.00,M,CLR,M,M,M,M,M,M,M,M,M,M,M,M,M,M,62.60,KBAM 280815Z AUTO 00000KT 10SM CLR 17/M05 A2995 RMK AO1,M
HTH,2022-08-28 08:15,-118.6315,38.5448,1282.89,73.40,32.00,21.76,250.00,6.00,0.00,29.94,M,10.00,M,CLR,M,M,M,M,M,M,M,M,M,M,M,M,M,M,73.40,KHTH 280815Z AUTO 25006KT 10SM CLR 23/00 A2994 RMK A01,M
TMT,2022-08-28 08:15,-117.1971,39.4643,1749.34,52.70,26.60,36.16,180.00,5.00,0.00,30.05,M,10.00,M,CLR,M,M,M,M,M,M,M,M,M,M,M,M,M,M,52.70,KTMT 280815Z AUTO 18005KT 10SM CLR 12/M03 A3005 RMK AO2 T01151030,M
BVU,2022-08-28 08:35,-114.8611,35.9475,671.00,84.20,51.80,32.73,0.00,0.00,0.00,29.77,M,M,M,M,M,M,M,M,M,M,M,M,M,M,M,M,M,M,82.48,KBVU 280835Z AUTO 00000KT 29/11 A2977 RMK AO2 PWINO TSNO,M
TMT,2022-08-28 08:35,-117.1971,39.4643,1749.34,M,M,M,120.00,4.00,0.00,30.05,M,10.00,M,CLR,M,M,M,M,M,M,M,M,M,M,M,M,M,M,M,KTMT 280835Z AUTO 12004KT 10SM CLR A3005 RMK AO2,M
HTH,2022-08-28 08:35,-118.6315,38.5448,1282.89,71.60,32.00,23.13,250.00,5.00,0.00,29.95,M,10.00,M,CLR,M,M,M,M,M,M,M,M,M,M,M,M,M,M,71.60,KHTH 280835Z AUTO 25005KT 10SM CLR 22/M00 A2995 RMK A01,M
BAM,2022-08-28 08:35,-116.8743,40.5990,1382.36,55.40,19.40,24.21,90.00,5.00,0.00,29.96,M,10.00,M,CLR,M,M,M,M,M,M,M,M,M,M,M,M,M,M,55.40,KBAM 280835Z AUTO 09005KT 10SM CLR 13/M07 A2996 RMK AO1,M
MEV,2022-08-28 08:35,-119.7500,38.9963,1441.42,51.80,35.60,53.81,0.00,0.00,0.00,30.00,M,10.00,M,CLR,M,M,M,M,M,M,M,M,M,M,M,M,M,M,51.80,KMEV 280835Z AUTO 00000KT 10SM CLR 11/02 A3000 RMK AO2,M
RTS,2022-08-28 08:35,-119.8764,39.6682,1539.00,57.20,32.00,38.26,0.00,0.00,0.00,30.03,M,10.00,M,CLR,M,M,M,M,M,M,M,M,M,M,M,M,M,M,57.20,KRTS 280835Z AUTO 00000KT 10SM CLR 14/M00 A3003 RMK AO2,M
CXP,2022-08-28 08:35,-119.7326,39.1923,1431.00,59.00,37.40,44.47,0.00,0.00,0.00,30.01,M,10.00,M,CLR,M,M,M,M,M,M,M,M,M,M,M,M,M,M,59.00,KCXP 280835Z AUTO 00000KT 10SM CLR 15/03 A3001 RMK AO2,M
VGT,2022-08-28 08:53,-115.1933,36.2111,667.00,90.00,42.00,18.88,190.00,8.00,0.00,29.74,1005.40,10.00,M,CLR,M,M,M,M,M,M,M,M,M,M,M,M,M,M,86.23,KVGT 280853Z AUTO 19008KT 10SM CLR 32/06 A2974 RMK AO2 SLP054 T03220056 51006,M
P68,2022-08-28 08:53,-116.0056,39.6014,1993.00,49.00,26.10,40.77,210.00,4.00,0.00,30.04,1009.00,M,M,M,M,M,M,M,M,M,M,M,M,M,M,M,M,M,47.16,KP68 280853Z AUTO 21004KT 09/M03 A3004 RMK AO1 SLP090 T00941033 53006,M
DRA,2022-08-28 08:53,-116.0278,36.6206,1009.00,84.00,39.00,20.27,M,3.00,0.00,29.82,1003.70,10.00,M,CLR,M,M,M,M,M,M,M,M,M,M,M,M,M,M,81.29,KDRA 280853Z AUTO VRB03KT 10SM CLR 29/04 A2982 RMK AO2 SLP037 T02890039 53005,M
ELY,2022-08-28 08:53,-114.8453,39.2950,1909.00,52.00,38.00,58.48,200.00,5.00,0.00,30.05,1007.40,10.00,M,CLR,M,M,M,M,M,M,M,M,M,M,M,M,M,M,52.00,KELY 280853Z AUTO 20005KT 10SM CLR 11/03 A3005 RMK AO2 SLP074 T01110033 50004,M
LOL,2022-08-28 08:53,-118.5701,40.0684,1192.43,71.00,28.90,20.74,10.00,4.00,0.00,29.92,1008.10,10.00,M,CLR,M,M,M,M,M,M,M,M,M,M,M,M,M,M,71.10,KLOL 280853Z AUTO 01004KT 10SM CLR 22/M02 A2992 RMK AO2 SLP081 T02171017 51013,M
BAM,2022-08-28 08:55,-116.8743,40.5990,1382.36,53.60,19.40,25.85,0.00,0.00,0.00,29.96,M,10.00,M,CLR,M,M,M,M,M,M,M,M,M,M,M,M,M,M,53.60,KBAM 280855Z AUTO 00000KT 10SM CLR 12/M07 A2996 RMK AO1,M
MEV,2022-08-28 08:55,-119.7500,38.9963,1441.42,50.00,37.40,61.76,0.00,0.00,0.00,30.00,M,10.00,M,CLR,M,M,M,M,M,M,M,M,M,M,M,M,M,M,50.00,KMEV 280855Z AUTO 00000KT 10SM CLR 10/03 A3000 RMK AO2,M
RTS,2022-08-28 08:55,-119.8764,39.6682,1539.00,57.20,32.00,38.26,360.00,6.00,0.00,30.03,M,10.00,M,CLR,M,M,M,M,M,M,M,M,M,M,M,M,M,M,57.20,KRTS 280855Z AUTO 36006KT 10SM CLR 14/M00 A3003 RMK AO2,M
CXP,2022-08-28 08:55,-119.7326,39.1923,1431.00,59.00,39.20,47.72,0.00,0.00,0.00,30.01,M,10.00,M,CLR,M,M,M,M,M,M,M,M,M,M,M,M,M,M,59.00,KCXP 280855Z AUTO 00000KT 10SM CLR 15/04 A3001 RMK AO2,M
BVU,2022-08-28 08:55,-114.8611,35.9475,671.00,80.60,53.60,39.30,70.00,4.00,0.00,29.77,M,M,M,M,M,M,M,M,M,M,M,M,M,M,M,M,M,M,80.29,KBVU 280855Z AUTO 07004KT 27/12 A2977 RMK AO2 PWINO TSNO,M
RNO,2022-08-28 08:55,-119.7711,39.4839,1341.00,64.00,38.00,38.00,170.00,3.00,0.00,29.98,1009.10,10.00,M,CLR,M,M,M,M,M,M,M,M,M,M,M,M,M,M,64.00,KRNO 280855Z 17003KT 10SM CLR 18/03 A2998 RMK AO2 SLP091 T01780033 53006,M
TMT,2022-08-28 08:55,-117.1971,39.4643,1749.34,46.60,23.70,40.22,0.00,0.00,0.00,30.05,M,10.00,M,CLR,M,M,M,M,M,M,M,M,M,M,M,M,M,M,46.60,KTMT 280855Z AUTO 00000KT 10SM CLR 08/M05 A3005 RMK AO2 T00811046,M
HTH,2022-08-28 08:55,-118.6315,38.5448,1282.89,71.60,32.00,23.13,0.00,0.00,0.00,29.95,M,10.00,M,CLR,M,M,M,M,M,M,M,M,M,M,M,M,M,M,71.60,KHTH 280855Z AUTO 00000KT 10SM CLR 22/M00 A2995 RMK A01,M
LAS,2022-08-28 08:56,-115.1634,36.0719,663.00,88.00,44.00,21.72,190.00,6.00,0.00,29.75,1004.20,10.00,M,CLR,M,M,M,M,M,M,M,M,M,M,M,M,M,M,84.65,KLAS 280856Z 19006KT 10SM CLR 31/07 A2975 RMK AO2 SLP042 T03110067 51006,M
LSV,2022-08-28 08:56,-115.0343,36.2362,570.00,90.00,43.50,19.92,180.00,11.00,0.00,29.72,1003.30,10.00,M,CLR,M,M,M,M,M,M,M,M,M,M,M,M,M,M,86.33,KLSV 280856Z AUTO 18011KT 10SM CLR 32/06 A2972 RMK AO2 SLP033 T03220064 52007 $,M
EKO,2022-08-28 08:56,-115.7860,40.8242,1367.00,47.00,23.00,38.62,270.00,4.00,0.00,29.97,1010.20,10.00,M,CLR,M,M,M,M,M,M,M,M,M,M,M,M,M,M,44.82,KEKO 280856Z AUTO 27004KT 10SM CLR 08/M05 A2997 RMK AO2 SLP102 T00831050 53011,M
TPH,2022-08-28 08:56,-117.0904,38.0505,1654.00,66.00,32.00,28.03,300.00,5.00,0.00,30.00,1007.20,10.00,M,CLR,M,M,M,M,M,M,M,M,M,M,M,M,M,M,66.00,KTPH 280856Z AUTO 30005KT 10SM CLR 19/00 A3000 RMK AO2 SLP072 T01890000 51009,M
WMC,2022-08-28 08:56,-117.8072,40.9019,1315.00,58.00,M,M,300.00,5.00,0.00,29.94,1008.70,10.00,M,CLR,M,M,M,M,M,M,M,M,M,M,M,M,M,M,M,KWMC 280856Z AUTO 30005KT 10SM CLR 14/ A2994 RMK AO2 SLP087 T0144 53012 $,M
INS,2022-08-28 08:56,-115.6733,36.5872,955.00,75.00,25.70,15.94,0.00,0.00,0.00,29.82,1004.20,10.00,M,CLR,M,M,M,M,M,M,M,M,M,M,M,M,M,M,75.00,KINS 280856Z AUTO 00000KT 10SM CLR 24/M03 A2982 RMK AO2 SLP042 T02391035 52008 $,M
CXP,2022-08-28 09:15,-119.7326,39.1923,1431.00,57.20,39.20,50.91,0.00,0.00,0.00,30.01,M,10.00,M,CLR,M,M,M,M,M,M,M,M,M,M,M,M,M,M,57.20,KCXP 280915Z AUTO 00000KT 10SM CLR 14/04 A3001 RMK AO2,M
BVU,2022-08-28 09:15,-114.8611,35.9475,671.00,80.60,53.60,39.30,0.00,0.00,0.00,29.77,M,M,M,M,M,M,M,M,M,M,M,M,M,M,M,M,M,M,80.29,KBVU 280915Z AUTO 00000KT 27/12 A2977 RMK AO2 PWINO TSNO,M
RTS,2022-08-28 09:15,-119.8764,39.6682,1539.00,57.20,30.20,35.57,330.00,4.00,0.00,30.03,M,10.00,M,CLR,M,M,M,M,M,M,M,M,M,M,M,M,M,M,57.20,KRTS 280915Z AUTO 33004KT 10SM CLR 14/M01 A3003 RMK AO2,M
MEV,2022-08-28 09:15,-119.7500,38.9963,1441.42,48.20,33.80,57.26,0.00,0.00,0.00,30.00,M,10.00,M,CLR,M,M,M,M,M,M,M,M,M,M,M,M,M,M,48.20,KMEV 280915Z AUTO 00000KT 10SM CLR 09/01 A3000 RMK AO2,M
BAM,2022-08-28 09:15,-116.8743,40.5990,1382.36,55.40,23.00,28.20,0.00,0.00,0.00,29.96,M,10.00,M,CLR,M,M,M,M,M,M,M,M,M,M,M,M,M,M,55.40,KBAM 280915Z AUTO 00000KT 10SM CLR 13/M05 A2996 RMK AO1,M
HTH,2022-08-28 09:15,-118.6315,38.5448,1282.89,71.60,32.00,23.13,0.00,0.00,0.00,29.95,M,10.00,M,CLR,M,M,M,M,M,M,M,M,M,M,M,M,M,M,71.60,KHTH 280915Z AUTO 00000KT 10SM CLR 22/M00 A2995 RMK A01,M
TMT,2022-08-28 09:15,-117.1971,39.4643,1749.34,46.20,25.30,43.66,310.00,6.00,0.00,30.05,M,10.00,M,CLR,M,M,M,M,M,M,M,M,M,M,M,M,M,M,42.63,KTMT 280915Z AUTO 31006KT 10SM CLR 08/M04 A3005 RMK AO2 T00791037,M
RTS,2022-08-28 09:35,-119.8764,39.6682,1539.00,53.60,30.20,40.54,360.00,6.00,0.00,30.03,M,10.00,M,CLR,M,M,M,M,M,M,M,M,M,M,M,M,M,M,53.60,KRTS 280935Z AUTO 36006KT 10SM CLR 12/M01 A3003 RMK AO2,M
MEV,2022-08-28 09:35,-119.7500,38.9963,1441.42,46.40,33.80,61.28,0.00,0.00,0.00,30.00,M,10.00,M,CLR,M,M,M,M,M,M,M,M,M,M,M,M,M,M,46.40,KMEV 280935Z AUTO 00000KT 10SM CLR 08/01 A3000 RMK AO2,M
BAM,2022-08-28 09:35,-116.8743,40.5990,1382.36,60.80,24.80,25.04,320.00,3.00,0.00,29.96,M,10.00,M,CLR,M,M,M,M,M,M,M,M,M,M,M,M,M,M,60.80,KBAM 280935Z AUTO 32003KT 10SM CLR 16/M04 A2996 RMK AO1,M
BVU,2022-08-28 09:35,-114.8611,35.9475,671.00,82.40,51.80,34.69,0.00,0.00,0.00,29.77,M,M,M,M,M,M,M,M,M,M,M,M,M,M,M,M,M,M,81.20,KBVU 280935Z AUTO 00000KT 28/11 A2977 RMK AO2 PWINO TSNO,M
HTH,2022-08-28 09:35,-118.6315,38.5448,1282.89,69.80,32.00,24.59,0.00,0.00,0.00,29.96,M,10.00,M,CLR,M,M,M,M,M,M,M,M,M,M,M,M,M,M,69.80,KHTH 280935Z AUTO 00000KT 10SM CLR 21/00 A2996 RMK A01,M
TMT,2022-08-28 09:35,-117.1971,39.4643,1749.34,46.40,26.20,44.98,290.00,6.00,0.00,30.05,M,10.00,M,CLR,M,M,M,M,M,M,M,M,M,M,M,M,M,M,42.87,KTMT 280935Z AUTO 29006KT 10SM CLR 08/M03 A3005 RMK AO2 T00801032,M
CXP,2022-08-28 09:35,-119.7326,39.1923,1431.00,55.40,39.20,54.34,0.00,0.00,0.00,30.01,M,10.00,M,CLR,M,M,M,M,M,M,M,M,M,M,M,M,M,M,55.40,KCXP 280935Z AUTO 00000KT 10SM CLR 13/04 A3001 RMK AO2,M
ELY,2022-08-28 09:53,-114.8453,39.2950,1909.00,55.00,37.00,50.58,200.00,9.00,0.00,30.06,1008.60,10.00,M,CLR,M,M,M,M,M,M,M,M,M,M,M,M,M,M,55.00,KELY 280953Z AUTO 20009KT 10SM CLR 13/03 A3006 RMK AO2 SLP086 T01280028,M
LOL,2022-08-28 09:53,-118.5701,40.0684,1192.43,67.00,28.90,23.95,40.00,4.00,0.00,29.93,1008.70,10.00,M,CLR,M,M,M,M,M,M,M,M,M,M,M,M,M,M,66.90,KLOL 280953Z AUTO 04004KT 10SM CLR 19/M02 A2993 RMK AO2 SLP087 T01941017,M
DRA,2022-08-28 09:53,-116.0278,36.6206,1009.00,83.00,39.00,21.00,M,3.00,0.00,29.83,1004.00,10.00,M,CLR,M,M,M,M,M,M,M,M,M,M,M,M,M,M,80.53,KDRA 280953Z AUTO VRB03KT 10SM CLR 28/04 A2983 RMK AO2 SLP040 T02830039,M
P68,2022-08-28 09:53,-116.0056,39.6014,1993.00,52.00,23.00,31.93,180.00,7.00,0.00,30.04,1008.80,M,M,M,M,M,M,M,M,M,M,M,M,M,M,M,M,M,52.00,KP68 280953Z AUTO 18007KT 11/M05 A3004 RMK AO1 SLP088 T01111050,M
VGT,2022-08-28 09:53,-115.1933,36.2111,667.00,85.00,41.00,21.28,190.00,3.00,0.00,29.76,1006.00,10.00,M,CLR,M,M,M,M,M,M,M,M,M,M,M,M,M,M,82.03,KVGT 280953Z AUTO 19003KT 10SM CLR 29/05 A2976 RMK AO2 SLP060 T02940050,M
BVU,2022-08-28 09:55,-114.8611,35.9475,671.00,82.40,51.80,34.69,0.00,0.00,0.00,29.78,M,M,M,M,M,M,M,M,M,M,M,M,M,M,M,M,M,M,81.20,KBVU 280955Z AUTO 00000KT 28/11 A2978 RMK AO2 PWINO TSNO,M
TMT,2022-08-28 09:55,-117.1971,39.4643,1749.34,M,M,M,130.00,3.00,0.00,30.05,M,10.00,M,CLR,M,M,M,M,M,M,M,M,M,M,M,M,M,M,M,KTMT 280955Z AUTO 13003KT 10SM CLR A3005 RMK AO2,M
HTH,2022-08-28 09:55,-118.6315,38.5448,1282.89,68.00,33.80,28.11,0.00,0.00,0.00,29.96,M,10.00,M,CLR,M,M,M,M,M,M,M,M,M,M,M,M,M,M,68.00,KHTH 280955Z AUTO 00000KT 10SM CLR 20/01 A2996 RMK A01,M
BAM,2022-08-28 09:55,-116.8743,40.5990,1382.36,53.60,21.20,27.91,190.00,4.00,0.00,29.97,M,10.00,M,CLR,M,M,M,M,M,M,M,M,M,M,M,M,M,M,53.60,KBAM 280955Z AUTO 19004KT 10SM CLR 12/M06 A2997 RMK AO1,M
MEV,2022-08-28 09:55,-119.7500,38.9963,1441.42,48.20,35.60,61.52,0.00,0.00,0.00,30.00,M,10.00,M,CLR,M,M,M,M,M,M,M,M,M,M,M,M,M,M,48.20,KMEV 280955Z AUTO 00000KT 10SM CLR 09/02 A3000 RMK AO2,M
RTS,2022-08-28 09:55,-119.8764,39.6682,1539.00,55.40,32.00,40.84,20.00,6.00,0.00,30.03,M,10.00,M,CLR,M,M,M,M,M,M,M,M,M,M,M,M,M,M,55.40,KRTS 280955Z AUTO 02006KT 10SM CLR 13/00 A3003 RMK AO2,M
RNO,2022-08-28 09:55,-119.7711,39.4839,1341.00,62.00,38.00,40.62,190.00,3.00,0.00,29.99,1009.30,10.00,M,CLR,M,M,M,M,M,M,M,M,M,M,M,M,M,M,62.10,KRNO 280955Z 19003KT 10SM CLR 17/03 A2999 RMK AO2 SLP093 T01670033,M
CXP,2022-08-28 09:55,-119.7326,39.1923,1431.00,57.20,37.40,47.44,0.00,0.00,0.00,30.02,M,10.00,M,CLR,M,M,M,M,M,M,M,M,M,M,M,M,M,M,57.20,KCXP 280955Z AUTO 00000KT 10SM CLR 14/03 A3002 RMK AO2,M
LAS,2022-08-28 09:56,-115.1634,36.0719,663.00,86.00,47.00,25.74,190.00,5.00,0.00,29.77,1004.70,10.00,M,CLR,M,M,M,M,M,M,M,M,M,M,M,M,M,M,83.27,KLAS 280956Z 19005KT 10SM CLR 30/08 A2977 RMK AO2 SLP047 T03000083,M
WMC,2022-08-28 09:56,-117.8072,40.9019,1315.00,54.00,M,M,170.00,3.00,0.00,29.95,1009.30,10.00,M,CLR,M,M,M,M,M,M,M,M,M,M,M,M,M,M,M,KWMC 280956Z AUTO 17003KT 10SM CLR 12/ A2995 RMK AO2 SLP093 T0122 $,M
INS,2022-08-28 09:56,-115.6733,36.5872,955.00,73.00,25.70,17.05,290.00,4.00,0.00,29.83,1004.70,10.00,M,CLR,M,M,M,M,M,M,M,M,M,M,M,M,M,M,73.00,KINS 280956Z AUTO 29004KT 10SM CLR 23/M03 A2983 RMK AO2 SLP047 T02281035 $,M
EKO,2022-08-28 09:56,-115.7860,40.8242,1367.00,51.00,23.00,33.01,30.00,5.00,0.00,29.98,1010.20,10.00,M,CLR,M,M,M,M,M,M,M,M,M,M,M,M,M,M,51.10,KEKO 280956Z AUTO 03005KT 10SM CLR 11/M05 A2998 RMK AO2 SLP102 T01061050,M
TPH,2022-08-28 09:56,-117.0904,38.0505,1654.00,64.00,30.90,28.74,20.00,7.00,0.00,30.00,1007.10,10.00,M,CLR,M,M,M,M,M,M,M,M,M,M,M,M,M,M,64.00,KTPH 280956Z AUTO 02007KT 10SM CLR 18/M01 A3000 RMK AO2 SLP071 T01781006,M
LSV,2022-08-28 09:56,-115.0343,36.2362,570.00,88.70,43.70,20.92,130.00,3.00,0.00,29.73,1003.60,10.00,M,CLR,M,M,M,M,M,M,M,M,M,M,M,M,M,M,85.22,KLSV 280956Z AUTO 13003KT 10SM CLR 32/07 A2973 RMK AO2 SLP036 T03150065 $,M
HTH,2022-08-28 10:15,-118.6315,38.5448,1282.89,68.00,33.80,28.11,0.00,0.00,0.00,29.96,M,10.00,M,CLR,M,M,M,M,M,M,M,M,M,M,M,M,M,M,68.00,KHTH 281015Z AUTO 00000KT 10SM CLR 20/01 A2996 RMK A01,M
TMT,2022-08-28 10:15,-117.1971,39.4643,1749.34,41.70,23.90,48.91,160.00,4.00,0.00,30.06,M,10.00,M,CLR,M,M,M,M,M,M,M,M,M,M,M,M,M,M,38.75,KTMT 281015Z AUTO 16004KT 10SM CLR 05/M04 A3006 RMK AO2 T00541045,M
CXP,2022-08-28 10:15,-119.7326,39.1923,1431.00,55.40,37.40,50.64,0.00,0.00,0.00,30.02,M,10.00,M,CLR,M,M,M,M,M,M,M,M,M,M,M,M,M,M,55.40,KCXP 281015Z AUTO 00000KT 10SM CLR 13/03 A3002 RMK AO2,M
RTS,2022-08-28 10:15,-119.8764,39.6682,1539.00,55.40,32.00,40.84,0.00,0.00,0.00,30.03,M,10.00,M,CLR,M,M,M,M,M,M,M,M,M,M,M,M,M,M,55.40,KRTS 281015Z AUTO 00000KT 10SM CLR 13/00 A3003 RMK AO2,M
MEV,2022-08-28 10:15,-119.7500,38.9963,1441.42,46.40,33.80,61.28,0.00,0.00,0.00,30.01,M,10.00,M,CLR,M,M,M,M,M,M,M,M,M,M,M,M,M,M,46.40,KMEV 281015Z AUTO 00000KT 10SM CLR 08/01 A3001 RMK AO2,M
BVU,2022-08-28 10:15,-114.8611,35.9475,671.00,86.00,48.20,27.03,120.00,4.00,0.00,29.78,M,M,M,M,M,M,M,M,M,M,M,M,M,M,M,M,M,M,83.40,KBVU 281015Z AUTO 12004KT 30/09 A2978 RMK AO2 PWINO TSNO,M
BAM,2022-08-28 10:15,-116.8743,40.5990,1382.36,51.80,19.40,27.62,150.00,3.00,0.00,29.97,M,10.00,M,CLR,M,M,M,M,M,M,M,M,M,M,M,M,M,M,51.80,KBAM 281015Z AUTO 15003KT 10SM CLR 11/M07 A2997 RMK AO1,M
BAM,2022-08-28 10:35,-116.8743,40.5990,1382.36,51.80,19.40,27.62,170.00,4.00,0.00,29.98,M,10.00,M,CLR,M,M,M,M,M,M,M,M,M,M,M,M,M,M,51.80,KBAM 281035Z AUTO 17004KT 10SM CLR 11/M07 A2998 RMK AO1,M
BVU,2022-08-28 10:35,-114.8611,35.9475,671.00,84.20,48.20,28.63,100.00,3.00,0.00,29.78,M,M,M,M,M,M,M,M,M,M,M,M,M,M,M,M,M,M,82.04,KBVU 281035Z AUTO 10003KT 29/09 A2978 RMK AO2 PWINO TSNO,M
CXP,2022-08-28 10:35,-119.7326,39.1923,1431.00,55.40,33.80,43.90,0.00,0.00,0.00,30.02,M,10.00,M,CLR,M,M,M,M,M,M,M,M,M,M,M,M,M,M,55.40,KCXP 281035Z AUTO 00000KT 10SM CLR 13/01 A3002 RMK AO2,M
RTS,2022-08-28 10:35,-119.8764,39.6682,1539.00,53.60,30.20,40.54,340.00,5.00,0.00,30.04,M,10.00,M,CLR,M,M,M,M,M,M,M,M,M,M,M,M,M,M,53.60,KRTS 281035Z AUTO 34005KT 10SM CLR 12/M01 A3004 RMK AO2,M
MEV,2022-08-28 10:35,-119.7500,38.9963,1441.42,46.40,33.80,61.28,120.00,3.00,0.00,30.01,M,10.00,M,CLR,M,M,M,M,M,M,M,M,M,M,M,M,M,M,45.15,KMEV 281035Z AUTO 12003KT 10SM CLR 08/01 A3001 RMK AO2,M
HTH,2022-08-28 10:35,-118.6315,38.5448,1282.89,68.00,33.80,28.11,0.00,0.00,0.00,29.97,M,10.00,M,CLR,M,M,M,M,M,M,M,M,M,M,M,M,M,M,68.00,KHTH 281035Z AUTO 00000KT 10SM CLR 20/01 A2997 RMK A01,M
TMT,2022-08-28 10:35,-117.1971,39.4643,1749.34,43.20,24.30,46.94,0.00,0.00,0.00,30.06,M,10.00,M,CLR,M,M,M,M,M,M,M,M,M,M,M,M,M,M,43.20,KTMT 281035Z AUTO 00000KT 10SM CLR 06/M04 A3006 RMK AO2 T00621043,M
ELY,2022-08-28 10:53,-114.8453,39.2950,1909.00,49.00,37.00,63.34,180.00,8.00,0.00,30.07,1009.40,10.00,M,CLR,M,M,M,M,M,M,M,M,M,M,M,M,M,M,44.93,KELY 281053Z AUTO 18008KT 10SM CLR 09/03 A3007 RMK AO2 SLP094 T00940028,M
VGT,2022-08-28 10:53,-115.1933,36.2111,667.00,83.00,42.00,23.68,0.00,0.00,0.00,29.76,1006.20,10.00,M,CLR,M,M,M,M,M,M,M,M,M,M,M,M,M,M,80.68,KVGT 281053Z AUTO 00000KT 10SM CLR 28/06 A2976 RMK AO2 SLP062 T02830056,M
DRA,2022-08-28 10:53,-116.0278,36.6206,1009.00,81.00,40.00,23.13,240.00,4.00,0.00,29.84,1004.40,10.00,M,CLR,M,M,M,M,M,M,M,M,M,M,M,M,M,M,79.37,KDRA 281053Z AUTO 24004KT 10SM CLR 27/04 A2984 RMK AO2 SLP044 T02720044,M
LOL,2022-08-28 10:53,-118.5701,40.0684,1192.43,59.00,27.00,29.25,0.00,0.00,0.00,29.94,1009.60,10.00,M,CLR,M,M,M,M,M,M,M,M,M,M,M,M,M,M,59.00,KLOL 281053Z AUTO 00000KT 10SM CLR 15/M03 A2994 RMK AO2 SLP096 T01501028,M
P68,2022-08-28 10:53,-116.0056,39.6014,1993.00,55.00,21.90,27.31,190.00,9.00,0.00,30.04,1008.60,M,M,M,M,M,M,M,M,M,M,M,M,M,M,M,M,M,55.00,KP68 281053Z AUTO 19009KT 13/M06 A3004 RMK AO1 SLP086 T01281056,M
MEV,2022-08-28 10:55,-119.7500,38.9963,1441.42,44.60,33.80,65.61,100.00,3.00,0.00,30.01,M,10.00,M,CLR,M,M,M,M,M,M,M,M,M,M,M,M,M,M,43.09,KMEV 281055Z AUTO 10003KT 10SM CLR 07/01 A3001 RMK AO2,M
BAM,2022-08-28 10:55,-116.8743,40.5990,1382.36,51.80,21.20,29.82,140.00,4.00,0.00,29.99,M,10.00,M,CLR,M,M,M,M,M,M,M,M,M,M,M,M,M,M,51.80,KBAM 281055Z AUTO 14004KT 10SM CLR 11/M06 A2999 RMK AO1,M
RTS,2022-08-28 10:55,-119.8764,39.6682,1539.00,51.80,30.20,43.32,0.00,0.00,0.00,30.04,M,10.00,M,CLR,M,M,M,M,M,M,M,M,M,M,M,M,M,M,51.80,KRTS 281055Z AUTO 00000KT 10SM CLR 11/M01 A3004 RMK AO2,M
BVU,2022-08-28 10:55,-114.8611,35.9475,671.00,80.60,50.00,34.41,0.00,0.00,0.00,29.78,M,M,M,M,M,M,M,M,M,M,M,M,M,M,M,M,M,M,79.88,KBVU 281055Z AUTO 00000KT 27/10 A2978 RMK AO2 PWINO TSNO,M
TMT,2022-08-28 10:55,-117.1971,39.4643,1749.34,40.30,22.10,47.87,150.00,3.00,0.00,30.07,M,10.00,M,CLR,M,M,M,M,M,M,M,M,M,M,M,M,M,M,38.18,KTMT 281055Z AUTO 15003KT 10SM CLR 05/M05 A3007 RMK AO2 T00461055,M
RNO,2022-08-28 10:55,-119.7711,39.4839,1341.00,60.00,38.00,43.61,0.00,0.00,0.00,30.00,1009.90,10.00,M,CLR,M,M,M,M,M,M,M,M,M,M,M,M,M,M,60.10,KRNO 281055Z 00000KT 10SM CLR 16/03 A3000 RMK AO2 SLP099 T01560033,M
HTH,2022-08-28 10:55,-118.6315,38.5448,1282.89,66.20,33.80,29.92,0.00,0.00,0.00,29.97,M,10.00,M,CLR,M,M,M,M,M,M,M,M,M,M,M,M,M,M,66.20,KHTH 281055Z AUTO 00000KT 10SM CLR 19/01 A2997 RMK A01,M
CXP,2022-08-28 10:55,-119.7326,39.1923,1431.00,53.60,35.60,50.36,0.00,0.00,0.00,30.02,M,10.00,M,CLR,M,M,M,M,M,M,M,M,M,M,M,M,M,M,53.60,KCXP 281055Z AUTO 00000KT 10SM CLR 12/02 A3002 RMK AO2,M
INS,2022-08-28 10:56,-115.6733,36.5872,955.00,71.00,27.90,20.04,340.00,5.00,0.00,29.83,1004.70,10.00,M,CLR,M,M,M,M,M,M,M,M,M,M,M,M,M,M,70.90,KINS 281056Z AUTO 34005KT 10SM CLR 22/M02 A2983 RMK AO2 SLP047 T02161023 $,M
EKO,2022-08-28 10:56,-115.7860,40.8242,1367.00,48.00,21.90,35.38,80.00,5.00,0.00,30.00,1011.20,10.00,M,CLR,M,M,M,M,M,M,M,M,M,M,M,M,M,M,45.40,KEKO 281056Z AUTO 08005KT 10SM CLR 09/M06 A3000 RMK AO2 SLP112 T00891056,M
WMC,2022-08-28 10:56,-117.8072,40.9019,1315.00,51.00,M,M,M,4.00,0.00,29.97,1010.10,10.00,M,CLR,M,M,M,M,M,M,M,M,M,M,M,M,M,M,M,KWMC 281056Z AUTO VRB04KT 10SM CLR 11/ A2997 RMK AO2 SLP101 T0106 $,M
TPH,2022-08-28 10:56,-117.0904,38.0505,1654.00,63.00,30.00,28.70,0.00,0.00,0.00,30.01,1007.70,10.00,M,CLR,M,M,M,M,M,M,M,M,M,M,M,M,M,M,63.00,KTPH 281056Z AUTO 00000KT 10SM CLR 17/M01 A3001 RMK AO2 SLP077 T01721011,M
LAS,2022-08-28 10:56,-115.1634,36.0719,663.00,85.00,48.00,27.79,180.00,10.00,0.00,29.77,1004.70,10.00,M,CLR,M,M,M,M,M,M,M,M,M,M,M,M,M,M,82.53,KLAS 281056Z 18010KT 10SM CLR 29/09 A2977 RMK AO2 SLP047 T02940089,M
LSV,2022-08-28 10:56,-115.0343,36.2362,570.00,85.80,43.70,22.94,0.00,0.00,0.00,29.74,1004.00,10.00,M,CLR,M,M,M,M,M,M,M,M,M,M,M,M,M,M,82.86,KLSV 281056Z AUTO 00000KT 10SM CLR 30/07 A2974 RMK AO2 SLP040 T02990065 $,M
MEV,2022-08-28 11:15,-119.7500,38.9963,1441.42,44.60,33.80,65.61,0.00,0.00,0.00,30.01,M,10.00,M,CLR,M,M,M,M,M,M,M,M,M,M,M,M,M,M,44.60,KMEV 281115Z AUTO 00000KT 10SM CLR 07/01 A3001 RMK AO2,M
BAM,2022-08-28 11:15,-116.8743,40.5990,1382.36,51.80,21.20,29.82,130.00,5.00,0.00,29.99,M,10.00,M,CLR,M,M,M,M,M,M,M,M,M,M,M,M,M,M,51.80,KBAM 281115Z AUTO 13005KT 10SM CLR 11/M06 A2999 RMK AO1,M
HTH,2022-08-28 11:15,-118.6315,38.5448,1282.89,66.20,35.60,32.14,200.00,3.00,0.00,29.97,M,10.00,M,CLR,M,M,M,M,M,M,M,M,M,M,M,M,M,M,66.20,KHTH 281115Z AUTO 20003KT 10SM CLR 19/02 A2997 RMK A01,M
TMT,2022-08-28 11:15,-117.1971,39.4643,1749.34,42.00,23.70,47.76,0.00,0.00,0.00,30.06,M,10.00,M,CLR,M,M,M,M,M,M,M,M,M,M,M,M,M,M,42.10,KTMT 281115Z AUTO 00000KT 10SM CLR 06/M05 A3006 RMK AO2 T00561046,M
RTS,2022-08-28 11:15,-119.8764,39.6682,1539.00,51.80,28.40,40.25,330.00,5.00,0.00,30.04,M,10.00,M,CLR,M,M,M,M,M,M,M,M,M,M,M,M,M,M,51.80,KRTS 281115Z AUTO 33005KT 10SM CLR 11/M02 A3004 RMK AO2,M
CXP,2022-08-28 11:15,-119.7326,39.1923,1431.00,51.80,39.20,61.99,0.00,0.00,0.00,30.02,M,10.00,M,CLR,M,M,M,M,M,M,M,M,M,M,M,M,M,M,51.80,KCXP 281115Z AUTO 00000KT 10SM CLR 11/04 A3002 RMK AO2,M
BVU,2022-08-28 11:15,-114.8611,35.9475,671.00,84.20,46.40,26.76,190.00,4.00,0.00,29.79,M,M,M,M,M,M,M,M,M,M,M,M,M,M,M,M,M,M,81.87,KBVU 281115Z AUTO 19004KT 29/08 A2979 RMK AO2 PWINO TSNO,M
CXP,2022-08-28 11:30,-119.7326,39.1923,1431.00,51.80,37.40,57.77,0.00,0.00,0.00,30.02,M,10.00,M,CLR,M,M,M,M,M,M,M,M,M,M,M,M,M,M,51.80,KCXP 281130Z AUTO 00000KT 10SM CLR 11/03 A3002 RMK AO2,M
BAM,2022-08-28 11:35,-116.8743,40.5990,1382.36,50.00,21.20,31.87,140.00,6.00,0.00,29.99,M,10.00,M,CLR,M,M,M,M,M,M,M,M,M,M,M,M,M,M,50.00,KBAM 281135Z AUTO 14006KT 10SM CLR 10/M06 A2999 RMK AO1,M
HTH,2022-08-28 11:35,-118.6315,38.5448,1282.89,66.20,33.80,29.92,0.00,0.00,0.00,29.97,M,10.00,M,CLR,M,M,M,M,M,M,M,M,M,M,M,M,M,M,66.20,KHTH 281135Z AUTO 00000KT 10SM CLR 19/01 A2997 RMK A01,M
TMT,2022-08-28 11:35,-117.1971,39.4643,1749.34,42.40,25.20,50.26,0.00,0.00,0.00,30.07,M,10.00,M,CLR,M,M,M,M,M,M,M,M,M,M,M,M,M,M,42.40,KTMT 281135Z AUTO 00000KT 10SM CLR 06/M04 A3007 RMK AO2 T00581038,M
MEV,2022-08-28 11:35,-119.7500,38.9963,1441.42,44.60,33.80,65.61,0.00,0.00,0.00,30.01,M,10.00,M,CLR,M,M,M,M,M,M,M,M,M,M,M,M,M,M,44.60,KMEV 281135Z AUTO 00000KT 10SM CLR 07/01 A3001 RMK AO2,M
BVU,2022-08-28 11:35,-114.8611,35.9475,671.00,86.00,46.40,25.26,170.00,7.00,0.00,29.79,M,M,M,M,M,M,M,M,M,M,M,M,M,M,M,M,M,M,83.22,KBVU 281135Z AUTO 17007KT 30/08 A2979 RMK AO2 PWINO TSNO,M
RTS,2022-08-28 11:35,-119.8764,39.6682,1539.00,51.80,30.20,43.32,0.00,0.00,0.00,30.04,M,10.00,M,CLR,M,M,M,M,M,M,M,M,M,M,M,M,M,M,51.80,KRTS 281135Z AUTO 00000KT 10SM CLR 11/M01 A3004 RMK AO2,M
P68,2022-08-28 11:53,-116.0056,39.6014,1993.00,53.00,23.00,30.67,210.00,7.00,0.00,30.04,1008.90,M,M,M,M,M,M,M,M,M,M,M,M,M,M,M,M,M,53.10,KP68 281153Z AUTO 21007KT 12/M05 A3004 RMK AO1 SLP089 T01171050 10156 20089 53002,M
ELY,2022-08-28 11:53,-114.8453,39.2950,1909.00,47.00,36.00,65.63,200.00,6.00,0.00,30.08,1009.50,10.00,M,CLR,M,M,M,M,M,M,M,M,M,M,M,M,M,M,43.48,KELY 281153Z AUTO 20006KT 10SM CLR 08/02 A3008 RMK AO2 SLP095 T00830022 10194 20083 51009,M
LOL,2022-08-28 11:53,-118.5701,40.0684,1192.43,57.00,28.00,32.75,M,M,0.00,29.94,1009.90,10.00,M,CLR,M,M,M,M,M,M,M,M,M,M,M,M,M,M,57.00,KLOL 281153Z AUTO 10SM CLR 14/M02 A2994 RMK AO2 SLP099 T01391022 10267 20133 51009,M
DRA,2022-08-28 11:53,-116.0278,36.6206,1009.00,81.00,42.00,25.19,250.00,6.00,0.00,29.84,1004.60,10.00,M,CLR,M,M,M,M,M,M,M,M,M,M,M,M,M,M,79.49,KDRA 281153Z AUTO 25006KT 10SM CLR 27/06 A2984 RMK AO2 SLP046 T02720056 10317 20267 51007,M
VGT,2022-08-28 11:53,-115.1933,36.2111,667.00,82.00,42.00,24.38,320.00,3.00,0.00,29.77,1006.60,10.00,M,CLR,M,M,M,M,M,M,M,M,M,M,M,M,M,M,80.09,KVGT 281153Z AUTO 32003KT 10SM CLR 28/06 A2977 RMK AO2 SLP066 T02780056 10333 20272 51010,M
RNO,2022-08-28 11:55,-119.7711,39.4839,1341.00,61.00,37.00,40.77,250.00,4.00,0.00,30.00,1010.00,10.00,M,CLR,M,M,M,M,M,M,M,M,M,M,M,M,M,M,61.00,KRNO 281155Z 25004KT 10SM CLR 16/03 A3000 RMK AO2 SLP100 T01610028 10233 20150 51005,M
TMT,2022-08-28 11:55,-117.1971,39.4643,1749.34,37.60,22.10,53.19,0.00,0.00,0.00,30.07,M,10.00,M,CLR,M,M,M,M,M,M,M,M,M,M,M,M,M,M,37.60,KTMT 281155Z AUTO 00000KT 10SM CLR 03/M05 A3007 RMK AO2 T00311055 10116 20031,M
HTH,2022-08-28 11:55,-118.6315,38.5448,1282.89,66.20,33.80,29.92,230.00,3.00,0.00,29.97,M,10.00,M,CLR,M,M,M,M,M,M,M,M,M,M,M,M,M,M,66.20,KHTH 281155Z AUTO 23003KT 10SM CLR 19/01 A2997 RMK A01,M
BAM,2022-08-28 11:55,-116.8743,40.5990,1382.36,51.80,21.20,29.82,120.00,5.00,0.00,29.99,M,10.00,M,CLR,M,M,M,M,M,M,M,M,M,M,M,M,M,M,51.80,KBAM 281155Z AUTO 12005KT 10SM CLR 11/M06 A2999 RMK AO1,M
MEV,2022-08-28 11:55,-119.7500,38.9963,1441.42,46.40,33.80,61.28,0.00,0.00,0.00,30.01,M,10.00,M,CLR,M,M,M,M,M,M,M,M,M,M,M,M,M,M,46.40,KMEV 281155Z AUTO 00000KT 10SM CLR 08/01 A3001 RMK AO2,M
RTS,2022-08-28 11:55,-119.8764,39.6682,1539.00,53.60,32.00,43.61,M,3.00,0.00,30.04,M,10.00,M,CLR,M,M,M,M,M,M,M,M,M,M,M,M,M,M,53.60,KRTS 281155Z AUTO VRB03KT 10SM CLR 12/M00 A3004 RMK AO2,M
CXP,2022-08-28 11:55,-119.7326,39.1923,1431.00,51.80,37.40,57.77,0.00,0.00,0.00,30.03,M,10.00,M,CLR,M,M,M,M,M,M,M,M,M,M,M,M,M,M,51.80,KCXP 281155Z AUTO 00000KT 10SM CLR 11/03 A3003 RMK AO2,M
BVU,2022-08-28 11:55,-114.8611,35.9475,671.00,84.20,48.20,28.63,160.00,5.00,0.00,29.80,M,M,M,M,M,M,M,M,M,M,M,M,M,M,M,M,M,M,82.04,KBVU 281155Z AUTO 16005KT 29/09 A2980 RMK AO2 PWINO TSNO,M
LSV,2022-08-28 11:56,-115.0343,36.2362,570.00,83.80,46.20,26.90,20.00,7.00,0.00,29.75,1004.50,10.00,M,CLR,M,M,M,M,M,M,M,M,M,M,M,M,M,M,81.57,KLSV 281156Z AUTO 02007KT 10SM CLR 29/08 A2975 RMK AO2 SLP045 T02880079 10336 20288 52010 $,M
EKO,2022-08-28 11:56,-115.7860,40.8242,1367.00,48.00,23.00,37.06,0.00,0.00,0.00,30.01,1011.50,10.00,M,CLR,M,M,M,M,M,M,M,M,M,M,M,M,M,M,48.00,KEKO 281156Z AUTO 00000KT 10SM CLR 09/M05 A3001 RMK AO2 SLP115 T00891050 10150 20078 52013,M
LAS,2022-08-28 11:56,-115.1634,36.0719,663.00,85.00,49.00,28.74,180.00,10.00,0.00,29.77,1004.90,10.00,M,CLR,M,M,M,M,M,M,M,M,M,M,M,M,M,M,82.63,KLAS 281156Z 18010KT 10SM CLR 29/09 A2977 RMK AO2 SLP049 T02940094 10339 20289 51006,M
INS,2022-08-28 11:56,-115.6733,36.5872,955.00,73.20,30.90,20.96,0.00,0.00,0.00,29.84,1005.10,10.00,M,CLR,M,M,M,M,M,M,M,M,M,M,M,M,M,M,73.20,KINS 281156Z AUTO 00000KT 10SM CLR 23/M01 A2984 RMK AO2 SLP051 T02291006 10305 20208 52006 $,M
WMC,2022-08-28 11:56,-117.8072,40.9019,1315.00,50.00,M,M,160.00,7.00,0.00,29.98,1010.70,10.00,M,CLR,M,M,M,M,M,M,M,M,M,M,M,M,M,M,M,KWMC 281156Z AUTO 16007KT 10SM CLR 10/ A2998 RMK AO2 SLP107 T0100 10194 20089 51010 $,M
TPH,2022-08-28 11:56,-117.0904,38.0505,1654.00,60.00,30.00,31.80,310.00,3.00,0.00,30.02,1008.10,10.00,M,CLR,M,M,M,M,M,M,M,M,M,M,M,M,M,M,60.10,KTPH 281156Z AUTO 31003KT 10SM CLR 16/M01 A3002 RMK AO2 SLP081 T01561011 10233 20156 53005,M
HTH,2022-08-28 12:15,-118.6315,38.5448,1282.89,64.40,33.80,31.85,240.00,3.00,0.00,29.98,M,10.00,M,CLR,M,M,M,M,M,M,M,M,M,M,M,M,M,M,64.40,KHTH 281215Z AUTO 24003KT 10SM CLR 18/01 A2998 RMK A01,M
BAM,2022-08-28 12:15,-116.8743,40.5990,1382.36,51.80,21.20,29.82,0.00,0.00,0.00,29.99,M,10.00,M,CLR,M,M,M,M,M,M,M,M,M,M,M,M,M,M,51.80,KBAM 281215Z AUTO 00000KT 10SM CLR 11/M06 A2999 RMK AO1,M
TMT,2022-08-28 12:15,-117.1971,39.4643,1749.34,42.60,25.50,50.50,0.00,0.00,0.00,30.08,M,10.00,M,CLR,M,M,M,M,M,M,M,M,M,M,M,M,M,M,42.60,KTMT 281215Z AUTO 00000KT 10SM CLR 06/M04 A3008 RMK AO2 T00591036,M
RTS,2022-08-28 12:15,-119.8764,39.6682,1539.00,51.80,30.20,43.32,360.00,3.00,0.00,30.04,M,10.00,M,CLR,M,M,M,M,M,M,M,M,M,M,M,M,M,M,51.80,KRTS 281215Z AUTO 36003KT 10SM CLR 11/M01 A3004 RMK AO2,M
CXP,2022-08-28 12:15,-119.7326,39.1923,1431.00,51.80,37.40,57.77,0.00,0.00,0.00,30.03,M,10.00,M,CLR,M,M,M,M,M,M,M,M,M,M,M,M,M,M,51.80,KCXP 281215Z AUTO 00000KT 10SM CLR 11/03 A3003 RMK AO2,M
BVU,2022-08-28 12:15,-114.8611,35.9475,671.00,84.20,46.40,26.76,0.00,0.00,0.00,29.80,M,M,M,M,M,M,M,M,M,M,M,M,M,M,M,M,M,M,81.87,KBVU 281215Z AUTO 00000KT 29/08 A2980 RMK AO2 PWINO TSNO,M
MEV,2022-08-28 12:15,-119.7500,38.9963,1441.42,42.80,32.00,65.38,0.00,0.00,0.00,30.02,M,10.00,M,CLR,M,M,M,M,M,M,M,M,M,M,M,M,M,M,42.80,KMEV 281215Z AUTO 00000KT 10SM CLR 06/00 A3002 RMK AO2,M
TMT,2022-08-28 12:35,-117.1971,39.4643,1749.34,44.00,24.40,45.89,0.00,0.00,0.00,30.08,M,10.00,M,CLR,M,M,M,M,M,M,M,M,M,M,M,M,M,M,43.90,KTMT 281235Z AUTO 00000KT 10SM CLR 07/M04 A3008 RMK AO2 T00661042,M
RTS,2022-08-28 12:35,-119.8764,39.6682,1539.00,50.00,30.20,46.31,350.00,6.00,0.00,30.04,M,10.00,M,CLR,M,M,M,M,M,M,M,M,M,M,M,M,M,M,50.00,KRTS 281235Z AUTO 35006KT 10SM CLR 10/M01 A3004 RMK AO2,M
HTH,2022-08-28 12:35,-118.6315,38.5448,1282.89,66.20,37.40,34.51,0.00,0.00,0.00,29.98,M,10.00,M,CLR,M,M,M,M,M,M,M,M,M,M,M,M,M,M,66.20,KHTH 281235Z AUTO 00000KT 10SM CLR 19/03 A2998 RMK A01,M
MEV,2022-08-28 12:35,-119.7500,38.9963,1441.42,42.80,33.80,70.28,50.00,4.00,0.00,30.02,M,10.00,M,CLR,M,M,M,M,M,M,M,M,M,M,M,M,M,M,40.03,KMEV 281235Z AUTO 05004KT 10SM CLR 06/01 A3002 RMK AO2,M
BVU,2022-08-28 12:35,-114.8611,35.9475,671.00,82.40,48.20,30.35,0.00,0.00,0.00,29.80,M,M,M,M,M,M,M,M,M,M,M,M,M,M,M,M,M,M,80.80,KBVU 281235Z AUTO 00000KT 28/09 A2980 RMK AO2 PWINO TSNO,M
CXP,2022-08-28 12:35,-119.7326,39.1923,1431.00,51.80,37.40,57.77,0.00,0.00,0.00,30.03,M,10.00,M,CLR,M,M,M,M,M,M,M,M,M,M,M,M,M,M,51.80,KCXP 281235Z AUTO 00000KT 10SM CLR 11/03 A3003 RMK AO2,M
BAM,2022-08-28 12:35,-116.8743,40.5990,1382.36,50.00,23.00,34.39,210.00,4.00,0.00,30.00,M,10.00,M,CLR,M,M,M,M,M,M,M,M,M,M,M,M,M,M,50.00,KBAM 281235Z AUTO 21004KT 10SM CLR 10/M05 A3000 RMK AO1,M
ELY,2022-08-28 12:53,-114.8453,39.2950,1909.00,47.00,36.00,65.63,180.00,8.00,0.00,30.09,1010.00,10.00,M,CLR,M,M,M,M,M,M,M,M,M,M,M,M,M,M,42.47,KELY 281253Z AUTO 18008KT 10SM CLR 08/02 A3009 RMK AO2 SLP100 T00830022,M
DRA,2022-08-28 12:53,-116.0278,36.6206,1009.00,77.00,42.00,28.73,M,3.00,0.00,29.86,1005.30,10.00,M,CLR,M,M,M,M,M,M,M,M,M,M,M,M,M,M,77.00,KDRA 281253Z AUTO VRB03KT 10SM CLR 25/06 A2986 RMK AO2 SLP053 T02500056,M
P68,2022-08-28 12:53,-116.0056,39.6014,1993.00,50.00,24.10,36.01,240.00,3.00,0.00,30.06,1009.70,M,M,M,M,M,M,M,M,M,M,M,M,M,M,M,M,M,50.00,KP68 281253Z AUTO 24003KT 10/M04 A3006 RMK AO1 SLP097 T01001044,M
LOL,2022-08-28 12:53,-118.5701,40.0684,1192.43,53.00,28.90,39.16,0.00,0.00,0.00,29.96,1010.50,10.00,M,CLR,M,M,M,M,M,M,M,M,M,M,M,M,M,M,53.10,KLOL 281253Z AUTO 00000KT 10SM CLR 12/M02 A2996 RMK AO2 SLP105 T01171017,M
VGT,2022-08-28 12:53,-115.1933,36.2111,667.00,81.00,44.00,27.20,280.00,4.00,0.00,29.79,1007.10,10.00,M,CLR,M,M,M,M,M,M,M,M,M,M,M,M,M,M,79.62,KVGT 281253Z AUTO 28004KT 10SM CLR 27/07 A2979 RMK AO2 SLP071 T02720067,M
RTS,2022-08-28 12:55,-119.8764,39.6682,1539.00,48.20,30.20,49.53,0.00,0.00,0.00,30.05,M,10.00,M,CLR,M,M,M,M,M,M,M,M,M,M,M,M,M,M,48.20,KRTS 281255Z AUTO 00000KT 10SM CLR 09/M01 A3005 RMK AO2,M
MEV,2022-08-28 12:55,-119.7500,38.9963,1441.42,41.00,35.60,80.93,0.00,0.00,0.00,30.02,M,10.00,M,CLR,M,M,M,M,M,M,M,M,M,M,M,M,M,M,41.00,KMEV 281255Z AUTO 00000KT 10SM CLR 05/02 A3002 RMK AO2,M
CXP,2022-08-28 12:55,-119.7326,39.1923,1431.00,50.00,37.40,61.76,0.00,0.00,0.00,30.04,M,10.00,M,CLR,M,M,M,M,M,M,M,M,M,M,M,M,M,M,50.00,KCXP 281255Z AUTO 00000KT 10SM CLR 10/03 A3004 RMK AO2,M
TMT,2022-08-28 12:55,-117.1971,39.4643,1749.34,39.70,23.50,51.97,0.00,0.00,0.00,30.09,M,10.00,M,CLR,M,M,M,M,M,M,M,M,M,M,M,M,M,M,39.70,KTMT 281255Z AUTO 00000KT 10SM CLR 04/M05 A3009 RMK AO2 T00431047,M
HTH,2022-08-28 12:55,-118.6315,38.5448,1282.89,64.40,35.60,34.22,230.00,3.00,0.00,29.99,M,10.00,M,CLR,M,M,M,M,M,M,M,M,M,M,M,M,M,M,64.40,KHTH 281255Z AUTO 23003KT 10SM CLR 18/02 A2999 RMK A01,M
BAM,2022-08-28 12:55,-116.8743,40.5990,1382.36,50.00,23.00,34.39,260.00,5.00,0.00,30.00,M,10.00,M,CLR,M,M,M,M,M,M,M,M,M,M,M,M,M,M,50.00,KBAM 281255Z AUTO 26005KT 10SM CLR 10/M05 A3000 RMK AO1,M
RNO,2022-08-28 12:55,-119.7711,39.4839,1341.00,61.00,36.00,39.19,0.00,0.00,0.00,30.01,1010.20,10.00,M,CLR,M,M,M,M,M,M,M,M,M,M,M,M,M,M,61.00,KRNO 281255Z 00000KT 10SM CLR 16/02 A3001 RMK AO2 SLP102 T01610022,M
BVU,2022-08-28 12:55,-114.8611,35.9475,671.00,78.80,50.00,36.51,0.00,0.00,0.00,29.81,M,M,M,M,M,M,M,M,M,M,M,M,M,M,M,M,M,M,78.80,KBVU 281255Z AUTO 00000KT 26/10 A2981 RMK AO2 PWINO TSNO,M
TPH,2022-08-28 12:56,-117.0904,38.0505,1654.00,59.00,30.00,33.08,10.00,8.00,0.00,30.03,1008.90,10.00,M,CLR,M,M,M,M,M,M,M,M,M,M,M,M,M,M,59.00,KTPH 281256Z AUTO 01008KT 10SM CLR 15/M01 A3003 RMK AO2 SLP089 T01501011,M
LAS,2022-08-28 12:56,-115.1634,36.0719,663.00,83.00,49.00,30.65,170.00,9.00,0.00,29.79,1005.60,10.00,16.00,CLR,M,M,M,M,M,M,M,M,M,M,M,M,M,M,81.20,KLAS 281256Z 17009G16KT 10SM CLR 28/09 A2979 RMK AO2 SLP056 T02830094,M
LSV,2022-08-28 12:56,-115.0343,36.2362,570.00,82.00,49.30,32.03,20.00,7.00,0.00,29.76,1004.90,10.00,M,CLR,M,M,M,M,M,M,M,M,M,M,M,M,M,M,80.65,KLSV 281256Z AUTO 02007KT 10SM CLR 28/10 A2976 RMK AO2 SLP049 T02780096 $,M
WMC,2022-08-28 12:56,-117.8072,40.9019,1315.00,51.00,M,M,120.00,3.00,0.00,29.99,1010.90,10.00,M,CLR,M,M,M,M,M,M,M,M,M,M,M,M,M,M,M,KWMC 281256Z AUTO 12003KT 10SM CLR 11/ A2999 RMK AO2 SLP109 T0106 $,M
EKO,2022-08-28 12:56,-115.7860,40.8242,1367.00,45.00,23.00,41.50,80.00,3.00,0.00,30.02,1012.50,10.00,M,CLR,M,M,M,M,M,M,M,M,M,M,M,M,M,M,43.55,KEKO 281256Z AUTO 08003KT 10SM CLR 07/M05 A3002 RMK AO2 SLP125 T00721050,M
INS,2022-08-28 12:56,-115.6733,36.5872,955.00,69.30,30.90,23.92,0.00,0.00,0.00,29.86,1005.90,10.00,M,CLR,M,M,M,M,M,M,M,M,M,M,M,M,M,M,69.30,KINS 281256Z AUTO 00000KT 10SM CLR 21/M01 A2986 RMK AO2 SLP059 T02071006 $,M
CXP,2022-08-28 13:10,-119.7326,39.1923,1431.00,51.80,37.40,57.77,0.00,0.00,0.00,30.04,M,10.00,M,CLR,M,M,M,M,M,M,M,M,M,M,M,M,M,M,51.80,KCXP 281310Z AUTO 00000KT 10SM CLR 11/03 A3004 RMK AO2,M
MEV,2022-08-28 13:15,-119.7500,38.9963,1441.42,42.80,33.80,70.28,0.00,0.00,0.00,30.03,M,10.00,M,CLR,M,M,M,M,M,M,M,M,M,M,M,M,M,M,42.80,KMEV 281315Z AUTO 00000KT 10SM CLR 06/01 A3003 RMK AO2,M
BVU,2022-08-28 13:15,-114.8611,35.9475,671.00,78.80,50.00,36.51,0.00,0.00,0.00,29.82,M,M,M,M,M,M,M,M,M,M,M,M,M,M,M,M,M,M,78.80,KBVU 281315Z AUTO 00000KT 26/10 A2982 RMK AO2 PWINO TSNO,M
HTH,2022-08-28 13:15,-118.6315,38.5448,1282.89,64.40,35.60,34.22,230.00,4.00,0.00,29.99,M,10.00,M,CLR,M,M,M,M,M,M,M,M,M,M,M,M,M,M,64.40,KHTH 281315Z AUTO 23004KT 10SM CLR 18/02 A2999 RMK A01,M
TMT,2022-08-28 13:15,-117.1971,39.4643,1749.34,34.50,20.10,55.25,170.00,3.00,0.00,30.09,M,10.00,M,CLR,M,M,M,M,M,M,M,M,M,M,M,M,M,M,31.55,KTMT 281315Z AUTO 17003KT 10SM CLR 01/M07 A3009 RMK AO2 T00141066,M
BAM,2022-08-28 13:15,-116.8743,40.5990,1382.36,46.40,21.20,36.48,0.00,0.00,0.00,30.01,M,10.00,M,CLR,M,M,M,M,M,M,M,M,M,M,M,M,M,M,46.40,KBAM 281315Z AUTO 00000KT 10SM CLR 08/M06 A3001 RMK AO1,M
RTS,2022-08-28 13:15,-119.8764,39.6682,1539.00,48.20,30.20,49.53,300.00,4.00,0.00,30.05,M,10.00,M,CLR,M,M,M,M,M,M,M,M,M,M,M,M,M,M,46.34,KRTS 281315Z AUTO 30004KT 10SM CLR 09/M01 A3005 RMK AO2,M
CXP,2022-08-28 13:35,-119.7326,39.1923,1431.00,51.80,35.60,53.81,0.00,0.00,0.00,30.04,M,10.00,M,CLR,M,M,M,M,M,M,M,M,M,M,M,M,M,M,51.80,KCXP 281335Z AUTO 00000KT 10SM CLR 11/02 A3004 RMK AO2,M
RTS,2022-08-28 13:35,-119.8764,39.6682,1539.00,48.20,30.20,49.53,340.00,6.00,0.00,30.05,M,10.00,M,CLR,M,M,M,M,M,M,M,M,M,M,M,M,M,M,45.04,KRTS 281335Z AUTO 34006KT 10SM CLR 09/M01 A3005 RMK AO2,M
MEV,2022-08-28 13:35,-119.7500,38.9963,1441.42,42.80,35.60,75.50,0.00,0.00,0.00,30.03,M,10.00,M,CLR,M,M,M,M,M,M,M,M,M,M,M,M,M,M,42.80,KMEV 281335Z AUTO 00000KT 10SM CLR 06/02 A3003 RMK AO2,M
HTH,2022-08-28 13:35,-118.6315,38.5448,1282.89,64.40,35.60,34.22,0.00,0.00,0.00,30.00,M,10.00,M,CLR,M,M,M,M,M,M,M,M,M,M,M,M,M,M,64.40,KHTH 281335Z AUTO 00000KT 10SM CLR 18/02 A3000 RMK A01,M
TMT,2022-08-28 13:35,-117.1971,39.4643,1749.34,36.70,21.90,54.65,190.00,4.00,0.00,30.10,M,10.00,M,CLR,M,M,M,M,M,M,M,M,M,M,M,M,M,M,32.91,KTMT 281335Z AUTO 19004KT 10SM CLR 03/M06 A3010 RMK AO2 T00261056,M
BAM,2022-08-28 13:35,-116.8743,40.5990,1382.36,46.40,21.20,36.48,0.00,0.00,0.00,30.02,M,10.00,M,CLR,M,M,M,M,M,M,M,M,M,M,M,M,M,M,46.40,KBAM 281335Z AUTO 00000KT 10SM CLR 08/M06 A3002 RMK AO1,M
BVU,2022-08-28 13:35,-114.8611,35.9475,671.00,80.60,50.00,34.41,0.00,0.00,0.00,29.83,M,M,M,M,M,M,M,M,M,M,M,M,M,M,M,M,M,M,79.88,KBVU 281335Z AUTO 00000KT 27/10 A2983 RMK AO2 PWINO TSNO,M
DRA,2022-08-28 13:53,-116.0278,36.6206,1009.00,77.00,43.00,29.74,0.00,0.00,0.00,29.88,1006.10,10.00,M,CLR,M,M,M,M,M,M,M,M,M,M,M,M,M,M,77.00,KDRA 281353Z AUTO 00000KT 10SM CLR 25/06 A2988 RMK AO2 SLP061 T02500061,M
VGT,2022-08-28 13:53,-115.1933,36.2111,667.00,81.00,46.00,29.23,0.00,0.00,0.00,29.81,1007.80,10.00,M,CLR,M,M,M,M,M,M,M,M,M,M,M,M,M,M,79.76,KVGT 281353Z 00000KT 10SM CLR 27/08 A2981 RMK AO2 SLP078 T02720078,M
ELY,2022-08-28 13:53,-114.8453,39.2950,1909.00,50.00,36.00,58.44,180.00,8.00,0.00,30.11,1011.10,10.00,M,CLR,M,M,M,M,M,M,M,M,M,M,M,M,M,M,50.00,KELY 281353Z AUTO 18008KT 10SM CLR 10/02 A3011 RMK AO2 SLP111 T01000022,M
P68,2022-08-28 13:53,-116.0056,39.6014,1993.00,49.00,24.10,37.52,170.00,4.00,0.00,30.08,1011.00,M,M,M,M,M,M,M,M,M,M,M,M,M,M,M,M,M,47.16,KP68 281353Z AUTO 17004KT 09/M04 A3008 RMK AO1 SLP110 T00941044,M
LOL,2022-08-28 13:53,-118.5701,40.0684,1192.43,54.00,28.90,37.89,10.00,3.00,0.00,29.97,1011.10,10.00,M,CLR,M,M,M,M,M,M,M,M,M,M,M,M,M,M,54.00,KLOL 281353Z AUTO 01003KT 10SM CLR 12/M02 A2997 RMK AO2 SLP111 T01221017,M
BAM,2022-08-28 13:55,-116.8743,40.5990,1382.36,50.00,21.20,31.87,140.00,3.00,0.00,30.03,M,10.00,M,CLR,M,M,M,M,M,M,M,M,M,M,M,M,M,M,50.00,KBAM 281355Z AUTO 14003KT 10SM CLR 10/M06 A3003 RMK AO1,M
BVU,2022-08-28 13:55,-114.8611,35.9475,671.00,80.60,50.00,34.41,0.00,0.00,0.00,29.83,M,M,M,M,M,M,M,M,M,M,M,M,M,M,M,M,M,M,79.88,KBVU 281355Z AUTO 00000KT 27/10 A2983 RMK AO2 PWINO TSNO,M
MEV,2022-08-28 13:55,-119.7500,38.9963,1441.42,42.80,33.80,70.28,140.00,4.00,0.00,30.04,M,10.00,M,CLR,M,M,M,M,M,M,M,M,M,M,M,M,M,M,40.03,KMEV 281355Z AUTO 14004KT 10SM CLR 06/01 A3004 RMK AO2,M
RNO,2022-08-28 13:55,-119.7711,39.4839,1341.00,59.00,39.00,47.35,180.00,3.00,0.00,30.02,1011.20,10.00,M,FEW,M,M,M,8000.00,M,M,M,M,M,M,M,M,M,M,59.00,KRNO 281355Z 18003KT 10SM FEW080 15/04 A3002 RMK AO2 SLP112 T01500039,M
RTS,2022-08-28 13:55,-119.8764,39.6682,1539.00,50.00,30.20,46.31,10.00,5.00,0.00,30.06,M,10.00,M,CLR,M,M,M,M,M,M,M,M,M,M,M,M,M,M,50.00,KRTS 281355Z AUTO 01005KT 10SM CLR 10/M01 A3006 RMK AO2,M
HTH,2022-08-28 13:55,-118.6315,38.5448,1282.89,64.40,37.40,36.74,0.00,0.00,0.00,30.00,M,10.00,M,CLR,M,M,M,M,M,M,M,M,M,M,M,M,M,M,64.40,KHTH 281355Z AUTO 00000KT 10SM CLR 18/03 A3000 RMK A01,M
CXP,2022-08-28 13:55,-119.7326,39.1923,1431.00,51.80,37.40,57.77,0.00,0.00,0.00,30.05,M,10.00,M,CLR,M,M,M,M,M,M,M,M,M,M,M,M,M,M,51.80,KCXP 281355Z AUTO 00000KT 10SM CLR 11/03 A3005 RMK AO2,M
TMT,2022-08-28 13:55,-117.1971,39.4643,1749.34,M,M,M,0.00,0.00,0.00,30.10,M,10.00,M,CLR,M,M,M,M,M,M,M,M,M,M,M,M,M,M,M,KTMT 281355Z AUTO 00000KT 10SM CLR A3010 RMK AO2,M
LAS,2022-08-28 13:56,-115.1634,36.0719,663.00,84.00,50.00,30.82,170.00,7.00,0.00,29.81,1006.20,10.00,M,CLR,M,M,M,M,M,M,M,M,M,M,M,M,M,M,82.09,KLAS 281356Z 17007KT 10SM CLR 29/10 A2981 RMK AO2 SLP062 T02890100,M
TPH,2022-08-28 13:56,-117.0904,38.0505,1654.00,60.00,30.90,32.99,10.00,5.00,0.00,30.05,1009.50,10.00,M,CLR,M,M,M,M,M,M,M,M,M,M,M,M,M,M,60.10,KTPH 281356Z AUTO 01005KT 10SM CLR 16/M01 A3005 RMK AO2 SLP095 T01561006,M
WMC,2022-08-28 13:56,-117.8072,40.9019,1315.00,49.00,M,M,120.00,3.00,0.00,30.00,1011.70,10.00,M,CLR,M,M,M,M,M,M,M,M,M,M,M,M,M,M,M,KWMC 281356Z AUTO 12003KT 10SM CLR 09/ A3000 RMK AO2 SLP117 T0094 $,M
INS,2022-08-28 13:56,-115.6733,36.5872,955.00,69.80,32.40,24.99,0.00,0.00,0.00,29.88,1006.80,10.00,M,CLR,M,M,M,M,M,M,M,M,M,M,M,M,M,M,69.80,KINS 281356Z AUTO 00000KT 10SM CLR 21/00 A2988 RMK AO2 SLP068 T02100002 $,M
EKO,2022-08-28 13:56,-115.7860,40.8242,1367.00,41.00,27.00,57.15,0.00,0.00,0.00,30.04,1013.20,10.00,M,CLR,M,M,M,M,M,M,M,M,M,M,M,M,M,M,41.00,KEKO 281356Z AUTO 00000KT 10SM CLR 05/M03 A3004 RMK AO2 SLP132 T00501028,M
LSV,2022-08-28 13:56,-115.0343,36.2362,570.00,83.00,51.00,33.02,30.00,4.00,0.00,29.79,1005.90,10.00,M,CLR,M,M,M,M,M,M,M,M,M,M,M,M,M,M,81.43,KLSV 281356Z AUTO 03004KT 10SM CLR 28/11 A2979 RMK AO2 SLP059 T02830105 $,M
CXP,2022-08-28 14:10,-119.7326,39.1923,1431.00,51.80,37.40,57.77,0.00,0.00,0.00,30.06,M,10.00,M,CLR,M,M,M,M,M,M,M,M,M,M,M,M,M,M,51.80,KCXP 281410Z AUTO 00000KT 10SM CLR 11/03 A3006 RMK AO2,M
RTS,2022-08-28 14:15,-119.8764,39.6682,1539.00,51.80,32.00,46.59,0.00,0.00,0.00,30.06,M,10.00,M,CLR,M,M,M,M,M,M,M,M,M,M,M,M,M,M,51.80,KRTS 281415Z AUTO 00000KT 10SM CLR 11/M00 A3006 RMK AO2,M
BVU,2022-08-28 14:15,-114.8611,35.9475,671.00,84.20,50.00,30.62,0.00,0.00,0.00,29.83,M,M,M,M,M,M,M,M,M,M,M,M,M,M,M,M,M,M,82.24,KBVU 281415Z AUTO 00000KT 29/10 A2983 RMK AO2 PWINO TSNO,M
BAM,2022-08-28 14:15,-116.8743,40.5990,1382.36,51.80,21.20,29.82,0.00,0.00,0.00,30.03,M,10.00,M,CLR,M,M,M,M,M,M,M,M,M,M,M,M,M,M,51.80,KBAM 281415Z AUTO 00000KT 10SM CLR 11/M06 A3003 RMK AO1,M
MEV,2022-08-28 14:15,-119.7500,38.9963,1441.42,46.40,35.60,65.83,0.00,0.00,0.00,30.04,M,10.00,M,CLR,M,M,M,M,M,M,M,M,M,M,M,M,M,M,46.40,KMEV 281415Z AUTO 00000KT 10SM CLR 08/02 A3004 RMK AO2,M
HTH,2022-08-28 14:15,-118.6315,38.5448,1282.89,66.20,35.60,32.14,0.00,0.00,0.00,30.01,M,10.00,M,CLR,M,M,M,M,M,M,M,M,M,M,M,M,M,M,66.20,KHTH 281415Z AUTO 00000KT 10SM CLR 19/02 A3001 RMK A01,M
TMT,2022-08-28 14:15,-117.1971,39.4643,1749.34,45.30,25.30,45.17,0.00,0.00,0.00,30.10,M,10.00,M,CLR,M,M,M,M,M,M,M,M,M,M,M,M,M,M,45.30,KTMT 281415Z AUTO 00000KT 10SM CLR 07/M04 A3010 RMK AO2 T00741037,M
HTH,2022-08-28 14:35,-118.6315,38.5448,1282.89,69.80,35.60,28.39,0.00,0.00,0.00,30.01,M,10.00,M,CLR,M,M,M,M,M,M,M,M,M,M,M,M,M,M,69.80,KHTH 281435Z AUTO 00000KT 10SM CLR 21/02 A3001 RMK A01,M
CXP,2022-08-28 14:35,-119.7326,39.1923,1431.00,55.40,37.40,50.64,0.00,0.00,0.00,30.06,M,10.00,M,CLR,M,M,M,M,M,M,M,M,M,M,M,M,M,M,55.40,KCXP 281435Z AUTO 00000KT 10SM CLR 13/03 A3006 RMK AO2,M
BAM,2022-08-28 14:35,-116.8743,40.5990,1382.36,57.20,26.60,30.69,0.00,0.00,0.00,30.04,M,10.00,M,CLR,M,M,M,M,M,M,M,M,M,M,M,M,M,M,57.20,KBAM 281435Z AUTO 00000KT 10SM CLR 14/M03 A3004 RMK AO1,M
RTS,2022-08-28 14:35,-119.8764,39.6682,1539.00,55.40,33.80,43.90,0.00,0.00,0.00,30.07,M,10.00,M,CLR,M,M,M,M,M,M,M,M,M,M,M,M,M,M,55.40,KRTS 281435Z AUTO 00000KT 10SM CLR 13/01 A3007 RMK AO2,M
MEV,2022-08-28 14:35,-119.7500,38.9963,1441.42,51.80,35.60,53.81,0.00,0.00,0.00,30.05,M,10.00,M,CLR,M,M,M,M,M,M,M,M,M,M,M,M,M,M,51.80,KMEV 281435Z AUTO 00000KT 10SM CLR 11/02 A3005 RMK AO2,M
TMT,2022-08-28 14:35,-117.1971,39.4643,1749.34,M,M,M,180.00,3.00,0.00,30.11,M,10.00,M,CLR,M,M,M,M,M,M,M,M,M,M,M,M,M,M,M,KTMT 281435Z AUTO 18003KT 10SM CLR A3011 RMK AO2,M
BVU,2022-08-28 14:35,-114.8611,35.9475,671.00,84.20,50.00,30.62,0.00,0.00,0.00,29.84,M,M,M,M,M,M,M,M,M,M,M,M,M,M,M,M,M,M,82.24,KBVU 281435Z AUTO 00000KT 29/10 A2984 RMK AO2 PWINO TSNO,M
VGT,2022-08-28 14:53,-115.1933,36.2111,667.00,87.00,49.00,26.79,90.00,5.00,0.00,29.82,1008.20,10.00,M,CLR,M,M,M,M,M,M,M,M,M,M,M,M,M,M,84.37,KVGT 281453Z 09005KT 10SM CLR 31/09 A2982 RMK AO2 SLP082 T03060094 51015,M
P68,2022-08-28 14:53,-116.0056,39.6014,1993.00,61.00,25.00,25.07,230.00,6.00,0.00,30.09,1010.40,M,M,M,M,M,M,M,M,M,M,M,M,M,M,M,M,M,61.00,KP68 281453Z AUTO 23006KT 16/M04 A3009 RMK AO1 SLP104 T01611039 51012,M
DRA,2022-08-28 14:53,-116.0278,36.6206,1009.00,82.00,45.00,27.24,190.00,3.00,0.00,29.89,1006.80,10.00,M,CLR,M,M,M,M,M,M,M,M,M,M,M,M,M,M,80.28,KDRA 281453Z AUTO 19003KT 10SM CLR 28/07 A2989 RMK AO2 SLP068 T02780072 52015,M
LOL,2022-08-28 14:53,-118.5701,40.0684,1192.43,63.00,30.00,28.70,0.00,0.00,0.00,29.98,1011.30,10.00,M,CLR,M,M,M,M,M,M,M,M,M,M,M,M,M,M,63.00,KLOL 281453Z AUTO 00000KT 10SM CLR 17/M01 A2998 RMK AO2 SLP113 T01721011 51012,M
ELY,2022-08-28 14:53,-114.8453,39.2950,1909.00,59.00,38.00,45.36,170.00,10.00,0.00,30.11,1010.60,10.00,M,CLR,M,M,M,M,M,M,M,M,M,M,M,M,M,M,59.00,KELY 281453Z AUTO 17010KT 10SM CLR 15/03 A3011 RMK AO2 SLP106 T01500033 51007,M
TMT,2022-08-28 14:55,-117.1971,39.4643,1749.34,56.30,30.00,36.45,0.00,0.00,0.00,30.11,M,10.00,M,CLR,M,M,M,M,M,M,M,M,M,M,M,M,M,M,56.30,KTMT 281455Z AUTO 00000KT 10SM CLR 14/M01 A3011 RMK AO2 T01351011,M
RTS,2022-08-28 14:55,-119.8764,39.6682,1539.00,57.20,33.80,41.13,0.00,0.00,0.00,30.07,M,10.00,M,CLR,M,M,M,M,M,M,M,M,M,M,M,M,M,M,57.20,KRTS 281455Z AUTO 00000KT 10SM CLR 14/01 A3007 RMK AO2,M
MEV,2022-08-28 14:55,-119.7500,38.9963,1441.42,55.40,35.60,47.16,0.00,0.00,0.00,30.05,M,10.00,M,CLR,M,M,M,M,M,M,M,M,M,M,M,M,M,M,55.40,KMEV 281455Z AUTO 00000KT 10SM CLR 13/02 A3005 RMK AO2,M
HTH,2022-08-28 14:55,-118.6315,38.5448,1282.89,71.60,37.40,28.68,0.00,0.00,0.00,30.01,M,10.00,M,CLR,M,M,M,M,M,M,M,M,M,M,M,M,M,M,71.60,KHTH 281455Z AUTO 00000KT 10SM CLR 22/03 A3001 RMK A01,M
CXP,2022-08-28 14:55,-119.7326,39.1923,1431.00,59.00,37.40,44.47,0.00,0.00,0.00,30.07,M,10.00,M,CLR,M,M,M,M,M,M,M,M,M,M,M,M,M,M,59.00,KCXP 281455Z AUTO 00000KT 10SM CLR 15/03 A3007 RMK AO2,M
BAM,2022-08-28 14:55,-116.8743,40.5990,1382.36,62.60,28.40,27.27,0.00,0.00,0.00,30.04,M,10.00,M,CLR,M,M,M,M,M,M,M,M,M,M,M,M,M,M,62.60,KBAM 281455Z AUTO 00000KT 10SM CLR 17/M02 A3004 RMK AO1,M
BVU,2022-08-28 14:55,-114.8611,35.9475,671.00,86.00,50.00,28.90,0.00,0.00,0.00,29.84,M,M,M,M,M,M,M,M,M,M,M,M,M,M,M,M,M,M,83.62,KBVU 281455Z AUTO 00000KT 30/10 A2984 RMK AO2 PWINO TSNO,M
RNO,2022-08-28 14:55,-119.7711,39.4839,1341.00,64.00,38.00,38.00,270.00,4.00,0.00,30.03,1011.60,10.00,M,FEW,M,M,M,10000.00,M,M,M,M,M,M,M,M,M,M,64.00,KRNO 281455Z 27004KT 10SM FEW100 18/03 A3003 RMK AO2 SLP116 T01780033 53010,M
WMC,2022-08-28 14:56,-117.8072,40.9019,1315.00,60.00,M,M,170.00,5.00,0.00,30.01,1011.90,10.00,M,CLR,M,M,M,M,M,M,M,M,M,M,M,M,M,M,M,KWMC 281456Z AUTO 17005KT 10SM CLR 16/ A3001 RMK AO2 SLP119 T0156 51011 $,M
INS,2022-08-28 14:56,-115.6733,36.5872,955.00,75.40,35.00,23.04,0.00,0.00,0.00,29.89,1007.00,10.00,M,CLR,M,M,M,M,M,M,M,M,M,M,M,M,M,M,75.40,KINS 281456Z AUTO 00000KT 10SM CLR 24/02 A2989 RMK AO2 SLP070 T02410017 52015 $,M
TPH,2022-08-28 14:56,-117.0904,38.0505,1654.00,68.00,30.90,25.02,20.00,3.00,0.00,30.06,1009.80,10.00,M,CLR,M,M,M,M,M,M,M,M,M,M,M,M,M,M,68.00,KTPH 281456Z AUTO 02003KT 10SM CLR 20/M01 A3006 RMK AO2 SLP098 T02001006 52014,M
EKO,2022-08-28 14:56,-115.7860,40.8242,1367.00,50.00,26.10,39.14,200.00,3.00,0.00,30.05,1013.70,10.00,M,CLR,M,M,M,M,M,M,M,M,M,M,M,M,M,M,50.00,KEKO 281456Z AUTO 20003KT 10SM CLR 10/M03 A3005 RMK AO2 SLP137 T01001033 51011,M
LAS,2022-08-28 14:56,-115.1634,36.0719,663.00,86.00,50.00,28.90,200.00,9.00,0.00,29.83,1006.80,10.00,17.00,CLR,M,M,M,M,M,M,M,M,M,M,M,M,M,M,83.62,KLAS 281456Z 20009G17KT 10SM CLR 30/10 A2983 RMK AO2 SLP068 T03000100 53017,M
LSV,2022-08-28 14:56,-115.0343,36.2362,570.00,87.40,53.00,31.00,0.00,0.00,0.00,29.80,1006.30,10.00,M,CLR,M,M,M,M,M,M,M,M,M,M,M,M,M,M,85.27,KLSV 281456Z AUTO 00000KT 10SM CLR 31/12 A2980 RMK AO2 SLP063 T03080117 52015 $,M
BAM,2022-08-28 15:15,-116.8743,40.5990,1382.36,64.40,30.20,27.55,0.00,0.00,0.00,30.04,M,10.00,M,CLR,M,M,M,M,M,M,M,M,M,M,M,M,M,M,64.40,KBAM 281515Z AUTO 00000KT 10SM CLR 18/M01 A3004 RMK AO1,M
TMT,2022-08-28 15:15,-117.1971,39.4643,1749.34,M,M,M,0.00,0.00,0.00,30.11,M,10.00,M,CLR,M,M,M,M,M,M,M,M,M,M,M,M,M,M,M,KTMT 281515Z AUTO 00000KT 10SM CLR A3011 RMK AO2,M
MEV,2022-08-28 15:15,-119.7500,38.9963,1441.42,57.20,35.60,44.19,0.00,0.00,0.00,30.05,M,10.00,M,CLR,M,M,M,M,M,M,M,M,M,M,M,M,M,M,57.20,KMEV 281515Z AUTO 00000KT 10SM CLR 14/02 A3005 RMK AO2,M
HTH,2022-08-28 15:15,-118.6315,38.5448,1282.89,71.60,39.20,30.77,0.00,0.00,0.00,30.02,M,10.00,M,CLR,M,M,M,M,M,M,M,M,M,M,M,M,M,M,71.60,KHTH 281515Z AUTO 00000KT 10SM CLR 22/04 A3002 RMK A01,M
RTS,2022-08-28 15:15,-119.8764,39.6682,1539.00,60.80,33.80,36.16,0.00,0.00,0.00,30.07,M,10.00,M,CLR,M,M,M,M,M,M,M,M,M,M,M,M,M,M,60.80,KRTS 281515Z AUTO 00000KT 10SM CLR 16/01 A3007 RMK AO2,M
CXP,2022-08-28 15:15,-119.7326,39.1923,1431.00,60.80,37.40,41.71,0.00,0.00,0.00,30.07,M,10.00,M,CLR,M,M,M,M,M,M,M,M,M,M,M,M,M,M,60.80,KCXP 281515Z AUTO 00000KT 10SM CLR 16/03 A3007 RMK AO2,M
BVU,2022-08-28 15:15,-114.8611,35.9475,671.00,87.80,51.80,29.18,0.00,0.00,0.00,29.84,M,M,M,M,M,M,M,M,M,M,M,M,M,M,M,M,M,M,85.39,KBVU 281515Z AUTO 00000KT 31/11 A2984 RMK AO2 PWINO TSNO,M
MEV,2022-08-28 15:35,-119.7500,38.9963,1441.42,60.80,35.60,38.85,0.00,0.00,0.00,30.06,M,10.00,M,CLR,M,M,M,M,M,M,M,M,M,M,M,M,M,M,60.80,KMEV 281535Z AUTO 00000KT 10SM CLR 16/02 A3006 RMK AO2,M
HTH,2022-08-28 15:35,-118.6315,38.5448,1282.89,73.40,37.40,26.98,0.00,0.00,0.00,30.02,M,10.00,M,CLR,M,M,M,M,M,M,M,M,M,M,M,M,M,M,73.40,KHTH 281535Z AUTO 00000KT 10SM CLR 23/03 A3002 RMK A01,M
TMT,2022-08-28 15:35,-117.1971,39.4643,1749.34,M,M,M,0.00,0.00,0.00,30.11,M,10.00,M,CLR,M,M,M,M,M,M,M,M,M,M,M,M,M,M,M,KTMT 281535Z AUTO 00000KT 10SM CLR A3011 RMK AO2,M
BVU,2022-08-28 15:35,-114.8611,35.9475,671.00,87.80,51.80,29.18,0.00,0.00,0.00,29.85,M,M,M,M,M,M,M,M,M,M,M,M,M,M,M,M,M,M,85.39,KBVU 281535Z AUTO 00000KT 31/11 A2985 RMK AO2 PWINO TSNO,M
BAM,2022-08-28 15:35,-116.8743,40.5990,1382.36,68.00,32.00,26.15,0.00,0.00,0.00,30.04,M,10.00,M,CLR,M,M,M,M,M,M,M,M,M,M,M,M,M,M,68.00,KBAM 281535Z AUTO 00000KT 10SM CLR 20/00 A3004 RMK AO1,M
CXP,2022-08-28 15:35,-119.7326,39.1923,1431.00,64.40,37.40,36.74,0.00,0.00,0.00,30.07,M,10.00,M,CLR,M,M,M,M,M,M,M,M,M,M,M,M,M,M,64.40,KCXP 281535Z AUTO 00000KT 10SM CLR 18/03 A3007 RMK AO2,M
RTS,2022-08-28 15:35,-119.8764,39.6682,1539.00,62.60,33.80,33.93,0.00,0.00,0.00,30.07,M,10.00,M,CLR,M,M,M,M,M,M,M,M,M,M,M,M,M,M,62.60,KRTS 281535Z AUTO 00000KT 10SM CLR 17/01 A3007 RMK AO2,M
LOL,2022-08-28 15:53,-118.5701,40.0684,1192.43,76.00,30.00,18.46,30.00,9.00,0.00,29.98,1010.90,10.00,M,CLR,M,M,M,M,M,M,M,M,M,M,M,M,M,M,75.90,KLOL 281553Z AUTO 03009KT 10SM CLR 24/M01 A2998 RMK AO2 SLP109 T02441011,M
P68,2022-08-28 15:53,-116.0056,39.6014,1993.00,70.00,24.10,17.66,220.00,4.00,0.00,30.09,1010.80,M,M,M,M,M,M,M,M,M,M,M,M,M,M,M,M,M,70.00,KP68 281553Z AUTO 22004KT 21/M04 A3009 RMK AO1 SLP108 T02111044,M
DRA,2022-08-28 15:53,-116.0278,36.6206,1009.00,87.00,45.00,23.12,M,M,0.00,29.91,1007.20,10.00,M,CLR,M,M,M,M,M,M,M,M,M,M,M,M,M,M,83.98,KDRA 281553Z AUTO 10SM CLR 31/07 A2991 RMK AO2 SLP072 T03060072,M
ELY,2022-08-28 15:53,-114.8453,39.2950,1909.00,70.00,34.00,26.46,190.00,9.00,0.00,30.11,1009.60,10.00,M,CLR,M,M,M,M,M,M,M,M,M,M,M,M,M,M,70.00,KELY 281553Z AUTO 19009KT 10SM CLR 21/01 A3011 RMK AO2 SLP096 T02110011,M
VGT,2022-08-28 15:53,-115.1933,36.2111,667.00,89.00,50.00,26.19,110.00,3.00,0.00,29.83,1008.60,10.00,M,CLR,M,M,M,M,M,M,M,M,M,M,M,M,M,M,86.25,KVGT 281553Z 11003KT 10SM CLR 32/10 A2983 RMK AO2 SLP086 T03170100,M
RTS,2022-08-28 15:55,-119.8764,39.6682,1539.00,66.20,33.80,29.92,0.00,0.00,0.00,30.07,M,10.00,M,CLR,M,M,M,M,M,M,M,M,M,M,M,M,M,M,66.20,KRTS 281555Z AUTO 00000KT 10SM CLR 19/01 A3007 RMK AO2,M
RNO,2022-08-28 15:55,-119.7711,39.4839,1341.00,69.00,38.00,31.85,0.00,0.00,0.00,30.03,1011.30,10.00,M,FEW,M,M,M,10000.00,M,M,M,M,M,M,M,M,M,M,69.10,KRNO 281555Z 00000KT 10SM FEW100 21/03 A3003 RMK AO2 SLP113 T02060033,M
BVU,2022-08-28 15:55,-114.8611,35.9475,671.00,89.60,55.40,31.45,150.00,4.00,0.00,29.85,M,M,M,M,M,M,M,M,M,M,M,M,M,M,M,M,M,M,87.78,KBVU 281555Z AUTO 15004KT 32/13 A2985 RMK AO2 PWINO TSNO,M
BAM,2022-08-28 15:55,-116.8743,40.5990,1382.36,69.80,32.00,24.59,0.00,0.00,0.00,30.04,M,10.00,M,CLR,M,M,M,M,M,M,M,M,M,M,M,M,M,M,69.80,KBAM 281555Z AUTO 00000KT 10SM CLR 21/00 A3004 RMK AO1,M
CXP,2022-08-28 15:55,-119.7326,39.1923,1431.00,64.40,35.60,34.22,0.00,0.00,0.00,30.07,M,10.00,M,CLR,M,M,M,M,M,M,M,M,M,M,M,M,M,M,64.40,KCXP 281555Z AUTO 00000KT 10SM CLR 18/02 A3007 RMK AO2,M
MEV,2022-08-28 15:55,-119.7500,38.9963,1441.42,64.40,35.60,34.22,0.00,0.00,0.00,30.05,M,10.00,M,CLR,M,M,M,M,M,M,M,M,M,M,M,M,M,M,64.40,KMEV 281555Z AUTO 00000KT 10SM CLR 18/02 A3005 RMK AO2,M
HTH,2022-08-28 15:55,-118.6315,38.5448,1282.89,73.40,35.60,25.13,0.00,0.00,0.00,30.02,M,10.00,M,CLR,M,M,M,M,M,M,M,M,M,M,M,M,M,M,73.40,KHTH 281555Z AUTO 00000KT 10SM CLR 23/02 A3002 RMK A01,M
TMT,2022-08-28 15:55,-117.1971,39.4643,1749.34,64.60,30.00,27.14,0.00,0.00,0.00,30.11,M,10.00,M,CLR,M,M,M,M,M,M,M,M,M,M,M,M,M,M,64.60,KTMT 281555Z AUTO 00000KT 10SM CLR 18/M01 A3011 RMK AO2 T01811011,M
NFL,2022-08-28 15:56,-118.7010,39.4166,1199.00,74.00,37.00,26.12,250.00,5.00,0.00,29.99,1012.50,10.00,M,FEW,M,M,M,20000.00,M,M,M,M,M,M,M,M,M,M,73.90,KNFL 281556Z 25005KT 10SM FEW200 23/03 A2999 RMK SLP125 T02330028,M
INS,2022-08-28 15:56,-115.6733,36.5872,955.00,81.00,39.70,22.95,0.00,0.00,0.00,29.90,1007.10,10.00,M,CLR,M,M,M,M,M,M,M,M,M,M,M,M,M,M,79.36,KINS 281556Z AUTO 00000KT 10SM CLR 27/04 A2990 RMK AO2 SLP071 T02720043 $,M
EKO,2022-08-28 15:56,-115.7860,40.8242,1367.00,58.00,24.10,26.98,260.00,3.00,0.00,30.05,1013.50,10.00,M,CLR,M,M,M,M,M,M,M,M,M,M,M,M,M,M,57.90,KEKO 281556Z AUTO 26003KT 10SM CLR 14/M04 A3005 RMK AO2 SLP135 T01441044,M
WMC,2022-08-28 15:56,-117.8072,40.9019,1315.00,70.00,M,M,0.00,0.00,0.00,30.02,1012.10,10.00,M,CLR,M,M,M,M,M,M,M,M,M,M,M,M,M,M,M,KWMC 281556Z AUTO 00000KT 10SM CLR 21/ A3002 RMK AO2 SLP121 T0211 $,M
LSV,2022-08-28 15:56,-115.0343,36.2362,570.00,94.80,50.00,21.93,0.00,0.00,0.00,29.81,1006.50,10.00,M,CLR,M,M,M,M,M,M,M,M,M,M,M,M,M,M,91.68,KLSV 281556Z AUTO 00000KT 10SM CLR 35/10 A2981 RMK AO2 SLP065 T03490100 $,M
TPH,2022-08-28 15:56,-117.0904,38.0505,1654.00,72.00,30.90,21.82,0.00,0.00,0.00,30.07,1010.10,10.00,M,CLR,M,M,M,M,M,M,M,M,M,M,M,M,M,M,72.00,KTPH 281556Z AUTO 00000KT 10SM CLR 22/M01 A3007 RMK AO2 SLP101 T02221006,M
LAS,2022-08-28 15:56,-115.1634,36.0719,663.00,90.00,49.00,24.44,180.00,7.00,0.00,29.84,1007.30,10.00,M,CLR,M,M,M,M,M,M,M,M,M,M,M,M,M,M,86.90,KLAS 281556Z 18007KT 10SM CLR 32/09 A2984 RMK AO2 SLP073 T03220094,M
BAM,2022-08-28 16:15,-116.8743,40.5990,1382.36,71.60,32.00,23.13,0.00,0.00,0.00,30.04,M,10.00,M,CLR,M,M,M,M,M,M,M,M,M,M,M,M,M,M,71.60,KBAM 281615Z AUTO 00000KT 10SM CLR 22/00 A3004 RMK AO1,M
TMT,2022-08-28 16:15,-117.1971,39.4643,1749.34,M,M,M,0.00,0.00,0.00,30.11,M,10.00,M,CLR,M,M,M,M,M,M,M,M,M,M,M,M,M,M,M,KTMT 281615Z AUTO 00000KT 10SM CLR A3011 RMK AO2,M
HTH,2022-08-28 16:15,-118.6315,38.5448,1282.89,75.20,35.60,23.66,320.00,3.00,0.00,30.02,M,10.00,M,CLR,M,M,M,M,M,M,M,M,M,M,M,M,M,M,75.20,KHTH 281615Z AUTO 32003KT 10SM CLR 24/02 A3002 RMK A01,M
RTS,2022-08-28 16:15,-119.8764,39.6682,1539.00,68.00,33.80,28.11,0.00,0.00,0.00,30.07,M,10.00,M,CLR,M,M,M,M,M,M,M,M,M,M,M,M,M,M,68.00,KRTS 281615Z AUTO 00000KT 10SM CLR 20/01 A3007 RMK AO2,M
MEV,2022-08-28 16:15,-119.7500,38.9963,1441.42,68.00,35.60,30.20,0.00,0.00,0.00,30.05,M,10.00,M,CLR,M,M,M,M,M,M,M,M,M,M,M,M,M,M,68.00,KMEV 281615Z AUTO 00000KT 10SM CLR 20/02 A3005 RMK AO2,M
BVU,2022-08-28 16:15,-114.8611,35.9475,671.00,89.60,57.20,33.56,M,3.00,0.00,29.85,M,M,M,M,M,M,M,M,M,M,M,M,M,M,M,M,M,M,88.28,KBVU 281615Z AUTO VRB03KT 32/14 A2985 RMK AO2 PWINO TSNO,M
CXP,2022-08-28 16:15,-119.7326,39.1923,1431.00,66.20,35.60,32.14,0.00,0.00,0.00,30.06,M,10.00,M,CLR,M,M,M,M,M,M,M,M,M,M,M,M,M,M,66.20,KCXP 281615Z AUTO 00000KT 10SM CLR 19/02 A3006 RMK AO2,M
MEV,2022-08-28 16:35,-119.7500,38.9963,1441.42,68.00,37.40,32.43,0.00,0.00,0.00,30.04,M,10.00,M,CLR,M,M,M,M,M,M,M,M,M,M,M,M,M,M,68.00,KMEV 281635Z AUTO 00000KT 10SM CLR 20/03 A3004 RMK AO2,M
CXP,2022-08-28 16:35,-119.7326,39.1923,1431.00,69.80,35.60,28.39,0.00,0.00,0.00,30.06,M,10.00,M,CLR,M,M,M,M,M,M,M,M,M,M,M,M,M,M,69.80,KCXP 281635Z AUTO 00000KT 10SM CLR 21/02 A3006 RMK AO2,M
BVU,2022-08-28 16:35,-114.8611,35.9475,671.00,91.40,57.20,31.72,M,4.00,0.00,29.85,M,M,M,M,M,M,M,M,M,M,M,M,M,M,M,M,M,M,90.06,KBVU 281635Z AUTO VRB04KT 33/14 A2985 RMK AO2 PWINO TSNO,M
BAM,2022-08-28 16:35,-116.8743,40.5990,1382.36,73.40,33.80,23.39,0.00,0.00,0.00,30.04,M,10.00,M,CLR,M,M,M,M,M,M,M,M,M,M,M,M,M,M,73.40,KBAM 281635Z AUTO 00000KT 10SM CLR 23/01 A3004 RMK AO1,M
HTH,2022-08-28 16:35,-118.6315,38.5448,1282.89,75.20,33.80,22.02,M,3.00,0.00,30.02,M,10.00,M,CLR,M,M,M,M,M,M,M,M,M,M,M,M,M,M,75.20,KHTH 281635Z AUTO VRB03KT 10SM CLR 24/01 A3002 RMK A01,M
RTS,2022-08-28 16:35,-119.8764,39.6682,1539.00,71.60,33.80,24.86,150.00,3.00,0.00,30.06,M,10.00,M,CLR,M,M,M,M,M,M,M,M,M,M,M,M,M,M,71.60,KRTS 281635Z AUTO 15003KT 10SM CLR 22/01 A3006 RMK AO2,M
TMT,2022-08-28 16:35,-117.1971,39.4643,1749.34,70.00,30.60,23.08,0.00,0.00,0.00,30.11,M,10.00,M,CLR,M,M,M,M,M,M,M,M,M,M,M,M,M,M,70.00,KTMT 281635Z AUTO 00000KT 10SM CLR 21/M01 A3011 RMK AO2 T02111008,M
LOL,2022-08-28 16:53,-118.5701,40.0684,1192.43,80.00,30.00,16.07,M,4.00,0.00,29.98,1010.60,10.00,M,CLR,M,M,M,M,M,M,M,M,M,M,M,M,M,M,78.57,KLOL 281653Z AUTO VRB04KT 10SM CLR 27/M01 A2998 RMK AO2 SLP106 T02671011,M
DRA,2022-08-28 16:53,-116.0278,36.6206,1009.00,90.00,44.00,20.39,230.00,7.00,0.00,29.91,1007.00,10.00,M,CLR,M,M,M,M,M,M,M,M,M,M,M,M,M,M,86.38,KDRA 281653Z AUTO 23007KT 10SM CLR 32/07 A2991 RMK AO2 SLP070 T03220067,M
P68,2022-08-28 16:53,-116.0056,39.6014,1993.00,76.00,21.00,12.70,70.00,3.00,0.00,30.09,1010.20,M,M,M,M,M,M,M,M,M,M,M,M,M,M,M,M,M,75.90,KP68 281653Z AUTO 07003KT 24/M06 A3009 RMK AO1 SLP102 T02441061,M
VGT,2022-08-28 16:53,-115.1933,36.2111,667.00,93.00,49.00,22.25,150.00,9.00,0.00,29.84,1008.70,10.00,M,CLR,M,M,M,M,M,M,M,M,M,M,M,M,M,M,89.72,KVGT 281653Z 15009KT 10SM CLR 34/09 A2984 RMK AO2 SLP087 T03390094,M
ELY,2022-08-28 16:53,-114.8453,39.2950,1909.00,77.00,30.00,17.80,180.00,5.00,0.00,30.11,1008.80,10.00,M,CLR,M,M,M,M,M,M,M,M,M,M,M,M,M,M,77.00,KELY 281653Z AUTO 18005KT 10SM CLR 25/M01 A3011 RMK AO2 SLP088 T02501011,M
MEV,2022-08-28 16:55,-119.7500,38.9963,1441.42,71.60,37.40,28.68,0.00,0.00,0.00,30.04,M,10.00,M,CLR,M,M,M,M,M,M,M,M,M,M,M,M,M,M,71.60,KMEV 281655Z AUTO 00000KT 10SM CLR 22/03 A3004 RMK AO2,M
BAM,2022-08-28 16:55,-116.8743,40.5990,1382.36,75.20,33.80,22.02,0.00,0.00,0.00,30.04,M,10.00,M,CLR,M,M,M,M,M,M,M,M,M,M,M,M,M,M,75.20,KBAM 281655Z AUTO 00000KT 10SM CLR 24/01 A3004 RMK AO1,M
RTS,2022-08-28 16:55,-119.8764,39.6682,1539.00,73.40,33.80,23.39,140.00,5.00,0.00,30.07,M,10.00,M,CLR,M,M,M,M,M,M,M,M,M,M,M,M,M,M,73.40,KRTS 281655Z AUTO 14005KT 10SM CLR 23/01 A3007 RMK AO2,M
HTH,2022-08-28 16:55,-118.6315,38.5448,1282.89,77.00,33.80,20.74,300.00,3.00,0.00,30.02,M,10.00,M,CLR,M,M,M,M,M,M,M,M,M,M,M,M,M,M,77.00,KHTH 281655Z AUTO 30003KT 10SM CLR 25/01 A3002 RMK A01,M
TMT,2022-08-28 16:55,-117.1971,39.4643,1749.34,M,M,M,0.00,0.00,0.00,30.11,M,10.00,M,CLR,M,M,M,M,M,M,M,M,M,M,M,M,M,M,M,KTMT 281655Z AUTO 00000KT 10SM CLR A3011 RMK AO2,M
RNO,2022-08-28 16:55,-119.7711,39.4839,1341.00,74.00,38.00,27.06,0.00,0.00,0.00,30.02,1010.80,10.00,M,FEW,M,M,M,12000.00,M,M,M,M,M,M,M,M,M,M,73.90,KRNO 281655Z 00000KT 10SM FEW120 23/03 A3002 RMK AO2 SLP108 T02330033,M
CXP,2022-08-28 16:55,-119.7326,39.1923,1431.00,73.40,35.60,25.13,0.00,0.00,0.00,30.05,M,10.00,M,CLR,M,M,M,M,M,M,M,M,M,M,M,M,M,M,73.40,KCXP 281655Z AUTO 00000KT 10SM CLR 23/02 A3005 RMK AO2,M
BVU,2022-08-28 16:55,-114.8611,35.9475,671.00,91.40,57.20,31.72,140.00,7.00,0.00,29.85,M,M,12.00,M,M,M,M,M,M,M,M,M,M,M,M,M,M,M,90.06,KBVU 281655Z AUTO 14007G12KT 33/14 A2985 RMK AO2 PWINO TSNO,M
EKO,2022-08-28 16:56,-115.7860,40.8242,1367.00,66.00,26.10,22.02,0.00,0.00,0.00,30.05,1013.10,10.00,M,CLR,M,M,M,M,M,M,M,M,M,M,M,M,M,M,66.00,KEKO 281656Z AUTO 00000KT 10SM CLR 19/M03 A3005 RMK AO2 SLP131 T01891033,M
INS,2022-08-28 16:56,-115.6733,36.5872,955.00,85.60,42.40,21.96,0.00,0.00,0.00,29.91,1007.50,10.00,M,CLR,M,M,M,M,M,M,M,M,M,M,M,M,M,M,82.62,KINS 281656Z AUTO 00000KT 10SM CLR 30/06 A2991 RMK AO2 SLP075 T02980058 $,M
WMC,2022-08-28 16:56,-117.8072,40.9019,1315.00,76.00,M,M,M,4.00,0.00,30.02,1011.80,10.00,M,CLR,M,M,M,M,M,M,M,M,M,M,M,M,M,M,M,KWMC 281656Z AUTO VRB04KT 10SM CLR 24/ A3002 RMK AO2 SLP118 T0244 $,M
TPH,2022-08-28 16:56,-117.0904,38.0505,1654.00,78.00,30.00,17.16,50.00,3.00,0.00,30.07,1010.00,10.00,M,CLR,M,M,M,M,M,M,M,M,M,M,M,M,M,M,78.10,KTPH 281656Z AUTO 05003KT 10SM CLR 26/M01 A3007 RMK AO2 SLP100 T02561011,M
LSV,2022-08-28 16:56,-115.0343,36.2362,570.00,98.80,50.70,19.91,190.00,8.00,0.00,29.81,1006.40,10.00,M,CLR,M,M,M,M,M,M,M,M,M,M,M,M,M,M,95.93,KLSV 281656Z AUTO 19008KT 10SM CLR 37/10 A2981 RMK AO2 SLP064 T03710104 $,M
NFL,2022-08-28 16:56,-118.7010,39.4166,1199.00,78.00,35.00,21.07,320.00,3.00,0.00,29.99,1012.70,10.00,M,FEW,M,M,M,20000.00,M,M,M,M,M,M,M,M,M,M,78.10,KNFL 281656Z 32003KT 10SM FEW200 26/02 A2999 RMK SLP127 T02560017,M
LAS,2022-08-28 16:56,-115.1634,36.0719,663.00,94.00,47.00,20.07,190.00,10.00,0.00,29.84,1007.20,10.00,M,FEW,M,M,M,9000.00,M,M,M,M,M,M,M,M,M,M,90.29,KLAS 281656Z 19010KT 10SM FEW090 34/08 A2984 RMK AO2 SLP072 T03440083,M
HTH,2022-08-28 17:15,-118.6315,38.5448,1282.89,78.80,33.80,19.55,320.00,4.00,0.00,30.02,M,10.00,M,CLR,M,M,M,M,M,M,M,M,M,M,M,M,M,M,78.80,KHTH 281715Z AUTO 32004KT 10SM CLR 26/01 A3002 RMK A01,M
BAM,2022-08-28 17:15,-116.8743,40.5990,1382.36,77.00,33.80,20.74,0.00,0.00,0.00,30.04,M,10.00,M,CLR,M,M,M,M,M,M,M,M,M,M,M,M,M,M,77.00,KBAM 281715Z AUTO 00000KT 10SM CLR 25/01 A3004 RMK AO1,M
BVU,2022-08-28 17:15,-114.8611,35.9475,671.00,93.20,57.20,29.99,140.00,9.00,0.00,29.85,M,M,M,M,M,M,M,M,M,M,M,M,M,M,M,M,M,M,91.91,KBVU 281715Z AUTO 14009KT 100V160 34/14 A2985 RMK AO2 PWINO TSNO,M
CXP,2022-08-28 17:15,-119.7326,39.1923,1431.00,75.20,35.60,23.66,0.00,0.00,0.00,30.05,M,10.00,M,CLR,M,M,M,M,M,M,M,M,M,M,M,M,M,M,75.20,KCXP 281715Z AUTO 00000KT 10SM CLR 24/02 A3005 RMK AO2,M
TMT,2022-08-28 17:15,-117.1971,39.4643,1749.34,M,M,M,0.00,0.00,0.00,30.11,M,10.00,M,CLR,M,M,M,M,M,M,M,M,M,M,M,M,M,M,M,KTMT 281715Z AUTO 00000KT 10SM CLR A3011 RMK AO2,M
RTS,2022-08-28 17:15,-119.8764,39.6682,1539.00,75.20,33.80,22.02,110.00,5.00,0.00,30.07,M,10.00,M,CLR,M,M,M,M,M,M,M,M,M,M,M,M,M,M,75.20,KRTS 281715Z AUTO 11005KT 10SM CLR 24/01 A3007 RMK AO2,M
MEV,2022-08-28 17:15,-119.7500,38.9963,1441.42,73.40,37.40,26.98,0.00,0.00,0.00,30.04,M,10.00,M,CLR,M,M,M,M,M,M,M,M,M,M,M,M,M,M,73.40,KMEV 281715Z AUTO 00000KT 10SM CLR 23/03 A3004 RMK AO2,M
TMT,2022-08-28 17:35,-117.1971,39.4643,1749.34,M,M,M,0.00,0.00,0.00,30.11,M,10.00,M,CLR,M,M,M,M,M,M,M,M,M,M,M,M,M,M,M,KTMT 281735Z AUTO 00000KT 10SM CLR A3011 RMK AO2,M
BAM,2022-08-28 17:35,-116.8743,40.5990,1382.36,78.80,33.80,19.55,0.00,0.00,0.00,30.04,M,10.00,M,CLR,M,M,M,M,M,M,M,M,M,M,M,M,M,M,78.80,KBAM 281735Z AUTO 00000KT 10SM CLR 26/01 A3004 RMK AO1,M
BVU,2022-08-28 17:35,-114.8611,35.9475,671.00,95.00,55.40,26.58,220.00,7.00,0.00,29.85,M,M,13.00,M,M,M,M,M,M,M,M,M,M,M,M,M,M,M,93.22,KBVU 281735Z AUTO 22007G13KT 35/13 A2985 RMK AO2 PWINO TSNO,M
RTS,2022-08-28 17:35,-119.8764,39.6682,1539.00,77.00,33.80,20.74,M,6.00,0.00,30.06,M,10.00,M,CLR,M,M,M,M,M,M,M,M,M,M,M,M,M,M,77.00,KRTS 281735Z AUTO VRB06KT 10SM CLR 25/01 A3006 RMK AO2,M
MEV,2022-08-28 17:35,-119.7500,38.9963,1441.42,75.20,37.40,25.40,0.00,0.00,0.00,30.04,M,10.00,M,CLR,M,M,M,M,M,M,M,M,M,M,M,M,M,M,75.20,KMEV 281735Z AUTO 00000KT 10SM CLR 24/03 A3004 RMK AO2,M
HTH,2022-08-28 17:35,-118.6315,38.5448,1282.89,80.60,32.00,17.14,320.00,5.00,0.00,30.02,M,10.00,M,CLR,M,M,M,M,M,M,M,M,M,M,M,M,M,M,78.82,KHTH 281735Z AUTO 32005KT 10SM CLR 27/M00 A3002 RMK A01,M
CXP,2022-08-28 17:35,-119.7326,39.1923,1431.00,75.20,35.60,23.66,0.00,0.00,0.00,30.05,M,10.00,M,CLR,M,M,M,M,M,M,M,M,M,M,M,M,M,M,75.20,KCXP 281735Z AUTO 00000KT 10SM CLR 24/02 A3005 RMK AO2,M
DRA,2022-08-28 17:53,-116.0278,36.6206,1009.00,94.00,39.00,14.82,200.00,9.00,0.00,29.91,1006.90,10.00,22.00,CLR,M,M,M,M,M,M,M,M,M,M,M,M,M,M,89.54,KDRA 281753Z AUTO 20009G22KT 10SM CLR 34/04 A2991 RMK AO2 SLP069 T03440039 10350 20244 51006,M
ELY,2022-08-28 17:53,-114.8453,39.2950,1909.00,80.00,28.00,14.81,0.00,0.00,0.00,30.11,1008.20,10.00,M,CLR,M,M,M,M,M,M,M,M,M,M,M,M,M,M,78.51,KELY 281753Z AUTO 00000KT 10SM CLR 27/M02 A3011 RMK AO2 SLP082 T02671022 10272 20078 50000,M
LOL,2022-08-28 17:53,-118.5701,40.0684,1192.43,83.00,32.00,15.91,M,3.00,0.00,29.98,1010.40,10.00,M,CLR,M,M,M,M,M,M,M,M,M,M,M,M,M,M,80.34,KLOL 281753Z AUTO VRB03KT 10SM CLR 28/00 A2998 RMK AO2 SLP104 T02830000 10289 20100 58001,M
VGT,2022-08-28 17:53,-115.1933,36.2111,667.00,98.00,48.00,18.39,130.00,9.00,0.00,29.83,1008.50,10.00,M,CLR,M,M,M,M,M,M,M,M,M,M,M,M,M,M,94.63,KVGT 281753Z 13009KT 10SM CLR 37/09 A2983 RMK AO2 SLP085 T03670089 10367 20267 50003,M
P68,2022-08-28 17:53,-116.0056,39.6014,1993.00,80.00,23.00,12.03,M,4.00,0.00,30.09,1010.20,M,M,M,M,M,M,M,M,M,M,M,M,M,M,M,M,M,78.29,KP68 281753Z AUTO VRB04KT 27/M05 A3009 RMK AO1 SLP102 T02671050 10267 20067 50000,M
RTS,2022-08-28 17:55,-119.8764,39.6682,1539.00,78.80,32.00,18.18,120.00,7.00,0.00,30.06,M,10.00,M,CLR,M,M,M,M,M,M,M,M,M,M,M,M,M,M,78.80,KRTS 281755Z AUTO 12007KT 10SM CLR 26/00 A3006 RMK AO2,M
HTH,2022-08-28 17:55,-118.6315,38.5448,1282.89,82.40,28.40,13.96,310.00,6.00,0.00,30.02,M,10.00,M,CLR,M,M,M,M,M,M,M,M,M,M,M,M,M,M,79.94,KHTH 281755Z AUTO 31006KT 10SM CLR 28/M02 A3002 RMK A01,M
TMT,2022-08-28 17:55,-117.1971,39.4643,1749.34,M,M,M,330.00,3.00,0.00,30.10,M,10.00,M,CLR,M,M,M,M,M,M,M,M,M,M,M,M,M,M,M,KTMT 281755Z AUTO 33003KT 10SM CLR A3010 RMK AO2,M
MEV,2022-08-28 17:55,-119.7500,38.9963,1441.42,78.80,35.60,21.00,0.00,0.00,0.00,30.03,M,9.00,M,CLR,M,M,M,M,M,M,M,M,M,M,M,M,M,M,78.80,KMEV 281755Z AUTO 00000KT 9SM CLR 26/02 A3003 RMK AO2,M
RNO,2022-08-28 17:55,-119.7711,39.4839,1341.00,79.00,38.00,22.84,0.00,0.00,0.00,30.01,1010.40,10.00,M,FEW,M,M,M,18000.00,M,M,M,M,M,M,M,M,M,M,79.00,KRNO 281755Z 00000KT 10SM FEW180 26/03 A3001 RMK AO2 SLP104 T02610033 10267 20139 58006,M
BAM,2022-08-28 17:55,-116.8743,40.5990,1382.36,80.60,33.80,18.42,330.00,3.00,0.00,30.04,M,10.00,M,CLR,M,M,M,M,M,M,M,M,M,M,M,M,M,M,78.88,KBAM 281755Z AUTO 33003KT 10SM CLR 27/01 A3004 RMK AO1,M
CXP,2022-08-28 17:55,-119.7326,39.1923,1431.00,80.60,37.40,21.25,0.00,0.00,0.00,30.04,M,10.00,M,CLR,M,M,M,M,M,M,M,M,M,M,M,M,M,M,79.02,KCXP 281755Z AUTO 00000KT 10SM CLR 27/03 A3004 RMK AO2,M
BVU,2022-08-28 17:55,-114.8611,35.9475,671.00,95.00,55.40,26.58,120.00,3.00,0.00,29.85,M,M,11.00,M,M,M,M,M,M,M,M,M,M,M,M,M,M,M,93.22,KBVU 281755Z AUTO 12003G11KT 35/13 A2985 RMK AO2 PWINO TSNO,M
WMC,2022-08-28 17:56,-117.8072,40.9019,1315.00,81.00,M,M,M,4.00,0.00,30.01,1011.30,10.00,M,CLR,M,M,M,M,M,M,M,M,M,M,M,M,M,M,M,KWMC 281756Z AUTO VRB04KT 10SM CLR 27/ A3001 RMK AO2 SLP113 T0272 10278 20072 58001 $,M
INS,2022-08-28 17:56,-115.6733,36.5872,955.00,91.80,43.50,18.83,50.00,3.00,0.00,29.90,1007.00,10.00,M,CLR,M,M,M,M,M,M,M,M,M,M,M,M,M,M,87.94,KINS 281756Z AUTO 05003KT 10SM CLR 33/06 A2990 RMK AO2 SLP070 T03320064 10332 20205 50004 $,M
LSV,2022-08-28 17:56,-115.0343,36.2362,570.00,98.80,49.30,18.90,130.00,9.00,0.00,29.81,1006.50,10.00,M,CLR,M,M,M,M,M,M,M,M,M,M,M,M,M,M,95.61,KLSV 281756Z AUTO 13009KT 10SM CLR 37/10 A2981 RMK AO2 SLP065 T03710096 10374 20276 51003 $,M
TPH,2022-08-28 17:56,-117.0904,38.0505,1654.00,81.00,30.00,15.60,M,4.00,0.00,30.07,1009.50,10.00,M,CLR,M,M,M,M,M,M,M,M,M,M,M,M,M,M,79.02,KTPH 281756Z AUTO VRB04KT 10SM CLR 27/M01 A3007 RMK AO2 SLP095 T02721011 10278 20150 50003,M
NFL,2022-08-28 17:56,-118.7010,39.4166,1199.00,82.00,30.00,15.10,0.00,0.00,0.00,29.99,1012.60,10.00,M,FEW,FEW,M,M,15000.00,20000.00,M,M,M,M,M,M,M,M,M,79.69,KNFL 281756Z 00000KT 10SM FEW150 FEW200 28/M01 A2999 RMK SLP126 T02781011 10283 20128 50001,M
EKO,2022-08-28 17:56,-115.7860,40.8242,1367.00,74.00,34.00,23.19,200.00,6.00,0.00,30.04,1012.60,10.00,M,CLR,M,M,M,M,M,M,M,M,M,M,M,M,M,M,73.90,KEKO 281756Z AUTO 20006KT 10SM CLR 23/01 A3004 RMK AO2 SLP126 T02330011 10233 20039 58002,M
LAS,2022-08-28 17:56,-115.1634,36.0719,663.00,96.00,47.00,18.76,180.00,12.00,0.00,29.84,1007.20,10.00,20.00,FEW,M,M,M,9000.00,M,M,M,M,M,M,M,M,M,M,92.44,KLAS 281756Z 18012G20KT 10SM FEW090 36/08 A2984 RMK AO2 SLP072 T03560083 10356 20283 51004,M
MEV,2022-08-28 18:15,-119.7500,38.9963,1441.42,80.60,35.60,19.79,0.00,0.00,0.00,30.03,M,10.00,M,CLR,M,M,M,M,M,M,M,M,M,M,M,M,M,M,78.94,KMEV 281815Z AUTO 00000KT 10SM CLR 27/02 A3003 RMK AO2,M
HTH,2022-08-28 18:15,-118.6315,38.5448,1282.89,82.40,26.60,12.97,310.00,7.00,0.00,30.01,M,10.00,M,CLR,M,M,M,M,M,M,M,M,M,M,M,M,M,M,79.92,KHTH 281815Z AUTO 31007KT 10SM CLR 28/M03 A3001 RMK A01,M
BVU,2022-08-28 18:15,-114.8611,35.9475,671.00,96.80,55.40,25.15,200.00,7.00,0.00,29.84,M,M,12.00,M,M,M,M,M,M,M,M,M,M,M,M,M,M,M,95.14,KBVU 281815Z AUTO 20007G12KT 130V240 36/13 A2984 RMK AO2 PWINO TSNO,M
CXP,2022-08-28 18:15,-119.7326,39.1923,1431.00,80.60,35.60,19.79,M,3.00,0.00,30.04,M,10.00,M,CLR,M,M,M,M,M,M,M,M,M,M,M,M,M,M,78.94,KCXP 281815Z AUTO VRB03KT 10SM CLR 27/02 A3004 RMK AO2,M
TMT,2022-08-28 18:15,-117.1971,39.4643,1749.34,M,M,M,30.00,3.00,0.00,30.10,M,10.00,M,CLR,M,M,M,M,M,M,M,M,M,M,M,M,M,M,M,KTMT 281815Z AUTO 03003KT 10SM CLR A3010 RMK AO2,M
RTS,2022-08-28 18:15,-119.8764,39.6682,1539.00,78.80,30.20,16.90,120.00,6.00,0.00,30.06,M,10.00,M,CLR,M,M,M,M,M,M,M,M,M,M,M,M,M,M,78.80,KRTS 281815Z AUTO 12006KT 10SM CLR 26/M01 A3006 RMK AO2,M
BAM,2022-08-28 18:15,-116.8743,40.5990,1382.36,80.60,33.80,18.42,210.00,3.00,0.00,30.03,M,10.00,M,CLR,M,M,M,M,M,M,M,M,M,M,M,M,M,M,78.88,KBAM 281815Z AUTO 21003KT 10SM CLR 27/01 A3003 RMK AO1,M
RTS,2022-08-28 18:35,-119.8764,39.6682,1539.00,80.60,32.00,17.14,140.00,6.00,0.00,30.05,M,10.00,14.00,CLR,M,M,M,M,M,M,M,M,M,M,M,M,M,M,78.82,KRTS 281835Z AUTO 14006G14KT 10SM CLR 27/M00 A3005 RMK AO2,M
BVU,2022-08-28 18:35,-114.8611,35.9475,671.00,96.80,55.40,25.15,190.00,7.00,0.00,29.85,M,M,13.00,M,M,M,M,M,M,M,M,M,M,M,M,M,M,M,95.14,KBVU 281835Z AUTO 19007G13KT 160V220 36/13 A2985 RMK AO2 PWINO TSNO,M
BAM,2022-08-28 18:35,-116.8743,40.5990,1382.36,84.20,33.80,16.39,0.00,0.00,0.00,30.03,M,10.00,M,CLR,M,M,M,M,M,M,M,M,M,M,M,M,M,M,81.30,KBAM 281835Z AUTO 00000KT 10SM CLR 29/01 A3003 RMK AO1,M
TMT,2022-08-28 18:35,-117.1971,39.4643,1749.34,M,M,M,100.00,3.00,0.00,30.09,M,10.00,M,CLR,M,M,M,M,M,M,M,M,M,M,M,M,M,M,M,KTMT 281835Z AUTO 10003KT 10SM CLR A3009 RMK AO2,M
HTH,2022-08-28 18:35,-118.6315,38.5448,1282.89,84.20,26.60,12.23,290.00,8.00,0.00,30.00,M,10.00,M,CLR,M,M,M,M,M,M,M,M,M,M,M,M,M,M,81.13,KHTH 281835Z AUTO 29008KT 10SM CLR 29/M03 A3000 RMK A01,M
MEV,2022-08-28 18:35,-119.7500,38.9963,1441.42,80.60,35.60,19.79,0.00,0.00,0.00,30.02,M,10.00,M,CLR,M,M,M,M,M,M,M,M,M,M,M,M,M,M,78.94,KMEV 281835Z AUTO 00000KT 10SM CLR 27/02 A3002 RMK AO2,M
CXP,2022-08-28 18:35,-119.7326,39.1923,1431.00,82.40,33.80,17.38,160.00,4.00,0.00,30.03,M,10.00,M,CLR,M,M,M,M,M,M,M,M,M,M,M,M,M,M,80.03,KCXP 281835Z AUTO 16004KT 10SM CLR 28/01 A3003 RMK AO2,M
DRA,2022-08-28 18:53,-116.0278,36.6206,1009.00,95.00,40.00,14.84,230.00,13.00,0.00,29.91,1006.80,10.00,22.00,CLR,M,M,M,M,M,M,M,M,M,M,M,M,M,M,90.61,KDRA 281853Z AUTO 23013G22KT 10SM CLR 35/04 A2991 RMK AO2 SLP068 T03500044,M
P68,2022-08-28 18:53,-116.0056,39.6014,1993.00,84.00,21.00,9.74,10.00,8.00,0.00,30.07,1009.80,M,M,M,M,M,M,M,M,M,M,M,M,M,M,M,M,M,80.63,KP68 281853Z AUTO 01008KT 340V050 29/M06 A3007 RMK AO1 SLP098 T02891061,M
ELY,2022-08-28 18:53,-114.8453,39.2950,1909.00,83.00,28.90,14.02,80.00,6.00,0.00,30.10,1008.70,10.00,M,CLR,M,M,M,M,M,M,M,M,M,M,M,M,M,M,80.30,KELY 281853Z AUTO 08006KT 10SM CLR 28/M02 A3010 RMK AO2 SLP087 T02831017,M
VGT,2022-08-28 18:53,-115.1933,36.2111,667.00,100.00,48.00,17.36,170.00,12.00,0.00,29.81,1007.90,10.00,17.00,CLR,M,M,M,M,M,M,M,M,M,M,M,M,M,M,96.55,KVGT 281853Z 17012G17KT 10SM CLR 38/09 A2981 RMK AO2 SLP079 T03780089,M
LOL,2022-08-28 18:53,-118.5701,40.0684,1192.43,88.00,28.90,11.91,M,5.00,0.00,29.97,1010.00,10.00,M,CLR,M,M,M,M,M,M,M,M,M,M,M,M,M,M,84.03,KLOL 281853Z AUTO VRB05KT 10SM CLR 31/M02 A2997 RMK AO2 SLP100 T03111017,M
BAM,2022-08-28 18:55,-116.8743,40.5990,1382.36,84.20,33.80,16.39,0.00,0.00,0.00,30.02,M,10.00,M,CLR,M,M,M,M,M,M,M,M,M,M,M,M,M,M,81.30,KBAM 281855Z AUTO 00000KT 10SM CLR 29/01 A3002 RMK AO1,M
BVU,2022-08-28 18:55,-114.8611,35.9475,671.00,96.80,55.40,25.15,130.00,7.00,0.00,29.84,M,M,M,M,M,M,M,M,M,M,M,M,M,M,M,M,M,M,95.14,KBVU 281855Z AUTO 13007KT 090V170 36/13 A2984 RMK AO2 PWINO TSNO,M
TMT,2022-08-28 18:55,-117.1971,39.4643,1749.34,M,M,M,0.00,0.00,0.00,30.09,M,10.00,M,CLR,M,M,M,M,M,M,M,M,M,M,M,M,M,M,M,KTMT 281855Z AUTO 00000KT 10SM CLR A3009 RMK AO2,M
CXP,2022-08-28 18:55,-119.7326,39.1923,1431.00,84.20,32.00,15.25,M,5.00,0.00,30.03,M,10.00,M,CLR,M,M,M,M,M,M,M,M,M,M,M,M,M,M,81.28,KCXP 281855Z AUTO VRB05KT 10SM CLR 29/00 A3003 RMK AO2,M
HTH,2022-08-28 18:55,-118.6315,38.5448,1282.89,84.20,26.60,12.23,M,4.00,0.00,30.00,M,10.00,10.00,CLR,M,M,M,M,M,M,M,M,M,M,M,M,M,M,81.13,KHTH 281855Z AUTO VRB04G10KT 10SM CLR 29/M03 A3000 RMK A01,M
RTS,2022-08-28 18:55,-119.8764,39.6682,1539.00,82.40,30.20,15.03,120.00,9.00,0.00,30.05,M,10.00,14.00,CLR,M,M,M,M,M,M,M,M,M,M,M,M,M,M,79.97,KRTS 281855Z AUTO 12009G14KT 10SM CLR 28/M01 A3005 RMK AO2,M
MEV,2022-08-28 18:55,-119.7500,38.9963,1441.42,84.20,35.60,17.61,0.00,0.00,0.00,30.01,M,9.00,M,CLR,M,M,M,M,M,M,M,M,M,M,M,M,M,M,81.34,KMEV 281855Z AUTO 00000KT 9SM CLR 29/02 A3001 RMK AO2,M
RNO,2022-08-28 18:55,-119.7711,39.4839,1341.00,85.00,37.00,18.20,250.00,3.00,0.00,30.00,1009.50,10.00,M,FEW,FEW,M,M,10000.00,24000.00,M,M,M,M,M,M,M,M,M,81.88,KRNO 281855Z 25003KT 10SM FEW100 FEW240 29/03 A3000 RMK AO2 SLP095 T02940028,M
INS,2022-08-28 18:56,-115.6733,36.5872,955.00,93.60,40.60,15.92,0.00,0.00,0.00,29.89,1006.50,10.00,M,CLR,M,M,M,M,M,M,M,M,M,M,M,M,M,M,89.37,KINS 281856Z AUTO 00000KT 10SM CLR 34/05 A2989 RMK AO2 SLP065 T03420048 $,M
WMC,2022-08-28 18:56,-117.8072,40.9019,1315.00,86.00,M,M,M,M,0.00,30.00,1010.80,10.00,M,CLR,M,M,M,M,M,M,M,M,M,M,M,M,M,M,M,KWMC 281856Z AUTO 10SM CLR 30/ A3000 RMK AO2 SLP108 T0300 $,M
NFL,2022-08-28 18:56,-118.7010,39.4166,1199.00,86.00,27.00,11.74,M,3.00,0.00,29.97,1012.10,10.00,M,FEW,M,M,M,20000.00,M,M,M,M,M,M,M,M,M,M,82.42,KNFL 281856Z VRB03KT 10SM FEW200 30/M03 A2997 RMK SLP121 T03001028,M
TPH,2022-08-28 18:56,-117.0904,38.0505,1654.00,85.00,30.90,14.26,M,M,0.00,30.07,1009.50,10.00,M,CLR,M,M,M,M,M,M,M,M,M,M,M,M,M,M,81.79,KTPH 281856Z AUTO 10SM CLR 29/M01 A3007 RMK AO2 SLP095 T02941006,M
LAS,2022-08-28 18:56,-115.1634,36.0719,663.00,98.00,49.00,19.02,170.00,12.00,0.00,29.83,1006.80,10.00,19.00,FEW,M,M,M,9000.00,M,M,M,M,M,M,M,M,M,M,94.81,KLAS 281856Z 17012G19KT 10SM FEW090 37/09 A2983 RMK AO2 SLP068 T03670094,M
LSV,2022-08-28 18:56,-115.0343,36.2362,570.00,101.00,51.00,18.97,110.00,7.00,0.00,29.80,1006.20,10.00,M,CLR,M,M,M,M,M,M,M,M,M,M,M,M,M,M,98.23,KLSV 281856Z AUTO 11007KT 10SM CLR 38/11 A2980 RMK AO2 SLP062 T03830106 $,M
EKO,2022-08-28 18:56,-115.7860,40.8242,1367.00,78.00,30.90,17.80,280.00,7.00,0.00,30.03,1012.30,10.00,15.00,CLR,M,M,M,M,M,M,M,M,M,M,M,M,M,M,78.10,KEKO 281856Z AUTO 28007G15KT 10SM CLR 26/M01 A3003 RMK AO2 SLP123 T02561006,M
CXP,2022-08-28 19:10,-119.7326,39.1923,1431.00,86.00,32.00,14.40,M,5.00,0.00,30.02,M,9.00,M,CLR,M,M,M,M,M,M,M,M,M,M,M,M,M,M,82.64,KCXP 281910Z AUTO VRB05KT 9SM CLR 30/M00 A3002 RMK AO2,M
MEV,2022-08-28 19:15,-119.7500,38.9963,1441.42,84.20,33.80,16.39,0.00,0.00,0.00,30.01,M,9.00,M,CLR,M,M,M,M,M,M,M,M,M,M,M,M,M,M,81.30,KMEV 281915Z AUTO 00000KT 9SM CLR 29/01 A3001 RMK AO2,M
BVU,2022-08-28 19:15,-114.8611,35.9475,671.00,98.60,53.60,22.29,160.00,7.00,0.00,29.83,M,M,16.00,M,M,M,M,M,M,M,M,M,M,M,M,M,M,M,96.51,KBVU 281915Z AUTO 16007G16KT 37/12 A2983 RMK AO2 PWINO TSNO,M
RTS,2022-08-28 19:15,-119.8764,39.6682,1539.00,82.40,30.20,15.03,130.00,7.00,0.00,30.04,M,10.00,13.00,CLR,M,M,M,M,M,M,M,M,M,M,M,M,M,M,79.97,KRTS 281915Z AUTO 13007G13KT 10SM CLR 28/M01 A3004 RMK AO2,M
TMT,2022-08-28 19:15,-117.1971,39.4643,1749.34,M,M,M,290.00,4.00,0.00,30.08,M,10.00,M,CLR,M,M,M,M,M,M,M,M,M,M,M,M,M,M,M,KTMT 281915Z AUTO 29004KT 10SM CLR A3008 RMK AO2,M
BAM,2022-08-28 19:15,-116.8743,40.5990,1382.36,86.00,32.00,14.40,0.00,0.00,0.00,30.01,M,10.00,M,CLR,M,M,M,M,M,M,M,M,M,M,M,M,M,M,82.64,KBAM 281915Z AUTO 00000KT 10SM CLR 30/00 A3001 RMK AO1,M
HTH,2022-08-28 19:15,-118.6315,38.5448,1282.89,84.20,26.60,12.23,310.00,5.00,0.00,29.99,M,10.00,M,CLR,M,M,M,M,M,M,M,M,M,M,M,M,M,M,81.13,KHTH 281915Z AUTO 31005KT 10SM CLR 29/M03 A2999 RMK A01,M
LSV,2022-08-28 19:17,-115.0343,36.2362,570.00,102.20,51.80,18.72,170.00,11.00,0.00,29.79,1005.90,10.00,M,CLR,M,M,M,M,M,M,M,M,M,M,M,M,M,M,99.80,KLSV 281917Z AUTO 17011KT 10SM CLR 39/11 A2979 RMK AO2 WSHFT 16 SLP059 $,M
CXP,2022-08-28 19:35,-119.7326,39.1923,1431.00,86.00,32.00,14.40,0.00,0.00,0.00,30.01,M,10.00,M,CLR,M,M,M,M,M,M,M,M,M,M,M,M,M,M,82.64,KCXP 281935Z AUTO 00000KT 10SM CLR 30/M00 A3001 RMK AO2,M
BVU,2022-08-28 19:35,-114.8611,35.9475,671.00,98.60,53.60,22.29,150.00,14.00,0.00,29.83,M,M,M,M,M,M,M,M,M,M,M,M,M,M,M,M,M,M,96.51,KBVU 281935Z AUTO 15014KT 37/12 A2983 RMK AO2 PWINO TSNO,M
RTS,2022-08-28 19:35,-119.8764,39.6682,1539.00,82.40,30.20,15.03,110.00,6.00,0.00,30.04,M,10.00,14.00,CLR,M,M,M,M,M,M,M,M,M,M,M,M,M,M,79.97,KRTS 281935Z AUTO 11006G14KT 10SM CLR 28/M01 A3004 RMK AO2,M
MEV,2022-08-28 19:35,-119.7500,38.9963,1441.42,86.00,33.80,15.48,M,3.00,0.00,30.00,M,8.00,M,CLR,M,M,M,M,M,M,M,M,M,M,M,M,M,M,82.66,KMEV 281935Z AUTO VRB03KT 8SM CLR 30/01 A3000 RMK AO2,M
BAM,2022-08-28 19:35,-116.8743,40.5990,1382.36,86.00,33.80,15.48,290.00,5.00,0.00,30.00,M,10.00,M,CLR,M,M,M,M,M,M,M,M,M,M,M,M,M,M,82.66,KBAM 281935Z AUTO 29005KT 10SM CLR 30/01 A3000 RMK AO1,M
HTH,2022-08-28 19:35,-118.6315,38.5448,1282.89,86.00,24.80,10.72,320.00,6.00,0.00,29.98,M,10.00,M,CLR,M,M,M,M,M,M,M,M,M,M,M,M,M,M,82.26,KHTH 281935Z AUTO 32006KT 10SM CLR 30/M04 A2998 RMK A01,M
TMT,2022-08-28 19:35,-117.1971,39.4643,1749.34,M,M,M,230.00,5.00,0.00,30.08,M,10.00,M,CLR,M,M,M,M,M,M,M,M,M,M,M,M,M,M,M,KTMT 281935Z AUTO 23005KT 10SM CLR A3008 RMK AO2,M
LSV,2022-08-28 19:46,-115.0343,36.2362,570.00,102.20,48.20,16.37,200.00,12.00,0.00,29.78,1005.50,10.00,15.00,CLR,M,M,M,M,M,M,M,M,M,M,M,M,M,M,98.83,KLSV 281946Z AUTO 20012G15KT 10SM CLR 39/09 A2978 RMK AO2 WSHFT 44 SLP055 $,M
VGT,2022-08-28 19:53,-115.1933,36.2111,667.00,102.00,49.00,16.91,180.00,15.00,0.00,29.80,1007.30,10.00,23.00,CLR,M,M,M,M,M,M,M,M,M,M,M,M,M,M,98.79,KVGT 281953Z 18015G23KT 10SM CLR 39/09 A2980 RMK AO2 SLP073 T03890094,M
DRA,2022-08-28 19:53,-116.0278,36.6206,1009.00,97.00,40.00,13.96,210.00,13.00,0.00,29.90,1006.30,10.00,21.00,CLR,M,M,M,M,M,M,M,M,M,M,M,M,M,M,92.48,KDRA 281953Z AUTO 21013G21KT 10SM CLR 36/04 A2990 RMK AO2 SLP063 T03610044,M
LOL,2022-08-28 19:53,-118.5701,40.0684,1192.43,89.00,28.00,11.09,190.00,6.00,0.00,29.95,1009.30,10.00,M,CLR,M,M,M,M,M,M,M,M,M,M,M,M,M,M,84.76,KLOL 281953Z AUTO 19006KT 10SM CLR 32/M02 A2995 RMK AO2 SLP093 T03171022,M
ELY,2022-08-28 19:53,-114.8453,39.2950,1909.00,84.00,28.00,13.04,M,5.00,0.00,30.09,1008.50,10.00,18.00,SCT,M,M,M,12000.00,M,M,M,M,M,M,M,M,M,M,81.10,KELY 281953Z AUTO VRB05G18KT 10SM SCT120 29/M02 A3009 RMK AO2 SLP085 T02891022,M
P68,2022-08-28 19:53,-116.0056,39.6014,1993.00,84.00,24.10,11.10,140.00,9.00,0.00,30.05,1009.30,M,M,M,M,M,M,M,M,M,M,M,M,M,M,M,M,M,80.82,KP68 281953Z AUTO 14009KT 29/M04 A3005 RMK AO1 SLP093 T02891044,M
BAM,2022-08-28 19:55,-116.8743,40.5990,1382.36,87.80,32.00,13.59,0.00,0.00,0.00,30.00,M,10.00,M,CLR,M,M,M,M,M,M,M,M,M,M,M,M,M,M,84.08,KBAM 281955Z AUTO 00000KT 10SM CLR 31/00 A3000 RMK AO1,M
HTH,2022-08-28 19:55,-118.6315,38.5448,1282.89,86.00,24.80,10.72,300.00,4.00,0.00,29.97,M,10.00,10.00,CLR,M,M,M,M,M,M,M,M,M,M,M,M,M,M,82.26,KHTH 281955Z AUTO 30004G10KT 10SM CLR 30/M04 A2997 RMK A01,M
TMT,2022-08-28 19:55,-117.1971,39.4643,1749.34,M,M,M,300.00,5.00,0.00,30.07,M,10.00,M,CLR,M,M,M,M,M,M,M,M,M,M,M,M,M,M,M,KTMT 281955Z AUTO 30005KT 10SM CLR A3007 RMK AO2,M
RNO,2022-08-28 19:55,-119.7711,39.4839,1341.00,89.00,37.00,15.92,0.00,0.00,0.00,29.97,1008.80,10.00,M,FEW,FEW,SCT,M,10000.00,18000.00,24000.00,M,M,M,M,M,M,M,M,85.23,KRNO 281955Z 00000KT 10SM FEW100 FEW180 SCT240 32/03 A2997 RMK AO2 SLP088 T03170028,M
CXP,2022-08-28 19:55,-119.7326,39.1923,1431.00,87.80,30.20,12.64,M,4.00,0.00,30.01,M,10.00,M,CLR,M,M,M,M,M,M,M,M,M,M,M,M,M,M,84.01,KCXP 281955Z AUTO VRB04KT 10SM CLR 31/M01 A3001 RMK AO2,M
RTS,2022-08-28 19:55,-119.8764,39.6682,1539.00,84.20,30.20,14.18,110.00,6.00,0.00,30.03,M,10.00,13.00,CLR,M,M,M,M,M,M,M,M,M,M,M,M,M,M,81.26,KRTS 281955Z AUTO 11006G13KT 10SM CLR 29/M01 A3003 RMK AO2,M
BVU,2022-08-28 19:55,-114.8611,35.9475,671.00,98.60,53.60,22.29,150.00,10.00,0.00,29.82,M,M,19.00,M,M,M,M,M,M,M,M,M,M,M,M,M,M,M,96.51,KBVU 281955Z AUTO 15010G19KT 100V190 37/12 A2982 RMK AO2 PWINO TSNO,M
MEV,2022-08-28 19:55,-119.7500,38.9963,1441.42,86.00,30.20,13.38,M,5.00,0.00,29.99,M,10.00,M,CLR,M,M,M,M,M,M,M,M,M,M,M,M,M,M,82.64,KMEV 281955Z AUTO VRB05KT 10SM CLR 30/M01 A2999 RMK AO2,M
INS,2022-08-28 19:56,-115.6733,36.5872,955.00,95.00,40.00,14.96,90.00,3.00,0.00,29.88,1006.20,10.00,M,CLR,M,M,M,M,M,M,M,M,M,M,M,M,M,M,90.63,KINS 281956Z AUTO 09003KT 10SM CLR 35/05 A2988 RMK AO2 SLP062 T03500045 $,M
EKO,2022-08-28 19:56,-115.7860,40.8242,1367.00,80.00,30.90,16.67,250.00,13.00,0.00,30.01,1011.20,10.00,21.00,CLR,M,M,M,M,M,M,M,M,M,M,M,M,M,M,78.59,KEKO 281956Z AUTO 25013G21KT 210V280 10SM CLR 27/M01 A3001 RMK AO2 SLP112 T02671006,M
LSV,2022-08-28 19:56,-115.0343,36.2362,570.00,104.50,45.70,13.91,210.00,10.00,0.00,29.78,1005.40,10.00,M,CLR,M,M,M,M,M,M,M,M,M,M,M,M,M,M,100.54,KLSV 281956Z AUTO 21010KT 10SM CLR 40/08 A2978 RMK AO2 SLP054 T04030076 $,M
LAS,2022-08-28 19:56,-115.1634,36.0719,663.00,99.00,48.00,17.90,160.00,8.00,0.00,29.82,1006.50,10.00,17.00,FEW,M,M,M,9000.00,M,M,M,M,M,M,M,M,M,M,95.54,KLAS 281956Z 16008G17KT 10SM FEW090 37/09 A2982 RMK AO2 SLP065 ACC DSNT E T03720089,M
TPH,2022-08-28 19:56,-117.0904,38.0505,1654.00,86.00,30.00,13.28,M,M,0.00,30.05,1008.80,10.00,M,CLR,M,M,M,M,M,M,M,M,M,M,M,M,M,M,82.64,KTPH 281956Z AUTO 10SM CLR 30/M01 A3005 RMK AO2 SLP088 T03001011,M
NFL,2022-08-28 19:56,-118.7010,39.4166,1199.00,88.00,25.00,10.14,340.00,7.00,0.00,29.96,1011.60,10.00,M,FEW,M,M,M,20000.00,M,M,M,M,M,M,M,M,M,M,83.71,KNFL 281956Z 34007KT 10SM FEW200 30/M03 A2996 RMK SLP116 T03111039,M
WMC,2022-08-28 19:56,-117.8072,40.9019,1315.00,90.00,M,M,290.00,9.00,0.00,29.98,1010.00,10.00,18.00,CLR,M,M,M,M,M,M,M,M,M,M,M,M,M,M,M,KWMC 281956Z AUTO 29009G18KT 10SM CLR 32/ A2998 RMK AO2 SLP100 T0322 $,M
RTS,2022-08-28 20:15,-119.8764,39.6682,1539.00,84.20,32.00,15.25,110.00,8.00,0.00,30.02,M,10.00,M,CLR,M,M,M,M,M,M,M,M,M,M,M,M,M,M,81.28,KRTS 282015Z AUTO 11008KT 10SM CLR 29/M00 A3002 RMK AO2,M
CXP,2022-08-28 20:15,-119.7326,39.1923,1431.00,87.80,30.20,12.64,80.00,8.00,0.00,30.00,M,9.00,M,CLR,M,M,M,M,M,M,M,M,M,M,M,M,M,M,84.01,KCXP 282015Z AUTO 08008KT 050V120 9SM CLR 31/M01 A3000 RMK AO2,M
BVU,2022-08-28 20:15,-114.8611,35.9475,671.00,98.60,53.60,22.29,130.00,7.00,0.00,29.81,M,M,16.00,M,M,M,M,M,M,M,M,M,M,M,M,M,M,M,96.51,KBVU 282015Z AUTO 13007G16KT 37/12 A2981 RMK AO2 PWINO TSNO,M
TMT,2022-08-28 20:15,-117.1971,39.4643,1749.34,M,M,M,230.00,5.00,0.00,30.06,M,10.00,M,CLR,M,M,M,M,M,M,M,M,M,M,M,M,M,M,M,KTMT 282015Z AUTO 23005KT 10SM CLR A3006 RMK AO2,M
HTH,2022-08-28 20:15,-118.6315,38.5448,1282.89,87.80,24.80,10.12,360.00,8.00,0.00,29.96,M,10.00,M,CLR,M,M,M,M,M,M,M,M,M,M,M,M,M,M,83.56,KHTH 282015Z AUTO 36008KT 10SM CLR 31/M04 A2996 RMK A01,M
BAM,2022-08-28 20:15,-116.8743,40.5990,1382.36,87.80,32.00,13.59,270.00,5.00,0.00,29.99,M,10.00,M,CLR,M,M,M,M,M,M,M,M,M,M,M,M,M,M,84.08,KBAM 282015Z AUTO 27005KT 10SM CLR 31/00 A2999 RMK AO1,M
MEV,2022-08-28 20:15,-119.7500,38.9963,1441.42,87.80,30.20,12.64,M,4.00,0.00,29.98,M,10.00,M,CLR,M,M,M,M,M,M,M,M,M,M,M,M,M,M,84.01,KMEV 282015Z AUTO VRB04KT 10SM CLR 31/M01 A2998 RMK AO2,M
TMT,2022-08-28 20:35,-117.1971,39.4643,1749.34,M,M,M,0.00,0.00,0.00,30.06,M,10.00,M,CLR,M,M,M,M,M,M,M,M,M,M,M,M,M,M,M,KTMT 282035Z AUTO 00000KT 10SM CLR A3006 RMK AO2,M
HTH,2022-08-28 20:35,-118.6315,38.5448,1282.89,87.80,24.80,10.12,360.00,8.00,0.00,29.95,M,10.00,M,CLR,M,M,M,M,M,M,M,M,M,M,M,M,M,M,83.56,KHTH 282035Z AUTO 36008KT 10SM CLR 31/M04 A2995 RMK A01,M
BAM,2022-08-28 20:35,-116.8743,40.5990,1382.36,91.40,32.00,12.14,220.00,11.00,0.00,29.99,M,10.00,15.00,CLR,M,M,M,M,M,M,M,M,M,M,M,M,M,M,86.91,KBAM 282035Z AUTO 22011G15KT 10SM CLR 33/00 A2999 RMK AO1,M
BVU,2022-08-28 20:35,-114.8611,35.9475,671.00,98.60,51.80,20.87,170.00,16.00,0.00,29.80,M,M,M,M,M,M,M,M,M,M,M,M,M,M,M,M,M,M,96.00,KBVU 282035Z AUTO 17016KT 37/11 A2980 RMK AO2 PWINO TSNO,M
CXP,2022-08-28 20:35,-119.7326,39.1923,1431.00,87.80,30.20,12.64,M,4.00,0.00,29.99,M,10.00,M,CLR,M,M,M,M,M,M,M,M,M,M,M,M,M,M,84.01,KCXP 282035Z AUTO VRB04KT 10SM CLR 31/M01 A2999 RMK AO2,M
RTS,2022-08-28 20:35,-119.8764,39.6682,1539.00,84.20,30.20,14.18,140.00,12.00,0.00,30.01,M,10.00,M,CLR,M,M,M,M,M,M,M,M,M,M,M,M,M,M,81.26,KRTS 282035Z AUTO 14012KT 10SM CLR 29/M01 A3001 RMK AO2,M
MEV,2022-08-28 20:35,-119.7500,38.9963,1441.42,87.80,30.20,12.64,M,6.00,0.00,29.98,M,10.00,M,CLR,M,M,M,M,M,M,M,M,M,M,M,M,M,M,84.01,KMEV 282035Z AUTO VRB06KT 10SM CLR 31/M01 A2998 RMK AO2,M
VGT,2022-08-28 20:53,-115.1933,36.2111,667.00,102.00,48.00,16.35,160.00,12.00,0.00,29.78,1006.60,10.00,20.00,CLR,M,M,M,M,M,M,M,M,M,M,M,27.00,170.00,2022-08-28 20:19,98.58,KVGT 282053Z 16012G20KT 10SM CLR 39/09 A2978 RMK AO2 PK WND 17027/2019 LTG DSNT SE SLP066 T03890089 58017,M
DRA,2022-08-28 20:53,-116.0278,36.6206,1009.00,98.00,39.00,13.03,200.00,13.00,0.00,29.88,1005.70,10.00,24.00,CLR,M,M,M,M,M,M,M,M,M,M,M,M,M,M,93.42,KDRA 282053Z AUTO 20013G24KT 10SM CLR 37/04 A2988 RMK AO2 SLP057 T03670039 58011,M
P68,2022-08-28 20:53,-116.0056,39.6014,1993.00,87.00,24.10,10.05,90.00,6.00,0.00,30.04,1008.90,M,M,M,M,M,M,M,M,M,M,M,M,M,M,M,M,M,83.00,KP68 282053Z AUTO 09006KT 31/M04 A3004 RMK AO1 SLP089 T03061044 58014,M
LOL,2022-08-28 20:53,-118.5701,40.0684,1192.43,90.00,21.90,8.36,210.00,3.00,0.00,29.93,1008.70,10.00,M,CLR,M,M,M,M,M,M,M,M,M,M,M,M,M,M,84.98,KLOL 282053Z AUTO 21003KT 10SM CLR 32/M06 A2993 RMK AO2 SLP087 T03221056 58015,M
ELY,2022-08-28 20:53,-114.8453,39.2950,1909.00,84.00,27.00,12.52,230.00,8.00,0.00,30.08,1008.40,10.00,M,CLR,M,M,M,M,M,M,M,M,M,M,M,M,M,M,81.03,KELY 282053Z AUTO 23008KT 10SM CLR 29/M03 A3008 RMK AO2 SLP084 T02891028 58009,M
RNO,2022-08-28 20:55,-119.7711,39.4839,1341.00,91.00,35.00,13.91,M,4.00,0.00,29.95,1008.00,10.00,M,FEW,FEW,SCT,M,10000.00,18000.00,24000.00,M,M,M,M,M,M,M,M,86.81,KRNO 282055Z VRB04KT 10SM FEW100 FEW180 SCT240 33/02 A2995 RMK AO2 SLP080 T03280017 58019,M
BVU,2022-08-28 20:55,-114.8611,35.9475,671.00,98.60,53.60,22.29,150.00,15.00,0.00,29.80,M,M,M,M,M,M,M,M,M,M,M,M,M,M,M,M,M,M,96.51,KBVU 282055Z AUTO 15015KT 37/12 A2980 RMK AO2 PWINO TSNO,M
CXP,2022-08-28 20:55,-119.7326,39.1923,1431.00,87.80,30.20,12.64,100.00,4.00,0.00,29.99,M,10.00,M,CLR,M,M,M,M,M,M,M,M,M,M,M,M,M,M,84.01,KCXP 282055Z AUTO 10004KT 10SM CLR 31/M01 A2999 RMK AO2,M
RTS,2022-08-28 20:55,-119.8764,39.6682,1539.00,84.20,30.20,14.18,120.00,4.00,0.00,30.01,M,10.00,13.00,CLR,M,M,M,M,M,M,M,M,M,M,M,M,M,M,81.26,KRTS 282055Z AUTO 12004G13KT 10SM CLR 29/M01 A3001 RMK AO2,M
MEV,2022-08-28 20:55,-119.7500,38.9963,1441.42,87.80,32.00,13.59,M,4.00,0.00,29.97,M,10.00,M,CLR,M,M,M,M,M,M,M,M,M,M,M,M,M,M,84.08,KMEV 282055Z AUTO VRB04KT 10SM CLR 31/00 A2997 RMK AO2,M
BAM,2022-08-28 20:55,-116.8743,40.5990,1382.36,89.60,32.00,12.84,210.00,9.00,0.00,29.98,M,10.00,15.00,CLR,M,M,M,M,M,M,M,M,M,M,M,M,M,M,85.54,KBAM 282055Z AUTO 21009G15KT 10SM CLR 32/00 A2998 RMK AO1,M
HTH,2022-08-28 20:55,-118.6315,38.5448,1282.89,89.60,24.80,9.56,340.00,4.00,0.00,29.95,M,10.00,M,CLR,M,M,M,M,M,M,M,M,M,M,M,M,M,M,84.88,KHTH 282055Z AUTO 34004KT 10SM CLR 32/M04 A2995 RMK A01,M
TMT,2022-08-28 20:55,-117.1971,39.4643,1749.34,M,M,M,270.00,9.00,0.00,30.05,M,10.00,14.00,CLR,M,M,M,M,M,M,M,M,M,M,M,M,M,M,M,KTMT 282055Z AUTO 27009G14KT 10SM CLR A3005 RMK AO2,M
EKO,2022-08-28 20:56,-115.7860,40.8242,1367.00,81.00,30.90,16.18,M,M,0.00,30.00,1011.40,10.00,M,CLR,M,M,M,M,M,M,M,M,M,M,M,M,M,M,79.04,KEKO 282056Z AUTO 10SM CLR 27/M01 A3000 RMK AO2 SLP114 T02721006 56013,M
WMC,2022-08-28 20:56,-117.8072,40.9019,1315.00,90.00,M,M,M,4.00,0.00,29.96,1009.60,10.00,M,CLR,M,M,M,M,M,M,M,M,M,M,M,M,M,M,M,KWMC 282056Z AUTO VRB04KT 10SM CLR 32/ A2996 RMK AO2 SLP096 T0322 58014 $,M
NFL,2022-08-28 20:56,-118.7010,39.4166,1199.00,91.00,24.10,8.89,300.00,6.00,0.00,29.93,1011.00,10.00,M,SCT,M,M,M,20000.00,M,M,M,M,M,M,M,M,M,M,85.86,KNFL 282056Z 30006KT 10SM SCT200 32/M05 A2993 RMK SLP110 T03281044,M
TPH,2022-08-28 20:56,-117.0904,38.0505,1654.00,89.00,28.90,11.50,150.00,9.00,0.00,30.03,1008.20,10.00,M,CLR,M,M,M,M,M,M,M,M,M,M,M,M,M,M,84.84,KTPH 282056Z AUTO 15009KT 10SM CLR 32/M02 A3003 RMK AO2 SLP082 T03171017 58010,M
LAS,2022-08-28 20:56,-115.1634,36.0719,663.00,99.00,47.00,17.17,M,6.00,0.00,29.79,1005.60,10.00,M,FEW,FEW,M,M,9000.00,12000.00,M,M,M,M,M,M,M,M,M,95.33,KLAS 282056Z VRB06KT 10SM FEW090 FEW120 37/08 A2979 RMK AO2 LTG DSNT SE SLP056 CB DSNT E AND SE T03720083 58015,M
LSV,2022-08-28 20:56,-115.0343,36.2362,570.00,105.80,46.80,13.96,200.00,10.00,0.00,29.76,1004.60,10.00,17.00,CLR,M,M,M,M,M,M,M,M,M,M,M,M,M,M,102.08,KLSV 282056Z AUTO 20010G17KT 10SM CLR 41/08 A2976 RMK AO2 SLP046 T04100082 57018 $,M
INS,2022-08-28 20:56,-115.6733,36.5872,955.00,97.30,38.30,12.99,120.00,6.00,0.00,29.85,1005.40,10.00,M,CLR,M,M,M,M,M,M,M,M,M,M,M,M,M,M,92.62,KINS 282056Z AUTO 12006KT 10SM CLR 36/04 A2985 RMK AO2 SLP054 T03630035 57015 $,M
TMT,2022-08-28 21:15,-117.1971,39.4643,1749.34,M,M,M,240.00,10.00,0.00,30.05,M,10.00,M,CLR,M,M,M,M,M,M,M,M,M,M,M,M,M,M,M,KTMT 282115Z AUTO 24010KT 10SM CLR A3005 RMK AO2,M
BVU,2022-08-28 21:15,-114.8611,35.9475,671.00,98.60,53.60,22.29,190.00,14.00,0.00,29.79,M,M,M,M,M,M,M,M,M,M,M,M,M,M,M,M,M,M,96.51,KBVU 282115Z AUTO 19014KT 37/12 A2979 RMK AO2 PWINO TSNO,M
CXP,2022-08-28 21:15,-119.7326,39.1923,1431.00,87.80,32.00,13.59,M,4.00,0.00,29.98,M,10.00,M,CLR,M,M,M,M,M,M,M,M,M,M,M,M,M,M,84.08,KCXP 282115Z AUTO VRB04KT 10SM CLR 31/M00 A2998 RMK AO2,M
RTS,2022-08-28 21:15,-119.8764,39.6682,1539.00,86.00,30.20,13.38,M,6.00,0.00,30.00,M,10.00,M,CLR,M,M,M,M,M,M,M,M,M,M,M,M,M,M,82.64,KRTS 282115Z AUTO VRB06KT 10SM CLR 30/M01 A3000 RMK AO2,M
MEV,2022-08-28 21:15,-119.7500,38.9963,1441.42,87.80,33.80,14.61,100.00,7.00,0.00,29.96,M,10.00,M,CLR,M,M,M,M,M,M,M,M,M,M,M,M,M,M,84.10,KMEV 282115Z AUTO 10007KT 060V120 10SM CLR 31/01 A2996 RMK AO2,M
BAM,2022-08-28 21:15,-116.8743,40.5990,1382.36,91.40,32.00,12.14,220.00,11.00,0.00,29.97,M,10.00,M,CLR,M,M,M,M,M,M,M,M,M,M,M,M,M,M,86.91,KBAM 282115Z AUTO 22011KT 10SM CLR 33/00 A2997 RMK AO1,M
HTH,2022-08-28 21:15,-118.6315,38.5448,1282.89,89.60,24.80,9.56,340.00,7.00,0.00,29.94,M,10.00,14.00,CLR,M,M,M,M,M,M,M,M,M,M,M,M,M,M,84.88,KHTH 282115Z AUTO 34007G14KT 10SM CLR 32/M04 A2994 RMK A01,M
HTH,2022-08-28 21:35,-118.6315,38.5448,1282.89,89.60,24.80,9.56,M,5.00,0.00,29.93,M,10.00,11.00,CLR,M,M,M,M,M,M,M,M,M,M,M,M,M,M,84.88,KHTH 282135Z AUTO VRB05G11KT 10SM CLR 32/M04 A2993 RMK A01,M
TMT,2022-08-28 21:35,-117.1971,39.4643,1749.34,M,M,M,280.00,6.00,0.00,30.04,M,10.00,M,CLR,M,M,M,M,M,M,M,M,M,M,M,M,M,M,M,KTMT 282135Z AUTO 28006KT 10SM CLR A3004 RMK AO2,M
CXP,2022-08-28 21:35,-119.7326,39.1923,1431.00,87.80,32.00,13.59,0.00,0.00,0.00,29.97,M,10.00,M,CLR,M,M,M,M,M,M,M,M,M,M,M,M,M,M,84.08,KCXP 282135Z AUTO 00000KT 10SM CLR 31/M00 A2997 RMK AO2,M
RTS,2022-08-28 21:35,-119.8764,39.6682,1539.00,86.00,28.40,12.44,40.00,4.00,0.00,30.00,M,10.00,M,CLR,M,M,M,M,M,M,M,M,M,M,M,M,M,M,82.54,KRTS 282135Z AUTO 04004KT 10SM CLR 30/M02 A3000 RMK AO2,M
MEV,2022-08-28 21:35,-119.7500,38.9963,1441.42,89.60,33.80,13.80,0.00,0.00,0.00,29.96,M,10.00,M,CLR,M,M,M,M,M,M,M,M,M,M,M,M,M,M,85.59,KMEV 282135Z AUTO 00000KT 10SM CLR 32/01 A2996 RMK AO2,M
BVU,2022-08-28 21:35,-114.8611,35.9475,671.00,98.60,51.80,20.87,220.00,11.00,0.00,29.79,M,M,24.00,M,M,M,M,M,M,M,M,M,M,M,M,M,M,M,96.00,KBVU 282135Z AUTO 22011G24KT 37/11 A2979 RMK AO2 PWINO TSNO,M
BAM,2022-08-28 21:35,-116.8743,40.5990,1382.36,91.40,32.00,12.14,220.00,6.00,0.00,29.96,M,10.00,17.00,CLR,M,M,M,M,M,M,M,M,M,M,M,M,M,M,86.91,KBAM 282135Z AUTO 22006G17KT 160V260 10SM CLR 33/00 A2996 RMK AO1,M
VGT,2022-08-28 21:53,-115.1933,36.2111,667.00,103.00,47.00,15.27,150.00,8.00,0.00,29.76,1006.00,10.00,M,FEW,M,M,M,11000.00,M,M,M,M,M,M,M,M,M,M,99.23,KVGT 282153Z 15008KT 130V200 10SM FEW110 39/08 A2976 RMK AO2 SLP060 T03940083,M
LOL,2022-08-28 21:53,-118.5701,40.0684,1192.43,91.00,21.90,8.10,170.00,9.00,0.00,29.91,1008.20,10.00,M,CLR,M,M,M,M,M,M,M,M,M,M,M,M,M,M,85.71,KLOL 282153Z AUTO 17009KT 10SM CLR 33/M06 A2991 RMK AO2 SLP082 T03281056,M
DRA,2022-08-28 21:53,-116.0278,36.6206,1009.00,98.00,38.00,12.48,200.00,13.00,0.00,29.85,1004.90,10.00,20.00,CLR,M,M,M,M,M,M,M,M,M,M,M,26.00,220.00,2022-08-28 21:33,93.22,KDRA 282153Z AUTO 20013G20KT 10SM CLR 37/03 A2985 RMK AO2 PK WND 22026/2133 SLP049 T03670033,M
ELY,2022-08-28 21:53,-114.8453,39.2950,1909.00,82.00,26.10,12.87,M,3.00,0.00,30.06,1007.80,10.00,M,FEW,M,M,M,12000.00,M,M,M,M,M,M,M,M,M,M,79.62,KELY 282153Z AUTO VRB03KT 10SM FEW120 28/M03 A3006 RMK AO2 SLP078 T02781033,M
P68,2022-08-28 21:53,-116.0056,39.6014,1993.00,88.00,23.00,9.33,350.00,9.00,0.00,30.02,1007.90,M,16.00,M,M,M,M,M,M,M,M,M,M,M,M,M,M,M,83.58,KP68 282153Z AUTO 35009G16KT 31/M05 A3002 RMK AO1 SLP079 T03111050,M
BAM,2022-08-28 21:55,-116.8743,40.5990,1382.36,91.40,30.20,11.28,260.00,11.00,0.00,29.95,M,10.00,19.00,CLR,M,M,M,M,M,M,M,M,M,M,M,M,M,M,86.71,KBAM 282155Z AUTO 26011G19KT 10SM CLR 33/M01 A2995 RMK AO1,M
RNO,2022-08-28 21:55,-119.7711,39.4839,1341.00,93.00,35.00,13.07,360.00,6.00,0.00,29.93,1007.30,10.00,M,FEW,FEW,SCT,M,10000.00,13000.00,24000.00,M,M,M,M,M,M,M,M,88.56,KRNO 282155Z 36006KT 10SM FEW100 FEW130 SCT240 34/02 A2993 RMK AO2 SLP073 T03390017,M
TMT,2022-08-28 21:55,-117.1971,39.4643,1749.34,M,M,M,160.00,7.00,0.00,30.03,M,10.00,M,CLR,M,M,M,M,M,M,M,M,M,M,M,M,M,M,M,KTMT 282155Z AUTO 16007KT 10SM CLR A3003 RMK AO2,M
BVU,2022-08-28 21:55,-114.8611,35.9475,671.00,96.80,53.60,23.55,190.00,7.00,0.00,29.78,M,M,13.00,M,M,M,M,M,M,M,M,M,M,M,M,M,M,M,94.59,KBVU 282155Z AUTO 19007G13KT 36/12 A2978 RMK AO2 PWINO TSNO,M
CXP,2022-08-28 21:55,-119.7326,39.1923,1431.00,89.60,30.20,11.94,350.00,5.00,0.00,29.97,M,10.00,M,CLR,M,M,M,M,M,M,M,M,M,M,M,M,M,M,85.34,KCXP 282155Z AUTO 35005KT 10SM CLR 32/M01 A2997 RMK AO2,M
RTS,2022-08-28 21:55,-119.8764,39.6682,1539.00,86.00,30.20,13.38,90.00,7.00,0.00,29.99,M,10.00,M,CLR,M,M,M,M,M,M,M,M,M,M,M,M,M,M,82.64,KRTS 282155Z AUTO 09007KT 10SM CLR 30/M01 A2999 RMK AO2,M
MEV,2022-08-28 21:55,-119.7500,38.9963,1441.42,89.60,33.80,13.80,0.00,0.00,0.00,29.95,M,9.00,M,CLR,M,M,M,M,M,M,M,M,M,M,M,M,M,M,85.59,KMEV 282155Z AUTO 00000KT 9SM CLR 32/01 A2995 RMK AO2,M
HTH,2022-08-28 21:55,-118.6315,38.5448,1282.89,89.60,26.60,10.30,0.00,0.00,0.00,29.92,M,10.00,11.00,CLR,M,M,M,M,M,M,M,M,M,M,M,M,M,M,85.02,KHTH 282155Z AUTO 00000G11KT 10SM CLR 32/M03 A2992 RMK A01,M
TPH,2022-08-28 21:56,-117.0904,38.0505,1654.00,89.00,28.00,11.09,180.00,10.00,0.00,30.01,1007.70,10.00,21.00,CLR,M,M,M,M,M,M,M,M,M,M,M,M,M,M,84.76,KTPH 282156Z AUTO 18010G21KT 140V210 10SM CLR 32/M02 A3001 RMK AO2 SLP077 T03171022,M
EKO,2022-08-28 21:56,-115.7860,40.8242,1367.00,82.00,28.00,13.92,280.00,7.00,0.00,29.99,1010.40,10.00,18.00,CLR,M,M,M,M,M,M,M,M,M,M,M,M,M,M,79.66,KEKO 282156Z AUTO 28007G18KT 10SM CLR 28/M02 A2999 RMK AO2 SLP104 T02781022,M
WMC,2022-08-28 21:56,-117.8072,40.9019,1315.00,90.00,M,M,M,3.00,0.00,29.95,1009.40,10.00,M,CLR,M,M,M,M,M,M,M,M,M,M,M,M,M,M,M,KWMC 282156Z AUTO VRB03KT 10SM CLR 32/ A2995 RMK AO2 SLP094 T0322 $,M
NFL,2022-08-28 21:56,-118.7010,39.4166,1199.00,91.40,24.80,9.04,M,3.00,0.00,29.91,1010.30,10.00,M,FEW,SCT,M,M,6000.00,18000.00,M,M,M,M,M,M,M,M,M,86.21,KNFL 282156Z VRB03KT 10SM FEW060 SCT180 33/M04 A2991 SLP103 T03281039,M
LSV,2022-08-28 21:56,-115.0343,36.2362,570.00,106.00,48.70,14.90,160.00,12.00,0.00,29.73,1003.70,10.00,M,CLR,M,M,M,M,M,M,M,M,M,M,M,M,M,M,102.79,KLSV 282156Z AUTO 16012KT 10SM CLR 41/09 A2973 RMK AO2 SLP037 T04110093 $,M
LAS,2022-08-28 21:56,-115.1634,36.0719,663.00,102.00,47.00,15.69,140.00,9.00,0.00,29.77,1004.70,10.00,M,FEW,SCT,SCT,M,9000.00,12000.00,20000.00,M,M,M,M,M,M,M,M,98.33,KLAS 282156Z 14009KT 10SM FEW090 SCT120 SCT200 39/08 A2977 RMK AO2 SLP047 ACC VC NE-SE CB DSNT E AND SE T03890083,M
INS,2022-08-28 21:56,-115.6733,36.5872,955.00,96.00,40.80,14.95,280.00,4.00,0.00,29.83,1004.90,10.00,M,FEW,M,M,M,13000.00,M,M,M,M,M,M,M,M,M,M,91.52,KINS 282156Z AUTO 28004KT 10SM FEW130 36/05 A2983 RMK AO2 SLP049 T03550049 $,M
HTH,2022-08-28 22:15,-118.6315,38.5448,1282.89,91.40,26.60,9.74,M,6.00,0.00,29.91,M,10.00,13.00,CLR,M,M,M,M,M,M,M,M,M,M,M,M,M,M,86.36,KHTH 282215Z AUTO VRB06G13KT 10SM CLR 33/M03 A2991 RMK A01,M
BVU,2022-08-28 22:15,-114.8611,35.9475,671.00,98.60,51.80,20.87,M,6.00,0.00,29.77,M,M,13.00,M,M,M,M,M,M,M,M,M,M,M,M,M,M,M,96.00,KBVU 282215Z AUTO VRB06G13KT 37/11 A2977 RMK AO2 PWINO TSNO,M
CXP,2022-08-28 22:15,-119.7326,39.1923,1431.00,89.60,32.00,12.84,M,4.00,0.00,29.96,M,9.00,10.00,CLR,M,M,M,M,M,M,M,M,M,M,M,M,M,M,85.54,KCXP 282215Z AUTO VRB04G10KT 9SM CLR 32/M00 A2996 RMK AO2,M
RTS,2022-08-28 22:15,-119.8764,39.6682,1539.00,87.80,30.20,12.64,M,3.00,0.00,29.99,M,10.00,M,CLR,M,M,M,M,M,M,M,M,M,M,M,M,M,M,84.01,KRTS 282215Z AUTO VRB03KT 10SM CLR 31/M01 A2999 RMK AO2,M
MEV,2022-08-28 22:15,-119.7500,38.9963,1441.42,89.60,33.80,13.80,300.00,8.00,0.00,29.94,M,10.00,M,CLR,M,M,M,M,M,M,M,M,M,M,M,M,M,M,85.59,KMEV 282215Z AUTO 30008KT 10SM CLR 32/01 A2994 RMK AO2,M
BAM,2022-08-28 22:15,-116.8743,40.5990,1382.36,89.60,32.00,12.84,250.00,3.00,0.00,29.95,M,10.00,M,CLR,M,M,M,M,M,M,M,M,M,M,M,M,M,M,85.54,KBAM 282215Z AUTO 25003KT 10SM CLR 32/00 A2995 RMK AO1,M
TMT,2022-08-28 22:15,-117.1971,39.4643,1749.34,M,M,M,320.00,7.00,0.00,30.02,M,10.00,M,CLR,M,M,M,M,M,M,M,M,M,M,M,M,M,M,M,KTMT 282215Z AUTO 32007KT 10SM CLR A3002 RMK AO2,M
HTH,2022-08-28 22:35,-118.6315,38.5448,1282.89,91.40,24.80,9.04,300.00,5.00,0.00,29.90,M,10.00,M,CLR,M,M,M,M,M,M,M,M,M,M,M,M,M,M,86.21,KHTH 282235Z AUTO 30005KT 10SM CLR 33/M04 A2990 RMK A01,M
TMT,2022-08-28 22:35,-117.1971,39.4643,1749.34,M,M,M,300.00,3.00,0.00,30.02,M,10.00,M,CLR,M,M,M,M,M,M,M,M,M,M,M,M,M,M,M,KTMT 282235Z AUTO 30003KT 10SM CLR A3002 RMK AO2,M
BAM,2022-08-28 22:35,-116.8743,40.5990,1382.36,91.40,32.00,12.14,290.00,7.00,0.00,29.95,M,10.00,M,CLR,M,M,M,M,M,M,M,M,M,M,M,M,M,M,86.91,KBAM 282235Z AUTO 29007KT 10SM CLR 33/00 A2995 RMK AO1,M
MEV,2022-08-28 22:35,-119.7500,38.9963,1441.42,89.60,33.80,13.80,0.00,0.00,0.00,29.94,M,10.00,M,CLR,M,M,M,M,M,M,M,M,M,M,M,M,M,M,85.59,KMEV 282235Z AUTO 00000KT 10SM CLR 32/01 A2994 RMK AO2,M
RTS,2022-08-28 22:35,-119.8764,39.6682,1539.00,87.80,28.40,11.74,0.00,0.00,0.00,29.98,M,10.00,M,CLR,M,M,M,M,M,M,M,M,M,M,M,M,M,M,83.84,KRTS 282235Z AUTO 00000KT 10SM CLR 31/M02 A2998 RMK AO2,M
CXP,2022-08-28 22:35,-119.7326,39.1923,1431.00,89.60,30.20,11.94,350.00,4.00,0.00,29.95,M,10.00,M,CLR,M,M,M,M,M,M,M,M,M,M,M,M,M,M,85.34,KCXP 282235Z AUTO 35004KT 10SM CLR 32/M01 A2995 RMK AO2,M
BVU,2022-08-28 22:35,-114.8611,35.9475,671.00,100.40,53.60,21.11,180.00,12.00,0.00,29.77,M,M,18.00,M,M,M,M,M,M,M,M,M,M,M,M,M,M,M,98.44,KBVU 282235Z AUTO 18012G18KT 38/12 A2977 RMK AO2 PWINO TSNO,M
ELY,2022-08-28 22:53,-114.8453,39.2950,1909.00,86.00,30.00,13.28,200.00,13.00,0.00,30.05,1007.60,10.00,22.00,BKN,M,M,M,12000.00,M,M,M,M,M,M,M,M,M,M,82.64,KELY 282253Z AUTO 20013G22KT 10SM BKN120 30/M01 A3005 RMK AO2 SLP076 T03001011,M
DRA,2022-08-28 22:53,-116.0278,36.6206,1009.00,99.00,40.00,13.13,200.00,11.00,0.00,29.83,1004.30,10.00,16.00,CLR,M,M,M,M,M,M,M,M,M,M,M,M,M,M,94.35,KDRA 282253Z AUTO 20011G16KT 10SM CLR 37/04 A2983 RMK AO2 SLP043 T03720044,M
P68,2022-08-28 22:53,-116.0056,39.6014,1993.00,87.00,21.90,9.16,M,4.00,0.00,30.00,1007.20,M,M,M,M,M,M,M,M,M,M,M,M,M,M,M,M,M,82.86,KP68 282253Z AUTO VRB04KT 31/M06 A3000 RMK AO1 SLP072 T03061056,M
VGT,2022-08-28 22:53,-115.1933,36.2111,667.00,104.00,46.00,14.28,180.00,11.00,0.00,29.73,1005.20,10.00,16.00,CLR,M,M,M,M,M,M,M,M,M,M,M,M,M,M,100.12,KVGT 282253Z 18011G16KT 10SM CLR 40/08 A2973 RMK AO2 SLP052 T04000078,M
LOL,2022-08-28 22:53,-118.5701,40.0684,1192.43,91.00,21.90,8.10,0.00,0.00,0.00,29.89,1008.00,10.00,M,CLR,M,M,M,M,M,M,M,M,M,M,M,M,M,M,85.71,KLOL 282253Z AUTO 00000KT 10SM CLR 33/M06 A2989 RMK AO2 SLP080 T03281056,M
BVU,2022-08-28 22:55,-114.8611,35.9475,671.00,96.80,55.40,25.15,150.00,13.00,0.00,29.77,M,M,23.00,M,M,M,M,M,M,M,M,M,M,M,M,M,M,M,95.14,KBVU 282255Z AUTO 15013G23KT 36/13 A2977 RMK AO2 PWINO TSNO,M
RTS,2022-08-28 22:55,-119.8764,39.6682,1539.00,86.00,28.40,12.44,M,4.00,0.00,29.98,M,10.00,11.00,CLR,M,M,M,M,M,M,M,M,M,M,M,M,M,M,82.54,KRTS 282255Z AUTO VRB04G11KT 10SM CLR 30/M02 A2998 RMK AO2,M
BAM,2022-08-28 22:55,-116.8743,40.5990,1382.36,91.40,32.00,12.14,340.00,8.00,0.00,29.95,M,10.00,M,CLR,M,M,M,M,M,M,M,M,M,M,M,M,M,M,86.91,KBAM 282255Z AUTO 34008KT 10SM CLR 33/00 A2995 RMK AO1,M
MEV,2022-08-28 22:55,-119.7500,38.9963,1441.42,89.60,33.80,13.80,0.00,0.00,0.00,29.93,M,10.00,M,CLR,M,M,M,M,M,M,M,M,M,M,M,M,M,M,85.59,KMEV 282255Z AUTO 00000KT 10SM CLR 32/01 A2993 RMK AO2,M
HTH,2022-08-28 22:55,-118.6315,38.5448,1282.89,91.40,24.80,9.04,10.00,7.00,0.00,29.89,M,10.00,M,CLR,M,M,M,M,M,M,M,M,M,M,M,M,M,M,86.21,KHTH 282255Z AUTO 01007KT 310V050 10SM CLR 33/M04 A2989 RMK A01,M
RNO,2022-08-28 22:55,-119.7711,39.4839,1341.00,92.00,35.00,13.53,M,4.00,0.00,29.91,1006.80,10.00,M,FEW,SCT,M,M,7000.00,15000.00,M,M,M,M,M,M,M,M,M,87.60,KRNO 282255Z VRB04KT 10SM FEW070 SCT150 33/02 A2991 RMK AO2 SLP068 T03330017,M
CXP,2022-08-28 22:55,-119.7326,39.1923,1431.00,89.60,32.00,12.84,M,4.00,0.00,29.95,M,10.00,M,CLR,M,M,M,M,M,M,M,M,M,M,M,M,M,M,85.54,KCXP 282255Z AUTO VRB04KT 10SM CLR 32/M00 A2995 RMK AO2,M
TMT,2022-08-28 22:55,-117.1971,39.4643,1749.34,M,M,M,260.00,3.00,0.00,30.02,M,10.00,M,CLR,M,M,M,M,M,M,M,M,M,M,M,M,M,M,M,KTMT 282255Z AUTO 26003KT 10SM CLR A3002 RMK AO2,M
TPH,2022-08-28 22:56,-117.0904,38.0505,1654.00,89.00,25.00,9.79,100.00,7.00,0.00,30.00,1007.20,10.00,M,CLR,M,M,M,M,M,M,M,M,M,M,M,M,M,M,84.52,KTPH 282256Z AUTO 10007KT 10SM CLR 32/M04 A3000 RMK AO2 SLP072 T03171039,M
EKO,2022-08-28 22:56,-115.7860,40.8242,1367.00,82.00,28.00,13.92,250.00,8.00,0.00,29.98,1010.30,10.00,M,CLR,M,M,M,M,M,M,M,M,M,M,M,26.00,250.00,2022-08-28 22:32,79.66,KEKO 282256Z AUTO 25008KT 10SM CLR 28/M02 A2998 RMK AO2 PK WND 25026/2232 SLP103 T02781022,M
WMC,2022-08-28 22:56,-117.8072,40.9019,1315.00,89.00,M,M,330.00,6.00,0.00,29.94,1009.20,10.00,M,CLR,M,M,M,M,M,M,M,M,M,M,M,M,M,M,M,KWMC 282256Z AUTO 33006KT 10SM CLR 32/ A2994 RMK AO2 SLP092 T0317 $,M
NFL,2022-08-28 22:56,-118.7010,39.4166,1199.00,92.00,24.10,8.64,0.00,0.00,0.00,29.89,1009.70,10.00,M,FEW,SCT,M,M,6000.00,18000.00,M,M,M,M,M,M,M,M,M,86.53,KNFL 282256Z 00000KT 10SM FEW060 SCT180 33/M04 A2989 RMK SLP097 T03331044,M
INS,2022-08-28 22:56,-115.6733,36.5872,955.00,96.60,39.60,13.96,0.00,0.00,0.00,29.81,1004.20,10.00,M,FEW,M,M,M,13000.00,M,M,M,M,M,M,M,M,M,M,92.08,KINS 282256Z AUTO 00000KT 10SM FEW130 36/04 A2981 RMK AO2 SLP042 T03590042 $,M
LAS,2022-08-28 22:56,-115.1634,36.0719,663.00,100.00,48.00,17.36,0.00,0.00,0.00,29.74,1004.00,10.00,M,FEW,SCT,SCT,M,9000.00,12000.00,20000.00,M,M,M,M,M,M,M,M,96.55,KLAS 282256Z 00000KT 10SM FEW090 SCT120 SCT200 38/09 A2974 RMK AO2 SLP040 CB DSNT SE T03780089,M
LSV,2022-08-28 22:56,-115.0343,36.2362,570.00,104.70,52.70,17.96,170.00,12.00,0.00,29.71,1003.10,10.00,16.00,CLR,M,M,M,M,M,M,M,M,M,M,M,M,M,M,102.73,KLSV 282256Z AUTO 17012G16KT 10SM CLR 40/12 A2971 RMK AO2 SLP031 T04040115 $,M
BVU,2022-08-28 23:15,-114.8611,35.9475,671.00,98.60,55.40,23.81,160.00,8.00,0.00,29.76,M,M,14.00,M,M,M,M,M,M,M,M,M,M,M,M,M,M,M,97.09,KBVU 282315Z AUTO 16008G14KT 37/13 A2976 RMK AO2 PWINO TSNO,M
CXP,2022-08-28 23:15,-119.7326,39.1923,1431.00,89.60,32.00,12.84,0.00,0.00,0.00,29.94,M,10.00,M,CLR,M,M,M,M,M,M,M,M,M,M,M,M,M,M,85.54,KCXP 282315Z AUTO 00000KT 10SM CLR 32/M00 A2994 RMK AO2,M
RTS,2022-08-28 23:15,-119.8764,39.6682,1539.00,87.80,30.20,12.64,150.00,6.00,0.00,29.97,M,10.00,M,CLR,M,M,M,M,M,M,M,M,M,M,M,M,M,M,84.01,KRTS 282315Z AUTO 15006KT 10SM CLR 31/M01 A2997 RMK AO2,M
MEV,2022-08-28 23:15,-119.7500,38.9963,1441.42,89.60,33.80,13.80,320.00,8.00,0.00,29.93,M,10.00,M,CLR,M,M,M,M,M,M,M,M,M,M,M,M,M,M,85.59,KMEV 282315Z AUTO 32008KT 280V340 10SM CLR 32/01 A2993 RMK AO2,M
BAM,2022-08-28 23:15,-116.8743,40.5990,1382.36,91.40,32.00,12.14,330.00,8.00,0.00,29.94,M,10.00,M,CLR,M,M,M,M,M,M,M,M,M,M,M,M,M,M,86.91,KBAM 282315Z AUTO 33008KT 10SM CLR 33/00 A2994 RMK AO1,M
HTH,2022-08-28 23:15,-118.6315,38.5448,1282.89,91.40,24.80,9.04,360.00,6.00,0.00,29.89,M,10.00,11.00,CLR,M,M,M,M,M,M,M,M,M,M,M,M,M,M,86.21,KHTH 282315Z AUTO 36006G11KT 10SM CLR 33/M04 A2989 RMK A01,M
TMT,2022-08-28 23:15,-117.1971,39.4643,1749.34,M,M,M,0.00,0.00,0.00,30.01,M,10.00,M,CLR,M,M,M,M,M,M,M,M,M,M,M,M,M,M,M,KTMT 282315Z AUTO 00000KT 10SM CLR A3001 RMK AO2,M
CXP,2022-08-28 23:35,-119.7326,39.1923,1431.00,89.60,32.00,12.84,M,4.00,0.00,29.94,M,10.00,M,CLR,M,M,M,M,M,M,M,M,M,M,M,M,M,M,85.54,KCXP 282335Z AUTO VRB04KT 10SM CLR 32/M00 A2994 RMK AO2,M
BVU,2022-08-28 23:35,-114.8611,35.9475,671.00,98.60,53.60,22.29,140.00,11.00,0.00,29.76,M,M,17.00,M,M,M,M,M,M,M,M,M,M,M,M,M,M,M,96.51,KBVU 282335Z AUTO 14011G17KT 37/12 A2976 RMK AO2 PWINO TSNO,M
MEV,2022-08-28 23:35,-119.7500,38.9963,1441.42,91.40,33.80,13.05,310.00,9.00,0.00,29.92,M,10.00,M,CLR,M,M,M,M,M,M,M,M,M,M,M,M,M,M,87.13,KMEV 282335Z AUTO 31009KT 10SM CLR 33/01 A2992 RMK AO2,M
RTS,2022-08-28 23:35,-119.8764,39.6682,1539.00,87.80,28.40,11.74,0.00,0.00,0.00,29.97,M,10.00,M,CLR,M,M,M,M,M,M,M,M,M,M,M,M,M,M,83.84,KRTS 282335Z AUTO 00000KT 10SM CLR 31/M02 A2997 RMK AO2,M
BAM,2022-08-28 23:35,-116.8743,40.5990,1382.36,91.40,32.00,12.14,350.00,5.00,0.00,29.93,M,10.00,M,CLR,M,M,M,M,M,M,M,M,M,M,M,M,M,M,86.91,KBAM 282335Z AUTO 35005KT 10SM CLR 33/00 A2993 RMK AO1,M
HTH,2022-08-28 23:35,-118.6315,38.5448,1282.89,93.20,24.80,8.54,M,6.00,0.00,29.88,M,10.00,12.00,CLR,M,M,M,M,M,M,M,M,M,M,M,M,M,M,87.56,KHTH 282335Z AUTO VRB06G12KT 260V320 10SM CLR 34/M04 A2988 RMK A01,M
TMT,2022-08-28 23:35,-117.1971,39.4643,1749.34,M,M,M,320.00,3.00,0.00,30.01,M,10.00,M,CLR,M,M,M,M,M,M,M,M,M,M,M,M,M,M,M,KTMT 282335Z AUTO 32003KT 10SM CLR A3001 RMK AO2,M
LOL,2022-08-28 23:53,-118.5701,40.0684,1192.43,92.00,21.90,7.88,0.00,0.00,0.00,29.88,1007.60,10.00,M,CLR,M,M,M,M,M,M,M,M,M,M,M,M,M,M,86.38,KLOL 282353Z AUTO 00000KT 10SM CLR 33/M06 A2988 RMK AO2 SLP076 T03331056 10339 20283 56016,M
P68,2022-08-28 23:53,-116.0056,39.6014,1993.00,87.00,23.00,9.60,M,3.00,0.00,29.99,1006.90,M,M,M,M,M,M,M,M,M,M,M,M,M,M,M,M,M,82.93,KP68 282353Z AUTO VRB03KT 31/M05 A2999 RMK AO1 SLP069 T03061050 10317 20267 56013,M
DRA,2022-08-28 23:53,-116.0278,36.6206,1009.00,98.00,39.00,13.03,230.00,15.00,0.00,29.82,1003.90,10.00,20.00,CLR,M,M,M,M,M,M,M,M,M,M,M,M,M,M,93.42,KDRA 282353Z AUTO 23015G20KT 10SM CLR 37/04 A2982 RMK AO2 SLP039 T03670039 10378 20344 56017,M
ELY,2022-08-28 23:53,-114.8453,39.2950,1909.00,84.00,28.90,13.53,240.00,3.00,0.00,30.04,1007.70,10.00,M,FEW,M,M,M,12000.00,M,M,M,M,M,M,M,M,M,M,81.10,KELY 282353Z AUTO 24003KT 10SM FEW120 29/M02 A3004 RMK AO2 SLP077 T02891017 10306 20267 57009,M
VGT,2022-08-28 23:53,-115.1933,36.2111,667.00,101.00,52.00,19.61,140.00,15.00,0.00,29.72,1004.80,10.00,20.00,CLR,M,M,M,M,M,M,M,M,M,M,M,M,M,M,98.48,KVGT 282353Z 14015G20KT 10SM CLR 38/11 A2972 RMK AO2 SLP048 T03830111 10400 20361 56019,M
TMT,2022-08-28 23:55,-117.1971,39.4643,1749.34,M,M,M,240.00,5.00,0.00,30.00,M,10.00,M,CLR,M,M,M,M,M,M,M,M,M,M,M,M,M,M,M,KTMT 282355Z AUTO 24005KT 10SM CLR A3000 RMK AO2,M
BVU,2022-08-28 23:55,-114.8611,35.9475,671.00,98.60,53.60,22.29,150.00,14.00,0.00,29.75,M,M,M,M,M,M,M,M,M,M,M,M,M,M,M,M,M,M,96.51,KBVU 282355Z AUTO 15014KT 37/12 A2975 RMK AO2 PWINO TSNO,M
CXP,2022-08-28 23:55,-119.7326,39.1923,1431.00,89.60,32.00,12.84,M,4.00,0.00,29.93,M,10.00,11.00,CLR,M,M,M,M,M,M,M,M,M,M,M,M,M,M,85.54,KCXP 282355Z AUTO VRB04G11KT 10SM CLR 32/00 A2993 RMK AO2,M
RNO,2022-08-28 23:55,-119.7711,39.4839,1341.00,92.00,35.00,13.53,M,3.00,0.00,29.89,1006.20,10.00,M,FEW,SCT,M,M,7000.00,15000.00,M,M,M,M,M,M,M,M,M,87.60,KRNO 282355Z VRB03KT 10SM FEW070 SCT150 33/02 A2989 RMK AO2 SLP062 T03330017 10350 20261 56017,M
RTS,2022-08-28 23:55,-119.8764,39.6682,1539.00,87.80,28.40,11.74,M,4.00,0.00,29.96,M,10.00,M,CLR,M,M,M,M,M,M,M,M,M,M,M,M,M,M,83.84,KRTS 282355Z AUTO VRB04KT 10SM CLR 31/M02 A2996 RMK AO2,M
HTH,2022-08-28 23:55,-118.6315,38.5448,1282.89,93.20,24.80,8.54,330.00,8.00,0.00,29.87,M,10.00,M,CLR,M,M,M,M,M,M,M,M,M,M,M,M,M,M,87.56,KHTH 282355Z AUTO 33008KT 10SM CLR 34/M04 A2987 RMK A01,M
BAM,2022-08-28 23:55,-116.8743,40.5990,1382.36,91.40,32.00,12.14,320.00,6.00,0.00,29.93,M,10.00,M,CLR,M,M,M,M,M,M,M,M,M,M,M,M,M,M,86.91,KBAM 282355Z AUTO 32006KT 10SM CLR 33/00 A2993 RMK AO1,M
MEV,2022-08-28 23:55,-119.7500,38.9963,1441.42,89.60,35.60,14.83,290.00,7.00,0.00,29.92,M,10.00,13.00,CLR,M,M,M,M,M,M,M,M,M,M,M,M,M,M,85.62,KMEV 282355Z AUTO 29007G13KT 10SM CLR 32/02 A2992 RMK AO2,M
LAS,2022-08-28 23:56,-115.1634,36.0719,663.00,100.00,50.00,18.71,190.00,6.00,0.00,29.74,1003.70,10.00,M,FEW,SCT,M,M,9000.00,12000.00,M,M,M,M,M,M,M,M,M,97.00,KLAS 282356Z 19006KT 10SM FEW090 SCT120 38/10 A2974 RMK AO2 SLP037 TCU DSNT E T03780100 10394 20356 56019,M
INS,2022-08-28 23:56,-115.6733,36.5872,955.00,96.30,39.20,13.88,90.00,6.00,0.00,29.80,1003.90,10.00,M,BKN,M,M,M,13000.00,M,M,M,M,M,M,M,M,M,M,91.77,KINS 282356Z AUTO 09006KT 10SM BKN130 36/04 A2980 RMK AO2 SLP039 T03570040 10367 20330 57017 $,M
LSV,2022-08-28 23:56,-115.0343,36.2362,570.00,104.20,50.70,16.93,190.00,9.00,0.00,29.69,1002.50,10.00,M,CLR,M,M,M,M,M,M,M,M,M,M,M,M,M,M,101.55,KLSV 282356Z AUTO 19009KT 10SM CLR 40/10 A2969 RMK AO2 SLP025 T04010104 10419 20370 57019 $,M
WMC,2022-08-28 23:56,-117.8072,40.9019,1315.00,90.00,M,M,340.00,7.00,0.00,29.93,1008.90,10.00,M,CLR,M,M,M,M,M,M,M,M,M,M,M,M,M,M,M,KWMC 282356Z AUTO 34007KT 10SM CLR 32/ A2993 RMK AO2 SLP089 T0322 10339 20278 56011 $,M
EKO,2022-08-28 23:56,-115.7860,40.8242,1367.00,83.00,27.00,12.97,290.00,10.00,0.00,29.97,1009.90,10.00,M,CLR,M,M,M,M,M,M,M,M,M,M,M,M,M,M,80.28,KEKO 282356Z AUTO 29010KT 10SM CLR 28/M03 A2997 RMK AO2 SLP099 T02831028 10317 20233 56010,M
TPH,2022-08-28 23:56,-117.0904,38.0505,1654.00,89.00,28.00,11.09,M,M,0.00,29.98,1007.00,10.00,M,CLR,M,M,M,M,M,M,M,M,M,M,M,M,M,M,84.76,KTPH 282356Z AUTO 10SM CLR 32/M02 A2998 RMK AO2 SLP070 T03171022 10322 20272 56015,M
