station,valid,lon,lat,elevation,tmpf,dwpf,relh,drct,sknt,p01i,alti,mslp,vsby,gust,skyc1,skyc2,skyc3,skyc4,skyl1,skyl2,skyl3,skyl4,wxcodes,ice_accretion_1hr,ice_accretion_3hr,ice_accretion_6hr,peak_wind_gust,peak_wind_drct,peak_wind_time,feel,metar,snowdepth
INS,2022-06-30 00:06,-115.6733,36.5872,955.00,102.20,26.60,7.00,210.00,17.00,0.00,29.88,1005.90,10.00,21.00,CLR,M,M,M,M,M,M,M,M,M,M,M,M,M,M,95.09,KINS 300006Z AUTO 21017G21KT 10SM CLR 39/M03 A2988 RMK AO2 WSHFT 00 SLP059 $,M
INS,2022-06-30 00:11,-115.6733,36.5872,955.00,102.20,26.60,7.00,250.00,16.00,0.00,29.88,1005.90,10.00,22.00,CLR,M,M,M,M,M,M,M,M,M,M,M,M,M,M,95.09,KINS 300011Z AUTO 25016G22KT 10SM CLR 39/M03 A2988 RMK AO2 WSHFT 08 SLP059 $,M
BVU,2022-06-30 00:15,-114.8611,35.9475,671.00,105.80,32.00,7.84,260.00,17.00,0.00,29.84,M,10.00,23.00,CLR,M,M,M,M,M,M,M,M,M,M,M,M,M,M,98.82,KBVU 300015Z AUTO 26017G23KT 10SM CLR 41/00 A2984 RMK AO2,M
RTS,2022-06-30 00:15,-119.8764,39.6682,1539.00,84.20,26.60,12.23,260.00,18.00,0.00,30.14,M,10.00,23.00,CLR,M,M,M,M,M,M,M,M,M,M,M,M,M,M,81.13,KRTS 300015Z AUTO 26018G23KT 10SM CLR 29/M03 A3014 RMK AO2,M
05U,2022-06-30 00:15,-116.0051,39.6042,1811.23,91.40,26.60,9.74,300.00,10.00,0.00,30.10,M,10.00,17.00,CLR,M,M,M,M,M,M,M,M,M,M,M,M,M,M,86.36,K05U 300015Z AUTO 30010G17KT 10SM CLR 33/M03 A3010 RMK A01,M
MEV,2022-06-30 00:15,-119.7500,38.9963,1441.42,87.80,30.20,12.64,250.00,15.00,0.00,30.10,M,10.00,21.00,CLR,M,M,M,M,M,M,M,M,M,M,M,M,M,M,84.01,KMEV 300015Z AUTO 25015G21KT 10SM CLR 31/M01 A3010 RMK AO2,M
TMT,2022-06-30 00:15,-117.1971,39.4643,1749.34,89.40,32.20,13.03,300.00,11.00,0.00,30.10,M,10.00,16.00,CLR,M,M,M,M,M,M,M,M,M,M,M,M,M,M,85.41,KTMT 300015Z AUTO 30011G16KT 10SM CLR 32/00 A3010 RMK AO2 T03190001,M
BAM,2022-06-30 00:15,-116.8743,40.5990,1382.36,M,M,M,250.00,14.00,0.00,30.03,M,10.00,20.00,CLR,M,M,M,M,M,M,M,M,M,M,M,M,M,M,M,KBAM 300015Z AUTO 25014G20KT 10SM CLR A3003 RMK AO1,M
HTH,2022-06-30 00:15,-118.6315,38.5448,1282.89,93.20,28.40,9.91,350.00,15.00,0.00,29.98,M,10.00,M,CLR,M,M,M,M,M,M,M,M,M,M,M,M,M,M,87.89,KHTH 300015Z AUTO 35015KT 10SM CLR 34/M02 A2998 RMK A01,M
P68,2022-06-30 00:20,-116.0056,39.6014,1993.00,89.00,27.00,10.64,320.00,15.00,0.00,30.07,M,M,M,M,M,M,M,M,M,M,M,M,M,M,M,M,M,M,84.68,KP68 300020Z AUTO 32015KT 32/M03 A3007 RMK AO1 WSHFT 0003 T03171028,M
INS,2022-06-30 00:24,-115.6733,36.5872,955.00,100.40,26.60,7.39,210.00,14.00,0.00,29.88,1006.00,10.00,M,CLR,M,M,M,M,M,M,M,M,M,M,M,M,M,M,93.57,KINS 300024Z AUTO 21014KT 10SM CLR 38/M03 A2988 RMK AO2 WSHFT 11 SLP060 $,M
LSV,2022-06-30 00:33,-115.0343,36.2362,570.00,107.60,33.80,7.99,200.00,15.00,0.00,29.78,1005.30,10.00,M,CLR,M,M,M,M,M,M,M,M,M,M,M,M,M,M,100.66,KLSV 300033Z AUTO 20015KT 10SM CLR 42/01 A2978 RMK AO2 WSHFT 20 SLP053 $,M
BVU,2022-06-30 00:35,-114.8611,35.9475,671.00,105.80,33.80,8.42,260.00,17.00,0.00,29.83,M,10.00,26.00,CLR,M,M,M,M,M,M,M,M,M,M,M,M,M,M,99.10,KBVU 300035Z AUTO 26017G26KT 10SM CLR 41/01 A2983 RMK AO2,M
RTS,2022-06-30 00:35,-119.8764,39.6682,1539.00,84.20,28.40,13.18,250.00,18.00,0.00,30.14,M,10.00,27.00,CLR,M,M,M,M,M,M,M,M,M,M,M,M,M,M,81.25,KRTS 300035Z AUTO 25018G27KT 10SM CLR 29/M02 A3014 RMK AO2,M
05U,2022-06-30 00:35,-116.0051,39.6042,1811.23,89.60,26.60,10.30,310.00,9.00,0.00,30.10,M,10.00,17.00,CLR,M,M,M,M,M,M,M,M,M,M,M,M,M,M,85.02,K05U 300035Z AUTO 31009G17KT 10SM CLR 32/M03 A3010 RMK A01,M
MEV,2022-06-30 00:35,-119.7500,38.9963,1441.42,86.00,33.80,15.48,250.00,14.00,0.00,30.10,M,10.00,19.00,CLR,M,M,M,M,M,M,M,M,M,M,M,M,M,M,82.66,KMEV 300035Z AUTO 25014G19KT 10SM CLR 30/01 A3010 RMK AO2,M
BAM,2022-06-30 00:35,-116.8743,40.5990,1382.36,M,M,M,270.00,10.00,0.00,30.02,M,10.00,21.00,CLR,M,M,M,M,M,M,M,M,M,M,M,M,M,M,M,KBAM 300035Z AUTO 27010G21KT 10SM CLR A3002 RMK AO1,M
HTH,2022-06-30 00:35,-118.6315,38.5448,1282.89,93.20,28.40,9.91,360.00,19.00,0.00,29.98,M,10.00,M,CLR,M,M,M,M,M,M,M,M,M,M,M,M,M,M,87.89,KHTH 300035Z AUTO 36019KT 10SM CLR 34/M02 A2998 RMK A01,M
TMT,2022-06-30 00:35,-117.1971,39.4643,1749.34,88.30,32.20,13.49,270.00,10.00,0.00,30.10,M,10.00,14.00,CLR,M,M,M,M,M,M,M,M,M,M,M,M,M,M,84.49,KTMT 300035Z AUTO 27010G14KT 10SM CLR 31/00 A3010 RMK AO2 T03130001,M
LSV,2022-06-30 00:42,-115.0343,36.2362,570.00,107.60,33.80,7.99,230.00,14.00,0.00,29.78,1005.30,10.00,21.00,CLR,M,M,M,M,M,M,M,M,M,M,M,M,M,M,100.66,KLSV 300042Z AUTO 23014G21KT 10SM CLR 42/01 A2978 RMK AO2 WSHFT 34 SLP053 $,M
P68,2022-06-30 00:53,-116.0056,39.6014,1993.00,87.00,27.00,11.34,330.00,14.00,0.00,30.07,1008.50,M,19.00,M,M,M,M,M,M,M,M,M,M,M,M,M,M,M,83.21,KP68 300053Z AUTO 33014G19KT 31/M03 A3007 RMK AO1 WSHFT 0003 SLP085 T03061028,M
ELY,2022-06-30 00:53,-114.8453,39.2950,1909.00,87.00,25.00,10.43,210.00,13.00,0.00,30.10,1007.50,10.00,22.00,CLR,M,M,M,M,M,M,M,M,M,M,M,31.00,230.00,2022-06-29 23:55,83.06,KELY 300053Z AUTO 21013G22KT 10SM CLR 31/M04 A3010 RMK AO2 PK WND 23031/2355 SLP075 T03061039,M
DRA,2022-06-30 00:53,-116.0278,36.6206,1009.00,100.00,30.00,8.59,230.00,16.00,0.00,29.91,1006.40,10.00,31.00,CLR,M,M,M,M,M,M,M,M,M,M,M,31.00,230.00,2022-06-30 00:48,93.61,KDRA 300053Z AUTO 23016G31KT 10SM CLR 38/M01 A2991 RMK AO2 PK WND 23031/0048 SLP064 T03781011,M
LOL,2022-06-30 00:53,-118.5701,40.0684,1192.43,93.00,26.10,9.07,270.00,8.00,0.00,29.97,1011.20,10.00,26.00,CLR,M,M,M,M,M,M,M,M,M,M,M,26.00,280.00,2022-06-30 00:49,87.52,KLOL 300053Z AUTO 27008G26KT 10SM CLR 34/M03 A2997 RMK AO2 PK WND 28026/0049 SLP112 T03391033,M
VGT,2022-06-30 00:53,-115.1933,36.2111,667.00,107.00,38.00,9.54,240.00,13.00,0.00,29.81,1007.60,10.00,21.00,CLR,M,M,M,M,M,M,M,M,M,M,M,M,M,M,101.00,KVGT 300053Z 24013G21KT 10SM CLR 42/03 A2981 RMK AO2 SLP076 T04170033,M
BVU,2022-06-30 00:55,-114.8611,35.9475,671.00,105.80,32.00,7.84,240.00,17.00,0.00,29.83,M,10.00,22.00,CLR,M,M,M,M,M,M,M,M,M,M,M,M,M,M,98.82,KBVU 300055Z AUTO 24017G22KT 10SM CLR 41/00 A2983 RMK AO2,M
RNO,2022-06-30 00:55,-119.7711,39.4839,1341.00,89.00,32.00,13.05,230.00,10.00,0.00,30.06,1012.30,10.00,21.00,CLR,M,M,M,M,M,M,M,M,M,M,M,M,M,M,85.15,KRNO 300055Z 23010G21KT 10SM CLR 32/00 A3006 RMK AO2 SLP123 T03170000,M
RTS,2022-06-30 00:55,-119.8764,39.6682,1539.00,82.40,26.60,12.97,240.00,17.00,0.00,30.14,M,10.00,26.00,CLR,M,M,M,M,M,M,M,M,M,M,M,M,M,M,79.92,KRTS 300055Z AUTO 24017G26KT 200V270 10SM CLR 28/M03 A3014 RMK AO2,M
05U,2022-06-30 00:55,-116.0051,39.6042,1811.23,87.80,26.60,10.91,320.00,14.00,0.00,30.10,M,10.00,M,CLR,M,M,M,M,M,M,M,M,M,M,M,M,M,M,83.69,K05U 300055Z AUTO 32014KT 10SM CLR 31/M03 A3010 RMK A01,M
MEV,2022-06-30 00:55,-119.7500,38.9963,1441.42,86.00,32.00,14.40,250.00,21.00,0.00,30.09,M,10.00,M,CLR,M,M,M,M,M,M,M,M,M,M,M,M,M,M,82.64,KMEV 300055Z AUTO 25021KT 10SM CLR 30/00 A3009 RMK AO2,M
BAM,2022-06-30 00:55,-116.8743,40.5990,1382.36,M,M,M,230.00,7.00,0.00,30.02,M,10.00,20.00,CLR,M,M,M,M,M,M,M,M,M,M,M,M,M,M,M,KBAM 300055Z AUTO 23007G20KT 10SM CLR A3002 RMK AO1,M
HTH,2022-06-30 00:55,-118.6315,38.5448,1282.89,91.40,28.40,10.48,350.00,16.00,0.00,29.98,M,10.00,26.00,CLR,M,M,M,M,M,M,M,M,M,M,M,M,M,M,86.53,KHTH 300055Z AUTO 35016G26KT 10SM CLR 33/M02 A2998 RMK A01,M
TMT,2022-06-30 00:55,-117.1971,39.4643,1749.34,89.20,32.50,13.27,270.00,12.00,0.00,30.09,M,10.00,19.00,CLR,M,M,M,M,M,M,M,M,M,M,M,M,M,M,85.24,KTMT 300055Z AUTO 27012G19KT 230V300 10SM CLR 32/00 A3009 RMK AO2 T03180003,M
EKO,2022-06-30 00:56,-115.7860,40.8242,1367.00,91.00,28.00,10.44,260.00,18.00,0.00,30.03,1010.70,10.00,27.00,CLR,M,M,M,M,M,M,M,M,M,M,M,27.00,250.00,2022-06-30 00:53,86.19,KEKO 300056Z AUTO 26018G27KT 10SM CLR 33/M02 A3003 RMK AO2 PK WND 25027/0053 SLP107 T03281022,M
WMC,2022-06-30 00:56,-117.8072,40.9019,1315.00,91.00,26.10,9.66,300.00,7.00,0.00,30.01,1011.60,10.00,M,CLR,M,M,M,M,M,M,M,M,M,M,M,M,M,M,86.02,KWMC 300056Z AUTO 30007KT 10SM CLR 33/M03 A3001 RMK AO2 SLP116 T03281033,M
NFL,2022-06-30 00:56,-118.7010,39.4166,1199.00,93.00,30.90,11.04,270.00,18.00,0.00,29.98,1012.40,10.00,22.00,FEW,FEW,M,M,9000.00,12000.00,M,M,M,M,M,M,M,M,M,88.02,KNFL 300056Z 27018G22KT 10SM FEW090 FEW120 34/M01 A2998 RMK AO2 SLP124 BLDU DSNT NE-E T03391006,M
HND,2022-06-30 00:56,-115.1344,35.9729,742.79,103.00,39.00,11.28,230.00,16.00,0.00,29.87,1009.50,10.00,22.00,CLR,M,M,M,M,M,M,M,M,M,M,M,M,M,M,97.55,KHND 300056Z 23016G22KT 10SM CLR 39/04 A2987 RMK AO2 SLP095 T03940039,M
LAS,2022-06-30 00:56,-115.1634,36.0719,663.00,104.00,38.00,10.45,220.00,14.00,0.00,29.83,1006.70,10.00,26.00,FEW,FEW,M,M,13000.00,28000.00,M,M,M,M,M,M,27.00,210.00,2022-06-30 00:02,98.29,KLAS 300056Z 22014G26KT 10SM FEW130 FEW280 40/03 A2983 RMK AO2 PK WND 21027/0002 SLP067 CB DSNT NE-SE T04000033,M
INS,2022-06-30 00:58,-115.6733,36.5872,955.00,100.20,28.20,7.94,220.00,15.00,0.00,29.88,1006.20,10.00,25.00,CLR,M,M,M,M,M,M,M,M,M,M,M,28.00,200.00,2022-06-30 00:23,93.57,KINS 300058Z AUTO 22015G25KT 10SM CLR 38/M02 A2988 RMK AO2 PK WND 20028/23 SLP062 T03791021 $,M
LSV,2022-06-30 00:58,-115.0343,36.2362,570.00,107.80,33.80,7.94,230.00,15.00,0.00,29.77,1005.00,10.00,24.00,CLR,M,M,M,M,M,M,M,M,M,M,M,M,M,M,100.84,KLSV 300058Z AUTO 23015G24KT 10SM CLR 42/01 A2977 RMK AO2 SLP050 T04210010 $,M
BVU,2022-06-30 01:15,-114.8611,35.9475,671.00,104.00,33.80,8.88,230.00,18.00,0.00,29.83,M,10.00,M,CLR,M,M,M,M,M,M,M,M,M,M,M,M,M,M,97.55,KBVU 300115Z AUTO 23018KT 10SM CLR 40/01 A2983 RMK AO2,M
RTS,2022-06-30 01:15,-119.8764,39.6682,1539.00,82.40,28.40,13.96,240.00,18.00,0.00,30.14,M,10.00,26.00,CLR,M,M,M,M,M,M,M,M,M,M,M,M,M,M,79.94,KRTS 300115Z AUTO 24018G26KT 10SM CLR 28/M02 A3014 RMK AO2,M
05U,2022-06-30 01:15,-116.0051,39.6042,1811.23,86.00,32.00,14.40,20.00,11.00,0.00,30.10,M,10.00,M,CLR,M,M,M,M,M,M,M,M,M,M,M,M,M,M,82.64,K05U 300115Z AUTO 02011KT 10SM CLR 30/00 A3010 RMK A01,M
MEV,2022-06-30 01:15,-119.7500,38.9963,1441.42,84.20,32.00,15.25,260.00,12.00,0.00,30.10,M,10.00,18.00,CLR,M,M,M,M,M,M,M,M,M,M,M,M,M,M,81.28,KMEV 300115Z AUTO 26012G18KT 10SM CLR 29/00 A3010 RMK AO2,M
BAM,2022-06-30 01:15,-116.8743,40.5990,1382.36,M,M,M,260.00,15.00,0.00,30.02,M,10.00,20.00,CLR,M,M,M,M,M,M,M,M,M,M,M,M,M,M,M,KBAM 300115Z AUTO 26015G20KT 10SM CLR A3002 RMK AO1,M
HTH,2022-06-30 01:15,-118.6315,38.5448,1282.89,91.40,30.20,11.28,360.00,14.00,0.00,29.98,M,10.00,20.00,CLR,M,M,M,M,M,M,M,M,M,M,M,M,M,M,86.71,KHTH 300115Z AUTO 36014G20KT 10SM CLR 33/M01 A2998 RMK A01,M
TMT,2022-06-30 01:15,-117.1971,39.4643,1749.34,87.80,32.20,13.70,280.00,12.00,0.00,30.09,M,10.00,16.00,SCT,M,M,M,100.00,M,M,M,M,M,M,M,M,M,M,84.08,KTMT 300115Z AUTO 28012G16KT 10SM SCT001 31/00 A3009 RMK AO2 T03100001,M
LSV,2022-06-30 01:16,-115.0343,36.2362,570.00,107.60,35.60,8.58,240.00,13.00,0.00,29.77,1005.00,10.00,20.00,CLR,M,M,M,M,M,M,M,M,M,M,M,M,M,M,100.98,KLSV 300116Z AUTO 24013G20KT 10SM CLR 42/02 A2977 RMK AO2 WSHFT 14 SLP050 $,M
LSV,2022-06-30 01:24,-115.0343,36.2362,570.00,107.60,35.60,8.58,210.00,17.00,0.00,29.77,1005.00,10.00,20.00,CLR,M,M,M,M,M,M,M,M,M,M,M,M,M,M,100.98,KLSV 300124Z AUTO 21017G20KT 10SM CLR 42/02 A2977 RMK AO2 WSHFT 21 SLP050 $,M
BVU,2022-06-30 01:35,-114.8611,35.9475,671.00,104.00,32.00,8.27,250.00,19.00,0.00,29.83,M,10.00,M,CLR,M,M,M,M,M,M,M,M,M,M,M,M,M,M,97.28,KBVU 300135Z AUTO 25019KT 10SM CLR 40/M00 A2983 RMK AO2,M
05U,2022-06-30 01:35,-116.0051,39.6042,1811.23,82.40,32.00,16.17,30.00,8.00,0.00,30.11,M,10.00,M,CLR,M,M,M,M,M,M,M,M,M,M,M,M,M,M,80.00,K05U 300135Z AUTO 03008KT 10SM CLR 28/M00 A3011 RMK A01,M
MEV,2022-06-30 01:35,-119.7500,38.9963,1441.42,84.20,32.00,15.25,240.00,11.00,0.00,30.10,M,10.00,23.00,CLR,M,M,M,M,M,M,M,M,M,M,M,M,M,M,81.28,KMEV 300135Z AUTO 24011G23KT 10SM CLR 29/00 A3010 RMK AO2,M
BAM,2022-06-30 01:35,-116.8743,40.5990,1382.36,M,M,M,280.00,9.00,0.00,30.02,M,10.00,M,CLR,M,M,M,M,M,M,M,M,M,M,M,M,M,M,M,KBAM 300135Z AUTO 28009KT 10SM CLR A3002 RMK AO1,M
HTH,2022-06-30 01:35,-118.6315,38.5448,1282.89,91.40,30.20,11.28,360.00,14.00,0.00,29.98,M,10.00,M,CLR,M,M,M,M,M,M,M,M,M,M,M,M,M,M,86.71,KHTH 300135Z AUTO 36014KT 10SM CLR 33/M01 A2998 RMK A01,M
RTS,2022-06-30 01:35,-119.8764,39.6682,1539.00,80.60,26.60,13.75,260.00,20.00,0.00,30.14,M,10.00,27.00,CLR,M,M,M,M,M,M,M,M,M,M,M,M,M,M,78.68,KRTS 300135Z AUTO 26020G27KT 10SM CLR 27/M03 A3014 RMK AO2,M
TMT,2022-06-30 01:35,-117.1971,39.4643,1749.34,87.00,32.00,13.90,300.00,12.00,0.00,30.10,M,10.00,19.00,CLR,M,M,M,M,M,M,M,M,M,M,M,M,M,M,83.51,KTMT 300135Z AUTO 30012G19KT 10SM CLR 31/00 A3010 RMK AO2 T03060000,M
P68,2022-06-30 01:53,-116.0056,39.6014,1993.00,84.00,30.00,14.16,30.00,10.00,0.00,30.08,1009.00,M,M,M,M,M,M,M,M,M,M,M,M,M,M,M,M,M,81.11,KP68 300153Z AUTO 03010KT 29/M01 A3008 RMK AO1 SLP090 T02891011,M
DRA,2022-06-30 01:53,-116.0278,36.6206,1009.00,99.00,30.90,9.19,230.00,16.00,0.00,29.90,1006.30,10.00,27.00,CLR,M,M,M,M,M,M,M,M,M,M,M,27.00,210.00,2022-06-30 01:46,92.88,KDRA 300153Z AUTO 23016G27KT 10SM CLR 37/M01 A2990 RMK AO2 PK WND 21027/0146 SLP063 T03721006,M
LOL,2022-06-30 01:53,-118.5701,40.0684,1192.43,91.00,26.10,9.66,300.00,16.00,0.00,29.98,1011.10,10.00,22.00,CLR,M,M,M,M,M,M,M,M,M,M,M,M,M,M,86.02,KLOL 300153Z AUTO 30016G22KT 10SM CLR 33/M03 A2998 RMK AO2 SLP111 T03281033,M
VGT,2022-06-30 01:53,-115.1933,36.2111,667.00,106.00,38.00,9.85,240.00,15.00,0.00,29.81,1007.50,10.00,M,CLR,M,M,M,M,M,M,M,M,M,M,M,28.00,200.00,2022-06-30 01:25,100.04,KVGT 300153Z 24015KT 10SM CLR 41/03 A2981 RMK AO2 PK WND 20028/0125 SLP075 T04110033,M
ELY,2022-06-30 01:53,-114.8453,39.2950,1909.00,83.00,27.00,12.97,220.00,10.00,0.00,30.10,1007.80,10.00,M,CLR,M,M,M,M,M,M,M,M,M,M,M,27.00,210.00,2022-06-30 00:55,80.28,KELY 300153Z AUTO 22010KT 10SM CLR 28/M03 A3010 RMK AO2 PK WND 21027/0055 SLP078 T02831028,M
BVU,2022-06-30 01:55,-114.8611,35.9475,671.00,104.00,32.00,8.27,250.00,17.00,0.00,29.84,M,10.00,M,CLR,M,M,M,M,M,M,M,M,M,M,M,M,M,M,97.28,KBVU 300155Z AUTO 25017KT 10SM CLR 40/M00 A2984 RMK AO2,M
RNO,2022-06-30 01:55,-119.7711,39.4839,1341.00,86.00,30.90,13.77,250.00,15.00,0.00,30.07,1012.30,10.00,M,FEW,M,M,M,12000.00,M,M,M,M,M,M,M,M,M,M,82.64,KRNO 300155Z 25015KT 10SM FEW120 30/M01 A3007 RMK AO2 SLP123 T03001006,M
RTS,2022-06-30 01:55,-119.8764,39.6682,1539.00,80.60,26.60,13.75,250.00,16.00,0.00,30.13,M,10.00,23.00,CLR,M,M,M,M,M,M,M,M,M,M,M,M,M,M,78.68,KRTS 300155Z AUTO 25016G23KT 10SM CLR 27/M03 A3013 RMK AO2,M
BAM,2022-06-30 01:55,-116.8743,40.5990,1382.36,M,M,M,310.00,8.00,0.00,30.02,M,10.00,M,CLR,M,M,M,M,M,M,M,M,M,M,M,M,M,M,M,KBAM 300155Z AUTO 31008KT 10SM CLR A3002 RMK AO1,M
05U,2022-06-30 01:55,-116.0051,39.6042,1811.23,84.20,28.40,13.18,40.00,9.00,0.00,30.11,M,10.00,M,CLR,M,M,M,M,M,M,M,M,M,M,M,M,M,M,81.25,K05U 300155Z AUTO 04009KT 10SM CLR 29/M02 A3011 RMK A01,M
MEV,2022-06-30 01:55,-119.7500,38.9963,1441.42,84.20,32.00,15.25,240.00,9.00,0.00,30.10,M,10.00,17.00,CLR,M,M,M,M,M,M,M,M,M,M,M,M,M,M,81.28,KMEV 300155Z AUTO 24009G17KT 10SM CLR 29/M00 A3010 RMK AO2,M
HTH,2022-06-30 01:55,-118.6315,38.5448,1282.89,91.40,30.20,11.28,M,6.00,0.00,29.98,M,10.00,M,CLR,M,M,M,M,M,M,M,M,M,M,M,M,M,M,86.71,KHTH 300155Z AUTO VRB06KT 10SM CLR 33/M01 A2998 RMK A01,M
TMT,2022-06-30 01:55,-117.1971,39.4643,1749.34,85.50,31.80,14.51,320.00,14.00,0.00,30.10,M,10.00,19.00,CLR,M,M,M,M,M,M,M,M,M,M,M,M,M,M,82.25,KTMT 300155Z AUTO 32014G19KT 10SM CLR 30/00 A3010 RMK AO2 T02971001,M
EKO,2022-06-30 01:56,-115.7860,40.8242,1367.00,89.00,26.10,10.25,310.00,14.00,0.00,30.04,1010.60,10.00,21.00,CLR,M,M,M,M,M,M,M,M,M,M,M,M,M,M,84.60,KEKO 300156Z AUTO 31014G21KT 10SM CLR 32/M03 A3004 RMK AO2 SLP106 T03171033,M
WMC,2022-06-30 01:56,-117.8072,40.9019,1315.00,90.00,27.00,10.34,310.00,14.00,0.00,30.01,1010.70,10.00,20.00,CLR,M,M,M,M,M,M,M,M,M,M,M,M,M,M,85.35,KWMC 300156Z AUTO 31014G20KT 10SM CLR 32/M03 A3001 RMK AO2 SLP107 T03221028,M
NFL,2022-06-30 01:56,-118.7010,39.4166,1199.00,91.00,30.90,11.76,290.00,15.00,0.00,29.99,1012.70,10.00,M,FEW,FEW,M,M,9000.00,12000.00,M,M,M,M,M,M,M,M,M,86.48,KNFL 300156Z 29015KT 10SM FEW090 FEW120 33/M01 A2999 RMK AO2 SLP127 T03281006,M
LAS,2022-06-30 01:56,-115.1634,36.0719,663.00,103.00,37.00,10.42,230.00,11.00,0.00,29.84,1006.90,10.00,21.00,FEW,FEW,M,M,13000.00,28000.00,M,M,M,M,M,M,M,M,M,97.16,KLAS 300156Z 23011G21KT 10SM FEW130 FEW280 39/03 A2984 RMK AO2 SLP069 CB DSNT E-SE T03940028,M
HND,2022-06-30 01:56,-115.1344,35.9729,742.79,102.00,40.00,12.00,220.00,18.00,0.00,29.87,1009.60,10.00,22.00,CLR,M,M,M,M,M,M,M,M,M,M,M,26.00,230.00,2022-06-30 01:00,96.96,KHND 300156Z 22018G22KT 10SM CLR 39/04 A2987 RMK AO2 PK WND 23026/0100 SLP096 T03890044,M
INS,2022-06-30 01:58,-115.6733,36.5872,955.00,98.40,29.80,8.95,220.00,14.00,0.00,29.89,1006.40,10.00,24.00,CLR,M,M,M,M,M,M,M,M,M,M,M,27.00,230.00,2022-06-30 01:04,92.24,KINS 300158Z AUTO 22014G24KT 10SM CLR 37/M01 A2989 RMK AO2 PK WND 23027/04 SLP064 T03691012 $,M
LSV,2022-06-30 01:58,-115.0343,36.2362,570.00,106.30,32.70,7.94,240.00,14.00,0.00,29.78,1005.30,10.00,22.00,CLR,M,M,M,M,M,M,M,M,M,M,M,M,M,M,99.36,KLSV 300158Z AUTO 24014G22KT 10SM CLR 41/00 A2978 RMK AO2 SLP053 T04130004 $,M
BVU,2022-06-30 02:15,-114.8611,35.9475,671.00,102.20,32.00,8.72,240.00,12.00,0.00,29.84,M,10.00,19.00,CLR,M,M,M,M,M,M,M,M,M,M,M,M,M,M,95.74,KBVU 300215Z AUTO 24012G19KT 10SM CLR 39/M00 A2984 RMK AO2,M
RTS,2022-06-30 02:15,-119.8764,39.6682,1539.00,78.80,23.00,12.55,240.00,18.00,0.00,30.14,M,10.00,23.00,CLR,M,M,M,M,M,M,M,M,M,M,M,M,M,M,78.80,KRTS 300215Z AUTO 24018G23KT 10SM CLR 26/M05 A3014 RMK AO2,M
05U,2022-06-30 02:15,-116.0051,39.6042,1811.23,84.20,30.20,14.18,360.00,8.00,0.00,30.11,M,10.00,M,CLR,M,M,M,M,M,M,M,M,M,M,M,M,M,M,81.26,K05U 300215Z AUTO 36008KT 10SM CLR 29/M01 A3011 RMK A01,M
MEV,2022-06-30 02:15,-119.7500,38.9963,1441.42,82.40,32.00,16.17,280.00,8.00,0.00,30.10,M,10.00,M,CLR,M,M,M,M,M,M,M,M,M,M,M,M,M,M,80.00,KMEV 300215Z AUTO 28008KT 10SM CLR 28/00 A3010 RMK AO2,M
BAM,2022-06-30 02:15,-116.8743,40.5990,1382.36,M,M,M,310.00,11.00,0.00,30.02,M,10.00,15.00,CLR,M,M,M,M,M,M,M,M,M,M,M,M,M,M,M,KBAM 300215Z AUTO 31011G15KT 10SM CLR A3002 RMK AO1,M
HTH,2022-06-30 02:15,-118.6315,38.5448,1282.89,91.40,30.20,11.28,250.00,12.00,0.00,29.99,M,10.00,M,CLR,M,M,M,M,M,M,M,M,M,M,M,M,M,M,86.71,KHTH 300215Z AUTO 25012KT 10SM CLR 33/M01 A2999 RMK A01,M
TMT,2022-06-30 02:15,-117.1971,39.4643,1749.34,83.80,31.30,15.02,320.00,11.00,0.00,30.10,M,10.00,19.00,CLR,M,M,M,M,M,M,M,M,M,M,M,M,M,M,80.98,KTMT 300215Z AUTO 32011G19KT 10SM CLR 29/00 A3010 RMK AO2 T02881004,M
05U,2022-06-30 02:30,-116.0051,39.6042,1811.23,84.20,30.20,14.18,340.00,4.00,0.00,30.11,M,10.00,10.00,CLR,M,M,M,M,M,M,M,M,M,M,M,M,M,M,81.26,K05U 300230Z AUTO 34004G10KT 10SM CLR 29/M01 A3011 RMK A01,M
BVU,2022-06-30 02:35,-114.8611,35.9475,671.00,102.20,33.80,9.37,260.00,13.00,0.00,29.84,M,10.00,20.00,CLR,M,M,M,M,M,M,M,M,M,M,M,M,M,M,96.01,KBVU 300235Z AUTO 26013G20KT 10SM CLR 39/01 A2984 RMK AO2,M
RTS,2022-06-30 02:35,-119.8764,39.6682,1539.00,78.80,28.40,15.71,230.00,12.00,0.00,30.15,M,10.00,18.00,CLR,M,M,M,M,M,M,M,M,M,M,M,M,M,M,78.80,KRTS 300235Z AUTO 23012G18KT 10SM CLR 26/M02 A3015 RMK AO2,M
MEV,2022-06-30 02:35,-119.7500,38.9963,1441.42,80.60,33.80,18.42,250.00,8.00,0.00,30.11,M,10.00,M,CLR,M,M,M,M,M,M,M,M,M,M,M,M,M,M,78.88,KMEV 300235Z AUTO 25008KT 10SM CLR 27/01 A3011 RMK AO2,M
BAM,2022-06-30 02:35,-116.8743,40.5990,1382.36,M,M,M,310.00,10.00,0.00,30.02,M,10.00,M,CLR,M,M,M,M,M,M,M,M,M,M,M,M,M,M,M,KBAM 300235Z AUTO 31010KT 10SM CLR A3002 RMK AO1,M
HTH,2022-06-30 02:35,-118.6315,38.5448,1282.89,89.60,30.20,11.94,280.00,11.00,0.00,30.00,M,10.00,23.00,CLR,M,M,M,M,M,M,M,M,M,M,M,M,M,M,85.34,KHTH 300235Z AUTO 28011G23KT 10SM CLR 32/M01 A3000 RMK A01,M
TMT,2022-06-30 02:35,-117.1971,39.4643,1749.34,82.80,31.30,15.51,320.00,11.00,0.00,30.11,M,10.00,M,CLR,M,M,M,M,M,M,M,M,M,M,M,M,M,M,80.26,KTMT 300235Z AUTO 32011KT 10SM CLR 28/00 A3011 RMK AO2 T02821004,M
P68,2022-06-30 02:53,-116.0056,39.6014,1993.00,82.00,27.00,13.36,310.00,9.00,0.00,30.09,1010.10,M,M,M,M,M,M,M,M,M,M,M,M,M,M,M,M,M,79.64,KP68 300253Z AUTO 31009KT 28/M03 A3009 RMK AO1 SLP101 T02781028 53004,M
ELY,2022-06-30 02:53,-114.8453,39.2950,1909.00,79.00,28.90,15.93,210.00,10.00,0.00,30.11,1008.00,10.00,M,CLR,M,M,M,M,M,M,M,M,M,M,M,M,M,M,79.00,KELY 300253Z AUTO 21010KT 10SM CLR 26/M02 A3011 RMK AO2 SLP080 T02611017 55000,M
VGT,2022-06-30 02:53,-115.1933,36.2111,667.00,103.00,37.00,10.42,230.00,15.00,0.00,29.82,1008.00,10.00,M,CLR,M,M,M,M,M,M,M,M,M,M,M,M,M,M,97.16,KVGT 300253Z 23015KT 10SM CLR 39/03 A2982 RMK AO2 SLP080 T03940028 55001,M
LOL,2022-06-30 02:53,-118.5701,40.0684,1192.43,87.00,25.00,10.43,290.00,16.00,0.00,30.00,1011.20,10.00,M,CLR,M,M,M,M,M,M,M,M,M,M,M,M,M,M,83.06,KLOL 300253Z AUTO 29016KT 10SM CLR 31/M04 A3000 RMK AO2 SLP112 T03061039 53004,M
DRA,2022-06-30 02:53,-116.0278,36.6206,1009.00,95.00,33.00,11.34,210.00,13.00,0.00,29.91,1006.60,10.00,22.00,CLR,M,M,M,M,M,M,M,M,M,M,M,26.00,220.00,2022-06-30 02:14,89.86,KDRA 300253Z AUTO 21013G22KT 10SM CLR 35/01 A2991 RMK AO2 PK WND 22026/0214 SLP066 T03500006 53001,M
BVU,2022-06-30 02:55,-114.8611,35.9475,671.00,100.40,33.80,9.90,240.00,12.00,0.00,29.85,M,10.00,17.00,CLR,M,M,M,M,M,M,M,M,M,M,M,M,M,M,94.47,KBVU 300255Z AUTO 24012G17KT 10SM CLR 38/01 A2985 RMK AO2,M
RTS,2022-06-30 02:55,-119.8764,39.6682,1539.00,77.00,26.60,15.48,250.00,11.00,0.00,30.15,M,10.00,M,CLR,M,M,M,M,M,M,M,M,M,M,M,M,M,M,77.00,KRTS 300255Z AUTO 25011KT 10SM CLR 25/M03 A3015 RMK AO2,M
05U,2022-06-30 02:55,-116.0051,39.6042,1811.23,82.40,26.60,12.97,320.00,7.00,0.00,30.12,M,10.00,M,CLR,M,M,M,M,M,M,M,M,M,M,M,M,M,M,79.92,K05U 300255Z AUTO 32007KT 10SM CLR 28/M03 A3012 RMK A01,M
MEV,2022-06-30 02:55,-119.7500,38.9963,1441.42,77.00,33.80,20.74,240.00,8.00,0.00,30.11,M,10.00,M,CLR,M,M,M,M,M,M,M,M,M,M,M,M,M,M,77.00,KMEV 300255Z AUTO 24008KT 10SM CLR 25/01 A3011 RMK AO2,M
BAM,2022-06-30 02:55,-116.8743,40.5990,1382.36,M,M,M,310.00,8.00,0.00,30.02,M,10.00,M,CLR,M,M,M,M,M,M,M,M,M,M,M,M,M,M,M,KBAM 300255Z AUTO 31008KT 10SM CLR A3002 RMK AO1,M
HTH,2022-06-30 02:55,-118.6315,38.5448,1282.89,87.80,30.20,12.64,270.00,11.00,0.00,30.01,M,10.00,21.00,CLR,M,M,M,M,M,M,M,M,M,M,M,M,M,M,84.01,KHTH 300255Z AUTO 27011G21KT 10SM CLR 31/M01 A3001 RMK A01,M
TMT,2022-06-30 02:55,-117.1971,39.4643,1749.34,80.40,30.60,16.30,320.00,8.00,0.00,30.12,M,10.00,M,CLR,M,M,M,M,M,M,M,M,M,M,M,M,M,M,78.91,KTMT 300255Z AUTO 32008KT 10SM CLR 27/M01 A3012 RMK AO2 T02691008,M
RNO,2022-06-30 02:55,-119.7711,39.4839,1341.00,83.00,33.00,16.62,270.00,11.00,0.00,30.08,1012.70,10.00,22.00,FEW,M,M,M,12000.00,M,M,M,M,M,M,M,M,M,M,80.36,KRNO 300255Z 27011G22KT 10SM FEW120 28/01 A3008 RMK AO2 SLP127 T02830006 53002,M
EKO,2022-06-30 02:56,-115.7860,40.8242,1367.00,84.00,25.00,11.52,300.00,9.00,0.00,30.05,1010.70,10.00,M,CLR,M,M,M,M,M,M,M,M,M,M,M,M,M,M,80.88,KEKO 300256Z AUTO 30009KT 10SM CLR 29/M04 A3005 RMK AO2 SLP107 T02891039 55000,M
WMC,2022-06-30 02:56,-117.8072,40.9019,1315.00,84.00,23.00,10.60,280.00,8.00,0.00,30.01,1010.80,10.00,M,CLR,M,M,M,M,M,M,M,M,M,M,M,M,M,M,80.75,KWMC 300256Z AUTO 28008KT 10SM CLR 29/M05 A3001 RMK AO2 SLP108 T02891050 55002,M
NFL,2022-06-30 02:56,-118.7010,39.4166,1199.00,87.00,32.00,13.90,280.00,14.00,0.00,30.01,1013.20,10.00,M,FEW,FEW,M,M,9000.00,12000.00,M,M,M,M,M,M,M,M,M,83.51,KNFL 300256Z 28014KT 10SM FEW090 FEW120 31/00 A3001 RMK AO2 SLP132 T03060000 53007,M
LAS,2022-06-30 02:56,-115.1634,36.0719,663.00,101.00,36.00,10.64,230.00,13.00,0.00,29.84,1007.20,10.00,22.00,FEW,FEW,M,M,13000.00,28000.00,M,M,M,M,M,M,M,M,M,95.25,KLAS 300256Z 23013G22KT 10SM FEW130 FEW280 38/02 A2984 RMK AO2 SLP072 CB DSNT E-SE T03830022 55000,M
HND,2022-06-30 02:56,-115.1344,35.9729,742.79,100.00,38.00,11.78,230.00,16.00,0.00,29.89,1009.90,10.00,23.00,CLR,M,M,M,M,M,M,M,M,M,M,M,M,M,M,94.83,KHND 300256Z 23016G23KT 10SM CLR 38/03 A2989 RMK AO2 SLP099 T03780033 55000,M
INS,2022-06-30 02:58,-115.6733,36.5872,955.00,96.00,28.00,8.92,230.00,15.00,0.00,29.90,1006.50,10.00,M,CLR,M,M,M,M,M,M,M,M,M,M,M,M,M,M,90.13,KINS 300258Z AUTO 23015KT 10SM CLR 36/M02 A2990 RMK AO2 SLP065 T03561022 53003 $,M
LSV,2022-06-30 02:58,-115.0343,36.2362,570.00,104.00,34.00,8.96,250.00,11.00,0.00,29.79,1005.60,10.00,M,CLR,M,M,M,M,M,M,M,M,M,M,M,M,M,M,97.58,KLSV 300258Z AUTO 25011KT 10SM CLR 40/01 A2979 RMK AO2 SLP056 T04000011 53002 $,M
BVU,2022-06-30 03:15,-114.8611,35.9475,671.00,100.40,32.00,9.21,240.00,11.00,0.00,29.85,M,10.00,16.00,CLR,M,M,M,M,M,M,M,M,M,M,M,M,M,M,94.21,KBVU 300315Z AUTO 24011G16KT 10SM CLR 38/00 A2985 RMK AO2,M
RTS,2022-06-30 03:15,-119.8764,39.6682,1539.00,75.20,28.40,17.70,280.00,8.00,0.00,30.16,M,10.00,M,CLR,M,M,M,M,M,M,M,M,M,M,M,M,M,M,75.20,KRTS 300315Z AUTO 28008KT 10SM CLR 24/M02 A3016 RMK AO2,M
05U,2022-06-30 03:15,-116.0051,39.6042,1811.23,80.60,26.60,13.75,0.00,0.00,0.00,30.13,M,10.00,11.00,CLR,M,M,M,M,M,M,M,M,M,M,M,M,M,M,78.68,K05U 300315Z AUTO 00000G11KT 10SM CLR 27/M03 A3013 RMK A01,M
MEV,2022-06-30 03:15,-119.7500,38.9963,1441.42,73.40,32.00,21.76,240.00,8.00,0.00,30.12,M,10.00,M,CLR,M,M,M,M,M,M,M,M,M,M,M,M,M,M,73.40,KMEV 300315Z AUTO 24008KT 10SM CLR 23/00 A3012 RMK AO2,M
BAM,2022-06-30 03:15,-116.8743,40.5990,1382.36,M,M,M,340.00,11.00,0.00,30.03,M,10.00,M,CLR,M,M,M,M,M,M,M,M,M,M,M,M,M,M,M,KBAM 300315Z AUTO 34011KT 10SM CLR A3003 RMK AO1,M
HTH,2022-06-30 03:15,-118.6315,38.5448,1282.89,86.00,28.40,12.44,280.00,19.00,0.00,30.01,M,10.00,24.00,CLR,M,M,M,M,M,M,M,M,M,M,M,M,M,M,82.54,KHTH 300315Z AUTO 28019G24KT 10SM CLR 30/M02 A3001 RMK A01,M
TMT,2022-06-30 03:15,-117.1971,39.4643,1749.34,78.40,30.00,16.99,330.00,8.00,0.00,30.13,M,10.00,M,CLR,M,M,M,M,M,M,M,M,M,M,M,M,M,M,78.40,KTMT 300315Z AUTO 33008KT 10SM CLR 26/M01 A3013 RMK AO2 T02581011,M
BVU,2022-06-30 03:35,-114.8611,35.9475,671.00,98.60,32.00,9.72,250.00,11.00,0.00,29.86,M,10.00,M,CLR,M,M,M,M,M,M,M,M,M,M,M,M,M,M,92.69,KBVU 300335Z AUTO 25011KT 10SM CLR 37/00 A2986 RMK AO2,M
RTS,2022-06-30 03:35,-119.8764,39.6682,1539.00,73.40,28.40,18.80,250.00,10.00,0.00,30.16,M,10.00,M,CLR,M,M,M,M,M,M,M,M,M,M,M,M,M,M,73.40,KRTS 300335Z AUTO 25010KT 10SM CLR 23/M02 A3016 RMK AO2,M
05U,2022-06-30 03:35,-116.0051,39.6042,1811.23,78.80,26.60,14.59,320.00,7.00,0.00,30.13,M,10.00,M,CLR,M,M,M,M,M,M,M,M,M,M,M,M,M,M,78.80,K05U 300335Z AUTO 32007KT 10SM CLR 26/M03 A3013 RMK A01,M
MEV,2022-06-30 03:35,-119.7500,38.9963,1441.42,73.40,32.00,21.76,240.00,6.00,0.00,30.12,M,10.00,M,CLR,M,M,M,M,M,M,M,M,M,M,M,M,M,M,73.40,KMEV 300335Z AUTO 24006KT 10SM CLR 23/00 A3012 RMK AO2,M
BAM,2022-06-30 03:35,-116.8743,40.5990,1382.36,M,M,M,330.00,8.00,0.00,30.04,M,10.00,M,CLR,M,M,M,M,M,M,M,M,M,M,M,M,M,M,M,KBAM 300335Z AUTO 33008KT 10SM CLR A3004 RMK AO1,M
HTH,2022-06-30 03:35,-118.6315,38.5448,1282.89,86.00,26.60,11.55,280.00,10.00,0.00,30.02,M,10.00,16.00,CLR,M,M,M,M,M,M,M,M,M,M,M,M,M,M,82.39,KHTH 300335Z AUTO 28010G16KT 10SM CLR 30/M03 A3002 RMK A01,M
TMT,2022-06-30 03:35,-117.1971,39.4643,1749.34,74.50,29.30,18.80,340.00,5.00,0.00,30.13,M,10.00,M,CLR,M,M,M,M,M,M,M,M,M,M,M,M,M,M,74.50,KTMT 300335Z AUTO 34005KT 10SM CLR 24/M01 A3013 RMK AO2 T02361015,M
P68,2022-06-30 03:53,-116.0056,39.6014,1993.00,77.00,26.10,15.16,320.00,6.00,0.00,30.12,1011.70,M,M,M,M,M,M,M,M,M,M,M,M,M,M,M,M,M,77.00,KP68 300353Z AUTO 32006KT 25/M03 A3012 RMK AO1 SLP117 T02501033,M
ELY,2022-06-30 03:53,-114.8453,39.2950,1909.00,78.00,28.00,15.81,280.00,8.00,0.00,30.12,1008.60,10.00,M,CLR,M,M,M,M,M,M,M,M,M,M,M,M,M,M,78.10,KELY 300353Z AUTO 28008KT 240V300 10SM CLR 26/M02 A3012 RMK AO2 SLP086 T02561022,M
LOL,2022-06-30 03:53,-118.5701,40.0684,1192.43,82.00,25.00,12.29,280.00,12.00,0.00,30.02,1011.70,10.00,M,CLR,M,M,M,M,M,M,M,M,M,M,M,M,M,M,79.54,KLOL 300353Z AUTO 28012KT 10SM CLR 28/M04 A3002 RMK AO2 SLP117 T02781039,M
DRA,2022-06-30 03:53,-116.0278,36.6206,1009.00,92.00,33.00,12.49,210.00,16.00,0.00,29.93,1007.30,10.00,21.00,CLR,M,M,M,M,M,M,M,M,M,M,M,M,M,M,87.44,KDRA 300353Z AUTO 21016G21KT 10SM CLR 33/01 A2993 RMK AO2 SLP073 T03330006,M
VGT,2022-06-30 03:53,-115.1933,36.2111,667.00,101.00,38.00,11.47,220.00,12.00,0.00,29.84,1008.80,10.00,M,CLR,M,M,M,M,M,M,M,M,M,M,M,M,M,M,95.60,KVGT 300353Z 22012KT 10SM CLR 38/03 A2984 RMK AO2 SLP088 T03830033,M
BVU,2022-06-30 03:55,-114.8611,35.9475,671.00,98.60,33.80,10.45,M,M,0.00,29.87,M,10.00,M,CLR,M,M,M,M,M,M,M,M,M,M,M,M,M,M,92.94,KBVU 300355Z AUTO 9/66666710G15KT 10SM CLR 37/01 A2987 RMK AO2,M
RTS,2022-06-30 03:55,-119.8764,39.6682,1539.00,73.40,28.40,18.80,250.00,12.00,0.00,30.16,M,10.00,M,CLR,M,M,M,M,M,M,M,M,M,M,M,M,M,M,73.40,KRTS 300355Z AUTO 25012KT 10SM CLR 23/M02 A3016 RMK AO2,M
05U,2022-06-30 03:55,-116.0051,39.6042,1811.23,77.00,24.80,14.37,330.00,6.00,0.00,30.14,M,10.00,M,CLR,M,M,M,M,M,M,M,M,M,M,M,M,M,M,77.00,K05U 300355Z AUTO 33006KT 10SM CLR 25/M04 A3014 RMK A01,M
MEV,2022-06-30 03:55,-119.7500,38.9963,1441.42,73.40,33.80,23.39,230.00,4.00,0.00,30.12,M,10.00,12.00,CLR,M,M,M,M,M,M,M,M,M,M,M,M,M,M,73.40,KMEV 300355Z AUTO 23004G12KT 10SM CLR 23/01 A3012 RMK AO2,M
BAM,2022-06-30 03:55,-116.8743,40.5990,1382.36,M,M,M,350.00,6.00,0.00,30.04,M,10.00,M,CLR,M,M,M,M,M,M,M,M,M,M,M,M,M,M,M,KBAM 300355Z AUTO 35006KT 10SM CLR A3004 RMK AO1,M
HTH,2022-06-30 03:55,-118.6315,38.5448,1282.89,84.20,24.80,11.35,300.00,7.00,0.00,30.03,M,10.00,12.00,CLR,M,M,M,M,M,M,M,M,M,M,M,M,M,M,81.00,KHTH 300355Z AUTO 30007G12KT 250V330 10SM CLR 29/M04 A3003 RMK A01,M
TMT,2022-06-30 03:55,-117.1971,39.4643,1749.34,72.70,29.30,19.97,350.00,4.00,0.00,30.14,M,10.00,M,CLR,M,M,M,M,M,M,M,M,M,M,M,M,M,M,72.70,KTMT 300355Z AUTO 35004KT 10SM CLR 23/M01 A3014 RMK AO2 T02261015,M
RNO,2022-06-30 03:55,-119.7711,39.4839,1341.00,79.00,35.00,20.45,290.00,11.00,0.00,30.10,1013.40,10.00,18.00,FEW,M,M,M,10000.00,M,M,M,M,M,M,M,M,M,M,79.00,KRNO 300355Z 29011G18KT 10SM FEW100 26/02 A3010 RMK AO2 SLP134 T02610017,M
EKO,2022-06-30 03:56,-115.7860,40.8242,1367.00,78.00,25.00,13.97,320.00,6.00,0.00,30.06,1011.20,10.00,M,CLR,M,M,M,M,M,M,M,M,M,M,M,M,M,M,78.10,KEKO 300356Z AUTO 32006KT 10SM CLR 26/M04 A3006 RMK AO2 SLP112 T02561039,M
NFL,2022-06-30 03:56,-118.7010,39.4166,1199.00,83.00,30.00,14.67,280.00,13.00,0.00,30.03,1013.80,10.00,M,FEW,M,M,M,12000.00,M,M,M,M,M,M,M,M,M,M,80.31,KNFL 300356Z 28013KT 10SM FEW120 28/M01 A3003 RMK AO2 SLP138 T02831011,M
LAS,2022-06-30 03:56,-115.1634,36.0719,663.00,99.00,39.00,12.68,220.00,12.00,0.00,29.87,1007.90,10.00,21.00,CLR,M,M,M,M,M,M,M,M,M,M,M,M,M,M,94.19,KLAS 300356Z 22012G21KT 10SM CLR 37/04 A2987 RMK AO2 SLP079 CB DSNT E-SE T03720039,M
HND,2022-06-30 03:56,-115.1344,35.9729,742.79,98.00,40.00,13.50,230.00,9.00,0.00,29.91,1010.70,10.00,M,CLR,M,M,M,M,M,M,M,M,M,M,M,M,M,M,93.51,KHND 300356Z AUTO 23009KT 10SM CLR 37/04 A2991 RMK AO2 SLP107 T03670044,M
WMC,2022-06-30 03:56,-117.8072,40.9019,1315.00,76.00,21.90,13.19,250.00,8.00,0.00,30.02,1011.40,8.00,M,FEW,M,M,M,6500.00,M,M,M,M,M,M,M,M,M,M,75.90,KWMC 300356Z AUTO 25008KT 8SM FEW065 24/M06 A3002 RMK AO2 SLP114 T02441056,M
INS,2022-06-30 03:58,-115.6733,36.5872,955.00,93.70,31.30,10.98,240.00,17.00,0.00,29.91,1006.90,10.00,23.00,CLR,M,M,M,M,M,M,M,M,M,M,M,M,M,M,88.61,KINS 300358Z AUTO 24017G23KT 10SM CLR 34/M00 A2991 RMK AO2 SLP069 T03431004 $,M
LSV,2022-06-30 03:58,-115.0343,36.2362,570.00,100.20,36.00,10.91,210.00,12.00,0.00,29.82,1006.50,10.00,M,CLR,M,M,M,M,M,M,M,M,M,M,M,M,M,M,94.67,KLSV 300358Z 21012KT 10SM CLR 38/02 A2982 RMK AO2A SLP065 T03790023 $,M
BVU,2022-06-30 04:15,-114.8611,35.9475,671.00,98.60,33.80,10.45,250.00,10.00,0.00,29.87,M,10.00,M,CLR,M,M,M,M,M,M,M,M,M,M,M,M,M,M,92.94,KBVU 300415Z AUTO 25010KT 10SM CLR 37/01 A2987 RMK AO2,M
RTS,2022-06-30 04:15,-119.8764,39.6682,1539.00,73.40,30.20,20.23,250.00,13.00,0.00,30.17,M,10.00,21.00,CLR,M,M,M,M,M,M,M,M,M,M,M,M,M,M,73.40,KRTS 300415Z AUTO 25013G21KT 10SM CLR 23/M01 A3017 RMK AO2,M
05U,2022-06-30 04:15,-116.0051,39.6042,1811.23,73.40,35.60,25.13,0.00,0.00,0.00,30.16,M,10.00,M,CLR,M,M,M,M,M,M,M,M,M,M,M,M,M,M,73.40,K05U 300415Z AUTO 00000KT 10SM CLR 23/02 A3016 RMK A01,M
MEV,2022-06-30 04:15,-119.7500,38.9963,1441.42,69.80,33.80,26.43,180.00,3.00,0.00,30.13,M,10.00,M,CLR,M,M,M,M,M,M,M,M,M,M,M,M,M,M,69.80,KMEV 300415Z AUTO 18003KT 10SM CLR 21/01 A3013 RMK AO2,M
BAM,2022-06-30 04:15,-116.8743,40.5990,1382.36,M,M,M,350.00,7.00,0.00,30.04,M,10.00,M,CLR,M,M,M,M,M,M,M,M,M,M,M,M,M,M,M,KBAM 300415Z AUTO 35007KT 10SM CLR A3004 RMK AO1,M
HTH,2022-06-30 04:15,-118.6315,38.5448,1282.89,84.20,28.40,13.18,M,5.00,0.00,30.04,M,10.00,M,CLR,M,M,M,M,M,M,M,M,M,M,M,M,M,M,81.25,KHTH 300415Z AUTO VRB05KT 10SM CLR 29/M02 A3004 RMK A01,M
TMT,2022-06-30 04:15,-117.1971,39.4643,1749.34,69.60,28.40,21.39,330.00,3.00,0.00,30.16,M,10.00,M,CLR,M,M,M,M,M,M,M,M,M,M,M,M,M,M,69.60,KTMT 300415Z AUTO 33003KT 10SM CLR 21/M02 A3016 RMK AO2 T02091020,M
BVU,2022-06-30 04:35,-114.8611,35.9475,671.00,96.80,33.80,11.04,240.00,10.00,0.00,29.88,M,10.00,M,CLR,M,M,M,M,M,M,M,M,M,M,M,M,M,M,91.44,KBVU 300435Z AUTO 24010KT 10SM CLR 36/01 A2988 RMK AO2,M
RTS,2022-06-30 04:35,-119.8764,39.6682,1539.00,71.60,30.20,21.50,250.00,10.00,0.00,30.18,M,10.00,M,CLR,M,M,M,M,M,M,M,M,M,M,M,M,M,M,71.60,KRTS 300435Z AUTO 25010KT 10SM CLR 22/M01 A3018 RMK AO2,M
05U,2022-06-30 04:35,-116.0051,39.6042,1811.23,71.60,30.20,21.50,0.00,0.00,0.00,30.17,M,10.00,M,CLR,M,M,M,M,M,M,M,M,M,M,M,M,M,M,71.60,K05U 300435Z AUTO 00000KT 10SM CLR 22/M01 A3017 RMK A01,M
MEV,2022-06-30 04:35,-119.7500,38.9963,1441.42,69.80,33.80,26.43,0.00,0.00,0.00,30.14,M,10.00,M,CLR,M,M,M,M,M,M,M,M,M,M,M,M,M,M,69.80,KMEV 300435Z AUTO 00000KT 10SM CLR 21/01 A3014 RMK AO2,M
BAM,2022-06-30 04:35,-116.8743,40.5990,1382.36,M,M,M,310.00,5.00,0.00,30.05,M,10.00,M,CLR,M,M,M,M,M,M,M,M,M,M,M,M,M,M,M,KBAM 300435Z AUTO 31005KT 10SM CLR A3005 RMK AO1,M
HTH,2022-06-30 04:35,-118.6315,38.5448,1282.89,84.20,26.60,12.23,0.00,0.00,0.00,30.05,M,10.00,M,CLR,M,M,M,M,M,M,M,M,M,M,M,M,M,M,81.13,KHTH 300435Z AUTO 00000KT 10SM CLR 29/M03 A3005 RMK A01,M
TMT,2022-06-30 04:35,-117.1971,39.4643,1749.34,66.60,27.10,22.48,250.00,5.00,0.00,30.16,M,10.00,M,CLR,M,M,M,M,M,M,M,M,M,M,M,M,M,M,66.60,KTMT 300435Z AUTO 25005KT 10SM CLR 19/M03 A3016 RMK AO2 T01921027,M
ELY,2022-06-30 04:53,-114.8453,39.2950,1909.00,80.00,28.90,15.36,260.00,8.00,0.00,30.15,1008.40,10.00,M,CLR,M,M,M,M,M,M,M,M,M,M,M,M,M,M,78.53,KELY 300453Z AUTO 26008KT 10SM CLR 27/M02 A3015 RMK AO2 SLP084 T02671017,M
VGT,2022-06-30 04:53,-115.1933,36.2111,667.00,99.00,39.00,12.68,240.00,10.00,0.00,29.87,1009.60,10.00,M,CLR,M,M,M,M,M,M,M,M,M,M,M,M,M,M,94.19,KVGT 300453Z AUTO 24010KT 10SM CLR 37/04 A2987 RMK AO2 SLP096 T03720039,M
DRA,2022-06-30 04:53,-116.0278,36.6206,1009.00,90.00,33.00,13.26,180.00,10.00,0.00,29.96,1008.40,10.00,M,CLR,M,M,M,M,M,M,M,M,M,M,M,M,M,M,85.92,KDRA 300453Z AUTO 18010KT 10SM CLR 32/01 A2996 RMK AO2 SLP084 T03220006,M
P68,2022-06-30 04:53,-116.0056,39.6014,1993.00,71.00,35.00,26.63,0.00,0.00,0.00,30.15,1013.80,M,M,M,M,M,M,M,M,M,M,M,M,M,M,M,M,M,71.10,KP68 300453Z AUTO 00000KT 22/02 A3015 RMK AO1 SLP138 T02170017,M
LOL,2022-06-30 04:53,-118.5701,40.0684,1192.43,76.00,24.10,14.47,300.00,8.00,0.00,30.04,1012.70,10.00,M,CLR,M,M,M,M,M,M,M,M,M,M,M,M,M,M,75.90,KLOL 300453Z AUTO 30008KT 10SM CLR 24/M04 A3004 RMK AO2 SLP127 T02441044,M
BVU,2022-06-30 04:55,-114.8611,35.9475,671.00,95.00,33.80,11.67,190.00,8.00,0.00,29.89,M,10.00,14.00,CLR,M,M,M,M,M,M,M,M,M,M,M,M,M,M,89.97,KBVU 300455Z AUTO 19008G14KT 10SM CLR 35/01 A2989 RMK AO2,M
RNO,2022-06-30 04:55,-119.7711,39.4839,1341.00,77.00,36.00,22.64,270.00,6.00,0.00,30.12,1013.80,10.00,M,CLR,M,M,M,M,M,M,M,M,M,M,M,M,M,M,77.00,KRNO 300455Z 27006KT 10SM CLR 25/02 A3012 RMK AO2 SLP138 T02500022,M
RTS,2022-06-30 04:55,-119.8764,39.6682,1539.00,69.80,32.00,24.59,270.00,11.00,0.00,30.18,M,10.00,M,CLR,M,M,M,M,M,M,M,M,M,M,M,M,M,M,69.80,KRTS 300455Z AUTO 27011KT 10SM CLR 21/M00 A3018 RMK AO2,M
05U,2022-06-30 04:55,-116.0051,39.6042,1811.23,69.80,33.80,26.43,0.00,0.00,0.00,30.18,M,10.00,M,CLR,M,M,M,M,M,M,M,M,M,M,M,M,M,M,69.80,K05U 300455Z AUTO 00000KT 10SM CLR 21/01 A3018 RMK A01,M
MEV,2022-06-30 04:55,-119.7500,38.9963,1441.42,60.80,37.40,41.71,130.00,6.00,0.00,30.15,M,10.00,M,CLR,M,M,M,M,M,M,M,M,M,M,M,M,M,M,60.80,KMEV 300455Z AUTO 13006KT 10SM CLR 16/03 A3015 RMK AO2,M
BAM,2022-06-30 04:55,-116.8743,40.5990,1382.36,M,M,M,300.00,7.00,0.00,30.06,M,10.00,M,CLR,M,M,M,M,M,M,M,M,M,M,M,M,M,M,M,KBAM 300455Z AUTO 30007KT 10SM CLR A3006 RMK AO1,M
HTH,2022-06-30 04:55,-118.6315,38.5448,1282.89,84.20,24.80,11.35,0.00,0.00,0.00,30.06,M,10.00,M,CLR,M,M,M,M,M,M,M,M,M,M,M,M,M,M,81.00,KHTH 300455Z AUTO 00000KT 10SM CLR 29/M04 A3006 RMK A01,M
TMT,2022-06-30 04:55,-117.1971,39.4643,1749.34,61.30,25.50,25.33,240.00,4.00,0.00,30.18,M,10.00,M,CLR,M,M,M,M,M,M,M,M,M,M,M,M,M,M,61.30,KTMT 300455Z AUTO 24004KT 10SM CLR 16/M04 A3018 RMK AO2 T01631036,M
EKO,2022-06-30 04:56,-115.7860,40.8242,1367.00,74.00,26.10,16.81,120.00,4.00,0.00,30.09,1012.30,10.00,M,CLR,M,M,M,M,M,M,M,M,M,M,M,M,M,M,73.90,KEKO 300456Z AUTO 12004KT 10SM CLR 23/M03 A3009 RMK AO2 SLP123 T02331033,M
WMC,2022-06-30 04:56,-117.8072,40.9019,1315.00,78.00,15.10,9.16,260.00,12.00,0.00,30.05,1011.80,10.00,M,CLR,M,M,M,M,M,M,M,M,M,M,M,M,M,M,78.10,KWMC 300456Z AUTO 26012KT 10SM CLR 26/M09 A3005 RMK AO2 SLP118 T02561094,M
NFL,2022-06-30 04:56,-118.7010,39.4166,1199.00,77.00,30.90,18.46,320.00,5.00,0.00,30.06,1014.70,10.00,M,FEW,M,M,M,12000.00,M,M,M,M,M,M,M,M,M,M,77.00,KNFL 300456Z 32005KT 10SM FEW120 25/M01 A3006 RMK AO2 SLP147 T02501006,M
HND,2022-06-30 04:56,-115.1344,35.9729,742.79,96.00,41.00,14.97,230.00,9.00,0.00,29.94,1011.40,10.00,M,CLR,M,M,M,M,M,M,M,M,M,M,M,M,M,M,91.73,KHND 300456Z AUTO 23009KT 10SM CLR 36/05 A2994 RMK AO2 SLP114 T03560050,M
LAS,2022-06-30 04:56,-115.1634,36.0719,663.00,97.00,39.00,13.48,230.00,13.00,0.00,29.89,1008.70,10.00,M,CLR,M,M,M,M,M,M,M,M,M,M,M,M,M,M,92.40,KLAS 300456Z 23013KT 10SM CLR 36/04 A2989 RMK AO2 SLP087 T03610039,M
LSV,2022-06-30 04:56,-115.0343,36.2362,570.00,100.40,37.40,11.41,240.00,11.00,0.00,29.84,1007.20,10.00,M,CLR,M,M,M,M,M,M,M,M,M,M,M,M,M,M,95.08,KLSV 300456Z 24011KT 10SM CLR 38/03 A2984 RMK SLP072,M
INS,2022-06-30 04:58,-115.6733,36.5872,955.00,92.50,32.50,11.97,220.00,14.00,0.00,29.93,1007.40,10.00,23.00,CLR,M,M,M,M,M,M,M,M,M,M,M,26.00,250.00,2022-06-30 04:31,87.83,KINS 300458Z AUTO 22014G23KT 10SM CLR 34/00 A2993 RMK AO2 PK WND 25026/31 SLP074 T03360003 $,M
INS,2022-06-30 04:59,-115.6733,36.5872,955.00,93.20,32.00,11.48,210.00,16.00,0.00,29.93,1007.40,10.00,23.00,CLR,M,M,M,M,M,M,M,M,M,M,M,M,M,M,88.31,KINS 300459Z AUTO 21016G23KT 10SM CLR 34/00 A2993 RMK AO2 WSHFT 44 SLP074 $,M
BVU,2022-06-30 05:15,-114.8611,35.9475,671.00,95.00,35.60,12.53,190.00,11.00,0.00,29.89,M,10.00,M,CLR,M,M,M,M,M,M,M,M,M,M,M,M,M,M,90.25,KBVU 300515Z AUTO 19011KT 10SM CLR 35/02 A2989 RMK AO2,M
RTS,2022-06-30 05:15,-119.8764,39.6682,1539.00,69.80,32.00,24.59,260.00,9.00,0.00,30.18,M,10.00,M,CLR,M,M,M,M,M,M,M,M,M,M,M,M,M,M,69.80,KRTS 300515Z AUTO 26009KT 10SM CLR 21/00 A3018 RMK AO2,M
05U,2022-06-30 05:15,-116.0051,39.6042,1811.23,69.80,30.20,22.86,0.00,0.00,0.00,30.18,M,10.00,M,CLR,M,M,M,M,M,M,M,M,M,M,M,M,M,M,69.80,K05U 300515Z AUTO 00000KT 10SM CLR 21/M01 A3018 RMK A01,M
MEV,2022-06-30 05:15,-119.7500,38.9963,1441.42,59.00,39.20,47.72,90.00,4.00,0.00,30.15,M,10.00,M,CLR,M,M,M,M,M,M,M,M,M,M,M,M,M,M,59.00,KMEV 300515Z AUTO 09004KT 10SM CLR 15/04 A3015 RMK AO2,M
BAM,2022-06-30 05:15,-116.8743,40.5990,1382.36,M,M,M,320.00,8.00,0.00,30.06,M,10.00,M,CLR,M,M,M,M,M,M,M,M,M,M,M,M,M,M,M,KBAM 300515Z AUTO 32008KT 10SM CLR A3006 RMK AO1,M
HTH,2022-06-30 05:15,-118.6315,38.5448,1282.89,82.40,24.80,12.03,M,5.00,0.00,30.07,M,10.00,M,CLR,M,M,M,M,M,M,M,M,M,M,M,M,M,M,79.79,KHTH 300515Z AUTO VRB05KT 10SM CLR 28/M04 A3007 RMK A01,M
TMT,2022-06-30 05:15,-117.1971,39.4643,1749.34,62.80,27.70,26.31,240.00,6.00,0.00,30.18,M,10.00,M,CLR,M,M,M,M,M,M,M,M,M,M,M,M,M,M,62.80,KTMT 300515Z AUTO 24006KT 10SM CLR 17/M02 A3018 RMK AO2 T01711024,M
BVU,2022-06-30 05:35,-114.8611,35.9475,671.00,96.80,35.60,11.86,220.00,10.00,0.00,29.90,M,10.00,21.00,CLR,M,M,M,M,M,M,M,M,M,M,M,M,M,M,91.72,KBVU 300535Z AUTO 22010G21KT 10SM CLR 36/02 A2990 RMK AO2,M
RTS,2022-06-30 05:35,-119.8764,39.6682,1539.00,69.80,32.00,24.59,250.00,7.00,0.00,30.18,M,10.00,13.00,CLR,M,M,M,M,M,M,M,M,M,M,M,M,M,M,69.80,KRTS 300535Z AUTO 25007G13KT 10SM CLR 21/00 A3018 RMK AO2,M
05U,2022-06-30 05:35,-116.0051,39.6042,1811.23,68.00,32.00,26.15,0.00,0.00,0.00,30.18,M,7.00,M,CLR,M,M,M,M,M,M,M,M,M,M,M,M,M,M,68.00,K05U 300535Z AUTO 00000KT 7SM CLR 20/00 A3018 RMK A01,M
MEV,2022-06-30 05:35,-119.7500,38.9963,1441.42,59.00,37.40,44.47,110.00,6.00,0.00,30.15,M,10.00,M,CLR,M,M,M,M,M,M,M,M,M,M,M,M,M,M,59.00,KMEV 300535Z AUTO 11006KT 10SM CLR 15/03 A3015 RMK AO2,M
BAM,2022-06-30 05:35,-116.8743,40.5990,1382.36,M,M,M,320.00,9.00,0.00,30.06,M,10.00,M,CLR,M,M,M,M,M,M,M,M,M,M,M,M,M,M,M,KBAM 300535Z AUTO 32009KT 10SM CLR A3006 RMK AO1,M
HTH,2022-06-30 05:35,-118.6315,38.5448,1282.89,80.60,26.60,13.75,0.00,0.00,0.00,30.07,M,10.00,M,CLR,M,M,M,M,M,M,M,M,M,M,M,M,M,M,78.68,KHTH 300535Z AUTO 00000KT 10SM CLR 27/M03 A3007 RMK A01,M
TMT,2022-06-30 05:35,-117.1971,39.4643,1749.34,58.00,25.20,28.24,130.00,4.00,0.00,30.18,M,10.00,M,CLR,M,M,M,M,M,M,M,M,M,M,M,M,M,M,57.90,KTMT 300535Z AUTO 13004KT 10SM CLR 14/M04 A3018 RMK AO2 T01441038,M
P68,2022-06-30 05:53,-116.0056,39.6014,1993.00,71.00,30.90,22.50,0.00,0.00,0.00,30.15,1013.00,M,M,M,M,M,M,M,M,M,M,M,M,M,M,M,M,M,71.10,KP68 300553Z AUTO 00000KT 22/M01 A3015 RMK AO1 SLP130 T02171006 10328 20200 51018,M
ELY,2022-06-30 05:53,-114.8453,39.2950,1909.00,75.00,32.00,20.63,0.00,0.00,0.00,30.17,1009.30,10.00,M,BKN,M,M,M,12000.00,M,M,M,M,M,M,M,M,M,M,75.00,KELY 300553Z AUTO 00000KT 10SM BKN120 24/00 A3017 RMK AO2 SLP093 T02390000 10322 20239 53017,M
DRA,2022-06-30 05:53,-116.0278,36.6206,1009.00,89.00,34.00,14.14,210.00,14.00,0.00,29.96,1008.20,10.00,23.00,CLR,M,M,M,M,M,M,M,M,M,M,M,M,M,M,85.17,KDRA 300553Z AUTO 21014G23KT 10SM CLR 32/01 A2996 RMK AO2 SLP082 T03170011 10389 20317 50014,M
LOL,2022-06-30 05:53,-118.5701,40.0684,1192.43,75.00,26.10,16.21,330.00,9.00,0.00,30.06,1013.10,10.00,M,CLR,M,M,M,M,M,M,M,M,M,M,M,M,M,M,75.00,KLOL 300553Z AUTO 33009KT 10SM CLR 24/M03 A3006 RMK AO2 SLP131 T02391033 10350 20233 51019,M
VGT,2022-06-30 05:53,-115.1933,36.2111,667.00,98.00,40.00,13.50,210.00,9.00,0.00,29.87,1009.70,10.00,18.00,CLR,M,M,M,M,M,M,M,M,M,M,M,M,M,M,93.51,KVGT 300553Z AUTO 21009G18KT 10SM CLR 37/04 A2987 RMK AO2 SLP097 T03670044 10422 20367 51017,M
BVU,2022-06-30 05:55,-114.8611,35.9475,671.00,95.00,37.40,13.46,230.00,9.00,0.00,29.90,M,10.00,15.00,CLR,M,M,M,M,M,M,M,M,M,M,M,M,M,M,90.46,KBVU 300555Z AUTO 23009G15KT 10SM CLR 35/03 A2990 RMK AO2,M
RTS,2022-06-30 05:55,-119.8764,39.6682,1539.00,66.20,32.00,27.83,270.00,8.00,0.00,30.18,M,10.00,M,CLR,M,M,M,M,M,M,M,M,M,M,M,M,M,M,66.20,KRTS 300555Z AUTO 27008KT 10SM CLR 19/00 A3018 RMK AO2,M
05U,2022-06-30 05:55,-116.0051,39.6042,1811.23,68.00,30.20,24.32,0.00,0.00,0.00,30.18,M,10.00,M,CLR,M,M,M,M,M,M,M,M,M,M,M,M,M,M,68.00,K05U 300555Z AUTO 00000KT 10SM CLR 20/M01 A3018 RMK A01,M
MEV,2022-06-30 05:55,-119.7500,38.9963,1441.42,57.20,37.40,47.44,140.00,9.00,0.00,30.14,M,10.00,M,CLR,M,M,M,M,M,M,M,M,M,M,M,M,M,M,57.20,KMEV 300555Z AUTO 14009KT 10SM CLR 14/03 A3014 RMK AO2,M
BAM,2022-06-30 05:55,-116.8743,40.5990,1382.36,M,M,M,160.00,6.00,0.00,30.07,M,10.00,M,CLR,M,M,M,M,M,M,M,M,M,M,M,M,M,M,M,KBAM 300555Z AUTO 16006KT 10SM CLR A3007 RMK AO1,M
HTH,2022-06-30 05:55,-118.6315,38.5448,1282.89,80.60,24.80,12.76,0.00,0.00,0.00,30.08,M,10.00,M,CLR,M,M,M,M,M,M,M,M,M,M,M,M,M,M,78.94,KHTH 300555Z AUTO 00000KT 10SM CLR 27/M04 A3008 RMK A01,M
TMT,2022-06-30 05:55,-117.1971,39.4643,1749.34,55.20,29.50,37.17,160.00,7.00,0.00,30.18,M,10.00,M,CLR,M,M,M,M,M,M,M,M,M,M,M,M,M,M,55.20,KTMT 300555Z AUTO 16007KT 10SM CLR 13/M01 A3018 RMK AO2 T01291014 10321 20129,M
RNO,2022-06-30 05:55,-119.7711,39.4839,1341.00,74.00,36.00,25.11,240.00,3.00,0.00,30.12,1013.70,10.00,M,CLR,M,M,M,M,M,M,M,M,M,M,M,M,M,M,73.90,KRNO 300555Z 24003KT 10SM CLR 23/02 A3012 RMK AO2 SLP137 T02330022 10328 20233 51014,M
EKO,2022-06-30 05:56,-115.7860,40.8242,1367.00,73.00,30.00,20.34,40.00,10.00,0.00,30.11,1013.00,10.00,M,CLR,M,M,M,M,M,M,M,M,M,M,M,M,M,M,73.00,KEKO 300556Z AUTO 04010KT 10SM CLR 23/M01 A3011 RMK AO2 SLP130 T02281011 10339 20228 53019,M
NFL,2022-06-30 05:56,-118.7010,39.4166,1199.00,77.00,30.00,17.80,290.00,10.00,0.00,30.07,1015.10,10.00,M,FEW,M,M,M,12000.00,M,M,M,M,M,M,M,M,M,M,77.00,KNFL 300556Z 29010KT 10SM FEW120 25/M01 A3007 RMK AO2 SLP151 T02501011 10350 20233 51018,M
HND,2022-06-30 05:56,-115.1344,35.9729,742.79,94.00,41.00,16.02,220.00,14.00,0.00,29.94,1011.60,10.00,M,CLR,M,M,M,M,M,M,M,M,M,M,M,M,M,M,89.68,KHND 300556Z AUTO 22014KT 10SM CLR 34/05 A2994 RMK AO2 SLP116 T03440050 10406 20344 51017,M
LAS,2022-06-30 05:56,-115.1634,36.0719,663.00,95.00,40.00,14.84,210.00,8.00,0.00,29.90,1009.00,10.00,M,CLR,M,M,M,M,M,M,M,M,M,M,M,M,M,M,90.61,KLAS 300556Z 21008KT 10SM CLR 35/04 A2990 RMK AO2 SLP090 T03500044 10411 20350 51018,M
WMC,2022-06-30 05:56,-117.8072,40.9019,1315.00,76.00,12.90,8.95,270.00,14.00,0.00,30.05,1011.70,10.00,M,CLR,M,M,M,M,M,M,M,M,M,M,M,M,M,M,75.90,KWMC 300556Z AUTO 27014KT 10SM CLR 24/M11 A3005 RMK AO2 SLP117 T02441106 10339 20233 51010,M
INS,2022-06-30 05:58,-115.6733,36.5872,955.00,92.50,32.50,11.97,190.00,13.00,0.00,29.92,1006.90,10.00,21.00,CLR,M,M,M,M,M,M,M,M,M,M,M,33.00,200.00,2022-06-30 05:26,87.83,KINS 300558Z AUTO 19013G21KT 10SM CLR 34/00 A2992 RMK AO2 PK WND 20033/26 SLP069 T03360003 10389 20332 50009 $,M
LSV,2022-06-30 05:58,-115.0343,36.2362,570.00,97.20,40.00,13.87,220.00,12.00,0.00,29.85,1007.50,10.00,M,FEW,M,M,M,15000.00,M,M,M,M,M,M,M,M,M,M,92.66,KLSV 300558Z 22012KT 10SM FEW150 36/04 A2985 RMK AO2A SLP075 T03620044 10426 20362 51018 $,M
BVU,2022-06-30 06:15,-114.8611,35.9475,671.00,95.00,37.40,13.46,240.00,10.00,0.00,29.90,M,10.00,M,CLR,M,M,M,M,M,M,M,M,M,M,M,M,M,M,90.46,KBVU 300615Z AUTO 24010KT 10SM CLR 35/03 A2990 RMK AO2,M
RTS,2022-06-30 06:15,-119.8764,39.6682,1539.00,62.60,32.00,31.56,310.00,6.00,0.00,30.18,M,10.00,M,CLR,M,M,M,M,M,M,M,M,M,M,M,M,M,M,62.60,KRTS 300615Z AUTO 31006KT 10SM CLR 17/M00 A3018 RMK AO2,M
05U,2022-06-30 06:15,-116.0051,39.6042,1811.23,66.20,30.20,25.88,0.00,0.00,0.00,30.18,M,10.00,M,CLR,M,M,M,M,M,M,M,M,M,M,M,M,M,M,66.20,K05U 300615Z AUTO 00000KT 10SM CLR 19/M01 A3018 RMK A01,M
MEV,2022-06-30 06:15,-119.7500,38.9963,1441.42,60.80,33.80,36.16,150.00,7.00,0.00,30.14,M,10.00,M,CLR,M,M,M,M,M,M,M,M,M,M,M,M,M,M,60.80,KMEV 300615Z AUTO 15007KT 10SM CLR 16/01 A3014 RMK AO2,M
BAM,2022-06-30 06:15,-116.8743,40.5990,1382.36,M,M,M,170.00,5.00,0.00,30.08,M,10.00,M,CLR,M,M,M,M,M,M,M,M,M,M,M,M,M,M,M,KBAM 300615Z AUTO 17005KT 10SM CLR A3008 RMK AO1,M
HTH,2022-06-30 06:15,-118.6315,38.5448,1282.89,78.80,26.60,14.59,0.00,0.00,0.00,30.08,M,10.00,M,CLR,M,M,M,M,M,M,M,M,M,M,M,M,M,M,78.80,KHTH 300615Z AUTO 00000KT 10SM CLR 26/M03 A3008 RMK A01,M
TMT,2022-06-30 06:15,-117.1971,39.4643,1749.34,60.80,28.00,28.59,0.00,0.00,0.00,30.19,M,10.00,M,CLR,M,M,M,M,M,M,M,M,M,M,M,M,M,M,60.80,KTMT 300615Z AUTO 00000KT 10SM CLR 16/M02 A3019 RMK AO2 T01601022,M
BVU,2022-06-30 06:35,-114.8611,35.9475,671.00,93.20,37.40,14.23,200.00,4.00,0.00,29.90,M,10.00,M,CLR,M,M,M,M,M,M,M,M,M,M,M,M,M,M,88.83,KBVU 300635Z AUTO 20004KT 10SM CLR 34/03 A2990 RMK AO2,M
RTS,2022-06-30 06:35,-119.8764,39.6682,1539.00,59.00,30.20,33.35,340.00,7.00,0.00,30.18,M,10.00,M,CLR,M,M,M,M,M,M,M,M,M,M,M,M,M,M,59.00,KRTS 300635Z AUTO 34007KT 10SM CLR 15/M01 A3018 RMK AO2,M
05U,2022-06-30 06:35,-116.0051,39.6042,1811.23,62.60,30.20,29.35,0.00,0.00,0.00,30.18,M,10.00,M,CLR,M,M,M,M,M,M,M,M,M,M,M,M,M,M,62.60,K05U 300635Z AUTO 00000KT 10SM CLR 17/M01 A3018 RMK A01,M
MEV,2022-06-30 06:35,-119.7500,38.9963,1441.42,55.40,39.20,54.34,110.00,6.00,0.00,30.14,M,10.00,M,CLR,M,M,M,M,M,M,M,M,M,M,M,M,M,M,55.40,KMEV 300635Z AUTO 11006KT 10SM CLR 13/04 A3014 RMK AO2,M
BAM,2022-06-30 06:35,-116.8743,40.5990,1382.36,M,M,M,0.00,0.00,0.00,30.08,M,10.00,M,CLR,M,M,M,M,M,M,M,M,M,M,M,M,M,M,M,KBAM 300635Z AUTO 00000KT 10SM CLR A3008 RMK AO1,M
HTH,2022-06-30 06:35,-118.6315,38.5448,1282.89,78.80,28.40,15.71,290.00,5.00,0.00,30.08,M,10.00,M,M,M,M,M,M,M,M,M,M,M,M,M,M,M,M,78.80,KHTH 300635Z AUTO 29005KT 10SM 26/M02 A3008 RMK A01,M
TMT,2022-06-30 06:35,-117.1971,39.4643,1749.34,56.80,26.20,30.63,190.00,4.00,0.00,30.19,M,10.00,M,CLR,M,M,M,M,M,M,M,M,M,M,M,M,M,M,56.80,KTMT 300635Z AUTO 19004KT 10SM CLR 14/M03 A3019 RMK AO2 T01381032,M
P68,2022-06-30 06:53,-116.0056,39.6014,1993.00,62.00,28.90,28.33,270.00,4.00,0.00,30.15,1013.20,M,M,M,M,M,M,M,M,M,M,M,M,M,M,M,M,M,62.10,KP68 300653Z AUTO 27004KT 17/M02 A3015 RMK AO1 SLP132 T01671017,M
ELY,2022-06-30 06:53,-114.8453,39.2950,1909.00,71.00,32.00,23.52,240.00,5.00,0.00,30.15,1009.10,10.00,M,FEW,M,M,M,11000.00,M,M,M,M,M,M,M,M,M,M,71.10,KELY 300653Z AUTO 24005KT 10SM FEW110 22/00 A3015 RMK AO2 SLP091 T02170000,M
DRA,2022-06-30 06:53,-116.0278,36.6206,1009.00,90.00,36.00,14.88,200.00,19.00,0.00,29.93,1007.10,10.00,28.00,CLR,M,M,M,M,M,M,M,M,M,M,M,28.00,200.00,2022-06-30 06:40,85.97,KDRA 300653Z AUTO 20019G28KT 10SM CLR 32/02 A2993 RMK AO2 PK WND 20028/0640 SLP071 T03220022,M
LOL,2022-06-30 06:53,-118.5701,40.0684,1192.43,77.00,27.00,15.74,320.00,9.00,0.00,30.06,1013.10,10.00,18.00,CLR,M,M,M,M,M,M,M,M,M,M,M,M,M,M,77.00,KLOL 300653Z AUTO 32009G18KT 10SM CLR 25/M03 A3006 RMK AO2 SLP131 T02501028,M
VGT,2022-06-30 06:53,-115.1933,36.2111,667.00,96.00,40.00,14.35,200.00,7.00,0.00,29.87,1009.70,10.00,M,CLR,M,M,M,M,M,M,M,M,M,M,M,M,M,M,91.64,KVGT 300653Z AUTO 20007KT 10SM CLR 36/04 A2987 RMK AO2 SLP097 T03560044,M
BVU,2022-06-30 06:55,-114.8611,35.9475,671.00,91.40,35.60,14.02,0.00,0.00,0.00,29.90,M,10.00,M,CLR,M,M,M,M,M,M,M,M,M,M,M,M,M,M,87.17,KBVU 300655Z AUTO 00000KT 10SM CLR 33/02 A2990 RMK AO2,M
RTS,2022-06-30 06:55,-119.8764,39.6682,1539.00,57.20,28.40,33.05,350.00,5.00,0.00,30.18,M,10.00,M,CLR,M,M,M,M,M,M,M,M,M,M,M,M,M,M,57.20,KRTS 300655Z AUTO 35005KT 10SM CLR 14/M02 A3018 RMK AO2,M
05U,2022-06-30 06:55,-116.0051,39.6042,1811.23,64.40,28.40,25.60,0.00,0.00,0.00,30.18,M,10.00,M,CLR,M,M,M,M,M,M,M,M,M,M,M,M,M,M,64.40,K05U 300655Z AUTO 00000KT 10SM CLR 18/M02 A3018 RMK A01,M
MEV,2022-06-30 06:55,-119.7500,38.9963,1441.42,57.20,35.60,44.19,10.00,4.00,0.00,30.14,M,10.00,M,CLR,M,M,M,M,M,M,M,M,M,M,M,M,M,M,57.20,KMEV 300655Z AUTO 01004KT 10SM CLR 14/02 A3014 RMK AO2,M
BAM,2022-06-30 06:55,-116.8743,40.5990,1382.36,M,M,M,0.00,0.00,0.00,30.08,M,10.00,M,CLR,M,M,M,M,M,M,M,M,M,M,M,M,M,M,M,KBAM 300655Z AUTO 00000KT 10SM CLR A3008 RMK AO1,M
HTH,2022-06-30 06:55,-118.6315,38.5448,1282.89,77.00,33.80,20.74,320.00,6.00,0.00,30.09,M,10.00,M,M,M,M,M,M,M,M,M,M,M,M,M,M,M,M,77.00,KHTH 300655Z AUTO 32006KT 10SM 25/01 A3009 RMK A01,M
TMT,2022-06-30 06:55,-117.1971,39.4643,1749.34,56.70,25.20,29.49,200.00,5.00,0.00,30.19,M,10.00,M,CLR,M,M,M,M,M,M,M,M,M,M,M,M,M,M,56.70,KTMT 300655Z AUTO 20005KT 10SM CLR 14/M04 A3019 RMK AO2 T01371038,M
RNO,2022-06-30 06:55,-119.7711,39.4839,1341.00,71.00,37.00,28.71,0.00,0.00,0.00,30.12,1013.70,10.00,M,CLR,M,M,M,M,M,M,M,M,M,M,M,M,M,M,71.10,KRNO 300655Z 00000KT 10SM CLR 22/03 A3012 RMK AO2 SLP137 T02170028,M
EKO,2022-06-30 06:56,-115.7860,40.8242,1367.00,69.00,28.90,22.21,40.00,7.00,0.00,30.11,1013.20,10.00,M,CLR,M,M,M,M,M,M,M,M,M,M,M,M,M,M,69.10,KEKO 300656Z AUTO 04007KT 10SM CLR 21/M02 A3011 RMK AO2 SLP132 T02061017,M
WMC,2022-06-30 06:56,-117.8072,40.9019,1315.00,75.00,16.00,10.56,270.00,10.00,0.00,30.06,1012.00,10.00,M,CLR,M,M,M,M,M,M,M,M,M,M,M,M,M,M,75.00,KWMC 300656Z AUTO 27010KT 10SM CLR 24/M09 A3006 RMK AO2 SLP120 T02391089,M
NFL,2022-06-30 06:56,-118.7010,39.4166,1199.00,73.00,30.90,21.10,350.00,6.00,0.00,30.07,1015.10,10.00,M,FEW,M,M,M,12000.00,M,M,M,M,M,M,M,M,M,M,73.00,KNFL 300656Z 35006KT 10SM FEW120 23/M01 A3007 RMK AO2 SLP151 T02281006,M
HND,2022-06-30 06:56,-115.1344,35.9729,742.79,92.00,41.00,17.05,220.00,18.00,0.00,29.93,1011.30,10.00,M,CLR,M,M,M,M,M,M,M,M,M,M,M,M,M,M,87.85,KHND 300656Z AUTO 22018KT 10SM CLR 33/05 A2993 RMK AO2 SLP113 T03330050 404110278,M
LAS,2022-06-30 06:56,-115.1634,36.0719,663.00,93.00,40.00,15.79,220.00,11.00,0.00,29.89,1008.80,10.00,18.00,SCT,M,M,M,18000.00,M,M,M,M,M,M,M,M,M,M,88.78,KLAS 300656Z 22011G18KT 10SM SCT180 34/04 A2989 RMK AO2 SLP088 T03390044,M
INS,2022-06-30 06:58,-115.6733,36.5872,955.00,91.20,37.00,14.91,130.00,7.00,0.00,29.93,1007.40,10.00,M,CLR,M,M,M,M,M,M,M,M,M,M,M,26.00,200.00,2022-06-30 06:33,87.04,KINS 300658Z AUTO 13007KT 10SM CLR 33/03 A2993 RMK AO2 PK WND 20026/33 SLP074 T03290028 $,M
LSV,2022-06-30 06:58,-115.0343,36.2362,570.00,94.60,39.70,14.91,190.00,11.00,0.00,29.85,1007.50,10.00,M,CLR,M,M,M,M,M,M,M,M,M,M,M,M,M,M,90.23,KLSV 300658Z AUTO 19011KT 10SM CLR 35/04 A2985 RMK AO2 SLP075 T03480043 $,M
BVU,2022-06-30 07:15,-114.8611,35.9475,671.00,91.40,35.60,14.02,220.00,8.00,0.00,29.91,M,10.00,M,CLR,M,M,M,M,M,M,M,M,M,M,M,M,M,M,87.17,KBVU 300715Z AUTO 22008KT 10SM CLR 33/02 A2991 RMK AO2,M
RTS,2022-06-30 07:15,-119.8764,39.6682,1539.00,57.20,28.40,33.05,340.00,6.00,0.00,30.18,M,10.00,M,CLR,M,M,M,M,M,M,M,M,M,M,M,M,M,M,57.20,KRTS 300715Z AUTO 34006KT 10SM CLR 14/M02 A3018 RMK AO2,M
05U,2022-06-30 07:15,-116.0051,39.6042,1811.23,60.80,28.40,29.06,0.00,0.00,0.00,30.18,M,10.00,M,FEW,M,M,M,12000.00,M,M,M,M,M,M,M,M,M,M,60.80,K05U 300715Z AUTO 00000KT 10SM FEW120 16/M02 A3018 RMK A01,M
MEV,2022-06-30 07:15,-119.7500,38.9963,1441.42,57.20,35.60,44.19,60.00,8.00,0.00,30.14,M,10.00,M,CLR,M,M,M,M,M,M,M,M,M,M,M,M,M,M,57.20,KMEV 300715Z AUTO 06008KT 10SM CLR 14/02 A3014 RMK AO2,M
BAM,2022-06-30 07:15,-116.8743,40.5990,1382.36,M,M,M,140.00,7.00,0.00,30.08,M,10.00,M,CLR,M,M,M,M,M,M,M,M,M,M,M,M,M,M,M,KBAM 300715Z AUTO 14007KT 10SM CLR A3008 RMK AO1,M
HTH,2022-06-30 07:15,-118.6315,38.5448,1282.89,75.20,32.00,20.49,300.00,10.00,0.00,30.09,M,10.00,M,CLR,M,M,M,M,M,M,M,M,M,M,M,M,M,M,75.20,KHTH 300715Z AUTO 30010KT 10SM CLR 24/00 A3009 RMK A01,M
TMT,2022-06-30 07:15,-117.1971,39.4643,1749.34,56.00,25.30,30.48,0.00,0.00,0.00,30.20,M,10.00,M,CLR,M,M,M,M,M,M,M,M,M,M,M,M,M,M,55.90,KTMT 300715Z AUTO 00000KT 10SM CLR 13/M04 A3020 RMK AO2 T01331037,M
BVU,2022-06-30 07:35,-114.8611,35.9475,671.00,91.40,37.40,15.05,220.00,10.00,0.00,29.91,M,10.00,M,CLR,M,M,M,M,M,M,M,M,M,M,M,M,M,M,87.23,KBVU 300735Z AUTO 22010KT 10SM CLR 33/03 A2991 RMK AO2,M
RTS,2022-06-30 07:35,-119.8764,39.6682,1539.00,57.20,30.20,35.57,310.00,4.00,0.00,30.18,M,10.00,M,CLR,M,M,M,M,M,M,M,M,M,M,M,M,M,M,57.20,KRTS 300735Z AUTO 31004KT 10SM CLR 14/M01 A3018 RMK AO2,M
05U,2022-06-30 07:35,-116.0051,39.6042,1811.23,59.00,30.20,33.35,0.00,0.00,0.00,30.18,M,10.00,M,FEW,M,M,M,11000.00,M,M,M,M,M,M,M,M,M,M,59.00,K05U 300735Z AUTO 00000KT 10SM FEW110 15/M01 A3018 RMK A01,M
MEV,2022-06-30 07:35,-119.7500,38.9963,1441.42,57.20,33.80,41.13,80.00,10.00,0.00,30.14,M,10.00,M,CLR,M,M,M,M,M,M,M,M,M,M,M,M,M,M,57.20,KMEV 300735Z AUTO 08010KT 10SM CLR 14/01 A3014 RMK AO2,M
BAM,2022-06-30 07:35,-116.8743,40.5990,1382.36,M,M,M,150.00,4.00,0.00,30.08,M,10.00,M,CLR,M,M,M,M,M,M,M,M,M,M,M,M,M,M,M,KBAM 300735Z AUTO 15004KT 10SM CLR A3008 RMK AO1,M
HTH,2022-06-30 07:35,-118.6315,38.5448,1282.89,75.20,32.00,20.49,300.00,10.00,0.00,30.09,M,10.00,M,CLR,M,M,M,M,M,M,M,M,M,M,M,M,M,M,75.20,KHTH 300735Z AUTO 30010KT 10SM CLR 24/00 A3009 RMK A01,M
TMT,2022-06-30 07:35,-117.1971,39.4643,1749.34,54.50,29.30,37.82,0.00,0.00,0.00,30.20,M,10.00,M,CLR,M,M,M,M,M,M,M,M,M,M,M,M,M,M,54.50,KTMT 300735Z AUTO 00000KT 10SM CLR 13/M01 A3020 RMK AO2 T01251015,M
P68,2022-06-30 07:53,-116.0056,39.6014,1993.00,64.00,27.00,24.51,0.00,0.00,0.00,30.16,1012.70,M,M,M,M,M,M,M,M,M,M,M,M,M,M,M,M,M,64.00,KP68 300753Z AUTO 00000KT 18/M03 A3016 RMK AO1 SLP127 T01781028 403330128,M
ELY,2022-06-30 07:53,-114.8453,39.2950,1909.00,68.00,30.90,25.02,160.00,7.00,0.00,30.16,1009.70,10.00,M,CLR,M,M,M,M,M,M,M,M,M,M,M,M,M,M,68.00,KELY 300753Z AUTO 16007KT 10SM CLR 20/M01 A3016 RMK AO2 SLP097 T02001006 403280128,M
VGT,2022-06-30 07:53,-115.1933,36.2111,667.00,95.00,39.00,14.33,210.00,11.00,0.00,29.87,1009.60,10.00,M,CLR,M,M,M,M,M,M,M,M,M,M,M,M,M,M,90.55,KVGT 300753Z AUTO 21011KT 10SM CLR 35/04 A2987 RMK AO2 SLP096 T03500039 404280306,M
LOL,2022-06-30 07:53,-118.5701,40.0684,1192.43,76.00,28.00,17.01,320.00,9.00,0.00,30.07,1013.50,10.00,M,CLR,M,M,M,M,M,M,M,M,M,M,M,M,M,M,75.90,KLOL 300753Z AUTO 32009KT 10SM CLR 24/M02 A3007 RMK AO2 SLP135 T02441022 403610094,M
DRA,2022-06-30 07:53,-116.0278,36.6206,1009.00,89.00,35.00,14.77,210.00,18.00,0.00,29.93,1007.20,10.00,37.00,CLR,M,M,M,M,M,M,M,M,M,M,M,37.00,210.00,2022-06-30 07:45,85.19,KDRA 300753Z AUTO 21018G37KT 10SM CLR 32/02 A2993 RMK AO2 PK WND 21037/0745 SLP072 T03170017 403940306,M
BVU,2022-06-30 07:55,-114.8611,35.9475,671.00,91.40,37.40,15.05,220.00,7.00,0.00,29.91,M,10.00,M,CLR,M,M,M,M,M,M,M,M,M,M,M,M,M,M,87.23,KBVU 300755Z AUTO 22007KT 10SM CLR 33/03 A2991 RMK AO2,M
RNO,2022-06-30 07:55,-119.7711,39.4839,1341.00,66.00,36.00,32.88,160.00,3.00,0.00,30.13,1014.00,10.00,M,CLR,M,M,M,M,M,M,M,M,M,M,M,M,M,M,66.00,KRNO 300755Z 16003KT 10SM CLR 19/02 A3013 RMK AO2 SLP140 T01890022 403330156,M
RTS,2022-06-30 07:55,-119.8764,39.6682,1539.00,59.00,30.20,33.35,330.00,8.00,0.00,30.18,M,10.00,M,CLR,M,M,M,M,M,M,M,M,M,M,M,M,M,M,59.00,KRTS 300755Z AUTO 33008KT 10SM CLR 15/M01 A3018 RMK AO2,M
05U,2022-06-30 07:55,-116.0051,39.6042,1811.23,62.60,26.60,25.32,0.00,0.00,0.00,30.18,M,10.00,M,CLR,M,M,M,M,M,M,M,M,M,M,M,M,M,M,62.60,K05U 300755Z AUTO 00000KT 10SM CLR 17/M03 A3018 RMK A01,M
MEV,2022-06-30 07:55,-119.7500,38.9963,1441.42,57.20,33.80,41.13,80.00,9.00,0.00,30.14,M,10.00,M,CLR,M,M,M,M,M,M,M,M,M,M,M,M,M,M,57.20,KMEV 300755Z AUTO 08009KT 10SM CLR 14/01 A3014 RMK AO2,M
BAM,2022-06-30 07:55,-116.8743,40.5990,1382.36,M,M,M,140.00,4.00,0.00,30.09,M,10.00,M,CLR,M,M,M,M,M,M,M,M,M,M,M,M,M,M,M,KBAM 300755Z AUTO 14004KT 10SM CLR A3009 RMK AO1,M
HTH,2022-06-30 07:55,-118.6315,38.5448,1282.89,75.20,32.00,20.49,310.00,10.00,0.00,30.10,M,10.00,M,CLR,M,M,M,M,M,M,M,M,M,M,M,M,M,M,75.20,KHTH 300755Z AUTO 31010KT 10SM CLR 24/00 A3010 RMK A01,M
TMT,2022-06-30 07:55,-117.1971,39.4643,1749.34,55.20,28.00,34.96,0.00,0.00,0.00,30.21,M,10.00,M,CLR,M,M,M,M,M,M,M,M,M,M,M,M,M,M,55.20,KTMT 300755Z AUTO 00000KT 10SM CLR 13/M02 A3021 RMK AO2 T01291022 403300097,M
EKO,2022-06-30 07:56,-115.7860,40.8242,1367.00,66.00,28.90,24.71,110.00,3.00,0.00,30.12,1013.40,10.00,M,CLR,M,M,M,M,M,M,M,M,M,M,M,M,M,M,66.00,KEKO 300756Z AUTO 11003KT 10SM CLR 19/M02 A3012 RMK AO2 SLP134 T01891017 403390144,M
WMC,2022-06-30 07:56,-117.8072,40.9019,1315.00,73.00,19.00,12.85,M,M,0.00,30.09,1013.10,10.00,M,CLR,M,M,M,M,M,M,M,M,M,M,M,M,M,M,73.00,KWMC 300756Z AUTO 10SM CLR 23/M07 A3009 RMK AO2 SLP131 T02281072 403440094,M
NFL,2022-06-30 07:56,-118.7010,39.4166,1199.00,66.00,32.00,28.03,350.00,4.00,0.00,30.08,1015.40,10.00,M,CLR,M,M,M,M,M,M,M,M,M,M,M,M,M,M,66.00,KNFL 300756Z AUTO 35004KT 10SM CLR 19/00 A3008 RMK AO2 SLP154 T01890000 403610144,M
LAS,2022-06-30 07:56,-115.1634,36.0719,663.00,93.00,40.00,15.79,230.00,14.00,0.00,29.89,1008.80,10.00,23.00,BKN,M,M,M,18000.00,M,M,M,M,M,M,M,M,M,M,88.78,KLAS 300756Z 23014G23KT 10SM BKN180 34/04 A2989 RMK AO2 SLP088 T03390044 404170311,M
HND,2022-06-30 07:56,-115.1344,35.9729,742.79,91.00,40.00,16.80,220.00,20.00,0.00,29.92,1011.00,10.00,26.00,CLR,M,M,M,M,M,M,M,M,M,M,M,26.00,220.00,2022-06-30 07:52,86.98,KHND 300756Z AUTO 22020G26KT 10SM CLR 33/04 A2992 RMK AO2 PK WND 22026/0752 SLP110 T03280044,M
INS,2022-06-30 07:58,-115.6733,36.5872,955.00,87.00,33.60,14.92,50.00,5.00,0.00,29.92,1007.10,10.00,M,CLR,M,M,M,M,M,M,M,M,M,M,M,M,M,M,83.37,KINS 300758Z AUTO 05005KT 10SM CLR 31/01 A2992 RMK AO2 SLP071 T03050009 403920262 $,M
LSV,2022-06-30 07:58,-115.0343,36.2362,570.00,94.00,40.80,15.90,190.00,12.00,0.00,29.85,1007.50,10.00,M,CLR,M,M,M,M,M,M,M,M,M,M,M,M,M,M,89.66,KLSV 300758Z AUTO 19012KT 10SM CLR 34/05 A2985 RMK AO2 SLP075 T03440049 404400317 $,M
05U,2022-06-30 08:10,-116.0051,39.6042,1811.23,59.00,24.80,26.70,0.00,0.00,0.00,30.18,M,10.00,M,FEW,M,M,M,12000.00,M,M,M,M,M,M,M,M,M,M,59.00,K05U 300810Z AUTO 00000KT 10SM FEW120 15/M04 A3018 RMK A01,M
BVU,2022-06-30 08:15,-114.8611,35.9475,671.00,91.40,37.40,15.05,170.00,11.00,0.00,29.92,M,10.00,18.00,CLR,M,M,M,M,M,M,M,M,M,M,M,M,M,M,87.23,KBVU 300815Z AUTO 17011G18KT 10SM CLR 33/03 A2992 RMK AO2,M
RTS,2022-06-30 08:15,-119.8764,39.6682,1539.00,57.20,30.20,35.57,0.00,0.00,0.00,30.18,M,10.00,M,CLR,M,M,M,M,M,M,M,M,M,M,M,M,M,M,57.20,KRTS 300815Z AUTO 00000KT 10SM CLR 14/M01 A3018 RMK AO2,M
MEV,2022-06-30 08:15,-119.7500,38.9963,1441.42,55.40,33.80,43.90,100.00,8.00,0.00,30.14,M,10.00,M,CLR,M,M,M,M,M,M,M,M,M,M,M,M,M,M,55.40,KMEV 300815Z AUTO 10008KT 10SM CLR 13/01 A3014 RMK AO2,M
BAM,2022-06-30 08:15,-116.8743,40.5990,1382.36,M,M,M,140.00,5.00,0.00,30.09,M,10.00,M,CLR,M,M,M,M,M,M,M,M,M,M,M,M,M,M,M,KBAM 300815Z AUTO 14005KT 10SM CLR A3009 RMK AO1,M
HTH,2022-06-30 08:15,-118.6315,38.5448,1282.89,73.40,32.00,21.76,310.00,9.00,0.00,30.10,M,10.00,M,CLR,M,M,M,M,M,M,M,M,M,M,M,M,M,M,73.40,KHTH 300815Z AUTO 31009KT 10SM CLR 23/00 A3010 RMK A01,M
TMT,2022-06-30 08:15,-117.1971,39.4643,1749.34,56.00,29.10,35.39,0.00,0.00,0.00,30.20,M,10.00,M,CLR,M,M,M,M,M,M,M,M,M,M,M,M,M,M,56.10,KTMT 300815Z AUTO 00000KT 10SM CLR 13/M02 A3020 RMK AO2 T01341016,M
BVU,2022-06-30 08:35,-114.8611,35.9475,671.00,91.40,37.40,15.05,200.00,7.00,0.00,29.92,M,10.00,M,CLR,M,M,M,M,M,M,M,M,M,M,M,M,M,M,87.23,KBVU 300835Z AUTO 20007KT 10SM CLR 33/03 A2992 RMK AO2,M
RTS,2022-06-30 08:35,-119.8764,39.6682,1539.00,57.20,30.20,35.57,290.00,6.00,0.00,30.18,M,10.00,M,CLR,M,M,M,M,M,M,M,M,M,M,M,M,M,M,57.20,KRTS 300835Z AUTO 29006KT 10SM CLR 14/M01 A3018 RMK AO2,M
05U,2022-06-30 08:35,-116.0051,39.6042,1811.23,57.20,28.40,33.05,0.00,0.00,0.00,30.18,M,10.00,M,FEW,M,M,M,12000.00,M,M,M,M,M,M,M,M,M,M,57.20,K05U 300835Z AUTO 00000KT 10SM FEW120 14/M02 A3018 RMK A01,M
MEV,2022-06-30 08:35,-119.7500,38.9963,1441.42,51.80,33.80,50.08,M,5.00,0.00,30.14,M,10.00,M,CLR,M,M,M,M,M,M,M,M,M,M,M,M,M,M,51.80,KMEV 300835Z AUTO VRB05KT 10SM CLR 11/01 A3014 RMK AO2,M
BAM,2022-06-30 08:35,-116.8743,40.5990,1382.36,M,M,M,0.00,0.00,0.00,30.09,M,10.00,M,CLR,M,M,M,M,M,M,M,M,M,M,M,M,M,M,M,KBAM 300835Z AUTO 00000KT 10SM CLR A3009 RMK AO1,M
HTH,2022-06-30 08:35,-118.6315,38.5448,1282.89,73.40,32.00,21.76,300.00,6.00,0.00,30.10,M,10.00,M,CLR,M,M,M,M,M,M,M,M,M,M,M,M,M,M,73.40,KHTH 300835Z AUTO 30006KT 10SM CLR 23/M00 A3010 RMK A01,M
TMT,2022-06-30 08:35,-117.1971,39.4643,1749.34,56.00,28.90,35.11,0.00,0.00,0.00,30.20,M,10.00,M,CLR,M,M,M,M,M,M,M,M,M,M,M,M,M,M,56.10,KTMT 300835Z AUTO 00000KT 10SM CLR 13/M02 A3020 RMK AO2 T01341017,M
P68,2022-06-30 08:53,-116.0056,39.6014,1993.00,59.00,26.10,28.18,230.00,5.00,0.00,30.17,1012.40,M,M,M,M,M,M,M,M,M,M,M,M,M,M,M,M,M,59.00,KP68 300853Z AUTO 23005KT 15/M03 A3017 RMK AO1 SLP124 T01501033 53003,M
ELY,2022-06-30 08:53,-114.8453,39.2950,1909.00,67.00,32.00,27.17,40.00,9.00,0.00,30.17,1009.40,10.00,M,CLR,M,M,M,M,M,M,M,M,M,M,M,M,M,M,66.90,KELY 300853Z AUTO 04009KT 10SM CLR 19/00 A3017 RMK AO2 SLP094 T01940000 53001,M
VGT,2022-06-30 08:53,-115.1933,36.2111,667.00,94.00,39.00,14.82,230.00,14.00,0.00,29.87,1009.50,10.00,22.00,CLR,M,M,M,M,M,M,M,M,M,M,M,M,M,M,89.54,KVGT 300853Z AUTO 23014G22KT 10SM CLR 34/04 A2987 RMK AO2 SLP095 T03440039 58001,M
LOL,2022-06-30 08:53,-118.5701,40.0684,1192.43,59.00,25.00,26.92,80.00,3.00,0.00,30.08,1014.40,10.00,M,CLR,M,M,M,M,M,M,M,M,M,M,M,M,M,M,59.00,KLOL 300853Z AUTO 08003KT 10SM CLR 15/M04 A3008 RMK AO2 SLP144 T01501039 51006,M
DRA,2022-06-30 08:53,-116.0278,36.6206,1009.00,88.00,35.00,15.29,210.00,20.00,0.00,29.92,1007.00,10.00,33.00,CLR,M,M,M,M,M,M,M,M,M,M,M,40.00,220.00,2022-06-30 08:26,84.28,KDRA 300853Z AUTO 21020G33KT 10SM CLR 31/02 A2992 RMK AO2 PK WND 22040/0826 SLP070 T03110017 56010,M
BVU,2022-06-30 08:55,-114.8611,35.9475,671.00,89.60,39.20,17.09,200.00,5.00,0.00,29.92,M,10.00,M,CLR,M,M,M,M,M,M,M,M,M,M,M,M,M,M,85.73,KBVU 300855Z AUTO 20005KT 10SM CLR 32/04 A2992 RMK AO2,M
RNO,2022-06-30 08:55,-119.7711,39.4839,1341.00,62.00,36.00,37.69,200.00,3.00,0.00,30.13,1014.40,10.00,M,CLR,M,M,M,M,M,M,M,M,M,M,M,M,M,M,62.10,KRNO 300855Z 20003KT 10SM CLR 17/02 A3013 RMK AO2 SLP144 T01670022 53001,M
RTS,2022-06-30 08:55,-119.8764,39.6682,1539.00,57.20,30.20,35.57,280.00,8.00,0.00,30.17,M,10.00,M,CLR,M,M,M,M,M,M,M,M,M,M,M,M,M,M,57.20,KRTS 300855Z AUTO 28008KT 10SM CLR 14/M01 A3017 RMK AO2,M
05U,2022-06-30 08:55,-116.0051,39.6042,1811.23,59.00,24.80,26.70,0.00,0.00,0.00,30.19,M,10.00,M,CLR,M,M,M,M,M,M,M,M,M,M,M,M,M,M,59.00,K05U 300855Z AUTO 00000KT 10SM CLR 15/M04 A3019 RMK A01,M
MEV,2022-06-30 08:55,-119.7500,38.9963,1441.42,50.00,33.80,53.54,0.00,0.00,0.00,30.14,M,10.00,M,CLR,M,M,M,M,M,M,M,M,M,M,M,M,M,M,50.00,KMEV 300855Z AUTO 00000KT 10SM CLR 10/01 A3014 RMK AO2,M
BAM,2022-06-30 08:55,-116.8743,40.5990,1382.36,M,M,M,200.00,4.00,0.00,30.09,M,10.00,M,CLR,M,M,M,M,M,M,M,M,M,M,M,M,M,M,M,KBAM 300855Z AUTO 20004KT 10SM CLR A3009 RMK AO1,M
HTH,2022-06-30 08:55,-118.6315,38.5448,1282.89,73.40,32.00,21.76,330.00,5.00,0.00,30.10,M,10.00,M,CLR,M,M,M,M,M,M,M,M,M,M,M,M,M,M,73.40,KHTH 300855Z AUTO 33005KT 10SM CLR 23/M00 A3010 RMK A01,M
TMT,2022-06-30 08:55,-117.1971,39.4643,1749.34,56.80,28.90,34.23,0.00,0.00,0.00,30.20,M,10.00,M,CLR,M,M,M,M,M,M,M,M,M,M,M,M,M,M,56.80,KTMT 300855Z AUTO 00000KT 10SM CLR 14/M02 A3020 RMK AO2 T01381017,M
EKO,2022-06-30 08:56,-115.7860,40.8242,1367.00,54.00,28.00,36.52,240.00,8.00,0.00,30.12,1014.60,10.00,M,CLR,M,M,M,M,M,M,M,M,M,M,M,M,M,M,54.00,KEKO 300856Z AUTO 24008KT 10SM CLR 12/M02 A3012 RMK AO2 SLP146 T01221022 53005,M
NFL,2022-06-30 08:56,-118.7010,39.4166,1199.00,65.00,30.90,27.85,320.00,3.00,0.00,30.08,1015.40,10.00,M,CLR,M,M,M,M,M,M,M,M,M,M,M,M,M,M,64.90,KNFL 300856Z AUTO 32003KT 10SM CLR 18/M01 A3008 RMK AO2 SLP154 T01831006 51004,M
LAS,2022-06-30 08:56,-115.1634,36.0719,663.00,91.00,39.00,16.23,220.00,13.00,0.00,29.90,1009.00,10.00,23.00,BKN,M,M,M,18000.00,M,M,M,M,M,M,M,28.00,230.00,2022-06-30 08:31,86.94,KLAS 300856Z 22013G23KT 10SM BKN180 33/04 A2990 RMK AO2 PK WND 23028/0831 SLP090 T03280039 55000,M
WMC,2022-06-30 08:56,-117.8072,40.9019,1315.00,71.00,33.00,24.59,60.00,9.00,0.00,30.09,1013.20,10.00,M,CLR,M,M,M,M,M,M,M,M,M,M,M,M,M,M,71.10,KWMC 300856Z AUTO 06009KT 10SM CLR 22/01 A3009 RMK AO2 SLP132 T02170006 51013,M
HND,2022-06-30 08:56,-115.1344,35.9729,742.79,89.00,42.00,19.42,160.00,14.00,0.00,29.95,1012.10,10.00,M,CLR,M,M,M,M,M,M,M,M,M,M,M,26.00,220.00,2022-06-30 07:58,85.45,KHND 300856Z AUTO 16014KT 10SM CLR 32/06 A2995 RMK AO2 PK WND 22026/0758 PRESRR SLP121 T03170056 53004,M
INS,2022-06-30 08:58,-115.6733,36.5872,955.00,85.80,34.30,15.89,280.00,3.00,0.00,29.93,1007.40,10.00,M,BKN,M,M,M,15000.00,M,M,M,M,M,M,M,M,M,M,82.51,KINS 300858Z AUTO 28003KT 10SM BKN150 30/01 A2993 RMK AO2 SLP074 T02990013 50001 $,M
LSV,2022-06-30 08:58,-115.0343,36.2362,570.00,92.30,39.60,15.95,170.00,17.00,0.00,29.86,1008.00,10.00,M,CLR,M,M,M,M,M,M,M,M,M,M,M,M,M,M,88.13,KLSV 300858Z AUTO 17017KT 10SM CLR 34/04 A2986 RMK AO2 SLP080 T03350042 53004 $,M
BVU,2022-06-30 09:15,-114.8611,35.9475,671.00,87.80,39.20,18.09,180.00,7.00,0.00,29.93,M,10.00,M,CLR,M,M,M,M,M,M,M,M,M,M,M,M,M,M,84.22,KBVU 300915Z AUTO 18007KT 10SM CLR 31/04 A2993 RMK AO2,M
RTS,2022-06-30 09:15,-119.8764,39.6682,1539.00,55.40,30.20,37.97,290.00,10.00,0.00,30.17,M,10.00,M,CLR,M,M,M,M,M,M,M,M,M,M,M,M,M,M,55.40,KRTS 300915Z AUTO 29010KT 10SM CLR 13/M01 A3017 RMK AO2,M
05U,2022-06-30 09:15,-116.0051,39.6042,1811.23,57.20,23.00,26.42,0.00,0.00,0.00,30.18,M,10.00,M,CLR,M,M,M,M,M,M,M,M,M,M,M,M,M,M,57.20,K05U 300915Z AUTO 00000KT 10SM CLR 14/M05 A3018 RMK A01,M
MEV,2022-06-30 09:15,-119.7500,38.9963,1441.42,53.60,32.00,43.61,150.00,4.00,0.00,30.14,M,10.00,M,CLR,M,M,M,M,M,M,M,M,M,M,M,M,M,M,53.60,KMEV 300915Z AUTO 15004KT 10SM CLR 12/00 A3014 RMK AO2,M
BAM,2022-06-30 09:15,-116.8743,40.5990,1382.36,M,M,M,200.00,6.00,0.00,30.09,M,10.00,M,CLR,M,M,M,M,M,M,M,M,M,M,M,M,M,M,M,KBAM 300915Z AUTO 20006KT 10SM CLR A3009 RMK AO1,M
HTH,2022-06-30 09:15,-118.6315,38.5448,1282.89,71.60,32.00,23.13,330.00,9.00,0.00,30.11,M,10.00,M,CLR,M,M,M,M,M,M,M,M,M,M,M,M,M,M,71.60,KHTH 300915Z AUTO 33009KT 10SM CLR 22/M00 A3011 RMK A01,M
TMT,2022-06-30 09:15,-117.1971,39.4643,1749.34,58.80,28.90,31.85,0.00,0.00,0.00,30.20,M,10.00,M,CLR,M,M,M,M,M,M,M,M,M,M,M,M,M,M,58.80,KTMT 300915Z AUTO 00000KT 10SM CLR 15/M02 A3020 RMK AO2 T01491017,M
VGT,2022-06-30 09:28,-115.1933,36.2111,667.00,92.00,40.00,16.34,160.00,13.00,0.00,29.89,M,10.00,M,CLR,M,M,M,M,M,M,M,M,M,M,M,M,M,M,87.78,KVGT 300928Z AUTO 16013KT 10SM CLR 33/04 A2989 RMK AO2 WSHFT 0908 T03330044,M
BVU,2022-06-30 09:35,-114.8611,35.9475,671.00,89.60,41.00,18.33,180.00,11.00,0.00,29.93,M,10.00,M,CLR,M,M,M,M,M,M,M,M,M,M,M,M,M,M,85.82,KBVU 300935Z AUTO 18011KT 10SM CLR 32/05 A2993 RMK AO2,M
RTS,2022-06-30 09:35,-119.8764,39.6682,1539.00,57.20,30.20,35.57,280.00,13.00,0.00,30.16,M,10.00,M,CLR,M,M,M,M,M,M,M,M,M,M,M,M,M,M,57.20,KRTS 300935Z AUTO 28013KT 10SM CLR 14/M01 A3016 RMK AO2,M
05U,2022-06-30 09:35,-116.0051,39.6042,1811.23,57.20,26.60,30.69,0.00,0.00,0.00,30.19,M,10.00,M,CLR,M,M,M,M,M,M,M,M,M,M,M,M,M,M,57.20,K05U 300935Z AUTO 00000KT 10SM CLR 14/M03 A3019 RMK A01,M
MEV,2022-06-30 09:35,-119.7500,38.9963,1441.42,51.80,32.00,46.59,0.00,0.00,0.00,30.14,M,10.00,M,CLR,M,M,M,M,M,M,M,M,M,M,M,M,M,M,51.80,KMEV 300935Z AUTO 00000KT 10SM CLR 11/00 A3014 RMK AO2,M
BAM,2022-06-30 09:35,-116.8743,40.5990,1382.36,M,M,M,0.00,0.00,0.00,30.10,M,10.00,M,CLR,M,M,M,M,M,M,M,M,M,M,M,M,M,M,M,KBAM 300935Z AUTO 00000KT 10SM CLR A3010 RMK AO1,M
HTH,2022-06-30 09:35,-118.6315,38.5448,1282.89,71.60,32.00,23.13,330.00,8.00,0.00,30.11,M,10.00,M,CLR,M,M,M,M,M,M,M,M,M,M,M,M,M,M,71.60,KHTH 300935Z AUTO 33008KT 10SM CLR 22/00 A3011 RMK A01,M
TMT,2022-06-30 09:35,-117.1971,39.4643,1749.34,54.00,27.50,35.65,0.00,0.00,0.00,30.20,M,10.00,M,CLR,M,M,M,M,M,M,M,M,M,M,M,M,M,M,54.10,KTMT 300935Z AUTO 00000KT 10SM CLR 12/M02 A3020 RMK AO2 T01231025,M
P68,2022-06-30 09:53,-116.0056,39.6014,1993.00,54.00,26.10,33.77,0.00,0.00,0.00,30.16,1012.70,M,M,M,M,M,M,M,M,M,M,M,M,M,M,M,M,M,54.00,KP68 300953Z AUTO 00000KT 12/M03 A3016 RMK AO1 SLP127 T01221033,M
ELY,2022-06-30 09:53,-114.8453,39.2950,1909.00,66.00,32.00,28.03,40.00,8.00,0.00,30.18,1009.80,10.00,M,CLR,M,M,M,M,M,M,M,M,M,M,M,M,M,M,66.00,KELY 300953Z AUTO 04008KT 10SM CLR 19/00 A3018 RMK AO2 SLP098 T01890000,M
VGT,2022-06-30 09:53,-115.1933,36.2111,667.00,92.00,39.00,15.77,180.00,15.00,0.00,29.88,1010.10,10.00,25.00,CLR,M,M,M,M,M,M,M,M,M,M,M,26.00,160.00,2022-06-30 09:37,87.74,KVGT 300953Z AUTO 18015G25KT 10SM CLR 33/04 A2988 RMK AO2 PK WND 16026/0937 WSHFT 0908 SLP101 T03330039,M
LOL,2022-06-30 09:53,-118.5701,40.0684,1192.43,60.00,26.10,27.10,0.00,0.00,0.00,30.08,1014.20,10.00,M,CLR,M,M,M,M,M,M,M,M,M,M,M,M,M,M,60.10,KLOL 300953Z AUTO 00000KT 10SM CLR 16/M03 A3008 RMK AO2 SLP142 T01561033,M
DRA,2022-06-30 09:53,-116.0278,36.6206,1009.00,87.00,33.00,14.53,200.00,15.00,0.00,29.94,1007.60,10.00,24.00,CLR,M,M,M,M,M,M,M,M,M,M,M,35.00,210.00,2022-06-30 09:29,83.52,KDRA 300953Z AUTO 20015G24KT 10SM CLR 31/01 A2994 RMK AO2 PK WND 21035/0929 SLP076 T03060006,M
BVU,2022-06-30 09:55,-114.8611,35.9475,671.00,87.80,51.80,29.18,170.00,17.00,0.00,29.93,M,10.00,M,CLR,M,M,M,M,M,M,M,M,M,M,M,M,M,M,85.39,KBVU 300955Z AUTO 17017KT 10SM CLR 31/11 A2993 RMK AO2,M
RTS,2022-06-30 09:55,-119.8764,39.6682,1539.00,57.20,30.20,35.57,280.00,8.00,0.00,30.17,M,10.00,M,CLR,M,M,M,M,M,M,M,M,M,M,M,M,M,M,57.20,KRTS 300955Z AUTO 28008KT 10SM CLR 14/M01 A3017 RMK AO2,M
05U,2022-06-30 09:55,-116.0051,39.6042,1811.23,53.60,24.80,32.46,0.00,0.00,0.00,30.19,M,10.00,M,CLR,M,M,M,M,M,M,M,M,M,M,M,M,M,M,53.60,K05U 300955Z AUTO 00000KT 10SM CLR 12/M04 A3019 RMK A01,M
MEV,2022-06-30 09:55,-119.7500,38.9963,1441.42,50.00,32.00,49.81,100.00,4.00,0.00,30.14,M,10.00,M,CLR,M,M,M,M,M,M,M,M,M,M,M,M,M,M,50.00,KMEV 300955Z AUTO 10004KT 10SM CLR 10/00 A3014 RMK AO2,M
BAM,2022-06-30 09:55,-116.8743,40.5990,1382.36,M,M,M,170.00,3.00,0.00,30.10,M,10.00,M,CLR,M,M,M,M,M,M,M,M,M,M,M,M,M,M,M,KBAM 300955Z AUTO 17003KT 10SM CLR A3010 RMK AO1,M
HTH,2022-06-30 09:55,-118.6315,38.5448,1282.89,71.60,35.60,26.71,320.00,7.00,0.00,30.11,M,10.00,M,CLR,M,M,M,M,M,M,M,M,M,M,M,M,M,M,71.60,KHTH 300955Z AUTO 32007KT 10SM CLR 22/02 A3011 RMK A01,M
TMT,2022-06-30 09:55,-117.1971,39.4643,1749.34,49.60,27.50,42.09,180.00,3.00,0.00,30.19,M,10.00,M,CLR,M,M,M,M,M,M,M,M,M,M,M,M,M,M,48.81,KTMT 300955Z AUTO 18003KT 10SM CLR 10/M02 A3019 RMK AO2 T00981025,M
RNO,2022-06-30 09:55,-119.7711,39.4839,1341.00,63.00,38.00,39.36,0.00,0.00,0.00,30.13,1014.30,10.00,M,CLR,M,M,M,M,M,M,M,M,M,M,M,M,M,M,63.00,KRNO 300955Z 00000KT 10SM CLR 17/03 A3013 RMK AO2 SLP143 T01720033,M
EKO,2022-06-30 09:56,-115.7860,40.8242,1367.00,57.00,28.00,32.75,0.00,0.00,0.00,30.13,1014.30,10.00,M,CLR,M,M,M,M,M,M,M,M,M,M,M,M,M,M,57.00,KEKO 300956Z AUTO 00000KT 10SM CLR 14/M02 A3013 RMK AO2 SLP143 T01391022,M
HND,2022-06-30 09:56,-115.1344,35.9729,742.79,88.00,41.00,19.28,190.00,15.00,0.00,29.95,1011.90,10.00,M,CLR,M,M,M,M,M,M,M,M,M,M,M,M,M,M,84.46,KHND 300956Z AUTO 19015KT 10SM CLR 31/05 A2995 RMK AO2 SLP119 T03110050,M
LAS,2022-06-30 09:56,-115.1634,36.0719,663.00,90.00,39.00,16.74,190.00,10.00,0.00,29.91,1009.40,10.00,19.00,FEW,BKN,M,M,17000.00,20000.00,M,M,M,M,M,M,M,M,M,86.07,KLAS 300956Z 19010G19KT 10SM FEW170 BKN200 32/04 A2991 RMK AO2 SLP094 T03220039,M
WMC,2022-06-30 09:56,-117.8072,40.9019,1315.00,68.00,33.00,27.34,70.00,8.00,0.00,30.09,1013.40,10.00,M,CLR,M,M,M,M,M,M,M,M,M,M,M,M,M,M,68.00,KWMC 300956Z AUTO 07008KT 10SM CLR 20/01 A3009 RMK AO2 SLP134 T02000006,M
NFL,2022-06-30 09:56,-118.7010,39.4166,1199.00,63.00,33.00,32.53,220.00,3.00,0.00,30.08,1015.40,10.00,M,CLR,M,M,M,M,M,M,M,M,M,M,M,M,M,M,63.00,KNFL 300956Z AUTO 22003KT 10SM CLR 17/01 A3008 RMK AO2 SLP154 T01720006,M
INS,2022-06-30 09:58,-115.6733,36.5872,955.00,87.00,35.20,15.90,150.00,6.00,0.00,29.92,1007.10,10.00,M,BKN,M,M,M,15000.00,M,M,M,M,M,M,M,M,M,M,83.39,KINS 300958Z AUTO 15006KT 10SM BKN150 31/02 A2992 RMK AO2 SLP071 T03050018 $,M
LSV,2022-06-30 09:58,-115.0343,36.2362,570.00,93.40,40.50,15.96,200.00,20.00,0.00,29.87,1008.20,10.00,M,BKN,M,M,M,17000.00,M,M,M,M,M,M,M,26.00,160.00,2022-06-30 09:12,89.18,KLSV 300958Z AUTO 20020KT 10SM BKN170 34/05 A2987 RMK AO2 PK WND 16026/12 SLP082 T03410047 $,M
BVU,2022-06-30 10:15,-114.8611,35.9475,671.00,86.00,51.80,30.90,170.00,13.00,0.00,29.93,M,10.00,M,CLR,M,M,M,M,M,M,M,M,M,M,M,M,M,M,83.87,KBVU 301015Z AUTO 17013KT 10SM CLR 30/11 A2993 RMK AO2,M
RTS,2022-06-30 10:15,-119.8764,39.6682,1539.00,57.20,30.20,35.57,0.00,0.00,0.00,30.17,M,10.00,M,CLR,M,M,M,M,M,M,M,M,M,M,M,M,M,M,57.20,KRTS 301015Z AUTO 00000KT 10SM CLR 14/M01 A3017 RMK AO2,M
05U,2022-06-30 10:15,-116.0051,39.6042,1811.23,51.80,26.60,37.38,0.00,0.00,0.00,30.19,M,10.00,M,CLR,M,M,M,M,M,M,M,M,M,M,M,M,M,M,51.80,K05U 301015Z AUTO 00000KT 10SM CLR 11/M03 A3019 RMK A01,M
MEV,2022-06-30 10:15,-119.7500,38.9963,1441.42,44.60,33.80,65.61,M,4.00,0.00,30.15,M,10.00,M,CLR,M,M,M,M,M,M,M,M,M,M,M,M,M,M,42.13,KMEV 301015Z AUTO VRB04KT 10SM CLR 07/01 A3015 RMK AO2,M
BAM,2022-06-30 10:15,-116.8743,40.5990,1382.36,M,M,M,0.00,0.00,0.00,30.11,M,10.00,M,CLR,M,M,M,M,M,M,M,M,M,M,M,M,M,M,M,KBAM 301015Z AUTO 00000KT 10SM CLR A3011 RMK AO1,M
HTH,2022-06-30 10:15,-118.6315,38.5448,1282.89,69.80,33.80,26.43,340.00,5.00,0.00,30.11,M,10.00,M,CLR,M,M,M,M,M,M,M,M,M,M,M,M,M,M,69.80,KHTH 301015Z AUTO 34005KT 10SM CLR 21/01 A3011 RMK A01,M
TMT,2022-06-30 10:15,-117.1971,39.4643,1749.34,49.80,26.20,39.59,0.00,0.00,0.00,30.19,M,10.00,M,CLR,M,M,M,M,M,M,M,M,M,M,M,M,M,M,49.80,KTMT 301015Z AUTO 00000KT 10SM CLR 10/M03 A3019 RMK AO2 LTG DSNT E T00991032,M
BVU,2022-06-30 10:35,-114.8611,35.9475,671.00,86.00,51.80,30.90,170.00,13.00,0.00,29.93,M,10.00,M,CLR,M,M,M,M,M,M,M,M,M,M,M,M,M,M,83.87,KBVU 301035Z AUTO 17013KT 10SM CLR 30/11 A2993 RMK AO2,M
RTS,2022-06-30 10:35,-119.8764,39.6682,1539.00,55.40,30.20,37.97,100.00,4.00,0.00,30.17,M,10.00,M,CLR,M,M,M,M,M,M,M,M,M,M,M,M,M,M,55.40,KRTS 301035Z AUTO 10004KT 10SM CLR 13/M01 A3017 RMK AO2,M
05U,2022-06-30 10:35,-116.0051,39.6042,1811.23,55.40,24.80,30.40,0.00,0.00,0.00,30.19,M,9.00,M,BKN,M,M,M,12000.00,M,M,M,M,M,M,M,M,M,M,55.40,K05U 301035Z AUTO 00000KT 9SM BKN120 13/M04 A3019 RMK A01,M
MEV,2022-06-30 10:35,-119.7500,38.9963,1441.42,46.40,37.40,70.68,200.00,3.00,0.00,30.14,M,10.00,M,CLR,M,M,M,M,M,M,M,M,M,M,M,M,M,M,45.15,KMEV 301035Z AUTO 20003KT 10SM CLR 08/03 A3014 RMK AO2,M
BAM,2022-06-30 10:35,-116.8743,40.5990,1382.36,M,M,M,200.00,3.00,0.00,30.11,M,10.00,M,CLR,M,M,M,M,M,M,M,M,M,M,M,M,M,M,M,KBAM 301035Z AUTO 20003KT 10SM CLR A3011 RMK AO1,M
HTH,2022-06-30 10:35,-118.6315,38.5448,1282.89,68.00,35.60,30.20,0.00,0.00,0.00,30.11,M,10.00,M,CLR,M,M,M,M,M,M,M,M,M,M,M,M,M,M,68.00,KHTH 301035Z AUTO 00000KT 10SM CLR 20/02 A3011 RMK A01,M
TMT,2022-06-30 10:35,-117.1971,39.4643,1749.34,48.20,26.80,43.09,260.00,3.00,0.00,30.19,M,10.00,M,CLR,M,M,M,M,M,M,M,M,M,M,M,M,M,M,47.21,KTMT 301035Z AUTO 26003KT 10SM CLR 09/M03 A3019 RMK AO2 T00901029,M
P68,2022-06-30 10:53,-116.0056,39.6014,1993.00,58.00,25.00,28.01,180.00,4.00,0.00,30.17,1012.60,M,M,M,M,M,M,M,M,M,M,M,M,M,M,M,M,M,57.90,KP68 301053Z AUTO 18004KT 14/M04 A3017 RMK AO1 SLP126 T01441039,M
ELY,2022-06-30 10:53,-114.8453,39.2950,1909.00,64.00,30.90,28.74,0.00,0.00,0.00,30.18,1010.10,10.00,M,CLR,M,M,M,M,M,M,M,M,M,M,M,M,M,M,64.00,KELY 301053Z AUTO 00000KT 10SM CLR 18/M01 A3018 RMK AO2 SLP101 T01781006,M
DRA,2022-06-30 10:53,-116.0278,36.6206,1009.00,86.00,34.00,15.60,210.00,10.00,0.00,29.95,1008.10,10.00,21.00,CLR,M,M,M,M,M,M,M,M,M,M,M,28.00,180.00,2022-06-30 10:18,82.66,KDRA 301053Z AUTO 21010G21KT 10SM CLR 30/01 A2995 RMK AO2 PK WND 18028/1018 SLP081 T03000011,M
LOL,2022-06-30 10:53,-118.5701,40.0684,1192.43,55.00,25.00,31.11,230.00,3.00,0.00,30.08,1014.40,10.00,M,CLR,M,M,M,M,M,M,M,M,M,M,M,M,M,M,55.00,KLOL 301053Z AUTO 23003KT 10SM CLR 13/M04 A3008 RMK AO2 SLP144 T01281039,M
VGT,2022-06-30 10:53,-115.1933,36.2111,667.00,91.00,38.00,15.54,160.00,11.00,0.00,29.90,1010.60,10.00,M,CLR,M,M,M,M,M,M,M,M,M,M,M,M,M,M,86.90,KVGT 301053Z AUTO 16011KT 10SM CLR 33/03 A2990 RMK AO2 SLP106 T03280033,M
BVU,2022-06-30 10:55,-114.8611,35.9475,671.00,86.00,51.80,30.90,180.00,13.00,0.00,29.93,M,10.00,M,CLR,M,M,M,M,M,M,M,M,M,M,M,M,M,M,83.87,KBVU 301055Z AUTO 18013KT 10SM CLR 30/11 A2993 RMK AO2,M
RNO,2022-06-30 10:55,-119.7711,39.4839,1341.00,61.00,37.00,40.77,0.00,0.00,0.00,30.13,1014.40,10.00,M,CLR,M,M,M,M,M,M,M,M,M,M,M,M,M,M,61.00,KRNO 301055Z 00000KT 10SM CLR 16/03 A3013 RMK AO2 SLP144 T01610028,M
RTS,2022-06-30 10:55,-119.8764,39.6682,1539.00,55.40,30.20,37.97,350.00,3.00,0.00,30.17,M,10.00,M,CLR,M,M,M,M,M,M,M,M,M,M,M,M,M,M,55.40,KRTS 301055Z AUTO 35003KT 10SM CLR 13/M01 A3017 RMK AO2,M
05U,2022-06-30 10:55,-116.0051,39.6042,1811.23,57.20,23.00,26.42,0.00,0.00,0.00,30.19,M,9.00,M,SCT,M,M,M,12000.00,M,M,M,M,M,M,M,M,M,M,57.20,K05U 301055Z AUTO 00000KT 9SM SCT120 14/M05 A3019 RMK A01,M
MEV,2022-06-30 10:55,-119.7500,38.9963,1441.42,46.40,33.80,61.28,0.00,0.00,0.00,30.14,M,10.00,M,CLR,M,M,M,M,M,M,M,M,M,M,M,M,M,M,46.40,KMEV 301055Z AUTO 00000KT 10SM CLR 08/01 A3014 RMK AO2,M
BAM,2022-06-30 10:55,-116.8743,40.5990,1382.36,M,M,M,200.00,4.00,0.00,30.11,M,10.00,M,CLR,M,M,M,M,M,M,M,M,M,M,M,M,M,M,M,KBAM 301055Z AUTO 20004KT 10SM CLR A3011 RMK AO1,M
HTH,2022-06-30 10:55,-118.6315,38.5448,1282.89,68.00,37.40,32.43,0.00,0.00,0.00,30.11,M,10.00,M,CLR,M,M,M,M,M,M,M,M,M,M,M,M,M,M,68.00,KHTH 301055Z AUTO 00000KT 10SM CLR 20/03 A3011 RMK A01,M
TMT,2022-06-30 10:55,-117.1971,39.4643,1749.34,48.70,27.70,43.88,230.00,8.00,0.00,30.20,M,10.00,M,CLR,M,M,M,M,M,M,M,M,M,M,M,M,M,M,44.68,KTMT 301055Z AUTO 23008KT 10SM CLR 09/M02 A3020 RMK AO2 T00931024,M
EKO,2022-06-30 10:56,-115.7860,40.8242,1367.00,56.00,30.00,36.98,0.00,0.00,0.00,30.14,1014.60,10.00,M,CLR,M,M,M,M,M,M,M,M,M,M,M,M,M,M,55.90,KEKO 301056Z AUTO 00000KT 10SM CLR 13/M01 A3014 RMK AO2 SLP146 T01331011,M
WMC,2022-06-30 10:56,-117.8072,40.9019,1315.00,60.00,32.00,34.49,340.00,6.00,0.00,30.09,1013.90,10.00,M,CLR,M,M,M,M,M,M,M,M,M,M,M,M,M,M,60.10,KWMC 301056Z AUTO 34006KT 10SM CLR 16/00 A3009 RMK AO2 SLP139 T01560000,M
NFL,2022-06-30 10:56,-118.7010,39.4166,1199.00,58.00,30.90,35.69,230.00,3.00,0.00,30.08,1015.30,10.00,M,CLR,M,M,M,M,M,M,M,M,M,M,M,M,M,M,57.90,KNFL 301056Z AUTO 23003KT 10SM CLR 14/M01 A3008 RMK AO2 SLP153 T01441006,M
HND,2022-06-30 10:56,-115.1344,35.9729,742.79,86.00,43.00,22.19,200.00,16.00,0.00,29.95,1012.10,10.00,M,CLR,M,M,M,M,M,M,M,M,M,M,M,M,M,M,82.97,KHND 301056Z AUTO 20016KT 10SM CLR 30/06 A2995 RMK AO2 SLP121 T03000061,M
LAS,2022-06-30 10:56,-115.1634,36.0719,663.00,89.00,40.00,17.84,180.00,11.00,0.00,29.91,1009.40,10.00,22.00,FEW,BKN,M,M,15000.00,18000.00,M,M,M,M,M,M,M,M,M,85.34,KLAS 301056Z 18011G22KT 10SM FEW150 BKN180 32/04 A2991 RMK AO2 SLP094 T03170044,M
INS,2022-06-30 10:58,-115.6733,36.5872,955.00,82.40,34.70,18.01,100.00,10.00,0.00,29.95,1008.40,10.00,M,BKN,M,M,M,15000.00,M,M,M,M,M,M,M,M,M,M,80.06,KINS 301058Z AUTO 10010KT 10SM BKN150 28/02 A2995 RMK AO2 SLP084 T02800015 $,M
LSV,2022-06-30 10:58,-115.0343,36.2362,570.00,92.30,39.60,15.95,190.00,12.00,0.00,29.88,1008.60,10.00,M,BKN,M,M,M,18000.00,M,M,M,M,M,M,M,M,M,M,88.13,KLSV 301058Z AUTO 19012KT 10SM BKN180 34/04 A2988 RMK AO2 SLP086 T03350042 $,M
BVU,2022-06-30 11:15,-114.8611,35.9475,671.00,86.00,51.80,30.90,160.00,9.00,0.00,29.94,M,10.00,M,CLR,M,M,M,M,M,M,M,M,M,M,M,M,M,M,83.87,KBVU 301115Z AUTO 16009KT 10SM CLR 30/11 A2994 RMK AO2,M
RTS,2022-06-30 11:15,-119.8764,39.6682,1539.00,53.60,28.40,37.67,330.00,7.00,0.00,30.16,M,10.00,M,CLR,M,M,M,M,M,M,M,M,M,M,M,M,M,M,53.60,KRTS 301115Z AUTO 33007KT 10SM CLR 12/M02 A3016 RMK AO2,M
05U,2022-06-30 11:15,-116.0051,39.6042,1811.23,55.40,24.80,30.40,0.00,0.00,0.00,30.19,M,10.00,M,SCT,M,M,M,11000.00,M,M,M,M,M,M,M,M,M,M,55.40,K05U 301115Z AUTO 00000KT 10SM SCT110 13/M04 A3019 RMK A01,M
MEV,2022-06-30 11:15,-119.7500,38.9963,1441.42,44.60,33.80,65.61,0.00,0.00,0.00,30.14,M,10.00,M,CLR,M,M,M,M,M,M,M,M,M,M,M,M,M,M,44.60,KMEV 301115Z AUTO 00000KT 10SM CLR 07/01 A3014 RMK AO2,M
BAM,2022-06-30 11:15,-116.8743,40.5990,1382.36,M,M,M,230.00,4.00,0.00,30.11,M,10.00,M,CLR,M,M,M,M,M,M,M,M,M,M,M,M,M,M,M,KBAM 301115Z AUTO 23004KT 10SM CLR A3011 RMK AO1,M
HTH,2022-06-30 11:15,-118.6315,38.5448,1282.89,64.40,32.00,29.63,130.00,5.00,0.00,30.11,M,10.00,M,CLR,M,M,M,M,M,M,M,M,M,M,M,M,M,M,64.40,KHTH 301115Z AUTO 13005KT 10SM CLR 18/00 A3011 RMK A01,M
TMT,2022-06-30 11:15,-117.1971,39.4643,1749.34,51.00,25.70,37.23,220.00,6.00,0.00,30.19,M,10.00,M,CLR,M,M,M,M,M,M,M,M,M,M,M,M,M,M,50.90,KTMT 301115Z AUTO 22006KT 10SM CLR 11/M03 A3019 RMK AO2 T01051035,M
BVU,2022-06-30 11:35,-114.8611,35.9475,671.00,84.20,53.60,34.97,180.00,5.00,0.00,29.94,M,10.00,M,CLR,M,M,M,M,M,M,M,M,M,M,M,M,M,M,82.76,KBVU 301135Z AUTO 18005KT 10SM CLR 29/12 A2994 RMK AO2,M
RTS,2022-06-30 11:35,-119.8764,39.6682,1539.00,55.40,28.40,35.28,360.00,6.00,0.00,30.17,M,10.00,M,CLR,M,M,M,M,M,M,M,M,M,M,M,M,M,M,55.40,KRTS 301135Z AUTO 36006KT 10SM CLR 13/M02 A3017 RMK AO2,M
05U,2022-06-30 11:35,-116.0051,39.6042,1811.23,55.40,24.80,30.40,0.00,0.00,0.00,30.19,M,10.00,M,FEW,M,M,M,12000.00,M,M,M,M,M,M,M,M,M,M,55.40,K05U 301135Z AUTO 00000KT 10SM FEW120 13/M04 A3019 RMK A01,M
MEV,2022-06-30 11:35,-119.7500,38.9963,1441.42,46.40,33.80,61.28,0.00,0.00,0.00,30.14,M,10.00,M,CLR,M,M,M,M,M,M,M,M,M,M,M,M,M,M,46.40,KMEV 301135Z AUTO 00000KT 10SM CLR 08/01 A3014 RMK AO2,M
BAM,2022-06-30 11:35,-116.8743,40.5990,1382.36,M,M,M,200.00,3.00,0.00,30.11,M,10.00,M,CLR,M,M,M,M,M,M,M,M,M,M,M,M,M,M,M,KBAM 301135Z AUTO 20003KT 10SM CLR A3011 RMK AO1,M
HTH,2022-06-30 11:35,-118.6315,38.5448,1282.89,62.60,30.20,29.35,120.00,4.00,0.00,30.11,M,10.00,M,CLR,M,M,M,M,M,M,M,M,M,M,M,M,M,M,62.60,KHTH 301135Z AUTO 12004KT 10SM CLR 17/M01 A3011 RMK A01,M
TMT,2022-06-30 11:35,-117.1971,39.4643,1749.34,47.50,27.50,45.53,220.00,3.00,0.00,30.19,M,10.00,M,CLR,M,M,M,M,M,M,M,M,M,M,M,M,M,M,46.41,KTMT 301135Z AUTO 22003KT 10SM CLR 09/M02 A3019 RMK AO2 T00861025,M
P68,2022-06-30 11:53,-116.0056,39.6014,1993.00,56.00,28.00,34.08,190.00,5.00,0.00,30.17,1012.70,M,M,M,M,M,M,M,M,M,M,M,M,M,M,M,M,M,55.90,KP68 301153Z AUTO 19005KT 13/M02 A3017 RMK AO1 SLP127 7//// T01331022 10211 20106 53001,M
ELY,2022-06-30 11:53,-114.8453,39.2950,1909.00,52.00,30.00,42.65,180.00,9.00,0.00,30.19,1011.80,10.00,M,CLR,M,M,M,M,M,M,M,M,M,M,M,M,M,M,52.00,KELY 301153Z AUTO 18009KT 10SM CLR 11/M01 A3019 RMK AO2 SLP118 T01111011 10244 20111 53006,M
DRA,2022-06-30 11:53,-116.0278,36.6206,1009.00,84.00,34.00,16.63,200.00,8.00,0.00,29.97,1008.70,10.00,M,CLR,M,M,M,M,M,M,M,M,M,M,M,M,M,M,81.16,KDRA 301153Z AUTO 20008KT 10SM CLR 29/01 A2997 RMK AO2 SLP087 T02890011 10328 20289 51014,M
LOL,2022-06-30 11:53,-118.5701,40.0684,1192.43,52.00,23.00,31.93,0.00,0.00,0.00,30.08,1014.60,10.00,M,CLR,M,M,M,M,M,M,M,M,M,M,M,M,M,M,52.00,KLOL 301153Z AUTO 00000KT 10SM CLR 11/M05 A3008 RMK AO2 SLP146 T01111050 10256 20106 55000,M
VGT,2022-06-30 11:53,-115.1933,36.2111,667.00,90.00,40.00,17.34,180.00,12.00,0.00,29.91,1010.80,10.00,M,CLR,M,M,M,M,M,M,M,M,M,M,M,M,M,M,86.11,KVGT 301153Z AUTO 18012KT 10SM CLR 32/04 A2991 RMK AO2 SLP108 T03220044 10367 20322 51011,M
BAM,2022-06-30 11:55,-116.8743,40.5990,1382.36,M,M,M,190.00,6.00,0.00,30.11,M,10.00,M,CLR,M,M,M,M,M,M,M,M,M,M,M,M,M,M,M,KBAM 301155Z AUTO 19006KT 10SM CLR A3011 RMK AO1,M
BVU,2022-06-30 11:55,-114.8611,35.9475,671.00,84.20,53.60,34.97,160.00,12.00,0.00,29.94,M,10.00,M,CLR,M,M,M,M,M,M,M,M,M,M,M,M,M,M,82.76,KBVU 301155Z AUTO 16012KT 10SM CLR 29/12 A2994 RMK AO2,M
RNO,2022-06-30 11:55,-119.7711,39.4839,1341.00,61.00,37.00,40.77,0.00,0.00,0.00,30.13,1014.50,10.00,M,CLR,M,M,M,M,M,M,M,M,M,M,M,M,M,M,61.00,KRNO 301155Z 00000KT 10SM CLR 16/03 A3013 RMK AO2 SLP145 T01610028 10233 20144 53001,M
RTS,2022-06-30 11:55,-119.8764,39.6682,1539.00,53.60,26.60,34.98,360.00,6.00,0.00,30.17,M,10.00,M,CLR,M,M,M,M,M,M,M,M,M,M,M,M,M,M,53.60,KRTS 301155Z AUTO 36006KT 10SM CLR 12/M03 A3017 RMK AO2,M
05U,2022-06-30 11:55,-116.0051,39.6042,1811.23,55.40,26.60,32.76,0.00,0.00,0.00,30.19,M,9.00,M,CLR,M,M,M,M,M,M,M,M,M,M,M,M,M,M,55.40,K05U 301155Z AUTO 00000KT 9SM CLR 13/M03 A3019 RMK A01,M
MEV,2022-06-30 11:55,-119.7500,38.9963,1441.42,42.80,32.00,65.38,120.00,5.00,0.00,30.14,M,10.00,M,CLR,M,M,M,M,M,M,M,M,M,M,M,M,M,M,39.22,KMEV 301155Z AUTO 12005KT 10SM CLR 06/00 A3014 RMK AO2,M
HTH,2022-06-30 11:55,-118.6315,38.5448,1282.89,64.40,32.00,29.63,160.00,3.00,0.00,30.11,M,10.00,M,CLR,M,M,M,M,M,M,M,M,M,M,M,M,M,M,64.40,KHTH 301155Z AUTO 16003KT 10SM CLR 18/00 A3011 RMK A01,M
TMT,2022-06-30 11:55,-117.1971,39.4643,1749.34,44.60,26.10,47.96,200.00,3.00,0.00,30.20,M,10.00,M,CLR,M,M,M,M,M,M,M,M,M,M,M,M,M,M,43.09,KTMT 301155Z AUTO 20003KT 10SM CLR 07/M03 A3020 RMK AO2 T00701033 10163 20070,M
EKO,2022-06-30 11:56,-115.7860,40.8242,1367.00,57.00,30.90,36.86,0.00,0.00,0.00,30.14,1014.80,10.00,M,CLR,M,M,M,M,M,M,M,M,M,M,M,M,M,M,57.00,KEKO 301156Z AUTO 00000KT 10SM CLR 14/M01 A3014 RMK AO2 SLP148 T01391006 10228 20117 53005,M
WMC,2022-06-30 11:56,-117.8072,40.9019,1315.00,51.00,28.90,42.16,0.00,0.00,0.00,30.09,1014.40,10.00,M,CLR,M,M,M,M,M,M,M,M,M,M,M,M,M,M,51.10,KWMC 301156Z AUTO 00000KT 10SM CLR 11/M02 A3009 RMK AO2 SLP144 T01061017 10256 20106 50000,M
NFL,2022-06-30 11:56,-118.7010,39.4166,1199.00,55.00,32.00,41.44,190.00,5.00,0.00,30.08,1015.40,10.00,M,CLR,M,M,M,M,M,M,M,M,M,M,M,M,M,M,55.00,KNFL 301156Z AUTO 19005KT 10SM CLR 13/00 A3008 RMK AO2 SLP154 T01280000 10250 20128 55001,M
HND,2022-06-30 11:56,-115.1344,35.9729,742.79,85.00,44.00,23.97,210.00,16.00,0.00,29.95,1012.20,10.00,M,CLR,M,M,M,M,M,M,M,M,M,M,M,M,M,M,82.20,KHND 301156Z AUTO 21016KT 10SM CLR 29/07 A2995 RMK AO2 SLP122 T02940067 10344 20294 53001,M
LAS,2022-06-30 11:56,-115.1634,36.0719,663.00,87.00,43.00,21.42,190.00,9.00,0.00,29.93,1010.10,10.00,19.00,FEW,BKN,M,M,15000.00,18000.00,M,M,M,M,M,M,M,M,M,83.84,KLAS 301156Z 19009G19KT 10SM FEW150 BKN180 31/06 A2993 RMK AO2 SLP101 T03060061 10350 20306 53009,M
INS,2022-06-30 11:58,-115.6733,36.5872,955.00,82.20,35.80,18.94,100.00,8.00,0.00,29.96,1008.80,10.00,M,BKN,M,M,M,15000.00,M,M,M,M,M,M,M,M,M,M,79.96,KINS 301158Z AUTO 10008KT 10SM BKN150 28/02 A2996 RMK AO2 SLP088 T02790021 10337 20279 53008 $,M
LSV,2022-06-30 11:58,-115.0343,36.2362,570.00,90.00,47.30,22.94,190.00,10.00,0.00,29.88,1008.70,10.00,M,CLR,M,M,M,M,M,M,M,M,M,M,M,M,M,M,86.78,KLSV 301158Z AUTO 19010KT 10SM CLR 32/09 A2988 RMK AO2 SLP087 T03230085 10361 20323 52008 $,M
BVU,2022-06-30 12:15,-114.8611,35.9475,671.00,84.20,53.60,34.97,160.00,12.00,0.00,29.95,M,10.00,M,CLR,M,M,M,M,M,M,M,M,M,M,M,M,M,M,82.76,KBVU 301215Z AUTO 16012KT 10SM CLR 29/12 A2995 RMK AO2,M
RTS,2022-06-30 12:15,-119.8764,39.6682,1539.00,51.80,26.60,37.38,0.00,0.00,0.00,30.17,M,10.00,M,CLR,M,M,M,M,M,M,M,M,M,M,M,M,M,M,51.80,KRTS 301215Z AUTO 00000KT 10SM CLR 11/M03 A3017 RMK AO2,M
05U,2022-06-30 12:15,-116.0051,39.6042,1811.23,53.60,26.60,34.98,0.00,0.00,0.00,30.19,M,9.00,M,FEW,FEW,M,M,8000.00,9500.00,M,M,M,M,M,M,M,M,M,53.60,K05U 301215Z AUTO 00000KT 9SM FEW080 FEW095 12/M03 A3019 RMK A01,M
MEV,2022-06-30 12:15,-119.7500,38.9963,1441.42,44.60,32.00,61.03,0.00,0.00,0.00,30.15,M,10.00,M,CLR,M,M,M,M,M,M,M,M,M,M,M,M,M,M,44.60,KMEV 301215Z AUTO 00000KT 10SM CLR 07/M00 A3015 RMK AO2,M
BAM,2022-06-30 12:15,-116.8743,40.5990,1382.36,M,M,M,170.00,5.00,0.00,30.12,M,10.00,M,CLR,M,M,M,M,M,M,M,M,M,M,M,M,M,M,M,KBAM 301215Z AUTO 17005KT 10SM CLR A3012 RMK AO1,M
HTH,2022-06-30 12:15,-118.6315,38.5448,1282.89,64.40,32.00,29.63,0.00,0.00,0.00,30.11,M,10.00,M,CLR,M,M,M,M,M,M,M,M,M,M,M,M,M,M,64.40,KHTH 301215Z AUTO 00000KT 10SM CLR 18/00 A3011 RMK A01,M
TMT,2022-06-30 12:15,-117.1971,39.4643,1749.34,43.20,23.50,45.40,220.00,5.00,0.00,30.20,M,10.00,M,CLR,M,M,M,M,M,M,M,M,M,M,M,M,M,M,39.70,KTMT 301215Z AUTO 22005KT 10SM CLR 06/M05 A3020 RMK AO2 T00621047,M
BVU,2022-06-30 12:35,-114.8611,35.9475,671.00,84.20,53.60,34.97,160.00,8.00,0.00,29.96,M,10.00,M,CLR,M,M,M,M,M,M,M,M,M,M,M,M,M,M,82.76,KBVU 301235Z AUTO 16008KT 10SM CLR 29/12 A2996 RMK AO2,M
RTS,2022-06-30 12:35,-119.8764,39.6682,1539.00,44.60,26.60,48.96,350.00,5.00,0.00,30.17,M,10.00,M,CLR,M,M,M,M,M,M,M,M,M,M,M,M,M,M,41.36,KRTS 301235Z AUTO 35005KT 10SM CLR 07/M03 A3017 RMK AO2,M
05U,2022-06-30 12:35,-116.0051,39.6042,1811.23,51.80,26.60,37.38,0.00,0.00,0.00,30.20,M,9.00,M,FEW,FEW,SCT,M,6500.00,7500.00,12000.00,M,M,M,M,M,M,M,M,51.80,K05U 301235Z AUTO 00000KT 9SM FEW065 FEW075 SCT120 11/M03 A3020 RMK A01,M
MEV,2022-06-30 12:35,-119.7500,38.9963,1441.42,42.80,32.00,65.38,110.00,4.00,0.00,30.14,M,10.00,M,CLR,M,M,M,M,M,M,M,M,M,M,M,M,M,M,40.03,KMEV 301235Z AUTO 11004KT 10SM CLR 06/M00 A3014 RMK AO2,M
BAM,2022-06-30 12:35,-116.8743,40.5990,1382.36,M,M,M,0.00,0.00,0.00,30.12,M,10.00,M,CLR,M,M,M,M,M,M,M,M,M,M,M,M,M,M,M,KBAM 301235Z AUTO 00000KT 10SM CLR A3012 RMK AO1,M
HTH,2022-06-30 12:35,-118.6315,38.5448,1282.89,64.40,32.00,29.63,170.00,3.00,0.00,30.12,M,10.00,M,CLR,M,M,M,M,M,M,M,M,M,M,M,M,M,M,64.40,KHTH 301235Z AUTO 17003KT 10SM CLR 18/00 A3012 RMK A01,M
TMT,2022-06-30 12:35,-117.1971,39.4643,1749.34,42.00,23.70,47.76,240.00,4.00,0.00,30.21,M,10.00,M,CLR,M,M,M,M,M,M,M,M,M,M,M,M,M,M,39.21,KTMT 301235Z AUTO 24004KT 10SM CLR 06/M05 A3021 RMK AO2 T00561046,M
P68,2022-06-30 12:53,-116.0056,39.6014,1993.00,55.00,28.00,35.21,220.00,5.00,0.00,30.18,1013.30,M,M,M,M,M,M,M,M,M,M,M,M,M,M,M,M,M,55.00,KP68 301253Z AUTO 22005KT 13/M02 A3018 RMK AO1 SLP133 T01281022,M
ELY,2022-06-30 12:53,-114.8453,39.2950,1909.00,50.00,30.00,45.93,190.00,4.00,0.00,30.21,1012.80,10.00,M,CLR,M,M,M,M,M,M,M,M,M,M,M,M,M,M,50.00,KELY 301253Z AUTO 19004KT 10SM CLR 10/M01 A3021 RMK AO2 SLP128 T01001011,M
DRA,2022-06-30 12:53,-116.0278,36.6206,1009.00,83.00,34.00,17.23,180.00,10.00,0.00,29.99,1009.40,10.00,M,CLR,M,M,M,M,M,M,M,M,M,M,M,M,M,M,80.38,KDRA 301253Z AUTO 18010KT 10SM CLR 28/01 A2999 RMK AO2 SLP094 T02830011,M
LOL,2022-06-30 12:53,-118.5701,40.0684,1192.43,51.00,21.90,31.52,280.00,3.00,0.00,30.08,1015.10,10.00,M,CLR,M,M,M,M,M,M,M,M,M,M,M,M,M,M,51.10,KLOL 301253Z AUTO 28003KT 10SM CLR 11/M06 A3008 RMK AO2 SLP151 T01061056,M
VGT,2022-06-30 12:53,-115.1933,36.2111,667.00,89.00,40.00,17.84,190.00,11.00,0.00,29.92,1011.40,10.00,M,CLR,M,M,M,M,M,M,M,M,M,M,M,M,M,M,85.34,KVGT 301253Z 19011KT 10SM CLR 32/04 A2992 RMK AO2 SLP114 T03170044,M
BVU,2022-06-30 12:55,-114.8611,35.9475,671.00,84.20,53.60,34.97,180.00,7.00,0.00,29.96,M,10.00,M,CLR,M,M,M,M,M,M,M,M,M,M,M,M,M,M,82.76,KBVU 301255Z AUTO 18007KT 10SM CLR 29/12 A2996 RMK AO2,M
RNO,2022-06-30 12:55,-119.7711,39.4839,1341.00,59.00,34.00,38.87,310.00,3.00,0.00,30.13,1014.90,10.00,M,CLR,M,M,M,M,M,M,M,M,M,M,M,M,M,M,59.00,KRNO 301255Z 31003KT 10SM CLR 15/01 A3013 RMK AO2 SLP149 T01500011,M
RTS,2022-06-30 12:55,-119.8764,39.6682,1539.00,46.40,26.60,45.73,330.00,6.00,0.00,30.17,M,10.00,M,CLR,M,M,M,M,M,M,M,M,M,M,M,M,M,M,42.87,KRTS 301255Z AUTO 33006KT 10SM CLR 08/M03 A3017 RMK AO2,M
05U,2022-06-30 12:55,-116.0051,39.6042,1811.23,55.40,26.60,32.76,0.00,0.00,0.00,30.20,M,10.00,M,FEW,M,M,M,12000.00,M,M,M,M,M,M,M,M,M,M,55.40,K05U 301255Z AUTO 00000KT 10SM FEW120 13/M03 A3020 RMK A01,M
MEV,2022-06-30 12:55,-119.7500,38.9963,1441.42,48.20,32.00,53.27,130.00,4.00,0.00,30.15,M,10.00,M,CLR,M,M,M,M,M,M,M,M,M,M,M,M,M,M,46.34,KMEV 301255Z AUTO 13004KT 10SM CLR 09/M00 A3015 RMK AO2,M
BAM,2022-06-30 12:55,-116.8743,40.5990,1382.36,M,M,M,0.00,0.00,0.00,30.12,M,10.00,M,CLR,M,M,M,M,M,M,M,M,M,M,M,M,M,M,M,KBAM 301255Z AUTO 00000KT 10SM CLR A3012 RMK AO1,M
HTH,2022-06-30 12:55,-118.6315,38.5448,1282.89,64.40,32.00,29.63,200.00,3.00,0.00,30.12,M,10.00,M,CLR,M,M,M,M,M,M,M,M,M,M,M,M,M,M,64.40,KHTH 301255Z AUTO 20003KT 10SM CLR 18/M00 A3012 RMK A01,M
TMT,2022-06-30 12:55,-117.1971,39.4643,1749.34,41.40,24.60,50.94,0.00,0.00,0.00,30.21,M,10.00,M,CLR,M,M,M,M,M,M,M,M,M,M,M,M,M,M,41.40,KTMT 301255Z AUTO 00000KT 10SM CLR 05/M04 A3021 RMK AO2 T00521041,M
EKO,2022-06-30 12:56,-115.7860,40.8242,1367.00,59.00,30.00,33.08,70.00,9.00,0.00,30.15,1014.80,10.00,M,CLR,M,M,M,M,M,M,M,M,M,M,M,M,M,M,59.00,KEKO 301256Z AUTO 07009KT 10SM CLR 15/M01 A3015 RMK AO2 SLP148 T01501011,M
WMC,2022-06-30 12:56,-117.8072,40.9019,1315.00,54.00,30.90,41.11,0.00,0.00,0.00,30.10,1014.60,10.00,M,CLR,M,M,M,M,M,M,M,M,M,M,M,M,M,M,54.00,KWMC 301256Z AUTO 00000KT 10SM CLR 12/M01 A3010 RMK AO2 SLP146 T01221006,M
NFL,2022-06-30 12:56,-118.7010,39.4166,1199.00,55.00,30.90,39.63,180.00,3.00,0.00,30.09,1015.70,10.00,M,CLR,M,M,M,M,M,M,M,M,M,M,M,M,M,M,55.00,KNFL 301256Z AUTO 18003KT 10SM CLR 13/M01 A3009 RMK AO2 SLP157 T01281006,M
HND,2022-06-30 12:56,-115.1344,35.9729,742.79,83.00,43.00,24.51,210.00,10.00,0.00,29.98,1013.20,10.00,M,CLR,M,M,M,M,M,M,M,M,M,M,M,M,M,M,80.73,KHND 301256Z 21010KT 10SM CLR 28/06 A2998 RMK AO2 SLP132 T02830061,M
LAS,2022-06-30 12:56,-115.1634,36.0719,663.00,87.00,41.00,19.83,210.00,7.00,0.00,29.94,1010.50,10.00,16.00,FEW,BKN,M,M,14000.00,18000.00,M,M,M,M,M,M,M,M,M,83.73,KLAS 301256Z 21007G16KT 10SM FEW140 BKN180 31/05 A2994 RMK AO2 SLP105 ACC DSNT NW AND NE T03060050,M
LSV,2022-06-30 12:58,-115.0343,36.2362,570.00,88.20,45.70,22.93,160.00,11.00,0.00,29.90,1009.40,10.00,M,CLR,M,M,M,M,M,M,M,M,M,M,M,M,M,M,84.95,KLSV 301258Z AUTO 16011KT 10SM CLR 31/08 A2990 RMK AO2 SLP094 T03120076 $,M
INS,2022-06-30 12:58,-115.6733,36.5872,955.00,81.00,35.00,18.94,100.00,7.00,0.00,29.97,1009.30,10.00,M,OVC,M,M,M,16000.00,M,M,M,M,M,M,M,M,M,M,79.22,KINS 301258Z AUTO 10007KT 10SM OVC160 27/02 A2997 RMK AO2 SLP093 T02730016 $,M
BVU,2022-06-30 13:15,-114.8611,35.9475,671.00,84.20,55.40,37.35,200.00,7.00,0.00,29.96,M,10.00,14.00,CLR,M,M,M,M,M,M,M,M,M,M,M,M,M,M,83.09,KBVU 301315Z AUTO 20007G14KT 10SM CLR 29/13 A2996 RMK AO2,M
RTS,2022-06-30 13:15,-119.8764,39.6682,1539.00,48.20,26.60,42.73,340.00,5.00,0.00,30.17,M,10.00,M,CLR,M,M,M,M,M,M,M,M,M,M,M,M,M,M,45.63,KRTS 301315Z AUTO 34005KT 10SM CLR 09/M03 A3017 RMK AO2,M
05U,2022-06-30 13:15,-116.0051,39.6042,1811.23,55.40,28.40,35.28,0.00,0.00,0.00,30.20,M,10.00,M,FEW,M,M,M,12000.00,M,M,M,M,M,M,M,M,M,M,55.40,K05U 301315Z AUTO 00000KT 10SM FEW120 13/M02 A3020 RMK A01,M
MEV,2022-06-30 13:15,-119.7500,38.9963,1441.42,46.40,30.20,53.00,0.00,0.00,0.00,30.15,M,10.00,M,CLR,M,M,M,M,M,M,M,M,M,M,M,M,M,M,46.40,KMEV 301315Z AUTO 00000KT 10SM CLR 08/M01 A3015 RMK AO2,M
BAM,2022-06-30 13:15,-116.8743,40.5990,1382.36,M,M,M,270.00,3.00,0.00,30.13,M,10.00,M,CLR,M,M,M,M,M,M,M,M,M,M,M,M,M,M,M,KBAM 301315Z AUTO 27003KT 10SM CLR A3013 RMK AO1,M
HTH,2022-06-30 13:15,-118.6315,38.5448,1282.89,64.40,32.00,29.63,0.00,0.00,0.00,30.12,M,10.00,M,CLR,M,M,M,M,M,M,M,M,M,M,M,M,M,M,64.40,KHTH 301315Z AUTO 00000KT 10SM CLR 18/M00 A3012 RMK A01,M
TMT,2022-06-30 13:15,-117.1971,39.4643,1749.34,46.20,26.60,46.07,0.00,0.00,0.00,30.21,M,10.00,M,CLR,M,M,M,M,M,M,M,M,M,M,M,M,M,M,46.20,KTMT 301315Z AUTO 00000KT 10SM CLR 08/M03 A3021 RMK AO2 T00791030,M
BVU,2022-06-30 13:35,-114.8611,35.9475,671.00,84.20,53.60,34.97,210.00,7.00,0.00,29.96,M,10.00,M,CLR,M,M,M,M,M,M,M,M,M,M,M,M,M,M,82.76,KBVU 301335Z AUTO 21007KT 170V230 10SM CLR 29/12 A2996 RMK AO2,M
RTS,2022-06-30 13:35,-119.8764,39.6682,1539.00,51.80,28.40,40.25,330.00,4.00,0.00,30.17,M,10.00,M,CLR,M,M,M,M,M,M,M,M,M,M,M,M,M,M,51.80,KRTS 301335Z AUTO 33004KT 10SM CLR 11/M02 A3017 RMK AO2,M
05U,2022-06-30 13:35,-116.0051,39.6042,1811.23,59.00,28.40,30.98,0.00,0.00,0.00,30.20,M,9.00,M,CLR,M,M,M,M,M,M,M,M,M,M,M,M,M,M,59.00,K05U 301335Z AUTO 00000KT 9SM CLR 15/M02 A3020 RMK A01,M
MEV,2022-06-30 13:35,-119.7500,38.9963,1441.42,48.20,33.80,57.26,130.00,6.00,0.00,30.14,M,10.00,M,CLR,M,M,M,M,M,M,M,M,M,M,M,M,M,M,45.04,KMEV 301335Z AUTO 13006KT 10SM CLR 09/01 A3014 RMK AO2,M
BAM,2022-06-30 13:35,-116.8743,40.5990,1382.36,M,M,M,0.00,0.00,0.00,30.13,M,10.00,M,CLR,M,M,M,M,M,M,M,M,M,M,M,M,M,M,M,KBAM 301335Z AUTO 00000KT 10SM CLR A3013 RMK AO1,M
HTH,2022-06-30 13:35,-118.6315,38.5448,1282.89,68.00,33.80,28.11,170.00,3.00,0.00,30.12,M,10.00,M,CLR,M,M,M,M,M,M,M,M,M,M,M,M,M,M,68.00,KHTH 301335Z AUTO 17003KT 10SM CLR 20/01 A3012 RMK A01,M
TMT,2022-06-30 13:35,-117.1971,39.4643,1749.34,49.80,27.30,41.43,0.00,0.00,0.00,30.21,M,10.00,M,CLR,M,M,M,M,M,M,M,M,M,M,M,M,M,M,49.80,KTMT 301335Z AUTO 00000KT 10SM CLR 10/M03 A3021 RMK AO2 T00991026,M
05U,2022-06-30 13:50,-116.0051,39.6042,1811.23,59.00,33.80,38.56,0.00,0.00,0.00,30.21,M,10.00,M,CLR,M,M,M,M,M,M,M,M,M,M,M,M,M,M,59.00,K05U 301350Z AUTO 00000KT 10SM CLR 15/01 A3021 RMK A01,M
ELY,2022-06-30 13:53,-114.8453,39.2950,1909.00,62.00,32.00,32.13,M,M,0.00,30.20,1011.80,10.00,M,CLR,M,M,M,M,M,M,M,M,M,M,M,M,M,M,62.10,KELY 301353Z AUTO 10SM CLR 17/00 A3020 RMK AO2 SLP118 T01670000,M
VGT,2022-06-30 13:53,-115.1933,36.2111,667.00,90.00,39.00,16.74,180.00,14.00,0.00,29.93,1011.70,10.00,M,CLR,M,M,M,M,M,M,M,M,M,M,M,M,M,M,86.07,KVGT 301353Z 18014KT 10SM CLR 32/04 A2993 RMK AO2 SLP117 T03220039,M
LOL,2022-06-30 13:53,-118.5701,40.0684,1192.43,62.00,27.00,26.20,0.00,0.00,0.00,30.09,1014.50,10.00,M,CLR,M,M,M,M,M,M,M,M,M,M,M,M,M,M,62.10,KLOL 301353Z AUTO 00000KT 10SM CLR 17/M03 A3009 RMK AO2 SLP145 T01671028,M
DRA,2022-06-30 13:53,-116.0278,36.6206,1009.00,86.00,33.00,15.05,200.00,9.00,0.00,29.99,1009.50,10.00,M,CLR,M,M,M,M,M,M,M,M,M,M,M,M,M,M,82.65,KDRA 301353Z AUTO 20009KT 10SM CLR 30/01 A2999 RMK AO2 SLP095 T03000006,M
P68,2022-06-30 13:53,-116.0056,39.6014,1993.00,60.00,33.00,36.05,0.00,0.00,0.00,30.19,1013.40,M,M,M,M,M,M,M,M,M,M,M,M,M,M,M,M,M,60.10,KP68 301353Z AUTO 00000KT 16/01 A3019 RMK AO1 SLP134 T01560006,M
BVU,2022-06-30 13:55,-114.8611,35.9475,671.00,86.00,51.80,30.90,200.00,7.00,0.00,29.97,M,10.00,M,CLR,M,M,M,M,M,M,M,M,M,M,M,M,M,M,83.87,KBVU 301355Z AUTO 20007KT 10SM CLR 30/11 A2997 RMK AO2,M
RNO,2022-06-30 13:55,-119.7711,39.4839,1341.00,63.00,34.00,33.72,M,4.00,0.00,30.13,1014.70,10.00,M,CLR,M,M,M,M,M,M,M,M,M,M,M,M,M,M,63.00,KRNO 301355Z VRB04KT 10SM CLR 17/01 A3013 RMK AO2 SLP147 T01720011,M
RTS,2022-06-30 13:55,-119.8764,39.6682,1539.00,55.40,28.40,35.28,0.00,0.00,0.00,30.17,M,10.00,M,CLR,M,M,M,M,M,M,M,M,M,M,M,M,M,M,55.40,KRTS 301355Z AUTO 00000KT 10SM CLR 13/M02 A3017 RMK AO2,M
BAM,2022-06-30 13:55,-116.8743,40.5990,1382.36,M,M,M,0.00,0.00,0.00,30.13,M,10.00,M,CLR,M,M,M,M,M,M,M,M,M,M,M,M,M,M,M,KBAM 301355Z AUTO 00000KT 10SM CLR A3013 RMK AO1,M
MEV,2022-06-30 13:55,-119.7500,38.9963,1441.42,51.80,33.80,50.08,0.00,0.00,0.00,30.14,M,10.00,M,CLR,M,M,M,M,M,M,M,M,M,M,M,M,M,M,51.80,KMEV 301355Z AUTO 00000KT 10SM CLR 11/01 A3014 RMK AO2,M
HTH,2022-06-30 13:55,-118.6315,38.5448,1282.89,69.80,33.80,26.43,200.00,4.00,0.00,30.12,M,10.00,M,CLR,M,M,M,M,M,M,M,M,M,M,M,M,M,M,69.80,KHTH 301355Z AUTO 20004KT 10SM CLR 21/01 A3012 RMK A01,M
TMT,2022-06-30 13:55,-117.1971,39.4643,1749.34,53.20,28.80,38.86,0.00,0.00,0.00,30.21,M,10.00,M,CLR,M,M,M,M,M,M,M,M,M,M,M,M,M,M,53.20,KTMT 301355Z AUTO 00000KT 10SM CLR 12/M02 A3021 RMK AO2 T01181018,M
EKO,2022-06-30 13:56,-115.7860,40.8242,1367.00,62.00,30.90,30.73,90.00,4.00,0.00,30.16,1015.00,10.00,M,CLR,M,M,M,M,M,M,M,M,M,M,M,M,M,M,62.10,KEKO 301356Z AUTO 09004KT 10SM CLR 17/M01 A3016 RMK AO2 SLP150 T01671006,M
WMC,2022-06-30 13:56,-117.8072,40.9019,1315.00,59.00,27.00,29.25,160.00,6.00,0.00,30.10,1014.40,10.00,M,CLR,M,M,M,M,M,M,M,M,M,M,M,M,M,M,59.00,KWMC 301356Z AUTO 16006KT 10SM CLR 15/M03 A3010 RMK AO2 SLP144 T01501028,M
NFL,2022-06-30 13:56,-118.7010,39.4166,1199.00,63.00,32.00,31.12,170.00,3.00,0.00,30.09,1015.60,10.00,M,CLR,M,M,M,M,M,M,M,M,M,M,M,M,M,M,63.00,KNFL 301356Z AUTO 17003KT 10SM CLR 17/00 A3009 RMK AO2 SLP156 T01720000,M
HND,2022-06-30 13:56,-115.1344,35.9729,742.79,87.00,41.00,19.83,170.00,14.00,0.00,29.99,1013.40,10.00,M,CLR,M,M,M,M,M,M,M,M,M,M,M,M,M,M,83.73,KHND 301356Z 17014KT 10SM CLR 31/05 A2999 RMK AO2 SLP134 T03060050,M
LAS,2022-06-30 13:56,-115.1634,36.0719,663.00,88.00,40.00,18.47,190.00,11.00,0.00,29.95,1010.80,10.00,18.00,SCT,M,M,M,14000.00,M,M,M,M,M,M,M,M,M,M,84.41,KLAS 301356Z 19011G18KT 10SM SCT140 31/04 A2995 RMK AO2 SLP108 T03110044,M
INS,2022-06-30 13:58,-115.6733,36.5872,955.00,84.00,34.50,16.97,100.00,6.00,0.00,29.99,1009.80,10.00,M,FEW,M,M,M,17000.00,M,M,M,M,M,M,M,M,M,M,81.17,KINS 301358Z AUTO 10006KT 10SM FEW170 29/01 A2999 RMK AO2 SLP098 T02890014 $,M
LSV,2022-06-30 13:59,-115.0343,36.2362,570.00,89.60,32.00,12.84,170.00,14.00,0.00,29.93,1007.80,10.00,M,CLR,M,M,M,M,M,M,M,M,M,M,M,M,M,M,85.54,KLSV 301359Z 17014KT 10SM CLR 32/00 A2993 RMK SLP078 WND DATA ESTMD $,M
BVU,2022-06-30 14:15,-114.8611,35.9475,671.00,87.80,48.20,25.52,220.00,9.00,0.00,29.97,M,10.00,M,CLR,M,M,M,M,M,M,M,M,M,M,M,M,M,M,84.87,KBVU 301415Z AUTO 22009KT 10SM CLR 31/09 A2997 RMK AO2,M
RTS,2022-06-30 14:15,-119.8764,39.6682,1539.00,57.20,30.20,35.57,0.00,0.00,0.00,30.17,M,10.00,M,CLR,M,M,M,M,M,M,M,M,M,M,M,M,M,M,57.20,KRTS 301415Z AUTO 00000KT 10SM CLR 14/M01 A3017 RMK AO2,M
05U,2022-06-30 14:15,-116.0051,39.6042,1811.23,66.20,26.60,22.33,0.00,0.00,0.00,30.21,M,10.00,M,CLR,M,M,M,M,M,M,M,M,M,M,M,M,M,M,66.20,K05U 301415Z AUTO 00000KT 10SM CLR 19/M03 A3021 RMK A01,M
MEV,2022-06-30 14:15,-119.7500,38.9963,1441.42,57.20,33.80,41.13,0.00,0.00,0.00,30.14,M,10.00,M,CLR,M,M,M,M,M,M,M,M,M,M,M,M,M,M,57.20,KMEV 301415Z AUTO 00000KT 10SM CLR 14/01 A3014 RMK AO2,M
BAM,2022-06-30 14:15,-116.8743,40.5990,1382.36,M,M,M,0.00,0.00,0.00,30.13,M,10.00,M,CLR,M,M,M,M,M,M,M,M,M,M,M,M,M,M,M,KBAM 301415Z AUTO 00000KT 10SM CLR A3013 RMK AO1,M
HTH,2022-06-30 14:15,-118.6315,38.5448,1282.89,71.60,35.60,26.71,0.00,0.00,0.00,30.12,M,10.00,M,CLR,M,M,M,M,M,M,M,M,M,M,M,M,M,M,71.60,KHTH 301415Z AUTO 00000KT 10SM CLR 22/02 A3012 RMK A01,M
TMT,2022-06-30 14:15,-117.1971,39.4643,1749.34,57.00,29.30,34.54,0.00,0.00,0.00,30.21,M,10.00,M,CLR,M,M,M,M,M,M,M,M,M,M,M,M,M,M,57.00,KTMT 301415Z AUTO 00000KT 10SM CLR 14/M01 A3021 RMK AO2 T01391015,M
NFL,2022-06-30 14:28,-118.7010,39.4166,1199.00,68.00,33.00,27.34,0.00,0.00,0.00,30.09,M,10.00,M,CLR,M,M,M,M,M,M,M,M,M,M,M,M,M,M,68.00,KNFL 301428Z 00000KT 10SM CLR 20/01 A3009 RMK AO2 T02000006,M
BVU,2022-06-30 14:35,-114.8611,35.9475,671.00,89.60,48.20,24.11,230.00,9.00,0.00,29.97,M,10.00,M,CLR,M,M,M,M,M,M,M,M,M,M,M,M,M,M,86.44,KBVU 301435Z AUTO 23009KT 10SM CLR 32/09 A2997 RMK AO2,M
RTS,2022-06-30 14:35,-119.8764,39.6682,1539.00,60.80,30.20,31.28,0.00,0.00,0.00,30.17,M,10.00,M,CLR,M,M,M,M,M,M,M,M,M,M,M,M,M,M,60.80,KRTS 301435Z AUTO 00000KT 10SM CLR 16/M01 A3017 RMK AO2,M
05U,2022-06-30 14:35,-116.0051,39.6042,1811.23,68.00,26.60,20.98,0.00,0.00,0.00,30.22,M,10.00,M,CLR,M,M,M,M,M,M,M,M,M,M,M,M,M,M,68.00,K05U 301435Z AUTO 00000KT 10SM CLR 20/M03 A3022 RMK A01,M
MEV,2022-06-30 14:35,-119.7500,38.9963,1441.42,59.00,33.80,38.56,0.00,0.00,0.00,30.14,M,10.00,M,CLR,M,M,M,M,M,M,M,M,M,M,M,M,M,M,59.00,KMEV 301435Z AUTO 00000KT 10SM CLR 15/01 A3014 RMK AO2,M
BAM,2022-06-30 14:35,-116.8743,40.5990,1382.36,M,M,M,0.00,0.00,0.00,30.13,M,10.00,M,CLR,M,M,M,M,M,M,M,M,M,M,M,M,M,M,M,KBAM 301435Z AUTO 00000KT 10SM CLR A3013 RMK AO1,M
HTH,2022-06-30 14:35,-118.6315,38.5448,1282.89,71.60,33.80,24.86,0.00,0.00,0.00,30.12,M,10.00,M,CLR,M,M,M,M,M,M,M,M,M,M,M,M,M,M,71.60,KHTH 301435Z AUTO 00000KT 10SM CLR 22/01 A3012 RMK A01,M
TMT,2022-06-30 14:35,-117.1971,39.4643,1749.34,58.50,30.70,34.65,0.00,0.00,0.00,30.21,M,10.00,M,CLR,M,M,M,M,M,M,M,M,M,M,M,M,M,M,58.50,KTMT 301435Z AUTO 00000KT 10SM CLR 15/M01 A3021 RMK AO2 T01471007,M
P68,2022-06-30 14:53,-116.0056,39.6014,1993.00,67.00,28.00,23.09,30.00,5.00,0.00,30.19,1013.00,M,M,M,M,M,M,M,M,M,M,M,M,M,M,M,M,M,66.90,KP68 301453Z AUTO 03005KT 19/M02 A3019 RMK AO1 SLP130 T01941022 51005,M
VGT,2022-06-30 14:53,-115.1933,36.2111,667.00,93.00,39.00,15.24,180.00,17.00,0.00,29.92,1011.40,10.00,25.00,CLR,M,M,M,M,M,M,M,M,M,M,M,M,M,M,88.73,KVGT 301453Z 18017G25KT 10SM CLR 34/04 A2992 RMK AO2 SLP114 T03390039 50005,M
LOL,2022-06-30 14:53,-118.5701,40.0684,1192.43,71.00,28.00,19.99,0.00,0.00,0.00,30.09,1014.60,10.00,M,CLR,M,M,M,M,M,M,M,M,M,M,M,M,M,M,71.10,KLOL 301453Z AUTO 00000KT 10SM CLR 22/M02 A3009 RMK AO2 SLP146 T02171022 52004,M
DRA,2022-06-30 14:53,-116.0278,36.6206,1009.00,88.00,33.00,14.12,190.00,17.00,0.00,30.01,1010.00,10.00,24.00,CLR,M,M,M,M,M,M,M,M,M,M,M,M,M,M,84.25,KDRA 301453Z AUTO 19017G24KT 10SM CLR 31/01 A3001 RMK AO2 SLP100 T03110006 51011,M
ELY,2022-06-30 14:53,-114.8453,39.2950,1909.00,69.00,33.00,26.32,M,M,0.00,30.20,1011.60,10.00,M,CLR,M,M,M,M,M,M,M,M,M,M,M,M,M,M,69.10,KELY 301453Z AUTO 10SM CLR 21/01 A3020 RMK AO2 SLP116 T02060006 51003,M
BVU,2022-06-30 14:55,-114.8611,35.9475,671.00,89.60,46.40,22.53,220.00,6.00,0.00,29.97,M,10.00,M,CLR,M,M,M,M,M,M,M,M,M,M,M,M,M,M,86.24,KBVU 301455Z AUTO 22006KT 10SM CLR 32/08 A2997 RMK AO2,M
RNO,2022-06-30 14:55,-119.7711,39.4839,1341.00,67.00,36.00,31.87,0.00,0.00,0.00,30.13,1014.70,10.00,M,CLR,M,M,M,M,M,M,M,M,M,M,M,M,M,M,66.90,KRNO 301455Z 00000KT 10SM CLR 19/02 A3013 RMK AO2 SLP147 T01940022 52001,M
RTS,2022-06-30 14:55,-119.8764,39.6682,1539.00,64.40,30.20,27.55,0.00,0.00,0.00,30.17,M,10.00,M,CLR,M,M,M,M,M,M,M,M,M,M,M,M,M,M,64.40,KRTS 301455Z AUTO 00000KT 10SM CLR 18/M01 A3017 RMK AO2,M
05U,2022-06-30 14:55,-116.0051,39.6042,1811.23,69.80,28.40,21.24,0.00,0.00,0.00,30.21,M,10.00,M,CLR,M,M,M,M,M,M,M,M,M,M,M,M,M,M,69.80,K05U 301455Z AUTO 00000KT 10SM CLR 21/M02 A3021 RMK A01,M
MEV,2022-06-30 14:55,-119.7500,38.9963,1441.42,62.60,33.80,33.93,0.00,0.00,0.00,30.14,M,10.00,M,CLR,M,M,M,M,M,M,M,M,M,M,M,M,M,M,62.60,KMEV 301455Z AUTO 00000KT 10SM CLR 17/01 A3014 RMK AO2,M
BAM,2022-06-30 14:55,-116.8743,40.5990,1382.36,M,M,M,0.00,0.00,0.00,30.13,M,10.00,M,CLR,M,M,M,M,M,M,M,M,M,M,M,M,M,M,M,KBAM 301455Z AUTO 00000KT 10SM CLR A3013 RMK AO1,M
HTH,2022-06-30 14:55,-118.6315,38.5448,1282.89,73.40,33.80,23.39,0.00,0.00,0.00,30.12,M,10.00,M,CLR,M,M,M,M,M,M,M,M,M,M,M,M,M,M,73.40,KHTH 301455Z AUTO 00000KT 10SM CLR 23/01 A3012 RMK A01,M
TMT,2022-06-30 14:55,-117.1971,39.4643,1749.34,62.60,31.60,31.06,0.00,0.00,0.00,30.21,M,10.00,M,CLR,M,M,M,M,M,M,M,M,M,M,M,M,M,M,62.60,KTMT 301455Z AUTO 00000KT 10SM CLR 17/00 A3021 RMK AO2 T01701002,M
EKO,2022-06-30 14:56,-115.7860,40.8242,1367.00,66.00,30.90,26.81,0.00,0.00,0.00,30.16,1015.10,10.00,M,CLR,M,M,M,M,M,M,M,M,M,M,M,M,M,M,66.00,KEKO 301456Z AUTO 00000KT 10SM CLR 19/M01 A3016 RMK AO2 SLP151 T01891006 51004,M
WMC,2022-06-30 14:56,-117.8072,40.9019,1315.00,68.00,32.00,26.15,0.00,0.00,0.00,30.11,1014.60,10.00,M,CLR,M,M,M,M,M,M,M,M,M,M,M,M,M,M,68.00,KWMC 301456Z AUTO 00000KT 10SM CLR 20/00 A3011 RMK AO2 SLP146 T02000000 51007,M
LSV,2022-06-30 14:56,-115.0343,36.2362,570.00,93.70,40.60,15.87,190.00,21.00,0.00,29.91,1009.80,10.00,M,SCT,M,M,M,16000.00,M,M,M,M,M,M,M,M,M,M,89.46,KLSV 301456Z 19021KT 10SM SCT160 34/05 A2991 RMK SLP098 T03430048 $,M
LAS,2022-06-30 14:56,-115.1634,36.0719,663.00,90.00,39.00,16.74,180.00,9.00,0.00,29.96,1011.10,10.00,20.00,SCT,M,M,M,14000.00,M,M,M,M,M,M,M,M,M,M,86.07,KLAS 301456Z 18009G20KT 10SM SCT140 32/04 A2996 RMK AO2 SLP111 T03220039 51009,M
HND,2022-06-30 14:56,-115.1344,35.9729,742.79,90.00,40.00,17.34,220.00,13.00,0.00,29.99,1013.60,10.00,M,CLR,M,M,M,M,M,M,M,M,M,M,M,M,M,M,86.11,KHND 301456Z 22013KT 10SM CLR 32/04 A2999 RMK AO2 SLP136 T03220044 51013,M
NFL,2022-06-30 14:56,-118.7010,39.4166,1199.00,71.00,33.00,24.59,0.00,0.00,0.00,30.09,1015.80,10.00,M,CLR,M,M,M,M,M,M,M,M,M,M,M,M,M,M,71.10,KNFL 301456Z 00000KT 10SM CLR 22/01 A3009 RMK AO2 SLP158 T02170006 51004,M
INS,2022-06-30 14:58,-115.6733,36.5872,955.00,87.00,35.40,15.93,0.00,0.00,0.00,30.00,1010.10,10.00,M,CLR,M,M,M,M,M,M,M,M,M,M,M,M,M,M,83.55,KINS 301458Z AUTO 00000KT 10SM CLR 31/02 A3000 RMK AO2 SLP101 T03060019 52013 $,M
BVU,2022-06-30 15:15,-114.8611,35.9475,671.00,91.40,51.80,26.05,170.00,12.00,0.00,29.97,M,10.00,M,CLR,M,M,M,M,M,M,M,M,M,M,M,M,M,M,88.69,KBVU 301515Z AUTO 17012KT 10SM CLR 33/11 A2997 RMK AO2,M
RTS,2022-06-30 15:15,-119.8764,39.6682,1539.00,66.20,30.20,25.88,0.00,0.00,0.00,30.17,M,10.00,M,CLR,M,M,M,M,M,M,M,M,M,M,M,M,M,M,66.20,KRTS 301515Z AUTO 00000KT 10SM CLR 19/M01 A3017 RMK AO2,M
05U,2022-06-30 15:15,-116.0051,39.6042,1811.23,71.60,28.40,19.98,0.00,0.00,0.00,30.22,M,10.00,M,CLR,M,M,M,M,M,M,M,M,M,M,M,M,M,M,71.60,K05U 301515Z AUTO 00000KT 10SM CLR 22/M02 A3022 RMK A01,M
MEV,2022-06-30 15:15,-119.7500,38.9963,1441.42,66.20,32.00,27.83,0.00,0.00,0.00,30.13,M,10.00,M,CLR,M,M,M,M,M,M,M,M,M,M,M,M,M,M,66.20,KMEV 301515Z AUTO 00000KT 10SM CLR 19/00 A3013 RMK AO2,M
BAM,2022-06-30 15:15,-116.8743,40.5990,1382.36,M,M,M,0.00,0.00,0.00,30.13,M,10.00,M,CLR,M,M,M,M,M,M,M,M,M,M,M,M,M,M,M,KBAM 301515Z AUTO 00000KT 10SM CLR A3013 RMK AO1,M
HTH,2022-06-30 15:15,-118.6315,38.5448,1282.89,73.40,33.80,23.39,0.00,0.00,0.00,30.12,M,10.00,M,CLR,M,M,M,M,M,M,M,M,M,M,M,M,M,M,73.40,KHTH 301515Z AUTO 00000KT 10SM CLR 23/01 A3012 RMK A01,M
TMT,2022-06-30 15:15,-117.1971,39.4643,1749.34,67.30,31.80,26.58,0.00,0.00,0.00,30.21,M,10.00,M,CLR,M,M,M,M,M,M,M,M,M,M,M,M,M,M,67.30,KTMT 301515Z AUTO 00000KT 10SM CLR 20/00 A3021 RMK AO2 T01961001,M
BVU,2022-06-30 15:35,-114.8611,35.9475,671.00,93.20,46.40,20.13,200.00,12.00,0.00,29.97,M,10.00,19.00,CLR,M,M,M,M,M,M,M,M,M,M,M,M,M,M,89.55,KBVU 301535Z AUTO 20012G19KT 10SM CLR 34/08 A2997 RMK AO2,M
RTS,2022-06-30 15:35,-119.8764,39.6682,1539.00,68.00,33.80,28.11,120.00,4.00,0.00,30.17,M,10.00,M,CLR,M,M,M,M,M,M,M,M,M,M,M,M,M,M,68.00,KRTS 301535Z AUTO 12004KT 10SM CLR 20/01 A3017 RMK AO2,M
05U,2022-06-30 15:35,-116.0051,39.6042,1811.23,73.40,26.60,17.46,0.00,0.00,0.00,30.22,M,10.00,M,CLR,M,M,M,M,M,M,M,M,M,M,M,M,M,M,73.40,K05U 301535Z AUTO 00000KT 10SM CLR 23/M03 A3022 RMK A01,M
MEV,2022-06-30 15:35,-119.7500,38.9963,1441.42,68.00,35.60,30.20,0.00,0.00,0.00,30.13,M,10.00,M,CLR,M,M,M,M,M,M,M,M,M,M,M,M,M,M,68.00,KMEV 301535Z AUTO 00000KT 10SM CLR 20/02 A3013 RMK AO2,M
BAM,2022-06-30 15:35,-116.8743,40.5990,1382.36,M,M,M,0.00,0.00,0.00,30.14,M,10.00,M,CLR,M,M,M,M,M,M,M,M,M,M,M,M,M,M,M,KBAM 301535Z AUTO 00000KT 10SM CLR A3014 RMK AO1,M
HTH,2022-06-30 15:35,-118.6315,38.5448,1282.89,75.20,33.80,22.02,310.00,3.00,0.00,30.12,M,10.00,M,CLR,M,M,M,M,M,M,M,M,M,M,M,M,M,M,75.20,KHTH 301535Z AUTO 31003KT 10SM CLR 24/01 A3012 RMK A01,M
TMT,2022-06-30 15:35,-117.1971,39.4643,1749.34,70.20,30.00,22.37,0.00,0.00,0.00,30.21,M,10.00,M,CLR,M,M,M,M,M,M,M,M,M,M,M,M,M,M,70.20,KTMT 301535Z AUTO 00000KT 10SM CLR 21/M01 A3021 RMK AO2 T02121011,M
P68,2022-06-30 15:53,-116.0056,39.6014,1993.00,73.00,28.00,18.74,30.00,6.00,0.00,30.19,1013.00,M,M,M,M,M,M,M,M,M,M,M,M,M,M,M,M,M,73.00,KP68 301553Z AUTO 03006KT 23/M02 A3019 RMK AO1 SLP130 T02281022,M
ELY,2022-06-30 15:53,-114.8453,39.2950,1909.00,72.00,34.00,24.72,M,M,0.00,30.20,1011.20,10.00,M,CLR,M,M,M,M,M,M,M,M,M,M,M,M,M,M,72.00,KELY 301553Z AUTO 10SM CLR 22/01 A3020 RMK AO2 SLP112 T02220011,M
LOL,2022-06-30 15:53,-118.5701,40.0684,1192.43,77.00,30.90,18.46,110.00,5.00,0.00,30.09,1014.30,10.00,M,CLR,M,M,M,M,M,M,M,M,M,M,M,M,M,M,77.00,KLOL 301553Z AUTO 11005KT 10SM CLR 25/M01 A3009 RMK AO2 SLP143 T02501006,M
DRA,2022-06-30 15:53,-116.0278,36.6206,1009.00,90.00,33.00,13.26,210.00,13.00,0.00,30.01,1010.40,10.00,22.00,CLR,M,M,M,M,M,M,M,M,M,M,M,29.00,210.00,2022-06-30 15:02,85.92,KDRA 301553Z AUTO 21013G22KT 10SM CLR 32/01 A3001 RMK AO2 PK WND 21029/1502 SLP104 T03220006,M
VGT,2022-06-30 15:53,-115.1933,36.2111,667.00,95.00,40.00,14.84,180.00,15.00,0.00,29.93,1011.90,10.00,M,CLR,M,M,M,M,M,M,M,M,M,M,M,26.00,190.00,2022-06-30 14:56,90.61,KVGT 301553Z 18015KT 10SM CLR 35/04 A2993 RMK AO2 PK WND 19026/1456 SLP119 T03500044,M
BVU,2022-06-30 15:55,-114.8611,35.9475,671.00,93.20,46.40,20.13,180.00,14.00,0.00,29.97,M,10.00,M,CLR,M,M,M,M,M,M,M,M,M,M,M,M,M,M,89.55,KBVU 301555Z AUTO 18014KT 10SM CLR 34/08 A2997 RMK AO2,M
RTS,2022-06-30 15:55,-119.8764,39.6682,1539.00,71.60,30.20,21.50,M,3.00,0.00,30.17,M,10.00,M,CLR,M,M,M,M,M,M,M,M,M,M,M,M,M,M,71.60,KRTS 301555Z AUTO VRB03KT 10SM CLR 22/M01 A3017 RMK AO2,M
05U,2022-06-30 15:55,-116.0051,39.6042,1811.23,75.20,28.40,17.70,0.00,0.00,0.00,30.22,M,10.00,M,CLR,M,M,M,M,M,M,M,M,M,M,M,M,M,M,75.20,K05U 301555Z AUTO 00000KT 10SM CLR 24/M02 A3022 RMK A01,M
MEV,2022-06-30 15:55,-119.7500,38.9963,1441.42,69.80,35.60,28.39,M,3.00,0.00,30.13,M,10.00,M,CLR,M,M,M,M,M,M,M,M,M,M,M,M,M,M,69.80,KMEV 301555Z AUTO VRB03KT 10SM CLR 21/02 A3013 RMK AO2,M
BAM,2022-06-30 15:55,-116.8743,40.5990,1382.36,M,M,M,350.00,3.00,0.00,30.14,M,10.00,M,CLR,M,M,M,M,M,M,M,M,M,M,M,M,M,M,M,KBAM 301555Z AUTO 35003KT 10SM CLR A3014 RMK AO1,M
HTH,2022-06-30 15:55,-118.6315,38.5448,1282.89,77.00,33.80,20.74,350.00,4.00,0.00,30.12,M,10.00,M,CLR,M,M,M,M,M,M,M,M,M,M,M,M,M,M,77.00,KHTH 301555Z AUTO 35004KT 10SM CLR 25/01 A3012 RMK A01,M
TMT,2022-06-30 15:55,-117.1971,39.4643,1749.34,72.50,29.30,20.11,0.00,0.00,0.00,30.21,M,10.00,M,CLR,M,M,M,M,M,M,M,M,M,M,M,M,M,M,72.50,KTMT 301555Z AUTO 00000KT 10SM CLR 23/M01 A3021 RMK AO2 T02251015,M
RNO,2022-06-30 15:55,-119.7711,39.4839,1341.00,71.00,35.00,26.63,0.00,0.00,0.00,30.12,1014.50,10.00,M,CLR,M,M,M,M,M,M,M,M,M,M,M,M,M,M,71.10,KRNO 301555Z 00000KT 10SM CLR 22/02 A3012 RMK AO2 SLP145 T02170017,M
EKO,2022-06-30 15:56,-115.7860,40.8242,1367.00,72.00,30.90,21.82,0.00,0.00,0.00,30.15,1015.00,10.00,M,CLR,M,M,M,M,M,M,M,M,M,M,M,M,M,M,72.00,KEKO 301556Z AUTO 00000KT 10SM CLR 22/M01 A3015 RMK AO2 SLP150 T02221006,M
WMC,2022-06-30 15:56,-117.8072,40.9019,1315.00,77.00,30.90,18.46,0.00,0.00,0.00,30.11,1014.50,10.00,M,CLR,M,M,M,M,M,M,M,M,M,M,M,M,M,M,77.00,KWMC 301556Z AUTO 00000KT 10SM CLR 25/M01 A3011 RMK AO2 SLP145 T02501006,M
LSV,2022-06-30 15:56,-115.0343,36.2362,570.00,96.00,39.00,13.94,180.00,18.00,0.00,29.91,1009.80,10.00,M,FEW,M,M,M,16000.00,M,M,M,M,M,M,M,M,M,M,91.38,KLSV 301556Z 18018KT 10SM FEW160 36/04 A2991 RMK A02A SLP098 T03550039 $,M
NFL,2022-06-30 15:56,-118.7010,39.4166,1199.00,77.00,30.90,18.46,320.00,3.00,0.00,30.09,1015.70,10.00,M,CLR,M,M,M,M,M,M,M,M,M,M,M,M,M,M,77.00,KNFL 301556Z 32003KT 10SM CLR 25/M01 A3009 RMK AO2 SLP157 T02501006,M
HND,2022-06-30 15:56,-115.1344,35.9729,742.79,93.00,40.00,15.79,200.00,15.00,0.00,30.00,1013.80,10.00,21.00,CLR,M,M,M,M,M,M,M,M,M,M,M,M,M,M,88.78,KHND 301556Z 20015G21KT 10SM CLR 34/04 A3000 RMK AO2 SLP138 T03390044,M
LAS,2022-06-30 15:56,-115.1634,36.0719,663.00,93.00,40.00,15.79,180.00,10.00,0.00,29.96,1011.30,10.00,16.00,FEW,M,M,M,14000.00,M,M,M,M,M,M,M,M,M,M,88.78,KLAS 301556Z 18010G16KT 10SM FEW140 34/04 A2996 RMK AO2 SLP113 T03390044,M
INS,2022-06-30 15:58,-115.6733,36.5872,955.00,89.00,35.40,14.95,110.00,5.00,0.00,30.00,1010.10,10.00,M,CLR,M,M,M,M,M,M,M,M,M,M,M,M,M,M,85.20,KINS 301558Z AUTO 11005KT 10SM CLR 32/02 A3000 RMK AO2 SLP101 T03170019 $,M
BVU,2022-06-30 16:15,-114.8611,35.9475,671.00,93.20,42.80,17.55,220.00,9.00,0.00,29.97,M,10.00,M,CLR,M,M,M,M,M,M,M,M,M,M,M,M,M,M,89.17,KBVU 301615Z AUTO 22009KT 10SM CLR 34/06 A2997 RMK AO2,M
RTS,2022-06-30 16:15,-119.8764,39.6682,1539.00,71.60,26.60,18.55,80.00,4.00,0.00,30.16,M,10.00,M,CLR,M,M,M,M,M,M,M,M,M,M,M,M,M,M,71.60,KRTS 301615Z AUTO 08004KT 10SM CLR 22/M03 A3016 RMK AO2,M
05U,2022-06-30 16:15,-116.0051,39.6042,1811.23,75.20,26.60,16.43,10.00,5.00,0.00,30.22,M,10.00,M,CLR,M,M,M,M,M,M,M,M,M,M,M,M,M,M,75.20,K05U 301615Z AUTO 01005KT 10SM CLR 24/M03 A3022 RMK A01,M
MEV,2022-06-30 16:15,-119.7500,38.9963,1441.42,73.40,32.00,21.76,0.00,0.00,0.00,30.13,M,7.00,M,CLR,M,M,M,M,M,M,M,M,M,M,M,M,M,M,73.40,KMEV 301615Z AUTO 00000KT 7SM CLR 23/M00 A3013 RMK AO2,M
BAM,2022-06-30 16:15,-116.8743,40.5990,1382.36,M,M,M,320.00,3.00,0.00,30.14,M,10.00,M,CLR,M,M,M,M,M,M,M,M,M,M,M,M,M,M,M,KBAM 301615Z AUTO 32003KT 10SM CLR A3014 RMK AO1,M
HTH,2022-06-30 16:15,-118.6315,38.5448,1282.89,77.00,32.00,19.30,340.00,5.00,0.00,30.12,M,10.00,M,CLR,M,M,M,M,M,M,M,M,M,M,M,M,M,M,77.00,KHTH 301615Z AUTO 34005KT 10SM CLR 25/M00 A3012 RMK A01,M
TMT,2022-06-30 16:15,-117.1971,39.4643,1749.34,73.60,29.10,19.22,0.00,0.00,0.00,30.21,M,10.00,M,CLR,M,M,M,M,M,M,M,M,M,M,M,M,M,M,73.60,KTMT 301615Z AUTO 00000KT 10SM CLR 23/M02 A3021 RMK AO2 T02311016,M
BVU,2022-06-30 16:35,-114.8611,35.9475,671.00,95.00,39.20,14.44,190.00,12.00,0.00,29.97,M,10.00,M,CLR,M,M,M,M,M,M,M,M,M,M,M,M,M,M,90.57,KBVU 301635Z AUTO 19012KT 10SM CLR 35/04 A2997 RMK AO2,M
RTS,2022-06-30 16:35,-119.8764,39.6682,1539.00,73.40,26.60,17.46,0.00,0.00,0.00,30.16,M,10.00,M,CLR,M,M,M,M,M,M,M,M,M,M,M,M,M,M,73.40,KRTS 301635Z AUTO 00000KT 10SM CLR 23/M03 A3016 RMK AO2,M
05U,2022-06-30 16:35,-116.0051,39.6042,1811.23,77.00,24.80,14.37,0.00,0.00,0.00,30.21,M,10.00,10.00,CLR,M,M,M,M,M,M,M,M,M,M,M,M,M,M,77.00,K05U 301635Z AUTO 00000G10KT 10SM CLR 25/M04 A3021 RMK A01,M
MEV,2022-06-30 16:35,-119.7500,38.9963,1441.42,77.00,33.80,20.74,M,4.00,0.00,30.12,M,9.00,M,CLR,M,M,M,M,M,M,M,M,M,M,M,M,M,M,77.00,KMEV 301635Z AUTO VRB04KT 9SM CLR 25/01 A3012 RMK AO2,M
BAM,2022-06-30 16:35,-116.8743,40.5990,1382.36,M,M,M,10.00,4.00,0.00,30.13,M,10.00,M,CLR,M,M,M,M,M,M,M,M,M,M,M,M,M,M,M,KBAM 301635Z AUTO 01004KT 10SM CLR A3013 RMK AO1,M
HTH,2022-06-30 16:35,-118.6315,38.5448,1282.89,78.80,30.20,16.90,330.00,5.00,0.00,30.11,M,10.00,M,CLR,M,M,M,M,M,M,M,M,M,M,M,M,M,M,78.80,KHTH 301635Z AUTO 33005KT 10SM CLR 26/M01 A3011 RMK A01,M
TMT,2022-06-30 16:35,-117.1971,39.4643,1749.34,76.00,30.60,18.91,80.00,3.00,0.00,30.21,M,10.00,M,CLR,M,M,M,M,M,M,M,M,M,M,M,M,M,M,75.90,KTMT 301635Z AUTO 08003KT 10SM CLR 24/M01 A3021 RMK AO2 T02441008,M
P68,2022-06-30 16:53,-116.0056,39.6014,1993.00,77.00,24.10,13.95,10.00,9.00,0.00,30.18,1012.90,M,M,M,M,M,M,M,M,M,M,M,M,M,M,M,M,M,77.00,KP68 301653Z AUTO 01009KT 25/M04 A3018 RMK AO1 SLP129 T02501044,M
ELY,2022-06-30 16:53,-114.8453,39.2950,1909.00,78.00,36.00,21.83,M,M,0.00,30.18,1009.80,10.00,M,CLR,M,M,M,M,M,M,M,M,M,M,M,M,M,M,78.10,KELY 301653Z AUTO 10SM CLR 26/02 A3018 RMK AO2 SLP098 T02560022,M
DRA,2022-06-30 16:53,-116.0278,36.6206,1009.00,91.00,32.00,12.29,220.00,17.00,0.00,30.01,1010.40,10.00,25.00,CLR,M,M,M,M,M,M,M,M,M,M,M,M,M,M,86.61,KDRA 301653Z AUTO 22017G25KT 10SM CLR 33/00 A3001 RMK AO2 SLP104 T03280000,M
VGT,2022-06-30 16:53,-115.1933,36.2111,667.00,98.00,41.00,14.08,180.00,11.00,0.00,29.93,1011.70,10.00,M,CLR,M,M,M,M,M,M,M,M,M,M,M,M,M,M,93.62,KVGT 301653Z 18011KT 10SM CLR 37/05 A2993 RMK AO2 SLP117 T03670050,M
LOL,2022-06-30 16:53,-118.5701,40.0684,1192.43,82.00,28.90,14.44,350.00,5.00,0.00,30.08,1014.30,10.00,M,CLR,M,M,M,M,M,M,M,M,M,M,M,M,M,M,79.67,KLOL 301653Z AUTO 35005KT 10SM CLR 28/M02 A3008 RMK AO2 SLP143 T02781017,M
BVU,2022-06-30 16:55,-114.8611,35.9475,671.00,95.00,48.20,20.38,160.00,14.00,0.00,29.96,M,10.00,23.00,CLR,M,M,M,M,M,M,M,M,M,M,M,M,M,M,91.56,KBVU 301655Z AUTO 16014G23KT 10SM CLR 35/09 A2996 RMK AO2,M
RNO,2022-06-30 16:55,-119.7711,39.4839,1341.00,77.00,36.00,22.64,0.00,0.00,0.00,30.11,1013.90,10.00,M,CLR,M,M,M,M,M,M,M,M,M,M,M,M,M,M,77.00,KRNO 301655Z 00000KT 10SM CLR 25/02 A3011 RMK AO2 SLP139 T02500022,M
RTS,2022-06-30 16:55,-119.8764,39.6682,1539.00,73.40,26.60,17.46,0.00,0.00,0.00,30.16,M,10.00,M,CLR,M,M,M,M,M,M,M,M,M,M,M,M,M,M,73.40,KRTS 301655Z AUTO 00000KT 10SM CLR 23/M03 A3016 RMK AO2,M
05U,2022-06-30 16:55,-116.0051,39.6042,1811.23,78.80,23.00,12.55,M,6.00,0.00,30.21,M,10.00,M,CLR,M,M,M,M,M,M,M,M,M,M,M,M,M,M,78.80,K05U 301655Z AUTO VRB06KT 10SM CLR 26/M05 A3021 RMK A01,M
MEV,2022-06-30 16:55,-119.7500,38.9963,1441.42,78.80,32.00,18.18,180.00,6.00,0.00,30.12,M,10.00,M,CLR,M,M,M,M,M,M,M,M,M,M,M,M,M,M,78.80,KMEV 301655Z AUTO 18006KT 10SM CLR 26/M00 A3012 RMK AO2,M
BAM,2022-06-30 16:55,-116.8743,40.5990,1382.36,M,M,M,0.00,0.00,0.00,30.13,M,10.00,M,CLR,M,M,M,M,M,M,M,M,M,M,M,M,M,M,M,KBAM 301655Z AUTO 00000KT 10SM CLR A3013 RMK AO1,M
HTH,2022-06-30 16:55,-118.6315,38.5448,1282.89,80.60,30.20,15.94,330.00,5.00,0.00,30.11,M,10.00,M,CLR,M,M,M,M,M,M,M,M,M,M,M,M,M,M,78.77,KHTH 301655Z AUTO 33005KT 10SM CLR 27/M01 A3011 RMK A01,M
TMT,2022-06-30 16:55,-117.1971,39.4643,1749.34,75.40,29.70,18.54,10.00,4.00,0.00,30.20,M,10.00,M,CLR,M,M,M,M,M,M,M,M,M,M,M,M,M,M,75.40,KTMT 301655Z AUTO 01004KT 10SM CLR 24/M01 A3020 RMK AO2 T02411013,M
EKO,2022-06-30 16:56,-115.7860,40.8242,1367.00,77.00,28.00,16.40,M,3.00,0.00,30.14,1014.40,10.00,M,CLR,M,M,M,M,M,M,M,M,M,M,M,M,M,M,77.00,KEKO 301656Z AUTO VRB03KT 10SM CLR 25/M02 A3014 RMK AO2 SLP144 T02501022,M
WMC,2022-06-30 16:56,-117.8072,40.9019,1315.00,83.00,25.00,11.94,290.00,7.00,0.00,30.11,1013.90,10.00,M,CLR,M,M,M,M,M,M,M,M,M,M,M,M,M,M,80.13,KWMC 301656Z AUTO 29007KT 230V300 10SM CLR 28/M04 A3011 RMK AO2 SLP139 T02831039,M
NFL,2022-06-30 16:56,-118.7010,39.4166,1199.00,80.00,30.00,16.07,M,5.00,0.00,30.08,1015.50,10.00,M,CLR,M,M,M,M,M,M,M,M,M,M,M,M,M,M,78.57,KNFL 301656Z VRB05KT 10SM CLR 27/M01 A3008 RMK AO2 SLP155 T02671011,M
HND,2022-06-30 16:56,-115.1344,35.9729,742.79,96.00,43.00,16.17,210.00,18.00,0.00,29.99,1013.40,10.00,23.00,CLR,M,M,M,M,M,M,M,M,M,M,M,M,M,M,91.93,KHND 301656Z 21018G23KT 10SM CLR 36/06 A2999 RMK AO2 SLP134 T03560061,M
LAS,2022-06-30 16:56,-115.1634,36.0719,663.00,96.00,41.00,14.97,200.00,11.00,0.00,29.95,1010.80,10.00,20.00,FEW,FEW,M,M,12000.00,15000.00,M,M,M,M,M,M,M,M,M,91.73,KLAS 301656Z 20011G20KT 10SM FEW120 FEW150 36/05 A2995 RMK AO2 SLP108 T03560050,M
LSV,2022-06-30 16:58,-115.0343,36.2362,570.00,98.60,39.20,12.94,180.00,16.00,0.00,29.91,1009.80,10.00,M,FEW,M,M,M,19000.00,M,M,M,M,M,M,M,M,M,M,93.89,KLSV 301658Z 18016KT 10SM FEW190 37/04 A2991 RMK AO2A SLP098 T03700040 $,M
INS,2022-06-30 16:58,-115.6733,36.5872,955.00,91.60,33.80,12.97,70.00,4.00,0.00,29.99,1009.80,10.00,M,CLR,M,M,M,M,M,M,M,M,M,M,M,M,M,M,87.30,KINS 301658Z AUTO 07004KT 10SM CLR 33/01 A2999 RMK AO2 SLP098 T03310010 $,M
BVU,2022-06-30 17:15,-114.8611,35.9475,671.00,95.00,51.80,23.30,160.00,13.00,0.00,29.96,M,10.00,M,CLR,M,M,M,M,M,M,M,M,M,M,M,M,M,M,92.26,KBVU 301715Z AUTO 16013KT 10SM CLR 35/11 A2996 RMK AO2,M
RTS,2022-06-30 17:15,-119.8764,39.6682,1539.00,75.20,26.60,16.43,M,3.00,0.00,30.16,M,10.00,M,CLR,M,M,M,M,M,M,M,M,M,M,M,M,M,M,75.20,KRTS 301715Z AUTO VRB03KT 10SM CLR 24/M03 A3016 RMK AO2,M
05U,2022-06-30 17:15,-116.0051,39.6042,1811.23,80.60,21.20,10.97,20.00,8.00,0.00,30.21,M,10.00,M,CLR,M,M,M,M,M,M,M,M,M,M,M,M,M,M,78.68,K05U 301715Z AUTO 02008KT 10SM CLR 27/M06 A3021 RMK A01,M
MEV,2022-06-30 17:15,-119.7500,38.9963,1441.42,80.60,32.00,17.14,M,4.00,0.00,30.11,M,9.00,M,CLR,M,M,M,M,M,M,M,M,M,M,M,M,M,M,78.82,KMEV 301715Z AUTO VRB04KT 9SM CLR 27/M00 A3011 RMK AO2,M
BAM,2022-06-30 17:15,-116.8743,40.5990,1382.36,M,M,M,10.00,4.00,0.00,30.13,M,10.00,M,CLR,M,M,M,M,M,M,M,M,M,M,M,M,M,M,M,KBAM 301715Z AUTO 01004KT 10SM CLR A3013 RMK AO1,M
HTH,2022-06-30 17:15,-118.6315,38.5448,1282.89,80.60,30.20,15.94,M,5.00,0.00,30.10,M,10.00,M,CLR,M,M,M,M,M,M,M,M,M,M,M,M,M,M,78.77,KHTH 301715Z AUTO VRB05KT 10SM CLR 27/M01 A3010 RMK A01,M
TMT,2022-06-30 17:15,-117.1971,39.4643,1749.34,77.20,30.60,18.11,60.00,3.00,0.00,30.20,M,10.00,M,CLR,M,M,M,M,M,M,M,M,M,M,M,M,M,M,77.20,KTMT 301715Z AUTO 06003KT 10SM CLR 25/M01 A3020 RMK AO2 T02511008,M
LSV,2022-06-30 17:26,-115.0343,36.2362,570.00,100.40,41.00,13.14,210.00,16.00,0.00,29.90,1009.30,10.00,20.00,FEW,SCT,M,M,13000.00,18000.00,M,M,M,M,M,M,M,M,M,95.79,KLSV 301726Z 21016G20KT 10SM FEW130 SCT180 38/05 A2990 RMK AO2A WSHFT 13 SLP093 $,M
BVU,2022-06-30 17:35,-114.8611,35.9475,671.00,95.00,50.00,21.79,130.00,14.00,0.00,29.96,M,10.00,22.00,CLR,M,M,M,M,M,M,M,M,M,M,M,M,M,M,91.89,KBVU 301735Z AUTO 13014G22KT 10SM CLR 35/10 A2996 RMK AO2,M
RTS,2022-06-30 17:35,-119.8764,39.6682,1539.00,77.00,26.60,15.48,M,4.00,0.00,30.16,M,10.00,11.00,CLR,M,M,M,M,M,M,M,M,M,M,M,M,M,M,77.00,KRTS 301735Z AUTO VRB04G11KT 10SM CLR 25/M03 A3016 RMK AO2,M
05U,2022-06-30 17:35,-116.0051,39.6042,1811.23,82.40,21.20,10.34,330.00,3.00,0.00,30.20,M,10.00,11.00,CLR,M,M,M,M,M,M,M,M,M,M,M,M,M,M,79.55,K05U 301735Z AUTO 33003G11KT 10SM CLR 28/M06 A3020 RMK A01,M
MEV,2022-06-30 17:35,-119.7500,38.9963,1441.42,80.60,28.40,14.81,M,5.00,0.00,30.11,M,10.00,M,CLR,M,M,M,M,M,M,M,M,M,M,M,M,M,M,78.72,KMEV 301735Z AUTO VRB05KT 10SM CLR 27/M02 A3011 RMK AO2,M
BAM,2022-06-30 17:35,-116.8743,40.5990,1382.36,M,M,M,0.00,0.00,0.00,30.13,M,10.00,M,CLR,M,M,M,M,M,M,M,M,M,M,M,M,M,M,M,KBAM 301735Z AUTO 00000KT 10SM CLR A3013 RMK AO1,M
HTH,2022-06-30 17:35,-118.6315,38.5448,1282.89,80.60,30.20,15.94,M,5.00,0.00,30.09,M,10.00,M,CLR,M,M,M,M,M,M,M,M,M,M,M,M,M,M,78.77,KHTH 301735Z AUTO VRB05KT 10SM CLR 27/M01 A3009 RMK A01,M
TMT,2022-06-30 17:35,-117.1971,39.4643,1749.34,77.70,30.40,17.67,0.00,0.00,0.00,30.19,M,10.00,M,CLR,M,M,M,M,M,M,M,M,M,M,M,M,M,M,77.70,KTMT 301735Z AUTO 00000KT 10SM CLR 25/M01 A3019 RMK AO2 T02541009,M
P68,2022-06-30 17:53,-116.0056,39.6014,1993.00,80.00,21.00,11.06,340.00,7.00,0.00,30.17,1012.30,M,M,M,M,M,M,M,M,M,M,M,M,M,M,M,M,M,78.16,KP68 301753Z AUTO 34007KT 27/M06 A3017 RMK AO1 SLP123 T02671061 10267 20111 58004,M
VGT,2022-06-30 17:53,-115.1933,36.2111,667.00,100.00,43.00,14.36,210.00,12.00,0.00,29.93,1011.60,10.00,21.00,CLR,M,M,M,M,M,M,M,M,M,M,M,26.00,200.00,2022-06-30 17:17,95.68,KVGT 301753Z 21012G21KT 10SM CLR 38/06 A2993 RMK AO2 PK WND 20026/1717 SLP116 T03780061 10378 20317 50002,M
LOL,2022-06-30 17:53,-118.5701,40.0684,1192.43,83.00,28.00,13.52,0.00,0.00,0.00,30.07,1013.90,10.00,M,CLR,M,M,M,M,M,M,M,M,M,M,M,M,M,M,80.29,KLOL 301753Z AUTO 00000KT 10SM CLR 28/M02 A3007 RMK AO2 SLP139 T02831022 10289 20100 58006,M
ELY,2022-06-30 17:53,-114.8453,39.2950,1909.00,82.00,38.00,20.71,M,6.00,0.00,30.17,1009.30,10.00,16.00,FEW,M,M,M,10000.00,M,M,M,M,M,M,M,M,M,M,79.90,KELY 301753Z AUTO VRB06G16KT 10SM FEW100 28/03 A3017 RMK AO2 SLP093 T02780033 10278 20100 58010,M
DRA,2022-06-30 17:53,-116.0278,36.6206,1009.00,94.00,33.00,11.74,220.00,17.00,0.00,30.01,1010.10,10.00,26.00,CLR,M,M,M,M,M,M,M,M,M,M,M,26.00,220.00,2022-06-30 17:52,89.00,KDRA 301753Z AUTO 22017G26KT 10SM CLR 34/01 A3001 RMK AO2 PK WND 22026/1752 SLP101 T03440006 10350 20278 50001,M
BVU,2022-06-30 17:55,-114.8611,35.9475,671.00,96.80,48.20,19.28,160.00,13.00,0.00,29.95,M,10.00,20.00,CLR,M,M,M,M,M,M,M,M,M,M,M,M,M,M,93.36,KBVU 301755Z AUTO 16013G20KT 10SM CLR 36/09 A2995 RMK AO2,M
RTS,2022-06-30 17:55,-119.8764,39.6682,1539.00,78.80,26.60,14.59,M,6.00,0.00,30.15,M,10.00,11.00,CLR,M,M,M,M,M,M,M,M,M,M,M,M,M,M,78.80,KRTS 301755Z AUTO VRB06G11KT 10SM CLR 26/M03 A3015 RMK AO2,M
05U,2022-06-30 17:55,-116.0051,39.6042,1811.23,82.40,19.40,9.58,M,6.00,0.00,30.20,M,10.00,12.00,CLR,M,M,M,M,M,M,M,M,M,M,M,M,M,M,79.45,K05U 301755Z AUTO VRB06G12KT 10SM CLR 28/M07 A3020 RMK A01,M
MEV,2022-06-30 17:55,-119.7500,38.9963,1441.42,80.60,26.60,13.75,280.00,5.00,0.00,30.11,M,10.00,M,CLR,M,M,M,M,M,M,M,M,M,M,M,M,M,M,78.68,KMEV 301755Z AUTO 28005KT 10SM CLR 27/M03 A3011 RMK AO2,M
BAM,2022-06-30 17:55,-116.8743,40.5990,1382.36,M,M,M,240.00,3.00,0.00,30.12,M,7.00,M,CLR,M,M,M,M,M,M,M,M,M,M,M,M,M,M,M,KBAM 301755Z AUTO 24003KT 7SM CLR A3012 RMK AO1,M
HTH,2022-06-30 17:55,-118.6315,38.5448,1282.89,82.40,30.20,15.03,10.00,5.00,0.00,30.09,M,10.00,M,CLR,M,M,M,M,M,M,M,M,M,M,M,M,M,M,79.97,KHTH 301755Z AUTO 01005KT 10SM CLR 28/M01 A3009 RMK A01,M
TMT,2022-06-30 17:55,-117.1971,39.4643,1749.34,79.50,31.50,17.41,100.00,4.00,0.00,30.19,M,10.00,M,CLR,M,M,M,M,M,M,M,M,M,M,M,M,M,M,79.50,KTMT 301755Z AUTO 10004KT 10SM CLR 26/00 A3019 RMK AO2 T02641003 10264 20046,M
RNO,2022-06-30 17:55,-119.7711,39.4839,1341.00,82.00,33.00,17.12,180.00,5.00,0.00,30.10,1013.30,10.00,M,CLR,M,M,M,M,M,M,M,M,M,M,M,M,M,M,79.75,KRNO 301755Z 18005KT 10SM CLR 28/01 A3010 RMK AO2 SLP133 T02780006 10278 20150 58008,M
EKO,2022-06-30 17:56,-115.7860,40.8242,1367.00,81.00,28.90,14.92,210.00,8.00,0.00,30.13,1013.80,10.00,M,CLR,M,M,M,M,M,M,M,M,M,M,M,M,M,M,78.99,KEKO 301756Z AUTO 21008KT 10SM CLR 27/M02 A3013 RMK AO2 SLP138 T02721017 10272 20133 58008,M
WMC,2022-06-30 17:56,-117.8072,40.9019,1315.00,85.00,24.10,10.78,210.00,10.00,0.00,30.09,1013.30,10.00,25.00,CLR,M,M,M,M,M,M,M,M,M,M,M,M,M,M,81.44,KWMC 301756Z AUTO 21010G25KT 10SM CLR 29/M04 A3009 RMK AO2 SLP133 T02941044 10294 20083 58006,M
NFL,2022-06-30 17:56,-118.7010,39.4166,1199.00,83.00,28.00,13.52,290.00,6.00,0.00,30.07,1015.20,10.00,M,CLR,M,M,M,M,M,M,M,M,M,M,M,M,M,M,80.29,KNFL 301756Z 29006KT 10SM CLR 28/M02 A3007 RMK AO2 SLP152 T02831022 10289 20117 58006,M
HND,2022-06-30 17:56,-115.1344,35.9729,742.79,97.00,44.00,16.41,230.00,17.00,0.00,29.99,1013.50,10.00,24.00,CLR,M,M,M,M,M,M,M,M,M,M,M,M,M,M,92.92,KHND 301756Z 23017G24KT 10SM CLR 36/07 A2999 RMK AO2 SLP135 T03610067 10361 20283 58001,M
LAS,2022-06-30 17:56,-115.1634,36.0719,663.00,98.00,42.00,14.70,210.00,16.00,0.00,29.95,1010.80,10.00,28.00,FEW,FEW,M,M,12000.00,18000.00,M,M,M,M,M,M,29.00,190.00,2022-06-30 17:24,93.74,KLAS 301756Z 21016G28KT 10SM FEW120 FEW180 37/06 A2995 RMK AO2 PK WND 19029/1724 SLP108 T03670056 10372 20300 58002,M
LSV,2022-06-30 17:58,-115.0343,36.2362,570.00,101.80,41.70,12.94,190.00,20.00,0.00,29.90,1009.30,10.00,25.00,CLR,M,M,M,M,M,M,M,M,M,M,M,M,M,M,97.20,KLSV 301758Z AUTO 19020G25KT 10SM CLR 39/05 A2990 RMK AO2 SLP093 T03880054 10388 20309 58004 $,M
INS,2022-06-30 17:58,-115.6733,36.5872,955.00,93.00,33.00,11.97,90.00,5.00,0.00,29.99,1009.60,10.00,M,CLR,M,M,M,M,M,M,M,M,M,M,M,M,M,M,88.27,KINS 301758Z AUTO 09005KT 10SM CLR 34/01 A2999 RMK AO2 SLP096 T03390005 10341 20271 58003 $,M
BVU,2022-06-30 18:15,-114.8611,35.9475,671.00,98.60,48.20,18.25,160.00,22.00,0.00,29.94,M,10.00,M,CLR,M,M,M,M,M,M,M,M,M,M,M,M,M,M,95.17,KBVU 301815Z AUTO 16022KT 10SM CLR 37/09 A2994 RMK AO2,M
RTS,2022-06-30 18:15,-119.8764,39.6682,1539.00,78.80,26.60,14.59,110.00,6.00,0.00,30.15,M,10.00,12.00,CLR,M,M,M,M,M,M,M,M,M,M,M,M,M,M,78.80,KRTS 301815Z AUTO 11006G12KT 10SM CLR 26/M03 A3015 RMK AO2,M
05U,2022-06-30 18:15,-116.0051,39.6042,1811.23,82.40,21.20,10.34,M,4.00,0.00,30.20,M,10.00,10.00,CLR,M,M,M,M,M,M,M,M,M,M,M,M,M,M,79.55,K05U 301815Z AUTO VRB04G10KT 10SM CLR 28/M06 A3020 RMK A01,M
MEV,2022-06-30 18:15,-119.7500,38.9963,1441.42,82.40,26.60,12.97,20.00,5.00,0.00,30.11,M,10.00,M,CLR,M,M,M,M,M,M,M,M,M,M,M,M,M,M,79.92,KMEV 301815Z AUTO 02005KT 10SM CLR 28/M03 A3011 RMK AO2,M
BAM,2022-06-30 18:15,-116.8743,40.5990,1382.36,M,M,M,0.00,0.00,0.00,30.12,M,10.00,M,CLR,M,M,M,M,M,M,M,M,M,M,M,M,M,M,M,KBAM 301815Z AUTO 00000KT 10SM CLR A3012 RMK AO1,M
HTH,2022-06-30 18:15,-118.6315,38.5448,1282.89,84.20,28.40,13.18,M,4.00,0.00,30.08,M,10.00,M,CLR,M,M,M,M,M,M,M,M,M,M,M,M,M,M,81.25,KHTH 301815Z AUTO VRB04KT 10SM CLR 29/M02 A3008 RMK A01,M
TMT,2022-06-30 18:15,-117.1971,39.4643,1749.34,79.70,30.60,16.68,330.00,3.00,0.00,30.18,M,10.00,M,CLR,M,M,M,M,M,M,M,M,M,M,M,M,M,M,79.70,KTMT 301815Z AUTO 33003KT 10SM CLR 27/M01 A3018 RMK AO2 T02651008,M
LSV,2022-06-30 18:27,-115.0343,36.2362,570.00,102.20,41.00,12.44,170.00,21.00,0.00,29.89,1009.10,10.00,28.00,CLR,M,M,M,M,M,M,M,M,M,M,M,M,M,M,97.39,KLSV 301827Z AUTO 17021G28KT 10SM CLR 39/05 A2989 RMK AO2 WSHFT 14 SLP091 $,M
BVU,2022-06-30 18:35,-114.8611,35.9475,671.00,100.40,39.20,12.25,220.00,16.00,0.00,29.94,M,10.00,21.00,CLR,M,M,M,M,M,M,M,M,M,M,M,M,M,M,95.43,KBVU 301835Z AUTO 22016G21KT 10SM CLR 38/04 A2994 RMK AO2,M
RTS,2022-06-30 18:35,-119.8764,39.6682,1539.00,78.80,24.80,13.54,M,4.00,0.00,30.14,M,10.00,M,CLR,M,M,M,M,M,M,M,M,M,M,M,M,M,M,78.80,KRTS 301835Z AUTO VRB04KT 10SM CLR 26/M04 A3014 RMK AO2,M
05U,2022-06-30 18:35,-116.0051,39.6042,1811.23,84.20,21.20,9.76,M,5.00,0.00,30.19,M,10.00,12.00,CLR,M,M,M,M,M,M,M,M,M,M,M,M,M,M,80.77,K05U 301835Z AUTO VRB05G12KT 10SM CLR 29/M06 A3019 RMK A01,M
MEV,2022-06-30 18:35,-119.7500,38.9963,1441.42,84.20,28.40,13.18,M,6.00,0.00,30.11,M,10.00,M,CLR,M,M,M,M,M,M,M,M,M,M,M,M,M,M,81.25,KMEV 301835Z AUTO VRB06KT 10SM CLR 29/M02 A3011 RMK AO2,M
BAM,2022-06-30 18:35,-116.8743,40.5990,1382.36,M,M,M,250.00,4.00,0.00,30.11,M,10.00,M,CLR,M,M,M,M,M,M,M,M,M,M,M,M,M,M,M,KBAM 301835Z AUTO 25004KT 10SM CLR A3011 RMK AO1,M
HTH,2022-06-30 18:35,-118.6315,38.5448,1282.89,84.20,28.40,13.18,320.00,7.00,0.00,30.07,M,10.00,M,CLR,M,M,M,M,M,M,M,M,M,M,M,M,M,M,81.25,KHTH 301835Z AUTO 32007KT 10SM CLR 29/M02 A3007 RMK A01,M
TMT,2022-06-30 18:35,-117.1971,39.4643,1749.34,79.30,30.00,16.49,0.00,0.00,0.00,30.18,M,10.00,M,CLR,M,M,M,M,M,M,M,M,M,M,M,M,M,M,79.30,KTMT 301835Z AUTO 00000KT 10SM CLR 26/M01 A3018 RMK AO2 T02631011,M
P68,2022-06-30 18:53,-116.0056,39.6014,1993.00,82.00,23.00,11.31,50.00,6.00,0.00,30.16,1012.40,M,M,M,M,M,M,M,M,M,M,M,M,M,M,M,M,M,79.40,KP68 301853Z AUTO 05006KT 28/M05 A3016 RMK AO1 SLP124 T02781050,M
ELY,2022-06-30 18:53,-114.8453,39.2950,1909.00,83.00,34.00,17.23,220.00,13.00,0.00,30.16,1009.40,10.00,19.00,SCT,M,M,M,11000.00,M,M,M,M,M,M,M,M,M,M,80.38,KELY 301853Z AUTO 22013G19KT 10SM SCT110 28/01 A3016 RMK AO2 SLP094 T02830011,M
LOL,2022-06-30 18:53,-118.5701,40.0684,1192.43,86.00,24.10,10.41,0.00,0.00,0.00,30.06,1013.10,10.00,M,CLR,M,M,M,M,M,M,M,M,M,M,M,M,M,M,82.21,KLOL 301853Z AUTO 00000KT 10SM CLR 30/M04 A3006 RMK AO2 SLP131 T03001044,M
DRA,2022-06-30 18:53,-116.0278,36.6206,1009.00,97.00,33.00,10.67,240.00,15.00,0.00,30.00,1009.50,10.00,29.00,CLR,M,M,M,M,M,M,M,M,M,M,M,29.00,230.00,2022-06-30 18:51,91.50,KDRA 301853Z AUTO 24015G29KT 10SM CLR 36/01 A3000 RMK AO2 PK WND 23029/1851 SLP095 T03610006,M
VGT,2022-06-30 18:53,-115.1933,36.2111,667.00,102.00,42.00,13.06,180.00,13.00,0.00,29.92,1011.30,10.00,23.00,CLR,M,M,M,M,M,M,M,M,M,M,M,M,M,M,97.46,KVGT 301853Z 18013G23KT 10SM CLR 39/06 A2992 RMK AO2 SLP113 T03890056,M
BVU,2022-06-30 18:55,-114.8611,35.9475,671.00,100.40,44.60,15.08,180.00,16.00,0.00,29.94,M,10.00,27.00,CLR,M,M,M,M,M,M,M,M,M,M,M,M,M,M,96.31,KBVU 301855Z AUTO 18016G27KT 10SM CLR 38/07 A2994 RMK AO2,M
RTS,2022-06-30 18:55,-119.8764,39.6682,1539.00,80.60,24.80,12.76,M,5.00,0.00,30.14,M,10.00,M,CLR,M,M,M,M,M,M,M,M,M,M,M,M,M,M,78.94,KRTS 301855Z AUTO VRB05KT 10SM CLR 27/M04 A3014 RMK AO2,M
05U,2022-06-30 18:55,-116.0051,39.6042,1811.23,84.20,21.20,9.76,0.00,0.00,0.00,30.19,M,10.00,10.00,CLR,M,M,M,M,M,M,M,M,M,M,M,M,M,M,80.77,K05U 301855Z AUTO 00000G10KT 10SM CLR 29/M06 A3019 RMK A01,M
MEV,2022-06-30 18:55,-119.7500,38.9963,1441.42,84.20,24.80,11.35,0.00,0.00,0.00,30.10,M,10.00,M,CLR,M,M,M,M,M,M,M,M,M,M,M,M,M,M,81.00,KMEV 301855Z AUTO 00000KT 10SM CLR 29/M04 A3010 RMK AO2,M
BAM,2022-06-30 18:55,-116.8743,40.5990,1382.36,M,M,M,250.00,5.00,0.00,30.11,M,10.00,M,CLR,M,M,M,M,M,M,M,M,M,M,M,M,M,M,M,KBAM 301855Z AUTO 25005KT 10SM CLR A3011 RMK AO1,M
HTH,2022-06-30 18:55,-118.6315,38.5448,1282.89,84.20,28.40,13.18,360.00,7.00,0.00,30.07,M,10.00,M,CLR,M,M,M,M,M,M,M,M,M,M,M,M,M,M,81.25,KHTH 301855Z AUTO 36007KT 320V030 10SM CLR 29/M02 A3007 RMK A01,M
TMT,2022-06-30 18:55,-117.1971,39.4643,1749.34,80.80,30.90,16.29,0.00,0.00,0.00,30.17,M,10.00,M,CLR,M,M,M,M,M,M,M,M,M,M,M,M,M,M,78.91,KTMT 301855Z AUTO 00000KT 10SM CLR 27/M01 A3017 RMK AO2 T02711006,M
RNO,2022-06-30 18:55,-119.7711,39.4839,1341.00,85.00,32.00,14.91,M,3.00,0.00,30.08,1012.70,10.00,M,CLR,M,M,M,M,M,M,M,M,M,M,M,M,M,M,81.80,KRNO 301855Z VRB03KT 10SM CLR 29/00 A3008 RMK AO2 SLP127 T02940000,M
NFL,2022-06-30 18:56,-118.7010,39.4166,1199.00,85.00,28.00,12.67,M,6.00,0.00,30.06,1014.80,10.00,M,FEW,M,M,M,8000.00,M,M,M,M,M,M,M,M,M,M,81.73,KNFL 301856Z VRB06KT 10SM FEW080 29/M02 A3006 RMK AO2 SLP148 T02941022,M
HND,2022-06-30 18:56,-115.1344,35.9729,742.79,99.00,45.00,15.98,240.00,14.00,0.00,29.98,1013.20,10.00,20.00,CLR,M,M,M,M,M,M,M,M,M,M,M,M,M,M,95.00,KHND 301856Z 24014G20KT 10SM CLR 37/07 A2998 RMK AO2 SLP132 T03720072,M
LAS,2022-06-30 18:56,-115.1634,36.0719,663.00,99.00,42.00,14.30,220.00,12.00,0.00,29.94,1010.60,10.00,22.00,CLR,M,M,M,M,M,M,M,M,M,M,M,27.00,220.00,2022-06-30 18:17,94.60,KLAS 301856Z 22012G22KT 10SM CLR 37/06 A2994 RMK AO2 PK WND 22027/1817 SLP106 T03720056,M
EKO,2022-06-30 18:56,-115.7860,40.8242,1367.00,85.00,26.10,11.72,M,M,0.00,30.11,1013.20,10.00,M,CLR,M,M,M,M,M,M,M,M,M,M,M,M,M,M,81.58,KEKO 301856Z AUTO 10SM CLR 29/M03 A3011 RMK AO2 SLP132 T02941033,M
WMC,2022-06-30 18:56,-117.8072,40.9019,1315.00,87.00,23.00,9.60,280.00,10.00,0.00,30.08,1012.70,10.00,21.00,CLR,M,M,M,M,M,M,M,M,M,M,M,M,M,M,82.93,KWMC 301856Z AUTO 28010G21KT 10SM CLR 31/M05 A3008 RMK AO2 SLP127 T03061050,M
INS,2022-06-30 18:58,-115.6733,36.5872,955.00,96.60,31.10,9.96,0.00,0.00,0.00,29.97,1008.90,10.00,M,CLR,M,M,M,M,M,M,M,M,M,M,M,M,M,M,90.90,KINS 301858Z AUTO 00000KT 10SM CLR 36/M00 A2997 RMK AO2 SLP089 T03591005 $,M
LSV,2022-06-30 18:58,-115.0343,36.2362,570.00,103.50,40.80,11.88,200.00,18.00,0.00,29.89,1009.10,10.00,25.00,CLR,M,M,M,M,M,M,M,M,M,M,M,34.00,210.00,2022-06-30 18:13,98.48,KLSV 301858Z AUTO 20018G25KT 10SM CLR 40/05 A2989 RMK AO2 PK WND 21034/13 SLP091 T03970049 $,M
BVU,2022-06-30 19:15,-114.8611,35.9475,671.00,100.40,46.40,16.15,160.00,19.00,0.00,29.94,M,10.00,M,CLR,M,M,M,M,M,M,M,M,M,M,M,M,M,M,96.63,KBVU 301915Z AUTO 16019KT 140V200 10SM CLR 38/08 A2994 RMK AO2,M
RTS,2022-06-30 19:15,-119.8764,39.6682,1539.00,84.20,17.60,8.37,260.00,14.00,0.00,30.13,M,10.00,19.00,CLR,M,M,M,M,M,M,M,M,M,M,M,M,M,M,80.59,KRTS 301915Z AUTO 26014G19KT 10SM CLR 29/M08 A3013 RMK AO2,M
05U,2022-06-30 19:15,-116.0051,39.6042,1811.23,84.20,23.00,10.53,100.00,7.00,0.00,30.18,M,10.00,M,CLR,M,M,M,M,M,M,M,M,M,M,M,M,M,M,80.88,K05U 301915Z AUTO 10007KT 050V110 10SM CLR 29/M05 A3018 RMK A01,M
MEV,2022-06-30 19:15,-119.7500,38.9963,1441.42,86.00,26.60,11.55,0.00,0.00,0.00,30.10,M,10.00,M,CLR,M,M,M,M,M,M,M,M,M,M,M,M,M,M,82.39,KMEV 301915Z AUTO 00000KT 10SM CLR 30/M03 A3010 RMK AO2,M
BAM,2022-06-30 19:15,-116.8743,40.5990,1382.36,M,M,M,310.00,6.00,0.00,30.10,M,10.00,M,CLR,M,M,M,M,M,M,M,M,M,M,M,M,M,M,M,KBAM 301915Z AUTO 31006KT 270V050 10SM CLR A3010 RMK AO1,M
HTH,2022-06-30 19:15,-118.6315,38.5448,1282.89,84.20,28.40,13.18,10.00,9.00,0.00,30.06,M,10.00,M,CLR,M,M,M,M,M,M,M,M,M,M,M,M,M,M,81.25,KHTH 301915Z AUTO 01009KT 10SM CLR 29/M02 A3006 RMK A01,M
TMT,2022-06-30 19:15,-117.1971,39.4643,1749.34,82.60,31.30,15.61,210.00,6.00,0.00,30.16,M,10.00,M,CLR,M,M,M,M,M,M,M,M,M,M,M,M,M,M,80.12,KTMT 301915Z AUTO 21006KT 10SM CLR 28/00 A3016 RMK AO2 T02811004,M
05U,2022-06-30 19:30,-116.0051,39.6042,1811.23,84.20,23.00,10.53,0.00,0.00,0.00,30.18,M,10.00,M,CLR,M,M,M,M,M,M,M,M,M,M,M,M,M,M,80.88,K05U 301930Z AUTO 00000KT 10SM CLR 29/M05 A3018 RMK A01,M
BVU,2022-06-30 19:35,-114.8611,35.9475,671.00,102.20,39.20,11.60,220.00,10.00,0.00,29.94,M,10.00,33.00,CLR,M,M,M,M,M,M,M,M,M,M,M,M,M,M,96.99,KBVU 301935Z AUTO 22010G33KT 10SM CLR 39/04 A2994 RMK AO2,M
MEV,2022-06-30 19:35,-119.7500,38.9963,1441.42,86.00,24.80,10.72,220.00,7.00,0.00,30.10,M,10.00,M,CLR,M,M,M,M,M,M,M,M,M,M,M,M,M,M,82.26,KMEV 301935Z AUTO 22007KT 190V250 10SM CLR 30/M04 A3010 RMK AO2,M
BAM,2022-06-30 19:35,-116.8743,40.5990,1382.36,M,M,M,340.00,7.00,0.00,30.09,M,10.00,M,CLR,M,M,M,M,M,M,M,M,M,M,M,M,M,M,M,KBAM 301935Z AUTO 34007KT 300V010 10SM CLR A3009 RMK AO1,M
HTH,2022-06-30 19:35,-118.6315,38.5448,1282.89,87.80,28.40,11.74,330.00,8.00,0.00,30.05,M,10.00,M,CLR,M,M,M,M,M,M,M,M,M,M,M,M,M,M,83.84,KHTH 301935Z AUTO 33008KT 280V350 10SM CLR 31/M02 A3005 RMK A01,M
TMT,2022-06-30 19:35,-117.1971,39.4643,1749.34,84.00,31.30,14.92,310.00,7.00,0.00,30.16,M,10.00,M,CLR,M,M,M,M,M,M,M,M,M,M,M,M,M,M,81.12,KTMT 301935Z AUTO 31007KT 10SM CLR 29/00 A3016 RMK AO2 T02891004,M
RTS,2022-06-30 19:35,-119.8764,39.6682,1539.00,84.20,23.00,10.53,260.00,13.00,0.00,30.13,M,10.00,19.00,CLR,M,M,M,M,M,M,M,M,M,M,M,M,M,M,80.88,KRTS 301935Z AUTO 26013G19KT 10SM CLR 29/M05 A3013 RMK AO2,M
INS,2022-06-30 19:43,-115.6733,36.5872,955.00,98.60,28.40,8.40,200.00,14.00,0.00,29.95,1008.10,10.00,25.00,FEW,M,M,M,13000.00,M,M,M,M,M,M,M,M,M,M,92.25,KINS 301943Z AUTO 20014G25KT 10SM FEW130 37/M02 A2995 RMK AO2 WSHFT 33 SLP081 $,M
P68,2022-06-30 19:53,-116.0056,39.6014,1993.00,84.00,21.90,10.12,270.00,6.00,0.00,30.14,1011.40,M,M,M,M,M,M,M,M,M,M,M,M,M,M,M,M,M,80.68,KP68 301953Z AUTO 27006KT 29/M06 A3014 RMK AO1 SLP114 T02891056,M
ELY,2022-06-30 19:53,-114.8453,39.2950,1909.00,84.00,34.00,16.63,M,M,0.00,30.15,1009.20,10.00,M,CLR,M,M,M,M,M,M,M,M,M,M,M,M,M,M,81.16,KELY 301953Z AUTO 10SM CLR 29/01 A3015 RMK AO2 LTG DSNT NE SLP092 T02890011,M
DRA,2022-06-30 19:53,-116.0278,36.6206,1009.00,98.00,34.00,10.70,170.00,15.00,0.00,29.99,1009.20,10.00,31.00,CLR,M,M,M,M,M,M,M,M,M,M,M,34.00,200.00,2022-06-30 19:01,92.55,KDRA 301953Z AUTO 17015G31KT 10SM CLR 37/01 A2999 RMK AO2 PK WND 20034/1901 SLP092 T03670011,M
VGT,2022-06-30 19:53,-115.1933,36.2111,667.00,104.00,43.00,12.74,200.00,14.00,0.00,29.90,1010.60,10.00,23.00,CLR,M,M,M,M,M,M,M,M,M,M,M,M,M,M,99.47,KVGT 301953Z 20014G23KT 10SM CLR 40/06 A2990 RMK AO2 SLP106 T04000061,M
LOL,2022-06-30 19:53,-118.5701,40.0684,1192.43,87.00,21.90,9.16,M,M,0.00,30.04,1012.30,10.00,M,CLR,M,M,M,M,M,M,M,M,M,M,M,M,M,M,82.86,KLOL 301953Z AUTO 10SM CLR 31/M06 A3004 RMK AO2 SLP123 T03061056,M
BVU,2022-06-30 19:55,-114.8611,35.9475,671.00,100.40,46.40,16.15,170.00,17.00,0.00,29.93,M,10.00,23.00,CLR,M,M,M,M,M,M,M,M,M,M,M,M,M,M,96.63,KBVU 301955Z AUTO 17017G23KT 10SM CLR 38/08 A2993 RMK AO2,M
RNO,2022-06-30 19:55,-119.7711,39.4839,1341.00,87.00,28.90,12.26,M,3.00,0.00,30.07,1012.30,10.00,M,CLR,M,M,M,M,M,M,M,M,M,M,M,M,M,M,83.37,KRNO 301955Z VRB03KT 10SM CLR 31/M02 A3007 RMK AO2 SLP123 T03061017,M
RTS,2022-06-30 19:55,-119.8764,39.6682,1539.00,84.20,23.00,10.53,290.00,16.00,0.00,30.13,M,10.00,M,CLR,M,M,M,M,M,M,M,M,M,M,M,M,M,M,80.88,KRTS 301955Z AUTO 29016KT 10SM CLR 29/M05 A3013 RMK AO2,M
05U,2022-06-30 19:55,-116.0051,39.6042,1811.23,86.00,21.20,9.21,300.00,4.00,0.00,30.17,M,10.00,M,CLR,M,M,M,M,M,M,M,M,M,M,M,M,M,M,82.04,K05U 301955Z AUTO 30004KT 10SM CLR 30/M06 A3017 RMK A01,M
MEV,2022-06-30 19:55,-119.7500,38.9963,1441.42,86.00,24.80,10.72,310.00,5.00,0.00,30.09,M,10.00,M,CLR,M,M,M,M,M,M,M,M,M,M,M,M,M,M,82.26,KMEV 301955Z AUTO 31005KT 10SM CLR 30/M04 A3009 RMK AO2,M
BAM,2022-06-30 19:55,-116.8743,40.5990,1382.36,M,M,M,20.00,5.00,0.00,30.08,M,10.00,M,CLR,M,M,M,M,M,M,M,M,M,M,M,M,M,M,M,KBAM 301955Z AUTO 02005KT 10SM CLR A3008 RMK AO1,M
HTH,2022-06-30 19:55,-118.6315,38.5448,1282.89,87.80,28.40,11.74,M,5.00,0.00,30.04,M,10.00,M,CLR,M,M,M,M,M,M,M,M,M,M,M,M,M,M,83.84,KHTH 301955Z AUTO VRB05KT 10SM CLR 31/M02 A3004 RMK A01,M
TMT,2022-06-30 19:55,-117.1971,39.4643,1749.34,83.00,30.70,14.99,220.00,5.00,0.00,30.15,M,10.00,M,CLR,M,M,M,M,M,M,M,M,M,M,M,M,M,M,80.46,KTMT 301955Z AUTO 22005KT 10SM CLR 28/M01 A3015 RMK AO2 T02841007,M
EKO,2022-06-30 19:56,-115.7860,40.8242,1367.00,88.00,26.10,10.61,290.00,13.00,0.00,30.09,1012.60,10.00,18.00,CLR,M,M,M,M,M,M,M,M,M,M,M,M,M,M,83.80,KEKO 301956Z AUTO 29013G18KT 10SM CLR 31/M03 A3009 RMK AO2 SLP126 T03111033,M
WMC,2022-06-30 19:56,-117.8072,40.9019,1315.00,88.00,21.90,8.90,190.00,8.00,0.00,30.06,1012.30,10.00,19.00,CLR,M,M,M,M,M,M,M,M,M,M,M,M,M,M,83.51,KWMC 301956Z AUTO 19008G19KT 10SM CLR 31/M06 A3006 RMK AO2 SLP123 T03111056,M
NFL,2022-06-30 19:56,-118.7010,39.4166,1199.00,88.00,27.00,11.02,310.00,9.00,0.00,30.04,1014.20,10.00,15.00,FEW,M,M,M,8000.00,M,M,M,M,M,M,M,M,M,M,83.87,KNFL 301956Z 31009G15KT 280V340 10SM FEW080 31/M03 A3004 RMK AO2 SLP142 T03111028,M
HND,2022-06-30 19:56,-115.1344,35.9729,742.79,100.00,43.00,14.36,210.00,16.00,0.00,29.97,1012.60,10.00,26.00,CLR,M,M,M,M,M,M,M,M,M,M,M,26.00,210.00,2022-06-30 19:49,95.68,KHND 301956Z 21016G26KT 10SM CLR 38/06 A2997 RMK AO2 PK WND 21026/1949 SLP126 T03780061,M
LAS,2022-06-30 19:56,-115.1634,36.0719,663.00,101.00,42.00,13.50,220.00,15.00,0.00,29.92,1010.00,10.00,25.00,FEW,SCT,M,M,12000.00,20000.00,M,M,M,M,M,M,M,M,M,96.42,KLAS 301956Z 22015G25KT 10SM FEW120 SCT200 38/06 A2992 RMK AO2 SLP100 T03830056,M
INS,2022-06-30 19:58,-115.6733,36.5872,955.00,98.40,29.80,8.95,190.00,12.00,0.00,29.95,1008.30,10.00,18.00,CLR,M,M,M,M,M,M,M,M,M,M,M,M,M,M,92.24,KINS 301958Z AUTO 19012G18KT 10SM CLR 37/M01 A2995 RMK AO2 SLP083 T03691012 $,M
LSV,2022-06-30 19:58,-115.0343,36.2362,570.00,105.00,40.00,10.94,220.00,14.00,0.00,29.88,1008.70,10.00,25.00,FEW,M,M,M,16000.00,M,M,M,M,M,M,M,M,M,M,99.68,KLSV 301958Z AUTO 22014G25KT 10SM FEW160 41/04 A2988 RMK AO2 SLP087 T04060044 $,M
INS,2022-06-30 20:09,-115.6733,36.5872,955.00,98.60,30.20,9.04,240.00,14.00,0.00,29.95,1008.30,10.00,21.00,CLR,M,M,M,M,M,M,M,M,M,M,M,M,M,M,92.46,KINS 302009Z AUTO 24014G21KT 10SM CLR 37/M01 A2995 RMK AO2 WSHFT 03 SLP083 $,M
LSV,2022-06-30 20:09,-115.0343,36.2362,570.00,105.80,41.00,11.18,180.00,15.00,0.00,29.87,1008.30,10.00,26.00,FEW,M,M,M,19000.00,M,M,M,M,M,M,M,M,M,M,100.56,KLSV 302009Z AUTO 18015G26KT 10SM FEW190 41/05 A2987 RMK AO2 WSHFT 1957 SLP083 $,M
BVU,2022-06-30 20:15,-114.8611,35.9475,671.00,102.20,39.20,11.60,220.00,12.00,0.00,29.92,M,10.00,18.00,CLR,M,M,M,M,M,M,M,M,M,M,M,M,M,M,96.99,KBVU 302015Z AUTO 22012G18KT 180V250 10SM CLR 39/04 A2992 RMK AO2,M
RTS,2022-06-30 20:15,-119.8764,39.6682,1539.00,84.20,21.20,9.76,240.00,16.00,0.00,30.13,M,10.00,22.00,CLR,M,M,M,M,M,M,M,M,M,M,M,M,M,M,80.77,KRTS 302015Z AUTO 24016G22KT 10SM CLR 29/M06 A3013 RMK AO2,M
05U,2022-06-30 20:15,-116.0051,39.6042,1811.23,86.00,21.20,9.21,0.00,0.00,0.00,30.16,M,10.00,M,CLR,M,M,M,M,M,M,M,M,M,M,M,M,M,M,82.04,K05U 302015Z AUTO 00000KT 10SM CLR 30/M06 A3016 RMK A01,M
MEV,2022-06-30 20:15,-119.7500,38.9963,1441.42,86.00,24.80,10.72,M,4.00,0.00,30.09,M,10.00,14.00,CLR,M,M,M,M,M,M,M,M,M,M,M,M,M,M,82.26,KMEV 302015Z AUTO VRB04G14KT 10SM CLR 30/M04 A3009 RMK AO2,M
BAM,2022-06-30 20:15,-116.8743,40.5990,1382.36,M,M,M,20.00,5.00,0.00,30.08,M,10.00,M,CLR,M,M,M,M,M,M,M,M,M,M,M,M,M,M,M,KBAM 302015Z AUTO 02005KT 10SM CLR A3008 RMK AO1,M
HTH,2022-06-30 20:15,-118.6315,38.5448,1282.89,87.80,28.40,11.74,10.00,10.00,0.00,30.03,M,10.00,M,CLR,M,M,M,M,M,M,M,M,M,M,M,M,M,M,83.84,KHTH 302015Z AUTO 01010KT 10SM CLR 31/M02 A3003 RMK A01,M
TMT,2022-06-30 20:15,-117.1971,39.4643,1749.34,84.00,31.30,14.92,300.00,3.00,0.00,30.14,M,10.00,M,CLR,M,M,M,M,M,M,M,M,M,M,M,M,M,M,81.12,KTMT 302015Z AUTO 30003KT 10SM CLR 29/00 A3014 RMK AO2 T02891004,M
LSV,2022-06-30 20:20,-115.0343,36.2362,570.00,105.80,41.00,11.18,210.00,15.00,0.00,29.87,1008.30,10.00,24.00,FEW,M,M,M,20000.00,M,M,M,M,M,M,M,M,M,M,100.56,KLSV 302020Z AUTO 21015G24KT 10SM FEW200 41/05 A2987 RMK AO2 WSHFT 10 SLP083 $,M
INS,2022-06-30 20:32,-115.6733,36.5872,955.00,98.60,30.20,9.04,220.00,18.00,0.00,29.94,1007.90,10.00,32.00,CLR,M,M,M,M,M,M,M,M,M,M,M,M,M,M,92.46,KINS 302032Z AUTO 22018G32KT 10SM CLR 37/M01 A2994 RMK AO2 WSHFT 22 SLP079 $,M
LSV,2022-06-30 20:34,-115.0343,36.2362,570.00,105.80,41.00,11.18,220.00,20.00,0.00,29.86,1008.10,10.00,24.00,CLR,M,M,M,M,M,M,M,M,M,M,M,M,M,M,100.56,KLSV 302034Z AUTO 22020G24KT 10SM CLR 41/05 A2986 RMK AO2 WSHFT 28 SLP081 $,M
BVU,2022-06-30 20:35,-114.8611,35.9475,671.00,100.40,41.00,13.14,230.00,8.00,0.00,29.91,M,10.00,24.00,CLR,M,M,M,M,M,M,M,M,M,M,M,M,M,M,95.79,KBVU 302035Z AUTO 23008G24KT 200V260 10SM CLR 38/05 A2991 RMK AO2,M
RTS,2022-06-30 20:35,-119.8764,39.6682,1539.00,84.20,23.00,10.53,240.00,17.00,0.00,30.12,M,10.00,22.00,CLR,M,M,M,M,M,M,M,M,M,M,M,M,M,M,80.88,KRTS 302035Z AUTO 24017G22KT 10SM CLR 29/M05 A3012 RMK AO2,M
05U,2022-06-30 20:35,-116.0051,39.6042,1811.23,87.80,21.20,8.70,0.00,0.00,0.00,30.15,M,10.00,11.00,CLR,M,M,M,M,M,M,M,M,M,M,M,M,M,M,83.33,K05U 302035Z AUTO 00000G11KT 10SM CLR 31/M06 A3015 RMK A01,M
MEV,2022-06-30 20:35,-119.7500,38.9963,1441.42,86.00,24.80,10.72,310.00,7.00,0.00,30.08,M,10.00,M,CLR,M,M,M,M,M,M,M,M,M,M,M,M,M,M,82.26,KMEV 302035Z AUTO 31007KT 10SM CLR 30/M04 A3008 RMK AO2,M
BAM,2022-06-30 20:35,-116.8743,40.5990,1382.36,M,M,M,260.00,3.00,0.00,30.07,M,10.00,M,CLR,M,M,M,M,M,M,M,M,M,M,M,M,M,M,M,KBAM 302035Z AUTO 26003KT 10SM CLR A3007 RMK AO1,M
HTH,2022-06-30 20:35,-118.6315,38.5448,1282.89,89.60,26.60,10.30,330.00,7.00,0.00,30.02,M,10.00,M,CLR,M,M,M,M,M,M,M,M,M,M,M,M,M,M,85.02,KHTH 302035Z AUTO 33007KT 260V010 10SM CLR 32/M03 A3002 RMK A01,M
TMT,2022-06-30 20:35,-117.1971,39.4643,1749.34,85.50,31.50,14.34,260.00,11.00,0.00,30.13,M,10.00,17.00,CLR,M,M,M,M,M,M,M,M,M,M,M,M,M,M,82.25,KTMT 302035Z AUTO 26011G17KT 10SM CLR 30/00 A3013 RMK AO2 T02971003,M
INS,2022-06-30 20:38,-115.6733,36.5872,955.00,100.40,30.20,8.56,230.00,18.00,0.00,29.94,1007.90,10.00,32.00,CLR,M,M,M,M,M,M,M,M,M,M,M,M,M,M,93.98,KINS 302038Z AUTO 23018G32KT 10SM CLR 38/M01 A2994 RMK AO2 WSHFT 36 SLP079 $,M
P68,2022-06-30 20:53,-116.0056,39.6014,1993.00,87.00,23.00,9.60,20.00,9.00,0.00,30.11,1010.50,M,M,M,M,M,M,M,M,M,M,M,M,M,M,M,M,M,82.93,KP68 302053Z AUTO 02009KT 31/M05 A3011 RMK AO1 SLP105 T03061050 58019,M
ELY,2022-06-30 20:53,-114.8453,39.2950,1909.00,86.00,28.00,12.23,220.00,16.00,0.00,30.13,1008.20,10.00,29.00,CLR,M,M,M,M,M,M,M,M,M,M,M,29.00,210.00,2022-06-30 20:49,82.50,KELY 302053Z AUTO 22016G29KT 10SM CLR 30/M02 A3013 RMK AO2 PK WND 21029/2049 SLP082 T03001022 58012 $,M
LOL,2022-06-30 20:53,-118.5701,40.0684,1192.43,90.00,21.00,8.05,M,M,0.00,30.01,1012.20,10.00,M,CLR,M,M,M,M,M,M,M,M,M,M,M,M,M,M,84.92,KLOL 302053Z AUTO 10SM CLR 32/M06 A3001 RMK AO2 SLP122 T03221061 58018,M
DRA,2022-06-30 20:53,-116.0278,36.6206,1009.00,100.00,33.00,9.74,220.00,18.00,0.00,29.96,1008.20,10.00,32.00,CLR,M,M,M,M,M,M,M,M,M,M,M,32.00,190.00,2022-06-30 20:47,94.03,KDRA 302053Z AUTO 22018G32KT 10SM CLR 38/01 A2996 RMK AO2 PK WND 19032/2047 SLP082 T03780006 58015,M
VGT,2022-06-30 20:53,-115.1933,36.2111,667.00,103.00,42.00,12.72,230.00,11.00,0.00,29.88,1009.90,10.00,25.00,CLR,M,M,M,M,M,M,M,M,M,M,M,27.00,230.00,2022-06-30 20:23,98.27,KVGT 302053Z 23011G25KT 10SM CLR 39/06 A2988 RMK AO2 PK WND 23027/2023 SLP099 T03940056 58016,M
BVU,2022-06-30 20:55,-114.8611,35.9475,671.00,102.20,42.80,13.34,210.00,11.00,0.00,29.90,M,10.00,22.00,CLR,M,M,M,M,M,M,M,M,M,M,M,M,M,M,97.76,KBVU 302055Z AUTO 21011G22KT 170V230 10SM CLR 39/06 A2990 RMK AO2,M
RNO,2022-06-30 20:55,-119.7711,39.4839,1341.00,88.00,30.00,12.46,M,3.00,0.00,30.05,1012.00,10.00,M,CLR,M,M,M,M,M,M,M,M,M,M,M,M,M,M,84.13,KRNO 302055Z VRB03KT 10SM CLR 31/M01 A3005 RMK AO2 SLP120 T03111011 56015,M
RTS,2022-06-30 20:55,-119.8764,39.6682,1539.00,84.20,21.20,9.76,240.00,17.00,0.00,30.12,M,10.00,M,CLR,M,M,M,M,M,M,M,M,M,M,M,M,M,M,80.77,KRTS 302055Z AUTO 24017KT 10SM CLR 29/M06 A3012 RMK AO2,M
05U,2022-06-30 20:55,-116.0051,39.6042,1811.23,89.60,23.00,8.87,M,4.00,0.00,30.14,M,10.00,11.00,CLR,M,M,M,M,M,M,M,M,M,M,M,M,M,M,84.75,K05U 302055Z AUTO VRB04G11KT 10SM CLR 32/M05 A3014 RMK A01,M
MEV,2022-06-30 20:55,-119.7500,38.9963,1441.42,86.00,24.80,10.72,300.00,7.00,0.00,30.08,M,10.00,14.00,CLR,M,M,M,M,M,M,M,M,M,M,M,M,M,M,82.26,KMEV 302055Z AUTO 30007G14KT 270V330 10SM CLR 30/M04 A3008 RMK AO2,M
BAM,2022-06-30 20:55,-116.8743,40.5990,1382.36,M,M,M,210.00,9.00,0.00,30.06,M,10.00,15.00,CLR,M,M,M,M,M,M,M,M,M,M,M,M,M,M,M,KBAM 302055Z AUTO 21009G15KT 10SM CLR A3006 RMK AO1,M
HTH,2022-06-30 20:55,-118.6315,38.5448,1282.89,89.60,26.60,10.30,30.00,5.00,0.00,30.01,M,10.00,11.00,CLR,M,M,M,M,M,M,M,M,M,M,M,M,M,M,85.02,KHTH 302055Z AUTO 03005G11KT 10SM CLR 32/M03 A3001 RMK A01,M
TMT,2022-06-30 20:55,-117.1971,39.4643,1749.34,M,M,M,250.00,8.00,0.00,30.13,M,10.00,M,CLR,M,M,M,M,M,M,M,M,M,M,M,M,M,M,M,KTMT 302055Z AUTO 25008KT 10SM CLR A3013 RMK AO2,M
EKO,2022-06-30 20:56,-115.7860,40.8242,1367.00,89.00,28.00,11.09,200.00,10.00,0.00,30.08,1012.80,10.00,19.00,CLR,M,M,M,M,M,M,M,M,M,M,M,M,M,M,84.76,KEKO 302056Z AUTO 20010G19KT 10SM CLR 32/M02 A3008 RMK AO2 SLP128 T03171022 56015,M
NFL,2022-06-30 20:56,-118.7010,39.4166,1199.00,90.00,25.00,9.52,M,6.00,0.00,30.02,1013.40,10.00,M,FEW,M,M,M,8000.00,M,M,M,M,M,M,M,M,M,M,85.19,KNFL 302056Z VRB06KT 10SM FEW080 32/M04 A3002 RMK AO2 SLP134 T03221039 58018,M
HND,2022-06-30 20:56,-115.1344,35.9729,742.79,102.00,43.00,13.52,240.00,16.00,0.00,29.94,1011.70,10.00,23.00,CLR,M,M,M,M,M,M,M,M,M,M,M,M,M,M,97.60,KHND 302056Z 24016G23KT 10SM CLR 39/06 A2994 RMK AO2 SLP117 T03890061 58016,M
LAS,2022-06-30 20:56,-115.1634,36.0719,663.00,102.00,41.00,12.52,240.00,15.00,0.00,29.90,1009.20,10.00,26.00,FEW,SCT,M,M,12000.00,20000.00,M,M,M,M,M,M,26.00,240.00,2022-06-30 20:48,97.21,KLAS 302056Z 24015G26KT 10SM FEW120 SCT200 39/05 A2990 RMK AO2 PK WND 24026/2048 SLP092 T03890050 58015,M
WMC,2022-06-30 20:56,-117.8072,40.9019,1315.00,91.00,21.00,7.80,240.00,11.00,0.00,30.03,1011.30,10.00,21.00,CLR,M,M,M,M,M,M,M,M,M,M,M,28.00,240.00,2022-06-30 20:12,85.66,KWMC 302056Z AUTO 24011G21KT 10SM CLR 33/M06 A3003 RMK AO2 PK WND 24028/2012 SLP113 T03281061 58017,M
INS,2022-06-30 20:58,-115.6733,36.5872,955.00,100.00,31.10,8.99,230.00,14.00,0.00,29.93,1007.60,10.00,24.00,CLR,M,M,M,M,M,M,M,M,M,M,M,32.00,220.00,2022-06-30 20:30,93.75,KINS 302058Z AUTO 23014G24KT 10SM CLR 38/M00 A2993 RMK AO2 PK WND 22032/30 SLP076 T03781005 57018 $,M
LSV,2022-06-30 20:58,-115.0343,36.2362,570.00,106.20,38.30,9.95,220.00,19.00,0.00,29.85,1007.70,10.00,26.00,CLR,M,M,M,M,M,M,M,M,M,M,M,26.00,220.00,2022-06-30 20:00,100.30,KLSV 302058Z AUTO 22019G26KT 10SM CLR 41/04 A2985 RMK AO2 PK WND 22026/00 SLP077 T04120035 58016 $,M
BVU,2022-06-30 21:15,-114.8611,35.9475,671.00,102.20,42.80,13.34,140.00,9.00,0.00,29.89,M,10.00,24.00,CLR,M,M,M,M,M,M,M,M,M,M,M,M,M,M,97.76,KBVU 302115Z AUTO 14009G24KT 120V180 10SM CLR 39/06 A2989 RMK AO2,M
CXP,2022-06-30 21:15,-119.7326,39.1923,1431.00,87.80,28.40,11.74,280.00,17.00,0.00,30.09,M,10.00,24.00,CLR,M,M,M,M,M,M,M,M,M,M,M,M,M,M,83.84,KCXP 302115Z AUTO 28017G24KT 10SM CLR 31/M02 A3009 RMK AO2,M
RTS,2022-06-30 21:15,-119.8764,39.6682,1539.00,84.20,23.00,10.53,260.00,18.00,0.00,30.12,M,10.00,24.00,CLR,M,M,M,M,M,M,M,M,M,M,M,M,M,M,80.88,KRTS 302115Z AUTO 26018G24KT 10SM CLR 29/M05 A3012 RMK AO2,M
05U,2022-06-30 21:15,-116.0051,39.6042,1811.23,89.60,23.00,8.87,M,4.00,0.00,30.13,M,10.00,13.00,CLR,M,M,M,M,M,M,M,M,M,M,M,M,M,M,84.75,K05U 302115Z AUTO VRB04G13KT 10SM CLR 32/M05 A3013 RMK A01,M
MEV,2022-06-30 21:15,-119.7500,38.9963,1441.42,89.60,24.80,9.56,270.00,10.00,0.00,30.07,M,10.00,M,CLR,M,M,M,M,M,M,M,M,M,M,M,M,M,M,84.88,KMEV 302115Z AUTO 27010KT 10SM CLR 32/M04 A3007 RMK AO2,M
BAM,2022-06-30 21:15,-116.8743,40.5990,1382.36,M,M,M,200.00,10.00,0.00,30.05,M,10.00,16.00,CLR,M,M,M,M,M,M,M,M,M,M,M,M,M,M,M,KBAM 302115Z AUTO 20010G16KT 10SM CLR A3005 RMK AO1,M
HTH,2022-06-30 21:15,-118.6315,38.5448,1282.89,91.40,26.60,9.74,350.00,9.00,0.00,30.00,M,10.00,15.00,CLR,M,M,M,M,M,M,M,M,M,M,M,M,M,M,86.36,KHTH 302115Z AUTO 35009G15KT 10SM CLR 33/M03 A3000 RMK A01,M
TMT,2022-06-30 21:15,-117.1971,39.4643,1749.34,M,M,M,200.00,8.00,0.00,30.11,M,10.00,M,CLR,M,M,M,M,M,M,M,M,M,M,M,M,M,M,M,KTMT 302115Z AUTO 20008KT 160V240 10SM CLR A3011 RMK AO2,M
INS,2022-06-30 21:30,-115.6733,36.5872,955.00,98.60,30.20,9.04,240.00,17.00,0.00,29.92,1007.40,10.00,27.00,CLR,M,M,M,M,M,M,M,M,M,M,M,M,M,M,92.46,KINS 302130Z AUTO 24017G27KT 10SM CLR 37/M01 A2992 RMK AO2 WSHFT 25 SLP074 $,M
BVU,2022-06-30 21:35,-114.8611,35.9475,671.00,102.20,42.80,13.34,200.00,10.00,0.00,29.88,M,10.00,25.00,CLR,M,M,M,M,M,M,M,M,M,M,M,M,M,M,97.76,KBVU 302135Z AUTO 20010G25KT 10SM CLR 39/06 A2988 RMK AO2,M
CXP,2022-06-30 21:35,-119.7326,39.1923,1431.00,87.80,28.40,11.74,290.00,16.00,0.00,30.09,M,10.00,23.00,CLR,M,M,M,M,M,M,M,M,M,M,M,M,M,M,83.84,KCXP 302135Z AUTO 29016G23KT 10SM CLR 31/M02 A3009 RMK AO2,M
RTS,2022-06-30 21:35,-119.8764,39.6682,1539.00,84.20,21.20,9.76,240.00,15.00,0.00,30.12,M,10.00,22.00,CLR,M,M,M,M,M,M,M,M,M,M,M,M,M,M,80.77,KRTS 302135Z AUTO 24015G22KT 10SM CLR 29/M06 A3012 RMK AO2,M
05U,2022-06-30 21:35,-116.0051,39.6042,1811.23,89.60,23.00,8.87,0.00,0.00,0.00,30.12,M,10.00,13.00,CLR,M,M,M,M,M,M,M,M,M,M,M,M,M,M,84.75,K05U 302135Z AUTO 00000G13KT 10SM CLR 32/M05 A3012 RMK A01,M
MEV,2022-06-30 21:35,-119.7500,38.9963,1441.42,89.60,26.60,10.30,280.00,14.00,0.00,30.07,M,9.00,M,CLR,M,M,M,M,M,M,M,M,M,M,M,M,M,M,85.02,KMEV 302135Z AUTO 28014KT 9SM CLR 32/M03 A3007 RMK AO2,M
BAM,2022-06-30 21:35,-116.8743,40.5990,1382.36,M,M,M,200.00,7.00,0.00,30.04,M,10.00,M,CLR,M,M,M,M,M,M,M,M,M,M,M,M,M,M,M,KBAM 302135Z AUTO 20007KT 10SM CLR A3004 RMK AO1,M
HTH,2022-06-30 21:35,-118.6315,38.5448,1282.89,91.40,24.80,9.04,360.00,11.00,0.00,29.99,M,10.00,M,CLR,M,M,M,M,M,M,M,M,M,M,M,M,M,M,86.21,KHTH 302135Z AUTO 36011KT 10SM CLR 33/M04 A2999 RMK A01,M
TMT,2022-06-30 21:35,-117.1971,39.4643,1749.34,88.50,30.60,12.56,170.00,5.00,0.00,30.11,M,10.00,16.00,CLR,M,M,M,M,M,M,M,M,M,M,M,M,M,M,84.56,KTMT 302135Z AUTO 17005G16KT 10SM CLR 31/M01 A3011 RMK AO2 T03141008,M
LSV,2022-06-30 21:45,-115.0343,36.2362,570.00,107.60,39.20,9.89,240.00,22.00,0.00,29.83,1006.90,10.00,25.00,CLR,M,M,M,M,M,M,M,M,M,M,M,M,M,M,101.73,KLSV 302145Z AUTO 24022G25KT 10SM CLR 42/04 A2983 RMK AO2 WSHFT 42 SLP069 $,M
P68,2022-06-30 21:53,-116.0056,39.6014,1993.00,89.00,23.00,9.01,M,M,0.00,30.09,1010.10,M,M,M,M,M,M,M,M,M,M,M,M,M,M,M,M,M,84.38,KP68 302153Z AUTO 32/M05 A3009 RMK AO1 SLP101 T03171050,M
ELY,2022-06-30 21:53,-114.8453,39.2950,1909.00,90.00,28.00,10.78,210.00,13.00,0.00,30.11,1007.50,10.00,27.00,CLR,M,M,M,M,M,M,M,M,M,M,M,32.00,200.00,2022-06-30 21:35,85.43,KELY 302153Z AUTO 21013G27KT 10SM CLR 32/M02 A3011 RMK AO2 PK WND 20032/2135 SLP075 T03221022 $,M
DRA,2022-06-30 21:53,-116.0278,36.6206,1009.00,100.00,32.00,9.32,210.00,23.00,0.00,29.94,1007.60,10.00,34.00,CLR,M,M,M,M,M,M,M,M,M,M,M,39.00,230.00,2022-06-30 21:19,93.87,KDRA 302153Z AUTO 21023G34KT 10SM CLR 38/00 A2994 RMK AO2 PK WND 23039/2119 SLP076 T03780000,M
VGT,2022-06-30 21:53,-115.1933,36.2111,667.00,104.00,41.00,11.79,190.00,14.00,0.00,29.86,1009.20,10.00,24.00,CLR,M,M,M,M,M,M,M,M,M,M,M,30.00,180.00,2022-06-30 21:26,98.97,KVGT 302153Z 19014G24KT 10SM CLR 40/05 A2986 RMK AO2 PK WND 18030/2126 SLP092 T04000050,M
LOL,2022-06-30 21:53,-118.5701,40.0684,1192.43,93.00,21.00,7.33,250.00,9.00,0.00,29.99,1011.30,10.00,M,CLR,M,M,M,M,M,M,M,M,M,M,M,M,M,M,87.13,KLOL 302153Z AUTO 25009KT 10SM CLR 34/M06 A2999 RMK AO2 SLP113 T03391061,M
BVU,2022-06-30 21:55,-114.8611,35.9475,671.00,102.20,44.60,14.29,160.00,18.00,0.00,29.87,M,10.00,M,FEW,M,M,M,12000.00,M,M,M,M,M,M,M,M,M,M,98.07,KBVU 302155Z AUTO 16018KT 10SM FEW120 39/07 A2987 RMK AO2,M
CXP,2022-06-30 21:55,-119.7326,39.1923,1431.00,86.00,28.40,12.44,280.00,16.00,0.00,30.09,M,10.00,23.00,CLR,M,M,M,M,M,M,M,M,M,M,M,M,M,M,82.54,KCXP 302155Z AUTO 28016G23KT 10SM CLR 30/M02 A3009 RMK AO2,M
RNO,2022-06-30 21:55,-119.7711,39.4839,1341.00,90.00,28.90,11.18,280.00,14.00,0.00,30.04,1011.30,10.00,21.00,CLR,M,M,M,M,M,M,M,M,M,M,M,M,M,M,85.52,KRNO 302155Z 28014G21KT 10SM CLR 32/M02 A3004 RMK AO2 SLP113 T03221017,M
RTS,2022-06-30 21:55,-119.8764,39.6682,1539.00,84.20,19.40,9.04,240.00,15.00,0.00,30.12,M,10.00,20.00,CLR,M,M,M,M,M,M,M,M,M,M,M,M,M,M,80.68,KRTS 302155Z AUTO 24015G20KT 10SM CLR 29/M07 A3012 RMK AO2,M
05U,2022-06-30 21:55,-116.0051,39.6042,1811.23,89.60,23.00,8.87,M,3.00,0.00,30.12,M,10.00,11.00,CLR,M,M,M,M,M,M,M,M,M,M,M,M,M,M,84.75,K05U 302155Z AUTO VRB03G11KT 10SM CLR 32/M05 A3012 RMK A01,M
MEV,2022-06-30 21:55,-119.7500,38.9963,1441.42,87.80,26.60,10.91,270.00,12.00,0.00,30.07,M,9.00,18.00,CLR,M,M,M,M,M,M,M,M,M,M,M,M,M,M,83.69,KMEV 302155Z AUTO 27012G18KT 9SM CLR 31/M03 A3007 RMK AO2,M
BAM,2022-06-30 21:55,-116.8743,40.5990,1382.36,M,M,M,200.00,6.00,0.00,30.04,M,10.00,M,CLR,M,M,M,M,M,M,M,M,M,M,M,M,M,M,M,KBAM 302155Z AUTO 20006KT 10SM CLR A3004 RMK AO1,M
HTH,2022-06-30 21:55,-118.6315,38.5448,1282.89,91.40,23.00,8.38,300.00,13.00,0.00,29.99,M,10.00,M,CLR,M,M,M,M,M,M,M,M,M,M,M,M,M,M,86.08,KHTH 302155Z AUTO 30013KT 10SM CLR 33/M05 A2999 RMK A01,M
TMT,2022-06-30 21:55,-117.1971,39.4643,1749.34,88.30,30.90,12.80,290.00,4.00,0.00,30.10,M,5.00,M,CLR,M,M,M,M,M,M,M,HZ,M,M,M,M,M,M,84.45,KTMT 302155Z AUTO 29004KT 5SM HZ CLR 31/M01 A3010 RMK AO2 T03131006,M
EKO,2022-06-30 21:56,-115.7860,40.8242,1367.00,90.00,28.90,11.18,220.00,11.00,0.00,30.06,1011.80,10.00,19.00,CLR,M,M,M,M,M,M,M,M,M,M,M,M,M,M,85.52,KEKO 302156Z AUTO 22011G19KT 10SM CLR 32/M02 A3006 RMK AO2 SLP118 T03221017,M
NFL,2022-06-30 21:56,-118.7010,39.4166,1199.00,92.00,24.10,8.64,350.00,7.00,0.00,30.00,1012.80,10.00,M,FEW,M,M,M,8000.00,M,M,M,M,M,M,M,M,M,M,86.53,KNFL 302156Z 35007KT 280V020 10SM FEW080 33/M04 A3000 RMK AO2 SLP128 T03331044,M
HND,2022-06-30 21:56,-115.1344,35.9729,742.79,102.00,43.00,13.52,230.00,12.00,0.00,29.92,1011.10,10.00,23.00,CLR,M,M,M,M,M,M,M,M,M,M,M,29.00,220.00,2022-06-30 21:15,97.60,KHND 302156Z 23012G23KT 10SM CLR 39/06 A2992 RMK AO2 PK WND 22029/2115 SLP111 T03890061,M
WMC,2022-06-30 21:56,-117.8072,40.9019,1315.00,91.00,19.00,7.16,250.00,7.00,0.00,30.02,1010.70,10.00,20.00,CLR,M,M,M,M,M,M,M,M,M,M,M,28.00,260.00,2022-06-30 21:10,85.54,KWMC 302156Z AUTO 25007G20KT 210V300 10SM CLR 33/M07 A3002 RMK AO2 PK WND 26028/2110 SLP107 T03281072,M
LAS,2022-06-30 21:56,-115.1634,36.0719,663.00,103.00,40.00,11.68,230.00,12.00,0.00,29.88,1008.50,10.00,24.00,FEW,SCT,M,M,12000.00,20000.00,M,M,M,M,M,M,M,M,M,97.75,KLAS 302156Z 23012G24KT 10SM FEW120 SCT200 39/04 A2988 RMK AO2 SLP085 T03940044,M
LSV,2022-06-30 21:58,-115.0343,36.2362,570.00,107.00,36.30,8.95,220.00,17.00,0.00,29.83,1006.90,10.00,24.00,CLR,M,M,M,M,M,M,M,M,M,M,M,M,M,M,100.68,KLSV 302158Z AUTO 22017G24KT 10SM CLR 42/02 A2983 RMK AO2 SLP069 T04170024 $,M
INS,2022-06-30 21:58,-115.6733,36.5872,955.00,100.00,28.00,7.94,270.00,8.00,0.00,29.91,1006.90,10.00,20.00,CLR,M,M,M,M,M,M,M,M,M,M,M,27.00,230.00,2022-06-30 21:42,93.30,KINS 302158Z AUTO 27008G20KT 10SM CLR 38/M02 A2991 RMK AO2 PK WND 23027/42 SLP069 T03771022 $,M
BVU,2022-06-30 22:15,-114.8611,35.9475,671.00,102.20,44.60,14.29,140.00,21.00,0.00,29.86,M,10.00,29.00,CLR,M,M,M,M,M,M,M,M,M,M,M,M,M,M,98.07,KBVU 302215Z AUTO 14021G29KT 10SM CLR 39/07 A2986 RMK AO2,M
CXP,2022-06-30 22:15,-119.7326,39.1923,1431.00,86.00,28.40,12.44,290.00,18.00,0.00,30.08,M,10.00,23.00,CLR,M,M,M,M,M,M,M,M,M,M,M,M,M,M,82.54,KCXP 302215Z AUTO 29018G23KT 10SM CLR 30/M02 A3008 RMK AO2,M
RTS,2022-06-30 22:15,-119.8764,39.6682,1539.00,84.20,15.80,7.74,240.00,14.00,0.00,30.11,M,10.00,21.00,CLR,M,M,M,M,M,M,M,M,M,M,M,M,M,M,80.51,KRTS 302215Z AUTO 24014G21KT 10SM CLR 29/M09 A3011 RMK AO2,M
05U,2022-06-30 22:15,-116.0051,39.6042,1811.23,91.40,23.00,8.38,330.00,6.00,0.00,30.11,M,10.00,13.00,CLR,M,M,M,M,M,M,M,M,M,M,M,M,M,M,86.08,K05U 302215Z AUTO 33006G13KT 10SM CLR 33/M05 A3011 RMK A01,M
MEV,2022-06-30 22:15,-119.7500,38.9963,1441.42,87.80,26.60,10.91,290.00,14.00,0.00,30.06,M,7.00,20.00,CLR,M,M,M,M,M,M,M,M,M,M,M,M,M,M,83.69,KMEV 302215Z AUTO 29014G20KT 7SM CLR 31/M03 A3006 RMK AO2,M
BAM,2022-06-30 22:15,-116.8743,40.5990,1382.36,M,M,M,240.00,11.00,0.00,30.03,M,10.00,19.00,CLR,M,M,M,M,M,M,M,M,M,M,M,M,M,M,M,KBAM 302215Z AUTO 24011G19KT 220V320 10SM CLR A3003 RMK AO1,M
HTH,2022-06-30 22:15,-118.6315,38.5448,1282.89,93.20,21.20,7.34,340.00,16.00,0.00,29.97,M,10.00,M,CLR,M,M,M,M,M,M,M,M,M,M,M,M,M,M,87.29,KHTH 302215Z AUTO 34016KT 10SM CLR 34/M06 A2997 RMK A01,M
TMT,2022-06-30 22:15,-117.1971,39.4643,1749.34,87.60,30.70,12.98,250.00,13.00,0.00,30.10,M,10.00,17.00,CLR,M,M,M,M,M,M,M,M,M,M,M,M,M,M,83.91,KTMT 302215Z AUTO 25013G17KT 210V280 10SM CLR 31/M01 A3010 RMK AO2 T03091007,M
INS,2022-06-30 22:21,-115.6733,36.5872,955.00,100.40,28.40,7.95,240.00,15.00,0.00,29.91,1006.90,10.00,21.00,CLR,M,M,M,M,M,M,M,M,M,M,M,M,M,M,93.77,KINS 302221Z AUTO 24015G21KT 10SM CLR 38/M02 A2991 RMK AO2 WSHFT 19 SLP069 $,M
INS,2022-06-30 22:28,-115.6733,36.5872,955.00,100.40,28.40,7.95,210.00,14.00,0.00,29.90,1006.50,10.00,20.00,CLR,M,M,M,M,M,M,M,M,M,M,M,M,M,M,93.77,KINS 302228Z AUTO 21014G20KT 10SM CLR 38/M02 A2990 RMK AO2 WSHFT 26 SLP065 $,M
BVU,2022-06-30 22:35,-114.8611,35.9475,671.00,100.40,44.60,15.08,190.00,17.00,0.00,29.87,M,10.00,M,CLR,M,M,M,M,M,M,M,M,M,M,M,M,M,M,96.31,KBVU 302235Z AUTO 19017KT 10SM CLR 38/07 A2987 RMK AO2,M
CXP,2022-06-30 22:35,-119.7326,39.1923,1431.00,86.00,28.40,12.44,280.00,19.00,0.00,30.08,M,10.00,28.00,CLR,M,M,M,M,M,M,M,M,M,M,M,M,M,M,82.54,KCXP 302235Z AUTO 28019G28KT 10SM CLR 30/M02 A3008 RMK AO2,M
RTS,2022-06-30 22:35,-119.8764,39.6682,1539.00,84.20,10.40,6.10,240.00,15.00,0.00,30.11,M,10.00,20.00,CLR,M,M,M,M,M,M,M,M,M,M,M,M,M,M,80.31,KRTS 302235Z AUTO 24015G20KT 10SM CLR 29/M12 A3011 RMK AO2,M
05U,2022-06-30 22:35,-116.0051,39.6042,1811.23,91.40,23.00,8.38,260.00,9.00,0.00,30.10,M,10.00,M,CLR,M,M,M,M,M,M,M,M,M,M,M,M,M,M,86.08,K05U 302235Z AUTO 26009KT 10SM CLR 33/M05 A3010 RMK A01,M
MEV,2022-06-30 22:35,-119.7500,38.9963,1441.42,87.80,26.60,10.91,280.00,16.00,0.00,30.06,M,6.00,24.00,CLR,M,M,M,M,M,M,M,HZ,M,M,M,M,M,M,83.69,KMEV 302235Z AUTO 28016G24KT 6SM HZ CLR 31/M03 A3006 RMK AO2,M
TMT,2022-06-30 22:35,-117.1971,39.4643,1749.34,89.00,29.10,11.67,290.00,9.00,0.00,30.10,M,10.00,19.00,CLR,M,M,M,M,M,M,M,M,M,M,M,M,M,M,84.71,KTMT 302235Z AUTO 29009G19KT 10SM CLR 32/M02 A3010 RMK AO2 T03161016,M
BAM,2022-06-30 22:35,-116.8743,40.5990,1382.36,M,M,M,250.00,4.00,0.00,30.03,M,10.00,14.00,CLR,M,M,M,M,M,M,M,M,M,M,M,M,M,M,M,KBAM 302235Z AUTO 25004G14KT 10SM CLR A3003 RMK AO1,M
HTH,2022-06-30 22:35,-118.6315,38.5448,1282.89,93.20,21.20,7.34,330.00,9.00,0.00,29.98,M,10.00,18.00,CLR,M,M,M,M,M,M,M,M,M,M,M,M,M,M,87.29,KHTH 302235Z AUTO 33009G18KT 10SM CLR 34/M06 A2998 RMK A01,M
INS,2022-06-30 22:40,-115.6733,36.5872,955.00,100.40,28.40,7.95,230.00,17.00,0.00,29.90,1006.50,10.00,28.00,CLR,M,M,M,M,M,M,M,M,M,M,M,M,M,M,93.77,KINS 302240Z AUTO 23017G28KT 10SM CLR 38/M02 A2990 RMK AO2 WSHFT 30 SLP065 $,M
P68,2022-06-30 22:53,-116.0056,39.6014,1993.00,87.00,21.90,9.16,300.00,5.00,0.00,30.07,1009.00,M,22.00,M,M,M,M,M,M,M,M,M,M,M,M,M,M,M,82.86,KP68 302253Z AUTO 30005G22KT 31/M06 A3007 RMK AO1 SLP090 T03061056,M
ELY,2022-06-30 22:53,-114.8453,39.2950,1909.00,89.00,21.90,8.60,220.00,20.00,0.00,30.10,1007.30,10.00,28.00,CLR,M,M,M,M,M,M,M,M,M,M,M,34.00,240.00,2022-06-30 22:02,84.31,KELY 302253Z AUTO 22020G28KT 10SM CLR 32/M06 A3010 RMK AO2 PK WND 24034/2202 SLP073 T03171056 $,M
DRA,2022-06-30 22:53,-116.0278,36.6206,1009.00,100.00,30.00,8.59,230.00,21.00,0.00,29.92,1006.90,10.00,33.00,CLR,M,M,M,M,M,M,M,M,M,M,M,35.00,220.00,2022-06-30 22:00,93.61,KDRA 302253Z AUTO 23021G33KT 10SM CLR 38/M01 A2992 RMK AO2 PK WND 22035/2200 SLP069 T03781011,M
VGT,2022-06-30 22:53,-115.1933,36.2111,667.00,105.00,39.00,10.56,210.00,16.00,0.00,29.83,1008.50,10.00,24.00,CLR,M,M,M,M,M,M,M,M,M,M,M,36.00,200.00,2022-06-30 22:20,99.48,KVGT 302253Z 21016G24KT 10SM CLR 41/04 A2983 RMK AO2 PK WND 20036/2220 SLP085 T04060039,M
LOL,2022-06-30 22:53,-118.5701,40.0684,1192.43,93.00,21.90,7.61,210.00,12.00,0.00,29.97,1011.00,10.00,21.00,CLR,M,M,M,M,M,M,M,M,M,M,M,M,M,M,87.19,KLOL 302253Z AUTO 21012G21KT 10SM CLR 34/M06 A2997 RMK AO2 SLP110 T03391056,M
BVU,2022-06-30 22:55,-114.8611,35.9475,671.00,100.40,42.80,14.08,160.00,6.00,0.00,29.86,M,10.00,29.00,CLR,M,M,M,M,M,M,M,M,M,M,M,M,M,M,96.04,KBVU 302255Z AUTO 16006G29KT 10SM CLR 38/06 A2986 RMK AO2,M
CXP,2022-06-30 22:55,-119.7326,39.1923,1431.00,86.00,28.40,12.44,280.00,18.00,0.00,30.08,M,10.00,24.00,CLR,M,M,M,M,M,M,M,M,M,M,M,M,M,M,82.54,KCXP 302255Z AUTO 28018G24KT 10SM CLR 30/M02 A3008 RMK AO2,M
RNO,2022-06-30 22:55,-119.7711,39.4839,1341.00,90.00,28.90,11.18,300.00,17.00,0.00,30.04,1011.20,10.00,25.00,CLR,M,M,M,M,M,M,M,M,M,M,M,M,M,M,85.52,KRNO 302255Z 30017G25KT 10SM CLR 32/M02 A3004 RMK AO2 SLP112 T03221017,M
RTS,2022-06-30 22:55,-119.8764,39.6682,1539.00,84.20,15.80,7.74,230.00,11.00,0.00,30.11,M,10.00,19.00,CLR,M,M,M,M,M,M,M,M,M,M,M,M,M,M,80.51,KRTS 302255Z AUTO 23011G19KT 10SM CLR 29/M09 A3011 RMK AO2,M
05U,2022-06-30 22:55,-116.0051,39.6042,1811.23,89.60,21.20,8.22,M,3.00,0.00,30.09,M,10.00,13.00,CLR,M,M,M,M,M,M,M,M,M,M,M,M,M,M,84.64,K05U 302255Z AUTO VRB03G13KT 10SM CLR 32/M06 A3009 RMK A01,M
MEV,2022-06-30 22:55,-119.7500,38.9963,1441.42,87.80,26.60,10.91,270.00,17.00,0.00,30.06,M,9.00,24.00,CLR,M,M,M,M,M,M,M,M,M,M,M,M,M,M,83.69,KMEV 302255Z AUTO 27017G24KT 9SM CLR 31/M03 A3006 RMK AO2,M
BAM,2022-06-30 22:55,-116.8743,40.5990,1382.36,M,M,M,250.00,5.00,0.00,30.02,M,10.00,20.00,CLR,M,M,M,M,M,M,M,M,M,M,M,M,M,M,M,KBAM 302255Z AUTO 25005G20KT 10SM CLR A3002 RMK AO1,M
HTH,2022-06-30 22:55,-118.6315,38.5448,1282.89,93.20,21.20,7.34,320.00,14.00,0.00,29.97,M,10.00,M,CLR,M,M,M,M,M,M,M,M,M,M,M,M,M,M,87.29,KHTH 302255Z AUTO 32014KT 10SM CLR 34/M06 A2997 RMK A01,M
TMT,2022-06-30 22:55,-117.1971,39.4643,1749.34,89.00,28.40,11.27,260.00,9.00,0.00,30.09,M,10.00,23.00,CLR,M,M,M,M,M,M,M,M,M,M,M,M,M,M,84.80,KTMT 302255Z AUTO 26009G23KT 10SM CLR 32/M02 A3009 RMK AO2 T03171020,M
EKO,2022-06-30 22:56,-115.7860,40.8242,1367.00,90.00,25.00,9.52,270.00,11.00,0.00,30.04,1011.40,10.00,20.00,CLR,M,M,M,M,M,M,M,M,M,M,M,M,M,M,85.19,KEKO 302256Z AUTO 27011G20KT 10SM CLR 32/M04 A3004 RMK AO2 SLP114 T03221039,M
WMC,2022-06-30 22:56,-117.8072,40.9019,1315.00,92.00,15.10,5.88,250.00,13.00,0.00,30.01,1011.00,10.00,27.00,CLR,M,M,M,M,M,M,M,M,M,M,M,27.00,250.00,2022-06-30 22:48,86.01,KWMC 302256Z AUTO 25013G27KT 10SM CLR 33/M09 A3001 RMK AO2 PK WND 25027/2248 SLP110 T03331094,M
NFL,2022-06-30 22:56,-118.7010,39.4166,1199.00,94.00,23.00,7.75,250.00,5.00,0.00,29.97,1012.00,10.00,M,FEW,M,M,M,8000.00,M,M,M,M,M,M,M,M,M,M,87.94,KNFL 302256Z 25005KT 10SM FEW080 34/M05 A2997 RMK AO2 SLP120 T03441050,M
HND,2022-06-30 22:56,-115.1344,35.9729,742.79,102.00,41.00,12.52,270.00,17.00,0.00,29.90,1010.30,10.00,25.00,CLR,M,M,M,M,M,M,M,M,M,M,M,M,M,M,97.21,KHND 302256Z 27017G25KT 10SM CLR 39/05 A2990 RMK AO2 SLP103 T03890050,M
LAS,2022-06-30 22:56,-115.1634,36.0719,663.00,102.00,39.00,11.58,210.00,14.00,0.00,29.86,1007.70,10.00,26.00,FEW,SCT,M,M,12000.00,20000.00,M,M,M,M,M,M,30.00,220.00,2022-06-30 22:00,96.77,KLAS 302256Z 21014G26KT 10SM FEW120 SCT200 39/04 A2986 RMK AO2 PK WND 22030/2200 SLP077 T03890039,M
LSV,2022-06-30 22:58,-115.0343,36.2362,570.00,106.50,35.80,8.93,230.00,15.00,0.00,29.80,1006.00,10.00,21.00,CLR,M,M,M,M,M,M,M,M,M,M,M,26.00,230.00,2022-06-30 22:08,100.06,KLSV 302258Z AUTO 23015G21KT 10SM CLR 41/02 A2980 RMK AO2 PK WND 23026/08 SLP060 T04140021 $,M
INS,2022-06-30 22:58,-115.6733,36.5872,955.00,100.40,28.40,7.95,220.00,16.00,0.00,29.89,1006.40,10.00,25.00,FEW,M,M,M,15000.00,M,M,M,M,M,M,M,30.00,230.00,2022-06-30 22:48,93.77,KINS 302258Z AUTO 22016G25KT 10SM FEW150 38/M02 A2989 RMK AO2 PK WND 23030/48 SLP064 T03801020 $,M
LSV,2022-06-30 23:06,-115.0343,36.2362,570.00,107.60,35.60,8.58,200.00,14.00,0.00,29.81,1006.30,10.00,24.00,CLR,M,M,M,M,M,M,M,M,M,M,M,M,M,M,100.98,KLSV 302306Z AUTO 20014G24KT 10SM CLR 42/02 A2981 RMK AO2 WSHFT 2256 SLP063 $,M
BVU,2022-06-30 23:15,-114.8611,35.9475,671.00,100.40,44.60,15.08,140.00,18.00,0.00,29.85,M,10.00,M,CLR,M,M,M,M,M,M,M,M,M,M,M,M,M,M,96.31,KBVU 302315Z AUTO 14018KT 10SM CLR 38/07 A2985 RMK AO2,M
CXP,2022-06-30 23:15,-119.7326,39.1923,1431.00,84.20,30.20,14.18,280.00,17.00,0.00,30.07,M,10.00,27.00,CLR,M,M,M,M,M,M,M,M,M,M,M,M,M,M,81.26,KCXP 302315Z AUTO 28017G27KT 10SM CLR 29/M01 A3007 RMK AO2,M
RTS,2022-06-30 23:15,-119.8764,39.6682,1539.00,84.20,14.00,7.16,230.00,13.00,0.00,30.11,M,10.00,19.00,CLR,M,M,M,M,M,M,M,M,M,M,M,M,M,M,80.44,KRTS 302315Z AUTO 23013G19KT 10SM CLR 29/M10 A3011 RMK AO2,M
05U,2022-06-30 23:15,-116.0051,39.6042,1811.23,89.60,23.00,8.87,270.00,9.00,0.00,30.09,M,10.00,16.00,CLR,M,M,M,M,M,M,M,M,M,M,M,M,M,M,84.75,K05U 302315Z AUTO 27009G16KT 220V300 10SM CLR 32/M05 A3009 RMK A01,M
MEV,2022-06-30 23:15,-119.7500,38.9963,1441.42,87.80,24.80,10.12,280.00,15.00,0.00,30.05,M,10.00,22.00,CLR,M,M,M,M,M,M,M,M,M,M,M,M,M,M,83.56,KMEV 302315Z AUTO 28015G22KT 10SM CLR 31/M04 A3005 RMK AO2,M
BAM,2022-06-30 23:15,-116.8743,40.5990,1382.36,M,M,M,220.00,7.00,0.00,30.01,M,10.00,17.00,CLR,M,M,M,M,M,M,M,M,M,M,M,M,M,M,M,KBAM 302315Z AUTO 22007G17KT 160V250 10SM CLR A3001 RMK AO1,M
HTH,2022-06-30 23:15,-118.6315,38.5448,1282.89,93.20,21.20,7.34,320.00,11.00,0.00,29.96,M,10.00,M,CLR,M,M,M,M,M,M,M,M,M,M,M,M,M,M,87.29,KHTH 302315Z AUTO 32011KT 10SM CLR 34/M06 A2996 RMK A01,M
TMT,2022-06-30 23:15,-117.1971,39.4643,1749.34,88.30,29.30,11.99,280.00,7.00,0.00,30.09,M,10.00,22.00,CLR,M,M,M,M,M,M,M,M,M,M,M,M,M,M,84.29,KTMT 302315Z AUTO 28007G22KT 10SM CLR 31/M01 A3009 RMK AO2 T03131015,M
BVU,2022-06-30 23:35,-114.8611,35.9475,671.00,98.60,44.60,15.93,140.00,14.00,0.00,29.85,M,10.00,28.00,CLR,M,M,M,M,M,M,M,M,M,M,M,M,M,M,94.55,KBVU 302335Z AUTO 14014G28KT 10SM CLR 37/07 A2985 RMK AO2,M
CXP,2022-06-30 23:35,-119.7326,39.1923,1431.00,86.00,30.20,13.38,280.00,15.00,0.00,30.07,M,10.00,27.00,CLR,M,M,M,M,M,M,M,M,M,M,M,M,M,M,82.64,KCXP 302335Z AUTO 28015G27KT 10SM CLR 30/M01 A3007 RMK AO2,M
RTS,2022-06-30 23:35,-119.8764,39.6682,1539.00,84.20,12.20,6.61,220.00,17.00,0.00,30.11,M,10.00,M,CLR,M,M,M,M,M,M,M,M,M,M,M,M,M,M,80.37,KRTS 302335Z AUTO 22017KT 10SM CLR 29/M11 A3011 RMK AO2,M
05U,2022-06-30 23:35,-116.0051,39.6042,1811.23,87.80,23.00,9.39,280.00,10.00,0.00,30.09,M,10.00,17.00,CLR,M,M,M,M,M,M,M,M,M,M,M,M,M,M,83.43,K05U 302335Z AUTO 28010G17KT 10SM CLR 31/M05 A3009 RMK A01,M
MEV,2022-06-30 23:35,-119.7500,38.9963,1441.42,87.80,23.00,9.39,280.00,19.00,0.00,30.05,M,10.00,24.00,CLR,M,M,M,M,M,M,M,M,M,M,M,M,M,M,83.43,KMEV 302335Z AUTO 28019G24KT 10SM CLR 31/M05 A3005 RMK AO2,M
BAM,2022-06-30 23:35,-116.8743,40.5990,1382.36,M,M,M,260.00,5.00,0.00,30.01,M,10.00,17.00,CLR,M,M,M,M,M,M,M,M,M,M,M,M,M,M,M,KBAM 302335Z AUTO 26005G17KT 10SM CLR A3001 RMK AO1,M
HTH,2022-06-30 23:35,-118.6315,38.5448,1282.89,93.20,21.20,7.34,330.00,14.00,0.00,29.95,M,10.00,M,CLR,M,M,M,M,M,M,M,M,M,M,M,M,M,M,87.29,KHTH 302335Z AUTO 33014KT 10SM CLR 34/M06 A2995 RMK A01,M
TMT,2022-06-30 23:35,-117.1971,39.4643,1749.34,87.80,27.50,11.32,270.00,13.00,0.00,30.10,M,10.00,20.00,CLR,M,M,M,M,M,M,M,M,M,M,M,M,M,M,83.76,KTMT 302335Z AUTO 27013G20KT 10SM CLR 31/M02 A3010 RMK AO2 T03101025,M
VGT,2022-06-30 23:53,-115.1933,36.2111,667.00,105.00,38.00,10.12,220.00,17.00,0.00,29.82,1008.00,10.00,28.00,CLR,M,M,M,M,M,M,M,M,M,M,M,28.00,200.00,2022-06-30 23:51,99.25,KVGT 302353Z 22017G28KT 10SM CLR 41/03 A2982 RMK AO2 PK WND 20028/2351 SLP080 T04060033 10411 20378 56019,M
P68,2022-06-30 23:53,-116.0056,39.6014,1993.00,88.00,23.00,9.33,260.00,12.00,0.00,30.05,1008.70,M,17.00,M,M,M,M,M,M,M,M,M,M,M,M,M,M,M,83.58,KP68 302353Z AUTO 26012G17KT 31/M05 A3005 RMK AO1 SLP087 T03111050 10322 20261 56016,M
ELY,2022-06-30 23:53,-114.8453,39.2950,1909.00,87.00,21.00,8.82,230.00,11.00,0.00,30.09,1008.30,10.00,26.00,CLR,M,M,M,M,M,M,M,M,M,M,M,29.00,230.00,2022-06-30 22:54,82.81,KELY 302353Z AUTO 23011G26KT 10SM CLR 31/M06 A3009 RMK AO2 PK WND 23029/2254 SLP083 T03061061 10322 20272 56010 $,M
DRA,2022-06-30 23:53,-116.0278,36.6206,1009.00,99.00,28.00,8.16,200.00,20.00,0.00,29.90,1006.50,10.00,32.00,CLR,M,M,M,M,M,M,M,M,M,M,M,39.00,210.00,2022-06-30 23:20,92.54,KDRA 302353Z AUTO 20020G32KT 10SM CLR 37/M02 A2990 RMK AO2 PK WND 21039/2320 SLP065 T03721022 10383 20344 56017,M
LOL,2022-06-30 23:53,-118.5701,40.0684,1192.43,92.00,21.90,7.88,M,M,0.00,29.96,1010.70,10.00,M,CLR,M,M,M,M,M,M,M,M,M,M,M,M,M,M,86.38,KLOL 302353Z AUTO 10SM CLR 33/M06 A2996 RMK AO2 SLP107 T03331056 10344 20283 56016,M
BVU,2022-06-30 23:55,-114.8611,35.9475,671.00,100.40,41.00,13.14,140.00,15.00,0.00,29.84,M,10.00,M,CLR,M,M,M,M,M,M,M,M,M,M,M,M,M,M,95.79,KBVU 302355Z AUTO 14015KT 10SM CLR 38/05 A2984 RMK AO2,M
CXP,2022-06-30 23:55,-119.7326,39.1923,1431.00,84.20,30.20,14.18,280.00,18.00,0.00,30.07,M,10.00,28.00,CLR,M,M,M,M,M,M,M,M,M,M,M,M,M,M,81.26,KCXP 302355Z AUTO 28018G28KT 10SM CLR 29/M01 A3007 RMK AO2,M
RTS,2022-06-30 23:55,-119.8764,39.6682,1539.00,84.20,14.00,7.16,210.00,15.00,0.00,30.11,M,10.00,M,CLR,M,M,M,M,M,M,M,M,M,M,M,M,M,M,80.44,KRTS 302355Z AUTO 21015KT 10SM CLR 29/M10 A3011 RMK AO2,M
05U,2022-06-30 23:55,-116.0051,39.6042,1811.23,91.40,23.00,8.38,260.00,9.00,0.00,30.08,M,10.00,14.00,CLR,M,M,M,M,M,M,M,M,M,M,M,M,M,M,86.08,K05U 302355Z AUTO 26009G14KT 10SM CLR 33/M05 A3008 RMK A01,M
MEV,2022-06-30 23:55,-119.7500,38.9963,1441.42,87.80,24.80,10.12,280.00,14.00,0.00,30.06,M,10.00,21.00,CLR,M,M,M,M,M,M,M,M,M,M,M,M,M,M,83.56,KMEV 302355Z AUTO 28014G21KT 10SM CLR 31/M04 A3006 RMK AO2,M
HTH,2022-06-30 23:55,-118.6315,38.5448,1282.89,93.20,23.00,7.92,310.00,12.00,0.00,29.95,M,10.00,M,CLR,M,M,M,M,M,M,M,M,M,M,M,M,M,M,87.42,KHTH 302355Z AUTO 31012KT 10SM CLR 34/M05 A2995 RMK A01,M
BAM,2022-06-30 23:55,-116.8743,40.5990,1382.36,M,M,M,280.00,12.00,0.00,30.00,M,10.00,16.00,CLR,M,M,M,M,M,M,M,M,M,M,M,M,M,M,M,KBAM 302355Z AUTO 28012G16KT 10SM CLR A3000 RMK AO1,M
TMT,2022-06-30 23:55,-117.1971,39.4643,1749.34,85.00,26.60,11.96,280.00,7.00,0.00,30.09,M,10.00,11.00,CLR,M,M,M,M,M,M,M,M,M,M,M,M,M,M,81.62,KTMT 302355Z AUTO 28007G11KT 10SM CLR 29/M03 A3009 RMK AO2 T02941030 10321 20260,M
RNO,2022-06-30 23:55,-119.7711,39.4839,1341.00,89.00,28.00,11.09,270.00,18.00,0.00,30.03,1011.10,10.00,24.00,FEW,M,M,M,12000.00,M,M,M,M,M,M,M,M,M,M,84.76,KRNO 302355Z 27018G24KT 10SM FEW120 32/M02 A3003 RMK AO2 SLP111 T03171022 10333 20272 56008,M
EKO,2022-06-30 23:56,-115.7860,40.8242,1367.00,89.00,27.00,10.64,210.00,7.00,0.00,30.03,1010.80,10.00,M,CLR,M,M,M,M,M,M,M,M,M,M,M,M,M,M,84.68,KEKO 302356Z AUTO 21007KT 10SM CLR 32/M03 A3003 RMK AO2 SLP108 T03171028 10328 20272 56016,M
NFL,2022-06-30 23:56,-118.7010,39.4166,1199.00,95.00,19.00,6.32,320.00,13.00,0.00,29.95,1011.50,10.00,18.00,FEW,M,M,M,8000.00,M,M,M,M,M,M,M,M,M,M,88.47,KNFL 302356Z 32013G18KT 10SM FEW080 35/M07 A2995 RMK AO2 SLP115 T03501072 10350 20283 56019,M
HND,2022-06-30 23:56,-115.1344,35.9729,742.79,103.00,41.00,12.19,270.00,11.00,0.00,29.88,1009.80,10.00,21.00,CLR,M,M,M,M,M,M,M,M,M,M,M,M,M,M,98.00,KHND 302356Z 27011G21KT 10SM CLR 39/05 A2988 RMK AO2 SLP098 T03940050 10400 20367 56019,M
LAS,2022-06-30 23:56,-115.1634,36.0719,663.00,102.00,38.00,11.09,230.00,16.00,0.00,29.84,1007.20,10.00,24.00,FEW,SCT,M,M,12000.00,20000.00,M,M,M,M,M,M,27.00,230.00,2022-06-30 23:15,96.55,KLAS 302356Z 23016G24KT 10SM FEW120 SCT200 39/03 A2984 RMK AO2 PK WND 23027/2315 SLP072 VIRGA E-SE T03890033 10394 20367 56020,M
WMC,2022-06-30 23:56,-117.8072,40.9019,1315.00,92.00,17.10,6.42,220.00,13.00,0.00,29.99,1011.00,10.00,18.00,CLR,M,M,M,M,M,M,M,M,M,M,M,M,M,M,86.10,KWMC 302356Z AUTO 22013G18KT 10SM CLR 33/M08 A2999 RMK AO2 SLP110 T03331083 10339 20294 56012,M
LSV,2022-06-30 23:58,-115.0343,36.2362,570.00,106.20,35.60,8.94,190.00,16.00,0.00,29.79,1005.70,10.00,22.00,CLR,M,M,M,M,M,M,M,M,M,M,M,26.00,200.00,2022-06-30 23:31,99.76,KLSV 302358Z AUTO 19016G22KT 10SM CLR 41/02 A2979 RMK AO2 PK WND 20026/31 SLP057 T04120020 10418 20389 57019 $,M
INS,2022-06-30 23:58,-115.6733,36.5872,955.00,98.20,26.80,7.96,220.00,16.00,0.00,29.88,1006.20,10.00,28.00,CLR,M,M,M,M,M,M,M,M,M,M,M,29.00,220.00,2022-06-30 23:21,91.75,KINS 302358Z AUTO 22016G28KT 10SM CLR 37/M03 A2988 RMK AO2 PK WND 22029/21 SLP062 T03681029 10380 20340 57016 $,M
