station,valid,lon,lat,elevation,tmpf,dwpf,relh,drct,sknt,p01i,alti,mslp,vsby,gust,skyc1,skyc2,skyc3,skyc4,skyl1,skyl2,skyl3,skyl4,wxcodes,ice_accretion_1hr,ice_accretion_3hr,ice_accretion_6hr,peak_wind_gust,peak_wind_drct,peak_wind_time,feel,metar,snowdepth
DRA,2023-02-26 00:08,-116.0278,36.6206,1009.00,32.00,30.90,95.65,250.00,3.00,0.02,29.82,M,0.50,M,VV ,M,M,M,900.00,M,M,M,SN FG,M,M,M,M,M,M,28.69,KDRA 260008Z AUTO 25003KT 1/2SM SN FG VV009 00/M01 A2982 RMK AO2 P0002 T00001006,M
DRA,2023-02-26 00:13,-116.0278,36.6206,1009.00,32.00,30.90,95.65,260.00,5.00,0.04,29.80,M,0.50,M,VV ,M,M,M,1000.00,M,M,M,SN FG,M,M,M,M,M,M,26.40,KDRA 260013Z AUTO 26005KT 1/2SM SN FG VV010 00/M01 A2980 RMK AO2 PRESFR P0004 T00001006,M
TPH,2023-02-26 00:14,-117.0904,38.0505,1654.00,32.00,30.90,95.65,190.00,9.00,0.01,29.77,M,0.50,M,VV ,M,M,M,900.00,M,M,M,SN FG,M,M,M,M,M,M,23.51,KTPH 260014Z AUTO 19009KT 1/2SM SN FG VV009 00/M01 A2977 RMK AO2 P0001 T00001006,M
BVU,2023-02-26 00:15,-114.8611,35.9475,671.00,60.80,30.20,31.28,180.00,25.00,0.00,29.72,M,10.00,31.00,SCT,BKN,M,M,7000.00,11000.00,M,M,M,M,M,M,M,M,M,60.80,KBVU 260015Z AUTO 18025G31KT 10SM SCT070 BKN110 16/M01 A2972 RMK AO2,M
RTS,2023-02-26 00:15,-119.8764,39.6682,1539.00,35.60,26.60,69.46,0.00,0.00,0.00,29.77,M,10.00,M,OVC,M,M,M,3300.00,M,M,M,-RA,M,M,M,M,M,M,35.60,KRTS 260015Z AUTO 00000KT 10SM -RA OVC033 02/M03 A2977 RMK AO2,M
MEV,2023-02-26 00:15,-119.7500,38.9963,1441.42,35.60,30.20,80.51,10.00,16.00,0.00,29.72,M,10.00,M,BKN,OVC,M,M,3400.00,4200.00,M,M,M,M,M,M,M,M,M,25.11,KMEV 260015Z AUTO 01016KT 10SM BKN034 OVC042 02/M01 A2972 RMK AO2,M
BAM,2023-02-26 00:15,-116.8743,40.5990,1382.36,46.40,32.00,57.00,60.00,5.00,0.00,29.76,M,10.00,M,OVC,M,M,M,7500.00,M,M,M,M,M,M,M,M,M,M,43.50,KBAM 260015Z AUTO 06005KT 10SM OVC075 08/00 A2976 RMK AO1,M
HTH,2023-02-26 00:15,-118.6315,38.5448,1282.89,39.20,33.80,80.79,210.00,5.00,0.00,29.74,M,10.00,M,SCT,SCT,SCT,M,4800.00,6000.00,7000.00,M,M,M,M,M,M,M,M,34.95,KHTH 260015Z AUTO 21005KT 10SM SCT048 SCT060 SCT070 04/01 A2974 RMK A01,M
TMT,2023-02-26 00:15,-117.1971,39.4643,1749.34,40.80,28.00,60.02,360.00,3.00,0.00,29.71,M,10.00,M,CLR,M,M,M,M,M,M,M,M,M,M,M,M,M,M,38.75,KTMT 260015Z AUTO 36003KT 10SM CLR 05/M02 A2971 RMK AO2 T00491022,M
DRA,2023-02-26 00:21,-116.0278,36.6206,1009.00,32.00,30.90,95.65,230.00,5.00,0.04,29.82,M,1.25,M,OVC,M,M,M,1400.00,M,M,M,-SN BR,M,M,M,M,M,M,26.40,KDRA 260021Z AUTO 23005KT 1 1/4SM -SN BR OVC014 00/M01 A2982 RMK AO2 P0004 T00001006,M
DRA,2023-02-26 00:25,-116.0278,36.6206,1009.00,32.00,30.90,95.65,220.00,7.00,0.05,29.84,M,1.50,M,OVC,M,M,M,1600.00,M,M,M,-SN BR,M,M,M,M,M,M,24.78,KDRA 260025Z AUTO 22007KT 1 1/2SM -SN BR OVC016 00/M01 A2984 RMK AO2 P0005 T00001006,M
DRA,2023-02-26 00:31,-116.0278,36.6206,1009.00,32.00,30.90,95.65,230.00,8.00,0.05,29.85,M,1.25,M,OVC,M,M,M,1600.00,M,M,M,-SN BR,M,M,M,M,M,M,24.11,KDRA 260031Z AUTO 23008KT 1 1/4SM -SN BR OVC016 00/M01 A2985 RMK AO2 PRESRR P0005 T00001006,M
INS,2023-02-26 00:32,-115.6733,36.5872,955.00,39.20,33.80,80.79,270.00,24.00,0.00,29.79,1007.90,10.00,M,FEW,SCT,BKN,OVC,500.00,1600.00,2800.00,6000.00,M,M,M,M,M,M,M,27.77,KINS 260032Z AUTO 27024KT 10SM FEW005 SCT016 BKN028 OVC060 04/01 A2979 RMK AO2 RAE32 CIG 017 RWY26 SLP079 $,M
INS,2023-02-26 00:33,-115.6733,36.5872,955.00,39.20,33.80,80.79,270.00,23.00,0.00,29.79,1007.90,10.00,M,FEW,BKN,BKN,OVC,500.00,1700.00,2800.00,6000.00,-RA,M,M,M,M,M,M,27.99,KINS 260033Z AUTO 27023KT 10SM -RA FEW005 BKN017 BKN028 OVC060 04/01 A2979 RMK AO2 RAE32RAB33 SLP079 $,M
BVU,2023-02-26 00:35,-114.8611,35.9475,671.00,57.20,37.40,47.44,230.00,19.00,0.00,29.74,M,10.00,26.00,BKN,BKN,M,M,6500.00,9000.00,M,M,M,M,M,M,M,M,M,57.20,KBVU 260035Z AUTO 23019G26KT 10SM BKN065 BKN090 14/03 A2974 RMK AO2,M
RTS,2023-02-26 00:35,-119.8764,39.6682,1539.00,35.60,28.40,74.80,260.00,4.00,0.00,29.76,M,10.00,M,OVC,M,M,M,3500.00,M,M,M,M,M,M,M,M,M,M,31.62,KRTS 260035Z AUTO 26004KT 10SM OVC035 02/M02 A2976 RMK AO2,M
MEV,2023-02-26 00:35,-119.7500,38.9963,1441.42,35.60,30.20,80.51,350.00,18.00,0.00,29.72,M,7.00,M,BKN,OVC,M,M,3200.00,3800.00,M,M,-RA,M,M,M,M,M,M,24.49,KMEV 260035Z AUTO 35018KT 7SM -RA BKN032 OVC038 02/M01 A2972 RMK AO2,M
BAM,2023-02-26 00:35,-116.8743,40.5990,1382.36,46.40,30.20,53.00,60.00,6.00,0.00,29.76,M,10.00,M,OVC,M,M,M,7500.00,M,M,M,M,M,M,M,M,M,M,42.87,KBAM 260035Z AUTO 06006KT 10SM OVC075 08/M01 A2976 RMK AO1,M
HTH,2023-02-26 00:35,-118.6315,38.5448,1282.89,39.20,33.80,80.79,310.00,5.00,0.00,29.73,M,10.00,M,FEW,SCT,BKN,M,3300.00,4800.00,5500.00,M,M,M,M,M,M,M,M,34.95,KHTH 260035Z AUTO 31005KT 10SM FEW033 SCT048 BKN055 04/01 A2973 RMK A01,M
TMT,2023-02-26 00:35,-117.1971,39.4643,1749.34,40.80,28.00,60.02,280.00,3.00,0.00,29.71,M,10.00,M,BKN,M,M,M,6500.00,M,M,M,M,M,M,M,M,M,M,38.75,KTMT 260035Z AUTO 28003KT 10SM BKN065 05/M02 A2971 RMK AO2 T00491022,M
DRA,2023-02-26 00:36,-116.0278,36.6206,1009.00,32.00,30.90,95.65,240.00,7.00,0.05,29.84,M,0.75,M,VV ,M,M,M,1400.00,M,M,M,-SN BR,M,M,M,M,M,M,24.78,KDRA 260036Z AUTO 24007KT 3/4SM -SN BR VV014 00/M01 A2984 RMK AO2 P0005 T00001006,M
TPH,2023-02-26 00:44,-117.0904,38.0505,1654.00,30.90,30.00,96.41,190.00,9.00,0.05,29.77,M,0.50,M,FEW,OVC,M,M,400.00,800.00,M,M,SN FZFG,M,M,M,M,M,M,22.15,KTPH 260044Z AUTO 19009KT 1/2SM SN FZFG FEW004 OVC008 M01/M01 A2977 RMK AO2 P0005 T10061011,M
DRA,2023-02-26 00:51,-116.0278,36.6206,1009.00,32.00,30.20,92.97,300.00,5.00,0.07,29.82,M,1.00,M,VV ,M,M,M,1100.00,M,M,M,-SN BR,M,M,M,M,M,M,26.40,KDRA 260051Z AUTO 30005KT 1SM -SN BR VV011 00/M01 A2982 RMK AO2 PRESFR P0007,M
INS,2023-02-26 00:53,-115.6733,36.5872,955.00,39.20,33.80,80.79,280.00,14.00,0.00,29.80,1008.30,10.00,26.00,BKN,BKN,BKN,OVC,1400.00,1900.00,2700.00,6000.00,-RA,M,M,M,M,M,M,30.44,KINS 260053Z AUTO 28014G26KT 10SM -RA BKN014 BKN019 BKN027 OVC060 04/01 A2980 RMK AO2 RAE32RAB33 BKN014 V SCT SLP083 $,M
P68,2023-02-26 00:53,-116.0056,39.6014,1993.00,41.00,25.00,52.61,160.00,10.00,0.00,29.74,1005.40,M,M,M,M,M,M,M,M,M,M,M,M,M,M,M,M,M,34.25,KP68 260053Z AUTO 16010KT 05/M04 A2974 RMK AO1 SLP054 T00501039,M
DRA,2023-02-26 00:53,-116.0278,36.6206,1009.00,32.00,30.90,95.65,330.00,5.00,0.07,29.81,1009.00,1.25,M,OVC,M,M,M,1000.00,M,M,M,-SN BR,M,M,M,M,M,M,26.40,KDRA 260053Z AUTO 33005KT 1 1/4SM -SN BR OVC010 00/M01 A2981 RMK AO2 PRESFR SLP090 P0007 T00001006,M
ELY,2023-02-26 00:53,-114.8453,39.2950,1909.00,36.00,26.10,66.97,170.00,15.00,0.00,29.79,1008.00,10.00,M,FEW,M,M,M,12000.00,M,M,M,M,M,M,M,M,M,M,25.97,KELY 260053Z AUTO 17015KT 10SM FEW120 02/M03 A2979 RMK AO2 SLP080 T00221033,M
LOL,2023-02-26 00:53,-118.5701,40.0684,1192.43,46.00,30.00,53.37,20.00,8.00,0.00,29.71,1006.90,10.00,M,OVC,M,M,M,8500.00,M,M,M,M,M,M,M,M,M,M,41.36,KLOL 260053Z AUTO 02008KT 10SM OVC085 08/M01 A2971 RMK AO2 SLP069 T00781011,M
VGT,2023-02-26 00:53,-115.1933,36.2111,667.00,53.00,38.00,56.17,220.00,18.00,T,29.75,1009.00,10.00,28.00,BKN,OVC,M,M,7000.00,9000.00,M,M,-RA,M,M,M,30.00,220.00,2023-02-26 00:34,53.10,KVGT 260053Z 22018G28KT 10SM -RA BKN070 OVC090 12/03 A2975 RMK AO2 PK WND 22030/0034 RAB42 SLP090 P0000 T01170033,M
BVU,2023-02-26 00:55,-114.8611,35.9475,671.00,51.80,39.20,61.99,250.00,16.00,0.00,29.75,M,10.00,23.00,FEW,OVC,M,M,4700.00,6500.00,M,M,M,M,M,M,M,M,M,51.80,KBVU 260055Z AUTO 25016G23KT 10SM FEW047 OVC065 11/04 A2975 RMK AO2,M
RNO,2023-02-26 00:55,-119.7711,39.4839,1341.00,39.00,28.90,66.79,250.00,4.00,T,29.75,1007.10,10.00,M,FEW,BKN,OVC,M,2000.00,3000.00,4000.00,M,-RASN,M,M,M,M,M,M,35.59,KRNO 260055Z 25004KT 10SM -RASN FEW020 BKN030 OVC040 04/M02 A2975 RMK AO2 RAB24SNB53 SLP071 P0000 T00391017,M
RTS,2023-02-26 00:55,-119.8764,39.6682,1539.00,35.60,26.60,69.46,0.00,0.00,0.00,29.76,M,10.00,M,OVC,M,M,M,3600.00,M,M,M,-RA,M,M,M,M,M,M,35.60,KRTS 260055Z AUTO 00000KT 10SM -RA OVC036 02/M03 A2976 RMK AO2,M
MEV,2023-02-26 00:55,-119.7500,38.9963,1441.42,35.60,30.20,80.51,360.00,20.00,0.00,29.72,M,9.00,M,OVC,M,M,M,3300.00,M,M,M,M,M,M,M,M,M,M,23.92,KMEV 260055Z AUTO 36020KT 9SM OVC033 02/M01 A2972 RMK AO2,M
BAM,2023-02-26 00:55,-116.8743,40.5990,1382.36,46.40,30.20,53.00,20.00,4.00,0.00,29.75,M,10.00,M,OVC,M,M,M,7500.00,M,M,M,M,M,M,M,M,M,M,44.24,KBAM 260055Z AUTO 02004KT 10SM OVC075 08/M01 A2975 RMK AO1,M
HTH,2023-02-26 00:55,-118.6315,38.5448,1282.89,37.40,35.60,93.14,0.00,0.00,0.00,29.74,M,10.00,M,BKN,BKN,OVC,M,2000.00,2600.00,3800.00,M,M,M,M,M,M,M,M,37.40,KHTH 260055Z AUTO 00000KT 10SM BKN020 BKN026 OVC038 03/02 A2974 RMK A01,M
TMT,2023-02-26 00:55,-117.1971,39.4643,1749.34,39.00,28.40,65.44,270.00,8.00,0.00,29.70,M,10.00,M,BKN,M,M,M,6500.00,M,M,M,M,M,M,M,M,M,M,32.74,KTMT 260055Z AUTO 27008KT 10SM BKN065 04/M02 A2970 RMK AO2 T00391020,M
INS,2023-02-26 00:55,-115.6733,36.5872,955.00,38.70,33.60,81.73,280.00,15.00,T,29.80,1008.30,10.00,26.00,BKN,BKN,OVC,M,1400.00,1900.00,2800.00,M,-RA,M,M,M,28.00,280.00,2023-02-26 00:01,29.47,KINS 260055Z AUTO 28015G26KT 10SM -RA BKN014 BKN019 OVC028 04/01 A2980 RMK AO2 PK WND 28028/01 RAE32RAB33 BKN014 V SCT SLP083 P0000 T00370009 $,M
LSV,2023-02-26 00:55,-115.0343,36.2362,570.00,55.80,36.30,47.79,200.00,22.00,0.00,29.73,1006.30,10.00,M,FEW,FEW,M,M,7500.00,8500.00,M,M,M,M,M,M,29.00,220.00,2023-02-26 00:36,55.80,KLSV 260055Z AUTO 20022KT 10SM FEW075 FEW085 13/02 A2973 RMK AO2 PK WND 22029/36 SLP063 T01320024 $,M
EKO,2023-02-26 00:56,-115.7860,40.8242,1367.00,39.00,27.00,61.78,50.00,9.00,0.00,29.77,1009.90,10.00,M,OVC,M,M,M,7000.00,M,M,M,M,M,M,M,M,M,M,32.22,KEKO 260056Z AUTO 05009KT 10SM OVC070 04/M03 A2977 RMK AO2 SLP099 T00391028,M
WMC,2023-02-26 00:56,-117.8072,40.9019,1315.00,45.00,28.00,51.08,50.00,9.00,0.00,29.72,1006.60,10.00,M,CLR,M,M,M,M,M,M,M,M,M,M,M,M,M,M,39.68,KWMC 260056Z AUTO 05009KT 10SM CLR 07/M02 A2972 RMK AO2 SLP066 T00721022,M
TPH,2023-02-26 00:56,-117.0904,38.0505,1654.00,30.90,30.00,96.41,200.00,12.00,0.05,29.78,1008.70,1.00,M,VV ,M,M,M,1100.00,M,M,M,-SN BR,M,M,M,M,M,M,20.60,KTPH 260056Z AUTO 20012KT 1SM -SN BR VV011 M01/M01 A2978 RMK AO2 SLP087 P0005 T10061011,M
LAS,2023-02-26 00:56,-115.1634,36.0719,663.00,46.00,38.00,73.18,230.00,14.00,0.01,29.78,1008.20,8.00,25.00,FEW,BKN,BKN,M,3000.00,4500.00,6500.00,M,-RA,M,M,M,30.00,220.00,2023-02-26 00:27,39.21,KLAS 260056Z 23014G25KT 8SM -RA FEW030 BKN045 BKN065 08/03 A2978 RMK AO2 PK WND 22030/0027 RAB25 SLP082 P0001 T00780033,M
NFL,2023-02-26 00:56,-118.7010,39.4166,1199.00,40.00,33.00,76.44,230.00,6.00,0.00,29.74,1005.00,10.00,M,OVC,M,M,M,5000.00,M,M,M,M,M,M,M,M,M,M,35.04,KNFL 260056Z AUTO 23006KT 10SM OVC050 04/01 A2974 RMK AO2 SLP050 T00440006 $,M
HND,2023-02-26 00:56,-115.1344,35.9729,742.79,44.00,38.00,78.66,220.00,8.00,0.03,29.81,1011.60,9.00,20.00,OVC,M,M,M,4600.00,M,M,M,-RA,M,M,M,30.00,230.00,2023-02-26 00:21,39.02,KHND 260056Z 22008G20KT 9SM -RA OVC046 07/03 A2981 RMK AO2 PK WND 23030/0021 SLP116 P0003 T00670033,M
DRA,2023-02-26 00:59,-116.0278,36.6206,1009.00,32.00,30.90,95.65,280.00,4.00,0.01,29.82,M,1.00,M,VV ,M,M,M,800.00,M,M,M,-SN BR,M,M,M,M,M,M,27.42,KDRA 260059Z AUTO 28004KT 1SM -SN BR VV008 00/M01 A2982 RMK AO2 P0001 T00001006,M
INS,2023-02-26 01:00,-115.6733,36.5872,955.00,39.20,33.80,80.79,280.00,11.00,0.00,29.79,1007.90,10.00,M,OVC,M,M,M,1600.00,M,M,M,-RA,M,M,M,M,M,M,31.57,KINS 260100Z AUTO 28011KT 10SM -RA OVC016 04/01 A2979 RMK AO2 OVC V BKN SLP079 $,M
RNO,2023-02-26 01:01,-119.7711,39.4839,1341.00,39.00,28.00,64.37,270.00,5.00,T,29.75,M,10.00,M,FEW,BKN,OVC,M,2000.00,3000.00,4000.00,M,M,M,M,M,M,M,M,34.71,KRNO 260101Z 27005KT 10SM FEW020 BKN030 OVC040 04/M02 A2975 RMK AO2 RAE01SNE01 P0000 T00391022,M
DRA,2023-02-26 01:03,-116.0278,36.6206,1009.00,32.00,30.90,95.65,260.00,4.00,0.02,29.83,M,0.75,M,VV ,M,M,M,800.00,M,M,M,-SN BR,M,M,M,M,M,M,27.42,KDRA 260103Z AUTO 26004KT 3/4SM -SN BR VV008 00/M01 A2983 RMK AO2 P0002 T00001006,M
INS,2023-02-26 01:05,-115.6733,36.5872,955.00,37.40,33.80,86.69,280.00,11.00,0.00,29.80,1008.50,9.00,M,BKN,OVC,M,M,1300.00,1800.00,M,M,-RA,M,M,M,M,M,M,29.29,KINS 260105Z AUTO 28011KT 9SM -RA BKN013 OVC018 03/01 A2980 RMK AO2 SLP085 $,M
BVU,2023-02-26 01:15,-114.8611,35.9475,671.00,50.00,39.20,66.27,250.00,13.00,0.00,29.76,M,10.00,M,OVC,M,M,M,6500.00,M,M,M,M,M,M,M,M,M,M,50.00,KBVU 260115Z AUTO 25013KT 10SM OVC065 10/04 A2976 RMK AO2,M
INS,2023-02-26 01:15,-115.6733,36.5872,955.00,39.20,33.80,80.79,300.00,11.00,0.00,29.81,1008.60,10.00,M,BKN,OVC,M,M,900.00,1500.00,M,M,-RA,M,M,M,M,M,M,31.57,KINS 260115Z AUTO 30011KT 10SM -RA BKN009 OVC015 04/01 A2981 RMK AO2 BKN V SCT SLP086 $,M
DRA,2023-02-26 01:15,-116.0278,36.6206,1009.00,32.00,30.90,95.65,220.00,5.00,0.03,29.83,M,1.00,M,VV ,M,M,M,1000.00,M,M,M,-SN BR,M,M,M,M,M,M,26.40,KDRA 260115Z AUTO 22005KT 1SM -SN BR VV010 00/M01 A2983 RMK AO2 P0003 T00001006,M
RTS,2023-02-26 01:15,-119.8764,39.6682,1539.00,35.60,26.60,69.46,290.00,5.00,0.00,29.76,M,10.00,M,OVC,M,M,M,3600.00,M,M,M,M,M,M,M,M,M,M,30.67,KRTS 260115Z AUTO 29005KT 10SM OVC036 02/M03 A2976 RMK AO2,M
MEV,2023-02-26 01:15,-119.7500,38.9963,1441.42,35.60,30.20,80.51,360.00,14.00,0.00,29.73,M,8.00,M,BKN,BKN,M,M,3000.00,3500.00,M,M,-SN,M,M,M,M,M,M,25.80,KMEV 260115Z AUTO 36014KT 8SM -SN BKN030 BKN035 02/M01 A2973 RMK AO2,M
BAM,2023-02-26 01:15,-116.8743,40.5990,1382.36,44.60,30.20,56.74,50.00,3.00,0.00,29.75,M,10.00,M,OVC,M,M,M,7500.00,M,M,M,M,M,M,M,M,M,M,43.09,KBAM 260115Z AUTO 05003KT 10SM OVC075 07/M01 A2975 RMK AO1,M
HTH,2023-02-26 01:15,-118.6315,38.5448,1282.89,37.40,35.60,93.14,90.00,7.00,0.00,29.74,M,10.00,M,FEW,BKN,OVC,M,600.00,2000.00,2500.00,M,M,M,M,M,M,M,M,31.36,KHTH 260115Z AUTO 09007KT 10SM FEW006 BKN020 OVC025 03/02 A2974 RMK A01,M
TMT,2023-02-26 01:15,-117.1971,39.4643,1749.34,38.00,28.40,68.32,0.00,0.00,0.00,29.71,M,10.00,M,SCT,M,M,M,6000.00,M,M,M,M,M,M,M,M,M,M,37.90,KTMT 260115Z AUTO 00000KT 10SM SCT060 03/M02 A2971 RMK AO2 T00331020,M
TPH,2023-02-26 01:24,-117.0904,38.0505,1654.00,30.00,30.00,100.00,200.00,4.00,0.02,29.75,M,0.50,M,VV ,M,M,M,900.00,M,M,M,SN FZFG,M,M,M,M,M,M,25.08,KTPH 260124Z AUTO 20004KT 1/2SM SN FZFG VV009 M01/M01 A2975 RMK AO2 PRESFR P0002 T10111011,M
DRA,2023-02-26 01:33,-116.0278,36.6206,1009.00,32.00,30.90,95.65,230.00,5.00,0.05,29.82,M,1.50,M,OVC,M,M,M,1300.00,M,M,M,-SN BR,M,M,M,M,M,M,26.40,KDRA 260133Z AUTO 23005KT 1 1/2SM -SN BR OVC013 00/M01 A2982 RMK AO2 P0005 T00001006,M
BVU,2023-02-26 01:35,-114.8611,35.9475,671.00,50.00,41.00,71.07,210.00,12.00,0.00,29.78,M,10.00,M,SCT,BKN,OVC,M,4300.00,5000.00,6000.00,M,M,M,M,M,M,M,M,50.00,KBVU 260135Z AUTO 21012KT 10SM SCT043 BKN050 OVC060 10/05 A2978 RMK AO2,M
INS,2023-02-26 01:35,-115.6733,36.5872,955.00,37.40,35.60,93.14,330.00,11.00,0.00,29.78,1007.80,10.00,M,OVC,M,M,M,900.00,M,M,M,-SN,M,M,M,M,M,M,29.29,KINS 260135Z AUTO 33011KT 10SM -SN OVC009 03/02 A2978 RMK AO2 RAE35SNB35 OVC V BKN PRESFR SLP078 $,M
RTS,2023-02-26 01:35,-119.8764,39.6682,1539.00,35.60,26.60,69.46,300.00,6.00,0.00,29.76,M,10.00,M,OVC,M,M,M,3500.00,M,M,M,M,M,M,M,M,M,M,29.87,KRTS 260135Z AUTO 30006KT 10SM OVC035 02/M03 A2976 RMK AO2,M
MEV,2023-02-26 01:35,-119.7500,38.9963,1441.42,35.60,30.20,80.51,360.00,12.00,0.00,29.73,M,8.00,M,SCT,SCT,M,M,2800.00,3600.00,M,M,-SN,M,M,M,M,M,M,26.58,KMEV 260135Z AUTO 36012KT 8SM -SN SCT028 SCT036 02/M01 A2973 RMK AO2,M
BAM,2023-02-26 01:35,-116.8743,40.5990,1382.36,44.60,30.20,56.74,60.00,5.00,0.00,29.75,M,10.00,M,OVC,M,M,M,7500.00,M,M,M,M,M,M,M,M,M,M,41.36,KBAM 260135Z AUTO 06005KT 10SM OVC075 07/M01 A2975 RMK AO1,M
HTH,2023-02-26 01:35,-118.6315,38.5448,1282.89,37.40,33.80,86.69,100.00,13.00,0.00,29.73,M,10.00,M,FEW,OVC,M,M,1800.00,2700.00,M,M,M,M,M,M,M,M,M,28.49,KHTH 260135Z AUTO 10013KT 10SM FEW018 OVC027 03/01 A2973 RMK A01,M
TMT,2023-02-26 01:35,-117.1971,39.4643,1749.34,36.70,28.20,71.03,0.00,0.00,0.00,29.71,M,10.00,M,SCT,M,M,M,6000.00,M,M,M,M,M,M,M,M,M,M,36.70,KTMT 260135Z AUTO 00000KT 10SM SCT060 03/M02 A2971 RMK AO2 T00261021,M
INS,2023-02-26 01:37,-115.6733,36.5872,955.00,37.40,33.80,86.69,330.00,11.00,0.00,29.79,1008.20,10.00,M,OVC,M,M,M,900.00,M,M,M,-RA,M,M,M,M,M,M,29.29,KINS 260137Z AUTO 33011KT 10SM -RA OVC009 03/01 A2979 RMK AO2 RAE35SNB35E37RAB37 SLP082 $,M
DRA,2023-02-26 01:38,-116.0278,36.6206,1009.00,32.00,30.90,95.65,250.00,6.00,0.05,29.80,M,1.00,M,VV ,M,M,M,1300.00,M,M,M,-SN BR,M,M,M,M,M,M,25.53,KDRA 260138Z AUTO 25006KT 1SM -SN BR VV013 00/M01 A2980 RMK AO2 P0005 T00001006,M
LAS,2023-02-26 01:39,-115.1634,36.0719,663.00,45.00,38.00,76.01,220.00,10.00,0.06,29.79,M,3.00,19.00,FEW,BKN,OVC,M,1500.00,3500.00,6000.00,M,RA,M,M,M,M,M,M,39.27,KLAS 260139Z 22010G19KT 3SM RA FEW015 BKN035 OVC060 07/03 A2979 RMK AO2 VIS SW-NW 2 P0006 T00720033,M
LSV,2023-02-26 01:40,-115.0343,36.2362,570.00,51.80,37.40,57.77,220.00,24.00,0.00,29.75,1007.20,10.00,M,FEW,SCT,M,M,2300.00,7000.00,M,M,-RA,M,M,M,M,M,M,51.80,KLSV 260140Z AUTO 22024KT 10SM -RA FEW023 SCT070 11/03 A2975 RMK AO2 RAB40 SLP072 $,M
TPH,2023-02-26 01:43,-117.0904,38.0505,1654.00,30.00,28.90,95.61,190.00,8.00,0.04,29.76,M,0.75,M,VV ,M,M,M,1300.00,M,M,M,-SN BR,M,M,M,M,M,M,21.65,KTPH 260143Z AUTO 19008KT 3/4SM -SN BR VV013 M01/M02 A2976 RMK AO2 P0004 T10111017,M
INS,2023-02-26 01:50,-115.6733,36.5872,955.00,37.40,33.80,86.69,360.00,14.00,0.00,29.81,1008.80,10.00,M,OVC,M,M,M,900.00,M,M,M,-RA,M,M,M,M,M,M,28.12,KINS 260150Z AUTO 36014KT 10SM -RA OVC009 03/01 A2981 RMK AO2 WSHFT 44 RAE35SNB35E37RAB37 PRESRR SLP088 $,M
TPH,2023-02-26 01:50,-117.0904,38.0505,1654.00,30.20,28.40,92.92,180.00,10.00,0.04,29.78,M,1.50,M,BKN,OVC,M,M,1600.00,3900.00,M,M,-SN BR,M,M,M,M,M,M,20.71,KTPH 260150Z AUTO 18010KT 1 1/2SM -SN BR BKN016 OVC039 M01/M02 A2978 RMK AO2 PRESRR P0004,M
P68,2023-02-26 01:53,-116.0056,39.6014,1993.00,40.00,25.00,54.90,180.00,22.00,0.00,29.71,1004.50,M,31.00,M,M,M,M,M,M,M,M,M,M,M,M,37.00,190.00,2023-02-26 01:34,29.16,KP68 260153Z AUTO 18022G31KT 04/M04 A2971 RMK AO1 PK WND 19037/0134 SLP045 T00441039,M
DRA,2023-02-26 01:53,-116.0278,36.6206,1009.00,32.00,30.90,95.65,260.00,6.00,0.06,29.82,1009.00,2.00,M,OVC,M,M,M,1200.00,M,M,M,-SN BR,M,M,M,M,M,M,25.53,KDRA 260153Z AUTO 26006KT 2SM -SN BR OVC012 00/M01 A2982 RMK AO2 SLP090 P0006 T00001006,M
ELY,2023-02-26 01:53,-114.8453,39.2950,1909.00,36.00,24.10,61.62,190.00,12.00,0.00,29.77,1007.80,10.00,M,FEW,SCT,M,M,6500.00,11000.00,M,M,M,M,M,M,M,M,M,27.09,KELY 260153Z AUTO 19012KT 10SM FEW065 SCT110 02/M04 A2977 RMK AO2 SLP078 T00221044,M
VGT,2023-02-26 01:53,-115.1933,36.2111,667.00,48.00,41.00,76.58,260.00,11.00,0.05,29.79,1010.60,4.00,M,OVC,M,M,M,3800.00,M,M,M,-RA,M,M,M,M,M,M,42.69,KVGT 260153Z 26011KT 4SM -RA OVC038 09/05 A2979 RMK AO2 SLP106 P0005 T00890050,M
LOL,2023-02-26 01:53,-118.5701,40.0684,1192.43,42.00,32.00,67.17,280.00,3.00,0.00,29.72,1007.20,10.00,M,OVC,M,M,M,8000.00,M,M,M,M,M,M,M,M,M,M,40.23,KLOL 260153Z AUTO 28003KT 10SM OVC080 06/00 A2972 RMK AO2 SLP072 T00560000,M
BVU,2023-02-26 01:55,-114.8611,35.9475,671.00,46.40,41.00,81.34,230.00,9.00,0.00,29.80,M,4.00,14.00,FEW,BKN,OVC,M,2500.00,3200.00,4100.00,M,-RA,M,M,M,M,M,M,41.42,KBVU 260155Z AUTO 23009G14KT 4SM -RA FEW025 BKN032 OVC041 08/05 A2980 RMK AO2,M
INS,2023-02-26 01:55,-115.6733,36.5872,955.00,35.80,33.60,91.61,30.00,14.00,0.02,29.81,1008.80,10.00,M,BKN,OVC,M,M,900.00,1400.00,M,M,-RA,M,M,M,M,M,M,26.06,KINS 260155Z AUTO 03014KT 10SM -RA BKN009 OVC014 02/01 A2981 RMK AO2 RAE35SNB35E37RAB37 BKN V OVC SLP088 P0002 T00210009 $,M
RNO,2023-02-26 01:55,-119.7711,39.4839,1341.00,37.00,30.90,78.37,280.00,6.00,T,29.75,1007.30,10.00,M,FEW,BKN,OVC,M,2000.00,3500.00,4500.00,M,-RA,M,M,M,M,M,M,31.55,KRNO 260155Z 28006KT 10SM -RA FEW020 BKN035 OVC045 03/M01 A2975 RMK AO2 RAE01B53SNE01 SLP073 P0000 T00281006,M
LSV,2023-02-26 01:55,-115.0343,36.2362,570.00,48.60,39.20,69.82,220.00,17.00,T,29.78,1008.40,9.00,M,SCT,SCT,BKN,M,2400.00,3000.00,7000.00,M,-RA,M,M,M,29.00,210.00,2023-02-26 00:57,41.82,KLSV 260155Z AUTO 22017KT 9SM -RA SCT024 SCT030 BKN070 09/04 A2978 RMK AO2 PK WND 21029/0057 RAB40 PRESRR SLP084 P0000 T00920040 $,M
RTS,2023-02-26 01:55,-119.8764,39.6682,1539.00,33.80,26.60,74.63,310.00,5.00,0.00,29.76,M,10.00,M,OVC,M,M,M,3400.00,M,M,M,-RA,M,M,M,M,M,M,28.53,KRTS 260155Z AUTO 31005KT 10SM -RA OVC034 01/M03 A2976 RMK AO2,M
MEV,2023-02-26 01:55,-119.7500,38.9963,1441.42,35.60,32.00,86.59,350.00,8.00,0.00,29.73,M,10.00,M,FEW,BKN,BKN,M,400.00,2700.00,3200.00,M,M,M,M,M,M,M,M,28.55,KMEV 260155Z AUTO 35008KT 10SM FEW004 BKN027 BKN032 02/M00 A2973 RMK AO2,M
BAM,2023-02-26 01:55,-116.8743,40.5990,1382.36,42.80,30.20,60.79,80.00,5.00,0.00,29.74,M,10.00,M,OVC,M,M,M,7500.00,M,M,M,M,M,M,M,M,M,M,39.22,KBAM 260155Z AUTO 08005KT 10SM OVC075 06/M01 A2974 RMK AO1,M
HTH,2023-02-26 01:55,-118.6315,38.5448,1282.89,37.40,33.80,86.69,110.00,10.00,0.00,29.74,M,10.00,M,BKN,OVC,M,M,2800.00,3400.00,M,M,M,M,M,M,M,M,M,29.74,KHTH 260155Z AUTO 11010KT 10SM BKN028 OVC034 03/01 A2974 RMK A01,M
TMT,2023-02-26 01:55,-117.1971,39.4643,1749.34,37.80,27.30,65.55,320.00,3.00,0.00,29.70,M,10.00,M,CLR,M,M,M,M,M,M,M,M,M,M,M,M,M,M,35.32,KTMT 260155Z AUTO 32003KT 10SM CLR 03/M03 A2970 RMK AO2 T00321026,M
EKO,2023-02-26 01:56,-115.7860,40.8242,1367.00,38.00,27.00,64.49,60.00,7.00,0.00,29.76,1009.70,10.00,M,OVC,M,M,M,7000.00,M,M,M,M,M,M,M,M,M,M,31.97,KEKO 260156Z AUTO 06007KT 10SM OVC070 03/M03 A2976 RMK AO2 SLP097 T00331028,M
WMC,2023-02-26 01:56,-117.8072,40.9019,1315.00,42.00,28.00,57.08,310.00,4.00,0.00,29.73,1007.00,10.00,M,CLR,M,M,M,M,M,M,M,M,M,M,M,M,M,M,39.21,KWMC 260156Z AUTO 31004KT 10SM CLR 06/M02 A2973 RMK AO2 SLP070 T00561022,M
NFL,2023-02-26 01:56,-118.7010,39.4166,1199.00,38.00,32.00,79.08,200.00,9.00,0.00,29.73,1004.90,10.00,M,OVC,M,M,M,5000.00,M,M,M,M,M,M,M,M,M,M,30.85,KNFL 260156Z AUTO 20009KT 10SM OVC050 03/00 A2973 RMK AO2 SLP049 T00330000 $,M
HND,2023-02-26 01:56,-115.1344,35.9729,742.79,41.00,37.00,85.54,180.00,11.00,0.07,29.82,1012.30,10.00,M,OVC,M,M,M,3200.00,M,M,M,-RA,M,M,M,M,M,M,33.84,KHND 260156Z 18011KT 10SM -RA OVC032 05/03 A2982 RMK AO2 SLP123 P0007 T00500028,M
TPH,2023-02-26 01:56,-117.0904,38.0505,1654.00,30.00,28.90,95.61,180.00,10.00,0.04,29.78,1008.60,3.00,M,BKN,BKN,OVC,M,1600.00,2700.00,3900.00,M,-SN BR,M,M,M,M,M,M,20.46,KTPH 260156Z AUTO 18010KT 3SM -SN BR BKN016 BKN027 OVC039 M01/M02 A2978 RMK AO2 SLP086 P0004 T10111017,M
LAS,2023-02-26 01:56,-115.1634,36.0719,663.00,44.00,39.00,82.12,200.00,9.00,0.13,29.81,1009.30,3.00,M,FEW,SCT,OVC,M,1500.00,2000.00,3000.00,M,RA,M,M,M,M,M,M,38.56,KLAS 260156Z 20009KT 3SM RA FEW015 SCT020 OVC030 07/04 A2981 RMK AO2 SLP093 VIS SW-NW 2 P0013 T00670039,M
INS,2023-02-26 01:59,-115.6733,36.5872,955.00,35.60,33.80,93.08,30.00,12.00,0.00,29.80,1008.50,10.00,M,BKN,M,M,M,900.00,M,M,M,-SN,M,M,M,M,M,M,26.58,KINS 260159Z AUTO 03012KT 10SM -SN BKN009 02/01 A2980 RMK AO2 RAE59SNB59 BKN V OVC SLP085 $,M
LSV,2023-02-26 01:59,-115.0343,36.2362,570.00,48.20,39.20,70.88,210.00,16.00,0.00,29.78,1008.40,9.00,M,SCT,BKN,BKN,M,2400.00,3100.00,7000.00,M,RA,M,M,M,M,M,M,41.53,KLSV 260159Z AUTO 21016KT 9SM RA SCT024 BKN031 BKN070 09/04 A2978 RMK AO2 SLP084 $,M
TPH,2023-02-26 02:03,-117.0904,38.0505,1654.00,30.00,28.90,95.61,170.00,8.00,T,29.77,M,3.00,M,FEW,BKN,OVC,M,500.00,2400.00,3900.00,M,-SN BR,M,M,M,M,M,M,21.65,KTPH 260203Z AUTO 17008KT 3SM -SN BR FEW005 BKN024 OVC039 M01/M02 A2977 RMK AO2 P0000 T10111017,M
DRA,2023-02-26 02:05,-116.0278,36.6206,1009.00,32.00,30.90,95.65,310.00,4.00,0.01,29.81,M,2.00,M,FEW,OVC,M,M,400.00,1300.00,M,M,-SN BR,M,M,M,M,M,M,27.42,KDRA 260205Z AUTO 31004KT 2SM -SN BR FEW004 OVC013 00/M01 A2981 RMK AO2 P0001 T00001006,M
LSV,2023-02-26 02:05,-115.0343,36.2362,570.00,48.20,39.20,70.88,220.00,15.00,0.00,29.78,1008.40,9.00,M,BKN,BKN,M,M,2600.00,3100.00,M,M,-RA,M,M,M,M,M,M,41.78,KLSV 260205Z AUTO 22015KT 9SM -RA BKN026 BKN031 09/04 A2978 RMK AO2 CIG 026V070 BKN026 V SCT SLP084 $,M
INS,2023-02-26 02:12,-115.6733,36.5872,955.00,33.80,33.80,100.00,20.00,12.00,0.00,29.80,1008.70,9.00,M,BKN,BKN,OVC,M,700.00,1300.00,2200.00,M,-RA,M,M,M,M,M,M,24.29,KINS 260212Z AUTO 02012KT 9SM -RA BKN007 BKN013 OVC022 01/01 A2980 RMK AO2 RAE0159SNB0159E12RAB12 SLP087 $,M
LSV,2023-02-26 02:14,-115.0343,36.2362,570.00,46.40,39.20,75.84,210.00,13.00,0.00,29.78,1008.40,10.00,M,SCT,BKN,M,M,2600.00,3100.00,M,M,-RA,M,M,M,M,M,M,40.02,KLSV 260214Z AUTO 21013KT 10SM -RA SCT026 BKN031 08/04 A2978 RMK AO2 SLP084 $,M
BVU,2023-02-26 02:15,-114.8611,35.9475,671.00,44.60,41.00,87.09,220.00,7.00,0.00,29.81,M,4.00,M,FEW,SCT,BKN,M,1500.00,2600.00,3700.00,M,-RA,M,M,M,M,M,M,40.14,KBVU 260215Z AUTO 22007KT 4SM -RA FEW015 SCT026 BKN037 07/05 A2981 RMK AO2,M
DRA,2023-02-26 02:15,-116.0278,36.6206,1009.00,32.00,30.90,95.65,300.00,6.00,0.01,29.81,M,3.00,M,FEW,OVC,M,M,400.00,1300.00,M,M,-SN BR,M,M,M,M,M,M,25.53,KDRA 260215Z AUTO 30006KT 3SM -SN BR FEW004 OVC013 00/M01 A2981 RMK AO2 P0001 T00001006,M
RTS,2023-02-26 02:15,-119.8764,39.6682,1539.00,33.80,28.40,80.36,330.00,4.00,0.00,29.76,M,10.00,M,M,M,M,M,M,M,M,M,-RA,M,M,M,M,M,M,29.52,KRTS 260215Z AUTO 33004KT 10SM -RA 01/M02 A2976 RMK AO2,M
MEV,2023-02-26 02:15,-119.7500,38.9963,1441.42,33.80,32.00,93.03,350.00,10.00,0.00,29.73,M,10.00,M,FEW,BKN,OVC,M,2500.00,3000.00,3500.00,M,M,M,M,M,M,M,M,25.23,KMEV 260215Z AUTO 35010KT 10SM FEW025 BKN030 OVC035 01/M00 A2973 RMK AO2,M
BAM,2023-02-26 02:15,-116.8743,40.5990,1382.36,42.80,30.20,60.79,70.00,5.00,0.00,29.74,M,10.00,M,OVC,M,M,M,7500.00,M,M,M,M,M,M,M,M,M,M,39.22,KBAM 260215Z AUTO 07005KT 10SM OVC075 06/M01 A2974 RMK AO1,M
HTH,2023-02-26 02:15,-118.6315,38.5448,1282.89,37.40,33.80,86.69,0.00,0.00,0.00,29.74,M,10.00,M,FEW,SCT,OVC,M,2900.00,3400.00,6500.00,M,M,M,M,M,M,M,M,37.40,KHTH 260215Z AUTO 00000KT 10SM FEW029 SCT034 OVC065 03/01 A2974 RMK A01,M
TMT,2023-02-26 02:15,-117.1971,39.4643,1749.34,37.00,27.30,67.65,0.00,0.00,0.00,29.71,M,10.00,M,CLR,M,M,M,M,M,M,M,M,M,M,M,M,M,M,37.00,KTMT 260215Z AUTO 00000KT 10SM CLR 03/M03 A2971 RMK AO2 T00281026,M
LSV,2023-02-26 02:16,-115.0343,36.2362,570.00,46.40,39.20,75.84,210.00,12.00,0.00,29.78,1008.40,10.00,M,BKN,BKN,M,M,2500.00,3000.00,M,M,-RA,M,M,M,M,M,M,40.33,KLSV 260216Z AUTO 21012KT 10SM -RA BKN025 BKN030 08/04 A2978 RMK AO2 CIG 025V031 SLP084 $,M
LSV,2023-02-26 02:17,-115.0343,36.2362,570.00,46.40,39.20,75.84,210.00,12.00,0.00,29.78,1008.40,10.00,M,BKN,M,M,M,2700.00,M,M,M,M,M,M,M,M,M,M,40.33,KLSV 260217Z AUTO 21012KT 10SM BKN027 08/04 A2978 RMK AO2 RAE16 CIG 025V031 SLP084 $,M
DRA,2023-02-26 02:19,-116.0278,36.6206,1009.00,32.00,30.90,95.65,310.00,4.00,0.01,29.81,M,2.50,M,FEW,OVC,M,M,400.00,1600.00,M,M,-SN BR,M,M,M,M,M,M,27.42,KDRA 260219Z AUTO 31004KT 2 1/2SM -SN BR FEW004 OVC016 00/M01 A2981 RMK AO2 P0001 T00001006,M
INS,2023-02-26 02:25,-115.6733,36.5872,955.00,35.60,33.80,93.08,30.00,10.00,0.00,29.82,1009.20,10.00,M,BKN,OVC,M,M,800.00,2200.00,M,M,-SN,M,M,M,M,M,M,27.48,KINS 260225Z AUTO 03010KT 10SM -SN BKN008 OVC022 02/01 A2982 RMK AO2 RAE0159SNB0159E12RAB12E25SNB25 PRESRR SLP092 $,M
DRA,2023-02-26 02:29,-116.0278,36.6206,1009.00,33.00,32.00,95.67,0.00,0.00,0.01,29.81,M,8.00,M,FEW,OVC,M,M,400.00,3700.00,M,M,-SN,M,M,M,M,M,M,33.10,KDRA 260229Z AUTO 00000KT 8SM -SN FEW004 OVC037 01/00 A2981 RMK AO2 P0001 T00060000,M
INS,2023-02-26 02:30,-115.6733,36.5872,955.00,35.60,33.80,93.08,30.00,12.00,0.00,29.80,1008.50,10.00,M,BKN,OVC,M,M,600.00,2200.00,M,M,-SN,M,M,M,M,M,M,26.58,KINS 260230Z AUTO 03012KT 10SM -SN BKN006 OVC022 02/01 A2980 RMK AO2 RAE0159SNB0159E12RAB12E25SNB25 PRESFR SLP085 $,M
LSV,2023-02-26 02:31,-115.0343,36.2362,570.00,46.40,39.20,75.84,210.00,11.00,0.00,29.78,1008.40,9.00,M,SCT,BKN,M,M,2100.00,2800.00,M,M,-RA,M,M,M,M,M,M,40.66,KLSV 260231Z AUTO 21011KT 9SM -RA SCT021 BKN028 08/04 A2978 RMK AO2 RAE16RAB31 SLP084 $,M
BVU,2023-02-26 02:35,-114.8611,35.9475,671.00,42.80,41.00,93.30,210.00,7.00,0.00,29.82,M,3.00,M,FEW,SCT,BKN,M,400.00,1500.00,2300.00,M,RA,M,M,M,M,M,M,37.94,KBVU 260235Z AUTO 21007KT 3SM RA FEW004 SCT015 BKN023 06/05 A2982 RMK AO2,M
RTS,2023-02-26 02:35,-119.8764,39.6682,1539.00,33.80,28.40,80.36,340.00,8.00,0.00,29.76,M,8.00,M,FEW,SCT,BKN,M,1900.00,2600.00,3500.00,M,-RA,M,M,M,M,M,M,26.33,KRTS 260235Z AUTO 34008KT 8SM -RA FEW019 SCT026 BKN035 01/M02 A2976 RMK AO2,M
MEV,2023-02-26 02:35,-119.7500,38.9963,1441.42,33.80,32.00,93.03,350.00,11.00,0.00,29.73,M,9.00,16.00,SCT,OVC,M,M,2500.00,3500.00,M,M,UP,M,M,M,M,M,M,24.74,KMEV 260235Z AUTO 35011G16KT 9SM UP SCT025 OVC035 01/M00 A2973 RMK AO2,M
BAM,2023-02-26 02:35,-116.8743,40.5990,1382.36,41.00,30.20,65.16,80.00,3.00,0.00,29.75,M,10.00,M,OVC,M,M,M,7500.00,M,M,M,M,M,M,M,M,M,M,38.98,KBAM 260235Z AUTO 08003KT 10SM OVC075 05/M01 A2975 RMK AO1,M
HTH,2023-02-26 02:35,-118.6315,38.5448,1282.89,37.40,33.80,86.69,0.00,0.00,0.00,29.72,M,10.00,M,BKN,OVC,M,M,7000.00,7500.00,M,M,M,M,M,M,M,M,M,37.40,KHTH 260235Z AUTO 00000KT 10SM BKN070 OVC075 03/01 A2972 RMK A01,M
TMT,2023-02-26 02:35,-117.1971,39.4643,1749.34,34.30,27.50,75.92,290.00,7.00,0.00,29.70,M,10.00,M,BKN,M,M,M,6500.00,M,M,M,M,M,M,M,M,M,M,27.58,KTMT 260235Z AUTO 29007KT 10SM BKN065 01/M02 A2970 RMK AO2 T00131025,M
LSV,2023-02-26 02:36,-115.0343,36.2362,570.00,46.40,39.20,75.84,210.00,14.00,0.00,29.79,1008.70,10.00,M,SCT,SCT,M,M,1800.00,2400.00,M,M,-RA,M,M,M,M,M,M,39.72,KLSV 260236Z AUTO 21014KT 10SM -RA SCT018 SCT024 08/04 A2979 RMK AO2 RAE16RAB31 SLP087 $,M
LSV,2023-02-26 02:37,-115.0343,36.2362,570.00,46.40,39.20,75.84,210.00,14.00,0.00,29.79,1008.70,10.00,M,FEW,BKN,M,M,1500.00,2300.00,M,M,-RA,M,M,M,M,M,M,39.72,KLSV 260237Z AUTO 21014KT 10SM -RA FEW015 BKN023 08/04 A2979 RMK AO2 RAE16RAB31 CIG 023V028 SLP087 $,M
TPH,2023-02-26 02:38,-117.0904,38.0505,1654.00,30.00,30.00,100.00,180.00,6.00,0.01,29.77,M,1.25,M,OVC,M,M,M,1400.00,M,M,M,-SN BR,M,M,M,M,M,M,23.12,KTPH 260238Z AUTO 18006KT 1 1/4SM -SN BR OVC014 M01/M01 A2977 RMK AO2 P0001 T10111011,M
LSV,2023-02-26 02:40,-115.0343,36.2362,570.00,46.40,41.00,81.34,210.00,12.00,0.00,29.79,1008.70,10.00,M,FEW,SCT,M,M,1500.00,2300.00,M,M,-RA,M,M,M,M,M,M,40.33,KLSV 260240Z AUTO 21012KT 10SM -RA FEW015 SCT023 08/05 A2979 RMK AO2 RAE16RAB31 SLP087 $,M
LSV,2023-02-26 02:48,-115.0343,36.2362,570.00,46.40,41.00,81.34,210.00,11.00,0.00,29.79,1008.70,10.00,M,SCT,BKN,M,M,1400.00,2100.00,M,M,-RA,M,M,M,M,M,M,40.66,KLSV 260248Z AUTO 21011KT 10SM -RA SCT014 BKN021 08/05 A2979 RMK AO2 RAE16RAB31 SLP087 $,M
P68,2023-02-26 02:53,-116.0056,39.6014,1993.00,38.00,28.00,67.20,180.00,11.00,0.00,29.71,1004.90,M,21.00,M,M,M,M,M,M,M,M,M,M,M,M,35.00,190.00,2023-02-26 01:56,29.92,KP68 260253Z AUTO 18011G21KT 03/M02 A2971 RMK AO1 PK WND 19035/0156 SLP049 T00331022 55009,M
DRA,2023-02-26 02:53,-116.0278,36.6206,1009.00,33.00,30.90,91.51,120.00,5.00,0.02,29.81,1008.80,10.00,M,BKN,OVC,M,M,4200.00,7000.00,M,M,M,M,M,M,M,M,M,27.70,KDRA 260253Z AUTO 12005KT 10SM BKN042 OVC070 01/M01 A2981 RMK AO2 SNE30 SLP088 P0002 60015 T00061006 56004,M
ELY,2023-02-26 02:53,-114.8453,39.2950,1909.00,35.00,23.00,60.99,200.00,12.00,0.00,29.75,1007.00,10.00,M,FEW,M,M,M,6000.00,M,M,M,M,M,M,M,26.00,200.00,2023-02-26 02:26,25.95,KELY 260253Z AUTO 20012KT 10SM FEW060 02/M05 A2975 RMK AO2 PK WND 20026/0226 SLP070 T00171050 58008,M
LOL,2023-02-26 02:53,-118.5701,40.0684,1192.43,42.00,30.90,64.24,0.00,0.00,0.00,29.71,1007.10,10.00,M,OVC,M,M,M,9500.00,M,M,M,M,M,M,M,M,M,M,42.10,KLOL 260253Z AUTO 00000KT 10SM OVC095 06/M01 A2971 RMK AO2 SLP071 T00561006 56004,M
VGT,2023-02-26 02:53,-115.1933,36.2111,667.00,43.00,38.00,82.04,290.00,8.00,0.13,29.81,1011.50,4.00,M,SCT,OVC,M,M,2100.00,2800.00,M,M,RA,M,M,M,M,M,M,37.66,KVGT 260253Z 29008KT 4SM RA SCT021 OVC028 06/03 A2981 RMK AO2 SLP115 P0013 60018 T00610033 51025,M
LSV,2023-02-26 02:54,-115.0343,36.2362,570.00,44.60,39.20,81.20,200.00,12.00,0.00,29.79,1008.70,10.00,M,SCT,SCT,M,M,1400.00,2100.00,M,M,-RA,M,M,M,M,M,M,38.04,KLSV 260254Z AUTO 20012KT 10SM -RA SCT014 SCT021 07/04 A2979 RMK AO2 RAE16RAB31 SLP087 $,M
BVU,2023-02-26 02:55,-114.8611,35.9475,671.00,42.80,41.00,93.30,200.00,8.00,0.00,29.82,M,3.00,M,FEW,SCT,OVC,M,400.00,1500.00,2300.00,M,RA,M,M,M,M,M,M,37.42,KBVU 260255Z AUTO 20008KT 3SM RA FEW004 SCT015 OVC023 06/05 A2982 RMK AO2,M
RNO,2023-02-26 02:55,-119.7711,39.4839,1341.00,37.00,30.90,78.37,300.00,3.00,T,29.77,1007.90,9.00,M,SCT,BKN,OVC,M,1500.00,3000.00,4000.00,M,-RA,M,M,M,M,M,M,34.40,KRNO 260255Z 30003KT 9SM -RA SCT015 BKN030 OVC040 03/M01 A2977 RMK AO2 RAE02B41 SLP079 P0000 60000 T00281006 53004,M
RTS,2023-02-26 02:55,-119.8764,39.6682,1539.00,33.80,28.40,80.36,300.00,4.00,0.00,29.76,M,10.00,M,FEW,BKN,OVC,M,1800.00,2700.00,4300.00,M,-RA,M,M,M,M,M,M,29.52,KRTS 260255Z AUTO 30004KT 10SM -RA FEW018 BKN027 OVC043 01/M02 A2976 RMK AO2,M
MEV,2023-02-26 02:55,-119.7500,38.9963,1441.42,33.80,32.00,93.03,340.00,10.00,0.00,29.73,M,10.00,M,FEW,OVC,M,M,2500.00,3400.00,M,M,M,M,M,M,M,M,M,25.23,KMEV 260255Z AUTO 34010KT 10SM FEW025 OVC034 01/M00 A2973 RMK AO2,M
BAM,2023-02-26 02:55,-116.8743,40.5990,1382.36,41.00,30.20,65.16,60.00,4.00,0.00,29.73,M,10.00,M,OVC,M,M,M,7500.00,M,M,M,M,M,M,M,M,M,M,37.93,KBAM 260255Z AUTO 06004KT 10SM OVC075 05/M01 A2973 RMK AO1,M
HTH,2023-02-26 02:55,-118.6315,38.5448,1282.89,37.40,33.80,86.69,130.00,4.00,0.00,29.73,M,10.00,M,FEW,BKN,OVC,M,6500.00,7500.00,9000.00,M,M,M,M,M,M,M,M,33.73,KHTH 260255Z AUTO 13004KT 10SM FEW065 BKN075 OVC090 03/01 A2973 RMK A01,M
TMT,2023-02-26 02:55,-117.1971,39.4643,1749.34,33.30,27.30,78.37,290.00,4.00,0.00,29.70,M,10.00,M,BKN,M,M,M,7000.00,M,M,M,M,M,M,M,M,M,M,28.94,KTMT 260255Z AUTO 29004KT 10SM BKN070 01/M03 A2970 RMK AO2 T00071026,M
INS,2023-02-26 02:55,-115.6733,36.5872,955.00,34.30,34.20,99.60,20.00,12.00,0.03,29.81,1008.80,9.00,M,OVC,M,M,M,500.00,M,M,M,-SN,M,M,M,M,M,M,24.93,KINS 260255Z AUTO 02012KT 9SM -SN OVC005 01/01 A2981 RMK AO2 RAE0159SNB0159E12RAB12E25SNB25 SLP088 P0003 60005 T00130012 51008 $,M
LSV,2023-02-26 02:55,-115.0343,36.2362,570.00,45.30,40.00,81.26,200.00,12.00,T,29.79,1008.70,10.00,M,SCT,SCT,M,M,1400.00,2100.00,M,M,-RA,M,M,M,M,M,M,38.93,KLSV 260255Z AUTO 20012KT 10SM -RA SCT014 SCT021 07/04 A2979 RMK AO2 RAE16RAB31 SLP087 P0000 60000 T00740044 52026 $,M
EKO,2023-02-26 02:56,-115.7860,40.8242,1367.00,36.00,27.00,69.51,70.00,6.00,0.00,29.75,1009.60,10.00,M,FEW,M,M,M,7000.00,M,M,M,M,M,M,M,M,M,M,30.35,KEKO 260256Z AUTO 07006KT 10SM FEW070 02/M03 A2975 RMK AO2 SLP096 T00221028 56008,M
WMC,2023-02-26 02:56,-117.8072,40.9019,1315.00,40.00,28.00,62.15,40.00,3.00,0.00,29.72,1006.80,10.00,M,SCT,BKN,M,M,10000.00,12000.00,M,M,M,M,M,M,M,M,M,37.72,KWMC 260256Z AUTO 04003KT 10SM SCT100 BKN120 04/M02 A2972 RMK AO2 SLP068 T00441022 56007,M
NFL,2023-02-26 02:56,-118.7010,39.4166,1199.00,38.00,32.00,79.08,200.00,9.00,T,29.74,1005.10,10.00,M,OVC,M,M,M,4400.00,M,M,M,M,M,M,M,M,M,M,30.85,KNFL 260256Z AUTO 20009KT 10SM OVC044 03/00 A2974 RMK AO2 RAB45E55 SLP051 P0000 60000 T00330000 55002 $,M
HND,2023-02-26 02:56,-115.1344,35.9729,742.79,39.00,36.00,88.87,210.00,7.00,0.02,29.82,1012.40,10.00,M,BKN,OVC,M,M,3400.00,4200.00,M,M,-RA,M,M,M,M,M,M,33.31,KHND 260256Z 21007KT 10SM -RA BKN034 OVC042 04/02 A2982 RMK AO2 SLP124 P0002 60012 T00390022 51023,M
TPH,2023-02-26 02:56,-117.0904,38.0505,1654.00,30.00,30.00,100.00,0.00,0.00,0.02,29.74,1007.50,1.75,M,OVC,M,M,M,1800.00,M,M,M,-SN BR,M,M,M,M,M,M,30.00,KTPH 260256Z AUTO 00000KT 1 3/4SM -SN BR OVC018 M01/M01 A2974 RMK AO2 SLP075 P0002 60011 T10111011 58006,M
LAS,2023-02-26 02:56,-115.1634,36.0719,663.00,41.00,37.00,85.54,190.00,10.00,0.07,29.79,1009.00,10.00,M,SCT,OVC,M,M,2000.00,3500.00,M,M,-RA,M,M,M,M,M,M,34.25,KLAS 260256Z 19010KT 10SM -RA SCT020 OVC035 05/03 A2979 RMK AO2 SLP090 P0007 60021 T00500028 50019,M
VGT,2023-02-26 03:02,-115.1933,36.2111,667.00,42.00,38.00,84.93,310.00,10.00,0.01,29.80,M,7.00,M,SCT,OVC,M,M,2100.00,3200.00,M,M,-RA,M,M,M,M,M,M,35.63,KVGT 260302Z 31010KT 7SM -RA SCT021 OVC032 06/03 A2980 RMK AO2 P0001 T00560033,M
INS,2023-02-26 03:05,-115.6733,36.5872,955.00,33.80,33.80,100.00,10.00,10.00,0.00,29.81,1008.80,8.00,M,OVC,M,M,M,400.00,M,M,M,-SN,M,M,M,M,M,M,25.23,KINS 260305Z AUTO 01010KT 8SM -SN OVC004 01/01 A2981 RMK AO2 SLP088 $,M
RNO,2023-02-26 03:11,-119.7711,39.4839,1341.00,36.00,30.90,81.53,300.00,3.00,0.01,29.77,M,5.00,M,SCT,BKN,OVC,M,1500.00,2500.00,3500.00,M,-SN BR,M,M,M,M,M,M,33.26,KRNO 260311Z 30003KT 5SM -SN BR SCT015 BKN025 OVC035 02/M01 A2977 RMK AO2 RAE10SNB10 P0001 T00221006,M
BVU,2023-02-26 03:15,-114.8611,35.9475,671.00,41.00,39.20,93.24,230.00,7.00,0.00,29.82,M,4.00,M,FEW,OVC,M,M,1600.00,2400.00,M,M,-RA,M,M,M,M,M,M,35.75,KBVU 260315Z AUTO 23007KT 4SM -RA FEW016 OVC024 05/04 A2982 RMK AO2,M
RTS,2023-02-26 03:15,-119.8764,39.6682,1539.00,32.00,30.20,92.97,260.00,5.00,0.00,29.77,M,10.00,M,FEW,BKN,OVC,M,2700.00,3200.00,4400.00,M,-RA,M,M,M,M,M,M,26.40,KRTS 260315Z AUTO 26005KT 10SM -RA FEW027 BKN032 OVC044 00/M01 A2977 RMK AO2,M
MEV,2023-02-26 03:15,-119.7500,38.9963,1441.42,33.80,32.00,93.03,350.00,9.00,0.00,29.74,M,4.00,M,FEW,FEW,OVC,M,400.00,2400.00,3200.00,M,-SN BR,M,M,M,M,M,M,25.75,KMEV 260315Z AUTO 35009KT 4SM -SN BR FEW004 FEW024 OVC032 01/M00 A2974 RMK AO2,M
BAM,2023-02-26 03:15,-116.8743,40.5990,1382.36,39.20,28.40,64.93,110.00,5.00,0.00,29.73,M,10.00,M,SCT,M,M,M,7500.00,M,M,M,M,M,M,M,M,M,M,34.95,KBAM 260315Z AUTO 11005KT 10SM SCT075 04/M02 A2973 RMK AO1,M
HTH,2023-02-26 03:15,-118.6315,38.5448,1282.89,37.40,33.80,86.69,0.00,0.00,0.00,29.73,M,10.00,M,FEW,SCT,BKN,M,4800.00,7000.00,7500.00,M,M,M,M,M,M,M,M,37.40,KHTH 260315Z AUTO 00000KT 10SM FEW048 SCT070 BKN075 03/01 A2973 RMK A01,M
TMT,2023-02-26 03:15,-117.1971,39.4643,1749.34,33.40,28.40,81.66,240.00,5.00,0.00,29.70,M,10.00,M,SCT,BKN,M,M,6000.00,7000.00,M,M,M,M,M,M,M,M,M,28.06,KTMT 260315Z AUTO 24005KT 10SM SCT060 BKN070 01/M02 A2970 RMK AO2 T00081020,M
LSV,2023-02-26 03:27,-115.0343,36.2362,570.00,42.80,39.20,86.99,190.00,11.00,0.00,29.79,1008.70,10.00,M,CLR,M,M,M,M,M,M,M,M,M,M,M,M,M,M,36.11,KLSV 260327Z AUTO 19011KT 10SM CLR 06/04 A2979 RMK AO2 RAE27 SLP087 $,M
HTH,2023-02-26 03:30,-118.6315,38.5448,1282.89,35.60,33.80,93.08,240.00,4.00,0.00,29.74,M,10.00,M,FEW,SCT,BKN,M,2800.00,4900.00,7500.00,M,M,M,M,M,M,M,M,31.62,KHTH 260330Z AUTO 24004KT 10SM FEW028 SCT049 BKN075 02/01 A2974 RMK A01,M
BVU,2023-02-26 03:35,-114.8611,35.9475,671.00,41.00,39.20,93.24,210.00,6.00,0.00,29.84,M,5.00,M,FEW,OVC,M,M,1300.00,2300.00,M,M,-RA,M,M,M,M,M,M,36.37,KBVU 260335Z AUTO 21006KT 5SM -RA FEW013 OVC023 05/04 A2984 RMK AO2,M
RNO,2023-02-26 03:35,-119.7711,39.4839,1341.00,35.00,30.90,84.49,310.00,3.00,0.02,29.77,M,6.00,M,SCT,BKN,OVC,M,500.00,1500.00,2000.00,M,-SN BR,M,M,M,M,M,M,32.23,KRNO 260335Z 31003KT 6SM -SN BR SCT005 BKN015 OVC020 02/M01 A2977 RMK AO2 RAE10SNB10 P0002 T00171006,M
RTS,2023-02-26 03:35,-119.8764,39.6682,1539.00,32.00,30.20,92.97,250.00,3.00,0.00,29.77,M,10.00,M,BKN,BKN,OVC,M,2600.00,3400.00,4400.00,M,-RA,M,M,M,M,M,M,28.69,KRTS 260335Z AUTO 25003KT 10SM -RA BKN026 BKN034 OVC044 00/M01 A2977 RMK AO2,M
MEV,2023-02-26 03:35,-119.7500,38.9963,1441.42,33.80,32.00,93.03,360.00,10.00,0.00,29.74,M,8.00,M,FEW,SCT,OVC,M,600.00,2400.00,3000.00,M,-SN,M,M,M,M,M,M,25.23,KMEV 260335Z AUTO 36010KT 8SM -SN FEW006 SCT024 OVC030 01/M00 A2974 RMK AO2,M
BAM,2023-02-26 03:35,-116.8743,40.5990,1382.36,37.40,30.20,74.98,100.00,3.00,0.00,29.73,M,10.00,M,SCT,M,M,M,7500.00,M,M,M,M,M,M,M,M,M,M,34.86,KBAM 260335Z AUTO 10003KT 10SM SCT075 03/M01 A2973 RMK AO1,M
TMT,2023-02-26 03:35,-117.1971,39.4643,1749.34,35.60,29.70,78.89,220.00,10.00,0.00,29.72,M,10.00,M,OVC,M,M,M,6000.00,M,M,M,M,M,M,M,M,M,M,27.48,KTMT 260335Z AUTO 22010KT 10SM OVC060 02/M01 A2972 RMK AO2 T00201013,M
TPH,2023-02-26 03:35,-117.0904,38.0505,1654.00,30.00,28.90,95.61,140.00,3.00,0.01,29.75,M,1.75,M,OVC,M,M,M,2300.00,M,M,M,-SN BR,M,M,M,M,M,M,26.40,KTPH 260335Z AUTO 14003KT 1 3/4SM -SN BR OVC023 M01/M02 A2975 RMK AO2 P0001 T10111017,M
TPH,2023-02-26 03:35,-117.0904,38.0505,1654.00,M,M,M,140.00,2.00,0.01,29.75,M,1.75,M,OVC,M,M,M,2300.00,M,M,M,-SN BR,M,M,M,M,M,M,M,KTPH 260335Z AUTO 14002KT 2SM -SN BR OVC023 M01/M02 A2975 RMK P0001 T10101020 MADISHF,M
INS,2023-02-26 03:40,-115.6733,36.5872,955.00,33.80,33.80,100.00,20.00,12.00,0.00,29.80,1008.50,9.00,M,BKN,M,M,M,500.00,M,M,M,-SN,M,M,M,M,M,M,24.29,KINS 260340Z AUTO 02012KT 9SM -SN BKN005 01/01 A2980 RMK AO2 SLP085 $,M
INS,2023-02-26 03:41,-115.6733,36.5872,955.00,33.80,33.80,100.00,20.00,10.00,0.00,29.80,1008.50,9.00,M,BKN,M,M,M,500.00,M,M,M,-RA,M,M,M,M,M,M,25.23,KINS 260341Z AUTO 02010KT 9SM -RA BKN005 01/01 A2980 RMK AO2 SNE41RAB41 SLP085 $,M
INS,2023-02-26 03:50,-115.6733,36.5872,955.00,33.80,33.80,100.00,20.00,10.00,0.00,29.81,1008.80,10.00,M,BKN,M,M,M,500.00,M,M,M,-SN,M,M,M,M,M,M,25.23,KINS 260350Z AUTO 02010KT 10SM -SN BKN005 01/01 A2981 RMK AO2 SNE41RAB41E50SNB50 SLP088 $,M
P68,2023-02-26 03:53,-116.0056,39.6014,1993.00,36.00,28.90,75.15,170.00,14.00,0.00,29.71,1004.80,M,M,M,M,M,M,M,M,M,M,M,M,M,M,M,M,M,26.32,KP68 260353Z AUTO 17014KT 02/M02 A2971 RMK AO1 SLP048 T00221017,M
DRA,2023-02-26 03:53,-116.0278,36.6206,1009.00,33.00,30.00,88.23,360.00,5.00,0.00,29.80,1008.30,10.00,M,BKN,OVC,M,M,8000.00,11000.00,M,M,M,M,M,M,M,M,M,27.70,KDRA 260353Z AUTO 36005KT 10SM BKN080 OVC110 01/M01 A2980 RMK AO2 SLP083 T00061011,M
ELY,2023-02-26 03:53,-114.8453,39.2950,1909.00,33.00,23.00,66.06,210.00,12.00,0.00,29.74,1006.60,10.00,M,FEW,M,M,M,11000.00,M,M,M,M,M,M,M,M,M,M,23.40,KELY 260353Z AUTO 21012KT 10SM FEW110 01/M05 A2974 RMK AO2 SLP066 T00061050,M
LOL,2023-02-26 03:53,-118.5701,40.0684,1192.43,38.00,30.90,75.64,160.00,5.00,0.00,29.72,1007.70,10.00,M,OVC,M,M,M,9000.00,M,M,M,M,M,M,M,M,M,M,33.40,KLOL 260353Z AUTO 16005KT 10SM OVC090 03/M01 A2972 RMK AO2 SLP077 T00331006,M
VGT,2023-02-26 03:53,-115.1933,36.2111,667.00,42.00,37.00,81.98,330.00,7.00,0.05,29.81,1011.40,5.00,17.00,FEW,OVC,M,M,2800.00,3400.00,M,M,RA,M,M,M,M,M,M,37.09,KVGT 260353Z 33007G17KT 5SM RA FEW028 OVC034 06/03 A2981 RMK AO2 SLP114 P0005 T00560028,M
BVU,2023-02-26 03:55,-114.8611,35.9475,671.00,41.00,39.20,93.24,210.00,6.00,0.00,29.84,M,4.00,M,FEW,OVC,M,M,1200.00,2000.00,M,M,RA,M,M,M,M,M,M,36.37,KBVU 260355Z AUTO 21006KT 4SM RA FEW012 OVC020 05/04 A2984 RMK AO2,M
RNO,2023-02-26 03:55,-119.7711,39.4839,1341.00,35.00,32.00,88.33,0.00,0.00,0.03,29.77,1008.20,5.00,M,SCT,BKN,OVC,M,500.00,1600.00,2500.00,M,-SN BR,M,M,M,M,M,M,35.10,KRNO 260355Z 00000KT 5SM -SN BR SCT005 BKN016 OVC025 02/00 A2977 RMK AO2 RAE10SNB10 SLP082 P0003 T00170000,M
RTS,2023-02-26 03:55,-119.8764,39.6682,1539.00,32.00,30.20,92.97,250.00,5.00,0.00,29.76,M,7.00,M,SCT,BKN,OVC,M,2500.00,2900.00,7500.00,M,-SN,M,M,M,M,M,M,26.40,KRTS 260355Z AUTO 25005KT 7SM -SN SCT025 BKN029 OVC075 00/M01 A2976 RMK AO2,M
MEV,2023-02-26 03:55,-119.7500,38.9963,1441.42,33.80,32.00,93.03,320.00,7.00,0.00,29.74,M,6.00,M,SCT,BKN,OVC,M,500.00,2400.00,7000.00,M,-SN BR,M,M,M,M,M,M,26.97,KMEV 260355Z AUTO 32007KT 6SM -SN BR SCT005 BKN024 OVC070 01/M00 A2974 RMK AO2,M
BAM,2023-02-26 03:55,-116.8743,40.5990,1382.36,37.40,30.20,74.98,0.00,0.00,0.00,29.73,M,10.00,M,SCT,SCT,M,M,7500.00,8500.00,M,M,M,M,M,M,M,M,M,37.40,KBAM 260355Z AUTO 00000KT 10SM SCT075 SCT085 03/M01 A2973 RMK AO1,M
HTH,2023-02-26 03:55,-118.6315,38.5448,1282.89,35.60,33.80,93.08,260.00,4.00,0.00,29.74,M,10.00,M,OVC,M,M,M,7500.00,M,M,M,M,M,M,M,M,M,M,31.62,KHTH 260355Z AUTO 26004KT 10SM OVC075 02/01 A2974 RMK A01,M
TMT,2023-02-26 03:55,-117.1971,39.4643,1749.34,34.50,29.70,82.41,300.00,8.00,0.00,29.71,M,10.00,M,OVC,M,M,M,6000.00,M,M,M,M,M,M,M,M,M,M,27.19,KTMT 260355Z AUTO 30008KT 10SM OVC060 01/M01 A2971 RMK AO2 T00141013,M
INS,2023-02-26 03:55,-115.6733,36.5872,955.00,34.20,34.00,99.20,10.00,7.00,0.03,29.81,1008.80,10.00,M,SCT,M,M,M,500.00,M,M,M,-SN,M,M,M,M,M,M,27.46,KINS 260355Z AUTO 01007KT 10SM -SN SCT005 01/01 A2981 RMK AO2 SNE41RAB41E50SNB50 SLP088 P0003 T00120011 $,M
LSV,2023-02-26 03:55,-115.0343,36.2362,570.00,42.40,40.80,94.01,180.00,5.00,T,29.80,1009.10,10.00,M,CLR,M,M,M,M,M,M,M,M,M,M,M,M,M,M,38.75,KLSV 260355Z AUTO 18005KT 10SM CLR 06/05 A2980 RMK AO2 RAE27 SLP091 P0000 T00580049 $,M
EKO,2023-02-26 03:56,-115.7860,40.8242,1367.00,35.00,26.10,69.41,50.00,7.00,0.00,29.73,1008.70,10.00,M,CLR,M,M,M,M,M,M,M,M,M,M,M,M,M,M,28.56,KEKO 260356Z AUTO 05007KT 10SM CLR 02/M03 A2973 RMK AO2 SLP087 T00171033,M
WMC,2023-02-26 03:56,-117.8072,40.9019,1315.00,38.00,27.00,64.49,M,3.00,0.00,29.71,1006.60,10.00,M,SCT,M,M,M,9500.00,M,M,M,M,M,M,M,M,M,M,35.43,KWMC 260356Z AUTO VRB03KT 10SM SCT095 03/M03 A2971 RMK AO2 SLP066 T00331028,M
LAS,2023-02-26 03:56,-115.1634,36.0719,663.00,41.00,36.00,82.22,180.00,6.00,0.01,29.82,1009.90,10.00,M,FEW,SCT,BKN,M,1300.00,2000.00,3500.00,M,M,M,M,M,M,M,M,36.37,KLAS 260356Z 18006KT 10SM FEW013 SCT020 BKN035 05/02 A2982 RMK AO2 RAE45 SLP099 P0001 T00500022,M
NFL,2023-02-26 03:56,-118.7010,39.4166,1199.00,37.00,33.00,85.64,240.00,5.00,0.01,29.74,1005.00,9.00,M,FEW,OVC,M,M,2400.00,3600.00,M,M,UP,M,M,M,M,M,M,32.33,KNFL 260356Z AUTO 24005KT 9SM UP FEW024 OVC036 03/01 A2974 RMK AO2 RAB15E16B38E49UPB16SNB22E33 SLP050 P0001 T00280006 $,M
HND,2023-02-26 03:56,-115.1344,35.9729,742.79,39.00,35.00,85.76,190.00,10.00,0.01,29.83,1012.40,10.00,M,SCT,BKN,OVC,M,3000.00,3600.00,4600.00,M,-RA,M,M,M,M,M,M,31.75,KHND 260356Z 19010KT 10SM -RA SCT030 BKN036 OVC046 04/02 A2983 RMK AO2 SLP124 P0001 T00390017,M
INS,2023-02-26 04:00,-115.6733,36.5872,955.00,33.80,33.80,100.00,20.00,10.00,0.00,29.81,1008.80,9.00,M,SCT,BKN,OVC,M,500.00,3400.00,4900.00,M,-RA,M,M,M,M,M,M,25.23,KINS 260400Z AUTO 02010KT 9SM -RA SCT005 BKN034 OVC049 01/01 A2981 RMK AO2 SNE00RAB00 SLP088 $,M
INS,2023-02-26 04:04,-115.6733,36.5872,955.00,33.80,33.80,100.00,30.00,8.00,0.00,29.82,1009.20,10.00,M,FEW,BKN,OVC,M,600.00,3400.00,4900.00,M,M,M,M,M,M,M,M,26.33,KINS 260404Z AUTO 03008KT 10SM FEW006 BKN034 OVC049 01/01 A2982 RMK AO2 SNE00RAB00E04 SLP092 $,M
TPH,2023-02-26 04:04,-117.0904,38.0505,1654.00,28.90,28.00,96.38,0.00,0.00,T,29.75,M,3.00,M,OVC,M,M,M,2800.00,M,M,M,-SN BR,M,M,M,M,M,M,28.90,KTPH 260404Z AUTO 00000KT 3SM -SN BR OVC028 M02/M02 A2975 RMK AO2 P0000 T10171022 TSNO,M
VGT,2023-02-26 04:08,-115.1933,36.2111,667.00,42.00,37.00,81.98,340.00,10.00,T,29.81,M,10.00,M,BKN,OVC,M,M,2400.00,3600.00,M,M,RA,M,M,M,M,M,M,35.63,KVGT 260408Z AUTO 34010KT 10SM RA BKN024 OVC036 06/03 A2981 RMK AO2 P0000 T00560028,M
LSV,2023-02-26 04:09,-115.0343,36.2362,570.00,42.80,41.00,93.30,200.00,15.00,0.00,29.81,1009.40,10.00,M,FEW,M,M,M,2700.00,M,M,M,-RA,M,M,M,M,M,M,34.78,KLSV 260409Z AUTO 20015KT 10SM -RA FEW027 06/05 A2981 RMK AO2 RAB09 SLP094 $,M
TPH,2023-02-26 04:11,-117.0904,38.0505,1654.00,28.90,28.00,96.38,90.00,3.00,T,29.75,M,6.00,M,FEW,BKN,OVC,M,1900.00,3200.00,4300.00,M,-SN BR,M,M,M,M,M,M,25.14,KTPH 260411Z AUTO 09003KT 6SM -SN BR FEW019 BKN032 OVC043 M02/M02 A2975 RMK AO2 P0000 T10171022,M
BVU,2023-02-26 04:15,-114.8611,35.9475,671.00,41.00,37.40,86.89,220.00,10.00,0.00,29.84,M,3.00,22.00,FEW,SCT,OVC,M,400.00,900.00,1600.00,M,RA,M,M,M,M,M,M,34.25,KBVU 260415Z AUTO 22010G22KT 3SM RA FEW004 SCT009 OVC016 05/03 A2984 RMK AO2,M
RTS,2023-02-26 04:15,-119.8764,39.6682,1539.00,32.00,30.20,92.97,0.00,0.00,0.00,29.77,M,9.00,M,FEW,BKN,OVC,M,2500.00,3000.00,7500.00,M,-SN,M,M,M,M,M,M,32.00,KRTS 260415Z AUTO 00000KT 9SM -SN FEW025 BKN030 OVC075 00/M01 A2977 RMK AO2,M
MEV,2023-02-26 04:15,-119.7500,38.9963,1441.42,33.80,32.00,93.03,340.00,5.00,0.00,29.75,M,10.00,M,FEW,SCT,OVC,M,500.00,2500.00,3600.00,M,M,M,M,M,M,M,M,28.53,KMEV 260415Z AUTO 34005KT 10SM FEW005 SCT025 OVC036 01/M00 A2975 RMK AO2,M
BAM,2023-02-26 04:15,-116.8743,40.5990,1382.36,41.00,30.20,65.16,0.00,0.00,0.00,29.73,M,10.00,M,BKN,M,M,M,8500.00,M,M,M,M,M,M,M,M,M,M,41.00,KBAM 260415Z AUTO 00000KT 10SM BKN085 05/M01 A2973 RMK AO1,M
HTH,2023-02-26 04:15,-118.6315,38.5448,1282.89,35.60,33.80,93.08,320.00,5.00,0.00,29.75,M,10.00,M,FEW,OVC,M,M,3500.00,7000.00,M,M,M,M,M,M,M,M,M,30.67,KHTH 260415Z AUTO 32005KT 10SM FEW035 OVC070 02/01 A2975 RMK A01,M
TMT,2023-02-26 04:15,-117.1971,39.4643,1749.34,33.40,29.70,86.12,180.00,5.00,0.00,29.72,M,10.00,M,OVC,M,M,M,5000.00,M,M,M,M,M,M,M,M,M,M,28.06,KTMT 260415Z AUTO 18005KT 10SM OVC050 01/M01 A2972 RMK AO2 T00081013,M
LSV,2023-02-26 04:19,-115.0343,36.2362,570.00,42.80,41.00,93.30,190.00,15.00,0.00,29.80,1009.10,9.00,M,CLR,M,M,M,M,M,M,M,M,M,M,M,M,M,M,34.78,KLSV 260419Z AUTO 19015KT 9SM CLR 06/05 A2980 RMK AO2 RAB09E19 SLP091 $,M
TPH,2023-02-26 04:29,-117.0904,38.0505,1654.00,28.90,28.00,96.38,100.00,4.00,T,29.75,M,3.00,M,FEW,FEW,OVC,M,900.00,1900.00,3500.00,M,-SN BR,M,M,M,M,M,M,23.80,KTPH 260429Z AUTO 10004KT 3SM -SN BR FEW009 FEW019 OVC035 M02/M02 A2975 RMK AO2 P0000 T10171022,M
BVU,2023-02-26 04:35,-114.8611,35.9475,671.00,39.20,37.40,93.19,210.00,8.00,0.00,29.85,M,4.00,M,FEW,OVC,M,M,500.00,1300.00,M,M,-RA,M,M,M,M,M,M,32.98,KBVU 260435Z AUTO 21008KT 4SM -RA FEW005 OVC013 04/03 A2985 RMK AO2,M
RTS,2023-02-26 04:35,-119.8764,39.6682,1539.00,32.00,30.20,92.97,240.00,3.00,0.00,29.76,M,9.00,M,SCT,BKN,OVC,M,2600.00,5000.00,7000.00,M,-SN,M,M,M,M,M,M,28.69,KRTS 260435Z AUTO 24003KT 9SM -SN SCT026 BKN050 OVC070 M00/M01 A2976 RMK AO2,M
MEV,2023-02-26 04:35,-119.7500,38.9963,1441.42,33.80,30.20,86.49,350.00,14.00,0.00,29.74,M,10.00,M,SCT,BKN,OVC,M,3500.00,6500.00,7500.00,M,M,M,M,M,M,M,M,23.48,KMEV 260435Z AUTO 35014KT 10SM SCT035 BKN065 OVC075 01/M01 A2974 RMK AO2,M
BAM,2023-02-26 04:35,-116.8743,40.5990,1382.36,37.40,30.20,74.98,0.00,0.00,0.00,29.73,M,10.00,M,BKN,M,M,M,8500.00,M,M,M,M,M,M,M,M,M,M,37.40,KBAM 260435Z AUTO 00000KT 10SM BKN085 03/M01 A2973 RMK AO1,M
HTH,2023-02-26 04:35,-118.6315,38.5448,1282.89,35.60,33.80,93.08,0.00,0.00,0.00,29.75,M,10.00,M,BKN,BKN,OVC,M,3200.00,7000.00,7500.00,M,M,M,M,M,M,M,M,35.60,KHTH 260435Z AUTO 00000KT 10SM BKN032 BKN070 OVC075 02/01 A2975 RMK A01,M
TMT,2023-02-26 04:35,-117.1971,39.4643,1749.34,32.50,27.50,81.59,230.00,13.00,0.00,29.72,M,10.00,M,BKN,OVC,M,M,5000.00,5500.00,M,M,M,M,M,M,M,M,M,22.21,KTMT 260435Z AUTO 23013KT 10SM BKN050 OVC055 00/M02 A2972 RMK AO2 T00031025,M
TPH,2023-02-26 04:35,-117.0904,38.0505,1654.00,M,M,M,90.00,5.00,M,29.75,M,1.75,M,FEW,OVC,M,M,1900.00,3100.00,M,M,-SN BR,M,M,M,M,M,M,M,KTPH 260435Z AUTO 09005KT 2SM -SN BR FEW019 OVC031 M02/M02 A2975 RMK T10201020 MADISHF,M
TPH,2023-02-26 04:35,-117.0904,38.0505,1654.00,28.90,28.00,96.38,90.00,5.00,T,29.75,M,1.75,M,FEW,OVC,M,M,1900.00,3100.00,M,M,-SN BR,M,M,M,M,M,M,22.71,KTPH 260435Z AUTO 09005KT 1 3/4SM -SN BR FEW019 OVC031 M02/M02 A2975 RMK AO2 P0000 T10171022,M
LAS,2023-02-26 04:42,-115.1634,36.0719,663.00,41.00,36.00,82.22,360.00,7.00,0.01,29.83,M,10.00,M,BKN,OVC,M,M,1500.00,3500.00,M,M,-RA,M,M,M,M,M,M,35.75,KLAS 260442Z 36007KT 10SM -RA BKN015 OVC035 05/02 A2983 RMK AO2 RAB08 P0001 T00500022,M
LSV,2023-02-26 04:52,-115.0343,36.2362,570.00,41.00,41.00,100.00,200.00,12.00,0.00,29.81,1009.40,10.00,M,CLR,M,M,M,M,M,M,M,-RA,M,M,M,M,M,M,33.46,KLSV 260452Z AUTO 20012KT 10SM -RA CLR 05/05 A2981 RMK AO2 RAB09E19RAB52 SLP094 $,M
P68,2023-02-26 04:53,-116.0056,39.6014,1993.00,36.00,28.90,75.15,170.00,14.00,0.00,29.71,1004.50,M,21.00,M,M,M,M,M,M,M,M,M,M,M,M,28.00,170.00,2023-02-26 04:24,26.32,KP68 260453Z AUTO 17014G21KT 02/M02 A2971 RMK AO1 PK WND 17028/0424 SLP045 T00221017,M
DRA,2023-02-26 04:53,-116.0278,36.6206,1009.00,30.90,28.00,88.84,310.00,6.00,0.00,29.80,1008.50,10.00,M,FEW,M,M,M,12000.00,M,M,M,M,M,M,M,M,M,M,24.21,KDRA 260453Z AUTO 31006KT 10SM FEW120 M01/M02 A2980 RMK AO2 SLP085 T10061022,M
ELY,2023-02-26 04:53,-114.8453,39.2950,1909.00,33.00,24.10,69.17,120.00,7.00,0.00,29.72,1006.00,10.00,M,BKN,M,M,M,11000.00,M,M,M,M,M,M,M,M,M,M,26.12,KELY 260453Z AUTO 12007KT 100V170 10SM BKN110 01/M04 A2972 RMK AO2 SLP060 T00061044,M
VGT,2023-02-26 04:53,-115.1933,36.2111,667.00,41.00,36.00,82.22,340.00,13.00,0.04,29.80,1011.10,10.00,19.00,FEW,OVC,M,M,2600.00,3800.00,M,M,RA,M,M,M,M,M,M,33.10,KVGT 260453Z AUTO 34013G19KT 10SM RA FEW026 OVC038 05/02 A2980 RMK AO2 SLP111 P0004 T00500022,M
LOL,2023-02-26 04:53,-118.5701,40.0684,1192.43,34.00,28.00,78.43,170.00,4.00,0.00,29.73,1008.20,10.00,M,SCT,OVC,M,M,6500.00,10000.00,M,M,M,M,M,M,M,M,M,29.76,KLOL 260453Z AUTO 17004KT 10SM SCT065 OVC100 01/M02 A2973 RMK AO2 SLP082 T00111022,M
BVU,2023-02-26 04:55,-114.8611,35.9475,671.00,39.20,37.40,93.19,190.00,8.00,0.00,29.85,M,7.00,M,BKN,OVC,M,M,1500.00,2200.00,M,M,-RA,M,M,M,M,M,M,32.98,KBVU 260455Z AUTO 19008KT 7SM -RA BKN015 OVC022 04/03 A2985 RMK AO2,M
RTS,2023-02-26 04:55,-119.8764,39.6682,1539.00,32.00,30.20,92.97,320.00,4.00,0.00,29.76,M,10.00,M,FEW,BKN,OVC,M,400.00,5500.00,7000.00,M,M,M,M,M,M,M,M,27.42,KRTS 260455Z AUTO 32004KT 10SM FEW004 BKN055 OVC070 M00/M01 A2976 RMK AO2,M
MEV,2023-02-26 04:55,-119.7500,38.9963,1441.42,33.80,30.20,86.49,350.00,10.00,0.00,29.75,M,10.00,M,FEW,SCT,OVC,M,4400.00,5000.00,7500.00,M,M,M,M,M,M,M,M,25.23,KMEV 260455Z AUTO 35010KT 10SM FEW044 SCT050 OVC075 01/M01 A2975 RMK AO2,M
BAM,2023-02-26 04:55,-116.8743,40.5990,1382.36,39.20,30.20,69.88,0.00,0.00,0.00,29.72,M,10.00,M,OVC,M,M,M,7500.00,M,M,M,M,M,M,M,M,M,M,39.20,KBAM 260455Z AUTO 00000KT 10SM OVC075 04/M01 A2972 RMK AO1,M
HTH,2023-02-26 04:55,-118.6315,38.5448,1282.89,35.60,33.80,93.08,0.00,0.00,0.00,29.75,M,10.00,M,FEW,FEW,OVC,M,2900.00,3300.00,5500.00,M,M,M,M,M,M,M,M,35.60,KHTH 260455Z AUTO 00000KT 10SM FEW029 FEW033 OVC055 02/01 A2975 RMK A01,M
TMT,2023-02-26 04:55,-117.1971,39.4643,1749.34,32.00,27.50,83.25,210.00,11.00,0.00,29.72,M,10.00,M,BKN,OVC,M,M,4700.00,5000.00,M,M,M,M,M,M,M,M,M,22.47,KTMT 260455Z AUTO 21011KT 10SM BKN047 OVC050 00/M02 A2972 RMK AO2 T00001025,M
LSV,2023-02-26 04:55,-115.0343,36.2362,570.00,41.20,41.00,99.23,190.00,11.00,T,29.81,1009.40,10.00,M,FEW,M,M,M,2100.00,M,M,M,-RA,M,M,M,M,M,M,34.09,KLSV 260455Z AUTO 19011KT 10SM -RA FEW021 05/05 A2981 RMK AO2 RAB09E19RAB52 SLP094 P0000 T00510050 $,M
RNO,2023-02-26 04:55,-119.7711,39.4839,1341.00,33.00,30.90,91.51,130.00,4.00,0.01,29.76,1007.90,5.00,M,SCT,BKN,OVC,M,800.00,2000.00,3000.00,M,-SN BR,M,M,M,M,M,M,28.70,KRNO 260455Z 13004KT 5SM -SN BR SCT008 BKN020 OVC030 01/M01 A2976 RMK AO2 SLP079 P0001 T00061006,M
INS,2023-02-26 04:55,-115.6733,36.5872,955.00,35.00,33.80,95.71,40.00,6.00,T,29.82,1009.00,10.00,M,SCT,SCT,OVC,M,2000.00,6000.00,9000.00,M,M,M,M,M,M,M,M,29.02,KINS 260455Z AUTO 04006KT 10SM SCT020 SCT060 OVC090 02/01 A2982 RMK AO2 SNE00RAB00E04 SLP090 P0000 T00160010 $,M
EKO,2023-02-26 04:56,-115.7860,40.8242,1367.00,30.00,25.00,81.40,300.00,3.00,0.00,29.74,1008.80,10.00,M,SCT,M,M,M,7000.00,M,M,M,M,M,M,M,M,M,M,26.40,KEKO 260456Z AUTO 30003KT 10SM SCT070 M01/M04 A2974 RMK AO2 SLP088 T10111039,M
NFL,2023-02-26 04:56,-118.7010,39.4166,1199.00,36.00,34.00,92.35,0.00,0.00,0.01,29.75,1005.40,10.00,M,OVC,M,M,M,4800.00,M,M,M,UP,M,M,M,M,M,M,36.00,KNFL 260456Z AUTO 00000KT 10SM UP OVC048 02/01 A2975 RMK AO2 UPE06B37RAB42E52 SLP054 P0001 T00220011 $,M
HND,2023-02-26 04:56,-115.1344,35.9729,742.79,40.00,34.00,79.25,190.00,12.00,T,29.84,1012.70,10.00,M,FEW,OVC,M,M,4300.00,5000.00,M,M,-RA,M,M,M,M,M,M,32.06,KHND 260456Z AUTO 19012KT 10SM -RA FEW043 OVC050 04/01 A2984 RMK AO2 SLP127 P0000 T00440011,M
LAS,2023-02-26 04:56,-115.1634,36.0719,663.00,41.00,37.00,85.54,40.00,5.00,0.02,29.84,1010.40,10.00,M,BKN,OVC,M,M,1500.00,3500.00,M,M,-RA,M,M,M,M,M,M,37.08,KLAS 260456Z 04005KT 10SM -RA BKN015 OVC035 05/03 A2984 RMK AO2 RAB08 SLP104 P0002 T00500028,M
WMC,2023-02-26 04:56,-117.8072,40.9019,1315.00,35.00,26.10,69.41,50.00,4.00,0.00,29.70,1006.20,10.00,M,SCT,M,M,M,9500.00,M,M,M,M,M,M,M,M,M,M,31.04,KWMC 260456Z AUTO 05004KT 10SM SCT095 02/M03 A2970 RMK AO2 SLP062 T00171033,M
LSV,2023-02-26 05:01,-115.0343,36.2362,570.00,41.00,41.00,100.00,190.00,10.00,0.00,29.81,1009.40,10.00,M,FEW,BKN,M,M,1200.00,2000.00,M,M,-RA,M,M,M,M,M,M,34.25,KLSV 260501Z AUTO 19010KT 10SM -RA FEW012 BKN020 05/05 A2981 RMK AO2 SLP094 $,M
LSV,2023-02-26 05:05,-115.0343,36.2362,570.00,41.00,41.00,100.00,200.00,11.00,0.00,29.82,1009.80,10.00,M,FEW,SCT,M,M,1400.00,2000.00,M,M,-RA,M,M,M,M,M,M,33.84,KLSV 260505Z AUTO 20011KT 10SM -RA FEW014 SCT020 05/05 A2982 RMK AO2 SLP098 $,M
RNO,2023-02-26 05:06,-119.7711,39.4839,1341.00,33.00,30.90,91.51,0.00,0.00,T,29.76,M,7.00,M,SCT,BKN,OVC,M,800.00,2000.00,3000.00,M,M,M,M,M,M,M,M,33.10,KRNO 260506Z 00000KT 7SM SCT008 BKN020 OVC030 01/M01 A2976 RMK AO2 SNE02 P0000 T00061006,M
TPH,2023-02-26 05:10,-117.0904,38.0505,1654.00,28.90,28.00,96.38,60.00,3.00,T,29.76,M,6.00,M,SCT,BKN,OVC,M,1200.00,2200.00,4600.00,M,-SN BR,M,M,M,M,M,M,25.14,KTPH 260510Z AUTO 06003KT 6SM -SN BR SCT012 BKN022 OVC046 M02/M02 A2976 RMK AO2 P0000 T10171022,M
BVU,2023-02-26 05:15,-114.8611,35.9475,671.00,41.00,37.40,86.89,150.00,8.00,0.00,29.84,M,9.00,M,BKN,BKN,OVC,M,1700.00,2300.00,7500.00,M,M,M,M,M,M,M,M,35.20,KBVU 260515Z AUTO 15008KT 9SM BKN017 BKN023 OVC075 05/03 A2984 RMK AO2,M
RTS,2023-02-26 05:15,-119.8764,39.6682,1539.00,32.00,30.20,92.97,320.00,5.00,0.00,29.76,M,10.00,M,OVC,M,M,M,6000.00,M,M,M,M,M,M,M,M,M,M,26.40,KRTS 260515Z AUTO 32005KT 10SM OVC060 M00/M01 A2976 RMK AO2,M
MEV,2023-02-26 05:15,-119.7500,38.9963,1441.42,33.80,32.00,93.03,340.00,10.00,0.00,29.75,M,10.00,M,FEW,FEW,OVC,M,4400.00,4900.00,7000.00,M,M,M,M,M,M,M,M,25.23,KMEV 260515Z AUTO 34010KT 10SM FEW044 FEW049 OVC070 01/M00 A2975 RMK AO2,M
BAM,2023-02-26 05:15,-116.8743,40.5990,1382.36,37.40,30.20,74.98,0.00,0.00,0.00,29.72,M,10.00,M,OVC,M,M,M,8000.00,M,M,M,M,M,M,M,M,M,M,37.40,KBAM 260515Z AUTO 00000KT 10SM OVC080 03/M01 A2972 RMK AO1,M
HTH,2023-02-26 05:15,-118.6315,38.5448,1282.89,35.60,33.80,93.08,0.00,0.00,0.00,29.75,M,10.00,M,OVC,M,M,M,5000.00,M,M,M,M,M,M,M,M,M,M,35.60,KHTH 260515Z AUTO 00000KT 10SM OVC050 02/01 A2975 RMK A01,M
TMT,2023-02-26 05:15,-117.1971,39.4643,1749.34,32.00,27.50,83.25,230.00,11.00,0.00,29.72,M,10.00,M,BKN,BKN,OVC,M,4000.00,4800.00,5000.00,M,M,M,M,M,M,M,M,22.47,KTMT 260515Z AUTO 23011KT 10SM BKN040 BKN048 OVC050 00/M02 A2972 RMK AO2 T00001025,M
LSV,2023-02-26 05:20,-115.0343,36.2362,570.00,41.00,41.00,100.00,180.00,6.00,0.00,29.80,1008.90,10.00,M,FEW,SCT,SCT,M,1400.00,2000.00,9000.00,M,M,M,M,M,M,M,M,36.37,KLSV 260520Z AUTO 18006KT 10SM FEW014 SCT020 SCT090 05/05 A2980 RMK AO2 RAE20 PRESFR SLP089 $,M
TPH,2023-02-26 05:28,-117.0904,38.0505,1654.00,28.00,27.00,95.97,110.00,4.00,T,29.76,M,10.00,M,FEW,BKN,OVC,M,700.00,1200.00,4500.00,M,M,M,M,M,M,M,M,22.75,KTPH 260528Z AUTO 11004KT 10SM FEW007 BKN012 OVC045 M02/M03 A2976 RMK AO2 SNE20 P0000 T10221028,M
BVU,2023-02-26 05:35,-114.8611,35.9475,671.00,41.00,37.40,86.89,150.00,7.00,0.00,29.84,M,10.00,M,FEW,SCT,OVC,M,1600.00,5500.00,7500.00,M,M,M,M,M,M,M,M,35.75,KBVU 260535Z AUTO 15007KT 10SM FEW016 SCT055 OVC075 05/03 A2984 RMK AO2,M
RTS,2023-02-26 05:35,-119.8764,39.6682,1539.00,32.00,30.20,92.97,0.00,0.00,0.00,29.76,M,10.00,M,OVC,M,M,M,6000.00,M,M,M,M,M,M,M,M,M,M,32.00,KRTS 260535Z AUTO 00000KT 10SM OVC060 00/M01 A2976 RMK AO2,M
MEV,2023-02-26 05:35,-119.7500,38.9963,1441.42,33.80,30.20,86.49,360.00,10.00,0.00,29.75,M,10.00,M,FEW,SCT,OVC,M,4500.00,5500.00,7000.00,M,M,M,M,M,M,M,M,25.23,KMEV 260535Z AUTO 36010KT 10SM FEW045 SCT055 OVC070 01/M01 A2975 RMK AO2,M
BAM,2023-02-26 05:35,-116.8743,40.5990,1382.36,39.20,30.20,69.88,90.00,5.00,0.00,29.72,M,10.00,M,OVC,M,M,M,8000.00,M,M,M,M,M,M,M,M,M,M,34.95,KBAM 260535Z AUTO 09005KT 10SM OVC080 04/M01 A2972 RMK AO1,M
HTH,2023-02-26 05:35,-118.6315,38.5448,1282.89,35.60,33.80,93.08,0.00,0.00,0.00,29.75,M,10.00,M,BKN,BKN,OVC,M,3000.00,3700.00,5000.00,M,M,M,M,M,M,M,M,35.60,KHTH 260535Z AUTO 00000KT 10SM BKN030 BKN037 OVC050 02/01 A2975 RMK A01,M
TMT,2023-02-26 05:35,-117.1971,39.4643,1749.34,32.00,27.90,84.63,230.00,9.00,0.00,29.73,M,10.00,M,BKN,BKN,OVC,M,3800.00,5500.00,11000.00,M,M,M,M,M,M,M,M,23.51,KTMT 260535Z AUTO 23009KT 10SM BKN038 BKN055 OVC110 00/M02 A2973 RMK AO2 T00001023,M
INS,2023-02-26 05:45,-115.6733,36.5872,955.00,33.80,33.80,100.00,30.00,10.00,0.00,29.83,1009.30,10.00,M,BKN,OVC,M,M,1200.00,9000.00,M,M,M,M,M,M,M,M,M,25.23,KINS 260545Z AUTO 03010KT 10SM BKN012 OVC090 01/01 A2983 RMK AO2 SLP093 $,M
P68,2023-02-26 05:53,-116.0056,39.6014,1993.00,36.00,30.00,78.60,170.00,8.00,0.00,29.69,1003.70,M,M,M,M,M,M,M,M,M,M,M,M,M,M,M,M,M,29.04,KP68 260553Z AUTO 17008KT 02/M01 A2969 RMK AO1 SLP037 T00221011 10061 20022 58005,M
DRA,2023-02-26 05:53,-116.0278,36.6206,1009.00,30.00,27.00,88.44,320.00,4.00,0.00,29.82,1009.10,10.00,M,SCT,M,M,M,11000.00,M,M,M,M,M,M,M,M,M,M,25.08,KDRA 260553Z AUTO 32004KT 10SM SCT110 M01/M03 A2982 RMK AO2 SLP091 60015 T10111028 10011 21011 53003,M
ELY,2023-02-26 05:53,-114.8453,39.2950,1909.00,36.00,24.10,61.62,160.00,14.00,0.00,29.72,1004.90,10.00,21.00,BKN,M,M,M,11000.00,M,M,M,M,M,M,M,M,M,M,26.32,KELY 260553Z AUTO 16014G21KT 10SM BKN110 02/M04 A2972 RMK AO2 SLP049 T00221044 10044 21006 56009,M
LOL,2023-02-26 05:53,-118.5701,40.0684,1192.43,34.00,30.00,85.11,310.00,3.00,0.00,29.72,1007.50,10.00,M,FEW,BKN,M,M,8000.00,9500.00,M,M,M,M,M,M,M,M,M,30.97,KLOL 260553Z AUTO 31003KT 10SM FEW080 BKN095 01/M01 A2972 RMK AO2 SLP075 T00111011 10083 20006 50002,M
VGT,2023-02-26 05:53,-115.1933,36.2111,667.00,42.00,35.00,76.04,340.00,7.00,T,29.82,1011.60,10.00,M,BKN,BKN,OVC,M,5500.00,7000.00,9000.00,M,RA,M,M,M,M,M,M,37.09,KVGT 260553Z AUTO 34007KT 10SM RA BKN055 BKN070 OVC090 06/02 A2982 RMK AO2 SLP116 P0000 60027 T00560017 10133 20050 53005,M
BVU,2023-02-26 05:55,-114.8611,35.9475,671.00,41.00,37.40,86.89,140.00,7.00,0.00,29.84,M,10.00,M,BKN,BKN,OVC,M,3200.00,4700.00,7500.00,M,M,M,M,M,M,M,M,35.75,KBVU 260555Z AUTO 14007KT 10SM BKN032 BKN047 OVC075 05/03 A2984 RMK AO2,M
RNO,2023-02-26 05:55,-119.7711,39.4839,1341.00,34.00,32.00,92.29,170.00,3.00,T,29.77,1007.90,10.00,M,FEW,BKN,OVC,M,1000.00,3200.00,4500.00,M,M,M,M,M,M,M,M,30.97,KRNO 260555Z 17003KT 10SM FEW010 BKN032 OVC045 01/00 A2977 RMK AO2 SNE02 SLP079 4/001 P0000 60004 T00110000 10044 20006 53000,1
RTS,2023-02-26 05:55,-119.8764,39.6682,1539.00,28.40,26.60,92.86,350.00,3.00,0.00,29.77,M,10.00,M,SCT,M,M,M,7000.00,M,M,M,M,M,M,M,M,M,M,24.57,KRTS 260555Z AUTO 35003KT 10SM SCT070 M02/M03 A2977 RMK AO2,M
MEV,2023-02-26 05:55,-119.7500,38.9963,1441.42,33.80,30.20,86.49,350.00,9.00,0.00,29.75,M,10.00,M,BKN,BKN,OVC,M,4500.00,5500.00,7500.00,M,M,M,M,M,M,M,M,25.75,KMEV 260555Z AUTO 35009KT 10SM BKN045 BKN055 OVC075 01/M01 A2975 RMK AO2,M
BAM,2023-02-26 05:55,-116.8743,40.5990,1382.36,37.40,30.20,74.98,70.00,3.00,0.00,29.72,M,10.00,M,OVC,M,M,M,8000.00,M,M,M,M,M,M,M,M,M,M,34.86,KBAM 260555Z AUTO 07003KT 10SM OVC080 03/M01 A2972 RMK AO1,M
HTH,2023-02-26 05:55,-118.6315,38.5448,1282.89,33.80,33.80,100.00,0.00,0.00,0.00,29.75,M,10.00,M,BKN,OVC,M,M,3100.00,5000.00,M,M,M,M,M,M,M,M,M,33.80,KHTH 260555Z AUTO 00000KT 10SM BKN031 OVC050 01/01 A2975 RMK A01,M
TMT,2023-02-26 05:55,-117.1971,39.4643,1749.34,31.80,25.70,77.91,230.00,10.00,0.00,29.73,M,10.00,M,BKN,BKN,OVC,M,3800.00,5000.00,5500.00,M,M,M,M,M,M,M,M,22.72,KTMT 260555Z AUTO 23010KT 10SM BKN038 BKN050 OVC055 00/M03 A2973 RMK AO2 T10011035 10053 21001,M
INS,2023-02-26 05:55,-115.6733,36.5872,955.00,34.20,34.00,99.20,90.00,5.00,0.00,29.83,1009.30,10.00,M,BKN,OVC,M,M,700.00,1300.00,M,M,M,M,M,M,M,M,M,29.01,KINS 260555Z AUTO 09005KT 10SM BKN007 OVC013 01/01 A2983 RMK AO2 SLP093 60008 T00120011 10041 20005 53005 $,M
LSV,2023-02-26 05:55,-115.0343,36.2362,570.00,41.40,41.20,99.23,200.00,9.00,T,29.80,1008.90,10.00,M,BKN,M,M,M,9000.00,M,M,M,M,M,M,M,M,M,M,35.20,KLSV 260555Z COR 20009KT 10SM BKN090 05/05 A2980 RMK AO2A RAE20 SLP089 P0000 60051 T00520051 10167 20050 50005 $ COR 0917,M
EKO,2023-02-26 05:56,-115.7860,40.8242,1367.00,28.90,25.00,85.14,0.00,0.00,0.00,29.73,1008.00,10.00,M,CLR,M,M,M,M,M,M,M,M,M,M,M,M,M,M,28.90,KEKO 260556Z AUTO 00000KT 10SM CLR M02/M04 A2973 RMK AO2 SLP080 T10171039 10050 21022 56006,M
WMC,2023-02-26 05:56,-117.8072,40.9019,1315.00,30.00,25.00,81.40,350.00,4.00,0.00,29.70,1006.30,10.00,M,CLR,M,M,M,M,M,M,M,M,M,M,M,M,M,M,25.08,KWMC 260556Z AUTO 35004KT 10SM CLR M01/M04 A2970 RMK AO2 SLP063 T10111039 10078 21017 58005,M
TPH,2023-02-26 05:56,-117.0904,38.0505,1654.00,28.90,28.00,96.38,180.00,5.00,T,29.74,1007.00,5.00,M,BKN,BKN,OVC,M,500.00,1000.00,1400.00,M,BR,M,M,M,M,M,M,22.71,KTPH 260556Z AUTO 18005KT 5SM BR BKN005 BKN010 OVC014 M02/M02 A2974 RMK AO2 SNE20 SLP070 P0000 60013 T10171022 10000 21022 58002,M
NFL,2023-02-26 05:56,-118.7010,39.4166,1199.00,36.00,33.00,89.09,260.00,6.00,T,29.74,1005.20,10.00,M,OVC,M,M,M,5500.00,M,M,M,M,M,M,M,M,M,M,30.35,KNFL 260556Z AUTO 26006KT 10SM OVC055 02/01 A2974 RMK AO2 UPE28 SLP052 P0000 60002 T00220006 10056 20022 50001 $,M
HND,2023-02-26 05:56,-115.1344,35.9729,742.79,40.00,33.00,76.44,210.00,10.00,T,29.83,1012.10,10.00,M,FEW,BKN,OVC,M,3400.00,4700.00,7000.00,M,-RA,M,M,M,M,M,M,32.87,KHND 260556Z AUTO 21010KT 10SM -RA FEW034 BKN047 OVC070 04/01 A2983 RMK AO2 RAE18B40 SLP121 P0000 60013 T00440006 10106 20033 50003,M
LAS,2023-02-26 05:56,-115.1634,36.0719,663.00,40.00,35.00,82.80,0.00,0.00,T,29.83,1009.90,10.00,M,BKN,OVC,M,M,2300.00,3500.00,M,M,M,M,M,M,M,M,M,39.90,KLAS 260556Z 00000KT 10SM BKN023 OVC035 04/02 A2983 RMK AO2 RAE08B46E55 SLP099 P0000 60024 T00440017 10111 20044 50010,M
TPH,2023-02-26 06:01,-117.0904,38.0505,1654.00,28.90,28.00,96.38,150.00,5.00,0.00,29.75,M,1.50,M,BKN,BKN,OVC,M,500.00,1000.00,1800.00,M,BR,M,M,M,M,M,M,22.71,KTPH 260601Z AUTO 15005KT 1 1/2SM BR BKN005 BKN010 OVC018 M02/M02 A2975 RMK AO2 T10171022,M
LAS,2023-02-26 06:03,-115.1634,36.0719,663.00,40.00,35.00,82.80,0.00,0.00,0.00,29.83,M,10.00,M,SCT,BKN,OVC,M,4500.00,7500.00,9000.00,M,M,M,M,M,M,M,M,39.90,KLAS 260603Z 00000KT 10SM SCT045 BKN075 OVC090 04/02 A2983 RMK AO2 T00440017,M
INS,2023-02-26 06:05,-115.6733,36.5872,955.00,33.80,33.80,100.00,30.00,4.00,0.00,29.80,1008.30,10.00,M,FEW,BKN,OVC,M,600.00,1200.00,9500.00,M,M,M,M,M,M,M,M,29.52,KINS 260605Z AUTO 03004KT 10SM FEW006 BKN012 OVC095 01/01 A2980 RMK AO2 PRESFR SLP083 $,M
INS,2023-02-26 06:10,-115.6733,36.5872,955.00,33.80,33.80,100.00,310.00,5.00,0.00,29.80,1008.30,10.00,M,FEW,SCT,BKN,M,600.00,1000.00,9500.00,M,M,M,M,M,M,M,M,28.53,KINS 260610Z AUTO 31005KT 10SM FEW006 SCT010 BKN095 01/01 A2980 RMK AO2 SLP083 $,M
BVU,2023-02-26 06:15,-114.8611,35.9475,671.00,41.00,37.40,86.89,170.00,11.00,0.00,29.86,M,10.00,M,FEW,BKN,OVC,M,2300.00,3100.00,7500.00,M,M,M,M,M,M,M,M,33.84,KBVU 260615Z AUTO 17011KT 10SM FEW023 BKN031 OVC075 05/03 A2986 RMK AO2,M
RTS,2023-02-26 06:15,-119.8764,39.6682,1539.00,30.20,28.40,92.92,310.00,3.00,0.00,29.76,M,10.00,M,FEW,BKN,BKN,M,2400.00,3200.00,4500.00,M,M,M,M,M,M,M,M,26.63,KRTS 260615Z AUTO 31003KT 10SM FEW024 BKN032 BKN045 M01/M02 A2976 RMK AO2,M
MEV,2023-02-26 06:15,-119.7500,38.9963,1441.42,33.80,30.20,86.49,350.00,9.00,0.00,29.75,M,10.00,M,FEW,BKN,OVC,M,2200.00,4500.00,7500.00,M,M,M,M,M,M,M,M,25.75,KMEV 260615Z AUTO 35009KT 10SM FEW022 BKN045 OVC075 01/M01 A2975 RMK AO2,M
BAM,2023-02-26 06:15,-116.8743,40.5990,1382.36,37.40,30.20,74.98,110.00,3.00,0.00,29.71,M,10.00,M,BKN,BKN,M,M,7000.00,9000.00,M,M,M,M,M,M,M,M,M,34.86,KBAM 260615Z AUTO 11003KT 10SM BKN070 BKN090 03/M01 A2971 RMK AO1,M
HTH,2023-02-26 06:15,-118.6315,38.5448,1282.89,33.80,33.80,100.00,0.00,0.00,0.00,29.76,M,10.00,M,SCT,BKN,OVC,M,3000.00,5000.00,6000.00,M,M,M,M,M,M,M,M,33.80,KHTH 260615Z AUTO 00000KT 10SM SCT030 BKN050 OVC060 01/01 A2976 RMK A01,M
TMT,2023-02-26 06:15,-117.1971,39.4643,1749.34,31.60,27.30,83.91,220.00,9.00,0.00,29.74,M,10.00,M,BKN,OVC,M,M,3800.00,4800.00,M,M,M,M,M,M,M,M,M,23.02,KTMT 260615Z AUTO 22009KT 10SM BKN038 OVC048 00/M03 A2974 RMK AO2 T10021026,M
TPH,2023-02-26 06:17,-117.0904,38.0505,1654.00,28.00,28.00,100.00,190.00,9.00,0.00,29.75,M,1.50,M,FEW,BKN,OVC,M,300.00,800.00,3700.00,M,BR,M,M,M,M,M,M,18.54,KTPH 260617Z AUTO 19009KT 1 1/2SM BR FEW003 BKN008 OVC037 M02/M02 A2975 RMK AO2 T10221022,M
LSV,2023-02-26 06:18,-115.0343,36.2362,570.00,41.00,41.00,100.00,180.00,9.00,0.00,29.80,1008.80,10.00,M,CLR,M,M,M,M,M,M,M,-RA,M,M,M,M,M,M,34.70,KLSV 260618Z AUTO 18009KT 10SM -RA CLR 05/05 A2980 RMK AO2 RAB18 SLP088 $,M
TPH,2023-02-26 06:21,-117.0904,38.0505,1654.00,28.00,27.00,95.97,230.00,7.00,T,29.75,M,3.00,M,FEW,BKN,OVC,M,300.00,800.00,2500.00,M,-SN BR,M,M,M,M,M,M,19.90,KTPH 260621Z AUTO 23007KT 3SM -SN BR FEW003 BKN008 OVC025 M02/M03 A2975 RMK AO2 SNB19 P0000 T10221028,M
LSV,2023-02-26 06:25,-115.0343,36.2362,570.00,41.00,41.00,100.00,190.00,10.00,0.00,29.80,1008.80,10.00,M,FEW,SCT,M,M,4500.00,10000.00,M,M,M,M,M,M,M,M,M,34.25,KLSV 260625Z AUTO 19010KT 10SM FEW045 SCT100 05/05 A2980 RMK AO2 RAB18E25 SLP088 $,M
HTH,2023-02-26 06:30,-118.6315,38.5448,1282.89,33.80,33.80,100.00,320.00,4.00,0.00,29.75,M,10.00,M,FEW,SCT,OVC,M,3400.00,4900.00,7000.00,M,M,M,M,M,M,M,M,29.52,KHTH 260630Z AUTO 32004KT 10SM FEW034 SCT049 OVC070 01/01 A2975 RMK A01,M
LSV,2023-02-26 06:34,-115.0343,36.2362,570.00,41.00,41.00,100.00,170.00,12.00,0.00,29.81,1009.10,10.00,M,SCT,BKN,BKN,M,2000.00,4400.00,10000.00,M,M,M,M,M,M,M,M,33.46,KLSV 260634Z AUTO 17012KT 10SM SCT020 BKN044 BKN100 05/05 A2981 RMK AO2 RAB18E25 SLP091 $,M
TPH,2023-02-26 06:34,-117.0904,38.0505,1654.00,27.00,25.00,92.05,210.00,8.00,T,29.74,M,9.00,M,FEW,BKN,OVC,M,300.00,1400.00,3500.00,M,M,M,M,M,M,M,M,17.95,KTPH 260634Z AUTO 21008KT 9SM FEW003 BKN014 OVC035 M03/M04 A2974 RMK AO2 SNB19E29 P0000 T10281039,M
BVU,2023-02-26 06:35,-114.8611,35.9475,671.00,41.00,35.60,80.93,190.00,7.00,0.00,29.85,M,10.00,12.00,SCT,BKN,OVC,M,4200.00,5500.00,7000.00,M,M,M,M,M,M,M,M,35.75,KBVU 260635Z AUTO 19007G12KT 10SM SCT042 BKN055 OVC070 05/02 A2985 RMK AO2,M
RTS,2023-02-26 06:35,-119.8764,39.6682,1539.00,30.20,28.40,92.92,0.00,0.00,0.00,29.76,M,10.00,M,OVC,M,M,M,3200.00,M,M,M,M,M,M,M,M,M,M,30.20,KRTS 260635Z AUTO 00000KT 10SM OVC032 M01/M02 A2976 RMK AO2,M
MEV,2023-02-26 06:35,-119.7500,38.9963,1441.42,33.80,30.20,86.49,60.00,9.00,0.00,29.74,M,10.00,M,FEW,BKN,OVC,M,3200.00,4400.00,8000.00,M,M,M,M,M,M,M,M,25.75,KMEV 260635Z AUTO 06009KT 10SM FEW032 BKN044 OVC080 01/M01 A2974 RMK AO2,M
BAM,2023-02-26 06:35,-116.8743,40.5990,1382.36,35.60,30.20,80.51,60.00,6.00,0.00,29.71,M,10.00,M,SCT,SCT,M,M,7000.00,9000.00,M,M,M,M,M,M,M,M,M,29.87,KBAM 260635Z AUTO 06006KT 10SM SCT070 SCT090 02/M01 A2971 RMK AO1,M
TMT,2023-02-26 06:35,-117.1971,39.4643,1749.34,31.60,28.00,86.36,210.00,5.00,0.00,29.73,M,10.00,M,OVC,M,M,M,3600.00,M,M,M,M,M,M,M,M,M,M,25.92,KTMT 260635Z AUTO 21005KT 10SM OVC036 00/M02 A2973 RMK AO2 T10021022,M
LSV,2023-02-26 06:37,-115.0343,36.2362,570.00,41.00,41.00,100.00,160.00,10.00,0.00,29.81,1009.10,10.00,M,SCT,BKN,BKN,BKN,2000.00,2700.00,4400.00,10000.00,M,M,M,M,M,M,M,34.25,KLSV 260637Z AUTO 16010KT 10SM SCT020 BKN027 BKN044 BKN100 05/05 A2981 RMK AO2 RAB18E25 CIG 027V100 SLP091 $,M
TPH,2023-02-26 06:42,-117.0904,38.0505,1654.00,26.10,25.00,95.53,210.00,7.00,T,29.74,M,10.00,M,FEW,SCT,OVC,M,300.00,1400.00,3300.00,M,M,M,M,M,M,M,M,17.59,KTPH 260642Z AUTO 21007KT 10SM FEW003 SCT014 OVC033 M03/M04 A2974 RMK AO2 SNB19E29 P0000 T10331039,M
P68,2023-02-26 06:53,-116.0056,39.6014,1993.00,36.00,28.90,75.15,130.00,7.00,0.00,29.68,1003.30,M,M,M,M,M,M,M,M,M,M,M,M,M,M,M,M,M,29.65,KP68 260653Z AUTO 13007KT 02/M02 A2968 RMK AO1 SLP033 T00221017,M
DRA,2023-02-26 06:53,-116.0278,36.6206,1009.00,28.00,26.10,92.46,120.00,3.00,0.00,29.82,1009.20,10.00,M,BKN,BKN,M,M,3600.00,5000.00,M,M,M,M,M,M,M,M,M,24.12,KDRA 260653Z AUTO 12003KT 10SM BKN036 BKN050 M02/M03 A2982 RMK AO2 SLP092 T10221033,M
ELY,2023-02-26 06:53,-114.8453,39.2950,1909.00,35.00,27.00,72.04,180.00,16.00,0.00,29.70,1004.10,10.00,26.00,FEW,BKN,BKN,M,5500.00,7000.00,9000.00,M,M,M,M,M,31.00,160.00,2023-02-26 06:01,24.46,KELY 260653Z AUTO 18016G26KT 10SM FEW055 BKN070 BKN090 02/M03 A2970 RMK AO2 PK WND 16031/0601 SLP041 T00171028,M
VGT,2023-02-26 06:53,-115.1933,36.2111,667.00,41.00,34.00,75.94,320.00,10.00,0.01,29.81,1011.10,10.00,M,OVC,M,M,M,10000.00,M,M,M,RA,M,M,M,M,M,M,34.25,KVGT 260653Z AUTO 32010KT 10SM RA OVC100 05/01 A2981 RMK AO2 SLP111 P0001 T00500011,M
LSV,2023-02-26 06:53,-115.0343,36.2362,570.00,41.00,41.00,100.00,180.00,9.00,0.00,29.81,1009.10,10.00,M,SCT,BKN,M,M,2200.00,4400.00,M,M,M,M,M,M,M,M,M,34.70,KLSV 260653Z AUTO 18009KT 10SM SCT022 BKN044 05/05 A2981 RMK AO2 RAB18E25 SLP091 $,M
LOL,2023-02-26 06:53,-118.5701,40.0684,1192.43,32.00,28.90,88.17,150.00,3.00,0.00,29.73,1007.70,10.00,M,SCT,OVC,M,M,5500.00,9000.00,M,M,M,M,M,M,M,M,M,28.69,KLOL 260653Z AUTO 15003KT 10SM SCT055 OVC090 00/M02 A2973 RMK AO2 SLP077 T00001017,M
BVU,2023-02-26 06:55,-114.8611,35.9475,671.00,41.00,35.60,80.93,170.00,6.00,0.00,29.85,M,10.00,M,FEW,SCT,BKN,M,2900.00,3600.00,4400.00,M,M,M,M,M,M,M,M,36.37,KBVU 260655Z AUTO 17006KT 10SM FEW029 SCT036 BKN044 05/02 A2985 RMK AO2,M
RTS,2023-02-26 06:55,-119.8764,39.6682,1539.00,28.40,28.40,100.00,20.00,4.00,0.00,29.75,M,10.00,M,BKN,BKN,BKN,M,3100.00,4300.00,7500.00,M,M,M,M,M,M,M,M,23.22,KRTS 260655Z AUTO 02004KT 10SM BKN031 BKN043 BKN075 M02/M02 A2975 RMK AO2,M
MEV,2023-02-26 06:55,-119.7500,38.9963,1441.42,33.80,32.00,93.03,80.00,8.00,0.00,29.75,M,10.00,M,BKN,BKN,OVC,M,2700.00,3400.00,4400.00,M,M,M,M,M,M,M,M,26.33,KMEV 260655Z AUTO 08008KT 10SM BKN027 BKN034 OVC044 01/M00 A2975 RMK AO2,M
BAM,2023-02-26 06:55,-116.8743,40.5990,1382.36,35.60,30.20,80.51,90.00,6.00,0.00,29.70,M,10.00,M,SCT,M,M,M,7500.00,M,M,M,M,M,M,M,M,M,M,29.87,KBAM 260655Z AUTO 09006KT 10SM SCT075 02/M01 A2970 RMK AO1,M
HTH,2023-02-26 06:55,-118.6315,38.5448,1282.89,33.80,32.00,93.03,150.00,3.00,0.00,29.74,M,10.00,M,OVC,M,M,M,6500.00,M,M,M,M,M,M,M,M,M,M,30.75,KHTH 260655Z AUTO 15003KT 10SM OVC065 01/00 A2974 RMK A01,M
TMT,2023-02-26 06:55,-117.1971,39.4643,1749.34,31.80,27.10,82.55,200.00,7.00,0.00,29.73,M,10.00,M,BKN,OVC,M,M,3800.00,4400.00,M,M,M,M,M,M,M,M,M,24.54,KTMT 260655Z AUTO 20007KT 10SM BKN038 OVC044 00/M03 A2973 RMK AO2 T10011027,M
INS,2023-02-26 06:55,-115.6733,36.5872,955.00,33.40,33.30,99.60,270.00,5.00,0.00,29.80,1008.30,10.00,M,FEW,SCT,M,M,9000.00,11000.00,M,M,M,M,M,M,M,M,M,28.06,KINS 260655Z AUTO 27005KT 10SM FEW090 SCT110 01/01 A2980 RMK AO2 SLP083 T00080007 $,M
LSV,2023-02-26 06:55,-115.0343,36.2362,570.00,41.40,41.20,99.23,180.00,9.00,T,29.81,1009.10,10.00,M,SCT,SCT,BKN,M,2200.00,2600.00,4400.00,M,M,M,M,M,M,M,M,35.20,KLSV 260655Z AUTO 18009KT 10SM SCT022 SCT026 BKN044 05/05 A2981 RMK AO2 RAB18E25 SLP091 P0000 T00520051 $,M
RNO,2023-02-26 06:55,-119.7711,39.4839,1341.00,34.00,33.00,96.46,0.00,0.00,0.00,29.76,1007.50,6.00,M,SCT,BKN,OVC,M,800.00,4000.00,5500.00,M,BR,M,M,M,M,M,M,34.00,KRNO 260655Z 00000KT 6SM BR SCT008 BKN040 OVC055 01/01 A2976 RMK AO2 SLP075 T00110006,M
EKO,2023-02-26 06:56,-115.7860,40.8242,1367.00,27.00,23.00,84.66,0.00,0.00,0.00,29.71,1007.30,10.00,M,CLR,M,M,M,M,M,M,M,M,M,M,M,M,M,M,27.00,KEKO 260656Z AUTO 00000KT 10SM CLR M03/M05 A2971 RMK AO2 SLP073 T10281050,M
WMC,2023-02-26 06:56,-117.8072,40.9019,1315.00,27.00,23.00,84.66,180.00,3.00,0.00,29.70,1006.50,10.00,M,CLR,M,M,M,M,M,M,M,M,M,M,M,M,M,M,22.97,KWMC 260656Z AUTO 18003KT 10SM CLR M03/M05 A2970 RMK AO2 SLP065 T10281050,M
TPH,2023-02-26 06:56,-117.0904,38.0505,1654.00,26.10,25.00,95.53,210.00,7.00,T,29.75,1007.40,10.00,M,OVC,M,M,M,3500.00,M,M,M,M,M,M,M,M,M,M,17.59,KTPH 260656Z AUTO 21007KT 10SM OVC035 M03/M04 A2975 RMK AO2 SNB19E29 SLP074 P0000 T10331039,M
LAS,2023-02-26 06:56,-115.1634,36.0719,663.00,41.00,36.00,82.22,120.00,5.00,0.00,29.84,1010.10,10.00,M,FEW,OVC,M,M,6000.00,11000.00,M,M,M,M,M,M,M,M,M,37.08,KLAS 260656Z 12005KT 10SM FEW060 OVC110 05/02 A2984 RMK AO2 SLP101 T00500022,M
NFL,2023-02-26 06:56,-118.7010,39.4166,1199.00,35.00,33.00,92.32,180.00,5.00,0.00,29.74,1005.20,10.00,M,OVC,M,M,M,5000.00,M,M,M,M,M,M,M,M,M,M,30.08,KNFL 260656Z AUTO 18005KT 10SM OVC050 02/01 A2974 RMK AO2 SLP052 T00170006 $,M
HND,2023-02-26 06:56,-115.1344,35.9729,742.79,40.00,33.00,76.44,190.00,14.00,T,29.85,1012.60,10.00,M,FEW,SCT,OVC,M,4200.00,5500.00,10000.00,M,M,M,M,M,M,M,M,31.35,KHND 260656Z AUTO 19014KT 10SM FEW042 SCT055 OVC100 04/01 A2985 RMK AO2 RAE00 SLP126 P0000 T00440006 401610033,M
LSV,2023-02-26 07:06,-115.0343,36.2362,570.00,41.00,41.00,100.00,180.00,10.00,0.00,29.81,1009.10,10.00,M,BKN,BKN,M,M,2200.00,4400.00,M,M,M,M,M,M,M,M,M,34.25,KLSV 260706Z AUTO 18010KT 10SM BKN022 BKN044 05/05 A2981 RMK AO2 CIG 022V044 BKN022 V SCT SLP091 $,M
LSV,2023-02-26 07:12,-115.0343,36.2362,570.00,41.00,41.00,100.00,180.00,10.00,0.00,29.81,1009.10,10.00,M,SCT,BKN,M,M,2200.00,4600.00,M,M,M,M,M,M,M,M,M,34.25,KLSV 260712Z AUTO 18010KT 10SM SCT022 BKN046 05/05 A2981 RMK AO2 SLP091 $,M
BVU,2023-02-26 07:15,-114.8611,35.9475,671.00,41.00,33.80,75.33,210.00,13.00,0.00,29.84,M,10.00,M,FEW,SCT,BKN,M,3200.00,4500.00,5000.00,M,M,M,M,M,M,M,M,33.10,KBVU 260715Z AUTO 21013KT 10SM FEW032 SCT045 BKN050 05/01 A2984 RMK AO2,M
RTS,2023-02-26 07:15,-119.8764,39.6682,1539.00,28.40,26.60,92.86,20.00,4.00,0.00,29.75,M,10.00,M,SCT,BKN,OVC,M,3200.00,3800.00,7000.00,M,M,M,M,M,M,M,M,23.22,KRTS 260715Z AUTO 02004KT 10SM SCT032 BKN038 OVC070 M02/M03 A2975 RMK AO2,M
MEV,2023-02-26 07:15,-119.7500,38.9963,1441.42,32.00,30.20,92.97,120.00,9.00,0.00,29.75,M,9.00,M,BKN,OVC,M,M,3000.00,4300.00,M,M,-SN,M,M,M,M,M,M,23.51,KMEV 260715Z AUTO 12009KT 9SM -SN BKN030 OVC043 00/M01 A2975 RMK AO2,M
BAM,2023-02-26 07:15,-116.8743,40.5990,1382.36,37.40,28.40,69.67,0.00,0.00,0.00,29.69,M,10.00,M,BKN,M,M,M,7500.00,M,M,M,M,M,M,M,M,M,M,37.40,KBAM 260715Z AUTO 00000KT 10SM BKN075 03/M02 A2969 RMK AO1,M
HTH,2023-02-26 07:15,-118.6315,38.5448,1282.89,33.80,28.40,80.36,130.00,9.00,0.00,29.75,M,10.00,M,OVC,M,M,M,6500.00,M,M,M,M,M,M,M,M,M,M,25.75,KHTH 260715Z AUTO 13009KT 10SM OVC065 01/M02 A2975 RMK A01,M
TMT,2023-02-26 07:15,-117.1971,39.4643,1749.34,30.90,27.30,86.32,190.00,9.00,0.00,29.72,M,10.00,M,BKN,OVC,M,M,3400.00,4000.00,M,M,M,M,M,M,M,M,M,22.15,KTMT 260715Z AUTO 19009KT 10SM BKN034 OVC040 M01/M03 A2972 RMK AO2 T10061026,M
LSV,2023-02-26 07:31,-115.0343,36.2362,570.00,41.00,41.00,100.00,190.00,8.00,0.00,29.80,1008.80,10.00,M,FEW,SCT,BKN,M,2100.00,4600.00,11000.00,M,M,M,M,M,M,M,M,35.20,KLSV 260731Z AUTO 19008KT 10SM FEW021 SCT046 BKN110 05/05 A2980 RMK AO2 SLP088 $,M
BVU,2023-02-26 07:35,-114.8611,35.9475,671.00,41.00,33.80,75.33,200.00,14.00,0.00,29.86,M,10.00,M,FEW,OVC,M,M,4400.00,5500.00,M,M,M,M,M,M,M,M,M,32.76,KBVU 260735Z AUTO 20014KT 10SM FEW044 OVC055 05/01 A2986 RMK AO2,M
RTS,2023-02-26 07:35,-119.8764,39.6682,1539.00,30.20,28.40,92.92,310.00,4.00,0.00,29.75,M,10.00,M,OVC,M,M,M,3600.00,M,M,M,M,M,M,M,M,M,M,25.32,KRTS 260735Z AUTO 31004KT 10SM OVC036 M01/M02 A2975 RMK AO2,M
MEV,2023-02-26 07:35,-119.7500,38.9963,1441.42,32.00,32.00,100.00,170.00,4.00,0.00,29.75,M,6.00,M,SCT,SCT,OVC,M,1100.00,1500.00,2900.00,M,-SN BR,M,M,M,M,M,M,27.42,KMEV 260735Z AUTO 17004KT 6SM -SN BR SCT011 SCT015 OVC029 00/M00 A2975 RMK AO2,M
BAM,2023-02-26 07:35,-116.8743,40.5990,1382.36,37.40,28.40,69.67,110.00,4.00,0.00,29.69,M,10.00,M,BKN,M,M,M,7500.00,M,M,M,M,M,M,M,M,M,M,33.73,KBAM 260735Z AUTO 11004KT 10SM BKN075 03/M02 A2969 RMK AO1,M
HTH,2023-02-26 07:35,-118.6315,38.5448,1282.89,33.80,26.60,74.63,160.00,6.00,0.00,29.75,M,10.00,M,OVC,M,M,M,6500.00,M,M,M,M,M,M,M,M,M,M,27.70,KHTH 260735Z AUTO 16006KT 10SM OVC065 01/M03 A2975 RMK A01,M
TMT,2023-02-26 07:35,-117.1971,39.4643,1749.34,30.60,27.70,88.83,200.00,8.00,0.00,29.73,M,10.00,M,OVC,M,M,M,3200.00,M,M,M,M,M,M,M,M,M,M,22.39,KTMT 260735Z AUTO 20008KT 10SM OVC032 M01/M02 A2973 RMK AO2 T10081024,M
DRA,2023-02-26 07:53,-116.0278,36.6206,1009.00,30.00,28.00,92.15,110.00,3.00,0.00,29.80,1008.40,10.00,M,FEW,BKN,BKN,M,800.00,3200.00,4800.00,M,M,M,M,M,M,M,M,26.40,KDRA 260753Z AUTO 11003KT 10SM FEW008 BKN032 BKN048 M01/M02 A2980 RMK AO2 SLP084 T10111022 401061028,M
ELY,2023-02-26 07:53,-114.8453,39.2950,1909.00,32.00,28.00,84.98,180.00,16.00,0.00,29.68,1003.70,10.00,M,OVC,M,M,M,6000.00,M,M,M,M,M,M,M,M,M,M,20.42,KELY 260753Z AUTO 18016KT 10SM OVC060 00/M02 A2968 RMK AO2 SLP037 T00001022 400501028,M
LOL,2023-02-26 07:53,-118.5701,40.0684,1192.43,33.00,30.00,88.23,0.00,0.00,0.00,29.71,1006.80,10.00,M,OVC,M,M,M,5500.00,M,M,M,M,M,M,M,M,M,M,33.10,KLOL 260753Z AUTO 00000KT 10SM OVC055 01/M01 A2971 RMK AO2 SLP068 T00061011 400941017,M
P68,2023-02-26 07:53,-116.0056,39.6014,1993.00,35.00,30.00,81.46,140.00,6.00,0.00,29.66,1002.30,M,M,M,M,M,M,M,M,M,M,M,M,M,M,M,M,M,29.26,KP68 260753Z AUTO 14006KT 02/M01 A2966 RMK AO1 SLP023 T00171011 400611011,M
VGT,2023-02-26 07:53,-115.1933,36.2111,667.00,42.00,35.00,76.04,180.00,5.00,T,29.84,1011.90,10.00,M,BKN,M,M,M,7000.00,M,M,M,RA,M,M,M,M,M,M,38.39,KVGT 260753Z AUTO 18005KT 10SM RA BKN070 06/02 A2984 RMK AO2 SLP119 P0000 T00560017 401720050,M
BVU,2023-02-26 07:55,-114.8611,35.9475,671.00,41.00,33.80,75.33,210.00,10.00,0.00,29.86,M,10.00,M,OVC,M,M,M,6000.00,M,M,M,M,M,M,M,M,M,M,34.25,KBVU 260755Z AUTO 21010KT 10SM OVC060 05/01 A2986 RMK AO2,M
RTS,2023-02-26 07:55,-119.8764,39.6682,1539.00,30.20,28.40,92.92,260.00,5.00,0.00,29.76,M,10.00,M,OVC,M,M,M,3600.00,M,M,M,M,M,M,M,M,M,M,24.26,KRTS 260755Z AUTO 26005KT 10SM OVC036 M01/M02 A2976 RMK AO2,M
MEV,2023-02-26 07:55,-119.7500,38.9963,1441.42,32.00,28.40,86.39,170.00,8.00,0.00,29.75,M,10.00,M,SCT,BKN,OVC,M,1200.00,1700.00,3100.00,M,UP,M,M,M,M,M,M,24.11,KMEV 260755Z AUTO 17008KT 10SM UP SCT012 BKN017 OVC031 00/M02 A2975 RMK AO2,M
BAM,2023-02-26 07:55,-116.8743,40.5990,1382.36,37.40,28.40,69.67,0.00,0.00,0.00,29.68,M,10.00,M,SCT,M,M,M,7500.00,M,M,M,M,M,M,M,M,M,M,37.40,KBAM 260755Z AUTO 00000KT 10SM SCT075 03/M02 A2968 RMK AO1,M
HTH,2023-02-26 07:55,-118.6315,38.5448,1282.89,33.80,30.20,86.49,140.00,3.00,0.00,29.74,M,10.00,M,FEW,OVC,M,M,4300.00,6500.00,M,M,M,M,M,M,M,M,M,30.75,KHTH 260755Z AUTO 14003KT 10SM FEW043 OVC065 01/M01 A2974 RMK A01,M
TMT,2023-02-26 07:55,-117.1971,39.4643,1749.34,30.40,27.70,89.55,190.00,7.00,0.00,29.72,M,10.00,M,OVC,M,M,M,3200.00,M,M,M,-SN,M,M,M,M,M,M,22.83,KTMT 260755Z AUTO 19007KT 10SM -SN OVC032 M01/M02 A2972 RMK AO2 T10091024 400751025,M
INS,2023-02-26 07:55,-115.6733,36.5872,955.00,34.00,31.30,89.72,80.00,3.00,0.00,29.80,1008.30,10.00,M,FEW,M,M,M,15000.00,M,M,M,M,M,M,M,M,M,M,30.97,KINS 260755Z AUTO 08003KT 10SM FEW150 01/M00 A2980 RMK AO2 SLP083 T00111004 401210005 $,M
LSV,2023-02-26 07:55,-115.0343,36.2362,570.00,41.00,40.80,99.23,190.00,6.00,0.00,29.82,1009.50,10.00,M,FEW,BKN,M,M,4100.00,13000.00,M,M,M,M,M,M,M,M,M,36.37,KLSV 260755Z AUTO 19006KT 10SM FEW041 BKN130 05/05 A2982 RMK AO2 SLP095 T00500049 401700050 $,M
RNO,2023-02-26 07:55,-119.7711,39.4839,1341.00,34.00,33.00,96.46,0.00,0.00,0.00,29.75,1007.40,5.00,M,FEW,OVC,M,M,1000.00,3600.00,M,M,BR,M,M,M,M,M,M,34.00,KRNO 260755Z 00000KT 5SM BR FEW010 OVC036 01/01 A2975 RMK AO2 SLP074 T00110006 400501006,M
EKO,2023-02-26 07:56,-115.7860,40.8242,1367.00,26.10,23.00,87.87,0.00,0.00,0.00,29.69,1006.40,10.00,M,CLR,M,M,M,M,M,M,M,M,M,M,M,M,M,M,26.10,KEKO 260756Z AUTO 00000KT 10SM CLR M03/M05 A2969 RMK AO2 SLP064 T10331050 400561083,M
WMC,2023-02-26 07:56,-117.8072,40.9019,1315.00,26.10,21.90,83.89,140.00,4.00,0.00,29.68,1005.40,10.00,M,CLR,M,M,M,M,M,M,M,M,M,M,M,M,M,M,20.53,KWMC 260756Z AUTO 14004KT 10SM CLR M03/M06 A2968 RMK AO2 SLP054 T10331056 401001033,M
HND,2023-02-26 07:56,-115.1344,35.9729,742.79,39.00,30.00,69.85,200.00,12.00,0.00,29.85,1012.60,10.00,M,SCT,SCT,M,M,5000.00,8000.00,M,M,M,M,M,M,M,M,M,30.91,KHND 260756Z AUTO 20012KT 10SM SCT050 SCT080 04/M01 A2985 RMK AO2 SLP126 T00391011,M
TPH,2023-02-26 07:56,-117.0904,38.0505,1654.00,25.00,24.10,96.31,160.00,3.00,T,29.73,1006.80,4.00,M,OVC,M,M,M,4400.00,M,M,M,-SN BR,M,M,M,M,M,M,20.69,KTPH 260756Z AUTO 16003KT 4SM -SN BR OVC044 M04/M04 A2973 RMK AO2 SNB46 SLP068 P0000 T10391044 400781039,M
NFL,2023-02-26 07:56,-118.7010,39.4166,1199.00,36.00,33.00,89.09,200.00,8.00,0.00,29.72,1004.50,10.00,M,BKN,OVC,M,M,5000.00,7000.00,M,M,M,M,M,M,M,M,M,29.04,KNFL 260756Z AUTO 20008KT 10SM BKN050 OVC070 02/01 A2972 RMK AO2 SLP045 T00220006 400561039 $,M
LAS,2023-02-26 07:56,-115.1634,36.0719,663.00,41.00,33.00,73.25,230.00,5.00,0.00,29.85,1010.40,10.00,M,FEW,BKN,M,M,4000.00,6000.00,M,M,M,M,M,M,M,M,M,37.08,KLAS 260756Z 23005KT 10SM FEW040 BKN060 05/01 A2985 RMK AO2 SLP104 T00500006 401610044,M
DRA,2023-02-26 08:02,-116.0278,36.6206,1009.00,30.90,28.90,92.18,30.00,4.00,0.00,29.80,M,10.00,M,BKN,BKN,OVC,M,600.00,3200.00,4800.00,M,M,M,M,M,M,M,M,26.14,KDRA 260802Z AUTO 03004KT 10SM BKN006 BKN032 OVC048 M01/M02 A2980 RMK AO2 CIG 005V009 T10061017,M
LSV,2023-02-26 08:05,-115.0343,36.2362,570.00,41.00,41.00,100.00,190.00,4.00,0.00,29.83,1009.80,10.00,M,BKN,OVC,M,M,3700.00,13000.00,M,M,M,M,M,M,M,M,M,37.93,KLSV 260805Z AUTO 19004KT 10SM BKN037 OVC130 05/05 A2983 RMK AO2 SLP098 $,M
BVU,2023-02-26 08:15,-114.8611,35.9475,671.00,41.00,32.00,70.08,210.00,8.00,0.00,29.84,M,10.00,M,OVC,M,M,M,7000.00,M,M,M,M,M,M,M,M,M,M,35.20,KBVU 260815Z AUTO 21008KT 10SM OVC070 05/M00 A2984 RMK AO2,M
RTS,2023-02-26 08:15,-119.8764,39.6682,1539.00,30.20,28.40,92.92,310.00,5.00,0.00,29.75,M,10.00,M,OVC,M,M,M,3600.00,M,M,M,M,M,M,M,M,M,M,24.26,KRTS 260815Z AUTO 31005KT 10SM OVC036 M01/M02 A2975 RMK AO2,M
MEV,2023-02-26 08:15,-119.7500,38.9963,1441.42,32.00,28.40,86.39,160.00,6.00,0.00,29.74,M,10.00,M,FEW,BKN,OVC,M,1500.00,2200.00,3300.00,M,M,M,M,M,M,M,M,25.53,KMEV 260815Z AUTO 16006KT 10SM FEW015 BKN022 OVC033 M00/M02 A2974 RMK AO2,M
BAM,2023-02-26 08:15,-116.8743,40.5990,1382.36,35.60,28.40,74.80,0.00,0.00,0.00,29.67,M,10.00,M,BKN,M,M,M,7500.00,M,M,M,M,M,M,M,M,M,M,35.60,KBAM 260815Z AUTO 00000KT 10SM BKN075 02/M02 A2967 RMK AO1,M
HTH,2023-02-26 08:15,-118.6315,38.5448,1282.89,33.80,24.80,69.25,140.00,7.00,0.00,29.75,M,10.00,M,OVC,M,M,M,7000.00,M,M,M,M,M,M,M,M,M,M,26.97,KHTH 260815Z AUTO 14007KT 10SM OVC070 01/M04 A2975 RMK A01,M
TMT,2023-02-26 08:15,-117.1971,39.4643,1749.34,30.40,27.70,89.55,180.00,5.00,0.00,29.71,M,10.00,M,OVC,M,M,M,3400.00,M,M,M,UP,M,M,M,M,M,M,24.50,KTMT 260815Z AUTO 18005KT 10SM UP OVC034 M01/M02 A2971 RMK AO2 T10091024,M
LSV,2023-02-26 08:29,-115.0343,36.2362,570.00,41.00,41.00,100.00,240.00,4.00,0.00,29.81,1009.10,10.00,M,SCT,SCT,M,M,3700.00,4500.00,M,M,M,M,M,M,M,M,M,37.93,KLSV 260829Z AUTO 24004KT 10SM SCT037 SCT045 05/05 A2981 RMK AO2 SLP091 $,M
BVU,2023-02-26 08:35,-114.8611,35.9475,671.00,39.20,30.20,69.88,210.00,11.00,0.00,29.85,M,10.00,16.00,FEW,M,M,M,7000.00,M,M,M,M,M,M,M,M,M,M,31.57,KBVU 260835Z AUTO 21011G16KT 10SM FEW070 04/M01 A2985 RMK AO2,M
RTS,2023-02-26 08:35,-119.8764,39.6682,1539.00,30.20,28.40,92.92,0.00,0.00,0.00,29.74,M,10.00,M,OVC,M,M,M,3900.00,M,M,M,M,M,M,M,M,M,M,30.20,KRTS 260835Z AUTO 00000KT 10SM OVC039 M01/M02 A2974 RMK AO2,M
MEV,2023-02-26 08:35,-119.7500,38.9963,1441.42,32.00,28.40,86.39,150.00,4.00,0.00,29.75,M,10.00,M,OVC,M,M,M,2100.00,M,M,M,M,M,M,M,M,M,M,27.42,KMEV 260835Z AUTO 15004KT 10SM OVC021 M00/M02 A2975 RMK AO2,M
BAM,2023-02-26 08:35,-116.8743,40.5990,1382.36,35.60,30.20,80.51,180.00,6.00,0.00,29.67,M,10.00,M,BKN,M,M,M,7500.00,M,M,M,M,M,M,M,M,M,M,29.87,KBAM 260835Z AUTO 18006KT 10SM BKN075 02/M01 A2967 RMK AO1,M
HTH,2023-02-26 08:35,-118.6315,38.5448,1282.89,33.80,24.80,69.25,130.00,8.00,0.00,29.74,M,10.00,M,FEW,OVC,M,M,6000.00,7000.00,M,M,M,M,M,M,M,M,M,26.33,KHTH 260835Z AUTO 13008KT 10SM FEW060 OVC070 01/M04 A2974 RMK A01,M
TMT,2023-02-26 08:35,-117.1971,39.4643,1749.34,30.20,27.90,91.03,180.00,6.00,0.00,29.71,M,10.00,M,BKN,OVC,M,M,3400.00,4300.00,M,M,M,M,M,M,M,M,M,23.36,KTMT 260835Z AUTO 18006KT 10SM BKN034 OVC043 M01/M02 A2971 RMK AO2 T10101023,M
RNO,2023-02-26 08:35,-119.7711,39.4839,1341.00,35.00,33.00,92.32,0.00,0.00,0.00,29.74,M,6.00,M,FEW,OVC,M,M,600.00,3800.00,M,M,BR,M,M,M,M,M,M,35.10,KRNO 260835Z 00000KT 6SM BR FEW006 OVC038 02/01 A2974 RMK AO2 T00170006,M
P68,2023-02-26 08:53,-116.0056,39.6014,1993.00,33.00,30.00,88.23,150.00,8.00,0.00,29.66,1002.70,M,M,M,M,M,M,M,M,M,M,M,M,M,M,M,M,M,25.47,KP68 260853Z AUTO 15008KT 01/M01 A2966 RMK AO1 SLP027 T00061011 55009,M
DRA,2023-02-26 08:53,-116.0278,36.6206,1009.00,33.00,30.90,91.51,310.00,4.00,0.00,29.80,1008.70,10.00,M,BKN,BKN,OVC,M,600.00,1300.00,1800.00,M,M,M,M,M,M,M,M,28.70,KDRA 260853Z AUTO 31004KT 10SM BKN006 BKN013 OVC018 01/M01 A2980 RMK AO2 CIG 005V010 SLP087 T00061006 56006,M
ELY,2023-02-26 08:53,-114.8453,39.2950,1909.00,30.00,26.10,85.21,60.00,9.00,0.00,29.67,1003.10,10.00,M,FEW,FEW,FEW,M,5000.00,10000.00,12000.00,M,M,M,M,M,M,M,M,21.03,KELY 260853Z AUTO 06009KT 10SM FEW050 FEW100 FEW120 M01/M03 A2967 RMK AO2 SLP031 T10111033 58015,M
LOL,2023-02-26 08:53,-118.5701,40.0684,1192.43,32.00,30.00,92.22,140.00,5.00,0.00,29.71,1006.30,10.00,M,OVC,M,M,M,5000.00,M,M,M,M,M,M,M,M,M,M,26.40,KLOL 260853Z AUTO 14005KT 10SM OVC050 00/M01 A2971 RMK AO2 SLP063 T00001011 58003,M
VGT,2023-02-26 08:53,-115.1933,36.2111,667.00,41.00,35.00,79.34,0.00,0.00,T,29.81,1011.20,10.00,M,FEW,M,M,M,8000.00,M,M,M,RA,M,M,M,M,M,M,41.00,KVGT 260853Z AUTO 00000KT 10SM RA FEW080 05/02 A2981 RMK AO2 SLP112 P0000 60001 T00500017 58002,M
BVU,2023-02-26 08:55,-114.8611,35.9475,671.00,39.20,30.20,69.88,210.00,7.00,0.00,29.85,M,10.00,M,CLR,M,M,M,M,M,M,M,M,M,M,M,M,M,M,33.56,KBVU 260855Z AUTO 21007KT 10SM CLR 04/M01 A2985 RMK AO2,M
RNO,2023-02-26 08:55,-119.7711,39.4839,1341.00,34.00,32.00,92.29,0.00,0.00,0.00,29.73,1006.60,5.00,M,FEW,OVC,M,M,600.00,4000.00,M,M,BR,M,M,M,M,M,M,34.00,KRNO 260855Z 00000KT 5SM BR FEW006 OVC040 01/00 A2973 RMK AO2 SLP066 T00110000 58011,M
RTS,2023-02-26 08:55,-119.8764,39.6682,1539.00,30.20,28.40,92.92,0.00,0.00,0.00,29.73,M,10.00,M,SCT,M,M,M,4000.00,M,M,M,M,M,M,M,M,M,M,30.20,KRTS 260855Z AUTO 00000KT 10SM SCT040 M01/M02 A2973 RMK AO2,M
MEV,2023-02-26 08:55,-119.7500,38.9963,1441.42,32.00,28.40,86.39,90.00,6.00,0.00,29.75,M,10.00,M,BKN,BKN,OVC,M,2000.00,2400.00,4200.00,M,M,M,M,M,M,M,M,25.53,KMEV 260855Z AUTO 09006KT 10SM BKN020 BKN024 OVC042 M00/M02 A2975 RMK AO2,M
BAM,2023-02-26 08:55,-116.8743,40.5990,1382.36,33.80,30.20,86.49,0.00,0.00,0.00,29.67,M,10.00,M,OVC,M,M,M,7500.00,M,M,M,M,M,M,M,M,M,M,33.80,KBAM 260855Z AUTO 00000KT 10SM OVC075 01/M01 A2967 RMK AO1,M
HTH,2023-02-26 08:55,-118.6315,38.5448,1282.89,33.80,24.80,69.25,130.00,7.00,0.00,29.74,M,10.00,M,OVC,M,M,M,7000.00,M,M,M,M,M,M,M,M,M,M,26.97,KHTH 260855Z AUTO 13007KT 10SM OVC070 01/M04 A2974 RMK A01,M
TMT,2023-02-26 08:55,-117.1971,39.4643,1749.34,30.20,28.00,91.40,190.00,5.00,0.00,29.70,M,10.00,M,OVC,M,M,M,3400.00,M,M,M,-SN,M,M,M,M,M,M,24.26,KTMT 260855Z AUTO 19005KT 10SM -SN OVC034 M01/M02 A2970 RMK AO2 T10101022,M
INS,2023-02-26 08:55,-115.6733,36.5872,955.00,33.00,31.80,95.67,120.00,5.00,0.00,29.80,1008.30,10.00,M,BKN,M,M,M,12000.00,M,M,M,M,M,M,M,M,M,M,27.46,KINS 260855Z AUTO 12005KT 10SM BKN120 01/M00 A2980 RMK AO2 SLP083 T00051001 56009 $,M
LSV,2023-02-26 08:55,-115.0343,36.2362,570.00,40.00,40.00,99.23,0.00,0.00,0.00,29.81,1009.00,10.00,M,FEW,M,M,M,7500.00,M,M,M,M,M,M,M,M,M,M,40.10,KLSV 260855Z AUTO 00000KT 10SM FEW075 05/04 A2981 RMK AO2 SLP090 60000 T00450044 50002 $,M
EKO,2023-02-26 08:56,-115.7860,40.8242,1367.00,27.00,23.00,84.66,0.00,0.00,0.00,29.67,1005.70,10.00,M,CLR,M,M,M,M,M,M,M,M,M,M,M,M,M,M,27.00,KEKO 260856Z AUTO 00000KT 10SM CLR M03/M05 A2967 RMK AO2 SLP057 T10281050 56016,M
WMC,2023-02-26 08:56,-117.8072,40.9019,1315.00,26.10,21.90,83.89,110.00,7.00,0.00,29.68,1005.10,10.00,M,CLR,M,M,M,M,M,M,M,M,M,M,M,M,M,M,17.59,KWMC 260856Z AUTO 11007KT 10SM CLR M03/M06 A2968 RMK AO2 SLP051 T10331056 58006,M
HND,2023-02-26 08:56,-115.1344,35.9729,742.79,37.00,28.00,69.63,170.00,11.00,0.00,29.84,1012.30,10.00,M,CLR,M,M,M,M,M,M,M,M,M,M,M,M,M,M,28.79,KHND 260856Z AUTO 17011KT 10SM CLR 03/M02 A2984 RMK AO2 SLP123 60000 T00281022 50003,M
TPH,2023-02-26 08:56,-117.0904,38.0505,1654.00,23.00,21.00,91.90,170.00,3.00,T,29.71,1006.70,10.00,M,OVC,M,M,M,4500.00,M,M,M,M,M,M,M,M,M,M,18.40,KTPH 260856Z AUTO 17003KT 10SM OVC045 M05/M06 A2971 RMK AO2 SNE17 SLP067 P0000 60000 T10501061 58010,M
LAS,2023-02-26 08:56,-115.1634,36.0719,663.00,40.00,28.00,62.15,200.00,4.00,0.00,29.83,1009.70,10.00,M,SCT,SCT,M,M,14000.00,22000.00,M,M,M,M,M,M,M,M,M,36.65,KLAS 260856Z 20004KT 10SM SCT140 SCT220 04/M02 A2983 RMK AO2 SLP097 T00441022 50000,M
NFL,2023-02-26 08:56,-118.7010,39.4166,1199.00,35.00,33.00,92.32,180.00,5.00,0.00,29.72,1004.60,10.00,M,OVC,M,M,M,5500.00,M,M,M,M,M,M,M,M,M,M,30.08,KNFL 260856Z AUTO 18005KT 10SM OVC055 02/01 A2972 RMK AO2 SLP046 T00170006 55006 $,M
DRA,2023-02-26 09:04,-116.0278,36.6206,1009.00,32.00,30.90,95.65,280.00,6.00,T,29.80,M,10.00,M,SCT,SCT,OVC,M,600.00,1300.00,1800.00,M,-SN,M,M,M,M,M,M,25.53,KDRA 260904Z AUTO 28006KT 10SM -SN SCT006 SCT013 OVC018 00/M01 A2980 RMK AO2 SNB04 P0000 T00001006,M
BVU,2023-02-26 09:15,-114.8611,35.9475,671.00,39.20,32.00,75.16,180.00,9.00,0.00,29.85,M,10.00,M,CLR,M,M,M,M,M,M,M,M,M,M,M,M,M,M,32.47,KBVU 260915Z AUTO 18009KT 10SM CLR 04/M00 A2985 RMK AO2,M
RTS,2023-02-26 09:15,-119.8764,39.6682,1539.00,30.20,28.40,92.92,260.00,3.00,0.00,29.72,M,10.00,M,CLR,M,M,M,M,M,M,M,M,M,M,M,M,M,M,26.63,KRTS 260915Z AUTO 26003KT 10SM CLR M01/M02 A2972 RMK AO2,M
MEV,2023-02-26 09:15,-119.7500,38.9963,1441.42,32.00,28.40,86.39,130.00,5.00,0.00,29.75,M,10.00,M,SCT,BKN,OVC,M,2200.00,3600.00,4200.00,M,M,M,M,M,M,M,M,26.40,KMEV 260915Z AUTO 13005KT 10SM SCT022 BKN036 OVC042 M00/M02 A2975 RMK AO2,M
BAM,2023-02-26 09:15,-116.8743,40.5990,1382.36,33.80,32.00,93.03,160.00,6.00,0.00,29.66,M,10.00,M,OVC,M,M,M,7500.00,M,M,M,M,M,M,M,M,M,M,27.70,KBAM 260915Z AUTO 16006KT 10SM OVC075 01/00 A2966 RMK AO1,M
HTH,2023-02-26 09:15,-118.6315,38.5448,1282.89,33.80,26.60,74.63,0.00,0.00,0.00,29.74,M,10.00,M,FEW,OVC,M,M,5500.00,7000.00,M,M,M,M,M,M,M,M,M,33.80,KHTH 260915Z AUTO 00000KT 10SM FEW055 OVC070 01/M03 A2974 RMK A01,M
TMT,2023-02-26 09:15,-117.1971,39.4643,1749.34,30.00,28.20,92.91,0.00,0.00,0.00,29.68,M,7.00,M,BKN,OVC,M,M,3800.00,4600.00,M,M,-SN,M,M,M,M,M,M,30.00,KTMT 260915Z AUTO 00000KT 7SM -SN BKN038 OVC046 M01/M02 A2968 RMK AO2 T10111021,M
BVU,2023-02-26 09:35,-114.8611,35.9475,671.00,39.20,28.40,64.93,190.00,8.00,0.00,29.85,M,10.00,M,CLR,M,M,M,M,M,M,M,M,M,M,M,M,M,M,32.98,KBVU 260935Z AUTO 19008KT 10SM CLR 04/M02 A2985 RMK AO2,M
RTS,2023-02-26 09:35,-119.8764,39.6682,1539.00,30.20,28.40,92.92,270.00,10.00,0.00,29.73,M,10.00,M,SCT,M,M,M,2200.00,M,M,M,M,M,M,M,M,M,M,20.71,KRTS 260935Z AUTO 27010KT 10SM SCT022 M01/M02 A2973 RMK AO2,M
MEV,2023-02-26 09:35,-119.7500,38.9963,1441.42,32.00,28.40,86.39,160.00,5.00,0.00,29.74,M,10.00,M,FEW,OVC,M,M,2300.00,3800.00,M,M,M,M,M,M,M,M,M,26.40,KMEV 260935Z AUTO 16005KT 10SM FEW023 OVC038 M00/M02 A2974 RMK AO2,M
BAM,2023-02-26 09:35,-116.8743,40.5990,1382.36,35.60,32.00,86.59,210.00,9.00,0.00,29.66,M,10.00,M,OVC,M,M,M,6500.00,M,M,M,M,M,M,M,M,M,M,27.99,KBAM 260935Z AUTO 21009KT 10SM OVC065 02/00 A2966 RMK AO1,M
HTH,2023-02-26 09:35,-118.6315,38.5448,1282.89,32.00,28.40,86.39,0.00,0.00,0.00,29.74,M,10.00,M,SCT,OVC,M,M,6000.00,7000.00,M,M,M,M,M,M,M,M,M,32.00,KHTH 260935Z AUTO 00000KT 10SM SCT060 OVC070 M00/M02 A2974 RMK A01,M
TMT,2023-02-26 09:35,-117.1971,39.4643,1749.34,29.10,27.50,93.65,0.00,0.00,0.00,29.68,M,10.00,M,SCT,SCT,BKN,M,2800.00,3800.00,4600.00,M,M,M,M,M,M,M,M,29.10,KTMT 260935Z AUTO 00000KT 10SM SCT028 SCT038 BKN046 M02/M02 A2968 RMK AO2 T10161025,M
ELY,2023-02-26 09:41,-114.8453,39.2950,1909.00,23.00,19.00,84.39,30.00,8.00,0.00,29.65,M,10.00,M,FEW,BKN,OVC,M,1500.00,2900.00,4500.00,M,M,M,M,M,M,M,M,13.03,KELY 260941Z AUTO 03008KT 10SM FEW015 BKN029 OVC045 M05/M07 A2965 RMK AO2 T10501072,M
INS,2023-02-26 09:45,-115.6733,36.5872,955.00,33.80,32.00,93.03,120.00,4.00,0.00,29.80,1008.30,10.00,M,BKN,BKN,OVC,M,2500.00,3900.00,7500.00,M,M,M,M,M,M,M,M,29.52,KINS 260945Z AUTO 12004KT 10SM BKN025 BKN039 OVC075 01/M00 A2980 RMK AO2 BKN025 V SCT SLP083 $,M
P68,2023-02-26 09:53,-116.0056,39.6014,1993.00,32.00,28.90,88.17,260.00,6.00,0.00,29.64,1001.90,M,M,M,M,M,M,M,M,M,M,M,M,M,M,M,M,M,25.53,KP68 260953Z AUTO 26006KT 00/M02 A2964 RMK AO1 SLP019 T00001017,M
DRA,2023-02-26 09:53,-116.0278,36.6206,1009.00,33.00,30.90,91.51,250.00,8.00,T,29.80,1008.90,4.00,17.00,SCT,BKN,OVC,M,2200.00,2700.00,3500.00,M,-SN BR,M,M,M,M,M,M,25.47,KDRA 260953Z AUTO 25008G17KT 4SM -SN BR SCT022 BKN027 OVC035 01/M01 A2980 RMK AO2 SNB04E13B42 SLP089 P0000 T00061006,M
ELY,2023-02-26 09:53,-114.8453,39.2950,1909.00,23.00,19.90,87.70,30.00,11.00,0.00,29.64,1003.50,10.00,M,FEW,BKN,OVC,M,1700.00,2700.00,3800.00,M,M,M,M,M,M,M,M,11.09,KELY 260953Z AUTO 03011KT 10SM FEW017 BKN027 OVC038 M05/M07 A2964 RMK AO2 SLP035 T10501067,M
LOL,2023-02-26 09:53,-118.5701,40.0684,1192.43,32.00,30.00,92.22,350.00,3.00,0.00,29.70,1005.90,10.00,M,OVC,M,M,M,5500.00,M,M,M,M,M,M,M,M,M,M,28.69,KLOL 260953Z AUTO 35003KT 10SM OVC055 00/M01 A2970 RMK AO2 SLP059 T00001011,M
VGT,2023-02-26 09:53,-115.1933,36.2111,667.00,40.00,35.00,82.80,360.00,4.00,T,29.82,1011.30,10.00,M,CLR,M,M,M,M,M,M,M,RA,M,M,M,M,M,M,36.65,KVGT 260953Z AUTO 36004KT 10SM RA CLR 04/02 A2982 RMK AO2 SLP113 P0000 T00440017,M
BVU,2023-02-26 09:55,-114.8611,35.9475,671.00,37.40,30.20,74.98,200.00,7.00,0.00,29.85,M,10.00,M,FEW,M,M,M,4300.00,M,M,M,M,M,M,M,M,M,M,31.36,KBVU 260955Z AUTO 20007KT 10SM FEW043 03/M01 A2985 RMK AO2,M
INS,2023-02-26 09:55,-115.6733,36.5872,955.00,33.80,31.50,91.17,150.00,3.00,0.00,29.80,1008.30,10.00,M,BKN,BKN,OVC,M,2500.00,6000.00,7500.00,M,M,M,M,M,M,M,M,30.75,KINS 260955Z AUTO 15003KT 10SM BKN025 BKN060 OVC075 01/M00 A2980 RMK AO2 SLP083 T00101003 $,M
RNO,2023-02-26 09:55,-119.7711,39.4839,1341.00,34.00,32.00,92.29,0.00,0.00,0.00,29.72,1006.40,6.00,M,SCT,SCT,BKN,M,400.00,1800.00,4400.00,M,BR BCFG,M,M,M,M,M,M,34.00,KRNO 260955Z 00000KT 6SM BR BCFG SCT004 SCT018 BKN044 01/00 A2972 RMK AO2 SLP064 BCFG S THRU W T00110000,M
RTS,2023-02-26 09:55,-119.8764,39.6682,1539.00,30.20,28.40,92.92,300.00,19.00,0.00,29.73,M,10.00,M,BKN,M,M,M,2300.00,M,M,M,M,M,M,M,M,M,M,17.06,KRTS 260955Z AUTO 30019KT 10SM BKN023 M01/M02 A2973 RMK AO2,M
MEV,2023-02-26 09:55,-119.7500,38.9963,1441.42,32.00,26.60,80.22,0.00,0.00,0.00,29.75,M,10.00,M,OVC,M,M,M,3900.00,M,M,M,M,M,M,M,M,M,M,32.00,KMEV 260955Z AUTO 00000KT 10SM OVC039 00/M03 A2975 RMK AO2,M
BAM,2023-02-26 09:55,-116.8743,40.5990,1382.36,37.40,32.00,80.65,230.00,7.00,0.00,29.65,M,10.00,M,OVC,M,M,M,6500.00,M,M,M,M,M,M,M,M,M,M,31.36,KBAM 260955Z AUTO 23007KT 10SM OVC065 03/00 A2965 RMK AO1,M
HTH,2023-02-26 09:55,-118.6315,38.5448,1282.89,32.00,30.20,92.97,180.00,4.00,0.00,29.73,M,10.00,M,OVC,M,M,M,6500.00,M,M,M,M,M,M,M,M,M,M,27.42,KHTH 260955Z AUTO 18004KT 10SM OVC065 M00/M01 A2973 RMK A01,M
TMT,2023-02-26 09:55,-117.1971,39.4643,1749.34,27.10,26.10,95.95,0.00,0.00,0.00,29.68,M,10.00,M,CLR,M,M,M,M,M,M,M,M,M,M,M,M,M,M,27.10,KTMT 260955Z AUTO 00000KT 10SM CLR M03/M03 A2968 RMK AO2 T10271033,M
LSV,2023-02-26 09:55,-115.0343,36.2362,570.00,38.70,38.50,99.22,190.00,7.00,0.00,29.81,1009.10,10.00,M,CLR,M,M,M,M,M,M,M,M,M,M,M,M,M,M,32.95,KLSV 260955Z AUTO 19007KT 10SM CLR 04/04 A2981 RMK AO2 SLP091 T00370036 $,M
EKO,2023-02-26 09:56,-115.7860,40.8242,1367.00,25.00,21.90,87.81,0.00,0.00,0.00,29.65,1005.00,10.00,M,CLR,M,M,M,M,M,M,M,M,T,M,M,M,M,M,25.00,KEKO 260956Z AUTO 00000KT 10SM CLR M04/M06 A2965 RMK AO2 SLP050 I1000 T10391056,M
WMC,2023-02-26 09:56,-117.8072,40.9019,1315.00,28.90,25.00,85.14,240.00,3.00,0.00,29.67,1004.70,10.00,M,BKN,OVC,M,M,5000.00,9500.00,M,M,M,M,M,M,M,M,M,25.14,KWMC 260956Z AUTO 24003KT 10SM BKN050 OVC095 M02/M04 A2967 RMK AO2 SLP047 T10171039,M
HND,2023-02-26 09:56,-115.1344,35.9729,742.79,36.00,27.00,69.51,180.00,13.00,0.00,29.84,1012.40,10.00,M,CLR,M,M,M,M,M,M,M,M,M,M,M,M,M,M,26.69,KHND 260956Z AUTO 18013KT 10SM CLR 02/M03 A2984 RMK AO2 SLP124 T00221028 FZRANO,M
TPH,2023-02-26 09:56,-117.0904,38.0505,1654.00,19.90,18.00,92.19,250.00,6.00,0.00,29.71,1007.50,10.00,M,OVC,M,M,M,4400.00,M,M,M,M,M,M,M,M,M,M,10.96,KTPH 260956Z AUTO 25006KT 10SM OVC044 M07/M08 A2971 RMK AO2 SLP075 T10671078,M
LAS,2023-02-26 09:56,-115.1634,36.0719,663.00,39.00,27.00,61.78,190.00,8.00,0.00,29.83,1009.70,10.00,M,SCT,M,M,M,14000.00,M,M,M,M,M,M,M,M,M,M,32.74,KLAS 260956Z 19008KT 10SM SCT140 04/M03 A2983 RMK AO2 SLP097 T00391028,M
NFL,2023-02-26 09:56,-118.7010,39.4166,1199.00,36.00,33.00,89.09,200.00,7.00,0.00,29.71,1004.30,10.00,M,OVC,M,M,M,5500.00,M,M,M,M,M,M,M,M,M,M,29.65,KNFL 260956Z AUTO 20007KT 10SM OVC055 02/01 A2971 RMK AO2 SLP043 T00220006 $,M
INS,2023-02-26 09:59,-115.6733,36.5872,955.00,33.80,32.00,93.03,150.00,3.00,0.00,29.80,1008.30,10.00,M,BKN,BKN,OVC,M,2500.00,6000.00,7500.00,M,-UP,M,M,M,M,M,M,30.75,KINS 260959Z AUTO 15003KT 10SM -UP BKN025 BKN060 OVC075 01/M00 A2980 RMK AO2 UPB59 SLP083 $,M
INS,2023-02-26 10:14,-115.6733,36.5872,955.00,33.80,32.00,93.03,140.00,4.00,0.00,29.80,1008.50,10.00,M,SCT,OVC,M,M,2500.00,4400.00,M,M,-UP,M,M,M,M,M,M,29.52,KINS 261014Z AUTO 14004KT 10SM -UP SCT025 OVC044 01/M00 A2980 RMK AO2 UPB0959 SLP085 $,M
BVU,2023-02-26 10:15,-114.8611,35.9475,671.00,37.40,30.20,74.98,200.00,7.00,0.00,29.85,M,10.00,M,FEW,FEW,M,M,4400.00,11000.00,M,M,M,M,M,M,M,M,M,31.36,KBVU 261015Z AUTO 20007KT 10SM FEW044 FEW110 03/M01 A2985 RMK AO2,M
RTS,2023-02-26 10:15,-119.8764,39.6682,1539.00,32.00,26.60,80.22,300.00,15.00,0.00,29.74,M,10.00,23.00,OVC,M,M,M,2600.00,M,M,M,M,M,M,M,M,M,M,20.78,KRTS 261015Z AUTO 30015G23KT 10SM OVC026 M00/M03 A2974 RMK AO2,M
MEV,2023-02-26 10:15,-119.7500,38.9963,1441.42,32.00,28.40,86.39,0.00,0.00,0.00,29.74,M,10.00,M,OVC,M,M,M,3800.00,M,M,M,M,M,M,M,M,M,M,32.00,KMEV 261015Z AUTO 00000KT 10SM OVC038 M00/M02 A2974 RMK AO2,M
BAM,2023-02-26 10:15,-116.8743,40.5990,1382.36,37.40,32.00,80.65,220.00,9.00,0.00,29.65,M,10.00,M,OVC,M,M,M,6500.00,M,M,M,M,M,M,M,M,M,M,30.23,KBAM 261015Z AUTO 22009KT 10SM OVC065 03/00 A2965 RMK AO1,M
HTH,2023-02-26 10:15,-118.6315,38.5448,1282.89,32.00,30.20,92.97,150.00,7.00,0.00,29.73,M,10.00,M,OVC,M,M,M,6000.00,M,M,M,M,M,M,M,M,M,M,24.78,KHTH 261015Z AUTO 15007KT 10SM OVC060 M00/M01 A2973 RMK A01,M
TMT,2023-02-26 10:15,-117.1971,39.4643,1749.34,26.60,25.70,96.34,190.00,5.00,0.00,29.67,M,10.00,M,BKN,M,M,M,2700.00,M,M,M,M,M,M,M,M,M,M,19.98,KTMT 261015Z AUTO 19005KT 10SM BKN027 M03/M03 A2967 RMK AO2 T10301035,M
DRA,2023-02-26 10:17,-116.0278,36.6206,1009.00,33.00,30.90,91.51,230.00,6.00,T,29.80,M,10.00,M,SCT,OVC,M,M,2500.00,3300.00,M,M,M,M,M,M,M,M,M,26.86,KDRA 261017Z AUTO 23006KT 10SM SCT025 OVC033 01/M01 A2980 RMK AO2 SNE00 P0000 T00061006,M
INS,2023-02-26 10:23,-115.6733,36.5872,955.00,33.80,32.00,93.03,140.00,3.00,0.00,29.80,1008.50,10.00,M,FEW,SCT,M,M,500.00,2500.00,M,M,-SN,M,M,M,M,M,M,30.75,KINS 261023Z AUTO 14003KT 10SM -SN FEW005 SCT025 01/00 A2980 RMK AO2 UPB0959E23SNB23 SLP085 $,M
ELY,2023-02-26 10:31,-114.8453,39.2950,1909.00,24.10,21.90,91.17,M,4.00,T,29.63,M,2.00,M,OVC,M,M,M,1800.00,M,M,M,-SN BR,M,M,M,M,M,M,18.19,KELY 261031Z AUTO VRB04KT 2SM -SN BR OVC018 M04/M06 A2963 RMK AO2 SNB05 P0000 T10441056,M
BVU,2023-02-26 10:35,-114.8611,35.9475,671.00,37.40,33.80,86.69,200.00,7.00,0.00,29.85,M,10.00,M,CLR,M,M,M,M,M,M,M,M,M,M,M,M,M,M,31.36,KBVU 261035Z AUTO 20007KT 10SM CLR 03/01 A2985 RMK AO2,M
RTS,2023-02-26 10:35,-119.8764,39.6682,1539.00,32.00,24.80,74.44,300.00,15.00,0.00,29.74,M,10.00,20.00,OVC,M,M,M,2500.00,M,M,M,M,M,M,M,M,M,M,20.78,KRTS 261035Z AUTO 30015G20KT 10SM OVC025 M00/M04 A2974 RMK AO2,M
MEV,2023-02-26 10:35,-119.7500,38.9963,1441.42,32.00,26.60,80.22,100.00,4.00,0.00,29.74,M,10.00,M,OVC,M,M,M,3900.00,M,M,M,M,M,M,M,M,M,M,27.42,KMEV 261035Z AUTO 10004KT 10SM OVC039 M00/M03 A2974 RMK AO2,M
BAM,2023-02-26 10:35,-116.8743,40.5990,1382.36,37.40,32.00,80.65,0.00,0.00,0.00,29.65,M,10.00,M,OVC,M,M,M,6500.00,M,M,M,M,M,M,M,M,M,M,37.40,KBAM 261035Z AUTO 00000KT 10SM OVC065 03/00 A2965 RMK AO1,M
HTH,2023-02-26 10:35,-118.6315,38.5448,1282.89,32.00,30.20,92.97,140.00,6.00,0.00,29.73,M,10.00,M,OVC,M,M,M,6000.00,M,M,M,M,M,M,M,M,M,M,25.53,KHTH 261035Z AUTO 14006KT 10SM OVC060 M00/M01 A2973 RMK A01,M
TMT,2023-02-26 10:35,-117.1971,39.4643,1749.34,29.30,27.50,92.89,210.00,9.00,0.00,29.67,M,10.00,M,SCT,SCT,OVC,M,1000.00,1900.00,2700.00,M,M,M,M,M,M,M,M,20.16,KTMT 261035Z AUTO 21009KT 10SM SCT010 SCT019 OVC027 M01/M02 A2967 RMK AO2 T10151025,M
INS,2023-02-26 10:38,-115.6733,36.5872,955.00,33.80,32.00,93.03,110.00,3.00,0.00,29.80,1008.70,9.00,M,FEW,M,M,M,500.00,M,M,M,M,M,M,M,M,M,M,30.75,KINS 261038Z AUTO 11003KT 9SM FEW005 01/00 A2980 RMK AO2 UPB0959E23SNB23E38 SLP087 $,M
INS,2023-02-26 10:48,-115.6733,36.5872,955.00,33.80,32.00,93.03,120.00,4.00,0.00,29.80,1009.00,10.00,M,FEW,BKN,M,M,500.00,2800.00,M,M,M,M,M,M,M,M,M,29.52,KINS 261048Z AUTO 12004KT 10SM FEW005 BKN028 01/00 A2980 RMK AO2 UPB0959E23SNB23E38 SLP090 $,M
P68,2023-02-26 10:53,-116.0056,39.6014,1993.00,30.00,28.00,92.15,70.00,7.00,0.00,29.63,1001.70,M,M,M,M,M,M,M,M,M,M,M,M,M,M,M,M,M,22.34,KP68 261053Z AUTO 07007KT M01/M02 A2963 RMK AO1 SLP017 T10111022,M
DRA,2023-02-26 10:53,-116.0278,36.6206,1009.00,33.00,30.90,91.51,250.00,5.00,T,29.80,1009.20,10.00,M,FEW,BKN,OVC,M,1500.00,2700.00,3600.00,M,M,M,M,M,M,M,M,27.70,KDRA 261053Z AUTO 25005KT 10SM FEW015 BKN027 OVC036 01/M01 A2980 RMK AO2 SNE00 SLP092 P0000 T00061006,M
ELY,2023-02-26 10:53,-114.8453,39.2950,1909.00,24.10,21.00,87.76,0.00,0.00,T,29.63,1002.80,3.00,M,OVC,M,M,M,2000.00,M,M,M,-SN BR,M,M,M,M,M,M,24.10,KELY 261053Z AUTO 00000KT 3SM -SN BR OVC020 M04/M06 A2963 RMK AO2 SNB05 SLP028 P0000 T10441061,M
LOL,2023-02-26 10:53,-118.5701,40.0684,1192.43,32.00,30.90,95.65,220.00,4.00,0.00,29.67,1005.10,10.00,M,BKN,M,M,M,5500.00,M,M,M,M,M,M,M,M,M,M,27.42,KLOL 261053Z AUTO 22004KT 10SM BKN055 00/M01 A2967 RMK AO2 SLP051 T00001006,M
VGT,2023-02-26 10:53,-115.1933,36.2111,667.00,39.00,35.00,85.76,360.00,4.00,T,29.82,1011.30,10.00,M,CLR,M,M,M,M,M,M,M,RA,M,M,M,M,M,M,35.59,KVGT 261053Z AUTO 36004KT 10SM RA CLR 04/02 A2982 RMK AO2 SLP113 P0000 T00390017,M
BVU,2023-02-26 10:55,-114.8611,35.9475,671.00,37.40,32.00,80.65,210.00,6.00,0.00,29.85,M,10.00,M,CLR,M,M,M,M,M,M,M,M,M,M,M,M,M,M,32.03,KBVU 261055Z AUTO 21006KT 10SM CLR 03/00 A2985 RMK AO2,M
RTS,2023-02-26 10:55,-119.8764,39.6682,1539.00,32.00,24.80,74.44,290.00,13.00,0.00,29.74,M,10.00,M,OVC,M,M,M,2500.00,M,M,M,M,M,M,M,M,M,M,21.57,KRTS 261055Z AUTO 29013KT 10SM OVC025 M00/M04 A2974 RMK AO2,M
MEV,2023-02-26 10:55,-119.7500,38.9963,1441.42,32.00,26.60,80.22,M,5.00,0.00,29.74,M,10.00,M,OVC,M,M,M,4000.00,M,M,M,M,M,M,M,M,M,M,26.40,KMEV 261055Z AUTO VRB05KT 10SM OVC040 M00/M03 A2974 RMK AO2,M
BAM,2023-02-26 10:55,-116.8743,40.5990,1382.36,37.40,32.00,80.65,80.00,4.00,0.00,29.64,M,10.00,M,OVC,M,M,M,6500.00,M,M,M,M,M,M,M,M,M,M,33.73,KBAM 261055Z AUTO 08004KT 10SM OVC065 03/00 A2964 RMK AO1,M
HTH,2023-02-26 10:55,-118.6315,38.5448,1282.89,32.00,28.40,86.39,170.00,6.00,0.00,29.72,M,10.00,M,BKN,OVC,M,M,5000.00,6000.00,M,M,M,M,M,M,M,M,M,25.53,KHTH 261055Z AUTO 17006KT 10SM BKN050 OVC060 00/M02 A2972 RMK A01,M
TMT,2023-02-26 10:55,-117.1971,39.4643,1749.34,29.70,27.10,89.89,210.00,9.00,0.00,29.65,M,10.00,M,OVC,M,M,M,2200.00,M,M,M,M,M,M,M,M,M,M,20.65,KTMT 261055Z AUTO 21009KT 10SM OVC022 M01/M03 A2965 RMK AO2 T10131027,M
INS,2023-02-26 10:55,-115.6733,36.5872,955.00,33.80,32.50,94.92,130.00,4.00,T,29.80,1009.00,10.00,M,FEW,BKN,OVC,M,1900.00,2800.00,4500.00,M,M,M,M,M,M,M,M,29.52,KINS 261055Z AUTO 13004KT 10SM FEW019 BKN028 OVC045 01/00 A2980 RMK AO2 UPB0959E23SNB23E38 SLP090 P0000 T00100003 $,M
RNO,2023-02-26 10:55,-119.7711,39.4839,1341.00,35.00,30.90,84.49,340.00,6.00,0.00,29.73,1006.30,7.00,M,FEW,SCT,BKN,M,400.00,1800.00,4500.00,M,BCFG,M,M,M,M,M,M,29.26,KRNO 261055Z 34006KT 7SM BCFG FEW004 SCT018 BKN045 02/M01 A2973 RMK AO2 SLP063 BCFG S THRU W T00171006,M
LSV,2023-02-26 10:55,-115.0343,36.2362,570.00,38.00,38.00,99.22,190.00,10.00,0.00,29.81,1009.10,10.00,M,CLR,M,M,M,M,M,M,M,M,M,M,M,M,M,M,30.62,KLSV 261055Z AUTO 19010KT 10SM CLR 03/03 A2981 RMK AO2 SLP091 T00340033 $,M
EKO,2023-02-26 10:56,-115.7860,40.8242,1367.00,25.00,21.90,87.81,20.00,4.00,0.00,29.62,1004.20,10.00,M,CLR,M,M,M,M,M,M,M,M,M,M,M,M,M,M,19.25,KEKO 261056Z AUTO 02004KT 10SM CLR M04/M06 A2962 RMK AO2 SLP042 T10391056,M
WMC,2023-02-26 10:56,-117.8072,40.9019,1315.00,28.90,24.10,82.00,200.00,7.00,0.00,29.63,1003.20,10.00,M,FEW,M,M,M,5000.00,M,M,M,M,M,M,M,M,M,M,21.00,KWMC 261056Z AUTO 20007KT 10SM FEW050 M02/M04 A2963 RMK AO2 SLP032 T10171044,M
HND,2023-02-26 10:56,-115.1344,35.9729,742.79,36.00,27.00,69.51,200.00,10.00,0.00,29.84,1012.20,10.00,M,CLR,M,M,M,M,M,M,M,M,M,M,M,M,M,M,27.98,KHND 261056Z AUTO 20010KT 10SM CLR 02/M03 A2984 RMK AO2 SLP122 T00221028 FZRANO,M
TPH,2023-02-26 10:56,-117.0904,38.0505,1654.00,21.00,19.00,91.83,240.00,8.00,0.00,29.71,1007.80,10.00,M,FEW,OVC,M,M,4600.00,7000.00,M,M,M,M,M,M,M,M,M,10.56,KTPH 261056Z AUTO 24008KT 10SM FEW046 OVC070 M06/M07 A2971 RMK AO2 SLP078 T10611072,M
LAS,2023-02-26 10:56,-115.1634,36.0719,663.00,38.00,27.00,64.49,180.00,8.00,0.00,29.82,1009.60,10.00,M,FEW,M,M,M,14000.00,M,M,M,M,M,M,M,M,M,M,31.38,KLAS 261056Z 18008KT 10SM FEW140 03/M03 A2982 RMK AO2 SLP096 T00331028,M
NFL,2023-02-26 10:56,-118.7010,39.4166,1199.00,35.00,33.00,92.32,200.00,5.00,0.00,29.69,1003.70,10.00,M,BKN,OVC,M,M,4800.00,9500.00,M,M,M,M,M,M,M,M,M,30.08,KNFL 261056Z AUTO 20005KT 10SM BKN048 OVC095 02/01 A2969 RMK AO2 SLP037 T00170006 $,M
INS,2023-02-26 11:05,-115.6733,36.5872,955.00,33.80,32.00,93.03,140.00,4.00,0.00,29.80,1009.00,10.00,M,BKN,BKN,OVC,M,2900.00,4900.00,6000.00,M,M,M,M,M,M,M,M,29.52,KINS 261105Z AUTO 14004KT 10SM BKN029 BKN049 OVC060 01/M00 A2980 RMK AO2 SLP090 $,M
ELY,2023-02-26 11:06,-114.8453,39.2950,1909.00,24.10,21.00,87.76,0.00,0.00,T,29.62,M,1.75,M,BKN,OVC,M,M,1900.00,2600.00,M,M,-SN BR,M,M,M,M,M,M,24.10,KELY 261106Z AUTO 00000KT 1 3/4SM -SN BR BKN019 OVC026 M04/M06 A2962 RMK AO2 P0000 T10441061,M
DRA,2023-02-26 11:11,-116.0278,36.6206,1009.00,33.00,30.90,91.51,230.00,5.00,0.00,29.80,M,10.00,M,SCT,OVC,M,M,2700.00,3400.00,M,M,M,M,M,M,M,M,M,27.70,KDRA 261111Z AUTO 23005KT 10SM SCT027 OVC034 01/M01 A2980 RMK AO2 T00061006,M
BVU,2023-02-26 11:15,-114.8611,35.9475,671.00,35.60,30.20,80.51,320.00,4.00,0.00,29.84,M,10.00,M,CLR,M,M,M,M,M,M,M,M,M,M,M,M,M,M,31.62,KBVU 261115Z AUTO 32004KT 10SM CLR 02/M01 A2984 RMK AO2,M
RTS,2023-02-26 11:15,-119.8764,39.6682,1539.00,32.00,24.80,74.44,300.00,12.00,0.00,29.74,M,10.00,M,BKN,OVC,M,M,2700.00,6000.00,M,M,M,M,M,M,M,M,M,22.00,KRTS 261115Z AUTO 30012KT 10SM BKN027 OVC060 M00/M04 A2974 RMK AO2,M
MEV,2023-02-26 11:15,-119.7500,38.9963,1441.42,33.80,24.80,69.25,260.00,11.00,0.00,29.74,M,10.00,M,OVC,M,M,M,4000.00,M,M,M,M,M,M,M,M,M,M,24.74,KMEV 261115Z AUTO 26011KT 10SM OVC040 01/M04 A2974 RMK AO2,M
BAM,2023-02-26 11:15,-116.8743,40.5990,1382.36,37.40,32.00,80.65,220.00,7.00,0.00,29.64,M,10.00,M,OVC,M,M,M,6500.00,M,M,M,M,M,M,M,M,M,M,31.36,KBAM 261115Z AUTO 22007KT 10SM OVC065 03/00 A2964 RMK AO1,M
HTH,2023-02-26 11:15,-118.6315,38.5448,1282.89,32.00,23.00,69.04,160.00,11.00,0.00,29.72,M,10.00,M,OVC,M,M,M,5000.00,M,M,M,M,M,M,M,M,M,M,22.47,KHTH 261115Z AUTO 16011KT 10SM OVC050 00/M05 A2972 RMK A01,M
TMT,2023-02-26 11:15,-117.1971,39.4643,1749.34,30.20,26.40,85.57,240.00,9.00,0.00,29.66,M,10.00,M,OVC,M,M,M,2000.00,M,M,M,M,M,M,M,M,M,M,21.28,KTMT 261115Z AUTO 24009KT 10SM OVC020 M01/M03 A2966 RMK AO2 T10101031,M
ELY,2023-02-26 11:16,-114.8453,39.2950,1909.00,24.10,21.00,87.76,0.00,0.00,0.01,29.63,M,1.25,M,BKN,OVC,M,M,1900.00,2500.00,M,M,-SN BR,M,M,M,M,M,M,24.10,KELY 261116Z AUTO 00000KT 1 1/4SM -SN BR BKN019 OVC025 M04/M06 A2963 RMK AO2 P0001 T10441061,M
INS,2023-02-26 11:20,-115.6733,36.5872,955.00,33.80,32.00,93.03,140.00,5.00,0.00,29.80,1009.00,10.00,M,FEW,SCT,BKN,BKN,2200.00,2900.00,4900.00,6000.00,M,M,M,M,M,M,M,28.53,KINS 261120Z AUTO 14005KT 10SM FEW022 SCT029 BKN049 BKN060 01/M00 A2980 RMK AO2 SLP090 $,M
ELY,2023-02-26 11:30,-114.8453,39.2950,1909.00,24.10,21.00,87.76,0.00,0.00,0.02,29.63,M,0.75,M,VV ,M,M,M,1500.00,M,M,M,-SN BR,M,M,M,M,M,M,24.10,KELY 261130Z AUTO 00000KT 3/4SM -SN BR VV015 M04/M06 A2963 RMK AO2 P0002 T10441061,M
NFL,2023-02-26 11:30,-118.7010,39.4166,1199.00,35.00,33.00,92.32,170.00,7.00,0.00,29.70,M,10.00,M,BKN,OVC,M,M,2900.00,4800.00,M,M,M,M,M,M,M,M,M,28.56,KNFL 261130Z AUTO 17007KT 10SM BKN029 OVC048 02/01 A2970 RMK AO2 T00170006 $,M
BVU,2023-02-26 11:35,-114.8611,35.9475,671.00,35.60,30.20,80.51,0.00,0.00,0.00,29.84,M,10.00,M,CLR,M,M,M,M,M,M,M,M,M,M,M,M,M,M,35.60,KBVU 261135Z AUTO 00000KT 10SM CLR 02/M01 A2984 RMK AO2,M
RTS,2023-02-26 11:35,-119.8764,39.6682,1539.00,30.20,24.80,80.07,300.00,12.00,0.00,29.74,M,10.00,M,OVC,M,M,M,6000.00,M,M,M,M,M,M,M,M,M,M,19.71,KRTS 261135Z AUTO 30012KT 10SM OVC060 M01/M04 A2974 RMK AO2,M
MEV,2023-02-26 11:35,-119.7500,38.9963,1441.42,32.00,24.80,74.44,250.00,6.00,0.00,29.75,M,10.00,14.00,OVC,M,M,M,4200.00,M,M,M,M,M,M,M,M,M,M,25.53,KMEV 261135Z AUTO 25006G14KT 10SM OVC042 00/M04 A2975 RMK AO2,M
BAM,2023-02-26 11:35,-116.8743,40.5990,1382.36,37.40,32.00,80.65,220.00,9.00,0.00,29.64,M,10.00,M,OVC,M,M,M,6500.00,M,M,M,M,M,M,M,M,M,M,30.23,KBAM 261135Z AUTO 22009KT 10SM OVC065 03/00 A2964 RMK AO1,M
HTH,2023-02-26 11:35,-118.6315,38.5448,1282.89,32.00,23.00,69.04,140.00,6.00,0.00,29.72,M,10.00,M,SCT,OVC,M,M,5000.00,7000.00,M,M,M,M,M,M,M,M,M,25.53,KHTH 261135Z AUTO 14006KT 10SM SCT050 OVC070 00/M05 A2972 RMK A01,M
TMT,2023-02-26 11:35,-117.1971,39.4643,1749.34,29.30,27.10,91.37,230.00,7.00,0.00,29.67,M,10.00,M,OVC,M,M,M,2000.00,M,M,M,M,M,M,M,M,M,M,21.49,KTMT 261135Z AUTO 23007KT 10SM OVC020 M01/M03 A2967 RMK AO2 T10151027,M
ELY,2023-02-26 11:39,-114.8453,39.2950,1909.00,24.10,21.90,91.17,0.00,0.00,0.03,29.63,M,1.25,M,OVC,M,M,M,1500.00,M,M,M,-SN BR,M,M,M,M,M,M,24.10,KELY 261139Z AUTO 00000KT 1 1/4SM -SN BR OVC015 M04/M06 A2963 RMK AO2 P0003 T10441056,M
ELY,2023-02-26 11:45,-114.8453,39.2950,1909.00,24.10,21.90,91.17,0.00,0.00,0.03,29.63,M,1.50,M,FEW,OVC,M,M,900.00,1500.00,M,M,-SN BR,M,M,M,M,M,M,24.10,KELY 261145Z AUTO 00000KT 1 1/2SM -SN BR FEW009 OVC015 M04/M06 A2963 RMK AO2 P0003 T10441056,M
P68,2023-02-26 11:53,-116.0056,39.6014,1993.00,30.00,28.90,95.61,330.00,3.00,0.00,29.61,1001.00,M,M,M,M,M,M,M,M,M,M,M,M,M,M,M,M,M,26.40,KP68 261153Z AUTO 33003KT M01/M02 A2961 RMK AO1 SLP010 T10111017 10022 21017 56015,M
DRA,2023-02-26 11:53,-116.0278,36.6206,1009.00,33.00,30.00,88.23,250.00,4.00,0.00,29.79,1009.10,10.00,M,OVC,M,M,M,3400.00,M,M,M,M,M,M,M,M,M,M,28.70,KDRA 261153Z AUTO 25004KT 10SM OVC034 01/M01 A2979 RMK AO2 SLP091 60000 70029 T00061011 10006 21028 57003,M
ELY,2023-02-26 11:53,-114.8453,39.2950,1909.00,24.10,21.90,91.17,0.00,0.00,0.03,29.63,1002.80,1.75,M,FEW,OVC,M,M,900.00,1600.00,M,M,-SN BR,M,M,M,M,M,M,24.10,KELY 261153Z AUTO 00000KT 1 3/4SM -SN BR FEW009 OVC016 M04/M06 A2963 RMK AO2 SLP028 P0003 60003 70003 T10441056 10033 21050 55009,M
LOL,2023-02-26 11:53,-118.5701,40.0684,1192.43,28.90,28.90,100.00,190.00,4.00,0.00,29.69,1006.10,10.00,M,FEW,BKN,M,M,3900.00,5000.00,M,M,M,M,M,M,M,M,M,23.80,KLOL 261153Z AUTO 19004KT 10SM FEW039 BKN050 M02/M02 A2969 RMK AO2 SLP061 T10171017 10011 21022 55004,M
VGT,2023-02-26 11:53,-115.1933,36.2111,667.00,37.00,33.00,85.64,320.00,5.00,T,29.82,1011.60,10.00,M,CLR,M,M,M,M,M,M,M,RA,M,M,M,M,M,M,32.33,KVGT 261153Z AUTO 32005KT 10SM RA CLR 03/01 A2982 RMK AO2 SLP116 P0000 60001 70028 T00280006 10056 20028 51000,M
BVU,2023-02-26 11:55,-114.8611,35.9475,671.00,35.60,30.20,80.51,0.00,0.00,0.00,29.85,M,10.00,M,CLR,M,M,M,M,M,M,M,M,M,M,M,M,M,M,35.60,KBVU 261155Z AUTO 00000KT 10SM CLR 02/M01 A2985 RMK AO2,M
RTS,2023-02-26 11:55,-119.8764,39.6682,1539.00,32.00,24.80,74.44,270.00,12.00,0.00,29.74,M,10.00,M,BKN,BKN,OVC,M,2200.00,2800.00,6000.00,M,M,M,M,M,M,M,M,22.00,KRTS 261155Z AUTO 27012KT 10SM BKN022 BKN028 OVC060 M00/M04 A2974 RMK AO2,M
MEV,2023-02-26 11:55,-119.7500,38.9963,1441.42,32.00,23.00,69.04,220.00,7.00,0.00,29.76,M,10.00,12.00,BKN,M,M,M,4500.00,M,M,M,M,M,M,M,M,M,M,24.78,KMEV 261155Z AUTO 22007G12KT 10SM BKN045 M00/M05 A2976 RMK AO2,M
BAM,2023-02-26 11:55,-116.8743,40.5990,1382.36,37.40,32.00,80.65,200.00,6.00,0.00,29.63,M,10.00,M,OVC,M,M,M,7500.00,M,M,M,M,M,M,M,M,M,M,32.03,KBAM 261155Z AUTO 20006KT 10SM OVC075 03/00 A2963 RMK AO1,M
HTH,2023-02-26 11:55,-118.6315,38.5448,1282.89,32.00,21.20,63.99,150.00,9.00,0.00,29.73,M,10.00,17.00,BKN,OVC,M,M,5500.00,7000.00,M,M,M,M,M,M,M,M,M,23.51,KHTH 261155Z AUTO 15009G17KT 10SM BKN055 OVC070 00/M06 A2973 RMK A01,M
TMT,2023-02-26 11:55,-117.1971,39.4643,1749.34,29.30,27.50,92.89,250.00,7.00,0.00,29.67,M,10.00,M,OVC,M,M,M,2000.00,M,M,M,M,M,M,M,M,M,M,21.49,KTMT 261155Z AUTO 25007KT 10SM OVC020 M01/M02 A2967 RMK AO2 T10151025 11001 21030,M
RNO,2023-02-26 11:55,-119.7711,39.4839,1341.00,34.00,25.00,69.28,290.00,8.00,0.00,29.73,1006.50,7.00,M,FEW,FEW,BKN,M,400.00,2000.00,4500.00,M,BCFG,M,M,M,M,M,M,26.58,KRNO 261155Z COR 29008KT 7SM BCFG FEW004 FEW020 BKN045 01/M04 A2973 RMK AO2 SLP065 BCFG S THRU W 4/001 70004 T00111039 10017 20006 55001,1
INS,2023-02-26 11:55,-115.6733,36.5872,955.00,33.60,30.90,89.70,0.00,0.00,0.00,29.79,1008.80,10.00,M,FEW,SCT,BKN,M,4200.00,4900.00,8500.00,M,M,M,M,M,M,M,M,33.60,KINS 261155Z AUTO 00000KT 10SM FEW042 SCT049 BKN085 01/M01 A2979 RMK AO2 SLP088 60000 70010 T00091006 10015 20004 56002 $,M
LSV,2023-02-26 11:55,-115.0343,36.2362,570.00,37.40,37.20,99.22,230.00,6.00,0.00,29.81,1009.10,10.00,M,CLR,M,M,M,M,M,M,M,M,M,M,M,M,M,M,32.03,KLSV 261155Z AUTO 23006KT 10SM CLR 03/03 A2981 RMK AO2 SLP091 60000 T00300029 10053 20030 58001 $,M
EKO,2023-02-26 11:56,-115.7860,40.8242,1367.00,27.00,21.90,80.83,0.00,0.00,0.00,29.61,1003.60,10.00,M,OVC,M,M,M,6000.00,M,M,M,M,M,M,T,M,M,M,27.00,KEKO 261156Z AUTO 00000KT 10SM OVC060 M03/M06 A2961 RMK AO2 SLP036 I6000 T10281056 11017 21044 56017,M
WMC,2023-02-26 11:56,-117.8072,40.9019,1315.00,32.00,28.00,84.98,60.00,4.00,0.00,29.65,1003.60,10.00,M,OVC,M,M,M,5500.00,M,M,M,M,M,M,M,M,M,M,27.42,KWMC 261156Z AUTO 06004KT 10SM OVC055 00/M02 A2965 RMK AO2 SLP036 T00001022 10006 21044 55009,M
HND,2023-02-26 11:56,-115.1344,35.9729,742.79,37.00,27.00,66.82,210.00,10.00,0.00,29.84,1012.70,10.00,M,CLR,M,M,M,M,M,M,M,M,M,M,M,M,M,M,29.24,KHND 261156Z AUTO 21010KT 10SM CLR 03/M03 A2984 RMK AO2 SLP127 60000 70013 T00281028 10050 20022 58001,M
LAS,2023-02-26 11:56,-115.1634,36.0719,663.00,39.00,26.10,59.52,180.00,8.00,0.00,29.83,1010.00,10.00,M,FEW,M,M,M,14000.00,M,M,M,M,M,M,M,M,M,M,32.74,KLAS 261156Z 18008KT 10SM FEW140 04/M03 A2983 RMK AO2 SLP100 70024 T00391033 10050 20028 55000,M
NFL,2023-02-26 11:56,-118.7010,39.4166,1199.00,35.00,33.00,92.32,190.00,7.00,0.00,29.70,1004.00,10.00,M,OVC,M,M,M,2700.00,M,M,M,M,M,M,M,M,M,M,28.56,KNFL 261156Z AUTO 19007KT 10SM OVC027 02/01 A2970 RMK AO2 SLP040 70002 T00170006 10022 20017 55005 $,M
ELY,2023-02-26 12:06,-114.8453,39.2950,1909.00,24.10,21.90,91.17,0.00,0.00,T,29.64,M,1.25,M,FEW,OVC,M,M,800.00,1600.00,M,M,-SN BR,M,M,M,M,M,M,24.10,KELY 261206Z AUTO 00000KT 1 1/4SM -SN BR FEW008 OVC016 M04/M06 A2964 RMK AO2 P0000 T10441056,M
ELY,2023-02-26 12:14,-114.8453,39.2950,1909.00,24.10,23.00,92.74,0.00,0.00,0.01,29.64,M,1.00,M,FEW,OVC,M,M,800.00,1300.00,M,M,-SN BR,M,M,M,M,M,M,24.80,KELY 261214Z AUTO 00000KT 1SM -SN BR FEW008 OVC013 M04/M05 A2964 RMK AO2 P0001 T10441050,M
BVU,2023-02-26 12:15,-114.8611,35.9475,671.00,35.60,30.20,80.51,0.00,0.00,0.00,29.85,M,10.00,M,CLR,M,M,M,M,M,M,M,M,M,M,M,M,M,M,35.60,KBVU 261215Z AUTO 00000KT 10SM CLR 02/M01 A2985 RMK AO2,M
RTS,2023-02-26 12:15,-119.8764,39.6682,1539.00,30.20,23.00,74.26,270.00,9.00,0.00,29.74,M,10.00,M,BKN,OVC,M,M,2200.00,2900.00,M,M,M,M,M,M,M,M,M,21.28,KRTS 261215Z AUTO 27009KT 10SM BKN022 OVC029 M01/M05 A2974 RMK AO2,M
MEV,2023-02-26 12:15,-119.7500,38.9963,1441.42,32.00,23.00,69.04,150.00,9.00,0.00,29.75,M,10.00,M,SCT,M,M,M,4800.00,M,M,M,M,M,M,M,M,M,M,23.51,KMEV 261215Z AUTO 15009KT 10SM SCT048 M00/M05 A2975 RMK AO2,M
BAM,2023-02-26 12:15,-116.8743,40.5990,1382.36,35.60,32.00,86.59,200.00,3.00,0.00,29.64,M,10.00,M,OVC,M,M,M,7500.00,M,M,M,M,M,M,M,M,M,M,32.80,KBAM 261215Z AUTO 20003KT 10SM OVC075 02/00 A2964 RMK AO1,M
HTH,2023-02-26 12:15,-118.6315,38.5448,1282.89,32.00,21.20,63.99,130.00,10.00,0.00,29.74,M,10.00,16.00,OVC,M,M,M,6000.00,M,M,M,M,M,M,M,M,M,M,22.97,KHTH 261215Z AUTO 13010G16KT 10SM OVC060 00/M06 A2974 RMK A01,M
TMT,2023-02-26 12:15,-117.1971,39.4643,1749.34,29.80,26.80,88.43,230.00,4.00,0.00,29.67,M,10.00,M,OVC,M,M,M,2200.00,M,M,M,UP,M,M,M,M,M,M,24.85,KTMT 261215Z AUTO 23004KT 10SM UP OVC022 M01/M03 A2967 RMK AO2 T10121029,M
ELY,2023-02-26 12:23,-114.8453,39.2950,1909.00,25.00,23.00,91.97,0.00,0.00,0.01,29.64,M,0.75,M,FEW,OVC,M,M,800.00,1100.00,M,M,-SN BR,M,M,M,M,M,M,25.00,KELY 261223Z AUTO 00000KT 3/4SM -SN BR FEW008 OVC011 M04/M05 A2964 RMK AO2 P0001 T10391050,M
ELY,2023-02-26 12:31,-114.8453,39.2950,1909.00,26.10,24.10,92.80,180.00,9.00,0.02,29.64,M,1.00,16.00,VV ,M,M,M,1100.00,M,M,M,-SN BR,M,M,M,M,M,M,16.80,KELY 261231Z AUTO 18009G16KT 1SM -SN BR VV011 M03/M04 A2964 RMK AO2 P0002 T10331044,M
BVU,2023-02-26 12:35,-114.8611,35.9475,671.00,35.60,30.20,80.51,140.00,3.00,0.00,29.85,M,10.00,M,CLR,M,M,M,M,M,M,M,M,M,M,M,M,M,M,32.80,KBVU 261235Z AUTO 14003KT 10SM CLR 02/M01 A2985 RMK AO2,M
RTS,2023-02-26 12:35,-119.8764,39.6682,1539.00,30.20,23.00,74.26,290.00,8.00,0.00,29.75,M,10.00,13.00,SCT,SCT,OVC,M,2400.00,2800.00,5500.00,M,M,M,M,M,M,M,M,21.90,KRTS 261235Z AUTO 29008G13KT 10SM SCT024 SCT028 OVC055 M01/M05 A2975 RMK AO2,M
MEV,2023-02-26 12:35,-119.7500,38.9963,1441.42,30.20,23.00,74.26,160.00,8.00,0.00,29.76,M,10.00,M,FEW,FEW,M,M,4200.00,5000.00,M,M,M,M,M,M,M,M,M,21.90,KMEV 261235Z AUTO 16008KT 10SM FEW042 FEW050 M01/M05 A2976 RMK AO2,M
BAM,2023-02-26 12:35,-116.8743,40.5990,1382.36,37.40,32.00,80.65,260.00,8.00,0.00,29.65,M,10.00,M,OVC,M,M,M,7500.00,M,M,M,M,M,M,M,M,M,M,30.76,KBAM 261235Z AUTO 26008KT 10SM OVC075 03/00 A2965 RMK AO1,M
HTH,2023-02-26 12:35,-118.6315,38.5448,1282.89,32.00,21.20,63.99,120.00,4.00,0.00,29.76,M,10.00,M,BKN,OVC,M,M,5000.00,5500.00,M,M,M,M,M,M,M,M,M,27.42,KHTH 261235Z AUTO 12004KT 10SM BKN050 OVC055 00/M06 A2976 RMK A01,M
TMT,2023-02-26 12:35,-117.1971,39.4643,1749.34,29.30,27.00,90.99,210.00,7.00,0.00,29.68,M,10.00,M,OVC,M,M,M,2400.00,M,M,M,M,M,M,M,M,M,M,21.49,KTMT 261235Z AUTO 21007KT 10SM OVC024 M01/M03 A2968 RMK AO2 T10151028,M
ELY,2023-02-26 12:36,-114.8453,39.2950,1909.00,27.00,24.10,88.65,170.00,12.00,0.02,29.64,M,1.50,18.00,FEW,OVC,M,M,1000.00,1300.00,M,M,-SN BR,M,M,M,M,M,M,15.64,KELY 261236Z AUTO 17012G18KT 1 1/2SM -SN BR FEW010 OVC013 M03/M04 A2964 RMK AO2 P0002 T10281044,M
NFL,2023-02-26 12:43,-118.7010,39.4166,1199.00,37.00,32.00,81.93,230.00,9.00,0.00,29.71,M,10.00,M,FEW,BKN,OVC,M,2900.00,4100.00,5500.00,M,M,M,M,M,M,M,M,29.73,KNFL 261243Z AUTO 23009KT 10SM FEW029 BKN041 OVC055 03/00 A2971 RMK AO2 T00280000 $,M
ELY,2023-02-26 12:44,-114.8453,39.2950,1909.00,27.00,26.10,96.35,180.00,13.00,0.02,29.64,M,1.25,21.00,FEW,OVC,M,M,800.00,1500.00,M,M,-SN BR,M,M,M,M,M,M,15.16,KELY 261244Z AUTO 18013G21KT 1 1/4SM -SN BR FEW008 OVC015 M03/M03 A2964 RMK AO2 P0002 T10281033,M
P68,2023-02-26 12:53,-116.0056,39.6014,1993.00,30.00,27.00,88.44,170.00,4.00,0.00,29.64,1002.00,M,M,M,M,M,M,M,M,M,M,M,M,M,M,M,M,M,25.08,KP68 261253Z AUTO 17004KT M01/M03 A2964 RMK AO1 SLP020 T10111028,M
DRA,2023-02-26 12:53,-116.0278,36.6206,1009.00,33.00,28.90,84.36,240.00,14.00,0.00,29.80,1009.30,10.00,M,OVC,M,M,M,4000.00,M,M,M,M,M,M,M,M,M,M,22.58,KDRA 261253Z AUTO 24014KT 10SM OVC040 01/M02 A2980 RMK AO2 SLP093 T00061017,M
ELY,2023-02-26 12:53,-114.8453,39.2950,1909.00,27.00,26.10,96.35,190.00,9.00,0.03,29.64,1003.00,1.25,M,FEW,OVC,M,M,800.00,1800.00,M,M,-SN BR,M,M,M,M,M,M,17.30,KELY 261253Z AUTO 19009KT 1 1/4SM -SN BR FEW008 OVC018 M03/M03 A2964 RMK AO2 SLP030 P0003 T10281033,M
LOL,2023-02-26 12:53,-118.5701,40.0684,1192.43,28.00,27.00,95.97,140.00,4.00,0.00,29.69,1006.10,10.00,M,FEW,M,M,M,5500.00,M,M,M,M,M,M,M,M,M,M,22.75,KLOL 261253Z AUTO 14004KT 10SM FEW055 M02/M03 A2969 RMK AO2 SLP061 T10221028,M
VGT,2023-02-26 12:53,-115.1933,36.2111,667.00,37.00,33.00,85.64,330.00,3.00,T,29.81,1011.70,10.00,M,CLR,M,M,M,M,M,M,M,RA,M,M,M,M,M,M,34.40,KVGT 261253Z AUTO 33003KT 10SM RA CLR 03/01 A2981 RMK AO2 SLP117 P0000 T00280006,M
BVU,2023-02-26 12:55,-114.8611,35.9475,671.00,37.40,28.40,69.67,0.00,0.00,0.00,29.86,M,10.00,M,CLR,M,M,M,M,M,M,M,M,M,M,M,M,M,M,37.40,KBVU 261255Z AUTO 00000KT 10SM CLR 03/M02 A2986 RMK AO2,M
RNO,2023-02-26 12:55,-119.7711,39.4839,1341.00,34.00,28.00,78.43,200.00,5.00,0.00,29.74,1007.00,10.00,M,SCT,BKN,M,M,1200.00,6000.00,M,M,M,M,M,M,M,M,M,28.77,KRNO 261255Z 20005KT 10SM SCT012 BKN060 01/M02 A2974 RMK AO2 SLP070 T00111022,M
RTS,2023-02-26 12:55,-119.8764,39.6682,1539.00,30.20,23.00,74.26,260.00,9.00,0.00,29.75,M,10.00,14.00,BKN,OVC,M,M,5000.00,5500.00,M,M,M,M,M,M,M,M,M,21.28,KRTS 261255Z AUTO 26009G14KT 10SM BKN050 OVC055 M01/M05 A2975 RMK AO2,M
MEV,2023-02-26 12:55,-119.7500,38.9963,1441.42,28.40,23.00,79.92,170.00,5.00,0.00,29.76,M,10.00,M,BKN,BKN,M,M,4100.00,5500.00,M,M,M,M,M,M,M,M,M,22.12,KMEV 261255Z AUTO 17005KT 10SM BKN041 BKN055 M02/M05 A2976 RMK AO2,M
BAM,2023-02-26 12:55,-116.8743,40.5990,1382.36,37.40,32.00,80.65,230.00,4.00,0.00,29.65,M,10.00,M,OVC,M,M,M,6500.00,M,M,M,M,M,M,M,M,M,M,33.73,KBAM 261255Z AUTO 23004KT 10SM OVC065 03/00 A2965 RMK AO1,M
HTH,2023-02-26 12:55,-118.6315,38.5448,1282.89,32.00,23.00,69.04,160.00,5.00,0.00,29.76,M,10.00,M,OVC,M,M,M,5000.00,M,M,M,M,M,M,M,M,M,M,26.40,KHTH 261255Z AUTO 16005KT 10SM OVC050 00/M05 A2976 RMK A01,M
TMT,2023-02-26 12:55,-117.1971,39.4643,1749.34,29.10,25.70,86.94,220.00,9.00,0.00,29.68,M,10.00,M,OVC,M,M,M,2400.00,M,M,M,M,M,M,M,M,M,M,19.91,KTMT 261255Z AUTO 22009KT 10SM OVC024 M02/M03 A2968 RMK AO2 T10161035,M
INS,2023-02-26 12:55,-115.6733,36.5872,955.00,32.20,30.90,94.88,80.00,3.00,0.00,29.80,1009.20,10.00,M,FEW,M,M,M,13000.00,M,M,M,M,M,M,M,M,M,M,28.92,KINS 261255Z AUTO 08003KT 10SM FEW130 00/M01 A2980 RMK AO2 SLP092 T00011006 $,M
LSV,2023-02-26 12:55,-115.0343,36.2362,570.00,36.00,36.00,99.60,210.00,3.00,0.00,29.81,1009.40,10.00,M,CLR,M,M,M,M,M,M,M,M,M,M,M,M,M,M,33.38,KLSV 261255Z AUTO 21003KT 10SM CLR 02/02 A2981 RMK AO2 SLP094 T00230022 $,M
EKO,2023-02-26 12:56,-115.7860,40.8242,1367.00,26.10,23.00,87.87,260.00,4.00,0.00,29.62,1004.10,10.00,M,BKN,OVC,M,M,4900.00,5500.00,M,M,M,M,M,M,M,M,M,20.53,KEKO 261256Z AUTO 26004KT 10SM BKN049 OVC055 M03/M05 A2962 RMK AO2 SLP041 T10331050,M
WMC,2023-02-26 12:56,-117.8072,40.9019,1315.00,32.00,28.00,84.98,0.00,0.00,0.00,29.65,1003.90,10.00,M,BKN,BKN,OVC,M,4300.00,5000.00,6500.00,M,M,M,M,M,M,M,M,32.00,KWMC 261256Z AUTO 00000KT 10SM BKN043 BKN050 OVC065 00/M02 A2965 RMK AO2 SLP039 T00001022,M
NFL,2023-02-26 12:56,-118.7010,39.4166,1199.00,36.00,32.00,85.23,220.00,8.00,0.00,29.71,1004.30,10.00,M,BKN,OVC,M,M,4100.00,5500.00,M,M,M,M,M,M,M,M,M,29.04,KNFL 261256Z AUTO 22008KT 10SM BKN041 OVC055 02/00 A2971 RMK AO2 SLP043 T00220000 $,M
HND,2023-02-26 12:56,-115.1344,35.9729,742.79,36.00,26.10,66.97,200.00,16.00,0.00,29.83,1012.70,10.00,M,CLR,M,M,M,M,M,M,M,M,M,M,M,M,M,M,25.63,KHND 261256Z AUTO 20016KT 10SM CLR 02/M03 A2983 RMK AO2 SLP127 T00221033 FZRANO,M
LAS,2023-02-26 12:56,-115.1634,36.0719,663.00,38.00,26.10,62.14,180.00,10.00,0.00,29.82,1010.00,10.00,18.00,FEW,M,M,M,14000.00,M,M,M,M,M,M,M,M,M,M,30.37,KLAS 261256Z 18010G18KT 10SM FEW140 03/M03 A2982 RMK AO2 SLP100 T00331033,M
ELY,2023-02-26 13:01,-114.8453,39.2950,1909.00,27.00,26.10,96.35,210.00,8.00,T,29.63,M,1.75,M,FEW,OVC,M,M,1400.00,2300.00,M,M,-SN BR,M,M,M,M,M,M,17.95,KELY 261301Z AUTO 21008KT 1 3/4SM -SN BR FEW014 OVC023 M03/M03 A2963 RMK AO2 P0000 T10281033,M
ELY,2023-02-26 13:08,-114.8453,39.2950,1909.00,27.00,25.00,92.80,220.00,8.00,T,29.63,M,2.50,M,FEW,OVC,M,M,1700.00,2300.00,M,M,-SN BR,M,M,M,M,M,M,17.46,KELY 261308Z AUTO 22008KT 2 1/2SM -SN BR FEW017 OVC023 M03/M04 A2963 RMK AO2 P0000 T10281039,M
RNO,2023-02-26 13:13,-119.7711,39.4839,1341.00,33.00,28.00,81.30,250.00,8.00,0.00,29.74,M,10.00,M,FEW,SCT,BKN,M,1200.00,1700.00,2700.00,M,M,M,M,M,M,M,M,25.47,KRNO 261313Z 25008KT 210V270 10SM FEW012 SCT017 BKN027 01/M02 A2974 RMK AO2 T00061022,M
BVU,2023-02-26 13:15,-114.8611,35.9475,671.00,35.60,28.40,74.80,140.00,8.00,0.00,29.85,M,10.00,M,CLR,M,M,M,M,M,M,M,M,M,M,M,M,M,M,28.55,KBVU 261315Z AUTO 14008KT 10SM CLR 02/M02 A2985 RMK AO2,M
RTS,2023-02-26 13:15,-119.8764,39.6682,1539.00,30.20,21.20,68.83,240.00,16.00,0.00,29.74,M,10.00,M,SCT,SCT,M,M,5000.00,5500.00,M,M,M,M,M,M,M,M,M,18.07,KRTS 261315Z AUTO 24016KT 10SM SCT050 SCT055 M01/M06 A2974 RMK AO2,M
MEV,2023-02-26 13:15,-119.7500,38.9963,1441.42,28.40,21.20,74.08,170.00,5.00,0.00,29.77,M,10.00,M,BKN,OVC,M,M,4500.00,5500.00,M,M,M,M,M,M,M,M,M,22.12,KMEV 261315Z AUTO 17005KT 10SM BKN045 OVC055 M02/M06 A2977 RMK AO2,M
BAM,2023-02-26 13:15,-116.8743,40.5990,1382.36,37.40,32.00,80.65,230.00,10.00,0.00,29.64,M,10.00,M,SCT,OVC,M,M,6500.00,8000.00,M,M,M,M,M,M,M,M,M,29.74,KBAM 261315Z AUTO 23010KT 10SM SCT065 OVC080 03/00 A2964 RMK AO1,M
HTH,2023-02-26 13:15,-118.6315,38.5448,1282.89,33.80,21.20,59.53,160.00,6.00,0.00,29.75,M,10.00,M,BKN,OVC,M,M,4900.00,6000.00,M,M,M,M,M,M,M,M,M,27.70,KHTH 261315Z AUTO 16006KT 10SM BKN049 OVC060 01/M06 A2975 RMK A01,M
TMT,2023-02-26 13:15,-117.1971,39.4643,1749.34,29.30,25.50,85.52,220.00,8.00,0.00,29.68,M,10.00,M,OVC,M,M,M,2400.00,M,M,M,M,M,M,M,M,M,M,20.79,KTMT 261315Z AUTO 22008KT 10SM OVC024 M01/M04 A2968 RMK AO2 T10151036,M
ELY,2023-02-26 13:16,-114.8453,39.2950,1909.00,27.00,24.10,88.65,220.00,8.00,T,29.63,M,4.00,M,OVC,M,M,M,2300.00,M,M,M,-SN BR,M,M,M,M,M,M,17.95,KELY 261316Z AUTO 22008KT 4SM -SN BR OVC023 M03/M04 A2963 RMK AO2 P0000 T10281044,M
RNO,2023-02-26 13:23,-119.7711,39.4839,1341.00,34.00,24.10,66.72,270.00,6.00,0.00,29.74,M,10.00,M,FEW,SCT,OVC,M,1200.00,2300.00,6000.00,M,M,M,M,M,M,M,M,27.94,KRNO 261323Z 27006KT 10SM FEW012 SCT023 OVC060 01/M04 A2974 RMK AO2 T00111044,M
BVU,2023-02-26 13:35,-114.8611,35.9475,671.00,35.60,28.40,74.80,30.00,3.00,0.00,29.86,M,10.00,M,FEW,M,M,M,4700.00,M,M,M,M,M,M,M,M,M,M,32.80,KBVU 261335Z AUTO 03003KT 10SM FEW047 02/M02 A2986 RMK AO2,M
RTS,2023-02-26 13:35,-119.8764,39.6682,1539.00,30.20,19.40,63.75,260.00,16.00,0.00,29.74,M,10.00,25.00,CLR,M,M,M,M,M,M,M,M,M,M,M,M,M,M,18.07,KRTS 261335Z AUTO 26016G25KT 10SM CLR M01/M07 A2974 RMK AO2,M
MEV,2023-02-26 13:35,-119.7500,38.9963,1441.42,30.20,21.20,68.83,140.00,7.00,0.00,29.77,M,10.00,M,FEW,SCT,BKN,M,4100.00,4700.00,5500.00,M,M,M,M,M,M,M,M,22.59,KMEV 261335Z AUTO 14007KT 10SM FEW041 SCT047 BKN055 M01/M06 A2977 RMK AO2,M
BAM,2023-02-26 13:35,-116.8743,40.5990,1382.36,37.40,32.00,80.65,230.00,13.00,0.00,29.65,M,10.00,M,OVC,M,M,M,8000.00,M,M,M,M,M,M,M,M,M,M,28.49,KBAM 261335Z AUTO 23013KT 10SM OVC080 03/00 A2965 RMK AO1,M
HTH,2023-02-26 13:35,-118.6315,38.5448,1282.89,32.00,24.80,74.44,140.00,6.00,0.00,29.76,M,10.00,M,SCT,OVC,M,M,4500.00,5500.00,M,M,M,M,M,M,M,M,M,25.53,KHTH 261335Z AUTO 14006KT 10SM SCT045 OVC055 00/M04 A2976 RMK A01,M
TMT,2023-02-26 13:35,-117.1971,39.4643,1749.34,29.30,25.50,85.52,210.00,11.00,0.00,29.69,M,10.00,M,OVC,M,M,M,2400.00,M,M,M,M,M,M,M,M,M,M,19.05,KTMT 261335Z AUTO 21011KT 10SM OVC024 M01/M04 A2969 RMK AO2 T10151036,M
P68,2023-02-26 13:53,-116.0056,39.6014,1993.00,27.00,25.00,92.05,230.00,5.00,0.00,29.66,1003.20,M,M,M,M,M,M,M,M,M,M,M,M,M,M,M,M,M,20.46,KP68 261353Z AUTO 23005KT M03/M04 A2966 RMK AO1 SLP032 T10281039,M
DRA,2023-02-26 13:53,-116.0278,36.6206,1009.00,33.00,28.00,81.30,210.00,10.00,0.00,29.82,1009.90,10.00,M,FEW,OVC,M,M,1700.00,4500.00,M,M,M,M,M,M,M,M,M,24.35,KDRA 261353Z AUTO 21010KT 10SM FEW017 OVC045 01/M02 A2982 RMK AO2 SLP099 T00061022,M
ELY,2023-02-26 13:53,-114.8453,39.2950,1909.00,26.10,24.10,92.01,220.00,10.00,T,29.64,1003.50,10.00,M,BKN,OVC,M,M,2400.00,9000.00,M,M,M,M,M,M,M,M,M,15.57,KELY 261353Z AUTO 22010KT 10SM BKN024 OVC090 M03/M04 A2964 RMK AO2 SNE25 SLP035 P0000 T10331044,M
VGT,2023-02-26 13:53,-115.1933,36.2111,667.00,35.00,32.00,88.33,320.00,5.00,T,29.83,1012.50,10.00,M,CLR,M,M,M,M,M,M,M,RA,M,M,M,M,M,M,30.08,KVGT 261353Z AUTO 32005KT 10SM RA CLR 02/00 A2983 RMK AO2 SLP125 P0000 T00170000 $,M
LOL,2023-02-26 13:53,-118.5701,40.0684,1192.43,28.90,28.00,96.38,0.00,0.00,0.00,29.71,1006.90,10.00,M,BKN,OVC,M,M,5000.00,8000.00,M,M,M,M,M,M,M,M,M,28.90,KLOL 261353Z AUTO 00000KT 10SM BKN050 OVC080 M02/M02 A2971 RMK AO2 SLP069 T10171022,M
BVU,2023-02-26 13:55,-114.8611,35.9475,671.00,35.60,30.20,80.51,0.00,0.00,0.00,29.86,M,10.00,M,CLR,M,M,M,M,M,M,M,M,M,M,M,M,M,M,35.60,KBVU 261355Z AUTO 00000KT 10SM CLR 02/M01 A2986 RMK AO2,M
RNO,2023-02-26 13:55,-119.7711,39.4839,1341.00,34.00,23.00,63.72,250.00,9.00,0.00,29.75,1007.30,10.00,M,FEW,BKN,M,M,3000.00,6000.00,M,M,M,M,M,M,M,M,M,26.00,KRNO 261355Z 25009KT 10SM FEW030 BKN060 01/M05 A2975 RMK AO2 SLP073 T00111050,M
RTS,2023-02-26 13:55,-119.8764,39.6682,1539.00,30.20,19.40,63.75,240.00,10.00,0.00,29.74,M,10.00,M,BKN,M,M,M,3800.00,M,M,M,M,M,M,M,M,M,M,20.71,KRTS 261355Z AUTO 24010KT 230V290 10SM BKN038 M01/M07 A2974 RMK AO2,M
MEV,2023-02-26 13:55,-119.7500,38.9963,1441.42,28.40,21.20,74.08,120.00,8.00,0.00,29.77,M,10.00,M,FEW,OVC,M,M,4000.00,5500.00,M,M,M,M,M,M,M,M,M,19.68,KMEV 261355Z AUTO 12008KT 10SM FEW040 OVC055 M02/M06 A2977 RMK AO2,M
BAM,2023-02-26 13:55,-116.8743,40.5990,1382.36,35.60,32.00,86.59,230.00,12.00,0.00,29.65,M,10.00,M,BKN,BKN,OVC,M,4200.00,6000.00,8000.00,M,M,M,M,M,M,M,M,26.58,KBAM 261355Z AUTO 23012KT 10SM BKN042 BKN060 OVC080 02/00 A2965 RMK AO1,M
HTH,2023-02-26 13:55,-118.6315,38.5448,1282.89,32.00,24.80,74.44,140.00,6.00,0.00,29.76,M,10.00,M,FEW,OVC,M,M,4500.00,6000.00,M,M,M,M,M,M,M,M,M,25.53,KHTH 261355Z AUTO 14006KT 10SM FEW045 OVC060 00/M04 A2976 RMK A01,M
TMT,2023-02-26 13:55,-117.1971,39.4643,1749.34,29.50,25.70,85.53,220.00,9.00,0.00,29.70,M,10.00,M,OVC,M,M,M,2400.00,M,M,M,M,M,M,M,M,M,M,20.41,KTMT 261355Z AUTO 22009KT 10SM OVC024 M01/M03 A2970 RMK AO2 T10141035,M
INS,2023-02-26 13:55,-115.6733,36.5872,955.00,31.10,30.40,97.20,290.00,3.00,0.00,29.82,1010.10,10.00,M,FEW,M,M,M,2900.00,M,M,M,M,M,M,M,M,M,M,27.66,KINS 261355Z AUTO 29003KT 10SM FEW029 M00/M01 A2982 RMK AO2 SLP101 T10051009 $,M
LSV,2023-02-26 13:55,-115.0343,36.2362,570.00,36.30,36.00,99.21,200.00,7.00,0.00,29.82,1010.00,10.00,M,CLR,M,M,M,M,M,M,M,M,M,M,M,M,M,M,30.02,KLSV 261355Z AUTO 20007KT 10SM CLR 02/02 A2982 RMK AO2 SLP100 T00240023 $,M
EKO,2023-02-26 13:56,-115.7860,40.8242,1367.00,27.00,24.10,88.65,0.00,0.00,0.00,29.63,1004.30,10.00,M,SCT,BKN,OVC,M,5000.00,6000.00,7000.00,M,M,M,M,M,M,M,M,27.00,KEKO 261356Z AUTO 00000KT 10SM SCT050 BKN060 OVC070 M03/M04 A2963 RMK AO2 SLP043 T10281044,M
WMC,2023-02-26 13:56,-117.8072,40.9019,1315.00,35.00,30.00,81.46,190.00,8.00,0.00,29.66,1004.20,10.00,M,FEW,SCT,OVC,M,4100.00,5000.00,7000.00,M,M,M,M,M,M,M,M,27.93,KWMC 261356Z AUTO 19008KT 10SM FEW041 SCT050 OVC070 02/M01 A2966 RMK AO2 SLP042 T00171011,M
NFL,2023-02-26 13:56,-118.7010,39.4166,1199.00,37.00,30.90,78.37,220.00,9.00,0.00,29.73,1004.70,10.00,M,OVC,M,M,M,4300.00,M,M,M,M,M,M,M,M,M,M,29.73,KNFL 261356Z AUTO 22009KT 10SM OVC043 03/M01 A2973 RMK AO2 SLP047 T00281006 $,M
HND,2023-02-26 13:56,-115.1344,35.9729,742.79,36.00,26.10,66.97,180.00,14.00,0.00,29.86,1013.90,10.00,M,FEW,M,M,M,6000.00,M,M,M,M,M,M,M,M,M,M,26.32,KHND 261356Z AUTO 18014KT 10SM FEW060 02/M03 A2986 RMK AO2 SLP139 T00221033 FZRANO,M
TPH,2023-02-26 13:56,-117.0904,38.0505,1654.00,21.90,19.00,88.40,0.00,0.00,T,29.76,1009.70,10.00,M,OVC,M,M,M,5500.00,M,M,M,M,M,M,M,M,M,M,21.90,KTPH 261356Z AUTO 00000KT 10SM OVC055 M06/M07 A2976 RMK AO2 SNE36 SLP097 P0000 T10561072,M
LAS,2023-02-26 13:56,-115.1634,36.0719,663.00,38.00,26.10,62.14,200.00,9.00,0.00,29.84,1010.90,10.00,M,FEW,SCT,M,M,14000.00,22000.00,M,M,M,M,M,M,M,M,M,30.85,KLAS 261356Z 20009KT 10SM FEW140 SCT220 03/M03 A2984 RMK AO2 SLP109 T00331033,M
ELY,2023-02-26 14:03,-114.8453,39.2950,1909.00,26.10,23.00,87.87,220.00,9.00,0.00,29.65,M,10.00,M,SCT,BKN,OVC,M,2400.00,7000.00,9000.00,M,M,M,M,M,M,M,M,16.18,KELY 261403Z AUTO 22009KT 10SM SCT024 BKN070 OVC090 M03/M05 A2965 RMK AO2 T10331050,M
BVU,2023-02-26 14:15,-114.8611,35.9475,671.00,37.40,30.20,74.98,220.00,4.00,0.00,29.87,M,10.00,M,CLR,M,M,M,M,M,M,M,M,M,M,M,M,M,M,33.73,KBVU 261415Z AUTO 22004KT 10SM CLR 03/M01 A2987 RMK AO2,M
RTS,2023-02-26 14:15,-119.8764,39.6682,1539.00,32.00,21.20,63.99,240.00,13.00,0.00,29.75,M,10.00,19.00,BKN,OVC,M,M,3600.00,4300.00,M,M,M,M,M,M,M,M,M,21.57,KRTS 261415Z AUTO 24013G19KT 10SM BKN036 OVC043 M00/M06 A2975 RMK AO2,M
MEV,2023-02-26 14:15,-119.7500,38.9963,1441.42,28.40,21.20,74.08,100.00,8.00,0.00,29.78,M,10.00,M,OVC,M,M,M,5000.00,M,M,M,M,M,M,M,M,M,M,19.68,KMEV 261415Z AUTO 10008KT 10SM OVC050 M02/M06 A2978 RMK AO2,M
BAM,2023-02-26 14:15,-116.8743,40.5990,1382.36,35.60,32.00,86.59,240.00,11.00,0.00,29.65,M,10.00,M,OVC,M,M,M,4400.00,M,M,M,M,M,M,M,M,M,M,27.02,KBAM 261415Z AUTO 24011KT 10SM OVC044 02/00 A2965 RMK AO1,M
HTH,2023-02-26 14:15,-118.6315,38.5448,1282.89,32.00,24.80,74.44,130.00,4.00,0.00,29.76,M,10.00,M,OVC,M,M,M,6000.00,M,M,M,M,M,M,M,M,M,M,27.42,KHTH 261415Z AUTO 13004KT 10SM OVC060 00/M04 A2976 RMK A01,M
TMT,2023-02-26 14:15,-117.1971,39.4643,1749.34,29.80,25.70,84.49,210.00,10.00,0.00,29.70,M,10.00,M,OVC,M,M,M,2600.00,M,M,M,M,M,M,M,M,M,M,20.21,KTMT 261415Z AUTO 21010KT 10SM OVC026 M01/M03 A2970 RMK AO2 T10121035,M
BVU,2023-02-26 14:35,-114.8611,35.9475,671.00,35.60,30.20,80.51,220.00,4.00,0.00,29.88,M,10.00,M,CLR,M,M,M,M,M,M,M,M,M,M,M,M,M,M,31.62,KBVU 261435Z AUTO 22004KT 10SM CLR 02/M01 A2988 RMK AO2,M
RTS,2023-02-26 14:35,-119.8764,39.6682,1539.00,30.20,21.20,68.83,240.00,16.00,0.00,29.75,M,10.00,23.00,OVC,M,M,M,3700.00,M,M,M,M,M,M,M,M,M,M,18.07,KRTS 261435Z AUTO 24016G23KT 10SM OVC037 M01/M06 A2975 RMK AO2,M
MEV,2023-02-26 14:35,-119.7500,38.9963,1441.42,28.40,21.20,74.08,150.00,7.00,0.00,29.78,M,10.00,M,BKN,BKN,M,M,5000.00,6000.00,M,M,M,M,M,M,M,M,M,20.39,KMEV 261435Z AUTO 15007KT 10SM BKN050 BKN060 M02/M06 A2978 RMK AO2,M
BAM,2023-02-26 14:35,-116.8743,40.5990,1382.36,35.60,32.00,86.59,250.00,13.00,0.00,29.66,M,10.00,M,OVC,M,M,M,4400.00,M,M,M,M,M,M,M,M,M,M,26.18,KBAM 261435Z AUTO 25013KT 10SM OVC044 02/00 A2966 RMK AO1,M
HTH,2023-02-26 14:35,-118.6315,38.5448,1282.89,32.00,24.80,74.44,0.00,0.00,0.00,29.77,M,10.00,M,OVC,M,M,M,6000.00,M,M,M,M,M,M,M,M,M,M,32.00,KHTH 261435Z AUTO 00000KT 10SM OVC060 00/M04 A2977 RMK A01,M
TMT,2023-02-26 14:35,-117.1971,39.4643,1749.34,29.80,25.30,83.10,210.00,10.00,0.00,29.70,M,10.00,M,OVC,M,M,M,2600.00,M,M,M,M,M,M,M,M,M,M,20.21,KTMT 261435Z AUTO 21010KT 10SM OVC026 M01/M04 A2970 RMK AO2 T10121037,M
ELY,2023-02-26 14:41,-114.8453,39.2950,1909.00,28.00,24.10,85.08,280.00,3.00,0.00,29.66,M,9.00,M,BKN,BKN,OVC,M,2700.00,3400.00,4800.00,M,M,M,M,M,M,M,M,24.12,KELY 261441Z AUTO 28003KT 9SM BKN027 BKN034 OVC048 M02/M04 A2966 RMK AO2 T10221044,M
P68,2023-02-26 14:53,-116.0056,39.6014,1993.00,28.90,25.00,85.14,220.00,11.00,0.00,29.66,1003.40,M,M,M,M,M,M,M,M,M,M,M,M,M,M,M,M,M,18.55,KP68 261453Z AUTO 22011KT M02/M04 A2966 RMK AO1 SLP034 T10171039 51015,M
DRA,2023-02-26 14:53,-116.0278,36.6206,1009.00,33.00,28.90,84.36,240.00,10.00,0.00,29.85,1011.20,10.00,M,OVC,M,M,M,3700.00,M,M,M,M,M,M,M,M,M,M,24.35,KDRA 261453Z AUTO 24010KT 10SM OVC037 01/M02 A2985 RMK AO2 SLP112 T00061017 53019,M
ELY,2023-02-26 14:53,-114.8453,39.2950,1909.00,27.00,23.00,84.66,0.00,0.00,0.00,29.66,1004.30,9.00,M,FEW,BKN,OVC,M,2500.00,4900.00,6500.00,M,M,M,M,M,M,M,M,27.00,KELY 261453Z AUTO 00000KT 9SM FEW025 BKN049 OVC065 M03/M05 A2966 RMK AO2 SLP043 60003 T10281050 53009,M
VGT,2023-02-26 14:53,-115.1933,36.2111,667.00,36.00,30.90,81.53,300.00,4.00,T,29.85,1013.50,10.00,M,CLR,M,M,M,M,M,M,M,M,M,M,M,M,M,M,32.09,KVGT 261453Z 30004KT 10SM CLR 02/M01 A2985 RMK AO2 RAE16 SLP135 P0000 60000 T00221006 53013 $,M
LOL,2023-02-26 14:53,-118.5701,40.0684,1192.43,30.00,28.90,95.61,0.00,0.00,0.00,29.72,1007.40,10.00,M,BKN,OVC,M,M,4300.00,4900.00,M,M,M,M,M,M,M,M,M,30.00,KLOL 261453Z AUTO 00000KT 10SM BKN043 OVC049 M01/M02 A2972 RMK AO2 SLP074 T10111017 53009,M
BVU,2023-02-26 14:55,-114.8611,35.9475,671.00,35.60,30.20,80.51,220.00,3.00,0.00,29.89,M,10.00,M,CLR,M,M,M,M,M,M,M,M,M,M,M,M,M,M,32.80,KBVU 261455Z AUTO 22003KT 10SM CLR 02/M01 A2989 RMK AO2,M
RNO,2023-02-26 14:55,-119.7711,39.4839,1341.00,34.00,23.00,63.72,120.00,3.00,0.00,29.76,1007.60,10.00,M,BKN,BKN,M,M,5000.00,18000.00,M,M,M,M,M,M,M,M,M,30.97,KRNO 261455Z 12003KT 10SM BKN050 BKN180 01/M05 A2976 RMK AO2 SLP076 MTN TOPS OBSCD DSNT SW TRHU NW T00111050 51008,M
RTS,2023-02-26 14:55,-119.8764,39.6682,1539.00,30.20,19.40,63.75,230.00,13.00,0.00,29.76,M,10.00,20.00,OVC,M,M,M,3600.00,M,M,M,M,M,M,M,M,M,M,19.26,KRTS 261455Z AUTO 23013G20KT 10SM OVC036 M01/M07 A2976 RMK AO2,M
MEV,2023-02-26 14:55,-119.7500,38.9963,1441.42,30.20,21.20,68.83,150.00,7.00,0.00,29.78,M,10.00,M,BKN,BKN,M,M,4700.00,5500.00,M,M,M,M,M,M,M,M,M,22.59,KMEV 261455Z AUTO 15007KT 10SM BKN047 BKN055 M01/M06 A2978 RMK AO2,M
BAM,2023-02-26 14:55,-116.8743,40.5990,1382.36,35.60,32.00,86.59,250.00,11.00,0.00,29.67,M,10.00,M,OVC,M,M,M,4200.00,M,M,M,M,M,M,M,M,M,M,27.02,KBAM 261455Z AUTO 25011KT 10SM OVC042 02/00 A2967 RMK AO1,M
HTH,2023-02-26 14:55,-118.6315,38.5448,1282.89,33.80,24.80,69.25,110.00,7.00,0.00,29.77,M,10.00,M,OVC,M,M,M,6000.00,M,M,M,M,M,M,M,M,M,M,26.97,KHTH 261455Z AUTO 11007KT 10SM OVC060 01/M04 A2977 RMK A01,M
TMT,2023-02-26 14:55,-117.1971,39.4643,1749.34,29.80,25.70,84.49,230.00,9.00,0.00,29.71,M,7.00,M,OVC,M,M,M,2600.00,M,M,M,-SN,M,M,M,M,M,M,20.78,KTMT 261455Z AUTO 23009KT 7SM -SN OVC026 M01/M03 A2971 RMK AO2 T10121035,M
INS,2023-02-26 14:55,-115.6733,36.5872,955.00,30.90,30.70,99.19,0.00,0.00,0.00,29.86,1011.70,10.00,M,SCT,M,M,M,2600.00,M,M,M,M,M,M,M,M,M,M,30.90,KINS 261455Z AUTO 00000KT 10SM SCT026 M01/M01 A2986 RMK AO2 SLP117 T10061007 53020 $,M
LSV,2023-02-26 14:55,-115.0343,36.2362,570.00,37.00,36.70,99.21,190.00,7.00,0.00,29.85,1011.20,10.00,M,CLR,M,M,M,M,M,M,M,M,M,M,M,M,M,M,30.75,KLSV 261455Z AUTO 19007KT 10SM CLR 03/03 A2985 RMK AO2 SLP112 T00270026 52014 $,M
EKO,2023-02-26 14:56,-115.7860,40.8242,1367.00,28.00,24.10,85.08,0.00,0.00,T,29.64,1005.00,10.00,M,BKN,OVC,M,M,4600.00,7000.00,M,M,M,M,M,M,M,M,M,28.00,KEKO 261456Z AUTO 00000KT 10SM BKN046 OVC070 M02/M04 A2964 RMK AO2 SNB15E26 SLP050 P0000 60000 T10221044 53008,M
WMC,2023-02-26 14:56,-117.8072,40.9019,1315.00,35.00,30.00,81.46,180.00,8.00,0.00,29.67,1004.60,10.00,M,BKN,OVC,M,M,3900.00,7500.00,M,M,M,M,M,M,M,M,M,27.93,KWMC 261456Z AUTO 18008KT 10SM BKN039 OVC075 02/M01 A2967 RMK AO2 SLP046 T00171011 51006,M
NFL,2023-02-26 14:56,-118.7010,39.4166,1199.00,36.00,28.90,75.15,240.00,6.00,0.00,29.74,1005.20,10.00,M,BKN,OVC,M,M,4500.00,5000.00,M,M,M,M,M,M,M,M,M,30.35,KNFL 261456Z AUTO 24006KT 10SM BKN045 OVC050 02/M02 A2974 RMK AO2 SLP052 T00221017 53012 $,M
HND,2023-02-26 14:56,-115.1344,35.9729,742.79,37.00,26.10,64.38,220.00,16.00,0.00,29.87,1014.20,10.00,M,CLR,M,M,M,M,M,M,M,M,M,M,M,M,M,M,26.94,KHND 261456Z 22016KT 10SM CLR 03/M03 A2987 RMK AO2 SLP142 T00281033 53008,M
LAS,2023-02-26 14:56,-115.1634,36.0719,663.00,38.00,26.10,62.14,210.00,7.00,0.00,29.86,1011.60,10.00,18.00,FEW,FEW,SCT,M,6000.00,14000.00,22000.00,M,M,M,M,M,M,M,M,31.97,KLAS 261456Z 21007G18KT 10SM FEW060 FEW140 SCT220 03/M03 A2986 RMK AO2 SLP116 T00331033 53010,M
BVU,2023-02-26 15:15,-114.8611,35.9475,671.00,35.60,30.20,80.51,220.00,9.00,0.00,29.89,M,10.00,M,CLR,M,M,M,M,M,M,M,M,M,M,M,M,M,M,27.99,KBVU 261515Z AUTO 22009KT 10SM CLR 02/M01 A2989 RMK AO2,M
RTS,2023-02-26 15:15,-119.8764,39.6682,1539.00,32.00,19.40,59.27,230.00,19.00,0.00,29.76,M,10.00,M,OVC,M,M,M,4000.00,M,M,M,M,M,M,M,M,M,M,19.44,KRTS 261515Z AUTO 23019KT 10SM OVC040 M00/M07 A2976 RMK AO2,M
MEV,2023-02-26 15:15,-119.7500,38.9963,1441.42,30.20,21.20,68.83,130.00,8.00,0.00,29.79,M,10.00,M,OVC,M,M,M,4700.00,M,M,M,M,M,M,M,M,M,M,21.90,KMEV 261515Z AUTO 13008KT 10SM OVC047 M01/M06 A2979 RMK AO2,M
BAM,2023-02-26 15:15,-116.8743,40.5990,1382.36,35.60,32.00,86.59,240.00,8.00,0.00,29.68,M,10.00,M,OVC,M,M,M,4500.00,M,M,M,M,M,M,M,M,M,M,28.55,KBAM 261515Z AUTO 24008KT 10SM OVC045 02/00 A2968 RMK AO1,M
HTH,2023-02-26 15:15,-118.6315,38.5448,1282.89,33.80,24.80,69.25,110.00,6.00,0.00,29.77,M,10.00,M,OVC,M,M,M,5500.00,M,M,M,M,M,M,M,M,M,M,27.70,KHTH 261515Z AUTO 11006KT 10SM OVC055 01/M04 A2977 RMK A01,M
TMT,2023-02-26 15:15,-117.1971,39.4643,1749.34,29.80,25.70,84.49,230.00,9.00,0.00,29.72,M,4.00,M,SCT,BKN,OVC,M,1900.00,2600.00,3300.00,M,-SN,M,M,M,M,M,M,20.78,KTMT 261515Z AUTO 23009KT 4SM -SN SCT019 BKN026 OVC033 M01/M03 A2972 RMK AO2 T10121035,M
BVU,2023-02-26 15:35,-114.8611,35.9475,671.00,39.20,26.60,60.29,220.00,12.00,0.00,29.90,M,10.00,20.00,CLR,M,M,M,M,M,M,M,M,M,M,M,M,M,M,31.17,KBVU 261535Z AUTO 22012G20KT 10SM CLR 04/M03 A2990 RMK AO2,M
RTS,2023-02-26 15:35,-119.8764,39.6682,1539.00,32.00,19.40,59.27,240.00,15.00,0.00,29.77,M,10.00,M,OVC,M,M,M,3900.00,M,M,M,M,M,M,M,M,M,M,20.78,KRTS 261535Z AUTO 24015KT 10SM OVC039 M00/M07 A2977 RMK AO2,M
MEV,2023-02-26 15:35,-119.7500,38.9963,1441.42,30.20,21.20,68.83,130.00,6.00,0.00,29.80,M,10.00,M,OVC,M,M,M,5000.00,M,M,M,M,M,M,M,M,M,M,23.36,KMEV 261535Z AUTO 13006KT 10SM OVC050 M01/M06 A2980 RMK AO2,M
BAM,2023-02-26 15:35,-116.8743,40.5990,1382.36,35.60,32.00,86.59,230.00,8.00,0.00,29.67,M,10.00,M,BKN,OVC,M,M,4500.00,6000.00,M,M,M,M,M,M,M,M,M,28.55,KBAM 261535Z AUTO 23008KT 10SM BKN045 OVC060 02/00 A2967 RMK AO1,M
HTH,2023-02-26 15:35,-118.6315,38.5448,1282.89,33.80,24.80,69.25,M,5.00,0.00,29.77,M,10.00,M,OVC,M,M,M,5500.00,M,M,M,M,M,M,M,M,M,M,28.53,KHTH 261535Z AUTO VRB05KT 10SM OVC055 01/M04 A2977 RMK A01,M
TMT,2023-02-26 15:35,-117.1971,39.4643,1749.34,29.70,26.40,87.33,210.00,12.00,0.00,29.72,M,4.00,M,SCT,BKN,OVC,M,2500.00,3300.00,4100.00,M,-SN,M,M,M,M,M,M,19.07,KTMT 261535Z AUTO 21012KT 4SM -SN SCT025 BKN033 OVC041 M01/M03 A2972 RMK AO2 T10131031,M
P68,2023-02-26 15:53,-116.0056,39.6014,1993.00,30.90,25.00,78.48,260.00,9.00,0.00,29.68,1004.10,M,16.00,M,M,M,M,M,M,M,M,M,M,M,M,M,M,M,22.15,KP68 261553Z AUTO 26009G16KT M01/M04 A2968 RMK AO1 SLP041 T10061039,M
LOL,2023-02-26 15:53,-118.5701,40.0684,1192.43,32.00,30.90,95.65,0.00,0.00,0.00,29.75,1008.60,10.00,M,BKN,BKN,OVC,M,3600.00,4700.00,6000.00,M,M,M,M,M,M,M,M,32.00,KLOL 261553Z AUTO 00000KT 10SM BKN036 BKN047 OVC060 00/M01 A2975 RMK AO2 SLP086 T00001006,M
DRA,2023-02-26 15:53,-116.0278,36.6206,1009.00,33.00,30.00,88.23,270.00,6.00,0.00,29.87,1011.60,10.00,M,FEW,M,M,M,4600.00,M,M,M,M,M,M,M,M,M,M,26.86,KDRA 261553Z AUTO 27006KT 10SM FEW046 01/M01 A2987 RMK AO2 SLP116 T00061011,M
VGT,2023-02-26 15:53,-115.1933,36.2111,667.00,40.00,30.00,67.45,330.00,6.00,0.00,29.90,1015.10,10.00,M,FEW,M,M,M,4700.00,M,M,M,M,M,M,M,M,M,M,35.04,KVGT 261553Z 33006KT 10SM FEW047 04/M01 A2990 RMK AO2 SLP151 T00441011 $,M
BVU,2023-02-26 15:55,-114.8611,35.9475,671.00,41.00,28.40,60.54,230.00,9.00,0.00,29.92,M,10.00,M,CLR,M,M,M,M,M,M,M,M,M,M,M,M,M,M,34.70,KBVU 261555Z AUTO 23009KT 10SM CLR 05/M02 A2992 RMK AO2,M
CXP,2023-02-26 15:55,-119.7326,39.1923,1431.00,M,M,M,180.00,7.00,0.00,29.81,M,M,M,M,M,M,M,M,M,M,M,M,M,M,M,M,M,M,M,KCXP 261555Z AUTO 18007KT A2981 RMK AO2,M
RTS,2023-02-26 15:55,-119.8764,39.6682,1539.00,32.00,21.20,63.99,240.00,15.00,0.00,29.77,M,10.00,M,OVC,M,M,M,3800.00,M,M,M,M,M,M,M,M,M,M,20.78,KRTS 261555Z AUTO 24015KT 10SM OVC038 M00/M06 A2977 RMK AO2,M
MEV,2023-02-26 15:55,-119.7500,38.9963,1441.42,33.80,21.20,59.53,170.00,8.00,0.00,29.80,M,10.00,M,OVC,M,M,M,5000.00,M,M,M,M,M,M,M,M,M,M,26.33,KMEV 261555Z AUTO 17008KT 10SM OVC050 01/M06 A2980 RMK AO2,M
BAM,2023-02-26 15:55,-116.8743,40.5990,1382.36,37.40,32.00,80.65,250.00,8.00,0.00,29.68,M,10.00,M,SCT,OVC,M,M,4500.00,6000.00,M,M,M,M,M,M,M,M,M,30.76,KBAM 261555Z AUTO 25008KT 10SM SCT045 OVC060 03/00 A2968 RMK AO1,M
HTH,2023-02-26 15:55,-118.6315,38.5448,1282.89,32.00,26.60,80.22,50.00,3.00,0.00,29.79,M,10.00,M,OVC,M,M,M,5500.00,M,M,M,M,M,M,M,M,M,M,28.69,KHTH 261555Z AUTO 05003KT 10SM OVC055 00/M03 A2979 RMK A01,M
TMT,2023-02-26 15:55,-117.1971,39.4643,1749.34,30.20,26.60,86.28,200.00,11.00,0.00,29.73,M,10.00,M,SCT,BKN,OVC,M,3200.00,3700.00,4500.00,M,-SN,M,M,M,M,M,M,20.19,KTMT 261555Z AUTO 20011KT 10SM -SN SCT032 BKN037 OVC045 M01/M03 A2973 RMK AO2 T10101030,M
LSV,2023-02-26 15:55,-115.0343,36.2362,570.00,42.30,42.00,99.23,0.00,0.00,0.00,29.90,1012.80,10.00,M,CLR,M,M,M,M,M,M,M,M,M,M,M,M,M,M,42.30,KLSV 261555Z AUTO 00000KT 10SM CLR 06/06 A2990 RMK AO2 SLP128 T00570056 $,M
RNO,2023-02-26 15:55,-119.7711,39.4839,1341.00,35.00,26.10,69.41,30.00,4.00,0.00,29.77,1008.30,10.00,M,SCT,BKN,BKN,M,4600.00,6000.00,18000.00,M,M,M,M,M,M,M,M,31.04,KRNO 261555Z 03004KT 10SM SCT046 BKN060 BKN180 02/M03 A2977 RMK AO2 SLP083 SCSL AND ACSL ALQDS MTN TOPS OBSCD DSNT SW THRU NW T00171033,M
INS,2023-02-26 15:55,-115.6733,36.5872,955.00,35.00,29.50,79.81,150.00,4.00,0.00,29.88,1012.00,10.00,M,CLR,M,M,M,M,M,M,M,M,M,M,M,M,M,M,31.04,KINS 261555Z AUTO 15004KT 10SM CLR 02/M01 A2988 RMK AO2 SLP120 T00171014 $,M
EKO,2023-02-26 15:56,-115.7860,40.8242,1367.00,28.90,25.00,85.14,0.00,0.00,T,29.66,1005.70,10.00,M,BKN,OVC,M,M,3300.00,4200.00,M,M,M,M,M,M,M,M,M,28.90,KEKO 261556Z AUTO 00000KT 10SM BKN033 OVC042 M02/M04 A2966 RMK AO2 SNB08E26 SLP057 P0000 T10171039,M
WMC,2023-02-26 15:56,-117.8072,40.9019,1315.00,37.00,30.00,75.56,250.00,14.00,0.00,29.70,1005.60,10.00,19.00,FEW,OVC,M,M,2700.00,3400.00,M,M,M,M,M,M,M,M,M,27.61,KWMC 261556Z AUTO 25014G19KT 10SM FEW027 OVC034 03/M01 A2970 RMK AO2 SLP056 T00281011,M
NFL,2023-02-26 15:56,-118.7010,39.4166,1199.00,36.00,28.00,72.43,250.00,9.00,0.00,29.77,1006.10,10.00,M,BKN,BKN,M,M,6000.00,10000.00,M,M,M,M,M,M,M,M,M,28.49,KNFL 261556Z 25009KT 10SM BKN060 BKN100 02/M02 A2977 RMK AO2 SLP061 T00221022 $,M
HND,2023-02-26 15:56,-115.1344,35.9729,742.79,39.00,28.00,64.37,210.00,13.00,0.00,29.93,1016.20,10.00,M,CLR,M,M,M,M,M,M,M,M,M,M,M,M,M,M,30.54,KHND 261556Z 21013KT 10SM CLR 04/M02 A2993 RMK AO2 SLP162 T00391022,M
TPH,2023-02-26 15:56,-117.0904,38.0505,1654.00,25.00,21.00,84.53,0.00,0.00,0.00,29.80,1011.00,10.00,M,OVC,M,M,M,3700.00,M,M,M,M,M,M,M,M,M,M,25.00,KTPH 261556Z AUTO 00000KT 10SM OVC037 M04/M06 A2980 RMK AO2 SLP110 T10391061,M
LAS,2023-02-26 15:56,-115.1634,36.0719,663.00,40.00,30.90,69.96,270.00,6.00,0.00,29.92,1013.70,10.00,M,FEW,FEW,SCT,M,6000.00,14000.00,22000.00,M,M,M,M,M,M,M,M,35.04,KLAS 261556Z 27006KT 10SM FEW060 FEW140 SCT220 04/M01 A2992 RMK AO2 SLP137 T00441006,M
EKO,2023-02-26 16:14,-115.7860,40.8242,1367.00,28.90,25.00,85.14,0.00,0.00,0.00,29.67,M,9.00,M,BKN,OVC,M,M,2300.00,3700.00,M,M,M,M,M,M,M,M,M,28.90,KEKO 261614Z AUTO 00000KT 9SM BKN023 OVC037 M02/M04 A2967 RMK AO2 T10171039,M
BVU,2023-02-26 16:15,-114.8611,35.9475,671.00,41.00,28.40,60.54,220.00,10.00,0.00,29.94,M,10.00,M,CLR,M,M,M,M,M,M,M,M,M,M,M,M,M,M,34.25,KBVU 261615Z AUTO 22010KT 10SM CLR 05/M02 A2994 RMK AO2,M
CXP,2023-02-26 16:15,-119.7326,39.1923,1431.00,33.80,21.20,59.53,160.00,7.00,0.00,29.81,M,10.00,13.00,M,M,M,M,M,M,M,M,M,M,M,M,M,M,M,26.97,KCXP 261615Z AUTO 16007G13KT 10SM 01/M06 A2981 RMK AO2,M
RTS,2023-02-26 16:15,-119.8764,39.6682,1539.00,32.00,21.20,63.99,240.00,15.00,0.00,29.78,M,10.00,21.00,BKN,OVC,M,M,3800.00,4300.00,M,M,M,M,M,M,M,M,M,20.78,KRTS 261615Z AUTO 24015G21KT 10SM BKN038 OVC043 M00/M06 A2978 RMK AO2,M
MEV,2023-02-26 16:15,-119.7500,38.9963,1441.42,33.80,23.00,64.23,160.00,7.00,0.00,29.81,M,10.00,M,BKN,OVC,M,M,4800.00,5500.00,M,M,M,M,M,M,M,M,M,26.97,KMEV 261615Z AUTO 16007KT 10SM BKN048 OVC055 01/M05 A2981 RMK AO2,M
BAM,2023-02-26 16:15,-116.8743,40.5990,1382.36,37.40,32.00,80.65,250.00,11.00,0.00,29.69,M,10.00,M,BKN,BKN,OVC,M,4600.00,5000.00,6000.00,M,M,M,M,M,M,M,M,29.29,KBAM 261615Z AUTO 25011KT 10SM BKN046 BKN050 OVC060 03/00 A2969 RMK AO1,M
HTH,2023-02-26 16:15,-118.6315,38.5448,1282.89,33.80,24.80,69.25,90.00,9.00,0.00,29.81,M,10.00,M,OVC,M,M,M,5500.00,M,M,M,M,M,M,M,M,M,M,25.75,KHTH 261615Z AUTO 09009KT 10SM OVC055 01/M04 A2981 RMK A01,M
TMT,2023-02-26 16:15,-117.1971,39.4643,1749.34,31.10,26.40,82.50,210.00,9.00,0.00,29.74,M,10.00,M,SCT,OVC,M,M,3400.00,4500.00,M,M,-SN,M,M,M,M,M,M,22.39,KTMT 261615Z AUTO 21009KT 10SM -SN SCT034 OVC045 00/M03 A2974 RMK AO2 T10051031,M
EKO,2023-02-26 16:30,-115.7860,40.8242,1367.00,30.00,26.10,85.21,0.00,0.00,T,29.67,M,2.00,M,BKN,OVC,M,M,2300.00,3200.00,M,M,-SN BR,M,M,M,M,M,M,30.00,KEKO 261630Z AUTO 00000KT 2SM -SN BR BKN023 OVC032 M01/M03 A2967 RMK AO2 SNB17 P0000 T10111033,M
BVU,2023-02-26 16:35,-114.8611,35.9475,671.00,41.00,30.20,65.16,210.00,11.00,0.00,29.94,M,10.00,M,CLR,M,M,M,M,M,M,M,M,M,M,M,M,M,M,33.84,KBVU 261635Z AUTO 21011KT 10SM CLR 05/M01 A2994 RMK AO2,M
CXP,2023-02-26 16:35,-119.7326,39.1923,1431.00,33.80,23.00,64.23,170.00,13.00,0.00,29.81,M,10.00,M,OVC,M,M,M,3900.00,M,M,M,M,M,M,M,M,M,M,23.87,KCXP 261635Z AUTO 17013KT 10SM OVC039 01/M05 A2981 RMK AO2,M
RTS,2023-02-26 16:35,-119.8764,39.6682,1539.00,32.00,21.20,63.99,260.00,16.00,0.00,29.78,M,10.00,M,SCT,SCT,BKN,M,3700.00,4400.00,10000.00,M,M,M,M,M,M,M,M,20.42,KRTS 261635Z AUTO 26016KT 10SM SCT037 SCT044 BKN100 00/M06 A2978 RMK AO2,M
MEV,2023-02-26 16:35,-119.7500,38.9963,1441.42,33.80,23.00,64.23,140.00,4.00,0.00,29.82,M,10.00,M,OVC,M,M,M,4700.00,M,M,M,M,M,M,M,M,M,M,29.52,KMEV 261635Z AUTO 14004KT 10SM OVC047 01/M05 A2982 RMK AO2,M
BAM,2023-02-26 16:35,-116.8743,40.5990,1382.36,37.40,32.00,80.65,240.00,15.00,0.00,29.70,M,10.00,M,OVC,M,M,M,4200.00,M,M,M,M,M,M,M,M,M,M,27.78,KBAM 261635Z AUTO 24015KT 10SM OVC042 03/00 A2970 RMK AO1,M
HTH,2023-02-26 16:35,-118.6315,38.5448,1282.89,33.80,24.80,69.25,110.00,10.00,0.00,29.81,M,10.00,M,OVC,M,M,M,6000.00,M,M,M,M,M,M,M,M,M,M,25.23,KHTH 261635Z AUTO 11010KT 10SM OVC060 01/M04 A2981 RMK A01,M
TMT,2023-02-26 16:35,-117.1971,39.4643,1749.34,31.50,26.80,82.53,210.00,10.00,0.00,29.74,M,7.00,M,BKN,BKN,OVC,M,3100.00,3800.00,4600.00,M,M,M,M,M,M,M,M,22.34,KTMT 261635Z AUTO 21010KT 7SM BKN031 BKN038 OVC046 00/M03 A2974 RMK AO2 T10031029,M
EKO,2023-02-26 16:39,-115.7860,40.8242,1367.00,30.00,26.10,85.21,0.00,0.00,T,29.67,M,3.00,M,SCT,OVC,M,M,2300.00,3700.00,M,M,-SN BR,M,M,M,M,M,M,30.00,KEKO 261639Z AUTO 00000KT 3SM -SN BR SCT023 OVC037 M01/M03 A2967 RMK AO2 SNB17 P0000 T10111033,M
TPH,2023-02-26 16:45,-117.0904,38.0505,1654.00,25.00,21.90,87.81,190.00,3.00,0.00,29.82,M,10.00,M,SCT,OVC,M,M,600.00,3500.00,M,M,M,M,M,M,M,M,M,20.69,KTPH 261645Z AUTO 19003KT 10SM SCT006 OVC035 M04/M06 A2982 RMK AO2 T10391056,M
HTH,2023-02-26 16:50,-118.6315,38.5448,1282.89,33.80,24.80,69.25,150.00,6.00,0.00,29.82,M,10.00,M,OVC,M,M,M,6000.00,M,M,M,M,M,M,M,M,M,M,27.70,KHTH 261650Z AUTO 15006KT 10SM OVC060 01/M04 A2982 RMK A01,M
P68,2023-02-26 16:53,-116.0056,39.6014,1993.00,33.00,24.10,69.17,260.00,5.00,0.00,29.70,1004.70,M,M,M,M,M,M,M,M,M,M,M,M,M,M,M,M,M,27.70,KP68 261653Z AUTO 26005KT 01/M04 A2970 RMK AO1 SLP047 T00061044,M
DRA,2023-02-26 16:53,-116.0278,36.6206,1009.00,36.00,30.90,81.53,240.00,13.00,0.00,29.91,1013.00,10.00,M,OVC,M,M,M,4500.00,M,M,M,M,M,M,M,M,M,M,26.69,KDRA 261653Z AUTO 24013KT 10SM OVC045 02/M01 A2991 RMK AO2 SLP130 T00221006,M
ELY,2023-02-26 16:53,-114.8453,39.2950,1909.00,27.00,24.10,88.65,200.00,4.00,0.01,29.71,1006.40,9.00,M,FEW,BKN,OVC,M,2700.00,3800.00,8500.00,M,M,M,M,M,M,M,M,21.58,KELY 261653Z AUTO 20004KT 9SM FEW027 BKN038 OVC085 M03/M04 A2971 RMK AO2 SNE52 SLP064 P0001 T10281044,M
VGT,2023-02-26 16:53,-115.1933,36.2111,667.00,44.00,30.90,59.50,50.00,6.00,0.00,29.91,1015.10,10.00,M,CLR,M,M,M,M,M,M,M,M,M,M,M,M,M,M,40.10,KVGT 261653Z 05006KT 10SM CLR 07/M01 A2991 RMK AO2 SLP151 T00671006 $,M
LOL,2023-02-26 16:53,-118.5701,40.0684,1192.43,39.00,30.00,69.85,250.00,10.00,0.00,29.76,1008.60,10.00,16.00,OVC,M,M,M,6000.00,M,M,M,M,M,M,M,M,M,M,31.75,KLOL 261653Z AUTO 25010G16KT 220V280 10SM OVC060 04/M01 A2976 RMK AO2 SLP086 T00391011,M
BVU,2023-02-26 16:55,-114.8611,35.9475,671.00,42.80,30.20,60.79,220.00,11.00,0.00,29.95,M,10.00,19.00,CLR,M,M,M,M,M,M,M,M,M,M,M,M,M,M,36.11,KBVU 261655Z AUTO 22011G19KT 10SM CLR 06/M01 A2995 RMK AO2,M
CXP,2023-02-26 16:55,-119.7326,39.1923,1431.00,35.60,21.20,55.41,200.00,10.00,0.00,29.81,M,10.00,M,SCT,BKN,BKN,M,3900.00,4800.00,11000.00,M,M,M,M,M,M,M,M,27.48,KCXP 261655Z AUTO 20010KT 10SM SCT039 BKN048 BKN110 02/M06 A2981 RMK AO2,M
RNO,2023-02-26 16:55,-119.7711,39.4839,1341.00,36.00,26.10,66.97,M,3.00,0.00,29.77,1008.40,10.00,M,SCT,BKN,BKN,OVC,4500.00,6000.00,11000.00,18000.00,M,M,M,M,M,M,M,33.26,KRNO 261655Z VRB03KT 10SM SCT045 BKN060 BKN110 OVC180 02/M03 A2977 RMK AO2 SLP084 MTN TOPS OBSCD DSNT SW THRU NW T00221033,M
RTS,2023-02-26 16:55,-119.8764,39.6682,1539.00,32.00,19.40,59.27,240.00,24.00,0.00,29.78,M,10.00,30.00,FEW,M,M,M,10000.00,M,M,M,M,M,M,M,M,M,M,18.06,KRTS 261655Z AUTO 24024G30KT 10SM FEW100 00/M07 A2978 RMK AO2,M
MEV,2023-02-26 16:55,-119.7500,38.9963,1441.42,33.80,23.00,64.23,150.00,8.00,0.00,29.81,M,10.00,M,OVC,M,M,M,4800.00,M,M,M,M,M,M,M,M,M,M,26.33,KMEV 261655Z AUTO 15008KT 10SM OVC048 01/M05 A2981 RMK AO2,M
BAM,2023-02-26 16:55,-116.8743,40.5990,1382.36,37.40,32.00,80.65,230.00,13.00,0.00,29.71,M,10.00,17.00,OVC,M,M,M,4000.00,M,M,M,M,M,M,M,M,M,M,28.49,KBAM 261655Z AUTO 23013G17KT 10SM OVC040 03/00 A2971 RMK AO1,M
TMT,2023-02-26 16:55,-117.1971,39.4643,1749.34,31.80,27.00,82.21,200.00,10.00,0.00,29.74,M,10.00,M,OVC,M,M,M,3100.00,M,M,M,M,M,M,M,M,M,M,22.72,KTMT 261655Z AUTO 20010KT 10SM OVC031 00/M03 A2974 RMK AO2 T10011028,M
INS,2023-02-26 16:55,-115.6733,36.5872,955.00,37.00,27.90,69.34,0.00,0.00,0.00,29.91,1013.00,10.00,M,CLR,M,M,M,M,M,M,M,M,M,M,M,M,M,M,37.00,KINS 261655Z AUTO 00000KT 10SM CLR 03/M02 A2991 RMK AO2 SLP130 T00281023 $,M
LSV,2023-02-26 16:55,-115.0343,36.2362,570.00,44.20,37.20,76.24,180.00,4.00,0.00,29.92,1013.50,10.00,M,CLR,M,M,M,M,M,M,M,M,M,M,M,M,M,M,41.67,KLSV 261655Z AUTO 18004KT 10SM CLR 07/03 A2992 RMK AO2 SLP135 T00680029 $,M
EKO,2023-02-26 16:56,-115.7860,40.8242,1367.00,30.90,27.00,85.26,0.00,0.00,T,29.68,1006.40,3.00,M,FEW,BKN,OVC,M,2500.00,3300.00,4000.00,M,-SN BR,M,M,M,M,M,M,30.90,KEKO 261656Z AUTO 00000KT 3SM -SN BR FEW025 BKN033 OVC040 M01/M03 A2968 RMK AO2 SNB17 SLP064 P0000 T10061028,M
WMC,2023-02-26 16:56,-117.8072,40.9019,1315.00,37.00,28.90,72.24,240.00,12.00,0.00,29.71,1006.50,10.00,22.00,BKN,OVC,M,M,4200.00,5000.00,M,M,M,M,M,M,M,M,M,28.37,KWMC 261656Z AUTO 24012G22KT 10SM BKN042 OVC050 03/M02 A2971 RMK AO2 SLP065 T00281017,M
HND,2023-02-26 16:56,-115.1344,35.9729,742.79,41.00,28.00,59.55,230.00,14.00,0.00,29.94,1016.50,10.00,M,SCT,M,M,M,3800.00,M,M,M,M,M,M,M,M,M,M,32.76,KHND 261656Z 23014KT 10SM SCT038 05/M02 A2994 RMK AO2 SLP165 T00501022,M
TPH,2023-02-26 16:56,-117.0904,38.0505,1654.00,25.00,23.00,91.97,190.00,3.00,0.00,29.83,1011.90,10.00,M,BKN,OVC,M,M,800.00,3500.00,M,M,M,M,M,M,M,M,M,20.69,KTPH 261656Z AUTO 19003KT 10SM BKN008 OVC035 M04/M05 A2983 RMK AO2 SLP119 T10391050,M
LAS,2023-02-26 16:56,-115.1634,36.0719,663.00,43.00,30.00,59.83,280.00,3.00,0.00,29.93,1014.00,10.00,M,FEW,FEW,M,M,6000.00,14000.00,M,M,M,M,M,M,M,M,M,41.26,KLAS 261656Z 28003KT 10SM FEW060 FEW140 06/M01 A2993 RMK AO2 SLP140 T00611011,M
NFL,2023-02-26 16:56,-118.7010,39.4166,1199.00,40.00,28.00,62.15,220.00,11.00,0.00,29.79,1006.50,10.00,M,BKN,BKN,BKN,M,6000.00,10000.00,18000.00,M,M,M,M,M,M,M,M,32.45,KNFL 261656Z 22011KT 10SM BKN060 BKN100 BKN180 04/M02 A2979 RMK AO2 SLP065 T00441022 $,M
EKO,2023-02-26 17:01,-115.7860,40.8242,1367.00,30.90,27.00,85.26,0.00,0.00,0.01,29.68,M,2.50,M,SCT,BKN,OVC,M,2300.00,2900.00,3700.00,M,-SN BR,M,M,M,M,M,M,30.90,KEKO 261701Z AUTO 00000KT 2 1/2SM -SN BR SCT023 BKN029 OVC037 M01/M03 A2968 RMK AO2 P0001 T10061028,M
TPH,2023-02-26 17:03,-117.0904,38.0505,1654.00,25.00,23.00,91.97,0.00,0.00,0.00,29.83,M,10.00,M,SCT,OVC,M,M,800.00,3500.00,M,M,M,M,M,M,M,M,M,25.00,KTPH 261703Z AUTO 00000KT 10SM SCT008 OVC035 M04/M05 A2983 RMK AO2 T10391050,M
BVU,2023-02-26 17:15,-114.8611,35.9475,671.00,44.60,30.20,56.74,210.00,16.00,0.00,29.95,M,10.00,M,CLR,M,M,M,M,M,M,M,M,M,M,M,M,M,M,36.84,KBVU 261715Z AUTO 21016KT 10SM CLR 07/M01 A2995 RMK AO2,M
CXP,2023-02-26 17:15,-119.7326,39.1923,1431.00,35.60,21.20,55.41,180.00,6.00,0.00,29.82,M,10.00,18.00,BKN,BKN,BKN,M,4200.00,4800.00,11000.00,M,M,M,M,M,M,M,M,29.87,KCXP 261715Z AUTO 18006G18KT 10SM BKN042 BKN048 BKN110 02/M06 A2982 RMK AO2,M
RTS,2023-02-26 17:15,-119.8764,39.6682,1539.00,33.80,19.40,55.14,250.00,21.00,0.00,29.78,M,10.00,30.00,CLR,M,M,M,M,M,M,M,M,M,M,M,M,M,M,21.25,KRTS 261715Z AUTO 25021G30KT 10SM CLR 01/M07 A2978 RMK AO2,M
MEV,2023-02-26 17:15,-119.7500,38.9963,1441.42,33.80,23.00,64.23,150.00,8.00,0.00,29.81,M,10.00,M,SCT,SCT,M,M,4900.00,5500.00,M,M,M,M,M,M,M,M,M,26.33,KMEV 261715Z AUTO 15008KT 10SM SCT049 SCT055 01/M05 A2981 RMK AO2,M
BAM,2023-02-26 17:15,-116.8743,40.5990,1382.36,37.40,32.00,80.65,240.00,14.00,0.00,29.72,M,10.00,18.00,SCT,BKN,OVC,M,1900.00,3900.00,4500.00,M,M,M,M,M,M,M,M,28.12,KBAM 261715Z AUTO 24014G18KT 10SM SCT019 BKN039 OVC045 03/00 A2972 RMK AO1,M
HTH,2023-02-26 17:15,-118.6315,38.5448,1282.89,35.60,24.80,64.46,0.00,0.00,0.00,29.82,M,10.00,M,BKN,M,M,M,6000.00,M,M,M,M,M,M,M,M,M,M,35.60,KHTH 261715Z AUTO 00000KT 10SM BKN060 02/M04 A2982 RMK A01,M
TMT,2023-02-26 17:15,-117.1971,39.4643,1749.34,32.40,26.80,79.59,210.00,12.00,0.00,29.76,M,10.00,M,OVC,M,M,M,3300.00,M,M,M,M,M,M,M,M,M,M,22.51,KTMT 261715Z AUTO 21012KT 10SM OVC033 00/M03 A2976 RMK AO2 T00021029,M
EKO,2023-02-26 17:28,-115.7860,40.8242,1367.00,33.00,30.00,88.23,190.00,3.00,0.01,29.68,M,4.00,M,FEW,BKN,OVC,M,1500.00,2100.00,2900.00,M,-SN BR,M,M,M,M,M,M,29.95,KEKO 261728Z AUTO 19003KT 4SM -SN BR FEW015 BKN021 OVC029 01/M01 A2968 RMK AO2 P0001 T00061011,M
BVU,2023-02-26 17:35,-114.8611,35.9475,671.00,44.60,28.40,52.72,200.00,13.00,0.00,29.96,M,10.00,21.00,FEW,M,M,M,4100.00,M,M,M,M,M,M,M,M,M,M,37.71,KBVU 261735Z AUTO 20013G21KT 10SM FEW041 07/M02 A2996 RMK AO2,M
CXP,2023-02-26 17:35,-119.7326,39.1923,1431.00,35.60,21.20,55.41,230.00,8.00,0.00,29.81,M,10.00,13.00,BKN,OVC,M,M,4300.00,5000.00,M,M,M,M,M,M,M,M,M,28.55,KCXP 261735Z AUTO 23008G13KT 10SM BKN043 OVC050 02/M06 A2981 RMK AO2,M
ELY,2023-02-26 17:35,-114.8453,39.2950,1909.00,30.90,23.00,72.18,0.00,0.00,0.00,29.73,M,10.00,M,BKN,OVC,M,M,2800.00,3600.00,M,M,M,M,M,M,M,M,M,30.90,KELY 261735Z AUTO 00000KT 10SM BKN028 OVC036 M01/M05 A2973 RMK AO2 T10061050,M
RTS,2023-02-26 17:35,-119.8764,39.6682,1539.00,33.80,19.40,55.14,250.00,26.00,0.00,29.79,M,10.00,33.00,CLR,M,M,M,M,M,M,M,M,M,M,M,M,M,M,20.02,KRTS 261735Z AUTO 25026G33KT 10SM CLR 01/M07 A2979 RMK AO2,M
MEV,2023-02-26 17:35,-119.7500,38.9963,1441.42,35.60,21.20,55.41,0.00,0.00,0.00,29.81,M,10.00,M,FEW,M,M,M,5000.00,M,M,M,M,M,M,M,M,M,M,35.60,KMEV 261735Z AUTO 00000KT 10SM FEW050 02/M06 A2981 RMK AO2,M
BAM,2023-02-26 17:35,-116.8743,40.5990,1382.36,37.40,32.00,80.65,240.00,14.00,0.00,29.73,M,10.00,19.00,SCT,BKN,OVC,M,1900.00,4000.00,4600.00,M,M,M,M,M,M,M,M,28.12,KBAM 261735Z AUTO 24014G19KT 10SM SCT019 BKN040 OVC046 03/00 A2973 RMK AO1,M
HTH,2023-02-26 17:35,-118.6315,38.5448,1282.89,37.40,24.80,60.04,0.00,0.00,0.00,29.83,M,10.00,M,CLR,M,M,M,M,M,M,M,M,M,M,M,M,M,M,37.40,KHTH 261735Z AUTO 00000KT 10SM CLR 03/M04 A2983 RMK A01,M
TMT,2023-02-26 17:35,-117.1971,39.4643,1749.34,33.00,27.10,78.98,210.00,9.00,0.00,29.77,M,10.00,M,OVC,M,M,M,3100.00,M,M,M,M,M,M,M,M,M,M,24.63,KTMT 261735Z AUTO 21009KT 10SM OVC031 01/M03 A2977 RMK AO2 T00051027,M
EKO,2023-02-26 17:44,-115.7860,40.8242,1367.00,33.00,30.00,88.23,260.00,4.00,0.01,29.69,M,5.00,M,FEW,SCT,OVC,M,1400.00,2000.00,4100.00,M,-SN BR,M,M,M,M,M,M,28.70,KEKO 261744Z AUTO 26004KT 5SM -SN BR FEW014 SCT020 OVC041 01/M01 A2969 RMK AO2 P0001 T00061011,M
P68,2023-02-26 17:53,-116.0056,39.6014,1993.00,33.00,25.00,71.82,260.00,12.00,0.00,29.72,1005.20,M,M,M,M,M,M,M,M,M,M,M,M,M,M,M,M,M,23.40,KP68 261753Z AUTO 26012KT 01/M04 A2972 RMK AO1 SLP052 T00061039 10006 21028 51017,M
DRA,2023-02-26 17:53,-116.0278,36.6206,1009.00,38.00,32.00,79.08,250.00,11.00,0.00,29.94,1014.00,10.00,19.00,SCT,M,M,M,3600.00,M,M,M,M,M,M,M,M,M,M,29.92,KDRA 261753Z AUTO 25011G19KT 10SM SCT036 03/00 A2994 RMK AO2 SLP140 T00330000 10033 20000 53025,M
ELY,2023-02-26 17:53,-114.8453,39.2950,1909.00,28.00,21.90,77.57,180.00,9.00,0.00,29.73,1006.40,10.00,M,BKN,M,M,M,2500.00,M,M,M,M,M,M,M,M,M,M,18.54,KELY 261753Z AUTO 18009KT 10SM BKN025 M02/M06 A2973 RMK AO2 SLP064 60004 T10221056 10000 21044 51020,M
LOL,2023-02-26 17:53,-118.5701,40.0684,1192.43,42.00,28.00,57.08,210.00,12.00,0.00,29.77,1008.90,10.00,M,SCT,M,M,M,6000.00,M,M,M,M,M,M,M,M,M,M,34.86,KLOL 261753Z AUTO 21012KT 10SM SCT060 06/M02 A2977 RMK AO2 SLP089 T00561022 10056 21028 51015,M
VGT,2023-02-26 17:53,-115.1933,36.2111,667.00,47.00,30.00,51.58,0.00,0.00,0.00,29.95,1016.50,10.00,M,SCT,M,M,M,5500.00,M,M,M,M,M,M,M,M,M,M,46.90,KVGT 261753Z 00000KT 10SM SCT055 08/M01 A2995 RMK AO2 SLP165 60000 T00831011 10083 20017 51032 $,M
EKO,2023-02-26 17:54,-115.7860,40.8242,1367.00,33.80,30.20,86.49,260.00,4.08,M,29.69,M,7.00,M,FEW,BKN,OVC,M,1400.00,2001.00,3799.00,M,-SN,M,M,M,M,M,M,29.43,SPECI KEKO 261754Z 26004KT 7SM -SN FEW014 BKN020 OVC038 01/M01 A2969 RMK AO2 P0001 FIBI,M
BVU,2023-02-26 17:55,-114.8611,35.9475,671.00,44.60,30.20,56.74,210.00,15.00,0.00,29.98,M,10.00,M,BKN,M,M,M,4100.00,M,M,M,M,M,M,M,M,M,M,37.11,KBVU 261755Z AUTO 21015KT 10SM BKN041 07/M01 A2998 RMK AO2,M
CXP,2023-02-26 17:55,-119.7326,39.1923,1431.00,37.40,21.20,51.61,200.00,11.00,0.00,29.81,M,10.00,17.00,SCT,BKN,BKN,M,4300.00,4900.00,5500.00,M,M,M,M,M,M,M,M,29.29,KCXP 261755Z AUTO 20011G17KT 160V240 10SM SCT043 BKN049 BKN055 03/M06 A2981 RMK AO2,M
RNO,2023-02-26 17:55,-119.7711,39.4839,1341.00,39.00,24.10,54.77,280.00,5.00,0.00,29.79,1008.60,10.00,M,SCT,BKN,BKN,BKN,4500.00,6500.00,10000.00,14000.00,M,M,M,M,M,M,M,34.71,KRNO 261755Z 28005KT 10SM SCT045 BKN065 BKN100 BKN140 BKN180 04/M04 A2979 RMK AO2 SLP086 MTN TOPS OBSCD DSNT SW THRU W 4/001 T00391044 10039 21006 53010,1
RTS,2023-02-26 17:55,-119.8764,39.6682,1539.00,33.80,19.40,55.14,230.00,15.00,0.00,29.81,M,10.00,30.00,FEW,M,M,M,3500.00,M,M,M,M,M,M,M,M,M,M,23.11,KRTS 261755Z AUTO 23015G30KT 10SM FEW035 01/M07 A2981 RMK AO2,M
MEV,2023-02-26 17:55,-119.7500,38.9963,1441.42,37.40,23.00,55.68,150.00,5.00,0.00,29.81,M,10.00,M,FEW,M,M,M,5000.00,M,M,M,M,M,M,M,M,M,M,32.81,KMEV 261755Z AUTO 15005KT 10SM FEW050 03/M05 A2981 RMK AO2,M
BAM,2023-02-26 17:55,-116.8743,40.5990,1382.36,37.40,32.00,80.65,230.00,13.00,0.00,29.73,M,10.00,M,SCT,BKN,OVC,M,2300.00,3000.00,4800.00,M,M,M,M,M,M,M,M,28.49,KBAM 261755Z AUTO 23013KT 10SM SCT023 BKN030 OVC048 03/00 A2973 RMK AO1,M
HTH,2023-02-26 17:55,-118.6315,38.5448,1282.89,37.40,24.80,60.04,0.00,0.00,0.00,29.83,M,10.00,M,CLR,M,M,M,M,M,M,M,M,M,M,M,M,M,M,37.40,KHTH 261755Z AUTO 00000KT 10SM CLR 03/M04 A2983 RMK A01,M
TMT,2023-02-26 17:55,-117.1971,39.4643,1749.34,33.30,26.40,75.51,220.00,13.00,0.00,29.78,M,10.00,M,BKN,OVC,M,M,2900.00,3500.00,M,M,M,M,M,M,M,M,M,23.23,KTMT 261755Z AUTO 22013KT 10SM BKN029 OVC035 01/M03 A2978 RMK AO2 T00071031 10007 21016,M
INS,2023-02-26 17:55,-115.6733,36.5872,955.00,39.60,28.40,63.92,110.00,4.00,0.00,29.94,1013.80,10.00,M,BKN,M,M,M,5000.00,M,M,M,M,M,M,M,M,M,M,36.30,KINS 261755Z AUTO 11004KT 10SM BKN050 04/M02 A2994 RMK AO2 SLP138 T00421020 10042 21011 52025 $,M
LSV,2023-02-26 17:55,-115.0343,36.2362,570.00,47.80,36.70,65.22,0.00,0.00,0.00,29.95,1014.40,10.00,M,FEW,M,M,M,5500.00,M,M,M,M,M,M,M,M,M,M,47.80,KLSV 261755Z AUTO 00000KT 10SM FEW055 09/03 A2995 RMK AO2 SLP144 T00880026 10088 20018 52033 $,M
EKO,2023-02-26 17:56,-115.7860,40.8242,1367.00,34.00,30.00,85.11,260.00,4.00,0.01,29.69,1006.60,7.00,M,BKN,OVC,M,M,2000.00,3800.00,M,M,-SN,M,M,M,M,M,M,29.76,KEKO 261756Z AUTO 26004KT 7SM -SN BKN020 OVC038 01/M01 A2969 RMK AO2 SLP066 P0001 60001 T00111011 10011 21033 51008,M
WMC,2023-02-26 17:56,-117.8072,40.9019,1315.00,40.00,27.00,59.65,220.00,13.00,0.00,29.73,1007.20,10.00,20.00,BKN,BKN,M,M,4500.00,5500.00,M,M,M,M,M,M,M,M,M,31.69,KWMC 261756Z AUTO 22013G20KT 10SM BKN045 BKN055 04/M03 A2973 RMK AO2 SLP072 T00441028 10044 20000 51018,M
NFL,2023-02-26 17:56,-118.7010,39.4166,1199.00,43.00,30.00,59.83,200.00,9.00,0.00,29.80,1006.90,10.00,M,SCT,BKN,BKN,M,6000.00,8000.00,18000.00,M,M,M,M,M,M,M,M,37.19,KNFL 261756Z 20009KT 10SM SCT060 BKN080 BKN180 06/M01 A2980 RMK AO2 SLP069 T00611011 10061 20017 51017 $,M
HND,2023-02-26 17:56,-115.1344,35.9729,742.79,43.00,27.00,52.91,220.00,16.00,0.00,29.98,1017.60,10.00,M,SCT,M,M,M,3800.00,M,M,M,M,M,M,M,M,M,M,34.76,KHND 261756Z 22016KT 10SM SCT038 06/M03 A2998 RMK AO2 SLP176 T00611028 10061 20017 51035,M
LAS,2023-02-26 17:56,-115.1634,36.0719,663.00,45.00,28.00,51.08,200.00,9.00,0.00,29.97,1015.30,10.00,17.00,SCT,SCT,M,M,5000.00,14000.00,M,M,M,M,M,M,M,M,M,39.68,KLAS 261756Z 20009G17KT 10SM SCT050 SCT140 07/M02 A2997 RMK AO2 SLP153 T00721022 10072 20028 51035,M
ELY,2023-02-26 18:04,-114.8453,39.2950,1909.00,28.00,21.00,74.67,170.00,10.00,0.00,29.74,M,10.00,M,SCT,M,M,M,2300.00,M,M,M,M,M,M,M,M,M,M,17.95,KELY 261804Z AUTO 17010KT 10SM SCT023 M02/M06 A2974 RMK AO2 T10221061,M
BVU,2023-02-26 18:15,-114.8611,35.9475,671.00,44.60,28.40,52.72,230.00,12.00,0.00,29.99,M,10.00,17.00,BKN,M,M,M,4200.00,M,M,M,M,M,M,M,M,M,M,38.04,KBVU 261815Z AUTO 23012G17KT 10SM BKN042 07/M02 A2999 RMK AO2,M
CXP,2023-02-26 18:15,-119.7326,39.1923,1431.00,37.40,21.20,51.61,220.00,11.00,0.00,29.82,M,10.00,23.00,FEW,SCT,M,M,4500.00,5000.00,M,M,M,M,M,M,M,M,M,29.29,KCXP 261815Z AUTO 22011G23KT 180V280 10SM FEW045 SCT050 03/M06 A2982 RMK AO2,M
RTS,2023-02-26 18:15,-119.8764,39.6682,1539.00,33.80,19.40,55.14,240.00,10.00,0.00,29.81,M,10.00,23.00,FEW,SCT,M,M,4100.00,8500.00,M,M,M,M,M,M,M,M,M,25.23,KRTS 261815Z AUTO 24010G23KT 10SM FEW041 SCT085 01/M07 A2981 RMK AO2,M
MEV,2023-02-26 18:15,-119.7500,38.9963,1441.42,37.40,21.20,51.61,200.00,6.00,0.00,29.81,M,10.00,M,CLR,M,M,M,M,M,M,M,M,M,M,M,M,M,M,32.03,KMEV 261815Z AUTO 20006KT 10SM CLR 03/M06 A2981 RMK AO2,M
BAM,2023-02-26 18:15,-116.8743,40.5990,1382.36,39.20,33.80,80.79,230.00,15.00,0.00,29.74,M,10.00,19.00,SCT,SCT,OVC,M,3000.00,4000.00,8000.00,M,M,M,M,M,M,M,M,30.11,KBAM 261815Z AUTO 23015G19KT 10SM SCT030 SCT040 OVC080 04/01 A2974 RMK AO1,M
HTH,2023-02-26 18:15,-118.6315,38.5448,1282.89,39.20,24.80,55.95,0.00,0.00,0.00,29.82,M,10.00,M,CLR,M,M,M,M,M,M,M,M,M,M,M,M,M,M,39.20,KHTH 261815Z AUTO 00000KT 10SM CLR 04/M04 A2982 RMK A01,M
TMT,2023-02-26 18:15,-117.1971,39.4643,1749.34,33.30,26.10,74.58,230.00,9.00,0.00,29.78,M,10.00,M,OVC,M,M,M,2900.00,M,M,M,M,M,M,M,M,M,M,25.13,KTMT 261815Z AUTO 23009KT 10SM OVC029 01/M03 A2978 RMK AO2 T00071033,M
CXP,2023-02-26 18:25,-119.7326,39.1923,1431.00,39.20,21.20,48.10,230.00,13.00,0.00,29.82,M,10.00,24.00,FEW,FEW,M,M,4400.00,5000.00,M,M,M,M,M,M,M,M,M,30.79,KCXP 261825Z AUTO 23013G24KT 10SM FEW044 FEW050 04/M06 A2982 RMK AO2,M
EKO,2023-02-26 18:30,-115.7860,40.8242,1367.00,34.00,30.00,85.11,210.00,8.00,T,29.70,M,1.75,M,BKN,BKN,OVC,M,1800.00,3300.00,4300.00,M,-SN BR,M,M,M,M,M,M,26.58,KEKO 261830Z AUTO 21008KT 1 3/4SM -SN BR BKN018 BKN033 OVC043 01/M01 A2970 RMK AO2 P0000 T00111011,M
BVU,2023-02-26 18:35,-114.8611,35.9475,671.00,46.40,28.40,49.24,250.00,11.00,0.00,29.99,M,10.00,19.00,BKN,M,M,M,4100.00,M,M,M,M,M,M,M,M,M,M,40.66,KBVU 261835Z AUTO 25011G19KT 10SM BKN041 08/M02 A2999 RMK AO2,M
EKO,2023-02-26 18:35,-115.7860,40.8242,1367.00,34.00,30.90,88.27,210.00,9.00,T,29.70,M,2.00,M,SCT,OVC,M,M,1800.00,3600.00,M,M,-SN BR,M,M,M,M,M,M,26.00,KEKO 261835Z AUTO 21009KT 2SM -SN BR SCT018 OVC036 01/M01 A2970 RMK AO2 P0000 T00111006,M
RTS,2023-02-26 18:35,-119.8764,39.6682,1539.00,33.80,19.40,55.14,M,6.00,0.00,29.81,M,10.00,19.00,BKN,BKN,BKN,M,3700.00,4300.00,5000.00,M,M,M,M,M,M,M,M,27.70,KRTS 261835Z AUTO VRB06G19KT 210V340 10SM BKN037 BKN043 BKN050 01/M07 A2981 RMK AO2,M
MEV,2023-02-26 18:35,-119.7500,38.9963,1441.42,37.40,23.00,55.68,220.00,12.00,0.00,29.82,M,10.00,M,CLR,M,M,M,M,M,M,M,M,M,M,M,M,M,M,28.87,KMEV 261835Z AUTO 22012KT 10SM CLR 03/M05 A2982 RMK AO2,M
BAM,2023-02-26 18:35,-116.8743,40.5990,1382.36,41.00,32.00,70.08,240.00,17.00,0.00,29.74,M,10.00,22.00,SCT,BKN,OVC,M,2200.00,2700.00,8000.00,M,M,M,M,M,M,M,M,31.87,KBAM 261835Z AUTO 24017G22KT 10SM SCT022 BKN027 OVC080 05/00 A2974 RMK AO1,M
HTH,2023-02-26 18:35,-118.6315,38.5448,1282.89,39.20,24.80,55.95,M,3.00,0.00,29.83,M,10.00,M,CLR,M,M,M,M,M,M,M,M,M,M,M,M,M,M,36.92,KHTH 261835Z AUTO VRB03KT 10SM CLR 04/M04 A2983 RMK A01,M
TMT,2023-02-26 18:35,-117.1971,39.4643,1749.34,33.80,25.50,71.30,210.00,10.00,0.00,29.79,M,10.00,M,BKN,OVC,M,M,2900.00,3600.00,M,M,M,M,M,M,M,M,M,25.23,KTMT 261835Z AUTO 21010KT 10SM BKN029 OVC036 01/M04 A2979 RMK AO2 T00101036,M
EKO,2023-02-26 18:39,-115.7860,40.8242,1367.00,35.00,30.90,84.49,210.00,8.00,T,29.70,M,3.00,M,SCT,BKN,OVC,M,1800.00,2900.00,3800.00,M,-SN BR,M,M,M,M,M,M,27.93,KEKO 261839Z AUTO 21008KT 3SM -SN BR SCT018 BKN029 OVC038 02/M01 A2970 RMK AO2 P0000 T00171006,M
DRA,2023-02-26 18:44,-116.0278,36.6206,1009.00,38.00,28.00,67.20,230.00,8.00,0.00,29.97,M,10.00,M,BKN,OVC,M,M,2900.00,3600.00,M,M,M,M,M,M,M,M,M,31.38,KDRA 261844Z AUTO 23008KT 10SM BKN029 OVC036 03/M02 A2997 RMK AO2 T00331022,M
P68,2023-02-26 18:53,-116.0056,39.6014,1993.00,34.00,25.00,69.28,260.00,5.00,0.00,29.75,1006.20,M,M,M,M,M,M,M,M,M,M,M,M,M,M,M,M,M,28.77,KP68 261853Z AUTO 26005KT 01/M04 A2975 RMK AO1 SLP062 T00111039,M
DRA,2023-02-26 18:53,-116.0278,36.6206,1009.00,39.00,28.00,64.37,230.00,9.00,0.00,29.96,1014.80,10.00,M,OVC,M,M,M,2900.00,M,M,M,M,M,M,M,M,M,M,32.22,KDRA 261853Z AUTO 23009KT 10SM OVC029 04/M02 A2996 RMK AO2 SLP148 T00391022,M
ELY,2023-02-26 18:53,-114.8453,39.2950,1909.00,28.90,21.00,71.96,170.00,11.00,0.00,29.76,1007.40,10.00,M,BKN,M,M,M,2700.00,M,M,M,M,M,M,M,M,M,M,18.55,KELY 261853Z AUTO 17011KT 10SM BKN027 M02/M06 A2976 RMK AO2 SLP074 T10171061,M
VGT,2023-02-26 18:53,-115.1933,36.2111,667.00,46.00,30.00,53.37,190.00,5.00,0.00,29.98,1017.50,10.00,M,FEW,M,M,M,4200.00,M,M,M,M,M,M,M,M,M,M,43.02,KVGT 261853Z 19005KT 10SM FEW042 08/M01 A2998 RMK AO2 SLP175 T00781011 $,M
LOL,2023-02-26 18:53,-118.5701,40.0684,1192.43,39.00,28.90,66.79,200.00,11.00,T,29.80,1010.00,5.00,19.00,BKN,BKN,BKN,M,2700.00,3400.00,5000.00,M,-RA,M,M,M,M,M,M,31.31,KLOL 261853Z AUTO 20011G19KT 5SM -RA BKN027 BKN034 BKN050 04/M02 A2980 RMK AO2 RAB52 SLP100 P0000 T00391017,M
BVU,2023-02-26 18:55,-114.8611,35.9475,671.00,46.40,28.40,49.24,220.00,11.00,0.00,30.00,M,10.00,M,FEW,M,M,M,4300.00,M,M,M,M,M,M,M,M,M,M,40.66,KBVU 261855Z AUTO 22011KT 10SM FEW043 08/M02 A3000 RMK AO2,M
RTS,2023-02-26 18:55,-119.8764,39.6682,1539.00,33.80,19.40,55.14,220.00,15.00,0.00,29.81,M,10.00,20.00,SCT,BKN,OVC,M,3700.00,4200.00,6500.00,M,M,M,M,M,M,M,M,23.11,KRTS 261855Z AUTO 22015G20KT 10SM SCT037 BKN042 OVC065 01/M07 A2981 RMK AO2,M
MEV,2023-02-26 18:55,-119.7500,38.9963,1441.42,39.20,21.20,48.10,280.00,10.00,0.00,29.82,M,10.00,18.00,CLR,M,M,M,M,M,M,M,M,M,M,M,M,M,M,32.00,KMEV 261855Z AUTO 28010G18KT 10SM CLR 04/M06 A2982 RMK AO2,M
BAM,2023-02-26 18:55,-116.8743,40.5990,1382.36,41.00,32.00,70.08,230.00,13.00,0.00,29.75,M,10.00,17.00,BKN,OVC,M,M,2500.00,4900.00,M,M,M,M,M,M,M,M,M,33.10,KBAM 261855Z AUTO 23013G17KT 10SM BKN025 OVC049 05/00 A2975 RMK AO1,M
HTH,2023-02-26 18:55,-118.6315,38.5448,1282.89,39.20,26.60,60.29,M,5.00,0.00,29.83,M,10.00,M,CLR,M,M,M,M,M,M,M,M,M,M,M,M,M,M,34.95,KHTH 261855Z AUTO VRB05KT 10SM CLR 04/M03 A2983 RMK A01,M
TMT,2023-02-26 18:55,-117.1971,39.4643,1749.34,34.30,25.90,71.06,220.00,13.00,0.00,29.79,M,10.00,17.00,OVC,M,M,M,2900.00,M,M,M,M,M,M,M,M,M,M,24.51,KTMT 261855Z AUTO 22013G17KT 10SM OVC029 01/M03 A2979 RMK AO2 T00131034,M
INS,2023-02-26 18:55,-115.6733,36.5872,955.00,42.60,24.80,49.05,330.00,6.00,0.00,29.96,1014.50,10.00,M,BKN,M,M,M,4300.00,M,M,M,M,M,M,M,M,M,M,38.30,KINS 261855Z AUTO 33006KT 10SM BKN043 06/M04 A2996 RMK AO2 SLP145 T00591040 $,M
LSV,2023-02-26 18:55,-115.0343,36.2362,570.00,50.00,33.60,53.11,170.00,9.00,0.00,29.97,1014.90,10.00,M,FEW,M,M,M,4800.00,M,M,M,M,M,M,M,M,M,M,50.00,KLSV 261855Z AUTO 17009KT 10SM FEW048 10/01 A2997 RMK AO2 SLP149 T01000009 $,M
RNO,2023-02-26 18:55,-119.7711,39.4839,1341.00,40.00,23.00,50.50,190.00,5.00,0.00,29.79,1008.70,10.00,M,BKN,BKN,BKN,BKN,6500.00,10000.00,14000.00,18000.00,M,M,M,M,M,M,M,35.78,KRNO 261855Z 19005KT 10SM BKN065 BKN100 BKN140 BKN180 04/M05 A2979 RMK AO2 SLP087 ACSL ALQDS T00441050,M
NFL,2023-02-26 18:56,-118.7010,39.4166,1199.00,44.00,27.00,50.73,200.00,10.00,0.00,29.81,1007.10,10.00,M,SCT,BKN,BKN,M,6000.00,10000.00,15000.00,M,M,M,M,M,M,M,M,38.14,KNFL 261856Z 20010KT 10SM SCT060 BKN100 BKN150 07/M03 A2981 RMK AO2 SLP071 T00671028 $,M
HND,2023-02-26 18:56,-115.1344,35.9729,742.79,45.00,28.00,51.08,200.00,11.00,0.00,30.00,1018.30,10.00,M,SCT,M,M,M,4000.00,M,M,M,M,M,M,M,M,M,M,38.89,KHND 261856Z 20011KT 10SM SCT040 07/M02 A3000 RMK AO2 SLP183 T00721022,M
LAS,2023-02-26 18:56,-115.1634,36.0719,663.00,46.00,26.10,45.47,180.00,6.00,0.00,29.99,1015.80,10.00,M,SCT,M,M,M,5000.00,M,M,M,M,M,M,M,M,M,M,42.39,KLAS 261856Z 18006KT 10SM SCT050 08/M03 A2999 RMK AO2 SLP158 T00781033,M
EKO,2023-02-26 18:56,-115.7860,40.8242,1367.00,35.00,32.00,88.33,220.00,9.00,T,29.70,1007.30,8.00,M,FEW,BKN,OVC,M,1600.00,2300.00,4000.00,M,-SN,M,M,M,M,M,M,27.37,KEKO 261856Z AUTO 22009KT 8SM -SN FEW016 BKN023 OVC040 02/00 A2970 RMK AO2 SLP073 P0000 T00170000,M
WMC,2023-02-26 18:56,-117.8072,40.9019,1315.00,40.00,26.10,57.47,250.00,12.00,0.00,29.73,1007.50,10.00,M,SCT,OVC,M,M,3700.00,4400.00,M,M,M,M,M,M,M,M,M,32.06,KWMC 261856Z AUTO 25012KT 10SM SCT037 OVC044 04/M03 A2973 RMK AO2 SLP075 T00441033,M
DRA,2023-02-26 18:57,-116.0278,36.6206,1009.00,39.00,28.00,64.37,230.00,6.00,0.00,29.96,M,10.00,M,OVC,M,M,M,3100.00,M,M,M,M,M,M,M,M,M,M,33.96,KDRA 261857Z AUTO 23006KT 10SM OVC031 04/M02 A2996 RMK AO2 T00391022,M
LSV,2023-02-26 19:13,-115.0343,36.2362,570.00,50.00,33.80,53.54,210.00,6.00,0.00,29.97,1014.90,10.00,17.00,BKN,M,M,M,4800.00,M,M,M,M,M,M,M,M,M,M,50.00,KLSV 261913Z AUTO 21006G17KT 10SM BKN048 10/01 A2997 RMK AO2 SLP149 $,M
BVU,2023-02-26 19:15,-114.8611,35.9475,671.00,46.40,28.40,49.24,240.00,10.00,0.00,30.01,M,10.00,M,SCT,M,M,M,4400.00,M,M,M,M,M,M,M,M,M,M,41.03,KBVU 261915Z AUTO 24010KT 10SM SCT044 08/M02 A3001 RMK AO2,M
RTS,2023-02-26 19:15,-119.8764,39.6682,1539.00,37.40,19.40,47.80,210.00,22.00,0.00,29.81,M,10.00,M,FEW,OVC,M,M,4200.00,7000.00,M,M,M,M,M,M,M,M,M,25.81,KRTS 261915Z AUTO 21022KT 10SM FEW042 OVC070 03/M07 A2981 RMK AO2,M
MEV,2023-02-26 19:15,-119.7500,38.9963,1441.42,39.20,21.20,48.10,110.00,4.00,0.00,29.82,M,10.00,M,SCT,M,M,M,5500.00,M,M,M,M,M,M,M,M,M,M,35.83,KMEV 261915Z AUTO 11004KT 10SM SCT055 04/M06 A2982 RMK AO2,M
BAM,2023-02-26 19:15,-116.8743,40.5990,1382.36,41.00,32.00,70.08,230.00,12.00,0.00,29.75,M,10.00,M,OVC,M,M,M,2500.00,M,M,M,M,M,M,M,M,M,M,33.46,KBAM 261915Z AUTO 23012KT 10SM OVC025 05/00 A2975 RMK AO1,M
HTH,2023-02-26 19:15,-118.6315,38.5448,1282.89,41.00,28.40,60.54,80.00,12.00,0.00,29.83,M,10.00,M,CLR,M,M,M,M,M,M,M,M,M,M,M,M,M,M,33.46,KHTH 261915Z AUTO 08012KT 10SM CLR 05/M02 A2983 RMK A01,M
TMT,2023-02-26 19:15,-117.1971,39.4643,1749.34,36.50,26.40,66.48,240.00,16.00,0.00,29.80,M,10.00,M,BKN,OVC,M,M,2900.00,6000.00,M,M,M,M,M,M,M,M,M,26.28,KTMT 261915Z AUTO 24016KT 10SM BKN029 OVC060 03/M03 A2980 RMK AO2 T00251031,M
ELY,2023-02-26 19:16,-114.8453,39.2950,1909.00,28.90,21.90,74.76,160.00,5.00,0.00,29.78,M,10.00,M,SCT,M,M,M,2600.00,M,M,M,M,M,M,M,M,M,M,22.71,KELY 261916Z AUTO 16005KT 10SM SCT026 M02/M06 A2978 RMK AO2 T10171056,M
LOL,2023-02-26 19:24,-118.5701,40.0684,1192.43,39.00,28.00,64.37,260.00,5.00,T,29.79,M,10.00,M,BKN,OVC,M,M,3200.00,4700.00,M,M,-RA,M,M,M,M,M,M,34.71,KLOL 261924Z AUTO 26005KT 10SM -RA BKN032 OVC047 04/M02 A2979 RMK AO2 SNB1859E08 P0000 T00391022,M
BVU,2023-02-26 19:35,-114.8611,35.9475,671.00,46.40,26.60,45.73,220.00,11.00,0.00,30.01,M,10.00,M,SCT,M,M,M,4500.00,M,M,M,M,M,M,M,M,M,M,40.66,KBVU 261935Z AUTO 22011KT 10SM SCT045 08/M03 A3001 RMK AO2,M
RTS,2023-02-26 19:35,-119.8764,39.6682,1539.00,37.40,21.20,51.61,240.00,14.00,0.00,29.80,M,10.00,27.00,FEW,BKN,BKN,M,3900.00,6500.00,8500.00,M,M,M,M,M,M,M,M,28.12,KRTS 261935Z AUTO 24014G27KT 10SM FEW039 BKN065 BKN085 03/M06 A2980 RMK AO2,M
MEV,2023-02-26 19:35,-119.7500,38.9963,1441.42,39.20,23.00,51.89,M,5.00,0.00,29.83,M,10.00,11.00,BKN,M,M,M,5500.00,M,M,M,M,M,M,M,M,M,M,34.95,KMEV 261935Z AUTO VRB05G11KT 10SM BKN055 04/M05 A2983 RMK AO2,M
BAM,2023-02-26 19:35,-116.8743,40.5990,1382.36,39.20,32.00,75.16,240.00,12.00,0.00,29.75,M,10.00,17.00,OVC,M,M,M,2500.00,M,M,M,M,M,M,M,M,M,M,31.17,KBAM 261935Z AUTO 24012G17KT 10SM OVC025 04/00 A2975 RMK AO1,M
HTH,2023-02-26 19:35,-118.6315,38.5448,1282.89,41.00,28.40,60.54,80.00,12.00,0.00,29.84,M,10.00,M,CLR,M,M,M,M,M,M,M,M,M,M,M,M,M,M,33.46,KHTH 261935Z AUTO 08012KT 10SM CLR 05/M02 A2984 RMK A01,M
TMT,2023-02-26 19:35,-117.1971,39.4643,1749.34,35.00,25.50,68.24,220.00,12.00,0.00,29.80,M,10.00,M,BKN,BKN,OVC,M,3100.00,3900.00,6000.00,M,M,M,M,M,M,M,M,25.69,KTMT 261935Z AUTO 22012KT 10SM BKN031 BKN039 OVC060 02/M04 A2980 RMK AO2 T00161036,M
EKO,2023-02-26 19:38,-115.7860,40.8242,1367.00,36.00,32.00,85.23,220.00,13.00,0.01,29.70,M,8.00,M,BKN,OVC,M,M,1400.00,2000.00,M,M,-SN,M,M,M,M,M,M,26.69,KEKO 261938Z AUTO 22013KT 8SM -SN BKN014 OVC020 02/00 A2970 RMK AO2 P0001 T00220000,M
WMC,2023-02-26 19:39,-117.8072,40.9019,1315.00,36.00,28.90,75.15,250.00,10.00,T,29.76,M,2.50,22.00,BKN,BKN,OVC,M,2900.00,3700.00,4900.00,M,-SN,M,M,M,32.00,260.00,2023-02-26 19:18,27.98,KWMC 261939Z AUTO 25010G22KT 2 1/2SM -SN BKN029 BKN037 OVC049 02/M02 A2976 RMK AO2 PK WND 26032/1918 SNB27 P0000 T00221017,M
LSV,2023-02-26 19:45,-115.0343,36.2362,570.00,50.00,30.20,46.31,170.00,10.00,0.00,29.96,1014.60,10.00,M,BKN,M,M,M,5000.00,M,M,M,M,M,M,M,M,M,M,50.00,KLSV 261945Z AUTO 17010KT 10SM BKN050 10/M01 A2996 RMK AO2 SLP146 $,M
P68,2023-02-26 19:53,-116.0056,39.6014,1993.00,34.00,27.00,75.26,180.00,4.00,0.00,29.75,1006.20,M,M,M,M,M,M,M,M,M,M,M,M,M,M,M,M,M,29.76,KP68 261953Z AUTO 18004KT 01/M03 A2975 RMK AO1 SLP062 T00111028,M
DRA,2023-02-26 19:53,-116.0278,36.6206,1009.00,41.00,28.90,61.79,240.00,9.00,0.00,29.96,1014.60,10.00,17.00,OVC,M,M,M,3400.00,M,M,M,M,M,M,M,M,M,M,34.70,KDRA 261953Z AUTO 24009G17KT 10SM OVC034 05/M02 A2996 RMK AO2 SLP146 T00501017,M
ELY,2023-02-26 19:53,-114.8453,39.2950,1909.00,32.00,21.00,63.45,360.00,5.00,0.00,29.77,1007.70,10.00,M,BKN,BKN,M,M,3500.00,6500.00,M,M,M,M,M,M,M,M,M,26.40,KELY 261953Z AUTO 36005KT 10SM BKN035 BKN065 00/M06 A2977 RMK AO2 SLP077 T00001061,M
VGT,2023-02-26 19:53,-115.1933,36.2111,667.00,49.00,27.00,42.32,0.00,0.00,0.00,29.97,1017.10,10.00,M,CLR,M,M,M,M,M,M,M,M,M,M,M,M,M,M,48.90,KVGT 261953Z 00000KT 10SM CLR 09/M03 A2997 RMK AO2 SLP171 T00941028 $,M
LOL,2023-02-26 19:53,-118.5701,40.0684,1192.43,40.00,28.90,64.49,200.00,13.00,T,29.79,1009.70,10.00,M,BKN,OVC,M,M,3600.00,7000.00,M,M,M,M,M,M,M,M,M,31.69,KLOL 261953Z AUTO 20013KT 10SM BKN036 OVC070 04/M02 A2979 RMK AO2 RAE31SNB1859E08 SLP097 P0000 T00441017,M
BVU,2023-02-26 19:55,-114.8611,35.9475,671.00,46.40,28.40,49.24,230.00,12.00,0.00,30.00,M,10.00,17.00,SCT,M,M,M,4500.00,M,M,M,M,M,M,M,M,M,M,40.33,KBVU 261955Z AUTO 23012G17KT 10SM SCT045 08/M02 A3000 RMK AO2,M
RNO,2023-02-26 19:55,-119.7711,39.4839,1341.00,45.00,23.00,41.50,220.00,10.00,0.00,29.78,1007.90,10.00,M,BKN,BKN,BKN,M,6000.00,10000.00,18000.00,M,M,M,M,M,M,M,M,39.27,KRNO 261955Z 22010KT 10SM BKN060 BKN100 BKN180 07/M05 A2978 RMK AO2 SLP079 ACSL ALQDS MTN TOPS OBSCD DSNT SW THRU W T00721050,M
RTS,2023-02-26 19:55,-119.8764,39.6682,1539.00,37.40,21.20,51.61,230.00,18.00,0.00,29.79,M,10.00,25.00,CLR,M,M,M,M,M,M,M,M,M,M,M,M,M,M,26.86,KRTS 261955Z AUTO 23018G25KT 10SM CLR 03/M06 A2979 RMK AO2,M
MEV,2023-02-26 19:55,-119.7500,38.9963,1441.42,39.20,21.20,48.10,70.00,6.00,0.00,29.82,M,10.00,M,FEW,SCT,M,M,5000.00,5500.00,M,M,M,M,M,M,M,M,M,34.20,KMEV 261955Z AUTO 07006KT 10SM FEW050 SCT055 04/M06 A2982 RMK AO2,M
BAM,2023-02-26 19:55,-116.8743,40.5990,1382.36,41.00,32.00,70.08,240.00,14.00,0.00,29.76,M,10.00,22.00,SCT,BKN,OVC,M,2500.00,3000.00,3900.00,M,M,M,M,M,M,M,M,32.76,KBAM 261955Z AUTO 24014G22KT 10SM SCT025 BKN030 OVC039 05/00 A2976 RMK AO1,M
HTH,2023-02-26 19:55,-118.6315,38.5448,1282.89,41.00,28.40,60.54,90.00,12.00,0.00,29.84,M,10.00,M,CLR,M,M,M,M,M,M,M,M,M,M,M,M,M,M,33.46,KHTH 261955Z AUTO 09012KT 10SM CLR 05/M02 A2984 RMK A01,M
TMT,2023-02-26 19:55,-117.1971,39.4643,1749.34,35.40,25.50,66.90,210.00,10.00,0.00,29.79,M,10.00,M,SCT,SCT,BKN,M,3100.00,3900.00,5000.00,M,M,M,M,M,M,M,M,27.23,KTMT 261955Z AUTO 21010KT 10SM SCT031 SCT039 BKN050 02/M04 A2979 RMK AO2 T00191036,M
INS,2023-02-26 19:55,-115.6733,36.5872,955.00,43.50,28.40,54.99,20.00,6.00,0.00,29.95,1013.90,10.00,M,BKN,M,M,M,4000.00,M,M,M,M,M,M,M,M,M,M,39.38,KINS 261955Z AUTO 02006KT 10SM BKN040 06/M02 A2995 RMK AO2 SLP139 T00641020 $,M
LSV,2023-02-26 19:55,-115.0343,36.2362,570.00,49.80,30.90,48.00,220.00,9.00,0.00,29.96,1014.60,10.00,M,SCT,M,M,M,5000.00,M,M,M,M,M,M,M,M,M,M,45.65,KLSV 261955Z AUTO 22009KT 10SM SCT050 10/M01 A2996 RMK AO2 SLP146 T00991006 $,M
EKO,2023-02-26 19:56,-115.7860,40.8242,1367.00,36.00,32.00,85.23,220.00,12.00,0.01,29.70,1007.30,10.00,20.00,BKN,BKN,OVC,M,1200.00,2300.00,4000.00,M,-SN,M,M,M,M,M,M,27.09,KEKO 261956Z AUTO 22012G20KT 10SM -SN BKN012 BKN023 OVC040 02/00 A2970 RMK AO2 SLP073 P0001 T00220000,M
WMC,2023-02-26 19:56,-117.8072,40.9019,1315.00,35.00,30.00,81.46,250.00,13.00,T,29.76,1008.90,1.50,M,SCT,BKN,OVC,M,1600.00,2100.00,3000.00,M,-SN,M,M,M,32.00,260.00,2023-02-26 19:18,25.54,KWMC 261956Z AUTO 25013KT 1 1/2SM -SN SCT016 BKN021 OVC030 02/M01 A2976 RMK AO2 PK WND 26032/1918 SNB27 SLP089 P0000 T00171011,M
HND,2023-02-26 19:56,-115.1344,35.9729,742.79,47.00,27.00,45.62,200.00,13.00,0.00,30.00,1018.30,10.00,M,SCT,M,M,M,4600.00,M,M,M,M,M,M,M,M,M,M,40.66,KHND 261956Z 20013KT 10SM SCT046 08/M03 A3000 RMK AO2 SLP183 T00831028,M
TPH,2023-02-26 19:56,-117.0904,38.0505,1654.00,28.00,25.00,88.33,180.00,7.00,0.00,29.88,1013.80,10.00,M,BKN,OVC,M,M,1000.00,2900.00,M,M,M,M,M,M,M,M,M,19.90,KTPH 261956Z AUTO 18007KT 10SM BKN010 OVC029 M02/M04 A2988 RMK AO2 SLP138 T10221039,M
NFL,2023-02-26 19:56,-118.7010,39.4166,1199.00,44.00,25.00,46.70,200.00,9.00,0.00,29.80,1006.90,10.00,M,SCT,BKN,BKN,M,5500.00,8000.00,15000.00,M,M,M,M,M,M,M,M,38.56,KNFL 261956Z 20009KT 10SM SCT055 BKN080 BKN150 07/M04 A2980 RMK AO2 SLP069 T00671039 $,M
LAS,2023-02-26 19:56,-115.1634,36.0719,663.00,47.00,25.00,41.99,160.00,7.00,0.00,29.99,1015.80,10.00,M,FEW,M,M,M,5000.00,M,M,M,M,M,M,M,M,M,M,42.94,KLAS 261956Z 16007KT 10SM FEW050 08/M04 A2999 RMK AO2 SLP158 T00831039,M
WMC,2023-02-26 20:01,-117.8072,40.9019,1315.00,34.00,30.00,85.11,250.00,10.00,T,29.76,M,0.75,M,VV ,M,M,M,1700.00,M,M,M,-SN BR,M,M,M,M,M,M,25.48,KWMC 262001Z AUTO 25010KT 3/4SM -SN BR VV017 01/M01 A2976 RMK AO2 P0000 T00111011,M
EKO,2023-02-26 20:08,-115.7860,40.8242,1367.00,36.00,32.00,85.23,230.00,14.00,T,29.70,M,9.00,21.00,SCT,BKN,OVC,M,1200.00,3300.00,5000.00,M,M,M,M,M,M,M,M,26.32,KEKO 262008Z AUTO 23014G21KT 9SM SCT012 BKN033 OVC050 02/00 A2970 RMK AO2 SNE06 P0000 T00220000,M
BVU,2023-02-26 20:15,-114.8611,35.9475,671.00,48.20,28.40,46.02,230.00,11.00,0.00,30.00,M,10.00,M,SCT,M,M,M,4500.00,M,M,M,M,M,M,M,M,M,M,42.94,KBVU 262015Z AUTO 23011KT 10SM SCT045 09/M02 A3000 RMK AO2,M
RTS,2023-02-26 20:15,-119.8764,39.6682,1539.00,35.60,21.20,55.41,260.00,15.00,0.00,29.80,M,10.00,22.00,CLR,M,M,M,M,M,M,M,M,M,M,M,M,M,M,25.45,KRTS 262015Z AUTO 26015G22KT 10SM CLR 02/M06 A2980 RMK AO2,M
MEV,2023-02-26 20:15,-119.7500,38.9963,1441.42,39.20,21.20,48.10,M,3.00,0.00,29.81,M,10.00,M,BKN,BKN,M,M,5000.00,6000.00,M,M,M,M,M,M,M,M,M,36.92,KMEV 262015Z AUTO VRB03KT 10SM BKN050 BKN060 04/M06 A2981 RMK AO2,M
BAM,2023-02-26 20:15,-116.8743,40.5990,1382.36,41.00,32.00,70.08,230.00,13.00,0.00,29.76,M,10.00,18.00,BKN,OVC,M,M,2500.00,3500.00,M,M,M,M,M,M,M,M,M,33.10,KBAM 262015Z AUTO 23013G18KT 10SM BKN025 OVC035 05/00 A2976 RMK AO1,M
HTH,2023-02-26 20:15,-118.6315,38.5448,1282.89,42.80,28.40,56.48,100.00,11.00,0.00,29.83,M,10.00,17.00,CLR,M,M,M,M,M,M,M,M,M,M,M,M,M,M,36.11,KHTH 262015Z AUTO 10011G17KT 10SM CLR 06/M02 A2983 RMK A01,M
TMT,2023-02-26 20:15,-117.1971,39.4643,1749.34,35.00,25.70,68.26,250.00,13.00,0.00,29.80,M,10.00,19.00,OVC,M,M,M,5000.00,M,M,M,M,M,M,M,M,M,M,25.54,KTMT 262015Z AUTO 25013G19KT 10SM OVC050 02/M03 A2980 RMK AO2 T00171035,M
WMC,2023-02-26 20:17,-117.8072,40.9019,1315.00,34.00,30.90,88.27,240.00,4.00,0.01,29.75,M,1.25,M,BKN,OVC,M,M,1500.00,2200.00,M,M,-SN BR,M,M,M,M,M,M,29.76,KWMC 262017Z AUTO 24004KT 1 1/4SM -SN BR BKN015 OVC022 01/M01 A2975 RMK AO2 P0001 T00111006,M
WMC,2023-02-26 20:21,-117.8072,40.9019,1315.00,34.00,30.90,88.27,260.00,6.00,0.01,29.75,M,2.00,M,BKN,OVC,M,M,1500.00,2100.00,M,M,-SN BR,M,M,M,M,M,M,27.94,KWMC 262021Z AUTO 26006KT 2SM -SN BR BKN015 OVC021 01/M01 A2975 RMK AO2 P0001 T00111006,M
WMC,2023-02-26 20:30,-117.8072,40.9019,1315.00,35.00,30.90,84.49,250.00,11.00,0.01,29.75,M,4.00,18.00,BKN,OVC,M,M,1300.00,1800.00,M,M,-SN BR,M,M,M,M,M,M,26.38,KWMC 262030Z AUTO 25011G18KT 4SM -SN BR BKN013 OVC018 02/M01 A2975 RMK AO2 P0001 T00171006,M
BVU,2023-02-26 20:35,-114.8611,35.9475,671.00,48.20,26.60,42.73,M,6.00,0.00,29.99,M,10.00,18.00,SCT,M,M,M,4600.00,M,M,M,M,M,M,M,M,M,M,45.04,KBVU 262035Z AUTO VRB06G18KT 10SM SCT046 09/M03 A2999 RMK AO2,M
RTS,2023-02-26 20:35,-119.8764,39.6682,1539.00,37.40,19.40,47.80,260.00,15.00,0.00,29.79,M,10.00,23.00,FEW,BKN,BKN,M,4300.00,5000.00,5500.00,M,M,M,M,M,M,M,M,27.78,KRTS 262035Z AUTO 26015G23KT 10SM FEW043 BKN050 BKN055 03/M07 A2979 RMK AO2,M
MEV,2023-02-26 20:35,-119.7500,38.9963,1441.42,39.20,21.20,48.10,190.00,11.00,0.00,29.81,M,10.00,23.00,OVC,M,M,M,5000.00,M,M,M,M,M,M,M,M,M,M,31.57,KMEV 262035Z AUTO 19011G23KT 10SM OVC050 04/M06 A2981 RMK AO2,M
BAM,2023-02-26 20:35,-116.8743,40.5990,1382.36,41.00,32.00,70.08,230.00,19.00,0.00,29.75,M,10.00,22.00,SCT,BKN,OVC,M,2700.00,3400.00,5000.00,M,M,M,M,M,M,M,M,31.34,KBAM 262035Z AUTO 23019G22KT 10SM SCT027 BKN034 OVC050 05/00 A2975 RMK AO1,M
HTH,2023-02-26 20:35,-118.6315,38.5448,1282.89,42.80,28.40,56.48,120.00,7.00,0.00,29.82,M,10.00,13.00,CLR,M,M,M,M,M,M,M,M,M,M,M,M,M,M,37.94,KHTH 262035Z AUTO 12007G13KT 070V130 10SM CLR 06/M02 A2982 RMK A01,M
TMT,2023-02-26 20:35,-117.1971,39.4643,1749.34,35.00,25.30,67.68,230.00,9.00,0.00,29.80,M,10.00,17.00,SCT,OVC,M,M,3700.00,4800.00,M,M,M,M,M,M,M,M,M,27.12,KTMT 262035Z AUTO 23009G17KT 10SM SCT037 OVC048 02/M04 A2980 RMK AO2 T00161037,M
WMC,2023-02-26 20:39,-117.8072,40.9019,1315.00,34.00,30.90,88.27,240.00,7.00,0.02,29.75,M,2.00,18.00,BKN,OVC,M,M,1300.00,2000.00,M,M,-SN BR,M,M,M,M,M,M,27.22,KWMC 262039Z AUTO 24007G18KT 2SM -SN BR BKN013 OVC020 01/M01 A2975 RMK AO2 VIS 1 1/2V3 P0002 T00111006,M
DRA,2023-02-26 20:53,-116.0278,36.6206,1009.00,44.00,30.00,57.37,210.00,14.00,0.00,29.95,1013.70,10.00,19.00,SCT,M,M,M,3300.00,M,M,M,M,M,M,M,M,M,M,36.76,KDRA 262053Z AUTO 21014G19KT 10SM SCT033 07/M01 A2995 RMK AO2 SLP137 T00671011 50003,M
ELY,2023-02-26 20:53,-114.8453,39.2950,1909.00,30.90,21.90,68.91,170.00,7.00,0.00,29.77,1007.90,10.00,M,SCT,M,M,M,4100.00,M,M,M,M,M,M,M,M,M,M,23.44,KELY 262053Z AUTO 17007KT 10SM SCT041 M01/M06 A2977 RMK AO2 SLP079 T10061056 50002,M
VGT,2023-02-26 20:53,-115.1933,36.2111,667.00,49.00,26.10,40.77,160.00,3.00,0.00,29.96,1016.80,10.00,M,FEW,M,M,M,5000.00,M,M,M,M,M,M,M,M,M,M,48.01,KVGT 262053Z 16003KT 10SM FEW050 09/M03 A2996 RMK AO2 SLP168 T00941033 50002 $,M
LOL,2023-02-26 20:53,-118.5701,40.0684,1192.43,42.00,26.10,52.78,190.00,10.00,0.00,29.77,1008.80,10.00,M,SCT,M,M,M,11000.00,M,M,M,M,M,M,M,M,M,M,35.63,KLOL 262053Z AUTO 19010KT 10SM SCT110 06/M03 A2977 RMK AO2 SLP088 60000 T00561033 58001,M
P68,2023-02-26 20:53,-116.0056,39.6014,1993.00,35.00,26.10,69.41,260.00,13.00,0.00,29.75,1006.50,M,M,M,M,M,M,M,M,M,M,M,M,M,M,M,M,M,25.54,KP68 262053Z AUTO 26013KT 02/M03 A2975 RMK AO1 SLP065 T00171033 51008,M
BVU,2023-02-26 20:55,-114.8611,35.9475,671.00,48.20,28.40,46.02,240.00,9.00,0.00,29.99,M,8.00,M,FEW,M,M,M,4700.00,M,M,M,M,M,M,M,M,M,M,43.66,KBVU 262055Z AUTO 24009KT 8SM FEW047 09/M02 A2999 RMK AO2,M
CXP,2023-02-26 20:55,-119.7326,39.1923,1431.00,M,M,M,M,M,0.00,29.81,M,M,M,M,M,M,M,M,M,M,M,M,M,M,M,M,M,M,M,KCXP 262055Z AUTO A2981 RMK AO2 PWINO,M
RNO,2023-02-26 20:55,-119.7711,39.4839,1341.00,41.00,24.10,50.67,190.00,16.00,0.00,29.76,1007.30,10.00,31.00,SCT,BKN,BKN,BKN,6000.00,10000.00,15000.00,21000.00,M,M,M,M,31.00,170.00,2023-02-26 20:52,32.15,KRNO 262055Z 19016G31KT 10SM SCT060 BKN100 BKN150 BKN210 05/M04 A2976 RMK AO2 PK WND 17031/2052 SLP073 SCSL AND ACSL ALQDS T00501044 58010,M
RTS,2023-02-26 20:55,-119.8764,39.6682,1539.00,37.40,21.20,51.61,250.00,20.00,0.00,29.79,M,10.00,M,BKN,BKN,M,M,4700.00,5500.00,M,M,M,M,M,M,M,M,M,26.31,KRTS 262055Z AUTO 25020KT 10SM BKN047 BKN055 03/M06 A2979 RMK AO2,M
MEV,2023-02-26 20:55,-119.7500,38.9963,1441.42,37.40,23.00,55.68,210.00,7.00,0.00,29.80,M,10.00,M,BKN,OVC,M,M,5000.00,6000.00,M,M,M,M,M,M,M,M,M,31.36,KMEV 262055Z AUTO 21007KT 170V230 10SM BKN050 OVC060 03/M05 A2980 RMK AO2,M
BAM,2023-02-26 20:55,-116.8743,40.5990,1382.36,42.80,32.00,65.38,250.00,16.00,0.00,29.75,M,10.00,24.00,SCT,BKN,OVC,M,2700.00,4500.00,5000.00,M,M,M,M,M,M,M,M,34.50,KBAM 262055Z AUTO 25016G24KT 10SM SCT027 BKN045 OVC050 06/00 A2975 RMK AO1,M
HTH,2023-02-26 20:55,-118.6315,38.5448,1282.89,44.60,26.60,48.96,M,4.00,0.00,29.81,M,10.00,M,CLR,M,M,M,M,M,M,M,M,M,M,M,M,M,M,42.13,KHTH 262055Z AUTO VRB04KT 10SM CLR 07/M03 A2981 RMK A01,M
TMT,2023-02-26 20:55,-117.1971,39.4643,1749.34,35.60,25.50,66.37,240.00,13.00,0.00,29.80,M,10.00,M,BKN,OVC,M,M,4800.00,5000.00,M,M,M,M,M,M,M,M,M,26.18,KTMT 262055Z AUTO 24013KT 10SM BKN048 OVC050 02/M04 A2980 RMK AO2 T00201036,M
INS,2023-02-26 20:55,-115.6733,36.5872,955.00,44.00,26.60,49.90,0.00,0.00,0.00,29.94,1013.60,10.00,M,BKN,M,M,M,4000.00,M,M,M,M,M,M,M,M,M,M,44.10,KINS 262055Z AUTO 00000KT 10SM BKN040 07/M03 A2994 RMK AO2 SLP136 T00671030 50001 $,M
LSV,2023-02-26 20:55,-115.0343,36.2362,570.00,49.00,27.00,42.00,150.00,6.00,0.00,29.96,1014.70,10.00,M,FEW,M,M,M,5000.00,M,M,M,M,M,M,M,M,M,M,46.13,KLSV 262055Z AUTO 15006KT 10SM FEW050 10/M03 A2996 RMK AO2 SLP147 T00951028 50002 $,M
EKO,2023-02-26 20:56,-115.7860,40.8242,1367.00,36.00,30.90,81.53,250.00,14.00,T,29.70,1007.10,8.00,M,FEW,BKN,OVC,M,2500.00,4400.00,5000.00,M,-SN,M,M,M,M,M,M,26.32,KEKO 262056Z AUTO 25014KT 8SM -SN FEW025 BKN044 OVC050 02/M01 A2970 RMK AO2 SNE06B13 SLP071 P0000 60001 T00221006 50004,M
WMC,2023-02-26 20:56,-117.8072,40.9019,1315.00,34.00,30.90,88.27,160.00,3.00,0.02,29.75,1008.70,2.00,M,SCT,BKN,OVC,M,1000.00,1500.00,2000.00,M,-SN BR,M,M,M,M,M,M,30.97,KWMC 262056Z AUTO 16003KT 2SM -SN BR SCT010 BKN015 OVC020 01/M01 A2975 RMK AO2 SLP087 P0002 60002 T00111006 50006,M
NFL,2023-02-26 20:56,-118.7010,39.4166,1199.00,45.00,25.00,45.12,210.00,12.00,0.00,29.78,1006.30,10.00,M,FEW,BKN,BKN,M,4000.00,6000.00,15000.00,M,M,M,M,M,M,M,M,38.55,KNFL 262056Z 21012KT 10SM FEW040 BKN060 BKN150 07/M04 A2978 RMK AO2 SLP063 T00721039 58006 $,M
HND,2023-02-26 20:56,-115.1344,35.9729,742.79,48.00,26.10,42.17,190.00,10.00,0.00,29.99,1017.80,10.00,M,CLR,M,M,M,M,M,M,M,M,M,M,M,M,M,M,43.03,KHND 262056Z 19010KT 10SM CLR 09/M03 A2999 RMK AO2 SLP178 T00891033 50003,M
TPH,2023-02-26 20:56,-117.0904,38.0505,1654.00,28.90,26.10,89.12,180.00,10.00,0.00,29.88,1014.00,10.00,M,OVC,M,M,M,1000.00,M,M,M,M,M,M,M,M,M,M,19.08,KTPH 262056Z AUTO 18010KT 10SM OVC010 M02/M03 A2988 RMK AO2 CIG 007V014 SLP140 T10171033 51006,M
LAS,2023-02-26 20:56,-115.1634,36.0719,663.00,49.00,26.10,40.77,160.00,7.00,0.00,29.97,1015.20,10.00,M,FEW,M,M,M,5000.00,M,M,M,M,M,M,M,M,M,M,45.38,KLAS 262056Z 16007KT 10SM FEW050 09/M03 A2997 RMK AO2 SLP152 T00941033 50001,M
WMC,2023-02-26 21:07,-117.8072,40.9019,1315.00,35.00,32.00,88.33,140.00,6.00,0.01,29.74,M,4.00,M,FEW,BKN,OVC,M,1000.00,2700.00,4900.00,M,-SN BR,M,M,M,M,M,M,29.26,KWMC 262107Z AUTO 14006KT 4SM -SN BR FEW010 BKN027 OVC049 02/00 A2974 RMK AO2 P0001 T00170000,M
WMC,2023-02-26 21:14,-117.8072,40.9019,1315.00,35.00,32.00,88.33,170.00,8.00,0.01,29.75,M,8.00,M,FEW,BKN,OVC,M,1000.00,3200.00,4900.00,M,-SN,M,M,M,M,M,M,27.93,KWMC 262114Z AUTO 17008KT 8SM -SN FEW010 BKN032 OVC049 02/00 A2975 RMK AO2 P0001 T00170000,M
BVU,2023-02-26 21:15,-114.8611,35.9475,671.00,50.00,28.40,43.03,210.00,12.00,0.00,29.98,M,10.00,M,SCT,M,M,M,4800.00,M,M,M,M,M,M,M,M,M,M,50.00,KBVU 262115Z AUTO 21012KT 10SM SCT048 10/M02 A2998 RMK AO2,M
CXP,2023-02-26 21:15,-119.7326,39.1923,1431.00,41.00,21.20,44.85,190.00,13.00,0.00,29.81,M,9.00,20.00,M,M,M,M,M,M,M,M,M,M,M,M,M,M,M,33.10,KCXP 262115Z AUTO 19013G20KT 9SM 05/M06 A2981 RMK AO2,M
RTS,2023-02-26 21:15,-119.8764,39.6682,1539.00,37.40,21.20,51.61,260.00,19.00,0.00,29.78,M,10.00,M,FEW,M,M,M,4500.00,M,M,M,M,M,M,M,M,M,M,26.58,KRTS 262115Z AUTO 26019KT 10SM FEW045 03/M06 A2978 RMK AO2,M
MEV,2023-02-26 21:15,-119.7500,38.9963,1441.42,37.40,23.00,55.68,170.00,13.00,0.00,29.79,M,10.00,20.00,FEW,BKN,M,M,5000.00,6000.00,M,M,M,M,M,M,M,M,M,28.49,KMEV 262115Z AUTO 17013G20KT 10SM FEW050 BKN060 03/M05 A2979 RMK AO2,M
BAM,2023-02-26 21:15,-116.8743,40.5990,1382.36,41.00,30.20,65.16,230.00,18.00,0.00,29.75,M,10.00,M,BKN,OVC,M,M,3500.00,4800.00,M,M,M,M,M,M,M,M,M,31.60,KBAM 262115Z AUTO 23018KT 10SM BKN035 OVC048 05/M01 A2975 RMK AO1,M
HTH,2023-02-26 21:15,-118.6315,38.5448,1282.89,44.60,28.40,52.72,M,4.00,0.00,29.81,M,10.00,M,CLR,M,M,M,M,M,M,M,M,M,M,M,M,M,M,42.13,KHTH 262115Z AUTO VRB04KT 10SM CLR 07/M02 A2981 RMK A01,M
TMT,2023-02-26 21:15,-117.1971,39.4643,1749.34,35.60,24.80,64.46,240.00,14.00,0.00,29.79,M,10.00,M,BKN,OVC,M,M,4800.00,5000.00,M,M,M,M,M,M,M,M,M,25.80,KTMT 262115Z AUTO 24014KT 10SM BKN048 OVC050 02/M04 A2979 RMK AO2 T00201040,M
CXP,2023-02-26 21:35,-119.7326,39.1923,1431.00,41.00,21.20,44.85,230.00,12.00,0.00,29.81,M,3.00,21.00,OVC,M,M,M,4800.00,M,M,M,HZ,M,M,M,M,M,M,33.46,KCXP 262135Z AUTO 23012G21KT 3SM HZ OVC048 05/M06 A2981 RMK AO2,M
RTS,2023-02-26 21:35,-119.8764,39.6682,1539.00,37.40,21.20,51.61,270.00,20.00,0.00,29.78,M,10.00,25.00,CLR,M,M,M,M,M,M,M,M,M,M,M,M,M,M,26.31,KRTS 262135Z AUTO 27020G25KT 10SM CLR 03/M06 A2978 RMK AO2,M
MEV,2023-02-26 21:35,-119.7500,38.9963,1441.42,37.40,23.00,55.68,170.00,20.00,0.00,29.79,M,10.00,25.00,BKN,M,M,M,5000.00,M,M,M,M,M,M,M,M,M,M,26.31,KMEV 262135Z AUTO 17020G25KT 10SM BKN050 03/M05 A2979 RMK AO2,M
BAM,2023-02-26 21:35,-116.8743,40.5990,1382.36,42.80,30.20,60.79,250.00,17.00,0.00,29.75,M,10.00,24.00,SCT,BKN,OVC,M,3700.00,4500.00,6000.00,M,M,M,M,M,M,M,M,34.22,KBAM 262135Z AUTO 25017G24KT 10SM SCT037 BKN045 OVC060 06/M01 A2975 RMK AO1,M
HTH,2023-02-26 21:35,-118.6315,38.5448,1282.89,44.60,28.40,52.72,220.00,5.00,0.00,29.81,M,10.00,M,CLR,M,M,M,M,M,M,M,M,M,M,M,M,M,M,41.36,KHTH 262135Z AUTO 22005KT 10SM CLR 07/M02 A2981 RMK A01,M
TMT,2023-02-26 21:35,-117.1971,39.4643,1749.34,36.00,25.20,64.52,230.00,11.00,0.00,29.79,M,10.00,16.00,BKN,BKN,OVC,M,4800.00,5000.00,7500.00,M,M,M,M,M,M,M,M,27.52,KTMT 262135Z AUTO 23011G16KT 10SM BKN048 BKN050 OVC075 02/M04 A2979 RMK AO2 T00221038,M
EKO,2023-02-26 21:49,-115.7860,40.8242,1367.00,36.00,30.00,78.60,230.00,14.00,T,29.71,M,10.00,20.00,BKN,BKN,OVC,M,2400.00,3200.00,4400.00,M,M,M,M,M,M,M,M,26.32,KEKO 262149Z AUTO 23014G20KT 10SM BKN024 BKN032 OVC044 02/M01 A2971 RMK AO2 SNE01 P0000 T00221011,M
P68,2023-02-26 21:53,-116.0056,39.6014,1993.00,35.00,27.00,72.04,270.00,12.00,0.00,29.75,1006.60,M,M,M,M,M,M,M,M,M,M,M,M,M,M,M,M,M,25.95,KP68 262153Z AUTO 27012KT 02/M03 A2975 RMK AO1 SLP066 T00171028,M
DRA,2023-02-26 21:53,-116.0278,36.6206,1009.00,45.00,30.00,55.43,230.00,12.00,0.00,29.96,1014.00,10.00,21.00,SCT,M,M,M,3200.00,M,M,M,M,M,M,M,M,M,M,38.55,KDRA 262153Z AUTO 23012G21KT 10SM SCT032 07/M01 A2996 RMK AO2 SLP140 T00721011,M
ELY,2023-02-26 21:53,-114.8453,39.2950,1909.00,30.90,21.90,68.91,170.00,10.00,0.00,29.77,1009.40,10.00,M,SCT,OVC,M,M,3800.00,4800.00,M,M,M,M,M,M,M,M,M,21.59,KELY 262153Z AUTO 17010KT 10SM SCT038 OVC048 M01/M06 A2977 RMK AO2 SLP094 T10061056,M
VGT,2023-02-26 21:53,-115.1933,36.2111,667.00,50.00,26.10,39.14,M,3.00,0.00,29.95,1016.60,10.00,M,FEW,M,M,M,5500.00,M,M,M,M,M,M,M,M,M,M,50.00,KVGT 262153Z VRB03KT 10SM FEW055 10/M03 A2995 RMK AO2 SLP166 T01001033 $,M
LOL,2023-02-26 21:53,-118.5701,40.0684,1192.43,44.00,25.00,46.70,240.00,13.00,0.00,29.76,1008.60,10.00,M,FEW,M,M,M,7500.00,M,M,M,M,M,M,M,M,M,M,37.07,KLOL 262153Z AUTO 24013KT 10SM FEW075 07/M04 A2976 RMK AO2 SLP086 T00671039,M
TPH,2023-02-26 21:54,-117.0904,38.0505,1654.00,30.20,26.60,86.28,180.00,13.00,0.00,29.88,M,10.00,M,SCT,SCT,OVC,M,900.00,1500.00,2900.00,M,M,M,M,M,M,M,M,19.26,KTPH 262154Z AUTO 18013KT 10SM SCT009 SCT015 OVC029 M01/M03 A2988 RMK AO2,M
EKO,2023-02-26 21:54,-115.7860,40.8242,1367.00,35.60,30.20,80.51,240.00,14.97,M,29.71,M,10.00,M,SCT,BKN,OVC,M,2500.00,2998.00,4399.00,M,M,M,M,M,M,M,M,25.46,SPECI KEKO 262154Z 24015KT 10SM SCT025 BKN030 OVC044 02/M01 A2971 RMK AO2 SNE01 P0000 FIBI,M
BVU,2023-02-26 21:55,-114.8611,35.9475,671.00,50.00,26.60,39.95,220.00,7.00,0.00,29.98,M,10.00,15.00,FEW,M,M,M,5000.00,M,M,M,M,M,M,M,M,M,M,50.00,KBVU 262155Z AUTO 22007G15KT 10SM FEW050 10/M03 A2998 RMK AO2,M
CXP,2023-02-26 21:55,-119.7326,39.1923,1431.00,41.00,21.20,44.85,230.00,10.00,0.00,29.82,M,5.00,17.00,OVC,M,M,M,4700.00,M,M,M,HZ,M,M,M,M,M,M,34.25,KCXP 262155Z AUTO 23010G17KT 5SM HZ OVC047 05/M06 A2982 RMK AO2,M
RNO,2023-02-26 21:55,-119.7711,39.4839,1341.00,45.00,21.90,39.62,220.00,12.00,0.00,29.76,1007.10,10.00,18.00,SCT,SCT,BKN,BKN,5000.00,10000.00,15000.00,21000.00,M,M,M,M,34.00,170.00,2023-02-26 21:10,38.55,KRNO 262155Z 22012G18KT 10SM SCT050 SCT100 BKN150 BKN210 07/M06 A2976 RMK AO2 PK WND 17034/2110 SLP071 SCSL AND ACSL ALQDS MTN TOPS OBSCD DSNT SW T00721056,M
RTS,2023-02-26 21:55,-119.8764,39.6682,1539.00,37.40,21.20,51.61,270.00,17.00,0.00,29.78,M,10.00,24.00,CLR,M,M,M,M,M,M,M,M,M,M,M,M,M,M,27.15,KRTS 262155Z AUTO 27017G24KT 10SM CLR 03/M06 A2978 RMK AO2,M
MEV,2023-02-26 21:55,-119.7500,38.9963,1441.42,37.40,23.00,55.68,170.00,13.00,0.00,29.78,M,10.00,23.00,SCT,M,M,M,5000.00,M,M,M,M,M,M,M,M,M,M,28.49,KMEV 262155Z AUTO 17013G23KT 10SM SCT050 03/M05 A2978 RMK AO2,M
BAM,2023-02-26 21:55,-116.8743,40.5990,1382.36,41.00,32.00,70.08,240.00,15.00,0.00,29.76,M,10.00,26.00,SCT,OVC,M,M,3400.00,4800.00,M,M,M,M,M,M,M,M,M,32.45,KBAM 262155Z AUTO 24015G26KT 10SM SCT034 OVC048 05/00 A2976 RMK AO1,M
HTH,2023-02-26 21:55,-118.6315,38.5448,1282.89,46.40,28.40,49.24,180.00,7.00,0.00,29.80,M,10.00,M,CLR,M,M,M,M,M,M,M,M,M,M,M,M,M,M,42.33,KHTH 262155Z AUTO 18007KT 10SM CLR 08/M02 A2980 RMK A01,M
TMT,2023-02-26 21:55,-117.1971,39.4643,1749.34,35.40,24.80,64.98,250.00,13.00,0.00,29.79,M,10.00,M,SCT,BKN,OVC,M,4700.00,5000.00,7500.00,M,M,M,M,M,M,M,M,25.92,KTMT 262155Z AUTO 25013KT 10SM SCT047 BKN050 OVC075 02/M04 A2979 RMK AO2 T00191040,M
INS,2023-02-26 21:55,-115.6733,36.5872,955.00,44.60,26.60,48.96,0.00,0.00,0.00,29.95,1013.90,10.00,M,BKN,M,M,M,4300.00,M,M,M,M,M,M,M,M,M,M,44.60,KINS 262155Z AUTO 00000KT 10SM BKN043 07/M03 A2995 RMK AO2 SLP139 T00701030 $,M
LSV,2023-02-26 21:55,-115.0343,36.2362,570.00,51.80,28.20,39.92,160.00,7.00,0.00,29.95,1014.40,10.00,M,CLR,M,M,M,M,M,M,M,M,M,M,M,M,M,M,51.80,KLSV 262155Z AUTO 16007KT 10SM CLR 11/M02 A2995 RMK AO2 SLP144 T01101021 $,M
EKO,2023-02-26 21:56,-115.7860,40.8242,1367.00,36.00,30.00,78.60,230.00,14.00,T,29.71,1007.50,10.00,M,FEW,BKN,OVC,M,2100.00,3200.00,4400.00,M,M,M,M,M,M,M,M,26.32,KEKO 262156Z AUTO 23014KT 10SM FEW021 BKN032 OVC044 02/M01 A2971 RMK AO2 SNE01 SLP075 P0000 T00221011,M
NFL,2023-02-26 21:56,-118.7010,39.4166,1199.00,46.00,24.10,41.84,210.00,12.00,0.00,29.76,1005.80,10.00,M,SCT,BKN,BKN,M,5000.00,12000.00,18000.00,M,M,M,M,M,M,M,M,39.82,KNFL 262156Z 21012KT 10SM SCT050 BKN120 BKN180 08/M04 A2976 RMK AO2 SLP058 ACSL DSNT W-N T00781044 $,M
TPH,2023-02-26 21:56,-117.0904,38.0505,1654.00,30.00,26.10,85.21,190.00,14.00,0.00,29.88,1014.40,10.00,M,SCT,SCT,OVC,M,900.00,1500.00,2900.00,M,M,M,M,M,M,M,M,18.58,KTPH 262156Z AUTO 19014KT 10SM SCT009 SCT015 OVC029 M01/M03 A2988 RMK AO2 SLP144 T10111033,M
LAS,2023-02-26 21:56,-115.1634,36.0719,663.00,49.00,24.10,37.52,200.00,6.00,0.00,29.97,1015.00,10.00,M,FEW,M,M,M,5000.00,M,M,M,M,M,M,M,M,M,M,45.88,KLAS 262156Z 20006KT 10SM FEW050 09/M04 A2997 RMK AO2 SLP150 T00941044,M
WMC,2023-02-26 21:56,-117.8072,40.9019,1315.00,36.00,33.00,89.09,170.00,10.00,0.01,29.74,1008.10,10.00,M,FEW,BKN,OVC,M,2400.00,3000.00,6500.00,M,M,M,M,M,M,M,M,27.98,KWMC 262156Z AUTO 17010KT 10SM FEW024 BKN030 OVC065 02/01 A2974 RMK AO2 SNE15 SLP081 P0001 T00220006,M
HND,2023-02-26 21:56,-115.1344,35.9729,742.79,49.00,28.00,44.10,210.00,17.00,0.00,29.98,1017.40,10.00,21.00,CLR,M,M,M,M,M,M,M,M,M,M,M,M,M,M,42.22,KHND 262156Z 21017G21KT 10SM CLR 09/M02 A2998 RMK AO2 SLP174 T00941022,M
EKO,2023-02-26 22:03,-115.7860,40.8242,1367.00,35.00,30.00,81.46,220.00,15.00,T,29.71,M,3.00,M,SCT,BKN,OVC,M,1700.00,2400.00,4600.00,M,-SN,M,M,M,M,M,M,24.80,KEKO 262203Z AUTO 22015KT 3SM -SN SCT017 BKN024 OVC046 02/M01 A2971 RMK AO2 SNB2159 P0000 T00171011,M
LSV,2023-02-26 22:14,-115.0343,36.2362,570.00,51.80,28.40,40.25,200.00,13.00,0.00,29.95,1014.40,10.00,M,CLR,M,M,M,M,M,M,M,M,M,M,M,M,M,M,51.80,KLSV 262214Z AUTO 20013KT 10SM CLR 11/M02 A2995 RMK AO2 WSHFT 13 SLP144 $,M
BVU,2023-02-26 22:15,-114.8611,35.9475,671.00,50.00,26.60,39.95,220.00,12.00,0.00,29.98,M,10.00,M,CLR,M,M,M,M,M,M,M,M,M,M,M,M,M,M,50.00,KBVU 262215Z AUTO 22012KT 10SM CLR 10/M03 A2998 RMK AO2,M
CXP,2023-02-26 22:15,-119.7326,39.1923,1431.00,41.00,21.20,44.85,210.00,12.00,0.00,29.82,M,9.00,20.00,BKN,OVC,M,M,4700.00,5500.00,M,M,M,M,M,M,M,M,M,33.46,KCXP 262215Z AUTO 21012G20KT 9SM BKN047 OVC055 05/M06 A2982 RMK AO2,M
RTS,2023-02-26 22:15,-119.8764,39.6682,1539.00,37.40,21.20,51.61,260.00,12.00,0.00,29.77,M,10.00,26.00,CLR,M,M,M,M,M,M,M,M,M,M,M,M,M,M,28.87,KRTS 262215Z AUTO 26012G26KT 10SM CLR 03/M06 A2977 RMK AO2,M
MEV,2023-02-26 22:15,-119.7500,38.9963,1441.42,37.40,23.00,55.68,160.00,15.00,0.00,29.80,M,10.00,24.00,SCT,M,M,M,5500.00,M,M,M,M,M,M,M,M,M,M,27.78,KMEV 262215Z AUTO 16015G24KT 10SM SCT055 03/M05 A2980 RMK AO2,M
BAM,2023-02-26 22:15,-116.8743,40.5990,1382.36,41.00,32.00,70.08,240.00,12.00,0.00,29.76,M,10.00,16.00,SCT,BKN,OVC,M,3600.00,4800.00,7500.00,M,M,M,M,M,M,M,M,33.46,KBAM 262215Z AUTO 24012G16KT 10SM SCT036 BKN048 OVC075 05/00 A2976 RMK AO1,M
HTH,2023-02-26 22:15,-118.6315,38.5448,1282.89,44.60,26.60,48.96,220.00,6.00,0.00,29.80,M,10.00,M,FEW,SCT,M,M,7500.00,9500.00,M,M,M,M,M,M,M,M,M,40.71,KHTH 262215Z AUTO 22006KT 10SM FEW075 SCT095 07/M03 A2980 RMK A01,M
TMT,2023-02-26 22:15,-117.1971,39.4643,1749.34,34.70,24.80,66.81,240.00,13.00,0.00,29.79,M,10.00,19.00,BKN,OVC,M,M,4700.00,5000.00,M,M,M,M,M,M,M,M,M,25.03,KTMT 262215Z AUTO 24013G19KT 10SM BKN047 OVC050 02/M04 A2979 RMK AO2 T00151040,M
TPH,2023-02-26 22:31,-117.0904,38.0505,1654.00,30.00,27.00,88.44,180.00,15.00,0.00,29.88,M,10.00,M,FEW,SCT,OVC,M,900.00,1400.00,3000.00,M,M,M,M,M,M,M,M,18.19,KTPH 262231Z AUTO 18015KT 10SM FEW009 SCT014 OVC030 M01/M03 A2988 RMK AO2 T10111028,M
BVU,2023-02-26 22:35,-114.8611,35.9475,671.00,50.00,26.60,39.95,210.00,8.00,0.00,29.98,M,10.00,13.00,CLR,M,M,M,M,M,M,M,M,M,M,M,M,M,M,50.00,KBVU 262235Z AUTO 21008G13KT 170V240 10SM CLR 10/M03 A2998 RMK AO2,M
CXP,2023-02-26 22:35,-119.7326,39.1923,1431.00,41.00,23.00,48.39,210.00,11.00,0.00,29.82,M,10.00,18.00,BKN,OVC,M,M,4700.00,5500.00,M,M,M,M,M,M,M,M,M,33.84,KCXP 262235Z AUTO 21011G18KT 10SM BKN047 OVC055 05/M05 A2982 RMK AO2,M
EKO,2023-02-26 22:35,-115.7860,40.8242,1367.00,36.00,28.90,75.15,220.00,13.00,T,29.72,M,10.00,M,SCT,OVC,M,M,2300.00,3300.00,M,M,M,M,M,M,M,M,M,26.69,KEKO 262235Z AUTO 22013KT 10SM SCT023 OVC033 02/M02 A2972 RMK AO2 SNB2159E14 P0000 T00221017,M
RTS,2023-02-26 22:35,-119.8764,39.6682,1539.00,35.60,21.20,55.41,260.00,23.00,0.00,29.78,M,10.00,31.00,CLR,M,M,M,M,M,M,M,M,M,M,M,M,M,M,23.15,KRTS 262235Z AUTO 26023G31KT 10SM CLR 02/M06 A2978 RMK AO2,M
MEV,2023-02-26 22:35,-119.7500,38.9963,1441.42,37.40,24.80,60.04,170.00,14.00,0.00,29.80,M,10.00,M,FEW,BKN,OVC,M,4400.00,5000.00,6000.00,M,M,M,M,M,M,M,M,28.12,KMEV 262235Z AUTO 17014KT 160V220 10SM FEW044 BKN050 OVC060 03/M04 A2980 RMK AO2,M
BAM,2023-02-26 22:35,-116.8743,40.5990,1382.36,41.00,32.00,70.08,240.00,17.00,0.00,29.76,M,10.00,25.00,SCT,SCT,OVC,M,3000.00,3700.00,4600.00,M,M,M,M,M,M,M,M,31.87,KBAM 262235Z AUTO 24017G25KT 10SM SCT030 SCT037 OVC046 05/00 A2976 RMK AO1,M
HTH,2023-02-26 22:35,-118.6315,38.5448,1282.89,46.40,26.60,45.73,150.00,5.00,0.00,29.80,M,10.00,11.00,BKN,BKN,M,M,7500.00,9500.00,M,M,M,M,M,M,M,M,M,43.50,KHTH 262235Z AUTO 15005G11KT 10SM BKN075 BKN095 08/M03 A2980 RMK A01,M
TMT,2023-02-26 22:35,-117.1971,39.4643,1749.34,33.80,25.90,72.49,230.00,15.00,0.00,29.79,M,10.00,19.00,OVC,M,M,M,4700.00,M,M,M,M,M,M,M,M,M,M,23.11,KTMT 262235Z AUTO 23015G19KT 10SM OVC047 01/M03 A2979 RMK AO2 T00101034,M
TPH,2023-02-26 22:42,-117.0904,38.0505,1654.00,30.00,27.00,88.44,180.00,14.00,0.00,29.88,M,10.00,M,FEW,BKN,OVC,M,1000.00,1600.00,3000.00,M,M,M,M,M,M,M,M,18.58,KTPH 262242Z AUTO 18014KT 10SM FEW010 BKN016 OVC030 M01/M03 A2988 RMK AO2 T10111028,M
EKO,2023-02-26 22:45,-115.7860,40.8242,1367.00,35.00,28.00,75.06,240.00,19.00,T,29.72,M,1.50,23.00,FEW,OVC,M,M,1900.00,3100.00,M,M,-SN,M,M,M,M,M,M,23.54,KEKO 262245Z AUTO 24019G23KT 1 1/2SM -SN FEW019 OVC031 02/M02 A2972 RMK AO2 SNB2159E14B38 P0000 T00171022,M
P68,2023-02-26 22:53,-116.0056,39.6014,1993.00,34.00,26.10,72.52,150.00,8.00,0.00,29.76,1007.20,M,M,M,M,M,M,M,M,M,M,M,M,M,M,M,M,M,26.58,KP68 262253Z AUTO 15008KT 01/M03 A2976 RMK AO1 SLP072 T00111033,M
DRA,2023-02-26 22:53,-116.0278,36.6206,1009.00,45.00,28.90,53.00,220.00,13.00,0.00,29.94,1013.60,10.00,23.00,SCT,M,M,M,3400.00,M,M,M,M,M,M,M,M,M,M,38.22,KDRA 262253Z AUTO 22013G23KT 10SM SCT034 07/M02 A2994 RMK AO2 SLP136 T00721017,M
ELY,2023-02-26 22:53,-114.8453,39.2950,1909.00,30.00,21.00,68.81,170.00,12.00,0.00,29.79,1009.90,10.00,M,BKN,OVC,M,M,3000.00,4400.00,M,M,M,M,M,M,M,M,M,19.46,KELY 262253Z AUTO 17012KT 10SM BKN030 OVC044 M01/M06 A2979 RMK AO2 SLP099 T10111061,M
VGT,2023-02-26 22:53,-115.1933,36.2111,667.00,52.00,26.10,36.34,100.00,8.00,0.00,29.96,1016.50,10.00,M,CLR,M,M,M,M,M,M,M,M,M,M,M,M,M,M,52.00,KVGT 262253Z 10008KT 10SM CLR 11/M03 A2996 RMK AO2 SLP165 T01111033 $,M
LOL,2023-02-26 22:53,-118.5701,40.0684,1192.43,46.00,25.00,43.44,220.00,14.00,0.00,29.75,1008.10,10.00,19.00,BKN,OVC,M,M,5500.00,6500.00,M,M,M,M,M,M,M,M,M,39.21,KLOL 262253Z AUTO 22014G19KT 10SM BKN055 OVC065 08/M04 A2975 RMK AO2 SLP081 T00781039,M
EKO,2023-02-26 22:54,-115.7860,40.8242,1367.00,33.80,28.40,80.36,240.00,14.00,M,29.72,M,0.75,M,FEW,SCT,OVC,M,1099.00,1699.00,3100.00,M,-SN,M,M,M,M,M,M,23.48,SPECI KEKO 262254Z 24014KT 3/4SM -SN FEW011 SCT017 OVC031 01/M02 A2972 RMK AO2 SNB2159E14B38 P0001 FIBI,M
BVU,2023-02-26 22:55,-114.8611,35.9475,671.00,51.80,24.80,34.69,230.00,8.00,0.00,29.98,M,10.00,M,CLR,M,M,M,M,M,M,M,M,M,M,M,M,M,M,51.80,KBVU 262255Z AUTO 23008KT 10SM CLR 11/M04 A2998 RMK AO2,M
CXP,2023-02-26 22:55,-119.7326,39.1923,1431.00,39.20,21.20,48.10,200.00,7.00,0.00,29.82,M,10.00,13.00,BKN,BKN,M,M,4700.00,5500.00,M,M,M,M,M,M,M,M,M,33.56,KCXP 262255Z AUTO 20007G13KT 170V240 10SM BKN047 BKN055 04/M06 A2982 RMK AO2,M
RTS,2023-02-26 22:55,-119.8764,39.6682,1539.00,35.60,21.20,55.41,260.00,20.00,0.00,29.77,M,10.00,28.00,CLR,M,M,M,M,M,M,M,M,M,M,M,M,M,M,23.92,KRTS 262255Z AUTO 26020G28KT 10SM CLR 02/M06 A2977 RMK AO2,M
MEV,2023-02-26 22:55,-119.7500,38.9963,1441.42,37.40,23.00,55.68,170.00,13.00,0.00,29.79,M,10.00,M,SCT,BKN,M,M,4800.00,6000.00,M,M,M,M,M,M,M,M,M,28.49,KMEV 262255Z AUTO 17013KT 10SM SCT048 BKN060 03/M05 A2979 RMK AO2,M
BAM,2023-02-26 22:55,-116.8743,40.5990,1382.36,37.40,32.00,80.65,250.00,18.00,0.00,29.76,M,7.00,25.00,SCT,BKN,OVC,M,3000.00,3500.00,4200.00,M,M,M,M,M,M,M,M,26.86,KBAM 262255Z AUTO 25018G25KT 7SM SCT030 BKN035 OVC042 03/00 A2976 RMK AO1,M
HTH,2023-02-26 22:55,-118.6315,38.5448,1282.89,48.20,26.60,42.73,M,6.00,0.00,29.79,M,10.00,M,BKN,M,M,M,7000.00,M,M,M,M,M,M,M,M,M,M,45.04,KHTH 262255Z AUTO VRB06KT 10SM BKN070 09/M03 A2979 RMK A01,M
TMT,2023-02-26 22:55,-117.1971,39.4643,1749.34,33.40,26.20,74.59,240.00,13.00,0.00,29.78,M,10.00,M,BKN,OVC,M,M,4000.00,4600.00,M,M,M,M,M,M,M,M,M,23.36,KTMT 262255Z AUTO 24013KT 10SM BKN040 OVC046 01/M03 A2978 RMK AO2 T00081032,M
INS,2023-02-26 22:55,-115.6733,36.5872,955.00,44.40,26.40,48.93,60.00,6.00,0.00,29.95,1013.90,10.00,M,OVC,M,M,M,4300.00,M,M,M,M,M,M,M,M,M,M,40.46,KINS 262255Z AUTO 06006KT 10SM OVC043 07/M03 A2995 RMK AO2 SLP139 T00691031 $,M
LSV,2023-02-26 22:55,-115.0343,36.2362,570.00,52.20,27.30,37.91,160.00,5.00,0.00,29.95,1014.40,10.00,M,CLR,M,M,M,M,M,M,M,M,M,M,M,M,M,M,52.20,KLSV 262255Z AUTO 16005KT 10SM CLR 11/M03 A2995 RMK AO2 SLP144 T01121026 $,M
RNO,2023-02-26 22:55,-119.7711,39.4839,1341.00,42.00,21.90,44.27,280.00,20.00,0.00,29.76,1007.10,10.00,27.00,SCT,SCT,SCT,BKN,5000.00,10000.00,15000.00,21000.00,M,M,M,M,27.00,200.00,2023-02-26 22:28,32.55,KRNO 262255Z 28020G27KT 10SM SCT050 SCT100 SCT150 BKN210 06/M06 A2976 RMK AO2 PK WND 20027/2228 WSHFT 2212 SLP071 ACSL ALQDS MTN TOPS OBSCD DSNT SW T00561056,M
EKO,2023-02-26 22:56,-115.7860,40.8242,1367.00,34.00,28.90,81.37,240.00,12.00,0.01,29.72,1008.30,0.75,M,SCT,OVC,M,M,1500.00,3200.00,M,M,-SN,M,M,M,M,M,M,24.55,KEKO 262256Z AUTO 24012KT 3/4SM -SN SCT015 OVC032 01/M02 A2972 RMK AO2 SNB2159E14B38 SLP083 P0001 T00111017,M
WMC,2023-02-26 22:56,-117.8072,40.9019,1315.00,39.00,30.90,72.45,160.00,10.00,T,29.74,1007.80,10.00,M,FEW,BKN,OVC,M,3500.00,4300.00,7000.00,M,M,M,M,M,M,M,M,31.75,KWMC 262256Z AUTO 16010KT 10SM FEW035 BKN043 OVC070 04/M01 A2974 RMK AO2 SNB39E49 SLP078 P0000 T00391006,M
NFL,2023-02-26 22:56,-118.7010,39.4166,1199.00,48.00,24.10,38.80,230.00,14.00,0.00,29.76,1005.80,10.00,M,SCT,BKN,BKN,M,5000.00,12000.00,18000.00,M,M,M,M,M,M,M,M,41.79,KNFL 262256Z 23014KT 10SM SCT050 BKN120 BKN180 09/M04 A2976 RMK AO2 SLP058 ACSL DSNT W-N T00891044 $,M
LAS,2023-02-26 22:56,-115.1634,36.0719,663.00,51.00,25.00,35.89,180.00,11.00,0.00,29.97,1015.10,10.00,22.00,FEW,M,M,M,5000.00,M,M,M,M,M,M,M,M,M,M,51.10,KLAS 262256Z 18011G22KT 10SM FEW050 11/M04 A2997 RMK AO2 SLP151 T01061039,M
HND,2023-02-26 22:56,-115.1344,35.9729,742.79,49.00,27.00,42.32,200.00,17.00,0.00,29.98,1017.70,10.00,21.00,CLR,M,M,M,M,M,M,M,M,M,M,M,M,M,M,42.22,KHND 262256Z 20017G21KT 10SM CLR 09/M03 A2998 RMK AO2 SLP177 T00941028,M
EKO,2023-02-26 22:59,-115.7860,40.8242,1367.00,33.00,30.00,88.23,240.00,14.00,T,29.73,M,0.50,M,FEW,BKN,OVC,M,800.00,1300.00,3200.00,M,SN FG,M,M,M,M,M,M,22.58,KEKO 262259Z AUTO 24014KT 1/2SM SN FG FEW008 BKN013 OVC032 01/M01 A2973 RMK AO2 P0000 T00061011,M
TPH,2023-02-26 23:12,-117.0904,38.0505,1654.00,30.00,27.00,88.44,190.00,13.00,0.00,29.88,M,10.00,M,BKN,BKN,OVC,M,900.00,1700.00,3300.00,M,M,M,M,M,M,M,M,19.01,KTPH 262312Z AUTO 19013KT 10SM BKN009 BKN017 OVC033 M01/M03 A2988 RMK AO2 CIG 008V014 T10111028,M
BVU,2023-02-26 23:15,-114.8611,35.9475,671.00,51.80,26.60,37.38,200.00,7.00,0.00,29.99,M,10.00,13.00,CLR,M,M,M,M,M,M,M,M,M,M,M,M,M,M,51.80,KBVU 262315Z AUTO 20007G13KT 10SM CLR 11/M03 A2999 RMK AO2,M
CXP,2023-02-26 23:15,-119.7326,39.1923,1431.00,39.20,21.20,48.10,180.00,13.00,0.00,29.81,M,10.00,20.00,SCT,SCT,SCT,M,4700.00,5500.00,12000.00,M,M,M,M,M,M,M,M,30.79,KCXP 262315Z AUTO 18013G20KT 10SM SCT047 SCT055 SCT120 04/M06 A2981 RMK AO2,M
RTS,2023-02-26 23:15,-119.8764,39.6682,1539.00,37.40,21.20,51.61,260.00,20.00,0.00,29.77,M,10.00,26.00,CLR,M,M,M,M,M,M,M,M,M,M,M,M,M,M,26.31,KRTS 262315Z AUTO 26020G26KT 10SM CLR 03/M06 A2977 RMK AO2,M
MEV,2023-02-26 23:15,-119.7500,38.9963,1441.42,37.40,23.00,55.68,160.00,17.00,0.00,29.79,M,10.00,M,SCT,BKN,M,M,5000.00,5500.00,M,M,M,M,M,M,M,M,M,27.15,KMEV 262315Z AUTO 16017KT 10SM SCT050 BKN055 03/M05 A2979 RMK AO2,M
BAM,2023-02-26 23:15,-116.8743,40.5990,1382.36,37.40,33.80,86.69,230.00,17.00,0.00,29.77,M,10.00,21.00,SCT,BKN,OVC,M,2700.00,3400.00,4200.00,M,M,M,M,M,M,M,M,27.15,KBAM 262315Z AUTO 23017G21KT 10SM SCT027 BKN034 OVC042 03/01 A2977 RMK AO1,M
HTH,2023-02-26 23:15,-118.6315,38.5448,1282.89,48.20,24.80,39.66,130.00,5.00,0.00,29.78,M,10.00,10.00,SCT,M,M,M,7500.00,M,M,M,M,M,M,M,M,M,M,45.63,KHTH 262315Z AUTO 13005G10KT 10SM SCT075 09/M04 A2978 RMK A01,M
TMT,2023-02-26 23:15,-117.1971,39.4643,1749.34,33.80,26.10,73.10,230.00,10.00,0.00,29.78,M,10.00,M,SCT,BKN,OVC,M,4000.00,4700.00,7000.00,M,M,M,M,M,M,M,M,25.23,KTMT 262315Z AUTO 23010KT 10SM SCT040 BKN047 OVC070 01/M03 A2978 RMK AO2 T00101033,M
EKO,2023-02-26 23:17,-115.7860,40.8242,1367.00,33.00,30.90,91.51,230.00,12.00,0.02,29.73,M,1.00,22.00,BKN,OVC,M,M,1600.00,4200.00,M,M,-SN BR,M,M,M,M,M,M,23.40,KEKO 262317Z AUTO 23012G22KT 1SM -SN BR BKN016 OVC042 01/M01 A2973 RMK AO2 P0002 T00061006,M
EKO,2023-02-26 23:22,-115.7860,40.8242,1367.00,33.00,30.90,91.51,230.00,11.00,0.02,29.73,M,3.00,M,BKN,OVC,M,M,2100.00,4200.00,M,M,-SN BR,M,M,M,M,M,M,23.86,KEKO 262322Z AUTO 23011KT 3SM -SN BR BKN021 OVC042 01/M01 A2973 RMK AO2 P0002 T00061006,M
CXP,2023-02-26 23:30,-119.7326,39.1923,1431.00,39.20,21.20,48.10,190.00,14.00,0.00,29.81,M,10.00,20.00,FEW,FEW,FEW,M,4700.00,6000.00,7000.00,M,M,M,M,M,M,M,M,30.44,KCXP 262330Z AUTO 19014G20KT 160V220 10SM FEW047 FEW060 FEW070 04/M06 A2981 RMK AO2,M
BVU,2023-02-26 23:35,-114.8611,35.9475,671.00,51.80,26.60,37.38,210.00,5.00,0.00,29.98,M,10.00,M,CLR,M,M,M,M,M,M,M,M,M,M,M,M,M,M,51.80,KBVU 262335Z AUTO 21005KT 10SM CLR 11/M03 A2998 RMK AO2,M
RTS,2023-02-26 23:35,-119.8764,39.6682,1539.00,35.60,21.20,55.41,260.00,17.00,0.00,29.78,M,10.00,26.00,FEW,M,M,M,6000.00,M,M,M,M,M,M,M,M,M,M,24.79,KRTS 262335Z AUTO 26017G26KT 10SM FEW060 02/M06 A2978 RMK AO2,M
MEV,2023-02-26 23:35,-119.7500,38.9963,1441.42,37.40,23.00,55.68,160.00,21.00,0.00,29.79,M,10.00,34.00,BKN,BKN,M,M,5000.00,6000.00,M,M,M,M,M,M,M,M,M,26.06,KMEV 262335Z AUTO 16021G34KT 10SM BKN050 BKN060 03/M05 A2979 RMK AO2,M
BAM,2023-02-26 23:35,-116.8743,40.5990,1382.36,37.40,32.00,80.65,240.00,11.00,0.00,29.77,M,10.00,19.00,SCT,BKN,OVC,M,3800.00,7000.00,8000.00,M,M,M,M,M,M,M,M,29.29,KBAM 262335Z AUTO 24011G19KT 10SM SCT038 BKN070 OVC080 03/00 A2977 RMK AO1,M
HTH,2023-02-26 23:35,-118.6315,38.5448,1282.89,50.00,21.20,31.87,180.00,15.00,0.00,29.78,M,10.00,M,FEW,M,M,M,7000.00,M,M,M,M,M,M,M,M,M,M,50.00,KHTH 262335Z AUTO 18015KT 10SM FEW070 10/M06 A2978 RMK A01,M
TMT,2023-02-26 23:35,-117.1971,39.4643,1749.34,34.30,25.90,71.06,230.00,10.00,0.00,29.78,M,10.00,M,SCT,OVC,M,M,6000.00,8000.00,M,M,M,M,M,M,M,M,M,25.85,KTMT 262335Z AUTO 23010KT 10SM SCT060 OVC080 01/M03 A2978 RMK AO2 T00131034,M
TPH,2023-02-26 23:35,-117.0904,38.0505,1654.00,30.00,26.10,85.21,200.00,14.00,0.00,29.89,M,10.00,M,OVC,M,M,M,900.00,M,M,M,M,M,M,M,M,M,M,18.58,KTPH 262335Z AUTO 20014KT 10SM OVC009 M01/M03 A2989 RMK AO2 T10111033,M
TPH,2023-02-26 23:35,-117.0904,38.0505,1654.00,M,M,M,200.00,14.00,M,29.89,M,10.00,M,OVC,M,M,M,900.00,M,M,M,M,M,M,M,M,M,M,M,KTPH 262335Z AUTO 20014KT 10SM OVC009 M01/M03 A2989 RMK T10101030 MADISHF,M
EKO,2023-02-26 23:40,-115.7860,40.8242,1367.00,33.00,30.90,91.51,220.00,10.00,0.02,29.74,M,2.50,M,FEW,BKN,OVC,M,2500.00,3200.00,4200.00,M,-SN BR,M,M,M,M,M,M,24.35,KEKO 262340Z AUTO 22010KT 2 1/2SM -SN BR FEW025 BKN032 OVC042 01/M01 A2974 RMK AO2 P0002 T00061006,M
EKO,2023-02-26 23:44,-115.7860,40.8242,1367.00,33.00,30.90,91.51,220.00,10.00,0.02,29.74,M,1.50,M,FEW,BKN,OVC,M,800.00,3200.00,4000.00,M,-SN BR,M,M,M,M,M,M,24.35,KEKO 262344Z AUTO 22010KT 1 1/2SM -SN BR FEW008 BKN032 OVC040 01/M01 A2974 RMK AO2 P0002 T00061006,M
WMC,2023-02-26 23:51,-117.8072,40.9019,1315.00,35.60,30.20,80.51,240.00,8.00,T,29.77,M,4.00,18.00,FEW,BKN,OVC,M,1900.00,2600.00,4400.00,M,-SN BR,M,M,M,M,M,M,28.55,KWMC 262351Z AUTO 24008G18KT 4SM -SN BR FEW019 BKN026 OVC044 02/M01 A2977 RMK AO2 SNB39 P0000,M
LSV,2023-02-26 23:52,-115.0343,36.2362,570.00,51.80,28.40,40.25,180.00,13.00,0.00,29.96,1014.70,10.00,M,CLR,M,M,M,M,M,M,M,M,M,M,M,M,M,M,51.80,KLSV 262352Z AUTO 18013KT 10SM CLR 11/M02 A2996 RMK AO2 WSHFT 44 SLP147 $,M
P68,2023-02-26 23:53,-116.0056,39.6014,1993.00,32.00,27.00,81.55,160.00,9.00,0.00,29.76,1007.60,M,M,M,M,M,M,M,M,M,M,M,M,M,M,M,M,M,23.51,KP68 262353Z AUTO 16009KT 00/M03 A2976 RMK AO1 SLP076 T00001028 10028 20000 53003,M
DRA,2023-02-26 23:53,-116.0278,36.6206,1009.00,45.00,26.10,47.23,240.00,12.00,0.00,29.93,1013.10,10.00,M,CLR,M,M,M,M,M,M,M,M,M,M,M,M,M,M,38.55,KDRA 262353Z AUTO 24012KT 10SM CLR 07/M03 A2993 RMK AO2 SLP131 T00721033 10072 20033 58006,M
ELY,2023-02-26 23:53,-114.8453,39.2950,1909.00,28.90,21.00,71.96,170.00,16.00,0.00,29.79,1010.20,10.00,24.00,SCT,BKN,M,M,4800.00,6000.00,M,M,M,M,M,M,M,M,M,16.38,KELY 262353Z AUTO 17016G24KT 10SM SCT048 BKN060 M02/M06 A2979 RMK AO2 SLP102 T10171061 10011 21022 53007,M
VGT,2023-02-26 23:53,-115.1933,36.2111,667.00,52.00,24.10,33.44,130.00,5.00,0.00,29.96,1016.90,10.00,M,CLR,M,M,M,M,M,M,M,M,M,M,M,M,M,M,52.00,KVGT 262353Z 13005KT 10SM CLR 11/M04 A2996 RMK AO2 SLP169 T01111044 10117 20078 53001 $,M
LOL,2023-02-26 23:53,-118.5701,40.0684,1192.43,44.00,24.10,44.98,230.00,12.00,0.00,29.77,1009.00,10.00,M,SCT,SCT,OVC,M,3900.00,4700.00,7000.00,M,M,M,M,M,M,M,M,37.40,KLOL 262353Z AUTO 23012KT 10SM SCT039 SCT047 OVC070 07/M04 A2977 RMK AO2 SLP090 60000 T00671044 10078 20033 53002,M
EKO,2023-02-26 23:54,-115.7860,40.8242,1367.00,33.80,30.20,86.49,220.00,11.00,0.02,29.74,M,1.00,M,FEW,BKN,OVC,M,600.00,2200.00,3100.00,M,-SN BR,M,M,M,M,M,M,24.74,KEKO 262354Z AUTO 22011KT 1SM -SN BR FEW006 BKN022 OVC031 01/M01 A2974 RMK AO2 P0002,M
BVU,2023-02-26 23:55,-114.8611,35.9475,671.00,51.80,26.60,37.38,200.00,9.00,0.00,29.99,M,10.00,M,CLR,M,M,M,M,M,M,M,M,M,M,M,M,M,M,51.80,KBVU 262355Z AUTO 20009KT 10SM CLR 11/M03 A2999 RMK AO2,M
CXP,2023-02-26 23:55,-119.7326,39.1923,1431.00,39.20,23.00,51.89,230.00,11.00,0.00,29.83,M,10.00,18.00,FEW,FEW,SCT,M,4600.00,6500.00,9000.00,M,M,M,M,M,M,M,M,31.57,KCXP 262355Z AUTO 23011G18KT 10SM FEW046 FEW065 SCT090 04/M05 A2983 RMK AO2,M
RTS,2023-02-26 23:55,-119.8764,39.6682,1539.00,33.80,23.00,64.23,270.00,16.00,0.00,29.79,M,10.00,23.00,CLR,M,M,M,M,M,M,M,M,M,M,M,M,M,M,22.76,KRTS 262355Z AUTO 27016G23KT 10SM CLR 01/M05 A2979 RMK AO2,M
MEV,2023-02-26 23:55,-119.7500,38.9963,1441.42,35.60,24.80,64.46,160.00,17.00,0.00,29.80,M,10.00,24.00,FEW,FEW,M,M,5000.00,5500.00,M,M,M,M,M,M,M,M,M,24.79,KMEV 262355Z AUTO 16017G24KT 10SM FEW050 FEW055 02/M04 A2980 RMK AO2,M
BAM,2023-02-26 23:55,-116.8743,40.5990,1382.36,37.40,32.00,80.65,220.00,9.00,0.00,29.76,M,10.00,M,SCT,BKN,OVC,M,6000.00,7000.00,10000.00,M,M,M,M,M,M,M,M,30.23,KBAM 262355Z AUTO 22009KT 10SM SCT060 BKN070 OVC100 03/00 A2976 RMK AO1,M
HTH,2023-02-26 23:55,-118.6315,38.5448,1282.89,48.20,19.40,31.57,220.00,11.00,0.00,29.79,M,10.00,20.00,CLR,M,M,M,M,M,M,M,M,M,M,M,M,M,M,42.94,KHTH 262355Z AUTO 22011G20KT 10SM CLR 09/M07 A2979 RMK A01,M
TMT,2023-02-26 23:55,-117.1971,39.4643,1749.34,34.20,26.40,72.84,220.00,12.00,0.00,29.80,M,10.00,M,BKN,BKN,M,M,7000.00,8000.00,M,M,M,M,M,M,M,M,M,24.80,KTMT 262355Z AUTO 22012KT 10SM BKN070 BKN080 01/M03 A2980 RMK AO2 T00121031 10026 20005,M
INS,2023-02-26 23:55,-115.6733,36.5872,955.00,44.00,28.00,52.86,60.00,8.00,0.00,29.95,1013.90,10.00,M,OVC,M,M,M,4700.00,M,M,M,M,M,M,M,M,M,M,39.02,KINS 262355Z AUTO 06008KT 10SM OVC047 07/M02 A2995 RMK AO2 SLP139 T00671022 10077 20041 51003 $,M
LSV,2023-02-26 23:55,-115.0343,36.2362,570.00,52.30,28.80,40.17,160.00,12.00,0.00,29.96,1014.70,10.00,M,CLR,M,M,M,M,M,M,M,M,M,M,M,M,M,M,52.30,KLSV 262355Z AUTO 16012KT 10SM CLR 11/M02 A2996 RMK AO2 SLP147 T01131018 10118 20088 55001 $,M
RNO,2023-02-26 23:55,-119.7711,39.4839,1341.00,42.00,21.00,42.62,M,5.00,0.00,29.78,1008.30,10.00,16.00,SCT,SCT,BKN,BKN,4500.00,9000.00,14000.00,19000.00,M,M,M,M,27.00,280.00,2023-02-26 23:11,38.39,KRNO 262355Z VRB05G16KT 10SM SCT045 SCT090 BKN140 BKN190 06/M06 A2978 RMK AO2 PK WND 28027/2311 SLP083 ACSL ALQDS MTN TOPS OBSCD DSNT S THRU W SH DSNT S THRU W T00561061 10078 20039 53008,M
EKO,2023-02-26 23:56,-115.7860,40.8242,1367.00,33.00,30.90,91.51,220.00,10.00,0.03,29.74,1008.70,1.00,M,FEW,BKN,OVC,M,700.00,1900.00,3100.00,M,-SN BR,M,M,M,M,M,M,24.35,KEKO 262356Z AUTO 22010KT 1SM -SN BR FEW007 BKN019 OVC031 01/M01 A2974 RMK AO2 SLP087 P0003 60005 T00061006 10028 20006 51008,M
NFL,2023-02-26 23:56,-118.7010,39.4166,1199.00,46.00,21.90,38.15,260.00,14.00,0.00,29.78,1006.20,10.00,M,BKN,M,M,M,7000.00,M,M,M,M,M,M,M,M,M,M,39.21,KNFL 262356Z AUTO 26014KT 10SM BKN070 08/M06 A2978 RMK AO2 SLP062 T00781056 10094 20056 55001 $,M
LAS,2023-02-26 23:56,-115.1634,36.0719,663.00,50.00,26.10,39.14,190.00,13.00,0.00,29.98,1015.30,10.00,22.00,FEW,M,M,M,5000.00,M,M,M,M,M,M,M,M,M,M,50.00,KLAS 262356Z 19013G22KT 10SM FEW050 10/M03 A2998 RMK AO2 SLP153 T01001033 10106 20067 53001,M
WMC,2023-02-26 23:56,-117.8072,40.9019,1315.00,35.00,30.90,84.49,240.00,5.00,T,29.77,1008.70,6.00,16.00,FEW,BKN,OVC,M,1900.00,3000.00,4200.00,M,-SN BR,M,M,M,M,M,M,30.08,KWMC 262356Z AUTO 24005G16KT 6SM -SN BR FEW019 BKN030 OVC042 02/M01 A2977 RMK AO2 SNB39 SLP087 P0000 60003 T00171006 10044 20011 53007,M
HND,2023-02-26 23:56,-115.1344,35.9729,742.79,49.00,25.00,38.95,200.00,11.00,0.00,30.00,1018.20,10.00,M,CLR,M,M,M,M,M,M,M,M,M,M,M,M,M,M,43.82,KHND 262356Z 20011KT 10SM CLR 09/M04 A3000 RMK AO2 SLP182 T00941039 10100 20061 53003,M
