station,valid,lon,lat,elevation,tmpf,dwpf,relh,drct,sknt,p01i,alti,mslp,vsby,gust,skyc1,skyc2,skyc3,skyc4,skyl1,skyl2,skyl3,skyl4,wxcodes,ice_accretion_1hr,ice_accretion_3hr,ice_accretion_6hr,peak_wind_gust,peak_wind_drct,peak_wind_time,feel,metar,snowdepth
10U,2023-09-14 00:00,-116.1876,41.9532,1637.00,73.40,35.60,25.13,330.00,10.00,0.00,30.10,M,10.00,15.00,CLR,M,M,M,M,M,M,M,M,M,M,M,M,M,M,73.40,K10U 140000Z AUTO 33010G15KT 10SM CLR 23/02 A3010 RMK AO2,M
05U,2023-09-14 00:10,-116.0051,39.6042,1811.23,69.80,39.20,32.72,360.00,12.00,0.00,30.11,M,10.00,M,FEW,M,M,M,10000.00,M,M,M,M,M,M,M,M,M,M,69.80,K05U 140010Z AUTO 36012KT 10SM FEW100 21/04 A3011 RMK A01,M
BVU,2023-09-14 00:15,-114.8611,35.9475,671.00,91.40,50.00,24.37,50.00,4.00,0.00,29.80,M,10.00,M,CLR,M,M,M,M,M,M,M,M,M,M,M,M,M,M,88.36,KBVU 140015Z AUTO 05004KT 10SM CLR 33/10 A2980 RMK AO2,M
CXP,2023-09-14 00:15,-119.7326,39.1923,1431.00,82.40,37.40,20.04,310.00,8.00,0.00,30.04,M,10.00,M,OVC,M,M,M,10000.00,M,M,M,M,M,M,M,M,M,M,80.14,KCXP 140015Z AUTO 31008KT 10SM OVC100 28/03 A3004 RMK AO2,M
RTS,2023-09-14 00:15,-119.8764,39.6682,1539.00,78.80,33.80,19.55,70.00,10.00,0.00,30.08,M,10.00,M,CLR,M,M,M,M,M,M,M,M,M,M,M,M,M,M,78.80,KRTS 140015Z AUTO 07010KT 10SM CLR 26/01 A3008 RMK AO2,M
MEV,2023-09-14 00:15,-119.7500,38.9963,1441.42,82.40,39.20,21.51,280.00,9.00,0.00,30.03,M,10.00,M,SCT,M,M,M,11000.00,M,M,M,M,M,M,M,M,M,M,80.21,KMEV 140015Z AUTO 28009KT 10SM SCT110 28/04 A3003 RMK AO2,M
BAM,2023-09-14 00:15,-116.8743,40.5990,1382.36,80.60,42.80,26.22,330.00,8.00,0.00,30.04,M,10.00,M,CLR,M,M,M,M,M,M,M,M,M,M,M,M,M,M,79.30,KBAM 140015Z AUTO 33008KT 10SM CLR 27/06 A3004 RMK AO1,M
HTH,2023-09-14 00:15,-118.6315,38.5448,1282.89,80.60,37.40,21.25,330.00,13.00,0.00,29.99,M,10.00,M,FEW,M,M,M,12000.00,M,M,M,M,M,M,M,M,M,M,79.02,KHTH 140015Z AUTO 33013KT 10SM FEW120 27/03 A2999 RMK A01,M
TMT,2023-09-14 00:15,-117.1971,39.4643,1749.34,70.00,42.30,36.64,220.00,9.00,0.00,30.11,M,M,M,SCT,M,M,M,12000.00,M,M,M,M,M,M,M,M,M,M,70.00,KTMT 140015Z AUTO 22009KT SCT120 21/06 A3011 RMK AO2 T02120057 PWINO,M
10U,2023-09-14 00:20,-116.1876,41.9532,1637.00,75.20,37.40,25.40,340.00,10.00,0.00,30.10,M,10.00,19.00,FEW,FEW,M,M,9500.00,12000.00,M,M,M,M,M,M,M,M,M,75.20,K10U 140020Z AUTO 34010G19KT 10SM FEW095 FEW120 24/03 A3010 RMK AO2,M
05U,2023-09-14 00:30,-116.0051,39.6042,1811.23,69.80,41.00,35.09,350.00,12.00,0.00,30.11,M,10.00,M,CLR,M,M,M,M,M,M,M,M,M,M,M,M,M,M,69.80,K05U 140030Z AUTO 35012KT 10SM CLR 21/05 A3011 RMK A01,M
BAM,2023-09-14 00:35,-116.8743,40.5990,1382.36,80.60,41.00,24.46,330.00,9.00,0.00,30.04,M,10.00,M,CLR,M,M,M,M,M,M,M,M,M,M,M,M,M,M,79.20,KBAM 140035Z AUTO 33009KT 10SM CLR 27/05 A3004 RMK AO1,M
HTH,2023-09-14 00:35,-118.6315,38.5448,1282.89,80.60,37.40,21.25,340.00,13.00,0.00,29.99,M,10.00,M,FEW,M,M,M,12000.00,M,M,M,M,M,M,M,M,M,M,79.02,KHTH 140035Z AUTO 34013KT 10SM FEW120 27/03 A2999 RMK A01,M
10U,2023-09-14 00:35,-116.1876,41.9532,1637.00,73.40,35.60,25.13,340.00,10.00,0.00,30.10,M,10.00,M,FEW,SCT,M,M,9500.00,12000.00,M,M,M,M,M,M,M,M,M,73.40,K10U 140035Z AUTO 34010KT 10SM FEW095 SCT120 23/02 A3010 RMK AO2,M
TMT,2023-09-14 00:35,-117.1971,39.4643,1749.34,71.20,42.00,34.77,230.00,9.00,0.00,30.11,M,M,M,SCT,M,M,M,9500.00,M,M,M,M,M,M,M,M,M,M,71.20,KTMT 140035Z AUTO 23009KT SCT095 22/06 A3011 RMK AO2 T02180055 PWINO,M
BVU,2023-09-14 00:35,-114.8611,35.9475,671.00,91.40,48.20,22.78,60.00,4.00,0.00,29.80,M,10.00,M,CLR,M,M,M,M,M,M,M,M,M,M,M,M,M,M,88.09,KBVU 140035Z AUTO 06004KT 10SM CLR 33/09 A2980 RMK AO2 LTG DSNT N-SE,M
CXP,2023-09-14 00:35,-119.7326,39.1923,1431.00,82.40,37.40,20.04,330.00,11.00,0.00,30.04,M,10.00,M,BKN,OVC,M,M,10000.00,12000.00,M,M,M,M,M,M,M,M,M,80.14,KCXP 140035Z AUTO 33011KT 10SM BKN100 OVC120 28/03 A3004 RMK AO2,M
RTS,2023-09-14 00:35,-119.8764,39.6682,1539.00,77.00,33.80,20.74,60.00,7.00,0.00,30.08,M,10.00,12.00,CLR,M,M,M,M,M,M,M,M,M,M,M,M,M,M,77.00,KRTS 140035Z AUTO 06007G12KT 10SM CLR 25/01 A3008 RMK AO2,M
MEV,2023-09-14 00:35,-119.7500,38.9963,1441.42,80.60,39.20,22.81,260.00,12.00,0.00,30.02,M,10.00,M,FEW,M,M,M,12000.00,M,M,M,M,M,M,M,M,M,M,79.10,KMEV 140035Z AUTO 26012KT 10SM FEW120 27/04 A3002 RMK AO2,M
05U,2023-09-14 00:50,-116.0051,39.6042,1811.23,69.80,39.20,32.72,M,6.00,0.00,30.12,M,10.00,12.00,SCT,M,M,M,10000.00,M,M,M,M,M,M,M,M,M,M,69.80,K05U 140050Z AUTO VRB06G12KT 10SM SCT100 21/04 A3012 RMK A01,M
CXP,2023-09-14 00:50,-119.7326,39.1923,1431.00,82.40,35.60,18.67,310.00,12.00,0.00,30.04,M,10.00,M,BKN,BKN,M,M,10000.00,12000.00,M,M,M,M,M,M,M,M,M,80.08,KCXP 140050Z AUTO 31012KT 10SM BKN100 BKN120 28/02 A3004 RMK AO2,M
P68,2023-09-14 00:53,-116.0056,39.6014,1993.00,70.00,39.00,32.24,M,5.00,0.00,30.09,1012.50,M,M,M,M,M,M,M,M,M,M,M,M,M,M,M,M,M,70.00,KP68 140053Z AUTO VRB05KT 21/04 A3009 RMK AO1 SLP125 T02110039,M
DRA,2023-09-14 00:53,-116.0278,36.6206,1009.00,89.00,44.00,20.96,260.00,8.00,0.00,29.87,1006.90,10.00,M,CLR,M,M,M,M,M,M,M,M,M,M,M,M,M,M,85.50,KDRA 140053Z AUTO 26008KT 10SM CLR 32/07 A2987 RMK AO2 SLP069 T03170067,M
ELY,2023-09-14 00:53,-114.8453,39.2950,1909.00,68.00,44.00,41.88,240.00,5.00,T,30.11,1012.60,10.00,M,FEW,BKN,M,M,9000.00,11000.00,M,M,M,M,M,M,M,M,M,68.00,KELY 140053Z AUTO 24005KT 10SM FEW090 BKN110 20/07 A3011 RMK AO2 LTG DSNT NW RAB30E44 SLP126 P0000 T02000067,M
VGT,2023-09-14 00:53,-115.1933,36.2111,667.00,92.00,49.00,23.04,220.00,6.00,0.00,29.81,1008.30,10.00,M,CLR,M,M,M,M,M,M,M,M,M,M,M,M,M,M,88.77,KVGT 140053Z 22006KT 10SM CLR 33/09 A2981 RMK AO2 SLP083 T03330094,M
LOL,2023-09-14 00:53,-118.5701,40.0684,1192.43,82.00,37.00,19.99,50.00,12.00,0.00,29.98,1012.30,10.00,M,CLR,M,M,M,M,M,M,M,M,M,M,M,M,M,M,79.86,KLOL 140053Z AUTO 05012KT 10SM CLR 28/03 A2998 RMK AO2 SLP123 T02780028,M
BVU,2023-09-14 00:55,-114.8611,35.9475,671.00,91.40,48.20,22.78,0.00,0.00,0.00,29.81,M,10.00,M,CLR,M,M,M,M,M,M,M,M,M,M,M,M,M,M,88.09,KBVU 140055Z AUTO 00000KT 10SM CLR 33/09 A2981 RMK AO2,M
RNO,2023-09-14 00:55,-119.7711,39.4839,1341.00,83.00,35.00,17.88,40.00,7.00,0.00,30.02,1011.50,10.00,M,FEW,FEW,M,M,11000.00,25000.00,M,M,M,M,M,M,M,M,M,80.47,KRNO 140055Z 04007KT 10SM FEW110 FEW250 28/02 A3002 RMK AO2 SLP115 T02830017,M
RTS,2023-09-14 00:55,-119.8764,39.6682,1539.00,77.00,33.80,20.74,70.00,9.00,0.00,30.08,M,10.00,15.00,CLR,M,M,M,M,M,M,M,M,M,M,M,M,M,M,77.00,KRTS 140055Z AUTO 07009G15KT 10SM CLR 25/01 A3008 RMK AO2,M
MEV,2023-09-14 00:55,-119.7500,38.9963,1441.42,78.80,44.60,29.79,310.00,6.00,0.00,30.03,M,10.00,M,BKN,M,M,M,10000.00,M,M,M,M,M,M,M,M,M,M,78.80,KMEV 140055Z AUTO 31006KT 10SM BKN100 26/07 A3003 RMK AO2,M
BAM,2023-09-14 00:55,-116.8743,40.5990,1382.36,78.80,41.00,25.95,330.00,7.00,0.00,30.04,M,10.00,M,CLR,M,M,M,M,M,M,M,M,M,M,M,M,M,M,78.80,KBAM 140055Z AUTO 33007KT 10SM CLR 26/05 A3004 RMK AO1,M
HTH,2023-09-14 00:55,-118.6315,38.5448,1282.89,78.80,37.40,22.54,320.00,16.00,0.00,30.00,M,10.00,M,FEW,FEW,M,M,5500.00,11000.00,M,M,M,M,M,M,M,M,M,78.80,KHTH 140055Z AUTO 32016KT 10SM FEW055 FEW110 26/03 A3000 RMK A01,M
10U,2023-09-14 00:55,-116.1876,41.9532,1637.00,73.40,35.60,25.13,320.00,12.00,0.00,30.10,M,10.00,19.00,FEW,M,M,M,9000.00,M,M,M,M,M,M,M,M,M,M,73.40,K10U 140055Z AUTO 32012G19KT 10SM FEW090 23/02 A3010 RMK AO2,M
TMT,2023-09-14 00:55,-117.1971,39.4643,1749.34,70.00,42.30,36.64,210.00,9.00,0.00,30.11,M,M,M,SCT,M,M,M,9500.00,M,M,M,M,M,M,M,M,M,M,70.00,KTMT 140055Z AUTO 21009KT SCT095 21/06 A3011 RMK AO2 T02110057 PWINO,M
INS,2023-09-14 00:55,-115.6733,36.5872,955.00,87.40,44.00,22.05,130.00,10.00,0.00,29.86,1006.60,10.00,M,BKN,M,M,M,10000.00,M,M,M,M,M,M,M,M,M,M,84.15,KINS 140055Z AUTO 13010KT 10SM BKN100 31/07 A2986 RMK AO2 SLP066 T03080066 $,M
LSV,2023-09-14 00:55,-115.0343,36.2362,570.00,92.00,51.30,25.10,160.00,4.00,0.00,29.76,1005.30,10.00,M,CLR,M,M,M,M,M,M,M,M,M,M,M,M,M,M,89.17,KLSV 140055Z AUTO 16004KT 10SM CLR 33/11 A2976 RMK AO2 SLP053 T03340107 $,M
EKO,2023-09-14 00:56,-115.7860,40.8242,1367.00,78.00,37.00,22.79,340.00,13.00,0.00,30.04,1013.50,10.00,M,CLR,M,M,M,M,M,M,M,M,M,M,M,M,M,M,78.00,KEKO 140056Z AUTO 34013KT 10SM CLR 26/03 A3004 RMK AO2 SLP135 T02560028,M
WMC,2023-09-14 00:56,-117.8072,40.9019,1315.00,80.00,36.00,20.51,360.00,10.00,0.00,30.03,1013.40,10.00,M,CLR,M,M,M,M,M,M,M,M,M,M,M,M,M,M,78.66,KWMC 140056Z AUTO 36010KT 10SM CLR 27/02 A3003 RMK AO2 SLP134 T02670022,M
HND,2023-09-14 00:56,-115.1344,35.9729,742.79,88.00,53.00,30.30,230.00,7.00,0.00,29.86,1009.90,10.00,M,CLR,M,M,M,M,M,M,M,M,M,M,M,M,M,M,85.78,KHND 140056Z 23007KT 10SM CLR 31/12 A2986 RMK AO2 SLP099 T03110117,M
LAS,2023-09-14 00:56,-115.1634,36.0719,663.00,90.00,52.00,27.42,180.00,3.00,0.00,29.82,1007.00,10.00,M,SCT,SCT,BKN,M,10000.00,18000.00,22000.00,M,M,M,M,M,M,M,M,87.40,KLAS 140056Z 18003KT 10SM SCT100 SCT180 BKN220 32/11 A2982 RMK AO2 SLP070 CB DSNT NE AND S-W T03220111,M
NFL,2023-09-14 00:56,-118.7010,39.4166,1199.00,85.00,38.00,18.87,360.00,10.00,0.00,29.97,1012.00,10.00,M,FEW,SCT,M,M,7000.00,10000.00,M,M,M,M,M,M,M,M,M,81.99,KNFL 140056Z 36010KT 10SM FEW070 SCT100 29/03 A2997 RMK AO2 SLP120 T02940033,M
05U,2023-09-14 01:10,-116.0051,39.6042,1811.23,71.60,37.40,28.68,60.00,12.00,0.00,30.12,M,10.00,18.00,BKN,M,M,M,10000.00,M,M,M,M,M,M,M,M,M,M,71.60,K05U 140110Z AUTO 06012G18KT 10SM BKN100 22/03 A3012 RMK A01,M
TMT,2023-09-14 01:15,-117.1971,39.4643,1749.34,66.70,44.60,44.82,250.00,5.00,0.00,30.12,M,M,M,CLR,M,M,M,M,M,M,M,M,M,M,M,M,M,M,66.70,KTMT 140115Z AUTO 25005KT CLR 19/07 A3012 RMK AO2 T01930070 PWINO,M
BVU,2023-09-14 01:15,-114.8611,35.9475,671.00,91.40,48.20,22.78,0.00,0.00,0.00,29.81,M,10.00,M,CLR,M,M,M,M,M,M,M,M,M,M,M,M,M,M,88.09,KBVU 140115Z AUTO 00000KT 10SM CLR 33/09 A2981 RMK AO2,M
CXP,2023-09-14 01:15,-119.7326,39.1923,1431.00,80.60,37.40,21.25,320.00,11.00,0.00,30.05,M,10.00,M,SCT,M,M,M,10000.00,M,M,M,M,M,M,M,M,M,M,79.02,KCXP 140115Z AUTO 32011KT 10SM SCT100 27/03 A3005 RMK AO2,M
RTS,2023-09-14 01:15,-119.8764,39.6682,1539.00,77.00,33.80,20.74,80.00,9.00,0.00,30.08,M,10.00,M,CLR,M,M,M,M,M,M,M,M,M,M,M,M,M,M,77.00,KRTS 140115Z AUTO 08009KT 10SM CLR 25/01 A3008 RMK AO2,M
MEV,2023-09-14 01:15,-119.7500,38.9963,1441.42,78.80,42.80,27.81,280.00,5.00,0.00,30.04,M,10.00,M,BKN,M,M,M,10000.00,M,M,M,M,M,M,M,M,M,M,78.80,KMEV 140115Z AUTO 28005KT 10SM BKN100 26/06 A3004 RMK AO2,M
BAM,2023-09-14 01:15,-116.8743,40.5990,1382.36,78.80,44.60,29.79,340.00,6.00,0.00,30.04,M,10.00,M,CLR,M,M,M,M,M,M,M,M,M,M,M,M,M,M,78.80,KBAM 140115Z AUTO 34006KT 10SM CLR 26/07 A3004 RMK AO1,M
HTH,2023-09-14 01:15,-118.6315,38.5448,1282.89,78.80,39.20,24.19,350.00,6.00,0.00,30.01,M,10.00,18.00,CLR,M,M,M,M,M,M,M,M,M,M,M,M,M,M,78.80,KHTH 140115Z AUTO 35006G18KT 10SM CLR 26/04 A3001 RMK A01,M
10U,2023-09-14 01:15,-116.1876,41.9532,1637.00,71.60,35.60,26.71,310.00,11.00,0.00,30.11,M,10.00,M,CLR,M,M,M,M,M,M,M,M,M,M,M,M,M,M,71.60,K10U 140115Z AUTO 31011KT 10SM CLR 22/02 A3011 RMK AO2,M
05U,2023-09-14 01:30,-116.0051,39.6042,1811.23,71.60,32.00,23.13,160.00,7.00,0.00,30.13,M,10.00,14.00,BKN,BKN,M,M,10000.00,12000.00,M,M,M,M,M,M,M,M,M,71.60,K05U 140130Z AUTO 16007G14KT 10SM BKN100 BKN120 22/M00 A3013 RMK A01,M
BVU,2023-09-14 01:35,-114.8611,35.9475,671.00,89.60,51.80,27.56,0.00,0.00,0.00,29.81,M,10.00,M,CLR,M,M,M,M,M,M,M,M,M,M,M,M,M,M,87.00,KBVU 140135Z AUTO 00000KT 10SM CLR 32/11 A2981 RMK AO2,M
CXP,2023-09-14 01:35,-119.7326,39.1923,1431.00,77.00,37.40,23.93,330.00,7.00,0.00,30.05,M,10.00,12.00,CLR,M,M,M,M,M,M,M,M,M,M,M,M,M,M,77.00,KCXP 140135Z AUTO 33007G12KT 10SM CLR 25/03 A3005 RMK AO2,M
RTS,2023-09-14 01:35,-119.8764,39.6682,1539.00,75.20,32.00,20.49,50.00,9.00,0.00,30.09,M,10.00,M,CLR,M,M,M,M,M,M,M,M,M,M,M,M,M,M,75.20,KRTS 140135Z AUTO 05009KT 10SM CLR 24/00 A3009 RMK AO2,M
MEV,2023-09-14 01:35,-119.7500,38.9963,1441.42,75.20,44.60,33.57,180.00,9.00,0.00,30.05,M,10.00,M,OVC,M,M,M,10000.00,M,M,M,M,M,M,M,M,M,M,75.20,KMEV 140135Z AUTO 18009KT 10SM OVC100 24/07 A3005 RMK AO2,M
BAM,2023-09-14 01:35,-116.8743,40.5990,1382.36,77.00,46.40,33.85,340.00,6.00,0.00,30.04,M,10.00,M,CLR,M,M,M,M,M,M,M,M,M,M,M,M,M,M,77.00,KBAM 140135Z AUTO 34006KT 10SM CLR 25/08 A3004 RMK AO1,M
HTH,2023-09-14 01:35,-118.6315,38.5448,1282.89,77.00,39.20,25.67,280.00,6.00,0.00,30.01,M,10.00,M,BKN,M,M,M,11000.00,M,M,M,M,M,M,M,M,M,M,77.00,KHTH 140135Z AUTO 28006KT 10SM BKN110 25/04 A3001 RMK A01,M
TMT,2023-09-14 01:35,-117.1971,39.4643,1749.34,65.50,44.80,47.08,280.00,4.00,0.00,30.12,M,M,M,SCT,SCT,M,M,9000.00,12000.00,M,M,M,M,M,M,M,M,M,65.50,KTMT 140135Z AUTO 28004KT SCT090 SCT120 19/07 A3012 RMK AO2 LTG DSNT E T01860071 PWINO,M
ELY,2023-09-14 01:38,-114.8453,39.2950,1909.00,65.00,48.00,54.07,0.00,0.00,0.00,30.12,M,10.00,M,OVC,M,M,M,9000.00,M,M,M,VCTS,M,M,M,M,M,M,65.00,KELY 140138Z AUTO 00000KT 10SM VCTS OVC090 18/09 A3012 RMK AO2 LTG DSNT NW T01830089,M
10U,2023-09-14 01:40,-116.1876,41.9532,1637.00,69.80,35.60,28.39,340.00,7.00,0.00,30.11,M,10.00,M,CLR,M,M,M,M,M,M,M,M,M,M,M,M,M,M,69.80,K10U 140140Z AUTO 34007KT 10SM CLR 21/02 A3011 RMK AO2,M
05U,2023-09-14 01:50,-116.0051,39.6042,1811.23,68.00,37.40,32.43,60.00,6.00,0.00,30.13,M,10.00,M,BKN,M,M,M,11000.00,M,M,M,M,M,M,M,M,M,M,68.00,K05U 140150Z AUTO 06006KT 10SM BKN110 20/03 A3013 RMK A01,M
P68,2023-09-14 01:53,-116.0056,39.6014,1993.00,68.00,37.00,31.92,260.00,8.00,0.00,30.10,1013.30,M,M,M,M,M,M,M,M,M,M,M,M,M,M,M,M,M,68.00,KP68 140153Z AUTO 26008KT 20/03 A3010 RMK AO1 SLP133 T02000028,M
ELY,2023-09-14 01:53,-114.8453,39.2950,1909.00,65.00,45.00,48.28,300.00,17.00,0.00,30.14,1014.40,10.00,29.00,OVC,M,M,M,8000.00,M,M,M,M,M,M,M,29.00,330.00,2023-09-14 01:53,65.00,KELY 140153Z AUTO 30017G29KT 270V330 10SM OVC080 18/07 A3014 RMK AO2 PK WND 33029/0153 PRESRR SLP144 T01830072,M
VGT,2023-09-14 01:53,-115.1933,36.2111,667.00,90.00,52.00,27.42,250.00,11.00,0.00,29.81,1008.70,10.00,M,CLR,M,M,M,M,M,M,M,M,M,M,M,M,M,M,87.40,KVGT 140153Z 25011KT 10SM CLR 32/11 A2981 RMK AO2 SLP087 T03220111,M
LOL,2023-09-14 01:53,-118.5701,40.0684,1192.43,78.00,40.00,25.62,40.00,10.00,0.00,29.99,1013.00,10.00,M,CLR,M,M,M,M,M,M,M,M,M,M,M,M,M,M,78.00,KLOL 140153Z AUTO 04010KT 10SM CLR 26/04 A2999 RMK AO2 SLP130 T02560044,M
DRA,2023-09-14 01:53,-116.0278,36.6206,1009.00,85.00,42.00,22.05,250.00,5.00,0.00,29.88,1007.40,10.00,M,CLR,M,M,M,M,M,M,M,M,M,M,M,M,M,M,82.15,KDRA 140153Z AUTO 25005KT 10SM CLR 29/06 A2988 RMK AO2 SLP074 T02940056,M
MEV,2023-09-14 01:55,-119.7500,38.9963,1441.42,73.40,44.60,35.66,190.00,11.00,0.00,30.04,M,10.00,21.00,BKN,M,M,M,10000.00,M,M,M,M,M,M,M,M,M,M,73.40,KMEV 140155Z AUTO 19011G21KT 10SM BKN100 23/07 A3004 RMK AO2,M
HTH,2023-09-14 01:55,-118.6315,38.5448,1282.89,78.80,37.40,22.54,250.00,6.00,0.00,30.01,M,10.00,M,FEW,SCT,BKN,M,5000.00,6500.00,8500.00,M,M,M,M,M,M,M,M,78.80,KHTH 140155Z AUTO 25006KT 10SM FEW050 SCT065 BKN085 26/03 A3001 RMK A01,M
BVU,2023-09-14 01:55,-114.8611,35.9475,671.00,89.60,50.00,25.79,0.00,0.00,0.00,29.81,M,10.00,M,CLR,M,M,M,M,M,M,M,M,M,M,M,M,M,M,86.70,KBVU 140155Z AUTO 00000KT 10SM CLR 32/10 A2981 RMK AO2 LTG DSNT NW-NE,M
CXP,2023-09-14 01:55,-119.7326,39.1923,1431.00,75.20,41.00,29.23,320.00,9.00,0.00,30.05,M,10.00,M,CLR,M,M,M,M,M,M,M,M,M,M,M,M,M,M,75.20,KCXP 140155Z AUTO 32009KT 10SM CLR 24/05 A3005 RMK AO2,M
RNO,2023-09-14 01:55,-119.7711,39.4839,1341.00,80.00,36.00,20.51,10.00,10.00,0.00,30.03,1012.00,10.00,M,FEW,FEW,M,M,10000.00,25000.00,M,M,M,M,M,M,M,M,M,78.66,KRNO 140155Z 01010KT 10SM FEW100 FEW250 27/02 A3003 RMK AO2 SLP120 T02670022,M
RTS,2023-09-14 01:55,-119.8764,39.6682,1539.00,75.20,32.00,20.49,50.00,7.00,0.00,30.09,M,10.00,M,CLR,M,M,M,M,M,M,M,M,M,M,M,M,M,M,75.20,KRTS 140155Z AUTO 05007KT 10SM CLR 24/00 A3009 RMK AO2,M
BAM,2023-09-14 01:55,-116.8743,40.5990,1382.36,73.40,48.20,40.85,340.00,6.00,0.00,30.04,M,10.00,M,CLR,M,M,M,M,M,M,M,M,M,M,M,M,M,M,73.40,KBAM 140155Z AUTO 34006KT 10SM CLR 23/09 A3004 RMK AO1,M
TMT,2023-09-14 01:55,-117.1971,39.4643,1749.34,63.70,46.00,52.47,280.00,4.00,0.00,30.12,M,M,M,SCT,BKN,M,M,9000.00,11000.00,M,M,M,M,M,M,M,M,M,63.70,KTMT 140155Z AUTO 28004KT SCT090 BKN110 18/08 A3012 RMK AO2 LTG DSNT S T01760077 PWINO,M
INS,2023-09-14 01:55,-115.6733,36.5872,955.00,84.60,46.00,26.02,160.00,8.00,0.00,29.87,1007.30,10.00,M,FEW,M,M,M,11000.00,M,M,M,M,M,M,M,M,M,M,82.12,KINS 140155Z AUTO 16008KT 10SM FEW110 29/08 A2987 RMK AO2 SLP073 T02920077 $,M
LSV,2023-09-14 01:55,-115.0343,36.2362,570.00,89.60,52.00,27.77,180.00,4.00,0.00,29.77,1005.80,10.00,M,SCT,BKN,M,M,14000.00,16000.00,M,M,M,M,M,M,M,M,M,87.03,KLSV 140155Z AUTO 18004KT 10SM SCT140 BKN160 32/11 A2977 RMK AO2 SLP058 T03200112 $,M
EKO,2023-09-14 01:56,-115.7860,40.8242,1367.00,74.00,37.00,26.03,340.00,10.00,0.00,30.06,1014.10,10.00,M,CLR,M,M,M,M,M,M,M,M,M,M,M,M,M,M,74.00,KEKO 140156Z AUTO 34010KT 10SM CLR 23/03 A3006 RMK AO2 SLP141 T02330028,M
WMC,2023-09-14 01:56,-117.8072,40.9019,1315.00,76.00,37.00,24.35,360.00,6.00,0.00,30.03,1013.80,10.00,M,CLR,M,M,M,M,M,M,M,M,M,M,M,M,M,M,76.00,KWMC 140156Z AUTO 36006KT 10SM CLR 24/03 A3003 RMK AO2 SLP138 T02440028,M
HND,2023-09-14 01:56,-115.1344,35.9729,742.79,87.00,53.00,31.28,260.00,7.00,0.00,29.86,1010.20,10.00,M,FEW,M,M,M,12000.00,M,M,M,M,M,M,M,M,M,M,84.91,KHND 140156Z 26007KT 10SM FEW120 31/12 A2986 RMK AO2 SLP102 T03060117,M
LAS,2023-09-14 01:56,-115.1634,36.0719,663.00,88.00,53.00,30.30,250.00,8.00,0.00,29.82,1007.40,10.00,M,SCT,BKN,BKN,M,10000.00,18000.00,22000.00,M,M,M,M,M,M,M,M,85.78,KLAS 140156Z 25008KT 10SM SCT100 BKN180 BKN220 31/12 A2982 RMK AO2 SLP074 CB DSNT NE-E AND S-W T03110117,M
NFL,2023-09-14 01:56,-118.7010,39.4166,1199.00,78.00,40.00,25.62,20.00,10.00,0.00,29.98,1012.30,10.00,M,FEW,SCT,M,M,7000.00,10000.00,M,M,M,M,M,M,M,M,M,78.00,KNFL 140156Z 02010KT 10SM FEW070 SCT100 26/04 A2998 RMK AO2 SLP123 T02560044,M
10U,2023-09-14 02:00,-116.1876,41.9532,1637.00,64.40,39.20,39.43,350.00,6.00,0.00,30.12,M,10.00,M,CLR,M,M,M,M,M,M,M,M,M,M,M,M,M,M,64.40,K10U 140200Z AUTO 35006KT 10SM CLR 18/04 A3012 RMK AO2,M
05U,2023-09-14 02:10,-116.0051,39.6042,1811.23,66.20,35.60,32.14,90.00,4.00,0.00,30.14,M,10.00,M,SCT,SCT,M,M,9000.00,12000.00,M,M,M,M,M,M,M,M,M,66.20,K05U 140210Z AUTO 09004KT 10SM SCT090 SCT120 19/02 A3014 RMK A01,M
BVU,2023-09-14 02:15,-114.8611,35.9475,671.00,87.80,51.80,29.18,70.00,4.00,0.00,29.81,M,10.00,M,CLR,M,M,M,M,M,M,M,M,M,M,M,M,M,M,85.39,KBVU 140215Z AUTO 07004KT 10SM CLR 31/11 A2981 RMK AO2,M
CXP,2023-09-14 02:15,-119.7326,39.1923,1431.00,73.40,41.00,31.05,340.00,6.00,0.00,30.06,M,10.00,M,FEW,M,M,M,11000.00,M,M,M,M,M,M,M,M,M,M,73.40,KCXP 140215Z AUTO 34006KT 10SM FEW110 23/05 A3006 RMK AO2,M
RTS,2023-09-14 02:15,-119.8764,39.6682,1539.00,73.40,32.00,21.76,30.00,6.00,0.00,30.09,M,10.00,M,CLR,M,M,M,M,M,M,M,M,M,M,M,M,M,M,73.40,KRTS 140215Z AUTO 03006KT 10SM CLR 23/00 A3009 RMK AO2,M
MEV,2023-09-14 02:15,-119.7500,38.9963,1441.42,71.60,44.60,37.89,190.00,8.00,0.00,30.05,M,10.00,17.00,SCT,M,M,M,11000.00,M,M,M,M,M,M,M,M,M,M,71.60,KMEV 140215Z AUTO 19008G17KT 10SM SCT110 22/07 A3005 RMK AO2,M
BAM,2023-09-14 02:15,-116.8743,40.5990,1382.36,71.60,46.40,40.57,350.00,7.00,0.00,30.05,M,10.00,M,CLR,M,M,M,M,M,M,M,M,M,M,M,M,M,M,71.60,KBAM 140215Z AUTO 35007KT 10SM CLR 22/08 A3005 RMK AO1,M
HTH,2023-09-14 02:15,-118.6315,38.5448,1282.89,77.00,41.00,27.53,230.00,10.00,0.00,30.02,M,10.00,M,FEW,SCT,BKN,M,6500.00,8500.00,12000.00,M,M,M,M,M,M,M,M,77.00,KHTH 140215Z AUTO 23010KT 10SM FEW065 SCT085 BKN120 25/05 A3002 RMK A01,M
10U,2023-09-14 02:15,-116.1876,41.9532,1637.00,62.60,39.20,42.00,20.00,6.00,0.00,30.12,M,10.00,M,CLR,M,M,M,M,M,M,M,M,M,M,M,M,M,M,62.60,K10U 140215Z AUTO 02006KT 10SM CLR 17/04 A3012 RMK AO2,M
TMT,2023-09-14 02:15,-117.1971,39.4643,1749.34,63.00,44.00,49.84,260.00,3.00,0.00,30.12,M,M,M,BKN,M,M,M,11000.00,M,M,M,M,M,M,M,M,M,M,63.00,KTMT 140215Z AUTO 26003KT BKN110 17/07 A3012 RMK AO2 T01730066 PWINO,M
05U,2023-09-14 02:30,-116.0051,39.6042,1811.23,68.00,37.40,32.43,100.00,6.00,0.00,30.14,M,10.00,M,OVC,M,M,M,9000.00,M,M,M,M,M,M,M,M,M,M,68.00,K05U 140230Z AUTO 10006KT 10SM OVC090 20/03 A3014 RMK A01,M
BVU,2023-09-14 02:35,-114.8611,35.9475,671.00,87.80,50.00,27.29,70.00,4.00,0.00,29.82,M,10.00,M,CLR,M,M,M,M,M,M,M,M,M,M,M,M,M,M,85.11,KBVU 140235Z AUTO 07004KT 10SM CLR 31/10 A2982 RMK AO2,M
CXP,2023-09-14 02:35,-119.7326,39.1923,1431.00,73.40,39.20,28.96,330.00,8.00,0.00,30.06,M,10.00,M,BKN,M,M,M,11000.00,M,M,M,M,M,M,M,M,M,M,73.40,KCXP 140235Z AUTO 33008KT 10SM BKN110 23/04 A3006 RMK AO2,M
BAM,2023-09-14 02:35,-116.8743,40.5990,1382.36,69.80,46.40,43.13,350.00,6.00,0.00,30.05,M,10.00,M,CLR,M,M,M,M,M,M,M,M,M,M,M,M,M,M,69.80,KBAM 140235Z AUTO 35006KT 10SM CLR 21/08 A3005 RMK AO1,M
TMT,2023-09-14 02:35,-117.1971,39.4643,1749.34,57.00,46.40,67.61,0.00,0.00,0.00,30.13,M,M,M,SCT,M,M,M,12000.00,M,M,M,M,M,M,M,M,M,M,57.00,KTMT 140235Z AUTO 00000KT SCT120 14/08 A3013 RMK AO2 LTG DSNT E T01390080 PWINO,M
RTS,2023-09-14 02:35,-119.8764,39.6682,1539.00,71.60,32.00,23.13,360.00,6.00,0.00,30.10,M,10.00,11.00,CLR,M,M,M,M,M,M,M,M,M,M,M,M,M,M,71.60,KRTS 140235Z AUTO 36006G11KT 10SM CLR 22/00 A3010 RMK AO2,M
MEV,2023-09-14 02:35,-119.7500,38.9963,1441.42,71.60,42.80,35.37,190.00,6.00,0.00,30.06,M,10.00,12.00,FEW,M,M,M,12000.00,M,M,M,M,M,M,M,M,M,M,71.60,KMEV 140235Z AUTO 19006G12KT 10SM FEW120 22/06 A3006 RMK AO2,M
HTH,2023-09-14 02:35,-118.6315,38.5448,1282.89,73.40,42.80,33.29,220.00,13.00,0.00,30.03,M,10.00,M,BKN,M,M,M,11000.00,M,M,M,M,M,M,M,M,M,M,73.40,KHTH 140235Z AUTO 22013KT 10SM BKN110 23/06 A3003 RMK A01,M
10U,2023-09-14 02:35,-116.1876,41.9532,1637.00,59.00,39.20,47.72,20.00,5.00,0.00,30.13,M,10.00,M,CLR,M,M,M,M,M,M,M,M,M,M,M,M,M,M,59.00,K10U 140235Z AUTO 02005KT 10SM CLR 15/04 A3013 RMK AO2,M
05U,2023-09-14 02:50,-116.0051,39.6042,1811.23,68.00,37.40,32.43,110.00,11.00,0.00,30.15,M,10.00,18.00,OVC,M,M,M,9000.00,M,M,M,M,M,M,M,M,M,M,68.00,K05U 140250Z AUTO 11011G18KT 10SM OVC090 20/03 A3015 RMK A01,M
P68,2023-09-14 02:53,-116.0056,39.6014,1993.00,67.00,38.00,34.37,310.00,17.00,0.00,30.12,1013.70,M,22.00,M,M,M,M,M,M,M,M,M,M,M,M,M,M,M,67.00,KP68 140253Z AUTO 31017G22KT 19/03 A3012 RMK AO1 SLP137 T01940033 53010,M
ELY,2023-09-14 02:53,-114.8453,39.2950,1909.00,56.00,46.00,69.05,160.00,9.00,0.08,30.16,1015.00,10.00,M,FEW,BKN,OVC,M,4200.00,8000.00,10000.00,M,-RA,M,M,M,40.00,320.00,2023-09-14 01:58,56.00,KELY 140253Z AUTO 16009KT 10SM -RA FEW042 BKN080 OVC100 13/08 A3016 RMK AO2 PK WND 32040/0158 RAB0159 SLP150 P0008 60008 T01330078 53017,M
VGT,2023-09-14 02:53,-115.1933,36.2111,667.00,89.00,50.00,26.28,240.00,3.00,0.00,29.83,1009.20,10.00,M,FEW,M,M,M,11000.00,M,M,M,M,M,M,M,M,M,M,86.16,KVGT 140253Z 24003KT 10SM FEW110 32/10 A2983 RMK AO2 SLP092 LGT DSNT N AND NE T03170100 53006,M
LOL,2023-09-14 02:53,-118.5701,40.0684,1192.43,74.00,38.00,27.08,10.00,7.00,0.00,30.01,1013.10,10.00,M,CLR,M,M,M,M,M,M,M,M,M,M,M,M,M,M,74.00,KLOL 140253Z AUTO 01007KT 10SM CLR 23/03 A3001 RMK AO2 SLP131 T02330033 53009,M
DRA,2023-09-14 02:53,-116.0278,36.6206,1009.00,81.00,49.00,32.73,10.00,18.00,0.00,29.91,1008.30,10.00,M,BKN,M,M,M,10000.00,M,M,M,M,M,M,M,28.00,350.00,2023-09-14 02:39,80.02,KDRA 140253Z AUTO 01018KT 10SM BKN100 27/09 A2991 RMK AO2 PK WND 35028/0239 SLP083 T02720094 53010,M
BVU,2023-09-14 02:55,-114.8611,35.9475,671.00,86.00,51.80,30.90,50.00,5.00,0.00,29.83,M,10.00,M,CLR,M,M,M,M,M,M,M,M,M,M,M,M,M,M,83.87,KBVU 140255Z AUTO 05005KT 10SM CLR 30/11 A2983 RMK AO2,M
CXP,2023-09-14 02:55,-119.7326,39.1923,1431.00,73.40,37.40,26.98,330.00,7.00,0.00,30.07,M,10.00,M,BKN,M,M,M,11000.00,M,M,M,M,M,M,M,M,M,M,73.40,KCXP 140255Z AUTO 33007KT 10SM BKN110 23/03 A3007 RMK AO2,M
INS,2023-09-14 02:55,-115.6733,36.5872,955.00,83.70,45.00,25.79,340.00,12.00,0.00,29.90,1008.00,10.00,14.00,SCT,M,M,M,10000.00,M,M,M,M,M,M,M,M,M,M,81.40,KINS 140255Z AUTO 34012G14KT 10SM SCT100 29/07 A2990 RMK AO2 SLP080 T02870073 53010 $,M
RNO,2023-09-14 02:55,-119.7711,39.4839,1341.00,77.00,36.00,22.64,30.00,7.00,0.00,30.05,1012.60,10.00,M,FEW,M,M,M,10000.00,M,M,M,M,M,M,M,M,M,M,77.00,KRNO 140255Z 03007KT 10SM FEW100 25/02 A3005 RMK AO2 SLP126 T02500022 53009,M
RTS,2023-09-14 02:55,-119.8764,39.6682,1539.00,68.00,33.80,28.11,350.00,4.00,0.00,30.11,M,10.00,M,CLR,M,M,M,M,M,M,M,M,M,M,M,M,M,M,68.00,KRTS 140255Z AUTO 35004KT 10SM CLR 20/01 A3011 RMK AO2,M
MEV,2023-09-14 02:55,-119.7500,38.9963,1441.42,68.00,44.60,42.85,180.00,4.00,0.00,30.06,M,10.00,M,FEW,M,M,M,12000.00,M,M,M,M,M,M,M,M,M,M,68.00,KMEV 140255Z AUTO 18004KT 10SM FEW120 20/07 A3006 RMK AO2,M
HTH,2023-09-14 02:55,-118.6315,38.5448,1282.89,73.40,44.60,35.66,200.00,14.00,0.00,30.03,M,10.00,M,SCT,M,M,M,11000.00,M,M,M,M,M,M,M,M,M,M,73.40,KHTH 140255Z AUTO 20014KT 10SM SCT110 23/07 A3003 RMK A01,M
BAM,2023-09-14 02:55,-116.8743,40.5990,1382.36,68.00,46.40,45.88,70.00,5.00,0.00,30.07,M,10.00,M,CLR,M,M,M,M,M,M,M,M,M,M,M,M,M,M,68.00,KBAM 140255Z AUTO 07005KT 10SM CLR 20/08 A3007 RMK AO1,M
TMT,2023-09-14 02:55,-117.1971,39.4643,1749.34,53.80,47.00,77.68,120.00,6.00,0.00,30.14,M,M,M,CLR,M,M,M,M,M,M,M,M,M,M,M,M,M,M,53.80,KTMT 140255Z AUTO 12006KT CLR 12/08 A3014 RMK AO2 LTG DSNT E T01210083 PWINO,M
LSV,2023-09-14 02:55,-115.0343,36.2362,570.00,89.20,51.80,27.91,270.00,3.00,0.00,29.79,1006.30,10.00,M,FEW,SCT,BKN,M,12000.00,16000.00,19000.00,M,M,M,M,M,M,M,M,86.63,KLSV 140255Z AUTO 27003KT 10SM FEW120 SCT160 BKN190 32/11 A2979 RMK AO2 SLP063 T03180110 53009 $,M
EKO,2023-09-14 02:56,-115.7860,40.8242,1367.00,70.00,41.00,34.85,40.00,10.00,0.00,30.09,1015.10,10.00,M,CLR,M,M,M,M,M,M,M,M,M,M,M,M,M,M,70.00,KEKO 140256Z AUTO 04010KT 10SM CLR 21/05 A3009 RMK AO2 SLP151 T02110050 53015,M
WMC,2023-09-14 02:56,-117.8072,40.9019,1315.00,68.00,37.00,31.92,0.00,0.00,0.00,30.05,1014.10,10.00,M,CLR,M,M,M,M,M,M,M,M,M,M,M,M,M,M,68.00,KWMC 140256Z AUTO 00000KT 10SM CLR 20/03 A3005 RMK AO2 SLP141 T02000028 53009,M
HND,2023-09-14 02:56,-115.1344,35.9729,742.79,86.00,52.00,31.13,270.00,3.00,0.00,29.88,1010.70,10.00,M,CLR,M,M,M,M,M,M,M,M,M,M,M,M,M,M,83.91,KHND 140256Z 27003KT 10SM CLR 30/11 A2988 RMK AO2 SLP107 T03000111 53006,M
LAS,2023-09-14 02:56,-115.1634,36.0719,663.00,89.00,50.00,26.28,250.00,3.00,0.00,29.84,1007.70,10.00,M,SCT,BKN,BKN,M,10000.00,18000.00,22000.00,M,M,M,M,M,M,M,M,86.16,KLAS 140256Z 25003KT 10SM SCT100 BKN180 BKN220 32/10 A2984 RMK AO2 SLP077 CB DSNT NE AND SE AND SW T03170100 53006 $,M
NFL,2023-09-14 02:56,-118.7010,39.4166,1199.00,72.00,38.00,28.96,360.00,7.00,0.00,30.00,1012.80,10.00,M,FEW,M,M,M,10000.00,M,M,M,M,M,M,M,M,M,M,72.00,KNFL 140256Z 36007KT 10SM FEW100 22/03 A3000 RMK AO2 SLP128 T02220033 53008,M
INS,2023-09-14 02:58,-115.6733,36.5872,955.00,82.40,46.40,28.36,20.00,19.00,0.00,29.91,1008.50,10.00,24.00,SCT,M,M,M,10000.00,M,M,M,M,M,M,M,M,M,M,80.64,KINS 140258Z AUTO 02019G24KT 10SM SCT100 28/08 A2991 RMK AO2 WSHFT 54 SLP085 $,M
10U,2023-09-14 03:00,-116.1876,41.9532,1637.00,59.00,39.20,47.72,20.00,5.00,0.00,30.15,M,10.00,M,CLR,M,M,M,M,M,M,M,M,M,M,M,M,M,M,59.00,K10U 140300Z AUTO 02005KT 10SM CLR 15/04 A3015 RMK AO2,M
05U,2023-09-14 03:10,-116.0051,39.6042,1811.23,66.20,37.40,34.51,120.00,21.00,0.00,30.16,M,10.00,32.00,BKN,OVC,M,M,7500.00,9000.00,M,M,M,M,M,M,M,M,M,66.20,K05U 140310Z AUTO 12021G32KT 10SM BKN075 OVC090 19/03 A3016 RMK A01,M
BVU,2023-09-14 03:15,-114.8611,35.9475,671.00,86.00,53.60,33.01,30.00,4.00,0.00,29.84,M,10.00,M,CLR,M,M,M,M,M,M,M,M,M,M,M,M,M,M,84.18,KBVU 140315Z AUTO 03004KT 10SM CLR 30/12 A2984 RMK AO2,M
CXP,2023-09-14 03:15,-119.7326,39.1923,1431.00,73.40,33.80,23.39,10.00,7.00,0.00,30.08,M,10.00,M,BKN,M,M,M,10000.00,M,M,M,M,M,M,M,M,M,M,73.40,KCXP 140315Z AUTO 01007KT 10SM BKN100 23/01 A3008 RMK AO2,M
RTS,2023-09-14 03:15,-119.8764,39.6682,1539.00,66.20,33.80,29.92,360.00,5.00,0.00,30.11,M,10.00,M,CLR,M,M,M,M,M,M,M,M,M,M,M,M,M,M,66.20,KRTS 140315Z AUTO 36005KT 10SM CLR 19/01 A3011 RMK AO2,M
MEV,2023-09-14 03:15,-119.7500,38.9963,1441.42,68.00,44.60,42.85,60.00,3.00,0.00,30.07,M,10.00,M,SCT,SCT,M,M,10000.00,12000.00,M,M,M,M,M,M,M,M,M,68.00,KMEV 140315Z AUTO 06003KT 10SM SCT100 SCT120 20/07 A3007 RMK AO2,M
HTH,2023-09-14 03:15,-118.6315,38.5448,1282.89,71.60,44.60,37.89,180.00,10.00,0.00,30.04,M,10.00,M,CLR,M,M,M,M,M,M,M,M,M,M,M,M,M,M,71.60,KHTH 140315Z AUTO 18010KT 10SM CLR 22/07 A3004 RMK A01,M
BAM,2023-09-14 03:15,-116.8743,40.5990,1382.36,66.20,44.60,45.60,0.00,0.00,0.00,30.08,M,10.00,M,BKN,M,M,M,9500.00,M,M,M,M,M,M,M,M,M,M,66.20,KBAM 140315Z AUTO 00000KT 10SM BKN095 19/07 A3008 RMK AO1,M
TMT,2023-09-14 03:15,-117.1971,39.4643,1749.34,54.00,46.60,75.96,110.00,4.00,0.00,30.15,M,M,M,CLR,M,M,M,M,M,M,M,M,M,M,M,M,M,M,54.00,KTMT 140315Z AUTO 11004KT CLR 12/08 A3015 RMK AO2 T01220081 PWINO,M
10U,2023-09-14 03:20,-116.1876,41.9532,1637.00,55.40,39.20,54.34,0.00,0.00,0.00,30.15,M,10.00,M,CLR,M,M,M,M,M,M,M,M,M,M,M,M,M,M,55.40,K10U 140320Z AUTO 00000KT 10SM CLR 13/04 A3015 RMK AO2,M
05U,2023-09-14 03:30,-116.0051,39.6042,1811.23,66.20,37.40,34.51,130.00,19.00,0.00,30.17,M,10.00,29.00,BKN,OVC,M,M,7000.00,10000.00,M,M,M,M,M,M,M,M,M,66.20,K05U 140330Z AUTO 13019G29KT 10SM BKN070 OVC100 19/03 A3017 RMK A01,M
BVU,2023-09-14 03:35,-114.8611,35.9475,671.00,86.00,53.60,33.01,50.00,3.00,0.00,29.85,M,10.00,M,CLR,M,M,M,M,M,M,M,M,M,M,M,M,M,M,84.18,KBVU 140335Z AUTO 05003KT 10SM CLR 30/12 A2985 RMK AO2,M
CXP,2023-09-14 03:35,-119.7326,39.1923,1431.00,71.60,39.20,30.77,0.00,0.00,0.00,30.09,M,10.00,M,OVC,M,M,M,10000.00,M,M,M,M,M,M,M,M,M,M,71.60,KCXP 140335Z AUTO 00000KT 10SM OVC100 22/04 A3009 RMK AO2,M
RTS,2023-09-14 03:35,-119.8764,39.6682,1539.00,64.40,33.80,31.85,0.00,0.00,0.00,30.12,M,10.00,M,CLR,M,M,M,M,M,M,M,M,M,M,M,M,M,M,64.40,KRTS 140335Z AUTO 00000KT 10SM CLR 18/01 A3012 RMK AO2,M
MEV,2023-09-14 03:35,-119.7500,38.9963,1441.42,66.20,44.60,45.60,100.00,3.00,0.00,30.08,M,10.00,M,BKN,M,M,M,10000.00,M,M,M,M,M,M,M,M,M,M,66.20,KMEV 140335Z AUTO 10003KT 10SM BKN100 19/07 A3008 RMK AO2,M
HTH,2023-09-14 03:35,-118.6315,38.5448,1282.89,71.60,44.60,37.89,180.00,8.00,0.00,30.04,M,10.00,M,SCT,M,M,M,11000.00,M,M,M,M,M,M,M,M,M,M,71.60,KHTH 140335Z AUTO 18008KT 10SM SCT110 22/07 A3004 RMK A01,M
BAM,2023-09-14 03:35,-116.8743,40.5990,1382.36,62.60,50.00,63.38,0.00,0.00,0.00,30.08,M,10.00,M,BKN,M,M,M,9500.00,M,M,M,M,M,M,M,M,M,M,62.60,KBAM 140335Z AUTO 00000KT 10SM BKN095 17/10 A3008 RMK AO1,M
TMT,2023-09-14 03:35,-117.1971,39.4643,1749.34,53.00,43.70,70.58,170.00,5.00,0.00,30.16,M,M,M,SCT,M,M,M,9000.00,M,M,M,M,M,M,M,M,M,M,53.00,KTMT 140335Z AUTO 17005KT SCT090 12/07 A3016 RMK AO2 T01160065 PWINO,M
10U,2023-09-14 03:40,-116.1876,41.9532,1637.00,53.60,39.20,58.02,0.00,0.00,0.00,30.16,M,10.00,M,CLR,M,M,M,M,M,M,M,M,M,M,M,M,M,M,53.60,K10U 140340Z AUTO 00000KT 10SM CLR 12/04 A3016 RMK AO2,M
05U,2023-09-14 03:50,-116.0051,39.6042,1811.23,66.20,37.40,34.51,160.00,20.00,0.00,30.18,M,10.00,27.00,FEW,SCT,BKN,M,3700.00,4700.00,7000.00,M,M,M,M,M,M,M,M,66.20,K05U 140350Z AUTO 16020G27KT 10SM FEW037 SCT047 BKN070 19/03 A3018 RMK A01,M
P68,2023-09-14 03:53,-116.0056,39.6014,1993.00,65.00,37.00,35.42,360.00,20.00,0.00,30.15,1013.70,M,30.00,M,M,M,M,M,M,M,M,M,M,M,M,33.00,330.00,2023-09-14 03:28,65.00,KP68 140353Z AUTO 36020G30KT 18/03 A3015 RMK AO1 PK WND 33033/0328 SLP137 T01830028,M
DRA,2023-09-14 03:53,-116.0278,36.6206,1009.00,78.00,50.00,37.48,20.00,15.00,0.00,29.95,1009.50,10.00,M,SCT,M,M,M,10000.00,M,M,M,M,M,M,M,27.00,20.00,2023-09-14 03:04,78.00,KDRA 140353Z AUTO 02015KT 10SM SCT100 26/10 A2995 RMK AO2 PK WND 02027/0304 SLP095 T02560100,M
ELY,2023-09-14 03:53,-114.8453,39.2950,1909.00,53.00,46.00,77.03,200.00,8.00,T,30.18,1014.80,10.00,M,BKN,M,M,M,9000.00,M,M,M,M,M,M,M,M,M,M,53.00,KELY 140353Z AUTO 20008KT 10SM BKN090 12/08 A3018 RMK AO2 RAE0254 SLP148 P0000 T01170078,M
VGT,2023-09-14 03:53,-115.1933,36.2111,667.00,86.00,52.00,31.13,50.00,14.00,0.00,29.87,1010.40,10.00,21.00,CLR,M,M,M,M,M,M,M,M,M,M,M,M,M,M,83.91,KVGT 140353Z 05014G21KT 10SM CLR 30/11 A2987 RMK AO2 SLP104 T03000111,M
LOL,2023-09-14 03:53,-118.5701,40.0684,1192.43,73.00,35.00,24.87,350.00,8.00,0.00,30.03,1013.40,10.00,M,CLR,M,M,M,M,M,M,M,M,M,M,M,M,M,M,73.00,KLOL 140353Z AUTO 35008KT 10SM CLR 23/02 A3003 RMK AO2 SLP134 T02280017,M
BVU,2023-09-14 03:55,-114.8611,35.9475,671.00,84.20,51.80,32.73,10.00,19.00,0.00,29.86,M,10.00,M,SCT,M,M,M,11000.00,M,M,M,M,M,M,M,M,M,M,82.48,KBVU 140355Z AUTO 01019KT 10SM SCT110 29/11 A2986 RMK AO2 LTG DSNT NE AND E,M
CXP,2023-09-14 03:55,-119.7326,39.1923,1431.00,71.60,35.60,26.71,320.00,6.00,0.00,30.10,M,10.00,M,OVC,M,M,M,10000.00,M,M,M,M,M,M,M,M,M,M,71.60,KCXP 140355Z AUTO 32006KT 10SM OVC100 22/02 A3010 RMK AO2,M
RNO,2023-09-14 03:55,-119.7711,39.4839,1341.00,74.00,37.00,26.03,270.00,5.00,0.00,30.07,1013.40,10.00,M,FEW,M,M,M,10000.00,M,M,M,M,M,M,M,M,M,M,74.00,KRNO 140355Z 27005KT 10SM FEW100 23/03 A3007 RMK AO2 SLP134 T02330028,M
RTS,2023-09-14 03:55,-119.8764,39.6682,1539.00,64.40,35.60,34.22,250.00,3.00,0.00,30.13,M,10.00,M,CLR,M,M,M,M,M,M,M,M,M,M,M,M,M,M,64.40,KRTS 140355Z AUTO 25003KT 10SM CLR 18/02 A3013 RMK AO2,M
MEV,2023-09-14 03:55,-119.7500,38.9963,1441.42,64.40,44.60,48.55,120.00,3.00,0.00,30.09,M,10.00,M,BKN,M,M,M,11000.00,M,M,M,M,M,M,M,M,M,M,64.40,KMEV 140355Z AUTO 12003KT 10SM BKN110 18/07 A3009 RMK AO2,M
BAM,2023-09-14 03:55,-116.8743,40.5990,1382.36,68.00,44.60,42.85,0.00,0.00,0.00,30.09,M,10.00,M,BKN,M,M,M,9500.00,M,M,M,M,M,M,M,M,M,M,68.00,KBAM 140355Z AUTO 00000KT 10SM BKN095 20/07 A3009 RMK AO1,M
HTH,2023-09-14 03:55,-118.6315,38.5448,1282.89,71.60,44.60,37.89,180.00,9.00,0.00,30.05,M,10.00,M,SCT,M,M,M,11000.00,M,M,M,M,M,M,M,M,M,M,71.60,KHTH 140355Z AUTO 18009KT 10SM SCT110 22/07 A3005 RMK A01,M
TMT,2023-09-14 03:55,-117.1971,39.4643,1749.34,53.00,44.20,71.94,170.00,3.00,0.00,30.16,M,M,M,SCT,M,M,M,9000.00,M,M,M,M,M,M,M,M,M,M,53.00,KTMT 140355Z AUTO 17003KT SCT090 12/07 A3016 RMK AO2 T01160068 PWINO,M
10U,2023-09-14 03:55,-116.1876,41.9532,1637.00,51.80,39.20,61.99,300.00,3.00,0.00,30.17,M,10.00,M,CLR,M,M,M,M,M,M,M,M,M,M,M,M,M,M,51.80,K10U 140355Z AUTO 30003KT 10SM CLR 11/04 A3017 RMK AO2,M
INS,2023-09-14 03:55,-115.6733,36.5872,955.00,77.50,47.70,34.97,340.00,5.00,0.00,29.95,1009.90,10.00,M,BKN,M,M,M,10000.00,M,M,M,M,M,M,M,M,M,M,77.50,KINS 140355Z AUTO 34005KT 10SM BKN100 25/09 A2995 RMK AO2 SLP099 T02530087 $,M
LSV,2023-09-14 03:55,-115.0343,36.2362,570.00,85.30,52.00,31.83,360.00,26.00,0.00,29.83,1007.60,5.00,35.00,BKN,M,M,M,17000.00,M,M,M,BLDU,M,M,M,35.00,10.00,2023-09-14 03:46,83.35,KLSV 140355Z COR 36026G35KT 5SM BLDU BKN170 30/11 A2983 RMK AO2 PK WND 01035/46 SLP076 T02960111 $ COR 0356,M
EKO,2023-09-14 03:56,-115.7860,40.8242,1367.00,64.00,42.00,44.57,90.00,4.00,0.00,30.11,1015.60,10.00,M,CLR,M,M,M,M,M,M,M,M,M,M,M,M,M,M,64.00,KEKO 140356Z AUTO 09004KT 10SM CLR 18/06 A3011 RMK AO2 SLP156 T01780056,M
WMC,2023-09-14 03:56,-117.8072,40.9019,1315.00,65.00,37.00,35.42,350.00,4.00,0.00,30.08,1014.90,10.00,M,CLR,M,M,M,M,M,M,M,M,M,M,M,M,M,M,65.00,KWMC 140356Z AUTO 35004KT 10SM CLR 18/03 A3008 RMK AO2 SLP149 T01830028,M
HND,2023-09-14 03:56,-115.1344,35.9729,742.79,85.00,54.00,34.59,40.00,12.00,0.00,29.92,1011.90,10.00,M,BKN,M,M,M,10000.00,M,M,M,M,M,M,M,M,M,M,83.45,KHND 140356Z AUTO 04012KT 10SM BKN100 29/12 A2992 RMK AO2 SLP119 T02940122,M
LAS,2023-09-14 03:56,-115.1634,36.0719,663.00,84.00,53.00,34.43,90.00,7.00,T,29.88,1009.40,10.00,M,FEW,BKN,BKN,BKN,6000.00,12000.00,18000.00,22000.00,M,M,M,M,M,M,M,82.51,KLAS 140356Z 09007KT 10SM FEW060 BKN120 BKN180 BKN220 29/12 A2988 RMK AO2 RAB07E29 SLP094 P0000 T02890117 $,M
NFL,2023-09-14 03:56,-118.7010,39.4166,1199.00,69.00,40.00,34.69,350.00,7.00,0.00,30.02,1013.60,10.00,M,FEW,M,M,M,10000.00,M,M,M,M,M,M,M,M,M,M,69.00,KNFL 140356Z 35007KT 10SM FEW100 21/04 A3002 RMK AO2 SLP136 T02060044,M
05U,2023-09-14 04:10,-116.0051,39.6042,1811.23,62.60,39.20,42.00,200.00,11.00,0.00,30.18,M,10.00,M,FEW,SCT,OVC,M,4400.00,7000.00,11000.00,M,M,M,M,M,M,M,M,62.60,K05U 140410Z AUTO 20011KT 10SM FEW044 SCT070 OVC110 17/04 A3018 RMK A01,M
HND,2023-09-14 04:14,-115.1344,35.9729,742.79,77.00,60.80,57.36,70.00,18.00,0.01,29.92,M,10.00,22.00,BKN,OVC,M,M,9000.00,11000.00,M,M,RA,M,M,M,M,M,M,77.00,KHND 140414Z AUTO 07018G22KT 10SM RA BKN090 OVC110 25/16 A2992 RMK AO2 WSHFT 0354 RAB04 P0001,M
TMT,2023-09-14 04:15,-117.1971,39.4643,1749.34,53.40,45.30,73.92,280.00,6.00,0.00,30.16,M,M,M,BKN,BKN,M,M,10000.00,12000.00,M,M,M,M,M,M,M,M,M,53.40,KTMT 140415Z AUTO 28006KT BKN100 BKN120 12/07 A3016 RMK AO2 T01190074 PWINO,M
BVU,2023-09-14 04:15,-114.8611,35.9475,671.00,82.40,51.80,34.69,20.00,20.00,0.00,29.86,M,10.00,M,FEW,M,M,M,11000.00,M,M,M,M,M,M,M,M,M,M,81.20,KBVU 140415Z AUTO 02020KT 10SM FEW110 28/11 A2986 RMK AO2 LTG DSNT NE AND E AND W,M
CXP,2023-09-14 04:15,-119.7326,39.1923,1431.00,71.60,35.60,26.71,M,6.00,0.00,30.10,M,10.00,M,OVC,M,M,M,10000.00,M,M,M,M,M,M,M,M,M,M,71.60,KCXP 140415Z AUTO VRB06KT 10SM OVC100 22/02 A3010 RMK AO2,M
RTS,2023-09-14 04:15,-119.8764,39.6682,1539.00,64.40,33.80,31.85,280.00,3.00,0.00,30.13,M,10.00,M,CLR,M,M,M,M,M,M,M,M,M,M,M,M,M,M,64.40,KRTS 140415Z AUTO 28003KT 10SM CLR 18/01 A3013 RMK AO2,M
MEV,2023-09-14 04:15,-119.7500,38.9963,1441.42,62.60,44.60,51.72,110.00,5.00,0.00,30.10,M,10.00,M,SCT,M,M,M,10000.00,M,M,M,M,M,M,M,M,M,M,62.60,KMEV 140415Z AUTO 11005KT 10SM SCT100 17/07 A3010 RMK AO2,M
BAM,2023-09-14 04:15,-116.8743,40.5990,1382.36,68.00,42.80,40.00,0.00,0.00,0.00,30.10,M,10.00,M,BKN,M,M,M,9500.00,M,M,M,M,M,M,M,M,M,M,68.00,KBAM 140415Z AUTO 00000KT 10SM BKN095 20/06 A3010 RMK AO1,M
HTH,2023-09-14 04:15,-118.6315,38.5448,1282.89,71.60,44.60,37.89,190.00,7.00,0.00,30.06,M,10.00,M,BKN,M,M,M,11000.00,M,M,M,M,M,M,M,M,M,M,71.60,KHTH 140415Z AUTO 19007KT 10SM BKN110 22/07 A3006 RMK A01,M
10U,2023-09-14 04:15,-116.1876,41.9532,1637.00,51.80,41.00,66.48,0.00,0.00,0.00,30.17,M,10.00,M,CLR,M,M,M,M,M,M,M,M,M,M,M,M,M,M,51.80,K10U 140415Z AUTO 00000KT 10SM CLR 11/05 A3017 RMK AO2,M
05U,2023-09-14 04:30,-116.0051,39.6042,1811.23,62.60,39.20,42.00,230.00,10.00,0.00,30.18,M,10.00,17.00,FEW,BKN,OVC,M,6500.00,7500.00,11000.00,M,M,M,M,M,M,M,M,62.60,K05U 140430Z AUTO 23010G17KT 10SM FEW065 BKN075 OVC110 17/04 A3018 RMK A01,M
VGT,2023-09-14 04:32,-115.1933,36.2111,667.00,86.00,51.00,30.00,30.00,12.00,0.00,29.88,M,10.00,19.00,CLR,M,M,M,M,M,M,M,VCTS,M,M,M,M,M,M,83.75,KVGT 140432Z AUTO 03012G19KT 10SM VCTS CLR 30/11 A2988 RMK AO2 T03000106,M
BVU,2023-09-14 04:35,-114.8611,35.9475,671.00,82.40,51.80,34.69,20.00,18.00,0.00,29.86,M,10.00,25.00,CLR,M,M,M,M,M,M,M,M,M,M,M,M,M,M,81.20,KBVU 140435Z AUTO 02018G25KT 10SM CLR 28/11 A2986 RMK AO2,M
CXP,2023-09-14 04:35,-119.7326,39.1923,1431.00,68.00,41.00,37.32,0.00,0.00,0.00,30.11,M,10.00,M,BKN,M,M,M,10000.00,M,M,M,M,M,M,M,M,M,M,68.00,KCXP 140435Z AUTO 00000KT 10SM BKN100 20/05 A3011 RMK AO2,M
RTS,2023-09-14 04:35,-119.8764,39.6682,1539.00,60.80,33.80,36.16,0.00,0.00,0.00,30.13,M,10.00,M,CLR,M,M,M,M,M,M,M,M,M,M,M,M,M,M,60.80,KRTS 140435Z AUTO 00000KT 10SM CLR 16/01 A3013 RMK AO2,M
MEV,2023-09-14 04:35,-119.7500,38.9963,1441.42,59.00,42.80,54.86,140.00,5.00,0.00,30.10,M,9.00,M,FEW,M,M,M,10000.00,M,M,M,M,M,M,M,M,M,M,59.00,KMEV 140435Z AUTO 14005KT 9SM FEW100 15/06 A3010 RMK AO2,M
BAM,2023-09-14 04:35,-116.8743,40.5990,1382.36,68.00,41.00,37.32,0.00,0.00,0.00,30.11,M,10.00,M,SCT,M,M,M,9500.00,M,M,M,M,M,M,M,M,M,M,68.00,KBAM 140435Z AUTO 00000KT 10SM SCT095 20/05 A3011 RMK AO1,M
HTH,2023-09-14 04:35,-118.6315,38.5448,1282.89,71.60,44.60,37.89,170.00,6.00,0.00,30.06,M,10.00,M,OVC,M,M,M,11000.00,M,M,M,M,M,M,M,M,M,M,71.60,KHTH 140435Z AUTO 17006KT 10SM OVC110 22/07 A3006 RMK A01,M
TMT,2023-09-14 04:35,-117.1971,39.4643,1749.34,53.40,44.80,72.53,0.00,0.00,0.00,30.17,M,M,M,BKN,BKN,M,M,10000.00,12000.00,M,M,M,M,M,M,M,M,M,53.40,KTMT 140435Z AUTO 00000KT BKN100 BKN120 12/07 A3017 RMK AO2 T01190071 PWINO,M
10U,2023-09-14 04:40,-116.1876,41.9532,1637.00,53.60,41.00,62.23,330.00,5.00,0.00,30.18,M,10.00,M,CLR,M,M,M,M,M,M,M,M,M,M,M,M,M,M,53.60,K10U 140440Z AUTO 33005KT 10SM CLR 12/05 A3018 RMK AO2,M
05U,2023-09-14 04:50,-116.0051,39.6042,1811.23,60.80,41.00,48.00,250.00,7.00,0.00,30.18,M,10.00,M,SCT,OVC,M,M,7500.00,11000.00,M,M,M,M,M,M,M,M,M,60.80,K05U 140450Z AUTO 25007KT 10SM SCT075 OVC110 16/05 A3018 RMK A01,M
P68,2023-09-14 04:53,-116.0056,39.6014,1993.00,60.00,41.00,49.39,90.00,7.00,0.00,30.15,1013.50,M,M,M,M,M,M,M,M,M,M,M,M,M,M,M,M,M,60.00,KP68 140453Z AUTO 09007KT 16/05 A3015 RMK AO1 SLP135 T01560050,M
DRA,2023-09-14 04:53,-116.0278,36.6206,1009.00,76.00,49.00,38.59,20.00,10.00,0.00,29.98,1010.70,10.00,M,CLR,M,M,M,M,M,M,M,M,M,M,M,M,M,M,76.00,KDRA 140453Z AUTO 02010KT 10SM CLR 24/09 A2998 RMK AO2 SLP107 T02440094,M
ELY,2023-09-14 04:53,-114.8453,39.2950,1909.00,51.00,46.00,82.93,170.00,9.00,0.00,30.18,1014.30,10.00,M,FEW,M,M,M,10000.00,M,M,M,M,M,M,M,M,M,M,51.00,KELY 140453Z AUTO 17009KT 10SM FEW100 11/08 A3018 RMK AO2 SLP143 T01060078,M
VGT,2023-09-14 04:53,-115.1933,36.2111,667.00,86.00,53.00,32.29,310.00,8.00,0.00,29.89,1011.30,10.00,M,CLR,M,M,M,M,M,M,M,M,M,M,M,M,M,M,84.07,KVGT 140453Z AUTO 31008KT 10SM CLR 30/12 A2989 RMK AO2 SLP113 T03000117,M
LOL,2023-09-14 04:53,-118.5701,40.0684,1192.43,68.00,37.00,31.92,40.00,9.00,0.00,30.05,1013.90,10.00,M,CLR,M,M,M,M,M,M,M,M,M,M,M,M,M,M,68.00,KLOL 140453Z AUTO 04009KT 10SM CLR 20/03 A3005 RMK AO2 SLP139 T02000028,M
BVU,2023-09-14 04:55,-114.8611,35.9475,671.00,82.40,51.80,34.69,10.00,14.00,0.00,29.87,M,10.00,24.00,CLR,M,M,M,M,M,M,M,M,M,M,M,M,M,M,81.20,KBVU 140455Z AUTO 01014G24KT 10SM CLR 28/11 A2987 RMK AO2,M
CXP,2023-09-14 04:55,-119.7326,39.1923,1431.00,66.20,42.80,42.57,0.00,0.00,0.00,30.11,M,10.00,M,BKN,M,M,M,10000.00,M,M,M,M,M,M,M,M,M,M,66.20,KCXP 140455Z AUTO 00000KT 10SM BKN100 19/06 A3011 RMK AO2,M
RNO,2023-09-14 04:55,-119.7711,39.4839,1341.00,72.00,38.00,28.96,M,3.00,0.00,30.08,1013.60,10.00,M,FEW,M,M,M,10000.00,M,M,M,M,M,M,M,M,M,M,72.00,KRNO 140455Z VRB03KT 10SM FEW100 22/03 A3008 RMK AO2 SLP136 T02220033,M
RTS,2023-09-14 04:55,-119.8764,39.6682,1539.00,62.60,33.80,33.93,10.00,3.00,0.00,30.14,M,10.00,M,CLR,M,M,M,M,M,M,M,M,M,M,M,M,M,M,62.60,KRTS 140455Z AUTO 01003KT 10SM CLR 17/01 A3014 RMK AO2,M
MEV,2023-09-14 04:55,-119.7500,38.9963,1441.42,59.00,44.60,58.77,130.00,5.00,0.00,30.10,M,10.00,M,CLR,M,M,M,M,M,M,M,M,M,M,M,M,M,M,59.00,KMEV 140455Z AUTO 13005KT 10SM CLR 15/07 A3010 RMK AO2,M
HTH,2023-09-14 04:55,-118.6315,38.5448,1282.89,71.60,42.80,35.37,180.00,6.00,0.00,30.06,M,10.00,M,BKN,M,M,M,11000.00,M,M,M,M,M,M,M,M,M,M,71.60,KHTH 140455Z AUTO 18006KT 10SM BKN110 22/06 A3006 RMK A01,M
10U,2023-09-14 04:55,-116.1876,41.9532,1637.00,51.80,39.20,61.99,0.00,0.00,0.00,30.18,M,10.00,M,CLR,M,M,M,M,M,M,M,M,M,M,M,M,M,M,51.80,K10U 140455Z AUTO 00000KT 10SM CLR 11/04 A3018 RMK AO2,M
BAM,2023-09-14 04:55,-116.8743,40.5990,1382.36,69.80,39.20,32.72,70.00,5.00,0.00,30.11,M,10.00,M,CLR,M,M,M,M,M,M,M,M,M,M,M,M,M,M,69.80,KBAM 140455Z AUTO 07005KT 10SM CLR 21/04 A3011 RMK AO1,M
TMT,2023-09-14 04:55,-117.1971,39.4643,1749.34,52.30,44.20,73.81,210.00,3.00,0.00,30.18,M,M,M,SCT,M,M,M,10000.00,M,M,M,M,M,M,M,M,M,M,52.30,KTMT 140455Z AUTO 21003KT SCT100 11/07 A3018 RMK AO2 T01130068 PWINO,M
INS,2023-09-14 04:55,-115.6733,36.5872,955.00,76.00,47.00,35.80,0.00,0.00,0.00,29.97,1010.40,10.00,M,SCT,M,M,M,10000.00,M,M,M,M,M,M,M,M,M,M,76.00,KINS 140455Z AUTO 00000KT 10SM SCT100 24/08 A2997 RMK AO2 SLP104 T02440083 $,M
LSV,2023-09-14 04:55,-115.0343,36.2362,570.00,83.30,50.40,32.00,10.00,19.00,0.00,29.85,1008.30,10.00,28.00,SCT,BKN,M,M,12000.00,17000.00,M,M,M,M,M,M,32.00,360.00,2023-09-14 04:01,81.64,KLSV 140455Z AUTO 01019G28KT 10SM SCT120 BKN170 29/10 A2985 RMK AO2 PK WND 36032/01 SLP083 T02850102 $,M
EKO,2023-09-14 04:56,-115.7860,40.8242,1367.00,61.00,42.00,49.54,90.00,4.00,0.00,30.12,1015.60,10.00,M,FEW,M,M,M,10000.00,M,M,M,M,M,M,M,M,M,M,61.00,KEKO 140456Z AUTO 09004KT 10SM FEW100 16/06 A3012 RMK AO2 SLP156 T01610056,M
WMC,2023-09-14 04:56,-117.8072,40.9019,1315.00,67.00,37.00,33.04,40.00,10.00,0.00,30.10,1015.10,10.00,M,CLR,M,M,M,M,M,M,M,M,M,M,M,M,M,M,67.00,KWMC 140456Z AUTO 04010KT 10SM CLR 19/03 A3010 RMK AO2 SLP151 T01940028,M
NFL,2023-09-14 04:56,-118.7010,39.4166,1199.00,67.00,42.00,40.15,10.00,6.00,0.00,30.03,1014.00,10.00,M,CLR,M,M,M,M,M,M,M,M,M,M,M,M,M,M,67.00,KNFL 140456Z 01006KT 10SM CLR 19/06 A3003 RMK AO2 SLP140 T01940056,M
HND,2023-09-14 04:56,-115.1344,35.9729,742.79,78.00,57.00,48.44,50.00,9.00,0.02,29.93,1012.50,10.00,M,FEW,M,M,M,7000.00,M,M,M,M,M,M,M,M,M,M,78.00,KHND 140456Z AUTO 05009KT 10SM FEW070 26/14 A2993 RMK AO2 WSHFT 0354 RAB04E41 SLP125 P0002 T02560139,M
LAS,2023-09-14 04:56,-115.1634,36.0719,663.00,83.00,51.00,33.04,40.00,13.00,0.00,29.91,1010.10,10.00,M,FEW,BKN,BKN,M,6000.00,13000.00,18000.00,M,M,M,M,M,M,M,M,81.51,KLAS 140456Z 04013KT 10SM FEW060 BKN130 BKN180 28/11 A2991 RMK AO2 SLP101 CB DSNT N-NW T02830106 $,M
05U,2023-09-14 05:10,-116.0051,39.6042,1811.23,59.00,39.20,47.72,60.00,4.00,0.00,30.18,M,10.00,M,OVC,M,M,M,11000.00,M,M,M,M,M,M,M,M,M,M,59.00,K05U 140510Z AUTO 06004KT 10SM OVC110 15/04 A3018 RMK A01,M
BVU,2023-09-14 05:15,-114.8611,35.9475,671.00,82.40,51.80,34.69,20.00,17.00,0.00,29.87,M,10.00,24.00,CLR,M,M,M,M,M,M,M,M,M,M,M,M,M,M,81.20,KBVU 140515Z AUTO 02017G24KT 10SM CLR 28/11 A2987 RMK AO2,M
CXP,2023-09-14 05:15,-119.7326,39.1923,1431.00,66.20,42.80,42.57,0.00,0.00,0.00,30.11,M,10.00,M,OVC,M,M,M,10000.00,M,M,M,M,M,M,M,M,M,M,66.20,KCXP 140515Z AUTO 00000KT 10SM OVC100 19/06 A3011 RMK AO2,M
RTS,2023-09-14 05:15,-119.8764,39.6682,1539.00,62.60,33.80,33.93,10.00,4.00,0.00,30.14,M,10.00,M,CLR,M,M,M,M,M,M,M,M,M,M,M,M,M,M,62.60,KRTS 140515Z AUTO 01004KT 10SM CLR 17/01 A3014 RMK AO2,M
MEV,2023-09-14 05:15,-119.7500,38.9963,1441.42,62.60,46.40,55.37,170.00,8.00,0.00,30.10,M,10.00,M,FEW,M,M,M,10000.00,M,M,M,M,M,M,M,M,M,M,62.60,KMEV 140515Z AUTO 17008KT 10SM FEW100 17/08 A3010 RMK AO2,M
BAM,2023-09-14 05:15,-116.8743,40.5990,1382.36,69.80,37.40,30.49,350.00,6.00,0.00,30.11,M,10.00,M,CLR,M,M,M,M,M,M,M,M,M,M,M,M,M,M,69.80,KBAM 140515Z AUTO 35006KT 10SM CLR 21/03 A3011 RMK AO1,M
HTH,2023-09-14 05:15,-118.6315,38.5448,1282.89,71.60,42.80,35.37,180.00,6.00,0.00,30.06,M,10.00,M,FEW,OVC,M,M,8000.00,10000.00,M,M,M,M,M,M,M,M,M,71.60,KHTH 140515Z AUTO 18006KT 10SM FEW080 OVC100 22/06 A3006 RMK A01,M
10U,2023-09-14 05:15,-116.1876,41.9532,1637.00,50.00,39.20,66.27,0.00,0.00,0.00,30.18,M,10.00,M,CLR,M,M,M,M,M,M,M,M,M,M,M,M,M,M,50.00,K10U 140515Z AUTO 00000KT 10SM CLR 10/04 A3018 RMK AO2,M
TMT,2023-09-14 05:15,-117.1971,39.4643,1749.34,50.40,43.30,76.51,190.00,6.00,0.00,30.18,M,M,M,CLR,M,M,M,M,M,M,M,M,M,M,M,M,M,M,50.40,KTMT 140515Z AUTO 19006KT CLR 10/06 A3018 RMK AO2 T01020063 PWINO,M
05U,2023-09-14 05:30,-116.0051,39.6042,1811.23,59.00,39.20,47.72,20.00,6.00,0.00,30.18,M,10.00,M,BKN,M,M,M,11000.00,M,M,M,M,M,M,M,M,M,M,59.00,K05U 140530Z AUTO 02006KT 10SM BKN110 15/04 A3018 RMK A01,M
BVU,2023-09-14 05:35,-114.8611,35.9475,671.00,82.40,51.80,34.69,10.00,14.00,0.00,29.88,M,10.00,24.00,CLR,M,M,M,M,M,M,M,M,M,M,M,M,M,M,81.20,KBVU 140535Z AUTO 01014G24KT 10SM CLR 28/11 A2988 RMK AO2,M
CXP,2023-09-14 05:35,-119.7326,39.1923,1431.00,66.20,42.80,42.57,0.00,0.00,0.00,30.12,M,10.00,M,BKN,M,M,M,11000.00,M,M,M,M,M,M,M,M,M,M,66.20,KCXP 140535Z AUTO 00000KT 10SM BKN110 19/06 A3012 RMK AO2,M
RTS,2023-09-14 05:35,-119.8764,39.6682,1539.00,60.80,33.80,36.16,330.00,4.00,0.00,30.14,M,10.00,M,CLR,M,M,M,M,M,M,M,M,M,M,M,M,M,M,60.80,KRTS 140535Z AUTO 33004KT 10SM CLR 16/01 A3014 RMK AO2,M
MEV,2023-09-14 05:35,-119.7500,38.9963,1441.42,59.00,46.40,62.92,0.00,0.00,0.00,30.11,M,10.00,M,SCT,M,M,M,10000.00,M,M,M,M,M,M,M,M,M,M,59.00,KMEV 140535Z AUTO 00000KT 10SM SCT100 15/08 A3011 RMK AO2,M
BAM,2023-09-14 05:35,-116.8743,40.5990,1382.36,69.80,37.40,30.49,40.00,11.00,0.00,30.12,M,10.00,16.00,CLR,M,M,M,M,M,M,M,M,M,M,M,M,M,M,69.80,KBAM 140535Z AUTO 04011G16KT 10SM CLR 21/03 A3012 RMK AO1,M
HTH,2023-09-14 05:35,-118.6315,38.5448,1282.89,69.80,44.60,40.29,130.00,9.00,0.00,30.07,M,10.00,M,BKN,M,M,M,11000.00,M,M,M,M,M,M,M,M,M,M,69.80,KHTH 140535Z AUTO 13009KT 10SM BKN110 21/07 A3007 RMK A01,M
TMT,2023-09-14 05:35,-117.1971,39.4643,1749.34,50.00,43.00,76.76,210.00,6.00,0.00,30.18,M,M,M,CLR,M,M,M,M,M,M,M,M,M,M,M,M,M,M,50.00,KTMT 140535Z AUTO 21006KT CLR 10/06 A3018 RMK AO2 T01010061 PWINO,M
10U,2023-09-14 05:35,-116.1876,41.9532,1637.00,50.00,39.20,66.27,0.00,0.00,0.00,30.18,M,10.00,M,CLR,M,M,M,M,M,M,M,M,M,M,M,M,M,M,50.00,K10U 140535Z AUTO 00000KT 10SM CLR 10/04 A3018 RMK AO2,M
05U,2023-09-14 05:50,-116.0051,39.6042,1811.23,55.40,39.20,54.34,0.00,0.00,0.00,30.19,M,10.00,M,FEW,M,M,M,12000.00,M,M,M,M,M,M,M,M,M,M,55.40,K05U 140550Z AUTO 00000KT 10SM FEW120 13/04 A3019 RMK A01,M
P68,2023-09-14 05:53,-116.0056,39.6014,1993.00,55.00,39.00,54.70,180.00,4.00,0.00,30.16,1013.90,M,M,M,M,M,M,M,M,M,M,M,M,M,M,M,M,M,55.00,KP68 140553Z AUTO 18004KT 13/04 A3016 RMK AO1 SLP139 T01280039 10217 20128 51010,M
DRA,2023-09-14 05:53,-116.0278,36.6206,1009.00,74.00,49.00,41.26,40.00,8.00,0.00,29.99,1010.60,10.00,M,CLR,M,M,M,M,M,M,M,M,M,M,M,M,M,M,74.00,KDRA 140553Z AUTO 04008KT 10SM CLR 23/09 A2999 RMK AO2 SLP106 T02330094 10328 20233 51023,M
ELY,2023-09-14 05:53,-114.8453,39.2950,1909.00,51.00,45.00,79.84,150.00,3.00,0.00,30.20,1014.20,10.00,M,CLR,M,M,M,M,M,M,M,M,M,M,M,M,M,M,51.00,KELY 140553Z AUTO 15003KT 10SM CLR 11/07 A3020 RMK AO2 SLP142 60008 T01060072 10217 20094 51009,M
VGT,2023-09-14 05:53,-115.1933,36.2111,667.00,83.00,55.00,38.26,310.00,6.00,0.00,29.90,1011.60,10.00,M,FEW,M,M,M,11000.00,M,M,M,M,M,M,M,M,M,M,82.11,KVGT 140553Z AUTO 31006KT 10SM FEW110 28/13 A2990 RMK AO2 LTG DSNT N AND NW SLP116 T02830128 10339 20283 51023,M
LOL,2023-09-14 05:53,-118.5701,40.0684,1192.43,66.00,38.00,35.58,20.00,10.00,0.00,30.06,1014.40,10.00,M,CLR,M,M,M,M,M,M,M,M,M,M,M,M,M,M,66.00,KLOL 140553Z AUTO 02010KT 10SM CLR 19/03 A3006 RMK AO2 SLP144 T01890033 10289 20183 51017,M
RTS,2023-09-14 05:55,-119.8764,39.6682,1539.00,62.60,35.60,36.45,320.00,4.00,0.00,30.15,M,10.00,M,CLR,M,M,M,M,M,M,M,M,M,M,M,M,M,M,62.60,KRTS 140555Z AUTO 32004KT 10SM CLR 17/02 A3015 RMK AO2,M
BVU,2023-09-14 05:55,-114.8611,35.9475,671.00,82.40,50.00,32.46,20.00,16.00,0.00,29.88,M,10.00,M,CLR,M,M,M,M,M,M,M,M,M,M,M,M,M,M,80.99,KBVU 140555Z AUTO 02016KT 10SM CLR 28/10 A2988 RMK AO2,M
CXP,2023-09-14 05:55,-119.7326,39.1923,1431.00,66.20,42.80,42.57,0.00,0.00,0.00,30.12,M,10.00,M,FEW,M,M,M,11000.00,M,M,M,M,M,M,M,M,M,M,66.20,KCXP 140555Z AUTO 00000KT 10SM FEW110 19/06 A3012 RMK AO2,M
RNO,2023-09-14 05:55,-119.7711,39.4839,1341.00,69.00,38.00,32.08,280.00,8.00,0.00,30.10,1014.00,10.00,M,FEW,M,M,M,10000.00,M,M,M,M,M,M,M,M,M,M,69.00,KRNO 140555Z 28008KT 10SM FEW100 21/03 A3010 RMK AO2 SLP140 T02060033 10289 20206 51015,M
MEV,2023-09-14 05:55,-119.7500,38.9963,1441.42,57.20,42.80,58.52,0.00,0.00,0.00,30.11,M,10.00,M,BKN,M,M,M,10000.00,M,M,M,M,M,M,M,M,M,M,57.20,KMEV 140555Z AUTO 00000KT 10SM BKN100 14/06 A3011 RMK AO2,M
BAM,2023-09-14 05:55,-116.8743,40.5990,1382.36,69.80,37.40,30.49,30.00,3.00,0.00,30.13,M,10.00,17.00,CLR,M,M,M,M,M,M,M,M,M,M,M,M,M,M,69.80,KBAM 140555Z AUTO 03003G17KT 10SM CLR 21/03 A3013 RMK AO1,M
HTH,2023-09-14 05:55,-118.6315,38.5448,1282.89,71.60,42.80,35.37,130.00,9.00,0.00,30.07,M,10.00,M,SCT,M,M,M,11000.00,M,M,M,M,M,M,M,M,M,M,71.60,KHTH 140555Z AUTO 13009KT 10SM SCT110 22/06 A3007 RMK A01,M
TMT,2023-09-14 05:55,-117.1971,39.4643,1749.34,49.00,42.40,77.86,220.00,4.00,0.00,30.19,M,M,M,CLR,M,M,M,M,M,M,M,M,M,M,M,M,M,M,47.27,KTMT 140555Z AUTO 22004KT CLR 10/06 A3019 RMK AO2 T00950058 10222 20095 PWINO,M
INS,2023-09-14 05:55,-115.6733,36.5872,955.00,75.60,49.00,39.10,170.00,3.00,0.00,29.98,1010.60,10.00,M,CLR,M,M,M,M,M,M,M,M,M,M,M,M,M,M,75.60,KINS 140555Z AUTO 17003KT 10SM CLR 24/09 A2998 RMK AO2 SLP106 T02420094 10318 20242 51025 $,M
LSV,2023-09-14 05:55,-115.0343,36.2362,570.00,82.00,50.00,32.88,40.00,4.00,0.00,29.87,1009.00,10.00,M,BKN,BKN,M,M,9000.00,14000.00,M,M,M,M,M,M,27.00,10.00,2023-09-14 04:57,80.73,KLSV 140555Z AUTO 04004KT 10SM BKN090 BKN140 28/10 A2987 RMK AO2 PK WND 01027/0457 SLP090 T02770099 10343 20277 52025 $,M
EKO,2023-09-14 05:56,-115.7860,40.8242,1367.00,59.00,42.00,53.20,70.00,6.00,0.00,30.13,1015.90,10.00,M,CLR,M,M,M,M,M,M,M,M,M,M,M,M,M,M,59.00,KEKO 140556Z AUTO 07006KT 10SM CLR 15/06 A3013 RMK AO2 SLP159 T01500056 10267 20150 51014,M
WMC,2023-09-14 05:56,-117.8072,40.9019,1315.00,66.00,36.00,32.88,40.00,9.00,0.00,30.11,1015.10,10.00,M,CLR,M,M,M,M,M,M,M,M,M,M,M,M,M,M,66.00,KWMC 140556Z AUTO 04009KT 10SM CLR 19/02 A3011 RMK AO2 SLP151 T01890022 10283 20172 51017,M
NFL,2023-09-14 05:56,-118.7010,39.4166,1199.00,62.00,42.00,47.82,20.00,5.00,0.00,30.05,1014.30,10.00,M,CLR,M,M,M,M,M,M,M,M,M,M,M,M,M,M,62.00,KNFL 140556Z 02005KT 10SM CLR 17/06 A3005 RMK AO2 SLP143 T01670056 10306 20167 51015,M
HND,2023-09-14 05:56,-115.1344,35.9729,742.79,78.00,55.00,45.05,60.00,4.00,0.00,29.95,1013.10,10.00,M,CLR,M,M,M,M,M,M,M,M,M,M,M,M,M,M,78.00,KHND 140556Z AUTO 06004KT 10SM CLR 26/13 A2995 RMK AO2 LTG DSNT N SLP131 60002 T02560128 10322 20233 51023,M
LAS,2023-09-14 05:56,-115.1634,36.0719,663.00,81.00,51.00,35.25,90.00,8.00,0.00,29.91,1010.20,10.00,M,FEW,SCT,BKN,M,6000.00,13000.00,18000.00,M,M,M,M,M,M,M,M,80.22,KLAS 140556Z 09008KT 10SM FEW060 SCT130 BKN180 27/11 A2991 RMK AO2 LTG DSNT N AND NW SLP102 CB DSNT S-SW AND NW-N 60000 T02720106 10328 20272 51022 $,M
10U,2023-09-14 06:00,-116.1876,41.9532,1637.00,46.40,39.20,75.84,0.00,0.00,0.00,30.18,M,10.00,M,CLR,M,M,M,M,M,M,M,M,M,M,M,M,M,M,46.40,K10U 140600Z AUTO 00000KT 10SM CLR 08/04 A3018 RMK AO2,M
05U,2023-09-14 06:10,-116.0051,39.6042,1811.23,55.40,39.20,54.34,320.00,5.00,0.00,30.19,M,10.00,M,FEW,M,M,M,11000.00,M,M,M,M,M,M,M,M,M,M,55.40,K05U 140610Z AUTO 32005KT 10SM FEW110 13/04 A3019 RMK A01,M
MEV,2023-09-14 06:15,-119.7500,38.9963,1441.42,55.40,41.00,58.27,0.00,0.00,0.00,30.11,M,10.00,M,SCT,M,M,M,10000.00,M,M,M,M,M,M,M,M,M,M,55.40,KMEV 140615Z AUTO 00000KT 10SM SCT100 13/05 A3011 RMK AO2,M
BAM,2023-09-14 06:15,-116.8743,40.5990,1382.36,64.40,41.00,42.28,0.00,0.00,0.00,30.13,M,10.00,M,CLR,M,M,M,M,M,M,M,M,M,M,M,M,M,M,64.40,KBAM 140615Z AUTO 00000KT 10SM CLR 18/05 A3013 RMK AO1,M
HTH,2023-09-14 06:15,-118.6315,38.5448,1282.89,68.00,44.60,42.85,140.00,7.00,0.00,30.08,M,10.00,M,CLR,M,M,M,M,M,M,M,M,M,M,M,M,M,M,68.00,KHTH 140615Z AUTO 14007KT 10SM CLR 20/07 A3008 RMK A01,M
TMT,2023-09-14 06:15,-117.1971,39.4643,1749.34,47.00,42.00,82.65,210.00,5.00,0.00,30.19,M,M,M,CLR,M,M,M,M,M,M,M,M,M,M,M,M,M,M,44.21,KTMT 140615Z AUTO 21005KT CLR 08/06 A3019 RMK AO2 T00840056 PWINO,M
BVU,2023-09-14 06:15,-114.8611,35.9475,671.00,80.60,50.00,34.41,20.00,13.00,0.00,29.89,M,10.00,M,CLR,M,M,M,M,M,M,M,M,M,M,M,M,M,M,79.88,KBVU 140615Z AUTO 02013KT 10SM CLR 27/10 A2989 RMK AO2 LTG DSNT N AND E,M
CXP,2023-09-14 06:15,-119.7326,39.1923,1431.00,62.60,42.80,48.28,0.00,0.00,0.00,30.13,M,10.00,M,CLR,M,M,M,M,M,M,M,M,M,M,M,M,M,M,62.60,KCXP 140615Z AUTO 00000KT 10SM CLR 17/06 A3013 RMK AO2,M
RTS,2023-09-14 06:15,-119.8764,39.6682,1539.00,57.20,33.80,41.13,310.00,5.00,0.00,30.15,M,10.00,M,CLR,M,M,M,M,M,M,M,M,M,M,M,M,M,M,57.20,KRTS 140615Z AUTO 31005KT 10SM CLR 14/01 A3015 RMK AO2,M
10U,2023-09-14 06:20,-116.1876,41.9532,1637.00,46.40,39.20,75.84,170.00,4.00,0.00,30.19,M,10.00,M,CLR,M,M,M,M,M,M,M,M,M,M,M,M,M,M,44.24,K10U 140620Z AUTO 17004KT 10SM CLR 08/04 A3019 RMK AO2,M
05U,2023-09-14 06:30,-116.0051,39.6042,1811.23,51.80,37.40,57.77,0.00,0.00,0.00,30.20,M,10.00,M,CLR,M,M,M,M,M,M,M,M,M,M,M,M,M,M,51.80,K05U 140630Z AUTO 00000KT 10SM CLR 11/03 A3020 RMK A01,M
BVU,2023-09-14 06:35,-114.8611,35.9475,671.00,80.60,50.00,34.41,350.00,7.00,0.00,29.90,M,10.00,M,CLR,M,M,M,M,M,M,M,M,M,M,M,M,M,M,79.88,KBVU 140635Z AUTO 35007KT 10SM CLR 27/10 A2990 RMK AO2 LTG DSNT E,M
CXP,2023-09-14 06:35,-119.7326,39.1923,1431.00,62.60,42.80,48.28,0.00,0.00,0.00,30.13,M,10.00,M,CLR,M,M,M,M,M,M,M,M,M,M,M,M,M,M,62.60,KCXP 140635Z AUTO 00000KT 10SM CLR 17/06 A3013 RMK AO2,M
RTS,2023-09-14 06:35,-119.8764,39.6682,1539.00,59.00,33.80,38.56,0.00,0.00,0.00,30.16,M,10.00,M,CLR,M,M,M,M,M,M,M,M,M,M,M,M,M,M,59.00,KRTS 140635Z AUTO 00000KT 10SM CLR 15/01 A3016 RMK AO2,M
MEV,2023-09-14 06:35,-119.7500,38.9963,1441.42,55.40,41.00,58.27,90.00,5.00,0.00,30.12,M,10.00,M,SCT,M,M,M,11000.00,M,M,M,M,M,M,M,M,M,M,55.40,KMEV 140635Z AUTO 09005KT 10SM SCT110 13/05 A3012 RMK AO2,M
BAM,2023-09-14 06:35,-116.8743,40.5990,1382.36,64.40,41.00,42.28,0.00,0.00,0.00,30.14,M,10.00,M,CLR,M,M,M,M,M,M,M,M,M,M,M,M,M,M,64.40,KBAM 140635Z AUTO 00000KT 10SM CLR 18/05 A3014 RMK AO1,M
HTH,2023-09-14 06:35,-118.6315,38.5448,1282.89,66.20,48.20,52.25,100.00,9.00,0.00,30.08,M,10.00,M,CLR,M,M,M,M,M,M,M,M,M,M,M,M,M,M,66.20,KHTH 140635Z AUTO 10009KT 10SM CLR 19/09 A3008 RMK A01,M
10U,2023-09-14 06:35,-116.1876,41.9532,1637.00,48.20,39.20,70.88,180.00,3.00,0.00,30.19,M,10.00,M,CLR,M,M,M,M,M,M,M,M,M,M,M,M,M,M,47.21,K10U 140635Z AUTO 18003KT 10SM CLR 09/04 A3019 RMK AO2,M
TMT,2023-09-14 06:35,-117.1971,39.4643,1749.34,45.70,41.70,85.81,210.00,3.00,0.00,30.19,M,M,M,M,M,M,M,M,M,M,M,M,M,M,M,M,M,M,44.35,KTMT 140635Z AUTO 21003KT 08/05 A3019 RMK AO2 T00760054 PWINO,M
05U,2023-09-14 06:50,-116.0051,39.6042,1811.23,51.80,39.20,61.99,0.00,0.00,0.00,30.20,M,10.00,M,CLR,M,M,M,M,M,M,M,M,M,M,M,M,M,M,51.80,K05U 140650Z AUTO 00000KT 10SM CLR 11/04 A3020 RMK A01,M
P68,2023-09-14 06:53,-116.0056,39.6014,1993.00,53.00,39.00,58.85,0.00,0.00,0.00,30.18,1014.60,M,M,M,M,M,M,M,M,M,M,M,M,M,M,M,M,M,53.00,KP68 140653Z AUTO 00000KT 12/04 A3018 RMK AO1 SLP146 T01170039,M
DRA,2023-09-14 06:53,-116.0278,36.6206,1009.00,73.00,49.00,42.67,30.00,7.00,0.00,29.99,1010.80,10.00,M,CLR,M,M,M,M,M,M,M,M,M,M,M,M,M,M,73.00,KDRA 140653Z AUTO 03007KT 10SM CLR 23/09 A2999 RMK AO2 SLP108 T02280094,M
ELY,2023-09-14 06:53,-114.8453,39.2950,1909.00,49.00,45.00,86.00,150.00,3.00,0.00,30.21,1014.60,10.00,M,OVC,M,M,M,9500.00,M,M,M,M,M,M,M,M,M,M,48.12,KELY 140653Z AUTO 15003KT 10SM OVC095 09/07 A3021 RMK AO2 SLP146 T00940072,M
VGT,2023-09-14 06:53,-115.1933,36.2111,667.00,82.00,53.00,36.74,330.00,10.00,0.00,29.91,1011.90,10.00,M,CLR,M,M,M,M,M,M,M,M,M,M,M,M,M,M,81.10,KVGT 140653Z AUTO 33010KT 10SM CLR 28/12 A2991 RMK AO2 LTG DSNT NE SLP119 T02780117,M
LOL,2023-09-14 06:53,-118.5701,40.0684,1192.43,67.00,35.00,30.53,20.00,8.00,0.00,30.07,1014.50,10.00,M,CLR,M,M,M,M,M,M,M,M,M,M,M,M,M,M,67.00,KLOL 140653Z AUTO 02008KT 10SM CLR 19/02 A3007 RMK AO2 SLP145 T01940017,M
BVU,2023-09-14 06:55,-114.8611,35.9475,671.00,80.60,50.00,34.41,350.00,7.00,0.00,29.90,M,10.00,M,CLR,M,M,M,M,M,M,M,M,M,M,M,M,M,M,79.88,KBVU 140655Z AUTO 35007KT 10SM CLR 27/10 A2990 RMK AO2,M
CXP,2023-09-14 06:55,-119.7326,39.1923,1431.00,62.60,44.60,51.72,0.00,0.00,0.00,30.14,M,10.00,M,BKN,M,M,M,11000.00,M,M,M,M,M,M,M,M,M,M,62.60,KCXP 140655Z AUTO 00000KT 10SM BKN110 17/07 A3014 RMK AO2,M
RNO,2023-09-14 06:55,-119.7711,39.4839,1341.00,67.00,39.00,35.74,280.00,5.00,0.00,30.11,1014.60,10.00,M,FEW,M,M,M,10000.00,M,M,M,M,M,M,M,M,M,M,67.00,KRNO 140655Z 28005KT 10SM FEW100 19/04 A3011 RMK AO2 SLP146 T01940039,M
RTS,2023-09-14 06:55,-119.8764,39.6682,1539.00,57.20,33.80,41.13,260.00,4.00,0.00,30.16,M,10.00,M,CLR,M,M,M,M,M,M,M,M,M,M,M,M,M,M,57.20,KRTS 140655Z AUTO 26004KT 10SM CLR 14/01 A3016 RMK AO2,M
MEV,2023-09-14 06:55,-119.7500,38.9963,1441.42,55.40,42.80,62.46,0.00,0.00,0.00,30.12,M,10.00,M,FEW,M,M,M,11000.00,M,M,M,M,M,M,M,M,M,M,55.40,KMEV 140655Z AUTO 00000KT 10SM FEW110 13/06 A3012 RMK AO2,M
BAM,2023-09-14 06:55,-116.8743,40.5990,1382.36,62.60,41.00,45.04,270.00,3.00,0.00,30.14,M,10.00,M,CLR,M,M,M,M,M,M,M,M,M,M,M,M,M,M,62.60,KBAM 140655Z AUTO 27003KT 10SM CLR 17/05 A3014 RMK AO1,M
HTH,2023-09-14 06:55,-118.6315,38.5448,1282.89,66.20,50.00,55.88,M,6.00,0.00,30.09,M,10.00,M,CLR,M,M,M,M,M,M,M,M,M,M,M,M,M,M,66.20,KHTH 140655Z AUTO VRB06KT 10SM CLR 19/10 A3009 RMK A01,M
TMT,2023-09-14 06:55,-117.1971,39.4643,1749.34,46.80,42.00,83.28,220.00,4.00,0.00,30.20,M,M,M,CLR,M,M,M,M,M,M,M,M,M,M,M,M,M,M,44.70,KTMT 140655Z AUTO 22004KT CLR 08/06 A3020 RMK AO2 T00820055 PWINO,M
10U,2023-09-14 06:55,-116.1876,41.9532,1637.00,48.20,39.20,70.88,160.00,4.00,0.00,30.19,M,10.00,M,CLR,M,M,M,M,M,M,M,M,M,M,M,M,M,M,46.34,K10U 140655Z AUTO 16004KT 10SM CLR 09/04 A3019 RMK AO2,M
INS,2023-09-14 06:55,-115.6733,36.5872,955.00,75.70,48.40,38.11,0.00,0.00,0.00,29.99,1010.80,10.00,M,BKN,M,M,M,10000.00,M,M,M,M,M,M,M,M,M,M,75.70,KINS 140655Z AUTO 00000KT 10SM BKN100 24/09 A2999 RMK AO2 SLP108 T02430091 $,M
LSV,2023-09-14 06:55,-115.0343,36.2362,570.00,79.00,52.00,39.06,40.00,10.00,0.00,29.87,1009.00,10.00,M,CLR,M,M,M,M,M,M,M,M,M,M,M,M,M,M,79.00,KLSV 140655Z AUTO 04010KT 10SM CLR 26/11 A2987 RMK AO2 LTG DSNT N SLP090 T02620111 $,M
EKO,2023-09-14 06:56,-115.7860,40.8242,1367.00,54.00,41.00,61.32,0.00,0.00,0.00,30.14,1016.20,10.00,M,CLR,M,M,M,M,M,M,M,M,M,M,M,M,M,M,54.00,KEKO 140656Z AUTO 00000KT 10SM CLR 12/05 A3014 RMK AO2 SLP162 T01220050,M
WMC,2023-09-14 06:56,-117.8072,40.9019,1315.00,61.00,36.00,39.19,310.00,5.00,0.00,30.13,1016.00,10.00,M,CLR,M,M,M,M,M,M,M,M,M,M,M,M,M,M,61.00,KWMC 140656Z AUTO 31005KT 10SM CLR 16/02 A3013 RMK AO2 SLP160 T01610022,M
NFL,2023-09-14 06:56,-118.7010,39.4166,1199.00,61.00,41.00,47.66,350.00,7.00,0.00,30.06,1014.60,10.00,M,CLR,M,M,M,M,M,M,M,M,M,M,M,M,M,M,61.00,KNFL 140656Z AUTO 35007KT 10SM CLR 16/05 A3006 RMK AO2 SLP146 T01610050,M
HND,2023-09-14 06:56,-115.1344,35.9729,742.79,77.00,54.00,44.90,70.00,5.00,0.00,29.96,1013.30,10.00,M,FEW,M,M,M,10000.00,M,M,M,M,M,M,M,M,M,M,77.00,KHND 140656Z AUTO 07005KT 10SM FEW100 25/12 A2996 RMK AO2 SLP133 T02500122 403330217,M
LAS,2023-09-14 06:56,-115.1634,36.0719,663.00,81.00,51.00,35.25,80.00,7.00,0.00,29.92,1010.60,10.00,M,FEW,BKN,BKN,M,9000.00,15000.00,18000.00,M,M,M,M,M,M,M,M,80.22,KLAS 140656Z 08007KT 10SM FEW090 BKN150 BKN180 27/11 A2992 RMK AO2 LTG DSNT N AND NE SLP106 T02720106 $,M
05U,2023-09-14 07:10,-116.0051,39.6042,1811.23,50.00,37.40,61.76,310.00,4.00,0.00,30.21,M,10.00,M,CLR,M,M,M,M,M,M,M,M,M,M,M,M,M,M,50.00,K05U 140710Z AUTO 31004KT 10SM CLR 10/03 A3021 RMK A01,M
BVU,2023-09-14 07:15,-114.8611,35.9475,671.00,80.60,50.00,34.41,310.00,8.00,0.00,29.91,M,10.00,M,CLR,M,M,M,M,M,M,M,M,M,M,M,M,M,M,79.88,KBVU 140715Z AUTO 31008KT 10SM CLR 27/10 A2991 RMK AO2,M
CXP,2023-09-14 07:15,-119.7326,39.1923,1431.00,62.60,44.60,51.72,340.00,4.00,0.00,30.14,M,10.00,M,SCT,M,M,M,11000.00,M,M,M,M,M,M,M,M,M,M,62.60,KCXP 140715Z AUTO 34004KT 10SM SCT110 17/07 A3014 RMK AO2,M
RTS,2023-09-14 07:15,-119.8764,39.6682,1539.00,60.80,35.60,38.85,0.00,0.00,0.00,30.17,M,10.00,M,CLR,M,M,M,M,M,M,M,M,M,M,M,M,M,M,60.80,KRTS 140715Z AUTO 00000KT 10SM CLR 16/02 A3017 RMK AO2,M
MEV,2023-09-14 07:15,-119.7500,38.9963,1441.42,53.60,41.00,62.23,0.00,0.00,0.00,30.13,M,10.00,M,FEW,FEW,M,M,5500.00,11000.00,M,M,M,M,M,M,M,M,M,53.60,KMEV 140715Z AUTO 00000KT 10SM FEW055 FEW110 12/05 A3013 RMK AO2,M
HTH,2023-09-14 07:15,-118.6315,38.5448,1282.89,66.20,46.40,48.83,200.00,4.00,0.00,30.09,M,10.00,M,CLR,M,M,M,M,M,M,M,M,M,M,M,M,M,M,66.20,KHTH 140715Z AUTO 20004KT 10SM CLR 19/08 A3009 RMK A01,M
10U,2023-09-14 07:15,-116.1876,41.9532,1637.00,46.40,37.40,70.68,140.00,4.00,0.00,30.20,M,10.00,M,CLR,M,M,M,M,M,M,M,M,M,M,M,M,M,M,44.24,K10U 140715Z AUTO 14004KT 10SM CLR 08/03 A3020 RMK AO2,M
BAM,2023-09-14 07:15,-116.8743,40.5990,1382.36,60.80,41.00,48.00,0.00,0.00,0.00,30.15,M,10.00,M,CLR,M,M,M,M,M,M,M,M,M,M,M,M,M,M,60.80,KBAM 140715Z AUTO 00000KT 10SM CLR 16/05 A3015 RMK AO1,M
TMT,2023-09-14 07:15,-117.1971,39.4643,1749.34,46.80,42.00,83.28,250.00,4.00,0.00,30.20,M,M,M,CLR,M,M,M,M,M,M,M,M,M,M,M,M,M,M,44.70,KTMT 140715Z AUTO 25004KT CLR 08/06 A3020 RMK AO2 T00820055 PWINO,M
05U,2023-09-14 07:30,-116.0051,39.6042,1811.23,50.00,37.40,61.76,340.00,5.00,0.00,30.21,M,10.00,M,CLR,M,M,M,M,M,M,M,M,M,M,M,M,M,M,50.00,K05U 140730Z AUTO 34005KT 10SM CLR 10/03 A3021 RMK A01,M
BAM,2023-09-14 07:35,-116.8743,40.5990,1382.36,60.80,41.00,48.00,270.00,6.00,0.00,30.15,M,10.00,M,CLR,M,M,M,M,M,M,M,M,M,M,M,M,M,M,60.80,KBAM 140735Z AUTO 27006KT 10SM CLR 16/05 A3015 RMK AO1,M
TMT,2023-09-14 07:35,-117.1971,39.4643,1749.34,46.00,41.70,84.84,250.00,3.00,0.00,30.20,M,M,M,M,M,M,M,M,M,M,M,M,M,M,M,M,M,M,44.69,KTMT 140735Z AUTO 25003KT 08/05 A3020 RMK AO2 T00770054 PWINO,M
BVU,2023-09-14 07:35,-114.8611,35.9475,671.00,78.80,50.00,36.51,290.00,4.00,0.00,29.91,M,10.00,M,BKN,M,M,M,10000.00,M,M,M,M,M,M,M,M,M,M,78.80,KBVU 140735Z AUTO 29004KT 10SM BKN100 26/10 A2991 RMK AO2 LTG DSNT N AND NE,M
CXP,2023-09-14 07:35,-119.7326,39.1923,1431.00,62.60,42.80,48.28,0.00,0.00,0.00,30.15,M,10.00,M,CLR,M,M,M,M,M,M,M,M,M,M,M,M,M,M,62.60,KCXP 140735Z AUTO 00000KT 10SM CLR 17/06 A3015 RMK AO2,M
RTS,2023-09-14 07:35,-119.8764,39.6682,1539.00,59.00,35.60,41.42,0.00,0.00,0.00,30.17,M,10.00,M,CLR,M,M,M,M,M,M,M,M,M,M,M,M,M,M,59.00,KRTS 140735Z AUTO 00000KT 10SM CLR 15/02 A3017 RMK AO2,M
MEV,2023-09-14 07:35,-119.7500,38.9963,1441.42,51.80,41.00,66.48,0.00,0.00,0.00,30.13,M,10.00,M,FEW,SCT,M,M,5500.00,10000.00,M,M,M,M,M,M,M,M,M,51.80,KMEV 140735Z AUTO 00000KT 10SM FEW055 SCT100 11/05 A3013 RMK AO2,M
HTH,2023-09-14 07:35,-118.6315,38.5448,1282.89,64.40,46.40,51.98,150.00,3.00,0.00,30.09,M,10.00,M,CLR,M,M,M,M,M,M,M,M,M,M,M,M,M,M,64.40,KHTH 140735Z AUTO 15003KT 10SM CLR 18/08 A3009 RMK A01,M
10U,2023-09-14 07:40,-116.1876,41.9532,1637.00,44.60,37.40,75.68,140.00,4.00,0.00,30.19,M,10.00,M,CLR,M,M,M,M,M,M,M,M,M,M,M,M,M,M,42.13,K10U 140740Z AUTO 14004KT 10SM CLR 07/03 A3019 RMK AO2,M
05U,2023-09-14 07:50,-116.0051,39.6042,1811.23,48.20,37.40,66.05,340.00,6.00,0.00,30.21,M,10.00,M,CLR,M,M,M,M,M,M,M,M,M,M,M,M,M,M,45.04,K05U 140750Z AUTO 34006KT 10SM CLR 09/03 A3021 RMK A01,M
P68,2023-09-14 07:53,-116.0056,39.6014,1993.00,49.00,37.00,63.10,180.00,6.00,0.00,30.18,1015.10,M,M,M,M,M,M,M,M,M,M,M,M,M,M,M,M,M,46.00,KP68 140753Z AUTO 18006KT 09/03 A3018 RMK AO1 SLP151 T00940028 402720078,M
DRA,2023-09-14 07:53,-116.0278,36.6206,1009.00,73.00,49.00,42.67,20.00,10.00,0.00,29.99,1010.80,10.00,M,CLR,M,M,M,M,M,M,M,M,M,M,M,M,M,M,73.00,KDRA 140753Z AUTO 02010KT 10SM CLR 23/09 A2999 RMK AO2 SLP108 T02280094 403330178,M
ELY,2023-09-14 07:53,-114.8453,39.2950,1909.00,49.00,46.00,89.33,150.00,5.00,0.00,30.20,1014.80,10.00,M,CLR,M,M,M,M,M,M,M,M,M,M,M,M,M,M,46.58,KELY 140753Z AUTO 15005KT 10SM CLR 09/08 A3020 RMK AO2 SLP148 T00940078 402440056,M
VGT,2023-09-14 07:53,-115.1933,36.2111,667.00,82.00,53.00,36.74,280.00,9.00,0.00,29.91,1012.00,10.00,M,CLR,M,M,M,M,M,M,M,M,M,M,M,M,M,M,81.10,KVGT 140753Z AUTO 28009KT 10SM CLR 28/12 A2991 RMK AO2 LTG DSNT NE SLP120 T02780117 403390244,M
LOL,2023-09-14 07:53,-118.5701,40.0684,1192.43,63.00,36.00,36.52,80.00,7.00,0.00,30.09,1015.10,10.00,M,CLR,M,M,M,M,M,M,M,M,M,M,M,M,M,M,63.00,KLOL 140753Z AUTO 08007KT 10SM CLR 17/02 A3009 RMK AO2 SLP151 T01720022 402940078,M
BVU,2023-09-14 07:55,-114.8611,35.9475,671.00,78.80,50.00,36.51,300.00,7.00,0.00,29.92,M,10.00,M,OVC,M,M,M,10000.00,M,M,M,M,M,M,M,M,M,M,78.80,KBVU 140755Z AUTO 30007KT 10SM OVC100 26/10 A2992 RMK AO2 LTG DSNT N AND NE,M
CXP,2023-09-14 07:55,-119.7326,39.1923,1431.00,59.00,44.60,58.77,0.00,0.00,0.00,30.15,M,10.00,M,CLR,M,M,M,M,M,M,M,M,M,M,M,M,M,M,59.00,KCXP 140755Z AUTO 00000KT 10SM CLR 15/07 A3015 RMK AO2,M
RNO,2023-09-14 07:55,-119.7711,39.4839,1341.00,63.00,41.00,44.41,190.00,5.00,0.00,30.13,1015.10,10.00,M,CLR,M,M,M,M,M,M,M,M,M,M,M,M,M,M,63.00,KRNO 140755Z 19005KT 10SM CLR 17/05 A3013 RMK AO2 SLP151 T01720050 402940139,M
RTS,2023-09-14 07:55,-119.8764,39.6682,1539.00,55.40,35.60,47.16,0.00,0.00,0.00,30.18,M,10.00,M,CLR,M,M,M,M,M,M,M,M,M,M,M,M,M,M,55.40,KRTS 140755Z AUTO 00000KT 10SM CLR 13/02 A3018 RMK AO2,M
MEV,2023-09-14 07:55,-119.7500,38.9963,1441.42,51.80,42.80,71.26,0.00,0.00,0.00,30.13,M,10.00,M,BKN,M,M,M,10000.00,M,M,M,M,M,M,M,M,M,M,51.80,KMEV 140755Z AUTO 00000KT 10SM BKN100 11/06 A3013 RMK AO2,M
BAM,2023-09-14 07:55,-116.8743,40.5990,1382.36,62.60,41.00,45.04,310.00,5.00,0.00,30.15,M,10.00,M,CLR,M,M,M,M,M,M,M,M,M,M,M,M,M,M,62.60,KBAM 140755Z AUTO 31005KT 10SM CLR 17/05 A3015 RMK AO1,M
HTH,2023-09-14 07:55,-118.6315,38.5448,1282.89,60.80,48.20,63.15,140.00,7.00,0.00,30.10,M,10.00,M,CLR,M,M,M,M,M,M,M,M,M,M,M,M,M,M,60.80,KHTH 140755Z AUTO 14007KT 10SM CLR 16/09 A3010 RMK A01,M
TMT,2023-09-14 07:55,-117.1971,39.4643,1749.34,44.60,41.00,87.09,260.00,4.00,0.00,30.21,M,M,M,M,M,M,M,M,M,M,M,M,M,M,M,M,M,M,42.13,KTMT 140755Z AUTO 26004KT 07/05 A3021 RMK AO2 T00700050 402590042 PWINO,M
INS,2023-09-14 07:55,-115.6733,36.5872,955.00,70.00,49.00,47.24,270.00,6.00,0.00,29.99,1010.90,10.00,M,FEW,M,M,M,11000.00,M,M,M,M,M,M,M,M,M,M,70.00,KINS 140755Z AUTO 27006KT 10SM FEW110 21/09 A2999 RMK AO2 SLP109 T02120094 403260174 $,M
LSV,2023-09-14 07:55,-115.0343,36.2362,570.00,78.30,52.00,39.97,60.00,5.00,0.00,29.87,1009.00,10.00,M,FEW,SCT,M,M,9500.00,16000.00,M,M,M,M,M,M,M,M,M,78.30,KLSV 140755Z AUTO 06005KT 10SM FEW095 SCT160 26/11 A2987 RMK AO2 LTG DSNT NE SLP090 T02570111 403650234 $,M
EKO,2023-09-14 07:56,-115.7860,40.8242,1367.00,51.00,40.00,65.87,260.00,3.00,0.00,30.16,1016.90,10.00,M,CLR,M,M,M,M,M,M,M,M,M,M,M,M,M,M,51.00,KEKO 140756Z AUTO 26003KT 10SM CLR 11/04 A3016 RMK AO2 SLP169 T01060044 402890061,M
WMC,2023-09-14 07:56,-117.8072,40.9019,1315.00,60.00,35.00,39.03,M,3.00,0.00,30.13,1015.90,10.00,M,CLR,M,M,M,M,M,M,M,M,M,M,M,M,M,M,60.00,KWMC 140756Z AUTO VRB03KT 10SM CLR 16/02 A3013 RMK AO2 SLP159 T01560017 402940067,M
NFL,2023-09-14 07:56,-118.7010,39.4166,1199.00,59.00,41.00,51.18,180.00,3.00,0.00,30.07,1015.10,10.00,M,CLR,M,M,M,M,M,M,M,M,M,M,M,M,M,M,59.00,KNFL 140756Z AUTO 18003KT 10SM CLR 15/05 A3007 RMK AO2 SLP151 T01500050 403060117,M
HND,2023-09-14 07:56,-115.1344,35.9729,742.79,76.00,53.00,44.75,210.00,3.00,0.00,29.96,1013.30,10.00,M,CLR,M,M,M,M,M,M,M,M,M,M,M,M,M,M,76.00,KHND 140756Z AUTO 21003KT 10SM CLR 24/12 A2996 RMK AO2 LTG DSNT NE SLP133 T02440117,M
LAS,2023-09-14 07:56,-115.1634,36.0719,663.00,79.00,52.00,39.06,0.00,0.00,0.00,29.92,1010.60,10.00,M,FEW,BKN,BKN,M,9000.00,15000.00,18000.00,M,M,M,M,M,M,M,M,79.00,KLAS 140756Z 00000KT 10SM FEW090 BKN150 BKN180 26/11 A2992 RMK AO2 LTG DSNT NE SLP106 T02610111 403390244 $,M
10U,2023-09-14 08:00,-116.1876,41.9532,1637.00,44.60,37.40,75.68,140.00,3.00,0.00,30.19,M,10.00,M,CLR,M,M,M,M,M,M,M,M,M,M,M,M,M,M,43.09,K10U 140800Z AUTO 14003KT 10SM CLR 07/03 A3019 RMK AO2,M
05U,2023-09-14 08:10,-116.0051,39.6042,1811.23,48.20,37.40,66.05,350.00,5.00,0.00,30.21,M,10.00,M,CLR,M,M,M,M,M,M,M,M,M,M,M,M,M,M,45.63,K05U 140810Z AUTO 35005KT 10SM CLR 09/03 A3021 RMK A01,M
HTH,2023-09-14 08:10,-118.6315,38.5448,1282.89,60.80,46.40,59.01,130.00,5.00,0.00,30.10,M,10.00,M,CLR,M,M,M,M,M,M,M,M,M,M,M,M,M,M,60.80,KHTH 140810Z AUTO 13005KT 10SM CLR 16/08 A3010 RMK A01,M
BVU,2023-09-14 08:15,-114.8611,35.9475,671.00,77.00,51.80,41.42,310.00,6.00,0.00,29.92,M,10.00,M,OVC,M,M,M,11000.00,M,M,M,M,M,M,M,M,M,M,77.00,KBVU 140815Z AUTO 31006KT 10SM OVC110 25/11 A2992 RMK AO2 LTG DSNT NE,M
CXP,2023-09-14 08:15,-119.7326,39.1923,1431.00,59.00,44.60,58.77,0.00,0.00,0.00,30.15,M,10.00,M,FEW,M,M,M,10000.00,M,M,M,M,M,M,M,M,M,M,59.00,KCXP 140815Z AUTO 00000KT 10SM FEW100 15/07 A3015 RMK AO2,M
RTS,2023-09-14 08:15,-119.8764,39.6682,1539.00,57.20,35.60,44.19,0.00,0.00,0.00,30.18,M,10.00,M,CLR,M,M,M,M,M,M,M,M,M,M,M,M,M,M,57.20,KRTS 140815Z AUTO 00000KT 10SM CLR 14/02 A3018 RMK AO2,M
MEV,2023-09-14 08:15,-119.7500,38.9963,1441.42,51.80,41.00,66.48,0.00,0.00,0.00,30.14,M,10.00,M,BKN,M,M,M,11000.00,M,M,M,M,M,M,M,M,M,M,51.80,KMEV 140815Z AUTO 00000KT 10SM BKN110 11/05 A3014 RMK AO2,M
BAM,2023-09-14 08:15,-116.8743,40.5990,1382.36,60.80,41.00,48.00,340.00,8.00,0.00,30.15,M,10.00,M,CLR,M,M,M,M,M,M,M,M,M,M,M,M,M,M,60.80,KBAM 140815Z AUTO 34008KT 10SM CLR 16/05 A3015 RMK AO1,M
TMT,2023-09-14 08:15,-117.1971,39.4643,1749.34,44.00,41.00,89.11,0.00,0.00,0.00,30.22,M,M,M,M,M,M,M,M,M,M,M,M,M,M,M,M,M,M,44.00,KTMT 140815Z AUTO 00000KT 07/05 A3022 RMK AO2 T00660050 PWINO,M
10U,2023-09-14 08:20,-116.1876,41.9532,1637.00,42.80,37.40,81.07,160.00,5.00,0.00,30.20,M,10.00,M,CLR,M,M,M,M,M,M,M,M,M,M,M,M,M,M,39.22,K10U 140820Z AUTO 16005KT 10SM CLR 06/03 A3020 RMK AO2,M
05U,2023-09-14 08:30,-116.0051,39.6042,1811.23,48.20,37.40,66.05,0.00,0.00,0.00,30.21,M,10.00,M,CLR,M,M,M,M,M,M,M,M,M,M,M,M,M,M,48.20,K05U 140830Z AUTO 00000KT 10SM CLR 09/03 A3021 RMK A01,M
BVU,2023-09-14 08:35,-114.8611,35.9475,671.00,77.00,51.80,41.42,340.00,5.00,0.00,29.92,M,10.00,M,FEW,M,M,M,10000.00,M,M,M,M,M,M,M,M,M,M,77.00,KBVU 140835Z AUTO 34005KT 10SM FEW100 25/11 A2992 RMK AO2 LTG DSNT NE AND E,M
CXP,2023-09-14 08:35,-119.7326,39.1923,1431.00,57.20,44.60,62.69,0.00,0.00,0.00,30.16,M,10.00,M,FEW,M,M,M,10000.00,M,M,M,M,M,M,M,M,M,M,57.20,KCXP 140835Z AUTO 00000KT 10SM FEW100 14/07 A3016 RMK AO2,M
RTS,2023-09-14 08:35,-119.8764,39.6682,1539.00,57.20,33.80,41.13,290.00,3.00,0.00,30.18,M,10.00,M,CLR,M,M,M,M,M,M,M,M,M,M,M,M,M,M,57.20,KRTS 140835Z AUTO 29003KT 10SM CLR 14/01 A3018 RMK AO2,M
MEV,2023-09-14 08:35,-119.7500,38.9963,1441.42,50.00,41.00,71.07,0.00,0.00,0.00,30.15,M,10.00,M,BKN,M,M,M,11000.00,M,M,M,M,M,M,M,M,M,M,50.00,KMEV 140835Z AUTO 00000KT 10SM BKN110 10/05 A3015 RMK AO2,M
BAM,2023-09-14 08:35,-116.8743,40.5990,1382.36,59.00,41.00,51.18,0.00,0.00,0.00,30.16,M,10.00,M,CLR,M,M,M,M,M,M,M,M,M,M,M,M,M,M,59.00,KBAM 140835Z AUTO 00000KT 10SM CLR 15/05 A3016 RMK AO1,M
HTH,2023-09-14 08:35,-118.6315,38.5448,1282.89,62.60,46.40,55.37,0.00,0.00,0.00,30.10,M,10.00,M,CLR,M,M,M,M,M,M,M,M,M,M,M,M,M,M,62.60,KHTH 140835Z AUTO 00000KT 10SM CLR 17/08 A3010 RMK A01,M
10U,2023-09-14 08:35,-116.1876,41.9532,1637.00,44.60,37.40,75.68,170.00,5.00,0.00,30.20,M,10.00,M,CLR,M,M,M,M,M,M,M,M,M,M,M,M,M,M,41.36,K10U 140835Z AUTO 17005KT 10SM CLR 07/03 A3020 RMK AO2,M
TMT,2023-09-14 08:35,-117.1971,39.4643,1749.34,44.60,41.00,87.09,220.00,6.00,0.00,30.21,M,M,M,M,M,M,M,M,M,M,M,M,M,M,M,M,M,M,40.71,KTMT 140835Z AUTO 22006KT 07/05 A3021 RMK AO2 T00700049 PWINO,M
05U,2023-09-14 08:50,-116.0051,39.6042,1811.23,44.60,37.40,75.68,300.00,3.00,0.00,30.22,M,10.00,M,CLR,M,M,M,M,M,M,M,M,M,M,M,M,M,M,43.09,K05U 140850Z AUTO 30003KT 10SM CLR 07/03 A3022 RMK A01,M
P68,2023-09-14 08:53,-116.0056,39.6014,1993.00,46.00,38.00,73.47,150.00,4.00,0.00,30.19,1015.90,M,M,M,M,M,M,M,M,M,M,M,M,M,M,M,M,M,43.77,KP68 140853Z AUTO 15004KT 08/03 A3019 RMK AO1 SLP159 T00780033 51008,M
DRA,2023-09-14 08:53,-116.0278,36.6206,1009.00,70.00,50.00,49.03,80.00,4.00,0.00,29.98,1010.50,10.00,M,CLR,M,M,M,M,M,M,M,M,M,M,M,M,M,M,70.00,KDRA 140853Z AUTO 08004KT 10SM CLR 21/10 A2998 RMK AO2 SLP105 T02110100 58001,M
ELY,2023-09-14 08:53,-114.8453,39.2950,1909.00,49.00,46.00,89.33,170.00,4.00,0.00,30.20,1014.50,10.00,M,FEW,FEW,OVC,M,7000.00,8000.00,11000.00,M,M,M,M,M,M,M,M,47.27,KELY 140853Z AUTO 17004KT 10SM FEW070 FEW080 OVC110 09/08 A3020 RMK AO2 SLP145 T00940078 51002,M
VGT,2023-09-14 08:53,-115.1933,36.2111,667.00,81.00,52.00,36.58,260.00,4.00,0.00,29.92,1012.00,10.00,M,BKN,M,M,M,12000.00,M,M,M,M,M,M,M,M,M,M,80.34,KVGT 140853Z AUTO 26004KT 10SM BKN120 27/11 A2992 RMK AO2 LTG DSNT E SLP120 T02720111 51004,M
LOL,2023-09-14 08:53,-118.5701,40.0684,1192.43,60.00,36.00,40.61,70.00,9.00,0.00,30.10,1015.60,10.00,M,CLR,M,M,M,M,M,M,M,M,M,M,M,M,M,M,60.00,KLOL 140853Z AUTO 07009KT 10SM CLR 16/02 A3010 RMK AO2 SLP156 T01560022 53011,M
BVU,2023-09-14 08:55,-114.8611,35.9475,671.00,77.00,51.80,41.42,330.00,6.00,0.00,29.92,M,10.00,M,CLR,M,M,M,M,M,M,M,M,M,M,M,M,M,M,77.00,KBVU 140855Z AUTO 33006KT 10SM CLR 25/11 A2992 RMK AO2,M
CXP,2023-09-14 08:55,-119.7326,39.1923,1431.00,57.20,42.80,58.52,0.00,0.00,0.00,30.16,M,10.00,M,CLR,M,M,M,M,M,M,M,M,M,M,M,M,M,M,57.20,KCXP 140855Z AUTO 00000KT 10SM CLR 14/06 A3016 RMK AO2,M
RNO,2023-09-14 08:55,-119.7711,39.4839,1341.00,63.00,40.00,42.72,0.00,0.00,0.00,30.13,1015.10,10.00,M,CLR,M,M,M,M,M,M,M,M,M,M,M,M,M,M,63.00,KRNO 140855Z 00000KT 10SM CLR 17/04 A3013 RMK AO2 SLP151 T01720044 51012,M
RTS,2023-09-14 08:55,-119.8764,39.6682,1539.00,53.60,33.80,46.88,340.00,4.00,0.00,30.18,M,10.00,M,CLR,M,M,M,M,M,M,M,M,M,M,M,M,M,M,53.60,KRTS 140855Z AUTO 34004KT 10SM CLR 12/01 A3018 RMK AO2,M
MEV,2023-09-14 08:55,-119.7500,38.9963,1441.42,50.00,41.00,71.07,100.00,3.00,0.00,30.15,M,10.00,M,FEW,FEW,FEW,M,5000.00,6000.00,11000.00,M,M,M,M,M,M,M,M,50.00,KMEV 140855Z AUTO 10003KT 10SM FEW050 FEW060 FEW110 10/05 A3015 RMK AO2,M
HTH,2023-09-14 08:55,-118.6315,38.5448,1282.89,62.60,46.40,55.37,160.00,5.00,0.00,30.10,M,10.00,M,BKN,M,M,M,12000.00,M,M,M,M,M,M,M,M,M,M,62.60,KHTH 140855Z AUTO 16005KT 10SM BKN120 17/08 A3010 RMK A01,M
BAM,2023-09-14 08:55,-116.8743,40.5990,1382.36,59.00,41.00,51.18,0.00,0.00,0.00,30.16,M,10.00,M,CLR,M,M,M,M,M,M,M,M,M,M,M,M,M,M,59.00,KBAM 140855Z AUTO 00000KT 10SM CLR 15/05 A3016 RMK AO1,M
TMT,2023-09-14 08:55,-117.1971,39.4643,1749.34,41.00,38.70,91.44,160.00,3.00,0.00,30.22,M,M,M,M,M,M,M,M,M,M,M,M,M,M,M,M,M,M,38.98,KTMT 140855Z AUTO 16003KT 05/04 A3022 RMK AO2 T00490037 PWINO,M
10U,2023-09-14 08:55,-116.1876,41.9532,1637.00,44.60,37.40,75.68,170.00,8.00,0.00,30.20,M,10.00,M,CLR,M,M,M,M,M,M,M,M,M,M,M,M,M,M,39.63,K10U 140855Z AUTO 17008KT 10SM CLR 07/03 A3020 RMK AO2,M
INS,2023-09-14 08:55,-115.6733,36.5872,955.00,69.60,49.60,48.97,0.00,0.00,0.00,29.98,1010.60,10.00,M,CLR,M,M,M,M,M,M,M,M,M,M,M,M,M,M,69.60,KINS 140855Z AUTO 00000KT 10SM CLR 21/10 A2998 RMK AO2 SLP106 T02090098 58000 $,M
LSV,2023-09-14 08:55,-115.0343,36.2362,570.00,78.60,51.60,38.99,40.00,7.00,0.00,29.88,1009.30,10.00,M,FEW,M,M,M,13000.00,M,M,M,M,M,M,M,M,M,M,78.60,KLSV 140855Z AUTO 04007KT 10SM FEW130 26/11 A2988 RMK AO2 LTG DSNT NE SLP093 T02590109 53004 $,M
EKO,2023-09-14 08:56,-115.7860,40.8242,1367.00,50.00,40.00,68.37,0.00,0.00,0.00,30.16,1016.60,10.00,M,CLR,M,M,M,M,M,M,M,M,M,M,M,M,M,M,50.00,KEKO 140856Z AUTO 00000KT 10SM CLR 10/04 A3016 RMK AO2 SLP166 T01000044 51008,M
WMC,2023-09-14 08:56,-117.8072,40.9019,1315.00,58.00,35.00,41.92,360.00,4.00,0.00,30.14,1016.40,10.00,M,CLR,M,M,M,M,M,M,M,M,M,M,M,M,M,M,58.00,KWMC 140856Z AUTO 36004KT 10SM CLR 14/02 A3014 RMK AO2 SLP164 T01440017 51009,M
NFL,2023-09-14 08:56,-118.7010,39.4166,1199.00,58.00,40.00,51.03,70.00,3.00,0.00,30.08,1015.50,10.00,M,CLR,M,M,M,M,M,M,M,M,M,M,M,M,M,M,58.00,KNFL 140856Z AUTO 07003KT 10SM CLR 14/04 A3008 RMK AO2 SLP155 T01440044 53012,M
HND,2023-09-14 08:56,-115.1344,35.9729,742.79,73.00,54.00,51.33,160.00,3.00,0.00,29.96,1013.40,10.00,M,CLR,M,M,M,M,M,M,M,M,M,M,M,M,M,M,73.00,KHND 140856Z AUTO 16003KT 10SM CLR 23/12 A2996 RMK AO2 SLP134 T02280122 51003,M
LAS,2023-09-14 08:56,-115.1634,36.0719,663.00,79.00,52.00,39.06,170.00,3.00,0.00,29.92,1010.70,10.00,M,FEW,BKN,BKN,M,9000.00,14000.00,18000.00,M,M,M,M,M,M,M,M,79.00,KLAS 140856Z 17003KT 10SM FEW090 BKN140 BKN180 26/11 A2992 RMK AO2 LTG DSNT NE SLP107 ACC NE AND W T02610111 51005 $,M
05U,2023-09-14 09:10,-116.0051,39.6042,1811.23,46.40,37.40,70.68,0.00,0.00,0.00,30.21,M,10.00,M,CLR,M,M,M,M,M,M,M,M,M,M,M,M,M,M,46.40,K05U 140910Z AUTO 00000KT 10SM CLR 08/03 A3021 RMK A01,M
BVU,2023-09-14 09:15,-114.8611,35.9475,671.00,75.20,51.80,43.97,10.00,3.00,0.00,29.91,M,10.00,M,CLR,M,M,M,M,M,M,M,M,M,M,M,M,M,M,75.20,KBVU 140915Z AUTO 01003KT 10SM CLR 24/11 A2991 RMK AO2 LTG DSNT N AND NE,M
CXP,2023-09-14 09:15,-119.7326,39.1923,1431.00,55.40,42.80,62.46,0.00,0.00,0.00,30.16,M,10.00,M,CLR,M,M,M,M,M,M,M,M,M,M,M,M,M,M,55.40,KCXP 140915Z AUTO 00000KT 10SM CLR 13/06 A3016 RMK AO2,M
RTS,2023-09-14 09:15,-119.8764,39.6682,1539.00,53.60,33.80,46.88,340.00,6.00,0.00,30.18,M,10.00,M,CLR,M,M,M,M,M,M,M,M,M,M,M,M,M,M,53.60,KRTS 140915Z AUTO 34006KT 10SM CLR 12/01 A3018 RMK AO2,M
MEV,2023-09-14 09:15,-119.7500,38.9963,1441.42,50.00,41.00,71.07,0.00,0.00,0.00,30.15,M,10.00,M,FEW,FEW,M,M,5000.00,6000.00,M,M,M,M,M,M,M,M,M,50.00,KMEV 140915Z AUTO 00000KT 10SM FEW050 FEW060 10/05 A3015 RMK AO2,M
BAM,2023-09-14 09:15,-116.8743,40.5990,1382.36,55.40,41.00,58.27,0.00,0.00,0.00,30.16,M,10.00,M,CLR,M,M,M,M,M,M,M,M,M,M,M,M,M,M,55.40,KBAM 140915Z AUTO 00000KT 10SM CLR 13/05 A3016 RMK AO1,M
HTH,2023-09-14 09:15,-118.6315,38.5448,1282.89,62.60,48.20,59.26,0.00,0.00,0.00,30.10,M,10.00,M,SCT,M,M,M,11000.00,M,M,M,M,M,M,M,M,M,M,62.60,KHTH 140915Z AUTO 00000KT 10SM SCT110 17/09 A3010 RMK A01,M
10U,2023-09-14 09:15,-116.1876,41.9532,1637.00,44.60,37.40,75.68,170.00,8.00,0.00,30.20,M,10.00,M,CLR,M,M,M,M,M,M,M,M,M,M,M,M,M,M,39.63,K10U 140915Z AUTO 17008KT 10SM CLR 07/03 A3020 RMK AO2,M
TMT,2023-09-14 09:15,-117.1971,39.4643,1749.34,43.00,39.60,87.68,200.00,4.00,0.00,30.21,M,M,M,M,M,M,M,M,M,M,M,M,M,M,M,M,M,M,40.27,KTMT 140915Z AUTO 20004KT 06/04 A3021 RMK AO2 T00620042 PWINO,M
CXP,2023-09-14 09:30,-119.7326,39.1923,1431.00,55.40,42.80,62.46,0.00,0.00,0.00,30.16,M,10.00,M,CLR,M,M,M,M,M,M,M,M,M,M,M,M,M,M,55.40,KCXP 140930Z AUTO 00000KT 10SM CLR 13/06 A3016 RMK AO2,M
05U,2023-09-14 09:30,-116.0051,39.6042,1811.23,44.60,37.40,75.68,320.00,3.00,0.00,30.21,M,10.00,M,CLR,M,M,M,M,M,M,M,M,M,M,M,M,M,M,43.09,K05U 140930Z AUTO 32003KT 10SM CLR 07/03 A3021 RMK A01,M
BAM,2023-09-14 09:35,-116.8743,40.5990,1382.36,55.40,41.00,58.27,350.00,5.00,0.00,30.16,M,10.00,M,CLR,M,M,M,M,M,M,M,M,M,M,M,M,M,M,55.40,KBAM 140935Z AUTO 35005KT 10SM CLR 13/05 A3016 RMK AO1,M
TMT,2023-09-14 09:35,-117.1971,39.4643,1749.34,42.80,39.20,86.99,0.00,0.00,0.00,30.22,M,M,M,M,M,M,M,M,M,M,M,M,M,M,M,M,M,M,42.80,KTMT 140935Z AUTO 00000KT 06/04 A3022 RMK AO2 T00600040 PWINO,M
BVU,2023-09-14 09:35,-114.8611,35.9475,671.00,78.80,51.80,39.02,M,4.00,0.00,29.92,M,10.00,M,CLR,M,M,M,M,M,M,M,VCTS,M,M,M,M,M,M,78.80,KBVU 140935Z AUTO VRB04KT 10SM VCTS CLR 26/11 A2992 RMK AO2 LTG DSNT NE AND E,M
RTS,2023-09-14 09:35,-119.8764,39.6682,1539.00,53.60,33.80,46.88,360.00,5.00,0.00,30.18,M,10.00,M,CLR,M,M,M,M,M,M,M,M,M,M,M,M,M,M,53.60,KRTS 140935Z AUTO 36005KT 10SM CLR 12/01 A3018 RMK AO2,M
MEV,2023-09-14 09:35,-119.7500,38.9963,1441.42,48.20,41.00,76.01,80.00,4.00,0.00,30.15,M,10.00,M,SCT,M,M,M,5500.00,M,M,M,M,M,M,M,M,M,M,46.34,KMEV 140935Z AUTO 08004KT 10SM SCT055 09/05 A3015 RMK AO2,M
HTH,2023-09-14 09:35,-118.6315,38.5448,1282.89,60.80,48.20,63.15,0.00,0.00,0.00,30.10,M,10.00,M,CLR,M,M,M,M,M,M,M,M,M,M,M,M,M,M,60.80,KHTH 140935Z AUTO 00000KT 10SM CLR 16/09 A3010 RMK A01,M
10U,2023-09-14 09:40,-116.1876,41.9532,1637.00,44.60,37.40,75.68,150.00,6.00,0.00,30.20,M,10.00,M,CLR,M,M,M,M,M,M,M,M,M,M,M,M,M,M,40.71,K10U 140940Z AUTO 15006KT 10SM CLR 07/03 A3020 RMK AO2,M
05U,2023-09-14 09:50,-116.0051,39.6042,1811.23,46.40,37.40,70.68,340.00,5.00,0.00,30.21,M,10.00,M,CLR,M,M,M,M,M,M,M,M,M,M,M,M,M,M,43.50,K05U 140950Z AUTO 34005KT 10SM CLR 08/03 A3021 RMK A01,M
P68,2023-09-14 09:53,-116.0056,39.6014,1993.00,47.00,37.00,68.02,180.00,5.00,0.00,30.19,1015.30,M,M,M,M,M,M,M,M,M,M,M,M,M,M,M,M,M,44.21,KP68 140953Z AUTO 18005KT 08/03 A3019 RMK AO1 SLP153 T00830028,M
DRA,2023-09-14 09:53,-116.0278,36.6206,1009.00,70.00,49.00,47.24,10.00,3.00,0.00,29.98,1010.50,10.00,M,CLR,M,M,M,M,M,M,M,M,M,M,M,M,M,M,70.00,KDRA 140953Z AUTO 01003KT 10SM CLR 21/09 A2998 RMK AO2 SLP105 T02110094,M
ELY,2023-09-14 09:53,-114.8453,39.2950,1909.00,47.00,44.00,89.24,180.00,5.00,0.00,30.20,1014.40,10.00,M,FEW,M,M,M,12000.00,M,M,M,M,M,M,M,M,M,M,44.21,KELY 140953Z AUTO 18005KT 10SM FEW120 08/07 A3020 RMK AO2 SLP144 T00830067,M
VGT,2023-09-14 09:53,-115.1933,36.2111,667.00,77.00,55.00,46.57,90.00,5.00,0.00,29.93,1012.40,10.00,M,BKN,M,M,M,12000.00,M,M,M,M,M,M,M,M,M,M,77.00,KVGT 140953Z AUTO 09005KT 10SM BKN120 25/13 A2993 RMK AO2 LTG DSNT NE SLP124 T02500128,M
LOL,2023-09-14 09:53,-118.5701,40.0684,1192.43,61.00,36.00,39.19,10.00,8.00,0.00,30.09,1015.30,10.00,M,CLR,M,M,M,M,M,M,M,M,M,M,M,M,M,M,61.00,KLOL 140953Z AUTO 01008KT 10SM CLR 16/02 A3009 RMK AO2 SLP153 T01610022,M
BVU,2023-09-14 09:55,-114.8611,35.9475,671.00,78.80,53.60,41.69,40.00,10.00,0.00,29.91,M,10.00,M,SCT,M,M,M,11000.00,M,M,M,M,M,M,M,M,M,M,78.80,KBVU 140955Z AUTO 04010KT 10SM SCT110 26/12 A2991 RMK AO2,M
CXP,2023-09-14 09:55,-119.7326,39.1923,1431.00,55.40,42.80,62.46,0.00,0.00,0.00,30.16,M,10.00,M,CLR,M,M,M,M,M,M,M,M,M,M,M,M,M,M,55.40,KCXP 140955Z AUTO 00000KT 10SM CLR 13/06 A3016 RMK AO2,M
RNO,2023-09-14 09:55,-119.7711,39.4839,1341.00,62.00,39.00,42.56,270.00,3.00,0.00,30.14,1015.20,10.00,M,CLR,M,M,M,M,M,M,M,M,M,M,M,M,M,M,62.00,KRNO 140955Z 27003KT 10SM CLR 17/04 A3014 RMK AO2 SLP152 T01670039,M
RTS,2023-09-14 09:55,-119.8764,39.6682,1539.00,53.60,33.80,46.88,0.00,0.00,0.00,30.18,M,10.00,M,CLR,M,M,M,M,M,M,M,M,M,M,M,M,M,M,53.60,KRTS 140955Z AUTO 00000KT 10SM CLR 12/01 A3018 RMK AO2,M
MEV,2023-09-14 09:55,-119.7500,38.9963,1441.42,46.40,41.00,81.34,70.00,4.00,0.00,30.15,M,10.00,M,SCT,SCT,M,M,5500.00,9500.00,M,M,M,M,M,M,M,M,M,44.24,KMEV 140955Z AUTO 07004KT 10SM SCT055 SCT095 08/05 A3015 RMK AO2,M
HTH,2023-09-14 09:55,-118.6315,38.5448,1282.89,60.80,48.20,63.15,0.00,0.00,0.00,30.10,M,10.00,M,CLR,M,M,M,M,M,M,M,M,M,M,M,M,M,M,60.80,KHTH 140955Z AUTO 00000KT 10SM CLR 16/09 A3010 RMK A01,M
BAM,2023-09-14 09:55,-116.8743,40.5990,1382.36,55.40,41.00,58.27,340.00,8.00,0.00,30.16,M,10.00,M,CLR,M,M,M,M,M,M,M,M,M,M,M,M,M,M,55.40,KBAM 140955Z AUTO 34008KT 10SM CLR 13/05 A3016 RMK AO1,M
TMT,2023-09-14 09:55,-117.1971,39.4643,1749.34,43.00,39.40,87.00,240.00,3.00,0.00,30.21,M,M,M,M,M,M,M,M,M,M,M,M,M,M,M,M,M,M,41.26,KTMT 140955Z AUTO 24003KT 06/04 A3021 RMK AO2 T00610041 PWINO,M
10U,2023-09-14 09:55,-116.1876,41.9532,1637.00,44.60,37.40,75.68,160.00,6.00,0.00,30.20,M,10.00,M,CLR,M,M,M,M,M,M,M,M,M,M,M,M,M,M,40.71,K10U 140955Z AUTO 16006KT 10SM CLR 07/03 A3020 RMK AO2,M
INS,2023-09-14 09:55,-115.6733,36.5872,955.00,68.00,49.50,51.54,0.00,0.00,0.00,29.98,1010.60,10.00,M,CLR,M,M,M,M,M,M,M,M,M,M,M,M,M,M,68.00,KINS 140955Z AUTO 00000KT 10SM CLR 20/10 A2998 RMK AO2 SLP106 T01990097 $,M
LSV,2023-09-14 09:55,-115.0343,36.2362,570.00,77.50,54.00,44.16,20.00,7.00,0.00,29.89,1009.70,10.00,M,FEW,SCT,BKN,M,9000.00,13000.00,16000.00,M,VCTS,M,M,M,M,M,M,77.50,KLSV 140955Z AUTO 02007KT 10SM VCTS FEW090 SCT130 BKN160 25/12 A2989 RMK AO2 SLP097 T02530122 $,M
EKO,2023-09-14 09:56,-115.7860,40.8242,1367.00,48.00,39.00,70.85,0.00,0.00,0.00,30.17,1017.10,10.00,M,CLR,M,M,M,M,M,M,M,M,M,M,M,M,M,M,48.00,KEKO 140956Z AUTO 00000KT 10SM CLR 09/04 A3017 RMK AO2 SLP171 T00890039,M
WMC,2023-09-14 09:56,-117.8072,40.9019,1315.00,56.00,35.00,45.06,350.00,3.00,0.00,30.14,1016.40,10.00,M,CLR,M,M,M,M,M,M,M,M,M,M,M,M,M,M,56.00,KWMC 140956Z AUTO 35003KT 10SM CLR 13/02 A3014 RMK AO2 SLP164 T01330017,M
NFL,2023-09-14 09:56,-118.7010,39.4166,1199.00,55.00,40.00,56.88,200.00,5.00,0.00,30.09,1015.60,10.00,M,CLR,M,M,M,M,M,M,M,M,M,M,M,M,M,M,55.00,KNFL 140956Z AUTO 20005KT 10SM CLR 13/04 A3009 RMK AO2 SLP156 T01280044,M
HND,2023-09-14 09:56,-115.1344,35.9729,742.79,73.00,55.00,53.23,20.00,3.00,0.00,29.96,1013.50,10.00,M,OVC,M,M,M,10000.00,M,M,M,M,M,M,M,M,M,M,73.00,KHND 140956Z AUTO 02003KT 10SM OVC100 23/13 A2996 RMK AO2 LTG DSNT N SLP135 T02280128,M
LAS,2023-09-14 09:56,-115.1634,36.0719,663.00,78.00,53.00,41.88,0.00,0.00,0.00,29.93,1011.00,10.00,M,FEW,SCT,BKN,M,9000.00,14000.00,18000.00,M,M,M,M,M,M,M,M,78.00,KLAS 140956Z 00000KT 10SM FEW090 SCT140 BKN180 26/12 A2993 RMK AO2 LTG DSNT NE SLP110 ACC NE AND SW-W T02560117 $,M
05U,2023-09-14 10:10,-116.0051,39.6042,1811.23,46.40,37.40,70.68,10.00,5.00,0.00,30.21,M,10.00,M,CLR,M,M,M,M,M,M,M,M,M,M,M,M,M,M,43.50,K05U 141010Z AUTO 01005KT 10SM CLR 08/03 A3021 RMK A01,M
BVU,2023-09-14 10:15,-114.8611,35.9475,671.00,77.00,53.60,44.25,30.00,11.00,0.00,29.91,M,10.00,18.00,SCT,M,M,M,11000.00,M,M,M,M,M,M,M,M,M,M,77.00,KBVU 141015Z AUTO 03011G18KT 10SM SCT110 25/12 A2991 RMK AO2 LTG DSNT N AND NE,M
CXP,2023-09-14 10:15,-119.7326,39.1923,1431.00,55.40,42.80,62.46,0.00,0.00,0.00,30.16,M,10.00,M,CLR,M,M,M,M,M,M,M,M,M,M,M,M,M,M,55.40,KCXP 141015Z AUTO 00000KT 10SM CLR 13/06 A3016 RMK AO2,M
RTS,2023-09-14 10:15,-119.8764,39.6682,1539.00,53.60,32.00,43.61,340.00,5.00,0.00,30.19,M,10.00,M,CLR,M,M,M,M,M,M,M,M,M,M,M,M,M,M,53.60,KRTS 141015Z AUTO 34005KT 10SM CLR 12/00 A3019 RMK AO2,M
MEV,2023-09-14 10:15,-119.7500,38.9963,1441.42,46.40,41.00,81.34,110.00,5.00,0.00,30.15,M,10.00,M,FEW,FEW,M,M,6000.00,9500.00,M,M,M,M,M,M,M,M,M,43.50,KMEV 141015Z AUTO 11005KT 10SM FEW060 FEW095 08/05 A3015 RMK AO2,M
HTH,2023-09-14 10:15,-118.6315,38.5448,1282.89,57.20,48.20,71.83,0.00,0.00,0.00,30.11,M,10.00,M,SCT,M,M,M,10000.00,M,M,M,M,M,M,M,M,M,M,57.20,KHTH 141015Z AUTO 00000KT 10SM SCT100 14/09 A3011 RMK A01,M
10U,2023-09-14 10:15,-116.1876,41.9532,1637.00,42.80,37.40,81.07,150.00,7.00,0.00,30.20,M,10.00,M,CLR,M,M,M,M,M,M,M,M,M,M,M,M,M,M,37.94,K10U 141015Z AUTO 15007KT 10SM CLR 06/03 A3020 RMK AO2,M
BAM,2023-09-14 10:15,-116.8743,40.5990,1382.36,55.40,41.00,58.27,0.00,0.00,0.00,30.16,M,10.00,M,CLR,M,M,M,M,M,M,M,M,M,M,M,M,M,M,55.40,KBAM 141015Z AUTO 00000KT 10SM CLR 13/05 A3016 RMK AO1,M
TMT,2023-09-14 10:15,-117.1971,39.4643,1749.34,40.50,38.00,90.71,0.00,0.00,0.00,30.22,M,M,M,M,M,M,M,M,M,M,M,M,M,M,M,M,M,M,40.50,KTMT 141015Z AUTO 00000KT 05/03 A3022 RMK AO2 T00470034 PWINO,M
05U,2023-09-14 10:30,-116.0051,39.6042,1811.23,44.60,37.40,75.68,360.00,5.00,0.00,30.21,M,10.00,M,CLR,M,M,M,M,M,M,M,M,M,M,M,M,M,M,41.36,K05U 141030Z AUTO 36005KT 10SM CLR 07/03 A3021 RMK A01,M
BVU,2023-09-14 10:35,-114.8611,35.9475,671.00,77.00,53.60,44.25,20.00,6.00,0.00,29.92,M,10.00,M,CLR,M,M,M,M,M,M,M,M,M,M,M,M,M,M,77.00,KBVU 141035Z AUTO 02006KT 10SM CLR 25/12 A2992 RMK AO2,M
CXP,2023-09-14 10:35,-119.7326,39.1923,1431.00,55.40,42.80,62.46,0.00,0.00,0.00,30.17,M,10.00,M,CLR,M,M,M,M,M,M,M,M,M,M,M,M,M,M,55.40,KCXP 141035Z AUTO 00000KT 10SM CLR 13/06 A3017 RMK AO2,M
RTS,2023-09-14 10:35,-119.8764,39.6682,1539.00,51.80,32.00,46.59,360.00,7.00,0.00,30.19,M,10.00,M,CLR,M,M,M,M,M,M,M,M,M,M,M,M,M,M,51.80,KRTS 141035Z AUTO 36007KT 10SM CLR 11/00 A3019 RMK AO2,M
MEV,2023-09-14 10:35,-119.7500,38.9963,1441.42,46.40,39.20,75.84,0.00,0.00,0.00,30.15,M,10.00,M,CLR,M,M,M,M,M,M,M,M,M,M,M,M,M,M,46.40,KMEV 141035Z AUTO 00000KT 10SM CLR 08/04 A3015 RMK AO2,M
HTH,2023-09-14 10:35,-118.6315,38.5448,1282.89,57.20,50.00,76.82,0.00,0.00,0.00,30.12,M,10.00,M,BKN,M,M,M,11000.00,M,M,M,M,M,M,M,M,M,M,57.20,KHTH 141035Z AUTO 00000KT 10SM BKN110 14/10 A3012 RMK A01,M
BAM,2023-09-14 10:35,-116.8743,40.5990,1382.36,55.40,41.00,58.27,0.00,0.00,0.00,30.16,M,10.00,M,CLR,M,M,M,M,M,M,M,M,M,M,M,M,M,M,55.40,KBAM 141035Z AUTO 00000KT 10SM CLR 13/05 A3016 RMK AO1,M
TMT,2023-09-14 10:35,-117.1971,39.4643,1749.34,41.00,38.70,91.44,240.00,3.00,0.00,30.22,M,M,M,M,M,M,M,M,M,M,M,M,M,M,M,M,M,M,38.98,KTMT 141035Z AUTO 24003KT 05/04 A3022 RMK AO2 T00500037 PWINO,M
10U,2023-09-14 10:40,-116.1876,41.9532,1637.00,42.80,37.40,81.07,160.00,6.00,0.00,30.21,M,10.00,M,FEW,M,M,M,6000.00,M,M,M,M,M,M,M,M,M,M,38.54,K10U 141040Z AUTO 16006KT 10SM FEW060 06/03 A3021 RMK AO2,M
05U,2023-09-14 10:50,-116.0051,39.6042,1811.23,46.40,37.40,70.68,350.00,3.00,0.00,30.22,M,10.00,M,CLR,M,M,M,M,M,M,M,M,M,M,M,M,M,M,45.15,K05U 141050Z AUTO 35003KT 10SM CLR 08/03 A3022 RMK A01,M
HTH,2023-09-14 10:50,-118.6315,38.5448,1282.89,55.40,48.20,76.66,260.00,3.00,0.00,30.12,M,10.00,M,BKN,M,M,M,11000.00,M,M,M,M,M,M,M,M,M,M,55.40,KHTH 141050Z AUTO 26003KT 10SM BKN110 13/09 A3012 RMK A01,M
P68,2023-09-14 10:53,-116.0056,39.6014,1993.00,46.00,37.00,70.64,180.00,3.00,0.00,30.19,1015.90,M,M,M,M,M,M,M,M,M,M,M,M,M,M,M,M,M,44.69,KP68 141053Z AUTO 18003KT 08/03 A3019 RMK AO1 SLP159 T00780028,M
DRA,2023-09-14 10:53,-116.0278,36.6206,1009.00,71.00,49.00,45.66,60.00,6.00,0.00,29.99,1010.60,10.00,M,CLR,M,M,M,M,M,M,M,M,M,M,M,M,M,M,71.00,KDRA 141053Z AUTO 06006KT 10SM CLR 22/09 A2999 RMK AO2 SLP106 T02170094,M
ELY,2023-09-14 10:53,-114.8453,39.2950,1909.00,45.00,42.00,89.15,270.00,5.00,0.00,30.20,1015.10,10.00,M,CLR,M,M,M,M,M,M,M,M,M,M,M,M,M,M,41.83,KELY 141053Z AUTO 27005KT 10SM CLR 07/06 A3020 RMK AO2 SLP151 T00720056,M
VGT,2023-09-14 10:53,-115.1933,36.2111,667.00,78.00,55.00,45.05,0.00,0.00,0.00,29.93,1012.60,10.00,M,FEW,M,M,M,10000.00,M,M,M,M,M,M,M,M,M,M,78.00,KVGT 141053Z AUTO 00000KT 10SM FEW100 26/13 A2993 RMK AO2 LTG DSNT E SLP126 T02560128,M
LOL,2023-09-14 10:53,-118.5701,40.0684,1192.43,59.00,36.00,42.08,10.00,5.00,0.00,30.10,1015.70,10.00,M,CLR,M,M,M,M,M,M,M,M,M,M,M,M,M,M,59.00,KLOL 141053Z AUTO 01005KT 10SM CLR 15/02 A3010 RMK AO2 SLP157 T01500022,M
BVU,2023-09-14 10:55,-114.8611,35.9475,671.00,77.00,53.60,44.25,360.00,6.00,0.00,29.93,M,10.00,M,CLR,M,M,M,M,M,M,M,VCTS,M,M,M,M,M,M,77.00,KBVU 141055Z AUTO 36006KT 10SM VCTS CLR 25/12 A2993 RMK AO2 LTG DSNT N-E,M
CXP,2023-09-14 10:55,-119.7326,39.1923,1431.00,53.60,42.80,66.70,0.00,0.00,0.00,30.17,M,10.00,M,CLR,M,M,M,M,M,M,M,M,M,M,M,M,M,M,53.60,KCXP 141055Z AUTO 00000KT 10SM CLR 12/06 A3017 RMK AO2,M
RNO,2023-09-14 10:55,-119.7711,39.4839,1341.00,60.00,39.00,45.69,290.00,4.00,0.00,30.14,1015.60,10.00,M,CLR,M,M,M,M,M,M,M,M,M,M,M,M,M,M,60.00,KRNO 141055Z 29004KT 10SM CLR 16/04 A3014 RMK AO2 SLP156 T01560039,M
RTS,2023-09-14 10:55,-119.8764,39.6682,1539.00,50.00,32.00,49.81,310.00,5.00,0.00,30.19,M,10.00,M,CLR,M,M,M,M,M,M,M,M,M,M,M,M,M,M,50.00,KRTS 141055Z AUTO 31005KT 10SM CLR 10/00 A3019 RMK AO2,M
MEV,2023-09-14 10:55,-119.7500,38.9963,1441.42,46.40,39.20,75.84,0.00,0.00,0.00,30.16,M,10.00,M,CLR,M,M,M,M,M,M,M,M,M,M,M,M,M,M,46.40,KMEV 141055Z AUTO 00000KT 10SM CLR 08/04 A3016 RMK AO2,M
BAM,2023-09-14 10:55,-116.8743,40.5990,1382.36,50.00,41.00,71.07,60.00,3.00,0.00,30.17,M,10.00,M,CLR,M,M,M,M,M,M,M,M,M,M,M,M,M,M,50.00,KBAM 141055Z AUTO 06003KT 10SM CLR 10/05 A3017 RMK AO1,M
TMT,2023-09-14 10:55,-117.1971,39.4643,1749.34,39.40,37.20,91.74,0.00,0.00,0.00,30.22,M,M,M,M,M,M,M,M,M,M,M,M,M,M,M,M,M,M,39.40,KTMT 141055Z AUTO 00000KT 04/03 A3022 RMK AO2 T00410029 PWINO,M
INS,2023-09-14 10:55,-115.6733,36.5872,955.00,67.50,49.30,52.05,0.00,0.00,0.00,29.99,1010.90,10.00,M,CLR,M,M,M,M,M,M,M,M,M,M,M,M,M,M,67.50,KINS 141055Z AUTO 00000KT 10SM CLR 20/10 A2999 RMK AO2 SLP109 T01970096 $,M
LSV,2023-09-14 10:55,-115.0343,36.2362,570.00,77.00,54.70,46.06,20.00,7.00,0.00,29.89,1009.60,10.00,M,FEW,M,M,M,12000.00,M,M,M,M,M,M,M,M,M,M,77.00,KLSV 141055Z AUTO 02007KT 10SM FEW120 25/13 A2989 RMK AO2 LTG DSNT NE-E AND W SLP096 T02500126 $,M
EKO,2023-09-14 10:56,-115.7860,40.8242,1367.00,50.00,39.00,65.75,70.00,3.00,0.00,30.18,1017.30,10.00,M,CLR,M,M,M,M,M,M,M,M,M,M,M,M,M,M,50.00,KEKO 141056Z AUTO 07003KT 10SM CLR 10/04 A3018 RMK AO2 SLP173 T01000039,M
WMC,2023-09-14 10:56,-117.8072,40.9019,1315.00,50.00,35.00,56.16,0.00,0.00,0.00,30.15,1017.10,10.00,M,CLR,M,M,M,M,M,M,M,M,M,M,M,M,M,M,50.00,KWMC 141056Z AUTO 00000KT 10SM CLR 10/02 A3015 RMK AO2 SLP171 T01000017,M
NFL,2023-09-14 10:56,-118.7010,39.4166,1199.00,55.00,39.00,54.70,280.00,4.00,0.00,30.10,1015.90,10.00,M,CLR,M,M,M,M,M,M,M,M,M,M,M,M,M,M,55.00,KNFL 141056Z AUTO 28004KT 10SM CLR 13/04 A3010 RMK AO2 SLP159 T01280039,M
HND,2023-09-14 10:56,-115.1344,35.9729,742.79,72.00,55.00,55.06,180.00,3.00,0.00,29.97,1013.80,10.00,M,BKN,M,M,M,10000.00,M,M,M,M,M,M,M,M,M,M,72.00,KHND 141056Z AUTO 18003KT 10SM BKN100 22/13 A2997 RMK AO2 LTG DSNT NE SLP138 T02220128,M
LAS,2023-09-14 10:56,-115.1634,36.0719,663.00,78.00,53.00,41.88,340.00,3.00,0.00,29.93,1011.10,10.00,M,BKN,BKN,M,M,11000.00,18000.00,M,M,M,M,M,M,M,M,M,78.00,KLAS 141056Z 34003KT 10SM BKN110 BKN180 26/12 A2993 RMK AO2 LTG DSNT NE AND E SLP111 T02560117 $,M
10U,2023-09-14 11:00,-116.1876,41.9532,1637.00,42.80,37.40,81.07,190.00,6.00,0.00,30.21,M,10.00,M,SCT,M,M,M,6000.00,M,M,M,M,M,M,M,M,M,M,38.54,K10U 141100Z AUTO 19006KT 10SM SCT060 06/03 A3021 RMK AO2,M
05U,2023-09-14 11:10,-116.0051,39.6042,1811.23,42.80,35.60,75.50,0.00,0.00,0.00,30.22,M,10.00,M,CLR,M,M,M,M,M,M,M,M,M,M,M,M,M,M,42.80,K05U 141110Z AUTO 00000KT 10SM CLR 06/02 A3022 RMK A01,M
BVU,2023-09-14 11:15,-114.8611,35.9475,671.00,77.00,51.80,41.42,360.00,9.00,0.00,29.94,M,10.00,M,SCT,BKN,M,M,10000.00,12000.00,M,M,VCTS,M,M,M,M,M,M,77.00,KBVU 141115Z AUTO 36009KT 10SM VCTS SCT100 BKN120 25/11 A2994 RMK AO2 LTG DSNT N AND NE,M
CXP,2023-09-14 11:15,-119.7326,39.1923,1431.00,53.60,42.80,66.70,0.00,0.00,0.00,30.17,M,10.00,M,CLR,M,M,M,M,M,M,M,M,M,M,M,M,M,M,53.60,KCXP 141115Z AUTO 00000KT 10SM CLR 12/06 A3017 RMK AO2,M
RTS,2023-09-14 11:15,-119.8764,39.6682,1539.00,48.20,32.00,53.27,10.00,6.00,0.00,30.19,M,10.00,M,CLR,M,M,M,M,M,M,M,M,M,M,M,M,M,M,45.04,KRTS 141115Z AUTO 01006KT 10SM CLR 09/00 A3019 RMK AO2,M
MEV,2023-09-14 11:15,-119.7500,38.9963,1441.42,48.20,41.00,76.01,0.00,0.00,0.00,30.16,M,10.00,M,FEW,M,M,M,5500.00,M,M,M,M,M,M,M,M,M,M,48.20,KMEV 141115Z AUTO 00000KT 10SM FEW055 09/05 A3016 RMK AO2,M
HTH,2023-09-14 11:15,-118.6315,38.5448,1282.89,57.20,48.20,71.83,0.00,0.00,0.00,30.12,M,10.00,M,FEW,M,M,M,11000.00,M,M,M,M,M,M,M,M,M,M,57.20,KHTH 141115Z AUTO 00000KT 10SM FEW110 14/09 A3012 RMK A01,M
BAM,2023-09-14 11:15,-116.8743,40.5990,1382.36,50.00,41.00,71.07,0.00,0.00,0.00,30.17,M,10.00,M,CLR,M,M,M,M,M,M,M,M,M,M,M,M,M,M,50.00,KBAM 141115Z AUTO 00000KT 10SM CLR 10/05 A3017 RMK AO1,M
TMT,2023-09-14 11:15,-117.1971,39.4643,1749.34,39.60,37.80,93.20,0.00,0.00,0.00,30.22,M,M,M,M,M,M,M,M,M,M,M,M,M,M,M,M,M,M,39.60,KTMT 141115Z AUTO 00000KT 04/03 A3022 RMK AO2 T00420032 PWINO,M
10U,2023-09-14 11:20,-116.1876,41.9532,1637.00,42.80,37.40,81.07,160.00,7.00,0.00,30.21,M,10.00,M,FEW,M,M,M,6000.00,M,M,M,M,M,M,M,M,M,M,37.94,K10U 141120Z AUTO 16007KT 10SM FEW060 06/03 A3021 RMK AO2,M
05U,2023-09-14 11:30,-116.0051,39.6042,1811.23,42.80,35.60,75.50,20.00,4.00,0.00,30.22,M,10.00,M,CLR,M,M,M,M,M,M,M,M,M,M,M,M,M,M,40.03,K05U 141130Z AUTO 02004KT 10SM CLR 06/02 A3022 RMK A01,M
BVU,2023-09-14 11:35,-114.8611,35.9475,671.00,77.00,53.60,44.25,40.00,11.00,0.00,29.94,M,10.00,M,SCT,BKN,M,M,10000.00,12000.00,M,M,M,M,M,M,M,M,M,77.00,KBVU 141135Z AUTO 04011KT 10SM SCT100 BKN120 25/12 A2994 RMK AO2,M
CXP,2023-09-14 11:35,-119.7326,39.1923,1431.00,51.80,42.80,71.26,0.00,0.00,0.00,30.17,M,10.00,M,CLR,M,M,M,M,M,M,M,M,M,M,M,M,M,M,51.80,KCXP 141135Z AUTO 00000KT 10SM CLR 11/06 A3017 RMK AO2,M
RTS,2023-09-14 11:35,-119.8764,39.6682,1539.00,50.00,32.00,49.81,330.00,4.00,0.00,30.19,M,10.00,M,CLR,M,M,M,M,M,M,M,M,M,M,M,M,M,M,50.00,KRTS 141135Z AUTO 33004KT 10SM CLR 10/M00 A3019 RMK AO2,M
MEV,2023-09-14 11:35,-119.7500,38.9963,1441.42,42.80,37.40,81.07,130.00,3.00,0.00,30.16,M,10.00,M,FEW,FEW,M,M,5500.00,6500.00,M,M,M,M,M,M,M,M,M,41.03,KMEV 141135Z AUTO 13003KT 10SM FEW055 FEW065 06/03 A3016 RMK AO2,M
HTH,2023-09-14 11:35,-118.6315,38.5448,1282.89,57.20,50.00,76.82,0.00,0.00,0.00,30.12,M,10.00,M,FEW,M,M,M,11000.00,M,M,M,M,M,M,M,M,M,M,57.20,KHTH 141135Z AUTO 00000KT 10SM FEW110 14/10 A3012 RMK A01,M
BAM,2023-09-14 11:35,-116.8743,40.5990,1382.36,51.80,41.00,66.48,0.00,0.00,0.00,30.17,M,10.00,M,CLR,M,M,M,M,M,M,M,M,M,M,M,M,M,M,51.80,KBAM 141135Z AUTO 00000KT 10SM CLR 11/05 A3017 RMK AO1,M
10U,2023-09-14 11:35,-116.1876,41.9532,1637.00,41.00,37.40,86.89,170.00,6.00,0.00,30.21,M,10.00,M,CLR,M,M,M,M,M,M,M,M,M,M,M,M,M,M,36.37,K10U 141135Z AUTO 17006KT 10SM CLR 05/03 A3021 RMK AO2,M
TMT,2023-09-14 11:35,-117.1971,39.4643,1749.34,39.00,37.00,92.45,250.00,3.00,0.00,30.22,M,M,M,M,M,M,M,M,M,M,M,M,M,M,M,M,M,M,36.69,KTMT 141135Z AUTO 25003KT 04/03 A3022 RMK AO2 T00380027 PWINO,M
05U,2023-09-14 11:50,-116.0051,39.6042,1811.23,42.80,35.60,75.50,0.00,0.00,0.00,30.22,M,10.00,M,CLR,M,M,M,M,M,M,M,M,M,M,M,M,M,M,42.80,K05U 141150Z AUTO 00000KT 10SM CLR 06/02 A3022 RMK A01,M
P68,2023-09-14 11:53,-116.0056,39.6014,1993.00,42.00,36.00,79.11,210.00,3.00,0.00,30.20,1017.20,M,M,M,M,M,M,M,M,M,M,M,M,M,M,M,M,M,40.12,KP68 141153Z AUTO 21003KT 06/02 A3020 RMK AO1 SLP172 T00560022 10133 20056 53002,M
DRA,2023-09-14 11:53,-116.0278,36.6206,1009.00,69.00,51.00,52.66,0.00,0.00,0.00,30.00,1011.10,10.00,M,CLR,M,M,M,M,M,M,M,M,M,M,M,M,M,M,69.00,KDRA 141153Z AUTO 00000KT 10SM CLR 21/11 A3000 RMK AO2 SLP111 T02060106 10233 20194 53005,M
ELY,2023-09-14 11:53,-114.8453,39.2950,1909.00,44.00,41.00,89.11,170.00,7.00,0.00,30.21,1015.40,10.00,M,CLR,M,M,M,M,M,M,M,M,M,M,M,M,M,M,39.41,KELY 141153Z AUTO 17007KT 10SM CLR 07/05 A3021 RMK AO2 SLP154 70008 T00670050 10106 20061 53001,M
VGT,2023-09-14 11:53,-115.1933,36.2111,667.00,78.00,55.00,45.05,270.00,4.00,0.00,29.94,1012.90,10.00,M,CLR,M,M,M,M,M,M,M,M,M,M,M,M,M,M,78.00,KVGT 141153Z AUTO 27004KT 10SM CLR 26/13 A2994 RMK AO2 SLP129 T02560128 10283 20244 52008,M
LOL,2023-09-14 11:53,-118.5701,40.0684,1192.43,59.00,35.00,40.45,0.00,0.00,0.00,30.11,1016.20,10.00,M,CLR,M,M,M,M,M,M,M,M,M,M,M,M,M,M,59.00,KLOL 141153Z AUTO 00000KT 10SM CLR 15/02 A3011 RMK AO2 SLP162 T01500017 10194 20117 53004,M
BVU,2023-09-14 11:55,-114.8611,35.9475,671.00,75.20,53.60,46.98,30.00,9.00,0.00,29.93,M,10.00,M,BKN,M,M,M,10000.00,M,M,M,M,M,M,M,M,M,M,75.20,KBVU 141155Z AUTO 03009KT 10SM BKN100 24/12 A2993 RMK AO2,M
CXP,2023-09-14 11:55,-119.7326,39.1923,1431.00,50.00,42.80,76.18,0.00,0.00,0.00,30.18,M,10.00,M,CLR,M,M,M,M,M,M,M,M,M,M,M,M,M,M,50.00,KCXP 141155Z AUTO 00000KT 10SM CLR 10/06 A3018 RMK AO2,M
RNO,2023-09-14 11:55,-119.7711,39.4839,1341.00,57.00,41.00,54.99,0.00,0.00,0.00,30.15,1016.10,10.00,M,CLR,M,M,M,M,M,M,M,M,M,M,M,M,M,M,57.00,KRNO 141155Z 00000KT 10SM CLR 14/05 A3015 RMK AO2 SLP161 T01390050 10206 20139 53006,M
RTS,2023-09-14 11:55,-119.8764,39.6682,1539.00,46.40,32.00,57.00,0.00,0.00,0.00,30.19,M,10.00,M,CLR,M,M,M,M,M,M,M,M,M,M,M,M,M,M,46.40,KRTS 141155Z AUTO 00000KT 10SM CLR 08/M00 A3019 RMK AO2,M
MEV,2023-09-14 11:55,-119.7500,38.9963,1441.42,42.80,39.20,86.99,90.00,4.00,0.00,30.17,M,10.00,M,CLR,M,M,M,M,M,M,M,M,M,M,M,M,M,M,40.03,KMEV 141155Z AUTO 09004KT 10SM CLR 06/04 A3017 RMK AO2,M
HTH,2023-09-14 11:55,-118.6315,38.5448,1282.89,59.00,48.20,67.33,0.00,0.00,0.00,30.12,M,10.00,M,SCT,M,M,M,11000.00,M,M,M,M,M,M,M,M,M,M,59.00,KHTH 141155Z AUTO 00000KT 10SM SCT110 15/09 A3012 RMK A01,M
BAM,2023-09-14 11:55,-116.8743,40.5990,1382.36,53.60,39.20,58.02,360.00,3.00,0.00,30.18,M,10.00,M,CLR,M,M,M,M,M,M,M,M,M,M,M,M,M,M,53.60,KBAM 141155Z AUTO 36003KT 10SM CLR 12/04 A3018 RMK AO1,M
INS,2023-09-14 11:55,-115.6733,36.5872,955.00,66.40,49.60,54.68,0.00,0.00,0.00,30.00,1011.40,10.00,M,FEW,M,M,M,10000.00,M,M,M,M,M,M,M,M,M,M,66.40,KINS 141155Z AUTO 00000KT 10SM FEW100 19/10 A3000 RMK AO2 SLP114 T01910098 10245 20188 53006 $,M
LSV,2023-09-14 11:55,-115.0343,36.2362,570.00,74.50,56.70,53.83,60.00,12.00,0.00,29.90,1010.10,10.00,M,CLR,M,M,M,M,M,M,M,M,M,M,M,M,M,M,74.50,KLSV 141155Z AUTO 06012KT 10SM CLR 24/14 A2990 RMK AO2 SLP101 T02360137 10277 20235 52006 $,M
EKO,2023-09-14 11:56,-115.7860,40.8242,1367.00,46.00,38.00,73.47,0.00,0.00,0.00,30.18,1018.00,10.00,M,CLR,M,M,M,M,M,M,M,M,M,M,M,M,M,M,46.00,KEKO 141156Z AUTO 00000KT 10SM CLR 08/03 A3018 RMK AO2 SLP180 T00780033 10150 20067 52005,M
WMC,2023-09-14 11:56,-117.8072,40.9019,1315.00,54.00,36.00,50.42,340.00,3.00,0.00,30.16,1017.00,10.00,M,CLR,M,M,M,M,M,M,M,M,M,M,M,M,M,M,54.00,KWMC 141156Z AUTO 34003KT 10SM CLR 12/02 A3016 RMK AO2 SLP170 T01220022 10189 20094 53004,M
HND,2023-09-14 11:56,-115.1344,35.9729,742.79,72.00,56.00,57.10,50.00,3.00,0.00,29.98,1014.20,10.00,M,BKN,M,M,M,10000.00,M,M,M,M,M,M,M,M,M,M,72.00,KHND 141156Z AUTO 05003KT 10SM BKN100 22/13 A2998 RMK AO2 SLP142 70002 T02220133 10256 20217 53007,M
LAS,2023-09-14 11:56,-115.1634,36.0719,663.00,77.00,54.00,44.90,70.00,8.00,0.00,29.95,1011.60,10.00,M,SCT,BKN,M,M,10000.00,16000.00,M,M,M,M,M,M,M,M,M,77.00,KLAS 141156Z 07008KT 10SM SCT100 BKN160 25/12 A2995 RMK AO2 SLP116 ACC NE-SE T02500122 10272 20250 53008 $,M
NFL,2023-09-14 11:56,-118.7010,39.4166,1199.00,57.00,38.00,48.93,280.00,5.00,0.00,30.11,1016.20,10.00,M,CLR,M,M,M,M,M,M,M,M,M,M,M,M,M,M,57.00,KNFL 141156Z AUTO 28005KT 10SM CLR 14/03 A3011 RMK AO2 SLP162 T01390033 10172 20122 53007,M
10U,2023-09-14 12:00,-116.1876,41.9532,1637.00,41.00,37.40,86.89,150.00,7.00,0.00,30.21,M,10.00,M,CLR,M,M,M,M,M,M,M,M,M,M,M,M,M,M,35.75,K10U 141200Z AUTO 15007KT 10SM CLR 05/03 A3021 RMK AO2,M
05U,2023-09-14 12:10,-116.0051,39.6042,1811.23,42.80,35.60,75.50,10.00,4.00,0.00,30.22,M,10.00,M,CLR,M,M,M,M,M,M,M,M,M,M,M,M,M,M,40.03,K05U 141210Z AUTO 01004KT 10SM CLR 06/02 A3022 RMK A01,M
BVU,2023-09-14 12:15,-114.8611,35.9475,671.00,75.20,53.60,46.98,320.00,8.00,0.00,29.93,M,10.00,M,BKN,M,M,M,11000.00,M,M,M,M,M,M,M,M,M,M,75.20,KBVU 141215Z AUTO 32008KT 10SM BKN110 24/12 A2993 RMK AO2,M
CXP,2023-09-14 12:15,-119.7326,39.1923,1431.00,50.00,42.80,76.18,0.00,0.00,0.00,30.18,M,10.00,M,CLR,M,M,M,M,M,M,M,M,M,M,M,M,M,M,50.00,KCXP 141215Z AUTO 00000KT 10SM CLR 10/06 A3018 RMK AO2,M
RTS,2023-09-14 12:15,-119.8764,39.6682,1539.00,50.00,32.00,49.81,310.00,4.00,0.00,30.19,M,10.00,M,CLR,M,M,M,M,M,M,M,M,M,M,M,M,M,M,50.00,KRTS 141215Z AUTO 31004KT 10SM CLR 10/M00 A3019 RMK AO2,M
MEV,2023-09-14 12:15,-119.7500,38.9963,1441.42,44.60,39.20,81.20,0.00,0.00,0.00,30.17,M,10.00,M,FEW,M,M,M,6000.00,M,M,M,M,M,M,M,M,M,M,44.60,KMEV 141215Z AUTO 00000KT 10SM FEW060 07/04 A3017 RMK AO2,M
HTH,2023-09-14 12:15,-118.6315,38.5448,1282.89,59.00,48.20,67.33,250.00,4.00,0.00,30.13,M,10.00,M,FEW,M,M,M,11000.00,M,M,M,M,M,M,M,M,M,M,59.00,KHTH 141215Z AUTO 25004KT 10SM FEW110 15/09 A3013 RMK A01,M
10U,2023-09-14 12:15,-116.1876,41.9532,1637.00,41.00,37.40,86.89,150.00,6.00,0.00,30.21,M,10.00,M,CLR,M,M,M,M,M,M,M,M,M,M,M,M,M,M,36.37,K10U 141215Z AUTO 15006KT 10SM CLR 05/03 A3021 RMK AO2,M
BAM,2023-09-14 12:15,-116.8743,40.5990,1382.36,50.00,41.00,71.07,0.00,0.00,0.00,30.18,M,10.00,M,CLR,M,M,M,M,M,M,M,M,M,M,M,M,M,M,50.00,KBAM 141215Z AUTO 00000KT 10SM CLR 10/05 A3018 RMK AO1,M
TMT,2023-09-14 12:15,-117.1971,39.4643,1749.34,37.80,35.40,90.96,0.00,0.00,0.00,30.22,M,M,M,M,M,M,M,M,M,M,M,M,M,M,M,M,M,M,37.80,KTMT 141215Z AUTO 00000KT 03/02 A3022 RMK AO2 T00320019 PWINO,M
05U,2023-09-14 12:30,-116.0051,39.6042,1811.23,42.80,35.60,75.50,10.00,5.00,0.00,30.23,M,10.00,M,CLR,M,M,M,M,M,M,M,M,M,M,M,M,M,M,39.22,K05U 141230Z AUTO 01005KT 10SM CLR 06/02 A3023 RMK A01,M
RTS,2023-09-14 12:35,-119.8764,39.6682,1539.00,48.20,32.00,53.27,350.00,5.00,0.00,30.19,M,10.00,M,CLR,M,M,M,M,M,M,M,M,M,M,M,M,M,M,45.63,KRTS 141235Z AUTO 35005KT 10SM CLR 09/M00 A3019 RMK AO2,M
MEV,2023-09-14 12:35,-119.7500,38.9963,1441.42,42.80,39.20,86.99,80.00,3.00,0.00,30.17,M,10.00,M,FEW,M,M,M,5500.00,M,M,M,M,M,M,M,M,M,M,41.03,KMEV 141235Z AUTO 08003KT 10SM FEW055 06/04 A3017 RMK AO2,M
BAM,2023-09-14 12:35,-116.8743,40.5990,1382.36,46.40,37.40,70.68,0.00,0.00,0.00,30.18,M,10.00,M,CLR,M,M,M,M,M,M,M,M,M,M,M,M,M,M,46.40,KBAM 141235Z AUTO 00000KT 10SM CLR 08/03 A3018 RMK AO1,M
HTH,2023-09-14 12:35,-118.6315,38.5448,1282.89,57.20,50.00,76.82,0.00,0.00,0.00,30.13,M,10.00,M,SCT,M,M,M,11000.00,M,M,M,M,M,M,M,M,M,M,57.20,KHTH 141235Z AUTO 00000KT 10SM SCT110 14/10 A3013 RMK A01,M
BVU,2023-09-14 12:35,-114.8611,35.9475,671.00,75.20,55.40,50.17,10.00,8.00,0.00,29.93,M,10.00,M,BKN,M,M,M,11000.00,M,M,M,M,M,M,M,M,M,M,75.20,KBVU 141235Z AUTO 01008KT 10SM BKN110 24/13 A2993 RMK AO2 LTG DSNT E,M
CXP,2023-09-14 12:35,-119.7326,39.1923,1431.00,50.00,42.80,76.18,0.00,0.00,0.00,30.18,M,10.00,M,CLR,M,M,M,M,M,M,M,M,M,M,M,M,M,M,50.00,KCXP 141235Z AUTO 00000KT 10SM CLR 10/06 A3018 RMK AO2,M
TMT,2023-09-14 12:35,-117.1971,39.4643,1749.34,35.60,34.50,95.72,0.00,0.00,0.00,30.23,M,M,M,M,M,M,M,M,M,M,M,M,M,M,M,M,M,M,35.60,KTMT 141235Z AUTO 00000KT 02/01 A3023 RMK AO2 T00200014 PWINO,M
10U,2023-09-14 12:40,-116.1876,41.9532,1637.00,41.00,37.40,86.89,170.00,5.00,0.00,30.22,M,10.00,M,CLR,M,M,M,M,M,M,M,M,M,M,M,M,M,M,37.08,K10U 141240Z AUTO 17005KT 10SM CLR 05/03 A3022 RMK AO2,M
05U,2023-09-14 12:50,-116.0051,39.6042,1811.23,42.80,35.60,75.50,0.00,0.00,0.00,30.23,M,10.00,M,CLR,M,M,M,M,M,M,M,M,M,M,M,M,M,M,42.80,K05U 141250Z AUTO 00000KT 10SM CLR 06/02 A3023 RMK A01,M
P68,2023-09-14 12:53,-116.0056,39.6014,1993.00,42.00,35.00,76.03,M,3.00,0.00,30.21,1017.60,M,M,M,M,M,M,M,M,M,M,M,M,M,M,M,M,M,40.12,KP68 141253Z AUTO VRB03KT 06/02 A3021 RMK AO1 SLP176 T00560017,M
DRA,2023-09-14 12:53,-116.0278,36.6206,1009.00,71.00,49.00,45.66,70.00,6.00,0.00,30.02,1011.60,10.00,M,FEW,M,M,M,9500.00,M,M,M,M,M,M,M,M,M,M,71.00,KDRA 141253Z AUTO 07006KT 10SM FEW095 22/09 A3002 RMK AO2 SLP116 T02170094,M
ELY,2023-09-14 12:53,-114.8453,39.2950,1909.00,42.00,40.00,92.55,200.00,5.00,0.00,30.21,1016.50,10.00,M,CLR,M,M,M,M,M,M,M,M,M,M,M,M,M,M,38.27,KELY 141253Z AUTO 20005KT 10SM CLR 06/04 A3021 RMK AO2 SLP165 T00560044,M
VGT,2023-09-14 12:53,-115.1933,36.2111,667.00,75.00,56.00,51.62,0.00,0.00,0.00,29.95,1013.40,10.00,M,CLR,M,M,M,M,M,M,M,M,M,M,M,M,M,M,75.00,KVGT 141253Z AUTO 00000KT 10SM CLR 24/13 A2995 RMK AO2 SLP134 T02390133,M
LOL,2023-09-14 12:53,-118.5701,40.0684,1192.43,60.00,36.00,40.61,10.00,6.00,0.00,30.12,1016.30,10.00,M,CLR,M,M,M,M,M,M,M,M,M,M,M,M,M,M,60.00,KLOL 141253Z AUTO 01006KT 10SM CLR 16/02 A3012 RMK AO2 SLP163 T01560022,M
BVU,2023-09-14 12:55,-114.8611,35.9475,671.00,75.20,55.40,50.17,20.00,8.00,0.00,29.94,M,10.00,M,FEW,SCT,BKN,M,7000.00,8000.00,10000.00,M,M,M,M,M,M,M,M,75.20,KBVU 141255Z AUTO 02008KT 10SM FEW070 SCT080 BKN100 24/13 A2994 RMK AO2,M
CXP,2023-09-14 12:55,-119.7326,39.1923,1431.00,51.80,42.80,71.26,0.00,0.00,0.00,30.18,M,10.00,M,CLR,M,M,M,M,M,M,M,M,M,M,M,M,M,M,51.80,KCXP 141255Z AUTO 00000KT 10SM CLR 11/06 A3018 RMK AO2,M
RNO,2023-09-14 12:55,-119.7711,39.4839,1341.00,57.00,39.00,50.88,0.00,0.00,0.00,30.16,1016.50,10.00,M,CLR,M,M,M,M,M,M,M,M,M,M,M,M,M,M,57.00,KRNO 141255Z 00000KT 10SM CLR 14/04 A3016 RMK AO2 SLP165 T01390039,M
LSV,2023-09-14 12:55,-115.0343,36.2362,570.00,M,M,M,M,M,0.00,29.91,M,10.00,M,CLR,M,M,M,M,M,M,M,M,M,M,M,M,M,M,M,KLSV 141255Z AUTO M 10SM CLR M A2991 RMK AO2 SLPNO ALSTG ESTMD $,M
RTS,2023-09-14 12:55,-119.8764,39.6682,1539.00,46.40,30.20,53.00,0.00,0.00,0.00,30.20,M,10.00,M,CLR,M,M,M,M,M,M,M,M,M,M,M,M,M,M,46.40,KRTS 141255Z AUTO 00000KT 10SM CLR 08/M01 A3020 RMK AO2,M
MEV,2023-09-14 12:55,-119.7500,38.9963,1441.42,41.00,37.40,86.89,90.00,4.00,0.00,30.17,M,10.00,M,FEW,M,M,M,5500.00,M,M,M,M,M,M,M,M,M,M,37.93,KMEV 141255Z AUTO 09004KT 10SM FEW055 05/03 A3017 RMK AO2,M
HTH,2023-09-14 12:55,-118.6315,38.5448,1282.89,57.20,50.00,76.82,230.00,3.00,0.00,30.14,M,10.00,M,BKN,M,M,M,11000.00,M,M,M,M,M,M,M,M,M,M,57.20,KHTH 141255Z AUTO 23003KT 10SM BKN110 14/10 A3014 RMK A01,M
BAM,2023-09-14 12:55,-116.8743,40.5990,1382.36,48.20,39.20,70.88,60.00,3.00,0.00,30.19,M,10.00,M,CLR,M,M,M,M,M,M,M,M,M,M,M,M,M,M,47.21,KBAM 141255Z AUTO 06003KT 10SM CLR 09/04 A3019 RMK AO1,M
TMT,2023-09-14 12:55,-117.1971,39.4643,1749.34,34.00,33.00,96.08,0.00,0.00,0.00,30.24,M,M,M,M,M,M,M,M,M,M,M,M,M,M,M,M,M,M,34.00,KTMT 141255Z AUTO 00000KT 01/01 A3024 RMK AO2 T00110005 PWINO,M
INS,2023-09-14 12:55,-115.6733,36.5872,955.00,66.40,50.00,55.50,230.00,3.00,0.00,30.01,1011.80,10.00,M,SCT,M,M,M,9000.00,M,M,M,M,M,M,M,M,M,M,66.40,KINS 141255Z AUTO 23003KT 10SM SCT090 19/10 A3001 RMK AO2 SLP118 T01910101 $,M
EKO,2023-09-14 12:56,-115.7860,40.8242,1367.00,44.00,38.00,79.27,0.00,0.00,0.00,30.19,1018.90,10.00,M,CLR,M,M,M,M,M,M,M,M,M,M,M,M,M,M,44.00,KEKO 141256Z AUTO 00000KT 10SM CLR 07/03 A3019 RMK AO2 SLP189 T00670033,M
WMC,2023-09-14 12:56,-117.8072,40.9019,1315.00,47.00,36.00,65.38,360.00,6.00,0.00,30.17,1018.00,10.00,M,CLR,M,M,M,M,M,M,M,M,M,M,M,M,M,M,43.60,KWMC 141256Z AUTO 36006KT 10SM CLR 08/02 A3017 RMK AO2 SLP180 T00830022,M
NFL,2023-09-14 12:56,-118.7010,39.4166,1199.00,52.00,38.00,58.71,0.00,0.00,0.00,30.12,1016.50,10.00,M,CLR,M,M,M,M,M,M,M,M,M,M,M,M,M,M,52.00,KNFL 141256Z AUTO 00000KT 10SM CLR 11/03 A3012 RMK AO2 SLP165 T01110033,M
HND,2023-09-14 12:56,-115.1344,35.9729,742.79,70.00,56.00,61.11,0.00,0.00,0.00,29.99,1014.80,10.00,M,CLR,M,M,M,M,M,M,M,M,M,M,M,M,M,M,70.00,KHND 141256Z 00000KT 10SM CLR 21/13 A2999 RMK AO2 SLP148 T02110133,M
LAS,2023-09-14 12:56,-115.1634,36.0719,663.00,75.00,55.00,49.78,110.00,3.00,0.00,29.96,1012.00,10.00,M,FEW,SCT,M,M,11000.00,14000.00,M,M,M,M,M,M,M,M,M,75.00,KLAS 141256Z 11003KT 10SM FEW110 SCT140 24/13 A2996 RMK AO2 SLP120 CB DSNT E ACC DSNT N-NE AND SE T02390128 $,M
10U,2023-09-14 13:00,-116.1876,41.9532,1637.00,41.00,37.40,86.89,190.00,5.00,0.00,30.22,M,10.00,M,CLR,M,M,M,M,M,M,M,M,M,M,M,M,M,M,37.08,K10U 141300Z AUTO 19005KT 10SM CLR 05/03 A3022 RMK AO2,M
05U,2023-09-14 13:10,-116.0051,39.6042,1811.23,42.80,37.40,81.07,340.00,6.00,0.00,30.24,M,10.00,M,CLR,M,M,M,M,M,M,M,M,M,M,M,M,M,M,38.54,K05U 141310Z AUTO 34006KT 10SM CLR 06/03 A3024 RMK A01,M
BVU,2023-09-14 13:15,-114.8611,35.9475,671.00,75.20,53.60,46.98,180.00,6.00,0.00,29.95,M,10.00,M,FEW,FEW,OVC,M,4300.00,7500.00,11000.00,M,M,M,M,M,M,M,M,75.20,KBVU 141315Z AUTO 18006KT 10SM FEW043 FEW075 OVC110 24/12 A2995 RMK AO2 LTG DSNT E,M
CXP,2023-09-14 13:15,-119.7326,39.1923,1431.00,51.80,44.60,76.34,0.00,0.00,0.00,30.19,M,10.00,M,CLR,M,M,M,M,M,M,M,M,M,M,M,M,M,M,51.80,KCXP 141315Z AUTO 00000KT 10SM CLR 11/07 A3019 RMK AO2,M
RTS,2023-09-14 13:15,-119.8764,39.6682,1539.00,51.80,32.00,46.59,360.00,3.00,0.00,30.20,M,10.00,M,CLR,M,M,M,M,M,M,M,M,M,M,M,M,M,M,51.80,KRTS 141315Z AUTO 36003KT 10SM CLR 11/00 A3020 RMK AO2,M
MEV,2023-09-14 13:15,-119.7500,38.9963,1441.42,41.00,37.40,86.89,100.00,3.00,0.00,30.18,M,10.00,M,CLR,M,M,M,M,M,M,M,M,M,M,M,M,M,M,38.98,KMEV 141315Z AUTO 10003KT 10SM CLR 05/03 A3018 RMK AO2,M
HTH,2023-09-14 13:15,-118.6315,38.5448,1282.89,57.20,50.00,76.82,230.00,5.00,0.00,30.14,M,10.00,M,SCT,M,M,M,11000.00,M,M,M,M,M,M,M,M,M,M,57.20,KHTH 141315Z AUTO 23005KT 10SM SCT110 14/10 A3014 RMK A01,M
BAM,2023-09-14 13:15,-116.8743,40.5990,1382.36,50.00,39.20,66.27,30.00,3.00,0.00,30.19,M,10.00,M,CLR,M,M,M,M,M,M,M,M,M,M,M,M,M,M,50.00,KBAM 141315Z AUTO 03003KT 10SM CLR 10/04 A3019 RMK AO1,M
TMT,2023-09-14 13:15,-117.1971,39.4643,1749.34,38.50,36.70,93.17,0.00,0.00,0.00,30.24,M,M,M,M,M,M,M,M,M,M,M,M,M,M,M,M,M,M,38.50,KTMT 141315Z AUTO 00000KT 04/03 A3024 RMK AO2 T00360026 PWINO,M
10U,2023-09-14 13:20,-116.1876,41.9532,1637.00,41.00,37.40,86.89,170.00,7.00,0.00,30.22,M,10.00,M,CLR,M,M,M,M,M,M,M,M,M,M,M,M,M,M,35.75,K10U 141320Z AUTO 17007KT 10SM CLR 05/03 A3022 RMK AO2,M
05U,2023-09-14 13:30,-116.0051,39.6042,1811.23,42.80,35.60,75.50,330.00,5.00,0.00,30.25,M,10.00,M,CLR,M,M,M,M,M,M,M,M,M,M,M,M,M,M,39.22,K05U 141330Z AUTO 33005KT 10SM CLR 06/02 A3025 RMK A01,M
BVU,2023-09-14 13:35,-114.8611,35.9475,671.00,75.20,55.40,50.17,0.00,0.00,0.00,29.96,M,10.00,M,OVC,M,M,M,10000.00,M,M,M,M,M,M,M,M,M,M,75.20,KBVU 141335Z AUTO 00000KT 10SM OVC100 24/13 A2996 RMK AO2,M
CXP,2023-09-14 13:35,-119.7326,39.1923,1431.00,50.00,42.80,76.18,0.00,0.00,0.00,30.20,M,10.00,M,CLR,M,M,M,M,M,M,M,M,M,M,M,M,M,M,50.00,KCXP 141335Z AUTO 00000KT 10SM CLR 10/06 A3020 RMK AO2,M
RTS,2023-09-14 13:35,-119.8764,39.6682,1539.00,48.20,32.00,53.27,0.00,0.00,0.00,30.21,M,10.00,M,CLR,M,M,M,M,M,M,M,M,M,M,M,M,M,M,48.20,KRTS 141335Z AUTO 00000KT 10SM CLR 09/00 A3021 RMK AO2,M
MEV,2023-09-14 13:35,-119.7500,38.9963,1441.42,41.00,37.40,86.89,0.00,0.00,0.00,30.18,M,10.00,M,CLR,M,M,M,M,M,M,M,M,M,M,M,M,M,M,41.00,KMEV 141335Z AUTO 00000KT 10SM CLR 05/03 A3018 RMK AO2,M
HTH,2023-09-14 13:35,-118.6315,38.5448,1282.89,57.20,50.00,76.82,230.00,6.00,0.00,30.14,M,10.00,M,FEW,M,M,M,10000.00,M,M,M,M,M,M,M,M,M,M,57.20,KHTH 141335Z AUTO 23006KT 10SM FEW100 14/10 A3014 RMK A01,M
BAM,2023-09-14 13:35,-116.8743,40.5990,1382.36,46.40,41.00,81.34,0.00,0.00,0.00,30.20,M,10.00,M,CLR,M,M,M,M,M,M,M,M,M,M,M,M,M,M,46.40,KBAM 141335Z AUTO 00000KT 10SM CLR 08/05 A3020 RMK AO1,M
TMT,2023-09-14 13:35,-117.1971,39.4643,1749.34,37.00,35.80,95.37,190.00,3.00,0.00,30.24,M,M,M,M,M,M,M,M,M,M,M,M,M,M,M,M,M,M,34.40,KTMT 141335Z AUTO 19003KT 03/02 A3024 RMK AO2 T00270021 PWINO,M
10U,2023-09-14 13:35,-116.1876,41.9532,1637.00,42.80,37.40,81.07,180.00,5.00,0.00,30.23,M,10.00,M,CLR,M,M,M,M,M,M,M,M,M,M,M,M,M,M,39.22,K10U 141335Z AUTO 18005KT 10SM CLR 06/03 A3023 RMK AO2,M
NFL,2023-09-14 13:43,-118.7010,39.4166,1199.00,52.00,38.00,58.71,260.00,3.00,0.00,30.13,M,10.00,M,CLR,M,M,M,M,M,M,M,M,M,M,M,M,M,M,52.00,KNFL 141343Z 26003KT 10SM CLR 11/03 A3013 RMK AO2 T01110033,M
05U,2023-09-14 13:50,-116.0051,39.6042,1811.23,42.80,37.40,81.07,350.00,3.00,0.00,30.26,M,10.00,M,CLR,M,M,M,M,M,M,M,M,M,M,M,M,M,M,41.03,K05U 141350Z AUTO 35003KT 10SM CLR 06/03 A3026 RMK A01,M
P68,2023-09-14 13:53,-116.0056,39.6014,1993.00,44.00,37.00,76.22,200.00,5.00,0.00,30.23,1018.40,M,M,M,M,M,M,M,M,M,M,M,M,M,M,M,M,M,40.65,KP68 141353Z AUTO 20005KT 07/03 A3023 RMK AO1 SLP184 T00670028,M
DRA,2023-09-14 13:53,-116.0278,36.6206,1009.00,69.00,51.00,52.66,120.00,7.00,0.00,30.02,1012.20,10.00,M,CLR,M,M,M,M,M,M,M,M,M,M,M,M,M,M,69.00,KDRA 141353Z AUTO 12007KT 10SM CLR 21/11 A3002 RMK AO2 SLP122 T02060106,M
ELY,2023-09-14 13:53,-114.8453,39.2950,1909.00,41.00,39.00,92.52,220.00,4.00,0.00,30.23,1017.70,10.00,M,CLR,M,M,M,M,M,M,M,M,M,M,M,M,M,M,37.93,KELY 141353Z AUTO 22004KT 10SM CLR 05/04 A3023 RMK AO2 SLP177 T00500039,M
VGT,2023-09-14 13:53,-115.1933,36.2111,667.00,76.00,56.00,49.92,0.00,0.00,0.00,29.97,1014.00,10.00,M,CLR,M,M,M,M,M,M,M,M,M,M,M,M,M,M,76.00,KVGT 141353Z 00000KT 10SM CLR 24/13 A2997 RMK AO2 LTG DSNT NE SLP140 T02440133,M
LOL,2023-09-14 13:53,-118.5701,40.0684,1192.43,60.00,36.00,40.61,10.00,7.00,0.00,30.13,1017.20,10.00,M,CLR,M,M,M,M,M,M,M,M,M,M,M,M,M,M,60.00,KLOL 141353Z AUTO 01007KT 10SM CLR 16/02 A3013 RMK AO2 SLP172 T01560022,M
BVU,2023-09-14 13:55,-114.8611,35.9475,671.00,73.40,55.40,53.29,270.00,4.00,0.00,29.96,M,10.00,M,OVC,M,M,M,10000.00,M,M,M,M,M,M,M,M,M,M,73.40,KBVU 141355Z AUTO 27004KT 10SM OVC100 23/13 A2996 RMK AO2 LTG DSNT E,M
CXP,2023-09-14 13:55,-119.7326,39.1923,1431.00,48.20,42.80,81.47,0.00,0.00,0.00,30.20,M,10.00,M,CLR,M,M,M,M,M,M,M,M,M,M,M,M,M,M,48.20,KCXP 141355Z AUTO 00000KT 10SM CLR 09/06 A3020 RMK AO2,M
INS,2023-09-14 13:55,-115.6733,36.5872,955.00,68.00,50.00,52.51,0.00,0.00,0.00,30.03,1012.50,10.00,M,FEW,M,M,M,15000.00,M,M,M,M,M,M,M,M,M,M,68.00,KINS 141355Z AUTO 00000KT 10SM FEW150 20/10 A3003 RMK AO2 SLP125 T02010099 $,M
RNO,2023-09-14 13:55,-119.7711,39.4839,1341.00,56.00,39.00,52.75,290.00,4.00,0.00,30.18,1017.20,10.00,M,CLR,M,M,M,M,M,M,M,M,M,M,M,M,M,M,56.00,KRNO 141355Z 29004KT 10SM CLR 13/04 A3018 RMK AO2 SLP172 T01330039,M
RTS,2023-09-14 13:55,-119.8764,39.6682,1539.00,50.00,32.00,49.81,320.00,3.00,0.00,30.21,M,10.00,M,CLR,M,M,M,M,M,M,M,M,M,M,M,M,M,M,50.00,KRTS 141355Z AUTO 32003KT 10SM CLR 10/M00 A3021 RMK AO2,M
MEV,2023-09-14 13:55,-119.7500,38.9963,1441.42,42.80,37.40,81.07,0.00,0.00,0.00,30.19,M,10.00,M,CLR,M,M,M,M,M,M,M,M,M,M,M,M,M,M,42.80,KMEV 141355Z AUTO 00000KT 10SM CLR 06/03 A3019 RMK AO2,M
HTH,2023-09-14 13:55,-118.6315,38.5448,1282.89,59.00,50.00,72.01,220.00,5.00,0.00,30.15,M,10.00,M,FEW,M,M,M,10000.00,M,M,M,M,M,M,M,M,M,M,59.00,KHTH 141355Z AUTO 22005KT 10SM FEW100 15/10 A3015 RMK A01,M
BAM,2023-09-14 13:55,-116.8743,40.5990,1382.36,46.40,41.00,81.34,50.00,4.00,0.00,30.20,M,10.00,M,CLR,M,M,M,M,M,M,M,M,M,M,M,M,M,M,44.24,KBAM 141355Z AUTO 05004KT 10SM CLR 08/05 A3020 RMK AO1,M
TMT,2023-09-14 13:55,-117.1971,39.4643,1749.34,34.00,33.00,96.08,140.00,3.00,0.00,30.25,M,M,M,M,M,M,M,M,M,M,M,M,M,M,M,M,M,M,30.97,KTMT 141355Z AUTO 14003KT 01/01 A3025 RMK AO2 T00110006 PWINO,M
10U,2023-09-14 13:55,-116.1876,41.9532,1637.00,42.80,37.40,81.07,170.00,6.00,0.00,30.23,M,10.00,M,CLR,M,M,M,M,M,M,M,M,M,M,M,M,M,M,38.54,K10U 141355Z AUTO 17006KT 10SM CLR 06/03 A3023 RMK AO2,M
LSV,2023-09-14 13:55,-115.0343,36.2362,570.00,73.40,56.70,55.86,360.00,3.00,0.00,29.93,1011.20,10.00,M,CLR,M,M,M,M,M,M,M,M,M,M,M,M,M,M,73.40,KLSV 141355Z AUTO 36003KT 10SM CLR 23/14 A2993 RMK AO2 LTG DSNT NE SLP112 T02300137 $,M
EKO,2023-09-14 13:56,-115.7860,40.8242,1367.00,43.00,38.00,82.37,140.00,3.00,0.00,30.21,1019.70,10.00,M,CLR,M,M,M,M,M,M,M,M,M,M,M,M,M,M,41.26,KEKO 141356Z AUTO 14003KT 10SM CLR 06/03 A3021 RMK AO2 SLP197 T00610033,M
WMC,2023-09-14 13:56,-117.8072,40.9019,1315.00,42.00,34.00,73.06,130.00,4.00,0.00,30.18,1019.40,10.00,M,CLR,M,M,M,M,M,M,M,M,M,M,M,M,M,M,39.10,KWMC 141356Z AUTO 13004KT 10SM CLR 06/01 A3018 RMK AO2 SLP194 T00560011,M
NFL,2023-09-14 13:56,-118.7010,39.4166,1199.00,51.00,37.00,58.58,0.00,0.00,0.00,30.13,1016.90,10.00,M,CLR,M,M,M,M,M,M,M,M,M,M,M,M,M,M,51.00,KNFL 141356Z 00000KT 10SM CLR 11/03 A3013 RMK AO2 SLP169 T01060028,M
HND,2023-09-14 13:56,-115.1344,35.9729,742.79,69.00,56.00,63.24,130.00,3.00,0.00,30.01,1015.50,10.00,M,CLR,M,M,M,M,M,M,M,M,M,M,M,M,M,M,69.00,KHND 141356Z 13003KT 10SM CLR 21/13 A3001 RMK AO2 LTG DSNT E SLP155 T02060133,M
LAS,2023-09-14 13:56,-115.1634,36.0719,663.00,75.00,55.00,49.78,200.00,3.00,0.00,29.98,1012.70,10.00,M,FEW,FEW,SCT,M,10000.00,14000.00,25000.00,M,M,M,M,M,M,M,M,75.00,KLAS 141356Z 20003KT 10SM FEW100 FEW140 SCT250 24/13 A2998 RMK AO2 LTG DSNT NE-SE SLP127 VIRGA DSNT N AND SE CB DSNT N AND E-SE ACC DSNT ALQDS T02390128 $,M
LAS,2023-09-14 14:03,-115.1634,36.0719,663.00,75.00,55.00,49.78,210.00,3.00,0.00,29.98,M,10.00,M,FEW,FEW,SCT,M,10000.00,14000.00,25000.00,M,M,M,M,M,M,M,M,75.00,KLAS 141403Z 21003KT 10SM FEW100 FEW140 SCT250 24/13 A2998 RMK AO2 LTG DSNT NE-SE VIRGA DSNT N AND SE CB DSNT N AND E-SE ACCDSNT ALQDS T02390128 $,M
05U,2023-09-14 14:10,-116.0051,39.6042,1811.23,44.60,37.40,75.68,0.00,0.00,0.00,30.26,M,10.00,M,CLR,M,M,M,M,M,M,M,M,M,M,M,M,M,M,44.60,K05U 141410Z AUTO 00000KT 10SM CLR 07/03 A3026 RMK A01,M
BVU,2023-09-14 14:15,-114.8611,35.9475,671.00,73.40,55.40,53.29,280.00,3.00,0.00,29.97,M,10.00,M,BKN,M,M,M,11000.00,M,M,M,M,M,M,M,M,M,M,73.40,KBVU 141415Z AUTO 28003KT 10SM BKN110 23/13 A2997 RMK AO2,M
CXP,2023-09-14 14:15,-119.7326,39.1923,1431.00,51.80,44.60,76.34,0.00,0.00,0.00,30.21,M,10.00,M,CLR,M,M,M,M,M,M,M,M,M,M,M,M,M,M,51.80,KCXP 141415Z AUTO 00000KT 10SM CLR 11/07 A3021 RMK AO2,M
RTS,2023-09-14 14:15,-119.8764,39.6682,1539.00,50.00,32.00,49.81,0.00,0.00,0.00,30.22,M,10.00,M,CLR,M,M,M,M,M,M,M,M,M,M,M,M,M,M,50.00,KRTS 141415Z AUTO 00000KT 10SM CLR 10/00 A3022 RMK AO2,M
MEV,2023-09-14 14:15,-119.7500,38.9963,1441.42,44.60,39.20,81.20,0.00,0.00,0.00,30.20,M,10.00,M,CLR,M,M,M,M,M,M,M,M,M,M,M,M,M,M,44.60,KMEV 141415Z AUTO 00000KT 10SM CLR 07/04 A3020 RMK AO2,M
HTH,2023-09-14 14:15,-118.6315,38.5448,1282.89,59.00,51.80,76.98,220.00,3.00,0.00,30.16,M,10.00,M,CLR,M,M,M,M,M,M,M,M,M,M,M,M,M,M,59.00,KHTH 141415Z AUTO 22003KT 10SM CLR 15/11 A3016 RMK A01,M
BAM,2023-09-14 14:15,-116.8743,40.5990,1382.36,50.00,41.00,71.07,0.00,0.00,0.00,30.21,M,10.00,M,CLR,M,M,M,M,M,M,M,M,M,M,M,M,M,M,50.00,KBAM 141415Z AUTO 00000KT 10SM CLR 10/05 A3021 RMK AO1,M
TMT,2023-09-14 14:15,-117.1971,39.4643,1749.34,38.50,37.80,97.29,0.00,0.00,0.00,30.25,M,M,M,M,M,M,M,M,M,M,M,M,M,M,M,M,M,M,38.50,KTMT 141415Z AUTO 00000KT 04/03 A3025 RMK AO2 T00360032 PWINO,M
10U,2023-09-14 14:20,-116.1876,41.9532,1637.00,46.40,39.20,75.84,0.00,0.00,0.00,30.24,M,10.00,M,CLR,M,M,M,M,M,M,M,M,M,M,M,M,M,M,46.40,K10U 141420Z AUTO 00000KT 10SM CLR 08/04 A3024 RMK AO2,M
05U,2023-09-14 14:30,-116.0051,39.6042,1811.23,48.20,39.20,70.88,0.00,0.00,0.00,30.26,M,10.00,M,CLR,M,M,M,M,M,M,M,M,M,M,M,M,M,M,48.20,K05U 141430Z AUTO 00000KT 10SM CLR 09/04 A3026 RMK A01,M
BVU,2023-09-14 14:35,-114.8611,35.9475,671.00,75.20,55.40,50.17,290.00,4.00,0.00,29.97,M,10.00,M,BKN,M,M,M,11000.00,M,M,M,M,M,M,M,M,M,M,75.20,KBVU 141435Z AUTO 29004KT 10SM BKN110 24/13 A2997 RMK AO2,M
CXP,2023-09-14 14:35,-119.7326,39.1923,1431.00,53.60,44.60,71.45,0.00,0.00,0.00,30.21,M,10.00,M,CLR,M,M,M,M,M,M,M,M,M,M,M,M,M,M,53.60,KCXP 141435Z AUTO 00000KT 10SM CLR 12/07 A3021 RMK AO2,M
RTS,2023-09-14 14:35,-119.8764,39.6682,1539.00,51.80,32.00,46.59,0.00,0.00,0.00,30.22,M,10.00,M,CLR,M,M,M,M,M,M,M,M,M,M,M,M,M,M,51.80,KRTS 141435Z AUTO 00000KT 10SM CLR 11/00 A3022 RMK AO2,M
MEV,2023-09-14 14:35,-119.7500,38.9963,1441.42,46.40,41.00,81.34,0.00,0.00,0.00,30.20,M,10.00,M,CLR,M,M,M,M,M,M,M,M,M,M,M,M,M,M,46.40,KMEV 141435Z AUTO 00000KT 10SM CLR 08/05 A3020 RMK AO2,M
BAM,2023-09-14 14:35,-116.8743,40.5990,1382.36,51.80,42.80,71.26,0.00,0.00,0.00,30.21,M,10.00,M,CLR,M,M,M,M,M,M,M,M,M,M,M,M,M,M,51.80,KBAM 141435Z AUTO 00000KT 10SM CLR 11/06 A3021 RMK AO1,M
HTH,2023-09-14 14:35,-118.6315,38.5448,1282.89,62.60,51.80,67.75,230.00,3.00,0.00,30.16,M,10.00,M,FEW,M,M,M,10000.00,M,M,M,M,M,M,M,M,M,M,62.60,KHTH 141435Z AUTO 23003KT 10SM FEW100 17/11 A3016 RMK A01,M
TMT,2023-09-14 14:35,-117.1971,39.4643,1749.34,41.50,39.20,91.46,0.00,0.00,0.00,30.26,M,M,M,M,M,M,M,M,M,M,M,M,M,M,M,M,M,M,41.50,KTMT 141435Z AUTO 00000KT 05/04 A3026 RMK AO2 T00530040 PWINO,M
10U,2023-09-14 14:40,-116.1876,41.9532,1637.00,48.20,39.20,70.88,0.00,0.00,0.00,30.25,M,10.00,M,CLR,M,M,M,M,M,M,M,M,M,M,M,M,M,M,48.20,K10U 141440Z AUTO 00000KT 10SM CLR 09/04 A3025 RMK AO2,M
05U,2023-09-14 14:50,-116.0051,39.6042,1811.23,53.60,39.20,58.02,0.00,0.00,0.00,30.27,M,10.00,M,CLR,M,M,M,M,M,M,M,M,M,M,M,M,M,M,53.60,K05U 141450Z AUTO 00000KT 10SM CLR 12/04 A3027 RMK A01,M
P68,2023-09-14 14:53,-116.0056,39.6014,1993.00,53.00,39.00,58.85,0.00,0.00,0.00,30.24,1017.80,M,M,M,M,M,M,M,M,M,M,M,M,M,M,M,M,M,53.00,KP68 141453Z AUTO 00000KT 12/04 A3024 RMK AO1 SLP178 T01170039 51012,M
DRA,2023-09-14 14:53,-116.0278,36.6206,1009.00,73.00,50.00,44.29,90.00,5.00,0.00,30.04,1012.70,10.00,M,FEW,M,M,M,12000.00,M,M,M,M,M,M,M,M,M,M,73.00,KDRA 141453Z AUTO 09005KT 10SM FEW120 23/10 A3004 RMK AO2 SLP127 T02280100 51012,M
ELY,2023-09-14 14:53,-114.8453,39.2950,1909.00,48.00,44.00,85.95,190.00,6.00,0.00,30.24,1018.40,10.00,M,SCT,M,M,M,8500.00,M,M,M,M,M,M,M,M,M,M,44.80,KELY 141453Z AUTO 19006KT 10SM SCT085 09/07 A3024 RMK AO2 SLP184 T00890067 53010,M
VGT,2023-09-14 14:53,-115.1933,36.2111,667.00,77.00,57.00,50.07,340.00,4.00,0.00,29.99,1014.70,10.00,M,CLR,M,M,M,M,M,M,M,M,M,M,M,M,M,M,77.00,KVGT 141453Z 34004KT 10SM CLR 25/14 A2999 RMK AO2 SLP147 T02500139 53015,M
LOL,2023-09-14 14:53,-118.5701,40.0684,1192.43,64.00,37.00,36.68,30.00,8.00,0.00,30.15,1017.70,10.00,M,CLR,M,M,M,M,M,M,M,M,M,M,M,M,M,M,64.00,KLOL 141453Z AUTO 03008KT 10SM CLR 18/03 A3015 RMK AO2 SLP177 T01780028 53010,M
BVU,2023-09-14 14:55,-114.8611,35.9475,671.00,75.20,55.40,50.17,300.00,5.00,0.00,29.98,M,10.00,M,FEW,M,M,M,11000.00,M,M,M,M,M,M,M,M,M,M,75.20,KBVU 141455Z AUTO 30005KT 10SM FEW110 24/13 A2998 RMK AO2,M
CXP,2023-09-14 14:55,-119.7326,39.1923,1431.00,55.40,44.60,66.91,0.00,0.00,0.00,30.21,M,10.00,M,CLR,M,M,M,M,M,M,M,M,M,M,M,M,M,M,55.40,KCXP 141455Z AUTO 00000KT 10SM CLR 13/07 A3021 RMK AO2,M
RNO,2023-09-14 14:55,-119.7711,39.4839,1341.00,59.00,41.00,51.18,220.00,4.00,0.00,30.19,1017.70,10.00,M,CLR,M,M,M,M,M,M,M,M,M,M,M,M,M,M,59.00,KRNO 141455Z 22004KT 10SM CLR 15/05 A3019 RMK AO2 SLP177 T01500050 53010,M
RTS,2023-09-14 14:55,-119.8764,39.6682,1539.00,55.40,33.80,43.90,0.00,0.00,0.00,30.22,M,10.00,M,CLR,M,M,M,M,M,M,M,M,M,M,M,M,M,M,55.40,KRTS 141455Z AUTO 00000KT 10SM CLR 13/01 A3022 RMK AO2,M
MEV,2023-09-14 14:55,-119.7500,38.9963,1441.42,51.80,42.80,71.26,0.00,0.00,0.00,30.20,M,10.00,M,CLR,M,M,M,M,M,M,M,M,M,M,M,M,M,M,51.80,KMEV 141455Z AUTO 00000KT 10SM CLR 11/06 A3020 RMK AO2,M
BAM,2023-09-14 14:55,-116.8743,40.5990,1382.36,53.60,41.00,62.23,0.00,0.00,0.00,30.22,M,10.00,M,CLR,M,M,M,M,M,M,M,M,M,M,M,M,M,M,53.60,KBAM 141455Z AUTO 00000KT 10SM CLR 12/05 A3022 RMK AO1,M
HTH,2023-09-14 14:55,-118.6315,38.5448,1282.89,64.40,51.80,63.60,240.00,3.00,0.00,30.17,M,10.00,M,FEW,M,M,M,10000.00,M,M,M,M,M,M,M,M,M,M,64.40,KHTH 141455Z AUTO 24003KT 10SM FEW100 18/11 A3017 RMK A01,M
TMT,2023-09-14 14:55,-117.1971,39.4643,1749.34,44.60,41.00,87.09,0.00,0.00,0.00,30.26,M,M,M,M,M,M,M,M,M,M,M,M,M,M,M,M,M,M,44.60,KTMT 141455Z AUTO 00000KT 07/05 A3026 RMK AO2 T00700050 PWINO,M
10U,2023-09-14 14:55,-116.1876,41.9532,1637.00,50.00,41.00,71.07,160.00,3.00,0.00,30.25,M,10.00,M,CLR,M,M,M,M,M,M,M,M,M,M,M,M,M,M,50.00,K10U 141455Z AUTO 16003KT 10SM CLR 10/05 A3025 RMK AO2,M
INS,2023-09-14 14:55,-115.6733,36.5872,955.00,68.00,51.00,54.50,0.00,0.00,0.00,30.05,1013.30,10.00,M,SCT,OVC,M,M,10000.00,14000.00,M,M,M,M,M,M,M,M,M,68.00,KINS 141455Z AUTO 00000KT 10SM SCT100 OVC140 20/11 A3005 RMK AO2 SLP133 T02010105 52014 $,M
LSV,2023-09-14 14:55,-115.0343,36.2362,570.00,76.50,54.70,46.83,280.00,4.00,0.00,29.95,1011.90,10.00,M,BKN,M,M,M,9500.00,M,M,M,M,M,M,M,M,M,M,76.50,KLSV 141455Z AUTO 28004KT 10SM BKN095 25/13 A2995 RMK AO2 SLP119 T02470126 52015 $,M
EKO,2023-09-14 14:56,-115.7860,40.8242,1367.00,51.00,40.00,65.87,100.00,3.00,0.00,30.22,1019.80,10.00,M,CLR,M,M,M,M,M,M,M,M,M,M,M,M,M,M,51.00,KEKO 141456Z AUTO 10003KT 10SM CLR 11/04 A3022 RMK AO2 SLP198 T01060044 51012,M
WMC,2023-09-14 14:56,-117.8072,40.9019,1315.00,52.00,37.00,56.45,0.00,0.00,0.00,30.20,1019.70,10.00,M,CLR,M,M,M,M,M,M,M,M,M,M,M,M,M,M,52.00,KWMC 141456Z AUTO 00000KT 10SM CLR 11/03 A3020 RMK AO2 SLP197 T01110028 53012,M
NFL,2023-09-14 14:56,-118.7010,39.4166,1199.00,61.00,38.00,42.40,0.00,0.00,0.00,30.14,1017.30,10.00,M,CLR,M,M,M,M,M,M,M,M,M,M,M,M,M,M,61.00,KNFL 141456Z 00000KT 10SM CLR 16/03 A3014 RMK AO2 SLP173 T01610033 53010,M
HND,2023-09-14 14:56,-115.1344,35.9729,742.79,72.00,59.00,63.61,0.00,0.00,0.00,30.02,1015.90,10.00,M,BKN,M,M,M,12000.00,M,M,M,M,M,M,M,M,M,M,72.00,KHND 141456Z 00000KT 10SM BKN120 22/15 A3002 RMK AO2 SLP159 T02220150 53013,M
LAS,2023-09-14 14:56,-115.1634,36.0719,663.00,77.00,55.00,46.57,0.00,0.00,0.00,29.99,1013.10,10.00,M,FEW,FEW,SCT,M,10000.00,14000.00,25000.00,M,M,M,M,M,M,M,M,77.00,KLAS 141456Z 00000KT 10SM FEW100 FEW140 SCT250 25/13 A2999 RMK AO2 SLP131 ACC DSNT N-E-S T02500128 53013 $,M
05U,2023-09-14 15:10,-116.0051,39.6042,1811.23,57.20,39.20,50.91,0.00,0.00,0.00,30.27,M,10.00,M,CLR,M,M,M,M,M,M,M,M,M,M,M,M,M,M,57.20,K05U 141510Z AUTO 00000KT 10SM CLR 14/04 A3027 RMK A01,M
BVU,2023-09-14 15:15,-114.8611,35.9475,671.00,77.00,53.60,44.25,10.00,11.00,0.00,29.98,M,10.00,M,SCT,M,M,M,11000.00,M,M,M,M,M,M,M,M,M,M,77.00,KBVU 141515Z AUTO 01011KT 10SM SCT110 25/12 A2998 RMK AO2,M
CXP,2023-09-14 15:15,-119.7326,39.1923,1431.00,57.20,44.60,62.69,0.00,0.00,0.00,30.21,M,10.00,M,CLR,M,M,M,M,M,M,M,M,M,M,M,M,M,M,57.20,KCXP 141515Z AUTO 00000KT 10SM CLR 14/07 A3021 RMK AO2,M
RTS,2023-09-14 15:15,-119.8764,39.6682,1539.00,57.20,33.80,41.13,0.00,0.00,0.00,30.22,M,10.00,M,CLR,M,M,M,M,M,M,M,M,M,M,M,M,M,M,57.20,KRTS 141515Z AUTO 00000KT 10SM CLR 14/01 A3022 RMK AO2,M
BAM,2023-09-14 15:15,-116.8743,40.5990,1382.36,59.00,41.00,51.18,0.00,0.00,0.00,30.22,M,10.00,M,CLR,M,M,M,M,M,M,M,M,M,M,M,M,M,M,59.00,KBAM 141515Z AUTO 00000KT 10SM CLR 15/05 A3022 RMK AO1,M
TMT,2023-09-14 15:15,-117.1971,39.4643,1749.34,48.60,42.30,78.73,0.00,0.00,0.00,30.26,M,M,M,CLR,M,M,M,M,M,M,M,M,M,M,M,M,M,M,48.60,KTMT 141515Z AUTO 00000KT CLR 09/06 A3026 RMK AO2 T00920057 PWINO,M
MEV,2023-09-14 15:15,-119.7500,38.9963,1441.42,53.60,42.80,66.70,0.00,0.00,0.00,30.20,M,10.00,M,CLR,M,M,M,M,M,M,M,M,M,M,M,M,M,M,53.60,KMEV 141515Z AUTO 00000KT 10SM CLR 12/06 A3020 RMK AO2,M
HTH,2023-09-14 15:15,-118.6315,38.5448,1282.89,66.20,50.00,55.88,270.00,3.00,0.00,30.17,M,10.00,M,CLR,M,M,M,M,M,M,M,M,M,M,M,M,M,M,66.20,KHTH 141515Z AUTO 27003KT 10SM CLR 19/10 A3017 RMK A01,M
10U,2023-09-14 15:15,-116.1876,41.9532,1637.00,53.60,41.00,62.23,120.00,3.00,0.00,30.25,M,10.00,M,CLR,M,M,M,M,M,M,M,M,M,M,M,M,M,M,53.60,K10U 141515Z AUTO 12003KT 10SM CLR 12/05 A3025 RMK AO2,M
05U,2023-09-14 15:30,-116.0051,39.6042,1811.23,60.80,39.20,44.76,0.00,0.00,0.00,30.26,M,10.00,M,CLR,M,M,M,M,M,M,M,M,M,M,M,M,M,M,60.80,K05U 141530Z AUTO 00000KT 10SM CLR 16/04 A3026 RMK A01,M
BVU,2023-09-14 15:35,-114.8611,35.9475,671.00,77.00,51.80,41.42,360.00,7.00,0.00,29.98,M,10.00,M,SCT,M,M,M,12000.00,M,M,M,M,M,M,M,M,M,M,77.00,KBVU 141535Z AUTO 36007KT 10SM SCT120 25/11 A2998 RMK AO2,M
CXP,2023-09-14 15:35,-119.7326,39.1923,1431.00,59.00,44.60,58.77,0.00,0.00,0.00,30.21,M,10.00,M,CLR,M,M,M,M,M,M,M,M,M,M,M,M,M,M,59.00,KCXP 141535Z AUTO 00000KT 10SM CLR 15/07 A3021 RMK AO2,M
RTS,2023-09-14 15:35,-119.8764,39.6682,1539.00,59.00,33.80,38.56,0.00,0.00,0.00,30.22,M,10.00,M,CLR,M,M,M,M,M,M,M,M,M,M,M,M,M,M,59.00,KRTS 141535Z AUTO 00000KT 10SM CLR 15/01 A3022 RMK AO2,M
MEV,2023-09-14 15:35,-119.7500,38.9963,1441.42,57.20,42.80,58.52,0.00,0.00,0.00,30.20,M,10.00,M,CLR,M,M,M,M,M,M,M,M,M,M,M,M,M,M,57.20,KMEV 141535Z AUTO 00000KT 10SM CLR 14/06 A3020 RMK AO2,M
BAM,2023-09-14 15:35,-116.8743,40.5990,1382.36,60.80,41.00,48.00,0.00,0.00,0.00,30.21,M,10.00,M,CLR,M,M,M,M,M,M,M,M,M,M,M,M,M,M,60.80,KBAM 141535Z AUTO 00000KT 10SM CLR 16/05 A3021 RMK AO1,M
HTH,2023-09-14 15:35,-118.6315,38.5448,1282.89,66.20,48.20,52.25,0.00,0.00,0.00,30.17,M,10.00,M,CLR,M,M,M,M,M,M,M,M,M,M,M,M,M,M,66.20,KHTH 141535Z AUTO 00000KT 10SM CLR 19/09 A3017 RMK A01,M
TMT,2023-09-14 15:35,-117.1971,39.4643,1749.34,51.30,43.00,73.15,0.00,0.00,0.00,30.26,M,M,M,CLR,M,M,M,M,M,M,M,M,M,M,M,M,M,M,51.30,KTMT 141535Z AUTO 00000KT CLR 11/06 A3026 RMK AO2 T01070061 PWINO,M
10U,2023-09-14 15:40,-116.1876,41.9532,1637.00,53.60,41.00,62.23,0.00,0.00,0.00,30.25,M,10.00,M,CLR,M,M,M,M,M,M,M,M,M,M,M,M,M,M,53.60,K10U 141540Z AUTO 00000KT 10SM CLR 12/05 A3025 RMK AO2,M
05U,2023-09-14 15:50,-116.0051,39.6042,1811.23,60.80,39.20,44.76,0.00,0.00,0.00,30.27,M,10.00,M,CLR,M,M,M,M,M,M,M,M,M,M,M,M,M,M,60.80,K05U 141550Z AUTO 00000KT 10SM CLR 16/04 A3027 RMK A01,M
P68,2023-09-14 15:53,-116.0056,39.6014,1993.00,59.00,40.00,49.23,0.00,0.00,0.00,30.24,1017.30,M,M,M,M,M,M,M,M,M,M,M,M,M,M,M,M,M,59.00,KP68 141553Z AUTO 00000KT 15/04 A3024 RMK AO1 SLP173 T01500044,M
DRA,2023-09-14 15:53,-116.0278,36.6206,1009.00,79.00,48.00,33.66,90.00,9.00,0.00,30.04,1012.40,10.00,M,CLR,M,M,M,M,M,M,M,M,M,M,M,M,M,M,79.00,KDRA 141553Z AUTO 09009KT 10SM CLR 26/09 A3004 RMK AO2 SLP124 T02610089,M
ELY,2023-09-14 15:53,-114.8453,39.2950,1909.00,55.00,47.00,74.36,120.00,3.00,0.00,30.24,1017.90,10.00,M,CLR,M,M,M,M,M,M,M,M,M,M,M,M,M,M,55.00,KELY 141553Z AUTO 12003KT 10SM CLR 13/08 A3024 RMK AO2 SLP179 T01280083,M
VGT,2023-09-14 15:53,-115.1933,36.2111,667.00,79.00,56.00,45.20,190.00,3.00,0.00,29.98,1014.40,10.00,M,CLR,M,M,M,M,M,M,M,M,M,M,M,M,M,M,79.00,KVGT 141553Z 19003KT 10SM CLR 26/13 A2998 RMK AO2 SLP144 T02610133,M
LOL,2023-09-14 15:53,-118.5701,40.0684,1192.43,67.00,37.00,33.04,40.00,9.00,0.00,30.15,1017.70,10.00,M,CLR,M,M,M,M,M,M,M,M,M,M,M,M,M,M,67.00,KLOL 141553Z AUTO 04009KT 10SM CLR 19/03 A3015 RMK AO2 SLP177 T01940028,M
BVU,2023-09-14 15:55,-114.8611,35.9475,671.00,80.60,53.60,39.30,350.00,6.00,0.00,29.98,M,10.00,M,CLR,M,M,M,M,M,M,M,M,M,M,M,M,M,M,80.29,KBVU 141555Z AUTO 35006KT 10SM CLR 27/12 A2998 RMK AO2,M
CXP,2023-09-14 15:55,-119.7326,39.1923,1431.00,60.80,42.80,51.45,0.00,0.00,0.00,30.21,M,10.00,M,CLR,M,M,M,M,M,M,M,M,M,M,M,M,M,M,60.80,KCXP 141555Z AUTO 00000KT 10SM CLR 16/06 A3021 RMK AO2,M
RNO,2023-09-14 15:55,-119.7711,39.4839,1341.00,64.00,40.00,41.25,0.00,0.00,0.00,30.19,1017.50,10.00,M,CLR,M,M,M,M,M,M,M,M,M,M,M,M,M,M,64.00,KRNO 141555Z 00000KT 10SM CLR 18/04 A3019 RMK AO2 SLP175 T01780044,M
RTS,2023-09-14 15:55,-119.8764,39.6682,1539.00,62.60,33.80,33.93,0.00,0.00,0.00,30.22,M,10.00,M,CLR,M,M,M,M,M,M,M,M,M,M,M,M,M,M,62.60,KRTS 141555Z AUTO 00000KT 10SM CLR 17/01 A3022 RMK AO2,M
MEV,2023-09-14 15:55,-119.7500,38.9963,1441.42,59.00,41.00,51.18,0.00,0.00,0.00,30.20,M,10.00,M,CLR,M,M,M,M,M,M,M,M,M,M,M,M,M,M,59.00,KMEV 141555Z AUTO 00000KT 10SM CLR 15/05 A3020 RMK AO2,M
HTH,2023-09-14 15:55,-118.6315,38.5448,1282.89,66.20,46.40,48.83,0.00,0.00,0.00,30.17,M,10.00,M,CLR,M,M,M,M,M,M,M,M,M,M,M,M,M,M,66.20,KHTH 141555Z AUTO 00000KT 10SM CLR 19/08 A3017 RMK A01,M
BAM,2023-09-14 15:55,-116.8743,40.5990,1382.36,62.60,42.80,48.28,0.00,0.00,0.00,30.22,M,10.00,M,CLR,M,M,M,M,M,M,M,M,M,M,M,M,M,M,62.60,KBAM 141555Z AUTO 00000KT 10SM CLR 17/06 A3022 RMK AO1,M
TMT,2023-09-14 15:55,-117.1971,39.4643,1749.34,53.40,43.50,69.02,0.00,0.00,0.00,30.26,M,M,M,CLR,M,M,M,M,M,M,M,M,M,M,M,M,M,M,53.40,KTMT 141555Z AUTO 00000KT CLR 12/06 A3026 RMK AO2 T01190064 PWINO,M
10U,2023-09-14 15:55,-116.1876,41.9532,1637.00,55.40,42.80,62.46,0.00,0.00,0.00,30.25,M,10.00,M,CLR,M,M,M,M,M,M,M,M,M,M,M,M,M,M,55.40,K10U 141555Z AUTO 00000KT 10SM CLR 13/06 A3025 RMK AO2,M
INS,2023-09-14 15:55,-115.6733,36.5872,955.00,71.00,50.40,48.10,0.00,0.00,0.00,30.04,1013.00,10.00,M,BKN,OVC,M,M,11000.00,15000.00,M,M,M,M,M,M,M,M,M,71.00,KINS 141555Z AUTO 00000KT 10SM BKN110 OVC150 22/10 A3004 RMK AO2 SLP130 T02170102 $,M
LSV,2023-09-14 15:55,-115.0343,36.2362,570.00,83.00,55.40,38.82,50.00,5.00,0.00,29.95,1011.80,10.00,M,CLR,M,M,M,M,M,M,M,M,M,M,M,M,M,M,82.18,KLSV 141555Z AUTO 05005KT 10SM CLR 28/13 A2995 RMK AO2 SLP118 T02830130 $,M
EKO,2023-09-14 15:56,-115.7860,40.8242,1367.00,59.00,41.00,51.18,0.00,0.00,0.00,30.22,1019.50,10.00,M,CLR,M,M,M,M,M,M,M,M,M,M,M,M,M,M,59.00,KEKO 141556Z AUTO 00000KT 10SM CLR 15/05 A3022 RMK AO2 SLP195 T01500050,M
WMC,2023-09-14 15:56,-117.8072,40.9019,1315.00,62.00,37.00,39.35,0.00,0.00,0.00,30.20,1019.10,10.00,M,CLR,M,M,M,M,M,M,M,M,M,M,M,M,M,M,62.00,KWMC 141556Z AUTO 00000KT 10SM CLR 17/03 A3020 RMK AO2 SLP191 T01670028,M
NFL,2023-09-14 15:56,-118.7010,39.4166,1199.00,67.00,39.00,35.74,M,4.00,0.00,30.15,1017.40,10.00,M,CLR,M,M,M,M,M,M,M,M,M,M,M,M,M,M,67.00,KNFL 141556Z VRB04KT 10SM CLR 19/04 A3015 RMK AO2 SLP174 T01940039,M
HND,2023-09-14 15:56,-115.1344,35.9729,742.79,77.00,55.00,46.57,250.00,3.00,0.00,30.03,1015.70,10.00,M,CLR,M,M,M,M,M,M,M,M,M,M,M,M,M,M,77.00,KHND 141556Z 25003KT 10SM CLR 25/13 A3003 RMK AO2 SLP157 T02500128,M
LAS,2023-09-14 15:56,-115.1634,36.0719,663.00,79.00,56.00,45.20,90.00,6.00,0.00,29.99,1013.10,10.00,M,FEW,FEW,SCT,M,10000.00,14000.00,25000.00,M,M,M,M,M,M,M,M,79.00,KLAS 141556Z 09006KT 10SM FEW100 FEW140 SCT250 26/13 A2999 RMK AO2 SLP131 T02610133 $,M
05U,2023-09-14 16:10,-116.0051,39.6042,1811.23,62.60,39.20,42.00,0.00,0.00,0.00,30.27,M,10.00,M,CLR,M,M,M,M,M,M,M,M,M,M,M,M,M,M,62.60,K05U 141610Z AUTO 00000KT 10SM CLR 17/04 A3027 RMK A01,M
TMT,2023-09-14 16:15,-117.1971,39.4643,1749.34,57.00,43.00,59.40,0.00,0.00,0.00,30.26,M,M,M,CLR,M,M,M,M,M,M,M,M,M,M,M,M,M,M,57.00,KTMT 141615Z AUTO 00000KT CLR 14/06 A3026 RMK AO2 T01380062 PWINO,M
BVU,2023-09-14 16:15,-114.8611,35.9475,671.00,80.60,53.60,39.30,M,5.00,0.00,29.98,M,10.00,M,CLR,M,M,M,M,M,M,M,M,M,M,M,M,M,M,80.29,KBVU 141615Z AUTO VRB05KT 10SM CLR 27/12 A2998 RMK AO2,M
CXP,2023-09-14 16:15,-119.7326,39.1923,1431.00,62.60,42.80,48.28,0.00,0.00,0.00,30.22,M,10.00,M,CLR,M,M,M,M,M,M,M,M,M,M,M,M,M,M,62.60,KCXP 141615Z AUTO 00000KT 10SM CLR 17/06 A3022 RMK AO2,M
RTS,2023-09-14 16:15,-119.8764,39.6682,1539.00,66.20,32.00,27.83,0.00,0.00,0.00,30.22,M,10.00,M,CLR,M,M,M,M,M,M,M,M,M,M,M,M,M,M,66.20,KRTS 141615Z AUTO 00000KT 10SM CLR 19/00 A3022 RMK AO2,M
MEV,2023-09-14 16:15,-119.7500,38.9963,1441.42,62.60,42.80,48.28,0.00,0.00,0.00,30.20,M,10.00,M,CLR,M,M,M,M,M,M,M,M,M,M,M,M,M,M,62.60,KMEV 141615Z AUTO 00000KT 10SM CLR 17/06 A3020 RMK AO2,M
BAM,2023-09-14 16:15,-116.8743,40.5990,1382.36,64.40,41.00,42.28,340.00,5.00,0.00,30.22,M,10.00,M,CLR,M,M,M,M,M,M,M,M,M,M,M,M,M,M,64.40,KBAM 141615Z AUTO 34005KT 10SM CLR 18/05 A3022 RMK AO1,M
HTH,2023-09-14 16:15,-118.6315,38.5448,1282.89,68.00,46.40,45.88,290.00,4.00,0.00,30.17,M,10.00,M,CLR,M,M,M,M,M,M,M,M,M,M,M,M,M,M,68.00,KHTH 141615Z AUTO 29004KT 10SM CLR 20/08 A3017 RMK A01,M
10U,2023-09-14 16:15,-116.1876,41.9532,1637.00,59.00,41.00,51.18,0.00,0.00,0.00,30.25,M,10.00,M,CLR,M,M,M,M,M,M,M,M,M,M,M,M,M,M,59.00,K10U 141615Z AUTO 00000KT 10SM CLR 15/05 A3025 RMK AO2,M
05U,2023-09-14 16:30,-116.0051,39.6042,1811.23,64.40,37.40,36.74,0.00,0.00,0.00,30.27,M,10.00,M,CLR,M,M,M,M,M,M,M,M,M,M,M,M,M,M,64.40,K05U 141630Z AUTO 00000KT 10SM CLR 18/03 A3027 RMK A01,M
10U,2023-09-14 16:30,-116.1876,41.9532,1637.00,60.80,41.00,48.00,0.00,0.00,0.00,30.25,M,10.00,M,CLR,M,M,M,M,M,M,M,M,M,M,M,M,M,M,60.80,K10U 141630Z AUTO 00000KT 10SM CLR 16/05 A3025 RMK AO2,M
BVU,2023-09-14 16:35,-114.8611,35.9475,671.00,82.40,53.60,37.07,20.00,6.00,0.00,29.99,M,10.00,M,CLR,M,M,M,M,M,M,M,M,M,M,M,M,M,M,81.46,KBVU 141635Z AUTO 02006KT 10SM CLR 28/12 A2999 RMK AO2,M
CXP,2023-09-14 16:35,-119.7326,39.1923,1431.00,64.40,42.80,45.32,0.00,0.00,0.00,30.22,M,10.00,M,CLR,M,M,M,M,M,M,M,M,M,M,M,M,M,M,64.40,KCXP 141635Z AUTO 00000KT 10SM CLR 18/06 A3022 RMK AO2,M
RTS,2023-09-14 16:35,-119.8764,39.6682,1539.00,66.20,33.80,29.92,0.00,0.00,0.00,30.23,M,10.00,M,CLR,M,M,M,M,M,M,M,M,M,M,M,M,M,M,66.20,KRTS 141635Z AUTO 00000KT 10SM CLR 19/01 A3023 RMK AO2,M
MEV,2023-09-14 16:35,-119.7500,38.9963,1441.42,64.40,41.00,42.28,0.00,0.00,0.00,30.20,M,10.00,M,CLR,M,M,M,M,M,M,M,M,M,M,M,M,M,M,64.40,KMEV 141635Z AUTO 00000KT 10SM CLR 18/05 A3020 RMK AO2,M
BAM,2023-09-14 16:35,-116.8743,40.5990,1382.36,64.40,42.80,45.32,340.00,4.00,0.00,30.23,M,10.00,M,CLR,M,M,M,M,M,M,M,M,M,M,M,M,M,M,64.40,KBAM 141635Z AUTO 34004KT 10SM CLR 18/06 A3023 RMK AO1,M
HTH,2023-09-14 16:35,-118.6315,38.5448,1282.89,68.00,46.40,45.88,320.00,5.00,0.00,30.18,M,10.00,M,CLR,M,M,M,M,M,M,M,M,M,M,M,M,M,M,68.00,KHTH 141635Z AUTO 32005KT 10SM CLR 20/08 A3018 RMK A01,M
TMT,2023-09-14 16:35,-117.1971,39.4643,1749.34,59.40,43.00,54.50,0.00,0.00,0.00,30.26,M,M,M,CLR,M,M,M,M,M,M,M,M,M,M,M,M,M,M,59.40,KTMT 141635Z AUTO 00000KT CLR 15/06 A3026 RMK AO2 T01520061 PWINO,M
05U,2023-09-14 16:50,-116.0051,39.6042,1811.23,66.20,37.40,34.51,180.00,6.00,0.00,30.27,M,10.00,M,CLR,M,M,M,M,M,M,M,M,M,M,M,M,M,M,66.20,K05U 141650Z AUTO 18006KT 10SM CLR 19/03 A3027 RMK A01,M
LOL,2023-09-14 16:53,-118.5701,40.0684,1192.43,72.00,37.00,27.85,30.00,10.00,0.00,30.16,1018.00,10.00,M,CLR,M,M,M,M,M,M,M,M,M,M,M,M,M,M,72.00,KLOL 141653Z AUTO 03010KT 10SM CLR 22/03 A3016 RMK AO2 SLP180 T02220028,M
P68,2023-09-14 16:53,-116.0056,39.6014,1993.00,64.00,39.00,39.67,360.00,5.00,0.00,30.24,1017.40,M,M,M,M,M,M,M,M,M,M,M,M,M,M,M,M,M,64.00,KP68 141653Z AUTO 36005KT 18/04 A3024 RMK AO1 SLP174 T01780039,M
DRA,2023-09-14 16:53,-116.0278,36.6206,1009.00,80.00,47.00,31.37,40.00,9.00,0.00,30.05,1013.00,10.00,M,CLR,M,M,M,M,M,M,M,M,M,M,M,M,M,M,79.28,KDRA 141653Z AUTO 04009KT 10SM CLR 27/08 A3005 RMK AO2 SLP130 T02670083,M
ELY,2023-09-14 16:53,-114.8453,39.2950,1909.00,61.00,45.00,55.57,340.00,6.00,0.00,30.25,1017.70,10.00,M,CLR,M,M,M,M,M,M,M,M,M,M,M,M,M,M,61.00,KELY 141653Z AUTO 34006KT 10SM CLR 16/07 A3025 RMK AO2 SLP177 T01610072,M
VGT,2023-09-14 16:53,-115.1933,36.2111,667.00,82.00,54.00,38.11,0.00,0.00,0.00,29.99,1014.60,10.00,M,CLR,M,M,M,M,M,M,M,M,M,M,M,M,M,M,81.24,KVGT 141653Z 00000KT 10SM CLR 28/12 A2999 RMK AO2 SLP146 T02780122,M
RNO,2023-09-14 16:55,-119.7711,39.4839,1341.00,70.00,40.00,33.52,0.00,0.00,0.00,30.19,1017.40,10.00,M,CLR,M,M,M,M,M,M,M,M,M,M,M,M,M,M,70.00,KRNO 141655Z 00000KT 10SM CLR 21/04 A3019 RMK AO2 SLP174 T02110044,M
RTS,2023-09-14 16:55,-119.8764,39.6682,1539.00,68.00,33.80,28.11,M,3.00,0.00,30.23,M,10.00,M,CLR,M,M,M,M,M,M,M,M,M,M,M,M,M,M,68.00,KRTS 141655Z AUTO VRB03KT 10SM CLR 20/01 A3023 RMK AO2,M
MEV,2023-09-14 16:55,-119.7500,38.9963,1441.42,66.20,41.00,39.72,0.00,0.00,0.00,30.20,M,10.00,M,CLR,M,M,M,M,M,M,M,M,M,M,M,M,M,M,66.20,KMEV 141655Z AUTO 00000KT 10SM CLR 19/05 A3020 RMK AO2,M
BAM,2023-09-14 16:55,-116.8743,40.5990,1382.36,66.20,42.80,42.57,0.00,0.00,0.00,30.23,M,10.00,M,CLR,M,M,M,M,M,M,M,M,M,M,M,M,M,M,66.20,KBAM 141655Z AUTO 00000KT 10SM CLR 19/06 A3023 RMK AO1,M
HTH,2023-09-14 16:55,-118.6315,38.5448,1282.89,69.80,42.80,37.61,320.00,6.00,0.00,30.18,M,10.00,M,CLR,M,M,M,M,M,M,M,M,M,M,M,M,M,M,69.80,KHTH 141655Z AUTO 32006KT 10SM CLR 21/06 A3018 RMK A01,M
BVU,2023-09-14 16:55,-114.8611,35.9475,671.00,82.40,51.80,34.69,30.00,7.00,0.00,29.99,M,10.00,12.00,CLR,M,M,M,M,M,M,M,M,M,M,M,M,M,M,81.20,KBVU 141655Z AUTO 03007G12KT 350V050 10SM CLR 28/11 A2999 RMK AO2,M
CXP,2023-09-14 16:55,-119.7326,39.1923,1431.00,66.20,42.80,42.57,0.00,0.00,0.00,30.22,M,10.00,M,CLR,M,M,M,M,M,M,M,M,M,M,M,M,M,M,66.20,KCXP 141655Z AUTO 00000KT 10SM CLR 19/06 A3022 RMK AO2,M
TMT,2023-09-14 16:55,-117.1971,39.4643,1749.34,61.00,42.00,49.54,0.00,0.00,0.00,30.26,M,M,M,CLR,M,M,M,M,M,M,M,M,M,M,M,M,M,M,61.00,KTMT 141655Z AUTO 00000KT CLR 16/06 A3026 RMK AO2 T01610056 PWINO,M
INS,2023-09-14 16:55,-115.6733,36.5872,955.00,76.00,49.00,38.59,60.00,5.00,0.00,30.05,1013.30,10.00,M,FEW,BKN,M,M,11000.00,15000.00,M,M,M,M,M,M,M,M,M,76.00,KINS 141655Z AUTO 06005KT 10SM FEW110 BKN150 24/10 A3005 RMK AO2 SLP133 T02440095 $,M
LSV,2023-09-14 16:55,-115.0343,36.2362,570.00,88.70,53.20,29.86,0.00,0.00,0.00,29.95,1011.70,10.00,M,FEW,M,M,M,15000.00,M,M,M,M,M,M,M,M,M,M,86.44,KLSV 141655Z AUTO 00000KT 10SM FEW150 32/12 A2995 RMK AO2 SLP117 T03150118 $,M
WMC,2023-09-14 16:56,-117.8072,40.9019,1315.00,70.00,38.00,31.00,10.00,5.00,0.00,30.20,1018.60,10.00,M,CLR,M,M,M,M,M,M,M,M,M,M,M,M,M,M,70.00,KWMC 141656Z AUTO 01005KT 10SM CLR 21/03 A3020 RMK AO2 SLP186 T02110033,M
NFL,2023-09-14 16:56,-118.7010,39.4166,1199.00,70.00,39.00,32.24,0.00,0.00,0.00,30.16,1017.80,10.00,M,CLR,M,M,M,M,M,M,M,M,M,M,M,M,M,M,70.00,KNFL 141656Z 00000KT 10SM CLR 21/04 A3016 RMK AO2 SLP178 T02110039,M
HND,2023-09-14 16:56,-115.1344,35.9729,742.79,79.00,55.00,43.59,0.00,0.00,0.00,30.03,1016.10,10.00,M,CLR,M,M,M,M,M,M,M,M,M,M,M,M,M,M,79.00,KHND 141656Z 00000KT 10SM CLR 26/13 A3003 RMK AO2 SLP161 T02610128,M
LAS,2023-09-14 16:56,-115.1634,36.0719,663.00,81.00,55.00,40.83,M,4.00,0.00,30.00,1013.50,10.00,M,FEW,FEW,SCT,M,10000.00,14000.00,25000.00,M,M,M,M,M,M,M,M,80.73,KLAS 141656Z VRB04KT 10SM FEW100 FEW140 SCT250 27/13 A3000 RMK AO2 SLP135 T02720128 $,M
EKO,2023-09-14 16:56,-115.7860,40.8242,1367.00,64.00,41.00,42.88,0.00,0.00,0.00,30.22,1019.30,10.00,M,CLR,M,M,M,M,M,M,M,M,M,M,M,M,M,M,64.00,KEKO 141656Z AUTO 00000KT 10SM CLR 18/05 A3022 RMK AO2 SLP193 T01780050,M
05U,2023-09-14 17:10,-116.0051,39.6042,1811.23,66.20,37.40,34.51,180.00,5.00,0.00,30.27,M,10.00,M,CLR,M,M,M,M,M,M,M,M,M,M,M,M,M,M,66.20,K05U 141710Z AUTO 18005KT 10SM CLR 19/03 A3027 RMK A01,M
BVU,2023-09-14 17:15,-114.8611,35.9475,671.00,82.40,53.60,37.07,50.00,6.00,0.00,29.99,M,10.00,12.00,CLR,M,M,M,M,M,M,M,M,M,M,M,M,M,M,81.46,KBVU 141715Z AUTO 05006G12KT 10SM CLR 28/12 A2999 RMK AO2,M
CXP,2023-09-14 17:15,-119.7326,39.1923,1431.00,69.80,42.80,37.61,0.00,0.00,0.00,30.21,M,10.00,M,CLR,M,M,M,M,M,M,M,M,M,M,M,M,M,M,69.80,KCXP 141715Z AUTO 00000KT 10SM CLR 21/06 A3021 RMK AO2,M
RTS,2023-09-14 17:15,-119.8764,39.6682,1539.00,69.80,33.80,26.43,0.00,0.00,0.00,30.23,M,10.00,M,CLR,M,M,M,M,M,M,M,M,M,M,M,M,M,M,69.80,KRTS 141715Z AUTO 00000KT 10SM CLR 21/01 A3023 RMK AO2,M
MEV,2023-09-14 17:15,-119.7500,38.9963,1441.42,68.00,41.00,37.32,0.00,0.00,0.00,30.20,M,10.00,M,CLR,M,M,M,M,M,M,M,M,M,M,M,M,M,M,68.00,KMEV 141715Z AUTO 00000KT 10SM CLR 20/05 A3020 RMK AO2,M
BAM,2023-09-14 17:15,-116.8743,40.5990,1382.36,68.00,42.80,40.00,350.00,3.00,0.00,30.23,M,10.00,M,CLR,M,M,M,M,M,M,M,M,M,M,M,M,M,M,68.00,KBAM 141715Z AUTO 35003KT 10SM CLR 20/06 A3023 RMK AO1,M
HTH,2023-09-14 17:15,-118.6315,38.5448,1282.89,71.60,41.00,33.00,340.00,5.00,0.00,30.18,M,10.00,10.00,CLR,M,M,M,M,M,M,M,M,M,M,M,M,M,M,71.60,KHTH 141715Z AUTO 34005G10KT 10SM CLR 22/05 A3018 RMK A01,M
TMT,2023-09-14 17:15,-117.1971,39.4643,1749.34,63.00,41.70,45.63,0.00,0.00,0.00,30.26,M,M,M,CLR,M,M,M,M,M,M,M,M,M,M,M,M,M,M,63.00,KTMT 141715Z AUTO 00000KT CLR 17/05 A3026 RMK AO2 T01730054 PWINO,M
05U,2023-09-14 17:30,-116.0051,39.6042,1811.23,68.00,39.20,34.80,M,4.00,0.00,30.27,M,10.00,M,CLR,M,M,M,M,M,M,M,M,M,M,M,M,M,M,68.00,K05U 141730Z AUTO VRB04KT 10SM CLR 20/04 A3027 RMK A01,M
BVU,2023-09-14 17:35,-114.8611,35.9475,671.00,82.40,53.60,37.07,30.00,6.00,0.00,29.99,M,10.00,12.00,CLR,M,M,M,M,M,M,M,M,M,M,M,M,M,M,81.46,KBVU 141735Z AUTO 03006G12KT 10SM CLR 28/12 A2999 RMK AO2,M
CXP,2023-09-14 17:35,-119.7326,39.1923,1431.00,71.60,37.40,28.68,0.00,0.00,0.00,30.21,M,10.00,M,CLR,M,M,M,M,M,M,M,M,M,M,M,M,M,M,71.60,KCXP 141735Z AUTO 00000KT 10SM CLR 22/03 A3021 RMK AO2,M
RTS,2023-09-14 17:35,-119.8764,39.6682,1539.00,71.60,33.80,24.86,140.00,7.00,0.00,30.23,M,10.00,M,CLR,M,M,M,M,M,M,M,M,M,M,M,M,M,M,71.60,KRTS 141735Z AUTO 14007KT 10SM CLR 22/01 A3023 RMK AO2,M
MEV,2023-09-14 17:35,-119.7500,38.9963,1441.42,69.80,39.20,32.72,0.00,0.00,0.00,30.20,M,10.00,M,CLR,M,M,M,M,M,M,M,M,M,M,M,M,M,M,69.80,KMEV 141735Z AUTO 00000KT 10SM CLR 21/04 A3020 RMK AO2,M
HTH,2023-09-14 17:35,-118.6315,38.5448,1282.89,73.40,37.40,26.98,320.00,6.00,0.00,30.18,M,10.00,M,CLR,M,M,M,M,M,M,M,M,M,M,M,M,M,M,73.40,KHTH 141735Z AUTO 32006KT 10SM CLR 23/03 A3018 RMK A01,M
BAM,2023-09-14 17:35,-116.8743,40.5990,1382.36,68.00,42.80,40.00,360.00,3.00,0.00,30.23,M,10.00,M,CLR,M,M,M,M,M,M,M,M,M,M,M,M,M,M,68.00,KBAM 141735Z AUTO 36003KT 10SM CLR 20/06 A3023 RMK AO1,M
TMT,2023-09-14 17:35,-117.1971,39.4643,1749.34,64.00,40.50,42.06,0.00,0.00,0.00,30.26,M,M,M,CLR,M,M,M,M,M,M,M,M,M,M,M,M,M,M,64.00,KTMT 141735Z AUTO 00000KT CLR 18/05 A3026 RMK AO2 T01770047 PWINO,M
05U,2023-09-14 17:50,-116.0051,39.6042,1811.23,69.80,37.40,30.49,M,5.00,0.00,30.27,M,10.00,M,CLR,M,M,M,M,M,M,M,M,M,M,M,M,M,M,69.80,K05U 141750Z AUTO VRB05KT 10SM CLR 21/03 A3027 RMK A01,M
CXP,2023-09-14 17:50,-119.7326,39.1923,1431.00,73.40,37.40,26.98,M,4.00,0.00,30.21,M,10.00,M,CLR,M,M,M,M,M,M,M,M,M,M,M,M,M,M,73.40,KCXP 141750Z AUTO VRB04KT 10SM CLR 23/03 A3021 RMK AO2,M
P68,2023-09-14 17:53,-116.0056,39.6014,1993.00,68.00,38.00,33.20,M,5.00,0.00,30.24,1017.30,M,M,M,M,M,M,M,M,M,M,M,M,M,M,M,M,M,68.00,KP68 141753Z AUTO VRB05KT 20/03 A3024 RMK AO1 SLP173 T02000033 10200 20050 56000,M
DRA,2023-09-14 17:53,-116.0278,36.6206,1009.00,83.00,51.00,33.04,30.00,10.00,0.00,30.05,1012.80,10.00,M,CLR,M,M,M,M,M,M,M,M,M,M,M,M,M,M,81.51,KDRA 141753Z AUTO 03010KT 10SM CLR 28/11 A3005 RMK AO2 SLP128 T02830106 10283 20206 53003,M
ELY,2023-09-14 17:53,-114.8453,39.2950,1909.00,66.00,45.00,46.62,M,M,0.00,30.24,1016.50,10.00,M,CLR,M,M,M,M,M,M,M,M,M,M,M,M,M,M,66.00,KELY 141753Z AUTO 10SM CLR 19/07 A3024 RMK AO2 SLP165 T01890072 10189 20050 50001,M
VGT,2023-09-14 17:53,-115.1933,36.2111,667.00,85.00,53.00,33.34,0.00,0.00,0.00,29.98,1014.40,10.00,M,CLR,M,M,M,M,M,M,M,M,M,M,M,M,M,M,83.27,KVGT 141753Z 00000KT 10SM CLR 29/12 A2998 RMK AO2 LTG DSNT W SLP144 T02940117 10306 20233 56002,M
LOL,2023-09-14 17:53,-118.5701,40.0684,1192.43,76.00,37.00,24.35,60.00,9.00,0.00,30.15,1017.60,10.00,M,CLR,M,M,M,M,M,M,M,M,M,M,M,M,M,M,76.00,KLOL 141753Z AUTO 06009KT 10SM CLR 24/03 A3015 RMK AO2 SLP176 T02440028 10244 20150 50001,M
BVU,2023-09-14 17:55,-114.8611,35.9475,671.00,84.20,53.60,34.97,40.00,7.00,0.00,29.98,M,10.00,M,CLR,M,M,M,M,M,M,M,M,M,M,M,M,M,M,82.76,KBVU 141755Z AUTO 04007KT 10SM CLR 29/12 A2998 RMK AO2,M
RNO,2023-09-14 17:55,-119.7711,39.4839,1341.00,77.00,37.00,23.55,0.00,0.00,0.00,30.19,1016.90,10.00,M,CLR,M,M,M,M,M,M,M,M,M,M,M,M,M,M,77.00,KRNO 141755Z 00000KT 10SM CLR 25/03 A3019 RMK AO2 SLP169 T02500028 10250 20133 58001,M
RTS,2023-09-14 17:55,-119.8764,39.6682,1539.00,71.60,33.80,24.86,140.00,6.00,0.00,30.22,M,10.00,M,CLR,M,M,M,M,M,M,M,M,M,M,M,M,M,M,71.60,KRTS 141755Z AUTO 14006KT 10SM CLR 22/01 A3022 RMK AO2,M
MEV,2023-09-14 17:55,-119.7500,38.9963,1441.42,71.60,41.00,33.00,M,4.00,0.00,30.20,M,10.00,M,CLR,M,M,M,M,M,M,M,M,M,M,M,M,M,M,71.60,KMEV 141755Z AUTO VRB04KT 10SM CLR 22/05 A3020 RMK AO2,M
HTH,2023-09-14 17:55,-118.6315,38.5448,1282.89,73.40,35.60,25.13,320.00,8.00,0.00,30.18,M,10.00,M,CLR,M,M,M,M,M,M,M,M,M,M,M,M,M,M,73.40,KHTH 141755Z AUTO 32008KT 10SM CLR 23/02 A3018 RMK A01,M
BAM,2023-09-14 17:55,-116.8743,40.5990,1382.36,69.80,42.80,37.61,340.00,4.00,0.00,30.22,M,10.00,M,CLR,M,M,M,M,M,M,M,M,M,M,M,M,M,M,69.80,KBAM 141755Z AUTO 34004KT 10SM CLR 21/06 A3022 RMK AO1,M
TMT,2023-09-14 17:55,-117.1971,39.4643,1749.34,66.40,40.50,38.68,30.00,4.00,0.00,30.26,M,M,M,CLR,M,M,M,M,M,M,M,M,M,M,M,M,M,M,66.40,KTMT 141755Z AUTO 03004KT CLR 19/05 A3026 RMK AO2 T01910047 10192 20009 PWINO,M
INS,2023-09-14 17:55,-115.6733,36.5872,955.00,79.70,48.00,32.89,10.00,8.00,0.00,30.04,1012.70,10.00,M,BKN,OVC,M,M,12000.00,15000.00,M,M,M,M,M,M,M,M,M,79.70,KINS 141755Z AUTO 01008KT 10SM BKN120 OVC150 27/09 A3004 RMK AO2 SLP127 T02650089 10265 20181 55001 $,M
LSV,2023-09-14 17:55,-115.0343,36.2362,570.00,84.00,54.00,35.72,40.00,11.00,0.00,29.95,1011.90,10.00,M,FEW,M,M,M,14000.00,M,M,M,M,M,M,M,M,M,M,82.67,KLSV 141755Z AUTO 04011KT 10SM FEW140 29/12 A2995 RMK AO2 SLP119 T02890123 10316 20228 55000 $,M
EKO,2023-09-14 17:56,-115.7860,40.8242,1367.00,69.00,39.00,33.36,0.00,0.00,0.00,30.21,1018.80,10.00,M,CLR,M,M,M,M,M,M,M,M,M,M,M,M,M,M,69.00,KEKO 141756Z AUTO 00000KT 10SM CLR 21/04 A3021 RMK AO2 SLP188 T02060039 10211 20061 58003,M
WMC,2023-09-14 17:56,-117.8072,40.9019,1315.00,74.00,38.00,27.08,20.00,11.00,0.00,30.20,1018.20,10.00,18.00,CLR,M,M,M,M,M,M,M,M,M,M,M,M,M,M,74.00,KWMC 141756Z AUTO 02011G18KT 10SM CLR 23/03 A3020 RMK AO2 SLP182 T02330033 10233 20056 58000,M
NFL,2023-09-14 17:56,-118.7010,39.4166,1199.00,76.00,40.00,27.38,M,4.00,0.00,30.15,1017.60,10.00,M,FEW,M,M,M,7000.00,M,M,M,M,M,M,M,M,M,M,76.00,KNFL 141756Z VRB04KT 10SM FEW070 24/04 A3015 RMK AO2 SLP176 T02440044 10244 20100 50003,M
HND,2023-09-14 17:56,-115.1344,35.9729,742.79,82.00,54.00,38.11,M,3.00,0.00,30.03,1015.90,10.00,M,CLR,M,M,M,M,M,M,M,M,M,M,M,M,M,M,81.24,KHND 141756Z VRB03KT 10SM CLR 28/12 A3003 RMK AO2 LTG DSNT NW SLP159 T02780122 10283 20206 50001,M
LAS,2023-09-14 17:56,-115.1634,36.0719,663.00,85.00,53.00,33.34,M,3.00,0.00,29.99,1013.20,10.00,M,FEW,SCT,BKN,M,10000.00,16000.00,25000.00,M,M,M,M,M,M,M,M,83.27,KLAS 141756Z VRB03KT 10SM FEW100 SCT160 BKN250 29/12 A2999 RMK AO2 LTG DSNT NW SLP132 TCU DSNT W ACC DSNT SW T02940117 10294 20239 50001 $,M
05U,2023-09-14 18:10,-116.0051,39.6042,1811.23,69.80,37.40,30.49,190.00,8.00,0.00,30.27,M,10.00,M,CLR,M,M,M,M,M,M,M,M,M,M,M,M,M,M,69.80,K05U 141810Z AUTO 19008KT 10SM CLR 21/03 A3027 RMK A01,M
BVU,2023-09-14 18:15,-114.8611,35.9475,671.00,84.20,53.60,34.97,360.00,6.00,0.00,29.98,M,10.00,M,CLR,M,M,M,M,M,M,M,M,M,M,M,M,M,M,82.76,KBVU 141815Z AUTO 36006KT 10SM CLR 29/12 A2998 RMK AO2,M
CXP,2023-09-14 18:15,-119.7326,39.1923,1431.00,75.20,33.80,22.02,70.00,7.00,0.00,30.20,M,9.00,M,CLR,M,M,M,M,M,M,M,M,M,M,M,M,M,M,75.20,KCXP 141815Z AUTO 07007KT 040V100 9SM CLR 24/01 A3020 RMK AO2,M
RTS,2023-09-14 18:15,-119.8764,39.6682,1539.00,71.60,32.00,23.13,M,3.00,0.00,30.22,M,10.00,M,CLR,M,M,M,M,M,M,M,M,M,M,M,M,M,M,71.60,KRTS 141815Z AUTO VRB03KT 10SM CLR 22/00 A3022 RMK AO2,M
MEV,2023-09-14 18:15,-119.7500,38.9963,1441.42,73.40,39.20,28.96,320.00,6.00,0.00,30.19,M,10.00,M,CLR,M,M,M,M,M,M,M,M,M,M,M,M,M,M,73.40,KMEV 141815Z AUTO 32006KT 10SM CLR 23/04 A3019 RMK AO2,M
HTH,2023-09-14 18:15,-118.6315,38.5448,1282.89,75.20,35.60,23.66,330.00,6.00,0.00,30.17,M,10.00,11.00,CLR,M,M,M,M,M,M,M,M,M,M,M,M,M,M,75.20,KHTH 141815Z AUTO 33006G11KT 10SM CLR 24/02 A3017 RMK A01,M
BAM,2023-09-14 18:15,-116.8743,40.5990,1382.36,69.80,41.00,35.09,20.00,4.00,0.00,30.22,M,10.00,M,CLR,M,M,M,M,M,M,M,M,M,M,M,M,M,M,69.80,KBAM 141815Z AUTO 02004KT 10SM CLR 21/05 A3022 RMK AO1,M
TMT,2023-09-14 18:15,-117.1971,39.4643,1749.34,68.00,41.00,37.32,40.00,5.00,0.00,30.25,M,M,M,CLR,M,M,M,M,M,M,M,M,M,M,M,M,M,M,68.00,KTMT 141815Z AUTO 04005KT CLR 20/05 A3025 RMK AO2 T01990049 PWINO,M
05U,2023-09-14 18:30,-116.0051,39.6042,1811.23,69.80,35.60,28.39,M,4.00,0.00,30.26,M,10.00,10.00,CLR,M,M,M,M,M,M,M,M,M,M,M,M,M,M,69.80,K05U 141830Z AUTO VRB04G10KT 10SM CLR 21/02 A3026 RMK A01,M
BVU,2023-09-14 18:35,-114.8611,35.9475,671.00,86.00,51.80,30.90,50.00,10.00,0.00,29.98,M,10.00,M,CLR,M,M,M,M,M,M,M,M,M,M,M,M,M,M,83.87,KBVU 141835Z AUTO 05010KT 10SM CLR 30/11 A2998 RMK AO2 LTG DSNT NW,M
CXP,2023-09-14 18:35,-119.7326,39.1923,1431.00,77.00,33.80,20.74,70.00,7.00,0.00,30.20,M,10.00,13.00,CLR,M,M,M,M,M,M,M,M,M,M,M,M,M,M,77.00,KCXP 141835Z AUTO 07007G13KT 10SM CLR 25/01 A3020 RMK AO2,M
RTS,2023-09-14 18:35,-119.8764,39.6682,1539.00,73.40,33.80,23.39,180.00,4.00,0.00,30.22,M,10.00,M,CLR,M,M,M,M,M,M,M,M,M,M,M,M,M,M,73.40,KRTS 141835Z AUTO 18004KT 10SM CLR 23/01 A3022 RMK AO2,M
MEV,2023-09-14 18:35,-119.7500,38.9963,1441.42,75.20,37.40,25.40,M,4.00,0.00,30.19,M,10.00,M,CLR,M,M,M,M,M,M,M,M,M,M,M,M,M,M,75.20,KMEV 141835Z AUTO VRB04KT 10SM CLR 24/03 A3019 RMK AO2,M
HTH,2023-09-14 18:35,-118.6315,38.5448,1282.89,75.20,35.60,23.66,330.00,7.00,0.00,30.16,M,10.00,M,CLR,M,M,M,M,M,M,M,M,M,M,M,M,M,M,75.20,KHTH 141835Z AUTO 33007KT 10SM CLR 24/02 A3016 RMK A01,M
BAM,2023-09-14 18:35,-116.8743,40.5990,1382.36,71.60,41.00,33.00,0.00,0.00,0.00,30.22,M,10.00,M,CLR,M,M,M,M,M,M,M,M,M,M,M,M,M,M,71.60,KBAM 141835Z AUTO 00000KT 10SM CLR 22/05 A3022 RMK AO1,M
TMT,2023-09-14 18:35,-117.1971,39.4643,1749.34,69.00,39.60,34.15,40.00,6.00,0.00,30.25,M,M,M,CLR,M,M,M,M,M,M,M,M,M,M,M,M,M,M,69.00,KTMT 141835Z AUTO 04006KT CLR 21/04 A3025 RMK AO2 T02060042 PWINO,M
05U,2023-09-14 18:50,-116.0051,39.6042,1811.23,71.60,37.40,28.68,M,6.00,0.00,30.26,M,10.00,M,CLR,M,M,M,M,M,M,M,M,M,M,M,M,M,M,71.60,K05U 141850Z AUTO VRB06KT 10SM CLR 22/03 A3026 RMK A01,M
P68,2023-09-14 18:53,-116.0056,39.6014,1993.00,70.00,36.00,28.65,350.00,5.00,0.00,30.22,1016.80,M,M,M,M,M,M,M,M,M,M,M,M,M,M,M,M,M,70.00,KP68 141853Z AUTO 35005KT 21/02 A3022 RMK AO1 SLP168 T02110022,M
DRA,2023-09-14 18:53,-116.0278,36.6206,1009.00,86.00,49.00,27.85,10.00,8.00,0.00,30.03,1012.20,10.00,M,CLR,M,M,M,M,M,M,M,M,M,M,M,M,M,M,83.49,KDRA 141853Z AUTO 01008KT 10SM CLR 30/09 A3003 RMK AO2 SLP122 T03000094,M
ELY,2023-09-14 18:53,-114.8453,39.2950,1909.00,71.00,44.00,37.80,20.00,7.00,0.00,30.23,1015.60,10.00,M,CLR,M,M,M,M,M,M,M,M,M,M,M,M,M,M,71.00,KELY 141853Z AUTO 02007KT 350V050 10SM CLR 22/07 A3023 RMK AO2 SLP156 T02170067,M
VGT,2023-09-14 18:53,-115.1933,36.2111,667.00,85.00,53.00,33.34,110.00,10.00,0.00,29.97,1014.10,10.00,M,CLR,M,M,M,M,M,M,M,M,M,M,M,M,M,M,83.27,KVGT 141853Z 11010KT 10SM CLR 29/12 A2997 RMK AO2 LTG DSNT W SLP141 T02940117,M
LOL,2023-09-14 18:53,-118.5701,40.0684,1192.43,78.00,34.00,20.23,40.00,7.00,0.00,30.14,1017.00,10.00,M,CLR,M,M,M,M,M,M,M,M,M,M,M,M,M,M,78.00,KLOL 141853Z AUTO 04007KT 10SM CLR 26/01 A3014 RMK AO2 SLP170 T02560011,M
BVU,2023-09-14 18:55,-114.8611,35.9475,671.00,86.00,51.80,30.90,40.00,10.00,0.00,29.97,M,10.00,15.00,CLR,M,M,M,M,M,M,M,M,M,M,M,M,M,M,83.87,KBVU 141855Z AUTO 04010G15KT 10SM CLR 30/11 A2997 RMK AO2,M
CXP,2023-09-14 18:55,-119.7326,39.1923,1431.00,77.00,33.80,20.74,60.00,10.00,0.00,30.19,M,10.00,M,CLR,M,M,M,M,M,M,M,M,M,M,M,M,M,M,77.00,KCXP 141855Z AUTO 06010KT 10SM CLR 25/01 A3019 RMK AO2,M
RNO,2023-09-14 18:55,-119.7711,39.4839,1341.00,78.00,36.00,21.90,310.00,5.00,0.00,30.17,1016.20,10.00,M,CLR,M,M,M,M,M,M,M,M,M,M,M,M,M,M,78.00,KRNO 141855Z 31005KT 10SM CLR 26/02 A3017 RMK AO2 SLP162 T02560022,M
RTS,2023-09-14 18:55,-119.8764,39.6682,1539.00,73.40,32.00,21.76,M,6.00,0.00,30.21,M,10.00,M,CLR,M,M,M,M,M,M,M,M,M,M,M,M,M,M,73.40,KRTS 141855Z AUTO VRB06KT 10SM CLR 23/00 A3021 RMK AO2,M
MEV,2023-09-14 18:55,-119.7500,38.9963,1441.42,75.20,37.40,25.40,M,5.00,0.00,30.18,M,10.00,M,CLR,M,M,M,M,M,M,M,M,M,M,M,M,M,M,75.20,KMEV 141855Z AUTO VRB05KT 10SM CLR 24/03 A3018 RMK AO2,M
BAM,2023-09-14 18:55,-116.8743,40.5990,1382.36,73.40,41.00,31.05,40.00,5.00,0.00,30.21,M,10.00,M,CLR,M,M,M,M,M,M,M,M,M,M,M,M,M,M,73.40,KBAM 141855Z AUTO 04005KT 10SM CLR 23/05 A3021 RMK AO1,M
HTH,2023-09-14 18:55,-118.6315,38.5448,1282.89,77.00,37.40,23.93,310.00,8.00,0.00,30.16,M,10.00,M,CLR,M,M,M,M,M,M,M,M,M,M,M,M,M,M,77.00,KHTH 141855Z AUTO 31008KT 10SM CLR 25/03 A3016 RMK A01,M
TMT,2023-09-14 18:55,-117.1971,39.4643,1749.34,69.40,37.20,30.66,330.00,4.00,0.00,30.24,M,M,M,CLR,M,M,M,M,M,M,M,M,M,M,M,M,M,M,69.40,KTMT 141855Z AUTO 33004KT CLR 21/03 A3024 RMK AO2 T02080029 PWINO,M
INS,2023-09-14 18:55,-115.6733,36.5872,955.00,82.00,45.50,27.77,40.00,5.00,0.00,30.03,1012.30,10.00,M,FEW,M,M,M,13000.00,M,M,M,M,M,M,M,M,M,M,80.32,KINS 141855Z AUTO 04005KT 10SM FEW130 28/08 A3003 RMK AO2 LTG DSNT SE SLP123 T02770075 $,M
LSV,2023-09-14 18:55,-115.0343,36.2362,570.00,86.00,52.50,31.71,20.00,12.00,0.00,29.94,1011.60,10.00,M,CLR,M,M,M,M,M,M,M,M,M,M,M,M,M,M,83.99,KLSV 141855Z AUTO 02012KT 10SM CLR 30/11 A2994 RMK AO2 LTG DSNT SW SLP116 T02990114 $,M
EKO,2023-09-14 18:56,-115.7860,40.8242,1367.00,73.00,38.00,28.00,M,M,0.00,30.20,1018.20,10.00,M,CLR,M,M,M,M,M,M,M,M,M,M,M,M,M,M,73.00,KEKO 141856Z AUTO 10SM CLR 23/03 A3020 RMK AO2 SLP182 T02280033,M
WMC,2023-09-14 18:56,-117.8072,40.9019,1315.00,77.00,35.00,21.76,30.00,10.00,0.00,30.18,1017.80,10.00,16.00,CLR,M,M,M,M,M,M,M,M,M,M,M,M,M,M,77.00,KWMC 141856Z AUTO 03010G16KT 10SM CLR 25/02 A3018 RMK AO2 SLP178 T02500017,M
NFL,2023-09-14 18:56,-118.7010,39.4166,1199.00,79.00,38.00,22.93,0.00,0.00,0.00,30.14,1017.20,10.00,M,FEW,M,M,M,7000.00,M,M,M,M,M,M,M,M,M,M,79.00,KNFL 141856Z 00000KT 10SM FEW070 26/03 A3014 RMK AO2 SLP172 T02610033,M
HND,2023-09-14 18:56,-115.1344,35.9729,742.79,86.00,54.00,33.50,50.00,8.00,0.00,30.02,1015.30,10.00,M,CLR,M,M,M,M,M,M,M,M,M,M,M,M,M,M,84.26,KHND 141856Z 05008KT 10SM CLR 30/12 A3002 RMK AO2 LTG DSNT NW SLP153 T03000122,M
LAS,2023-09-14 18:56,-115.1634,36.0719,663.00,86.00,52.00,31.13,90.00,8.00,0.00,29.98,1012.80,10.00,M,FEW,SCT,SCT,M,10000.00,16000.00,25000.00,M,M,M,M,M,M,M,M,83.91,KLAS 141856Z 09008KT 10SM FEW100 SCT160 SCT250 30/11 A2998 RMK AO2 LTG DSNT W SLP128 CB DSNT W T03000111 $,M
05U,2023-09-14 19:10,-116.0051,39.6042,1811.23,71.60,37.40,28.68,180.00,8.00,0.00,30.25,M,10.00,M,CLR,M,M,M,M,M,M,M,M,M,M,M,M,M,M,71.60,K05U 141910Z AUTO 18008KT 10SM CLR 22/03 A3025 RMK A01,M
BVU,2023-09-14 19:15,-114.8611,35.9475,671.00,86.00,51.80,30.90,60.00,9.00,0.00,29.96,M,10.00,M,CLR,M,M,M,M,M,M,M,M,M,M,M,M,M,M,83.87,KBVU 141915Z AUTO 06009KT 10SM CLR 30/11 A2996 RMK AO2,M
CXP,2023-09-14 19:15,-119.7326,39.1923,1431.00,77.00,33.80,20.74,80.00,9.00,0.00,30.18,M,10.00,14.00,CLR,M,M,M,M,M,M,M,M,M,M,M,M,M,M,77.00,KCXP 141915Z AUTO 08009G14KT 10SM CLR 25/01 A3018 RMK AO2,M
RTS,2023-09-14 19:15,-119.8764,39.6682,1539.00,73.40,32.00,21.76,M,3.00,0.00,30.20,M,10.00,11.00,CLR,M,M,M,M,M,M,M,M,M,M,M,M,M,M,73.40,KRTS 141915Z AUTO VRB03G11KT 10SM CLR 23/00 A3020 RMK AO2,M
MEV,2023-09-14 19:15,-119.7500,38.9963,1441.42,77.00,37.40,23.93,310.00,6.00,0.00,30.17,M,10.00,M,CLR,M,M,M,M,M,M,M,M,M,M,M,M,M,M,77.00,KMEV 141915Z AUTO 31006KT 10SM CLR 25/03 A3017 RMK AO2,M
BAM,2023-09-14 19:15,-116.8743,40.5990,1382.36,73.40,35.60,25.13,70.00,4.00,0.00,30.20,M,10.00,M,CLR,M,M,M,M,M,M,M,M,M,M,M,M,M,M,73.40,KBAM 141915Z AUTO 07004KT 10SM CLR 23/02 A3020 RMK AO1,M
HTH,2023-09-14 19:15,-118.6315,38.5448,1282.89,77.00,37.40,23.93,320.00,13.00,0.00,30.15,M,10.00,M,CLR,M,M,M,M,M,M,M,M,M,M,M,M,M,M,77.00,KHTH 141915Z AUTO 32013KT 10SM CLR 25/03 A3015 RMK A01,M
TMT,2023-09-14 19:15,-117.1971,39.4643,1749.34,70.30,37.00,29.50,0.00,0.00,0.00,30.24,M,M,M,CLR,M,M,M,M,M,M,M,M,M,M,M,M,M,M,70.30,KTMT 141915Z AUTO 00000KT CLR 21/03 A3024 RMK AO2 LTG DSNT SE T02130028 PWINO,M
05U,2023-09-14 19:30,-116.0051,39.6042,1811.23,73.40,37.40,26.98,180.00,7.00,0.00,30.24,M,10.00,M,CLR,M,M,M,M,M,M,M,M,M,M,M,M,M,M,73.40,K05U 141930Z AUTO 18007KT 10SM CLR 23/03 A3024 RMK A01,M
HTH,2023-09-14 19:30,-118.6315,38.5448,1282.89,78.80,37.40,22.54,350.00,7.00,0.00,30.14,M,10.00,13.00,CLR,M,M,M,M,M,M,M,M,M,M,M,M,M,M,78.80,KHTH 141930Z AUTO 35007G13KT 10SM CLR 26/03 A3014 RMK A01,M
BVU,2023-09-14 19:35,-114.8611,35.9475,671.00,86.00,50.00,28.90,60.00,10.00,0.00,29.96,M,10.00,M,CLR,M,M,M,M,M,M,M,M,M,M,M,M,M,M,83.62,KBVU 141935Z AUTO 06010KT 10SM CLR 30/10 A2996 RMK AO2 LTG DSNT W AND NW,M
CXP,2023-09-14 19:35,-119.7326,39.1923,1431.00,77.00,33.80,20.74,80.00,9.00,0.00,30.18,M,10.00,14.00,CLR,M,M,M,M,M,M,M,M,M,M,M,M,M,M,77.00,KCXP 141935Z AUTO 08009G14KT 10SM CLR 25/01 A3018 RMK AO2,M
RTS,2023-09-14 19:35,-119.8764,39.6682,1539.00,75.20,32.00,20.49,M,5.00,0.00,30.20,M,10.00,11.00,CLR,M,M,M,M,M,M,M,M,M,M,M,M,M,M,75.20,KRTS 141935Z AUTO VRB05G11KT 10SM CLR 24/M00 A3020 RMK AO2,M
MEV,2023-09-14 19:35,-119.7500,38.9963,1441.42,77.00,37.40,23.93,M,5.00,0.00,30.16,M,9.00,M,CLR,M,M,M,M,M,M,M,M,M,M,M,M,M,M,77.00,KMEV 141935Z AUTO VRB05KT 9SM CLR 25/03 A3016 RMK AO2,M
BAM,2023-09-14 19:35,-116.8743,40.5990,1382.36,73.40,37.40,26.98,0.00,0.00,0.00,30.19,M,10.00,M,CLR,M,M,M,M,M,M,M,M,M,M,M,M,M,M,73.40,KBAM 141935Z AUTO 00000KT 10SM CLR 23/03 A3019 RMK AO1,M
TMT,2023-09-14 19:35,-117.1971,39.4643,1749.34,70.70,35.00,26.89,180.00,5.00,0.00,30.23,M,M,M,CLR,M,M,M,M,M,M,M,M,M,M,M,M,M,M,70.70,KTMT 141935Z AUTO 18005KT CLR 22/02 A3023 RMK AO2 T02150016 PWINO,M
05U,2023-09-14 19:50,-116.0051,39.6042,1811.23,73.40,35.60,25.13,190.00,7.00,0.00,30.24,M,10.00,M,CLR,M,M,M,M,M,M,M,M,M,M,M,M,M,M,73.40,K05U 141950Z AUTO 19007KT 160V220 10SM CLR 23/02 A3024 RMK A01,M
P68,2023-09-14 19:53,-116.0056,39.6014,1993.00,73.00,36.00,25.88,40.00,12.00,0.00,30.20,1016.40,M,M,M,M,M,M,M,M,M,M,M,M,M,M,M,M,M,73.00,KP68 141953Z AUTO 04012KT 23/02 A3020 RMK AO1 SLP164 T02280022,M
DRA,2023-09-14 19:53,-116.0278,36.6206,1009.00,88.00,44.00,21.63,20.00,6.00,0.00,30.01,1011.50,10.00,M,CLR,M,M,M,M,M,M,M,M,M,M,M,M,M,M,84.65,KDRA 141953Z AUTO 02006KT 10SM CLR 31/07 A3001 RMK AO2 SLP115 T03110067,M
ELY,2023-09-14 19:53,-114.8453,39.2950,1909.00,72.00,39.00,30.12,M,M,0.00,30.21,1014.60,10.00,M,CLR,M,M,M,M,M,M,M,M,M,M,M,M,M,M,72.00,KELY 141953Z AUTO 10SM CLR 22/04 A3021 RMK AO2 SLP146 T02220039,M
VGT,2023-09-14 19:53,-115.1933,36.2111,667.00,84.00,52.00,33.19,80.00,4.00,0.00,29.97,1013.90,10.00,M,CLR,M,M,M,M,M,M,M,M,M,M,M,M,M,M,82.36,KVGT 141953Z 08004KT 10SM CLR 29/11 A2997 RMK AO2 LTG DSNT W SLP139 T02890111,M
LOL,2023-09-14 19:53,-118.5701,40.0684,1192.43,79.00,33.00,18.80,80.00,6.00,0.00,30.12,1016.50,10.00,M,CLR,M,M,M,M,M,M,M,M,M,M,M,M,M,M,79.00,KLOL 141953Z AUTO 08006KT 10SM CLR 26/01 A3012 RMK AO2 SLP165 T02610006,M
BVU,2023-09-14 19:55,-114.8611,35.9475,671.00,87.80,50.00,27.29,50.00,7.00,0.00,29.95,M,10.00,M,CLR,M,M,M,M,M,M,M,M,M,M,M,M,M,M,85.11,KBVU 141955Z AUTO 05007KT 10SM CLR 31/10 A2995 RMK AO2 LTG DSNT NE,M
CXP,2023-09-14 19:55,-119.7326,39.1923,1431.00,78.80,33.80,19.55,60.00,7.00,0.00,30.17,M,10.00,13.00,CLR,M,M,M,M,M,M,M,M,M,M,M,M,M,M,78.80,KCXP 141955Z AUTO 06007G13KT 030V090 10SM CLR 26/01 A3017 RMK AO2,M
RNO,2023-09-14 19:55,-119.7711,39.4839,1341.00,81.00,34.00,18.33,0.00,0.00,0.00,30.14,1015.60,10.00,M,CLR,M,M,M,M,M,M,M,M,M,M,M,M,M,M,79.13,KRNO 141955Z 00000KT 10SM CLR 27/01 A3014 RMK AO2 SLP156 T02720011,M
RTS,2023-09-14 19:55,-119.8764,39.6682,1539.00,75.20,32.00,20.49,130.00,7.00,0.00,30.19,M,10.00,M,CLR,M,M,M,M,M,M,M,M,M,M,M,M,M,M,75.20,KRTS 141955Z AUTO 13007KT 10SM CLR 24/M00 A3019 RMK AO2,M
MEV,2023-09-14 19:55,-119.7500,38.9963,1441.42,77.00,37.40,23.93,260.00,5.00,0.00,30.16,M,8.00,M,CLR,M,M,M,M,M,M,M,M,M,M,M,M,M,M,77.00,KMEV 141955Z AUTO 26005KT 8SM CLR 25/03 A3016 RMK AO2,M
BAM,2023-09-14 19:55,-116.8743,40.5990,1382.36,73.40,35.60,25.13,0.00,0.00,0.00,30.19,M,10.00,M,CLR,M,M,M,M,M,M,M,M,M,M,M,M,M,M,73.40,KBAM 141955Z AUTO 00000KT 10SM CLR 23/02 A3019 RMK AO1,M
HTH,2023-09-14 19:55,-118.6315,38.5448,1282.89,78.80,37.40,22.54,320.00,9.00,0.00,30.13,M,10.00,M,CLR,M,M,M,M,M,M,M,M,M,M,M,M,M,M,78.80,KHTH 141955Z AUTO 32009KT 10SM CLR 26/03 A3013 RMK A01,M
TMT,2023-09-14 19:55,-117.1971,39.4643,1749.34,72.00,35.00,25.73,0.00,0.00,0.00,30.22,M,M,M,CLR,M,M,M,M,M,M,M,M,M,M,M,M,M,M,72.00,KTMT 141955Z AUTO 00000KT CLR 22/02 A3022 RMK AO2 T02230016 PWINO,M
INS,2023-09-14 19:55,-115.6733,36.5872,955.00,84.70,42.80,22.96,130.00,4.00,0.00,30.01,1011.80,10.00,M,CLR,M,M,M,M,M,M,M,M,M,M,M,M,M,M,81.97,KINS 141955Z AUTO 13004KT 10SM CLR 29/06 A3001 RMK AO2 SLP118 T02930060 $,M
LSV,2023-09-14 19:55,-115.0343,36.2362,570.00,86.00,51.00,30.00,10.00,5.00,0.00,29.92,1010.90,10.00,M,FEW,M,M,M,20000.00,M,M,M,M,M,M,M,M,M,M,83.75,KLSV 141955Z AUTO 01005KT 10SM FEW200 30/11 A2992 RMK AO2 SLP109 T03000105 $,M
EKO,2023-09-14 19:56,-115.7860,40.8242,1367.00,77.00,39.00,25.47,M,3.00,0.00,30.17,1017.40,10.00,M,CLR,M,M,M,M,M,M,M,M,M,M,M,M,M,M,77.00,KEKO 141956Z AUTO VRB03KT 10SM CLR 25/04 A3017 RMK AO2 SLP174 T02500039,M
WMC,2023-09-14 19:56,-117.8072,40.9019,1315.00,79.00,33.00,18.80,30.00,8.00,0.00,30.16,1017.10,10.00,16.00,CLR,M,M,M,M,M,M,M,M,M,M,M,M,M,M,79.00,KWMC 141956Z AUTO 03008G16KT 350V050 10SM CLR 26/01 A3016 RMK AO2 SLP171 T02610006,M
HND,2023-09-14 19:56,-115.1344,35.9729,742.79,85.00,53.00,33.34,30.00,8.00,0.00,30.00,1014.90,10.00,M,CLR,M,M,M,M,M,M,M,M,M,M,M,M,M,M,83.27,KHND 141956Z 03008KT 10SM CLR 29/12 A3000 RMK AO2 LTG DSNT NW SLP149 T02940117,M
LAS,2023-09-14 19:56,-115.1634,36.0719,663.00,85.00,50.00,29.85,10.00,9.00,T,29.97,1012.50,10.00,M,FEW,SCT,BKN,M,8500.00,16000.00,25000.00,M,-RA,M,M,M,M,M,M,82.83,KLAS 141956Z 01009KT 10SM -RA FEW085 SCT160 BKN250 29/10 A2997 RMK AO2 LTG DSNT W RAB52 SLP125 CB DSNT SW-W TCU DSNT N P0000 T02940100 $,M
05U,2023-09-14 20:10,-116.0051,39.6042,1811.23,75.20,35.60,23.66,M,5.00,0.00,30.23,M,10.00,11.00,CLR,M,M,M,M,M,M,M,M,M,M,M,M,M,M,75.20,K05U 142010Z AUTO VRB05G11KT 10SM CLR 24/02 A3023 RMK A01,M
BVU,2023-09-14 20:15,-114.8611,35.9475,671.00,87.80,51.80,29.18,60.00,9.00,0.00,29.95,M,10.00,M,CLR,M,M,M,M,M,M,M,M,M,M,M,M,M,M,85.39,KBVU 142015Z AUTO 06009KT 10SM CLR 31/11 A2995 RMK AO2 LTG DSNT NW,M
CXP,2023-09-14 20:15,-119.7326,39.1923,1431.00,78.80,33.80,19.55,80.00,9.00,0.00,30.16,M,10.00,16.00,CLR,M,M,M,M,M,M,M,M,M,M,M,M,M,M,78.80,KCXP 142015Z AUTO 08009G16KT 10SM CLR 26/01 A3016 RMK AO2,M
RTS,2023-09-14 20:15,-119.8764,39.6682,1539.00,77.00,30.20,17.94,130.00,8.00,0.00,30.19,M,10.00,M,CLR,M,M,M,M,M,M,M,M,M,M,M,M,M,M,77.00,KRTS 142015Z AUTO 13008KT 10SM CLR 25/M01 A3019 RMK AO2,M
TMT,2023-09-14 20:15,-117.1971,39.4643,1749.34,72.70,34.50,24.63,0.00,0.00,0.00,30.22,M,M,M,CLR,M,M,M,M,M,M,M,M,M,M,M,M,M,M,72.70,KTMT 142015Z AUTO 00000KT CLR 23/01 A3022 RMK AO2 T02260014 PWINO,M
MEV,2023-09-14 20:15,-119.7500,38.9963,1441.42,78.80,37.40,22.54,310.00,6.00,0.00,30.15,M,9.00,M,CLR,M,M,M,M,M,M,M,M,M,M,M,M,M,M,78.80,KMEV 142015Z AUTO 31006KT 9SM CLR 26/03 A3015 RMK AO2,M
BAM,2023-09-14 20:15,-116.8743,40.5990,1382.36,73.40,35.60,25.13,0.00,0.00,0.00,30.18,M,10.00,M,CLR,M,M,M,M,M,M,M,M,M,M,M,M,M,M,73.40,KBAM 142015Z AUTO 00000KT 10SM CLR 23/02 A3018 RMK AO1,M
HTH,2023-09-14 20:15,-118.6315,38.5448,1282.89,78.80,37.40,22.54,M,6.00,0.00,30.13,M,10.00,12.00,CLR,M,M,M,M,M,M,M,M,M,M,M,M,M,M,78.80,KHTH 142015Z AUTO VRB06G12KT 270V340 10SM CLR 26/03 A3013 RMK A01,M
05U,2023-09-14 20:30,-116.0051,39.6042,1811.23,75.20,32.00,20.49,200.00,7.00,0.00,30.22,M,10.00,13.00,CLR,M,M,M,M,M,M,M,M,M,M,M,M,M,M,75.20,K05U 142030Z AUTO 20007G13KT 160V230 10SM CLR 24/00 A3022 RMK A01,M
BVU,2023-09-14 20:35,-114.8611,35.9475,671.00,86.00,53.60,33.01,60.00,7.00,0.00,29.94,M,10.00,M,CLR,M,M,M,M,M,M,M,M,M,M,M,M,M,M,84.18,KBVU 142035Z AUTO 06007KT 10SM CLR 30/12 A2994 RMK AO2 LTG DSNT W-NE,M
CXP,2023-09-14 20:35,-119.7326,39.1923,1431.00,78.80,33.80,19.55,80.00,7.00,0.00,30.16,M,10.00,15.00,CLR,M,M,M,M,M,M,M,M,M,M,M,M,M,M,78.80,KCXP 142035Z AUTO 08007G15KT 10SM CLR 26/01 A3016 RMK AO2,M
RTS,2023-09-14 20:35,-119.8764,39.6682,1539.00,77.00,28.40,16.67,130.00,6.00,0.00,30.18,M,10.00,M,CLR,M,M,M,M,M,M,M,M,M,M,M,M,M,M,77.00,KRTS 142035Z AUTO 13006KT 10SM CLR 25/M02 A3018 RMK AO2,M
MEV,2023-09-14 20:35,-119.7500,38.9963,1441.42,78.80,37.40,22.54,M,4.00,0.00,30.14,M,7.00,M,CLR,M,M,M,M,M,M,M,M,M,M,M,M,M,M,78.80,KMEV 142035Z AUTO VRB04KT 7SM CLR 26/03 A3014 RMK AO2,M
BAM,2023-09-14 20:35,-116.8743,40.5990,1382.36,77.00,39.20,25.67,320.00,6.00,0.00,30.17,M,10.00,M,CLR,M,M,M,M,M,M,M,M,M,M,M,M,M,M,77.00,KBAM 142035Z AUTO 32006KT 10SM CLR 25/04 A3017 RMK AO1,M
HTH,2023-09-14 20:35,-118.6315,38.5448,1282.89,78.80,37.40,22.54,M,5.00,0.00,30.12,M,10.00,12.00,CLR,M,M,M,M,M,M,M,M,M,M,M,M,M,M,78.80,KHTH 142035Z AUTO VRB05G12KT 10SM CLR 26/03 A3012 RMK A01,M
TMT,2023-09-14 20:35,-117.1971,39.4643,1749.34,72.70,33.00,23.20,350.00,5.00,0.00,30.21,M,M,M,CLR,M,M,M,M,M,M,M,M,M,M,M,M,M,M,72.70,KTMT 142035Z AUTO 35005KT CLR 23/01 A3021 RMK AO2 T02260005 PWINO,M
05U,2023-09-14 20:50,-116.0051,39.6042,1811.23,75.20,30.20,19.05,M,5.00,0.00,30.21,M,10.00,16.00,CLR,M,M,M,M,M,M,M,M,M,M,M,M,M,M,75.20,K05U 142050Z AUTO VRB05G16KT 10SM CLR 24/M01 A3021 RMK A01,M
P68,2023-09-14 20:53,-116.0056,39.6014,1993.00,74.00,31.00,20.48,40.00,9.00,0.00,30.19,1015.90,M,19.00,M,M,M,M,M,M,M,M,M,M,M,M,M,M,M,74.00,KP68 142053Z AUTO 04009G19KT 010V080 23/M01 A3019 RMK AO1 SLP159 T02331006 58015,M
DRA,2023-09-14 20:53,-116.0278,36.6206,1009.00,89.00,42.00,19.41,70.00,4.00,0.00,29.98,1010.50,10.00,M,CLR,M,M,M,M,M,M,M,M,M,M,M,M,M,M,85.36,KDRA 142053Z AUTO 07004KT 10SM CLR 32/06 A2998 RMK AO2 SLP105 T03170056 58020,M
ELY,2023-09-14 20:53,-114.8453,39.2950,1909.00,72.00,36.00,26.77,M,5.00,0.00,30.19,1014.00,10.00,M,CLR,M,M,M,M,M,M,M,M,M,M,M,M,M,M,72.00,KELY 142053Z AUTO VRB05KT 10SM CLR 22/02 A3019 RMK AO2 SLP140 T02220022 58016,M
VGT,2023-09-14 20:53,-115.1933,36.2111,667.00,85.00,52.00,32.14,0.00,0.00,0.00,29.95,1013.30,10.00,M,CLR,M,M,M,M,M,M,M,M,M,M,M,M,M,M,83.11,KVGT 142053Z 00000KT 10SM CLR 29/11 A2995 RMK AO2 LTG DSNT SW-N SLP133 T02940111 58011,M
LOL,2023-09-14 20:53,-118.5701,40.0684,1192.43,81.00,34.00,18.33,120.00,6.00,0.00,30.10,1015.80,10.00,M,CLR,M,M,M,M,M,M,M,M,M,M,M,M,M,M,79.13,KLOL 142053Z AUTO 12006KT 10SM CLR 27/01 A3010 RMK AO2 SLP158 T02720011 58015,M
BVU,2023-09-14 20:55,-114.8611,35.9475,671.00,86.00,53.60,33.01,50.00,7.00,0.00,29.93,M,10.00,M,CLR,M,M,M,M,M,M,M,M,M,M,M,M,M,M,84.18,KBVU 142055Z AUTO 05007KT 10SM CLR 30/12 A2993 RMK AO2 LTG DSNT N AND W,M
CXP,2023-09-14 20:55,-119.7326,39.1923,1431.00,78.80,33.80,19.55,60.00,12.00,0.00,30.15,M,10.00,M,CLR,M,M,M,M,M,M,M,M,M,M,M,M,M,M,78.80,KCXP 142055Z AUTO 06012KT 10SM CLR 26/01 A3015 RMK AO2,M
RNO,2023-09-14 20:55,-119.7711,39.4839,1341.00,83.00,34.00,17.18,10.00,5.00,0.00,30.12,1014.60,10.00,M,FEW,M,M,M,9000.00,M,M,M,M,M,M,M,M,M,M,80.45,KRNO 142055Z 01005KT 10SM FEW090 28/01 A3012 RMK AO2 SLP146 T02830011 58020,M
RTS,2023-09-14 20:55,-119.8764,39.6682,1539.00,77.00,28.40,16.67,130.00,7.00,0.00,30.17,M,10.00,M,CLR,M,M,M,M,M,M,M,M,M,M,M,M,M,M,77.00,KRTS 142055Z AUTO 13007KT 10SM CLR 25/M02 A3017 RMK AO2,M
MEV,2023-09-14 20:55,-119.7500,38.9963,1441.42,80.60,37.40,21.25,260.00,10.00,0.00,30.13,M,9.00,M,CLR,M,M,M,M,M,M,M,M,M,M,M,M,M,M,79.02,KMEV 142055Z AUTO 26010KT 9SM CLR 27/03 A3013 RMK AO2,M
HTH,2023-09-14 20:55,-118.6315,38.5448,1282.89,80.60,37.40,21.25,310.00,10.00,0.00,30.11,M,10.00,M,CLR,M,M,M,M,M,M,M,M,M,M,M,M,M,M,79.02,KHTH 142055Z AUTO 31010KT 10SM CLR 27/03 A3011 RMK A01,M
BAM,2023-09-14 20:55,-116.8743,40.5990,1382.36,77.00,41.00,27.53,330.00,5.00,0.00,30.17,M,10.00,M,CLR,M,M,M,M,M,M,M,M,M,M,M,M,M,M,77.00,KBAM 142055Z AUTO 33005KT 10SM CLR 25/05 A3017 RMK AO1,M
TMT,2023-09-14 20:55,-117.1971,39.4643,1749.34,73.00,33.40,23.33,350.00,4.00,0.00,30.21,M,M,M,CLR,M,M,M,M,M,M,M,M,M,M,M,M,M,M,73.00,KTMT 142055Z AUTO 35004KT CLR 23/01 A3021 RMK AO2 T02270008 PWINO,M
INS,2023-09-14 20:55,-115.6733,36.5872,955.00,86.00,40.50,20.15,0.00,0.00,0.00,29.98,1010.60,10.00,M,CLR,M,M,M,M,M,M,M,M,M,M,M,M,M,M,82.84,KINS 142055Z AUTO 00000KT 10SM CLR 30/05 A2998 RMK AO2 LTG DSNT N AND E AND S SLP106 T03010047 57019 $,M
LSV,2023-09-14 20:55,-115.0343,36.2362,570.00,86.70,50.50,28.80,0.00,0.00,0.00,29.91,1010.60,10.00,M,FEW,FEW,M,M,18000.00,21000.00,M,M,M,M,M,M,M,M,M,84.25,KLSV 142055Z AUTO 00000KT 10SM FEW180 FEW210 30/10 A2991 RMK AO2 LTG DSNT N SLP106 T03040103 57014 $,M
EKO,2023-09-14 20:56,-115.7860,40.8242,1367.00,79.00,32.00,18.06,20.00,7.00,0.00,30.15,1016.50,10.00,M,CLR,M,M,M,M,M,M,M,M,M,M,M,M,M,M,79.00,KEKO 142056Z AUTO 02007KT 10SM CLR 26/00 A3015 RMK AO2 SLP165 T02610000 58018,M
WMC,2023-09-14 20:56,-117.8072,40.9019,1315.00,81.00,28.00,14.38,40.00,7.00,0.00,30.14,1016.40,10.00,M,CLR,M,M,M,M,M,M,M,M,M,M,M,M,M,M,78.98,KWMC 142056Z AUTO 04007KT 10SM CLR 27/M02 A3014 RMK AO2 SLP164 T02721022 58016,M
NFL,2023-09-14 20:56,-118.7010,39.4166,1199.00,84.00,37.00,18.74,M,4.00,0.00,30.10,1016.00,10.00,M,FEW,M,M,M,7000.00,M,M,M,M,M,M,M,M,M,M,81.23,KNFL 142056Z VRB04KT 10SM FEW070 29/03 A3010 RMK AO2 SLP160 T02890028 58016,M
HND,2023-09-14 20:56,-115.1344,35.9729,742.79,83.00,52.00,34.28,50.00,4.00,0.00,29.98,1014.20,10.00,M,FEW,SCT,SCT,M,3300.00,5500.00,7000.00,M,M,M,M,M,M,M,M,81.64,KHND 142056Z 05004KT 10SM FEW033 SCT055 SCT070 28/11 A2998 RMK AO2 LTG DSNT SW-N SLP142 T02830111 58017,M
LAS,2023-09-14 20:56,-115.1634,36.0719,663.00,85.00,52.00,32.14,20.00,9.00,T,29.95,1011.70,10.00,M,FEW,SCT,BKN,M,11000.00,16000.00,25000.00,M,-RA,M,M,M,M,M,M,83.11,KLAS 142056Z 02009KT 10SM -RA FEW110 SCT160 BKN250 29/11 A2995 RMK AO2 LTG DSNT SW-N RAE29B46 SLP117 CB DSNT N AND SW-W P0000 60000 T02940111 58014 $,M
05U,2023-09-14 21:10,-116.0051,39.6042,1811.23,75.20,30.20,19.05,220.00,8.00,0.00,30.21,M,10.00,M,CLR,M,M,M,M,M,M,M,M,M,M,M,M,M,M,75.20,K05U 142110Z AUTO 22008KT 10SM CLR 24/M01 A3021 RMK A01,M
BVU,2023-09-14 21:15,-114.8611,35.9475,671.00,86.00,53.60,33.01,40.00,9.00,0.00,29.93,M,10.00,M,CLR,M,M,M,M,M,M,M,M,M,M,M,M,M,M,84.18,KBVU 142115Z AUTO 04009KT 10SM CLR 30/12 A2993 RMK AO2,M
CXP,2023-09-14 21:15,-119.7326,39.1923,1431.00,80.60,33.80,18.42,70.00,5.00,0.00,30.14,M,10.00,11.00,CLR,M,M,M,M,M,M,M,M,M,M,M,M,M,M,78.88,KCXP 142115Z AUTO 07005G11KT 10SM CLR 27/01 A3014 RMK AO2,M
RTS,2023-09-14 21:15,-119.8764,39.6682,1539.00,77.00,28.40,16.67,160.00,8.00,0.00,30.17,M,10.00,M,CLR,M,M,M,M,M,M,M,M,M,M,M,M,M,M,77.00,KRTS 142115Z AUTO 16008KT 140V210 10SM CLR 25/M02 A3017 RMK AO2,M
MEV,2023-09-14 21:15,-119.7500,38.9963,1441.42,80.60,37.40,21.25,270.00,5.00,0.00,30.13,M,6.00,M,CLR,M,M,M,M,M,M,M,HZ,M,M,M,M,M,M,79.02,KMEV 142115Z AUTO 27005KT 6SM HZ CLR 27/03 A3013 RMK AO2,M
HTH,2023-09-14 21:15,-118.6315,38.5448,1282.89,80.60,35.60,19.79,320.00,12.00,0.00,30.10,M,10.00,M,CLR,M,M,M,M,M,M,M,M,M,M,M,M,M,M,78.94,KHTH 142115Z AUTO 32012KT 10SM CLR 27/02 A3010 RMK A01,M
BAM,2023-09-14 21:15,-116.8743,40.5990,1382.36,77.00,39.20,25.67,0.00,0.00,0.00,30.16,M,10.00,M,CLR,M,M,M,M,M,M,M,M,M,M,M,M,M,M,77.00,KBAM 142115Z AUTO 00000KT 10SM CLR 25/04 A3016 RMK AO1,M
TMT,2023-09-14 21:15,-117.1971,39.4643,1749.34,75.00,34.30,22.62,310.00,6.00,0.00,30.20,M,M,16.00,CLR,M,M,M,M,M,M,M,M,M,M,M,M,M,M,75.00,KTMT 142115Z AUTO 31006G16KT CLR 24/01 A3020 RMK AO2 T02380013 PWINO,M
05U,2023-09-14 21:30,-116.0051,39.6042,1811.23,77.00,26.60,15.48,220.00,7.00,0.00,30.20,M,10.00,13.00,CLR,M,M,M,M,M,M,M,M,M,M,M,M,M,M,77.00,K05U 142130Z AUTO 22007G13KT 10SM CLR 25/M03 A3020 RMK A01,M
BVU,2023-09-14 21:35,-114.8611,35.9475,671.00,86.00,51.80,30.90,30.00,9.00,0.00,29.92,M,10.00,M,CLR,M,M,M,M,M,M,M,M,M,M,M,M,M,M,83.87,KBVU 142135Z AUTO 03009KT 10SM CLR 30/11 A2992 RMK AO2,M
CXP,2023-09-14 21:35,-119.7326,39.1923,1431.00,80.60,32.00,17.14,70.00,10.00,0.00,30.13,M,10.00,M,CLR,M,M,M,M,M,M,M,M,M,M,M,M,M,M,78.82,KCXP 142135Z AUTO 07010KT 10SM CLR 27/M00 A3013 RMK AO2,M
TMT,2023-09-14 21:35,-117.1971,39.4643,1749.34,75.20,33.40,21.67,350.00,6.00,0.00,30.19,M,M,9.00,CLR,M,M,M,M,M,M,M,M,M,M,M,M,M,M,75.20,KTMT 142135Z AUTO 35006G09KT CLR 24/01 A3019 RMK AO2 T02400008 PWINO,M
RTS,2023-09-14 21:35,-119.8764,39.6682,1539.00,77.00,28.40,16.67,M,5.00,0.00,30.16,M,10.00,M,CLR,M,M,M,M,M,M,M,M,M,M,M,M,M,M,77.00,KRTS 142135Z AUTO VRB05KT 10SM CLR 25/M02 A3016 RMK AO2,M
MEV,2023-09-14 21:35,-119.7500,38.9963,1441.42,80.60,35.60,19.79,0.00,0.00,0.00,30.12,M,9.00,11.00,CLR,M,M,M,M,M,M,M,M,M,M,M,M,M,M,78.94,KMEV 142135Z AUTO 00000G11KT 9SM CLR 27/02 A3012 RMK AO2,M
BAM,2023-09-14 21:35,-116.8743,40.5990,1382.36,77.00,37.40,23.93,360.00,4.00,0.00,30.15,M,10.00,M,CLR,M,M,M,M,M,M,M,M,M,M,M,M,M,M,77.00,KBAM 142135Z AUTO 36004KT 10SM CLR 25/03 A3015 RMK AO1,M
HTH,2023-09-14 21:35,-118.6315,38.5448,1282.89,80.60,35.60,19.79,310.00,11.00,0.00,30.10,M,10.00,M,CLR,M,M,M,M,M,M,M,M,M,M,M,M,M,M,78.94,KHTH 142135Z AUTO 31011KT 10SM CLR 27/02 A3010 RMK A01,M
05U,2023-09-14 21:50,-116.0051,39.6042,1811.23,77.00,24.80,14.37,180.00,9.00,0.00,30.20,M,10.00,15.00,CLR,M,M,M,M,M,M,M,M,M,M,M,M,M,M,77.00,K05U 142150Z AUTO 18009G15KT 140V230 10SM CLR 25/M04 A3020 RMK A01,M
P68,2023-09-14 21:53,-116.0056,39.6014,1993.00,75.00,24.00,14.85,20.00,12.00,0.00,30.17,1015.10,M,18.00,M,M,M,M,M,M,M,M,M,M,M,M,M,M,M,75.00,KP68 142153Z AUTO 02012G18KT 24/M04 A3017 RMK AO1 SLP151 T02391044,M
DRA,2023-09-14 21:53,-116.0278,36.6206,1009.00,90.00,41.00,18.10,M,M,0.00,29.96,1009.80,10.00,M,CLR,M,M,M,M,M,M,M,M,M,M,M,M,M,M,86.16,KDRA 142153Z AUTO 10SM CLR 32/05 A2996 RMK AO2 SLP098 T03220050,M
ELY,2023-09-14 21:53,-114.8453,39.2950,1909.00,73.00,37.00,26.92,M,6.00,0.00,30.17,1013.60,10.00,M,CLR,M,M,M,M,M,M,M,M,M,M,M,M,M,M,73.00,KELY 142153Z AUTO VRB06KT 10SM CLR 23/03 A3017 RMK AO2 SLP136 T02280028,M
VGT,2023-09-14 21:53,-115.1933,36.2111,667.00,86.00,52.00,31.13,250.00,7.00,0.00,29.93,1012.70,10.00,M,CLR,M,M,M,M,M,M,M,M,M,M,M,M,M,M,83.91,KVGT 142153Z 25007KT 10SM CLR 30/11 A2993 RMK AO2 SLP127 T03000111,M
LOL,2023-09-14 21:53,-118.5701,40.0684,1192.43,81.00,35.00,19.08,0.00,0.00,0.00,30.09,1015.30,10.00,M,CLR,M,M,M,M,M,M,M,M,M,M,M,M,M,M,79.16,KLOL 142153Z AUTO 00000KT 10SM CLR 27/02 A3009 RMK AO2 SLP153 T02720017,M
BVU,2023-09-14 21:55,-114.8611,35.9475,671.00,89.60,48.20,24.11,10.00,11.00,0.00,29.91,M,10.00,M,CLR,M,M,M,M,M,M,M,M,M,M,M,M,M,M,86.44,KBVU 142155Z AUTO 01011KT 10SM CLR 32/09 A2991 RMK AO2 LTG DSNT E AND W,M
CXP,2023-09-14 21:55,-119.7326,39.1923,1431.00,80.60,30.20,15.94,50.00,7.00,0.00,30.13,M,9.00,M,CLR,M,M,M,M,M,M,M,M,M,M,M,M,M,M,78.77,KCXP 142155Z AUTO 05007KT 020V080 9SM CLR 27/M01 A3013 RMK AO2,M
RNO,2023-09-14 21:55,-119.7711,39.4839,1341.00,84.00,30.00,14.16,0.00,0.00,0.00,30.10,1014.10,10.00,M,FEW,M,M,M,10000.00,M,M,M,M,M,M,M,M,M,M,81.11,KRNO 142155Z 00000KT 10SM FEW100 29/M01 A3010 RMK AO2 SLP141 T02891011,M
RTS,2023-09-14 21:55,-119.8764,39.6682,1539.00,78.80,30.20,16.90,M,6.00,0.00,30.16,M,10.00,M,CLR,M,M,M,M,M,M,M,M,M,M,M,M,M,M,78.80,KRTS 142155Z AUTO VRB06KT 10SM CLR 26/M01 A3016 RMK AO2,M
MEV,2023-09-14 21:55,-119.7500,38.9963,1441.42,80.60,33.80,18.42,280.00,6.00,0.00,30.11,M,10.00,11.00,CLR,M,M,M,M,M,M,M,M,M,M,M,M,M,M,78.88,KMEV 142155Z AUTO 28006G11KT 10SM CLR 27/01 A3011 RMK AO2,M
BAM,2023-09-14 21:55,-116.8743,40.5990,1382.36,78.80,37.40,22.54,350.00,5.00,0.00,30.15,M,10.00,M,CLR,M,M,M,M,M,M,M,M,M,M,M,M,M,M,78.80,KBAM 142155Z AUTO 35005KT 10SM CLR 26/03 A3015 RMK AO1,M
HTH,2023-09-14 21:55,-118.6315,38.5448,1282.89,82.40,33.80,17.38,320.00,10.00,0.00,30.09,M,10.00,15.00,CLR,M,M,M,M,M,M,M,M,M,M,M,M,M,M,80.03,KHTH 142155Z AUTO 32010G15KT 10SM CLR 28/01 A3009 RMK A01,M
TMT,2023-09-14 21:55,-117.1971,39.4643,1749.34,75.00,32.70,21.21,20.00,4.00,0.00,30.19,M,M,M,CLR,M,M,M,M,M,M,M,M,M,M,M,M,M,M,75.00,KTMT 142155Z AUTO 02004KT CLR 24/00 A3019 RMK AO2 T02380004 PWINO,M
INS,2023-09-14 21:55,-115.6733,36.5872,955.00,86.40,40.50,19.89,150.00,4.00,0.00,29.96,1010.10,10.00,M,CLR,M,M,M,M,M,M,M,M,M,M,M,M,M,M,83.15,KINS 142155Z AUTO 15004KT 10SM CLR 30/05 A2996 RMK AO2 LTG DSNT N SLP101 T03020047 $,M
LSV,2023-09-14 21:55,-115.0343,36.2362,570.00,88.00,51.00,28.15,210.00,4.00,0.00,29.88,1009.50,10.00,M,FEW,M,M,M,20000.00,M,M,M,M,M,M,M,M,M,M,85.43,KLSV 142155Z AUTO 21004KT 10SM FEW200 31/11 A2988 RMK AO2 SLP095 T03120105 $,M
EKO,2023-09-14 21:56,-115.7860,40.8242,1367.00,78.00,30.00,17.22,130.00,6.00,0.00,30.14,1016.40,10.00,M,CLR,M,M,M,M,M,M,M,M,M,M,M,M,M,M,78.00,KEKO 142156Z AUTO 13006KT 10SM CLR 26/M01 A3014 RMK AO2 SLP164 T02561011,M
WMC,2023-09-14 21:56,-117.8072,40.9019,1315.00,82.00,26.00,12.81,30.00,11.00,0.00,30.13,1015.90,10.00,17.00,CLR,M,M,M,M,M,M,M,M,M,M,M,M,M,M,79.61,KWMC 142156Z AUTO 03011G17KT 10SM CLR 28/M03 A3013 RMK AO2 SLP159 T02781033,M
NFL,2023-09-14 21:56,-118.7010,39.4166,1199.00,83.00,35.00,17.88,M,5.00,0.00,30.08,1015.50,10.00,M,FEW,M,M,M,7000.00,M,M,M,M,M,M,M,M,M,M,80.47,KNFL 142156Z VRB05KT 10SM FEW070 28/02 A3008 RMK AO2 SLP155 T02830017,M
HND,2023-09-14 21:56,-115.1344,35.9729,742.79,85.00,53.00,33.34,330.00,4.00,0.00,29.96,1013.70,10.00,M,CLR,M,M,M,M,M,M,M,M,M,M,M,M,M,M,83.27,KHND 142156Z 33004KT 10SM CLR 29/12 A2996 RMK AO2 LTG DSNT S AND W SLP137 T02940117,M
LAS,2023-09-14 21:56,-115.1634,36.0719,663.00,85.00,53.00,33.34,320.00,7.00,T,29.93,1011.10,10.00,M,FEW,SCT,BKN,M,11000.00,16000.00,22000.00,M,M,M,M,M,M,M,M,83.27,KLAS 142156Z 32007KT 10SM FEW110 SCT160 BKN220 29/12 A2993 RMK AO2 LTG DSNT SW RAE05 SLP111 CB DSNT S-W-N P0000 T02940117,M
05U,2023-09-14 22:10,-116.0051,39.6042,1811.23,77.00,23.00,13.32,190.00,6.00,0.00,30.19,M,10.00,13.00,CLR,M,M,M,M,M,M,M,M,M,M,M,M,M,M,77.00,K05U 142210Z AUTO 19006G13KT 10SM CLR 25/M05 A3019 RMK A01,M
BVU,2023-09-14 22:15,-114.8611,35.9475,671.00,89.60,46.40,22.53,340.00,10.00,0.00,29.90,M,10.00,16.00,CLR,M,M,M,M,M,M,M,M,M,M,M,M,M,M,86.24,KBVU 142215Z AUTO 34010G16KT 10SM CLR 32/08 A2990 RMK AO2,M
CXP,2023-09-14 22:15,-119.7326,39.1923,1431.00,82.40,26.60,12.97,M,5.00,0.00,30.13,M,10.00,14.00,CLR,M,M,M,M,M,M,M,M,M,M,M,M,M,M,79.92,KCXP 142215Z AUTO VRB05G14KT 10SM CLR 28/M03 A3013 RMK AO2,M
RTS,2023-09-14 22:15,-119.8764,39.6682,1539.00,78.80,30.20,16.90,M,5.00,0.00,30.16,M,10.00,M,CLR,M,M,M,M,M,M,M,M,M,M,M,M,M,M,78.80,KRTS 142215Z AUTO VRB05KT 10SM CLR 26/M01 A3016 RMK AO2,M
MEV,2023-09-14 22:15,-119.7500,38.9963,1441.42,80.60,35.60,19.79,300.00,7.00,0.00,30.11,M,10.00,M,CLR,M,M,M,M,M,M,M,M,M,M,M,M,M,M,78.94,KMEV 142215Z AUTO 30007KT 10SM CLR 27/02 A3011 RMK AO2,M
BAM,2023-09-14 22:15,-116.8743,40.5990,1382.36,78.80,37.40,22.54,330.00,3.00,0.00,30.15,M,10.00,M,CLR,M,M,M,M,M,M,M,M,M,M,M,M,M,M,78.80,KBAM 142215Z AUTO 33003KT 10SM CLR 26/03 A3015 RMK AO1,M
HTH,2023-09-14 22:15,-118.6315,38.5448,1282.89,82.40,33.80,17.38,340.00,10.00,0.00,30.09,M,10.00,M,CLR,M,M,M,M,M,M,M,M,M,M,M,M,M,M,80.03,KHTH 142215Z AUTO 34010KT 10SM CLR 28/01 A3009 RMK A01,M
TMT,2023-09-14 22:15,-117.1971,39.4643,1749.34,74.00,32.00,21.33,340.00,3.00,0.00,30.19,M,M,M,CLR,M,M,M,M,M,M,M,M,M,M,M,M,M,M,74.00,KTMT 142215Z AUTO 34003KT CLR 23/00 A3019 RMK AO2 T02331001 PWINO,M
05U,2023-09-14 22:30,-116.0051,39.6042,1811.23,77.00,19.40,11.44,200.00,8.00,0.00,30.19,M,10.00,M,CLR,M,M,M,M,M,M,M,M,M,M,M,M,M,M,77.00,K05U 142230Z AUTO 20008KT 10SM CLR 25/M07 A3019 RMK A01,M
BVU,2023-09-14 22:35,-114.8611,35.9475,671.00,89.60,44.60,21.04,360.00,8.00,0.00,29.90,M,10.00,16.00,CLR,M,M,M,M,M,M,M,M,M,M,M,M,M,M,86.07,KBVU 142235Z AUTO 36008G16KT 10SM CLR 32/07 A2990 RMK AO2,M
CXP,2023-09-14 22:35,-119.7326,39.1923,1431.00,82.40,28.40,13.96,60.00,8.00,0.00,30.12,M,10.00,M,CLR,M,M,M,M,M,M,M,M,M,M,M,M,M,M,79.94,KCXP 142235Z AUTO 06008KT 10SM CLR 28/M02 A3012 RMK AO2,M
RTS,2023-09-14 22:35,-119.8764,39.6682,1539.00,77.00,28.40,16.67,210.00,4.00,0.00,30.15,M,10.00,M,CLR,M,M,M,M,M,M,M,M,M,M,M,M,M,M,77.00,KRTS 142235Z AUTO 21004KT 10SM CLR 25/M02 A3015 RMK AO2,M
MEV,2023-09-14 22:35,-119.7500,38.9963,1441.42,80.60,33.80,18.42,270.00,4.00,0.00,30.10,M,8.00,11.00,CLR,M,M,M,M,M,M,M,M,M,M,M,M,M,M,78.88,KMEV 142235Z AUTO 27004G11KT 8SM CLR 27/01 A3010 RMK AO2,M
HTH,2023-09-14 22:35,-118.6315,38.5448,1282.89,82.40,33.80,17.38,310.00,12.00,0.00,30.08,M,10.00,M,CLR,M,M,M,M,M,M,M,M,M,M,M,M,M,M,80.03,KHTH 142235Z AUTO 31012KT 10SM CLR 28/01 A3008 RMK A01,M
BAM,2023-09-14 22:35,-116.8743,40.5990,1382.36,78.80,35.60,21.00,340.00,5.00,0.00,30.14,M,10.00,M,CLR,M,M,M,M,M,M,M,M,M,M,M,M,M,M,78.80,KBAM 142235Z AUTO 34005KT 10SM CLR 26/02 A3014 RMK AO1,M
TMT,2023-09-14 22:35,-117.1971,39.4643,1749.34,74.30,30.60,19.95,310.00,7.00,0.00,30.19,M,M,M,CLR,M,M,M,M,M,M,M,M,M,M,M,M,M,M,74.30,KTMT 142235Z AUTO 31007KT CLR 24/M01 A3019 RMK AO2 T02351008 PWINO,M
DRA,2023-09-14 22:40,-116.0278,36.6206,1009.00,82.00,46.00,28.30,310.00,19.00,0.00,29.97,M,10.00,30.00,SCT,M,M,M,11000.00,M,M,M,M,M,M,M,38.00,320.00,2023-09-14 22:29,80.36,KDRA 142240Z AUTO 31019G30KT 10SM SCT110 28/08 A2997 RMK AO2 PK WND 32038/2229 WSHFT 2223 T02780078,M
05U,2023-09-14 22:50,-116.0051,39.6042,1811.23,77.00,15.80,9.79,190.00,6.00,0.00,30.19,M,10.00,13.00,CLR,M,M,M,M,M,M,M,M,M,M,M,M,M,M,77.00,K05U 142250Z AUTO 19006G13KT 10SM CLR 25/M09 A3019 RMK A01,M
P68,2023-09-14 22:53,-116.0056,39.6014,1993.00,75.00,16.00,10.56,40.00,9.00,0.00,30.16,1014.80,M,17.00,M,M,M,M,M,M,M,M,M,M,M,M,M,M,M,75.00,KP68 142253Z AUTO 04009G17KT 24/M09 A3016 RMK AO1 SLP148 T02391089,M
DRA,2023-09-14 22:53,-116.0278,36.6206,1009.00,81.00,48.00,31.52,310.00,18.00,0.00,29.97,1010.40,10.00,27.00,BKN,M,M,M,11000.00,M,M,M,M,M,M,M,38.00,320.00,2023-09-14 22:29,79.92,KDRA 142253Z AUTO 31018G27KT 10SM BKN110 27/09 A2997 RMK AO2 PK WND 32038/2229 WSHFT 2223 SLP104 T02720089,M
ELY,2023-09-14 22:53,-114.8453,39.2950,1909.00,74.00,34.00,23.11,320.00,5.00,0.00,30.16,1013.30,10.00,M,CLR,M,M,M,M,M,M,M,M,M,M,M,M,M,M,74.00,KELY 142253Z AUTO 32005KT 10SM CLR 23/01 A3016 RMK AO2 SLP133 T02330011,M
VGT,2023-09-14 22:53,-115.1933,36.2111,667.00,86.00,51.00,30.00,0.00,0.00,0.00,29.91,1012.00,10.00,M,CLR,M,M,M,M,M,M,M,M,M,M,M,M,M,M,83.75,KVGT 142253Z 00000KT 10SM CLR 30/11 A2991 RMK AO2 SLP120 T03000106,M
LOL,2023-09-14 22:53,-118.5701,40.0684,1192.43,82.00,33.00,17.05,M,M,0.00,30.07,1014.80,10.00,M,CLR,M,M,M,M,M,M,M,M,M,M,M,M,M,M,79.75,KLOL 142253Z AUTO 10SM CLR 28/01 A3007 RMK AO2 SLP148 T02780006,M
BVU,2023-09-14 22:55,-114.8611,35.9475,671.00,89.60,46.40,22.53,M,5.00,0.00,29.90,M,10.00,11.00,CLR,M,M,M,M,M,M,M,M,M,M,M,M,M,M,86.24,KBVU 142255Z AUTO VRB05G11KT 10SM CLR 32/08 A2990 RMK AO2,M
CXP,2023-09-14 22:55,-119.7326,39.1923,1431.00,82.40,26.60,12.97,60.00,10.00,0.00,30.12,M,10.00,M,CLR,M,M,M,M,M,M,M,M,M,M,M,M,M,M,79.92,KCXP 142255Z AUTO 06010KT 040V100 10SM CLR 28/M03 A3012 RMK AO2,M
RNO,2023-09-14 22:55,-119.7711,39.4839,1341.00,85.00,28.00,12.63,80.00,6.00,0.00,30.09,1013.70,10.00,M,FEW,M,M,M,12000.00,M,M,M,M,M,M,M,M,M,M,81.80,KRNO 142255Z 08006KT 10SM FEW120 29/M02 A3009 RMK AO2 SLP137 T02941022,M
RTS,2023-09-14 22:55,-119.8764,39.6682,1539.00,78.80,28.40,15.71,40.00,7.00,0.00,30.15,M,10.00,M,CLR,M,M,M,M,M,M,M,M,M,M,M,M,M,M,78.80,KRTS 142255Z AUTO 04007KT 10SM CLR 26/M02 A3015 RMK AO2,M
MEV,2023-09-14 22:55,-119.7500,38.9963,1441.42,82.40,33.80,17.38,310.00,9.00,0.00,30.10,M,10.00,15.00,CLR,M,M,M,M,M,M,M,M,M,M,M,M,M,M,80.03,KMEV 142255Z AUTO 31009G15KT 10SM CLR 28/01 A3010 RMK AO2,M
BAM,2023-09-14 22:55,-116.8743,40.5990,1382.36,78.80,35.60,21.00,360.00,6.00,0.00,30.13,M,10.00,M,CLR,M,M,M,M,M,M,M,M,M,M,M,M,M,M,78.80,KBAM 142255Z AUTO 36006KT 10SM CLR 26/02 A3013 RMK AO1,M
HTH,2023-09-14 22:55,-118.6315,38.5448,1282.89,82.40,33.80,17.38,320.00,13.00,0.00,30.08,M,10.00,M,CLR,M,M,M,M,M,M,M,M,M,M,M,M,M,M,80.03,KHTH 142255Z AUTO 32013KT 10SM CLR 28/01 A3008 RMK A01,M
TMT,2023-09-14 22:55,-117.1971,39.4643,1749.34,74.70,28.40,18.00,10.00,8.00,0.00,30.18,M,M,M,CLR,M,M,M,M,M,M,M,M,M,M,M,M,M,M,74.70,KTMT 142255Z AUTO 01008KT CLR 24/M02 A3018 RMK AO2 T02371020 PWINO,M
INS,2023-09-14 22:55,-115.6733,36.5872,955.00,86.40,40.50,19.89,70.00,7.00,0.00,29.94,1009.40,10.00,M,FEW,M,M,M,20000.00,M,M,M,M,M,M,M,M,M,M,83.15,KINS 142255Z AUTO 07007KT 10SM FEW200 30/05 A2994 RMK AO2 SLP094 T03020047 $,M
LSV,2023-09-14 22:55,-115.0343,36.2362,570.00,87.60,51.40,28.93,250.00,5.00,0.00,29.86,1008.80,10.00,M,CLR,M,M,M,M,M,M,M,M,M,M,M,M,M,M,85.15,KLSV 142255Z AUTO 25005KT 10SM CLR 31/11 A2986 RMK AO2 SLP088 T03090108 $,M
EKO,2023-09-14 22:56,-115.7860,40.8242,1367.00,80.00,32.00,17.48,70.00,11.00,0.00,30.13,1015.60,10.00,M,CLR,M,M,M,M,M,M,M,M,M,M,M,M,M,M,78.52,KEKO 142256Z AUTO 07011KT 10SM CLR 27/00 A3013 RMK AO2 SLP156 T02670000,M
WMC,2023-09-14 22:56,-117.8072,40.9019,1315.00,83.00,25.00,11.90,70.00,8.00,0.00,30.11,1015.80,10.00,14.00,CLR,M,M,M,M,M,M,M,M,M,M,M,M,M,M,80.20,KWMC 142256Z AUTO 07008G14KT 10SM CLR 28/M04 A3011 RMK AO2 SLP158 T02831039,M
HND,2023-09-14 22:56,-115.1344,35.9729,742.79,86.00,51.00,30.00,30.00,4.00,0.00,29.95,1013.40,10.00,M,CLR,M,M,M,M,M,M,M,M,M,M,M,M,M,M,83.75,KHND 142256Z 03004KT 10SM CLR 30/11 A2995 RMK AO2 SLP134 T03000106,M
LAS,2023-09-14 22:56,-115.1634,36.0719,663.00,86.00,51.00,30.00,M,5.00,0.00,29.91,1010.40,10.00,M,FEW,SCT,BKN,M,11000.00,16000.00,22000.00,M,M,M,M,M,M,M,M,83.75,KLAS 142256Z VRB05KT 10SM FEW110 SCT160 BKN220 30/11 A2991 RMK AO2 SLP104 CB DSNT ALQDS T03000106,M
NFL,2023-09-14 22:56,-118.7010,39.4166,1199.00,84.00,32.00,15.35,M,5.00,0.00,30.07,1015.10,10.00,M,FEW,M,M,M,7000.00,M,M,M,M,M,M,M,M,M,M,81.13,KNFL 142256Z VRB05KT 10SM FEW070 29/00 A3007 RMK AO2 SLP151 T02890000,M
05U,2023-09-14 23:10,-116.0051,39.6042,1811.23,77.00,17.60,10.59,180.00,9.00,0.00,30.19,M,10.00,M,CLR,M,M,M,M,M,M,M,M,M,M,M,M,M,M,77.00,K05U 142310Z AUTO 18009KT 10SM CLR 25/M08 A3019 RMK A01,M
BVU,2023-09-14 23:15,-114.8611,35.9475,671.00,89.60,44.60,21.04,340.00,5.00,0.00,29.89,M,10.00,11.00,CLR,M,M,M,M,M,M,M,M,M,M,M,M,M,M,86.07,KBVU 142315Z AUTO 34005G11KT 10SM CLR 32/07 A2989 RMK AO2,M
CXP,2023-09-14 23:15,-119.7326,39.1923,1431.00,82.40,24.80,12.03,60.00,11.00,0.00,30.11,M,10.00,19.00,CLR,M,M,M,M,M,M,M,M,M,M,M,M,M,M,79.79,KCXP 142315Z AUTO 06011G19KT 10SM CLR 28/M04 A3011 RMK AO2,M
RTS,2023-09-14 23:15,-119.8764,39.6682,1539.00,78.80,28.40,15.71,M,5.00,0.00,30.15,M,10.00,10.00,CLR,M,M,M,M,M,M,M,M,M,M,M,M,M,M,78.80,KRTS 142315Z AUTO VRB05G10KT 10SM CLR 26/M02 A3015 RMK AO2,M
MEV,2023-09-14 23:15,-119.7500,38.9963,1441.42,82.40,33.80,17.38,300.00,11.00,0.00,30.09,M,10.00,M,CLR,M,M,M,M,M,M,M,M,M,M,M,M,M,M,80.03,KMEV 142315Z AUTO 30011KT 10SM CLR 28/01 A3009 RMK AO2,M
BAM,2023-09-14 23:15,-116.8743,40.5990,1382.36,78.80,35.60,21.00,330.00,5.00,0.00,30.13,M,10.00,M,CLR,M,M,M,M,M,M,M,M,M,M,M,M,M,M,78.80,KBAM 142315Z AUTO 33005KT 10SM CLR 26/02 A3013 RMK AO1,M
HTH,2023-09-14 23:15,-118.6315,38.5448,1282.89,82.40,33.80,17.38,320.00,10.00,0.00,30.07,M,10.00,M,CLR,M,M,M,M,M,M,M,M,M,M,M,M,M,M,80.03,KHTH 142315Z AUTO 32010KT 10SM CLR 28/01 A3007 RMK A01,M
TMT,2023-09-14 23:15,-117.1971,39.4643,1749.34,74.30,26.00,16.52,330.00,9.00,0.00,30.18,M,M,M,CLR,M,M,M,M,M,M,M,M,M,M,M,M,M,M,74.30,KTMT 142315Z AUTO 33009KT CLR 24/M03 A3018 RMK AO2 T02351033 PWINO,M
CXP,2023-09-14 23:30,-119.7326,39.1923,1431.00,82.40,26.60,12.97,60.00,9.00,0.00,30.11,M,10.00,17.00,CLR,M,M,M,M,M,M,M,M,M,M,M,M,M,M,79.92,KCXP 142330Z AUTO 06009G17KT 10SM CLR 28/M03 A3011 RMK AO2,M
05U,2023-09-14 23:30,-116.0051,39.6042,1811.23,77.00,19.40,11.44,180.00,9.00,0.00,30.18,M,10.00,M,CLR,M,M,M,M,M,M,M,M,M,M,M,M,M,M,77.00,K05U 142330Z AUTO 18009KT 10SM CLR 25/M07 A3018 RMK A01,M
BVU,2023-09-14 23:35,-114.8611,35.9475,671.00,87.80,46.40,23.85,310.00,6.00,0.00,29.89,M,10.00,M,CLR,M,M,M,M,M,M,M,M,M,M,M,M,M,M,84.68,KBVU 142335Z AUTO 31006KT 10SM CLR 31/08 A2989 RMK AO2,M
RTS,2023-09-14 23:35,-119.8764,39.6682,1539.00,78.80,26.60,14.59,M,4.00,0.00,30.14,M,10.00,M,CLR,M,M,M,M,M,M,M,M,M,M,M,M,M,M,78.80,KRTS 142335Z AUTO VRB04KT 10SM CLR 26/M03 A3014 RMK AO2,M
MEV,2023-09-14 23:35,-119.7500,38.9963,1441.42,82.40,30.20,15.03,360.00,8.00,0.00,30.09,M,10.00,14.00,CLR,M,M,M,M,M,M,M,M,M,M,M,M,M,M,79.97,KMEV 142335Z AUTO 36008G14KT 10SM CLR 28/M01 A3009 RMK AO2,M
BAM,2023-09-14 23:35,-116.8743,40.5990,1382.36,78.80,33.80,19.55,0.00,0.00,0.00,30.13,M,10.00,M,CLR,M,M,M,M,M,M,M,M,M,M,M,M,M,M,78.80,KBAM 142335Z AUTO 00000KT 10SM CLR 26/01 A3013 RMK AO1,M
HTH,2023-09-14 23:35,-118.6315,38.5448,1282.89,82.40,33.80,17.38,310.00,12.00,0.00,30.07,M,10.00,M,CLR,M,M,M,M,M,M,M,M,M,M,M,M,M,M,80.03,KHTH 142335Z AUTO 31012KT 10SM CLR 28/01 A3007 RMK A01,M
TMT,2023-09-14 23:35,-117.1971,39.4643,1749.34,74.30,26.00,16.52,360.00,9.00,0.00,30.18,M,M,M,CLR,M,M,M,M,M,M,M,M,M,M,M,M,M,M,74.30,KTMT 142335Z AUTO 36009KT CLR 24/M03 A3018 RMK AO2 T02351033 PWINO,M
05U,2023-09-14 23:50,-116.0051,39.6042,1811.23,75.20,21.20,13.11,150.00,11.00,0.00,30.18,M,10.00,18.00,CLR,M,M,M,M,M,M,M,M,M,M,M,M,M,M,75.20,K05U 142350Z AUTO 15011G18KT 10SM CLR 24/M06 A3018 RMK A01,M
P68,2023-09-14 23:53,-116.0056,39.6014,1993.00,75.00,20.00,12.54,10.00,11.00,0.00,30.15,1015.00,M,18.00,M,M,M,M,M,M,M,M,M,M,M,M,M,M,M,75.00,KP68 142353Z AUTO 01011G18KT 24/M07 A3015 RMK AO1 SLP150 T02391067 10244 20200 56009,M
DRA,2023-09-14 23:53,-116.0278,36.6206,1009.00,88.00,40.00,18.54,20.00,7.00,0.00,29.96,1009.90,10.00,M,CLR,M,M,M,M,M,M,M,M,M,M,M,M,M,M,84.42,KDRA 142353Z AUTO 02007KT 10SM CLR 31/04 A2996 RMK AO2 SLP099 T03110044 10328 20267 56006,M
ELY,2023-09-14 23:53,-114.8453,39.2950,1909.00,71.00,33.00,24.57,30.00,8.00,0.00,30.15,1013.60,10.00,M,CLR,M,M,M,M,M,M,M,M,M,M,M,M,M,M,71.00,KELY 142353Z AUTO 03008KT 10SM CLR 22/01 A3015 RMK AO2 LTG DSNT SE SLP136 T02170006 10244 20189 56009,M
VGT,2023-09-14 23:53,-115.1933,36.2111,667.00,87.00,50.00,28.00,0.00,0.00,0.00,29.89,1011.50,10.00,M,CLR,M,M,M,M,M,M,M,M,M,M,M,M,M,M,84.43,KVGT 142353Z 00000KT 10SM CLR 31/10 A2989 RMK AO2 SLP115 T03060100 10322 20289 56017,M
LOL,2023-09-14 23:53,-118.5701,40.0684,1192.43,82.00,29.00,14.50,110.00,5.00,0.00,30.06,1014.20,10.00,M,CLR,M,M,M,M,M,M,M,M,M,M,M,M,M,M,79.67,KLOL 142353Z AUTO 11005KT 10SM CLR 28/M02 A3006 RMK AO2 SLP142 T02781017 10289 20244 56014,M
BVU,2023-09-14 23:55,-114.8611,35.9475,671.00,87.80,46.40,23.85,290.00,5.00,0.00,29.89,M,10.00,M,CLR,M,M,M,M,M,M,M,M,M,M,M,M,M,M,84.68,KBVU 142355Z AUTO 29005KT 10SM CLR 31/08 A2989 RMK AO2,M
CXP,2023-09-14 23:55,-119.7326,39.1923,1431.00,80.60,28.40,14.81,70.00,11.00,0.00,30.11,M,10.00,M,CLR,M,M,M,M,M,M,M,M,M,M,M,M,M,M,78.72,KCXP 142355Z AUTO 07011KT 10SM CLR 27/M02 A3011 RMK AO2,M
RNO,2023-09-14 23:55,-119.7711,39.4839,1341.00,85.00,26.00,11.63,20.00,5.00,0.00,30.08,1013.50,10.00,M,FEW,M,M,M,12000.00,M,M,M,M,M,M,M,M,M,M,81.64,KRNO 142355Z COR 02005KT 10SM FEW120 29/M03 A3008 RMK AO2 SLP135 CB DSNT S T02941033 10294 20239 56011,M
RTS,2023-09-14 23:55,-119.8764,39.6682,1539.00,78.80,28.40,15.71,80.00,9.00,0.00,30.14,M,10.00,M,CLR,M,M,M,M,M,M,M,M,M,M,M,M,M,M,78.80,KRTS 142355Z AUTO 08009KT 10SM CLR 26/M02 A3014 RMK AO2,M
MEV,2023-09-14 23:55,-119.7500,38.9963,1441.42,80.60,28.40,14.81,350.00,13.00,0.00,30.08,M,10.00,M,CLR,M,M,M,M,M,M,M,M,M,M,M,M,M,M,78.72,KMEV 142355Z AUTO 35013KT 10SM CLR 27/M02 A3008 RMK AO2,M
BAM,2023-09-14 23:55,-116.8743,40.5990,1382.36,78.80,33.80,19.55,0.00,0.00,0.00,30.12,M,10.00,M,CLR,M,M,M,M,M,M,M,M,M,M,M,M,M,M,78.80,KBAM 142355Z AUTO 00000KT 10SM CLR 26/01 A3012 RMK AO1,M
HTH,2023-09-14 23:55,-118.6315,38.5448,1282.89,82.40,33.80,17.38,330.00,13.00,0.00,30.06,M,10.00,M,CLR,M,M,M,M,M,M,M,M,M,M,M,M,M,M,80.03,KHTH 142355Z AUTO 33013KT 10SM CLR 28/01 A3006 RMK A01,M
TMT,2023-09-14 23:55,-117.1971,39.4643,1749.34,73.80,26.60,17.22,320.00,8.00,0.00,30.18,M,M,M,CLR,M,M,M,M,M,M,M,M,M,M,M,M,M,M,73.80,KTMT 142355Z AUTO 32008KT CLR 23/M03 A3018 RMK AO2 T02321030 10240 20192 PWINO,M
INS,2023-09-14 23:55,-115.6733,36.5872,955.00,84.70,41.70,22.00,340.00,6.00,0.00,29.95,1009.90,10.00,M,BKN,BKN,M,M,15000.00,19000.00,M,M,M,M,M,M,M,M,M,81.91,KINS 142355Z AUTO 34006KT 10SM BKN150 BKN190 29/05 A2995 RMK AO2 SLP099 T02930054 10304 20292 $,M
LSV,2023-09-14 23:55,-115.0343,36.2362,570.00,91.00,51.30,25.89,170.00,7.00,0.00,29.85,1008.50,10.00,M,CLR,M,M,M,M,M,M,M,M,M,M,M,M,M,M,88.21,KLSV 142355Z AUTO 17007KT 10SM CLR 33/11 A2985 RMK AO2 SLP085 T03270107 10331 20320 $,M
EKO,2023-09-14 23:56,-115.7860,40.8242,1367.00,78.00,31.00,17.93,100.00,5.00,0.00,30.11,1015.60,10.00,M,CLR,M,M,M,M,M,M,M,M,M,M,M,M,M,M,78.00,KEKO 142356Z AUTO 10005KT 10SM CLR 26/M01 A3011 RMK AO2 SLP156 T02561006 10267 20206 58012,M
WMC,2023-09-14 23:56,-117.8072,40.9019,1315.00,83.00,18.00,8.85,30.00,8.00,0.00,30.10,1015.00,10.00,M,CLR,M,M,M,M,M,M,M,M,M,M,M,M,M,M,79.79,KWMC 142356Z AUTO 03008KT 10SM CLR 28/M08 A3010 RMK AO2 SLP150 T02831078 10283 20233 56013,M
NFL,2023-09-14 23:56,-118.7010,39.4166,1199.00,83.00,30.00,14.62,10.00,8.00,0.00,30.06,1014.70,10.00,M,FEW,M,M,M,7000.00,M,M,M,M,M,M,M,M,M,M,80.39,KNFL 142356Z 01008KT 10SM FEW070 28/M01 A3006 RMK AO2 SLP147 T02831011 10294 20244 57013,M
HND,2023-09-14 23:56,-115.1344,35.9729,742.79,85.00,50.00,29.85,0.00,0.00,0.00,29.94,1013.00,10.00,M,CLR,M,M,M,M,M,M,M,M,M,M,M,M,M,M,82.83,KHND 142356Z 00000KT 10SM CLR 29/10 A2994 RMK AO2 SLP130 T02940100 10311 20278 56010,M
LAS,2023-09-14 23:56,-115.1634,36.0719,663.00,85.00,50.00,29.85,M,3.00,0.00,29.90,1010.20,10.00,M,FEW,SCT,BKN,M,11000.00,16000.00,22000.00,M,M,M,M,M,M,M,M,82.83,KLAS 142356Z VRB03KT 10SM FEW110 SCT160 BKN220 29/10 A2990 RMK AO2 SLP102 CB DSNT ALQDS 60000 T02940100 10306 20283 56015,M
