station,valid,lon,lat,elevation,tmpf,dwpf,relh,drct,sknt,p01i,alti,mslp,vsby,gust,skyc1,skyc2,skyc3,skyc4,skyl1,skyl2,skyl3,skyl4,wxcodes,ice_accretion_1hr,ice_accretion_3hr,ice_accretion_6hr,peak_wind_gust,peak_wind_drct,peak_wind_time,feel,metar,snowdepth
HND,2024-02-06 00:04,-115.1344,35.9729,742.79,48.20,44.60,87.28,50.00,4.00,0.00,29.90,M,10.00,M,SCT,OVC,M,M,800.00,7500.00,M,M,M,M,M,M,M,M,M,46.34,KHND 060004Z 05004KT 10SM SCT008 OVC075 09/07 A2990 RMK AO2,M
TPH,2024-02-06 00:04,-117.0904,38.0505,1654.00,40.00,35.00,82.15,160.00,15.00,0.00,29.80,M,10.00,21.00,BKN,OVC,M,M,1300.00,2100.00,M,M,M,M,M,M,M,M,M,31.15,KTPH 060004Z AUTO 16015G21KT 10SM BKN013 OVC021 04/02 A2980 RMK AO2 T00440017,M
BVU,2024-02-06 00:15,-114.8611,35.9475,671.00,51.80,41.00,66.48,330.00,12.00,0.00,29.87,M,10.00,17.00,CLR,M,M,M,M,M,M,M,M,M,M,M,M,M,M,51.80,KBVU 060015Z AUTO 33012G17KT 10SM CLR 11/05 A2987 RMK AO2,M
CXP,2024-02-06 00:15,-119.7326,39.1923,1431.00,42.80,26.60,52.45,210.00,4.00,0.00,29.74,M,10.00,M,FEW,FEW,M,M,6500.00,12000.00,M,M,M,M,M,M,M,M,M,40.03,KCXP 060015Z AUTO 21004KT 10SM FEW065 FEW120 06/M03 A2974 RMK AO2,M
RTS,2024-02-06 00:15,-119.8764,39.6682,1539.00,39.20,30.20,69.88,290.00,11.00,0.00,29.72,M,10.00,M,OVC,M,M,M,5500.00,M,M,M,M,M,M,M,M,M,M,31.57,KRTS 060015Z AUTO 29011KT 10SM OVC055 04/M01 A2972 RMK AO2,M
05U,2024-02-06 00:15,-116.0051,39.6042,1811.23,M,M,M,320.00,12.00,0.00,29.83,M,10.00,M,M,M,M,M,M,M,M,M,M,M,M,M,M,M,M,M,K05U 060015Z AUTO 32012KT 10SM A2983 RMK A01,M
MEV,2024-02-06 00:15,-119.7500,38.9963,1441.42,39.20,28.40,64.93,160.00,13.00,0.00,29.72,M,10.00,M,FEW,BKN,BKN,M,7000.00,8500.00,10000.00,M,M,M,M,M,M,M,M,30.79,KMEV 060015Z AUTO 16013KT 10SM FEW070 BKN085 BKN100 04/M02 A2972 RMK AO2,M
BAM,2024-02-06 00:15,-116.8743,40.5990,1382.36,44.60,33.80,65.61,240.00,8.00,0.00,29.77,M,10.00,M,SCT,BKN,OVC,M,5000.00,5500.00,7500.00,M,M,M,M,M,M,M,M,39.63,KBAM 060015Z AUTO 24008KT 10SM SCT050 BKN055 OVC075 07/01 A2977 RMK AO1,M
HTH,2024-02-06 00:15,-118.6315,38.5448,1282.89,48.20,32.00,53.27,160.00,15.00,0.00,29.71,M,10.00,M,CLR,M,M,M,M,M,M,M,M,M,M,M,M,M,M,41.78,KHTH 060015Z AUTO 16015KT 10SM CLR 09/M00 A2971 RMK A01,M
TMT,2024-02-06 00:15,-117.1971,39.4643,1749.34,42.40,29.00,58.78,210.00,9.00,0.00,29.76,M,10.00,M,CLR,M,M,M,M,M,M,M,M,M,M,M,M,M,M,36.45,KTMT 060015Z AUTO 21009KT 10SM CLR 06/M02 A2976 RMK AO2 T00581017,M
TPH,2024-02-06 00:16,-117.0904,38.0505,1654.00,39.00,35.00,85.42,150.00,16.00,T,29.80,M,10.00,22.00,BKN,OVC,M,M,1500.00,2300.00,M,M,-RA,M,M,M,M,M,M,29.54,KTPH 060016Z AUTO 15016G22KT 10SM -RA BKN015 OVC023 04/02 A2980 RMK AO2 RAB14 P0000 T00390017,M
LSV,2024-02-06 00:22,-115.0343,36.2362,570.00,51.80,44.60,76.34,80.00,5.00,0.00,29.85,1010.50,10.00,M,BKN,M,M,M,8500.00,M,M,M,M,M,M,M,M,M,M,51.80,KLSV 060022Z 08005KT 10SM BKN085 11/07 A2985 RMK SLP105 $,M
BVU,2024-02-06 00:35,-114.8611,35.9475,671.00,51.80,41.00,66.48,340.00,10.00,0.00,29.86,M,10.00,M,CLR,M,M,M,M,M,M,M,M,M,M,M,M,M,M,51.80,KBVU 060035Z AUTO 34010KT 10SM CLR 11/05 A2986 RMK AO2,M
CXP,2024-02-06 00:35,-119.7326,39.1923,1431.00,41.00,26.60,56.22,0.00,0.00,0.00,29.73,M,10.00,M,CLR,M,M,M,M,M,M,M,M,M,M,M,M,M,M,41.00,KCXP 060035Z AUTO 00000KT 10SM CLR 05/M03 A2973 RMK AO2,M
RTS,2024-02-06 00:35,-119.8764,39.6682,1539.00,37.40,30.20,74.98,260.00,8.00,0.00,29.72,M,10.00,M,BKN,BKN,M,M,5500.00,7000.00,M,M,M,M,M,M,M,M,M,30.76,KRTS 060035Z AUTO 26008KT 10SM BKN055 BKN070 03/M01 A2972 RMK AO2,M
05U,2024-02-06 00:35,-116.0051,39.6042,1811.23,M,M,M,320.00,11.00,0.00,29.83,M,10.00,M,M,M,M,M,M,M,M,M,M,M,M,M,M,M,M,M,K05U 060035Z AUTO 32011KT 10SM A2983 RMK A01,M
MEV,2024-02-06 00:35,-119.7500,38.9963,1441.42,39.20,28.40,64.93,150.00,14.00,0.00,29.72,M,10.00,M,BKN,M,M,M,8500.00,M,M,M,M,M,M,M,M,M,M,30.44,KMEV 060035Z AUTO 15014KT 10SM BKN085 04/M02 A2972 RMK AO2,M
BAM,2024-02-06 00:35,-116.8743,40.5990,1382.36,44.60,33.80,65.61,110.00,3.00,0.00,29.77,M,10.00,M,SCT,BKN,OVC,M,5000.00,5500.00,7500.00,M,M,M,M,M,M,M,M,43.09,KBAM 060035Z AUTO 11003KT 10SM SCT050 BKN055 OVC075 07/01 A2977 RMK AO1,M
HTH,2024-02-06 00:35,-118.6315,38.5448,1282.89,48.20,28.40,46.02,180.00,16.00,0.00,29.70,M,10.00,21.00,CLR,M,M,M,M,M,M,M,M,M,M,M,M,M,M,41.53,KHTH 060035Z AUTO 18016G21KT 10SM CLR 09/M02 A2970 RMK A01,M
TMT,2024-02-06 00:35,-117.1971,39.4643,1749.34,41.40,29.30,61.85,220.00,7.00,0.00,29.74,M,10.00,M,BKN,M,M,M,12000.00,M,M,M,M,M,M,M,M,M,M,36.24,KTMT 060035Z AUTO 22007KT 10SM BKN120 05/M01 A2974 RMK AO2 T00521015,M
05U,2024-02-06 00:50,-116.0051,39.6042,1811.23,M,M,M,320.00,9.00,0.00,29.83,M,10.00,M,M,M,M,M,M,M,M,M,M,M,M,M,M,M,M,M,K05U 060050Z AUTO 32009KT 10SM A2983 RMK A01,M
DRA,2024-02-06 00:53,-116.0278,36.6206,1009.00,42.00,40.00,92.55,30.00,5.00,0.11,29.88,1010.90,8.00,M,BKN,OVC,M,M,2000.00,2600.00,M,M,-RA,M,M,M,M,M,M,38.27,KDRA 060053Z AUTO 03005KT 8SM -RA BKN020 OVC026 06/04 A2988 RMK AO2 SLP109 P0011 T00560044,M
ELY,2024-02-06 00:53,-114.8453,39.2950,1909.00,33.00,30.00,88.58,190.00,15.00,T,29.85,1009.90,10.00,25.00,FEW,OVC,M,M,7500.00,10000.00,M,M,M,M,M,M,29.00,180.00,2024-02-06 00:08,22.08,KELY 060053Z AUTO 19015G25KT 10SM FEW075 OVC100 01/M01 A2985 RMK AO2 PK WND 18029/0008 UPB04E39 SLP099 P0000 T00061011,M
VGT,2024-02-06 00:53,-115.1933,36.2111,667.00,50.00,44.00,79.76,10.00,5.00,T,29.86,1012.80,10.00,M,OVC,M,M,M,7500.00,M,M,M,M,M,M,M,M,M,M,50.00,KVGT 060053Z 01005KT 10SM OVC075 10/07 A2986 RMK AO2 RAE25 SLP128 P0000 T01000067,M
LOL,2024-02-06 00:53,-118.5701,40.0684,1192.43,50.00,30.00,45.93,280.00,6.00,0.00,29.70,1005.30,10.00,M,OVC,M,M,M,9000.00,M,M,M,M,M,M,M,M,M,M,50.00,KLOL 060053Z AUTO 28006KT 10SM OVC090 10/M01 A2970 RMK AO2 SLP053 T01001011,M
P68,2024-02-06 00:53,-116.0056,39.6014,1993.00,37.00,32.00,81.93,160.00,9.00,0.00,29.81,1007.70,M,M,M,M,M,M,M,M,M,M,M,M,M,M,M,M,M,29.73,KP68 060053Z AUTO 16009KT 03/00 A2981 RMK AO1 SLP077 T00280000 $,M
BVU,2024-02-06 00:55,-114.8611,35.9475,671.00,51.80,41.00,66.48,340.00,11.00,0.00,29.86,M,10.00,M,CLR,M,M,M,M,M,M,M,M,M,M,M,M,M,M,51.80,KBVU 060055Z AUTO 34011KT 10SM CLR 11/05 A2986 RMK AO2,M
CXP,2024-02-06 00:55,-119.7326,39.1923,1431.00,41.00,26.60,56.22,0.00,0.00,0.00,29.74,M,10.00,M,FEW,SCT,M,M,9000.00,12000.00,M,M,M,M,M,M,M,M,M,41.00,KCXP 060055Z AUTO 00000KT 10SM FEW090 SCT120 05/M03 A2974 RMK AO2,M
INS,2024-02-06 00:55,-115.6733,36.5872,955.00,44.20,41.00,88.43,340.00,4.00,0.10,29.89,1010.90,7.00,M,FEW,BKN,M,M,900.00,2300.00,M,M,RA,M,M,M,M,M,M,41.67,KINS 060055Z AUTO 34004KT 7SM RA FEW009 BKN023 07/05 A2989 RMK AO2 SLP109 P0010 T00680051,M
RNO,2024-02-06 00:55,-119.7711,39.4839,1341.00,45.00,29.00,53.22,260.00,4.00,0.00,29.71,1005.40,10.00,M,BKN,BKN,M,M,6500.00,14000.00,M,M,M,M,M,M,M,M,M,42.60,KRNO 060055Z 26004KT 10SM BKN065 BKN140 07/M02 A2971 RMK AO2 SLP054 T00721017 $,M
LSV,2024-02-06 00:55,-115.0343,36.2362,570.00,51.00,45.00,79.84,90.00,3.00,0.00,29.85,1010.50,10.00,M,SCT,M,M,M,9000.00,M,M,M,M,M,M,M,M,M,M,51.00,KLSV 060055Z 09003KT 10SM SCT090 11/07 A2985 RMK AO2A SLP105 T01060073 $,M
RTS,2024-02-06 00:55,-119.8764,39.6682,1539.00,37.40,30.20,74.98,270.00,5.00,0.00,29.73,M,10.00,M,FEW,OVC,M,M,4500.00,5500.00,M,M,M,M,M,M,M,M,M,32.81,KRTS 060055Z AUTO 27005KT 10SM FEW045 OVC055 03/M01 A2973 RMK AO2,M
MEV,2024-02-06 00:55,-119.7500,38.9963,1441.42,37.40,30.20,74.98,170.00,11.00,0.00,29.73,M,10.00,M,FEW,BKN,M,M,7500.00,9000.00,M,M,M,M,M,M,M,M,M,29.29,KMEV 060055Z AUTO 17011KT 10SM FEW075 BKN090 03/M01 A2973 RMK AO2,M
BAM,2024-02-06 00:55,-116.8743,40.5990,1382.36,44.60,33.80,65.61,60.00,5.00,0.00,29.76,M,10.00,M,SCT,BKN,OVC,M,5500.00,7500.00,10000.00,M,M,M,M,M,M,M,M,41.36,KBAM 060055Z AUTO 06005KT 10SM SCT055 BKN075 OVC100 07/01 A2976 RMK AO1,M
HTH,2024-02-06 00:55,-118.6315,38.5448,1282.89,48.20,28.40,46.02,170.00,15.00,0.00,29.71,M,10.00,M,CLR,M,M,M,M,M,M,M,M,M,M,M,M,M,M,41.78,KHTH 060055Z AUTO 17015KT 10SM CLR 09/M02 A2971 RMK A01,M
TMT,2024-02-06 00:55,-117.1971,39.4643,1749.34,40.00,30.00,67.18,230.00,6.00,0.00,29.75,M,10.00,M,SCT,M,M,M,12000.00,M,M,M,M,M,M,M,M,M,M,35.17,KTMT 060055Z AUTO 23006KT 10SM SCT120 05/M01 A2975 RMK AO2 T00451012,M
EKO,2024-02-06 00:56,-115.7860,40.8242,1367.00,43.00,34.00,70.30,190.00,8.00,0.00,29.79,1008.20,10.00,17.00,FEW,BKN,M,M,7500.00,10000.00,M,M,M,M,M,M,M,M,M,37.66,KEKO 060056Z AUTO 19008G17KT 10SM FEW075 BKN100 06/01 A2979 RMK AO2 SLP082 T00610011 $,M
HND,2024-02-06 00:56,-115.1344,35.9729,742.79,48.00,44.00,85.95,70.00,3.00,0.00,29.89,1013.80,10.00,M,BKN,OVC,M,M,8000.00,9500.00,M,M,M,M,M,M,M,M,M,46.98,KHND 060056Z 07003KT 10SM BKN080 OVC095 09/07 A2989 RMK AO2 SLP138 T00890067,M
TPH,2024-02-06 00:56,-117.0904,38.0505,1654.00,38.00,34.00,85.35,170.00,14.00,T,29.81,1009.20,10.00,M,BKN,OVC,M,M,1500.00,2100.00,M,M,M,M,M,M,M,M,M,28.90,KTPH 060056Z AUTO 17014KT 10SM BKN015 OVC021 03/01 A2981 RMK AO2 RAB14E33 SLP092 P0000 T00330011,M
LAS,2024-02-06 00:56,-115.1634,36.0719,663.00,49.00,44.00,82.79,40.00,4.00,0.00,29.87,1011.20,10.00,M,FEW,SCT,BKN,OVC,4500.00,6000.00,9000.00,20000.00,M,M,M,M,M,M,M,47.27,KLAS 060056Z 04004KT 10SM FEW045 SCT060 BKN090 OVC200 09/07 A2987 RMK AO2 SLP112 T00940067,M
WMC,2024-02-06 00:56,-117.8072,40.9019,1315.00,46.00,32.00,57.87,40.00,6.00,0.00,29.71,1005.80,10.00,M,SCT,BKN,OVC,M,6500.00,8000.00,10000.00,M,M,M,M,M,M,M,M,42.39,KWMC 060056Z AUTO 04006KT 10SM SCT065 BKN080 OVC100 08/00 A2971 RMK AO2 SLP058 T00780000,M
NFL,2024-02-06 00:56,-118.7010,39.4166,1199.00,50.00,24.00,35.86,190.00,8.00,0.00,29.70,1003.80,10.00,M,SCT,BKN,BKN,M,5000.00,10000.00,25000.00,M,M,M,M,M,M,M,M,50.00,KNFL 060056Z 19008KT 10SM SCT050 BKN100 BKN250 10/M04 A2970 RMK AO2 SLP038 T01001044,M
INS,2024-02-06 01:00,-115.6733,36.5872,955.00,44.60,41.00,87.09,10.00,3.00,0.00,29.89,1010.90,6.00,M,FEW,BKN,BKN,M,500.00,1000.00,2300.00,M,RA,M,M,M,M,M,M,43.09,KINS 060100Z AUTO 01003KT 6SM RA FEW005 BKN010 BKN023 07/05 A2989 RMK AO2 SLP109,M
05U,2024-02-06 01:10,-116.0051,39.6042,1811.23,M,M,M,320.00,10.00,0.00,29.83,M,10.00,M,M,M,M,M,M,M,M,M,M,M,M,M,M,M,M,M,K05U 060110Z AUTO 32010KT 10SM A2983 RMK A01,M
BVU,2024-02-06 01:15,-114.8611,35.9475,671.00,50.00,41.00,71.07,340.00,11.00,0.00,29.84,M,10.00,M,CLR,M,M,M,M,M,M,M,M,M,M,M,M,M,M,50.00,KBVU 060115Z AUTO 34011KT 10SM CLR 10/05 A2984 RMK AO2,M
CXP,2024-02-06 01:15,-119.7326,39.1923,1431.00,41.00,26.60,56.22,M,5.00,0.00,29.74,M,10.00,M,BKN,OVC,M,M,9000.00,11000.00,M,M,M,M,M,M,M,M,M,37.08,KCXP 060115Z AUTO VRB05KT 10SM BKN090 OVC110 05/M03 A2974 RMK AO2,M
INS,2024-02-06 01:15,-115.6733,36.5872,955.00,44.60,41.00,87.09,0.00,0.00,0.00,29.89,1010.90,8.00,M,FEW,SCT,BKN,OVC,500.00,1000.00,1500.00,2100.00,-RA,M,M,M,M,M,M,44.60,KINS 060115Z AUTO 00000KT 8SM -RA FEW005 SCT010 BKN015 OVC021 07/05 A2989 RMK AO2 BKN V OVC SLP109,M
RTS,2024-02-06 01:15,-119.8764,39.6682,1539.00,37.40,30.20,74.98,0.00,0.00,0.00,29.73,M,10.00,M,SCT,BKN,BKN,M,5000.00,6000.00,8000.00,M,M,M,M,M,M,M,M,37.40,KRTS 060115Z AUTO 00000KT 10SM SCT050 BKN060 BKN080 03/M01 A2973 RMK AO2,M
MEV,2024-02-06 01:15,-119.7500,38.9963,1441.42,37.40,28.40,69.67,160.00,12.00,0.00,29.73,M,10.00,M,BKN,OVC,M,M,7000.00,8500.00,M,M,M,M,M,M,M,M,M,28.87,KMEV 060115Z AUTO 16012KT 10SM BKN070 OVC085 03/M02 A2973 RMK AO2,M
BAM,2024-02-06 01:15,-116.8743,40.5990,1382.36,44.60,33.80,65.61,100.00,7.00,0.00,29.76,M,10.00,M,SCT,SCT,BKN,M,5500.00,7500.00,11000.00,M,M,M,M,M,M,M,M,40.14,KBAM 060115Z AUTO 10007KT 10SM SCT055 SCT075 BKN110 07/01 A2976 RMK AO1,M
HTH,2024-02-06 01:15,-118.6315,38.5448,1282.89,48.20,30.20,49.53,160.00,15.00,0.00,29.72,M,10.00,22.00,CLR,M,M,M,M,M,M,M,M,M,M,M,M,M,M,41.78,KHTH 060115Z AUTO 16015G22KT 10SM CLR 09/M01 A2972 RMK A01,M
TMT,2024-02-06 01:15,-117.1971,39.4643,1749.34,38.70,30.20,71.25,50.00,3.00,0.00,29.75,M,10.00,M,SCT,M,M,M,12000.00,M,M,M,M,M,M,M,M,M,M,36.35,KTMT 060115Z AUTO 05003KT 10SM SCT120 04/M01 A2975 RMK AO2 T00371010,M
INS,2024-02-06 01:20,-115.6733,36.5872,955.00,44.60,41.00,87.09,0.00,0.00,0.00,29.90,1011.30,8.00,M,FEW,OVC,M,M,500.00,1300.00,M,M,-RA,M,M,M,M,M,M,44.60,KINS 060120Z AUTO 00000KT 8SM -RA FEW005 OVC013 07/05 A2990 RMK AO2 SLP113,M
DRA,2024-02-06 01:28,-116.0278,36.6206,1009.00,41.00,38.00,88.97,60.00,5.00,0.03,29.89,M,10.00,M,FEW,SCT,OVC,M,2000.00,2400.00,4000.00,M,-RA,M,M,M,M,M,M,37.08,KDRA 060128Z AUTO 06005KT 10SM -RA FEW020 SCT024 OVC040 05/03 A2989 RMK AO2 P0003 T00500033,M
05U,2024-02-06 01:30,-116.0051,39.6042,1811.23,M,M,M,300.00,10.00,0.00,29.82,M,10.00,M,M,M,M,M,M,M,M,M,M,M,M,M,M,M,M,M,K05U 060130Z AUTO 30010KT 10SM A2982 RMK A01,M
BVU,2024-02-06 01:35,-114.8611,35.9475,671.00,50.00,41.00,71.07,340.00,8.00,0.00,29.85,M,10.00,M,CLR,M,M,M,M,M,M,M,M,M,M,M,M,M,M,50.00,KBVU 060135Z AUTO 34008KT 10SM CLR 10/05 A2985 RMK AO2,M
CXP,2024-02-06 01:35,-119.7326,39.1923,1431.00,41.00,28.40,60.54,0.00,0.00,0.00,29.75,M,10.00,M,FEW,BKN,OVC,M,5000.00,8000.00,11000.00,M,M,M,M,M,M,M,M,41.00,KCXP 060135Z AUTO 00000KT 10SM FEW050 BKN080 OVC110 05/M02 A2975 RMK AO2,M
RTS,2024-02-06 01:35,-119.8764,39.6682,1539.00,37.40,30.20,74.98,0.00,0.00,0.00,29.74,M,10.00,M,SCT,SCT,BKN,M,5000.00,5500.00,11000.00,M,M,M,M,M,M,M,M,37.40,KRTS 060135Z AUTO 00000KT 10SM SCT050 SCT055 BKN110 03/M01 A2974 RMK AO2,M
MEV,2024-02-06 01:35,-119.7500,38.9963,1441.42,37.40,30.20,74.98,180.00,6.00,0.00,29.73,M,10.00,M,FEW,BKN,OVC,M,4000.00,6000.00,7000.00,M,M,M,M,M,M,M,M,32.03,KMEV 060135Z AUTO 18006KT 10SM FEW040 BKN060 OVC070 03/M01 A2973 RMK AO2,M
BAM,2024-02-06 01:35,-116.8743,40.5990,1382.36,44.60,32.00,61.03,90.00,6.00,0.00,29.76,M,10.00,M,BKN,BKN,M,M,6500.00,7500.00,M,M,M,M,M,M,M,M,M,40.71,KBAM 060135Z AUTO 09006KT 10SM BKN065 BKN075 07/00 A2976 RMK AO1,M
HTH,2024-02-06 01:35,-118.6315,38.5448,1282.89,48.20,30.20,49.53,150.00,9.00,0.00,29.73,M,10.00,16.00,CLR,M,M,M,M,M,M,M,M,M,M,M,M,M,M,43.66,KHTH 060135Z AUTO 15009G16KT 10SM CLR 09/M01 A2973 RMK A01,M
TMT,2024-02-06 01:35,-117.1971,39.4643,1749.34,41.00,28.00,59.55,250.00,4.00,0.00,29.75,M,10.00,M,BKN,M,M,M,12000.00,M,M,M,M,M,M,M,M,M,M,37.93,KTMT 060135Z AUTO 25004KT 10SM BKN120 05/M02 A2975 RMK AO2 T00511022,M
INS,2024-02-06 01:40,-115.6733,36.5872,955.00,44.60,41.00,87.09,0.00,0.00,0.00,29.90,1011.30,7.00,M,BKN,OVC,M,M,500.00,1400.00,M,M,-RA,M,M,M,M,M,M,44.60,KINS 060140Z AUTO 00000KT 7SM -RA BKN005 OVC014 07/05 A2990 RMK AO2 SLP113,M
TPH,2024-02-06 01:43,-117.0904,38.0505,1654.00,38.00,35.00,88.83,140.00,11.00,T,29.79,M,10.00,M,FEW,OVC,M,M,1300.00,3000.00,M,M,-RA,M,M,M,M,M,M,30.05,KTPH 060143Z AUTO 14011KT 10SM -RA FEW013 OVC030 03/02 A2979 RMK AO2 RAB10 P0000 T00330017,M
DRA,2024-02-06 01:53,-116.0278,36.6206,1009.00,41.00,37.00,85.54,30.00,6.00,0.05,29.89,1011.30,10.00,M,FEW,OVC,M,M,2600.00,3700.00,M,M,-RA,M,M,M,M,M,M,36.37,KDRA 060153Z AUTO 03006KT 10SM -RA FEW026 OVC037 05/03 A2989 RMK AO2 SLP113 P0005 T00500028,M
ELY,2024-02-06 01:53,-114.8453,39.2950,1909.00,34.00,29.00,81.71,170.00,18.00,0.00,29.84,1009.60,10.00,29.00,OVC,M,M,M,9000.00,M,M,M,M,M,M,M,32.00,160.00,2024-02-06 01:31,22.38,KELY 060153Z AUTO 17018G29KT 10SM OVC090 01/M02 A2984 RMK AO2 PK WND 16032/0131 SLP096 T00111017,M
VGT,2024-02-06 01:53,-115.1933,36.2111,667.00,50.00,44.00,79.76,340.00,5.00,0.00,29.85,1012.50,10.00,M,OVC,M,M,M,8000.00,M,M,M,M,M,M,M,M,M,M,50.00,KVGT 060153Z 34005KT 10SM OVC080 10/07 A2985 RMK AO2 SLP125 T01000067,M
LOL,2024-02-06 01:53,-118.5701,40.0684,1192.43,44.00,31.00,59.97,240.00,6.00,0.00,29.72,1006.60,10.00,M,CLR,M,M,M,M,M,M,M,M,M,M,M,M,M,M,39.98,KLOL 060153Z AUTO 24006KT 10SM CLR 07/M01 A2972 RMK AO2 SLP066 T00671006,M
P68,2024-02-06 01:53,-116.0056,39.6014,1993.00,35.00,31.00,85.17,140.00,8.00,0.00,29.79,1007.50,M,20.00,M,M,M,M,M,M,M,M,M,M,M,M,M,M,M,27.81,KP68 060153Z AUTO 14008G20KT 02/M01 A2979 RMK AO1 SLP075 T00171006 $,M
BVU,2024-02-06 01:55,-114.8611,35.9475,671.00,50.00,39.20,66.27,360.00,11.00,0.00,29.85,M,10.00,M,CLR,M,M,M,M,M,M,M,M,M,M,M,M,M,M,50.00,KBVU 060155Z AUTO 36011KT 10SM CLR 10/04 A2985 RMK AO2,M
CXP,2024-02-06 01:55,-119.7326,39.1923,1431.00,39.20,28.40,64.93,190.00,8.00,0.00,29.75,M,10.00,M,SCT,BKN,OVC,M,5000.00,6000.00,8000.00,M,M,M,M,M,M,M,M,32.98,KCXP 060155Z AUTO 19008KT 10SM SCT050 BKN060 OVC080 04/M02 A2975 RMK AO2,M
INS,2024-02-06 01:55,-115.6733,36.5872,955.00,43.50,40.50,89.08,360.00,3.00,0.08,29.89,1011.20,7.00,M,BKN,OVC,M,M,500.00,1900.00,M,M,RA,M,M,M,M,M,M,41.84,KINS 060155Z AUTO 36003KT 7SM RA BKN005 OVC019 06/05 A2989 RMK AO2 SLP112 P0008 T00640047,M
RNO,2024-02-06 01:55,-119.7711,39.4839,1341.00,42.00,29.00,59.69,0.00,0.00,0.00,29.72,1005.40,10.00,M,SCT,BKN,BKN,M,7000.00,11000.00,22000.00,M,M,M,M,M,M,M,M,42.00,KRNO 060155Z 00000KT 10SM SCT070 BKN110 BKN220 06/M02 A2972 RMK AO2 SLP054 T00561017 $,M
LSV,2024-02-06 01:55,-115.0343,36.2362,570.00,49.30,44.60,83.76,90.00,5.00,0.00,29.84,1010.30,10.00,M,FEW,M,M,M,11000.00,M,M,M,M,M,M,M,M,M,M,46.94,KLSV 060155Z 09005KT 10SM FEW110 10/07 A2984 RMK AO2A SLP103 T00960070 $,M
RTS,2024-02-06 01:55,-119.8764,39.6682,1539.00,35.60,30.20,80.51,320.00,6.00,0.00,29.73,M,10.00,M,BKN,BKN,BKN,M,5000.00,6000.00,11000.00,M,M,M,M,M,M,M,M,29.87,KRTS 060155Z AUTO 32006KT 10SM BKN050 BKN060 BKN110 02/M01 A2973 RMK AO2,M
05U,2024-02-06 01:55,-116.0051,39.6042,1811.23,M,M,M,300.00,10.00,0.00,29.82,M,10.00,M,M,M,M,M,M,M,M,M,M,M,M,M,M,M,M,M,K05U 060155Z AUTO 30010KT 10SM A2982 RMK A01,M
MEV,2024-02-06 01:55,-119.7500,38.9963,1441.42,37.40,30.20,74.98,360.00,7.00,0.00,29.74,M,10.00,M,FEW,BKN,OVC,M,4200.00,5000.00,6000.00,M,M,M,M,M,M,M,M,31.36,KMEV 060155Z AUTO 36007KT 10SM FEW042 BKN050 OVC060 03/M01 A2974 RMK AO2,M
BAM,2024-02-06 01:55,-116.8743,40.5990,1382.36,44.60,33.80,65.61,130.00,6.00,0.00,29.76,M,10.00,M,SCT,BKN,OVC,M,6500.00,7500.00,10000.00,M,M,M,M,M,M,M,M,40.71,KBAM 060155Z AUTO 13006KT 10SM SCT065 BKN075 OVC100 07/01 A2976 RMK AO1,M
HTH,2024-02-06 01:55,-118.6315,38.5448,1282.89,44.60,33.80,65.61,90.00,12.00,0.00,29.72,M,10.00,M,CLR,M,M,M,M,M,M,M,M,M,M,M,M,M,M,38.04,KHTH 060155Z AUTO 09012KT 10SM CLR 07/01 A2972 RMK A01,M
TMT,2024-02-06 01:55,-117.1971,39.4643,1749.34,40.30,28.80,63.23,240.00,6.00,0.00,29.77,M,10.00,M,OVC,M,M,M,10000.00,M,M,M,M,M,M,M,M,M,M,35.53,KTMT 060155Z AUTO 24006KT 10SM OVC100 05/M02 A2977 RMK AO2 T00461018,M
EKO,2024-02-06 01:56,-115.7860,40.8242,1367.00,42.00,33.00,70.19,250.00,5.00,0.00,29.78,1008.30,10.00,M,SCT,OVC,M,M,7500.00,9500.00,M,M,M,M,M,M,M,M,M,38.27,KEKO 060156Z AUTO 25005KT 10SM SCT075 OVC095 06/01 A2978 RMK AO2 SLP083 T00560006 $,M
NFL,2024-02-06 01:56,-118.7010,39.4166,1199.00,47.00,25.00,41.83,250.00,5.00,0.00,29.71,1004.20,10.00,M,SCT,BKN,BKN,M,5000.00,10000.00,25000.00,M,M,M,M,M,M,M,M,44.21,KNFL 060156Z 25005KT 10SM SCT050 BKN100 BKN250 08/M04 A2971 RMK AO2 SLP042 T00831039,M
HND,2024-02-06 01:56,-115.1344,35.9729,742.79,47.00,44.00,89.24,0.00,0.00,0.00,29.88,1013.70,10.00,M,SCT,M,M,M,7500.00,M,M,M,M,M,M,M,M,M,M,47.00,KHND 060156Z 00000KT 10SM SCT075 08/07 A2988 RMK AO2 SLP137 T00830067,M
TPH,2024-02-06 01:56,-117.0904,38.0505,1654.00,38.00,35.00,88.83,150.00,12.00,T,29.80,1009.00,10.00,M,SCT,BKN,OVC,M,1600.00,2700.00,3200.00,M,-RA,M,M,M,M,M,M,29.64,KTPH 060156Z AUTO 15012KT 10SM -RA SCT016 BKN027 OVC032 03/02 A2980 RMK AO2 RAB10 SLP090 P0000 T00330017,M
LAS,2024-02-06 01:56,-115.1634,36.0719,663.00,48.00,44.00,85.95,0.00,0.00,0.00,29.86,1011.10,10.00,M,FEW,SCT,BKN,OVC,4500.00,6000.00,8000.00,20000.00,M,M,M,M,M,M,M,48.00,KLAS 060156Z 00000KT 10SM FEW045 SCT060 BKN080 OVC200 09/07 A2986 RMK AO2 SLP111 T00890067,M
WMC,2024-02-06 01:56,-117.8072,40.9019,1315.00,44.00,31.00,59.97,120.00,11.00,0.00,29.73,1006.60,10.00,19.00,BKN,M,M,M,9000.00,M,M,M,M,M,M,M,M,M,M,37.63,KWMC 060156Z AUTO 12011G19KT 10SM BKN090 07/M01 A2973 RMK AO2 SLP066 T00671006,M
INS,2024-02-06 02:05,-115.6733,36.5872,955.00,42.80,41.00,93.30,360.00,3.00,0.00,29.90,1011.50,8.00,M,SCT,OVC,M,M,500.00,2100.00,M,M,-RA,M,M,M,M,M,M,41.03,KINS 060205Z AUTO 36003KT 8SM -RA SCT005 OVC021 06/05 A2990 RMK AO2 SLP115,M
BVU,2024-02-06 02:15,-114.8611,35.9475,671.00,50.00,39.20,66.27,340.00,8.00,0.00,29.85,M,10.00,M,FEW,M,M,M,12000.00,M,M,M,M,M,M,M,M,M,M,50.00,KBVU 060215Z AUTO 34008KT 10SM FEW120 10/04 A2985 RMK AO2,M
CXP,2024-02-06 02:15,-119.7326,39.1923,1431.00,39.20,28.40,64.93,200.00,6.00,0.00,29.75,M,10.00,12.00,SCT,BKN,OVC,M,4500.00,5000.00,7500.00,M,M,M,M,M,M,M,M,34.20,KCXP 060215Z AUTO 20006G12KT 10SM SCT045 BKN050 OVC075 04/M02 A2975 RMK AO2,M
RTS,2024-02-06 02:15,-119.8764,39.6682,1539.00,35.60,30.20,80.51,20.00,5.00,0.00,29.74,M,10.00,M,SCT,SCT,OVC,M,5500.00,8000.00,9500.00,M,M,M,M,M,M,M,M,30.67,KRTS 060215Z AUTO 02005KT 10SM SCT055 SCT080 OVC095 02/M01 A2974 RMK AO2,M
05U,2024-02-06 02:15,-116.0051,39.6042,1811.23,M,M,M,310.00,12.00,0.00,29.82,M,10.00,M,M,M,M,M,M,M,M,M,M,M,M,M,M,M,M,M,K05U 060215Z AUTO 31012KT 10SM A2982 RMK A01,M
MEV,2024-02-06 02:15,-119.7500,38.9963,1441.42,37.40,28.40,69.67,M,4.00,0.00,29.72,M,10.00,10.00,FEW,SCT,BKN,M,3100.00,3900.00,4700.00,M,M,M,M,M,M,M,M,33.73,KMEV 060215Z AUTO VRB04G10KT 10SM FEW031 SCT039 BKN047 03/M02 A2972 RMK AO2,M
BAM,2024-02-06 02:15,-116.8743,40.5990,1382.36,42.80,33.80,70.28,0.00,0.00,0.00,29.76,M,10.00,M,BKN,BKN,BKN,M,7500.00,9000.00,11000.00,M,M,M,M,M,M,M,M,42.80,KBAM 060215Z AUTO 00000KT 10SM BKN075 BKN090 BKN110 06/01 A2976 RMK AO1,M
HTH,2024-02-06 02:15,-118.6315,38.5448,1282.89,46.40,30.20,53.00,110.00,12.00,0.00,29.71,M,10.00,M,SCT,SCT,M,M,6000.00,7000.00,M,M,M,M,M,M,M,M,M,40.33,KHTH 060215Z AUTO 11012KT 10SM SCT060 SCT070 08/M01 A2971 RMK A01,M
TMT,2024-02-06 02:15,-117.1971,39.4643,1749.34,39.00,29.30,67.89,250.00,3.00,0.00,29.77,M,10.00,M,SCT,OVC,M,M,8000.00,9000.00,M,M,M,M,M,M,M,M,M,36.69,KTMT 060215Z AUTO 25003KT 10SM SCT080 OVC090 04/M01 A2977 RMK AO2 T00381015,M
TPH,2024-02-06 02:25,-117.0904,38.0505,1654.00,38.00,35.00,88.83,160.00,9.00,T,29.82,M,10.00,M,BKN,BKN,OVC,M,1400.00,1800.00,4200.00,M,M,M,M,M,M,M,M,30.97,KTPH 060225Z AUTO 16009KT 10SM BKN014 BKN018 OVC042 03/02 A2982 RMK AO2 RAE17 P0000 T00330017,M
BVU,2024-02-06 02:35,-114.8611,35.9475,671.00,50.00,41.00,71.07,340.00,5.00,0.00,29.86,M,10.00,M,FEW,M,M,M,11000.00,M,M,M,M,M,M,M,M,M,M,50.00,KBVU 060235Z AUTO 34005KT 10SM FEW110 10/05 A2986 RMK AO2,M
CXP,2024-02-06 02:35,-119.7326,39.1923,1431.00,37.40,28.40,69.67,0.00,0.00,0.00,29.76,M,10.00,M,FEW,SCT,BKN,M,4000.00,5000.00,6500.00,M,M,M,M,M,M,M,M,37.40,KCXP 060235Z AUTO 00000KT 10SM FEW040 SCT050 BKN065 03/M02 A2976 RMK AO2,M
RTS,2024-02-06 02:35,-119.8764,39.6682,1539.00,35.60,30.20,80.51,320.00,6.00,0.00,29.73,M,10.00,M,BKN,OVC,M,M,7500.00,9000.00,M,M,M,M,M,M,M,M,M,29.87,KRTS 060235Z AUTO 32006KT 10SM BKN075 OVC090 02/M01 A2973 RMK AO2,M
05U,2024-02-06 02:35,-116.0051,39.6042,1811.23,M,M,M,300.00,8.00,0.00,29.83,M,10.00,18.00,M,M,M,M,M,M,M,M,M,M,M,M,M,M,M,M,K05U 060235Z AUTO 30008G18KT 10SM A2983 RMK A01,M
MEV,2024-02-06 02:35,-119.7500,38.9963,1441.42,35.60,30.20,80.51,190.00,3.00,0.00,29.75,M,10.00,M,FEW,SCT,OVC,M,3800.00,4700.00,6500.00,M,M,M,M,M,M,M,M,32.80,KMEV 060235Z AUTO 19003KT 10SM FEW038 SCT047 OVC065 02/M01 A2975 RMK AO2,M
BAM,2024-02-06 02:35,-116.8743,40.5990,1382.36,44.60,33.80,65.61,290.00,4.00,0.00,29.76,M,10.00,M,BKN,M,M,M,11000.00,M,M,M,M,M,M,M,M,M,M,42.13,KBAM 060235Z AUTO 29004KT 10SM BKN110 07/01 A2976 RMK AO1,M
HTH,2024-02-06 02:35,-118.6315,38.5448,1282.89,46.40,30.20,53.00,140.00,9.00,0.00,29.73,M,10.00,15.00,SCT,SCT,M,M,5500.00,7000.00,M,M,M,M,M,M,M,M,M,41.42,KHTH 060235Z AUTO 14009G15KT 10SM SCT055 SCT070 08/M01 A2973 RMK A01,M
TMT,2024-02-06 02:35,-117.1971,39.4643,1749.34,38.30,29.00,68.92,190.00,3.00,0.00,29.76,M,10.00,M,SCT,OVC,M,M,8000.00,11000.00,M,M,M,M,M,M,M,M,M,35.89,KTMT 060235Z AUTO 19003KT 10SM SCT080 OVC110 04/M02 A2976 RMK AO2 T00351016,M
DRA,2024-02-06 02:44,-116.0278,36.6206,1009.00,41.00,38.00,88.97,80.00,3.00,0.05,29.87,M,10.00,M,BKN,BKN,OVC,M,1900.00,2500.00,3700.00,M,-RA,M,M,M,M,M,M,38.98,KDRA 060244Z AUTO 08003KT 10SM -RA BKN019 BKN025 OVC037 05/03 A2987 RMK AO2 P0005 T00500033,M
05U,2024-02-06 02:50,-116.0051,39.6042,1811.23,M,M,M,310.00,8.00,0.00,29.82,M,10.00,M,M,M,M,M,M,M,M,M,M,M,M,M,M,M,M,M,K05U 060250Z AUTO 31008KT 10SM A2982 RMK A01,M
DRA,2024-02-06 02:53,-116.0278,36.6206,1009.00,41.00,38.00,88.97,110.00,3.00,0.05,29.88,1010.80,10.00,M,BKN,BKN,OVC,M,1900.00,2500.00,3700.00,M,-RA,M,M,M,M,M,M,38.98,KDRA 060253Z AUTO 11003KT 10SM -RA BKN019 BKN025 OVC037 05/03 A2988 RMK AO2 SLP108 P0005 60021 T00500033 58004,M
ELY,2024-02-06 02:53,-114.8453,39.2950,1909.00,33.00,30.00,88.58,170.00,17.00,T,29.86,1010.70,2.50,25.00,OVC,M,M,M,4000.00,M,M,M,-SN BR,M,M,M,27.00,180.00,2024-02-06 02:06,21.39,KELY 060253Z AUTO 17017G25KT 2 1/2SM -SN BR OVC040 01/M01 A2986 RMK AO2 PK WND 18027/0206 SNB29 SLP107 P0000 60000 T00061011 53002,M
VGT,2024-02-06 02:53,-115.1933,36.2111,667.00,50.00,43.00,76.76,320.00,10.00,0.00,29.86,1013.00,10.00,M,SCT,BKN,BKN,M,8000.00,9000.00,11000.00,M,M,M,M,M,M,M,M,50.00,KVGT 060253Z 32010KT 10SM SCT080 BKN090 BKN110 10/06 A2986 RMK AO2 SLP130 60000 T01000061 55007,M
LOL,2024-02-06 02:53,-118.5701,40.0684,1192.43,40.00,32.00,72.85,80.00,6.00,0.00,29.71,1006.50,10.00,M,CLR,M,M,M,M,M,M,M,M,M,M,M,M,M,M,35.17,KLOL 060253Z AUTO 08006KT 10SM CLR 04/00 A2971 RMK AO2 SLP065 T00440000 56004,M
P68,2024-02-06 02:53,-116.0056,39.6014,1993.00,36.00,31.00,81.86,150.00,9.00,0.00,29.79,1007.40,M,M,M,M,M,M,M,M,M,M,M,M,M,M,M,M,M,28.49,KP68 060253Z AUTO 15009KT 02/M01 A2979 RMK AO1 SLP074 T00221006 58004 $,M
BVU,2024-02-06 02:55,-114.8611,35.9475,671.00,50.00,39.20,66.27,70.00,4.00,0.00,29.85,M,10.00,M,FEW,M,M,M,11000.00,M,M,M,M,M,M,M,M,M,M,50.00,KBVU 060255Z AUTO 07004KT 10SM FEW110 10/04 A2985 RMK AO2,M
CXP,2024-02-06 02:55,-119.7326,39.1923,1431.00,39.20,28.40,64.93,350.00,4.00,0.00,29.76,M,10.00,M,FEW,BKN,OVC,M,6500.00,7500.00,8500.00,M,M,M,M,M,M,M,M,35.83,KCXP 060255Z AUTO 35004KT 10SM FEW065 BKN075 OVC085 04/M02 A2976 RMK AO2,M
INS,2024-02-06 02:55,-115.6733,36.5872,955.00,42.30,39.20,88.68,0.00,0.00,0.06,29.90,1011.50,8.00,M,SCT,OVC,M,M,1100.00,1900.00,M,M,-RA,M,M,M,M,M,M,42.30,KINS 060255Z AUTO 00000KT 8SM -RA SCT011 OVC019 06/04 A2990 RMK AO2 SLP115 P0006 60024 T00570040 53002,M
RNO,2024-02-06 02:55,-119.7711,39.4839,1341.00,42.00,29.00,59.69,230.00,3.00,0.00,29.74,1006.30,10.00,M,BKN,BKN,M,M,6500.00,10000.00,M,M,M,M,M,M,M,M,M,40.12,KRNO 060255Z 23003KT 10SM BKN065 BKN100 06/M02 A2974 RMK AO2 SLP063 T00561017 53013 $,M
LSV,2024-02-06 02:55,-115.0343,36.2362,570.00,49.30,44.40,83.13,90.00,9.00,0.00,29.84,1010.20,10.00,M,FEW,M,M,M,9000.00,M,M,M,M,M,M,M,M,M,M,45.03,KLSV 060255Z 09009KT 10SM FEW090 10/07 A2984 RMK AO2A SLP102 T00960069 55006 $,M
RTS,2024-02-06 02:55,-119.8764,39.6682,1539.00,33.80,30.20,86.49,330.00,5.00,0.00,29.75,M,10.00,M,OVC,M,M,M,7000.00,M,M,M,M,M,M,M,M,M,M,28.53,KRTS 060255Z AUTO 33005KT 10SM OVC070 01/M01 A2975 RMK AO2,M
MEV,2024-02-06 02:55,-119.7500,38.9963,1441.42,35.60,30.20,80.51,130.00,5.00,0.00,29.74,M,10.00,M,FEW,SCT,BKN,M,2700.00,3500.00,4800.00,M,M,M,M,M,M,M,M,30.67,KMEV 060255Z AUTO 13005KT 10SM FEW027 SCT035 BKN048 02/M01 A2974 RMK AO2,M
BAM,2024-02-06 02:55,-116.8743,40.5990,1382.36,42.80,33.80,70.28,0.00,0.00,0.00,29.78,M,10.00,M,SCT,OVC,M,M,7500.00,9000.00,M,M,M,M,M,M,M,M,M,42.80,KBAM 060255Z AUTO 00000KT 10SM SCT075 OVC090 06/01 A2978 RMK AO1,M
HTH,2024-02-06 02:55,-118.6315,38.5448,1282.89,44.60,32.00,61.03,120.00,10.00,0.00,29.73,M,10.00,M,CLR,M,M,M,M,M,M,M,M,M,M,M,M,M,M,38.77,KHTH 060255Z AUTO 12010KT 10SM CLR 07/00 A2973 RMK A01,M
TMT,2024-02-06 02:55,-117.1971,39.4643,1749.34,36.30,29.70,76.73,170.00,4.00,0.00,29.76,M,10.00,M,OVC,M,M,M,10000.00,M,M,M,M,M,M,M,M,M,M,32.44,KTMT 060255Z AUTO 17004KT 10SM OVC100 02/M01 A2976 RMK AO2 T00241013,M
EKO,2024-02-06 02:56,-115.7860,40.8242,1367.00,42.00,33.00,70.19,M,5.00,0.00,29.78,1008.40,10.00,M,OVC,M,M,M,10000.00,M,M,M,M,M,M,M,M,M,M,38.27,KEKO 060256Z AUTO VRB05KT 10SM OVC100 06/01 A2978 RMK AO2 SLP084 T00560006 58001 $,M
NFL,2024-02-06 02:56,-118.7010,39.4166,1199.00,46.00,28.00,49.18,190.00,5.00,0.00,29.70,1003.80,10.00,M,SCT,BKN,BKN,M,5000.00,10000.00,25000.00,M,M,M,M,M,M,M,M,43.02,KNFL 060256Z 19005KT 10SM SCT050 BKN100 BKN250 08/M02 A2970 RMK AO2 SLP038 T00781022 58003,M
HND,2024-02-06 02:56,-115.1344,35.9729,742.79,47.00,44.00,89.24,260.00,3.00,0.00,29.90,1014.20,10.00,M,FEW,SCT,M,M,8500.00,11000.00,M,M,M,M,M,M,M,M,M,45.84,KHND 060256Z 26003KT 10SM FEW085 SCT110 08/07 A2990 RMK AO2 SLP142 T00830067 55003,M
TPH,2024-02-06 02:56,-117.0904,38.0505,1654.00,37.00,34.00,88.78,150.00,10.00,T,29.79,1008.60,10.00,M,OVC,M,M,M,1400.00,M,M,M,UP,M,M,M,M,M,M,29.24,KTPH 060256Z AUTO 15010KT 10SM UP OVC014 03/01 A2979 RMK AO2 RAE17UPB39 SLP086 P0000 60000 T00280011 58004,M
LAS,2024-02-06 02:56,-115.1634,36.0719,663.00,48.00,44.00,85.95,250.00,4.00,0.00,29.87,1011.50,10.00,M,FEW,SCT,BKN,OVC,4500.00,6000.00,8000.00,20000.00,M,M,M,M,M,M,M,46.10,KLAS 060256Z 25004KT 10SM FEW045 SCT060 BKN080 OVC200 09/07 A2987 RMK AO2 SLP115 T00890067 55004,M
WMC,2024-02-06 02:56,-117.8072,40.9019,1315.00,41.00,30.00,64.63,170.00,9.00,0.00,29.74,1007.20,10.00,M,FEW,M,M,M,7500.00,M,M,M,M,M,M,M,M,M,M,34.70,KWMC 060256Z AUTO 17009KT 10SM FEW075 05/M01 A2974 RMK AO2 SLP072 T00501011 53005,M
ELY,2024-02-06 03:02,-114.8453,39.2950,1909.00,33.00,30.00,88.58,170.00,14.00,T,29.86,M,3.00,25.00,OVC,M,M,M,3400.00,M,M,M,-SN BR,M,M,M,M,M,M,22.45,KELY 060302Z AUTO 17014G25KT 3SM -SN BR OVC034 01/M01 A2986 RMK AO2 P0000 T00061011,M
INS,2024-02-06 03:05,-115.6733,36.5872,955.00,42.80,39.20,86.99,20.00,3.00,0.00,29.89,1011.20,9.00,M,BKN,OVC,M,M,1000.00,1800.00,M,M,-RA,M,M,M,M,M,M,41.03,KINS 060305Z AUTO 02003KT 9SM -RA BKN010 OVC018 06/04 A2989 RMK AO2 SLP112,M
DRA,2024-02-06 03:08,-116.0278,36.6206,1009.00,41.00,38.00,88.97,90.00,4.00,0.02,29.88,M,10.00,M,SCT,SCT,OVC,M,1800.00,2300.00,3400.00,M,-RA,M,M,M,M,M,M,37.93,KDRA 060308Z AUTO 09004KT 10SM -RA SCT018 SCT023 OVC034 05/03 A2988 RMK AO2 P0002 T00500033,M
05U,2024-02-06 03:10,-116.0051,39.6042,1811.23,35.60,32.00,86.59,310.00,7.00,0.00,29.82,M,10.00,M,M,M,M,M,M,M,M,M,M,M,M,M,M,M,M,29.17,K05U 060310Z AUTO 31007KT 10SM 02/M00 A2982 RMK A01,M
TPH,2024-02-06 03:11,-117.0904,38.0505,1654.00,37.00,34.00,88.78,160.00,10.00,T,29.78,M,10.00,M,OVC,M,M,M,1700.00,M,M,M,M,M,M,M,M,M,M,29.24,KTPH 060311Z AUTO 16010KT 10SM OVC017 03/01 A2978 RMK AO2 UPE0257 P0000 T00280011,M
BVU,2024-02-06 03:15,-114.8611,35.9475,671.00,50.00,41.00,71.07,0.00,0.00,0.00,29.86,M,10.00,M,FEW,M,M,M,12000.00,M,M,M,M,M,M,M,M,M,M,50.00,KBVU 060315Z AUTO 00000KT 10SM FEW120 10/05 A2986 RMK AO2,M
CXP,2024-02-06 03:15,-119.7326,39.1923,1431.00,37.40,28.40,69.67,0.00,0.00,0.00,29.75,M,10.00,M,SCT,BKN,OVC,M,7000.00,7500.00,11000.00,M,M,M,M,M,M,M,M,37.40,KCXP 060315Z AUTO 00000KT 10SM SCT070 BKN075 OVC110 03/M02 A2975 RMK AO2,M
INS,2024-02-06 03:15,-115.6733,36.5872,955.00,42.80,39.20,86.99,10.00,4.00,0.00,29.88,1010.80,10.00,M,SCT,BKN,M,M,1000.00,1600.00,M,M,-RA,M,M,M,M,M,M,40.03,KINS 060315Z AUTO 01004KT 10SM -RA SCT010 BKN016 06/04 A2988 RMK AO2 SLP108,M
RTS,2024-02-06 03:15,-119.8764,39.6682,1539.00,33.80,30.20,86.49,20.00,4.00,0.00,29.76,M,10.00,M,SCT,BKN,OVC,M,4200.00,5500.00,7000.00,M,M,M,M,M,M,M,M,29.52,KRTS 060315Z AUTO 02004KT 10SM SCT042 BKN055 OVC070 01/M01 A2976 RMK AO2,M
MEV,2024-02-06 03:15,-119.7500,38.9963,1441.42,35.60,32.00,86.59,140.00,6.00,0.00,29.73,M,10.00,M,SCT,BKN,OVC,M,1300.00,3100.00,4000.00,M,-RA,M,M,M,M,M,M,29.87,KMEV 060315Z AUTO 14006KT 10SM -RA SCT013 BKN031 OVC040 02/M00 A2973 RMK AO2,M
BAM,2024-02-06 03:15,-116.8743,40.5990,1382.36,42.80,33.80,70.28,0.00,0.00,0.00,29.79,M,10.00,M,SCT,BKN,OVC,M,3000.00,6000.00,7500.00,M,M,M,M,M,M,M,M,42.80,KBAM 060315Z AUTO 00000KT 10SM SCT030 BKN060 OVC075 06/01 A2979 RMK AO1,M
HTH,2024-02-06 03:15,-118.6315,38.5448,1282.89,44.60,32.00,61.03,120.00,10.00,0.00,29.73,M,10.00,M,SCT,M,M,M,12000.00,M,M,M,M,M,M,M,M,M,M,38.77,KHTH 060315Z AUTO 12010KT 10SM SCT120 07/00 A2973 RMK A01,M
TMT,2024-02-06 03:15,-117.1971,39.4643,1749.34,36.50,30.00,77.06,180.00,5.00,0.00,29.77,M,10.00,M,SCT,OVC,M,M,7000.00,10000.00,M,M,M,M,M,M,M,M,M,31.74,KTMT 060315Z AUTO 18005KT 10SM SCT070 OVC100 03/M01 A2977 RMK AO2 T00251012,M
INS,2024-02-06 03:20,-115.6733,36.5872,955.00,41.00,39.20,93.24,350.00,4.00,0.00,29.88,1011.00,10.00,M,SCT,SCT,M,M,1000.00,1400.00,M,M,-RA,M,M,M,M,M,M,37.93,KINS 060320Z AUTO 35004KT 10SM -RA SCT010 SCT014 05/04 A2988 RMK AO2 SLP110,M
BVU,2024-02-06 03:35,-114.8611,35.9475,671.00,50.00,41.00,71.07,330.00,6.00,0.00,29.85,M,10.00,M,FEW,M,M,M,11000.00,M,M,M,M,M,M,M,M,M,M,50.00,KBVU 060335Z AUTO 33006KT 10SM FEW110 10/05 A2985 RMK AO2,M
CXP,2024-02-06 03:35,-119.7326,39.1923,1431.00,35.60,28.40,74.80,0.00,0.00,0.00,29.74,M,10.00,M,SCT,BKN,BKN,M,6500.00,7500.00,11000.00,M,M,M,M,M,M,M,M,35.60,KCXP 060335Z AUTO 00000KT 10SM SCT065 BKN075 BKN110 02/M02 A2974 RMK AO2,M
RTS,2024-02-06 03:35,-119.8764,39.6682,1539.00,35.60,30.20,80.51,340.00,5.00,0.00,29.75,M,10.00,M,SCT,BKN,OVC,M,2600.00,3000.00,4600.00,M,M,M,M,M,M,M,M,30.67,KRTS 060335Z AUTO 34005KT 10SM SCT026 BKN030 OVC046 02/M01 A2975 RMK AO2,M
05U,2024-02-06 03:35,-116.0051,39.6042,1811.23,M,M,M,310.00,11.00,0.00,29.83,M,10.00,M,M,M,M,M,M,M,M,M,M,M,M,M,M,M,M,M,K05U 060335Z AUTO 31011KT 10SM A2983 RMK A01,M
MEV,2024-02-06 03:35,-119.7500,38.9963,1441.42,33.80,30.20,86.49,100.00,3.00,0.00,29.73,M,10.00,M,FEW,SCT,BKN,M,1300.00,4100.00,5000.00,M,M,M,M,M,M,M,M,30.75,KMEV 060335Z AUTO 10003KT 10SM FEW013 SCT041 BKN050 01/M01 A2973 RMK AO2,M
BAM,2024-02-06 03:35,-116.8743,40.5990,1382.36,42.80,35.60,75.50,50.00,8.00,0.00,29.77,M,10.00,M,SCT,BKN,OVC,M,3300.00,4400.00,5000.00,M,M,M,M,M,M,M,M,37.42,KBAM 060335Z AUTO 05008KT 10SM SCT033 BKN044 OVC050 06/02 A2977 RMK AO1,M
HTH,2024-02-06 03:35,-118.6315,38.5448,1282.89,44.60,32.00,61.03,130.00,10.00,0.00,29.73,M,10.00,M,BKN,M,M,M,11000.00,M,M,M,M,M,M,M,M,M,M,38.77,KHTH 060335Z AUTO 13010KT 10SM BKN110 07/00 A2973 RMK A01,M
TMT,2024-02-06 03:35,-117.1971,39.4643,1749.34,37.40,29.50,72.88,170.00,3.00,0.00,29.76,M,10.00,M,SCT,BKN,OVC,M,6000.00,8000.00,10000.00,M,M,M,M,M,M,M,M,34.86,KTMT 060335Z AUTO 17003KT 10SM SCT060 BKN080 OVC100 03/M01 A2976 RMK AO2 T00301014,M
05U,2024-02-06 03:50,-116.0051,39.6042,1811.23,M,M,M,290.00,11.00,0.00,29.81,M,10.00,17.00,M,M,M,M,M,M,M,M,M,M,M,M,M,M,M,M,K05U 060350Z AUTO 29011G17KT 10SM A2981 RMK A01,M
HTH,2024-02-06 03:50,-118.6315,38.5448,1282.89,44.60,32.00,61.03,140.00,14.00,0.00,29.73,M,10.00,M,FEW,BKN,BKN,M,8000.00,10000.00,12000.00,M,M,M,M,M,M,M,M,37.40,KHTH 060350Z AUTO 14014KT 10SM FEW080 BKN100 BKN120 07/00 A2973 RMK A01,M
INS,2024-02-06 03:53,-115.6733,36.5872,955.00,41.00,39.20,93.24,340.00,5.00,0.00,29.86,1010.10,10.00,M,SCT,BKN,BKN,OVC,3200.00,4800.00,8000.00,9500.00,M,M,M,M,M,M,M,37.08,KINS 060353Z AUTO 34005KT 10SM SCT032 BKN048 BKN080 OVC095 05/04 A2986 RMK AO2 RAE53 SLP101,M
DRA,2024-02-06 03:53,-116.0278,36.6206,1009.00,40.00,38.00,92.49,40.00,3.00,0.05,29.87,1010.60,10.00,M,OVC,M,M,M,3400.00,M,M,M,-RA,M,M,M,M,M,M,37.83,KDRA 060353Z AUTO 04003KT 10SM -RA OVC034 04/03 A2987 RMK AO2 SLP106 P0005 T00440033,M
ELY,2024-02-06 03:53,-114.8453,39.2950,1909.00,33.00,30.00,88.58,170.00,14.00,T,29.87,1011.10,4.00,24.00,OVC,M,M,M,4000.00,M,M,M,-SN BR,M,M,M,M,M,M,22.45,KELY 060353Z AUTO 17014G24KT 4SM -SN BR OVC040 01/M01 A2987 RMK AO2 SLP111 P0000 T00061011,M
VGT,2024-02-06 03:53,-115.1933,36.2111,667.00,48.00,42.00,79.60,290.00,7.00,0.00,29.84,1012.30,10.00,M,FEW,M,M,M,11000.00,M,M,M,M,M,M,M,M,M,M,44.28,KVGT 060353Z 29007KT 10SM FEW110 09/06 A2984 RMK AO2 SLP123 T00890056,M
LOL,2024-02-06 03:53,-118.5701,40.0684,1192.43,40.00,30.00,67.18,50.00,5.00,0.00,29.71,1006.90,10.00,M,SCT,M,M,M,12000.00,M,M,M,M,M,M,M,M,M,M,35.90,KLOL 060353Z AUTO 05005KT 10SM SCT120 04/M01 A2971 RMK AO2 SLP069 T00441011,M
P68,2024-02-06 03:53,-116.0056,39.6014,1993.00,35.00,31.00,85.17,120.00,8.00,0.00,29.79,1007.20,M,18.00,M,M,M,M,M,M,M,M,M,M,M,M,M,M,M,27.81,KP68 060353Z AUTO 12008G18KT 02/M01 A2979 RMK AO1 SLP072 T00171006 $,M
BVU,2024-02-06 03:55,-114.8611,35.9475,671.00,50.00,41.00,71.07,360.00,6.00,0.00,29.84,M,10.00,M,FEW,BKN,M,M,8500.00,12000.00,M,M,M,M,M,M,M,M,M,50.00,KBVU 060355Z AUTO 36006KT 10SM FEW085 BKN120 10/05 A2984 RMK AO2,M
CXP,2024-02-06 03:55,-119.7326,39.1923,1431.00,35.60,28.40,74.80,0.00,0.00,0.00,29.76,M,10.00,M,FEW,SCT,OVC,M,5000.00,6500.00,7500.00,M,M,M,M,M,M,M,M,35.60,KCXP 060355Z AUTO 00000KT 10SM FEW050 SCT065 OVC075 02/M02 A2976 RMK AO2,M
INS,2024-02-06 03:55,-115.6733,36.5872,955.00,41.40,38.70,90.04,330.00,5.00,0.03,29.86,1010.10,10.00,M,SCT,SCT,BKN,OVC,3200.00,4900.00,7500.00,9500.00,M,M,M,M,M,M,M,37.56,KINS 060355Z AUTO 33005KT 10SM SCT032 SCT049 BKN075 OVC095 05/04 A2986 RMK AO2 RAE53 SLP101 P0003 T00520037,M
RNO,2024-02-06 03:55,-119.7711,39.4839,1341.00,40.00,30.00,67.18,0.00,0.00,0.00,29.73,1006.40,10.00,M,BKN,BKN,M,M,6000.00,11000.00,M,M,M,M,M,M,M,M,M,40.00,KRNO 060355Z 00000KT 10SM BKN060 BKN110 04/M01 A2973 RMK AO2 SLP064 T00441011 $,M
LSV,2024-02-06 03:55,-115.0343,36.2362,570.00,49.00,43.50,81.22,70.00,8.00,0.00,29.82,1009.50,10.00,M,SCT,SCT,M,M,15000.00,17000.00,M,M,M,M,M,M,M,M,M,45.05,KLSV 060355Z 07008KT 10SM SCT150 SCT170 10/06 A2982 RMK AO2A SLP095 T00950064 $,M
RTS,2024-02-06 03:55,-119.8764,39.6682,1539.00,35.60,28.40,74.80,20.00,7.00,0.00,29.73,M,10.00,M,SCT,BKN,OVC,M,2600.00,6500.00,9000.00,M,M,M,M,M,M,M,M,29.17,KRTS 060355Z AUTO 02007KT 10SM SCT026 BKN065 OVC090 02/M02 A2973 RMK AO2,M
MEV,2024-02-06 03:55,-119.7500,38.9963,1441.42,33.80,30.20,86.49,170.00,5.00,0.00,29.75,M,10.00,M,FEW,SCT,OVC,M,4800.00,7500.00,9000.00,M,M,M,M,M,M,M,M,28.53,KMEV 060355Z AUTO 17005KT 10SM FEW048 SCT075 OVC090 01/M01 A2975 RMK AO2,M
BAM,2024-02-06 03:55,-116.8743,40.5990,1382.36,42.80,35.60,75.50,60.00,7.00,0.00,29.77,M,10.00,M,SCT,SCT,BKN,M,5000.00,7000.00,8500.00,M,M,M,M,M,M,M,M,37.94,KBAM 060355Z AUTO 06007KT 10SM SCT050 SCT070 BKN085 06/02 A2977 RMK AO1,M
EKO,2024-02-06 03:56,-115.7860,40.8242,1367.00,42.00,33.00,70.19,160.00,12.00,0.00,29.78,1008.00,10.00,21.00,BKN,OVC,M,M,6500.00,8000.00,M,M,M,M,M,M,M,M,M,34.73,KEKO 060356Z AUTO 16012G21KT 10SM BKN065 OVC080 06/01 A2978 RMK AO2 SLP080 T00560006 $,M
NFL,2024-02-06 03:56,-118.7010,39.4166,1199.00,44.00,31.00,59.97,M,5.00,0.00,29.72,1004.50,10.00,M,SCT,BKN,BKN,M,5000.00,10000.00,25000.00,M,M,M,M,M,M,M,M,40.65,KNFL 060356Z VRB05KT 10SM SCT050 BKN100 BKN250 07/M01 A2972 RMK AO2 SLP045 T00671006,M
HND,2024-02-06 03:56,-115.1344,35.9729,742.79,46.00,44.00,92.68,0.00,0.00,0.00,29.87,1013.50,10.00,M,SCT,M,M,M,12000.00,M,M,M,M,M,M,M,M,M,M,46.00,KHND 060356Z 00000KT 10SM SCT120 08/07 A2987 RMK AO2 SLP135 T00780067,M
TPH,2024-02-06 03:56,-117.0904,38.0505,1654.00,37.00,34.00,88.78,160.00,10.00,T,29.81,1009.10,10.00,M,SCT,BKN,OVC,M,1700.00,2400.00,4800.00,M,-RA,M,M,M,M,M,M,29.24,KTPH 060356Z AUTO 16010KT 10SM -RA SCT017 BKN024 OVC048 03/01 A2981 RMK AO2 UPE0257RAB48 SLP091 P0000 T00280011,M
LAS,2024-02-06 03:56,-115.1634,36.0719,663.00,48.00,41.00,76.58,350.00,5.00,0.00,29.86,1010.80,10.00,M,FEW,BKN,OVC,M,4500.00,8000.00,20000.00,M,M,M,M,M,M,M,M,45.40,KLAS 060356Z 35005KT 10SM FEW045 BKN080 OVC200 09/05 A2986 RMK AO2 SLP108 T00890050,M
WMC,2024-02-06 03:56,-117.8072,40.9019,1315.00,39.00,29.00,67.06,320.00,3.00,0.00,29.74,1007.10,10.00,M,CLR,M,M,M,M,M,M,M,M,M,M,M,M,M,M,36.69,KWMC 060356Z AUTO 32003KT 10SM CLR 04/M02 A2974 RMK AO2 SLP071 T00391017,M
INS,2024-02-06 04:01,-115.6733,36.5872,955.00,41.00,39.20,93.24,300.00,5.00,0.00,29.87,1010.50,10.00,M,FEW,SCT,BKN,OVC,1200.00,3200.00,7500.00,9500.00,-RA,M,M,M,M,M,M,37.08,KINS 060401Z AUTO 30005KT 10SM -RA FEW012 SCT032 BKN075 OVC095 05/04 A2987 RMK AO2 RAB01 SLP105,M
05U,2024-02-06 04:10,-116.0051,39.6042,1811.23,M,M,M,300.00,8.00,0.00,29.81,M,10.00,M,M,M,M,M,M,M,M,M,M,M,M,M,M,M,M,M,K05U 060410Z AUTO 30008KT 10SM A2981 RMK A01,M
HTH,2024-02-06 04:10,-118.6315,38.5448,1282.89,44.60,32.00,61.03,160.00,14.00,0.00,29.74,M,10.00,M,SCT,BKN,OVC,M,5000.00,9000.00,11000.00,M,M,M,M,M,M,M,M,37.40,KHTH 060410Z AUTO 16014KT 10SM SCT050 BKN090 OVC110 07/00 A2974 RMK A01,M
INS,2024-02-06 04:11,-115.6733,36.5872,955.00,41.00,39.20,93.24,0.00,0.00,0.00,29.86,1010.10,10.00,M,BKN,BKN,OVC,M,1300.00,3200.00,7500.00,M,-RA,M,M,M,M,M,M,41.00,KINS 060411Z AUTO 00000KT 10SM -RA BKN013 BKN032 OVC075 05/04 A2986 RMK AO2 RAB01 SLP101,M
INS,2024-02-06 04:12,-115.6733,36.5872,955.00,41.00,37.40,86.89,0.00,0.00,0.00,29.86,1010.10,10.00,M,BKN,BKN,OVC,M,1300.00,3200.00,7500.00,M,M,M,M,M,M,M,M,41.00,KINS 060412Z AUTO 00000KT 10SM BKN013 BKN032 OVC075 05/03 A2986 RMK AO2 RAB01E12 SLP101,M
INS,2024-02-06 04:13,-115.6733,36.5872,955.00,41.00,37.40,86.89,0.00,0.00,0.00,29.86,1010.10,10.00,M,BKN,BKN,OVC,M,1300.00,3200.00,7500.00,M,-RA,M,M,M,M,M,M,41.00,KINS 060413Z AUTO 00000KT 10SM -RA BKN013 BKN032 OVC075 05/03 A2986 RMK AO2 RAB01E12RAB13 SLP101,M
INS,2024-02-06 04:14,-115.6733,36.5872,955.00,41.00,37.40,86.89,0.00,0.00,0.00,29.86,1010.10,10.00,M,BKN,BKN,OVC,M,1300.00,3200.00,7500.00,M,M,M,M,M,M,M,M,41.00,KINS 060414Z AUTO 00000KT 10SM BKN013 BKN032 OVC075 05/03 A2986 RMK AO2 RAB01E12RAB13E14 SLP101,M
BVU,2024-02-06 04:15,-114.8611,35.9475,671.00,50.00,41.00,71.07,30.00,5.00,0.00,29.83,M,10.00,M,BKN,M,M,M,11000.00,M,M,M,M,M,M,M,M,M,M,50.00,KBVU 060415Z AUTO 03005KT 10SM BKN110 10/05 A2983 RMK AO2,M
CXP,2024-02-06 04:15,-119.7326,39.1923,1431.00,35.60,28.40,74.80,0.00,0.00,0.00,29.77,M,10.00,M,SCT,BKN,M,M,7500.00,11000.00,M,M,M,M,M,M,M,M,M,35.60,KCXP 060415Z AUTO 00000KT 10SM SCT075 BKN110 02/M02 A2977 RMK AO2,M
RTS,2024-02-06 04:15,-119.8764,39.6682,1539.00,33.80,30.20,86.49,10.00,7.00,0.00,29.75,M,10.00,M,FEW,SCT,BKN,M,6000.00,7500.00,9000.00,M,M,M,M,M,M,M,M,26.97,KRTS 060415Z AUTO 01007KT 10SM FEW060 SCT075 BKN090 01/M01 A2975 RMK AO2,M
MEV,2024-02-06 04:15,-119.7500,38.9963,1441.42,33.80,30.20,86.49,120.00,5.00,0.00,29.75,M,10.00,M,FEW,OVC,M,M,7000.00,9000.00,M,M,M,M,M,M,M,M,M,28.53,KMEV 060415Z AUTO 12005KT 10SM FEW070 OVC090 01/M01 A2975 RMK AO2,M
BAM,2024-02-06 04:15,-116.8743,40.5990,1382.36,41.00,35.60,80.93,80.00,5.00,0.00,29.77,M,10.00,M,BKN,BKN,M,M,9500.00,12000.00,M,M,M,M,M,M,M,M,M,37.08,KBAM 060415Z AUTO 08005KT 10SM BKN095 BKN120 05/02 A2977 RMK AO1,M
TMT,2024-02-06 04:15,-117.1971,39.4643,1749.34,36.70,30.20,77.08,0.00,0.00,0.00,29.77,M,10.00,M,BKN,BKN,OVC,M,3800.00,4700.00,6500.00,M,M,M,M,M,M,M,M,36.70,KTMT 060415Z AUTO 00000KT 10SM BKN038 BKN047 OVC065 03/M01 A2977 RMK AO2 T00261010,M
ELY,2024-02-06 04:19,-114.8453,39.2950,1909.00,33.00,30.00,88.58,160.00,17.00,0.01,29.86,M,2.50,26.00,OVC,M,M,M,2600.00,M,M,M,-SN BR,M,M,M,26.00,150.00,2024-02-06 04:19,21.39,KELY 060419Z AUTO 16017G26KT 2 1/2SM -SN BR OVC026 01/M01 A2986 RMK AO2 PK WND 15026/0419 P0001 T00061011,M
INS,2024-02-06 04:20,-115.6733,36.5872,955.00,41.00,39.20,93.24,0.00,0.00,0.00,29.86,1010.10,10.00,M,BKN,OVC,M,M,1300.00,7500.00,M,M,-RA,M,M,M,M,M,M,41.00,KINS 060420Z AUTO 00000KT 10SM -RA BKN013 OVC075 05/04 A2986 RMK AO2 RAB01E12RAB13E14RAB20 SLP101,M
05U,2024-02-06 04:30,-116.0051,39.6042,1811.23,35.60,30.20,80.51,330.00,10.00,0.00,29.80,M,10.00,M,M,M,M,M,M,M,M,M,M,M,M,M,M,M,M,27.48,K05U 060430Z AUTO 33010KT 10SM 02/M01 A2980 RMK A01,M
BVU,2024-02-06 04:35,-114.8611,35.9475,671.00,50.00,41.00,71.07,0.00,0.00,0.00,29.83,M,10.00,M,FEW,BKN,M,M,9000.00,12000.00,M,M,M,M,M,M,M,M,M,50.00,KBVU 060435Z AUTO 00000KT 10SM FEW090 BKN120 10/05 A2983 RMK AO2,M
CXP,2024-02-06 04:35,-119.7326,39.1923,1431.00,33.80,28.40,80.36,0.00,0.00,0.00,29.77,M,10.00,M,FEW,SCT,OVC,M,6000.00,7500.00,10000.00,M,M,M,M,M,M,M,M,33.80,KCXP 060435Z AUTO 00000KT 10SM FEW060 SCT075 OVC100 01/M02 A2977 RMK AO2,M
RTS,2024-02-06 04:35,-119.8764,39.6682,1539.00,33.80,30.20,86.49,10.00,5.00,0.00,29.75,M,10.00,M,FEW,SCT,BKN,M,6000.00,7000.00,9000.00,M,M,M,M,M,M,M,M,28.53,KRTS 060435Z AUTO 01005KT 10SM FEW060 SCT070 BKN090 01/M01 A2975 RMK AO2,M
MEV,2024-02-06 04:35,-119.7500,38.9963,1441.42,33.80,30.20,86.49,120.00,7.00,0.00,29.75,M,10.00,M,SCT,BKN,OVC,M,4900.00,6500.00,7500.00,M,M,M,M,M,M,M,M,26.97,KMEV 060435Z AUTO 12007KT 10SM SCT049 BKN065 OVC075 01/M01 A2975 RMK AO2,M
BAM,2024-02-06 04:35,-116.8743,40.5990,1382.36,41.00,35.60,80.93,60.00,6.00,0.00,29.77,M,10.00,M,SCT,OVC,M,M,7500.00,9500.00,M,M,M,M,M,M,M,M,M,36.37,KBAM 060435Z AUTO 06006KT 10SM SCT075 OVC095 05/02 A2977 RMK AO1,M
HTH,2024-02-06 04:35,-118.6315,38.5448,1282.89,44.60,33.80,65.61,170.00,12.00,0.00,29.75,M,10.00,M,SCT,BKN,OVC,M,5500.00,6500.00,7500.00,M,M,M,M,M,M,M,M,38.04,KHTH 060435Z AUTO 17012KT 10SM SCT055 BKN065 OVC075 07/01 A2975 RMK A01,M
TMT,2024-02-06 04:35,-117.1971,39.4643,1749.34,36.70,30.20,77.08,0.00,0.00,0.00,29.78,M,10.00,M,SCT,BKN,OVC,M,3300.00,4000.00,4700.00,M,M,M,M,M,M,M,M,36.70,KTMT 060435Z AUTO 00000KT 10SM SCT033 BKN040 OVC047 03/M01 A2978 RMK AO2 T00261010,M
TPH,2024-02-06 04:38,-117.0904,38.0505,1654.00,37.00,34.00,88.78,150.00,10.00,0.01,29.81,M,10.00,M,OVC,M,M,M,1400.00,M,M,M,-RA,M,M,M,M,M,M,29.24,KTPH 060438Z AUTO 15010KT 10SM -RA OVC014 03/01 A2981 RMK AO2 UPB31E32 P0001 T00280011,M
INS,2024-02-06 04:40,-115.6733,36.5872,955.00,41.00,37.40,86.89,230.00,3.00,0.00,29.86,1010.10,10.00,M,OVC,M,M,M,1500.00,M,M,M,-RA,M,M,M,M,M,M,38.98,KINS 060440Z AUTO 23003KT 10SM -RA OVC015 05/03 A2986 RMK AO2 RAB01E12RAB13E14RAB20 SLP101,M
ELY,2024-02-06 04:42,-114.8453,39.2950,1909.00,34.00,30.00,85.11,150.00,18.00,0.01,29.83,M,5.00,29.00,OVC,M,M,M,4000.00,M,M,M,-SN BR,M,M,M,29.00,150.00,2024-02-06 04:35,22.38,KELY 060442Z AUTO 15018G29KT 5SM -SN BR OVC040 01/M01 A2983 RMK AO2 PK WND 15029/0435 P0001 T00111011,M
05U,2024-02-06 04:50,-116.0051,39.6042,1811.23,35.60,30.20,80.51,320.00,12.00,0.00,29.81,M,10.00,M,M,M,M,M,M,M,M,M,M,M,M,M,M,M,M,26.58,K05U 060450Z AUTO 32012KT 10SM 02/M01 A2981 RMK A01,M
DRA,2024-02-06 04:53,-116.0278,36.6206,1009.00,40.00,38.00,92.49,0.00,0.00,0.03,29.83,1009.30,10.00,M,FEW,BKN,OVC,M,3600.00,4900.00,6500.00,M,-RA,M,M,M,M,M,M,40.00,KDRA 060453Z AUTO 00000KT 10SM -RA FEW036 BKN049 OVC065 04/03 A2983 RMK AO2 SLP093 P0003 T00440033,M
ELY,2024-02-06 04:53,-114.8453,39.2950,1909.00,34.00,30.00,85.11,150.00,19.00,0.01,29.82,1008.70,4.00,32.00,OVC,M,M,M,4800.00,M,M,M,-SN BR,M,M,M,32.00,150.00,2024-02-06 04:50,22.08,KELY 060453Z AUTO 15019G32KT 4SM -SN BR OVC048 01/M01 A2982 RMK AO2 PK WND 15032/0450 SLP087 P0001 T00111011,M
VGT,2024-02-06 04:53,-115.1933,36.2111,667.00,48.00,42.00,79.60,350.00,3.00,0.00,29.84,1012.10,10.00,M,OVC,M,M,M,10000.00,M,M,M,M,M,M,M,M,M,M,46.98,KVGT 060453Z AUTO 35003KT 10SM OVC100 09/06 A2984 RMK AO2 SLP121 T00890056,M
LOL,2024-02-06 04:53,-118.5701,40.0684,1192.43,38.00,30.00,72.64,0.00,0.00,0.00,29.73,1007.20,10.00,M,FEW,M,M,M,12000.00,M,M,M,M,M,M,M,M,M,M,38.00,KLOL 060453Z AUTO 00000KT 10SM FEW120 03/M01 A2973 RMK AO2 SLP072 T00331011,M
P68,2024-02-06 04:53,-116.0056,39.6014,1993.00,36.00,30.00,78.60,160.00,10.00,0.00,29.78,1006.80,M,M,M,M,M,M,M,M,M,M,M,M,M,M,M,M,M,27.98,KP68 060453Z AUTO 16010KT 02/M01 A2978 RMK AO1 SLP068 T00221011 $,M
BVU,2024-02-06 04:55,-114.8611,35.9475,671.00,50.00,41.00,71.07,60.00,3.00,0.00,29.82,M,10.00,M,BKN,M,M,M,11000.00,M,M,M,M,M,M,M,M,M,M,50.00,KBVU 060455Z AUTO 06003KT 10SM BKN110 10/05 A2982 RMK AO2,M
CXP,2024-02-06 04:55,-119.7326,39.1923,1431.00,33.80,28.40,80.36,0.00,0.00,0.00,29.76,M,10.00,M,SCT,OVC,M,M,7500.00,10000.00,M,M,M,M,M,M,M,M,M,33.80,KCXP 060455Z AUTO 00000KT 10SM SCT075 OVC100 01/M02 A2976 RMK AO2,M
INS,2024-02-06 04:55,-115.6733,36.5872,955.00,41.70,38.50,88.31,260.00,3.00,0.01,29.84,1009.40,10.00,M,SCT,SCT,OVC,M,1500.00,2900.00,6500.00,M,-RA,M,M,M,M,M,M,39.78,KINS 060455Z AUTO 26003KT 10SM -RA SCT015 SCT029 OVC065 05/04 A2984 RMK AO2 RAB01E12RAB13E14RAB20 PRESFR SLP094 P0001 T00540036,M
RNO,2024-02-06 04:55,-119.7711,39.4839,1341.00,39.00,30.00,69.85,0.00,0.00,0.00,29.74,1006.70,10.00,M,BKN,BKN,M,M,9500.00,15000.00,M,M,M,M,M,M,M,M,M,39.00,KRNO 060455Z 00000KT 10SM BKN095 BKN150 04/M01 A2974 RMK AO2 SLP067 T00391011 $,M
LSV,2024-02-06 04:55,-115.0343,36.2362,570.00,49.50,42.60,77.01,90.00,6.00,0.00,29.81,1009.10,10.00,M,BKN,M,M,M,11000.00,M,M,M,M,M,M,M,M,M,M,46.61,KLSV 060455Z 09006KT 10SM BKN110 10/06 A2981 RMK AO2A SLP091 T00970059 $,M
RTS,2024-02-06 04:55,-119.8764,39.6682,1539.00,35.60,28.40,74.80,0.00,0.00,0.00,29.75,M,10.00,M,FEW,SCT,OVC,M,6500.00,7000.00,10000.00,M,M,M,M,M,M,M,M,35.60,KRTS 060455Z AUTO 00000KT 10SM FEW065 SCT070 OVC100 02/M02 A2975 RMK AO2,M
MEV,2024-02-06 04:55,-119.7500,38.9963,1441.42,33.80,32.00,93.03,0.00,0.00,0.00,29.75,M,10.00,M,FEW,SCT,BKN,M,2800.00,3300.00,4000.00,M,M,M,M,M,M,M,M,33.80,KMEV 060455Z AUTO 00000KT 10SM FEW028 SCT033 BKN040 01/M00 A2975 RMK AO2,M
BAM,2024-02-06 04:55,-116.8743,40.5990,1382.36,41.00,35.60,80.93,360.00,3.00,0.00,29.77,M,10.00,M,BKN,OVC,M,M,7000.00,8000.00,M,M,M,M,M,M,M,M,M,38.98,KBAM 060455Z AUTO 36003KT 10SM BKN070 OVC080 05/02 A2977 RMK AO1,M
HTH,2024-02-06 04:55,-118.6315,38.5448,1282.89,42.80,33.80,70.28,130.00,10.00,0.00,29.75,M,10.00,M,FEW,OVC,M,M,5500.00,7000.00,M,M,M,M,M,M,M,M,M,36.51,KHTH 060455Z AUTO 13010KT 10SM FEW055 OVC070 06/01 A2975 RMK A01,M
TMT,2024-02-06 04:55,-117.1971,39.4643,1749.34,35.80,30.60,81.18,0.00,0.00,0.00,29.78,M,10.00,M,SCT,OVC,M,M,2800.00,4000.00,M,M,-RA,M,M,M,M,M,M,35.80,KTMT 060455Z AUTO 00000KT 10SM -RA SCT028 OVC040 02/M01 A2978 RMK AO2 T00211008,M
EKO,2024-02-06 04:56,-115.7860,40.8242,1367.00,39.00,33.00,78.86,0.00,0.00,0.00,29.77,1007.80,10.00,M,FEW,BKN,OVC,M,4600.00,5500.00,11000.00,M,M,M,M,M,M,M,M,39.00,KEKO 060456Z AUTO 00000KT 10SM FEW046 BKN055 OVC110 04/01 A2977 RMK AO2 SLP078 T00390006 $,M
HND,2024-02-06 04:56,-115.1344,35.9729,742.79,45.00,43.00,92.65,0.00,0.00,0.00,29.85,1012.70,10.00,M,BKN,OVC,M,M,10000.00,12000.00,M,M,M,M,M,M,M,M,M,45.00,KHND 060456Z AUTO 00000KT 10SM BKN100 OVC120 07/06 A2985 RMK AO2 SLP127 T00720061,M
TPH,2024-02-06 04:56,-117.0904,38.0505,1654.00,36.00,34.00,92.35,120.00,10.00,0.01,29.79,1008.50,10.00,M,OVC,M,M,M,1300.00,M,M,M,-RA,M,M,M,M,M,M,27.98,KTPH 060456Z AUTO 12010KT 10SM -RA OVC013 02/01 A2979 RMK AO2 UPB31E32 SLP085 P0001 T00220011,M
LAS,2024-02-06 04:56,-115.1634,36.0719,663.00,47.00,43.00,85.89,340.00,3.00,0.00,29.83,1010.00,10.00,M,FEW,BKN,OVC,M,4500.00,11000.00,20000.00,M,M,M,M,M,M,M,M,45.84,KLAS 060456Z 34003KT 10SM FEW045 BKN110 OVC200 08/06 A2983 RMK AO2 SLP100 T00830061,M
WMC,2024-02-06 04:56,-117.8072,40.9019,1315.00,39.00,30.00,69.85,60.00,9.00,0.00,29.74,1006.90,10.00,M,CLR,M,M,M,M,M,M,M,M,M,M,M,M,M,M,32.22,KWMC 060456Z AUTO 06009KT 10SM CLR 04/M01 A2974 RMK AO2 SLP069 T00391011,M
NFL,2024-02-06 04:56,-118.7010,39.4166,1199.00,43.00,32.00,64.88,310.00,9.00,0.01,29.74,1005.10,6.00,M,SCT,BKN,OVC,M,3000.00,5000.00,10000.00,M,BR,M,M,M,M,M,M,37.19,KNFL 060456Z 31009KT 6SM BR SCT030 BKN050 OVC100 06/00 A2974 RMK RAB10E42 SLP051 P0001 T00610000,M
INS,2024-02-06 05:08,-115.6733,36.5872,955.00,42.80,39.20,86.99,240.00,5.00,0.00,29.84,1009.40,10.00,M,SCT,BKN,OVC,M,1500.00,4700.00,6500.00,M,M,M,M,M,M,M,M,39.22,KINS 060508Z AUTO 24005KT 10SM SCT015 BKN047 OVC065 06/04 A2984 RMK AO2 RAE03DZB03E08 SLP094,M
INS,2024-02-06 05:13,-115.6733,36.5872,955.00,42.80,37.40,81.07,230.00,5.00,0.00,29.84,1009.40,10.00,M,SCT,BKN,OVC,M,1600.00,4700.00,6500.00,M,-RA,M,M,M,M,M,M,39.22,KINS 060513Z AUTO 23005KT 10SM -RA SCT016 BKN047 OVC065 06/03 A2984 RMK AO2 RAE03DZB03E08RAB13 SLP094,M
BVU,2024-02-06 05:15,-114.8611,35.9475,671.00,48.20,41.00,76.01,0.00,0.00,0.00,29.81,M,10.00,M,SCT,M,M,M,11000.00,M,M,M,M,M,M,M,M,M,M,48.20,KBVU 060515Z AUTO 00000KT 10SM SCT110 09/05 A2981 RMK AO2,M
CXP,2024-02-06 05:15,-119.7326,39.1923,1431.00,35.60,28.40,74.80,0.00,0.00,0.00,29.76,M,10.00,M,SCT,BKN,OVC,M,6000.00,7500.00,10000.00,M,M,M,M,M,M,M,M,35.60,KCXP 060515Z AUTO 00000KT 10SM SCT060 BKN075 OVC100 02/M02 A2976 RMK AO2,M
RTS,2024-02-06 05:15,-119.8764,39.6682,1539.00,33.80,28.40,80.36,0.00,0.00,0.00,29.75,M,10.00,M,FEW,OVC,M,M,7500.00,10000.00,M,M,M,M,M,M,M,M,M,33.80,KRTS 060515Z AUTO 00000KT 10SM FEW075 OVC100 01/M02 A2975 RMK AO2,M
05U,2024-02-06 05:15,-116.0051,39.6042,1811.23,35.60,30.20,80.51,300.00,9.00,0.00,29.82,M,10.00,M,M,M,M,M,M,M,M,M,M,M,M,M,M,M,M,27.99,K05U 060515Z AUTO 30009KT 10SM 02/M01 A2982 RMK A01,M
MEV,2024-02-06 05:15,-119.7500,38.9963,1441.42,33.80,32.00,93.03,0.00,0.00,0.00,29.75,M,10.00,M,BKN,OVC,M,M,3000.00,3900.00,M,M,M,M,M,M,M,M,M,33.80,KMEV 060515Z AUTO 00000KT 10SM BKN030 OVC039 01/M00 A2975 RMK AO2,M
BAM,2024-02-06 05:15,-116.8743,40.5990,1382.36,41.00,33.80,75.33,0.00,0.00,0.00,29.77,M,10.00,M,SCT,OVC,M,M,6000.00,7500.00,M,M,M,M,M,M,M,M,M,41.00,KBAM 060515Z AUTO 00000KT 10SM SCT060 OVC075 05/01 A2977 RMK AO1,M
HTH,2024-02-06 05:15,-118.6315,38.5448,1282.89,42.80,33.80,70.28,110.00,10.00,0.00,29.72,M,10.00,M,OVC,M,M,M,7500.00,M,M,M,M,M,M,M,M,M,M,36.51,KHTH 060515Z AUTO 11010KT 10SM OVC075 06/01 A2972 RMK A01,M
TMT,2024-02-06 05:15,-117.1971,39.4643,1749.34,35.60,32.00,86.59,0.00,0.00,0.00,29.79,M,10.00,M,OVC,M,M,M,4000.00,M,M,M,-RA,M,M,M,M,M,M,35.60,KTMT 060515Z AUTO 00000KT 10SM -RA OVC040 02/00 A2979 RMK AO2 T00201001,M
INS,2024-02-06 05:18,-115.6733,36.5872,955.00,42.80,37.40,81.07,240.00,5.00,0.00,29.84,1009.40,10.00,M,BKN,BKN,OVC,M,1600.00,4800.00,6500.00,M,-RA,M,M,M,M,M,M,39.22,KINS 060518Z AUTO 24005KT 10SM -RA BKN016 BKN048 OVC065 06/03 A2984 RMK AO2 RAE03DZB03E08RAB13 BKN016 V SCT SLP094,M
BVU,2024-02-06 05:35,-114.8611,35.9475,671.00,48.20,41.00,76.01,0.00,0.00,0.00,29.81,M,10.00,M,FEW,M,M,M,12000.00,M,M,M,M,M,M,M,M,M,M,48.20,KBVU 060535Z AUTO 00000KT 10SM FEW120 09/05 A2981 RMK AO2,M
CXP,2024-02-06 05:35,-119.7326,39.1923,1431.00,35.60,28.40,74.80,0.00,0.00,0.00,29.77,M,10.00,M,FEW,SCT,OVC,M,5500.00,6500.00,7500.00,M,M,M,M,M,M,M,M,35.60,KCXP 060535Z AUTO 00000KT 10SM FEW055 SCT065 OVC075 02/M02 A2977 RMK AO2,M
RTS,2024-02-06 05:35,-119.8764,39.6682,1539.00,33.80,28.40,80.36,0.00,0.00,0.00,29.75,M,10.00,M,BKN,OVC,M,M,7500.00,9500.00,M,M,M,M,M,M,M,M,M,33.80,KRTS 060535Z AUTO 00000KT 10SM BKN075 OVC095 01/M02 A2975 RMK AO2,M
05U,2024-02-06 05:35,-116.0051,39.6042,1811.23,37.40,30.20,74.98,300.00,7.00,0.00,29.82,M,10.00,13.00,M,M,M,M,M,M,M,M,M,M,M,M,M,M,M,31.36,K05U 060535Z AUTO 30007G13KT 260V340 10SM 03/M01 A2982 RMK A01,M
MEV,2024-02-06 05:35,-119.7500,38.9963,1441.42,33.80,32.00,93.03,320.00,5.00,0.00,29.75,M,10.00,M,SCT,BKN,OVC,M,2700.00,3900.00,7500.00,M,M,M,M,M,M,M,M,28.53,KMEV 060535Z AUTO 32005KT 10SM SCT027 BKN039 OVC075 01/M00 A2975 RMK AO2,M
BAM,2024-02-06 05:35,-116.8743,40.5990,1382.36,41.00,33.80,75.33,0.00,0.00,0.00,29.77,M,10.00,M,SCT,M,M,M,7500.00,M,M,M,M,M,M,M,M,M,M,41.00,KBAM 060535Z AUTO 00000KT 10SM SCT075 05/01 A2977 RMK AO1,M
HTH,2024-02-06 05:35,-118.6315,38.5448,1282.89,42.80,33.80,70.28,130.00,11.00,0.00,29.72,M,10.00,17.00,SCT,BKN,OVC,M,4500.00,6500.00,7500.00,M,M,M,M,M,M,M,M,36.11,KHTH 060535Z AUTO 13011G17KT 10SM SCT045 BKN065 OVC075 06/01 A2972 RMK A01,M
TMT,2024-02-06 05:35,-117.1971,39.4643,1749.34,34.70,31.60,88.31,40.00,5.00,0.00,29.78,M,10.00,M,BKN,BKN,M,M,4200.00,12000.00,M,M,M,M,M,M,M,M,M,29.60,KTMT 060535Z AUTO 04005KT 10SM BKN042 BKN120 02/00 A2978 RMK AO2 T00151002,M
TPH,2024-02-06 05:38,-117.0904,38.0505,1654.00,35.00,33.00,92.32,110.00,11.00,T,29.77,M,9.00,M,BKN,OVC,M,M,700.00,1100.00,M,M,-RA,M,M,M,M,M,M,26.26,KTPH 060538Z AUTO 11011KT 9SM -RA BKN007 OVC011 02/01 A2977 RMK AO2 P0000 T00170006,M
INS,2024-02-06 05:43,-115.6733,36.5872,955.00,41.00,37.40,86.89,0.00,0.00,0.00,29.82,1009.00,10.00,M,OVC,M,M,M,1500.00,M,M,M,M,M,M,M,M,M,M,41.00,KINS 060543Z AUTO 00000KT 10SM OVC015 05/03 A2982 RMK AO2 RAE03DZB03E08RAB13E43 SLP090,M
ELY,2024-02-06 05:45,-114.8453,39.2950,1909.00,33.00,30.00,88.58,170.00,10.00,T,29.85,M,2.50,20.00,OVC,M,M,M,2800.00,M,M,M,-SN BR,M,M,M,30.00,160.00,2024-02-06 04:58,24.22,KELY 060545Z AUTO 17010G20KT 2 1/2SM -SN BR OVC028 01/M01 A2985 RMK AO2 PK WND 16030/0458 P0000 T00061011,M
TPH,2024-02-06 05:52,-117.0904,38.0505,1654.00,33.80,33.80,100.00,120.00,9.00,0.01,29.77,M,6.00,M,BKN,OVC,M,M,600.00,1100.00,M,M,-SN BR,M,M,M,M,M,M,25.75,KTPH 060552Z AUTO 12009KT 6SM -SN BR BKN006 OVC011 01/01 A2977 RMK AO2 RAE41UPB41E43SNB43 P0001,M
DRA,2024-02-06 05:53,-116.0278,36.6206,1009.00,39.00,37.00,92.45,30.00,11.00,0.03,29.81,1008.60,9.00,M,OVC,M,M,M,3700.00,M,M,M,-RA,M,M,M,M,M,M,31.31,KDRA 060553Z AUTO 03011KT 9SM -RA OVC037 04/03 A2981 RMK AO2 SLP086 P0003 60032 T00390028 10061 20039 58020,M
ELY,2024-02-06 05:53,-114.8453,39.2950,1909.00,32.00,30.00,92.22,170.00,10.00,0.01,29.84,1009.60,2.50,M,OVC,M,M,M,2800.00,M,M,M,-SN BR,M,M,M,30.00,160.00,2024-02-06 04:58,22.97,KELY 060553Z AUTO 17010KT 2 1/2SM -SN BR OVC028 00/M01 A2984 RMK AO2 PK WND 16030/0458 SLP096 P0001 60002 T00001011 10022 20000 55007,M
VGT,2024-02-06 05:53,-115.1933,36.2111,667.00,48.00,41.00,76.58,320.00,8.00,0.00,29.81,1011.40,10.00,M,OVC,M,M,M,10000.00,M,M,M,M,M,M,M,M,M,M,43.82,KVGT 060553Z AUTO 32008KT 10SM OVC100 09/05 A2981 RMK AO2 SLP114 60000 T00890050 10100 20089 56016,M
LOL,2024-02-06 05:53,-118.5701,40.0684,1192.43,37.00,30.00,75.56,0.00,0.00,0.00,29.72,1006.50,10.00,M,BKN,OVC,M,M,8000.00,10000.00,M,M,M,M,M,M,M,M,M,37.00,KLOL 060553Z AUTO 00000KT 10SM BKN080 OVC100 03/M01 A2972 RMK AO2 SLP065 T00281011 10117 20022 50004,M
P68,2024-02-06 05:53,-116.0056,39.6014,1993.00,36.00,30.00,78.60,140.00,12.00,0.00,29.78,1006.60,M,M,M,M,M,M,M,M,M,M,M,M,M,M,M,M,M,27.09,KP68 060553Z AUTO 14012KT 02/M01 A2978 RMK AO1 SLP066 T00221011 10033 20017 55003 $,M
BVU,2024-02-06 05:55,-114.8611,35.9475,671.00,48.20,41.00,76.01,330.00,4.00,0.00,29.80,M,10.00,M,FEW,SCT,M,M,9000.00,11000.00,M,M,M,M,M,M,M,M,M,46.34,KBVU 060555Z AUTO 33004KT 10SM FEW090 SCT110 09/05 A2980 RMK AO2,M
CXP,2024-02-06 05:55,-119.7326,39.1923,1431.00,35.60,30.20,80.51,0.00,0.00,0.00,29.76,M,10.00,M,FEW,BKN,OVC,M,5500.00,6500.00,7500.00,M,M,M,M,M,M,M,M,35.60,KCXP 060555Z AUTO 00000KT 10SM FEW055 BKN065 OVC075 02/M01 A2976 RMK AO2,M
INS,2024-02-06 05:55,-115.6733,36.5872,955.00,42.00,37.40,83.60,0.00,0.00,T,29.81,1008.40,10.00,M,OVC,M,M,M,1500.00,M,M,M,M,M,M,M,M,M,M,42.00,KINS 060555Z AUTO 00000KT 10SM OVC015 06/03 A2981 RMK AO2 RAE03DZB03E08RAB13E43 SLP084 P0000 60028 T00550030 10072 20051 57027,M
RNO,2024-02-06 05:55,-119.7711,39.4839,1341.00,38.00,31.00,75.65,290.00,4.00,0.00,29.75,1006.80,10.00,M,BKN,BKN,M,M,8500.00,14000.00,M,M,M,M,M,M,M,M,M,34.43,KRNO 060555Z 29004KT 10SM BKN085 BKN140 03/M01 A2975 RMK AO2 SLP068 T00331006 10078 20033 53002 $,M
LSV,2024-02-06 05:55,-115.0343,36.2362,570.00,49.00,42.80,79.07,280.00,5.00,0.00,29.79,1008.50,10.00,M,SCT,M,M,M,10000.00,M,M,M,M,M,M,M,M,M,M,46.58,KLSV 060555Z 28005KT 10SM SCT100 10/06 A2979 RMK AO2A SLP085 T00950060 10109 20092 57016 $,M
RTS,2024-02-06 05:55,-119.8764,39.6682,1539.00,33.80,30.20,86.49,0.00,0.00,0.00,29.76,M,10.00,M,BKN,OVC,M,M,6000.00,7000.00,M,M,M,M,M,M,M,M,M,33.80,KRTS 060555Z AUTO 00000KT 10SM BKN060 OVC070 01/M01 A2976 RMK AO2,M
05U,2024-02-06 05:55,-116.0051,39.6042,1811.23,35.60,30.20,80.51,300.00,10.00,0.00,29.80,M,10.00,M,M,M,M,M,M,M,M,M,M,M,M,M,M,M,M,27.48,K05U 060555Z AUTO 30010KT 10SM 02/M01 A2980 RMK A01,M
MEV,2024-02-06 05:55,-119.7500,38.9963,1441.42,33.80,30.20,86.49,30.00,5.00,0.00,29.74,M,10.00,M,FEW,FEW,OVC,M,2500.00,6500.00,7500.00,M,M,M,M,M,M,M,M,28.53,KMEV 060555Z AUTO 03005KT 10SM FEW025 FEW065 OVC075 01/M01 A2974 RMK AO2,M
BAM,2024-02-06 05:55,-116.8743,40.5990,1382.36,39.20,33.80,80.79,60.00,4.00,0.00,29.76,M,10.00,M,CLR,M,M,M,M,M,M,M,M,M,M,M,M,M,M,35.83,KBAM 060555Z AUTO 06004KT 10SM CLR 04/01 A2976 RMK AO1,M
HTH,2024-02-06 05:55,-118.6315,38.5448,1282.89,42.80,33.80,70.28,180.00,6.00,0.00,29.73,M,10.00,M,FEW,BKN,OVC,M,4500.00,6500.00,7500.00,M,M,M,M,M,M,M,M,38.54,KHTH 060555Z AUTO 18006KT 10SM FEW045 BKN065 OVC075 06/01 A2973 RMK A01,M
TMT,2024-02-06 05:55,-117.1971,39.4643,1749.34,33.80,31.50,91.17,40.00,3.00,0.00,29.78,M,10.00,M,SCT,SCT,M,M,3900.00,12000.00,M,M,M,M,M,M,M,M,M,30.75,KTMT 060555Z AUTO 04003KT 10SM SCT039 SCT120 01/00 A2978 RMK AO2 T00101003 10061 20010,M
EKO,2024-02-06 05:56,-115.7860,40.8242,1367.00,39.00,32.00,75.75,270.00,4.00,0.00,29.77,1007.80,10.00,M,SCT,BKN,BKN,M,4100.00,5000.00,11000.00,M,M,M,M,M,M,M,M,35.59,KEKO 060556Z AUTO 27004KT 10SM SCT041 BKN050 BKN110 04/00 A2977 RMK AO2 SLP078 T00390000 10072 20039 58002 $,M
HND,2024-02-06 05:56,-115.1344,35.9729,742.79,45.00,43.00,92.65,0.00,0.00,0.00,29.83,1011.90,10.00,M,SCT,M,M,M,10000.00,M,M,M,M,M,M,M,M,M,M,45.00,KHND 060556Z AUTO 00000KT 10SM SCT100 07/06 A2983 RMK AO2 SLP119 T00720061 10089 20072 58022,M
TPH,2024-02-06 05:56,-117.0904,38.0505,1654.00,34.00,33.00,96.08,120.00,8.00,0.01,29.78,1007.90,6.00,M,BKN,OVC,M,M,600.00,1000.00,M,M,-SN BR,M,M,M,M,M,M,26.58,KTPH 060556Z AUTO 12008KT 6SM -SN BR BKN006 OVC010 01/01 A2978 RMK AO2 RAE41UPB41E43SNB43 SLP079 P0001 60002 T00110006 10044 20011 55010,M
LAS,2024-02-06 05:56,-115.1634,36.0719,663.00,46.00,43.00,89.20,280.00,5.00,0.00,29.81,1009.30,10.00,M,FEW,BKN,OVC,M,4500.00,10000.00,20000.00,M,M,M,M,M,M,M,M,43.02,KLAS 060556Z 28005KT 10SM FEW045 BKN100 OVC200 08/06 A2981 RMK AO2 SLP093 T00780061 10094 20078 58021,M
WMC,2024-02-06 05:56,-117.8072,40.9019,1315.00,35.00,28.00,75.36,80.00,6.00,0.00,29.74,1007.00,10.00,M,CLR,M,M,M,M,M,M,M,M,M,M,M,M,M,M,29.14,KWMC 060556Z AUTO 08006KT 10SM CLR 02/M02 A2974 RMK AO2 SLP070 T00171022 10100 20017 55001,M
NFL,2024-02-06 05:56,-118.7010,39.4166,1199.00,42.00,32.00,67.42,320.00,5.00,0.00,29.73,1004.80,10.00,M,SCT,BKN,OVC,M,3000.00,5000.00,10000.00,M,M,M,M,M,M,M,M,38.27,KNFL 060556Z 32005KT 10SM SCT030 BKN050 OVC100 06/00 A2973 RMK AO2 SLP048 60001 T00560000 10117 20056 50010,M
TPH,2024-02-06 06:09,-117.0904,38.0505,1654.00,34.00,33.00,96.08,120.00,8.00,T,29.79,M,4.00,M,SCT,OVC,M,M,600.00,1000.00,M,M,-SN BR,M,M,M,M,M,M,26.58,KTPH 060609Z AUTO 12008KT 4SM -SN BR SCT006 OVC010 01/01 A2979 RMK AO2 P0000 T00110006,M
BVU,2024-02-06 06:15,-114.8611,35.9475,671.00,48.20,42.80,81.47,10.00,7.00,0.00,29.79,M,10.00,M,FEW,M,M,M,11000.00,M,M,M,M,M,M,M,M,M,M,44.53,KBVU 060615Z AUTO 01007KT 10SM FEW110 09/06 A2979 RMK AO2,M
CXP,2024-02-06 06:15,-119.7326,39.1923,1431.00,35.60,30.20,80.51,0.00,0.00,0.00,29.76,M,10.00,M,FEW,BKN,OVC,M,4500.00,5500.00,6500.00,M,M,M,M,M,M,M,M,35.60,KCXP 060615Z AUTO 00000KT 10SM FEW045 BKN055 OVC065 02/M01 A2976 RMK AO2,M
RTS,2024-02-06 06:15,-119.8764,39.6682,1539.00,32.00,28.40,86.39,350.00,7.00,0.00,29.75,M,10.00,M,FEW,BKN,OVC,M,4600.00,5500.00,7000.00,M,M,M,M,M,M,M,M,24.78,KRTS 060615Z AUTO 35007KT 10SM FEW046 BKN055 OVC070 M00/M02 A2975 RMK AO2,M
05U,2024-02-06 06:15,-116.0051,39.6042,1811.23,37.40,30.20,74.98,290.00,9.00,0.00,29.81,M,10.00,M,M,M,M,M,M,M,M,M,M,M,M,M,M,M,M,30.23,K05U 060615Z AUTO 29009KT 10SM 03/M01 A2981 RMK A01,M
MEV,2024-02-06 06:15,-119.7500,38.9963,1441.42,33.80,30.20,86.49,80.00,5.00,0.00,29.74,M,10.00,M,BKN,OVC,M,M,6000.00,7000.00,M,M,M,M,M,M,M,M,M,28.53,KMEV 060615Z AUTO 08005KT 10SM BKN060 OVC070 01/M01 A2974 RMK AO2,M
BAM,2024-02-06 06:15,-116.8743,40.5990,1382.36,39.20,33.80,80.79,110.00,5.00,0.00,29.77,M,10.00,M,SCT,M,M,M,7000.00,M,M,M,M,M,M,M,M,M,M,34.95,KBAM 060615Z AUTO 11005KT 10SM SCT070 04/01 A2977 RMK AO1,M
HTH,2024-02-06 06:15,-118.6315,38.5448,1282.89,42.80,33.80,70.28,150.00,8.00,0.00,29.72,M,10.00,M,BKN,OVC,M,M,6500.00,7500.00,M,M,M,M,M,M,M,M,M,37.42,KHTH 060615Z AUTO 15008KT 10SM BKN065 OVC075 06/01 A2972 RMK A01,M
TMT,2024-02-06 06:15,-117.1971,39.4643,1749.34,33.30,31.60,93.39,20.00,4.00,0.00,29.73,M,10.00,M,BKN,M,M,M,11000.00,M,M,M,M,M,M,M,M,M,M,28.94,KTMT 060615Z AUTO 02004KT 10SM BKN110 01/00 A2973 RMK AO2 T00071002,M
ELY,2024-02-06 06:18,-114.8453,39.2950,1909.00,33.00,30.00,88.58,150.00,14.00,T,29.84,M,3.00,M,FEW,OVC,M,M,1500.00,3100.00,M,M,-SN BR,M,M,M,M,M,M,22.45,KELY 060618Z AUTO 15014KT 3SM -SN BR FEW015 OVC031 01/M01 A2984 RMK AO2 P0000 T00061011,M
TPH,2024-02-06 06:23,-117.0904,38.0505,1654.00,33.00,32.00,96.06,140.00,7.00,0.01,29.79,M,2.00,M,OVC,M,M,M,1000.00,M,M,M,-SN BR,M,M,M,M,M,M,26.00,KTPH 060623Z AUTO 14007KT 2SM -SN BR OVC010 01/00 A2979 RMK AO2 P0001 T00060000,M
DRA,2024-02-06 06:28,-116.0278,36.6206,1009.00,39.00,38.00,96.16,20.00,4.00,0.02,29.81,M,10.00,M,BKN,OVC,M,M,1700.00,3500.00,M,M,-RA,M,M,M,M,M,M,35.59,KDRA 060628Z AUTO 02004KT 10SM -RA BKN017 OVC035 04/03 A2981 RMK AO2 P0002 T00390033,M
05U,2024-02-06 06:30,-116.0051,39.6042,1811.23,37.40,30.20,74.98,280.00,10.00,0.00,29.79,M,10.00,M,M,M,M,M,M,M,M,M,M,M,M,M,M,M,M,29.74,K05U 060630Z AUTO 28010KT 10SM 03/M01 A2979 RMK A01,M
TPH,2024-02-06 06:31,-117.0904,38.0505,1654.00,33.00,32.00,96.06,140.00,7.00,0.02,29.80,M,1.75,M,FEW,OVC,M,M,500.00,800.00,M,M,-SN BR,M,M,M,M,M,M,26.00,KTPH 060631Z AUTO 14007KT 1 3/4SM -SN BR FEW005 OVC008 01/00 A2980 RMK AO2 P0002 T00060000,M
BVU,2024-02-06 06:35,-114.8611,35.9475,671.00,48.20,42.80,81.47,330.00,5.00,0.00,29.78,M,10.00,M,FEW,FEW,BKN,M,8000.00,9500.00,12000.00,M,M,M,M,M,M,M,M,45.63,KBVU 060635Z AUTO 33005KT 10SM FEW080 FEW095 BKN120 09/06 A2978 RMK AO2,M
CXP,2024-02-06 06:35,-119.7326,39.1923,1431.00,35.60,30.20,80.51,0.00,0.00,0.00,29.75,M,10.00,M,FEW,SCT,BKN,M,3500.00,4200.00,4800.00,M,M,M,M,M,M,M,M,35.60,KCXP 060635Z AUTO 00000KT 10SM FEW035 SCT042 BKN048 02/M01 A2975 RMK AO2,M
RTS,2024-02-06 06:35,-119.8764,39.6682,1539.00,32.00,28.40,86.39,360.00,6.00,0.00,29.75,M,10.00,M,FEW,SCT,BKN,M,4400.00,5500.00,7000.00,M,M,M,M,M,M,M,M,25.53,KRTS 060635Z AUTO 36006KT 10SM FEW044 SCT055 BKN070 M00/M02 A2975 RMK AO2,M
MEV,2024-02-06 06:35,-119.7500,38.9963,1441.42,32.00,30.20,92.97,120.00,5.00,0.00,29.74,M,10.00,M,BKN,OVC,M,M,5000.00,6000.00,M,M,M,M,M,M,M,M,M,26.40,KMEV 060635Z AUTO 12005KT 10SM BKN050 OVC060 00/M01 A2974 RMK AO2,M
BAM,2024-02-06 06:35,-116.8743,40.5990,1382.36,37.40,33.80,86.69,90.00,3.00,0.00,29.77,M,10.00,M,SCT,M,M,M,7000.00,M,M,M,M,M,M,M,M,M,M,34.86,KBAM 060635Z AUTO 09003KT 10SM SCT070 03/01 A2977 RMK AO1,M
HTH,2024-02-06 06:35,-118.6315,38.5448,1282.89,42.80,33.80,70.28,160.00,7.00,0.00,29.74,M,10.00,M,BKN,OVC,M,M,6500.00,7500.00,M,M,M,M,M,M,M,M,M,37.94,KHTH 060635Z AUTO 16007KT 10SM BKN065 OVC075 06/01 A2974 RMK A01,M
TMT,2024-02-06 06:35,-117.1971,39.4643,1749.34,32.00,30.60,94.50,0.00,0.00,0.00,29.74,M,10.00,M,SCT,M,M,M,11000.00,M,M,M,M,M,M,M,M,M,M,32.00,KTMT 060635Z AUTO 00000KT 10SM SCT110 00/M01 A2974 RMK AO2 T00001008,M
DRA,2024-02-06 06:39,-116.0278,36.6206,1009.00,39.00,37.00,92.45,50.00,5.00,0.03,29.81,M,10.00,M,SCT,OVC,M,M,1700.00,3300.00,M,M,-RA,M,M,M,M,M,M,34.71,KDRA 060639Z AUTO 05005KT 10SM -RA SCT017 OVC033 04/03 A2981 RMK AO2 P0003 T00390028,M
TPH,2024-02-06 06:39,-117.0904,38.0505,1654.00,33.00,32.00,96.06,110.00,7.00,0.02,29.78,M,2.00,M,FEW,OVC,M,M,500.00,900.00,M,M,-SN BR,M,M,M,M,M,M,26.00,KTPH 060639Z AUTO 11007KT 2SM -SN BR FEW005 OVC009 01/00 A2978 RMK AO2 P0002 T00060000,M
TPH,2024-02-06 06:51,-117.0904,38.0505,1654.00,33.80,32.00,93.03,120.00,8.00,0.04,29.78,M,1.50,M,OVC,M,M,M,700.00,M,M,M,-SN BR,M,M,M,M,M,M,26.33,KTPH 060651Z AUTO 12008KT 1 1/2SM -SN BR OVC007 01/00 A2978 RMK AO2 P0004,M
DRA,2024-02-06 06:53,-116.0278,36.6206,1009.00,39.00,37.00,92.45,20.00,8.00,0.05,29.80,1008.30,8.00,M,FEW,OVC,M,M,1700.00,3500.00,M,M,-RA,M,M,M,M,M,M,32.74,KDRA 060653Z AUTO 02008KT 8SM -RA FEW017 OVC035 04/03 A2980 RMK AO2 SLP083 P0005 T00390028,M
ELY,2024-02-06 06:53,-114.8453,39.2950,1909.00,33.00,30.00,88.58,210.00,9.00,T,29.81,1008.30,10.00,M,FEW,OVC,M,M,4600.00,5500.00,M,M,M,M,M,M,M,M,M,24.76,KELY 060653Z AUTO 21009KT 10SM FEW046 OVC055 01/M01 A2981 RMK AO2 SNE32 SLP083 P0000 T00061011,M
VGT,2024-02-06 06:53,-115.1933,36.2111,667.00,47.00,41.00,79.52,310.00,7.00,0.00,29.79,1010.50,10.00,M,BKN,OVC,M,M,10000.00,12000.00,M,M,M,M,M,M,M,M,M,43.06,KVGT 060653Z AUTO 31007KT 10SM BKN100 OVC120 08/05 A2979 RMK AO2 SLP105 T00830050,M
LOL,2024-02-06 06:53,-118.5701,40.0684,1192.43,39.00,35.00,85.42,190.00,7.00,T,29.76,1007.60,10.00,M,BKN,OVC,M,M,4800.00,7000.00,M,M,M,M,M,M,M,M,M,33.31,KLOL 060653Z AUTO 19007KT 10SM BKN048 OVC070 04/02 A2976 RMK AO2 RAB26E43 SLP076 P0000 T00390017,M
P68,2024-02-06 06:53,-116.0056,39.6014,1993.00,36.00,30.00,78.60,150.00,11.00,0.00,29.76,1005.50,M,M,M,M,M,M,M,M,M,M,M,M,M,M,M,M,M,27.52,KP68 060653Z AUTO 15011KT 02/M01 A2976 RMK AO1 SLP055 T00221011 $,M
BVU,2024-02-06 06:55,-114.8611,35.9475,671.00,48.20,41.00,76.01,320.00,7.00,0.00,29.77,M,10.00,M,FEW,SCT,M,M,8000.00,11000.00,M,M,M,M,M,M,M,M,M,44.53,KBVU 060655Z AUTO 32007KT 10SM FEW080 SCT110 09/05 A2977 RMK AO2,M
CXP,2024-02-06 06:55,-119.7326,39.1923,1431.00,33.80,30.20,86.49,0.00,0.00,0.00,29.75,M,10.00,M,BKN,BKN,OVC,M,4400.00,5000.00,6000.00,M,M,M,M,M,M,M,M,33.80,KCXP 060655Z AUTO 00000KT 10SM BKN044 BKN050 OVC060 01/M01 A2975 RMK AO2,M
INS,2024-02-06 06:55,-115.6733,36.5872,955.00,41.70,38.50,88.31,270.00,6.00,0.00,29.80,1008.30,10.00,M,OVC,M,M,M,1900.00,M,M,M,M,M,M,M,M,M,M,37.21,KINS 060655Z AUTO 27006KT 10SM OVC019 05/04 A2980 RMK AO2 SLP083 T00540036,M
RNO,2024-02-06 06:55,-119.7711,39.4839,1341.00,38.00,30.00,72.64,300.00,4.00,0.00,29.74,1006.40,10.00,M,BKN,M,M,M,9000.00,M,M,M,M,M,M,M,M,M,M,34.43,KRNO 060655Z 30004KT 10SM BKN090 03/M01 A2974 RMK AO2 SLP064 T00331011 $,M
RTS,2024-02-06 06:55,-119.8764,39.6682,1539.00,32.00,28.40,86.39,360.00,4.00,0.00,29.75,M,10.00,M,FEW,BKN,M,M,9500.00,12000.00,M,M,M,M,M,M,M,M,M,27.42,KRTS 060655Z AUTO 36004KT 10SM FEW095 BKN120 M00/M02 A2975 RMK AO2,M
05U,2024-02-06 06:55,-116.0051,39.6042,1811.23,35.60,30.20,80.51,310.00,10.00,0.00,29.78,M,10.00,M,M,M,M,M,M,M,M,M,M,M,M,M,M,M,M,27.48,K05U 060655Z AUTO 31010KT 10SM 02/M01 A2978 RMK A01,M
MEV,2024-02-06 06:55,-119.7500,38.9963,1441.42,33.80,32.00,93.03,220.00,4.00,0.00,29.75,M,10.00,M,SCT,BKN,OVC,M,3900.00,4600.00,5500.00,M,M,M,M,M,M,M,M,29.52,KMEV 060655Z AUTO 22004KT 10SM SCT039 BKN046 OVC055 01/M00 A2975 RMK AO2,M
BAM,2024-02-06 06:55,-116.8743,40.5990,1382.36,39.20,35.60,86.79,70.00,6.00,0.00,29.77,M,10.00,M,SCT,M,M,M,7000.00,M,M,M,M,M,M,M,M,M,M,34.20,KBAM 060655Z AUTO 07006KT 10SM SCT070 04/02 A2977 RMK AO1,M
HTH,2024-02-06 06:55,-118.6315,38.5448,1282.89,42.80,33.80,70.28,140.00,11.00,0.00,29.72,M,10.00,M,FEW,SCT,OVC,M,4000.00,4900.00,6000.00,M,M,M,M,M,M,M,M,36.11,KHTH 060655Z AUTO 14011KT 10SM FEW040 SCT049 OVC060 06/01 A2972 RMK A01,M
LSV,2024-02-06 06:55,-115.0343,36.2362,570.00,48.40,42.80,80.87,0.00,0.00,0.00,29.77,1007.90,10.00,M,CLR,M,M,M,M,M,M,M,M,M,M,M,M,M,M,48.40,KLSV 060655Z AUTO 00000KT 10SM CLR 09/06 A2977 RMK AO2 SLP079 T00910060 $,M
TMT,2024-02-06 06:55,-117.1971,39.4643,1749.34,32.00,31.00,96.04,280.00,5.00,0.00,29.76,M,10.00,M,BKN,BKN,M,M,10000.00,12000.00,M,M,M,M,M,M,M,M,M,26.40,KTMT 060655Z AUTO 28005KT 10SM BKN100 BKN120 00/M01 A2976 RMK AO2 T00001006,M
EKO,2024-02-06 06:56,-115.7860,40.8242,1367.00,39.00,33.00,78.86,M,3.00,0.00,29.79,1008.20,10.00,M,BKN,OVC,M,M,3700.00,4600.00,M,M,M,M,M,M,M,M,M,36.69,KEKO 060656Z AUTO VRB03KT 10SM BKN037 OVC046 04/01 A2979 RMK AO2 SLP082 T00390006 $,M
NFL,2024-02-06 06:56,-118.7010,39.4166,1199.00,41.00,34.00,75.94,50.00,6.00,0.00,29.73,1004.80,10.00,M,SCT,BKN,OVC,M,3000.00,5000.00,10000.00,M,M,M,M,M,M,M,M,36.37,KNFL 060656Z 05006KT 10SM SCT030 BKN050 OVC100 05/01 A2973 RMK AO2 SLP048 T00500011,M
HND,2024-02-06 06:56,-115.1344,35.9729,742.79,45.00,43.00,92.65,0.00,0.00,0.00,29.80,1011.10,10.00,M,BKN,M,M,M,11000.00,M,M,M,M,M,M,M,M,M,M,45.00,KHND 060656Z AUTO 00000KT 10SM BKN110 07/06 A2980 RMK AO2 SLP111 T00720061 401170072,M
TPH,2024-02-06 06:56,-117.0904,38.0505,1654.00,33.00,32.00,96.06,130.00,9.00,0.04,29.78,1007.90,1.50,M,SCT,OVC,M,M,400.00,700.00,M,M,-SN BR,M,M,M,M,M,M,24.76,KTPH 060656Z AUTO 13009KT 1 1/2SM -SN BR SCT004 OVC007 01/00 A2978 RMK AO2 SLP079 P0004 T00060000,M
LAS,2024-02-06 06:56,-115.1634,36.0719,663.00,46.00,43.00,89.20,0.00,0.00,0.00,29.78,1008.50,10.00,M,FEW,OVC,M,M,4500.00,10000.00,M,M,M,M,M,M,M,M,M,46.00,KLAS 060656Z 00000KT 10SM FEW045 OVC100 08/06 A2978 RMK AO2 SLP085 T00780061,M
WMC,2024-02-06 06:56,-117.8072,40.9019,1315.00,35.00,28.00,75.36,70.00,4.00,0.00,29.71,1005.80,10.00,M,CLR,M,M,M,M,M,M,M,M,M,M,M,M,M,M,30.92,KWMC 060656Z AUTO 07004KT 10SM CLR 02/M02 A2971 RMK AO2 SLP058 T00171022,M
TPH,2024-02-06 07:08,-117.0904,38.0505,1654.00,33.00,32.00,96.06,120.00,9.00,T,29.77,M,2.50,M,SCT,OVC,M,M,400.00,900.00,M,M,-SN BR,M,M,M,M,M,M,24.76,KTPH 060708Z AUTO 12009KT 2 1/2SM -SN BR SCT004 OVC009 01/00 A2977 RMK AO2 P0000 T00060000,M
BVU,2024-02-06 07:15,-114.8611,35.9475,671.00,48.20,41.00,76.01,320.00,6.00,0.00,29.76,M,10.00,M,SCT,M,M,M,11000.00,M,M,M,M,M,M,M,M,M,M,45.04,KBVU 060715Z AUTO 32006KT 10SM SCT110 09/05 A2976 RMK AO2,M
CXP,2024-02-06 07:15,-119.7326,39.1923,1431.00,33.80,30.20,86.49,0.00,0.00,0.00,29.76,M,10.00,M,OVC,M,M,M,4600.00,M,M,M,M,M,M,M,M,M,M,33.80,KCXP 060715Z AUTO 00000KT 10SM OVC046 01/M01 A2976 RMK AO2,M
RTS,2024-02-06 07:15,-119.8764,39.6682,1539.00,30.20,26.60,86.28,330.00,4.00,0.00,29.75,M,10.00,M,FEW,BKN,OVC,M,7000.00,9500.00,12000.00,M,M,M,M,M,M,M,M,25.32,KRTS 060715Z AUTO 33004KT 10SM FEW070 BKN095 OVC120 M01/M03 A2975 RMK AO2,M
05U,2024-02-06 07:15,-116.0051,39.6042,1811.23,35.60,30.20,80.51,310.00,12.00,0.00,29.79,M,10.00,M,M,M,M,M,M,M,M,M,M,M,M,M,M,M,M,26.58,K05U 060715Z AUTO 31012KT 10SM 02/M01 A2979 RMK A01,M
MEV,2024-02-06 07:15,-119.7500,38.9963,1441.42,33.80,32.00,93.03,220.00,3.00,0.00,29.74,M,10.00,M,SCT,BKN,OVC,M,3400.00,4000.00,4800.00,M,M,M,M,M,M,M,M,30.75,KMEV 060715Z AUTO 22003KT 10SM SCT034 BKN040 OVC048 01/M00 A2974 RMK AO2,M
BAM,2024-02-06 07:15,-116.8743,40.5990,1382.36,39.20,35.60,86.79,50.00,12.00,0.00,29.72,M,10.00,M,CLR,M,M,M,M,M,M,M,M,M,M,M,M,M,M,31.17,KBAM 060715Z AUTO 05012KT 10SM CLR 04/02 A2972 RMK AO1,M
HTH,2024-02-06 07:15,-118.6315,38.5448,1282.89,42.80,33.80,70.28,140.00,13.00,0.00,29.72,M,10.00,18.00,FEW,BKN,OVC,M,3600.00,4300.00,5000.00,M,M,M,M,M,M,M,M,35.40,KHTH 060715Z AUTO 14013G18KT 10SM FEW036 BKN043 OVC050 06/01 A2972 RMK A01,M
TMT,2024-02-06 07:15,-117.1971,39.4643,1749.34,32.00,31.00,96.04,320.00,4.00,0.00,29.75,M,10.00,M,BKN,OVC,M,M,7000.00,10000.00,M,M,M,M,M,M,M,M,M,27.42,KTMT 060715Z AUTO 32004KT 10SM BKN070 OVC100 00/00 A2975 RMK AO2 T00001005,M
TPH,2024-02-06 07:16,-117.0904,38.0505,1654.00,33.00,32.00,96.06,120.00,7.00,T,29.76,M,4.00,M,SCT,OVC,M,M,500.00,900.00,M,M,-SN BR,M,M,M,M,M,M,26.00,KTPH 060716Z AUTO 12007KT 4SM -SN BR SCT005 OVC009 01/00 A2976 RMK AO2 P0000 T00060000,M
DRA,2024-02-06 07:19,-116.0278,36.6206,1009.00,39.00,37.00,92.45,50.00,6.00,0.02,29.81,M,8.00,M,OVC,M,M,M,2900.00,M,M,M,-RA,M,M,M,M,M,M,33.96,KDRA 060719Z AUTO 05006KT 8SM -RA OVC029 04/03 A2981 RMK AO2 P0002 T00390028,M
NFL,2024-02-06 07:21,-118.7010,39.4166,1199.00,40.00,35.00,82.15,70.00,8.00,0.03,29.73,M,2.50,M,BKN,OVC,M,M,1800.00,3400.00,M,M,+RA,M,M,M,M,M,M,33.97,KNFL 060721Z AUTO 07008KT 2 1/2SM +RA BKN018 OVC034 04/02 A2973 RMK AO2 RAB14 P0003 T00440017,M
TPH,2024-02-06 07:29,-117.0904,38.0505,1654.00,33.00,32.00,96.06,120.00,5.00,T,29.76,M,6.00,M,OVC,M,M,M,1100.00,M,M,M,-SN BR,M,M,M,M,M,M,27.58,KTPH 060729Z AUTO 12005KT 6SM -SN BR OVC011 01/00 A2976 RMK AO2 P0000 T00060000,M
BVU,2024-02-06 07:35,-114.8611,35.9475,671.00,48.20,41.00,76.01,290.00,5.00,0.00,29.77,M,10.00,M,BKN,M,M,M,11000.00,M,M,M,M,M,M,M,M,M,M,45.63,KBVU 060735Z AUTO 29005KT 10SM BKN110 09/05 A2977 RMK AO2,M
CXP,2024-02-06 07:35,-119.7326,39.1923,1431.00,35.60,30.20,80.51,0.00,0.00,0.00,29.75,M,10.00,M,SCT,OVC,M,M,3600.00,4500.00,M,M,M,M,M,M,M,M,M,35.60,KCXP 060735Z AUTO 00000KT 10SM SCT036 OVC045 02/M01 A2975 RMK AO2,M
RTS,2024-02-06 07:35,-119.8764,39.6682,1539.00,28.40,26.60,92.86,350.00,3.00,0.00,29.74,M,10.00,M,FEW,FEW,OVC,M,6500.00,7500.00,9000.00,M,M,M,M,M,M,M,M,24.57,KRTS 060735Z AUTO 35003KT 10SM FEW065 FEW075 OVC090 M02/M03 A2974 RMK AO2,M
05U,2024-02-06 07:35,-116.0051,39.6042,1811.23,35.60,30.20,80.51,300.00,9.00,0.00,29.78,M,10.00,M,M,M,M,M,M,M,M,M,M,M,M,M,M,M,M,27.99,K05U 060735Z AUTO 30009KT 10SM 02/M01 A2978 RMK A01,M
MEV,2024-02-06 07:35,-119.7500,38.9963,1441.42,33.80,32.00,93.03,170.00,4.00,0.00,29.74,M,10.00,M,BKN,OVC,M,M,2500.00,3200.00,M,M,UP,M,M,M,M,M,M,29.52,KMEV 060735Z AUTO 17004KT 10SM UP BKN025 OVC032 01/M00 A2974 RMK AO2,M
BAM,2024-02-06 07:35,-116.8743,40.5990,1382.36,39.20,35.60,86.79,70.00,8.00,0.00,29.75,M,10.00,M,SCT,M,M,M,9500.00,M,M,M,M,M,M,M,M,M,M,32.98,KBAM 060735Z AUTO 07008KT 10SM SCT095 04/02 A2975 RMK AO1,M
HTH,2024-02-06 07:35,-118.6315,38.5448,1282.89,42.80,33.80,70.28,140.00,9.00,0.00,29.72,M,10.00,M,SCT,OVC,M,M,3600.00,4500.00,M,M,M,M,M,M,M,M,M,36.94,KHTH 060735Z AUTO 14009KT 10SM SCT036 OVC045 06/01 A2972 RMK A01,M
TMT,2024-02-06 07:35,-117.1971,39.4643,1749.34,32.00,31.00,96.04,0.00,0.00,0.00,29.74,M,10.00,M,SCT,BKN,OVC,M,4600.00,5500.00,7500.00,M,M,M,M,M,M,M,M,32.00,KTMT 060735Z AUTO 00000KT 10SM SCT046 BKN055 OVC075 00/00 A2974 RMK AO2 T00001005,M
NFL,2024-02-06 07:39,-118.7010,39.4166,1199.00,39.00,35.00,85.42,60.00,7.00,0.08,29.74,M,3.00,M,OVC,M,M,M,1800.00,M,M,M,RA BR,M,M,M,M,M,M,33.31,KNFL 060739Z AUTO 06007KT 3SM RA BR OVC018 04/02 A2974 RMK AO2 RAB14 P0008 T00390017,M
DRA,2024-02-06 07:53,-116.0278,36.6206,1009.00,40.00,38.00,92.49,10.00,6.00,0.07,29.81,1008.40,8.00,M,OVC,M,M,M,2900.00,M,M,M,-RA,M,M,M,M,M,M,35.17,KDRA 060753Z AUTO 01006KT 8SM -RA OVC029 04/03 A2981 RMK AO2 SLP084 P0007 T00440033 401000039,M
ELY,2024-02-06 07:53,-114.8453,39.2950,1909.00,32.00,30.00,92.22,200.00,10.00,T,29.80,1008.10,5.00,M,BKN,OVC,M,M,3800.00,9000.00,M,M,-SN BR,M,M,M,M,M,M,22.97,KELY 060753Z AUTO 20010KT 5SM -SN BR BKN038 OVC090 00/M01 A2980 RMK AO2 SNB42 SLP081 P0000 T00001011 400280000,M
VGT,2024-02-06 07:53,-115.1933,36.2111,667.00,47.00,41.00,79.52,310.00,6.00,0.00,29.78,1010.20,10.00,M,OVC,M,M,M,10000.00,M,M,M,M,M,M,M,M,M,M,43.60,KVGT 060753Z AUTO 31006KT 10SM OVC100 08/05 A2978 RMK AO2 SLP102 T00830050 401060083,M
LOL,2024-02-06 07:53,-118.5701,40.0684,1192.43,37.00,34.00,88.78,330.00,6.00,T,29.73,1006.50,10.00,M,SCT,SCT,M,M,3800.00,8000.00,M,M,M,M,M,M,M,M,M,31.55,KLOL 060753Z AUTO 33006KT 10SM SCT038 SCT080 03/01 A2973 RMK AO2 RAB03E51 SLP065 P0000 T00280011 401170000,M
P68,2024-02-06 07:53,-116.0056,39.6014,1993.00,36.00,30.00,78.60,150.00,6.00,0.00,29.75,1005.30,M,M,M,M,M,M,M,M,M,M,M,M,M,M,M,M,M,30.35,KP68 060753Z AUTO 15006KT 02/M01 A2975 RMK AO1 SLP053 T00221011 400720011 $,M
BVU,2024-02-06 07:55,-114.8611,35.9475,671.00,48.20,41.00,76.01,290.00,10.00,0.00,29.78,M,10.00,M,FEW,M,M,M,12000.00,M,M,M,M,M,M,M,M,M,M,43.28,KBVU 060755Z AUTO 29010KT 10SM FEW120 09/05 A2978 RMK AO2,M
CXP,2024-02-06 07:55,-119.7326,39.1923,1431.00,35.60,30.20,80.51,0.00,0.00,0.00,29.75,M,10.00,M,FEW,BKN,OVC,M,2900.00,3700.00,5500.00,M,M,M,M,M,M,M,M,35.60,KCXP 060755Z AUTO 00000KT 10SM FEW029 BKN037 OVC055 02/M01 A2975 RMK AO2,M
INS,2024-02-06 07:55,-115.6733,36.5872,955.00,42.00,37.80,84.93,250.00,9.00,0.00,29.81,1008.40,10.00,M,OVC,M,M,M,2300.00,M,M,M,M,M,M,M,M,M,M,35.95,KINS 060755Z AUTO 25009KT 10SM OVC023 06/03 A2981 RMK AO2 SLP084 T00550032 400930051,M
RNO,2024-02-06 07:55,-119.7711,39.4839,1341.00,37.00,30.00,75.56,0.00,0.00,0.00,29.73,1006.10,10.00,M,OVC,M,M,M,9000.00,M,M,M,M,M,M,M,M,M,M,37.00,KRNO 060755Z 00000KT 10SM OVC090 03/M01 A2973 RMK AO2 SLP061 T00281011 400830017 $,M
RTS,2024-02-06 07:55,-119.8764,39.6682,1539.00,28.40,26.60,92.86,0.00,0.00,0.00,29.73,M,10.00,M,FEW,BKN,OVC,M,6000.00,8000.00,9000.00,M,M,M,M,M,M,M,M,28.40,KRTS 060755Z AUTO 00000KT 10SM FEW060 BKN080 OVC090 M02/M03 A2973 RMK AO2,M
05U,2024-02-06 07:55,-116.0051,39.6042,1811.23,35.60,30.20,80.51,300.00,7.00,0.00,29.78,M,10.00,M,M,M,M,M,M,M,M,M,M,M,M,M,M,M,M,29.17,K05U 060755Z AUTO 30007KT 10SM 02/M01 A2978 RMK A01,M
MEV,2024-02-06 07:55,-119.7500,38.9963,1441.42,33.80,32.00,93.03,240.00,5.00,0.00,29.74,M,10.00,M,BKN,OVC,M,M,2800.00,3500.00,M,M,M,M,M,M,M,M,M,28.53,KMEV 060755Z AUTO 24005KT 10SM BKN028 OVC035 01/M00 A2974 RMK AO2,M
BAM,2024-02-06 07:55,-116.8743,40.5990,1382.36,39.20,35.60,86.79,70.00,7.00,0.00,29.76,M,10.00,M,BKN,M,M,M,9500.00,M,M,M,M,M,M,M,M,M,M,33.56,KBAM 060755Z AUTO 07007KT 10SM BKN095 04/02 A2976 RMK AO1,M
HTH,2024-02-06 07:55,-118.6315,38.5448,1282.89,42.80,33.80,70.28,140.00,8.00,0.00,29.72,M,10.00,M,SCT,BKN,OVC,M,2600.00,3200.00,4400.00,M,M,M,M,M,M,M,M,37.42,KHTH 060755Z AUTO 14008KT 10SM SCT026 BKN032 OVC044 06/01 A2972 RMK A01,M
LSV,2024-02-06 07:55,-115.0343,36.2362,570.00,47.00,43.30,86.88,250.00,5.00,0.00,29.76,1007.60,10.00,M,FEW,M,M,M,12000.00,M,M,M,M,M,M,M,M,M,M,44.21,KLSV 060755Z AUTO 25005KT 10SM FEW120 08/06 A2976 RMK AO2 SLP076 T00830063 401100083 $,M
TMT,2024-02-06 07:55,-117.1971,39.4643,1749.34,32.00,31.00,96.04,0.00,0.00,0.00,29.74,M,10.00,M,SCT,BKN,OVC,M,4600.00,5500.00,7500.00,M,M,M,M,M,M,M,M,32.00,KTMT 060755Z AUTO 00000KT 10SM SCT046 BKN055 OVC075 00/00 A2974 RMK AO2 T00001005 400931010,M
EKO,2024-02-06 07:56,-115.7860,40.8242,1367.00,39.00,33.00,78.86,200.00,10.00,0.00,29.77,1007.40,10.00,M,OVC,M,M,M,7000.00,M,M,M,M,M,M,M,M,M,M,31.75,KEKO 060756Z AUTO 20010KT 10SM OVC070 04/01 A2977 RMK AO2 SLP074 T00390006 401060022 $,M
NFL,2024-02-06 07:56,-118.7010,39.4166,1199.00,39.00,35.00,85.42,50.00,8.00,0.10,29.73,1004.90,5.00,M,OVC,M,M,M,2400.00,M,M,M,-RA BR,M,M,M,M,M,M,32.74,KNFL 060756Z AUTO 05008KT 5SM -RA BR OVC024 04/02 A2973 RMK AO2 RAB14 SLP049 P0010 T00390017 401330011,M
HND,2024-02-06 07:56,-115.1344,35.9729,742.79,45.00,43.00,92.65,190.00,3.00,0.00,29.81,1011.30,10.00,M,BKN,M,M,M,11000.00,M,M,M,M,M,M,M,M,M,M,43.55,KHND 060756Z AUTO 19003KT 10SM BKN110 07/06 A2981 RMK AO2 SLP113 T00720061,M
TPH,2024-02-06 07:56,-117.0904,38.0505,1654.00,33.00,32.00,96.06,110.00,8.00,T,29.73,1006.00,10.00,M,OVC,M,M,M,1300.00,M,M,M,M,M,M,M,M,M,M,25.34,KTPH 060756Z AUTO 11008KT 10SM OVC013 01/00 A2973 RMK AO2 UPB39E47SNE39 SLP060 P0000 T00060000 400670006,M
LAS,2024-02-06 07:56,-115.1634,36.0719,663.00,46.00,44.00,92.68,220.00,3.00,0.00,29.78,1008.40,10.00,M,FEW,OVC,M,M,4500.00,11000.00,M,M,M,M,M,M,M,M,M,44.69,KLAS 060756Z 22003KT 10SM FEW045 OVC110 08/07 A2978 RMK AO2 SLP084 T00780067 400940078,M
WMC,2024-02-06 07:56,-117.8072,40.9019,1315.00,38.00,30.00,72.64,50.00,8.00,0.00,29.73,1005.90,10.00,M,FEW,M,M,M,12000.00,M,M,M,M,M,M,M,M,M,M,31.50,KWMC 060756Z AUTO 05008KT 10SM FEW120 03/M01 A2973 RMK AO2 SLP059 T00331011 401220006,M
DRA,2024-02-06 08:00,-116.0278,36.6206,1009.00,39.00,38.00,96.16,40.00,8.00,0.01,29.81,M,8.00,M,FEW,OVC,M,M,2700.00,3100.00,M,M,-RA,M,M,M,M,M,M,32.74,KDRA 060800Z AUTO 04008KT 8SM -RA FEW027 OVC031 04/03 A2981 RMK AO2 P0001 T00390033,M
INS,2024-02-06 08:02,-115.6733,36.5872,955.00,42.80,37.40,81.07,250.00,9.00,0.00,29.81,1008.40,10.00,M,BKN,OVC,M,M,2600.00,3200.00,M,M,-RA,M,M,M,M,M,M,36.94,KINS 060802Z AUTO 25009KT 10SM -RA BKN026 OVC032 06/03 A2981 RMK AO2 RAB02 SLP084,M
TPH,2024-02-06 08:07,-117.0904,38.0505,1654.00,33.00,32.00,96.06,110.00,10.00,0.00,29.72,M,10.00,M,OVC,M,M,M,1500.00,M,M,M,M,M,M,M,M,M,M,24.22,KTPH 060807Z AUTO 11010KT 10SM OVC015 01/00 A2972 RMK AO2 T00060000,M
INS,2024-02-06 08:12,-115.6733,36.5872,955.00,41.00,37.40,86.89,250.00,10.00,0.00,29.81,1008.60,10.00,M,OVC,M,M,M,2900.00,M,M,M,-RA,M,M,M,M,M,M,34.25,KINS 060812Z AUTO 25010KT 10SM -RA OVC029 05/03 A2981 RMK AO2 RAB02 SLP086,M
BVU,2024-02-06 08:15,-114.8611,35.9475,671.00,46.40,41.00,81.34,300.00,6.00,0.00,29.78,M,10.00,M,CLR,M,M,M,M,M,M,M,M,M,M,M,M,M,M,42.87,KBVU 060815Z AUTO 30006KT 10SM CLR 08/05 A2978 RMK AO2,M
CXP,2024-02-06 08:15,-119.7326,39.1923,1431.00,33.80,30.20,86.49,0.00,0.00,0.00,29.74,M,10.00,M,BKN,OVC,M,M,4200.00,4800.00,M,M,M,M,M,M,M,M,M,33.80,KCXP 060815Z AUTO 00000KT 10SM BKN042 OVC048 01/M01 A2974 RMK AO2,M
RTS,2024-02-06 08:15,-119.8764,39.6682,1539.00,28.40,26.60,92.86,260.00,5.00,0.00,29.73,M,10.00,M,BKN,OVC,M,M,8000.00,9000.00,M,M,M,M,M,M,M,M,M,22.12,KRTS 060815Z AUTO 26005KT 10SM BKN080 OVC090 M02/M03 A2973 RMK AO2,M
05U,2024-02-06 08:15,-116.0051,39.6042,1811.23,35.60,30.20,80.51,300.00,4.00,0.00,29.78,M,10.00,M,M,M,M,M,M,M,M,M,M,M,M,M,M,M,M,31.62,K05U 060815Z AUTO 30004KT 10SM 02/M01 A2978 RMK A01,M
MEV,2024-02-06 08:15,-119.7500,38.9963,1441.42,33.80,32.00,93.03,170.00,3.00,0.00,29.74,M,10.00,M,BKN,OVC,M,M,2800.00,3500.00,M,M,UP,M,M,M,M,M,M,30.75,KMEV 060815Z AUTO 17003KT 10SM UP BKN028 OVC035 01/M00 A2974 RMK AO2,M
BAM,2024-02-06 08:15,-116.8743,40.5990,1382.36,41.00,35.60,80.93,100.00,7.00,0.00,29.74,M,10.00,M,OVC,M,M,M,8500.00,M,M,M,M,M,M,M,M,M,M,35.75,KBAM 060815Z AUTO 10007KT 10SM OVC085 05/02 A2974 RMK AO1,M
HTH,2024-02-06 08:15,-118.6315,38.5448,1282.89,41.00,35.60,80.93,150.00,3.00,0.00,29.69,M,10.00,M,FEW,BKN,OVC,M,2600.00,3300.00,4800.00,M,M,M,M,M,M,M,M,38.98,KHTH 060815Z AUTO 15003KT 10SM FEW026 BKN033 OVC048 05/02 A2969 RMK A01,M
TMT,2024-02-06 08:15,-117.1971,39.4643,1749.34,32.50,31.60,96.44,0.00,0.00,0.00,29.74,M,10.00,M,BKN,OVC,M,M,4600.00,5500.00,M,M,M,M,M,M,M,M,M,32.50,KTMT 060815Z AUTO 00000KT 10SM BKN046 OVC055 00/00 A2974 RMK AO2 T00031002,M
INS,2024-02-06 08:27,-115.6733,36.5872,955.00,41.00,39.20,93.24,250.00,9.00,0.00,29.83,1009.30,10.00,M,SCT,BKN,OVC,M,2400.00,3000.00,5500.00,M,-RA,M,M,M,M,M,M,34.70,KINS 060827Z AUTO 25009KT 10SM -RA SCT024 BKN030 OVC055 05/04 A2983 RMK AO2 RAB02 PRESRR SLP093,M
CXP,2024-02-06 08:30,-119.7326,39.1923,1431.00,33.80,30.20,86.49,230.00,4.00,0.00,29.74,M,10.00,M,SCT,BKN,OVC,M,4200.00,6000.00,7500.00,M,M,M,M,M,M,M,M,29.52,KCXP 060830Z AUTO 23004KT 10SM SCT042 BKN060 OVC075 01/M01 A2974 RMK AO2,M
05U,2024-02-06 08:30,-116.0051,39.6042,1811.23,37.40,30.20,74.98,300.00,10.00,0.00,29.78,M,10.00,M,M,M,M,M,M,M,M,M,M,M,M,M,M,M,M,29.74,K05U 060830Z AUTO 30010KT 10SM 03/M01 A2978 RMK A01,M
HTH,2024-02-06 08:30,-118.6315,38.5448,1282.89,41.00,35.60,80.93,0.00,0.00,0.00,29.71,M,10.00,M,OVC,M,M,M,3500.00,M,M,M,M,M,M,M,M,M,M,41.00,KHTH 060830Z AUTO 00000KT 10SM OVC035 05/02 A2971 RMK A01,M
BVU,2024-02-06 08:35,-114.8611,35.9475,671.00,46.40,41.00,81.34,0.00,0.00,0.00,29.78,M,10.00,M,CLR,M,M,M,M,M,M,M,M,M,M,M,M,M,M,46.40,KBVU 060835Z AUTO 00000KT 10SM CLR 08/05 A2978 RMK AO2,M
RTS,2024-02-06 08:35,-119.8764,39.6682,1539.00,28.40,26.60,92.86,330.00,5.00,0.00,29.73,M,10.00,M,OVC,M,M,M,7500.00,M,M,M,M,M,M,M,M,M,M,22.12,KRTS 060835Z AUTO 33005KT 10SM OVC075 M02/M03 A2973 RMK AO2,M
MEV,2024-02-06 08:35,-119.7500,38.9963,1441.42,33.80,32.00,93.03,130.00,4.00,0.00,29.73,M,10.00,M,BKN,BKN,OVC,M,3000.00,3600.00,4300.00,M,UP,M,M,M,M,M,M,29.52,KMEV 060835Z AUTO 13004KT 10SM UP BKN030 BKN036 OVC043 01/M00 A2973 RMK AO2,M
BAM,2024-02-06 08:35,-116.8743,40.5990,1382.36,39.20,33.80,80.79,130.00,7.00,0.00,29.74,M,10.00,M,OVC,M,M,M,7500.00,M,M,M,M,M,M,M,M,M,M,33.56,KBAM 060835Z AUTO 13007KT 10SM OVC075 04/01 A2974 RMK AO1,M
TMT,2024-02-06 08:35,-117.1971,39.4643,1749.34,33.00,32.00,96.06,350.00,3.00,0.00,29.73,M,10.00,M,OVC,M,M,M,4400.00,M,M,M,M,M,M,M,M,M,M,29.83,KTMT 060835Z AUTO 35003KT 10SM OVC044 01/00 A2973 RMK AO2 T00051001,M
INS,2024-02-06 08:47,-115.6733,36.5872,955.00,42.80,39.20,86.99,260.00,8.00,0.00,29.82,1008.70,10.00,M,FEW,SCT,BKN,BKN,500.00,1100.00,2000.00,3400.00,-RA,M,M,M,M,M,M,37.42,KINS 060847Z AUTO 26008KT 10SM -RA FEW005 SCT011 BKN020 BKN034 BKN044 OVC055 06/04 A2982 RMK AO2 RAB02E35DZB35E40RAB40 SLP087,M
05U,2024-02-06 08:50,-116.0051,39.6042,1811.23,37.40,30.20,74.98,300.00,7.00,0.00,29.76,M,10.00,M,M,M,M,M,M,M,M,M,M,M,M,M,M,M,M,31.36,K05U 060850Z AUTO 30007KT 10SM 03/M01 A2976 RMK A01,M
CXP,2024-02-06 08:50,-119.7326,39.1923,1431.00,35.60,30.20,80.51,180.00,3.00,0.00,29.74,M,10.00,M,OVC,M,M,M,7000.00,M,M,M,M,M,M,M,M,M,M,32.80,KCXP 060850Z AUTO 18003KT 10SM OVC070 02/M01 A2974 RMK AO2,M
HTH,2024-02-06 08:50,-118.6315,38.5448,1282.89,41.00,35.60,80.93,0.00,0.00,0.00,29.72,M,9.00,M,SCT,BKN,OVC,M,2200.00,3000.00,3500.00,M,M,M,M,M,M,M,M,41.00,KHTH 060850Z AUTO 00000KT 9SM SCT022 BKN030 OVC035 05/02 A2972 RMK A01,M
DRA,2024-02-06 08:53,-116.0278,36.6206,1009.00,40.00,37.00,88.92,30.00,7.00,0.05,29.80,1007.90,10.00,M,OVC,M,M,M,3700.00,M,M,M,-RA,M,M,M,M,M,M,34.53,KDRA 060853Z AUTO 03007KT 10SM -RA OVC037 04/03 A2980 RMK AO2 SLP079 P0005 60017 T00440028 58005,M
ELY,2024-02-06 08:53,-114.8453,39.2950,1909.00,32.00,30.00,92.22,210.00,9.00,0.01,29.78,1007.50,2.50,M,OVC,M,M,M,2800.00,M,M,M,-SN BR,M,M,M,M,M,M,23.51,KELY 060853Z AUTO 21009KT 2 1/2SM -SN BR OVC028 00/M01 A2978 RMK AO2 SLP075 P0001 60001 T00001011 56017,M
VGT,2024-02-06 08:53,-115.1933,36.2111,667.00,47.00,40.00,76.49,330.00,10.00,0.00,29.78,1010.20,10.00,M,CLR,M,M,M,M,M,M,M,M,M,M,M,M,M,M,41.78,KVGT 060853Z AUTO 33010KT 10SM CLR 08/04 A2978 RMK AO2 SLP102 T00830044 56011,M
LOL,2024-02-06 08:53,-118.5701,40.0684,1192.43,37.00,34.00,88.78,130.00,5.00,T,29.72,1006.30,10.00,M,SCT,BKN,OVC,M,3100.00,3900.00,6000.00,M,-RA,M,M,M,M,M,M,32.33,KLOL 060853Z AUTO 13005KT 10SM -RA SCT031 BKN039 OVC060 03/01 A2972 RMK AO2 RAB52 SLP063 P0000 60000 T00280011 50001,M
P68,2024-02-06 08:53,-116.0056,39.6014,1993.00,36.00,30.00,78.60,130.00,7.00,0.00,29.73,1004.30,M,M,M,M,M,M,M,M,M,M,M,M,M,M,M,M,M,29.65,KP68 060853Z AUTO 13007KT 02/M01 A2973 RMK AO1 SLP043 T00221011 56015 $,M
EKO,2024-02-06 08:54,-115.7860,40.8242,1367.00,39.20,33.80,80.79,0.00,0.00,M,29.77,M,10.00,M,BKN,OVC,M,M,2900.00,3398.00,M,M,-RA,M,M,M,M,M,M,39.20,SPECI KEKO 060854Z 00000KT 10SM -RA BKN029 OVC034 04/01 A2977 RMK AO2 RAB43 P0000 $ FIBI,M
INS,2024-02-06 08:55,-115.6733,36.5872,955.00,41.50,38.00,87.26,290.00,3.00,T,29.81,1008.60,10.00,M,FEW,SCT,SCT,BKN,500.00,1100.00,1800.00,2500.00,-RA,M,M,M,M,M,M,39.55,KINS 060855Z AUTO 29003KT 10SM -RA FEW005 SCT011 SCT018 BKN025 BKN034 OVC055 05/03 A2981 RMK AO2 RAB02E35DZB35E40RAB40 SLP086 P0000 60000 T00530033 53001,M
BVU,2024-02-06 08:55,-114.8611,35.9475,671.00,46.40,41.00,81.34,340.00,6.00,0.00,29.77,M,10.00,M,CLR,M,M,M,M,M,M,M,M,M,M,M,M,M,M,42.87,KBVU 060855Z AUTO 34006KT 10SM CLR 08/05 A2977 RMK AO2,M
RNO,2024-02-06 08:55,-119.7711,39.4839,1341.00,37.00,30.00,75.56,0.00,0.00,0.00,29.72,1005.50,10.00,M,OVC,M,M,M,9000.00,M,M,M,M,M,M,M,M,M,M,37.00,KRNO 060855Z 00000KT 10SM OVC090 03/M01 A2972 RMK AO2 SLP055 T00281011 58008 $,M
RTS,2024-02-06 08:55,-119.8764,39.6682,1539.00,30.20,28.40,92.92,330.00,4.00,0.00,29.72,M,10.00,M,FEW,BKN,OVC,M,6000.00,8000.00,9000.00,M,M,M,M,M,M,M,M,25.32,KRTS 060855Z AUTO 33004KT 10SM FEW060 BKN080 OVC090 M01/M02 A2972 RMK AO2,M
MEV,2024-02-06 08:55,-119.7500,38.9963,1441.42,33.80,32.00,93.03,130.00,3.00,0.00,29.73,M,10.00,M,SCT,BKN,OVC,M,3200.00,3800.00,4400.00,M,UP,M,M,M,M,M,M,30.75,KMEV 060855Z AUTO 13003KT 10SM UP SCT032 BKN038 OVC044 01/M00 A2973 RMK AO2,M
BAM,2024-02-06 08:55,-116.8743,40.5990,1382.36,37.40,35.60,93.14,90.00,5.00,0.00,29.75,M,10.00,M,OVC,M,M,M,7500.00,M,M,M,M,M,M,M,M,M,M,32.81,KBAM 060855Z AUTO 09005KT 10SM OVC075 03/02 A2975 RMK AO1,M
LSV,2024-02-06 08:55,-115.0343,36.2362,570.00,46.20,42.30,86.17,210.00,4.00,0.00,29.76,1007.60,10.00,M,FEW,M,M,M,13000.00,M,M,M,M,M,M,M,M,M,M,44.00,KLSV 060855Z AUTO 21004KT 10SM FEW130 08/06 A2976 RMK AO2 SLP076 T00790057 56010 $,M
TMT,2024-02-06 08:55,-117.1971,39.4643,1749.34,32.50,32.00,98.01,20.00,5.00,0.00,29.71,M,10.00,M,SCT,OVC,M,M,3200.00,3900.00,M,M,-RA,M,M,M,M,M,M,26.99,KTMT 060855Z AUTO 02005KT 10SM -RA SCT032 OVC039 00/00 A2971 RMK AO2 T00030000,M
EKO,2024-02-06 08:56,-115.7860,40.8242,1367.00,38.00,33.00,82.00,M,3.00,T,29.77,1007.10,10.00,M,OVC,M,M,M,2900.00,M,M,M,-RA,M,M,M,M,M,M,35.55,KEKO 060856Z AUTO VRB03KT 10SM -RA OVC029 03/01 A2977 RMK AO2 RAB43 SLP071 P0000 60000 T00330006 58002 $,M
NFL,2024-02-06 08:56,-118.7010,39.4166,1199.00,38.00,35.00,88.83,40.00,8.00,0.04,29.72,1004.40,6.00,M,OVC,M,M,M,2200.00,M,M,M,RA BR,M,M,M,M,M,M,31.50,KNFL 060856Z AUTO 04008KT 6SM RA BR OVC022 03/02 A2972 RMK AO2 SLP044 P0004 60014 T00330017 58004,M
HND,2024-02-06 08:56,-115.1344,35.9729,742.79,45.00,42.00,89.15,140.00,3.00,0.00,29.79,1010.50,10.00,M,CLR,M,M,M,M,M,M,M,M,M,M,M,M,M,M,43.55,KHND 060856Z AUTO 14003KT 10SM CLR 07/06 A2979 RMK AO2 SLP105 T00720056 56012,M
TPH,2024-02-06 08:56,-117.0904,38.0505,1654.00,34.00,33.00,96.08,140.00,12.00,0.00,29.73,1006.20,10.00,M,BKN,OVC,M,M,1200.00,1800.00,M,M,M,M,M,M,M,M,M,24.55,KTPH 060856Z AUTO 14012KT 10SM BKN012 OVC018 01/01 A2973 RMK AO2 SLP062 60004 T00110006 55014,M
LAS,2024-02-06 08:56,-115.1634,36.0719,663.00,46.00,45.00,96.28,0.00,0.00,0.00,29.77,1008.10,7.00,M,FEW,BKN,M,M,4500.00,12000.00,M,M,M,M,M,M,M,M,M,46.00,KLAS 060856Z 00000KT 7SM FEW045 BKN120 08/07 A2977 RMK AO2 SLP081 T00780072 56010,M
LOL,2024-02-06 09:06,-118.5701,40.0684,1192.43,37.00,35.00,92.39,120.00,5.00,0.01,29.72,M,6.00,M,BKN,OVC,M,M,2400.00,3800.00,M,M,-RA BR,M,M,M,M,M,M,32.33,KLOL 060906Z AUTO 12005KT 6SM -RA BR BKN024 OVC038 03/02 A2972 RMK AO2 P0001 T00280017,M
ELY,2024-02-06 09:09,-114.8453,39.2950,1909.00,32.00,30.00,92.22,210.00,8.00,T,29.78,M,1.75,M,OVC,M,M,M,2200.00,M,M,M,-SN BR,M,M,M,M,M,M,24.11,KELY 060909Z AUTO 21008KT 1 3/4SM -SN BR OVC022 00/M01 A2978 RMK AO2 P0000 T00001011,M
05U,2024-02-06 09:10,-116.0051,39.6042,1811.23,35.60,30.20,80.51,290.00,7.00,0.00,29.74,M,10.00,M,M,M,M,M,M,M,M,M,M,M,M,M,M,M,M,29.17,K05U 060910Z AUTO 29007KT 10SM 02/M01 A2974 RMK A01,M
INS,2024-02-06 09:11,-115.6733,36.5872,955.00,41.00,37.40,86.89,0.00,0.00,0.00,29.79,1007.90,10.00,M,FEW,FEW,SCT,BKN,800.00,1800.00,3200.00,13000.00,M,M,M,M,M,M,M,41.00,KINS 060911Z AUTO 00000KT 10SM FEW008 FEW018 SCT032 BKN130 OVC150 05/03 A2979 RMK AO2 RAE09DZB09E11 SLP079,M
TPH,2024-02-06 09:13,-117.0904,38.0505,1654.00,34.00,33.00,96.08,150.00,9.00,T,29.72,M,10.00,M,OVC,M,M,M,900.00,M,M,M,UP,M,M,M,M,M,M,26.00,KTPH 060913Z AUTO 15009KT 10SM UP OVC009 01/01 A2972 RMK AO2 UPB08 P0000 T00110006,M
BVU,2024-02-06 09:15,-114.8611,35.9475,671.00,46.40,41.00,81.34,40.00,4.00,0.00,29.76,M,10.00,M,CLR,M,M,M,M,M,M,M,M,M,M,M,M,M,M,44.24,KBVU 060915Z AUTO 04004KT 10SM CLR 08/05 A2976 RMK AO2,M
CXP,2024-02-06 09:15,-119.7326,39.1923,1431.00,35.60,30.20,80.51,170.00,5.00,0.00,29.74,M,10.00,M,BKN,OVC,M,M,6000.00,7000.00,M,M,M,M,M,M,M,M,M,30.67,KCXP 060915Z AUTO 17005KT 10SM BKN060 OVC070 02/M01 A2974 RMK AO2,M
RTS,2024-02-06 09:15,-119.8764,39.6682,1539.00,30.20,28.40,92.92,350.00,3.00,0.00,29.72,M,10.00,M,BKN,BKN,OVC,M,7000.00,7500.00,8500.00,M,M,M,M,M,M,M,M,26.63,KRTS 060915Z AUTO 35003KT 10SM BKN070 BKN075 OVC085 M01/M02 A2972 RMK AO2,M
MEV,2024-02-06 09:15,-119.7500,38.9963,1441.42,32.00,32.00,100.00,120.00,4.00,0.00,29.73,M,10.00,M,FEW,SCT,OVC,M,1000.00,4200.00,5500.00,M,UP,M,M,M,M,M,M,27.42,KMEV 060915Z AUTO 12004KT 10SM UP FEW010 SCT042 OVC055 00/M00 A2973 RMK AO2,M
BAM,2024-02-06 09:15,-116.8743,40.5990,1382.36,37.40,35.60,93.14,0.00,0.00,0.00,29.75,M,10.00,M,SCT,OVC,M,M,5000.00,7500.00,M,M,M,M,M,M,M,M,M,37.40,KBAM 060915Z AUTO 00000KT 10SM SCT050 OVC075 03/02 A2975 RMK AO1,M
HTH,2024-02-06 09:15,-118.6315,38.5448,1282.89,41.00,37.40,86.89,0.00,0.00,0.00,29.71,M,10.00,M,BKN,BKN,OVC,M,2300.00,2900.00,3600.00,M,M,M,M,M,M,M,M,41.00,KHTH 060915Z AUTO 00000KT 10SM BKN023 BKN029 OVC036 05/03 A2971 RMK A01,M
TMT,2024-02-06 09:15,-117.1971,39.4643,1749.34,32.00,32.00,100.00,350.00,3.00,0.00,29.71,M,10.00,M,BKN,OVC,M,M,2700.00,3200.00,M,M,-SN,M,M,M,M,M,M,28.69,KTMT 060915Z AUTO 35003KT 10SM -SN BKN027 OVC032 00/00 A2971 RMK AO2 T00001001,M
ELY,2024-02-06 09:16,-114.8453,39.2950,1909.00,32.00,30.00,92.22,200.00,8.00,T,29.78,M,2.00,M,OVC,M,M,M,2200.00,M,M,M,-SN BR,M,M,M,M,M,M,24.11,KELY 060916Z AUTO 20008KT 2SM -SN BR OVC022 00/M01 A2978 RMK AO2 P0000 T00001011,M
EKO,2024-02-06 09:23,-115.7860,40.8242,1367.00,38.00,34.00,85.35,170.00,5.00,0.01,29.76,M,10.00,M,OVC,M,M,M,3100.00,M,M,M,-RA,M,M,M,M,M,M,33.52,KEKO 060923Z AUTO 17005KT 10SM -RA OVC031 03/01 A2976 RMK AO2 P0001 T00330011 $,M
CXP,2024-02-06 09:30,-119.7326,39.1923,1431.00,33.80,30.20,86.49,0.00,0.00,0.00,29.74,M,10.00,M,OVC,M,M,M,5500.00,M,M,M,M,M,M,M,M,M,M,33.80,KCXP 060930Z AUTO 00000KT 10SM OVC055 01/M01 A2974 RMK AO2,M
05U,2024-02-06 09:30,-116.0051,39.6042,1811.23,35.60,32.00,86.59,300.00,8.00,0.00,29.73,M,10.00,M,M,M,M,M,M,M,M,M,M,M,M,M,M,M,M,28.55,K05U 060930Z AUTO 30008KT 10SM 02/M00 A2973 RMK A01,M
HTH,2024-02-06 09:30,-118.6315,38.5448,1282.89,41.00,35.60,80.93,0.00,0.00,0.00,29.71,M,10.00,M,BKN,BKN,OVC,M,2600.00,3600.00,5000.00,M,M,M,M,M,M,M,M,41.00,KHTH 060930Z AUTO 00000KT 10SM BKN026 BKN036 OVC050 05/02 A2971 RMK A01,M
NFL,2024-02-06 09:31,-118.7010,39.4166,1199.00,38.00,35.00,88.83,30.00,6.00,T,29.72,M,9.00,M,SCT,OVC,M,M,2500.00,3400.00,M,M,-RA,M,M,M,M,M,M,32.76,KNFL 060931Z AUTO 03006KT 9SM -RA SCT025 OVC034 03/02 A2972 RMK AO2 P0000 T00330017,M
BVU,2024-02-06 09:35,-114.8611,35.9475,671.00,46.40,41.00,81.34,0.00,0.00,0.00,29.77,M,10.00,M,CLR,M,M,M,M,M,M,M,M,M,M,M,M,M,M,46.40,KBVU 060935Z AUTO 00000KT 10SM CLR 08/05 A2977 RMK AO2,M
RTS,2024-02-06 09:35,-119.8764,39.6682,1539.00,30.20,26.60,86.28,0.00,0.00,0.00,29.72,M,10.00,M,SCT,BKN,OVC,M,6000.00,7000.00,12000.00,M,M,M,M,M,M,M,M,30.20,KRTS 060935Z AUTO 00000KT 10SM SCT060 BKN070 OVC120 M01/M03 A2972 RMK AO2,M
MEV,2024-02-06 09:35,-119.7500,38.9963,1441.42,32.00,32.00,100.00,0.00,0.00,0.00,29.73,M,10.00,M,SCT,BKN,OVC,M,1200.00,4800.00,5500.00,M,M,M,M,M,M,M,M,32.00,KMEV 060935Z AUTO 00000KT 10SM SCT012 BKN048 OVC055 00/M00 A2973 RMK AO2,M
BAM,2024-02-06 09:35,-116.8743,40.5990,1382.36,39.20,35.60,86.79,0.00,0.00,0.00,29.73,M,10.00,M,BKN,OVC,M,M,5000.00,6000.00,M,M,M,M,M,M,M,M,M,39.20,KBAM 060935Z AUTO 00000KT 10SM BKN050 OVC060 04/02 A2973 RMK AO1,M
TMT,2024-02-06 09:35,-117.1971,39.4643,1749.34,32.00,32.00,100.00,320.00,3.00,0.00,29.72,M,10.00,M,SCT,SCT,OVC,M,2500.00,3400.00,9000.00,M,M,M,M,M,M,M,M,28.69,KTMT 060935Z AUTO 32003KT 10SM SCT025 SCT034 OVC090 00/00 A2972 RMK AO2 T00001001,M
TPH,2024-02-06 09:42,-117.0904,38.0505,1654.00,34.00,33.00,96.08,160.00,10.00,0.01,29.72,M,8.00,M,FEW,OVC,M,M,600.00,1200.00,M,M,-SN,M,M,M,M,M,M,25.48,KTPH 060942Z AUTO 16010KT 8SM -SN FEW006 OVC012 01/01 A2972 RMK AO2 UPB08E14SNB14 P0001 T00110006,M
NFL,2024-02-06 09:49,-118.7010,39.4166,1199.00,38.00,35.00,88.83,40.00,6.00,0.01,29.72,M,8.00,M,OVC,M,M,M,2800.00,M,M,M,-RA,M,M,M,M,M,M,32.76,KNFL 060949Z AUTO 04006KT 8SM -RA OVC028 03/02 A2972 RMK AO2 P0001 T00330017,M
HTH,2024-02-06 09:50,-118.6315,38.5448,1282.89,41.00,37.40,86.89,300.00,4.00,0.00,29.71,M,10.00,M,SCT,BKN,OVC,M,2500.00,3200.00,5000.00,M,M,M,M,M,M,M,M,37.93,KHTH 060950Z AUTO 30004KT 10SM SCT025 BKN032 OVC050 05/03 A2971 RMK A01,M
DRA,2024-02-06 09:53,-116.0278,36.6206,1009.00,40.00,38.00,92.49,230.00,5.00,0.04,29.76,1006.80,6.00,M,BKN,BKN,OVC,M,3700.00,4700.00,8500.00,M,-RA BR,M,M,M,M,M,M,35.90,KDRA 060953Z AUTO 23005KT 6SM -RA BR BKN037 BKN047 OVC085 04/03 A2976 RMK AO2 SLP068 P0004 T00440033,M
ELY,2024-02-06 09:53,-114.8453,39.2950,1909.00,32.00,31.00,96.04,200.00,8.00,0.01,29.78,1007.60,5.00,M,OVC,M,M,M,2200.00,M,M,M,-SN BR,M,M,M,M,M,M,24.11,KELY 060953Z AUTO 20008KT 5SM -SN BR OVC022 00/M01 A2978 RMK AO2 SLP076 P0001 T00001006,M
VGT,2024-02-06 09:53,-115.1933,36.2111,667.00,47.00,39.00,73.57,330.00,11.00,0.00,29.76,1009.40,10.00,20.00,CLR,M,M,M,M,M,M,M,M,M,M,M,M,M,M,41.42,KVGT 060953Z AUTO 33011G20KT 10SM CLR 08/04 A2976 RMK AO2 SLP094 T00830039,M
LOL,2024-02-06 09:53,-118.5701,40.0684,1192.43,36.00,36.00,100.00,300.00,5.00,0.05,29.73,1006.50,7.00,M,OVC,M,M,M,2500.00,M,M,M,-RA,M,M,M,M,M,M,31.15,KLOL 060953Z AUTO 30005KT 7SM -RA OVC025 02/02 A2973 RMK AO2 SLP065 P0005 T00220022,M
P68,2024-02-06 09:53,-116.0056,39.6014,1993.00,35.00,31.00,85.17,130.00,11.00,0.00,29.72,1004.30,M,22.00,M,M,M,M,M,M,M,M,M,M,M,M,M,M,M,26.26,KP68 060953Z AUTO 13011G22KT 02/M01 A2972 RMK AO1 SLP043 T00171006 $,M
BVU,2024-02-06 09:55,-114.8611,35.9475,671.00,46.40,41.00,81.34,0.00,0.00,0.00,29.76,M,10.00,M,CLR,M,M,M,M,M,M,M,M,M,M,M,M,M,M,46.40,KBVU 060955Z AUTO 00000KT 10SM CLR 08/05 A2976 RMK AO2,M
CXP,2024-02-06 09:55,-119.7326,39.1923,1431.00,33.80,30.20,86.49,0.00,0.00,0.00,29.73,M,10.00,M,FEW,SCT,BKN,M,1800.00,4100.00,4900.00,M,M,M,M,M,M,M,M,33.80,KCXP 060955Z AUTO 00000KT 10SM FEW018 SCT041 BKN049 01/M01 A2973 RMK AO2,M
INS,2024-02-06 09:55,-115.6733,36.5872,955.00,41.70,37.60,85.24,230.00,3.00,0.01,29.79,1007.90,10.00,M,FEW,BKN,M,M,3700.00,11000.00,M,M,M,M,M,M,M,M,M,39.78,KINS 060955Z AUTO 23003KT 10SM FEW037 BKN110 05/03 A2979 RMK AO2 RAE09DZB09E11 SLP079 P0001 T00540031,M
RNO,2024-02-06 09:55,-119.7711,39.4839,1341.00,36.00,29.00,75.46,280.00,3.00,0.00,29.71,1005.30,10.00,M,OVC,M,M,M,9000.00,M,M,M,M,M,M,M,M,M,M,33.26,KRNO 060955Z 28003KT 10SM OVC090 02/M02 A2971 RMK AO2 SLP053 T00221017 $,M
RTS,2024-02-06 09:55,-119.8764,39.6682,1539.00,30.20,28.40,92.92,0.00,0.00,0.00,29.72,M,10.00,M,BKN,BKN,OVC,M,4400.00,6000.00,12000.00,M,M,M,M,M,M,M,M,30.20,KRTS 060955Z AUTO 00000KT 10SM BKN044 BKN060 OVC120 M01/M02 A2972 RMK AO2,M
05U,2024-02-06 09:55,-116.0051,39.6042,1811.23,35.60,30.20,80.51,290.00,14.00,0.00,29.75,M,10.00,M,M,M,M,M,M,M,M,M,M,M,M,M,M,M,M,25.80,K05U 060955Z AUTO 29014KT 10SM 02/M01 A2975 RMK A01,M
MEV,2024-02-06 09:55,-119.7500,38.9963,1441.42,32.00,32.00,100.00,0.00,0.00,0.00,29.72,M,10.00,M,BKN,OVC,M,M,1300.00,5000.00,M,M,M,M,M,M,M,M,M,32.00,KMEV 060955Z AUTO 00000KT 10SM BKN013 OVC050 00/M00 A2972 RMK AO2,M
BAM,2024-02-06 09:55,-116.8743,40.5990,1382.36,39.20,35.60,86.79,0.00,0.00,0.00,29.73,M,10.00,M,BKN,OVC,M,M,4300.00,4800.00,M,M,M,M,M,M,M,M,M,39.20,KBAM 060955Z AUTO 00000KT 10SM BKN043 OVC048 04/02 A2973 RMK AO1,M
LSV,2024-02-06 09:55,-115.0343,36.2362,570.00,46.00,41.70,84.84,210.00,4.00,0.00,29.75,1007.20,10.00,M,BKN,M,M,M,16000.00,M,M,M,M,M,M,M,M,M,M,43.77,KLSV 060955Z AUTO 21004KT 10SM BKN160 08/05 A2975 RMK AO2 SLP072 T00780054 $,M
TMT,2024-02-06 09:55,-117.1971,39.4643,1749.34,32.00,32.00,100.00,190.00,4.00,0.00,29.71,M,10.00,M,SCT,BKN,OVC,M,5500.00,7000.00,9000.00,M,M,M,M,M,M,M,M,27.42,KTMT 060955Z AUTO 19004KT 10SM SCT055 BKN070 OVC090 00/00 A2971 RMK AO2 T00011001,M
EKO,2024-02-06 09:56,-115.7860,40.8242,1367.00,37.00,34.00,88.78,0.00,0.00,0.02,29.72,1005.90,10.00,M,OVC,M,M,M,3500.00,M,M,M,UP,M,M,M,M,M,M,37.00,KEKO 060956Z AUTO 00000KT 10SM UP OVC035 03/01 A2972 RMK AO2 RAE40UPB40 SLP059 P0002 T00280011 $,M
NFL,2024-02-06 09:56,-118.7010,39.4166,1199.00,38.00,35.00,88.83,50.00,7.00,0.01,29.72,1004.50,8.00,M,OVC,M,M,M,2600.00,M,M,M,-RA,M,M,M,M,M,M,32.09,KNFL 060956Z AUTO 05007KT 8SM -RA OVC026 03/02 A2972 RMK AO2 SLP045 P0001 T00330017,M
HND,2024-02-06 09:56,-115.1344,35.9729,742.79,44.00,42.00,92.61,350.00,4.00,0.00,29.79,1010.70,8.00,M,CLR,M,M,M,M,M,M,M,M,M,M,M,M,M,M,41.43,KHND 060956Z AUTO 35004KT 8SM CLR 07/06 A2979 RMK AO2 SLP107 T00670056,M
TPH,2024-02-06 09:56,-117.0904,38.0505,1654.00,34.00,33.00,96.08,160.00,9.00,0.01,29.73,1005.90,6.00,M,OVC,M,M,M,1100.00,M,M,M,-SN BR,M,M,M,M,M,M,26.00,KTPH 060956Z AUTO 16009KT 6SM -SN BR OVC011 01/01 A2973 RMK AO2 UPB08E14B47E53SNB14E47B53 SLP059 P0001 T00110006,M
LAS,2024-02-06 09:56,-115.1634,36.0719,663.00,46.00,40.00,79.44,330.00,4.00,0.00,29.77,1007.80,10.00,M,FEW,OVC,M,M,1200.00,12000.00,M,M,M,M,M,M,M,M,M,43.77,KLAS 060956Z 33004KT 10SM FEW012 OVC120 08/04 A2977 RMK AO2 SLP078 T00780044 $,M
WMC,2024-02-06 09:56,-117.8072,40.9019,1315.00,37.00,29.00,72.54,90.00,6.00,0.00,29.72,1005.40,10.00,M,FEW,BKN,OVC,M,6000.00,7000.00,9500.00,M,M,M,M,M,M,M,M,31.55,KWMC 060956Z AUTO 09006KT 10SM FEW060 BKN070 OVC095 03/M02 A2972 RMK AO2 SLP054 T00281017,M
BVU,2024-02-06 10:15,-114.8611,35.9475,671.00,46.40,41.00,81.34,0.00,0.00,0.00,29.76,M,10.00,M,CLR,M,M,M,M,M,M,M,M,M,M,M,M,M,M,46.40,KBVU 061015Z AUTO 00000KT 10SM CLR 08/05 A2976 RMK AO2,M
CXP,2024-02-06 10:15,-119.7326,39.1923,1431.00,33.80,30.20,86.49,0.00,0.00,0.00,29.73,M,10.00,M,FEW,BKN,OVC,M,2000.00,6000.00,7500.00,M,M,M,M,M,M,M,M,33.80,KCXP 061015Z AUTO 00000KT 10SM FEW020 BKN060 OVC075 01/M01 A2973 RMK AO2,M
RTS,2024-02-06 10:15,-119.8764,39.6682,1539.00,30.20,26.60,86.28,0.00,0.00,0.00,29.72,M,10.00,M,BKN,BKN,M,M,4300.00,10000.00,M,M,M,M,M,M,M,M,M,30.20,KRTS 061015Z AUTO 00000KT 10SM BKN043 BKN100 M01/M03 A2972 RMK AO2,M
05U,2024-02-06 10:15,-116.0051,39.6042,1811.23,35.60,30.20,80.51,0.00,0.00,0.00,29.74,M,10.00,M,M,M,M,M,M,M,M,M,M,M,M,M,M,M,M,35.60,K05U 061015Z AUTO 00000KT 10SM 02/M01 A2974 RMK A01,M
MEV,2024-02-06 10:15,-119.7500,38.9963,1441.42,33.80,32.00,93.03,0.00,0.00,0.00,29.72,M,10.00,M,BKN,BKN,OVC,M,1400.00,2700.00,5500.00,M,M,M,M,M,M,M,M,33.80,KMEV 061015Z AUTO 00000KT 10SM BKN014 BKN027 OVC055 01/M00 A2972 RMK AO2,M
BAM,2024-02-06 10:15,-116.8743,40.5990,1382.36,39.20,35.60,86.79,60.00,3.00,0.00,29.74,M,10.00,M,BKN,BKN,OVC,M,3000.00,3600.00,4200.00,M,M,M,M,M,M,M,M,36.92,KBAM 061015Z AUTO 06003KT 10SM BKN030 BKN036 OVC042 04/02 A2974 RMK AO1,M
HTH,2024-02-06 10:15,-118.6315,38.5448,1282.89,39.20,37.40,93.19,340.00,3.00,0.00,29.71,M,9.00,M,FEW,SCT,OVC,M,1900.00,2400.00,3800.00,M,M,M,M,M,M,M,M,36.92,KHTH 061015Z AUTO 34003KT 9SM FEW019 SCT024 OVC038 04/03 A2971 RMK A01,M
TMT,2024-02-06 10:15,-117.1971,39.4643,1749.34,33.00,32.00,96.06,0.00,0.00,0.00,29.71,M,10.00,M,SCT,BKN,OVC,M,300.00,5500.00,6500.00,M,M,M,M,M,M,M,M,33.00,KTMT 061015Z AUTO 00000KT 10SM SCT003 BKN055 OVC065 01/00 A2971 RMK AO2 T00050000,M
TPH,2024-02-06 10:24,-117.0904,38.0505,1654.00,33.00,33.00,100.00,160.00,6.00,0.01,29.71,M,4.00,M,BKN,OVC,M,M,600.00,1000.00,M,M,-SN BR,M,M,M,M,M,M,26.73,KTPH 061024Z AUTO 16006KT 4SM -SN BR BKN006 OVC010 01/01 A2971 RMK AO2 P0001 T00060006,M
TPH,2024-02-06 10:32,-117.0904,38.0505,1654.00,33.00,32.00,96.06,150.00,7.00,0.02,29.70,M,2.50,M,SCT,OVC,M,M,500.00,800.00,M,M,-SN BR,M,M,M,M,M,M,26.00,KTPH 061032Z AUTO 15007KT 2 1/2SM -SN BR SCT005 OVC008 01/00 A2970 RMK AO2 P0002 T00060000,M
BVU,2024-02-06 10:35,-114.8611,35.9475,671.00,46.40,41.00,81.34,350.00,9.00,0.00,29.74,M,10.00,M,CLR,M,M,M,M,M,M,M,M,M,M,M,M,M,M,41.42,KBVU 061035Z AUTO 35009KT 10SM CLR 08/05 A2974 RMK AO2,M
CXP,2024-02-06 10:35,-119.7326,39.1923,1431.00,33.80,30.20,86.49,170.00,5.00,0.00,29.73,M,10.00,M,FEW,SCT,OVC,M,1200.00,5500.00,7500.00,M,M,M,M,M,M,M,M,28.53,KCXP 061035Z AUTO 17005KT 10SM FEW012 SCT055 OVC075 01/M01 A2973 RMK AO2,M
RTS,2024-02-06 10:35,-119.8764,39.6682,1539.00,28.40,26.60,92.86,330.00,3.00,0.00,29.71,M,10.00,M,SCT,M,M,M,4100.00,M,M,M,M,M,M,M,M,M,M,24.57,KRTS 061035Z AUTO 33003KT 10SM SCT041 M02/M03 A2971 RMK AO2,M
05U,2024-02-06 10:35,-116.0051,39.6042,1811.23,35.60,30.20,80.51,330.00,11.00,0.00,29.73,M,10.00,16.00,M,M,M,M,M,M,M,M,M,M,M,M,M,M,M,27.02,K05U 061035Z AUTO 33011G16KT 10SM 02/M01 A2973 RMK A01,M
MEV,2024-02-06 10:35,-119.7500,38.9963,1441.42,32.00,32.00,100.00,0.00,0.00,0.00,29.71,M,10.00,M,SCT,BKN,OVC,M,1200.00,6000.00,6500.00,M,M,M,M,M,M,M,M,32.00,KMEV 061035Z AUTO 00000KT 10SM SCT012 BKN060 OVC065 00/M00 A2971 RMK AO2,M
BAM,2024-02-06 10:35,-116.8743,40.5990,1382.36,39.20,35.60,86.79,40.00,4.00,0.00,29.73,M,10.00,M,BKN,OVC,M,M,3000.00,4200.00,M,M,M,M,M,M,M,M,M,35.83,KBAM 061035Z AUTO 04004KT 10SM BKN030 OVC042 04/02 A2973 RMK AO1,M
HTH,2024-02-06 10:35,-118.6315,38.5448,1282.89,39.20,39.20,100.00,360.00,5.00,0.00,29.70,M,10.00,M,SCT,SCT,OVC,M,2300.00,2700.00,3600.00,M,M,M,M,M,M,M,M,34.95,KHTH 061035Z AUTO 36005KT 10SM SCT023 SCT027 OVC036 04/04 A2970 RMK A01,M
TMT,2024-02-06 10:35,-117.1971,39.4643,1749.34,32.50,32.00,98.01,0.00,0.00,0.00,29.71,M,10.00,M,BKN,OVC,M,M,3500.00,4100.00,M,M,UP,M,M,M,M,M,M,32.50,KTMT 061035Z AUTO 00000KT 10SM UP BKN035 OVC041 00/00 A2971 RMK AO2 T00030000,M
DRA,2024-02-06 10:53,-116.0278,36.6206,1009.00,41.00,38.00,88.97,100.00,11.00,T,29.74,1005.90,10.00,M,FEW,OVC,M,M,1300.00,9000.00,M,M,M,M,M,M,M,M,M,33.84,KDRA 061053Z AUTO 10011KT 10SM FEW013 OVC090 05/03 A2974 RMK AO2 RAE04B29E40 SLP059 P0000 T00500033,M
ELY,2024-02-06 10:53,-114.8453,39.2950,1909.00,33.00,30.00,88.58,160.00,14.00,0.02,29.78,1007.30,1.75,M,OVC,M,M,M,1800.00,M,M,M,-SN BR,M,M,M,M,M,M,22.45,KELY 061053Z AUTO 16014KT 1 3/4SM -SN BR OVC018 01/M01 A2978 RMK AO2 SLP073 P0002 T00061011,M
VGT,2024-02-06 10:53,-115.1933,36.2111,667.00,47.00,40.00,76.49,340.00,10.00,0.00,29.73,1008.30,10.00,M,CLR,M,M,M,M,M,M,M,M,M,M,M,M,M,M,41.78,KVGT 061053Z AUTO 34010KT 10SM CLR 08/04 A2973 RMK AO2 SLP083 T00830044,M
LOL,2024-02-06 10:53,-118.5701,40.0684,1192.43,36.00,36.00,100.00,330.00,4.00,0.03,29.71,1005.70,10.00,M,OVC,M,M,M,2700.00,M,M,M,-RA,M,M,M,M,M,M,32.09,KLOL 061053Z AUTO 33004KT 10SM -RA OVC027 02/02 A2971 RMK AO2 SLP057 P0003 T00220022,M
P68,2024-02-06 10:53,-116.0056,39.6014,1993.00,35.00,30.00,81.78,170.00,10.00,0.00,29.70,1003.80,M,M,M,M,M,M,M,M,M,M,M,M,M,M,M,M,M,26.73,KP68 061053Z AUTO 17010KT 02/M01 A2970 RMK AO1 SLP038 T00171011 $,M
BVU,2024-02-06 10:55,-114.8611,35.9475,671.00,46.40,41.00,81.34,340.00,6.00,0.00,29.74,M,10.00,M,FEW,M,M,M,11000.00,M,M,M,M,M,M,M,M,M,M,42.87,KBVU 061055Z AUTO 34006KT 10SM FEW110 08/05 A2974 RMK AO2,M
CXP,2024-02-06 10:55,-119.7326,39.1923,1431.00,33.80,32.00,93.03,0.00,0.00,0.00,29.72,M,10.00,M,SCT,BKN,OVC,M,800.00,1600.00,7500.00,M,M,M,M,M,M,M,M,33.80,KCXP 061055Z AUTO 00000KT 10SM SCT008 BKN016 OVC075 01/M00 A2972 RMK AO2,M
INS,2024-02-06 10:55,-115.6733,36.5872,955.00,40.60,37.00,86.87,310.00,4.00,0.00,29.76,1006.90,10.00,M,FEW,SCT,SCT,M,10000.00,14000.00,18000.00,M,M,M,M,M,M,M,M,37.46,KINS 061055Z AUTO 31004KT 10SM FEW100 SCT140 SCT180 05/03 A2976 RMK AO2 SLP069 T00480028,M
RNO,2024-02-06 10:55,-119.7711,39.4839,1341.00,36.00,30.00,78.60,0.00,0.00,0.00,29.71,1005.10,10.00,M,FEW,OVC,M,M,5000.00,9000.00,M,M,M,M,M,M,M,M,M,36.00,KRNO 061055Z 00000KT 10SM FEW050 OVC090 02/M01 A2971 RMK AO2 SLP051 T00221011 $,M
RTS,2024-02-06 10:55,-119.8764,39.6682,1539.00,28.40,26.60,92.86,340.00,3.00,0.00,29.71,M,10.00,M,BKN,BKN,M,M,3900.00,11000.00,M,M,M,M,M,M,M,M,M,24.57,KRTS 061055Z AUTO 34003KT 10SM BKN039 BKN110 M02/M03 A2971 RMK AO2,M
05U,2024-02-06 10:55,-116.0051,39.6042,1811.23,M,M,M,330.00,9.00,0.00,29.72,M,10.00,M,M,M,M,M,M,M,M,M,M,M,M,M,M,M,M,M,K05U 061055Z AUTO 33009KT 10SM A2972 RMK A01,M
MEV,2024-02-06 10:55,-119.7500,38.9963,1441.42,32.00,32.00,100.00,0.00,0.00,0.00,29.70,M,10.00,M,BKN,OVC,M,M,1000.00,6500.00,M,M,M,M,M,M,M,M,M,32.00,KMEV 061055Z AUTO 00000KT 10SM BKN010 OVC065 M00/M00 A2970 RMK AO2,M
BAM,2024-02-06 10:55,-116.8743,40.5990,1382.36,39.20,35.60,86.79,0.00,0.00,0.00,29.74,M,10.00,M,BKN,OVC,M,M,2600.00,3400.00,M,M,M,M,M,M,M,M,M,39.20,KBAM 061055Z AUTO 00000KT 10SM BKN026 OVC034 04/02 A2974 RMK AO1,M
HTH,2024-02-06 10:55,-118.6315,38.5448,1282.89,39.20,39.20,100.00,20.00,6.00,0.01,29.68,M,8.00,M,SCT,BKN,OVC,M,2000.00,2400.00,2900.00,M,M,M,M,M,M,M,M,34.20,KHTH 061055Z AUTO 02006KT 8SM SCT020 BKN024 OVC029 04/04 A2968 RMK A01 P0001,M
LSV,2024-02-06 10:55,-115.0343,36.2362,570.00,46.60,41.00,80.73,110.00,3.00,0.00,29.72,1006.20,10.00,M,FEW,M,M,M,15000.00,M,M,M,M,M,M,M,M,M,M,45.38,KLSV 061055Z AUTO 11003KT 10SM FEW150 08/05 A2972 RMK AO2 SLP062 T00810050 $,M
TMT,2024-02-06 10:55,-117.1971,39.4643,1749.34,32.00,32.00,100.00,200.00,4.00,0.00,29.70,M,10.00,M,SCT,BKN,OVC,M,2900.00,3600.00,4900.00,M,-SN,M,M,M,M,M,M,27.42,KTMT 061055Z AUTO 20004KT 10SM -SN SCT029 BKN036 OVC049 00/00 A2970 RMK AO2 T00000000,M
EKO,2024-02-06 10:56,-115.7860,40.8242,1367.00,37.00,34.00,88.78,50.00,4.00,T,29.72,1005.50,10.00,M,FEW,BKN,OVC,M,3600.00,5000.00,9000.00,M,M,M,M,M,M,M,M,33.26,KEKO 061056Z AUTO 05004KT 10SM FEW036 BKN050 OVC090 03/01 A2972 RMK AO2 UPE04 SLP055 P0000 T00280011 $,M
NFL,2024-02-06 10:56,-118.7010,39.4166,1199.00,37.00,35.00,92.39,50.00,3.00,0.02,29.71,1004.20,7.00,M,FEW,OVC,M,M,1300.00,2200.00,M,M,-RA,M,M,M,M,M,M,34.40,KNFL 061056Z AUTO 05003KT 7SM -RA FEW013 OVC022 03/02 A2971 RMK AO2 SLP042 P0002 T00280017,M
HND,2024-02-06 10:56,-115.1344,35.9729,742.79,44.00,42.00,92.61,130.00,4.00,0.00,29.76,1009.70,8.00,M,CLR,M,M,M,M,M,M,M,M,M,M,M,M,M,M,41.43,KHND 061056Z AUTO 13004KT 8SM CLR 07/06 A2976 RMK AO2 SLP097 T00670056,M
TPH,2024-02-06 10:56,-117.0904,38.0505,1654.00,33.00,32.00,96.06,120.00,5.00,0.04,29.68,1004.60,2.00,M,OVC,M,M,M,900.00,M,M,M,-SN BR,M,M,M,M,M,M,27.58,KTPH 061056Z AUTO 12005KT 2SM -SN BR OVC009 01/00 A2968 RMK AO2 SLP046 P0004 T00060000,M
LAS,2024-02-06 10:56,-115.1634,36.0719,663.00,45.00,40.00,82.51,120.00,3.00,0.00,29.74,1006.90,10.00,M,BKN,BKN,M,M,13000.00,20000.00,M,M,M,M,M,M,M,M,M,43.55,KLAS 061056Z 12003KT 10SM BKN130 BKN200 07/04 A2974 RMK AO2 SLP069 T00720044 $,M
WMC,2024-02-06 10:56,-117.8072,40.9019,1315.00,36.00,29.00,75.46,30.00,9.00,0.00,29.71,1005.10,10.00,M,OVC,M,M,M,9500.00,M,M,M,M,M,M,M,M,M,M,28.49,KWMC 061056Z AUTO 03009KT 10SM OVC095 02/M02 A2971 RMK AO2 SLP051 T00221017,M
LOL,2024-02-06 11:08,-118.5701,40.0684,1192.43,36.00,36.00,100.00,330.00,4.00,0.01,29.71,M,10.00,M,OVC,M,M,M,3900.00,M,M,M,-RA,M,M,M,M,M,M,32.09,KLOL 061108Z AUTO 33004KT 10SM -RA OVC039 02/02 A2971 RMK AO2 P0001 T00220022,M
NFL,2024-02-06 11:09,-118.7010,39.4166,1199.00,37.00,35.00,92.39,40.00,6.00,0.01,29.69,M,7.00,M,FEW,SCT,OVC,M,700.00,1100.00,1800.00,M,-RA,M,M,M,M,M,M,31.55,KNFL 061109Z AUTO 04006KT 7SM -RA FEW007 SCT011 OVC018 03/02 A2969 RMK AO2 PRESFR P0001 T00280017,M
ELY,2024-02-06 11:11,-114.8453,39.2950,1909.00,33.00,31.00,92.25,160.00,17.00,0.01,29.77,M,2.50,M,OVC,M,M,M,1800.00,M,M,M,-SN BR,M,M,M,M,M,M,21.39,KELY 061111Z AUTO 16017KT 2 1/2SM -SN BR OVC018 01/M01 A2977 RMK AO2 P0001 T00061006,M
TPH,2024-02-06 11:14,-117.0904,38.0505,1654.00,32.00,32.00,100.00,130.00,6.00,0.01,29.67,M,2.50,M,OVC,M,M,M,1000.00,M,M,M,-SN BR,M,M,M,M,M,M,25.53,KTPH 061114Z AUTO 13006KT 2 1/2SM -SN BR OVC010 00/00 A2967 RMK AO2 P0001 T00000000,M
BVU,2024-02-06 11:15,-114.8611,35.9475,671.00,46.40,41.00,81.34,10.00,7.00,0.00,29.73,M,10.00,M,FEW,M,M,M,12000.00,M,M,M,M,M,M,M,M,M,M,42.33,KBVU 061115Z AUTO 01007KT 10SM FEW120 08/05 A2973 RMK AO2,M
CXP,2024-02-06 11:15,-119.7326,39.1923,1431.00,33.80,32.00,93.03,0.00,0.00,0.00,29.70,M,10.00,M,BKN,OVC,M,M,800.00,1600.00,M,M,M,M,M,M,M,M,M,33.80,KCXP 061115Z AUTO 00000KT 10SM BKN008 OVC016 01/M00 A2970 RMK AO2,M
RTS,2024-02-06 11:15,-119.8764,39.6682,1539.00,28.40,26.60,92.86,10.00,4.00,0.00,29.70,M,10.00,M,FEW,BKN,OVC,M,3000.00,3600.00,4400.00,M,M,M,M,M,M,M,M,23.22,KRTS 061115Z AUTO 01004KT 10SM FEW030 BKN036 OVC044 M02/M03 A2970 RMK AO2,M
05U,2024-02-06 11:15,-116.0051,39.6042,1811.23,35.60,30.20,80.51,330.00,10.00,0.00,29.72,M,10.00,16.00,M,M,M,M,M,M,M,M,M,M,M,M,M,M,M,27.48,K05U 061115Z AUTO 33010G16KT 10SM 02/M01 A2972 RMK A01,M
MEV,2024-02-06 11:15,-119.7500,38.9963,1441.42,32.00,30.20,92.97,0.00,0.00,0.00,29.69,M,10.00,M,BKN,BKN,OVC,M,1000.00,2400.00,5500.00,M,M,M,M,M,M,M,M,32.00,KMEV 061115Z AUTO 00000KT 10SM BKN010 BKN024 OVC055 M00/M01 A2969 RMK AO2,M
BAM,2024-02-06 11:15,-116.8743,40.5990,1382.36,39.20,37.40,93.19,0.00,0.00,0.00,29.74,M,7.00,M,OVC,M,M,M,2600.00,M,M,M,M,M,M,M,M,M,M,39.20,KBAM 061115Z AUTO 00000KT 7SM OVC026 04/03 A2974 RMK AO1,M
HTH,2024-02-06 11:15,-118.6315,38.5448,1282.89,39.20,39.20,100.00,10.00,5.00,0.00,29.68,M,10.00,M,BKN,BKN,OVC,M,1100.00,1900.00,2800.00,M,M,M,M,M,M,M,M,34.95,KHTH 061115Z AUTO 01005KT 10SM BKN011 BKN019 OVC028 04/04 A2968 RMK A01,M
TMT,2024-02-06 11:15,-117.1971,39.4643,1749.34,32.00,32.00,100.00,200.00,3.00,0.00,29.68,M,10.00,M,BKN,BKN,OVC,M,500.00,900.00,3800.00,M,-SN,M,M,M,M,M,M,28.69,KTMT 061115Z AUTO 20003KT 10SM -SN BKN005 BKN009 OVC038 00/00 A2968 RMK AO2 T00000000,M
EKO,2024-02-06 11:20,-115.7860,40.8242,1367.00,37.00,34.00,88.78,100.00,3.00,0.00,29.72,M,10.00,M,BKN,BKN,OVC,M,1700.00,5000.00,8500.00,M,M,M,M,M,M,M,M,34.40,KEKO 061120Z AUTO 10003KT 10SM BKN017 BKN050 OVC085 03/01 A2972 RMK AO2 T00280011 $,M
TPH,2024-02-06 11:24,-117.0904,38.0505,1654.00,32.00,32.00,100.00,140.00,5.00,0.01,29.68,M,3.00,M,OVC,M,M,M,1000.00,M,M,M,-SN BR,M,M,M,M,M,M,26.40,KTPH 061124Z AUTO 14005KT 3SM -SN BR OVC010 00/00 A2968 RMK AO2 P0001 T00000000,M
ELY,2024-02-06 11:26,-114.8453,39.2950,1909.00,33.00,30.00,88.58,150.00,16.00,0.02,29.75,M,4.00,27.00,OVC,M,M,M,2000.00,M,M,M,-SN BR,M,M,M,27.00,150.00,2024-02-06 11:24,21.72,KELY 061126Z AUTO 15016G27KT 4SM -SN BR OVC020 01/M01 A2975 RMK AO2 PK WND 15027/1124 P0002 T00061011,M
BVU,2024-02-06 11:35,-114.8611,35.9475,671.00,46.40,41.00,81.34,0.00,0.00,0.00,29.73,M,10.00,M,CLR,M,M,M,M,M,M,M,M,M,M,M,M,M,M,46.40,KBVU 061135Z AUTO 00000KT 10SM CLR 08/05 A2973 RMK AO2,M
CXP,2024-02-06 11:35,-119.7326,39.1923,1431.00,33.80,32.00,93.03,0.00,0.00,0.00,29.70,M,10.00,M,OVC,M,M,M,700.00,M,M,M,M,M,M,M,M,M,M,33.80,KCXP 061135Z AUTO 00000KT 10SM OVC007 01/M00 A2970 RMK AO2,M
RTS,2024-02-06 11:35,-119.8764,39.6682,1539.00,28.40,26.60,92.86,20.00,3.00,0.00,29.69,M,10.00,M,FEW,BKN,OVC,M,3500.00,4500.00,11000.00,M,M,M,M,M,M,M,M,24.57,KRTS 061135Z AUTO 02003KT 10SM FEW035 BKN045 OVC110 M02/M03 A2969 RMK AO2,M
TPH,2024-02-06 11:35,-117.0904,38.0505,1654.00,32.00,32.00,100.00,140.00,6.00,0.01,29.68,M,2.50,M,OVC,M,M,M,900.00,M,M,M,-SN BR,M,M,M,M,M,M,25.53,KTPH 061135Z AUTO 14006KT 2 1/2SM -SN BR OVC009 00/00 A2968 RMK AO2 P0001 T00000000,M
05U,2024-02-06 11:35,-116.0051,39.6042,1811.23,M,M,M,330.00,14.00,0.00,29.71,M,10.00,M,M,M,M,M,M,M,M,M,M,M,M,M,M,M,M,M,K05U 061135Z AUTO 33014KT 10SM A2971 RMK A01,M
MEV,2024-02-06 11:35,-119.7500,38.9963,1441.42,32.00,30.20,92.97,10.00,3.00,0.00,29.68,M,10.00,M,FEW,BKN,OVC,M,1000.00,2300.00,5000.00,M,M,M,M,M,M,M,M,28.69,KMEV 061135Z AUTO 01003KT 10SM FEW010 BKN023 OVC050 M00/M01 A2968 RMK AO2,M
BAM,2024-02-06 11:35,-116.8743,40.5990,1382.36,37.40,35.60,93.14,280.00,3.00,0.00,29.73,M,10.00,M,SCT,OVC,M,M,1700.00,2800.00,M,M,M,M,M,M,M,M,M,34.86,KBAM 061135Z AUTO 28003KT 10SM SCT017 OVC028 03/02 A2973 RMK AO1,M
HTH,2024-02-06 11:35,-118.6315,38.5448,1282.89,39.20,39.20,100.00,350.00,8.00,0.00,29.69,M,4.00,M,BKN,OVC,M,M,1300.00,1900.00,M,M,BR,M,M,M,M,M,M,32.98,KHTH 061135Z AUTO 35008KT 4SM BR BKN013 OVC019 04/04 A2969 RMK A01,M
TMT,2024-02-06 11:35,-117.1971,39.4643,1749.34,32.00,32.00,100.00,0.00,0.00,0.00,29.68,M,10.00,M,OVC,M,M,M,500.00,M,M,M,-SN,M,M,M,M,M,M,32.00,KTMT 061135Z AUTO 00000KT 10SM -SN OVC005 00/00 A2968 RMK AO2 T00000000,M
NFL,2024-02-06 11:40,-118.7010,39.4166,1199.00,36.00,34.00,92.35,60.00,5.00,0.02,29.69,M,10.00,M,FEW,OVC,M,M,700.00,3500.00,M,M,UP,M,M,M,M,M,M,31.15,KNFL 061140Z AUTO 06005KT 10SM UP FEW007 OVC035 02/01 A2969 RMK AO2 RAE15UPB15 P0002 T00220011,M
DRA,2024-02-06 11:53,-116.0278,36.6206,1009.00,40.00,38.00,92.49,20.00,9.00,0.00,29.70,1004.80,10.00,M,FEW,BKN,OVC,M,5000.00,7500.00,9000.00,M,M,M,M,M,M,M,M,33.46,KDRA 061153Z AUTO 02009KT 10SM FEW050 BKN075 OVC090 04/03 A2970 RMK AO2 SLP048 60021 70137 T00440033 10061 20039 58028,M
ELY,2024-02-06 11:53,-114.8453,39.2950,1909.00,34.00,31.00,88.63,180.00,12.00,0.02,29.73,1005.80,10.00,M,BKN,BKN,OVC,M,3200.00,10000.00,12000.00,M,M,M,M,M,27.00,150.00,2024-02-06 11:24,24.55,KELY 061153Z AUTO 18012KT 10SM BKN032 BKN100 OVC120 01/M01 A2973 RMK AO2 PK WND 15027/1124 UPB42E51SNE42 SLP058 P0002 60006 70011 T00111006 10011 20000 55012,M
VGT,2024-02-06 11:53,-115.1933,36.2111,667.00,47.00,39.00,73.57,330.00,8.00,0.00,29.72,1007.90,10.00,M,CLR,M,M,M,M,M,M,M,M,M,M,M,M,M,M,42.59,KVGT 061153Z AUTO 33008KT 10SM CLR 08/04 A2972 RMK AO2 SLP079 70042 T00830039 10089 20078 56021,M
LOL,2024-02-06 11:53,-118.5701,40.0684,1192.43,36.00,36.00,100.00,270.00,3.00,0.01,29.69,1005.00,9.00,M,OVC,M,M,M,2900.00,M,M,M,-RA,M,M,M,M,M,M,33.26,KLOL 061153Z AUTO 27003KT 9SM -RA OVC029 02/02 A2969 RMK AO2 SLP050 P0001 60009 70009 T00220022 10044 20022 58011,M
P68,2024-02-06 11:53,-116.0056,39.6014,1993.00,36.00,30.00,78.60,170.00,17.00,0.00,29.67,1002.80,M,M,M,M,M,M,M,M,M,M,M,M,M,M,M,M,M,25.32,KP68 061153Z AUTO 17017KT 02/M01 A2967 RMK AO1 SLP028 T00221011 10028 20017 58018 $,M
TPH,2024-02-06 11:54,-117.0904,38.0505,1654.00,33.80,32.00,93.03,130.00,6.00,0.01,29.66,M,3.00,M,OVC,M,M,M,700.00,M,M,M,-SN BR,M,M,M,M,M,M,27.70,KTPH 061154Z AUTO 13006KT 3SM -SN BR OVC007 01/00 A2966 RMK AO2 P0001,M
LSV,2024-02-06 11:55,-115.0343,36.2362,570.00,48.00,40.30,74.53,0.00,0.00,0.00,29.70,1005.40,10.00,M,CLR,M,M,M,M,M,M,M,M,M,M,M,M,M,M,48.00,KLSV 061155Z AUTO 00000KT 10SM CLR 09/05 A2970 RMK AO2 SLP054 70026 T00880046 10094 20077 57020 $,M
BVU,2024-02-06 11:55,-114.8611,35.9475,671.00,46.40,41.00,81.34,330.00,3.00,0.00,29.72,M,10.00,M,FEW,M,M,M,11000.00,M,M,M,M,M,M,M,M,M,M,45.15,KBVU 061155Z AUTO 33003KT 10SM FEW110 08/05 A2972 RMK AO2,M
CXP,2024-02-06 11:55,-119.7326,39.1923,1431.00,33.80,32.00,93.03,0.00,0.00,0.00,29.71,M,10.00,M,OVC,M,M,M,700.00,M,M,M,M,M,M,M,M,M,M,33.80,KCXP 061155Z AUTO 00000KT 10SM OVC007 01/M00 A2971 RMK AO2,M
INS,2024-02-06 11:55,-115.6733,36.5872,955.00,40.00,37.80,91.76,0.00,0.00,0.00,29.72,1005.50,10.00,M,BKN,OVC,M,M,12000.00,17000.00,M,M,M,M,M,M,M,M,M,40.00,KINS 061155Z AUTO 00000KT 10SM BKN120 OVC170 05/03 A2972 RMK AO2 SLP055 60001 70067 T00450032 10058 20042 57029,M
RNO,2024-02-06 11:55,-119.7711,39.4839,1341.00,35.00,30.00,81.78,280.00,3.00,0.00,29.68,1004.30,10.00,M,SCT,OVC,M,M,2600.00,9500.00,M,M,M,M,M,M,M,M,M,32.12,KRNO 061155Z 28003KT 10SM SCT026 OVC095 02/M01 A2968 RMK AO2 SLP043 70001 T00171011 10039 20017 58010 $,M
RTS,2024-02-06 11:55,-119.8764,39.6682,1539.00,28.40,26.60,92.86,0.00,0.00,0.00,29.69,M,10.00,M,BKN,BKN,OVC,M,2900.00,4500.00,10000.00,M,M,M,M,M,M,M,M,28.40,KRTS 061155Z AUTO 00000KT 10SM BKN029 BKN045 OVC100 M02/M03 A2969 RMK AO2,M
05U,2024-02-06 11:55,-116.0051,39.6042,1811.23,35.60,30.20,80.51,340.00,13.00,0.00,29.70,M,10.00,M,M,M,M,M,M,M,M,M,M,M,M,M,M,M,M,26.18,K05U 061155Z AUTO 34013KT 10SM 02/M01 A2970 RMK A01,M
MEV,2024-02-06 11:55,-119.7500,38.9963,1441.42,32.00,30.20,92.97,0.00,0.00,0.00,29.69,M,10.00,M,BKN,OVC,M,M,2100.00,2600.00,M,M,M,M,M,M,M,M,M,32.00,KMEV 061155Z AUTO 00000KT 10SM BKN021 OVC026 M00/M01 A2969 RMK AO2,M
BAM,2024-02-06 11:55,-116.8743,40.5990,1382.36,37.40,35.60,93.14,320.00,3.00,0.00,29.71,M,10.00,M,SCT,SCT,OVC,M,1700.00,2500.00,3600.00,M,M,M,M,M,M,M,M,34.86,KBAM 061155Z AUTO 32003KT 10SM SCT017 SCT025 OVC036 03/02 A2971 RMK AO1,M
HTH,2024-02-06 11:55,-118.6315,38.5448,1282.89,37.40,37.40,100.00,350.00,8.00,0.03,29.70,M,4.00,M,OVC,M,M,M,1400.00,M,M,M,BR,M,M,M,M,M,M,30.76,KHTH 061155Z AUTO 35008KT 4SM BR OVC014 03/03 A2970 RMK A01 P0003,M
TMT,2024-02-06 11:55,-117.1971,39.4643,1749.34,32.00,32.00,100.00,0.00,0.00,0.00,29.67,M,10.00,M,OVC,M,M,M,500.00,M,M,M,M,M,M,M,M,M,M,32.00,KTMT 061155Z AUTO 00000KT 10SM OVC005 00/00 A2967 RMK AO2 70002 T00000000 10011 20000,M
EKO,2024-02-06 11:56,-115.7860,40.8242,1367.00,37.00,34.00,88.78,0.00,0.00,0.00,29.71,1005.50,10.00,M,OVC,M,M,M,1600.00,M,M,M,M,M,M,M,M,M,M,37.00,KEKO 061156Z AUTO 00000KT 10SM OVC016 03/01 A2971 RMK AO2 SLP055 60002 70006 T00280011 10044 20028 56016 $,M
HND,2024-02-06 11:56,-115.1344,35.9729,742.79,44.00,42.00,92.61,0.00,0.00,0.00,29.75,1009.20,8.00,M,FEW,M,M,M,12000.00,M,M,M,M,M,M,M,M,M,M,44.00,KHND 061156Z AUTO 00000KT 8SM FEW120 07/06 A2975 RMK AO2 SLP092 70042 T00670056 10078 20067 58013,M
TPH,2024-02-06 11:56,-117.0904,38.0505,1654.00,33.00,32.00,96.06,130.00,7.00,0.01,29.66,1003.80,3.00,M,OVC,M,M,M,700.00,M,M,M,-SN BR,M,M,M,M,M,M,26.00,KTPH 061156Z AUTO 13007KT 3SM -SN BR OVC007 01/00 A2966 RMK AO2 SLP038 P0001 60010 70012 T00060000 10011 20000 56019,M
LAS,2024-02-06 11:56,-115.1634,36.0719,663.00,45.00,42.00,89.15,190.00,4.00,0.00,29.73,1006.60,10.00,M,BKN,BKN,M,M,13000.00,20000.00,M,M,M,M,M,M,M,M,M,42.60,KLAS 061156Z 19004KT 10SM BKN130 BKN200 07/06 A2973 RMK AO2 SLP066 70037 T00720056 10078 20072 56014 $,M
WMC,2024-02-06 11:56,-117.8072,40.9019,1315.00,36.00,29.00,75.46,20.00,4.00,0.00,29.68,1004.30,10.00,M,SCT,OVC,M,M,5000.00,7000.00,M,M,M,M,M,M,M,M,M,32.09,KWMC 061156Z AUTO 02004KT 10SM SCT050 OVC070 02/M02 A2968 RMK AO2 SLP043 T00221017 10033 20017 58012,M
NFL,2024-02-06 11:56,-118.7010,39.4166,1199.00,36.00,33.00,88.73,50.00,5.00,0.02,29.70,1003.90,10.00,M,FEW,SCT,OVC,M,1600.00,2100.00,4300.00,M,M,M,M,M,M,M,M,31.15,KNFL 061156Z AUTO 05005KT 10SM FEW016 SCT021 OVC043 02/01 A2970 RMK AO2 RAE15UPB15E41 SLP039 P0002 60019 70020 T00220006 10056 20022 58006,M
TPH,2024-02-06 12:05,-117.0904,38.0505,1654.00,33.00,32.00,96.06,140.00,7.00,0.01,29.65,M,2.50,M,OVC,M,M,M,700.00,M,M,M,-SN BR,M,M,M,M,M,M,26.00,KTPH 061205Z AUTO 14007KT 2 1/2SM -SN BR OVC007 01/00 A2965 RMK AO2 P0001 T00060000,M
05U,2024-02-06 12:10,-116.0051,39.6042,1811.23,35.60,30.20,80.51,330.00,13.00,0.00,29.69,M,10.00,M,M,M,M,M,M,M,M,M,M,M,M,M,M,M,M,26.18,K05U 061210Z AUTO 33013KT 10SM 02/M01 A2969 RMK A01,M
LOL,2024-02-06 12:14,-118.5701,40.0684,1192.43,36.00,36.00,100.00,250.00,4.00,0.01,29.70,M,10.00,M,OVC,M,M,M,3000.00,M,M,M,-RA,M,M,M,M,M,M,32.09,KLOL 061214Z AUTO 25004KT 10SM -RA OVC030 02/02 A2970 RMK AO2 P0001 T00220022,M
RTS,2024-02-06 12:15,-119.8764,39.6682,1539.00,28.40,26.60,92.86,0.00,0.00,0.00,29.69,M,10.00,M,SCT,BKN,OVC,M,2900.00,3500.00,10000.00,M,M,M,M,M,M,M,M,28.40,KRTS 061215Z AUTO 00000KT 10SM SCT029 BKN035 OVC100 M02/M03 A2969 RMK AO2,M
BVU,2024-02-06 12:15,-114.8611,35.9475,671.00,46.40,41.00,81.34,0.00,0.00,0.00,29.71,M,10.00,M,FEW,M,M,M,12000.00,M,M,M,M,M,M,M,M,M,M,46.40,KBVU 061215Z AUTO 00000KT 10SM FEW120 08/05 A2971 RMK AO2,M
CXP,2024-02-06 12:15,-119.7326,39.1923,1431.00,33.80,32.00,93.03,0.00,0.00,0.00,29.70,M,10.00,M,BKN,OVC,M,M,800.00,1100.00,M,M,M,M,M,M,M,M,M,33.80,KCXP 061215Z AUTO 00000KT 10SM BKN008 OVC011 01/M00 A2970 RMK AO2,M
MEV,2024-02-06 12:15,-119.7500,38.9963,1441.42,32.00,30.20,92.97,0.00,0.00,0.00,29.69,M,10.00,M,FEW,BKN,OVC,M,1200.00,2100.00,7000.00,M,M,M,M,M,M,M,M,32.00,KMEV 061215Z AUTO 00000KT 10SM FEW012 BKN021 OVC070 M00/M01 A2969 RMK AO2,M
BAM,2024-02-06 12:15,-116.8743,40.5990,1382.36,37.40,37.40,100.00,0.00,0.00,0.00,29.70,M,10.00,M,SCT,BKN,OVC,M,1800.00,3700.00,4900.00,M,M,M,M,M,M,M,M,37.40,KBAM 061215Z AUTO 00000KT 10SM SCT018 BKN037 OVC049 03/03 A2970 RMK AO1,M
HTH,2024-02-06 12:15,-118.6315,38.5448,1282.89,37.40,37.40,100.00,350.00,10.00,0.00,29.68,M,5.00,M,BKN,OVC,M,M,1500.00,2100.00,M,M,BR,M,M,M,M,M,M,29.74,KHTH 061215Z AUTO 35010KT 5SM BR BKN015 OVC021 03/03 A2968 RMK A01,M
NFL,2024-02-06 12:15,-118.7010,39.4166,1199.00,36.00,34.00,92.35,0.00,0.00,0.00,29.69,M,10.00,M,BKN,BKN,OVC,M,1400.00,2100.00,5500.00,M,M,M,M,M,M,M,M,36.00,KNFL 061215Z AUTO 00000KT 10SM BKN014 BKN021 OVC055 02/01 A2969 RMK AO2 T00220011,M
TMT,2024-02-06 12:15,-117.1971,39.4643,1749.34,32.00,32.00,100.00,0.00,0.00,0.00,29.67,M,10.00,M,OVC,M,M,M,300.00,M,M,M,M,M,M,M,M,M,M,32.00,KTMT 061215Z AUTO 00000KT 10SM OVC003 00/00 A2967 RMK AO2 T00000000,M
TPH,2024-02-06 12:19,-117.0904,38.0505,1654.00,33.00,32.00,96.06,140.00,6.00,0.01,29.65,M,4.00,M,FEW,OVC,M,M,500.00,900.00,M,M,-SN BR,M,M,M,M,M,M,26.73,KTPH 061219Z AUTO 14006KT 4SM -SN BR FEW005 OVC009 01/00 A2965 RMK AO2 P0001 T00060000,M
NFL,2024-02-06 12:24,-118.7010,39.4166,1199.00,36.00,34.00,92.35,50.00,3.00,0.00,29.69,M,10.00,M,BKN,OVC,M,M,1600.00,5500.00,M,M,M,M,M,M,M,M,M,33.26,KNFL 061224Z AUTO 05003KT 10SM BKN016 OVC055 02/01 A2969 RMK AO2 T00220011,M
TPH,2024-02-06 12:30,-117.0904,38.0505,1654.00,33.00,33.00,100.00,140.00,5.00,0.01,29.64,M,4.00,M,FEW,OVC,M,M,400.00,1000.00,M,M,-SN BR,M,M,M,M,M,M,27.58,KTPH 061230Z AUTO 14005KT 4SM -SN BR FEW004 OVC010 01/01 A2964 RMK AO2 P0001 T00060006,M
05U,2024-02-06 12:30,-116.0051,39.6042,1811.23,35.60,30.20,80.51,320.00,14.00,0.00,29.69,M,10.00,22.00,M,M,M,M,M,M,M,M,M,M,M,M,M,M,M,25.80,K05U 061230Z AUTO 32014G22KT 10SM 02/M01 A2969 RMK A01,M
BVU,2024-02-06 12:35,-114.8611,35.9475,671.00,46.40,41.00,81.34,0.00,0.00,0.00,29.69,M,10.00,M,FEW,M,M,M,12000.00,M,M,M,M,M,M,M,M,M,M,46.40,KBVU 061235Z AUTO 00000KT 10SM FEW120 08/05 A2969 RMK AO2,M
CXP,2024-02-06 12:35,-119.7326,39.1923,1431.00,33.80,32.00,93.03,0.00,0.00,0.00,29.70,M,10.00,M,OVC,M,M,M,800.00,M,M,M,M,M,M,M,M,M,M,33.80,KCXP 061235Z AUTO 00000KT 10SM OVC008 01/M00 A2970 RMK AO2,M
RTS,2024-02-06 12:35,-119.8764,39.6682,1539.00,28.40,26.60,92.86,0.00,0.00,0.00,29.69,M,10.00,M,BKN,OVC,M,M,2800.00,10000.00,M,M,M,M,M,M,M,M,M,28.40,KRTS 061235Z AUTO 00000KT 10SM BKN028 OVC100 M02/M03 A2969 RMK AO2,M
MEV,2024-02-06 12:35,-119.7500,38.9963,1441.42,30.20,30.20,100.00,10.00,3.00,0.00,29.68,M,10.00,M,BKN,BKN,OVC,M,2200.00,6000.00,7000.00,M,M,M,M,M,M,M,M,26.63,KMEV 061235Z AUTO 01003KT 10SM BKN022 BKN060 OVC070 M01/M01 A2968 RMK AO2,M
BAM,2024-02-06 12:35,-116.8743,40.5990,1382.36,37.40,37.40,100.00,0.00,0.00,0.00,29.69,M,10.00,M,BKN,BKN,OVC,M,1600.00,2300.00,4900.00,M,M,M,M,M,M,M,M,37.40,KBAM 061235Z AUTO 00000KT 10SM BKN016 BKN023 OVC049 03/03 A2969 RMK AO1,M
HTH,2024-02-06 12:35,-118.6315,38.5448,1282.89,37.40,37.40,100.00,360.00,7.00,0.00,29.65,M,5.00,M,SCT,BKN,OVC,M,400.00,1200.00,1800.00,M,BR,M,M,M,M,M,M,31.36,KHTH 061235Z AUTO 36007KT 5SM BR SCT004 BKN012 OVC018 03/03 A2965 RMK A01,M
TMT,2024-02-06 12:35,-117.1971,39.4643,1749.34,32.00,32.00,100.00,0.00,0.00,0.00,29.67,M,10.00,M,BKN,BKN,OVC,M,300.00,900.00,5500.00,M,M,M,M,M,M,M,M,32.00,KTMT 061235Z AUTO 00000KT 10SM BKN003 BKN009 OVC055 00/00 A2967 RMK AO2 T00000000,M
NFL,2024-02-06 12:36,-118.7010,39.4166,1199.00,36.00,34.00,92.35,0.00,0.00,0.00,29.68,M,10.00,M,OVC,M,M,M,1400.00,M,M,M,M,M,M,M,M,M,M,36.00,KNFL 061236Z AUTO 00000KT 10SM OVC014 02/01 A2968 RMK AO2 T00220011,M
RNO,2024-02-06 12:40,-119.7711,39.4839,1341.00,35.00,29.00,78.51,270.00,4.00,0.00,29.68,M,10.00,M,BKN,BKN,OVC,M,2500.00,3000.00,3900.00,M,M,M,M,M,M,M,M,30.92,KRNO 061240Z 27004KT 10SM BKN025 BKN030 OVC039 02/M02 A2968 RMK AO2 T00171017 $,M
TPH,2024-02-06 12:43,-117.0904,38.0505,1654.00,33.00,33.00,100.00,140.00,5.00,0.02,29.64,M,4.00,M,OVC,M,M,M,900.00,M,M,M,-SN BR,M,M,M,M,M,M,27.58,KTPH 061243Z AUTO 14005KT 4SM -SN BR OVC009 01/01 A2964 RMK AO2 P0002 T00060006,M
05U,2024-02-06 12:50,-116.0051,39.6042,1811.23,35.60,30.20,80.51,320.00,17.00,0.00,29.67,M,10.00,M,M,M,M,M,M,M,M,M,M,M,M,M,M,M,M,24.79,K05U 061250Z AUTO 32017KT 10SM 02/M01 A2967 RMK A01,M
HTH,2024-02-06 12:50,-118.6315,38.5448,1282.89,37.40,37.40,100.00,350.00,10.00,0.00,29.67,M,6.00,M,BKN,BKN,OVC,M,500.00,1200.00,1600.00,M,BR,M,M,M,M,M,M,29.74,KHTH 061250Z AUTO 35010KT 6SM BR BKN005 BKN012 OVC016 03/03 A2967 RMK A01,M
CXP,2024-02-06 12:50,-119.7326,39.1923,1431.00,33.80,32.00,93.03,0.00,0.00,0.00,29.70,M,10.00,M,OVC,M,M,M,800.00,M,M,M,M,M,M,M,M,M,M,33.80,KCXP 061250Z AUTO 00000KT 10SM OVC008 01/M00 A2970 RMK AO2,M
DRA,2024-02-06 12:53,-116.0278,36.6206,1009.00,40.00,38.00,92.49,20.00,5.00,0.00,29.70,1004.90,10.00,M,BKN,BKN,OVC,M,5000.00,8000.00,10000.00,M,M,M,M,M,M,M,M,35.90,KDRA 061253Z AUTO 02005KT 10SM BKN050 BKN080 OVC100 04/03 A2970 RMK AO2 SLP049 T00440033,M
ELY,2024-02-06 12:53,-114.8453,39.2950,1909.00,34.00,30.00,85.11,200.00,13.00,0.00,29.71,1005.00,10.00,M,BKN,BKN,OVC,M,7500.00,9500.00,12000.00,M,M,M,M,M,M,M,M,24.13,KELY 061253Z AUTO 20013KT 10SM BKN075 BKN095 OVC120 01/M01 A2971 RMK AO2 SLP050 T00111011,M
VGT,2024-02-06 12:53,-115.1933,36.2111,667.00,47.00,40.00,76.49,270.00,6.00,0.00,29.70,1007.50,10.00,M,BKN,BKN,M,M,10000.00,11000.00,M,M,M,M,M,M,M,M,M,43.60,KVGT 061253Z AUTO 27006KT 10SM BKN100 BKN110 08/04 A2970 RMK AO2 SLP075 T00830044,M
LOL,2024-02-06 12:53,-118.5701,40.0684,1192.43,35.00,35.00,100.00,200.00,3.00,0.02,29.68,1005.00,10.00,M,OVC,M,M,M,2800.00,M,M,M,-RA,M,M,M,M,M,M,32.12,KLOL 061253Z AUTO 20003KT 10SM -RA OVC028 02/02 A2968 RMK AO2 SLP050 P0002 T00170017,M
P68,2024-02-06 12:53,-116.0056,39.6014,1993.00,36.00,29.00,75.46,150.00,14.00,0.00,29.65,1002.20,M,23.00,M,M,M,M,M,M,M,M,M,M,M,M,26.00,150.00,2024-02-06 12:17,26.32,KP68 061253Z AUTO 15014G23KT 02/M02 A2965 RMK AO1 PK WND 15026/1217 SLP022 T00221017 $,M
INS,2024-02-06 12:55,-115.6733,36.5872,955.00,41.70,37.20,83.91,240.00,4.00,0.00,29.71,1005.20,10.00,M,OVC,M,M,M,10000.00,M,M,M,M,M,M,M,M,M,M,38.75,KINS 061255Z AUTO 24004KT 10SM OVC100 05/03 A2971 RMK AO2 SLP052 T00540029,M
LSV,2024-02-06 12:55,-115.0343,36.2362,570.00,47.70,41.00,77.45,100.00,4.00,0.00,29.67,1004.30,10.00,M,CLR,M,M,M,M,M,M,M,M,M,M,M,M,M,M,45.75,KLSV 061255Z AUTO 10004KT 10SM CLR 09/05 A2967 RMK AO2 SLP043 T00870051 $,M
BVU,2024-02-06 12:55,-114.8611,35.9475,671.00,46.40,41.00,81.34,0.00,0.00,0.00,29.70,M,10.00,M,FEW,M,M,M,11000.00,M,M,M,M,M,M,M,M,M,M,46.40,KBVU 061255Z AUTO 00000KT 10SM FEW110 08/05 A2970 RMK AO2,M
RNO,2024-02-06 12:55,-119.7711,39.4839,1341.00,35.00,29.00,78.51,280.00,3.00,0.00,29.68,1004.20,10.00,M,SCT,SCT,OVC,M,2500.00,4000.00,9000.00,M,M,M,M,M,M,M,M,32.12,KRNO 061255Z 28003KT 10SM SCT025 SCT040 OVC090 02/M02 A2968 RMK AO2 SLP042 T00171017 $,M
RTS,2024-02-06 12:55,-119.8764,39.6682,1539.00,28.40,26.60,92.86,0.00,0.00,0.00,29.68,M,10.00,M,OVC,M,M,M,2700.00,M,M,M,M,M,M,M,M,M,M,28.40,KRTS 061255Z AUTO 00000KT 10SM OVC027 M02/M03 A2968 RMK AO2,M
MEV,2024-02-06 12:55,-119.7500,38.9963,1441.42,30.20,30.20,100.00,40.00,4.00,0.00,29.68,M,10.00,M,BKN,OVC,M,M,600.00,2200.00,M,M,M,M,M,M,M,M,M,25.32,KMEV 061255Z AUTO 04004KT 10SM BKN006 OVC022 M01/M01 A2968 RMK AO2,M
BAM,2024-02-06 12:55,-116.8743,40.5990,1382.36,37.40,37.40,100.00,360.00,3.00,0.00,29.69,M,10.00,M,OVC,M,M,M,1600.00,M,M,M,M,M,M,M,M,M,M,34.86,KBAM 061255Z AUTO 36003KT 10SM OVC016 03/03 A2969 RMK AO1,M
EKO,2024-02-06 12:56,-115.7860,40.8242,1367.00,36.00,34.00,92.35,110.00,3.00,T,29.69,1004.90,10.00,M,OVC,M,M,M,1700.00,M,M,M,UP,M,M,M,M,M,M,33.26,KEKO 061256Z AUTO 11003KT 10SM UP OVC017 02/01 A2969 RMK AO2 UPB30RAB45E55 SLP049 P0000 T00220011 $,M
NFL,2024-02-06 12:56,-118.7010,39.4166,1199.00,36.00,33.00,88.73,0.00,0.00,T,29.68,1003.20,8.00,M,BKN,OVC,M,M,1200.00,1700.00,M,M,UP,M,M,M,M,M,M,36.00,KNFL 061256Z AUTO 00000KT 8SM UP BKN012 OVC017 02/01 A2968 RMK AO2 UPB37 SLP032 P0000 T00220006,M
HND,2024-02-06 12:56,-115.1344,35.9729,742.79,44.00,42.00,92.61,200.00,4.00,0.00,29.72,1008.40,7.00,M,FEW,BKN,M,M,5000.00,11000.00,M,M,M,M,M,M,M,M,M,41.43,KHND 061256Z AUTO 20004KT 7SM FEW050 BKN110 07/06 A2972 RMK AO2 SLP084 T00670056,M
TPH,2024-02-06 12:56,-117.0904,38.0505,1654.00,33.00,33.00,100.00,170.00,4.00,0.02,29.64,1003.50,6.00,M,OVC,M,M,M,900.00,M,M,M,-SN BR,M,M,M,M,M,M,28.59,KTPH 061256Z AUTO 17004KT 6SM -SN BR OVC009 01/01 A2964 RMK AO2 SLP035 P0002 T00060006,M
LAS,2024-02-06 12:56,-115.1634,36.0719,663.00,45.00,42.00,89.15,230.00,6.00,0.00,29.71,1005.80,10.00,M,BKN,BKN,BKN,M,5500.00,12000.00,20000.00,M,M,M,M,M,M,M,M,41.19,KLAS 061256Z 23006KT 10SM BKN055 BKN120 BKN200 07/06 A2971 RMK AO2 SLP058 T00720056 $,M
WMC,2024-02-06 12:56,-117.8072,40.9019,1315.00,33.00,28.00,81.63,0.00,0.00,0.00,29.67,1004.50,10.00,M,BKN,BKN,M,M,10000.00,11000.00,M,M,M,M,M,M,M,M,M,33.00,KWMC 061256Z AUTO 00000KT 10SM BKN100 BKN110 01/M02 A2967 RMK AO2 SLP045 T00061022,M
NFL,2024-02-06 13:09,-118.7010,39.4166,1199.00,35.00,33.00,92.32,310.00,4.00,T,29.67,M,8.00,M,SCT,OVC,M,M,1200.00,1900.00,M,M,UP,M,M,M,M,M,M,30.92,KNFL 061309Z AUTO 31004KT 8SM UP SCT012 OVC019 02/01 A2967 RMK AO2 P0000 T00170006,M
BVU,2024-02-06 13:15,-114.8611,35.9475,671.00,46.40,41.00,81.34,0.00,0.00,0.00,29.71,M,10.00,M,FEW,BKN,BKN,M,8000.00,10000.00,12000.00,M,M,M,M,M,M,M,M,46.40,KBVU 061315Z AUTO 00000KT 10SM FEW080 BKN100 BKN120 08/05 A2971 RMK AO2,M
CXP,2024-02-06 13:15,-119.7326,39.1923,1431.00,33.80,32.00,93.03,0.00,0.00,0.00,29.70,M,10.00,M,OVC,M,M,M,800.00,M,M,M,M,M,M,M,M,M,M,33.80,KCXP 061315Z AUTO 00000KT 10SM OVC008 01/M00 A2970 RMK AO2,M
RTS,2024-02-06 13:15,-119.8764,39.6682,1539.00,28.40,26.60,92.86,310.00,3.00,0.00,29.68,M,10.00,M,SCT,OVC,M,M,2600.00,11000.00,M,M,M,M,M,M,M,M,M,24.57,KRTS 061315Z AUTO 31003KT 10SM SCT026 OVC110 M02/M03 A2968 RMK AO2,M
05U,2024-02-06 13:15,-116.0051,39.6042,1811.23,35.60,30.20,80.51,310.00,10.00,0.00,29.67,M,10.00,17.00,M,M,M,M,M,M,M,M,M,M,M,M,M,M,M,27.48,K05U 061315Z AUTO 31010G17KT 10SM 02/M01 A2967 RMK A01,M
MEV,2024-02-06 13:15,-119.7500,38.9963,1441.42,32.00,32.00,100.00,50.00,5.00,0.00,29.68,M,10.00,M,BKN,BKN,OVC,M,600.00,2000.00,4300.00,M,M,M,M,M,M,M,M,26.40,KMEV 061315Z AUTO 05005KT 10SM BKN006 BKN020 OVC043 M00/M00 A2968 RMK AO2,M
BAM,2024-02-06 13:15,-116.8743,40.5990,1382.36,37.40,37.40,100.00,340.00,3.00,0.00,29.69,M,10.00,M,BKN,OVC,M,M,1800.00,3700.00,M,M,M,M,M,M,M,M,M,34.86,KBAM 061315Z AUTO 34003KT 10SM BKN018 OVC037 03/03 A2969 RMK AO1,M
HTH,2024-02-06 13:15,-118.6315,38.5448,1282.89,35.60,35.60,100.00,330.00,10.00,0.00,29.68,M,5.00,M,SCT,BKN,OVC,M,600.00,1000.00,1500.00,M,BR,M,M,M,M,M,M,27.48,KHTH 061315Z AUTO 33010KT 5SM BR SCT006 BKN010 OVC015 02/02 A2968 RMK A01,M
TMT,2024-02-06 13:15,-117.1971,39.4643,1749.34,32.00,31.60,98.40,0.00,0.00,0.00,29.64,M,10.00,M,BKN,OVC,M,M,300.00,2300.00,M,M,-RA,M,M,M,M,M,M,32.00,KTMT 061315Z AUTO 00000KT 10SM -RA BKN003 OVC023 00/00 A2964 RMK AO2 T10011002,M
EKO,2024-02-06 13:24,-115.7860,40.8242,1367.00,36.00,34.00,92.35,110.00,4.00,0.01,29.68,M,10.00,M,FEW,BKN,OVC,M,1800.00,3300.00,5000.00,M,M,M,M,M,M,M,M,32.09,KEKO 061324Z AUTO 11004KT 10SM FEW018 BKN033 OVC050 02/01 A2968 RMK AO2 UPE00RAB00E24 P0001 T00220011 $,M
HTH,2024-02-06 13:30,-118.6315,38.5448,1282.89,35.60,35.60,100.00,310.00,10.00,0.00,29.68,M,7.00,M,BKN,BKN,OVC,M,700.00,1400.00,1900.00,M,M,M,M,M,M,M,M,27.48,KHTH 061330Z AUTO 31010KT 7SM BKN007 BKN014 OVC019 02/02 A2968 RMK A01,M
LOL,2024-02-06 13:31,-118.5701,40.0684,1192.43,36.00,36.00,100.00,0.00,0.00,0.02,29.66,M,10.00,M,OVC,M,M,M,3300.00,M,M,M,-RA,M,M,M,M,M,M,36.00,KLOL 061331Z AUTO 00000KT 10SM -RA OVC033 02/02 A2966 RMK AO2 P0002 T00220022,M
BVU,2024-02-06 13:35,-114.8611,35.9475,671.00,44.60,41.00,87.09,270.00,5.00,0.00,29.69,M,10.00,M,BKN,BKN,OVC,M,7500.00,9000.00,10000.00,M,M,M,M,M,M,M,M,41.36,KBVU 061335Z AUTO 27005KT 10SM BKN075 BKN090 OVC100 07/05 A2969 RMK AO2,M
CXP,2024-02-06 13:35,-119.7326,39.1923,1431.00,33.80,32.00,93.03,0.00,0.00,0.00,29.69,M,10.00,M,OVC,M,M,M,700.00,M,M,M,M,M,M,M,M,M,M,33.80,KCXP 061335Z AUTO 00000KT 10SM OVC007 01/M00 A2969 RMK AO2,M
RTS,2024-02-06 13:35,-119.8764,39.6682,1539.00,28.40,26.60,92.86,0.00,0.00,0.00,29.68,M,10.00,M,FEW,BKN,OVC,M,1300.00,3900.00,11000.00,M,M,M,M,M,M,M,M,28.40,KRTS 061335Z AUTO 00000KT 10SM FEW013 BKN039 OVC110 M02/M03 A2968 RMK AO2,M
05U,2024-02-06 13:35,-116.0051,39.6042,1811.23,35.60,30.20,80.51,290.00,10.00,0.00,29.66,M,10.00,M,M,M,M,M,M,M,M,M,M,M,M,M,M,M,M,27.48,K05U 061335Z AUTO 29010KT 10SM 02/M01 A2966 RMK A01,M
MEV,2024-02-06 13:35,-119.7500,38.9963,1441.42,32.00,32.00,100.00,70.00,4.00,0.00,29.67,M,8.00,M,FEW,SCT,BKN,M,600.00,1900.00,2500.00,M,-SN,M,M,M,M,M,M,27.42,KMEV 061335Z AUTO 07004KT 8SM -SN FEW006 SCT019 BKN025 00/M00 A2967 RMK AO2 LTG DSNT N AND S AND NW,M
BAM,2024-02-06 13:35,-116.8743,40.5990,1382.36,37.40,37.40,100.00,30.00,3.00,0.00,29.69,M,10.00,M,SCT,BKN,OVC,M,2000.00,2700.00,3500.00,M,M,M,M,M,M,M,M,34.86,KBAM 061335Z AUTO 03003KT 10SM SCT020 BKN027 OVC035 03/03 A2969 RMK AO1,M
TMT,2024-02-06 13:35,-117.1971,39.4643,1749.34,32.00,32.00,100.00,0.00,0.00,0.00,29.64,M,7.00,M,OVC,M,M,M,300.00,M,M,M,M,M,M,M,M,M,M,32.00,KTMT 061335Z AUTO 00000KT 7SM OVC003 00/00 A2964 RMK AO2 T00001001,M
TPH,2024-02-06 13:42,-117.0904,38.0505,1654.00,33.00,32.00,96.06,0.00,0.00,0.02,29.64,M,2.50,M,OVC,M,M,M,700.00,M,M,M,-SN BR,M,M,M,M,M,M,33.00,KTPH 061342Z AUTO 00000KT 2 1/2SM -SN BR OVC007 01/00 A2964 RMK AO2 P0002 T00060000,M
LSV,2024-02-06 13:46,-115.0343,36.2362,570.00,46.40,41.00,81.34,260.00,3.00,0.00,29.67,1004.50,10.00,M,FEW,M,M,M,6500.00,M,M,M,-RA,M,M,M,M,M,M,45.15,KLSV 061346Z AUTO 26003KT 10SM -RA FEW065 08/05 A2967 RMK AO2 RAB46 SLP045 $,M
INS,2024-02-06 13:51,-115.6733,36.5872,955.00,41.00,37.40,86.89,0.00,0.00,0.00,29.69,1004.50,10.00,M,BKN,OVC,M,M,6000.00,8500.00,M,M,-RA,M,M,M,M,M,M,41.00,KINS 061351Z AUTO 00000KT 10SM -RA BKN060 OVC085 05/03 A2969 RMK AO2 RAB51 SLP045,M
DRA,2024-02-06 13:53,-116.0278,36.6206,1009.00,40.00,39.00,96.18,0.00,0.00,0.03,29.67,1004.00,10.00,M,OVC,M,M,M,3800.00,M,M,M,-RA,M,M,M,M,M,M,40.00,KDRA 061353Z AUTO 00000KT 10SM -RA OVC038 04/04 A2967 RMK AO2 RAB1259 SLP040 P0003 T00440039,M
ELY,2024-02-06 13:53,-114.8453,39.2950,1909.00,33.00,29.00,85.04,200.00,12.00,0.00,29.68,1003.90,10.00,M,BKN,M,M,M,10000.00,M,M,M,M,M,M,M,M,M,M,23.27,KELY 061353Z AUTO 20012KT 10SM BKN100 01/M02 A2968 RMK AO2 SLP039 T00061017,M
VGT,2024-02-06 13:53,-115.1933,36.2111,667.00,46.00,41.00,82.58,50.00,4.00,T,29.68,1006.80,10.00,M,OVC,M,M,M,5500.00,M,M,M,-RA,M,M,M,M,M,M,43.77,KVGT 061353Z AUTO 05004KT 10SM -RA OVC055 08/05 A2968 RMK AO2 RAB41 SLP068 P0000 T00780050,M
LOL,2024-02-06 13:53,-118.5701,40.0684,1192.43,36.00,36.00,100.00,0.00,0.00,0.02,29.67,1005.00,10.00,M,FEW,SCT,OVC,M,2100.00,2700.00,4100.00,M,-RA,M,M,M,M,M,M,36.00,KLOL 061353Z AUTO 00000KT 10SM -RA FEW021 SCT027 OVC041 02/02 A2967 RMK AO2 SLP050 P0002 T00220022,M
P68,2024-02-06 13:53,-116.0056,39.6014,1993.00,34.00,30.00,85.11,130.00,8.00,0.00,29.63,1002.20,M,M,M,M,M,M,M,M,M,M,M,M,M,M,M,M,M,26.58,KP68 061353Z AUTO 13008KT 01/M01 A2963 RMK AO1 SLP022 T00111011 $,M
BVU,2024-02-06 13:55,-114.8611,35.9475,671.00,44.60,41.00,87.09,0.00,0.00,0.00,29.67,M,10.00,M,SCT,BKN,OVC,M,6000.00,7500.00,12000.00,M,M,M,M,M,M,M,M,44.60,KBVU 061355Z AUTO 00000KT 10SM SCT060 BKN075 OVC120 07/05 A2967 RMK AO2,M
CXP,2024-02-06 13:55,-119.7326,39.1923,1431.00,33.80,32.00,93.03,0.00,0.00,0.00,29.69,M,10.00,M,OVC,M,M,M,700.00,M,M,M,-RA,M,M,M,M,M,M,33.80,KCXP 061355Z AUTO 00000KT 10SM -RA OVC007 01/M00 A2969 RMK AO2,M
INS,2024-02-06 13:55,-115.6733,36.5872,955.00,40.60,37.60,88.95,0.00,0.00,T,29.69,1004.50,10.00,M,FEW,BKN,OVC,M,2800.00,6000.00,8000.00,M,-RA,M,M,M,M,M,M,40.60,KINS 061355Z AUTO 00000KT 10SM -RA FEW028 BKN060 OVC080 05/03 A2969 RMK AO2 RAB51 SLP045 P0000 T00480031,M
RNO,2024-02-06 13:55,-119.7711,39.4839,1341.00,36.00,30.00,78.60,0.00,0.00,T,29.68,1004.40,10.00,M,SCT,BKN,OVC,M,2300.00,4200.00,6000.00,M,M,M,M,M,M,M,M,36.00,KRNO 061355Z 00000KT 10SM SCT023 BKN042 OVC060 02/M01 A2968 RMK AO2 SLP044 P0000 T00221011 $,M
RTS,2024-02-06 13:55,-119.8764,39.6682,1539.00,28.40,26.60,92.86,0.00,0.00,0.00,29.68,M,10.00,M,BKN,OVC,M,M,4000.00,7500.00,M,M,M,M,M,M,M,M,M,28.40,KRTS 061355Z AUTO 00000KT 10SM BKN040 OVC075 M02/M03 A2968 RMK AO2,M
05U,2024-02-06 13:55,-116.0051,39.6042,1811.23,35.60,30.20,80.51,290.00,7.00,0.00,29.66,M,9.00,13.00,M,M,M,M,M,M,M,M,M,M,M,M,M,M,M,29.17,K05U 061355Z AUTO 29007G13KT 9SM 02/M01 A2966 RMK A01,M
MEV,2024-02-06 13:55,-119.7500,38.9963,1441.42,32.00,32.00,100.00,120.00,3.00,0.00,29.67,M,10.00,M,BKN,BKN,OVC,M,800.00,1200.00,2500.00,M,UP,M,M,M,M,M,M,28.69,KMEV 061355Z AUTO 12003KT 10SM UP BKN008 BKN012 OVC025 M00/M00 A2967 RMK AO2,M
BAM,2024-02-06 13:55,-116.8743,40.5990,1382.36,37.40,37.40,100.00,60.00,3.00,0.00,29.68,M,10.00,M,SCT,BKN,OVC,M,1300.00,2100.00,2800.00,M,M,M,M,M,M,M,M,34.86,KBAM 061355Z AUTO 06003KT 10SM SCT013 BKN021 OVC028 03/03 A2968 RMK AO1,M
HTH,2024-02-06 13:55,-118.6315,38.5448,1282.89,35.60,35.60,100.00,320.00,9.00,0.00,29.67,M,9.00,M,FEW,SCT,OVC,M,1000.00,1800.00,2200.00,M,M,M,M,M,M,M,M,27.99,KHTH 061355Z AUTO 32009KT 9SM FEW010 SCT018 OVC022 02/02 A2967 RMK A01,M
LSV,2024-02-06 13:55,-115.0343,36.2362,570.00,46.00,41.70,84.84,350.00,4.00,T,29.66,1004.10,10.00,M,FEW,M,M,M,6000.00,M,M,M,-RA,M,M,M,M,M,M,43.77,KLSV 061355Z AUTO 35004KT 10SM -RA FEW060 08/05 A2966 RMK AO2 RAB46 SLP041 P0000 T00780054 $,M
TMT,2024-02-06 13:55,-117.1971,39.4643,1749.34,32.00,32.00,100.00,0.00,0.00,0.00,29.64,M,7.00,M,SCT,OVC,M,M,300.00,800.00,M,M,M,M,M,M,M,M,M,32.00,KTMT 061355Z AUTO 00000KT 7SM SCT003 OVC008 00/00 A2964 RMK AO2 T00000000,M
EKO,2024-02-06 13:56,-115.7860,40.8242,1367.00,36.00,34.00,92.35,50.00,3.00,0.01,29.67,1004.40,10.00,M,BKN,OVC,M,M,4300.00,5000.00,M,M,M,M,M,M,M,M,M,33.26,KEKO 061356Z AUTO 05003KT 10SM BKN043 OVC050 02/01 A2967 RMK AO2 UPE00RAB00E24 SLP044 P0001 T00220011 $,M
NFL,2024-02-06 13:56,-118.7010,39.4166,1199.00,35.00,33.00,92.32,310.00,3.00,T,29.68,1003.30,8.00,M,OVC,M,M,M,2700.00,M,M,M,UP,M,M,M,M,M,M,32.12,KNFL 061356Z AUTO 31003KT 8SM UP OVC027 02/01 A2968 RMK AO2 RAB37E52 SLP033 P0000 T00170006,M
HND,2024-02-06 13:56,-115.1344,35.9729,742.79,44.00,42.00,92.61,180.00,3.00,T,29.70,1007.50,8.00,M,FEW,BKN,BKN,M,4600.00,6000.00,12000.00,M,-RA,M,M,M,M,M,M,42.41,KHND 061356Z AUTO 18003KT 8SM -RA FEW046 BKN060 BKN120 07/06 A2970 RMK AO2 RAB31 SLP075 P0000 T00670056,M
TPH,2024-02-06 13:56,-117.0904,38.0505,1654.00,33.00,32.00,96.06,0.00,0.00,0.03,29.63,1003.10,1.75,M,OVC,M,M,M,700.00,M,M,M,-SN BR,M,M,M,M,M,M,33.00,KTPH 061356Z AUTO 00000KT 1 3/4SM -SN BR OVC007 01/00 A2963 RMK AO2 SLP031 P0003 T00060000,M
LAS,2024-02-06 13:56,-115.1634,36.0719,663.00,45.00,43.00,92.65,M,4.00,T,29.66,1004.30,9.00,M,BKN,BKN,OVC,M,5500.00,7000.00,12000.00,M,-RA,M,M,M,M,M,M,42.60,KLAS 061356Z VRB04KT 9SM -RA BKN055 BKN070 OVC120 07/06 A2966 RMK AO2 RAB37 SLP043 P0000 T00720061 $,M
WMC,2024-02-06 13:56,-117.8072,40.9019,1315.00,34.00,29.00,81.71,80.00,5.00,0.00,29.63,1003.20,10.00,M,OVC,M,M,M,8000.00,M,M,M,M,M,M,M,M,M,M,28.77,KWMC 061356Z AUTO 08005KT 10SM OVC080 01/M02 A2963 RMK AO2 SLP032 T00111017,M
TPH,2024-02-06 13:59,-117.0904,38.0505,1654.00,33.00,32.00,96.06,0.00,0.00,T,29.63,M,2.00,M,OVC,M,M,M,500.00,M,M,M,-SN BR,M,M,M,M,M,M,33.00,KTPH 061359Z AUTO 00000KT 2SM -SN BR OVC005 01/00 A2963 RMK AO2 P0000 T00060000,M
LOL,2024-02-06 14:02,-118.5701,40.0684,1192.43,36.00,35.00,96.11,190.00,3.00,T,29.66,M,10.00,M,BKN,BKN,OVC,M,2100.00,2600.00,4300.00,M,-RA,M,M,M,M,M,M,33.26,KLOL 061402Z AUTO 19003KT 10SM -RA BKN021 BKN026 OVC043 02/02 A2966 RMK AO2 P0000 T00220017,M
LSV,2024-02-06 14:12,-115.0343,36.2362,570.00,46.40,41.00,81.34,40.00,3.00,0.00,29.65,1003.80,10.00,M,FEW,FEW,M,M,6000.00,12000.00,M,M,M,M,M,M,M,M,M,45.15,KLSV 061412Z AUTO 04003KT 10SM FEW060 FEW120 08/05 A2965 RMK AO2 RAE12 SLP038 $,M
BVU,2024-02-06 14:15,-114.8611,35.9475,671.00,44.60,41.00,87.09,110.00,3.00,0.00,29.68,M,10.00,M,FEW,FEW,SCT,M,7500.00,8500.00,12000.00,M,M,M,M,M,M,M,M,43.09,KBVU 061415Z AUTO 11003KT 10SM FEW075 FEW085 SCT120 07/05 A2968 RMK AO2,M
CXP,2024-02-06 14:15,-119.7326,39.1923,1431.00,33.80,32.00,93.03,0.00,0.00,0.00,29.68,M,10.00,M,OVC,M,M,M,600.00,M,M,M,M,M,M,M,M,M,M,33.80,KCXP 061415Z AUTO 00000KT 10SM OVC006 01/M00 A2968 RMK AO2,M
RTS,2024-02-06 14:15,-119.8764,39.6682,1539.00,28.40,26.60,92.86,0.00,0.00,0.00,29.69,M,10.00,M,SCT,BKN,OVC,M,2800.00,4000.00,7500.00,M,M,M,M,M,M,M,M,28.40,KRTS 061415Z AUTO 00000KT 10SM SCT028 BKN040 OVC075 M02/M03 A2969 RMK AO2,M
05U,2024-02-06 14:15,-116.0051,39.6042,1811.23,35.60,30.20,80.51,290.00,11.00,0.00,29.66,M,9.00,M,M,M,M,M,M,M,M,M,M,M,M,M,M,M,M,27.02,K05U 061415Z AUTO 29011KT 9SM 02/M01 A2966 RMK A01,M
MEV,2024-02-06 14:15,-119.7500,38.9963,1441.42,32.00,32.00,100.00,0.00,0.00,0.00,29.66,M,10.00,M,OVC,M,M,M,800.00,M,M,M,M,M,M,M,M,M,M,32.00,KMEV 061415Z AUTO 00000KT 10SM OVC008 00/M00 A2966 RMK AO2,M
BAM,2024-02-06 14:15,-116.8743,40.5990,1382.36,37.40,35.60,93.14,70.00,5.00,0.00,29.65,M,10.00,M,SCT,OVC,M,M,1300.00,2800.00,M,M,M,M,M,M,M,M,M,32.81,KBAM 061415Z AUTO 07005KT 10SM SCT013 OVC028 03/02 A2965 RMK AO1,M
HTH,2024-02-06 14:15,-118.6315,38.5448,1282.89,35.60,35.60,100.00,320.00,10.00,0.00,29.66,M,9.00,M,FEW,SCT,BKN,M,600.00,2200.00,4800.00,M,M,M,M,M,M,M,M,27.48,KHTH 061415Z AUTO 32010KT 9SM FEW006 SCT022 BKN048 02/02 A2966 RMK A01,M
TMT,2024-02-06 14:15,-117.1971,39.4643,1749.34,32.00,32.00,100.00,0.00,0.00,0.00,29.65,M,2.50,M,SCT,BKN,OVC,M,100.00,800.00,1800.00,M,-SN,M,M,M,M,M,M,32.00,KTMT 061415Z AUTO 00000KT 2 1/2SM -SN SCT001 BKN008 OVC018 00/00 A2965 RMK AO2 T00000000,M
NFL,2024-02-06 14:17,-118.7010,39.4166,1199.00,35.00,33.00,92.32,310.00,3.00,T,29.67,M,10.00,M,FEW,OVC,M,M,2600.00,3500.00,M,M,UP,M,M,M,M,M,M,32.12,KNFL 061417Z AUTO 31003KT 10SM UP FEW026 OVC035 02/01 A2967 RMK AO2 P0000 T00170006,M
TPH,2024-02-06 14:28,-117.0904,38.0505,1654.00,32.00,32.00,100.00,0.00,0.00,0.01,29.63,M,4.00,M,OVC,M,M,M,500.00,M,M,M,-SN BR,M,M,M,M,M,M,32.00,KTPH 061428Z AUTO 00000KT 4SM -SN BR OVC005 00/00 A2963 RMK AO2 P0001 T00000000,M
BVU,2024-02-06 14:35,-114.8611,35.9475,671.00,44.60,41.00,87.09,0.00,0.00,0.00,29.67,M,10.00,M,BKN,M,M,M,11000.00,M,M,M,M,M,M,M,M,M,M,44.60,KBVU 061435Z AUTO 00000KT 10SM BKN110 07/05 A2967 RMK AO2,M
CXP,2024-02-06 14:35,-119.7326,39.1923,1431.00,33.80,32.00,93.03,0.00,0.00,0.00,29.68,M,10.00,M,OVC,M,M,M,700.00,M,M,M,M,M,M,M,M,M,M,33.80,KCXP 061435Z AUTO 00000KT 10SM OVC007 01/M00 A2968 RMK AO2,M
RTS,2024-02-06 14:35,-119.8764,39.6682,1539.00,30.20,28.40,92.92,20.00,5.00,0.00,29.68,M,10.00,M,BKN,BKN,OVC,M,2800.00,3400.00,4000.00,M,M,M,M,M,M,M,M,24.26,KRTS 061435Z AUTO 02005KT 10SM BKN028 BKN034 OVC040 M01/M02 A2968 RMK AO2,M
05U,2024-02-06 14:35,-116.0051,39.6042,1811.23,35.60,30.20,80.51,320.00,9.00,0.00,29.66,M,9.00,16.00,M,M,M,M,M,M,M,M,M,M,M,M,M,M,M,27.99,K05U 061435Z AUTO 32009G16KT 9SM 02/M01 A2966 RMK A01,M
MEV,2024-02-06 14:35,-119.7500,38.9963,1441.42,32.00,32.00,100.00,0.00,0.00,0.00,29.67,M,10.00,M,OVC,M,M,M,800.00,M,M,M,-RA,M,M,M,M,M,M,32.00,KMEV 061435Z AUTO 00000KT 10SM -RA OVC008 00/M00 A2967 RMK AO2,M
BAM,2024-02-06 14:35,-116.8743,40.5990,1382.36,37.40,35.60,93.14,70.00,6.00,0.00,29.67,M,10.00,M,SCT,BKN,OVC,M,1100.00,2600.00,6000.00,M,M,M,M,M,M,M,M,32.03,KBAM 061435Z AUTO 07006KT 10SM SCT011 BKN026 OVC060 03/02 A2967 RMK AO1,M
HTH,2024-02-06 14:35,-118.6315,38.5448,1282.89,35.60,35.60,100.00,310.00,11.00,0.00,29.66,M,6.00,M,SCT,BKN,OVC,M,2200.00,4700.00,5500.00,M,BR,M,M,M,M,M,M,27.02,KHTH 061435Z AUTO 31011KT 6SM BR SCT022 BKN047 OVC055 02/02 A2966 RMK A01,M
TMT,2024-02-06 14:35,-117.1971,39.4643,1749.34,32.00,32.00,100.00,0.00,0.00,0.00,29.64,M,1.00,M,OVC,M,M,M,300.00,M,M,M,UP,M,M,M,M,M,M,32.00,KTMT 061435Z AUTO 00000KT 1SM UP OVC003 00/00 A2964 RMK AO2 T10011001,M
NFL,2024-02-06 14:41,-118.7010,39.4166,1199.00,35.00,33.00,92.32,0.00,0.00,T,29.66,M,7.00,M,SCT,OVC,M,M,1100.00,3700.00,M,M,-RASN,M,M,M,M,M,M,35.00,KNFL 061441Z 00000KT 7SM -RASN SCT011 OVC037 02/01 A2966 RMK AO2 UPE18B35E40RAB41SNB41 P0000 T00170006,M
TPH,2024-02-06 14:48,-117.0904,38.0505,1654.00,32.00,32.00,100.00,0.00,0.00,0.02,29.63,M,2.50,M,OVC,M,M,M,400.00,M,M,M,-SN BR,M,M,M,M,M,M,32.00,KTPH 061448Z AUTO 00000KT 2 1/2SM -SN BR OVC004 00/00 A2963 RMK AO2 P0002 T00000000,M
DRA,2024-02-06 14:53,-116.0278,36.6206,1009.00,40.00,39.00,96.18,0.00,0.00,T,29.66,1003.60,10.00,M,SCT,OVC,M,M,5000.00,7500.00,M,M,-RA,M,M,M,M,M,M,40.00,KDRA 061453Z AUTO 00000KT 10SM -RA SCT050 OVC075 04/04 A2966 RMK AO2 RAE09B50 SLP036 P0000 60003 T00440039 58013,M
ELY,2024-02-06 14:53,-114.8453,39.2950,1909.00,33.00,29.00,85.04,180.00,17.00,0.00,29.66,1003.70,10.00,25.00,BKN,M,M,M,10000.00,M,M,M,M,M,M,M,28.00,170.00,2024-02-06 14:34,21.39,KELY 061453Z AUTO 18017G25KT 10SM BKN100 01/M02 A2966 RMK AO2 PK WND 17028/1434 SLP037 T00061017 56019,M
VGT,2024-02-06 14:53,-115.1933,36.2111,667.00,47.00,42.00,82.65,0.00,0.00,0.01,29.67,1006.40,10.00,M,BKN,M,M,M,12000.00,M,M,M,M,M,M,M,M,M,M,47.00,KVGT 061453Z 00000KT 10SM BKN120 08/06 A2967 RMK AO2 RAE14 SLP064 P0001 60001 T00830056 56014,M
LOL,2024-02-06 14:53,-118.5701,40.0684,1192.43,35.00,35.00,100.00,180.00,4.00,T,29.67,1005.20,10.00,M,OVC,M,M,M,2000.00,M,M,M,-RA,M,M,M,M,M,M,30.92,KLOL 061453Z AUTO 18004KT 10SM -RA OVC020 02/02 A2967 RMK AO2 RAE11B40 SLP052 P0000 60004 T00170017 58006,M
P68,2024-02-06 14:53,-116.0056,39.6014,1993.00,35.00,31.00,85.17,150.00,10.00,0.00,29.62,1001.40,M,M,M,M,M,M,M,M,M,M,M,M,M,M,M,M,M,26.73,KP68 061453Z AUTO 15010KT 02/M01 A2962 RMK AO1 SLP014 T00171006 56013 $,M
BVU,2024-02-06 14:55,-114.8611,35.9475,671.00,44.60,41.00,87.09,0.00,0.00,0.00,29.67,M,10.00,M,OVC,M,M,M,11000.00,M,M,M,M,M,M,M,M,M,M,44.60,KBVU 061455Z AUTO 00000KT 10SM OVC110 07/05 A2967 RMK AO2,M
CXP,2024-02-06 14:55,-119.7326,39.1923,1431.00,33.80,32.00,93.03,0.00,0.00,0.00,29.68,M,10.00,M,OVC,M,M,M,900.00,M,M,M,M,M,M,M,M,M,M,33.80,KCXP 061455Z AUTO 00000KT 10SM OVC009 01/00 A2968 RMK AO2,M
INS,2024-02-06 14:55,-115.6733,36.5872,955.00,41.00,38.30,90.02,0.00,0.00,0.01,29.69,1004.70,10.00,M,BKN,M,M,M,2900.00,M,M,M,-RA,M,M,M,M,M,M,41.00,KINS 061455Z AUTO 00000KT 10SM -RA BKN029 05/04 A2969 RMK AO2 SLP047 P0001 60001 T00500035 57009,M
RNO,2024-02-06 14:55,-119.7711,39.4839,1341.00,36.00,30.00,78.60,0.00,0.00,0.00,29.68,1004.30,10.00,M,SCT,OVC,M,M,2300.00,4500.00,M,M,M,M,M,M,M,M,M,36.00,KRNO 061455Z 00000KT 10SM SCT023 OVC045 02/M01 A2968 RMK AO2 SLP043 MTN TOPS OBSCD DSNT SW THRU NW 60000 T00221011 56003 $,M
RTS,2024-02-06 14:55,-119.8764,39.6682,1539.00,30.20,28.40,92.92,0.00,0.00,0.00,29.68,M,9.00,M,FEW,SCT,OVC,M,2900.00,3400.00,4100.00,M,-UP,M,M,M,M,M,M,30.20,KRTS 061455Z AUTO 00000KT 9SM -UP FEW029 SCT034 OVC041 M01/M02 A2968 RMK AO2,M
05U,2024-02-06 14:55,-116.0051,39.6042,1811.23,35.60,32.00,86.59,310.00,8.00,0.00,29.65,M,6.00,13.00,M,M,M,M,M,M,M,M,BR,M,M,M,M,M,M,28.55,K05U 061455Z AUTO 31008G13KT 6SM BR 02/M00 A2965 RMK A01,M
MEV,2024-02-06 14:55,-119.7500,38.9963,1441.42,32.00,32.00,100.00,0.00,0.00,0.00,29.66,M,10.00,M,OVC,M,M,M,700.00,M,M,M,UP,M,M,M,M,M,M,32.00,KMEV 061455Z AUTO 00000KT 10SM UP OVC007 00/M00 A2966 RMK AO2,M
BAM,2024-02-06 14:55,-116.8743,40.5990,1382.36,37.40,35.60,93.14,50.00,8.00,0.00,29.67,M,10.00,M,BKN,OVC,M,M,5000.00,6000.00,M,M,M,M,M,M,M,M,M,30.76,KBAM 061455Z AUTO 05008KT 10SM BKN050 OVC060 03/02 A2967 RMK AO1,M
HTH,2024-02-06 14:55,-118.6315,38.5448,1282.89,35.60,35.60,100.00,310.00,9.00,0.01,29.66,M,9.00,M,BKN,BKN,OVC,M,2300.00,3500.00,4600.00,M,M,M,M,M,M,M,M,27.99,KHTH 061455Z AUTO 31009KT 9SM BKN023 BKN035 OVC046 02/02 A2966 RMK A01 P0001,M
LSV,2024-02-06 14:55,-115.0343,36.2362,570.00,45.50,41.50,85.80,210.00,5.00,T,29.65,1003.80,10.00,M,FEW,SCT,M,M,8000.00,12000.00,M,M,M,M,M,M,M,M,M,42.43,KLSV 061455Z AUTO 21005KT 10SM FEW080 SCT120 08/05 A2965 RMK AO2 RAE12 SLP038 P0000 60000 T00750053 55014 $,M
TMT,2024-02-06 14:55,-117.1971,39.4643,1749.34,32.00,32.00,100.00,0.00,0.00,0.00,29.64,M,0.75,M,OVC,M,M,M,300.00,M,M,M,UP,M,M,M,M,M,M,32.00,KTMT 061455Z AUTO 00000KT 3/4SM UP OVC003 00/00 A2964 RMK AO2 T10011001,M
EKO,2024-02-06 14:56,-115.7860,40.8242,1367.00,36.00,34.00,92.35,0.00,0.00,0.00,29.66,1004.30,10.00,M,FEW,BKN,OVC,M,2300.00,3000.00,3500.00,M,M,M,M,M,M,M,M,36.00,KEKO 061456Z AUTO 00000KT 10SM FEW023 BKN030 OVC035 02/01 A2966 RMK AO2 SLP043 60001 T00220011 56013 $,M
NFL,2024-02-06 14:56,-118.7010,39.4166,1199.00,35.00,33.00,92.32,300.00,5.00,T,29.66,1002.70,7.00,M,SCT,OVC,M,M,1100.00,3500.00,M,M,-RA,M,M,M,M,M,M,29.96,KNFL 061456Z 30005KT 7SM -RA SCT011 OVC035 02/01 A2966 RMK AO2 UPE18B35E40RAB41SNB41E52 SLP027 WR// P0000 60000 T00170006 56012,M
HND,2024-02-06 14:56,-115.1344,35.9729,742.79,43.00,41.00,92.58,180.00,3.00,T,29.69,1007.40,10.00,M,SCT,BKN,M,M,6000.00,11000.00,M,M,M,M,M,M,M,M,M,41.26,KHND 061456Z 18003KT 10SM SCT060 BKN110 06/05 A2969 RMK AO2 RAE06 SLP074 P0000 60000 T00610050 56018,M
TPH,2024-02-06 14:56,-117.0904,38.0505,1654.00,32.00,32.00,100.00,0.00,0.00,0.02,29.63,1003.20,2.50,M,OVC,M,M,M,400.00,M,M,M,-SN BR,M,M,M,M,M,M,32.00,KTPH 061456Z AUTO 00000KT 2 1/2SM -SN BR OVC004 00/00 A2963 RMK AO2 SLP032 P0002 60007 T00000000 56008,M
LAS,2024-02-06 14:56,-115.1634,36.0719,663.00,45.00,43.00,92.65,0.00,0.00,T,29.67,1004.70,8.00,M,FEW,SCT,BKN,OVC,4000.00,6500.00,12000.00,20000.00,M,M,M,M,M,M,M,45.00,KLAS 061456Z 00000KT 8SM FEW040 SCT065 BKN120 OVC200 07/06 A2967 RMK AO2 RAE02 SLP047 P0000 60000 T00720061 55018 $,M
WMC,2024-02-06 14:56,-117.8072,40.9019,1315.00,34.00,30.00,85.11,0.00,0.00,0.00,29.67,1004.70,10.00,M,SCT,SCT,OVC,M,1900.00,2600.00,6000.00,M,M,M,M,M,M,M,M,34.00,KWMC 061456Z AUTO 00000KT 10SM SCT019 SCT026 OVC060 01/M01 A2967 RMK AO2 SLP047 T00111011 55003,M
TPH,2024-02-06 15:03,-117.0904,38.0505,1654.00,32.00,32.00,100.00,0.00,0.00,T,29.63,M,3.00,M,OVC,M,M,M,400.00,M,M,M,-SN BR,M,M,M,M,M,M,32.00,KTPH 061503Z AUTO 00000KT 3SM -SN BR OVC004 00/00 A2963 RMK AO2 P0000 T00000000,M
INS,2024-02-06 15:10,-115.6733,36.5872,955.00,41.00,37.40,86.89,0.00,0.00,0.00,29.68,1004.40,10.00,M,FEW,SCT,M,M,1000.00,2900.00,M,M,-RA,M,M,M,M,M,M,41.00,KINS 061510Z AUTO 00000KT 10SM -RA FEW010 SCT029 05/03 A2968 RMK AO2 SLP044,M
EKO,2024-02-06 15:10,-115.7860,40.8242,1367.00,36.00,34.00,92.35,0.00,0.00,0.00,29.67,M,10.00,M,FEW,BKN,OVC,M,2200.00,2800.00,3600.00,M,M,M,M,M,M,M,M,36.00,KEKO 061510Z AUTO 00000KT 10SM FEW022 BKN028 OVC036 02/01 A2967 RMK AO2 T00220011 $,M
05U,2024-02-06 15:10,-116.0051,39.6042,1811.23,33.80,32.00,93.03,M,4.00,0.00,29.65,M,7.00,10.00,M,M,M,M,M,M,M,M,M,M,M,M,M,M,M,29.52,K05U 061510Z AUTO VRB04G10KT 7SM 01/M00 A2965 RMK A01,M
TPH,2024-02-06 15:14,-117.0904,38.0505,1654.00,33.00,32.00,96.06,0.00,0.00,T,29.62,M,2.00,M,OVC,M,M,M,400.00,M,M,M,-SN BR,M,M,M,M,M,M,33.00,KTPH 061514Z AUTO 00000KT 2SM -SN BR OVC004 01/00 A2962 RMK AO2 P0000 T00060000,M
BVU,2024-02-06 15:15,-114.8611,35.9475,671.00,44.60,41.00,87.09,230.00,3.00,0.00,29.68,M,10.00,M,OVC,M,M,M,11000.00,M,M,M,M,M,M,M,M,M,M,43.09,KBVU 061515Z AUTO 23003KT 10SM OVC110 07/05 A2968 RMK AO2,M
CXP,2024-02-06 15:15,-119.7326,39.1923,1431.00,33.80,32.00,93.03,0.00,0.00,0.00,29.67,M,10.00,M,OVC,M,M,M,1100.00,M,M,M,M,M,M,M,M,M,M,33.80,KCXP 061515Z AUTO 00000KT 10SM OVC011 01/00 A2967 RMK AO2,M
INS,2024-02-06 15:15,-115.6733,36.5872,955.00,41.00,37.40,86.89,0.00,0.00,0.00,29.68,1004.40,10.00,M,FEW,BKN,M,M,700.00,2800.00,M,M,-RA,M,M,M,M,M,M,41.00,KINS 061515Z AUTO 00000KT 10SM -RA FEW007 BKN028 05/03 A2968 RMK AO2 SLP044,M
RTS,2024-02-06 15:15,-119.8764,39.6682,1539.00,30.20,28.40,92.92,0.00,0.00,0.00,29.68,M,8.00,M,FEW,BKN,OVC,M,1300.00,2800.00,4100.00,M,M,M,M,M,M,M,M,30.20,KRTS 061515Z AUTO 00000KT 8SM FEW013 BKN028 OVC041 M01/M02 A2968 RMK AO2,M
MEV,2024-02-06 15:15,-119.7500,38.9963,1441.42,32.00,32.00,100.00,0.00,0.00,0.00,29.66,M,0.75,M,OVC,M,M,M,600.00,M,M,M,-SN BR,M,M,M,M,M,M,32.00,KMEV 061515Z AUTO 00000KT 3/4SM -SN BR OVC006 00/M00 A2966 RMK AO2,M
BAM,2024-02-06 15:15,-116.8743,40.5990,1382.36,37.40,35.60,93.14,50.00,9.00,0.00,29.67,M,10.00,M,SCT,OVC,M,M,4000.00,5000.00,M,M,M,M,M,M,M,M,M,30.23,KBAM 061515Z AUTO 05009KT 10SM SCT040 OVC050 03/02 A2967 RMK AO1,M
HTH,2024-02-06 15:15,-118.6315,38.5448,1282.89,35.60,35.60,100.00,320.00,9.00,0.00,29.65,M,6.00,M,FEW,SCT,BKN,M,900.00,2400.00,3500.00,M,BR,M,M,M,M,M,M,27.99,KHTH 061515Z AUTO 32009KT 6SM BR FEW009 SCT024 BKN035 02/02 A2965 RMK A01,M
TMT,2024-02-06 15:15,-117.1971,39.4643,1749.34,32.00,32.00,100.00,0.00,0.00,0.01,29.62,M,0.75,M,OVC,M,M,M,300.00,M,M,M,-SN,M,M,M,M,M,M,32.00,KTMT 061515Z AUTO 00000KT 3/4SM -SN OVC003 00/00 A2962 RMK AO2 P0001 T10011001,M
WMC,2024-02-06 15:19,-117.8072,40.9019,1315.00,35.00,30.00,81.78,20.00,3.00,T,29.67,M,8.00,M,SCT,OVC,M,M,1800.00,2700.00,M,M,-SN,M,M,M,M,M,M,32.12,KWMC 061519Z AUTO 02003KT 8SM -SN SCT018 OVC027 02/M01 A2967 RMK AO2 RAB02E16UPB03E10SNB16 P0000 T00171011,M
INS,2024-02-06 15:20,-115.6733,36.5872,955.00,41.00,37.40,86.89,0.00,0.00,0.00,29.68,1004.40,10.00,M,FEW,SCT,SCT,M,700.00,2900.00,3600.00,M,-RA,M,M,M,M,M,M,41.00,KINS 061520Z AUTO 00000KT 10SM -RA FEW007 SCT029 SCT036 05/03 A2968 RMK AO2 SLP044,M
EKO,2024-02-06 15:20,-115.7860,40.8242,1367.00,36.00,34.00,92.35,0.00,0.00,0.00,29.67,M,10.00,M,FEW,OVC,M,M,2000.00,3000.00,M,M,M,M,M,M,M,M,M,36.00,KEKO 061520Z AUTO 00000KT 10SM FEW020 OVC030 02/01 A2967 RMK AO2 T00220011 $,M
TPH,2024-02-06 15:22,-117.0904,38.0505,1654.00,32.00,32.00,100.00,0.00,0.00,T,29.62,M,1.50,M,OVC,M,M,M,400.00,M,M,M,-SN BR,M,M,M,M,M,M,32.00,KTPH 061522Z AUTO 00000KT 1 1/2SM -SN BR OVC004 00/00 A2962 RMK AO2 P0000 T00000000,M
TPH,2024-02-06 15:30,-117.0904,38.0505,1654.00,32.00,32.00,100.00,0.00,0.00,0.01,29.62,M,0.75,M,VV ,M,M,M,500.00,M,M,M,-SN BR,M,M,M,M,M,M,32.00,KTPH 061530Z AUTO 00000KT 3/4SM -SN BR VV005 00/00 A2962 RMK AO2 P0001 T00000000,M
CXP,2024-02-06 15:30,-119.7326,39.1923,1431.00,33.80,32.00,93.03,0.00,0.00,0.00,29.68,M,10.00,M,OVC,M,M,M,1300.00,M,M,M,M,M,M,M,M,M,M,33.80,KCXP 061530Z AUTO 00000KT 10SM OVC013 01/00 A2968 RMK AO2,M
05U,2024-02-06 15:30,-116.0051,39.6042,1811.23,35.60,32.00,86.59,290.00,7.00,0.00,29.65,M,9.00,M,M,M,M,M,M,M,M,M,M,M,M,M,M,M,M,29.17,K05U 061530Z AUTO 29007KT 9SM 02/M00 A2965 RMK A01,M
HTH,2024-02-06 15:30,-118.6315,38.5448,1282.89,35.60,35.60,100.00,310.00,9.00,0.00,29.66,M,6.00,M,SCT,BKN,BKN,M,900.00,2400.00,3400.00,M,BR,M,M,M,M,M,M,27.99,KHTH 061530Z AUTO 31009KT 6SM BR SCT009 BKN024 BKN034 02/02 A2966 RMK A01,M
WMC,2024-02-06 15:32,-117.8072,40.9019,1315.00,34.00,30.00,85.11,10.00,4.00,T,29.66,M,2.50,M,BKN,OVC,M,M,1400.00,2500.00,M,M,-SN BR,M,M,M,M,M,M,29.76,KWMC 061532Z AUTO 01004KT 2 1/2SM -SN BR BKN014 OVC025 01/M01 A2966 RMK AO2 RAB02E16UPB03E10SNB16 P0000 T00111011,M
EKO,2024-02-06 15:34,-115.7860,40.8242,1367.00,37.00,34.00,88.78,0.00,0.00,0.00,29.66,M,10.00,M,FEW,BKN,OVC,M,1900.00,2900.00,3900.00,M,M,M,M,M,M,M,M,37.00,KEKO 061534Z AUTO 00000KT 10SM FEW019 BKN029 OVC039 03/01 A2966 RMK AO2 T00280011 $,M
RTS,2024-02-06 15:35,-119.8764,39.6682,1539.00,30.20,28.40,92.92,0.00,0.00,0.00,29.66,M,9.00,M,FEW,BKN,OVC,M,1300.00,2700.00,4500.00,M,M,M,M,M,M,M,M,30.20,KRTS 061535Z AUTO 00000KT 9SM FEW013 BKN027 OVC045 M01/M02 A2966 RMK AO2,M
MEV,2024-02-06 15:35,-119.7500,38.9963,1441.42,32.00,32.00,100.00,0.00,0.00,0.00,29.67,M,2.50,M,OVC,M,M,M,600.00,M,M,M,UP BR,M,M,M,M,M,M,32.00,KMEV 061535Z AUTO 00000KT 2 1/2SM UP BR OVC006 00/00 A2967 RMK AO2 VIS 1V3,M
BAM,2024-02-06 15:35,-116.8743,40.5990,1382.36,37.40,35.60,93.14,50.00,11.00,0.00,29.66,M,10.00,M,SCT,BKN,OVC,M,3800.00,5000.00,7500.00,M,M,M,M,M,M,M,M,29.29,KBAM 061535Z AUTO 05011KT 10SM SCT038 BKN050 OVC075 03/02 A2966 RMK AO1,M
BVU,2024-02-06 15:35,-114.8611,35.9475,671.00,44.60,41.00,87.09,0.00,0.00,0.00,29.68,M,10.00,M,FEW,BKN,OVC,M,4400.00,7000.00,11000.00,M,M,M,M,M,M,M,M,44.60,KBVU 061535Z AUTO 00000KT 10SM FEW044 BKN070 OVC110 07/05 A2968 RMK AO2,M
TMT,2024-02-06 15:35,-117.1971,39.4643,1749.34,32.00,32.00,100.00,0.00,0.00,0.01,29.62,M,1.50,M,OVC,M,M,M,500.00,M,M,M,UP,M,M,M,M,M,M,32.00,KTMT 061535Z AUTO 00000KT 1 1/2SM UP OVC005 00/00 A2962 RMK AO2 P0001 T10011001,M
TPH,2024-02-06 15:40,-117.0904,38.0505,1654.00,32.00,32.00,100.00,140.00,3.00,0.02,29.63,M,0.75,M,FEW,OVC,M,M,300.00,700.00,M,M,-SN BR,M,M,M,M,M,M,28.69,KTPH 061540Z AUTO 14003KT 3/4SM -SN BR FEW003 OVC007 00/00 A2963 RMK AO2 P0002 T00000000,M
WMC,2024-02-06 15:45,-117.8072,40.9019,1315.00,34.00,30.00,85.11,20.00,3.00,0.01,29.65,M,1.75,M,BKN,OVC,M,M,1500.00,2100.00,M,M,-SN BR,M,M,M,M,M,M,30.97,KWMC 061545Z AUTO 02003KT 1 3/4SM -SN BR BKN015 OVC021 01/M01 A2965 RMK AO2 RAB02E16UPB03E10SNB16 P0001 T00111011,M
TPH,2024-02-06 15:48,-117.0904,38.0505,1654.00,32.00,32.00,100.00,0.00,0.00,0.02,29.63,M,1.00,M,VV ,M,M,M,800.00,M,M,M,-SN BR,M,M,M,M,M,M,32.00,KTPH 061548Z AUTO 00000KT 1SM -SN BR VV008 00/00 A2963 RMK AO2 P0002 T00000000,M
NFL,2024-02-06 15:49,-118.7010,39.4166,1199.00,35.00,33.00,92.32,310.00,5.00,T,29.65,M,6.00,M,BKN,OVC,M,M,900.00,1400.00,M,M,-RA BR,M,M,M,M,M,M,29.96,KNFL 061549Z 31005KT 6SM -RA BR BKN009 OVC014 02/01 A2965 RMK AO2 SNB1458E48 WR// P0000 T00170006,M
ELY,2024-02-06 15:53,-114.8453,39.2950,1909.00,33.00,28.00,81.63,180.00,18.00,0.00,29.65,1003.20,10.00,26.00,FEW,FEW,BKN,M,5000.00,6000.00,10000.00,M,M,M,M,M,26.00,180.00,2024-02-06 15:53,21.07,KELY 061553Z AUTO 18018G26KT 10SM FEW050 FEW060 BKN100 01/M02 A2965 RMK AO2 PK WND 18026/1553 SLP032 T00061022,M
VGT,2024-02-06 15:53,-115.1933,36.2111,667.00,46.00,42.00,85.83,120.00,4.00,T,29.67,1006.70,10.00,M,BKN,BKN,OVC,M,6500.00,7500.00,9500.00,M,-RA,M,M,M,M,M,M,43.77,KVGT 061553Z 12004KT 10SM -RA BKN065 BKN075 OVC095 08/06 A2967 RMK AO2 RAB48 SLP067 P0000 T00780056,M
P68,2024-02-06 15:53,-116.0056,39.6014,1993.00,36.00,32.00,85.23,170.00,4.00,0.00,29.62,1001.20,M,M,M,M,M,M,M,M,M,M,M,M,M,M,M,M,M,32.09,KP68 061553Z AUTO 17004KT 02/00 A2962 RMK AO1 SLP012 T00220000 $,M
DRA,2024-02-06 15:53,-116.0278,36.6206,1009.00,41.00,40.00,96.19,310.00,3.00,T,29.65,1003.20,9.00,M,BKN,OVC,M,M,3700.00,4600.00,M,M,-RA,M,M,M,M,M,M,38.98,KDRA 061553Z AUTO 31003KT 9SM -RA BKN037 OVC046 05/04 A2965 RMK AO2 RAE1459B47 SLP032 P0000 T00500044,M
LOL,2024-02-06 15:53,-118.5701,40.0684,1192.43,35.00,35.00,100.00,0.00,0.00,0.02,29.65,1004.70,10.00,M,FEW,OVC,M,M,1000.00,2500.00,M,M,-RA,M,M,M,M,M,M,35.00,KLOL 061553Z AUTO 00000KT 10SM -RA FEW010 OVC025 02/02 A2965 RMK AO2 SLP047 P0002 T00170017,M
EKO,2024-02-06 15:54,-115.7860,40.8242,1367.00,37.40,33.80,86.69,50.00,2.92,M,29.66,M,9.00,M,SCT,OVC,M,M,2500.00,2998.00,M,M,-RA,M,M,M,M,M,M,34.97,SPECI KEKO 061554Z 05003KT 9SM -RA SCT025 OVC030 03/01 A2966 RMK AO2 UPB45E54RAB54 P0000 $ FIBI,M
INS,2024-02-06 15:55,-115.6733,36.5872,955.00,41.00,39.00,92.52,0.00,0.00,T,29.67,1004.00,10.00,M,SCT,OVC,M,M,3400.00,6500.00,M,M,-RA,M,M,M,M,M,M,41.00,KINS 061555Z AUTO 00000KT 10SM -RA SCT034 OVC065 05/04 A2967 RMK AO2 RAE27DZB27E32RAB32 SLP040 P0000 T00510039,M
BVU,2024-02-06 15:55,-114.8611,35.9475,671.00,44.60,41.00,87.09,0.00,0.00,0.00,29.69,M,8.00,M,SCT,BKN,OVC,M,4500.00,5500.00,7000.00,M,M,M,M,M,M,M,M,44.60,KBVU 061555Z AUTO 00000KT 8SM SCT045 BKN055 OVC070 07/05 A2969 RMK AO2,M
CXP,2024-02-06 15:55,-119.7326,39.1923,1431.00,33.80,32.00,93.03,0.00,0.00,0.00,29.68,M,10.00,M,OVC,M,M,M,1100.00,M,M,M,M,M,M,M,M,M,M,33.80,KCXP 061555Z AUTO 00000KT 10SM OVC011 01/00 A2968 RMK AO2,M
RNO,2024-02-06 15:55,-119.7711,39.4839,1341.00,36.00,31.00,81.86,0.00,0.00,0.00,29.66,1004.10,10.00,M,FEW,BKN,OVC,M,1700.00,3000.00,6000.00,M,M,M,M,M,M,M,M,36.00,KRNO 061555Z 00000KT 10SM FEW017 BKN030 OVC060 02/M01 A2966 RMK AO2 SLP041 T00221006,M
05U,2024-02-06 15:55,-116.0051,39.6042,1811.23,35.60,32.00,86.59,350.00,3.00,0.00,29.65,M,10.00,M,M,M,M,M,M,M,M,M,M,M,M,M,M,M,M,32.80,K05U 061555Z AUTO 35003KT 10SM 02/00 A2965 RMK A01,M
MEV,2024-02-06 15:55,-119.7500,38.9963,1441.42,32.00,32.00,100.00,200.00,3.00,0.00,29.67,M,0.50,M,OVC,M,M,M,400.00,M,M,M,-SN BR,M,M,M,M,M,M,28.69,KMEV 061555Z AUTO 20003KT 1/2SM -SN BR OVC004 00/00 A2967 RMK AO2,M
BAM,2024-02-06 15:55,-116.8743,40.5990,1382.36,37.40,35.60,93.14,40.00,9.00,0.00,29.65,M,10.00,M,BKN,BKN,OVC,M,3100.00,5000.00,7500.00,M,M,M,M,M,M,M,M,30.23,KBAM 061555Z AUTO 04009KT 10SM BKN031 BKN050 OVC075 03/02 A2965 RMK AO1,M
RTS,2024-02-06 15:55,-119.8764,39.6682,1539.00,30.20,28.40,92.92,240.00,4.00,0.00,29.67,M,9.00,M,FEW,BKN,OVC,M,1600.00,2500.00,4500.00,M,M,M,M,M,M,M,M,25.32,KRTS 061555Z AUTO 24004KT 9SM FEW016 BKN025 OVC045 M01/M02 A2967 RMK AO2,M
HTH,2024-02-06 15:55,-118.6315,38.5448,1282.89,35.60,35.60,100.00,300.00,7.00,0.01,29.68,M,6.00,M,FEW,M,M,M,800.00,M,M,M,BR,M,M,M,M,M,M,29.17,KHTH 061555Z AUTO 30007KT 6SM BR FEW008 02/02 A2968 RMK A01 P0001,M
LSV,2024-02-06 15:55,-115.0343,36.2362,570.00,46.40,42.80,87.19,30.00,3.00,0.00,29.66,1004.10,10.00,M,FEW,M,M,M,8000.00,M,M,M,M,M,M,M,M,M,M,45.15,KLSV 061555Z AUTO 03003KT 10SM FEW080 08/06 A2966 RMK AO2 SLP041 T00800060 $,M
TMT,2024-02-06 15:55,-117.1971,39.4643,1749.34,32.00,32.00,100.00,0.00,0.00,0.01,29.61,M,3.00,M,SCT,BKN,OVC,M,500.00,4800.00,5000.00,M,UP,M,M,M,M,M,M,32.00,KTMT 061555Z AUTO 00000KT 3SM UP SCT005 BKN048 OVC050 00/00 A2961 RMK AO2 P0001 T00000000,M
EKO,2024-02-06 15:56,-115.7860,40.8242,1367.00,37.00,34.00,88.78,40.00,3.00,T,29.66,1003.80,9.00,M,OVC,M,M,M,2700.00,M,M,M,-RA,M,M,M,M,M,M,34.40,KEKO 061556Z AUTO 04003KT 9SM -RA OVC027 03/01 A2966 RMK AO2 UPB45E54RAB54 SLP038 P0000 T00280011 $,M
WMC,2024-02-06 15:56,-117.8072,40.9019,1315.00,34.00,30.00,85.11,360.00,3.00,0.02,29.66,1004.50,1.25,M,FEW,OVC,M,M,800.00,1500.00,M,M,-SN BR,M,M,M,M,M,M,30.97,KWMC 061556Z AUTO 36003KT 1 1/4SM -SN BR FEW008 OVC015 01/M01 A2966 RMK AO2 RAB02E16UPB03E10SNB16 SLP045 P0002 T00111011,M
HND,2024-02-06 15:56,-115.1344,35.9729,742.79,45.00,41.00,85.77,160.00,4.00,T,29.70,1007.50,10.00,M,BKN,BKN,OVC,M,5500.00,7000.00,9000.00,M,-RA,M,M,M,M,M,M,42.60,KHND 061556Z 16004KT 10SM -RA BKN055 BKN070 OVC090 07/05 A2970 RMK AO2 RAB55 SLP075 P0000 T00720050,M
TPH,2024-02-06 15:56,-117.0904,38.0505,1654.00,32.00,32.00,100.00,0.00,0.00,0.02,29.63,1003.20,1.00,M,VV ,M,M,M,800.00,M,M,M,-SN BR,M,M,M,M,M,M,32.00,KTPH 061556Z AUTO 00000KT 1SM -SN BR VV008 00/00 A2963 RMK AO2 SLP032 P0002 T00000000,M
LAS,2024-02-06 15:56,-115.1634,36.0719,663.00,46.00,43.00,89.20,0.00,0.00,T,29.68,1004.70,8.00,M,FEW,BKN,OVC,M,4000.00,7000.00,9000.00,M,-RA,M,M,M,M,M,M,46.00,KLAS 061556Z 00000KT 8SM -RA FEW040 BKN070 OVC090 08/06 A2968 RMK AO2 RAB51 SLP047 P0000 T00780061 $,M
NFL,2024-02-06 15:56,-118.7010,39.4166,1199.00,35.00,33.00,92.32,300.00,4.00,T,29.65,1002.40,7.00,M,BKN,OVC,M,M,1000.00,1500.00,M,M,-RA,M,M,M,M,M,M,30.92,KNFL 061556Z 30004KT 7SM -RA BKN010 OVC015 02/01 A2965 RMK AO2 SNB1458E48 SLP024 WR// P0000 T00170006,M
TPH,2024-02-06 16:05,-117.0904,38.0505,1654.00,32.00,32.00,100.00,0.00,0.00,0.01,29.63,M,0.75,M,VV ,M,M,M,800.00,M,M,M,-SN BR,M,M,M,M,M,M,32.00,KTPH 061605Z AUTO 00000KT 3/4SM -SN BR VV008 00/00 A2963 RMK AO2 P0001 T00000000,M
WMC,2024-02-06 16:07,-117.8072,40.9019,1315.00,33.00,30.00,88.58,340.00,4.00,T,29.65,M,2.00,M,FEW,OVC,M,M,800.00,1500.00,M,M,-SN BR,M,M,M,M,M,M,28.59,KWMC 061607Z AUTO 34004KT 2SM -SN BR FEW008 OVC015 01/M01 A2965 RMK AO2 P0000 T00061011,M
TMT,2024-02-06 16:15,-117.1971,39.4643,1749.34,32.00,32.00,100.00,0.00,0.00,0.00,29.61,M,1.25,M,BKN,OVC,M,M,300.00,1000.00,M,M,-RA,M,M,M,M,M,M,32.00,KTMT 061615Z AUTO 00000KT 1 1/4SM -RA BKN003 OVC010 00/00 A2961 RMK AO2 T00000000,M
BVU,2024-02-06 16:15,-114.8611,35.9475,671.00,44.60,42.80,93.35,20.00,5.00,0.00,29.68,M,10.00,M,FEW,SCT,OVC,M,5000.00,7000.00,9000.00,M,M,M,M,M,M,M,M,41.36,KBVU 061615Z AUTO 02005KT 10SM FEW050 SCT070 OVC090 07/06 A2968 RMK AO2,M
BAM,2024-02-06 16:15,-116.8743,40.5990,1382.36,37.40,35.60,93.14,40.00,9.00,0.00,29.64,M,10.00,M,BKN,OVC,M,M,2700.00,3300.00,M,M,M,M,M,M,M,M,M,30.23,KBAM 061615Z AUTO 04009KT 10SM BKN027 OVC033 03/02 A2964 RMK AO1,M
CXP,2024-02-06 16:15,-119.7326,39.1923,1431.00,35.60,33.80,93.08,0.00,0.00,0.00,29.68,M,10.00,M,FEW,BKN,OVC,M,600.00,1100.00,3600.00,M,M,M,M,M,M,M,M,35.60,KCXP 061615Z AUTO 00000KT 10SM FEW006 BKN011 OVC036 02/01 A2968 RMK AO2,M
RTS,2024-02-06 16:15,-119.8764,39.6682,1539.00,30.20,30.20,100.00,0.00,0.00,0.00,29.67,M,7.00,M,BKN,OVC,M,M,900.00,2400.00,M,M,-UP,M,M,M,M,M,M,30.20,KRTS 061615Z AUTO 00000KT 7SM -UP BKN009 OVC024 M01/M01 A2967 RMK AO2,M
05U,2024-02-06 16:15,-116.0051,39.6042,1811.23,35.60,32.00,86.59,10.00,5.00,0.00,29.64,M,10.00,M,M,M,M,M,M,M,M,M,M,M,M,M,M,M,M,30.67,K05U 061615Z AUTO 01005KT 10SM 02/M00 A2964 RMK A01,M
MEV,2024-02-06 16:15,-119.7500,38.9963,1441.42,32.00,32.00,100.00,230.00,3.00,0.00,29.67,M,2.00,M,FEW,BKN,OVC,M,300.00,800.00,1600.00,M,UP BR,M,M,M,M,M,M,28.69,KMEV 061615Z AUTO 23003KT 2SM UP BR FEW003 BKN008 OVC016 00/00 A2967 RMK AO2,M
HTH,2024-02-06 16:15,-118.6315,38.5448,1282.89,35.60,35.60,100.00,320.00,6.00,0.00,29.66,M,7.00,M,BKN,M,M,M,600.00,M,M,M,M,M,M,M,M,M,M,29.87,KHTH 061615Z AUTO 32006KT 7SM BKN006 02/02 A2966 RMK A01,M
LSV,2024-02-06 16:16,-115.0343,36.2362,570.00,46.40,42.80,87.19,30.00,3.00,0.00,29.66,1004.10,10.00,M,FEW,M,M,M,8000.00,M,M,M,M,M,M,M,M,M,M,45.15,KLSV 061616Z AUTO 03003KT 10SM FEW080 08/06 A2966 RMK AO2 SLP041 T00800060 $,M
WMC,2024-02-06 16:17,-117.8072,40.9019,1315.00,33.00,30.00,88.58,330.00,5.00,0.01,29.65,M,2.50,M,FEW,OVC,M,M,800.00,1300.00,M,M,-SN BR,M,M,M,M,M,M,27.58,KWMC 061617Z AUTO 33005KT 2 1/2SM -SN BR FEW008 OVC013 01/M01 A2965 RMK AO2 P0001 T00061011,M
NFL,2024-02-06 16:19,-118.7010,39.4166,1199.00,35.00,33.00,92.32,280.00,4.00,T,29.66,M,4.00,M,BKN,OVC,M,M,700.00,1300.00,M,M,-RASN,M,M,M,M,M,M,30.92,KNFL 061619Z 28004KT 4SM -RASN BKN007 OVC013 02/01 A2966 RMK AO2 SNB16 P0000 T00170006,M
EKO,2024-02-06 16:22,-115.7860,40.8242,1367.00,37.00,34.00,88.78,0.00,0.00,0.01,29.65,M,10.00,M,BKN,BKN,OVC,M,1100.00,2300.00,2900.00,M,-RA,M,M,M,M,M,M,37.00,KEKO 061622Z AUTO 00000KT 10SM -RA BKN011 BKN023 OVC029 03/01 A2965 RMK AO2 P0001 T00280011 $,M
WMC,2024-02-06 16:25,-117.8072,40.9019,1315.00,33.00,30.00,88.58,330.00,4.00,0.01,29.65,M,3.00,M,OVC,M,M,M,1300.00,M,M,M,-SN BR,M,M,M,M,M,M,28.59,KWMC 061625Z AUTO 33004KT 3SM -SN BR OVC013 01/M01 A2965 RMK AO2 P0001 T00061011,M
LSV,2024-02-06 16:27,-115.0343,36.2362,570.00,46.40,42.80,87.19,60.00,6.00,0.00,29.66,1004.10,10.00,M,FEW,M,M,M,6000.00,M,M,M,-RA,M,M,M,M,M,M,42.87,KLSV 061627Z AUTO 06006KT 10SM -RA FEW060 08/06 A2966 RMK AO2 RAB27 SLP041 $,M
LSV,2024-02-06 16:30,-115.0343,36.2362,570.00,46.40,42.80,87.19,50.00,4.00,T,29.66,1004.10,10.00,M,FEW,M,M,M,6000.00,M,M,M,-RA,M,M,M,M,M,M,44.24,KLSV 061630Z 05004KT 10SM -RA FEW060 08/06 A2966 RMK RAB27 SLP041 P0000,M
WMC,2024-02-06 16:32,-117.8072,40.9019,1315.00,33.00,30.00,88.58,320.00,3.00,0.01,29.64,M,1.75,M,OVC,M,M,M,1200.00,M,M,M,-SN BR,M,M,M,M,M,M,29.83,KWMC 061632Z AUTO 32003KT 1 3/4SM -SN BR OVC012 01/M01 A2964 RMK AO2 P0001 T00061011,M
TPH,2024-02-06 16:33,-117.0904,38.0505,1654.00,33.00,32.00,96.06,0.00,0.00,0.04,29.62,M,0.50,M,VV ,M,M,M,1100.00,M,M,M,SN FG,M,M,M,M,M,M,33.00,KTPH 061633Z AUTO 00000KT 1/2SM SN FG VV011 01/00 A2962 RMK AO2 P0004 T00060000,M
CXP,2024-02-06 16:35,-119.7326,39.1923,1431.00,33.80,32.00,93.03,0.00,0.00,0.00,29.68,M,10.00,M,FEW,FEW,OVC,M,600.00,1200.00,3700.00,M,M,M,M,M,M,M,M,33.80,KCXP 061635Z AUTO 00000KT 10SM FEW006 FEW012 OVC037 01/00 A2968 RMK AO2,M
RTS,2024-02-06 16:35,-119.8764,39.6682,1539.00,32.00,30.20,92.97,230.00,3.00,0.00,29.68,M,10.00,M,BKN,OVC,M,M,900.00,1600.00,M,M,M,M,M,M,M,M,M,28.69,KRTS 061635Z AUTO 23003KT 10SM BKN009 OVC016 M00/M01 A2968 RMK AO2,M
05U,2024-02-06 16:35,-116.0051,39.6042,1811.23,37.40,32.00,80.65,270.00,8.00,0.00,29.64,M,10.00,M,M,M,M,M,M,M,M,M,M,M,M,M,M,M,M,30.76,K05U 061635Z AUTO 27008KT 10SM 03/M00 A2964 RMK A01,M
MEV,2024-02-06 16:35,-119.7500,38.9963,1441.42,32.00,32.00,100.00,230.00,4.00,0.00,29.67,M,6.00,M,BKN,OVC,M,M,900.00,1400.00,M,M,BR,M,M,M,M,M,M,27.42,KMEV 061635Z AUTO 23004KT 6SM BR BKN009 OVC014 00/00 A2967 RMK AO2,M
BAM,2024-02-06 16:35,-116.8743,40.5990,1382.36,37.40,35.60,93.14,40.00,7.00,0.00,29.64,M,10.00,M,SCT,BKN,OVC,M,1700.00,2500.00,3000.00,M,M,M,M,M,M,M,M,31.36,KBAM 061635Z AUTO 04007KT 10SM SCT017 BKN025 OVC030 03/02 A2964 RMK AO1,M
HTH,2024-02-06 16:35,-118.6315,38.5448,1282.89,35.60,35.60,100.00,320.00,7.00,0.00,29.67,M,6.00,M,BKN,M,M,M,500.00,M,M,M,BR,M,M,M,M,M,M,29.17,KHTH 061635Z AUTO 32007KT 6SM BR BKN005 02/02 A2967 RMK A01,M
TMT,2024-02-06 16:35,-117.1971,39.4643,1749.34,32.00,32.00,100.00,0.00,0.00,0.00,29.61,M,5.00,M,OVC,M,M,M,300.00,M,M,M,BR,M,M,M,M,M,M,32.00,KTMT 061635Z AUTO 00000KT 5SM BR OVC003 00/00 A2961 RMK AO2 T00000000,M
BVU,2024-02-06 16:35,-114.8611,35.9475,671.00,46.40,42.80,87.19,0.00,0.00,0.00,29.67,M,10.00,M,BKN,BKN,OVC,M,6000.00,7500.00,9000.00,M,M,M,M,M,M,M,M,46.40,KBVU 061635Z AUTO 00000KT 10SM BKN060 BKN075 OVC090 08/06 A2967 RMK AO2,M
EKO,2024-02-06 16:37,-115.7860,40.8242,1367.00,37.00,34.00,88.78,50.00,3.00,0.02,29.64,M,10.00,M,BKN,OVC,M,M,800.00,2600.00,M,M,-RA,M,M,M,M,M,M,34.40,KEKO 061637Z AUTO 05003KT 10SM -RA BKN008 OVC026 03/01 A2964 RMK AO2 P0002 T00280011 $,M
LSV,2024-02-06 16:39,-115.0343,36.2362,570.00,46.40,42.80,87.19,30.00,3.00,0.00,29.66,1004.10,10.00,M,FEW,M,M,M,6000.00,M,M,M,M,M,M,M,M,M,M,45.15,KLSV 061639Z AUTO 03003KT 10SM FEW060 08/06 A2966 RMK AO2 RAB27E39 SLP041 $,M
LOL,2024-02-06 16:40,-118.5701,40.0684,1192.43,36.00,34.00,92.35,0.00,0.00,0.02,29.65,M,10.00,M,SCT,BKN,OVC,M,900.00,1700.00,2800.00,M,-RA,M,M,M,M,M,M,36.00,KLOL 061640Z AUTO 00000KT 10SM -RA SCT009 BKN017 OVC028 02/01 A2965 RMK AO2 P0002 T00220011,M
CXP,2024-02-06 16:50,-119.7326,39.1923,1431.00,35.60,32.00,86.59,0.00,0.00,0.00,29.67,M,10.00,M,OVC,M,M,M,3800.00,M,M,M,M,M,M,M,M,M,M,35.60,KCXP 061650Z AUTO 00000KT 10SM OVC038 02/M00 A2967 RMK AO2,M
05U,2024-02-06 16:50,-116.0051,39.6042,1811.23,37.40,32.00,80.65,310.00,10.00,0.00,29.64,M,10.00,M,M,M,M,M,M,M,M,M,M,M,M,M,M,M,M,29.74,K05U 061650Z AUTO 31010KT 10SM 03/00 A2964 RMK A01,M
INS,2024-02-06 16:50,-115.6733,36.5872,955.00,41.00,39.20,93.24,80.00,3.00,0.00,29.66,1003.70,10.00,M,SCT,SCT,BKN,BKN,400.00,1300.00,2100.00,5000.00,-RA,M,M,M,M,M,M,38.98,KINS 061650Z AUTO 08003KT 10SM -RA SCT004 SCT013 BKN021 BKN050 OVC110 05/04 A2966 RMK AO2 SLP037,M
LOL,2024-02-06 16:51,-118.5701,40.0684,1192.43,35.60,35.60,100.00,0.00,0.00,0.02,29.65,M,10.00,M,BKN,OVC,M,M,900.00,1700.00,M,M,-RA,M,M,M,M,M,M,35.60,KLOL 061651Z AUTO 00000KT 10SM -RA BKN009 OVC017 02/02 A2965 RMK AO2 P0002,M
P68,2024-02-06 16:53,-116.0056,39.6014,1993.00,38.00,31.00,75.65,150.00,10.00,0.00,29.61,1000.80,M,20.00,M,M,M,M,M,M,M,M,M,M,M,M,M,M,M,30.49,KP68 061653Z AUTO 15010G20KT 03/M01 A2961 RMK AO1 SLP008 T00331006 $,M
ELY,2024-02-06 16:53,-114.8453,39.2950,1909.00,36.00,29.00,75.46,150.00,15.00,0.00,29.65,1002.60,10.00,M,SCT,BKN,BKN,M,5500.00,7000.00,11000.00,M,M,M,M,M,32.00,150.00,2024-02-06 16:21,25.97,KELY 061653Z AUTO 15015KT 10SM SCT055 BKN070 BKN110 02/M02 A2965 RMK AO2 PK WND 15032/1621 SLP026 T00221017,M
DRA,2024-02-06 16:53,-116.0278,36.6206,1009.00,41.00,40.00,96.19,230.00,5.00,0.05,29.65,1003.10,10.00,M,BKN,OVC,M,M,3700.00,4700.00,M,M,-RA,M,M,M,M,M,M,37.08,KDRA 061653Z AUTO 23005KT 10SM -RA BKN037 OVC047 05/04 A2965 RMK AO2 SLP031 P0005 T00500044,M
VGT,2024-02-06 16:53,-115.1933,36.2111,667.00,47.00,42.00,82.65,40.00,5.00,0.01,29.68,1006.70,10.00,M,OVC,M,M,M,5000.00,M,M,M,-RA,M,M,M,M,M,M,44.21,KVGT 061653Z 04005KT 10SM -RA OVC050 08/06 A2968 RMK AO2 SLP067 P0001 T00830056,M
LOL,2024-02-06 16:53,-118.5701,40.0684,1192.43,36.00,35.00,96.11,0.00,0.00,0.02,29.65,1004.70,10.00,M,BKN,OVC,M,M,900.00,1700.00,M,M,-RA,M,M,M,M,M,M,36.00,KLOL 061653Z AUTO 00000KT 10SM -RA BKN009 OVC017 02/02 A2965 RMK AO2 SLP047 P0002 T00220017,M
RTS,2024-02-06 16:55,-119.8764,39.6682,1539.00,32.00,30.20,92.97,300.00,3.00,0.00,29.67,M,10.00,M,FEW,OVC,M,M,1000.00,1500.00,M,M,M,M,M,M,M,M,M,28.69,KRTS 061655Z AUTO 30003KT 10SM FEW010 OVC015 00/M01 A2967 RMK AO2,M
MEV,2024-02-06 16:55,-119.7500,38.9963,1441.42,33.80,33.80,100.00,0.00,0.00,0.01,29.67,M,4.00,M,BKN,BKN,M,M,600.00,1400.00,M,M,BR,M,M,M,M,M,M,33.80,KMEV 061655Z AUTO 00000KT 4SM BR BKN006 BKN014 01/01 A2967 RMK AO2 P0001,M
BAM,2024-02-06 16:55,-116.8743,40.5990,1382.36,37.40,35.60,93.14,40.00,7.00,0.00,29.63,M,10.00,M,SCT,SCT,OVC,M,2400.00,2900.00,3500.00,M,M,M,M,M,M,M,M,31.36,KBAM 061655Z AUTO 04007KT 10SM SCT024 SCT029 OVC035 03/02 A2963 RMK AO1,M
HTH,2024-02-06 16:55,-118.6315,38.5448,1282.89,35.60,35.60,100.00,310.00,5.00,0.03,29.66,M,7.00,M,BKN,M,M,M,600.00,M,M,M,M,M,M,M,M,M,M,30.67,KHTH 061655Z AUTO 31005KT 7SM BKN006 02/02 A2966 RMK A01 P0003,M
BVU,2024-02-06 16:55,-114.8611,35.9475,671.00,46.40,42.80,87.19,0.00,0.00,0.00,29.66,M,10.00,M,FEW,FEW,OVC,M,5500.00,7500.00,8500.00,M,M,M,M,M,M,M,M,46.40,KBVU 061655Z AUTO 00000KT 10SM FEW055 FEW075 OVC085 08/06 A2966 RMK AO2,M
INS,2024-02-06 16:55,-115.6733,36.5872,955.00,41.50,38.50,88.99,80.00,3.00,0.01,29.66,1003.70,10.00,M,FEW,SCT,BKN,BKN,400.00,1300.00,2100.00,5500.00,-RA,M,M,M,M,M,M,39.55,KINS 061655Z AUTO 08003KT 10SM -RA FEW004 SCT013 BKN021 BKN055 OVC100 05/04 A2966 RMK AO2 RAE53DZB53E54RAB54 SLP037 P0001 T00530036,M
RNO,2024-02-06 16:55,-119.7711,39.4839,1341.00,37.00,31.00,78.69,0.00,0.00,0.00,29.66,1004.10,10.00,M,FEW,BKN,OVC,M,1500.00,3000.00,6500.00,M,M,M,M,M,M,M,M,37.00,KRNO 061655Z 00000KT 10SM FEW015 BKN030 OVC065 03/M01 A2966 RMK AO2 SLP041 T00281006,M
LSV,2024-02-06 16:55,-115.0343,36.2362,570.00,47.30,43.00,84.92,10.00,5.00,T,29.65,1003.80,10.00,M,FEW,M,M,M,6500.00,M,M,M,M,M,M,M,M,M,M,44.57,KLSV 061655Z AUTO 01005KT 10SM FEW065 09/06 A2965 RMK AO2 RAB27E39 SLP038 P0000 T00850061 $,M
TMT,2024-02-06 16:55,-117.1971,39.4643,1749.34,32.00,32.00,100.00,0.00,0.00,0.00,29.62,M,5.00,M,OVC,M,M,M,300.00,M,M,M,UP,M,M,M,M,M,M,32.00,KTMT 061655Z AUTO 00000KT 5SM UP OVC003 00/00 A2962 RMK AO2 T00000000,M
EKO,2024-02-06 16:56,-115.7860,40.8242,1367.00,36.00,33.00,88.73,M,3.00,0.02,29.64,1003.60,10.00,M,BKN,OVC,M,M,700.00,2300.00,M,M,-RA,M,M,M,M,M,M,33.26,KEKO 061656Z AUTO VRB03KT 10SM -RA BKN007 OVC023 02/01 A2964 RMK AO2 UPB52E54 SLP036 P0002 T00220006 $,M
NFL,2024-02-06 16:56,-118.7010,39.4166,1199.00,35.00,33.00,92.32,280.00,3.00,T,29.65,1002.40,5.00,M,BKN,OVC,M,M,500.00,1000.00,M,M,-RA BR,M,M,M,M,M,M,32.12,KNFL 061656Z 28003KT 5SM -RA BR BKN005 OVC010 02/01 A2965 RMK AO2 SNB16E54 SLP024 P0000 T00170006,M
TPH,2024-02-06 16:56,-117.0904,38.0505,1654.00,33.00,32.00,96.06,100.00,3.00,0.05,29.62,1002.70,0.75,M,VV ,M,M,M,1300.00,M,M,M,-SN BR,M,M,M,M,M,M,29.83,KTPH 061656Z AUTO 10003KT 3/4SM -SN BR VV013 01/00 A2962 RMK AO2 SLP027 P0005 T00060000,M
LAS,2024-02-06 16:56,-115.1634,36.0719,663.00,47.00,42.00,82.65,0.00,0.00,T,29.68,1004.90,8.00,M,FEW,BKN,OVC,M,4000.00,5500.00,7000.00,M,M,M,M,M,M,M,M,47.00,KLAS 061656Z 00000KT 8SM FEW040 BKN055 OVC070 08/06 A2968 RMK AO2 RAE16B34E50 SLP049 P0000 T00830056 $,M
WMC,2024-02-06 16:56,-117.8072,40.9019,1315.00,34.00,31.00,88.63,0.00,0.00,0.02,29.63,1003.50,3.00,M,OVC,M,M,M,900.00,M,M,M,-SN BR,M,M,M,M,M,M,34.00,KWMC 061656Z AUTO 00000KT 3SM -SN BR OVC009 01/M01 A2963 RMK AO2 CIG 005V012 SLP035 P0002 T00111006,M
HND,2024-02-06 16:56,-115.1344,35.9729,742.79,46.00,42.00,85.83,0.00,0.00,T,29.69,1007.20,10.00,M,BKN,OVC,M,M,4800.00,6000.00,M,M,-RA,M,M,M,M,M,M,46.00,KHND 061656Z 00000KT 10SM -RA BKN048 OVC060 08/06 A2969 RMK AO2 RAE14B32 SLP072 P0000 T00780056,M
TPH,2024-02-06 17:04,-117.0904,38.0505,1654.00,33.00,32.00,96.06,100.00,3.00,0.01,29.62,M,1.00,M,VV ,M,M,M,1300.00,M,M,M,-SN BR,M,M,M,M,M,M,29.83,KTPH 061704Z AUTO 10003KT 1SM -SN BR VV013 01/00 A2962 RMK AO2 P0001 T00060000,M
INS,2024-02-06 17:10,-115.6733,36.5872,955.00,42.80,39.20,86.99,0.00,0.00,0.00,29.65,1003.10,10.00,M,FEW,SCT,SCT,BKN,400.00,1400.00,2000.00,3500.00,-RA,M,M,M,M,M,M,42.80,KINS 061710Z AUTO 00000KT 10SM -RA FEW004 SCT014 SCT020 BKN035 06/04 A2965 RMK AO2 SLP031,M
05U,2024-02-06 17:10,-116.0051,39.6042,1811.23,37.40,32.00,80.65,300.00,8.00,0.00,29.64,M,10.00,M,M,M,M,M,M,M,M,M,M,M,M,M,M,M,M,30.76,K05U 061710Z AUTO 30008KT 10SM 03/00 A2964 RMK A01,M
RNO,2024-02-06 17:12,-119.7711,39.4839,1341.00,37.00,31.00,78.69,10.00,3.00,T,29.66,M,10.00,M,BKN,OVC,M,M,2500.00,6000.00,M,M,-RA,M,M,M,M,M,M,34.40,KRNO 061712Z 01003KT 10SM -RA BKN025 OVC060 03/M01 A2966 RMK AO2 RAB04 P0000 T00281006,M
EKO,2024-02-06 17:14,-115.7860,40.8242,1367.00,37.00,33.00,85.29,80.00,4.00,0.01,29.64,M,10.00,M,SCT,OVC,M,M,700.00,2000.00,M,M,-RA,M,M,M,M,M,M,33.26,KEKO 061714Z AUTO 08004KT 10SM -RA SCT007 OVC020 03/01 A2964 RMK AO2 P0001 T00280006 $,M
BVU,2024-02-06 17:15,-114.8611,35.9475,671.00,48.20,42.80,81.47,230.00,4.00,0.00,29.67,M,10.00,M,SCT,BKN,OVC,M,5000.00,6500.00,8500.00,M,M,M,M,M,M,M,M,46.34,KBVU 061715Z AUTO 23004KT 10SM SCT050 BKN065 OVC085 09/06 A2967 RMK AO2,M
CXP,2024-02-06 17:15,-119.7326,39.1923,1431.00,35.60,32.00,86.59,0.00,0.00,0.00,29.67,M,10.00,M,OVC,M,M,M,4100.00,M,M,M,M,M,M,M,M,M,M,35.60,KCXP 061715Z AUTO 00000KT 10SM OVC041 02/M00 A2967 RMK AO2,M
RTS,2024-02-06 17:15,-119.8764,39.6682,1539.00,33.80,30.20,86.49,300.00,4.00,0.00,29.67,M,10.00,M,BKN,OVC,M,M,1400.00,2700.00,M,M,M,M,M,M,M,M,M,29.52,KRTS 061715Z AUTO 30004KT 10SM BKN014 OVC027 01/M01 A2967 RMK AO2,M
MEV,2024-02-06 17:15,-119.7500,38.9963,1441.42,33.80,33.80,100.00,0.00,0.00,0.00,29.67,M,7.00,M,OVC,M,M,M,700.00,M,M,M,M,M,M,M,M,M,M,33.80,KMEV 061715Z AUTO 00000KT 7SM OVC007 01/01 A2967 RMK AO2,M
BAM,2024-02-06 17:15,-116.8743,40.5990,1382.36,37.40,37.40,100.00,50.00,10.00,0.00,29.63,M,10.00,M,SCT,OVC,M,M,3500.00,6500.00,M,M,M,M,M,M,M,M,M,29.74,KBAM 061715Z AUTO 05010KT 10SM SCT035 OVC065 03/03 A2963 RMK AO1,M
HTH,2024-02-06 17:15,-118.6315,38.5448,1282.89,35.60,35.60,100.00,M,3.00,0.00,29.67,M,6.00,M,BKN,M,M,M,600.00,M,M,M,BR,M,M,M,M,M,M,32.80,KHTH 061715Z AUTO VRB03KT 6SM BR BKN006 02/02 A2967 RMK A01,M
TMT,2024-02-06 17:15,-117.1971,39.4643,1749.34,32.00,32.00,100.00,0.00,0.00,0.00,29.61,M,3.00,M,OVC,M,M,M,300.00,M,M,M,UP,M,M,M,M,M,M,32.00,KTMT 061715Z AUTO 00000KT 3SM UP OVC003 00/00 A2961 RMK AO2 T00010001,M
TPH,2024-02-06 17:16,-117.0904,38.0505,1654.00,33.00,32.00,96.06,0.00,0.00,0.02,29.61,M,0.75,M,VV ,M,M,M,1300.00,M,M,M,-SN BR,M,M,M,M,M,M,33.00,KTPH 061716Z AUTO 00000KT 3/4SM -SN BR VV013 01/00 A2961 RMK AO2 P0002 T00060000,M
EKO,2024-02-06 17:24,-115.7860,40.8242,1367.00,37.00,34.00,88.78,90.00,4.00,0.01,29.63,M,10.00,M,BKN,BKN,OVC,M,700.00,2000.00,3400.00,M,-RA,M,M,M,M,M,M,33.26,KEKO 061724Z AUTO 09004KT 10SM -RA BKN007 BKN020 OVC034 03/01 A2963 RMK AO2 P0001 T00280011 $,M
LOL,2024-02-06 17:26,-118.5701,40.0684,1192.43,35.00,34.00,96.09,90.00,5.00,0.02,29.64,M,7.00,M,SCT,SCT,OVC,M,700.00,1400.00,2600.00,M,-RA,M,M,M,M,M,M,29.96,KLOL 061726Z AUTO 09005KT 7SM -RA SCT007 SCT014 OVC026 02/01 A2964 RMK AO2 P0002 T00170011,M
TPH,2024-02-06 17:26,-117.0904,38.0505,1654.00,33.00,32.00,96.06,0.00,0.00,0.02,29.61,M,1.00,M,VV ,M,M,M,1500.00,M,M,M,-SN BR,M,M,M,M,M,M,33.00,KTPH 061726Z AUTO 00000KT 1SM -SN BR VV015 01/00 A2961 RMK AO2 P0002 T00060000,M
TPH,2024-02-06 17:31,-117.0904,38.0505,1654.00,33.00,32.00,96.06,110.00,3.00,0.02,29.61,M,0.75,M,VV ,M,M,M,1400.00,M,M,M,-SN BR,M,M,M,M,M,M,29.83,KTPH 061731Z AUTO 11003KT 3/4SM -SN BR VV014 01/00 A2961 RMK AO2 P0002 T00060000,M
BVU,2024-02-06 17:35,-114.8611,35.9475,671.00,48.20,41.00,76.01,230.00,7.00,0.00,29.67,M,10.00,M,SCT,OVC,M,M,5000.00,6500.00,M,M,M,M,M,M,M,M,M,44.53,KBVU 061735Z AUTO 23007KT 10SM SCT050 OVC065 09/05 A2967 RMK AO2,M
CXP,2024-02-06 17:35,-119.7326,39.1923,1431.00,35.60,32.00,86.59,180.00,5.00,0.00,29.68,M,10.00,M,OVC,M,M,M,4200.00,M,M,M,M,M,M,M,M,M,M,30.67,KCXP 061735Z AUTO 18005KT 10SM OVC042 02/00 A2968 RMK AO2,M
RTS,2024-02-06 17:35,-119.8764,39.6682,1539.00,33.80,30.20,86.49,290.00,5.00,0.00,29.66,M,10.00,M,BKN,BKN,M,M,1500.00,2700.00,M,M,M,M,M,M,M,M,M,28.53,KRTS 061735Z AUTO 29005KT 10SM BKN015 BKN027 01/M01 A2966 RMK AO2,M
05U,2024-02-06 17:35,-116.0051,39.6042,1811.23,37.40,32.00,80.65,290.00,9.00,0.00,29.63,M,8.00,M,M,M,M,M,M,M,M,M,M,M,M,M,M,M,M,30.23,K05U 061735Z AUTO 29009KT 8SM 03/00 A2963 RMK A01,M
MEV,2024-02-06 17:35,-119.7500,38.9963,1441.42,33.80,33.80,100.00,0.00,0.00,0.00,29.67,M,9.00,M,OVC,M,M,M,600.00,M,M,M,M,M,M,M,M,M,M,33.80,KMEV 061735Z AUTO 00000KT 9SM OVC006 01/01 A2967 RMK AO2,M
BAM,2024-02-06 17:35,-116.8743,40.5990,1382.36,39.20,37.40,93.19,40.00,8.00,0.00,29.63,M,10.00,M,SCT,OVC,M,M,3200.00,5500.00,M,M,M,M,M,M,M,M,M,32.98,KBAM 061735Z AUTO 04008KT 10SM SCT032 OVC055 04/03 A2963 RMK AO1,M
HTH,2024-02-06 17:35,-118.6315,38.5448,1282.89,35.60,35.60,100.00,0.00,0.00,0.00,29.67,M,6.00,M,BKN,M,M,M,600.00,M,M,M,BR,M,M,M,M,M,M,35.60,KHTH 061735Z AUTO 00000KT 6SM BR BKN006 02/02 A2967 RMK A01,M
TMT,2024-02-06 17:35,-117.1971,39.4643,1749.34,32.50,32.50,100.00,0.00,0.00,0.00,29.60,M,5.00,M,OVC,M,M,M,300.00,M,M,M,UP,M,M,M,M,M,M,32.50,KTMT 061735Z AUTO 00000KT 5SM UP OVC003 00/00 A2960 RMK AO2 T00030003,M
RNO,2024-02-06 17:38,-119.7711,39.4839,1341.00,36.00,31.00,81.86,0.00,0.00,0.01,29.66,M,9.00,M,BKN,OVC,M,M,2200.00,6000.00,M,M,-SNRA,M,M,M,M,M,M,36.00,KRNO 061738Z 00000KT 9SM -SNRA BKN022 OVC060 02/M01 A2966 RMK AO2 RAB04SNB38 P0001 T00221006,M
INS,2024-02-06 17:40,-115.6733,36.5872,955.00,M,M,M,0.00,0.00,0.00,29.65,M,10.00,M,M,M,M,M,M,M,M,M,M,M,M,M,M,M,M,M,KINS 061740Z AUTO 00000KT 10SM M M A2965 RMK AO2 RAE22DZB22E40 SLPNO ALSTG ESTMD RVRNO VISNO RWY26 $,M
WMC,2024-02-06 17:41,-117.8072,40.9019,1315.00,35.00,32.00,88.68,360.00,6.00,T,29.63,M,10.00,M,SCT,BKN,OVC,M,600.00,1700.00,4700.00,M,-RA,M,M,M,M,M,M,29.14,KWMC 061741Z AUTO 36006KT 10SM -RA SCT006 BKN017 OVC047 02/00 A2963 RMK AO2 UPB23E26RAB26SNE23 P0000 T00170000,M
INS,2024-02-06 17:41,-115.6733,36.5872,955.00,M,M,M,0.00,0.00,0.00,29.65,M,10.00,M,M,M,M,M,M,M,M,M,-RA,M,M,M,M,M,M,M,KINS 061741Z AUTO 00000KT 10SM -RA M M A2965 RMK AO2 RAE22DZB22E40RAB41 SLPNO ALSTG ESTMD RVRNO VISNO RWY26 $,M
NFL,2024-02-06 17:46,-118.7010,39.4166,1199.00,36.00,33.00,88.73,0.00,0.00,T,29.65,M,5.00,M,BKN,OVC,M,M,1000.00,2000.00,M,M,-RA BR,M,M,M,M,M,M,36.00,KNFL 061746Z 00000KT 5SM -RA BR BKN010 OVC020 02/01 A2965 RMK AO2 WR// P0000 T00220006,M
05U,2024-02-06 17:50,-116.0051,39.6042,1811.23,37.40,32.00,80.65,290.00,10.00,0.00,29.62,M,7.00,15.00,M,M,M,M,M,M,M,M,M,M,M,M,M,M,M,29.74,K05U 061750Z AUTO 29010G15KT 7SM 03/00 A2962 RMK A01,M
EKO,2024-02-06 17:51,-115.7860,40.8242,1367.00,37.40,33.80,86.69,60.00,7.00,0.01,29.63,M,10.00,M,SCT,OVC,M,M,700.00,7000.00,M,M,M,M,M,M,M,M,M,31.36,KEKO 061751Z AUTO 06007KT 10SM SCT007 OVC070 03/01 A2963 RMK AO2 RAE25UPB25E33 P0001 $,M
P68,2024-02-06 17:53,-116.0056,39.6014,1993.00,38.00,32.00,78.77,130.00,10.00,0.00,29.59,1000.00,M,M,M,M,M,M,M,M,M,M,M,M,M,M,M,M,M,30.49,KP68 061753Z AUTO 13010KT 03/00 A2959 RMK AO1 SLP000 T00330000 10033 20011 58010,M
DRA,2024-02-06 17:53,-116.0278,36.6206,1009.00,42.00,40.00,92.55,300.00,4.00,0.04,29.63,1002.50,10.00,M,OVC,M,M,M,3600.00,M,M,M,-RA,M,M,M,M,M,M,39.10,KDRA 061753Z AUTO 30004KT 10SM -RA OVC036 06/04 A2963 RMK AO2 SLP025 P0004 60012 T00560044 10061 20039 58010,M
ELY,2024-02-06 17:53,-114.8453,39.2950,1909.00,35.00,30.00,81.78,180.00,20.00,0.00,29.63,1002.30,10.00,27.00,FEW,FEW,SCT,M,3200.00,4200.00,5000.00,M,M,M,M,M,32.00,160.00,2024-02-06 17:14,23.12,KELY 061753Z AUTO 18020G27KT 10SM FEW032 FEW042 SCT050 02/M01 A2963 RMK AO2 PK WND 16032/1714 SLP023 T00171011 10028 20000 58009,M
VGT,2024-02-06 17:53,-115.1933,36.2111,667.00,47.00,43.00,85.89,300.00,5.00,0.02,29.67,1006.40,8.00,M,OVC,M,M,M,4700.00,M,M,M,-RA,M,M,M,M,M,M,44.21,KVGT 061753Z 30005KT 8SM -RA OVC047 08/06 A2967 RMK AO2 SLP064 P0002 60004 T00830061 10083 20078 58001,M
LOL,2024-02-06 17:53,-118.5701,40.0684,1192.43,34.00,34.00,100.00,110.00,3.00,0.03,29.63,1004.30,7.00,M,OVC,M,M,M,2300.00,M,M,M,-RA,M,M,M,M,M,M,30.97,KLOL 061753Z AUTO 11003KT 7SM -RA OVC023 01/01 A2963 RMK AO2 SLP043 P0003 60011 T00110011 10022 20011 58006,M
LSV,2024-02-06 17:55,-115.0343,36.2362,570.00,48.20,43.50,83.69,180.00,5.00,0.00,29.64,1003.50,10.00,M,BKN,M,M,M,5500.00,M,M,M,M,M,M,M,M,M,M,45.63,KLSV 061755Z 18005KT 10SM BKN055 09/06 A2964 RMK AO2A SLP035 60000 T00900064 10092 20074 58003 $,M
BVU,2024-02-06 17:55,-114.8611,35.9475,671.00,46.40,42.80,87.19,220.00,4.00,0.00,29.68,M,4.00,M,FEW,BKN,OVC,M,2900.00,4500.00,6500.00,M,HZ,M,M,M,M,M,M,44.24,KBVU 061755Z AUTO 22004KT 4SM HZ FEW029 BKN045 OVC065 08/06 A2968 RMK AO2,M
CXP,2024-02-06 17:55,-119.7326,39.1923,1431.00,35.60,32.00,86.59,200.00,3.00,0.00,29.67,M,10.00,M,OVC,M,M,M,4300.00,M,M,M,M,M,M,M,M,M,M,32.80,KCXP 061755Z AUTO 20003KT 10SM OVC043 02/00 A2967 RMK AO2,M
RTS,2024-02-06 17:55,-119.8764,39.6682,1539.00,33.80,30.20,86.49,280.00,4.00,0.00,29.66,M,10.00,M,FEW,SCT,BKN,M,1600.00,2800.00,5500.00,M,M,M,M,M,M,M,M,29.52,KRTS 061755Z AUTO 28004KT 10SM FEW016 SCT028 BKN055 01/M01 A2966 RMK AO2,M
MEV,2024-02-06 17:55,-119.7500,38.9963,1441.42,33.80,32.00,93.03,0.00,0.00,0.00,29.66,M,5.00,M,OVC,M,M,M,500.00,M,M,M,BR,M,M,M,M,M,M,33.80,KMEV 061755Z AUTO 00000KT 5SM BR OVC005 01/00 A2966 RMK AO2,M
BAM,2024-02-06 17:55,-116.8743,40.5990,1382.36,39.20,37.40,93.19,20.00,6.00,0.00,29.63,M,10.00,M,SCT,BKN,OVC,M,2500.00,4500.00,5000.00,M,M,M,M,M,M,M,M,34.20,KBAM 061755Z AUTO 02006KT 10SM SCT025 BKN045 OVC050 04/03 A2963 RMK AO1,M
HTH,2024-02-06 17:55,-118.6315,38.5448,1282.89,35.60,35.60,100.00,0.00,0.00,0.02,29.66,M,6.00,M,BKN,M,M,M,600.00,M,M,M,BR,M,M,M,M,M,M,35.60,KHTH 061755Z AUTO 00000KT 6SM BR BKN006 02/02 A2966 RMK A01 P0002,M
TMT,2024-02-06 17:55,-117.1971,39.4643,1749.34,33.00,33.00,100.00,0.00,0.00,0.00,29.59,M,7.00,M,OVC,M,M,M,300.00,M,M,M,UP,M,M,M,M,M,M,33.00,KTMT 061755Z AUTO 00000KT 7SM UP OVC003 01/01 A2959 RMK AO2 60001 T00050005 10006 21001,M
INS,2024-02-06 17:55,-115.6733,36.5872,955.00,43.00,39.40,87.00,0.00,0.00,0.01,29.64,1002.70,10.00,M,M,M,M,M,M,M,M,M,-DZ,M,M,M,M,M,M,43.00,KINS 061755Z AUTO 00000KT 10SM -DZ M 06/04 A2964 RMK AO2 RAE22DZB22E40RAB41E42DZB42 SLP027 P0001 60003 T00610041 10062 20043 57015 $,M
RNO,2024-02-06 17:55,-119.7711,39.4839,1341.00,37.00,32.00,81.93,0.00,0.00,0.01,29.67,1004.10,10.00,M,BKN,OVC,M,M,2300.00,5500.00,M,M,-RA,M,M,M,M,M,M,37.00,KRNO 061755Z 00000KT 10SM -RA BKN023 OVC055 03/00 A2967 RMK AO2 RAB04SNB38E54 SLP041 P0001 60001 T00280000 10028 20017 55003,M
EKO,2024-02-06 17:56,-115.7860,40.8242,1367.00,38.00,35.00,88.83,60.00,5.00,0.01,29.62,1002.90,10.00,M,FEW,OVC,M,M,700.00,7000.00,M,M,M,M,M,M,M,M,M,33.52,KEKO 061756Z AUTO 06005KT 10SM FEW007 OVC070 03/02 A2962 RMK AO2 RAE25UPB25E33 SLP029 P0001 60004 T00330017 10033 20022 56010 /,M
WMC,2024-02-06 17:56,-117.8072,40.9019,1315.00,35.00,32.00,88.68,340.00,4.00,T,29.63,1003.80,10.00,M,FEW,OVC,M,M,600.00,1700.00,M,M,M,M,M,M,M,M,M,30.92,KWMC 061756Z AUTO 34004KT 10SM FEW006 OVC017 02/00 A2963 RMK AO2 UPB23E26RAB26E48SNE23 SLP038 P0000 60004 T00170000 10022 20006 56012,M
HND,2024-02-06 17:56,-115.1344,35.9729,742.79,47.00,43.00,85.89,0.00,0.00,T,29.69,1007.20,10.00,M,OVC,M,M,M,4000.00,M,M,M,-RA,M,M,M,M,M,M,47.00,KHND 061756Z 00000KT 10SM -RA OVC040 08/06 A2969 RMK AO2 SLP072 P0000 60000 T00830061 10083 20061 58000,M
TPH,2024-02-06 17:56,-117.0904,38.0505,1654.00,33.00,32.00,96.06,110.00,4.00,0.04,29.61,1002.70,0.75,M,VV ,M,M,M,1200.00,M,M,M,-SN BR,M,M,M,M,M,M,28.59,KTPH 061756Z AUTO 11004KT 3/4SM -SN BR VV012 01/00 A2961 RMK AO2 SLP027 P0004 60018 T00060000 10006 20000 58006,M
LAS,2024-02-06 17:56,-115.1634,36.0719,663.00,46.00,44.00,92.68,0.00,0.00,0.02,29.68,1004.90,7.00,M,SCT,BKN,OVC,M,4500.00,6000.00,8000.00,M,-RA,M,M,M,M,M,M,46.00,KLAS 061756Z 00000KT 7SM -RA SCT045 BKN060 OVC080 08/07 A2968 RMK AO2 RAB1657 SLP049 P0002 60002 T00780067 10083 20067 50001,M
NFL,2024-02-06 17:56,-118.7010,39.4166,1199.00,36.00,33.00,88.73,0.00,0.00,T,29.65,1002.40,5.00,M,BKN,OVC,M,M,1000.00,2000.00,M,M,-RA BR,M,M,M,M,M,M,36.00,KNFL 061756Z 00000KT 5SM -RA BR BKN010 OVC020 02/01 A2965 RMK AO2 SLP024 WR// P0000 60000 T00220006 10022 20011 55003,M
INS,2024-02-06 17:57,-115.6733,36.5872,955.00,42.80,39.20,86.99,310.00,3.00,0.00,29.64,1002.70,10.00,M,M,M,M,M,M,M,M,M,M,M,M,M,M,M,M,41.03,KINS 061757Z AUTO 31003KT 10SM M 06/04 A2964 RMK AO2 DZE57 SLP027 $,M
LSV,2024-02-06 18:06,-115.0343,36.2362,570.00,48.20,44.60,87.28,210.00,6.00,0.00,29.64,1003.50,10.00,M,SCT,M,M,M,5500.00,M,M,M,-RA,M,M,M,M,M,M,45.04,KLSV 061806Z AUTO 21006KT 10SM -RA SCT055 09/07 A2964 RMK AO2 RAB06 SLP035 $,M
INS,2024-02-06 18:07,-115.6733,36.5872,955.00,42.80,39.20,86.99,0.00,0.00,0.00,29.64,1002.70,10.00,M,BKN,OVC,M,M,800.00,1300.00,M,M,M,M,M,M,M,M,M,42.80,KINS 061807Z AUTO 00000KT 10SM BKN008 OVC013 06/04 A2964 RMK AO2 DZE1757 SLP027 $,M
TPH,2024-02-06 18:08,-117.0904,38.0505,1654.00,33.00,32.00,96.06,110.00,4.00,T,29.61,M,1.00,M,VV ,M,M,M,1500.00,M,M,M,-SN BR,M,M,M,M,M,M,28.59,KTPH 061808Z AUTO 11004KT 1SM -SN BR VV015 01/00 A2961 RMK AO2 P0000 T00060000,M
NFL,2024-02-06 18:08,-118.7010,39.4166,1199.00,36.00,34.00,92.35,0.00,0.00,0.26,29.64,M,5.00,M,BKN,OVC,M,M,500.00,1000.00,M,M,-RA BR,M,M,M,M,M,M,36.00,KNFL 061808Z 00000KT 5SM -RA BR BKN005 OVC010 02/01 A2964 RMK AO2 P0026 T00220011,M
05U,2024-02-06 18:10,-116.0051,39.6042,1811.23,39.20,32.00,75.16,290.00,9.00,0.00,29.61,M,9.00,M,M,M,M,M,M,M,M,M,M,M,M,M,M,M,M,32.47,K05U 061810Z AUTO 29009KT 9SM 04/00 A2961 RMK A01,M
BVU,2024-02-06 18:15,-114.8611,35.9475,671.00,46.40,42.80,87.19,0.00,0.00,0.00,29.68,M,4.00,M,SCT,BKN,OVC,M,2900.00,3600.00,4600.00,M,-RA,M,M,M,M,M,M,46.40,KBVU 061815Z AUTO 00000KT 4SM -RA SCT029 BKN036 OVC046 08/06 A2968 RMK AO2,M
CXP,2024-02-06 18:15,-119.7326,39.1923,1431.00,35.60,32.00,86.59,190.00,5.00,0.00,29.67,M,10.00,M,OVC,M,M,M,4400.00,M,M,M,M,M,M,M,M,M,M,30.67,KCXP 061815Z AUTO 19005KT 10SM OVC044 02/00 A2967 RMK AO2,M
RTS,2024-02-06 18:15,-119.8764,39.6682,1539.00,35.60,30.20,80.51,270.00,5.00,0.00,29.67,M,10.00,M,BKN,BKN,M,M,3100.00,5000.00,M,M,M,M,M,M,M,M,M,30.67,KRTS 061815Z AUTO 27005KT 10SM BKN031 BKN050 02/M01 A2967 RMK AO2,M
MEV,2024-02-06 18:15,-119.7500,38.9963,1441.42,33.80,33.80,100.00,150.00,4.00,0.00,29.66,M,8.00,M,OVC,M,M,M,400.00,M,M,M,M,M,M,M,M,M,M,29.52,KMEV 061815Z AUTO 15004KT 8SM OVC004 01/01 A2966 RMK AO2,M
BAM,2024-02-06 18:15,-116.8743,40.5990,1382.36,39.20,37.40,93.19,20.00,7.00,0.00,29.63,M,7.00,M,SCT,BKN,OVC,M,600.00,2700.00,4500.00,M,M,M,M,M,M,M,M,33.56,KBAM 061815Z AUTO 02007KT 7SM SCT006 BKN027 OVC045 04/03 A2963 RMK AO1,M
HTH,2024-02-06 18:15,-118.6315,38.5448,1282.89,35.60,35.60,100.00,0.00,0.00,0.00,29.66,M,5.00,M,BKN,M,M,M,600.00,M,M,M,BR,M,M,M,M,M,M,35.60,KHTH 061815Z AUTO 00000KT 5SM BR BKN006 02/02 A2966 RMK A01,M
TMT,2024-02-06 18:15,-117.1971,39.4643,1749.34,34.00,33.30,97.24,0.00,0.00,0.00,29.59,M,10.00,M,OVC,M,M,M,300.00,M,M,M,M,M,M,M,M,M,M,34.00,KTMT 061815Z AUTO 00000KT 10SM OVC003 01/01 A2959 RMK AO2 T00110007,M
DRA,2024-02-06 18:18,-116.0278,36.6206,1009.00,42.00,40.00,92.55,280.00,5.00,0.01,29.63,M,10.00,M,FEW,BKN,OVC,M,800.00,2800.00,3600.00,M,-RA,M,M,M,M,M,M,38.27,KDRA 061818Z AUTO 28005KT 10SM -RA FEW008 BKN028 OVC036 06/04 A2963 RMK AO2 P0001 T00560044,M
TPH,2024-02-06 18:20,-117.0904,38.0505,1654.00,33.00,32.00,96.06,110.00,4.00,0.01,29.60,M,1.00,M,FEW,BKN,OVC,M,200.00,1500.00,2100.00,M,-SN BR,M,M,M,M,M,M,28.59,KTPH 061820Z AUTO 11004KT 1SM -SN BR FEW002 BKN015 OVC021 01/00 A2960 RMK AO2 P0001 T00060000,M
INS,2024-02-06 18:22,-115.6733,36.5872,955.00,42.80,39.20,86.99,0.00,0.00,0.00,29.64,1002.70,10.00,M,SCT,BKN,OVC,M,700.00,1100.00,9500.00,M,M,M,M,M,M,M,M,42.80,KINS 061822Z AUTO 00000KT 10SM SCT007 BKN011 OVC095 06/04 A2964 RMK AO2 DZE1757 SLP027 $,M
EKO,2024-02-06 18:27,-115.7860,40.8242,1367.00,39.00,35.00,85.42,50.00,7.00,T,29.62,M,10.00,M,FEW,BKN,OVC,M,800.00,1800.00,4100.00,M,-RA,M,M,M,M,M,M,33.31,KEKO 061827Z AUTO 05007KT 10SM -RA FEW008 BKN018 OVC041 04/02 A2962 RMK AO2 RAB24 P0000 T00390017,M
TPH,2024-02-06 18:28,-117.0904,38.0505,1654.00,33.00,32.00,96.06,120.00,4.00,0.01,29.60,M,0.75,M,BKN,OVC,M,M,1700.00,2100.00,M,M,-SN BR,M,M,M,M,M,M,28.59,KTPH 061828Z AUTO 12004KT 3/4SM -SN BR BKN017 OVC021 01/00 A2960 RMK AO2 P0001 T00060000,M
INS,2024-02-06 18:32,-115.6733,36.5872,955.00,42.80,39.20,86.99,290.00,3.00,0.00,29.63,1002.40,10.00,M,FEW,SCT,SCT,BKN,700.00,1200.00,7000.00,9000.00,M,M,M,M,M,M,M,41.03,KINS 061832Z AUTO 29003KT 10SM FEW007 SCT012 SCT070 BKN090 OVC110 06/04 A2963 RMK AO2 DZE1757 SLP024 $,M
RNO,2024-02-06 18:34,-119.7711,39.4839,1341.00,38.00,33.00,82.00,0.00,0.00,T,29.66,M,10.00,M,FEW,BKN,OVC,M,1500.00,4200.00,9000.00,M,M,M,M,M,M,M,M,38.00,KRNO 061834Z 00000KT 10SM FEW015 BKN042 OVC090 03/01 A2966 RMK AO2 RAE04 P0000 T00330006,M
BVU,2024-02-06 18:35,-114.8611,35.9475,671.00,46.40,42.80,87.19,0.00,0.00,0.00,29.67,M,5.00,M,FEW,SCT,BKN,M,3000.00,3600.00,4600.00,M,-RA,M,M,M,M,M,M,46.40,KBVU 061835Z AUTO 00000KT 5SM -RA FEW030 SCT036 BKN046 08/06 A2967 RMK AO2,M
CXP,2024-02-06 18:35,-119.7326,39.1923,1431.00,37.40,32.00,80.65,210.00,4.00,0.00,29.67,M,10.00,M,SCT,OVC,M,M,1400.00,4500.00,M,M,M,M,M,M,M,M,M,33.73,KCXP 061835Z AUTO 21004KT 10SM SCT014 OVC045 03/M00 A2967 RMK AO2,M
RTS,2024-02-06 18:35,-119.8764,39.6682,1539.00,35.60,30.20,80.51,300.00,5.00,0.00,29.66,M,10.00,M,SCT,BKN,BKN,M,1700.00,3200.00,4500.00,M,M,M,M,M,M,M,M,30.67,KRTS 061835Z AUTO 30005KT 10SM SCT017 BKN032 BKN045 02/M01 A2966 RMK AO2,M
05U,2024-02-06 18:35,-116.0051,39.6042,1811.23,39.20,32.00,75.16,310.00,11.00,0.00,29.61,M,9.00,17.00,M,M,M,M,M,M,M,M,M,M,M,M,M,M,M,31.57,K05U 061835Z AUTO 31011G17KT 9SM 04/00 A2961 RMK A01,M
MEV,2024-02-06 18:35,-119.7500,38.9963,1441.42,33.80,33.80,100.00,150.00,4.00,0.00,29.66,M,9.00,M,BKN,BKN,OVC,M,400.00,700.00,7000.00,M,M,M,M,M,M,M,M,29.52,KMEV 061835Z AUTO 15004KT 9SM BKN004 BKN007 OVC070 01/01 A2966 RMK AO2,M
BAM,2024-02-06 18:35,-116.8743,40.5990,1382.36,41.00,37.40,86.89,20.00,8.00,0.00,29.61,M,7.00,M,BKN,BKN,OVC,M,600.00,1200.00,2500.00,M,M,M,M,M,M,M,M,35.20,KBAM 061835Z AUTO 02008KT 7SM BKN006 BKN012 OVC025 05/03 A2961 RMK AO1,M
HTH,2024-02-06 18:35,-118.6315,38.5448,1282.89,35.60,35.60,100.00,0.00,0.00,0.00,29.66,M,6.00,M,FEW,M,M,M,600.00,M,M,M,BR,M,M,M,M,M,M,35.60,KHTH 061835Z AUTO 00000KT 6SM BR FEW006 02/02 A2966 RMK A01,M
TMT,2024-02-06 18:35,-117.1971,39.4643,1749.34,34.50,33.00,94.18,0.00,0.00,0.00,29.58,M,10.00,M,OVC,M,M,M,700.00,M,M,M,M,M,M,M,M,M,M,34.50,KTMT 061835Z AUTO 00000KT 10SM OVC007 01/01 A2958 RMK AO2 T00140005,M
EKO,2024-02-06 18:36,-115.7860,40.8242,1367.00,40.00,35.00,82.15,50.00,7.00,T,29.61,M,10.00,M,FEW,SCT,OVC,M,1100.00,2400.00,4200.00,M,-RA,M,M,M,M,M,M,34.53,KEKO 061836Z AUTO 05007KT 10SM -RA FEW011 SCT024 OVC042 04/02 A2961 RMK AO2 RAB24 P0000 T00440017,M
LOL,2024-02-06 18:36,-118.5701,40.0684,1192.43,34.00,34.00,100.00,180.00,3.00,0.02,29.63,M,5.00,M,FEW,OVC,M,M,500.00,1700.00,M,M,-RA BR,M,M,M,M,M,M,30.97,KLOL 061836Z AUTO 18003KT 5SM -RA BR FEW005 OVC017 01/01 A2963 RMK AO2 P0002 T00110011,M
EKO,2024-02-06 18:44,-115.7860,40.8242,1367.00,40.00,35.00,82.15,40.00,9.00,0.01,29.61,M,10.00,M,FEW,BKN,OVC,M,900.00,1600.00,4200.00,M,M,M,M,M,M,M,M,33.46,KEKO 061844Z AUTO 04009KT 10SM FEW009 BKN016 OVC042 04/02 A2961 RMK AO2 RAB24E43 P0001 T00440017,M
WMC,2024-02-06 18:44,-117.8072,40.9019,1315.00,36.00,33.00,88.73,330.00,3.00,0.01,29.61,M,7.00,M,BKN,OVC,M,M,1400.00,1800.00,M,M,-RA,M,M,M,M,M,M,33.26,KWMC 061844Z AUTO 33003KT 7SM -RA BKN014 OVC018 02/01 A2961 RMK AO2 UPB14E19RAB19 P0001 T00220006,M
LSV,2024-02-06 18:46,-115.0343,36.2362,570.00,48.20,42.80,81.47,200.00,3.00,0.00,29.64,1003.50,10.00,M,SCT,BKN,M,M,3600.00,4500.00,M,M,-RA,M,M,M,M,M,M,47.21,KLSV 061846Z AUTO 20003KT 10SM -RA SCT036 BKN045 09/06 A2964 RMK AO2 RAB06 SLP035 $,M
TPH,2024-02-06 18:47,-117.0904,38.0505,1654.00,33.00,32.00,96.06,130.00,4.00,0.02,29.60,M,1.00,M,VV ,M,M,M,1600.00,M,M,M,-SN BR,M,M,M,M,M,M,28.59,KTPH 061847Z AUTO 13004KT 1SM -SN BR VV016 01/00 A2960 RMK AO2 P0002 T00060000,M
LSV,2024-02-06 18:51,-115.0343,36.2362,570.00,48.20,44.60,87.28,0.00,0.00,0.00,29.64,1003.50,10.00,M,BKN,M,M,M,3200.00,M,M,M,M,M,M,M,M,M,M,48.20,KLSV 061851Z AUTO 00000KT 10SM BKN032 09/07 A2964 RMK AO2 RAB06E51 SLP035 $,M
DRA,2024-02-06 18:53,-116.0278,36.6206,1009.00,42.00,40.00,92.55,310.00,4.00,0.02,29.63,1002.40,8.00,M,FEW,SCT,OVC,M,800.00,2000.00,2600.00,M,-RA,M,M,M,M,M,M,39.10,KDRA 061853Z AUTO 31004KT 8SM -RA FEW008 SCT020 OVC026 06/04 A2963 RMK AO2 SLP024 P0002 T00560044,M
ELY,2024-02-06 18:53,-114.8453,39.2950,1909.00,36.00,31.00,81.86,180.00,15.00,T,29.62,1001.40,10.00,M,SCT,BKN,OVC,M,4200.00,5000.00,11000.00,M,M,M,M,M,M,M,M,25.97,KELY 061853Z AUTO 18015KT 10SM SCT042 BKN050 OVC110 02/M01 A2962 RMK AO2 RAB29E30UPB30E41 SLP014 P0000 T00221006,M
VGT,2024-02-06 18:53,-115.1933,36.2111,667.00,49.00,44.00,82.79,0.00,0.00,0.02,29.65,1005.90,10.00,M,SCT,OVC,M,M,4200.00,5000.00,M,M,M,M,M,M,M,M,M,49.00,KVGT 061853Z 00000KT 10SM SCT042 OVC050 09/07 A2965 RMK AO2 RAE42 SLP059 P0002 T00940067,M
LOL,2024-02-06 18:53,-118.5701,40.0684,1192.43,34.00,34.00,100.00,210.00,3.00,0.03,29.63,1004.20,4.00,M,FEW,OVC,M,M,600.00,1800.00,M,M,-RA BR,M,M,M,M,M,M,30.97,KLOL 061853Z AUTO 21003KT 4SM -RA BR FEW006 OVC018 01/01 A2963 RMK AO2 SLP042 P0003 T00110011,M
P68,2024-02-06 18:53,-116.0056,39.6014,1993.00,38.00,32.00,78.77,140.00,11.00,0.00,29.57,999.40,M,19.00,M,M,M,M,M,M,M,M,M,M,M,M,M,M,M,30.05,KP68 061853Z AUTO 14011G19KT 03/00 A2957 RMK AO1 SLP994 T00330000,M
EKO,2024-02-06 18:54,-115.7860,40.8242,1367.00,39.20,35.60,86.79,40.00,7.00,M,29.60,M,10.00,M,BKN,OVC,M,M,1200.00,4199.00,M,M,M,M,M,M,M,M,M,33.56,SPECI KEKO 061854Z 04007KT 10SM BKN012 OVC042 04/02 A2960 RMK AO2 RAB24E43 P0001 FIBI,M
RNO,2024-02-06 18:55,-119.7711,39.4839,1341.00,38.00,32.00,78.77,120.00,3.00,T,29.66,1003.90,10.00,M,FEW,SCT,OVC,M,2000.00,4200.00,8500.00,M,M,M,M,M,M,M,M,35.55,KRNO 061855Z 12003KT 10SM FEW020 SCT042 OVC085 03/00 A2966 RMK AO2 RAE04 SLP039 P0000 T00330000,M
05U,2024-02-06 18:55,-116.0051,39.6042,1811.23,39.20,33.80,80.79,300.00,12.00,0.00,29.60,M,9.00,M,M,M,M,M,M,M,M,M,M,M,M,M,M,M,M,31.17,K05U 061855Z AUTO 30012KT 9SM 04/01 A2960 RMK A01,M
MEV,2024-02-06 18:55,-119.7500,38.9963,1441.42,35.60,33.80,93.08,180.00,3.00,0.00,29.66,M,10.00,M,FEW,OVC,M,M,700.00,7000.00,M,M,M,M,M,M,M,M,M,32.80,KMEV 061855Z AUTO 18003KT 10SM FEW007 OVC070 02/01 A2966 RMK AO2,M
HTH,2024-02-06 18:55,-118.6315,38.5448,1282.89,35.60,37.40,M,0.00,0.00,0.01,29.65,M,9.00,M,CLR,M,M,M,M,M,M,M,M,M,M,M,M,M,M,M,KHTH 061855Z AUTO 00000KT 9SM CLR 02/03 A2965 RMK A01 P0001,M
TMT,2024-02-06 18:55,-117.1971,39.4643,1749.34,35.00,33.40,93.81,0.00,0.00,0.00,29.58,M,10.00,M,OVC,M,M,M,700.00,M,M,M,M,M,M,M,M,M,M,35.00,KTMT 061855Z AUTO 00000KT 10SM OVC007 02/01 A2958 RMK AO2 T00170008,M
BVU,2024-02-06 18:55,-114.8611,35.9475,671.00,46.40,42.80,87.19,110.00,3.00,0.00,29.66,M,6.00,M,BKN,BKN,OVC,M,3700.00,4400.00,5000.00,M,-RA,M,M,M,M,M,M,45.15,KBVU 061855Z AUTO 11003KT 6SM -RA BKN037 BKN044 OVC050 08/06 A2966 RMK AO2,M
CXP,2024-02-06 18:55,-119.7326,39.1923,1431.00,37.40,32.00,80.65,200.00,7.00,0.00,29.66,M,10.00,M,BKN,BKN,OVC,M,1400.00,4300.00,7500.00,M,M,M,M,M,M,M,M,31.36,KCXP 061855Z AUTO 20007KT 10SM BKN014 BKN043 OVC075 03/M00 A2966 RMK AO2,M
INS,2024-02-06 18:55,-115.6733,36.5872,955.00,43.30,39.40,86.01,0.00,0.00,T,29.62,1002.10,10.00,M,SCT,BKN,BKN,BKN,800.00,3000.00,7500.00,9000.00,M,M,M,M,M,M,M,43.30,KINS 061855Z AUTO 00000KT 10SM SCT008 BKN030 BKN075 BKN090 OVC110 06/04 A2962 RMK AO2 DZE1757 SLP021 P0000 T00630041 $,M
LSV,2024-02-06 18:55,-115.0343,36.2362,570.00,48.70,43.50,82.14,220.00,3.00,0.01,29.64,1003.50,10.00,M,BKN,M,M,M,3200.00,M,M,M,M,M,M,M,M,M,M,47.78,KLSV 061855Z AUTO 22003KT 10SM BKN032 09/06 A2964 RMK AO2 RAB06E51 SLP035 P0001 T00930064 $,M
RTS,2024-02-06 18:55,-119.8764,39.6682,1539.00,35.60,30.20,80.51,300.00,5.00,0.00,29.66,M,10.00,M,FEW,BKN,M,M,1700.00,4900.00,M,M,M,M,M,M,M,M,M,30.67,KRTS 061855Z AUTO 30005KT 10SM FEW017 BKN049 02/M01 A2966 RMK AO2,M
BAM,2024-02-06 18:55,-116.8743,40.5990,1382.36,41.00,37.40,86.89,350.00,7.00,0.00,29.61,M,7.00,M,BKN,OVC,M,M,600.00,1400.00,M,M,M,M,M,M,M,M,M,35.75,KBAM 061855Z AUTO 35007KT 7SM BKN006 OVC014 05/03 A2961 RMK AO1,M
NFL,2024-02-06 18:56,-118.7010,39.4166,1199.00,38.00,36.00,92.42,240.00,3.00,0.26,29.64,1002.00,3.00,M,BKN,OVC,M,M,500.00,1000.00,M,M,-RA BR,M,M,M,M,M,M,35.55,KNFL 061856Z 24003KT 3SM -RA BR BKN005 OVC010 03/02 A2964 RMK AO2 SLP020 WR// VIS NW-NE 4 P0026 T00330022,M
HND,2024-02-06 18:56,-115.1344,35.9729,742.79,48.00,42.00,79.60,0.00,0.00,0.01,29.67,1006.40,10.00,M,BKN,OVC,M,M,4700.00,5500.00,M,M,M,M,M,M,M,M,M,48.00,KHND 061856Z 00000KT 10SM BKN047 OVC055 09/06 A2967 RMK AO2 RAE53 SLP064 P0001 T00890056,M
TPH,2024-02-06 18:56,-117.0904,38.0505,1654.00,33.00,32.00,96.06,130.00,3.00,0.03,29.60,1002.70,0.75,M,VV ,M,M,M,1400.00,M,M,M,-SN BR,M,M,M,M,M,M,29.83,KTPH 061856Z AUTO 13003KT 3/4SM -SN BR VV014 01/00 A2960 RMK AO2 SLP027 P0003 T00060000,M
LAS,2024-02-06 18:56,-115.1634,36.0719,663.00,47.00,43.00,85.89,0.00,0.00,0.01,29.66,1004.10,10.00,M,FEW,BKN,OVC,M,1000.00,6000.00,7500.00,M,M,M,M,M,M,M,M,47.00,KLAS 061856Z 00000KT 10SM FEW010 BKN060 OVC075 08/06 A2966 RMK AO2 RAE44 SLP041 P0001 T00830061,M
WMC,2024-02-06 18:56,-117.8072,40.9019,1315.00,36.00,33.00,88.73,0.00,0.00,0.01,29.61,1002.90,6.00,M,BKN,OVC,M,M,1000.00,1600.00,M,M,-RA BR,M,M,M,M,M,M,36.00,KWMC 061856Z AUTO 00000KT 6SM -RA BR BKN010 OVC016 02/01 A2961 RMK AO2 UPB14E19RAB19 SLP029 P0001 T00220006,M
EKO,2024-02-06 18:56,-115.7860,40.8242,1367.00,40.00,35.00,82.15,30.00,8.00,0.01,29.60,1001.80,10.00,M,SCT,BKN,OVC,M,1000.00,1500.00,4400.00,M,M,M,M,M,M,M,M,33.97,KEKO 061856Z AUTO 03008KT 10SM SCT010 BKN015 OVC044 04/02 A2960 RMK AO2 RAB24E43 SLP018 P0001 T00440017,M
LSV,2024-02-06 18:57,-115.0343,36.2362,570.00,48.20,44.60,87.28,200.00,3.00,0.00,29.64,1003.50,10.00,M,BKN,BKN,M,M,3000.00,3600.00,M,M,-RA,M,M,M,M,M,M,47.21,KLSV 061857Z AUTO 20003KT 10SM -RA BKN030 BKN036 09/07 A2964 RMK AO2 RAB57 SLP035 $,M
INS,2024-02-06 19:00,-115.6733,36.5872,955.00,42.80,39.20,86.99,0.00,0.00,0.00,29.62,1002.10,10.00,M,BKN,BKN,BKN,OVC,800.00,3000.00,8000.00,11000.00,M,M,M,M,M,M,M,42.80,KINS 061900Z AUTO 00000KT 10SM BKN008 BKN030 BKN080 OVC110 06/04 A2962 RMK AO2 BKN008 V SCT SLP021 $,M
LSV,2024-02-06 19:07,-115.0343,36.2362,570.00,48.20,44.60,87.28,240.00,3.00,0.00,29.63,1003.10,8.00,M,SCT,BKN,M,M,2700.00,3400.00,M,M,-RA,M,M,M,M,M,M,47.21,KLSV 061907Z AUTO 24003KT 8SM -RA SCT027 BKN034 09/07 A2963 RMK AO2 RAB1857 SLP031 $,M
EKO,2024-02-06 19:12,-115.7860,40.8242,1367.00,40.00,36.00,85.48,30.00,7.00,0.00,29.59,M,10.00,M,BKN,OVC,M,M,1300.00,5000.00,M,M,M,M,M,M,M,M,M,34.53,KEKO 061912Z AUTO 03007KT 10SM BKN013 OVC050 04/02 A2959 RMK AO2 T00440022,M
WMC,2024-02-06 19:13,-117.8072,40.9019,1315.00,35.00,33.00,92.32,290.00,4.00,0.01,29.60,M,5.00,M,OVC,M,M,M,700.00,M,M,M,-RA BR,M,M,M,M,M,M,30.92,KWMC 061913Z AUTO 29004KT 5SM -RA BR OVC007 02/01 A2960 RMK AO2 CIG 005V012 P0001 T00170006,M
INS,2024-02-06 19:14,-115.6733,36.5872,955.00,44.60,39.20,81.20,0.00,0.00,0.00,29.62,1002.10,10.00,M,BKN,BKN,OVC,M,800.00,2900.00,5500.00,M,-RA,M,M,M,M,M,M,44.60,KINS 061914Z AUTO 00000KT 10SM -RA BKN008 BKN029 OVC055 07/04 A2962 RMK AO2 RAB14 SLP021 $,M
BVU,2024-02-06 19:15,-114.8611,35.9475,671.00,46.40,42.80,87.19,0.00,0.00,0.00,29.65,M,5.00,M,FEW,BKN,BKN,M,2900.00,3700.00,4400.00,M,-RA,M,M,M,M,M,M,46.40,KBVU 061915Z AUTO 00000KT 5SM -RA FEW029 BKN037 BKN044 08/06 A2965 RMK AO2,M
CXP,2024-02-06 19:15,-119.7326,39.1923,1431.00,37.40,32.00,80.65,M,4.00,0.00,29.66,M,10.00,M,BKN,OVC,M,M,1400.00,7500.00,M,M,M,M,M,M,M,M,M,33.73,KCXP 061915Z AUTO VRB04KT 10SM BKN014 OVC075 03/00 A2966 RMK AO2,M
RTS,2024-02-06 19:15,-119.8764,39.6682,1539.00,35.60,30.20,80.51,300.00,3.00,0.00,29.65,M,10.00,M,SCT,OVC,M,M,2200.00,4900.00,M,M,M,M,M,M,M,M,M,32.80,KRTS 061915Z AUTO 30003KT 10SM SCT022 OVC049 02/M01 A2965 RMK AO2,M
05U,2024-02-06 19:15,-116.0051,39.6042,1811.23,39.20,32.00,75.16,310.00,11.00,0.00,29.59,M,10.00,M,M,M,M,M,M,M,M,M,M,M,M,M,M,M,M,31.57,K05U 061915Z AUTO 31011KT 10SM 04/00 A2959 RMK A01,M
MEV,2024-02-06 19:15,-119.7500,38.9963,1441.42,35.60,33.80,93.08,0.00,0.00,0.00,29.65,M,10.00,M,BKN,M,M,M,7000.00,M,M,M,M,M,M,M,M,M,M,35.60,KMEV 061915Z AUTO 00000KT 10SM BKN070 02/01 A2965 RMK AO2,M
BAM,2024-02-06 19:15,-116.8743,40.5990,1382.36,41.00,37.40,86.89,320.00,6.00,0.00,29.60,M,7.00,M,OVC,M,M,M,800.00,M,M,M,M,M,M,M,M,M,M,36.37,KBAM 061915Z AUTO 32006KT 7SM OVC008 05/03 A2960 RMK AO1,M
HTH,2024-02-06 19:15,-118.6315,38.5448,1282.89,37.40,37.40,100.00,0.00,0.00,0.00,29.65,M,9.00,M,CLR,M,M,M,M,M,M,M,M,M,M,M,M,M,M,37.40,KHTH 061915Z AUTO 00000KT 9SM CLR 03/03 A2965 RMK A01,M
TMT,2024-02-06 19:15,-117.1971,39.4643,1749.34,35.00,33.40,93.81,0.00,0.00,0.00,29.58,M,10.00,M,OVC,M,M,M,700.00,M,M,M,M,M,M,M,M,M,M,35.00,KTMT 061915Z AUTO 00000KT 10SM OVC007 02/01 A2958 RMK AO2 T00160008,M
LSV,2024-02-06 19:17,-115.0343,36.2362,570.00,48.20,44.60,87.28,0.00,0.00,0.00,29.62,1002.80,10.00,M,SCT,M,M,M,2900.00,M,M,M,-RA,M,M,M,M,M,M,48.20,KLSV 061917Z AUTO 00000KT 10SM -RA SCT029 09/07 A2962 RMK AO2 RAB1857 SLP028 $,M
RTS,2024-02-06 19:25,-119.8764,39.6682,1539.00,37.40,30.20,74.98,M,5.00,0.00,29.65,M,10.00,M,BKN,OVC,M,M,1900.00,4900.00,M,M,M,M,M,M,M,M,M,32.81,KRTS 061925Z AUTO VRB05KT 10SM BKN019 OVC049 03/M01 A2965 RMK AO2,M
MEV,2024-02-06 19:25,-119.7500,38.9963,1441.42,35.60,32.00,86.59,0.00,0.00,0.00,29.65,M,10.00,M,FEW,M,M,M,7000.00,M,M,M,M,M,M,M,M,M,M,35.60,KMEV 061925Z AUTO 00000KT 10SM FEW070 02/00 A2965 RMK AO2,M
TPH,2024-02-06 19:27,-117.0904,38.0505,1654.00,33.00,33.00,100.00,130.00,3.00,0.02,29.59,M,1.00,M,VV ,M,M,M,1500.00,M,M,M,-SN BR,M,M,M,M,M,M,29.83,KTPH 061927Z AUTO 13003KT 1SM -SN BR VV015 01/01 A2959 RMK AO2 P0002 T00060006,M
INS,2024-02-06 19:29,-115.6733,36.5872,955.00,44.60,39.20,81.20,250.00,4.00,0.00,29.61,1001.70,10.00,M,BKN,BKN,OVC,M,800.00,5500.00,8500.00,M,M,M,M,M,M,M,M,42.13,KINS 061929Z AUTO 25004KT 10SM BKN008 BKN055 OVC085 07/04 A2961 RMK AO2 RAB14E15DZB15E29 SLP017 $,M
LOL,2024-02-06 19:29,-118.5701,40.0684,1192.43,33.00,33.00,100.00,0.00,0.00,0.04,29.62,M,2.50,M,BKN,OVC,M,M,500.00,1700.00,M,M,-SN BR,M,M,M,M,M,M,33.00,KLOL 061929Z AUTO 00000KT 2 1/2SM -SN BR BKN005 OVC017 01/01 A2962 RMK AO2 RAE07SNB07 P0004 T00060006,M
BVU,2024-02-06 19:35,-114.8611,35.9475,671.00,46.40,44.60,93.40,0.00,0.00,0.00,29.64,M,6.00,M,FEW,FEW,SCT,M,2900.00,3500.00,4500.00,M,-RA,M,M,M,M,M,M,46.40,KBVU 061935Z AUTO 00000KT 6SM -RA FEW029 FEW035 SCT045 08/07 A2964 RMK AO2,M
CXP,2024-02-06 19:35,-119.7326,39.1923,1431.00,35.60,32.00,86.59,190.00,7.00,0.00,29.65,M,10.00,M,OVC,M,M,M,1600.00,M,M,M,M,M,M,M,M,M,M,29.17,KCXP 061935Z AUTO 19007KT 10SM OVC016 02/00 A2965 RMK AO2,M
05U,2024-02-06 19:35,-116.0051,39.6042,1811.23,41.00,32.00,70.08,310.00,8.00,0.00,29.57,M,10.00,15.00,M,M,M,M,M,M,M,M,M,M,M,M,M,M,M,35.20,K05U 061935Z AUTO 31008G15KT 10SM 05/00 A2957 RMK A01,M
BAM,2024-02-06 19:35,-116.8743,40.5990,1382.36,41.00,37.40,86.89,320.00,6.00,0.00,29.59,M,7.00,M,OVC,M,M,M,800.00,M,M,M,M,M,M,M,M,M,M,36.37,KBAM 061935Z AUTO 32006KT 7SM OVC008 05/03 A2959 RMK AO1,M
HTH,2024-02-06 19:35,-118.6315,38.5448,1282.89,39.20,37.40,93.19,10.00,5.00,0.00,29.64,M,10.00,M,CLR,M,M,M,M,M,M,M,M,M,M,M,M,M,M,34.95,KHTH 061935Z AUTO 01005KT 10SM CLR 04/03 A2964 RMK A01,M
TMT,2024-02-06 19:35,-117.1971,39.4643,1749.34,35.40,33.40,92.33,210.00,4.00,0.00,29.57,M,10.00,M,OVC,M,M,M,700.00,M,M,M,-RA,M,M,M,M,M,M,31.39,KTMT 061935Z AUTO 21004KT 10SM -RA OVC007 02/01 A2957 RMK AO2 T00190008,M
TPH,2024-02-06 19:37,-117.0904,38.0505,1654.00,33.00,33.00,100.00,0.00,0.00,0.02,29.59,M,1.00,M,FEW,OVC,M,M,200.00,1500.00,M,M,-SN BR,M,M,M,M,M,M,33.00,KTPH 061937Z AUTO 00000KT 1SM -SN BR FEW002 OVC015 01/01 A2959 RMK AO2 P0002 T00060006,M
LOL,2024-02-06 19:38,-118.5701,40.0684,1192.43,33.00,33.00,100.00,0.00,0.00,0.04,29.61,M,1.50,M,BKN,OVC,M,M,400.00,1500.00,M,M,-SN BR,M,M,M,M,M,M,33.00,KLOL 061938Z AUTO 00000KT 1 1/2SM -SN BR BKN004 OVC015 01/01 A2961 RMK AO2 RAE07SNB07 P0004 T00060006,M
INS,2024-02-06 19:39,-115.6733,36.5872,955.00,44.60,41.00,87.09,250.00,7.00,0.00,29.61,1001.70,10.00,M,SCT,BKN,OVC,M,1000.00,1500.00,5500.00,M,M,M,M,M,M,M,M,40.14,KINS 061939Z AUTO 25007KT 10SM SCT010 BKN015 OVC055 07/05 A2961 RMK AO2 RAB14E15DZB15E29 SLP017 $,M
INS,2024-02-06 19:46,-115.6733,36.5872,955.00,44.60,41.00,87.09,250.00,9.00,0.00,29.61,1001.70,10.00,M,SCT,OVC,M,M,1000.00,1500.00,M,M,-RA,M,M,M,M,M,M,39.18,KINS 061946Z AUTO 25009KT 10SM -RA SCT010 OVC015 07/05 A2961 RMK AO2 RAB14E15DZB15E29RAB46 OVC V BKN SLP017 $,M
INS,2024-02-06 19:51,-115.6733,36.5872,955.00,44.60,41.00,87.09,250.00,8.00,0.00,29.60,1001.40,9.00,M,FEW,BKN,BKN,OVC,900.00,1400.00,2300.00,8500.00,-RA,M,M,M,M,M,M,39.63,KINS 061951Z AUTO 25008KT 9SM -RA FEW009 BKN014 BKN023 OVC085 07/05 A2960 RMK AO2 RAB14E15DZB15E29RAB46 SLP014 $,M
DRA,2024-02-06 19:53,-116.0278,36.6206,1009.00,42.00,41.00,96.21,340.00,3.00,0.09,29.61,1001.70,5.00,M,BKN,OVC,M,M,1600.00,2300.00,M,M,-RA BR,M,M,M,M,M,M,40.12,KDRA 061953Z AUTO 34003KT 5SM -RA BR BKN016 OVC023 06/05 A2961 RMK AO2 SLP017 P0009 T00560050,M
ELY,2024-02-06 19:53,-114.8453,39.2950,1909.00,37.00,32.00,81.93,180.00,13.00,0.00,29.56,999.30,10.00,M,FEW,BKN,OVC,M,3600.00,6000.00,7000.00,M,M,M,M,M,M,M,M,27.97,KELY 061953Z AUTO 18013KT 10SM FEW036 BKN060 OVC070 03/00 A2956 RMK AO2 SLP993 T00280000,M
VGT,2024-02-06 19:53,-115.1933,36.2111,667.00,50.00,44.00,79.76,130.00,4.00,T,29.62,1004.60,10.00,M,BKN,OVC,M,M,4100.00,5000.00,M,M,M,M,M,M,M,M,M,50.00,KVGT 061953Z 13004KT 10SM BKN041 OVC050 10/07 A2962 RMK AO2 RAB20E48 SLP046 P0000 T01000067,M
LOL,2024-02-06 19:53,-118.5701,40.0684,1192.43,33.00,33.00,100.00,0.00,0.00,0.06,29.61,1003.50,1.75,M,BKN,OVC,M,M,400.00,1300.00,M,M,-SN BR,M,M,M,M,M,M,33.00,KLOL 061953Z AUTO 00000KT 1 3/4SM -SN BR BKN004 OVC013 01/01 A2961 RMK AO2 RAE07SNB07 SLP035 P0006 T00060006,M
P68,2024-02-06 19:53,-116.0056,39.6014,1993.00,39.00,32.00,75.75,150.00,10.00,0.00,29.53,997.60,M,M,M,M,M,M,M,M,M,M,M,M,M,M,M,M,M,31.75,KP68 061953Z AUTO 15010KT 04/00 A2953 RMK AO1 SLP976 T00390000,M
HND,2024-02-06 19:54,-115.1344,35.9729,742.79,48.20,42.80,81.47,0.00,0.00,T,29.64,M,10.00,M,BKN,OVC,M,M,2200.00,3200.00,M,M,-RA,M,M,M,M,M,M,48.20,KHND 061954Z 00000KT 10SM -RA BKN022 OVC032 09/06 A2964 RMK AO2 RAB10 P0000,M
INS,2024-02-06 19:55,-115.6733,36.5872,955.00,44.60,40.60,85.75,250.00,9.00,T,29.60,1001.40,8.00,M,FEW,FEW,BKN,OVC,500.00,1000.00,1400.00,2300.00,-RA,M,M,M,M,M,M,39.18,KINS 061955Z AUTO 25009KT 8SM -RA FEW005 FEW010 BKN014 OVC023 07/05 A2960 RMK AO2 RAB14E15DZB15E29RAB46 SLP014 P0000 T00700048 $,M
BVU,2024-02-06 19:55,-114.8611,35.9475,671.00,48.20,44.60,87.28,0.00,0.00,0.00,29.62,M,9.00,M,SCT,SCT,BKN,M,1500.00,2600.00,4200.00,M,-DZ,M,M,M,M,M,M,48.20,KBVU 061955Z AUTO 00000KT 9SM -DZ SCT015 SCT026 BKN042 09/07 A2962 RMK AO2,M
CXP,2024-02-06 19:55,-119.7326,39.1923,1431.00,37.40,32.00,80.65,190.00,7.00,0.00,29.65,M,10.00,M,OVC,M,M,M,1600.00,M,M,M,M,M,M,M,M,M,M,31.36,KCXP 061955Z AUTO 19007KT 10SM OVC016 03/00 A2965 RMK AO2,M
RNO,2024-02-06 19:55,-119.7711,39.4839,1341.00,40.00,33.00,75.84,0.00,0.00,0.00,29.63,1002.80,10.00,M,FEW,BKN,OVC,M,1500.00,3700.00,9000.00,M,M,M,M,M,M,M,M,40.00,KRNO 061955Z 00000KT 10SM FEW015 BKN037 OVC090 04/01 A2963 RMK AO2 SLP028 T00440006,M
05U,2024-02-06 19:55,-116.0051,39.6042,1811.23,41.00,32.00,70.08,310.00,11.00,0.00,29.56,M,10.00,M,M,M,M,M,M,M,M,M,M,M,M,M,M,M,M,33.84,K05U 061955Z AUTO 31011KT 10SM 05/00 A2956 RMK A01,M
BAM,2024-02-06 19:55,-116.8743,40.5990,1382.36,41.00,37.40,86.89,320.00,6.00,0.00,29.57,M,7.00,M,BKN,OVC,M,M,1000.00,1600.00,M,M,M,M,M,M,M,M,M,36.37,KBAM 061955Z AUTO 32006KT 7SM BKN010 OVC016 05/03 A2957 RMK AO1,M
HTH,2024-02-06 19:55,-118.6315,38.5448,1282.89,39.20,37.40,93.19,M,3.00,0.00,29.63,M,10.00,M,FEW,FEW,M,M,4800.00,8000.00,M,M,M,M,M,M,M,M,M,36.92,KHTH 061955Z AUTO VRB03KT 10SM FEW048 FEW080 04/03 A2963 RMK A01,M
LSV,2024-02-06 19:55,-115.0343,36.2362,570.00,49.00,44.00,82.79,340.00,3.00,0.02,29.60,1002.10,8.00,M,SCT,SCT,M,M,4300.00,21000.00,M,M,-RA,M,M,M,M,M,M,48.12,KLSV 061955Z AUTO 34003KT 8SM -RA SCT043 SCT210 10/07 A2960 RMK AO2 RAB1857 SLP021 P0002 T00950066 $,M
TMT,2024-02-06 19:55,-117.1971,39.4643,1749.34,35.60,34.00,93.83,220.00,5.00,0.00,29.56,M,10.00,M,OVC,M,M,M,900.00,M,M,M,-RA,M,M,M,M,M,M,30.67,KTMT 061955Z AUTO 22005KT 10SM -RA OVC009 02/01 A2956 RMK AO2 T00200012,M
EKO,2024-02-06 19:56,-115.7860,40.8242,1367.00,41.00,35.00,79.02,20.00,6.00,0.00,29.56,1000.40,10.00,M,OVC,M,M,M,1300.00,M,M,M,M,M,M,M,M,M,M,36.37,KEKO 061956Z AUTO 02006KT 10SM OVC013 05/02 A2956 RMK AO2 SLP004 T00500017,M
NFL,2024-02-06 19:56,-118.7010,39.4166,1199.00,39.00,36.00,88.87,320.00,6.00,0.02,29.62,1001.50,4.00,M,BKN,OVC,M,M,500.00,1000.00,M,M,-RA BR,M,M,M,M,M,M,33.96,KNFL 061956Z 32006KT 4SM -RA BR BKN005 OVC010 04/02 A2962 RMK AO2 SLP015 WR// P0002 T00390022,M
HND,2024-02-06 19:56,-115.1344,35.9729,742.79,49.00,42.00,76.67,0.00,0.00,T,29.64,1005.20,10.00,M,BKN,OVC,M,M,2200.00,3200.00,M,M,-RA,M,M,M,M,M,M,49.00,KHND 061956Z 00000KT 10SM -RA BKN022 OVC032 09/06 A2964 RMK AO2 RAB10 SLP052 P0000 T00940056,M
TPH,2024-02-06 19:56,-117.0904,38.0505,1654.00,33.00,33.00,100.00,0.00,0.00,0.02,29.58,1001.90,1.75,M,BKN,BKN,OVC,M,200.00,1900.00,2500.00,M,-SN BR,M,M,M,M,M,M,33.00,KTPH 061956Z AUTO 00000KT 1 3/4SM -SN BR BKN002 BKN019 OVC025 01/01 A2958 RMK AO2 SLP019 P0002 T00060006,M
LAS,2024-02-06 19:56,-115.1634,36.0719,663.00,48.00,42.00,79.60,0.00,0.00,T,29.62,1002.80,10.00,M,FEW,BKN,OVC,M,1300.00,3400.00,4100.00,M,-RA,M,M,M,M,M,M,48.00,KLAS 061956Z 00000KT 10SM -RA FEW013 BKN034 OVC041 09/06 A2962 RMK AO2 RAB34 SLP028 P0000 T00890056,M
WMC,2024-02-06 19:56,-117.8072,40.9019,1315.00,35.00,32.00,88.68,320.00,6.00,0.03,29.58,1001.70,3.00,M,OVC,M,M,M,500.00,M,M,M,-SN BR,M,M,M,M,M,M,29.14,KWMC 061956Z AUTO 32006KT 3SM -SN BR OVC005 02/00 A2958 RMK AO2 RAE27SNB27 CIG 004V010 SLP017 P0003 T00170000,M
TPH,2024-02-06 20:02,-117.0904,38.0505,1654.00,33.00,33.00,100.00,0.00,0.00,T,29.58,M,3.00,M,BKN,BKN,OVC,M,200.00,1900.00,2500.00,M,-SN BR,M,M,M,M,M,M,33.00,KTPH 062002Z AUTO 00000KT 3SM -SN BR BKN002 BKN019 OVC025 01/01 A2958 RMK AO2 P0000 T00060006,M
LOL,2024-02-06 20:03,-118.5701,40.0684,1192.43,33.00,33.00,100.00,230.00,3.00,0.01,29.61,M,1.50,M,SCT,OVC,M,M,400.00,1300.00,M,M,-SN BR,M,M,M,M,M,M,29.83,KLOL 062003Z AUTO 23003KT 1 1/2SM -SN BR SCT004 OVC013 01/01 A2961 RMK AO2 P0001 T00060006,M
INS,2024-02-06 20:05,-115.6733,36.5872,955.00,44.60,41.00,87.09,260.00,9.00,0.00,29.60,1001.40,10.00,M,FEW,BKN,OVC,M,500.00,1500.00,2300.00,M,-RA,M,M,M,M,M,M,39.18,KINS 062005Z AUTO 26009KT 10SM -RA FEW005 BKN015 OVC023 07/05 A2960 RMK AO2 SLP014 $,M
LSV,2024-02-06 20:05,-115.0343,36.2362,570.00,50.00,44.60,81.61,0.00,0.00,0.00,29.60,1002.10,10.00,M,SCT,BKN,M,M,2500.00,4300.00,M,M,-RA,M,M,M,M,M,M,50.00,KLSV 062005Z AUTO 00000KT 10SM -RA SCT025 BKN043 10/07 A2960 RMK AO2 SLP021 $,M
TPH,2024-02-06 20:08,-117.0904,38.0505,1654.00,33.00,33.00,100.00,0.00,0.00,0.01,29.57,M,1.75,M,BKN,BKN,OVC,M,200.00,1600.00,2500.00,M,-SN BR,M,M,M,M,M,M,33.00,KTPH 062008Z AUTO 00000KT 1 3/4SM -SN BR BKN002 BKN016 OVC025 01/01 A2957 RMK AO2 P0001 T00060006,M
LOL,2024-02-06 20:10,-118.5701,40.0684,1192.43,33.00,33.00,100.00,0.00,0.00,0.02,29.60,M,1.25,M,BKN,OVC,M,M,500.00,1300.00,M,M,-SN BR,M,M,M,M,M,M,33.00,KLOL 062010Z AUTO 00000KT 1 1/4SM -SN BR BKN005 OVC013 01/01 A2960 RMK AO2 P0002 T00060006,M
BVU,2024-02-06 20:15,-114.8611,35.9475,671.00,48.20,44.60,87.28,0.00,0.00,0.00,29.61,M,10.00,M,BKN,BKN,OVC,M,1600.00,2600.00,4000.00,M,M,M,M,M,M,M,M,48.20,KBVU 062015Z AUTO 00000KT 10SM BKN016 BKN026 OVC040 09/07 A2961 RMK AO2,M
CXP,2024-02-06 20:15,-119.7326,39.1923,1431.00,37.40,32.00,80.65,190.00,6.00,0.00,29.64,M,10.00,M,SCT,BKN,M,M,1700.00,2200.00,M,M,M,M,M,M,M,M,M,32.03,KCXP 062015Z AUTO 19006KT 10SM SCT017 BKN022 03/00 A2964 RMK AO2,M
EKO,2024-02-06 20:15,-115.7860,40.8242,1367.00,41.00,35.00,79.02,30.00,5.00,T,29.55,M,10.00,M,OVC,M,M,M,1600.00,M,M,M,-RA,M,M,M,M,M,M,37.08,KEKO 062015Z AUTO 03005KT 10SM -RA OVC016 05/02 A2955 RMK AO2 RAB07 P0000 T00500017,M
LSV,2024-02-06 20:15,-115.0343,36.2362,570.00,50.00,44.60,81.61,0.00,0.00,0.00,29.59,1001.70,9.00,M,FEW,SCT,M,M,1300.00,2500.00,M,M,-RA,M,M,M,M,M,M,50.00,KLSV 062015Z AUTO 00000KT 9SM -RA FEW013 SCT025 10/07 A2959 RMK AO2 SLP017 $,M
05U,2024-02-06 20:15,-116.0051,39.6042,1811.23,41.00,32.00,70.08,320.00,10.00,0.00,29.55,M,10.00,M,M,M,M,M,M,M,M,M,M,M,M,M,M,M,M,34.25,K05U 062015Z AUTO 32010KT 10SM 05/00 A2955 RMK A01,M
BAM,2024-02-06 20:15,-116.8743,40.5990,1382.36,41.00,37.40,86.89,320.00,6.00,0.00,29.56,M,10.00,M,BKN,OVC,M,M,1000.00,1600.00,M,M,M,M,M,M,M,M,M,36.37,KBAM 062015Z AUTO 32006KT 10SM BKN010 OVC016 05/03 A2956 RMK AO1,M
HTH,2024-02-06 20:15,-118.6315,38.5448,1282.89,39.20,37.40,93.19,340.00,4.00,0.00,29.62,M,10.00,M,BKN,BKN,M,M,1200.00,4700.00,M,M,M,M,M,M,M,M,M,35.83,KHTH 062015Z AUTO 34004KT 10SM BKN012 BKN047 04/03 A2962 RMK A01,M
TMT,2024-02-06 20:15,-117.1971,39.4643,1749.34,35.40,34.00,94.58,210.00,5.00,0.00,29.55,M,5.00,M,BKN,BKN,OVC,M,600.00,900.00,2200.00,M,-RA,M,M,M,M,M,M,30.43,KTMT 062015Z AUTO 21005KT 5SM -RA BKN006 BKN009 OVC022 02/01 A2955 RMK AO2 T00190011,M
WMC,2024-02-06 20:19,-117.8072,40.9019,1315.00,36.00,33.00,88.73,330.00,10.00,0.01,29.57,M,4.00,M,SCT,BKN,OVC,M,700.00,1100.00,1600.00,M,-SN BR,M,M,M,M,M,M,27.98,KWMC 062019Z AUTO 33010KT 4SM -SN BR SCT007 BKN011 OVC016 02/01 A2957 RMK AO2 P0001 T00220006,M
LSV,2024-02-06 20:22,-115.0343,36.2362,570.00,50.00,44.60,81.61,0.00,0.00,0.00,29.58,1001.40,10.00,M,FEW,SCT,M,M,1300.00,2400.00,M,M,M,M,M,M,M,M,M,50.00,KLSV 062022Z AUTO 00000KT 10SM FEW013 SCT024 10/07 A2958 RMK AO2 RAE20DZB20E22 SLP014 $,M
LSV,2024-02-06 20:24,-115.0343,36.2362,570.00,50.00,44.60,81.61,330.00,4.00,0.00,29.58,1001.40,10.00,M,FEW,SCT,M,M,1000.00,2400.00,M,M,M,M,M,M,M,M,M,50.00,KLSV 062024Z AUTO 33004KT 10SM FEW010 SCT024 10/07 A2958 RMK AO2 RAE20DZB20E22 SLP014 $,M
TPH,2024-02-06 20:26,-117.0904,38.0505,1654.00,34.00,33.00,96.08,110.00,3.00,0.02,29.57,M,1.00,M,SCT,BKN,OVC,M,300.00,1200.00,2100.00,M,-SN BR,M,M,M,M,M,M,30.97,KTPH 062026Z AUTO 11003KT 1SM -SN BR SCT003 BKN012 OVC021 01/01 A2957 RMK AO2 P0002 T00110006,M
NFL,2024-02-06 20:29,-118.7010,39.4166,1199.00,40.00,36.00,85.48,320.00,5.00,T,29.60,M,5.00,M,SCT,BKN,OVC,M,500.00,1000.00,3000.00,M,BR,M,M,M,M,M,M,35.90,KNFL 062029Z 32005KT 5SM BR SCT005 BKN010 OVC030 04/02 A2960 RMK AO2 RAE23 WR// P0000 T00440022,M
LSV,2024-02-06 20:34,-115.0343,36.2362,570.00,50.00,44.60,81.61,150.00,3.00,0.00,29.58,1001.40,10.00,M,SCT,BKN,M,M,1200.00,2200.00,M,M,M,M,M,M,M,M,M,50.00,KLSV 062034Z AUTO 15003KT 10SM SCT012 BKN022 10/07 A2958 RMK AO2 RAE20DZB20E22 SLP014 $,M
BVU,2024-02-06 20:35,-114.8611,35.9475,671.00,50.00,44.60,81.61,0.00,0.00,0.00,29.60,M,10.00,M,BKN,OVC,M,M,1500.00,2400.00,M,M,M,M,M,M,M,M,M,50.00,KBVU 062035Z AUTO 00000KT 10SM BKN015 OVC024 10/07 A2960 RMK AO2,M
CXP,2024-02-06 20:35,-119.7326,39.1923,1431.00,37.40,32.00,80.65,190.00,5.00,0.00,29.63,M,10.00,M,BKN,M,M,M,2000.00,M,M,M,M,M,M,M,M,M,M,32.81,KCXP 062035Z AUTO 19005KT 10SM BKN020 03/00 A2963 RMK AO2,M
DRA,2024-02-06 20:35,-116.0278,36.6206,1009.00,43.00,41.00,92.58,240.00,5.00,0.02,29.58,M,9.00,M,FEW,SCT,OVC,M,1100.00,1600.00,3500.00,M,-RA,M,M,M,M,M,M,39.46,KDRA 062035Z AUTO 24005KT 9SM -RA FEW011 SCT016 OVC035 06/05 A2958 RMK AO2 P0002 T00610050,M
LOL,2024-02-06 20:35,-118.5701,40.0684,1192.43,32.00,32.00,100.00,180.00,3.00,0.05,29.60,M,0.75,M,SCT,OVC,M,M,500.00,900.00,M,M,-SN BR,M,M,M,M,M,M,28.69,KLOL 062035Z AUTO 18003KT 3/4SM -SN BR SCT005 OVC009 00/00 A2960 RMK AO2 P0005 T00000000,M
05U,2024-02-06 20:35,-116.0051,39.6042,1811.23,41.00,32.00,70.08,320.00,9.00,0.00,29.54,M,10.00,17.00,M,M,M,M,M,M,M,M,M,M,M,M,M,M,M,34.70,K05U 062035Z AUTO 32009G17KT 10SM 05/00 A2954 RMK A01,M
BAM,2024-02-06 20:35,-116.8743,40.5990,1382.36,41.00,39.20,93.24,330.00,7.00,0.00,29.55,M,7.00,M,OVC,M,M,M,1500.00,M,M,M,M,M,M,M,M,M,M,35.75,KBAM 062035Z AUTO 33007KT 7SM OVC015 05/04 A2955 RMK AO1,M
HTH,2024-02-06 20:35,-118.6315,38.5448,1282.89,39.20,37.40,93.19,M,3.00,0.00,29.61,M,10.00,M,BKN,BKN,M,M,1100.00,2500.00,M,M,M,M,M,M,M,M,M,36.92,KHTH 062035Z AUTO VRB03KT 10SM BKN011 BKN025 04/03 A2961 RMK A01,M
TMT,2024-02-06 20:35,-117.1971,39.4643,1749.34,35.20,34.00,95.33,220.00,7.00,0.00,29.54,M,5.00,M,BKN,BKN,OVC,M,600.00,1200.00,2400.00,M,-RA,M,M,M,M,M,M,28.68,KTMT 062035Z AUTO 22007KT 5SM -RA BKN006 BKN012 OVC024 02/01 A2954 RMK AO2 T00180011,M
LSV,2024-02-06 20:37,-115.0343,36.2362,570.00,50.00,44.60,81.61,0.00,0.00,0.00,29.57,1001.10,5.00,M,SCT,BKN,M,M,1200.00,2200.00,M,M,-RA BR,M,M,M,M,M,M,50.00,KLSV 062037Z COR AUTO 00000KT 5SM -RA BR SCT012 BKN022 10/07 A2957 RMK AO2 RAE20DZB20E22RAB37 SLP011 $ COR 2038,M
LOL,2024-02-06 20:42,-118.5701,40.0684,1192.43,32.00,32.00,100.00,0.00,0.00,0.06,29.60,M,0.75,M,FEW,OVC,M,M,500.00,1100.00,M,M,-SN BR,M,M,M,M,M,M,32.00,KLOL 062042Z AUTO 00000KT 3/4SM -SN BR FEW005 OVC011 00/00 A2960 RMK AO2 P0006 T00000000,M
ELY,2024-02-06 20:50,-114.8453,39.2950,1909.00,35.60,33.80,93.08,170.00,14.00,T,29.55,M,9.00,21.00,BKN,OVC,M,M,2400.00,3600.00,M,M,-RA,M,M,M,M,M,M,25.80,KELY 062050Z AUTO 17014G21KT 9SM -RA BKN024 OVC036 02/01 A2955 RMK AO2 RAB23 P0000,M
DRA,2024-02-06 20:53,-116.0278,36.6206,1009.00,44.00,41.00,89.11,230.00,10.00,0.03,29.58,1000.60,10.00,M,FEW,BKN,OVC,M,1400.00,3400.00,4100.00,M,-RA,M,M,M,M,M,M,38.02,KDRA 062053Z AUTO 23010KT 10SM -RA FEW014 BKN034 OVC041 07/05 A2958 RMK AO2 SLP006 P0003 60014 T00670050 58016,M
ELY,2024-02-06 20:53,-114.8453,39.2950,1909.00,35.00,33.00,92.32,170.00,15.00,T,29.54,999.20,7.00,21.00,BKN,OVC,M,M,2200.00,3400.00,M,M,-SN,M,M,M,M,M,M,24.67,KELY 062053Z AUTO 17015G21KT 7SM -SN BKN022 OVC034 02/01 A2954 RMK AO2 RAB23E52SNB52 SLP992 P0000 60000 T00170006 56020,M
VGT,2024-02-06 20:53,-115.1933,36.2111,667.00,50.00,44.00,79.76,80.00,4.00,0.00,29.59,1003.50,10.00,M,SCT,OVC,M,M,900.00,3200.00,M,M,M,M,M,M,M,M,M,50.00,KVGT 062053Z 08004KT 10SM SCT009 OVC032 10/07 A2959 RMK AO2 SLP035 60002 T01000067 58026,M
LOL,2024-02-06 20:53,-118.5701,40.0684,1192.43,32.00,32.00,100.00,0.00,0.00,0.07,29.59,1003.10,0.75,M,VV ,M,M,M,1100.00,M,M,M,-SN BR,M,M,M,M,M,M,32.00,KLOL 062053Z AUTO 00000KT 3/4SM -SN BR VV011 00/00 A2959 RMK AO2 SLP031 P0007 60016 T00000000 58012,M
P68,2024-02-06 20:53,-116.0056,39.6014,1993.00,38.00,32.00,78.77,140.00,12.00,0.00,29.50,997.00,M,M,M,M,M,M,M,M,M,M,M,M,M,M,M,M,M,29.64,KP68 062053Z AUTO 14012KT 03/00 A2950 RMK AO1 SLP970 T00330000 58024,M
LSV,2024-02-06 20:54,-115.0343,36.2362,570.00,50.00,45.00,82.86,70.00,4.00,0.01,29.57,1001.10,5.00,M,FEW,BKN,M,M,1200.00,2300.00,M,M,-RA BR,M,M,M,M,M,M,50.00,KLSV 062054Z 07004KT 5SM -RA BR FEW012 BKN023 10/07 A2957 RMK RAE20DZB20E22RAB37E52DZB52E54 SLP011 P0001 60004 T00990073 58024 $,M
BVU,2024-02-06 20:55,-114.8611,35.9475,671.00,50.00,46.40,87.37,0.00,0.00,0.00,29.58,M,7.00,M,BKN,OVC,M,M,1400.00,2500.00,M,M,M,M,M,M,M,M,M,50.00,KBVU 062055Z AUTO 00000KT 7SM BKN014 OVC025 10/08 A2958 RMK AO2,M
CXP,2024-02-06 20:55,-119.7326,39.1923,1431.00,37.40,32.00,80.65,190.00,4.00,0.00,29.62,M,10.00,M,FEW,M,M,M,1900.00,M,M,M,M,M,M,M,M,M,M,33.73,KCXP 062055Z AUTO 19004KT 10SM FEW019 03/00 A2962 RMK AO2,M
INS,2024-02-06 20:55,-115.6733,36.5872,955.00,45.00,41.00,85.77,220.00,3.00,0.05,29.58,1000.70,10.00,M,FEW,OVC,M,M,800.00,2700.00,M,M,-RA,M,M,M,M,M,M,43.55,KINS 062055Z AUTO 22003KT 10SM -RA FEW008 OVC027 07/05 A2958 RMK AO2 OVC V BKN SLP007 P0005 60005 T00730049 57017 $,M
RNO,2024-02-06 20:55,-119.7711,39.4839,1341.00,42.00,32.00,67.42,20.00,3.00,0.00,29.61,1002.00,10.00,M,FEW,SCT,OVC,M,2000.00,4500.00,10000.00,M,M,M,M,M,M,M,M,40.12,KRNO 062055Z 02003KT 10SM FEW020 SCT045 OVC100 06/00 A2961 RMK AO2 SLP020 60000 T00560000 58016,M
05U,2024-02-06 20:55,-116.0051,39.6042,1811.23,39.20,33.80,80.79,310.00,9.00,0.00,29.53,M,10.00,16.00,M,M,M,M,M,M,M,M,M,M,M,M,M,M,M,32.47,K05U 062055Z AUTO 31009G16KT 10SM 04/01 A2953 RMK A01,M
BAM,2024-02-06 20:55,-116.8743,40.5990,1382.36,41.00,37.40,86.89,320.00,8.00,0.00,29.54,M,5.00,M,SCT,BKN,OVC,M,800.00,1700.00,3000.00,M,M,M,M,M,M,M,M,35.20,KBAM 062055Z AUTO 32008KT 5SM SCT008 BKN017 OVC030 05/03 A2954 RMK AO1,M
HTH,2024-02-06 20:55,-118.6315,38.5448,1282.89,39.20,37.40,93.19,0.00,0.00,0.00,29.61,M,10.00,M,SCT,SCT,SCT,M,1200.00,2500.00,11000.00,M,M,M,M,M,M,M,M,39.20,KHTH 062055Z AUTO 00000KT 10SM SCT012 SCT025 SCT110 04/03 A2961 RMK A01,M
TMT,2024-02-06 20:55,-117.1971,39.4643,1749.34,35.00,33.80,95.33,220.00,6.00,0.00,29.54,M,5.00,M,BKN,BKN,OVC,M,600.00,1200.00,1700.00,M,-RA,M,M,M,M,M,M,29.14,KTMT 062055Z AUTO 22006KT 5SM -RA BKN006 BKN012 OVC017 02/01 A2954 RMK AO2 T00160010,M
EKO,2024-02-06 20:56,-115.7860,40.8242,1367.00,40.00,35.00,82.15,50.00,8.00,T,29.53,999.40,10.00,M,BKN,OVC,M,M,1600.00,2100.00,M,M,-RA,M,M,M,M,M,M,33.97,KEKO 062056Z AUTO 05008KT 10SM -RA BKN016 OVC021 04/02 A2953 RMK AO2 RAB07 SLP994 P0000 60001 T00440017 58029,M
NFL,2024-02-06 20:56,-118.7010,39.4166,1199.00,40.00,37.00,88.92,330.00,6.00,T,29.59,1000.60,5.00,M,SCT,BKN,OVC,M,500.00,1000.00,3000.00,M,-RA BR,M,M,M,M,M,M,35.17,KNFL 062056Z 33006KT 5SM -RA BR SCT005 BKN010 OVC030 04/03 A2959 RMK AO2 RAE23B30 SLP006 WR// P0000 60028 T00440028 58018,M
HND,2024-02-06 20:56,-115.1344,35.9729,742.79,48.00,44.00,85.95,350.00,4.00,0.01,29.60,1004.10,9.00,M,OVC,M,M,M,1400.00,M,M,M,-RA,M,M,M,M,M,M,46.10,KHND 062056Z 35004KT 9SM -RA OVC014 09/07 A2960 RMK AO2 RAE1959B43 SLP041 P0001 60002 T00890067 58021,M
TPH,2024-02-06 20:56,-117.0904,38.0505,1654.00,35.00,34.00,96.09,0.00,0.00,0.02,29.56,1000.60,1.75,M,BKN,OVC,M,M,400.00,1300.00,M,M,-SN BR,M,M,M,M,M,M,35.00,KTPH 062056Z AUTO 00000KT 1 3/4SM -SN BR BKN004 OVC013 02/01 A2956 RMK AO2 SLP006 P0002 60007 T00170011 58015,M
LAS,2024-02-06 20:56,-115.1634,36.0719,663.00,48.00,44.00,85.95,80.00,4.00,T,29.59,1001.70,9.00,M,FEW,BKN,OVC,M,2200.00,3400.00,6000.00,M,M,M,M,M,M,M,M,46.10,KLAS 062056Z 08004KT 9SM FEW022 BKN034 OVC060 09/07 A2959 RMK AO2 RAE43 SLP017 P0000 60001 T00890067 58029,M
WMC,2024-02-06 20:56,-117.8072,40.9019,1315.00,35.00,32.00,88.68,300.00,6.00,0.03,29.56,1001.10,4.00,M,FEW,OVC,M,M,600.00,1400.00,M,M,-SN BR,M,M,M,M,M,M,29.14,KWMC 062056Z AUTO 30006KT 4SM -SN BR FEW006 OVC014 02/00 A2956 RMK AO2 SLP011 P0003 60007 T00170000 58022,M
TPH,2024-02-06 21:03,-117.0904,38.0505,1654.00,35.00,33.00,92.32,0.00,0.00,0.01,29.56,M,2.50,M,BKN,OVC,M,M,400.00,1100.00,M,M,-SN BR,M,M,M,M,M,M,35.00,KTPH 062103Z AUTO 00000KT 2 1/2SM -SN BR BKN004 OVC011 02/01 A2956 RMK AO2 P0001 T00170006,M
TPH,2024-02-06 21:06,-117.0904,38.0505,1654.00,35.00,33.00,92.32,0.00,0.00,0.01,29.55,M,2.50,M,SCT,OVC,M,M,500.00,1100.00,M,M,-SN BR,M,M,M,M,M,M,35.00,KTPH 062106Z AUTO 00000KT 2 1/2SM -SN BR SCT005 OVC011 02/01 A2955 RMK AO2 P0001 T00170006,M
CXP,2024-02-06 21:10,-119.7326,39.1923,1431.00,37.40,32.00,80.65,200.00,6.00,0.00,29.62,M,10.00,M,FEW,M,M,M,4000.00,M,M,M,M,M,M,M,M,M,M,32.03,KCXP 062110Z AUTO 20006KT 10SM FEW040 03/00 A2962 RMK AO2,M
INS,2024-02-06 21:10,-115.6733,36.5872,955.00,44.60,41.00,87.09,220.00,5.00,0.00,29.57,1000.30,4.00,M,BKN,OVC,M,M,400.00,2500.00,M,M,RA,M,M,M,M,M,M,41.36,KINS 062110Z AUTO 22005KT 4SM RA BKN004 OVC025 07/05 A2957 RMK AO2 SLP003 $,M
WMC,2024-02-06 21:12,-117.8072,40.9019,1315.00,34.00,32.00,92.29,310.00,8.00,0.02,29.55,M,3.00,M,SCT,OVC,M,M,700.00,1500.00,M,M,-SN BR,M,M,M,M,M,M,26.58,KWMC 062112Z AUTO 31008KT 3SM -SN BR SCT007 OVC015 01/00 A2955 RMK AO2 P0002 T00110000,M
BVU,2024-02-06 21:15,-114.8611,35.9475,671.00,50.00,46.40,87.37,160.00,9.00,0.00,29.58,M,10.00,M,FEW,OVC,M,M,1300.00,2600.00,M,M,M,M,M,M,M,M,M,50.00,KBVU 062115Z AUTO 16009KT 10SM FEW013 OVC026 10/08 A2958 RMK AO2,M
INS,2024-02-06 21:15,-115.6733,36.5872,955.00,44.60,41.00,87.09,230.00,3.00,0.00,29.57,1000.30,5.00,M,SCT,BKN,OVC,M,400.00,2300.00,4300.00,M,-RA,M,M,M,M,M,M,43.09,KINS 062115Z AUTO 23003KT 5SM -RA SCT004 BKN023 OVC043 07/05 A2957 RMK AO2 SLP003 $,M
RTS,2024-02-06 21:15,-119.8764,39.6682,1539.00,37.40,28.40,69.67,350.00,6.00,0.00,29.61,M,10.00,M,FEW,BKN,M,M,2300.00,5500.00,M,M,M,M,M,M,M,M,M,32.03,KRTS 062115Z AUTO 35006KT 10SM FEW023 BKN055 03/M02 A2961 RMK AO2,M
TPH,2024-02-06 21:15,-117.0904,38.0505,1654.00,35.00,33.00,92.32,0.00,0.00,0.01,29.55,M,1.75,M,BKN,OVC,M,M,500.00,1000.00,M,M,-SN BR,M,M,M,M,M,M,35.00,KTPH 062115Z AUTO 00000KT 1 3/4SM -SN BR BKN005 OVC010 02/01 A2955 RMK AO2 P0001 T00170006,M
05U,2024-02-06 21:15,-116.0051,39.6042,1811.23,39.20,33.80,80.79,330.00,10.00,0.00,29.52,M,10.00,M,M,M,M,M,M,M,M,M,M,M,M,M,M,M,M,32.00,K05U 062115Z AUTO 33010KT 10SM 04/01 A2952 RMK A01,M
MEV,2024-02-06 21:15,-119.7500,38.9963,1441.42,37.40,32.00,80.65,0.00,0.00,0.00,29.60,M,10.00,M,CLR,M,M,M,M,M,M,M,M,M,M,M,M,M,M,37.40,KMEV 062115Z AUTO 00000KT 10SM CLR 03/00 A2960 RMK AO2,M
BAM,2024-02-06 21:15,-116.8743,40.5990,1382.36,41.00,37.40,86.89,320.00,7.00,0.00,29.53,M,5.00,M,SCT,BKN,OVC,M,800.00,2400.00,3000.00,M,M,M,M,M,M,M,M,35.75,KBAM 062115Z AUTO 32007KT 5SM SCT008 BKN024 OVC030 05/03 A2953 RMK AO1,M
HTH,2024-02-06 21:15,-118.6315,38.5448,1282.89,39.20,33.80,80.79,290.00,4.00,0.00,29.60,M,10.00,M,FEW,FEW,M,M,1300.00,12000.00,M,M,M,M,M,M,M,M,M,35.83,KHTH 062115Z AUTO 29004KT 10SM FEW013 FEW120 04/01 A2960 RMK A01,M
TMT,2024-02-06 21:15,-117.1971,39.4643,1749.34,35.20,33.30,92.70,230.00,9.00,0.00,29.53,M,10.00,M,SCT,BKN,OVC,M,600.00,1900.00,2900.00,M,-RA,M,M,M,M,M,M,27.49,KTMT 062115Z AUTO 23009KT 10SM -RA SCT006 BKN019 OVC029 02/01 A2953 RMK AO2 T00180007,M
HND,2024-02-06 21:16,-115.1344,35.9729,742.79,46.40,44.60,93.40,20.00,4.00,T,29.59,M,7.00,M,FEW,BKN,OVC,M,800.00,1400.00,3300.00,M,-RA,M,M,M,M,M,M,44.24,KHND 062116Z 02004KT 7SM -RA FEW008 BKN014 OVC033 08/07 A2959 RMK AO2 P0000,M
WMC,2024-02-06 21:24,-117.8072,40.9019,1315.00,34.00,31.00,88.63,300.00,6.00,0.03,29.55,M,2.00,M,SCT,OVC,M,M,700.00,1500.00,M,M,-SN BR,M,M,M,M,M,M,27.94,KWMC 062124Z AUTO 30006KT 2SM -SN BR SCT007 OVC015 01/M01 A2955 RMK AO2 P0003 T00111006,M
HND,2024-02-06 21:25,-115.1344,35.9729,742.79,46.40,44.60,93.40,20.00,4.00,T,29.59,M,4.00,M,SCT,BKN,OVC,M,800.00,2500.00,3500.00,M,RA BR,M,M,M,M,M,M,44.24,KHND 062125Z 02004KT 4SM RA BR SCT008 BKN025 OVC035 08/07 A2959 RMK AO2 P0000,M
TPH,2024-02-06 21:25,-117.0904,38.0505,1654.00,34.00,33.00,96.08,0.00,0.00,0.02,29.55,M,1.00,M,BKN,OVC,M,M,400.00,1000.00,M,M,-SN BR,M,M,M,M,M,M,34.00,KTPH 062125Z AUTO 00000KT 1SM -SN BR BKN004 OVC010 01/01 A2955 RMK AO2 P0002 T00110006,M
LOL,2024-02-06 21:27,-118.5701,40.0684,1192.43,32.00,32.00,100.00,0.00,0.00,0.05,29.58,M,1.00,M,VV ,M,M,M,1200.00,M,M,M,-SN BR,M,M,M,M,M,M,32.00,KLOL 062127Z AUTO 00000KT 1SM -SN BR VV012 00/00 A2958 RMK AO2 P0005 T00000000,M
WMC,2024-02-06 21:29,-117.8072,40.9019,1315.00,34.00,31.00,88.63,290.00,5.00,0.03,29.55,M,1.25,M,FEW,SCT,OVC,M,300.00,700.00,1600.00,M,-SN BR,M,M,M,M,M,M,28.77,KWMC 062129Z AUTO 29005KT 1 1/4SM -SN BR FEW003 SCT007 OVC016 01/M01 A2955 RMK AO2 P0003 T00111006,M
WMC,2024-02-06 21:32,-117.8072,40.9019,1315.00,33.00,31.00,92.25,290.00,5.00,0.03,29.55,M,1.00,M,SCT,BKN,OVC,M,300.00,800.00,1600.00,M,-SN BR,M,M,M,M,M,M,27.58,KWMC 062132Z AUTO 29005KT 1SM -SN BR SCT003 BKN008 OVC016 01/M01 A2955 RMK AO2 P0003 T00061006,M
CXP,2024-02-06 21:35,-119.7326,39.1923,1431.00,39.20,32.00,75.16,180.00,4.00,0.00,29.61,M,10.00,M,SCT,SCT,M,M,1800.00,4000.00,M,M,M,M,M,M,M,M,M,35.83,KCXP 062135Z AUTO 18004KT 10SM SCT018 SCT040 04/M00 A2961 RMK AO2,M
RTS,2024-02-06 21:35,-119.8764,39.6682,1539.00,37.40,28.40,69.67,340.00,7.00,0.00,29.60,M,10.00,M,FEW,BKN,M,M,2000.00,5500.00,M,M,M,M,M,M,M,M,M,31.36,KRTS 062135Z AUTO 34007KT 10SM FEW020 BKN055 03/M02 A2960 RMK AO2,M
05U,2024-02-06 21:35,-116.0051,39.6042,1811.23,39.20,33.80,80.79,320.00,7.00,0.00,29.52,M,10.00,M,M,M,M,M,M,M,M,M,M,M,M,M,M,M,M,33.56,K05U 062135Z AUTO 32007KT 10SM 04/01 A2952 RMK A01,M
MEV,2024-02-06 21:35,-119.7500,38.9963,1441.42,37.40,32.00,80.65,0.00,0.00,0.00,29.60,M,10.00,M,CLR,M,M,M,M,M,M,M,M,M,M,M,M,M,M,37.40,KMEV 062135Z AUTO 00000KT 10SM CLR 03/00 A2960 RMK AO2,M
BAM,2024-02-06 21:35,-116.8743,40.5990,1382.36,41.00,39.20,93.24,320.00,8.00,0.00,29.52,M,7.00,M,SCT,OVC,M,M,800.00,2400.00,M,M,M,M,M,M,M,M,M,35.20,KBAM 062135Z AUTO 32008KT 7SM SCT008 OVC024 05/04 A2952 RMK AO1,M
HTH,2024-02-06 21:35,-118.6315,38.5448,1282.89,41.00,35.60,80.93,320.00,4.00,0.00,29.59,M,10.00,M,FEW,SCT,M,M,1500.00,12000.00,M,M,M,M,M,M,M,M,M,37.93,KHTH 062135Z AUTO 32004KT 10SM FEW015 SCT120 05/02 A2959 RMK A01,M
TMT,2024-02-06 21:35,-117.1971,39.4643,1749.34,35.00,33.00,92.32,230.00,11.00,0.00,29.54,M,10.00,M,SCT,BKN,OVC,M,1200.00,1900.00,3200.00,M,-RA,M,M,M,M,M,M,26.26,KTMT 062135Z AUTO 23011KT 10SM -RA SCT012 BKN019 OVC032 02/01 A2954 RMK AO2 T00170005,M
TPH,2024-02-06 21:36,-117.0904,38.0505,1654.00,34.00,33.00,96.08,0.00,0.00,0.02,29.55,M,1.25,M,SCT,OVC,M,M,400.00,1000.00,M,M,-SN BR,M,M,M,M,M,M,34.00,KTPH 062136Z AUTO 00000KT 1 1/4SM -SN BR SCT004 OVC010 01/01 A2955 RMK AO2 P0002 T00110006,M
ELY,2024-02-06 21:39,-114.8453,39.2950,1909.00,36.00,32.00,85.23,170.00,16.00,0.01,29.52,M,10.00,25.00,BKN,OVC,M,M,3400.00,4400.00,M,M,UP,M,M,M,M,M,M,25.63,KELY 062139Z AUTO 17016G25KT 10SM UP BKN034 OVC044 02/00 A2952 RMK AO2 RAB18E31UPB35SNE18 P0001 T00220000,M
WMC,2024-02-06 21:40,-117.8072,40.9019,1315.00,33.00,31.00,92.25,290.00,5.00,0.04,29.55,M,0.75,M,SCT,BKN,OVC,M,300.00,800.00,1700.00,M,-SN BR,M,M,M,M,M,M,27.58,KWMC 062140Z AUTO 29005KT 3/4SM -SN BR SCT003 BKN008 OVC017 01/M01 A2955 RMK AO2 P0004 T00061006,M
INS,2024-02-06 21:44,-115.6733,36.5872,955.00,46.40,41.00,81.34,360.00,3.00,0.00,29.57,1000.10,10.00,M,BKN,BKN,OVC,M,2500.00,4800.00,6500.00,M,M,M,M,M,M,M,M,45.15,KINS 062144Z AUTO 36003KT 10SM BKN025 BKN048 OVC065 08/05 A2957 RMK AO2 RAE44 SLP001 $,M
TPH,2024-02-06 21:45,-117.0904,38.0505,1654.00,34.00,34.00,100.00,0.00,0.00,0.03,29.55,M,1.25,M,SCT,OVC,M,M,400.00,800.00,M,M,-SN BR,M,M,M,M,M,M,34.00,KTPH 062145Z AUTO 00000KT 1 1/4SM -SN BR SCT004 OVC008 01/01 A2955 RMK AO2 P0003 T00110011,M
LOL,2024-02-06 21:46,-118.5701,40.0684,1192.43,32.00,32.00,100.00,0.00,0.00,0.06,29.58,M,1.50,M,BKN,OVC,M,M,1600.00,2800.00,M,M,-SN BR,M,M,M,M,M,M,32.00,KLOL 062146Z AUTO 00000KT 1 1/2SM -SN BR BKN016 OVC028 00/00 A2958 RMK AO2 VIS 1V3 P0006 T00000000,M
INS,2024-02-06 21:49,-115.6733,36.5872,955.00,46.40,41.00,81.34,0.00,0.00,0.00,29.57,1000.10,10.00,M,SCT,BKN,OVC,M,2500.00,4700.00,6500.00,M,M,M,M,M,M,M,M,46.40,KINS 062149Z AUTO 00000KT 10SM SCT025 BKN047 OVC065 08/05 A2957 RMK AO2 RAE44 SLP001 $,M
INS,2024-02-06 21:52,-115.6733,36.5872,955.00,46.40,41.00,81.34,0.00,0.00,0.00,29.56,999.80,10.00,M,SCT,BKN,BKN,OVC,2500.00,3000.00,4700.00,7000.00,-RA,M,M,M,M,M,M,46.40,KINS 062152Z AUTO 00000KT 10SM -RA SCT025 BKN030 BKN047 OVC070 08/05 A2956 RMK AO2 RAE44RAB52 SLP998 $,M
DRA,2024-02-06 21:53,-116.0278,36.6206,1009.00,44.00,41.00,89.11,260.00,3.00,0.04,29.56,999.70,8.00,M,BKN,OVC,M,M,3600.00,4700.00,M,M,-RA,M,M,M,M,M,M,42.41,KDRA 062153Z AUTO 26003KT 8SM -RA BKN036 OVC047 07/05 A2956 RMK AO2 SLP997 P0004 T00670050,M
ELY,2024-02-06 21:53,-114.8453,39.2950,1909.00,36.00,32.00,85.23,170.00,16.00,0.01,29.52,998.30,10.00,27.00,BKN,OVC,M,M,4000.00,5000.00,M,M,M,M,M,M,27.00,170.00,2024-02-06 21:51,25.63,KELY 062153Z AUTO 17016G27KT 10SM BKN040 OVC050 02/00 A2952 RMK AO2 PK WND 17027/2151 RAB18E31B47E48UPB35E47SNE18 SLP983 P0001 T00220000,M
VGT,2024-02-06 21:53,-115.1933,36.2111,667.00,50.00,44.00,79.76,90.00,5.00,0.01,29.57,1002.80,7.00,M,SCT,OVC,M,M,900.00,3200.00,M,M,-RA,M,M,M,M,M,M,50.00,KVGT 062153Z 09005KT 7SM -RA SCT009 OVC032 10/07 A2957 RMK AO2 RAB2056 SLP028 P0001 T01000067,M
LOL,2024-02-06 21:53,-118.5701,40.0684,1192.43,33.00,33.00,100.00,0.00,0.00,0.06,29.58,1002.50,2.00,M,FEW,BKN,OVC,M,1500.00,2000.00,2800.00,M,-SN BR,M,M,M,M,M,M,33.00,KLOL 062153Z AUTO 00000KT 2SM -SN BR FEW015 BKN020 OVC028 01/01 A2958 RMK AO2 SLP025 P0006 T00060006,M
P68,2024-02-06 21:53,-116.0056,39.6014,1993.00,38.00,33.00,82.00,140.00,8.00,0.00,29.49,996.60,M,M,M,M,M,M,M,M,M,M,M,M,M,M,M,M,M,31.50,KP68 062153Z AUTO 14008KT 03/01 A2949 RMK AO1 SLP966 T00330006,M
INS,2024-02-06 21:55,-115.6733,36.5872,955.00,45.70,41.00,83.52,340.00,4.00,0.05,29.56,999.80,10.00,M,FEW,SCT,BKN,BKN,1600.00,2500.00,3000.00,4700.00,-RA,M,M,M,M,M,M,43.42,KINS 062155Z AUTO 34004KT 10SM -RA FEW016 SCT025 BKN030 BKN047 OVC070 08/05 A2956 RMK AO2 RAE44RAB52 SLP998 P0005 T00760049 $,M
BVU,2024-02-06 21:55,-114.8611,35.9475,671.00,50.00,46.40,87.37,160.00,12.00,0.00,29.56,M,10.00,M,SCT,OVC,M,M,2100.00,2900.00,M,M,M,M,M,M,M,M,M,50.00,KBVU 062155Z AUTO 16012KT 10SM SCT021 OVC029 10/08 A2956 RMK AO2,M
CXP,2024-02-06 21:55,-119.7326,39.1923,1431.00,39.20,32.00,75.16,0.00,0.00,0.00,29.60,M,10.00,M,SCT,BKN,BKN,M,1700.00,5500.00,6000.00,M,-RA,M,M,M,M,M,M,39.20,KCXP 062155Z AUTO 00000KT 10SM -RA SCT017 BKN055 BKN060 04/M00 A2960 RMK AO2,M
RNO,2024-02-06 21:55,-119.7711,39.4839,1341.00,43.00,31.00,62.31,350.00,7.00,0.00,29.59,1001.10,10.00,M,SCT,OVC,M,M,4200.00,10000.00,M,M,M,M,M,M,M,M,M,38.19,KRNO 062155Z 35007KT 10SM SCT042 OVC100 06/M01 A2959 RMK AO2 SLP011 T00611006,M
RTS,2024-02-06 21:55,-119.8764,39.6682,1539.00,37.40,28.40,69.67,340.00,7.00,0.00,29.60,M,10.00,M,SCT,M,M,M,5500.00,M,M,M,M,M,M,M,M,M,M,31.36,KRTS 062155Z AUTO 34007KT 10SM SCT055 03/M02 A2960 RMK AO2,M
05U,2024-02-06 21:55,-116.0051,39.6042,1811.23,39.20,33.80,80.79,310.00,7.00,0.00,29.52,M,9.00,M,M,M,M,M,M,M,M,M,M,M,M,M,M,M,M,33.56,K05U 062155Z AUTO 31007KT 9SM 04/01 A2952 RMK A01,M
MEV,2024-02-06 21:55,-119.7500,38.9963,1441.42,37.40,32.00,80.65,0.00,0.00,0.00,29.59,M,10.00,M,SCT,BKN,M,M,5000.00,5500.00,M,M,M,M,M,M,M,M,M,37.40,KMEV 062155Z AUTO 00000KT 10SM SCT050 BKN055 03/00 A2959 RMK AO2,M
BAM,2024-02-06 21:55,-116.8743,40.5990,1382.36,41.00,39.20,93.24,330.00,8.00,0.00,29.52,M,7.00,M,BKN,OVC,M,M,800.00,2200.00,M,M,M,M,M,M,M,M,M,35.20,KBAM 062155Z AUTO 33008KT 7SM BKN008 OVC022 05/04 A2952 RMK AO1,M
HTH,2024-02-06 21:55,-118.6315,38.5448,1282.89,41.00,35.60,80.93,310.00,5.00,0.00,29.58,M,10.00,M,SCT,M,M,M,1700.00,M,M,M,M,M,M,M,M,M,M,37.08,KHTH 062155Z AUTO 31005KT 10SM SCT017 05/02 A2958 RMK A01,M
TMT,2024-02-06 21:55,-117.1971,39.4643,1749.34,33.80,32.00,93.03,240.00,12.00,0.00,29.54,M,4.00,M,SCT,BKN,OVC,M,1000.00,1800.00,2900.00,M,-SN,M,M,M,M,M,M,24.29,KTMT 062155Z AUTO 24012KT 4SM -SN SCT010 BKN018 OVC029 01/00 A2954 RMK AO2 T00100000,M
EKO,2024-02-06 21:56,-115.7860,40.8242,1367.00,40.00,35.00,82.15,70.00,4.00,0.02,29.50,998.70,10.00,M,BKN,OVC,M,M,1400.00,2700.00,M,M,-RA,M,M,M,M,M,M,36.76,KEKO 062156Z AUTO 07004KT 10SM -RA BKN014 OVC027 04/02 A2950 RMK AO2 SLP987 P0002 T00440017,M
LOL,2024-02-06 21:56,-118.5701,40.0684,1192.43,33.00,33.00,100.00,0.00,0.00,T,29.57,M,3.00,M,FEW,BKN,OVC,M,600.00,2000.00,2700.00,M,-RA BR,M,M,M,M,M,M,33.00,KLOL 062156Z AUTO 00000KT 3SM -RA BR FEW006 BKN020 OVC027 01/01 A2957 RMK AO2 UPB54E56RAB56SNE54 P0000 T00060006,M
NFL,2024-02-06 21:56,-118.7010,39.4166,1199.00,41.00,37.00,85.54,330.00,8.00,T,29.57,1000.10,5.00,M,SCT,BKN,OVC,M,500.00,1000.00,3000.00,M,-RA BR,M,M,M,M,M,M,35.20,KNFL 062156Z 33008KT 5SM -RA BR SCT005 BKN010 OVC030 05/03 A2957 RMK AO2 SLP001 WR// P0000 T00500028,M
HND,2024-02-06 21:56,-115.1344,35.9729,742.79,48.00,45.00,89.29,70.00,3.00,0.02,29.58,1003.50,8.00,M,FEW,BKN,OVC,M,600.00,2800.00,4400.00,M,-RA,M,M,M,M,M,M,46.98,KHND 062156Z 07003KT 8SM -RA FEW006 BKN028 OVC044 09/07 A2958 RMK AO2 SLP035 P0002 T00890072,M
TPH,2024-02-06 21:56,-117.0904,38.0505,1654.00,35.00,33.00,92.32,0.00,0.00,0.03,29.55,1000.30,3.00,M,FEW,OVC,M,M,200.00,700.00,M,M,-SN BR,M,M,M,M,M,M,35.00,KTPH 062156Z AUTO 00000KT 3SM -SN BR FEW002 OVC007 02/01 A2955 RMK AO2 SLP003 P0003 T00170006,M
LAS,2024-02-06 21:56,-115.1634,36.0719,663.00,48.00,45.00,89.29,50.00,5.00,0.04,29.57,1001.00,4.00,M,FEW,SCT,OVC,M,2200.00,3500.00,5500.00,M,-RA BR,M,M,M,M,M,M,45.40,KLAS 062156Z 05005KT 4SM -RA BR FEW022 SCT035 OVC055 09/07 A2957 RMK AO2 RAB2057 SLP010 P0004 T00890072,M
WMC,2024-02-06 21:56,-117.8072,40.9019,1315.00,33.00,31.00,92.25,270.00,7.00,0.06,29.54,1000.80,0.75,M,VV ,M,M,M,500.00,M,M,M,-SN BR,M,M,M,M,M,M,26.00,KWMC 062156Z AUTO 27007KT 3/4SM -SN BR VV005 01/M01 A2954 RMK AO2 SLP008 P0006 T00061006,M
LSV,2024-02-06 21:57,-115.0343,36.2362,570.00,50.00,46.00,86.06,70.00,4.00,0.02,29.55,1000.40,10.00,M,SCT,BKN,M,M,2200.00,2800.00,M,M,M,M,M,M,M,M,M,50.00,KLSV 062157Z 07004KT 10SM SCT022 BKN028 10/08 A2955 RMK RAE2054RAB04E39DZB39E41 SLP004 P0002 T01000078 $,M
INS,2024-02-06 22:00,-115.6733,36.5872,955.00,46.40,41.00,81.34,10.00,3.00,0.00,29.57,1000.10,9.00,M,FEW,SCT,BKN,BKN,400.00,1600.00,2400.00,2900.00,-RA,M,M,M,M,M,M,45.15,KINS 062200Z AUTO 01003KT 9SM -RA FEW004 SCT016 BKN024 BKN029 BKN046 OVC065 08/05 A2957 RMK AO2 SLP001 $,M
VGT,2024-02-06 22:07,-115.1933,36.2111,667.00,50.00,45.00,82.86,90.00,6.00,T,29.56,M,7.00,M,BKN,OVC,M,M,1400.00,4600.00,M,M,-RA,M,M,M,M,M,M,50.00,KVGT 062207Z 09006KT 7SM -RA BKN014 OVC046 10/07 A2956 RMK AO2 P0000 T01000072,M
HND,2024-02-06 22:07,-115.1344,35.9729,742.79,48.20,44.60,87.28,0.00,0.00,T,29.58,M,10.00,M,FEW,SCT,OVC,M,600.00,4300.00,5500.00,M,M,M,M,M,M,M,M,48.20,KHND 062207Z 00000KT 10SM FEW006 SCT043 OVC055 09/07 A2958 RMK AO2 RAE06 P0000,M
TPH,2024-02-06 22:09,-117.0904,38.0505,1654.00,36.00,33.00,88.73,0.00,0.00,T,29.55,M,5.00,M,BKN,OVC,M,M,300.00,700.00,M,M,-SN BR,M,M,M,M,M,M,36.00,KTPH 062209Z AUTO 00000KT 5SM -SN BR BKN003 OVC007 02/01 A2955 RMK AO2 P0000 T00220006,M
WMC,2024-02-06 22:12,-117.8072,40.9019,1315.00,33.00,31.00,92.25,280.00,6.00,0.02,29.55,M,1.25,M,OVC,M,M,M,700.00,M,M,M,-SN BR,M,M,M,M,M,M,26.73,KWMC 062212Z AUTO 28006KT 1 1/4SM -SN BR OVC007 01/M01 A2955 RMK AO2 P0002 T00061006,M
LSV,2024-02-06 22:14,-115.0343,36.2362,570.00,50.00,46.40,87.37,60.00,5.00,0.00,29.55,1000.40,4.00,M,SCT,SCT,M,M,2100.00,2900.00,M,M,-RA BR,M,M,M,M,M,M,50.00,KLSV 062214Z 06005KT 4SM -RA BR SCT021 SCT029 10/08 A2955 RMK RAB03 SLP004 $,M
BVU,2024-02-06 22:15,-114.8611,35.9475,671.00,50.00,46.40,87.37,170.00,12.00,0.00,29.56,M,4.00,17.00,FEW,BKN,OVC,M,2100.00,2700.00,3400.00,M,HZ,M,M,M,M,M,M,50.00,KBVU 062215Z AUTO 17012G17KT 4SM HZ FEW021 BKN027 OVC034 10/08 A2956 RMK AO2,M
CXP,2024-02-06 22:15,-119.7326,39.1923,1431.00,41.00,32.00,70.08,0.00,0.00,0.00,29.59,M,10.00,M,SCT,BKN,BKN,M,1600.00,5000.00,6000.00,M,M,M,M,M,M,M,M,41.00,KCXP 062215Z AUTO 00000KT 10SM SCT016 BKN050 BKN060 05/M00 A2959 RMK AO2,M
INS,2024-02-06 22:15,-115.6733,36.5872,955.00,46.40,41.00,81.34,340.00,6.00,0.00,29.57,1000.10,10.00,M,FEW,SCT,BKN,BKN,400.00,900.00,1300.00,2400.00,-RA,M,M,M,M,M,M,42.87,KINS 062215Z AUTO 34006KT 10SM -RA FEW004 SCT009 BKN013 BKN024 OVC030 08/05 A2957 RMK AO2 SLP001 $,M
RTS,2024-02-06 22:15,-119.8764,39.6682,1539.00,37.40,28.40,69.67,340.00,7.00,0.00,29.60,M,10.00,M,CLR,M,M,M,M,M,M,M,M,M,M,M,M,M,M,31.36,KRTS 062215Z AUTO 34007KT 10SM CLR 03/M02 A2960 RMK AO2,M
05U,2024-02-06 22:15,-116.0051,39.6042,1811.23,39.20,33.80,80.79,310.00,7.00,0.00,29.52,M,9.00,M,M,M,M,M,M,M,M,M,M,M,M,M,M,M,M,33.56,K05U 062215Z AUTO 31007KT 9SM 04/01 A2952 RMK A01,M
MEV,2024-02-06 22:15,-119.7500,38.9963,1441.42,37.40,32.00,80.65,0.00,0.00,0.00,29.59,M,10.00,M,BKN,OVC,M,M,5000.00,6000.00,M,M,M,M,M,M,M,M,M,37.40,KMEV 062215Z AUTO 00000KT 10SM BKN050 OVC060 03/00 A2959 RMK AO2,M
BAM,2024-02-06 22:15,-116.8743,40.5990,1382.36,41.00,39.20,93.24,320.00,7.00,0.00,29.52,M,7.00,M,BKN,BKN,OVC,M,800.00,1200.00,2700.00,M,M,M,M,M,M,M,M,35.75,KBAM 062215Z AUTO 32007KT 7SM BKN008 BKN012 OVC027 05/04 A2952 RMK AO1,M
HTH,2024-02-06 22:15,-118.6315,38.5448,1282.89,41.00,33.80,75.33,320.00,4.00,0.00,29.58,M,10.00,M,SCT,SCT,M,M,1700.00,12000.00,M,M,M,M,M,M,M,M,M,37.93,KHTH 062215Z AUTO 32004KT 10SM SCT017 SCT120 05/01 A2958 RMK A01,M
TMT,2024-02-06 22:15,-117.1971,39.4643,1749.34,33.00,32.00,96.06,230.00,8.00,0.00,29.54,M,1.50,M,OVC,M,M,M,1400.00,M,M,M,-SN,M,M,M,M,M,M,25.34,KTMT 062215Z AUTO 23008KT 1 1/2SM -SN OVC014 01/00 A2954 RMK AO2 T00050001,M
INS,2024-02-06 22:20,-115.6733,36.5872,955.00,46.40,39.20,75.84,340.00,4.00,0.00,29.57,1000.10,10.00,M,FEW,FEW,SCT,OVC,400.00,800.00,1300.00,2400.00,-RA,M,M,M,M,M,M,44.24,KINS 062220Z AUTO 34004KT 10SM -RA FEW004 FEW008 SCT013 OVC024 08/04 A2957 RMK AO2 OVC V BKN SLP001 $,M
WMC,2024-02-06 22:27,-117.8072,40.9019,1315.00,33.00,31.00,92.25,280.00,6.00,0.03,29.54,M,1.75,M,BKN,OVC,M,M,500.00,900.00,M,M,-SN BR,M,M,M,M,M,M,26.73,KWMC 062227Z AUTO 28006KT 1 3/4SM -SN BR BKN005 OVC009 01/M01 A2954 RMK AO2 P0003 T00061006,M
EKO,2024-02-06 22:31,-115.7860,40.8242,1367.00,40.00,35.00,82.15,90.00,4.00,0.01,29.50,M,10.00,M,SCT,BKN,OVC,M,1400.00,3000.00,3600.00,M,-RA,M,M,M,M,M,M,36.76,KEKO 062231Z AUTO 09004KT 10SM -RA SCT014 BKN030 OVC036 04/02 A2950 RMK AO2 P0001 T00440017,M
TPH,2024-02-06 22:32,-117.0904,38.0505,1654.00,35.00,33.00,92.32,0.00,0.00,0.01,29.54,M,7.00,M,SCT,BKN,OVC,M,500.00,2200.00,3000.00,M,-SN,M,M,M,M,M,M,35.00,KTPH 062232Z AUTO 00000KT 7SM -SN SCT005 BKN022 OVC030 02/01 A2954 RMK AO2 P0001 T00170006,M
BVU,2024-02-06 22:35,-114.8611,35.9475,671.00,51.80,46.40,81.74,160.00,13.00,0.00,29.56,M,10.00,M,SCT,BKN,BKN,M,1900.00,2600.00,3400.00,M,M,M,M,M,M,M,M,51.80,KBVU 062235Z AUTO 16013KT 10SM SCT019 BKN026 BKN034 11/08 A2956 RMK AO2,M
CXP,2024-02-06 22:35,-119.7326,39.1923,1431.00,41.00,32.00,70.08,0.00,0.00,0.00,29.59,M,10.00,M,SCT,SCT,BKN,M,1700.00,4900.00,6000.00,M,M,M,M,M,M,M,M,41.00,KCXP 062235Z AUTO 00000KT 10SM SCT017 SCT049 BKN060 05/M00 A2959 RMK AO2,M
RTS,2024-02-06 22:35,-119.8764,39.6682,1539.00,37.40,28.40,69.67,350.00,8.00,0.00,29.59,M,10.00,M,FEW,M,M,M,2700.00,M,M,M,M,M,M,M,M,M,M,30.76,KRTS 062235Z AUTO 35008KT 10SM FEW027 03/M02 A2959 RMK AO2,M
05U,2024-02-06 22:35,-116.0051,39.6042,1811.23,39.20,33.80,80.79,310.00,5.00,0.00,29.52,M,10.00,M,M,M,M,M,M,M,M,M,M,M,M,M,M,M,M,34.95,K05U 062235Z AUTO 31005KT 10SM 04/01 A2952 RMK A01,M
MEV,2024-02-06 22:35,-119.7500,38.9963,1441.42,37.40,32.00,80.65,0.00,0.00,0.00,29.59,M,10.00,M,OVC,M,M,M,5500.00,M,M,M,M,M,M,M,M,M,M,37.40,KMEV 062235Z AUTO 00000KT 10SM OVC055 03/00 A2959 RMK AO2,M
BAM,2024-02-06 22:35,-116.8743,40.5990,1382.36,41.00,39.20,93.24,320.00,7.00,0.00,29.52,M,10.00,M,BKN,OVC,M,M,800.00,2000.00,M,M,M,M,M,M,M,M,M,35.75,KBAM 062235Z AUTO 32007KT 10SM BKN008 OVC020 05/04 A2952 RMK AO1,M
HTH,2024-02-06 22:35,-118.6315,38.5448,1282.89,41.00,33.80,75.33,290.00,4.00,0.00,29.58,M,10.00,M,FEW,FEW,M,M,1700.00,12000.00,M,M,M,M,M,M,M,M,M,37.93,KHTH 062235Z AUTO 29004KT 10SM FEW017 FEW120 05/01 A2958 RMK A01,M
TMT,2024-02-06 22:35,-117.1971,39.4643,1749.34,33.80,32.00,93.03,220.00,9.00,0.00,29.53,M,7.00,M,SCT,BKN,OVC,M,700.00,1600.00,3100.00,M,-SN,M,M,M,M,M,M,25.75,KTMT 062235Z AUTO 22009KT 7SM -SN SCT007 BKN016 OVC031 01/00 A2953 RMK AO2 T00100001,M
DRA,2024-02-06 22:37,-116.0278,36.6206,1009.00,45.00,40.00,82.51,360.00,3.00,0.02,29.55,M,10.00,M,BKN,OVC,M,M,2600.00,3400.00,M,M,M,M,M,M,M,M,M,43.55,KDRA 062237Z AUTO 36003KT 10SM BKN026 OVC034 07/04 A2955 RMK AO2 RAE30 P0002 T00720044,M
WMC,2024-02-06 22:43,-117.8072,40.9019,1315.00,34.00,31.00,88.63,280.00,8.00,0.04,29.54,M,2.00,M,OVC,M,M,M,400.00,M,M,M,-SN BR,M,M,M,M,M,M,26.58,KWMC 062243Z AUTO 28008KT 2SM -SN BR OVC004 01/M01 A2954 RMK AO2 P0004 T00111006,M
TPH,2024-02-06 22:48,-117.0904,38.0505,1654.00,34.00,32.00,92.29,330.00,3.00,0.01,29.54,M,2.50,M,SCT,BKN,OVC,M,600.00,1800.00,2500.00,M,-SN BR,M,M,M,M,M,M,30.97,KTPH 062248Z AUTO 33003KT 2 1/2SM -SN BR SCT006 BKN018 OVC025 01/00 A2954 RMK AO2 P0001 T00110000,M
DRA,2024-02-06 22:53,-116.0278,36.6206,1009.00,45.00,40.00,82.51,10.00,3.00,0.02,29.55,999.30,10.00,M,SCT,OVC,M,M,2800.00,3500.00,M,M,-RA,M,M,M,M,M,M,43.55,KDRA 062253Z AUTO 01003KT 10SM -RA SCT028 OVC035 07/04 A2955 RMK AO2 RAE30B46 SLP993 P0002 T00720044,M
ELY,2024-02-06 22:53,-114.8453,39.2950,1909.00,36.00,32.00,85.23,170.00,15.00,0.00,29.51,997.60,10.00,23.00,OVC,M,M,M,4900.00,M,M,M,M,M,M,M,M,M,M,25.97,KELY 062253Z AUTO 17015G23KT 10SM OVC049 02/00 A2951 RMK AO2 SLP976 T00220000,M
VGT,2024-02-06 22:53,-115.1933,36.2111,667.00,50.00,45.00,82.86,90.00,5.00,T,29.56,1002.60,10.00,M,BKN,BKN,OVC,M,1000.00,1800.00,4800.00,M,M,M,M,M,M,M,M,50.00,KVGT 062253Z 09005KT 10SM BKN010 BKN018 OVC048 10/07 A2956 RMK AO2 RAE18 CIG 008V013 SLP026 P0000 T01000072,M
LOL,2024-02-06 22:53,-118.5701,40.0684,1192.43,35.00,34.00,96.09,0.00,0.00,0.04,29.58,1002.30,5.00,M,OVC,M,M,M,1900.00,M,M,M,-RA BR,M,M,M,M,M,M,35.00,KLOL 062253Z AUTO 00000KT 5SM -RA BR OVC019 02/01 A2958 RMK AO2 UPB2154E2156RAB2156SNE2154 SLP023 P0004 T00170011,M
P68,2024-02-06 22:53,-116.0056,39.6014,1993.00,38.00,33.00,82.00,310.00,5.00,0.00,29.48,996.30,M,M,M,M,M,M,M,M,M,M,M,M,M,M,M,M,M,33.52,KP68 062253Z AUTO 31005KT 03/01 A2948 RMK AO1 SLP963 T00330006,M
BVU,2024-02-06 22:55,-114.8611,35.9475,671.00,51.80,46.40,81.74,150.00,11.00,0.00,29.56,M,10.00,M,BKN,BKN,OVC,M,1800.00,3000.00,5000.00,M,M,M,M,M,M,M,M,51.80,KBVU 062255Z AUTO 15011KT 10SM BKN018 BKN030 OVC050 11/08 A2956 RMK AO2,M
CXP,2024-02-06 22:55,-119.7326,39.1923,1431.00,41.00,32.00,70.08,200.00,4.00,0.00,29.59,M,10.00,M,SCT,BKN,M,M,2000.00,6000.00,M,M,M,M,M,M,M,M,M,37.93,KCXP 062255Z AUTO 20004KT 10SM SCT020 BKN060 05/M00 A2959 RMK AO2,M
INS,2024-02-06 22:55,-115.6733,36.5872,955.00,45.50,40.30,81.91,340.00,4.00,0.04,29.56,1000.00,5.00,M,FEW,BKN,OVC,M,1500.00,2300.00,3500.00,M,RA,M,M,M,M,M,M,43.18,KINS 062255Z AUTO 34004KT 5SM RA FEW015 BKN023 OVC035 08/05 A2956 RMK AO2 SLP000 P0004 T00750046 $,M
RNO,2024-02-06 22:55,-119.7711,39.4839,1341.00,44.00,31.00,59.97,330.00,10.00,0.00,29.58,1000.90,10.00,M,SCT,BKN,M,M,4200.00,10000.00,M,M,M,M,M,M,M,M,M,38.02,KRNO 062255Z 33010KT 10SM SCT042 BKN100 07/M01 A2958 RMK AO2 SLP009 T00671006,M
RTS,2024-02-06 22:55,-119.8764,39.6682,1539.00,37.40,30.20,74.98,350.00,8.00,0.00,29.60,M,10.00,M,BKN,M,M,M,2600.00,M,M,M,M,M,M,M,M,M,M,30.76,KRTS 062255Z AUTO 35008KT 10SM BKN026 03/M01 A2960 RMK AO2,M
05U,2024-02-06 22:55,-116.0051,39.6042,1811.23,39.20,33.80,80.79,0.00,0.00,0.00,29.51,M,10.00,M,M,M,M,M,M,M,M,M,M,M,M,M,M,M,M,39.20,K05U 062255Z AUTO 00000KT 10SM 04/01 A2951 RMK A01,M
MEV,2024-02-06 22:55,-119.7500,38.9963,1441.42,37.40,32.00,80.65,0.00,0.00,0.00,29.59,M,10.00,M,FEW,BKN,M,M,3200.00,5500.00,M,M,M,M,M,M,M,M,M,37.40,KMEV 062255Z AUTO 00000KT 10SM FEW032 BKN055 03/00 A2959 RMK AO2,M
BAM,2024-02-06 22:55,-116.8743,40.5990,1382.36,41.00,39.20,93.24,310.00,8.00,0.00,29.52,M,7.00,M,SCT,SCT,OVC,M,800.00,1100.00,2000.00,M,M,M,M,M,M,M,M,35.20,KBAM 062255Z AUTO 31008KT 7SM SCT008 SCT011 OVC020 05/04 A2952 RMK AO1,M
HTH,2024-02-06 22:55,-118.6315,38.5448,1282.89,42.80,33.80,70.28,M,3.00,0.00,29.58,M,10.00,M,SCT,SCT,M,M,2700.00,12000.00,M,M,M,M,M,M,M,M,M,41.03,KHTH 062255Z AUTO VRB03KT 10SM SCT027 SCT120 06/01 A2958 RMK A01,M
LSV,2024-02-06 22:55,-115.0343,36.2362,570.00,50.50,47.00,87.73,50.00,3.00,0.01,29.54,1000.00,10.00,M,SCT,SCT,M,M,5000.00,6500.00,M,M,M,M,M,M,M,M,M,50.50,KLSV 062255Z AUTO 05003KT 10SM SCT050 SCT065 10/08 A2954 RMK AO2 RAB03E41 SLP000 P0001 T01030084 $,M
TMT,2024-02-06 22:55,-117.1971,39.4643,1749.34,34.50,32.40,91.93,210.00,10.00,0.00,29.54,M,10.00,M,SCT,BKN,OVC,M,700.00,3100.00,3700.00,M,M,M,M,M,M,M,M,26.10,KTMT 062255Z AUTO 21010KT 10SM SCT007 BKN031 OVC037 01/00 A2954 RMK AO2 T00140002,M
EKO,2024-02-06 22:56,-115.7860,40.8242,1367.00,39.00,35.00,85.42,M,3.00,0.01,29.50,998.70,10.00,M,BKN,OVC,M,M,3300.00,4000.00,M,M,-RA,M,M,M,M,M,M,36.69,KEKO 062256Z AUTO VRB03KT 10SM -RA BKN033 OVC040 04/02 A2950 RMK AO2 SLP987 P0001 T00390017,M
HND,2024-02-06 22:56,-115.1344,35.9729,742.79,50.00,45.00,82.86,0.00,0.00,T,29.57,1003.10,10.00,M,FEW,BKN,OVC,M,800.00,3700.00,6500.00,M,M,M,M,M,M,M,M,50.00,KHND 062256Z 00000KT 10SM FEW008 BKN037 OVC065 10/07 A2957 RMK AO2 RAE06 SLP031 P0000 T01000072,M
TPH,2024-02-06 22:56,-117.0904,38.0505,1654.00,34.00,32.00,92.29,340.00,4.00,0.01,29.54,1000.30,7.00,M,FEW,OVC,M,M,600.00,2100.00,M,M,-SN,M,M,M,M,M,M,29.76,KTPH 062256Z AUTO 34004KT 7SM -SN FEW006 OVC021 01/00 A2954 RMK AO2 SLP003 P0001 T00110000,M
LAS,2024-02-06 22:56,-115.1634,36.0719,663.00,49.00,45.00,86.00,100.00,3.00,0.01,29.56,1000.80,10.00,M,SCT,BKN,OVC,M,1200.00,4300.00,6000.00,M,M,M,M,M,M,M,M,48.12,KLAS 062256Z 10003KT 10SM SCT012 BKN043 OVC060 09/07 A2956 RMK AO2 RAE05 SLP008 P0001 T00940072,M
WMC,2024-02-06 22:56,-117.8072,40.9019,1315.00,34.00,31.00,88.63,270.00,8.00,0.04,29.54,1000.80,2.00,M,OVC,M,M,M,600.00,M,M,M,-SN BR,M,M,M,M,M,M,26.58,KWMC 062256Z AUTO 27008KT 2SM -SN BR OVC006 01/M01 A2954 RMK AO2 SLP008 P0004 T00111006,M
NFL,2024-02-06 22:56,-118.7010,39.4166,1199.00,41.00,37.00,85.54,350.00,11.00,T,29.57,1000.00,6.00,M,SCT,BKN,OVC,M,500.00,1000.00,2000.00,M,BR,M,M,M,M,M,M,33.84,KNFL 062256Z 35011KT 6SM BR SCT005 BKN010 OVC020 05/03 A2957 RMK RAE13 SLP000 WR// P0000 T00500028,M
VGT,2024-02-06 22:57,-115.1933,36.2111,667.00,50.00,45.00,82.86,90.00,5.00,0.00,29.56,M,10.00,M,BKN,OVC,M,M,3000.00,4800.00,M,M,M,M,M,M,M,M,M,50.00,KVGT 062257Z 09005KT 10SM BKN030 OVC048 10/07 A2956 RMK AO2 T01000072,M
INS,2024-02-06 23:05,-115.6733,36.5872,955.00,44.60,39.20,81.20,0.00,0.00,0.00,29.57,1000.30,4.00,M,SCT,BKN,OVC,M,400.00,1200.00,2300.00,M,RA,M,M,M,M,M,M,44.60,KINS 062305Z AUTO 00000KT 4SM RA SCT004 BKN012 OVC023 07/04 A2957 RMK AO2 BKN V SCT SLP003 $,M
LSV,2024-02-06 23:05,-115.0343,36.2362,570.00,50.00,46.40,87.37,50.00,5.00,0.00,29.54,1000.00,10.00,M,SCT,BKN,M,M,2900.00,5500.00,M,M,-RA,M,M,M,M,M,M,50.00,KLSV 062305Z AUTO 05005KT 10SM -RA SCT029 BKN055 10/08 A2954 RMK AO2 RAB05 SLP000 $,M
BVU,2024-02-06 23:15,-114.8611,35.9475,671.00,51.80,46.40,81.74,170.00,11.00,0.00,29.56,M,10.00,M,SCT,BKN,OVC,M,1700.00,2500.00,3400.00,M,M,M,M,M,M,M,M,51.80,KBVU 062315Z AUTO 17011KT 10SM SCT017 BKN025 OVC034 11/08 A2956 RMK AO2,M
CXP,2024-02-06 23:15,-119.7326,39.1923,1431.00,41.00,32.00,70.08,290.00,5.00,0.00,29.59,M,10.00,M,FEW,SCT,SCT,M,2000.00,2600.00,6000.00,M,M,M,M,M,M,M,M,37.08,KCXP 062315Z AUTO 29005KT 10SM FEW020 SCT026 SCT060 05/M00 A2959 RMK AO2,M
RTS,2024-02-06 23:15,-119.8764,39.6682,1539.00,37.40,28.40,69.67,350.00,9.00,0.00,29.60,M,10.00,M,BKN,OVC,M,M,2600.00,3100.00,M,M,M,M,M,M,M,M,M,30.23,KRTS 062315Z AUTO 35009KT 10SM BKN026 OVC031 03/M02 A2960 RMK AO2,M
05U,2024-02-06 23:15,-116.0051,39.6042,1811.23,M,M,M,140.00,4.00,0.00,29.51,M,10.00,M,M,M,M,M,M,M,M,M,M,M,M,M,M,M,M,M,K05U 062315Z AUTO 14004KT 10SM A2951 RMK A01,M
MEV,2024-02-06 23:15,-119.7500,38.9963,1441.42,35.60,32.00,86.59,0.00,0.00,0.00,29.59,M,10.00,M,FEW,FEW,SCT,M,3800.00,4600.00,5000.00,M,M,M,M,M,M,M,M,35.60,KMEV 062315Z AUTO 00000KT 10SM FEW038 FEW046 SCT050 02/00 A2959 RMK AO2,M
BAM,2024-02-06 23:15,-116.8743,40.5990,1382.36,41.00,37.40,86.89,320.00,7.00,0.00,29.51,M,7.00,M,SCT,BKN,OVC,M,800.00,1900.00,4600.00,M,M,M,M,M,M,M,M,35.75,KBAM 062315Z AUTO 32007KT 7SM SCT008 BKN019 OVC046 05/03 A2951 RMK AO1,M
HTH,2024-02-06 23:15,-118.6315,38.5448,1282.89,42.80,33.80,70.28,M,4.00,0.00,29.58,M,10.00,M,FEW,M,M,M,2700.00,M,M,M,M,M,M,M,M,M,M,40.03,KHTH 062315Z AUTO VRB04KT 10SM FEW027 06/01 A2958 RMK A01,M
TMT,2024-02-06 23:15,-117.1971,39.4643,1749.34,35.00,32.00,88.68,240.00,8.00,0.00,29.54,M,10.00,M,SCT,OVC,M,M,1800.00,4100.00,M,M,M,M,M,M,M,M,M,27.81,KTMT 062315Z AUTO 24008KT 10SM SCT018 OVC041 02/00 A2954 RMK AO2 T00171001,M
LSV,2024-02-06 23:16,-115.0343,36.2362,570.00,50.00,48.20,93.50,20.00,4.00,0.00,29.54,1000.00,10.00,M,FEW,SCT,M,M,2900.00,6000.00,M,M,M,M,M,M,M,M,M,50.00,KLSV 062316Z AUTO 02004KT 10SM FEW029 SCT060 10/09 A2954 RMK AO2 RAB05E16 SLP000 $,M
EKO,2024-02-06 23:21,-115.7860,40.8242,1367.00,39.00,35.00,85.42,70.00,3.00,0.01,29.50,M,10.00,M,BKN,OVC,M,M,1500.00,2900.00,M,M,-RA,M,M,M,M,M,M,36.69,KEKO 062321Z AUTO 07003KT 10SM -RA BKN015 OVC029 04/02 A2950 RMK AO2 P0001 T00390017,M
WMC,2024-02-06 23:23,-117.8072,40.9019,1315.00,34.00,31.00,88.63,280.00,9.00,0.01,29.55,M,5.00,M,OVC,M,M,M,600.00,M,M,M,-SN BR,M,M,M,M,M,M,26.00,KWMC 062323Z AUTO 28009KT 5SM -SN BR OVC006 01/M01 A2955 RMK AO2 P0001 T00111006,M
TPH,2024-02-06 23:26,-117.0904,38.0505,1654.00,35.00,33.00,92.32,340.00,4.00,T,29.54,M,10.00,M,BKN,BKN,OVC,M,3600.00,5000.00,8500.00,M,M,M,M,M,M,M,M,30.92,KTPH 062326Z AUTO 34004KT 10SM BKN036 BKN050 OVC085 02/01 A2954 RMK AO2 UPB2259E02SNE2259 P0000 T00170006,M
LOL,2024-02-06 23:28,-118.5701,40.0684,1192.43,36.00,35.00,96.11,0.00,0.00,0.01,29.57,M,7.00,M,FEW,BKN,OVC,M,1700.00,3100.00,3800.00,M,-RA,M,M,M,M,M,M,36.00,KLOL 062328Z AUTO 00000KT 7SM -RA FEW017 BKN031 OVC038 02/02 A2957 RMK AO2 P0001 T00220017,M
05U,2024-02-06 23:30,-116.0051,39.6042,1811.23,39.20,33.80,80.79,80.00,5.00,0.00,29.51,M,10.00,M,M,M,M,M,M,M,M,M,M,M,M,M,M,M,M,34.95,K05U 062330Z AUTO 08005KT 10SM 04/01 A2951 RMK A01,M
TMT,2024-02-06 23:35,-117.1971,39.4643,1749.34,35.80,31.00,82.51,250.00,9.00,0.00,29.53,M,10.00,14.00,SCT,BKN,BKN,M,1800.00,4300.00,6000.00,M,M,M,M,M,M,M,M,28.24,KTMT 062335Z AUTO 25009G14KT 10SM SCT018 BKN043 BKN060 02/M01 A2953 RMK AO2 T00211006,M
BVU,2024-02-06 23:35,-114.8611,35.9475,671.00,50.00,46.40,87.37,160.00,12.00,0.00,29.56,M,9.00,M,SCT,BKN,OVC,M,1900.00,2500.00,3500.00,M,M,M,M,M,M,M,M,50.00,KBVU 062335Z AUTO 16012KT 9SM SCT019 BKN025 OVC035 10/08 A2956 RMK AO2,M
CXP,2024-02-06 23:35,-119.7326,39.1923,1431.00,39.20,32.00,75.16,290.00,6.00,0.00,29.60,M,10.00,M,SCT,BKN,SCT,M,2600.00,3100.00,8000.00,M,M,M,M,M,M,M,M,34.20,KCXP 062335Z AUTO 29006KT 10SM SCT026 BKN031 SCT080 04/M00 A2960 RMK AO2,M
RTS,2024-02-06 23:35,-119.8764,39.6682,1539.00,37.40,28.40,69.67,360.00,9.00,0.00,29.60,M,10.00,M,SCT,BKN,BKN,M,2700.00,3200.00,5500.00,M,M,M,M,M,M,M,M,30.23,KRTS 062335Z AUTO 36009KT 10SM SCT027 BKN032 BKN055 03/M02 A2960 RMK AO2,M
MEV,2024-02-06 23:35,-119.7500,38.9963,1441.42,35.60,32.00,86.59,0.00,0.00,0.00,29.59,M,10.00,M,CLR,M,M,M,M,M,M,M,M,M,M,M,M,M,M,35.60,KMEV 062335Z AUTO 00000KT 10SM CLR 02/M00 A2959 RMK AO2,M
BAM,2024-02-06 23:35,-116.8743,40.5990,1382.36,41.00,37.40,86.89,320.00,6.00,0.00,29.52,M,7.00,M,SCT,SCT,OVC,M,800.00,1400.00,4600.00,M,M,M,M,M,M,M,M,36.37,KBAM 062335Z AUTO 32006KT 7SM SCT008 SCT014 OVC046 05/03 A2952 RMK AO1,M
HTH,2024-02-06 23:35,-118.6315,38.5448,1282.89,42.80,33.80,70.28,270.00,5.00,0.00,29.58,M,10.00,M,CLR,M,M,M,M,M,M,M,M,M,M,M,M,M,M,39.22,KHTH 062335Z AUTO 27005KT 10SM CLR 06/01 A2958 RMK A01,M
EKO,2024-02-06 23:42,-115.7860,40.8242,1367.00,38.00,34.00,85.35,70.00,4.00,0.01,29.50,M,10.00,M,OVC,M,M,M,1400.00,M,M,M,-RA,M,M,M,M,M,M,34.43,KEKO 062342Z AUTO 07004KT 10SM -RA OVC014 03/01 A2950 RMK AO2 P0001 T00330011,M
INS,2024-02-06 23:45,-115.6733,36.5872,955.00,44.60,41.00,87.09,350.00,3.00,0.00,29.57,1000.30,10.00,M,FEW,BKN,M,M,900.00,1600.00,M,M,-RA,M,M,M,M,M,M,43.09,KINS 062345Z AUTO 35003KT 10SM -RA FEW009 BKN016 07/05 A2957 RMK AO2 BKN V OVC SLP003 $,M
LOL,2024-02-06 23:49,-118.5701,40.0684,1192.43,35.60,35.60,100.00,0.00,0.00,0.01,29.58,M,8.00,M,SCT,OVC,M,M,600.00,3300.00,M,M,-RA,M,M,M,M,M,M,35.60,KLOL 062349Z AUTO 00000KT 8SM -RA SCT006 OVC033 02/02 A2958 RMK AO2 P0001,M
DRA,2024-02-06 23:53,-116.0278,36.6206,1009.00,45.00,41.00,85.77,90.00,7.00,T,29.55,999.50,10.00,M,OVC,M,M,M,3200.00,M,M,M,M,M,M,M,M,M,M,40.63,KDRA 062353Z AUTO 09007KT 10SM OVC032 07/05 A2955 RMK AO2 RAE05B34E47 SLP995 P0000 60020 T00720050 10072 20056 55008,M
ELY,2024-02-06 23:53,-114.8453,39.2950,1909.00,35.00,31.00,85.17,180.00,11.00,T,29.51,997.60,9.00,20.00,BKN,OVC,M,M,2700.00,3600.00,M,M,UP,M,M,M,26.00,170.00,2024-02-06 23:10,26.26,KELY 062353Z AUTO 18011G20KT 9SM UP BKN027 OVC036 02/M01 A2951 RMK AO2 PK WND 17026/2310 RAB05E24UPB28 SLP976 P0000 60001 T00171006 10033 20017 56003,M
VGT,2024-02-06 23:53,-115.1933,36.2111,667.00,50.00,46.00,86.06,100.00,6.00,T,29.56,1002.40,10.00,M,BKN,OVC,M,M,3000.00,4800.00,M,M,M,M,M,M,M,M,M,50.00,KVGT 062353Z 10006KT 10SM BKN030 OVC048 10/08 A2956 RMK AO2 RAB29E49 SLP024 P0000 60003 T01000078 10106 20083 56009,M
LOL,2024-02-06 23:53,-118.5701,40.0684,1192.43,36.00,35.00,96.11,0.00,0.00,0.01,29.58,1002.30,8.00,M,SCT,BKN,OVC,M,500.00,3000.00,3800.00,M,-RA,M,M,M,M,M,M,36.00,KLOL 062353Z AUTO 00000KT 8SM -RA SCT005 BKN030 OVC038 02/02 A2958 RMK AO2 SLP023 P0001 60027 T00220017 10022 20000 53000,M
P68,2024-02-06 23:53,-116.0056,39.6014,1993.00,36.00,33.00,88.73,270.00,7.00,0.00,29.50,997.00,M,M,M,M,M,M,M,M,M,M,M,M,M,M,M,M,M,29.65,KP68 062353Z AUTO 27007KT 02/01 A2950 RMK AO1 SLP970 T00220006 10044 20022 55002,M
BVU,2024-02-06 23:55,-114.8611,35.9475,671.00,50.00,46.40,87.37,160.00,13.00,0.00,29.56,M,10.00,M,FEW,BKN,OVC,M,2000.00,3000.00,3600.00,M,M,M,M,M,M,M,M,50.00,KBVU 062355Z AUTO 16013KT 10SM FEW020 BKN030 OVC036 10/08 A2956 RMK AO2,M
CXP,2024-02-06 23:55,-119.7326,39.1923,1431.00,39.20,30.20,69.88,270.00,5.00,0.00,29.59,M,10.00,M,FEW,SCT,M,M,2800.00,5500.00,M,M,M,M,M,M,M,M,M,34.95,KCXP 062355Z AUTO 27005KT 10SM FEW028 SCT055 04/M01 A2959 RMK AO2,M
INS,2024-02-06 23:55,-115.6733,36.5872,955.00,44.80,40.30,84.11,340.00,3.00,0.05,29.57,1000.30,10.00,M,FEW,SCT,SCT,OVC,900.00,1600.00,5500.00,6500.00,-RA,M,M,M,M,M,M,43.32,KINS 062355Z AUTO 34003KT 10SM -RA FEW009 SCT016 SCT055 OVC065 07/05 A2957 RMK AO2 SLP003 P0005 60019 T00710046 10077 20059 55004 $,M
RNO,2024-02-06 23:55,-119.7711,39.4839,1341.00,43.00,30.00,59.83,350.00,9.00,0.00,29.58,1001.20,10.00,M,FEW,BKN,M,M,4000.00,13000.00,M,M,M,M,M,M,M,M,M,37.19,KRNO 062355Z 35009KT 10SM FEW040 BKN130 06/M01 A2958 RMK AO2 SLP012 60000 T00611011 10067 20028 55008,M
RTS,2024-02-06 23:55,-119.8764,39.6682,1539.00,37.40,28.40,69.67,350.00,10.00,0.00,29.60,M,10.00,M,SCT,SCT,M,M,3200.00,3900.00,M,M,M,M,M,M,M,M,M,29.74,KRTS 062355Z AUTO 35010KT 10SM SCT032 SCT039 03/M02 A2960 RMK AO2,M
05U,2024-02-06 23:55,-116.0051,39.6042,1811.23,M,M,M,80.00,7.00,0.00,29.52,M,5.00,M,M,M,M,M,M,M,M,M,HZ,M,M,M,M,M,M,M,K05U 062355Z AUTO 08007KT 5SM HZ A2952 RMK A01,M
MEV,2024-02-06 23:55,-119.7500,38.9963,1441.42,37.40,30.20,74.98,0.00,0.00,0.00,29.59,M,10.00,M,CLR,M,M,M,M,M,M,M,M,M,M,M,M,M,M,37.40,KMEV 062355Z AUTO 00000KT 10SM CLR 03/M01 A2959 RMK AO2,M
BAM,2024-02-06 23:55,-116.8743,40.5990,1382.36,41.00,37.40,86.89,320.00,7.00,0.00,29.52,M,7.00,M,SCT,BKN,OVC,M,600.00,3800.00,4400.00,M,M,M,M,M,M,M,M,35.75,KBAM 062355Z AUTO 32007KT 7SM SCT006 BKN038 OVC044 05/03 A2952 RMK AO1,M
HTH,2024-02-06 23:55,-118.6315,38.5448,1282.89,41.00,33.80,75.33,270.00,5.00,0.00,29.58,M,10.00,M,FEW,M,M,M,2200.00,M,M,M,M,M,M,M,M,M,M,37.08,KHTH 062355Z AUTO 27005KT 10SM FEW022 05/01 A2958 RMK A01,M
LSV,2024-02-06 23:55,-115.0343,36.2362,570.00,51.30,47.30,86.14,90.00,3.00,0.01,29.54,999.90,10.00,M,FEW,BKN,M,M,4300.00,5500.00,M,M,M,M,M,M,M,M,M,51.30,KLSV 062355Z AUTO 09003KT 10SM FEW043 BKN055 11/09 A2954 RMK AO2 RAB05E16 SLP999 P0001 60008 T01070085 10107 20090 56009 $,M
EKO,2024-02-06 23:56,-115.7860,40.8242,1367.00,38.00,35.00,88.83,60.00,5.00,0.02,29.49,998.50,7.00,M,BKN,OVC,M,M,1400.00,2100.00,M,M,-RA,M,M,M,M,M,M,33.52,KEKO 062356Z AUTO 06005KT 7SM -RA BKN014 OVC021 03/02 A2949 RMK AO2 SLP985 P0002 60006 T00330017 10050 20033 56009,M
HND,2024-02-06 23:56,-115.1344,35.9729,742.79,50.00,42.00,73.87,200.00,13.00,T,29.57,1002.90,10.00,M,SCT,BKN,OVC,M,4700.00,6000.00,9000.00,M,-RA,M,M,M,M,M,M,50.00,KHND 062356Z 20013KT 10SM -RA SCT047 BKN060 OVC090 10/06 A2957 RMK AO2 RAB17 SLP029 P0000 60004 T01000056 10106 20083 56011,M
TPH,2024-02-06 23:56,-117.0904,38.0505,1654.00,35.00,31.00,85.17,330.00,5.00,T,29.54,1000.40,10.00,M,SCT,M,M,M,3500.00,M,M,M,M,M,M,M,M,M,M,29.96,KTPH 062356Z AUTO 33005KT 10SM SCT035 02/M01 A2954 RMK AO2 UPB2259E02SNE2259 SLP004 P0000 60011 T00171006 10022 20006 55001,M
LAS,2024-02-06 23:56,-115.1634,36.0719,663.00,49.00,46.00,89.33,80.00,6.00,T,29.56,1000.60,10.00,M,FEW,SCT,OVC,M,1200.00,4300.00,8000.00,M,-RA,M,M,M,M,M,M,46.00,KLAS 062356Z 08006KT 10SM -RA FEW012 SCT043 OVC080 09/08 A2956 RMK AO2 RAB25 SLP006 P0000 60006 T00940078 10094 20078 56010,M
WMC,2024-02-06 23:56,-117.8072,40.9019,1315.00,35.00,32.00,88.68,280.00,10.00,0.01,29.54,1000.70,9.00,M,SCT,OVC,M,M,900.00,1300.00,M,M,-SN,M,M,M,M,M,M,26.73,KWMC 062356Z AUTO 28010KT 9SM -SN SCT009 OVC013 02/00 A2954 RMK AO2 SLP007 P0001 60018 T00170000 10022 20006 55004,M
NFL,2024-02-06 23:56,-118.7010,39.4166,1199.00,40.00,36.00,85.48,360.00,7.00,0.00,29.58,1000.20,10.00,M,SCT,BKN,OVC,M,500.00,1000.00,2000.00,M,M,M,M,M,M,M,M,34.53,KNFL 062356Z 36007KT 10SM SCT005 BKN010 OVC020 04/02 A2958 RMK AO2 SLP002 WR// 60028 T00440022 10050 20022 55004,M
