station,valid,lon,lat,elevation,tmpf,dwpf,relh,drct,sknt,p01i,alti,mslp,vsby,gust,skyc1,skyc2,skyc3,skyc4,skyl1,skyl2,skyl3,skyl4,wxcodes,ice_accretion_1hr,ice_accretion_3hr,ice_accretion_6hr,peak_wind_gust,peak_wind_drct,peak_wind_time,feel,metar,snowdepth
HND,2023-06-15 00:03,-115.1344,35.9729,742.79,89.60,44.60,21.04,360.00,12.00,0.00,29.76,M,10.00,M,CLR,M,M,M,M,M,M,M,VCTS,M,M,M,M,M,M,86.07,KHND 150003Z 36012KT 10SM VCTS CLR 32/07 A2976 RMK AO2 LTG DSNT S TSB2357,M
ELY,2023-06-15 00:05,-114.8453,39.2950,1909.00,63.00,53.00,70.07,0.00,0.00,T,29.95,M,10.00,M,FEW,BKN,BKN,M,8000.00,10000.00,12000.00,M,TS,M,M,M,M,M,M,63.00,KELY 150005Z AUTO 00000KT 10SM TS FEW080 BKN100 BKN120 17/12 A2995 RMK AO2 LTG DSNT E AND SW RAE2357 TSB2359 P0000 T01720117,M
CXP,2023-06-15 00:10,-119.7326,39.1923,1431.00,75.20,48.20,38.46,250.00,8.00,0.00,29.94,M,10.00,19.00,CLR,M,M,M,M,M,M,M,M,M,M,M,M,M,M,75.20,KCXP 150010Z AUTO 25008G19KT 10SM CLR 24/09 A2994 RMK AO2,M
05U,2023-06-15 00:10,-116.0051,39.6042,1811.23,68.00,51.80,56.13,20.00,8.00,0.00,29.95,M,10.00,M,FEW,M,M,M,6000.00,M,M,M,M,M,M,M,M,M,M,68.00,K05U 150010Z AUTO 02008KT 10SM FEW060 20/11 A2995 RMK A01,M
TPH,2023-06-15 00:10,-117.0904,38.0505,1654.00,68.00,49.00,50.40,290.00,16.00,0.00,29.94,M,10.00,M,SCT,BKN,M,M,8500.00,11000.00,M,M,TS,M,M,M,M,M,M,68.00,KTPH 150010Z AUTO 29016KT 10SM TS SCT085 BKN110 20/09 A2994 RMK AO2 LTG DSNT NW TSB04 T02000094 PNO $,M
BVU,2023-06-15 00:15,-114.8611,35.9475,671.00,87.80,41.00,19.40,310.00,12.00,0.00,29.71,M,10.00,27.00,FEW,SCT,M,M,5000.00,12000.00,M,M,M,M,M,M,M,M,M,84.30,KBVU 150015Z AUTO 31012G27KT 10SM FEW050 SCT120 31/05 A2971 RMK AO2,M
RTS,2023-06-15 00:15,-119.8764,39.6682,1539.00,71.60,48.20,43.42,280.00,10.00,0.00,29.96,M,10.00,17.00,CLR,M,M,M,M,M,M,M,M,M,M,M,M,M,M,71.60,KRTS 150015Z AUTO 28010G17KT 10SM CLR 22/09 A2996 RMK AO2,M
MEV,2023-06-15 00:15,-119.7500,38.9963,1441.42,77.00,50.00,38.74,280.00,17.00,0.00,29.93,M,10.00,M,CLR,M,M,M,M,M,M,M,M,M,M,M,M,M,M,77.00,KMEV 150015Z AUTO 28017KT 10SM CLR 25/10 A2993 RMK AO2,M
BAM,2023-06-15 00:15,-116.8743,40.5990,1382.36,77.00,44.60,31.62,330.00,14.00,0.00,29.88,M,10.00,19.00,SCT,M,M,M,8000.00,M,M,M,M,M,M,M,M,M,M,77.00,KBAM 150015Z AUTO 33014G19KT 10SM SCT080 25/07 A2988 RMK AO1,M
HTH,2023-06-15 00:15,-118.6315,38.5448,1282.89,82.40,44.60,26.49,320.00,10.00,0.00,29.84,M,10.00,17.00,CLR,M,M,M,M,M,M,M,M,M,M,M,M,M,M,80.50,KHTH 150015Z AUTO 32010G17KT 10SM CLR 28/07 A2984 RMK A01,M
TMT,2023-06-15 00:15,-117.1971,39.4643,1749.34,69.80,47.00,43.96,320.00,6.00,0.00,29.95,M,10.00,M,OVC,M,M,M,11000.00,M,M,M,M,M,M,M,M,M,M,69.80,KTMT 150015Z AUTO 32006KT 10SM OVC110 21/08 A2995 RMK AO2 LTG DSNT SE AND SW T02100083,M
HND,2023-06-15 00:20,-115.1344,35.9729,742.79,89.60,44.60,21.04,10.00,10.00,0.00,29.75,M,10.00,M,CLR,M,M,M,M,M,M,M,M,M,M,M,M,M,M,86.07,KHND 150020Z 01010KT 10SM CLR 32/07 A2975 RMK AO2 TSB2357E14,M
ELY,2023-06-15 00:20,-114.8453,39.2950,1909.00,63.00,53.00,70.07,210.00,6.00,T,29.95,M,10.00,M,FEW,SCT,BKN,M,4300.00,7000.00,11000.00,M,VCTS,M,M,M,M,M,M,63.00,KELY 150020Z AUTO 21006KT 10SM VCTS FEW043 SCT070 BKN110 17/12 A2995 RMK AO2 LTG DSNT E AND SW AND W RAE2357 TSB2359E14 P0000 T01720117,M
05U,2023-06-15 00:30,-116.0051,39.6042,1811.23,69.80,53.60,56.38,40.00,5.00,0.00,29.95,M,10.00,M,CLR,M,M,M,M,M,M,M,M,M,M,M,M,M,M,69.80,K05U 150030Z AUTO 04005KT 10SM CLR 21/12 A2995 RMK A01,M
TPH,2023-06-15 00:32,-117.0904,38.0505,1654.00,66.00,52.00,60.60,0.00,0.00,0.00,29.93,M,7.00,M,FEW,BKN,OVC,M,6000.00,9000.00,11000.00,M,-RA,M,M,M,M,M,M,66.00,KTPH 150032Z AUTO 00000KT 7SM -RA FEW060 BKN090 OVC110 19/11 A2993 RMK AO2 RAB15 TSB04E26 T01890111 PNO $,M
BVU,2023-06-15 00:35,-114.8611,35.9475,671.00,89.60,39.20,17.09,300.00,12.00,0.00,29.71,M,10.00,18.00,BKN,M,M,M,12000.00,M,M,M,M,M,M,M,M,M,M,85.73,KBVU 150035Z AUTO 30012G18KT 10SM BKN120 32/04 A2971 RMK AO2,M
CXP,2023-06-15 00:35,-119.7326,39.1923,1431.00,75.20,48.20,38.46,260.00,11.00,0.00,29.94,M,10.00,16.00,CLR,M,M,M,M,M,M,M,M,M,M,M,M,M,M,75.20,KCXP 150035Z AUTO 26011G16KT 10SM CLR 24/09 A2994 RMK AO2,M
RTS,2023-06-15 00:35,-119.8764,39.6682,1539.00,69.80,48.20,46.16,290.00,13.00,0.00,29.95,M,10.00,19.00,CLR,M,M,M,M,M,M,M,M,M,M,M,M,M,M,69.80,KRTS 150035Z AUTO 29013G19KT 10SM CLR 21/09 A2995 RMK AO2,M
MEV,2023-06-15 00:35,-119.7500,38.9963,1441.42,75.20,50.00,41.14,280.00,14.00,0.00,29.93,M,10.00,19.00,CLR,M,M,M,M,M,M,M,M,M,M,M,M,M,M,75.20,KMEV 150035Z AUTO 28014G19KT 10SM CLR 24/10 A2993 RMK AO2 LTG DSNT SE AND S,M
BAM,2023-06-15 00:35,-116.8743,40.5990,1382.36,77.00,42.80,29.51,340.00,15.00,0.00,29.88,M,10.00,28.00,CLR,M,M,M,M,M,M,M,M,M,M,M,M,M,M,77.00,KBAM 150035Z AUTO 34015G28KT 10SM CLR 25/06 A2988 RMK AO1,M
HTH,2023-06-15 00:35,-118.6315,38.5448,1282.89,82.40,44.60,26.49,320.00,11.00,0.00,29.84,M,10.00,M,CLR,M,M,M,M,M,M,M,M,M,M,M,M,M,M,80.50,KHTH 150035Z AUTO 32011KT 10SM CLR 28/07 A2984 RMK A01,M
TMT,2023-06-15 00:35,-117.1971,39.4643,1749.34,71.00,48.20,44.46,300.00,8.00,0.00,29.94,M,10.00,M,SCT,M,M,M,12000.00,M,M,M,M,M,M,M,M,M,M,70.90,KTMT 150035Z AUTO 30008KT 10SM SCT120 22/09 A2994 RMK AO2 LTG DSNT SE AND SW T02160090,M
05U,2023-06-15 00:50,-116.0051,39.6042,1811.23,68.00,53.60,59.97,30.00,3.00,0.00,29.94,M,10.00,M,CLR,M,M,M,M,M,M,M,M,M,M,M,M,M,M,68.00,K05U 150050Z AUTO 03003KT 10SM CLR 20/12 A2994 RMK A01,M
P68,2023-06-15 00:53,-116.0056,39.6014,1993.00,68.00,52.00,56.55,50.00,4.00,0.00,29.91,1006.30,M,M,M,M,M,M,M,M,M,M,M,M,M,M,M,M,M,68.00,KP68 150053Z AUTO 05004KT 20/11 A2991 RMK AO1 SLP063 T02000111,M
VGT,2023-06-15 00:53,-115.1933,36.2111,667.00,90.00,44.00,20.39,320.00,15.00,0.00,29.70,1004.90,10.00,23.00,CLR,M,M,M,M,M,M,M,M,M,M,M,29.00,320.00,2023-06-15 00:18,86.38,KVGT 150053Z 32015G23KT 10SM CLR 32/07 A2970 RMK AO2 PK WND 32029/0018 SLP049 T03220067,M
DRA,2023-06-15 00:53,-116.0278,36.6206,1009.00,78.00,47.00,33.26,30.00,20.00,0.00,29.81,1005.40,10.00,29.00,OVC,M,M,M,12000.00,M,M,M,M,M,M,M,29.00,30.00,2023-06-15 00:50,78.10,KDRA 150053Z AUTO 03020G29KT 10SM OVC120 26/08 A2981 RMK AO2 PK WND 03029/0050 SLP054 T02560083,M
ELY,2023-06-15 00:53,-114.8453,39.2950,1909.00,62.00,53.00,72.33,200.00,9.00,T,29.95,1007.00,10.00,M,OVC,M,M,M,6500.00,M,M,M,VCTS,M,M,M,M,M,M,62.10,KELY 150053Z AUTO 20009KT 10SM VCTS OVC065 17/12 A2995 RMK AO2 LTG DSNT N AND S AND SW RAE2357B39E52 TSB2359E14 SLP070 P0000 T01670117,M
LOL,2023-06-15 00:53,-118.5701,40.0684,1192.43,78.00,40.00,25.44,300.00,12.00,0.00,29.84,1007.40,10.00,M,CLR,M,M,M,M,M,M,M,M,M,M,M,M,M,M,78.10,KLOL 150053Z AUTO 30012KT 10SM CLR 26/04 A2984 RMK AO2 SLP074 T02560044,M
BVU,2023-06-15 00:55,-114.8611,35.9475,671.00,89.60,41.00,18.33,270.00,8.00,0.00,29.71,M,10.00,21.00,BKN,M,M,M,12000.00,M,M,M,M,M,M,M,M,M,M,85.82,KBVU 150055Z AUTO 27008G21KT 200V310 10SM BKN120 32/05 A2971 RMK AO2,M
CXP,2023-06-15 00:55,-119.7326,39.1923,1431.00,73.40,48.20,40.85,260.00,10.00,0.00,29.93,M,10.00,M,CLR,M,M,M,M,M,M,M,M,M,M,M,M,M,M,73.40,KCXP 150055Z AUTO 26010KT 230V300 10SM CLR 23/09 A2993 RMK AO2,M
RNO,2023-06-15 00:55,-119.7711,39.4839,1341.00,77.00,46.00,33.34,290.00,14.00,0.00,29.89,1007.40,10.00,M,SCT,BKN,M,M,8500.00,25000.00,M,M,M,M,M,M,M,M,M,77.00,KRNO 150055Z 29014KT 10SM SCT085 BKN250 25/08 A2989 RMK AO2 SLP074 T02500078,M
RTS,2023-06-15 00:55,-119.8764,39.6682,1539.00,69.80,48.20,46.16,280.00,11.00,0.00,29.95,M,10.00,16.00,CLR,M,M,M,M,M,M,M,M,M,M,M,M,M,M,69.80,KRTS 150055Z AUTO 28011G16KT 10SM CLR 21/09 A2995 RMK AO2,M
MEV,2023-06-15 00:55,-119.7500,38.9963,1441.42,73.40,50.00,43.69,260.00,12.00,0.00,29.92,M,10.00,18.00,CLR,M,M,M,M,M,M,M,M,M,M,M,M,M,M,73.40,KMEV 150055Z AUTO 26012G18KT 10SM CLR 23/10 A2992 RMK AO2,M
BAM,2023-06-15 00:55,-116.8743,40.5990,1382.36,75.20,44.60,33.57,340.00,15.00,0.00,29.88,M,10.00,29.00,CLR,M,M,M,M,M,M,M,M,M,M,M,M,M,M,75.20,KBAM 150055Z AUTO 34015G29KT 10SM CLR 24/07 A2988 RMK AO1,M
HTH,2023-06-15 00:55,-118.6315,38.5448,1282.89,80.60,42.80,26.22,340.00,11.00,0.00,29.84,M,10.00,M,CLR,M,M,M,M,M,M,M,M,M,M,M,M,M,M,79.30,KHTH 150055Z AUTO 34011KT 10SM CLR 27/06 A2984 RMK A01,M
TMT,2023-06-15 00:55,-117.1971,39.4643,1749.34,69.60,46.00,42.78,330.00,10.00,0.00,29.94,M,10.00,M,CLR,M,M,M,M,M,M,M,M,M,M,M,M,M,M,69.60,KTMT 150055Z AUTO 33010KT 10SM CLR 21/08 A2994 RMK AO2 LTG DSNT SE T02090078,M
INS,2023-06-15 00:55,-115.6733,36.5872,955.00,80.40,40.30,23.96,60.00,4.00,0.00,29.80,1004.90,10.00,M,OVC,M,M,M,11000.00,M,M,M,M,M,M,M,M,M,M,79.05,KINS 150055Z AUTO 06004KT 10SM OVC110 27/05 A2980 RMK AO2 SLP049 T02690046 $,M
LSV,2023-06-15 00:55,-115.0343,36.2362,570.00,92.50,41.40,17.00,250.00,15.00,0.00,29.66,1002.00,10.00,M,CLR,M,M,M,M,M,M,M,M,M,M,M,27.00,260.00,2023-06-15 00:02,88.42,KLSV 150055Z AUTO 25015KT 10SM CLR 34/05 A2966 RMK AO2 PK WND 26027/02 SLP020 T03360052 $,M
NFL,2023-06-15 00:56,-118.7010,39.4166,1199.00,82.00,43.00,25.24,350.00,10.00,0.00,29.82,1007.70,10.00,M,SCT,SCT,BKN,BKN,7000.00,15000.00,18000.00,22000.00,M,M,M,M,M,M,M,80.15,KNFL 150056Z 35010KT 10SM SCT070 SCT150 BKN180 BKN220 28/06 A2982 RMK AO2 SLP077 T02780061,M
TPH,2023-06-15 00:56,-117.0904,38.0505,1654.00,69.00,54.00,58.60,170.00,10.00,0.00,29.91,1006.70,10.00,M,SCT,OVC,M,M,8000.00,10000.00,M,M,-RA,M,M,M,M,M,M,69.10,KTPH 150056Z AUTO 17010KT 10SM -RA SCT080 OVC100 21/12 A2991 RMK AO2 RAB15 TSB04E26 SLP067 T02060122 PNO $,M
EKO,2023-06-15 00:56,-115.7860,40.8242,1367.00,73.00,44.00,35.46,280.00,12.00,0.00,29.87,1006.80,10.00,M,BKN,M,M,M,7000.00,M,M,M,M,M,M,M,M,M,M,73.00,KEKO 150056Z AUTO 28012KT 10SM BKN070 23/07 A2987 RMK AO2 SLP068 T02280067,M
HND,2023-06-15 00:56,-115.1344,35.9729,742.79,90.00,44.00,20.39,10.00,9.00,0.00,29.75,1006.00,10.00,M,CLR,M,M,M,M,M,M,M,M,M,M,M,M,M,M,86.38,KHND 150056Z 01009KT 10SM CLR 32/07 A2975 RMK AO2 TSB2357E14 SLP060 T03220067,M
LAS,2023-06-15 00:56,-115.1634,36.0719,663.00,90.00,44.00,20.39,340.00,13.00,0.00,29.71,1003.60,10.00,M,FEW,SCT,BKN,M,11000.00,17000.00,22000.00,M,M,M,M,M,M,M,M,86.38,KLAS 150056Z 34013KT 10SM FEW110 SCT170 BKN220 32/07 A2971 RMK AO2 SLP036 T03220067,M
WMC,2023-06-15 00:56,-117.8072,40.9019,1315.00,74.00,38.00,27.06,330.00,9.00,0.00,29.88,1008.00,10.00,M,CLR,M,M,M,M,M,M,M,M,M,M,M,M,M,M,73.90,KWMC 150056Z AUTO 33009KT 10SM CLR 23/03 A2988 RMK AO2 SLP080 T02330033,M
DRA,2023-06-15 00:57,-116.0278,36.6206,1009.00,78.00,47.00,33.26,40.00,16.00,0.00,29.81,M,10.00,29.00,BKN,M,M,M,12000.00,M,M,M,M,M,M,M,M,M,M,78.10,KDRA 150057Z AUTO 04016G29KT 10SM BKN120 26/08 A2981 RMK AO2 WSHFT 0040 T02560083,M
ELY,2023-06-15 01:10,-114.8453,39.2950,1909.00,61.00,52.00,72.22,200.00,12.00,0.00,29.96,M,10.00,M,SCT,BKN,M,M,6500.00,8500.00,M,M,TS,M,M,M,M,M,M,61.00,KELY 150110Z AUTO 20012KT 10SM TS SCT065 BKN085 16/11 A2996 RMK AO2 LTG DSNT ALQDS TSB04 T01610111,M
05U,2023-06-15 01:10,-116.0051,39.6042,1811.23,68.00,51.80,56.13,0.00,0.00,0.00,29.94,M,10.00,M,FEW,M,M,M,8000.00,M,M,M,M,M,M,M,M,M,M,68.00,K05U 150110Z AUTO 00000KT 10SM FEW080 20/11 A2994 RMK A01,M
BVU,2023-06-15 01:15,-114.8611,35.9475,671.00,89.60,39.20,17.09,0.00,0.00,0.00,29.71,M,10.00,10.00,CLR,M,M,M,M,M,M,M,M,M,M,M,M,M,M,85.73,KBVU 150115Z AUTO 00000G10KT 10SM CLR 32/04 A2971 RMK AO2 LTG DSNT N AND NW,M
CXP,2023-06-15 01:15,-119.7326,39.1923,1431.00,73.40,48.20,40.85,270.00,7.00,0.00,29.93,M,10.00,16.00,CLR,M,M,M,M,M,M,M,M,M,M,M,M,M,M,73.40,KCXP 150115Z AUTO 27007G16KT 10SM CLR 23/09 A2993 RMK AO2 LTG DSNT E AND SE,M
RTS,2023-06-15 01:15,-119.8764,39.6682,1539.00,69.80,50.00,49.37,290.00,13.00,0.00,29.95,M,10.00,M,CLR,M,M,M,M,M,M,M,M,M,M,M,M,M,M,69.80,KRTS 150115Z AUTO 29013KT 10SM CLR 21/10 A2995 RMK AO2,M
MEV,2023-06-15 01:15,-119.7500,38.9963,1441.42,71.60,46.40,40.57,280.00,12.00,0.00,29.92,M,10.00,20.00,CLR,M,M,M,M,M,M,M,M,M,M,M,M,M,M,71.60,KMEV 150115Z AUTO 28012G20KT 10SM CLR 22/08 A2992 RMK AO2 LTG DSNT E AND SE,M
BAM,2023-06-15 01:15,-116.8743,40.5990,1382.36,73.40,42.80,33.29,340.00,18.00,0.00,29.88,M,10.00,28.00,CLR,M,M,M,M,M,M,M,M,M,M,M,M,M,M,73.40,KBAM 150115Z AUTO 34018G28KT 10SM CLR 23/06 A2988 RMK AO1,M
HTH,2023-06-15 01:15,-118.6315,38.5448,1282.89,80.60,42.80,26.22,350.00,13.00,0.00,29.84,M,10.00,19.00,FEW,SCT,M,M,9500.00,12000.00,M,M,M,M,M,M,M,M,M,79.30,KHTH 150115Z AUTO 35013G19KT 10SM FEW095 SCT120 27/06 A2984 RMK A01,M
TMT,2023-06-15 01:15,-117.1971,39.4643,1749.34,70.70,44.20,38.48,310.00,11.00,0.00,29.94,M,10.00,15.00,CLR,M,M,M,M,M,M,M,M,M,M,M,M,M,M,70.70,KTMT 150115Z AUTO 31011G15KT 10SM CLR 22/07 A2994 RMK AO2 LTG DSNT E THRU SW T02150068,M
ELY,2023-06-15 01:25,-114.8453,39.2950,1909.00,60.00,50.00,69.24,200.00,11.00,0.00,29.95,M,10.00,M,BKN,M,M,M,9000.00,M,M,M,VCTS,M,M,M,M,M,M,60.10,KELY 150125Z AUTO 20011KT 10SM VCTS BKN090 16/10 A2995 RMK AO2 LTG DSNT S AND SW TSB04E19 T01560100,M
05U,2023-06-15 01:30,-116.0051,39.6042,1811.23,66.20,55.40,68.15,0.00,0.00,0.00,29.94,M,10.00,M,SCT,BKN,M,M,8000.00,10000.00,M,M,M,M,M,M,M,M,M,66.20,K05U 150130Z AUTO 00000KT 10SM SCT080 BKN100 19/13 A2994 RMK A01,M
BVU,2023-06-15 01:35,-114.8611,35.9475,671.00,89.60,39.20,17.09,190.00,4.00,0.00,29.71,M,10.00,M,CLR,M,M,M,M,M,M,M,M,M,M,M,M,M,M,85.73,KBVU 150135Z AUTO 19004KT 10SM CLR 32/04 A2971 RMK AO2,M
CXP,2023-06-15 01:35,-119.7326,39.1923,1431.00,71.60,46.40,40.57,260.00,10.00,0.00,29.94,M,10.00,20.00,CLR,M,M,M,M,M,M,M,M,M,M,M,M,M,M,71.60,KCXP 150135Z AUTO 26010G20KT 10SM CLR 22/08 A2994 RMK AO2,M
RTS,2023-06-15 01:35,-119.8764,39.6682,1539.00,69.80,48.20,46.16,270.00,14.00,0.00,29.95,M,10.00,M,CLR,M,M,M,M,M,M,M,M,M,M,M,M,M,M,69.80,KRTS 150135Z AUTO 27014KT 10SM CLR 21/09 A2995 RMK AO2,M
MEV,2023-06-15 01:35,-119.7500,38.9963,1441.42,71.60,44.60,37.89,290.00,10.00,0.00,29.92,M,10.00,18.00,CLR,M,M,M,M,M,M,M,M,M,M,M,M,M,M,71.60,KMEV 150135Z AUTO 29010G18KT 10SM CLR 22/07 A2992 RMK AO2 LTG DSNT E AND SE,M
BAM,2023-06-15 01:35,-116.8743,40.5990,1382.36,73.40,42.80,33.29,340.00,17.00,0.00,29.88,M,10.00,27.00,CLR,M,M,M,M,M,M,M,M,M,M,M,M,M,M,73.40,KBAM 150135Z AUTO 34017G27KT 10SM CLR 23/06 A2988 RMK AO1,M
HTH,2023-06-15 01:35,-118.6315,38.5448,1282.89,78.80,44.60,29.79,330.00,14.00,0.00,29.84,M,10.00,M,FEW,FEW,M,M,10000.00,12000.00,M,M,M,M,M,M,M,M,M,78.80,KHTH 150135Z AUTO 33014KT 10SM FEW100 FEW120 26/07 A2984 RMK A01,M
TMT,2023-06-15 01:35,-117.1971,39.4643,1749.34,69.30,42.60,37.96,320.00,9.00,0.00,29.94,M,10.00,15.00,CLR,M,M,M,M,M,M,M,VCTS,M,M,M,M,M,M,69.30,KTMT 150135Z AUTO 32009G15KT 10SM VCTS CLR 21/06 A2994 RMK AO2 LTG DSNT SE AND SW T02070059,M
05U,2023-06-15 01:50,-116.0051,39.6042,1811.23,66.20,55.40,68.15,80.00,4.00,0.00,29.95,M,10.00,M,FEW,BKN,OVC,M,6000.00,7500.00,8500.00,M,M,M,M,M,M,M,M,66.20,K05U 150150Z AUTO 08004KT 10SM FEW060 BKN075 OVC085 19/13 A2995 RMK A01,M
P68,2023-06-15 01:53,-116.0056,39.6014,1993.00,65.00,55.00,70.28,260.00,5.00,0.00,29.92,1006.90,M,M,M,M,M,M,M,M,M,M,M,M,M,M,M,M,M,64.90,KP68 150153Z AUTO 26005KT 18/13 A2992 RMK AO1 SLP069 T01830128,M
DRA,2023-06-15 01:53,-116.0278,36.6206,1009.00,79.00,46.00,31.21,50.00,9.00,0.00,29.80,1004.90,10.00,M,FEW,M,M,M,12000.00,M,M,M,M,M,M,M,M,M,M,79.00,KDRA 150153Z AUTO 05009KT 10SM FEW120 26/08 A2980 RMK AO2 WSHFT 0040 SLP049 T02610078,M
ELY,2023-06-15 01:53,-114.8453,39.2950,1909.00,60.00,50.00,69.24,160.00,8.00,0.00,29.96,1007.40,10.00,M,BKN,BKN,BKN,M,6000.00,9000.00,11000.00,M,TS,M,M,M,M,M,M,60.10,KELY 150153Z AUTO 16008KT 10SM TS BKN060 BKN090 BKN110 16/10 A2996 RMK AO2 LTG DSNT E-S TSB04E19B49 SLP074 T01560100,M
VGT,2023-06-15 01:53,-115.1933,36.2111,667.00,90.00,43.00,19.55,320.00,10.00,0.00,29.70,1004.90,10.00,M,CLR,M,M,M,M,M,M,M,M,M,M,M,M,M,M,86.29,KVGT 150153Z 32010KT 10SM CLR 32/06 A2970 RMK AO2 SLP049 T03220061,M
LOL,2023-06-15 01:53,-118.5701,40.0684,1192.43,76.00,30.90,19.14,330.00,14.00,0.00,29.85,1007.60,10.00,M,CLR,M,M,M,M,M,M,M,M,M,M,M,M,M,M,75.90,KLOL 150153Z AUTO 33014KT 10SM CLR 24/M01 A2985 RMK AO2 SLP076 T02441006,M
BVU,2023-06-15 01:55,-114.8611,35.9475,671.00,89.60,39.20,17.09,230.00,5.00,0.00,29.71,M,10.00,M,CLR,M,M,M,M,M,M,M,M,M,M,M,M,M,M,85.73,KBVU 150155Z AUTO 23005KT 10SM CLR 32/04 A2971 RMK AO2 LTG DSNT N,M
CXP,2023-06-15 01:55,-119.7326,39.1923,1431.00,71.60,46.40,40.57,280.00,11.00,0.00,29.94,M,10.00,M,CLR,M,M,M,M,M,M,M,M,M,M,M,M,M,M,71.60,KCXP 150155Z AUTO 28011KT 10SM CLR 22/08 A2994 RMK AO2 LTG DSNT E AND SE,M
RNO,2023-06-15 01:55,-119.7711,39.4839,1341.00,75.00,48.00,38.43,250.00,10.00,0.00,29.90,1007.80,10.00,M,FEW,BKN,BKN,M,8000.00,17000.00,25000.00,M,M,M,M,M,M,M,M,75.00,KRNO 150155Z 25010KT 10SM FEW080 BKN170 BKN250 24/09 A2990 RMK AO2 SLP078 T02390089,M
RTS,2023-06-15 01:55,-119.8764,39.6682,1539.00,69.80,48.20,46.16,270.00,13.00,0.00,29.95,M,10.00,M,CLR,M,M,M,M,M,M,M,M,M,M,M,M,M,M,69.80,KRTS 150155Z AUTO 27013KT 10SM CLR 21/09 A2995 RMK AO2,M
MEV,2023-06-15 01:55,-119.7500,38.9963,1441.42,69.80,50.00,49.37,290.00,12.00,0.00,29.93,M,10.00,18.00,CLR,M,M,M,M,M,M,M,M,M,M,M,M,M,M,69.80,KMEV 150155Z AUTO 29012G18KT 10SM CLR 21/10 A2993 RMK AO2 LTG DSNT E AND SE,M
BAM,2023-06-15 01:55,-116.8743,40.5990,1382.36,73.40,42.80,33.29,350.00,14.00,0.00,29.88,M,10.00,23.00,CLR,M,M,M,M,M,M,M,M,M,M,M,M,M,M,73.40,KBAM 150155Z AUTO 35014G23KT 10SM CLR 23/06 A2988 RMK AO1,M
HTH,2023-06-15 01:55,-118.6315,38.5448,1282.89,78.80,44.60,29.79,350.00,13.00,0.00,29.85,M,10.00,19.00,CLR,M,M,M,M,M,M,M,M,M,M,M,M,M,M,78.80,KHTH 150155Z AUTO 35013G19KT 10SM CLR 26/07 A2985 RMK A01,M
TMT,2023-06-15 01:55,-117.1971,39.4643,1749.34,68.40,41.70,37.82,310.00,8.00,0.00,29.95,M,10.00,15.00,CLR,M,M,M,M,M,M,M,VCTS,M,M,M,M,M,M,68.40,KTMT 150155Z AUTO 31008G15KT 10SM VCTS CLR 20/05 A2995 RMK AO2 LTG DSNT E AND SE T02020054,M
INS,2023-06-15 01:55,-115.6733,36.5872,955.00,76.30,44.20,31.87,360.00,11.00,0.00,29.81,1005.20,10.00,M,BKN,M,M,M,13000.00,M,M,M,M,M,M,M,M,M,M,76.30,KINS 150155Z AUTO 36011KT 10SM BKN130 25/07 A2981 RMK AO2 SLP052 T02460068 $,M
LSV,2023-06-15 01:55,-115.0343,36.2362,570.00,90.70,41.40,17.98,260.00,14.00,0.00,29.66,1001.90,10.00,M,FEW,M,M,M,14000.00,M,M,M,M,M,M,M,M,M,M,86.80,KLSV 150155Z AUTO 26014KT 10SM FEW140 33/05 A2966 RMK AO2 SLP019 T03260052 $,M
WMC,2023-06-15 01:56,-117.8072,40.9019,1315.00,71.00,41.00,33.57,10.00,10.00,0.00,29.88,1008.10,10.00,M,CLR,M,M,M,M,M,M,M,M,M,M,M,M,M,M,71.10,KWMC 150156Z AUTO 01010KT 10SM CLR 22/05 A2988 RMK AO2 SLP081 T02170050,M
HND,2023-06-15 01:56,-115.1344,35.9729,742.79,88.00,45.00,22.47,40.00,6.00,0.00,29.75,1006.30,10.00,M,CLR,M,M,M,M,M,M,M,M,M,M,M,M,M,M,84.72,KHND 150156Z 04006KT 10SM CLR 31/07 A2975 RMK AO2 SLP063 T03110072,M
LAS,2023-06-15 01:56,-115.1634,36.0719,663.00,88.00,43.00,20.82,340.00,10.00,0.00,29.72,1003.70,10.00,M,FEW,SCT,BKN,M,11000.00,17000.00,22000.00,M,M,M,M,M,M,M,M,84.58,KLAS 150156Z 34010KT 10SM FEW110 SCT170 BKN220 31/06 A2972 RMK AO2 SLP037 T03110061,M
EKO,2023-06-15 01:56,-115.7860,40.8242,1367.00,70.00,42.00,36.36,320.00,10.00,0.00,29.87,1007.20,10.00,M,FEW,M,M,M,7000.00,M,M,M,M,M,M,M,M,M,M,70.00,KEKO 150156Z AUTO 32010KT 10SM FEW070 21/06 A2987 RMK AO2 SLP072 T02110056,M
NFL,2023-06-15 01:56,-118.7010,39.4166,1199.00,80.00,44.00,28.01,340.00,13.00,0.00,29.83,1008.00,10.00,M,SCT,SCT,BKN,BKN,7000.00,12000.00,15000.00,18000.00,M,M,M,M,M,M,M,79.12,KNFL 150156Z 34013KT 10SM SCT070 SCT120 BKN150 BKN180 BKN220 27/07 A2983 RMK AO2 SLP080 T02670067,M
TPH,2023-06-15 01:56,-117.0904,38.0505,1654.00,69.00,51.00,52.67,220.00,6.00,0.00,29.91,1006.40,10.00,M,CLR,M,M,M,M,M,M,M,M,M,M,M,M,M,M,69.10,KTPH 150156Z AUTO 22006KT 10SM CLR 21/11 A2991 RMK AO2 LTG DSNT SW AND W RAE0057 SLP064 T02060106 PNO $,M
ELY,2023-06-15 02:10,-114.8453,39.2950,1909.00,59.00,50.00,72.01,130.00,9.00,T,29.95,M,9.00,M,SCT,SCT,OVC,M,6000.00,7000.00,8500.00,M,VCTS -RA,M,M,M,M,M,M,59.00,KELY 150210Z AUTO 13009KT 9SM VCTS -RA SCT060 SCT070 OVC085 15/10 A2995 RMK AO2 LTG DSNT ALQDS RAB0159 TSE04 P0000 T01500100,M
05U,2023-06-15 02:10,-116.0051,39.6042,1811.23,66.20,50.00,55.88,70.00,5.00,0.00,29.95,M,10.00,M,SCT,BKN,OVC,M,6000.00,7500.00,9000.00,M,M,M,M,M,M,M,M,66.20,K05U 150210Z AUTO 07005KT 10SM SCT060 BKN075 OVC090 19/10 A2995 RMK A01,M
BVU,2023-06-15 02:15,-114.8611,35.9475,671.00,89.60,39.20,17.09,200.00,9.00,0.00,29.71,M,10.00,M,CLR,M,M,M,M,M,M,M,M,M,M,M,M,M,M,85.73,KBVU 150215Z AUTO 20009KT 10SM CLR 32/04 A2971 RMK AO2,M
CXP,2023-06-15 02:15,-119.7326,39.1923,1431.00,71.60,46.40,40.57,250.00,9.00,0.00,29.94,M,10.00,14.00,CLR,M,M,M,M,M,M,M,M,M,M,M,M,M,M,71.60,KCXP 150215Z AUTO 25009G14KT 220V280 10SM CLR 22/08 A2994 RMK AO2,M
RTS,2023-06-15 02:15,-119.8764,39.6682,1539.00,69.80,48.20,46.16,290.00,13.00,0.00,29.96,M,10.00,M,CLR,M,M,M,M,M,M,M,M,M,M,M,M,M,M,69.80,KRTS 150215Z AUTO 29013KT 10SM CLR 21/09 A2996 RMK AO2,M
MEV,2023-06-15 02:15,-119.7500,38.9963,1441.42,69.80,50.00,49.37,290.00,12.00,0.00,29.94,M,10.00,17.00,CLR,M,M,M,M,M,M,M,M,M,M,M,M,M,M,69.80,KMEV 150215Z AUTO 29012G17KT 10SM CLR 21/10 A2994 RMK AO2,M
BAM,2023-06-15 02:15,-116.8743,40.5990,1382.36,73.40,41.00,31.05,330.00,13.00,0.00,29.88,M,10.00,M,CLR,M,M,M,M,M,M,M,M,M,M,M,M,M,M,73.40,KBAM 150215Z AUTO 33013KT 10SM CLR 23/05 A2988 RMK AO1,M
HTH,2023-06-15 02:15,-118.6315,38.5448,1282.89,78.80,41.00,25.95,320.00,11.00,0.00,29.85,M,10.00,M,M,M,M,M,M,M,M,M,M,M,M,M,M,M,M,78.80,KHTH 150215Z AUTO 32011KT 10SM 26/05 A2985 RMK A01,M
TMT,2023-06-15 02:15,-117.1971,39.4643,1749.34,66.00,45.00,46.62,310.00,5.00,0.00,29.95,M,10.00,M,CLR,M,M,M,M,M,M,M,M,M,M,M,M,M,M,66.00,KTMT 150215Z AUTO 31005KT 10SM CLR 19/07 A2995 RMK AO2 LTG DSNT E AND SE T01890072,M
ELY,2023-06-15 02:29,-114.8453,39.2950,1909.00,59.00,49.00,69.12,240.00,3.00,T,29.95,M,10.00,M,FEW,BKN,OVC,M,6000.00,9000.00,11000.00,M,-RA,M,M,M,M,M,M,59.00,KELY 150229Z AUTO 24003KT 10SM -RA FEW060 BKN090 OVC110 15/09 A2995 RMK AO2 LTG DSNT SE-W RAB0159 TSE04 P0000 T01500094,M
05U,2023-06-15 02:30,-116.0051,39.6042,1811.23,60.80,50.00,67.54,360.00,12.00,0.00,29.95,M,10.00,17.00,FEW,SCT,BKN,M,6000.00,6500.00,8000.00,M,M,M,M,M,M,M,M,60.80,K05U 150230Z AUTO 36012G17KT 10SM FEW060 SCT065 BKN080 16/10 A2995 RMK A01,M
P68,2023-06-15 02:31,-116.0056,39.6014,1993.00,61.00,50.00,67.06,10.00,12.00,0.00,29.92,M,M,21.00,M,M,M,M,M,M,M,M,M,M,M,M,M,M,M,61.00,KP68 150231Z AUTO 01012G21KT 16/10 A2992 RMK AO1 WSHFT 0214 T01610100,M
BVU,2023-06-15 02:35,-114.8611,35.9475,671.00,87.80,39.20,18.09,190.00,6.00,0.00,29.71,M,10.00,M,CLR,M,M,M,M,M,M,M,M,M,M,M,M,M,M,84.22,KBVU 150235Z AUTO 19006KT 10SM CLR 31/04 A2971 RMK AO2,M
CXP,2023-06-15 02:35,-119.7326,39.1923,1431.00,69.80,46.40,43.13,260.00,8.00,0.00,29.94,M,10.00,13.00,CLR,M,M,M,M,M,M,M,M,M,M,M,M,M,M,69.80,KCXP 150235Z AUTO 26008G13KT 10SM CLR 21/08 A2994 RMK AO2,M
RTS,2023-06-15 02:35,-119.8764,39.6682,1539.00,68.00,48.20,49.10,280.00,13.00,0.00,29.96,M,10.00,M,CLR,M,M,M,M,M,M,M,M,M,M,M,M,M,M,68.00,KRTS 150235Z AUTO 28013KT 10SM CLR 20/09 A2996 RMK AO2,M
MEV,2023-06-15 02:35,-119.7500,38.9963,1441.42,68.00,50.00,52.51,280.00,14.00,0.00,29.93,M,10.00,M,CLR,M,M,M,M,M,M,M,M,M,M,M,M,M,M,68.00,KMEV 150235Z AUTO 28014KT 10SM CLR 20/10 A2993 RMK AO2,M
BAM,2023-06-15 02:35,-116.8743,40.5990,1382.36,71.60,41.00,33.00,330.00,13.00,0.00,29.88,M,10.00,18.00,CLR,M,M,M,M,M,M,M,M,M,M,M,M,M,M,71.60,KBAM 150235Z AUTO 33013G18KT 10SM CLR 22/05 A2988 RMK AO1,M
HTH,2023-06-15 02:35,-118.6315,38.5448,1282.89,78.80,41.00,25.95,320.00,12.00,0.00,29.86,M,10.00,M,CLR,M,M,M,M,M,M,M,M,M,M,M,M,M,M,78.80,KHTH 150235Z AUTO 32012KT 10SM CLR 26/05 A2986 RMK A01,M
TMT,2023-06-15 02:35,-117.1971,39.4643,1749.34,65.30,45.70,49.06,300.00,7.00,0.00,29.95,M,10.00,M,CLR,M,M,M,M,M,M,M,M,M,M,M,M,M,M,65.30,KTMT 150235Z AUTO 30007KT 10SM CLR 19/08 A2995 RMK AO2 LTG DSNT E THRU SW T01850076,M
P68,2023-06-15 02:45,-116.0056,39.6014,1993.00,58.00,52.00,80.67,70.00,9.00,0.00,29.93,M,M,M,M,M,M,M,M,M,M,M,M,M,M,M,M,M,M,57.90,KP68 150245Z AUTO 07009KT 14/11 A2993 RMK AO1 WSHFT 0228 T01440111,M
05U,2023-06-15 02:50,-116.0051,39.6042,1811.23,57.20,50.00,76.82,30.00,8.00,0.00,29.96,M,10.00,M,FEW,BKN,M,M,6500.00,9000.00,M,M,M,M,M,M,M,M,M,57.20,K05U 150250Z AUTO 03008KT 10SM FEW065 BKN090 14/10 A2996 RMK A01,M
P68,2023-06-15 02:53,-116.0056,39.6014,1993.00,58.00,50.00,74.91,70.00,8.00,0.00,29.93,1007.70,M,M,M,M,M,M,M,M,M,M,M,M,M,M,M,M,M,57.90,KP68 150253Z AUTO 07008KT 14/10 A2993 RMK AO1 WSHFT 0228 SLP077 T01440100 53000,M
LOL,2023-06-15 02:53,-118.5701,40.0684,1192.43,74.00,36.00,25.11,320.00,9.00,0.00,29.86,1007.70,10.00,M,CLR,M,M,M,M,M,M,M,M,M,M,M,M,M,M,73.90,KLOL 150253Z AUTO 32009KT 10SM CLR 23/02 A2986 RMK AO2 SLP077 T02330022 53001,M
ELY,2023-06-15 02:53,-114.8453,39.2950,1909.00,57.00,51.00,80.60,280.00,4.00,T,29.96,1007.30,10.00,M,BKN,BKN,OVC,M,6500.00,8000.00,11000.00,M,M,M,M,M,M,M,M,57.00,KELY 150253Z AUTO 28004KT 10SM BKN065 BKN080 OVC110 14/11 A2996 RMK AO2 LTG DSNT SE AND S RAB0159E37 TSE04 SLP073 P0000 60000 T01390106 50003,M
VGT,2023-06-15 02:53,-115.1933,36.2111,667.00,87.00,43.00,21.42,320.00,15.00,0.00,29.71,1004.80,10.00,27.00,CLR,M,M,M,M,M,M,M,M,M,M,M,27.00,320.00,2023-06-15 02:50,83.84,KVGT 150253Z 32015G27KT 10SM CLR 31/06 A2971 RMK AO2 PK WND 32027/0250 SLP048 T03060061 55002,M
DRA,2023-06-15 02:53,-116.0278,36.6206,1009.00,78.00,44.00,29.91,120.00,11.00,0.00,29.79,1004.10,10.00,17.00,CLR,M,M,M,M,M,M,M,M,M,M,M,M,M,M,78.10,KDRA 150253Z AUTO 12011G17KT 10SM CLR 26/07 A2979 RMK AO2 SLP041 T02560067 58008,M
BVU,2023-06-15 02:55,-114.8611,35.9475,671.00,87.80,39.20,18.09,200.00,5.00,0.00,29.71,M,10.00,M,CLR,M,M,M,M,M,M,M,M,M,M,M,M,M,M,84.22,KBVU 150255Z AUTO 20005KT 10SM CLR 31/04 A2971 RMK AO2,M
CXP,2023-06-15 02:55,-119.7326,39.1923,1431.00,69.80,44.60,40.29,270.00,8.00,0.00,29.95,M,10.00,M,CLR,M,M,M,M,M,M,M,M,M,M,M,M,M,M,69.80,KCXP 150255Z AUTO 27008KT 10SM CLR 21/07 A2995 RMK AO2,M
RTS,2023-06-15 02:55,-119.8764,39.6682,1539.00,68.00,48.20,49.10,280.00,12.00,0.00,29.96,M,10.00,17.00,SCT,M,M,M,6500.00,M,M,M,M,M,M,M,M,M,M,68.00,KRTS 150255Z AUTO 28012G17KT 10SM SCT065 20/09 A2996 RMK AO2,M
MEV,2023-06-15 02:55,-119.7500,38.9963,1441.42,68.00,48.20,49.10,270.00,13.00,0.00,29.93,M,10.00,M,CLR,M,M,M,M,M,M,M,M,M,M,M,M,M,M,68.00,KMEV 150255Z AUTO 27013KT 10SM CLR 20/09 A2993 RMK AO2,M
BAM,2023-06-15 02:55,-116.8743,40.5990,1382.36,69.80,42.80,37.61,320.00,15.00,0.00,29.88,M,10.00,M,CLR,M,M,M,M,M,M,M,M,M,M,M,M,M,M,69.80,KBAM 150255Z AUTO 32015KT 10SM CLR 21/06 A2988 RMK AO1,M
HTH,2023-06-15 02:55,-118.6315,38.5448,1282.89,77.00,42.80,29.51,320.00,10.00,0.00,29.86,M,10.00,M,CLR,M,M,M,M,M,M,M,M,M,M,M,M,M,M,77.00,KHTH 150255Z AUTO 32010KT 10SM CLR 25/06 A2986 RMK A01,M
TMT,2023-06-15 02:55,-117.1971,39.4643,1749.34,63.70,47.50,55.53,290.00,6.00,0.00,29.95,M,10.00,M,CLR,M,M,M,M,M,M,M,M,M,M,M,M,M,M,63.70,KTMT 150255Z AUTO 29006KT 10SM CLR 18/09 A2995 RMK AO2 LTG DSNT E THRU SW T01760086,M
INS,2023-06-15 02:55,-115.6733,36.5872,955.00,76.00,42.30,30.03,150.00,4.00,0.00,29.79,1004.20,10.00,M,CLR,M,M,M,M,M,M,M,M,M,M,M,M,M,M,75.90,KINS 150255Z AUTO 15004KT 10SM CLR 24/06 A2979 RMK AO2 SLP042 T02440057 55007 $,M
LSV,2023-06-15 02:55,-115.0343,36.2362,570.00,88.50,39.60,17.97,250.00,18.00,0.00,29.66,1001.90,10.00,21.00,FEW,M,M,M,14000.00,M,M,M,M,M,M,M,M,M,M,84.82,KLSV 150255Z AUTO 25018G21KT 10SM FEW140 31/04 A2966 RMK AO2 SLP019 T03140042 55002 $,M
RNO,2023-06-15 02:55,-119.7711,39.4839,1341.00,74.00,46.00,36.98,280.00,10.00,0.00,29.91,1008.00,10.00,M,FEW,BKN,BKN,M,8000.00,15000.00,20000.00,M,M,M,M,M,M,M,M,73.90,KRNO 150255Z 28010KT 10SM FEW080 BKN150 BKN200 23/08 A2991 RMK AO2 SLP080 T02330078 53003,M
TPH,2023-06-15 02:56,-117.0904,38.0505,1654.00,68.00,50.00,52.51,200.00,8.00,0.00,29.92,1006.80,10.00,M,BKN,M,M,M,10000.00,M,M,M,M,M,M,M,M,M,M,68.00,KTPH 150256Z AUTO 20008KT 10SM BKN100 20/10 A2992 RMK AO2 LTG DSNT NE SLP068 6//// T02000100 55000 PNO $,M
EKO,2023-06-15 02:56,-115.7860,40.8242,1367.00,68.00,40.00,35.76,320.00,6.00,0.00,29.89,1007.60,10.00,M,CLR,M,M,M,M,M,M,M,M,M,M,M,M,M,M,68.00,KEKO 150256Z AUTO 32006KT 10SM CLR 20/04 A2989 RMK AO2 SLP076 T02000044 53003,M
HND,2023-06-15 02:56,-115.1344,35.9729,742.79,86.00,44.00,23.14,30.00,3.00,0.00,29.76,1006.30,10.00,M,CLR,M,M,M,M,M,M,M,M,M,M,M,M,M,M,83.04,KHND 150256Z 03003KT 10SM CLR 30/07 A2976 RMK AO2 SLP063 T03000067 55001,M
WMC,2023-06-15 02:56,-117.8072,40.9019,1315.00,69.00,39.00,33.25,360.00,12.00,0.00,29.90,1008.30,10.00,M,CLR,M,M,M,M,M,M,M,M,M,M,M,M,M,M,69.10,KWMC 150256Z AUTO 36012KT 10SM CLR 21/04 A2990 RMK AO2 SLP083 T02060039 53002,M
NFL,2023-06-15 02:56,-118.7010,39.4166,1199.00,76.00,42.00,29.80,340.00,8.00,0.00,29.85,1008.40,10.00,M,SCT,SCT,BKN,BKN,6000.00,9000.00,15000.00,18000.00,M,M,M,M,M,M,M,75.90,KNFL 150256Z 34008KT 10SM SCT060 SCT090 BKN150 BKN180 24/06 A2985 RMK AO2 SLP084 T02440056 53003,M
LAS,2023-06-15 02:56,-115.1634,36.0719,663.00,87.00,42.00,20.70,340.00,8.00,0.00,29.72,1003.60,10.00,M,FEW,FEW,SCT,M,11000.00,17000.00,22000.00,M,M,M,M,M,M,M,M,83.79,KLAS 150256Z 34008KT 10SM FEW110 FEW170 SCT220 31/06 A2972 RMK AO2 SLP036 T03060056 56002,M
ELY,2023-06-15 03:02,-114.8453,39.2950,1909.00,57.00,51.00,80.60,230.00,4.00,0.00,29.96,M,10.00,M,BKN,BKN,OVC,M,6000.00,8000.00,10000.00,M,VCTS,M,M,M,M,M,M,57.00,KELY 150302Z AUTO 23004KT 10SM VCTS BKN060 BKN080 OVC100 14/11 A2996 RMK AO2 LTG DSNT SE AND S T01390106,M
05U,2023-06-15 03:10,-116.0051,39.6042,1811.23,59.00,50.00,72.01,0.00,0.00,0.00,29.97,M,10.00,M,BKN,M,M,M,9000.00,M,M,M,M,M,M,M,M,M,M,59.00,K05U 150310Z AUTO 00000KT 10SM BKN090 15/10 A2997 RMK A01,M
BVU,2023-06-15 03:15,-114.8611,35.9475,671.00,86.00,39.20,19.15,250.00,3.00,0.00,29.72,M,10.00,M,CLR,M,M,M,M,M,M,M,M,M,M,M,M,M,M,82.79,KBVU 150315Z AUTO 25003KT 10SM CLR 30/04 A2972 RMK AO2,M
CXP,2023-06-15 03:15,-119.7326,39.1923,1431.00,69.80,42.80,37.61,290.00,9.00,0.00,29.96,M,10.00,M,CLR,M,M,M,M,M,M,M,M,M,M,M,M,M,M,69.80,KCXP 150315Z AUTO 29009KT 10SM CLR 21/06 A2996 RMK AO2 LTG DSNT SE,M
RTS,2023-06-15 03:15,-119.8764,39.6682,1539.00,66.20,48.20,52.25,280.00,8.00,0.00,29.97,M,10.00,M,FEW,M,M,M,6500.00,M,M,M,M,M,M,M,M,M,M,66.20,KRTS 150315Z AUTO 28008KT 10SM FEW065 19/09 A2997 RMK AO2,M
MEV,2023-06-15 03:15,-119.7500,38.9963,1441.42,68.00,46.40,45.88,290.00,13.00,0.00,29.94,M,10.00,M,CLR,M,M,M,M,M,M,M,M,M,M,M,M,M,M,68.00,KMEV 150315Z AUTO 29013KT 10SM CLR 20/08 A2994 RMK AO2 LTG DSNT SE,M
BAM,2023-06-15 03:15,-116.8743,40.5990,1382.36,69.80,42.80,37.61,330.00,17.00,0.00,29.89,M,10.00,M,CLR,M,M,M,M,M,M,M,M,M,M,M,M,M,M,69.80,KBAM 150315Z AUTO 33017KT 10SM CLR 21/06 A2989 RMK AO1,M
HTH,2023-06-15 03:15,-118.6315,38.5448,1282.89,77.00,41.00,27.53,320.00,12.00,0.00,29.86,M,10.00,M,CLR,M,M,M,M,M,M,M,M,M,M,M,M,M,M,77.00,KHTH 150315Z AUTO 32012KT 10SM CLR 25/05 A2986 RMK A01,M
TMT,2023-06-15 03:15,-117.1971,39.4643,1749.34,62.40,46.80,56.61,280.00,5.00,0.00,29.95,M,10.00,M,CLR,M,M,M,M,M,M,M,M,M,M,M,M,M,M,62.40,KTMT 150315Z AUTO 28005KT 10SM CLR 17/08 A2995 RMK AO2 LTG DSNT E AND S T01690082,M
05U,2023-06-15 03:30,-116.0051,39.6042,1811.23,57.20,50.00,76.82,0.00,0.00,0.00,29.97,M,10.00,M,SCT,BKN,M,M,6000.00,9000.00,M,M,M,M,M,M,M,M,M,57.20,K05U 150330Z AUTO 00000KT 10SM SCT060 BKN090 14/10 A2997 RMK A01,M
BVU,2023-06-15 03:35,-114.8611,35.9475,671.00,84.20,39.20,20.29,310.00,3.00,0.00,29.72,M,10.00,M,CLR,M,M,M,M,M,M,M,M,M,M,M,M,M,M,81.44,KBVU 150335Z AUTO 31003KT 10SM CLR 29/04 A2972 RMK AO2,M
CXP,2023-06-15 03:35,-119.7326,39.1923,1431.00,69.80,39.20,32.72,280.00,11.00,0.00,29.95,M,10.00,M,CLR,M,M,M,M,M,M,M,M,M,M,M,M,M,M,69.80,KCXP 150335Z AUTO 28011KT 10SM CLR 21/04 A2995 RMK AO2,M
RTS,2023-06-15 03:35,-119.8764,39.6682,1539.00,64.40,48.20,55.63,300.00,7.00,0.00,29.97,M,10.00,M,FEW,M,M,M,5500.00,M,M,M,M,M,M,M,M,M,M,64.40,KRTS 150335Z AUTO 30007KT 10SM FEW055 18/09 A2997 RMK AO2,M
MEV,2023-06-15 03:35,-119.7500,38.9963,1441.42,68.00,44.60,42.85,280.00,12.00,0.00,29.94,M,10.00,18.00,CLR,M,M,M,M,M,M,M,M,M,M,M,M,M,M,68.00,KMEV 150335Z AUTO 28012G18KT 10SM CLR 20/07 A2994 RMK AO2,M
BAM,2023-06-15 03:35,-116.8743,40.5990,1382.36,68.00,42.80,40.00,330.00,16.00,0.00,29.90,M,10.00,M,CLR,M,M,M,M,M,M,M,M,M,M,M,M,M,M,68.00,KBAM 150335Z AUTO 33016KT 10SM CLR 20/06 A2990 RMK AO1,M
HTH,2023-06-15 03:35,-118.6315,38.5448,1282.89,75.20,48.20,38.46,350.00,12.00,0.00,29.87,M,10.00,M,FEW,M,M,M,8500.00,M,M,M,M,M,M,M,M,M,M,75.20,KHTH 150335Z AUTO 35012KT 10SM FEW085 24/09 A2987 RMK A01,M
TMT,2023-06-15 03:35,-117.1971,39.4643,1749.34,61.30,47.30,59.98,310.00,3.00,0.00,29.96,M,10.00,M,CLR,M,M,M,M,M,M,M,M,M,M,M,M,M,M,61.30,KTMT 150335Z AUTO 31003KT 10SM CLR 16/09 A2996 RMK AO2 LTG DSNT E T01630085,M
ELY,2023-06-15 03:43,-114.8453,39.2950,1909.00,56.00,49.00,77.28,160.00,15.00,0.00,29.98,M,10.00,M,SCT,BKN,BKN,M,8000.00,9500.00,11000.00,M,M,M,M,M,M,M,M,55.90,KELY 150343Z AUTO 16015KT 10SM SCT080 BKN095 BKN110 13/09 A2998 RMK AO2 LTG DSNT ALQDS T01330094,M
05U,2023-06-15 03:50,-116.0051,39.6042,1811.23,57.20,50.00,76.82,M,5.00,0.00,29.99,M,10.00,M,BKN,BKN,BKN,M,6000.00,6500.00,7500.00,M,M,M,M,M,M,M,M,57.20,K05U 150350Z AUTO VRB05KT 10SM BKN060 BKN065 BKN075 14/10 A2999 RMK A01,M
P68,2023-06-15 03:53,-116.0056,39.6014,1993.00,57.00,50.00,77.38,170.00,6.00,0.00,29.96,1008.20,M,M,M,M,M,M,M,M,M,M,M,M,M,M,M,M,M,57.00,KP68 150353Z AUTO 17006KT 14/10 A2996 RMK AO1 SLP082 T01390100,M
DRA,2023-06-15 03:53,-116.0278,36.6206,1009.00,75.00,47.00,36.87,90.00,7.00,0.00,29.80,1004.40,10.00,M,CLR,M,M,M,M,M,M,M,M,M,M,M,M,M,M,75.00,KDRA 150353Z AUTO 09007KT 10SM CLR 24/08 A2980 RMK AO2 SLP044 T02390083,M
ELY,2023-06-15 03:53,-114.8453,39.2950,1909.00,56.00,49.00,77.28,160.00,15.00,0.00,29.99,1007.50,10.00,23.00,SCT,BKN,M,M,8500.00,12000.00,M,M,M,M,M,M,M,M,M,55.90,KELY 150353Z AUTO 16015G23KT 10SM SCT085 BKN120 13/09 A2999 RMK AO2 LTG DSNT SE AND NW SLP075 T01330094,M
VGT,2023-06-15 03:53,-115.1933,36.2111,667.00,85.00,44.00,23.97,310.00,13.00,0.00,29.71,1005.10,10.00,M,CLR,M,M,M,M,M,M,M,M,M,M,M,M,M,M,82.20,KVGT 150353Z AUTO 31013KT 10SM CLR 29/07 A2971 RMK AO2 SLP051 T02940067,M
LOL,2023-06-15 03:53,-118.5701,40.0684,1192.43,71.00,35.00,26.63,10.00,9.00,0.00,29.87,1008.00,10.00,M,CLR,M,M,M,M,M,M,M,M,M,M,M,M,M,M,71.10,KLOL 150353Z AUTO 01009KT 10SM CLR 22/02 A2987 RMK AO2 SLP080 T02170017,M
BVU,2023-06-15 03:55,-114.8611,35.9475,671.00,82.40,41.00,23.07,330.00,5.00,0.00,29.72,M,10.00,M,CLR,M,M,M,M,M,M,M,M,M,M,M,M,M,M,80.29,KBVU 150355Z AUTO 33005KT 10SM CLR 28/05 A2972 RMK AO2 LTG DSNT W,M
CXP,2023-06-15 03:55,-119.7326,39.1923,1431.00,68.00,39.20,34.80,280.00,7.00,0.00,29.95,M,10.00,14.00,CLR,M,M,M,M,M,M,M,M,M,M,M,M,M,M,68.00,KCXP 150355Z AUTO 28007G14KT 10SM CLR 20/04 A2995 RMK AO2 LTG DSNT SE,M
RNO,2023-06-15 03:55,-119.7711,39.4839,1341.00,71.00,46.00,40.65,280.00,9.00,0.00,29.92,1008.00,10.00,M,FEW,SCT,BKN,M,8000.00,16000.00,23000.00,M,M,M,M,M,M,M,M,71.10,KRNO 150355Z 28009KT 10SM FEW080 SCT160 BKN230 22/08 A2992 RMK AO2 SLP080 T02170078,M
RTS,2023-06-15 03:55,-119.8764,39.6682,1539.00,64.40,48.20,55.63,310.00,8.00,0.00,29.97,M,10.00,M,BKN,M,M,M,6500.00,M,M,M,M,M,M,M,M,M,M,64.40,KRTS 150355Z AUTO 31008KT 10SM BKN065 18/09 A2997 RMK AO2,M
MEV,2023-06-15 03:55,-119.7500,38.9963,1441.42,66.20,46.40,48.83,290.00,11.00,0.00,29.95,M,10.00,M,CLR,M,M,M,M,M,M,M,M,M,M,M,M,M,M,66.20,KMEV 150355Z AUTO 29011KT 10SM CLR 19/08 A2995 RMK AO2,M
BAM,2023-06-15 03:55,-116.8743,40.5990,1382.36,68.00,42.80,40.00,310.00,8.00,0.00,29.91,M,10.00,M,CLR,M,M,M,M,M,M,M,M,M,M,M,M,M,M,68.00,KBAM 150355Z AUTO 31008KT 10SM CLR 20/06 A2991 RMK AO1,M
HTH,2023-06-15 03:55,-118.6315,38.5448,1282.89,75.20,46.40,35.94,350.00,10.00,0.00,29.88,M,10.00,16.00,BKN,BKN,M,M,8000.00,9000.00,M,M,M,M,M,M,M,M,M,75.20,KHTH 150355Z AUTO 35010G16KT 10SM BKN080 BKN090 24/08 A2988 RMK A01,M
INS,2023-06-15 03:55,-115.6733,36.5872,955.00,72.70,44.20,35.96,0.00,0.00,0.00,29.79,1004.20,10.00,M,FEW,BKN,M,M,16000.00,20000.00,M,M,M,M,M,M,M,M,M,72.70,KINS 150355Z AUTO 00000KT 10SM FEW160 BKN200 23/07 A2979 RMK AO2 SLP042 T02260068 $,M
LSV,2023-06-15 03:55,-115.0343,36.2362,570.00,84.60,43.70,23.84,260.00,12.00,0.00,29.67,1002.20,10.00,M,CLR,M,M,M,M,M,M,M,M,M,M,M,M,M,M,81.96,KLSV 150355Z AUTO 26012KT 10SM CLR 29/07 A2967 RMK AO2 SLP022 T02920065 $,M
WMC,2023-06-15 03:56,-117.8072,40.9019,1315.00,66.00,36.00,32.88,20.00,6.00,0.00,29.91,1008.90,10.00,M,CLR,M,M,M,M,M,M,M,M,M,M,M,M,M,M,66.00,KWMC 150356Z AUTO 02006KT 10SM CLR 19/02 A2991 RMK AO2 SLP089 T01890022,M
NFL,2023-06-15 03:56,-118.7010,39.4166,1199.00,74.00,39.00,28.25,360.00,6.00,0.00,29.86,1008.80,10.00,M,SCT,SCT,BKN,BKN,6000.00,9000.00,15000.00,18000.00,M,M,M,M,M,M,M,73.90,KNFL 150356Z 36006KT 10SM SCT060 SCT090 BKN150 BKN180 23/04 A2986 RMK AO2 SLP088 T02330039,M
HND,2023-06-15 03:56,-115.1344,35.9729,742.79,85.00,43.00,22.98,350.00,7.00,0.00,29.77,1006.50,10.00,M,CLR,M,M,M,M,M,M,M,M,M,M,M,M,M,M,82.13,KHND 150356Z AUTO 35007KT 10SM CLR 29/06 A2977 RMK AO2 SLP065 T02940061,M
TPH,2023-06-15 03:56,-117.0904,38.0505,1654.00,63.00,53.00,70.07,60.00,4.00,0.00,29.94,1007.60,10.00,M,CLR,M,M,M,M,M,M,M,M,M,M,M,M,M,M,63.00,KTPH 150356Z AUTO 06004KT 10SM CLR 17/12 A2994 RMK AO2 SLP076 T01720117 PNO $,M
EKO,2023-06-15 03:56,-115.7860,40.8242,1367.00,65.00,47.00,52.06,340.00,7.00,0.00,29.91,1008.10,10.00,M,CLR,M,M,M,M,M,M,M,M,M,M,M,M,M,M,64.90,KEKO 150356Z AUTO 34007KT 10SM CLR 18/08 A2991 RMK AO2 SLP081 T01830083,M
LAS,2023-06-15 03:56,-115.1634,36.0719,663.00,85.00,42.00,22.20,320.00,7.00,0.00,29.73,1003.90,10.00,16.00,FEW,FEW,SCT,M,11000.00,17000.00,25000.00,M,M,M,M,M,M,M,M,82.08,KLAS 150356Z 32007G16KT 10SM FEW110 FEW170 SCT250 29/06 A2973 RMK AO2 SLP039 T02940056,M
TMT,2023-06-15 04:00,-117.1971,39.4643,1749.34,60.80,48.00,62.68,10.00,4.00,0.00,29.97,M,10.00,M,CLR,M,M,M,M,M,M,M,M,M,M,M,M,M,M,60.80,KTMT 150400Z AUTO 01004KT 10SM CLR 16/09 A2997 RMK AO2 LTG DSNT E AND S T01600089,M
LSV,2023-06-15 04:04,-115.0343,36.2362,570.00,84.20,44.60,24.99,300.00,14.00,0.00,29.68,1002.40,10.00,M,CLR,M,M,M,M,M,M,M,M,M,M,M,M,M,M,81.73,KLSV 150404Z AUTO 30014KT 10SM CLR 29/07 A2968 RMK AO2 WSHFT 0351 SLP024 $,M
05U,2023-06-15 04:10,-116.0051,39.6042,1811.23,57.20,50.00,76.82,M,3.00,0.00,29.99,M,10.00,M,BKN,BKN,M,M,6000.00,8000.00,M,M,M,M,M,M,M,M,M,57.20,K05U 150410Z AUTO VRB03KT 10SM BKN060 BKN080 14/10 A2999 RMK A01,M
BVU,2023-06-15 04:15,-114.8611,35.9475,671.00,82.40,42.80,24.72,340.00,7.00,0.00,29.72,M,10.00,M,CLR,M,M,M,M,M,M,M,M,M,M,M,M,M,M,80.39,KBVU 150415Z AUTO 34007KT 10SM CLR 28/06 A2972 RMK AO2,M
CXP,2023-06-15 04:15,-119.7326,39.1923,1431.00,68.00,37.40,32.43,150.00,3.00,0.00,29.96,M,10.00,M,CLR,M,M,M,M,M,M,M,M,M,M,M,M,M,M,68.00,KCXP 150415Z AUTO 15003KT 10SM CLR 20/03 A2996 RMK AO2,M
RTS,2023-06-15 04:15,-119.8764,39.6682,1539.00,62.60,50.00,63.38,310.00,8.00,0.00,29.98,M,10.00,M,FEW,OVC,M,M,5500.00,6500.00,M,M,M,M,M,M,M,M,M,62.60,KRTS 150415Z AUTO 31008KT 10SM FEW055 OVC065 17/10 A2998 RMK AO2,M
MEV,2023-06-15 04:15,-119.7500,38.9963,1441.42,66.20,46.40,48.83,280.00,8.00,0.00,29.95,M,10.00,M,CLR,M,M,M,M,M,M,M,M,M,M,M,M,M,M,66.20,KMEV 150415Z AUTO 28008KT 10SM CLR 19/08 A2995 RMK AO2,M
BAM,2023-06-15 04:15,-116.8743,40.5990,1382.36,64.40,42.80,45.32,300.00,7.00,0.00,29.92,M,10.00,M,CLR,M,M,M,M,M,M,M,M,M,M,M,M,M,M,64.40,KBAM 150415Z AUTO 30007KT 10SM CLR 18/06 A2992 RMK AO1,M
HTH,2023-06-15 04:15,-118.6315,38.5448,1282.89,73.40,46.40,38.18,340.00,12.00,0.00,29.89,M,10.00,M,FEW,M,M,M,8000.00,M,M,M,M,M,M,M,M,M,M,73.40,KHTH 150415Z AUTO 34012KT 10SM FEW080 23/08 A2989 RMK A01,M
TMT,2023-06-15 04:15,-117.1971,39.4643,1749.34,61.20,46.40,58.18,20.00,4.00,0.00,29.97,M,10.00,M,CLR,M,M,M,M,M,M,M,M,M,M,M,M,M,M,61.20,KTMT 150415Z AUTO 02004KT 10SM CLR 16/08 A2997 RMK AO2 LTG DSNT S T01620080,M
05U,2023-06-15 04:30,-116.0051,39.6042,1811.23,55.40,50.00,81.99,0.00,0.00,0.00,29.99,M,10.00,M,SCT,BKN,M,M,6000.00,8000.00,M,M,M,M,M,M,M,M,M,55.40,K05U 150430Z AUTO 00000KT 10SM SCT060 BKN080 13/10 A2999 RMK A01,M
BVU,2023-06-15 04:35,-114.8611,35.9475,671.00,84.20,39.20,20.29,340.00,9.00,0.00,29.73,M,10.00,M,CLR,M,M,M,M,M,M,M,M,M,M,M,M,M,M,81.44,KBVU 150435Z AUTO 34009KT 10SM CLR 29/04 A2973 RMK AO2 LTG DSNT N,M
CXP,2023-06-15 04:35,-119.7326,39.1923,1431.00,64.40,41.00,42.28,0.00,0.00,0.00,29.97,M,10.00,M,CLR,M,M,M,M,M,M,M,M,M,M,M,M,M,M,64.40,KCXP 150435Z AUTO 00000KT 10SM CLR 18/05 A2997 RMK AO2,M
RTS,2023-06-15 04:35,-119.8764,39.6682,1539.00,64.40,48.20,55.63,310.00,10.00,0.00,30.00,M,10.00,M,BKN,OVC,M,M,6000.00,7000.00,M,M,M,M,M,M,M,M,M,64.40,KRTS 150435Z AUTO 31010KT 10SM BKN060 OVC070 18/09 A3000 RMK AO2,M
MEV,2023-06-15 04:35,-119.7500,38.9963,1441.42,64.40,44.60,48.55,250.00,6.00,0.00,29.96,M,10.00,13.00,FEW,FEW,M,M,3200.00,4000.00,M,M,M,M,M,M,M,M,M,64.40,KMEV 150435Z AUTO 25006G13KT 10SM FEW032 FEW040 18/07 A2996 RMK AO2,M
BAM,2023-06-15 04:35,-116.8743,40.5990,1382.36,62.60,42.80,48.28,290.00,4.00,0.00,29.93,M,10.00,M,CLR,M,M,M,M,M,M,M,M,M,M,M,M,M,M,62.60,KBAM 150435Z AUTO 29004KT 10SM CLR 17/06 A2993 RMK AO1,M
HTH,2023-06-15 04:35,-118.6315,38.5448,1282.89,73.40,50.00,43.69,340.00,11.00,0.00,29.90,M,10.00,M,CLR,M,M,M,M,M,M,M,M,M,M,M,M,M,M,73.40,KHTH 150435Z AUTO 34011KT 10SM CLR 23/10 A2990 RMK A01,M
TMT,2023-06-15 04:35,-117.1971,39.4643,1749.34,58.00,46.60,65.48,40.00,4.00,0.00,29.99,M,10.00,M,CLR,M,M,M,M,M,M,M,M,M,M,M,M,M,M,58.10,KTMT 150435Z AUTO 04004KT 10SM CLR 15/08 A2999 RMK AO2 LTG DSNT E AND SE T01450081,M
05U,2023-06-15 04:50,-116.0051,39.6042,1811.23,55.40,51.80,87.65,0.00,0.00,0.00,29.99,M,10.00,M,SCT,BKN,M,M,6000.00,7500.00,M,M,M,M,M,M,M,M,M,55.40,K05U 150450Z AUTO 00000KT 10SM SCT060 BKN075 13/11 A2999 RMK A01,M
DRA,2023-06-15 04:53,-116.0278,36.6206,1009.00,73.00,48.00,41.10,50.00,8.00,0.00,29.81,1004.90,10.00,M,CLR,M,M,M,M,M,M,M,M,M,M,M,M,M,M,73.00,KDRA 150453Z AUTO 05008KT 10SM CLR 23/09 A2981 RMK AO2 SLP049 T02280089,M
ELY,2023-06-15 04:53,-114.8453,39.2950,1909.00,53.00,50.00,89.18,220.00,9.00,0.03,30.04,1009.30,10.00,M,BKN,OVC,M,M,4500.00,6000.00,M,M,-RA,M,M,M,M,M,M,53.10,KELY 150453Z AUTO 22009KT 10SM -RA BKN045 OVC060 12/10 A3004 RMK AO2 LTG DSNT N RAB25 SLP093 P0003 T01170100,M
LOL,2023-06-15 04:53,-118.5701,40.0684,1192.43,69.00,28.00,21.40,360.00,12.00,0.00,29.89,1008.60,10.00,M,SCT,M,M,M,9500.00,M,M,M,M,M,M,M,M,M,M,69.10,KLOL 150453Z AUTO 36012KT 10SM SCT095 21/M02 A2989 RMK AO2 SLP086 T02061022,M
P68,2023-06-15 04:53,-116.0056,39.6014,1993.00,54.00,51.00,89.88,0.00,0.00,0.00,29.97,1008.40,M,M,M,M,M,M,M,M,M,M,M,M,M,M,M,M,M,54.00,KP68 150453Z AUTO 00000KT 12/11 A2997 RMK AO1 SLP084 T01220106,M
VGT,2023-06-15 04:53,-115.1933,36.2111,667.00,84.00,44.00,24.68,330.00,5.00,0.00,29.73,1005.50,10.00,M,CLR,M,M,M,M,M,M,M,M,M,M,M,M,M,M,81.55,KVGT 150453Z AUTO 33005KT 10SM CLR 29/07 A2973 RMK AO2 SLP055 T02890067,M
BVU,2023-06-15 04:55,-114.8611,35.9475,671.00,84.20,41.00,21.76,M,3.00,0.00,29.73,M,10.00,M,CLR,M,M,M,M,M,M,M,M,M,M,M,M,M,M,81.52,KBVU 150455Z AUTO VRB03KT 10SM CLR 29/05 A2973 RMK AO2,M
CXP,2023-06-15 04:55,-119.7326,39.1923,1431.00,64.40,42.80,45.32,0.00,0.00,0.00,29.97,M,10.00,M,CLR,M,M,M,M,M,M,M,M,M,M,M,M,M,M,64.40,KCXP 150455Z AUTO 00000KT 10SM CLR 18/06 A2997 RMK AO2,M
RNO,2023-06-15 04:55,-119.7711,39.4839,1341.00,70.00,45.00,40.63,300.00,9.00,0.00,29.95,1009.10,10.00,M,SCT,BKN,M,M,7500.00,18000.00,M,M,M,M,M,M,M,M,M,70.00,KRNO 150455Z 30009KT 10SM SCT075 BKN180 21/07 A2995 RMK AO2 SLP091 T02110072,M
RTS,2023-06-15 04:55,-119.8764,39.6682,1539.00,62.60,48.20,59.26,310.00,10.00,0.00,30.01,M,10.00,15.00,FEW,BKN,BKN,M,6000.00,7500.00,8500.00,M,M,M,M,M,M,M,M,62.60,KRTS 150455Z AUTO 31010G15KT 10SM FEW060 BKN075 BKN085 17/09 A3001 RMK AO2,M
MEV,2023-06-15 04:55,-119.7500,38.9963,1441.42,59.00,48.20,67.33,90.00,3.00,0.00,29.97,M,10.00,M,CLR,M,M,M,M,M,M,M,M,M,M,M,M,M,M,59.00,KMEV 150455Z AUTO 09003KT 10SM CLR 15/09 A2997 RMK AO2,M
BAM,2023-06-15 04:55,-116.8743,40.5990,1382.36,60.80,41.00,48.00,270.00,6.00,0.00,29.95,M,10.00,M,CLR,M,M,M,M,M,M,M,M,M,M,M,M,M,M,60.80,KBAM 150455Z AUTO 27006KT 10SM CLR 16/05 A2995 RMK AO1,M
HTH,2023-06-15 04:55,-118.6315,38.5448,1282.89,73.40,50.00,43.69,350.00,11.00,0.00,29.90,M,10.00,M,CLR,M,M,M,M,M,M,M,M,M,M,M,M,M,M,73.40,KHTH 150455Z AUTO 35011KT 10SM CLR 23/10 A2990 RMK A01,M
TMT,2023-06-15 04:55,-117.1971,39.4643,1749.34,59.70,44.80,57.76,360.00,3.00,0.00,29.99,M,10.00,M,CLR,M,M,M,M,M,M,M,M,M,M,M,M,M,M,59.70,KTMT 150455Z AUTO 36003KT 10SM CLR 15/07 A2999 RMK AO2 T01540071,M
INS,2023-06-15 04:55,-115.6733,36.5872,955.00,71.00,44.20,37.96,0.00,0.00,0.00,29.81,1004.90,10.00,M,CLR,M,M,M,M,M,M,M,M,M,M,M,M,M,M,71.10,KINS 150455Z AUTO 00000KT 10SM CLR 22/07 A2981 RMK AO2 SLP049 T02170068 $,M
LSV,2023-06-15 04:55,-115.0343,36.2362,570.00,82.00,41.50,23.90,0.00,0.00,0.00,29.69,1002.70,10.00,M,CLR,M,M,M,M,M,M,M,M,M,M,M,M,M,M,80.00,KLSV 150455Z AUTO 00000KT 10SM CLR 28/05 A2969 RMK AO2 SLP027 T02770053 $,M
WMC,2023-06-15 04:56,-117.8072,40.9019,1315.00,56.00,37.00,48.95,320.00,3.00,0.00,29.93,1010.30,10.00,M,CLR,M,M,M,M,M,M,M,M,M,M,M,M,M,M,55.90,KWMC 150456Z AUTO 32003KT 10SM CLR 13/03 A2993 RMK AO2 SLP103 T01330028,M
TPH,2023-06-15 04:56,-117.0904,38.0505,1654.00,64.00,50.00,60.34,250.00,14.00,0.00,29.95,1007.50,10.00,21.00,FEW,M,M,M,11000.00,M,M,M,M,M,M,M,M,M,M,64.00,KTPH 150456Z AUTO 25014G21KT 10SM FEW110 18/10 A2995 RMK AO2 SLP075 T01780100 PNO $,M
LAS,2023-06-15 04:56,-115.1634,36.0719,663.00,84.00,43.00,23.66,290.00,3.00,0.00,29.74,1004.20,10.00,M,FEW,FEW,M,M,11000.00,25000.00,M,M,M,M,M,M,M,M,M,81.48,KLAS 150456Z 29003KT 10SM FEW110 FEW250 29/06 A2974 RMK AO2 SLP042 T02890061,M
EKO,2023-06-15 04:56,-115.7860,40.8242,1367.00,63.00,40.00,42.56,340.00,10.00,0.00,29.93,1009.10,10.00,M,CLR,M,M,M,M,M,M,M,M,M,M,M,M,M,M,63.00,KEKO 150456Z AUTO 34010KT 10SM CLR 17/04 A2993 RMK AO2 SLP091 T01720044,M
HND,2023-06-15 04:56,-115.1344,35.9729,742.79,81.00,44.00,27.20,110.00,3.00,0.00,29.77,1006.70,10.00,M,CLR,M,M,M,M,M,M,M,M,M,M,M,M,M,M,79.62,KHND 150456Z AUTO 11003KT 10SM CLR 27/07 A2977 RMK AO2 SLP067 T02720067,M
NFL,2023-06-15 04:56,-118.7010,39.4166,1199.00,69.00,42.00,37.50,320.00,6.00,0.00,29.88,1009.50,10.00,M,SCT,SCT,BKN,M,6000.00,10000.00,15000.00,M,M,M,M,M,M,M,M,69.10,KNFL 150456Z 32006KT 10SM SCT060 SCT100 BKN150 21/06 A2988 RMK AO2 SLP095 T02060056,M
05U,2023-06-15 05:10,-116.0051,39.6042,1811.23,55.40,50.00,81.99,M,4.00,0.00,30.00,M,10.00,M,FEW,BKN,M,M,6000.00,9000.00,M,M,M,M,M,M,M,M,M,55.40,K05U 150510Z AUTO VRB04KT 10SM FEW060 BKN090 13/10 A3000 RMK A01,M
BVU,2023-06-15 05:15,-114.8611,35.9475,671.00,82.40,41.00,23.07,350.00,8.00,0.00,29.73,M,10.00,M,CLR,M,M,M,M,M,M,M,M,M,M,M,M,M,M,80.29,KBVU 150515Z AUTO 35008KT 10SM CLR 28/05 A2973 RMK AO2,M
CXP,2023-06-15 05:15,-119.7326,39.1923,1431.00,62.60,41.00,45.04,110.00,3.00,0.00,29.98,M,10.00,M,FEW,M,M,M,6500.00,M,M,M,M,M,M,M,M,M,M,62.60,KCXP 150515Z AUTO 11003KT 10SM FEW065 17/05 A2998 RMK AO2,M
RTS,2023-06-15 05:15,-119.8764,39.6682,1539.00,62.60,48.20,59.26,300.00,8.00,0.00,30.00,M,10.00,13.00,FEW,SCT,M,M,7500.00,8500.00,M,M,M,M,M,M,M,M,M,62.60,KRTS 150515Z AUTO 30008G13KT 10SM FEW075 SCT085 17/09 A3000 RMK AO2,M
MEV,2023-06-15 05:15,-119.7500,38.9963,1441.42,62.60,46.40,55.37,190.00,4.00,0.00,29.97,M,10.00,M,FEW,M,M,M,4500.00,M,M,M,M,M,M,M,M,M,M,62.60,KMEV 150515Z AUTO 19004KT 10SM FEW045 17/08 A2997 RMK AO2,M
BAM,2023-06-15 05:15,-116.8743,40.5990,1382.36,62.60,41.00,45.04,290.00,6.00,0.00,29.95,M,10.00,M,CLR,M,M,M,M,M,M,M,M,M,M,M,M,M,M,62.60,KBAM 150515Z AUTO 29006KT 10SM CLR 17/05 A2995 RMK AO1,M
HTH,2023-06-15 05:15,-118.6315,38.5448,1282.89,71.60,50.00,46.43,350.00,9.00,0.00,29.91,M,10.00,14.00,CLR,M,M,M,M,M,M,M,M,M,M,M,M,M,M,71.60,KHTH 150515Z AUTO 35009G14KT 10SM CLR 22/10 A2991 RMK A01,M
TMT,2023-06-15 05:15,-117.1971,39.4643,1749.34,56.50,46.00,67.81,0.00,0.00,0.00,29.99,M,10.00,M,CLR,M,M,M,M,M,M,M,M,M,M,M,M,M,M,56.50,KTMT 150515Z AUTO 00000KT 10SM CLR 14/08 A2999 RMK AO2 LTG DSNT E T01360078,M
05U,2023-06-15 05:30,-116.0051,39.6042,1811.23,55.40,50.00,81.99,M,4.00,0.00,30.02,M,3.00,19.00,SCT,BKN,OVC,M,300.00,6000.00,9000.00,M,HZ,M,M,M,M,M,M,55.40,K05U 150530Z AUTO VRB04G19KT 3SM HZ SCT003 BKN060 OVC090 13/10 A3002 RMK A01,M
BVU,2023-06-15 05:35,-114.8611,35.9475,671.00,80.60,44.60,28.08,30.00,5.00,0.00,29.73,M,10.00,M,CLR,M,M,M,M,M,M,M,M,M,M,M,M,M,M,79.42,KBVU 150535Z AUTO 03005KT 10SM CLR 27/07 A2973 RMK AO2,M
CXP,2023-06-15 05:35,-119.7326,39.1923,1431.00,62.60,41.00,45.04,0.00,0.00,0.00,29.98,M,10.00,M,BKN,BKN,M,M,7500.00,8500.00,M,M,M,M,M,M,M,M,M,62.60,KCXP 150535Z AUTO 00000KT 10SM BKN075 BKN085 17/05 A2998 RMK AO2,M
RTS,2023-06-15 05:35,-119.8764,39.6682,1539.00,60.80,48.20,63.15,300.00,5.00,0.00,30.00,M,10.00,M,CLR,M,M,M,M,M,M,M,M,M,M,M,M,M,M,60.80,KRTS 150535Z AUTO 30005KT 10SM CLR 16/09 A3000 RMK AO2,M
MEV,2023-06-15 05:35,-119.7500,38.9963,1441.42,59.00,44.60,58.77,M,3.00,0.00,29.97,M,10.00,M,CLR,M,M,M,M,M,M,M,M,M,M,M,M,M,M,59.00,KMEV 150535Z AUTO VRB03KT 10SM CLR 15/07 A2997 RMK AO2,M
BAM,2023-06-15 05:35,-116.8743,40.5990,1382.36,62.60,41.00,45.04,300.00,6.00,0.00,29.95,M,10.00,M,CLR,M,M,M,M,M,M,M,M,M,M,M,M,M,M,62.60,KBAM 150535Z AUTO 30006KT 10SM CLR 17/05 A2995 RMK AO1,M
HTH,2023-06-15 05:35,-118.6315,38.5448,1282.89,71.60,51.80,49.64,350.00,6.00,0.00,29.91,M,10.00,12.00,CLR,M,M,M,M,M,M,M,M,M,M,M,M,M,M,71.60,KHTH 150535Z AUTO 35006G12KT 10SM CLR 22/11 A2991 RMK A01,M
TMT,2023-06-15 05:35,-117.1971,39.4643,1749.34,56.50,46.20,68.32,0.00,0.00,0.00,29.99,M,10.00,M,CLR,M,M,M,M,M,M,M,M,M,M,M,M,M,M,56.50,KTMT 150535Z AUTO 00000KT 10SM CLR 14/08 A2999 RMK AO2 LTG DSNT E T01360079,M
05U,2023-06-15 05:50,-116.0051,39.6042,1811.23,53.60,48.20,81.87,40.00,4.00,0.00,30.02,M,10.00,M,SCT,BKN,OVC,M,300.00,6500.00,7000.00,M,M,M,M,M,M,M,M,53.60,K05U 150550Z AUTO 04004KT 10SM SCT003 BKN065 OVC070 12/09 A3002 RMK A01,M
DRA,2023-06-15 05:53,-116.0278,36.6206,1009.00,71.00,45.00,39.13,110.00,4.00,0.00,29.82,1004.90,10.00,M,FEW,M,M,M,12000.00,M,M,M,M,M,M,M,M,M,M,71.10,KDRA 150553Z AUTO 11004KT 10SM FEW120 22/07 A2982 RMK AO2 SLP049 T02170072 10278 20211 51008,M
LOL,2023-06-15 05:53,-118.5701,40.0684,1192.43,69.00,30.00,23.22,360.00,11.00,0.00,29.91,1009.00,10.00,M,BKN,OVC,M,M,9000.00,11000.00,M,M,M,M,M,M,M,M,M,69.10,KLOL 150553Z AUTO 36011KT 10SM BKN090 OVC110 21/M01 A2991 RMK AO2 SLP090 T02061011 10261 20200 53015,M
P68,2023-06-15 05:53,-116.0056,39.6014,1993.00,55.00,49.00,79.85,120.00,4.00,0.16,30.00,1009.00,M,M,M,M,M,M,M,M,M,M,M,M,M,M,M,M,M,55.00,KP68 150553Z AUTO 12004KT 13/09 A3000 RMK AO1 SLP090 P0016 60016 T01280094 10206 20122 53017,M
ELY,2023-06-15 05:53,-114.8453,39.2950,1909.00,52.00,49.00,89.13,90.00,9.00,0.10,30.03,1009.40,3.00,M,BKN,OVC,M,M,4600.00,6000.00,M,M,+RA BR,M,M,M,M,M,M,52.00,KELY 150553Z AUTO 09009KT 3SM +RA BR BKN046 OVC060 11/09 A3003 RMK AO2 LTG DSNT N AND NE SLP094 P0010 60013 T01110094 10172 20111 50021,M
VGT,2023-06-15 05:53,-115.1933,36.2111,667.00,83.00,44.00,25.57,330.00,10.00,0.00,29.73,1005.70,10.00,M,FEW,M,M,M,12000.00,M,M,M,M,M,M,M,M,M,M,80.80,KVGT 150553Z AUTO 33010KT 10SM FEW120 28/07 A2973 RMK AO2 SLP057 T02830067 10328 20278 51008,M
BVU,2023-06-15 05:55,-114.8611,35.9475,671.00,80.60,41.00,24.46,10.00,6.00,0.00,29.73,M,10.00,M,CLR,M,M,M,M,M,M,M,M,M,M,M,M,M,M,79.20,KBVU 150555Z AUTO 01006KT 10SM CLR 27/05 A2973 RMK AO2,M
CXP,2023-06-15 05:55,-119.7326,39.1923,1431.00,62.60,41.00,45.04,0.00,0.00,0.00,29.98,M,10.00,M,SCT,BKN,M,M,7500.00,8500.00,M,M,M,M,M,M,M,M,M,62.60,KCXP 150555Z AUTO 00000KT 10SM SCT075 BKN085 17/05 A2998 RMK AO2,M
RNO,2023-06-15 05:55,-119.7711,39.4839,1341.00,68.00,45.00,43.51,300.00,8.00,0.00,29.95,1009.20,10.00,M,SCT,SCT,M,M,7500.00,17000.00,M,M,M,M,M,M,M,M,M,68.00,KRNO 150555Z 30008KT 10SM SCT075 SCT170 20/07 A2995 RMK AO2 SLP092 T02000072 10267 20200 51013,M
RTS,2023-06-15 05:55,-119.8764,39.6682,1539.00,59.00,50.00,72.01,340.00,6.00,0.00,30.01,M,10.00,M,BKN,M,M,M,6500.00,M,M,M,M,M,M,M,M,M,M,59.00,KRTS 150555Z AUTO 34006KT 10SM BKN065 15/10 A3001 RMK AO2,M
MEV,2023-06-15 05:55,-119.7500,38.9963,1441.42,55.40,48.20,76.66,100.00,6.00,0.00,29.97,M,10.00,M,FEW,FEW,M,M,4000.00,4600.00,M,M,M,M,M,M,M,M,M,55.40,KMEV 150555Z AUTO 10006KT 10SM FEW040 FEW046 13/09 A2997 RMK AO2,M
BAM,2023-06-15 05:55,-116.8743,40.5990,1382.36,64.40,37.40,36.74,310.00,6.00,0.00,29.95,M,10.00,M,CLR,M,M,M,M,M,M,M,M,M,M,M,M,M,M,64.40,KBAM 150555Z AUTO 31006KT 10SM CLR 18/03 A2995 RMK AO1,M
HTH,2023-06-15 05:55,-118.6315,38.5448,1282.89,71.60,50.00,46.43,350.00,7.00,0.00,29.92,M,10.00,M,CLR,M,M,M,M,M,M,M,M,M,M,M,M,M,M,71.60,KHTH 150555Z AUTO 35007KT 10SM CLR 22/10 A2992 RMK A01,M
TMT,2023-06-15 05:55,-117.1971,39.4643,1749.34,56.00,46.40,70.35,0.00,0.00,0.00,30.00,M,7.00,M,CLR,M,M,M,M,M,M,M,TS,M,M,M,M,M,M,55.90,KTMT 150555Z AUTO 00000KT 7SM TS CLR 13/08 A3000 RMK AO2 LTG DSNT E T01330080 10217 20128,M
LSV,2023-06-15 05:55,-115.0343,36.2362,570.00,80.40,42.40,25.99,50.00,7.00,0.00,29.69,1002.80,10.00,M,CLR,M,M,M,M,M,M,M,M,M,M,M,M,M,M,79.17,KLSV 150555Z AUTO 05007KT 10SM CLR 27/06 A2969 RMK AO2 SLP028 T02690058 10339 20268 51010 $,M
INS,2023-06-15 05:55,-115.6733,36.5872,955.00,69.40,42.00,37.11,0.00,0.00,0.00,29.81,1004.90,10.00,M,CLR,M,M,M,M,M,M,M,M,M,M,M,M,M,M,69.40,KINS 150555Z AUTO 00000KT 10SM CLR 21/06 A2981 RMK AO2 SLP049 T02080056 10270 20203 52005 $,M
WMC,2023-06-15 05:56,-117.8072,40.9019,1315.00,53.00,36.00,52.11,340.00,3.00,0.00,29.93,1010.30,10.00,M,CLR,M,M,M,M,M,M,M,M,M,M,M,M,M,M,53.10,KWMC 150556Z AUTO 34003KT 10SM CLR 12/02 A2993 RMK AO2 SLP103 T01170022 10256 20111 51012,M
HND,2023-06-15 05:56,-115.1344,35.9729,742.79,78.00,45.00,30.95,0.00,0.00,0.00,29.78,1007.00,10.00,M,CLR,M,M,M,M,M,M,M,M,M,M,M,M,M,M,78.10,KHND 150556Z AUTO 00000KT 10SM CLR 26/07 A2978 RMK AO2 SLP070 T02560072 10322 20256 51007,M
TPH,2023-06-15 05:56,-117.0904,38.0505,1654.00,61.00,50.00,67.06,260.00,11.00,0.00,29.95,1007.70,10.00,M,SCT,M,M,M,11000.00,M,M,M,M,M,M,M,M,M,M,61.00,KTPH 150556Z AUTO 26011KT 10SM SCT110 16/10 A2995 RMK AO2 SLP077 6//// T01610100 10217 20161 51007 PNO $,M
LAS,2023-06-15 05:56,-115.1634,36.0719,663.00,83.00,43.00,24.51,20.00,5.00,0.00,29.74,1004.30,10.00,M,BKN,M,M,M,12000.00,M,M,M,M,M,M,M,M,M,M,80.73,KLAS 150556Z 02005KT 10SM BKN120 28/06 A2974 RMK AO2 SLP043 T02830061 10322 20283 51007,M
EKO,2023-06-15 05:56,-115.7860,40.8242,1367.00,60.00,42.00,51.35,80.00,3.00,0.00,29.93,1009.30,10.00,M,CLR,M,M,M,M,M,M,M,M,M,M,M,M,M,M,60.10,KEKO 150556Z AUTO 08003KT 10SM CLR 16/06 A2993 RMK AO2 SLP093 T01560056 10239 20156 51013,M
NFL,2023-06-15 05:56,-118.7010,39.4166,1199.00,71.00,42.00,35.02,360.00,9.00,0.00,29.91,1010.20,10.00,M,SCT,BKN,M,M,8000.00,15000.00,M,M,M,M,M,M,M,M,M,71.10,KNFL 150556Z 36009KT 10SM SCT080 BKN150 22/06 A2991 RMK AO2 SLP102 T02170056 10289 20206 53018,M
05U,2023-06-15 06:10,-116.0051,39.6042,1811.23,53.60,50.00,87.56,40.00,6.00,0.00,30.01,M,10.00,M,OVC,M,M,M,6000.00,M,M,M,M,M,M,M,M,M,M,53.60,K05U 150610Z AUTO 04006KT 10SM OVC060 12/10 A3001 RMK A01,M
BVU,2023-06-15 06:15,-114.8611,35.9475,671.00,78.80,44.60,29.79,20.00,6.00,0.00,29.73,M,10.00,M,CLR,M,M,M,M,M,M,M,M,M,M,M,M,M,M,78.80,KBVU 150615Z AUTO 02006KT 10SM CLR 26/07 A2973 RMK AO2,M
CXP,2023-06-15 06:15,-119.7326,39.1923,1431.00,62.60,44.60,51.72,0.00,0.00,0.00,29.99,M,10.00,M,SCT,M,M,M,7000.00,M,M,M,M,M,M,M,M,M,M,62.60,KCXP 150615Z AUTO 00000KT 10SM SCT070 17/07 A2999 RMK AO2,M
RTS,2023-06-15 06:15,-119.8764,39.6682,1539.00,59.00,50.00,72.01,340.00,6.00,0.00,30.01,M,10.00,M,BKN,M,M,M,6500.00,M,M,M,M,M,M,M,M,M,M,59.00,KRTS 150615Z AUTO 34006KT 10SM BKN065 15/10 A3001 RMK AO2,M
MEV,2023-06-15 06:15,-119.7500,38.9963,1441.42,51.80,48.20,87.47,100.00,5.00,0.00,29.97,M,10.00,M,FEW,M,M,M,4400.00,M,M,M,M,M,M,M,M,M,M,51.80,KMEV 150615Z AUTO 10005KT 10SM FEW044 11/09 A2997 RMK AO2,M
BAM,2023-06-15 06:15,-116.8743,40.5990,1382.36,62.60,39.20,42.00,50.00,4.00,0.00,29.95,M,10.00,M,CLR,M,M,M,M,M,M,M,M,M,M,M,M,M,M,62.60,KBAM 150615Z AUTO 05004KT 10SM CLR 17/04 A2995 RMK AO1,M
HTH,2023-06-15 06:15,-118.6315,38.5448,1282.89,69.80,48.20,46.16,360.00,12.00,0.00,29.93,M,10.00,M,SCT,M,M,M,8500.00,M,M,M,M,M,M,M,M,M,M,69.80,KHTH 150615Z AUTO 36012KT 10SM SCT085 21/09 A2993 RMK A01,M
TMT,2023-06-15 06:15,-117.1971,39.4643,1749.34,54.70,46.20,72.94,0.00,0.00,0.00,30.00,M,10.00,M,CLR,M,M,M,M,M,M,M,M,M,M,M,M,M,M,54.70,KTMT 150615Z AUTO 00000KT 10SM CLR 13/08 A3000 RMK AO2 LTG DSNT E T01260079,M
05U,2023-06-15 06:30,-116.0051,39.6042,1811.23,53.60,50.00,87.56,M,4.00,0.00,30.01,M,10.00,M,SCT,BKN,M,M,6000.00,9500.00,M,M,M,M,M,M,M,M,M,53.60,K05U 150630Z AUTO VRB04KT 10SM SCT060 BKN095 12/10 A3001 RMK A01,M
BVU,2023-06-15 06:35,-114.8611,35.9475,671.00,80.60,41.00,24.46,300.00,6.00,0.00,29.73,M,10.00,M,CLR,M,M,M,M,M,M,M,M,M,M,M,M,M,M,79.20,KBVU 150635Z AUTO 30006KT 10SM CLR 27/05 A2973 RMK AO2,M
CXP,2023-06-15 06:35,-119.7326,39.1923,1431.00,60.80,46.40,59.01,0.00,0.00,0.00,29.99,M,10.00,M,SCT,M,M,M,7000.00,M,M,M,M,M,M,M,M,M,M,60.80,KCXP 150635Z AUTO 00000KT 10SM SCT070 16/08 A2999 RMK AO2,M
RTS,2023-06-15 06:35,-119.8764,39.6682,1539.00,57.20,50.00,76.82,280.00,4.00,0.00,30.01,M,10.00,M,FEW,M,M,M,7000.00,M,M,M,M,M,M,M,M,M,M,57.20,KRTS 150635Z AUTO 28004KT 10SM FEW070 14/10 A3001 RMK AO2,M
MEV,2023-06-15 06:35,-119.7500,38.9963,1441.42,51.80,48.20,87.47,100.00,6.00,0.00,29.97,M,10.00,M,FEW,M,M,M,4700.00,M,M,M,M,M,M,M,M,M,M,51.80,KMEV 150635Z AUTO 10006KT 10SM FEW047 11/09 A2997 RMK AO2 LTG DSNT E,M
BAM,2023-06-15 06:35,-116.8743,40.5990,1382.36,59.00,42.80,54.86,50.00,5.00,0.00,29.95,M,10.00,M,CLR,M,M,M,M,M,M,M,M,M,M,M,M,M,M,59.00,KBAM 150635Z AUTO 05005KT 10SM CLR 15/06 A2995 RMK AO1,M
HTH,2023-06-15 06:35,-118.6315,38.5448,1282.89,69.80,48.20,46.16,360.00,9.00,0.00,29.93,M,10.00,M,BKN,BKN,M,M,8000.00,10000.00,M,M,M,M,M,M,M,M,M,69.80,KHTH 150635Z AUTO 36009KT 10SM BKN080 BKN100 21/09 A2993 RMK A01,M
TMT,2023-06-15 06:35,-117.1971,39.4643,1749.34,53.00,47.00,80.59,290.00,3.00,0.00,30.01,M,10.00,M,CLR,M,M,M,M,M,M,M,VCTS,M,M,M,M,M,M,52.90,KTMT 150635Z AUTO 29003KT 10SM VCTS CLR 12/08 A3001 RMK AO2 LTG DSNT E T01160084,M
05U,2023-06-15 06:50,-116.0051,39.6042,1811.23,53.60,50.00,87.56,M,3.00,0.00,30.02,M,10.00,M,SCT,SCT,BKN,M,6000.00,7000.00,9000.00,M,M,M,M,M,M,M,M,53.60,K05U 150650Z AUTO VRB03KT 10SM SCT060 SCT070 BKN090 12/10 A3002 RMK A01,M
DRA,2023-06-15 06:53,-116.0278,36.6206,1009.00,67.00,46.00,46.94,350.00,5.00,0.00,29.82,1005.30,10.00,M,CLR,M,M,M,M,M,M,M,M,M,M,M,M,M,M,66.90,KDRA 150653Z AUTO 35005KT 10SM CLR 19/08 A2982 RMK AO2 SLP053 T01940078,M
VGT,2023-06-15 06:53,-115.1933,36.2111,667.00,83.00,45.00,26.46,330.00,7.00,0.00,29.74,1005.80,10.00,M,BKN,M,M,M,12000.00,M,M,M,M,M,M,M,M,M,M,80.86,KVGT 150653Z AUTO 33007KT 10SM BKN120 28/07 A2974 RMK AO2 SLP058 T02830072,M
LOL,2023-06-15 06:53,-118.5701,40.0684,1192.43,59.00,38.00,45.36,130.00,5.00,0.00,29.91,1009.80,10.00,M,BKN,M,M,M,8000.00,M,M,M,M,M,M,M,M,M,M,59.00,KLOL 150653Z AUTO 13005KT 10SM BKN080 15/03 A2991 RMK AO2 SLP098 T01500033,M
P68,2023-06-15 06:53,-116.0056,39.6014,1993.00,53.00,51.00,92.89,190.00,4.00,0.00,29.99,1008.90,M,M,M,M,M,M,M,M,M,M,M,M,M,M,M,M,M,53.10,KP68 150653Z AUTO 19004KT 12/11 A2999 RMK AO1 SLP089 T01170106,M
ELY,2023-06-15 06:53,-114.8453,39.2950,1909.00,51.00,49.00,92.14,200.00,9.00,0.07,30.00,1007.80,10.00,M,FEW,FEW,M,M,7000.00,11000.00,M,M,M,M,M,M,M,M,M,51.10,KELY 150653Z AUTO 20009KT 10SM FEW070 FEW110 11/09 A3000 RMK AO2 RAE31 SLP078 P0007 T01060094,M
BVU,2023-06-15 06:55,-114.8611,35.9475,671.00,78.80,42.80,27.81,0.00,0.00,0.00,29.74,M,10.00,M,FEW,M,M,M,12000.00,M,M,M,M,M,M,M,M,M,M,78.80,KBVU 150655Z AUTO 00000KT 10SM FEW120 26/06 A2974 RMK AO2,M
CXP,2023-06-15 06:55,-119.7326,39.1923,1431.00,60.80,44.60,55.12,0.00,0.00,0.00,30.00,M,10.00,M,BKN,M,M,M,6500.00,M,M,M,M,M,M,M,M,M,M,60.80,KCXP 150655Z AUTO 00000KT 10SM BKN065 16/07 A3000 RMK AO2,M
RTS,2023-06-15 06:55,-119.8764,39.6682,1539.00,57.20,48.20,71.83,360.00,3.00,0.00,30.01,M,10.00,M,FEW,M,M,M,6500.00,M,M,M,M,M,M,M,M,M,M,57.20,KRTS 150655Z AUTO 36003KT 10SM FEW065 14/09 A3001 RMK AO2,M
MEV,2023-06-15 06:55,-119.7500,38.9963,1441.42,51.80,48.20,87.47,130.00,4.00,0.00,29.98,M,10.00,M,FEW,M,M,M,6000.00,M,M,M,M,M,M,M,M,M,M,51.80,KMEV 150655Z AUTO 13004KT 10SM FEW060 11/09 A2998 RMK AO2,M
BAM,2023-06-15 06:55,-116.8743,40.5990,1382.36,60.80,41.00,48.00,80.00,3.00,0.00,29.95,M,10.00,M,CLR,M,M,M,M,M,M,M,M,M,M,M,M,M,M,60.80,KBAM 150655Z AUTO 08003KT 10SM CLR 16/05 A2995 RMK AO1,M
HTH,2023-06-15 06:55,-118.6315,38.5448,1282.89,71.60,46.40,40.57,360.00,12.00,0.00,29.94,M,10.00,M,BKN,BKN,OVC,M,6000.00,7500.00,9000.00,M,M,M,M,M,M,M,M,71.60,KHTH 150655Z AUTO 36012KT 10SM BKN060 BKN075 OVC090 22/08 A2994 RMK A01,M
LSV,2023-06-15 06:55,-115.0343,36.2362,570.00,79.20,42.30,26.92,30.00,5.00,0.00,29.69,1002.80,10.00,M,OVC,M,M,M,12000.00,M,M,M,M,M,M,M,M,M,M,79.20,KLSV 150655Z AUTO 03005KT 10SM OVC120 26/06 A2969 RMK AO2 SLP028 T02620057 $,M
TMT,2023-06-15 06:55,-117.1971,39.4643,1749.34,50.00,47.00,89.71,0.00,0.00,0.00,30.01,M,10.00,M,SCT,M,M,M,12000.00,M,M,M,M,M,M,M,M,M,M,50.00,KTMT 150655Z AUTO 00000KT 10SM SCT120 10/08 A3001 RMK AO2 T01000084,M
INS,2023-06-15 06:55,-115.6733,36.5872,955.00,68.50,47.00,45.96,0.00,0.00,0.00,29.81,1005.10,10.00,M,M,M,M,M,M,M,M,M,M,M,M,M,M,M,M,68.50,KINS 150655Z AUTO 00000KT 10SM M 20/08 A2981 RMK AO2 SLP051 T02030083 $,M
RNO,2023-06-15 06:55,-119.7711,39.4839,1341.00,67.00,46.00,46.94,310.00,3.00,0.00,29.97,1009.60,10.00,M,SCT,SCT,M,M,8000.00,20000.00,M,M,M,M,M,M,M,M,M,66.90,KRNO 150655Z 31003KT 10SM SCT080 SCT200 19/08 A2997 RMK AO2 SLP096 T01940078,M
EKO,2023-06-15 06:56,-115.7860,40.8242,1367.00,55.00,45.00,68.93,M,3.00,0.00,29.94,1009.40,10.00,M,CLR,M,M,M,M,M,M,M,M,M,M,M,M,M,M,55.00,KEKO 150656Z AUTO VRB03KT 10SM CLR 13/07 A2994 RMK AO2 SLP094 T01280072,M
TPH,2023-06-15 06:56,-117.0904,38.0505,1654.00,62.00,50.00,64.50,0.00,0.00,0.00,29.96,1008.00,10.00,M,CLR,M,M,M,M,M,M,M,M,M,M,M,M,M,M,62.10,KTPH 150656Z AUTO 00000KT 10SM CLR 17/10 A2996 RMK AO2 SLP080 T01670100 PNO $,M
NFL,2023-06-15 06:56,-118.7010,39.4166,1199.00,68.00,35.00,29.61,360.00,7.00,0.00,29.91,1010.40,10.00,M,SCT,BKN,M,M,8000.00,10000.00,M,M,M,M,M,M,M,M,M,68.00,KNFL 150656Z 36007KT 10SM SCT080 BKN100 20/02 A2991 RMK AO2 SLP104 T02000017,M
HND,2023-06-15 06:56,-115.1344,35.9729,742.79,77.00,44.00,31.02,170.00,7.00,0.00,29.78,1007.00,10.00,M,FEW,M,M,M,12000.00,M,M,M,M,M,M,M,M,M,M,77.00,KHND 150656Z AUTO 17007KT 10SM FEW120 25/07 A2978 RMK AO2 SLP070 T02500067 403390222,M
WMC,2023-06-15 06:56,-117.8072,40.9019,1315.00,47.00,37.00,68.27,280.00,5.00,0.00,29.93,1010.40,10.00,M,CLR,M,M,M,M,M,M,M,M,M,M,M,M,M,M,44.09,KWMC 150656Z AUTO 28005KT 10SM CLR 08/03 A2993 RMK AO2 SLP104 T00830028,M
LAS,2023-06-15 06:56,-115.1634,36.0719,663.00,83.00,44.00,25.57,310.00,5.00,0.00,29.74,1004.30,10.00,M,BKN,BKN,M,M,12000.00,14000.00,M,M,M,M,M,M,M,M,M,80.80,KLAS 150656Z 31005KT 10SM BKN120 BKN140 28/07 A2974 RMK AO2 SLP043 BKN140 V OVC T02830067,M
05U,2023-06-15 07:10,-116.0051,39.6042,1811.23,51.80,50.00,93.55,M,5.00,0.00,30.01,M,10.00,M,FEW,FEW,SCT,M,6500.00,7000.00,8500.00,M,M,M,M,M,M,M,M,51.80,K05U 150710Z AUTO VRB05KT 10SM FEW065 FEW070 SCT085 11/10 A3001 RMK A01,M
BVU,2023-06-15 07:15,-114.8611,35.9475,671.00,77.00,42.80,29.51,0.00,0.00,0.00,29.74,M,10.00,M,CLR,M,M,M,M,M,M,M,M,M,M,M,M,M,M,77.00,KBVU 150715Z AUTO 00000KT 10SM CLR 25/06 A2974 RMK AO2,M
CXP,2023-06-15 07:15,-119.7326,39.1923,1431.00,60.80,44.60,55.12,0.00,0.00,0.00,30.00,M,10.00,M,OVC,M,M,M,6500.00,M,M,M,M,M,M,M,M,M,M,60.80,KCXP 150715Z AUTO 00000KT 10SM OVC065 16/07 A3000 RMK AO2,M
RTS,2023-06-15 07:15,-119.8764,39.6682,1539.00,57.20,44.60,62.69,360.00,5.00,0.00,30.01,M,10.00,M,CLR,M,M,M,M,M,M,M,M,M,M,M,M,M,M,57.20,KRTS 150715Z AUTO 36005KT 10SM CLR 14/07 A3001 RMK AO2,M
MEV,2023-06-15 07:15,-119.7500,38.9963,1441.42,51.80,48.20,87.47,M,3.00,0.00,29.99,M,10.00,M,SCT,M,M,M,6000.00,M,M,M,M,M,M,M,M,M,M,51.80,KMEV 150715Z AUTO VRB03KT 10SM SCT060 11/09 A2999 RMK AO2,M
BAM,2023-06-15 07:15,-116.8743,40.5990,1382.36,59.00,37.40,44.47,0.00,0.00,0.00,29.95,M,10.00,M,CLR,M,M,M,M,M,M,M,M,M,M,M,M,M,M,59.00,KBAM 150715Z AUTO 00000KT 10SM CLR 15/03 A2995 RMK AO1,M
HTH,2023-06-15 07:15,-118.6315,38.5448,1282.89,69.80,46.40,43.13,360.00,11.00,0.00,29.93,M,10.00,M,BKN,BKN,OVC,M,6500.00,7500.00,10000.00,M,M,M,M,M,M,M,M,69.80,KHTH 150715Z AUTO 36011KT 10SM BKN065 BKN075 OVC100 21/08 A2993 RMK A01,M
TMT,2023-06-15 07:15,-117.1971,39.4643,1749.34,50.50,47.00,87.40,0.00,0.00,0.00,30.00,M,10.00,M,BKN,M,M,M,12000.00,M,M,M,M,M,M,M,M,M,M,50.50,KTMT 150715Z AUTO 00000KT 10SM BKN120 10/08 A3000 RMK AO2 LTG DSNT E T01030083,M
05U,2023-06-15 07:30,-116.0051,39.6042,1811.23,51.80,50.00,93.55,0.00,0.00,0.00,30.01,M,10.00,M,CLR,M,M,M,M,M,M,M,M,M,M,M,M,M,M,51.80,K05U 150730Z AUTO 00000KT 10SM CLR 11/10 A3001 RMK A01,M
BVU,2023-06-15 07:35,-114.8611,35.9475,671.00,75.20,46.40,35.94,40.00,3.00,0.00,29.74,M,10.00,M,CLR,M,M,M,M,M,M,M,M,M,M,M,M,M,M,75.20,KBVU 150735Z AUTO 04003KT 10SM CLR 24/08 A2974 RMK AO2,M
CXP,2023-06-15 07:35,-119.7326,39.1923,1431.00,59.00,44.60,58.77,0.00,0.00,0.00,29.99,M,10.00,M,BKN,BKN,M,M,6500.00,8000.00,M,M,M,M,M,M,M,M,M,59.00,KCXP 150735Z AUTO 00000KT 10SM BKN065 BKN080 15/07 A2999 RMK AO2,M
RTS,2023-06-15 07:35,-119.8764,39.6682,1539.00,55.40,42.80,62.46,350.00,5.00,0.00,30.01,M,10.00,M,CLR,M,M,M,M,M,M,M,M,M,M,M,M,M,M,55.40,KRTS 150735Z AUTO 35005KT 10SM CLR 13/06 A3001 RMK AO2,M
MEV,2023-06-15 07:35,-119.7500,38.9963,1441.42,50.00,46.40,87.37,140.00,9.00,0.00,29.98,M,10.00,M,FEW,SCT,M,M,5000.00,5500.00,M,M,M,M,M,M,M,M,M,50.00,KMEV 150735Z AUTO 14009KT 10SM FEW050 SCT055 10/08 A2998 RMK AO2,M
BAM,2023-06-15 07:35,-116.8743,40.5990,1382.36,60.80,35.60,38.85,0.00,0.00,0.00,29.95,M,10.00,M,CLR,M,M,M,M,M,M,M,M,M,M,M,M,M,M,60.80,KBAM 150735Z AUTO 00000KT 10SM CLR 16/02 A2995 RMK AO1,M
HTH,2023-06-15 07:35,-118.6315,38.5448,1282.89,68.00,46.40,45.88,360.00,10.00,0.00,29.93,M,10.00,M,FEW,FEW,FEW,M,7000.00,8000.00,10000.00,M,M,M,M,M,M,M,M,68.00,KHTH 150735Z AUTO 36010KT 10SM FEW070 FEW080 FEW100 20/08 A2993 RMK A01,M
TMT,2023-06-15 07:35,-117.1971,39.4643,1749.34,50.70,47.30,88.07,0.00,0.00,0.00,30.00,M,10.00,M,SCT,M,M,M,11000.00,M,M,M,M,M,M,M,M,M,M,50.70,KTMT 150735Z AUTO 00000KT 10SM SCT110 10/09 A3000 RMK AO2 T01040085,M
05U,2023-06-15 07:50,-116.0051,39.6042,1811.23,50.00,50.00,100.00,0.00,0.00,0.00,30.01,M,10.00,M,CLR,M,M,M,M,M,M,M,M,M,M,M,M,M,M,50.00,K05U 150750Z AUTO 00000KT 10SM CLR 10/10 A3001 RMK A01,M
DRA,2023-06-15 07:53,-116.0278,36.6206,1009.00,70.00,48.00,45.50,340.00,6.00,0.00,29.82,1005.10,10.00,M,SCT,M,M,M,11000.00,M,M,M,M,M,M,M,M,M,M,70.00,KDRA 150753Z AUTO 34006KT 10SM SCT110 21/09 A2982 RMK AO2 SLP051 T02110089 403170167,M
ELY,2023-06-15 07:53,-114.8453,39.2950,1909.00,50.00,48.00,92.80,280.00,13.00,0.00,30.03,1008.60,10.00,18.00,FEW,BKN,M,M,2200.00,5000.00,M,M,M,M,M,M,M,M,M,50.00,KELY 150753Z AUTO 28013G18KT 10SM FEW022 BKN050 10/09 A3003 RMK AO2 SLP086 T01000089 402110083,M
LOL,2023-06-15 07:53,-118.5701,40.0684,1192.43,61.00,36.00,39.19,0.00,0.00,0.00,29.92,1009.80,10.00,M,CLR,M,M,M,M,M,M,M,M,M,M,M,M,M,M,61.00,KLOL 150753Z AUTO 00000KT 10SM CLR 16/02 A2992 RMK AO2 SLP098 T01610022 402720117,M
VGT,2023-06-15 07:53,-115.1933,36.2111,667.00,82.00,44.00,26.33,340.00,4.00,0.00,29.73,1005.70,10.00,M,CLR,M,M,M,M,M,M,M,M,M,M,M,M,M,M,80.22,KVGT 150753Z AUTO 34004KT 10SM CLR 28/07 A2973 RMK AO2 SLP057 T02780067 403500233,M
P68,2023-06-15 07:53,-116.0056,39.6014,1993.00,51.00,49.00,92.14,0.00,0.00,0.00,29.98,1008.90,M,M,M,M,M,M,M,M,M,M,M,M,M,M,M,M,M,51.10,KP68 150753Z AUTO 00000KT 11/09 A2998 RMK AO1 SLP089 T01060094 402170089,M
BVU,2023-06-15 07:55,-114.8611,35.9475,671.00,75.20,48.20,38.46,0.00,0.00,0.00,29.74,M,10.00,M,CLR,M,M,M,M,M,M,M,M,M,M,M,M,M,M,75.20,KBVU 150755Z AUTO 00000KT 10SM CLR 24/09 A2974 RMK AO2,M
CXP,2023-06-15 07:55,-119.7326,39.1923,1431.00,59.00,46.40,62.92,300.00,4.00,0.00,29.99,M,10.00,M,SCT,M,M,M,6500.00,M,M,M,M,M,M,M,M,M,M,59.00,KCXP 150755Z AUTO 30004KT 10SM SCT065 15/08 A2999 RMK AO2,M
RTS,2023-06-15 07:55,-119.8764,39.6682,1539.00,53.60,42.80,66.70,340.00,7.00,0.00,30.01,M,10.00,M,CLR,M,M,M,M,M,M,M,M,M,M,M,M,M,M,53.60,KRTS 150755Z AUTO 34007KT 10SM CLR 12/06 A3001 RMK AO2,M
MEV,2023-06-15 07:55,-119.7500,38.9963,1441.42,50.00,46.40,87.37,130.00,6.00,0.00,29.98,M,10.00,M,SCT,SCT,M,M,4800.00,5500.00,M,M,M,M,M,M,M,M,M,50.00,KMEV 150755Z AUTO 13006KT 10SM SCT048 SCT055 10/08 A2998 RMK AO2,M
BAM,2023-06-15 07:55,-116.8743,40.5990,1382.36,53.60,41.00,62.23,0.00,0.00,0.00,29.95,M,10.00,M,CLR,M,M,M,M,M,M,M,M,M,M,M,M,M,M,53.60,KBAM 150755Z AUTO 00000KT 10SM CLR 12/05 A2995 RMK AO1,M
HTH,2023-06-15 07:55,-118.6315,38.5448,1282.89,66.20,48.20,52.25,300.00,5.00,0.00,29.93,M,10.00,M,CLR,M,M,M,M,M,M,M,M,M,M,M,M,M,M,66.20,KHTH 150755Z AUTO 30005KT 10SM CLR 19/09 A2993 RMK A01,M
TMT,2023-06-15 07:55,-117.1971,39.4643,1749.34,51.40,47.30,85.82,260.00,3.00,0.00,30.00,M,10.00,M,SCT,M,M,M,11000.00,M,M,M,M,M,M,M,M,M,M,51.40,KTMT 150755Z AUTO 26003KT 10SM SCT110 11/09 A3000 RMK AO2 T01080085 402360091,M
INS,2023-06-15 07:55,-115.6733,36.5872,955.00,67.50,48.70,50.90,0.00,0.00,0.00,29.82,1005.40,10.00,M,BKN,M,M,M,11000.00,M,M,M,M,M,M,M,M,M,M,67.50,KINS 150755Z AUTO 00000KT 10SM BKN110 20/09 A2982 RMK AO2 SLP054 T01970093 402960175 $,M
LSV,2023-06-15 07:55,-115.0343,36.2362,570.00,80.00,43.00,26.85,0.00,0.00,0.00,29.69,1002.70,10.00,M,SCT,OVC,M,M,12000.00,16000.00,M,M,M,M,M,M,M,M,M,79.04,KLSV 150755Z AUTO 00000KT 10SM SCT120 OVC160 27/06 A2969 RMK AO2 SLP027 T02670061 403780215 $,M
RNO,2023-06-15 07:55,-119.7711,39.4839,1341.00,66.00,47.00,50.10,290.00,3.00,0.00,29.97,1009.40,10.00,M,SCT,SCT,M,M,8000.00,20000.00,M,M,M,M,M,M,M,M,M,66.00,KRNO 150755Z 29003KT 10SM SCT080 SCT200 19/08 A2997 RMK AO2 SLP094 T01890083 402830133,M
EKO,2023-06-15 07:56,-115.7860,40.8242,1367.00,54.00,43.00,66.24,0.00,0.00,0.00,29.94,1009.20,10.00,M,CLR,M,M,M,M,M,M,M,M,M,M,M,M,M,M,54.00,KEKO 150756Z AUTO 00000KT 10SM CLR 12/06 A2994 RMK AO2 SLP092 T01220061 402440111,M
WMC,2023-06-15 07:56,-117.8072,40.9019,1315.00,50.00,35.00,56.39,300.00,6.00,0.00,29.94,1010.40,10.00,M,CLR,M,M,M,M,M,M,M,M,M,M,M,M,M,M,50.00,KWMC 150756Z AUTO 30006KT 10SM CLR 10/02 A2994 RMK AO2 SLP104 T01000017 402610078,M
NFL,2023-06-15 07:56,-118.7010,39.4166,1199.00,64.00,40.00,41.09,320.00,4.00,0.00,29.92,1010.50,10.00,M,BKN,M,M,M,10000.00,M,M,M,M,M,M,M,M,M,M,64.00,KNFL 150756Z AUTO 32004KT 10SM BKN100 18/04 A2992 RMK AO2 SLP105 T01780044 402940144,M
TPH,2023-06-15 07:56,-117.0904,38.0505,1654.00,57.00,51.00,80.60,60.00,4.00,0.00,29.96,1008.00,10.00,M,CLR,M,M,M,M,M,M,M,M,M,M,M,M,M,M,57.00,KTPH 150756Z AUTO 06004KT 10SM CLR 14/11 A2996 RMK AO2 SLP080 T01390106 402440139 PNO $,M
LAS,2023-06-15 07:56,-115.1634,36.0719,663.00,82.00,44.00,26.33,230.00,6.00,0.00,29.74,1004.30,10.00,M,OVC,M,M,M,12000.00,M,M,M,M,M,M,M,M,M,M,80.22,KLAS 150756Z 23006KT 10SM OVC120 28/07 A2974 RMK AO2 SLP043 T02780067 403440233,M
HND,2023-06-15 07:56,-115.1344,35.9729,742.79,80.00,42.00,25.94,220.00,4.00,0.00,29.78,1007.00,10.00,M,OVC,M,M,M,12000.00,M,M,M,M,M,M,M,M,M,M,78.99,KHND 150756Z AUTO 22004KT 10SM OVC120 27/06 A2978 RMK AO2 SLP070 T02670056,M
ELY,2023-06-15 08:02,-114.8453,39.2950,1909.00,52.00,47.00,82.68,270.00,12.00,0.00,30.03,M,10.00,23.00,FEW,SCT,BKN,M,2400.00,3900.00,5500.00,M,VCTS,M,M,M,M,M,M,52.00,KELY 150802Z AUTO 27012G23KT 10SM VCTS FEW024 SCT039 BKN055 11/08 A3003 RMK AO2 T01110083,M
05U,2023-06-15 08:10,-116.0051,39.6042,1811.23,50.00,48.20,93.50,0.00,0.00,0.00,30.01,M,10.00,M,CLR,M,M,M,M,M,M,M,M,M,M,M,M,M,M,50.00,K05U 150810Z AUTO 00000KT 10SM CLR 10/09 A3001 RMK A01,M
BVU,2023-06-15 08:15,-114.8611,35.9475,671.00,78.80,42.80,27.81,0.00,0.00,0.00,29.74,M,10.00,M,CLR,M,M,M,M,M,M,M,M,M,M,M,M,M,M,78.80,KBVU 150815Z AUTO 00000KT 10SM CLR 26/06 A2974 RMK AO2,M
CXP,2023-06-15 08:15,-119.7326,39.1923,1431.00,57.20,46.40,67.12,0.00,0.00,0.00,29.99,M,10.00,M,CLR,M,M,M,M,M,M,M,M,M,M,M,M,M,M,57.20,KCXP 150815Z AUTO 00000KT 10SM CLR 14/08 A2999 RMK AO2,M
RTS,2023-06-15 08:15,-119.8764,39.6682,1539.00,53.60,41.00,62.23,330.00,8.00,0.00,30.01,M,10.00,M,CLR,M,M,M,M,M,M,M,M,M,M,M,M,M,M,53.60,KRTS 150815Z AUTO 33008KT 10SM CLR 12/05 A3001 RMK AO2,M
MEV,2023-06-15 08:15,-119.7500,38.9963,1441.42,48.20,46.40,93.45,130.00,5.00,0.00,29.98,M,10.00,M,FEW,BKN,BKN,M,3800.00,4700.00,5500.00,M,M,M,M,M,M,M,M,45.63,KMEV 150815Z AUTO 13005KT 10SM FEW038 BKN047 BKN055 09/08 A2998 RMK AO2,M
BAM,2023-06-15 08:15,-116.8743,40.5990,1382.36,50.00,39.20,66.27,0.00,0.00,0.00,29.95,M,10.00,M,CLR,M,M,M,M,M,M,M,M,M,M,M,M,M,M,50.00,KBAM 150815Z AUTO 00000KT 10SM CLR 10/04 A2995 RMK AO1,M
HTH,2023-06-15 08:15,-118.6315,38.5448,1282.89,66.20,50.00,55.88,320.00,5.00,0.00,29.93,M,10.00,M,CLR,M,M,M,M,M,M,M,M,M,M,M,M,M,M,66.20,KHTH 150815Z AUTO 32005KT 10SM CLR 19/10 A2993 RMK A01,M
TMT,2023-06-15 08:15,-117.1971,39.4643,1749.34,52.70,48.20,84.61,280.00,3.00,0.00,30.00,M,10.00,M,SCT,SCT,M,M,8000.00,11000.00,M,M,M,M,M,M,M,M,M,52.70,KTMT 150815Z AUTO 28003KT 10SM SCT080 SCT110 12/09 A3000 RMK AO2 T01150090,M
ELY,2023-06-15 08:17,-114.8453,39.2950,1909.00,51.00,45.00,79.54,280.00,14.00,T,30.03,M,9.00,22.00,FEW,SCT,OVC,M,2600.00,4100.00,5500.00,M,-RA,M,M,M,M,M,M,51.10,KELY 150817Z AUTO 28014G22KT 9SM -RA FEW026 SCT041 OVC055 11/07 A3003 RMK AO2 RAB11 P0000 T01060072,M
05U,2023-06-15 08:30,-116.0051,39.6042,1811.23,50.00,48.20,93.50,40.00,3.00,0.00,30.01,M,10.00,M,CLR,M,M,M,M,M,M,M,M,M,M,M,M,M,M,50.00,K05U 150830Z AUTO 04003KT 10SM CLR 10/09 A3001 RMK A01,M
BVU,2023-06-15 08:35,-114.8611,35.9475,671.00,77.00,44.60,31.62,10.00,3.00,0.00,29.73,M,10.00,M,FEW,SCT,M,M,8000.00,12000.00,M,M,M,M,M,M,M,M,M,77.00,KBVU 150835Z AUTO 01003KT 10SM FEW080 SCT120 25/07 A2973 RMK AO2,M
CXP,2023-06-15 08:35,-119.7326,39.1923,1431.00,55.40,46.40,71.64,M,5.00,0.00,29.99,M,10.00,M,CLR,M,M,M,M,M,M,M,M,M,M,M,M,M,M,55.40,KCXP 150835Z AUTO VRB05KT 10SM CLR 13/08 A2999 RMK AO2,M
RTS,2023-06-15 08:35,-119.8764,39.6682,1539.00,53.60,37.40,54.07,310.00,8.00,0.00,30.01,M,10.00,M,CLR,M,M,M,M,M,M,M,M,M,M,M,M,M,M,53.60,KRTS 150835Z AUTO 31008KT 10SM CLR 12/03 A3001 RMK AO2,M
MEV,2023-06-15 08:35,-119.7500,38.9963,1441.42,48.20,44.60,87.28,M,4.00,0.00,29.98,M,10.00,M,BKN,BKN,OVC,M,3800.00,4400.00,5000.00,M,M,M,M,M,M,M,M,46.34,KMEV 150835Z AUTO VRB04KT 10SM BKN038 BKN044 OVC050 09/07 A2998 RMK AO2,M
BAM,2023-06-15 08:35,-116.8743,40.5990,1382.36,50.00,39.20,66.27,0.00,0.00,0.00,29.95,M,10.00,M,CLR,M,M,M,M,M,M,M,M,M,M,M,M,M,M,50.00,KBAM 150835Z AUTO 00000KT 10SM CLR 10/04 A2995 RMK AO1,M
HTH,2023-06-15 08:35,-118.6315,38.5448,1282.89,66.20,50.00,55.88,320.00,12.00,0.00,29.94,M,10.00,M,FEW,M,M,M,7500.00,M,M,M,M,M,M,M,M,M,M,66.20,KHTH 150835Z AUTO 32012KT 10SM FEW075 19/10 A2994 RMK A01,M
TMT,2023-06-15 08:35,-117.1971,39.4643,1749.34,51.60,46.80,83.60,300.00,3.00,0.00,30.00,M,10.00,M,SCT,SCT,M,M,8000.00,11000.00,M,M,M,M,M,M,M,M,M,51.60,KTMT 150835Z AUTO 30003KT 10SM SCT080 SCT110 11/08 A3000 RMK AO2 T01090082,M
05U,2023-06-15 08:50,-116.0051,39.6042,1811.23,48.20,46.40,93.45,30.00,4.00,0.00,30.00,M,10.00,M,CLR,M,M,M,M,M,M,M,M,M,M,M,M,M,M,46.34,K05U 150850Z AUTO 03004KT 10SM CLR 09/08 A3000 RMK A01,M
DRA,2023-06-15 08:53,-116.0278,36.6206,1009.00,68.00,45.00,43.51,0.00,0.00,0.00,29.82,1005.60,10.00,M,CLR,M,M,M,M,M,M,M,M,M,M,M,M,M,M,68.00,KDRA 150853Z AUTO 00000KT 10SM CLR 20/07 A2982 RMK AO2 SLP056 T02000072 50001,M
VGT,2023-06-15 08:53,-115.1933,36.2111,667.00,81.00,45.00,28.15,340.00,11.00,0.00,29.74,1005.80,10.00,M,M,M,M,M,M,M,M,M,M,M,M,M,M,M,M,79.68,KVGT 150853Z AUTO 34011KT 10SM 27/07 A2974 RMK AO2 SLP058 T02720072 $,M
LOL,2023-06-15 08:53,-118.5701,40.0684,1192.43,59.00,36.00,42.08,10.00,6.00,0.00,29.93,1010.10,10.00,M,CLR,M,M,M,M,M,M,M,M,M,M,M,M,M,M,59.00,KLOL 150853Z AUTO 01006KT 10SM CLR 15/02 A2993 RMK AO2 SLP101 T01500022 53006,M
ELY,2023-06-15 08:53,-114.8453,39.2950,1909.00,51.00,45.00,79.54,210.00,7.00,0.06,30.01,1008.60,5.00,M,OVC,M,M,M,4900.00,M,M,M,-RA,M,M,M,29.00,260.00,2023-06-15 08:28,51.10,KELY 150853Z AUTO 21007KT 5SM -RA OVC049 11/07 A3001 RMK AO2 PK WND 26029/0828 RAB11 SLP086 P0006 60013 T01060072 56006,M
P68,2023-06-15 08:53,-116.0056,39.6014,1993.00,49.00,47.00,92.77,200.00,5.00,0.00,29.98,1009.10,M,M,M,M,M,M,M,M,M,M,M,M,M,M,M,M,M,46.47,KP68 150853Z AUTO 20005KT 09/08 A2998 RMK AO1 SLP091 T00940083 56005,M
BVU,2023-06-15 08:55,-114.8611,35.9475,671.00,77.00,48.20,36.22,60.00,4.00,0.00,29.74,M,10.00,M,FEW,OVC,M,M,8000.00,12000.00,M,M,M,M,M,M,M,M,M,77.00,KBVU 150855Z AUTO 06004KT 10SM FEW080 OVC120 25/09 A2974 RMK AO2,M
CXP,2023-06-15 08:55,-119.7326,39.1923,1431.00,55.40,46.40,71.64,0.00,0.00,0.00,30.00,M,10.00,M,CLR,M,M,M,M,M,M,M,M,M,M,M,M,M,M,55.40,KCXP 150855Z AUTO 00000KT 10SM CLR 13/08 A3000 RMK AO2,M
RTS,2023-06-15 08:55,-119.8764,39.6682,1539.00,51.80,39.20,61.99,330.00,9.00,0.00,30.02,M,10.00,M,CLR,M,M,M,M,M,M,M,M,M,M,M,M,M,M,51.80,KRTS 150855Z AUTO 33009KT 10SM CLR 11/04 A3002 RMK AO2,M
MEV,2023-06-15 08:55,-119.7500,38.9963,1441.42,50.00,46.40,87.37,150.00,4.00,0.00,29.98,M,10.00,M,BKN,BKN,OVC,M,4000.00,4500.00,5500.00,M,M,M,M,M,M,M,M,50.00,KMEV 150855Z AUTO 15004KT 10SM BKN040 BKN045 OVC055 10/08 A2998 RMK AO2,M
BAM,2023-06-15 08:55,-116.8743,40.5990,1382.36,51.80,39.20,61.99,0.00,0.00,0.00,29.96,M,10.00,M,CLR,M,M,M,M,M,M,M,M,M,M,M,M,M,M,51.80,KBAM 150855Z AUTO 00000KT 10SM CLR 11/04 A2996 RMK AO1,M
HTH,2023-06-15 08:55,-118.6315,38.5448,1282.89,66.20,42.80,42.57,310.00,13.00,0.00,29.94,M,10.00,M,CLR,M,M,M,M,M,M,M,M,M,M,M,M,M,M,66.20,KHTH 150855Z AUTO 31013KT 10SM CLR 19/06 A2994 RMK A01,M
INS,2023-06-15 08:55,-115.6733,36.5872,955.00,67.50,44.20,42.94,240.00,6.00,0.00,29.82,1005.90,10.00,M,OVC,M,M,M,10000.00,M,M,M,M,M,M,M,M,M,M,67.50,KINS 150855Z AUTO 24006KT 10SM OVC100 20/07 A2982 RMK AO2 SLP059 T01970068 51002 $,M
LSV,2023-06-15 08:55,-115.0343,36.2362,570.00,79.70,43.70,27.95,0.00,0.00,0.00,29.70,1003.00,10.00,M,OVC,M,M,M,12000.00,M,M,M,M,M,M,M,M,M,M,79.70,KLSV 150855Z AUTO 00000KT 10SM OVC120 27/07 A2970 RMK AO2 SLP030 T02650065 53003 $,M
RNO,2023-06-15 08:55,-119.7711,39.4839,1341.00,61.00,47.00,59.71,0.00,0.00,0.00,29.97,1009.70,10.00,M,SCT,SCT,M,M,8000.00,20000.00,M,M,M,M,M,M,M,M,M,61.00,KRNO 150855Z 00000KT 10SM SCT080 SCT200 16/08 A2997 RMK AO2 SLP097 T01610083 51006,M
TMT,2023-06-15 08:55,-117.1971,39.4643,1749.34,52.70,47.00,80.58,240.00,5.00,0.00,30.00,M,10.00,M,OVC,M,M,M,8000.00,M,M,M,M,M,M,M,M,M,M,52.70,KTMT 150855Z AUTO 24005KT 10SM OVC080 12/08 A3000 RMK AO2 T01150083,M
EKO,2023-06-15 08:56,-115.7860,40.8242,1367.00,52.00,43.00,71.28,270.00,4.00,0.00,29.94,1009.70,10.00,M,CLR,M,M,M,M,M,M,M,M,M,M,M,M,M,M,52.00,KEKO 150856Z AUTO 27004KT 10SM CLR 11/06 A2994 RMK AO2 SLP097 T01110061 53004,M
WMC,2023-06-15 08:56,-117.8072,40.9019,1315.00,50.00,34.00,53.97,280.00,5.00,0.00,29.95,1010.60,10.00,M,CLR,M,M,M,M,M,M,M,M,M,M,M,M,M,M,50.00,KWMC 150856Z AUTO 28005KT 10SM CLR 10/01 A2995 RMK AO2 SLP106 T01000011 53006,M
NFL,2023-06-15 08:56,-118.7010,39.4166,1199.00,61.00,41.00,47.66,320.00,6.00,0.00,29.92,1010.50,10.00,M,CLR,M,M,M,M,M,M,M,M,M,M,M,M,M,M,61.00,KNFL 150856Z AUTO 32006KT 10SM CLR 16/05 A2992 RMK AO2 SLP105 T01610050 51003,M
HND,2023-06-15 08:56,-115.1344,35.9729,742.79,78.00,43.00,28.68,170.00,5.00,0.00,29.78,1007.00,10.00,M,FEW,M,M,M,12000.00,M,M,M,M,M,M,M,M,M,M,78.10,KHND 150856Z AUTO 17005KT 10SM FEW120 26/06 A2978 RMK AO2 SLP070 T02560061 52001,M
TPH,2023-06-15 08:56,-117.0904,38.0505,1654.00,58.00,50.00,74.91,360.00,3.00,0.00,29.97,1009.00,10.00,M,CLR,M,M,M,M,M,M,M,M,M,M,M,M,M,M,57.90,KTPH 150856Z AUTO 36003KT 10SM CLR 14/10 A2997 RMK AO2 SLP090 6//// T01440100 52005 PNO $,M
LAS,2023-06-15 08:56,-115.1634,36.0719,663.00,81.00,43.00,26.08,170.00,4.00,0.00,29.74,1004.40,10.00,M,OVC,M,M,M,12000.00,M,M,M,M,M,M,M,M,M,M,79.54,KLAS 150856Z 17004KT 10SM OVC120 27/06 A2974 RMK AO2 SLP044 T02720061 51001,M
INS,2023-06-15 09:02,-115.6733,36.5872,955.00,68.00,42.80,40.00,220.00,7.00,0.00,29.82,1005.90,10.00,M,FEW,OVC,M,M,8000.00,10000.00,M,M,-RA,M,M,M,M,M,M,68.00,KINS 150902Z AUTO 22007KT 10SM -RA FEW080 OVC100 20/06 A2982 RMK AO2 RAB02 SLP059 $,M
05U,2023-06-15 09:10,-116.0051,39.6042,1811.23,46.40,46.40,100.00,20.00,5.00,0.00,30.00,M,10.00,M,CLR,M,M,M,M,M,M,M,M,M,M,M,M,M,M,43.50,K05U 150910Z AUTO 02005KT 10SM CLR 08/08 A3000 RMK A01,M
INS,2023-06-15 09:14,-115.6733,36.5872,955.00,69.80,42.80,37.61,210.00,4.00,0.00,29.81,1005.40,10.00,M,FEW,SCT,OVC,M,6000.00,7500.00,10000.00,M,M,M,M,M,M,M,M,69.80,KINS 150914Z AUTO 21004KT 10SM FEW060 SCT075 OVC100 21/06 A2981 RMK AO2 RAB02E12DZB12E14 SLP054 $,M
BVU,2023-06-15 09:15,-114.8611,35.9475,671.00,77.00,46.40,33.85,0.00,0.00,0.00,29.74,M,10.00,M,SCT,M,M,M,12000.00,M,M,M,M,M,M,M,M,M,M,77.00,KBVU 150915Z AUTO 00000KT 10SM SCT120 25/08 A2974 RMK AO2,M
CXP,2023-06-15 09:15,-119.7326,39.1923,1431.00,55.40,42.80,62.46,0.00,0.00,0.00,30.00,M,10.00,M,CLR,M,M,M,M,M,M,M,M,M,M,M,M,M,M,55.40,KCXP 150915Z AUTO 00000KT 10SM CLR 13/06 A3000 RMK AO2,M
RTS,2023-06-15 09:15,-119.8764,39.6682,1539.00,55.40,35.60,47.16,330.00,11.00,0.00,30.02,M,10.00,M,CLR,M,M,M,M,M,M,M,M,M,M,M,M,M,M,55.40,KRTS 150915Z AUTO 33011KT 10SM CLR 13/02 A3002 RMK AO2,M
MEV,2023-06-15 09:15,-119.7500,38.9963,1441.42,48.20,44.60,87.28,130.00,5.00,0.00,29.99,M,10.00,M,SCT,OVC,M,M,3800.00,4400.00,M,M,M,M,M,M,M,M,M,45.63,KMEV 150915Z AUTO 13005KT 10SM SCT038 OVC044 09/07 A2999 RMK AO2,M
BAM,2023-06-15 09:15,-116.8743,40.5990,1382.36,51.80,39.20,61.99,40.00,4.00,0.00,29.96,M,10.00,M,CLR,M,M,M,M,M,M,M,M,M,M,M,M,M,M,51.80,KBAM 150915Z AUTO 04004KT 10SM CLR 11/04 A2996 RMK AO1,M
HTH,2023-06-15 09:15,-118.6315,38.5448,1282.89,66.20,42.80,42.57,320.00,13.00,0.00,29.93,M,10.00,M,CLR,M,M,M,M,M,M,M,M,M,M,M,M,M,M,66.20,KHTH 150915Z AUTO 32013KT 10SM CLR 19/06 A2993 RMK A01,M
TMT,2023-06-15 09:15,-117.1971,39.4643,1749.34,50.50,47.70,90.07,150.00,4.00,0.00,30.01,M,10.00,M,SCT,OVC,M,M,8000.00,8500.00,M,M,M,M,M,M,M,M,M,50.50,KTMT 150915Z AUTO 15004KT 10SM SCT080 OVC085 10/09 A3001 RMK AO2 T01030087,M
05U,2023-06-15 09:30,-116.0051,39.6042,1811.23,48.20,46.40,93.45,M,4.00,0.00,30.00,M,10.00,M,CLR,M,M,M,M,M,M,M,M,M,M,M,M,M,M,46.34,K05U 150930Z AUTO VRB04KT 10SM CLR 09/08 A3000 RMK A01,M
BVU,2023-06-15 09:35,-114.8611,35.9475,671.00,75.20,48.20,38.46,40.00,3.00,0.00,29.74,M,10.00,M,FEW,M,M,M,12000.00,M,M,M,M,M,M,M,M,M,M,75.20,KBVU 150935Z AUTO 04003KT 10SM FEW120 24/09 A2974 RMK AO2,M
CXP,2023-06-15 09:35,-119.7326,39.1923,1431.00,57.20,42.80,58.52,0.00,0.00,0.00,30.00,M,10.00,M,CLR,M,M,M,M,M,M,M,M,M,M,M,M,M,M,57.20,KCXP 150935Z AUTO 00000KT 10SM CLR 14/06 A3000 RMK AO2,M
RTS,2023-06-15 09:35,-119.8764,39.6682,1539.00,55.40,35.60,47.16,320.00,11.00,0.00,30.02,M,10.00,M,CLR,M,M,M,M,M,M,M,M,M,M,M,M,M,M,55.40,KRTS 150935Z AUTO 32011KT 10SM CLR 13/02 A3002 RMK AO2,M
MEV,2023-06-15 09:35,-119.7500,38.9963,1441.42,48.20,44.60,87.28,80.00,4.00,0.00,29.99,M,10.00,M,BKN,BKN,OVC,M,4000.00,4600.00,5500.00,M,M,M,M,M,M,M,M,46.34,KMEV 150935Z AUTO 08004KT 10SM BKN040 BKN046 OVC055 09/07 A2999 RMK AO2,M
BAM,2023-06-15 09:35,-116.8743,40.5990,1382.36,44.60,39.20,81.20,0.00,0.00,0.00,29.97,M,10.00,M,CLR,M,M,M,M,M,M,M,M,M,M,M,M,M,M,44.60,KBAM 150935Z AUTO 00000KT 10SM CLR 07/04 A2997 RMK AO1,M
HTH,2023-06-15 09:35,-118.6315,38.5448,1282.89,66.20,42.80,42.57,330.00,10.00,0.00,29.94,M,10.00,17.00,CLR,M,M,M,M,M,M,M,M,M,M,M,M,M,M,66.20,KHTH 150935Z AUTO 33010G17KT 10SM CLR 19/06 A2994 RMK A01,M
TMT,2023-06-15 09:35,-117.1971,39.4643,1749.34,51.00,48.20,90.43,180.00,3.00,0.00,30.01,M,10.00,M,BKN,OVC,M,M,7000.00,9000.00,M,M,M,M,M,M,M,M,M,50.90,KTMT 150935Z AUTO 18003KT 10SM BKN070 OVC090 11/09 A3001 RMK AO2 T01050090,M
05U,2023-06-15 09:50,-116.0051,39.6042,1811.23,46.40,44.60,93.40,20.00,6.00,0.00,30.00,M,10.00,M,CLR,M,M,M,M,M,M,M,M,M,M,M,M,M,M,42.87,K05U 150950Z AUTO 02006KT 10SM CLR 08/07 A3000 RMK A01,M
P68,2023-06-15 09:53,-116.0056,39.6014,1993.00,47.00,45.00,93.06,190.00,6.00,0.00,29.98,1009.50,M,M,M,M,M,M,M,M,M,M,M,M,M,M,M,M,M,43.48,KP68 150953Z AUTO 19006KT 08/07 A2998 RMK AO1 SLP095 T00830072,M
ELY,2023-06-15 09:53,-114.8453,39.2950,1909.00,49.00,45.00,86.33,210.00,9.00,0.04,29.98,1008.10,10.00,M,CLR,M,M,M,M,M,M,M,M,M,M,M,M,M,M,44.53,KELY 150953Z AUTO 21009KT 10SM CLR 09/07 A2998 RMK AO2 RAE27 SLP081 P0004 T00940072,M
DRA,2023-06-15 09:53,-116.0278,36.6206,1009.00,66.00,44.00,45.05,0.00,0.00,0.00,29.81,1004.90,10.00,M,CLR,M,M,M,M,M,M,M,M,M,M,M,M,M,M,66.00,KDRA 150953Z AUTO 00000KT 10SM CLR 19/07 A2981 RMK AO2 SLP049 T01890067,M
LOL,2023-06-15 09:53,-118.5701,40.0684,1192.43,56.00,36.00,47.05,50.00,8.00,0.00,29.94,1010.50,10.00,M,CLR,M,M,M,M,M,M,M,M,M,M,M,M,M,M,55.90,KLOL 150953Z AUTO 05008KT 10SM CLR 13/02 A2994 RMK AO2 SLP105 T01330022,M
VGT,2023-06-15 09:53,-115.1933,36.2111,667.00,80.00,47.00,31.15,320.00,9.00,0.00,29.74,1005.80,10.00,M,SCT,M,M,M,11000.00,M,M,M,M,M,M,M,M,M,M,79.33,KVGT 150953Z AUTO 32009KT 10SM SCT110 27/08 A2974 RMK AO2 SLP058 T02670083 $,M
BVU,2023-06-15 09:55,-114.8611,35.9475,671.00,77.00,44.60,31.62,20.00,3.00,0.00,29.74,M,10.00,M,SCT,M,M,M,12000.00,M,M,M,M,M,M,M,M,M,M,77.00,KBVU 150955Z AUTO 02003KT 10SM SCT120 25/07 A2974 RMK AO2,M
CXP,2023-06-15 09:55,-119.7326,39.1923,1431.00,53.60,42.80,66.70,0.00,0.00,0.00,30.00,M,10.00,M,CLR,M,M,M,M,M,M,M,M,M,M,M,M,M,M,53.60,KCXP 150955Z AUTO 00000KT 10SM CLR 12/06 A3000 RMK AO2,M
RNO,2023-06-15 09:55,-119.7711,39.4839,1341.00,62.00,41.00,45.84,30.00,4.00,0.00,29.98,1009.90,10.00,14.00,FEW,FEW,M,M,10000.00,20000.00,M,M,M,M,M,M,M,M,M,62.10,KRNO 150955Z 03004G14KT 10SM FEW100 FEW200 17/05 A2998 RMK AO2 SLP099 T01670050,M
RTS,2023-06-15 09:55,-119.8764,39.6682,1539.00,53.60,37.40,54.07,320.00,10.00,0.00,30.02,M,10.00,M,CLR,M,M,M,M,M,M,M,M,M,M,M,M,M,M,53.60,KRTS 150955Z AUTO 32010KT 10SM CLR 12/03 A3002 RMK AO2,M
MEV,2023-06-15 09:55,-119.7500,38.9963,1441.42,48.20,44.60,87.28,60.00,4.00,0.00,29.99,M,10.00,M,FEW,SCT,BKN,M,3100.00,3700.00,4400.00,M,M,M,M,M,M,M,M,46.34,KMEV 150955Z AUTO 06004KT 10SM FEW031 SCT037 BKN044 09/07 A2999 RMK AO2,M
HTH,2023-06-15 09:55,-118.6315,38.5448,1282.89,64.40,44.60,48.55,330.00,9.00,0.00,29.94,M,10.00,M,CLR,M,M,M,M,M,M,M,M,M,M,M,M,M,M,64.40,KHTH 150955Z AUTO 33009KT 10SM CLR 18/07 A2994 RMK A01,M
BAM,2023-06-15 09:55,-116.8743,40.5990,1382.36,44.60,39.20,81.20,350.00,4.00,0.00,29.97,M,10.00,M,CLR,M,M,M,M,M,M,M,M,M,M,M,M,M,M,42.13,KBAM 150955Z AUTO 35004KT 10SM CLR 07/04 A2997 RMK AO1,M
TMT,2023-06-15 09:55,-117.1971,39.4643,1749.34,51.80,47.80,86.16,0.00,0.00,0.00,30.00,M,10.00,M,OVC,M,M,M,7000.00,M,M,M,M,M,M,M,M,M,M,51.80,KTMT 150955Z AUTO 00000KT 10SM OVC070 11/09 A3000 RMK AO2 T01100088,M
INS,2023-06-15 09:55,-115.6733,36.5872,955.00,67.80,42.00,38.91,0.00,0.00,T,29.81,1005.40,10.00,M,FEW,M,M,M,14000.00,M,M,M,M,M,M,M,M,M,M,67.80,KINS 150955Z AUTO 00000KT 10SM FEW140 20/06 A2981 RMK AO2 RAB02E12DZB12E14 SLP054 P0000 T01990055 $,M
LSV,2023-06-15 09:55,-115.0343,36.2362,570.00,78.80,44.00,29.01,0.00,0.00,0.00,29.70,1003.00,10.00,M,BKN,M,M,M,12000.00,M,M,M,M,M,M,M,M,M,M,78.80,KLSV 150955Z AUTO 00000KT 10SM BKN120 26/07 A2970 RMK AO2 SLP030 T02600066 $,M
EKO,2023-06-15 09:56,-115.7860,40.8242,1367.00,46.00,41.00,82.58,280.00,3.00,0.00,29.95,1010.30,10.00,M,CLR,M,M,M,M,M,M,M,M,M,M,M,M,M,M,44.69,KEKO 150956Z AUTO 28003KT 10SM CLR 08/05 A2995 RMK AO2 SLP103 T00780050,M
WMC,2023-06-15 09:56,-117.8072,40.9019,1315.00,48.00,34.00,58.16,300.00,6.00,0.00,29.96,1011.10,10.00,M,CLR,M,M,M,M,M,M,M,M,M,M,M,M,M,M,44.80,KWMC 150956Z AUTO 30006KT 10SM CLR 09/01 A2996 RMK AO2 SLP111 T00890011,M
TPH,2023-06-15 09:56,-117.0904,38.0505,1654.00,56.00,48.00,74.72,340.00,5.00,0.00,29.95,1009.20,10.00,M,CLR,M,M,M,M,M,M,M,M,M,M,M,M,M,M,55.90,KTPH 150956Z AUTO 34005KT 10SM CLR 13/09 A2995 RMK AO2 SLP092 T01330089 PNO $,M
NFL,2023-06-15 09:56,-118.7010,39.4166,1199.00,59.00,40.00,49.04,340.00,4.00,0.00,29.93,1010.70,10.00,M,BKN,M,M,M,9000.00,M,M,M,M,M,M,M,M,M,M,59.00,KNFL 150956Z AUTO 34004KT 10SM BKN090 15/04 A2993 RMK AO2 SLP107 T01500044,M
LAS,2023-06-15 09:56,-115.1634,36.0719,663.00,81.00,44.00,27.20,40.00,3.00,0.00,29.75,1004.30,10.00,M,FEW,FEW,SCT,OVC,4500.00,8500.00,12000.00,15000.00,M,M,M,M,M,M,M,79.62,KLAS 150956Z 04003KT 10SM FEW045 FEW085 SCT120 OVC150 27/07 A2975 RMK AO2 SLP043 T02720067,M
HND,2023-06-15 09:56,-115.1344,35.9729,742.79,78.00,44.00,29.91,180.00,6.00,0.00,29.78,1007.10,10.00,M,SCT,M,M,M,12000.00,M,M,M,M,M,M,M,M,M,M,78.10,KHND 150956Z AUTO 18006KT 10SM SCT120 26/07 A2978 RMK AO2 SLP071 T02560067,M
05U,2023-06-15 10:10,-116.0051,39.6042,1811.23,48.20,46.40,93.45,40.00,6.00,0.00,30.00,M,10.00,M,CLR,M,M,M,M,M,M,M,M,M,M,M,M,M,M,45.04,K05U 151010Z AUTO 04006KT 10SM CLR 09/08 A3000 RMK A01,M
BVU,2023-06-15 10:15,-114.8611,35.9475,671.00,75.20,50.00,41.14,30.00,4.00,0.00,29.75,M,10.00,M,BKN,M,M,M,12000.00,M,M,M,M,M,M,M,M,M,M,75.20,KBVU 151015Z AUTO 03004KT 10SM BKN120 24/10 A2975 RMK AO2,M
CXP,2023-06-15 10:15,-119.7326,39.1923,1431.00,53.60,42.80,66.70,0.00,0.00,0.00,30.00,M,10.00,M,FEW,M,M,M,6000.00,M,M,M,M,M,M,M,M,M,M,53.60,KCXP 151015Z AUTO 00000KT 10SM FEW060 12/06 A3000 RMK AO2,M
RTS,2023-06-15 10:15,-119.8764,39.6682,1539.00,53.60,35.60,50.36,310.00,8.00,0.00,30.01,M,10.00,M,CLR,M,M,M,M,M,M,M,M,M,M,M,M,M,M,53.60,KRTS 151015Z AUTO 31008KT 10SM CLR 12/02 A3001 RMK AO2,M
MEV,2023-06-15 10:15,-119.7500,38.9963,1441.42,46.40,42.80,87.19,110.00,4.00,0.00,29.99,M,10.00,M,SCT,BKN,BKN,M,3400.00,4300.00,5500.00,M,M,M,M,M,M,M,M,44.24,KMEV 151015Z AUTO 11004KT 10SM SCT034 BKN043 BKN055 08/06 A2999 RMK AO2,M
BAM,2023-06-15 10:15,-116.8743,40.5990,1382.36,44.60,37.40,75.68,0.00,0.00,0.00,29.97,M,10.00,M,CLR,M,M,M,M,M,M,M,M,M,M,M,M,M,M,44.60,KBAM 151015Z AUTO 00000KT 10SM CLR 07/03 A2997 RMK AO1,M
HTH,2023-06-15 10:15,-118.6315,38.5448,1282.89,64.40,39.20,39.43,320.00,10.00,0.00,29.94,M,10.00,16.00,CLR,M,M,M,M,M,M,M,M,M,M,M,M,M,M,64.40,KHTH 151015Z AUTO 32010G16KT 10SM CLR 18/04 A2994 RMK A01,M
TMT,2023-06-15 10:15,-117.1971,39.4643,1749.34,51.80,48.40,88.12,0.00,0.00,0.00,30.00,M,10.00,M,OVC,M,M,M,7000.00,M,M,M,M,M,M,M,M,M,M,51.80,KTMT 151015Z AUTO 00000KT 10SM OVC070 11/09 A3000 RMK AO2 T01100091,M
05U,2023-06-15 10:30,-116.0051,39.6042,1811.23,46.40,44.60,93.40,20.00,6.00,0.00,30.00,M,10.00,M,SCT,M,M,M,9500.00,M,M,M,M,M,M,M,M,M,M,42.87,K05U 151030Z AUTO 02006KT 10SM SCT095 08/07 A3000 RMK A01,M
BVU,2023-06-15 10:35,-114.8611,35.9475,671.00,78.80,46.40,31.90,80.00,4.00,0.00,29.74,M,10.00,M,BKN,M,M,M,12000.00,M,M,M,M,M,M,M,M,M,M,78.80,KBVU 151035Z AUTO 08004KT 10SM BKN120 26/08 A2974 RMK AO2,M
CXP,2023-06-15 10:35,-119.7326,39.1923,1431.00,53.60,44.60,71.45,M,4.00,0.00,30.00,M,10.00,M,CLR,M,M,M,M,M,M,M,M,M,M,M,M,M,M,53.60,KCXP 151035Z AUTO VRB04KT 10SM CLR 12/07 A3000 RMK AO2,M
RTS,2023-06-15 10:35,-119.8764,39.6682,1539.00,51.80,37.40,57.77,310.00,5.00,0.00,30.01,M,10.00,M,CLR,M,M,M,M,M,M,M,M,M,M,M,M,M,M,51.80,KRTS 151035Z AUTO 31005KT 10SM CLR 11/03 A3001 RMK AO2,M
MEV,2023-06-15 10:35,-119.7500,38.9963,1441.42,46.40,42.80,87.19,120.00,6.00,0.00,29.99,M,10.00,M,SCT,BKN,BKN,M,3300.00,4100.00,4700.00,M,M,M,M,M,M,M,M,42.87,KMEV 151035Z AUTO 12006KT 10SM SCT033 BKN041 BKN047 08/06 A2999 RMK AO2,M
BAM,2023-06-15 10:35,-116.8743,40.5990,1382.36,46.40,37.40,70.68,0.00,0.00,0.00,29.97,M,10.00,M,CLR,M,M,M,M,M,M,M,M,M,M,M,M,M,M,46.40,KBAM 151035Z AUTO 00000KT 10SM CLR 08/03 A2997 RMK AO1,M
HTH,2023-06-15 10:35,-118.6315,38.5448,1282.89,64.40,41.00,42.28,320.00,8.00,0.00,29.94,M,10.00,M,CLR,M,M,M,M,M,M,M,M,M,M,M,M,M,M,64.40,KHTH 151035Z AUTO 32008KT 10SM CLR 18/05 A2994 RMK A01,M
TMT,2023-06-15 10:35,-117.1971,39.4643,1749.34,52.50,49.00,87.50,0.00,0.00,0.00,30.00,M,10.00,M,OVC,M,M,M,7000.00,M,M,M,M,M,M,M,M,M,M,52.50,KTMT 151035Z AUTO 00000KT 10SM OVC070 11/09 A3000 RMK AO2 T01140094,M
05U,2023-06-15 10:50,-116.0051,39.6042,1811.23,46.40,44.60,93.40,0.00,0.00,0.00,30.00,M,10.00,M,SCT,M,M,M,9500.00,M,M,M,M,M,M,M,M,M,M,46.40,K05U 151050Z AUTO 00000KT 10SM SCT095 08/07 A3000 RMK A01,M
P68,2023-06-15 10:53,-116.0056,39.6014,1993.00,46.00,45.00,96.28,0.00,0.00,0.00,29.97,1009.10,M,M,M,M,M,M,M,M,M,M,M,M,M,M,M,M,M,46.00,KP68 151053Z AUTO 00000KT 08/07 A2997 RMK AO1 SLP091 T00780072,M
DRA,2023-06-15 10:53,-116.0278,36.6206,1009.00,66.00,46.00,48.43,0.00,0.00,0.00,29.81,1004.90,10.00,M,BKN,M,M,M,11000.00,M,M,M,M,M,M,M,M,M,M,66.00,KDRA 151053Z AUTO 00000KT 10SM BKN110 19/08 A2981 RMK AO2 SLP049 T01890078,M
ELY,2023-06-15 10:53,-114.8453,39.2950,1909.00,49.00,45.00,86.33,120.00,3.00,0.00,29.99,1008.50,10.00,M,FEW,M,M,M,12000.00,M,M,M,M,M,M,M,M,M,M,48.01,KELY 151053Z AUTO 12003KT 10SM FEW120 09/07 A2999 RMK AO2 SLP085 T00940072,M
LOL,2023-06-15 10:53,-118.5701,40.0684,1192.43,55.00,36.00,48.62,10.00,7.00,0.00,29.93,1010.40,10.00,M,CLR,M,M,M,M,M,M,M,M,M,M,M,M,M,M,55.00,KLOL 151053Z AUTO 01007KT 10SM CLR 13/02 A2993 RMK AO2 SLP104 T01280022,M
VGT,2023-06-15 10:53,-115.1933,36.2111,667.00,80.00,47.00,31.15,350.00,5.00,0.00,29.74,1005.90,10.00,M,SCT,M,M,M,11000.00,M,M,M,M,M,M,M,M,M,M,79.33,KVGT 151053Z AUTO 35005KT 10SM SCT110 27/08 A2974 RMK AO2 SLP059 T02670083 $,M
BVU,2023-06-15 10:55,-114.8611,35.9475,671.00,78.80,44.60,29.79,0.00,0.00,0.00,29.74,M,10.00,M,FEW,M,M,M,12000.00,M,M,M,M,M,M,M,M,M,M,78.80,KBVU 151055Z AUTO 00000KT 10SM FEW120 26/07 A2974 RMK AO2,M
CXP,2023-06-15 10:55,-119.7326,39.1923,1431.00,53.60,44.60,71.45,0.00,0.00,0.00,30.00,M,10.00,M,CLR,M,M,M,M,M,M,M,M,M,M,M,M,M,M,53.60,KCXP 151055Z AUTO 00000KT 10SM CLR 12/07 A3000 RMK AO2,M
RNO,2023-06-15 10:55,-119.7711,39.4839,1341.00,60.00,36.00,40.46,30.00,4.00,0.00,29.97,1009.70,10.00,M,FEW,FEW,M,M,10000.00,20000.00,M,M,M,M,M,M,M,M,M,60.10,KRNO 151055Z 03004KT 10SM FEW100 FEW200 16/02 A2997 RMK AO2 SLP097 T01560022,M
RTS,2023-06-15 10:55,-119.8764,39.6682,1539.00,53.60,35.60,50.36,340.00,4.00,0.00,30.01,M,10.00,M,CLR,M,M,M,M,M,M,M,M,M,M,M,M,M,M,53.60,KRTS 151055Z AUTO 34004KT 10SM CLR 12/02 A3001 RMK AO2,M
MEV,2023-06-15 10:55,-119.7500,38.9963,1441.42,46.40,42.80,87.19,110.00,5.00,0.00,29.99,M,10.00,M,SCT,SCT,BKN,M,3300.00,4200.00,6000.00,M,M,M,M,M,M,M,M,43.50,KMEV 151055Z AUTO 11005KT 10SM SCT033 SCT042 BKN060 08/06 A2999 RMK AO2,M
BAM,2023-06-15 10:55,-116.8743,40.5990,1382.36,44.60,35.60,70.48,0.00,0.00,0.00,29.97,M,10.00,M,CLR,M,M,M,M,M,M,M,M,M,M,M,M,M,M,44.60,KBAM 151055Z AUTO 00000KT 10SM CLR 07/02 A2997 RMK AO1,M
HTH,2023-06-15 10:55,-118.6315,38.5448,1282.89,62.60,41.00,45.04,320.00,6.00,0.00,29.95,M,10.00,M,CLR,M,M,M,M,M,M,M,M,M,M,M,M,M,M,62.60,KHTH 151055Z AUTO 32006KT 10SM CLR 17/05 A2995 RMK A01,M
TMT,2023-06-15 10:55,-117.1971,39.4643,1749.34,51.60,48.60,89.45,0.00,0.00,0.00,30.00,M,10.00,M,BKN,OVC,M,M,7000.00,10000.00,M,M,M,M,M,M,M,M,M,51.60,KTMT 151055Z AUTO 00000KT 10SM BKN070 OVC100 11/09 A3000 RMK AO2 T01090092,M
INS,2023-06-15 10:55,-115.6733,36.5872,955.00,65.70,46.00,48.94,310.00,3.00,0.00,29.80,1004.90,10.00,M,BKN,BKN,M,M,10000.00,12000.00,M,M,M,M,M,M,M,M,M,65.70,KINS 151055Z AUTO 31003KT 10SM BKN100 BKN120 19/08 A2980 RMK AO2 SLP049 T01870078 $,M
LSV,2023-06-15 10:55,-115.0343,36.2362,570.00,78.30,44.20,29.83,170.00,3.00,0.00,29.70,1003.20,10.00,M,SCT,SCT,M,M,11000.00,17000.00,M,M,M,M,M,M,M,M,M,78.30,KLSV 151055Z AUTO 17003KT 10SM SCT110 SCT170 26/07 A2970 RMK AO2 SLP032 T02570068 $,M
EKO,2023-06-15 10:56,-115.7860,40.8242,1367.00,46.00,41.00,82.58,0.00,0.00,0.00,29.95,1010.50,10.00,M,CLR,M,M,M,M,M,M,M,M,M,M,M,M,M,M,46.00,KEKO 151056Z AUTO 00000KT 10SM CLR 08/05 A2995 RMK AO2 SLP105 T00780050,M
WMC,2023-06-15 10:56,-117.8072,40.9019,1315.00,48.00,30.90,51.34,310.00,8.00,0.00,29.97,1011.50,10.00,M,CLR,M,M,M,M,M,M,M,M,M,M,M,M,M,M,43.82,KWMC 151056Z AUTO 31008KT 10SM CLR 09/M01 A2997 RMK AO2 SLP115 T00891006,M
HND,2023-06-15 10:56,-115.1344,35.9729,742.79,78.00,48.00,34.67,240.00,3.00,0.00,29.78,1007.00,10.00,M,FEW,M,M,M,12000.00,M,M,M,M,M,M,M,M,M,M,78.10,KHND 151056Z AUTO 24003KT 10SM FEW120 26/09 A2978 RMK AO2 SLP070 T02560089,M
LAS,2023-06-15 10:56,-115.1634,36.0719,663.00,80.00,45.00,28.99,0.00,0.00,0.00,29.74,1004.30,10.00,M,FEW,SCT,OVC,M,8000.00,12000.00,16000.00,M,M,M,M,M,M,M,M,79.18,KLAS 151056Z 00000KT 10SM FEW080 SCT120 OVC160 27/07 A2974 RMK AO2 SLP043 T02670072 $,M
NFL,2023-06-15 10:56,-118.7010,39.4166,1199.00,55.00,42.00,61.69,0.00,0.00,0.00,29.92,1010.60,10.00,M,FEW,M,M,M,8500.00,M,M,M,M,M,M,M,M,M,M,55.00,KNFL 151056Z AUTO 00000KT 10SM FEW085 13/06 A2992 RMK AO2 SLP106 T01280056,M
TPH,2023-06-15 10:56,-117.0904,38.0505,1654.00,53.00,47.00,79.40,320.00,4.00,0.00,29.96,1008.60,10.00,M,CLR,M,M,M,M,M,M,M,M,M,M,M,M,M,M,53.10,KTPH 151056Z AUTO 32004KT 10SM CLR 12/08 A2996 RMK AO2 SLP086 T01170083 PNO $,M
05U,2023-06-15 11:10,-116.0051,39.6042,1811.23,44.60,42.80,93.35,40.00,5.00,0.00,30.00,M,10.00,M,FEW,M,M,M,9000.00,M,M,M,M,M,M,M,M,M,M,41.36,K05U 151110Z AUTO 04005KT 10SM FEW090 07/06 A3000 RMK A01,M
BVU,2023-06-15 11:15,-114.8611,35.9475,671.00,77.00,44.60,31.62,60.00,5.00,0.00,29.74,M,10.00,M,FEW,M,M,M,12000.00,M,M,M,M,M,M,M,M,M,M,77.00,KBVU 151115Z AUTO 06005KT 10SM FEW120 25/07 A2974 RMK AO2,M
CXP,2023-06-15 11:15,-119.7326,39.1923,1431.00,51.80,44.60,76.34,0.00,0.00,0.00,30.00,M,10.00,M,CLR,M,M,M,M,M,M,M,M,M,M,M,M,M,M,51.80,KCXP 151115Z AUTO 00000KT 10SM CLR 11/07 A3000 RMK AO2,M
RTS,2023-06-15 11:15,-119.8764,39.6682,1539.00,51.80,37.40,57.77,350.00,5.00,0.00,30.01,M,10.00,M,CLR,M,M,M,M,M,M,M,M,M,M,M,M,M,M,51.80,KRTS 151115Z AUTO 35005KT 10SM CLR 11/03 A3001 RMK AO2,M
MEV,2023-06-15 11:15,-119.7500,38.9963,1441.42,46.40,42.80,87.19,110.00,6.00,0.00,29.99,M,10.00,M,FEW,FEW,SCT,M,3400.00,4200.00,5000.00,M,M,M,M,M,M,M,M,42.87,KMEV 151115Z AUTO 11006KT 10SM FEW034 FEW042 SCT050 08/06 A2999 RMK AO2,M
BAM,2023-06-15 11:15,-116.8743,40.5990,1382.36,50.00,41.00,71.07,360.00,5.00,0.00,29.97,M,10.00,M,CLR,M,M,M,M,M,M,M,M,M,M,M,M,M,M,50.00,KBAM 151115Z AUTO 36005KT 10SM CLR 10/05 A2997 RMK AO1,M
HTH,2023-06-15 11:15,-118.6315,38.5448,1282.89,62.60,39.20,42.00,270.00,6.00,0.00,29.94,M,10.00,M,CLR,M,M,M,M,M,M,M,M,M,M,M,M,M,M,62.60,KHTH 151115Z AUTO 27006KT 10SM CLR 17/04 A2994 RMK A01,M
05U,2023-06-15 11:30,-116.0051,39.6042,1811.23,42.80,42.80,100.00,0.00,0.00,0.00,30.01,M,10.00,M,CLR,M,M,M,M,M,M,M,M,M,M,M,M,M,M,42.80,K05U 151130Z AUTO 00000KT 10SM CLR 06/06 A3001 RMK A01,M
BVU,2023-06-15 11:35,-114.8611,35.9475,671.00,78.80,39.20,24.19,60.00,5.00,0.00,29.74,M,10.00,M,CLR,M,M,M,M,M,M,M,M,M,M,M,M,M,M,78.80,KBVU 151135Z AUTO 06005KT 10SM CLR 26/04 A2974 RMK AO2,M
CXP,2023-06-15 11:35,-119.7326,39.1923,1431.00,50.00,44.60,81.61,0.00,0.00,0.00,30.00,M,10.00,M,CLR,M,M,M,M,M,M,M,M,M,M,M,M,M,M,50.00,KCXP 151135Z AUTO 00000KT 10SM CLR 10/07 A3000 RMK AO2,M
RTS,2023-06-15 11:35,-119.8764,39.6682,1539.00,51.80,37.40,57.77,340.00,8.00,0.00,30.02,M,10.00,M,CLR,M,M,M,M,M,M,M,M,M,M,M,M,M,M,51.80,KRTS 151135Z AUTO 34008KT 10SM CLR 11/03 A3002 RMK AO2,M
MEV,2023-06-15 11:35,-119.7500,38.9963,1441.42,44.60,42.80,93.35,130.00,5.00,0.00,29.99,M,10.00,M,SCT,SCT,SCT,M,3700.00,4700.00,5500.00,M,M,M,M,M,M,M,M,41.36,KMEV 151135Z AUTO 13005KT 10SM SCT037 SCT047 SCT055 07/06 A2999 RMK AO2,M
BAM,2023-06-15 11:35,-116.8743,40.5990,1382.36,51.80,39.20,61.99,360.00,3.00,0.00,29.98,M,10.00,M,CLR,M,M,M,M,M,M,M,M,M,M,M,M,M,M,51.80,KBAM 151135Z AUTO 36003KT 10SM CLR 11/04 A2998 RMK AO1,M
HTH,2023-06-15 11:35,-118.6315,38.5448,1282.89,62.60,41.00,45.04,250.00,4.00,0.00,29.94,M,10.00,M,CLR,M,M,M,M,M,M,M,M,M,M,M,M,M,M,62.60,KHTH 151135Z AUTO 25004KT 10SM CLR 17/05 A2994 RMK A01,M
TMT,2023-06-15 11:40,-117.1971,39.4643,1749.34,49.30,47.50,93.48,0.00,0.00,0.00,30.00,M,10.00,M,SCT,BKN,M,M,7500.00,9000.00,M,M,M,M,M,M,M,M,M,49.30,KTMT 151140Z AUTO 00000KT 10SM SCT075 BKN090 10/09 A3000 RMK AO2 T00960086,M
05U,2023-06-15 11:50,-116.0051,39.6042,1811.23,42.80,41.00,93.30,0.00,0.00,0.00,30.01,M,10.00,M,CLR,M,M,M,M,M,M,M,M,M,M,M,M,M,M,42.80,K05U 151150Z AUTO 00000KT 10SM CLR 06/05 A3001 RMK A01,M
LOL,2023-06-15 11:53,-118.5701,40.0684,1192.43,55.00,34.00,44.90,10.00,8.00,0.00,29.95,1011.00,10.00,M,CLR,M,M,M,M,M,M,M,M,M,M,M,M,M,M,55.00,KLOL 151153Z AUTO 01008KT 10SM CLR 13/01 A2995 RMK AO2 SLP110 T01280011 10206 20128 53006,M
P68,2023-06-15 11:53,-116.0056,39.6014,1993.00,43.00,42.00,96.60,300.00,3.00,0.00,29.98,1009.60,M,M,M,M,M,M,M,M,M,M,M,M,M,M,M,M,M,41.26,KP68 151153Z AUTO 30003KT 06/06 A2998 RMK AO1 SLP096 70032 T00610056 10128 20061 55000,M
VGT,2023-06-15 11:53,-115.1933,36.2111,667.00,79.00,47.00,32.29,330.00,3.00,0.00,29.74,1006.00,10.00,M,CLR,M,M,M,M,M,M,M,M,M,M,M,M,M,M,79.00,KVGT 151153Z AUTO 33003KT 10SM CLR 26/08 A2974 RMK AO2 SLP060 T02610083 10283 20261 53000 $,M
DRA,2023-06-15 11:53,-116.0278,36.6206,1009.00,67.00,45.00,45.19,150.00,4.00,0.00,29.81,1005.20,10.00,M,OVC,M,M,M,10000.00,M,M,M,M,M,M,M,M,M,M,66.90,KDRA 151153Z AUTO 15004KT 10SM OVC100 19/07 A2981 RMK AO2 SLP052 70001 T01940072 10222 20183 55001,M
ELY,2023-06-15 11:53,-114.8453,39.2950,1909.00,47.00,45.00,93.06,180.00,6.00,0.00,29.99,1008.50,10.00,M,CLR,M,M,M,M,M,M,M,M,M,M,M,M,M,M,43.48,KELY 151153Z AUTO 18006KT 10SM CLR 08/07 A2999 RMK AO2 SLP085 60017 70058 T00830072 10117 20083 56008,M
BVU,2023-06-15 11:55,-114.8611,35.9475,671.00,75.20,42.80,31.34,70.00,5.00,0.00,29.74,M,10.00,M,CLR,M,M,M,M,M,M,M,M,M,M,M,M,M,M,75.20,KBVU 151155Z AUTO 07005KT 10SM CLR 24/06 A2974 RMK AO2,M
CXP,2023-06-15 11:55,-119.7326,39.1923,1431.00,50.00,44.60,81.61,0.00,0.00,0.00,30.00,M,10.00,M,CLR,M,M,M,M,M,M,M,M,M,M,M,M,M,M,50.00,KCXP 151155Z AUTO 00000KT 10SM CLR 10/07 A3000 RMK AO2,M
RTS,2023-06-15 11:55,-119.8764,39.6682,1539.00,51.80,35.60,53.81,330.00,8.00,0.00,30.03,M,10.00,M,CLR,M,M,M,M,M,M,M,M,M,M,M,M,M,M,51.80,KRTS 151155Z AUTO 33008KT 10SM CLR 11/02 A3003 RMK AO2,M
MEV,2023-06-15 11:55,-119.7500,38.9963,1441.42,44.60,41.00,87.09,120.00,5.00,0.00,30.00,M,10.00,M,FEW,FEW,SCT,M,3400.00,3900.00,4900.00,M,M,M,M,M,M,M,M,41.36,KMEV 151155Z AUTO 12005KT 10SM FEW034 FEW039 SCT049 07/05 A3000 RMK AO2,M
BAM,2023-06-15 11:55,-116.8743,40.5990,1382.36,50.00,39.20,66.27,350.00,3.00,0.00,29.98,M,10.00,M,CLR,M,M,M,M,M,M,M,M,M,M,M,M,M,M,50.00,KBAM 151155Z AUTO 35003KT 10SM CLR 10/04 A2998 RMK AO1,M
HTH,2023-06-15 11:55,-118.6315,38.5448,1282.89,60.80,46.40,59.01,240.00,5.00,0.00,29.95,M,10.00,M,CLR,M,M,M,M,M,M,M,M,M,M,M,M,M,M,60.80,KHTH 151155Z AUTO 24005KT 10SM CLR 16/08 A2995 RMK A01,M
TMT,2023-06-15 11:55,-117.1971,39.4643,1749.34,50.20,47.50,90.40,0.00,0.00,0.00,30.00,M,10.00,M,BKN,BKN,OVC,M,7500.00,8000.00,9000.00,M,M,M,M,M,M,M,M,50.20,KTMT 151155Z AUTO 00000KT 10SM BKN075 BKN080 OVC090 10/09 A3000 RMK AO2 T01010086 10136 20096,M
INS,2023-06-15 11:55,-115.6733,36.5872,955.00,65.00,44.20,46.99,30.00,3.00,0.00,29.81,1005.40,10.00,M,M,M,M,M,M,M,M,M,M,M,M,M,M,M,M,64.90,KINS 151155Z AUTO 03003KT 10SM M 18/07 A2981 RMK AO2 SLP054 60000 T01830068 10212 20183 55002 $,M
LSV,2023-06-15 11:55,-115.0343,36.2362,570.00,77.40,43.50,29.92,0.00,0.00,0.00,29.70,1003.30,10.00,M,BKN,BKN,M,M,14000.00,17000.00,M,M,M,M,M,M,M,M,M,77.40,KLSV 151155Z AUTO 00000KT 10SM BKN140 BKN170 25/06 A2970 RMK AO2 SLP033 T02520064 10270 20252 51001 $,M
RNO,2023-06-15 11:55,-119.7711,39.4839,1341.00,57.00,38.00,48.73,0.00,0.00,0.00,29.99,1010.80,10.00,M,CLR,M,M,M,M,M,M,M,M,M,M,M,M,M,M,57.00,KRNO 151155Z 00000KT 10SM CLR 14/03 A2999 RMK AO2 SLP108 T01390033 10206 20139 53006,M
EKO,2023-06-15 11:56,-115.7860,40.8242,1367.00,44.00,39.00,82.12,0.00,0.00,0.00,29.96,1011.00,10.00,M,CLR,M,M,M,M,M,M,M,M,M,M,M,M,M,M,44.10,KEKO 151156Z AUTO 00000KT 10SM CLR 07/04 A2996 RMK AO2 SLP110 T00670039 10161 20067 51005,M
WMC,2023-06-15 11:56,-117.8072,40.9019,1315.00,45.00,32.00,60.11,330.00,7.00,0.00,29.98,1011.90,10.00,M,CLR,M,M,M,M,M,M,M,M,M,M,M,M,M,M,40.63,KWMC 151156Z AUTO 33007KT 10SM CLR 07/00 A2998 RMK AO2 SLP119 T00720000 10117 20072 51007,M
NFL,2023-06-15 11:56,-118.7010,39.4166,1199.00,56.00,41.00,57.23,10.00,6.00,0.00,29.94,1011.00,10.00,M,CLR,M,M,M,M,M,M,M,M,M,M,M,M,M,M,55.90,KNFL 151156Z AUTO 01006KT 10SM CLR 13/05 A2994 RMK AO2 SLP110 T01330050 10217 20128 53005,M
TPH,2023-06-15 11:56,-117.0904,38.0505,1654.00,53.00,48.00,82.76,10.00,9.00,0.00,29.96,1009.20,10.00,M,CLR,M,M,M,M,M,M,M,M,M,M,M,M,M,M,53.10,KTPH 151156Z AUTO 01009KT 10SM CLR 12/09 A2996 RMK AO2 SLP092 6//// 7//// T01170089 10178 20117 55002 PNO $,M
LAS,2023-06-15 11:56,-115.1634,36.0719,663.00,79.00,45.00,30.05,0.00,0.00,0.00,29.75,1004.70,10.00,M,FEW,SCT,OVC,M,8000.00,13000.00,17000.00,M,M,M,M,M,M,M,M,79.00,KLAS 151156Z 00000KT 10SM FEW080 SCT130 OVC170 26/07 A2975 RMK AO2 SLP047 ACC N-E T02610072 10283 20261 53002 $,M
HND,2023-06-15 11:56,-115.1344,35.9729,742.79,77.00,47.00,34.50,230.00,7.00,0.00,29.78,1007.30,10.00,M,SCT,M,M,M,12000.00,M,M,M,M,M,M,M,M,M,M,77.00,KHND 151156Z AUTO 23007KT 10SM SCT120 25/08 A2978 RMK AO2 SLP073 T02500083 10267 20250 53001,M
05U,2023-06-15 12:10,-116.0051,39.6042,1811.23,42.80,42.80,100.00,0.00,0.00,0.00,30.01,M,10.00,M,CLR,M,M,M,M,M,M,M,M,M,M,M,M,M,M,42.80,K05U 151210Z AUTO 00000KT 10SM CLR 06/06 A3001 RMK A01,M
BVU,2023-06-15 12:15,-114.8611,35.9475,671.00,75.20,42.80,31.34,60.00,6.00,0.00,29.75,M,10.00,M,CLR,M,M,M,M,M,M,M,M,M,M,M,M,M,M,75.20,KBVU 151215Z AUTO 06006KT 10SM CLR 24/06 A2975 RMK AO2,M
CXP,2023-06-15 12:15,-119.7326,39.1923,1431.00,50.00,44.60,81.61,0.00,0.00,0.00,30.01,M,10.00,M,CLR,M,M,M,M,M,M,M,M,M,M,M,M,M,M,50.00,KCXP 151215Z AUTO 00000KT 10SM CLR 10/07 A3001 RMK AO2,M
RTS,2023-06-15 12:15,-119.8764,39.6682,1539.00,50.00,35.60,57.52,320.00,6.00,0.00,30.03,M,10.00,M,CLR,M,M,M,M,M,M,M,M,M,M,M,M,M,M,50.00,KRTS 151215Z AUTO 32006KT 10SM CLR 10/02 A3003 RMK AO2,M
MEV,2023-06-15 12:15,-119.7500,38.9963,1441.42,44.60,42.80,93.35,100.00,3.00,0.00,30.00,M,10.00,M,FEW,FEW,M,M,4900.00,5500.00,M,M,M,M,M,M,M,M,M,43.09,KMEV 151215Z AUTO 10003KT 10SM FEW049 FEW055 07/06 A3000 RMK AO2,M
BAM,2023-06-15 12:15,-116.8743,40.5990,1382.36,50.00,39.20,66.27,350.00,5.00,0.00,29.99,M,10.00,M,CLR,M,M,M,M,M,M,M,M,M,M,M,M,M,M,50.00,KBAM 151215Z AUTO 35005KT 10SM CLR 10/04 A2999 RMK AO1,M
HTH,2023-06-15 12:15,-118.6315,38.5448,1282.89,59.00,44.60,58.77,250.00,4.00,0.00,29.95,M,10.00,M,CLR,M,M,M,M,M,M,M,M,M,M,M,M,M,M,59.00,KHTH 151215Z AUTO 25004KT 10SM CLR 15/07 A2995 RMK A01,M
TMT,2023-06-15 12:15,-117.1971,39.4643,1749.34,49.30,46.20,89.01,0.00,0.00,0.00,30.00,M,10.00,M,SCT,BKN,M,M,7000.00,8000.00,M,M,M,M,M,M,M,M,M,49.30,KTMT 151215Z AUTO 00000KT 10SM SCT070 BKN080 10/08 A3000 RMK AO2 T00960079,M
05U,2023-06-15 12:30,-116.0051,39.6042,1811.23,42.80,41.00,93.30,0.00,0.00,0.00,30.02,M,10.00,M,CLR,M,M,M,M,M,M,M,M,M,M,M,M,M,M,42.80,K05U 151230Z AUTO 00000KT 10SM CLR 06/05 A3002 RMK A01,M
BVU,2023-06-15 12:35,-114.8611,35.9475,671.00,75.20,42.80,31.34,60.00,6.00,0.00,29.75,M,10.00,M,BKN,M,M,M,12000.00,M,M,M,M,M,M,M,M,M,M,75.20,KBVU 151235Z AUTO 06006KT 10SM BKN120 24/06 A2975 RMK AO2,M
CXP,2023-06-15 12:35,-119.7326,39.1923,1431.00,50.00,44.60,81.61,0.00,0.00,0.00,30.02,M,10.00,M,CLR,M,M,M,M,M,M,M,M,M,M,M,M,M,M,50.00,KCXP 151235Z AUTO 00000KT 10SM CLR 10/07 A3002 RMK AO2,M
RTS,2023-06-15 12:35,-119.8764,39.6682,1539.00,48.20,37.40,66.05,340.00,4.00,0.00,30.02,M,10.00,M,CLR,M,M,M,M,M,M,M,M,M,M,M,M,M,M,46.34,KRTS 151235Z AUTO 34004KT 10SM CLR 09/03 A3002 RMK AO2,M
MEV,2023-06-15 12:35,-119.7500,38.9963,1441.42,44.60,42.80,93.35,0.00,0.00,0.00,30.01,M,10.00,M,CLR,M,M,M,M,M,M,M,M,M,M,M,M,M,M,44.60,KMEV 151235Z AUTO 00000KT 10SM CLR 07/06 A3001 RMK AO2,M
BAM,2023-06-15 12:35,-116.8743,40.5990,1382.36,46.40,37.40,70.68,0.00,0.00,0.00,29.99,M,10.00,M,CLR,M,M,M,M,M,M,M,M,M,M,M,M,M,M,46.40,KBAM 151235Z AUTO 00000KT 10SM CLR 08/03 A2999 RMK AO1,M
HTH,2023-06-15 12:35,-118.6315,38.5448,1282.89,59.00,44.60,58.77,240.00,6.00,0.00,29.96,M,10.00,M,CLR,M,M,M,M,M,M,M,M,M,M,M,M,M,M,59.00,KHTH 151235Z AUTO 24006KT 10SM CLR 15/07 A2996 RMK A01,M
TMT,2023-06-15 12:35,-117.1971,39.4643,1749.34,47.30,46.00,95.21,0.00,0.00,0.00,30.01,M,10.00,M,BKN,BKN,M,M,7000.00,8000.00,M,M,M,M,M,M,M,M,M,47.30,KTMT 151235Z AUTO 00000KT 10SM BKN070 BKN080 09/08 A3001 RMK AO2 T00850078,M
05U,2023-06-15 12:50,-116.0051,39.6042,1811.23,42.80,42.80,100.00,60.00,3.00,0.00,30.03,M,10.00,M,CLR,M,M,M,M,M,M,M,M,M,M,M,M,M,M,41.03,K05U 151250Z AUTO 06003KT 10SM CLR 06/06 A3003 RMK A01,M
P68,2023-06-15 12:53,-116.0056,39.6014,1993.00,43.00,42.00,96.60,170.00,5.00,0.00,30.00,1010.10,M,M,M,M,M,M,M,M,M,M,M,M,M,M,M,M,M,39.46,KP68 151253Z AUTO 17005KT 06/06 A3000 RMK AO1 SLP101 T00610056,M
DRA,2023-06-15 12:53,-116.0278,36.6206,1009.00,68.00,47.00,46.76,30.00,4.00,0.00,29.83,1005.90,10.00,M,SCT,M,M,M,11000.00,M,M,M,M,M,M,M,M,M,M,68.00,KDRA 151253Z AUTO 03004KT 10SM SCT110 20/08 A2983 RMK AO2 SLP059 T02000083,M
ELY,2023-06-15 12:53,-114.8453,39.2950,1909.00,46.00,44.00,93.03,190.00,6.00,0.00,30.00,1009.30,10.00,M,CLR,M,M,M,M,M,M,M,M,M,M,M,M,M,M,42.39,KELY 151253Z AUTO 19006KT 10SM CLR 08/07 A3000 RMK AO2 SLP093 T00780067,M
VGT,2023-06-15 12:53,-115.1933,36.2111,667.00,79.00,47.00,32.29,360.00,3.00,0.00,29.75,1006.50,10.00,M,FEW,M,M,M,12000.00,M,M,M,M,M,M,M,M,M,M,79.00,KVGT 151253Z 36003KT 10SM FEW120 26/08 A2975 RMK AO2 SLP065 T02610083 $,M
LOL,2023-06-15 12:53,-118.5701,40.0684,1192.43,53.00,33.00,46.42,360.00,6.00,0.00,29.96,1011.60,10.00,M,CLR,M,M,M,M,M,M,M,M,M,M,M,M,M,M,53.10,KLOL 151253Z AUTO 36006KT 10SM CLR 12/01 A2996 RMK AO2 SLP116 T01170006,M
BVU,2023-06-15 12:55,-114.8611,35.9475,671.00,75.20,42.80,31.34,50.00,5.00,0.00,29.76,M,10.00,M,BKN,M,M,M,12000.00,M,M,M,M,M,M,M,M,M,M,75.20,KBVU 151255Z AUTO 05005KT 10SM BKN120 24/06 A2976 RMK AO2,M
CXP,2023-06-15 12:55,-119.7326,39.1923,1431.00,50.00,44.60,81.61,0.00,0.00,0.00,30.02,M,10.00,M,CLR,M,M,M,M,M,M,M,M,M,M,M,M,M,M,50.00,KCXP 151255Z AUTO 00000KT 10SM CLR 10/07 A3002 RMK AO2,M
RNO,2023-06-15 12:55,-119.7711,39.4839,1341.00,55.00,43.00,63.86,0.00,0.00,0.00,29.99,1011.20,10.00,M,CLR,M,M,M,M,M,M,M,M,M,M,M,M,M,M,55.00,KRNO 151255Z 00000KT 10SM CLR 13/06 A2999 RMK AO2 SLP112 T01280061,M
RTS,2023-06-15 12:55,-119.8764,39.6682,1539.00,48.20,37.40,66.05,340.00,6.00,0.00,30.02,M,10.00,M,CLR,M,M,M,M,M,M,M,M,M,M,M,M,M,M,45.04,KRTS 151255Z AUTO 34006KT 10SM CLR 09/03 A3002 RMK AO2,M
MEV,2023-06-15 12:55,-119.7500,38.9963,1441.42,44.60,41.00,87.09,0.00,0.00,0.00,30.01,M,10.00,M,CLR,M,M,M,M,M,M,M,M,M,M,M,M,M,M,44.60,KMEV 151255Z AUTO 00000KT 10SM CLR 07/05 A3001 RMK AO2,M
BAM,2023-06-15 12:55,-116.8743,40.5990,1382.36,46.40,37.40,70.68,0.00,0.00,0.00,30.00,M,10.00,M,CLR,M,M,M,M,M,M,M,M,M,M,M,M,M,M,46.40,KBAM 151255Z AUTO 00000KT 10SM CLR 08/03 A3000 RMK AO1,M
HTH,2023-06-15 12:55,-118.6315,38.5448,1282.89,60.80,41.00,48.00,270.00,6.00,0.00,29.96,M,10.00,M,CLR,M,M,M,M,M,M,M,M,M,M,M,M,M,M,60.80,KHTH 151255Z AUTO 27006KT 10SM CLR 16/05 A2996 RMK A01,M
TMT,2023-06-15 12:55,-117.1971,39.4643,1749.34,48.20,46.80,94.87,0.00,0.00,0.00,30.02,M,10.00,M,SCT,OVC,M,M,7000.00,8000.00,M,M,M,M,M,M,M,M,M,48.20,KTMT 151255Z AUTO 00000KT 10SM SCT070 OVC080 09/08 A3002 RMK AO2 T00900082,M
INS,2023-06-15 12:55,-115.6733,36.5872,955.00,65.30,41.50,41.78,0.00,0.00,0.00,29.83,1005.90,10.00,M,FEW,BKN,BKN,M,12000.00,15000.00,18000.00,M,M,M,M,M,M,M,M,65.30,KINS 151255Z AUTO 00000KT 10SM FEW120 BKN150 BKN180 19/05 A2983 RMK AO2 SLP059 T01850053 $,M
LSV,2023-06-15 12:55,-115.0343,36.2362,570.00,78.00,44.80,30.92,20.00,5.00,0.00,29.72,1003.90,10.00,M,FEW,BKN,M,M,11000.00,16000.00,M,M,M,M,M,M,M,M,M,77.90,KLSV 151255Z AUTO 02005KT 10SM FEW110 BKN160 26/07 A2972 RMK AO2 SLP039 T02550071 $,M
EKO,2023-06-15 12:56,-115.7860,40.8242,1367.00,45.00,39.00,79.36,0.00,0.00,0.00,29.98,1011.70,10.00,M,CLR,M,M,M,M,M,M,M,M,M,M,M,M,M,M,45.00,KEKO 151256Z AUTO 00000KT 10SM CLR 07/04 A2998 RMK AO2 SLP117 T00720039,M
WMC,2023-06-15 12:56,-117.8072,40.9019,1315.00,45.00,30.90,57.50,320.00,6.00,0.00,30.00,1012.80,10.00,M,CLR,M,M,M,M,M,M,M,M,M,M,M,M,M,M,41.19,KWMC 151256Z AUTO 32006KT 10SM CLR 07/M01 A3000 RMK AO2 SLP128 T00721006,M
TPH,2023-06-15 12:56,-117.0904,38.0505,1654.00,54.00,48.00,80.07,360.00,5.00,0.00,29.97,1009.40,10.00,M,CLR,M,M,M,M,M,M,M,M,M,M,M,M,M,M,54.00,KTPH 151256Z AUTO 36005KT 10SM CLR 12/09 A2997 RMK AO2 SLP094 T01220089 PNO $,M
LAS,2023-06-15 12:56,-115.1634,36.0719,663.00,79.00,46.00,31.21,0.00,0.00,0.00,29.77,1005.20,10.00,M,SCT,BKN,M,M,12000.00,17000.00,M,M,M,M,M,M,M,M,M,79.00,KLAS 151256Z 00000KT 10SM SCT120 BKN170 26/08 A2977 RMK AO2 SLP052 VIRGA DSNT NE ACC DSNT N-E T02610078 $,M
NFL,2023-06-15 12:56,-118.7010,39.4166,1199.00,56.00,38.00,50.71,0.00,0.00,0.00,29.95,1011.50,10.00,M,CLR,M,M,M,M,M,M,M,M,M,M,M,M,M,M,55.90,KNFL 151256Z AUTO 00000KT 10SM CLR 13/03 A2995 RMK AO2 SLP115 T01330033,M
HND,2023-06-15 12:56,-115.1344,35.9729,742.79,76.00,47.00,35.78,210.00,8.00,0.00,29.80,1007.80,10.00,M,CLR,M,M,M,M,M,M,M,M,M,M,M,M,M,M,75.90,KHND 151256Z 21008KT 10SM CLR 24/08 A2980 RMK AO2 SLP078 T02440083,M
05U,2023-06-15 13:10,-116.0051,39.6042,1811.23,46.40,46.40,100.00,60.00,3.00,0.00,30.03,M,10.00,M,CLR,M,M,M,M,M,M,M,M,M,M,M,M,M,M,45.15,K05U 151310Z AUTO 06003KT 10SM CLR 08/08 A3003 RMK A01,M
BVU,2023-06-15 13:15,-114.8611,35.9475,671.00,77.00,41.00,27.53,80.00,4.00,0.00,29.77,M,10.00,M,SCT,M,M,M,12000.00,M,M,M,M,M,M,M,M,M,M,77.00,KBVU 151315Z AUTO 08004KT 10SM SCT120 25/05 A2977 RMK AO2,M
CXP,2023-06-15 13:15,-119.7326,39.1923,1431.00,50.00,44.60,81.61,0.00,0.00,0.00,30.02,M,10.00,M,CLR,M,M,M,M,M,M,M,M,M,M,M,M,M,M,50.00,KCXP 151315Z AUTO 00000KT 10SM CLR 10/07 A3002 RMK AO2,M
RTS,2023-06-15 13:15,-119.8764,39.6682,1539.00,46.40,39.20,75.84,350.00,5.00,0.00,30.04,M,10.00,M,CLR,M,M,M,M,M,M,M,M,M,M,M,M,M,M,43.50,KRTS 151315Z AUTO 35005KT 10SM CLR 08/04 A3004 RMK AO2,M
MEV,2023-06-15 13:15,-119.7500,38.9963,1441.42,44.60,42.80,93.35,160.00,3.00,0.00,30.01,M,10.00,M,CLR,M,M,M,M,M,M,M,M,M,M,M,M,M,M,43.09,KMEV 151315Z AUTO 16003KT 10SM CLR 07/06 A3001 RMK AO2,M
BAM,2023-06-15 13:15,-116.8743,40.5990,1382.36,46.40,37.40,70.68,0.00,0.00,0.00,30.01,M,10.00,M,CLR,M,M,M,M,M,M,M,M,M,M,M,M,M,M,46.40,KBAM 151315Z AUTO 00000KT 10SM CLR 08/03 A3001 RMK AO1,M
HTH,2023-06-15 13:15,-118.6315,38.5448,1282.89,60.80,41.00,48.00,270.00,5.00,0.00,29.97,M,10.00,M,CLR,M,M,M,M,M,M,M,M,M,M,M,M,M,M,60.80,KHTH 151315Z AUTO 27005KT 10SM CLR 16/05 A2997 RMK A01,M
TMT,2023-06-15 13:15,-117.1971,39.4643,1749.34,51.40,47.30,85.82,200.00,3.00,0.00,30.02,M,10.00,M,OVC,M,M,M,8000.00,M,M,M,M,M,M,M,M,M,M,51.40,KTMT 151315Z AUTO 20003KT 10SM OVC080 11/09 A3002 RMK AO2 T01080085,M
05U,2023-06-15 13:30,-116.0051,39.6042,1811.23,50.00,46.40,87.37,M,M,0.00,30.04,M,10.00,M,CLR,M,M,M,M,M,M,M,M,M,M,M,M,M,M,50.00,K05U 151330Z AUTO 10SM CLR 10/08 A3004 RMK A01,M
BVU,2023-06-15 13:35,-114.8611,35.9475,671.00,77.00,41.00,27.53,60.00,4.00,0.00,29.78,M,10.00,M,SCT,M,M,M,12000.00,M,M,M,M,M,M,M,M,M,M,77.00,KBVU 151335Z AUTO 06004KT 10SM SCT120 25/05 A2978 RMK AO2,M
CXP,2023-06-15 13:35,-119.7326,39.1923,1431.00,53.60,46.40,76.50,0.00,0.00,0.00,30.02,M,10.00,M,CLR,M,M,M,M,M,M,M,M,M,M,M,M,M,M,53.60,KCXP 151335Z AUTO 00000KT 10SM CLR 12/08 A3002 RMK AO2,M
RTS,2023-06-15 13:35,-119.8764,39.6682,1539.00,50.00,37.40,61.76,330.00,6.00,0.00,30.05,M,10.00,M,CLR,M,M,M,M,M,M,M,M,M,M,M,M,M,M,50.00,KRTS 151335Z AUTO 33006KT 10SM CLR 10/03 A3005 RMK AO2,M
MEV,2023-06-15 13:35,-119.7500,38.9963,1441.42,46.40,44.60,93.40,160.00,3.00,0.00,30.01,M,10.00,M,CLR,M,M,M,M,M,M,M,M,M,M,M,M,M,M,45.15,KMEV 151335Z AUTO 16003KT 10SM CLR 08/07 A3001 RMK AO2,M
BAM,2023-06-15 13:35,-116.8743,40.5990,1382.36,48.20,35.60,61.52,30.00,5.00,0.00,30.02,M,10.00,M,CLR,M,M,M,M,M,M,M,M,M,M,M,M,M,M,45.63,KBAM 151335Z AUTO 03005KT 10SM CLR 09/02 A3002 RMK AO1,M
HTH,2023-06-15 13:35,-118.6315,38.5448,1282.89,62.60,41.00,45.04,300.00,5.00,0.00,29.99,M,10.00,M,CLR,M,M,M,M,M,M,M,M,M,M,M,M,M,M,62.60,KHTH 151335Z AUTO 30005KT 10SM CLR 17/05 A2999 RMK A01,M
TMT,2023-06-15 13:35,-117.1971,39.4643,1749.34,52.70,46.60,79.67,0.00,0.00,0.00,30.02,M,10.00,M,OVC,M,M,M,8000.00,M,M,M,M,M,M,M,M,M,M,52.70,KTMT 151335Z AUTO 00000KT 10SM OVC080 12/08 A3002 RMK AO2 T01150081,M
05U,2023-06-15 13:50,-116.0051,39.6042,1811.23,51.80,48.20,87.47,0.00,0.00,0.00,30.04,M,10.00,M,CLR,M,M,M,M,M,M,M,M,M,M,M,M,M,M,51.80,K05U 151350Z AUTO 00000KT 10SM CLR 11/09 A3004 RMK A01,M
P68,2023-06-15 13:53,-116.0056,39.6014,1993.00,51.00,48.00,89.09,0.00,0.00,0.00,30.02,1010.40,M,M,M,M,M,M,M,M,M,M,M,M,M,M,M,M,M,51.10,KP68 151353Z AUTO 00000KT 11/09 A3002 RMK AO1 SLP104 T01060089,M
DRA,2023-06-15 13:53,-116.0278,36.6206,1009.00,69.00,50.00,50.56,250.00,3.00,0.00,29.85,1006.40,10.00,M,CLR,M,M,M,M,M,M,M,M,M,M,M,M,M,M,69.10,KDRA 151353Z AUTO 25003KT 10SM CLR 21/10 A2985 RMK AO2 SLP064 T02060100,M
LOL,2023-06-15 13:53,-118.5701,40.0684,1192.43,56.00,30.90,38.36,50.00,11.00,0.00,29.98,1012.20,10.00,M,CLR,M,M,M,M,M,M,M,M,M,M,M,M,M,M,55.90,KLOL 151353Z AUTO 05011KT 10SM CLR 13/M01 A2998 RMK AO2 SLP122 T01331006,M
ELY,2023-06-15 13:53,-114.8453,39.2950,1909.00,50.00,47.00,89.04,160.00,4.00,0.00,30.02,1009.60,10.00,M,CLR,M,M,M,M,M,M,M,M,M,M,M,M,M,M,50.00,KELY 151353Z AUTO 16004KT 10SM CLR 10/08 A3002 RMK AO2 SLP096 T01000083,M
VGT,2023-06-15 13:53,-115.1933,36.2111,667.00,79.00,47.00,32.29,340.00,6.00,0.00,29.78,1007.20,10.00,M,SCT,M,M,M,11000.00,M,M,M,M,M,M,M,M,M,M,79.00,KVGT 151353Z 34006KT 10SM SCT110 26/08 A2978 RMK AO2 SLP072 T02610083 $,M
BVU,2023-06-15 13:55,-114.8611,35.9475,671.00,77.00,42.80,29.51,70.00,4.00,0.00,29.78,M,10.00,M,FEW,M,M,M,12000.00,M,M,M,M,M,M,M,M,M,M,77.00,KBVU 151355Z AUTO 07004KT 10SM FEW120 25/06 A2978 RMK AO2,M
CXP,2023-06-15 13:55,-119.7326,39.1923,1431.00,55.40,44.60,66.91,200.00,5.00,0.00,30.03,M,10.00,M,CLR,M,M,M,M,M,M,M,M,M,M,M,M,M,M,55.40,KCXP 151355Z AUTO 20005KT 10SM CLR 13/07 A3003 RMK AO2,M
RTS,2023-06-15 13:55,-119.8764,39.6682,1539.00,53.60,39.20,58.02,0.00,0.00,0.00,30.04,M,10.00,M,CLR,M,M,M,M,M,M,M,M,M,M,M,M,M,M,53.60,KRTS 151355Z AUTO 00000KT 10SM CLR 12/04 A3004 RMK AO2,M
MEV,2023-06-15 13:55,-119.7500,38.9963,1441.42,50.00,46.40,87.37,0.00,0.00,0.00,30.02,M,10.00,M,CLR,M,M,M,M,M,M,M,M,M,M,M,M,M,M,50.00,KMEV 151355Z AUTO 00000KT 10SM CLR 10/08 A3002 RMK AO2,M
BAM,2023-06-15 13:55,-116.8743,40.5990,1382.36,51.80,35.60,53.81,360.00,5.00,0.00,30.02,M,10.00,M,CLR,M,M,M,M,M,M,M,M,M,M,M,M,M,M,51.80,KBAM 151355Z AUTO 36005KT 10SM CLR 11/02 A3002 RMK AO1,M
HTH,2023-06-15 13:55,-118.6315,38.5448,1282.89,64.40,42.80,45.32,310.00,9.00,0.00,29.99,M,10.00,M,CLR,M,M,M,M,M,M,M,M,M,M,M,M,M,M,64.40,KHTH 151355Z AUTO 31009KT 10SM CLR 18/06 A2999 RMK A01,M
INS,2023-06-15 13:55,-115.6733,36.5872,955.00,68.40,47.30,46.82,0.00,0.00,0.00,29.84,1006.40,10.00,M,M,M,M,M,M,M,M,M,M,M,M,M,M,M,M,68.40,KINS 151355Z AUTO 00000KT 10SM M 20/09 A2984 RMK AO2 SLP064 T02020085 $,M
LSV,2023-06-15 13:55,-115.0343,36.2362,570.00,78.00,46.60,32.89,280.00,6.00,0.00,29.74,1004.60,10.00,M,BKN,M,M,M,11000.00,M,M,M,M,M,M,M,M,M,M,78.10,KLSV 151355Z AUTO 28006KT 10SM BKN110 26/08 A2974 RMK AO2 SLP046 T02560081 $,M
RNO,2023-06-15 13:55,-119.7711,39.4839,1341.00,58.00,42.00,55.55,0.00,0.00,0.00,30.01,1011.80,10.00,M,FEW,M,M,M,7000.00,M,M,M,M,M,M,M,M,M,M,57.90,KRNO 151355Z 00000KT 10SM FEW070 14/06 A3001 RMK AO2 SLP118 T01440056,M
WMC,2023-06-15 13:56,-117.8072,40.9019,1315.00,52.00,30.00,42.65,320.00,6.00,0.00,30.01,1013.00,10.00,M,CLR,M,M,M,M,M,M,M,M,M,M,M,M,M,M,52.00,KWMC 151356Z AUTO 32006KT 10SM CLR 11/M01 A3001 RMK AO2 SLP130 T01111011,M
NFL,2023-06-15 13:56,-118.7010,39.4166,1199.00,59.00,37.00,43.78,340.00,6.00,0.00,29.97,1012.20,10.00,M,CLR,M,M,M,M,M,M,M,M,M,M,M,M,M,M,59.00,KNFL 151356Z AUTO 34006KT 10SM CLR 15/03 A2997 RMK AO2 SLP122 T01500028,M
EKO,2023-06-15 13:56,-115.7860,40.8242,1367.00,50.00,40.00,68.10,260.00,3.00,0.00,30.00,1012.10,10.00,M,CLR,M,M,M,M,M,M,M,M,M,M,M,M,M,M,50.00,KEKO 151356Z AUTO 26003KT 10SM CLR 10/04 A3000 RMK AO2 SLP121 T01000044,M
HND,2023-06-15 13:56,-115.1344,35.9729,742.79,77.00,47.00,34.50,220.00,11.00,0.00,29.82,1008.40,10.00,M,CLR,M,M,M,M,M,M,M,M,M,M,M,M,M,M,77.00,KHND 151356Z 22011KT 10SM CLR 25/08 A2982 RMK AO2 SLP084 T02500083,M
TPH,2023-06-15 13:56,-117.0904,38.0505,1654.00,59.00,49.00,69.12,0.00,0.00,0.00,29.99,1009.60,10.00,M,CLR,M,M,M,M,M,M,M,M,M,M,M,M,M,M,59.00,KTPH 151356Z AUTO 00000KT 10SM CLR 15/09 A2999 RMK AO2 SLP096 T01500094 PNO $,M
LAS,2023-06-15 13:56,-115.1634,36.0719,663.00,79.00,47.00,32.29,0.00,0.00,0.00,29.78,1005.90,10.00,M,BKN,BKN,M,M,12000.00,18000.00,M,M,M,M,M,M,M,M,M,79.00,KLAS 151356Z 00000KT 10SM BKN120 BKN180 26/08 A2978 RMK AO2 SLP059 ACC DSNT N T02610083 $,M
05U,2023-06-15 14:10,-116.0051,39.6042,1811.23,53.60,46.40,76.50,0.00,0.00,0.00,30.05,M,10.00,M,CLR,M,M,M,M,M,M,M,M,M,M,M,M,M,M,53.60,K05U 151410Z AUTO 00000KT 10SM CLR 12/08 A3005 RMK A01,M
BVU,2023-06-15 14:15,-114.8611,35.9475,671.00,78.80,44.60,29.79,50.00,4.00,0.00,29.78,M,10.00,M,SCT,M,M,M,12000.00,M,M,M,M,M,M,M,M,M,M,78.80,KBVU 151415Z AUTO 05004KT 10SM SCT120 26/07 A2978 RMK AO2,M
CXP,2023-06-15 14:15,-119.7326,39.1923,1431.00,57.20,44.60,62.69,200.00,4.00,0.00,30.04,M,10.00,M,CLR,M,M,M,M,M,M,M,M,M,M,M,M,M,M,57.20,KCXP 151415Z AUTO 20004KT 10SM CLR 14/07 A3004 RMK AO2,M
RTS,2023-06-15 14:15,-119.8764,39.6682,1539.00,53.60,41.00,62.23,280.00,4.00,0.00,30.05,M,10.00,M,CLR,M,M,M,M,M,M,M,M,M,M,M,M,M,M,53.60,KRTS 151415Z AUTO 28004KT 10SM CLR 12/05 A3005 RMK AO2,M
MEV,2023-06-15 14:15,-119.7500,38.9963,1441.42,51.80,44.60,76.34,0.00,0.00,0.00,30.03,M,10.00,M,CLR,M,M,M,M,M,M,M,M,M,M,M,M,M,M,51.80,KMEV 151415Z AUTO 00000KT 10SM CLR 11/07 A3003 RMK AO2,M
BAM,2023-06-15 14:15,-116.8743,40.5990,1382.36,53.60,33.80,46.88,350.00,5.00,0.00,30.03,M,10.00,M,CLR,M,M,M,M,M,M,M,M,M,M,M,M,M,M,53.60,KBAM 151415Z AUTO 35005KT 10SM CLR 12/01 A3003 RMK AO1,M
HTH,2023-06-15 14:15,-118.6315,38.5448,1282.89,64.40,41.00,42.28,310.00,8.00,0.00,29.98,M,10.00,M,CLR,M,M,M,M,M,M,M,M,M,M,M,M,M,M,64.40,KHTH 151415Z AUTO 31008KT 10SM CLR 18/05 A2998 RMK A01,M
TMT,2023-06-15 14:15,-117.1971,39.4643,1749.34,53.80,45.50,73.40,0.00,0.00,0.00,30.04,M,10.00,M,BKN,M,M,M,7000.00,M,M,M,M,M,M,M,M,M,M,53.80,KTMT 151415Z AUTO 00000KT 10SM BKN070 12/08 A3004 RMK AO2 T01210075,M
05U,2023-06-15 14:30,-116.0051,39.6042,1811.23,55.40,44.60,66.91,M,M,0.00,30.05,M,10.00,M,CLR,M,M,M,M,M,M,M,M,M,M,M,M,M,M,55.40,K05U 151430Z AUTO 10SM CLR 13/07 A3005 RMK A01,M
BVU,2023-06-15 14:35,-114.8611,35.9475,671.00,78.80,41.00,25.95,0.00,0.00,0.00,29.79,M,10.00,M,CLR,M,M,M,M,M,M,M,M,M,M,M,M,M,M,78.80,KBVU 151435Z AUTO 00000KT 10SM CLR 26/05 A2979 RMK AO2,M
CXP,2023-06-15 14:35,-119.7326,39.1923,1431.00,59.00,42.80,54.86,190.00,4.00,0.00,30.04,M,10.00,M,CLR,M,M,M,M,M,M,M,M,M,M,M,M,M,M,59.00,KCXP 151435Z AUTO 19004KT 10SM CLR 15/06 A3004 RMK AO2,M
RTS,2023-06-15 14:35,-119.8764,39.6682,1539.00,55.40,37.40,50.64,340.00,9.00,0.00,30.05,M,10.00,M,CLR,M,M,M,M,M,M,M,M,M,M,M,M,M,M,55.40,KRTS 151435Z AUTO 34009KT 10SM CLR 13/03 A3005 RMK AO2,M
MEV,2023-06-15 14:35,-119.7500,38.9963,1441.42,53.60,46.40,76.50,0.00,0.00,0.00,30.03,M,10.00,M,CLR,M,M,M,M,M,M,M,M,M,M,M,M,M,M,53.60,KMEV 151435Z AUTO 00000KT 10SM CLR 12/08 A3003 RMK AO2,M
BAM,2023-06-15 14:35,-116.8743,40.5990,1382.36,55.40,33.80,43.90,350.00,5.00,0.00,30.03,M,10.00,M,CLR,M,M,M,M,M,M,M,M,M,M,M,M,M,M,55.40,KBAM 151435Z AUTO 35005KT 10SM CLR 13/01 A3003 RMK AO1,M
HTH,2023-06-15 14:35,-118.6315,38.5448,1282.89,66.20,39.20,37.03,320.00,12.00,0.00,29.99,M,10.00,M,CLR,M,M,M,M,M,M,M,M,M,M,M,M,M,M,66.20,KHTH 151435Z AUTO 32012KT 10SM CLR 19/04 A2999 RMK A01,M
TMT,2023-06-15 14:35,-117.1971,39.4643,1749.34,55.40,45.30,68.72,0.00,0.00,0.00,30.05,M,10.00,M,CLR,M,M,M,M,M,M,M,M,M,M,M,M,M,M,55.40,KTMT 151435Z AUTO 00000KT 10SM CLR 13/07 A3005 RMK AO2 T01300074,M
05U,2023-06-15 14:50,-116.0051,39.6042,1811.23,57.20,46.40,67.12,10.00,4.00,0.00,30.06,M,10.00,M,CLR,M,M,M,M,M,M,M,M,M,M,M,M,M,M,57.20,K05U 151450Z AUTO 01004KT 10SM CLR 14/08 A3006 RMK A01,M
DRA,2023-06-15 14:53,-116.0278,36.6206,1009.00,73.00,50.00,44.29,0.00,0.00,0.00,29.86,1006.60,10.00,M,CLR,M,M,M,M,M,M,M,M,M,M,M,M,M,M,73.00,KDRA 151453Z AUTO 00000KT 10SM CLR 23/10 A2986 RMK AO2 SLP066 T02280100 51014,M
ELY,2023-06-15 14:53,-114.8453,39.2950,1909.00,54.00,48.00,80.07,170.00,3.00,0.00,30.03,1009.70,10.00,M,CLR,M,M,M,M,M,M,M,M,M,M,M,M,M,M,54.00,KELY 151453Z AUTO 17003KT 10SM CLR 12/09 A3003 RMK AO2 SLP097 T01220089 51012,M
VGT,2023-06-15 14:53,-115.1933,36.2111,667.00,83.00,48.00,29.64,30.00,4.00,0.00,29.79,1007.70,10.00,M,FEW,M,M,M,11000.00,M,M,M,M,M,M,M,M,M,M,81.11,KVGT 151453Z 03004KT 10SM FEW110 28/09 A2979 RMK AO2 SLP077 T02830089 51016 $,M
LOL,2023-06-15 14:53,-118.5701,40.0684,1192.43,59.00,32.00,35.87,20.00,11.00,0.00,29.99,1012.50,10.00,M,CLR,M,M,M,M,M,M,M,M,M,M,M,M,M,M,59.00,KLOL 151453Z AUTO 02011KT 10SM CLR 15/00 A2999 RMK AO2 SLP125 T01500000 51013,M
BVU,2023-06-15 14:55,-114.8611,35.9475,671.00,80.60,41.00,24.46,0.00,0.00,0.00,29.80,M,10.00,M,FEW,M,M,M,11000.00,M,M,M,M,M,M,M,M,M,M,79.20,KBVU 151455Z AUTO 00000KT 10SM FEW110 27/05 A2980 RMK AO2,M
CXP,2023-06-15 14:55,-119.7326,39.1923,1431.00,59.00,42.80,54.86,0.00,0.00,0.00,30.04,M,10.00,M,CLR,M,M,M,M,M,M,M,M,M,M,M,M,M,M,59.00,KCXP 151455Z AUTO 00000KT 10SM CLR 15/06 A3004 RMK AO2,M
RTS,2023-06-15 14:55,-119.8764,39.6682,1539.00,57.20,37.40,47.44,350.00,10.00,0.00,30.06,M,10.00,M,CLR,M,M,M,M,M,M,M,M,M,M,M,M,M,M,57.20,KRTS 151455Z AUTO 35010KT 10SM CLR 14/03 A3006 RMK AO2,M
MEV,2023-06-15 14:55,-119.7500,38.9963,1441.42,55.40,44.60,66.91,0.00,0.00,0.00,30.03,M,10.00,M,CLR,M,M,M,M,M,M,M,M,M,M,M,M,M,M,55.40,KMEV 151455Z AUTO 00000KT 10SM CLR 13/07 A3003 RMK AO2,M
BAM,2023-06-15 14:55,-116.8743,40.5990,1382.36,55.40,33.80,43.90,0.00,0.00,0.00,30.03,M,10.00,M,CLR,M,M,M,M,M,M,M,M,M,M,M,M,M,M,55.40,KBAM 151455Z AUTO 00000KT 10SM CLR 13/01 A3003 RMK AO1,M
HTH,2023-06-15 14:55,-118.6315,38.5448,1282.89,66.20,39.20,37.03,320.00,12.00,0.00,30.00,M,10.00,M,CLR,M,M,M,M,M,M,M,M,M,M,M,M,M,M,66.20,KHTH 151455Z AUTO 32012KT 10SM CLR 19/04 A3000 RMK A01,M
LSV,2023-06-15 14:55,-115.0343,36.2362,570.00,80.40,42.40,25.99,50.00,5.00,0.00,29.76,1005.30,10.00,M,SCT,SCT,M,M,12000.00,16000.00,M,M,M,M,M,M,M,M,M,79.17,KLSV 151455Z AUTO 05005KT 10SM SCT120 SCT160 27/06 A2976 RMK AO2 SLP053 T02690058 52017 $,M
TMT,2023-06-15 14:55,-117.1971,39.4643,1749.34,56.70,46.00,67.07,0.00,0.00,0.00,30.05,M,10.00,M,CLR,M,M,M,M,M,M,M,M,M,M,M,M,M,M,56.70,KTMT 151455Z AUTO 00000KT 10SM CLR 14/08 A3005 RMK AO2 T01370077,M
INS,2023-06-15 14:55,-115.6733,36.5872,955.00,72.70,47.00,39.83,0.00,0.00,0.00,29.85,1006.40,10.00,M,M,M,M,M,M,M,M,M,M,M,M,M,M,M,M,72.70,KINS 151455Z AUTO 00000KT 10SM M 23/08 A2985 RMK AO2 SLP064 T02260083 52013 $,M
RNO,2023-06-15 14:55,-119.7711,39.4839,1341.00,62.00,38.00,40.62,M,3.00,0.00,30.02,1012.00,10.00,M,FEW,M,M,M,7000.00,M,M,M,M,M,M,M,M,M,M,62.10,KRNO 151455Z VRB03KT 10SM FEW070 17/03 A3002 RMK AO2 SLP120 T01670033 53009,M
HND,2023-06-15 14:56,-115.1344,35.9729,742.79,82.00,48.00,30.51,220.00,9.00,0.00,29.83,1008.80,10.00,M,BKN,M,M,M,11000.00,M,M,M,M,M,M,M,M,M,M,80.53,KHND 151456Z 22009KT 10SM BKN110 28/09 A2983 RMK AO2 SLP088 T02780089 52015,M
TPH,2023-06-15 14:56,-117.0904,38.0505,1654.00,64.00,43.00,46.32,320.00,13.00,0.00,30.00,1009.50,10.00,M,CLR,M,M,M,M,M,M,M,M,M,M,M,M,M,M,64.00,KTPH 151456Z AUTO 32013KT 10SM CLR 18/06 A3000 RMK AO2 SLP095 6//// T01780061 51012 PNO $,M
LAS,2023-06-15 14:56,-115.1634,36.0719,663.00,82.00,46.00,28.30,0.00,0.00,0.00,29.81,1006.60,10.00,M,BKN,M,M,M,11000.00,M,M,M,M,M,M,M,M,M,M,80.36,KLAS 151456Z 00000KT 10SM BKN110 28/08 A2981 RMK AO2 SLP066 T02780078 53018 $,M
NFL,2023-06-15 14:56,-118.7010,39.4166,1199.00,63.00,34.00,33.72,340.00,9.00,0.00,30.00,1012.80,10.00,M,FEW,SCT,M,M,18000.00,20000.00,M,M,M,M,M,M,M,M,M,63.00,KNFL 151456Z 34009KT 10SM FEW180 SCT200 17/01 A3000 RMK AO2 SLP128 T01720011 53018,M
EKO,2023-06-15 14:56,-115.7860,40.8242,1367.00,56.00,38.00,50.71,M,3.00,0.00,30.00,1011.90,10.00,M,CLR,M,M,M,M,M,M,M,M,M,M,M,M,M,M,55.90,KEKO 151456Z AUTO VRB03KT 10SM CLR 13/03 A3000 RMK AO2 SLP119 T01330033 51013,M
05U,2023-06-15 15:10,-116.0051,39.6042,1811.23,57.20,46.40,67.12,M,3.00,0.00,30.06,M,10.00,M,CLR,M,M,M,M,M,M,M,M,M,M,M,M,M,M,57.20,K05U 151510Z AUTO VRB03KT 10SM CLR 14/08 A3006 RMK A01,M
BVU,2023-06-15 15:15,-114.8611,35.9475,671.00,80.60,41.00,24.46,0.00,0.00,0.00,29.80,M,10.00,M,SCT,M,M,M,11000.00,M,M,M,M,M,M,M,M,M,M,79.20,KBVU 151515Z AUTO 00000KT 10SM SCT110 27/05 A2980 RMK AO2,M
CXP,2023-06-15 15:15,-119.7326,39.1923,1431.00,60.80,42.80,51.45,0.00,0.00,0.00,30.04,M,10.00,M,CLR,M,M,M,M,M,M,M,M,M,M,M,M,M,M,60.80,KCXP 151515Z AUTO 00000KT 10SM CLR 16/06 A3004 RMK AO2,M
RTS,2023-06-15 15:15,-119.8764,39.6682,1539.00,57.20,37.40,47.44,330.00,7.00,0.00,30.06,M,10.00,M,CLR,M,M,M,M,M,M,M,M,M,M,M,M,M,M,57.20,KRTS 151515Z AUTO 33007KT 10SM CLR 14/03 A3006 RMK AO2,M
MEV,2023-06-15 15:15,-119.7500,38.9963,1441.42,59.00,46.40,62.92,220.00,3.00,0.00,30.03,M,10.00,M,CLR,M,M,M,M,M,M,M,M,M,M,M,M,M,M,59.00,KMEV 151515Z AUTO 22003KT 10SM CLR 15/08 A3003 RMK AO2,M
BAM,2023-06-15 15:15,-116.8743,40.5990,1382.36,57.20,32.00,38.26,0.00,0.00,0.00,30.03,M,10.00,M,CLR,M,M,M,M,M,M,M,M,M,M,M,M,M,M,57.20,KBAM 151515Z AUTO 00000KT 10SM CLR 14/00 A3003 RMK AO1,M
HTH,2023-06-15 15:15,-118.6315,38.5448,1282.89,66.20,39.20,37.03,320.00,12.00,0.00,30.00,M,10.00,M,CLR,M,M,M,M,M,M,M,M,M,M,M,M,M,M,66.20,KHTH 151515Z AUTO 32012KT 10SM CLR 19/04 A3000 RMK A01,M
TMT,2023-06-15 15:15,-117.1971,39.4643,1749.34,57.20,44.00,61.51,0.00,0.00,0.00,30.05,M,10.00,M,CLR,M,M,M,M,M,M,M,M,M,M,M,M,M,M,57.20,KTMT 151515Z AUTO 00000KT 10SM CLR 14/07 A3005 RMK AO2 T01400067,M
05U,2023-06-15 15:30,-116.0051,39.6042,1811.23,59.00,46.40,62.92,M,3.00,0.00,30.06,M,10.00,M,CLR,M,M,M,M,M,M,M,M,M,M,M,M,M,M,59.00,K05U 151530Z AUTO VRB03KT 10SM CLR 15/08 A3006 RMK A01,M
BVU,2023-06-15 15:35,-114.8611,35.9475,671.00,82.40,41.00,23.07,0.00,0.00,0.00,29.81,M,10.00,M,BKN,M,M,M,12000.00,M,M,M,M,M,M,M,M,M,M,80.29,KBVU 151535Z AUTO 00000KT 10SM BKN120 28/05 A2981 RMK AO2,M
CXP,2023-06-15 15:35,-119.7326,39.1923,1431.00,62.60,39.20,42.00,320.00,9.00,0.00,30.04,M,10.00,M,CLR,M,M,M,M,M,M,M,M,M,M,M,M,M,M,62.60,KCXP 151535Z AUTO 32009KT 10SM CLR 17/04 A3004 RMK AO2,M
RTS,2023-06-15 15:35,-119.8764,39.6682,1539.00,59.00,35.60,41.42,340.00,6.00,0.00,30.07,M,10.00,M,CLR,M,M,M,M,M,M,M,M,M,M,M,M,M,M,59.00,KRTS 151535Z AUTO 34006KT 10SM CLR 15/02 A3007 RMK AO2,M
MEV,2023-06-15 15:35,-119.7500,38.9963,1441.42,59.00,46.40,62.92,0.00,0.00,0.00,30.04,M,10.00,M,CLR,M,M,M,M,M,M,M,M,M,M,M,M,M,M,59.00,KMEV 151535Z AUTO 00000KT 10SM CLR 15/08 A3004 RMK AO2,M
BAM,2023-06-15 15:35,-116.8743,40.5990,1382.36,59.00,32.00,35.87,0.00,0.00,0.00,30.03,M,10.00,M,CLR,M,M,M,M,M,M,M,M,M,M,M,M,M,M,59.00,KBAM 151535Z AUTO 00000KT 10SM CLR 15/00 A3003 RMK AO1,M
HTH,2023-06-15 15:35,-118.6315,38.5448,1282.89,66.20,39.20,37.03,310.00,10.00,0.00,30.00,M,10.00,M,CLR,M,M,M,M,M,M,M,M,M,M,M,M,M,M,66.20,KHTH 151535Z AUTO 31010KT 10SM CLR 19/04 A3000 RMK A01,M
TMT,2023-06-15 15:35,-117.1971,39.4643,1749.34,58.60,42.80,55.65,0.00,0.00,0.00,30.05,M,10.00,M,CLR,M,M,M,M,M,M,M,M,M,M,M,M,M,M,58.60,KTMT 151535Z AUTO 00000KT 10SM CLR 15/06 A3005 RMK AO2 T01480060,M
05U,2023-06-15 15:50,-116.0051,39.6042,1811.23,60.80,42.80,51.45,0.00,0.00,0.00,30.06,M,10.00,M,CLR,M,M,M,M,M,M,M,M,M,M,M,M,M,M,60.80,K05U 151550Z AUTO 00000KT 10SM CLR 16/06 A3006 RMK A01,M
DRA,2023-06-15 15:53,-116.0278,36.6206,1009.00,76.00,48.00,37.29,230.00,5.00,0.00,29.87,1007.00,10.00,M,CLR,M,M,M,M,M,M,M,M,M,M,M,M,M,M,75.90,KDRA 151553Z AUTO 23005KT 10SM CLR 24/09 A2987 RMK AO2 SLP070 T02440089,M
ELY,2023-06-15 15:53,-114.8453,39.2950,1909.00,58.00,46.00,64.47,350.00,4.00,0.00,30.04,1009.80,10.00,M,OVC,M,M,M,10000.00,M,M,M,M,M,M,M,M,M,M,57.90,KELY 151553Z AUTO 35004KT 10SM OVC100 14/08 A3004 RMK AO2 SLP098 T01440078,M
LOL,2023-06-15 15:53,-118.5701,40.0684,1192.43,63.00,28.90,27.44,30.00,15.00,0.00,30.01,1013.10,10.00,M,CLR,M,M,M,M,M,M,M,M,M,M,M,M,M,M,63.00,KLOL 151553Z AUTO 03015KT 10SM CLR 17/M02 A3001 RMK AO2 SLP131 T01721017,M
P68,2023-06-15 15:53,-116.0056,39.6014,1993.00,59.00,42.00,53.40,0.00,0.00,0.00,30.03,1011.10,M,M,M,M,M,M,M,M,M,M,M,M,M,M,M,M,M,59.00,KP68 151553Z AUTO 00000KT 15/06 A3003 RMK AO1 SLP111 T01500056,M
VGT,2023-06-15 15:53,-115.1933,36.2111,667.00,84.00,44.00,24.68,80.00,4.00,0.00,29.80,1008.00,10.00,M,CLR,M,M,M,M,M,M,M,M,M,M,M,M,M,M,81.55,KVGT 151553Z 08004KT 10SM CLR 29/07 A2980 RMK AO2 SLP080 T02890067,M
BVU,2023-06-15 15:55,-114.8611,35.9475,671.00,82.40,41.00,23.07,110.00,4.00,0.00,29.81,M,10.00,M,FEW,M,M,M,12000.00,M,M,M,M,M,M,M,M,M,M,80.29,KBVU 151555Z AUTO 11004KT 10SM FEW120 28/05 A2981 RMK AO2,M
CXP,2023-06-15 15:55,-119.7326,39.1923,1431.00,64.40,37.40,36.74,320.00,9.00,0.00,30.05,M,10.00,M,CLR,M,M,M,M,M,M,M,M,M,M,M,M,M,M,64.40,KCXP 151555Z AUTO 32009KT 10SM CLR 18/03 A3005 RMK AO2,M
RNO,2023-06-15 15:55,-119.7711,39.4839,1341.00,65.00,37.00,35.54,350.00,7.00,0.00,30.04,1012.40,10.00,M,FEW,BKN,M,M,11000.00,25000.00,M,M,M,M,M,M,M,M,M,64.90,KRNO 151555Z 35007KT 10SM FEW110 BKN250 18/03 A3004 RMK AO2 SLP124 T01830028,M
RTS,2023-06-15 15:55,-119.8764,39.6682,1539.00,59.00,35.60,41.42,340.00,4.00,0.00,30.07,M,10.00,M,CLR,M,M,M,M,M,M,M,M,M,M,M,M,M,M,59.00,KRTS 151555Z AUTO 34004KT 10SM CLR 15/02 A3007 RMK AO2,M
MEV,2023-06-15 15:55,-119.7500,38.9963,1441.42,60.80,42.80,51.45,0.00,0.00,0.00,30.04,M,10.00,M,CLR,M,M,M,M,M,M,M,M,M,M,M,M,M,M,60.80,KMEV 151555Z AUTO 00000KT 10SM CLR 16/06 A3004 RMK AO2,M
BAM,2023-06-15 15:55,-116.8743,40.5990,1382.36,60.80,32.00,33.64,10.00,3.00,0.00,30.04,M,10.00,M,CLR,M,M,M,M,M,M,M,M,M,M,M,M,M,M,60.80,KBAM 151555Z AUTO 01003KT 10SM CLR 16/00 A3004 RMK AO1,M
HTH,2023-06-15 15:55,-118.6315,38.5448,1282.89,68.00,37.40,32.43,320.00,10.00,0.00,30.00,M,10.00,16.00,CLR,M,M,M,M,M,M,M,M,M,M,M,M,M,M,68.00,KHTH 151555Z AUTO 32010G16KT 10SM CLR 20/03 A3000 RMK A01,M
TMT,2023-06-15 15:55,-117.1971,39.4643,1749.34,60.00,42.30,52.11,60.00,3.00,0.00,30.05,M,10.00,M,CLR,M,M,M,M,M,M,M,M,M,M,M,M,M,M,59.90,KTMT 151555Z AUTO 06003KT 10SM CLR 16/06 A3005 RMK AO2 T01550057,M
INS,2023-06-15 15:55,-115.6733,36.5872,955.00,76.60,44.60,32.04,330.00,3.00,0.00,29.86,1006.80,10.00,M,M,M,M,M,M,M,M,M,M,M,M,M,M,M,M,76.60,KINS 151555Z AUTO 33003KT 10SM M 25/07 A2986 RMK AO2 SLP068 T02480070 $,M
LSV,2023-06-15 15:55,-115.0343,36.2362,570.00,88.70,45.00,21.98,0.00,0.00,0.00,29.76,1005.10,10.00,M,FEW,M,M,M,18000.00,M,M,M,M,M,M,M,M,M,M,85.32,KLSV 151555Z AUTO 00000KT 10SM FEW180 32/07 A2976 RMK AO2 SLP051 T03150072 $,M
EKO,2023-06-15 15:56,-115.7860,40.8242,1367.00,61.00,35.00,37.66,200.00,4.08,M,30.01,1011.90,10.00,M,CLR,M,M,M,M,M,M,M,M,M,M,M,M,M,M,61.00,METAR KEKO 151556Z 20004KT 10SM CLR 16/02 A3001 RMK AO2 SLP119 T01610017 TSNO FIBI,M
WMC,2023-06-15 15:56,-117.8072,40.9019,1315.00,60.00,28.90,30.41,350.00,10.00,0.00,30.04,1013.90,10.00,M,CLR,M,M,M,M,M,M,M,M,M,M,M,M,M,M,60.10,KWMC 151556Z AUTO 35010KT 10SM CLR 16/M02 A3004 RMK AO2 SLP139 T01561017,M
NFL,2023-06-15 15:56,-118.7010,39.4166,1199.00,66.00,28.90,24.71,350.00,11.00,0.00,30.01,1013.30,10.00,M,FEW,FEW,SCT,M,8000.00,12000.00,22000.00,M,M,M,M,M,M,M,M,66.00,KNFL 151556Z 35011KT 10SM FEW080 FEW120 SCT220 19/M02 A3001 RMK AO2 SLP133 T01891017,M
HND,2023-06-15 15:56,-115.1344,35.9729,742.79,82.00,48.00,30.51,240.00,8.00,0.00,29.84,1009.10,10.00,M,CLR,M,M,M,M,M,M,M,M,M,M,M,M,M,M,80.53,KHND 151556Z 24008KT 10SM CLR 28/09 A2984 RMK AO2 SLP091 T02780089,M
TPH,2023-06-15 15:56,-117.0904,38.0505,1654.00,68.00,43.00,40.31,290.00,12.00,0.00,30.00,1009.40,10.00,M,CLR,M,M,M,M,M,M,M,M,M,M,M,M,M,M,68.00,KTPH 151556Z AUTO 29012KT 10SM CLR 20/06 A3000 RMK AO2 SLP094 T02000061 PNO $,M
LAS,2023-06-15 15:56,-115.1634,36.0719,663.00,83.00,45.00,26.46,0.00,0.00,0.00,29.81,1006.90,10.00,M,BKN,M,M,M,11000.00,M,M,M,M,M,M,M,M,M,M,80.86,KLAS 151556Z 00000KT 10SM BKN110 28/07 A2981 RMK AO2 SLP069 T02830072,M
05U,2023-06-15 16:10,-116.0051,39.6042,1811.23,60.80,41.00,48.00,0.00,0.00,0.00,30.06,M,10.00,M,CLR,M,M,M,M,M,M,M,M,M,M,M,M,M,M,60.80,K05U 151610Z AUTO 00000KT 10SM CLR 16/05 A3006 RMK A01,M
BVU,2023-06-15 16:15,-114.8611,35.9475,671.00,84.20,41.00,21.76,90.00,5.00,0.00,29.81,M,10.00,M,FEW,M,M,M,12000.00,M,M,M,M,M,M,M,M,M,M,81.52,KBVU 151615Z AUTO 09005KT 10SM FEW120 29/05 A2981 RMK AO2,M
CXP,2023-06-15 16:15,-119.7326,39.1923,1431.00,66.20,35.60,32.14,320.00,11.00,0.00,30.05,M,10.00,M,CLR,M,M,M,M,M,M,M,M,M,M,M,M,M,M,66.20,KCXP 151615Z AUTO 32011KT 10SM CLR 19/02 A3005 RMK AO2,M
RTS,2023-06-15 16:15,-119.8764,39.6682,1539.00,60.80,37.40,41.71,0.00,0.00,0.00,30.08,M,10.00,M,CLR,M,M,M,M,M,M,M,M,M,M,M,M,M,M,60.80,KRTS 151615Z AUTO 00000KT 10SM CLR 16/03 A3008 RMK AO2,M
MEV,2023-06-15 16:15,-119.7500,38.9963,1441.42,62.60,42.80,48.28,350.00,5.00,0.00,30.04,M,10.00,M,CLR,M,M,M,M,M,M,M,M,M,M,M,M,M,M,62.60,KMEV 151615Z AUTO 35005KT 10SM CLR 17/06 A3004 RMK AO2,M
BAM,2023-06-15 16:15,-116.8743,40.5990,1382.36,60.80,32.00,33.64,0.00,0.00,0.00,30.04,M,10.00,M,CLR,M,M,M,M,M,M,M,M,M,M,M,M,M,M,60.80,KBAM 151615Z AUTO 00000KT 10SM CLR 16/00 A3004 RMK AO1,M
HTH,2023-06-15 16:15,-118.6315,38.5448,1282.89,68.00,35.60,30.20,320.00,13.00,0.00,30.00,M,10.00,M,CLR,M,M,M,M,M,M,M,M,M,M,M,M,M,M,68.00,KHTH 151615Z AUTO 32013KT 10SM CLR 20/02 A3000 RMK A01,M
TMT,2023-06-15 16:15,-117.1971,39.4643,1749.34,61.30,42.30,49.58,50.00,4.00,0.00,30.06,M,10.00,M,CLR,M,M,M,M,M,M,M,M,M,M,M,M,M,M,61.30,KTMT 151615Z AUTO 05004KT 10SM CLR 16/06 A3006 RMK AO2 T01630057,M
05U,2023-06-15 16:30,-116.0051,39.6042,1811.23,62.60,37.40,39.14,0.00,0.00,0.00,30.06,M,10.00,M,CLR,M,M,M,M,M,M,M,M,M,M,M,M,M,M,62.60,K05U 151630Z AUTO 00000KT 10SM CLR 17/03 A3006 RMK A01,M
BVU,2023-06-15 16:35,-114.8611,35.9475,671.00,86.00,42.80,22.02,130.00,5.00,0.00,29.80,M,10.00,M,CLR,M,M,M,M,M,M,M,M,M,M,M,M,M,M,82.95,KBVU 151635Z AUTO 13005KT 10SM CLR 30/06 A2980 RMK AO2,M
CXP,2023-06-15 16:35,-119.7326,39.1923,1431.00,66.20,35.60,32.14,310.00,10.00,0.00,30.05,M,10.00,M,CLR,M,M,M,M,M,M,M,M,M,M,M,M,M,M,66.20,KCXP 151635Z AUTO 31010KT 10SM CLR 19/02 A3005 RMK AO2,M
RTS,2023-06-15 16:35,-119.8764,39.6682,1539.00,60.80,37.40,41.71,0.00,0.00,0.00,30.08,M,10.00,M,CLR,M,M,M,M,M,M,M,M,M,M,M,M,M,M,60.80,KRTS 151635Z AUTO 00000KT 10SM CLR 16/03 A3008 RMK AO2,M
MEV,2023-06-15 16:35,-119.7500,38.9963,1441.42,64.40,41.00,42.28,350.00,8.00,0.00,30.04,M,10.00,M,CLR,M,M,M,M,M,M,M,M,M,M,M,M,M,M,64.40,KMEV 151635Z AUTO 35008KT 10SM CLR 18/05 A3004 RMK AO2,M
BAM,2023-06-15 16:35,-116.8743,40.5990,1382.36,60.80,32.00,33.64,350.00,4.00,0.00,30.04,M,10.00,M,CLR,M,M,M,M,M,M,M,M,M,M,M,M,M,M,60.80,KBAM 151635Z AUTO 35004KT 10SM CLR 16/00 A3004 RMK AO1,M
HTH,2023-06-15 16:35,-118.6315,38.5448,1282.89,68.00,33.80,28.11,330.00,15.00,0.00,30.01,M,10.00,M,CLR,M,M,M,M,M,M,M,M,M,M,M,M,M,M,68.00,KHTH 151635Z AUTO 33015KT 10SM CLR 20/01 A3001 RMK A01,M
TMT,2023-06-15 16:35,-117.1971,39.4643,1749.34,61.30,40.60,46.43,80.00,4.00,0.00,30.06,M,10.00,M,CLR,M,M,M,M,M,M,M,M,M,M,M,M,M,M,61.30,KTMT 151635Z AUTO 08004KT 10SM CLR 16/05 A3006 RMK AO2 T01630048,M
05U,2023-06-15 16:50,-116.0051,39.6042,1811.23,64.40,39.20,39.43,0.00,0.00,0.00,30.06,M,10.00,M,CLR,M,M,M,M,M,M,M,M,M,M,M,M,M,M,64.40,K05U 151650Z AUTO 00000KT 10SM CLR 18/04 A3006 RMK A01,M
LOL,2023-06-15 16:53,-118.5701,40.0684,1192.43,66.00,28.90,24.71,50.00,10.00,0.00,30.01,1013.20,10.00,M,CLR,M,M,M,M,M,M,M,M,M,M,M,M,M,M,66.00,KLOL 151653Z AUTO 05010KT 10SM CLR 19/M02 A3001 RMK AO2 SLP132 T01891017,M
DRA,2023-06-15 16:53,-116.0278,36.6206,1009.00,81.00,47.00,30.24,230.00,12.00,0.00,29.87,1007.00,10.00,M,CLR,M,M,M,M,M,M,M,M,M,M,M,M,M,M,79.83,KDRA 151653Z AUTO 23012KT 10SM CLR 27/08 A2987 RMK AO2 SLP070 T02720083,M
P68,2023-06-15 16:53,-116.0056,39.6014,1993.00,62.00,40.00,43.93,0.00,0.00,0.00,30.03,1011.00,M,M,M,M,M,M,M,M,M,M,M,M,M,M,M,M,M,62.10,KP68 151653Z AUTO 00000KT 17/04 A3003 RMK AO1 SLP110 T01670044,M
ELY,2023-06-15 16:53,-114.8453,39.2950,1909.00,60.00,44.00,55.44,0.00,0.00,0.00,30.04,1009.70,10.00,M,OVC,M,M,M,10000.00,M,M,M,M,M,M,M,M,M,M,60.10,KELY 151653Z AUTO 00000KT 10SM OVC100 16/07 A3004 RMK AO2 SLP097 T01560067,M
VGT,2023-06-15 16:53,-115.1933,36.2111,667.00,85.00,44.00,23.97,0.00,0.00,0.00,29.80,1008.10,10.00,M,CLR,M,M,M,M,M,M,M,M,M,M,M,M,M,M,82.20,KVGT 151653Z 00000KT 10SM CLR 29/07 A2980 RMK AO2 SLP081 T02940067,M
BVU,2023-06-15 16:55,-114.8611,35.9475,671.00,86.00,42.80,22.02,150.00,4.00,0.00,29.81,M,10.00,M,CLR,M,M,M,M,M,M,M,M,M,M,M,M,M,M,82.95,KBVU 151655Z AUTO 15004KT 10SM CLR 30/06 A2981 RMK AO2,M
CXP,2023-06-15 16:55,-119.7326,39.1923,1431.00,68.00,37.40,32.43,320.00,11.00,0.00,30.05,M,10.00,16.00,CLR,M,M,M,M,M,M,M,M,M,M,M,M,M,M,68.00,KCXP 151655Z AUTO 32011G16KT 10SM CLR 20/03 A3005 RMK AO2,M
RTS,2023-06-15 16:55,-119.8764,39.6682,1539.00,60.80,35.60,38.85,0.00,0.00,0.00,30.08,M,10.00,M,CLR,M,M,M,M,M,M,M,M,M,M,M,M,M,M,60.80,KRTS 151655Z AUTO 00000KT 10SM CLR 16/02 A3008 RMK AO2,M
MEV,2023-06-15 16:55,-119.7500,38.9963,1441.42,64.40,41.00,42.28,320.00,7.00,0.00,30.04,M,10.00,M,CLR,M,M,M,M,M,M,M,M,M,M,M,M,M,M,64.40,KMEV 151655Z AUTO 32007KT 10SM CLR 18/05 A3004 RMK AO2,M
BAM,2023-06-15 16:55,-116.8743,40.5990,1382.36,62.60,32.00,31.56,330.00,3.00,0.00,30.04,M,10.00,M,CLR,M,M,M,M,M,M,M,M,M,M,M,M,M,M,62.60,KBAM 151655Z AUTO 33003KT 10SM CLR 17/00 A3004 RMK AO1,M
HTH,2023-06-15 16:55,-118.6315,38.5448,1282.89,68.00,33.80,28.11,320.00,11.00,0.00,30.00,M,10.00,M,CLR,M,M,M,M,M,M,M,M,M,M,M,M,M,M,68.00,KHTH 151655Z AUTO 32011KT 10SM CLR 20/01 A3000 RMK A01,M
INS,2023-06-15 16:55,-115.6733,36.5872,955.00,81.70,43.50,25.98,320.00,3.00,0.00,29.86,1006.60,10.00,M,M,M,M,M,M,M,M,M,M,M,M,M,M,M,M,79.99,KINS 151655Z AUTO 32003KT 10SM M 28/06 A2986 RMK AO2 SLP066 T02760064 $,M
LSV,2023-06-15 16:55,-115.0343,36.2362,570.00,89.40,46.80,23.02,150.00,8.00,0.00,29.76,1005.20,10.00,M,FEW,M,M,M,16000.00,M,M,M,M,M,M,M,M,M,M,86.10,KLSV 151655Z AUTO 15008KT 10SM FEW160 32/08 A2976 RMK AO2 SLP052 T03190082 $,M
RNO,2023-06-15 16:55,-119.7711,39.4839,1341.00,67.00,35.00,30.75,50.00,5.00,0.00,30.04,1012.30,10.00,M,FEW,BKN,M,M,6000.00,25000.00,M,M,M,M,M,M,M,M,M,66.90,KRNO 151655Z 05005KT 10SM FEW060 BKN250 19/02 A3004 RMK AO2 SLP123 T01940017,M
EKO,2023-06-15 16:56,-115.7860,40.8242,1367.00,65.00,29.00,25.69,270.00,13.02,M,30.01,1011.70,10.00,M,CLR,M,M,M,M,M,M,M,M,M,M,M,M,M,M,65.00,METAR KEKO 151656Z 27013KT 10SM CLR 18/M02 A3001 RMK AO2 SLP117 T01831017 TSNO FIBI,M
WMC,2023-06-15 16:56,-117.8072,40.9019,1315.00,64.00,28.90,26.50,320.00,8.00,0.00,30.05,1014.40,10.00,15.00,CLR,M,M,M,M,M,M,M,M,M,M,M,M,M,M,64.00,KWMC 151656Z AUTO 32008G15KT 300V020 10SM CLR 18/M02 A3005 RMK AO2 SLP144 T01781017,M
LAS,2023-06-15 16:56,-115.1634,36.0719,663.00,85.00,45.00,24.81,M,3.00,0.00,29.81,1006.70,10.00,M,FEW,BKN,M,M,8000.00,11000.00,M,M,M,M,M,M,M,M,M,82.27,KLAS 151656Z VRB03KT 10SM FEW080 BKN110 29/07 A2981 RMK AO2 SLP067 T02940072,M
NFL,2023-06-15 16:56,-118.7010,39.4166,1199.00,69.00,28.90,22.21,360.00,9.00,0.00,30.02,1013.40,10.00,M,SCT,SCT,BKN,M,10000.00,15000.00,20000.00,M,M,M,M,M,M,M,M,69.10,KNFL 151656Z 36009KT 10SM SCT100 SCT150 BKN200 21/M02 A3002 RMK SLP134 T02061017,M
TPH,2023-06-15 16:56,-117.0904,38.0505,1654.00,70.00,42.00,36.36,330.00,9.00,0.00,30.00,1009.40,10.00,19.00,CLR,M,M,M,M,M,M,M,M,M,M,M,M,M,M,70.00,KTPH 151656Z AUTO 33009G19KT 10SM CLR 21/06 A3000 RMK AO2 SLP094 T02110056 PNO $,M
HND,2023-06-15 16:56,-115.1344,35.9729,742.79,85.00,47.00,26.66,M,3.00,0.00,29.84,1009.20,10.00,M,CLR,M,M,M,M,M,M,M,M,M,M,M,M,M,M,82.42,KHND 151656Z VRB03KT 10SM CLR 29/08 A2984 RMK AO2 SLP092 T02940083,M
TMT,2023-06-15 17:00,-117.1971,39.4643,1749.34,62.60,41.70,46.28,60.00,5.00,0.00,30.06,M,10.00,M,CLR,M,M,M,M,M,M,M,M,M,M,M,M,M,M,62.60,KTMT 151700Z AUTO 06005KT 10SM CLR 17/05 A3006 RMK AO2 T01700054,M
05U,2023-06-15 17:10,-116.0051,39.6042,1811.23,62.60,39.20,42.00,0.00,0.00,0.00,30.06,M,10.00,M,CLR,M,M,M,M,M,M,M,M,M,M,M,M,M,M,62.60,K05U 151710Z AUTO 00000KT 10SM CLR 17/04 A3006 RMK A01,M
BVU,2023-06-15 17:15,-114.8611,35.9475,671.00,86.00,42.80,22.02,130.00,8.00,0.00,29.81,M,10.00,M,CLR,M,M,M,M,M,M,M,M,M,M,M,M,M,M,82.95,KBVU 151715Z AUTO 13008KT 10SM CLR 30/06 A2981 RMK AO2,M
CXP,2023-06-15 17:15,-119.7326,39.1923,1431.00,68.00,37.40,32.43,300.00,10.00,0.00,30.04,M,10.00,M,CLR,M,M,M,M,M,M,M,M,M,M,M,M,M,M,68.00,KCXP 151715Z AUTO 30010KT 10SM CLR 20/03 A3004 RMK AO2,M
RTS,2023-06-15 17:15,-119.8764,39.6682,1539.00,62.60,37.40,39.14,40.00,7.00,0.00,30.08,M,10.00,M,CLR,M,M,M,M,M,M,M,M,M,M,M,M,M,M,62.60,KRTS 151715Z AUTO 04007KT 10SM CLR 17/03 A3008 RMK AO2,M
MEV,2023-06-15 17:15,-119.7500,38.9963,1441.42,66.20,41.00,39.72,0.00,0.00,0.00,30.03,M,10.00,M,CLR,M,M,M,M,M,M,M,M,M,M,M,M,M,M,66.20,KMEV 151715Z AUTO 00000KT 10SM CLR 19/05 A3003 RMK AO2,M
BAM,2023-06-15 17:15,-116.8743,40.5990,1382.36,64.40,28.40,25.60,360.00,6.00,0.00,30.04,M,10.00,M,CLR,M,M,M,M,M,M,M,M,M,M,M,M,M,M,64.40,KBAM 151715Z AUTO 36006KT 10SM CLR 18/M02 A3004 RMK AO1,M
HTH,2023-06-15 17:15,-118.6315,38.5448,1282.89,69.80,33.80,26.43,320.00,10.00,0.00,30.01,M,10.00,18.00,M,M,M,M,M,M,M,M,M,M,M,M,M,M,M,69.80,KHTH 151715Z AUTO 32010G18KT 10SM 21/01 A3001 RMK A01,M
TMT,2023-06-15 17:15,-117.1971,39.4643,1749.34,63.00,41.20,44.76,70.00,5.00,0.00,30.06,M,10.00,M,CLR,M,M,M,M,M,M,M,M,M,M,M,M,M,M,63.00,KTMT 151715Z AUTO 07005KT 10SM CLR 17/05 A3006 RMK AO2 T01720051,M
05U,2023-06-15 17:30,-116.0051,39.6042,1811.23,64.40,41.00,42.28,20.00,6.00,0.00,30.07,M,10.00,M,CLR,M,M,M,M,M,M,M,M,M,M,M,M,M,M,64.40,K05U 151730Z AUTO 02006KT 10SM CLR 18/05 A3007 RMK A01,M
BVU,2023-06-15 17:35,-114.8611,35.9475,671.00,86.00,44.60,23.59,160.00,6.00,0.00,29.81,M,10.00,M,CLR,M,M,M,M,M,M,M,M,M,M,M,M,M,M,83.07,KBVU 151735Z AUTO 16006KT 10SM CLR 30/07 A2981 RMK AO2,M
CXP,2023-06-15 17:35,-119.7326,39.1923,1431.00,68.00,37.40,32.43,340.00,8.00,0.00,30.05,M,10.00,M,CLR,M,M,M,M,M,M,M,M,M,M,M,M,M,M,68.00,KCXP 151735Z AUTO 34008KT 10SM CLR 20/03 A3005 RMK AO2,M
RTS,2023-06-15 17:35,-119.8764,39.6682,1539.00,60.80,35.60,38.85,0.00,0.00,0.00,30.08,M,10.00,M,CLR,M,M,M,M,M,M,M,M,M,M,M,M,M,M,60.80,KRTS 151735Z AUTO 00000KT 10SM CLR 16/02 A3008 RMK AO2,M
MEV,2023-06-15 17:35,-119.7500,38.9963,1441.42,66.20,41.00,39.72,0.00,0.00,0.00,30.03,M,10.00,M,CLR,M,M,M,M,M,M,M,M,M,M,M,M,M,M,66.20,KMEV 151735Z AUTO 00000KT 10SM CLR 19/05 A3003 RMK AO2,M
BAM,2023-06-15 17:35,-116.8743,40.5990,1382.36,64.40,28.40,25.60,340.00,8.00,0.00,30.04,M,10.00,M,CLR,M,M,M,M,M,M,M,M,M,M,M,M,M,M,64.40,KBAM 151735Z AUTO 34008KT 10SM CLR 18/M02 A3004 RMK AO1,M
HTH,2023-06-15 17:35,-118.6315,38.5448,1282.89,69.80,33.80,26.43,330.00,14.00,0.00,30.01,M,10.00,M,M,M,M,M,M,M,M,M,M,M,M,M,M,M,M,69.80,KHTH 151735Z AUTO 33014KT 10SM 21/01 A3001 RMK A01,M
TMT,2023-06-15 17:35,-117.1971,39.4643,1749.34,63.00,39.00,41.09,0.00,0.00,0.00,30.07,M,10.00,M,SCT,M,M,M,6000.00,M,M,M,M,M,M,M,M,M,M,63.00,KTMT 151735Z AUTO 00000KT 10SM SCT060 17/04 A3007 RMK AO2 T01720039,M
05U,2023-06-15 17:50,-116.0051,39.6042,1811.23,64.40,41.00,42.28,40.00,5.00,0.00,30.07,M,10.00,M,CLR,M,M,M,M,M,M,M,M,M,M,M,M,M,M,64.40,K05U 151750Z AUTO 04005KT 10SM CLR 18/05 A3007 RMK A01,M
LOL,2023-06-15 17:53,-118.5701,40.0684,1192.43,69.00,30.00,23.22,70.00,7.00,0.00,30.02,1013.10,10.00,M,CLR,M,M,M,M,M,M,M,M,M,M,M,M,M,M,69.10,KLOL 151753Z AUTO 07007KT 10SM CLR 21/M01 A3002 RMK AO2 SLP131 T02061011 10206 20111 51008,M
P68,2023-06-15 17:53,-116.0056,39.6014,1993.00,63.00,40.00,42.56,M,3.00,0.00,30.04,1011.10,M,M,M,M,M,M,M,M,M,M,M,M,M,M,M,M,M,63.00,KP68 151753Z AUTO VRB03KT 17/04 A3004 RMK AO1 SLP111 T01720044 10178 20056 53003,M
ELY,2023-06-15 17:53,-114.8453,39.2950,1909.00,64.00,44.00,48.31,130.00,4.00,0.00,30.04,1009.40,10.00,M,FEW,M,M,M,5500.00,M,M,M,M,M,M,M,M,M,M,64.00,KELY 151753Z AUTO 13004KT 10SM FEW055 18/07 A3004 RMK AO2 SLP094 T01780067 10178 20078 51002,M
VGT,2023-06-15 17:53,-115.1933,36.2111,667.00,88.00,44.00,21.72,0.00,0.00,0.00,29.80,1008.10,10.00,M,CLR,M,M,M,M,M,M,M,M,M,M,M,M,M,M,84.65,KVGT 151753Z 00000KT 10SM CLR 31/07 A2980 RMK AO2 SLP081 T03110067 10311 20261 51004,M
DRA,2023-06-15 17:53,-116.0278,36.6206,1009.00,83.00,47.00,28.43,240.00,7.00,0.00,29.87,1007.00,10.00,16.00,CLR,M,M,M,M,M,M,M,M,M,M,M,M,M,M,81.01,KDRA 151753Z AUTO 24007G16KT 10SM CLR 28/08 A2987 RMK AO2 SLP070 T02830083 10289 20189 51004,M
BVU,2023-06-15 17:55,-114.8611,35.9475,671.00,87.80,42.80,20.79,M,5.00,0.00,29.81,M,10.00,M,CLR,M,M,M,M,M,M,M,M,M,M,M,M,M,M,84.40,KBVU 151755Z AUTO VRB05KT 10SM CLR 31/06 A2981 RMK AO2,M
CXP,2023-06-15 17:55,-119.7326,39.1923,1431.00,69.80,37.40,30.49,300.00,8.00,0.00,30.05,M,10.00,14.00,CLR,M,M,M,M,M,M,M,M,M,M,M,M,M,M,69.80,KCXP 151755Z AUTO 30008G14KT 10SM CLR 21/03 A3005 RMK AO2,M
RTS,2023-06-15 17:55,-119.8764,39.6682,1539.00,62.60,35.60,36.45,50.00,4.00,0.00,30.09,M,10.00,M,CLR,M,M,M,M,M,M,M,M,M,M,M,M,M,M,62.60,KRTS 151755Z AUTO 05004KT 10SM CLR 17/02 A3009 RMK AO2,M
BAM,2023-06-15 17:55,-116.8743,40.5990,1382.36,68.00,26.60,20.98,330.00,9.00,0.00,30.04,M,10.00,M,CLR,M,M,M,M,M,M,M,M,M,M,M,M,M,M,68.00,KBAM 151755Z AUTO 33009KT 10SM CLR 20/M03 A3004 RMK AO1,M
MEV,2023-06-15 17:55,-119.7500,38.9963,1441.42,68.00,42.80,40.00,0.00,0.00,0.00,30.04,M,10.00,M,CLR,M,M,M,M,M,M,M,M,M,M,M,M,M,M,68.00,KMEV 151755Z AUTO 00000KT 10SM CLR 20/06 A3004 RMK AO2,M
HTH,2023-06-15 17:55,-118.6315,38.5448,1282.89,69.80,33.80,26.43,M,M,0.00,30.02,M,10.00,M,CLR,M,M,M,M,M,M,M,M,M,M,M,M,M,M,69.80,KHTH 151755Z AUTO 10SM CLR 21/01 A3002 RMK A01,M
TMT,2023-06-15 17:55,-117.1971,39.4643,1749.34,64.40,41.40,42.94,0.00,0.00,0.00,30.07,M,10.00,M,SCT,M,M,M,6000.00,M,M,M,M,M,M,M,M,M,M,64.40,KTMT 151755Z AUTO 00000KT 10SM SCT060 18/05 A3007 RMK AO2 LTG DSNT E T01800052 10181 20085,M
INS,2023-06-15 17:55,-115.6733,36.5872,955.00,84.60,43.70,23.84,320.00,6.00,0.00,29.85,1006.30,10.00,M,CLR,M,M,M,M,M,M,M,M,M,M,M,M,M,M,81.96,KINS 151755Z AUTO 32006KT 10SM CLR 29/07 A2985 RMK AO2 SLP063 T02920065 10292 20182 50000 $,M
LSV,2023-06-15 17:55,-115.0343,36.2362,570.00,90.70,45.30,20.88,170.00,7.00,0.00,29.76,1005.20,10.00,M,FEW,M,M,M,12000.00,M,M,M,M,M,M,M,M,M,M,87.11,KLSV 151755Z AUTO 17007KT 10SM FEW120 33/07 A2976 RMK AO2 SLP052 T03260074 10327 20251 51002 $,M
RNO,2023-06-15 17:55,-119.7711,39.4839,1341.00,68.00,35.00,29.61,M,6.00,0.00,30.05,1012.70,10.00,M,FEW,BKN,M,M,7500.00,25000.00,M,M,M,M,M,M,M,M,M,68.00,KRNO 151755Z VRB06KT 10SM FEW075 BKN250 20/02 A3005 RMK AO2 SLP127 T02000017 10206 20122 51006,M
EKO,2023-06-15 17:56,-115.7860,40.8242,1367.00,66.00,29.00,24.81,260.00,7.97,M,30.02,1012.20,10.00,14.97,CLR,M,M,M,M,M,M,M,M,M,M,M,M,M,M,66.00,METAR KEKO 151756Z 26008G15KT 10SM CLR 19/M02 A3002 RMK AO2 SLP122 T01891017 10189 20056 53004 TSNO FIBI,M
WMC,2023-06-15 17:56,-117.8072,40.9019,1315.00,67.00,24.10,19.64,350.00,10.00,0.00,30.06,1014.80,10.00,15.00,CLR,M,M,M,M,M,M,M,M,M,M,M,M,M,M,66.90,KWMC 151756Z AUTO 35010G15KT 10SM CLR 19/M04 A3006 RMK AO2 SLP148 T01941044 10194 20072 51010,M
HND,2023-06-15 17:56,-115.1344,35.9729,742.79,88.00,48.00,25.17,M,3.00,0.00,29.84,1009.20,10.00,M,CLR,M,M,M,M,M,M,M,M,M,M,M,M,M,M,85.02,KHND 151756Z VRB03KT 10SM CLR 31/09 A2984 RMK AO2 SLP092 T03110089 10317 20244 50003,M
TPH,2023-06-15 17:56,-117.0904,38.0505,1654.00,73.00,43.00,34.00,320.00,10.00,0.00,30.02,1009.80,10.00,19.00,CLR,M,M,M,M,M,M,M,M,M,M,M,M,M,M,73.00,KTPH 151756Z AUTO 32010G19KT 10SM CLR 23/06 A3002 RMK AO2 SLP098 6//// T02280061 10228 20106 53004 PNO $,M
LAS,2023-06-15 17:56,-115.1634,36.0719,663.00,87.00,45.00,23.12,0.00,0.00,0.00,29.81,1006.70,10.00,M,FEW,BKN,M,M,8000.00,12000.00,M,M,M,M,M,M,M,M,M,83.98,KLAS 151756Z 00000KT 10SM FEW080 BKN120 31/07 A2981 RMK AO2 SLP067 CB DSNT NW T03060072 10311 20256 51002,M
NFL,2023-06-15 17:56,-118.7010,39.4166,1199.00,71.00,30.00,21.69,340.00,5.00,0.00,30.02,1013.60,10.00,M,FEW,SCT,BKN,M,8000.00,17000.00,22000.00,M,M,M,M,M,M,M,M,71.10,KNFL 151756Z 34005KT 10SM FEW080 SCT170 BKN220 22/M01 A3002 RMK SLP136 T02171011 10217 20122 51008,M
05U,2023-06-15 18:10,-116.0051,39.6042,1811.23,64.40,41.00,42.28,10.00,4.00,0.00,30.07,M,10.00,M,CLR,M,M,M,M,M,M,M,M,M,M,M,M,M,M,64.40,K05U 151810Z AUTO 01004KT 10SM CLR 18/05 A3007 RMK A01,M
BVU,2023-06-15 18:15,-114.8611,35.9475,671.00,87.80,42.80,20.79,150.00,9.00,0.00,29.81,M,10.00,M,CLR,M,M,M,M,M,M,M,M,M,M,M,M,M,M,84.40,KBVU 151815Z AUTO 15009KT 10SM CLR 31/06 A2981 RMK AO2,M
CXP,2023-06-15 18:15,-119.7326,39.1923,1431.00,69.80,37.40,30.49,310.00,8.00,0.00,30.05,M,10.00,M,CLR,M,M,M,M,M,M,M,M,M,M,M,M,M,M,69.80,KCXP 151815Z AUTO 31008KT 10SM CLR 21/03 A3005 RMK AO2,M
RTS,2023-06-15 18:15,-119.8764,39.6682,1539.00,62.60,37.40,39.14,M,3.00,0.00,30.09,M,10.00,M,CLR,M,M,M,M,M,M,M,M,M,M,M,M,M,M,62.60,KRTS 151815Z AUTO VRB03KT 10SM CLR 17/03 A3009 RMK AO2,M
MEV,2023-06-15 18:15,-119.7500,38.9963,1441.42,68.00,41.00,37.32,0.00,0.00,0.00,30.04,M,10.00,M,CLR,M,M,M,M,M,M,M,M,M,M,M,M,M,M,68.00,KMEV 151815Z AUTO 00000KT 10SM CLR 20/05 A3004 RMK AO2,M
BAM,2023-06-15 18:15,-116.8743,40.5990,1382.36,68.00,26.60,20.98,350.00,9.00,0.00,30.05,M,10.00,14.00,CLR,M,M,M,M,M,M,M,M,M,M,M,M,M,M,68.00,KBAM 151815Z AUTO 35009G14KT 10SM CLR 20/M03 A3005 RMK AO1,M
HTH,2023-06-15 18:15,-118.6315,38.5448,1282.89,71.60,33.80,24.86,320.00,12.00,0.00,30.02,M,10.00,18.00,M,M,M,M,M,M,M,M,M,M,M,M,M,M,M,71.60,KHTH 151815Z AUTO 32012G18KT 10SM 22/01 A3002 RMK A01,M
TMT,2023-06-15 18:15,-117.1971,39.4643,1749.34,65.30,41.50,41.78,90.00,4.00,0.00,30.07,M,10.00,M,BKN,M,M,M,5500.00,M,M,M,M,M,M,M,M,M,M,65.30,KTMT 151815Z AUTO 09004KT 10SM BKN055 19/05 A3007 RMK AO2 T01850053,M
05U,2023-06-15 18:30,-116.0051,39.6042,1811.23,66.20,39.20,37.03,20.00,5.00,0.00,30.07,M,10.00,M,CLR,M,M,M,M,M,M,M,M,M,M,M,M,M,M,66.20,K05U 151830Z AUTO 02005KT 10SM CLR 19/04 A3007 RMK A01,M
BVU,2023-06-15 18:35,-114.8611,35.9475,671.00,89.60,42.80,19.64,170.00,8.00,0.00,29.80,M,10.00,M,CLR,M,M,M,M,M,M,M,M,M,M,M,M,M,M,85.93,KBVU 151835Z AUTO 17008KT 130V230 10SM CLR 32/06 A2980 RMK AO2,M
CXP,2023-06-15 18:35,-119.7326,39.1923,1431.00,71.60,39.20,30.77,320.00,11.00,0.00,30.05,M,10.00,M,CLR,M,M,M,M,M,M,M,M,M,M,M,M,M,M,71.60,KCXP 151835Z AUTO 32011KT 10SM CLR 22/04 A3005 RMK AO2,M
RTS,2023-06-15 18:35,-119.8764,39.6682,1539.00,64.40,37.40,36.74,0.00,0.00,0.00,30.09,M,10.00,M,CLR,M,M,M,M,M,M,M,M,M,M,M,M,M,M,64.40,KRTS 151835Z AUTO 00000KT 10SM CLR 18/03 A3009 RMK AO2,M
MEV,2023-06-15 18:35,-119.7500,38.9963,1441.42,69.80,41.00,35.09,M,3.00,0.00,30.04,M,10.00,M,CLR,M,M,M,M,M,M,M,M,M,M,M,M,M,M,69.80,KMEV 151835Z AUTO VRB03KT 10SM CLR 21/05 A3004 RMK AO2,M
BAM,2023-06-15 18:35,-116.8743,40.5990,1382.36,68.00,28.40,22.59,350.00,9.00,0.00,30.05,M,10.00,14.00,CLR,M,M,M,M,M,M,M,M,M,M,M,M,M,M,68.00,KBAM 151835Z AUTO 35009G14KT 10SM CLR 20/M02 A3005 RMK AO1,M
HTH,2023-06-15 18:35,-118.6315,38.5448,1282.89,71.60,33.80,24.86,310.00,16.00,0.00,30.02,M,10.00,M,M,M,M,M,M,M,M,M,M,M,M,M,M,M,M,71.60,KHTH 151835Z AUTO 31016KT 10SM 22/01 A3002 RMK A01,M
TMT,2023-06-15 18:35,-117.1971,39.4643,1749.34,65.70,41.20,40.72,100.00,5.00,0.00,30.07,M,10.00,M,SCT,M,M,M,6500.00,M,M,M,M,M,M,M,M,M,M,65.70,KTMT 151835Z AUTO 10005KT 10SM SCT065 19/05 A3007 RMK AO2 T01870051,M
05U,2023-06-15 18:50,-116.0051,39.6042,1811.23,66.20,41.00,39.72,10.00,5.00,0.00,30.07,M,10.00,M,CLR,M,M,M,M,M,M,M,M,M,M,M,M,M,M,66.20,K05U 151850Z AUTO 01005KT 10SM CLR 19/05 A3007 RMK A01,M
P68,2023-06-15 18:53,-116.0056,39.6014,1993.00,65.00,39.00,38.44,M,4.00,0.00,30.04,1011.00,M,M,M,M,M,M,M,M,M,M,M,M,M,M,M,M,M,64.90,KP68 151853Z AUTO VRB04KT 18/04 A3004 RMK AO1 SLP110 T01830039,M
DRA,2023-06-15 18:53,-116.0278,36.6206,1009.00,87.00,45.00,23.12,220.00,10.00,0.00,29.86,1006.60,10.00,14.00,CLR,M,M,M,M,M,M,M,M,M,M,M,M,M,M,83.98,KDRA 151853Z AUTO 22010G14KT 10SM CLR 31/07 A2986 RMK AO2 SLP066 T03060072,M
VGT,2023-06-15 18:53,-115.1933,36.2111,667.00,89.00,45.00,21.70,0.00,0.00,0.00,29.80,1008.00,10.00,M,BKN,M,M,M,12000.00,M,M,M,M,M,M,M,M,M,M,85.66,KVGT 151853Z 00000KT 10SM BKN120 32/07 A2980 RMK AO2 SLP080 T03170072,M
LOL,2023-06-15 18:53,-118.5701,40.0684,1192.43,70.00,30.00,22.52,M,4.00,0.00,30.02,1013.70,10.00,M,CLR,M,M,M,M,M,M,M,M,M,M,M,M,M,M,70.00,KLOL 151853Z AUTO VRB04KT 10SM CLR 21/M01 A3002 RMK AO2 SLP137 T02111011,M
ELY,2023-06-15 18:53,-114.8453,39.2950,1909.00,66.00,38.00,35.44,280.00,9.00,0.00,30.04,1009.40,10.00,M,CLR,M,M,M,M,M,M,M,M,M,M,M,M,M,M,66.00,KELY 151853Z AUTO 28009KT 10SM CLR 19/03 A3004 RMK AO2 SLP094 T01890033,M
BVU,2023-06-15 18:55,-114.8611,35.9475,671.00,89.60,42.80,19.64,M,4.00,0.00,29.79,M,10.00,M,CLR,M,M,M,M,M,M,M,M,M,M,M,M,M,M,85.93,KBVU 151855Z AUTO VRB04KT 10SM CLR 32/06 A2979 RMK AO2,M
CXP,2023-06-15 18:55,-119.7326,39.1923,1431.00,71.60,39.20,30.77,340.00,9.00,0.00,30.05,M,10.00,M,CLR,M,M,M,M,M,M,M,M,M,M,M,M,M,M,71.60,KCXP 151855Z AUTO 34009KT 10SM CLR 22/04 A3005 RMK AO2,M
RNO,2023-06-15 18:55,-119.7711,39.4839,1341.00,72.00,36.00,26.77,M,3.00,0.00,30.05,1012.50,10.00,M,FEW,BKN,M,M,7500.00,25000.00,M,M,M,M,M,M,M,M,M,72.00,KRNO 151855Z VRB03KT 10SM FEW075 BKN250 22/02 A3005 RMK AO2 SLP125 T02220022,M
RTS,2023-06-15 18:55,-119.8764,39.6682,1539.00,64.40,35.60,34.22,0.00,0.00,0.00,30.09,M,10.00,M,CLR,M,M,M,M,M,M,M,M,M,M,M,M,M,M,64.40,KRTS 151855Z AUTO 00000KT 10SM CLR 18/02 A3009 RMK AO2,M
MEV,2023-06-15 18:55,-119.7500,38.9963,1441.42,69.80,41.00,35.09,80.00,4.00,0.00,30.04,M,10.00,M,CLR,M,M,M,M,M,M,M,M,M,M,M,M,M,M,69.80,KMEV 151855Z AUTO 08004KT 10SM CLR 21/05 A3004 RMK AO2,M
BAM,2023-06-15 18:55,-116.8743,40.5990,1382.36,68.00,28.40,22.59,340.00,9.00,0.00,30.05,M,10.00,15.00,CLR,M,M,M,M,M,M,M,M,M,M,M,M,M,M,68.00,KBAM 151855Z AUTO 34009G15KT 10SM CLR 20/M02 A3005 RMK AO1,M
HTH,2023-06-15 18:55,-118.6315,38.5448,1282.89,71.60,33.80,24.86,330.00,13.00,0.00,30.02,M,10.00,M,CLR,M,M,M,M,M,M,M,M,M,M,M,M,M,M,71.60,KHTH 151855Z AUTO 33013KT 10SM CLR 22/01 A3002 RMK A01,M
TMT,2023-06-15 18:55,-117.1971,39.4643,1749.34,66.40,37.00,33.74,200.00,4.00,0.00,30.07,M,10.00,M,SCT,M,M,M,8000.00,M,M,M,M,M,M,M,M,M,M,66.40,KTMT 151855Z AUTO 20004KT 10SM SCT080 19/03 A3007 RMK AO2 LTG DSNT E T01910028,M
INS,2023-06-15 18:55,-115.6733,36.5872,955.00,86.00,42.60,21.85,0.00,0.00,0.00,29.84,1005.90,10.00,M,CLR,M,M,M,M,M,M,M,M,M,M,M,M,M,M,82.94,KINS 151855Z AUTO 00000KT 10SM CLR 30/06 A2984 RMK AO2 SLP059 T03000059 $,M
LSV,2023-06-15 18:55,-115.0343,36.2362,570.00,93.60,45.00,18.93,180.00,6.00,0.00,29.76,1005.20,10.00,M,SCT,SCT,M,M,12000.00,18000.00,M,M,M,M,M,M,M,M,M,89.78,KLSV 151855Z AUTO 18006KT 10SM SCT120 SCT180 34/07 A2976 RMK AO2 SLP052 T03420073 $,M
EKO,2023-06-15 18:56,-115.7860,40.8242,1367.00,68.00,26.00,20.47,270.00,13.02,M,30.02,1012.60,10.00,20.99,CLR,M,M,M,M,M,M,M,M,M,M,M,M,M,M,68.00,METAR KEKO 151856Z 27013G21KT 10SM CLR 20/M03 A3002 RMK AO2 SLP126 T02001033 TSNO FIBI,M
WMC,2023-06-15 18:56,-117.8072,40.9019,1315.00,68.00,24.10,18.91,10.00,10.00,0.00,30.06,1015.10,10.00,17.00,CLR,M,M,M,M,M,M,M,M,M,M,M,M,M,M,68.00,KWMC 151856Z AUTO 01010G17KT 10SM CLR 20/M04 A3006 RMK AO2 SLP151 T02001044,M
NFL,2023-06-15 18:56,-118.7010,39.4166,1199.00,72.00,28.90,20.12,340.00,7.00,0.00,30.02,1013.40,10.00,M,FEW,SCT,BKN,M,8000.00,17000.00,22000.00,M,M,M,M,M,M,M,M,72.00,KNFL 151856Z 34007KT 10SM FEW080 SCT170 BKN220 22/M02 A3002 RMK AO2 SLP134 T02221017,M
HND,2023-06-15 18:56,-115.1344,35.9729,742.79,91.00,46.00,21.24,M,4.00,0.00,29.83,1008.70,10.00,M,CLR,M,M,M,M,M,M,M,M,M,M,M,M,M,M,87.45,KHND 151856Z VRB04KT 10SM CLR 33/08 A2983 RMK AO2 SLP087 T03280078,M
TPH,2023-06-15 18:56,-117.0904,38.0505,1654.00,75.00,39.00,27.23,300.00,16.00,0.00,30.02,1009.50,10.00,23.00,CLR,M,M,M,M,M,M,M,M,M,M,M,M,M,M,75.00,KTPH 151856Z AUTO 30016G23KT 10SM CLR 24/04 A3002 RMK AO2 SLP095 T02390039 PNO $,M
LAS,2023-06-15 18:56,-115.1634,36.0719,663.00,90.00,45.00,21.10,M,4.00,0.00,29.80,1006.30,10.00,M,FEW,BKN,M,M,8000.00,12000.00,M,M,M,M,M,M,M,M,M,86.45,KLAS 151856Z VRB04KT 10SM FEW080 BKN120 32/07 A2980 RMK AO2 SLP063 T03220072,M
05U,2023-06-15 19:10,-116.0051,39.6042,1811.23,68.00,41.00,37.32,60.00,5.00,0.00,30.07,M,10.00,M,CLR,M,M,M,M,M,M,M,M,M,M,M,M,M,M,68.00,K05U 151910Z AUTO 06005KT 10SM CLR 20/05 A3007 RMK A01,M
BVU,2023-06-15 19:15,-114.8611,35.9475,671.00,91.40,42.80,18.56,130.00,7.00,0.00,29.79,M,10.00,M,CLR,M,M,M,M,M,M,M,M,M,M,M,M,M,M,87.52,KBVU 151915Z AUTO 13007KT 10SM CLR 33/06 A2979 RMK AO2,M
CXP,2023-06-15 19:15,-119.7326,39.1923,1431.00,73.40,39.20,28.96,320.00,6.00,0.00,30.05,M,10.00,13.00,CLR,M,M,M,M,M,M,M,M,M,M,M,M,M,M,73.40,KCXP 151915Z AUTO 32006G13KT 10SM CLR 23/04 A3005 RMK AO2,M
RTS,2023-06-15 19:15,-119.8764,39.6682,1539.00,66.20,35.60,32.14,0.00,0.00,0.00,30.08,M,10.00,M,CLR,M,M,M,M,M,M,M,M,M,M,M,M,M,M,66.20,KRTS 151915Z AUTO 00000KT 10SM CLR 19/02 A3008 RMK AO2,M
MEV,2023-06-15 19:15,-119.7500,38.9963,1441.42,71.60,41.00,33.00,0.00,0.00,0.00,30.03,M,10.00,M,CLR,M,M,M,M,M,M,M,M,M,M,M,M,M,M,71.60,KMEV 151915Z AUTO 00000KT 10SM CLR 22/05 A3003 RMK AO2,M
BAM,2023-06-15 19:15,-116.8743,40.5990,1382.36,68.00,28.40,22.59,350.00,9.00,0.00,30.04,M,10.00,M,CLR,M,M,M,M,M,M,M,M,M,M,M,M,M,M,68.00,KBAM 151915Z AUTO 35009KT 10SM CLR 20/M02 A3004 RMK AO1,M
HTH,2023-06-15 19:15,-118.6315,38.5448,1282.89,73.40,32.00,21.76,330.00,14.00,0.00,30.01,M,10.00,19.00,CLR,M,M,M,M,M,M,M,M,M,M,M,M,M,M,73.40,KHTH 151915Z AUTO 33014G19KT 300V360 10SM CLR 23/00 A3001 RMK A01,M
TMT,2023-06-15 19:15,-117.1971,39.4643,1749.34,67.30,33.00,28.00,300.00,9.00,0.00,30.07,M,10.00,M,SCT,M,M,M,8000.00,M,M,M,M,M,M,M,M,M,M,67.30,KTMT 151915Z AUTO 30009KT 290V350 10SM SCT080 20/01 A3007 RMK AO2 T01960006,M
05U,2023-06-15 19:30,-116.0051,39.6042,1811.23,68.00,39.20,34.80,M,M,0.00,30.07,M,10.00,M,CLR,M,M,M,M,M,M,M,M,M,M,M,M,M,M,68.00,K05U 151930Z AUTO 6/70833307G13KT 070V130 10SM CLR 20/04 A3007 RMK A01,M
BVU,2023-06-15 19:35,-114.8611,35.9475,671.00,93.20,42.80,17.55,150.00,7.00,0.00,29.78,M,10.00,15.00,CLR,M,M,M,M,M,M,M,M,M,M,M,M,M,M,89.17,KBVU 151935Z AUTO 15007G15KT 10SM CLR 34/06 A2978 RMK AO2,M
CXP,2023-06-15 19:35,-119.7326,39.1923,1431.00,73.40,39.20,28.96,M,4.00,0.00,30.04,M,10.00,13.00,CLR,M,M,M,M,M,M,M,M,M,M,M,M,M,M,73.40,KCXP 151935Z AUTO VRB04G13KT 10SM CLR 23/04 A3004 RMK AO2,M
RTS,2023-06-15 19:35,-119.8764,39.6682,1539.00,66.20,37.40,34.51,330.00,5.00,0.00,30.08,M,10.00,M,CLR,M,M,M,M,M,M,M,M,M,M,M,M,M,M,66.20,KRTS 151935Z AUTO 33005KT 10SM CLR 19/03 A3008 RMK AO2,M
MEV,2023-06-15 19:35,-119.7500,38.9963,1441.42,71.60,41.00,33.00,340.00,9.00,0.00,30.03,M,10.00,M,CLR,M,M,M,M,M,M,M,M,M,M,M,M,M,M,71.60,KMEV 151935Z AUTO 34009KT 10SM CLR 22/05 A3003 RMK AO2,M
BAM,2023-06-15 19:35,-116.8743,40.5990,1382.36,69.80,28.40,21.24,330.00,12.00,0.00,30.04,M,10.00,15.00,CLR,M,M,M,M,M,M,M,M,M,M,M,M,M,M,69.80,KBAM 151935Z AUTO 33012G15KT 10SM CLR 21/M02 A3004 RMK AO1,M
HTH,2023-06-15 19:35,-118.6315,38.5448,1282.89,73.40,33.80,23.39,320.00,13.00,0.00,30.01,M,10.00,M,CLR,M,M,M,M,M,M,M,M,M,M,M,M,M,M,73.40,KHTH 151935Z AUTO 32013KT 10SM CLR 23/01 A3001 RMK A01,M
TMT,2023-06-15 19:35,-117.1971,39.4643,1749.34,68.40,31.10,24.88,290.00,4.00,0.00,30.07,M,10.00,M,CLR,M,M,M,M,M,M,M,M,M,M,M,M,M,M,68.40,KTMT 151935Z AUTO 29004KT 10SM CLR 20/00 A3007 RMK AO2 T02021005,M
05U,2023-06-15 19:50,-116.0051,39.6042,1811.23,68.00,32.00,26.15,M,5.00,0.00,30.07,M,10.00,15.00,CLR,M,M,M,M,M,M,M,M,M,M,M,M,M,M,68.00,K05U 151950Z AUTO VRB05G15KT 10SM CLR 20/M00 A3007 RMK A01,M
P68,2023-06-15 19:53,-116.0056,39.6014,1993.00,68.00,32.00,26.15,M,M,0.00,30.04,1010.70,M,M,M,M,M,M,M,M,M,M,M,M,M,M,M,M,M,68.00,KP68 151953Z AUTO 20/00 A3004 RMK AO1 SLP107 T02000000,M
ELY,2023-06-15 19:53,-114.8453,39.2950,1909.00,67.00,39.00,35.86,320.00,9.00,0.00,30.04,1009.20,10.00,M,FEW,M,M,M,8000.00,M,M,M,M,M,M,M,M,M,M,66.90,KELY 151953Z AUTO 32009KT 10SM FEW080 19/04 A3004 RMK AO2 SLP092 T01940039,M
VGT,2023-06-15 19:53,-115.1933,36.2111,667.00,90.00,46.00,21.91,100.00,4.00,T,29.78,1007.30,10.00,M,FEW,SCT,BKN,M,3300.00,4800.00,8000.00,M,-RA,M,M,M,M,M,M,86.55,KVGT 151953Z 10004KT 10SM -RA FEW033 SCT048 BKN080 32/08 A2978 RMK AO2 RAB40 SLP073 P0000 T03220078,M
LOL,2023-06-15 19:53,-118.5701,40.0684,1192.43,72.00,30.90,21.82,80.00,9.00,0.00,30.01,1013.10,10.00,M,CLR,M,M,M,M,M,M,M,M,M,M,M,M,M,M,72.00,KLOL 151953Z AUTO 08009KT 040V100 10SM CLR 22/M01 A3001 RMK AO2 SLP131 T02221006,M
BVU,2023-06-15 19:55,-114.8611,35.9475,671.00,91.40,41.00,17.32,140.00,5.00,0.00,29.78,M,10.00,21.00,CLR,M,M,M,M,M,M,M,M,M,M,M,M,M,M,87.40,KBVU 151955Z AUTO 14005G21KT 10SM CLR 33/05 A2978 RMK AO2,M
CXP,2023-06-15 19:55,-119.7326,39.1923,1431.00,75.20,39.20,27.26,330.00,10.00,0.00,30.04,M,10.00,M,CLR,M,M,M,M,M,M,M,M,M,M,M,M,M,M,75.20,KCXP 151955Z AUTO 33010KT 10SM CLR 24/04 A3004 RMK AO2,M
RNO,2023-06-15 19:55,-119.7711,39.4839,1341.00,73.00,37.00,26.92,30.00,4.00,0.00,30.03,1011.80,10.00,M,FEW,SCT,M,M,7500.00,25000.00,M,M,M,M,M,M,M,M,M,73.00,KRNO 151955Z 03004KT 10SM FEW075 SCT250 23/03 A3003 RMK AO2 SLP118 T02280028,M
RTS,2023-06-15 19:55,-119.8764,39.6682,1539.00,66.20,35.60,32.14,0.00,0.00,0.00,30.07,M,10.00,M,CLR,M,M,M,M,M,M,M,M,M,M,M,M,M,M,66.20,KRTS 151955Z AUTO 00000KT 10SM CLR 19/02 A3007 RMK AO2,M
MEV,2023-06-15 19:55,-119.7500,38.9963,1441.42,73.40,39.20,28.96,360.00,7.00,0.00,30.02,M,10.00,15.00,CLR,M,M,M,M,M,M,M,M,M,M,M,M,M,M,73.40,KMEV 151955Z AUTO 36007G15KT 10SM CLR 23/04 A3002 RMK AO2,M
BAM,2023-06-15 19:55,-116.8743,40.5990,1382.36,71.60,28.40,19.98,360.00,7.00,0.00,30.04,M,10.00,M,CLR,M,M,M,M,M,M,M,M,M,M,M,M,M,M,71.60,KBAM 151955Z AUTO 36007KT 10SM CLR 22/M02 A3004 RMK AO1,M
HTH,2023-06-15 19:55,-118.6315,38.5448,1282.89,73.40,33.80,23.39,310.00,13.00,0.00,30.01,M,10.00,M,CLR,M,M,M,M,M,M,M,M,M,M,M,M,M,M,73.40,KHTH 151955Z AUTO 31013KT 10SM CLR 23/01 A3001 RMK A01,M
TMT,2023-06-15 19:55,-117.1971,39.4643,1749.34,69.00,32.70,25.90,330.00,8.00,0.00,30.07,M,10.00,14.00,CLR,M,M,M,M,M,M,M,M,M,M,M,M,M,M,69.10,KTMT 151955Z AUTO 33008G14KT 10SM CLR 21/00 A3007 RMK AO2 T02060004,M
INS,2023-06-15 19:55,-115.6733,36.5872,955.00,87.00,39.70,18.86,190.00,5.00,0.00,29.82,1005.20,M,M,BKN,OVC,M,M,10000.00,12000.00,M,M,M,M,M,M,M,M,M,83.67,KINS 151955Z AUTO 19005KT M M BKN100 OVC120 31/04 A2982 RMK AO2 SLP052 T03060043 RVRNO $,M
LSV,2023-06-15 19:55,-115.0343,36.2362,570.00,94.80,46.00,18.87,300.00,3.00,0.00,29.73,1004.10,10.00,M,FEW,SCT,BKN,BKN,12000.00,16000.00,18000.00,21000.00,M,M,M,M,M,M,M,91.04,KLSV 151955Z AUTO 30003KT 10SM FEW120 SCT160 BKN180 BKN210 35/08 A2973 RMK AO2 SLP041 T03490078 $,M
WMC,2023-06-15 19:56,-117.8072,40.9019,1315.00,70.00,17.10,13.11,320.00,9.00,0.00,30.05,1014.70,10.00,16.00,CLR,M,M,M,M,M,M,M,M,M,M,M,M,M,M,70.00,KWMC 151956Z AUTO 32009G16KT 10SM CLR 21/M08 A3005 RMK AO2 SLP147 T02111083,M
NFL,2023-06-15 19:56,-118.7010,39.4166,1199.00,73.00,28.90,19.45,310.00,6.00,0.00,30.00,1013.10,10.00,M,FEW,SCT,BKN,M,10000.00,15000.00,20000.00,M,M,M,M,M,M,M,M,73.00,KNFL 151956Z 31006KT 10SM FEW100 SCT150 BKN200 23/M02 A3000 RMK AO2 SLP131 T02281017,M
TPH,2023-06-15 19:56,-117.0904,38.0505,1654.00,76.00,M,M,300.00,10.00,0.00,30.01,1009.70,10.00,22.00,CLR,M,M,M,M,M,M,M,M,M,M,M,M,M,M,M,KTPH 151956Z AUTO 30010G22KT 10SM CLR 24/ A3001 RMK AO2 SLP097 T0244 PNO $,M
LAS,2023-06-15 19:56,-115.1634,36.0719,663.00,88.00,51.00,28.25,130.00,5.00,T,29.78,1005.90,10.00,18.00,SCT,BKN,M,M,8000.00,11000.00,M,M,-TSRA,M,M,M,M,M,M,85.45,KLAS 151956Z 13005G18KT 10SM -TSRA SCT080TCU BKN110 31/11 A2978 RMK AO2 RAB44 TSB55 SLP059 TCU OHD AND DSNT NE P0000 T03110106,M
HND,2023-06-15 19:56,-115.1344,35.9729,742.79,92.00,44.00,19.21,260.00,8.00,0.00,29.81,1008.00,10.00,M,SCT,M,M,M,12000.00,M,M,M,TS,M,M,M,M,M,M,88.09,KHND 151956Z 26008KT 10SM TS SCT120 33/07 A2981 RMK AO2 TSB55 SLP080 T03330067,M
EKO,2023-06-15 19:56,-115.7860,40.8242,1367.00,68.00,25.00,19.63,M,6.03,M,30.02,1012.90,10.00,21.97,CLR,M,M,M,M,M,M,M,M,M,M,M,M,M,M,68.00,METAR KEKO 151956Z VRB06G22KT 10SM CLR 20/M04 A3002 RMK AO2 SLP129 T02001039 TSNO FIBI,M
LAS,2023-06-15 19:59,-115.1634,36.0719,663.00,88.00,49.00,26.03,M,5.00,T,29.78,M,10.00,18.00,SCT,BKN,M,M,8000.00,11000.00,M,M,TS,M,M,M,M,M,M,85.13,KLAS 151959Z VRB05G18KT 10SM TS SCT080CB BKN110 31/09 A2978 RMK AO2 RAE59 TSB56 TS OHD MOV E P0000 T03110094,M
05U,2023-06-15 20:10,-116.0051,39.6042,1811.23,68.00,28.40,22.59,130.00,11.00,0.00,30.07,M,10.00,18.00,CLR,M,M,M,M,M,M,M,M,M,M,M,M,M,M,68.00,K05U 152010Z AUTO 13011G18KT 10SM CLR 20/M02 A3007 RMK A01,M
BVU,2023-06-15 20:15,-114.8611,35.9475,671.00,91.40,41.00,17.32,160.00,12.00,0.00,29.77,M,10.00,20.00,FEW,M,M,M,11000.00,M,M,M,M,M,M,M,M,M,M,87.40,KBVU 152015Z AUTO 16012G20KT 10SM FEW110 33/05 A2977 RMK AO2,M
CXP,2023-06-15 20:15,-119.7326,39.1923,1431.00,75.20,39.20,27.26,320.00,8.00,0.00,30.03,M,10.00,M,CLR,M,M,M,M,M,M,M,M,M,M,M,M,M,M,75.20,KCXP 152015Z AUTO 32008KT 10SM CLR 24/04 A3003 RMK AO2,M
RTS,2023-06-15 20:15,-119.8764,39.6682,1539.00,68.00,35.60,30.20,0.00,0.00,0.00,30.07,M,10.00,M,CLR,M,M,M,M,M,M,M,M,M,M,M,M,M,M,68.00,KRTS 152015Z AUTO 00000KT 10SM CLR 20/02 A3007 RMK AO2,M
MEV,2023-06-15 20:15,-119.7500,38.9963,1441.42,73.40,42.80,33.29,330.00,8.00,0.00,30.02,M,10.00,M,CLR,M,M,M,M,M,M,M,M,M,M,M,M,M,M,73.40,KMEV 152015Z AUTO 33008KT 10SM CLR 23/06 A3002 RMK AO2,M
BAM,2023-06-15 20:15,-116.8743,40.5990,1382.36,71.60,28.40,19.98,340.00,12.00,0.00,30.04,M,10.00,15.00,CLR,M,M,M,M,M,M,M,M,M,M,M,M,M,M,71.60,KBAM 152015Z AUTO 34012G15KT 10SM CLR 22/M02 A3004 RMK AO1,M
HTH,2023-06-15 20:15,-118.6315,38.5448,1282.89,73.40,33.80,23.39,320.00,13.00,0.00,30.01,M,10.00,M,CLR,M,M,M,M,M,M,M,M,M,M,M,M,M,M,73.40,KHTH 152015Z AUTO 32013KT 10SM CLR 23/01 A3001 RMK A01,M
TMT,2023-06-15 20:15,-117.1971,39.4643,1749.34,69.00,32.40,25.77,290.00,10.00,0.00,30.06,M,10.00,15.00,CLR,M,M,M,M,M,M,M,M,M,M,M,M,M,M,68.90,KTMT 152015Z AUTO 29010G15KT 10SM CLR 21/00 A3006 RMK AO2 T02050002,M
HND,2023-06-15 20:16,-115.1344,35.9729,742.79,86.00,55.40,35.25,40.00,11.00,T,29.81,M,7.00,17.00,FEW,BKN,BKN,M,3500.00,10000.00,12000.00,M,-RA,M,M,M,M,M,M,84.54,KHND 152016Z 04011G17KT 360V070 7SM -RA FEW035 BKN100 BKN120 30/13 A2981 RMK AO2 TSE10RAB12 P0000,M
LAS,2023-06-15 20:16,-115.1634,36.0719,663.00,90.00,48.00,23.63,160.00,9.00,T,29.77,M,10.00,21.00,SCT,BKN,M,M,8000.00,11000.00,M,M,M,M,M,M,M,M,M,86.78,KLAS 152016Z 16009G21KT 120V180 10SM SCT080 BKN110 32/09 A2977 RMK AO2 TSB1956E12 TS MOV E P0000 T03220089,M
05U,2023-06-15 20:30,-116.0051,39.6042,1811.23,69.80,28.40,21.24,120.00,8.00,0.00,30.06,M,10.00,13.00,CLR,M,M,M,M,M,M,M,M,M,M,M,M,M,M,69.80,K05U 152030Z AUTO 12008G13KT 10SM CLR 21/M02 A3006 RMK A01,M
BVU,2023-06-15 20:35,-114.8611,35.9475,671.00,93.20,41.00,16.37,150.00,12.00,0.00,29.76,M,10.00,20.00,SCT,M,M,M,11000.00,M,M,M,M,M,M,M,M,M,M,89.03,KBVU 152035Z AUTO 15012G20KT 120V190 10SM SCT110 34/05 A2976 RMK AO2,M
CXP,2023-06-15 20:35,-119.7326,39.1923,1431.00,75.20,39.20,27.26,340.00,5.00,0.00,30.03,M,10.00,13.00,CLR,M,M,M,M,M,M,M,M,M,M,M,M,M,M,75.20,KCXP 152035Z AUTO 34005G13KT 10SM CLR 24/04 A3003 RMK AO2,M
RTS,2023-06-15 20:35,-119.8764,39.6682,1539.00,69.80,35.60,28.39,10.00,8.00,0.00,30.06,M,10.00,15.00,CLR,M,M,M,M,M,M,M,M,M,M,M,M,M,M,69.80,KRTS 152035Z AUTO 01008G15KT 10SM CLR 21/02 A3006 RMK AO2,M
MEV,2023-06-15 20:35,-119.7500,38.9963,1441.42,73.40,41.00,31.05,0.00,0.00,0.00,30.01,M,10.00,10.00,CLR,M,M,M,M,M,M,M,M,M,M,M,M,M,M,73.40,KMEV 152035Z AUTO 00000G10KT 10SM CLR 23/05 A3001 RMK AO2,M
BAM,2023-06-15 20:35,-116.8743,40.5990,1382.36,71.60,30.20,21.50,350.00,10.00,0.00,30.04,M,10.00,16.00,CLR,M,M,M,M,M,M,M,M,M,M,M,M,M,M,71.60,KBAM 152035Z AUTO 35010G16KT 10SM CLR 22/M01 A3004 RMK AO1,M
HTH,2023-06-15 20:35,-118.6315,38.5448,1282.89,75.20,33.80,22.02,320.00,15.00,0.00,30.00,M,10.00,M,CLR,M,M,M,M,M,M,M,M,M,M,M,M,M,M,75.20,KHTH 152035Z AUTO 32015KT 10SM CLR 24/01 A3000 RMK A01,M
TMT,2023-06-15 20:35,-117.1971,39.4643,1749.34,67.80,30.40,24.68,340.00,4.00,0.00,30.06,M,10.00,M,CLR,M,M,M,M,M,M,M,M,M,M,M,M,M,M,67.80,KTMT 152035Z AUTO 34004KT 10SM CLR 20/M01 A3006 RMK AO2 T01991009,M
HND,2023-06-15 20:38,-115.1344,35.9729,742.79,91.40,46.40,21.29,360.00,6.00,T,29.80,M,10.00,M,FEW,M,M,M,4700.00,M,M,M,VCTS,M,M,M,M,M,M,87.86,KHND 152038Z 36006KT 10SM VCTS FEW047 33/08 A2980 RMK AO2 TSE10B32RAB12E31 P0000,M
LAS,2023-06-15 20:39,-115.1634,36.0719,663.00,91.00,45.00,20.45,130.00,5.00,T,29.77,M,10.00,M,FEW,BKN,M,M,8000.00,11000.00,M,M,M,M,M,M,M,M,M,87.35,KLAS 152039Z 13005KT 10SM FEW080 BKN110 33/07 A2977 RMK AO2 LTG DSNT SE AND NW TSB1956E12 TS MOV E P0000 T03280072,M
INS,2023-06-15 20:48,-115.6733,36.5872,955.00,87.80,41.00,19.40,210.00,12.00,0.00,29.80,1004.60,10.00,17.00,BKN,BKN,M,M,10000.00,12000.00,M,M,M,M,M,M,M,M,M,84.30,KINS 152048Z AUTO 21012G17KT 10SM BKN100 BKN120 31/05 A2980 RMK AO2 WSHFT 47 SLP046 $,M
05U,2023-06-15 20:50,-116.0051,39.6042,1811.23,69.80,32.00,24.59,110.00,9.00,0.00,30.06,M,10.00,14.00,CLR,M,M,M,M,M,M,M,M,M,M,M,M,M,M,69.80,K05U 152050Z AUTO 11009G14KT 10SM CLR 21/00 A3006 RMK A01,M
ELY,2023-06-15 20:53,-114.8453,39.2950,1909.00,67.00,36.00,31.87,320.00,12.00,0.00,30.03,1009.00,10.00,17.00,CLR,M,M,M,M,M,M,M,M,M,M,M,M,M,M,66.90,KELY 152053Z AUTO 32012G17KT 10SM CLR 19/02 A3003 RMK AO2 SLP090 T01940022 58001,M
VGT,2023-06-15 20:53,-115.1933,36.2111,667.00,94.00,46.00,19.40,M,4.00,T,29.75,1006.10,10.00,M,CLR,M,M,M,M,M,M,M,M,M,M,M,M,M,M,90.17,KVGT 152053Z VRB04KT 10SM CLR 34/08 A2975 RMK AO2 LTG DSNT SE AND NW RAE1959 SLP061 P0000 60000 T03440078 58017,M
LOL,2023-06-15 20:53,-118.5701,40.0684,1192.43,73.00,28.90,19.45,90.00,9.00,0.00,30.00,1013.00,10.00,M,CLR,M,M,M,M,M,M,M,M,M,M,M,M,M,M,73.00,KLOL 152053Z AUTO 09009KT 10SM CLR 23/M02 A3000 RMK AO2 SLP130 T02281017 58004,M
P68,2023-06-15 20:53,-116.0056,39.6014,1993.00,69.00,33.00,26.32,300.00,10.00,0.00,30.03,1010.60,M,M,M,M,M,M,M,M,M,M,M,M,M,M,M,M,M,69.10,KP68 152053Z AUTO 30010KT 21/01 A3003 RMK AO1 SLP106 T02060006 58004,M
BVU,2023-06-15 20:55,-114.8611,35.9475,671.00,91.40,41.00,17.32,210.00,15.00,0.00,29.75,M,10.00,M,BKN,M,M,M,11000.00,M,M,M,M,M,M,M,M,M,M,87.40,KBVU 152055Z AUTO 21015KT 10SM BKN110 33/05 A2975 RMK AO2,M
CXP,2023-06-15 20:55,-119.7326,39.1923,1431.00,75.20,39.20,27.26,340.00,8.00,0.00,30.02,M,10.00,M,CLR,M,M,M,M,M,M,M,M,M,M,M,M,M,M,75.20,KCXP 152055Z AUTO 34008KT 290V360 10SM CLR 24/04 A3002 RMK AO2,M
RNO,2023-06-15 20:55,-119.7711,39.4839,1341.00,77.00,37.00,23.55,20.00,8.00,0.00,30.01,1011.30,10.00,17.00,FEW,FEW,M,M,7500.00,20000.00,M,M,M,M,M,M,M,M,M,77.00,KRNO 152055Z 02008G17KT 10SM FEW075 FEW200 25/03 A3001 RMK AO2 SLP113 T02500028 58010,M
RTS,2023-06-15 20:55,-119.8764,39.6682,1539.00,69.80,35.60,28.39,20.00,8.00,0.00,30.06,M,10.00,M,CLR,M,M,M,M,M,M,M,M,M,M,M,M,M,M,69.80,KRTS 152055Z AUTO 02008KT 10SM CLR 21/02 A3006 RMK AO2,M
MEV,2023-06-15 20:55,-119.7500,38.9963,1441.42,75.20,39.20,27.26,310.00,4.00,0.00,30.01,M,10.00,12.00,CLR,M,M,M,M,M,M,M,M,M,M,M,M,M,M,75.20,KMEV 152055Z AUTO 31004G12KT 10SM CLR 24/04 A3001 RMK AO2,M
BAM,2023-06-15 20:55,-116.8743,40.5990,1382.36,71.60,28.40,19.98,350.00,9.00,0.00,30.04,M,10.00,15.00,CLR,M,M,M,M,M,M,M,M,M,M,M,M,M,M,71.60,KBAM 152055Z AUTO 35009G15KT 10SM CLR 22/M02 A3004 RMK AO1,M
HTH,2023-06-15 20:55,-118.6315,38.5448,1282.89,75.20,33.80,22.02,320.00,12.00,0.00,29.99,M,10.00,M,CLR,M,M,M,M,M,M,M,M,M,M,M,M,M,M,75.20,KHTH 152055Z AUTO 32012KT 10SM CLR 24/01 A2999 RMK A01,M
TMT,2023-06-15 20:55,-117.1971,39.4643,1749.34,70.00,30.40,22.89,300.00,7.00,0.00,30.06,M,10.00,M,CLR,M,M,M,M,M,M,M,M,M,M,M,M,M,M,70.00,KTMT 152055Z AUTO 30007KT 10SM CLR 21/M01 A3006 RMK AO2 T02111009,M
INS,2023-06-15 20:55,-115.6733,36.5872,955.00,88.30,39.40,17.94,240.00,7.00,0.00,29.80,1004.60,10.00,17.00,BKN,BKN,M,M,10000.00,12000.00,M,M,M,M,M,M,M,M,M,84.64,KINS 152055Z AUTO 24007G17KT 10SM BKN100 BKN120 31/04 A2980 RMK AO2 SLP046 T03130041 57016 $,M
LSV,2023-06-15 20:55,-115.0343,36.2362,570.00,99.00,44.80,15.86,190.00,5.00,0.00,29.71,1003.30,10.00,M,FEW,M,M,M,17000.00,M,M,M,M,M,M,M,M,M,M,94.97,KLSV 152055Z AUTO 19005KT 10SM FEW170 37/07 A2971 RMK AO2 SLP033 T03720071 58017 $,M
WMC,2023-06-15 20:56,-117.8072,40.9019,1315.00,70.00,14.00,11.46,0.00,0.00,0.00,30.05,1014.50,10.00,M,CLR,M,M,M,M,M,M,M,M,M,M,M,M,M,M,70.00,KWMC 152056Z AUTO 00000KT 10SM CLR 21/M10 A3005 RMK AO2 SLP145 T02111100 58002,M
NFL,2023-06-15 20:56,-118.7010,39.4166,1199.00,76.00,30.00,18.46,310.00,6.00,0.00,29.99,1012.70,10.00,M,FEW,SCT,SCT,BKN,7000.00,15000.00,18000.00,22000.00,M,M,M,M,M,M,M,75.90,KNFL 152056Z 31006KT 10SM FEW070 SCT150 SCT180 BKN220 24/M01 A2999 RMK AO2 SLP127 T02441011 58009,M
HND,2023-06-15 20:56,-115.1344,35.9729,742.79,91.00,45.00,20.45,M,3.00,T,29.79,1007.30,10.00,M,CLR,M,M,M,M,M,M,M,VCTS,M,M,M,M,M,M,87.35,KHND 152056Z VRB03KT 10SM VCTS CLR 33/07 A2979 RMK AO2 TSE10B32RAB12E31 SLP073 P0000 60000 T03280072 58016,M
TPH,2023-06-15 20:56,-117.0904,38.0505,1654.00,77.00,M,M,340.00,14.00,0.00,30.00,1009.10,10.00,24.00,CLR,M,M,M,M,M,M,M,M,M,M,M,28.00,310.00,2023-06-15 20:08,M,KTPH 152056Z AUTO 34014G24KT 10SM CLR 25/ A3000 RMK AO2 PK WND 31028/2008 SLP091 6//// T0250 58004 PWINO PNO $,M
LAS,2023-06-15 20:56,-115.1634,36.0719,663.00,93.00,45.00,19.21,0.00,0.00,T,29.76,1004.80,10.00,M,FEW,BKN,M,M,8000.00,11000.00,M,M,M,M,M,M,M,M,M,89.20,KLAS 152056Z 00000KT 10SM FEW080 BKN110 34/07 A2976 RMK AO2 LTG DSNT SE AND NW SLP048 TSB1956E12 TS MOV E P0000 60000 T03390072 58017,M
EKO,2023-06-15 20:56,-115.7860,40.8242,1367.00,68.00,22.00,17.31,M,4.08,M,30.02,1013.00,10.00,M,CLR,M,M,M,M,M,M,M,M,M,M,M,M,M,M,68.00,METAR KEKO 152056Z VRB04KT 10SM CLR 20/M06 A3002 RMK AO2 SLP130 T02001056 50001 TSNO FIBI,M
HND,2023-06-15 21:03,-115.1344,35.9729,742.79,93.20,46.40,20.13,M,5.00,0.00,29.79,M,10.00,M,CLR,M,M,M,M,M,M,M,M,M,M,M,M,M,M,89.55,KHND 152103Z VRB05KT 10SM CLR 34/08 A2979 RMK AO2 TSE2057,M
05U,2023-06-15 21:10,-116.0051,39.6042,1811.23,69.80,32.00,24.59,60.00,10.00,0.00,30.05,M,10.00,16.00,CLR,M,M,M,M,M,M,M,M,M,M,M,M,M,M,69.80,K05U 152110Z AUTO 06010G16KT 360V110 10SM CLR 21/M00 A3005 RMK A01,M
TPH,2023-06-15 21:11,-117.0904,38.0505,1654.00,78.00,M,M,320.00,12.00,0.00,30.00,M,10.00,M,FEW,M,M,M,100.00,M,M,M,M,M,M,M,M,M,M,M,KTPH 152111Z AUTO 32012KT 10SM FEW001 26/ A3000 RMK AO2 T0256 PWINO PNO $,M
BVU,2023-06-15 21:15,-114.8611,35.9475,671.00,91.40,44.60,19.89,320.00,8.00,0.00,29.75,M,10.00,M,SCT,M,M,M,11000.00,M,M,M,M,M,M,M,M,M,M,87.68,KBVU 152115Z AUTO 32008KT 10SM SCT110 33/07 A2975 RMK AO2,M
CXP,2023-06-15 21:15,-119.7326,39.1923,1431.00,75.20,39.20,27.26,M,4.00,0.00,30.02,M,10.00,M,CLR,M,M,M,M,M,M,M,M,M,M,M,M,M,M,75.20,KCXP 152115Z AUTO VRB04KT 10SM CLR 24/04 A3002 RMK AO2,M
RTS,2023-06-15 21:15,-119.8764,39.6682,1539.00,71.60,35.60,26.71,40.00,6.00,0.00,30.05,M,10.00,M,CLR,M,M,M,M,M,M,M,M,M,M,M,M,M,M,71.60,KRTS 152115Z AUTO 04006KT 10SM CLR 22/02 A3005 RMK AO2,M
MEV,2023-06-15 21:15,-119.7500,38.9963,1441.42,77.00,41.00,27.53,40.00,6.00,0.00,30.01,M,10.00,M,CLR,M,M,M,M,M,M,M,M,M,M,M,M,M,M,77.00,KMEV 152115Z AUTO 04006KT 10SM CLR 25/05 A3001 RMK AO2,M
BAM,2023-06-15 21:15,-116.8743,40.5990,1382.36,71.60,26.60,18.55,330.00,11.00,0.00,30.04,M,10.00,16.00,CLR,M,M,M,M,M,M,M,M,M,M,M,M,M,M,71.60,KBAM 152115Z AUTO 33011G16KT 10SM CLR 22/M03 A3004 RMK AO1,M
HTH,2023-06-15 21:15,-118.6315,38.5448,1282.89,75.20,33.80,22.02,320.00,14.00,0.00,29.99,M,10.00,M,CLR,M,M,M,M,M,M,M,M,M,M,M,M,M,M,75.20,KHTH 152115Z AUTO 32014KT 10SM CLR 24/01 A2999 RMK A01,M
TMT,2023-06-15 21:15,-117.1971,39.4643,1749.34,69.80,29.10,21.86,320.00,7.00,0.00,30.05,M,10.00,M,CLR,M,M,M,M,M,M,M,M,M,M,M,M,M,M,69.80,KTMT 152115Z AUTO 32007KT 10SM CLR 21/M02 A3005 RMK AO2 T02101016,M
05U,2023-06-15 21:30,-116.0051,39.6042,1811.23,71.60,32.00,23.13,100.00,8.00,0.00,30.06,M,10.00,19.00,CLR,M,M,M,M,M,M,M,M,M,M,M,M,M,M,71.60,K05U 152130Z AUTO 10008G19KT 10SM CLR 22/00 A3006 RMK A01,M
BVU,2023-06-15 21:35,-114.8611,35.9475,671.00,93.20,41.00,16.37,M,5.00,0.00,29.74,M,10.00,12.00,CLR,M,M,M,M,M,M,M,M,M,M,M,M,M,M,89.03,KBVU 152135Z AUTO VRB05G12KT 10SM CLR 34/05 A2974 RMK AO2,M
CXP,2023-06-15 21:35,-119.7326,39.1923,1431.00,77.00,39.20,25.67,0.00,0.00,0.00,30.02,M,10.00,M,CLR,M,M,M,M,M,M,M,M,M,M,M,M,M,M,77.00,KCXP 152135Z AUTO 00000KT 10SM CLR 25/04 A3002 RMK AO2,M
RTS,2023-06-15 21:35,-119.8764,39.6682,1539.00,71.60,33.80,24.86,M,3.00,0.00,30.05,M,10.00,13.00,CLR,M,M,M,M,M,M,M,M,M,M,M,M,M,M,71.60,KRTS 152135Z AUTO VRB03G13KT 10SM CLR 22/01 A3005 RMK AO2,M
MEV,2023-06-15 21:35,-119.7500,38.9963,1441.42,77.00,41.00,27.53,M,4.00,0.00,30.00,M,10.00,10.00,CLR,M,M,M,M,M,M,M,M,M,M,M,M,M,M,77.00,KMEV 152135Z AUTO VRB04G10KT 10SM CLR 25/05 A3000 RMK AO2,M
BAM,2023-06-15 21:35,-116.8743,40.5990,1382.36,73.40,26.60,17.46,330.00,13.00,0.00,30.04,M,10.00,M,CLR,M,M,M,M,M,M,M,M,M,M,M,M,M,M,73.40,KBAM 152135Z AUTO 33013KT 10SM CLR 23/M03 A3004 RMK AO1,M
HTH,2023-06-15 21:35,-118.6315,38.5448,1282.89,77.00,33.80,20.74,320.00,13.00,0.00,29.99,M,10.00,M,CLR,M,M,M,M,M,M,M,M,M,M,M,M,M,M,77.00,KHTH 152135Z AUTO 32013KT 10SM CLR 25/01 A2999 RMK A01,M
TMT,2023-06-15 21:35,-117.1971,39.4643,1749.34,70.50,31.50,23.53,340.00,6.00,0.00,30.05,M,10.00,M,CLR,M,M,M,M,M,M,M,M,M,M,M,M,M,M,70.50,KTMT 152135Z AUTO 34006KT 10SM CLR 21/00 A3005 RMK AO2 T02141003,M
05U,2023-06-15 21:50,-116.0051,39.6042,1811.23,71.60,32.00,23.13,110.00,9.00,0.00,30.06,M,10.00,14.00,CLR,M,M,M,M,M,M,M,M,M,M,M,M,M,M,71.60,K05U 152150Z AUTO 11009G14KT 10SM CLR 22/00 A3006 RMK A01,M
VGT,2023-06-15 21:53,-115.1933,36.2111,667.00,94.00,45.00,18.68,190.00,8.00,0.00,29.73,1005.50,10.00,M,CLR,M,M,M,M,M,M,M,M,M,M,M,M,M,M,90.05,KVGT 152153Z 19008KT 10SM CLR 34/07 A2973 RMK AO2 SLP055 T03440072,M
LOL,2023-06-15 21:53,-118.5701,40.0684,1192.43,71.00,28.90,20.74,M,3.00,0.00,30.00,1013.30,10.00,M,CLR,M,M,M,M,M,M,M,M,M,M,M,M,M,M,71.10,KLOL 152153Z AUTO VRB03KT 10SM CLR 22/M02 A3000 RMK AO2 SLP133 T02171017,M
P68,2023-06-15 21:53,-116.0056,39.6014,1993.00,70.00,33.00,25.53,290.00,10.00,0.00,30.03,1010.50,M,19.00,M,M,M,M,M,M,M,M,M,M,M,M,M,M,M,70.00,KP68 152153Z AUTO 29010G19KT 21/01 A3003 RMK AO1 SLP105 T02110006,M
ELY,2023-06-15 21:53,-114.8453,39.2950,1909.00,69.00,35.00,28.51,340.00,9.00,0.00,30.02,1008.70,10.00,19.00,CLR,M,M,M,M,M,M,M,M,M,M,M,M,M,M,69.10,KELY 152153Z AUTO 34009G19KT 10SM CLR 21/02 A3002 RMK AO2 SLP087 T02060017,M
BVU,2023-06-15 21:55,-114.8611,35.9475,671.00,93.20,41.00,16.37,170.00,11.00,0.00,29.73,M,10.00,19.00,CLR,M,M,M,M,M,M,M,M,M,M,M,M,M,M,89.03,KBVU 152155Z AUTO 17011G19KT 10SM CLR 34/05 A2973 RMK AO2,M
CXP,2023-06-15 21:55,-119.7326,39.1923,1431.00,78.80,39.20,24.19,310.00,6.00,0.00,30.01,M,10.00,12.00,CLR,M,M,M,M,M,M,M,M,M,M,M,M,M,M,78.80,KCXP 152155Z AUTO 31006G12KT 10SM CLR 26/04 A3001 RMK AO2,M
RNO,2023-06-15 21:55,-119.7711,39.4839,1341.00,79.00,36.00,21.19,M,4.00,0.00,29.99,1010.50,10.00,M,FEW,FEW,M,M,9000.00,20000.00,M,M,M,M,M,M,M,M,M,79.00,KRNO 152155Z VRB04KT 10SM FEW090 FEW200 26/02 A2999 RMK AO2 SLP105 T02610022,M
RTS,2023-06-15 21:55,-119.8764,39.6682,1539.00,71.60,32.00,23.13,M,5.00,0.00,30.05,M,10.00,12.00,CLR,M,M,M,M,M,M,M,M,M,M,M,M,M,M,71.60,KRTS 152155Z AUTO VRB05G12KT 10SM CLR 22/00 A3005 RMK AO2,M
MEV,2023-06-15 21:55,-119.7500,38.9963,1441.42,75.20,39.20,27.26,0.00,0.00,0.00,30.00,M,10.00,M,CLR,M,M,M,M,M,M,M,M,M,M,M,M,M,M,75.20,KMEV 152155Z AUTO 00000KT 10SM CLR 24/04 A3000 RMK AO2,M
BAM,2023-06-15 21:55,-116.8743,40.5990,1382.36,71.60,23.00,15.97,320.00,9.00,0.00,30.04,M,10.00,15.00,CLR,M,M,M,M,M,M,M,M,M,M,M,M,M,M,71.60,KBAM 152155Z AUTO 32009G15KT 10SM CLR 22/M05 A3004 RMK AO1,M
HTH,2023-06-15 21:55,-118.6315,38.5448,1282.89,77.00,33.80,20.74,330.00,12.00,0.00,29.98,M,10.00,19.00,CLR,M,M,M,M,M,M,M,M,M,M,M,M,M,M,77.00,KHTH 152155Z AUTO 33012G19KT 10SM CLR 25/01 A2998 RMK A01,M
INS,2023-06-15 21:55,-115.6733,36.5872,955.00,87.30,41.20,19.86,230.00,4.00,0.00,29.80,1004.60,10.00,M,BKN,BKN,M,M,10000.00,14000.00,M,M,M,M,M,M,M,M,M,83.90,KINS 152155Z AUTO 23004KT 10SM BKN100 BKN140 31/05 A2980 RMK AO2 SLP046 T03070051 $,M
INS,2023-06-15 21:55,-115.6733,36.5872,955.00,M,M,M,250.00,6.00,M,M,M,M,7.00,M,M,M,M,M,M,M,M,M,M,M,M,M,M,M,M,KINS 152155Z AUTO 25006G07KT RMK T0299 MADISHF,M
LSV,2023-06-15 21:55,-115.0343,36.2362,570.00,97.50,43.70,15.92,160.00,5.00,0.00,29.68,1002.40,10.00,M,FEW,M,M,M,18000.00,M,M,M,M,M,M,M,M,M,M,93.36,KLSV 152155Z AUTO 16005KT 10SM FEW180 36/07 A2968 RMK AO2 SLP024 T03640065 $,M
TMT,2023-06-15 21:55,-117.1971,39.4643,1749.34,71.00,32.00,23.52,340.00,6.00,0.00,30.05,M,10.00,15.00,CLR,M,M,M,M,M,M,M,M,M,M,M,M,M,M,71.10,KTMT 152155Z AUTO 34006G15KT 300V360 10SM CLR 22/00 A3005 RMK AO2 T02170000,M
WMC,2023-06-15 21:56,-117.8072,40.9019,1315.00,73.00,18.00,12.31,360.00,11.00,0.00,30.04,1014.10,10.00,22.00,CLR,M,M,M,M,M,M,M,M,M,M,M,M,M,M,73.00,KWMC 152156Z AUTO 36011G22KT 10SM CLR 23/M08 A3004 RMK AO2 SLP141 T02281078,M
TPH,2023-06-15 21:56,-117.0904,38.0505,1654.00,78.00,M,M,300.00,16.00,0.00,29.99,1009.10,10.00,22.00,CLR,M,M,M,M,M,M,M,M,M,M,M,27.00,330.00,2023-06-15 21:23,M,KTPH 152156Z AUTO 30016G22KT 10SM CLR 26/ A2999 RMK AO2 PK WND 33027/2123 SLP091 T0256 PNO $,M
NFL,2023-06-15 21:56,-118.7010,39.4166,1199.00,77.00,28.90,17.01,300.00,7.00,0.00,29.97,1012.20,10.00,M,FEW,SCT,SCT,BKN,7000.00,12000.00,18000.00,22000.00,M,M,M,M,M,M,M,77.00,KNFL 152156Z COR 30007KT 280V010 10SM FEW070 SCT120 SCT180 BKN220 25/M02 A2997 RMK AO2 SLP122 T02501017,M
HND,2023-06-15 21:56,-115.1344,35.9729,742.79,94.00,44.00,18.05,280.00,7.00,0.00,29.77,1006.50,10.00,M,FEW,M,M,M,11000.00,M,M,M,M,M,M,M,M,M,M,89.95,KHND 152156Z 28007KT 10SM FEW110 34/07 A2977 RMK AO2 TSE2057 SLP065 T03440067,M
LAS,2023-06-15 21:56,-115.1634,36.0719,663.00,94.00,44.00,18.05,240.00,6.00,0.00,29.73,1003.90,10.00,22.00,FEW,BKN,M,M,8000.00,11000.00,M,M,M,M,M,M,M,M,M,89.95,KLAS 152156Z 24006G22KT 10SM FEW080 BKN110 34/07 A2973 RMK AO2 SLP039 T03440067,M
EKO,2023-06-15 21:56,-115.7860,40.8242,1367.00,69.00,26.00,19.77,M,2.92,M,30.03,1013.40,10.00,19.05,CLR,M,M,M,M,M,M,M,M,M,M,M,M,M,M,69.00,METAR KEKO 152156Z VRB03G19KT 10SM CLR 21/M03 A3003 RMK AO2 SLP134 T02061033 TSNO FIBI,M
VGT,2023-06-15 22:09,-115.1933,36.2111,667.00,94.00,45.00,18.68,190.00,8.00,0.00,29.72,M,10.00,M,CLR,M,M,M,M,M,M,M,VCTS,M,M,M,M,M,M,90.05,KVGT 152209Z 19008KT 10SM VCTS CLR 34/07 A2972 RMK AO2 T03440072,M
05U,2023-06-15 22:10,-116.0051,39.6042,1811.23,71.60,33.80,24.86,90.00,11.00,0.00,30.05,M,10.00,16.00,CLR,M,M,M,M,M,M,M,M,M,M,M,M,M,M,71.60,K05U 152210Z AUTO 09011G16KT 10SM CLR 22/01 A3005 RMK A01,M
BVU,2023-06-15 22:15,-114.8611,35.9475,671.00,95.00,41.00,15.49,210.00,9.00,0.00,29.73,M,10.00,16.00,FEW,M,M,M,11000.00,M,M,M,M,M,M,M,M,M,M,90.70,KBVU 152215Z AUTO 21009G16KT 190V250 10SM FEW110 35/05 A2973 RMK AO2,M
CXP,2023-06-15 22:15,-119.7326,39.1923,1431.00,77.00,37.40,23.93,320.00,10.00,0.00,30.01,M,10.00,M,CLR,M,M,M,M,M,M,M,M,M,M,M,M,M,M,77.00,KCXP 152215Z AUTO 32010KT 10SM CLR 25/03 A3001 RMK AO2,M
RTS,2023-06-15 22:15,-119.8764,39.6682,1539.00,71.60,33.80,24.86,340.00,9.00,0.00,30.05,M,10.00,M,CLR,M,M,M,M,M,M,M,M,M,M,M,M,M,M,71.60,KRTS 152215Z AUTO 34009KT 10SM CLR 22/01 A3005 RMK AO2,M
MEV,2023-06-15 22:15,-119.7500,38.9963,1441.42,77.00,39.20,25.67,340.00,5.00,0.00,29.99,M,10.00,M,CLR,M,M,M,M,M,M,M,M,M,M,M,M,M,M,77.00,KMEV 152215Z AUTO 34005KT 10SM CLR 25/04 A2999 RMK AO2,M
BAM,2023-06-15 22:15,-116.8743,40.5990,1382.36,71.60,23.00,15.97,330.00,13.00,0.00,30.04,M,10.00,21.00,CLR,M,M,M,M,M,M,M,M,M,M,M,M,M,M,71.60,KBAM 152215Z AUTO 33013G21KT 10SM CLR 22/M05 A3004 RMK AO1,M
HTH,2023-06-15 22:15,-118.6315,38.5448,1282.89,77.00,33.80,20.74,320.00,11.00,0.00,29.97,M,10.00,19.00,CLR,M,M,M,M,M,M,M,M,M,M,M,M,M,M,77.00,KHTH 152215Z AUTO 32011G19KT 10SM CLR 25/01 A2997 RMK A01,M
TMT,2023-06-15 22:15,-117.1971,39.4643,1749.34,70.50,31.80,23.81,320.00,10.00,0.00,30.05,M,10.00,14.00,CLR,M,M,M,M,M,M,M,M,M,M,M,M,M,M,70.50,KTMT 152215Z AUTO 32010G14KT 10SM CLR 21/00 A3005 RMK AO2 T02141001,M
VGT,2023-06-15 22:24,-115.1933,36.2111,667.00,94.00,44.00,18.05,200.00,10.00,0.00,29.72,M,10.00,M,CLR,M,M,M,M,M,M,M,M,M,M,M,M,M,M,89.95,KVGT 152224Z 20010KT 10SM CLR 34/07 A2972 RMK AO2 T03440067,M
05U,2023-06-15 22:30,-116.0051,39.6042,1811.23,71.60,32.00,23.13,70.00,7.00,0.00,30.05,M,10.00,14.00,CLR,M,M,M,M,M,M,M,M,M,M,M,M,M,M,71.60,K05U 152230Z AUTO 07007G14KT 010V130 10SM CLR 22/M00 A3005 RMK A01,M
BVU,2023-06-15 22:35,-114.8611,35.9475,671.00,95.00,41.00,15.49,240.00,14.00,0.00,29.72,M,10.00,22.00,SCT,M,M,M,11000.00,M,M,M,M,M,M,M,M,M,M,90.70,KBVU 152235Z AUTO 24014G22KT 10SM SCT110 35/05 A2972 RMK AO2,M
CXP,2023-06-15 22:35,-119.7326,39.1923,1431.00,77.00,37.40,23.93,310.00,6.00,0.00,30.00,M,10.00,11.00,CLR,M,M,M,M,M,M,M,M,M,M,M,M,M,M,77.00,KCXP 152235Z AUTO 31006G11KT 10SM CLR 25/03 A3000 RMK AO2,M
RTS,2023-06-15 22:35,-119.8764,39.6682,1539.00,71.60,30.20,21.50,50.00,5.00,0.00,30.05,M,10.00,15.00,CLR,M,M,M,M,M,M,M,M,M,M,M,M,M,M,71.60,KRTS 152235Z AUTO 05005G15KT 10SM CLR 22/M01 A3005 RMK AO2,M
MEV,2023-06-15 22:35,-119.7500,38.9963,1441.42,77.00,39.20,25.67,320.00,3.00,0.00,29.99,M,10.00,M,CLR,M,M,M,M,M,M,M,M,M,M,M,M,M,M,77.00,KMEV 152235Z AUTO 32003KT 10SM CLR 25/04 A2999 RMK AO2,M
BAM,2023-06-15 22:35,-116.8743,40.5990,1382.36,73.40,23.00,15.03,320.00,10.00,0.00,30.03,M,10.00,18.00,CLR,M,M,M,M,M,M,M,M,M,M,M,M,M,M,73.40,KBAM 152235Z AUTO 32010G18KT 10SM CLR 23/M05 A3003 RMK AO1,M
HTH,2023-06-15 22:35,-118.6315,38.5448,1282.89,77.00,33.80,20.74,350.00,10.00,0.00,29.97,M,10.00,20.00,CLR,M,M,M,M,M,M,M,M,M,M,M,M,M,M,77.00,KHTH 152235Z AUTO 35010G20KT 10SM CLR 25/01 A2997 RMK A01,M
TMT,2023-06-15 22:35,-117.1971,39.4643,1749.34,70.70,30.70,22.62,350.00,8.00,0.00,30.04,M,10.00,15.00,CLR,M,M,M,M,M,M,M,M,M,M,M,M,M,M,70.70,KTMT 152235Z AUTO 35008G15KT 10SM CLR 22/M01 A3004 RMK AO2 LTG DSNT SE T02151007,M
05U,2023-06-15 22:50,-116.0051,39.6042,1811.23,71.60,30.20,21.50,120.00,13.00,0.00,30.05,M,10.00,M,CLR,M,M,M,M,M,M,M,M,M,M,M,M,M,M,71.60,K05U 152250Z AUTO 12013KT 10SM CLR 22/M01 A3005 RMK A01,M
ELY,2023-06-15 22:53,-114.8453,39.2950,1909.00,70.00,39.00,32.24,320.00,9.00,0.00,30.02,1008.20,10.00,17.00,FEW,M,M,M,8500.00,M,M,M,M,M,M,M,M,M,M,70.00,KELY 152253Z AUTO 32009G17KT 280V020 10SM FEW085 21/04 A3002 RMK AO2 SLP082 T02110039,M
VGT,2023-06-15 22:53,-115.1933,36.2111,667.00,95.00,45.00,18.06,220.00,10.00,0.00,29.70,1004.40,10.00,M,CLR,M,M,M,M,M,M,M,M,M,M,M,M,M,M,91.10,KVGT 152253Z 22010KT 10SM CLR 35/07 A2970 RMK AO2 SLP044 T03500072,M
LOL,2023-06-15 22:53,-118.5701,40.0684,1192.43,75.00,25.00,15.48,20.00,6.00,0.00,29.99,1012.70,10.00,M,CLR,M,M,M,M,M,M,M,M,M,M,M,M,M,M,75.00,KLOL 152253Z AUTO 02006KT 10SM CLR 24/M04 A2999 RMK AO2 SLP127 T02391039,M
P68,2023-06-15 22:53,-116.0056,39.6014,1993.00,71.00,30.90,22.50,310.00,13.00,0.00,30.02,1010.30,M,20.00,M,M,M,M,M,M,M,M,M,M,M,M,M,M,M,71.10,KP68 152253Z AUTO 31013G20KT 22/M01 A3002 RMK AO1 SLP103 T02171006,M
BVU,2023-06-15 22:55,-114.8611,35.9475,671.00,93.20,41.00,16.37,M,4.00,0.00,29.72,M,10.00,16.00,FEW,M,M,M,12000.00,M,M,M,M,M,M,M,M,M,M,89.03,KBVU 152255Z AUTO VRB04G16KT 10SM FEW120 34/05 A2972 RMK AO2 LTG DSNT NE,M
CXP,2023-06-15 22:55,-119.7326,39.1923,1431.00,77.00,37.40,23.93,330.00,9.00,0.00,30.00,M,10.00,M,CLR,M,M,M,M,M,M,M,M,M,M,M,M,M,M,77.00,KCXP 152255Z AUTO 33009KT 310V020 10SM CLR 25/03 A3000 RMK AO2,M
RTS,2023-06-15 22:55,-119.8764,39.6682,1539.00,73.40,33.80,23.39,60.00,12.00,0.00,30.04,M,10.00,M,CLR,M,M,M,M,M,M,M,M,M,M,M,M,M,M,73.40,KRTS 152255Z AUTO 06012KT 10SM CLR 23/01 A3004 RMK AO2,M
MEV,2023-06-15 22:55,-119.7500,38.9963,1441.42,77.00,39.20,25.67,310.00,5.00,0.00,29.98,M,10.00,M,CLR,M,M,M,M,M,M,M,M,M,M,M,M,M,M,77.00,KMEV 152255Z AUTO 31005KT 10SM CLR 25/04 A2998 RMK AO2,M
BAM,2023-06-15 22:55,-116.8743,40.5990,1382.36,73.40,23.00,15.03,350.00,10.00,0.00,30.03,M,10.00,M,CLR,M,M,M,M,M,M,M,M,M,M,M,M,M,M,73.40,KBAM 152255Z AUTO 35010KT 10SM CLR 23/M05 A3003 RMK AO1,M
HTH,2023-06-15 22:55,-118.6315,38.5448,1282.89,78.80,33.80,19.55,330.00,13.00,0.00,29.96,M,10.00,M,CLR,M,M,M,M,M,M,M,M,M,M,M,M,M,M,78.80,KHTH 152255Z AUTO 33013KT 10SM CLR 26/01 A2996 RMK A01,M
INS,2023-06-15 22:55,-115.6733,36.5872,955.00,89.00,42.60,19.93,90.00,13.00,0.00,29.77,1003.50,10.00,M,BKN,M,M,M,10000.00,M,M,M,M,M,M,M,M,M,M,85.31,KINS 152255Z AUTO 09013KT 10SM BKN100 32/06 A2977 RMK AO2 SLP035 T03160059 $,M
LSV,2023-06-15 22:55,-115.0343,36.2362,570.00,94.60,44.40,17.87,180.00,5.00,0.00,29.66,1001.80,10.00,M,FEW,M,M,M,17000.00,M,M,M,M,M,M,M,M,M,M,90.65,KLSV 152255Z AUTO 18005KT 10SM FEW170 35/07 A2966 RMK AO2 SLP018 T03480069 $,M
TMT,2023-06-15 22:55,-117.1971,39.4643,1749.34,71.00,30.40,22.05,310.00,7.00,0.00,30.03,M,10.00,15.00,CLR,M,M,M,M,M,M,M,M,M,M,M,M,M,M,71.10,KTMT 152255Z AUTO 31007G15KT 10SM CLR 22/M01 A3003 RMK AO2 T02171009,M
RNO,2023-06-15 22:55,-119.7711,39.4839,1341.00,80.00,33.00,18.21,10.00,12.00,0.00,29.98,1010.30,10.00,18.00,FEW,FEW,M,M,10000.00,25000.00,M,M,M,M,M,M,M,M,M,78.67,KRNO 152255Z 01012G18KT 10SM FEW100 FEW250 27/01 A2998 RMK AO2 SLP103 CCSL SE THRU S T02670006,M
EKO,2023-06-15 22:56,-115.7860,40.8242,1367.00,70.00,26.00,19.11,310.00,8.94,M,30.02,1013.20,10.00,M,CLR,M,M,M,M,M,M,M,M,M,M,M,M,M,M,70.00,METAR KEKO 152256Z 31009KT 10SM CLR 21/M03 A3002 RMK AO2 SLP132 T02111033 TSNO FIBI,M
HND,2023-06-15 22:56,-115.1344,35.9729,742.79,93.00,43.00,17.80,M,4.00,0.00,29.75,1005.80,10.00,M,CLR,M,M,M,M,M,M,M,M,M,M,M,M,M,M,89.00,KHND 152256Z VRB04KT 10SM CLR 34/06 A2975 RMK AO2 SLP058 T03390061,M
TPH,2023-06-15 22:56,-117.0904,38.0505,1654.00,75.00,30.90,19.73,M,M,0.00,29.99,1009.40,M,M,M,M,M,M,M,M,M,M,M,M,M,M,28.00,300.00,2023-06-15 22:23,75.00,KTPH 152256Z AUTO 24/M01 A2999 RMK AO2 PK WND 30028/2223 SLP094 T02391006 PWINO PNO $,M
WMC,2023-06-15 22:56,-117.8072,40.9019,1315.00,74.00,18.00,11.95,360.00,9.00,0.00,30.03,1013.80,10.00,M,CLR,M,M,M,M,M,M,M,M,M,M,M,M,M,M,73.90,KWMC 152256Z AUTO 36009KT 10SM CLR 23/M08 A3003 RMK AO2 SLP138 T02331078,M
NFL,2023-06-15 22:56,-118.7010,39.4166,1199.00,80.00,28.00,14.81,40.00,14.00,0.00,29.97,1011.90,10.00,21.00,FEW,SCT,SCT,BKN,8000.00,12000.00,18000.00,22000.00,M,M,M,M,M,M,M,78.51,KNFL 152256Z 04014G21KT 10SM FEW080 SCT120 SCT180 BKN220 27/M02 A2997 RMK AO2 SLP119 T02671022,M
LAS,2023-06-15 22:56,-115.1634,36.0719,663.00,94.00,42.00,16.72,M,M,0.00,29.71,1003.20,10.00,M,FEW,BKN,M,M,8000.00,11000.00,M,M,M,M,M,M,M,M,M,89.76,KLAS 152256Z 10SM FEW080 BKN110 34/06 A2971 RMK AO2 SLP032 T03440056,M
LAS,2023-06-15 22:58,-115.1634,36.0719,663.00,94.00,42.00,16.72,240.00,6.00,0.00,29.71,M,10.00,15.00,FEW,SCT,BKN,M,8000.00,11000.00,15000.00,M,M,M,M,M,M,M,M,89.76,KLAS 152258Z 24006G15KT 10SM FEW080 SCT110 BKN150 34/06 A2971 RMK AO2 T03440056,M
05U,2023-06-15 23:10,-116.0051,39.6042,1811.23,71.60,30.20,21.50,150.00,8.00,0.00,30.05,M,10.00,18.00,CLR,M,M,M,M,M,M,M,M,M,M,M,M,M,M,71.60,K05U 152310Z AUTO 15008G18KT 10SM CLR 22/M01 A3005 RMK A01,M
BVU,2023-06-15 23:15,-114.8611,35.9475,671.00,93.20,41.00,16.37,160.00,17.00,0.00,29.71,M,10.00,24.00,BKN,M,M,M,12000.00,M,M,M,M,M,M,M,M,M,M,89.03,KBVU 152315Z AUTO 16017G24KT 10SM BKN120 34/05 A2971 RMK AO2,M
CXP,2023-06-15 23:15,-119.7326,39.1923,1431.00,78.80,37.40,22.54,320.00,7.00,0.00,30.00,M,10.00,13.00,CLR,M,M,M,M,M,M,M,M,M,M,M,M,M,M,78.80,KCXP 152315Z AUTO 32007G13KT 300V360 10SM CLR 26/03 A3000 RMK AO2,M
RTS,2023-06-15 23:15,-119.8764,39.6682,1539.00,73.40,32.00,21.76,40.00,11.00,0.00,30.04,M,10.00,M,CLR,M,M,M,M,M,M,M,M,M,M,M,M,M,M,73.40,KRTS 152315Z AUTO 04011KT 10SM CLR 23/M00 A3004 RMK AO2,M
MEV,2023-06-15 23:15,-119.7500,38.9963,1441.42,77.00,37.40,23.93,0.00,0.00,0.00,29.98,M,10.00,11.00,CLR,M,M,M,M,M,M,M,M,M,M,M,M,M,M,77.00,KMEV 152315Z AUTO 00000G11KT 10SM CLR 25/03 A2998 RMK AO2,M
BAM,2023-06-15 23:15,-116.8743,40.5990,1382.36,73.40,24.80,16.20,350.00,13.00,0.00,30.03,M,10.00,18.00,CLR,M,M,M,M,M,M,M,M,M,M,M,M,M,M,73.40,KBAM 152315Z AUTO 35013G18KT 10SM CLR 23/M04 A3003 RMK AO1,M
HTH,2023-06-15 23:15,-118.6315,38.5448,1282.89,78.80,33.80,19.55,330.00,16.00,0.00,29.96,M,10.00,M,CLR,M,M,M,M,M,M,M,M,M,M,M,M,M,M,78.80,KHTH 152315Z AUTO 33016KT 290V350 10SM CLR 26/01 A2996 RMK A01,M
TMT,2023-06-15 23:15,-117.1971,39.4643,1749.34,71.60,29.80,21.15,300.00,8.00,0.00,30.04,M,10.00,M,CLR,M,M,M,M,M,M,M,M,M,M,M,M,M,M,71.60,KTMT 152315Z AUTO 30008KT 10SM CLR 22/M01 A3004 RMK AO2 T02201012,M
05U,2023-06-15 23:30,-116.0051,39.6042,1811.23,71.60,28.40,19.98,130.00,7.00,0.00,30.05,M,10.00,21.00,CLR,M,M,M,M,M,M,M,M,M,M,M,M,M,M,71.60,K05U 152330Z AUTO 13007G21KT 10SM CLR 22/M02 A3005 RMK A01,M
BVU,2023-06-15 23:35,-114.8611,35.9475,671.00,93.20,41.00,16.37,160.00,18.00,0.00,29.70,M,10.00,M,BKN,M,M,M,12000.00,M,M,M,M,M,M,M,M,M,M,89.03,KBVU 152335Z AUTO 16018KT 10SM BKN120 34/05 A2970 RMK AO2,M
CXP,2023-06-15 23:35,-119.7326,39.1923,1431.00,78.80,37.40,22.54,10.00,7.00,0.00,30.00,M,10.00,13.00,CLR,M,M,M,M,M,M,M,M,M,M,M,M,M,M,78.80,KCXP 152335Z AUTO 01007G13KT 330V030 10SM CLR 26/03 A3000 RMK AO2,M
RTS,2023-06-15 23:35,-119.8764,39.6682,1539.00,71.60,30.20,21.50,70.00,7.00,0.00,30.04,M,10.00,13.00,CLR,M,M,M,M,M,M,M,M,M,M,M,M,M,M,71.60,KRTS 152335Z AUTO 07007G13KT 10SM CLR 22/M01 A3004 RMK AO2,M
MEV,2023-06-15 23:35,-119.7500,38.9963,1441.42,77.00,37.40,23.93,M,6.00,0.00,29.98,M,10.00,12.00,CLR,M,M,M,M,M,M,M,M,M,M,M,M,M,M,77.00,KMEV 152335Z AUTO VRB06G12KT 10SM CLR 25/03 A2998 RMK AO2,M
BAM,2023-06-15 23:35,-116.8743,40.5990,1382.36,73.40,23.00,15.03,350.00,11.00,0.00,30.03,M,10.00,22.00,CLR,M,M,M,M,M,M,M,M,M,M,M,M,M,M,73.40,KBAM 152335Z AUTO 35011G22KT 10SM CLR 23/M05 A3003 RMK AO1,M
HTH,2023-06-15 23:35,-118.6315,38.5448,1282.89,78.80,33.80,19.55,320.00,14.00,0.00,29.96,M,10.00,20.00,CLR,M,M,M,M,M,M,M,M,M,M,M,M,M,M,78.80,KHTH 152335Z AUTO 32014G20KT 10SM CLR 26/01 A2996 RMK A01,M
TMT,2023-06-15 23:35,-117.1971,39.4643,1749.34,70.20,28.00,20.61,330.00,6.00,0.00,30.04,M,10.00,M,CLR,M,M,M,M,M,M,M,M,M,M,M,M,M,M,70.20,KTMT 152335Z AUTO 33006KT 10SM CLR 21/M02 A3004 RMK AO2 T02121022,M
05U,2023-06-15 23:50,-116.0051,39.6042,1811.23,71.60,28.40,19.98,100.00,9.00,0.00,30.05,M,10.00,15.00,CLR,M,M,M,M,M,M,M,M,M,M,M,M,M,M,71.60,K05U 152350Z AUTO 10009G15KT 360V160 10SM CLR 22/M02 A3005 RMK A01,M
P68,2023-06-15 23:53,-116.0056,39.6014,1993.00,70.00,27.00,19.92,360.00,9.00,0.00,30.02,1010.80,M,19.00,M,M,M,M,M,M,M,M,M,M,M,M,M,M,M,70.00,KP68 152353Z AUTO 36009G19KT 21/M03 A3002 RMK AO1 SLP108 T02111028 10217 20167 55001,M
ELY,2023-06-15 23:53,-114.8453,39.2950,1909.00,70.00,36.00,28.65,340.00,11.00,0.00,30.02,1008.70,10.00,22.00,FEW,M,M,M,10000.00,M,M,M,M,M,M,M,M,M,M,70.00,KELY 152353Z AUTO 34011G22KT 10SM FEW100 21/02 A3002 RMK AO2 SLP087 T02110022 10211 20178 55002,M
VGT,2023-06-15 23:53,-115.1933,36.2111,667.00,95.00,45.00,18.06,0.00,0.00,0.00,29.69,1004.30,10.00,M,SCT,M,M,M,11000.00,M,M,M,M,M,M,M,M,M,M,91.10,KVGT 152353Z 00000KT 10SM SCT110 35/07 A2969 RMK AO2 SLP043 60000 T03500072 10356 20311 56018,M
LOL,2023-06-15 23:53,-118.5701,40.0684,1192.43,76.00,17.10,10.75,350.00,14.00,0.00,29.99,1012.40,10.00,21.00,CLR,M,M,M,M,M,M,M,M,M,M,M,M,M,M,75.90,KLOL 152353Z AUTO 35014G21KT 10SM CLR 24/M08 A2999 RMK AO2 SLP124 T02441083 10250 20200 56005,M
BVU,2023-06-15 23:55,-114.8611,35.9475,671.00,91.40,41.00,17.32,120.00,6.00,0.00,29.70,M,10.00,11.00,SCT,M,M,M,12000.00,M,M,M,M,M,M,M,M,M,M,87.40,KBVU 152355Z AUTO 12006G11KT 10SM SCT120 33/05 A2970 RMK AO2 LTG DSNT NE,M
CXP,2023-06-15 23:55,-119.7326,39.1923,1431.00,78.80,37.40,22.54,M,6.00,0.00,30.00,M,10.00,14.00,CLR,M,M,M,M,M,M,M,M,M,M,M,M,M,M,78.80,KCXP 152355Z AUTO VRB06G14KT 10SM CLR 26/03 A3000 RMK AO2,M
INS,2023-06-15 23:55,-115.6733,36.5872,955.00,89.00,42.60,19.93,10.00,14.00,0.00,29.78,1003.90,10.00,19.00,BKN,M,M,M,12000.00,M,M,M,M,M,M,M,M,M,M,85.31,KINS 152355Z AUTO 01014G19KT 10SM BKN120 32/06 A2978 RMK AO2 LTG DSNT N SLP039 T03160059 10321 20289 55005 $,M
RTS,2023-06-15 23:55,-119.8764,39.6682,1539.00,73.40,30.20,20.23,80.00,10.00,0.00,30.04,M,10.00,M,CLR,M,M,M,M,M,M,M,M,M,M,M,M,M,M,73.40,KRTS 152355Z AUTO 08010KT 10SM CLR 23/M01 A3004 RMK AO2,M
MEV,2023-06-15 23:55,-119.7500,38.9963,1441.42,78.80,37.40,22.54,40.00,7.00,0.00,29.98,M,10.00,M,CLR,M,M,M,M,M,M,M,M,M,M,M,M,M,M,78.80,KMEV 152355Z AUTO 04007KT 10SM CLR 26/03 A2998 RMK AO2,M
BAM,2023-06-15 23:55,-116.8743,40.5990,1382.36,73.40,24.80,16.20,340.00,14.00,0.00,30.03,M,10.00,20.00,CLR,M,M,M,M,M,M,M,M,M,M,M,M,M,M,73.40,KBAM 152355Z AUTO 34014G20KT 10SM CLR 23/M04 A3003 RMK AO1,M
HTH,2023-06-15 23:55,-118.6315,38.5448,1282.89,78.80,32.00,18.18,330.00,14.00,0.00,29.96,M,10.00,M,CLR,M,M,M,M,M,M,M,M,M,M,M,M,M,M,78.80,KHTH 152355Z AUTO 33014KT 10SM CLR 26/00 A2996 RMK A01,M
TMT,2023-06-15 23:55,-117.1971,39.4643,1749.34,70.70,30.90,22.81,350.00,11.00,0.00,30.05,M,10.00,15.00,CLR,M,M,M,M,M,M,M,M,M,M,M,M,M,M,70.70,KTMT 152355Z AUTO 35011G15KT 10SM CLR 22/M01 A3005 RMK AO2 LTG DSNT SE T02151006 10221 20174,M
LSV,2023-06-15 23:55,-115.0343,36.2362,570.00,95.00,43.30,16.92,130.00,5.00,0.00,29.65,1001.50,10.00,M,CLR,M,M,M,M,M,M,M,M,M,M,M,M,M,M,90.91,KLSV 152355Z AUTO 13005KT 10SM CLR 35/06 A2965 RMK AO2 SLP015 T03500063 10384 20327 57019 $,M
RNO,2023-06-15 23:55,-119.7711,39.4839,1341.00,78.00,30.90,17.80,40.00,10.00,0.00,29.99,1010.80,10.00,18.00,FEW,SCT,M,M,10000.00,25000.00,M,M,M,M,M,M,M,M,M,78.10,KRNO 152355Z 04010G18KT 10SM FEW100 SCT250 26/M01 A2999 RMK AO2 SLP108 T02561006 10272 20200 55006,M
EKO,2023-06-15 23:56,-115.7860,40.8242,1367.00,70.00,25.00,18.33,320.00,11.08,M,30.02,1013.50,10.00,14.97,CLR,M,M,M,M,M,M,M,M,M,M,M,M,M,M,70.00,METAR KEKO 152356Z 32011G15KT 10SM CLR 21/M04 A3002 RMK AO2 SLP135 T02111039 10217 20183 55000 TSNO FIBI,M
WMC,2023-06-15 23:56,-117.8072,40.9019,1315.00,74.00,16.00,10.96,20.00,10.00,0.00,30.03,1014.00,10.00,17.00,CLR,M,M,M,M,M,M,M,M,M,M,M,M,M,M,73.90,KWMC 152356Z AUTO 02010G17KT 10SM CLR 23/M09 A3003 RMK AO2 SLP140 T02331089 10233 20189 55004,M
NFL,2023-06-15 23:56,-118.7010,39.4166,1199.00,78.00,28.00,15.81,20.00,12.00,0.00,29.97,1012.10,10.00,M,FEW,SCT,SCT,BKN,8000.00,12000.00,18000.00,25000.00,M,M,M,M,M,M,M,78.10,KNFL 152356Z 02012KT 10SM FEW080 SCT120 SCT180 BKN250 26/M02 A2997 RMK AO2 SLP121 T02561022 10267 20217 55006,M
HND,2023-06-15 23:56,-115.1344,35.9729,742.79,95.00,41.00,15.49,220.00,10.00,0.00,29.74,1005.50,10.00,M,SCT,M,M,M,12000.00,M,M,M,M,M,M,M,M,M,M,90.70,KHND 152356Z 22010KT 10SM SCT120 35/05 A2974 RMK AO2 SLP055 60000 T03500050 10356 20294 56017,M
TPH,2023-06-15 23:56,-117.0904,38.0505,1654.00,76.00,28.90,17.65,330.00,13.00,0.00,29.97,1008.80,10.00,25.00,CLR,M,M,M,M,M,M,M,M,M,M,M,26.00,320.00,2023-06-15 23:20,75.90,KTPH 152356Z AUTO 33013G25KT 10SM CLR 24/M02 A2997 RMK AO2 PK WND 32026/2320 SLP088 6//// T02441017 10267 20222 58007,M
LAS,2023-06-15 23:56,-115.1634,36.0719,663.00,94.00,41.00,16.02,210.00,8.00,0.00,29.70,1002.90,10.00,M,FEW,SCT,BKN,M,8000.00,11000.00,15000.00,M,M,M,M,M,M,M,M,89.68,KLAS 152356Z 21008KT 10SM FEW080 SCT110 BKN150 34/05 A2970 RMK AO2 SLP029 60000 T03440050 10356 20300 56018,M
INS,2023-06-15 23:57,-115.6733,36.5872,955.00,87.80,42.80,20.79,350.00,19.00,0.00,29.78,1003.90,10.00,23.00,BKN,M,M,M,12000.00,M,M,M,M,M,M,M,M,M,M,84.40,KINS 152357Z AUTO 35019G23KT 10SM BKN120 31/06 A2978 RMK AO2 WSHFT 54 LTG DSNT N SLP039 $,M
