station,valid,lon,lat,elevation,tmpf,dwpf,relh,drct,sknt,p01i,alti,mslp,vsby,gust,skyc1,skyc2,skyc3,skyc4,skyl1,skyl2,skyl3,skyl4,wxcodes,ice_accretion_1hr,ice_accretion_3hr,ice_accretion_6hr,peak_wind_gust,peak_wind_drct,peak_wind_time,feel,metar,snowdepth
INS,2022-08-02 00:08,-115.6733,36.5872,955.00,87.80,62.60,43.07,340.00,5.00,0.00,30.00,1011.10,10.00,M,BKN,BKN,BKN,OVC,8000.00,12000.00,16000.00,20000.00,-RA,M,M,M,M,M,M,88.48,KINS 020008Z AUTO 34005KT 10SM -RA BKN080 BKN120 BKN160 OVC200 31/17 A3000 RMK AO2 DZE2358RAB2358 SLP111,M
INS,2022-08-02 00:10,-115.6733,36.5872,955.00,89.60,64.40,43.34,340.00,6.00,0.00,30.00,1010.90,10.00,M,BKN,BKN,BKN,OVC,8000.00,12000.00,16000.00,20000.00,M,M,M,M,M,M,M,91.23,KINS 020010Z AUTO 34006KT 10SM BKN080 BKN120 BKN160 OVC200 32/18 A3000 RMK AO2 DZE2358RAB2358E10 SLP109,M
CXP,2022-08-02 00:10,-119.7326,39.1923,1431.00,80.60,50.00,34.41,280.00,7.00,0.00,30.15,M,10.00,16.00,FEW,SCT,M,M,9000.00,12000.00,M,M,M,M,M,M,M,M,M,79.88,KCXP 020010Z AUTO 28007G16KT 10SM FEW090 SCT120 27/10 A3015 RMK AO2,M
TPH,2022-08-02 00:12,-117.0904,38.0505,1654.00,74.00,61.00,64.07,190.00,7.00,0.00,30.19,M,10.00,M,BKN,BKN,OVC,M,5500.00,7000.00,9000.00,M,M,M,M,M,M,M,M,73.90,KTPH 020012Z AUTO 19007KT 10SM BKN055 BKN070 OVC090 23/16 A3019 RMK AO2 LTG DSNT N AND NW T02330161,M
BAM,2022-08-02 00:15,-116.8743,40.5990,1382.36,86.00,48.20,27.03,150.00,6.00,0.00,30.09,M,10.00,15.00,CLR,M,M,M,M,M,M,M,M,M,M,M,M,M,M,83.40,KBAM 020015Z AUTO 15006G15KT 10SM CLR 30/09 A3009 RMK AO1,M
HTH,2022-08-02 00:15,-118.6315,38.5448,1282.89,84.20,51.80,32.73,0.00,0.00,0.00,30.10,M,10.00,11.00,CLR,M,M,M,M,M,M,M,M,M,M,M,M,M,M,82.48,KHTH 020015Z AUTO 00000G11KT 10SM CLR 29/11 A3010 RMK A01,M
05U,2022-08-02 00:15,-116.0051,39.6042,1811.23,M,M,M,M,M,0.00,M,M,M,M,M,M,M,M,M,M,M,M,M,M,M,M,M,M,M,M,K05U 020015Z AUTO RMK A01 PNO,M
BVU,2022-08-02 00:15,-114.8611,35.9475,671.00,86.00,64.40,48.58,190.00,7.00,0.00,29.98,M,M,M,M,M,M,M,M,M,M,M,M,M,M,M,M,M,M,87.49,KBVU 020015Z AUTO 19007KT 30/18 A2998 RMK AO2 PWINO TSNO,M
TMT,2022-08-02 00:15,-117.1971,39.4643,1749.34,M,M,M,220.00,6.00,0.00,30.20,M,10.00,M,CLR,M,M,M,M,M,M,M,-RA,M,M,M,M,M,M,M,KTMT 020015Z AUTO 22006KT 10SM -RA CLR A3020 RMK AO2,M
RTS,2022-08-02 00:15,-119.8764,39.6682,1539.00,77.00,46.40,33.85,290.00,16.00,0.00,30.19,M,10.00,22.00,CLR,M,M,M,M,M,M,M,M,M,M,M,M,M,M,77.00,KRTS 020015Z AUTO 29016G22KT 10SM CLR 25/08 A3019 RMK AO2,M
MEV,2022-08-02 00:15,-119.7500,38.9963,1441.42,78.80,51.80,39.02,260.00,15.00,0.00,30.16,M,10.00,M,SCT,M,M,M,11000.00,M,M,M,M,M,M,M,M,M,M,78.80,KMEV 020015Z AUTO 26015KT 10SM SCT110 26/11 A3016 RMK AO2,M
LAS,2022-08-02 00:18,-115.1634,36.0719,663.00,89.00,61.00,39.06,190.00,14.00,0.00,29.94,M,10.00,28.00,FEW,BKN,BKN,M,8000.00,15000.00,22000.00,M,M,M,M,M,28.00,190.00,2022-08-02 00:17,89.11,KLAS 020018Z 19014G28KT 10SM FEW080 BKN150 BKN220 32/16 A2994 RMK AO2 PK WND 19028/0017 TSE18 TS DSIPTD CB DSNT ALQDS T03170161,M
ELY,2022-08-02 00:18,-114.8453,39.2950,1909.00,72.00,55.00,55.06,230.00,11.00,0.00,30.24,M,10.00,21.00,BKN,M,M,M,9000.00,M,M,M,M,M,M,M,M,M,M,72.00,KELY 020018Z AUTO 23011G21KT 10SM BKN090 22/13 A3024 RMK AO2 LTG DSNT NW-NE T02220128,M
TPH,2022-08-02 00:24,-117.0904,38.0505,1654.00,72.00,62.00,71.02,140.00,3.00,T,30.19,M,10.00,M,BKN,OVC,M,M,6000.00,7500.00,M,M,VCTS -RA,M,M,M,M,M,M,72.00,KTPH 020024Z AUTO 14003KT 10SM VCTS -RA BKN060 OVC075 22/17 A3019 RMK AO2 LTG DSNT N RAB13 P0000 T02220167,M
INS,2022-08-02 00:25,-115.6733,36.5872,955.00,89.60,62.60,40.69,130.00,5.00,0.00,30.01,1011.40,10.00,M,SCT,BKN,M,M,7500.00,12000.00,M,M,M,M,M,M,M,M,M,90.32,KINS 020025Z AUTO 13005KT 10SM SCT075 BKN120 32/17 A3001 RMK AO2 DZE2358RAB2358E10 SLP114,M
CXP,2022-08-02 00:30,-119.7326,39.1923,1431.00,80.60,50.00,34.41,230.00,5.00,0.00,30.16,M,10.00,16.00,FEW,SCT,M,M,9000.00,12000.00,M,M,M,M,M,M,M,M,M,79.88,KCXP 020030Z AUTO 23005G16KT 10SM FEW090 SCT120 27/10 A3016 RMK AO2,M
RTS,2022-08-02 00:35,-119.8764,39.6682,1539.00,77.00,46.40,33.85,300.00,16.00,0.00,30.19,M,10.00,M,CLR,M,M,M,M,M,M,M,M,M,M,M,M,M,M,77.00,KRTS 020035Z AUTO 30016KT 10SM CLR 25/08 A3019 RMK AO2,M
05U,2022-08-02 00:35,-116.0051,39.6042,1811.23,M,M,M,M,M,0.00,M,M,M,M,M,M,M,M,M,M,M,M,M,M,M,M,M,M,M,M,K05U 020035Z AUTO RMK A01 PNO,M
MEV,2022-08-02 00:35,-119.7500,38.9963,1441.42,75.20,55.40,50.17,120.00,17.00,0.00,30.17,M,10.00,24.00,SCT,SCT,M,M,7000.00,12000.00,M,M,M,M,M,M,M,M,M,75.20,KMEV 020035Z AUTO 12017G24KT 10SM SCT070 SCT120 24/13 A3017 RMK AO2,M
BAM,2022-08-02 00:35,-116.8743,40.5990,1382.36,86.00,46.40,25.26,130.00,8.00,0.00,30.08,M,10.00,M,BKN,M,M,M,11000.00,M,M,M,M,M,M,M,M,M,M,83.22,KBAM 020035Z AUTO 13008KT 10SM BKN110 30/08 A3008 RMK AO1,M
HTH,2022-08-02 00:35,-118.6315,38.5448,1282.89,84.20,50.00,30.62,0.00,0.00,0.00,30.10,M,10.00,M,SCT,M,M,M,8500.00,M,M,M,M,M,M,M,M,M,M,82.24,KHTH 020035Z AUTO 00000KT 10SM SCT085 29/10 A3010 RMK A01,M
TMT,2022-08-02 00:35,-117.1971,39.4643,1749.34,M,M,M,210.00,4.00,0.00,30.20,M,10.00,M,SCT,SCT,M,M,10000.00,12000.00,M,M,M,M,M,M,M,M,M,M,KTMT 020035Z AUTO 21004KT 10SM SCT100 SCT120 A3020 RMK AO2,M
BVU,2022-08-02 00:35,-114.8611,35.9475,671.00,87.80,64.40,45.88,220.00,8.00,0.00,29.96,M,M,M,M,M,M,M,M,M,M,M,M,M,M,M,M,M,M,89.33,KBVU 020035Z AUTO 22008KT 31/18 A2996 RMK AO2 PWINO TSNO,M
INS,2022-08-02 00:35,-115.6733,36.5872,955.00,87.80,62.60,43.07,350.00,7.00,0.00,30.00,1011.10,10.00,M,BKN,OVC,M,M,8000.00,12000.00,M,M,M,M,M,M,M,M,M,88.48,KINS 020035Z AUTO 35007KT 10SM BKN080 OVC120 31/17 A3000 RMK AO2 DZE2358RAB2358E10 SLP111,M
TPH,2022-08-02 00:40,-117.0904,38.0505,1654.00,73.00,60.00,63.96,0.00,0.00,T,30.19,M,10.00,M,FEW,SCT,BKN,M,4200.00,6000.00,8000.00,M,M,M,M,M,M,M,M,73.00,KTPH 020040Z AUTO 00000KT 10SM FEW042 SCT060 BKN080 23/16 A3019 RMK AO2 LTG DSNT N AND SW RAB13E28 P0000 T02280156,M
CXP,2022-08-02 00:50,-119.7326,39.1923,1431.00,78.80,50.00,36.51,M,4.00,0.00,30.16,M,10.00,M,FEW,BKN,M,M,9500.00,12000.00,M,M,M,M,M,M,M,M,M,78.80,KCXP 020050Z AUTO VRB04KT 10SM FEW095 BKN120 26/10 A3016 RMK AO2,M
INS,2022-08-02 00:52,-115.6733,36.5872,955.00,86.00,66.20,51.72,0.00,0.00,0.00,30.00,1011.30,10.00,M,BKN,OVC,M,M,8000.00,12000.00,M,M,-RA,M,M,M,M,M,M,88.39,KINS 020052Z AUTO 00000KT 10SM -RA BKN080 OVC120 30/19 A3000 RMK AO2 LTG DSNT S AND NW DZE2358RAB2358E10RAB52 SLP113,M
LOL,2022-08-02 00:53,-118.5701,40.0684,1192.43,93.00,43.00,17.80,260.00,5.00,0.00,29.99,1011.00,10.00,M,FEW,M,M,M,11000.00,M,M,M,M,M,M,M,M,M,M,89.00,KLOL 020053Z AUTO 26005KT 10SM FEW110 34/06 A2999 RMK AO2 SLP110 T03390061,M
DRA,2022-08-02 00:53,-116.0278,36.6206,1009.00,92.00,57.00,31.00,240.00,16.00,0.00,30.01,1011.10,10.00,21.00,CLR,M,M,M,M,M,M,M,M,M,M,M,M,M,M,90.50,KDRA 020053Z AUTO 24016G21KT 10SM CLR 33/14 A3001 RMK AO2 SLP111 T03330139,M
ELY,2022-08-02 00:53,-114.8453,39.2950,1909.00,68.00,57.00,67.86,310.00,9.00,T,30.22,1015.00,10.00,M,OVC,M,M,M,10000.00,M,M,M,-RA,M,M,M,M,M,M,68.00,KELY 020053Z AUTO 31009KT 10SM -RA OVC100 20/14 A3022 RMK AO2 LTG DSNT N AND NE RAB20 SLP150 P0000 T02000139,M
VGT,2022-08-02 00:53,-115.1933,36.2111,667.00,94.00,59.00,31.31,160.00,11.00,0.00,29.92,1012.10,10.00,M,CLR,M,M,M,M,M,M,M,M,M,M,M,M,M,M,93.32,KVGT 020053Z 16011KT 10SM CLR 34/15 A2992 RMK AO2 SLP121 T03440150,M
TMT,2022-08-02 00:55,-117.1971,39.4643,1749.34,M,M,M,220.00,5.00,0.00,30.20,M,10.00,M,CLR,M,M,M,M,M,M,M,M,M,M,M,M,M,M,M,KTMT 020055Z AUTO 22005KT 10SM CLR A3020 RMK AO2 LTG DSNT E,M
RTS,2022-08-02 00:55,-119.8764,39.6682,1539.00,77.00,46.40,33.85,300.00,15.00,0.00,30.19,M,10.00,21.00,CLR,M,M,M,M,M,M,M,M,M,M,M,M,M,M,77.00,KRTS 020055Z AUTO 30015G21KT 10SM CLR 25/08 A3019 RMK AO2,M
05U,2022-08-02 00:55,-116.0051,39.6042,1811.23,M,M,M,M,M,0.00,M,M,M,M,M,M,M,M,M,M,M,M,M,M,M,M,M,M,M,M,K05U 020055Z AUTO RMK A01 PNO,M
MEV,2022-08-02 00:55,-119.7500,38.9963,1441.42,73.40,55.40,53.29,110.00,13.00,0.00,30.17,M,10.00,M,FEW,BKN,M,M,7000.00,11000.00,M,M,M,M,M,M,M,M,M,73.40,KMEV 020055Z AUTO 11013KT 10SM FEW070 BKN110 23/13 A3017 RMK AO2,M
BAM,2022-08-02 00:55,-116.8743,40.5990,1382.36,86.00,46.40,25.26,140.00,10.00,0.00,30.08,M,10.00,M,OVC,M,M,M,10000.00,M,M,M,M,M,M,M,M,M,M,83.22,KBAM 020055Z AUTO 14010KT 10SM OVC100 30/08 A3008 RMK AO1,M
HTH,2022-08-02 00:55,-118.6315,38.5448,1282.89,84.20,51.80,32.73,80.00,4.00,0.00,30.10,M,10.00,M,FEW,SCT,M,M,8500.00,11000.00,M,M,M,M,M,M,M,M,M,82.48,KHTH 020055Z AUTO 08004KT 10SM FEW085 SCT110 29/11 A3010 RMK A01,M
BVU,2022-08-02 00:55,-114.8611,35.9475,671.00,87.80,64.40,45.88,190.00,7.00,0.00,29.96,M,M,M,M,M,M,M,M,M,M,M,M,M,M,M,M,M,M,89.33,KBVU 020055Z AUTO 19007KT 31/18 A2996 RMK AO2 PWINO TSNO,M
RNO,2022-08-02 00:55,-119.7711,39.4839,1341.00,82.00,49.00,31.56,280.00,19.00,0.00,30.11,1013.60,10.00,27.00,FEW,BKN,BKN,M,9000.00,14000.00,25000.00,M,M,M,M,M,27.00,280.00,2022-08-02 00:26,80.61,KRNO 020055Z 28019G27KT 10SM FEW090 BKN140 BKN250 28/09 A3011 RMK AO2 PK WND 28027/0026 SLP136 T02780094,M
LAS,2022-08-02 00:56,-115.1634,36.0719,663.00,88.00,60.00,39.17,190.00,8.00,0.00,29.93,1011.10,10.00,17.00,FEW,BKN,BKN,M,8000.00,15000.00,22000.00,M,M,M,M,M,28.00,190.00,2022-08-02 00:17,87.69,KLAS 020056Z 19008G17KT 10SM FEW080 BKN150 BKN220 31/16 A2993 RMK AO2 PK WND 19028/0017 TSE18 SLP111 TS DSIPTD CB DSNT ALQDS T03110156,M
EKO,2022-08-02 00:56,-115.7860,40.8242,1367.00,69.00,53.00,56.70,0.00,0.00,0.01,30.14,1015.50,4.00,M,FEW,OVC,M,M,6000.00,8000.00,M,M,-RA,M,M,M,M,M,M,69.10,KEKO 020056Z AUTO 00000KT 4SM -RA FEW060 OVC080 21/12 A3014 RMK AO2 RAB40 SLP155 P0001 T02060117,M
HND,2022-08-02 00:56,-115.1344,35.9729,742.79,85.00,63.00,47.91,220.00,12.00,T,29.97,1014.10,10.00,M,FEW,M,M,M,12000.00,M,M,M,M,M,M,M,M,M,M,85.83,KHND 020056Z 22012KT 10SM FEW120 29/17 A2997 RMK AO2 RAE24 SLP141 P0000 T02940172,M
NFL,2022-08-02 00:56,-118.7010,39.4166,1199.00,87.00,53.00,31.30,230.00,19.00,0.00,30.05,1014.30,9.00,34.00,SCT,BKN,BKN,BKN,8000.00,12000.00,18000.00,25000.00,M,M,M,M,34.00,230.00,2022-08-02 00:52,85.01,KNFL 020056Z 23019G34KT 9SM SCT080 BKN120 BKN180 BKN250 31/12 A3005 RMK AO2 PK WND 23034/0052 SLP143 CB DSNT SW T03060117,M
WMC,2022-08-02 00:56,-117.8072,40.9019,1315.00,79.00,55.00,43.59,150.00,13.00,0.00,30.04,1012.00,10.00,M,CLR,M,M,M,M,M,M,M,M,M,M,M,27.00,160.00,2022-08-02 00:00,79.00,KWMC 020056Z AUTO 15013KT 10SM CLR 26/13 A3004 RMK AO2 PK WND 16027/0000 SLP120 T02610128,M
TPH,2022-08-02 00:56,-117.0904,38.0505,1654.00,73.00,60.00,63.96,80.00,6.00,T,30.18,1015.10,10.00,M,FEW,SCT,SCT,M,4700.00,9000.00,11000.00,M,M,M,M,M,M,M,M,73.00,KTPH 020056Z AUTO 08006KT 10SM FEW047 SCT090 SCT110 23/16 A3018 RMK AO2 LTG DSNT N RAB13E28 SLP151 P0000 T02280156,M
INS,2022-08-02 00:58,-115.6733,36.5872,955.00,84.70,66.70,54.87,0.00,0.00,T,30.00,1011.30,10.00,M,BKN,OVC,M,M,8000.00,11000.00,M,M,-RA,M,M,M,M,M,M,87.27,KINS 020058Z AUTO 00000KT 10SM -RA BKN080 OVC110 29/19 A3000 RMK AO2 LTG DSNT S AND NW DZE2358RAB2358E10RAB52 SLP113 P0000 T02930193,M
LSV,2022-08-02 00:58,-115.0343,36.2362,570.00,93.70,61.00,33.83,210.00,14.00,0.00,29.91,1010.40,10.00,M,CLR,M,M,M,M,M,M,M,M,M,M,M,M,M,M,93.96,KLSV 020058Z AUTO 21014KT 10SM CLR 34/16 A2991 RMK AO2 SLP104 T03430161 $,M
INS,2022-08-02 01:02,-115.6733,36.5872,955.00,84.20,64.40,51.47,80.00,4.00,0.00,30.01,1011.60,10.00,M,FEW,FEW,OVC,M,300.00,1700.00,8000.00,M,-RA,M,M,M,M,M,M,85.71,KINS 020102Z AUTO 08004KT 10SM -RA FEW003 FEW017 OVC080 29/18 A3001 RMK AO2 LTG DSNT NW SLP116,M
CXP,2022-08-02 01:10,-119.7326,39.1923,1431.00,78.80,48.20,34.13,M,5.00,0.00,30.17,M,10.00,12.00,SCT,M,M,M,12000.00,M,M,M,M,M,M,M,M,M,M,78.80,KCXP 020110Z AUTO VRB05G12KT 10SM SCT120 26/09 A3017 RMK AO2,M
INS,2022-08-02 01:11,-115.6733,36.5872,955.00,80.60,66.20,61.58,180.00,12.00,0.00,30.04,1012.80,2.25,26.00,SCT,BKN,BKN,OVC,200.00,6000.00,8000.00,11000.00,VCTS +RA,M,M,M,M,M,M,82.75,KINS 020111Z AUTO 18012G26KT 2 1/4SM VCTS +RA SCT002 BKN060 BKN080 OVC110 27/19 A3004 RMK AO2 WSHFT 06 VIS 2 1/4V10 PRESRR SLP128,M
HTH,2022-08-02 01:15,-118.6315,38.5448,1282.89,84.20,51.80,32.73,60.00,5.00,0.00,30.09,M,10.00,M,SCT,M,M,M,11000.00,M,M,M,M,M,M,M,M,M,M,82.48,KHTH 020115Z AUTO 06005KT 10SM SCT110 29/11 A3009 RMK A01,M
BAM,2022-08-02 01:15,-116.8743,40.5990,1382.36,82.40,48.20,30.35,150.00,13.00,0.00,30.08,M,10.00,M,OVC,M,M,M,10000.00,M,M,M,M,M,M,M,M,M,M,80.80,KBAM 020115Z AUTO 15013KT 10SM OVC100 28/09 A3008 RMK AO1,M
MEV,2022-08-02 01:15,-119.7500,38.9963,1441.42,73.40,53.60,49.90,M,3.00,0.00,30.17,M,10.00,12.00,BKN,M,M,M,11000.00,M,M,M,M,M,M,M,M,M,M,73.40,KMEV 020115Z AUTO VRB03G12KT 10SM BKN110 23/12 A3017 RMK AO2,M
BVU,2022-08-02 01:15,-114.8611,35.9475,671.00,87.80,64.40,45.88,200.00,4.00,0.00,29.94,M,M,M,M,M,M,M,M,M,M,M,M,M,M,M,M,M,M,89.33,KBVU 020115Z AUTO 20004KT 31/18 A2994 RMK AO2 PWINO TSNO,M
TMT,2022-08-02 01:15,-117.1971,39.4643,1749.34,M,M,M,220.00,8.00,0.00,30.19,M,10.00,M,SCT,M,M,M,10000.00,M,M,M,M,M,M,M,M,M,M,M,KTMT 020115Z AUTO 22008KT 10SM SCT100 A3019 RMK AO2 LTG DSNT E,M
05U,2022-08-02 01:15,-116.0051,39.6042,1811.23,M,M,M,M,M,0.00,M,M,M,M,M,M,M,M,M,M,M,M,M,M,M,M,M,M,M,M,K05U 020115Z AUTO RMK A01 PNO,M
RTS,2022-08-02 01:15,-119.8764,39.6682,1539.00,75.20,48.20,38.46,300.00,15.00,0.00,30.19,M,10.00,23.00,CLR,M,M,M,M,M,M,M,M,M,M,M,M,M,M,75.20,KRTS 020115Z AUTO 30015G23KT 10SM CLR 24/09 A3019 RMK AO2,M
INS,2022-08-02 01:16,-115.6733,36.5872,955.00,78.80,66.20,65.33,110.00,17.00,0.00,30.04,1012.80,1.12,32.00,SCT,BKN,BKN,OVC,200.00,6000.00,8000.00,11000.00,VCTS +RA,M,M,M,M,M,M,78.80,KINS 020116Z AUTO 11017G32KT 1 1/8SM R26/6000FT VCTS +RA SCT002 BKN060 BKN080 OVC110 26/19 A3004 RMK AO2 VIS 1 1/8V6 SLP128,M
INS,2022-08-02 01:21,-115.6733,36.5872,955.00,77.00,62.60,61.13,110.00,17.00,0.00,30.01,1011.90,1.50,32.00,SCT,BKN,BKN,OVC,200.00,6000.00,7500.00,9000.00,VCTS -RA,M,M,M,M,M,M,77.00,KINS 020121Z AUTO 11017G32KT 1 1/2SM VCTS -RA SCT002 BKN060 BKN075 OVC090 25/17 A3001 RMK AO2 VIS 1V1 5/8 PRESFR SLP119,M
INS,2022-08-02 01:26,-115.6733,36.5872,955.00,77.00,64.40,65.12,80.00,15.00,0.00,30.01,1011.90,7.00,32.00,SCT,SCT,BKN,OVC,200.00,6000.00,8000.00,9500.00,VCTS -RA,M,M,M,M,M,M,77.00,KINS 020126Z AUTO 08015G32KT 7SM VCTS -RA SCT002 SCT060 BKN080 OVC095 25/18 A3001 RMK AO2 WSHFT 20 SLP119,M
INS,2022-08-02 01:29,-115.6733,36.5872,955.00,77.00,60.80,57.36,90.00,13.00,0.00,30.01,1011.90,10.00,22.00,SCT,SCT,BKN,OVC,200.00,6000.00,7500.00,9000.00,VCTS,M,M,M,M,M,M,77.00,KINS 020129Z AUTO 09013G22KT 10SM VCTS SCT002 SCT060 BKN075 OVC090 25/16 A3001 RMK AO2 RAE29 SLP119,M
CXP,2022-08-02 01:30,-119.7326,39.1923,1431.00,77.00,53.60,44.25,200.00,10.00,0.00,30.18,M,10.00,18.00,FEW,M,M,M,12000.00,M,M,M,M,M,M,M,M,M,M,77.00,KCXP 020130Z AUTO 20010G18KT 10SM FEW120 25/12 A3018 RMK AO2,M
RTS,2022-08-02 01:35,-119.8764,39.6682,1539.00,75.20,48.20,38.46,300.00,15.00,0.00,30.19,M,10.00,M,CLR,M,M,M,M,M,M,M,M,M,M,M,M,M,M,75.20,KRTS 020135Z AUTO 30015KT 10SM CLR 24/09 A3019 RMK AO2,M
MEV,2022-08-02 01:35,-119.7500,38.9963,1441.42,73.40,55.40,53.29,230.00,5.00,0.00,30.17,M,10.00,M,SCT,SCT,OVC,M,6500.00,7000.00,11000.00,M,M,M,M,M,M,M,M,73.40,KMEV 020135Z AUTO 23005KT 10SM SCT065 SCT070 OVC110 23/13 A3017 RMK AO2,M
BVU,2022-08-02 01:35,-114.8611,35.9475,671.00,87.80,64.40,45.88,260.00,7.00,0.00,29.95,M,M,M,M,M,M,M,M,M,M,M,M,M,M,M,M,M,M,89.33,KBVU 020135Z AUTO 26007KT 31/18 A2995 RMK AO2 PWINO TSNO,M
BAM,2022-08-02 01:35,-116.8743,40.5990,1382.36,82.40,48.20,30.35,150.00,9.00,0.00,30.08,M,10.00,M,OVC,M,M,M,10000.00,M,M,M,M,M,M,M,M,M,M,80.80,KBAM 020135Z AUTO 15009KT 10SM OVC100 28/09 A3008 RMK AO1,M
TMT,2022-08-02 01:35,-117.1971,39.4643,1749.34,M,M,M,220.00,8.00,0.00,30.20,M,10.00,M,BKN,M,M,M,10000.00,M,M,M,M,M,M,M,M,M,M,M,KTMT 020135Z AUTO 22008KT 10SM BKN100 A3020 RMK AO2,M
05U,2022-08-02 01:35,-116.0051,39.6042,1811.23,M,M,M,M,M,0.00,M,M,M,M,M,M,M,M,M,M,M,M,M,M,M,M,M,M,M,M,K05U 020135Z AUTO RMK A01 PNO,M
HTH,2022-08-02 01:35,-118.6315,38.5448,1282.89,84.20,51.80,32.73,130.00,3.00,0.00,30.09,M,10.00,M,CLR,M,M,M,M,M,M,M,M,M,M,M,M,M,M,82.48,KHTH 020135Z AUTO 13003KT 10SM CLR 29/11 A3009 RMK A01,M
CXP,2022-08-02 01:50,-119.7326,39.1923,1431.00,77.00,53.60,44.25,190.00,11.00,0.00,30.18,M,10.00,M,BKN,M,M,M,12000.00,M,M,M,M,M,M,M,M,M,M,77.00,KCXP 020150Z AUTO 19011KT 10SM BKN120 25/12 A3018 RMK AO2,M
VGT,2022-08-02 01:53,-115.1933,36.2111,667.00,91.00,61.00,36.80,120.00,10.00,0.00,29.93,1012.30,10.00,M,CLR,M,M,M,M,M,M,M,M,M,M,M,M,M,M,91.06,KVGT 020153Z 12010KT 10SM CLR 33/16 A2993 RMK AO2 LTG DSNT NW SLP123 T03280161,M
DRA,2022-08-02 01:53,-116.0278,36.6206,1009.00,89.00,58.00,34.97,240.00,11.00,0.00,30.01,1011.40,10.00,M,CLR,M,M,M,M,M,M,M,M,M,M,M,M,M,M,88.01,KDRA 020153Z AUTO 24011KT 10SM CLR 32/14 A3001 RMK AO2 SLP114 T03170144,M
LOL,2022-08-02 01:53,-118.5701,40.0684,1192.43,89.00,44.00,20.97,270.00,18.00,0.00,30.00,1011.40,8.00,23.00,OVC,M,M,M,11000.00,M,M,M,M,M,M,M,M,M,M,85.59,KLOL 020153Z AUTO 27018G23KT 8SM OVC110 32/07 A3000 RMK AO2 SLP114 T03170067,M
ELY,2022-08-02 01:53,-114.8453,39.2950,1909.00,70.00,57.00,63.37,340.00,6.00,T,30.24,1014.80,10.00,M,SCT,BKN,M,M,5500.00,11000.00,M,M,M,M,M,M,M,M,M,70.00,KELY 020153Z AUTO 34006KT 10SM SCT055 BKN110 21/14 A3024 RMK AO2 RAE19 SLP148 P0000 T02110139,M
TMT,2022-08-02 01:55,-117.1971,39.4643,1749.34,M,M,M,220.00,11.00,0.00,30.21,M,10.00,M,SCT,M,M,M,10000.00,M,M,M,M,M,M,M,M,M,M,M,KTMT 020155Z AUTO 22011KT 10SM SCT100 A3021 RMK AO2 LTG DSNT S,M
RTS,2022-08-02 01:55,-119.8764,39.6682,1539.00,73.40,48.20,40.85,310.00,16.00,0.00,30.19,M,10.00,M,CLR,M,M,M,M,M,M,M,M,M,M,M,M,M,M,73.40,KRTS 020155Z AUTO 31016KT 10SM CLR 23/09 A3019 RMK AO2,M
05U,2022-08-02 01:55,-116.0051,39.6042,1811.23,M,M,M,M,M,0.00,M,M,M,M,M,M,M,M,M,M,M,M,M,M,M,M,M,M,M,M,K05U 020155Z AUTO RMK A01 PNO,M
MEV,2022-08-02 01:55,-119.7500,38.9963,1441.42,73.40,53.60,49.90,150.00,4.00,0.00,30.17,M,10.00,M,FEW,OVC,M,M,8000.00,12000.00,M,M,M,M,M,M,M,M,M,73.40,KMEV 020155Z AUTO 15004KT 10SM FEW080 OVC120 23/12 A3017 RMK AO2,M
BAM,2022-08-02 01:55,-116.8743,40.5990,1382.36,82.40,48.20,30.35,130.00,8.00,0.00,30.08,M,10.00,M,OVC,M,M,M,10000.00,M,M,M,M,M,M,M,M,M,M,80.80,KBAM 020155Z AUTO 13008KT 10SM OVC100 28/09 A3008 RMK AO1,M
HTH,2022-08-02 01:55,-118.6315,38.5448,1282.89,84.20,51.80,32.73,190.00,4.00,0.00,30.09,M,10.00,M,FEW,M,M,M,12000.00,M,M,M,M,M,M,M,M,M,M,82.48,KHTH 020155Z AUTO 19004KT 10SM FEW120 29/11 A3009 RMK A01,M
RNO,2022-08-02 01:55,-119.7711,39.4839,1341.00,80.00,49.00,33.58,290.00,19.00,0.00,30.11,1013.80,10.00,26.00,FEW,BKN,BKN,M,8500.00,14000.00,25000.00,M,M,M,M,M,26.00,270.00,2022-08-02 01:24,79.50,KRNO 020155Z 29019G26KT 10SM FEW085 BKN140 BKN250 27/09 A3011 RMK AO2 PK WND 27026/0124 SLP138 T02670094,M
INS,2022-08-02 01:55,-115.6733,36.5872,955.00,80.60,68.00,65.54,100.00,9.00,0.00,30.01,1011.80,10.00,M,SCT,SCT,BKN,OVC,7500.00,9000.00,13000.00,16000.00,M,M,M,M,M,M,M,83.29,KINS 020155Z AUTO 10009KT 10SM SCT075 SCT090 BKN130 OVC160 27/20 A3001 RMK AO2 RAE29 SLP118,M
BVU,2022-08-02 01:55,-114.8611,35.9475,671.00,87.80,64.40,45.88,260.00,4.00,0.00,29.96,M,M,M,M,M,M,M,M,M,M,M,M,M,M,M,M,M,M,89.33,KBVU 020155Z AUTO 26004KT 31/18 A2996 RMK AO2 PWINO TSNO,M
LAS,2022-08-02 01:56,-115.1634,36.0719,663.00,89.00,61.00,39.06,170.00,7.00,0.00,29.94,1011.20,10.00,17.00,FEW,SCT,BKN,M,8000.00,15000.00,22000.00,M,M,M,M,M,M,M,M,89.11,KLAS 020156Z 17007G17KT 10SM FEW080 SCT150 BKN220 32/16 A2994 RMK AO2 SLP112 ACC E CB DSNT ALQDS T03170161,M
HND,2022-08-02 01:56,-115.1344,35.9729,742.79,87.00,63.00,44.66,170.00,9.00,0.00,29.99,1014.30,10.00,M,CLR,M,M,M,M,M,M,M,M,M,M,M,M,M,M,87.96,KHND 020156Z 17009KT 10SM CLR 31/17 A2999 RMK AO2 SLP143 T03060172,M
WMC,2022-08-02 01:56,-117.8072,40.9019,1315.00,80.00,52.00,37.67,160.00,13.00,0.00,30.03,1011.60,10.00,M,CLR,M,M,M,M,M,M,M,M,M,M,M,M,M,M,79.81,KWMC 020156Z AUTO 16013KT 10SM CLR 27/11 A3003 RMK AO2 SLP116 T02670111,M
NFL,2022-08-02 01:56,-118.7010,39.4166,1199.00,80.00,55.00,42.05,240.00,19.00,0.00,30.06,1014.60,10.00,24.00,SCT,BKN,BKN,BKN,8000.00,12000.00,18000.00,25000.00,M,M,M,M,32.00,220.00,2022-08-02 01:01,80.17,KNFL 020156Z 24019G24KT 10SM SCT080 BKN120 BKN180 BKN250 27/13 A3006 RMK AO2 PK WND 22032/0101 SLP146 CB DSNT SW AND W T02670128,M
EKO,2022-08-02 01:56,-115.7860,40.8242,1367.00,69.00,57.00,65.35,0.00,0.00,0.01,30.15,1015.70,9.00,M,BKN,OVC,M,M,7500.00,9000.00,M,M,-RA,M,M,M,M,M,M,69.10,KEKO 020156Z AUTO 00000KT 9SM -RA BKN075 OVC090 21/14 A3015 RMK AO2 SLP157 P0001 T02060139,M
TPH,2022-08-02 01:56,-117.0904,38.0505,1654.00,71.00,61.00,70.42,30.00,14.00,T,30.19,1015.60,10.00,M,FEW,FEW,SCT,M,4800.00,9000.00,11000.00,M,M,M,M,M,M,M,M,71.10,KTPH 020156Z AUTO 03014KT 10SM FEW048 FEW090 SCT110 22/16 A3019 RMK AO2 LTG DSNT S RAB26E50 SLP156 P0000 T02170161,M
INS,2022-08-02 01:58,-115.6733,36.5872,955.00,79.50,66.70,64.96,100.00,10.00,T,30.01,1011.80,10.00,M,SCT,BKN,OVC,M,7500.00,13000.00,16000.00,M,M,M,M,M,32.00,130.00,2022-08-02 01:15,79.50,KINS 020158Z AUTO 10010KT 10SM SCT075 BKN130 OVC160 26/19 A3001 RMK AO2 PK WND 13032/15 RAE29 SLP118 P0000 T02640193,M
LSV,2022-08-02 01:58,-115.0343,36.2362,570.00,92.30,60.60,34.83,180.00,9.00,0.00,29.91,1010.30,10.00,M,SCT,BKN,M,M,15000.00,20000.00,M,M,M,M,M,M,M,M,M,92.26,KLSV 020158Z COR 18009KT 10SM SCT150 BKN200 34/16 A2991 RMK AO2 SLP103 T03350159 $ COR 0234,M
CXP,2022-08-02 02:10,-119.7326,39.1923,1431.00,77.00,50.00,38.74,190.00,7.00,0.00,30.18,M,10.00,12.00,FEW,OVC,M,M,9000.00,12000.00,M,M,M,M,M,M,M,M,M,77.00,KCXP 020210Z AUTO 19007G12KT 10SM FEW090 OVC120 25/10 A3018 RMK AO2,M
BVU,2022-08-02 02:15,-114.8611,35.9475,671.00,86.00,64.40,48.58,0.00,0.00,0.00,29.96,M,M,M,M,M,M,M,M,M,M,M,M,M,M,M,M,M,M,87.49,KBVU 020215Z AUTO 00000KT 30/18 A2996 RMK AO2 PWINO TSNO,M
MEV,2022-08-02 02:15,-119.7500,38.9963,1441.42,71.60,55.40,56.63,130.00,3.00,0.00,30.17,M,10.00,M,OVC,M,M,M,12000.00,M,M,M,M,M,M,M,M,M,M,71.60,KMEV 020215Z AUTO 13003KT 10SM OVC120 22/13 A3017 RMK AO2,M
BAM,2022-08-02 02:15,-116.8743,40.5990,1382.36,82.40,48.20,30.35,190.00,6.00,0.00,30.09,M,10.00,M,OVC,M,M,M,10000.00,M,M,M,M,M,M,M,M,M,M,80.80,KBAM 020215Z AUTO 19006KT 10SM OVC100 28/09 A3009 RMK AO1,M
HTH,2022-08-02 02:15,-118.6315,38.5448,1282.89,82.40,51.80,34.69,60.00,6.00,0.00,30.10,M,10.00,M,BKN,M,M,M,11000.00,M,M,M,M,M,M,M,M,M,M,81.20,KHTH 020215Z AUTO 06006KT 10SM BKN110 28/11 A3010 RMK A01,M
TMT,2022-08-02 02:15,-117.1971,39.4643,1749.34,M,M,M,210.00,10.00,0.00,30.21,M,10.00,M,CLR,M,M,M,M,M,M,M,M,M,M,M,M,M,M,M,KTMT 020215Z AUTO 21010KT 10SM CLR A3021 RMK AO2 LTG DSNT SE AND S,M
05U,2022-08-02 02:15,-116.0051,39.6042,1811.23,M,M,M,M,M,0.00,M,M,M,M,M,M,M,M,M,M,M,M,M,M,M,M,M,M,M,M,K05U 020215Z AUTO RMK A01 PNO,M
RTS,2022-08-02 02:15,-119.8764,39.6682,1539.00,73.40,48.20,40.85,290.00,14.00,0.00,30.19,M,10.00,19.00,CLR,M,M,M,M,M,M,M,M,M,M,M,M,M,M,73.40,KRTS 020215Z AUTO 29014G19KT 10SM CLR 23/09 A3019 RMK AO2,M
05U,2022-08-02 02:30,-116.0051,39.6042,1811.23,M,M,M,M,M,0.00,M,M,M,M,M,M,M,M,M,M,M,M,M,M,M,M,M,M,M,M,K05U 020230Z AUTO RMK A01 PNO,M
CXP,2022-08-02 02:30,-119.7326,39.1923,1431.00,77.00,48.20,36.22,190.00,6.00,0.00,30.17,M,10.00,M,OVC,M,M,M,12000.00,M,M,M,M,M,M,M,M,M,M,77.00,KCXP 020230Z AUTO 19006KT 10SM OVC120 25/09 A3017 RMK AO2,M
BVU,2022-08-02 02:35,-114.8611,35.9475,671.00,86.00,66.20,51.72,0.00,0.00,0.00,29.96,M,M,M,M,M,M,M,M,M,M,M,M,M,M,M,M,M,M,88.39,KBVU 020235Z AUTO 00000KT 30/19 A2996 RMK AO2 PWINO TSNO,M
RTS,2022-08-02 02:35,-119.8764,39.6682,1539.00,73.40,48.20,40.85,300.00,13.00,0.00,30.19,M,10.00,19.00,CLR,M,M,M,M,M,M,M,M,M,M,M,M,M,M,73.40,KRTS 020235Z AUTO 30013G19KT 10SM CLR 23/09 A3019 RMK AO2,M
MEV,2022-08-02 02:35,-119.7500,38.9963,1441.42,71.60,57.20,60.44,0.00,0.00,0.00,30.18,M,9.00,M,FEW,SCT,BKN,M,3900.00,5000.00,6000.00,M,-RA,M,M,M,M,M,M,71.60,KMEV 020235Z AUTO 00000KT 9SM -RA FEW039 SCT050 BKN060 22/14 A3018 RMK AO2,M
BAM,2022-08-02 02:35,-116.8743,40.5990,1382.36,82.40,46.40,28.36,150.00,4.00,0.00,30.09,M,10.00,M,OVC,M,M,M,10000.00,M,M,M,M,M,M,M,M,M,M,80.64,KBAM 020235Z AUTO 15004KT 10SM OVC100 28/08 A3009 RMK AO1,M
HTH,2022-08-02 02:35,-118.6315,38.5448,1282.89,82.40,51.80,34.69,0.00,0.00,0.00,30.10,M,10.00,M,BKN,M,M,M,11000.00,M,M,M,M,M,M,M,M,M,M,81.20,KHTH 020235Z AUTO 00000KT 10SM BKN110 28/11 A3010 RMK A01,M
TMT,2022-08-02 02:35,-117.1971,39.4643,1749.34,M,M,M,210.00,10.00,0.00,30.20,M,10.00,M,CLR,M,M,M,M,M,M,M,M,M,M,M,M,M,M,M,KTMT 020235Z AUTO 21010KT 10SM CLR A3020 RMK AO2 LTG DSNT SE,M
CXP,2022-08-02 02:50,-119.7326,39.1923,1431.00,77.00,48.20,36.22,180.00,5.00,0.00,30.17,M,10.00,M,BKN,M,M,M,12000.00,M,M,M,M,M,M,M,M,M,M,77.00,KCXP 020250Z AUTO 18005KT 10SM BKN120 25/09 A3017 RMK AO2,M
VGT,2022-08-02 02:53,-115.1933,36.2111,667.00,91.00,61.00,36.80,150.00,8.00,0.00,29.92,1012.10,10.00,M,CLR,M,M,M,M,M,M,M,M,M,M,M,M,M,M,91.06,KVGT 020253Z 15008KT 10SM CLR 33/16 A2992 RMK AO2 SLP121 T03280161 56007,M
LOL,2022-08-02 02:53,-118.5701,40.0684,1192.43,87.00,44.00,22.34,270.00,12.00,0.00,30.01,1011.60,10.00,M,BKN,M,M,M,10000.00,M,M,M,M,M,M,M,M,M,M,83.91,KLOL 020253Z AUTO 27012KT 10SM BKN100 31/07 A3001 RMK AO2 SLP116 T03060067 53004,M
DRA,2022-08-02 02:53,-116.0278,36.6206,1009.00,87.00,60.00,40.31,240.00,10.00,0.00,30.01,1011.10,10.00,M,CLR,M,M,M,M,M,M,M,M,M,M,M,M,M,M,86.83,KDRA 020253Z AUTO 24010KT 10SM CLR 31/16 A3001 RMK AO2 SLP111 T03060156 50001,M
ELY,2022-08-02 02:53,-114.8453,39.2950,1909.00,68.00,57.00,67.86,30.00,9.00,0.00,30.24,1014.60,10.00,M,CLR,M,M,M,M,M,M,M,M,M,M,M,M,M,M,68.00,KELY 020253Z AUTO 03009KT 10SM CLR 20/14 A3024 RMK AO2 SLP146 60000 T02000139 52003,M
BAM,2022-08-02 02:55,-116.8743,40.5990,1382.36,80.60,46.40,30.07,130.00,5.00,0.00,30.09,M,10.00,M,OVC,M,M,M,10000.00,M,M,M,M,M,M,M,M,M,M,79.56,KBAM 020255Z AUTO 13005KT 10SM OVC100 27/08 A3009 RMK AO1,M
HTH,2022-08-02 02:55,-118.6315,38.5448,1282.89,82.40,51.80,34.69,190.00,4.00,0.00,30.10,M,10.00,M,OVC,M,M,M,11000.00,M,M,M,M,M,M,M,M,M,M,81.20,KHTH 020255Z AUTO 19004KT 10SM OVC110 28/11 A3010 RMK A01,M
RNO,2022-08-02 02:55,-119.7711,39.4839,1341.00,78.00,48.00,34.67,260.00,8.00,0.00,30.13,1014.50,10.00,20.00,BKN,BKN,M,M,14000.00,25000.00,M,M,M,M,M,M,M,M,M,78.10,KRNO 020255Z 26008G20KT 230V300 10SM BKN140 BKN250 26/09 A3013 RMK AO2 SLP145 T02560089 53009,M
TMT,2022-08-02 02:55,-117.1971,39.4643,1749.34,M,M,M,210.00,10.00,0.00,30.20,M,10.00,M,CLR,M,M,M,M,M,M,M,M,M,M,M,M,M,M,M,KTMT 020255Z AUTO 21010KT 10SM CLR A3020 RMK AO2,M
BVU,2022-08-02 02:55,-114.8611,35.9475,671.00,86.00,66.20,51.72,0.00,0.00,0.00,29.95,M,M,M,M,M,M,M,M,M,M,M,M,M,M,M,M,M,M,88.39,KBVU 020255Z AUTO 00000KT 30/19 A2995 RMK AO2 PWINO TSNO,M
RTS,2022-08-02 02:55,-119.8764,39.6682,1539.00,71.60,46.40,40.57,300.00,12.00,0.00,30.20,M,10.00,M,CLR,M,M,M,M,M,M,M,M,M,M,M,M,M,M,71.60,KRTS 020255Z AUTO 30012KT 10SM CLR 22/08 A3020 RMK AO2,M
05U,2022-08-02 02:55,-116.0051,39.6042,1811.23,M,M,M,M,M,0.00,M,M,M,M,M,M,M,M,M,M,M,M,M,M,M,M,M,M,M,M,K05U 020255Z AUTO RMK A01 PNO,M
MEV,2022-08-02 02:55,-119.7500,38.9963,1441.42,69.80,59.00,68.55,0.00,0.00,0.00,30.17,M,10.00,M,FEW,SCT,OVC,M,4000.00,5500.00,11000.00,M,M,M,M,M,M,M,M,69.80,KMEV 020255Z AUTO 00000KT 10SM FEW040 SCT055 OVC110 21/15 A3017 RMK AO2,M
WMC,2022-08-02 02:56,-117.8072,40.9019,1315.00,78.00,55.00,44.90,180.00,13.00,0.00,30.04,1011.40,10.00,M,BKN,M,M,M,12000.00,M,M,M,M,M,M,M,M,M,M,78.10,KWMC 020256Z AUTO 18013KT 10SM BKN120 26/13 A3004 RMK AO2 SLP114 T02560128 55005,M
TPH,2022-08-02 02:56,-117.0904,38.0505,1654.00,68.00,62.00,81.41,360.00,10.00,T,30.20,1016.40,10.00,M,OVC,M,M,M,11000.00,M,M,M,-RA,M,M,M,M,M,M,68.00,KTPH 020256Z AUTO 36010KT 10SM -RA OVC110 20/17 A3020 RMK AO2 LTG DSNT SE AND S RAB07 SLP164 P0000 60000 T02000167 53004,M
LAS,2022-08-02 02:56,-115.1634,36.0719,663.00,88.00,62.00,42.05,180.00,10.00,0.00,29.93,1010.90,10.00,M,FEW,SCT,BKN,M,8000.00,15000.00,22000.00,M,M,M,M,M,M,M,M,88.47,KLAS 020256Z 18010KT 10SM FEW080 SCT150 BKN220 31/17 A2993 RMK AO2 SLP109 T03110167 56005,M
EKO,2022-08-02 02:56,-115.7860,40.8242,1367.00,67.00,60.00,78.77,190.00,4.00,0.01,30.15,1015.40,10.00,M,FEW,BKN,OVC,M,6000.00,8000.00,9500.00,M,-RA,M,M,M,M,M,M,66.90,KEKO 020256Z AUTO 19004KT 10SM -RA FEW060 BKN080 OVC095 19/16 A3015 RMK AO2 RAE18B53 SLP154 P0001 60003 T01940156 50009,M
HND,2022-08-02 02:56,-115.1344,35.9729,742.79,85.00,63.00,47.91,180.00,9.00,0.00,29.98,1014.20,10.00,M,CLR,M,M,M,M,M,M,M,M,M,M,M,M,M,M,85.83,KHND 020256Z 18009KT 10SM CLR 29/17 A2998 RMK AO2 SLP142 60000 T02940172 56004,M
NFL,2022-08-02 02:56,-118.7010,39.4166,1199.00,78.00,55.00,44.90,240.00,16.00,0.00,30.06,1014.70,10.00,M,SCT,BKN,BKN,BKN,8000.00,12000.00,18000.00,25000.00,M,M,M,M,27.00,220.00,2022-08-02 02:00,78.10,KNFL 020256Z 24016KT 10SM SCT080 BKN120 BKN180 BKN250 26/13 A3006 RMK AO2 PK WND 22027/0200 SLP147 T02560128 52005,M
LSV,2022-08-02 02:58,-115.0343,36.2362,570.00,93.20,66.20,41.23,240.00,10.00,0.00,29.91,M,10.00,M,SCT,SCT,M,M,12000.00,18000.00,M,M,M,M,M,M,M,M,M,96.35,KLSV 020258Z 24010KT 10SM SCT120 SCT180 34/19 A2991 RMK AO2A SLPNO WND DATA ESTMD $,M
INS,2022-08-02 02:58,-115.6733,36.5872,955.00,78.80,64.60,61.79,300.00,5.00,0.00,30.00,1011.40,10.00,M,CLR,M,M,M,M,M,M,M,M,M,M,M,M,M,M,78.80,KINS 020258Z AUTO 30005KT 10SM CLR 26/18 A3000 RMK AO2 SLP114 60000 T02600181 58003,M
INS,2022-08-02 03:00,-115.6733,36.5872,955.00,78.80,64.40,61.36,300.00,3.00,0.00,30.00,M,10.00,M,SCT,M,M,M,16000.00,M,M,M,M,M,M,M,M,M,M,78.80,KINS 020300Z COR 30003KT 10SM SCT160 26/18 A3000 RMK 020300Z 30003KT 10SM FEW160 26/18 A3000 COR 0301,M
CXP,2022-08-02 03:10,-119.7326,39.1923,1431.00,77.00,44.60,31.62,190.00,7.00,0.00,30.18,M,10.00,12.00,FEW,OVC,M,M,8500.00,12000.00,M,M,M,M,M,M,M,M,M,77.00,KCXP 020310Z AUTO 19007G12KT 170V230 10SM FEW085 OVC120 25/07 A3018 RMK AO2,M
TMT,2022-08-02 03:15,-117.1971,39.4643,1749.34,M,M,M,200.00,10.00,0.00,30.20,M,10.00,M,CLR,M,M,M,M,M,M,M,M,M,M,M,M,M,M,M,KTMT 020315Z AUTO 20010KT 10SM CLR A3020 RMK AO2,M
RTS,2022-08-02 03:15,-119.8764,39.6682,1539.00,71.60,44.60,37.89,300.00,11.00,0.00,30.20,M,10.00,16.00,CLR,M,M,M,M,M,M,M,M,M,M,M,M,M,M,71.60,KRTS 020315Z AUTO 30011G16KT 10SM CLR 22/07 A3020 RMK AO2,M
BVU,2022-08-02 03:15,-114.8611,35.9475,671.00,84.20,66.20,54.80,350.00,4.00,0.00,29.95,M,M,M,M,M,M,M,M,M,M,M,M,M,M,M,M,M,M,86.50,KBVU 020315Z AUTO 35004KT 29/19 A2995 RMK AO2 PWINO TSNO,M
BAM,2022-08-02 03:15,-116.8743,40.5990,1382.36,80.60,46.40,30.07,100.00,4.00,0.00,30.09,M,10.00,M,OVC,M,M,M,12000.00,M,M,M,M,M,M,M,M,M,M,79.56,KBAM 020315Z AUTO 10004KT 10SM OVC120 27/08 A3009 RMK AO1,M
MEV,2022-08-02 03:15,-119.7500,38.9963,1441.42,68.00,59.00,72.92,90.00,7.00,0.00,30.17,M,10.00,M,BKN,M,M,M,11000.00,M,M,M,M,M,M,M,M,M,M,68.00,KMEV 020315Z AUTO 09007KT 10SM BKN110 20/15 A3017 RMK AO2,M
05U,2022-08-02 03:15,-116.0051,39.6042,1811.23,M,M,M,M,M,0.00,M,M,M,M,M,M,M,M,M,M,M,M,M,M,M,M,M,M,M,M,K05U 020315Z AUTO RMK A01 PNO,M
HTH,2022-08-02 03:15,-118.6315,38.5448,1282.89,80.60,53.60,39.30,100.00,9.00,0.00,30.11,M,10.00,M,SCT,OVC,M,M,9500.00,12000.00,M,M,M,M,M,M,M,M,M,80.29,KHTH 020315Z AUTO 10009KT 10SM SCT095 OVC120 27/12 A3011 RMK A01,M
CXP,2022-08-02 03:30,-119.7326,39.1923,1431.00,73.40,53.60,49.90,140.00,3.00,0.00,30.18,M,10.00,M,FEW,BKN,OVC,M,6000.00,7000.00,12000.00,M,M,M,M,M,M,M,M,73.40,KCXP 020330Z AUTO 14003KT 10SM FEW060 BKN070 OVC120 23/12 A3018 RMK AO2,M
RTS,2022-08-02 03:35,-119.8764,39.6682,1539.00,71.60,44.60,37.89,300.00,12.00,0.00,30.20,M,10.00,M,CLR,M,M,M,M,M,M,M,M,M,M,M,M,M,M,71.60,KRTS 020335Z AUTO 30012KT 10SM CLR 22/07 A3020 RMK AO2,M
TMT,2022-08-02 03:35,-117.1971,39.4643,1749.34,M,M,M,200.00,8.00,0.00,30.21,M,10.00,M,SCT,M,M,M,12000.00,M,M,M,M,M,M,M,M,M,M,M,KTMT 020335Z AUTO 20008KT 10SM SCT120 A3021 RMK AO2,M
BVU,2022-08-02 03:35,-114.8611,35.9475,671.00,84.20,64.40,51.47,360.00,3.00,0.00,29.95,M,M,M,M,M,M,M,M,M,M,M,M,M,M,M,M,M,M,85.71,KBVU 020335Z AUTO 36003KT 29/18 A2995 RMK AO2 PWINO TSNO,M
HTH,2022-08-02 03:35,-118.6315,38.5448,1282.89,80.60,51.80,36.79,150.00,9.00,0.00,30.11,M,10.00,M,FEW,SCT,BKN,M,7000.00,9500.00,12000.00,M,M,M,M,M,M,M,M,80.08,KHTH 020335Z AUTO 15009KT 10SM FEW070 SCT095 BKN120 27/11 A3011 RMK A01,M
MEV,2022-08-02 03:35,-119.7500,38.9963,1441.42,68.00,59.00,72.92,M,4.00,0.00,30.17,M,10.00,M,BKN,M,M,M,12000.00,M,M,M,M,M,M,M,M,M,M,68.00,KMEV 020335Z AUTO VRB04KT 10SM BKN120 20/15 A3017 RMK AO2,M
BAM,2022-08-02 03:35,-116.8743,40.5990,1382.36,78.80,50.00,36.51,60.00,10.00,0.00,30.10,M,10.00,M,OVC,M,M,M,12000.00,M,M,M,M,M,M,M,M,M,M,78.80,KBAM 020335Z AUTO 06010KT 10SM OVC120 26/10 A3010 RMK AO1,M
05U,2022-08-02 03:35,-116.0051,39.6042,1811.23,M,M,M,M,M,0.00,M,M,M,M,M,M,M,M,M,M,M,M,M,M,M,M,M,M,M,M,K05U 020335Z AUTO RMK A01 PNO,M
CXP,2022-08-02 03:50,-119.7326,39.1923,1431.00,73.40,55.40,53.29,0.00,0.00,0.00,30.18,M,10.00,M,BKN,BKN,M,M,7000.00,12000.00,M,M,M,M,M,M,M,M,M,73.40,KCXP 020350Z AUTO 00000KT 10SM BKN070 BKN120 23/13 A3018 RMK AO2,M
LOL,2022-08-02 03:53,-118.5701,40.0684,1192.43,84.00,46.00,26.52,260.00,14.00,0.00,30.02,1011.70,10.00,18.00,CLR,M,M,M,M,M,M,M,M,M,M,M,M,M,M,81.69,KLOL 020353Z AUTO 26014G18KT 10SM CLR 29/08 A3002 RMK AO2 SLP117 T02890078,M
VGT,2022-08-02 03:53,-115.1933,36.2111,667.00,91.00,63.00,39.49,180.00,6.00,0.00,29.93,1012.40,10.00,M,CLR,M,M,M,M,M,M,M,M,M,M,M,M,M,M,92.00,KVGT 020353Z 18006KT 10SM CLR 33/17 A2993 RMK AO2 SLP124 T03280172,M
DRA,2022-08-02 03:53,-116.0278,36.6206,1009.00,85.00,60.00,43.24,240.00,11.00,0.00,30.03,1011.80,10.00,M,CLR,M,M,M,M,M,M,M,M,M,M,M,M,M,M,84.83,KDRA 020353Z AUTO 24011KT 10SM CLR 29/16 A3003 RMK AO2 SLP118 T02940156,M
ELY,2022-08-02 03:53,-114.8453,39.2950,1909.00,65.00,57.00,75.56,0.00,0.00,0.00,30.24,1014.60,10.00,M,CLR,M,M,M,M,M,M,M,M,M,M,M,M,M,M,64.90,KELY 020353Z AUTO 00000KT 10SM CLR 18/14 A3024 RMK AO2 SLP146 T01830139,M
RNO,2022-08-02 03:55,-119.7711,39.4839,1341.00,78.00,47.00,33.26,280.00,11.00,0.00,30.14,1014.90,10.00,M,BKN,BKN,M,M,14000.00,25000.00,M,M,M,M,M,M,M,M,M,78.10,KRNO 020355Z 28011KT 10SM BKN140 BKN250 26/08 A3014 RMK AO2 SLP149 T02560083,M
05U,2022-08-02 03:55,-116.0051,39.6042,1811.23,M,M,M,M,M,0.00,M,M,M,M,M,M,M,M,M,M,M,M,M,M,M,M,M,M,M,M,K05U 020355Z AUTO RMK A01 PNO,M
MEV,2022-08-02 03:55,-119.7500,38.9963,1441.42,66.20,59.00,77.60,190.00,3.00,0.00,30.18,M,10.00,M,BKN,M,M,M,11000.00,M,M,M,M,M,M,M,M,M,M,66.20,KMEV 020355Z AUTO 19003KT 10SM BKN110 19/15 A3018 RMK AO2,M
BAM,2022-08-02 03:55,-116.8743,40.5990,1382.36,77.00,53.60,44.25,60.00,15.00,0.00,30.10,M,10.00,M,BKN,M,M,M,12000.00,M,M,M,M,M,M,M,M,M,M,77.00,KBAM 020355Z AUTO 06015KT 10SM BKN120 25/12 A3010 RMK AO1,M
HTH,2022-08-02 03:55,-118.6315,38.5448,1282.89,78.80,53.60,41.69,100.00,7.00,0.00,30.11,M,10.00,M,SCT,M,M,M,12000.00,M,M,M,M,M,M,M,M,M,M,78.80,KHTH 020355Z AUTO 10007KT 10SM SCT120 26/12 A3011 RMK A01,M
RTS,2022-08-02 03:55,-119.8764,39.6682,1539.00,69.80,44.60,40.29,300.00,12.00,0.00,30.21,M,10.00,M,CLR,M,M,M,M,M,M,M,M,M,M,M,M,M,M,69.80,KRTS 020355Z AUTO 30012KT 10SM CLR 21/07 A3021 RMK AO2,M
TMT,2022-08-02 03:55,-117.1971,39.4643,1749.34,M,M,M,200.00,10.00,0.00,30.21,M,10.00,M,BKN,M,M,M,11000.00,M,M,M,M,M,M,M,M,M,M,M,KTMT 020355Z AUTO 20010KT 10SM BKN110 A3021 RMK AO2,M
BVU,2022-08-02 03:55,-114.8611,35.9475,671.00,82.40,64.40,54.55,0.00,0.00,0.00,29.96,M,M,M,M,M,M,M,M,M,M,M,M,M,M,M,M,M,M,83.98,KBVU 020355Z AUTO 00000KT 28/18 A2996 RMK AO2 PWINO TSNO,M
WMC,2022-08-02 03:56,-117.8072,40.9019,1315.00,78.00,53.00,41.89,160.00,7.00,0.00,30.06,1012.20,10.00,M,BKN,M,M,M,12000.00,M,M,M,M,M,M,M,M,M,M,78.10,KWMC 020356Z AUTO 16007KT 10SM BKN120 26/12 A3006 RMK AO2 SLP122 T02560117,M
HND,2022-08-02 03:56,-115.1344,35.9729,742.79,85.00,64.00,49.62,180.00,10.00,0.00,29.99,1014.20,10.00,M,CLR,M,M,M,M,M,M,M,M,M,M,M,M,M,M,86.23,KHND 020356Z AUTO 18010KT 10SM CLR 29/18 A2999 RMK AO2 SLP142 T02940178,M
TPH,2022-08-02 03:56,-117.0904,38.0505,1654.00,67.00,61.00,81.33,340.00,5.00,0.05,30.22,1017.20,10.00,M,OVC,M,M,M,10000.00,M,M,M,-RA,M,M,M,M,M,M,66.90,KTPH 020356Z AUTO 34005KT 10SM -RA OVC100 19/16 A3022 RMK AO2 SLP172 P0005 T01940161,M
NFL,2022-08-02 03:56,-118.7010,39.4166,1199.00,76.00,55.00,48.30,240.00,13.00,0.00,30.08,1015.30,10.00,M,FEW,SCT,BKN,M,8000.00,12000.00,18000.00,M,M,M,M,M,M,M,M,75.90,KNFL 020356Z 24013KT 10SM FEW080 SCT120 BKN180 24/13 A3008 RMK AO2 SLP153 T02440128,M
LAS,2022-08-02 03:56,-115.1634,36.0719,663.00,87.00,63.00,44.66,180.00,10.00,0.00,29.94,1011.10,10.00,M,FEW,FEW,BKN,M,8000.00,15000.00,22000.00,M,M,M,M,M,M,M,M,87.96,KLAS 020356Z 18010KT 10SM FEW080 FEW150 BKN220 31/17 A2994 RMK AO2 SLP111 T03060172,M
EKO,2022-08-02 03:56,-115.7860,40.8242,1367.00,67.00,58.00,72.81,250.00,3.00,0.01,30.15,1015.50,10.00,M,FEW,BKN,OVC,M,7000.00,9000.00,12000.00,M,M,M,M,M,M,M,M,66.90,KEKO 020356Z AUTO 25003KT 10SM FEW070 BKN090 OVC120 19/14 A3015 RMK AO2 RAE02 SLP155 P0001 T01940144,M
INS,2022-08-02 03:58,-115.6733,36.5872,955.00,78.00,65.30,64.79,190.00,3.00,0.00,30.02,1011.90,10.00,M,BKN,M,M,M,14000.00,M,M,M,M,M,M,M,M,M,M,78.10,KINS 020358Z AUTO 19003KT 10SM BKN140 26/19 A3002 RMK AO2 SLP119 T02560185,M
LSV,2022-08-02 03:58,-115.0343,36.2362,570.00,86.00,62.60,45.61,M,6.00,0.00,29.93,M,10.00,M,SCT,BKN,M,M,15000.00,20000.00,M,M,M,M,M,M,M,M,M,86.72,KLSV 020358Z VRB06KT 10SM SCT150 BKN200 30/17 A2993 RMK AO2A SLPNO WND DATA ESTMD RVRNO $,M
CXP,2022-08-02 04:10,-119.7326,39.1923,1431.00,71.60,55.40,56.63,60.00,4.00,0.00,30.19,M,10.00,M,FEW,M,M,M,12000.00,M,M,M,M,M,M,M,M,M,M,71.60,KCXP 020410Z AUTO 06004KT 10SM FEW120 22/13 A3019 RMK AO2,M
HTH,2022-08-02 04:15,-118.6315,38.5448,1282.89,77.00,53.60,44.25,M,M,0.00,30.12,M,10.00,M,SCT,M,M,M,12000.00,M,M,M,M,M,M,M,M,M,M,77.00,KHTH 020415Z AUTO 10SM SCT120 25/12 A3012 RMK A01,M
MEV,2022-08-02 04:15,-119.7500,38.9963,1441.42,66.20,59.00,77.60,180.00,4.00,0.00,30.18,M,10.00,M,OVC,M,M,M,10000.00,M,M,M,M,M,M,M,M,M,M,66.20,KMEV 020415Z AUTO 18004KT 10SM OVC100 19/15 A3018 RMK AO2,M
BAM,2022-08-02 04:15,-116.8743,40.5990,1382.36,77.00,53.60,44.25,60.00,14.00,0.00,30.11,M,10.00,18.00,BKN,M,M,M,11000.00,M,M,M,M,M,M,M,M,M,M,77.00,KBAM 020415Z AUTO 06014G18KT 10SM BKN110 25/12 A3011 RMK AO1,M
TMT,2022-08-02 04:15,-117.1971,39.4643,1749.34,M,M,M,200.00,9.00,0.00,30.22,M,10.00,M,BKN,M,M,M,11000.00,M,M,M,M,M,M,M,M,M,M,M,KTMT 020415Z AUTO 20009KT 10SM BKN110 A3022 RMK AO2 LTG DSNT E,M
BVU,2022-08-02 04:15,-114.8611,35.9475,671.00,82.40,64.40,54.55,280.00,4.00,0.00,29.97,M,M,M,M,M,M,M,M,M,M,M,M,M,M,M,M,M,M,83.98,KBVU 020415Z AUTO 28004KT 28/18 A2997 RMK AO2 PWINO TSNO,M
RTS,2022-08-02 04:15,-119.8764,39.6682,1539.00,69.80,44.60,40.29,290.00,11.00,0.00,30.21,M,10.00,M,CLR,M,M,M,M,M,M,M,M,M,M,M,M,M,M,69.80,KRTS 020415Z AUTO 29011KT 10SM CLR 21/07 A3021 RMK AO2,M
05U,2022-08-02 04:15,-116.0051,39.6042,1811.23,M,M,M,M,M,0.00,M,M,M,M,M,M,M,M,M,M,M,M,M,M,M,M,M,M,M,M,K05U 020415Z AUTO RMK A01 PNO,M
CXP,2022-08-02 04:30,-119.7326,39.1923,1431.00,71.60,55.40,56.63,80.00,5.00,0.00,30.19,M,10.00,M,CLR,M,M,M,M,M,M,M,M,M,M,M,M,M,M,71.60,KCXP 020430Z AUTO 08005KT 10SM CLR 22/13 A3019 RMK AO2,M
05U,2022-08-02 04:35,-116.0051,39.6042,1811.23,M,M,M,M,M,0.00,M,M,M,M,M,M,M,M,M,M,M,M,M,M,M,M,M,M,M,M,K05U 020435Z AUTO RMK A01 PNO,M
RTS,2022-08-02 04:35,-119.8764,39.6682,1539.00,69.80,44.60,40.29,290.00,12.00,0.00,30.22,M,10.00,M,CLR,M,M,M,M,M,M,M,M,M,M,M,M,M,M,69.80,KRTS 020435Z AUTO 29012KT 10SM CLR 21/07 A3022 RMK AO2,M
BVU,2022-08-02 04:35,-114.8611,35.9475,671.00,82.40,64.40,54.55,290.00,4.00,0.00,29.97,M,M,M,M,M,M,M,M,M,M,M,M,M,M,M,M,M,M,83.98,KBVU 020435Z AUTO 29004KT 28/18 A2997 RMK AO2 PWINO TSNO,M
HTH,2022-08-02 04:35,-118.6315,38.5448,1282.89,77.00,53.60,44.25,90.00,8.00,0.00,30.12,M,10.00,M,FEW,M,M,M,11000.00,M,M,M,M,M,M,M,M,M,M,77.00,KHTH 020435Z AUTO 09008KT 10SM FEW110 25/12 A3012 RMK A01,M
TMT,2022-08-02 04:35,-117.1971,39.4643,1749.34,M,M,M,210.00,8.00,0.00,30.22,M,10.00,M,BKN,M,M,M,11000.00,M,M,M,M,M,M,M,M,M,M,M,KTMT 020435Z AUTO 21008KT 10SM BKN110 A3022 RMK AO2 LTG DSNT N,M
BAM,2022-08-02 04:35,-116.8743,40.5990,1382.36,75.20,55.40,50.17,60.00,12.00,0.00,30.12,M,10.00,M,OVC,M,M,M,11000.00,M,M,M,M,M,M,M,M,M,M,75.20,KBAM 020435Z AUTO 06012KT 10SM OVC110 24/13 A3012 RMK AO1,M
MEV,2022-08-02 04:35,-119.7500,38.9963,1441.42,66.20,59.00,77.60,150.00,8.00,0.00,30.19,M,10.00,M,BKN,M,M,M,11000.00,M,M,M,M,M,M,M,M,M,M,66.20,KMEV 020435Z AUTO 15008KT 10SM BKN110 19/15 A3019 RMK AO2,M
CXP,2022-08-02 04:50,-119.7326,39.1923,1431.00,71.60,53.60,53.03,60.00,3.00,0.00,30.19,M,10.00,M,CLR,M,M,M,M,M,M,M,M,M,M,M,M,M,M,71.60,KCXP 020450Z AUTO 06003KT 10SM CLR 22/12 A3019 RMK AO2,M
LOL,2022-08-02 04:53,-118.5701,40.0684,1192.43,81.00,46.00,29.23,220.00,6.00,0.00,30.05,1012.70,10.00,M,CLR,M,M,M,M,M,M,M,M,M,M,M,M,M,M,79.76,KLOL 020453Z AUTO 22006KT 10SM CLR 27/08 A3005 RMK AO2 SLP127 T02720078,M
ELY,2022-08-02 04:53,-114.8453,39.2950,1909.00,62.00,55.00,77.53,0.00,0.00,0.00,30.26,1015.00,10.00,M,FEW,BKN,M,M,4700.00,6000.00,M,M,M,M,M,M,M,M,M,62.10,KELY 020453Z AUTO 00000KT 10SM FEW047 BKN060 17/13 A3026 RMK AO2 SLP150 T01670128,M
VGT,2022-08-02 04:53,-115.1933,36.2111,667.00,89.00,63.00,41.92,170.00,5.00,0.00,29.95,1013.10,10.00,M,CLR,M,M,M,M,M,M,M,M,M,M,M,M,M,M,89.99,KVGT 020453Z AUTO 17005KT 10SM CLR 32/17 A2995 RMK AO2 SLP131 T03170172,M
DRA,2022-08-02 04:53,-116.0278,36.6206,1009.00,84.00,60.00,44.51,220.00,9.00,0.00,30.05,1012.50,10.00,M,CLR,M,M,M,M,M,M,M,M,M,M,M,M,M,M,84.05,KDRA 020453Z AUTO 22009KT 10SM CLR 29/16 A3005 RMK AO2 SLP125 T02890156,M
TMT,2022-08-02 04:55,-117.1971,39.4643,1749.34,M,M,M,200.00,8.00,0.00,30.22,M,10.00,M,BKN,M,M,M,11000.00,M,M,M,M,M,M,M,M,M,M,M,KTMT 020455Z AUTO 20008KT 10SM BKN110 A3022 RMK AO2,M
RTS,2022-08-02 04:55,-119.8764,39.6682,1539.00,69.80,44.60,40.29,300.00,11.00,0.00,30.22,M,10.00,M,CLR,M,M,M,M,M,M,M,M,M,M,M,M,M,M,69.80,KRTS 020455Z AUTO 30011KT 10SM CLR 21/07 A3022 RMK AO2,M
05U,2022-08-02 04:55,-116.0051,39.6042,1811.23,M,M,M,M,M,0.00,M,M,M,M,M,M,M,M,M,M,M,M,M,M,M,M,M,M,M,M,K05U 020455Z AUTO RMK A01 PNO,M
MEV,2022-08-02 04:55,-119.7500,38.9963,1441.42,66.20,59.00,77.60,140.00,5.00,0.00,30.19,M,10.00,M,CLR,M,M,M,M,M,M,M,M,M,M,M,M,M,M,66.20,KMEV 020455Z AUTO 14005KT 10SM CLR 19/15 A3019 RMK AO2,M
BAM,2022-08-02 04:55,-116.8743,40.5990,1382.36,75.20,55.40,50.17,60.00,8.00,0.00,30.12,M,10.00,M,OVC,M,M,M,11000.00,M,M,M,M,M,M,M,M,M,M,75.20,KBAM 020455Z AUTO 06008KT 10SM OVC110 24/13 A3012 RMK AO1,M
HTH,2022-08-02 04:55,-118.6315,38.5448,1282.89,77.00,53.60,44.25,110.00,6.00,0.00,30.12,M,10.00,M,BKN,M,M,M,11000.00,M,M,M,M,M,M,M,M,M,M,77.00,KHTH 020455Z AUTO 11006KT 10SM BKN110 25/12 A3012 RMK A01,M
RNO,2022-08-02 04:55,-119.7711,39.4839,1341.00,77.00,47.00,34.50,290.00,10.00,0.00,30.15,1015.10,10.00,M,BKN,BKN,M,M,15000.00,25000.00,M,M,M,M,M,M,M,M,M,77.00,KRNO 020455Z 29010KT 10SM BKN150 BKN250 25/08 A3015 RMK AO2 SLP151 T02500083,M
BVU,2022-08-02 04:55,-114.8611,35.9475,671.00,82.40,64.40,54.55,320.00,4.00,0.00,29.97,M,M,M,M,M,M,M,M,M,M,M,M,M,M,M,M,M,M,83.98,KBVU 020455Z AUTO 32004KT 28/18 A2997 RMK AO2 PWINO TSNO,M
HND,2022-08-02 04:56,-115.1344,35.9729,742.79,83.00,65.00,54.62,210.00,14.00,0.00,30.01,1014.80,10.00,M,CLR,M,M,M,M,M,M,M,M,M,M,M,M,M,M,84.64,KHND 020456Z AUTO 21014KT 10SM CLR 28/18 A3001 RMK AO2 SLP148 T02830183,M
LAS,2022-08-02 04:56,-115.1634,36.0719,663.00,87.00,63.00,44.66,200.00,10.00,0.00,29.96,1011.70,10.00,M,FEW,FEW,BKN,M,8000.00,15000.00,22000.00,M,M,M,M,M,M,M,M,87.96,KLAS 020456Z 20010KT 10SM FEW080 FEW150 BKN220 31/17 A2996 RMK AO2 SLP117 T03060172,M
WMC,2022-08-02 04:56,-117.8072,40.9019,1315.00,76.00,57.00,51.93,120.00,5.00,T,30.09,1013.10,10.00,M,OVC,M,M,M,9500.00,M,M,M,-RA,M,M,M,M,M,M,75.90,KWMC 020456Z AUTO 12005KT 10SM -RA OVC095 24/14 A3009 RMK AO2 RAB42 SLP131 P0000 T02440139,M
EKO,2022-08-02 04:56,-115.7860,40.8242,1367.00,65.00,60.00,84.44,240.00,3.00,0.00,30.14,1015.00,10.00,M,FEW,OVC,M,M,8500.00,11000.00,M,M,M,M,M,M,M,M,M,64.90,KEKO 020456Z AUTO 24003KT 10SM FEW085 OVC110 18/16 A3014 RMK AO2 SLP150 T01830156,M
NFL,2022-08-02 04:56,-118.7010,39.4166,1199.00,75.00,54.00,47.99,190.00,8.00,0.00,30.09,1015.70,10.00,M,FEW,SCT,BKN,M,8000.00,12000.00,18000.00,M,M,M,M,M,M,M,M,75.00,KNFL 020456Z 19008KT 10SM FEW080 SCT120 BKN180 24/12 A3009 RMK AO2 SLP157 T02390122,M
TPH,2022-08-02 04:56,-117.0904,38.0505,1654.00,67.00,63.00,87.28,20.00,7.00,0.02,30.22,1016.80,10.00,M,BKN,M,M,M,11000.00,M,M,M,M,M,M,M,M,M,M,66.90,KTPH 020456Z AUTO 02007KT 10SM BKN110 19/17 A3022 RMK AO2 RAE32 SLP168 P0002 T01940172,M
LSV,2022-08-02 04:58,-115.0343,36.2362,570.00,87.80,62.60,43.07,0.00,0.00,0.00,29.94,M,10.00,M,CLR,M,M,M,M,M,M,M,M,M,M,M,M,M,M,88.48,KLSV 020458Z 00000KT 10SM CLR 31/17 A2994 RMK AO2A SLPNO WND DATA ESTMD $,M
INS,2022-08-02 04:58,-115.6733,36.5872,955.00,80.00,62.80,55.95,0.00,0.00,0.00,30.04,1012.50,10.00,M,CLR,M,M,M,M,M,M,M,M,M,M,M,M,M,M,79.90,KINS 020458Z AUTO 00000KT 10SM CLR 27/17 A3004 RMK AO2 SLP125 T02660171,M
CXP,2022-08-02 05:10,-119.7326,39.1923,1431.00,71.60,53.60,53.03,0.00,0.00,0.00,30.20,M,10.00,M,FEW,M,M,M,11000.00,M,M,M,M,M,M,M,M,M,M,71.60,KCXP 020510Z AUTO 00000KT 10SM FEW110 22/12 A3020 RMK AO2,M
BAM,2022-08-02 05:15,-116.8743,40.5990,1382.36,77.00,55.40,47.25,60.00,8.00,0.00,30.12,M,10.00,M,OVC,M,M,M,10000.00,M,M,M,M,M,M,M,M,M,M,77.00,KBAM 020515Z AUTO 06008KT 10SM OVC100 25/13 A3012 RMK AO1,M
BVU,2022-08-02 05:15,-114.8611,35.9475,671.00,82.40,64.40,54.55,0.00,0.00,0.00,29.98,M,M,M,M,M,M,M,M,M,M,M,M,M,M,M,M,M,M,83.98,KBVU 020515Z AUTO 00000KT 28/18 A2998 RMK AO2 PWINO TSNO,M
HTH,2022-08-02 05:15,-118.6315,38.5448,1282.89,77.00,55.40,47.25,90.00,5.00,0.00,30.13,M,10.00,M,OVC,M,M,M,11000.00,M,M,M,M,M,M,M,M,M,M,77.00,KHTH 020515Z AUTO 09005KT 10SM OVC110 25/13 A3013 RMK A01,M
TMT,2022-08-02 05:15,-117.1971,39.4643,1749.34,M,M,M,190.00,7.00,0.00,30.22,M,10.00,M,SCT,BKN,M,M,8500.00,11000.00,M,M,M,M,M,M,M,M,M,M,KTMT 020515Z AUTO 19007KT 10SM SCT085 BKN110 A3022 RMK AO2,M
MEV,2022-08-02 05:15,-119.7500,38.9963,1441.42,64.40,57.20,77.45,130.00,5.00,0.00,30.19,M,10.00,M,CLR,M,M,M,M,M,M,M,M,M,M,M,M,M,M,64.40,KMEV 020515Z AUTO 13005KT 10SM CLR 18/14 A3019 RMK AO2,M
05U,2022-08-02 05:15,-116.0051,39.6042,1811.23,M,M,M,M,M,0.00,M,M,M,M,M,M,M,M,M,M,M,M,M,M,M,M,M,M,M,M,K05U 020515Z AUTO RMK A01 PNO,M
RTS,2022-08-02 05:15,-119.8764,39.6682,1539.00,69.80,44.60,40.29,300.00,10.00,0.00,30.22,M,10.00,M,CLR,M,M,M,M,M,M,M,M,M,M,M,M,M,M,69.80,KRTS 020515Z AUTO 30010KT 10SM CLR 21/07 A3022 RMK AO2,M
CXP,2022-08-02 05:30,-119.7326,39.1923,1431.00,71.60,51.80,49.64,0.00,0.00,0.00,30.19,M,10.00,M,BKN,M,M,M,11000.00,M,M,M,M,M,M,M,M,M,M,71.60,KCXP 020530Z AUTO 00000KT 10SM BKN110 22/11 A3019 RMK AO2,M
RTS,2022-08-02 05:35,-119.8764,39.6682,1539.00,69.80,44.60,40.29,290.00,8.00,0.00,30.22,M,10.00,13.00,CLR,M,M,M,M,M,M,M,M,M,M,M,M,M,M,69.80,KRTS 020535Z AUTO 29008G13KT 10SM CLR 21/07 A3022 RMK AO2,M
BVU,2022-08-02 05:35,-114.8611,35.9475,671.00,82.40,64.40,54.55,0.00,0.00,0.00,29.98,M,M,M,M,M,M,M,M,M,M,M,M,M,M,M,M,M,M,83.98,KBVU 020535Z AUTO 00000KT 28/18 A2998 RMK AO2 PWINO TSNO,M
TMT,2022-08-02 05:35,-117.1971,39.4643,1749.34,M,M,M,200.00,7.00,0.00,30.23,M,10.00,M,CLR,M,M,M,M,M,M,M,M,M,M,M,M,M,M,M,KTMT 020535Z AUTO 20007KT 10SM CLR A3023 RMK AO2,M
HTH,2022-08-02 05:35,-118.6315,38.5448,1282.89,75.20,55.40,50.17,100.00,4.00,0.00,30.13,M,10.00,M,SCT,M,M,M,11000.00,M,M,M,M,M,M,M,M,M,M,75.20,KHTH 020535Z AUTO 10004KT 10SM SCT110 24/13 A3013 RMK A01,M
BAM,2022-08-02 05:35,-116.8743,40.5990,1382.36,77.00,55.40,47.25,60.00,7.00,0.00,30.12,M,10.00,M,OVC,M,M,M,10000.00,M,M,M,M,M,M,M,M,M,M,77.00,KBAM 020535Z AUTO 06007KT 10SM OVC100 25/13 A3012 RMK AO1,M
MEV,2022-08-02 05:35,-119.7500,38.9963,1441.42,62.60,57.20,82.50,140.00,3.00,0.00,30.19,M,10.00,M,CLR,M,M,M,M,M,M,M,M,M,M,M,M,M,M,62.60,KMEV 020535Z AUTO 14003KT 10SM CLR 17/14 A3019 RMK AO2,M
05U,2022-08-02 05:35,-116.0051,39.6042,1811.23,M,M,M,M,M,0.00,M,M,M,M,M,M,M,M,M,M,M,M,M,M,M,M,M,M,M,M,K05U 020535Z AUTO RMK A01 PNO,M
CXP,2022-08-02 05:50,-119.7326,39.1923,1431.00,71.60,51.80,49.64,70.00,5.00,0.00,30.19,M,10.00,M,SCT,M,M,M,12000.00,M,M,M,M,M,M,M,M,M,M,71.60,KCXP 020550Z AUTO 07005KT 10SM SCT120 22/11 A3019 RMK AO2,M
ELY,2022-08-02 05:53,-114.8453,39.2950,1909.00,62.00,55.00,77.53,170.00,3.00,0.00,30.26,1014.80,10.00,M,BKN,BKN,M,M,4700.00,6000.00,M,M,M,M,M,M,M,M,M,62.10,KELY 020553Z AUTO 17003KT 10SM BKN047 BKN060 17/13 A3026 RMK AO2 SLP148 60000 T01670128 10233 20161 50006,M
VGT,2022-08-02 05:53,-115.1933,36.2111,667.00,89.00,62.00,40.61,0.00,0.00,0.00,29.96,1013.10,10.00,M,CLR,M,M,M,M,M,M,M,M,M,M,M,M,M,M,89.58,KVGT 020553Z AUTO 00000KT 10SM CLR 32/17 A2996 RMK AO2 SLP131 T03170167 10344 20317 51012,M
LOL,2022-08-02 05:53,-118.5701,40.0684,1192.43,79.00,45.00,30.05,90.00,5.00,0.00,30.08,1013.60,10.00,M,CLR,M,M,M,M,M,M,M,M,M,M,M,M,M,M,79.00,KLOL 020553Z AUTO 09005KT 10SM CLR 26/07 A3008 RMK AO2 SLP136 T02610072 10350 20256 53019,M
DRA,2022-08-02 05:53,-116.0278,36.6206,1009.00,84.00,60.00,44.51,210.00,8.00,0.00,30.06,1012.50,10.00,M,SCT,M,M,M,9000.00,M,M,M,M,M,M,M,M,M,M,84.05,KDRA 020553Z AUTO 21008KT 10SM SCT090 29/16 A3006 RMK AO2 SLP125 T02890156 10356 20289 51016,M
HTH,2022-08-02 05:55,-118.6315,38.5448,1282.89,75.20,55.40,50.17,0.00,0.00,0.00,30.13,M,10.00,M,CLR,M,M,M,M,M,M,M,M,M,M,M,M,M,M,75.20,KHTH 020555Z AUTO 00000KT 10SM CLR 24/13 A3013 RMK A01,M
05U,2022-08-02 05:55,-116.0051,39.6042,1811.23,M,M,M,M,M,0.00,M,M,M,M,M,M,M,M,M,M,M,M,M,M,M,M,M,M,M,M,K05U 020555Z AUTO RMK A01 PNO,M
RTS,2022-08-02 05:55,-119.8764,39.6682,1539.00,69.80,44.60,40.29,300.00,10.00,0.00,30.22,M,10.00,M,CLR,M,M,M,M,M,M,M,M,M,M,M,M,M,M,69.80,KRTS 020555Z AUTO 30010KT 10SM CLR 21/07 A3022 RMK AO2,M
TMT,2022-08-02 05:55,-117.1971,39.4643,1749.34,M,M,M,160.00,4.00,0.00,30.23,M,10.00,M,CLR,M,M,M,M,M,M,M,M,M,M,M,M,M,M,M,KTMT 020555Z AUTO 16004KT 10SM CLR A3023 RMK AO2 LTG DSNT NW,M
RNO,2022-08-02 05:55,-119.7711,39.4839,1341.00,76.00,46.00,34.58,340.00,9.00,0.00,30.16,1015.30,10.00,M,SCT,BKN,M,M,14000.00,25000.00,M,M,M,M,M,M,M,M,M,75.90,KRNO 020555Z 34009KT 10SM SCT140 BKN250 24/08 A3016 RMK AO2 SLP153 T02440078 10289 20244 51009,M
BVU,2022-08-02 05:55,-114.8611,35.9475,671.00,82.40,66.20,58.08,0.00,0.00,0.00,29.99,M,M,M,M,M,M,M,M,M,M,M,M,M,M,M,M,M,M,84.63,KBVU 020555Z AUTO 00000KT 28/19 A2999 RMK AO2 PWINO TSNO,M
BAM,2022-08-02 05:55,-116.8743,40.5990,1382.36,77.00,55.40,47.25,70.00,8.00,0.00,30.12,M,10.00,M,OVC,M,M,M,10000.00,M,M,M,M,M,M,M,M,M,M,77.00,KBAM 020555Z AUTO 07008KT 10SM OVC100 25/13 A3012 RMK AO1,M
MEV,2022-08-02 05:55,-119.7500,38.9963,1441.42,60.80,55.40,82.37,110.00,6.00,0.00,30.19,M,10.00,M,FEW,FEW,M,M,6000.00,12000.00,M,M,M,M,M,M,M,M,M,60.80,KMEV 020555Z AUTO 11006KT 10SM FEW060 FEW120 16/13 A3019 RMK AO2,M
LAS,2022-08-02 05:56,-115.1634,36.0719,663.00,86.00,64.00,47.91,190.00,7.00,0.00,29.96,1011.80,10.00,M,FEW,SCT,M,M,15000.00,22000.00,M,M,M,M,M,M,M,M,M,87.31,KLAS 020556Z 19007KT 10SM FEW150 SCT220 30/18 A2996 RMK AO2 SLP118 T03000178 10322 20300 51010,M
NFL,2022-08-02 05:56,-118.7010,39.4166,1199.00,75.00,55.00,49.78,240.00,5.00,0.00,30.10,1016.00,10.00,M,FEW,SCT,M,M,8000.00,12000.00,M,M,M,M,M,M,M,M,M,75.00,KNFL 020556Z 24005KT 10SM FEW080 SCT120 24/13 A3010 RMK AO2 SLP160 T02390128 10322 20239 51013,M
EKO,2022-08-02 05:56,-115.7860,40.8242,1367.00,66.00,60.00,81.27,0.00,0.00,0.00,30.16,1015.50,10.00,M,SCT,BKN,M,M,9000.00,11000.00,M,M,M,M,M,M,M,M,M,66.00,KEKO 020556Z AUTO 00000KT 10SM SCT090 BKN110 19/16 A3016 RMK AO2 SLP155 60004 T01890156 10244 20183 53004,M
WMC,2022-08-02 05:56,-117.8072,40.9019,1315.00,75.00,56.00,51.43,50.00,8.00,T,30.09,1013.30,10.00,M,CLR,M,M,M,M,M,M,M,M,M,M,M,M,M,M,75.00,KWMC 020556Z AUTO 05008KT 10SM CLR 24/13 A3009 RMK AO2 RAE28 SLP133 P0000 60000 T02390133 10272 20239 51017,M
TPH,2022-08-02 05:56,-117.0904,38.0505,1654.00,66.00,62.00,87.24,10.00,3.00,0.00,30.23,1016.90,10.00,M,CLR,M,M,M,M,M,M,M,M,M,M,M,M,M,M,66.00,KTPH 020556Z AUTO 01003KT 10SM CLR 19/17 A3023 RMK AO2 SLP169 60007 T01890167 10244 20189 51008,M
HND,2022-08-02 05:56,-115.1344,35.9729,742.79,83.00,65.00,54.62,180.00,12.00,0.00,30.02,1015.10,10.00,M,CLR,M,M,M,M,M,M,M,M,M,M,M,M,M,M,84.64,KHND 020556Z AUTO 18012KT 10SM CLR 28/18 A3002 RMK AO2 SLP151 60000 T02830183 10317 20278 53010,M
LSV,2022-08-02 05:58,-115.0343,36.2362,570.00,87.80,32.00,13.59,180.00,3.00,0.00,29.96,M,10.00,M,BKN,M,M,M,15000.00,M,M,M,M,M,M,M,M,M,M,84.08,KLSV 020558Z 18003KT 10SM BKN150 31/00 A2996 RMK AO2A SLPNO WND DATA ESTMD 10344 20328 $,M
INS,2022-08-02 05:58,-115.6733,36.5872,955.00,78.00,68.20,71.64,0.00,0.00,0.00,30.05,1012.80,10.00,M,BKN,M,M,M,16000.00,M,M,M,M,M,M,M,M,M,M,78.10,KINS 020558Z AUTO 00000KT 10SM BKN160 26/20 A3005 RMK AO2 SLP128 60000 T02560201 10316 20246 52017,M
CXP,2022-08-02 06:10,-119.7326,39.1923,1431.00,69.80,53.60,56.38,90.00,4.00,0.00,30.19,M,10.00,M,SCT,M,M,M,10000.00,M,M,M,M,M,M,M,M,M,M,69.80,KCXP 020610Z AUTO 09004KT 10SM SCT100 21/12 A3019 RMK AO2 LTG DSNT NW,M
HTH,2022-08-02 06:15,-118.6315,38.5448,1282.89,75.20,55.40,50.17,0.00,0.00,0.00,30.13,M,10.00,M,CLR,M,M,M,M,M,M,M,M,M,M,M,M,M,M,75.20,KHTH 020615Z AUTO 00000KT 10SM CLR 24/13 A3013 RMK A01,M
05U,2022-08-02 06:15,-116.0051,39.6042,1811.23,M,M,M,M,M,0.00,M,M,M,M,M,M,M,M,M,M,M,M,M,M,M,M,M,M,M,M,K05U 020615Z AUTO RMK A01 PNO,M
BAM,2022-08-02 06:15,-116.8743,40.5990,1382.36,77.00,55.40,47.25,70.00,10.00,0.00,30.12,M,10.00,M,OVC,M,M,M,11000.00,M,M,M,M,M,M,M,M,M,M,77.00,KBAM 020615Z AUTO 07010KT 10SM OVC110 25/13 A3012 RMK AO1,M
BVU,2022-08-02 06:15,-114.8611,35.9475,671.00,82.40,66.20,58.08,320.00,4.00,0.00,29.98,M,M,M,M,M,M,M,M,M,M,M,M,M,M,M,M,M,M,84.63,KBVU 020615Z AUTO 32004KT 28/19 A2998 RMK AO2 PWINO TSNO,M
MEV,2022-08-02 06:15,-119.7500,38.9963,1441.42,60.80,55.40,82.37,100.00,5.00,0.00,30.19,M,10.00,M,BKN,M,M,M,11000.00,M,M,M,M,M,M,M,M,M,M,60.80,KMEV 020615Z AUTO 10005KT 10SM BKN110 16/13 A3019 RMK AO2,M
RTS,2022-08-02 06:15,-119.8764,39.6682,1539.00,69.80,44.60,40.29,290.00,7.00,0.00,30.22,M,10.00,M,CLR,M,M,M,M,M,M,M,M,M,M,M,M,M,M,69.80,KRTS 020615Z AUTO 29007KT 10SM CLR 21/07 A3022 RMK AO2,M
TMT,2022-08-02 06:15,-117.1971,39.4643,1749.34,M,M,M,190.00,6.00,0.00,30.23,M,10.00,M,CLR,M,M,M,M,M,M,M,M,M,M,M,M,M,M,M,KTMT 020615Z AUTO 19006KT 10SM CLR A3023 RMK AO2,M
CXP,2022-08-02 06:30,-119.7326,39.1923,1431.00,69.80,51.80,52.77,0.00,0.00,0.00,30.20,M,10.00,M,BKN,BKN,M,M,10000.00,12000.00,M,M,M,M,M,M,M,M,M,69.80,KCXP 020630Z AUTO 00000KT 10SM BKN100 BKN120 21/11 A3020 RMK AO2,M
05U,2022-08-02 06:35,-116.0051,39.6042,1811.23,M,M,M,M,M,0.00,M,M,M,M,M,M,M,M,M,M,M,M,M,M,M,M,M,M,M,M,K05U 020635Z AUTO RMK A01 PNO,M
TMT,2022-08-02 06:35,-117.1971,39.4643,1749.34,M,M,M,200.00,8.00,0.00,30.24,M,10.00,M,CLR,M,M,M,M,M,M,M,M,M,M,M,M,M,M,M,KTMT 020635Z AUTO 20008KT 10SM CLR A3024 RMK AO2,M
BVU,2022-08-02 06:35,-114.8611,35.9475,671.00,82.40,64.40,54.55,0.00,0.00,0.00,29.99,M,M,M,M,M,M,M,M,M,M,M,M,M,M,M,M,M,M,83.98,KBVU 020635Z AUTO 00000KT 28/18 A2999 RMK AO2 PWINO TSNO,M
RTS,2022-08-02 06:35,-119.8764,39.6682,1539.00,69.80,44.60,40.29,270.00,8.00,0.00,30.23,M,10.00,M,CLR,M,M,M,M,M,M,M,M,M,M,M,M,M,M,69.80,KRTS 020635Z AUTO 27008KT 10SM CLR 21/07 A3023 RMK AO2,M
HTH,2022-08-02 06:35,-118.6315,38.5448,1282.89,73.40,53.60,49.90,70.00,4.00,0.00,30.14,M,10.00,M,CLR,M,M,M,M,M,M,M,M,M,M,M,M,M,M,73.40,KHTH 020635Z AUTO 07004KT 10SM CLR 23/12 A3014 RMK A01,M
BAM,2022-08-02 06:35,-116.8743,40.5990,1382.36,77.00,53.60,44.25,50.00,8.00,0.00,30.12,M,10.00,M,BKN,M,M,M,11000.00,M,M,M,M,M,M,M,M,M,M,77.00,KBAM 020635Z AUTO 05008KT 10SM BKN110 25/12 A3012 RMK AO1,M
MEV,2022-08-02 06:35,-119.7500,38.9963,1441.42,60.80,55.40,82.37,120.00,7.00,0.00,30.19,M,10.00,M,FEW,BKN,M,M,5500.00,11000.00,M,M,M,M,M,M,M,M,M,60.80,KMEV 020635Z AUTO 12007KT 10SM FEW055 BKN110 16/13 A3019 RMK AO2,M
CXP,2022-08-02 06:50,-119.7326,39.1923,1431.00,69.80,51.80,52.77,0.00,0.00,0.00,30.20,M,10.00,M,BKN,M,M,M,11000.00,M,M,M,M,M,M,M,M,M,M,69.80,KCXP 020650Z AUTO 00000KT 10SM BKN110 21/11 A3020 RMK AO2,M
DRA,2022-08-02 06:53,-116.0278,36.6206,1009.00,82.00,59.00,45.66,350.00,5.00,0.00,30.07,1013.00,10.00,M,CLR,M,M,M,M,M,M,M,M,M,M,M,M,M,M,82.15,KDRA 020653Z AUTO 35005KT 10SM CLR 28/15 A3007 RMK AO2 SLP130 T02780150,M
ELY,2022-08-02 06:53,-114.8453,39.2950,1909.00,63.00,56.00,77.61,0.00,0.00,0.00,30.26,1014.50,10.00,M,FEW,M,M,M,9000.00,M,M,M,M,M,M,M,M,M,M,63.00,KELY 020653Z AUTO 00000KT 10SM FEW090 17/13 A3026 RMK AO2 SLP145 T01720133 402940117,M
LOL,2022-08-02 06:53,-118.5701,40.0684,1192.43,78.00,46.00,32.15,M,3.00,0.00,30.10,1014.20,10.00,M,CLR,M,M,M,M,M,M,M,M,M,M,M,M,M,M,78.10,KLOL 020653Z AUTO VRB03KT 10SM CLR 26/08 A3010 RMK AO2 SLP142 T02560078,M
VGT,2022-08-02 06:53,-115.1933,36.2111,667.00,88.00,63.00,43.40,0.00,0.00,0.00,29.97,1013.40,10.00,M,CLR,M,M,M,M,M,M,M,M,M,M,M,M,M,M,88.86,KVGT 020653Z AUTO 00000KT 10SM CLR 31/17 A2997 RMK AO2 SLP134 T03110172,M
BAM,2022-08-02 06:55,-116.8743,40.5990,1382.36,75.20,53.60,46.98,70.00,6.00,0.00,30.12,M,10.00,M,SCT,M,M,M,12000.00,M,M,M,M,M,M,M,M,M,M,75.20,KBAM 020655Z AUTO 07006KT 10SM SCT120 24/12 A3012 RMK AO1,M
RNO,2022-08-02 06:55,-119.7711,39.4839,1341.00,74.00,47.00,38.26,350.00,9.00,0.00,30.17,1015.40,10.00,M,SCT,BKN,M,M,14000.00,25000.00,M,M,M,M,M,M,M,M,M,73.90,KRNO 020655Z 35009KT 10SM SCT140 BKN250 23/08 A3017 RMK AO2 SLP154 T02330083,M
HTH,2022-08-02 06:55,-118.6315,38.5448,1282.89,71.60,55.40,56.63,100.00,6.00,0.00,30.14,M,10.00,M,CLR,M,M,M,M,M,M,M,M,M,M,M,M,M,M,71.60,KHTH 020655Z AUTO 10006KT 10SM CLR 22/13 A3014 RMK A01,M
TMT,2022-08-02 06:55,-117.1971,39.4643,1749.34,M,M,M,210.00,8.00,0.00,30.24,M,10.00,M,SCT,M,M,M,12000.00,M,M,M,M,M,M,M,M,M,M,M,KTMT 020655Z AUTO 21008KT 10SM SCT120 A3024 RMK AO2,M
BVU,2022-08-02 06:55,-114.8611,35.9475,671.00,82.40,66.20,58.08,0.00,0.00,0.00,29.99,M,M,M,M,M,M,M,M,M,M,M,M,M,M,M,M,M,M,84.63,KBVU 020655Z AUTO 00000KT 28/19 A2999 RMK AO2 PWINO TSNO,M
RTS,2022-08-02 06:55,-119.8764,39.6682,1539.00,68.00,44.60,42.85,280.00,8.00,0.00,30.23,M,10.00,M,CLR,M,M,M,M,M,M,M,M,M,M,M,M,M,M,68.00,KRTS 020655Z AUTO 28008KT 10SM CLR 20/07 A3023 RMK AO2,M
05U,2022-08-02 06:55,-116.0051,39.6042,1811.23,M,M,M,M,M,0.00,M,M,M,M,M,M,M,M,M,M,M,M,M,M,M,M,M,M,M,M,K05U 020655Z AUTO RMK A01 PNO,M
MEV,2022-08-02 06:55,-119.7500,38.9963,1441.42,60.80,55.40,82.37,160.00,5.00,0.00,30.19,M,10.00,M,CLR,M,M,M,M,M,M,M,M,M,M,M,M,M,M,60.80,KMEV 020655Z AUTO 16005KT 10SM CLR 16/13 A3019 RMK AO2,M
LAS,2022-08-02 06:56,-115.1634,36.0719,663.00,86.00,63.00,46.25,200.00,6.00,0.00,29.97,1012.00,10.00,M,BKN,BKN,M,M,15000.00,22000.00,M,M,M,M,M,M,M,M,M,86.88,KLAS 020656Z 20006KT 10SM BKN150 BKN220 30/17 A2997 RMK AO2 SLP120 T03000172,M
NFL,2022-08-02 06:56,-118.7010,39.4166,1199.00,75.00,54.00,47.99,240.00,7.00,0.00,30.12,1016.50,10.00,M,FEW,SCT,M,M,8000.00,12000.00,M,M,M,M,M,M,M,M,M,75.00,KNFL 020656Z 24007KT 10SM FEW080 SCT120 24/12 A3012 RMK AO2 SLP165 T02390122,M
EKO,2022-08-02 06:56,-115.7860,40.8242,1367.00,68.00,59.00,72.92,0.00,0.00,0.00,30.16,1015.10,10.00,M,CLR,M,M,M,M,M,M,M,M,M,M,M,M,M,M,68.00,KEKO 020656Z AUTO 00000KT 10SM CLR 20/15 A3016 RMK AO2 SLP151 T02000150,M
WMC,2022-08-02 06:56,-117.8072,40.9019,1315.00,75.00,55.00,49.78,0.00,0.00,0.00,30.09,1012.90,10.00,M,CLR,M,M,M,M,M,M,M,M,M,M,M,M,M,M,75.00,KWMC 020656Z AUTO 00000KT 10SM CLR 24/13 A3009 RMK AO2 SLP129 T02390128,M
HND,2022-08-02 06:56,-115.1344,35.9729,742.79,82.00,66.00,58.43,200.00,10.00,0.00,30.02,1015.20,10.00,M,CLR,M,M,M,M,M,M,M,M,M,M,M,M,M,M,84.15,KHND 020656Z AUTO 20010KT 10SM CLR 28/19 A3002 RMK AO2 SLP152 T02780189 403610228,M
TPH,2022-08-02 06:56,-117.0904,38.0505,1654.00,65.00,64.00,96.90,190.00,3.00,0.00,30.25,1017.40,10.00,M,CLR,M,M,M,M,M,M,M,M,M,M,M,M,M,M,64.90,KTPH 020656Z AUTO 19003KT 10SM CLR 18/18 A3025 RMK AO2 SLP174 T01830178,M
LSV,2022-08-02 06:58,-115.0343,36.2362,570.00,84.20,64.40,51.47,190.00,7.00,0.00,29.95,1011.50,10.00,M,BKN,M,M,M,15000.00,M,M,M,M,M,M,M,M,M,M,85.71,KLSV 020658Z COR 19007KT 10SM BKN150 29/18 A2995 RMK AO2A SLP115 WND DATA ESTMD ALSTG/SLP ESTMD $ COR 0719,M
INS,2022-08-02 06:58,-115.6733,36.5872,955.00,76.60,68.00,74.77,320.00,4.00,0.00,30.06,1013.30,10.00,M,OVC,M,M,M,15000.00,M,M,M,M,M,M,M,M,M,M,76.60,KINS 020658Z AUTO 32004KT 10SM OVC150 25/20 A3006 RMK AO2 SLP133 T02480200,M
CXP,2022-08-02 07:10,-119.7326,39.1923,1431.00,68.00,51.80,56.13,0.00,0.00,0.00,30.20,M,10.00,M,SCT,M,M,M,11000.00,M,M,M,M,M,M,M,M,M,M,68.00,KCXP 020710Z AUTO 00000KT 10SM SCT110 20/11 A3020 RMK AO2,M
MEV,2022-08-02 07:15,-119.7500,38.9963,1441.42,60.80,55.40,82.37,170.00,5.00,0.00,30.20,M,10.00,M,CLR,M,M,M,M,M,M,M,M,M,M,M,M,M,M,60.80,KMEV 020715Z AUTO 17005KT 10SM CLR 16/13 A3020 RMK AO2,M
BAM,2022-08-02 07:15,-116.8743,40.5990,1382.36,75.20,53.60,46.98,60.00,4.00,0.00,30.12,M,10.00,M,BKN,M,M,M,12000.00,M,M,M,M,M,M,M,M,M,M,75.20,KBAM 020715Z AUTO 06004KT 10SM BKN120 24/12 A3012 RMK AO1,M
HTH,2022-08-02 07:15,-118.6315,38.5448,1282.89,71.60,55.40,56.63,210.00,3.00,0.00,30.14,M,10.00,M,CLR,M,M,M,M,M,M,M,M,M,M,M,M,M,M,71.60,KHTH 020715Z AUTO 21003KT 10SM CLR 22/13 A3014 RMK A01,M
TMT,2022-08-02 07:15,-117.1971,39.4643,1749.34,M,M,M,210.00,9.00,0.00,30.25,M,10.00,M,SCT,SCT,M,M,8000.00,12000.00,M,M,M,M,M,M,M,M,M,M,KTMT 020715Z AUTO 21009KT 10SM SCT080 SCT120 A3025 RMK AO2 LTG DSNT N,M
05U,2022-08-02 07:15,-116.0051,39.6042,1811.23,M,M,M,M,M,0.00,M,M,M,M,M,M,M,M,M,M,M,M,M,M,M,M,M,M,M,M,K05U 020715Z AUTO RMK A01 PNO,M
BVU,2022-08-02 07:15,-114.8611,35.9475,671.00,80.60,66.20,61.58,320.00,3.00,0.00,29.99,M,M,M,M,M,M,M,M,M,M,M,M,M,M,M,M,M,M,82.75,KBVU 020715Z AUTO 32003KT 27/19 A2999 RMK AO2 PWINO TSNO,M
RTS,2022-08-02 07:15,-119.8764,39.6682,1539.00,68.00,44.60,42.85,250.00,9.00,0.00,30.23,M,10.00,M,CLR,M,M,M,M,M,M,M,M,M,M,M,M,M,M,68.00,KRTS 020715Z AUTO 25009KT 10SM CLR 20/07 A3023 RMK AO2,M
CXP,2022-08-02 07:30,-119.7326,39.1923,1431.00,68.00,51.80,56.13,280.00,3.00,0.00,30.21,M,10.00,M,FEW,M,M,M,11000.00,M,M,M,M,M,M,M,M,M,M,68.00,KCXP 020730Z AUTO 28003KT 10SM FEW110 20/11 A3021 RMK AO2,M
HTH,2022-08-02 07:35,-118.6315,38.5448,1282.89,69.80,55.40,60.21,0.00,0.00,0.00,30.15,M,10.00,M,CLR,M,M,M,M,M,M,M,M,M,M,M,M,M,M,69.80,KHTH 020735Z AUTO 00000KT 10SM CLR 21/13 A3015 RMK A01,M
BVU,2022-08-02 07:35,-114.8611,35.9475,671.00,80.60,66.20,61.58,310.00,5.00,0.00,29.98,M,M,M,M,M,M,M,M,M,M,M,M,M,M,M,M,M,M,82.75,KBVU 020735Z AUTO 31005KT 27/19 A2998 RMK AO2 PWINO TSNO,M
RTS,2022-08-02 07:35,-119.8764,39.6682,1539.00,66.20,44.60,45.60,250.00,7.00,0.00,30.23,M,10.00,M,CLR,M,M,M,M,M,M,M,M,M,M,M,M,M,M,66.20,KRTS 020735Z AUTO 25007KT 10SM CLR 19/07 A3023 RMK AO2,M
TMT,2022-08-02 07:35,-117.1971,39.4643,1749.34,M,M,M,200.00,8.00,0.00,30.24,M,10.00,M,BKN,BKN,M,M,8000.00,12000.00,M,M,M,M,M,M,M,M,M,M,KTMT 020735Z AUTO 20008KT 10SM BKN080 BKN120 A3024 RMK AO2,M
05U,2022-08-02 07:35,-116.0051,39.6042,1811.23,M,M,M,M,M,0.00,M,M,M,M,M,M,M,M,M,M,M,M,M,M,M,M,M,M,M,M,K05U 020735Z AUTO RMK A01 PNO,M
MEV,2022-08-02 07:35,-119.7500,38.9963,1441.42,60.80,53.60,77.14,0.00,0.00,0.00,30.20,M,10.00,M,CLR,M,M,M,M,M,M,M,M,M,M,M,M,M,M,60.80,KMEV 020735Z AUTO 00000KT 10SM CLR 16/12 A3020 RMK AO2,M
BAM,2022-08-02 07:35,-116.8743,40.5990,1382.36,73.40,53.60,49.90,130.00,3.00,0.00,30.12,M,10.00,M,OVC,M,M,M,11000.00,M,M,M,M,M,M,M,M,M,M,73.40,KBAM 020735Z AUTO 13003KT 10SM OVC110 23/12 A3012 RMK AO1,M
CXP,2022-08-02 07:50,-119.7326,39.1923,1431.00,68.00,50.00,52.51,0.00,0.00,0.00,30.21,M,10.00,M,CLR,M,M,M,M,M,M,M,M,M,M,M,M,M,M,68.00,KCXP 020750Z AUTO 00000KT 10SM CLR 20/10 A3021 RMK AO2,M
VGT,2022-08-02 07:53,-115.1933,36.2111,667.00,88.00,62.00,42.05,350.00,6.00,0.00,29.96,1013.30,10.00,M,CLR,M,M,M,M,M,M,M,M,M,M,M,M,M,M,88.47,KVGT 020753Z AUTO 35006KT 10SM CLR 31/17 A2996 RMK AO2 SLP133 T03110167 403720261,M
DRA,2022-08-02 07:53,-116.0278,36.6206,1009.00,80.00,59.00,48.58,40.00,12.00,0.00,30.06,1012.60,10.00,M,CLR,M,M,M,M,M,M,M,M,M,M,M,M,M,M,80.76,KDRA 020753Z AUTO 04012KT 10SM CLR 27/15 A3006 RMK AO2 SLP126 T02670150 403560217,M
ELY,2022-08-02 07:53,-114.8453,39.2950,1909.00,62.00,55.00,77.53,0.00,0.00,0.00,30.27,1014.40,10.00,M,FEW,OVC,M,M,8500.00,11000.00,M,M,M,M,M,M,M,M,M,62.10,KELY 020753Z AUTO 00000KT 10SM FEW085 OVC110 17/13 A3027 RMK AO2 SLP144 T01670128,M
LOL,2022-08-02 07:53,-118.5701,40.0684,1192.43,73.00,46.00,38.11,110.00,5.00,0.00,30.09,1014.10,10.00,M,FEW,M,M,M,12000.00,M,M,M,M,M,M,M,M,M,M,73.00,KLOL 020753Z AUTO 11005KT 10SM FEW120 23/08 A3009 RMK AO2 SLP141 T02280078 403560183,M
05U,2022-08-02 07:55,-116.0051,39.6042,1811.23,M,M,M,M,M,0.00,M,M,M,M,M,M,M,M,M,M,M,M,M,M,M,M,M,M,M,M,K05U 020755Z AUTO RMK A01 PNO,M
MEV,2022-08-02 07:55,-119.7500,38.9963,1441.42,60.80,55.40,82.37,0.00,0.00,0.00,30.20,M,10.00,M,CLR,M,M,M,M,M,M,M,M,M,M,M,M,M,M,60.80,KMEV 020755Z AUTO 00000KT 10SM CLR 16/13 A3020 RMK AO2,M
BAM,2022-08-02 07:55,-116.8743,40.5990,1382.36,71.60,53.60,53.03,70.00,6.00,0.00,30.12,M,10.00,M,SCT,BKN,M,M,9500.00,11000.00,M,M,M,M,M,M,M,M,M,71.60,KBAM 020755Z AUTO 07006KT 10SM SCT095 BKN110 22/12 A3012 RMK AO1,M
BVU,2022-08-02 07:55,-114.8611,35.9475,671.00,80.60,66.20,61.58,360.00,4.00,0.00,29.98,M,M,M,M,M,M,M,M,M,M,M,M,M,M,M,M,M,M,82.75,KBVU 020755Z AUTO 36004KT 27/19 A2998 RMK AO2 PWINO TSNO,M
RNO,2022-08-02 07:55,-119.7711,39.4839,1341.00,73.00,47.00,39.43,320.00,4.00,0.00,30.17,1015.70,10.00,M,SCT,BKN,M,M,14000.00,25000.00,M,M,M,M,M,M,M,M,M,73.00,KRNO 020755Z 32004KT 10SM SCT140 BKN250 23/08 A3017 RMK AO2 SLP157 T02280083 403170217,M
TMT,2022-08-02 07:55,-117.1971,39.4643,1749.34,M,M,M,200.00,8.00,0.00,30.24,M,10.00,M,OVC,M,M,M,8000.00,M,M,M,M,M,M,M,M,M,M,M,KTMT 020755Z AUTO 20008KT 10SM OVC080 A3024 RMK AO2,M
HTH,2022-08-02 07:55,-118.6315,38.5448,1282.89,68.00,55.40,64.04,0.00,0.00,0.00,30.15,M,10.00,M,CLR,M,M,M,M,M,M,M,M,M,M,M,M,M,M,68.00,KHTH 020755Z AUTO 00000KT 10SM CLR 20/13 A3015 RMK A01,M
RTS,2022-08-02 07:55,-119.8764,39.6682,1539.00,64.40,44.60,48.55,250.00,6.00,0.00,30.23,M,10.00,M,CLR,M,M,M,M,M,M,M,M,M,M,M,M,M,M,64.40,KRTS 020755Z AUTO 25006KT 10SM CLR 18/07 A3023 RMK AO2,M
TPH,2022-08-02 07:56,-117.0904,38.0505,1654.00,63.00,62.00,96.88,320.00,3.00,0.00,30.24,1017.10,10.00,M,CLR,M,M,M,M,M,M,M,M,M,M,M,M,M,M,63.00,KTPH 020756Z AUTO 32003KT 10SM CLR 17/17 A3024 RMK AO2 SLP171 T01720167 402610172,M
EKO,2022-08-02 07:56,-115.7860,40.8242,1367.00,65.00,59.00,81.19,0.00,0.00,0.00,30.16,1015.50,10.00,M,SCT,M,M,M,12000.00,M,M,M,M,M,M,M,M,M,M,64.90,KEKO 020756Z AUTO 00000KT 10SM SCT120 18/15 A3016 RMK AO2 SLP155 T01830150 402890161,M
NFL,2022-08-02 07:56,-118.7010,39.4166,1199.00,71.00,55.00,56.77,250.00,5.00,0.00,30.12,1016.60,10.00,M,CLR,M,M,M,M,M,M,M,M,M,M,M,M,M,M,71.10,KNFL 020756Z AUTO 25005KT 10SM CLR 22/13 A3012 RMK AO2 SLP166 T02170128 403220217,M
HND,2022-08-02 07:56,-115.1344,35.9729,742.79,81.00,66.00,60.37,200.00,9.00,0.00,30.02,1014.80,10.00,M,CLR,M,M,M,M,M,M,M,M,M,M,M,M,M,M,83.11,KHND 020756Z AUTO 20009KT 10SM CLR 27/19 A3002 RMK AO2 SLP148 T02720189,M
WMC,2022-08-02 07:56,-117.8072,40.9019,1315.00,72.00,56.00,56.89,0.00,0.00,0.00,30.09,1013.20,10.00,M,CLR,M,M,M,M,M,M,M,M,M,M,M,M,M,M,72.00,KWMC 020756Z AUTO 00000KT 10SM CLR 22/13 A3009 RMK AO2 SLP132 T02220133 403440217,M
LAS,2022-08-02 07:56,-115.1634,36.0719,663.00,86.00,62.00,44.81,250.00,3.00,0.00,29.97,1011.90,10.00,M,BKN,BKN,M,M,15000.00,22000.00,M,M,M,M,M,M,M,M,M,86.52,KLAS 020756Z 25003KT 10SM BKN150 BKN220 30/17 A2997 RMK AO2 SLP119 T03000167 403670250,M
INS,2022-08-02 07:58,-115.6733,36.5872,955.00,76.60,66.00,69.77,260.00,4.00,0.00,30.06,1013.20,10.00,M,CLR,M,M,M,M,M,M,M,M,M,M,M,M,M,M,76.60,KINS 020758Z AUTO 26004KT 10SM CLR 25/19 A3006 RMK AO2 SLP132 T02480189 403270225,M
LSV,2022-08-02 07:58,-115.0343,36.2362,570.00,86.00,64.40,48.58,190.00,3.00,0.00,29.94,1011.10,10.00,M,SCT,M,M,M,15000.00,M,M,M,M,M,M,M,M,M,M,87.49,KLSV 020758Z 19003KT 10SM SCT150 30/18 A2994 RMK SLP111 WND DATA ESTMD ALSTG/SLP ESTMD,M
CXP,2022-08-02 08:10,-119.7326,39.1923,1431.00,64.40,51.80,63.60,0.00,0.00,0.00,30.21,M,10.00,M,CLR,M,M,M,M,M,M,M,M,M,M,M,M,M,M,64.40,KCXP 020810Z AUTO 00000KT 10SM CLR 18/11 A3021 RMK AO2,M
RTS,2022-08-02 08:15,-119.8764,39.6682,1539.00,64.40,44.60,48.55,250.00,7.00,0.00,30.23,M,10.00,M,CLR,M,M,M,M,M,M,M,M,M,M,M,M,M,M,64.40,KRTS 020815Z AUTO 25007KT 10SM CLR 18/07 A3023 RMK AO2,M
BVU,2022-08-02 08:15,-114.8611,35.9475,671.00,80.60,66.20,61.58,0.00,0.00,0.00,29.98,M,M,M,M,M,M,M,M,M,M,M,M,M,M,M,M,M,M,82.75,KBVU 020815Z AUTO 00000KT 27/19 A2998 RMK AO2 PWINO TSNO,M
05U,2022-08-02 08:15,-116.0051,39.6042,1811.23,M,M,M,M,M,0.00,M,M,M,M,M,M,M,M,M,M,M,M,M,M,M,M,M,M,M,M,K05U 020815Z AUTO RMK A01 PNO,M
HTH,2022-08-02 08:15,-118.6315,38.5448,1282.89,69.80,57.20,64.26,0.00,0.00,0.00,30.15,M,10.00,M,CLR,M,M,M,M,M,M,M,M,M,M,M,M,M,M,69.80,KHTH 020815Z AUTO 00000KT 10SM CLR 21/14 A3015 RMK A01,M
TMT,2022-08-02 08:15,-117.1971,39.4643,1749.34,M,M,M,210.00,7.00,0.00,30.24,M,10.00,M,SCT,BKN,M,M,8000.00,12000.00,M,M,M,M,M,M,M,M,M,M,KTMT 020815Z AUTO 21007KT 10SM SCT080 BKN120 A3024 RMK AO2,M
MEV,2022-08-02 08:15,-119.7500,38.9963,1441.42,59.00,53.60,82.25,120.00,3.00,0.00,30.20,M,10.00,M,CLR,M,M,M,M,M,M,M,M,M,M,M,M,M,M,59.00,KMEV 020815Z AUTO 12003KT 10SM CLR 15/12 A3020 RMK AO2,M
BAM,2022-08-02 08:15,-116.8743,40.5990,1382.36,71.60,53.60,53.03,0.00,0.00,0.00,30.13,M,10.00,M,SCT,M,M,M,10000.00,M,M,M,M,M,M,M,M,M,M,71.60,KBAM 020815Z AUTO 00000KT 10SM SCT100 22/12 A3013 RMK AO1,M
CXP,2022-08-02 08:30,-119.7326,39.1923,1431.00,64.40,51.80,63.60,0.00,0.00,0.00,30.20,M,10.00,M,CLR,M,M,M,M,M,M,M,M,M,M,M,M,M,M,64.40,KCXP 020830Z AUTO 00000KT 10SM CLR 18/11 A3020 RMK AO2,M
05U,2022-08-02 08:35,-116.0051,39.6042,1811.23,M,M,M,M,M,0.00,M,M,M,M,M,M,M,M,M,M,M,M,M,M,M,M,M,M,M,M,K05U 020835Z AUTO RMK A01 PNO,M
RTS,2022-08-02 08:35,-119.8764,39.6682,1539.00,62.60,44.60,51.72,270.00,7.00,0.00,30.23,M,10.00,M,CLR,M,M,M,M,M,M,M,M,M,M,M,M,M,M,62.60,KRTS 020835Z AUTO 27007KT 10SM CLR 17/07 A3023 RMK AO2,M
BVU,2022-08-02 08:35,-114.8611,35.9475,671.00,80.60,66.20,61.58,0.00,0.00,0.00,29.98,M,M,M,M,M,M,M,M,M,M,M,M,M,M,M,M,M,M,82.75,KBVU 020835Z AUTO 00000KT 27/19 A2998 RMK AO2 PWINO TSNO,M
BAM,2022-08-02 08:35,-116.8743,40.5990,1382.36,69.80,53.60,56.38,90.00,5.00,0.00,30.13,M,10.00,M,CLR,M,M,M,M,M,M,M,M,M,M,M,M,M,M,69.80,KBAM 020835Z AUTO 09005KT 10SM CLR 21/12 A3013 RMK AO1,M
MEV,2022-08-02 08:35,-119.7500,38.9963,1441.42,60.80,53.60,77.14,160.00,4.00,0.00,30.19,M,10.00,M,CLR,M,M,M,M,M,M,M,M,M,M,M,M,M,M,60.80,KMEV 020835Z AUTO 16004KT 10SM CLR 16/12 A3019 RMK AO2,M
TMT,2022-08-02 08:35,-117.1971,39.4643,1749.34,M,M,M,220.00,6.00,0.00,30.24,M,10.00,M,SCT,SCT,M,M,8000.00,12000.00,M,M,M,M,M,M,M,M,M,M,KTMT 020835Z AUTO 22006KT 10SM SCT080 SCT120 A3024 RMK AO2,M
HTH,2022-08-02 08:35,-118.6315,38.5448,1282.89,68.00,55.40,64.04,200.00,5.00,0.00,30.15,M,10.00,M,CLR,M,M,M,M,M,M,M,M,M,M,M,M,M,M,68.00,KHTH 020835Z AUTO 20005KT 10SM CLR 20/13 A3015 RMK A01,M
CXP,2022-08-02 08:50,-119.7326,39.1923,1431.00,64.40,51.80,63.60,0.00,0.00,0.00,30.21,M,10.00,M,CLR,M,M,M,M,M,M,M,M,M,M,M,M,M,M,64.40,KCXP 020850Z AUTO 00000KT 10SM CLR 18/11 A3021 RMK AO2,M
LOL,2022-08-02 08:53,-118.5701,40.0684,1192.43,72.00,49.00,43.97,140.00,3.00,0.00,30.09,1014.20,10.00,M,FEW,M,M,M,11000.00,M,M,M,M,M,M,M,M,M,M,72.00,KLOL 020853Z AUTO 14003KT 10SM FEW110 22/09 A3009 RMK AO2 SLP142 T02220094 51005,M
VGT,2022-08-02 08:53,-115.1933,36.2111,667.00,87.00,63.00,44.66,0.00,0.00,0.00,29.95,1012.90,10.00,M,CLR,M,M,M,M,M,M,M,M,M,M,M,M,M,M,87.96,KVGT 020853Z AUTO 00000KT 10SM CLR 31/17 A2995 RMK AO2 SLP129 T03060172 58001,M
ELY,2022-08-02 08:53,-114.8453,39.2950,1909.00,61.00,54.00,77.72,230.00,4.00,0.00,30.25,1013.90,10.00,M,FEW,BKN,M,M,10000.00,12000.00,M,M,M,M,M,M,M,M,M,61.00,KELY 020853Z AUTO 23004KT 10SM FEW100 BKN120 16/12 A3025 RMK AO2 SLP139 T01610122 58001,M
DRA,2022-08-02 08:53,-116.0278,36.6206,1009.00,79.00,58.00,48.41,180.00,3.00,0.00,30.05,1012.20,10.00,M,CLR,M,M,M,M,M,M,M,M,M,M,M,M,M,M,79.00,KDRA 020853Z AUTO 18003KT 10SM CLR 26/14 A3005 RMK AO2 SLP122 T02610144 58003,M
TMT,2022-08-02 08:55,-117.1971,39.4643,1749.34,M,M,M,210.00,5.00,0.00,30.24,M,10.00,M,SCT,M,M,M,8000.00,M,M,M,M,M,M,M,M,M,M,M,KTMT 020855Z AUTO 21005KT 10SM SCT080 A3024 RMK AO2,M
HTH,2022-08-02 08:55,-118.6315,38.5448,1282.89,69.80,53.60,56.38,210.00,3.00,0.00,30.15,M,10.00,M,CLR,M,M,M,M,M,M,M,M,M,M,M,M,M,M,69.80,KHTH 020855Z AUTO 21003KT 10SM CLR 21/12 A3015 RMK A01,M
BAM,2022-08-02 08:55,-116.8743,40.5990,1382.36,69.80,53.60,56.38,50.00,7.00,0.00,30.13,M,10.00,M,CLR,M,M,M,M,M,M,M,M,M,M,M,M,M,M,69.80,KBAM 020855Z AUTO 05007KT 10SM CLR 21/12 A3013 RMK AO1,M
MEV,2022-08-02 08:55,-119.7500,38.9963,1441.42,59.00,53.60,82.25,0.00,0.00,0.00,30.19,M,10.00,M,CLR,M,M,M,M,M,M,M,M,M,M,M,M,M,M,59.00,KMEV 020855Z AUTO 00000KT 10SM CLR 15/12 A3019 RMK AO2,M
RNO,2022-08-02 08:55,-119.7711,39.4839,1341.00,72.00,47.00,40.79,300.00,3.00,0.00,30.18,1015.80,10.00,M,FEW,FEW,M,M,14000.00,25000.00,M,M,M,M,M,M,M,M,M,72.00,KRNO 020855Z 30003KT 10SM FEW140 FEW250 22/08 A3018 RMK AO2 SLP158 T02220083 51004,M
05U,2022-08-02 08:55,-116.0051,39.6042,1811.23,M,M,M,M,M,0.00,M,M,M,M,M,M,M,M,M,M,M,M,M,M,M,M,M,M,M,M,K05U 020855Z AUTO RMK A01 PNO,M
RTS,2022-08-02 08:55,-119.8764,39.6682,1539.00,62.60,44.60,51.72,310.00,6.00,0.00,30.23,M,10.00,M,CLR,M,M,M,M,M,M,M,M,M,M,M,M,M,M,62.60,KRTS 020855Z AUTO 31006KT 10SM CLR 17/07 A3023 RMK AO2,M
BVU,2022-08-02 08:55,-114.8611,35.9475,671.00,80.60,66.20,61.58,320.00,4.00,0.00,29.97,M,M,M,M,M,M,M,M,M,M,M,M,M,M,M,M,M,M,82.75,KBVU 020855Z AUTO 32004KT 27/19 A2997 RMK AO2 PWINO TSNO,M
LAS,2022-08-02 08:56,-115.1634,36.0719,663.00,84.00,63.00,49.32,0.00,0.00,0.00,29.97,1011.70,10.00,M,FEW,SCT,M,M,15000.00,22000.00,M,M,M,M,M,M,M,M,M,84.99,KLAS 020856Z 00000KT 10SM FEW150 SCT220 29/17 A2997 RMK AO2 SLP117 T02890172 50001,M
NFL,2022-08-02 08:56,-118.7010,39.4166,1199.00,69.00,53.00,56.70,240.00,5.00,0.00,30.12,1016.60,10.00,M,CLR,M,M,M,M,M,M,M,M,M,M,M,M,M,M,69.10,KNFL 020856Z AUTO 24005KT 10SM CLR 21/12 A3012 RMK AO2 SLP166 T02060117 51006,M
EKO,2022-08-02 08:56,-115.7860,40.8242,1367.00,67.00,58.00,72.81,280.00,5.00,0.00,30.16,1015.90,10.00,M,FEW,M,M,M,11000.00,M,M,M,M,M,M,M,M,M,M,66.90,KEKO 020856Z AUTO 28005KT 10SM FEW110 19/14 A3016 RMK AO2 SLP159 T01940144 53001,M
WMC,2022-08-02 08:56,-117.8072,40.9019,1315.00,72.00,56.00,56.89,0.00,0.00,0.00,30.09,1013.20,9.00,M,FEW,SCT,M,M,3400.00,12000.00,M,M,M,M,M,M,M,M,M,72.00,KWMC 020856Z AUTO 00000KT 9SM FEW034 SCT120 22/13 A3009 RMK AO2 SLP132 T02220133 55000,M
HND,2022-08-02 08:56,-115.1344,35.9729,742.79,81.00,66.00,60.37,210.00,8.00,0.00,30.01,1014.50,10.00,M,CLR,M,M,M,M,M,M,M,M,M,M,M,M,M,M,83.11,KHND 020856Z AUTO 21008KT 10SM CLR 27/19 A3001 RMK AO2 SLP145 T02720189 58003,M
TPH,2022-08-02 08:56,-117.0904,38.0505,1654.00,63.00,62.00,96.88,0.00,0.00,0.00,30.24,1017.50,10.00,M,CLR,M,M,M,M,M,M,M,M,M,M,M,M,M,M,63.00,KTPH 020856Z AUTO 00000KT 10SM CLR 17/17 A3024 RMK AO2 SLP175 T01720167 51003,M
INS,2022-08-02 08:58,-115.6733,36.5872,955.00,77.00,62.00,60.06,260.00,3.00,0.00,30.05,1012.60,10.00,M,OVC,M,M,M,16000.00,M,M,M,M,M,M,M,M,M,M,77.00,KINS 020858Z AUTO 26003KT 10SM OVC160 25/17 A3005 RMK AO2 SLP126 T02500167 58000,M
LSV,2022-08-02 08:58,-115.0343,36.2362,570.00,M,M,M,M,M,0.00,M,M,M,M,M,M,M,M,M,M,M,M,M,M,M,M,M,M,M,M,KLSV 020858Z AUTO M M M M M M RMK AO2 SLPNO RVRNO $,M
CXP,2022-08-02 09:10,-119.7326,39.1923,1431.00,64.40,50.00,59.50,0.00,0.00,0.00,30.21,M,10.00,M,CLR,M,M,M,M,M,M,M,M,M,M,M,M,M,M,64.40,KCXP 020910Z AUTO 00000KT 10SM CLR 18/10 A3021 RMK AO2,M
05U,2022-08-02 09:15,-116.0051,39.6042,1811.23,M,M,M,M,M,0.00,M,M,M,M,M,M,M,M,M,M,M,M,M,M,M,M,M,M,M,M,K05U 020915Z AUTO RMK A01 PNO,M
BVU,2022-08-02 09:15,-114.8611,35.9475,671.00,80.60,66.20,61.58,320.00,4.00,0.00,29.97,M,M,M,M,M,M,M,M,M,M,M,M,M,M,M,M,M,M,82.75,KBVU 020915Z AUTO 32004KT 27/19 A2997 RMK AO2 PWINO TSNO,M
RTS,2022-08-02 09:15,-119.8764,39.6682,1539.00,60.80,44.60,55.12,340.00,4.00,0.00,30.23,M,10.00,M,SCT,M,M,M,11000.00,M,M,M,M,M,M,M,M,M,M,60.80,KRTS 020915Z AUTO 34004KT 10SM SCT110 16/07 A3023 RMK AO2,M
BAM,2022-08-02 09:15,-116.8743,40.5990,1382.36,69.80,53.60,56.38,100.00,3.00,0.00,30.12,M,10.00,M,CLR,M,M,M,M,M,M,M,M,M,M,M,M,M,M,69.80,KBAM 020915Z AUTO 10003KT 10SM CLR 21/12 A3012 RMK AO1,M
MEV,2022-08-02 09:15,-119.7500,38.9963,1441.42,60.80,53.60,77.14,0.00,0.00,0.00,30.20,M,10.00,M,CLR,M,M,M,M,M,M,M,M,M,M,M,M,M,M,60.80,KMEV 020915Z AUTO 00000KT 10SM CLR 16/12 A3020 RMK AO2,M
HTH,2022-08-02 09:15,-118.6315,38.5448,1282.89,69.80,55.40,60.21,200.00,3.00,0.00,30.15,M,10.00,M,CLR,M,M,M,M,M,M,M,M,M,M,M,M,M,M,69.80,KHTH 020915Z AUTO 20003KT 10SM CLR 21/13 A3015 RMK A01,M
TMT,2022-08-02 09:15,-117.1971,39.4643,1749.34,M,M,M,210.00,6.00,0.00,30.24,M,10.00,M,SCT,M,M,M,8000.00,M,M,M,M,M,M,M,M,M,M,M,KTMT 020915Z AUTO 21006KT 10SM SCT080 A3024 RMK AO2,M
CXP,2022-08-02 09:30,-119.7326,39.1923,1431.00,62.60,50.00,63.38,0.00,0.00,0.00,30.21,M,10.00,M,CLR,M,M,M,M,M,M,M,M,M,M,M,M,M,M,62.60,KCXP 020930Z AUTO 00000KT 10SM CLR 17/10 A3021 RMK AO2,M
RTS,2022-08-02 09:35,-119.8764,39.6682,1539.00,62.60,44.60,51.72,350.00,4.00,0.00,30.23,M,10.00,M,FEW,M,M,M,11000.00,M,M,M,M,M,M,M,M,M,M,62.60,KRTS 020935Z AUTO 35004KT 10SM FEW110 17/07 A3023 RMK AO2,M
TMT,2022-08-02 09:35,-117.1971,39.4643,1749.34,M,M,M,0.00,0.00,0.00,30.24,M,10.00,M,SCT,M,M,M,8000.00,M,M,M,M,M,M,M,M,M,M,M,KTMT 020935Z AUTO 00000KT 10SM SCT080 A3024 RMK AO2,M
HTH,2022-08-02 09:35,-118.6315,38.5448,1282.89,68.00,55.40,64.04,50.00,3.00,0.00,30.15,M,10.00,M,CLR,M,M,M,M,M,M,M,M,M,M,M,M,M,M,68.00,KHTH 020935Z AUTO 05003KT 10SM CLR 20/13 A3015 RMK A01,M
BVU,2022-08-02 09:35,-114.8611,35.9475,671.00,80.60,66.20,61.58,290.00,3.00,0.00,29.97,M,M,M,M,M,M,M,M,M,M,M,M,M,M,M,M,M,M,82.75,KBVU 020935Z AUTO 29003KT 27/19 A2997 RMK AO2 PWINO TSNO,M
BAM,2022-08-02 09:35,-116.8743,40.5990,1382.36,69.80,53.60,56.38,0.00,0.00,0.00,30.12,M,10.00,M,CLR,M,M,M,M,M,M,M,M,M,M,M,M,M,M,69.80,KBAM 020935Z AUTO 00000KT 10SM CLR 21/12 A3012 RMK AO1,M
MEV,2022-08-02 09:35,-119.7500,38.9963,1441.42,55.40,51.80,87.65,0.00,0.00,0.00,30.19,M,10.00,M,SCT,M,M,M,12000.00,M,M,M,M,M,M,M,M,M,M,55.40,KMEV 020935Z AUTO 00000KT 10SM SCT120 13/11 A3019 RMK AO2,M
05U,2022-08-02 09:35,-116.0051,39.6042,1811.23,M,M,M,M,M,0.00,M,M,M,M,M,M,M,M,M,M,M,M,M,M,M,M,M,M,M,M,K05U 020935Z AUTO RMK A01 PNO,M
CXP,2022-08-02 09:50,-119.7326,39.1923,1431.00,62.60,50.00,63.38,0.00,0.00,0.00,30.21,M,10.00,M,CLR,M,M,M,M,M,M,M,M,M,M,M,M,M,M,62.60,KCXP 020950Z AUTO 00000KT 10SM CLR 17/10 A3021 RMK AO2,M
DRA,2022-08-02 09:53,-116.0278,36.6206,1009.00,77.00,58.00,51.72,350.00,4.00,0.00,30.05,1012.20,10.00,M,CLR,M,M,M,M,M,M,M,M,M,M,M,M,M,M,77.00,KDRA 020953Z AUTO 35004KT 10SM CLR 25/14 A3005 RMK AO2 SLP122 T02500144,M
VGT,2022-08-02 09:53,-115.1933,36.2111,667.00,85.00,63.00,47.91,340.00,5.00,0.00,29.96,1013.00,10.00,M,CLR,M,M,M,M,M,M,M,M,M,M,M,M,M,M,85.83,KVGT 020953Z AUTO 34005KT 10SM CLR 29/17 A2996 RMK AO2 SLP130 T02940172,M
ELY,2022-08-02 09:53,-114.8453,39.2950,1909.00,60.00,54.00,80.25,110.00,3.00,0.00,30.26,1014.00,10.00,M,CLR,M,M,M,M,M,M,M,M,M,M,M,M,M,M,60.10,KELY 020953Z AUTO 11003KT 10SM CLR 16/12 A3026 RMK AO2 SLP140 T01560122,M
LOL,2022-08-02 09:53,-118.5701,40.0684,1192.43,70.00,47.00,43.66,50.00,3.00,0.00,30.09,1014.10,10.00,M,CLR,M,M,M,M,M,M,M,M,M,M,M,M,M,M,70.00,KLOL 020953Z AUTO 05003KT 10SM CLR 21/08 A3009 RMK AO2 SLP141 T02110083,M
HTH,2022-08-02 09:55,-118.6315,38.5448,1282.89,66.20,53.60,63.82,100.00,3.00,0.00,30.15,M,10.00,M,CLR,M,M,M,M,M,M,M,M,M,M,M,M,M,M,66.20,KHTH 020955Z AUTO 10003KT 10SM CLR 19/12 A3015 RMK A01,M
BAM,2022-08-02 09:55,-116.8743,40.5990,1382.36,68.00,53.60,59.97,70.00,3.00,0.00,30.13,M,10.00,M,CLR,M,M,M,M,M,M,M,M,M,M,M,M,M,M,68.00,KBAM 020955Z AUTO 07003KT 10SM CLR 20/12 A3013 RMK AO1,M
TMT,2022-08-02 09:55,-117.1971,39.4643,1749.34,M,M,M,0.00,0.00,0.00,30.24,M,10.00,M,CLR,M,M,M,M,M,M,M,M,M,M,M,M,M,M,M,KTMT 020955Z AUTO 00000KT 10SM CLR A3024 RMK AO2,M
MEV,2022-08-02 09:55,-119.7500,38.9963,1441.42,57.20,51.80,82.12,0.00,0.00,0.00,30.19,M,10.00,M,SCT,M,M,M,12000.00,M,M,M,M,M,M,M,M,M,M,57.20,KMEV 020955Z AUTO 00000KT 10SM SCT120 14/11 A3019 RMK AO2,M
05U,2022-08-02 09:55,-116.0051,39.6042,1811.23,M,M,M,M,M,0.00,M,M,M,M,M,M,M,M,M,M,M,M,M,M,M,M,M,M,M,M,K05U 020955Z AUTO RMK A01 PNO,M
RTS,2022-08-02 09:55,-119.8764,39.6682,1539.00,62.60,44.60,51.72,350.00,4.00,0.00,30.23,M,10.00,M,FEW,M,M,M,10000.00,M,M,M,M,M,M,M,M,M,M,62.60,KRTS 020955Z AUTO 35004KT 10SM FEW100 17/07 A3023 RMK AO2,M
BVU,2022-08-02 09:55,-114.8611,35.9475,671.00,78.80,66.20,65.33,300.00,3.00,0.00,29.98,M,M,M,M,M,M,M,M,M,M,M,M,M,M,M,M,M,M,78.80,KBVU 020955Z AUTO 30003KT 26/19 A2998 RMK AO2 PWINO TSNO,M
RNO,2022-08-02 09:55,-119.7711,39.4839,1341.00,68.00,47.00,46.76,170.00,4.00,0.00,30.18,1015.90,10.00,M,FEW,M,M,M,14000.00,M,M,M,M,M,M,M,M,M,M,68.00,KRNO 020955Z 17004KT 10SM FEW140 20/08 A3018 RMK AO2 SLP159 T02000083,M
LAS,2022-08-02 09:56,-115.1634,36.0719,663.00,83.00,64.00,52.93,0.00,0.00,0.00,29.97,1011.90,10.00,M,FEW,M,M,M,22000.00,M,M,M,M,M,M,M,M,M,M,84.32,KLAS 020956Z 00000KT 10SM FEW220 28/18 A2997 RMK AO2 SLP119 T02830178,M
TPH,2022-08-02 09:56,-117.0904,38.0505,1654.00,63.00,62.00,96.88,20.00,6.00,0.00,30.23,1016.90,10.00,M,CLR,M,M,M,M,M,M,M,M,M,M,M,M,M,M,63.00,KTPH 020956Z AUTO 02006KT 10SM CLR 17/17 A3023 RMK AO2 SLP169 T01720167,M
EKO,2022-08-02 09:56,-115.7860,40.8242,1367.00,64.00,58.00,80.54,240.00,4.00,0.00,30.16,1015.70,10.00,M,OVC,M,M,M,10000.00,M,M,M,M,M,M,M,M,M,M,64.00,KEKO 020956Z AUTO 24004KT 10SM OVC100 18/14 A3016 RMK AO2 SLP157 T01780144,M
WMC,2022-08-02 09:56,-117.8072,40.9019,1315.00,73.00,52.00,47.69,190.00,3.00,0.00,30.10,1013.60,7.00,M,FEW,SCT,M,M,4800.00,12000.00,M,M,M,M,M,M,M,M,M,73.00,KWMC 020956Z AUTO 19003KT 7SM FEW048 SCT120 23/11 A3010 RMK AO2 SLP136 T02280111,M
NFL,2022-08-02 09:56,-118.7010,39.4166,1199.00,69.00,54.00,58.60,230.00,8.00,0.00,30.11,1016.40,10.00,M,CLR,M,M,M,M,M,M,M,M,M,M,M,M,M,M,69.10,KNFL 020956Z AUTO 23008KT 10SM CLR 21/12 A3011 RMK AO2 SLP164 T02060122,M
HND,2022-08-02 09:56,-115.1344,35.9729,742.79,80.00,67.00,64.14,220.00,10.00,0.00,30.01,1015.00,10.00,M,CLR,M,M,M,M,M,M,M,M,M,M,M,M,M,M,82.40,KHND 020956Z AUTO 22010KT 10SM CLR 27/19 A3001 RMK AO2 SLP150 T02670194,M
LSV,2022-08-02 09:58,-115.0343,36.2362,570.00,82.40,64.40,54.55,230.00,2.00,0.00,29.93,1010.90,10.00,M,FEW,M,M,M,15000.00,M,M,M,M,M,M,M,M,M,M,83.98,KLSV 020958Z 23002KT 10SM FEW150 28/18 A2993 RMK SLP109 WND DATA ESMD ALSTG/SLP ESTMD,M
INS,2022-08-02 09:58,-115.6733,36.5872,955.00,77.40,61.30,57.62,0.00,0.00,0.00,30.04,1012.10,10.00,M,SCT,M,M,M,17000.00,M,M,M,M,M,M,M,M,M,M,77.40,KINS 020958Z AUTO 00000KT 10SM SCT170 25/16 A3004 RMK AO2 SLP121 T02520163,M
CXP,2022-08-02 10:10,-119.7326,39.1923,1431.00,62.60,51.80,67.75,0.00,0.00,0.00,30.21,M,10.00,M,CLR,M,M,M,M,M,M,M,M,M,M,M,M,M,M,62.60,KCXP 021010Z AUTO 00000KT 10SM CLR 17/11 A3021 RMK AO2,M
TMT,2022-08-02 10:15,-117.1971,39.4643,1749.34,M,M,M,200.00,5.00,0.00,30.24,M,10.00,M,SCT,M,M,M,12000.00,M,M,M,M,M,M,M,M,M,M,M,KTMT 021015Z AUTO 20005KT 10SM SCT120 A3024 RMK AO2,M
BVU,2022-08-02 10:15,-114.8611,35.9475,671.00,78.80,66.20,65.33,310.00,4.00,0.00,29.98,M,M,M,M,M,M,M,M,M,M,M,M,M,M,M,M,M,M,78.80,KBVU 021015Z AUTO 31004KT 26/19 A2998 RMK AO2 PWINO TSNO,M
MEV,2022-08-02 10:15,-119.7500,38.9963,1441.42,57.20,51.80,82.12,0.00,0.00,0.00,30.20,M,10.00,M,CLR,M,M,M,M,M,M,M,M,M,M,M,M,M,M,57.20,KMEV 021015Z AUTO 00000KT 10SM CLR 14/11 A3020 RMK AO2,M
BAM,2022-08-02 10:15,-116.8743,40.5990,1382.36,69.80,53.60,56.38,0.00,0.00,0.00,30.13,M,10.00,M,CLR,M,M,M,M,M,M,M,M,M,M,M,M,M,M,69.80,KBAM 021015Z AUTO 00000KT 10SM CLR 21/12 A3013 RMK AO1,M
HTH,2022-08-02 10:15,-118.6315,38.5448,1282.89,66.20,53.60,63.82,80.00,3.00,0.00,30.15,M,10.00,M,CLR,M,M,M,M,M,M,M,M,M,M,M,M,M,M,66.20,KHTH 021015Z AUTO 08003KT 10SM CLR 19/12 A3015 RMK A01,M
05U,2022-08-02 10:15,-116.0051,39.6042,1811.23,M,M,M,M,M,0.00,M,M,M,M,M,M,M,M,M,M,M,M,M,M,M,M,M,M,M,M,K05U 021015Z AUTO RMK A01 PNO,M
RTS,2022-08-02 10:15,-119.8764,39.6682,1539.00,62.60,44.60,51.72,330.00,4.00,0.00,30.23,M,10.00,M,BKN,M,M,M,10000.00,M,M,M,M,M,M,M,M,M,M,62.60,KRTS 021015Z AUTO 33004KT 10SM BKN100 17/07 A3023 RMK AO2,M
CXP,2022-08-02 10:30,-119.7326,39.1923,1431.00,60.80,50.00,67.54,0.00,0.00,0.00,30.21,M,10.00,M,CLR,M,M,M,M,M,M,M,M,M,M,M,M,M,M,60.80,KCXP 021030Z AUTO 00000KT 10SM CLR 16/10 A3021 RMK AO2,M
05U,2022-08-02 10:35,-116.0051,39.6042,1811.23,M,M,M,M,M,0.00,M,M,M,M,M,M,M,M,M,M,M,M,M,M,M,M,M,M,M,M,K05U 021035Z AUTO RMK A01 PNO,M
RTS,2022-08-02 10:35,-119.8764,39.6682,1539.00,62.60,44.60,51.72,350.00,6.00,0.00,30.23,M,10.00,M,BKN,M,M,M,11000.00,M,M,M,M,M,M,M,M,M,M,62.60,KRTS 021035Z AUTO 35006KT 10SM BKN110 17/07 A3023 RMK AO2,M
BVU,2022-08-02 10:35,-114.8611,35.9475,671.00,80.60,66.20,61.58,0.00,0.00,0.00,29.98,M,M,M,M,M,M,M,M,M,M,M,M,M,M,M,M,M,M,82.75,KBVU 021035Z AUTO 00000KT 27/19 A2998 RMK AO2 PWINO TSNO,M
TMT,2022-08-02 10:35,-117.1971,39.4643,1749.34,M,M,M,200.00,7.00,0.00,30.25,M,10.00,M,BKN,M,M,M,12000.00,M,M,M,M,M,M,M,M,M,M,M,KTMT 021035Z AUTO 20007KT 10SM BKN120 A3025 RMK AO2,M
HTH,2022-08-02 10:35,-118.6315,38.5448,1282.89,66.20,57.20,72.74,0.00,0.00,0.00,30.16,M,10.00,M,CLR,M,M,M,M,M,M,M,M,M,M,M,M,M,M,66.20,KHTH 021035Z AUTO 00000KT 10SM CLR 19/14 A3016 RMK A01,M
BAM,2022-08-02 10:35,-116.8743,40.5990,1382.36,69.80,53.60,56.38,0.00,0.00,0.00,30.13,M,10.00,M,CLR,M,M,M,M,M,M,M,M,M,M,M,M,M,M,69.80,KBAM 021035Z AUTO 00000KT 10SM CLR 21/12 A3013 RMK AO1,M
MEV,2022-08-02 10:35,-119.7500,38.9963,1441.42,53.60,50.00,87.56,0.00,0.00,0.00,30.20,M,10.00,M,CLR,M,M,M,M,M,M,M,M,M,M,M,M,M,M,53.60,KMEV 021035Z AUTO 00000KT 10SM CLR 12/10 A3020 RMK AO2,M
CXP,2022-08-02 10:50,-119.7326,39.1923,1431.00,60.80,50.00,67.54,0.00,0.00,0.00,30.21,M,10.00,M,CLR,M,M,M,M,M,M,M,M,M,M,M,M,M,M,60.80,KCXP 021050Z AUTO 00000KT 10SM CLR 16/10 A3021 RMK AO2,M
ELY,2022-08-02 10:53,-114.8453,39.2950,1909.00,54.00,50.00,86.29,210.00,3.00,0.00,30.26,1014.90,10.00,M,CLR,M,M,M,M,M,M,M,M,M,M,M,M,M,M,54.00,KELY 021053Z AUTO 21003KT 10SM CLR 12/10 A3026 RMK AO2 SLP149 T01220100,M
LOL,2022-08-02 10:53,-118.5701,40.0684,1192.43,67.00,48.00,50.62,60.00,4.00,0.00,30.10,1014.60,10.00,M,CLR,M,M,M,M,M,M,M,M,M,M,M,M,M,M,66.90,KLOL 021053Z AUTO 06004KT 10SM CLR 19/09 A3010 RMK AO2 SLP146 T01940089,M
VGT,2022-08-02 10:53,-115.1933,36.2111,667.00,85.00,62.00,46.42,310.00,4.00,0.00,29.96,1013.40,10.00,M,CLR,M,M,M,M,M,M,M,M,M,M,M,M,M,M,85.49,KVGT 021053Z AUTO 31004KT 10SM CLR 29/17 A2996 RMK AO2 SLP134 T02940167,M
DRA,2022-08-02 10:53,-116.0278,36.6206,1009.00,76.00,59.00,55.80,0.00,0.00,0.00,30.05,1012.30,10.00,M,CLR,M,M,M,M,M,M,M,M,M,M,M,M,M,M,75.90,KDRA 021053Z AUTO 00000KT 10SM CLR 24/15 A3005 RMK AO2 SLP123 T02440150,M
BAM,2022-08-02 10:55,-116.8743,40.5990,1382.36,69.80,53.60,56.38,0.00,0.00,0.00,30.13,M,10.00,M,CLR,M,M,M,M,M,M,M,M,M,M,M,M,M,M,69.80,KBAM 021055Z AUTO 00000KT 10SM CLR 21/12 A3013 RMK AO1,M
MEV,2022-08-02 10:55,-119.7500,38.9963,1441.42,53.60,50.00,87.56,170.00,5.00,0.00,30.20,M,10.00,M,CLR,M,M,M,M,M,M,M,M,M,M,M,M,M,M,53.60,KMEV 021055Z AUTO 17005KT 10SM CLR 12/10 A3020 RMK AO2,M
05U,2022-08-02 10:55,-116.0051,39.6042,1811.23,M,M,M,M,M,0.00,M,M,M,M,M,M,M,M,M,M,M,M,M,M,M,M,M,M,M,M,K05U 021055Z AUTO RMK A01 PNO,M
RNO,2022-08-02 10:55,-119.7711,39.4839,1341.00,67.00,48.00,50.62,170.00,5.00,0.00,30.18,1016.10,10.00,M,FEW,M,M,M,14000.00,M,M,M,M,M,M,M,M,M,M,66.90,KRNO 021055Z 17005KT 10SM FEW140 19/09 A3018 RMK AO2 SLP161 T01940089,M
RTS,2022-08-02 10:55,-119.8764,39.6682,1539.00,60.80,44.60,55.12,340.00,4.00,0.00,30.23,M,10.00,M,FEW,M,M,M,11000.00,M,M,M,M,M,M,M,M,M,M,60.80,KRTS 021055Z AUTO 34004KT 10SM FEW110 16/07 A3023 RMK AO2,M
BVU,2022-08-02 10:55,-114.8611,35.9475,671.00,80.60,66.20,61.58,0.00,0.00,0.00,29.98,M,M,M,M,M,M,M,M,M,M,M,M,M,M,M,M,M,M,82.75,KBVU 021055Z AUTO 00000KT 27/19 A2998 RMK AO2 PWINO TSNO,M
TMT,2022-08-02 10:55,-117.1971,39.4643,1749.34,60.80,53.00,75.18,200.00,8.00,0.00,30.25,M,10.00,M,BKN,M,M,M,12000.00,M,M,M,M,M,M,M,M,M,M,60.80,KTMT 021055Z AUTO 20008KT 10SM BKN120 16/12 A3025 RMK AO2 T01600116,M
HTH,2022-08-02 10:55,-118.6315,38.5448,1282.89,66.20,53.60,63.82,0.00,0.00,0.00,30.16,M,10.00,M,CLR,M,M,M,M,M,M,M,M,M,M,M,M,M,M,66.20,KHTH 021055Z AUTO 00000KT 10SM CLR 19/12 A3016 RMK A01,M
LAS,2022-08-02 10:56,-115.1634,36.0719,663.00,82.00,65.00,56.24,190.00,3.00,0.00,29.97,1012.20,10.00,M,SCT,M,M,M,22000.00,M,M,M,M,M,M,M,M,M,M,83.76,KLAS 021056Z 19003KT 10SM SCT220 28/18 A2997 RMK AO2 SLP122 T02780183,M
TPH,2022-08-02 10:56,-117.0904,38.0505,1654.00,62.00,61.00,96.18,360.00,6.00,0.00,30.23,1016.40,10.00,M,CLR,M,M,M,M,M,M,M,M,M,M,M,M,M,M,62.10,KTPH 021056Z AUTO 36006KT 10SM CLR 17/16 A3023 RMK AO2 SLP164 T01670161,M
EKO,2022-08-02 10:56,-115.7860,40.8242,1367.00,63.00,59.00,86.77,0.00,0.00,0.00,30.16,1015.50,10.00,M,OVC,M,M,M,11000.00,M,M,M,M,M,M,M,M,M,M,63.00,KEKO 021056Z AUTO 00000KT 10SM OVC110 17/15 A3016 RMK AO2 SLP155 T01720150,M
WMC,2022-08-02 10:56,-117.8072,40.9019,1315.00,73.00,52.00,47.69,210.00,4.00,0.00,30.11,1014.50,8.00,M,FEW,M,M,M,4600.00,M,M,M,M,M,M,M,M,M,M,73.00,KWMC 021056Z AUTO 21004KT 8SM FEW046 23/11 A3011 RMK AO2 SLP145 T02280111,M
HND,2022-08-02 10:56,-115.1344,35.9729,742.79,79.00,67.00,66.49,210.00,7.00,0.00,30.01,1015.10,10.00,M,CLR,M,M,M,M,M,M,M,M,M,M,M,M,M,M,79.00,KHND 021056Z AUTO 21007KT 10SM CLR 26/19 A3001 RMK AO2 SLP151 T02610194,M
NFL,2022-08-02 10:56,-118.7010,39.4166,1199.00,64.00,53.00,67.66,150.00,3.00,0.00,30.12,1016.60,10.00,M,CLR,M,M,M,M,M,M,M,M,M,M,M,M,M,M,64.00,KNFL 021056Z AUTO 15003KT 10SM CLR 18/12 A3012 RMK AO2 SLP166 T01780117,M
LSV,2022-08-02 10:58,-115.0343,36.2362,570.00,M,M,M,M,M,0.00,M,M,M,M,M,M,M,M,M,M,M,M,M,M,M,M,M,M,M,M,KLSV 021058Z AUTO M M M M M M RMK AO2 SLPNO RVRNO $,M
INS,2022-08-02 10:58,-115.6733,36.5872,955.00,72.50,65.00,77.58,10.00,6.00,0.00,30.04,1012.30,10.00,M,BKN,M,M,M,17000.00,M,M,M,M,M,M,M,M,M,M,72.50,KINS 021058Z AUTO 01006KT 10SM BKN170 23/18 A3004 RMK AO2 SLP123 T02250184,M
LSV,2022-08-02 10:59,-115.0343,36.2362,570.00,84.20,66.20,54.80,0.00,0.00,0.00,29.94,1011.20,10.00,M,FEW,M,M,M,15000.00,M,M,M,M,M,M,M,M,M,M,86.50,KLSV 021059Z 00000KT 10SM FEW150 29/19 A2994 RMK SLP112 WND DATA ESTMD ALSTG/SLP ESTMD,M
CXP,2022-08-02 11:10,-119.7326,39.1923,1431.00,60.80,50.00,67.54,0.00,0.00,0.00,30.21,M,10.00,M,CLR,M,M,M,M,M,M,M,M,M,M,M,M,M,M,60.80,KCXP 021110Z AUTO 00000KT 10SM CLR 16/10 A3021 RMK AO2,M
HTH,2022-08-02 11:15,-118.6315,38.5448,1282.89,66.20,55.40,68.15,320.00,4.00,0.00,30.17,M,10.00,M,CLR,M,M,M,M,M,M,M,M,M,M,M,M,M,M,66.20,KHTH 021115Z AUTO 32004KT 10SM CLR 19/13 A3017 RMK A01,M
BAM,2022-08-02 11:15,-116.8743,40.5990,1382.36,71.60,53.60,53.03,210.00,3.00,0.00,30.13,M,10.00,M,CLR,M,M,M,M,M,M,M,M,M,M,M,M,M,M,71.60,KBAM 021115Z AUTO 21003KT 10SM CLR 22/12 A3013 RMK AO1,M
BVU,2022-08-02 11:15,-114.8611,35.9475,671.00,80.60,66.20,61.58,0.00,0.00,0.00,29.98,M,M,M,M,M,M,M,M,M,M,M,M,M,M,M,M,M,M,82.75,KBVU 021115Z AUTO 00000KT 27/19 A2998 RMK AO2 PWINO TSNO,M
RTS,2022-08-02 11:15,-119.8764,39.6682,1539.00,59.00,42.80,54.86,350.00,6.00,0.00,30.23,M,10.00,M,CLR,M,M,M,M,M,M,M,M,M,M,M,M,M,M,59.00,KRTS 021115Z AUTO 35006KT 10SM CLR 15/06 A3023 RMK AO2,M
05U,2022-08-02 11:15,-116.0051,39.6042,1811.23,M,M,M,M,M,0.00,M,M,M,M,M,M,M,M,M,M,M,M,M,M,M,M,M,M,M,M,K05U 021115Z AUTO RMK A01 PNO,M
MEV,2022-08-02 11:15,-119.7500,38.9963,1441.42,53.60,51.80,93.60,170.00,5.00,0.00,30.21,M,10.00,M,CLR,M,M,M,M,M,M,M,M,M,M,M,M,M,M,53.60,KMEV 021115Z AUTO 17005KT 10SM CLR 12/11 A3021 RMK AO2,M
TMT,2022-08-02 11:15,-117.1971,39.4643,1749.34,M,M,M,210.00,8.00,0.00,30.25,M,10.00,M,SCT,M,M,M,12000.00,M,M,M,M,M,M,M,M,M,M,M,KTMT 021115Z AUTO 21008KT 10SM SCT120 A3025 RMK AO2,M
CXP,2022-08-02 11:30,-119.7326,39.1923,1431.00,59.00,50.00,72.01,0.00,0.00,0.00,30.22,M,10.00,M,CLR,M,M,M,M,M,M,M,M,M,M,M,M,M,M,59.00,KCXP 021130Z AUTO 00000KT 10SM CLR 15/10 A3022 RMK AO2,M
BVU,2022-08-02 11:35,-114.8611,35.9475,671.00,80.60,66.20,61.58,0.00,0.00,0.00,29.98,M,M,M,M,M,M,M,M,M,M,M,M,M,M,M,M,M,M,82.75,KBVU 021135Z AUTO 00000KT 27/19 A2998 RMK AO2 PWINO TSNO,M
BAM,2022-08-02 11:35,-116.8743,40.5990,1382.36,73.40,51.80,46.71,0.00,0.00,0.00,30.13,M,10.00,M,CLR,M,M,M,M,M,M,M,M,M,M,M,M,M,M,73.40,KBAM 021135Z AUTO 00000KT 10SM CLR 23/11 A3013 RMK AO1,M
TMT,2022-08-02 11:35,-117.1971,39.4643,1749.34,M,M,M,210.00,6.00,0.00,30.25,M,10.00,M,CLR,M,M,M,M,M,M,M,M,M,M,M,M,M,M,M,KTMT 021135Z AUTO 21006KT 10SM CLR A3025 RMK AO2,M
RTS,2022-08-02 11:35,-119.8764,39.6682,1539.00,57.20,42.80,58.52,330.00,7.00,0.00,30.24,M,10.00,M,CLR,M,M,M,M,M,M,M,M,M,M,M,M,M,M,57.20,KRTS 021135Z AUTO 33007KT 10SM CLR 14/06 A3024 RMK AO2,M
05U,2022-08-02 11:35,-116.0051,39.6042,1811.23,M,M,M,M,M,0.00,M,M,M,M,M,M,M,M,M,M,M,M,M,M,M,M,M,M,M,M,K05U 021135Z AUTO RMK A01 PNO,M
MEV,2022-08-02 11:35,-119.7500,38.9963,1441.42,53.60,51.80,93.60,140.00,5.00,0.00,30.21,M,10.00,M,CLR,M,M,M,M,M,M,M,M,M,M,M,M,M,M,53.60,KMEV 021135Z AUTO 14005KT 10SM CLR 12/11 A3021 RMK AO2,M
HTH,2022-08-02 11:35,-118.6315,38.5448,1282.89,66.20,55.40,68.15,0.00,0.00,0.00,30.17,M,10.00,M,CLR,M,M,M,M,M,M,M,M,M,M,M,M,M,M,66.20,KHTH 021135Z AUTO 00000KT 10SM CLR 19/13 A3017 RMK A01,M
CXP,2022-08-02 11:50,-119.7326,39.1923,1431.00,59.00,50.00,72.01,0.00,0.00,0.00,30.22,M,10.00,M,CLR,M,M,M,M,M,M,M,M,M,M,M,M,M,M,59.00,KCXP 021150Z AUTO 00000KT 10SM CLR 15/10 A3022 RMK AO2,M
VGT,2022-08-02 11:53,-115.1933,36.2111,667.00,84.00,63.00,49.32,290.00,4.00,0.00,29.97,1013.50,10.00,M,CLR,M,M,M,M,M,M,M,M,M,M,M,M,M,M,84.99,KVGT 021153Z AUTO 29004KT 10SM CLR 29/17 A2997 RMK AO2 SLP135 T02890172 10317 20289 53005,M
DRA,2022-08-02 11:53,-116.0278,36.6206,1009.00,76.00,58.00,53.64,60.00,3.00,0.00,30.06,1012.60,10.00,M,CLR,M,M,M,M,M,M,M,M,M,M,M,M,M,M,75.90,KDRA 021153Z AUTO 06003KT 10SM CLR 24/14 A3006 RMK AO2 SLP126 T02440144 10289 20239 53004,M
ELY,2022-08-02 11:53,-114.8453,39.2950,1909.00,54.00,51.00,89.88,190.00,4.00,0.00,30.26,1015.80,10.00,M,CLR,M,M,M,M,M,M,M,M,M,M,M,M,M,M,54.00,KELY 021153Z AUTO 19004KT 10SM CLR 12/11 A3026 RMK AO2 SLP158 T01220106 10172 20117 51002,M
LOL,2022-08-02 11:53,-118.5701,40.0684,1192.43,67.00,48.00,50.62,0.00,0.00,0.00,30.11,1014.90,10.00,M,CLR,M,M,M,M,M,M,M,M,M,M,M,M,M,M,66.90,KLOL 021153Z AUTO 00000KT 10SM CLR 19/09 A3011 RMK AO2 SLP149 T01940089 10267 20178 53005,M
05U,2022-08-02 11:55,-116.0051,39.6042,1811.23,M,M,M,M,M,0.00,M,M,M,M,M,M,M,M,M,M,M,M,M,M,M,M,M,M,M,M,K05U 021155Z AUTO RMK A01 PNO,M
MEV,2022-08-02 11:55,-119.7500,38.9963,1441.42,55.40,51.80,87.65,140.00,5.00,0.00,30.21,M,10.00,M,CLR,M,M,M,M,M,M,M,M,M,M,M,M,M,M,55.40,KMEV 021155Z AUTO 14005KT 10SM CLR 13/11 A3021 RMK AO2,M
BAM,2022-08-02 11:55,-116.8743,40.5990,1382.36,71.60,51.80,49.64,70.00,3.00,0.00,30.15,M,10.00,M,SCT,M,M,M,12000.00,M,M,M,M,M,M,M,M,M,M,71.60,KBAM 021155Z AUTO 07003KT 10SM SCT120 22/11 A3015 RMK AO1,M
HTH,2022-08-02 11:55,-118.6315,38.5448,1282.89,64.40,53.60,67.95,200.00,5.00,0.00,30.17,M,10.00,M,CLR,M,M,M,M,M,M,M,M,M,M,M,M,M,M,64.40,KHTH 021155Z AUTO 20005KT 10SM CLR 18/12 A3017 RMK A01,M
RNO,2022-08-02 11:55,-119.7711,39.4839,1341.00,66.00,48.00,52.22,190.00,4.00,0.00,30.19,1016.80,10.00,M,FEW,M,M,M,14000.00,M,M,M,M,M,M,M,M,M,M,66.00,KRNO 021155Z 19004KT 10SM FEW140 19/09 A3019 RMK AO2 SLP168 T01890089 10244 20183 53004,M
BVU,2022-08-02 11:55,-114.8611,35.9475,671.00,78.80,66.20,65.33,0.00,0.00,0.00,29.98,M,M,M,M,M,M,M,M,M,M,M,M,M,M,M,M,M,M,78.80,KBVU 021155Z AUTO 00000KT 26/19 A2998 RMK AO2 PWINO TSNO,M
RTS,2022-08-02 11:55,-119.8764,39.6682,1539.00,55.40,42.80,62.46,330.00,8.00,0.00,30.24,M,10.00,M,CLR,M,M,M,M,M,M,M,M,M,M,M,M,M,M,55.40,KRTS 021155Z AUTO 33008KT 10SM CLR 13/06 A3024 RMK AO2,M
WMC,2022-08-02 11:56,-117.8072,40.9019,1315.00,71.00,53.00,52.96,180.00,3.00,0.00,30.12,1015.20,10.00,M,CLR,M,M,M,M,M,M,M,M,M,M,M,M,M,M,71.10,KWMC 021156Z AUTO 18003KT 10SM CLR 22/12 A3012 RMK AO2 SLP152 T02170117 10239 20211 53008,M
NFL,2022-08-02 11:56,-118.7010,39.4166,1199.00,65.00,52.00,62.96,190.00,7.00,0.00,30.12,1016.70,10.00,M,CLR,M,M,M,M,M,M,M,M,M,M,M,M,M,M,64.90,KNFL 021156Z AUTO 19007KT 10SM CLR 18/11 A3012 RMK AO2 SLP167 T01830111 10244 20172 53001,M
HND,2022-08-02 11:56,-115.1344,35.9729,742.79,78.00,67.00,68.49,200.00,10.00,0.00,30.01,1015.20,10.00,M,CLR,M,M,M,M,M,M,M,M,M,M,M,M,M,M,78.10,KHND 021156Z AUTO 20010KT 10SM CLR 26/19 A3001 RMK AO2 SLP152 T02560194 10283 20256 50002,M
LAS,2022-08-02 11:56,-115.1634,36.0719,663.00,82.00,65.00,56.24,0.00,0.00,0.00,29.98,1012.30,10.00,M,FEW,BKN,M,M,16000.00,25000.00,M,M,M,M,M,M,M,M,M,83.76,KLAS 021156Z 00000KT 10SM FEW160 BKN250 28/18 A2998 RMK AO2 SLP123 T02780183 10300 20272 53003,M
TPH,2022-08-02 11:56,-117.0904,38.0505,1654.00,61.00,60.00,96.85,360.00,9.00,0.00,30.23,1016.80,10.00,M,CLR,M,M,M,M,M,M,M,M,M,M,M,M,M,M,61.00,KTPH 021156Z AUTO 36009KT 10SM CLR 16/16 A3023 RMK AO2 SLP168 70007 T01610156 10189 20161 55003,M
EKO,2022-08-02 11:56,-115.7860,40.8242,1367.00,63.00,58.00,83.42,290.00,4.00,0.00,30.18,1016.70,10.00,M,SCT,OVC,M,M,9000.00,10000.00,M,M,M,M,M,M,M,M,M,63.00,KEKO 021156Z AUTO 29004KT 10SM SCT090 OVC100 17/14 A3018 RMK AO2 SLP167 70004 T01720144 10200 20161 53004,M
INS,2022-08-02 11:58,-115.6733,36.5872,955.00,75.00,62.00,64.20,0.00,0.00,0.00,30.05,1012.80,10.00,M,BKN,M,M,M,16000.00,M,M,M,M,M,M,M,M,M,M,75.00,KINS 021158Z AUTO 00000KT 10SM BKN160 24/17 A3005 RMK AO2 SLP128 T02390167 10261 20224 53001,M
LSV,2022-08-02 11:58,-115.0343,36.2362,570.00,82.40,64.40,54.55,10.00,2.00,0.00,29.96,1012.00,10.00,M,FEW,M,M,M,17000.00,M,M,M,M,M,M,M,M,M,M,83.98,KLSV 021158Z COR 01002KT 10SM FEW170 28/18 A2996 RMK SLP120 WND DATA ESTMD ALSTG/SLP ESTMD,M
CXP,2022-08-02 12:10,-119.7326,39.1923,1431.00,57.20,50.00,76.82,0.00,0.00,0.00,30.23,M,10.00,M,CLR,M,M,M,M,M,M,M,M,M,M,M,M,M,M,57.20,KCXP 021210Z AUTO 00000KT 10SM CLR 14/10 A3023 RMK AO2,M
BAM,2022-08-02 12:15,-116.8743,40.5990,1382.36,73.40,51.80,46.71,280.00,4.00,0.00,30.15,M,10.00,M,BKN,M,M,M,12000.00,M,M,M,M,M,M,M,M,M,M,73.40,KBAM 021215Z AUTO 28004KT 10SM BKN120 23/11 A3015 RMK AO1,M
TMT,2022-08-02 12:15,-117.1971,39.4643,1749.34,M,M,M,210.00,5.00,0.00,30.25,M,10.00,M,CLR,M,M,M,M,M,M,M,M,M,M,M,M,M,M,M,KTMT 021215Z AUTO 21005KT 10SM CLR A3025 RMK AO2,M
RTS,2022-08-02 12:15,-119.8764,39.6682,1539.00,59.00,42.80,54.86,340.00,7.00,0.00,30.24,M,10.00,M,CLR,M,M,M,M,M,M,M,M,M,M,M,M,M,M,59.00,KRTS 021215Z AUTO 34007KT 10SM CLR 15/06 A3024 RMK AO2,M
BVU,2022-08-02 12:15,-114.8611,35.9475,671.00,78.80,66.20,65.33,0.00,0.00,0.00,29.98,M,M,M,M,M,M,M,M,M,M,M,M,M,M,M,M,M,M,78.80,KBVU 021215Z AUTO 00000KT 26/19 A2998 RMK AO2 PWINO TSNO,M
HTH,2022-08-02 12:15,-118.6315,38.5448,1282.89,66.20,53.60,63.82,180.00,5.00,0.00,30.18,M,10.00,M,CLR,M,M,M,M,M,M,M,M,M,M,M,M,M,M,66.20,KHTH 021215Z AUTO 18005KT 10SM CLR 19/12 A3018 RMK A01,M
05U,2022-08-02 12:15,-116.0051,39.6042,1811.23,M,M,M,M,M,0.00,M,M,M,M,M,M,M,M,M,M,M,M,M,M,M,M,M,M,M,M,K05U 021215Z AUTO RMK A01 PNO,M
MEV,2022-08-02 12:15,-119.7500,38.9963,1441.42,53.60,50.00,87.56,100.00,6.00,0.00,30.22,M,10.00,M,CLR,M,M,M,M,M,M,M,M,M,M,M,M,M,M,53.60,KMEV 021215Z AUTO 10006KT 10SM CLR 12/10 A3022 RMK AO2,M
CXP,2022-08-02 12:30,-119.7326,39.1923,1431.00,59.00,50.00,72.01,0.00,0.00,0.00,30.23,M,10.00,M,CLR,M,M,M,M,M,M,M,M,M,M,M,M,M,M,59.00,KCXP 021230Z AUTO 00000KT 10SM CLR 15/10 A3023 RMK AO2,M
RTS,2022-08-02 12:35,-119.8764,39.6682,1539.00,59.00,44.60,58.77,340.00,6.00,0.00,30.24,M,10.00,M,CLR,M,M,M,M,M,M,M,M,M,M,M,M,M,M,59.00,KRTS 021235Z AUTO 34006KT 10SM CLR 15/07 A3024 RMK AO2,M
BVU,2022-08-02 12:35,-114.8611,35.9475,671.00,77.00,66.20,69.33,330.00,4.00,0.00,29.98,M,M,M,M,M,M,M,M,M,M,M,M,M,M,M,M,M,M,77.00,KBVU 021235Z AUTO 33004KT 25/19 A2998 RMK AO2 PWINO TSNO,M
05U,2022-08-02 12:35,-116.0051,39.6042,1811.23,M,M,M,M,M,0.00,M,M,M,M,M,M,M,M,M,M,M,M,M,M,M,M,M,M,M,M,K05U 021235Z AUTO RMK A01 PNO,M
MEV,2022-08-02 12:35,-119.7500,38.9963,1441.42,53.60,50.00,87.56,0.00,0.00,0.00,30.22,M,10.00,M,CLR,M,M,M,M,M,M,M,M,M,M,M,M,M,M,53.60,KMEV 021235Z AUTO 00000KT 10SM CLR 12/10 A3022 RMK AO2,M
BAM,2022-08-02 12:35,-116.8743,40.5990,1382.36,71.60,51.80,49.64,310.00,3.00,0.00,30.16,M,10.00,M,BKN,M,M,M,12000.00,M,M,M,M,M,M,M,M,M,M,71.60,KBAM 021235Z AUTO 31003KT 10SM BKN120 22/11 A3016 RMK AO1,M
HTH,2022-08-02 12:35,-118.6315,38.5448,1282.89,66.20,55.40,68.15,180.00,4.00,0.00,30.18,M,10.00,M,CLR,M,M,M,M,M,M,M,M,M,M,M,M,M,M,66.20,KHTH 021235Z AUTO 18004KT 10SM CLR 19/13 A3018 RMK A01,M
TMT,2022-08-02 12:35,-117.1971,39.4643,1749.34,59.00,51.60,76.42,240.00,4.00,0.00,30.26,M,10.00,M,SCT,M,M,M,11000.00,M,M,M,M,M,M,M,M,M,M,59.00,KTMT 021235Z AUTO 24004KT 10SM SCT110 15/11 A3026 RMK AO2 T01500109,M
CXP,2022-08-02 12:50,-119.7326,39.1923,1431.00,59.00,51.80,76.98,0.00,0.00,0.00,30.23,M,10.00,M,CLR,M,M,M,M,M,M,M,M,M,M,M,M,M,M,59.00,KCXP 021250Z AUTO 00000KT 10SM CLR 15/11 A3023 RMK AO2,M
VGT,2022-08-02 12:53,-115.1933,36.2111,667.00,84.00,62.00,47.78,340.00,4.00,0.00,29.97,1013.70,10.00,M,CLR,M,M,M,M,M,M,M,M,M,M,M,M,M,M,84.67,KVGT 021253Z 34004KT 10SM CLR 29/17 A2997 RMK AO2 SLP137 T02890167,M
DRA,2022-08-02 12:53,-116.0278,36.6206,1009.00,74.00,58.00,57.36,350.00,4.00,0.00,30.07,1013.10,10.00,M,CLR,M,M,M,M,M,M,M,M,M,M,M,M,M,M,73.90,KDRA 021253Z AUTO 35004KT 10SM CLR 23/14 A3007 RMK AO2 SLP131 T02330144,M
LOL,2022-08-02 12:53,-118.5701,40.0684,1192.43,64.00,46.00,51.93,80.00,3.00,0.00,30.12,1015.50,10.00,M,CLR,M,M,M,M,M,M,M,M,M,M,M,M,M,M,64.00,KLOL 021253Z AUTO 08003KT 10SM CLR 18/08 A3012 RMK AO2 SLP155 T01780078,M
ELY,2022-08-02 12:53,-114.8453,39.2950,1909.00,53.00,50.00,89.18,170.00,5.00,0.00,30.27,1016.90,10.00,M,BKN,M,M,M,9000.00,M,M,M,M,M,M,M,M,M,M,53.10,KELY 021253Z AUTO 17005KT 10SM BKN090 12/10 A3027 RMK AO2 SLP169 T01170100,M
BVU,2022-08-02 12:55,-114.8611,35.9475,671.00,78.80,66.20,65.33,0.00,0.00,0.00,29.99,M,M,M,M,M,M,M,M,M,M,M,M,M,M,M,M,M,M,78.80,KBVU 021255Z AUTO 00000KT 26/19 A2999 RMK AO2 PWINO TSNO,M
BAM,2022-08-02 12:55,-116.8743,40.5990,1382.36,71.60,53.60,53.03,360.00,5.00,0.00,30.16,M,10.00,M,SCT,M,M,M,11000.00,M,M,M,M,M,M,M,M,M,M,71.60,KBAM 021255Z AUTO 36005KT 10SM SCT110 22/12 A3016 RMK AO1,M
TMT,2022-08-02 12:55,-117.1971,39.4643,1749.34,55.40,50.20,82.61,300.00,4.00,0.00,30.26,M,10.00,M,BKN,M,M,M,11000.00,M,M,M,M,M,M,M,M,M,M,55.40,KTMT 021255Z AUTO 30004KT 10SM BKN110 13/10 A3026 RMK AO2 T01300101,M
05U,2022-08-02 12:55,-116.0051,39.6042,1811.23,M,M,M,M,M,0.00,M,M,M,M,M,M,M,M,M,M,M,M,M,M,M,M,M,M,M,M,K05U 021255Z AUTO RMK A01 PNO,M
RTS,2022-08-02 12:55,-119.8764,39.6682,1539.00,60.80,44.60,55.12,320.00,5.00,0.00,30.24,M,10.00,M,CLR,M,M,M,M,M,M,M,M,M,M,M,M,M,M,60.80,KRTS 021255Z AUTO 32005KT 10SM CLR 16/07 A3024 RMK AO2,M
MEV,2022-08-02 12:55,-119.7500,38.9963,1441.42,53.60,50.00,87.56,0.00,0.00,0.00,30.22,M,10.00,M,CLR,M,M,M,M,M,M,M,M,M,M,M,M,M,M,53.60,KMEV 021255Z AUTO 00000KT 10SM CLR 12/10 A3022 RMK AO2,M
RNO,2022-08-02 12:55,-119.7711,39.4839,1341.00,64.00,48.00,55.99,180.00,3.00,0.00,30.20,1017.20,10.00,M,FEW,FEW,M,M,14000.00,22000.00,M,M,M,M,M,M,M,M,M,64.00,KRNO 021255Z 18003KT 10SM FEW140 FEW220 18/09 A3020 RMK AO2 SLP172 FU ALF DSNT N THRU E T01780089,M
HTH,2022-08-02 12:55,-118.6315,38.5448,1282.89,66.20,55.40,68.15,180.00,3.00,0.00,30.18,M,10.00,M,CLR,M,M,M,M,M,M,M,M,M,M,M,M,M,M,66.20,KHTH 021255Z AUTO 18003KT 10SM CLR 19/13 A3018 RMK A01,M
HND,2022-08-02 12:56,-115.1344,35.9729,742.79,78.00,66.00,66.39,200.00,8.00,0.00,30.02,1015.50,10.00,M,CLR,M,M,M,M,M,M,M,M,M,M,M,M,M,M,78.10,KHND 021256Z 20008KT 10SM CLR 26/19 A3002 RMK AO2 SLP155 T02560189,M
WMC,2022-08-02 12:56,-117.8072,40.9019,1315.00,72.00,52.00,49.33,0.00,0.00,0.00,30.14,1015.40,9.00,M,OVC,M,M,M,11000.00,M,M,M,M,M,M,M,M,M,M,72.00,KWMC 021256Z AUTO 00000KT 9SM OVC110 22/11 A3014 RMK AO2 SLP154 T02220111,M
LAS,2022-08-02 12:56,-115.1634,36.0719,663.00,81.00,65.00,58.10,0.00,0.00,0.00,29.98,1012.70,10.00,M,FEW,BKN,M,M,16000.00,25000.00,M,M,M,M,M,M,M,M,M,82.79,KLAS 021256Z 00000KT 10SM FEW160 BKN250 27/18 A2998 RMK AO2 SLP127 T02720183,M
EKO,2022-08-02 12:56,-115.7860,40.8242,1367.00,61.00,58.00,89.52,0.00,0.00,0.00,30.18,1017.60,10.00,M,BKN,M,M,M,11000.00,M,M,M,M,M,M,M,M,M,M,61.00,KEKO 021256Z AUTO 00000KT 10SM BKN110 16/14 A3018 RMK AO2 SLP176 T01610144,M
NFL,2022-08-02 12:56,-118.7010,39.4166,1199.00,64.00,50.00,60.34,190.00,7.00,0.00,30.14,1017.20,10.00,M,CLR,M,M,M,M,M,M,M,M,M,M,M,M,M,M,64.00,KNFL 021256Z AUTO 19007KT 10SM CLR 18/10 A3014 RMK AO2 SLP172 T01780100,M
TPH,2022-08-02 12:56,-117.0904,38.0505,1654.00,60.00,59.00,96.15,360.00,5.00,0.00,30.24,1017.70,10.00,M,CLR,M,M,M,M,M,M,M,M,M,M,M,M,M,M,60.10,KTPH 021256Z AUTO 36005KT 10SM CLR 16/15 A3024 RMK AO2 SLP177 T01560150,M
LSV,2022-08-02 12:58,-115.0343,36.2362,570.00,79.20,68.00,68.61,70.00,3.00,0.00,29.95,1011.70,10.00,M,FEW,M,M,M,17000.00,M,M,M,M,M,M,M,M,M,M,79.20,KLSV 021258Z 07003KT 10SM FEW170 26/20 A2995 RMK AO2A SLP117 T02620200 $,M
INS,2022-08-02 12:58,-115.6733,36.5872,955.00,73.80,65.00,73.74,250.00,5.00,0.00,30.06,1013.30,10.00,M,OVC,M,M,M,16000.00,M,M,M,M,M,M,M,M,M,M,73.80,KINS 021258Z AUTO 25005KT 10SM OVC160 23/18 A3006 RMK AO2 SLP133 T02320183,M
CXP,2022-08-02 13:10,-119.7326,39.1923,1431.00,59.00,51.80,76.98,0.00,0.00,0.00,30.24,M,10.00,M,CLR,M,M,M,M,M,M,M,M,M,M,M,M,M,M,59.00,KCXP 021310Z AUTO 00000KT 10SM CLR 15/11 A3024 RMK AO2,M
BAM,2022-08-02 13:15,-116.8743,40.5990,1382.36,69.80,55.40,60.21,10.00,4.00,0.00,30.16,M,10.00,M,SCT,M,M,M,11000.00,M,M,M,M,M,M,M,M,M,M,69.80,KBAM 021315Z AUTO 01004KT 10SM SCT110 21/13 A3016 RMK AO1,M
TMT,2022-08-02 13:15,-117.1971,39.4643,1749.34,M,M,M,250.00,6.00,0.00,30.27,M,10.00,M,SCT,M,M,M,11000.00,M,M,M,M,M,M,M,M,M,M,M,KTMT 021315Z AUTO 25006KT 10SM SCT110 A3027 RMK AO2,M
HTH,2022-08-02 13:15,-118.6315,38.5448,1282.89,66.20,57.20,72.74,0.00,0.00,0.00,30.19,M,10.00,M,CLR,M,M,M,M,M,M,M,M,M,M,M,M,M,M,66.20,KHTH 021315Z AUTO 00000KT 10SM CLR 19/14 A3019 RMK A01,M
BVU,2022-08-02 13:15,-114.8611,35.9475,671.00,78.80,66.20,65.33,0.00,0.00,0.00,29.99,M,M,M,M,M,M,M,M,M,M,M,M,M,M,M,M,M,M,78.80,KBVU 021315Z AUTO 00000KT 26/19 A2999 RMK AO2 PWINO TSNO,M
05U,2022-08-02 13:15,-116.0051,39.6042,1811.23,M,M,M,M,M,0.00,M,M,M,M,M,M,M,M,M,M,M,M,M,M,M,M,M,M,M,M,K05U 021315Z AUTO RMK A01 PNO,M
MEV,2022-08-02 13:15,-119.7500,38.9963,1441.42,53.60,48.20,81.87,270.00,3.00,0.00,30.23,M,10.00,M,CLR,M,M,M,M,M,M,M,M,M,M,M,M,M,M,53.60,KMEV 021315Z AUTO 27003KT 10SM CLR 12/09 A3023 RMK AO2,M
RTS,2022-08-02 13:15,-119.8764,39.6682,1539.00,57.20,42.80,58.52,350.00,7.00,0.00,30.25,M,10.00,M,CLR,M,M,M,M,M,M,M,M,M,M,M,M,M,M,57.20,KRTS 021315Z AUTO 35007KT 10SM CLR 14/06 A3025 RMK AO2,M
CXP,2022-08-02 13:30,-119.7326,39.1923,1431.00,59.00,51.80,76.98,0.00,0.00,0.00,30.24,M,10.00,M,CLR,M,M,M,M,M,M,M,M,M,M,M,M,M,M,59.00,KCXP 021330Z AUTO 00000KT 10SM CLR 15/11 A3024 RMK AO2,M
HTH,2022-08-02 13:35,-118.6315,38.5448,1282.89,66.20,55.40,68.15,130.00,3.00,0.00,30.20,M,10.00,M,CLR,M,M,M,M,M,M,M,M,M,M,M,M,M,M,66.20,KHTH 021335Z AUTO 13003KT 10SM CLR 19/13 A3020 RMK A01,M
BAM,2022-08-02 13:35,-116.8743,40.5990,1382.36,69.80,55.40,60.21,50.00,3.00,0.00,30.17,M,10.00,M,CLR,M,M,M,M,M,M,M,M,M,M,M,M,M,M,69.80,KBAM 021335Z AUTO 05003KT 10SM CLR 21/13 A3017 RMK AO1,M
MEV,2022-08-02 13:35,-119.7500,38.9963,1441.42,51.80,48.20,87.47,0.00,0.00,0.00,30.24,M,10.00,M,CLR,M,M,M,M,M,M,M,M,M,M,M,M,M,M,51.80,KMEV 021335Z AUTO 00000KT 10SM CLR 11/09 A3024 RMK AO2,M
05U,2022-08-02 13:35,-116.0051,39.6042,1811.23,M,M,M,M,M,0.00,M,M,M,M,M,M,M,M,M,M,M,M,M,M,M,M,M,M,M,M,K05U 021335Z AUTO RMK A01 PNO,M
RTS,2022-08-02 13:35,-119.8764,39.6682,1539.00,59.00,44.60,58.77,340.00,7.00,0.00,30.25,M,10.00,M,CLR,M,M,M,M,M,M,M,M,M,M,M,M,M,M,59.00,KRTS 021335Z AUTO 34007KT 10SM CLR 15/07 A3025 RMK AO2,M
BVU,2022-08-02 13:35,-114.8611,35.9475,671.00,78.80,68.00,69.52,0.00,0.00,0.00,30.00,M,M,M,M,M,M,M,M,M,M,M,M,M,M,M,M,M,M,78.80,KBVU 021335Z AUTO 00000KT 26/20 A3000 RMK AO2 PWINO TSNO,M
TMT,2022-08-02 13:35,-117.1971,39.4643,1749.34,58.00,51.30,78.61,250.00,3.00,0.00,30.27,M,10.00,M,SCT,M,M,M,11000.00,M,M,M,M,M,M,M,M,M,M,57.90,KTMT 021335Z AUTO 25003KT 10SM SCT110 14/11 A3027 RMK AO2 T01440107,M
CXP,2022-08-02 13:50,-119.7326,39.1923,1431.00,60.80,51.80,72.20,0.00,0.00,0.00,30.25,M,10.00,M,CLR,M,M,M,M,M,M,M,M,M,M,M,M,M,M,60.80,KCXP 021350Z AUTO 00000KT 10SM CLR 16/11 A3025 RMK AO2,M
ELY,2022-08-02 13:53,-114.8453,39.2950,1909.00,61.00,54.00,77.72,180.00,8.00,0.00,30.29,1016.30,10.00,M,BKN,M,M,M,9500.00,M,M,M,M,M,M,M,M,M,M,61.00,KELY 021353Z AUTO 18008KT 10SM BKN095 16/12 A3029 RMK AO2 SLP163 T01610122,M
VGT,2022-08-02 13:53,-115.1933,36.2111,667.00,85.00,63.00,47.91,0.00,0.00,0.00,29.99,1014.40,10.00,M,CLR,M,M,M,M,M,M,M,M,M,M,M,M,M,M,85.83,KVGT 021353Z 00000KT 10SM CLR 29/17 A2999 RMK AO2 SLP144 T02940172,M
DRA,2022-08-02 13:53,-116.0278,36.6206,1009.00,74.00,57.00,55.53,120.00,3.00,0.00,30.09,1013.80,10.00,M,CLR,M,M,M,M,M,M,M,M,M,M,M,M,M,M,73.90,KDRA 021353Z AUTO 12003KT 10SM CLR 23/14 A3009 RMK AO2 SLP138 T02330139,M
LOL,2022-08-02 13:53,-118.5701,40.0684,1192.43,66.00,47.00,50.10,0.00,0.00,0.00,30.14,1016.40,10.00,M,SCT,M,M,M,12000.00,M,M,M,M,M,M,M,M,M,M,66.00,KLOL 021353Z AUTO 00000KT 10SM SCT120 19/08 A3014 RMK AO2 SLP164 T01890083,M
BVU,2022-08-02 13:55,-114.8611,35.9475,671.00,78.80,68.00,69.52,0.00,0.00,0.00,30.00,M,M,M,M,M,M,M,M,M,M,M,M,M,M,M,M,M,M,78.80,KBVU 021355Z AUTO 00000KT 26/20 A3000 RMK AO2 PWINO TSNO,M
TMT,2022-08-02 13:55,-117.1971,39.4643,1749.34,M,M,M,0.00,0.00,0.00,30.28,M,10.00,M,BKN,M,M,M,11000.00,M,M,M,M,M,M,M,M,M,M,M,KTMT 021355Z AUTO 00000KT 10SM BKN110 A3028 RMK AO2,M
HTH,2022-08-02 13:55,-118.6315,38.5448,1282.89,68.00,55.40,64.04,0.00,0.00,0.00,30.20,M,10.00,M,CLR,M,M,M,M,M,M,M,M,M,M,M,M,M,M,68.00,KHTH 021355Z AUTO 00000KT 10SM CLR 20/13 A3020 RMK A01,M
BAM,2022-08-02 13:55,-116.8743,40.5990,1382.36,69.80,55.40,60.21,0.00,0.00,0.00,30.18,M,10.00,M,CLR,M,M,M,M,M,M,M,M,M,M,M,M,M,M,69.80,KBAM 021355Z AUTO 00000KT 10SM CLR 21/13 A3018 RMK AO1,M
MEV,2022-08-02 13:55,-119.7500,38.9963,1441.42,55.40,50.00,81.99,0.00,0.00,0.00,30.24,M,10.00,M,CLR,M,M,M,M,M,M,M,M,M,M,M,M,M,M,55.40,KMEV 021355Z AUTO 00000KT 10SM CLR 13/10 A3024 RMK AO2,M
05U,2022-08-02 13:55,-116.0051,39.6042,1811.23,M,M,M,M,M,0.00,M,M,M,M,M,M,M,M,M,M,M,M,M,M,M,M,M,M,M,M,K05U 021355Z AUTO RMK A01 PNO,M
RTS,2022-08-02 13:55,-119.8764,39.6682,1539.00,59.00,44.60,58.77,340.00,3.00,0.00,30.25,M,10.00,M,CLR,M,M,M,M,M,M,M,M,M,M,M,M,M,M,59.00,KRTS 021355Z AUTO 34003KT 10SM CLR 15/07 A3025 RMK AO2,M
RNO,2022-08-02 13:55,-119.7711,39.4839,1341.00,65.00,48.00,54.26,150.00,3.00,0.00,30.21,1017.80,10.00,M,FEW,FEW,M,M,14000.00,22000.00,M,M,M,M,M,M,M,M,M,64.90,KRNO 021355Z 15003KT 10SM FEW140 FEW220 18/09 A3021 RMK AO2 SLP178 T01830089,M
HND,2022-08-02 13:56,-115.1344,35.9729,742.79,81.00,66.00,60.37,210.00,7.00,0.00,30.03,1015.80,10.00,M,CLR,M,M,M,M,M,M,M,M,M,M,M,M,M,M,83.11,KHND 021356Z 21007KT 10SM CLR 27/19 A3003 RMK AO2 SLP158 T02720189,M
EKO,2022-08-02 13:56,-115.7860,40.8242,1367.00,61.00,58.00,89.52,210.00,4.00,0.00,30.20,1018.30,10.00,M,SCT,BKN,M,M,10000.00,12000.00,M,M,M,M,M,M,M,M,M,61.00,KEKO 021356Z AUTO 21004KT 10SM SCT100 BKN120 16/14 A3020 RMK AO2 SLP183 T01610144,M
TPH,2022-08-02 13:56,-117.0904,38.0505,1654.00,62.00,59.00,89.57,10.00,8.00,0.00,30.25,1018.20,10.00,M,CLR,M,M,M,M,M,M,M,M,M,M,M,M,M,M,62.10,KTPH 021356Z AUTO 01008KT 10SM CLR 17/15 A3025 RMK AO2 SLP182 T01670150,M
LAS,2022-08-02 13:56,-115.1634,36.0719,663.00,83.00,64.00,52.93,0.00,0.00,0.00,30.00,1013.00,10.00,M,FEW,SCT,M,M,16000.00,25000.00,M,M,M,M,M,M,M,M,M,84.32,KLAS 021356Z 00000KT 10SM FEW160 SCT250 28/18 A3000 RMK AO2 SLP130 T02830178,M
NFL,2022-08-02 13:56,-118.7010,39.4166,1199.00,69.00,50.00,50.56,190.00,6.00,0.00,30.16,1017.60,10.00,M,CLR,M,M,M,M,M,M,M,M,M,M,M,M,M,M,69.10,KNFL 021356Z AUTO 19006KT 10SM CLR 21/10 A3016 RMK AO2 SLP176 T02060100,M
WMC,2022-08-02 13:56,-117.8072,40.9019,1315.00,73.00,53.00,49.66,0.00,0.00,0.00,30.15,1015.90,8.00,M,BKN,M,M,M,12000.00,M,M,M,M,M,M,M,M,M,M,73.00,KWMC 021356Z AUTO 00000KT 8SM BKN120 23/12 A3015 RMK AO2 SLP159 T02280117,M
INS,2022-08-02 13:58,-115.6733,36.5872,955.00,75.40,65.00,69.89,280.00,5.00,0.00,30.07,1013.80,10.00,M,BKN,M,M,M,17000.00,M,M,M,M,M,M,M,M,M,M,75.40,KINS 021358Z AUTO 28005KT 10SM BKN170 24/18 A3007 RMK AO2 SLP138 T02410183,M
LSV,2022-08-02 13:58,-115.0343,36.2362,570.00,82.00,70.00,67.06,80.00,2.00,0.00,29.97,1012.30,10.00,M,FEW,M,M,M,20000.00,M,M,M,M,M,M,M,M,M,M,85.81,KLSV 021358Z 08002KT 10SM FEW200 28/21 A2997 RMK AO2A SLP123 T02780211 $,M
CXP,2022-08-02 14:10,-119.7326,39.1923,1431.00,62.60,53.60,72.38,0.00,0.00,0.00,30.25,M,10.00,M,CLR,M,M,M,M,M,M,M,M,M,M,M,M,M,M,62.60,KCXP 021410Z AUTO 00000KT 10SM CLR 17/12 A3025 RMK AO2,M
HTH,2022-08-02 14:15,-118.6315,38.5448,1282.89,68.00,57.20,68.35,0.00,0.00,0.00,30.20,M,10.00,M,CLR,M,M,M,M,M,M,M,M,M,M,M,M,M,M,68.00,KHTH 021415Z AUTO 00000KT 10SM CLR 20/14 A3020 RMK A01,M
05U,2022-08-02 14:15,-116.0051,39.6042,1811.23,M,M,M,M,M,0.00,M,M,M,M,M,M,M,M,M,M,M,M,M,M,M,M,M,M,M,M,K05U 021415Z AUTO RMK A01 PNO,M
MEV,2022-08-02 14:15,-119.7500,38.9963,1441.42,59.00,51.80,76.98,0.00,0.00,0.00,30.24,M,10.00,M,CLR,M,M,M,M,M,M,M,M,M,M,M,M,M,M,59.00,KMEV 021415Z AUTO 00000KT 10SM CLR 15/11 A3024 RMK AO2,M
RTS,2022-08-02 14:15,-119.8764,39.6682,1539.00,60.80,44.60,55.12,0.00,0.00,0.00,30.26,M,10.00,M,CLR,M,M,M,M,M,M,M,M,M,M,M,M,M,M,60.80,KRTS 021415Z AUTO 00000KT 10SM CLR 16/07 A3026 RMK AO2,M
BAM,2022-08-02 14:15,-116.8743,40.5990,1382.36,71.60,55.40,56.63,0.00,0.00,0.00,30.17,M,10.00,M,CLR,M,M,M,M,M,M,M,M,M,M,M,M,M,M,71.60,KBAM 021415Z AUTO 00000KT 10SM CLR 22/13 A3017 RMK AO1,M
TMT,2022-08-02 14:15,-117.1971,39.4643,1749.34,60.40,52.20,74.32,190.00,4.00,0.00,30.28,M,10.00,M,SCT,M,M,M,11000.00,M,M,M,M,M,M,M,M,M,M,60.40,KTMT 021415Z AUTO 19004KT 10SM SCT110 16/11 A3028 RMK AO2 T01580112,M
BVU,2022-08-02 14:15,-114.8611,35.9475,671.00,82.40,66.20,58.08,300.00,4.00,0.00,30.00,M,M,M,M,M,M,M,M,M,M,M,M,M,M,M,M,M,M,84.63,KBVU 021415Z AUTO 30004KT 28/19 A3000 RMK AO2 PWINO TSNO,M
CXP,2022-08-02 14:30,-119.7326,39.1923,1431.00,64.40,53.60,67.95,0.00,0.00,0.00,30.25,M,10.00,M,CLR,M,M,M,M,M,M,M,M,M,M,M,M,M,M,64.40,KCXP 021430Z AUTO 00000KT 10SM CLR 18/12 A3025 RMK AO2,M
MEV,2022-08-02 14:35,-119.7500,38.9963,1441.42,60.80,51.80,72.20,0.00,0.00,0.00,30.24,M,10.00,M,CLR,M,M,M,M,M,M,M,M,M,M,M,M,M,M,60.80,KMEV 021435Z AUTO 00000KT 10SM CLR 16/11 A3024 RMK AO2,M
BAM,2022-08-02 14:35,-116.8743,40.5990,1382.36,73.40,53.60,49.90,0.00,0.00,0.00,30.19,M,10.00,M,CLR,M,M,M,M,M,M,M,M,M,M,M,M,M,M,73.40,KBAM 021435Z AUTO 00000KT 10SM CLR 23/12 A3019 RMK AO1,M
HTH,2022-08-02 14:35,-118.6315,38.5448,1282.89,71.60,57.20,60.44,0.00,0.00,0.00,30.20,M,10.00,M,CLR,M,M,M,M,M,M,M,M,M,M,M,M,M,M,71.60,KHTH 021435Z AUTO 00000KT 10SM CLR 22/14 A3020 RMK A01,M
RTS,2022-08-02 14:35,-119.8764,39.6682,1539.00,64.40,44.60,48.55,180.00,3.00,0.00,30.26,M,10.00,M,CLR,M,M,M,M,M,M,M,M,M,M,M,M,M,M,64.40,KRTS 021435Z AUTO 18003KT 10SM CLR 18/07 A3026 RMK AO2,M
TMT,2022-08-02 14:35,-117.1971,39.4643,1749.34,61.70,52.20,70.97,190.00,5.00,0.00,30.28,M,10.00,M,BKN,M,M,M,11000.00,M,M,M,M,M,M,M,M,M,M,61.70,KTMT 021435Z AUTO 19005KT 10SM BKN110 17/11 A3028 RMK AO2 T01650112,M
05U,2022-08-02 14:35,-116.0051,39.6042,1811.23,M,M,M,M,M,0.00,M,M,M,M,M,M,M,M,M,M,M,M,M,M,M,M,M,M,M,M,K05U 021435Z AUTO RMK A01 PNO,M
BVU,2022-08-02 14:35,-114.8611,35.9475,671.00,84.20,64.40,51.47,280.00,3.00,0.00,30.01,M,M,M,M,M,M,M,M,M,M,M,M,M,M,M,M,M,M,85.71,KBVU 021435Z AUTO 28003KT 29/18 A3001 RMK AO2 PWINO TSNO,M
CXP,2022-08-02 14:50,-119.7326,39.1923,1431.00,66.20,53.60,63.82,0.00,0.00,0.00,30.25,M,10.00,M,CLR,M,M,M,M,M,M,M,M,M,M,M,M,M,M,66.20,KCXP 021450Z AUTO 00000KT 10SM CLR 19/12 A3025 RMK AO2,M
VGT,2022-08-02 14:53,-115.1933,36.2111,667.00,88.00,61.00,40.44,330.00,7.00,0.00,30.00,1014.60,10.00,M,CLR,M,M,M,M,M,M,M,M,M,M,M,M,M,M,88.02,KVGT 021453Z 33007KT 10SM CLR 31/16 A3000 RMK AO2 SLP146 T03110161 53010,M
LOL,2022-08-02 14:53,-118.5701,40.0684,1192.43,72.00,48.00,42.51,0.00,0.00,0.00,30.15,1016.40,10.00,M,CLR,M,M,M,M,M,M,M,M,M,M,M,M,M,M,72.00,KLOL 021453Z AUTO 00000KT 10SM CLR 22/09 A3015 RMK AO2 SLP164 T02220089 51013,M
ELY,2022-08-02 14:53,-114.8453,39.2950,1909.00,68.00,56.00,65.22,190.00,5.00,0.00,30.28,1015.70,10.00,M,BKN,M,M,M,9000.00,M,M,M,M,M,M,M,M,M,M,68.00,KELY 021453Z AUTO 19005KT 10SM BKN090 20/13 A3028 RMK AO2 SLP157 T02000133 50006,M
DRA,2022-08-02 14:53,-116.0278,36.6206,1009.00,80.00,58.00,46.70,0.00,0.00,0.00,30.10,1014.00,10.00,M,CLR,M,M,M,M,M,M,M,M,M,M,M,M,M,M,80.58,KDRA 021453Z AUTO 00000KT 10SM CLR 27/14 A3010 RMK AO2 SLP140 T02670144 53010,M
BVU,2022-08-02 14:55,-114.8611,35.9475,671.00,84.20,64.40,51.47,0.00,0.00,0.00,30.01,M,M,M,M,M,M,M,M,M,M,M,M,M,M,M,M,M,M,85.71,KBVU 021455Z AUTO 00000KT 29/18 A3001 RMK AO2 PWINO TSNO,M
TMT,2022-08-02 14:55,-117.1971,39.4643,1749.34,M,M,M,180.00,7.00,0.00,30.28,M,10.00,M,SCT,M,M,M,10000.00,M,M,M,M,M,M,M,M,M,M,M,KTMT 021455Z AUTO 18007KT 10SM SCT100 A3028 RMK AO2,M
BAM,2022-08-02 14:55,-116.8743,40.5990,1382.36,75.20,53.60,46.98,0.00,0.00,0.00,30.19,M,10.00,M,BKN,M,M,M,11000.00,M,M,M,M,M,M,M,M,M,M,75.20,KBAM 021455Z AUTO 00000KT 10SM BKN110 24/12 A3019 RMK AO1,M
HTH,2022-08-02 14:55,-118.6315,38.5448,1282.89,71.60,55.40,56.63,0.00,0.00,0.00,30.21,M,10.00,M,CLR,M,M,M,M,M,M,M,M,M,M,M,M,M,M,71.60,KHTH 021455Z AUTO 00000KT 10SM CLR 22/13 A3021 RMK A01,M
MEV,2022-08-02 14:55,-119.7500,38.9963,1441.42,64.40,55.40,72.56,0.00,0.00,0.00,30.24,M,10.00,M,CLR,M,M,M,M,M,M,M,M,M,M,M,M,M,M,64.40,KMEV 021455Z AUTO 00000KT 10SM CLR 18/13 A3024 RMK AO2,M
05U,2022-08-02 14:55,-116.0051,39.6042,1811.23,M,M,M,M,M,0.00,M,M,M,M,M,M,M,M,M,M,M,M,M,M,M,M,M,M,M,M,K05U 021455Z AUTO RMK A01 PNO,M
RTS,2022-08-02 14:55,-119.8764,39.6682,1539.00,66.20,44.60,45.60,0.00,0.00,0.00,30.26,M,10.00,M,CLR,M,M,M,M,M,M,M,M,M,M,M,M,M,M,66.20,KRTS 021455Z AUTO 00000KT 10SM CLR 19/07 A3026 RMK AO2,M
RNO,2022-08-02 14:55,-119.7711,39.4839,1341.00,71.00,48.00,43.83,190.00,4.00,0.00,30.21,1017.60,10.00,M,FEW,FEW,M,M,12000.00,22000.00,M,M,M,M,M,M,M,M,M,71.10,KRNO 021455Z 19004KT 10SM FEW120 FEW220 22/09 A3021 RMK AO2 SLP176 T02170089 51007,M
WMC,2022-08-02 14:56,-117.8072,40.9019,1315.00,75.00,51.00,43.14,0.00,0.00,0.00,30.16,1016.20,9.00,M,SCT,M,M,M,12000.00,M,M,M,M,M,M,M,M,M,M,75.00,KWMC 021456Z AUTO 00000KT 9SM SCT120 24/11 A3016 RMK AO2 SLP162 T02390106 51012,M
EKO,2022-08-02 14:56,-115.7860,40.8242,1367.00,63.00,58.00,83.42,0.00,0.00,0.00,30.20,1018.40,10.00,M,BKN,M,M,M,11000.00,M,M,M,M,M,M,M,M,M,M,63.00,KEKO 021456Z AUTO 00000KT 10SM BKN110 17/14 A3020 RMK AO2 SLP184 T01720144 51007,M
HND,2022-08-02 14:56,-115.1344,35.9729,742.79,85.00,66.00,53.21,210.00,6.00,0.00,30.05,1016.10,10.00,M,CLR,M,M,M,M,M,M,M,M,M,M,M,M,M,M,87.13,KHND 021456Z 21006KT 10SM CLR 29/19 A3005 RMK AO2 SLP161 T02940189 53011,M
NFL,2022-08-02 14:56,-118.7010,39.4166,1199.00,74.00,50.00,42.97,200.00,7.00,0.00,30.16,1017.90,10.00,M,SCT,SCT,M,M,10000.00,15000.00,M,M,M,M,M,M,M,M,M,73.90,KNFL 021456Z 20007KT 10SM SCT100 SCT150 23/10 A3016 RMK AO2 SLP179 T02330100 51012,M
LAS,2022-08-02 14:56,-115.1634,36.0719,663.00,87.00,63.00,44.66,0.00,0.00,0.00,30.01,1013.40,10.00,M,FEW,FEW,BKN,M,10000.00,16000.00,25000.00,M,M,M,M,M,M,M,M,87.96,KLAS 021456Z 00000KT 10SM FEW100 FEW160 BKN250 31/17 A3001 RMK AO2 SLP134 T03060172 53012,M
TPH,2022-08-02 14:56,-117.0904,38.0505,1654.00,66.00,61.00,83.91,50.00,3.00,0.00,30.27,1018.60,10.00,M,CLR,M,M,M,M,M,M,M,M,M,M,M,M,M,M,66.00,KTPH 021456Z AUTO 05003KT 10SM CLR 19/16 A3027 RMK AO2 SLP186 T01890161 51010,M
LSV,2022-08-02 14:58,-115.0343,36.2362,570.00,88.20,67.60,50.62,0.00,0.00,0.00,29.98,M,10.00,M,CLR,M,M,M,M,M,M,M,M,M,M,M,M,M,M,91.61,KLSV 021458Z AUTO 00000KT 10SM CLR 31/20 A2998 RMK AO2 SLPNO T03120198 $,M
INS,2022-08-02 14:58,-115.6733,36.5872,955.00,79.30,62.80,57.06,280.00,4.00,0.00,30.09,1014.40,10.00,M,CLR,M,M,M,M,M,M,M,M,M,M,M,M,M,M,79.30,KINS 021458Z AUTO 28004KT 10SM CLR 26/17 A3009 RMK AO2 SLP144 T02630171 52011,M
CXP,2022-08-02 15:10,-119.7326,39.1923,1431.00,68.00,53.60,59.97,0.00,0.00,0.00,30.25,M,10.00,M,CLR,M,M,M,M,M,M,M,M,M,M,M,M,M,M,68.00,KCXP 021510Z AUTO 00000KT 10SM CLR 20/12 A3025 RMK AO2,M
05U,2022-08-02 15:15,-116.0051,39.6042,1811.23,M,M,M,M,M,0.00,M,M,M,M,M,M,M,M,M,M,M,M,M,M,M,M,M,M,M,M,K05U 021515Z AUTO RMK A01 PNO,M
BVU,2022-08-02 15:15,-114.8611,35.9475,671.00,86.00,64.40,48.58,0.00,0.00,0.00,30.02,M,M,M,M,M,M,M,M,M,M,M,M,M,M,M,M,M,M,87.49,KBVU 021515Z AUTO 00000KT 30/18 A3002 RMK AO2 PWINO TSNO,M
TMT,2022-08-02 15:15,-117.1971,39.4643,1749.34,M,M,M,200.00,6.00,0.00,30.28,M,10.00,M,SCT,M,M,M,10000.00,M,M,M,M,M,M,M,M,M,M,M,KTMT 021515Z AUTO 20006KT 10SM SCT100 A3028 RMK AO2,M
HTH,2022-08-02 15:15,-118.6315,38.5448,1282.89,73.40,55.40,53.29,0.00,0.00,0.00,30.20,M,10.00,M,CLR,M,M,M,M,M,M,M,M,M,M,M,M,M,M,73.40,KHTH 021515Z AUTO 00000KT 10SM CLR 23/13 A3020 RMK A01,M
BAM,2022-08-02 15:15,-116.8743,40.5990,1382.36,77.00,53.60,44.25,0.00,0.00,0.00,30.19,M,10.00,M,OVC,M,M,M,11000.00,M,M,M,M,M,M,M,M,M,M,77.00,KBAM 021515Z AUTO 00000KT 10SM OVC110 25/12 A3019 RMK AO1,M
MEV,2022-08-02 15:15,-119.7500,38.9963,1441.42,66.20,53.60,63.82,0.00,0.00,0.00,30.24,M,10.00,M,CLR,M,M,M,M,M,M,M,M,M,M,M,M,M,M,66.20,KMEV 021515Z AUTO 00000KT 10SM CLR 19/12 A3024 RMK AO2,M
RTS,2022-08-02 15:15,-119.8764,39.6682,1539.00,69.80,46.40,43.13,120.00,5.00,0.00,30.26,M,10.00,M,CLR,M,M,M,M,M,M,M,M,M,M,M,M,M,M,69.80,KRTS 021515Z AUTO 12005KT 10SM CLR 21/08 A3026 RMK AO2,M
CXP,2022-08-02 15:30,-119.7326,39.1923,1431.00,69.80,51.80,52.77,210.00,4.00,0.00,30.25,M,10.00,M,CLR,M,M,M,M,M,M,M,M,M,M,M,M,M,M,69.80,KCXP 021530Z AUTO 21004KT 10SM CLR 21/11 A3025 RMK AO2,M
HTH,2022-08-02 15:35,-118.6315,38.5448,1282.89,75.20,53.60,46.98,360.00,3.00,0.00,30.20,M,10.00,M,CLR,M,M,M,M,M,M,M,M,M,M,M,M,M,M,75.20,KHTH 021535Z AUTO 36003KT 10SM CLR 24/12 A3020 RMK A01,M
BAM,2022-08-02 15:35,-116.8743,40.5990,1382.36,78.80,50.00,36.51,260.00,4.00,0.00,30.19,M,10.00,M,OVC,M,M,M,12000.00,M,M,M,M,M,M,M,M,M,M,78.80,KBAM 021535Z AUTO 26004KT 10SM OVC120 26/10 A3019 RMK AO1,M
MEV,2022-08-02 15:35,-119.7500,38.9963,1441.42,68.00,53.60,59.97,0.00,0.00,0.00,30.24,M,10.00,M,CLR,M,M,M,M,M,M,M,M,M,M,M,M,M,M,68.00,KMEV 021535Z AUTO 00000KT 10SM CLR 20/12 A3024 RMK AO2,M
05U,2022-08-02 15:35,-116.0051,39.6042,1811.23,M,M,M,M,M,0.00,M,M,M,M,M,M,M,M,M,M,M,M,M,M,M,M,M,M,M,M,K05U 021535Z AUTO RMK A01 PNO,M
RTS,2022-08-02 15:35,-119.8764,39.6682,1539.00,68.00,46.40,45.88,130.00,5.00,0.00,30.26,M,10.00,M,CLR,M,M,M,M,M,M,M,M,M,M,M,M,M,M,68.00,KRTS 021535Z AUTO 13005KT 10SM CLR 20/08 A3026 RMK AO2,M
BVU,2022-08-02 15:35,-114.8611,35.9475,671.00,86.00,64.40,48.58,0.00,0.00,0.00,30.02,M,M,M,M,M,M,M,M,M,M,M,M,M,M,M,M,M,M,87.49,KBVU 021535Z AUTO 00000KT 30/18 A3002 RMK AO2 PWINO TSNO,M
TMT,2022-08-02 15:35,-117.1971,39.4643,1749.34,M,M,M,220.00,5.00,0.00,30.28,M,10.00,M,CLR,M,M,M,M,M,M,M,M,M,M,M,M,M,M,M,KTMT 021535Z AUTO 22005KT 10SM CLR A3028 RMK AO2,M
CXP,2022-08-02 15:50,-119.7326,39.1923,1431.00,71.60,51.80,49.64,M,3.00,0.00,30.24,M,10.00,M,CLR,M,M,M,M,M,M,M,M,M,M,M,M,M,M,71.60,KCXP 021550Z AUTO VRB03KT 10SM CLR 22/11 A3024 RMK AO2,M
LOL,2022-08-02 15:53,-118.5701,40.0684,1192.43,79.00,50.00,36.27,140.00,4.00,0.00,30.15,1016.30,10.00,M,CLR,M,M,M,M,M,M,M,M,M,M,M,M,M,M,79.00,KLOL 021553Z AUTO 14004KT 10SM CLR 26/10 A3015 RMK AO2 SLP163 T02610100,M
ELY,2022-08-02 15:53,-114.8453,39.2950,1909.00,72.00,56.00,56.89,M,3.00,0.00,30.28,1015.50,10.00,M,CLR,M,M,M,M,M,M,M,M,M,M,M,M,M,M,72.00,KELY 021553Z AUTO VRB03KT 10SM CLR 22/13 A3028 RMK AO2 SLP155 T02220133,M
VGT,2022-08-02 15:53,-115.1933,36.2111,667.00,91.00,62.00,38.26,320.00,8.00,0.00,30.00,1014.70,10.00,M,CLR,M,M,M,M,M,M,M,M,M,M,M,M,M,M,91.56,KVGT 021553Z 32008KT 10SM CLR 33/17 A3000 RMK AO2 SLP147 T03280167,M
DRA,2022-08-02 15:53,-116.0278,36.6206,1009.00,85.00,58.00,39.97,0.00,0.00,0.00,30.10,1014.00,10.00,M,CLR,M,M,M,M,M,M,M,M,M,M,M,M,M,M,84.21,KDRA 021553Z AUTO 00000KT 10SM CLR 29/14 A3010 RMK AO2 SLP140 T02940144,M
RNO,2022-08-02 15:55,-119.7711,39.4839,1341.00,73.00,49.00,42.51,50.00,3.00,0.00,30.21,1017.40,10.00,M,FEW,FEW,M,M,12000.00,22000.00,M,M,M,M,M,M,M,M,M,73.00,KRNO 021555Z 05003KT 10SM FEW120 FEW220 23/09 A3021 RMK AO2 SLP174 T02280094,M
05U,2022-08-02 15:55,-116.0051,39.6042,1811.23,M,M,M,M,M,0.00,M,M,M,M,M,M,M,M,M,M,M,M,M,M,M,M,M,M,M,M,K05U 021555Z AUTO RMK A01 PNO,M
TMT,2022-08-02 15:55,-117.1971,39.4643,1749.34,M,M,M,210.00,3.00,0.00,30.28,M,10.00,M,BKN,M,M,M,10000.00,M,M,M,M,M,M,M,M,M,M,M,KTMT 021555Z AUTO 21003KT 10SM BKN100 A3028 RMK AO2,M
BVU,2022-08-02 15:55,-114.8611,35.9475,671.00,87.80,64.40,45.88,0.00,0.00,0.00,30.02,M,M,M,M,M,M,M,M,M,M,M,M,M,M,M,M,M,M,89.33,KBVU 021555Z AUTO 00000KT 31/18 A3002 RMK AO2 PWINO TSNO,M
BAM,2022-08-02 15:55,-116.8743,40.5990,1382.36,78.80,50.00,36.51,240.00,5.00,0.00,30.19,M,10.00,M,OVC,M,M,M,12000.00,M,M,M,M,M,M,M,M,M,M,78.80,KBAM 021555Z AUTO 24005KT 10SM OVC120 26/10 A3019 RMK AO1,M
MEV,2022-08-02 15:55,-119.7500,38.9963,1441.42,69.80,55.40,60.21,0.00,0.00,0.00,30.23,M,10.00,M,CLR,M,M,M,M,M,M,M,M,M,M,M,M,M,M,69.80,KMEV 021555Z AUTO 00000KT 10SM CLR 21/13 A3023 RMK AO2,M
RTS,2022-08-02 15:55,-119.8764,39.6682,1539.00,71.60,46.40,40.57,0.00,0.00,0.00,30.26,M,10.00,M,CLR,M,M,M,M,M,M,M,M,M,M,M,M,M,M,71.60,KRTS 021555Z AUTO 00000KT 10SM CLR 22/08 A3026 RMK AO2,M
HTH,2022-08-02 15:55,-118.6315,38.5448,1282.89,77.00,53.60,44.25,0.00,0.00,0.00,30.20,M,10.00,M,CLR,M,M,M,M,M,M,M,M,M,M,M,M,M,M,77.00,KHTH 021555Z AUTO 00000KT 10SM CLR 25/12 A3020 RMK A01,M
TPH,2022-08-02 15:56,-117.0904,38.0505,1654.00,70.00,61.00,73.11,0.00,0.00,0.00,30.27,1018.20,10.00,M,CLR,M,M,M,M,M,M,M,M,M,M,M,M,M,M,70.00,KTPH 021556Z AUTO 00000KT 10SM CLR 21/16 A3027 RMK AO2 SLP182 T02110161,M
WMC,2022-08-02 15:56,-117.8072,40.9019,1315.00,77.00,52.00,41.72,210.00,3.00,0.00,30.17,1016.30,10.00,M,FEW,M,M,M,12000.00,M,M,M,M,M,M,M,M,M,M,77.00,KWMC 021556Z AUTO 21003KT 10SM FEW120 25/11 A3017 RMK AO2 SLP163 T02500111,M
LAS,2022-08-02 15:56,-115.1634,36.0719,663.00,89.00,62.00,40.61,0.00,0.00,0.00,30.02,1013.70,10.00,M,FEW,FEW,SCT,M,10000.00,16000.00,25000.00,M,M,M,M,M,M,M,M,89.58,KLAS 021556Z 00000KT 10SM FEW100 FEW160 SCT250 32/17 A3002 RMK AO2 SLP137 T03170167,M
HND,2022-08-02 15:56,-115.1344,35.9729,742.79,89.00,65.00,44.80,200.00,5.00,0.00,30.05,1016.20,10.00,M,CLR,M,M,M,M,M,M,M,M,M,M,M,M,M,M,90.97,KHND 021556Z 20005KT 10SM CLR 32/18 A3005 RMK AO2 SLP162 T03170183,M
EKO,2022-08-02 15:56,-115.7860,40.8242,1367.00,68.00,59.00,72.92,220.00,5.00,0.00,30.21,1018.00,10.00,M,FEW,FEW,M,M,9000.00,11000.00,M,M,M,M,M,M,M,M,M,68.00,KEKO 021556Z AUTO 22005KT 10SM FEW090 FEW110 20/15 A3021 RMK AO2 SLP180 T02000150,M
NFL,2022-08-02 15:56,-118.7010,39.4166,1199.00,78.00,49.00,35.86,180.00,4.00,0.00,30.16,1017.90,10.00,M,SCT,SCT,M,M,10000.00,15000.00,M,M,M,M,M,M,M,M,M,78.10,KNFL 021556Z 18004KT 10SM SCT100 SCT150 26/09 A3016 RMK AO2 SLP179 T02560094,M
LSV,2022-08-02 15:58,-115.0343,36.2362,570.00,94.00,65.80,39.79,0.00,0.00,0.00,29.99,M,10.00,M,CLR,M,M,M,M,M,M,M,M,M,M,M,M,M,M,96.89,KLSV 021558Z AUTO 00000KT 10SM CLR 34/19 A2999 RMK AO2 SLPNO T03440188 $,M
INS,2022-08-02 15:58,-115.6733,36.5872,955.00,82.40,61.30,48.91,0.00,0.00,0.00,30.09,1014.20,10.00,M,CLR,M,M,M,M,M,M,M,M,M,M,M,M,M,M,83.04,KINS 021558Z AUTO 00000KT 10SM CLR 28/16 A3009 RMK AO2 SLP142 T02800163,M
CXP,2022-08-02 16:10,-119.7326,39.1923,1431.00,71.60,53.60,53.03,0.00,0.00,0.00,30.24,M,10.00,M,CLR,M,M,M,M,M,M,M,M,M,M,M,M,M,M,71.60,KCXP 021610Z AUTO 00000KT 10SM CLR 22/12 A3024 RMK AO2,M
HTH,2022-08-02 16:15,-118.6315,38.5448,1282.89,77.00,53.60,44.25,0.00,0.00,0.00,30.19,M,10.00,M,CLR,M,M,M,M,M,M,M,M,M,M,M,M,M,M,77.00,KHTH 021615Z AUTO 00000KT 10SM CLR 25/12 A3019 RMK A01,M
RTS,2022-08-02 16:15,-119.8764,39.6682,1539.00,73.40,46.40,38.18,0.00,0.00,0.00,30.26,M,10.00,M,CLR,M,M,M,M,M,M,M,M,M,M,M,M,M,M,73.40,KRTS 021615Z AUTO 00000KT 10SM CLR 23/08 A3026 RMK AO2,M
05U,2022-08-02 16:15,-116.0051,39.6042,1811.23,M,M,M,M,M,0.00,M,M,M,M,M,M,M,M,M,M,M,M,M,M,M,M,M,M,M,M,K05U 021615Z AUTO RMK A01 PNO,M
MEV,2022-08-02 16:15,-119.7500,38.9963,1441.42,71.60,53.60,53.03,220.00,3.00,0.00,30.23,M,10.00,M,CLR,M,M,M,M,M,M,M,M,M,M,M,M,M,M,71.60,KMEV 021615Z AUTO 22003KT 10SM CLR 22/12 A3023 RMK AO2,M
BAM,2022-08-02 16:15,-116.8743,40.5990,1382.36,78.80,50.00,36.51,240.00,5.00,0.00,30.19,M,10.00,M,BKN,M,M,M,11000.00,M,M,M,M,M,M,M,M,M,M,78.80,KBAM 021615Z AUTO 24005KT 10SM BKN110 26/10 A3019 RMK AO1,M
BVU,2022-08-02 16:15,-114.8611,35.9475,671.00,87.80,64.40,45.88,0.00,0.00,0.00,30.02,M,M,M,M,M,M,M,M,M,M,M,M,M,M,M,M,M,M,89.33,KBVU 021615Z AUTO 00000KT 31/18 A3002 RMK AO2 PWINO TSNO,M
TMT,2022-08-02 16:15,-117.1971,39.4643,1749.34,M,M,M,230.00,5.00,0.00,30.28,M,10.00,M,BKN,M,M,M,10000.00,M,M,M,M,M,M,M,M,M,M,M,KTMT 021615Z AUTO 23005KT 10SM BKN100 A3028 RMK AO2,M
CXP,2022-08-02 16:30,-119.7326,39.1923,1431.00,73.40,53.60,49.90,0.00,0.00,0.00,30.24,M,10.00,M,CLR,M,M,M,M,M,M,M,M,M,M,M,M,M,M,73.40,KCXP 021630Z AUTO 00000KT 10SM CLR 23/12 A3024 RMK AO2,M
05U,2022-08-02 16:35,-116.0051,39.6042,1811.23,M,M,M,M,M,0.00,M,M,M,M,M,M,M,M,M,M,M,M,M,M,M,M,M,M,M,M,K05U 021635Z AUTO RMK A01 PNO,M
HTH,2022-08-02 16:35,-118.6315,38.5448,1282.89,77.00,51.80,41.42,0.00,0.00,0.00,30.20,M,10.00,M,CLR,M,M,M,M,M,M,M,M,M,M,M,M,M,M,77.00,KHTH 021635Z AUTO 00000KT 10SM CLR 25/11 A3020 RMK A01,M
BAM,2022-08-02 16:35,-116.8743,40.5990,1382.36,80.60,50.00,34.41,0.00,0.00,0.00,30.19,M,10.00,M,SCT,M,M,M,11000.00,M,M,M,M,M,M,M,M,M,M,79.88,KBAM 021635Z AUTO 00000KT 10SM SCT110 27/10 A3019 RMK AO1,M
MEV,2022-08-02 16:35,-119.7500,38.9963,1441.42,73.40,55.40,53.29,270.00,4.00,0.00,30.23,M,10.00,M,CLR,M,M,M,M,M,M,M,M,M,M,M,M,M,M,73.40,KMEV 021635Z AUTO 27004KT 10SM CLR 23/13 A3023 RMK AO2,M
BVU,2022-08-02 16:35,-114.8611,35.9475,671.00,89.60,62.60,40.69,0.00,0.00,0.00,30.02,M,M,M,M,M,M,M,M,M,M,M,M,M,M,M,M,M,M,90.32,KBVU 021635Z AUTO 00000KT 32/17 A3002 RMK AO2 PWINO TSNO,M
TMT,2022-08-02 16:35,-117.1971,39.4643,1749.34,M,M,M,230.00,5.00,0.00,30.28,M,10.00,M,OVC,M,M,M,10000.00,M,M,M,M,M,M,M,M,M,M,M,KTMT 021635Z AUTO 23005KT 10SM OVC100 A3028 RMK AO2,M
RTS,2022-08-02 16:35,-119.8764,39.6682,1539.00,75.20,44.60,33.57,0.00,0.00,0.00,30.25,M,10.00,M,CLR,M,M,M,M,M,M,M,M,M,M,M,M,M,M,75.20,KRTS 021635Z AUTO 00000KT 10SM CLR 24/07 A3025 RMK AO2,M
CXP,2022-08-02 16:50,-119.7326,39.1923,1431.00,77.00,53.60,44.25,0.00,0.00,0.00,30.24,M,10.00,M,CLR,M,M,M,M,M,M,M,M,M,M,M,M,M,M,77.00,KCXP 021650Z AUTO 00000KT 10SM CLR 25/12 A3024 RMK AO2,M
LOL,2022-08-02 16:53,-118.5701,40.0684,1192.43,82.00,50.00,32.88,M,5.00,0.00,30.15,1016.30,10.00,M,CLR,M,M,M,M,M,M,M,M,M,M,M,M,M,M,80.73,KLOL 021653Z AUTO VRB05KT 10SM CLR 28/10 A3015 RMK AO2 SLP163 T02780100,M
DRA,2022-08-02 16:53,-116.0278,36.6206,1009.00,88.00,58.00,36.21,230.00,7.00,0.00,30.10,1013.90,10.00,M,CLR,M,M,M,M,M,M,M,M,M,M,M,M,M,M,86.96,KDRA 021653Z AUTO 23007KT 190V270 10SM CLR 31/14 A3010 RMK AO2 SLP139 T03110144,M
VGT,2022-08-02 16:53,-115.1933,36.2111,667.00,94.00,62.00,34.95,360.00,5.00,0.00,30.01,1014.70,10.00,M,CLR,M,M,M,M,M,M,M,M,M,M,M,M,M,M,94.72,KVGT 021653Z 36005KT 10SM CLR 34/17 A3001 RMK AO2 SLP147 T03440167,M
ELY,2022-08-02 16:53,-114.8453,39.2950,1909.00,75.00,52.00,44.59,330.00,5.00,0.00,30.29,1015.70,10.00,M,SCT,BKN,M,M,4700.00,9500.00,M,M,M,M,M,M,M,M,M,75.00,KELY 021653Z AUTO 33005KT 10SM SCT047 BKN095 24/11 A3029 RMK AO2 SLP157 T02390111,M
05U,2022-08-02 16:55,-116.0051,39.6042,1811.23,M,M,M,M,M,0.00,M,M,M,M,M,M,M,M,M,M,M,M,M,M,M,M,M,M,M,M,K05U 021655Z AUTO RMK A01 PNO,M
MEV,2022-08-02 16:55,-119.7500,38.9963,1441.42,75.20,53.60,46.98,310.00,4.00,0.00,30.23,M,10.00,M,CLR,M,M,M,M,M,M,M,M,M,M,M,M,M,M,75.20,KMEV 021655Z AUTO 31004KT 10SM CLR 24/12 A3023 RMK AO2,M
BAM,2022-08-02 16:55,-116.8743,40.5990,1382.36,80.60,50.00,34.41,0.00,0.00,0.00,30.19,M,10.00,M,SCT,M,M,M,12000.00,M,M,M,M,M,M,M,M,M,M,79.88,KBAM 021655Z AUTO 00000KT 10SM SCT120 27/10 A3019 RMK AO1,M
HTH,2022-08-02 16:55,-118.6315,38.5448,1282.89,78.80,51.80,39.02,0.00,0.00,0.00,30.20,M,10.00,M,CLR,M,M,M,M,M,M,M,M,M,M,M,M,M,M,78.80,KHTH 021655Z AUTO 00000KT 10SM CLR 26/11 A3020 RMK A01,M
TMT,2022-08-02 16:55,-117.1971,39.4643,1749.34,M,M,M,170.00,3.00,0.00,30.28,M,10.00,M,BKN,M,M,M,10000.00,M,M,M,M,M,M,M,M,M,M,M,KTMT 021655Z AUTO 17003KT 10SM BKN100 A3028 RMK AO2,M
RTS,2022-08-02 16:55,-119.8764,39.6682,1539.00,77.00,44.60,31.62,0.00,0.00,0.00,30.25,M,10.00,M,CLR,M,M,M,M,M,M,M,M,M,M,M,M,M,M,77.00,KRTS 021655Z AUTO 00000KT 10SM CLR 25/07 A3025 RMK AO2,M
RNO,2022-08-02 16:55,-119.7711,39.4839,1341.00,79.00,49.00,34.81,80.00,3.00,0.00,30.20,1016.80,10.00,M,FEW,M,M,M,8500.00,M,M,M,M,M,M,M,M,M,M,79.00,KRNO 021655Z 08003KT 10SM FEW085 26/09 A3020 RMK AO2 SLP168 T02610094,M
BVU,2022-08-02 16:55,-114.8611,35.9475,671.00,89.60,62.60,40.69,0.00,0.00,0.00,30.02,M,M,M,M,M,M,M,M,M,M,M,M,M,M,M,M,M,M,90.32,KBVU 021655Z AUTO 00000KT 32/17 A3002 RMK AO2 PWINO TSNO,M
LAS,2022-08-02 16:56,-115.1634,36.0719,663.00,91.00,62.00,38.26,0.00,0.00,0.00,30.02,1013.70,10.00,M,FEW,SCT,M,M,10000.00,25000.00,M,M,M,M,M,M,M,M,M,91.56,KLAS 021656Z 00000KT 10SM FEW100 SCT250 33/17 A3002 RMK AO2 SLP137 T03280167,M
NFL,2022-08-02 16:56,-118.7010,39.4166,1199.00,82.00,48.00,30.51,170.00,4.00,0.00,30.16,1017.90,10.00,M,SCT,SCT,M,M,10000.00,15000.00,M,M,M,M,M,M,M,M,M,80.53,KNFL 021656Z 17004KT 10SM SCT100 SCT150 28/09 A3016 RMK AO2 SLP179 T02780089,M
WMC,2022-08-02 16:56,-117.8072,40.9019,1315.00,81.00,52.00,36.58,M,3.00,0.00,30.17,1016.20,10.00,M,CLR,M,M,M,M,M,M,M,M,M,M,M,M,M,M,80.34,KWMC 021656Z AUTO VRB03KT 10SM CLR 27/11 A3017 RMK AO2 SLP162 T02720111,M
HND,2022-08-02 16:56,-115.1344,35.9729,742.79,92.00,63.00,38.39,0.00,0.00,0.00,30.06,1016.20,10.00,M,CLR,M,M,M,M,M,M,M,M,M,M,M,M,M,M,92.97,KHND 021656Z 00000KT 10SM CLR 33/17 A3006 RMK AO2 SLP162 T03330172,M
EKO,2022-08-02 16:56,-115.7860,40.8242,1367.00,78.00,52.00,40.23,210.00,8.00,0.00,30.20,1017.20,10.00,M,CLR,M,M,M,M,M,M,M,M,M,M,M,M,M,M,78.10,KEKO 021656Z AUTO 21008KT 10SM CLR 26/11 A3020 RMK AO2 SLP172 T02560111,M
TPH,2022-08-02 16:56,-117.0904,38.0505,1654.00,73.00,61.00,66.04,0.00,0.00,0.00,30.27,1018.10,10.00,M,CLR,M,M,M,M,M,M,M,M,M,M,M,M,M,M,73.00,KTPH 021656Z AUTO 00000KT 10SM CLR 23/16 A3027 RMK AO2 SLP181 T02280161,M
INS,2022-08-02 16:58,-115.6733,36.5872,955.00,85.80,60.00,42.01,0.00,0.00,0.00,30.09,1014.00,10.00,M,CLR,M,M,M,M,M,M,M,M,M,M,M,M,M,M,85.63,KINS 021658Z AUTO 00000KT 10SM CLR 30/16 A3009 RMK AO2 SLP140 T02990156,M
LSV,2022-08-02 16:58,-115.0343,36.2362,570.00,99.70,65.30,32.74,0.00,0.00,0.00,29.99,M,10.00,M,CLR,M,M,M,M,M,M,M,M,M,M,M,M,M,M,103.45,KLSV 021658Z AUTO 00000KT 10SM CLR 38/19 A2999 RMK AO2 SLPNO T03760185 $,M
CXP,2022-08-02 17:10,-119.7326,39.1923,1431.00,78.80,51.80,39.02,110.00,3.00,0.00,30.24,M,10.00,M,CLR,M,M,M,M,M,M,M,M,M,M,M,M,M,M,78.80,KCXP 021710Z AUTO 11003KT 10SM CLR 26/11 A3024 RMK AO2,M
BVU,2022-08-02 17:15,-114.8611,35.9475,671.00,91.40,62.60,38.45,0.00,0.00,0.00,30.02,M,M,M,M,M,M,M,M,M,M,M,M,M,M,M,M,M,M,92.23,KBVU 021715Z AUTO 00000KT 33/17 A3002 RMK AO2 PWINO TSNO,M
RTS,2022-08-02 17:15,-119.8764,39.6682,1539.00,78.80,42.80,27.81,M,3.00,0.00,30.25,M,10.00,M,CLR,M,M,M,M,M,M,M,M,M,M,M,M,M,M,78.80,KRTS 021715Z AUTO VRB03KT 10SM CLR 26/06 A3025 RMK AO2,M
05U,2022-08-02 17:15,-116.0051,39.6042,1811.23,M,M,M,M,M,0.00,M,M,M,M,M,M,M,M,M,M,M,M,M,M,M,M,M,M,M,M,K05U 021715Z AUTO RMK A01 PNO,M
MEV,2022-08-02 17:15,-119.7500,38.9963,1441.42,78.80,53.60,41.69,0.00,0.00,0.00,30.22,M,10.00,M,CLR,M,M,M,M,M,M,M,M,M,M,M,M,M,M,78.80,KMEV 021715Z AUTO 00000KT 10SM CLR 26/12 A3022 RMK AO2,M
BAM,2022-08-02 17:15,-116.8743,40.5990,1382.36,82.40,50.00,32.46,80.00,4.00,0.00,30.19,M,10.00,M,SCT,M,M,M,12000.00,M,M,M,M,M,M,M,M,M,M,80.99,KBAM 021715Z AUTO 08004KT 10SM SCT120 28/10 A3019 RMK AO1,M
HTH,2022-08-02 17:15,-118.6315,38.5448,1282.89,80.60,51.80,36.79,0.00,0.00,0.00,30.20,M,10.00,M,CLR,M,M,M,M,M,M,M,M,M,M,M,M,M,M,80.08,KHTH 021715Z AUTO 00000KT 10SM CLR 27/11 A3020 RMK A01,M
TMT,2022-08-02 17:15,-117.1971,39.4643,1749.34,M,M,M,150.00,3.00,0.00,30.28,M,10.00,M,SCT,M,M,M,11000.00,M,M,M,M,M,M,M,M,M,M,M,KTMT 021715Z AUTO 15003KT 10SM SCT110 A3028 RMK AO2,M
CXP,2022-08-02 17:30,-119.7326,39.1923,1431.00,80.60,51.80,36.79,0.00,0.00,0.00,30.23,M,10.00,M,CLR,M,M,M,M,M,M,M,M,M,M,M,M,M,M,80.08,KCXP 021730Z AUTO 00000KT 10SM CLR 27/11 A3023 RMK AO2,M
BVU,2022-08-02 17:35,-114.8611,35.9475,671.00,91.40,60.80,36.08,0.00,0.00,0.00,30.02,M,M,M,M,M,M,M,M,M,M,M,M,M,M,M,M,M,M,91.40,KBVU 021735Z AUTO 00000KT 33/16 A3002 RMK AO2 PWINO TSNO,M
TMT,2022-08-02 17:35,-117.1971,39.4643,1749.34,M,M,M,200.00,8.00,0.00,30.28,M,10.00,M,SCT,M,M,M,11000.00,M,M,M,M,M,M,M,M,M,M,M,KTMT 021735Z AUTO 20008KT 10SM SCT110 A3028 RMK AO2,M
BAM,2022-08-02 17:35,-116.8743,40.5990,1382.36,82.40,51.80,34.69,340.00,4.00,0.00,30.19,M,10.00,M,BKN,M,M,M,12000.00,M,M,M,M,M,M,M,M,M,M,81.20,KBAM 021735Z AUTO 34004KT 10SM BKN120 28/11 A3019 RMK AO1,M
HTH,2022-08-02 17:35,-118.6315,38.5448,1282.89,80.60,51.80,36.79,0.00,0.00,0.00,30.20,M,10.00,M,CLR,M,M,M,M,M,M,M,M,M,M,M,M,M,M,80.08,KHTH 021735Z AUTO 00000KT 10SM CLR 27/11 A3020 RMK A01,M
RTS,2022-08-02 17:35,-119.8764,39.6682,1539.00,78.80,44.60,29.79,M,4.00,0.00,30.25,M,10.00,M,CLR,M,M,M,M,M,M,M,M,M,M,M,M,M,M,78.80,KRTS 021735Z AUTO VRB04KT 10SM CLR 26/07 A3025 RMK AO2,M
05U,2022-08-02 17:35,-116.0051,39.6042,1811.23,M,M,M,M,M,0.00,M,M,M,M,M,M,M,M,M,M,M,M,M,M,M,M,M,M,M,M,K05U 021735Z AUTO RMK A01 PNO,M
MEV,2022-08-02 17:35,-119.7500,38.9963,1441.42,80.60,51.80,36.79,0.00,0.00,0.00,30.22,M,10.00,M,CLR,M,M,M,M,M,M,M,M,M,M,M,M,M,M,80.08,KMEV 021735Z AUTO 00000KT 10SM CLR 27/11 A3022 RMK AO2,M
CXP,2022-08-02 17:50,-119.7326,39.1923,1431.00,82.40,50.00,32.46,M,4.00,0.00,30.23,M,10.00,M,CLR,M,M,M,M,M,M,M,M,M,M,M,M,M,M,80.99,KCXP 021750Z AUTO VRB04KT 10SM CLR 28/10 A3023 RMK AO2,M
LOL,2022-08-02 17:53,-118.5701,40.0684,1192.43,84.00,50.00,30.82,0.00,0.00,0.00,30.14,1016.00,10.00,M,CLR,M,M,M,M,M,M,M,M,M,M,M,M,M,M,82.09,KLOL 021753Z AUTO 00000KT 10SM CLR 29/10 A3014 RMK AO2 SLP160 T02890100 10294 20172 58002,M
ELY,2022-08-02 17:53,-114.8453,39.2950,1909.00,76.00,52.00,43.28,0.00,0.00,0.00,30.29,1015.70,10.00,M,SCT,BKN,M,M,7500.00,9500.00,M,M,M,M,M,M,M,M,M,75.90,KELY 021753Z AUTO 00000KT 10SM SCT075 BKN095 24/11 A3029 RMK AO2 SLP157 T02440111 10256 20117 53002,M
VGT,2022-08-02 17:53,-115.1933,36.2111,667.00,96.00,61.00,31.41,30.00,7.00,0.00,30.00,1014.40,10.00,M,CLR,M,M,M,M,M,M,M,M,M,M,M,M,M,M,96.64,KVGT 021753Z 03007KT 10SM CLR 36/16 A3000 RMK AO2 LTG DSNT W SLP144 T03560161 10356 20283 58001,M
DRA,2022-08-02 17:53,-116.0278,36.6206,1009.00,91.00,58.00,32.94,240.00,8.00,0.00,30.09,1013.40,10.00,M,CLR,M,M,M,M,M,M,M,M,M,M,M,M,M,M,89.88,KDRA 021753Z AUTO 24008KT 10SM CLR 33/14 A3009 RMK AO2 SLP134 T03280144 10328 20222 58001,M
RNO,2022-08-02 17:55,-119.7711,39.4839,1341.00,82.00,49.00,31.56,110.00,3.00,0.00,30.19,1016.30,10.00,M,FEW,M,M,M,9000.00,M,M,M,M,M,M,M,M,M,M,80.61,KRNO 021755Z 11003KT 10SM FEW090 28/09 A3019 RMK AO2 SLP163 T02780094 10283 20178 58007,M
RTS,2022-08-02 17:55,-119.8764,39.6682,1539.00,80.60,44.60,28.08,280.00,7.00,0.00,30.24,M,10.00,M,CLR,M,M,M,M,M,M,M,M,M,M,M,M,M,M,79.42,KRTS 021755Z AUTO 28007KT 10SM CLR 27/07 A3024 RMK AO2,M
TMT,2022-08-02 17:55,-117.1971,39.4643,1749.34,M,M,M,240.00,5.00,0.00,30.28,M,10.00,M,SCT,M,M,M,11000.00,M,M,M,M,M,M,M,M,M,M,M,KTMT 021755Z AUTO 24005KT 10SM SCT110 A3028 RMK AO2,M
HTH,2022-08-02 17:55,-118.6315,38.5448,1282.89,80.60,51.80,36.79,0.00,0.00,0.00,30.20,M,10.00,M,CLR,M,M,M,M,M,M,M,M,M,M,M,M,M,M,80.08,KHTH 021755Z AUTO 00000KT 10SM CLR 27/11 A3020 RMK A01,M
BAM,2022-08-02 17:55,-116.8743,40.5990,1382.36,82.40,51.80,34.69,10.00,5.00,0.00,30.19,M,7.00,M,BKN,M,M,M,11000.00,M,M,M,M,M,M,M,M,M,M,81.20,KBAM 021755Z AUTO 01005KT 7SM BKN110 28/11 A3019 RMK AO1,M
MEV,2022-08-02 17:55,-119.7500,38.9963,1441.42,80.60,51.80,36.79,M,4.00,0.00,30.22,M,10.00,M,CLR,M,M,M,M,M,M,M,M,M,M,M,M,M,M,80.08,KMEV 021755Z AUTO VRB04KT 10SM CLR 27/11 A3022 RMK AO2,M
05U,2022-08-02 17:55,-116.0051,39.6042,1811.23,M,M,M,M,M,0.00,M,M,M,M,M,M,M,M,M,M,M,M,M,M,M,M,M,M,M,M,K05U 021755Z AUTO RMK A01 PNO,M
BVU,2022-08-02 17:55,-114.8611,35.9475,671.00,95.00,60.80,32.27,0.00,0.00,0.00,30.01,M,M,M,M,M,M,M,M,M,M,M,M,M,M,M,M,M,M,95.30,KBVU 021755Z AUTO 00000KT 35/16 A3001 RMK AO2 PWINO TSNO,M
TPH,2022-08-02 17:56,-117.0904,38.0505,1654.00,76.00,59.00,55.80,0.00,0.00,0.00,30.27,1017.70,10.00,M,CLR,M,M,M,M,M,M,M,M,M,M,M,M,M,M,75.90,KTPH 021756Z AUTO 00000KT 10SM CLR 24/15 A3027 RMK AO2 SLP177 T02440150 10250 20156 50000,M
NFL,2022-08-02 17:56,-118.7010,39.4166,1199.00,85.00,46.00,25.77,270.00,5.00,0.00,30.16,1017.80,10.00,M,FEW,FEW,SCT,M,8000.00,10000.00,20000.00,M,M,M,M,M,M,M,M,82.35,KNFL 021756Z 27005KT 10SM FEW080 FEW100 SCT200 29/08 A3016 RMK AO2 SLP178 T02940078 10294 20178 58001,M
HND,2022-08-02 17:56,-115.1344,35.9729,742.79,95.00,60.00,31.47,240.00,4.00,0.00,30.05,1015.70,10.00,M,CLR,M,M,M,M,M,M,M,M,M,M,M,M,M,M,94.98,KHND 021756Z 24004KT 10SM CLR 35/16 A3005 RMK AO2 SLP157 T03500156 10350 20250 58001,M
EKO,2022-08-02 17:56,-115.7860,40.8242,1367.00,82.00,51.00,34.25,230.00,9.00,0.00,30.20,1016.70,10.00,M,CLR,M,M,M,M,M,M,M,M,M,M,M,M,M,M,80.85,KEKO 021756Z AUTO 23009KT 150V320 10SM CLR 28/11 A3020 RMK AO2 SLP167 T02780106 10283 20156 58002,M
WMC,2022-08-02 17:56,-117.8072,40.9019,1315.00,82.00,51.00,34.25,90.00,3.00,0.00,30.17,1016.20,10.00,M,BKN,M,M,M,11000.00,M,M,M,M,M,M,M,M,M,M,80.85,KWMC 021756Z AUTO 09003KT 10SM BKN110 28/11 A3017 RMK AO2 SLP162 T02780106 10278 20211 50002,M
LAS,2022-08-02 17:56,-115.1634,36.0719,663.00,93.00,61.00,34.57,M,5.00,0.00,30.01,1013.20,10.00,M,FEW,SCT,M,M,10000.00,25000.00,M,M,M,M,M,M,M,M,M,93.20,KLAS 021756Z VRB05KT 10SM FEW100 SCT250 34/16 A3001 RMK AO2 LTG DSNT NW SLP132 CB DSNT NW T03390161 10344 20272 58000,M
INS,2022-08-02 17:58,-115.6733,36.5872,955.00,86.20,60.30,41.77,0.00,0.00,0.00,30.08,1013.70,10.00,M,CLR,M,M,M,M,M,M,M,M,M,M,M,M,M,M,86.06,KINS 021758Z AUTO 00000KT 10SM CLR 30/16 A3008 RMK AO2 SLP137 T03010157 10305 20222 58003,M
LSV,2022-08-02 17:58,-115.0343,36.2362,570.00,102.70,63.30,27.90,0.00,0.00,0.00,29.98,M,10.00,M,CLR,M,M,M,M,M,M,M,M,M,M,M,M,M,M,105.68,KLSV 021758Z AUTO 00000KT 10SM CLR 39/17 A2998 RMK AO2 SLPNO T03930174 10393 20262 58002 $,M
CXP,2022-08-02 18:10,-119.7326,39.1923,1431.00,82.40,50.00,32.46,0.00,0.00,0.00,30.23,M,10.00,M,CLR,M,M,M,M,M,M,M,M,M,M,M,M,M,M,80.99,KCXP 021810Z AUTO 00000KT 10SM CLR 28/10 A3023 RMK AO2,M
BVU,2022-08-02 18:15,-114.8611,35.9475,671.00,95.00,60.80,32.27,140.00,6.00,0.00,30.00,M,M,M,M,M,M,M,M,M,M,M,M,M,M,M,M,M,M,95.30,KBVU 021815Z AUTO 14006KT 35/16 A3000 RMK AO2 PWINO TSNO,M
TMT,2022-08-02 18:15,-117.1971,39.4643,1749.34,M,M,M,120.00,5.00,0.00,30.28,M,10.00,M,CLR,M,M,M,M,M,M,M,M,M,M,M,M,M,M,M,KTMT 021815Z AUTO 12005KT 10SM CLR A3028 RMK AO2,M
HTH,2022-08-02 18:15,-118.6315,38.5448,1282.89,82.40,51.80,34.69,340.00,6.00,0.00,30.20,M,10.00,M,CLR,M,M,M,M,M,M,M,M,M,M,M,M,M,M,81.20,KHTH 021815Z AUTO 34006KT 10SM CLR 28/11 A3020 RMK A01,M
BAM,2022-08-02 18:15,-116.8743,40.5990,1382.36,82.40,51.80,34.69,320.00,6.00,0.00,30.19,M,7.00,M,BKN,M,M,M,11000.00,M,M,M,M,M,M,M,M,M,M,81.20,KBAM 021815Z AUTO 32006KT 7SM BKN110 28/11 A3019 RMK AO1,M
MEV,2022-08-02 18:15,-119.7500,38.9963,1441.42,82.40,50.00,32.46,310.00,5.00,0.00,30.22,M,10.00,M,CLR,M,M,M,M,M,M,M,M,M,M,M,M,M,M,80.99,KMEV 021815Z AUTO 31005KT 10SM CLR 28/10 A3022 RMK AO2,M
05U,2022-08-02 18:15,-116.0051,39.6042,1811.23,M,M,M,M,M,0.00,M,M,M,M,M,M,M,M,M,M,M,M,M,M,M,M,M,M,M,M,K05U 021815Z AUTO RMK A01 PNO,M
RTS,2022-08-02 18:15,-119.8764,39.6682,1539.00,80.60,44.60,28.08,M,5.00,0.00,30.24,M,10.00,12.00,CLR,M,M,M,M,M,M,M,M,M,M,M,M,M,M,79.42,KRTS 021815Z AUTO VRB05G12KT 10SM CLR 27/07 A3024 RMK AO2,M
CXP,2022-08-02 18:30,-119.7326,39.1923,1431.00,84.20,50.00,30.62,0.00,0.00,0.00,30.22,M,10.00,M,CLR,M,M,M,M,M,M,M,M,M,M,M,M,M,M,82.24,KCXP 021830Z AUTO 00000KT 10SM CLR 29/10 A3022 RMK AO2,M
05U,2022-08-02 18:35,-116.0051,39.6042,1811.23,M,M,M,M,M,0.00,M,M,M,M,M,M,M,M,M,M,M,M,M,M,M,M,M,M,M,M,K05U 021835Z AUTO RMK A01 PNO,M
MEV,2022-08-02 18:35,-119.7500,38.9963,1441.42,84.20,50.00,30.62,0.00,0.00,0.00,30.21,M,10.00,M,CLR,M,M,M,M,M,M,M,M,M,M,M,M,M,M,82.24,KMEV 021835Z AUTO 00000KT 10SM CLR 29/10 A3021 RMK AO2,M
BAM,2022-08-02 18:35,-116.8743,40.5990,1382.36,82.40,51.80,34.69,0.00,0.00,0.00,30.19,M,10.00,M,OVC,M,M,M,11000.00,M,M,M,M,M,M,M,M,M,M,81.20,KBAM 021835Z AUTO 00000KT 10SM OVC110 28/11 A3019 RMK AO1,M
RTS,2022-08-02 18:35,-119.8764,39.6682,1539.00,82.40,44.60,26.49,310.00,8.00,0.00,30.24,M,10.00,14.00,CLR,M,M,M,M,M,M,M,M,M,M,M,M,M,M,80.50,KRTS 021835Z AUTO 31008G14KT 10SM CLR 28/07 A3024 RMK AO2,M
HTH,2022-08-02 18:35,-118.6315,38.5448,1282.89,84.20,51.80,32.73,M,5.00,0.00,30.19,M,10.00,M,CLR,M,M,M,M,M,M,M,M,M,M,M,M,M,M,82.48,KHTH 021835Z AUTO VRB05KT 10SM CLR 29/11 A3019 RMK A01,M
TMT,2022-08-02 18:35,-117.1971,39.4643,1749.34,M,M,M,290.00,5.00,0.00,30.27,M,10.00,M,CLR,M,M,M,M,M,M,M,M,M,M,M,M,M,M,M,KTMT 021835Z AUTO 29005KT 10SM CLR A3027 RMK AO2,M
BVU,2022-08-02 18:35,-114.8611,35.9475,671.00,95.00,59.00,30.26,M,6.00,0.00,30.00,M,M,11.00,M,M,M,M,M,M,M,M,M,M,M,M,M,M,M,94.51,KBVU 021835Z AUTO VRB06G11KT 35/15 A3000 RMK AO2 PWINO TSNO,M
CXP,2022-08-02 18:50,-119.7326,39.1923,1431.00,84.20,48.20,28.63,M,5.00,0.00,30.22,M,10.00,M,CLR,M,M,M,M,M,M,M,M,M,M,M,M,M,M,82.04,KCXP 021850Z AUTO VRB05KT 10SM CLR 29/09 A3022 RMK AO2,M
DRA,2022-08-02 18:53,-116.0278,36.6206,1009.00,93.00,57.00,29.96,240.00,9.00,0.00,30.08,1013.10,10.00,M,CLR,M,M,M,M,M,M,M,M,M,M,M,M,M,M,91.64,KDRA 021853Z AUTO 24009KT 10SM CLR 34/14 A3008 RMK AO2 SLP131 T03390139,M
VGT,2022-08-02 18:53,-115.1933,36.2111,667.00,97.00,61.00,30.56,130.00,8.00,0.00,29.98,1013.90,10.00,M,CLR,M,M,M,M,M,M,M,M,M,M,M,M,M,M,97.66,KVGT 021853Z 13008KT 10SM CLR 36/16 A2998 RMK AO2 SLP139 T03610161,M
LOL,2022-08-02 18:53,-118.5701,40.0684,1192.43,87.00,49.00,26.79,110.00,4.00,0.00,30.14,1015.70,10.00,M,CLR,M,M,M,M,M,M,M,M,M,M,M,M,M,M,84.37,KLOL 021853Z AUTO 11004KT 10SM CLR 31/09 A3014 RMK AO2 SLP157 T03060094,M
ELY,2022-08-02 18:53,-114.8453,39.2950,1909.00,77.00,51.00,40.36,330.00,7.00,0.00,30.28,1015.10,10.00,M,SCT,OVC,M,M,9000.00,11000.00,M,M,M,M,M,M,M,M,M,77.00,KELY 021853Z AUTO 33007KT 10SM SCT090 OVC110 25/11 A3028 RMK AO2 SLP151 T02500106,M
TMT,2022-08-02 18:55,-117.1971,39.4643,1749.34,M,M,M,350.00,5.00,0.00,30.27,M,10.00,M,CLR,M,M,M,M,M,M,M,M,M,M,M,M,M,M,M,KTMT 021855Z AUTO 35005KT 10SM CLR A3027 RMK AO2,M
05U,2022-08-02 18:55,-116.0051,39.6042,1811.23,M,M,M,M,M,0.00,M,M,M,M,M,M,M,M,M,M,M,M,M,M,M,M,M,M,M,M,K05U 021855Z AUTO RMK A01 PNO,M
MEV,2022-08-02 18:55,-119.7500,38.9963,1441.42,84.20,50.00,30.62,330.00,4.00,0.00,30.21,M,10.00,M,CLR,M,M,M,M,M,M,M,M,M,M,M,M,M,M,82.24,KMEV 021855Z AUTO 33004KT 10SM CLR 29/10 A3021 RMK AO2,M
BAM,2022-08-02 18:55,-116.8743,40.5990,1382.36,86.00,50.00,28.90,210.00,6.00,0.00,30.19,M,10.00,M,BKN,M,M,M,11000.00,M,M,M,M,M,M,M,M,M,M,83.62,KBAM 021855Z AUTO 21006KT 10SM BKN110 30/10 A3019 RMK AO1,M
HTH,2022-08-02 18:55,-118.6315,38.5448,1282.89,84.20,48.20,28.63,360.00,8.00,0.00,30.18,M,10.00,M,CLR,M,M,M,M,M,M,M,M,M,M,M,M,M,M,82.04,KHTH 021855Z AUTO 36008KT 330V040 10SM CLR 29/09 A3018 RMK A01,M
BVU,2022-08-02 18:55,-114.8611,35.9475,671.00,96.80,59.00,28.63,0.00,0.00,0.00,29.99,M,M,M,M,M,M,M,M,M,M,M,M,M,M,M,M,M,M,96.50,KBVU 021855Z AUTO 00000KT 36/15 A2999 RMK AO2 PWINO TSNO,M
RNO,2022-08-02 18:55,-119.7711,39.4839,1341.00,87.00,50.00,27.91,170.00,8.00,0.00,30.18,1015.70,10.00,M,FEW,FEW,M,M,9500.00,20000.00,M,M,M,M,M,M,M,M,M,84.51,KRNO 021855Z 17008KT 10SM FEW095 FEW200 31/10 A3018 RMK AO2 SLP157 T03060100,M
RTS,2022-08-02 18:55,-119.8764,39.6682,1539.00,82.40,44.60,26.49,330.00,8.00,0.00,30.24,M,10.00,M,CLR,M,M,M,M,M,M,M,M,M,M,M,M,M,M,80.50,KRTS 021855Z AUTO 33008KT 10SM CLR 28/07 A3024 RMK AO2,M
HND,2022-08-02 18:56,-115.1344,35.9729,742.79,96.00,59.00,29.25,M,5.00,0.00,30.03,1015.10,10.00,M,CLR,M,M,M,M,M,M,M,M,M,M,M,M,M,M,95.72,KHND 021856Z VRB05KT 10SM CLR 36/15 A3003 RMK AO2 SLP151 T03560150,M
LAS,2022-08-02 18:56,-115.1634,36.0719,663.00,97.00,58.00,27.36,50.00,5.00,0.00,29.99,1012.50,10.00,M,FEW,SCT,M,M,10000.00,25000.00,M,M,M,M,M,M,M,M,M,96.26,KLAS 021856Z 05005KT 10SM FEW100 SCT250 36/14 A2999 RMK AO2 SLP125 CB DSNT NW T03610144,M
EKO,2022-08-02 18:56,-115.7860,40.8242,1367.00,85.00,49.00,28.74,M,M,0.00,30.19,1015.90,9.00,M,CLR,M,M,M,M,M,M,M,M,M,M,M,M,M,M,82.63,KEKO 021856Z AUTO 9SM CLR 29/09 A3019 RMK AO2 SLP159 T02940094,M
TPH,2022-08-02 18:56,-117.0904,38.0505,1654.00,81.00,55.00,40.83,310.00,10.00,0.00,30.25,1016.80,10.00,17.00,CLR,M,M,M,M,M,M,M,M,M,M,M,M,M,M,80.73,KTPH 021856Z AUTO 31010G17KT 260V330 10SM CLR 27/13 A3025 RMK AO2 SLP168 T02720128,M
WMC,2022-08-02 18:56,-117.8072,40.9019,1315.00,86.00,52.00,31.13,110.00,7.00,0.00,30.16,1015.50,10.00,M,CLR,M,M,M,M,M,M,M,M,M,M,M,M,M,M,83.91,KWMC 021856Z AUTO 11007KT 10SM CLR 30/11 A3016 RMK AO2 SLP155 T03000111,M
NFL,2022-08-02 18:56,-118.7010,39.4166,1199.00,88.00,47.00,24.15,280.00,10.00,0.00,30.15,1017.40,10.00,14.00,SCT,SCT,SCT,M,8000.00,10000.00,17000.00,M,M,M,M,M,M,M,M,84.90,KNFL 021856Z 28010G14KT 250V310 10SM SCT080 SCT100 SCT170 31/08 A3015 RMK AO2 SLP174 T03110083,M
INS,2022-08-02 18:58,-115.6733,36.5872,955.00,87.60,59.50,38.83,130.00,4.00,0.00,30.07,1013.30,10.00,M,BKN,M,M,M,15000.00,M,M,M,M,M,M,M,M,M,M,87.10,KINS 021858Z AUTO 13004KT 10SM BKN150 31/15 A3007 RMK AO2 SLP133 T03090153,M
LSV,2022-08-02 18:58,-115.0343,36.2362,570.00,103.50,61.70,25.75,0.00,0.00,0.00,29.96,M,10.00,M,CLR,M,M,M,M,M,M,M,M,M,M,M,M,M,M,105.61,KLSV 021858Z AUTO 00000KT 10SM CLR 40/17 A2996 RMK AO2 SLPNO T03970165 $,M
CXP,2022-08-02 19:10,-119.7326,39.1923,1431.00,87.80,48.20,25.52,M,5.00,0.00,30.21,M,10.00,12.00,CLR,M,M,M,M,M,M,M,M,M,M,M,M,M,M,84.87,KCXP 021910Z AUTO VRB05G12KT 10SM CLR 31/09 A3021 RMK AO2,M
RTS,2022-08-02 19:15,-119.8764,39.6682,1539.00,84.20,44.60,24.99,M,3.00,0.00,30.24,M,10.00,12.00,CLR,M,M,M,M,M,M,M,M,M,M,M,M,M,M,81.73,KRTS 021915Z AUTO VRB03G12KT 10SM CLR 29/07 A3024 RMK AO2,M
TMT,2022-08-02 19:15,-117.1971,39.4643,1749.34,M,M,M,160.00,5.00,0.00,30.26,M,10.00,M,SCT,M,M,M,11000.00,M,M,M,M,M,M,M,M,M,M,M,KTMT 021915Z AUTO 16005KT 10SM SCT110 A3026 RMK AO2,M
HTH,2022-08-02 19:15,-118.6315,38.5448,1282.89,86.00,48.20,27.03,10.00,7.00,0.00,30.18,M,10.00,M,CLR,M,M,M,M,M,M,M,M,M,M,M,M,M,M,83.40,KHTH 021915Z AUTO 01007KT 10SM CLR 30/09 A3018 RMK A01,M
BAM,2022-08-02 19:15,-116.8743,40.5990,1382.36,87.80,50.00,27.29,240.00,6.00,0.00,30.18,M,10.00,M,OVC,M,M,M,12000.00,M,M,M,M,M,M,M,M,M,M,85.11,KBAM 021915Z AUTO 24006KT 10SM OVC120 31/10 A3018 RMK AO1,M
MEV,2022-08-02 19:15,-119.7500,38.9963,1441.42,84.20,50.00,30.62,M,5.00,0.00,30.20,M,10.00,11.00,CLR,M,M,M,M,M,M,M,M,M,M,M,M,M,M,82.24,KMEV 021915Z AUTO VRB05G11KT 10SM CLR 29/10 A3020 RMK AO2,M
BVU,2022-08-02 19:15,-114.8611,35.9475,671.00,96.80,59.00,28.63,210.00,7.00,0.00,29.98,M,M,12.00,M,M,M,M,M,M,M,M,M,M,M,M,M,M,M,96.50,KBVU 021915Z AUTO 21007G12KT 180V240 36/15 A2998 RMK AO2 PWINO TSNO,M
05U,2022-08-02 19:15,-116.0051,39.6042,1811.23,M,M,M,M,M,0.00,M,M,M,M,M,M,M,M,M,M,M,M,M,M,M,M,M,M,M,M,K05U 021915Z AUTO RMK A01 PNO,M
CXP,2022-08-02 19:30,-119.7326,39.1923,1431.00,87.80,48.20,25.52,220.00,7.00,0.00,30.21,M,10.00,M,CLR,M,M,M,M,M,M,M,M,M,M,M,M,M,M,84.87,KCXP 021930Z AUTO 22007KT 180V250 10SM CLR 31/09 A3021 RMK AO2,M
BVU,2022-08-02 19:35,-114.8611,35.9475,671.00,96.80,59.00,28.63,M,4.00,0.00,29.98,M,M,10.00,M,M,M,M,M,M,M,M,M,M,M,M,M,M,M,96.50,KBVU 021935Z AUTO VRB04G10KT 36/15 A2998 RMK AO2 PWINO TSNO,M
05U,2022-08-02 19:35,-116.0051,39.6042,1811.23,M,M,M,M,M,0.00,M,M,M,M,M,M,M,M,M,M,M,M,M,M,M,M,M,M,M,M,K05U 021935Z AUTO RMK A01 PNO,M
RTS,2022-08-02 19:35,-119.8764,39.6682,1539.00,84.20,44.60,24.99,M,3.00,0.00,30.23,M,10.00,10.00,FEW,M,M,M,8500.00,M,M,M,M,M,M,M,M,M,M,81.73,KRTS 021935Z AUTO VRB03G10KT 10SM FEW085 29/07 A3023 RMK AO2,M
MEV,2022-08-02 19:35,-119.7500,38.9963,1441.42,86.00,50.00,28.90,M,4.00,0.00,30.19,M,10.00,11.00,CLR,M,M,M,M,M,M,M,M,M,M,M,M,M,M,83.62,KMEV 021935Z AUTO VRB04G11KT 10SM CLR 30/10 A3019 RMK AO2,M
BAM,2022-08-02 19:35,-116.8743,40.5990,1382.36,89.60,50.00,25.79,270.00,4.00,0.00,30.17,M,10.00,M,BKN,M,M,M,12000.00,M,M,M,M,M,M,M,M,M,M,86.70,KBAM 021935Z AUTO 27004KT 10SM BKN120 32/10 A3017 RMK AO1,M
HTH,2022-08-02 19:35,-118.6315,38.5448,1282.89,86.00,46.40,25.26,330.00,9.00,0.00,30.17,M,10.00,M,CLR,M,M,M,M,M,M,M,M,M,M,M,M,M,M,83.22,KHTH 021935Z AUTO 33009KT 10SM CLR 30/08 A3017 RMK A01,M
TMT,2022-08-02 19:35,-117.1971,39.4643,1749.34,M,M,M,160.00,4.00,0.00,30.25,M,10.00,M,CLR,M,M,M,M,M,M,M,M,M,M,M,M,M,M,M,KTMT 021935Z AUTO 16004KT 10SM CLR A3025 RMK AO2,M
CXP,2022-08-02 19:50,-119.7326,39.1923,1431.00,86.00,48.20,27.03,M,6.00,0.00,30.20,M,10.00,12.00,FEW,M,M,M,8000.00,M,M,M,M,M,M,M,M,M,M,83.40,KCXP 021950Z AUTO VRB06G12KT 10SM FEW080 30/09 A3020 RMK AO2,M
DRA,2022-08-02 19:53,-116.0278,36.6206,1009.00,94.00,56.00,28.00,250.00,9.00,0.00,30.06,1012.40,10.00,15.00,CLR,M,M,M,M,M,M,M,M,M,M,M,M,M,M,92.22,KDRA 021953Z AUTO 25009G15KT 10SM CLR 34/13 A3006 RMK AO2 SLP124 T03440133,M
ELY,2022-08-02 19:53,-114.8453,39.2950,1909.00,82.00,50.00,32.88,340.00,9.00,0.00,30.26,1014.10,10.00,M,CLR,M,M,M,M,M,M,M,M,M,M,M,M,M,M,80.73,KELY 021953Z AUTO 34009KT 10SM CLR 28/10 A3026 RMK AO2 SLP141 T02780100,M
VGT,2022-08-02 19:53,-115.1933,36.2111,667.00,99.00,60.00,27.85,200.00,7.00,0.00,29.96,1013.10,10.00,M,CLR,M,M,M,M,M,M,M,M,M,M,M,M,M,M,99.50,KVGT 021953Z 20007KT 10SM CLR 37/16 A2996 RMK AO2 LTG DSNT N SLP131 T03720156,M
LOL,2022-08-02 19:53,-118.5701,40.0684,1192.43,91.00,47.00,21.97,M,5.00,0.00,30.12,1015.00,10.00,M,CLR,M,M,M,M,M,M,M,M,M,M,M,M,M,M,87.55,KLOL 021953Z AUTO VRB05KT 10SM CLR 33/08 A3012 RMK AO2 SLP150 T03280083,M
HTH,2022-08-02 19:55,-118.6315,38.5448,1282.89,87.80,48.20,25.52,M,4.00,0.00,30.16,M,10.00,11.00,CLR,M,M,M,M,M,M,M,M,M,M,M,M,M,M,84.87,KHTH 021955Z AUTO VRB04G11KT 10SM CLR 31/09 A3016 RMK A01,M
RNO,2022-08-02 19:55,-119.7711,39.4839,1341.00,90.00,50.00,25.46,0.00,0.00,0.00,30.16,1014.90,10.00,M,SCT,SCT,M,M,10000.00,24000.00,M,M,M,M,M,M,M,M,M,87.06,KRNO 021955Z 00000KT 10SM SCT100TCU SCT240 32/10 A3016 RMK AO2 SLP149 TCU W AND NW T03220100,M
TMT,2022-08-02 19:55,-117.1971,39.4643,1749.34,M,M,M,70.00,4.00,0.00,30.25,M,10.00,M,SCT,SCT,M,M,8000.00,12000.00,M,M,M,M,M,M,M,M,M,M,KTMT 021955Z AUTO 07004KT 10SM SCT080 SCT120 A3025 RMK AO2,M
BVU,2022-08-02 19:55,-114.8611,35.9475,671.00,96.80,59.00,28.63,270.00,4.00,0.00,29.97,M,M,10.00,M,M,M,M,M,M,M,M,M,M,M,M,M,M,M,96.50,KBVU 021955Z AUTO 27004G10KT 36/15 A2997 RMK AO2 PWINO TSNO,M
RTS,2022-08-02 19:55,-119.8764,39.6682,1539.00,84.20,44.60,24.99,290.00,9.00,0.00,30.23,M,10.00,M,SCT,M,M,M,8000.00,M,M,M,M,M,M,M,M,M,M,81.73,KRTS 021955Z AUTO 29009KT 10SM SCT080 29/07 A3023 RMK AO2,M
MEV,2022-08-02 19:55,-119.7500,38.9963,1441.42,86.00,50.00,28.90,M,4.00,0.00,30.19,M,10.00,M,CLR,M,M,M,M,M,M,M,M,M,M,M,M,M,M,83.62,KMEV 021955Z AUTO VRB04KT 10SM CLR 30/10 A3019 RMK AO2,M
05U,2022-08-02 19:55,-116.0051,39.6042,1811.23,M,M,M,M,M,0.00,M,M,M,M,M,M,M,M,M,M,M,M,M,M,M,M,M,M,M,M,K05U 021955Z AUTO RMK A01 PNO,M
BAM,2022-08-02 19:55,-116.8743,40.5990,1382.36,87.80,50.00,27.29,170.00,6.00,0.00,30.17,M,10.00,M,SCT,M,M,M,11000.00,M,M,M,M,M,M,M,M,M,M,85.11,KBAM 021955Z AUTO 17006KT 160V240 10SM SCT110 31/10 A3017 RMK AO1,M
HND,2022-08-02 19:56,-115.1344,35.9729,742.79,99.00,58.00,25.74,230.00,11.00,0.00,30.01,1014.50,10.00,14.00,CLR,M,M,M,M,M,M,M,M,M,M,M,M,M,M,98.49,KHND 021956Z 23011G14KT 10SM CLR 37/14 A3001 RMK AO2 SLP145 T03720144,M
TPH,2022-08-02 19:56,-117.0904,38.0505,1654.00,82.00,52.00,35.41,320.00,7.00,0.00,30.24,1016.40,10.00,M,CLR,M,M,M,M,M,M,M,M,M,M,M,M,M,M,80.97,KTPH 021956Z AUTO 32007KT 10SM CLR 28/11 A3024 RMK AO2 LTG DSNT NE SLP164 T02780111,M
EKO,2022-08-02 19:56,-115.7860,40.8242,1367.00,87.00,49.00,26.79,230.00,13.00,0.00,30.17,1015.60,10.00,20.00,FEW,M,M,M,7500.00,M,M,M,M,M,M,M,M,M,M,84.37,KEKO 021956Z AUTO 23013G20KT 10SM FEW075 31/09 A3017 RMK AO2 SLP156 T03060094,M
WMC,2022-08-02 19:56,-117.8072,40.9019,1315.00,88.00,50.00,27.12,0.00,0.00,0.00,30.15,1015.20,10.00,M,FEW,M,M,M,7500.00,M,M,M,M,M,M,M,M,M,M,85.28,KWMC 021956Z AUTO 00000KT 10SM FEW075 31/10 A3015 RMK AO2 SLP152 T03110100,M
NFL,2022-08-02 19:56,-118.7010,39.4166,1199.00,90.00,46.00,21.91,330.00,11.00,0.00,30.13,1016.80,10.00,14.00,SCT,SCT,SCT,M,8000.00,11000.00,17000.00,M,M,M,M,M,M,M,M,86.55,KNFL 021956Z 33011G14KT 10SM SCT080 SCT110 SCT170 32/08 A3013 RMK AO2 SLP168 TCU DSNT NW T03220078,M
LAS,2022-08-02 19:56,-115.1634,36.0719,663.00,97.00,57.00,26.49,M,3.00,0.00,29.97,1011.80,10.00,M,FEW,SCT,M,M,10000.00,25000.00,M,M,M,M,M,M,M,M,M,95.92,KLAS 021956Z VRB03KT 10SM FEW100 SCT250 36/14 A2997 RMK AO2 SLP118 CB DSNT N AND NW T03610139,M
INS,2022-08-02 19:58,-115.6733,36.5872,955.00,90.30,58.80,34.78,90.00,8.00,0.06,30.05,1012.60,10.00,M,BKN,M,M,M,15000.00,M,M,M,M,M,M,M,M,M,M,89.49,KINS 021958Z AUTO 09008KT 10SM BKN150 32/15 A3005 RMK AO2 LTG DSNT E SLP126 P0006 T03240149,M
LSV,2022-08-02 19:58,-115.0343,36.2362,570.00,105.00,60.80,23.92,220.00,6.00,0.00,29.94,M,10.00,M,CLR,M,M,M,M,M,M,M,M,M,M,M,M,M,M,106.71,KLSV 021958Z AUTO 22006KT 10SM CLR 41/16 A2994 RMK AO2 LTG DSNT N SLPNO T04050160 $,M
CXP,2022-08-02 20:10,-119.7326,39.1923,1431.00,89.60,46.40,22.53,180.00,6.00,0.00,30.20,M,10.00,12.00,CLR,M,M,M,M,M,M,M,M,M,M,M,M,M,M,86.24,KCXP 022010Z AUTO 18006G12KT 10SM CLR 32/08 A3020 RMK AO2,M
05U,2022-08-02 20:15,-116.0051,39.6042,1811.23,M,M,M,M,M,0.00,M,M,M,M,M,M,M,M,M,M,M,M,M,M,M,M,M,M,M,M,K05U 022015Z AUTO RMK A01 PNO,M
BVU,2022-08-02 20:15,-114.8611,35.9475,671.00,98.60,57.20,25.41,300.00,5.00,0.00,29.96,M,M,M,M,M,M,M,M,M,M,M,M,M,M,M,M,M,M,97.76,KBVU 022015Z AUTO 30005KT 37/14 A2996 RMK AO2 PWINO TSNO,M
RTS,2022-08-02 20:15,-119.8764,39.6682,1539.00,82.40,44.60,26.49,230.00,10.00,0.00,30.22,M,10.00,M,BKN,M,M,M,9000.00,M,M,M,M,M,M,M,M,M,M,80.50,KRTS 022015Z AUTO 23010KT 10SM BKN090 28/07 A3022 RMK AO2,M
MEV,2022-08-02 20:15,-119.7500,38.9963,1441.42,87.80,48.20,25.52,M,4.00,0.00,30.19,M,10.00,12.00,CLR,M,M,M,M,M,M,M,M,M,M,M,M,M,M,84.87,KMEV 022015Z AUTO VRB04G12KT 10SM CLR 31/09 A3019 RMK AO2,M
BAM,2022-08-02 20:15,-116.8743,40.5990,1382.36,87.80,50.00,27.29,230.00,6.00,0.00,30.16,M,10.00,M,SCT,M,M,M,11000.00,M,M,M,M,M,M,M,M,M,M,85.11,KBAM 022015Z AUTO 23006KT 190V250 10SM SCT110 31/10 A3016 RMK AO1,M
HTH,2022-08-02 20:15,-118.6315,38.5448,1282.89,89.60,48.20,24.11,M,6.00,0.00,30.15,M,10.00,12.00,CLR,M,M,M,M,M,M,M,M,M,M,M,M,M,M,86.44,KHTH 022015Z AUTO VRB06G12KT 10SM CLR 32/09 A3015 RMK A01,M
TMT,2022-08-02 20:15,-117.1971,39.4643,1749.34,M,M,M,290.00,5.00,0.00,30.24,M,10.00,M,SCT,SCT,M,M,8000.00,12000.00,M,M,M,M,M,M,M,M,M,M,KTMT 022015Z AUTO 29005KT 10SM SCT080 SCT120 A3024 RMK AO2,M
CXP,2022-08-02 20:30,-119.7326,39.1923,1431.00,89.60,44.60,21.04,230.00,5.00,0.00,30.19,M,10.00,11.00,CLR,M,M,M,M,M,M,M,M,M,M,M,M,M,M,86.07,KCXP 022030Z AUTO 23005G11KT 10SM CLR 32/07 A3019 RMK AO2,M
RTS,2022-08-02 20:35,-119.8764,39.6682,1539.00,86.00,44.60,23.59,M,4.00,0.00,30.22,M,10.00,M,BKN,M,M,M,8500.00,M,M,M,M,M,M,M,M,M,M,83.07,KRTS 022035Z AUTO VRB04KT 10SM BKN085 30/07 A3022 RMK AO2,M
BVU,2022-08-02 20:35,-114.8611,35.9475,671.00,100.40,57.20,24.06,220.00,7.00,0.00,29.96,M,M,15.00,M,M,M,M,M,M,M,M,M,M,M,M,M,M,M,99.77,KBVU 022035Z AUTO 22007G15KT 38/14 A2996 RMK AO2 PWINO TSNO,M
05U,2022-08-02 20:35,-116.0051,39.6042,1811.23,M,M,M,M,M,0.00,M,M,M,M,M,M,M,M,M,M,M,M,M,M,M,M,M,M,M,M,K05U 022035Z AUTO RMK A01 PNO,M
MEV,2022-08-02 20:35,-119.7500,38.9963,1441.42,87.80,46.40,23.85,M,6.00,0.00,30.18,M,10.00,12.00,CLR,M,M,M,M,M,M,M,M,M,M,M,M,M,M,84.68,KMEV 022035Z AUTO VRB06G12KT 10SM CLR 31/08 A3018 RMK AO2,M
HTH,2022-08-02 20:35,-118.6315,38.5448,1282.89,87.80,46.40,23.85,M,6.00,0.00,30.15,M,10.00,M,CLR,M,M,M,M,M,M,M,M,M,M,M,M,M,M,84.68,KHTH 022035Z AUTO VRB06KT 10SM CLR 31/08 A3015 RMK A01,M
TMT,2022-08-02 20:35,-117.1971,39.4643,1749.34,M,M,M,0.00,0.00,0.00,30.24,M,10.00,M,CLR,M,M,M,M,M,M,M,M,M,M,M,M,M,M,M,KTMT 022035Z AUTO 00000KT 10SM CLR A3024 RMK AO2,M
BAM,2022-08-02 20:35,-116.8743,40.5990,1382.36,89.60,50.00,25.79,220.00,7.00,0.00,30.15,M,10.00,M,SCT,M,M,M,12000.00,M,M,M,M,M,M,M,M,M,M,86.70,KBAM 022035Z AUTO 22007KT 10SM SCT120 32/10 A3015 RMK AO1,M
TMT,2022-08-02 20:50,-117.1971,39.4643,1749.34,M,M,M,300.00,4.00,0.00,30.24,M,10.00,M,CLR,M,M,M,M,M,M,M,M,M,M,M,M,M,M,M,KTMT 022050Z AUTO 30004KT 10SM CLR A3024 RMK AO2,M
CXP,2022-08-02 20:50,-119.7326,39.1923,1431.00,91.40,44.60,19.89,200.00,7.00,0.00,30.19,M,10.00,15.00,CLR,M,M,M,M,M,M,M,M,M,M,M,M,M,M,87.68,KCXP 022050Z AUTO 20007G15KT 150V230 10SM CLR 33/07 A3019 RMK AO2,M
VGT,2022-08-02 20:53,-115.1933,36.2111,667.00,101.00,59.00,25.28,M,3.00,0.00,29.94,1012.30,10.00,M,FEW,M,M,M,8500.00,M,M,M,M,M,M,M,M,M,M,101.14,KVGT 022053Z VRB03KT 10SM FEW085 38/15 A2994 RMK AO2 SLP123 T03830150 58018,M
LOL,2022-08-02 20:53,-118.5701,40.0684,1192.43,93.00,46.00,19.95,M,6.00,0.00,30.10,1014.30,10.00,M,CLR,M,M,M,M,M,M,M,M,M,M,M,M,M,M,89.31,KLOL 022053Z AUTO VRB06KT 10SM CLR 34/08 A3010 RMK AO2 SLP143 T03390078 58014,M
DRA,2022-08-02 20:53,-116.0278,36.6206,1009.00,96.00,54.00,24.42,230.00,12.00,0.00,30.05,1011.70,10.00,17.00,CLR,M,M,M,M,M,M,M,M,M,M,M,M,M,M,93.97,KDRA 022053Z AUTO 23012G17KT 10SM CLR 36/12 A3005 RMK AO2 SLP117 T03560122 58015,M
ELY,2022-08-02 20:53,-114.8453,39.2950,1909.00,83.00,48.00,29.64,240.00,8.00,0.00,30.24,1013.40,10.00,M,CLR,M,M,M,M,M,M,M,M,M,M,M,M,M,M,81.11,KELY 022053Z AUTO 24008KT 10SM CLR 28/09 A3024 RMK AO2 SLP134 T02830089 58013,M
RNO,2022-08-02 20:55,-119.7711,39.4839,1341.00,92.00,51.00,24.99,360.00,13.00,0.00,30.14,1014.20,10.00,17.00,BKN,BKN,M,M,9000.00,24000.00,M,M,M,M,M,M,M,M,M,89.04,KRNO 022055Z 36013G17KT 330V030 10SM BKN090CB BKN240 33/11 A3014 RMK AO2 SLP142 CB N AND SW MOV NE T03330106 58015,M
RTS,2022-08-02 20:55,-119.8764,39.6682,1539.00,84.20,44.60,24.99,M,4.00,0.00,30.21,M,10.00,10.00,SCT,SCT,M,M,8000.00,11000.00,M,M,M,M,M,M,M,M,M,81.73,KRTS 022055Z AUTO VRB04G10KT 10SM SCT080 SCT110 29/07 A3021 RMK AO2,M
BVU,2022-08-02 20:55,-114.8611,35.9475,671.00,98.60,57.20,25.41,230.00,9.00,0.00,29.96,M,M,14.00,M,M,M,M,M,M,M,M,M,M,M,M,M,M,M,97.76,KBVU 022055Z AUTO 23009G14KT 37/14 A2996 RMK AO2 PWINO TSNO,M
HTH,2022-08-02 20:55,-118.6315,38.5448,1282.89,89.60,46.40,22.53,350.00,11.00,0.00,30.13,M,10.00,M,CLR,M,M,M,M,M,M,M,M,M,M,M,M,M,M,86.24,KHTH 022055Z AUTO 35011KT 10SM CLR 32/08 A3013 RMK A01,M
MEV,2022-08-02 20:55,-119.7500,38.9963,1441.42,89.60,46.40,22.53,310.00,11.00,0.00,30.17,M,10.00,M,CLR,M,M,M,M,M,M,M,M,M,M,M,M,M,M,86.24,KMEV 022055Z AUTO 31011KT 10SM CLR 32/08 A3017 RMK AO2,M
BAM,2022-08-02 20:55,-116.8743,40.5990,1382.36,89.60,50.00,25.79,310.00,3.00,0.00,30.14,M,10.00,M,SCT,M,M,M,8500.00,M,M,M,M,M,M,M,M,M,M,86.70,KBAM 022055Z AUTO 31003KT 10SM SCT085 32/10 A3014 RMK AO1,M
05U,2022-08-02 20:55,-116.0051,39.6042,1811.23,M,M,M,M,M,0.00,M,M,M,M,M,M,M,M,M,M,M,M,M,M,M,M,M,M,M,M,K05U 022055Z AUTO RMK A01 PNO,M
NFL,2022-08-02 20:56,-118.7010,39.4166,1199.00,91.00,45.00,20.45,M,5.00,0.00,30.11,1016.20,10.00,M,SCT,SCT,SCT,M,8000.00,11000.00,18000.00,M,M,M,M,M,M,M,M,87.35,KNFL 022056Z VRB05KT 10SM SCT080 SCT110 SCT180 33/07 A3011 RMK AO2 SLP162 CB DSNT NW T03280072 58016,M
HND,2022-08-02 20:56,-115.1344,35.9729,742.79,100.00,57.00,24.18,210.00,10.00,0.00,29.99,1013.80,10.00,17.00,CLR,M,M,M,M,M,M,M,M,M,M,M,M,M,M,99.24,KHND 022056Z 21010G17KT 10SM CLR 38/14 A2999 RMK AO2 LTG DSNT SE SLP138 T03780139 56017,M
TPH,2022-08-02 20:56,-117.0904,38.0505,1654.00,84.00,51.00,32.10,M,M,0.00,30.22,1015.50,10.00,M,CLR,M,M,M,M,M,M,M,M,M,M,M,M,M,M,82.23,KTPH 022056Z AUTO 10SM CLR 29/11 A3022 RMK AO2 SLP155 T02890106 58014,M
EKO,2022-08-02 20:56,-115.7860,40.8242,1367.00,84.00,48.00,28.60,210.00,8.00,0.00,30.16,1015.00,10.00,M,FEW,FEW,M,M,8000.00,10000.00,M,M,M,M,M,M,M,M,M,81.87,KEKO 022056Z AUTO 21008KT 10SM FEW080 FEW100 29/09 A3016 RMK AO2 LTG DSNT N SLP150 T02890089 58012,M
WMC,2022-08-02 20:56,-117.8072,40.9019,1315.00,90.00,50.00,25.46,280.00,7.00,0.00,30.12,1014.40,10.00,M,BKN,M,M,M,11000.00,M,M,M,M,M,M,M,M,M,M,87.06,KWMC 022056Z AUTO 28007KT 250V340 10SM BKN110 32/10 A3012 RMK AO2 SLP144 T03220100 58013,M
LAS,2022-08-02 20:56,-115.1634,36.0719,663.00,100.00,55.00,22.49,140.00,7.00,0.00,29.95,1011.00,10.00,M,SCT,SCT,M,M,10000.00,25000.00,M,M,M,M,M,M,M,M,M,98.48,KLAS 022056Z 14007KT 10SM SCT100 SCT250 38/13 A2995 RMK AO2 LTG DSNT SE SLP110 CB DSNT N AND SE T03780128 58020,M
LSV,2022-08-02 20:58,-115.0343,36.2362,570.00,105.80,59.00,21.85,240.00,5.00,0.00,29.92,M,10.00,M,FEW,SCT,M,M,10000.00,15000.00,M,M,M,M,M,M,M,M,M,106.72,KLSV 022058Z 24005KT 10SM FEW100 SCT150 41/15 A2992 RMK AO2A SLPNO T04100150 57019 $,M
INS,2022-08-02 20:58,-115.6733,36.5872,955.00,91.40,58.00,32.76,90.00,7.00,0.05,30.03,1011.80,10.00,M,OVC,M,M,M,14000.00,M,M,M,M,M,M,M,M,M,M,90.36,KINS 022058Z AUTO 09007KT 10SM OVC140 33/15 A3003 RMK AO2 SLP118 P0005 60005 T03300145 57016,M
CXP,2022-08-02 21:10,-119.7326,39.1923,1431.00,89.60,48.20,24.11,M,5.00,0.00,30.18,M,10.00,13.00,SCT,M,M,M,8000.00,M,M,M,M,M,M,M,M,M,M,86.44,KCXP 022110Z AUTO VRB05G13KT 10SM SCT080 32/09 A3018 RMK AO2,M
TMT,2022-08-02 21:10,-117.1971,39.4643,1749.34,M,M,M,310.00,7.00,0.00,30.23,M,10.00,M,CLR,M,M,M,M,M,M,M,M,M,M,M,M,M,M,M,KTMT 022110Z AUTO 31007KT 10SM CLR A3023 RMK AO2,M
BVU,2022-08-02 21:15,-114.8611,35.9475,671.00,96.80,60.80,30.53,160.00,14.00,0.00,29.95,M,M,M,M,M,M,M,M,M,M,M,M,M,M,M,M,M,M,97.33,KBVU 022115Z AUTO 16014KT 36/16 A2995 RMK AO2 PWINO TSNO,M
HTH,2022-08-02 21:15,-118.6315,38.5448,1282.89,89.60,46.40,22.53,320.00,9.00,0.00,30.13,M,10.00,M,CLR,M,M,M,M,M,M,M,M,M,M,M,M,M,M,86.24,KHTH 022115Z AUTO 32009KT 10SM CLR 32/08 A3013 RMK A01,M
BAM,2022-08-02 21:15,-116.8743,40.5990,1382.36,89.60,50.00,25.79,10.00,9.00,0.00,30.13,M,10.00,20.00,SCT,M,M,M,8500.00,M,M,M,M,M,M,M,M,M,M,86.70,KBAM 022115Z AUTO 01009G20KT 10SM SCT085 32/10 A3013 RMK AO1,M
MEV,2022-08-02 21:15,-119.7500,38.9963,1441.42,89.60,48.20,24.11,290.00,12.00,0.00,30.17,M,10.00,M,CLR,M,M,M,M,M,M,M,M,M,M,M,M,M,M,86.44,KMEV 022115Z AUTO 29012KT 10SM CLR 32/09 A3017 RMK AO2,M
05U,2022-08-02 21:15,-116.0051,39.6042,1811.23,M,M,M,M,M,0.00,M,M,M,M,M,M,M,M,M,M,M,M,M,M,M,M,M,M,M,M,K05U 022115Z AUTO RMK A01 PNO,M
RTS,2022-08-02 21:15,-119.8764,39.6682,1539.00,82.40,48.20,30.35,150.00,11.00,0.00,30.21,M,10.00,M,BKN,BKN,M,M,8000.00,11000.00,M,M,M,M,M,M,M,M,M,80.80,KRTS 022115Z AUTO 15011KT 10SM BKN080 BKN110 28/09 A3021 RMK AO2,M
05U,2022-08-02 21:30,-116.0051,39.6042,1811.23,M,M,M,M,M,0.00,M,M,M,M,M,M,M,M,M,M,M,M,M,M,M,M,M,M,M,M,K05U 022130Z AUTO RMK A01 PNO,M
CXP,2022-08-02 21:30,-119.7326,39.1923,1431.00,91.40,48.20,22.78,260.00,7.00,0.00,30.17,M,10.00,16.00,FEW,M,M,M,8000.00,M,M,M,M,M,M,M,M,M,M,88.09,KCXP 022130Z AUTO 26007G16KT 10SM FEW080 33/09 A3017 RMK AO2,M
BVU,2022-08-02 21:35,-114.8611,35.9475,671.00,98.60,59.00,27.10,140.00,12.00,0.00,29.95,M,M,M,M,M,M,M,M,M,M,M,M,M,M,M,M,M,M,98.52,KBVU 022135Z AUTO 14012KT 37/15 A2995 RMK AO2 PWINO TSNO,M
MEV,2022-08-02 21:35,-119.7500,38.9963,1441.42,91.40,48.20,22.78,300.00,13.00,0.00,30.16,M,10.00,20.00,CLR,M,M,M,M,M,M,M,M,M,M,M,M,M,M,88.09,KMEV 022135Z AUTO 30013G20KT 10SM CLR 33/09 A3016 RMK AO2,M
HTH,2022-08-02 21:35,-118.6315,38.5448,1282.89,89.60,46.40,22.53,320.00,9.00,0.00,30.12,M,10.00,M,CLR,M,M,M,M,M,M,M,M,M,M,M,M,M,M,86.24,KHTH 022135Z AUTO 32009KT 10SM CLR 32/08 A3012 RMK A01,M
TMT,2022-08-02 21:35,-117.1971,39.4643,1749.34,M,M,M,70.00,4.00,0.00,30.22,M,10.00,M,CLR,M,M,M,M,M,M,M,M,M,M,M,M,M,M,M,KTMT 022135Z AUTO 07004KT 10SM CLR A3022 RMK AO2,M
RTS,2022-08-02 21:35,-119.8764,39.6682,1539.00,78.80,51.80,39.02,140.00,11.00,0.00,30.21,M,10.00,M,BKN,BKN,M,M,8000.00,11000.00,M,M,-DZ,M,M,M,M,M,M,78.80,KRTS 022135Z AUTO 14011KT 10SM -DZ BKN080 BKN110 26/11 A3021 RMK AO2,M
BAM,2022-08-02 21:35,-116.8743,40.5990,1382.36,91.40,50.00,24.37,320.00,9.00,0.00,30.13,M,10.00,M,CLR,M,M,M,M,M,M,M,M,M,M,M,M,M,M,88.36,KBAM 022135Z AUTO 32009KT 10SM CLR 33/10 A3013 RMK AO1,M
CXP,2022-08-02 21:50,-119.7326,39.1923,1431.00,91.40,46.40,21.29,240.00,7.00,0.00,30.17,M,10.00,15.00,CLR,M,M,M,M,M,M,M,M,M,M,M,M,M,M,87.86,KCXP 022150Z AUTO 24007G15KT 200V290 10SM CLR 33/08 A3017 RMK AO2,M
LOL,2022-08-02 21:53,-118.5701,40.0684,1192.43,93.00,46.00,19.95,310.00,10.00,0.00,30.08,1013.70,10.00,14.00,FEW,M,M,M,10000.00,M,M,M,M,M,M,M,M,M,M,89.31,KLOL 022153Z AUTO 31010G14KT 270V340 10SM FEW100 34/08 A3008 RMK AO2 SLP137 T03390078,M
VGT,2022-08-02 21:53,-115.1933,36.2111,667.00,100.00,59.00,25.98,M,4.00,0.00,29.92,1011.80,10.00,M,CLR,M,M,M,M,M,M,M,M,M,M,M,M,M,M,100.11,KVGT 022153Z VRB04KT 10SM CLR 38/15 A2992 RMK AO2 SLP118 T03780150,M
ELY,2022-08-02 21:53,-114.8453,39.2950,1909.00,84.00,48.00,28.60,30.00,8.00,0.00,30.22,1012.60,10.00,M,BKN,M,M,M,8000.00,M,M,M,M,M,M,M,M,M,M,81.87,KELY 022153Z AUTO 03008KT 10SM BKN080 29/09 A3022 RMK AO2 LTG DSNT W SLP126 T02890089,M
DRA,2022-08-02 21:53,-116.0278,36.6206,1009.00,96.00,53.00,23.62,240.00,4.00,0.00,30.02,1011.10,10.00,M,CLR,M,M,M,M,M,M,M,M,M,M,M,M,M,M,93.72,KDRA 022153Z AUTO 24004KT 10SM CLR 36/12 A3002 RMK AO2 SLP111 T03560117,M
MEV,2022-08-02 21:55,-119.7500,38.9963,1441.42,91.40,48.20,22.78,260.00,11.00,0.00,30.16,M,10.00,M,CLR,M,M,M,M,M,M,M,M,M,M,M,M,M,M,88.09,KMEV 022155Z AUTO 26011KT 10SM CLR 33/09 A3016 RMK AO2,M
HTH,2022-08-02 21:55,-118.6315,38.5448,1282.89,87.80,46.40,23.85,340.00,7.00,0.00,30.12,M,10.00,13.00,CLR,M,M,M,M,M,M,M,M,M,M,M,M,M,M,84.68,KHTH 022155Z AUTO 34007G13KT 10SM CLR 31/08 A3012 RMK A01,M
TMT,2022-08-02 21:55,-117.1971,39.4643,1749.34,M,M,M,280.00,8.00,0.00,30.21,M,10.00,M,CLR,M,M,M,M,M,M,M,M,M,M,M,M,M,M,M,KTMT 022155Z AUTO 28008KT 10SM CLR A3021 RMK AO2,M
RNO,2022-08-02 21:55,-119.7711,39.4839,1341.00,86.00,51.00,30.11,40.00,8.00,T,30.14,1014.80,10.00,M,BKN,BKN,M,M,8500.00,24000.00,M,M,-RA,M,M,M,M,M,M,83.77,KRNO 022155Z 04008KT 10SM -RA BKN085CB BKN240 30/11 A3014 RMK AO2 RAB48 SLP148 CB N AND SE MOV NE P0000 T03000106,M
BAM,2022-08-02 21:55,-116.8743,40.5990,1382.36,91.40,50.00,24.37,360.00,6.00,0.00,30.12,M,10.00,M,CLR,M,M,M,M,M,M,M,M,M,M,M,M,M,M,88.36,KBAM 022155Z AUTO 36006KT 330V030 10SM CLR 33/10 A3012 RMK AO1,M
BVU,2022-08-02 21:55,-114.8611,35.9475,671.00,98.60,57.20,25.41,150.00,9.00,0.00,29.94,M,M,M,M,M,M,M,M,M,M,M,M,M,M,M,M,M,M,97.76,KBVU 022155Z AUTO 15009KT 37/14 A2994 RMK AO2 PWINO TSNO,M
RTS,2022-08-02 21:55,-119.8764,39.6682,1539.00,82.40,50.00,32.46,0.00,0.00,0.00,30.20,M,10.00,M,BKN,BKN,M,M,8000.00,11000.00,M,M,M,M,M,M,M,M,M,80.99,KRTS 022155Z AUTO 00000KT 10SM BKN080 BKN110 28/10 A3020 RMK AO2,M
05U,2022-08-02 21:55,-116.0051,39.6042,1811.23,M,M,M,M,M,0.00,M,M,M,M,M,M,M,M,M,M,M,M,M,M,M,M,M,M,M,M,K05U 022155Z AUTO RMK A01 PNO,M
TPH,2022-08-02 21:56,-117.0904,38.0505,1654.00,84.00,51.00,32.10,M,3.00,0.00,30.20,1014.90,10.00,M,CLR,M,M,M,M,M,M,M,M,M,M,M,M,M,M,82.23,KTPH 022156Z AUTO VRB03KT 10SM CLR 29/11 A3020 RMK AO2 SLP149 T02890106,M
NFL,2022-08-02 21:56,-118.7010,39.4166,1199.00,93.00,45.00,19.21,M,3.00,0.00,30.08,1015.40,10.00,M,SCT,SCT,SCT,M,8000.00,11000.00,18000.00,M,M,M,M,M,M,M,M,89.20,KNFL 022156Z VRB03KT 10SM SCT080 SCT110 SCT180 34/07 A3008 RMK AO2 SLP154 CB DSNT NW T03390072,M
WMC,2022-08-02 21:56,-117.8072,40.9019,1315.00,92.00,49.00,23.03,250.00,8.00,0.00,30.11,1013.60,10.00,M,FEW,M,M,M,9000.00,M,M,M,M,M,M,M,M,M,M,88.66,KWMC 022156Z AUTO 25008KT 220V280 10SM FEW090 33/09 A3011 RMK AO2 SLP136 T03330094,M
EKO,2022-08-02 21:56,-115.7860,40.8242,1367.00,89.00,47.00,23.32,250.00,16.00,0.00,30.14,1014.20,10.00,24.00,CLR,M,M,M,M,M,M,M,M,M,M,M,M,M,M,85.85,KEKO 022156Z AUTO 25016G24KT 10SM CLR 32/08 A3014 RMK AO2 SLP142 T03170083,M
HND,2022-08-02 21:56,-115.1344,35.9729,742.79,100.00,56.00,23.23,210.00,9.00,0.00,29.97,1013.10,10.00,M,SCT,M,M,M,11000.00,M,M,M,M,M,M,M,M,M,M,98.81,KHND 022156Z 21009KT 10SM SCT110 38/13 A2997 RMK AO2 SLP131 T03780133,M
LAS,2022-08-02 21:56,-115.1634,36.0719,663.00,100.00,56.00,23.23,230.00,6.00,0.00,29.92,1010.10,10.00,15.00,SCT,SCT,M,M,10000.00,25000.00,M,M,M,M,M,M,M,M,M,98.81,KLAS 022156Z 23006G15KT 10SM SCT100TCU SCT250 38/13 A2992 RMK AO2 SLP101 TCU ALQDS CB DSNT NW T03780133,M
LSV,2022-08-02 21:58,-115.0343,36.2362,570.00,109.20,59.20,19.91,280.00,4.00,0.00,29.89,M,10.00,M,FEW,SCT,M,M,17000.00,25000.00,M,M,M,M,M,M,M,M,M,110.64,KLSV 022158Z 28004KT 10SM FEW170 SCT250 43/15 A2989 RMK AO2A SLPNO T04290151 $,M
INS,2022-08-02 21:58,-115.6733,36.5872,955.00,92.30,56.30,29.86,150.00,3.00,0.00,30.01,1010.90,10.00,M,OVC,M,M,M,15000.00,M,M,M,M,M,M,M,M,M,M,90.69,KINS 022158Z AUTO 15003KT 10SM OVC150 34/14 A3001 RMK AO2 SLP109 T03350135,M
05U,2022-08-02 22:10,-116.0051,39.6042,1811.23,M,M,M,M,M,0.00,M,M,M,M,M,M,M,M,M,M,M,M,M,M,M,M,M,M,M,M,K05U 022210Z AUTO RMK A01 PNO,M
CXP,2022-08-02 22:10,-119.7326,39.1923,1431.00,89.60,46.40,22.53,300.00,10.00,0.00,30.16,M,10.00,21.00,CLR,M,M,M,M,M,M,M,M,M,M,M,M,M,M,86.24,KCXP 022210Z AUTO 30010G21KT 10SM CLR 32/08 A3016 RMK AO2,M
BAM,2022-08-02 22:15,-116.8743,40.5990,1382.36,89.60,50.00,25.79,330.00,9.00,0.00,30.12,M,10.00,M,CLR,M,M,M,M,M,M,M,M,M,M,M,M,M,M,86.70,KBAM 022215Z AUTO 33009KT 300V010 10SM CLR 32/10 A3012 RMK AO1,M
TMT,2022-08-02 22:15,-117.1971,39.4643,1749.34,M,M,M,0.00,0.00,0.00,30.21,M,10.00,M,SCT,M,M,M,10000.00,M,M,M,M,M,M,M,M,M,M,M,KTMT 022215Z AUTO 00000KT 10SM SCT100 A3021 RMK AO2,M
BVU,2022-08-02 22:15,-114.8611,35.9475,671.00,98.60,55.40,23.81,M,5.00,0.00,29.93,M,M,16.00,M,M,M,M,M,M,M,M,M,M,M,M,M,M,M,97.09,KBVU 022215Z AUTO VRB05G16KT 37/13 A2993 RMK AO2 PWINO TSNO,M
RTS,2022-08-02 22:15,-119.8764,39.6682,1539.00,84.20,48.20,28.63,100.00,6.00,0.00,30.19,M,10.00,M,SCT,SCT,M,M,8000.00,11000.00,M,M,M,M,M,M,M,M,M,82.04,KRTS 022215Z AUTO 10006KT 10SM SCT080 SCT110 29/09 A3019 RMK AO2,M
HTH,2022-08-02 22:15,-118.6315,38.5448,1282.89,89.60,46.40,22.53,340.00,9.00,0.00,30.11,M,10.00,18.00,CLR,M,M,M,M,M,M,M,M,M,M,M,M,M,M,86.24,KHTH 022215Z AUTO 34009G18KT 300V360 10SM CLR 32/08 A3011 RMK A01,M
MEV,2022-08-02 22:15,-119.7500,38.9963,1441.42,91.40,48.20,22.78,310.00,9.00,0.00,30.15,M,10.00,M,CLR,M,M,M,M,M,M,M,M,M,M,M,M,M,M,88.09,KMEV 022215Z AUTO 31009KT 270V330 10SM CLR 33/09 A3015 RMK AO2,M
CXP,2022-08-02 22:30,-119.7326,39.1923,1431.00,89.60,48.20,24.11,290.00,12.00,0.00,30.16,M,10.00,17.00,CLR,M,M,M,M,M,M,M,M,M,M,M,M,M,M,86.44,KCXP 022230Z AUTO 29012G17KT 250V320 10SM CLR 32/09 A3016 RMK AO2,M
HTH,2022-08-02 22:35,-118.6315,38.5448,1282.89,89.60,46.40,22.53,320.00,10.00,0.00,30.10,M,10.00,M,CLR,M,M,M,M,M,M,M,M,M,M,M,M,M,M,86.24,KHTH 022235Z AUTO 32010KT 10SM CLR 32/08 A3010 RMK A01,M
BAM,2022-08-02 22:35,-116.8743,40.5990,1382.36,91.40,50.00,24.37,320.00,8.00,0.00,30.10,M,10.00,M,CLR,M,M,M,M,M,M,M,M,M,M,M,M,M,M,88.36,KBAM 022235Z AUTO 32008KT 290V360 10SM CLR 33/10 A3010 RMK AO1,M
BVU,2022-08-02 22:35,-114.8611,35.9475,671.00,100.40,57.20,24.06,200.00,11.00,0.00,29.92,M,M,M,M,M,M,M,M,M,M,M,M,M,M,M,M,M,M,99.77,KBVU 022235Z AUTO 20011KT 38/14 A2992 RMK AO2 PWINO TSNO,M
RTS,2022-08-02 22:35,-119.8764,39.6682,1539.00,86.00,48.20,27.03,M,3.00,0.00,30.19,M,10.00,11.00,BKN,BKN,M,M,8000.00,11000.00,M,M,M,M,M,M,M,M,M,83.40,KRTS 022235Z AUTO VRB03G11KT 10SM BKN080 BKN110 30/09 A3019 RMK AO2,M
05U,2022-08-02 22:35,-116.0051,39.6042,1811.23,M,M,M,M,M,0.00,M,M,M,M,M,M,M,M,M,M,M,M,M,M,M,M,M,M,M,M,K05U 022235Z AUTO RMK A01 PNO,M
MEV,2022-08-02 22:35,-119.7500,38.9963,1441.42,89.60,46.40,22.53,320.00,4.00,0.00,30.15,M,10.00,15.00,CLR,M,M,M,M,M,M,M,M,M,M,M,M,M,M,86.24,KMEV 022235Z AUTO 32004G15KT 10SM CLR 32/08 A3015 RMK AO2,M
TMT,2022-08-02 22:35,-117.1971,39.4643,1749.34,M,M,M,0.00,0.00,0.00,30.21,M,10.00,M,SCT,M,M,M,10000.00,M,M,M,M,M,M,M,M,M,M,M,KTMT 022235Z AUTO 00000KT 10SM SCT100 A3021 RMK AO2,M
CXP,2022-08-02 22:50,-119.7326,39.1923,1431.00,91.40,46.40,21.29,M,6.00,0.00,30.15,M,10.00,16.00,CLR,M,M,M,M,M,M,M,M,M,M,M,M,M,M,87.86,KCXP 022250Z AUTO VRB06G16KT 210V270 10SM CLR 33/08 A3015 RMK AO2,M
DRA,2022-08-02 22:53,-116.0278,36.6206,1009.00,97.00,52.00,22.07,M,5.00,0.00,30.00,1010.40,10.00,20.00,CLR,M,M,M,M,M,M,M,M,M,M,M,M,M,M,94.38,KDRA 022253Z AUTO VRB05G20KT 10SM CLR 36/11 A3000 RMK AO2 SLP104 T03610111,M
VGT,2022-08-02 22:53,-115.1933,36.2111,667.00,101.00,58.00,24.31,280.00,4.00,0.00,29.89,1010.70,10.00,M,CLR,M,M,M,M,M,M,M,M,M,M,M,M,M,M,100.63,KVGT 022253Z 28004KT 10SM CLR 38/14 A2989 RMK AO2 SLP107 T03830144,M
ELY,2022-08-02 22:53,-114.8453,39.2950,1909.00,72.00,51.00,47.72,330.00,19.00,T,30.24,1015.20,8.00,34.00,OVC,M,M,M,8500.00,M,M,M,-RA,M,M,M,34.00,330.00,2022-08-02 22:49,72.00,KELY 022253Z AUTO 33019G34KT 8SM -RA OVC085 22/11 A3024 RMK AO2 PK WND 33034/2249 WSHFT 2236 RAB43 SLP152 P0000 T02220106,M
LOL,2022-08-02 22:53,-118.5701,40.0684,1192.43,94.00,45.00,18.68,280.00,10.00,0.00,30.06,1013.10,10.00,M,FEW,M,M,M,10000.00,M,M,M,M,M,M,M,M,M,M,90.05,KLOL 022253Z AUTO 28010KT 10SM FEW100 34/07 A3006 RMK AO2 SLP131 T03440072,M
MEV,2022-08-02 22:55,-119.7500,38.9963,1441.42,91.40,48.20,22.78,270.00,12.00,0.00,30.15,M,10.00,M,CLR,M,M,M,M,M,M,M,M,M,M,M,M,M,M,88.09,KMEV 022255Z AUTO 27012KT 10SM CLR 33/09 A3015 RMK AO2,M
BVU,2022-08-02 22:55,-114.8611,35.9475,671.00,100.40,55.40,22.54,M,5.00,0.00,29.91,M,M,14.00,M,M,M,M,M,M,M,M,M,M,M,M,M,M,M,99.06,KBVU 022255Z AUTO VRB05G14KT 38/13 A2991 RMK AO2 PWINO TSNO,M
RNO,2022-08-02 22:55,-119.7711,39.4839,1341.00,83.00,55.00,38.38,100.00,7.00,0.01,30.13,1014.50,10.00,M,BKN,BKN,M,M,9000.00,25000.00,M,M,M,M,M,M,M,M,M,82.03,KRNO 022255Z 10007KT 10SM BKN090CB BKN250 28/13 A3013 RMK AO2 LTG DSNT E RAE25 SLP145 CB NW THRU NE AND SE MOV NE P0001 T02830128,M
BAM,2022-08-02 22:55,-116.8743,40.5990,1382.36,89.60,50.00,25.79,340.00,9.00,0.00,30.10,M,10.00,M,CLR,M,M,M,M,M,M,M,M,M,M,M,M,M,M,86.70,KBAM 022255Z AUTO 34009KT 10SM CLR 32/10 A3010 RMK AO1,M
RTS,2022-08-02 22:55,-119.8764,39.6682,1539.00,84.20,48.20,28.63,0.00,0.00,0.00,30.18,M,10.00,M,BKN,M,M,M,8500.00,M,M,M,M,M,M,M,M,M,M,82.04,KRTS 022255Z AUTO 00000KT 10SM BKN085 29/09 A3018 RMK AO2,M
05U,2022-08-02 22:55,-116.0051,39.6042,1811.23,M,M,M,M,M,0.00,M,M,M,M,M,M,M,M,M,M,M,M,M,M,M,M,M,M,M,M,K05U 022255Z AUTO RMK A01 PNO,M
HTH,2022-08-02 22:55,-118.6315,38.5448,1282.89,87.80,46.40,23.85,300.00,6.00,0.00,30.10,M,10.00,13.00,CLR,M,M,M,M,M,M,M,M,M,M,M,M,M,M,84.68,KHTH 022255Z AUTO 30006G13KT 10SM CLR 31/08 A3010 RMK A01,M
TMT,2022-08-02 22:55,-117.1971,39.4643,1749.34,M,M,M,60.00,3.00,0.00,30.21,M,10.00,M,SCT,M,M,M,10000.00,M,M,M,M,M,M,M,M,M,M,M,KTMT 022255Z AUTO 06003KT 10SM SCT100 A3021 RMK AO2,M
LAS,2022-08-02 22:56,-115.1634,36.0719,663.00,99.00,56.00,23.95,170.00,5.00,0.00,29.90,1009.50,10.00,M,SCT,SCT,M,M,10000.00,25000.00,M,M,M,M,M,M,M,M,M,97.71,KLAS 022256Z 17005KT 10SM SCT100 SCT250 37/13 A2990 RMK AO2 SLP095 T03720133,M
TPH,2022-08-02 22:56,-117.0904,38.0505,1654.00,86.00,50.00,28.90,M,6.00,0.00,30.18,1014.10,10.00,M,CLR,M,M,M,M,M,M,M,M,M,M,M,M,M,M,83.62,KTPH 022256Z AUTO VRB06KT 10SM CLR 30/10 A3018 RMK AO2 SLP141 T03000100,M
HND,2022-08-02 22:56,-115.1344,35.9729,742.79,99.00,56.00,23.95,M,4.00,0.00,29.95,1012.30,10.00,M,CLR,M,M,M,M,M,M,M,M,M,M,M,M,M,M,97.71,KHND 022256Z VRB04KT 10SM CLR 37/13 A2995 RMK AO2 SLP123 T03720133,M
NFL,2022-08-02 22:56,-118.7010,39.4166,1199.00,94.00,45.00,18.68,280.00,8.00,0.00,30.06,1014.80,10.00,M,SCT,SCT,SCT,M,8000.00,11000.00,18000.00,M,M,M,M,M,M,M,M,90.05,KNFL 022256Z 28008KT 10SM SCT080 SCT110 SCT180 34/07 A3006 RMK AO2 SLP148 T03440072,M
WMC,2022-08-02 22:56,-117.8072,40.9019,1315.00,93.00,49.00,22.25,M,3.00,0.00,30.08,1012.70,10.00,M,CLR,M,M,M,M,M,M,M,M,M,M,M,M,M,M,89.72,KWMC 022256Z AUTO VRB03KT 10SM CLR 34/09 A3008 RMK AO2 SLP127 T03390094,M
EKO,2022-08-02 22:56,-115.7860,40.8242,1367.00,88.00,46.00,23.34,250.00,16.00,0.00,30.12,1013.70,10.00,24.00,CLR,M,M,M,M,M,M,M,M,M,M,M,M,M,M,84.81,KEKO 022256Z AUTO 25016G24KT 10SM CLR 31/08 A3012 RMK AO2 SLP137 T03110078,M
LSV,2022-08-02 22:58,-115.0343,36.2362,570.00,105.60,57.60,20.90,190.00,4.00,0.00,29.86,M,10.00,M,FEW,SCT,M,M,10000.00,25000.00,M,M,M,M,M,M,M,M,M,105.77,KLSV 022258Z 19004KT 10SM FEW100 SCT250 41/14 A2986 RMK AO2A SLPNO T04090142 $,M
INS,2022-08-02 22:58,-115.6733,36.5872,955.00,93.60,55.60,27.96,200.00,8.00,0.00,29.98,1010.20,10.00,M,FEW,SCT,M,M,14000.00,16000.00,M,M,M,M,M,M,M,M,M,91.82,KINS 022258Z AUTO 20008KT 10SM FEW140 SCT160 34/13 A2998 RMK AO2 SLP102 T03420131,M
CXP,2022-08-02 23:10,-119.7326,39.1923,1431.00,91.40,46.40,21.29,300.00,11.00,0.00,30.15,M,10.00,17.00,CLR,M,M,M,M,M,M,M,M,M,M,M,M,M,M,87.86,KCXP 022310Z AUTO 30011G17KT 10SM CLR 33/08 A3015 RMK AO2,M
TMT,2022-08-02 23:15,-117.1971,39.4643,1749.34,M,M,M,130.00,10.00,0.00,30.21,M,10.00,M,SCT,SCT,BKN,M,2400.00,3900.00,10000.00,M,-RA,M,M,M,M,M,M,M,KTMT 022315Z AUTO 13010KT 10SM -RA SCT024 SCT039 BKN100 A3021 RMK AO2,M
05U,2022-08-02 23:15,-116.0051,39.6042,1811.23,M,M,M,M,M,0.00,M,M,M,M,M,M,M,M,M,M,M,M,M,M,M,M,M,M,M,M,K05U 022315Z AUTO RMK A01 PNO,M
HTH,2022-08-02 23:15,-118.6315,38.5448,1282.89,89.60,46.40,22.53,310.00,9.00,0.00,30.09,M,10.00,M,CLR,M,M,M,M,M,M,M,M,M,M,M,M,M,M,86.24,KHTH 022315Z AUTO 31009KT 10SM CLR 32/08 A3009 RMK A01,M
MEV,2022-08-02 23:15,-119.7500,38.9963,1441.42,91.40,48.20,22.78,280.00,11.00,0.00,30.14,M,10.00,M,CLR,M,M,M,M,M,M,M,M,M,M,M,M,M,M,88.09,KMEV 022315Z AUTO 28011KT 10SM CLR 33/09 A3014 RMK AO2,M
RTS,2022-08-02 23:15,-119.8764,39.6682,1539.00,87.80,46.40,23.85,320.00,9.00,0.00,30.18,M,10.00,M,FEW,SCT,M,M,8500.00,11000.00,M,M,M,M,M,M,M,M,M,84.68,KRTS 022315Z AUTO 32009KT 10SM FEW085 SCT110 31/08 A3018 RMK AO2,M
BVU,2022-08-02 23:15,-114.8611,35.9475,671.00,100.40,55.40,22.54,220.00,10.00,0.00,29.90,M,M,M,M,M,M,M,M,M,M,M,M,M,M,M,M,M,M,99.06,KBVU 022315Z AUTO 22010KT 38/13 A2990 RMK AO2 PWINO TSNO,M
BAM,2022-08-02 23:15,-116.8743,40.5990,1382.36,89.60,48.20,24.11,330.00,7.00,0.00,30.10,M,10.00,M,CLR,M,M,M,M,M,M,M,M,M,M,M,M,M,M,86.44,KBAM 022315Z AUTO 33007KT 10SM CLR 32/09 A3010 RMK AO1,M
RNO,2022-08-02 23:19,-119.7711,39.4839,1341.00,86.00,56.00,35.90,90.00,7.00,0.00,30.12,M,10.00,M,SCT,BKN,M,M,9000.00,25000.00,M,M,TS,M,M,M,M,M,M,84.66,KRNO 022319Z 09007KT 10SM TS SCT090CB BKN250 30/13 A3012 RMK AO2 TSB19 OCNL LTGIC N TS N MOV NE CB N THRU E MOV NE T03000133,M
CXP,2022-08-02 23:30,-119.7326,39.1923,1431.00,91.40,48.20,22.78,260.00,11.00,0.00,30.15,M,10.00,M,CLR,M,M,M,M,M,M,M,M,M,M,M,M,M,M,88.09,KCXP 022330Z AUTO 26011KT 220V280 10SM CLR 33/09 A3015 RMK AO2,M
HTH,2022-08-02 23:35,-118.6315,38.5448,1282.89,87.80,44.60,22.27,320.00,9.00,0.00,30.09,M,10.00,14.00,CLR,M,M,M,M,M,M,M,M,M,M,M,M,M,M,84.53,KHTH 022335Z AUTO 32009G14KT 10SM CLR 31/07 A3009 RMK A01,M
BVU,2022-08-02 23:35,-114.8611,35.9475,671.00,100.40,55.40,22.54,210.00,9.00,0.00,29.90,M,M,M,M,M,M,M,M,M,M,M,M,M,M,M,M,M,M,99.06,KBVU 022335Z AUTO 21009KT 170V230 38/13 A2990 RMK AO2 PWINO TSNO,M
TMT,2022-08-02 23:35,-117.1971,39.4643,1749.34,M,M,M,130.00,5.00,0.00,30.20,M,10.00,M,SCT,SCT,SCT,M,3900.00,7000.00,10000.00,M,M,M,M,M,M,M,M,M,KTMT 022335Z AUTO 13005KT 10SM SCT039 SCT070 SCT100 A3020 RMK AO2,M
MEV,2022-08-02 23:35,-119.7500,38.9963,1441.42,91.40,48.20,22.78,290.00,9.00,0.00,30.14,M,10.00,15.00,CLR,M,M,M,M,M,M,M,M,M,M,M,M,M,M,88.09,KMEV 022335Z AUTO 29009G15KT 10SM CLR 33/09 A3014 RMK AO2,M
05U,2022-08-02 23:35,-116.0051,39.6042,1811.23,M,M,M,M,M,0.00,M,M,M,M,M,M,M,M,M,M,M,M,M,M,M,M,M,M,M,M,K05U 022335Z AUTO RMK A01 PNO,M
RTS,2022-08-02 23:35,-119.8764,39.6682,1539.00,87.80,46.40,23.85,310.00,13.00,0.00,30.18,M,10.00,21.00,SCT,SCT,M,M,8500.00,11000.00,M,M,M,M,M,M,M,M,M,84.68,KRTS 022335Z AUTO 31013G21KT 10SM SCT085 SCT110 31/08 A3018 RMK AO2,M
BAM,2022-08-02 23:35,-116.8743,40.5990,1382.36,89.60,48.20,24.11,330.00,8.00,0.00,30.09,M,10.00,M,CLR,M,M,M,M,M,M,M,M,M,M,M,M,M,M,86.44,KBAM 022335Z AUTO 33008KT 10SM CLR 32/09 A3009 RMK AO1,M
RNO,2022-08-02 23:40,-119.7711,39.4839,1341.00,88.00,53.00,30.41,120.00,5.00,0.00,30.12,M,10.00,M,FEW,BKN,M,M,9000.00,25000.00,M,M,M,M,M,M,M,M,M,85.80,KRNO 022340Z 12005KT 10SM FEW090CB BKN250 31/12 A3012 RMK AO2 TSB19E39 TS MOVD NE CB N THRU E MOV NE T03110117,M
CXP,2022-08-02 23:50,-119.7326,39.1923,1431.00,89.60,46.40,22.53,270.00,11.00,0.00,30.14,M,10.00,17.00,CLR,M,M,M,M,M,M,M,M,M,M,M,M,M,M,86.24,KCXP 022350Z AUTO 27011G17KT 10SM CLR 32/08 A3014 RMK AO2 LTG DSNT SE,M
LOL,2022-08-02 23:53,-118.5701,40.0684,1192.43,96.00,44.00,16.87,M,6.00,0.00,30.04,1012.50,10.00,M,SCT,M,M,M,11000.00,M,M,M,M,M,M,M,M,M,M,92.05,KLOL 022353Z AUTO VRB06KT 10SM SCT110 36/07 A3004 RMK AO2 SLP125 T03560067 10356 20289 56017,M
DRA,2022-08-02 23:53,-116.0278,36.6206,1009.00,97.00,51.00,21.35,M,M,0.00,29.99,1009.90,10.00,M,CLR,M,M,M,M,M,M,M,M,M,M,M,M,M,M,94.16,KDRA 022353Z AUTO 10SM CLR 36/11 A2999 RMK AO2 SLP099 T03610106 10367 20322 56018,M
VGT,2022-08-02 23:53,-115.1933,36.2111,667.00,103.00,57.00,22.16,300.00,6.00,0.00,29.88,1010.40,10.00,M,CLR,M,M,M,M,M,M,M,M,M,M,M,M,M,M,102.48,KVGT 022353Z 30006KT 10SM CLR 39/14 A2988 RMK AO2 SLP104 T03940139 10400 20356 56018,M
ELY,2022-08-02 23:53,-114.8453,39.2950,1909.00,77.00,51.00,40.36,0.00,0.00,T,30.23,1014.20,10.00,M,FEW,M,M,M,9000.00,M,M,M,M,M,M,M,29.00,330.00,2022-08-02 22:55,77.00,KELY 022353Z AUTO 00000KT 10SM FEW090 25/11 A3023 RMK AO2 PK WND 33029/2255 RAE39 SLP142 P0000 60000 T02500106 10311 20206 56005,M
RTS,2022-08-02 23:55,-119.8764,39.6682,1539.00,87.80,46.40,23.85,300.00,15.00,0.00,30.17,M,10.00,M,SCT,SCT,M,M,9000.00,12000.00,M,M,M,M,M,M,M,M,M,84.68,KRTS 022355Z AUTO 30015KT 10SM SCT090 SCT120 31/08 A3017 RMK AO2,M
RNO,2022-08-02 23:55,-119.7711,39.4839,1341.00,88.00,51.00,28.25,130.00,4.00,0.00,30.11,1013.80,10.00,M,FEW,BKN,M,M,9000.00,25000.00,M,M,M,M,M,M,M,M,M,85.45,KRNO 022355Z 13004KT 10SM FEW090CB BKN250 31/11 A3011 RMK AO2 TSB19E39 SLP138 CB N THRU NE MOV NE 60001 T03110106 10339 20272 58009,M
05U,2022-08-02 23:55,-116.0051,39.6042,1811.23,M,M,M,M,M,0.00,M,M,M,M,M,M,M,M,M,M,M,M,M,M,M,M,M,M,M,M,K05U 022355Z AUTO RMK A01 PNO,M
HTH,2022-08-02 23:55,-118.6315,38.5448,1282.89,89.60,44.60,21.04,320.00,8.00,0.00,30.09,M,10.00,M,CLR,M,M,M,M,M,M,M,M,M,M,M,M,M,M,86.07,KHTH 022355Z AUTO 32008KT 10SM CLR 32/07 A3009 RMK A01,M
TMT,2022-08-02 23:55,-117.1971,39.4643,1749.34,M,M,M,120.00,5.00,0.00,30.20,M,10.00,M,SCT,SCT,M,M,10000.00,12000.00,M,M,M,M,M,M,M,M,M,M,KTMT 022355Z AUTO 12005KT 10SM SCT100 SCT120 A3020 RMK AO2,M
MEV,2022-08-02 23:55,-119.7500,38.9963,1441.42,89.60,48.20,24.11,290.00,13.00,0.00,30.13,M,10.00,M,CLR,M,M,M,M,M,M,M,M,M,M,M,M,M,M,86.44,KMEV 022355Z AUTO 29013KT 10SM CLR 32/09 A3013 RMK AO2 LTG DSNT SE,M
BAM,2022-08-02 23:55,-116.8743,40.5990,1382.36,89.60,50.00,25.79,340.00,7.00,0.00,30.09,M,10.00,M,CLR,M,M,M,M,M,M,M,M,M,M,M,M,M,M,86.70,KBAM 022355Z AUTO 34007KT 10SM CLR 32/10 A3009 RMK AO1,M
BVU,2022-08-02 23:55,-114.8611,35.9475,671.00,100.40,55.40,22.54,0.00,0.00,0.00,29.90,M,M,M,M,M,M,M,M,M,M,M,M,M,M,M,M,M,M,99.06,KBVU 022355Z AUTO 00000KT 38/13 A2990 RMK AO2 PWINO TSNO,M
TPH,2022-08-02 23:56,-117.0904,38.0505,1654.00,85.00,49.00,28.74,250.00,6.00,0.00,30.17,1013.90,10.00,M,CLR,M,M,M,M,M,M,M,M,M,M,M,M,M,M,82.63,KTPH 022356Z AUTO 25006KT 10SM CLR 29/09 A3017 RMK AO2 SLP139 T02940094 10306 20250 56015,M
WMC,2022-08-02 23:56,-117.8072,40.9019,1315.00,93.00,48.00,21.51,M,4.00,0.00,30.06,1012.20,10.00,M,CLR,M,M,M,M,M,M,M,M,M,M,M,M,M,M,89.58,KWMC 022356Z AUTO VRB04KT 10SM CLR 34/09 A3006 RMK AO2 SLP122 T03390089 10344 20278 56018,M
EKO,2022-08-02 23:56,-115.7860,40.8242,1367.00,86.00,46.00,24.88,240.00,9.00,0.00,30.10,1013.20,10.00,22.00,CLR,M,M,M,M,M,M,M,M,M,M,M,M,M,M,83.19,KEKO 022356Z AUTO 24009G22KT 10SM CLR 30/08 A3010 RMK AO2 SLP132 T03000078 10322 20278 58016,M
LAS,2022-08-02 23:56,-115.1634,36.0719,663.00,101.00,55.00,21.89,M,3.00,0.00,29.90,1009.20,10.00,M,SCT,SCT,M,M,10000.00,25000.00,M,M,M,M,M,M,M,M,M,99.46,KLAS 022356Z VRB03KT 10SM SCT100 SCT250 38/13 A2990 RMK AO2 SLP092 T03830128 10389 20339 56016,M
HND,2022-08-02 23:56,-115.1344,35.9729,742.79,100.00,57.00,24.18,0.00,0.00,0.00,29.94,1012.10,10.00,M,CLR,M,M,M,M,M,M,M,M,M,M,M,M,M,M,99.24,KHND 022356Z 00000KT 10SM CLR 38/14 A2994 RMK AO2 SLP121 T03780139 10383 20344 56017,M
NFL,2022-08-02 23:56,-118.7010,39.4166,1199.00,94.00,45.00,18.68,330.00,8.00,0.00,30.06,1014.70,10.00,M,SCT,BKN,BKN,BKN,8000.00,12000.00,18000.00,25000.00,M,M,M,M,M,M,M,90.05,KNFL 022356Z 33008KT 10SM SCT080 BKN120 BKN180 BKN250 34/07 A3006 RMK AO2 SLP147 OCNL LTGIC DSNT SW CB DSNT SW AND NW T03440072 10356 20294 56015,M
INS,2022-08-02 23:58,-115.6733,36.5872,955.00,94.30,55.00,26.77,220.00,5.00,0.00,29.98,1010.10,10.00,M,FEW,M,M,M,14000.00,M,M,M,M,M,M,M,M,M,M,92.37,KINS 022358Z AUTO 22005KT 10SM FEW140 35/13 A2998 RMK AO2 SLP101 60005 T03460128 10346 20298 57016,M
