station,valid,lon,lat,elevation,tmpf,dwpf,relh,drct,sknt,p01i,alti,mslp,vsby,gust,skyc1,skyc2,skyc3,skyc4,skyl1,skyl2,skyl3,skyl4,wxcodes,ice_accretion_1hr,ice_accretion_3hr,ice_accretion_6hr,peak_wind_gust,peak_wind_drct,peak_wind_time,feel,metar,snowdepth
ELY,2022-08-14 00:02,-114.8453,39.2950,1909.00,62.00,55.00,77.29,150.00,3.00,0.04,30.31,M,2.50,M,SCT,BKN,OVC,M,5000.00,7500.00,9500.00,M,RA,M,M,M,M,M,M,62.60,KELY 140002Z AUTO 15003KT 2 1/2SM RA SCT050 BKN075 OVC095 17/13 A3031 RMK AO2 LTG DSNT N AND S TSE2356 P0004 T01670128 $,M
LSV,2022-08-14 00:04,-115.0343,36.2362,570.00,91.80,66.70,43.82,0.00,0.00,0.00,29.94,M,10.00,M,SCT,BKN,M,M,15000.00,25000.00,M,M,M,M,M,M,M,M,M,95.08,KLSV 140004Z 00000KT 10SM SCT150 BKN250 33/19 A2994 RMK SLPNO T03320193 $,M
ELY,2022-08-14 00:10,-114.8453,39.2950,1909.00,62.00,57.00,83.36,100.00,6.00,0.05,30.31,M,5.00,M,FEW,SCT,OVC,M,5000.00,7500.00,9500.00,M,-RA,M,M,M,M,M,M,62.10,KELY 140010Z AUTO 10006KT 5SM -RA FEW050 SCT075 OVC095 17/14 A3031 RMK AO2 LTG DSNT N AND S TSE2356 P0005 T01670139 $,M
CXP,2022-08-14 00:10,-119.7326,39.1923,1431.00,91.40,26.60,9.74,260.00,12.00,0.00,30.12,M,10.00,18.00,CLR,M,M,M,M,M,M,M,M,M,M,M,M,M,M,86.36,KCXP 140010Z AUTO 26012G18KT 10SM CLR 33/M03 A3012 RMK AO2,M
TMT,2022-08-14 00:15,-117.1971,39.4643,1749.34,M,M,M,280.00,7.00,0.00,30.16,M,10.00,M,CLR,M,M,M,M,M,M,M,M,M,M,M,M,M,M,M,KTMT 140015Z AUTO 28007KT 240V300 10SM CLR A3016 RMK AO2,M
RTS,2022-08-14 00:15,-119.8764,39.6682,1539.00,87.80,14.00,6.38,300.00,15.00,0.00,30.15,M,10.00,M,CLR,M,M,M,M,M,M,M,M,M,M,M,M,M,M,83.00,KRTS 140015Z AUTO 30015KT 10SM CLR 31/M10 A3015 RMK AO2,M
MEV,2022-08-14 00:15,-119.7500,38.9963,1441.42,89.60,30.20,11.94,280.00,10.00,0.00,30.10,M,10.00,18.00,CLR,M,M,M,M,M,M,M,M,M,M,M,M,M,M,85.34,KMEV 140015Z AUTO 28010G18KT 10SM CLR 32/M01 A3010 RMK AO2,M
BAM,2022-08-14 00:15,-116.8743,40.5990,1382.36,95.00,28.40,9.38,330.00,7.00,0.00,30.06,M,10.00,M,CLR,M,M,M,M,M,M,M,M,M,M,M,M,M,M,89.27,KBAM 140015Z AUTO 33007KT 10SM CLR 35/M02 A3006 RMK AO1,M
HTH,2022-08-14 00:15,-118.6315,38.5448,1282.89,95.00,24.80,8.08,330.00,13.00,0.00,30.03,M,10.00,M,CLR,M,M,M,M,M,M,M,M,M,M,M,M,M,M,88.91,KHTH 140015Z AUTO 33013KT 10SM CLR 35/M04 A3003 RMK A01,M
BVU,2022-08-14 00:15,-114.8611,35.9475,671.00,87.80,64.40,45.88,210.00,8.00,0.00,29.98,M,M,M,M,M,M,M,M,M,M,M,M,M,M,M,M,M,M,89.33,KBVU 140015Z AUTO 21008KT 31/18 A2998 RMK AO2 PWINO TSNO,M
CXP,2022-08-14 00:30,-119.7326,39.1923,1431.00,89.60,26.60,10.30,250.00,11.00,0.00,30.11,M,10.00,17.00,CLR,M,M,M,M,M,M,M,M,M,M,M,M,M,M,85.02,KCXP 140030Z AUTO 25011G17KT 10SM CLR 32/M03 A3011 RMK AO2,M
BVU,2022-08-14 00:35,-114.8611,35.9475,671.00,89.60,60.80,38.18,190.00,4.00,0.00,29.96,M,M,M,M,M,M,M,M,M,M,M,M,M,M,M,M,M,M,89.54,KBVU 140035Z AUTO 19004KT 32/16 A2996 RMK AO2 PWINO TSNO,M
TMT,2022-08-14 00:35,-117.1971,39.4643,1749.34,M,M,M,330.00,7.00,0.00,30.16,M,10.00,M,CLR,M,M,M,M,M,M,M,M,M,M,M,M,M,M,M,KTMT 140035Z AUTO 33007KT 10SM CLR A3016 RMK AO2 LTG DSNT E,M
RTS,2022-08-14 00:35,-119.8764,39.6682,1539.00,87.80,15.80,6.90,320.00,15.00,0.00,30.15,M,10.00,22.00,CLR,M,M,M,M,M,M,M,M,M,M,M,M,M,M,83.07,KRTS 140035Z AUTO 32015G22KT 10SM CLR 31/M09 A3015 RMK AO2,M
MEV,2022-08-14 00:35,-119.7500,38.9963,1441.42,89.60,32.00,12.84,280.00,11.00,0.00,30.10,M,10.00,18.00,CLR,M,M,M,M,M,M,M,M,M,M,M,M,M,M,85.54,KMEV 140035Z AUTO 28011G18KT 10SM CLR 32/M00 A3010 RMK AO2,M
HTH,2022-08-14 00:35,-118.6315,38.5448,1282.89,95.00,23.00,7.49,320.00,12.00,0.00,30.03,M,10.00,M,CLR,M,M,M,M,M,M,M,M,M,M,M,M,M,M,88.76,KHTH 140035Z AUTO 32012KT 10SM CLR 35/M05 A3003 RMK A01,M
BAM,2022-08-14 00:35,-116.8743,40.5990,1382.36,95.00,28.40,9.38,320.00,7.00,0.00,30.05,M,10.00,M,CLR,M,M,M,M,M,M,M,M,M,M,M,M,M,M,89.27,KBAM 140035Z AUTO 32007KT 10SM CLR 35/M02 A3005 RMK AO1,M
CXP,2022-08-14 00:50,-119.7326,39.1923,1431.00,89.60,26.60,10.30,260.00,10.00,0.00,30.11,M,10.00,16.00,CLR,M,M,M,M,M,M,M,M,M,M,M,M,M,M,85.02,KCXP 140050Z AUTO 26010G16KT 10SM CLR 32/M03 A3011 RMK AO2,M
ELY,2022-08-14 00:53,-114.8453,39.2950,1909.00,62.00,57.00,83.36,70.00,11.00,0.10,30.30,1017.70,6.00,M,BKN,OVC,M,M,8000.00,9500.00,M,M,-RA,M,M,M,M,M,M,62.10,KELY 140053Z AUTO 07011KT 6SM -RA BKN080 OVC095 17/14 A3030 RMK AO2 LTG DSNT N AND S TSE2356 SLP177 P0010 T01670139 $,M
LOL,2022-08-14 00:53,-118.5701,40.0684,1192.43,96.00,17.10,5.63,320.00,10.00,0.00,30.02,1012.60,10.00,M,CLR,M,M,M,M,M,M,M,M,M,M,M,M,M,M,89.27,KLOL 140053Z AUTO 32010KT 10SM CLR 36/M08 A3002 RMK AO2 SLP126 T03561083,M
DRA,2022-08-14 00:53,-116.0278,36.6206,1009.00,91.00,47.00,21.97,250.00,13.00,0.00,30.01,1010.90,10.00,M,CLR,M,M,M,M,M,M,M,M,M,M,M,M,M,M,87.55,KDRA 140053Z AUTO 25013KT 10SM CLR 33/08 A3001 RMK AO2 SLP109 T03280083,M
P68,2022-08-14 00:53,-116.0056,39.6014,1993.00,80.00,44.00,28.01,200.00,6.00,0.00,30.19,1013.40,M,M,M,M,M,M,M,M,M,M,M,M,M,M,M,M,M,79.12,KP68 140053Z AUTO 20006KT 27/07 A3019 RMK AO1 SLP134 T02670067,M
VGT,2022-08-14 00:53,-115.1933,36.2111,667.00,90.00,64.00,42.20,180.00,5.00,0.00,29.94,1012.90,10.00,M,CLR,M,M,M,M,M,M,M,M,M,M,M,M,M,M,91.44,KVGT 140053Z 18005KT 10SM CLR 32/18 A2994 RMK AO2 SLP129 T03220178,M
BAM,2022-08-14 00:55,-116.8743,40.5990,1382.36,95.00,28.40,9.38,330.00,6.00,0.00,30.06,M,10.00,M,CLR,M,M,M,M,M,M,M,M,M,M,M,M,M,M,89.27,KBAM 140055Z AUTO 33006KT 10SM CLR 35/M02 A3006 RMK AO1,M
BVU,2022-08-14 00:55,-114.8611,35.9475,671.00,89.60,62.60,40.69,230.00,5.00,0.00,29.95,M,M,M,M,M,M,M,M,M,M,M,M,M,M,M,M,M,M,90.32,KBVU 140055Z AUTO 23005KT 32/17 A2995 RMK AO2 PWINO TSNO,M
RNO,2022-08-14 00:55,-119.7711,39.4839,1341.00,93.00,24.10,8.35,280.00,12.00,0.00,30.07,1012.30,10.00,M,FEW,FEW,M,M,12000.00,14000.00,M,M,M,M,M,M,M,M,M,87.36,KRNO 140055Z 28012KT 10SM FEW120 FEW140 34/M04 A3007 RMK AO2 SLP123 T03391044,M
RTS,2022-08-14 00:55,-119.8764,39.6682,1539.00,87.80,15.80,6.90,310.00,10.00,0.00,30.15,M,10.00,18.00,CLR,M,M,M,M,M,M,M,M,M,M,M,M,M,M,83.07,KRTS 140055Z AUTO 31010G18KT 260V330 10SM CLR 31/M09 A3015 RMK AO2,M
MEV,2022-08-14 00:55,-119.7500,38.9963,1441.42,89.60,30.20,11.94,260.00,11.00,0.00,30.10,M,10.00,M,CLR,M,M,M,M,M,M,M,M,M,M,M,M,M,M,85.34,KMEV 140055Z AUTO 26011KT 10SM CLR 32/M01 A3010 RMK AO2,M
HTH,2022-08-14 00:55,-118.6315,38.5448,1282.89,93.20,24.80,8.54,330.00,10.00,0.00,30.03,M,10.00,M,CLR,M,M,M,M,M,M,M,M,M,M,M,M,M,M,87.56,KHTH 140055Z AUTO 33010KT 10SM CLR 34/M04 A3003 RMK A01,M
TMT,2022-08-14 00:55,-117.1971,39.4643,1749.34,M,M,M,310.00,8.00,0.00,30.16,M,10.00,M,CLR,M,M,M,M,M,M,M,M,M,M,M,M,M,M,M,KTMT 140055Z AUTO 31008KT 10SM CLR A3016 RMK AO2,M
TPH,2022-08-14 00:56,-117.0904,38.0505,1654.00,84.00,53.00,34.56,180.00,7.00,0.00,30.15,1012.80,10.00,M,CLR,M,M,M,M,M,M,M,M,M,M,M,M,M,M,82.52,KTPH 140056Z AUTO 18007KT 10SM CLR 29/12 A3015 RMK AO2 SLP128 T02890117 $,M
WMC,2022-08-14 00:56,-117.8072,40.9019,1315.00,94.00,19.90,6.80,230.00,8.00,0.00,30.05,1012.60,10.00,M,CLR,M,M,M,M,M,M,M,M,M,M,M,M,M,M,87.73,KWMC 140056Z AUTO 23008KT 10SM CLR 34/M07 A3005 RMK AO2 SLP126 T03441067 $,M
LAS,2022-08-14 00:56,-115.1634,36.0719,663.00,86.00,65.00,49.44,180.00,4.00,0.00,29.95,1011.70,10.00,M,SCT,BKN,M,M,13000.00,22000.00,M,M,M,M,M,M,M,M,M,87.73,KLAS 140056Z 18004KT 10SM SCT130 BKN220 30/18 A2995 RMK AO2 SLP117 T03000183,M
EKO,2022-08-14 00:56,-115.7860,40.8242,1367.00,81.00,44.00,27.20,190.00,6.00,0.00,30.08,1013.80,10.00,M,CLR,M,M,M,M,M,M,M,M,M,M,M,M,M,M,79.62,KEKO 140056Z AUTO 19006KT 10SM CLR 27/07 A3008 RMK AO2 SLP138 T02720067,M
NFL,2022-08-14 00:56,-118.7010,39.4166,1199.00,96.00,25.00,7.88,350.00,5.00,0.00,30.01,1013.40,10.00,M,FEW,FEW,M,M,8000.00,15000.00,M,M,M,M,M,M,M,M,M,89.84,KNFL 140056Z AUTO 35005KT 10SM FEW080 FEW150 36/M04 A3001 RMK AO2 SLP134 T03561039,M
HND,2022-08-14 00:56,-115.1344,35.9729,742.79,86.00,65.00,49.44,180.00,6.00,0.00,29.99,1014.40,10.00,M,CLR,M,M,M,M,M,M,M,M,M,M,M,M,M,M,87.73,KHND 140056Z 18006KT 10SM CLR 30/18 A2999 RMK AO2 SLP144 T03000183,M
LSV,2022-08-14 01:03,-115.0343,36.2362,570.00,90.70,65.00,42.90,M,4.00,0.00,29.92,1010.80,10.00,M,SCT,SCT,M,M,15000.00,20000.00,M,M,M,M,M,M,M,M,M,92.82,KLSV 140103Z VRB04KT 10SM SCT150 SCT200 33/18 A2992 RMK SLP108 T03260184 $,M
INS,2022-08-14 01:09,-115.6733,36.5872,955.00,89.60,59.00,35.81,100.00,11.00,0.00,29.99,M,10.00,M,FEW,M,M,M,18000.00,M,M,M,M,M,M,M,M,M,M,88.86,KINS 140109Z 10011KT 10SM FEW180 32/15 A2999,M
CXP,2022-08-14 01:10,-119.7326,39.1923,1431.00,87.80,28.40,11.74,280.00,9.00,0.00,30.11,M,10.00,17.00,CLR,M,M,M,M,M,M,M,M,M,M,M,M,M,M,83.84,KCXP 140110Z AUTO 28009G17KT 10SM CLR 31/M02 A3011 RMK AO2,M
BAM,2022-08-14 01:15,-116.8743,40.5990,1382.36,95.00,28.40,9.38,330.00,7.00,0.00,30.06,M,10.00,M,CLR,M,M,M,M,M,M,M,M,M,M,M,M,M,M,89.27,KBAM 140115Z AUTO 33007KT 10SM CLR 35/M02 A3006 RMK AO1,M
TMT,2022-08-14 01:15,-117.1971,39.4643,1749.34,M,M,M,340.00,6.00,0.00,30.16,M,10.00,M,CLR,M,M,M,M,M,M,M,M,M,M,M,M,M,M,M,KTMT 140115Z AUTO 34006KT 10SM CLR A3016 RMK AO2,M
BVU,2022-08-14 01:15,-114.8611,35.9475,671.00,89.60,60.80,38.18,300.00,4.00,0.00,29.95,M,M,M,M,M,M,M,M,M,M,M,M,M,M,M,M,M,M,89.54,KBVU 140115Z AUTO 30004KT 32/16 A2995 RMK AO2 PWINO TSNO,M
HTH,2022-08-14 01:15,-118.6315,38.5448,1282.89,93.20,24.80,8.54,330.00,10.00,0.00,30.02,M,10.00,M,CLR,M,M,M,M,M,M,M,M,M,M,M,M,M,M,87.56,KHTH 140115Z AUTO 33010KT 10SM CLR 34/M04 A3002 RMK A01,M
RTS,2022-08-14 01:15,-119.8764,39.6682,1539.00,86.00,17.60,7.90,300.00,14.00,0.00,30.15,M,10.00,M,CLR,M,M,M,M,M,M,M,M,M,M,M,M,M,M,81.85,KRTS 140115Z AUTO 30014KT 10SM CLR 30/M08 A3015 RMK AO2,M
MEV,2022-08-14 01:15,-119.7500,38.9963,1441.42,87.80,32.00,13.59,280.00,11.00,0.00,30.10,M,10.00,M,CLR,M,M,M,M,M,M,M,M,M,M,M,M,M,M,84.08,KMEV 140115Z AUTO 28011KT 230V310 10SM CLR 31/00 A3010 RMK AO2,M
CXP,2022-08-14 01:30,-119.7326,39.1923,1431.00,87.80,28.40,11.74,270.00,9.00,0.00,30.11,M,10.00,M,CLR,M,M,M,M,M,M,M,M,M,M,M,M,M,M,83.84,KCXP 140130Z AUTO 27009KT 10SM CLR 31/M02 A3011 RMK AO2,M
HTH,2022-08-14 01:35,-118.6315,38.5448,1282.89,91.40,30.20,11.28,340.00,9.00,0.00,30.02,M,10.00,M,CLR,M,M,M,M,M,M,M,M,M,M,M,M,M,M,86.71,KHTH 140135Z AUTO 34009KT 10SM CLR 33/M01 A3002 RMK A01,M
BVU,2022-08-14 01:35,-114.8611,35.9475,671.00,89.60,60.80,38.18,0.00,0.00,0.00,29.95,M,M,M,M,M,M,M,M,M,M,M,M,M,M,M,M,M,M,89.54,KBVU 140135Z AUTO 00000KT 32/16 A2995 RMK AO2 PWINO TSNO,M
RTS,2022-08-14 01:35,-119.8764,39.6682,1539.00,86.00,17.60,7.90,300.00,14.00,0.00,30.14,M,10.00,M,CLR,M,M,M,M,M,M,M,M,M,M,M,M,M,M,81.85,KRTS 140135Z AUTO 30014KT 10SM CLR 30/M08 A3014 RMK AO2,M
MEV,2022-08-14 01:35,-119.7500,38.9963,1441.42,86.00,33.80,15.48,290.00,15.00,0.00,30.09,M,10.00,M,CLR,M,M,M,M,M,M,M,M,M,M,M,M,M,M,82.66,KMEV 140135Z AUTO 29015KT 10SM CLR 30/01 A3009 RMK AO2,M
BAM,2022-08-14 01:35,-116.8743,40.5990,1382.36,95.00,30.20,10.09,340.00,9.00,0.00,30.06,M,10.00,M,CLR,M,M,M,M,M,M,M,M,M,M,M,M,M,M,89.48,KBAM 140135Z AUTO 34009KT 10SM CLR 35/M01 A3006 RMK AO1,M
TMT,2022-08-14 01:35,-117.1971,39.4643,1749.34,M,M,M,330.00,6.00,0.00,30.16,M,10.00,M,CLR,M,M,M,M,M,M,M,M,M,M,M,M,M,M,M,KTMT 140135Z AUTO 33006KT 10SM CLR A3016 RMK AO2,M
CXP,2022-08-14 01:50,-119.7326,39.1923,1431.00,86.00,28.40,12.44,M,6.00,0.00,30.11,M,10.00,11.00,CLR,M,M,M,M,M,M,M,M,M,M,M,M,M,M,82.54,KCXP 140150Z AUTO VRB06G11KT 10SM CLR 30/M02 A3011 RMK AO2,M
DRA,2022-08-14 01:53,-116.0278,36.6206,1009.00,89.00,51.00,27.29,270.00,6.00,0.00,30.00,1010.80,10.00,M,CLR,M,M,M,M,M,M,M,M,M,M,M,M,M,M,86.42,KDRA 140153Z AUTO 27006KT 10SM CLR 32/11 A3000 RMK AO2 SLP108 T03170106,M
ELY,2022-08-14 01:53,-114.8453,39.2950,1909.00,62.00,58.00,86.11,350.00,7.00,0.01,30.29,1017.30,10.00,M,FEW,M,M,M,12000.00,M,M,M,M,M,M,M,M,M,M,62.10,KELY 140153Z AUTO 35007KT 10SM FEW120 17/14 A3029 RMK AO2 RAE29 SLP173 P0001 T01670144 $,M
VGT,2022-08-14 01:53,-115.1933,36.2111,667.00,89.00,66.00,46.55,170.00,5.00,0.00,29.94,1012.70,10.00,M,CLR,M,M,M,M,M,M,M,M,M,M,M,M,M,M,91.60,KVGT 140153Z 17005KT 10SM CLR 32/19 A2994 RMK AO2 SLP127 T03170189,M
LOL,2022-08-14 01:53,-118.5701,40.0684,1192.43,93.00,16.00,5.91,290.00,7.00,0.00,30.01,1012.30,10.00,M,CLR,M,M,M,M,M,M,M,M,M,M,M,M,M,M,86.85,KLOL 140153Z AUTO 29007KT 10SM CLR 34/M09 A3001 RMK AO2 SLP123 T03391089,M
P68,2022-08-14 01:53,-116.0056,39.6014,1993.00,81.00,44.00,27.20,120.00,7.00,0.00,30.18,1013.50,M,M,M,M,M,M,M,M,M,M,M,M,M,M,M,M,M,79.62,KP68 140153Z AUTO 12007KT 27/07 A3018 RMK AO1 SLP135 T02720067,M
RTS,2022-08-14 01:55,-119.8764,39.6682,1539.00,84.20,19.40,9.04,320.00,10.00,0.00,30.15,M,10.00,17.00,CLR,M,M,M,M,M,M,M,M,M,M,M,M,M,M,80.68,KRTS 140155Z AUTO 32010G17KT 10SM CLR 29/M07 A3015 RMK AO2,M
MEV,2022-08-14 01:55,-119.7500,38.9963,1441.42,84.20,32.00,15.25,290.00,12.00,0.00,30.10,M,10.00,17.00,CLR,M,M,M,M,M,M,M,M,M,M,M,M,M,M,81.28,KMEV 140155Z AUTO 29012G17KT 10SM CLR 29/00 A3010 RMK AO2,M
BAM,2022-08-14 01:55,-116.8743,40.5990,1382.36,91.40,30.20,11.28,330.00,9.00,0.00,30.07,M,10.00,M,CLR,M,M,M,M,M,M,M,M,M,M,M,M,M,M,86.71,KBAM 140155Z AUTO 33009KT 10SM CLR 33/M01 A3007 RMK AO1,M
HTH,2022-08-14 01:55,-118.6315,38.5448,1282.89,91.40,30.20,11.28,340.00,9.00,0.00,30.02,M,10.00,M,CLR,M,M,M,M,M,M,M,M,M,M,M,M,M,M,86.71,KHTH 140155Z AUTO 34009KT 10SM CLR 33/M01 A3002 RMK A01,M
TMT,2022-08-14 01:55,-117.1971,39.4643,1749.34,M,M,M,350.00,8.00,0.00,30.16,M,10.00,M,CLR,M,M,M,M,M,M,M,M,M,M,M,M,M,M,M,KTMT 140155Z AUTO 35008KT 10SM CLR A3016 RMK AO2,M
RNO,2022-08-14 01:55,-119.7711,39.4839,1341.00,90.00,28.90,11.18,290.00,14.00,0.00,30.07,1012.50,10.00,M,FEW,FEW,M,M,12000.00,14000.00,M,M,M,M,M,M,M,M,M,85.52,KRNO 140155Z 29014KT 10SM FEW120 FEW140 32/M02 A3007 RMK AO2 SLP125 T03221017,M
BVU,2022-08-14 01:55,-114.8611,35.9475,671.00,87.80,62.60,43.07,210.00,5.00,0.00,29.95,M,M,M,M,M,M,M,M,M,M,M,M,M,M,M,M,M,M,88.48,KBVU 140155Z AUTO 21005KT 31/17 A2995 RMK AO2 PWINO TSNO,M
TPH,2022-08-14 01:56,-117.0904,38.0505,1654.00,80.00,54.00,40.54,130.00,11.00,0.00,30.15,1012.90,10.00,M,CLR,M,M,M,M,M,M,M,M,M,M,M,M,M,M,80.04,KTPH 140156Z AUTO 13011KT 10SM CLR 27/12 A3015 RMK AO2 SLP129 T02670122 $,M
NFL,2022-08-14 01:56,-118.7010,39.4166,1199.00,94.00,24.10,8.12,0.00,0.00,0.00,30.01,1013.10,10.00,M,CLR,M,M,M,M,M,M,M,M,M,M,M,M,M,M,88.03,KNFL 140156Z AUTO 00000KT 10SM CLR 34/M04 A3001 RMK AO2 SLP131 T03441044,M
LAS,2022-08-14 01:56,-115.1634,36.0719,663.00,87.00,65.00,47.73,160.00,3.00,0.00,29.95,1011.60,10.00,M,FEW,BKN,M,M,13000.00,22000.00,M,M,M,M,M,M,M,M,M,88.86,KLAS 140156Z 16003KT 10SM FEW130 BKN220 31/18 A2995 RMK AO2 SLP116 T03060183,M
HND,2022-08-14 01:56,-115.1344,35.9729,742.79,86.00,66.00,51.37,200.00,5.00,0.00,29.98,1014.20,10.00,M,CLR,M,M,M,M,M,M,M,M,M,M,M,M,M,M,88.28,KHND 140156Z 20005KT 10SM CLR 30/19 A2998 RMK AO2 SLP142 T03000189,M
EKO,2022-08-14 01:56,-115.7860,40.8242,1367.00,81.00,46.00,29.23,160.00,6.00,0.00,30.10,1013.70,10.00,M,CLR,M,M,M,M,M,M,M,M,M,M,M,M,M,M,79.76,KEKO 140156Z AUTO 16006KT 10SM CLR 27/08 A3010 RMK AO2 SLP137 T02720078,M
WMC,2022-08-14 01:56,-117.8072,40.9019,1315.00,92.00,21.00,7.58,280.00,8.00,0.00,30.05,1012.40,10.00,M,CLR,M,M,M,M,M,M,M,M,M,M,M,M,M,M,86.32,KWMC 140156Z AUTO 28008KT 10SM CLR 33/M06 A3005 RMK AO2 SLP124 T03331061 $,M
CXP,2022-08-14 02:10,-119.7326,39.1923,1431.00,86.00,30.20,13.38,290.00,7.00,0.00,30.11,M,10.00,M,CLR,M,M,M,M,M,M,M,M,M,M,M,M,M,M,82.64,KCXP 140210Z AUTO 29007KT 10SM CLR 30/M01 A3011 RMK AO2,M
TMT,2022-08-14 02:15,-117.1971,39.4643,1749.34,M,M,M,340.00,9.00,0.00,30.17,M,10.00,M,CLR,M,M,M,M,M,M,M,M,M,M,M,M,M,M,M,KTMT 140215Z AUTO 34009KT 10SM CLR A3017 RMK AO2,M
MEV,2022-08-14 02:15,-119.7500,38.9963,1441.42,82.40,33.80,17.38,250.00,7.00,0.00,30.10,M,10.00,13.00,CLR,M,M,M,M,M,M,M,M,M,M,M,M,M,M,80.03,KMEV 140215Z AUTO 25007G13KT 10SM CLR 28/01 A3010 RMK AO2,M
RTS,2022-08-14 02:15,-119.8764,39.6682,1539.00,82.40,19.40,9.58,320.00,13.00,0.00,30.15,M,10.00,M,CLR,M,M,M,M,M,M,M,M,M,M,M,M,M,M,79.45,KRTS 140215Z AUTO 32013KT 10SM CLR 28/M07 A3015 RMK AO2,M
BVU,2022-08-14 02:15,-114.8611,35.9475,671.00,87.80,60.80,40.41,0.00,0.00,0.00,29.96,M,M,M,M,M,M,M,M,M,M,M,M,M,M,M,M,M,M,87.75,KBVU 140215Z AUTO 00000KT 31/16 A2996 RMK AO2 PWINO TSNO,M
BAM,2022-08-14 02:15,-116.8743,40.5990,1382.36,91.40,30.20,11.28,340.00,8.00,0.00,30.07,M,10.00,M,CLR,M,M,M,M,M,M,M,M,M,M,M,M,M,M,86.71,KBAM 140215Z AUTO 34008KT 10SM CLR 33/M01 A3007 RMK AO1,M
HTH,2022-08-14 02:15,-118.6315,38.5448,1282.89,91.40,32.00,12.14,340.00,7.00,0.00,30.02,M,10.00,M,CLR,M,M,M,M,M,M,M,M,M,M,M,M,M,M,86.91,KHTH 140215Z AUTO 34007KT 10SM CLR 33/00 A3002 RMK A01,M
LSV,2022-08-14 02:22,-115.0343,36.2362,570.00,88.30,67.30,49.94,0.00,0.00,0.00,29.92,1010.90,10.00,M,SCT,M,M,M,20000.00,M,M,M,M,M,M,M,M,M,M,91.53,KLSV 140222Z 00000KT 10SM SCT200 31/20 A2992 RMK SLP109 T03130196 55013 $,M
CXP,2022-08-14 02:30,-119.7326,39.1923,1431.00,84.20,30.20,14.18,270.00,5.00,0.00,30.12,M,10.00,M,CLR,M,M,M,M,M,M,M,M,M,M,M,M,M,M,81.26,KCXP 140230Z AUTO 27005KT 10SM CLR 29/M01 A3012 RMK AO2,M
MEV,2022-08-14 02:35,-119.7500,38.9963,1441.42,78.80,33.80,19.55,230.00,9.00,0.00,30.11,M,10.00,M,CLR,M,M,M,M,M,M,M,M,M,M,M,M,M,M,78.80,KMEV 140235Z AUTO 23009KT 10SM CLR 26/01 A3011 RMK AO2,M
RTS,2022-08-14 02:35,-119.8764,39.6682,1539.00,80.60,21.20,10.97,310.00,13.00,0.00,30.16,M,10.00,M,CLR,M,M,M,M,M,M,M,M,M,M,M,M,M,M,78.68,KRTS 140235Z AUTO 31013KT 10SM CLR 27/M06 A3016 RMK AO2,M
HTH,2022-08-14 02:35,-118.6315,38.5448,1282.89,89.60,32.00,12.84,330.00,6.00,0.00,30.03,M,10.00,M,CLR,M,M,M,M,M,M,M,M,M,M,M,M,M,M,85.54,KHTH 140235Z AUTO 33006KT 10SM CLR 32/M00 A3003 RMK A01,M
TMT,2022-08-14 02:35,-117.1971,39.4643,1749.34,83.50,35.00,17.52,360.00,9.00,0.00,30.18,M,10.00,M,CLR,M,M,M,M,M,M,M,M,M,M,M,M,M,M,80.82,KTMT 140235Z AUTO 36009KT 10SM CLR 29/02 A3018 RMK AO2 T02860016,M
BVU,2022-08-14 02:35,-114.8611,35.9475,671.00,87.80,62.60,43.07,0.00,0.00,0.00,29.96,M,M,M,M,M,M,M,M,M,M,M,M,M,M,M,M,M,M,88.48,KBVU 140235Z AUTO 00000KT 31/17 A2996 RMK AO2 PWINO TSNO,M
BAM,2022-08-14 02:35,-116.8743,40.5990,1382.36,87.80,32.00,13.59,340.00,6.00,0.00,30.07,M,10.00,M,CLR,M,M,M,M,M,M,M,M,M,M,M,M,M,M,84.08,KBAM 140235Z AUTO 34006KT 10SM CLR 31/00 A3007 RMK AO1,M
CXP,2022-08-14 02:50,-119.7326,39.1923,1431.00,82.40,30.20,15.03,0.00,0.00,0.00,30.12,M,10.00,M,CLR,M,M,M,M,M,M,M,M,M,M,M,M,M,M,79.97,KCXP 140250Z AUTO 00000KT 10SM CLR 28/M01 A3012 RMK AO2,M
P68,2022-08-14 02:53,-116.0056,39.6014,1993.00,74.00,49.00,41.24,130.00,11.00,0.00,30.20,1013.90,M,M,M,M,M,M,M,M,M,M,M,M,M,M,M,M,M,73.90,KP68 140253Z AUTO 13011KT 23/09 A3020 RMK AO1 SLP139 T02330094 53001,M
DRA,2022-08-14 02:53,-116.0278,36.6206,1009.00,85.00,54.00,34.70,280.00,4.00,0.00,30.01,1011.20,10.00,M,CLR,M,M,M,M,M,M,M,M,M,M,M,M,M,M,83.37,KDRA 140253Z AUTO 28004KT 10SM CLR 29/12 A3001 RMK AO2 SLP112 T02940122 55006,M
ELY,2022-08-14 02:53,-114.8453,39.2950,1909.00,62.00,59.00,89.57,0.00,0.00,0.00,30.29,1016.50,10.00,M,FEW,M,M,M,11000.00,M,M,M,M,M,M,M,M,M,M,62.10,KELY 140253Z AUTO 00000KT 10SM FEW110 17/15 A3029 RMK AO2 SLP165 60011 T01670150 56006 $,M
LOL,2022-08-14 02:53,-118.5701,40.0684,1192.43,85.00,17.10,8.01,300.00,7.00,0.00,30.02,1012.50,10.00,M,CLR,M,M,M,M,M,M,M,M,M,M,M,M,M,M,81.05,KLOL 140253Z AUTO 30007KT 10SM CLR 29/M08 A3002 RMK AO2 SLP125 T02941083 55003,M
VGT,2022-08-14 02:53,-115.1933,36.2111,667.00,88.00,65.00,46.39,190.00,3.00,0.00,29.95,1013.40,10.00,M,CLR,M,M,M,M,M,M,M,M,M,M,M,M,M,M,89.80,KVGT 140253Z 19003KT 10SM CLR 31/18 A2995 RMK AO2 SLP134 T03110183 55003,M
RTS,2022-08-14 02:55,-119.8764,39.6682,1539.00,78.80,23.00,12.55,290.00,14.00,0.00,30.16,M,10.00,M,CLR,M,M,M,M,M,M,M,M,M,M,M,M,M,M,78.80,KRTS 140255Z AUTO 29014KT 10SM CLR 26/M05 A3016 RMK AO2,M
HTH,2022-08-14 02:55,-118.6315,38.5448,1282.89,87.80,30.20,12.64,330.00,6.00,0.00,30.03,M,10.00,M,CLR,M,M,M,M,M,M,M,M,M,M,M,M,M,M,84.01,KHTH 140255Z AUTO 33006KT 10SM CLR 31/M01 A3003 RMK A01,M
BAM,2022-08-14 02:55,-116.8743,40.5990,1382.36,84.20,32.00,15.25,330.00,6.00,0.00,30.08,M,10.00,M,CLR,M,M,M,M,M,M,M,M,M,M,M,M,M,M,81.28,KBAM 140255Z AUTO 33006KT 10SM CLR 29/00 A3008 RMK AO1,M
MEV,2022-08-14 02:55,-119.7500,38.9963,1441.42,78.80,32.00,18.18,270.00,6.00,0.00,30.11,M,10.00,12.00,CLR,M,M,M,M,M,M,M,M,M,M,M,M,M,M,78.80,KMEV 140255Z AUTO 27006G12KT 10SM CLR 26/00 A3011 RMK AO2,M
BVU,2022-08-14 02:55,-114.8611,35.9475,671.00,86.00,64.40,48.58,0.00,0.00,0.00,29.97,M,M,M,M,M,M,M,M,M,M,M,M,M,M,M,M,M,M,87.49,KBVU 140255Z AUTO 00000KT 30/18 A2997 RMK AO2 PWINO TSNO,M
RNO,2022-08-14 02:55,-119.7711,39.4839,1341.00,86.00,30.90,13.77,340.00,10.00,0.00,30.09,1013.40,10.00,19.00,FEW,M,M,M,12000.00,M,M,M,M,M,M,M,M,M,M,82.64,KRNO 140255Z 34010G19KT 10SM FEW120 30/M01 A3009 RMK AO2 SLP134 T03001006 53003,M
TMT,2022-08-14 02:55,-117.1971,39.4643,1749.34,M,M,M,10.00,6.00,0.00,30.18,M,10.00,M,CLR,M,M,M,M,M,M,M,M,M,M,M,M,M,M,M,KTMT 140255Z AUTO 01006KT 10SM CLR A3018 RMK AO2 LTG DSNT SE,M
WMC,2022-08-14 02:56,-117.8072,40.9019,1315.00,80.00,23.00,12.03,290.00,5.00,0.00,30.06,1012.90,10.00,M,CLR,M,M,M,M,M,M,M,M,M,M,M,M,M,M,78.29,KWMC 140256Z AUTO 29005KT 10SM CLR 27/M05 A3006 RMK AO2 SLP129 T02671050 53001 $,M
EKO,2022-08-14 02:56,-115.7860,40.8242,1367.00,74.00,49.00,41.24,240.00,3.00,0.00,30.10,1014.00,10.00,M,CLR,M,M,M,M,M,M,M,M,M,M,M,M,M,M,73.90,KEKO 140256Z AUTO 24003KT 10SM CLR 23/09 A3010 RMK AO2 SLP140 T02330094 53002,M
LAS,2022-08-14 02:56,-115.1634,36.0719,663.00,87.00,65.00,47.73,190.00,3.00,0.00,29.96,1012.20,10.00,M,FEW,BKN,M,M,13000.00,22000.00,M,M,M,M,M,M,M,M,M,88.86,KLAS 140256Z 19003KT 10SM FEW130 BKN220 31/18 A2996 RMK AO2 SLP122 T03060183 55004,M
NFL,2022-08-14 02:56,-118.7010,39.4166,1199.00,88.00,37.00,16.49,0.00,0.00,0.00,30.01,1013.40,10.00,M,CLR,M,M,M,M,M,M,M,M,M,M,M,M,M,M,84.32,KNFL 140256Z AUTO 00000KT 10SM CLR 31/03 A3001 RMK AO2 SLP134 T03110028 55004,M
TPH,2022-08-14 02:56,-117.0904,38.0505,1654.00,75.00,54.00,47.99,130.00,12.00,0.00,30.17,1013.60,10.00,M,CLR,M,M,M,M,M,M,M,M,M,M,M,M,M,M,75.00,KTPH 140256Z AUTO 13012KT 10SM CLR 24/12 A3017 RMK AO2 SLP136 T02390122 55000 $,M
HND,2022-08-14 02:56,-115.1344,35.9729,742.79,84.00,66.00,54.77,210.00,6.00,0.00,30.00,1014.70,10.00,M,CLR,M,M,M,M,M,M,M,M,M,M,M,M,M,M,86.20,KHND 140256Z 21006KT 10SM CLR 29/19 A3000 RMK AO2 SLP147 T02890189 55006,M
LSV,2022-08-14 03:03,-115.0343,36.2362,570.00,85.80,67.00,53.70,0.00,0.00,0.00,29.93,1011.30,10.00,M,SCT,M,M,M,15000.00,M,M,M,M,M,M,M,M,M,M,88.67,KLSV 140303Z 00000KT 10SM SCT150 30/20 A2993 RMK SLP113 T02990195 $,M
CXP,2022-08-14 03:10,-119.7326,39.1923,1431.00,80.60,30.20,15.94,0.00,0.00,0.00,30.13,M,10.00,M,CLR,M,M,M,M,M,M,M,M,M,M,M,M,M,M,78.77,KCXP 140310Z AUTO 00000KT 10SM CLR 27/M01 A3013 RMK AO2,M
MEV,2022-08-14 03:15,-119.7500,38.9963,1441.42,78.80,32.00,18.18,290.00,7.00,0.00,30.12,M,10.00,12.00,CLR,M,M,M,M,M,M,M,M,M,M,M,M,M,M,78.80,KMEV 140315Z AUTO 29007G12KT 10SM CLR 26/M00 A3012 RMK AO2,M
HTH,2022-08-14 03:15,-118.6315,38.5448,1282.89,87.80,26.60,10.91,320.00,9.00,0.00,30.04,M,10.00,M,CLR,M,M,M,M,M,M,M,M,M,M,M,M,M,M,83.69,KHTH 140315Z AUTO 32009KT 10SM CLR 31/M03 A3004 RMK A01,M
TMT,2022-08-14 03:15,-117.1971,39.4643,1749.34,M,M,M,10.00,5.00,0.00,30.18,M,10.00,M,CLR,M,M,M,M,M,M,M,M,M,M,M,M,M,M,M,KTMT 140315Z AUTO 01005KT 10SM CLR A3018 RMK AO2,M
BVU,2022-08-14 03:15,-114.8611,35.9475,671.00,86.00,62.60,45.61,0.00,0.00,0.00,29.97,M,M,M,M,M,M,M,M,M,M,M,M,M,M,M,M,M,M,86.72,KBVU 140315Z AUTO 00000KT 30/17 A2997 RMK AO2 PWINO TSNO,M
RTS,2022-08-14 03:15,-119.8764,39.6682,1539.00,77.00,24.80,14.37,290.00,11.00,0.00,30.17,M,10.00,16.00,CLR,M,M,M,M,M,M,M,M,M,M,M,M,M,M,77.00,KRTS 140315Z AUTO 29011G16KT 10SM CLR 25/M04 A3017 RMK AO2,M
BAM,2022-08-14 03:15,-116.8743,40.5990,1382.36,82.40,30.20,15.03,320.00,6.00,0.00,30.08,M,10.00,M,CLR,M,M,M,M,M,M,M,M,M,M,M,M,M,M,79.97,KBAM 140315Z AUTO 32006KT 10SM CLR 28/M01 A3008 RMK AO1,M
CXP,2022-08-14 03:30,-119.7326,39.1923,1431.00,78.80,32.00,18.18,310.00,7.00,0.00,30.14,M,10.00,M,CLR,M,M,M,M,M,M,M,M,M,M,M,M,M,M,78.80,KCXP 140330Z AUTO 31007KT 10SM CLR 26/M00 A3014 RMK AO2,M
MEV,2022-08-14 03:35,-119.7500,38.9963,1441.42,75.20,33.80,22.02,300.00,5.00,0.00,30.13,M,10.00,10.00,CLR,M,M,M,M,M,M,M,M,M,M,M,M,M,M,75.20,KMEV 140335Z AUTO 30005G10KT 10SM CLR 24/01 A3013 RMK AO2,M
TMT,2022-08-14 03:35,-117.1971,39.4643,1749.34,71.00,40.30,32.67,60.00,7.00,0.00,30.19,M,10.00,M,CLR,M,M,M,M,M,M,M,M,M,M,M,M,M,M,71.10,KTMT 140335Z AUTO 06007KT 10SM CLR 22/05 A3019 RMK AO2 T02170046,M
BVU,2022-08-14 03:35,-114.8611,35.9475,671.00,86.00,64.40,48.58,0.00,0.00,0.00,29.98,M,M,M,M,M,M,M,M,M,M,M,M,M,M,M,M,M,M,87.49,KBVU 140335Z AUTO 00000KT 30/18 A2998 RMK AO2 PWINO TSNO,M
HTH,2022-08-14 03:35,-118.6315,38.5448,1282.89,87.80,39.20,18.09,310.00,9.00,0.00,30.05,M,10.00,M,CLR,M,M,M,M,M,M,M,M,M,M,M,M,M,M,84.22,KHTH 140335Z AUTO 31009KT 10SM CLR 31/04 A3005 RMK A01,M
BAM,2022-08-14 03:35,-116.8743,40.5990,1382.36,80.60,30.20,15.94,300.00,7.00,0.00,30.09,M,10.00,M,CLR,M,M,M,M,M,M,M,M,M,M,M,M,M,M,78.77,KBAM 140335Z AUTO 30007KT 10SM CLR 27/M01 A3009 RMK AO1,M
RTS,2022-08-14 03:35,-119.8764,39.6682,1539.00,73.40,26.60,17.46,300.00,7.00,0.00,30.18,M,10.00,12.00,CLR,M,M,M,M,M,M,M,M,M,M,M,M,M,M,73.40,KRTS 140335Z AUTO 30007G12KT 10SM CLR 23/M03 A3018 RMK AO2,M
CXP,2022-08-14 03:50,-119.7326,39.1923,1431.00,77.00,32.00,19.30,330.00,4.00,0.00,30.14,M,10.00,M,CLR,M,M,M,M,M,M,M,M,M,M,M,M,M,M,77.00,KCXP 140350Z AUTO 33004KT 10SM CLR 25/00 A3014 RMK AO2,M
LOL,2022-08-14 03:53,-118.5701,40.0684,1192.43,78.00,15.10,9.16,330.00,5.00,0.00,30.04,1013.00,10.00,M,CLR,M,M,M,M,M,M,M,M,M,M,M,M,M,M,78.10,KLOL 140353Z AUTO 33005KT 10SM CLR 26/M09 A3004 RMK AO2 SLP130 T02561094,M
VGT,2022-08-14 03:53,-115.1933,36.2111,667.00,88.00,65.00,46.39,0.00,0.00,0.00,29.98,1014.20,10.00,M,CLR,M,M,M,M,M,M,M,M,M,M,M,M,M,M,89.80,KVGT 140353Z 00000KT 10SM CLR 31/18 A2998 RMK AO2 SLP142 T03110183,M
ELY,2022-08-14 03:53,-114.8453,39.2950,1909.00,61.00,58.00,89.52,200.00,5.00,0.00,30.29,1016.60,10.00,M,OVC,M,M,M,12000.00,M,M,M,M,M,M,M,M,M,M,61.00,KELY 140353Z AUTO 20005KT 10SM OVC120 16/14 A3029 RMK AO2 SLP166 T01610144 $,M
P68,2022-08-14 03:53,-116.0056,39.6014,1993.00,71.00,51.00,49.20,150.00,13.00,0.00,30.21,1014.00,M,M,M,M,M,M,M,M,M,M,M,M,M,M,M,M,M,71.10,KP68 140353Z AUTO 15013KT 22/11 A3021 RMK AO1 SLP140 T02170106,M
DRA,2022-08-14 03:53,-116.0278,36.6206,1009.00,84.00,56.00,38.28,100.00,3.00,0.00,30.04,1012.00,10.00,M,CLR,M,M,M,M,M,M,M,M,M,M,M,M,M,M,83.03,KDRA 140353Z AUTO 10003KT 10SM CLR 29/13 A3004 RMK AO2 SLP120 T02890133,M
HTH,2022-08-14 03:55,-118.6315,38.5448,1282.89,87.80,37.40,16.86,320.00,13.00,0.00,30.05,M,10.00,M,CLR,M,M,M,M,M,M,M,M,M,M,M,M,M,M,84.16,KHTH 140355Z AUTO 32013KT 10SM CLR 31/03 A3005 RMK A01,M
MEV,2022-08-14 03:55,-119.7500,38.9963,1441.42,75.20,33.80,22.02,M,4.00,0.00,30.13,M,10.00,M,CLR,M,M,M,M,M,M,M,M,M,M,M,M,M,M,75.20,KMEV 140355Z AUTO VRB04KT 10SM CLR 24/01 A3013 RMK AO2,M
RNO,2022-08-14 03:55,-119.7711,39.4839,1341.00,82.00,32.00,16.38,320.00,9.00,0.00,30.11,1014.00,10.00,M,FEW,M,M,M,12000.00,M,M,M,M,M,M,M,M,M,M,79.73,KRNO 140355Z 32009KT 10SM FEW120 28/00 A3011 RMK AO2 SLP140 T02780000,M
BVU,2022-08-14 03:55,-114.8611,35.9475,671.00,84.20,66.20,54.80,0.00,0.00,0.00,29.99,M,M,M,M,M,M,M,M,M,M,M,M,M,M,M,M,M,M,86.50,KBVU 140355Z AUTO 00000KT 29/19 A2999 RMK AO2 PWINO TSNO,M
RTS,2022-08-14 03:55,-119.8764,39.6682,1539.00,69.80,26.60,19.72,320.00,7.00,0.00,30.18,M,10.00,M,CLR,M,M,M,M,M,M,M,M,M,M,M,M,M,M,69.80,KRTS 140355Z AUTO 32007KT 10SM CLR 21/M03 A3018 RMK AO2,M
TMT,2022-08-14 03:55,-117.1971,39.4643,1749.34,M,M,M,70.00,5.00,0.00,30.20,M,10.00,M,CLR,M,M,M,M,M,M,M,M,M,M,M,M,M,M,M,KTMT 140355Z AUTO 07005KT 10SM CLR A3020 RMK AO2,M
BAM,2022-08-14 03:55,-116.8743,40.5990,1382.36,80.60,30.20,15.94,320.00,6.00,0.00,30.09,M,10.00,M,CLR,M,M,M,M,M,M,M,M,M,M,M,M,M,M,78.77,KBAM 140355Z AUTO 32006KT 10SM CLR 27/M01 A3009 RMK AO1,M
TPH,2022-08-14 03:56,-117.0904,38.0505,1654.00,72.00,55.00,55.06,100.00,8.00,0.00,30.19,1014.40,10.00,M,CLR,M,M,M,M,M,M,M,M,M,M,M,M,M,M,72.00,KTPH 140356Z AUTO 10008KT 10SM CLR 22/13 A3019 RMK AO2 SLP144 T02220128 $,M
WMC,2022-08-14 03:56,-117.8072,40.9019,1315.00,76.00,21.00,12.70,0.00,0.00,0.00,30.09,1013.60,10.00,M,CLR,M,M,M,M,M,M,M,M,M,M,M,M,M,M,75.90,KWMC 140356Z AUTO 00000KT 10SM CLR 24/M06 A3009 RMK AO2 SLP136 T02441061 $,M
HND,2022-08-14 03:56,-115.1344,35.9729,742.79,83.00,66.00,56.75,220.00,6.00,0.00,30.03,1015.80,10.00,M,CLR,M,M,M,M,M,M,M,M,M,M,M,M,M,M,85.07,KHND 140356Z AUTO 22006KT 10SM CLR 28/19 A3003 RMK AO2 SLP158 T02830189,M
LAS,2022-08-14 03:56,-115.1634,36.0719,663.00,86.00,64.00,47.91,200.00,4.00,0.00,29.99,1013.20,10.00,M,SCT,BKN,M,M,13000.00,22000.00,M,M,M,M,M,M,M,M,M,87.31,KLAS 140356Z 20004KT 10SM SCT130 BKN220 30/18 A2999 RMK AO2 SLP132 T03000178,M
NFL,2022-08-14 03:56,-118.7010,39.4166,1199.00,81.00,41.00,24.14,310.00,8.00,0.00,30.04,1014.10,10.00,M,CLR,M,M,M,M,M,M,M,M,M,M,M,M,M,M,79.43,KNFL 140356Z AUTO 31008KT 10SM CLR 27/05 A3004 RMK AO2 SLP141 T02720050,M
EKO,2022-08-14 03:56,-115.7860,40.8242,1367.00,74.00,47.00,38.26,40.00,11.00,0.00,30.13,1014.70,10.00,M,CLR,M,M,M,M,M,M,M,M,M,M,M,M,M,M,73.90,KEKO 140356Z AUTO 04011KT 10SM CLR 23/08 A3013 RMK AO2 SLP147 T02330083,M
LSV,2022-08-14 03:59,-115.0343,36.2362,570.00,85.00,67.60,55.88,40.00,3.00,0.00,29.96,1012.20,10.00,M,BKN,M,M,M,16000.00,M,M,M,M,M,M,M,M,M,M,88.18,KLSV 140359Z 04003KT 10SM BKN160 30/20 A2996 RMK SLP122 T02950198 $,M
CXP,2022-08-14 04:10,-119.7326,39.1923,1431.00,77.00,32.00,19.30,330.00,4.00,0.00,30.15,M,10.00,M,CLR,M,M,M,M,M,M,M,M,M,M,M,M,M,M,77.00,KCXP 140410Z AUTO 33004KT 10SM CLR 25/M00 A3015 RMK AO2,M
MEV,2022-08-14 04:15,-119.7500,38.9963,1441.42,69.80,35.60,28.39,90.00,9.00,0.00,30.14,M,10.00,M,CLR,M,M,M,M,M,M,M,M,M,M,M,M,M,M,69.80,KMEV 140415Z AUTO 09009KT 10SM CLR 21/02 A3014 RMK AO2,M
BVU,2022-08-14 04:15,-114.8611,35.9475,671.00,84.20,66.20,54.80,0.00,0.00,0.00,30.00,M,M,M,M,M,M,M,M,M,M,M,M,M,M,M,M,M,M,86.50,KBVU 140415Z AUTO 00000KT 29/19 A3000 RMK AO2 PWINO TSNO,M
RTS,2022-08-14 04:15,-119.8764,39.6682,1539.00,71.60,26.60,18.55,320.00,7.00,0.00,30.19,M,10.00,M,CLR,M,M,M,M,M,M,M,M,M,M,M,M,M,M,71.60,KRTS 140415Z AUTO 32007KT 10SM CLR 22/M03 A3019 RMK AO2,M
BAM,2022-08-14 04:15,-116.8743,40.5990,1382.36,78.80,30.20,16.90,310.00,7.00,0.00,30.09,M,10.00,M,CLR,M,M,M,M,M,M,M,M,M,M,M,M,M,M,78.80,KBAM 140415Z AUTO 31007KT 10SM CLR 26/M01 A3009 RMK AO1,M
HTH,2022-08-14 04:15,-118.6315,38.5448,1282.89,86.00,33.80,15.48,330.00,9.00,0.00,30.06,M,10.00,15.00,CLR,M,M,M,M,M,M,M,M,M,M,M,M,M,M,82.66,KHTH 140415Z AUTO 33009G15KT 10SM CLR 30/01 A3006 RMK A01,M
TMT,2022-08-14 04:15,-117.1971,39.4643,1749.34,70.50,40.60,33.73,60.00,3.00,0.00,30.20,M,10.00,M,CLR,M,M,M,M,M,M,M,M,M,M,M,M,M,M,70.50,KTMT 140415Z AUTO 06003KT 10SM CLR 21/05 A3020 RMK AO2 T02140048,M
CXP,2022-08-14 04:30,-119.7326,39.1923,1431.00,77.00,32.00,19.30,360.00,4.00,0.00,30.16,M,10.00,M,CLR,M,M,M,M,M,M,M,M,M,M,M,M,M,M,77.00,KCXP 140430Z AUTO 36004KT 10SM CLR 25/M00 A3016 RMK AO2,M
RTS,2022-08-14 04:35,-119.8764,39.6682,1539.00,69.80,26.60,19.72,290.00,11.00,0.00,30.19,M,10.00,M,CLR,M,M,M,M,M,M,M,M,M,M,M,M,M,M,69.80,KRTS 140435Z AUTO 29011KT 10SM CLR 21/M03 A3019 RMK AO2,M
TMT,2022-08-14 04:35,-117.1971,39.4643,1749.34,67.00,42.60,40.95,0.00,0.00,0.00,30.20,M,10.00,M,CLR,M,M,M,M,M,M,M,M,M,M,M,M,M,M,67.10,KTMT 140435Z AUTO 00000KT 10SM CLR 20/06 A3020 RMK AO2 T01950059,M
MEV,2022-08-14 04:35,-119.7500,38.9963,1441.42,66.20,35.60,32.14,90.00,7.00,0.00,30.15,M,10.00,M,CLR,M,M,M,M,M,M,M,M,M,M,M,M,M,M,66.20,KMEV 140435Z AUTO 09007KT 10SM CLR 19/02 A3015 RMK AO2,M
BAM,2022-08-14 04:35,-116.8743,40.5990,1382.36,77.00,30.20,17.94,310.00,7.00,0.00,30.10,M,10.00,M,CLR,M,M,M,M,M,M,M,M,M,M,M,M,M,M,77.00,KBAM 140435Z AUTO 31007KT 10SM CLR 25/M01 A3010 RMK AO1,M
HTH,2022-08-14 04:35,-118.6315,38.5448,1282.89,86.00,28.40,12.44,320.00,5.00,0.00,30.07,M,10.00,11.00,CLR,M,M,M,M,M,M,M,M,M,M,M,M,M,M,82.54,KHTH 140435Z AUTO 32005G11KT 10SM CLR 30/M02 A3007 RMK A01,M
BVU,2022-08-14 04:35,-114.8611,35.9475,671.00,84.20,66.20,54.80,350.00,4.00,0.00,29.99,M,M,M,M,M,M,M,M,M,M,M,M,M,M,M,M,M,M,86.50,KBVU 140435Z AUTO 35004KT 29/19 A2999 RMK AO2 PWINO TSNO,M
CXP,2022-08-14 04:50,-119.7326,39.1923,1431.00,77.00,32.00,19.30,350.00,6.00,0.00,30.17,M,10.00,M,CLR,M,M,M,M,M,M,M,M,M,M,M,M,M,M,77.00,KCXP 140450Z AUTO 35006KT 10SM CLR 25/00 A3017 RMK AO2,M
P68,2022-08-14 04:53,-116.0056,39.6014,1993.00,71.00,49.00,45.33,180.00,8.00,0.00,30.22,1014.10,M,M,M,M,M,M,M,M,M,M,M,M,M,M,M,M,M,71.10,KP68 140453Z AUTO 18008KT 22/09 A3022 RMK AO1 SLP141 T02170094,M
LOL,2022-08-14 04:53,-118.5701,40.0684,1192.43,72.00,18.00,12.74,60.00,10.00,0.00,30.05,1013.40,10.00,17.00,CLR,M,M,M,M,M,M,M,M,M,M,M,M,M,M,72.00,KLOL 140453Z AUTO 06010G17KT 10SM CLR 22/M08 A3005 RMK AO2 SLP134 T02221078,M
VGT,2022-08-14 04:53,-115.1933,36.2111,667.00,88.00,64.00,44.95,0.00,0.00,0.00,29.99,1014.60,10.00,M,CLR,M,M,M,M,M,M,M,M,M,M,M,M,M,M,89.34,KVGT 140453Z AUTO 00000KT 10SM CLR 31/18 A2999 RMK AO2 SLP146 T03110178,M
ELY,2022-08-14 04:53,-114.8453,39.2950,1909.00,60.00,57.00,89.48,0.00,0.00,0.00,30.29,1016.30,10.00,M,CLR,M,M,M,M,M,M,M,M,M,M,M,M,M,M,60.10,KELY 140453Z AUTO 00000KT 10SM CLR 16/14 A3029 RMK AO2 SLP163 T01560139 $,M
DRA,2022-08-14 04:53,-116.0278,36.6206,1009.00,84.00,57.00,39.83,90.00,4.00,0.00,30.05,1012.60,10.00,M,CLR,M,M,M,M,M,M,M,M,M,M,M,M,M,M,83.26,KDRA 140453Z AUTO 09004KT 10SM CLR 29/14 A3005 RMK AO2 SLP126 T02890139,M
BVU,2022-08-14 04:55,-114.8611,35.9475,671.00,84.20,64.40,51.47,350.00,5.00,0.00,29.99,M,M,M,M,M,M,M,M,M,M,M,M,M,M,M,M,M,M,85.71,KBVU 140455Z AUTO 35005KT 29/18 A2999 RMK AO2 PWINO TSNO,M
TMT,2022-08-14 04:55,-117.1971,39.4643,1749.34,65.70,43.70,44.83,0.00,0.00,0.00,30.21,M,10.00,M,CLR,M,M,M,M,M,M,M,M,M,M,M,M,M,M,65.70,KTMT 140455Z AUTO 00000KT 10SM CLR 19/07 A3021 RMK AO2 T01870065,M
HTH,2022-08-14 04:55,-118.6315,38.5448,1282.89,84.20,26.60,12.23,330.00,7.00,0.00,30.07,M,10.00,M,CLR,M,M,M,M,M,M,M,M,M,M,M,M,M,M,81.13,KHTH 140455Z AUTO 33007KT 10SM CLR 29/M03 A3007 RMK A01,M
BAM,2022-08-14 04:55,-116.8743,40.5990,1382.36,77.00,28.40,16.67,310.00,8.00,0.00,30.10,M,10.00,M,CLR,M,M,M,M,M,M,M,M,M,M,M,M,M,M,77.00,KBAM 140455Z AUTO 31008KT 10SM CLR 25/M02 A3010 RMK AO1,M
MEV,2022-08-14 04:55,-119.7500,38.9963,1441.42,64.40,35.60,34.22,140.00,7.00,0.00,30.16,M,10.00,M,CLR,M,M,M,M,M,M,M,M,M,M,M,M,M,M,64.40,KMEV 140455Z AUTO 14007KT 10SM CLR 18/02 A3016 RMK AO2,M
RTS,2022-08-14 04:55,-119.8764,39.6682,1539.00,71.60,26.60,18.55,310.00,7.00,0.00,30.20,M,10.00,14.00,CLR,M,M,M,M,M,M,M,M,M,M,M,M,M,M,71.60,KRTS 140455Z AUTO 31007G14KT 10SM CLR 22/M03 A3020 RMK AO2,M
RNO,2022-08-14 04:55,-119.7711,39.4839,1341.00,79.00,32.00,18.06,300.00,6.00,0.00,30.14,1014.60,10.00,M,FEW,M,M,M,12000.00,M,M,M,M,M,M,M,M,M,M,79.00,KRNO 140455Z 30006KT 10SM FEW120 26/00 A3014 RMK AO2 SLP146 T02610000,M
WMC,2022-08-14 04:56,-117.8072,40.9019,1315.00,64.00,30.00,27.71,180.00,3.00,0.00,30.09,1014.10,10.00,M,CLR,M,M,M,M,M,M,M,M,M,M,M,M,M,M,64.00,KWMC 140456Z AUTO 18003KT 10SM CLR 18/M01 A3009 RMK AO2 SLP141 T01781011 $,M
TPH,2022-08-14 04:56,-117.0904,38.0505,1654.00,72.00,54.00,53.09,140.00,8.00,0.00,30.21,1014.60,10.00,M,CLR,M,M,M,M,M,M,M,M,M,M,M,M,M,M,72.00,KTPH 140456Z AUTO 14008KT 10SM CLR 22/12 A3021 RMK AO2 SLP146 T02220122 $,M
EKO,2022-08-14 04:56,-115.7860,40.8242,1367.00,70.00,48.00,45.50,50.00,5.00,0.00,30.15,1015.20,10.00,M,CLR,M,M,M,M,M,M,M,M,M,M,M,M,M,M,70.00,KEKO 140456Z AUTO 05005KT 10SM CLR 21/09 A3015 RMK AO2 SLP152 T02110089,M
HND,2022-08-14 04:56,-115.1344,35.9729,742.79,83.00,65.00,54.62,190.00,3.00,0.00,30.04,1016.00,10.00,M,CLR,M,M,M,M,M,M,M,M,M,M,M,M,M,M,84.64,KHND 140456Z AUTO 19003KT 10SM CLR 28/18 A3004 RMK AO2 SLP160 T02830183,M
NFL,2022-08-14 04:56,-118.7010,39.4166,1199.00,76.00,33.00,20.92,320.00,9.00,0.00,30.05,1014.50,10.00,M,CLR,M,M,M,M,M,M,M,M,M,M,M,M,M,M,75.90,KNFL 140456Z AUTO 32009KT 10SM CLR 24/01 A3005 RMK AO2 SLP145 T02440006,M
LAS,2022-08-14 04:56,-115.1634,36.0719,663.00,86.00,63.00,46.25,0.00,0.00,0.00,29.99,1013.10,10.00,M,BKN,BKN,M,M,13000.00,22000.00,M,M,M,M,M,M,M,M,M,86.88,KLAS 140456Z 00000KT 10SM BKN130 BKN220 30/17 A2999 RMK AO2 SLP131 T03000172,M
LSV,2022-08-14 04:58,-115.0343,36.2362,570.00,87.80,69.80,55.29,350.00,4.00,0.00,29.99,M,10.00,M,BKN,M,M,M,15000.00,M,M,M,M,M,M,M,M,M,M,92.71,KLSV 140458Z 35004KT 10SM BKN150 31/21 A2999 RMK SLPNO WND DATA ESTMD $,M
CXP,2022-08-14 05:10,-119.7326,39.1923,1431.00,73.40,33.80,23.39,0.00,0.00,0.00,30.17,M,10.00,M,CLR,M,M,M,M,M,M,M,M,M,M,M,M,M,M,73.40,KCXP 140510Z AUTO 00000KT 10SM CLR 23/01 A3017 RMK AO2,M
BVU,2022-08-14 05:15,-114.8611,35.9475,671.00,84.20,64.40,51.47,350.00,5.00,0.00,29.99,M,M,M,M,M,M,M,M,M,M,M,M,M,M,M,M,M,M,85.71,KBVU 140515Z AUTO 35005KT 29/18 A2999 RMK AO2 PWINO TSNO,M
TMT,2022-08-14 05:15,-117.1971,39.4643,1749.34,66.70,43.50,42.98,0.00,0.00,0.00,30.21,M,10.00,M,CLR,M,M,M,M,M,M,M,M,M,M,M,M,M,M,66.70,KTMT 140515Z AUTO 00000KT 10SM CLR 19/06 A3021 RMK AO2 T01930064,M
HTH,2022-08-14 05:15,-118.6315,38.5448,1282.89,82.40,39.20,21.51,330.00,7.00,0.00,30.08,M,10.00,M,CLR,M,M,M,M,M,M,M,M,M,M,M,M,M,M,80.21,KHTH 140515Z AUTO 33007KT 10SM CLR 28/04 A3008 RMK A01,M
BAM,2022-08-14 05:15,-116.8743,40.5990,1382.36,78.80,28.40,15.71,310.00,9.00,0.00,30.11,M,10.00,M,CLR,M,M,M,M,M,M,M,M,M,M,M,M,M,M,78.80,KBAM 140515Z AUTO 31009KT 10SM CLR 26/M02 A3011 RMK AO1,M
MEV,2022-08-14 05:15,-119.7500,38.9963,1441.42,60.80,35.60,38.85,100.00,6.00,0.00,30.16,M,10.00,M,CLR,M,M,M,M,M,M,M,M,M,M,M,M,M,M,60.80,KMEV 140515Z AUTO 10006KT 10SM CLR 16/02 A3016 RMK AO2,M
RTS,2022-08-14 05:15,-119.8764,39.6682,1539.00,68.00,26.60,20.98,330.00,6.00,0.00,30.20,M,10.00,M,CLR,M,M,M,M,M,M,M,M,M,M,M,M,M,M,68.00,KRTS 140515Z AUTO 33006KT 10SM CLR 20/M03 A3020 RMK AO2,M
CXP,2022-08-14 05:30,-119.7326,39.1923,1431.00,73.40,33.80,23.39,0.00,0.00,0.00,30.17,M,10.00,M,CLR,M,M,M,M,M,M,M,M,M,M,M,M,M,M,73.40,KCXP 140530Z AUTO 00000KT 10SM CLR 23/01 A3017 RMK AO2,M
HTH,2022-08-14 05:35,-118.6315,38.5448,1282.89,84.20,28.40,13.18,20.00,7.00,0.00,30.08,M,10.00,12.00,CLR,M,M,M,M,M,M,M,M,M,M,M,M,M,M,81.25,KHTH 140535Z AUTO 02007G12KT 10SM CLR 29/M02 A3008 RMK A01,M
BAM,2022-08-14 05:35,-116.8743,40.5990,1382.36,77.00,26.60,15.48,320.00,7.00,0.00,30.11,M,10.00,M,CLR,M,M,M,M,M,M,M,M,M,M,M,M,M,M,77.00,KBAM 140535Z AUTO 32007KT 10SM CLR 25/M03 A3011 RMK AO1,M
MEV,2022-08-14 05:35,-119.7500,38.9963,1441.42,60.80,35.60,38.85,0.00,0.00,0.00,30.16,M,10.00,M,CLR,M,M,M,M,M,M,M,M,M,M,M,M,M,M,60.80,KMEV 140535Z AUTO 00000KT 10SM CLR 16/02 A3016 RMK AO2,M
RTS,2022-08-14 05:35,-119.8764,39.6682,1539.00,69.80,26.60,19.72,280.00,8.00,0.00,30.20,M,10.00,M,CLR,M,M,M,M,M,M,M,M,M,M,M,M,M,M,69.80,KRTS 140535Z AUTO 28008KT 10SM CLR 21/M03 A3020 RMK AO2,M
BVU,2022-08-14 05:35,-114.8611,35.9475,671.00,84.20,64.40,51.47,360.00,6.00,0.00,29.99,M,M,M,M,M,M,M,M,M,M,M,M,M,M,M,M,M,M,85.71,KBVU 140535Z AUTO 36006KT 29/18 A2999 RMK AO2 PWINO TSNO,M
TMT,2022-08-14 05:35,-117.1971,39.4643,1749.34,62.60,43.00,48.65,230.00,4.00,0.00,30.21,M,10.00,M,CLR,M,M,M,M,M,M,M,M,M,M,M,M,M,M,62.60,KTMT 140535Z AUTO 23004KT 10SM CLR 17/06 A3021 RMK AO2 T01700061,M
CXP,2022-08-14 05:50,-119.7326,39.1923,1431.00,71.60,32.00,23.13,300.00,3.00,0.00,30.17,M,10.00,M,CLR,M,M,M,M,M,M,M,M,M,M,M,M,M,M,71.60,KCXP 140550Z AUTO 30003KT 10SM CLR 22/00 A3017 RMK AO2,M
ELY,2022-08-14 05:53,-114.8453,39.2950,1909.00,58.00,57.00,96.81,0.00,0.00,0.00,30.29,1016.00,10.00,M,CLR,M,M,M,M,M,M,M,M,M,M,M,M,M,M,57.90,KELY 140553Z AUTO 00000KT 10SM CLR 14/14 A3029 RMK AO2 SLP160 60011 T01440139 10172 20144 50001 $,M
LOL,2022-08-14 05:53,-118.5701,40.0684,1192.43,78.00,12.00,7.99,30.00,8.00,0.00,30.06,1013.00,10.00,M,CLR,M,M,M,M,M,M,M,M,M,M,M,M,M,M,78.10,KLOL 140553Z AUTO 03008KT 10SM CLR 26/M11 A3006 RMK AO2 SLP130 T02561111 10356 20222 51012,M
P68,2022-08-14 05:53,-116.0056,39.6014,1993.00,68.00,48.00,48.73,170.00,7.00,0.00,30.22,1014.40,M,M,M,M,M,M,M,M,M,M,M,M,M,M,M,M,M,68.00,KP68 140553Z AUTO 17007KT 20/09 A3022 RMK AO1 SLP144 T02000089 10278 20200 51007,M
DRA,2022-08-14 05:53,-116.0278,36.6206,1009.00,84.00,61.00,45.96,120.00,6.00,0.00,30.05,1012.50,10.00,M,CLR,M,M,M,M,M,M,M,M,M,M,M,M,M,M,84.32,KDRA 140553Z AUTO 12006KT 10SM CLR 29/16 A3005 RMK AO2 SLP125 T02890161 10333 20289 50013,M
VGT,2022-08-14 05:53,-115.1933,36.2111,667.00,87.00,65.00,47.73,0.00,0.00,0.00,29.98,1014.40,10.00,M,CLR,M,M,M,M,M,M,M,M,M,M,M,M,M,M,88.86,KVGT 140553Z AUTO 00000KT 10SM CLR 31/18 A2998 RMK AO2 SLP144 T03060183 10322 20306 50009,M
RTS,2022-08-14 05:55,-119.8764,39.6682,1539.00,66.20,26.60,22.33,280.00,6.00,0.00,30.21,M,10.00,M,CLR,M,M,M,M,M,M,M,M,M,M,M,M,M,M,66.20,KRTS 140555Z AUTO 28006KT 10SM CLR 19/M03 A3021 RMK AO2,M
MEV,2022-08-14 05:55,-119.7500,38.9963,1441.42,59.00,35.60,41.42,0.00,0.00,0.00,30.16,M,10.00,M,CLR,M,M,M,M,M,M,M,M,M,M,M,M,M,M,59.00,KMEV 140555Z AUTO 00000KT 10SM CLR 15/02 A3016 RMK AO2,M
BAM,2022-08-14 05:55,-116.8743,40.5990,1382.36,71.60,28.40,19.98,10.00,6.00,0.00,30.11,M,10.00,M,CLR,M,M,M,M,M,M,M,M,M,M,M,M,M,M,71.60,KBAM 140555Z AUTO 01006KT 10SM CLR 22/M02 A3011 RMK AO1,M
HTH,2022-08-14 05:55,-118.6315,38.5448,1282.89,80.60,35.60,19.79,170.00,4.00,0.00,30.09,M,10.00,M,CLR,M,M,M,M,M,M,M,M,M,M,M,M,M,M,78.94,KHTH 140555Z AUTO 17004KT 10SM CLR 27/02 A3009 RMK A01,M
BVU,2022-08-14 05:55,-114.8611,35.9475,671.00,84.20,64.40,51.47,360.00,4.00,0.00,29.99,M,M,M,M,M,M,M,M,M,M,M,M,M,M,M,M,M,M,85.71,KBVU 140555Z AUTO 36004KT 29/18 A2999 RMK AO2 PWINO TSNO,M
TMT,2022-08-14 05:55,-117.1971,39.4643,1749.34,60.40,42.40,51.39,260.00,3.00,0.00,30.21,M,10.00,M,CLR,M,M,M,M,M,M,M,M,M,M,M,M,M,M,60.40,KTMT 140555Z AUTO 26003KT 10SM CLR 16/06 A3021 RMK AO2 T01580058,M
RNO,2022-08-14 05:55,-119.7711,39.4839,1341.00,77.00,32.00,19.30,320.00,7.00,0.00,30.15,1014.90,10.00,M,FEW,M,M,M,12000.00,M,M,M,M,M,M,M,M,M,M,77.00,KRNO 140555Z 32007KT 10SM FEW120 25/00 A3015 RMK AO2 SLP149 T02500000 10350 20250 51018,M
TPH,2022-08-14 05:56,-117.0904,38.0505,1654.00,68.00,56.00,65.22,0.00,0.00,0.00,30.21,1015.00,10.00,M,CLR,M,M,M,M,M,M,M,M,M,M,M,M,M,M,68.00,KTPH 140556Z AUTO 00000KT 10SM CLR 20/13 A3021 RMK AO2 SLP150 T02000133 10294 20194 51013 $,M
HND,2022-08-14 05:56,-115.1344,35.9729,742.79,81.00,67.00,62.28,160.00,4.00,0.00,30.03,1015.90,10.00,M,CLR,M,M,M,M,M,M,M,M,M,M,M,M,M,M,83.40,KHND 140556Z AUTO 16004KT 10SM CLR 27/19 A3003 RMK AO2 SLP159 T02720194 10306 20272 50010,M
EKO,2022-08-14 05:56,-115.7860,40.8242,1367.00,67.00,50.00,54.54,80.00,3.00,0.00,30.16,1015.80,10.00,M,CLR,M,M,M,M,M,M,M,M,M,M,M,M,M,M,66.90,KEKO 140556Z AUTO 08003KT 10SM CLR 19/10 A3016 RMK AO2 SLP158 T01940100 10306 20194 51018,M
WMC,2022-08-14 05:56,-117.8072,40.9019,1315.00,64.00,27.00,24.51,0.00,0.00,0.00,30.09,1014.00,10.00,M,CLR,M,M,M,M,M,M,M,M,M,M,M,M,M,M,64.00,KWMC 140556Z AUTO 00000KT 10SM CLR 18/M03 A3009 RMK AO2 SLP140 T01781028 10356 20161 51008 $,M
NFL,2022-08-14 05:56,-118.7010,39.4166,1199.00,74.00,32.00,21.40,310.00,6.00,0.00,30.06,1014.70,10.00,M,CLR,M,M,M,M,M,M,M,M,M,M,M,M,M,M,73.90,KNFL 140556Z AUTO 31006KT 10SM CLR 23/00 A3006 RMK AO2 SLP147 T02330000 10356 20233 51013,M
LAS,2022-08-14 05:56,-115.1634,36.0719,663.00,85.00,64.00,49.62,0.00,0.00,0.00,29.99,1013.10,10.00,M,BKN,BKN,M,M,13000.00,22000.00,M,M,M,M,M,M,M,M,M,86.23,KLAS 140556Z 00000KT 10SM BKN130 BKN220 29/18 A2999 RMK AO2 SLP131 T02940178 10306 20294 51009,M
LSV,2022-08-14 06:06,-115.0343,36.2362,570.00,84.20,68.00,58.32,0.00,0.00,0.00,29.98,M,10.00,M,SCT,SCT,M,M,12000.00,20000.00,M,M,M,M,M,M,M,M,M,87.40,KLSV 140606Z 00000KT 10SM SCT120 SCT200 29/20 A2998 RMK SLPNO WND DATA ESTMD $,M
CXP,2022-08-14 06:10,-119.7326,39.1923,1431.00,69.80,32.00,24.59,0.00,0.00,0.00,30.18,M,10.00,M,CLR,M,M,M,M,M,M,M,M,M,M,M,M,M,M,69.80,KCXP 140610Z AUTO 00000KT 10SM CLR 21/00 A3018 RMK AO2,M
RTS,2022-08-14 06:15,-119.8764,39.6682,1539.00,64.40,26.60,23.77,300.00,7.00,0.00,30.21,M,10.00,M,CLR,M,M,M,M,M,M,M,M,M,M,M,M,M,M,64.40,KRTS 140615Z AUTO 30007KT 10SM CLR 18/M03 A3021 RMK AO2,M
BAM,2022-08-14 06:15,-116.8743,40.5990,1382.36,69.80,28.40,21.24,70.00,5.00,0.00,30.12,M,10.00,M,CLR,M,M,M,M,M,M,M,M,M,M,M,M,M,M,69.80,KBAM 140615Z AUTO 07005KT 10SM CLR 21/M02 A3012 RMK AO1,M
HTH,2022-08-14 06:15,-118.6315,38.5448,1282.89,80.60,30.20,15.94,M,6.00,0.00,30.10,M,10.00,M,CLR,M,M,M,M,M,M,M,M,M,M,M,M,M,M,78.77,KHTH 140615Z AUTO VRB06KT 10SM CLR 27/M01 A3010 RMK A01,M
TMT,2022-08-14 06:15,-117.1971,39.4643,1749.34,57.60,42.00,56.15,0.00,0.00,0.00,30.22,M,10.00,M,CLR,M,M,M,M,M,M,M,M,M,M,M,M,M,M,57.60,KTMT 140615Z AUTO 00000KT 10SM CLR 14/06 A3022 RMK AO2 T01420056,M
BVU,2022-08-14 06:15,-114.8611,35.9475,671.00,84.20,64.40,51.47,10.00,5.00,0.00,29.99,M,M,M,M,M,M,M,M,M,M,M,M,M,M,M,M,M,M,85.71,KBVU 140615Z AUTO 01005KT 29/18 A2999 RMK AO2 PWINO TSNO,M
MEV,2022-08-14 06:15,-119.7500,38.9963,1441.42,60.80,35.60,38.85,M,4.00,0.00,30.16,M,10.00,M,CLR,M,M,M,M,M,M,M,M,M,M,M,M,M,M,60.80,KMEV 140615Z AUTO VRB04KT 10SM CLR 16/02 A3016 RMK AO2,M
CXP,2022-08-14 06:30,-119.7326,39.1923,1431.00,68.00,32.00,26.15,270.00,3.00,0.00,30.17,M,10.00,M,CLR,M,M,M,M,M,M,M,M,M,M,M,M,M,M,68.00,KCXP 140630Z AUTO 27003KT 10SM CLR 20/00 A3017 RMK AO2,M
MEV,2022-08-14 06:35,-119.7500,38.9963,1441.42,57.20,35.60,44.19,120.00,5.00,0.00,30.17,M,10.00,M,CLR,M,M,M,M,M,M,M,M,M,M,M,M,M,M,57.20,KMEV 140635Z AUTO 12005KT 10SM CLR 14/02 A3017 RMK AO2,M
HTH,2022-08-14 06:35,-118.6315,38.5448,1282.89,82.40,24.80,12.03,290.00,7.00,0.00,30.10,M,10.00,M,CLR,M,M,M,M,M,M,M,M,M,M,M,M,M,M,79.79,KHTH 140635Z AUTO 29007KT 10SM CLR 28/M04 A3010 RMK A01,M
TMT,2022-08-14 06:35,-117.1971,39.4643,1749.34,57.60,41.50,54.87,220.00,5.00,0.00,30.22,M,10.00,M,CLR,M,M,M,M,M,M,M,M,M,M,M,M,M,M,57.60,KTMT 140635Z AUTO 22005KT 10SM CLR 14/05 A3022 RMK AO2 T01420053,M
BVU,2022-08-14 06:35,-114.8611,35.9475,671.00,84.20,64.40,51.47,10.00,5.00,0.00,29.99,M,M,M,M,M,M,M,M,M,M,M,M,M,M,M,M,M,M,85.71,KBVU 140635Z AUTO 01005KT 29/18 A2999 RMK AO2 PWINO TSNO,M
BAM,2022-08-14 06:35,-116.8743,40.5990,1382.36,68.00,28.40,22.59,100.00,3.00,0.00,30.12,M,10.00,M,CLR,M,M,M,M,M,M,M,M,M,M,M,M,M,M,68.00,KBAM 140635Z AUTO 10003KT 10SM CLR 20/M02 A3012 RMK AO1,M
RTS,2022-08-14 06:35,-119.8764,39.6682,1539.00,66.20,26.60,22.33,260.00,9.00,0.00,30.21,M,10.00,M,CLR,M,M,M,M,M,M,M,M,M,M,M,M,M,M,66.20,KRTS 140635Z AUTO 26009KT 10SM CLR 19/M03 A3021 RMK AO2,M
CXP,2022-08-14 06:50,-119.7326,39.1923,1431.00,69.80,35.60,28.39,160.00,5.00,0.00,30.18,M,10.00,M,CLR,M,M,M,M,M,M,M,M,M,M,M,M,M,M,69.80,KCXP 140650Z AUTO 16005KT 10SM CLR 21/02 A3018 RMK AO2,M
VGT,2022-08-14 06:53,-115.1933,36.2111,667.00,87.00,66.00,49.60,0.00,0.00,0.00,29.98,1014.20,10.00,M,CLR,M,M,M,M,M,M,M,M,M,M,M,M,M,M,89.44,KVGT 140653Z AUTO 00000KT 10SM CLR 31/19 A2998 RMK AO2 SLP142 T03060189,M
DRA,2022-08-14 06:53,-116.0278,36.6206,1009.00,83.00,62.00,49.51,130.00,7.00,0.00,30.04,1012.10,10.00,M,CLR,M,M,M,M,M,M,M,M,M,M,M,M,M,M,83.70,KDRA 140653Z AUTO 13007KT 10SM CLR 28/17 A3004 RMK AO2 SLP121 T02830167,M
ELY,2022-08-14 06:53,-114.8453,39.2950,1909.00,57.00,56.00,96.10,170.00,5.00,0.00,30.29,1015.80,10.00,M,CLR,M,M,M,M,M,M,M,M,M,M,M,M,M,M,57.00,KELY 140653Z AUTO 17005KT 10SM CLR 14/13 A3029 RMK AO2 SLP158 T01390133 403110139 $,M
P68,2022-08-14 06:53,-116.0056,39.6014,1993.00,66.00,49.00,54.01,130.00,7.00,0.00,30.23,1014.50,M,M,M,M,M,M,M,M,M,M,M,M,M,M,M,M,M,66.00,KP68 140653Z AUTO 13007KT 19/09 A3023 RMK AO1 SLP145 T01890094,M
LOL,2022-08-14 06:53,-118.5701,40.0684,1192.43,69.00,14.00,11.82,50.00,9.00,0.00,30.07,1013.50,10.00,M,CLR,M,M,M,M,M,M,M,M,M,M,M,M,M,M,69.10,KLOL 140653Z AUTO 05009KT 10SM CLR 21/M10 A3007 RMK AO2 SLP135 T02061100,M
BAM,2022-08-14 06:55,-116.8743,40.5990,1382.36,69.80,30.20,22.86,120.00,4.00,0.00,30.13,M,10.00,M,CLR,M,M,M,M,M,M,M,M,M,M,M,M,M,M,69.80,KBAM 140655Z AUTO 12004KT 10SM CLR 21/M01 A3013 RMK AO1,M
TMT,2022-08-14 06:55,-117.1971,39.4643,1749.34,61.30,42.30,49.58,210.00,8.00,0.00,30.22,M,10.00,M,CLR,M,M,M,M,M,M,M,M,M,M,M,M,M,M,61.30,KTMT 140655Z AUTO 21008KT 10SM CLR 16/06 A3022 RMK AO2 T01630057,M
MEV,2022-08-14 06:55,-119.7500,38.9963,1441.42,57.20,35.60,44.19,70.00,5.00,0.00,30.17,M,10.00,M,CLR,M,M,M,M,M,M,M,M,M,M,M,M,M,M,57.20,KMEV 140655Z AUTO 07005KT 10SM CLR 14/02 A3017 RMK AO2,M
RTS,2022-08-14 06:55,-119.8764,39.6682,1539.00,64.40,26.60,23.77,290.00,5.00,0.00,30.22,M,10.00,10.00,CLR,M,M,M,M,M,M,M,M,M,M,M,M,M,M,64.40,KRTS 140655Z AUTO 29005G10KT 10SM CLR 18/M03 A3022 RMK AO2,M
RNO,2022-08-14 06:55,-119.7711,39.4839,1341.00,74.00,32.00,21.40,320.00,6.00,0.00,30.16,1015.20,10.00,M,FEW,M,M,M,12000.00,M,M,M,M,M,M,M,M,M,M,73.90,KRNO 140655Z 32006KT 10SM FEW120 23/00 A3016 RMK AO2 SLP152 T02330000,M
BVU,2022-08-14 06:55,-114.8611,35.9475,671.00,84.20,64.40,51.47,0.00,0.00,0.00,29.99,M,M,M,M,M,M,M,M,M,M,M,M,M,M,M,M,M,M,85.71,KBVU 140655Z AUTO 00000KT 29/18 A2999 RMK AO2 PWINO TSNO,M
LSV,2022-08-14 06:55,-115.0343,36.2362,570.00,84.20,64.40,51.47,0.00,0.00,0.00,29.98,1012.90,10.00,M,SCT,BKN,M,M,12000.00,20000.00,M,M,M,M,M,M,M,M,M,85.71,KLSV 140655Z 00000KT 10SM SCT120 BKN200 29/18 A2998 RMK SLP129 WND DATA ESTMD ALSTG/SLP ESTMD $,M
HTH,2022-08-14 06:55,-118.6315,38.5448,1282.89,82.40,21.20,10.34,320.00,12.00,0.00,30.10,M,10.00,M,CLR,M,M,M,M,M,M,M,M,M,M,M,M,M,M,79.55,KHTH 140655Z AUTO 32012KT 10SM CLR 28/M06 A3010 RMK A01,M
TPH,2022-08-14 06:56,-117.0904,38.0505,1654.00,67.00,59.00,75.74,0.00,0.00,0.00,30.21,1014.80,10.00,M,CLR,M,M,M,M,M,M,M,M,M,M,M,M,M,M,66.90,KTPH 140656Z AUTO 00000KT 10SM CLR 19/15 A3021 RMK AO2 SLP148 T01940150 $,M
EKO,2022-08-14 06:56,-115.7860,40.8242,1367.00,64.00,51.00,62.85,90.00,4.00,0.00,30.17,1016.00,10.00,M,CLR,M,M,M,M,M,M,M,M,M,M,M,M,M,M,64.00,KEKO 140656Z AUTO 09004KT 10SM CLR 18/11 A3017 RMK AO2 SLP160 T01780106,M
LAS,2022-08-14 06:56,-115.1634,36.0719,663.00,84.00,65.00,52.71,180.00,3.00,0.00,29.99,1013.00,10.00,M,SCT,BKN,BKN,M,13000.00,17000.00,22000.00,M,M,M,M,M,M,M,M,85.72,KLAS 140656Z 18003KT 10SM SCT130 BKN170 BKN220 29/18 A2999 RMK AO2 SLP130 T02890183,M
WMC,2022-08-14 06:56,-117.8072,40.9019,1315.00,63.00,28.00,26.45,0.00,0.00,0.00,30.10,1014.00,10.00,M,CLR,M,M,M,M,M,M,M,M,M,M,M,M,M,M,63.00,KWMC 140656Z AUTO 00000KT 10SM CLR 17/M02 A3010 RMK AO2 SLP140 T01721022 $,M
NFL,2022-08-14 06:56,-118.7010,39.4166,1199.00,68.00,37.00,31.92,120.00,4.00,0.00,30.09,1015.50,10.00,M,CLR,M,M,M,M,M,M,M,M,M,M,M,M,M,M,68.00,KNFL 140656Z AUTO 12004KT 10SM CLR 20/03 A3009 RMK AO2 SLP155 T02000028,M
HND,2022-08-14 06:56,-115.1344,35.9729,742.79,80.00,66.00,62.17,170.00,5.00,0.00,30.03,1015.90,10.00,M,CLR,M,M,M,M,M,M,M,M,M,M,M,M,M,M,82.17,KHND 140656Z AUTO 17005KT 10SM CLR 27/19 A3003 RMK AO2 SLP159 T02670189 403060239,M
CXP,2022-08-14 07:10,-119.7326,39.1923,1431.00,68.00,33.80,28.11,M,3.00,0.00,30.18,M,10.00,M,CLR,M,M,M,M,M,M,M,M,M,M,M,M,M,M,68.00,KCXP 140710Z AUTO VRB03KT 10SM CLR 20/01 A3018 RMK AO2,M
HTH,2022-08-14 07:15,-118.6315,38.5448,1282.89,80.60,23.00,11.83,320.00,11.00,0.00,30.10,M,10.00,M,CLR,M,M,M,M,M,M,M,M,M,M,M,M,M,M,78.80,KHTH 140715Z AUTO 32011KT 10SM CLR 27/M05 A3010 RMK A01,M
MEV,2022-08-14 07:15,-119.7500,38.9963,1441.42,55.40,35.60,47.16,110.00,4.00,0.00,30.17,M,10.00,M,CLR,M,M,M,M,M,M,M,M,M,M,M,M,M,M,55.40,KMEV 140715Z AUTO 11004KT 10SM CLR 13/02 A3017 RMK AO2,M
BAM,2022-08-14 07:15,-116.8743,40.5990,1382.36,64.40,28.40,25.60,120.00,7.00,0.00,30.12,M,10.00,M,CLR,M,M,M,M,M,M,M,M,M,M,M,M,M,M,64.40,KBAM 140715Z AUTO 12007KT 10SM CLR 18/M02 A3012 RMK AO1,M
RTS,2022-08-14 07:15,-119.8764,39.6682,1539.00,62.60,26.60,25.32,320.00,6.00,0.00,30.22,M,10.00,M,CLR,M,M,M,M,M,M,M,M,M,M,M,M,M,M,62.60,KRTS 140715Z AUTO 32006KT 10SM CLR 17/M03 A3022 RMK AO2,M
TMT,2022-08-14 07:15,-117.1971,39.4643,1749.34,62.20,43.00,49.34,230.00,5.00,0.00,30.22,M,10.00,M,CLR,M,M,M,M,M,M,M,M,M,M,M,M,M,M,62.20,KTMT 140715Z AUTO 23005KT 10SM CLR 17/06 A3022 RMK AO2 T01680061,M
BVU,2022-08-14 07:15,-114.8611,35.9475,671.00,82.40,68.00,61.81,0.00,0.00,0.00,30.00,M,M,M,M,M,M,M,M,M,M,M,M,M,M,M,M,M,M,85.38,KBVU 140715Z AUTO 00000KT 28/20 A3000 RMK AO2 PWINO TSNO,M
CXP,2022-08-14 07:30,-119.7326,39.1923,1431.00,64.40,35.60,34.22,40.00,3.00,0.00,30.19,M,10.00,M,CLR,M,M,M,M,M,M,M,M,M,M,M,M,M,M,64.40,KCXP 140730Z AUTO 04003KT 10SM CLR 18/02 A3019 RMK AO2,M
TMT,2022-08-14 07:35,-117.1971,39.4643,1749.34,58.60,43.00,56.08,0.00,0.00,0.00,30.22,M,10.00,M,CLR,M,M,M,M,M,M,M,M,M,M,M,M,M,M,58.60,KTMT 140735Z AUTO 00000KT 10SM CLR 15/06 A3022 RMK AO2 T01480061,M
BVU,2022-08-14 07:35,-114.8611,35.9475,671.00,80.60,69.80,69.71,300.00,3.00,0.00,29.99,M,M,M,M,M,M,M,M,M,M,M,M,M,M,M,M,M,M,83.90,KBVU 140735Z AUTO 30003KT 27/21 A2999 RMK AO2 PWINO TSNO,M
RTS,2022-08-14 07:35,-119.8764,39.6682,1539.00,64.40,24.80,22.06,310.00,7.00,0.00,30.22,M,10.00,M,CLR,M,M,M,M,M,M,M,M,M,M,M,M,M,M,64.40,KRTS 140735Z AUTO 31007KT 10SM CLR 18/M04 A3022 RMK AO2,M
MEV,2022-08-14 07:35,-119.7500,38.9963,1441.42,55.40,37.40,50.64,0.00,0.00,0.00,30.18,M,10.00,M,CLR,M,M,M,M,M,M,M,M,M,M,M,M,M,M,55.40,KMEV 140735Z AUTO 00000KT 10SM CLR 13/03 A3018 RMK AO2,M
HTH,2022-08-14 07:35,-118.6315,38.5448,1282.89,80.60,28.40,14.81,M,M,0.00,30.10,M,10.00,M,M,M,M,M,M,M,M,M,M,M,M,M,M,M,M,78.72,KHTH 140735Z AUTO 10SM 27/M02 A3010 RMK A01,M
BAM,2022-08-14 07:35,-116.8743,40.5990,1382.36,64.40,30.20,27.55,0.00,0.00,0.00,30.12,M,10.00,M,CLR,M,M,M,M,M,M,M,M,M,M,M,M,M,M,64.40,KBAM 140735Z AUTO 00000KT 10SM CLR 18/M01 A3012 RMK AO1,M
CXP,2022-08-14 07:50,-119.7326,39.1923,1431.00,66.20,33.80,29.92,0.00,0.00,0.00,30.18,M,10.00,M,CLR,M,M,M,M,M,M,M,M,M,M,M,M,M,M,66.20,KCXP 140750Z AUTO 00000KT 10SM CLR 19/01 A3018 RMK AO2,M
LOL,2022-08-14 07:53,-118.5701,40.0684,1192.43,72.00,14.00,10.70,20.00,7.00,0.00,30.07,1013.50,10.00,M,CLR,M,M,M,M,M,M,M,M,M,M,M,M,M,M,72.00,KLOL 140753Z AUTO 02007KT 10SM CLR 22/M10 A3007 RMK AO2 SLP135 T02221100 403610078,M
P68,2022-08-14 07:53,-116.0056,39.6014,1993.00,59.00,49.00,69.12,180.00,7.00,0.00,30.23,1015.00,M,M,M,M,M,M,M,M,M,M,M,M,M,M,M,M,M,59.00,KP68 140753Z AUTO 18007KT 15/09 A3023 RMK AO1 SLP150 T01500094 403000144,M
DRA,2022-08-14 07:53,-116.0278,36.6206,1009.00,81.00,61.00,50.65,80.00,6.00,0.00,30.04,1012.20,10.00,M,CLR,M,M,M,M,M,M,M,M,M,M,M,M,M,M,81.81,KDRA 140753Z AUTO 08006KT 10SM CLR 27/16 A3004 RMK AO2 SLP122 T02720161 403440239,M
ELY,2022-08-14 07:53,-114.8453,39.2950,1909.00,56.00,55.00,96.78,250.00,4.00,0.00,30.30,1015.90,10.00,M,CLR,M,M,M,M,M,M,M,M,M,M,M,M,M,M,55.90,KELY 140753Z AUTO 25004KT 10SM CLR 13/13 A3030 RMK AO2 SLP159 T01330128 $,M
VGT,2022-08-14 07:53,-115.1933,36.2111,667.00,85.00,66.00,53.21,80.00,4.00,0.00,29.98,1014.30,10.00,M,CLR,M,M,M,M,M,M,M,M,M,M,M,M,M,M,87.13,KVGT 140753Z AUTO 08004KT 10SM CLR 29/19 A2998 RMK AO2 SLP143 T02940189 403280261,M
BVU,2022-08-14 07:55,-114.8611,35.9475,671.00,80.60,69.80,69.71,300.00,4.00,0.00,29.99,M,M,M,M,M,M,M,M,M,M,M,M,M,M,M,M,M,M,83.90,KBVU 140755Z AUTO 30004KT 27/21 A2999 RMK AO2 PWINO TSNO,M
TMT,2022-08-14 07:55,-117.1971,39.4643,1749.34,59.00,43.20,55.71,180.00,4.00,0.00,30.22,M,10.00,M,CLR,M,M,M,M,M,M,M,M,M,M,M,M,M,M,59.00,KTMT 140755Z AUTO 18004KT 10SM CLR 15/06 A3022 RMK AO2 T01500062,M
HTH,2022-08-14 07:55,-118.6315,38.5448,1282.89,78.80,24.80,13.54,320.00,11.00,0.00,30.10,M,10.00,M,M,M,M,M,M,M,M,M,M,M,M,M,M,M,M,78.80,KHTH 140755Z AUTO 32011KT 10SM 26/M04 A3010 RMK A01,M
BAM,2022-08-14 07:55,-116.8743,40.5990,1382.36,64.40,30.20,27.55,0.00,0.00,0.00,30.12,M,10.00,M,CLR,M,M,M,M,M,M,M,M,M,M,M,M,M,M,64.40,KBAM 140755Z AUTO 00000KT 10SM CLR 18/M01 A3012 RMK AO1,M
MEV,2022-08-14 07:55,-119.7500,38.9963,1441.42,53.60,35.60,50.36,120.00,4.00,0.00,30.18,M,10.00,M,CLR,M,M,M,M,M,M,M,M,M,M,M,M,M,M,53.60,KMEV 140755Z AUTO 12004KT 10SM CLR 12/02 A3018 RMK AO2,M
RTS,2022-08-14 07:55,-119.8764,39.6682,1539.00,64.40,24.80,22.06,320.00,7.00,0.00,30.21,M,10.00,M,CLR,M,M,M,M,M,M,M,M,M,M,M,M,M,M,64.40,KRTS 140755Z AUTO 32007KT 10SM CLR 18/M04 A3021 RMK AO2,M
RNO,2022-08-14 07:55,-119.7711,39.4839,1341.00,72.00,32.00,22.82,0.00,0.00,0.00,30.16,1015.30,10.00,M,FEW,M,M,M,12000.00,M,M,M,M,M,M,M,M,M,M,72.00,KRNO 140755Z 00000KT 10SM FEW120 22/00 A3016 RMK AO2 SLP153 T02220000 403560144,M
WMC,2022-08-14 07:56,-117.8072,40.9019,1315.00,55.00,28.00,35.21,170.00,5.00,0.00,30.10,1014.20,10.00,M,CLR,M,M,M,M,M,M,M,M,M,M,M,M,M,M,55.00,KWMC 140756Z AUTO 17005KT 10SM CLR 13/M02 A3010 RMK AO2 SLP142 T01281022 403560083 $,M
NFL,2022-08-14 07:56,-118.7010,39.4166,1199.00,69.00,35.00,28.51,270.00,7.00,0.00,30.08,1015.50,10.00,M,CLR,M,M,M,M,M,M,M,M,M,M,M,M,M,M,69.10,KNFL 140756Z AUTO 27007KT 10SM CLR 21/02 A3008 RMK AO2 SLP155 T02060017 403560128,M
TPH,2022-08-14 07:56,-117.0904,38.0505,1654.00,67.00,56.00,67.74,110.00,4.00,0.00,30.21,1014.40,10.00,M,CLR,M,M,M,M,M,M,M,M,M,M,M,M,M,M,66.90,KTPH 140756Z AUTO 11004KT 10SM CLR 19/13 A3021 RMK AO2 SLP144 T01940133 403280183 $,M
LAS,2022-08-14 07:56,-115.1634,36.0719,663.00,82.00,64.00,54.50,180.00,4.00,0.00,29.99,1012.80,10.00,M,FEW,SCT,BKN,M,13000.00,17000.00,22000.00,M,M,M,M,M,M,M,M,83.47,KLAS 140756Z 18004KT 10SM FEW130 SCT170 BKN220 28/18 A2999 RMK AO2 SLP128 T02780178 403220261,M
EKO,2022-08-14 07:56,-115.7860,40.8242,1367.00,61.00,50.00,67.06,110.00,4.00,0.00,30.17,1016.10,10.00,M,CLR,M,M,M,M,M,M,M,M,M,M,M,M,M,M,61.00,KEKO 140756Z AUTO 11004KT 10SM CLR 16/10 A3017 RMK AO2 SLP161 T01610100 403060111,M
LSV,2022-08-14 07:56,-115.0343,36.2362,570.00,84.20,66.20,54.80,60.00,6.00,0.00,29.98,1012.80,10.00,M,SCT,BKN,M,M,10000.00,20000.00,M,M,M,M,M,M,M,M,M,86.50,KLSV 140756Z 06006KT 10SM SCT100 BKN200 29/19 A2998 RMK SLP128 WND DATA ESTMD ALSTG/SLP128 ESTMD $,M
HND,2022-08-14 07:56,-115.1344,35.9729,742.79,80.00,65.00,59.83,170.00,6.00,0.00,30.02,1015.40,10.00,M,CLR,M,M,M,M,M,M,M,M,M,M,M,M,M,M,81.91,KHND 140756Z AUTO 17006KT 10SM CLR 27/18 A3002 RMK AO2 SLP154 T02670183,M
CXP,2022-08-14 08:10,-119.7326,39.1923,1431.00,62.60,35.60,36.45,0.00,0.00,0.00,30.18,M,10.00,M,CLR,M,M,M,M,M,M,M,M,M,M,M,M,M,M,62.60,KCXP 140810Z AUTO 00000KT 10SM CLR 17/02 A3018 RMK AO2,M
TMT,2022-08-14 08:15,-117.1971,39.4643,1749.34,56.50,44.00,62.60,0.00,0.00,0.00,30.22,M,10.00,M,CLR,M,M,M,M,M,M,M,M,M,M,M,M,M,M,56.50,KTMT 140815Z AUTO 00000KT 10SM CLR 14/07 A3022 RMK AO2 T01360066,M
BAM,2022-08-14 08:15,-116.8743,40.5990,1382.36,64.40,30.20,27.55,110.00,3.00,0.00,30.12,M,10.00,M,CLR,M,M,M,M,M,M,M,M,M,M,M,M,M,M,64.40,KBAM 140815Z AUTO 11003KT 10SM CLR 18/M01 A3012 RMK AO1,M
MEV,2022-08-14 08:15,-119.7500,38.9963,1441.42,50.00,37.40,61.76,120.00,6.00,0.00,30.17,M,10.00,M,CLR,M,M,M,M,M,M,M,M,M,M,M,M,M,M,50.00,KMEV 140815Z AUTO 12006KT 10SM CLR 10/03 A3017 RMK AO2,M
RTS,2022-08-14 08:15,-119.8764,39.6682,1539.00,62.60,24.80,23.50,320.00,7.00,0.00,30.21,M,10.00,M,CLR,M,M,M,M,M,M,M,M,M,M,M,M,M,M,62.60,KRTS 140815Z AUTO 32007KT 10SM CLR 17/M04 A3021 RMK AO2,M
BVU,2022-08-14 08:15,-114.8611,35.9475,671.00,80.60,69.80,69.71,0.00,0.00,0.00,29.99,M,M,M,M,M,M,M,M,M,M,M,M,M,M,M,M,M,M,83.90,KBVU 140815Z AUTO 00000KT 27/21 A2999 RMK AO2 PWINO TSNO,M
HTH,2022-08-14 08:15,-118.6315,38.5448,1282.89,78.80,26.60,14.59,330.00,10.00,0.00,30.10,M,10.00,M,CLR,M,M,M,M,M,M,M,M,M,M,M,M,M,M,78.80,KHTH 140815Z AUTO 33010KT 10SM CLR 26/M03 A3010 RMK A01,M
CXP,2022-08-14 08:30,-119.7326,39.1923,1431.00,62.60,35.60,36.45,0.00,0.00,0.00,30.18,M,10.00,M,CLR,M,M,M,M,M,M,M,M,M,M,M,M,M,M,62.60,KCXP 140830Z AUTO 00000KT 10SM CLR 17/02 A3018 RMK AO2,M
TMT,2022-08-14 08:35,-117.1971,39.4643,1749.34,56.00,43.70,63.03,200.00,5.00,0.00,30.22,M,10.00,M,CLR,M,M,M,M,M,M,M,M,M,M,M,M,M,M,56.10,KTMT 140835Z AUTO 20005KT 10SM CLR 13/07 A3022 RMK AO2 T01340065,M
HTH,2022-08-14 08:35,-118.6315,38.5448,1282.89,77.00,28.40,16.67,330.00,11.00,0.00,30.10,M,10.00,M,CLR,M,M,M,M,M,M,M,M,M,M,M,M,M,M,77.00,KHTH 140835Z AUTO 33011KT 10SM CLR 25/M02 A3010 RMK A01,M
BVU,2022-08-14 08:35,-114.8611,35.9475,671.00,80.60,71.60,74.11,0.00,0.00,0.00,29.99,M,M,M,M,M,M,M,M,M,M,M,M,M,M,M,M,M,M,84.57,KBVU 140835Z AUTO 00000KT 27/22 A2999 RMK AO2 PWINO TSNO,M
BAM,2022-08-14 08:35,-116.8743,40.5990,1382.36,64.40,30.20,27.55,140.00,4.00,0.00,30.12,M,10.00,M,CLR,M,M,M,M,M,M,M,M,M,M,M,M,M,M,64.40,KBAM 140835Z AUTO 14004KT 10SM CLR 18/M01 A3012 RMK AO1,M
RTS,2022-08-14 08:35,-119.8764,39.6682,1539.00,57.20,24.80,28.48,350.00,5.00,0.00,30.21,M,10.00,M,CLR,M,M,M,M,M,M,M,M,M,M,M,M,M,M,57.20,KRTS 140835Z AUTO 35005KT 10SM CLR 14/M04 A3021 RMK AO2,M
MEV,2022-08-14 08:35,-119.7500,38.9963,1441.42,53.60,35.60,50.36,110.00,7.00,0.00,30.17,M,10.00,M,CLR,M,M,M,M,M,M,M,M,M,M,M,M,M,M,53.60,KMEV 140835Z AUTO 11007KT 10SM CLR 12/02 A3017 RMK AO2,M
CXP,2022-08-14 08:50,-119.7326,39.1923,1431.00,62.60,35.60,36.45,0.00,0.00,0.00,30.19,M,10.00,M,CLR,M,M,M,M,M,M,M,M,M,M,M,M,M,M,62.60,KCXP 140850Z AUTO 00000KT 10SM CLR 17/02 A3019 RMK AO2,M
VGT,2022-08-14 08:53,-115.1933,36.2111,667.00,85.00,66.00,53.21,50.00,3.00,0.00,29.97,1013.70,10.00,M,CLR,M,M,M,M,M,M,M,M,M,M,M,M,M,M,87.13,KVGT 140853Z AUTO 05003KT 10SM CLR 29/19 A2997 RMK AO2 SLP137 T02940189 58005,M
P68,2022-08-14 08:53,-116.0056,39.6014,1993.00,57.00,49.00,74.27,0.00,0.00,0.00,30.23,1015.40,M,M,M,M,M,M,M,M,M,M,M,M,M,M,M,M,M,57.00,KP68 140853Z AUTO 00000KT 14/09 A3023 RMK AO1 SLP154 T01390094 50003,M
DRA,2022-08-14 08:53,-116.0278,36.6206,1009.00,80.00,63.00,55.98,120.00,4.00,0.00,30.04,1012.00,10.00,M,FEW,M,M,M,12000.00,M,M,M,M,M,M,M,M,M,M,81.50,KDRA 140853Z AUTO 12004KT 10SM FEW120 27/17 A3004 RMK AO2 SLP120 T02670172 56003,M
ELY,2022-08-14 08:53,-114.8453,39.2950,1909.00,56.00,54.00,93.32,280.00,3.00,0.00,30.30,1015.60,10.00,M,CLR,M,M,M,M,M,M,M,M,M,M,M,M,M,M,55.90,KELY 140853Z AUTO 28003KT 10SM CLR 13/12 A3030 RMK AO2 SLP156 T01330122 50001 $,M
LOL,2022-08-14 08:53,-118.5701,40.0684,1192.43,62.00,19.00,18.72,270.00,3.00,0.00,30.08,1014.10,10.00,M,CLR,M,M,M,M,M,M,M,M,M,M,M,M,M,M,62.10,KLOL 140853Z AUTO 27003KT 10SM CLR 17/M07 A3008 RMK AO2 SLP141 T01671072 51006,M
BVU,2022-08-14 08:55,-114.8611,35.9475,671.00,80.60,71.60,74.11,0.00,0.00,0.00,29.98,M,M,M,M,M,M,M,M,M,M,M,M,M,M,M,M,M,M,84.57,KBVU 140855Z AUTO 00000KT 27/22 A2998 RMK AO2 PWINO TSNO,M
RNO,2022-08-14 08:55,-119.7711,39.4839,1341.00,69.00,33.00,26.32,320.00,4.00,0.00,30.16,1015.10,10.00,M,FEW,M,M,M,12000.00,M,M,M,M,M,M,M,M,M,M,69.10,KRNO 140855Z 32004KT 10SM FEW120 21/01 A3016 RMK AO2 SLP151 T02060006 51004,M
HTH,2022-08-14 08:55,-118.6315,38.5448,1282.89,77.00,30.20,17.94,330.00,10.00,0.00,30.11,M,10.00,M,CLR,M,M,M,M,M,M,M,M,M,M,M,M,M,M,77.00,KHTH 140855Z AUTO 33010KT 10SM CLR 25/M01 A3011 RMK A01,M
BAM,2022-08-14 08:55,-116.8743,40.5990,1382.36,62.60,30.20,29.35,0.00,0.00,0.00,30.12,M,10.00,M,CLR,M,M,M,M,M,M,M,M,M,M,M,M,M,M,62.60,KBAM 140855Z AUTO 00000KT 10SM CLR 17/M01 A3012 RMK AO1,M
MEV,2022-08-14 08:55,-119.7500,38.9963,1441.42,55.40,33.80,43.90,250.00,4.00,0.00,30.17,M,10.00,M,CLR,M,M,M,M,M,M,M,M,M,M,M,M,M,M,55.40,KMEV 140855Z AUTO 25004KT 10SM CLR 13/01 A3017 RMK AO2,M
TMT,2022-08-14 08:55,-117.1971,39.4643,1749.34,58.00,44.00,59.98,0.00,0.00,0.00,30.22,M,10.00,M,CLR,M,M,M,M,M,M,M,M,M,M,M,M,M,M,57.90,KTMT 140855Z AUTO 00000KT 10SM CLR 14/07 A3022 RMK AO2 T01440067,M
RTS,2022-08-14 08:55,-119.8764,39.6682,1539.00,60.80,24.80,25.04,340.00,4.00,0.00,30.21,M,10.00,M,CLR,M,M,M,M,M,M,M,M,M,M,M,M,M,M,60.80,KRTS 140855Z AUTO 34004KT 10SM CLR 16/M04 A3021 RMK AO2,M
WMC,2022-08-14 08:56,-117.8072,40.9019,1315.00,51.00,27.00,38.99,180.00,5.00,0.00,30.11,1014.80,10.00,M,CLR,M,M,M,M,M,M,M,M,M,M,M,M,M,M,51.10,KWMC 140856Z AUTO 18005KT 10SM CLR 11/M03 A3011 RMK AO2 SLP148 T01061028 53004 $,M
EKO,2022-08-14 08:56,-115.7860,40.8242,1367.00,62.00,50.00,64.50,40.00,4.00,0.00,30.17,1015.90,10.00,M,CLR,M,M,M,M,M,M,M,M,M,M,M,M,M,M,62.10,KEKO 140856Z AUTO 04004KT 10SM CLR 17/10 A3017 RMK AO2 SLP159 T01670100 50002,M
LAS,2022-08-14 08:56,-115.1634,36.0719,663.00,82.00,64.00,54.50,200.00,4.00,0.00,29.98,1012.50,10.00,M,FEW,SCT,BKN,M,13000.00,17000.00,22000.00,M,M,M,M,M,M,M,M,83.47,KLAS 140856Z 20004KT 10SM FEW130 SCT170 BKN220 28/18 A2998 RMK AO2 SLP125 T02780178 58005,M
TPH,2022-08-14 08:56,-117.0904,38.0505,1654.00,64.00,57.00,77.97,350.00,4.00,0.00,30.21,1014.80,10.00,M,CLR,M,M,M,M,M,M,M,M,M,M,M,M,M,M,64.00,KTPH 140856Z AUTO 35004KT 10SM CLR 18/14 A3021 RMK AO2 SLP148 T01780139 52000 $,M
LSV,2022-08-14 08:56,-115.0343,36.2362,570.00,82.40,64.40,54.55,60.00,4.00,0.00,29.98,1012.70,10.00,M,SCT,BKN,M,M,17000.00,20000.00,M,M,M,M,M,M,M,M,M,83.98,KLSV 140856Z 06004KT 10SM SCT170 BKN200 28/18 A2998 RMK SLP127 5//// WND DATA ESTMD ALSTG/SLP ESTMD $,M
NFL,2022-08-14 08:56,-118.7010,39.4166,1199.00,73.00,28.90,19.45,280.00,8.00,0.00,30.08,1015.40,10.00,M,CLR,M,M,M,M,M,M,M,M,M,M,M,M,M,M,73.00,KNFL 140856Z AUTO 28008KT 10SM CLR 23/M02 A3008 RMK AO2 SLP154 T02281017 50007,M
HND,2022-08-14 08:56,-115.1344,35.9729,742.79,79.00,65.00,62.03,200.00,5.00,0.00,30.02,1015.30,10.00,M,CLR,M,M,M,M,M,M,M,M,M,M,M,M,M,M,79.00,KHND 140856Z AUTO 20005KT 10SM CLR 26/18 A3002 RMK AO2 SLP153 T02610183 58005,M
CXP,2022-08-14 09:10,-119.7326,39.1923,1431.00,60.80,35.60,38.85,0.00,0.00,0.00,30.19,M,10.00,M,CLR,M,M,M,M,M,M,M,M,M,M,M,M,M,M,60.80,KCXP 140910Z AUTO 00000KT 10SM CLR 16/02 A3019 RMK AO2,M
TMT,2022-08-14 09:15,-117.1971,39.4643,1749.34,56.50,43.20,60.95,0.00,0.00,0.00,30.22,M,10.00,M,CLR,M,M,M,M,M,M,M,M,M,M,M,M,M,M,56.50,KTMT 140915Z AUTO 00000KT 10SM CLR 14/06 A3022 RMK AO2 T01360062,M
BAM,2022-08-14 09:15,-116.8743,40.5990,1382.36,62.60,30.20,29.35,10.00,3.00,0.00,30.12,M,10.00,M,CLR,M,M,M,M,M,M,M,M,M,M,M,M,M,M,62.60,KBAM 140915Z AUTO 01003KT 10SM CLR 17/M01 A3012 RMK AO1,M
RTS,2022-08-14 09:15,-119.8764,39.6682,1539.00,60.80,23.00,23.23,340.00,3.00,0.00,30.21,M,10.00,M,CLR,M,M,M,M,M,M,M,M,M,M,M,M,M,M,60.80,KRTS 140915Z AUTO 34003KT 10SM CLR 16/M05 A3021 RMK AO2,M
HTH,2022-08-14 09:15,-118.6315,38.5448,1282.89,77.00,32.00,19.30,310.00,8.00,0.00,30.11,M,10.00,M,CLR,M,M,M,M,M,M,M,M,M,M,M,M,M,M,77.00,KHTH 140915Z AUTO 31008KT 10SM CLR 25/00 A3011 RMK A01,M
BVU,2022-08-14 09:15,-114.8611,35.9475,671.00,80.60,71.60,74.11,0.00,0.00,0.00,29.98,M,M,M,M,M,M,M,M,M,M,M,M,M,M,M,M,M,M,84.57,KBVU 140915Z AUTO 00000KT 27/22 A2998 RMK AO2 PWINO TSNO,M
MEV,2022-08-14 09:15,-119.7500,38.9963,1441.42,53.60,41.00,62.23,220.00,3.00,0.00,30.18,M,10.00,M,CLR,M,M,M,M,M,M,M,M,M,M,M,M,M,M,53.60,KMEV 140915Z AUTO 22003KT 10SM CLR 12/05 A3018 RMK AO2,M
CXP,2022-08-14 09:30,-119.7326,39.1923,1431.00,60.80,33.80,36.16,0.00,0.00,0.00,30.19,M,10.00,M,CLR,M,M,M,M,M,M,M,M,M,M,M,M,M,M,60.80,KCXP 140930Z AUTO 00000KT 10SM CLR 16/01 A3019 RMK AO2,M
RTS,2022-08-14 09:35,-119.8764,39.6682,1539.00,55.40,24.80,30.40,10.00,6.00,0.00,30.21,M,10.00,M,CLR,M,M,M,M,M,M,M,M,M,M,M,M,M,M,55.40,KRTS 140935Z AUTO 01006KT 10SM CLR 13/M04 A3021 RMK AO2,M
BVU,2022-08-14 09:35,-114.8611,35.9475,671.00,80.60,69.80,69.71,0.00,0.00,0.00,29.98,M,M,M,M,M,M,M,M,M,M,M,M,M,M,M,M,M,M,83.90,KBVU 140935Z AUTO 00000KT 27/21 A2998 RMK AO2 PWINO TSNO,M
MEV,2022-08-14 09:35,-119.7500,38.9963,1441.42,51.80,37.40,57.77,0.00,0.00,0.00,30.18,M,10.00,M,CLR,M,M,M,M,M,M,M,M,M,M,M,M,M,M,51.80,KMEV 140935Z AUTO 00000KT 10SM CLR 11/03 A3018 RMK AO2,M
BAM,2022-08-14 09:35,-116.8743,40.5990,1382.36,60.80,30.20,31.28,0.00,0.00,0.00,30.12,M,10.00,M,CLR,M,M,M,M,M,M,M,M,M,M,M,M,M,M,60.80,KBAM 140935Z AUTO 00000KT 10SM CLR 16/M01 A3012 RMK AO1,M
HTH,2022-08-14 09:35,-118.6315,38.5448,1282.89,75.20,30.20,19.05,320.00,5.00,0.00,30.11,M,10.00,M,CLR,M,M,M,M,M,M,M,M,M,M,M,M,M,M,75.20,KHTH 140935Z AUTO 32005KT 10SM CLR 24/M01 A3011 RMK A01,M
TMT,2022-08-14 09:35,-117.1971,39.4643,1749.34,54.50,44.60,69.14,0.00,0.00,0.00,30.22,M,10.00,M,CLR,M,M,M,M,M,M,M,M,M,M,M,M,M,M,54.50,KTMT 140935Z AUTO 00000KT 10SM CLR 13/07 A3022 RMK AO2 T01250070,M
CXP,2022-08-14 09:50,-119.7326,39.1923,1431.00,60.80,35.60,38.85,0.00,0.00,0.00,30.19,M,10.00,M,CLR,M,M,M,M,M,M,M,M,M,M,M,M,M,M,60.80,KCXP 140950Z AUTO 00000KT 10SM CLR 16/02 A3019 RMK AO2,M
DRA,2022-08-14 09:53,-116.0278,36.6206,1009.00,79.00,64.00,60.11,80.00,6.00,0.00,30.04,1011.90,10.00,M,CLR,M,M,M,M,M,M,M,M,M,M,M,M,M,M,79.00,KDRA 140953Z AUTO 08006KT 10SM CLR 26/18 A3004 RMK AO2 SLP119 T02610178,M
VGT,2022-08-14 09:53,-115.1933,36.2111,667.00,83.00,66.00,56.75,300.00,3.00,0.00,29.97,1013.70,10.00,M,CLR,M,M,M,M,M,M,M,M,M,M,M,M,M,M,85.07,KVGT 140953Z AUTO 30003KT 10SM CLR 28/19 A2997 RMK AO2 SLP137 T02830189,M
LOL,2022-08-14 09:53,-118.5701,40.0684,1192.43,57.00,17.10,20.69,70.00,3.00,0.00,30.08,1014.40,10.00,M,CLR,M,M,M,M,M,M,M,M,M,M,M,M,M,M,57.00,KLOL 140953Z AUTO 07003KT 10SM CLR 14/M08 A3008 RMK AO2 SLP144 T01391083,M
ELY,2022-08-14 09:53,-114.8453,39.2950,1909.00,53.00,53.00,100.00,160.00,5.00,0.00,30.29,1015.40,10.00,M,CLR,M,M,M,M,M,M,M,M,M,M,M,M,M,M,53.10,KELY 140953Z AUTO 16005KT 10SM CLR 12/12 A3029 RMK AO2 SLP154 T01170117 $,M
P68,2022-08-14 09:53,-116.0056,39.6014,1993.00,57.00,49.00,74.27,190.00,6.00,0.00,30.23,1015.80,M,M,M,M,M,M,M,M,M,M,M,M,M,M,M,M,M,57.00,KP68 140953Z AUTO 19006KT 14/09 A3023 RMK AO1 SLP158 T01390094,M
BAM,2022-08-14 09:55,-116.8743,40.5990,1382.36,62.60,32.00,31.56,100.00,5.00,0.00,30.12,M,10.00,M,CLR,M,M,M,M,M,M,M,M,M,M,M,M,M,M,62.60,KBAM 140955Z AUTO 10005KT 10SM CLR 17/00 A3012 RMK AO1,M
HTH,2022-08-14 09:55,-118.6315,38.5448,1282.89,75.20,30.20,19.05,0.00,0.00,0.00,30.11,M,10.00,M,CLR,M,M,M,M,M,M,M,M,M,M,M,M,M,M,75.20,KHTH 140955Z AUTO 00000KT 10SM CLR 24/M01 A3011 RMK A01,M
TMT,2022-08-14 09:55,-117.1971,39.4643,1749.34,54.00,41.70,63.01,0.00,0.00,0.00,30.22,M,10.00,M,CLR,M,M,M,M,M,M,M,M,M,M,M,M,M,M,54.00,KTMT 140955Z AUTO 00000KT 10SM CLR 12/05 A3022 RMK AO2 T01220054,M
BVU,2022-08-14 09:55,-114.8611,35.9475,671.00,80.60,69.80,69.71,0.00,0.00,0.00,29.98,M,M,M,M,M,M,M,M,M,M,M,M,M,M,M,M,M,M,83.90,KBVU 140955Z AUTO 00000KT 27/21 A2998 RMK AO2 PWINO TSNO,M
RNO,2022-08-14 09:55,-119.7711,39.4839,1341.00,65.00,37.00,35.54,150.00,5.00,0.00,30.17,1015.30,10.00,M,CLR,M,M,M,M,M,M,M,M,M,M,M,M,M,M,64.90,KRNO 140955Z 15005KT 10SM CLR 18/03 A3017 RMK AO2 SLP153 T01830028,M
RTS,2022-08-14 09:55,-119.8764,39.6682,1539.00,57.20,24.80,28.48,310.00,3.00,0.00,30.21,M,10.00,M,CLR,M,M,M,M,M,M,M,M,M,M,M,M,M,M,57.20,KRTS 140955Z AUTO 31003KT 10SM CLR 14/M04 A3021 RMK AO2,M
MEV,2022-08-14 09:55,-119.7500,38.9963,1441.42,50.00,35.60,57.52,0.00,0.00,0.00,30.18,M,10.00,M,CLR,M,M,M,M,M,M,M,M,M,M,M,M,M,M,50.00,KMEV 140955Z AUTO 00000KT 10SM CLR 10/02 A3018 RMK AO2,M
EKO,2022-08-14 09:56,-115.7860,40.8242,1367.00,60.00,50.00,69.24,90.00,5.00,0.00,30.17,1016.30,10.00,M,CLR,M,M,M,M,M,M,M,M,M,M,M,M,M,M,60.10,KEKO 140956Z AUTO 09005KT 10SM CLR 16/10 A3017 RMK AO2 SLP163 T01560100,M
NFL,2022-08-14 09:56,-118.7010,39.4166,1199.00,66.00,35.00,31.73,220.00,3.00,0.00,30.09,1015.50,10.00,M,CLR,M,M,M,M,M,M,M,M,M,M,M,M,M,M,66.00,KNFL 140956Z AUTO 22003KT 10SM CLR 19/02 A3009 RMK AO2 SLP155 T01890017,M
HND,2022-08-14 09:56,-115.1344,35.9729,742.79,79.00,66.00,64.45,210.00,7.00,0.00,30.02,1015.40,10.00,M,CLR,M,M,M,M,M,M,M,M,M,M,M,M,M,M,79.00,KHND 140956Z AUTO 21007KT 10SM CLR 26/19 A3002 RMK AO2 SLP154 T02610189,M
LSV,2022-08-14 09:56,-115.0343,36.2362,570.00,80.60,64.40,57.84,70.00,4.00,0.00,29.97,1012.40,10.00,M,FEW,SCT,BKN,M,13000.00,17000.00,22000.00,M,M,M,M,M,M,M,M,82.27,KLSV 140956Z 07004KT 10SM FEW130 SCT170 BKN220 27/18 A2997 RMK SLP124 WND DATA ESTMD ALSTG/SLP ESTMD $,M
TPH,2022-08-14 09:56,-117.0904,38.0505,1654.00,63.00,55.00,75.11,10.00,4.00,0.00,30.21,1014.70,10.00,M,CLR,M,M,M,M,M,M,M,M,M,M,M,M,M,M,63.00,KTPH 140956Z AUTO 01004KT 10SM CLR 17/13 A3021 RMK AO2 SLP147 T01720128 $,M
LAS,2022-08-14 09:56,-115.1634,36.0719,663.00,82.00,64.00,54.50,200.00,5.00,0.00,29.97,1012.30,10.00,M,FEW,SCT,BKN,M,13000.00,17000.00,22000.00,M,M,M,M,M,M,M,M,83.47,KLAS 140956Z 20005KT 10SM FEW130 SCT170 BKN220 28/18 A2997 RMK AO2 SLP123 T02780178,M
WMC,2022-08-14 09:56,-117.8072,40.9019,1315.00,53.00,28.90,39.16,170.00,5.00,0.00,30.11,1014.50,10.00,M,CLR,M,M,M,M,M,M,M,M,M,M,M,M,M,M,53.10,KWMC 140956Z AUTO 17005KT 10SM CLR 12/M02 A3011 RMK AO2 SLP145 T01171017 $,M
CXP,2022-08-14 10:10,-119.7326,39.1923,1431.00,59.00,33.80,38.56,100.00,4.00,0.00,30.19,M,10.00,M,CLR,M,M,M,M,M,M,M,M,M,M,M,M,M,M,59.00,KCXP 141010Z AUTO 10004KT 10SM CLR 15/01 A3019 RMK AO2,M
RTS,2022-08-14 10:15,-119.8764,39.6682,1539.00,53.60,24.80,32.46,330.00,5.00,0.00,30.22,M,10.00,M,CLR,M,M,M,M,M,M,M,M,M,M,M,M,M,M,53.60,KRTS 141015Z AUTO 33005KT 10SM CLR 12/M04 A3022 RMK AO2,M
BAM,2022-08-14 10:15,-116.8743,40.5990,1382.36,59.00,32.00,35.87,0.00,0.00,0.00,30.12,M,10.00,M,CLR,M,M,M,M,M,M,M,M,M,M,M,M,M,M,59.00,KBAM 141015Z AUTO 00000KT 10SM CLR 15/00 A3012 RMK AO1,M
HTH,2022-08-14 10:15,-118.6315,38.5448,1282.89,75.20,28.40,17.70,0.00,0.00,0.00,30.11,M,10.00,M,CLR,M,M,M,M,M,M,M,M,M,M,M,M,M,M,75.20,KHTH 141015Z AUTO 00000KT 10SM CLR 24/M02 A3011 RMK A01,M
TMT,2022-08-14 10:15,-117.1971,39.4643,1749.34,54.70,42.60,63.58,330.00,4.00,0.00,30.22,M,10.00,M,CLR,M,M,M,M,M,M,M,M,M,M,M,M,M,M,54.70,KTMT 141015Z AUTO 33004KT 10SM CLR 13/06 A3022 RMK AO2 T01260059,M
BVU,2022-08-14 10:15,-114.8611,35.9475,671.00,80.60,68.00,65.54,0.00,0.00,0.00,29.98,M,M,M,M,M,M,M,M,M,M,M,M,M,M,M,M,M,M,83.29,KBVU 141015Z AUTO 00000KT 27/20 A2998 RMK AO2 PWINO TSNO,M
MEV,2022-08-14 10:15,-119.7500,38.9963,1441.42,50.00,35.60,57.52,70.00,4.00,0.00,30.18,M,10.00,M,CLR,M,M,M,M,M,M,M,M,M,M,M,M,M,M,50.00,KMEV 141015Z AUTO 07004KT 10SM CLR 10/02 A3018 RMK AO2,M
CXP,2022-08-14 10:30,-119.7326,39.1923,1431.00,59.00,35.60,41.42,0.00,0.00,0.00,30.19,M,10.00,M,CLR,M,M,M,M,M,M,M,M,M,M,M,M,M,M,59.00,KCXP 141030Z AUTO 00000KT 10SM CLR 15/02 A3019 RMK AO2,M
RTS,2022-08-14 10:35,-119.8764,39.6682,1539.00,53.60,23.00,30.11,340.00,6.00,0.00,30.22,M,10.00,M,CLR,M,M,M,M,M,M,M,M,M,M,M,M,M,M,53.60,KRTS 141035Z AUTO 34006KT 10SM CLR 12/M05 A3022 RMK AO2,M
TMT,2022-08-14 10:35,-117.1971,39.4643,1749.34,50.00,42.40,75.01,0.00,0.00,0.00,30.22,M,10.00,M,CLR,M,M,M,M,M,M,M,M,M,M,M,M,M,M,50.00,KTMT 141035Z AUTO 00000KT 10SM CLR 10/06 A3022 RMK AO2 T01000058,M
HTH,2022-08-14 10:35,-118.6315,38.5448,1282.89,75.20,26.60,16.43,0.00,0.00,0.00,30.12,M,10.00,M,CLR,M,M,M,M,M,M,M,M,M,M,M,M,M,M,75.20,KHTH 141035Z AUTO 00000KT 10SM CLR 24/M03 A3012 RMK A01,M
BAM,2022-08-14 10:35,-116.8743,40.5990,1382.36,59.00,33.80,38.56,0.00,0.00,0.00,30.13,M,10.00,M,CLR,M,M,M,M,M,M,M,M,M,M,M,M,M,M,59.00,KBAM 141035Z AUTO 00000KT 10SM CLR 15/01 A3013 RMK AO1,M
BVU,2022-08-14 10:35,-114.8611,35.9475,671.00,80.60,68.00,65.54,130.00,3.00,0.00,29.98,M,M,M,M,M,M,M,M,M,M,M,M,M,M,M,M,M,M,83.29,KBVU 141035Z AUTO 13003KT 27/20 A2998 RMK AO2 PWINO TSNO,M
MEV,2022-08-14 10:35,-119.7500,38.9963,1441.42,46.40,35.60,65.83,120.00,6.00,0.00,30.18,M,10.00,M,CLR,M,M,M,M,M,M,M,M,M,M,M,M,M,M,42.87,KMEV 141035Z AUTO 12006KT 10SM CLR 08/02 A3018 RMK AO2,M
CXP,2022-08-14 10:50,-119.7326,39.1923,1431.00,59.00,33.80,38.56,0.00,0.00,0.00,30.19,M,10.00,M,CLR,M,M,M,M,M,M,M,M,M,M,M,M,M,M,59.00,KCXP 141050Z AUTO 00000KT 10SM CLR 15/01 A3019 RMK AO2,M
VGT,2022-08-14 10:53,-115.1933,36.2111,667.00,84.00,67.00,56.51,0.00,0.00,0.00,29.97,1013.70,10.00,M,CLR,M,M,M,M,M,M,M,M,M,M,M,M,M,M,86.62,KVGT 141053Z AUTO 00000KT 10SM CLR 29/19 A2997 RMK AO2 SLP137 T02890194,M
ELY,2022-08-14 10:53,-114.8453,39.2950,1909.00,53.00,52.00,96.03,0.00,0.00,0.00,30.29,1016.50,10.00,M,CLR,M,M,M,M,M,M,M,M,M,M,M,M,M,M,53.10,KELY 141053Z AUTO 00000KT 10SM CLR 12/11 A3029 RMK AO2 SLP165 T01170111 $,M
LOL,2022-08-14 10:53,-118.5701,40.0684,1192.43,58.00,17.10,20.03,0.00,0.00,0.00,30.08,1014.40,10.00,M,CLR,M,M,M,M,M,M,M,M,M,M,M,M,M,M,57.90,KLOL 141053Z AUTO 00000KT 10SM CLR 14/M08 A3008 RMK AO2 SLP144 T01441083,M
P68,2022-08-14 10:53,-116.0056,39.6014,1993.00,55.00,49.00,79.85,200.00,4.00,0.00,30.22,1015.60,M,M,M,M,M,M,M,M,M,M,M,M,M,M,M,M,M,55.00,KP68 141053Z AUTO 20004KT 13/09 A3022 RMK AO1 SLP156 T01280094,M
DRA,2022-08-14 10:53,-116.0278,36.6206,1009.00,79.00,62.00,56.23,0.00,0.00,0.00,30.03,1011.70,10.00,M,CLR,M,M,M,M,M,M,M,M,M,M,M,M,M,M,79.00,KDRA 141053Z AUTO 00000KT 10SM CLR 26/17 A3003 RMK AO2 SLP117 T02610167,M
MEV,2022-08-14 10:55,-119.7500,38.9963,1441.42,50.00,37.40,61.76,210.00,5.00,0.00,30.18,M,10.00,M,CLR,M,M,M,M,M,M,M,M,M,M,M,M,M,M,50.00,KMEV 141055Z AUTO 21005KT 10SM CLR 10/03 A3018 RMK AO2,M
RNO,2022-08-14 10:55,-119.7711,39.4839,1341.00,65.00,33.00,30.44,270.00,3.00,0.00,30.16,1015.20,10.00,M,CLR,M,M,M,M,M,M,M,M,M,M,M,M,M,M,64.90,KRNO 141055Z 27003KT 10SM CLR 18/01 A3016 RMK AO2 SLP152 T01830006,M
RTS,2022-08-14 10:55,-119.8764,39.6682,1539.00,55.40,23.00,28.20,340.00,7.00,0.00,30.21,M,10.00,M,CLR,M,M,M,M,M,M,M,M,M,M,M,M,M,M,55.40,KRTS 141055Z AUTO 34007KT 10SM CLR 13/M05 A3021 RMK AO2,M
BVU,2022-08-14 10:55,-114.8611,35.9475,671.00,78.80,71.60,78.62,0.00,0.00,0.00,29.98,M,M,M,M,M,M,M,M,M,M,M,M,M,M,M,M,M,M,78.80,KBVU 141055Z AUTO 00000KT 26/22 A2998 RMK AO2 PWINO TSNO,M
BAM,2022-08-14 10:55,-116.8743,40.5990,1382.36,55.40,32.00,40.84,0.00,0.00,0.00,30.13,M,10.00,M,CLR,M,M,M,M,M,M,M,M,M,M,M,M,M,M,55.40,KBAM 141055Z AUTO 00000KT 10SM CLR 13/00 A3013 RMK AO1,M
TMT,2022-08-14 10:55,-117.1971,39.4643,1749.34,52.30,42.80,69.96,0.00,0.00,0.00,30.22,M,10.00,M,CLR,M,M,M,M,M,M,M,M,M,M,M,M,M,M,52.30,KTMT 141055Z AUTO 00000KT 10SM CLR 11/06 A3022 RMK AO2 T01130060,M
HTH,2022-08-14 10:55,-118.6315,38.5448,1282.89,73.40,32.00,21.76,0.00,0.00,0.00,30.12,M,10.00,M,CLR,M,M,M,M,M,M,M,M,M,M,M,M,M,M,73.40,KHTH 141055Z AUTO 00000KT 10SM CLR 23/M00 A3012 RMK A01,M
LAS,2022-08-14 10:56,-115.1634,36.0719,663.00,81.00,65.00,58.10,220.00,4.00,0.00,29.97,1012.40,10.00,M,FEW,SCT,BKN,M,13000.00,17000.00,22000.00,M,M,M,M,M,M,M,M,82.79,KLAS 141056Z 22004KT 10SM FEW130 SCT170 BKN220 27/18 A2997 RMK AO2 SLP124 T02720183,M
EKO,2022-08-14 10:56,-115.7860,40.8242,1367.00,63.00,50.00,62.49,80.00,6.00,0.00,30.17,1016.10,10.00,M,CLR,M,M,M,M,M,M,M,M,M,M,M,M,M,M,63.00,KEKO 141056Z AUTO 08006KT 10SM CLR 17/10 A3017 RMK AO2 SLP161 T01720100,M
LSV,2022-08-14 10:56,-115.0343,36.2362,570.00,80.60,64.40,57.84,210.00,4.00,0.00,29.96,1012.10,10.00,M,SCT,BKN,M,M,17000.00,20000.00,M,M,M,M,M,M,M,M,M,82.27,KLSV 141056Z 21004KT 10SM SCT170 BKN200 27/18 A2996 RMK SLP121 WND DATA ESTMD ALSTG/SLP ESTMD $,M
WMC,2022-08-14 10:56,-117.8072,40.9019,1315.00,57.00,27.00,31.43,20.00,3.00,0.00,30.11,1014.50,10.00,M,CLR,M,M,M,M,M,M,M,M,M,M,M,M,M,M,57.00,KWMC 141056Z AUTO 02003KT 10SM CLR 14/M03 A3011 RMK AO2 SLP145 T01391028 $,M
HND,2022-08-14 10:56,-115.1344,35.9729,742.79,78.00,65.00,63.90,190.00,5.00,0.00,30.01,1015.30,10.00,M,CLR,M,M,M,M,M,M,M,M,M,M,M,M,M,M,78.10,KHND 141056Z AUTO 19005KT 10SM CLR 26/18 A3001 RMK AO2 SLP153 T02560183,M
NFL,2022-08-14 10:56,-118.7010,39.4166,1199.00,59.00,40.00,49.04,150.00,5.00,0.00,30.09,1015.60,10.00,M,CLR,M,M,M,M,M,M,M,M,M,M,M,M,M,M,59.00,KNFL 141056Z AUTO 15005KT 10SM CLR 15/04 A3009 RMK AO2 SLP156 T01500044,M
TPH,2022-08-14 10:56,-117.0904,38.0505,1654.00,63.00,54.00,72.42,350.00,5.00,0.00,30.20,1014.80,10.00,M,CLR,M,M,M,M,M,M,M,M,M,M,M,M,M,M,63.00,KTPH 141056Z AUTO 35005KT 10SM CLR 17/12 A3020 RMK AO2 SLP148 T01720122 $,M
CXP,2022-08-14 11:10,-119.7326,39.1923,1431.00,59.00,33.80,38.56,0.00,0.00,0.00,30.18,M,10.00,M,CLR,M,M,M,M,M,M,M,M,M,M,M,M,M,M,59.00,KCXP 141110Z AUTO 00000KT 10SM CLR 15/01 A3018 RMK AO2,M
BAM,2022-08-14 11:15,-116.8743,40.5990,1382.36,55.40,32.00,40.84,0.00,0.00,0.00,30.12,M,10.00,M,CLR,M,M,M,M,M,M,M,M,M,M,M,M,M,M,55.40,KBAM 141115Z AUTO 00000KT 10SM CLR 13/00 A3012 RMK AO1,M
BVU,2022-08-14 11:15,-114.8611,35.9475,671.00,78.80,69.80,73.95,0.00,0.00,0.00,29.98,M,M,M,M,M,M,M,M,M,M,M,M,M,M,M,M,M,M,78.80,KBVU 141115Z AUTO 00000KT 26/21 A2998 RMK AO2 PWINO TSNO,M
RTS,2022-08-14 11:15,-119.8764,39.6682,1539.00,55.40,23.00,28.20,340.00,8.00,0.00,30.21,M,10.00,M,CLR,M,M,M,M,M,M,M,M,M,M,M,M,M,M,55.40,KRTS 141115Z AUTO 34008KT 10SM CLR 13/M05 A3021 RMK AO2,M
MEV,2022-08-14 11:15,-119.7500,38.9963,1441.42,48.20,39.20,70.88,190.00,5.00,0.00,30.18,M,10.00,M,CLR,M,M,M,M,M,M,M,M,M,M,M,M,M,M,45.63,KMEV 141115Z AUTO 19005KT 10SM CLR 09/04 A3018 RMK AO2,M
HTH,2022-08-14 11:15,-118.6315,38.5448,1282.89,71.60,32.00,23.13,130.00,5.00,0.00,30.12,M,10.00,M,CLR,M,M,M,M,M,M,M,M,M,M,M,M,M,M,71.60,KHTH 141115Z AUTO 13005KT 10SM CLR 22/M00 A3012 RMK A01,M
TMT,2022-08-14 11:15,-117.1971,39.4643,1749.34,53.80,43.70,68.54,330.00,3.00,0.00,30.22,M,10.00,M,CLR,M,M,M,M,M,M,M,M,M,M,M,M,M,M,53.80,KTMT 141115Z AUTO 33003KT 10SM CLR 12/07 A3022 RMK AO2 T01210065,M
CXP,2022-08-14 11:30,-119.7326,39.1923,1431.00,57.20,33.80,41.13,0.00,0.00,0.00,30.18,M,10.00,M,CLR,M,M,M,M,M,M,M,M,M,M,M,M,M,M,57.20,KCXP 141130Z AUTO 00000KT 10SM CLR 14/01 A3018 RMK AO2,M
RTS,2022-08-14 11:35,-119.8764,39.6682,1539.00,53.60,23.00,30.11,350.00,6.00,0.00,30.20,M,10.00,M,CLR,M,M,M,M,M,M,M,M,M,M,M,M,M,M,53.60,KRTS 141135Z AUTO 35006KT 10SM CLR 12/M05 A3020 RMK AO2,M
MEV,2022-08-14 11:35,-119.7500,38.9963,1441.42,46.40,39.20,75.84,150.00,7.00,0.00,30.18,M,10.00,M,CLR,M,M,M,M,M,M,M,M,M,M,M,M,M,M,42.33,KMEV 141135Z AUTO 15007KT 10SM CLR 08/04 A3018 RMK AO2,M
TMT,2022-08-14 11:35,-117.1971,39.4643,1749.34,53.20,44.00,70.60,0.00,0.00,0.00,30.22,M,10.00,M,CLR,M,M,M,M,M,M,M,M,M,M,M,M,M,M,53.20,KTMT 141135Z AUTO 00000KT 10SM CLR 12/07 A3022 RMK AO2 T01180066,M
HTH,2022-08-14 11:35,-118.6315,38.5448,1282.89,71.60,28.40,19.98,0.00,0.00,0.00,30.12,M,10.00,M,CLR,M,M,M,M,M,M,M,M,M,M,M,M,M,M,71.60,KHTH 141135Z AUTO 00000KT 10SM CLR 22/M02 A3012 RMK A01,M
BAM,2022-08-14 11:35,-116.8743,40.5990,1382.36,55.40,32.00,40.84,0.00,0.00,0.00,30.12,M,10.00,M,CLR,M,M,M,M,M,M,M,M,M,M,M,M,M,M,55.40,KBAM 141135Z AUTO 00000KT 10SM CLR 13/00 A3012 RMK AO1,M
BVU,2022-08-14 11:35,-114.8611,35.9475,671.00,78.80,69.80,73.95,0.00,0.00,0.00,29.98,M,M,M,M,M,M,M,M,M,M,M,M,M,M,M,M,M,M,78.80,KBVU 141135Z AUTO 00000KT 26/21 A2998 RMK AO2 PWINO TSNO,M
CXP,2022-08-14 11:50,-119.7326,39.1923,1431.00,57.20,35.60,44.19,0.00,0.00,0.00,30.19,M,10.00,M,CLR,M,M,M,M,M,M,M,M,M,M,M,M,M,M,57.20,KCXP 141150Z AUTO 00000KT 10SM CLR 14/02 A3019 RMK AO2,M
LOL,2022-08-14 11:53,-118.5701,40.0684,1192.43,52.00,21.00,29.35,0.00,0.00,0.00,30.08,1014.50,9.00,M,CLR,M,M,M,M,M,M,M,M,M,M,M,M,M,M,52.00,KLOL 141153Z AUTO 00000KT 9SM CLR 11/M06 A3008 RMK AO2 SLP145 T01111061 10256 20094 58000,M
DRA,2022-08-14 11:53,-116.0278,36.6206,1009.00,79.00,63.00,58.04,120.00,5.00,0.00,30.04,1011.80,10.00,M,CLR,M,M,M,M,M,M,M,M,M,M,M,M,M,M,79.00,KDRA 141153Z AUTO 12005KT 10SM CLR 26/17 A3004 RMK AO2 SLP118 T02610172 10289 20250 55001,M
VGT,2022-08-14 11:53,-115.1933,36.2111,667.00,83.00,67.00,58.55,10.00,4.00,0.00,29.97,1013.70,10.00,M,CLR,M,M,M,M,M,M,M,M,M,M,M,M,M,M,85.45,KVGT 141153Z AUTO 01004KT 10SM CLR 28/19 A2997 RMK AO2 SLP137 T02830194 10306 20283 57000,M
P68,2022-08-14 11:53,-116.0056,39.6014,1993.00,57.00,48.00,71.81,200.00,7.00,0.00,30.22,1015.30,M,M,M,M,M,M,M,M,M,M,M,M,M,M,M,M,M,57.00,KP68 141153Z AUTO 20007KT 14/09 A3022 RMK AO1 SLP153 T01390089 10200 20122 55003,M
ELY,2022-08-14 11:53,-114.8453,39.2950,1909.00,52.00,51.00,96.73,0.00,0.00,0.00,30.29,1018.40,10.00,M,CLR,M,M,M,M,M,M,M,M,M,M,M,M,M,M,52.00,KELY 141153Z AUTO 00000KT 10SM CLR 11/11 A3029 RMK AO2 SLP184 70062 T01110106 10150 20106 56003 $,M
BVU,2022-08-14 11:55,-114.8611,35.9475,671.00,78.80,69.80,73.95,0.00,0.00,0.00,29.98,M,M,M,M,M,M,M,M,M,M,M,M,M,M,M,M,M,M,78.80,KBVU 141155Z AUTO 00000KT 26/21 A2998 RMK AO2 PWINO TSNO,M
BAM,2022-08-14 11:55,-116.8743,40.5990,1382.36,53.60,32.00,43.61,0.00,0.00,0.00,30.13,M,10.00,M,CLR,M,M,M,M,M,M,M,M,M,M,M,M,M,M,53.60,KBAM 141155Z AUTO 00000KT 10SM CLR 12/00 A3013 RMK AO1,M
TMT,2022-08-14 11:55,-117.1971,39.4643,1749.34,54.00,44.00,68.56,0.00,0.00,0.00,30.22,M,10.00,M,CLR,M,M,M,M,M,M,M,M,M,M,M,M,M,M,54.00,KTMT 141155Z AUTO 00000KT 10SM CLR 12/07 A3022 RMK AO2 T01220066 10171 20094,M
RNO,2022-08-14 11:55,-119.7711,39.4839,1341.00,64.00,33.00,31.41,280.00,5.00,0.00,30.16,1014.90,10.00,M,CLR,M,M,M,M,M,M,M,M,M,M,M,M,M,M,64.00,KRNO 141155Z 28005KT 10SM CLR 18/01 A3016 RMK AO2 SLP149 T01780006 10250 20167 58002,M
RTS,2022-08-14 11:55,-119.8764,39.6682,1539.00,55.40,23.00,28.20,360.00,5.00,0.00,30.20,M,10.00,M,CLR,M,M,M,M,M,M,M,M,M,M,M,M,M,M,55.40,KRTS 141155Z AUTO 36005KT 10SM CLR 13/M05 A3020 RMK AO2,M
HTH,2022-08-14 11:55,-118.6315,38.5448,1282.89,71.60,28.40,19.98,0.00,0.00,0.00,30.12,M,10.00,M,CLR,M,M,M,M,M,M,M,M,M,M,M,M,M,M,71.60,KHTH 141155Z AUTO 00000KT 10SM CLR 22/M02 A3012 RMK A01,M
MEV,2022-08-14 11:55,-119.7500,38.9963,1441.42,48.20,35.60,61.52,100.00,6.00,0.00,30.17,M,10.00,M,FEW,M,M,M,5000.00,M,M,M,M,M,M,M,M,M,M,45.04,KMEV 141155Z AUTO 10006KT 10SM FEW050 09/02 A3017 RMK AO2,M
WMC,2022-08-14 11:56,-117.8072,40.9019,1315.00,50.00,28.90,43.92,130.00,4.00,0.00,30.11,1014.90,10.00,M,CLR,M,M,M,M,M,M,M,M,M,M,M,M,M,M,50.00,KWMC 141156Z AUTO 13004KT 10SM CLR 10/M02 A3011 RMK AO2 SLP149 T01001017 10189 20083 51002 $,M
NFL,2022-08-14 11:56,-118.7010,39.4166,1199.00,61.00,37.00,40.77,160.00,4.00,0.00,30.09,1015.60,10.00,M,CLR,M,M,M,M,M,M,M,M,M,M,M,M,M,M,61.00,KNFL 141156Z AUTO 16004KT 10SM CLR 16/03 A3009 RMK AO2 SLP156 T01610028 10233 20150 51001,M
TPH,2022-08-14 11:56,-117.0904,38.0505,1654.00,63.00,54.00,72.42,360.00,6.00,0.00,30.20,1015.10,10.00,M,CLR,M,M,M,M,M,M,M,M,M,M,M,M,M,M,63.00,KTPH 141156Z AUTO 36006KT 10SM CLR 17/12 A3020 RMK AO2 SLP151 70001 T01720122 10211 20167 55003 $,M
LAS,2022-08-14 11:56,-115.1634,36.0719,663.00,81.00,64.00,56.30,0.00,0.00,0.00,29.97,1012.50,10.00,M,FEW,SCT,BKN,M,13000.00,17000.00,22000.00,M,M,M,M,M,M,M,M,82.54,KLAS 141156Z 00000KT 10SM FEW130 SCT170 BKN220 27/18 A2997 RMK AO2 SLP125 T02720178 10294 20272 55001,M
HND,2022-08-14 11:56,-115.1344,35.9729,742.79,78.00,65.00,63.90,200.00,6.00,0.00,30.01,1015.30,10.00,M,CLR,M,M,M,M,M,M,M,M,M,M,M,M,M,M,78.10,KHND 141156Z AUTO 20006KT 10SM CLR 26/18 A3001 RMK AO2 SLP153 T02560183 10272 20256 58000,M
EKO,2022-08-14 11:56,-115.7860,40.8242,1367.00,58.00,50.00,74.91,80.00,7.00,0.00,30.17,1016.10,10.00,M,CLR,M,M,M,M,M,M,M,M,M,M,M,M,M,M,57.90,KEKO 141156Z AUTO 08007KT 10SM CLR 14/10 A3017 RMK AO2 SLP161 T01440100 10194 20144 50001,M
LSV,2022-08-14 11:56,-115.0343,36.2362,570.00,80.60,64.40,57.84,50.00,6.00,0.00,29.96,1012.10,10.00,M,FEW,SCT,BKN,M,13000.00,17000.00,22000.00,M,M,M,M,M,M,M,M,82.27,KLSV 141156Z 05006KT 10SM FEW130 SCT170 BKN220 27/18 A2996 RMK SLP121 5//// WND DATA ESTMD ALSTG/SLP ESTMD $,M
CXP,2022-08-14 12:10,-119.7326,39.1923,1431.00,57.20,35.60,44.19,0.00,0.00,0.00,30.19,M,10.00,M,CLR,M,M,M,M,M,M,M,M,M,M,M,M,M,M,57.20,KCXP 141210Z AUTO 00000KT 10SM CLR 14/02 A3019 RMK AO2,M
TMT,2022-08-14 12:15,-117.1971,39.4643,1749.34,50.00,44.00,79.46,0.00,0.00,0.00,30.22,M,10.00,M,CLR,M,M,M,M,M,M,M,M,M,M,M,M,M,M,50.00,KTMT 141215Z AUTO 00000KT 10SM CLR 10/07 A3022 RMK AO2 T01000066,M
BVU,2022-08-14 12:15,-114.8611,35.9475,671.00,78.80,69.80,73.95,10.00,4.00,0.00,29.98,M,M,M,M,M,M,M,M,M,M,M,M,M,M,M,M,M,M,78.80,KBVU 141215Z AUTO 01004KT 26/21 A2998 RMK AO2 PWINO TSNO,M
RTS,2022-08-14 12:15,-119.8764,39.6682,1539.00,53.60,23.00,30.11,10.00,6.00,0.00,30.20,M,10.00,M,CLR,M,M,M,M,M,M,M,M,M,M,M,M,M,M,53.60,KRTS 141215Z AUTO 01006KT 10SM CLR 12/M05 A3020 RMK AO2,M
BAM,2022-08-14 12:15,-116.8743,40.5990,1382.36,51.80,30.20,43.32,0.00,0.00,0.00,30.13,M,10.00,M,CLR,M,M,M,M,M,M,M,M,M,M,M,M,M,M,51.80,KBAM 141215Z AUTO 00000KT 10SM CLR 11/M01 A3013 RMK AO1,M
HTH,2022-08-14 12:15,-118.6315,38.5448,1282.89,69.80,28.40,21.24,0.00,0.00,0.00,30.12,M,10.00,M,CLR,M,M,M,M,M,M,M,M,M,M,M,M,M,M,69.80,KHTH 141215Z AUTO 00000KT 10SM CLR 21/M02 A3012 RMK A01,M
MEV,2022-08-14 12:15,-119.7500,38.9963,1441.42,48.20,33.80,57.26,0.00,0.00,0.00,30.18,M,10.00,M,FEW,M,M,M,5500.00,M,M,M,M,M,M,M,M,M,M,48.20,KMEV 141215Z AUTO 00000KT 10SM FEW055 09/01 A3018 RMK AO2,M
CXP,2022-08-14 12:30,-119.7326,39.1923,1431.00,57.20,35.60,44.19,0.00,0.00,0.00,30.19,M,10.00,M,CLR,M,M,M,M,M,M,M,M,M,M,M,M,M,M,57.20,KCXP 141230Z AUTO 00000KT 10SM CLR 14/02 A3019 RMK AO2,M
TMT,2022-08-14 12:35,-117.1971,39.4643,1749.34,49.00,43.70,82.15,120.00,3.00,0.00,30.22,M,10.00,M,CLR,M,M,M,M,M,M,M,M,M,M,M,M,M,M,48.01,KTMT 141235Z AUTO 12003KT 10SM CLR 09/07 A3022 RMK AO2 T00940065,M
BVU,2022-08-14 12:35,-114.8611,35.9475,671.00,78.80,68.00,69.52,40.00,3.00,0.00,29.98,M,M,M,M,M,M,M,M,M,M,M,M,M,M,M,M,M,M,78.80,KBVU 141235Z AUTO 04003KT 26/20 A2998 RMK AO2 PWINO TSNO,M
RTS,2022-08-14 12:35,-119.8764,39.6682,1539.00,53.60,23.00,30.11,360.00,4.00,0.00,30.21,M,10.00,M,CLR,M,M,M,M,M,M,M,M,M,M,M,M,M,M,53.60,KRTS 141235Z AUTO 36004KT 10SM CLR 12/M05 A3021 RMK AO2,M
MEV,2022-08-14 12:35,-119.7500,38.9963,1441.42,50.00,33.80,53.54,0.00,0.00,0.00,30.18,M,10.00,M,FEW,M,M,M,5500.00,M,M,M,M,M,M,M,M,M,M,50.00,KMEV 141235Z AUTO 00000KT 10SM FEW055 10/01 A3018 RMK AO2,M
BAM,2022-08-14 12:35,-116.8743,40.5990,1382.36,51.80,30.20,43.32,0.00,0.00,0.00,30.13,M,10.00,M,CLR,M,M,M,M,M,M,M,M,M,M,M,M,M,M,51.80,KBAM 141235Z AUTO 00000KT 10SM CLR 11/M01 A3013 RMK AO1,M
HTH,2022-08-14 12:35,-118.6315,38.5448,1282.89,69.80,30.20,22.86,0.00,0.00,0.00,30.12,M,10.00,M,CLR,M,M,M,M,M,M,M,M,M,M,M,M,M,M,69.80,KHTH 141235Z AUTO 00000KT 10SM CLR 21/M01 A3012 RMK A01,M
CXP,2022-08-14 12:50,-119.7326,39.1923,1431.00,55.40,35.60,47.16,300.00,4.00,0.00,30.19,M,10.00,M,CLR,M,M,M,M,M,M,M,M,M,M,M,M,M,M,55.40,KCXP 141250Z AUTO 30004KT 10SM CLR 13/02 A3019 RMK AO2,M
LOL,2022-08-14 12:53,-118.5701,40.0684,1192.43,52.00,21.00,29.35,30.00,4.00,0.00,30.09,1015.20,10.00,M,CLR,M,M,M,M,M,M,M,M,M,M,M,M,M,M,52.00,KLOL 141253Z AUTO 03004KT 10SM CLR 11/M06 A3009 RMK AO2 SLP152 T01111061,M
P68,2022-08-14 12:53,-116.0056,39.6014,1993.00,56.00,48.00,74.72,190.00,7.00,0.00,30.23,1015.60,M,M,M,M,M,M,M,M,M,M,M,M,M,M,M,M,M,55.90,KP68 141253Z AUTO 19007KT 13/09 A3023 RMK AO1 SLP156 T01330089,M
DRA,2022-08-14 12:53,-116.0278,36.6206,1009.00,78.00,63.00,59.78,100.00,8.00,0.00,30.05,1012.30,10.00,M,CLR,M,M,M,M,M,M,M,M,M,M,M,M,M,M,78.10,KDRA 141253Z AUTO 10008KT 10SM CLR 26/17 A3005 RMK AO2 SLP123 T02560172,M
ELY,2022-08-14 12:53,-114.8453,39.2950,1909.00,51.00,50.00,96.00,170.00,5.00,0.00,30.29,1018.60,10.00,M,CLR,M,M,M,M,M,M,M,M,M,M,M,M,M,M,51.10,KELY 141253Z AUTO 17005KT 10SM CLR 11/10 A3029 RMK AO2 SLP186 T01060100 $,M
VGT,2022-08-14 12:53,-115.1933,36.2111,667.00,82.00,67.00,60.28,0.00,0.00,0.00,29.98,1014.10,10.00,M,CLR,M,M,M,M,M,M,M,M,M,M,M,M,M,M,84.48,KVGT 141253Z 00000KT 10SM CLR 28/19 A2998 RMK AO2 SLP141 T02780194,M
TMT,2022-08-14 12:55,-117.1971,39.4643,1749.34,50.20,43.70,78.27,0.00,0.00,0.00,30.22,M,10.00,M,CLR,M,M,M,M,M,M,M,M,M,M,M,M,M,M,50.20,KTMT 141255Z AUTO 00000KT 10SM CLR 10/07 A3022 RMK AO2 T01010065,M
HTH,2022-08-14 12:55,-118.6315,38.5448,1282.89,68.00,32.00,26.15,190.00,3.00,0.00,30.13,M,10.00,M,CLR,M,M,M,M,M,M,M,M,M,M,M,M,M,M,68.00,KHTH 141255Z AUTO 19003KT 10SM CLR 20/M00 A3013 RMK A01,M
BVU,2022-08-14 12:55,-114.8611,35.9475,671.00,78.80,68.00,69.52,20.00,4.00,0.00,29.99,M,M,M,M,M,M,M,M,M,M,M,M,M,M,M,M,M,M,78.80,KBVU 141255Z AUTO 02004KT 26/20 A2999 RMK AO2 PWINO TSNO,M
RNO,2022-08-14 12:55,-119.7711,39.4839,1341.00,62.00,34.00,34.81,280.00,3.00,0.00,30.17,1015.60,10.00,M,CLR,M,M,M,M,M,M,M,M,M,M,M,M,M,M,62.10,KRNO 141255Z 28003KT 10SM CLR 17/01 A3017 RMK AO2 SLP156 T01670011,M
RTS,2022-08-14 12:55,-119.8764,39.6682,1539.00,51.80,21.20,29.82,0.00,0.00,0.00,30.21,M,10.00,M,CLR,M,M,M,M,M,M,M,M,M,M,M,M,M,M,51.80,KRTS 141255Z AUTO 00000KT 10SM CLR 11/M06 A3021 RMK AO2,M
BAM,2022-08-14 12:55,-116.8743,40.5990,1382.36,51.80,30.20,43.32,0.00,0.00,0.00,30.13,M,10.00,M,CLR,M,M,M,M,M,M,M,M,M,M,M,M,M,M,51.80,KBAM 141255Z AUTO 00000KT 10SM CLR 11/M01 A3013 RMK AO1,M
MEV,2022-08-14 12:55,-119.7500,38.9963,1441.42,46.40,33.80,61.28,0.00,0.00,0.00,30.18,M,10.00,M,CLR,M,M,M,M,M,M,M,M,M,M,M,M,M,M,46.40,KMEV 141255Z AUTO 00000KT 10SM CLR 08/01 A3018 RMK AO2,M
NFL,2022-08-14 12:56,-118.7010,39.4166,1199.00,60.00,37.00,42.09,170.00,5.00,0.00,30.10,1015.90,10.00,M,CLR,M,M,M,M,M,M,M,M,M,M,M,M,M,M,60.10,KNFL 141256Z AUTO 17005KT 10SM CLR 16/03 A3010 RMK AO2 SLP159 T01560028,M
EKO,2022-08-14 12:56,-115.7860,40.8242,1367.00,56.00,50.00,80.52,90.00,6.00,0.00,30.18,1017.10,10.00,M,CLR,M,M,M,M,M,M,M,M,M,M,M,M,M,M,55.90,KEKO 141256Z AUTO 09006KT 10SM CLR 13/10 A3018 RMK AO2 SLP171 T01330100,M
LSV,2022-08-14 12:56,-115.0343,36.2362,570.00,78.80,64.40,61.36,50.00,6.00,0.00,29.96,1012.20,10.00,M,SCT,BKN,M,M,13000.00,22000.00,M,M,M,M,M,M,M,M,M,78.80,KLSV 141256Z 05006KT 10SM SCT130 BKN220 26/18 A2996 RMK SLP122 WND DATA ESTMD ALSTG/SLP ESTMD $,M
TPH,2022-08-14 12:56,-117.0904,38.0505,1654.00,61.00,52.00,72.22,360.00,8.00,0.00,30.21,1015.50,10.00,M,CLR,M,M,M,M,M,M,M,M,M,M,M,M,M,M,61.00,KTPH 141256Z AUTO 36008KT 10SM CLR 16/11 A3021 RMK AO2 SLP155 T01610111 $,M
WMC,2022-08-14 12:56,-117.8072,40.9019,1315.00,49.00,30.00,47.85,0.00,0.00,0.00,30.12,1015.50,10.00,M,CLR,M,M,M,M,M,M,M,M,M,M,M,M,M,M,48.90,KWMC 141256Z AUTO 00000KT 10SM CLR 09/M01 A3012 RMK AO2 SLP155 T00941011 $,M
LAS,2022-08-14 12:56,-115.1634,36.0719,663.00,81.00,64.00,56.30,0.00,0.00,0.00,29.98,1012.80,10.00,M,FEW,SCT,BKN,M,13000.00,17000.00,22000.00,M,M,M,M,M,M,M,M,82.54,KLAS 141256Z 00000KT 10SM FEW130 SCT170 BKN220 27/18 A2998 RMK AO2 SLP128 T02720178,M
HND,2022-08-14 12:56,-115.1344,35.9729,742.79,77.00,65.00,66.27,190.00,6.00,0.00,30.02,1015.60,10.00,M,CLR,M,M,M,M,M,M,M,M,M,M,M,M,M,M,77.00,KHND 141256Z AUTO 19006KT 10SM CLR 25/18 A3002 RMK AO2 SLP156 T02500183,M
CXP,2022-08-14 13:10,-119.7326,39.1923,1431.00,53.60,33.80,46.88,310.00,4.00,0.00,30.20,M,10.00,M,CLR,M,M,M,M,M,M,M,M,M,M,M,M,M,M,53.60,KCXP 141310Z AUTO 31004KT 10SM CLR 12/01 A3020 RMK AO2,M
HTH,2022-08-14 13:15,-118.6315,38.5448,1282.89,69.80,35.60,28.39,0.00,0.00,0.00,30.13,M,10.00,M,CLR,M,M,M,M,M,M,M,M,M,M,M,M,M,M,69.80,KHTH 141315Z AUTO 00000KT 10SM CLR 21/02 A3013 RMK A01,M
RTS,2022-08-14 13:15,-119.8764,39.6682,1539.00,50.00,21.20,31.87,340.00,3.00,0.00,30.21,M,10.00,M,CLR,M,M,M,M,M,M,M,M,M,M,M,M,M,M,50.00,KRTS 141315Z AUTO 34003KT 10SM CLR 10/M06 A3021 RMK AO2,M
TMT,2022-08-14 13:15,-117.1971,39.4643,1749.34,53.00,44.60,73.31,0.00,0.00,0.00,30.22,M,10.00,M,CLR,M,M,M,M,M,M,M,M,M,M,M,M,M,M,52.90,KTMT 141315Z AUTO 00000KT 10SM CLR 12/07 A3022 RMK AO2 T01160070,M
BVU,2022-08-14 13:15,-114.8611,35.9475,671.00,80.60,68.00,65.54,30.00,6.00,0.00,29.99,M,M,M,M,M,M,M,M,M,M,M,M,M,M,M,M,M,M,83.29,KBVU 141315Z AUTO 03006KT 27/20 A2999 RMK AO2 PWINO TSNO,M
BAM,2022-08-14 13:15,-116.8743,40.5990,1382.36,51.80,30.20,43.32,0.00,0.00,0.00,30.14,M,10.00,M,CLR,M,M,M,M,M,M,M,M,M,M,M,M,M,M,51.80,KBAM 141315Z AUTO 00000KT 10SM CLR 11/M01 A3014 RMK AO1,M
MEV,2022-08-14 13:15,-119.7500,38.9963,1441.42,44.60,33.80,65.61,0.00,0.00,0.00,30.19,M,10.00,M,CLR,M,M,M,M,M,M,M,M,M,M,M,M,M,M,44.60,KMEV 141315Z AUTO 00000KT 10SM CLR 07/01 A3019 RMK AO2,M
CXP,2022-08-14 13:30,-119.7326,39.1923,1431.00,55.40,33.80,43.90,0.00,0.00,0.00,30.20,M,10.00,M,CLR,M,M,M,M,M,M,M,M,M,M,M,M,M,M,55.40,KCXP 141330Z AUTO 00000KT 10SM CLR 13/01 A3020 RMK AO2,M
RTS,2022-08-14 13:35,-119.8764,39.6682,1539.00,51.80,23.00,32.17,350.00,4.00,0.00,30.22,M,10.00,M,CLR,M,M,M,M,M,M,M,M,M,M,M,M,M,M,51.80,KRTS 141335Z AUTO 35004KT 10SM CLR 11/M05 A3022 RMK AO2,M
TMT,2022-08-14 13:35,-117.1971,39.4643,1749.34,54.70,46.20,72.94,0.00,0.00,0.00,30.23,M,10.00,M,SCT,M,M,M,12000.00,M,M,M,M,M,M,M,M,M,M,54.70,KTMT 141335Z AUTO 00000KT 10SM SCT120 13/08 A3023 RMK AO2 T01260079,M
HTH,2022-08-14 13:35,-118.6315,38.5448,1282.89,68.00,35.60,30.20,220.00,3.00,0.00,30.14,M,10.00,M,CLR,M,M,M,M,M,M,M,M,M,M,M,M,M,M,68.00,KHTH 141335Z AUTO 22003KT 10SM CLR 20/02 A3014 RMK A01,M
BAM,2022-08-14 13:35,-116.8743,40.5990,1382.36,51.80,28.40,40.25,150.00,3.00,0.00,30.15,M,10.00,M,CLR,M,M,M,M,M,M,M,M,M,M,M,M,M,M,51.80,KBAM 141335Z AUTO 15003KT 10SM CLR 11/M02 A3015 RMK AO1,M
MEV,2022-08-14 13:35,-119.7500,38.9963,1441.42,44.60,33.80,65.61,0.00,0.00,0.00,30.19,M,10.00,M,CLR,M,M,M,M,M,M,M,M,M,M,M,M,M,M,44.60,KMEV 141335Z AUTO 00000KT 10SM CLR 07/01 A3019 RMK AO2,M
BVU,2022-08-14 13:35,-114.8611,35.9475,671.00,80.60,69.80,69.71,0.00,0.00,0.00,29.99,M,M,M,M,M,M,M,M,M,M,M,M,M,M,M,M,M,M,83.90,KBVU 141335Z AUTO 00000KT 27/21 A2999 RMK AO2 PWINO TSNO,M
CXP,2022-08-14 13:50,-119.7326,39.1923,1431.00,59.00,35.60,41.42,0.00,0.00,0.00,30.21,M,10.00,M,FEW,M,M,M,1300.00,M,M,M,M,M,M,M,M,M,M,59.00,KCXP 141350Z AUTO 00000KT 10SM FEW013 15/02 A3021 RMK AO2,M
ELY,2022-08-14 13:53,-114.8453,39.2950,1909.00,53.00,52.00,96.03,180.00,5.00,0.00,30.30,1018.70,10.00,M,CLR,M,M,M,M,M,M,M,M,M,M,M,M,M,M,53.10,KELY 141353Z AUTO 18005KT 10SM CLR 12/11 A3030 RMK AO2 SLP187 T01170111 $,M
DRA,2022-08-14 13:53,-116.0278,36.6206,1009.00,79.00,63.00,58.04,100.00,7.00,0.00,30.06,1012.70,10.00,M,CLR,M,M,M,M,M,M,M,M,M,M,M,M,M,M,79.00,KDRA 141353Z AUTO 10007KT 10SM CLR 26/17 A3006 RMK AO2 SLP127 T02610172,M
LOL,2022-08-14 13:53,-118.5701,40.0684,1192.43,54.00,19.00,25.04,0.00,0.00,0.00,30.11,1015.70,10.00,M,CLR,M,M,M,M,M,M,M,M,M,M,M,M,M,M,54.00,KLOL 141353Z AUTO 00000KT 10SM CLR 12/M07 A3011 RMK AO2 SLP157 T01221072,M
P68,2022-08-14 13:53,-116.0056,39.6014,1993.00,58.00,49.00,71.90,200.00,6.00,0.00,30.24,1015.80,M,M,M,M,M,M,M,M,M,M,M,M,M,M,M,M,M,57.90,KP68 141353Z AUTO 20006KT 14/09 A3024 RMK AO1 SLP158 T01440094,M
VGT,2022-08-14 13:53,-115.1933,36.2111,667.00,82.00,67.00,60.28,320.00,3.00,0.00,29.99,1014.40,10.00,M,CLR,M,M,M,M,M,M,M,M,M,M,M,M,M,M,84.48,KVGT 141353Z 32003KT 10SM CLR 28/19 A2999 RMK AO2 SLP144 T02780194,M
BVU,2022-08-14 13:55,-114.8611,35.9475,671.00,82.40,66.20,58.08,250.00,3.00,0.00,30.00,M,M,M,M,M,M,M,M,M,M,M,M,M,M,M,M,M,M,84.63,KBVU 141355Z AUTO 25003KT 28/19 A3000 RMK AO2 PWINO TSNO,M
HTH,2022-08-14 13:55,-118.6315,38.5448,1282.89,68.00,35.60,30.20,220.00,5.00,0.00,30.14,M,10.00,M,CLR,M,M,M,M,M,M,M,M,M,M,M,M,M,M,68.00,KHTH 141355Z AUTO 22005KT 10SM CLR 20/02 A3014 RMK A01,M
TMT,2022-08-14 13:55,-117.1971,39.4643,1749.34,54.00,46.80,76.26,0.00,0.00,0.00,30.24,M,10.00,M,SCT,M,M,M,12000.00,M,M,M,M,M,M,M,M,M,M,54.10,KTMT 141355Z AUTO 00000KT 10SM SCT120 12/08 A3024 RMK AO2 T01230082,M
RTS,2022-08-14 13:55,-119.8764,39.6682,1539.00,55.40,24.80,30.40,340.00,4.00,0.00,30.22,M,10.00,M,CLR,M,M,M,M,M,M,M,M,M,M,M,M,M,M,55.40,KRTS 141355Z AUTO 34004KT 10SM CLR 13/M04 A3022 RMK AO2,M
MEV,2022-08-14 13:55,-119.7500,38.9963,1441.42,50.00,35.60,57.52,0.00,0.00,0.00,30.20,M,10.00,M,CLR,M,M,M,M,M,M,M,M,M,M,M,M,M,M,50.00,KMEV 141355Z AUTO 00000KT 10SM CLR 10/02 A3020 RMK AO2,M
RNO,2022-08-14 13:55,-119.7711,39.4839,1341.00,60.00,39.00,45.53,180.00,3.00,0.00,30.18,1016.50,10.00,M,CLR,M,M,M,M,M,M,M,M,M,M,M,M,M,M,60.10,KRNO 141355Z 18003KT 10SM CLR 16/04 A3018 RMK AO2 SLP165 T01560039,M
BAM,2022-08-14 13:55,-116.8743,40.5990,1382.36,55.40,32.00,40.84,0.00,0.00,0.00,30.15,M,10.00,M,CLR,M,M,M,M,M,M,M,M,M,M,M,M,M,M,55.40,KBAM 141355Z AUTO 00000KT 10SM CLR 13/00 A3015 RMK AO1,M
TPH,2022-08-14 13:56,-117.0904,38.0505,1654.00,64.00,52.00,64.97,20.00,7.00,0.00,30.23,1016.10,10.00,M,CLR,M,M,M,M,M,M,M,M,M,M,M,M,M,M,64.00,KTPH 141356Z AUTO 02007KT 10SM CLR 18/11 A3023 RMK AO2 SLP161 T01780111 $,M
WMC,2022-08-14 13:56,-117.8072,40.9019,1315.00,52.00,32.00,46.25,0.00,0.00,0.00,30.14,1016.00,10.00,M,CLR,M,M,M,M,M,M,M,M,M,M,M,M,M,M,52.00,KWMC 141356Z AUTO 00000KT 10SM CLR 11/00 A3014 RMK AO2 SLP160 T01110000 $,M
EKO,2022-08-14 13:56,-115.7860,40.8242,1367.00,59.00,51.00,75.02,60.00,5.00,0.00,30.19,1017.10,10.00,M,CLR,M,M,M,M,M,M,M,M,M,M,M,M,M,M,59.00,KEKO 141356Z AUTO 06005KT 10SM CLR 15/11 A3019 RMK AO2 SLP171 T01500106,M
LSV,2022-08-14 13:56,-115.0343,36.2362,570.00,80.60,64.40,57.84,40.00,6.00,0.00,29.97,1012.40,10.00,M,SCT,BKN,M,M,13000.00,22000.00,M,M,M,M,M,M,M,M,M,82.27,KLSV 141356Z 04006KT 10SM SCT130 BKN220 27/18 A2997 RMK SLP124 WND DATA ESTMD ALSTG/SLP ESTMD $,M
HND,2022-08-14 13:56,-115.1344,35.9729,742.79,78.00,66.00,66.39,190.00,5.00,0.00,30.03,1015.90,10.00,M,CLR,M,M,M,M,M,M,M,M,M,M,M,M,M,M,78.10,KHND 141356Z 19005KT 10SM CLR 26/19 A3003 RMK AO2 SLP159 T02560189,M
LAS,2022-08-14 13:56,-115.1634,36.0719,663.00,81.00,64.00,56.30,0.00,0.00,0.00,29.99,1013.10,10.00,M,FEW,BKN,BKN,M,13000.00,15000.00,22000.00,M,M,M,M,M,M,M,M,82.54,KLAS 141356Z 00000KT 10SM FEW130 BKN150 BKN220 27/18 A2999 RMK AO2 SLP131 T02720178,M
NFL,2022-08-14 13:56,-118.7010,39.4166,1199.00,63.00,38.00,39.36,170.00,4.00,0.00,30.11,1016.40,10.00,M,CLR,M,M,M,M,M,M,M,M,M,M,M,M,M,M,63.00,KNFL 141356Z AUTO 17004KT 10SM CLR 17/03 A3011 RMK AO2 SLP164 T01720033,M
INS,2022-08-14 13:58,-115.6733,36.5872,955.00,76.00,61.00,59.92,0.00,0.00,0.00,30.06,1013.00,10.00,M,SCT,SCT,M,M,13000.00,21000.00,M,M,M,M,M,M,M,M,M,75.90,KINS 141358Z AUTO 00000KT 10SM SCT130 SCT210 24/16 A3006 RMK AO2 SLP130 T02440161,M
CXP,2022-08-14 14:10,-119.7326,39.1923,1431.00,59.00,37.40,44.47,0.00,0.00,0.00,30.21,M,10.00,M,CLR,M,M,M,M,M,M,M,M,M,M,M,M,M,M,59.00,KCXP 141410Z AUTO 00000KT 10SM CLR 15/03 A3021 RMK AO2,M
BAM,2022-08-14 14:15,-116.8743,40.5990,1382.36,59.00,32.00,35.87,0.00,0.00,0.00,30.15,M,10.00,M,CLR,M,M,M,M,M,M,M,M,M,M,M,M,M,M,59.00,KBAM 141415Z AUTO 00000KT 10SM CLR 15/00 A3015 RMK AO1,M
TMT,2022-08-14 14:15,-117.1971,39.4643,1749.34,57.70,46.40,65.93,0.00,0.00,0.00,30.24,M,10.00,M,CLR,M,M,M,M,M,M,M,M,M,M,M,M,M,M,57.70,KTMT 141415Z AUTO 00000KT 10SM CLR 14/08 A3024 RMK AO2 T01430080,M
BVU,2022-08-14 14:15,-114.8611,35.9475,671.00,82.40,68.00,61.81,0.00,0.00,0.00,30.00,M,M,M,M,M,M,M,M,M,M,M,M,M,M,M,M,M,M,85.38,KBVU 141415Z AUTO 00000KT 28/20 A3000 RMK AO2 PWINO TSNO,M
MEV,2022-08-14 14:15,-119.7500,38.9963,1441.42,51.80,37.40,57.77,0.00,0.00,0.00,30.20,M,10.00,M,CLR,M,M,M,M,M,M,M,M,M,M,M,M,M,M,51.80,KMEV 141415Z AUTO 00000KT 10SM CLR 11/03 A3020 RMK AO2,M
HTH,2022-08-14 14:15,-118.6315,38.5448,1282.89,69.80,33.80,26.43,220.00,4.00,0.00,30.15,M,10.00,M,CLR,M,M,M,M,M,M,M,M,M,M,M,M,M,M,69.80,KHTH 141415Z AUTO 22004KT 10SM CLR 21/01 A3015 RMK A01,M
RTS,2022-08-14 14:15,-119.8764,39.6682,1539.00,57.20,23.00,26.42,0.00,0.00,0.00,30.23,M,10.00,M,CLR,M,M,M,M,M,M,M,M,M,M,M,M,M,M,57.20,KRTS 141415Z AUTO 00000KT 10SM CLR 14/M05 A3023 RMK AO2,M
CXP,2022-08-14 14:30,-119.7326,39.1923,1431.00,60.80,37.40,41.71,0.00,0.00,0.00,30.21,M,10.00,M,CLR,M,M,M,M,M,M,M,M,M,M,M,M,M,M,60.80,KCXP 141430Z AUTO 00000KT 10SM CLR 16/03 A3021 RMK AO2,M
RTS,2022-08-14 14:35,-119.8764,39.6682,1539.00,60.80,24.80,25.04,340.00,3.00,0.00,30.23,M,10.00,M,CLR,M,M,M,M,M,M,M,M,M,M,M,M,M,M,60.80,KRTS 141435Z AUTO 34003KT 10SM CLR 16/M04 A3023 RMK AO2,M
BAM,2022-08-14 14:35,-116.8743,40.5990,1382.36,60.80,33.80,36.16,250.00,3.00,0.00,30.16,M,10.00,M,CLR,M,M,M,M,M,M,M,M,M,M,M,M,M,M,60.80,KBAM 141435Z AUTO 25003KT 10SM CLR 16/01 A3016 RMK AO1,M
HTH,2022-08-14 14:35,-118.6315,38.5448,1282.89,69.80,35.60,28.39,0.00,0.00,0.00,30.15,M,10.00,M,CLR,M,M,M,M,M,M,M,M,M,M,M,M,M,M,69.80,KHTH 141435Z AUTO 00000KT 10SM CLR 21/02 A3015 RMK A01,M
TMT,2022-08-14 14:35,-117.1971,39.4643,1749.34,60.00,47.80,64.23,0.00,0.00,0.00,30.25,M,10.00,M,CLR,M,M,M,M,M,M,M,M,M,M,M,M,M,M,59.90,KTMT 141435Z AUTO 00000KT 10SM CLR 16/09 A3025 RMK AO2 T01550088,M
BVU,2022-08-14 14:35,-114.8611,35.9475,671.00,82.40,68.00,61.81,0.00,0.00,0.00,30.01,M,M,M,M,M,M,M,M,M,M,M,M,M,M,M,M,M,M,85.38,KBVU 141435Z AUTO 00000KT 28/20 A3001 RMK AO2 PWINO TSNO,M
MEV,2022-08-14 14:35,-119.7500,38.9963,1441.42,57.20,35.60,44.19,0.00,0.00,0.00,30.20,M,10.00,M,CLR,M,M,M,M,M,M,M,M,M,M,M,M,M,M,57.20,KMEV 141435Z AUTO 00000KT 10SM CLR 14/02 A3020 RMK AO2,M
CXP,2022-08-14 14:50,-119.7326,39.1923,1431.00,60.80,39.20,44.76,0.00,0.00,0.00,30.22,M,10.00,M,CLR,M,M,M,M,M,M,M,M,M,M,M,M,M,M,60.80,KCXP 141450Z AUTO 00000KT 10SM CLR 16/04 A3022 RMK AO2,M
LOL,2022-08-14 14:53,-118.5701,40.0684,1192.43,64.00,25.00,22.56,0.00,0.00,0.00,30.12,1016.00,9.00,M,CLR,M,M,M,M,M,M,M,M,M,M,M,M,M,M,64.00,KLOL 141453Z AUTO 00000KT 9SM CLR 18/M04 A3012 RMK AO2 SLP160 T01781039 51013,M
VGT,2022-08-14 14:53,-115.1933,36.2111,667.00,86.00,66.00,51.37,0.00,0.00,0.00,30.00,1014.70,10.00,M,CLR,M,M,M,M,M,M,M,M,M,M,M,M,M,M,88.28,KVGT 141453Z 00000KT 10SM CLR 30/19 A3000 RMK AO2 SLP147 T03000189 53010,M
DRA,2022-08-14 14:53,-116.0278,36.6206,1009.00,84.00,62.00,47.78,0.00,0.00,0.00,30.06,1012.80,10.00,M,CLR,M,M,M,M,M,M,M,M,M,M,M,M,M,M,84.67,KDRA 141453Z AUTO 00000KT 10SM CLR 29/17 A3006 RMK AO2 SLP128 T02890167 51008,M
P68,2022-08-14 14:53,-116.0056,39.6014,1993.00,67.00,49.00,52.35,220.00,4.00,0.00,30.24,1015.60,M,M,M,M,M,M,M,M,M,M,M,M,M,M,M,M,M,66.90,KP68 141453Z AUTO 22004KT 19/09 A3024 RMK AO1 SLP156 T01940094 51007,M
ELY,2022-08-14 14:53,-114.8453,39.2950,1909.00,58.00,55.00,90.04,200.00,7.00,0.00,30.30,1018.30,10.00,M,CLR,M,M,M,M,M,M,M,M,M,M,M,M,M,M,57.90,KELY 141453Z AUTO 20007KT 10SM CLR 14/13 A3030 RMK AO2 SLP183 T01440128 53005 $,M
BAM,2022-08-14 14:55,-116.8743,40.5990,1382.36,64.40,37.40,36.74,0.00,0.00,0.00,30.16,M,10.00,M,CLR,M,M,M,M,M,M,M,M,M,M,M,M,M,M,64.40,KBAM 141455Z AUTO 00000KT 10SM CLR 18/03 A3016 RMK AO1,M
BVU,2022-08-14 14:55,-114.8611,35.9475,671.00,84.20,68.00,58.32,0.00,0.00,0.00,30.01,M,M,M,M,M,M,M,M,M,M,M,M,M,M,M,M,M,M,87.40,KBVU 141455Z AUTO 00000KT 29/20 A3001 RMK AO2 PWINO TSNO,M
RNO,2022-08-14 14:55,-119.7711,39.4839,1341.00,65.00,36.00,34.17,200.00,3.00,0.00,30.19,1016.50,10.00,M,CLR,M,M,M,M,M,M,M,M,M,M,M,M,M,M,64.90,KRNO 141455Z 20003KT 10SM CLR 18/02 A3019 RMK AO2 SLP165 T01830022 51009,M
TMT,2022-08-14 14:55,-117.1971,39.4643,1749.34,60.80,47.70,61.98,0.00,0.00,0.00,30.25,M,10.00,M,SCT,M,M,M,12000.00,M,M,M,M,M,M,M,M,M,M,60.80,KTMT 141455Z AUTO 00000KT 10SM SCT120 16/09 A3025 RMK AO2 T01600087,M
RTS,2022-08-14 14:55,-119.8764,39.6682,1539.00,62.60,26.60,25.32,310.00,3.00,0.00,30.22,M,10.00,M,CLR,M,M,M,M,M,M,M,M,M,M,M,M,M,M,62.60,KRTS 141455Z AUTO 31003KT 10SM CLR 17/M03 A3022 RMK AO2,M
MEV,2022-08-14 14:55,-119.7500,38.9963,1441.42,60.80,37.40,41.71,0.00,0.00,0.00,30.20,M,10.00,M,CLR,M,M,M,M,M,M,M,M,M,M,M,M,M,M,60.80,KMEV 141455Z AUTO 00000KT 10SM CLR 16/03 A3020 RMK AO2,M
HTH,2022-08-14 14:55,-118.6315,38.5448,1282.89,71.60,35.60,26.71,0.00,0.00,0.00,30.16,M,10.00,M,CLR,M,M,M,M,M,M,M,M,M,M,M,M,M,M,71.60,KHTH 141455Z AUTO 00000KT 10SM CLR 22/02 A3016 RMK A01,M
EKO,2022-08-14 14:56,-115.7860,40.8242,1367.00,63.00,51.00,65.09,40.00,6.00,0.00,30.20,1017.70,10.00,M,CLR,M,M,M,M,M,M,M,M,M,M,M,M,M,M,63.00,KEKO 141456Z AUTO 04006KT 10SM CLR 17/11 A3020 RMK AO2 SLP177 T01720106 51009,M
NFL,2022-08-14 14:56,-118.7010,39.4166,1199.00,69.00,37.00,30.74,150.00,5.00,0.00,30.13,1016.70,10.00,M,CLR,M,M,M,M,M,M,M,M,M,M,M,M,M,M,69.10,KNFL 141456Z AUTO 15005KT 10SM CLR 21/03 A3013 RMK AO2 SLP167 T02060028 51012,M
TPH,2022-08-14 14:56,-117.0904,38.0505,1654.00,70.00,52.00,52.80,10.00,3.00,0.00,30.24,1016.20,10.00,M,CLR,M,M,M,M,M,M,M,M,M,M,M,M,M,M,70.00,KTPH 141456Z AUTO 01003KT 10SM CLR 21/11 A3024 RMK AO2 SLP162 T02110111 52009 $,M
LSV,2022-08-14 14:56,-115.0343,36.2362,570.00,80.60,64.40,57.84,120.00,2.00,0.00,29.98,1012.90,10.00,M,SCT,SCT,M,M,13000.00,22000.00,M,M,M,M,M,M,M,M,M,82.27,KLSV 141456Z 12002KT 10SM SCT130 SCT220 27/18 A2998 RMK SLP129 5//// WND DATA ESTMD ALSTG/SLP ESTMD $,M
HND,2022-08-14 14:56,-115.1344,35.9729,742.79,82.00,65.00,56.24,190.00,5.00,0.00,30.05,1016.20,10.00,M,CLR,M,M,M,M,M,M,M,M,M,M,M,M,M,M,83.76,KHND 141456Z 19005KT 10SM CLR 28/18 A3005 RMK AO2 SLP162 T02780183 53010,M
WMC,2022-08-14 14:56,-117.8072,40.9019,1315.00,64.00,28.90,26.50,0.00,0.00,0.00,30.15,1016.30,10.00,M,CLR,M,M,M,M,M,M,M,M,M,M,M,M,M,M,64.00,KWMC 141456Z AUTO 00000KT 10SM CLR 18/M02 A3015 RMK AO2 SLP163 T01781017 51011 $,M
LAS,2022-08-14 14:56,-115.1634,36.0719,663.00,83.00,66.00,56.75,0.00,0.00,0.00,30.01,1013.50,10.00,M,BKN,BKN,M,M,15000.00,22000.00,M,M,M,M,M,M,M,M,M,85.07,KLAS 141456Z 00000KT 10SM BKN150 BKN220 28/19 A3001 RMK AO2 SLP135 T02830189 53010,M
INS,2022-08-14 14:58,-115.6733,36.5872,955.00,77.50,61.00,56.82,0.00,0.00,0.00,30.07,1013.50,10.00,M,CLR,M,M,M,M,M,M,M,M,M,M,M,M,M,M,77.50,KINS 141458Z AUTO 00000KT 10SM CLR 25/16 A3007 RMK AO2 SLP135 T02530161 52009,M
CXP,2022-08-14 15:10,-119.7326,39.1923,1431.00,64.40,37.40,36.74,0.00,0.00,0.00,30.21,M,10.00,M,CLR,M,M,M,M,M,M,M,M,M,M,M,M,M,M,64.40,KCXP 141510Z AUTO 00000KT 10SM CLR 18/03 A3021 RMK AO2,M
BAM,2022-08-14 15:15,-116.8743,40.5990,1382.36,69.80,41.00,35.09,20.00,3.00,0.00,30.17,M,10.00,M,CLR,M,M,M,M,M,M,M,M,M,M,M,M,M,M,69.80,KBAM 141515Z AUTO 02003KT 10SM CLR 21/05 A3017 RMK AO1,M
BVU,2022-08-14 15:15,-114.8611,35.9475,671.00,84.20,68.00,58.32,0.00,0.00,0.00,30.01,M,M,M,M,M,M,M,M,M,M,M,M,M,M,M,M,M,M,87.40,KBVU 141515Z AUTO 00000KT 29/20 A3001 RMK AO2 PWINO TSNO,M
TMT,2022-08-14 15:15,-117.1971,39.4643,1749.34,60.60,49.50,66.77,0.00,0.00,0.00,30.25,M,10.00,M,CLR,M,M,M,M,M,M,M,M,M,M,M,M,M,M,60.60,KTMT 141515Z AUTO 00000KT 10SM CLR 16/10 A3025 RMK AO2 T01590097,M
RTS,2022-08-14 15:15,-119.8764,39.6682,1539.00,64.40,26.60,23.77,0.00,0.00,0.00,30.23,M,10.00,M,CLR,M,M,M,M,M,M,M,M,M,M,M,M,M,M,64.40,KRTS 141515Z AUTO 00000KT 10SM CLR 18/M03 A3023 RMK AO2,M
MEV,2022-08-14 15:15,-119.7500,38.9963,1441.42,62.60,35.60,36.45,0.00,0.00,0.00,30.20,M,10.00,M,CLR,M,M,M,M,M,M,M,M,M,M,M,M,M,M,62.60,KMEV 141515Z AUTO 00000KT 10SM CLR 17/02 A3020 RMK AO2,M
HTH,2022-08-14 15:15,-118.6315,38.5448,1282.89,73.40,33.80,23.39,300.00,3.00,0.00,30.16,M,10.00,M,CLR,M,M,M,M,M,M,M,M,M,M,M,M,M,M,73.40,KHTH 141515Z AUTO 30003KT 10SM CLR 23/01 A3016 RMK A01,M
CXP,2022-08-14 15:30,-119.7326,39.1923,1431.00,66.20,37.40,34.51,0.00,0.00,0.00,30.21,M,10.00,M,CLR,M,M,M,M,M,M,M,M,M,M,M,M,M,M,66.20,KCXP 141530Z AUTO 00000KT 10SM CLR 19/03 A3021 RMK AO2,M
BVU,2022-08-14 15:35,-114.8611,35.9475,671.00,84.20,66.20,54.80,0.00,0.00,0.00,30.02,M,M,M,M,M,M,M,M,M,M,M,M,M,M,M,M,M,M,86.50,KBVU 141535Z AUTO 00000KT 29/19 A3002 RMK AO2 PWINO TSNO,M
TMT,2022-08-14 15:35,-117.1971,39.4643,1749.34,M,M,M,140.00,4.00,0.00,30.25,M,10.00,M,CLR,M,M,M,M,M,M,M,M,M,M,M,M,M,M,M,KTMT 141535Z AUTO 14004KT 10SM CLR A3025 RMK AO2,M
MEV,2022-08-14 15:35,-119.7500,38.9963,1441.42,64.40,37.40,36.74,0.00,0.00,0.00,30.20,M,10.00,M,CLR,M,M,M,M,M,M,M,M,M,M,M,M,M,M,64.40,KMEV 141535Z AUTO 00000KT 10SM CLR 18/03 A3020 RMK AO2,M
BAM,2022-08-14 15:35,-116.8743,40.5990,1382.36,73.40,35.60,25.13,10.00,4.00,0.00,30.16,M,10.00,M,CLR,M,M,M,M,M,M,M,M,M,M,M,M,M,M,73.40,KBAM 141535Z AUTO 01004KT 10SM CLR 23/02 A3016 RMK AO1,M
HTH,2022-08-14 15:35,-118.6315,38.5448,1282.89,75.20,33.80,22.02,0.00,0.00,0.00,30.16,M,10.00,M,CLR,M,M,M,M,M,M,M,M,M,M,M,M,M,M,75.20,KHTH 141535Z AUTO 00000KT 10SM CLR 24/01 A3016 RMK A01,M
RTS,2022-08-14 15:35,-119.8764,39.6682,1539.00,66.20,26.60,22.33,0.00,0.00,0.00,30.23,M,10.00,M,CLR,M,M,M,M,M,M,M,M,M,M,M,M,M,M,66.20,KRTS 141535Z AUTO 00000KT 10SM CLR 19/M03 A3023 RMK AO2,M
CXP,2022-08-14 15:50,-119.7326,39.1923,1431.00,68.00,35.60,30.20,0.00,0.00,0.00,30.21,M,10.00,M,CLR,M,M,M,M,M,M,M,M,M,M,M,M,M,M,68.00,KCXP 141550Z AUTO 00000KT 10SM CLR 20/02 A3021 RMK AO2,M
VGT,2022-08-14 15:53,-115.1933,36.2111,667.00,88.00,64.00,44.95,100.00,9.00,0.00,30.00,1014.80,10.00,M,CLR,M,M,M,M,M,M,M,M,M,M,M,M,M,M,89.34,KVGT 141553Z 10009KT 10SM CLR 31/18 A3000 RMK AO2 SLP148 T03110178,M
LOL,2022-08-14 15:53,-118.5701,40.0684,1192.43,75.00,21.90,13.60,0.00,0.00,0.00,30.12,1015.80,10.00,M,CLR,M,M,M,M,M,M,M,M,M,M,M,M,M,M,75.00,KLOL 141553Z AUTO 00000KT 10SM CLR 24/M06 A3012 RMK AO2 SLP158 T02391056,M
DRA,2022-08-14 15:53,-116.0278,36.6206,1009.00,86.00,60.00,41.74,120.00,8.00,0.00,30.06,1012.70,10.00,M,CLR,M,M,M,M,M,M,M,M,M,M,M,M,M,M,85.81,KDRA 141553Z AUTO 12008KT 10SM CLR 30/16 A3006 RMK AO2 SLP127 T03000156,M
ELY,2022-08-14 15:53,-114.8453,39.2950,1909.00,64.00,56.00,74.93,0.00,0.00,0.00,30.30,1017.30,10.00,M,CLR,M,M,M,M,M,M,M,M,M,M,M,M,M,M,64.00,KELY 141553Z AUTO 00000KT 10SM CLR 18/13 A3030 RMK AO2 SLP173 T01780133 $,M
P68,2022-08-14 15:53,-116.0056,39.6014,1993.00,75.00,48.00,38.43,0.00,0.00,0.00,30.24,1015.00,M,M,M,M,M,M,M,M,M,M,M,M,M,M,M,M,M,75.00,KP68 141553Z AUTO 00000KT 24/09 A3024 RMK AO1 SLP150 T02390089,M
RTS,2022-08-14 15:55,-119.8764,39.6682,1539.00,68.00,24.80,19.47,0.00,0.00,0.00,30.22,M,10.00,M,CLR,M,M,M,M,M,M,M,M,M,M,M,M,M,M,68.00,KRTS 141555Z AUTO 00000KT 10SM CLR 20/M04 A3022 RMK AO2,M
LSV,2022-08-14 15:55,-115.0343,36.2362,570.00,89.00,66.70,47.69,50.00,6.00,0.00,29.98,1012.70,10.00,M,CLR,M,M,M,M,M,M,M,M,M,M,M,M,M,M,92.03,KLSV 141555Z 05006KT 10SM CLR 32/19 A2998 RMK SLP127 T03170193 $,M
TMT,2022-08-14 15:55,-117.1971,39.4643,1749.34,M,M,M,130.00,5.00,0.00,30.25,M,10.00,M,CLR,M,M,M,M,M,M,M,M,M,M,M,M,M,M,M,KTMT 141555Z AUTO 13005KT 10SM CLR A3025 RMK AO2,M
HTH,2022-08-14 15:55,-118.6315,38.5448,1282.89,77.00,32.00,19.30,350.00,3.00,0.00,30.16,M,10.00,M,CLR,M,M,M,M,M,M,M,M,M,M,M,M,M,M,77.00,KHTH 141555Z AUTO 35003KT 10SM CLR 25/M00 A3016 RMK A01,M
BAM,2022-08-14 15:55,-116.8743,40.5990,1382.36,73.40,42.80,33.29,330.00,3.00,0.00,30.17,M,10.00,M,CLR,M,M,M,M,M,M,M,M,M,M,M,M,M,M,73.40,KBAM 141555Z AUTO 33003KT 10SM CLR 23/06 A3017 RMK AO1,M
MEV,2022-08-14 15:55,-119.7500,38.9963,1441.42,68.00,39.20,34.80,0.00,0.00,0.00,30.19,M,10.00,M,CLR,M,M,M,M,M,M,M,M,M,M,M,M,M,M,68.00,KMEV 141555Z AUTO 00000KT 10SM CLR 20/04 A3019 RMK AO2,M
RNO,2022-08-14 15:55,-119.7711,39.4839,1341.00,70.00,37.00,29.81,0.00,0.00,0.00,30.18,1016.40,10.00,M,CLR,M,M,M,M,M,M,M,M,M,M,M,M,M,M,70.00,KRNO 141555Z 00000KT 10SM CLR 21/03 A3018 RMK AO2 SLP164 T02110028,M
BVU,2022-08-14 15:55,-114.8611,35.9475,671.00,86.00,66.20,51.72,0.00,0.00,0.00,30.01,M,M,M,M,M,M,M,M,M,M,M,M,M,M,M,M,M,M,88.39,KBVU 141555Z AUTO 00000KT 30/19 A3001 RMK AO2 PWINO TSNO,M
NFL,2022-08-14 15:56,-118.7010,39.4166,1199.00,77.00,34.00,20.91,M,3.00,0.00,30.12,1016.70,10.00,M,FEW,FEW,M,M,8000.00,12000.00,M,M,M,M,M,M,M,M,M,77.00,KNFL 141556Z VRB03KT 10SM FEW080 FEW120 25/01 A3012 RMK AO2 SLP167 T02500011,M
TPH,2022-08-14 15:56,-117.0904,38.0505,1654.00,73.00,52.00,47.69,150.00,4.00,0.00,30.24,1016.20,10.00,M,CLR,M,M,M,M,M,M,M,M,M,M,M,M,M,M,73.00,KTPH 141556Z AUTO 15004KT 10SM CLR 23/11 A3024 RMK AO2 SLP162 T02280111 $,M
WMC,2022-08-14 15:56,-117.8072,40.9019,1315.00,76.00,30.90,19.14,300.00,5.00,0.00,30.14,1015.70,10.00,M,CLR,M,M,M,M,M,M,M,M,M,M,M,M,M,M,75.90,KWMC 141556Z AUTO 30005KT 10SM CLR 24/M01 A3014 RMK AO2 SLP157 T02441006 $,M
HND,2022-08-14 15:56,-115.1344,35.9729,742.79,85.00,64.00,49.62,0.00,0.00,0.00,30.05,1016.20,10.00,M,CLR,M,M,M,M,M,M,M,M,M,M,M,M,M,M,86.23,KHND 141556Z 00000KT 10SM CLR 29/18 A3005 RMK AO2 SLP162 T02940178,M
EKO,2022-08-14 15:56,-115.7860,40.8242,1367.00,69.00,51.00,52.67,50.00,7.00,0.00,30.19,1016.90,10.00,M,CLR,M,M,M,M,M,M,M,M,M,M,M,M,M,M,69.10,KEKO 141556Z AUTO 05007KT 10SM CLR 21/11 A3019 RMK AO2 SLP169 T02060106,M
LAS,2022-08-14 15:56,-115.1634,36.0719,663.00,87.00,65.00,47.73,50.00,5.00,0.00,30.02,1013.70,10.00,M,SCT,BKN,M,M,15000.00,22000.00,M,M,M,M,M,M,M,M,M,88.86,KLAS 141556Z 05005KT 10SM SCT150 BKN220 31/18 A3002 RMK AO2 SLP137 T03060183,M
INS,2022-08-14 15:58,-115.6733,36.5872,955.00,80.80,61.00,50.98,110.00,5.00,0.00,30.06,1013.00,10.00,M,OVC,M,M,M,17000.00,M,M,M,M,M,M,M,M,M,M,81.66,KINS 141558Z AUTO 11005KT 10SM OVC170 27/16 A3006 RMK AO2 SLP130 T02710161,M
CXP,2022-08-14 16:10,-119.7326,39.1923,1431.00,71.60,33.80,24.86,0.00,0.00,0.00,30.20,M,10.00,M,CLR,M,M,M,M,M,M,M,M,M,M,M,M,M,M,71.60,KCXP 141610Z AUTO 00000KT 10SM CLR 22/01 A3020 RMK AO2,M
HTH,2022-08-14 16:15,-118.6315,38.5448,1282.89,77.00,32.00,19.30,0.00,0.00,0.00,30.16,M,10.00,M,CLR,M,M,M,M,M,M,M,M,M,M,M,M,M,M,77.00,KHTH 141615Z AUTO 00000KT 10SM CLR 25/00 A3016 RMK A01,M
BVU,2022-08-14 16:15,-114.8611,35.9475,671.00,87.80,64.40,45.88,0.00,0.00,0.00,30.01,M,M,M,M,M,M,M,M,M,M,M,M,M,M,M,M,M,M,89.33,KBVU 141615Z AUTO 00000KT 31/18 A3001 RMK AO2 PWINO TSNO,M
RTS,2022-08-14 16:15,-119.8764,39.6682,1539.00,71.60,24.80,17.22,0.00,0.00,0.00,30.22,M,10.00,M,CLR,M,M,M,M,M,M,M,M,M,M,M,M,M,M,71.60,KRTS 141615Z AUTO 00000KT 10SM CLR 22/M04 A3022 RMK AO2,M
MEV,2022-08-14 16:15,-119.7500,38.9963,1441.42,69.80,37.40,30.49,0.00,0.00,0.00,30.19,M,10.00,M,CLR,M,M,M,M,M,M,M,M,M,M,M,M,M,M,69.80,KMEV 141615Z AUTO 00000KT 10SM CLR 21/03 A3019 RMK AO2,M
BAM,2022-08-14 16:15,-116.8743,40.5990,1382.36,77.00,32.00,19.30,350.00,3.00,0.00,30.16,M,10.00,M,CLR,M,M,M,M,M,M,M,M,M,M,M,M,M,M,77.00,KBAM 141615Z AUTO 35003KT 10SM CLR 25/00 A3016 RMK AO1,M
TMT,2022-08-14 16:15,-117.1971,39.4643,1749.34,M,M,M,250.00,5.00,0.00,30.24,M,10.00,M,CLR,M,M,M,M,M,M,M,M,M,M,M,M,M,M,M,KTMT 141615Z AUTO 25005KT 10SM CLR A3024 RMK AO2,M
CXP,2022-08-14 16:30,-119.7326,39.1923,1431.00,73.40,33.80,23.39,0.00,0.00,0.00,30.19,M,10.00,M,CLR,M,M,M,M,M,M,M,M,M,M,M,M,M,M,73.40,KCXP 141630Z AUTO 00000KT 10SM CLR 23/01 A3019 RMK AO2,M
BVU,2022-08-14 16:35,-114.8611,35.9475,671.00,87.80,64.40,45.88,0.00,0.00,0.00,30.01,M,M,M,M,M,M,M,M,M,M,M,M,M,M,M,M,M,M,89.33,KBVU 141635Z AUTO 00000KT 31/18 A3001 RMK AO2 PWINO TSNO,M
RTS,2022-08-14 16:35,-119.8764,39.6682,1539.00,71.60,26.60,18.55,0.00,0.00,0.00,30.22,M,10.00,M,CLR,M,M,M,M,M,M,M,M,M,M,M,M,M,M,71.60,KRTS 141635Z AUTO 00000KT 10SM CLR 22/M03 A3022 RMK AO2,M
BAM,2022-08-14 16:35,-116.8743,40.5990,1382.36,77.00,32.00,19.30,350.00,4.00,0.00,30.16,M,10.00,M,CLR,M,M,M,M,M,M,M,M,M,M,M,M,M,M,77.00,KBAM 141635Z AUTO 35004KT 10SM CLR 25/00 A3016 RMK AO1,M
HTH,2022-08-14 16:35,-118.6315,38.5448,1282.89,78.80,32.00,18.18,M,4.00,0.00,30.15,M,10.00,M,CLR,M,M,M,M,M,M,M,M,M,M,M,M,M,M,78.80,KHTH 141635Z AUTO VRB04KT 10SM CLR 26/00 A3015 RMK A01,M
TMT,2022-08-14 16:35,-117.1971,39.4643,1749.34,M,M,M,240.00,3.00,0.00,30.24,M,10.00,M,CLR,M,M,M,M,M,M,M,M,M,M,M,M,M,M,M,KTMT 141635Z AUTO 24003KT 10SM CLR A3024 RMK AO2,M
MEV,2022-08-14 16:35,-119.7500,38.9963,1441.42,71.60,35.60,26.71,0.00,0.00,0.00,30.18,M,10.00,M,CLR,M,M,M,M,M,M,M,M,M,M,M,M,M,M,71.60,KMEV 141635Z AUTO 00000KT 10SM CLR 22/02 A3018 RMK AO2,M
CXP,2022-08-14 16:50,-119.7326,39.1923,1431.00,77.00,33.80,20.74,0.00,0.00,0.00,30.19,M,10.00,M,CLR,M,M,M,M,M,M,M,M,M,M,M,M,M,M,77.00,KCXP 141650Z AUTO 00000KT 10SM CLR 25/01 A3019 RMK AO2,M
ELY,2022-08-14 16:53,-114.8453,39.2950,1909.00,70.00,53.00,54.98,0.00,0.00,0.00,30.29,1016.50,10.00,M,CLR,M,M,M,M,M,M,M,M,M,M,M,M,M,M,70.00,KELY 141653Z AUTO 00000KT 10SM CLR 21/12 A3029 RMK AO2 SLP165 T02110117 $,M
DRA,2022-08-14 16:53,-116.0278,36.6206,1009.00,89.00,59.00,36.37,90.00,3.00,0.00,30.06,1012.30,10.00,M,CLR,M,M,M,M,M,M,M,M,M,M,M,M,M,M,88.37,KDRA 141653Z AUTO 09003KT 10SM CLR 32/15 A3006 RMK AO2 SLP123 T03170150,M
P68,2022-08-14 16:53,-116.0056,39.6014,1993.00,79.00,49.00,34.81,M,5.00,0.00,30.23,1014.30,M,M,M,M,M,M,M,M,M,M,M,M,M,M,M,M,M,79.00,KP68 141653Z AUTO VRB05KT 26/09 A3023 RMK AO1 SLP143 T02610094,M
VGT,2022-08-14 16:53,-115.1933,36.2111,667.00,91.00,63.00,39.49,M,5.00,0.00,30.00,1014.60,10.00,M,CLR,M,M,M,M,M,M,M,M,M,M,M,M,M,M,92.00,KVGT 141653Z VRB05KT 10SM CLR 33/17 A3000 RMK AO2 SLP146 T03280172,M
LOL,2022-08-14 16:53,-118.5701,40.0684,1192.43,83.00,21.90,10.48,0.00,0.00,0.00,30.11,1015.30,10.00,M,CLR,M,M,M,M,M,M,M,M,M,M,M,M,M,M,79.93,KLOL 141653Z AUTO 00000KT 10SM CLR 28/M06 A3011 RMK AO2 SLP153 T02831056,M
HTH,2022-08-14 16:55,-118.6315,38.5448,1282.89,78.80,32.00,18.18,320.00,4.00,0.00,30.15,M,10.00,M,CLR,M,M,M,M,M,M,M,M,M,M,M,M,M,M,78.80,KHTH 141655Z AUTO 32004KT 10SM CLR 26/M00 A3015 RMK A01,M
TMT,2022-08-14 16:55,-117.1971,39.4643,1749.34,M,M,M,0.00,0.00,0.00,30.24,M,10.00,M,CLR,M,M,M,M,M,M,M,M,M,M,M,M,M,M,M,KTMT 141655Z AUTO 00000KT 10SM CLR A3024 RMK AO2,M
RNO,2022-08-14 16:55,-119.7711,39.4839,1341.00,75.00,34.00,22.35,0.00,0.00,0.00,30.17,1015.80,10.00,M,CLR,M,M,M,M,M,M,M,M,M,M,M,M,M,M,75.00,KRNO 141655Z 00000KT 10SM CLR 24/01 A3017 RMK AO2 SLP158 T02390011,M
BVU,2022-08-14 16:55,-114.8611,35.9475,671.00,89.60,64.40,43.34,220.00,3.00,0.00,30.01,M,M,M,M,M,M,M,M,M,M,M,M,M,M,M,M,M,M,91.23,KBVU 141655Z AUTO 22003KT 32/18 A3001 RMK AO2 PWINO TSNO,M
RTS,2022-08-14 16:55,-119.8764,39.6682,1539.00,73.40,21.20,13.93,0.00,0.00,0.00,30.21,M,10.00,M,CLR,M,M,M,M,M,M,M,M,M,M,M,M,M,M,73.40,KRTS 141655Z AUTO 00000KT 10SM CLR 23/M06 A3021 RMK AO2,M
MEV,2022-08-14 16:55,-119.7500,38.9963,1441.42,75.20,35.60,23.66,0.00,0.00,0.00,30.17,M,10.00,M,CLR,M,M,M,M,M,M,M,M,M,M,M,M,M,M,75.20,KMEV 141655Z AUTO 00000KT 10SM CLR 24/02 A3017 RMK AO2,M
BAM,2022-08-14 16:55,-116.8743,40.5990,1382.36,78.80,33.80,19.55,290.00,3.00,0.00,30.15,M,10.00,M,CLR,M,M,M,M,M,M,M,M,M,M,M,M,M,M,78.80,KBAM 141655Z AUTO 29003KT 10SM CLR 26/01 A3015 RMK AO1,M
HND,2022-08-14 16:56,-115.1344,35.9729,742.79,88.00,65.00,46.39,0.00,0.00,0.00,30.05,1016.00,10.00,M,CLR,M,M,M,M,M,M,M,M,M,M,M,M,M,M,89.80,KHND 141656Z 00000KT 10SM CLR 31/18 A3005 RMK AO2 SLP160 T03110183,M
NFL,2022-08-14 16:56,-118.7010,39.4166,1199.00,82.00,30.90,15.66,0.00,0.00,0.00,30.12,1016.50,10.00,M,FEW,M,M,M,8000.00,M,M,M,M,M,M,M,M,M,M,79.70,KNFL 141656Z 00000KT 10SM FEW080 28/M01 A3012 RMK AO2 SLP165 T02781006,M
TPH,2022-08-14 16:56,-117.0904,38.0505,1654.00,77.00,50.00,38.74,160.00,5.00,0.00,30.23,1015.60,10.00,M,CLR,M,M,M,M,M,M,M,M,M,M,M,M,M,M,77.00,KTPH 141656Z AUTO 16005KT 10SM CLR 25/10 A3023 RMK AO2 SLP156 T02500100 $,M
LAS,2022-08-14 16:56,-115.1634,36.0719,663.00,89.00,64.00,43.42,M,5.00,0.00,30.01,1013.50,10.00,M,FEW,SCT,BKN,M,13000.00,15000.00,22000.00,M,M,M,M,M,M,M,M,90.49,KLAS 141656Z VRB05KT 10SM FEW130 SCT150 BKN220 32/18 A3001 RMK AO2 SLP135 T03170178,M
EKO,2022-08-14 16:56,-115.7860,40.8242,1367.00,74.00,50.00,42.97,30.00,8.00,0.00,30.18,1016.40,10.00,M,CLR,M,M,M,M,M,M,M,M,M,M,M,M,M,M,73.90,KEKO 141656Z AUTO 03008KT 10SM CLR 23/10 A3018 RMK AO2 SLP164 T02330100,M
WMC,2022-08-14 16:56,-117.8072,40.9019,1315.00,81.00,30.00,15.60,310.00,6.00,0.00,30.14,1015.80,10.00,M,CLR,M,M,M,M,M,M,M,M,M,M,M,M,M,M,79.02,KWMC 141656Z AUTO 31006KT 10SM CLR 27/M01 A3014 RMK AO2 SLP158 T02721011 $,M
INS,2022-08-14 16:58,-115.6733,36.5872,955.00,86.00,60.30,42.04,90.00,10.00,0.00,30.06,1012.80,10.00,M,BKN,M,M,M,21000.00,M,M,M,M,M,M,M,M,M,M,85.88,KINS 141658Z AUTO 09010KT 10SM BKN210 30/16 A3006 RMK AO2 SLP128 T03000157,M
LSV,2022-08-14 17:05,-115.0343,36.2362,570.00,94.30,64.80,37.95,M,5.00,0.00,29.98,M,10.00,M,FEW,M,M,M,21000.00,M,M,M,M,M,M,M,M,M,M,96.70,KLSV 141705Z VRB05KT 10SM FEW210 35/18 A2998 RMK SLPNO T03460182 10346 20304 $,M
CXP,2022-08-14 17:10,-119.7326,39.1923,1431.00,78.80,32.00,18.18,M,3.00,0.00,30.18,M,10.00,M,CLR,M,M,M,M,M,M,M,M,M,M,M,M,M,M,78.80,KCXP 141710Z AUTO VRB03KT 10SM CLR 26/00 A3018 RMK AO2,M
MEV,2022-08-14 17:15,-119.7500,38.9963,1441.42,77.00,35.60,22.28,M,4.00,0.00,30.17,M,10.00,M,CLR,M,M,M,M,M,M,M,M,M,M,M,M,M,M,77.00,KMEV 141715Z AUTO VRB04KT 10SM CLR 25/02 A3017 RMK AO2,M
BAM,2022-08-14 17:15,-116.8743,40.5990,1382.36,80.60,41.00,24.46,0.00,0.00,0.00,30.15,M,10.00,M,CLR,M,M,M,M,M,M,M,M,M,M,M,M,M,M,79.20,KBAM 141715Z AUTO 00000KT 10SM CLR 27/05 A3015 RMK AO1,M
TMT,2022-08-14 17:15,-117.1971,39.4643,1749.34,M,M,M,0.00,0.00,0.00,30.24,M,10.00,M,CLR,M,M,M,M,M,M,M,M,M,M,M,M,M,M,M,KTMT 141715Z AUTO 00000KT 10SM CLR A3024 RMK AO2,M
RTS,2022-08-14 17:15,-119.8764,39.6682,1539.00,75.20,23.00,14.15,160.00,4.00,0.00,30.21,M,10.00,M,CLR,M,M,M,M,M,M,M,M,M,M,M,M,M,M,75.20,KRTS 141715Z AUTO 16004KT 10SM CLR 24/M05 A3021 RMK AO2,M
BVU,2022-08-14 17:15,-114.8611,35.9475,671.00,89.60,64.40,43.34,0.00,0.00,0.00,30.01,M,M,M,M,M,M,M,M,M,M,M,M,M,M,M,M,M,M,91.23,KBVU 141715Z AUTO 00000KT 32/18 A3001 RMK AO2 PWINO TSNO,M
HTH,2022-08-14 17:15,-118.6315,38.5448,1282.89,80.60,28.40,14.81,0.00,0.00,0.00,30.15,M,10.00,M,CLR,M,M,M,M,M,M,M,M,M,M,M,M,M,M,78.72,KHTH 141715Z AUTO 00000KT 10SM CLR 27/M02 A3015 RMK A01,M
CXP,2022-08-14 17:30,-119.7326,39.1923,1431.00,80.60,30.20,15.94,0.00,0.00,0.00,30.18,M,10.00,M,CLR,M,M,M,M,M,M,M,M,M,M,M,M,M,M,78.77,KCXP 141730Z AUTO 00000KT 10SM CLR 27/M01 A3018 RMK AO2,M
HTH,2022-08-14 17:35,-118.6315,38.5448,1282.89,82.40,26.60,12.97,30.00,5.00,0.00,30.15,M,10.00,M,CLR,M,M,M,M,M,M,M,M,M,M,M,M,M,M,79.92,KHTH 141735Z AUTO 03005KT 10SM CLR 28/M03 A3015 RMK A01,M
BAM,2022-08-14 17:35,-116.8743,40.5990,1382.36,82.40,39.20,21.51,0.00,0.00,0.00,30.15,M,10.00,M,CLR,M,M,M,M,M,M,M,M,M,M,M,M,M,M,80.21,KBAM 141735Z AUTO 00000KT 10SM CLR 28/04 A3015 RMK AO1,M
MEV,2022-08-14 17:35,-119.7500,38.9963,1441.42,78.80,35.60,21.00,M,4.00,0.00,30.17,M,10.00,M,CLR,M,M,M,M,M,M,M,M,M,M,M,M,M,M,78.80,KMEV 141735Z AUTO VRB04KT 10SM CLR 26/02 A3017 RMK AO2,M
BVU,2022-08-14 17:35,-114.8611,35.9475,671.00,91.40,64.40,40.96,0.00,0.00,0.00,30.01,M,M,M,M,M,M,M,M,M,M,M,M,M,M,M,M,M,M,93.19,KBVU 141735Z AUTO 00000KT 33/18 A3001 RMK AO2 PWINO TSNO,M
RTS,2022-08-14 17:35,-119.8764,39.6682,1539.00,77.00,23.00,13.32,0.00,0.00,0.00,30.21,M,10.00,M,CLR,M,M,M,M,M,M,M,M,M,M,M,M,M,M,77.00,KRTS 141735Z AUTO 00000KT 10SM CLR 25/M05 A3021 RMK AO2,M
TMT,2022-08-14 17:35,-117.1971,39.4643,1749.34,M,M,M,280.00,3.00,0.00,30.24,M,10.00,M,CLR,M,M,M,M,M,M,M,M,M,M,M,M,M,M,M,KTMT 141735Z AUTO 28003KT 10SM CLR A3024 RMK AO2,M
CXP,2022-08-14 17:50,-119.7326,39.1923,1431.00,82.40,28.40,13.96,310.00,3.00,0.00,30.17,M,10.00,M,CLR,M,M,M,M,M,M,M,M,M,M,M,M,M,M,79.94,KCXP 141750Z AUTO 31003KT 10SM CLR 28/M02 A3017 RMK AO2,M
VGT,2022-08-14 17:53,-115.1933,36.2111,667.00,91.00,64.00,40.90,200.00,5.00,0.00,29.99,1014.40,10.00,M,CLR,M,M,M,M,M,M,M,M,M,M,M,M,M,M,92.52,KVGT 141753Z 20005KT 10SM CLR 33/18 A2999 RMK AO2 SLP144 T03280178 10339 20278 58001,M
DRA,2022-08-14 17:53,-116.0278,36.6206,1009.00,91.00,57.00,31.89,0.00,0.00,0.00,30.06,1012.20,10.00,M,CLR,M,M,M,M,M,M,M,M,M,M,M,M,M,M,89.59,KDRA 141753Z AUTO 00000KT 10SM CLR 33/14 A3006 RMK AO2 SLP122 T03280139 10333 20256 57002,M
ELY,2022-08-14 17:53,-114.8453,39.2950,1909.00,75.00,55.00,49.78,60.00,3.00,0.00,30.28,1015.70,10.00,M,CLR,M,M,M,M,M,M,M,M,M,M,M,M,M,M,75.00,KELY 141753Z AUTO 06003KT 10SM CLR 24/13 A3028 RMK AO2 SLP157 T02390128 10239 20106 58008 $,M
P68,2022-08-14 17:53,-116.0056,39.6014,1993.00,82.00,47.00,29.28,M,3.00,0.00,30.22,1014.00,M,M,M,M,M,M,M,M,M,M,M,M,M,M,M,M,M,80.43,KP68 141753Z AUTO VRB03KT 28/08 A3022 RMK AO1 SLP140 T02780083 10278 20128 58007,M
LOL,2022-08-14 17:53,-118.5701,40.0684,1192.43,86.00,24.10,10.41,0.00,0.00,0.00,30.10,1014.60,10.00,M,CLR,M,M,M,M,M,M,M,M,M,M,M,M,M,M,82.21,KLOL 141753Z AUTO 00000KT 10SM CLR 30/M04 A3010 RMK AO2 SLP146 T03001044 10306 20089 58005,M
MEV,2022-08-14 17:55,-119.7500,38.9963,1441.42,80.60,35.60,19.79,0.00,0.00,0.00,30.16,M,10.00,M,CLR,M,M,M,M,M,M,M,M,M,M,M,M,M,M,78.94,KMEV 141755Z AUTO 00000KT 10SM CLR 27/02 A3016 RMK AO2,M
RTS,2022-08-14 17:55,-119.8764,39.6682,1539.00,77.00,23.00,13.32,M,4.00,0.00,30.21,M,10.00,M,CLR,M,M,M,M,M,M,M,M,M,M,M,M,M,M,77.00,KRTS 141755Z AUTO VRB04KT 10SM CLR 25/M05 A3021 RMK AO2,M
BAM,2022-08-14 17:55,-116.8743,40.5990,1382.36,86.00,35.60,16.63,30.00,3.00,0.00,30.15,M,10.00,M,CLR,M,M,M,M,M,M,M,M,M,M,M,M,M,M,82.69,KBAM 141755Z AUTO 03003KT 10SM CLR 30/02 A3015 RMK AO1,M
HTH,2022-08-14 17:55,-118.6315,38.5448,1282.89,82.40,26.60,12.97,M,5.00,0.00,30.14,M,10.00,M,CLR,M,M,M,M,M,M,M,M,M,M,M,M,M,M,79.92,KHTH 141755Z AUTO VRB05KT 10SM CLR 28/M03 A3014 RMK A01,M
BVU,2022-08-14 17:55,-114.8611,35.9475,671.00,91.40,62.60,38.45,290.00,3.00,0.00,30.00,M,M,M,M,M,M,M,M,M,M,M,M,M,M,M,M,M,M,92.23,KBVU 141755Z AUTO 29003KT 33/17 A3000 RMK AO2 PWINO TSNO,M
TMT,2022-08-14 17:55,-117.1971,39.4643,1749.34,M,M,M,280.00,3.00,0.00,30.23,M,10.00,M,CLR,M,M,M,M,M,M,M,M,M,M,M,M,M,M,M,KTMT 141755Z AUTO 28003KT 10SM CLR A3023 RMK AO2,M
RNO,2022-08-14 17:55,-119.7711,39.4839,1341.00,81.00,33.00,17.68,0.00,0.00,0.00,30.16,1015.10,10.00,M,CLR,M,M,M,M,M,M,M,M,M,M,M,M,M,M,79.10,KRNO 141755Z 00000KT 10SM CLR 27/01 A3016 RMK AO2 SLP151 T02720006 10272 20156 58009,M
WMC,2022-08-14 17:56,-117.8072,40.9019,1315.00,85.00,30.90,14.26,360.00,5.00,0.00,30.13,1015.40,10.00,M,CLR,M,M,M,M,M,M,M,M,M,M,M,M,M,M,81.79,KWMC 141756Z AUTO 36005KT 10SM CLR 29/M01 A3013 RMK AO2 SLP154 T02941006 10294 20089 58004 $,M
HND,2022-08-14 17:56,-115.1344,35.9729,742.79,92.00,65.00,41.03,80.00,5.00,0.00,30.04,1015.70,10.00,M,CLR,M,M,M,M,M,M,M,M,M,M,M,M,M,M,94.03,KHND 141756Z 08005KT 10SM CLR 33/18 A3004 RMK AO2 LTG DSNT S SLP157 T03330183 10333 20250 58003,M
EKO,2022-08-14 17:56,-115.7860,40.8242,1367.00,78.00,50.00,37.36,50.00,3.00,0.00,30.17,1015.80,10.00,M,CLR,M,M,M,M,M,M,M,M,M,M,M,M,M,M,78.10,KEKO 141756Z AUTO 05003KT 10SM CLR 26/10 A3017 RMK AO2 SLP158 T02560100 10256 20128 58010,M
TPH,2022-08-14 17:56,-117.0904,38.0505,1654.00,80.00,48.00,32.46,180.00,4.00,0.00,30.22,1015.50,10.00,M,CLR,M,M,M,M,M,M,M,M,M,M,M,M,M,M,79.42,KTPH 141756Z AUTO 18004KT 10SM CLR 27/09 A3022 RMK AO2 SLP155 T02670089 10267 20161 58004 $,M
LAS,2022-08-14 17:56,-115.1634,36.0719,663.00,91.00,64.00,40.90,40.00,4.00,0.00,30.00,1013.10,10.00,M,SCT,BKN,M,M,13000.00,22000.00,M,M,M,M,M,M,M,M,M,92.52,KLAS 141756Z 04004KT 10SM SCT130 BKN220 33/18 A3000 RMK AO2 LTG DSNT S SLP131 CB DSNT S TCU W T03280178 10333 20272 58001,M
NFL,2022-08-14 17:56,-118.7010,39.4166,1199.00,85.00,25.00,11.19,360.00,4.00,0.00,30.11,1016.30,10.00,M,FEW,M,M,M,8000.00,M,M,M,M,M,M,M,M,M,M,81.50,KNFL 141756Z 36004KT 10SM FEW080 29/M04 A3011 RMK AO2 SLP163 T02941039 10300 20150 58005,M
LSV,2022-08-14 17:56,-115.0343,36.2362,570.00,96.80,65.30,35.76,0.00,0.00,0.00,29.97,M,10.00,M,CLR,M,M,M,M,M,M,M,M,M,M,M,M,M,M,99.96,KLSV 141756Z 00000KT 10SM CLR 36/19 A2997 RMK SLPNO T03600185 $,M
INS,2022-08-14 17:58,-115.6733,36.5872,955.00,89.20,55.40,31.85,110.00,9.00,0.00,30.05,1012.30,10.00,M,SCT,SCT,M,M,17000.00,20000.00,M,M,M,M,M,M,M,M,M,87.40,KINS 141758Z AUTO 11009KT 10SM SCT170 SCT200 32/13 A3005 RMK AO2 SLP123 T03180130 10325 20243 57007,M
CXP,2022-08-14 18:10,-119.7326,39.1923,1431.00,82.40,28.40,13.96,0.00,0.00,0.00,30.17,M,10.00,M,CLR,M,M,M,M,M,M,M,M,M,M,M,M,M,M,79.94,KCXP 141810Z AUTO 00000KT 10SM CLR 28/M02 A3017 RMK AO2,M
TMT,2022-08-14 18:15,-117.1971,39.4643,1749.34,M,M,M,210.00,4.00,0.00,30.22,M,10.00,M,CLR,M,M,M,M,M,M,M,M,M,M,M,M,M,M,M,KTMT 141815Z AUTO 21004KT 10SM CLR A3022 RMK AO2,M
HTH,2022-08-14 18:15,-118.6315,38.5448,1282.89,84.20,26.60,12.23,360.00,6.00,0.00,30.14,M,10.00,M,CLR,M,M,M,M,M,M,M,M,M,M,M,M,M,M,81.13,KHTH 141815Z AUTO 36006KT 10SM CLR 29/M03 A3014 RMK A01,M
RTS,2022-08-14 18:15,-119.8764,39.6682,1539.00,78.80,23.00,12.55,M,3.00,0.00,30.21,M,10.00,M,CLR,M,M,M,M,M,M,M,M,M,M,M,M,M,M,78.80,KRTS 141815Z AUTO VRB03KT 10SM CLR 26/M05 A3021 RMK AO2,M
BVU,2022-08-14 18:15,-114.8611,35.9475,671.00,93.20,62.60,36.35,0.00,0.00,0.00,30.00,M,M,M,M,M,M,M,M,M,M,M,M,M,M,M,M,M,M,94.20,KBVU 141815Z AUTO 00000KT 34/17 A3000 RMK AO2 PWINO TSNO,M
BAM,2022-08-14 18:15,-116.8743,40.5990,1382.36,86.00,32.00,14.40,0.00,0.00,0.00,30.14,M,10.00,M,CLR,M,M,M,M,M,M,M,M,M,M,M,M,M,M,82.64,KBAM 141815Z AUTO 00000KT 10SM CLR 30/00 A3014 RMK AO1,M
MEV,2022-08-14 18:15,-119.7500,38.9963,1441.42,82.40,35.60,18.67,0.00,0.00,0.00,30.15,M,10.00,M,CLR,M,M,M,M,M,M,M,M,M,M,M,M,M,M,80.08,KMEV 141815Z AUTO 00000KT 10SM CLR 28/02 A3015 RMK AO2,M
CXP,2022-08-14 18:30,-119.7326,39.1923,1431.00,84.20,26.60,12.23,270.00,3.00,0.00,30.16,M,10.00,M,CLR,M,M,M,M,M,M,M,M,M,M,M,M,M,M,81.13,KCXP 141830Z AUTO 27003KT 10SM CLR 29/M03 A3016 RMK AO2,M
TMT,2022-08-14 18:35,-117.1971,39.4643,1749.34,M,M,M,300.00,5.00,0.00,30.22,M,10.00,M,CLR,M,M,M,M,M,M,M,M,M,M,M,M,M,M,M,KTMT 141835Z AUTO 30005KT 10SM CLR A3022 RMK AO2,M
BVU,2022-08-14 18:35,-114.8611,35.9475,671.00,93.20,62.60,36.35,170.00,4.00,0.00,29.99,M,M,M,M,M,M,M,M,M,M,M,M,M,M,M,M,M,M,94.20,KBVU 141835Z AUTO 17004KT 34/17 A2999 RMK AO2 PWINO TSNO,M
RTS,2022-08-14 18:35,-119.8764,39.6682,1539.00,78.80,23.00,12.55,0.00,0.00,0.00,30.20,M,10.00,M,CLR,M,M,M,M,M,M,M,M,M,M,M,M,M,M,78.80,KRTS 141835Z AUTO 00000KT 10SM CLR 26/M05 A3020 RMK AO2,M
BAM,2022-08-14 18:35,-116.8743,40.5990,1382.36,87.80,30.20,12.64,290.00,3.00,0.00,30.13,M,10.00,M,CLR,M,M,M,M,M,M,M,M,M,M,M,M,M,M,84.01,KBAM 141835Z AUTO 29003KT 10SM CLR 31/M01 A3013 RMK AO1,M
HTH,2022-08-14 18:35,-118.6315,38.5448,1282.89,86.00,24.80,10.72,M,6.00,0.00,30.13,M,10.00,M,CLR,M,M,M,M,M,M,M,M,M,M,M,M,M,M,82.26,KHTH 141835Z AUTO VRB06KT 10SM CLR 30/M04 A3013 RMK A01,M
MEV,2022-08-14 18:35,-119.7500,38.9963,1441.42,82.40,32.00,16.17,M,3.00,0.00,30.15,M,9.00,M,CLR,M,M,M,M,M,M,M,M,M,M,M,M,M,M,80.00,KMEV 141835Z AUTO VRB03KT 9SM CLR 28/M00 A3015 RMK AO2,M
CXP,2022-08-14 18:50,-119.7326,39.1923,1431.00,86.00,28.40,12.44,220.00,4.00,0.00,30.16,M,10.00,M,CLR,M,M,M,M,M,M,M,M,M,M,M,M,M,M,82.54,KCXP 141850Z AUTO 22004KT 10SM CLR 30/M02 A3016 RMK AO2,M
P68,2022-08-14 18:53,-116.0056,39.6014,1993.00,84.00,46.00,26.52,0.00,0.00,0.00,30.20,1013.50,M,M,M,M,M,M,M,M,M,M,M,M,M,M,M,M,M,81.69,KP68 141853Z AUTO 00000KT 29/08 A3020 RMK AO1 SLP135 T02890078,M
LOL,2022-08-14 18:53,-118.5701,40.0684,1192.43,90.00,23.00,8.76,230.00,6.00,0.00,30.09,1014.30,10.00,M,CLR,M,M,M,M,M,M,M,M,M,M,M,M,M,M,85.05,KLOL 141853Z AUTO 23006KT 10SM CLR 32/M05 A3009 RMK AO2 SLP143 T03221050,M
VGT,2022-08-14 18:53,-115.1933,36.2111,667.00,91.00,64.00,40.90,M,4.00,0.00,29.97,1013.80,10.00,M,CLR,M,M,M,M,M,M,M,M,M,M,M,M,M,M,92.52,KVGT 141853Z VRB04KT 10SM CLR 33/18 A2997 RMK AO2 LTG DSNT W SLP138 T03280178,M
DRA,2022-08-14 18:53,-116.0278,36.6206,1009.00,94.00,55.00,27.10,150.00,6.00,0.00,30.04,1011.50,10.00,M,CLR,M,M,M,M,M,M,M,M,M,M,M,M,M,M,91.95,KDRA 141853Z AUTO 15006KT 10SM CLR 34/13 A3004 RMK AO2 SLP115 T03440128,M
ELY,2022-08-14 18:53,-114.8453,39.2950,1909.00,79.00,51.00,37.78,340.00,4.00,0.00,30.26,1014.90,10.00,M,CLR,M,M,M,M,M,M,M,M,M,M,M,M,M,M,79.00,KELY 141853Z AUTO 34004KT 10SM CLR 26/11 A3026 RMK AO2 SLP149 T02610106 $,M
RTS,2022-08-14 18:55,-119.8764,39.6682,1539.00,80.60,24.80,12.76,M,4.00,0.00,30.20,M,10.00,M,CLR,M,M,M,M,M,M,M,M,M,M,M,M,M,M,78.94,KRTS 141855Z AUTO VRB04KT 10SM CLR 27/M04 A3020 RMK AO2,M
RNO,2022-08-14 18:55,-119.7711,39.4839,1341.00,86.00,30.00,13.28,0.00,0.00,0.00,30.14,1014.30,10.00,M,CLR,M,M,M,M,M,M,M,M,M,M,M,M,M,M,82.64,KRNO 141855Z 00000KT 10SM CLR 30/M01 A3014 RMK AO2 SLP143 T03001011,M
TMT,2022-08-14 18:55,-117.1971,39.4643,1749.34,M,M,M,280.00,5.00,0.00,30.22,M,10.00,M,CLR,M,M,M,M,M,M,M,M,M,M,M,M,M,M,M,KTMT 141855Z AUTO 28005KT 10SM CLR A3022 RMK AO2,M
BVU,2022-08-14 18:55,-114.8611,35.9475,671.00,93.20,60.80,34.11,130.00,3.00,0.00,29.98,M,M,M,M,M,M,M,M,M,M,M,M,M,M,M,M,M,M,93.32,KBVU 141855Z AUTO 13003KT 34/16 A2998 RMK AO2 PWINO TSNO,M
HTH,2022-08-14 18:55,-118.6315,38.5448,1282.89,86.00,23.00,9.94,M,4.00,0.00,30.12,M,10.00,M,CLR,M,M,M,M,M,M,M,M,M,M,M,M,M,M,82.14,KHTH 141855Z AUTO VRB04KT 10SM CLR 30/M05 A3012 RMK A01,M
BAM,2022-08-14 18:55,-116.8743,40.5990,1382.36,87.80,30.20,12.64,330.00,5.00,0.00,30.13,M,10.00,M,CLR,M,M,M,M,M,M,M,M,M,M,M,M,M,M,84.01,KBAM 141855Z AUTO 33005KT 10SM CLR 31/M01 A3013 RMK AO1,M
MEV,2022-08-14 18:55,-119.7500,38.9963,1441.42,84.20,32.00,15.25,0.00,0.00,0.00,30.14,M,10.00,M,CLR,M,M,M,M,M,M,M,M,M,M,M,M,M,M,81.28,KMEV 141855Z AUTO 00000KT 10SM CLR 29/M00 A3014 RMK AO2,M
LAS,2022-08-14 18:56,-115.1634,36.0719,663.00,93.00,62.00,35.94,M,4.00,0.00,29.98,1012.40,10.00,M,SCT,BKN,M,M,13000.00,22000.00,M,M,M,M,M,M,M,M,M,93.72,KLAS 141856Z VRB04KT 10SM SCT130 BKN220 34/17 A2998 RMK AO2 LTG DSNT NW SLP124 CB S/ W-NW TCU S-N T03390167,M
TPH,2022-08-14 18:56,-117.0904,38.0505,1654.00,84.00,44.00,24.68,M,4.00,0.00,30.21,1014.60,10.00,M,CLR,M,M,M,M,M,M,M,M,M,M,M,M,M,M,81.55,KTPH 141856Z AUTO VRB04KT 10SM CLR 29/07 A3021 RMK AO2 SLP146 T02890067 $,M
NFL,2022-08-14 18:56,-118.7010,39.4166,1199.00,87.00,28.00,11.81,M,3.00,0.00,30.10,1015.90,10.00,M,FEW,M,M,M,8000.00,M,M,M,M,M,M,M,M,M,M,83.29,KNFL 141856Z VRB03KT 10SM FEW080 31/M02 A3010 RMK AO2 SLP159 T03061022,M
HND,2022-08-14 18:56,-115.1344,35.9729,742.79,92.00,63.00,38.39,260.00,4.00,0.00,30.02,1015.20,10.00,M,CLR,M,M,M,M,M,M,M,M,M,M,M,M,M,M,92.97,KHND 141856Z 26004KT 10SM CLR 33/17 A3002 RMK AO2 LTG DSNT S AND NW SLP152 T03330172,M
EKO,2022-08-14 18:56,-115.7860,40.8242,1367.00,81.00,49.00,32.60,M,3.00,0.00,30.15,1015.20,10.00,M,CLR,M,M,M,M,M,M,M,M,M,M,M,M,M,M,80.01,KEKO 141856Z AUTO VRB03KT 10SM CLR 27/09 A3015 RMK AO2 SLP152 T02720094,M
WMC,2022-08-14 18:56,-117.8072,40.9019,1315.00,88.00,27.00,11.02,350.00,4.00,0.00,30.12,1014.80,10.00,M,CLR,M,M,M,M,M,M,M,M,M,M,M,M,M,M,83.87,KWMC 141856Z AUTO 35004KT 10SM CLR 31/M03 A3012 RMK AO2 SLP148 T03111028 $,M
INS,2022-08-14 18:58,-115.6733,36.5872,955.00,90.50,55.00,30.02,80.00,9.00,0.00,30.03,1011.60,10.00,M,SCT,M,M,M,18000.00,M,M,M,M,M,M,M,M,M,M,88.52,KINS 141858Z AUTO 08009KT 10SM SCT180 33/13 A3003 RMK AO2 LTG DSNT SE-S SLP116 T03250127,M
LSV,2022-08-14 18:58,-115.0343,36.2362,570.00,100.60,64.40,30.88,0.00,0.00,0.00,29.94,M,10.00,M,FEW,M,M,M,20000.00,M,M,M,M,M,M,M,M,M,M,103.90,KLSV 141858Z 00000KT 10SM FEW200 38/18 A2994 RMK SLPNO T03810180 $,M
CXP,2022-08-14 19:10,-119.7326,39.1923,1431.00,87.80,24.80,10.12,M,5.00,0.00,30.15,M,9.00,M,CLR,M,M,M,M,M,M,M,M,M,M,M,M,M,M,83.56,KCXP 141910Z AUTO VRB05KT 9SM CLR 31/M04 A3015 RMK AO2,M
BAM,2022-08-14 19:15,-116.8743,40.5990,1382.36,87.80,30.20,12.64,0.00,0.00,0.00,30.13,M,10.00,M,CLR,M,M,M,M,M,M,M,M,M,M,M,M,M,M,84.01,KBAM 141915Z AUTO 00000KT 10SM CLR 31/M01 A3013 RMK AO1,M
HTH,2022-08-14 19:15,-118.6315,38.5448,1282.89,87.80,23.00,9.39,340.00,6.00,0.00,30.11,M,10.00,M,CLR,M,M,M,M,M,M,M,M,M,M,M,M,M,M,83.43,KHTH 141915Z AUTO 34006KT 10SM CLR 31/M05 A3011 RMK A01,M
TMT,2022-08-14 19:15,-117.1971,39.4643,1749.34,M,M,M,260.00,6.00,0.00,30.21,M,10.00,M,CLR,M,M,M,M,M,M,M,M,M,M,M,M,M,M,M,KTMT 141915Z AUTO 26006KT 10SM CLR A3021 RMK AO2,M
BVU,2022-08-14 19:15,-114.8611,35.9475,671.00,95.00,60.80,32.27,0.00,0.00,0.00,29.97,M,M,M,M,M,M,M,M,M,M,M,M,M,M,M,M,M,M,95.30,KBVU 141915Z AUTO 00000KT 35/16 A2997 RMK AO2 PWINO TSNO,M
RTS,2022-08-14 19:15,-119.8764,39.6682,1539.00,82.40,23.00,11.16,0.00,0.00,0.00,30.19,M,10.00,10.00,CLR,M,M,M,M,M,M,M,M,M,M,M,M,M,M,79.67,KRTS 141915Z AUTO 00000G10KT 10SM CLR 28/M05 A3019 RMK AO2,M
MEV,2022-08-14 19:15,-119.7500,38.9963,1441.42,86.00,30.20,13.38,0.00,0.00,0.00,30.13,M,10.00,M,CLR,M,M,M,M,M,M,M,M,M,M,M,M,M,M,82.64,KMEV 141915Z AUTO 00000KT 10SM CLR 30/M01 A3013 RMK AO2,M
CXP,2022-08-14 19:30,-119.7326,39.1923,1431.00,87.80,24.80,10.12,M,5.00,0.00,30.14,M,10.00,M,CLR,M,M,M,M,M,M,M,M,M,M,M,M,M,M,83.56,KCXP 141930Z AUTO VRB05KT 10SM CLR 31/M04 A3014 RMK AO2,M
TMT,2022-08-14 19:35,-117.1971,39.4643,1749.34,M,M,M,0.00,0.00,0.00,30.21,M,10.00,M,CLR,M,M,M,M,M,M,M,M,M,M,M,M,M,M,M,KTMT 141935Z AUTO 00000KT 10SM CLR A3021 RMK AO2,M
HTH,2022-08-14 19:35,-118.6315,38.5448,1282.89,87.80,23.00,9.39,330.00,7.00,0.00,30.10,M,10.00,M,CLR,M,M,M,M,M,M,M,M,M,M,M,M,M,M,83.43,KHTH 141935Z AUTO 33007KT 10SM CLR 31/M05 A3010 RMK A01,M
RTS,2022-08-14 19:35,-119.8764,39.6682,1539.00,82.40,23.00,11.16,0.00,0.00,0.00,30.18,M,10.00,M,CLR,M,M,M,M,M,M,M,M,M,M,M,M,M,M,79.67,KRTS 141935Z AUTO 00000KT 10SM CLR 28/M05 A3018 RMK AO2,M
MEV,2022-08-14 19:35,-119.7500,38.9963,1441.42,87.80,28.40,11.74,240.00,7.00,0.00,30.13,M,10.00,M,CLR,M,M,M,M,M,M,M,M,M,M,M,M,M,M,83.84,KMEV 141935Z AUTO 24007KT 10SM CLR 31/M02 A3013 RMK AO2,M
BAM,2022-08-14 19:35,-116.8743,40.5990,1382.36,91.40,32.00,12.14,280.00,4.00,0.00,30.12,M,10.00,M,CLR,M,M,M,M,M,M,M,M,M,M,M,M,M,M,86.91,KBAM 141935Z AUTO 28004KT 10SM CLR 33/00 A3012 RMK AO1,M
BVU,2022-08-14 19:35,-114.8611,35.9475,671.00,95.00,59.00,30.26,M,4.00,0.00,29.96,M,M,M,M,M,M,M,M,M,M,M,M,M,M,M,M,M,M,94.51,KBVU 141935Z AUTO VRB04KT 35/15 A2996 RMK AO2 PWINO TSNO,M
VGT,2022-08-14 19:50,-115.1933,36.2111,667.00,93.20,62.60,36.35,240.00,5.00,0.00,29.96,M,10.00,M,CLR,M,M,M,M,M,M,M,VCTS,M,M,M,M,M,M,94.20,KVGT 141950Z 24005KT 10SM VCTS CLR 34/17 A2996 RMK AO2 LTG DSNT W,M
CXP,2022-08-14 19:50,-119.7326,39.1923,1431.00,89.60,24.80,9.56,290.00,5.00,0.00,30.14,M,10.00,M,CLR,M,M,M,M,M,M,M,M,M,M,M,M,M,M,84.88,KCXP 141950Z AUTO 29005KT 10SM CLR 32/M04 A3014 RMK AO2,M
P68,2022-08-14 19:53,-116.0056,39.6014,1993.00,83.00,40.00,21.75,160.00,9.00,0.00,30.20,1013.90,M,M,M,M,M,M,M,M,M,M,M,M,M,M,M,M,M,80.57,KP68 141953Z AUTO 16009KT 28/04 A3020 RMK AO1 SLP139 T02830044,M
ELY,2022-08-14 19:53,-114.8453,39.2950,1909.00,82.00,50.00,32.88,0.00,0.00,0.00,30.24,1013.90,10.00,M,CLR,M,M,M,M,M,M,M,M,M,M,M,M,M,M,80.73,KELY 141953Z AUTO 00000KT 10SM CLR 28/10 A3024 RMK AO2 LTG DSNT W SLP139 T02780100 $,M
VGT,2022-08-14 19:53,-115.1933,36.2111,667.00,93.00,62.00,35.94,250.00,4.00,0.00,29.96,1013.30,10.00,M,CLR,M,M,M,M,M,M,M,VCTS,M,M,M,M,M,M,93.72,KVGT 141953Z 25004KT 10SM VCTS CLR 34/17 A2996 RMK AO2 LTG DSNT N AND W SLP133 T03390167,M
DRA,2022-08-14 19:53,-116.0278,36.6206,1009.00,94.00,55.00,27.10,180.00,4.00,0.00,30.02,1010.80,10.00,M,CLR,M,M,M,M,M,M,M,M,M,M,M,M,M,M,91.95,KDRA 141953Z AUTO 18004KT 10SM CLR 34/13 A3002 RMK AO2 SLP108 T03440128,M
LOL,2022-08-14 19:53,-118.5701,40.0684,1192.43,93.00,19.00,6.73,M,4.00,0.00,30.07,1013.30,10.00,M,CLR,M,M,M,M,M,M,M,M,M,M,M,M,M,M,87.01,KLOL 141953Z AUTO VRB04KT 10SM CLR 34/M07 A3007 RMK AO2 SLP133 T03391072,M
TMT,2022-08-14 19:55,-117.1971,39.4643,1749.34,M,M,M,250.00,7.00,0.00,30.19,M,10.00,M,CLR,M,M,M,M,M,M,M,M,M,M,M,M,M,M,M,KTMT 141955Z AUTO 25007KT 10SM CLR A3019 RMK AO2,M
BAM,2022-08-14 19:55,-116.8743,40.5990,1382.36,91.40,32.00,12.14,290.00,6.00,0.00,30.11,M,10.00,M,CLR,M,M,M,M,M,M,M,M,M,M,M,M,M,M,86.91,KBAM 141955Z AUTO 29006KT 10SM CLR 33/00 A3011 RMK AO1,M
RNO,2022-08-14 19:55,-119.7711,39.4839,1341.00,90.00,28.90,11.18,0.00,0.00,0.00,30.11,1013.30,10.00,M,CLR,M,M,M,M,M,M,M,M,M,M,M,M,M,M,85.52,KRNO 141955Z 00000KT 10SM CLR 32/M02 A3011 RMK AO2 SLP133 T03221017,M
BVU,2022-08-14 19:55,-114.8611,35.9475,671.00,95.00,59.00,30.26,0.00,0.00,0.00,29.96,M,M,M,M,M,M,M,M,M,M,M,M,M,M,M,M,M,M,94.51,KBVU 141955Z AUTO 00000KT 35/15 A2996 RMK AO2 PWINO TSNO,M
RTS,2022-08-14 19:55,-119.8764,39.6682,1539.00,84.20,21.20,9.76,0.00,0.00,0.00,30.17,M,10.00,M,CLR,M,M,M,M,M,M,M,M,M,M,M,M,M,M,80.77,KRTS 141955Z AUTO 00000KT 10SM CLR 29/M06 A3017 RMK AO2,M
HTH,2022-08-14 19:55,-118.6315,38.5448,1282.89,89.60,23.00,8.87,M,4.00,0.00,30.09,M,10.00,M,CLR,M,M,M,M,M,M,M,M,M,M,M,M,M,M,84.75,KHTH 141955Z AUTO VRB04KT 10SM CLR 32/M05 A3009 RMK A01,M
MEV,2022-08-14 19:55,-119.7500,38.9963,1441.42,89.60,24.80,9.56,0.00,0.00,0.00,30.12,M,10.00,M,CLR,M,M,M,M,M,M,M,M,M,M,M,M,M,M,84.88,KMEV 141955Z AUTO 00000KT 10SM CLR 32/M04 A3012 RMK AO2,M
TPH,2022-08-14 19:56,-117.0904,38.0505,1654.00,88.00,44.00,21.72,130.00,5.00,0.00,30.18,1013.40,10.00,M,CLR,M,M,M,M,M,M,M,M,M,M,M,M,M,M,84.65,KTPH 141956Z AUTO 13005KT 10SM CLR 31/07 A3018 RMK AO2 SLP134 T03110067 $,M
EKO,2022-08-14 19:56,-115.7860,40.8242,1367.00,84.00,48.00,28.60,200.00,5.00,0.00,30.13,1014.30,10.00,M,CLR,M,M,M,M,M,M,M,M,M,M,M,M,M,M,81.87,KEKO 141956Z AUTO 20005KT 10SM CLR 29/09 A3013 RMK AO2 SLP143 T02890089,M
WMC,2022-08-14 19:56,-117.8072,40.9019,1315.00,92.00,27.00,9.75,300.00,9.00,0.00,30.10,1014.40,10.00,M,CLR,M,M,M,M,M,M,M,M,M,M,M,M,M,M,86.77,KWMC 141956Z AUTO 30009KT 10SM CLR 33/M03 A3010 RMK AO2 SLP144 T03331028 $,M
HND,2022-08-14 19:56,-115.1344,35.9729,742.79,93.00,61.00,34.57,220.00,3.00,0.00,30.01,1014.70,10.00,M,CLR,M,M,M,M,M,M,M,M,M,M,M,M,M,M,93.20,KHND 141956Z 22003KT 10SM CLR 34/16 A3001 RMK AO2 LTG DSNT NW SLP147 T03390161,M
LAS,2022-08-14 19:56,-115.1634,36.0719,663.00,93.00,59.00,32.19,0.00,0.00,0.00,29.97,1012.00,10.00,M,SCT,BKN,BKN,M,13000.00,17000.00,22000.00,M,M,M,M,M,M,M,M,92.35,KLAS 141956Z 00000KT 10SM SCT130 BKN170 BKN220 34/15 A2997 RMK AO2 LTG DSNT N AND NW SLP120 CB S-N TCU E-N T03390150,M
NFL,2022-08-14 19:56,-118.7010,39.4166,1199.00,91.00,26.10,9.66,280.00,5.00,0.00,M,1015.20,10.00,M,FEW,M,M,M,8000.00,M,M,M,M,M,M,M,M,M,M,86.02,KNFL 141956Z COR 28005KT 10SM FEW080 33/M03 RMK SLP152 T03281033,M
INS,2022-08-14 19:58,-115.6733,36.5872,955.00,90.00,52.50,27.93,100.00,5.00,0.00,30.02,1011.40,10.00,M,CLR,M,M,M,M,M,M,M,M,M,M,M,M,M,M,87.50,KINS 141958Z AUTO 10005KT 10SM CLR 32/11 A3002 RMK AO2 LTG DSNT SE SLP114 T03220114,M
LSV,2022-08-14 19:58,-115.0343,36.2362,570.00,102.40,63.00,27.85,250.00,3.00,0.00,29.93,M,10.00,M,FEW,M,M,M,21000.00,M,M,M,M,M,M,M,M,M,M,105.13,KLSV 141958Z 25003KT 10SM FEW210 39/17 A2993 RMK SLPNO T03910172 57016 $,M
VGT,2022-08-14 20:05,-115.1933,36.2111,667.00,94.00,62.00,34.95,0.00,0.00,0.00,29.95,M,10.00,M,CLR,M,M,M,M,M,M,M,M,M,M,M,M,M,M,94.72,KVGT 142005Z 00000KT 10SM CLR 34/17 A2995 RMK AO2 LTG DSNT N AND W T03440167,M
CXP,2022-08-14 20:10,-119.7326,39.1923,1431.00,89.60,24.80,9.56,M,4.00,0.00,30.13,M,10.00,M,CLR,M,M,M,M,M,M,M,M,M,M,M,M,M,M,84.88,KCXP 142010Z AUTO VRB04KT 10SM CLR 32/M04 A3013 RMK AO2,M
BVU,2022-08-14 20:15,-114.8611,35.9475,671.00,95.00,59.00,30.26,M,5.00,0.00,29.96,M,M,10.00,M,M,M,M,M,M,M,M,M,M,M,M,M,M,M,94.51,KBVU 142015Z AUTO VRB05G10KT 35/15 A2996 RMK AO2 PWINO TSNO,M
RTS,2022-08-14 20:15,-119.8764,39.6682,1539.00,86.00,19.40,8.53,210.00,6.00,0.00,30.16,M,10.00,M,CLR,M,M,M,M,M,M,M,M,M,M,M,M,M,M,81.94,KRTS 142015Z AUTO 21006KT 10SM CLR 30/M07 A3016 RMK AO2,M
MEV,2022-08-14 20:15,-119.7500,38.9963,1441.42,89.60,26.60,10.30,320.00,6.00,0.00,30.11,M,10.00,M,CLR,M,M,M,M,M,M,M,M,M,M,M,M,M,M,85.02,KMEV 142015Z AUTO 32006KT 10SM CLR 32/M03 A3011 RMK AO2,M
BAM,2022-08-14 20:15,-116.8743,40.5990,1382.36,91.40,32.00,12.14,10.00,4.00,0.00,30.10,M,10.00,M,CLR,M,M,M,M,M,M,M,M,M,M,M,M,M,M,86.91,KBAM 142015Z AUTO 01004KT 10SM CLR 33/00 A3010 RMK AO1,M
HTH,2022-08-14 20:15,-118.6315,38.5448,1282.89,89.60,23.00,8.87,M,4.00,0.00,30.08,M,10.00,M,CLR,M,M,M,M,M,M,M,M,M,M,M,M,M,M,84.75,KHTH 142015Z AUTO VRB04KT 10SM CLR 32/M05 A3008 RMK A01,M
TMT,2022-08-14 20:15,-117.1971,39.4643,1749.34,M,M,M,260.00,8.00,0.00,30.19,M,10.00,M,CLR,M,M,M,M,M,M,M,M,M,M,M,M,M,M,M,KTMT 142015Z AUTO 26008KT 10SM CLR A3019 RMK AO2,M
CXP,2022-08-14 20:30,-119.7326,39.1923,1431.00,91.40,23.00,8.38,M,5.00,0.00,30.12,M,10.00,11.00,CLR,M,M,M,M,M,M,M,M,M,M,M,M,M,M,86.08,KCXP 142030Z AUTO VRB05G11KT 10SM CLR 33/M05 A3012 RMK AO2,M
HTH,2022-08-14 20:35,-118.6315,38.5448,1282.89,91.40,23.00,8.38,M,5.00,0.00,30.07,M,10.00,M,CLR,M,M,M,M,M,M,M,M,M,M,M,M,M,M,86.08,KHTH 142035Z AUTO VRB05KT 10SM CLR 33/M05 A3007 RMK A01,M
BVU,2022-08-14 20:35,-114.8611,35.9475,671.00,95.00,60.80,32.27,200.00,6.00,0.00,29.95,M,M,M,M,M,M,M,M,M,M,M,M,M,M,M,M,M,M,95.30,KBVU 142035Z AUTO 20006KT 35/16 A2995 RMK AO2 PWINO TSNO,M
RTS,2022-08-14 20:35,-119.8764,39.6682,1539.00,86.00,21.20,9.21,M,4.00,0.00,30.16,M,10.00,M,CLR,M,M,M,M,M,M,M,M,M,M,M,M,M,M,82.04,KRTS 142035Z AUTO VRB04KT 10SM CLR 30/M06 A3016 RMK AO2,M
TMT,2022-08-14 20:35,-117.1971,39.4643,1749.34,M,M,M,280.00,4.00,0.00,30.18,M,10.00,9.00,CLR,M,M,M,M,M,M,M,M,M,M,M,M,M,M,M,KTMT 142035Z AUTO 28004G09KT 10SM CLR A3018 RMK AO2,M
MEV,2022-08-14 20:35,-119.7500,38.9963,1441.42,89.60,28.40,11.09,330.00,8.00,0.00,30.11,M,10.00,M,CLR,M,M,M,M,M,M,M,M,M,M,M,M,M,M,85.17,KMEV 142035Z AUTO 33008KT 10SM CLR 32/M02 A3011 RMK AO2,M
BAM,2022-08-14 20:35,-116.8743,40.5990,1382.36,95.00,32.00,10.85,230.00,4.00,0.00,30.09,M,10.00,M,CLR,M,M,M,M,M,M,M,M,M,M,M,M,M,M,89.71,KBAM 142035Z AUTO 23004KT 10SM CLR 35/00 A3009 RMK AO1,M
CXP,2022-08-14 20:50,-119.7326,39.1923,1431.00,91.40,23.00,8.38,320.00,5.00,0.00,30.12,M,10.00,12.00,CLR,M,M,M,M,M,M,M,M,M,M,M,M,M,M,86.08,KCXP 142050Z AUTO 32005G12KT 10SM CLR 33/M05 A3012 RMK AO2,M
LOL,2022-08-14 20:53,-118.5701,40.0684,1192.43,94.00,19.90,6.80,140.00,3.00,0.00,30.05,1013.00,10.00,M,CLR,M,M,M,M,M,M,M,M,M,M,M,M,M,M,87.73,KLOL 142053Z AUTO 14003KT 10SM CLR 34/M07 A3005 RMK AO2 SLP130 T03441067 58018,M
P68,2022-08-14 20:53,-116.0056,39.6014,1993.00,83.00,42.00,23.68,70.00,5.00,0.01,30.18,1013.60,M,M,M,M,M,M,M,M,M,M,M,M,M,M,M,M,M,80.68,KP68 142053Z AUTO 07005KT 28/06 A3018 RMK AO1 SLP136 P0001 60001 T02830056 56010,M
DRA,2022-08-14 20:53,-116.0278,36.6206,1009.00,95.00,54.00,25.26,200.00,9.00,0.00,30.00,1010.20,10.00,16.00,FEW,M,M,M,8500.00,M,M,M,M,M,M,M,M,M,M,92.82,KDRA 142053Z AUTO 20009G16KT 10SM FEW085 35/12 A3000 RMK AO2 SLP102 T03500122 58018,M
VGT,2022-08-14 20:53,-115.1933,36.2111,667.00,95.00,61.00,32.50,0.00,0.00,0.00,29.94,1012.40,10.00,M,CLR,M,M,M,M,M,M,M,M,M,M,M,M,M,M,95.40,KVGT 142053Z 00000KT 10SM CLR 35/16 A2994 RMK AO2 LTG DSNT N AND W SLP124 T03500161 58012,M
ELY,2022-08-14 20:53,-114.8453,39.2950,1909.00,84.00,46.00,26.52,M,M,0.00,30.21,1012.80,10.00,M,CLR,M,M,M,M,M,M,M,M,M,M,M,M,M,M,81.69,KELY 142053Z AUTO 10SM CLR 29/08 A3021 RMK AO2 LTG DSNT W SLP128 T02890078 58018 $,M
RNO,2022-08-14 20:55,-119.7711,39.4839,1341.00,93.00,30.00,10.65,270.00,5.00,0.00,30.09,1012.50,10.00,M,FEW,M,M,M,13000.00,M,M,M,M,M,M,M,M,M,M,87.91,KRNO 142055Z 27005KT 10SM FEW130 34/M01 A3009 RMK AO2 SLP125 T03391011 58021,M
BVU,2022-08-14 20:55,-114.8611,35.9475,671.00,95.00,59.00,30.26,220.00,7.00,0.00,29.94,M,M,M,M,M,M,M,M,M,M,M,M,M,M,M,M,M,M,94.51,KBVU 142055Z AUTO 22007KT 35/15 A2994 RMK AO2 PWINO TSNO,M
RTS,2022-08-14 20:55,-119.8764,39.6682,1539.00,86.00,15.80,7.31,0.00,0.00,0.00,30.15,M,10.00,M,CLR,M,M,M,M,M,M,M,M,M,M,M,M,M,M,81.78,KRTS 142055Z AUTO 00000KT 10SM CLR 30/M09 A3015 RMK AO2,M
MEV,2022-08-14 20:55,-119.7500,38.9963,1441.42,91.40,24.80,9.04,280.00,6.00,0.00,30.10,M,10.00,13.00,CLR,M,M,M,M,M,M,M,M,M,M,M,M,M,M,86.21,KMEV 142055Z AUTO 28006G13KT 10SM CLR 33/M04 A3010 RMK AO2,M
BAM,2022-08-14 20:55,-116.8743,40.5990,1382.36,93.20,33.80,12.34,280.00,7.00,0.00,30.08,M,10.00,M,CLR,M,M,M,M,M,M,M,M,M,M,M,M,M,M,88.55,KBAM 142055Z AUTO 28007KT 10SM CLR 34/01 A3008 RMK AO1,M
TMT,2022-08-14 20:55,-117.1971,39.4643,1749.34,M,M,M,280.00,7.00,0.00,30.18,M,10.00,M,SCT,M,M,M,10000.00,M,M,M,M,M,M,M,M,M,M,M,KTMT 142055Z AUTO 28007KT 10SM SCT100 A3018 RMK AO2,M
HTH,2022-08-14 20:55,-118.6315,38.5448,1282.89,91.40,24.80,9.04,10.00,6.00,0.00,30.06,M,10.00,M,CLR,M,M,M,M,M,M,M,M,M,M,M,M,M,M,86.21,KHTH 142055Z AUTO 01006KT 10SM CLR 33/M04 A3006 RMK A01,M
WMC,2022-08-14 20:56,-117.8072,40.9019,1315.00,93.00,21.00,7.33,260.00,7.00,0.00,30.07,1013.80,10.00,M,CLR,M,M,M,M,M,M,M,M,M,M,M,M,M,M,87.13,KWMC 142056Z AUTO 26007KT 10SM CLR 34/M06 A3007 RMK AO2 SLP138 T03391061 58017 $,M
TPH,2022-08-14 20:56,-117.0904,38.0505,1654.00,90.00,40.00,17.34,70.00,3.00,0.00,30.16,1012.80,10.00,M,CLR,M,M,M,M,M,M,M,M,M,M,M,M,M,M,86.11,KTPH 142056Z AUTO 07003KT 10SM CLR 32/04 A3016 RMK AO2 SLP128 T03220044 58018 $,M
LAS,2022-08-14 20:56,-115.1634,36.0719,663.00,94.00,58.00,30.10,150.00,4.00,0.00,29.95,1011.20,10.00,M,SCT,BKN,BKN,M,13000.00,17000.00,22000.00,M,M,M,M,M,M,M,M,92.90,KLAS 142056Z 15004KT 10SM SCT130TCU BKN170 BKN220 34/14 A2995 RMK AO2 LTG DSNT N SLP112 CB DSNT S-W-N TCU N-E T03440144 58018,M
NFL,2022-08-14 20:56,-118.7010,39.4166,1199.00,92.00,19.00,6.96,310.00,6.00,0.00,30.05,1014.40,10.00,M,FEW,M,M,M,8000.00,M,M,M,M,M,M,M,M,M,M,86.20,KNFL 142056Z 31006KT 10SM FEW080 33/M07 A3005 RMK AO2 SLP144 T03331072 58018,M
HND,2022-08-14 20:56,-115.1344,35.9729,742.79,93.00,59.00,32.19,200.00,8.00,0.00,29.99,1014.00,10.00,M,CLR,M,M,M,M,M,M,M,M,M,M,M,M,M,M,92.35,KHND 142056Z 20008KT 10SM CLR 34/15 A2999 RMK AO2 SLP140 T03390150 58016,M
EKO,2022-08-14 20:56,-115.7860,40.8242,1367.00,86.00,45.00,23.95,110.00,5.00,0.00,30.10,1013.30,10.00,M,BKN,M,M,M,10000.00,M,M,M,M,M,M,M,M,M,M,83.10,KEKO 142056Z AUTO 11005KT 10SM BKN100 30/07 A3010 RMK AO2 LTG DSNT NW SLP133 T03000072 58020,M
LSV,2022-08-14 20:58,-115.0343,36.2362,570.00,98.80,62.00,29.87,0.00,0.00,0.00,29.90,M,10.00,M,FEW,SCT,M,M,15000.00,18000.00,M,M,M,M,M,M,M,M,M,100.21,KLSV 142058Z 00000KT 10SM FEW150 SCT180 37/17 A2990 RMK SLPNO WND DATA ESTMD T03710166 $,M
INS,2022-08-14 20:58,-115.6733,36.5872,955.00,90.50,53.80,28.84,120.00,7.00,0.00,30.01,1010.90,10.00,M,SCT,BKN,M,M,18000.00,21000.00,M,M,M,M,M,M,M,M,M,88.25,KINS 142058Z AUTO 12007KT 10SM SCT180 BKN210 33/12 A3001 RMK AO2 SLP109 T03250121 57013,M
CXP,2022-08-14 21:10,-119.7326,39.1923,1431.00,91.40,23.00,8.38,300.00,6.00,0.00,30.11,M,10.00,12.00,CLR,M,M,M,M,M,M,M,M,M,M,M,M,M,M,86.08,KCXP 142110Z AUTO 30006G12KT 10SM CLR 33/M05 A3011 RMK AO2,M
MEV,2022-08-14 21:15,-119.7500,38.9963,1441.42,91.40,21.20,7.77,260.00,10.00,0.00,30.10,M,10.00,15.00,CLR,M,M,M,M,M,M,M,M,M,M,M,M,M,M,85.96,KMEV 142115Z AUTO 26010G15KT 10SM CLR 33/M06 A3010 RMK AO2,M
BAM,2022-08-14 21:15,-116.8743,40.5990,1382.36,95.00,33.80,11.67,320.00,9.00,0.00,30.08,M,10.00,M,CLR,M,M,M,M,M,M,M,M,M,M,M,M,M,M,89.97,KBAM 142115Z AUTO 32009KT 10SM CLR 35/01 A3008 RMK AO1,M
HTH,2022-08-14 21:15,-118.6315,38.5448,1282.89,91.40,24.80,9.04,310.00,7.00,0.00,30.05,M,10.00,13.00,CLR,M,M,M,M,M,M,M,M,M,M,M,M,M,M,86.21,KHTH 142115Z AUTO 31007G13KT 10SM CLR 33/M04 A3005 RMK A01,M
RTS,2022-08-14 21:15,-119.8764,39.6682,1539.00,86.00,14.00,6.75,M,4.00,0.00,30.15,M,10.00,M,CLR,M,M,M,M,M,M,M,M,M,M,M,M,M,M,81.71,KRTS 142115Z AUTO VRB04KT 10SM CLR 30/M10 A3015 RMK AO2,M
TMT,2022-08-14 21:15,-117.1971,39.4643,1749.34,M,M,M,260.00,8.00,0.00,30.17,M,10.00,M,SCT,M,M,M,10000.00,M,M,M,M,M,M,M,M,M,M,M,KTMT 142115Z AUTO 26008KT 10SM SCT100 A3017 RMK AO2 LTG DSNT SE,M
BVU,2022-08-14 21:15,-114.8611,35.9475,671.00,93.20,60.80,34.11,120.00,9.00,0.00,29.94,M,M,M,M,M,M,M,M,M,M,M,M,M,M,M,M,M,M,93.32,KBVU 142115Z AUTO 12009KT 34/16 A2994 RMK AO2 PWINO TSNO,M
CXP,2022-08-14 21:30,-119.7326,39.1923,1431.00,91.40,21.20,7.77,320.00,9.00,0.00,30.10,M,10.00,M,CLR,M,M,M,M,M,M,M,M,M,M,M,M,M,M,85.96,KCXP 142130Z AUTO 32009KT 300V010 10SM CLR 33/M06 A3010 RMK AO2,M
BAM,2022-08-14 21:35,-116.8743,40.5990,1382.36,95.00,33.80,11.67,0.00,0.00,0.00,30.07,M,10.00,M,CLR,M,M,M,M,M,M,M,M,M,M,M,M,M,M,89.97,KBAM 142135Z AUTO 00000KT 10SM CLR 35/01 A3007 RMK AO1,M
TMT,2022-08-14 21:35,-117.1971,39.4643,1749.34,M,M,M,250.00,6.00,0.00,30.16,M,10.00,M,SCT,M,M,M,10000.00,M,M,M,M,M,M,M,M,M,M,M,KTMT 142135Z AUTO 25006KT 10SM SCT100 A3016 RMK AO2 LTG DSNT SE,M
HTH,2022-08-14 21:35,-118.6315,38.5448,1282.89,93.20,24.80,8.54,320.00,8.00,0.00,30.04,M,10.00,M,CLR,M,M,M,M,M,M,M,M,M,M,M,M,M,M,87.56,KHTH 142135Z AUTO 32008KT 10SM CLR 34/M04 A3004 RMK A01,M
MEV,2022-08-14 21:35,-119.7500,38.9963,1441.42,91.40,21.20,7.77,300.00,11.00,0.00,30.09,M,10.00,M,CLR,M,M,M,M,M,M,M,M,M,M,M,M,M,M,85.96,KMEV 142135Z AUTO 30011KT 10SM CLR 33/M06 A3009 RMK AO2,M
RTS,2022-08-14 21:35,-119.8764,39.6682,1539.00,89.60,8.60,4.74,270.00,8.00,0.00,30.14,M,10.00,15.00,CLR,M,M,M,M,M,M,M,M,M,M,M,M,M,M,84.12,KRTS 142135Z AUTO 27008G15KT 240V300 10SM CLR 32/M13 A3014 RMK AO2,M
BVU,2022-08-14 21:35,-114.8611,35.9475,671.00,93.20,60.80,34.11,180.00,8.00,0.00,29.93,M,M,M,M,M,M,M,M,M,M,M,M,M,M,M,M,M,M,93.32,KBVU 142135Z AUTO 18008KT 150V210 34/16 A2993 RMK AO2 PWINO TSNO,M
ELY,2022-08-14 21:41,-114.8453,39.2950,1909.00,79.00,50.00,36.27,310.00,9.00,0.00,30.21,M,10.00,M,CLR,M,M,M,M,M,M,M,M,M,M,M,M,M,M,79.00,KELY 142141Z AUTO 31009KT 10SM CLR 26/10 A3021 RMK AO2 WSHFT 2121 LTG DSNT E AND SW T02610100 $,M
CXP,2022-08-14 21:50,-119.7326,39.1923,1431.00,93.20,19.40,6.80,M,3.00,0.00,30.10,M,10.00,15.00,CLR,M,M,M,M,M,M,M,M,M,M,M,M,M,M,87.18,KCXP 142150Z AUTO VRB03G15KT 10SM CLR 34/M07 A3010 RMK AO2,M
INS,2022-08-14 21:51,-115.6733,36.5872,955.00,93.20,51.80,24.63,90.00,8.00,0.00,29.97,1009.60,10.00,M,CLR,M,M,M,M,M,M,M,M,M,M,M,M,M,M,90.45,KINS 142151Z AUTO 09008KT 10SM CLR 34/11 A2997 RMK AO2 SLP096,M
DRA,2022-08-14 21:53,-116.0278,36.6206,1009.00,97.00,52.00,22.07,120.00,12.00,0.00,29.97,1009.10,10.00,20.00,CLR,M,M,M,M,M,M,M,M,M,M,M,M,M,M,94.38,KDRA 142153Z AUTO 12012G20KT 10SM CLR 36/11 A2997 RMK AO2 SLP091 T03610111,M
VGT,2022-08-14 21:53,-115.1933,36.2111,667.00,96.00,60.00,30.43,0.00,0.00,0.00,29.90,1011.20,10.00,M,CLR,M,M,M,M,M,M,M,M,M,M,M,M,M,M,96.21,KVGT 142153Z 00000KT 10SM CLR 36/16 A2990 RMK AO2 SLP112 T03560156,M
LOL,2022-08-14 21:53,-118.5701,40.0684,1192.43,94.00,19.00,6.54,M,3.00,0.00,30.02,1012.40,10.00,M,CLR,M,M,M,M,M,M,M,M,M,M,M,M,M,M,87.67,KLOL 142153Z AUTO VRB03KT 10SM CLR 34/M07 A3002 RMK AO2 SLP124 T03441072,M
ELY,2022-08-14 21:53,-114.8453,39.2950,1909.00,80.00,47.00,31.15,330.00,9.00,0.00,30.20,1013.00,10.00,M,CLR,M,M,M,M,M,M,M,M,M,M,M,M,M,M,79.33,KELY 142153Z AUTO 33009KT 10SM CLR 27/08 A3020 RMK AO2 WSHFT 2121 LTG DSNT S AND SW SLP130 T02670083 $,M
P68,2022-08-14 21:53,-116.0056,39.6014,1993.00,78.00,41.00,26.55,180.00,12.00,0.00,30.18,1013.90,M,22.00,M,M,M,M,M,M,M,M,M,M,M,M,28.00,190.00,2022-08-14 21:30,78.10,KP68 142153Z AUTO 18012G22KT 26/05 A3018 RMK AO1 PK WND 19028/2130 SLP139 T02560050,M
MEV,2022-08-14 21:55,-119.7500,38.9963,1441.42,93.20,21.20,7.34,300.00,11.00,0.00,30.08,M,10.00,21.00,CLR,M,M,M,M,M,M,M,M,M,M,M,M,M,M,87.29,KMEV 142155Z AUTO 30011G21KT 250V310 10SM CLR 34/M06 A3008 RMK AO2,M
RTS,2022-08-14 21:55,-119.8764,39.6682,1539.00,89.60,12.20,5.57,310.00,7.00,0.00,30.13,M,10.00,16.00,CLR,M,M,M,M,M,M,M,M,M,M,M,M,M,M,84.23,KRTS 142155Z AUTO 31007G16KT 260V360 10SM CLR 32/M11 A3013 RMK AO2,M
BVU,2022-08-14 21:55,-114.8611,35.9475,671.00,93.20,59.00,31.99,190.00,7.00,0.00,29.92,M,M,M,M,M,M,M,M,M,M,M,M,M,M,M,M,M,M,92.57,KBVU 142155Z AUTO 19007KT 34/15 A2992 RMK AO2 PWINO TSNO,M
BAM,2022-08-14 21:55,-116.8743,40.5990,1382.36,96.80,32.00,10.27,240.00,11.00,0.00,30.06,M,10.00,M,CLR,M,M,M,M,M,M,M,M,M,M,M,M,M,M,91.19,KBAM 142155Z AUTO 24011KT 220V280 10SM CLR 36/00 A3006 RMK AO1,M
HTH,2022-08-14 21:55,-118.6315,38.5448,1282.89,93.20,24.80,8.54,330.00,9.00,0.00,30.03,M,10.00,15.00,CLR,M,M,M,M,M,M,M,M,M,M,M,M,M,M,87.56,KHTH 142155Z AUTO 33009G15KT 10SM CLR 34/M04 A3003 RMK A01,M
TMT,2022-08-14 21:55,-117.1971,39.4643,1749.34,M,M,M,240.00,8.00,0.00,30.16,M,10.00,15.00,SCT,M,M,M,11000.00,M,M,M,VCTS,M,M,M,M,M,M,M,KTMT 142155Z AUTO 24008G15KT 10SM VCTS SCT110 A3016 RMK AO2 LTG DSNT SE,M
RNO,2022-08-14 21:55,-119.7711,39.4839,1341.00,94.00,26.10,8.82,M,3.00,0.00,30.06,1011.70,10.00,M,CLR,M,M,M,M,M,M,M,M,M,M,M,M,M,M,88.20,KRNO 142155Z VRB03KT 10SM CLR 34/M03 A3006 RMK AO2 SLP117 T03441033,M
NFL,2022-08-14 21:56,-118.7010,39.4166,1199.00,96.00,23.00,7.24,M,M,0.00,30.02,1013.60,10.00,M,FEW,M,M,M,8000.00,M,M,M,M,M,M,M,M,M,M,89.67,KNFL 142156Z 10SM FEW080 36/M05 A3002 RMK AO2 SLP136 T03561050,M
TPH,2022-08-14 21:56,-117.0904,38.0505,1654.00,92.00,42.00,17.79,0.00,0.00,0.00,30.13,1011.50,10.00,M,CLR,M,M,M,M,M,M,M,M,M,M,M,M,M,M,87.92,KTPH 142156Z AUTO 00000KT 10SM CLR 33/06 A3013 RMK AO2 SLP115 T03330056 $,M
LAS,2022-08-14 21:56,-115.1634,36.0719,663.00,94.00,59.00,31.31,190.00,7.00,0.00,29.91,1010.10,10.00,M,SCT,SCT,BKN,M,13000.00,17000.00,22000.00,M,M,M,M,M,M,M,M,93.32,KLAS 142156Z 19007KT 10SM SCT130 SCT170 BKN220 34/15 A2991 RMK AO2 SLP101 SH DSNT S CB DSNT NW TCU DSNT N-E-SE T03440150,M
EKO,2022-08-14 21:56,-115.7860,40.8242,1367.00,94.00,41.00,16.02,M,3.00,0.00,30.08,1012.10,10.00,M,CLR,M,M,M,M,M,M,M,M,M,M,M,M,M,M,89.68,KEKO 142156Z AUTO VRB03KT 10SM CLR 34/05 A3008 RMK AO2 SLP121 T03440050,M
WMC,2022-08-14 21:56,-117.8072,40.9019,1315.00,96.00,23.00,7.24,M,3.00,0.00,30.06,1012.70,10.00,M,CLR,M,M,M,M,M,M,M,M,M,M,M,M,M,M,89.67,KWMC 142156Z AUTO VRB03KT 10SM CLR 36/M05 A3006 RMK AO2 SLP127 T03561050 $,M
HND,2022-08-14 21:56,-115.1344,35.9729,742.79,93.00,60.00,33.48,210.00,9.00,0.00,29.95,1012.80,10.00,M,CLR,M,M,M,M,M,M,M,M,M,M,M,M,M,M,92.80,KHND 142156Z 21009KT 10SM CLR 34/16 A2995 RMK AO2 SLP128 T03390156,M
LSV,2022-08-14 21:58,-115.0343,36.2362,570.00,99.00,60.00,27.85,270.00,6.00,0.00,29.87,M,10.00,M,FEW,SCT,M,M,13000.00,16000.00,M,M,M,M,M,M,M,M,M,99.50,KLSV 142158Z 27006KT 10SM FEW130 SCT160 37/16 A2987 RMK SLPNO T03720156 FZRANO $,M
INS,2022-08-14 21:58,-115.6733,36.5872,955.00,93.70,53.60,25.91,90.00,4.00,0.00,29.97,1009.60,10.00,M,CLR,M,M,M,M,M,M,M,M,M,M,M,M,M,M,91.37,KINS 142158Z AUTO 09004KT 10SM CLR 34/12 A2997 RMK AO2 SLP096 T03430120,M
CXP,2022-08-14 22:10,-119.7326,39.1923,1431.00,93.20,19.40,6.80,280.00,13.00,0.00,30.09,M,10.00,M,CLR,M,M,M,M,M,M,M,M,M,M,M,M,M,M,87.18,KCXP 142210Z AUTO 28013KT 10SM CLR 34/M07 A3009 RMK AO2,M
BAM,2022-08-14 22:15,-116.8743,40.5990,1382.36,96.80,33.80,11.04,330.00,13.00,0.00,30.02,M,10.00,23.00,CLR,M,M,M,M,M,M,M,M,M,M,M,M,M,M,91.44,KBAM 142215Z AUTO 33013G23KT 230V040 10SM CLR 36/01 A3002 RMK AO1,M
MEV,2022-08-14 22:15,-119.7500,38.9963,1441.42,93.20,21.20,7.34,290.00,15.00,0.00,30.08,M,10.00,M,CLR,M,M,M,M,M,M,M,M,M,M,M,M,M,M,87.29,KMEV 142215Z AUTO 29015KT 10SM CLR 34/M06 A3008 RMK AO2,M
RTS,2022-08-14 22:15,-119.8764,39.6682,1539.00,89.60,10.40,5.14,300.00,14.00,0.00,30.12,M,10.00,M,CLR,M,M,M,M,M,M,M,M,M,M,M,M,M,M,84.17,KRTS 142215Z AUTO 30014KT 260V330 10SM CLR 32/M12 A3012 RMK AO2,M
BVU,2022-08-14 22:15,-114.8611,35.9475,671.00,95.00,60.80,32.27,210.00,8.00,0.00,29.91,M,M,M,M,M,M,M,M,M,M,M,M,M,M,M,M,M,M,95.30,KBVU 142215Z AUTO 21008KT 35/16 A2991 RMK AO2 PWINO TSNO,M
TMT,2022-08-14 22:15,-117.1971,39.4643,1749.34,M,M,M,280.00,6.00,0.00,30.15,M,10.00,18.00,SCT,M,M,M,11000.00,M,M,M,M,M,M,M,M,M,M,M,KTMT 142215Z AUTO 28006G18KT 10SM SCT110 A3015 RMK AO2 LTG DSNT SE,M
HTH,2022-08-14 22:15,-118.6315,38.5448,1282.89,95.00,24.80,8.08,320.00,11.00,0.00,30.02,M,10.00,M,CLR,M,M,M,M,M,M,M,M,M,M,M,M,M,M,88.91,KHTH 142215Z AUTO 32011KT 10SM CLR 35/M04 A3002 RMK A01,M
CXP,2022-08-14 22:30,-119.7326,39.1923,1431.00,91.40,21.20,7.77,270.00,14.00,0.00,30.09,M,10.00,24.00,CLR,M,M,M,M,M,M,M,M,M,M,M,M,M,M,85.96,KCXP 142230Z AUTO 27014G24KT 10SM CLR 33/M06 A3009 RMK AO2,M
BVU,2022-08-14 22:35,-114.8611,35.9475,671.00,95.00,60.80,32.27,180.00,7.00,0.00,29.90,M,M,M,M,M,M,M,M,M,M,M,M,M,M,M,M,M,M,95.30,KBVU 142235Z AUTO 18007KT 35/16 A2990 RMK AO2 PWINO TSNO,M
RTS,2022-08-14 22:35,-119.8764,39.6682,1539.00,89.60,6.80,4.37,280.00,7.00,0.00,30.12,M,10.00,14.00,CLR,M,M,M,M,M,M,M,M,M,M,M,M,M,M,84.07,KRTS 142235Z AUTO 28007G14KT 10SM CLR 32/M14 A3012 RMK AO2,M
MEV,2022-08-14 22:35,-119.7500,38.9963,1441.42,93.20,23.00,7.92,270.00,16.00,0.00,30.07,M,10.00,M,CLR,M,M,M,M,M,M,M,M,M,M,M,M,M,M,87.42,KMEV 142235Z AUTO 27016KT 10SM CLR 34/M05 A3007 RMK AO2,M
BAM,2022-08-14 22:35,-116.8743,40.5990,1382.36,96.80,33.80,11.04,320.00,8.00,0.00,30.04,M,10.00,M,CLR,M,M,M,M,M,M,M,M,M,M,M,M,M,M,91.44,KBAM 142235Z AUTO 32008KT 10SM CLR 36/01 A3004 RMK AO1,M
HTH,2022-08-14 22:35,-118.6315,38.5448,1282.89,95.00,24.80,8.08,320.00,10.00,0.00,30.00,M,10.00,M,CLR,M,M,M,M,M,M,M,M,M,M,M,M,M,M,88.91,KHTH 142235Z AUTO 32010KT 10SM CLR 35/M04 A3000 RMK A01,M
TMT,2022-08-14 22:35,-117.1971,39.4643,1749.34,M,M,M,170.00,7.00,0.00,30.15,M,10.00,M,SCT,M,M,M,11000.00,M,M,M,M,M,M,M,M,M,M,M,KTMT 142235Z AUTO 17007KT 10SM SCT110 A3015 RMK AO2,M
CXP,2022-08-14 22:50,-119.7326,39.1923,1431.00,91.40,21.20,7.77,280.00,14.00,0.00,30.09,M,10.00,22.00,CLR,M,M,M,M,M,M,M,M,M,M,M,M,M,M,85.96,KCXP 142250Z AUTO 28014G22KT 10SM CLR 33/M06 A3009 RMK AO2,M
DRA,2022-08-14 22:53,-116.0278,36.6206,1009.00,98.00,49.00,19.02,M,M,0.00,29.94,1008.20,10.00,M,CLR,M,M,M,M,M,M,M,M,M,M,M,M,M,M,94.81,KDRA 142253Z AUTO 10SM CLR 37/09 A2994 RMK AO2 SLP082 T03670094,M
P68,2022-08-14 22:53,-116.0056,39.6014,1993.00,82.00,41.00,23.37,160.00,20.00,0.00,30.16,1013.10,M,30.00,M,M,M,M,M,M,M,M,M,M,M,M,30.00,170.00,2022-08-14 22:49,80.04,KP68 142253Z AUTO 16020G30KT 28/05 A3016 RMK AO1 PK WND 17030/2249 SLP131 T02780050,M
VGT,2022-08-14 22:53,-115.1933,36.2111,667.00,97.00,59.00,28.46,160.00,7.00,0.00,29.88,1010.40,10.00,M,CLR,M,M,M,M,M,M,M,M,M,M,M,M,M,M,96.72,KVGT 142253Z 16007KT 10SM CLR 36/15 A2988 RMK AO2 SLP104 T03610150,M
ELY,2022-08-14 22:53,-114.8453,39.2950,1909.00,77.00,49.00,37.19,190.00,15.00,0.00,30.21,1013.60,10.00,25.00,FEW,M,M,M,11000.00,M,M,M,M,M,M,M,26.00,190.00,2022-08-14 22:38,77.00,KELY 142253Z AUTO 19015G25KT 10SM FEW110 25/09 A3021 RMK AO2 PK WND 19026/2238 SLP136 T02500094 $,M
LOL,2022-08-14 22:53,-118.5701,40.0684,1192.43,96.00,12.90,4.69,180.00,9.00,0.00,30.00,1011.40,10.00,18.00,CLR,M,M,M,M,M,M,M,M,M,M,M,M,M,M,89.06,KLOL 142253Z AUTO 18009G18KT 150V230 10SM CLR 36/M11 A3000 RMK AO2 SLP114 T03561106,M
TMT,2022-08-14 22:55,-117.1971,39.4643,1749.34,M,M,M,120.00,13.00,0.00,30.14,M,10.00,21.00,BKN,M,M,M,11000.00,M,M,M,M,M,M,M,M,M,M,M,KTMT 142255Z AUTO 12013G21KT 10SM BKN110 A3014 RMK AO2,M
BVU,2022-08-14 22:55,-114.8611,35.9475,671.00,95.00,60.80,32.27,200.00,8.00,0.00,29.89,M,M,M,M,M,M,M,M,M,M,M,M,M,M,M,M,M,M,95.30,KBVU 142255Z AUTO 20008KT 35/16 A2989 RMK AO2 PWINO TSNO,M
RTS,2022-08-14 22:55,-119.8764,39.6682,1539.00,89.60,6.80,4.37,260.00,13.00,0.00,30.12,M,10.00,19.00,CLR,M,M,M,M,M,M,M,M,M,M,M,M,M,M,84.07,KRTS 142255Z AUTO 26013G19KT 10SM CLR 32/M14 A3012 RMK AO2,M
MEV,2022-08-14 22:55,-119.7500,38.9963,1441.42,91.40,23.00,8.38,280.00,15.00,0.00,30.07,M,10.00,21.00,CLR,M,M,M,M,M,M,M,M,M,M,M,M,M,M,86.08,KMEV 142255Z AUTO 28015G21KT 10SM CLR 33/M05 A3007 RMK AO2,M
RNO,2022-08-14 22:55,-119.7711,39.4839,1341.00,96.00,21.90,6.92,200.00,11.00,0.00,30.05,1011.00,8.00,M,CLR,M,M,M,M,M,M,M,M,M,M,M,M,M,M,89.58,KRNO 142255Z 20011KT 8SM CLR 36/M06 A3005 RMK AO2 SLP110 T03561056,M
BAM,2022-08-14 22:55,-116.8743,40.5990,1382.36,96.80,33.80,11.04,30.00,4.00,0.00,30.04,M,10.00,14.00,CLR,M,M,M,M,M,M,M,M,M,M,M,M,M,M,91.44,KBAM 142255Z AUTO 03004G14KT 10SM CLR 36/01 A3004 RMK AO1,M
HTH,2022-08-14 22:55,-118.6315,38.5448,1282.89,95.00,24.80,8.08,350.00,9.00,0.00,30.00,M,10.00,M,CLR,M,M,M,M,M,M,M,M,M,M,M,M,M,M,88.91,KHTH 142255Z AUTO 35009KT 300V360 10SM CLR 35/M04 A3000 RMK A01,M
EKO,2022-08-14 22:56,-115.7860,40.8242,1367.00,91.00,41.00,17.54,170.00,11.00,T,30.07,1011.80,10.00,M,FEW,BKN,M,M,3400.00,12000.00,M,M,M,M,M,M,M,M,M,87.04,KEKO 142256Z AUTO 17011KT 10SM FEW034 BKN120 33/05 A3007 RMK AO2 RAB30E44 SLP118 P0000 T03280050,M
HND,2022-08-14 22:56,-115.1344,35.9729,742.79,93.00,59.00,32.19,220.00,8.00,0.00,29.93,1012.10,10.00,M,CLR,M,M,M,M,M,M,M,M,M,M,M,M,M,M,92.35,KHND 142256Z 22008KT 10SM CLR 34/15 A2993 RMK AO2 SLP121 T03390150,M
NFL,2022-08-14 22:56,-118.7010,39.4166,1199.00,95.00,21.90,7.15,M,5.00,0.00,30.00,1013.00,10.00,M,CLR,M,M,M,M,M,M,M,M,M,M,M,M,M,M,88.67,KNFL 142256Z VRB05KT 10SM CLR 35/M06 A3000 RMK AO2 SLP130 T03501056,M
LAS,2022-08-14 22:56,-115.1634,36.0719,663.00,95.00,60.00,31.47,200.00,6.00,0.00,29.89,1009.20,10.00,M,SCT,SCT,BKN,M,13000.00,17000.00,22000.00,M,M,M,M,M,M,M,M,94.98,KLAS 142256Z 20006KT 10SM SCT130 SCT170 BKN220 35/16 A2989 RMK AO2 SLP092 CB DSNT NW TCU DSNT NE-SE T03500156,M
TPH,2022-08-14 22:56,-117.0904,38.0505,1654.00,90.00,40.00,17.34,M,3.00,0.00,30.11,1010.90,10.00,M,CLR,M,M,M,M,M,M,M,M,M,M,M,M,M,M,86.11,KTPH 142256Z AUTO VRB03KT 10SM CLR 32/04 A3011 RMK AO2 SLP109 T03220044 $,M
WMC,2022-08-14 22:56,-117.8072,40.9019,1315.00,96.00,24.10,7.59,280.00,9.00,0.00,30.03,1011.80,10.00,M,CLR,M,M,M,M,M,M,M,M,M,M,M,M,M,M,89.76,KWMC 142256Z AUTO 28009KT 10SM CLR 36/M04 A3003 RMK AO2 SLP118 T03561044 $,M
INS,2022-08-14 22:58,-115.6733,36.5872,955.00,94.50,52.00,23.83,60.00,5.00,0.00,29.95,1008.90,10.00,M,CLR,M,M,M,M,M,M,M,M,M,M,M,M,M,M,91.80,KINS 142258Z AUTO 06005KT 10SM CLR 35/11 A2995 RMK AO2 SLP089 T03470111,M
LSV,2022-08-14 22:58,-115.0343,36.2362,570.00,98.20,59.50,27.93,180.00,9.00,0.00,29.85,M,10.00,M,SCT,BKN,M,M,12000.00,18000.00,M,M,M,M,M,M,M,M,M,98.30,KLSV 142258Z 18009KT 10SM SCT120 BKN180 37/15 A2985 RMK SLPNO T03680153 FZRANO $,M
CXP,2022-08-14 23:10,-119.7326,39.1923,1431.00,91.40,21.20,7.77,280.00,11.00,0.00,30.08,M,10.00,20.00,CLR,M,M,M,M,M,M,M,M,M,M,M,M,M,M,85.96,KCXP 142310Z AUTO 28011G20KT 10SM CLR 33/M06 A3008 RMK AO2,M
BAM,2022-08-14 23:15,-116.8743,40.5990,1382.36,96.80,32.00,10.27,260.00,8.00,0.00,30.04,M,10.00,M,CLR,M,M,M,M,M,M,M,M,M,M,M,M,M,M,91.19,KBAM 142315Z AUTO 26008KT 220V280 10SM CLR 36/00 A3004 RMK AO1,M
BVU,2022-08-14 23:15,-114.8611,35.9475,671.00,95.00,59.00,30.26,220.00,6.00,0.00,29.89,M,M,M,M,M,M,M,M,M,M,M,M,M,M,M,M,M,M,94.51,KBVU 142315Z AUTO 22006KT 35/15 A2989 RMK AO2 PWINO TSNO,M
TMT,2022-08-14 23:15,-117.1971,39.4643,1749.34,M,M,M,140.00,9.00,0.00,30.14,M,10.00,M,OVC,M,M,M,11000.00,M,M,M,M,M,M,M,M,M,M,M,KTMT 142315Z AUTO 14009KT 10SM OVC110 A3014 RMK AO2,M
HTH,2022-08-14 23:15,-118.6315,38.5448,1282.89,95.00,24.80,8.08,330.00,14.00,0.00,29.99,M,10.00,M,CLR,M,M,M,M,M,M,M,M,M,M,M,M,M,M,88.91,KHTH 142315Z AUTO 33014KT 10SM CLR 35/M04 A2999 RMK A01,M
RTS,2022-08-14 23:15,-119.8764,39.6682,1539.00,91.40,8.60,4.48,260.00,14.00,0.00,30.12,M,10.00,M,CLR,M,M,M,M,M,M,M,M,M,M,M,M,M,M,85.42,KRTS 142315Z AUTO 26014KT 10SM CLR 33/M13 A3012 RMK AO2,M
MEV,2022-08-14 23:15,-119.7500,38.9963,1441.42,91.40,24.80,9.04,270.00,13.00,0.00,30.06,M,10.00,20.00,CLR,M,M,M,M,M,M,M,M,M,M,M,M,M,M,86.21,KMEV 142315Z AUTO 27013G20KT 10SM CLR 33/M04 A3006 RMK AO2,M
CXP,2022-08-14 23:30,-119.7326,39.1923,1431.00,91.40,23.00,8.38,260.00,13.00,0.00,30.08,M,10.00,23.00,CLR,M,M,M,M,M,M,M,M,M,M,M,M,M,M,86.08,KCXP 142330Z AUTO 26013G23KT 10SM CLR 33/M05 A3008 RMK AO2,M
EKO,2022-08-14 23:31,-115.7860,40.8242,1367.00,88.00,42.00,20.11,180.00,7.00,0.00,30.07,M,10.00,15.00,BKN,M,M,M,12000.00,M,M,M,VCTS,M,M,M,M,M,M,84.52,KEKO 142331Z AUTO 18007G15KT 10SM VCTS BKN120 31/06 A3007 RMK AO2 LTG DSNT NE T03110056,M
BAM,2022-08-14 23:35,-116.8743,40.5990,1382.36,96.80,32.00,10.27,330.00,9.00,0.00,30.03,M,10.00,M,CLR,M,M,M,M,M,M,M,M,M,M,M,M,M,M,91.19,KBAM 142335Z AUTO 33009KT 310V020 10SM CLR 36/00 A3003 RMK AO1,M
HTH,2022-08-14 23:35,-118.6315,38.5448,1282.89,96.80,24.80,7.65,310.00,15.00,0.00,29.98,M,10.00,M,CLR,M,M,M,M,M,M,M,M,M,M,M,M,M,M,90.40,KHTH 142335Z AUTO 31015KT 10SM CLR 36/M04 A2998 RMK A01,M
TMT,2022-08-14 23:35,-117.1971,39.4643,1749.34,86.70,44.20,22.72,90.00,16.00,0.00,30.14,M,10.00,M,OVC,M,M,M,11000.00,M,M,M,M,M,M,M,M,M,M,83.60,KTMT 142335Z AUTO 09016KT 10SM OVC110 30/07 A3014 RMK AO2 T03040068,M
MEV,2022-08-14 23:35,-119.7500,38.9963,1441.42,91.40,24.80,9.04,290.00,14.00,0.00,30.06,M,10.00,20.00,CLR,M,M,M,M,M,M,M,M,M,M,M,M,M,M,86.21,KMEV 142335Z AUTO 29014G20KT 10SM CLR 33/M04 A3006 RMK AO2,M
RTS,2022-08-14 23:35,-119.8764,39.6682,1539.00,89.60,8.60,4.74,290.00,13.00,0.00,30.11,M,10.00,M,CLR,M,M,M,M,M,M,M,M,M,M,M,M,M,M,84.12,KRTS 142335Z AUTO 29013KT 10SM CLR 32/M13 A3011 RMK AO2,M
BVU,2022-08-14 23:35,-114.8611,35.9475,671.00,93.20,59.00,31.99,210.00,6.00,0.00,29.90,M,M,M,M,M,M,M,M,M,M,M,M,M,M,M,M,M,M,92.57,KBVU 142335Z AUTO 21006KT 34/15 A2990 RMK AO2 PWINO TSNO,M
CXP,2022-08-14 23:50,-119.7326,39.1923,1431.00,91.40,23.00,8.38,280.00,11.00,0.00,30.08,M,10.00,21.00,CLR,M,M,M,M,M,M,M,M,M,M,M,M,M,M,86.08,KCXP 142350Z AUTO 28011G21KT 240V310 10SM CLR 33/M05 A3008 RMK AO2,M
ELY,2022-08-14 23:53,-114.8453,39.2950,1909.00,79.00,46.00,31.21,160.00,13.00,0.00,30.21,1013.50,10.00,M,CLR,M,M,M,M,M,M,M,M,M,M,M,M,M,M,79.00,KELY 142353Z AUTO 16013KT 10SM CLR 26/08 A3021 RMK AO2 LTG DSNT NW-E SLP135 T02610078 10289 20239 55002 $,M
P68,2022-08-14 23:53,-116.0056,39.6014,1993.00,82.00,42.00,24.38,130.00,10.00,0.00,30.18,1013.40,M,M,M,M,M,M,M,M,M,M,M,M,M,M,M,M,M,80.09,KP68 142353Z AUTO 13010KT 28/06 A3018 RMK AO1 SLP134 60001 T02780056 10300 20244 55002,M
DRA,2022-08-14 23:53,-116.0278,36.6206,1009.00,92.00,53.00,26.90,30.00,23.00,0.00,29.97,1009.30,10.00,32.00,BKN,M,M,M,11000.00,M,M,M,M,M,M,M,37.00,20.00,2022-08-14 23:36,89.45,KDRA 142353Z AUTO 03023G32KT 10SM BKN110 33/12 A2997 RMK AO2 PK WND 02037/2336 SLP093 T03330117 10372 20322 55010,M
LOL,2022-08-14 23:53,-118.5701,40.0684,1192.43,96.00,17.10,5.63,0.00,0.00,0.00,29.98,1011.10,10.00,M,CLR,M,M,M,M,M,M,M,M,M,M,M,M,M,M,89.27,KLOL 142353Z AUTO 00000KT 10SM CLR 36/M08 A2998 RMK AO2 SLP111 T03561083 10367 20300 56020,M
VGT,2022-08-14 23:53,-115.1933,36.2111,667.00,97.00,59.00,28.46,150.00,6.00,0.00,29.88,1010.40,10.00,M,CLR,M,M,M,M,M,M,M,M,M,M,M,M,M,M,96.72,KVGT 142353Z 15006KT 10SM CLR 36/15 A2988 RMK AO2 SLP104 T03610150 10361 20328 55018,M
HTH,2022-08-14 23:55,-118.6315,38.5448,1282.89,95.00,24.80,8.08,320.00,14.00,0.00,29.98,M,10.00,M,CLR,M,M,M,M,M,M,M,M,M,M,M,M,M,M,88.91,KHTH 142355Z AUTO 32014KT 10SM CLR 35/M04 A2998 RMK A01,M
TMT,2022-08-14 23:55,-117.1971,39.4643,1749.34,M,M,M,90.00,7.00,0.00,30.14,M,10.00,M,BKN,M,M,M,11000.00,M,M,M,M,M,M,M,M,M,M,M,KTMT 142355Z AUTO 09007KT 10SM BKN110 A3014 RMK AO2,M
BVU,2022-08-14 23:55,-114.8611,35.9475,671.00,93.20,59.00,31.99,180.00,4.00,0.00,29.90,M,M,M,M,M,M,M,M,M,M,M,M,M,M,M,M,M,M,92.57,KBVU 142355Z AUTO 18004KT 34/15 A2990 RMK AO2 PWINO TSNO,M
BAM,2022-08-14 23:55,-116.8743,40.5990,1382.36,96.80,32.00,10.27,300.00,6.00,0.00,30.03,M,10.00,M,CLR,M,M,M,M,M,M,M,M,M,M,M,M,M,M,91.19,KBAM 142355Z AUTO 30006KT 10SM CLR 36/00 A3003 RMK AO1,M
MEV,2022-08-14 23:55,-119.7500,38.9963,1441.42,89.60,26.60,10.30,270.00,14.00,0.00,30.06,M,10.00,20.00,CLR,M,M,M,M,M,M,M,M,M,M,M,M,M,M,85.02,KMEV 142355Z AUTO 27014G20KT 10SM CLR 32/M03 A3006 RMK AO2,M
RNO,2022-08-14 23:55,-119.7711,39.4839,1341.00,95.00,24.10,7.85,280.00,8.00,0.00,30.03,1010.60,10.00,20.00,CLR,M,M,M,M,M,M,M,M,M,M,M,M,M,M,88.85,KRNO 142355Z 28008G20KT 10SM CLR 35/M04 A3003 RMK AO2 SLP106 T03501044 10361 20272 56017,M
RTS,2022-08-14 23:55,-119.8764,39.6682,1539.00,89.60,8.60,4.74,250.00,9.00,0.00,30.11,M,10.00,20.00,CLR,M,M,M,M,M,M,M,M,M,M,M,M,M,M,84.12,KRTS 142355Z AUTO 25009G20KT 230V290 10SM CLR 32/M13 A3011 RMK AO2,M
HND,2022-08-14 23:56,-115.1344,35.9729,742.79,93.00,61.00,34.57,200.00,8.00,0.00,29.93,1012.10,10.00,M,CLR,M,M,M,M,M,M,M,M,M,M,M,M,M,M,93.20,KHND 142356Z 20008KT 10SM CLR 34/16 A2993 RMK AO2 SLP121 T03390161 10344 20328 56018,M
EKO,2022-08-14 23:56,-115.7860,40.8242,1367.00,83.00,42.00,23.68,40.00,9.00,0.00,30.08,1012.80,10.00,M,BKN,M,M,M,12000.00,M,M,M,M,M,M,M,M,M,M,80.68,KEKO 142356Z AUTO 04009KT 10SM BKN120 28/06 A3008 RMK AO2 LTG DSNT NE SLP128 60000 T02830056 10350 20272 55007,M
TPH,2022-08-14 23:56,-117.0904,38.0505,1654.00,90.00,39.00,16.74,110.00,5.00,0.00,30.09,1010.40,10.00,M,CLR,M,M,M,M,M,M,M,M,M,M,M,M,M,M,86.07,KTPH 142356Z AUTO 11005KT 10SM CLR 32/04 A3009 RMK AO2 SLP104 T03220039 10333 20267 56019 $,M
WMC,2022-08-14 23:56,-117.8072,40.9019,1315.00,96.00,23.00,7.24,280.00,9.00,0.00,30.02,1011.60,10.00,21.00,CLR,M,M,M,M,M,M,M,M,M,M,M,M,M,M,89.67,KWMC 142356Z AUTO 28009G21KT 10SM CLR 36/M05 A3002 RMK AO2 SLP116 T03561050 10361 20294 56017 $,M
NFL,2022-08-14 23:56,-118.7010,39.4166,1199.00,96.00,21.90,6.92,10.00,5.00,0.00,29.98,1012.40,10.00,M,CLR,M,M,M,M,M,M,M,M,M,M,M,M,M,M,89.58,KNFL 142356Z 01005KT 10SM CLR 36/M06 A2998 RMK AO2 SLP124 T03561056 10356 20294 56021,M
LAS,2022-08-14 23:56,-115.1634,36.0719,663.00,94.00,59.00,31.31,190.00,3.00,0.00,29.89,1009.40,10.00,M,FEW,SCT,BKN,M,13000.00,17000.00,22000.00,M,M,M,M,M,M,M,M,93.32,KLAS 142356Z 19003KT 10SM FEW130 SCT170 BKN220 34/15 A2989 RMK AO2 SLP094 TCU DSNT NW-N AND DSNT NE T03440150 10350 20328 55017,M
LSV,2022-08-14 23:58,-115.0343,36.2362,570.00,97.30,58.60,27.80,150.00,6.00,0.00,29.85,M,10.00,M,FEW,SCT,BKN,M,12000.00,15000.00,19000.00,M,M,M,M,M,M,M,M,96.89,KLSV 142358Z 15006KT 10SM FEW120 SCT150 BKN190 36/15 A2985 RMK SLPNO T03630148 10391 20360 55017 $,M
