station,valid,lon,lat,elevation,tmpf,dwpf,relh,drct,sknt,p01i,alti,mslp,vsby,gust,skyc1,skyc2,skyc3,skyc4,skyl1,skyl2,skyl3,skyl4,wxcodes,ice_accretion_1hr,ice_accretion_3hr,ice_accretion_6hr,peak_wind_gust,peak_wind_drct,peak_wind_time,feel,metar,snowdepth
05U,2023-06-16 00:10,-116.0051,39.6042,1811.23,71.60,33.80,24.86,M,M,0.00,30.06,M,10.00,M,CLR,M,M,M,M,M,M,M,M,M,M,M,M,M,M,71.60,K05U 160010Z AUTO 10SM CLR 22/01 A3006 RMK A01,M
BVU,2023-06-16 00:15,-114.8611,35.9475,671.00,91.40,41.00,17.32,150.00,19.00,0.00,29.70,M,10.00,M,SCT,M,M,M,12000.00,M,M,M,M,M,M,M,M,M,M,87.40,KBVU 160015Z AUTO 15019KT 10SM SCT120 33/05 A2970 RMK AO2,M
CXP,2023-06-16 00:15,-119.7326,39.1923,1431.00,78.80,37.40,22.54,340.00,8.00,0.00,30.00,M,10.00,M,CLR,M,M,M,M,M,M,M,M,M,M,M,M,M,M,78.80,KCXP 160015Z AUTO 34008KT 10SM CLR 26/03 A3000 RMK AO2,M
RTS,2023-06-16 00:15,-119.8764,39.6682,1539.00,73.40,30.20,20.23,20.00,11.00,0.00,30.05,M,10.00,M,CLR,M,M,M,M,M,M,M,M,M,M,M,M,M,M,73.40,KRTS 160015Z AUTO 02011KT 10SM CLR 23/M01 A3005 RMK AO2,M
MEV,2023-06-16 00:15,-119.7500,38.9963,1441.42,77.00,39.20,25.67,350.00,11.00,0.00,29.98,M,10.00,M,CLR,M,M,M,M,M,M,M,M,M,M,M,M,M,M,77.00,KMEV 160015Z AUTO 35011KT 10SM CLR 25/04 A2998 RMK AO2,M
BAM,2023-06-16 00:15,-116.8743,40.5990,1382.36,73.40,26.60,17.46,360.00,12.00,0.00,30.03,M,10.00,17.00,CLR,M,M,M,M,M,M,M,M,M,M,M,M,M,M,73.40,KBAM 160015Z AUTO 36012G17KT 10SM CLR 23/M03 A3003 RMK AO1,M
HTH,2023-06-16 00:15,-118.6315,38.5448,1282.89,78.80,32.00,18.18,330.00,14.00,0.00,29.96,M,10.00,19.00,CLR,M,M,M,M,M,M,M,M,M,M,M,M,M,M,78.80,KHTH 160015Z AUTO 33014G19KT 10SM CLR 26/M00 A2996 RMK A01,M
TMT,2023-06-16 00:15,-117.1971,39.4643,1749.34,70.30,30.00,22.29,330.00,12.00,0.00,30.05,M,10.00,M,CLR,M,M,M,M,M,M,M,M,M,M,M,M,M,M,70.30,KTMT 160015Z AUTO 33012KT 290V350 10SM CLR 21/M01 A3005 RMK AO2 T02131011,M
05U,2023-06-16 00:30,-116.0051,39.6042,1811.23,69.80,33.80,26.43,80.00,7.00,0.00,30.06,M,10.00,13.00,CLR,M,M,M,M,M,M,M,M,M,M,M,M,M,M,69.80,K05U 160030Z AUTO 08007G13KT 360V130 10SM CLR 21/01 A3006 RMK A01,M
BVU,2023-06-16 00:35,-114.8611,35.9475,671.00,91.40,39.20,16.15,150.00,17.00,0.00,29.71,M,10.00,23.00,SCT,M,M,M,12000.00,M,M,M,M,M,M,M,M,M,M,87.30,KBVU 160035Z AUTO 15017G23KT 10SM SCT120 33/04 A2971 RMK AO2 LTG DSNT NE,M
CXP,2023-06-16 00:35,-119.7326,39.1923,1431.00,78.80,35.60,21.00,350.00,8.00,0.00,30.00,M,10.00,13.00,CLR,M,M,M,M,M,M,M,M,M,M,M,M,M,M,78.80,KCXP 160035Z AUTO 35008G13KT 10SM CLR 26/02 A3000 RMK AO2,M
RTS,2023-06-16 00:35,-119.8764,39.6682,1539.00,73.40,28.40,18.80,360.00,13.00,0.00,30.04,M,10.00,M,CLR,M,M,M,M,M,M,M,M,M,M,M,M,M,M,73.40,KRTS 160035Z AUTO 36013KT 10SM CLR 23/M02 A3004 RMK AO2,M
MEV,2023-06-16 00:35,-119.7500,38.9963,1441.42,78.80,41.00,25.95,360.00,11.00,0.00,29.97,M,10.00,17.00,CLR,M,M,M,M,M,M,M,M,M,M,M,M,M,M,78.80,KMEV 160035Z AUTO 36011G17KT 10SM CLR 26/05 A2997 RMK AO2,M
BAM,2023-06-16 00:35,-116.8743,40.5990,1382.36,71.60,24.80,17.22,340.00,12.00,0.00,30.04,M,10.00,19.00,CLR,M,M,M,M,M,M,M,M,M,M,M,M,M,M,71.60,KBAM 160035Z AUTO 34012G19KT 10SM CLR 22/M04 A3004 RMK AO1,M
HTH,2023-06-16 00:35,-118.6315,38.5448,1282.89,78.80,30.20,16.90,350.00,15.00,0.00,29.96,M,10.00,M,CLR,M,M,M,M,M,M,M,M,M,M,M,M,M,M,78.80,KHTH 160035Z AUTO 35015KT 10SM CLR 26/M01 A2996 RMK A01,M
TMT,2023-06-16 00:35,-117.1971,39.4643,1749.34,70.30,29.80,22.11,310.00,10.00,0.00,30.05,M,10.00,17.00,CLR,M,M,M,M,M,M,M,M,M,M,M,M,M,M,70.30,KTMT 160035Z AUTO 31010G17KT 10SM CLR 21/M01 A3005 RMK AO2 T02131012,M
05U,2023-06-16 00:50,-116.0051,39.6042,1811.23,69.80,33.80,26.43,10.00,9.00,0.00,30.06,M,10.00,M,CLR,M,M,M,M,M,M,M,M,M,M,M,M,M,M,69.80,K05U 160050Z AUTO 01009KT 10SM CLR 21/01 A3006 RMK A01,M
P68,2023-06-16 00:53,-116.0056,39.6014,1993.00,68.00,34.00,28.34,10.00,11.00,0.00,30.03,1011.40,M,M,M,M,M,M,M,M,M,M,M,M,M,M,M,M,M,68.00,KP68 160053Z AUTO 01011KT 20/01 A3003 RMK AO1 SLP114 T02000011,M
LOL,2023-06-16 00:53,-118.5701,40.0684,1192.43,75.00,15.10,10.15,10.00,10.00,0.00,29.99,1012.90,10.00,M,CLR,M,M,M,M,M,M,M,M,M,M,M,M,M,M,75.00,KLOL 160053Z AUTO 01010KT 10SM CLR 24/M09 A2999 RMK AO2 SLP129 T02391094,M
ELY,2023-06-16 00:53,-114.8453,39.2950,1909.00,68.00,35.00,29.61,340.00,11.00,0.00,30.03,1009.40,10.00,M,CLR,M,M,M,M,M,M,M,M,M,M,M,M,M,M,68.00,KELY 160053Z AUTO 34011KT 10SM CLR 20/02 A3003 RMK AO2 SLP094 T02000017,M
VGT,2023-06-16 00:53,-115.1933,36.2111,667.00,97.00,42.00,15.20,M,M,0.00,29.69,1004.20,10.00,M,SCT,M,M,M,12000.00,M,M,M,M,M,M,M,M,M,M,92.69,KVGT 160053Z 10SM SCT120 36/06 A2969 RMK AO2 LTG DSNT E SLP042 T03610056,M
BVU,2023-06-16 00:55,-114.8611,35.9475,671.00,91.40,41.00,17.32,150.00,16.00,0.00,29.71,M,10.00,21.00,FEW,M,M,M,12000.00,M,M,M,M,M,M,M,M,M,M,87.40,KBVU 160055Z AUTO 15016G21KT 10SM FEW120 33/05 A2971 RMK AO2 LTG DSNT NE AND NW,M
CXP,2023-06-16 00:55,-119.7326,39.1923,1431.00,78.80,33.80,19.55,330.00,11.00,0.00,30.00,M,10.00,M,CLR,M,M,M,M,M,M,M,M,M,M,M,M,M,M,78.80,KCXP 160055Z AUTO 33011KT 10SM CLR 26/01 A3000 RMK AO2,M
RNO,2023-06-16 00:55,-119.7711,39.4839,1341.00,75.00,28.90,18.19,50.00,8.00,0.00,29.99,1011.20,10.00,18.00,FEW,SCT,M,M,11000.00,25000.00,M,M,M,M,M,M,M,M,M,75.00,KRNO 160055Z 05008G18KT 10SM FEW110 SCT250 24/M02 A2999 RMK AO2 SLP112 T02391017,M
RTS,2023-06-16 00:55,-119.8764,39.6682,1539.00,71.60,28.40,19.98,30.00,10.00,0.00,30.04,M,10.00,M,CLR,M,M,M,M,M,M,M,M,M,M,M,M,M,M,71.60,KRTS 160055Z AUTO 03010KT 10SM CLR 22/M02 A3004 RMK AO2,M
MEV,2023-06-16 00:55,-119.7500,38.9963,1441.42,77.00,39.20,25.67,10.00,13.00,0.00,29.98,M,10.00,M,CLR,M,M,M,M,M,M,M,M,M,M,M,M,M,M,77.00,KMEV 160055Z AUTO 01013KT 10SM CLR 25/04 A2998 RMK AO2,M
BAM,2023-06-16 00:55,-116.8743,40.5990,1382.36,71.60,23.00,15.97,360.00,8.00,0.00,30.04,M,10.00,M,CLR,M,M,M,M,M,M,M,M,M,M,M,M,M,M,71.60,KBAM 160055Z AUTO 36008KT 10SM CLR 22/M05 A3004 RMK AO1,M
HTH,2023-06-16 00:55,-118.6315,38.5448,1282.89,78.80,30.20,16.90,350.00,16.00,0.00,29.96,M,10.00,21.00,CLR,M,M,M,M,M,M,M,M,M,M,M,M,M,M,78.80,KHTH 160055Z AUTO 35016G21KT 10SM CLR 26/M01 A2996 RMK A01,M
TMT,2023-06-16 00:55,-117.1971,39.4643,1749.34,69.40,28.00,21.18,350.00,11.00,0.00,30.05,M,10.00,M,CLR,M,M,M,M,M,M,M,M,M,M,M,M,M,M,69.40,KTMT 160055Z AUTO 35011KT 10SM CLR 21/M02 A3005 RMK AO2 T02081022,M
INS,2023-06-16 00:55,-115.6733,36.5872,955.00,85.00,43.00,22.98,50.00,11.00,0.00,29.78,1004.00,10.00,M,SCT,SCT,M,M,13000.00,16000.00,M,M,VCTS,M,M,M,27.00,10.00,2023-06-15 23:58,82.13,KINS 160055Z AUTO 05011KT 10SM VCTS SCT130 SCT160 29/06 A2978 RMK AO2 PK WND 01027/2358 SLP040 T02940061 $,M
LSV,2023-06-16 00:55,-115.0343,36.2362,570.00,94.00,42.40,16.91,100.00,11.00,0.00,29.65,1001.50,10.00,M,FEW,M,M,M,12000.00,M,M,M,M,M,M,M,M,M,M,89.79,KLSV 160055Z AUTO 10011KT 10SM FEW120 34/06 A2965 RMK AO2 SLP015 T03440058 $,M
EKO,2023-06-16 00:56,-115.7860,40.8242,1367.00,70.00,24.00,17.58,330.00,12.05,M,30.03,1013.60,10.00,M,CLR,M,M,M,M,M,M,M,M,M,M,M,M,M,M,70.00,METAR KEKO 160056Z 33012KT 10SM CLR 21/M04 A3003 RMK AO2 SLP136 T02111044 TSNO FIBI,M
WMC,2023-06-16 00:56,-117.8072,40.9019,1315.00,73.00,19.90,13.36,360.00,10.00,0.00,30.03,1014.00,10.00,M,CLR,M,M,M,M,M,M,M,M,M,M,M,M,M,M,73.00,KWMC 160056Z AUTO 36010KT 10SM CLR 23/M07 A3003 RMK AO2 SLP140 T02281067,M
NFL,2023-06-16 00:56,-118.7010,39.4166,1199.00,77.00,26.10,15.16,30.00,12.00,0.00,29.97,1012.00,10.00,19.00,FEW,SCT,BKN,M,8000.00,12000.00,25000.00,M,M,M,M,M,M,M,M,77.00,KNFL 160056Z 03012G19KT 10SM FEW080 SCT120 BKN250 25/M03 A2997 RMK AO2 SLP120 T02501033,M
TPH,2023-06-16 00:56,-117.0904,38.0505,1654.00,74.00,27.00,17.45,330.00,17.00,0.00,29.98,1009.40,10.00,24.00,CLR,M,M,M,M,M,M,M,M,M,M,M,M,M,M,73.90,KTPH 160056Z AUTO 33017G24KT 10SM CLR 23/M03 A2998 RMK AO2 SLP094 T02331028,M
LAS,2023-06-16 00:56,-115.1634,36.0719,663.00,95.00,40.00,14.84,240.00,9.00,0.00,29.70,1003.00,10.00,15.00,FEW,SCT,BKN,M,8000.00,11000.00,15000.00,M,M,M,M,M,M,M,M,90.61,KLAS 160056Z 24009G15KT 10SM FEW080 SCT110 BKN150 35/04 A2970 RMK AO2 LTG DSNT NE SLP030 CB DSNT N-NE T03500044,M
HND,2023-06-16 00:56,-115.1344,35.9729,742.79,94.00,40.00,15.35,250.00,8.00,0.00,29.75,1005.70,10.00,M,CLR,M,M,M,M,M,M,M,M,M,M,M,M,M,M,89.60,KHND 160056Z 25008KT 10SM CLR 34/04 A2975 RMK AO2 LTG DSNT NE SLP057 T03440044,M
05U,2023-06-16 01:10,-116.0051,39.6042,1811.23,68.00,33.80,28.11,360.00,11.00,0.00,30.07,M,10.00,16.00,CLR,M,M,M,M,M,M,M,M,M,M,M,M,M,M,68.00,K05U 160110Z AUTO 36011G16KT 10SM CLR 20/01 A3007 RMK A01,M
BVU,2023-06-16 01:15,-114.8611,35.9475,671.00,91.40,42.80,18.56,150.00,15.00,0.00,29.71,M,10.00,21.00,FEW,M,M,M,12000.00,M,M,M,M,M,M,M,M,M,M,87.52,KBVU 160115Z AUTO 15015G21KT 10SM FEW120 33/06 A2971 RMK AO2 LTG DSNT N AND NW,M
CXP,2023-06-16 01:15,-119.7326,39.1923,1431.00,77.00,33.80,20.74,340.00,12.00,0.00,30.00,M,10.00,M,CLR,M,M,M,M,M,M,M,M,M,M,M,M,M,M,77.00,KCXP 160115Z AUTO 34012KT 10SM CLR 25/01 A3000 RMK AO2,M
RTS,2023-06-16 01:15,-119.8764,39.6682,1539.00,71.60,28.40,19.98,50.00,9.00,0.00,30.05,M,10.00,M,CLR,M,M,M,M,M,M,M,M,M,M,M,M,M,M,71.60,KRTS 160115Z AUTO 05009KT 10SM CLR 22/M02 A3005 RMK AO2,M
MEV,2023-06-16 01:15,-119.7500,38.9963,1441.42,77.00,39.20,25.67,350.00,15.00,0.00,29.98,M,10.00,M,CLR,M,M,M,M,M,M,M,M,M,M,M,M,M,M,77.00,KMEV 160115Z AUTO 35015KT 10SM CLR 25/04 A2998 RMK AO2,M
BAM,2023-06-16 01:15,-116.8743,40.5990,1382.36,71.60,23.00,15.97,350.00,10.00,0.00,30.04,M,10.00,25.00,CLR,M,M,M,M,M,M,M,M,M,M,M,M,M,M,71.60,KBAM 160115Z AUTO 35010G25KT 10SM CLR 22/M05 A3004 RMK AO1,M
HTH,2023-06-16 01:15,-118.6315,38.5448,1282.89,77.00,28.40,16.67,340.00,14.00,0.00,29.96,M,10.00,20.00,CLR,M,M,M,M,M,M,M,M,M,M,M,M,M,M,77.00,KHTH 160115Z AUTO 34014G20KT 10SM CLR 25/M02 A2996 RMK A01,M
TMT,2023-06-16 01:15,-117.1971,39.4643,1749.34,69.00,26.80,20.37,340.00,11.00,0.00,30.06,M,10.00,16.00,CLR,M,M,M,M,M,M,M,M,M,M,M,M,M,M,69.10,KTMT 160115Z AUTO 34011G16KT 10SM CLR 21/M03 A3006 RMK AO2 T02061029,M
05U,2023-06-16 01:30,-116.0051,39.6042,1811.23,66.20,33.80,29.92,360.00,12.00,0.00,30.07,M,10.00,M,CLR,M,M,M,M,M,M,M,M,M,M,M,M,M,M,66.20,K05U 160130Z AUTO 36012KT 10SM CLR 19/01 A3007 RMK A01,M
BVU,2023-06-16 01:35,-114.8611,35.9475,671.00,91.40,41.00,17.32,150.00,18.00,0.00,29.71,M,10.00,M,FEW,M,M,M,12000.00,M,M,M,M,M,M,M,M,M,M,87.40,KBVU 160135Z AUTO 15018KT 10SM FEW120 33/05 A2971 RMK AO2,M
CXP,2023-06-16 01:35,-119.7326,39.1923,1431.00,75.20,32.00,20.49,340.00,14.00,0.00,30.01,M,10.00,M,CLR,M,M,M,M,M,M,M,M,M,M,M,M,M,M,75.20,KCXP 160135Z AUTO 34014KT 10SM CLR 24/00 A3001 RMK AO2,M
RTS,2023-06-16 01:35,-119.8764,39.6682,1539.00,69.80,28.40,21.24,50.00,10.00,0.00,30.05,M,10.00,M,CLR,M,M,M,M,M,M,M,M,M,M,M,M,M,M,69.80,KRTS 160135Z AUTO 05010KT 10SM CLR 21/M02 A3005 RMK AO2,M
MEV,2023-06-16 01:35,-119.7500,38.9963,1441.42,75.20,37.40,25.40,350.00,15.00,0.00,29.99,M,10.00,21.00,CLR,M,M,M,M,M,M,M,M,M,M,M,M,M,M,75.20,KMEV 160135Z AUTO 35015G21KT 10SM CLR 24/03 A2999 RMK AO2,M
BAM,2023-06-16 01:35,-116.8743,40.5990,1382.36,71.60,23.00,15.97,330.00,14.00,0.00,30.04,M,10.00,17.00,CLR,M,M,M,M,M,M,M,M,M,M,M,M,M,M,71.60,KBAM 160135Z AUTO 33014G17KT 10SM CLR 22/M05 A3004 RMK AO1,M
HTH,2023-06-16 01:35,-118.6315,38.5448,1282.89,77.00,28.40,16.67,340.00,14.00,0.00,29.97,M,10.00,19.00,CLR,M,M,M,M,M,M,M,M,M,M,M,M,M,M,77.00,KHTH 160135Z AUTO 34014G19KT 10SM CLR 25/M02 A2997 RMK A01,M
TMT,2023-06-16 01:35,-117.1971,39.4643,1749.34,68.20,24.80,19.34,330.00,11.00,0.00,30.06,M,10.00,M,CLR,M,M,M,M,M,M,M,M,M,M,M,M,M,M,68.20,KTMT 160135Z AUTO 33011KT 10SM CLR 20/M04 A3006 RMK AO2 LTG DSNT S T02011040,M
LSV,2023-06-16 01:41,-115.0343,36.2362,570.00,93.20,42.80,17.55,30.00,17.00,0.00,29.67,1002.20,10.00,M,SCT,M,M,M,13000.00,M,M,M,M,M,M,M,M,M,M,89.17,KLSV 160141Z AUTO 03017KT 10SM SCT130 34/06 A2967 RMK AO2 WSHFT 31 SLP022 $,M
05U,2023-06-16 01:50,-116.0051,39.6042,1811.23,66.20,35.60,32.14,360.00,9.00,0.00,30.08,M,10.00,14.00,CLR,M,M,M,M,M,M,M,M,M,M,M,M,M,M,66.20,K05U 160150Z AUTO 36009G14KT 10SM CLR 19/02 A3008 RMK A01,M
ELY,2023-06-16 01:53,-114.8453,39.2950,1909.00,65.00,34.00,31.55,10.00,9.00,0.00,30.05,1009.90,10.00,20.00,CLR,M,M,M,M,M,M,M,M,M,M,M,M,M,M,64.90,KELY 160153Z AUTO 01009G20KT 10SM CLR 18/01 A3005 RMK AO2 SLP099 T01830011,M
LOL,2023-06-16 01:53,-118.5701,40.0684,1192.43,74.00,16.00,10.96,340.00,8.00,0.00,29.99,1012.90,10.00,M,CLR,M,M,M,M,M,M,M,M,M,M,M,M,M,M,73.90,KLOL 160153Z AUTO 34008KT 10SM CLR 23/M09 A2999 RMK AO2 SLP129 T02331089,M
P68,2023-06-16 01:53,-116.0056,39.6014,1993.00,65.00,34.00,31.55,10.00,12.00,0.00,30.05,1011.60,M,M,M,M,M,M,M,M,M,M,M,M,M,M,M,M,M,64.90,KP68 160153Z AUTO 01012KT 18/01 A3005 RMK AO1 SLP116 T01830011,M
VGT,2023-06-16 01:53,-115.1933,36.2111,667.00,96.00,41.00,14.97,190.00,6.00,0.00,29.71,1004.70,10.00,M,FEW,M,M,M,12000.00,M,M,M,M,M,M,M,M,M,M,91.73,KVGT 160153Z 19006KT 10SM FEW120 36/05 A2971 RMK AO2 SLP047 T03560050,M
BVU,2023-06-16 01:55,-114.8611,35.9475,671.00,91.40,39.20,16.15,150.00,19.00,0.00,29.71,M,10.00,M,CLR,M,M,M,M,M,M,M,M,M,M,M,M,M,M,87.30,KBVU 160155Z AUTO 15019KT 10SM CLR 33/04 A2971 RMK AO2,M
CXP,2023-06-16 01:55,-119.7326,39.1923,1431.00,73.40,32.00,21.76,350.00,11.00,0.00,30.02,M,10.00,17.00,CLR,M,M,M,M,M,M,M,M,M,M,M,M,M,M,73.40,KCXP 160155Z AUTO 35011G17KT 10SM CLR 23/M00 A3002 RMK AO2,M
RNO,2023-06-16 01:55,-119.7711,39.4839,1341.00,75.00,25.00,15.48,40.00,13.00,0.00,30.01,1011.50,10.00,18.00,FEW,BKN,M,M,11000.00,25000.00,M,M,M,M,M,M,M,M,M,75.00,KRNO 160155Z 04013G18KT 10SM FEW110 BKN250 24/M04 A3001 RMK AO2 SLP115 T02391039,M
RTS,2023-06-16 01:55,-119.8764,39.6682,1539.00,69.80,26.60,19.72,20.00,9.00,0.00,30.06,M,10.00,14.00,CLR,M,M,M,M,M,M,M,M,M,M,M,M,M,M,69.80,KRTS 160155Z AUTO 02009G14KT 10SM CLR 21/M03 A3006 RMK AO2,M
MEV,2023-06-16 01:55,-119.7500,38.9963,1441.42,73.40,35.60,25.13,350.00,17.00,0.00,29.99,M,10.00,M,CLR,M,M,M,M,M,M,M,M,M,M,M,M,M,M,73.40,KMEV 160155Z AUTO 35017KT 10SM CLR 23/02 A2999 RMK AO2,M
BAM,2023-06-16 01:55,-116.8743,40.5990,1382.36,71.60,19.40,13.71,340.00,11.00,0.00,30.04,M,10.00,21.00,SCT,M,M,M,100.00,M,M,M,M,M,M,M,M,M,M,71.60,KBAM 160155Z AUTO 34011G21KT 10SM SCT001 22/M07 A3004 RMK AO1,M
HTH,2023-06-16 01:55,-118.6315,38.5448,1282.89,77.00,28.40,16.67,330.00,13.00,0.00,29.98,M,10.00,19.00,CLR,M,M,M,M,M,M,M,M,M,M,M,M,M,M,77.00,KHTH 160155Z AUTO 33013G19KT 10SM CLR 25/M02 A2998 RMK A01,M
TMT,2023-06-16 01:55,-117.1971,39.4643,1749.34,67.80,27.30,21.74,340.00,10.00,0.00,30.07,M,10.00,M,CLR,M,M,M,M,M,M,M,M,M,M,M,M,M,M,67.80,KTMT 160155Z AUTO 34010KT 10SM CLR 20/M03 A3007 RMK AO2 T01991026,M
INS,2023-06-16 01:55,-115.6733,36.5872,955.00,80.20,46.00,30.01,310.00,7.00,0.00,29.79,1004.40,10.00,M,CLR,M,M,M,M,M,M,M,M,M,M,M,M,M,M,79.31,KINS 160155Z AUTO 31007KT 10SM CLR 27/08 A2979 RMK AO2 LTG DSNT NW SLP044 T02680078 $,M
LSV,2023-06-16 01:55,-115.0343,36.2362,570.00,91.20,48.20,22.93,30.00,20.00,0.00,29.68,1002.60,10.00,M,BKN,M,M,M,12000.00,M,M,M,M,M,M,M,28.00,10.00,2023-06-16 01:50,87.91,KLSV 160155Z AUTO 03020KT 10SM BKN120 33/09 A2968 RMK AO2 PK WND 01028/50 SLP026 T03290090 $,M
EKO,2023-06-16 01:56,-115.7860,40.8242,1367.00,68.00,23.00,18.06,330.00,7.97,M,30.05,1014.10,10.00,M,CLR,M,M,M,M,M,M,M,M,M,M,M,M,M,M,68.00,METAR KEKO 160156Z 33008KT 10SM CLR 20/M05 A3005 RMK AO2 SLP141 T02001050 TSNO FIBI,M
WMC,2023-06-16 01:56,-117.8072,40.9019,1315.00,72.00,23.00,15.75,340.00,9.00,0.00,30.04,1014.00,10.00,M,CLR,M,M,M,M,M,M,M,M,M,M,M,M,M,M,72.00,KWMC 160156Z AUTO 34009KT 10SM CLR 22/M05 A3004 RMK AO2 SLP140 T02221050,M
NFL,2023-06-16 01:56,-118.7010,39.4166,1199.00,76.00,24.10,14.47,20.00,15.00,0.00,29.98,1012.20,10.00,M,FEW,SCT,BKN,M,8000.00,12000.00,25000.00,M,M,M,M,M,M,M,M,75.90,KNFL 160156Z 02015KT 10SM FEW080 SCT120 BKN250 24/M04 A2998 RMK AO2 SLP122 T02441044,M
HND,2023-06-16 01:56,-115.1344,35.9729,742.79,93.00,41.00,16.48,240.00,8.00,0.00,29.75,1005.90,10.00,M,CLR,M,M,M,M,M,M,M,M,M,M,M,M,M,M,88.85,KHND 160156Z 24008KT 10SM CLR 34/05 A2975 RMK AO2 SLP059 T03390050,M
TPH,2023-06-16 01:56,-117.0904,38.0505,1654.00,73.00,24.10,15.95,320.00,17.00,0.00,29.99,1009.00,10.00,M,CLR,M,M,M,M,M,M,M,M,M,M,M,29.00,320.00,2023-06-16 01:20,73.00,KTPH 160156Z AUTO 32017KT 10SM CLR 23/M04 A2999 RMK AO2 PK WND 32029/0120 SLP090 T02281044,M
LAS,2023-06-16 01:56,-115.1634,36.0719,663.00,94.00,40.00,15.35,220.00,3.00,0.00,29.71,1003.30,10.00,M,FEW,SCT,BKN,M,8000.00,11000.00,15000.00,M,M,M,M,M,M,M,M,89.60,KLAS 160156Z 22003KT 10SM FEW080 SCT110 BKN150 34/04 A2971 RMK AO2 SLP033 CB DSNT N-NE T03440044,M
05U,2023-06-16 02:10,-116.0051,39.6042,1811.23,64.40,33.80,31.85,360.00,8.00,0.00,30.09,M,10.00,15.00,CLR,M,M,M,M,M,M,M,M,M,M,M,M,M,M,64.40,K05U 160210Z AUTO 36008G15KT 10SM CLR 18/01 A3009 RMK A01,M
BVU,2023-06-16 02:15,-114.8611,35.9475,671.00,91.40,39.20,16.15,150.00,16.00,0.00,29.72,M,10.00,23.00,FEW,M,M,M,12000.00,M,M,M,M,M,M,M,M,M,M,87.30,KBVU 160215Z AUTO 15016G23KT 10SM FEW120 33/04 A2972 RMK AO2,M
CXP,2023-06-16 02:15,-119.7326,39.1923,1431.00,73.40,32.00,21.76,340.00,7.00,0.00,30.02,M,10.00,13.00,CLR,M,M,M,M,M,M,M,M,M,M,M,M,M,M,73.40,KCXP 160215Z AUTO 34007G13KT 10SM CLR 23/M00 A3002 RMK AO2,M
RTS,2023-06-16 02:15,-119.8764,39.6682,1539.00,69.80,28.40,21.24,10.00,8.00,0.00,30.07,M,10.00,M,CLR,M,M,M,M,M,M,M,M,M,M,M,M,M,M,69.80,KRTS 160215Z AUTO 01008KT 10SM CLR 21/M02 A3007 RMK AO2,M
MEV,2023-06-16 02:15,-119.7500,38.9963,1441.42,73.40,33.80,23.39,350.00,15.00,0.00,30.00,M,10.00,M,CLR,M,M,M,M,M,M,M,M,M,M,M,M,M,M,73.40,KMEV 160215Z AUTO 35015KT 10SM CLR 23/01 A3000 RMK AO2,M
BAM,2023-06-16 02:15,-116.8743,40.5990,1382.36,69.80,26.60,19.72,340.00,12.00,0.00,30.05,M,10.00,19.00,SCT,M,M,M,100.00,M,M,M,M,M,M,M,M,M,M,69.80,KBAM 160215Z AUTO 34012G19KT 10SM SCT001 21/M03 A3005 RMK AO1,M
HTH,2023-06-16 02:15,-118.6315,38.5448,1282.89,75.20,28.40,17.70,330.00,12.00,0.00,29.98,M,10.00,M,CLR,M,M,M,M,M,M,M,M,M,M,M,M,M,M,75.20,KHTH 160215Z AUTO 33012KT 10SM CLR 24/M02 A2998 RMK A01,M
TMT,2023-06-16 02:15,-117.1971,39.4643,1749.34,66.70,27.50,22.77,350.00,9.00,0.00,30.08,M,10.00,M,CLR,M,M,M,M,M,M,M,M,M,M,M,M,M,M,66.70,KTMT 160215Z AUTO 35009KT 10SM CLR 19/M02 A3008 RMK AO2 T01931025,M
05U,2023-06-16 02:30,-116.0051,39.6042,1811.23,62.60,35.60,36.45,10.00,8.00,0.00,30.09,M,10.00,M,CLR,M,M,M,M,M,M,M,M,M,M,M,M,M,M,62.60,K05U 160230Z AUTO 01008KT 10SM CLR 17/02 A3009 RMK A01,M
BVU,2023-06-16 02:35,-114.8611,35.9475,671.00,89.60,37.40,15.92,150.00,19.00,0.00,29.73,M,10.00,M,FEW,M,M,M,12000.00,M,M,M,M,M,M,M,M,M,M,85.67,KBVU 160235Z AUTO 15019KT 10SM FEW120 32/03 A2973 RMK AO2,M
CXP,2023-06-16 02:35,-119.7326,39.1923,1431.00,73.40,30.20,20.23,340.00,12.00,0.00,30.04,M,10.00,M,CLR,M,M,M,M,M,M,M,M,M,M,M,M,M,M,73.40,KCXP 160235Z AUTO 34012KT 10SM CLR 23/M01 A3004 RMK AO2,M
RTS,2023-06-16 02:35,-119.8764,39.6682,1539.00,68.00,30.20,24.32,30.00,6.00,0.00,30.07,M,10.00,M,CLR,M,M,M,M,M,M,M,M,M,M,M,M,M,M,68.00,KRTS 160235Z AUTO 03006KT 10SM CLR 20/M01 A3007 RMK AO2,M
MEV,2023-06-16 02:35,-119.7500,38.9963,1441.42,71.60,35.60,26.71,360.00,13.00,0.00,30.01,M,10.00,20.00,CLR,M,M,M,M,M,M,M,M,M,M,M,M,M,M,71.60,KMEV 160235Z AUTO 36013G20KT 10SM CLR 22/02 A3001 RMK AO2,M
BAM,2023-06-16 02:35,-116.8743,40.5990,1382.36,69.80,28.40,21.24,330.00,13.00,0.00,30.06,M,10.00,17.00,CLR,M,M,M,M,M,M,M,M,M,M,M,M,M,M,69.80,KBAM 160235Z AUTO 33013G17KT 10SM CLR 21/M02 A3006 RMK AO1,M
HTH,2023-06-16 02:35,-118.6315,38.5448,1282.89,75.20,33.80,22.02,330.00,10.00,0.00,29.99,M,10.00,16.00,CLR,M,M,M,M,M,M,M,M,M,M,M,M,M,M,75.20,KHTH 160235Z AUTO 33010G16KT 10SM CLR 24/01 A2999 RMK A01,M
TMT,2023-06-16 02:35,-117.1971,39.4643,1749.34,64.00,30.20,28.04,340.00,7.00,0.00,30.09,M,10.00,M,CLR,M,M,M,M,M,M,M,M,M,M,M,M,M,M,63.90,KTMT 160235Z AUTO 34007KT 10SM CLR 18/M01 A3009 RMK AO2 T01771010,M
05U,2023-06-16 02:50,-116.0051,39.6042,1811.23,59.00,35.60,41.42,360.00,7.00,0.00,30.10,M,10.00,M,CLR,M,M,M,M,M,M,M,M,M,M,M,M,M,M,59.00,K05U 160250Z AUTO 36007KT 10SM CLR 15/02 A3010 RMK A01,M
LAS,2023-06-16 02:52,-115.1634,36.0719,663.00,89.60,46.40,22.53,30.00,19.00,0.00,29.74,M,10.00,26.00,FEW,SCT,BKN,M,8000.00,11000.00,15000.00,M,M,M,M,M,26.00,30.00,2023-06-16 02:51,86.24,KLAS 160252Z 03019G26KT 10SM FEW080 SCT110 BKN150 32/08 A2974 RMK AO2 PK WND 03026/0251 WSHFT 0232,M
P68,2023-06-16 02:53,-116.0056,39.6014,1993.00,57.00,36.00,45.22,10.00,8.00,0.00,30.08,1012.80,M,M,M,M,M,M,M,M,M,M,M,M,M,M,M,M,M,57.00,KP68 160253Z AUTO 01008KT 14/02 A3008 RMK AO1 SLP128 T01390022 53016,M
ELY,2023-06-16 02:53,-114.8453,39.2950,1909.00,59.00,39.00,47.35,340.00,7.00,0.00,30.07,1010.90,10.00,M,CLR,M,M,M,M,M,M,M,M,M,M,M,M,M,M,59.00,KELY 160253Z AUTO 34007KT 10SM CLR 15/04 A3007 RMK AO2 SLP109 T01500039 53014,M
VGT,2023-06-16 02:53,-115.1933,36.2111,667.00,86.00,50.00,28.90,60.00,17.00,0.00,29.74,1006.00,10.00,23.00,CLR,M,M,M,M,M,M,M,M,M,M,M,31.00,80.00,2023-06-16 02:33,83.62,KVGT 160253Z 06017G23KT 10SM CLR 30/10 A2974 RMK AO2 PK WND 08031/0233 LTG DSNT N SLP060 T03000100 53016,M
LOL,2023-06-16 02:53,-118.5701,40.0684,1192.43,71.00,26.10,18.48,20.00,7.00,0.00,30.02,1013.70,10.00,M,CLR,M,M,M,M,M,M,M,M,M,M,M,M,M,M,71.10,KLOL 160253Z AUTO 02007KT 10SM CLR 22/M03 A3002 RMK AO2 SLP137 T02171033 53009,M
BVU,2023-06-16 02:55,-114.8611,35.9475,671.00,89.60,37.40,15.92,150.00,17.00,0.00,29.73,M,10.00,M,BKN,M,M,M,12000.00,M,M,M,M,M,M,M,M,M,M,85.67,KBVU 160255Z AUTO 15017KT 10SM BKN120 32/03 A2973 RMK AO2,M
CXP,2023-06-16 02:55,-119.7326,39.1923,1431.00,71.60,28.40,19.98,350.00,9.00,0.00,30.05,M,10.00,15.00,CLR,M,M,M,M,M,M,M,M,M,M,M,M,M,M,71.60,KCXP 160255Z AUTO 35009G15KT 10SM CLR 22/M02 A3005 RMK AO2,M
RNO,2023-06-16 02:55,-119.7711,39.4839,1341.00,73.00,23.00,15.23,10.00,12.00,0.00,30.03,1012.20,10.00,M,FEW,SCT,M,M,11000.00,25000.00,M,M,M,M,M,M,M,M,M,73.00,KRNO 160255Z 01012KT 10SM FEW110 SCT250 23/M05 A3003 RMK AO2 SLP122 T02281050 53013,M
RTS,2023-06-16 02:55,-119.8764,39.6682,1539.00,66.20,28.40,24.04,40.00,7.00,0.00,30.08,M,10.00,M,CLR,M,M,M,M,M,M,M,M,M,M,M,M,M,M,66.20,KRTS 160255Z AUTO 04007KT 10SM CLR 19/M02 A3008 RMK AO2,M
MEV,2023-06-16 02:55,-119.7500,38.9963,1441.42,71.60,33.80,24.86,350.00,12.00,0.00,30.02,M,10.00,19.00,CLR,M,M,M,M,M,M,M,M,M,M,M,M,M,M,71.60,KMEV 160255Z AUTO 35012G19KT 10SM CLR 22/01 A3002 RMK AO2,M
BAM,2023-06-16 02:55,-116.8743,40.5990,1382.36,68.00,32.00,26.15,20.00,6.00,0.00,30.07,M,10.00,14.00,CLR,M,M,M,M,M,M,M,M,M,M,M,M,M,M,68.00,KBAM 160255Z AUTO 02006G14KT 10SM CLR 20/00 A3007 RMK AO1,M
HTH,2023-06-16 02:55,-118.6315,38.5448,1282.89,73.40,28.40,18.80,350.00,10.00,0.00,30.00,M,10.00,16.00,CLR,M,M,M,M,M,M,M,M,M,M,M,M,M,M,73.40,KHTH 160255Z AUTO 35010G16KT 10SM CLR 23/M02 A3000 RMK A01,M
TMT,2023-06-16 02:55,-117.1971,39.4643,1749.34,62.20,31.60,31.50,340.00,6.00,0.00,30.09,M,10.00,M,CLR,M,M,M,M,M,M,M,M,M,M,M,M,M,M,62.20,KTMT 160255Z AUTO 34006KT 10SM CLR 17/00 A3009 RMK AO2 T01681002,M
INS,2023-06-16 02:55,-115.6733,36.5872,955.00,76.50,48.20,36.83,340.00,17.00,0.00,29.83,1005.70,10.00,24.00,BKN,OVC,M,M,11000.00,14000.00,M,M,M,M,M,M,27.00,30.00,2023-06-16 02:29,76.50,KINS 160255Z AUTO 34017G24KT 10SM BKN110 OVC140 25/09 A2983 RMK AO2 PK WND 03027/29 LTG DSNT NW SLP057 T02470090 53016 $,M
LSV,2023-06-16 02:55,-115.0343,36.2362,570.00,84.60,50.50,30.80,10.00,21.00,0.00,29.71,1003.70,10.00,M,CLR,M,M,M,M,M,M,M,M,M,M,M,30.00,20.00,2023-06-16 01:57,82.60,KLSV 160255Z AUTO 01021KT 10SM CLR 29/10 A2971 RMK AO2 PK WND 02030/0157 LTG DSNT N SLP037 T02920103 53018 $,M
EKO,2023-06-16 02:56,-115.7860,40.8242,1367.00,64.00,32.00,30.05,330.00,6.03,M,30.07,1014.60,10.00,M,CLR,M,M,M,M,M,M,M,M,M,M,M,M,M,M,64.00,METAR KEKO 160256Z 33006KT 10SM CLR 18/00 A3007 RMK AO2 SLP146 T01780000 53013 TSNO FIBI,M
WMC,2023-06-16 02:56,-117.8072,40.9019,1315.00,67.00,27.00,22.15,350.00,8.00,0.00,30.07,1014.90,10.00,M,CLR,M,M,M,M,M,M,M,M,M,M,M,M,M,M,66.90,KWMC 160256Z AUTO 35008KT 10SM CLR 19/M03 A3007 RMK AO2 SLP149 T01941028 53010,M
NFL,2023-06-16 02:56,-118.7010,39.4166,1199.00,72.00,23.00,15.75,30.00,9.00,0.00,30.01,1013.10,10.00,M,FEW,FEW,SCT,M,8000.00,12000.00,25000.00,M,M,M,M,M,M,M,M,72.00,KNFL 160256Z 03009KT 10SM FEW080 FEW120 SCT250 22/M05 A3001 RMK AO2 SLP131 T02221050 53010,M
HND,2023-06-16 02:56,-115.1344,35.9729,742.79,91.00,41.00,17.54,230.00,8.00,0.00,29.77,1006.30,10.00,M,CLR,M,M,M,M,M,M,M,M,M,M,M,M,M,M,87.04,KHND 160256Z 23008KT 10SM CLR 33/05 A2977 RMK AO2 SLP063 T03280050 53009,M
TPH,2023-06-16 02:56,-117.0904,38.0505,1654.00,72.00,21.90,15.04,340.00,14.00,0.00,29.99,1008.70,10.00,M,CLR,M,M,M,M,M,M,M,M,M,M,M,27.00,320.00,2023-06-16 02:08,72.00,KTPH 160256Z AUTO 34014KT 10SM CLR 22/M06 A2999 RMK AO2 PK WND 32027/0208 SLP087 T02221056 51004,M
LAS,2023-06-16 02:56,-115.1634,36.0719,663.00,88.00,48.00,25.17,30.00,22.00,0.00,29.74,1004.40,10.00,33.00,FEW,SCT,BKN,M,8000.00,11000.00,15000.00,M,M,M,M,M,33.00,20.00,2023-06-16 02:53,85.02,KLAS 160256Z 03022G33KT 10SM FEW080 SCT110 BKN150 31/09 A2974 RMK AO2 PK WND 02033/0253 WSHFT 0232 SLP044 T03110089 51012,M
05U,2023-06-16 03:10,-116.0051,39.6042,1811.23,55.40,35.60,47.16,10.00,5.00,0.00,30.11,M,10.00,M,CLR,M,M,M,M,M,M,M,M,M,M,M,M,M,M,55.40,K05U 160310Z AUTO 01005KT 10SM CLR 13/02 A3011 RMK A01,M
BVU,2023-06-16 03:15,-114.8611,35.9475,671.00,89.60,37.40,15.92,150.00,14.00,0.00,29.74,M,10.00,21.00,SCT,M,M,M,12000.00,M,M,M,VCTS,M,M,M,M,M,M,85.67,KBVU 160315Z AUTO 15014G21KT 10SM VCTS SCT120 32/03 A2974 RMK AO2 LTG DSNT W,M
CXP,2023-06-16 03:15,-119.7326,39.1923,1431.00,71.60,28.40,19.98,20.00,7.00,0.00,30.07,M,10.00,13.00,CLR,M,M,M,M,M,M,M,M,M,M,M,M,M,M,71.60,KCXP 160315Z AUTO 02007G13KT 10SM CLR 22/M02 A3007 RMK AO2 LTG DSNT SE,M
RTS,2023-06-16 03:15,-119.8764,39.6682,1539.00,66.20,24.80,20.72,40.00,8.00,0.00,30.08,M,10.00,M,CLR,M,M,M,M,M,M,M,M,M,M,M,M,M,M,66.20,KRTS 160315Z AUTO 04008KT 10SM CLR 19/M04 A3008 RMK AO2,M
MEV,2023-06-16 03:15,-119.7500,38.9963,1441.42,69.80,35.60,28.39,360.00,12.00,0.00,30.04,M,10.00,18.00,CLR,M,M,M,M,M,M,M,M,M,M,M,M,M,M,69.80,KMEV 160315Z AUTO 36012G18KT 10SM CLR 21/02 A3004 RMK AO2 LTG DSNT SE,M
BAM,2023-06-16 03:15,-116.8743,40.5990,1382.36,66.20,32.00,27.83,30.00,9.00,0.00,30.08,M,10.00,M,CLR,M,M,M,M,M,M,M,M,M,M,M,M,M,M,66.20,KBAM 160315Z AUTO 03009KT 10SM CLR 19/00 A3008 RMK AO1,M
HTH,2023-06-16 03:15,-118.6315,38.5448,1282.89,71.60,32.00,23.13,330.00,9.00,0.00,30.01,M,10.00,M,CLR,M,M,M,M,M,M,M,M,M,M,M,M,M,M,71.60,KHTH 160315Z AUTO 33009KT 10SM CLR 22/00 A3001 RMK A01,M
TMT,2023-06-16 03:15,-117.1971,39.4643,1749.34,59.50,34.20,38.48,360.00,6.00,0.00,30.10,M,10.00,M,CLR,M,M,M,M,M,M,M,M,M,M,M,M,M,M,59.50,KTMT 160315Z AUTO 36006KT 10SM CLR 15/01 A3010 RMK AO2 LTG DSNT SE THRU SW T01530012,M
INS,2023-06-16 03:20,-115.6733,36.5872,955.00,77.00,48.20,36.22,310.00,12.00,0.00,29.86,1006.80,10.00,22.00,BKN,OVC,M,M,11000.00,13000.00,M,M,M,M,M,M,M,M,M,77.00,KINS 160320Z AUTO 31012G22KT 10SM BKN110 OVC130 25/09 A2986 RMK AO2 WSHFT 06 LTG DSNT NW PRESRR SLP068 $,M
INS,2023-06-16 03:27,-115.6733,36.5872,955.00,77.00,48.20,36.22,350.00,13.00,0.00,29.86,1006.80,10.00,M,BKN,OVC,M,M,11000.00,13000.00,M,M,M,M,M,M,M,M,M,77.00,KINS 160327Z AUTO 35013KT 10SM BKN110 OVC130 25/09 A2986 RMK AO2 WSHFT 21 LTG DSNT NW-N SLP068 $,M
05U,2023-06-16 03:30,-116.0051,39.6042,1811.23,53.60,35.60,50.36,10.00,6.00,0.00,30.12,M,10.00,M,CLR,M,M,M,M,M,M,M,M,M,M,M,M,M,M,53.60,K05U 160330Z AUTO 01006KT 10SM CLR 12/02 A3012 RMK A01,M
BVU,2023-06-16 03:35,-114.8611,35.9475,671.00,86.00,46.40,25.26,40.00,16.00,0.00,29.76,M,10.00,22.00,BKN,M,M,M,12000.00,M,M,M,M,M,M,M,M,M,M,83.22,KBVU 160335Z AUTO 04016G22KT 10SM BKN120 30/08 A2976 RMK AO2,M
CXP,2023-06-16 03:35,-119.7326,39.1923,1431.00,69.80,28.40,21.24,10.00,5.00,0.00,30.07,M,10.00,M,FEW,M,M,M,1500.00,M,M,M,M,M,M,M,M,M,M,69.80,KCXP 160335Z AUTO 01005KT 10SM FEW015 21/M02 A3007 RMK AO2,M
RTS,2023-06-16 03:35,-119.8764,39.6682,1539.00,64.40,24.80,22.06,30.00,6.00,0.00,30.09,M,10.00,M,CLR,M,M,M,M,M,M,M,M,M,M,M,M,M,M,64.40,KRTS 160335Z AUTO 03006KT 10SM CLR 18/M04 A3009 RMK AO2,M
MEV,2023-06-16 03:35,-119.7500,38.9963,1441.42,68.00,33.80,28.11,10.00,4.00,0.00,30.05,M,10.00,10.00,CLR,M,M,M,M,M,M,M,M,M,M,M,M,M,M,68.00,KMEV 160335Z AUTO 01004G10KT 10SM CLR 20/01 A3005 RMK AO2,M
BAM,2023-06-16 03:35,-116.8743,40.5990,1382.36,64.40,32.00,29.63,50.00,8.00,0.00,30.08,M,10.00,M,CLR,M,M,M,M,M,M,M,M,M,M,M,M,M,M,64.40,KBAM 160335Z AUTO 05008KT 10SM CLR 18/00 A3008 RMK AO1,M
HTH,2023-06-16 03:35,-118.6315,38.5448,1282.89,69.80,37.40,30.49,330.00,12.00,0.00,30.02,M,10.00,M,CLR,M,M,M,M,M,M,M,M,M,M,M,M,M,M,69.80,KHTH 160335Z AUTO 33012KT 10SM CLR 21/03 A3002 RMK A01,M
TMT,2023-06-16 03:35,-117.1971,39.4643,1749.34,59.00,33.40,37.94,350.00,7.00,0.00,30.10,M,10.00,M,CLR,M,M,M,M,M,M,M,M,M,M,M,M,M,M,59.00,KTMT 160335Z AUTO 35007KT 10SM CLR 15/01 A3010 RMK AO2 T01500008,M
05U,2023-06-16 03:50,-116.0051,39.6042,1811.23,50.00,35.60,57.52,M,M,0.00,30.13,M,10.00,M,CLR,M,M,M,M,M,M,M,M,M,M,M,M,M,M,50.00,K05U 160350Z AUTO 10SM CLR 10/02 A3013 RMK A01,M
P68,2023-06-16 03:53,-116.0056,39.6014,1993.00,50.00,37.00,60.79,350.00,7.00,0.00,30.10,1013.90,M,M,M,M,M,M,M,M,M,M,M,M,M,M,M,M,M,50.00,KP68 160353Z AUTO 35007KT 10/03 A3010 RMK AO1 SLP139 T01000028,M
ELY,2023-06-16 03:53,-114.8453,39.2950,1909.00,56.00,36.00,47.05,10.00,9.00,0.00,30.10,1011.80,10.00,M,CLR,M,M,M,M,M,M,M,M,M,M,M,M,M,M,55.90,KELY 160353Z AUTO 01009KT 10SM CLR 13/02 A3010 RMK AO2 SLP118 T01330022,M
VGT,2023-06-16 03:53,-115.1933,36.2111,667.00,83.00,50.00,31.93,60.00,17.00,0.00,29.78,1007.40,10.00,M,CLR,M,M,M,M,M,M,M,M,M,M,M,28.00,50.00,2023-06-16 03:40,81.32,KVGT 160353Z AUTO 06017KT 10SM CLR 28/10 A2978 RMK AO2 PK WND 05028/0340 LTG DSNT N AND NW SLP074 T02830100,M
LOL,2023-06-16 03:53,-118.5701,40.0684,1192.43,64.00,27.00,24.51,40.00,10.00,0.00,30.04,1014.60,10.00,M,CLR,M,M,M,M,M,M,M,M,M,M,M,M,M,M,64.00,KLOL 160353Z AUTO 04010KT 10SM CLR 18/M03 A3004 RMK AO2 SLP146 T01781028,M
BVU,2023-06-16 03:55,-114.8611,35.9475,671.00,84.20,48.20,28.63,60.00,15.00,0.00,29.77,M,10.00,21.00,BKN,M,M,M,12000.00,M,M,M,M,M,M,M,M,M,M,82.04,KBVU 160355Z AUTO 06015G21KT 10SM BKN120 29/09 A2977 RMK AO2,M
CXP,2023-06-16 03:55,-119.7326,39.1923,1431.00,68.00,28.40,22.59,30.00,6.00,0.00,30.07,M,10.00,M,CLR,M,M,M,M,M,M,M,M,M,M,M,M,M,M,68.00,KCXP 160355Z AUTO 03006KT 10SM CLR 20/M02 A3007 RMK AO2,M
RNO,2023-06-16 03:55,-119.7711,39.4839,1341.00,70.00,26.10,19.19,360.00,5.00,0.00,30.04,1012.60,10.00,M,FEW,FEW,M,M,10000.00,25000.00,M,M,M,M,M,M,M,M,M,70.00,KRNO 160355Z 36005KT 10SM FEW100 FEW250 21/M03 A3004 RMK AO2 SLP126 T02111033,M
RTS,2023-06-16 03:55,-119.8764,39.6682,1539.00,59.00,33.80,38.56,280.00,4.00,0.00,30.09,M,10.00,M,CLR,M,M,M,M,M,M,M,M,M,M,M,M,M,M,59.00,KRTS 160355Z AUTO 28004KT 10SM CLR 15/01 A3009 RMK AO2,M
MEV,2023-06-16 03:55,-119.7500,38.9963,1441.42,66.20,32.00,27.83,M,4.00,0.00,30.05,M,10.00,M,CLR,M,M,M,M,M,M,M,M,M,M,M,M,M,M,66.20,KMEV 160355Z AUTO VRB04KT 10SM CLR 19/M00 A3005 RMK AO2,M
BAM,2023-06-16 03:55,-116.8743,40.5990,1382.36,62.60,33.80,33.93,30.00,7.00,0.00,30.09,M,10.00,M,CLR,M,M,M,M,M,M,M,M,M,M,M,M,M,M,62.60,KBAM 160355Z AUTO 03007KT 10SM CLR 17/01 A3009 RMK AO1,M
HTH,2023-06-16 03:55,-118.6315,38.5448,1282.89,68.00,37.40,32.43,330.00,11.00,0.00,30.03,M,10.00,M,CLR,M,M,M,M,M,M,M,M,M,M,M,M,M,M,68.00,KHTH 160355Z AUTO 33011KT 10SM CLR 20/03 A3003 RMK A01,M
TMT,2023-06-16 03:55,-117.1971,39.4643,1749.34,56.80,34.20,42.40,350.00,7.00,0.00,30.11,M,10.00,M,CLR,M,M,M,M,M,M,M,M,M,M,M,M,M,M,56.80,KTMT 160355Z AUTO 35007KT 10SM CLR 14/01 A3011 RMK AO2 T01380012,M
INS,2023-06-16 03:55,-115.6733,36.5872,955.00,75.60,46.00,34.93,360.00,7.00,0.00,29.89,1007.80,10.00,M,SCT,OVC,M,M,10000.00,14000.00,M,M,M,M,M,M,M,M,M,75.60,KINS 160355Z AUTO 36007KT 10SM SCT100 OVC140 24/08 A2989 RMK AO2 LTG DSNT NW PRESRR SLP078 T02420078 $,M
LSV,2023-06-16 03:55,-115.0343,36.2362,570.00,81.30,52.50,36.90,360.00,29.00,0.00,29.75,1005.00,10.00,32.00,FEW,BKN,M,M,12000.00,15000.00,M,M,M,M,M,M,33.00,360.00,2023-06-16 03:33,80.58,KLSV 160355Z AUTO 36029G32KT 10SM FEW120 BKN150 27/11 A2975 RMK AO2 PK WND 36033/33 SLP050 T02740114 $,M
EKO,2023-06-16 03:56,-115.7860,40.8242,1367.00,62.00,33.00,33.56,50.00,5.05,M,30.09,1014.90,10.00,M,CLR,M,M,M,M,M,M,M,M,M,M,M,M,M,M,62.00,METAR KEKO 160356Z 05005KT 10SM CLR 17/01 A3009 RMK AO2 SLP149 T01670006 TSNO FIBI,M
WMC,2023-06-16 03:56,-117.8072,40.9019,1315.00,62.00,32.00,32.13,60.00,4.00,0.00,30.09,1015.60,10.00,M,CLR,M,M,M,M,M,M,M,M,M,M,M,M,M,M,62.10,KWMC 160356Z AUTO 06004KT 10SM CLR 17/00 A3009 RMK AO2 SLP156 T01670000,M
NFL,2023-06-16 03:56,-118.7010,39.4166,1199.00,63.00,27.00,25.38,10.00,6.00,0.00,30.02,1013.60,10.00,M,FEW,FEW,FEW,M,8000.00,12000.00,25000.00,M,M,M,M,M,M,M,M,63.00,KNFL 160356Z 01006KT 10SM FEW080 FEW120 FEW250 17/M03 A3002 RMK AO2 SLP136 T01721028,M
HND,2023-06-16 03:56,-115.1344,35.9729,742.79,84.00,50.00,30.82,40.00,18.00,0.00,29.81,1008.10,10.00,23.00,FEW,M,M,M,12000.00,M,M,M,M,M,M,M,26.00,50.00,2023-06-16 03:35,82.09,KHND 160356Z AUTO 04018G23KT 10SM FEW120 29/10 A2981 RMK AO2 PK WND 05026/0335 SLP081 T02890100,M
TPH,2023-06-16 03:56,-117.0904,38.0505,1654.00,66.00,23.00,19.35,330.00,9.00,0.00,30.02,1009.90,10.00,M,CLR,M,M,M,M,M,M,M,M,M,M,M,M,M,M,66.00,KTPH 160356Z AUTO 33009KT 10SM CLR 19/M05 A3002 RMK AO2 SLP099 T01891050,M
LAS,2023-06-16 03:56,-115.1634,36.0719,663.00,81.00,53.00,38.09,30.00,23.00,0.00,29.79,1006.30,10.00,31.00,FEW,SCT,BKN,M,8000.00,12000.00,20000.00,M,M,M,M,M,31.00,50.00,2023-06-16 03:53,80.47,KLAS 160356Z 03023G31KT 10SM FEW080 SCT120 BKN200 27/12 A2979 RMK AO2 PK WND 05031/0353 SLP063 LTG DSNT N-NE T02720117,M
05U,2023-06-16 04:10,-116.0051,39.6042,1811.23,48.20,37.40,66.05,20.00,4.00,0.00,30.14,M,10.00,M,CLR,M,M,M,M,M,M,M,M,M,M,M,M,M,M,46.34,K05U 160410Z AUTO 02004KT 10SM CLR 09/03 A3014 RMK A01,M
BVU,2023-06-16 04:15,-114.8611,35.9475,671.00,84.20,48.20,28.63,30.00,19.00,0.00,29.79,M,10.00,28.00,BKN,M,M,M,12000.00,M,M,M,M,M,M,M,M,M,M,82.04,KBVU 160415Z AUTO 03019G28KT 10SM BKN120 29/09 A2979 RMK AO2,M
CXP,2023-06-16 04:15,-119.7326,39.1923,1431.00,66.20,28.40,24.04,30.00,6.00,0.00,30.08,M,10.00,M,CLR,M,M,M,M,M,M,M,M,M,M,M,M,M,M,66.20,KCXP 160415Z AUTO 03006KT 10SM CLR 19/M02 A3008 RMK AO2,M
RTS,2023-06-16 04:15,-119.8764,39.6682,1539.00,59.00,35.60,41.42,300.00,4.00,0.00,30.11,M,10.00,M,CLR,M,M,M,M,M,M,M,M,M,M,M,M,M,M,59.00,KRTS 160415Z AUTO 30004KT 10SM CLR 15/02 A3011 RMK AO2,M
MEV,2023-06-16 04:15,-119.7500,38.9963,1441.42,64.40,35.60,34.22,320.00,4.00,0.00,30.06,M,10.00,M,FEW,M,M,M,8000.00,M,M,M,M,M,M,M,M,M,M,64.40,KMEV 160415Z AUTO 32004KT 10SM FEW080 18/02 A3006 RMK AO2,M
BAM,2023-06-16 04:15,-116.8743,40.5990,1382.36,62.60,33.80,33.93,40.00,9.00,0.00,30.10,M,10.00,M,CLR,M,M,M,M,M,M,M,M,M,M,M,M,M,M,62.60,KBAM 160415Z AUTO 04009KT 10SM CLR 17/01 A3010 RMK AO1,M
HTH,2023-06-16 04:15,-118.6315,38.5448,1282.89,68.00,35.60,30.20,330.00,11.00,0.00,30.04,M,10.00,M,CLR,M,M,M,M,M,M,M,M,M,M,M,M,M,M,68.00,KHTH 160415Z AUTO 33011KT 10SM CLR 20/02 A3004 RMK A01,M
TMT,2023-06-16 04:15,-117.1971,39.4643,1749.34,53.00,36.00,52.70,0.00,0.00,0.00,30.12,M,10.00,M,CLR,M,M,M,M,M,M,M,M,M,M,M,M,M,M,52.90,KTMT 160415Z AUTO 00000KT 10SM CLR 12/02 A3012 RMK AO2 T01160023,M
INS,2023-06-16 04:18,-115.6733,36.5872,955.00,77.00,46.40,33.85,280.00,20.00,0.00,29.93,1009.00,10.00,M,OVC,M,M,M,9000.00,M,M,M,VCTS -RA,M,M,M,M,M,M,77.00,KINS 160418Z AUTO 28020KT 10SM VCTS -RA OVC090 25/08 A2993 RMK AO2 RAB18 PRESRR SLP090 $,M
INS,2023-06-16 04:24,-115.6733,36.5872,955.00,73.40,57.20,56.88,270.00,12.00,0.00,29.95,1009.90,8.00,22.00,FEW,OVC,M,M,200.00,9000.00,M,M,+TSRA,M,M,M,M,M,M,73.40,KINS 160424Z AUTO 27012G22KT 8SM +TSRA FEW002 OVC090 23/14 A2995 RMK AO2 RAB18 TSB24 PRESRR SLP099 $,M
05U,2023-06-16 04:30,-116.0051,39.6042,1811.23,48.20,37.40,66.05,30.00,6.00,0.00,30.15,M,10.00,M,CLR,M,M,M,M,M,M,M,M,M,M,M,M,M,M,45.04,K05U 160430Z AUTO 03006KT 10SM CLR 09/03 A3015 RMK A01,M
BVU,2023-06-16 04:35,-114.8611,35.9475,671.00,82.40,50.00,32.46,40.00,13.00,0.00,29.81,M,10.00,19.00,FEW,FEW,SCT,M,5500.00,10000.00,12000.00,M,M,M,M,M,M,M,M,80.99,KBVU 160435Z AUTO 04013G19KT 10SM FEW055 FEW100 SCT120 28/10 A2981 RMK AO2,M
CXP,2023-06-16 04:35,-119.7326,39.1923,1431.00,68.00,24.80,19.47,40.00,11.00,0.00,30.08,M,10.00,16.00,CLR,M,M,M,M,M,M,M,M,M,M,M,M,M,M,68.00,KCXP 160435Z AUTO 04011G16KT 10SM CLR 20/M04 A3008 RMK AO2,M
RTS,2023-06-16 04:35,-119.8764,39.6682,1539.00,57.20,33.80,41.13,310.00,3.00,0.00,30.11,M,10.00,M,CLR,M,M,M,M,M,M,M,M,M,M,M,M,M,M,57.20,KRTS 160435Z AUTO 31003KT 10SM CLR 14/01 A3011 RMK AO2,M
MEV,2023-06-16 04:35,-119.7500,38.9963,1441.42,62.60,33.80,33.93,20.00,3.00,0.00,30.07,M,10.00,M,CLR,M,M,M,M,M,M,M,M,M,M,M,M,M,M,62.60,KMEV 160435Z AUTO 02003KT 10SM CLR 17/01 A3007 RMK AO2,M
BAM,2023-06-16 04:35,-116.8743,40.5990,1382.36,60.80,33.80,36.16,80.00,5.00,0.00,30.11,M,10.00,M,CLR,M,M,M,M,M,M,M,M,M,M,M,M,M,M,60.80,KBAM 160435Z AUTO 08005KT 10SM CLR 16/01 A3011 RMK AO1,M
HTH,2023-06-16 04:35,-118.6315,38.5448,1282.89,68.00,32.00,26.15,320.00,9.00,0.00,30.05,M,10.00,M,CLR,M,M,M,M,M,M,M,M,M,M,M,M,M,M,68.00,KHTH 160435Z AUTO 32009KT 10SM CLR 20/00 A3005 RMK A01,M
TMT,2023-06-16 04:35,-117.1971,39.4643,1749.34,54.50,31.80,41.86,70.00,3.00,0.00,30.14,M,10.00,M,CLR,M,M,M,M,M,M,M,M,M,M,M,M,M,M,54.50,KTMT 160435Z AUTO 07003KT 10SM CLR 13/00 A3014 RMK AO2 T01251001,M
INS,2023-06-16 04:44,-115.6733,36.5872,955.00,66.20,55.40,68.15,350.00,5.00,0.00,29.96,1010.40,4.00,M,BKN,BKN,OVC,M,200.00,6000.00,8500.00,M,+TSRA,M,M,M,M,M,M,66.20,KINS 160444Z AUTO 35005KT 4SM +TSRA BKN002 BKN060 OVC085 19/13 A2996 RMK AO2 RAB18 TSB24 CIG 002V070 BKN002 V SCT SLP104 $,M
INS,2023-06-16 04:49,-115.6733,36.5872,955.00,66.20,51.80,59.74,170.00,9.00,0.00,29.95,1010.00,3.00,20.00,BKN,BKN,BKN,M,200.00,6000.00,9000.00,M,VCTS +RA,M,M,M,M,M,M,66.20,KINS 160449Z AUTO 17009G20KT 3SM VCTS +RA BKN002 BKN060 BKN090 19/11 A2995 RMK AO2 RAB18 TSB24E49 CIG 002V060 BKN002 V SCT SLP100 $,M
05U,2023-06-16 04:50,-116.0051,39.6042,1811.23,46.40,37.40,70.68,40.00,6.00,0.00,30.16,M,10.00,M,CLR,M,M,M,M,M,M,M,M,M,M,M,M,M,M,42.87,K05U 160450Z AUTO 04006KT 10SM CLR 08/03 A3016 RMK A01,M
P68,2023-06-16 04:53,-116.0056,39.6014,1993.00,46.00,36.00,67.90,140.00,6.00,0.00,30.13,1015.30,M,M,M,M,M,M,M,M,M,M,M,M,M,M,M,M,M,42.39,KP68 160453Z AUTO 14006KT 08/02 A3013 RMK AO1 SLP153 T00780022,M
DRA,2023-06-16 04:53,-116.0278,36.6206,1009.00,68.00,54.00,60.86,110.00,20.00,0.09,29.91,1008.30,10.00,29.00,FEW,SCT,OVC,M,7000.00,8000.00,9500.00,M,-RA,M,M,M,29.00,130.00,2023-06-16 04:48,68.00,KDRA 160453Z AUTO 11020G29KT 10SM -RA FEW070 SCT080 OVC095 20/12 A2991 RMK AO2 PK WND 13029/0448 SLP083 P0009 T02000122,M
LOL,2023-06-16 04:53,-118.5701,40.0684,1192.43,63.00,M,M,360.00,6.00,0.00,30.06,1015.00,10.00,M,CLR,M,M,M,M,M,M,M,M,M,M,M,M,M,M,M,KLOL 160453Z AUTO 36006KT 10SM CLR 17/ A3006 RMK AO2 SLP150 T0172 $,M
ELY,2023-06-16 04:53,-114.8453,39.2950,1909.00,53.00,35.00,50.28,340.00,7.00,0.00,30.13,1012.90,10.00,M,CLR,M,M,M,M,M,M,M,M,M,M,M,M,M,M,53.10,KELY 160453Z AUTO 34007KT 10SM CLR 12/02 A3013 RMK AO2 SLP129 T01170017,M
VGT,2023-06-16 04:53,-115.1933,36.2111,667.00,83.00,51.00,33.27,40.00,10.00,0.00,29.85,1010.00,10.00,20.00,FEW,M,M,M,12000.00,M,M,M,M,M,M,M,30.00,30.00,2023-06-16 04:26,81.45,KVGT 160453Z AUTO 04010G20KT 10SM FEW120 28/11 A2985 RMK AO2 PK WND 03030/0426 LTG DSNT W-N PRESRR SLP100 T02830106,M
BVU,2023-06-16 04:55,-114.8611,35.9475,671.00,82.40,50.00,32.46,30.00,21.00,0.00,29.82,M,10.00,28.00,FEW,FEW,BKN,M,5500.00,8000.00,12000.00,M,M,M,M,M,M,M,M,80.99,KBVU 160455Z AUTO 03021G28KT 10SM FEW055 FEW080 BKN120 28/10 A2982 RMK AO2,M
CXP,2023-06-16 04:55,-119.7326,39.1923,1431.00,68.00,23.00,18.06,40.00,11.00,0.00,30.10,M,10.00,M,CLR,M,M,M,M,M,M,M,M,M,M,M,M,M,M,68.00,KCXP 160455Z AUTO 04011KT 10SM CLR 20/M05 A3010 RMK AO2,M
RNO,2023-06-16 04:55,-119.7711,39.4839,1341.00,67.00,27.00,22.15,350.00,4.00,0.00,30.07,1013.80,10.00,M,SCT,M,M,M,25000.00,M,M,M,M,M,M,M,M,M,M,66.90,KRNO 160455Z 35004KT 10SM SCT250 19/M03 A3007 RMK AO2 SLP138 T01941028,M
RTS,2023-06-16 04:55,-119.8764,39.6682,1539.00,57.20,33.80,41.13,M,4.00,0.00,30.12,M,10.00,M,CLR,M,M,M,M,M,M,M,M,M,M,M,M,M,M,57.20,KRTS 160455Z AUTO VRB04KT 10SM CLR 14/01 A3012 RMK AO2,M
MEV,2023-06-16 04:55,-119.7500,38.9963,1441.42,60.80,33.80,36.16,350.00,5.00,0.00,30.08,M,10.00,M,CLR,M,M,M,M,M,M,M,M,M,M,M,M,M,M,60.80,KMEV 160455Z AUTO 35005KT 10SM CLR 16/01 A3008 RMK AO2,M
BAM,2023-06-16 04:55,-116.8743,40.5990,1382.36,59.00,32.00,35.87,60.00,5.00,0.00,30.12,M,10.00,M,CLR,M,M,M,M,M,M,M,M,M,M,M,M,M,M,59.00,KBAM 160455Z AUTO 06005KT 10SM CLR 15/00 A3012 RMK AO1,M
HTH,2023-06-16 04:55,-118.6315,38.5448,1282.89,66.20,30.20,25.88,320.00,8.00,0.00,30.06,M,10.00,13.00,CLR,M,M,M,M,M,M,M,M,M,M,M,M,M,M,66.20,KHTH 160455Z AUTO 32008G13KT 10SM CLR 19/M01 A3006 RMK A01,M
TMT,2023-06-16 04:55,-117.1971,39.4643,1749.34,54.30,32.00,42.51,30.00,3.00,0.00,30.15,M,10.00,M,CLR,M,M,M,M,M,M,M,M,M,M,M,M,M,M,54.30,KTMT 160455Z AUTO 03003KT 10SM CLR 12/00 A3015 RMK AO2 T01240000,M
INS,2023-06-16 04:55,-115.6733,36.5872,955.00,69.00,47.50,46.05,180.00,8.00,0.17,29.96,1010.20,6.00,20.00,SCT,BKN,M,M,200.00,2300.00,M,M,-RA,M,M,M,M,M,M,69.10,KINS 160455Z AUTO 18008G20KT 6SM -RA SCT002 BKN023 21/09 A2996 RMK AO2 RAB18 TSB24E49 CIG 002V023 SLP102 P0017 T02060086 $,M
LSV,2023-06-16 04:55,-115.0343,36.2362,570.00,80.80,52.00,36.82,30.00,16.00,0.00,29.81,1007.00,10.00,M,OVC,M,M,M,12000.00,M,M,M,M,M,M,M,34.00,360.00,2023-06-16 03:55,80.22,KLSV 160455Z AUTO 03016KT 10SM OVC120 27/11 A2981 RMK AO2 PK WND 36034/0355 SLP070 T02710111 $,M
EKO,2023-06-16 04:56,-115.7860,40.8242,1367.00,57.00,37.00,47.04,60.00,4.08,M,30.12,1016.20,10.00,M,CLR,M,M,M,M,M,M,M,M,M,M,M,M,M,M,57.00,METAR KEKO 160456Z 06004KT 10SM CLR 14/03 A3012 RMK AO2 SLP162 T01390028 TSNO FIBI,M
WMC,2023-06-16 04:56,-117.8072,40.9019,1315.00,61.00,30.90,31.95,50.00,7.00,0.00,30.10,1015.90,10.00,M,CLR,M,M,M,M,M,M,M,M,M,M,M,M,M,M,61.00,KWMC 160456Z AUTO 05007KT 10SM CLR 16/M01 A3010 RMK AO2 SLP159 T01611006,M
NFL,2023-06-16 04:56,-118.7010,39.4166,1199.00,63.00,27.00,25.38,20.00,7.00,0.00,30.04,1014.10,10.00,M,FEW,M,M,M,25000.00,M,M,M,M,M,M,M,M,M,M,63.00,KNFL 160456Z 02007KT 10SM FEW250 17/M03 A3004 RMK AO2 SLP141 T01721028,M
TPH,2023-06-16 04:56,-117.0904,38.0505,1654.00,62.00,27.00,26.20,360.00,7.00,0.00,30.05,1011.40,10.00,M,CLR,M,M,M,M,M,M,M,M,M,M,M,M,M,M,62.10,KTPH 160456Z AUTO 36007KT 10SM CLR 17/M03 A3005 RMK AO2 SLP114 T01671028,M
LAS,2023-06-16 04:56,-115.1634,36.0719,663.00,80.00,52.00,37.67,50.00,17.00,0.00,29.86,1008.60,10.00,M,FEW,BKN,BKN,M,8000.00,12000.00,20000.00,M,M,M,M,M,29.00,20.00,2023-06-16 03:59,79.81,KLAS 160456Z 05017KT 10SM FEW080 BKN120 BKN200 27/11 A2986 RMK AO2 PK WND 02029/0359 SLP086 OCNL LTGIC DSNT N T02670111,M
HND,2023-06-16 04:56,-115.1344,35.9729,742.79,80.00,51.00,36.44,20.00,17.00,0.00,29.88,1010.40,10.00,22.00,BKN,M,M,M,12000.00,M,M,M,M,M,M,M,M,M,M,79.72,KHND 160456Z AUTO 02017G22KT 10SM BKN120 27/11 A2988 RMK AO2 SLP104 T02670106,M
INS,2023-06-16 05:00,-115.6733,36.5872,955.00,69.80,53.60,56.38,160.00,10.00,0.00,29.96,1010.20,10.00,16.00,SCT,SCT,BKN,M,200.00,2000.00,7000.00,M,-RA,M,M,M,M,M,M,69.80,KINS 160500Z AUTO 16010G16KT 10SM -RA SCT002 SCT020 BKN070 21/12 A2996 RMK AO2 SLP102 $,M
05U,2023-06-16 05:10,-116.0051,39.6042,1811.23,46.40,35.60,65.83,0.00,0.00,0.00,30.17,M,10.00,M,CLR,M,M,M,M,M,M,M,M,M,M,M,M,M,M,46.40,K05U 160510Z AUTO 00000KT 10SM CLR 08/02 A3017 RMK A01,M
BVU,2023-06-16 05:15,-114.8611,35.9475,671.00,80.60,51.80,36.79,30.00,19.00,0.00,29.83,M,10.00,27.00,FEW,SCT,OVC,M,4800.00,5500.00,12000.00,M,M,M,M,M,M,M,M,80.08,KBVU 160515Z AUTO 03019G27KT 10SM FEW048 SCT055 OVC120 27/11 A2983 RMK AO2,M
CXP,2023-06-16 05:15,-119.7326,39.1923,1431.00,66.20,23.00,19.22,50.00,12.00,0.00,30.10,M,10.00,17.00,CLR,M,M,M,M,M,M,M,M,M,M,M,M,M,M,66.20,KCXP 160515Z AUTO 05012G17KT 10SM CLR 19/M05 A3010 RMK AO2,M
RTS,2023-06-16 05:15,-119.8764,39.6682,1539.00,57.20,33.80,41.13,0.00,0.00,0.00,30.13,M,10.00,M,CLR,M,M,M,M,M,M,M,M,M,M,M,M,M,M,57.20,KRTS 160515Z AUTO 00000KT 10SM CLR 14/01 A3013 RMK AO2,M
MEV,2023-06-16 05:15,-119.7500,38.9963,1441.42,60.80,35.60,38.85,350.00,5.00,0.00,30.09,M,10.00,13.00,FEW,M,M,M,7000.00,M,M,M,M,M,M,M,M,M,M,60.80,KMEV 160515Z AUTO 35005G13KT 10SM FEW070 16/02 A3009 RMK AO2,M
BAM,2023-06-16 05:15,-116.8743,40.5990,1382.36,59.00,32.00,35.87,40.00,7.00,0.00,30.11,M,10.00,M,CLR,M,M,M,M,M,M,M,M,M,M,M,M,M,M,59.00,KBAM 160515Z AUTO 04007KT 10SM CLR 15/00 A3011 RMK AO1,M
HTH,2023-06-16 05:15,-118.6315,38.5448,1282.89,66.20,33.80,29.92,330.00,7.00,0.00,30.07,M,10.00,M,CLR,M,M,M,M,M,M,M,M,M,M,M,M,M,M,66.20,KHTH 160515Z AUTO 33007KT 10SM CLR 19/01 A3007 RMK A01,M
TMT,2023-06-16 05:15,-117.1971,39.4643,1749.34,50.40,34.20,53.60,340.00,5.00,0.00,30.15,M,10.00,M,CLR,M,M,M,M,M,M,M,M,M,M,M,M,M,M,50.40,KTMT 160515Z AUTO 34005KT 10SM CLR 10/01 A3015 RMK AO2 T01020012,M
05U,2023-06-16 05:30,-116.0051,39.6042,1811.23,44.60,37.40,75.68,0.00,0.00,0.00,30.17,M,10.00,M,CLR,M,M,M,M,M,M,M,M,M,M,M,M,M,M,44.60,K05U 160530Z AUTO 00000KT 10SM CLR 07/03 A3017 RMK A01,M
BVU,2023-06-16 05:35,-114.8611,35.9475,671.00,80.60,51.80,36.79,40.00,14.00,0.00,29.85,M,10.00,21.00,FEW,SCT,BKN,M,4000.00,4800.00,5500.00,M,M,M,M,M,M,M,M,80.08,KBVU 160535Z AUTO 04014G21KT 10SM FEW040 SCT048 BKN055 27/11 A2985 RMK AO2,M
CXP,2023-06-16 05:35,-119.7326,39.1923,1431.00,66.20,21.20,17.81,50.00,13.00,0.00,30.11,M,10.00,M,CLR,M,M,M,M,M,M,M,M,M,M,M,M,M,M,66.20,KCXP 160535Z AUTO 05013KT 10SM CLR 19/M06 A3011 RMK AO2,M
RTS,2023-06-16 05:35,-119.8764,39.6682,1539.00,59.00,30.20,33.35,0.00,0.00,0.00,30.14,M,10.00,M,CLR,M,M,M,M,M,M,M,M,M,M,M,M,M,M,59.00,KRTS 160535Z AUTO 00000KT 10SM CLR 15/M01 A3014 RMK AO2,M
MEV,2023-06-16 05:35,-119.7500,38.9963,1441.42,60.80,33.80,36.16,360.00,9.00,0.00,30.09,M,10.00,M,FEW,M,M,M,7000.00,M,M,M,M,M,M,M,M,M,M,60.80,KMEV 160535Z AUTO 36009KT 10SM FEW070 16/01 A3009 RMK AO2,M
BAM,2023-06-16 05:35,-116.8743,40.5990,1382.36,59.00,33.80,38.56,0.00,0.00,0.00,30.12,M,10.00,M,CLR,M,M,M,M,M,M,M,M,M,M,M,M,M,M,59.00,KBAM 160535Z AUTO 00000KT 10SM CLR 15/01 A3012 RMK AO1,M
HTH,2023-06-16 05:35,-118.6315,38.5448,1282.89,64.40,37.40,36.74,340.00,8.00,0.00,30.07,M,10.00,M,CLR,M,M,M,M,M,M,M,M,M,M,M,M,M,M,64.40,KHTH 160535Z AUTO 34008KT 10SM CLR 18/03 A3007 RMK A01,M
TMT,2023-06-16 05:35,-117.1971,39.4643,1749.34,45.70,36.00,68.95,110.00,5.00,0.00,30.15,M,10.00,M,CLR,M,M,M,M,M,M,M,M,M,M,M,M,M,M,42.67,KTMT 160535Z AUTO 11005KT 10SM CLR 08/02 A3015 RMK AO2 T00760023,M
INS,2023-06-16 05:46,-115.6733,36.5872,955.00,66.20,57.20,72.74,220.00,19.00,0.00,29.95,1009.90,10.00,M,OVC,M,M,M,8500.00,M,M,M,-RA,M,M,M,M,M,M,66.20,KINS 160546Z AUTO 22019KT 10SM -RA OVC085 19/14 A2995 RMK AO2 SLP099 $,M
05U,2023-06-16 05:50,-116.0051,39.6042,1811.23,42.80,35.60,75.50,M,M,0.00,30.17,M,10.00,M,CLR,M,M,M,M,M,M,M,M,M,M,M,M,M,M,M,K05U 160550Z AUTO 5.80000006KT 10SM CLR 06/02 A3017 RMK A01,M
P68,2023-06-16 05:53,-116.0056,39.6014,1993.00,43.00,36.00,76.12,100.00,6.00,0.00,30.14,1016.00,M,M,M,M,M,M,M,M,M,M,M,M,M,M,M,M,M,38.78,KP68 160553Z AUTO 10006KT 06/02 A3014 RMK AO1 SLP160 T00610022 10211 20061 51019,M
DRA,2023-06-16 05:53,-116.0278,36.6206,1009.00,66.00,54.00,65.21,140.00,23.00,T,29.90,1008.30,10.00,36.00,SCT,BKN,M,M,9500.00,12000.00,M,M,M,M,M,M,36.00,140.00,2023-06-16 05:49,66.00,KDRA 160553Z AUTO 14023G36KT 10SM SCT095 BKN120 19/12 A2990 RMK AO2 PK WND 14036/0549 RAE39 SLP083 P0000 60011 T01890122 10333 20183 50026,M
VGT,2023-06-16 05:53,-115.1933,36.2111,667.00,81.00,50.00,33.97,320.00,11.00,0.00,29.87,1010.50,10.00,18.00,FEW,M,M,M,11000.00,M,M,M,M,M,M,M,M,M,M,80.12,KVGT 160553Z AUTO 32011G18KT 10SM FEW110 27/10 A2987 RMK AO2 LTG DSNT N SLP105 T02720100 10361 20272 51041,M
LOL,2023-06-16 05:53,-118.5701,40.0684,1192.43,61.00,M,M,20.00,7.00,0.00,30.06,1015.30,10.00,M,CLR,M,M,M,M,M,M,M,M,M,M,M,M,M,M,M,KLOL 160553Z AUTO 02007KT 10SM CLR 16/ A3006 RMK AO2 SLP153 T0161 10250 20133 51014 $,M
ELY,2023-06-16 05:53,-114.8453,39.2950,1909.00,50.00,35.00,56.39,40.00,6.00,0.00,30.14,1013.30,10.00,M,CLR,M,M,M,M,M,M,M,M,M,M,M,M,M,M,50.00,KELY 160553Z AUTO 04006KT 10SM CLR 10/02 A3014 RMK AO2 SLP133 T01000017 10206 20100 51019,M
BVU,2023-06-16 05:55,-114.8611,35.9475,671.00,80.60,51.80,36.79,40.00,16.00,0.00,29.87,M,10.00,35.00,SCT,BKN,OVC,M,2800.00,5500.00,7000.00,M,M,M,M,M,M,M,M,80.08,KBVU 160555Z AUTO 04016G35KT 10SM SCT028 BKN055 OVC070 27/11 A2987 RMK AO2,M
CXP,2023-06-16 05:55,-119.7326,39.1923,1431.00,66.20,23.00,19.22,40.00,9.00,0.00,30.11,M,10.00,15.00,CLR,M,M,M,M,M,M,M,M,M,M,M,M,M,M,66.20,KCXP 160555Z AUTO 04009G15KT 10SM CLR 19/M05 A3011 RMK AO2,M
RNO,2023-06-16 05:55,-119.7711,39.4839,1341.00,65.00,28.90,25.68,330.00,5.00,0.00,30.09,1014.40,10.00,M,FEW,M,M,M,25000.00,M,M,M,M,M,M,M,M,M,M,64.90,KRNO 160555Z 33005KT 10SM FEW250 18/M02 A3009 RMK AO2 SLP144 T01831017 10261 20172 53017,M
RTS,2023-06-16 05:55,-119.8764,39.6682,1539.00,57.20,32.00,38.26,0.00,0.00,0.00,30.13,M,10.00,M,CLR,M,M,M,M,M,M,M,M,M,M,M,M,M,M,57.20,KRTS 160555Z AUTO 00000KT 10SM CLR 14/M00 A3013 RMK AO2,M
MEV,2023-06-16 05:55,-119.7500,38.9963,1441.42,59.00,33.80,38.56,360.00,7.00,0.00,30.10,M,10.00,M,CLR,M,M,M,M,M,M,M,M,M,M,M,M,M,M,59.00,KMEV 160555Z AUTO 36007KT 10SM CLR 15/01 A3010 RMK AO2,M
BAM,2023-06-16 05:55,-116.8743,40.5990,1382.36,55.40,32.00,40.84,0.00,0.00,0.00,30.12,M,10.00,M,CLR,M,M,M,M,M,M,M,M,M,M,M,M,M,M,55.40,KBAM 160555Z AUTO 00000KT 10SM CLR 13/00 A3012 RMK AO1,M
HTH,2023-06-16 05:55,-118.6315,38.5448,1282.89,62.60,39.20,42.00,310.00,5.00,0.00,30.07,M,10.00,M,CLR,M,M,M,M,M,M,M,M,M,M,M,M,M,M,62.60,KHTH 160555Z AUTO 31005KT 10SM CLR 17/04 A3007 RMK A01,M
INS,2023-06-16 05:55,-115.6733,36.5872,955.00,66.00,56.30,70.90,210.00,17.00,0.06,29.96,1010.20,10.00,M,OVC,M,M,M,8500.00,M,M,M,-RA,M,M,M,M,M,M,66.00,KINS 160555Z AUTO 21017KT 10SM -RA OVC085 19/14 A2996 RMK AO2 SLP102 P0006 60023 T01890135 10316 20189 51040 $,M
LSV,2023-06-16 05:55,-115.0343,36.2362,570.00,79.50,51.60,37.86,10.00,11.00,0.00,29.83,1007.70,10.00,M,BKN,M,M,M,11000.00,M,M,M,M,M,M,M,M,M,M,79.50,KLSV 160555Z AUTO 01011KT 10SM BKN110 26/11 A2983 RMK AO2 SLP077 T02640109 10351 20264 52041 $,M
TMT,2023-06-16 05:55,-117.1971,39.4643,1749.34,45.30,37.00,72.25,0.00,0.00,0.00,30.15,M,10.00,M,CLR,M,M,M,M,M,M,M,M,M,M,M,M,M,M,45.30,KTMT 160555Z AUTO 00000KT 10SM CLR 07/03 A3015 RMK AO2 T00740027 10216 20069,M
EKO,2023-06-16 05:56,-115.7860,40.8242,1367.00,54.00,36.00,50.42,80.00,4.08,M,30.12,1016.50,10.00,M,CLR,M,M,M,M,M,M,M,M,M,M,M,M,M,M,54.00,METAR KEKO 160556Z 08004KT 10SM CLR 12/02 A3012 RMK AO2 SLP165 T01220022 10211 20122 51016 TSNO FIBI,M
NFL,2023-06-16 05:56,-118.7010,39.4166,1199.00,59.00,28.00,30.48,30.00,5.00,0.00,30.06,1014.60,10.00,M,FEW,M,M,M,25000.00,M,M,M,M,M,M,M,M,M,M,59.00,KNFL 160556Z 03005KT 10SM FEW250 15/M02 A3006 RMK AO2 SLP146 T01501022 10261 20144 52015,M
HND,2023-06-16 05:56,-115.1344,35.9729,742.79,79.00,50.00,36.27,40.00,14.00,T,29.91,1011.40,10.00,19.00,BKN,M,M,M,11000.00,M,M,M,M,M,M,M,M,M,M,79.00,KHND 160556Z AUTO 04014G19KT 10SM BKN110 26/10 A2991 RMK AO2 RAB12E25 SLP114 P0000 60000 T02610100 10356 20256 51045,M
TPH,2023-06-16 05:56,-117.0904,38.0505,1654.00,59.00,M,M,70.00,8.00,0.00,30.07,1011.80,10.00,M,CLR,M,M,M,M,M,M,M,M,M,M,M,M,M,M,M,KTPH 160556Z AUTO 07008KT 10SM CLR 15/ A3007 RMK AO2 SLP118 T0150 10244 20150 51022 $,M
WMC,2023-06-16 05:56,-117.8072,40.9019,1315.00,59.00,35.00,40.61,50.00,8.00,0.00,30.11,1016.10,10.00,M,CLR,M,M,M,M,M,M,M,M,M,M,M,M,M,M,59.00,KWMC 160556Z AUTO 05008KT 10SM CLR 15/02 A3011 RMK AO2 SLP161 T01500017 10233 20150 51012,M
LAS,2023-06-16 05:56,-115.1634,36.0719,663.00,80.00,51.00,36.44,20.00,12.00,0.00,29.88,1009.30,10.00,M,OVC,M,M,M,12000.00,M,M,M,M,M,M,M,26.00,40.00,2023-06-16 04:59,79.72,KLAS 160556Z 02012KT 10SM OVC120 27/11 A2988 RMK AO2 PK WND 04026/0459 LTG DSNT N SLP093 T02670106 10356 20267 51045,M
05U,2023-06-16 06:10,-116.0051,39.6042,1811.23,44.60,33.80,65.61,40.00,5.00,0.00,30.17,M,10.00,M,CLR,M,M,M,M,M,M,M,M,M,M,M,M,M,M,41.36,K05U 160610Z AUTO 04005KT 10SM CLR 07/01 A3017 RMK A01,M
BVU,2023-06-16 06:15,-114.8611,35.9475,671.00,78.80,51.80,39.02,20.00,18.00,0.00,29.85,M,10.00,24.00,FEW,BKN,OVC,M,2500.00,3900.00,11000.00,M,M,M,M,M,M,M,M,78.80,KBVU 160615Z AUTO 02018G24KT 10SM FEW025 BKN039 OVC110 26/11 A2985 RMK AO2,M
CXP,2023-06-16 06:15,-119.7326,39.1923,1431.00,64.40,24.80,22.06,0.00,0.00,0.00,30.11,M,10.00,M,CLR,M,M,M,M,M,M,M,M,M,M,M,M,M,M,64.40,KCXP 160615Z AUTO 00000KT 10SM CLR 18/M04 A3011 RMK AO2,M
RTS,2023-06-16 06:15,-119.8764,39.6682,1539.00,55.40,35.60,47.16,350.00,4.00,0.00,30.13,M,10.00,M,CLR,M,M,M,M,M,M,M,M,M,M,M,M,M,M,55.40,KRTS 160615Z AUTO 35004KT 10SM CLR 13/02 A3013 RMK AO2,M
MEV,2023-06-16 06:15,-119.7500,38.9963,1441.42,59.00,33.80,38.56,350.00,6.00,0.00,30.11,M,10.00,M,FEW,FEW,SCT,M,4400.00,4900.00,6000.00,M,M,M,M,M,M,M,M,59.00,KMEV 160615Z AUTO 35006KT 10SM FEW044 FEW049 SCT060 15/01 A3011 RMK AO2,M
BAM,2023-06-16 06:15,-116.8743,40.5990,1382.36,57.20,32.00,38.26,0.00,0.00,0.00,30.13,M,10.00,M,CLR,M,M,M,M,M,M,M,M,M,M,M,M,M,M,57.20,KBAM 160615Z AUTO 00000KT 10SM CLR 14/00 A3013 RMK AO1,M
HTH,2023-06-16 06:15,-118.6315,38.5448,1282.89,62.60,33.80,33.93,340.00,9.00,0.00,30.07,M,10.00,M,CLR,M,M,M,M,M,M,M,M,M,M,M,M,M,M,62.60,KHTH 160615Z AUTO 34009KT 10SM CLR 17/01 A3007 RMK A01,M
TMT,2023-06-16 06:15,-117.1971,39.4643,1749.34,48.70,34.50,57.79,30.00,4.00,0.00,30.15,M,10.00,M,CLR,M,M,M,M,M,M,M,M,M,M,M,M,M,M,46.92,KTMT 160615Z AUTO 03004KT 10SM CLR 09/01 A3015 RMK AO2 T00930014,M
INS,2023-06-16 06:25,-115.6733,36.5872,955.00,66.20,53.60,63.82,180.00,17.00,0.00,29.95,1009.90,10.00,M,FEW,FEW,FEW,BKN,1600.00,6000.00,7500.00,9000.00,M,M,M,M,M,M,M,66.20,KINS 160625Z AUTO 18017KT 10SM FEW016 FEW060 FEW075 BKN090 19/12 A2995 RMK AO2 LTG DSNT SW RAE25 SLP099 $,M
INS,2023-06-16 06:26,-115.6733,36.5872,955.00,66.20,53.60,63.82,180.00,17.00,0.00,29.96,1010.20,10.00,M,FEW,FEW,FEW,BKN,1600.00,6000.00,7500.00,9000.00,TS,M,M,M,M,M,M,66.20,KINS 160626Z AUTO 18017KT 10SM TS FEW016 FEW060 FEW075 BKN090 19/12 A2996 RMK AO2 RAE25 TSB26 SLP102 $,M
05U,2023-06-16 06:30,-116.0051,39.6042,1811.23,44.60,35.60,70.48,40.00,3.00,0.00,30.17,M,10.00,M,CLR,M,M,M,M,M,M,M,M,M,M,M,M,M,M,43.09,K05U 160630Z AUTO 04003KT 10SM CLR 07/02 A3017 RMK A01,M
INS,2023-06-16 06:32,-115.6733,36.5872,955.00,64.40,53.60,67.95,180.00,14.00,0.00,29.95,1009.90,9.00,M,FEW,FEW,SCT,OVC,400.00,1600.00,6000.00,8000.00,TSRA,M,M,M,M,M,M,64.40,KINS 160632Z AUTO 18014KT 9SM TSRA FEW004 FEW016 SCT060 OVC080 18/12 A2995 RMK AO2 RAE25RAB32 TSB26 SLP099 $,M
BVU,2023-06-16 06:35,-114.8611,35.9475,671.00,80.60,50.00,34.41,20.00,16.00,0.00,29.86,M,10.00,M,FEW,SCT,OVC,M,2800.00,4800.00,7000.00,M,M,M,M,M,M,M,M,79.88,KBVU 160635Z AUTO 02016KT 10SM FEW028 SCT048 OVC070 27/10 A2986 RMK AO2 LTG DSNT W,M
CXP,2023-06-16 06:35,-119.7326,39.1923,1431.00,60.80,30.20,31.28,0.00,0.00,0.00,30.12,M,10.00,M,CLR,M,M,M,M,M,M,M,M,M,M,M,M,M,M,60.80,KCXP 160635Z AUTO 00000KT 10SM CLR 16/M01 A3012 RMK AO2,M
RTS,2023-06-16 06:35,-119.8764,39.6682,1539.00,53.60,35.60,50.36,0.00,0.00,0.00,30.14,M,10.00,M,CLR,M,M,M,M,M,M,M,M,M,M,M,M,M,M,53.60,KRTS 160635Z AUTO 00000KT 10SM CLR 12/02 A3014 RMK AO2,M
MEV,2023-06-16 06:35,-119.7500,38.9963,1441.42,53.60,35.60,50.36,0.00,0.00,0.00,30.11,M,10.00,M,FEW,FEW,M,M,4800.00,6000.00,M,M,M,M,M,M,M,M,M,53.60,KMEV 160635Z AUTO 00000KT 10SM FEW048 FEW060 12/02 A3011 RMK AO2,M
BAM,2023-06-16 06:35,-116.8743,40.5990,1382.36,57.20,32.00,38.26,0.00,0.00,0.00,30.13,M,10.00,M,CLR,M,M,M,M,M,M,M,M,M,M,M,M,M,M,57.20,KBAM 160635Z AUTO 00000KT 10SM CLR 14/00 A3013 RMK AO1,M
HTH,2023-06-16 06:35,-118.6315,38.5448,1282.89,62.60,33.80,33.93,340.00,10.00,0.00,30.07,M,10.00,M,CLR,M,M,M,M,M,M,M,M,M,M,M,M,M,M,62.60,KHTH 160635Z AUTO 34010KT 10SM CLR 17/01 A3007 RMK A01,M
TMT,2023-06-16 06:35,-117.1971,39.4643,1749.34,47.50,34.30,59.97,10.00,4.00,0.00,30.16,M,10.00,M,CLR,M,M,M,M,M,M,M,M,M,M,M,M,M,M,45.52,KTMT 160635Z AUTO 01004KT 10SM CLR 09/01 A3016 RMK AO2 T00860013,M
05U,2023-06-16 06:50,-116.0051,39.6042,1811.23,42.80,35.60,75.50,0.00,0.00,0.00,30.18,M,10.00,M,CLR,M,M,M,M,M,M,M,M,M,M,M,M,M,M,42.80,K05U 160650Z AUTO 00000KT 10SM CLR 06/02 A3018 RMK A01,M
VGT,2023-06-16 06:53,-115.1933,36.2111,667.00,80.00,50.00,34.98,350.00,15.00,0.00,29.88,1010.80,10.00,20.00,BKN,M,M,M,11000.00,M,M,M,M,M,M,M,27.00,330.00,2023-06-16 06:22,79.60,KVGT 160653Z AUTO 35015G20KT 10SM BKN110 27/10 A2988 RMK AO2 PK WND 33027/0622 LTG DSNT SW AND W SLP108 T02670100,M
LOL,2023-06-16 06:53,-118.5701,40.0684,1192.43,61.00,M,M,10.00,7.00,0.00,30.08,1015.60,10.00,M,CLR,M,M,M,M,M,M,M,M,M,M,M,M,M,M,M,KLOL 160653Z AUTO 01007KT 10SM CLR 16/ A3008 RMK AO2 SLP156 T0161 $,M
ELY,2023-06-16 06:53,-114.8453,39.2950,1909.00,48.00,33.00,56.10,20.00,5.00,0.00,30.15,1013.60,10.00,M,CLR,M,M,M,M,M,M,M,M,M,M,M,M,M,M,45.40,KELY 160653Z AUTO 02005KT 10SM CLR 09/01 A3015 RMK AO2 SLP136 T00890006,M
P68,2023-06-16 06:53,-116.0056,39.6014,1993.00,42.00,35.00,76.04,0.00,0.00,0.00,30.15,1015.90,M,M,M,M,M,M,M,M,M,M,M,M,M,M,M,M,M,42.10,KP68 160653Z AUTO 00000KT 06/02 A3015 RMK AO1 SLP159 T00560017,M
DRA,2023-06-16 06:53,-116.0278,36.6206,1009.00,67.00,53.00,61.16,110.00,21.00,0.00,29.91,1008.30,10.00,27.00,FEW,SCT,BKN,M,8000.00,10000.00,12000.00,M,M,M,M,M,36.00,130.00,2023-06-16 06:10,66.90,KDRA 160653Z AUTO 11021G27KT 10SM FEW080 SCT100 BKN120 19/12 A2991 RMK AO2 PK WND 13036/0610 SLP083 T01940117,M
BVU,2023-06-16 06:55,-114.8611,35.9475,671.00,78.80,50.00,36.51,40.00,13.00,0.00,29.86,M,10.00,M,FEW,SCT,BKN,M,5000.00,6000.00,7500.00,M,M,M,M,M,M,M,M,78.80,KBVU 160655Z AUTO 04013KT 10SM FEW050 SCT060 BKN075 26/10 A2986 RMK AO2,M
CXP,2023-06-16 06:55,-119.7326,39.1923,1431.00,59.00,32.00,35.87,0.00,0.00,0.00,30.13,M,10.00,M,CLR,M,M,M,M,M,M,M,M,M,M,M,M,M,M,59.00,KCXP 160655Z AUTO 00000KT 10SM CLR 15/00 A3013 RMK AO2,M
INS,2023-06-16 06:55,-115.6733,36.5872,955.00,63.50,55.00,73.80,130.00,12.00,0.10,29.97,1010.60,7.00,15.00,SCT,M,M,M,300.00,M,M,M,-TSRA,M,M,M,M,M,M,63.50,KINS 160655Z AUTO 13012G15KT 7SM -TSRA SCT003 18/13 A2997 RMK AO2 RAE25RAB32 TSB26 SLP106 P0010 T01750128 $,M
RNO,2023-06-16 06:55,-119.7711,39.4839,1341.00,62.00,32.00,32.13,0.00,0.00,0.00,30.10,1014.80,10.00,M,CLR,M,M,M,M,M,M,M,M,M,M,M,M,M,M,62.10,KRNO 160655Z 00000KT 10SM CLR 17/00 A3010 RMK AO2 SLP148 T01670000,M
RTS,2023-06-16 06:55,-119.8764,39.6682,1539.00,51.80,37.40,57.77,340.00,4.00,0.00,30.15,M,10.00,M,CLR,M,M,M,M,M,M,M,M,M,M,M,M,M,M,51.80,KRTS 160655Z AUTO 34004KT 10SM CLR 11/03 A3015 RMK AO2,M
MEV,2023-06-16 06:55,-119.7500,38.9963,1441.42,53.60,35.60,50.36,0.00,0.00,0.00,30.11,M,10.00,M,FEW,M,M,M,5500.00,M,M,M,M,M,M,M,M,M,M,53.60,KMEV 160655Z AUTO 00000KT 10SM FEW055 12/02 A3011 RMK AO2,M
BAM,2023-06-16 06:55,-116.8743,40.5990,1382.36,53.60,32.00,43.61,190.00,3.00,0.00,30.13,M,10.00,M,CLR,M,M,M,M,M,M,M,M,M,M,M,M,M,M,53.60,KBAM 160655Z AUTO 19003KT 10SM CLR 12/00 A3013 RMK AO1,M
HTH,2023-06-16 06:55,-118.6315,38.5448,1282.89,62.60,32.00,31.56,340.00,9.00,0.00,30.07,M,10.00,M,CLR,M,M,M,M,M,M,M,M,M,M,M,M,M,M,62.60,KHTH 160655Z AUTO 34009KT 10SM CLR 17/M00 A3007 RMK A01,M
TMT,2023-06-16 06:55,-117.1971,39.4643,1749.34,48.60,33.80,56.41,50.00,3.00,0.00,30.16,M,10.00,M,CLR,M,M,M,M,M,M,M,M,M,M,M,M,M,M,47.67,KTMT 160655Z AUTO 05003KT 10SM CLR 09/01 A3016 RMK AO2 T00920010,M
LSV,2023-06-16 06:55,-115.0343,36.2362,570.00,81.00,46.80,30.03,360.00,11.00,0.00,29.84,1007.90,10.00,M,OVC,M,M,M,10000.00,M,M,M,M,M,M,M,M,M,M,79.88,KLSV 160655Z AUTO 36011KT 10SM OVC100 27/08 A2984 RMK AO2 SLP079 T02730082 $,M
EKO,2023-06-16 06:56,-115.7860,40.8242,1367.00,55.00,36.00,48.62,20.00,5.05,M,30.12,1016.20,10.00,M,CLR,M,M,M,M,M,M,M,M,M,M,M,M,M,M,55.00,METAR KEKO 160656Z 02005KT 10SM CLR 13/02 A3012 RMK AO2 SLP162 T01280022 TSNO FIBI,M
INS,2023-06-16 06:56,-115.6733,36.5872,955.00,64.40,55.40,72.56,130.00,13.00,0.00,29.96,1010.20,7.00,M,SCT,M,M,M,300.00,M,M,M,-RA,M,M,M,M,M,M,64.40,KINS 160656Z AUTO 13013KT 7SM -RA SCT003 18/13 A2996 RMK AO2 TSE56 SLP102 $,M
NFL,2023-06-16 06:56,-118.7010,39.4166,1199.00,57.00,30.90,36.86,360.00,7.00,0.00,30.06,1014.60,10.00,M,FEW,M,M,M,25000.00,M,M,M,M,M,M,M,M,M,M,57.00,KNFL 160656Z 36007KT 10SM FEW250 14/M01 A3006 RMK AO2 SLP146 T01391006,M
HND,2023-06-16 06:56,-115.1344,35.9729,742.79,78.00,50.00,37.36,60.00,10.00,0.00,29.92,1011.60,10.00,M,FEW,M,M,M,11000.00,M,M,M,M,M,M,M,M,M,M,78.10,KHND 160656Z AUTO 06010KT 10SM FEW110 26/10 A2992 RMK AO2 LTG DSNT W SLP116 T02560100 403560244,M
TPH,2023-06-16 06:56,-117.0904,38.0505,1654.00,58.00,M,M,350.00,8.00,0.00,30.07,1011.90,10.00,M,CLR,M,M,M,M,M,M,M,M,M,M,M,M,M,M,M,KTPH 160656Z AUTO 35008KT 10SM CLR 14/ A3007 RMK AO2 SLP119 T0144 $,M
WMC,2023-06-16 06:56,-117.8072,40.9019,1315.00,58.00,35.00,42.24,50.00,7.00,0.00,30.12,1016.60,10.00,M,CLR,M,M,M,M,M,M,M,M,M,M,M,M,M,M,57.90,KWMC 160656Z AUTO 05007KT 10SM CLR 14/02 A3012 RMK AO2 SLP166 T01440017,M
LAS,2023-06-16 06:56,-115.1634,36.0719,663.00,80.00,49.00,33.58,50.00,8.00,0.00,29.89,1009.50,10.00,M,OVC,M,M,M,11000.00,M,M,M,M,M,M,M,M,M,M,79.50,KLAS 160656Z 05008KT 10SM OVC110 27/09 A2989 RMK AO2 LTG DSNT SW AND W SLP095 SHRA DSNT N T02670094,M
INS,2023-06-16 06:57,-115.6733,36.5872,955.00,64.40,55.40,72.56,120.00,12.00,0.00,29.96,1010.20,7.00,M,SCT,M,M,M,300.00,M,M,M,-RA,M,M,M,M,M,M,64.40,KINS 160657Z AUTO 12012KT 7SM -RA SCT003 18/13 A2996 RMK AO2 TSE56 SLP102 $,M
INS,2023-06-16 07:02,-115.6733,36.5872,955.00,64.40,53.60,67.95,120.00,15.00,0.00,29.95,1009.90,9.00,M,BKN,M,M,M,300.00,M,M,M,-RA,M,M,M,M,M,M,64.40,KINS 160702Z AUTO 12015KT 9SM -RA BKN003 18/12 A2995 RMK AO2 TSE0656 BKN V SCT SLP099 $,M
05U,2023-06-16 07:10,-116.0051,39.6042,1811.23,41.00,33.80,75.33,60.00,3.00,0.00,30.18,M,10.00,M,CLR,M,M,M,M,M,M,M,M,M,M,M,M,M,M,38.98,K05U 160710Z AUTO 06003KT 10SM CLR 05/01 A3018 RMK A01,M
BVU,2023-06-16 07:15,-114.8611,35.9475,671.00,78.80,50.00,36.51,30.00,10.00,0.00,29.87,M,10.00,17.00,BKN,M,M,M,12000.00,M,M,M,M,M,M,M,M,M,M,78.80,KBVU 160715Z AUTO 03010G17KT 10SM BKN120 26/10 A2987 RMK AO2,M
CXP,2023-06-16 07:15,-119.7326,39.1923,1431.00,57.20,33.80,41.13,290.00,5.00,0.00,30.13,M,10.00,M,CLR,M,M,M,M,M,M,M,M,M,M,M,M,M,M,57.20,KCXP 160715Z AUTO 29005KT 10SM CLR 14/01 A3013 RMK AO2,M
RTS,2023-06-16 07:15,-119.8764,39.6682,1539.00,50.00,37.40,61.76,190.00,5.00,0.00,30.15,M,10.00,M,CLR,M,M,M,M,M,M,M,M,M,M,M,M,M,M,50.00,KRTS 160715Z AUTO 19005KT 10SM CLR 10/03 A3015 RMK AO2,M
MEV,2023-06-16 07:15,-119.7500,38.9963,1441.42,53.60,35.60,50.36,350.00,5.00,0.00,30.12,M,10.00,M,FEW,FEW,M,M,6000.00,7000.00,M,M,M,M,M,M,M,M,M,53.60,KMEV 160715Z AUTO 35005KT 10SM FEW060 FEW070 12/02 A3012 RMK AO2,M
BAM,2023-06-16 07:15,-116.8743,40.5990,1382.36,55.40,32.00,40.84,60.00,6.00,0.00,30.13,M,10.00,M,CLR,M,M,M,M,M,M,M,M,M,M,M,M,M,M,55.40,KBAM 160715Z AUTO 06006KT 10SM CLR 13/00 A3013 RMK AO1,M
HTH,2023-06-16 07:15,-118.6315,38.5448,1282.89,60.80,30.20,31.28,350.00,8.00,0.00,30.07,M,10.00,M,CLR,M,M,M,M,M,M,M,M,M,M,M,M,M,M,60.80,KHTH 160715Z AUTO 35008KT 10SM CLR 16/M01 A3007 RMK A01,M
TMT,2023-06-16 07:15,-117.1971,39.4643,1749.34,47.00,32.70,57.54,60.00,5.00,0.00,30.16,M,10.00,M,CLR,M,M,M,M,M,M,M,M,M,M,M,M,M,M,44.09,KTMT 160715Z AUTO 06005KT 10SM CLR 08/00 A3016 RMK AO2 T00830004,M
INS,2023-06-16 07:17,-115.6733,36.5872,955.00,66.20,50.00,55.88,130.00,17.00,0.00,29.94,1009.40,5.00,31.00,SCT,OVC,M,M,300.00,7500.00,M,M,-RA,M,M,M,M,M,M,66.20,KINS 160717Z AUTO 13017G31KT 5SM -RA SCT003 OVC075 19/10 A2994 RMK AO2 TSE0656 SLP094 $,M
INS,2023-06-16 07:19,-115.6733,36.5872,955.00,66.20,51.80,59.74,130.00,13.00,0.00,29.94,1009.40,7.00,31.00,SCT,BKN,M,M,300.00,7500.00,M,M,-RA,M,M,M,M,M,M,66.20,KINS 160719Z AUTO 13013G31KT 7SM -RA SCT003 BKN075 19/11 A2994 RMK AO2 WSHFT 11 TSE0656 SLP094 $,M
05U,2023-06-16 07:30,-116.0051,39.6042,1811.23,39.20,35.60,86.79,0.00,0.00,0.00,30.17,M,10.00,M,CLR,M,M,M,M,M,M,M,M,M,M,M,M,M,M,39.20,K05U 160730Z AUTO 00000KT 10SM CLR 04/02 A3017 RMK A01,M
BVU,2023-06-16 07:35,-114.8611,35.9475,671.00,78.80,50.00,36.51,30.00,15.00,0.00,29.87,M,10.00,M,SCT,M,M,M,12000.00,M,M,M,M,M,M,M,M,M,M,78.80,KBVU 160735Z AUTO 03015KT 10SM SCT120 26/10 A2987 RMK AO2,M
CXP,2023-06-16 07:35,-119.7326,39.1923,1431.00,55.40,35.60,47.16,0.00,0.00,0.00,30.13,M,10.00,M,CLR,M,M,M,M,M,M,M,M,M,M,M,M,M,M,55.40,KCXP 160735Z AUTO 00000KT 10SM CLR 13/02 A3013 RMK AO2,M
RTS,2023-06-16 07:35,-119.8764,39.6682,1539.00,48.20,37.40,66.05,320.00,4.00,0.00,30.15,M,10.00,M,CLR,M,M,M,M,M,M,M,M,M,M,M,M,M,M,46.34,KRTS 160735Z AUTO 32004KT 10SM CLR 09/03 A3015 RMK AO2,M
MEV,2023-06-16 07:35,-119.7500,38.9963,1441.42,53.60,35.60,50.36,0.00,0.00,0.00,30.12,M,10.00,M,FEW,FEW,FEW,M,4400.00,5000.00,6000.00,M,M,M,M,M,M,M,M,53.60,KMEV 160735Z AUTO 00000KT 10SM FEW044 FEW050 FEW060 12/02 A3012 RMK AO2,M
BAM,2023-06-16 07:35,-116.8743,40.5990,1382.36,50.00,32.00,49.81,270.00,5.00,0.00,30.13,M,10.00,M,CLR,M,M,M,M,M,M,M,M,M,M,M,M,M,M,50.00,KBAM 160735Z AUTO 27005KT 10SM CLR 10/00 A3013 RMK AO1,M
HTH,2023-06-16 07:35,-118.6315,38.5448,1282.89,62.60,24.80,23.50,340.00,11.00,0.00,30.07,M,10.00,M,CLR,M,M,M,M,M,M,M,M,M,M,M,M,M,M,62.60,KHTH 160735Z AUTO 34011KT 10SM CLR 17/M04 A3007 RMK A01,M
TMT,2023-06-16 07:35,-117.1971,39.4643,1749.34,45.50,33.40,62.39,40.00,5.00,0.00,30.16,M,10.00,M,CLR,M,M,M,M,M,M,M,M,M,M,M,M,M,M,42.43,KTMT 160735Z AUTO 04005KT 10SM CLR 08/01 A3016 RMK AO2 T00750008,M
05U,2023-06-16 07:50,-116.0051,39.6042,1811.23,39.20,33.80,80.79,10.00,3.00,0.00,30.17,M,10.00,M,CLR,M,M,M,M,M,M,M,M,M,M,M,M,M,M,36.92,K05U 160750Z AUTO 01003KT 10SM CLR 04/01 A3017 RMK A01,M
LOL,2023-06-16 07:53,-118.5701,40.0684,1192.43,58.00,M,M,20.00,9.00,0.00,30.08,1015.90,10.00,M,CLR,M,M,M,M,M,M,M,M,M,M,M,M,M,M,M,KLOL 160753Z AUTO 02009KT 10SM CLR 14/ A3008 RMK AO2 SLP159 T0144 402500094 $,M
ELY,2023-06-16 07:53,-114.8453,39.2950,1909.00,43.00,33.00,67.82,0.00,0.00,0.00,30.15,1014.10,10.00,M,CLR,M,M,M,M,M,M,M,M,M,M,M,M,M,M,43.00,KELY 160753Z AUTO 00000KT 10SM CLR 06/01 A3015 RMK AO2 SLP141 T00610006 402110061,M
DRA,2023-06-16 07:53,-116.0278,36.6206,1009.00,71.00,49.00,45.33,120.00,5.00,0.00,29.92,1008.40,10.00,M,SCT,M,M,M,12000.00,M,M,M,M,M,M,M,29.00,110.00,2023-06-16 07:01,71.10,KDRA 160753Z AUTO 12005KT 10SM SCT120 22/09 A2992 RMK AO2 PK WND 11029/0701 SLP084 T02170094 403390183,M
VGT,2023-06-16 07:53,-115.1933,36.2111,667.00,78.00,51.00,38.92,340.00,16.00,0.00,29.89,1011.30,10.00,23.00,OVC,M,M,M,10000.00,M,M,M,M,M,M,M,M,M,M,78.10,KVGT 160753Z AUTO 34016G23KT 10SM OVC100 26/11 A2989 RMK AO2 SLP113 T02560106 403610256,M
BVU,2023-06-16 07:55,-114.8611,35.9475,671.00,78.80,50.00,36.51,30.00,11.00,0.00,29.88,M,10.00,M,SCT,M,M,M,11000.00,M,M,M,M,M,M,M,M,M,M,78.80,KBVU 160755Z AUTO 03011KT 10SM SCT110 26/10 A2988 RMK AO2,M
CXP,2023-06-16 07:55,-119.7326,39.1923,1431.00,57.20,32.00,38.26,0.00,0.00,0.00,30.13,M,10.00,M,CLR,M,M,M,M,M,M,M,M,M,M,M,M,M,M,57.20,KCXP 160755Z AUTO 00000KT 10SM CLR 14/00 A3013 RMK AO2,M
RTS,2023-06-16 07:55,-119.8764,39.6682,1539.00,48.20,37.40,66.05,0.00,0.00,0.00,30.15,M,10.00,M,CLR,M,M,M,M,M,M,M,M,M,M,M,M,M,M,48.20,KRTS 160755Z AUTO 00000KT 10SM CLR 09/03 A3015 RMK AO2,M
MEV,2023-06-16 07:55,-119.7500,38.9963,1441.42,51.80,35.60,53.81,0.00,0.00,0.00,30.12,M,10.00,M,FEW,FEW,M,M,5500.00,7000.00,M,M,M,M,M,M,M,M,M,51.80,KMEV 160755Z AUTO 00000KT 10SM FEW055 FEW070 11/02 A3012 RMK AO2,M
BAM,2023-06-16 07:55,-116.8743,40.5990,1382.36,51.80,33.80,50.08,0.00,0.00,0.00,30.13,M,10.00,M,CLR,M,M,M,M,M,M,M,M,M,M,M,M,M,M,51.80,KBAM 160755Z AUTO 00000KT 10SM CLR 11/01 A3013 RMK AO1,M
HTH,2023-06-16 07:55,-118.6315,38.5448,1282.89,62.60,28.40,27.27,340.00,10.00,0.00,30.07,M,10.00,M,CLR,M,M,M,M,M,M,M,M,M,M,M,M,M,M,62.60,KHTH 160755Z AUTO 34010KT 10SM CLR 17/M02 A3007 RMK A01,M
TMT,2023-06-16 07:55,-117.1971,39.4643,1749.34,43.70,33.30,66.55,50.00,3.00,0.00,30.16,M,10.00,M,CLR,M,M,M,M,M,M,M,M,M,M,M,M,M,M,42.06,KTMT 160755Z AUTO 05003KT 10SM CLR 07/01 A3016 RMK AO2 T00650007 402210058,M
INS,2023-06-16 07:55,-115.6733,36.5872,955.00,66.00,51.30,59.05,250.00,11.00,0.06,29.96,1010.10,10.00,18.00,BKN,BKN,M,M,8000.00,9500.00,M,M,-RA,M,M,M,31.00,110.00,2023-06-16 07:09,66.00,KINS 160755Z AUTO 25011G18KT 10SM -RA BKN080 BKN095 19/11 A2996 RMK AO2 PK WND 11031/09 TSE0656 SLP101 P0006 T01890107 403210175 $,M
LSV,2023-06-16 07:55,-115.0343,36.2362,570.00,78.80,48.00,33.88,260.00,9.00,0.00,29.86,1008.60,10.00,M,BKN,OVC,M,M,11000.00,17000.00,M,M,M,M,M,M,M,M,M,78.80,KLSV 160755Z AUTO 26009KT 10SM BKN110 OVC170 26/09 A2986 RMK AO2 SLP086 T02600089 403840251 $,M
RNO,2023-06-16 07:55,-119.7711,39.4839,1341.00,59.00,33.00,37.49,270.00,4.00,0.00,30.11,1015.20,10.00,M,CLR,M,M,M,M,M,M,M,M,M,M,M,M,M,M,59.00,KRNO 160755Z 27004KT 10SM CLR 15/01 A3011 RMK AO2 SLP152 T01500006 402720122,M
EKO,2023-06-16 07:56,-115.7860,40.8242,1367.00,50.00,37.00,60.79,80.00,2.92,M,30.13,1016.90,10.00,M,CLR,M,M,M,M,M,M,M,M,M,M,M,M,M,M,50.00,METAR KEKO 160756Z 08003KT 10SM CLR 10/03 A3013 RMK AO2 SLP169 T01000028 402170056 TSNO FIBI,M
NFL,2023-06-16 07:56,-118.7010,39.4166,1199.00,51.00,32.00,47.81,0.00,0.00,0.00,30.07,1015.00,10.00,M,CLR,M,M,M,M,M,M,M,M,M,M,M,M,M,M,51.10,KNFL 160756Z AUTO 00000KT 10SM CLR 11/00 A3007 RMK AO2 SLP150 T01060000 402670106,M
TPH,2023-06-16 07:56,-117.0904,38.0505,1654.00,55.00,M,M,10.00,8.00,0.00,30.08,1012.30,10.00,M,CLR,M,M,M,M,M,M,M,M,M,M,M,M,M,M,M,KTPH 160756Z AUTO 01008KT 10SM CLR 13/ A3008 RMK AO2 SLP123 T0128 402670106 $,M
LAS,2023-06-16 07:56,-115.1634,36.0719,663.00,78.00,48.00,34.67,10.00,13.00,0.00,29.89,1009.80,10.00,20.00,OVC,M,M,M,11000.00,M,M,M,M,M,M,M,M,M,M,78.10,KLAS 160756Z 01013G20KT 10SM OVC110 26/09 A2989 RMK AO2 SLP098 T02560089 403560256,M
HND,2023-06-16 07:56,-115.1344,35.9729,742.79,77.00,49.00,37.19,10.00,10.00,0.00,29.92,1011.90,10.00,M,OVC,M,M,M,11000.00,M,M,M,M,M,M,M,M,M,M,77.00,KHND 160756Z AUTO 01010KT 10SM OVC110 25/09 A2992 RMK AO2 SLP119 T02500094,M
WMC,2023-06-16 07:56,-117.8072,40.9019,1315.00,56.00,35.00,45.40,50.00,6.00,0.00,30.12,1016.50,10.00,M,CLR,M,M,M,M,M,M,M,M,M,M,M,M,M,M,55.90,KWMC 160756Z AUTO 05006KT 10SM CLR 13/02 A3012 RMK AO2 SLP165 T01330017 402330072,M
05U,2023-06-16 08:10,-116.0051,39.6042,1811.23,39.20,33.80,80.79,60.00,4.00,0.00,30.17,M,10.00,M,CLR,M,M,M,M,M,M,M,M,M,M,M,M,M,M,35.83,K05U 160810Z AUTO 06004KT 10SM CLR 04/01 A3017 RMK A01,M
BVU,2023-06-16 08:15,-114.8611,35.9475,671.00,78.80,50.00,36.51,20.00,8.00,0.00,29.88,M,10.00,M,BKN,M,M,M,11000.00,M,M,M,M,M,M,M,M,M,M,78.80,KBVU 160815Z AUTO 02008KT 10SM BKN110 26/10 A2988 RMK AO2,M
CXP,2023-06-16 08:15,-119.7326,39.1923,1431.00,53.60,35.60,50.36,0.00,0.00,0.00,30.14,M,10.00,M,CLR,M,M,M,M,M,M,M,M,M,M,M,M,M,M,53.60,KCXP 160815Z AUTO 00000KT 10SM CLR 12/02 A3014 RMK AO2,M
RTS,2023-06-16 08:15,-119.8764,39.6682,1539.00,48.20,35.60,61.52,360.00,6.00,0.00,30.15,M,10.00,M,CLR,M,M,M,M,M,M,M,M,M,M,M,M,M,M,45.04,KRTS 160815Z AUTO 36006KT 10SM CLR 09/02 A3015 RMK AO2,M
MEV,2023-06-16 08:15,-119.7500,38.9963,1441.42,50.00,37.40,61.76,20.00,3.00,0.00,30.12,M,10.00,M,FEW,FEW,M,M,6000.00,7000.00,M,M,M,M,M,M,M,M,M,50.00,KMEV 160815Z AUTO 02003KT 10SM FEW060 FEW070 10/03 A3012 RMK AO2,M
BAM,2023-06-16 08:15,-116.8743,40.5990,1382.36,51.80,33.80,50.08,0.00,0.00,0.00,30.13,M,10.00,M,CLR,M,M,M,M,M,M,M,M,M,M,M,M,M,M,51.80,KBAM 160815Z AUTO 00000KT 10SM CLR 11/01 A3013 RMK AO1,M
HTH,2023-06-16 08:15,-118.6315,38.5448,1282.89,62.60,24.80,23.50,340.00,10.00,0.00,30.08,M,10.00,M,CLR,M,M,M,M,M,M,M,M,M,M,M,M,M,M,62.60,KHTH 160815Z AUTO 34010KT 10SM CLR 17/M04 A3008 RMK A01,M
TMT,2023-06-16 08:15,-117.1971,39.4643,1749.34,45.50,32.50,60.18,0.00,0.00,0.00,30.16,M,10.00,M,CLR,M,M,M,M,M,M,M,M,M,M,M,M,M,M,45.50,KTMT 160815Z AUTO 00000KT 10SM CLR 08/00 A3016 RMK AO2 T00750003,M
INS,2023-06-16 08:20,-115.6733,36.5872,955.00,64.40,51.80,63.60,130.00,18.00,0.00,29.95,1009.70,10.00,M,SCT,OVC,M,M,7000.00,8000.00,M,M,M,M,M,M,M,M,M,64.40,KINS 160820Z AUTO 13018KT 10SM SCT070 OVC080 18/11 A2995 RMK AO2 RAE20 SLP097 $,M
INS,2023-06-16 08:23,-115.6733,36.5872,955.00,64.40,51.80,63.60,130.00,22.00,0.00,29.93,1009.00,10.00,27.00,OVC,M,M,M,7500.00,M,M,M,-RA,M,M,M,M,M,M,64.40,KINS 160823Z AUTO 13022G27KT 10SM -RA OVC075 18/11 A2993 RMK AO2 RAE20RAB23 PRESFR SLP090 $,M
05U,2023-06-16 08:30,-116.0051,39.6042,1811.23,37.40,33.80,86.69,M,3.00,0.00,30.17,M,10.00,M,CLR,M,M,M,M,M,M,M,M,M,M,M,M,M,M,34.86,K05U 160830Z AUTO VRB03KT 10SM CLR 03/01 A3017 RMK A01,M
BVU,2023-06-16 08:35,-114.8611,35.9475,671.00,78.80,48.20,34.13,350.00,8.00,0.00,29.89,M,10.00,M,OVC,M,M,M,11000.00,M,M,M,M,M,M,M,M,M,M,78.80,KBVU 160835Z AUTO 35008KT 10SM OVC110 26/09 A2989 RMK AO2,M
CXP,2023-06-16 08:35,-119.7326,39.1923,1431.00,53.60,33.80,46.88,0.00,0.00,0.00,30.14,M,10.00,M,CLR,M,M,M,M,M,M,M,M,M,M,M,M,M,M,53.60,KCXP 160835Z AUTO 00000KT 10SM CLR 12/01 A3014 RMK AO2,M
INS,2023-06-16 08:35,-115.6733,36.5872,955.00,64.40,51.80,63.60,130.00,24.00,0.00,29.91,1008.30,8.00,31.00,FEW,OVC,M,M,400.00,8000.00,M,M,M,M,M,M,M,M,M,64.40,KINS 160835Z AUTO 13024G31KT 8SM FEW004 OVC080 18/11 A2991 RMK AO2 RAE20RAB23E35 PRESFR SLP083 $,M
RTS,2023-06-16 08:35,-119.8764,39.6682,1539.00,48.20,35.60,61.52,0.00,0.00,0.00,30.16,M,10.00,M,CLR,M,M,M,M,M,M,M,M,M,M,M,M,M,M,48.20,KRTS 160835Z AUTO 00000KT 10SM CLR 09/02 A3016 RMK AO2,M
MEV,2023-06-16 08:35,-119.7500,38.9963,1441.42,50.00,37.40,61.76,20.00,4.00,0.00,30.12,M,10.00,M,FEW,FEW,FEW,M,5000.00,6000.00,7000.00,M,M,M,M,M,M,M,M,50.00,KMEV 160835Z AUTO 02004KT 10SM FEW050 FEW060 FEW070 10/03 A3012 RMK AO2,M
BAM,2023-06-16 08:35,-116.8743,40.5990,1382.36,51.80,33.80,50.08,0.00,0.00,0.00,30.13,M,10.00,M,CLR,M,M,M,M,M,M,M,M,M,M,M,M,M,M,51.80,KBAM 160835Z AUTO 00000KT 10SM CLR 11/01 A3013 RMK AO1,M
HTH,2023-06-16 08:35,-118.6315,38.5448,1282.89,60.80,24.80,25.04,340.00,8.00,0.00,30.09,M,10.00,M,CLR,M,M,M,M,M,M,M,M,M,M,M,M,M,M,60.80,KHTH 160835Z AUTO 34008KT 10SM CLR 16/M04 A3009 RMK A01,M
TMT,2023-06-16 08:35,-117.1971,39.4643,1749.34,44.80,32.50,61.80,20.00,4.00,0.00,30.16,M,10.00,M,CLR,M,M,M,M,M,M,M,M,M,M,M,M,M,M,42.37,KTMT 160835Z AUTO 02004KT 10SM CLR 07/00 A3016 RMK AO2 T00710003,M
INS,2023-06-16 08:39,-115.6733,36.5872,955.00,64.40,51.80,63.60,130.00,23.00,0.00,29.92,1008.70,8.00,31.00,FEW,FEW,BKN,OVC,600.00,5500.00,7000.00,8500.00,-RA,M,M,M,M,M,M,64.40,KINS 160839Z AUTO 13023G31KT 8SM -RA FEW006 FEW055 BKN070 OVC085 18/11 A2992 RMK AO2 RAE20RAB23E35RAB39 SLP087 $,M
05U,2023-06-16 08:50,-116.0051,39.6042,1811.23,37.40,33.80,86.69,M,M,0.00,30.17,M,10.00,M,CLR,M,M,M,M,M,M,M,M,M,M,M,M,M,M,M,K05U 160850Z AUTO 10SM CLR 03/01 A3017 RMK A01,M
P68,2023-06-16 08:53,-116.0056,39.6014,1993.00,38.00,34.00,85.69,0.00,0.00,0.00,30.15,1015.90,M,M,M,M,M,M,M,M,M,M,M,M,M,M,M,M,M,37.90,KP68 160853Z AUTO 00000KT 03/01 A3015 RMK AO1 SLP159 T00330011 51001,M
LOL,2023-06-16 08:53,-118.5701,40.0684,1192.43,58.00,M,M,20.00,9.00,0.00,30.09,1015.90,10.00,M,CLR,M,M,M,M,M,M,M,M,M,M,M,M,M,M,M,KLOL 160853Z AUTO 02009KT 10SM CLR 14/ A3009 RMK AO2 SLP159 T0144 51007 $,M
DRA,2023-06-16 08:53,-116.0278,36.6206,1009.00,68.00,51.00,54.70,290.00,9.00,0.00,29.94,1009.00,10.00,M,FEW,BKN,OVC,M,7000.00,9000.00,11000.00,M,M,M,M,M,M,M,M,68.00,KDRA 160853Z AUTO 29009KT 10SM FEW070 BKN090 OVC110 20/11 A2994 RMK AO2 SLP090 T02000106 53009,M
ELY,2023-06-16 08:53,-114.8453,39.2950,1909.00,42.00,35.00,76.04,160.00,3.00,0.00,30.15,1014.30,10.00,M,CLR,M,M,M,M,M,M,M,M,M,M,M,M,M,M,40.23,KELY 160853Z AUTO 16003KT 10SM CLR 06/02 A3015 RMK AO2 SLP143 T00560017 51003,M
VGT,2023-06-16 08:53,-115.1933,36.2111,667.00,76.00,51.00,41.86,320.00,23.00,0.00,29.90,1011.60,10.00,30.00,OVC,M,M,M,10000.00,M,M,M,M,M,M,M,32.00,300.00,2023-06-16 08:40,75.90,KVGT 160853Z AUTO 32023G30KT 10SM OVC100 24/11 A2990 RMK AO2 PK WND 30032/0840 SLP116 T02440106 53010,M
BVU,2023-06-16 08:55,-114.8611,35.9475,671.00,77.00,48.20,36.22,340.00,12.00,0.00,29.89,M,10.00,M,OVC,M,M,M,11000.00,M,M,M,M,M,M,M,M,M,M,77.00,KBVU 160855Z AUTO 34012KT 10SM OVC110 25/09 A2989 RMK AO2,M
CXP,2023-06-16 08:55,-119.7326,39.1923,1431.00,53.60,32.00,43.61,0.00,0.00,0.00,30.14,M,10.00,M,CLR,M,M,M,M,M,M,M,M,M,M,M,M,M,M,53.60,KCXP 160855Z AUTO 00000KT 10SM CLR 12/00 A3014 RMK AO2,M
RNO,2023-06-16 08:55,-119.7711,39.4839,1341.00,58.00,34.00,40.43,180.00,3.00,0.00,30.12,1015.20,10.00,M,FEW,M,M,M,25000.00,M,M,M,M,M,M,M,M,M,M,57.90,KRNO 160855Z 18003KT 10SM FEW250 14/01 A3012 RMK AO2 SLP152 T01440011 51009,M
RTS,2023-06-16 08:55,-119.8764,39.6682,1539.00,51.80,32.00,46.59,90.00,4.00,0.00,30.16,M,10.00,M,CLR,M,M,M,M,M,M,M,M,M,M,M,M,M,M,51.80,KRTS 160855Z AUTO 09004KT 10SM CLR 11/00 A3016 RMK AO2,M
MEV,2023-06-16 08:55,-119.7500,38.9963,1441.42,46.40,35.60,65.83,0.00,0.00,0.00,30.13,M,10.00,M,FEW,FEW,M,M,5500.00,7000.00,M,M,M,M,M,M,M,M,M,46.40,KMEV 160855Z AUTO 00000KT 10SM FEW055 FEW070 08/02 A3013 RMK AO2,M
BAM,2023-06-16 08:55,-116.8743,40.5990,1382.36,51.80,33.80,50.08,0.00,0.00,0.00,30.14,M,10.00,M,CLR,M,M,M,M,M,M,M,M,M,M,M,M,M,M,51.80,KBAM 160855Z AUTO 00000KT 10SM CLR 11/01 A3014 RMK AO1,M
HTH,2023-06-16 08:55,-118.6315,38.5448,1282.89,59.00,26.60,28.77,360.00,7.00,0.00,30.09,M,10.00,M,CLR,M,M,M,M,M,M,M,M,M,M,M,M,M,M,59.00,KHTH 160855Z AUTO 36007KT 10SM CLR 15/M03 A3009 RMK A01,M
INS,2023-06-16 08:55,-115.6733,36.5872,955.00,65.30,49.60,56.81,120.00,24.00,0.07,29.93,1009.00,10.00,37.00,FEW,BKN,OVC,M,400.00,6000.00,8500.00,M,-RA,M,M,M,40.00,160.00,2023-06-16 08:31,65.30,KINS 160855Z AUTO 12024G37KT 10SM -RA FEW004 BKN060 OVC085 19/10 A2993 RMK AO2 PK WND 16040/31 RAE20RAB23E35RAB39 SLP090 P0007 60023 T01850098 58010 $,M
LSV,2023-06-16 08:55,-115.0343,36.2362,570.00,75.40,52.50,44.82,260.00,25.00,0.00,29.86,1008.60,10.00,32.00,OVC,M,M,M,11000.00,M,M,M,M,M,M,M,32.00,260.00,2023-06-16 08:48,75.40,KLSV 160855Z AUTO 26025G32KT 10SM OVC110 24/11 A2986 RMK AO2 PK WND 26032/48 SLP086 T02410114 51007 $,M
TMT,2023-06-16 08:55,-117.1971,39.4643,1749.34,40.00,32.50,74.05,0.00,0.00,0.00,30.17,M,10.00,M,CLR,M,M,M,M,M,M,M,M,M,M,M,M,M,M,40.10,KTMT 160855Z AUTO 00000KT 10SM CLR 05/00 A3017 RMK AO2 T00450003,M
EKO,2023-06-16 08:56,-115.7860,40.8242,1367.00,48.00,37.00,65.51,0.00,0.00,M,30.14,1017.50,10.00,M,CLR,M,M,M,M,M,M,M,M,M,M,M,M,M,M,48.00,METAR KEKO 160856Z 00000KT 10SM CLR 09/03 A3014 RMK AO2 SLP175 T00890028 53006 TSNO FIBI,M
TPH,2023-06-16 08:56,-117.0904,38.0505,1654.00,54.00,M,M,340.00,8.00,0.00,30.09,1012.80,10.00,M,CLR,M,M,M,M,M,M,M,M,M,M,M,M,M,M,M,KTPH 160856Z AUTO 34008KT 10SM CLR 12/ A3009 RMK AO2 SLP128 T0122 53008 $,M
NFL,2023-06-16 08:56,-118.7010,39.4166,1199.00,52.00,33.00,48.34,10.00,4.00,0.00,30.08,1015.40,10.00,M,CLR,M,M,M,M,M,M,M,M,M,M,M,M,M,M,52.00,KNFL 160856Z AUTO 01004KT 10SM CLR 11/01 A3008 RMK AO2 SLP154 T01110006 53008,M
WMC,2023-06-16 08:56,-117.8072,40.9019,1315.00,49.00,35.00,58.75,350.00,4.00,0.00,30.12,1017.10,10.00,M,CLR,M,M,M,M,M,M,M,M,M,M,M,M,M,M,47.16,KWMC 160856Z AUTO 35004KT 10SM CLR 09/02 A3012 RMK AO2 SLP171 T00940017 51005,M
HND,2023-06-16 08:56,-115.1344,35.9729,742.79,76.00,49.00,38.57,350.00,12.00,0.00,29.94,1012.50,10.00,M,OVC,M,M,M,10000.00,M,M,M,M,M,M,M,M,M,M,75.90,KHND 160856Z AUTO 35012KT 10SM OVC100 24/09 A2994 RMK AO2 SLP125 T02440094 53010,M
LAS,2023-06-16 08:56,-115.1634,36.0719,663.00,76.00,49.00,38.57,340.00,16.00,0.00,29.91,1010.10,10.00,23.00,OVC,M,M,M,10000.00,M,M,M,M,M,M,M,27.00,320.00,2023-06-16 08:27,75.90,KLAS 160856Z 34016G23KT 10SM OVC100 24/09 A2991 RMK AO2 PK WND 32027/0827 SLP101 T02440094 53008,M
05U,2023-06-16 09:10,-116.0051,39.6042,1811.23,37.40,33.80,86.69,0.00,0.00,0.00,30.17,M,10.00,M,CLR,M,M,M,M,M,M,M,M,M,M,M,M,M,M,37.40,K05U 160910Z AUTO 00000KT 10SM CLR 03/01 A3017 RMK A01,M
BAM,2023-06-16 09:10,-116.8743,40.5990,1382.36,50.00,33.80,53.54,0.00,0.00,0.00,30.14,M,10.00,M,CLR,M,M,M,M,M,M,M,M,M,M,M,M,M,M,50.00,KBAM 160910Z AUTO 00000KT 10SM CLR 10/01 A3014 RMK AO1,M
BVU,2023-06-16 09:15,-114.8611,35.9475,671.00,77.00,48.20,36.22,330.00,16.00,0.00,29.89,M,10.00,23.00,FEW,SCT,OVC,M,2700.00,5000.00,11000.00,M,M,M,M,M,M,M,M,77.00,KBVU 160915Z AUTO 33016G23KT 10SM FEW027 SCT050 OVC110 25/09 A2989 RMK AO2,M
CXP,2023-06-16 09:15,-119.7326,39.1923,1431.00,51.80,33.80,50.08,0.00,0.00,0.00,30.15,M,10.00,M,CLR,M,M,M,M,M,M,M,M,M,M,M,M,M,M,51.80,KCXP 160915Z AUTO 00000KT 10SM CLR 11/01 A3015 RMK AO2,M
LSV,2023-06-16 09:15,-115.0343,36.2362,570.00,73.40,53.60,49.90,270.00,25.00,0.00,29.86,1008.60,10.00,36.00,OVC,M,M,M,10000.00,M,M,M,M,M,M,M,M,M,M,73.40,KLSV 160915Z 27025G36KT 10SM OVC100 23/12 A2986 RMK SLP086 $,M
RTS,2023-06-16 09:15,-119.8764,39.6682,1539.00,50.00,35.60,57.52,0.00,0.00,0.00,30.15,M,10.00,M,CLR,M,M,M,M,M,M,M,M,M,M,M,M,M,M,50.00,KRTS 160915Z AUTO 00000KT 10SM CLR 10/02 A3015 RMK AO2,M
MEV,2023-06-16 09:15,-119.7500,38.9963,1441.42,42.80,35.60,75.50,0.00,0.00,0.00,30.13,M,10.00,M,FEW,FEW,SCT,M,3400.00,4400.00,6000.00,M,M,M,M,M,M,M,M,42.80,KMEV 160915Z AUTO 00000KT 10SM FEW034 FEW044 SCT060 06/02 A3013 RMK AO2,M
HTH,2023-06-16 09:15,-118.6315,38.5448,1282.89,59.00,28.40,30.98,0.00,0.00,0.00,30.10,M,10.00,M,CLR,M,M,M,M,M,M,M,M,M,M,M,M,M,M,59.00,KHTH 160915Z AUTO 00000KT 10SM CLR 15/M02 A3010 RMK A01,M
INS,2023-06-16 09:16,-115.6733,36.5872,955.00,64.40,48.20,55.63,190.00,15.00,0.00,29.97,1010.40,10.00,20.00,SCT,SCT,OVC,M,3400.00,6500.00,9500.00,M,-RA,M,M,M,M,M,M,64.40,KINS 160916Z AUTO 19015G20KT 10SM -RA SCT034 SCT065 OVC095 18/09 A2997 RMK AO2 WSHFT 12 PRESRR SLP104 $,M
INS,2023-06-16 09:21,-115.6733,36.5872,955.00,66.20,48.20,52.25,170.00,12.00,0.00,29.98,1010.80,10.00,20.00,SCT,SCT,BKN,OVC,3400.00,4400.00,6000.00,10000.00,M,M,M,M,M,M,M,66.20,KINS 160921Z AUTO 17012G20KT 10SM SCT034 SCT044 BKN060 OVC100 19/09 A2998 RMK AO2 RAE21 SLP108 $,M
INS,2023-06-16 09:25,-115.6733,36.5872,955.00,66.20,50.00,55.88,150.00,15.00,0.00,29.97,1010.40,10.00,M,SCT,SCT,BKN,OVC,3400.00,4300.00,6000.00,9500.00,-RA,M,M,M,M,M,M,66.20,KINS 160925Z AUTO 15015KT 10SM -RA SCT034 SCT043 BKN060 OVC095 19/10 A2997 RMK AO2 RAE21RAB25 SLP104 $,M
05U,2023-06-16 09:30,-116.0051,39.6042,1811.23,37.40,32.00,80.65,60.00,5.00,0.00,30.18,M,10.00,M,CLR,M,M,M,M,M,M,M,M,M,M,M,M,M,M,32.81,K05U 160930Z AUTO 06005KT 10SM CLR 03/00 A3018 RMK A01,M
BVU,2023-06-16 09:35,-114.8611,35.9475,671.00,75.20,50.00,41.14,330.00,25.00,0.00,29.89,M,10.00,M,FEW,FEW,BKN,M,5500.00,6500.00,12000.00,M,M,M,M,M,M,M,M,75.20,KBVU 160935Z AUTO 33025KT 10SM FEW055 FEW065 BKN120 24/10 A2989 RMK AO2,M
CXP,2023-06-16 09:35,-119.7326,39.1923,1431.00,51.80,35.60,53.81,0.00,0.00,0.00,30.15,M,10.00,M,CLR,M,M,M,M,M,M,M,M,M,M,M,M,M,M,51.80,KCXP 160935Z AUTO 00000KT 10SM CLR 11/02 A3015 RMK AO2,M
RTS,2023-06-16 09:35,-119.8764,39.6682,1539.00,42.80,37.40,81.07,0.00,0.00,0.00,30.16,M,10.00,M,CLR,M,M,M,M,M,M,M,M,M,M,M,M,M,M,42.80,KRTS 160935Z AUTO 00000KT 10SM CLR 06/03 A3016 RMK AO2,M
MEV,2023-06-16 09:35,-119.7500,38.9963,1441.42,46.40,33.80,61.28,0.00,0.00,0.00,30.13,M,10.00,M,FEW,FEW,SCT,M,3700.00,4400.00,6000.00,M,M,M,M,M,M,M,M,46.40,KMEV 160935Z AUTO 00000KT 10SM FEW037 FEW044 SCT060 08/01 A3013 RMK AO2,M
BAM,2023-06-16 09:35,-116.8743,40.5990,1382.36,53.60,37.40,54.07,350.00,6.00,0.00,30.14,M,10.00,M,CLR,M,M,M,M,M,M,M,M,M,M,M,M,M,M,53.60,KBAM 160935Z AUTO 35006KT 10SM CLR 12/03 A3014 RMK AO1,M
HTH,2023-06-16 09:35,-118.6315,38.5448,1282.89,57.20,32.00,38.26,220.00,5.00,0.00,30.10,M,10.00,M,CLR,M,M,M,M,M,M,M,M,M,M,M,M,M,M,57.20,KHTH 160935Z AUTO 22005KT 10SM CLR 14/00 A3010 RMK A01,M
TMT,2023-06-16 09:35,-117.1971,39.4643,1749.34,39.00,33.00,78.54,210.00,5.00,0.00,30.18,M,10.00,M,CLR,M,M,M,M,M,M,M,M,M,M,M,M,M,M,34.71,KTMT 160935Z AUTO 21005KT 10SM CLR 04/01 A3018 RMK AO2 T00390005,M
05U,2023-06-16 09:50,-116.0051,39.6042,1811.23,39.20,32.00,75.16,20.00,5.00,0.00,30.18,M,10.00,M,CLR,M,M,M,M,M,M,M,M,M,M,M,M,M,M,34.95,K05U 160950Z AUTO 02005KT 10SM CLR 04/00 A3018 RMK A01,M
P68,2023-06-16 09:53,-116.0056,39.6014,1993.00,39.00,32.00,75.75,180.00,4.00,0.00,30.15,1015.70,M,M,M,M,M,M,M,M,M,M,M,M,M,M,M,M,M,35.59,KP68 160953Z AUTO 18004KT 04/00 A3015 RMK AO1 SLP157 T00390000,M
DRA,2023-06-16 09:53,-116.0278,36.6206,1009.00,68.00,52.00,56.55,0.00,0.00,0.00,29.95,1009.50,10.00,M,BKN,M,M,M,10000.00,M,M,M,M,M,M,M,M,M,M,68.00,KDRA 160953Z AUTO 00000KT 10SM BKN100 20/11 A2995 RMK AO2 SLP095 T02000111,M
ELY,2023-06-16 09:53,-114.8453,39.2950,1909.00,45.00,32.00,60.11,50.00,9.00,0.00,30.15,1013.70,10.00,M,CLR,M,M,M,M,M,M,M,M,M,M,M,M,M,M,39.68,KELY 160953Z AUTO 05009KT 10SM CLR 07/00 A3015 RMK AO2 SLP137 T00720000,M
VGT,2023-06-16 09:53,-115.1933,36.2111,667.00,71.00,54.00,54.73,320.00,23.00,T,29.91,1011.90,10.00,35.00,OVC,M,M,M,10000.00,M,M,M,-RA,M,M,M,35.00,320.00,2023-06-16 09:53,71.10,KVGT 160953Z AUTO 32023G35KT 10SM -RA OVC100 22/12 A2991 RMK AO2 PK WND 32035/0953 RAB0854 SLP119 P0000 T02170122,M
LOL,2023-06-16 09:53,-118.5701,40.0684,1192.43,57.00,M,M,20.00,8.00,0.00,30.09,1016.60,10.00,M,CLR,M,M,M,M,M,M,M,M,M,M,M,M,M,M,M,KLOL 160953Z AUTO 02008KT 10SM CLR 14/ A3009 RMK AO2 SLP166 T0139 $,M
BVU,2023-06-16 09:55,-114.8611,35.9475,671.00,73.40,50.00,43.69,330.00,16.00,0.00,29.90,M,10.00,25.00,BKN,M,M,M,12000.00,M,M,M,M,M,M,M,M,M,M,73.40,KBVU 160955Z AUTO 33016G25KT 10SM BKN120 23/10 A2990 RMK AO2,M
CXP,2023-06-16 09:55,-119.7326,39.1923,1431.00,50.00,35.60,57.52,0.00,0.00,0.00,30.15,M,10.00,M,CLR,M,M,M,M,M,M,M,M,M,M,M,M,M,M,50.00,KCXP 160955Z AUTO 00000KT 10SM CLR 10/02 A3015 RMK AO2,M
INS,2023-06-16 09:55,-115.6733,36.5872,955.00,62.40,50.50,65.02,140.00,19.00,0.06,29.98,1010.90,10.00,M,SCT,OVC,M,M,400.00,8000.00,M,M,-RA,M,M,M,M,M,M,62.40,KINS 160955Z AUTO 14019KT 10SM -RA SCT004 OVC080 17/10 A2998 RMK AO2 RAE21RAB25 SLP109 P0006 T01690103 $,M
RTS,2023-06-16 09:55,-119.8764,39.6682,1539.00,44.60,35.60,70.48,340.00,5.00,0.00,30.16,M,10.00,M,CLR,M,M,M,M,M,M,M,M,M,M,M,M,M,M,41.36,KRTS 160955Z AUTO 34005KT 10SM CLR 07/02 A3016 RMK AO2,M
MEV,2023-06-16 09:55,-119.7500,38.9963,1441.42,41.00,35.60,80.93,180.00,5.00,0.00,30.13,M,10.00,M,FEW,FEW,FEW,M,3900.00,5500.00,6500.00,M,M,M,M,M,M,M,M,37.08,KMEV 160955Z AUTO 18005KT 10SM FEW039 FEW055 FEW065 05/02 A3013 RMK AO2,M
BAM,2023-06-16 09:55,-116.8743,40.5990,1382.36,46.40,32.00,57.00,90.00,4.00,0.00,30.15,M,10.00,M,CLR,M,M,M,M,M,M,M,M,M,M,M,M,M,M,44.24,KBAM 160955Z AUTO 09004KT 10SM CLR 08/00 A3015 RMK AO1,M
HTH,2023-06-16 09:55,-118.6315,38.5448,1282.89,60.80,26.60,26.98,M,5.00,0.00,30.11,M,10.00,M,CLR,M,M,M,M,M,M,M,M,M,M,M,M,M,M,60.80,KHTH 160955Z AUTO VRB05KT 10SM CLR 16/M03 A3011 RMK A01,M
TMT,2023-06-16 09:55,-117.1971,39.4643,1749.34,38.30,34.20,85.03,200.00,4.00,0.00,30.18,M,10.00,M,CLR,M,M,M,M,M,M,M,M,M,M,M,M,M,M,34.78,KTMT 160955Z AUTO 20004KT 10SM CLR 04/01 A3018 RMK AO2 T00350012,M
LSV,2023-06-16 09:55,-115.0343,36.2362,570.00,73.00,52.70,48.94,270.00,21.00,0.00,29.88,1009.30,10.00,30.00,OVC,M,M,M,9500.00,M,M,M,M,M,M,M,36.00,270.00,2023-06-16 09:13,73.00,KLSV 160955Z AUTO 27021G30KT 10SM OVC095 23/12 A2988 RMK AO2 PK WND 27036/13 SLP093 T02280115 $,M
RNO,2023-06-16 09:55,-119.7711,39.4839,1341.00,55.00,35.00,46.91,0.00,0.00,0.00,30.12,1015.60,8.00,M,CLR,M,M,M,M,M,M,M,M,M,M,M,M,M,M,55.00,KRNO 160955Z 00000KT 8SM CLR 13/02 A3012 RMK AO2 SLP156 T01280017,M
EKO,2023-06-16 09:56,-115.7860,40.8242,1367.00,45.00,39.00,79.36,200.00,2.92,M,30.15,1017.90,10.00,M,CLR,M,M,M,M,M,M,M,M,M,M,M,M,M,M,43.64,METAR KEKO 160956Z 20003KT 10SM CLR 07/04 A3015 RMK AO2 SLP179 T00720039 TSNO FIBI,M
HND,2023-06-16 09:56,-115.1344,35.9729,742.79,73.00,50.00,44.29,330.00,10.00,0.00,29.96,1013.30,10.00,19.00,OVC,M,M,M,10000.00,M,M,M,M,M,M,M,M,M,M,73.00,KHND 160956Z AUTO 33010G19KT 10SM OVC100 23/10 A2996 RMK AO2 SLP133 T02280100,M
TPH,2023-06-16 09:56,-117.0904,38.0505,1654.00,53.00,M,M,360.00,13.00,0.00,30.10,1012.90,10.00,M,CLR,M,M,M,M,M,M,M,M,M,M,M,M,M,M,M,KTPH 160956Z AUTO 36013KT 10SM CLR 12/ A3010 RMK AO2 SLP129 T0117 $,M
NFL,2023-06-16 09:56,-118.7010,39.4166,1199.00,52.00,35.00,52.36,340.00,3.00,0.00,30.09,1015.50,10.00,M,CLR,M,M,M,M,M,M,M,M,M,M,M,M,M,M,52.00,KNFL 160956Z AUTO 34003KT 10SM CLR 11/02 A3009 RMK AO2 SLP155 T01110017,M
LAS,2023-06-16 09:56,-115.1634,36.0719,663.00,72.00,53.00,51.37,330.00,19.00,T,29.92,1010.70,10.00,28.00,OVC,M,M,M,10000.00,M,M,M,-RA,M,M,M,32.00,340.00,2023-06-16 09:06,72.00,KLAS 160956Z 33019G28KT 10SM -RA OVC100 22/12 A2992 RMK AO2 PK WND 34032/0906 RAB55 SLP107 P0000 T02220117,M
WMC,2023-06-16 09:56,-117.8072,40.9019,1315.00,47.00,35.00,63.33,290.00,5.00,0.00,30.13,1017.20,10.00,M,CLR,M,M,M,M,M,M,M,M,M,M,M,M,M,M,44.09,KWMC 160956Z AUTO 29005KT 10SM CLR 08/02 A3013 RMK AO2 SLP172 T00830017,M
INS,2023-06-16 09:57,-115.6733,36.5872,955.00,62.60,50.00,63.38,130.00,20.00,0.00,29.98,1010.90,10.00,M,FEW,OVC,M,M,400.00,8000.00,M,M,M,M,M,M,M,M,M,62.60,KINS 160957Z AUTO 13020KT 10SM FEW004 OVC080 17/10 A2998 RMK AO2 RAE57 SLP109 $,M
INS,2023-06-16 10:03,-115.6733,36.5872,955.00,62.60,50.00,63.38,130.00,19.00,0.00,29.98,1010.90,10.00,M,FEW,OVC,M,M,400.00,8500.00,M,M,-RA,M,M,M,M,M,M,62.60,KINS 161003Z AUTO 13019KT 10SM -RA FEW004 OVC085 17/10 A2998 RMK AO2 RAE0957RAB03 SLP109 $,M
INS,2023-06-16 10:10,-115.6733,36.5872,955.00,62.60,50.00,63.38,140.00,15.00,0.00,29.98,1010.90,10.00,M,FEW,OVC,M,M,400.00,8500.00,M,M,M,M,M,M,M,M,M,62.60,KINS 161010Z AUTO 14015KT 10SM FEW004 OVC085 17/10 A2998 RMK AO2 RAE0957RAB03E10 SLP109 $,M
05U,2023-06-16 10:10,-116.0051,39.6042,1811.23,37.40,32.00,80.65,M,4.00,0.00,30.18,M,10.00,M,CLR,M,M,M,M,M,M,M,M,M,M,M,M,M,M,33.73,K05U 161010Z AUTO VRB04KT 10SM CLR 03/00 A3018 RMK A01,M
BVU,2023-06-16 10:15,-114.8611,35.9475,671.00,73.40,50.00,43.69,330.00,18.00,0.00,29.91,M,10.00,27.00,BKN,M,M,M,12000.00,M,M,M,M,M,M,M,M,M,M,73.40,KBVU 161015Z AUTO 33018G27KT 10SM BKN120 23/10 A2991 RMK AO2,M
CXP,2023-06-16 10:15,-119.7326,39.1923,1431.00,50.00,35.60,57.52,0.00,0.00,0.00,30.15,M,10.00,M,CLR,M,M,M,M,M,M,M,M,M,M,M,M,M,M,50.00,KCXP 161015Z AUTO 00000KT 10SM CLR 10/02 A3015 RMK AO2,M
RTS,2023-06-16 10:15,-119.8764,39.6682,1539.00,44.60,35.60,70.48,10.00,5.00,0.00,30.16,M,10.00,M,CLR,M,M,M,M,M,M,M,M,M,M,M,M,M,M,41.36,KRTS 161015Z AUTO 01005KT 10SM CLR 07/02 A3016 RMK AO2,M
MEV,2023-06-16 10:15,-119.7500,38.9963,1441.42,41.00,37.40,86.89,0.00,0.00,0.00,30.14,M,10.00,M,FEW,SCT,BKN,M,3600.00,4100.00,6000.00,M,M,M,M,M,M,M,M,41.00,KMEV 161015Z AUTO 00000KT 10SM FEW036 SCT041 BKN060 05/03 A3014 RMK AO2,M
BAM,2023-06-16 10:15,-116.8743,40.5990,1382.36,42.80,32.00,65.38,130.00,4.00,0.00,30.15,M,10.00,M,CLR,M,M,M,M,M,M,M,M,M,M,M,M,M,M,40.03,KBAM 161015Z AUTO 13004KT 10SM CLR 06/00 A3015 RMK AO1,M
HTH,2023-06-16 10:15,-118.6315,38.5448,1282.89,60.80,30.20,31.28,310.00,5.00,0.00,30.11,M,10.00,M,CLR,M,M,M,M,M,M,M,M,M,M,M,M,M,M,60.80,KHTH 161015Z AUTO 31005KT 10SM CLR 16/M01 A3011 RMK A01,M
TMT,2023-06-16 10:15,-117.1971,39.4643,1749.34,36.70,32.00,82.91,200.00,3.00,0.00,30.18,M,10.00,M,CLR,M,M,M,M,M,M,M,M,M,M,M,M,M,M,34.06,KTMT 161015Z AUTO 20003KT 10SM CLR 03/00 A3018 RMK AO2 T00260000,M
INS,2023-06-16 10:16,-115.6733,36.5872,955.00,62.60,50.00,63.38,130.00,17.00,0.00,29.98,1010.90,10.00,M,FEW,OVC,M,M,400.00,8500.00,M,M,-RA,M,M,M,M,M,M,62.60,KINS 161016Z AUTO 13017KT 10SM -RA FEW004 OVC085 17/10 A2998 RMK AO2 RAE0957RAB03E10RAB16 SLP109 $,M
05U,2023-06-16 10:30,-116.0051,39.6042,1811.23,37.40,32.00,80.65,0.00,0.00,0.00,30.19,M,10.00,M,CLR,M,M,M,M,M,M,M,M,M,M,M,M,M,M,37.40,K05U 161030Z AUTO 00000KT 10SM CLR 03/M00 A3019 RMK A01,M
BVU,2023-06-16 10:35,-114.8611,35.9475,671.00,71.60,50.00,46.43,320.00,23.00,0.00,29.91,M,10.00,31.00,OVC,M,M,M,12000.00,M,M,M,M,M,M,M,M,M,M,71.60,KBVU 161035Z AUTO 32023G31KT 10SM OVC120 22/10 A2991 RMK AO2,M
CXP,2023-06-16 10:35,-119.7326,39.1923,1431.00,50.00,33.80,53.54,60.00,3.00,0.00,30.15,M,10.00,M,CLR,M,M,M,M,M,M,M,M,M,M,M,M,M,M,50.00,KCXP 161035Z AUTO 06003KT 10SM CLR 10/01 A3015 RMK AO2,M
RTS,2023-06-16 10:35,-119.8764,39.6682,1539.00,42.80,35.60,75.50,290.00,4.00,0.00,30.16,M,10.00,M,CLR,M,M,M,M,M,M,M,M,M,M,M,M,M,M,40.03,KRTS 161035Z AUTO 29004KT 10SM CLR 06/02 A3016 RMK AO2,M
MEV,2023-06-16 10:35,-119.7500,38.9963,1441.42,42.80,35.60,75.50,110.00,4.00,0.00,30.14,M,10.00,M,FEW,SCT,SCT,M,3500.00,4100.00,4600.00,M,M,M,M,M,M,M,M,40.03,KMEV 161035Z AUTO 11004KT 10SM FEW035 SCT041 SCT046 06/02 A3014 RMK AO2,M
BAM,2023-06-16 10:35,-116.8743,40.5990,1382.36,44.60,32.00,61.03,0.00,0.00,0.00,30.15,M,10.00,M,CLR,M,M,M,M,M,M,M,M,M,M,M,M,M,M,44.60,KBAM 161035Z AUTO 00000KT 10SM CLR 07/00 A3015 RMK AO1,M
HTH,2023-06-16 10:35,-118.6315,38.5448,1282.89,59.00,26.60,28.77,320.00,6.00,0.00,30.11,M,10.00,M,CLR,M,M,M,M,M,M,M,M,M,M,M,M,M,M,59.00,KHTH 161035Z AUTO 32006KT 10SM CLR 15/M03 A3011 RMK A01,M
TMT,2023-06-16 10:35,-117.1971,39.4643,1749.34,37.80,35.00,89.17,250.00,6.00,0.00,30.18,M,10.00,M,CLR,M,M,M,M,M,M,M,M,M,M,M,M,M,M,32.52,KTMT 161035Z AUTO 25006KT 10SM CLR 03/02 A3018 RMK AO2 T00320016,M
INS,2023-06-16 10:41,-115.6733,36.5872,955.00,60.80,50.00,67.54,120.00,21.00,0.00,29.98,1010.90,6.00,M,BKN,M,M,M,300.00,M,M,M,-RA,M,M,M,M,M,M,60.80,KINS 161041Z AUTO 12021KT 6SM -RA BKN003 16/10 A2998 RMK AO2 RAE0957RAB03E10RAB16 CIG 003V080 BKN V SCT SLP109 $,M
05U,2023-06-16 10:50,-116.0051,39.6042,1811.23,37.40,32.00,80.65,0.00,0.00,0.00,30.19,M,10.00,M,CLR,M,M,M,M,M,M,M,M,M,M,M,M,M,M,37.40,K05U 161050Z AUTO 00000KT 10SM CLR 03/M00 A3019 RMK A01,M
VGT,2023-06-16 10:53,-115.1933,36.2111,667.00,69.00,54.00,58.60,310.00,20.00,T,29.94,1013.10,10.00,27.00,OVC,M,M,M,10000.00,M,M,M,-RA,M,M,M,31.00,310.00,2023-06-16 09:54,69.10,KVGT 161053Z AUTO 31020G27KT 10SM -RA OVC100 21/12 A2994 RMK AO2 PK WND 31031/0954 SLP131 P0000 T02060122,M
LOL,2023-06-16 10:53,-118.5701,40.0684,1192.43,47.00,M,M,250.00,4.00,0.00,30.11,1017.30,10.00,M,CLR,M,M,M,M,M,M,M,M,M,M,M,M,M,M,M,KLOL 161053Z AUTO 25004KT 10SM CLR 08/ A3011 RMK AO2 SLP173 T0083 $,M
DRA,2023-06-16 10:53,-116.0278,36.6206,1009.00,66.00,49.00,54.01,100.00,15.00,0.00,29.97,1010.10,10.00,27.00,BKN,M,M,M,10000.00,M,M,M,M,M,M,M,27.00,110.00,2023-06-16 10:44,66.00,KDRA 161053Z AUTO 10015G27KT 10SM BKN100 19/09 A2997 RMK AO2 PK WND 11027/1044 SLP101 T01890094,M
ELY,2023-06-16 10:53,-114.8453,39.2950,1909.00,39.00,33.00,79.17,180.00,5.00,0.00,30.16,1014.60,10.00,M,CLR,M,M,M,M,M,M,M,M,M,M,M,M,M,M,34.71,KELY 161053Z AUTO 18005KT 10SM CLR 04/01 A3016 RMK AO2 SLP146 T00390006,M
P68,2023-06-16 10:53,-116.0056,39.6014,1993.00,38.00,32.00,79.08,0.00,0.00,0.00,30.17,1016.20,M,M,M,M,M,M,M,M,M,M,M,M,M,M,M,M,M,37.90,KP68 161053Z AUTO 00000KT 03/00 A3017 RMK AO1 SLP162 T00330000,M
BVU,2023-06-16 10:55,-114.8611,35.9475,671.00,71.60,50.00,46.43,330.00,23.00,0.00,29.91,M,10.00,32.00,BKN,M,M,M,12000.00,M,M,M,M,M,M,M,M,M,M,71.60,KBVU 161055Z AUTO 33023G32KT 10SM BKN120 22/10 A2991 RMK AO2,M
CXP,2023-06-16 10:55,-119.7326,39.1923,1431.00,48.20,33.80,57.26,0.00,0.00,0.00,30.16,M,10.00,M,CLR,M,M,M,M,M,M,M,M,M,M,M,M,M,M,48.20,KCXP 161055Z AUTO 00000KT 10SM CLR 09/01 A3016 RMK AO2,M
RTS,2023-06-16 10:55,-119.8764,39.6682,1539.00,42.80,35.60,75.50,360.00,6.00,0.00,30.17,M,10.00,M,CLR,M,M,M,M,M,M,M,M,M,M,M,M,M,M,38.54,KRTS 161055Z AUTO 36006KT 10SM CLR 06/02 A3017 RMK AO2,M
MEV,2023-06-16 10:55,-119.7500,38.9963,1441.42,41.00,35.60,80.93,130.00,6.00,0.00,30.14,M,10.00,M,SCT,M,M,M,5500.00,M,M,M,M,M,M,M,M,M,M,36.37,KMEV 161055Z AUTO 13006KT 10SM SCT055 05/02 A3014 RMK AO2,M
BAM,2023-06-16 10:55,-116.8743,40.5990,1382.36,44.60,32.00,61.03,0.00,0.00,0.00,30.16,M,10.00,M,CLR,M,M,M,M,M,M,M,M,M,M,M,M,M,M,44.60,KBAM 161055Z AUTO 00000KT 10SM CLR 07/00 A3016 RMK AO1,M
HTH,2023-06-16 10:55,-118.6315,38.5448,1282.89,57.20,28.40,33.05,340.00,6.00,0.00,30.11,M,10.00,M,CLR,M,M,M,M,M,M,M,M,M,M,M,M,M,M,57.20,KHTH 161055Z AUTO 34006KT 10SM CLR 14/M02 A3011 RMK A01,M
TMT,2023-06-16 10:55,-117.1971,39.4643,1749.34,37.80,34.70,88.46,240.00,5.00,0.00,30.19,M,10.00,M,CLR,M,M,M,M,M,M,M,M,M,M,M,M,M,M,33.28,KTMT 161055Z AUTO 24005KT 10SM CLR 03/02 A3019 RMK AO2 T00320015,M
INS,2023-06-16 10:55,-115.6733,36.5872,955.00,61.30,50.70,68.10,120.00,20.00,0.20,29.98,1010.90,4.00,M,BKN,M,M,M,300.00,M,M,M,-RA,M,M,M,31.00,160.00,2023-06-16 10:03,61.30,KINS 161055Z AUTO 12020KT 4SM -RA BKN003 16/10 A2998 RMK AO2 PK WND 16031/03 RAE0957RAB03E10RAB16 SLP109 P0020 T01630104 $,M
RNO,2023-06-16 10:55,-119.7711,39.4839,1341.00,54.00,35.00,48.65,0.00,0.00,0.00,30.14,1016.10,10.00,M,CLR,M,M,M,M,M,M,M,M,M,M,M,M,M,M,54.00,KRNO 161055Z 00000KT 10SM CLR 12/02 A3014 RMK AO2 SLP161 T01220017,M
LSV,2023-06-16 10:55,-115.0343,36.2362,570.00,71.60,53.00,52.07,270.00,23.00,0.00,29.90,1010.20,10.00,29.00,OVC,M,M,M,10000.00,M,M,M,M,M,M,M,M,M,M,71.60,KLSV 161055Z AUTO 27023G29KT 10SM OVC100 22/12 A2990 RMK AO2 SLP102 T02200117 $,M
EKO,2023-06-16 10:56,-115.7860,40.8242,1367.00,45.00,37.00,73.37,0.00,0.00,M,30.16,1018.10,10.00,M,CLR,M,M,M,M,M,M,M,M,M,M,M,M,M,M,45.00,METAR KEKO 161056Z 00000KT 10SM CLR 07/03 A3016 RMK AO2 SLP181 T00720028 TSNO FIBI,M
WMC,2023-06-16 10:56,-117.8072,40.9019,1315.00,45.00,34.00,65.13,290.00,4.00,0.00,30.14,1017.60,10.00,M,CLR,M,M,M,M,M,M,M,M,M,M,M,M,M,M,42.60,KWMC 161056Z AUTO 29004KT 10SM CLR 07/01 A3014 RMK AO2 SLP176 T00720011,M
HND,2023-06-16 10:56,-115.1344,35.9729,742.79,70.00,54.00,56.82,320.00,9.00,T,29.98,1014.10,10.00,M,OVC,M,M,M,10000.00,M,M,M,-RA,M,M,M,M,M,M,70.00,KHND 161056Z AUTO 32009KT 10SM -RA OVC100 21/12 A2998 RMK AO2 RAB01 SLP141 P0000 T02110122,M
TPH,2023-06-16 10:56,-117.0904,38.0505,1654.00,51.00,M,M,360.00,14.00,0.00,30.11,1013.90,10.00,M,CLR,M,M,M,M,M,M,M,M,M,M,M,M,M,M,M,KTPH 161056Z AUTO 36014KT 10SM CLR 11/ A3011 RMK AO2 SLP139 T0106 $,M
LAS,2023-06-16 10:56,-115.1634,36.0719,663.00,70.00,53.00,54.98,300.00,13.00,T,29.94,1011.50,10.00,M,OVC,M,M,M,10000.00,M,M,M,M,M,M,M,29.00,310.00,2023-06-16 10:35,70.00,KLAS 161056Z 30013KT 10SM OVC100 21/12 A2994 RMK AO2 PK WND 31029/1035 RAE46 SLP115 SHRA DSNT N P0000 T02110117,M
NFL,2023-06-16 10:56,-118.7010,39.4166,1199.00,51.00,35.00,54.13,0.00,0.00,0.00,30.11,1016.20,10.00,M,CLR,M,M,M,M,M,M,M,M,M,M,M,M,M,M,51.10,KNFL 161056Z AUTO 00000KT 10SM CLR 11/02 A3011 RMK AO2 SLP162 T01060017,M
LSV,2023-06-16 10:58,-115.0343,36.2362,570.00,71.60,53.60,53.03,270.00,21.00,0.00,29.90,1010.20,10.00,29.00,BKN,M,M,M,10000.00,M,M,M,-DZ,M,M,M,M,M,M,71.60,KLSV 161058Z AUTO 27021G29KT 10SM -DZ BKN100 22/12 A2990 RMK AO2 DZB58 SLP102 $,M
05U,2023-06-16 11:10,-116.0051,39.6042,1811.23,37.40,32.00,80.65,0.00,0.00,0.00,30.19,M,10.00,M,CLR,M,M,M,M,M,M,M,M,M,M,M,M,M,M,37.40,K05U 161110Z AUTO 00000KT 10SM CLR 03/00 A3019 RMK A01,M
BVU,2023-06-16 11:15,-114.8611,35.9475,671.00,71.60,50.00,46.43,330.00,24.00,0.00,29.91,M,10.00,M,SCT,M,M,M,12000.00,M,M,M,M,M,M,M,M,M,M,71.60,KBVU 161115Z AUTO 33024KT 10SM SCT120 22/10 A2991 RMK AO2,M
CXP,2023-06-16 11:15,-119.7326,39.1923,1431.00,48.20,35.60,61.52,0.00,0.00,0.00,30.16,M,10.00,M,CLR,M,M,M,M,M,M,M,M,M,M,M,M,M,M,48.20,KCXP 161115Z AUTO 00000KT 10SM CLR 09/02 A3016 RMK AO2,M
RTS,2023-06-16 11:15,-119.8764,39.6682,1539.00,42.80,35.60,75.50,10.00,5.00,0.00,30.17,M,10.00,M,CLR,M,M,M,M,M,M,M,M,M,M,M,M,M,M,39.22,KRTS 161115Z AUTO 01005KT 10SM CLR 06/02 A3017 RMK AO2,M
MEV,2023-06-16 11:15,-119.7500,38.9963,1441.42,41.00,35.60,80.93,130.00,4.00,0.00,30.15,M,10.00,M,FEW,SCT,SCT,M,4100.00,4900.00,5500.00,M,M,M,M,M,M,M,M,37.93,KMEV 161115Z AUTO 13004KT 10SM FEW041 SCT049 SCT055 05/02 A3015 RMK AO2,M
BAM,2023-06-16 11:15,-116.8743,40.5990,1382.36,46.40,35.60,65.83,0.00,0.00,0.00,30.16,M,10.00,M,CLR,M,M,M,M,M,M,M,M,M,M,M,M,M,M,46.40,KBAM 161115Z AUTO 00000KT 10SM CLR 08/02 A3016 RMK AO1,M
HTH,2023-06-16 11:15,-118.6315,38.5448,1282.89,57.20,28.40,33.05,290.00,5.00,0.00,30.12,M,10.00,M,CLR,M,M,M,M,M,M,M,M,M,M,M,M,M,M,57.20,KHTH 161115Z AUTO 29005KT 10SM CLR 14/M02 A3012 RMK A01,M
TMT,2023-06-16 11:15,-117.1971,39.4643,1749.34,35.80,33.00,89.79,0.00,0.00,0.00,30.19,M,10.00,M,CLR,M,M,M,M,M,M,M,M,M,M,M,M,M,M,35.80,KTMT 161115Z AUTO 00000KT 10SM CLR 02/01 A3019 RMK AO2 T00210006,M
LSV,2023-06-16 11:20,-115.0343,36.2362,570.00,68.00,55.40,64.04,260.00,22.00,0.00,29.90,1010.20,10.00,29.00,SCT,M,M,M,10000.00,M,M,M,M,M,M,M,M,M,M,68.00,KLSV 161120Z AUTO 26022G29KT 10SM SCT100 20/13 A2990 RMK AO2 DZB1058E00RAB00E12DZB12E20 SLP102 $,M
INS,2023-06-16 11:25,-115.6733,36.5872,955.00,60.80,50.00,67.54,120.00,21.00,0.00,29.99,1011.30,5.00,M,SCT,BKN,OVC,M,300.00,6000.00,10000.00,M,-RA,M,M,M,M,M,M,60.80,KINS 161125Z AUTO 12021KT 5SM -RA SCT003 BKN060 OVC100 16/10 A2999 RMK AO2 SLP113 $,M
05U,2023-06-16 11:30,-116.0051,39.6042,1811.23,35.60,32.00,86.59,0.00,0.00,0.00,30.20,M,10.00,M,CLR,M,M,M,M,M,M,M,M,M,M,M,M,M,M,35.60,K05U 161130Z AUTO 00000KT 10SM CLR 02/00 A3020 RMK A01,M
BVU,2023-06-16 11:35,-114.8611,35.9475,671.00,69.80,50.00,49.37,330.00,23.00,0.00,29.91,M,10.00,30.00,CLR,M,M,M,M,M,M,M,M,M,M,M,M,M,M,69.80,KBVU 161135Z AUTO 33023G30KT 10SM CLR 21/10 A2991 RMK AO2,M
CXP,2023-06-16 11:35,-119.7326,39.1923,1431.00,48.20,33.80,57.26,0.00,0.00,0.00,30.17,M,10.00,M,CLR,M,M,M,M,M,M,M,M,M,M,M,M,M,M,48.20,KCXP 161135Z AUTO 00000KT 10SM CLR 09/01 A3017 RMK AO2,M
RTS,2023-06-16 11:35,-119.8764,39.6682,1539.00,44.60,33.80,65.61,350.00,4.00,0.00,30.18,M,10.00,M,CLR,M,M,M,M,M,M,M,M,M,M,M,M,M,M,42.13,KRTS 161135Z AUTO 35004KT 10SM CLR 07/01 A3018 RMK AO2,M
MEV,2023-06-16 11:35,-119.7500,38.9963,1441.42,39.20,35.60,86.79,120.00,4.00,0.00,30.16,M,10.00,M,FEW,FEW,SCT,M,4000.00,4900.00,6000.00,M,M,M,M,M,M,M,M,35.83,KMEV 161135Z AUTO 12004KT 10SM FEW040 FEW049 SCT060 04/02 A3016 RMK AO2,M
BAM,2023-06-16 11:35,-116.8743,40.5990,1382.36,50.00,35.60,57.52,0.00,0.00,0.00,30.16,M,10.00,M,CLR,M,M,M,M,M,M,M,M,M,M,M,M,M,M,50.00,KBAM 161135Z AUTO 00000KT 10SM CLR 10/02 A3016 RMK AO1,M
HTH,2023-06-16 11:35,-118.6315,38.5448,1282.89,57.20,28.40,33.05,0.00,0.00,0.00,30.12,M,10.00,M,CLR,M,M,M,M,M,M,M,M,M,M,M,M,M,M,57.20,KHTH 161135Z AUTO 00000KT 10SM CLR 14/M02 A3012 RMK A01,M
TMT,2023-06-16 11:35,-117.1971,39.4643,1749.34,33.30,31.60,93.39,200.00,3.00,0.00,30.20,M,10.00,M,CLR,M,M,M,M,M,M,M,M,M,M,M,M,M,M,30.17,KTMT 161135Z AUTO 20003KT 10SM CLR 01/00 A3020 RMK AO2 T00071002,M
LSV,2023-06-16 11:47,-115.0343,36.2362,570.00,68.00,55.40,64.04,250.00,21.00,0.00,29.90,1010.20,10.00,29.00,FEW,BKN,M,M,7000.00,9500.00,M,M,-DZ,M,M,M,M,M,M,68.00,KLSV 161147Z AUTO 25021G29KT 10SM -DZ FEW070 BKN095 20/13 A2990 RMK AO2 DZB1058E00RAB00E12DZB12E20DZB47 SLP102 $,M
INS,2023-06-16 11:49,-115.6733,36.5872,955.00,60.80,50.00,67.54,120.00,18.00,0.00,29.99,1011.30,7.00,M,FEW,BKN,OVC,M,300.00,5000.00,10000.00,M,M,M,M,M,M,M,M,60.80,KINS 161149Z AUTO 12018KT 7SM FEW003 BKN050 OVC100 16/10 A2999 RMK AO2 RAE49 SLP113 $,M
INS,2023-06-16 11:50,-115.6733,36.5872,955.00,60.80,50.00,67.54,120.00,19.00,0.00,29.99,1011.30,6.00,M,FEW,BKN,OVC,M,300.00,5000.00,10000.00,M,-RA,M,M,M,M,M,M,60.80,KINS 161150Z AUTO 12019KT 6SM -RA FEW003 BKN050 OVC100 16/10 A2999 RMK AO2 RAE49RAB50 SLP113 $,M
05U,2023-06-16 11:50,-116.0051,39.6042,1811.23,35.60,32.00,86.59,0.00,0.00,0.00,30.20,M,10.00,M,CLR,M,M,M,M,M,M,M,M,M,M,M,M,M,M,35.60,K05U 161150Z AUTO 00000KT 10SM CLR 02/00 A3020 RMK A01,M
INS,2023-06-16 11:53,-115.6733,36.5872,955.00,60.80,50.00,67.54,120.00,19.00,0.00,29.99,1011.30,5.00,M,FEW,BKN,OVC,M,300.00,4700.00,10000.00,M,HZ,M,M,M,M,M,M,60.80,KINS 161153Z AUTO 12019KT 5SM HZ FEW003 BKN047 OVC100 16/10 A2999 RMK AO2 RAE49RAB50E53 SLP113 $,M
P68,2023-06-16 11:53,-116.0056,39.6014,1993.00,36.00,32.00,85.23,150.00,3.00,0.00,30.18,1017.20,M,M,M,M,M,M,M,M,M,M,M,M,M,M,M,M,M,33.26,KP68 161153Z AUTO 15003KT 02/00 A3018 RMK AO1 SLP172 T00220000 10078 20022 53009,M
VGT,2023-06-16 11:53,-115.1933,36.2111,667.00,68.00,55.00,63.12,310.00,18.00,0.01,29.95,1013.40,10.00,26.00,OVC,M,M,M,9500.00,M,M,M,-RA,M,M,M,32.00,310.00,2023-06-16 10:58,68.00,KVGT 161153Z AUTO 31018G26KT 10SM -RA OVC095 20/13 A2995 RMK AO2 PK WND 31032/1058 SLP134 P0001 60001 70001 T02000128 10272 20200 53014,M
LOL,2023-06-16 11:53,-118.5701,40.0684,1192.43,47.00,M,M,0.00,0.00,0.00,30.12,1017.60,10.00,M,CLR,M,M,M,M,M,M,M,M,M,M,M,M,M,M,M,KLOL 161153Z AUTO 00000KT 10SM CLR 08/ A3012 RMK AO2 SLP176 T0083 10167 20072 53009 $,M
DRA,2023-06-16 11:53,-116.0278,36.6206,1009.00,64.00,49.00,57.91,100.00,19.00,0.00,29.98,1010.50,10.00,30.00,BKN,M,M,M,10000.00,M,M,M,M,M,M,M,32.00,110.00,2023-06-16 11:43,64.00,KDRA 161153Z AUTO 10019G30KT 10SM BKN100 18/09 A2998 RMK AO2 PK WND 11032/1143 SLP105 70011 T01780094 10217 20178 51013,M
ELY,2023-06-16 11:53,-114.8453,39.2950,1909.00,37.00,33.00,85.64,180.00,9.00,0.00,30.18,1015.50,10.00,M,CLR,M,M,M,M,M,M,M,M,M,M,M,M,M,M,29.73,KELY 161153Z AUTO 18009KT 10SM CLR 03/01 A3018 RMK AO2 SLP155 T00280006 10100 20028 53007,M
BVU,2023-06-16 11:55,-114.8611,35.9475,671.00,69.80,50.00,49.37,330.00,20.00,0.00,29.91,M,10.00,30.00,CLR,M,M,M,M,M,M,M,M,M,M,M,M,M,M,69.80,KBVU 161155Z AUTO 33020G30KT 10SM CLR 21/10 A2991 RMK AO2,M
CXP,2023-06-16 11:55,-119.7326,39.1923,1431.00,48.20,33.80,57.26,0.00,0.00,0.00,30.17,M,10.00,M,CLR,M,M,M,M,M,M,M,M,M,M,M,M,M,M,48.20,KCXP 161155Z AUTO 00000KT 10SM CLR 09/01 A3017 RMK AO2,M
INS,2023-06-16 11:55,-115.6733,36.5872,955.00,60.30,50.40,69.78,120.00,18.00,0.18,29.99,1011.30,5.00,M,FEW,BKN,OVC,M,300.00,4700.00,10000.00,M,HZ,M,M,M,28.00,120.00,2023-06-16 11:12,60.30,KINS 161155Z AUTO 12018KT 5SM HZ FEW003 BKN047 OVC100 16/10 A2999 RMK AO2 PK WND 12028/12 RAE49RAB50E53 SLP113 P0018 60067 70090 T01570102 10192 20157 51018 $,M
RNO,2023-06-16 11:55,-119.7711,39.4839,1341.00,52.00,34.00,50.12,0.00,0.00,0.00,30.15,1016.70,10.00,M,CLR,M,M,M,M,M,M,M,M,M,M,M,M,M,M,52.00,KRNO 161155Z 00000KT 10SM CLR 11/01 A3015 RMK AO2 SLP167 T01110011 10183 20111 53009,M
RTS,2023-06-16 11:55,-119.8764,39.6682,1539.00,42.80,35.60,75.50,340.00,5.00,0.00,30.18,M,10.00,M,CLR,M,M,M,M,M,M,M,M,M,M,M,M,M,M,39.22,KRTS 161155Z AUTO 34005KT 10SM CLR 06/02 A3018 RMK AO2,M
MEV,2023-06-16 11:55,-119.7500,38.9963,1441.42,39.20,35.60,86.79,0.00,0.00,0.00,30.16,M,10.00,M,FEW,FEW,M,M,4900.00,6000.00,M,M,M,M,M,M,M,M,M,39.20,KMEV 161155Z AUTO 00000KT 10SM FEW049 FEW060 04/02 A3016 RMK AO2,M
BAM,2023-06-16 11:55,-116.8743,40.5990,1382.36,44.60,33.80,65.61,80.00,3.00,0.00,30.16,M,10.00,M,CLR,M,M,M,M,M,M,M,M,M,M,M,M,M,M,43.09,KBAM 161155Z AUTO 08003KT 10SM CLR 07/01 A3016 RMK AO1,M
HTH,2023-06-16 11:55,-118.6315,38.5448,1282.89,59.00,28.40,30.98,0.00,0.00,0.00,30.13,M,10.00,M,CLR,M,M,M,M,M,M,M,M,M,M,M,M,M,M,59.00,KHTH 161155Z AUTO 00000KT 10SM CLR 15/M02 A3013 RMK A01,M
TMT,2023-06-16 11:55,-117.1971,39.4643,1749.34,33.40,31.30,91.89,0.00,0.00,0.00,30.20,M,10.00,M,CLR,M,M,M,M,M,M,M,M,M,M,M,M,M,M,33.40,KTMT 161155Z AUTO 00000KT 10SM CLR 01/00 A3020 RMK AO2 T00081004 10101 20005,M
LSV,2023-06-16 11:55,-115.0343,36.2362,570.00,68.50,55.00,62.04,260.00,21.00,T,29.90,1010.20,10.00,28.00,SCT,M,M,M,9500.00,M,M,M,-RA,M,M,M,31.00,270.00,2023-06-16 11:01,68.50,KLSV 161155Z AUTO 26021G28KT 10SM -RA SCT095 20/13 A2990 RMK AO2 PK WND 27031/01 DZB1058E00RAB00E12DZB12E20DZB47E49RAB49 SLP102 P0000 60000 T02030128 10277 20202 51014 $,M
EKO,2023-06-16 11:56,-115.7860,40.8242,1367.00,44.00,37.00,76.22,0.00,0.00,M,30.16,1018.50,10.00,M,CLR,M,M,M,M,M,M,M,M,M,M,M,M,M,M,44.00,METAR KEKO 161156Z 00000KT 10SM CLR 07/03 A3016 RMK AO2 SLP185 T00670028 10139 20056 52007 TSNO FIBI,M
WMC,2023-06-16 11:56,-117.8072,40.9019,1315.00,50.00,36.00,58.44,360.00,6.00,0.00,30.15,1017.70,10.00,M,CLR,M,M,M,M,M,M,M,M,M,M,M,M,M,M,50.00,KWMC 161156Z AUTO 36006KT 10SM CLR 10/02 A3015 RMK AO2 SLP177 T01000022 10150 20067 53007,M
HND,2023-06-16 11:56,-115.1344,35.9729,742.79,69.00,54.00,58.60,310.00,10.00,T,29.98,1014.00,10.00,M,OVC,M,M,M,11000.00,M,M,M,M,M,M,M,M,M,M,69.10,KHND 161156Z AUTO 31010KT 10SM OVC110 21/12 A2998 RMK AO2 LTG DSNT W RAE41 SLP140 P0000 60000 T02060122 10261 20200 50012,M
TPH,2023-06-16 11:56,-117.0904,38.0505,1654.00,50.00,M,M,350.00,15.00,0.00,30.12,1014.40,10.00,M,CLR,M,M,M,M,M,M,M,M,M,M,M,M,M,M,M,KTPH 161156Z AUTO 35015KT 10SM CLR 10/ A3012 RMK AO2 SLP144 7//// T0100 10156 20100 53008 $,M
LAS,2023-06-16 11:56,-115.1634,36.0719,663.00,68.00,55.00,63.12,320.00,18.00,0.01,29.94,1011.30,10.00,23.00,OVC,M,M,M,10000.00,M,M,M,-RA,M,M,M,27.00,320.00,2023-06-16 11:42,68.00,KLAS 161156Z 32018G23KT 10SM -RA OVC100 20/13 A2994 RMK AO2 PK WND 32027/1142 RAB24 SLP113 VIS LWR SW-NW P0001 60001 70001 T02000128 10267 20200 50009,M
NFL,2023-06-16 11:56,-118.7010,39.4166,1199.00,49.00,35.00,58.75,250.00,5.00,0.00,30.12,1016.40,10.00,M,CLR,M,M,M,M,M,M,M,M,M,M,M,M,M,M,46.47,KNFL 161156Z AUTO 25005KT 10SM CLR 09/02 A3012 RMK AO2 SLP164 T00940017 10156 20094 53010,M
INS,2023-06-16 11:57,-115.6733,36.5872,955.00,60.80,50.00,67.54,120.00,16.00,0.00,30.00,1011.60,6.00,M,BKN,OVC,M,M,4700.00,9500.00,M,M,-RA,M,M,M,M,M,M,60.80,KINS 161157Z AUTO 12016KT 6SM -RA BKN047 OVC095 16/10 A3000 RMK AO2 RAB57 SLP116 $,M
05U,2023-06-16 12:10,-116.0051,39.6042,1811.23,35.60,32.00,86.59,0.00,0.00,0.00,30.21,M,10.00,M,CLR,M,M,M,M,M,M,M,M,M,M,M,M,M,M,35.60,K05U 161210Z AUTO 00000KT 10SM CLR 02/M00 A3021 RMK A01,M
BVU,2023-06-16 12:15,-114.8611,35.9475,671.00,69.80,50.00,49.37,330.00,19.00,0.00,29.92,M,10.00,27.00,FEW,M,M,M,12000.00,M,M,M,M,M,M,M,M,M,M,69.80,KBVU 161215Z AUTO 33019G27KT 10SM FEW120 21/10 A2992 RMK AO2,M
CXP,2023-06-16 12:15,-119.7326,39.1923,1431.00,48.20,33.80,57.26,0.00,0.00,0.00,30.17,M,10.00,M,CLR,M,M,M,M,M,M,M,M,M,M,M,M,M,M,48.20,KCXP 161215Z AUTO 00000KT 10SM CLR 09/01 A3017 RMK AO2,M
RTS,2023-06-16 12:15,-119.8764,39.6682,1539.00,44.60,33.80,65.61,10.00,6.00,0.00,30.18,M,10.00,M,CLR,M,M,M,M,M,M,M,M,M,M,M,M,M,M,40.71,KRTS 161215Z AUTO 01006KT 10SM CLR 07/01 A3018 RMK AO2,M
MEV,2023-06-16 12:15,-119.7500,38.9963,1441.42,41.00,35.60,80.93,140.00,3.00,0.00,30.16,M,10.00,M,CLR,M,M,M,M,M,M,M,M,M,M,M,M,M,M,38.98,KMEV 161215Z AUTO 14003KT 10SM CLR 05/02 A3016 RMK AO2,M
BAM,2023-06-16 12:15,-116.8743,40.5990,1382.36,42.80,32.00,65.38,130.00,5.00,0.00,30.16,M,10.00,M,CLR,M,M,M,M,M,M,M,M,M,M,M,M,M,M,39.22,KBAM 161215Z AUTO 13005KT 10SM CLR 06/00 A3016 RMK AO1,M
HTH,2023-06-16 12:15,-118.6315,38.5448,1282.89,57.20,30.20,35.57,0.00,0.00,0.00,30.13,M,10.00,M,CLR,M,M,M,M,M,M,M,M,M,M,M,M,M,M,57.20,KHTH 161215Z AUTO 00000KT 10SM CLR 14/M01 A3013 RMK A01,M
TMT,2023-06-16 12:15,-117.1971,39.4643,1749.34,32.20,30.90,94.88,200.00,4.00,0.00,30.20,M,10.00,M,CLR,M,M,M,M,M,M,M,M,M,M,M,M,M,M,27.65,KTMT 161215Z AUTO 20004KT 10SM CLR 00/M01 A3020 RMK AO2 T00011006,M
LSV,2023-06-16 12:17,-115.0343,36.2362,570.00,68.00,55.40,64.04,270.00,24.00,0.00,29.89,1010.00,10.00,M,FEW,M,M,M,10000.00,M,M,M,M,M,M,M,M,M,M,68.00,KLSV 161217Z AUTO 27024KT 10SM FEW100 20/13 A2989 RMK AO2 RAE15DZB15E17 SLP100 $,M
05U,2023-06-16 12:30,-116.0051,39.6042,1811.23,33.80,32.00,93.03,10.00,3.00,0.00,30.21,M,10.00,M,CLR,M,M,M,M,M,M,M,M,M,M,M,M,M,M,30.75,K05U 161230Z AUTO 01003KT 10SM CLR 01/M00 A3021 RMK A01,M
LSV,2023-06-16 12:31,-115.0343,36.2362,570.00,68.00,55.40,64.04,270.00,18.00,0.00,29.91,1010.70,10.00,24.00,SCT,M,M,M,10000.00,M,M,M,-DZ,M,M,M,M,M,M,68.00,KLSV 161231Z AUTO 27018G24KT 10SM -DZ SCT100 20/13 A2991 RMK AO2 RAE15DZB15E17DZB31 PRESRR SLP107 $,M
BVU,2023-06-16 12:35,-114.8611,35.9475,671.00,69.80,50.00,49.37,330.00,21.00,0.00,29.93,M,10.00,29.00,FEW,M,M,M,12000.00,M,M,M,M,M,M,M,M,M,M,69.80,KBVU 161235Z AUTO 33021G29KT 10SM FEW120 21/10 A2993 RMK AO2,M
CXP,2023-06-16 12:35,-119.7326,39.1923,1431.00,46.40,35.60,65.83,0.00,0.00,0.00,30.17,M,10.00,M,CLR,M,M,M,M,M,M,M,M,M,M,M,M,M,M,46.40,KCXP 161235Z AUTO 00000KT 10SM CLR 08/02 A3017 RMK AO2,M
RTS,2023-06-16 12:35,-119.8764,39.6682,1539.00,44.60,33.80,65.61,0.00,0.00,0.00,30.18,M,10.00,M,CLR,M,M,M,M,M,M,M,M,M,M,M,M,M,M,44.60,KRTS 161235Z AUTO 00000KT 10SM CLR 07/01 A3018 RMK AO2,M
MEV,2023-06-16 12:35,-119.7500,38.9963,1441.42,39.20,35.60,86.79,80.00,3.00,0.00,30.16,M,10.00,M,CLR,M,M,M,M,M,M,M,M,M,M,M,M,M,M,36.92,KMEV 161235Z AUTO 08003KT 10SM CLR 04/02 A3016 RMK AO2,M
BAM,2023-06-16 12:35,-116.8743,40.5990,1382.36,41.00,32.00,70.08,120.00,4.00,0.00,30.16,M,10.00,M,CLR,M,M,M,M,M,M,M,M,M,M,M,M,M,M,37.93,KBAM 161235Z AUTO 12004KT 10SM CLR 05/00 A3016 RMK AO1,M
HTH,2023-06-16 12:35,-118.6315,38.5448,1282.89,55.40,35.60,47.16,240.00,5.00,0.00,30.13,M,10.00,M,CLR,M,M,M,M,M,M,M,M,M,M,M,M,M,M,55.40,KHTH 161235Z AUTO 24005KT 10SM CLR 13/02 A3013 RMK A01,M
TMT,2023-06-16 12:35,-117.1971,39.4643,1749.34,35.00,31.80,88.32,0.00,0.00,0.00,30.20,M,10.00,M,CLR,M,M,M,M,M,M,M,M,M,M,M,M,M,M,34.90,KTMT 161235Z AUTO 00000KT 10SM CLR 02/00 A3020 RMK AO2 T00161001,M
INS,2023-06-16 12:38,-115.6733,36.5872,955.00,59.00,51.80,76.98,40.00,7.00,0.00,30.03,1013.00,10.00,M,FEW,OVC,M,M,2700.00,9500.00,M,M,M,M,M,M,M,M,M,59.00,KINS 161238Z AUTO 04007KT 10SM FEW027 OVC095 15/11 A3003 RMK AO2 RAB1157E38 SLP130 $,M
LSV,2023-06-16 12:42,-115.0343,36.2362,570.00,68.00,55.40,64.04,260.00,16.00,0.00,29.91,1010.70,10.00,24.00,BKN,M,M,M,9500.00,M,M,M,M,M,M,M,M,M,M,68.00,KLSV 161242Z AUTO 26016G24KT 10SM BKN095 20/13 A2991 RMK AO2 RAE15DZB15E17DZB31E42 SLP107 $,M
05U,2023-06-16 12:50,-116.0051,39.6042,1811.23,37.40,33.80,86.69,20.00,4.00,0.00,30.21,M,10.00,M,CLR,M,M,M,M,M,M,M,M,M,M,M,M,M,M,33.73,K05U 161250Z AUTO 02004KT 10SM CLR 03/01 A3021 RMK A01,M
LOL,2023-06-16 12:53,-118.5701,40.0684,1192.43,45.00,M,M,320.00,4.00,0.00,30.13,1018.10,10.00,M,CLR,M,M,M,M,M,M,M,M,M,M,M,M,M,M,M,KLOL 161253Z AUTO 32004KT 10SM CLR 07/ A3013 RMK AO2 SLP181 T0072 $,M
ELY,2023-06-16 12:53,-114.8453,39.2950,1909.00,37.00,35.00,92.76,170.00,6.00,0.00,30.19,1016.10,10.00,M,CLR,M,M,M,M,M,M,M,M,M,M,M,M,M,M,31.55,KELY 161253Z AUTO 17006KT 10SM CLR 03/02 A3019 RMK AO2 SLP161 T00280017,M
VGT,2023-06-16 12:53,-115.1933,36.2111,667.00,64.00,56.00,74.93,310.00,20.00,0.03,29.97,1014.10,8.00,M,SCT,OVC,M,M,7500.00,9000.00,M,M,RA,M,M,M,29.00,310.00,2023-06-16 12:43,64.00,KVGT 161253Z AUTO 31020KT 8SM RA SCT075 OVC090 18/13 A2997 RMK AO2 PK WND 31029/1243 SLP141 P0003 T01780133,M
P68,2023-06-16 12:53,-116.0056,39.6014,1993.00,38.00,33.00,82.66,190.00,5.00,0.00,30.18,1017.40,M,M,M,M,M,M,M,M,M,M,M,M,M,M,M,M,M,33.40,KP68 161253Z AUTO 19005KT 03/01 A3018 RMK AO1 SLP174 T00330006,M
DRA,2023-06-16 12:53,-116.0278,36.6206,1009.00,65.00,49.00,56.12,60.00,12.00,0.00,30.01,1011.70,10.00,M,OVC,M,M,M,9000.00,M,M,M,M,M,M,M,28.00,110.00,2023-06-16 12:31,64.90,KDRA 161253Z AUTO 06012KT 10SM OVC090 18/09 A3001 RMK AO2 PK WND 11028/1231 SLP117 T01830094,M
BVU,2023-06-16 12:55,-114.8611,35.9475,671.00,69.80,51.80,52.77,330.00,21.00,0.00,29.93,M,10.00,27.00,FEW,M,M,M,12000.00,M,M,M,M,M,M,M,M,M,M,69.80,KBVU 161255Z AUTO 33021G27KT 10SM FEW120 21/11 A2993 RMK AO2,M
CXP,2023-06-16 12:55,-119.7326,39.1923,1431.00,46.40,33.80,61.28,0.00,0.00,0.00,30.18,M,10.00,M,CLR,M,M,M,M,M,M,M,M,M,M,M,M,M,M,46.40,KCXP 161255Z AUTO 00000KT 10SM CLR 08/01 A3018 RMK AO2,M
RTS,2023-06-16 12:55,-119.8764,39.6682,1539.00,41.00,35.60,80.93,270.00,5.00,0.00,30.19,M,10.00,M,CLR,M,M,M,M,M,M,M,M,M,M,M,M,M,M,37.08,KRTS 161255Z AUTO 27005KT 10SM CLR 05/02 A3019 RMK AO2,M
MEV,2023-06-16 12:55,-119.7500,38.9963,1441.42,37.40,33.80,86.69,0.00,0.00,0.00,30.17,M,10.00,M,CLR,M,M,M,M,M,M,M,M,M,M,M,M,M,M,37.40,KMEV 161255Z AUTO 00000KT 10SM CLR 03/01 A3017 RMK AO2,M
BAM,2023-06-16 12:55,-116.8743,40.5990,1382.36,41.00,32.00,70.08,100.00,4.00,0.00,30.17,M,10.00,M,CLR,M,M,M,M,M,M,M,M,M,M,M,M,M,M,37.93,KBAM 161255Z AUTO 10004KT 10SM CLR 05/00 A3017 RMK AO1,M
HTH,2023-06-16 12:55,-118.6315,38.5448,1282.89,55.40,37.40,50.64,240.00,6.00,0.00,30.14,M,10.00,M,CLR,M,M,M,M,M,M,M,M,M,M,M,M,M,M,55.40,KHTH 161255Z AUTO 24006KT 10SM CLR 13/03 A3014 RMK A01,M
TMT,2023-06-16 12:55,-117.1971,39.4643,1749.34,35.20,32.70,90.49,0.00,0.00,0.00,30.20,M,10.00,M,CLR,M,M,M,M,M,M,M,M,M,M,M,M,M,M,35.20,KTMT 161255Z AUTO 00000KT 10SM CLR 02/00 A3020 RMK AO2 T00180004,M
INS,2023-06-16 12:55,-115.6733,36.5872,955.00,59.50,54.30,82.89,70.00,9.00,0.01,30.04,1013.30,10.00,M,OVC,M,M,M,9500.00,M,M,M,M,M,M,M,M,M,M,59.50,KINS 161255Z AUTO 07009KT 10SM OVC095 15/12 A3004 RMK AO2 RAB1157E38 SLP133 P0001 T01530124 $,M
LSV,2023-06-16 12:55,-115.0343,36.2362,570.00,67.50,55.20,64.68,250.00,18.00,T,29.93,1011.30,10.00,23.00,OVC,M,M,M,10000.00,M,M,M,M,M,M,M,28.00,260.00,2023-06-16 12:06,67.50,KLSV 161255Z AUTO 25018G23KT 10SM OVC100 20/13 A2993 RMK AO2 PK WND 26028/06 RAE15DZB15E17DZB31E42 PRESRR SLP113 P0000 T01970129 $,M
RNO,2023-06-16 12:55,-119.7711,39.4839,1341.00,51.00,35.00,54.13,0.00,0.00,0.00,30.16,1017.30,10.00,M,FEW,SCT,M,M,15000.00,25000.00,M,M,M,M,M,M,M,M,M,51.10,KRNO 161255Z 00000KT 10SM FEW150 SCT250 11/02 A3016 RMK AO2 SLP173 T01060017,M
EKO,2023-06-16 12:56,-115.7860,40.8242,1367.00,43.00,38.00,82.37,0.00,0.00,M,30.18,1019.00,10.00,M,CLR,M,M,M,M,M,M,M,M,M,M,M,M,M,M,43.00,METAR KEKO 161256Z 00000KT 10SM CLR 06/03 A3018 RMK AO2 SLP190 T00610033 TSNO FIBI,M
NFL,2023-06-16 12:56,-118.7010,39.4166,1199.00,49.00,36.00,60.88,230.00,4.00,0.00,30.13,1016.80,10.00,M,CLR,M,M,M,M,M,M,M,M,M,M,M,M,M,M,47.16,KNFL 161256Z AUTO 23004KT 10SM CLR 09/02 A3013 RMK AO2 SLP168 T00940022,M
HND,2023-06-16 12:56,-115.1344,35.9729,742.79,67.00,55.00,65.56,320.00,5.00,T,30.00,1014.70,10.00,M,OVC,M,M,M,10000.00,M,M,M,M,M,M,M,M,M,M,66.90,KHND 161256Z AUTO 32005KT 10SM OVC100 19/13 A3000 RMK AO2 LTG DSNT SW RAB1157E10 SLP147 P0000 T01940128,M
TPH,2023-06-16 12:56,-117.0904,38.0505,1654.00,49.00,M,M,360.00,13.00,0.00,30.14,1015.30,10.00,M,CLR,M,M,M,M,M,M,M,M,M,M,M,M,M,M,M,KTPH 161256Z AUTO 36013KT 10SM CLR 09/ A3014 RMK AO2 SLP153 T0094 $,M
WMC,2023-06-16 12:56,-117.8072,40.9019,1315.00,43.00,35.00,73.45,0.00,0.00,0.00,30.16,1018.80,10.00,M,CLR,M,M,M,M,M,M,M,M,M,M,M,M,M,M,43.00,KWMC 161256Z AUTO 00000KT 10SM CLR 06/02 A3016 RMK AO2 SLP188 T00610017,M
LAS,2023-06-16 12:56,-115.1634,36.0719,663.00,65.00,58.00,78.05,290.00,15.00,0.01,29.96,1012.40,10.00,M,BKN,M,M,M,9000.00,M,M,M,-RA,M,M,M,M,M,M,64.90,KLAS 161256Z 29015KT 10SM -RA BKN090 18/14 A2996 RMK AO2 LTG DSNT SW SLP124 VIS LWR SW-NW P0001 T01830144,M
05U,2023-06-16 13:10,-116.0051,39.6042,1811.23,41.00,35.60,80.93,0.00,0.00,0.00,30.21,M,10.00,M,CLR,M,M,M,M,M,M,M,M,M,M,M,M,M,M,41.00,K05U 161310Z AUTO 00000KT 10SM CLR 05/02 A3021 RMK A01,M
BVU,2023-06-16 13:15,-114.8611,35.9475,671.00,68.00,51.80,56.13,340.00,20.00,0.00,29.94,M,10.00,M,CLR,M,M,M,M,M,M,M,M,M,M,M,M,M,M,68.00,KBVU 161315Z AUTO 34020KT 10SM CLR 20/11 A2994 RMK AO2,M
CXP,2023-06-16 13:15,-119.7326,39.1923,1431.00,46.40,37.40,70.68,0.00,0.00,0.00,30.18,M,10.00,M,CLR,M,M,M,M,M,M,M,M,M,M,M,M,M,M,46.40,KCXP 161315Z AUTO 00000KT 10SM CLR 08/03 A3018 RMK AO2,M
RTS,2023-06-16 13:15,-119.8764,39.6682,1539.00,42.80,35.60,75.50,0.00,0.00,0.00,30.19,M,10.00,M,CLR,M,M,M,M,M,M,M,M,M,M,M,M,M,M,42.80,KRTS 161315Z AUTO 00000KT 10SM CLR 06/02 A3019 RMK AO2,M
MEV,2023-06-16 13:15,-119.7500,38.9963,1441.42,39.20,35.60,86.79,140.00,5.00,0.00,30.17,M,10.00,M,CLR,M,M,M,M,M,M,M,M,M,M,M,M,M,M,34.95,KMEV 161315Z AUTO 14005KT 10SM CLR 04/02 A3017 RMK AO2,M
BAM,2023-06-16 13:15,-116.8743,40.5990,1382.36,42.80,32.00,65.38,0.00,0.00,0.00,30.18,M,10.00,M,CLR,M,M,M,M,M,M,M,M,M,M,M,M,M,M,42.80,KBAM 161315Z AUTO 00000KT 10SM CLR 06/00 A3018 RMK AO1,M
HTH,2023-06-16 13:15,-118.6315,38.5448,1282.89,55.40,37.40,50.64,230.00,5.00,0.00,30.14,M,10.00,M,CLR,M,M,M,M,M,M,M,M,M,M,M,M,M,M,55.40,KHTH 161315Z AUTO 23005KT 10SM CLR 13/03 A3014 RMK A01,M
TMT,2023-06-16 13:15,-117.1971,39.4643,1749.34,37.40,34.20,88.09,0.00,0.00,0.00,30.21,M,10.00,M,CLR,M,M,M,M,M,M,M,M,M,M,M,M,M,M,37.40,KTMT 161315Z AUTO 00000KT 10SM CLR 03/01 A3021 RMK AO2 LTG DSNT S T00300012,M
05U,2023-06-16 13:30,-116.0051,39.6042,1811.23,42.80,35.60,75.50,0.00,0.00,0.00,30.21,M,10.00,M,CLR,M,M,M,M,M,M,M,M,M,M,M,M,M,M,42.80,K05U 161330Z AUTO 00000KT 10SM CLR 06/02 A3021 RMK A01,M
BVU,2023-06-16 13:35,-114.8611,35.9475,671.00,68.00,51.80,56.13,340.00,19.00,0.00,29.94,M,10.00,M,CLR,M,M,M,M,M,M,M,M,M,M,M,M,M,M,68.00,KBVU 161335Z AUTO 34019KT 10SM CLR 20/11 A2994 RMK AO2,M
CXP,2023-06-16 13:35,-119.7326,39.1923,1431.00,50.00,37.40,61.76,0.00,0.00,0.00,30.18,M,10.00,M,CLR,M,M,M,M,M,M,M,M,M,M,M,M,M,M,50.00,KCXP 161335Z AUTO 00000KT 10SM CLR 10/03 A3018 RMK AO2,M
RTS,2023-06-16 13:35,-119.8764,39.6682,1539.00,44.60,37.40,75.68,0.00,0.00,0.00,30.19,M,10.00,M,CLR,M,M,M,M,M,M,M,M,M,M,M,M,M,M,44.60,KRTS 161335Z AUTO 00000KT 10SM CLR 07/03 A3019 RMK AO2,M
MEV,2023-06-16 13:35,-119.7500,38.9963,1441.42,44.60,39.20,81.20,0.00,0.00,0.00,30.17,M,10.00,M,CLR,M,M,M,M,M,M,M,M,M,M,M,M,M,M,44.60,KMEV 161335Z AUTO 00000KT 10SM CLR 07/04 A3017 RMK AO2,M
BAM,2023-06-16 13:35,-116.8743,40.5990,1382.36,46.40,35.60,65.83,0.00,0.00,0.00,30.19,M,10.00,M,CLR,M,M,M,M,M,M,M,M,M,M,M,M,M,M,46.40,KBAM 161335Z AUTO 00000KT 10SM CLR 08/02 A3019 RMK AO1,M
HTH,2023-06-16 13:35,-118.6315,38.5448,1282.89,57.20,35.60,44.19,0.00,0.00,0.00,30.14,M,10.00,M,CLR,M,M,M,M,M,M,M,M,M,M,M,M,M,M,57.20,KHTH 161335Z AUTO 00000KT 10SM CLR 14/02 A3014 RMK A01,M
TMT,2023-06-16 13:35,-117.1971,39.4643,1749.34,38.80,35.20,86.77,0.00,0.00,0.00,30.21,M,10.00,M,CLR,M,M,M,M,M,M,M,M,M,M,M,M,M,M,38.80,KTMT 161335Z AUTO 00000KT 10SM CLR 04/02 A3021 RMK AO2 T00380018,M
LSV,2023-06-16 13:38,-115.0343,36.2362,570.00,66.20,57.20,72.74,270.00,18.00,0.00,29.94,1011.80,10.00,M,OVC,M,M,M,9000.00,M,M,M,-RA,M,M,M,M,M,M,66.20,KLSV 161338Z AUTO 27018KT 10SM -RA OVC090 19/14 A2994 RMK AO2 RAB38 SLP118 $,M
INS,2023-06-16 13:45,-115.6733,36.5872,955.00,59.00,53.60,82.25,40.00,9.00,0.00,30.06,1014.20,10.00,M,OVC,M,M,M,9500.00,M,M,M,-DZ,M,M,M,M,M,M,59.00,KINS 161345Z AUTO 04009KT 10SM -DZ OVC095 15/12 A3006 RMK AO2 DZB45 SLP142 $,M
05U,2023-06-16 13:50,-116.0051,39.6042,1811.23,46.40,37.40,70.68,0.00,0.00,0.00,30.21,M,10.00,M,CLR,M,M,M,M,M,M,M,M,M,M,M,M,M,M,46.40,K05U 161350Z AUTO 00000KT 10SM CLR 08/03 A3021 RMK A01,M
P68,2023-06-16 13:53,-116.0056,39.6014,1993.00,45.00,37.00,73.37,180.00,3.00,0.00,30.18,1016.90,M,M,M,M,M,M,M,M,M,M,M,M,M,M,M,M,M,43.55,KP68 161353Z AUTO 18003KT 07/03 A3018 RMK AO1 SLP169 T00720028,M
DRA,2023-06-16 13:53,-116.0278,36.6206,1009.00,66.00,48.00,52.22,60.00,11.00,0.00,30.02,1012.10,10.00,20.00,SCT,M,M,M,9000.00,M,M,M,M,M,M,M,M,M,M,66.00,KDRA 161353Z AUTO 06011G20KT 030V090 10SM SCT090 19/09 A3002 RMK AO2 SLP121 T01890089,M
ELY,2023-06-16 13:53,-114.8453,39.2950,1909.00,44.00,37.00,75.93,190.00,6.00,0.00,30.19,1015.80,10.00,M,CLR,M,M,M,M,M,M,M,M,M,M,M,M,M,M,40.10,KELY 161353Z AUTO 19006KT 10SM CLR 07/03 A3019 RMK AO2 SLP158 T00670028,M
VGT,2023-06-16 13:53,-115.1933,36.2111,667.00,63.00,57.00,80.76,320.00,12.00,0.22,30.00,1015.30,5.00,M,OVC,M,M,M,3200.00,M,M,M,+RA,M,M,M,26.00,320.00,2023-06-16 13:00,63.00,KVGT 161353Z 32012KT 5SM +RA OVC032 17/14 A3000 RMK AO2 PK WND 32026/1300 SLP153 P0022 T01720139,M
LOL,2023-06-16 13:53,-118.5701,40.0684,1192.43,51.00,M,M,0.00,0.00,0.00,30.14,1018.20,10.00,M,CLR,M,M,M,M,M,M,M,M,M,M,M,M,M,M,M,KLOL 161353Z AUTO 00000KT 10SM CLR 11/ A3014 RMK AO2 SLP182 T0106 $,M
BVU,2023-06-16 13:55,-114.8611,35.9475,671.00,68.00,53.60,59.97,330.00,21.00,0.00,29.95,M,10.00,27.00,CLR,M,M,M,M,M,M,M,M,M,M,M,M,M,M,68.00,KBVU 161355Z AUTO 33021G27KT 10SM CLR 20/12 A2995 RMK AO2,M
CXP,2023-06-16 13:55,-119.7326,39.1923,1431.00,51.80,37.40,57.77,0.00,0.00,0.00,30.18,M,10.00,M,CLR,M,M,M,M,M,M,M,M,M,M,M,M,M,M,51.80,KCXP 161355Z AUTO 00000KT 10SM CLR 11/03 A3018 RMK AO2,M
RTS,2023-06-16 13:55,-119.8764,39.6682,1539.00,50.00,37.40,61.76,0.00,0.00,0.00,30.19,M,10.00,M,CLR,M,M,M,M,M,M,M,M,M,M,M,M,M,M,50.00,KRTS 161355Z AUTO 00000KT 10SM CLR 10/03 A3019 RMK AO2,M
MEV,2023-06-16 13:55,-119.7500,38.9963,1441.42,48.20,39.20,70.88,0.00,0.00,0.00,30.17,M,10.00,M,CLR,M,M,M,M,M,M,M,M,M,M,M,M,M,M,48.20,KMEV 161355Z AUTO 00000KT 10SM CLR 09/04 A3017 RMK AO2,M
BAM,2023-06-16 13:55,-116.8743,40.5990,1382.36,51.80,37.40,57.77,0.00,0.00,0.00,30.19,M,10.00,M,CLR,M,M,M,M,M,M,M,M,M,M,M,M,M,M,51.80,KBAM 161355Z AUTO 00000KT 10SM CLR 11/03 A3019 RMK AO1,M
HTH,2023-06-16 13:55,-118.6315,38.5448,1282.89,59.00,35.60,41.42,0.00,0.00,0.00,30.14,M,10.00,M,CLR,M,M,M,M,M,M,M,M,M,M,M,M,M,M,59.00,KHTH 161355Z AUTO 00000KT 10SM CLR 15/02 A3014 RMK A01,M
TMT,2023-06-16 13:55,-117.1971,39.4643,1749.34,41.50,35.80,80.01,0.00,0.00,0.00,30.21,M,10.00,M,CLR,M,M,M,M,M,M,M,M,M,M,M,M,M,M,41.50,KTMT 161355Z AUTO 00000KT 10SM CLR 05/02 A3021 RMK AO2 T00530021,M
INS,2023-06-16 13:55,-115.6733,36.5872,955.00,59.20,55.60,87.84,40.00,9.00,T,30.06,1014.20,10.00,M,FEW,OVC,M,M,6000.00,10000.00,M,M,-RA,M,M,M,M,M,M,59.20,KINS 161355Z AUTO 04009KT 10SM -RA FEW060 OVC100 15/13 A3006 RMK AO2 DZB45E47RAB47 SLP142 P0000 T01510131 $,M
LSV,2023-06-16 13:55,-115.0343,36.2362,570.00,65.30,56.80,73.98,260.00,17.00,T,29.95,1012.10,10.00,M,BKN,OVC,M,M,7500.00,9000.00,M,M,-RA,M,M,M,28.00,270.00,2023-06-16 13:14,65.30,KLSV 161355Z AUTO 26017KT 10SM -RA BKN075 OVC090 19/14 A2995 RMK AO2 PK WND 27028/14 RAB38 SLP121 P0000 T01850138 $,M
RNO,2023-06-16 13:55,-119.7711,39.4839,1341.00,55.00,35.00,46.91,0.00,0.00,0.00,30.16,1017.10,10.00,M,SCT,M,M,M,25000.00,M,M,M,M,M,M,M,M,M,M,55.00,KRNO 161355Z 00000KT 10SM SCT250 13/02 A3016 RMK AO2 SLP171 T01280017,M
EKO,2023-06-16 13:56,-115.7860,40.8242,1367.00,48.00,39.00,70.85,0.00,0.00,M,30.19,1019.10,10.00,M,CLR,M,M,M,M,M,M,M,M,M,M,M,M,M,M,48.00,METAR KEKO 161356Z 00000KT 10SM CLR 09/04 A3019 RMK AO2 SLP191 T00890039 TSNO FIBI,M
WMC,2023-06-16 13:56,-117.8072,40.9019,1315.00,52.00,37.00,56.45,0.00,0.00,0.00,30.17,1018.40,10.00,M,CLR,M,M,M,M,M,M,M,M,M,M,M,M,M,M,52.00,KWMC 161356Z AUTO 00000KT 10SM CLR 11/03 A3017 RMK AO2 SLP184 T01110028,M
TPH,2023-06-16 13:56,-117.0904,38.0505,1654.00,54.00,M,M,350.00,11.00,0.00,30.14,1014.80,10.00,M,CLR,M,M,M,M,M,M,M,M,M,M,M,M,M,M,M,KTPH 161356Z AUTO 35011KT 10SM CLR 12/ A3014 RMK AO2 SLP148 T0122 $,M
LAS,2023-06-16 13:56,-115.1634,36.0719,663.00,63.00,59.00,86.77,290.00,10.00,0.04,30.01,1014.10,7.00,M,OVC,M,M,M,9000.00,M,M,M,RA,M,M,M,M,M,M,63.00,KLAS 161356Z 29010KT 7SM RA OVC090 17/15 A3001 RMK AO2 SLP141 P0004 T01720150,M
NFL,2023-06-16 13:56,-118.7010,39.4166,1199.00,57.00,35.00,43.63,300.00,3.00,0.00,30.14,1017.00,10.00,M,CLR,M,M,M,M,M,M,M,M,M,M,M,M,M,M,57.00,KNFL 161356Z AUTO 30003KT 10SM CLR 14/02 A3014 RMK AO2 SLP170 T01390017,M
HND,2023-06-16 13:56,-115.1344,35.9729,742.79,64.00,58.00,80.54,300.00,10.00,0.03,30.03,1016.20,10.00,M,OVC,M,M,M,9000.00,M,M,M,-RA,M,M,M,M,M,M,64.00,KHND 161356Z 30010KT 10SM -RA OVC090 18/14 A3003 RMK AO2 RAB1259 SLP162 P0003 T01780144,M
05U,2023-06-16 14:10,-116.0051,39.6042,1811.23,51.80,35.60,53.81,0.00,0.00,0.00,30.22,M,10.00,M,CLR,M,M,M,M,M,M,M,M,M,M,M,M,M,M,51.80,K05U 161410Z AUTO 00000KT 10SM CLR 11/02 A3022 RMK A01,M
BVU,2023-06-16 14:15,-114.8611,35.9475,671.00,68.00,53.60,59.97,M,M,0.00,29.95,M,10.00,M,CLR,M,M,M,M,M,M,M,M,M,M,M,M,M,M,68.00,KBVU 161415Z AUTO 21/62500022G27KT 10SM CLR 20/12 A2995 RMK AO2 LTG DSNT SW,M
CXP,2023-06-16 14:15,-119.7326,39.1923,1431.00,53.60,37.40,54.07,0.00,0.00,0.00,30.19,M,10.00,M,CLR,M,M,M,M,M,M,M,M,M,M,M,M,M,M,53.60,KCXP 161415Z AUTO 00000KT 10SM CLR 12/03 A3019 RMK AO2,M
RTS,2023-06-16 14:15,-119.8764,39.6682,1539.00,51.80,39.20,61.99,0.00,0.00,0.00,30.19,M,10.00,M,CLR,M,M,M,M,M,M,M,M,M,M,M,M,M,M,51.80,KRTS 161415Z AUTO 00000KT 10SM CLR 11/04 A3019 RMK AO2,M
MEV,2023-06-16 14:15,-119.7500,38.9963,1441.42,51.80,37.40,57.77,0.00,0.00,0.00,30.18,M,10.00,M,CLR,M,M,M,M,M,M,M,M,M,M,M,M,M,M,51.80,KMEV 161415Z AUTO 00000KT 10SM CLR 11/03 A3018 RMK AO2,M
BAM,2023-06-16 14:15,-116.8743,40.5990,1382.36,53.60,39.20,58.02,340.00,3.00,0.00,30.19,M,10.00,M,CLR,M,M,M,M,M,M,M,M,M,M,M,M,M,M,53.60,KBAM 161415Z AUTO 34003KT 10SM CLR 12/04 A3019 RMK AO1,M
HTH,2023-06-16 14:15,-118.6315,38.5448,1282.89,60.80,32.00,33.64,340.00,4.00,0.00,30.14,M,10.00,M,CLR,M,M,M,M,M,M,M,M,M,M,M,M,M,M,60.80,KHTH 161415Z AUTO 34004KT 10SM CLR 16/M00 A3014 RMK A01,M
TMT,2023-06-16 14:15,-117.1971,39.4643,1749.34,43.70,35.40,72.37,0.00,0.00,0.00,30.21,M,10.00,M,CLR,M,M,M,M,M,M,M,M,M,M,M,M,M,M,43.70,KTMT 161415Z AUTO 00000KT 10SM CLR 07/02 A3021 RMK AO2 T00650019,M
LAS,2023-06-16 14:20,-115.1634,36.0719,663.00,63.00,59.00,86.77,320.00,6.00,0.12,30.00,M,2.00,M,BKN,BKN,OVC,M,5500.00,7500.00,9000.00,M,RA BR,M,M,M,M,M,M,63.00,KLAS 161420Z 32006KT 2SM RA BR BKN055 BKN075 OVC090 17/15 A3000 RMK AO2 VIS E 7+ P0012 T01720150,M
INS,2023-06-16 14:22,-115.6733,36.5872,955.00,59.00,55.40,87.83,70.00,4.00,0.00,30.07,1014.50,10.00,M,FEW,BKN,OVC,M,7000.00,10000.00,13000.00,M,M,M,M,M,M,M,M,59.00,KINS 161422Z AUTO 07004KT 10SM FEW070 BKN100 OVC130 15/13 A3007 RMK AO2 RAE20DZB20E22 SLP145 $,M
INS,2023-06-16 14:30,-115.6733,36.5872,955.00,59.00,55.40,87.83,100.00,3.00,0.00,30.07,1014.50,10.00,M,BKN,OVC,M,M,9500.00,13000.00,M,M,-DZ,M,M,M,M,M,M,59.00,KINS 161430Z AUTO 10003KT 10SM -DZ BKN095 OVC130 15/13 A3007 RMK AO2 RAE20DZB20E22DZB30 SLP145 $,M
05U,2023-06-16 14:30,-116.0051,39.6042,1811.23,51.80,35.60,53.81,360.00,6.00,0.00,30.22,M,10.00,M,CLR,M,M,M,M,M,M,M,M,M,M,M,M,M,M,51.80,K05U 161430Z AUTO 36006KT 10SM CLR 11/02 A3022 RMK A01,M
LAS,2023-06-16 14:31,-115.1634,36.0719,663.00,63.00,58.00,83.42,320.00,12.00,0.14,30.01,M,8.00,M,SCT,BKN,OVC,M,5500.00,7000.00,11000.00,M,-RA,M,M,M,M,M,M,63.00,KLAS 161431Z 32012KT 8SM -RA SCT055 BKN070 OVC110 17/14 A3001 RMK AO2 P0014 T01720144,M
BVU,2023-06-16 14:35,-114.8611,35.9475,671.00,66.20,55.40,68.15,330.00,22.00,0.00,29.97,M,10.00,28.00,SCT,M,M,M,10000.00,M,M,M,M,M,M,M,M,M,M,66.20,KBVU 161435Z AUTO 33022G28KT 10SM SCT100 19/13 A2997 RMK AO2,M
CXP,2023-06-16 14:35,-119.7326,39.1923,1431.00,55.40,35.60,47.16,0.00,0.00,0.00,30.19,M,10.00,M,CLR,M,M,M,M,M,M,M,M,M,M,M,M,M,M,55.40,KCXP 161435Z AUTO 00000KT 10SM CLR 13/02 A3019 RMK AO2,M
RTS,2023-06-16 14:35,-119.8764,39.6682,1539.00,53.60,35.60,50.36,0.00,0.00,0.00,30.19,M,10.00,M,CLR,M,M,M,M,M,M,M,M,M,M,M,M,M,M,53.60,KRTS 161435Z AUTO 00000KT 10SM CLR 12/02 A3019 RMK AO2,M
MEV,2023-06-16 14:35,-119.7500,38.9963,1441.42,53.60,33.80,46.88,0.00,0.00,0.00,30.17,M,10.00,M,CLR,M,M,M,M,M,M,M,M,M,M,M,M,M,M,53.60,KMEV 161435Z AUTO 00000KT 10SM CLR 12/01 A3017 RMK AO2,M
BAM,2023-06-16 14:35,-116.8743,40.5990,1382.36,57.20,37.40,47.44,310.00,5.00,0.00,30.19,M,10.00,M,CLR,M,M,M,M,M,M,M,M,M,M,M,M,M,M,57.20,KBAM 161435Z AUTO 31005KT 10SM CLR 14/03 A3019 RMK AO1,M
HTH,2023-06-16 14:35,-118.6315,38.5448,1282.89,60.80,32.00,33.64,0.00,0.00,0.00,30.15,M,10.00,M,CLR,M,M,M,M,M,M,M,M,M,M,M,M,M,M,60.80,KHTH 161435Z AUTO 00000KT 10SM CLR 16/M00 A3015 RMK A01,M
TMT,2023-06-16 14:35,-117.1971,39.4643,1749.34,46.00,37.20,71.19,0.00,0.00,0.00,30.21,M,10.00,M,CLR,M,M,M,M,M,M,M,M,M,M,M,M,M,M,46.00,KTMT 161435Z AUTO 00000KT 10SM CLR 08/03 A3021 RMK AO2 T00780029,M
INS,2023-06-16 14:46,-115.6733,36.5872,955.00,59.00,57.20,93.74,30.00,4.00,0.00,30.07,1014.70,10.00,M,OVC,M,M,M,9000.00,M,M,M,M,M,M,M,M,M,M,59.00,KINS 161446Z AUTO 03004KT 10SM OVC090 15/14 A3007 RMK AO2 RAE20DZB20E22DZB30E33RAB33E46 SLP147 $,M
05U,2023-06-16 14:50,-116.0051,39.6042,1811.23,51.80,35.60,53.81,360.00,7.00,0.00,30.22,M,10.00,M,CLR,M,M,M,M,M,M,M,M,M,M,M,M,M,M,51.80,K05U 161450Z AUTO 36007KT 10SM CLR 11/02 A3022 RMK A01,M
P68,2023-06-16 14:53,-116.0056,39.6014,1993.00,51.00,36.00,56.10,360.00,8.00,0.00,30.19,1017.40,M,M,M,M,M,M,M,M,M,M,M,M,M,M,M,M,M,51.10,KP68 161453Z AUTO 36008KT 11/02 A3019 RMK AO1 SLP174 T01060022 53004,M
DRA,2023-06-16 14:53,-116.0278,36.6206,1009.00,65.00,50.00,58.47,60.00,9.00,0.00,30.05,1013.30,10.00,18.00,CLR,M,M,M,M,M,M,M,M,M,M,M,M,M,M,64.90,KDRA 161453Z AUTO 06009G18KT 10SM CLR 18/10 A3005 RMK AO2 SLP133 T01830100 51021,M
VGT,2023-06-16 14:53,-115.1933,36.2111,667.00,65.00,59.00,81.19,320.00,10.00,0.18,30.01,1015.80,5.00,M,OVC,M,M,M,3800.00,M,M,M,-RA,M,M,M,M,M,M,64.90,KVGT 161453Z 32010KT 5SM -RA OVC038 18/15 A3001 RMK AO2 SLP158 P0018 60043 T01830150 51019,M
LOL,2023-06-16 14:53,-118.5701,40.0684,1192.43,61.00,36.00,39.19,20.00,7.00,0.00,30.14,1017.80,10.00,M,CLR,M,M,M,M,M,M,M,M,M,M,M,M,M,M,61.00,KLOL 161453Z AUTO 02007KT 10SM CLR 16/02 A3014 RMK AO2 SLP178 T01610022 51006,M
HND,2023-06-16 14:53,-115.1344,35.9729,742.79,62.60,57.20,82.50,220.00,3.00,0.17,30.05,M,9.00,M,FEW,BKN,OVC,M,900.00,6500.00,8000.00,M,RA,M,M,M,M,M,M,62.60,KHND 161453Z 22003KT 9SM RA FEW009 BKN065 OVC080 17/14 A3005 RMK AO2 PRESRR P0017,M
ELY,2023-06-16 14:53,-114.8453,39.2950,1909.00,51.00,35.00,54.13,110.00,5.00,0.00,30.19,1015.80,10.00,M,CLR,M,M,M,M,M,M,M,M,M,M,M,M,M,M,51.10,KELY 161453Z AUTO 11005KT 10SM CLR 11/02 A3019 RMK AO2 SLP158 T01060017 51005,M
BVU,2023-06-16 14:55,-114.8611,35.9475,671.00,66.20,55.40,68.15,330.00,16.00,0.00,29.98,M,10.00,25.00,BKN,BKN,M,M,10000.00,12000.00,M,M,M,M,M,M,M,M,M,66.20,KBVU 161455Z AUTO 33016G25KT 10SM BKN100 BKN120 19/13 A2998 RMK AO2,M
CXP,2023-06-16 14:55,-119.7326,39.1923,1431.00,57.20,33.80,41.13,0.00,0.00,0.00,30.19,M,10.00,M,CLR,M,M,M,M,M,M,M,M,M,M,M,M,M,M,57.20,KCXP 161455Z AUTO 00000KT 10SM CLR 14/01 A3019 RMK AO2,M
RTS,2023-06-16 14:55,-119.8764,39.6682,1539.00,57.20,33.80,41.13,0.00,0.00,0.00,30.20,M,10.00,M,CLR,M,M,M,M,M,M,M,M,M,M,M,M,M,M,57.20,KRTS 161455Z AUTO 00000KT 10SM CLR 14/01 A3020 RMK AO2,M
MEV,2023-06-16 14:55,-119.7500,38.9963,1441.42,53.60,39.20,58.02,0.00,0.00,0.00,30.18,M,10.00,M,CLR,M,M,M,M,M,M,M,M,M,M,M,M,M,M,53.60,KMEV 161455Z AUTO 00000KT 10SM CLR 12/04 A3018 RMK AO2,M
BAM,2023-06-16 14:55,-116.8743,40.5990,1382.36,59.00,39.20,47.72,320.00,5.00,0.00,30.19,M,10.00,M,CLR,M,M,M,M,M,M,M,M,M,M,M,M,M,M,59.00,KBAM 161455Z AUTO 32005KT 10SM CLR 15/04 A3019 RMK AO1,M
HTH,2023-06-16 14:55,-118.6315,38.5448,1282.89,60.80,33.80,36.16,0.00,0.00,0.00,30.15,M,10.00,M,CLR,M,M,M,M,M,M,M,M,M,M,M,M,M,M,60.80,KHTH 161455Z AUTO 00000KT 10SM CLR 16/01 A3015 RMK A01,M
TMT,2023-06-16 14:55,-117.1971,39.4643,1749.34,48.40,37.80,66.59,0.00,0.00,0.00,30.22,M,10.00,M,CLR,M,M,M,M,M,M,M,M,M,M,M,M,M,M,48.40,KTMT 161455Z AUTO 00000KT 10SM CLR 09/03 A3022 RMK AO2 T00910032,M
INS,2023-06-16 14:55,-115.6733,36.5872,955.00,59.40,55.80,87.85,30.00,4.00,0.01,30.07,1014.70,10.00,M,OVC,M,M,M,9000.00,M,M,M,M,M,M,M,M,M,M,59.40,KINS 161455Z AUTO 03004KT 10SM OVC090 15/13 A3007 RMK AO2 RAE20DZB20E22DZB30E33RAB33E46 SLP147 P0001 60002 T01520132 52026 $,M
LSV,2023-06-16 14:55,-115.0343,36.2362,570.00,63.00,57.20,81.06,300.00,10.00,0.07,29.98,1013.50,4.00,M,FEW,FEW,OVC,M,3700.00,5000.00,6500.00,M,RA,M,M,M,M,M,M,63.10,KLSV 161455Z AUTO 30010KT 4SM RA FEW037 FEW050 OVC065 17/14 A2998 RMK AO2 SLP135 P0007 60007 T01730140 52027 $,M
RNO,2023-06-16 14:55,-119.7711,39.4839,1341.00,59.00,35.00,40.61,0.00,0.00,0.00,30.17,1017.20,10.00,M,CLR,M,M,M,M,M,M,M,M,M,M,M,M,M,M,59.00,KRNO 161455Z 00000KT 10SM CLR 15/02 A3017 RMK AO2 SLP172 T01500017 51006,M
EKO,2023-06-16 14:56,-115.7860,40.8242,1367.00,54.00,38.00,54.56,0.00,0.00,M,30.19,1019.10,10.00,M,CLR,M,M,M,M,M,M,M,M,M,M,M,M,M,M,54.00,METAR KEKO 161456Z 00000KT 10SM CLR 12/03 A3019 RMK AO2 SLP191 T01220033 51007 TSNO FIBI,M
WMC,2023-06-16 14:56,-117.8072,40.9019,1315.00,60.00,37.00,42.09,50.00,6.00,0.00,30.18,1018.50,10.00,M,CLR,M,M,M,M,M,M,M,M,M,M,M,M,M,M,60.10,KWMC 161456Z AUTO 05006KT 10SM CLR 16/03 A3018 RMK AO2 SLP185 T01560028 51010,M
HND,2023-06-16 14:56,-115.1344,35.9729,742.79,62.00,59.00,89.57,250.00,3.00,0.17,30.05,1016.80,9.00,M,FEW,BKN,OVC,M,900.00,6500.00,8000.00,M,RA,M,M,M,M,M,M,62.10,KHND 161456Z 25003KT 9SM RA FEW009 BKN065 OVC080 17/15 A3005 RMK AO2 SLP168 P0017 60020 T01670150 51016,M
TPH,2023-06-16 14:56,-117.0904,38.0505,1654.00,61.00,M,M,350.00,9.00,0.00,30.14,1014.40,10.00,M,CLR,M,M,M,M,M,M,M,M,M,M,M,M,M,M,M,KTPH 161456Z AUTO 35009KT 10SM CLR 16/ A3014 RMK AO2 SLP144 T0161 51007 $,M
NFL,2023-06-16 14:56,-118.7010,39.4166,1199.00,61.00,35.00,37.81,M,3.00,0.00,30.14,1017.20,10.00,M,CLR,M,M,M,M,M,M,M,M,M,M,M,M,M,M,61.00,KNFL 161456Z VRB03KT 10SM CLR 16/02 A3014 RMK AO2 SLP172 T01610017 51007,M
LAS,2023-06-16 14:56,-115.1634,36.0719,663.00,64.00,58.00,80.54,310.00,10.00,0.14,30.01,1014.40,10.00,M,FEW,SCT,BKN,M,5000.00,9000.00,11000.00,M,M,M,M,M,M,M,M,64.00,KLAS 161456Z 31010KT 10SM FEW050 SCT090 BKN110 18/14 A3001 RMK AO2 RAE37 SLP144 P0014 60019 T01780144 51025,M
LSV,2023-06-16 15:00,-115.0343,36.2362,570.00,64.40,59.00,82.62,260.00,8.00,0.00,29.99,1013.70,3.00,M,OVC,M,M,M,6500.00,M,M,M,+RA,M,M,M,M,M,M,64.40,KLSV 161500Z AUTO 26008KT 3SM +RA OVC065 18/15 A2999 RMK AO2 SLP137 $,M
LSV,2023-06-16 15:02,-115.0343,36.2362,570.00,64.40,59.00,82.62,230.00,8.00,0.00,30.00,1014.00,2.75,M,OVC,M,M,M,6500.00,M,M,M,+RA,M,M,M,M,M,M,64.40,KLSV 161502Z AUTO 23008KT 2 3/4SM +RA OVC065 18/15 A3000 RMK AO2 VIS 2 3/4V4 SLP140 $,M
LSV,2023-06-16 15:04,-115.0343,36.2362,570.00,62.60,59.00,88.00,260.00,8.00,0.00,29.99,1013.80,2.25,M,OVC,M,M,M,6500.00,M,M,M,+RA,M,M,M,M,M,M,62.60,KLSV 161504Z AUTO 26008KT 2 1/4SM +RA OVC065 17/15 A2999 RMK AO2 VIS 2 1/4V4 SLP138 $,M
LSV,2023-06-16 15:05,-115.0343,36.2362,570.00,62.60,59.00,88.00,270.00,9.00,0.00,29.99,1013.80,2.00,M,OVC,M,M,M,6000.00,M,M,M,+RA,M,M,M,M,M,M,62.60,KLSV 161505Z AUTO 27009KT 2SM +RA OVC060 17/15 A2999 RMK AO2 VIS 2V4 SLP138 $,M
LSV,2023-06-16 15:06,-115.0343,36.2362,570.00,62.60,59.00,88.00,280.00,10.00,0.00,29.99,1013.80,1.88,M,OVC,M,M,M,6000.00,M,M,M,+RA,M,M,M,M,M,M,62.60,KLSV 161506Z AUTO 28010KT 1 7/8SM +RA OVC060 17/15 A2999 RMK AO2 VIS 1 7/8V4 SLP138 $,M
05U,2023-06-16 15:10,-116.0051,39.6042,1811.23,53.60,35.60,50.36,360.00,7.00,0.00,30.22,M,10.00,M,CLR,M,M,M,M,M,M,M,M,M,M,M,M,M,M,53.60,K05U 161510Z AUTO 36007KT 10SM CLR 12/02 A3022 RMK A01,M
LSV,2023-06-16 15:11,-115.0343,36.2362,570.00,62.60,59.00,88.00,260.00,5.00,0.00,30.00,1014.20,2.00,M,OVC,M,M,M,6000.00,M,M,M,RA BR,M,M,M,M,M,M,62.60,KLSV 161511Z AUTO 26005KT 2SM RA BR OVC060 17/15 A3000 RMK AO2 VIS 1 3/4V2 3/4 SLP142 $,M
BVU,2023-06-16 15:15,-114.8611,35.9475,671.00,66.20,55.40,68.15,330.00,18.00,0.00,29.99,M,10.00,23.00,SCT,SCT,OVC,M,4700.00,6000.00,9500.00,M,M,M,M,M,M,M,M,66.20,KBVU 161515Z AUTO 33018G23KT 10SM SCT047 SCT060 OVC095 19/13 A2999 RMK AO2,M
CXP,2023-06-16 15:15,-119.7326,39.1923,1431.00,59.00,33.80,38.56,0.00,0.00,0.00,30.19,M,10.00,M,CLR,M,M,M,M,M,M,M,M,M,M,M,M,M,M,59.00,KCXP 161515Z AUTO 00000KT 10SM CLR 15/01 A3019 RMK AO2,M
RTS,2023-06-16 15:15,-119.8764,39.6682,1539.00,59.00,33.80,38.56,0.00,0.00,0.00,30.20,M,10.00,M,CLR,M,M,M,M,M,M,M,M,M,M,M,M,M,M,59.00,KRTS 161515Z AUTO 00000KT 10SM CLR 15/01 A3020 RMK AO2,M
MEV,2023-06-16 15:15,-119.7500,38.9963,1441.42,55.40,35.60,47.16,0.00,0.00,0.00,30.18,M,10.00,M,CLR,M,M,M,M,M,M,M,M,M,M,M,M,M,M,55.40,KMEV 161515Z AUTO 00000KT 10SM CLR 13/02 A3018 RMK AO2,M
BAM,2023-06-16 15:15,-116.8743,40.5990,1382.36,59.00,37.40,44.47,340.00,5.00,0.00,30.19,M,10.00,M,CLR,M,M,M,M,M,M,M,M,M,M,M,M,M,M,59.00,KBAM 161515Z AUTO 34005KT 10SM CLR 15/03 A3019 RMK AO1,M
HTH,2023-06-16 15:15,-118.6315,38.5448,1282.89,60.80,33.80,36.16,M,3.00,0.00,30.16,M,10.00,M,CLR,M,M,M,M,M,M,M,M,M,M,M,M,M,M,60.80,KHTH 161515Z AUTO VRB03KT 10SM CLR 16/01 A3016 RMK A01,M
TMT,2023-06-16 15:15,-117.1971,39.4643,1749.34,51.30,38.00,60.02,0.00,0.00,0.00,30.22,M,10.00,M,CLR,M,M,M,M,M,M,M,M,M,M,M,M,M,M,51.30,KTMT 161515Z AUTO 00000KT 10SM CLR 11/03 A3022 RMK AO2 T01070033,M
LSV,2023-06-16 15:16,-115.0343,36.2362,570.00,62.60,59.00,88.00,0.00,0.00,0.00,30.00,1014.20,1.88,M,OVC,M,M,M,5500.00,M,M,M,+RA BR,M,M,M,M,M,M,62.60,KLSV 161516Z AUTO 00000KT 1 7/8SM +RA BR OVC055 17/15 A3000 RMK AO2 SLP142 $,M
LSV,2023-06-16 15:20,-115.0343,36.2362,570.00,62.60,59.00,88.00,310.00,5.00,0.00,30.00,1014.20,2.00,M,OVC,M,M,M,5000.00,M,M,M,+RA BR,M,M,M,M,M,M,62.60,KLSV 161520Z AUTO 31005KT 2SM +RA BR OVC050 17/15 A3000 RMK AO2 SLP142 $,M
LSV,2023-06-16 15:22,-115.0343,36.2362,570.00,62.60,59.00,88.00,310.00,10.00,0.00,30.00,1014.20,3.00,M,OVC,M,M,M,5000.00,M,M,M,RA BR,M,M,M,M,M,M,62.60,KLSV 161522Z AUTO 31010KT 3SM RA BR OVC050 17/15 A3000 RMK AO2 SLP142 $,M
LSV,2023-06-16 15:23,-115.0343,36.2362,570.00,62.60,59.00,88.00,310.00,10.00,0.00,30.00,1014.20,4.00,M,OVC,M,M,M,5000.00,M,M,M,RA BR,M,M,M,M,M,M,62.60,KLSV 161523Z AUTO 31010KT 4SM RA BR OVC050 17/15 A3000 RMK AO2 SLP142 $,M
LSV,2023-06-16 15:25,-115.0343,36.2362,570.00,62.60,59.00,88.00,310.00,11.00,0.00,30.00,1014.20,6.00,M,OVC,M,M,M,4800.00,M,M,M,-RA BR,M,M,M,M,M,M,62.60,KLSV 161525Z AUTO 31011KT 6SM -RA BR OVC048 17/15 A3000 RMK AO2 SLP142 $,M
05U,2023-06-16 15:30,-116.0051,39.6042,1811.23,55.40,35.60,47.16,M,M,0.00,30.23,M,10.00,M,CLR,M,M,M,M,M,M,M,M,M,M,M,M,M,M,55.40,K05U 161530Z AUTO 10SM CLR 13/02 A3023 RMK A01,M
BVU,2023-06-16 15:35,-114.8611,35.9475,671.00,62.60,59.00,88.00,340.00,19.00,0.00,30.00,M,5.00,M,FEW,SCT,BKN,M,3300.00,6000.00,7500.00,M,-RA,M,M,M,M,M,M,62.60,KBVU 161535Z AUTO 34019KT 5SM -RA FEW033 SCT060 BKN075 17/15 A3000 RMK AO2,M
CXP,2023-06-16 15:35,-119.7326,39.1923,1431.00,60.80,35.60,38.85,0.00,0.00,0.00,30.19,M,10.00,M,CLR,M,M,M,M,M,M,M,M,M,M,M,M,M,M,60.80,KCXP 161535Z AUTO 00000KT 10SM CLR 16/02 A3019 RMK AO2,M
LSV,2023-06-16 15:35,-115.0343,36.2362,570.00,64.40,62.60,93.88,320.00,7.00,0.00,30.00,1014.20,10.00,M,SCT,SCT,BKN,M,4500.00,5000.00,9000.00,M,-RA,M,M,M,M,M,M,64.40,KLSV 161535Z AUTO 32007KT 10SM -RA SCT045 SCT050 BKN090 18/17 A3000 RMK AO2 SLP142 $,M
RTS,2023-06-16 15:35,-119.8764,39.6682,1539.00,59.00,33.80,38.56,110.00,5.00,0.00,30.20,M,10.00,M,CLR,M,M,M,M,M,M,M,M,M,M,M,M,M,M,59.00,KRTS 161535Z AUTO 11005KT 10SM CLR 15/01 A3020 RMK AO2,M
MEV,2023-06-16 15:35,-119.7500,38.9963,1441.42,59.00,33.80,38.56,0.00,0.00,0.00,30.18,M,10.00,M,CLR,M,M,M,M,M,M,M,M,M,M,M,M,M,M,59.00,KMEV 161535Z AUTO 00000KT 10SM CLR 15/01 A3018 RMK AO2,M
BAM,2023-06-16 15:35,-116.8743,40.5990,1382.36,60.80,39.20,44.76,340.00,4.00,0.00,30.19,M,10.00,M,CLR,M,M,M,M,M,M,M,M,M,M,M,M,M,M,60.80,KBAM 161535Z AUTO 34004KT 10SM CLR 16/04 A3019 RMK AO1,M
HTH,2023-06-16 15:35,-118.6315,38.5448,1282.89,62.60,35.60,36.45,M,4.00,0.00,30.15,M,10.00,M,CLR,M,M,M,M,M,M,M,M,M,M,M,M,M,M,62.60,KHTH 161535Z AUTO VRB04KT 10SM CLR 17/02 A3015 RMK A01,M
TMT,2023-06-16 15:35,-117.1971,39.4643,1749.34,52.70,34.20,49.23,0.00,0.00,0.00,30.22,M,10.00,M,CLR,M,M,M,M,M,M,M,M,M,M,M,M,M,M,52.70,KTMT 161535Z AUTO 00000KT 10SM CLR 12/01 A3022 RMK AO2 T01150012,M
05U,2023-06-16 15:50,-116.0051,39.6042,1811.23,57.20,35.60,44.19,10.00,8.00,0.00,30.22,M,10.00,M,CLR,M,M,M,M,M,M,M,M,M,M,M,M,M,M,57.20,K05U 161550Z AUTO 01008KT 360V080 10SM CLR 14/02 A3022 RMK A01,M
P68,2023-06-16 15:53,-116.0056,39.6014,1993.00,56.00,36.00,47.05,10.00,8.00,0.00,30.19,1017.70,M,M,M,M,M,M,M,M,M,M,M,M,M,M,M,M,M,55.90,KP68 161553Z AUTO 01008KT 13/02 A3019 RMK AO1 SLP177 T01330022,M
DRA,2023-06-16 15:53,-116.0278,36.6206,1009.00,66.00,52.00,60.60,110.00,15.00,0.00,30.04,1013.70,10.00,24.00,CLR,M,M,M,M,M,M,M,M,M,M,M,M,M,M,66.00,KDRA 161553Z AUTO 11015G24KT 10SM CLR 19/11 A3004 RMK AO2 SLP137 T01890111,M
ELY,2023-06-16 15:53,-114.8453,39.2950,1909.00,55.00,34.00,44.90,50.00,4.00,0.00,30.20,1015.70,10.00,M,CLR,M,M,M,M,M,M,M,M,M,M,M,M,M,M,55.00,KELY 161553Z AUTO 05004KT 10SM CLR 13/01 A3020 RMK AO2 SLP157 T01280011,M
VGT,2023-06-16 15:53,-115.1933,36.2111,667.00,66.00,59.00,78.14,330.00,9.00,0.02,30.03,1016.70,10.00,M,OVC,M,M,M,9000.00,M,M,M,-RA,M,M,M,M,M,M,66.00,KVGT 161553Z 33009KT 10SM -RA OVC090 19/15 A3003 RMK AO2 SLP167 P0002 T01890150,M
LOL,2023-06-16 15:53,-118.5701,40.0684,1192.43,65.00,38.00,36.82,30.00,9.00,0.00,30.15,1018.30,10.00,M,CLR,M,M,M,M,M,M,M,M,M,M,M,M,M,M,64.90,KLOL 161553Z AUTO 03009KT 10SM CLR 18/03 A3015 RMK AO2 SLP183 T01830033,M
LSV,2023-06-16 15:54,-115.0343,36.2362,570.00,64.40,64.40,100.00,10.00,3.00,0.00,30.00,1014.20,10.00,M,SCT,M,M,M,9000.00,M,M,M,M,M,M,M,M,M,M,64.40,KLSV 161554Z AUTO 01003KT 10SM SCT090 18/18 A3000 RMK AO2 RAE52DZB52E54 SLP142 $,M
BVU,2023-06-16 15:55,-114.8611,35.9475,671.00,62.60,59.00,88.00,310.00,13.00,0.00,30.02,M,9.00,22.00,FEW,SCT,BKN,M,5500.00,6500.00,7500.00,M,-RA,M,M,M,M,M,M,62.60,KBVU 161555Z AUTO 31013G22KT 9SM -RA FEW055 SCT065 BKN075 17/15 A3002 RMK AO2,M
CXP,2023-06-16 15:55,-119.7326,39.1923,1431.00,62.60,33.80,33.93,0.00,0.00,0.00,30.19,M,10.00,M,CLR,M,M,M,M,M,M,M,M,M,M,M,M,M,M,62.60,KCXP 161555Z AUTO 00000KT 10SM CLR 17/01 A3019 RMK AO2,M
RNO,2023-06-16 15:55,-119.7711,39.4839,1341.00,65.00,32.00,29.12,10.00,3.00,0.00,30.17,1016.90,10.00,M,CLR,M,M,M,M,M,M,M,M,M,M,M,M,M,M,64.90,KRNO 161555Z 01003KT 10SM CLR 18/00 A3017 RMK AO2 SLP169 T01830000,M
RTS,2023-06-16 15:55,-119.8764,39.6682,1539.00,60.80,33.80,36.16,110.00,6.00,0.00,30.20,M,10.00,M,CLR,M,M,M,M,M,M,M,M,M,M,M,M,M,M,60.80,KRTS 161555Z AUTO 11006KT 10SM CLR 16/01 A3020 RMK AO2,M
MEV,2023-06-16 15:55,-119.7500,38.9963,1441.42,59.00,33.80,38.56,0.00,0.00,0.00,30.18,M,10.00,M,CLR,M,M,M,M,M,M,M,M,M,M,M,M,M,M,59.00,KMEV 161555Z AUTO 00000KT 10SM CLR 15/01 A3018 RMK AO2,M
BAM,2023-06-16 15:55,-116.8743,40.5990,1382.36,60.80,41.00,48.00,0.00,0.00,0.00,30.19,M,10.00,M,CLR,M,M,M,M,M,M,M,M,M,M,M,M,M,M,60.80,KBAM 161555Z AUTO 00000KT 10SM CLR 16/05 A3019 RMK AO1,M
HTH,2023-06-16 15:55,-118.6315,38.5448,1282.89,66.20,33.80,29.92,320.00,10.00,0.00,30.15,M,10.00,M,CLR,M,M,M,M,M,M,M,M,M,M,M,M,M,M,66.20,KHTH 161555Z AUTO 32010KT 10SM CLR 19/01 A3015 RMK A01,M
TMT,2023-06-16 15:55,-117.1971,39.4643,1749.34,53.00,34.50,49.10,0.00,0.00,0.00,30.22,M,10.00,M,CLR,M,M,M,M,M,M,M,M,M,M,M,M,M,M,53.10,KTMT 161555Z AUTO 00000KT 10SM CLR 12/01 A3022 RMK AO2 T01170014,M
INS,2023-06-16 15:55,-115.6733,36.5872,955.00,62.00,55.20,78.65,70.00,7.00,0.00,30.08,1014.90,10.00,M,OVC,M,M,M,9500.00,M,M,M,M,M,M,M,M,M,M,61.90,KINS 161555Z AUTO 07007KT 10SM OVC095 17/13 A3008 RMK AO2 SLP149 T01660129 $,M
LSV,2023-06-16 15:55,-115.0343,36.2362,570.00,65.00,64.80,98.96,360.00,3.00,0.14,30.00,1014.20,10.00,M,SCT,M,M,M,9000.00,M,M,M,M,M,M,M,M,M,M,65.10,KLSV 161555Z AUTO 36003KT 10SM SCT090 18/18 A3000 RMK AO2 RAE52DZB52E54 SLP142 P0014 T01840182 $,M
EKO,2023-06-16 15:56,-115.7860,40.8242,1367.00,59.00,39.00,47.35,110.00,2.92,M,30.19,1018.60,10.00,M,CLR,M,M,M,M,M,M,M,M,M,M,M,M,M,M,59.00,METAR KEKO 161556Z 11003KT 10SM CLR 15/04 A3019 RMK AO2 SLP186 T01500039 TSNO FIBI,M
WMC,2023-06-16 15:56,-117.8072,40.9019,1315.00,65.00,39.00,38.44,M,6.00,0.00,30.18,1018.60,10.00,M,CLR,M,M,M,M,M,M,M,M,M,M,M,M,M,M,64.90,KWMC 161556Z AUTO VRB06KT 10SM CLR 18/04 A3018 RMK AO2 SLP186 T01830039,M
NFL,2023-06-16 15:56,-118.7010,39.4166,1199.00,65.00,37.00,35.54,10.00,5.00,0.00,30.15,1017.40,10.00,M,CLR,M,M,M,M,M,M,M,M,M,M,M,M,M,M,64.90,KNFL 161556Z 01005KT 10SM CLR 18/03 A3015 RMK AO2 SLP174 T01830028,M
HND,2023-06-16 15:56,-115.1344,35.9729,742.79,64.00,59.00,83.78,0.00,0.00,0.01,30.07,1017.80,10.00,M,OVC,M,M,M,10000.00,M,M,M,-RA,M,M,M,M,M,M,64.00,KHND 161556Z 00000KT 10SM -RA OVC100 18/15 A3007 RMK AO2 RAE29B54 SLP178 P0001 T01780150,M
TPH,2023-06-16 15:56,-117.0904,38.0505,1654.00,65.00,28.00,24.75,270.00,8.00,0.00,30.15,1014.70,10.00,M,CLR,M,M,M,M,M,M,M,M,M,M,M,M,M,M,64.90,KTPH 161556Z AUTO 27008KT 10SM CLR 18/M02 A3015 RMK AO2 SLP147 T01831022 $,M
LAS,2023-06-16 15:56,-115.1634,36.0719,663.00,66.00,58.00,75.12,10.00,9.00,T,30.05,1015.50,10.00,M,BKN,OVC,M,M,10000.00,11000.00,M,M,-RA,M,M,M,M,M,M,66.00,KLAS 161556Z 01009KT 10SM -RA BKN100 OVC110 19/14 A3005 RMK AO2 RAB40 SLP155 P0000 T01890144,M
INS,2023-06-16 16:10,-115.6733,36.5872,955.00,62.60,55.40,77.29,80.00,9.00,0.00,30.08,1014.90,10.00,M,FEW,OVC,M,M,4400.00,9500.00,M,M,-DZ,M,M,M,M,M,M,62.60,KINS 161610Z AUTO 08009KT 10SM -DZ FEW044 OVC095 17/13 A3008 RMK AO2 DZB10 SLP149 $,M
05U,2023-06-16 16:10,-116.0051,39.6042,1811.23,59.00,35.60,41.42,M,5.00,0.00,30.22,M,10.00,M,CLR,M,M,M,M,M,M,M,M,M,M,M,M,M,M,59.00,K05U 161610Z AUTO VRB05KT 10SM CLR 15/02 A3022 RMK A01,M
BVU,2023-06-16 16:15,-114.8611,35.9475,671.00,62.60,57.20,82.50,330.00,13.00,0.00,30.02,M,5.00,M,FEW,SCT,BKN,M,3500.00,4100.00,5000.00,M,RA,M,M,M,M,M,M,62.60,KBVU 161615Z AUTO 33013KT 5SM RA FEW035 SCT041 BKN050 17/14 A3002 RMK AO2,M
CXP,2023-06-16 16:15,-119.7326,39.1923,1431.00,64.40,32.00,29.63,0.00,0.00,0.00,30.19,M,10.00,M,CLR,M,M,M,M,M,M,M,M,M,M,M,M,M,M,64.40,KCXP 161615Z AUTO 00000KT 10SM CLR 18/M00 A3019 RMK AO2,M
RTS,2023-06-16 16:15,-119.8764,39.6682,1539.00,60.80,32.00,33.64,100.00,5.00,0.00,30.20,M,10.00,M,CLR,M,M,M,M,M,M,M,M,M,M,M,M,M,M,60.80,KRTS 161615Z AUTO 10005KT 10SM CLR 16/00 A3020 RMK AO2,M
MEV,2023-06-16 16:15,-119.7500,38.9963,1441.42,60.80,33.80,36.16,0.00,0.00,0.00,30.18,M,10.00,M,CLR,M,M,M,M,M,M,M,M,M,M,M,M,M,M,60.80,KMEV 161615Z AUTO 00000KT 10SM CLR 16/01 A3018 RMK AO2,M
BAM,2023-06-16 16:15,-116.8743,40.5990,1382.36,60.80,35.60,38.85,0.00,0.00,0.00,30.19,M,10.00,M,CLR,M,M,M,M,M,M,M,M,M,M,M,M,M,M,60.80,KBAM 161615Z AUTO 00000KT 10SM CLR 16/02 A3019 RMK AO1,M
HTH,2023-06-16 16:15,-118.6315,38.5448,1282.89,66.20,33.80,29.92,320.00,9.00,0.00,30.15,M,10.00,M,CLR,M,M,M,M,M,M,M,M,M,M,M,M,M,M,66.20,KHTH 161615Z AUTO 32009KT 10SM CLR 19/01 A3015 RMK A01,M
TMT,2023-06-16 16:15,-117.1971,39.4643,1749.34,54.50,34.50,46.65,0.00,0.00,0.00,30.22,M,10.00,M,CLR,M,M,M,M,M,M,M,M,M,M,M,M,M,M,54.50,KTMT 161615Z AUTO 00000KT 10SM CLR 13/01 A3022 RMK AO2 T01250014,M
LSV,2023-06-16 16:19,-115.0343,36.2362,570.00,66.20,66.20,100.00,0.00,0.00,0.00,30.01,1014.50,10.00,M,FEW,SCT,BKN,M,5000.00,6500.00,8500.00,M,-RA,M,M,M,M,M,M,66.20,KLSV 161619Z AUTO 00000KT 10SM -RA FEW050 SCT065 BKN085 19/19 A3001 RMK AO2 RAB19 SLP145 $,M
INS,2023-06-16 16:25,-115.6733,36.5872,955.00,62.60,55.40,77.29,80.00,9.00,0.00,30.08,1015.00,10.00,M,SCT,OVC,M,M,4800.00,10000.00,M,M,M,M,M,M,M,M,M,62.60,KINS 161625Z AUTO 08009KT 10SM SCT048 OVC100 17/13 A3008 RMK AO2 DZB10E25 SLP150 $,M
05U,2023-06-16 16:30,-116.0051,39.6042,1811.23,59.00,35.60,41.42,M,5.00,0.00,30.22,M,10.00,M,CLR,M,M,M,M,M,M,M,M,M,M,M,M,M,M,59.00,K05U 161630Z AUTO VRB05KT 10SM CLR 15/02 A3022 RMK A01,M
BVU,2023-06-16 16:35,-114.8611,35.9475,671.00,62.60,57.20,82.50,320.00,14.00,0.00,30.02,M,9.00,M,FEW,SCT,BKN,M,2600.00,3700.00,4800.00,M,-RA,M,M,M,M,M,M,62.60,KBVU 161635Z AUTO 32014KT 9SM -RA FEW026 SCT037 BKN048 17/14 A3002 RMK AO2,M
CXP,2023-06-16 16:35,-119.7326,39.1923,1431.00,66.20,30.20,25.88,50.00,8.00,0.00,30.18,M,10.00,M,CLR,M,M,M,M,M,M,M,M,M,M,M,M,M,M,66.20,KCXP 161635Z AUTO 05008KT 10SM CLR 19/M01 A3018 RMK AO2,M
LSV,2023-06-16 16:35,-115.0343,36.2362,570.00,66.20,64.40,93.92,180.00,3.00,0.00,30.01,1014.50,10.00,M,FEW,FEW,SCT,M,5000.00,7000.00,8000.00,M,M,M,M,M,M,M,M,66.20,KLSV 161635Z AUTO 18003KT 10SM FEW050 FEW070 SCT080 19/18 A3001 RMK AO2 RAB19E35 SLP145 $,M
RTS,2023-06-16 16:35,-119.8764,39.6682,1539.00,62.60,30.20,29.35,90.00,8.00,0.00,30.20,M,10.00,M,CLR,M,M,M,M,M,M,M,M,M,M,M,M,M,M,62.60,KRTS 161635Z AUTO 09008KT 10SM CLR 17/M01 A3020 RMK AO2,M
MEV,2023-06-16 16:35,-119.7500,38.9963,1441.42,62.60,35.60,36.45,0.00,0.00,0.00,30.17,M,10.00,M,CLR,M,M,M,M,M,M,M,M,M,M,M,M,M,M,62.60,KMEV 161635Z AUTO 00000KT 10SM CLR 17/02 A3017 RMK AO2,M
BAM,2023-06-16 16:35,-116.8743,40.5990,1382.36,64.40,37.40,36.74,0.00,0.00,0.00,30.19,M,10.00,M,CLR,M,M,M,M,M,M,M,M,M,M,M,M,M,M,64.40,KBAM 161635Z AUTO 00000KT 10SM CLR 18/03 A3019 RMK AO1,M
HTH,2023-06-16 16:35,-118.6315,38.5448,1282.89,66.20,33.80,29.92,340.00,7.00,0.00,30.15,M,10.00,M,M,M,M,M,M,M,M,M,M,M,M,M,M,M,M,66.20,KHTH 161635Z AUTO 34007KT 10SM 19/01 A3015 RMK A01,M
TMT,2023-06-16 16:35,-117.1971,39.4643,1749.34,56.00,35.00,45.40,0.00,0.00,0.00,30.21,M,10.00,M,CLR,M,M,M,M,M,M,M,M,M,M,M,M,M,M,55.90,KTMT 161635Z AUTO 00000KT 10SM CLR 13/02 A3021 RMK AO2 T01330017,M
LSV,2023-06-16 16:38,-115.0343,36.2362,570.00,66.20,64.40,93.92,150.00,3.00,0.00,30.01,1014.50,10.00,M,FEW,FEW,SCT,M,5000.00,7000.00,8000.00,M,-RA,M,M,M,M,M,M,66.20,KLSV 161638Z AUTO 15003KT 10SM -RA FEW050 FEW070 SCT080 19/18 A3001 RMK AO2 RAB19E35RAB38 SLP145 $,M
LSV,2023-06-16 16:50,-115.0343,36.2362,570.00,66.20,64.40,93.92,0.00,0.00,0.00,30.01,1014.50,10.00,M,CLR,M,M,M,M,M,M,M,M,M,M,M,M,M,M,66.20,KLSV 161650Z AUTO 00000KT 10SM CLR 19/18 A3001 RMK AO2 RAB19E35RAB38E50DZB50E50 SLP145 $,M
05U,2023-06-16 16:50,-116.0051,39.6042,1811.23,60.80,35.60,38.85,10.00,6.00,0.00,30.22,M,10.00,M,CLR,M,M,M,M,M,M,M,M,M,M,M,M,M,M,60.80,K05U 161650Z AUTO 01006KT 10SM CLR 16/02 A3022 RMK A01,M
P68,2023-06-16 16:53,-116.0056,39.6014,1993.00,58.00,36.00,43.78,20.00,5.00,0.00,30.19,1017.80,M,M,M,M,M,M,M,M,M,M,M,M,M,M,M,M,M,57.90,KP68 161653Z AUTO 02005KT 14/02 A3019 RMK AO1 SLP178 T01440022,M
DRA,2023-06-16 16:53,-116.0278,36.6206,1009.00,69.00,50.00,50.56,110.00,19.00,0.00,30.03,1013.30,10.00,28.00,CLR,M,M,M,M,M,M,M,M,M,M,M,28.00,110.00,2023-06-16 16:53,69.10,KDRA 161653Z AUTO 11019G28KT 10SM CLR 21/10 A3003 RMK AO2 PK WND 11028/1653 SLP133 T02060100,M
ELY,2023-06-16 16:53,-114.8453,39.2950,1909.00,59.00,36.00,42.08,10.00,8.00,0.00,30.19,1015.40,10.00,M,CLR,M,M,M,M,M,M,M,M,M,M,M,M,M,M,59.00,KELY 161653Z AUTO 01008KT 10SM CLR 15/02 A3019 RMK AO2 SLP154 T01500022,M
VGT,2023-06-16 16:53,-115.1933,36.2111,667.00,66.00,59.00,78.14,330.00,10.00,T,30.03,1016.70,10.00,M,OVC,M,M,M,9000.00,M,M,M,M,M,M,M,M,M,M,66.00,KVGT 161653Z 33010KT 10SM OVC090 19/15 A3003 RMK AO2 RAE52 SLP167 P0000 T01890150,M
LOL,2023-06-16 16:53,-118.5701,40.0684,1192.43,68.00,35.00,29.61,20.00,7.00,0.00,30.14,1017.70,10.00,M,CLR,M,M,M,M,M,M,M,M,M,M,M,M,M,M,68.00,KLOL 161653Z AUTO 02007KT 10SM CLR 20/02 A3014 RMK AO2 SLP177 T02000017,M
BVU,2023-06-16 16:55,-114.8611,35.9475,671.00,64.40,57.20,77.45,10.00,10.00,0.00,30.02,M,7.00,18.00,FEW,BKN,M,M,4900.00,7000.00,M,M,RA,M,M,M,M,M,M,64.40,KBVU 161655Z AUTO 01010G18KT 7SM RA FEW049 BKN070 18/14 A3002 RMK AO2,M
CXP,2023-06-16 16:55,-119.7326,39.1923,1431.00,68.00,30.20,24.32,60.00,8.00,0.00,30.18,M,10.00,M,CLR,M,M,M,M,M,M,M,M,M,M,M,M,M,M,68.00,KCXP 161655Z AUTO 06008KT 10SM CLR 20/M01 A3018 RMK AO2,M
RNO,2023-06-16 16:55,-119.7711,39.4839,1341.00,69.00,30.90,24.09,0.00,0.00,0.00,30.16,1016.60,10.00,M,CLR,M,M,M,M,M,M,M,M,M,M,M,M,M,M,69.10,KRNO 161655Z 00000KT 10SM CLR 21/M01 A3016 RMK AO2 SLP166 T02061006,M
RTS,2023-06-16 16:55,-119.8764,39.6682,1539.00,64.40,30.20,27.55,M,6.00,0.00,30.19,M,10.00,13.00,CLR,M,M,M,M,M,M,M,M,M,M,M,M,M,M,64.40,KRTS 161655Z AUTO VRB06G13KT 10SM CLR 18/M01 A3019 RMK AO2,M
MEV,2023-06-16 16:55,-119.7500,38.9963,1441.42,62.60,37.40,39.14,0.00,0.00,0.00,30.17,M,10.00,M,CLR,M,M,M,M,M,M,M,M,M,M,M,M,M,M,62.60,KMEV 161655Z AUTO 00000KT 10SM CLR 17/03 A3017 RMK AO2,M
BAM,2023-06-16 16:55,-116.8743,40.5990,1382.36,64.40,35.60,34.22,310.00,4.00,0.00,30.19,M,10.00,M,CLR,M,M,M,M,M,M,M,M,M,M,M,M,M,M,64.40,KBAM 161655Z AUTO 31004KT 10SM CLR 18/02 A3019 RMK AO1,M
HTH,2023-06-16 16:55,-118.6315,38.5448,1282.89,68.00,30.20,24.32,340.00,9.00,0.00,30.14,M,10.00,M,M,M,M,M,M,M,M,M,M,M,M,M,M,M,M,68.00,KHTH 161655Z AUTO 34009KT 10SM 20/M01 A3014 RMK A01,M
TMT,2023-06-16 16:55,-117.1971,39.4643,1749.34,58.00,36.00,43.78,50.00,3.00,0.00,30.21,M,10.00,M,CLR,M,M,M,M,M,M,M,M,M,M,M,M,M,M,57.90,KTMT 161655Z AUTO 05003KT 10SM CLR 14/02 A3021 RMK AO2 T01440022,M
INS,2023-06-16 16:55,-115.6733,36.5872,955.00,64.20,54.00,69.69,60.00,9.00,T,30.08,1015.20,10.00,M,BKN,BKN,M,M,10000.00,12000.00,M,M,M,M,M,M,M,M,M,64.20,KINS 161655Z AUTO 06009KT 10SM BKN100 BKN120 18/12 A3008 RMK AO2 DZB10E25 SLP152 P0000 T01790123 $,M
LSV,2023-06-16 16:55,-115.0343,36.2362,570.00,66.70,65.00,93.94,0.00,0.00,T,30.01,1014.50,10.00,M,FEW,M,M,M,9000.00,M,M,M,M,M,M,M,M,M,M,66.70,KLSV 161655Z AUTO 00000KT 10SM FEW090 19/18 A3001 RMK AO2 RAB19E35RAB38E50DZB50E50 SLP145 P0000 T01930183 $,M
EKO,2023-06-16 16:56,-115.7860,40.8242,1367.00,64.00,37.00,36.68,60.00,7.00,M,30.17,1018.00,10.00,M,CLR,M,M,M,M,M,M,M,M,M,M,M,M,M,M,64.00,METAR KEKO 161656Z 06007KT 10SM CLR 18/03 A3017 RMK AO2 SLP180 T01780028 TSNO FIBI,M
HND,2023-06-16 16:56,-115.1344,35.9729,742.79,65.00,59.00,81.19,360.00,3.00,0.01,30.06,1017.70,10.00,M,OVC,M,M,M,10000.00,M,M,M,M,M,M,M,M,M,M,64.90,KHND 161656Z 36003KT 10SM OVC100 18/15 A3006 RMK AO2 RAE33 SLP177 P0001 T01830150,M
TPH,2023-06-16 16:56,-117.0904,38.0505,1654.00,68.00,23.00,18.06,M,6.00,0.00,30.14,1014.50,10.00,16.00,CLR,M,M,M,M,M,M,M,M,M,M,M,M,M,M,68.00,KTPH 161656Z AUTO VRB06G16KT 10SM CLR 20/M05 A3014 RMK AO2 SLP145 T02001050,M
LAS,2023-06-16 16:56,-115.1634,36.0719,663.00,68.00,57.00,67.86,350.00,8.00,T,30.04,1015.30,10.00,M,OVC,M,M,M,10000.00,M,M,M,M,M,M,M,M,M,M,68.00,KLAS 161656Z 35008KT 10SM OVC100 20/14 A3004 RMK AO2 RAE34 SLP153 P0000 T02000139,M
WMC,2023-06-16 16:56,-117.8072,40.9019,1315.00,68.00,35.00,29.61,20.00,9.00,0.00,30.17,1017.90,10.00,M,CLR,M,M,M,M,M,M,M,M,M,M,M,M,M,M,68.00,KWMC 161656Z AUTO 02009KT 10SM CLR 20/02 A3017 RMK AO2 SLP179 T02000017,M
NFL,2023-06-16 16:56,-118.7010,39.4166,1199.00,69.00,38.00,31.85,M,4.00,0.00,30.13,1017.00,10.00,M,CLR,M,M,M,M,M,M,M,M,M,M,M,M,M,M,69.10,KNFL 161656Z VRB04KT 10SM CLR 21/03 A3013 RMK AO2 SLP170 T02060033,M
05U,2023-06-16 17:10,-116.0051,39.6042,1811.23,60.80,35.60,38.85,20.00,7.00,0.00,30.22,M,10.00,M,CLR,M,M,M,M,M,M,M,M,M,M,M,M,M,M,60.80,K05U 161710Z AUTO 02007KT 360V100 10SM CLR 16/02 A3022 RMK A01,M
BVU,2023-06-16 17:15,-114.8611,35.9475,671.00,64.40,59.00,82.62,340.00,10.00,0.00,30.01,M,9.00,M,FEW,SCT,BKN,M,5000.00,6000.00,9000.00,M,-DZ,M,M,M,M,M,M,64.40,KBVU 161715Z AUTO 34010KT 9SM -DZ FEW050 SCT060 BKN090 18/15 A3001 RMK AO2,M
CXP,2023-06-16 17:15,-119.7326,39.1923,1431.00,68.00,28.40,22.59,50.00,4.00,0.00,30.18,M,10.00,14.00,CLR,M,M,M,M,M,M,M,M,M,M,M,M,M,M,68.00,KCXP 161715Z AUTO 05004G14KT 10SM CLR 20/M02 A3018 RMK AO2,M
RTS,2023-06-16 17:15,-119.8764,39.6682,1539.00,64.40,30.20,27.55,130.00,3.00,0.00,30.19,M,10.00,13.00,CLR,M,M,M,M,M,M,M,M,M,M,M,M,M,M,64.40,KRTS 161715Z AUTO 13003G13KT 10SM CLR 18/M01 A3019 RMK AO2,M
MEV,2023-06-16 17:15,-119.7500,38.9963,1441.42,64.40,33.80,31.85,0.00,0.00,0.00,30.17,M,10.00,M,CLR,M,M,M,M,M,M,M,M,M,M,M,M,M,M,64.40,KMEV 161715Z AUTO 00000KT 10SM CLR 18/01 A3017 RMK AO2,M
BAM,2023-06-16 17:15,-116.8743,40.5990,1382.36,66.20,35.60,32.14,330.00,6.00,0.00,30.19,M,10.00,M,CLR,M,M,M,M,M,M,M,M,M,M,M,M,M,M,66.20,KBAM 161715Z AUTO 33006KT 10SM CLR 19/02 A3019 RMK AO1,M
HTH,2023-06-16 17:15,-118.6315,38.5448,1282.89,69.80,32.00,24.59,320.00,12.00,0.00,30.14,M,10.00,M,CLR,M,M,M,M,M,M,M,M,M,M,M,M,M,M,69.80,KHTH 161715Z AUTO 32012KT 10SM CLR 21/00 A3014 RMK A01,M
TMT,2023-06-16 17:20,-117.1971,39.4643,1749.34,59.00,35.20,40.77,60.00,4.00,0.00,30.21,M,10.00,M,CLR,M,M,M,M,M,M,M,M,M,M,M,M,M,M,59.00,KTMT 161720Z AUTO 06004KT 10SM CLR 15/02 A3021 RMK AO2 T01500018,M
05U,2023-06-16 17:30,-116.0051,39.6042,1811.23,62.60,35.60,36.45,M,4.00,0.00,30.22,M,10.00,M,CLR,M,M,M,M,M,M,M,M,M,M,M,M,M,M,62.60,K05U 161730Z AUTO VRB04KT 10SM CLR 17/02 A3022 RMK A01,M
BVU,2023-06-16 17:35,-114.8611,35.9475,671.00,66.20,59.00,77.60,330.00,8.00,0.00,30.01,M,10.00,14.00,FEW,SCT,M,M,6000.00,10000.00,M,M,M,M,M,M,M,M,M,66.20,KBVU 161735Z AUTO 33008G14KT 10SM FEW060 SCT100 19/15 A3001 RMK AO2,M
CXP,2023-06-16 17:35,-119.7326,39.1923,1431.00,68.00,26.60,20.98,M,4.00,0.00,30.17,M,10.00,13.00,CLR,M,M,M,M,M,M,M,M,M,M,M,M,M,M,68.00,KCXP 161735Z AUTO VRB04G13KT 10SM CLR 20/M03 A3017 RMK AO2,M
RTS,2023-06-16 17:35,-119.8764,39.6682,1539.00,64.40,32.00,29.63,M,6.00,0.00,30.19,M,10.00,13.00,CLR,M,M,M,M,M,M,M,M,M,M,M,M,M,M,64.40,KRTS 161735Z AUTO VRB06G13KT 10SM CLR 18/M00 A3019 RMK AO2,M
MEV,2023-06-16 17:35,-119.7500,38.9963,1441.42,66.20,32.00,27.83,290.00,5.00,0.00,30.16,M,10.00,M,CLR,M,M,M,M,M,M,M,M,M,M,M,M,M,M,66.20,KMEV 161735Z AUTO 29005KT 10SM CLR 19/M00 A3016 RMK AO2,M
BAM,2023-06-16 17:35,-116.8743,40.5990,1382.36,66.20,33.80,29.92,10.00,4.00,0.00,30.18,M,10.00,M,CLR,M,M,M,M,M,M,M,M,M,M,M,M,M,M,66.20,KBAM 161735Z AUTO 01004KT 10SM CLR 19/01 A3018 RMK AO1,M
HTH,2023-06-16 17:35,-118.6315,38.5448,1282.89,69.80,30.20,22.86,320.00,12.00,0.00,30.14,M,10.00,17.00,M,M,M,M,M,M,M,M,M,M,M,M,M,M,M,69.80,KHTH 161735Z AUTO 32012G17KT 10SM 21/M01 A3014 RMK A01,M
TMT,2023-06-16 17:35,-117.1971,39.4643,1749.34,59.70,33.00,36.27,40.00,3.00,0.00,30.21,M,10.00,M,CLR,M,M,M,M,M,M,M,M,M,M,M,M,M,M,59.70,KTMT 161735Z AUTO 04003KT 10SM CLR 15/01 A3021 RMK AO2 T01540005,M
INS,2023-06-16 17:43,-115.6733,36.5872,955.00,66.20,53.60,63.82,60.00,10.00,0.00,30.07,1014.90,10.00,M,BKN,OVC,M,M,11000.00,13000.00,M,M,-DZ,M,M,M,M,M,M,66.20,KINS 161743Z AUTO 06010KT 10SM -DZ BKN110 OVC130 19/12 A3007 RMK AO2 DZB43 SLP149 $,M
05U,2023-06-16 17:50,-116.0051,39.6042,1811.23,64.40,35.60,34.22,0.00,0.00,0.00,30.21,M,10.00,M,CLR,M,M,M,M,M,M,M,M,M,M,M,M,M,M,64.40,K05U 161750Z AUTO 00000KT 10SM CLR 18/02 A3021 RMK A01,M
INS,2023-06-16 17:52,-115.6733,36.5872,955.00,68.00,53.60,59.97,60.00,9.00,0.00,30.07,1014.90,10.00,M,FEW,SCT,OVC,M,6500.00,9500.00,13000.00,M,M,M,M,M,M,M,M,68.00,KINS 161752Z AUTO 06009KT 10SM FEW065 SCT095 OVC130 20/12 A3007 RMK AO2 DZB43E52 SLP149 $,M
ELY,2023-06-16 17:53,-114.8453,39.2950,1909.00,63.00,37.00,37.99,10.00,6.00,0.00,30.18,1014.70,10.00,M,FEW,M,M,M,7500.00,M,M,M,M,M,M,M,M,M,M,63.00,KELY 161753Z AUTO 01006KT 10SM FEW075 17/03 A3018 RMK AO2 SLP147 T01720028 10172 20022 58004,M
DRA,2023-06-16 17:53,-116.0278,36.6206,1009.00,72.00,51.00,47.72,110.00,15.00,0.00,30.04,1013.50,10.00,26.00,CLR,M,M,M,M,M,M,M,M,M,M,M,29.00,120.00,2023-06-16 17:21,72.00,KDRA 161753Z AUTO 11015G26KT 10SM CLR 22/11 A3004 RMK AO2 PK WND 12029/1721 SLP135 T02220106 10222 20178 55001,M
VGT,2023-06-16 17:53,-115.1933,36.2111,667.00,68.00,58.00,70.10,310.00,12.00,0.00,30.02,1016.30,10.00,M,OVC,M,M,M,9000.00,M,M,M,M,M,M,M,M,M,M,68.00,KVGT 161753Z 31012KT 10SM OVC090 20/14 A3002 RMK AO2 SLP163 60045 T02000144 10200 20172 50003,M
P68,2023-06-16 17:53,-116.0056,39.6014,1993.00,62.00,35.00,36.37,340.00,3.00,0.00,30.18,1017.30,M,M,M,M,M,M,M,M,M,M,M,M,M,M,M,M,M,62.10,KP68 161753Z AUTO 34003KT 17/02 A3018 RMK AO1 SLP173 T01670017 10167 20017 58003,M
LOL,2023-06-16 17:53,-118.5701,40.0684,1192.43,71.00,35.00,26.63,30.00,7.00,0.00,30.13,1017.40,10.00,M,CLR,M,M,M,M,M,M,M,M,M,M,M,M,M,M,71.10,KLOL 161753Z AUTO 03007KT 10SM CLR 22/02 A3013 RMK AO2 SLP174 T02170017 10217 20056 58003,M
BVU,2023-06-16 17:55,-114.8611,35.9475,671.00,69.80,57.20,64.26,360.00,6.00,0.00,30.02,M,10.00,13.00,SCT,M,M,M,11000.00,M,M,M,M,M,M,M,M,M,M,69.80,KBVU 161755Z AUTO 36006G13KT 10SM SCT110 21/14 A3002 RMK AO2,M
CXP,2023-06-16 17:55,-119.7326,39.1923,1431.00,68.00,26.60,20.98,0.00,0.00,0.00,30.17,M,10.00,12.00,CLR,M,M,M,M,M,M,M,M,M,M,M,M,M,M,68.00,KCXP 161755Z AUTO 00000G12KT 10SM CLR 20/M03 A3017 RMK AO2,M
RNO,2023-06-16 17:55,-119.7711,39.4839,1341.00,72.00,30.00,21.04,110.00,8.00,0.00,30.15,1016.20,10.00,M,CLR,M,M,M,M,M,M,M,M,M,M,M,M,M,M,72.00,KRNO 161755Z 11008KT 10SM CLR 22/M01 A3015 RMK AO2 SLP162 T02221011 10222 20106 58005,M
RTS,2023-06-16 17:55,-119.8764,39.6682,1539.00,64.40,32.00,29.63,100.00,7.00,0.00,30.20,M,10.00,M,CLR,M,M,M,M,M,M,M,M,M,M,M,M,M,M,64.40,KRTS 161755Z AUTO 10007KT 050V160 10SM CLR 18/M00 A3020 RMK AO2,M
MEV,2023-06-16 17:55,-119.7500,38.9963,1441.42,68.00,32.00,26.15,M,4.00,0.00,30.16,M,10.00,M,CLR,M,M,M,M,M,M,M,M,M,M,M,M,M,M,68.00,KMEV 161755Z AUTO VRB04KT 10SM CLR 20/M00 A3016 RMK AO2,M
BAM,2023-06-16 17:55,-116.8743,40.5990,1382.36,66.20,33.80,29.92,80.00,4.00,0.00,30.18,M,10.00,M,CLR,M,M,M,M,M,M,M,M,M,M,M,M,M,M,66.20,KBAM 161755Z AUTO 08004KT 10SM CLR 19/01 A3018 RMK AO1,M
HTH,2023-06-16 17:55,-118.6315,38.5448,1282.89,69.80,28.40,21.24,330.00,9.00,0.00,30.14,M,10.00,16.00,M,M,M,M,M,M,M,M,M,M,M,M,M,M,M,69.80,KHTH 161755Z AUTO 33009G16KT 10SM 21/M02 A3014 RMK A01,M
TMT,2023-06-16 17:55,-117.1971,39.4643,1749.34,61.20,31.80,32.90,80.00,4.00,0.00,30.20,M,10.00,M,CLR,M,M,M,M,M,M,M,M,M,M,M,M,M,M,61.20,KTMT 161755Z AUTO 08004KT 10SM CLR 16/00 A3020 RMK AO2 T01621001 10162 20001,M
LSV,2023-06-16 17:55,-115.0343,36.2362,570.00,69.40,66.70,91.13,270.00,3.00,0.00,29.99,1013.70,10.00,M,BKN,M,M,M,9500.00,M,M,M,M,M,M,M,M,M,M,69.40,KLSV 161755Z AUTO 27003KT 10SM BKN095 21/19 A2999 RMK AO2 SLP137 60021 T02080193 10209 20170 50001 $,M
INS,2023-06-16 17:55,-115.6733,36.5872,955.00,67.60,54.00,61.93,50.00,12.00,T,30.07,1014.70,10.00,M,FEW,SCT,OVC,M,6500.00,9500.00,13000.00,M,M,M,M,M,M,M,M,67.60,KINS 161755Z AUTO 05012KT 10SM FEW065 SCT095 OVC130 20/12 A3007 RMK AO2 DZB43E52 SLP147 P0000 60002 T01980123 10198 20149 58002 $,M
EKO,2023-06-16 17:56,-115.7860,40.8242,1367.00,67.00,35.00,30.53,70.00,6.03,M,30.16,1017.70,10.00,M,CLR,M,M,M,M,M,M,M,M,M,M,M,M,M,M,67.00,METAR KEKO 161756Z 07006KT 10SM CLR 19/02 A3016 RMK AO2 SLP177 T01940017 10194 20050 58008 TSNO FIBI,M
WMC,2023-06-16 17:56,-117.8072,40.9019,1315.00,71.00,34.00,25.49,20.00,11.00,0.00,30.16,1017.70,10.00,M,CLR,M,M,M,M,M,M,M,M,M,M,M,M,M,M,71.10,KWMC 161756Z AUTO 02011KT 10SM CLR 22/01 A3016 RMK AO2 SLP177 T02170011 10217 20056 58006,M
HND,2023-06-16 17:56,-115.1344,35.9729,742.79,70.00,57.00,63.37,330.00,7.00,0.00,30.06,1017.30,10.00,M,FEW,M,M,M,10000.00,M,M,M,M,M,M,M,M,M,M,70.00,KHND 161756Z 33007KT 10SM FEW100 21/14 A3006 RMK AO2 SLP173 60022 T02110139 10211 20167 50003,M
TPH,2023-06-16 17:56,-117.0904,38.0505,1654.00,70.00,21.90,16.10,M,6.00,0.00,30.15,1014.80,10.00,16.00,CLR,M,M,M,M,M,M,M,M,M,M,M,M,M,M,70.00,KTPH 161756Z AUTO VRB06G16KT 10SM CLR 21/M06 A3015 RMK AO2 SLP148 T02111056 10217 20094 53000,M
NFL,2023-06-16 17:56,-118.7010,39.4166,1199.00,72.00,33.00,23.85,M,5.00,0.00,30.13,1016.80,10.00,M,CLR,M,M,M,M,M,M,M,M,M,M,M,M,M,M,72.00,KNFL 161756Z VRB05KT 10SM CLR 22/01 A3013 RMK AO2 SLP168 T02220006 10222 20089 58004,M
LAS,2023-06-16 17:56,-115.1634,36.0719,663.00,70.00,56.00,60.89,320.00,9.00,0.00,30.03,1015.00,10.00,M,BKN,M,M,M,9500.00,M,M,M,M,M,M,M,M,M,M,70.00,KLAS 161756Z 32009KT 10SM BKN095 21/13 A3003 RMK AO2 SLP150 60019 T02110133 10211 20172 50005,M
05U,2023-06-16 18:10,-116.0051,39.6042,1811.23,64.40,33.80,31.85,M,5.00,0.00,30.21,M,10.00,M,CLR,M,M,M,M,M,M,M,M,M,M,M,M,M,M,64.40,K05U 161810Z AUTO VRB05KT 10SM CLR 18/01 A3021 RMK A01,M
BVU,2023-06-16 18:15,-114.8611,35.9475,671.00,69.80,59.00,68.55,310.00,6.00,0.00,30.02,M,10.00,M,FEW,M,M,M,11000.00,M,M,M,M,M,M,M,M,M,M,69.80,KBVU 161815Z AUTO 31006KT 10SM FEW110 21/15 A3002 RMK AO2,M
CXP,2023-06-16 18:15,-119.7326,39.1923,1431.00,69.80,28.40,21.24,20.00,7.00,0.00,30.17,M,10.00,12.00,CLR,M,M,M,M,M,M,M,M,M,M,M,M,M,M,69.80,KCXP 161815Z AUTO 02007G12KT 10SM CLR 21/M02 A3017 RMK AO2,M
RTS,2023-06-16 18:15,-119.8764,39.6682,1539.00,64.40,30.20,27.55,50.00,6.00,0.00,30.19,M,10.00,15.00,CLR,M,M,M,M,M,M,M,M,M,M,M,M,M,M,64.40,KRTS 161815Z AUTO 05006G15KT 10SM CLR 18/M01 A3019 RMK AO2,M
MEV,2023-06-16 18:15,-119.7500,38.9963,1441.42,68.00,32.00,26.15,280.00,4.00,0.00,30.16,M,10.00,M,CLR,M,M,M,M,M,M,M,M,M,M,M,M,M,M,68.00,KMEV 161815Z AUTO 28004KT 10SM CLR 20/00 A3016 RMK AO2,M
BAM,2023-06-16 18:15,-116.8743,40.5990,1382.36,68.00,35.60,30.20,0.00,0.00,0.00,30.17,M,10.00,M,CLR,M,M,M,M,M,M,M,M,M,M,M,M,M,M,68.00,KBAM 161815Z AUTO 00000KT 10SM CLR 20/02 A3017 RMK AO1,M
HTH,2023-06-16 18:15,-118.6315,38.5448,1282.89,71.60,26.60,18.55,350.00,8.00,0.00,30.13,M,10.00,17.00,M,M,M,M,M,M,M,M,M,M,M,M,M,M,M,71.60,KHTH 161815Z AUTO 35008G17KT 320V020 10SM 22/M03 A3013 RMK A01,M
TMT,2023-06-16 18:15,-117.1971,39.4643,1749.34,62.60,32.00,31.56,30.00,3.00,0.00,30.20,M,10.00,M,CLR,M,M,M,M,M,M,M,M,M,M,M,M,M,M,62.60,KTMT 161815Z AUTO 03003KT 10SM CLR 17/00 A3020 RMK AO2 LTG DSNT SE T01700000,M
INS,2023-06-16 18:24,-115.6733,36.5872,955.00,68.00,53.60,59.97,60.00,8.00,0.00,30.06,1014.50,10.00,M,FEW,SCT,BKN,M,4800.00,7000.00,12000.00,M,-RA,M,M,M,M,M,M,68.00,KINS 161824Z AUTO 06008KT 10SM -RA FEW048 SCT070 BKN120 20/12 A3006 RMK AO2 RAB24 SLP145 $,M
05U,2023-06-16 18:30,-116.0051,39.6042,1811.23,66.20,32.00,27.83,0.00,0.00,0.00,30.20,M,10.00,M,CLR,M,M,M,M,M,M,M,M,M,M,M,M,M,M,66.20,K05U 161830Z AUTO 00000KT 10SM CLR 19/00 A3020 RMK A01,M
LSV,2023-06-16 18:33,-115.0343,36.2362,570.00,69.80,69.80,100.00,170.00,4.00,0.00,29.99,1013.70,10.00,M,OVC,M,M,M,9500.00,M,M,M,-DZ,M,M,M,M,M,M,69.80,KLSV 161833Z AUTO 17004KT 10SM -DZ OVC095 21/21 A2999 RMK AO2 DZB33 SLP137 $,M
BVU,2023-06-16 18:35,-114.8611,35.9475,671.00,73.40,59.00,60.67,320.00,10.00,0.00,30.01,M,10.00,M,FEW,M,M,M,12000.00,M,M,M,M,M,M,M,M,M,M,73.40,KBVU 161835Z AUTO 32010KT 10SM FEW120 23/15 A3001 RMK AO2,M
CXP,2023-06-16 18:35,-119.7326,39.1923,1431.00,71.60,28.40,19.98,90.00,8.00,0.00,30.17,M,10.00,13.00,CLR,M,M,M,M,M,M,M,M,M,M,M,M,M,M,71.60,KCXP 161835Z AUTO 09008G13KT 10SM CLR 22/M02 A3017 RMK AO2,M
RTS,2023-06-16 18:35,-119.8764,39.6682,1539.00,66.20,30.20,25.88,110.00,5.00,0.00,30.19,M,10.00,14.00,CLR,M,M,M,M,M,M,M,M,M,M,M,M,M,M,66.20,KRTS 161835Z AUTO 11005G14KT 10SM CLR 19/M01 A3019 RMK AO2,M
MEV,2023-06-16 18:35,-119.7500,38.9963,1441.42,69.80,33.80,26.43,290.00,4.00,0.00,30.16,M,10.00,M,CLR,M,M,M,M,M,M,M,M,M,M,M,M,M,M,69.80,KMEV 161835Z AUTO 29004KT 10SM CLR 21/01 A3016 RMK AO2,M
BAM,2023-06-16 18:35,-116.8743,40.5990,1382.36,69.80,37.40,30.49,350.00,5.00,0.00,30.17,M,10.00,M,CLR,M,M,M,M,M,M,M,M,M,M,M,M,M,M,69.80,KBAM 161835Z AUTO 35005KT 10SM CLR 21/03 A3017 RMK AO1,M
HTH,2023-06-16 18:35,-118.6315,38.5448,1282.89,71.60,26.60,18.55,360.00,12.00,0.00,30.13,M,10.00,M,M,M,M,M,M,M,M,M,M,M,M,M,M,M,M,71.60,KHTH 161835Z AUTO 36012KT 10SM 22/M03 A3013 RMK A01,M
TMT,2023-06-16 18:35,-117.1971,39.4643,1749.34,63.30,30.40,28.87,0.00,0.00,0.00,30.20,M,10.00,M,CLR,M,M,M,M,M,M,M,M,M,M,M,M,M,M,63.30,KTMT 161835Z AUTO 00000KT 10SM CLR 17/M01 A3020 RMK AO2 T01741009,M
LSV,2023-06-16 18:38,-115.0343,36.2362,570.00,69.80,69.80,100.00,170.00,3.00,0.00,29.99,1013.70,10.00,M,OVC,M,M,M,9500.00,M,M,M,M,M,M,M,M,M,M,69.80,KLSV 161838Z AUTO 17003KT 10SM OVC095 21/21 A2999 RMK AO2 DZB33E38 SLP137 $,M
INS,2023-06-16 18:44,-115.6733,36.5872,955.00,68.00,55.40,64.04,30.00,10.00,0.00,30.06,1014.50,10.00,M,FEW,SCT,OVC,M,4800.00,6000.00,15000.00,M,M,M,M,M,M,M,M,68.00,KINS 161844Z AUTO 03010KT 10SM FEW048 SCT060 OVC150 20/13 A3006 RMK AO2 RAB24E44 SLP145 $,M
05U,2023-06-16 18:50,-116.0051,39.6042,1811.23,66.20,28.40,24.04,10.00,5.00,0.00,30.20,M,10.00,M,CLR,M,M,M,M,M,M,M,M,M,M,M,M,M,M,66.20,K05U 161850Z AUTO 01005KT 10SM CLR 19/M02 A3020 RMK A01,M
P68,2023-06-16 18:53,-116.0056,39.6014,1993.00,65.00,28.90,25.68,20.00,6.00,0.00,30.17,1016.70,M,M,M,M,M,M,M,M,M,M,M,M,M,M,M,M,M,64.90,KP68 161853Z AUTO 02006KT 18/M02 A3017 RMK AO1 SLP167 T01831017,M
DRA,2023-06-16 18:53,-116.0278,36.6206,1009.00,76.00,50.00,40.19,100.00,14.00,0.00,30.04,1013.20,10.00,21.00,CLR,M,M,M,M,M,M,M,M,M,M,M,M,M,M,75.90,KDRA 161853Z AUTO 10014G21KT 10SM CLR 24/10 A3004 RMK AO2 SLP132 T02440100,M
ELY,2023-06-16 18:53,-114.8453,39.2950,1909.00,65.00,37.00,35.54,100.00,4.00,0.00,30.17,1014.50,10.00,M,SCT,M,M,M,8000.00,M,M,M,M,M,M,M,M,M,M,64.90,KELY 161853Z AUTO 10004KT 10SM SCT080 18/03 A3017 RMK AO2 SLP145 T01830028,M
LOL,2023-06-16 18:53,-118.5701,40.0684,1192.43,71.00,32.00,23.52,310.00,3.00,0.00,30.12,1017.10,10.00,M,CLR,M,M,M,M,M,M,M,M,M,M,M,M,M,M,71.10,KLOL 161853Z AUTO 31003KT 10SM CLR 22/00 A3012 RMK AO2 SLP171 T02170000,M
VGT,2023-06-16 18:53,-115.1933,36.2111,667.00,72.00,56.00,56.89,310.00,7.00,0.00,30.01,1016.00,10.00,M,OVC,M,M,M,9000.00,M,M,M,M,M,M,M,M,M,M,72.00,KVGT 161853Z 31007KT 10SM OVC090 22/13 A3001 RMK AO2 SLP160 T02220133,M
BVU,2023-06-16 18:55,-114.8611,35.9475,671.00,71.60,59.00,64.48,320.00,9.00,0.00,30.01,M,10.00,15.00,FEW,M,M,M,11000.00,M,M,M,M,M,M,M,M,M,M,71.60,KBVU 161855Z AUTO 32009G15KT 10SM FEW110 22/15 A3001 RMK AO2,M
CXP,2023-06-16 18:55,-119.7326,39.1923,1431.00,69.80,28.40,21.24,90.00,6.00,0.00,30.17,M,10.00,M,CLR,M,M,M,M,M,M,M,M,M,M,M,M,M,M,69.80,KCXP 161855Z AUTO 09006KT 10SM CLR 21/M02 A3017 RMK AO2,M
RNO,2023-06-16 18:55,-119.7711,39.4839,1341.00,72.00,30.00,21.04,M,M,0.00,30.14,1016.30,10.00,M,CLR,M,M,M,M,M,M,M,M,M,M,M,M,M,M,72.00,KRNO 161855Z 10SM CLR 22/M01 A3014 RMK AO2 SLP163 T02221011,M
RTS,2023-06-16 18:55,-119.8764,39.6682,1539.00,66.20,30.20,25.88,M,5.00,0.00,30.19,M,10.00,13.00,CLR,M,M,M,M,M,M,M,M,M,M,M,M,M,M,66.20,KRTS 161855Z AUTO VRB05G13KT 10SM CLR 19/M01 A3019 RMK AO2,M
MEV,2023-06-16 18:55,-119.7500,38.9963,1441.42,69.80,32.00,24.59,0.00,0.00,0.00,30.16,M,10.00,M,CLR,M,M,M,M,M,M,M,M,M,M,M,M,M,M,69.80,KMEV 161855Z AUTO 00000KT 10SM CLR 21/00 A3016 RMK AO2,M
BAM,2023-06-16 18:55,-116.8743,40.5990,1382.36,69.80,35.60,28.39,0.00,0.00,0.00,30.16,M,10.00,M,CLR,M,M,M,M,M,M,M,M,M,M,M,M,M,M,69.80,KBAM 161855Z AUTO 00000KT 10SM CLR 21/02 A3016 RMK AO1,M
HTH,2023-06-16 18:55,-118.6315,38.5448,1282.89,71.60,26.60,18.55,350.00,11.00,0.00,30.13,M,10.00,M,M,M,M,M,M,M,M,M,M,M,M,M,M,M,M,71.60,KHTH 161855Z AUTO 35011KT 10SM 22/M03 A3013 RMK A01,M
TMT,2023-06-16 18:55,-117.1971,39.4643,1749.34,63.70,29.80,27.78,330.00,6.00,0.00,30.19,M,10.00,M,CLR,M,M,M,M,M,M,M,M,M,M,M,M,M,M,63.70,KTMT 161855Z AUTO 33006KT 10SM CLR 18/M01 A3019 RMK AO2 T01761012,M
INS,2023-06-16 18:55,-115.6733,36.5872,955.00,67.80,56.50,67.11,10.00,8.00,T,30.05,1014.20,10.00,M,FEW,OVC,M,M,5000.00,15000.00,M,M,M,M,M,M,M,M,M,67.80,KINS 161855Z AUTO 01008KT 10SM FEW050 OVC150 20/14 A3005 RMK AO2 RAB24E44 SLP142 P0000 T01990136 $,M
LSV,2023-06-16 18:55,-115.0343,36.2362,570.00,69.40,69.00,98.98,240.00,5.00,T,29.99,1013.70,10.00,M,BKN,M,M,M,9500.00,M,M,M,M,M,M,M,M,M,M,69.40,KLSV 161855Z AUTO 24005KT 10SM BKN095 21/21 A2999 RMK AO2 DZB33E38 SLP137 P0000 T02080206 $,M
EKO,2023-06-16 18:56,-115.7860,40.8242,1367.00,68.00,37.00,31.92,M,M,M,30.15,1017.10,10.00,M,CLR,M,M,M,M,M,M,M,M,M,M,M,M,M,M,68.00,METAR KEKO 161856Z KT 10SM CLR 20/03 A3015 RMK AO2 SLP171 T02000028 TSNO FIBI,M
WMC,2023-06-16 18:56,-117.8072,40.9019,1315.00,73.00,28.90,19.45,M,5.00,0.00,30.15,1017.20,10.00,M,CLR,M,M,M,M,M,M,M,M,M,M,M,M,M,M,73.00,KWMC 161856Z AUTO VRB05KT 10SM CLR 23/M02 A3015 RMK AO2 SLP172 T02281017,M
HND,2023-06-16 18:56,-115.1344,35.9729,742.79,72.00,55.00,55.06,30.00,6.00,0.00,30.05,1017.10,10.00,M,BKN,M,M,M,10000.00,M,M,M,M,M,M,M,M,M,M,72.00,KHND 161856Z 03006KT 10SM BKN100 22/13 A3005 RMK AO2 SLP171 T02220128,M
TPH,2023-06-16 18:56,-117.0904,38.0505,1654.00,73.00,24.10,15.95,310.00,10.00,0.00,30.14,1014.20,10.00,17.00,CLR,M,M,M,M,M,M,M,M,M,M,M,M,M,M,73.00,KTPH 161856Z AUTO 31010G17KT 10SM CLR 23/M04 A3014 RMK AO2 SLP142 T02281044,M
LAS,2023-06-16 18:56,-115.1634,36.0719,663.00,71.00,55.00,56.77,M,M,0.00,30.03,1014.80,10.00,M,BKN,M,M,M,9500.00,M,M,M,M,M,M,M,M,M,M,71.10,KLAS 161856Z 10SM BKN095 22/13 A3003 RMK AO2 SLP148 T02170128,M
NFL,2023-06-16 18:56,-118.7010,39.4166,1199.00,74.00,33.00,22.37,340.00,5.00,0.00,30.12,1016.50,10.00,M,CLR,M,M,M,M,M,M,M,M,M,M,M,M,M,M,73.90,KNFL 161856Z 34005KT 10SM CLR 23/01 A3012 RMK AO2 SLP165 T02330006,M
RNO,2023-06-16 18:59,-119.7711,39.4839,1341.00,73.00,30.00,20.34,M,5.00,0.00,30.14,M,10.00,M,CLR,M,M,M,M,M,M,M,M,M,M,M,M,M,M,73.00,KRNO 161859Z VRB05KT 10SM CLR 23/M01 A3014 RMK AO2 T02281011,M
LAS,2023-06-16 18:59,-115.1634,36.0719,663.00,71.00,54.00,54.73,360.00,3.00,0.00,30.02,M,10.00,M,BKN,M,M,M,9500.00,M,M,M,M,M,M,M,M,M,M,71.10,KLAS 161859Z 36003KT 10SM BKN095 22/12 A3002 RMK AO2 T02170122,M
05U,2023-06-16 19:10,-116.0051,39.6042,1811.23,66.20,26.60,22.33,M,5.00,0.00,30.20,M,10.00,M,CLR,M,M,M,M,M,M,M,M,M,M,M,M,M,M,66.20,K05U 161910Z AUTO VRB05KT 10SM CLR 19/M03 A3020 RMK A01,M
BVU,2023-06-16 19:15,-114.8611,35.9475,671.00,73.40,57.20,56.88,340.00,11.00,0.00,30.00,M,10.00,M,SCT,M,M,M,11000.00,M,M,M,M,M,M,M,M,M,M,73.40,KBVU 161915Z AUTO 34011KT 10SM SCT110 23/14 A3000 RMK AO2,M
CXP,2023-06-16 19:15,-119.7326,39.1923,1431.00,71.60,28.40,19.98,140.00,4.00,0.00,30.16,M,10.00,11.00,CLR,M,M,M,M,M,M,M,M,M,M,M,M,M,M,71.60,KCXP 161915Z AUTO 14004G11KT 10SM CLR 22/M02 A3016 RMK AO2,M
RTS,2023-06-16 19:15,-119.8764,39.6682,1539.00,68.00,30.20,24.32,70.00,5.00,0.00,30.19,M,10.00,M,CLR,M,M,M,M,M,M,M,M,M,M,M,M,M,M,68.00,KRTS 161915Z AUTO 07005KT 10SM CLR 20/M01 A3019 RMK AO2,M
MEV,2023-06-16 19:15,-119.7500,38.9963,1441.42,69.80,33.80,26.43,M,4.00,0.00,30.15,M,10.00,M,CLR,M,M,M,M,M,M,M,M,M,M,M,M,M,M,69.80,KMEV 161915Z AUTO VRB04KT 10SM CLR 21/01 A3015 RMK AO2,M
BAM,2023-06-16 19:15,-116.8743,40.5990,1382.36,71.60,35.60,26.71,310.00,6.00,0.00,30.16,M,10.00,M,CLR,M,M,M,M,M,M,M,M,M,M,M,M,M,M,71.60,KBAM 161915Z AUTO 31006KT 10SM CLR 22/02 A3016 RMK AO1,M
HTH,2023-06-16 19:15,-118.6315,38.5448,1282.89,M,M,M,320.00,12.00,0.00,30.12,M,M,17.00,M,M,M,M,M,M,M,M,M,M,M,M,M,M,M,M,KHTH 161915Z AUTO 32012G17KT A3012 RMK A01,M
TMT,2023-06-16 19:15,-117.1971,39.4643,1749.34,63.30,28.40,26.60,0.00,0.00,0.00,30.19,M,10.00,M,CLR,M,M,M,M,M,M,M,M,M,M,M,M,M,M,63.30,KTMT 161915Z AUTO 00000KT 10SM CLR 17/M02 A3019 RMK AO2 T01741020,M
LSV,2023-06-16 19:28,-115.0343,36.2362,570.00,69.80,66.20,88.34,0.00,0.00,0.00,29.98,1013.40,10.00,M,BKN,M,M,M,9000.00,M,M,M,-RA,M,M,M,M,M,M,69.80,KLSV 161928Z AUTO 00000KT 10SM -RA BKN090 21/19 A2998 RMK AO2 RAB28 SLP134 $,M
05U,2023-06-16 19:30,-116.0051,39.6042,1811.23,66.20,26.60,22.33,M,4.00,0.00,30.20,M,10.00,M,CLR,M,M,M,M,M,M,M,M,M,M,M,M,M,M,66.20,K05U 161930Z AUTO VRB04KT 10SM CLR 19/M03 A3020 RMK A01,M
BVU,2023-06-16 19:35,-114.8611,35.9475,671.00,73.40,57.20,56.88,330.00,12.00,0.00,30.00,M,10.00,19.00,BKN,M,M,M,11000.00,M,M,M,M,M,M,M,M,M,M,73.40,KBVU 161935Z AUTO 33012G19KT 10SM BKN110 23/14 A3000 RMK AO2,M
CXP,2023-06-16 19:35,-119.7326,39.1923,1431.00,71.60,26.60,18.55,0.00,0.00,0.00,30.16,M,10.00,M,CLR,M,M,M,M,M,M,M,M,M,M,M,M,M,M,71.60,KCXP 161935Z AUTO 00000KT 10SM CLR 22/M03 A3016 RMK AO2,M
RTS,2023-06-16 19:35,-119.8764,39.6682,1539.00,68.00,30.20,24.32,M,6.00,0.00,30.19,M,10.00,M,CLR,M,M,M,M,M,M,M,M,M,M,M,M,M,M,68.00,KRTS 161935Z AUTO VRB06KT 10SM CLR 20/M01 A3019 RMK AO2,M
MEV,2023-06-16 19:35,-119.7500,38.9963,1441.42,69.80,32.00,24.59,M,3.00,0.00,30.15,M,10.00,10.00,CLR,M,M,M,M,M,M,M,M,M,M,M,M,M,M,69.80,KMEV 161935Z AUTO VRB03G10KT 10SM CLR 21/00 A3015 RMK AO2,M
BAM,2023-06-16 19:35,-116.8743,40.5990,1382.36,71.60,33.80,24.86,20.00,3.00,0.00,30.15,M,10.00,M,CLR,M,M,M,M,M,M,M,M,M,M,M,M,M,M,71.60,KBAM 161935Z AUTO 02003KT 10SM CLR 22/01 A3015 RMK AO1,M
HTH,2023-06-16 19:35,-118.6315,38.5448,1282.89,71.60,28.40,19.98,320.00,11.00,0.00,30.12,M,10.00,M,M,M,M,M,M,M,M,M,M,M,M,M,M,M,M,71.60,KHTH 161935Z AUTO 32011KT 10SM 22/M02 A3012 RMK A01,M
TMT,2023-06-16 19:35,-117.1971,39.4643,1749.34,65.00,28.00,24.57,0.00,0.00,0.00,30.19,M,10.00,M,CLR,M,M,M,M,M,M,M,M,M,M,M,M,M,M,65.10,KTMT 161935Z AUTO 00000KT 10SM CLR 18/M02 A3019 RMK AO2 T01841022,M
LSV,2023-06-16 19:41,-115.0343,36.2362,570.00,69.80,62.60,77.90,100.00,3.00,0.00,29.98,1013.40,10.00,M,FEW,BKN,M,M,6000.00,9000.00,M,M,M,M,M,M,M,M,M,69.80,KLSV 161941Z AUTO 10003KT 10SM FEW060 BKN090 21/17 A2998 RMK AO2 RAB28E41 SLP134 $,M
05U,2023-06-16 19:50,-116.0051,39.6042,1811.23,68.00,26.60,20.98,110.00,4.00,0.00,30.20,M,10.00,M,CLR,M,M,M,M,M,M,M,M,M,M,M,M,M,M,68.00,K05U 161950Z AUTO 11004KT 10SM CLR 20/M03 A3020 RMK A01,M
P68,2023-06-16 19:53,-116.0056,39.6014,1993.00,66.00,27.00,22.86,M,4.00,0.00,30.17,1016.80,M,M,M,M,M,M,M,M,M,M,M,M,M,M,M,M,M,66.00,KP68 161953Z AUTO VRB04KT 19/M03 A3017 RMK AO1 SLP168 T01891028,M
DRA,2023-06-16 19:53,-116.0278,36.6206,1009.00,77.00,50.00,38.74,110.00,11.00,0.00,30.02,1012.50,10.00,22.00,CLR,M,M,M,M,M,M,M,M,M,M,M,M,M,M,77.00,KDRA 161953Z AUTO 11011G22KT 10SM CLR 25/10 A3002 RMK AO2 SLP125 T02500100,M
LOL,2023-06-16 19:53,-118.5701,40.0684,1192.43,74.00,32.00,21.40,60.00,6.00,0.00,30.11,1016.70,10.00,M,CLR,M,M,M,M,M,M,M,M,M,M,M,M,M,M,73.90,KLOL 161953Z AUTO 06006KT 10SM CLR 23/00 A3011 RMK AO2 SLP167 T02330000,M
VGT,2023-06-16 19:53,-115.1933,36.2111,667.00,75.00,53.00,46.44,40.00,3.00,0.00,30.00,1015.60,10.00,M,BKN,M,M,M,9500.00,M,M,M,M,M,M,M,M,M,M,75.00,KVGT 161953Z 04003KT 10SM BKN095 24/12 A3000 RMK AO2 SLP156 T02390117,M
ELY,2023-06-16 19:53,-114.8453,39.2950,1909.00,67.00,35.00,30.75,60.00,5.00,0.00,30.16,1014.70,10.00,M,CLR,M,M,M,M,M,M,M,M,M,M,M,M,M,M,66.90,KELY 161953Z AUTO 06005KT 10SM CLR 19/02 A3016 RMK AO2 SLP147 T01940017,M
BVU,2023-06-16 19:55,-114.8611,35.9475,671.00,73.40,55.40,53.29,360.00,10.00,0.00,30.00,M,10.00,17.00,BKN,M,M,M,11000.00,M,M,M,M,M,M,M,M,M,M,73.40,KBVU 161955Z AUTO 36010G17KT 10SM BKN110 23/13 A3000 RMK AO2,M
CXP,2023-06-16 19:55,-119.7326,39.1923,1431.00,73.40,28.40,18.80,M,5.00,0.00,30.16,M,10.00,M,CLR,M,M,M,M,M,M,M,M,M,M,M,M,M,M,73.40,KCXP 161955Z AUTO VRB05KT 10SM CLR 23/M02 A3016 RMK AO2,M
RNO,2023-06-16 19:55,-119.7711,39.4839,1341.00,77.00,30.00,17.80,M,3.00,0.00,30.13,1015.80,10.00,M,CLR,M,M,M,M,M,M,M,M,M,M,M,M,M,M,77.00,KRNO 161955Z VRB03KT 10SM CLR 25/M01 A3013 RMK AO2 SLP158 T02501011,M
RTS,2023-06-16 19:55,-119.8764,39.6682,1539.00,68.00,30.20,24.32,M,6.00,0.00,30.18,M,10.00,M,CLR,M,M,M,M,M,M,M,M,M,M,M,M,M,M,68.00,KRTS 161955Z AUTO VRB06KT 10SM CLR 20/M01 A3018 RMK AO2,M
MEV,2023-06-16 19:55,-119.7500,38.9963,1441.42,71.60,32.00,23.13,M,4.00,0.00,30.15,M,10.00,M,CLR,M,M,M,M,M,M,M,M,M,M,M,M,M,M,71.60,KMEV 161955Z AUTO VRB04KT 10SM CLR 22/00 A3015 RMK AO2,M
BAM,2023-06-16 19:55,-116.8743,40.5990,1382.36,71.60,33.80,24.86,350.00,3.00,0.00,30.15,M,10.00,M,CLR,M,M,M,M,M,M,M,M,M,M,M,M,M,M,71.60,KBAM 161955Z AUTO 35003KT 10SM CLR 22/01 A3015 RMK AO1,M
HTH,2023-06-16 19:55,-118.6315,38.5448,1282.89,73.40,28.40,18.80,310.00,9.00,0.00,30.12,M,10.00,15.00,CLR,M,M,M,M,M,M,M,M,M,M,M,M,M,M,73.40,KHTH 161955Z AUTO 31009G15KT 10SM CLR 23/M02 A3012 RMK A01,M
TMT,2023-06-16 19:55,-117.1971,39.4643,1749.34,65.50,28.60,24.84,50.00,5.00,0.00,30.19,M,10.00,M,CLR,M,M,M,M,M,M,M,M,M,M,M,M,M,M,65.50,KTMT 161955Z AUTO 05005KT 10SM CLR 19/M02 A3019 RMK AO2 T01861019,M
LSV,2023-06-16 19:55,-115.0343,36.2362,570.00,70.50,62.00,74.20,80.00,3.00,T,29.97,1013.10,10.00,M,FEW,BKN,M,M,6000.00,9000.00,M,M,M,M,M,M,M,M,M,70.50,KLSV 161955Z AUTO 08003KT 10SM FEW060 BKN090 21/17 A2997 RMK AO2 RAB28E41 SLP131 P0000 T02140166 $,M
INS,2023-06-16 19:55,-115.6733,36.5872,955.00,71.00,55.00,56.77,60.00,7.00,0.00,30.04,1013.60,10.00,M,CLR,M,M,M,M,M,M,M,M,M,M,M,M,M,M,71.10,KINS 161955Z AUTO 06007KT 10SM CLR 22/13 A3004 RMK AO2 SLP136 T02170128 $,M
EKO,2023-06-16 19:56,-115.7860,40.8242,1367.00,70.00,35.00,27.54,M,M,M,30.14,1017.20,10.00,M,CLR,M,M,M,M,M,M,M,M,M,M,M,M,M,M,70.00,METAR KEKO 161956Z KT 10SM CLR 21/02 A3014 RMK AO2 SLP172 T02110017 TSNO FIBI,M
WMC,2023-06-16 19:56,-117.8072,40.9019,1315.00,75.00,30.90,19.73,M,4.00,0.00,30.14,1016.80,10.00,M,CLR,M,M,M,M,M,M,M,M,M,M,M,M,M,M,75.00,KWMC 161956Z AUTO VRB04KT 10SM CLR 24/M01 A3014 RMK AO2 SLP168 T02391006,M
NFL,2023-06-16 19:56,-118.7010,39.4166,1199.00,75.00,30.90,19.73,M,3.00,0.00,30.11,1016.20,10.00,M,CLR,M,M,M,M,M,M,M,M,M,M,M,M,M,M,75.00,KNFL 161956Z VRB03KT 10SM CLR 24/M01 A3011 RMK AO2 SLP162 T02391006,M
HND,2023-06-16 19:56,-115.1344,35.9729,742.79,73.00,54.00,51.33,360.00,6.00,0.00,30.04,1016.60,10.00,M,FEW,M,M,M,10000.00,M,M,M,M,M,M,M,M,M,M,73.00,KHND 161956Z 36006KT 10SM FEW100 23/12 A3004 RMK AO2 SLP166 T02280122,M
TPH,2023-06-16 19:56,-117.0904,38.0505,1654.00,73.00,25.00,16.56,330.00,8.00,0.00,30.12,1014.20,10.00,19.00,CLR,M,M,M,M,M,M,M,M,M,M,M,M,M,M,73.00,KTPH 161956Z AUTO 33008G19KT 10SM CLR 23/M04 A3012 RMK AO2 SLP142 T02281039,M
LAS,2023-06-16 19:56,-115.1634,36.0719,663.00,74.00,55.00,51.64,60.00,5.00,0.00,30.01,1014.30,10.00,M,FEW,BKN,M,M,8000.00,10000.00,M,M,M,M,M,M,M,M,M,73.90,KLAS 161956Z 06005KT 10SM FEW080 BKN100 23/13 A3001 RMK AO2 SLP143 T02330128,M
05U,2023-06-16 20:10,-116.0051,39.6042,1811.23,68.00,26.60,20.98,360.00,9.00,0.00,30.19,M,10.00,M,CLR,M,M,M,M,M,M,M,M,M,M,M,M,M,M,68.00,K05U 162010Z AUTO 36009KT 10SM CLR 20/M03 A3019 RMK A01,M
BVU,2023-06-16 20:15,-114.8611,35.9475,671.00,73.40,55.40,53.29,350.00,12.00,0.00,29.99,M,10.00,M,BKN,M,M,M,11000.00,M,M,M,M,M,M,M,M,M,M,73.40,KBVU 162015Z AUTO 35012KT 10SM BKN110 23/13 A2999 RMK AO2,M
CXP,2023-06-16 20:15,-119.7326,39.1923,1431.00,71.60,28.40,19.98,0.00,0.00,0.00,30.15,M,10.00,M,CLR,M,M,M,M,M,M,M,M,M,M,M,M,M,M,71.60,KCXP 162015Z AUTO 00000KT 10SM CLR 22/M02 A3015 RMK AO2,M
RTS,2023-06-16 20:15,-119.8764,39.6682,1539.00,69.80,30.20,22.86,70.00,7.00,0.00,30.18,M,10.00,M,CLR,M,M,M,M,M,M,M,M,M,M,M,M,M,M,69.80,KRTS 162015Z AUTO 07007KT 10SM CLR 21/M01 A3018 RMK AO2,M
MEV,2023-06-16 20:15,-119.7500,38.9963,1441.42,71.60,33.80,24.86,0.00,0.00,0.00,30.14,M,10.00,M,CLR,M,M,M,M,M,M,M,M,M,M,M,M,M,M,71.60,KMEV 162015Z AUTO 00000KT 10SM CLR 22/01 A3014 RMK AO2,M
BAM,2023-06-16 20:15,-116.8743,40.5990,1382.36,73.40,33.80,23.39,0.00,0.00,0.00,30.14,M,10.00,M,CLR,M,M,M,M,M,M,M,M,M,M,M,M,M,M,73.40,KBAM 162015Z AUTO 00000KT 10SM CLR 23/01 A3014 RMK AO1,M
HTH,2023-06-16 20:15,-118.6315,38.5448,1282.89,73.40,30.20,20.23,340.00,8.00,0.00,30.11,M,10.00,15.00,CLR,M,M,M,M,M,M,M,M,M,M,M,M,M,M,73.40,KHTH 162015Z AUTO 34008G15KT 10SM CLR 23/M01 A3011 RMK A01,M
TMT,2023-06-16 20:15,-117.1971,39.4643,1749.34,67.50,29.30,23.85,330.00,6.00,0.00,30.19,M,10.00,M,CLR,M,M,M,M,M,M,M,M,M,M,M,M,M,M,67.50,KTMT 162015Z AUTO 33006KT 10SM CLR 20/M01 A3019 RMK AO2 T01971015,M
05U,2023-06-16 20:30,-116.0051,39.6042,1811.23,68.00,28.40,22.59,50.00,9.00,0.00,30.19,M,10.00,M,CLR,M,M,M,M,M,M,M,M,M,M,M,M,M,M,68.00,K05U 162030Z AUTO 05009KT 360V150 10SM CLR 20/M02 A3019 RMK A01,M
BVU,2023-06-16 20:35,-114.8611,35.9475,671.00,75.20,51.80,43.97,30.00,13.00,0.00,29.98,M,10.00,M,BKN,M,M,M,11000.00,M,M,M,M,M,M,M,M,M,M,75.20,KBVU 162035Z AUTO 03013KT 10SM BKN110 24/11 A2998 RMK AO2,M
CXP,2023-06-16 20:35,-119.7326,39.1923,1431.00,73.40,28.40,18.80,M,5.00,0.00,30.15,M,10.00,M,CLR,M,M,M,M,M,M,M,M,M,M,M,M,M,M,73.40,KCXP 162035Z AUTO VRB05KT 10SM CLR 23/M02 A3015 RMK AO2,M
RTS,2023-06-16 20:35,-119.8764,39.6682,1539.00,69.80,30.20,22.86,120.00,8.00,0.00,30.18,M,10.00,M,CLR,M,M,M,M,M,M,M,M,M,M,M,M,M,M,69.80,KRTS 162035Z AUTO 12008KT 10SM CLR 21/M01 A3018 RMK AO2,M
MEV,2023-06-16 20:35,-119.7500,38.9963,1441.42,73.40,32.00,21.76,0.00,0.00,0.00,30.14,M,10.00,10.00,CLR,M,M,M,M,M,M,M,M,M,M,M,M,M,M,73.40,KMEV 162035Z AUTO 00000G10KT 10SM CLR 23/00 A3014 RMK AO2,M
BAM,2023-06-16 20:35,-116.8743,40.5990,1382.36,73.40,33.80,23.39,80.00,3.00,0.00,30.14,M,10.00,M,CLR,M,M,M,M,M,M,M,M,M,M,M,M,M,M,73.40,KBAM 162035Z AUTO 08003KT 10SM CLR 23/01 A3014 RMK AO1,M
HTH,2023-06-16 20:35,-118.6315,38.5448,1282.89,73.40,30.20,20.23,M,5.00,0.00,30.11,M,10.00,17.00,CLR,M,M,M,M,M,M,M,M,M,M,M,M,M,M,73.40,KHTH 162035Z AUTO VRB05G17KT 10SM CLR 23/M01 A3011 RMK A01,M
TMT,2023-06-16 20:35,-117.1971,39.4643,1749.34,66.40,25.50,21.18,0.00,0.00,0.00,30.18,M,10.00,M,CLR,M,M,M,M,M,M,M,M,M,M,M,M,M,M,66.40,KTMT 162035Z AUTO 00000KT 10SM CLR 19/M04 A3018 RMK AO2 LTG DSNT SE T01911036,M
05U,2023-06-16 20:50,-116.0051,39.6042,1811.23,69.80,26.60,19.72,10.00,6.00,0.00,30.19,M,10.00,M,CLR,M,M,M,M,M,M,M,M,M,M,M,M,M,M,69.80,K05U 162050Z AUTO 01006KT 10SM CLR 21/M03 A3019 RMK A01,M
P68,2023-06-16 20:53,-116.0056,39.6014,1993.00,69.00,28.00,21.40,360.00,6.00,0.00,30.16,1016.20,M,M,M,M,M,M,M,M,M,M,M,M,M,M,M,M,M,69.10,KP68 162053Z AUTO 36006KT 21/M02 A3016 RMK AO1 SLP162 T02061022 58006,M
VGT,2023-06-16 20:53,-115.1933,36.2111,667.00,78.00,54.00,43.30,M,M,0.00,29.98,1015.00,10.00,M,FEW,M,M,M,8000.00,M,M,M,M,M,M,M,M,M,M,78.10,KVGT 162053Z 10SM FEW080 26/12 A2998 RMK AO2 SLP150 T02560122 58011,M
LOL,2023-06-16 20:53,-118.5701,40.0684,1192.43,76.00,28.90,17.65,M,4.00,0.00,30.10,1016.20,10.00,M,CLR,M,M,M,M,M,M,M,M,M,M,M,M,M,M,75.90,KLOL 162053Z AUTO VRB04KT 10SM CLR 24/M02 A3010 RMK AO2 SLP162 T02441017 58010,M
DRA,2023-06-16 20:53,-116.0278,36.6206,1009.00,79.00,47.00,32.29,130.00,16.00,0.00,30.01,1011.90,10.00,22.00,CLR,M,M,M,M,M,M,M,M,M,M,M,M,M,M,79.00,KDRA 162053Z AUTO 13016G22KT 10SM CLR 26/08 A3001 RMK AO2 SLP119 T02610083 58010,M
ELY,2023-06-16 20:53,-114.8453,39.2950,1909.00,69.00,35.00,28.51,M,4.00,0.00,30.15,1014.00,10.00,M,CLR,M,M,M,M,M,M,M,M,M,M,M,M,M,M,69.10,KELY 162053Z AUTO VRB04KT 10SM CLR 21/02 A3015 RMK AO2 SLP140 T02060017 58009,M
BVU,2023-06-16 20:55,-114.8611,35.9475,671.00,77.00,51.80,41.42,30.00,11.00,0.00,29.98,M,10.00,M,BKN,M,M,M,11000.00,M,M,M,M,M,M,M,M,M,M,77.00,KBVU 162055Z AUTO 03011KT 10SM BKN110 25/11 A2998 RMK AO2,M
CXP,2023-06-16 20:55,-119.7326,39.1923,1431.00,75.20,30.20,19.05,M,6.00,0.00,30.14,M,10.00,M,CLR,M,M,M,M,M,M,M,M,M,M,M,M,M,M,75.20,KCXP 162055Z AUTO VRB06KT 10SM CLR 24/M01 A3014 RMK AO2,M
RNO,2023-06-16 20:55,-119.7711,39.4839,1341.00,77.00,30.00,17.80,320.00,4.00,0.00,30.13,1015.50,10.00,M,CLR,M,M,M,M,M,M,M,M,M,M,M,M,M,M,77.00,KRNO 162055Z 32004KT 10SM CLR 25/M01 A3013 RMK AO2 SLP155 T02501011 56007,M
RTS,2023-06-16 20:55,-119.8764,39.6682,1539.00,69.80,30.20,22.86,0.00,0.00,0.00,30.18,M,10.00,10.00,CLR,M,M,M,M,M,M,M,M,M,M,M,M,M,M,69.80,KRTS 162055Z AUTO 00000G10KT 10SM CLR 21/M01 A3018 RMK AO2,M
MEV,2023-06-16 20:55,-119.7500,38.9963,1441.42,73.40,30.20,20.23,0.00,0.00,0.00,30.13,M,10.00,M,CLR,M,M,M,M,M,M,M,M,M,M,M,M,M,M,73.40,KMEV 162055Z AUTO 00000KT 10SM CLR 23/M01 A3013 RMK AO2,M
BAM,2023-06-16 20:55,-116.8743,40.5990,1382.36,73.40,32.00,21.76,310.00,3.00,0.00,30.13,M,10.00,M,CLR,M,M,M,M,M,M,M,M,M,M,M,M,M,M,73.40,KBAM 162055Z AUTO 31003KT 10SM CLR 23/00 A3013 RMK AO1,M
HTH,2023-06-16 20:55,-118.6315,38.5448,1282.89,75.20,28.40,17.70,320.00,11.00,0.00,30.11,M,10.00,M,CLR,M,M,M,M,M,M,M,M,M,M,M,M,M,M,75.20,KHTH 162055Z AUTO 32011KT 10SM CLR 24/M02 A3011 RMK A01,M
TMT,2023-06-16 20:55,-117.1971,39.4643,1749.34,67.80,30.60,24.88,0.00,0.00,0.00,30.18,M,10.00,M,CLR,M,M,M,M,M,M,M,M,M,M,M,M,M,M,67.80,KTMT 162055Z AUTO 00000KT 10SM CLR 20/M01 A3018 RMK AO2 T01991008,M
INS,2023-06-16 20:55,-115.6733,36.5872,955.00,73.60,50.40,44.05,0.00,0.00,0.00,30.02,1012.80,10.00,M,CLR,M,M,M,M,M,M,M,M,M,M,M,M,M,M,73.60,KINS 162055Z AUTO 00000KT 10SM CLR 23/10 A3002 RMK AO2 SLP128 60000 T02310102 57013 $,M
LSV,2023-06-16 20:55,-115.0343,36.2362,570.00,76.30,63.00,63.68,30.00,5.00,0.00,29.95,1012.20,10.00,M,FEW,SCT,BKN,M,10000.00,14000.00,20000.00,M,M,M,M,M,M,M,M,76.30,KLSV 162055Z AUTO 03005KT 10SM FEW100 SCT140 BKN200 25/17 A2995 RMK AO2 SLP122 60000 T02460173 58011 $,M
WMC,2023-06-16 20:56,-117.8072,40.9019,1315.00,76.00,30.00,18.46,10.00,7.00,0.00,30.13,1016.90,10.00,M,CLR,M,M,M,M,M,M,M,M,M,M,M,M,M,M,75.90,KWMC 162056Z AUTO 01007KT 330V060 10SM CLR 24/M01 A3013 RMK AO2 SLP169 T02441011 56009,M
TPH,2023-06-16 20:56,-117.0904,38.0505,1654.00,75.00,26.10,16.21,M,M,0.00,30.12,1013.80,10.00,M,CLR,M,M,M,M,M,M,M,M,M,M,M,M,M,M,75.00,KTPH 162056Z AUTO 10SM CLR 24/M03 A3012 RMK AO2 SLP138 T02391033 56008,M
HND,2023-06-16 20:56,-115.1344,35.9729,742.79,75.00,53.00,46.44,10.00,5.00,0.00,30.02,1016.00,10.00,M,BKN,M,M,M,9000.00,M,M,M,M,M,M,M,M,M,M,75.00,KHND 162056Z 01005KT 10SM BKN090 24/12 A3002 RMK AO2 SLP160 T02390117 58012,M
LAS,2023-06-16 20:56,-115.1634,36.0719,663.00,75.00,53.00,46.44,50.00,7.00,0.00,30.00,1013.80,10.00,M,FEW,BKN,M,M,8500.00,10000.00,M,M,M,M,M,M,M,M,M,75.00,KLAS 162056Z 05007KT 10SM FEW085 BKN100 24/12 A3000 RMK AO2 SLP138 TCU DSNT W T02390117 58011,M
NFL,2023-06-16 20:56,-118.7010,39.4166,1199.00,78.00,30.90,17.80,M,3.00,0.00,30.10,1015.90,10.00,M,CLR,M,M,M,M,M,M,M,M,M,M,M,M,M,M,78.10,KNFL 162056Z VRB03KT 10SM CLR 26/M01 A3010 RMK AO2 SLP159 T02561006 57008,M
EKO,2023-06-16 20:56,-115.7860,40.8242,1367.00,72.00,36.00,26.77,M,4.08,M,30.13,1016.60,10.00,M,CLR,M,M,M,M,M,M,M,M,M,M,M,M,M,M,72.00,METAR KEKO 162056Z VRB04KT 10SM CLR 22/02 A3013 RMK AO2 SLP166 T02220022 58010 TSNO FIBI,M
05U,2023-06-16 21:10,-116.0051,39.6042,1811.23,69.80,28.40,21.24,80.00,7.00,0.00,30.19,M,10.00,M,CLR,M,M,M,M,M,M,M,M,M,M,M,M,M,M,69.80,K05U 162110Z AUTO 08007KT 360V150 10SM CLR 21/M02 A3019 RMK A01,M
BVU,2023-06-16 21:15,-114.8611,35.9475,671.00,77.00,50.00,38.74,40.00,8.00,0.00,29.97,M,10.00,M,FEW,M,M,M,11000.00,M,M,M,M,M,M,M,M,M,M,77.00,KBVU 162115Z AUTO 04008KT 10SM FEW110 25/10 A2997 RMK AO2,M
CXP,2023-06-16 21:15,-119.7326,39.1923,1431.00,75.20,30.20,19.05,80.00,5.00,0.00,30.14,M,10.00,M,CLR,M,M,M,M,M,M,M,M,M,M,M,M,M,M,75.20,KCXP 162115Z AUTO 08005KT 10SM CLR 24/M01 A3014 RMK AO2,M
RTS,2023-06-16 21:15,-119.8764,39.6682,1539.00,71.60,30.20,21.50,130.00,7.00,0.00,30.17,M,10.00,M,CLR,M,M,M,M,M,M,M,M,M,M,M,M,M,M,71.60,KRTS 162115Z AUTO 13007KT 10SM CLR 22/M01 A3017 RMK AO2,M
MEV,2023-06-16 21:15,-119.7500,38.9963,1441.42,75.20,30.20,19.05,M,6.00,0.00,30.13,M,10.00,M,CLR,M,M,M,M,M,M,M,M,M,M,M,M,M,M,75.20,KMEV 162115Z AUTO VRB06KT 10SM CLR 24/M01 A3013 RMK AO2,M
BAM,2023-06-16 21:15,-116.8743,40.5990,1382.36,75.20,33.80,22.02,310.00,5.00,0.00,30.13,M,10.00,M,CLR,M,M,M,M,M,M,M,M,M,M,M,M,M,M,75.20,KBAM 162115Z AUTO 31005KT 10SM CLR 24/01 A3013 RMK AO1,M
HTH,2023-06-16 21:15,-118.6315,38.5448,1282.89,75.20,28.40,17.70,350.00,11.00,0.00,30.10,M,10.00,21.00,CLR,M,M,M,M,M,M,M,M,M,M,M,M,M,M,75.20,KHTH 162115Z AUTO 35011G21KT 10SM CLR 24/M02 A3010 RMK A01,M
TMT,2023-06-16 21:15,-117.1971,39.4643,1749.34,67.60,27.70,22.26,320.00,5.00,0.00,30.18,M,10.00,M,CLR,M,M,M,M,M,M,M,M,M,M,M,M,M,M,67.60,KTMT 162115Z AUTO 32005KT 10SM CLR 20/M02 A3018 RMK AO2 T01981024,M
05U,2023-06-16 21:30,-116.0051,39.6042,1811.23,69.80,24.80,18.30,20.00,6.00,0.00,30.19,M,10.00,M,CLR,M,M,M,M,M,M,M,M,M,M,M,M,M,M,69.80,K05U 162130Z AUTO 02006KT 10SM CLR 21/M04 A3019 RMK A01,M
BVU,2023-06-16 21:35,-114.8611,35.9475,671.00,80.60,48.20,32.18,30.00,8.00,0.00,29.97,M,10.00,M,FEW,M,M,M,10000.00,M,M,M,M,M,M,M,M,M,M,79.71,KBVU 162135Z AUTO 03008KT 10SM FEW100 27/09 A2997 RMK AO2,M
CXP,2023-06-16 21:35,-119.7326,39.1923,1431.00,75.20,30.20,19.05,350.00,3.00,0.00,30.14,M,10.00,10.00,CLR,M,M,M,M,M,M,M,M,M,M,M,M,M,M,75.20,KCXP 162135Z AUTO 35003G10KT 10SM CLR 24/M01 A3014 RMK AO2,M
RTS,2023-06-16 21:35,-119.8764,39.6682,1539.00,71.60,30.20,21.50,M,4.00,0.00,30.18,M,10.00,10.00,CLR,M,M,M,M,M,M,M,M,M,M,M,M,M,M,71.60,KRTS 162135Z AUTO VRB04G10KT 10SM CLR 22/M01 A3018 RMK AO2,M
MEV,2023-06-16 21:35,-119.7500,38.9963,1441.42,75.20,30.20,19.05,M,5.00,0.00,30.13,M,10.00,M,CLR,M,M,M,M,M,M,M,M,M,M,M,M,M,M,75.20,KMEV 162135Z AUTO VRB05KT 10SM CLR 24/M01 A3013 RMK AO2,M
BAM,2023-06-16 21:35,-116.8743,40.5990,1382.36,75.20,33.80,22.02,0.00,0.00,0.00,30.13,M,10.00,M,CLR,M,M,M,M,M,M,M,M,M,M,M,M,M,M,75.20,KBAM 162135Z AUTO 00000KT 10SM CLR 24/01 A3013 RMK AO1,M
HTH,2023-06-16 21:35,-118.6315,38.5448,1282.89,77.00,30.20,17.94,340.00,12.00,0.00,30.10,M,10.00,18.00,CLR,M,M,M,M,M,M,M,M,M,M,M,M,M,M,77.00,KHTH 162135Z AUTO 34012G18KT 10SM CLR 25/M01 A3010 RMK A01,M
TMT,2023-06-16 21:35,-117.1971,39.4643,1749.34,68.00,28.80,22.97,350.00,5.00,0.00,30.18,M,10.00,M,CLR,M,M,M,M,M,M,M,M,M,M,M,M,M,M,68.00,KTMT 162135Z AUTO 35005KT 10SM CLR 20/M02 A3018 RMK AO2 LTG DSNT SE T02001018,M
05U,2023-06-16 21:50,-116.0051,39.6042,1811.23,71.60,26.60,18.55,M,6.00,0.00,30.18,M,10.00,13.00,CLR,M,M,M,M,M,M,M,M,M,M,M,M,M,M,71.60,K05U 162150Z AUTO VRB06G13KT 10SM CLR 22/M03 A3018 RMK A01,M
P68,2023-06-16 21:53,-116.0056,39.6014,1993.00,70.00,28.00,20.75,360.00,9.00,0.00,30.15,1015.70,M,15.00,M,M,M,M,M,M,M,M,M,M,M,M,M,M,M,70.00,KP68 162153Z AUTO 36009G15KT 290V030 21/M02 A3015 RMK AO1 SLP157 T02111022,M
DRA,2023-06-16 21:53,-116.0278,36.6206,1009.00,81.00,46.00,29.23,100.00,13.00,0.00,30.00,1011.40,10.00,20.00,CLR,M,M,M,M,M,M,M,M,M,M,M,M,M,M,79.76,KDRA 162153Z AUTO 10013G20KT 10SM CLR 27/08 A3000 RMK AO2 SLP114 T02720078,M
ELY,2023-06-16 21:53,-114.8453,39.2950,1909.00,69.00,36.00,29.55,280.00,3.00,0.00,30.14,1013.30,10.00,M,CLR,M,M,M,M,M,M,M,M,M,M,M,M,M,M,69.10,KELY 162153Z AUTO 28003KT 10SM CLR 21/02 A3014 RMK AO2 SLP133 T02060022,M
VGT,2023-06-16 21:53,-115.1933,36.2111,667.00,77.00,53.00,43.44,50.00,3.00,0.00,29.97,1014.60,10.00,M,CLR,M,M,M,M,M,M,M,M,M,M,M,M,M,M,77.00,KVGT 162153Z 05003KT 10SM CLR 25/12 A2997 RMK AO2 SLP146 T02500117,M
LOL,2023-06-16 21:53,-118.5701,40.0684,1192.43,78.00,30.90,17.80,30.00,10.00,0.00,30.09,1015.80,10.00,16.00,CLR,M,M,M,M,M,M,M,M,M,M,M,M,M,M,78.10,KLOL 162153Z AUTO 03010G16KT 10SM CLR 26/M01 A3009 RMK AO2 SLP158 T02561006,M
BVU,2023-06-16 21:55,-114.8611,35.9475,671.00,80.60,48.20,32.18,350.00,8.00,0.00,29.96,M,10.00,M,FEW,M,M,M,9500.00,M,M,M,M,M,M,M,M,M,M,79.71,KBVU 162155Z AUTO 35008KT 10SM FEW095 27/09 A2996 RMK AO2,M
CXP,2023-06-16 21:55,-119.7326,39.1923,1431.00,75.20,30.20,19.05,110.00,9.00,0.00,30.14,M,10.00,M,CLR,M,M,M,M,M,M,M,M,M,M,M,M,M,M,75.20,KCXP 162155Z AUTO 11009KT 10SM CLR 24/M01 A3014 RMK AO2,M
RNO,2023-06-16 21:55,-119.7711,39.4839,1341.00,78.00,30.90,17.80,80.00,5.00,0.00,30.12,1015.50,10.00,M,FEW,M,M,M,20000.00,M,M,M,M,M,M,M,M,M,M,78.10,KRNO 162155Z 08005KT 10SM FEW200 26/M01 A3012 RMK AO2 SLP155 T02561006,M
RTS,2023-06-16 21:55,-119.8764,39.6682,1539.00,71.60,28.40,19.98,140.00,5.00,0.00,30.17,M,10.00,M,CLR,M,M,M,M,M,M,M,M,M,M,M,M,M,M,71.60,KRTS 162155Z AUTO 14005KT 10SM CLR 22/M02 A3017 RMK AO2,M
MEV,2023-06-16 21:55,-119.7500,38.9963,1441.42,75.20,28.40,17.70,10.00,6.00,0.00,30.13,M,10.00,M,CLR,M,M,M,M,M,M,M,M,M,M,M,M,M,M,75.20,KMEV 162155Z AUTO 01006KT 10SM CLR 24/M02 A3013 RMK AO2,M
BAM,2023-06-16 21:55,-116.8743,40.5990,1382.36,75.20,32.00,20.49,0.00,0.00,0.00,30.13,M,10.00,M,CLR,M,M,M,M,M,M,M,M,M,M,M,M,M,M,75.20,KBAM 162155Z AUTO 00000KT 10SM CLR 24/00 A3013 RMK AO1,M
HTH,2023-06-16 21:55,-118.6315,38.5448,1282.89,77.00,30.20,17.94,320.00,12.00,0.00,30.10,M,10.00,21.00,CLR,M,M,M,M,M,M,M,M,M,M,M,M,M,M,77.00,KHTH 162155Z AUTO 32012G21KT 10SM CLR 25/M01 A3010 RMK A01,M
TMT,2023-06-16 21:55,-117.1971,39.4643,1749.34,69.00,31.60,24.78,40.00,6.00,0.00,30.18,M,10.00,M,CLR,M,M,M,M,M,M,M,M,M,M,M,M,M,M,69.10,KTMT 162155Z AUTO 04006KT 10SM CLR 21/00 A3018 RMK AO2 T02061002,M
INS,2023-06-16 21:55,-115.6733,36.5872,955.00,75.60,47.50,36.97,90.00,6.00,0.00,30.01,1012.60,10.00,M,CLR,M,M,M,M,M,M,M,M,M,M,M,M,M,M,75.60,KINS 162155Z AUTO 09006KT 10SM CLR 24/09 A3001 RMK AO2 SLP126 T02420086 $,M
LSV,2023-06-16 21:55,-115.0343,36.2362,570.00,83.80,56.80,39.80,150.00,5.00,0.00,29.93,1011.40,10.00,M,CLR,M,M,M,M,M,M,M,M,M,M,M,M,M,M,83.06,KLSV 162155Z AUTO 15005KT 10SM CLR 29/14 A2993 RMK AO2 SLP114 T02880138 $,M
EKO,2023-06-16 21:56,-115.7860,40.8242,1367.00,73.00,36.00,25.88,140.00,6.03,M,30.12,1016.50,10.00,M,CLR,M,M,M,M,M,M,M,M,M,M,M,M,M,M,73.00,METAR KEKO 162156Z 14006KT 10SM CLR 23/02 A3012 RMK AO2 SLP165 T02280022 TSNO FIBI,M
WMC,2023-06-16 21:56,-117.8072,40.9019,1315.00,77.00,28.90,17.01,M,M,0.00,30.12,1016.90,10.00,M,CLR,M,M,M,M,M,M,M,M,M,M,M,M,M,M,77.00,KWMC 162156Z AUTO 10SM CLR 25/M02 A3012 RMK AO2 SLP169 T02501017,M
NFL,2023-06-16 21:56,-118.7010,39.4166,1199.00,77.00,30.00,17.80,M,3.00,0.00,30.10,1015.80,10.00,M,CLR,M,M,M,M,M,M,M,M,M,M,M,M,M,M,77.00,KNFL 162156Z VRB03KT 10SM CLR 25/M01 A3010 RMK AO2 SLP158 T02501011,M
TPH,2023-06-16 21:56,-117.0904,38.0505,1654.00,78.00,28.00,15.81,300.00,12.00,0.00,30.11,1013.20,10.00,20.00,CLR,M,M,M,M,M,M,M,M,M,M,M,M,M,M,78.10,KTPH 162156Z AUTO 30012G20KT 10SM CLR 26/M02 A3011 RMK AO2 SLP132 T02561022,M
HND,2023-06-16 21:56,-115.1344,35.9729,742.79,78.00,51.00,38.92,10.00,7.00,0.00,30.01,1015.40,10.00,M,CLR,M,M,M,M,M,M,M,M,M,M,M,M,M,M,78.10,KHND 162156Z 01007KT 10SM CLR 26/11 A3001 RMK AO2 SLP154 T02560106,M
LAS,2023-06-16 21:56,-115.1634,36.0719,663.00,78.00,53.00,41.89,100.00,3.00,0.00,29.98,1013.20,10.00,M,FEW,FEW,SCT,M,8500.00,10000.00,22000.00,M,M,M,M,M,M,M,M,78.10,KLAS 162156Z 10003KT 10SM FEW085 FEW100 SCT220 26/12 A2998 RMK AO2 SLP132 T02560117,M
05U,2023-06-16 22:10,-116.0051,39.6042,1811.23,71.60,26.60,18.55,M,5.00,0.00,30.18,M,10.00,12.00,CLR,M,M,M,M,M,M,M,M,M,M,M,M,M,M,71.60,K05U 162210Z AUTO VRB05G12KT 10SM CLR 22/M03 A3018 RMK A01,M
BVU,2023-06-16 22:15,-114.8611,35.9475,671.00,80.60,48.20,32.18,360.00,10.00,0.00,29.96,M,10.00,16.00,FEW,M,M,M,9500.00,M,M,M,M,M,M,M,M,M,M,79.71,KBVU 162215Z AUTO 36010G16KT 10SM FEW095 27/09 A2996 RMK AO2,M
CXP,2023-06-16 22:15,-119.7326,39.1923,1431.00,77.00,32.00,19.30,M,5.00,0.00,30.14,M,10.00,13.00,CLR,M,M,M,M,M,M,M,M,M,M,M,M,M,M,77.00,KCXP 162215Z AUTO VRB05G13KT 10SM CLR 25/M00 A3014 RMK AO2,M
RTS,2023-06-16 22:15,-119.8764,39.6682,1539.00,71.60,28.40,19.98,0.00,0.00,0.00,30.17,M,10.00,M,CLR,M,M,M,M,M,M,M,M,M,M,M,M,M,M,71.60,KRTS 162215Z AUTO 00000KT 10SM CLR 22/M02 A3017 RMK AO2,M
MEV,2023-06-16 22:15,-119.7500,38.9963,1441.42,77.00,26.60,15.48,M,4.00,0.00,30.12,M,10.00,M,CLR,M,M,M,M,M,M,M,M,M,M,M,M,M,M,77.00,KMEV 162215Z AUTO VRB04KT 10SM CLR 25/M03 A3012 RMK AO2,M
BAM,2023-06-16 22:15,-116.8743,40.5990,1382.36,77.00,32.00,19.30,360.00,3.00,0.00,30.12,M,10.00,14.00,CLR,M,M,M,M,M,M,M,M,M,M,M,M,M,M,77.00,KBAM 162215Z AUTO 36003G14KT 10SM CLR 25/00 A3012 RMK AO1,M
HTH,2023-06-16 22:15,-118.6315,38.5448,1282.89,77.00,30.20,17.94,330.00,12.00,0.00,30.10,M,10.00,20.00,CLR,M,M,M,M,M,M,M,M,M,M,M,M,M,M,77.00,KHTH 162215Z AUTO 33012G20KT 10SM CLR 25/M01 A3010 RMK A01,M
TMT,2023-06-16 22:15,-117.1971,39.4643,1749.34,70.00,31.60,24.03,20.00,6.00,0.00,30.18,M,10.00,M,CLR,M,M,M,M,M,M,M,M,M,M,M,M,M,M,70.00,KTMT 162215Z AUTO 02006KT 10SM CLR 21/00 A3018 RMK AO2 T02111002,M
05U,2023-06-16 22:30,-116.0051,39.6042,1811.23,71.60,30.20,21.50,30.00,7.00,0.00,30.17,M,10.00,13.00,CLR,M,M,M,M,M,M,M,M,M,M,M,M,M,M,71.60,K05U 162230Z AUTO 03007G13KT 360V120 10SM CLR 22/M01 A3017 RMK A01,M
BVU,2023-06-16 22:35,-114.8611,35.9475,671.00,80.60,48.20,32.18,10.00,7.00,0.00,29.95,M,10.00,M,CLR,M,M,M,M,M,M,M,M,M,M,M,M,M,M,79.71,KBVU 162235Z AUTO 01007KT 330V040 10SM CLR 27/09 A2995 RMK AO2,M
CXP,2023-06-16 22:35,-119.7326,39.1923,1431.00,77.00,32.00,19.30,80.00,7.00,0.00,30.13,M,10.00,M,CLR,M,M,M,M,M,M,M,M,M,M,M,M,M,M,77.00,KCXP 162235Z AUTO 08007KT 10SM CLR 25/M00 A3013 RMK AO2,M
RTS,2023-06-16 22:35,-119.8764,39.6682,1539.00,73.40,24.80,16.20,60.00,8.00,0.00,30.17,M,10.00,M,CLR,M,M,M,M,M,M,M,M,M,M,M,M,M,M,73.40,KRTS 162235Z AUTO 06008KT 040V110 10SM CLR 23/M04 A3017 RMK AO2,M
MEV,2023-06-16 22:35,-119.7500,38.9963,1441.42,75.20,28.40,17.70,300.00,5.00,0.00,30.12,M,10.00,M,CLR,M,M,M,M,M,M,M,M,M,M,M,M,M,M,75.20,KMEV 162235Z AUTO 30005KT 10SM CLR 24/M02 A3012 RMK AO2,M
BAM,2023-06-16 22:35,-116.8743,40.5990,1382.36,75.20,33.80,22.02,340.00,5.00,0.00,30.12,M,10.00,9.00,CLR,M,M,M,M,M,M,M,M,M,M,M,M,M,M,75.20,KBAM 162235Z AUTO 34005G09KT 10SM CLR 24/01 A3012 RMK AO1,M
HTH,2023-06-16 22:35,-118.6315,38.5448,1282.89,77.00,30.20,17.94,330.00,14.00,0.00,30.09,M,10.00,20.00,CLR,M,M,M,M,M,M,M,M,M,M,M,M,M,M,77.00,KHTH 162235Z AUTO 33014G20KT 10SM CLR 25/M01 A3009 RMK A01,M
TMT,2023-06-16 22:35,-117.1971,39.4643,1749.34,70.30,31.30,23.50,330.00,3.00,0.00,30.17,M,10.00,M,CLR,M,M,M,M,M,M,M,M,M,M,M,M,M,M,70.30,KTMT 162235Z AUTO 33003KT 10SM CLR 21/00 A3017 RMK AO2 T02131004,M
TPH,2023-06-16 22:39,-117.0904,38.0505,1654.00,77.00,30.00,17.80,340.00,8.00,0.00,30.10,M,10.00,17.00,CLR,M,M,M,M,M,M,M,M,M,M,M,M,M,M,77.00,KTPH 162239Z AUTO 34008G17KT 300V010 10SM CLR 25/M01 A3010 RMK AO2 WSHFT 2219 T02501011,M
05U,2023-06-16 22:50,-116.0051,39.6042,1811.23,71.60,30.20,21.50,20.00,8.00,0.00,30.17,M,10.00,M,CLR,M,M,M,M,M,M,M,M,M,M,M,M,M,M,71.60,K05U 162250Z AUTO 02008KT 360V120 10SM CLR 22/M01 A3017 RMK A01,M
P68,2023-06-16 22:53,-116.0056,39.6014,1993.00,71.00,30.90,22.50,10.00,9.00,0.00,30.14,1015.30,M,17.00,M,M,M,M,M,M,M,M,M,M,M,M,M,M,M,71.10,KP68 162253Z AUTO 01009G17KT 22/M01 A3014 RMK AO1 SLP153 T02171006,M
DRA,2023-06-16 22:53,-116.0278,36.6206,1009.00,82.00,45.00,27.24,130.00,12.00,0.00,29.97,1010.70,10.00,23.00,CLR,M,M,M,M,M,M,M,M,M,M,M,M,M,M,80.28,KDRA 162253Z AUTO 13012G23KT 10SM CLR 28/07 A2997 RMK AO2 SLP107 T02780072,M
VGT,2023-06-16 22:53,-115.1933,36.2111,667.00,81.00,50.00,33.97,M,3.00,0.00,29.95,1013.90,10.00,M,CLR,M,M,M,M,M,M,M,M,M,M,M,M,M,M,80.12,KVGT 162253Z VRB03KT 10SM CLR 27/10 A2995 RMK AO2 SLP139 T02720100,M
LOL,2023-06-16 22:53,-118.5701,40.0684,1192.43,79.00,30.00,16.66,70.00,8.00,0.00,30.08,1016.20,10.00,M,CLR,M,M,M,M,M,M,M,M,M,M,M,M,M,M,79.00,KLOL 162253Z AUTO 07008KT 10SM CLR 26/M01 A3008 RMK AO2 SLP162 T02611011,M
ELY,2023-06-16 22:53,-114.8453,39.2950,1909.00,71.00,35.00,26.63,340.00,8.00,0.00,30.13,1013.50,10.00,M,CLR,M,M,M,M,M,M,M,M,M,M,M,M,M,M,71.10,KELY 162253Z AUTO 34008KT 10SM CLR 22/02 A3013 RMK AO2 SLP135 T02170017,M
BVU,2023-06-16 22:55,-114.8611,35.9475,671.00,80.60,48.20,32.18,20.00,7.00,0.00,29.94,M,10.00,M,FEW,M,M,M,8000.00,M,M,M,M,M,M,M,M,M,M,79.71,KBVU 162255Z AUTO 02007KT 10SM FEW080 27/09 A2994 RMK AO2,M
CXP,2023-06-16 22:55,-119.7326,39.1923,1431.00,77.00,32.00,19.30,M,6.00,0.00,30.13,M,10.00,13.00,CLR,M,M,M,M,M,M,M,M,M,M,M,M,M,M,77.00,KCXP 162255Z AUTO VRB06G13KT 10SM CLR 25/M00 A3013 RMK AO2,M
RTS,2023-06-16 22:55,-119.8764,39.6682,1539.00,73.40,24.80,16.20,M,6.00,0.00,30.17,M,10.00,M,CLR,M,M,M,M,M,M,M,M,M,M,M,M,M,M,73.40,KRTS 162255Z AUTO VRB06KT 10SM CLR 23/M04 A3017 RMK AO2,M
MEV,2023-06-16 22:55,-119.7500,38.9963,1441.42,77.00,28.40,16.67,350.00,8.00,0.00,30.11,M,10.00,M,CLR,M,M,M,M,M,M,M,M,M,M,M,M,M,M,77.00,KMEV 162255Z AUTO 35008KT 10SM CLR 25/M02 A3011 RMK AO2,M
BAM,2023-06-16 22:55,-116.8743,40.5990,1382.36,77.00,33.80,20.74,340.00,7.00,0.00,30.12,M,10.00,15.00,CLR,M,M,M,M,M,M,M,M,M,M,M,M,M,M,77.00,KBAM 162255Z AUTO 34007G15KT 10SM CLR 25/01 A3012 RMK AO1,M
HTH,2023-06-16 22:55,-118.6315,38.5448,1282.89,77.00,28.40,16.67,340.00,10.00,0.00,30.09,M,10.00,20.00,CLR,M,M,M,M,M,M,M,M,M,M,M,M,M,M,77.00,KHTH 162255Z AUTO 34010G20KT 310V020 10SM CLR 25/M02 A3009 RMK A01,M
TMT,2023-06-16 22:55,-117.1971,39.4643,1749.34,70.20,32.50,24.75,10.00,4.00,0.00,30.16,M,10.00,M,CLR,M,M,M,M,M,M,M,M,M,M,M,M,M,M,70.20,KTMT 162255Z AUTO 01004KT 10SM CLR 21/00 A3016 RMK AO2 T02120003,M
INS,2023-06-16 22:55,-115.6733,36.5872,955.00,77.00,49.50,38.03,70.00,6.00,0.00,29.98,1011.40,10.00,M,CLR,M,M,M,M,M,M,M,M,M,M,M,M,M,M,77.00,KINS 162255Z AUTO 07006KT 10SM CLR 25/10 A2998 RMK AO2 SLP114 T02500097 $,M
LSV,2023-06-16 22:55,-115.0343,36.2362,570.00,83.80,51.60,32.91,180.00,3.00,0.00,29.91,1010.80,10.00,M,CLR,M,M,M,M,M,M,M,M,M,M,M,M,M,M,82.15,KLSV 162255Z AUTO 18003KT 10SM CLR 29/11 A2991 RMK AO2 SLP108 T02880109 $,M
RNO,2023-06-16 22:55,-119.7711,39.4839,1341.00,80.00,28.90,15.36,300.00,9.00,0.00,30.11,1015.20,10.00,M,CLR,M,M,M,M,M,M,M,M,M,M,M,M,M,M,78.53,KRNO 162255Z 30009KT 10SM CLR 27/M02 A3011 RMK AO2 SLP152 T02671017,M
EKO,2023-06-16 22:56,-115.7860,40.8242,1367.00,74.00,37.00,26.03,170.00,5.05,M,30.11,1015.90,10.00,M,CLR,M,M,M,M,M,M,M,M,M,M,M,M,M,M,74.00,METAR KEKO 162256Z 17005KT 10SM CLR 23/03 A3011 RMK AO2 SLP159 T02330028 TSNO FIBI,M
WMC,2023-06-16 22:56,-117.8072,40.9019,1315.00,77.00,30.00,17.80,M,3.00,0.00,30.11,1016.60,10.00,M,CLR,M,M,M,M,M,M,M,M,M,M,M,M,M,M,77.00,KWMC 162256Z AUTO VRB03KT 10SM CLR 25/M01 A3011 RMK AO2 SLP166 T02501011,M
NFL,2023-06-16 22:56,-118.7010,39.4166,1199.00,80.00,26.10,13.69,10.00,7.00,0.00,30.08,1015.50,10.00,15.00,SCT,M,M,M,25000.00,M,M,M,M,M,M,M,M,M,M,78.45,KNFL 162256Z 01007G15KT 10SM SCT250 27/M03 A3008 RMK AO2 SLP155 T02671033,M
HND,2023-06-16 22:56,-115.1344,35.9729,742.79,80.00,50.00,34.98,M,4.00,0.00,29.98,1014.70,10.00,M,CLR,M,M,M,M,M,M,M,M,M,M,M,M,M,M,79.60,KHND 162256Z VRB04KT 10SM CLR 27/10 A2998 RMK AO2 SLP147 T02670100,M
TPH,2023-06-16 22:56,-117.0904,38.0505,1654.00,79.00,30.00,16.66,300.00,13.00,0.00,30.10,1013.10,10.00,19.00,CLR,M,M,M,M,M,M,M,M,M,M,M,M,M,M,79.00,KTPH 162256Z AUTO 30013G19KT 10SM CLR 26/M01 A3010 RMK AO2 WSHFT 2219 SLP131 T02611011,M
LAS,2023-06-16 22:56,-115.1634,36.0719,663.00,79.00,52.00,39.06,50.00,4.00,0.00,29.95,1012.30,10.00,M,FEW,FEW,SCT,M,8500.00,10000.00,22000.00,M,M,M,M,M,M,M,M,79.00,KLAS 162256Z 05004KT 10SM FEW085 FEW100 SCT220 26/11 A2995 RMK AO2 SLP123 T02610111,M
05U,2023-06-16 23:10,-116.0051,39.6042,1811.23,71.60,30.20,21.50,20.00,7.00,0.00,30.17,M,10.00,M,CLR,M,M,M,M,M,M,M,M,M,M,M,M,M,M,71.60,K05U 162310Z AUTO 02007KT 10SM CLR 22/M01 A3017 RMK A01,M
BVU,2023-06-16 23:15,-114.8611,35.9475,671.00,82.40,48.20,30.35,40.00,5.00,0.00,29.94,M,10.00,M,FEW,M,M,M,8000.00,M,M,M,VCTS,M,M,M,M,M,M,80.80,KBVU 162315Z AUTO 04005KT 10SM VCTS FEW080 28/09 A2994 RMK AO2 LTG DSNT E,M
CXP,2023-06-16 23:15,-119.7326,39.1923,1431.00,77.00,32.00,19.30,80.00,8.00,0.00,30.12,M,10.00,M,CLR,M,M,M,M,M,M,M,M,M,M,M,M,M,M,77.00,KCXP 162315Z AUTO 08008KT 10SM CLR 25/M00 A3012 RMK AO2,M
RTS,2023-06-16 23:15,-119.8764,39.6682,1539.00,73.40,24.80,16.20,M,6.00,0.00,30.16,M,10.00,M,CLR,M,M,M,M,M,M,M,M,M,M,M,M,M,M,73.40,KRTS 162315Z AUTO VRB06KT 10SM CLR 23/M04 A3016 RMK AO2,M
MEV,2023-06-16 23:15,-119.7500,38.9963,1441.42,77.00,30.20,17.94,260.00,4.00,0.00,30.11,M,10.00,11.00,CLR,M,M,M,M,M,M,M,M,M,M,M,M,M,M,77.00,KMEV 162315Z AUTO 26004G11KT 10SM CLR 25/M01 A3011 RMK AO2,M
BAM,2023-06-16 23:15,-116.8743,40.5990,1382.36,78.80,33.80,19.55,340.00,10.00,0.00,30.12,M,10.00,16.00,CLR,M,M,M,M,M,M,M,M,M,M,M,M,M,M,78.80,KBAM 162315Z AUTO 34010G16KT 10SM CLR 26/01 A3012 RMK AO1,M
HTH,2023-06-16 23:15,-118.6315,38.5448,1282.89,77.00,28.40,16.67,340.00,14.00,0.00,30.09,M,10.00,M,CLR,M,M,M,M,M,M,M,M,M,M,M,M,M,M,77.00,KHTH 162315Z AUTO 34014KT 10SM CLR 25/M02 A3009 RMK A01,M
TMT,2023-06-16 23:15,-117.1971,39.4643,1749.34,70.70,33.60,25.43,20.00,10.00,0.00,30.16,M,10.00,14.00,CLR,M,M,M,M,M,M,M,M,M,M,M,M,M,M,70.70,KTMT 162315Z AUTO 02010G14KT 10SM CLR 22/01 A3016 RMK AO2 T02150009,M
05U,2023-06-16 23:30,-116.0051,39.6042,1811.23,71.60,30.20,21.50,20.00,5.00,0.00,30.17,M,10.00,M,CLR,M,M,M,M,M,M,M,M,M,M,M,M,M,M,71.60,K05U 162330Z AUTO 02005KT 10SM CLR 22/M01 A3017 RMK A01,M
BVU,2023-06-16 23:35,-114.8611,35.9475,671.00,82.40,48.20,30.35,30.00,7.00,0.00,29.94,M,10.00,M,BKN,M,M,M,7500.00,M,M,M,M,M,M,M,M,M,M,80.80,KBVU 162335Z AUTO 03007KT 360V060 10SM BKN075 28/09 A2994 RMK AO2,M
CXP,2023-06-16 23:35,-119.7326,39.1923,1431.00,78.80,32.00,18.18,40.00,6.00,0.00,30.12,M,10.00,18.00,CLR,M,M,M,M,M,M,M,M,M,M,M,M,M,M,78.80,KCXP 162335Z AUTO 04006G18KT 10SM CLR 26/M00 A3012 RMK AO2,M
RTS,2023-06-16 23:35,-119.8764,39.6682,1539.00,73.40,26.60,17.46,M,6.00,0.00,30.16,M,10.00,M,CLR,M,M,M,M,M,M,M,M,M,M,M,M,M,M,73.40,KRTS 162335Z AUTO VRB06KT 10SM CLR 23/M03 A3016 RMK AO2,M
MEV,2023-06-16 23:35,-119.7500,38.9963,1441.42,77.00,32.00,19.30,310.00,11.00,0.00,30.11,M,10.00,M,CLR,M,M,M,M,M,M,M,M,M,M,M,M,M,M,77.00,KMEV 162335Z AUTO 31011KT 10SM CLR 25/00 A3011 RMK AO2,M
BAM,2023-06-16 23:35,-116.8743,40.5990,1382.36,77.00,33.80,20.74,300.00,9.00,0.00,30.11,M,10.00,M,CLR,M,M,M,M,M,M,M,M,M,M,M,M,M,M,77.00,KBAM 162335Z AUTO 30009KT 10SM CLR 25/01 A3011 RMK AO1,M
HTH,2023-06-16 23:35,-118.6315,38.5448,1282.89,78.80,28.40,15.71,340.00,13.00,0.00,30.09,M,10.00,M,CLR,M,M,M,M,M,M,M,M,M,M,M,M,M,M,78.80,KHTH 162335Z AUTO 34013KT 10SM CLR 26/M02 A3009 RMK A01,M
TMT,2023-06-16 23:35,-117.1971,39.4643,1749.34,70.30,33.00,25.06,360.00,6.00,0.00,30.16,M,10.00,M,CLR,M,M,M,M,M,M,M,M,M,M,M,M,M,M,70.30,KTMT 162335Z AUTO 36006KT 10SM CLR 21/01 A3016 RMK AO2 T02130005,M
05U,2023-06-16 23:50,-116.0051,39.6042,1811.23,71.60,30.20,21.50,20.00,8.00,0.00,30.16,M,10.00,M,CLR,M,M,M,M,M,M,M,M,M,M,M,M,M,M,71.60,K05U 162350Z AUTO 02008KT 10SM CLR 22/M01 A3016 RMK A01,M
P68,2023-06-16 23:53,-116.0056,39.6014,1993.00,71.00,28.90,20.74,40.00,7.00,0.00,30.13,1015.40,M,M,M,M,M,M,M,M,M,M,M,M,M,M,M,M,M,71.10,KP68 162353Z AUTO 04007KT 22/M02 A3013 RMK AO1 SLP154 T02171017 10222 20167 56007,M
ELY,2023-06-16 23:53,-114.8453,39.2950,1909.00,69.00,34.00,27.29,350.00,7.00,0.00,30.12,1013.90,10.00,M,CLR,M,M,M,M,M,M,M,M,M,M,M,M,M,M,69.10,KELY 162353Z AUTO 35007KT 320V020 10SM CLR 21/01 A3012 RMK AO2 SLP139 T02060011 10222 20167 56007,M
LOL,2023-06-16 23:53,-118.5701,40.0684,1192.43,79.00,28.90,15.93,80.00,13.00,0.00,30.07,1015.70,10.00,M,CLR,M,M,M,M,M,M,M,M,M,M,M,M,M,M,79.00,KLOL 162353Z AUTO 08013KT 10SM CLR 26/M02 A3007 RMK AO2 SLP157 T02611017 10267 20206 58010,M
VGT,2023-06-16 23:53,-115.1933,36.2111,667.00,82.00,49.00,31.56,100.00,7.00,0.00,29.94,1013.50,10.00,M,CLR,M,M,M,M,M,M,M,M,M,M,M,M,M,M,80.61,KVGT 162353Z 10007KT 10SM CLR 28/09 A2994 RMK AO2 SLP135 T02780094 10278 20200 56015,M
DRA,2023-06-16 23:53,-116.0278,36.6206,1009.00,83.00,44.00,25.57,130.00,13.00,0.00,29.96,1010.30,10.00,18.00,CLR,M,M,M,M,M,M,M,M,M,M,M,M,M,M,80.80,KDRA 162353Z AUTO 13013G18KT 10SM CLR 28/07 A2996 RMK AO2 SLP103 T02830067 10283 20222 56014,M
BVU,2023-06-16 23:55,-114.8611,35.9475,671.00,82.40,48.20,30.35,20.00,7.00,0.00,29.94,M,10.00,M,FEW,M,M,M,7500.00,M,M,M,M,M,M,M,M,M,M,80.80,KBVU 162355Z AUTO 02007KT 10SM FEW075 28/09 A2994 RMK AO2,M
CXP,2023-06-16 23:55,-119.7326,39.1923,1431.00,77.00,30.20,17.94,90.00,5.00,0.00,30.12,M,10.00,11.00,CLR,M,M,M,M,M,M,M,M,M,M,M,M,M,M,77.00,KCXP 162355Z AUTO 09005G11KT 10SM CLR 25/M01 A3012 RMK AO2,M
RNO,2023-06-16 23:55,-119.7711,39.4839,1341.00,81.00,24.10,12.23,340.00,11.00,0.00,30.11,1015.00,10.00,M,FEW,M,M,M,25000.00,M,M,M,M,M,M,M,M,M,M,78.83,KRNO 162355Z 34011KT 10SM FEW250 27/M04 A3011 RMK AO2 SLP150 T02721044 10272 20211 58006,M
RTS,2023-06-16 23:55,-119.8764,39.6682,1539.00,73.40,28.40,18.80,M,5.00,0.00,30.16,M,10.00,10.00,CLR,M,M,M,M,M,M,M,M,M,M,M,M,M,M,73.40,KRTS 162355Z AUTO VRB05G10KT 10SM CLR 23/M02 A3016 RMK AO2,M
MEV,2023-06-16 23:55,-119.7500,38.9963,1441.42,77.00,33.80,20.74,M,6.00,0.00,30.11,M,10.00,M,CLR,M,M,M,M,M,M,M,M,M,M,M,M,M,M,77.00,KMEV 162355Z AUTO VRB06KT 10SM CLR 25/01 A3011 RMK AO2,M
BAM,2023-06-16 23:55,-116.8743,40.5990,1382.36,78.80,32.00,18.18,310.00,9.00,0.00,30.11,M,10.00,14.00,CLR,M,M,M,M,M,M,M,M,M,M,M,M,M,M,78.80,KBAM 162355Z AUTO 31009G14KT 10SM CLR 26/00 A3011 RMK AO1,M
HTH,2023-06-16 23:55,-118.6315,38.5448,1282.89,78.80,28.40,15.71,320.00,15.00,0.00,30.09,M,10.00,M,CLR,M,M,M,M,M,M,M,M,M,M,M,M,M,M,78.80,KHTH 162355Z AUTO 32015KT 10SM CLR 26/M02 A3009 RMK A01,M
TMT,2023-06-16 23:55,-117.1971,39.4643,1749.34,70.00,32.00,24.42,330.00,10.00,0.00,30.16,M,10.00,M,CLR,M,M,M,M,M,M,M,M,M,M,M,M,M,M,70.00,KTMT 162355Z AUTO 33010KT 10SM CLR 21/00 A3016 RMK AO2 T02110000 10222 20163,M
LSV,2023-06-16 23:55,-115.0343,36.2362,570.00,83.70,50.70,31.94,0.00,0.00,0.00,29.91,1010.90,10.00,M,CLR,M,M,M,M,M,M,M,M,M,M,M,M,M,M,81.96,KLSV 162355Z AUTO 00000KT 10SM CLR 29/10 A2991 RMK AO2 SLP109 60000 T02870104 10295 20208 57015 $,M
INS,2023-06-16 23:55,-115.6733,36.5872,955.00,78.00,49.60,36.81,80.00,7.00,0.00,29.98,1011.40,10.00,M,CLR,M,M,M,M,M,M,M,M,M,M,M,M,M,M,78.10,KINS 162355Z AUTO 08007KT 10SM CLR 26/10 A2998 RMK AO2 SLP114 60000 T02560098 10256 20192 56013 $,M
EKO,2023-06-16 23:56,-115.7860,40.8242,1367.00,73.00,35.00,24.87,60.00,6.03,M,30.10,1015.80,10.00,M,SCT,M,M,M,8999.00,M,M,M,M,M,M,M,M,M,M,73.00,METAR KEKO 162356Z 06006KT 10SM SCT090 23/02 A3010 RMK AO2 SLP158 T02280017 10244 20194 56008 TSNO FIBI,M
WMC,2023-06-16 23:56,-117.8072,40.9019,1315.00,79.00,28.90,15.93,40.00,7.00,0.00,30.10,1015.70,10.00,M,CLR,M,M,M,M,M,M,M,M,M,M,M,M,M,M,79.00,KWMC 162356Z AUTO 04007KT 10SM CLR 26/M02 A3010 RMK AO2 SLP157 T02611017 10261 20217 58008,M
NFL,2023-06-16 23:56,-118.7010,39.4166,1199.00,80.00,28.90,15.36,20.00,11.00,0.00,30.07,1015.10,10.00,M,SCT,M,M,M,25000.00,M,M,M,M,M,M,M,M,M,M,78.53,KNFL 162356Z 02011KT 10SM SCT250 27/M02 A3007 RMK AO2 SLP151 T02671017 10278 20222 58008,M
LAS,2023-06-16 23:56,-115.1634,36.0719,663.00,82.00,50.00,32.88,30.00,7.00,0.00,29.95,1012.00,10.00,M,FEW,FEW,SCT,M,8500.00,10000.00,22000.00,M,M,M,M,M,M,M,M,80.73,KLAS 162356Z 03007KT 10SM FEW085 FEW100 SCT220 28/10 A2995 RMK AO2 SLP120 T02780100 10278 20206 56016,M
TPH,2023-06-16 23:56,-117.0904,38.0505,1654.00,78.00,28.90,16.41,300.00,10.00,0.00,30.09,1012.90,10.00,23.00,CLR,M,M,M,M,M,M,M,M,M,M,M,M,M,M,78.10,KTPH 162356Z AUTO 30010G23KT 10SM CLR 26/M02 A3009 RMK AO2 SLP129 T02561017 10261 20211 58009,M
HND,2023-06-16 23:56,-115.1344,35.9729,742.79,80.00,51.00,36.44,0.00,0.00,0.00,29.98,1014.40,10.00,M,CLR,M,M,M,M,M,M,M,M,M,M,M,M,M,M,79.72,KHND 162356Z 00000KT 10SM CLR 27/11 A2998 RMK AO2 SLP144 T02670106 10278 20211 56015,M
