station,valid,lon,lat,elevation,tmpf,dwpf,relh,drct,sknt,p01i,alti,mslp,vsby,gust,skyc1,skyc2,skyc3,skyc4,skyl1,skyl2,skyl3,skyl4,wxcodes,ice_accretion_1hr,ice_accretion_3hr,ice_accretion_6hr,peak_wind_gust,peak_wind_drct,peak_wind_time,feel,metar,snowdepth
05U,2023-01-09 00:10,-116.0051,39.6042,1811.23,37.40,24.80,60.04,210.00,6.00,0.00,30.09,M,10.00,M,CLR,M,M,M,M,M,M,M,M,M,M,M,M,M,M,32.03,K05U 090010Z AUTO 21006KT 10SM CLR 03/M04 A3009 RMK A01,M
BVU,2023-01-09 00:15,-114.8611,35.9475,671.00,57.20,33.80,41.13,100.00,6.00,0.00,30.12,M,10.00,M,CLR,M,M,M,M,M,M,M,M,M,M,M,M,M,M,57.20,KBVU 090015Z AUTO 10006KT 10SM CLR 14/01 A3012 RMK AO2,M
CXP,2023-01-09 00:15,-119.7326,39.1923,1431.00,41.00,21.20,44.85,150.00,7.00,0.00,30.04,M,10.00,M,CLR,M,M,M,M,M,M,M,M,M,M,M,M,M,M,35.75,KCXP 090015Z AUTO 15007KT 10SM CLR 05/M06 A3004 RMK AO2,M
RTS,2023-01-09 00:15,-119.8764,39.6682,1539.00,39.20,23.00,51.89,230.00,9.00,0.00,30.03,M,10.00,M,CLR,M,M,M,M,M,M,M,M,M,M,M,M,M,M,32.47,KRTS 090015Z AUTO 23009KT 10SM CLR 04/M05 A3003 RMK AO2,M
MEV,2023-01-09 00:15,-119.7500,38.9963,1441.42,39.20,21.20,48.10,0.00,0.00,0.00,30.02,M,10.00,M,CLR,M,M,M,M,M,M,M,M,M,M,M,M,M,M,39.20,KMEV 090015Z AUTO 00000KT 10SM CLR 04/M06 A3002 RMK AO2,M
BAM,2023-01-09 00:15,-116.8743,40.5990,1382.36,44.60,28.40,52.72,0.00,0.00,0.00,30.05,M,10.00,M,CLR,M,M,M,M,M,M,M,M,M,M,M,M,M,M,44.60,KBAM 090015Z AUTO 00000KT 10SM CLR 07/M02 A3005 RMK AO1,M
TMT,2023-01-09 00:15,-117.1971,39.4643,1749.34,37.00,28.20,70.48,270.00,3.00,0.00,30.07,M,10.00,M,CLR,M,M,M,M,M,M,M,M,M,M,M,M,M,M,34.29,KTMT 090015Z AUTO 27003KT 10SM CLR 03/M02 A3007 RMK AO2 T00271021,M
05U,2023-01-09 00:30,-116.0051,39.6042,1811.23,33.80,23.00,64.23,0.00,0.00,0.00,30.11,M,10.00,M,CLR,M,M,M,M,M,M,M,M,M,M,M,M,M,M,33.80,K05U 090030Z AUTO 00000KT 10SM CLR 01/M05 A3011 RMK A01,M
BVU,2023-01-09 00:35,-114.8611,35.9475,671.00,57.20,32.00,38.26,90.00,5.00,0.00,30.12,M,10.00,M,CLR,M,M,M,M,M,M,M,M,M,M,M,M,M,M,57.20,KBVU 090035Z AUTO 09005KT 10SM CLR 14/00 A3012 RMK AO2,M
CXP,2023-01-09 00:35,-119.7326,39.1923,1431.00,41.00,19.40,41.54,170.00,6.00,0.00,30.03,M,10.00,M,CLR,M,M,M,M,M,M,M,M,M,M,M,M,M,M,36.37,KCXP 090035Z AUTO 17006KT 10SM CLR 05/M07 A3003 RMK AO2,M
RTS,2023-01-09 00:35,-119.8764,39.6682,1539.00,39.20,19.40,44.55,180.00,10.00,0.00,30.03,M,10.00,16.00,CLR,M,M,M,M,M,M,M,M,M,M,M,M,M,M,32.00,KRTS 090035Z AUTO 18010G16KT 10SM CLR 04/M07 A3003 RMK AO2,M
MEV,2023-01-09 00:35,-119.7500,38.9963,1441.42,37.40,21.20,51.61,130.00,8.00,0.00,30.02,M,10.00,M,CLR,M,M,M,M,M,M,M,M,M,M,M,M,M,M,30.76,KMEV 090035Z AUTO 13008KT 10SM CLR 03/M06 A3002 RMK AO2,M
BAM,2023-01-09 00:35,-116.8743,40.5990,1382.36,44.60,28.40,52.72,0.00,0.00,0.00,30.05,M,10.00,M,CLR,M,M,M,M,M,M,M,M,M,M,M,M,M,M,44.60,KBAM 090035Z AUTO 00000KT 10SM CLR 07/M02 A3005 RMK AO1,M
TMT,2023-01-09 00:35,-117.1971,39.4643,1749.34,35.00,27.90,74.76,0.00,0.00,0.00,30.08,M,10.00,M,CLR,M,M,M,M,M,M,M,M,M,M,M,M,M,M,35.10,KTMT 090035Z AUTO 00000KT 10SM CLR 02/M02 A3008 RMK AO2 T00171023,M
P68,2023-01-09 00:53,-116.0056,39.6014,1993.00,32.00,21.90,65.92,120.00,3.00,0.00,30.09,1018.80,M,M,M,M,M,M,M,M,M,M,M,M,M,M,M,M,M,28.69,KP68 090053Z AUTO 12003KT 00/M06 A3009 RMK AO1 SLP188 T00001056,M
LOL,2023-01-09 00:53,-118.5701,40.0684,1192.43,41.00,28.00,59.55,0.00,0.00,0.00,30.02,1017.10,10.00,M,CLR,M,M,M,M,M,M,M,M,M,M,M,M,M,M,41.00,KLOL 090053Z AUTO 00000KT 10SM CLR 05/M02 A3002 RMK AO2 SLP171 T00501022,M
VGT,2023-01-09 00:53,-115.1933,36.2111,667.00,54.00,35.00,48.65,110.00,5.00,0.00,30.12,1022.00,10.00,M,CLR,M,M,M,M,M,M,M,M,M,M,M,M,M,M,54.00,KVGT 090053Z 11005KT 10SM CLR 12/02 A3012 RMK AO2 SLP220 T01220017,M
ELY,2023-01-09 00:53,-114.8453,39.2950,1909.00,33.00,21.90,63.06,210.00,13.00,0.00,30.11,1019.40,10.00,M,CLR,M,M,M,M,M,M,M,M,M,M,M,M,M,M,22.98,KELY 090053Z AUTO 21013KT 10SM CLR 01/M06 A3011 RMK AO2 SLP194 T00061056 $,M
BVU,2023-01-09 00:55,-114.8611,35.9475,671.00,53.60,35.60,50.36,40.00,4.00,0.00,30.13,M,10.00,M,CLR,M,M,M,M,M,M,M,M,M,M,M,M,M,M,53.60,KBVU 090055Z AUTO 04004KT 10SM CLR 12/02 A3013 RMK AO2,M
CXP,2023-01-09 00:55,-119.7326,39.1923,1431.00,41.00,17.60,38.45,180.00,4.00,0.00,30.03,M,10.00,M,CLR,M,M,M,M,M,M,M,M,M,M,M,M,M,M,37.93,KCXP 090055Z AUTO 18004KT 10SM CLR 05/M08 A3003 RMK AO2,M
INS,2023-01-09 00:55,-115.6733,36.5872,955.00,47.00,31.10,53.94,70.00,5.00,0.00,30.12,1019.80,10.00,M,CLR,M,M,M,M,M,M,M,M,M,M,M,M,M,M,44.09,KINS 090055Z AUTO 07005KT 10SM CLR 08/M00 A3012 RMK AO2 SLP198 T00831005 $,M
RNO,2023-01-09 00:55,-119.7711,39.4839,1341.00,45.00,19.00,35.02,230.00,4.00,0.00,30.00,1015.30,10.00,M,FEW,SCT,BKN,M,7000.00,15000.00,20000.00,M,M,M,M,M,M,M,M,42.60,KRNO 090055Z 23004KT 10SM FEW070 SCT150 BKN200 07/M07 A3000 RMK AO2 SLP153 T00721072,M
RTS,2023-01-09 00:55,-119.8764,39.6682,1539.00,39.20,17.60,41.24,220.00,13.00,0.00,30.02,M,10.00,33.00,CLR,M,M,M,M,M,M,M,M,M,M,M,M,M,M,30.79,KRTS 090055Z AUTO 22013G33KT 180V240 10SM CLR 04/M08 A3002 RMK AO2,M
05U,2023-01-09 00:55,-116.0051,39.6042,1811.23,30.20,23.00,74.26,120.00,4.00,0.00,30.11,M,10.00,M,CLR,M,M,M,M,M,M,M,M,M,M,M,M,M,M,25.32,K05U 090055Z AUTO 12004KT 10SM CLR M01/M05 A3011 RMK A01,M
MEV,2023-01-09 00:55,-119.7500,38.9963,1441.42,37.40,21.20,51.61,140.00,5.00,0.00,30.01,M,10.00,M,CLR,M,M,M,M,M,M,M,M,M,M,M,M,M,M,32.81,KMEV 090055Z AUTO 14005KT 10SM CLR 03/M06 A3001 RMK AO2,M
BAM,2023-01-09 00:55,-116.8743,40.5990,1382.36,44.60,26.60,48.96,0.00,0.00,0.00,30.05,M,10.00,M,CLR,M,M,M,M,M,M,M,M,M,M,M,M,M,M,44.60,KBAM 090055Z AUTO 00000KT 10SM CLR 07/M03 A3005 RMK AO1,M
LSV,2023-01-09 00:55,-115.0343,36.2362,570.00,51.80,36.00,54.88,50.00,13.00,0.00,30.10,1019.40,10.00,M,CLR,M,M,M,M,M,M,M,M,M,M,M,M,M,M,51.80,KLSV 090055Z AUTO 05013KT 10SM CLR 11/02 A3010 RMK AO2 SLP194 T01100023 $,M
TMT,2023-01-09 00:55,-117.1971,39.4643,1749.34,33.00,27.30,79.63,240.00,3.00,0.00,30.07,M,10.00,M,CLR,M,M,M,M,M,M,M,M,M,M,M,M,M,M,29.72,KTMT 090055Z AUTO 24003KT 10SM CLR 01/M03 A3007 RMK AO2 T00051026,M
EKO,2023-01-09 00:56,-115.7860,40.8242,1367.00,37.00,27.00,66.82,0.00,0.00,0.00,30.06,1019.40,10.00,M,FEW,M,M,M,7000.00,M,M,M,M,M,M,M,M,M,M,37.00,KEKO 090056Z AUTO 00000KT 10SM FEW070 03/M03 A3006 RMK AO2 SLP194 T00281028,M
WMC,2023-01-09 00:56,-117.8072,40.9019,1315.00,39.00,28.00,64.37,150.00,3.00,0.00,30.03,1016.70,10.00,M,CLR,M,M,M,M,M,M,M,M,M,M,M,M,M,M,36.69,KWMC 090056Z AUTO 15003KT 10SM CLR 04/M02 A3003 RMK AO2 SLP167 T00391022,M
NFL,2023-01-09 00:56,-118.7010,39.4166,1199.00,48.00,18.00,29.96,170.00,6.00,0.00,30.01,1013.40,10.00,M,CLR,M,M,M,M,M,M,M,M,M,M,M,M,M,M,44.80,KNFL 090056Z AUTO 17006KT 10SM CLR 09/M08 A3001 RMK AO2 SLP134 T00891078,M
TPH,2023-01-09 00:56,-117.0904,38.0505,1654.00,39.00,30.90,72.45,180.00,8.00,0.00,30.11,1019.90,10.00,M,CLR,M,M,M,M,M,M,M,M,M,M,M,M,M,M,32.74,KTPH 090056Z AUTO 18008KT 10SM CLR 04/M01 A3011 RMK AO2 SLP199 T00391006,M
LAS,2023-01-09 00:56,-115.1634,36.0719,663.00,53.00,36.00,52.11,110.00,5.00,0.00,30.13,1020.20,10.00,M,FEW,FEW,M,M,14000.00,25000.00,M,M,M,M,M,M,M,M,M,53.10,KLAS 090056Z 11005KT 10SM FEW140 FEW250 12/02 A3013 RMK AO2 SLP202 T01170022,M
HND,2023-01-09 00:56,-115.1344,35.9729,742.79,51.00,38.00,60.46,40.00,3.00,0.00,30.14,1023.10,10.00,M,CLR,M,M,M,M,M,M,M,M,M,M,M,M,M,M,51.10,KHND 090056Z 04003KT 10SM CLR 11/03 A3014 RMK AO2 SLP231 T01060033,M
BVU,2023-01-09 01:15,-114.8611,35.9475,671.00,53.60,35.60,50.36,70.00,4.00,0.00,30.13,M,10.00,M,CLR,M,M,M,M,M,M,M,M,M,M,M,M,M,M,53.60,KBVU 090115Z AUTO 07004KT 10SM CLR 12/02 A3013 RMK AO2,M
CXP,2023-01-09 01:15,-119.7326,39.1923,1431.00,37.40,21.20,51.61,180.00,5.00,0.00,30.04,M,10.00,M,CLR,M,M,M,M,M,M,M,M,M,M,M,M,M,M,32.81,KCXP 090115Z AUTO 18005KT 10SM CLR 03/M06 A3004 RMK AO2,M
RTS,2023-01-09 01:15,-119.8764,39.6682,1539.00,41.00,14.00,32.88,250.00,11.00,0.00,30.01,M,10.00,31.00,CLR,M,M,M,M,M,M,M,M,M,M,M,M,M,M,33.84,KRTS 090115Z AUTO 25011G31KT 210V270 10SM CLR 05/M10 A3001 RMK AO2,M
05U,2023-01-09 01:15,-116.0051,39.6042,1811.23,30.20,23.00,74.26,0.00,0.00,0.00,30.12,M,10.00,M,CLR,M,M,M,M,M,M,M,M,M,M,M,M,M,M,30.20,K05U 090115Z AUTO 00000KT 10SM CLR M01/M05 A3012 RMK A01,M
MEV,2023-01-09 01:15,-119.7500,38.9963,1441.42,37.40,23.00,55.68,140.00,7.00,0.00,30.02,M,10.00,14.00,CLR,M,M,M,M,M,M,M,M,M,M,M,M,M,M,31.36,KMEV 090115Z AUTO 14007G14KT 10SM CLR 03/M05 A3002 RMK AO2,M
BAM,2023-01-09 01:15,-116.8743,40.5990,1382.36,41.00,28.40,60.54,0.00,0.00,0.00,30.06,M,10.00,M,CLR,M,M,M,M,M,M,M,M,M,M,M,M,M,M,41.00,KBAM 090115Z AUTO 00000KT 10SM CLR 05/M02 A3006 RMK AO1,M
TMT,2023-01-09 01:15,-117.1971,39.4643,1749.34,31.10,26.40,82.50,0.00,0.00,0.00,30.07,M,10.00,M,CLR,M,M,M,M,M,M,M,M,M,M,M,M,M,M,31.10,KTMT 090115Z AUTO 00000KT 10SM CLR 00/M03 A3007 RMK AO2 T10051031,M
BVU,2023-01-09 01:35,-114.8611,35.9475,671.00,53.60,32.00,43.61,120.00,4.00,0.00,30.13,M,10.00,M,CLR,M,M,M,M,M,M,M,M,M,M,M,M,M,M,53.60,KBVU 090135Z AUTO 12004KT 10SM CLR 12/M00 A3013 RMK AO2,M
CXP,2023-01-09 01:35,-119.7326,39.1923,1431.00,37.40,21.20,51.61,180.00,4.00,0.00,30.03,M,10.00,11.00,CLR,M,M,M,M,M,M,M,M,M,M,M,M,M,M,33.73,KCXP 090135Z AUTO 18004G11KT 10SM CLR 03/M06 A3003 RMK AO2,M
RTS,2023-01-09 01:35,-119.8764,39.6682,1539.00,37.40,19.40,47.80,230.00,9.00,0.00,30.02,M,10.00,15.00,CLR,M,M,M,M,M,M,M,M,M,M,M,M,M,M,30.23,KRTS 090135Z AUTO 23009G15KT 10SM CLR 03/M07 A3002 RMK AO2,M
05U,2023-01-09 01:35,-116.0051,39.6042,1811.23,28.40,23.00,79.92,0.00,0.00,0.00,30.12,M,10.00,M,CLR,M,M,M,M,M,M,M,M,M,M,M,M,M,M,28.40,K05U 090135Z AUTO 00000KT 10SM CLR M02/M05 A3012 RMK A01,M
MEV,2023-01-09 01:35,-119.7500,38.9963,1441.42,35.60,24.80,64.46,110.00,7.00,0.00,30.00,M,10.00,M,CLR,M,M,M,M,M,M,M,M,M,M,M,M,M,M,29.17,KMEV 090135Z AUTO 11007KT 10SM CLR 02/M04 A3000 RMK AO2,M
BAM,2023-01-09 01:35,-116.8743,40.5990,1382.36,41.00,26.60,56.22,270.00,3.00,0.00,30.05,M,10.00,M,CLR,M,M,M,M,M,M,M,M,M,M,M,M,M,M,38.98,KBAM 090135Z AUTO 27003KT 10SM CLR 05/M03 A3005 RMK AO1,M
TMT,2023-01-09 01:35,-117.1971,39.4643,1749.34,31.80,26.60,80.87,120.00,4.00,0.00,30.07,M,10.00,M,CLR,M,M,M,M,M,M,M,M,M,M,M,M,M,M,27.19,KTMT 090135Z AUTO 12004KT 10SM CLR 00/M03 A3007 RMK AO2 T10011030,M
P68,2023-01-09 01:53,-116.0056,39.6014,1993.00,26.10,19.90,77.06,170.00,8.00,0.00,30.09,1019.50,M,M,M,M,M,M,M,M,M,M,M,M,M,M,M,M,M,16.85,KP68 090153Z AUTO 17008KT M03/M07 A3009 RMK AO1 SLP195 T10331067,M
ELY,2023-01-09 01:53,-114.8453,39.2950,1909.00,30.00,21.00,68.81,210.00,9.00,0.00,30.14,1021.00,10.00,M,CLR,M,M,M,M,M,M,M,M,M,M,M,M,M,M,21.03,KELY 090153Z AUTO 21009KT 10SM CLR M01/M06 A3014 RMK AO2 SLP210 T10111061 $,M
VGT,2023-01-09 01:53,-115.1933,36.2111,667.00,52.00,36.00,54.26,180.00,3.00,0.00,30.13,1022.50,10.00,M,CLR,M,M,M,M,M,M,M,M,M,M,M,M,M,M,52.00,KVGT 090153Z 18003KT 10SM CLR 11/02 A3013 RMK AO2 SLP225 T01110022,M
LOL,2023-01-09 01:53,-118.5701,40.0684,1192.43,34.00,27.00,75.26,140.00,5.00,0.00,30.02,1017.50,10.00,M,CLR,M,M,M,M,M,M,M,M,M,M,M,M,M,M,28.77,KLOL 090153Z AUTO 14005KT 10SM CLR 01/M03 A3002 RMK AO2 SLP175 T00111028,M
BVU,2023-01-09 01:55,-114.8611,35.9475,671.00,53.60,32.00,43.61,80.00,3.00,0.00,30.13,M,10.00,M,CLR,M,M,M,M,M,M,M,M,M,M,M,M,M,M,53.60,KBVU 090155Z AUTO 08003KT 10SM CLR 12/M00 A3013 RMK AO2,M
CXP,2023-01-09 01:55,-119.7326,39.1923,1431.00,35.60,21.20,55.41,0.00,0.00,0.00,30.02,M,10.00,M,CLR,M,M,M,M,M,M,M,M,M,M,M,M,M,M,35.60,KCXP 090155Z AUTO 00000KT 10SM CLR 02/M06 A3002 RMK AO2,M
INS,2023-01-09 01:55,-115.6733,36.5872,955.00,43.20,31.10,62.09,0.00,0.00,0.00,30.14,1020.70,10.00,M,CLR,M,M,M,M,M,M,M,M,M,M,M,M,M,M,43.20,KINS 090155Z AUTO 00000KT 10SM CLR 06/M00 A3014 RMK AO2 SLP207 T00621005 $,M
RTS,2023-01-09 01:55,-119.8764,39.6682,1539.00,37.40,19.40,47.80,0.00,0.00,0.00,30.01,M,10.00,M,CLR,M,M,M,M,M,M,M,M,M,M,M,M,M,M,37.40,KRTS 090155Z AUTO 00000KT 10SM CLR 03/M07 A3001 RMK AO2,M
05U,2023-01-09 01:55,-116.0051,39.6042,1811.23,26.60,19.40,73.89,190.00,6.00,0.00,30.12,M,10.00,M,CLR,M,M,M,M,M,M,M,M,M,M,M,M,M,M,19.03,K05U 090155Z AUTO 19006KT 10SM CLR M03/M07 A3012 RMK A01,M
MEV,2023-01-09 01:55,-119.7500,38.9963,1441.42,33.80,24.80,69.25,140.00,6.00,0.00,30.01,M,10.00,M,FEW,FEW,M,M,3700.00,4400.00,M,M,M,M,M,M,M,M,M,27.70,KMEV 090155Z AUTO 14006KT 10SM FEW037 FEW044 01/M04 A3001 RMK AO2,M
BAM,2023-01-09 01:55,-116.8743,40.5990,1382.36,37.40,28.40,69.67,240.00,3.00,0.00,30.06,M,10.00,M,CLR,M,M,M,M,M,M,M,M,M,M,M,M,M,M,34.86,KBAM 090155Z AUTO 24003KT 10SM CLR 03/M02 A3006 RMK AO1,M
TMT,2023-01-09 01:55,-117.1971,39.4643,1749.34,27.50,25.20,90.92,140.00,3.00,0.00,30.08,M,10.00,M,CLR,M,M,M,M,M,M,M,M,M,M,M,M,M,M,23.54,KTMT 090155Z AUTO 14003KT 10SM CLR M02/M04 A3008 RMK AO2 T10251038,M
LSV,2023-01-09 01:55,-115.0343,36.2362,570.00,49.50,37.80,63.91,80.00,13.00,0.00,30.11,1019.90,10.00,M,CLR,M,M,M,M,M,M,M,M,M,M,M,M,M,M,43.99,KLSV 090155Z AUTO 08013KT 10SM CLR 10/03 A3011 RMK AO2 SLP199 T00970032 $,M
RNO,2023-01-09 01:55,-119.7711,39.4839,1341.00,42.00,21.90,44.27,0.00,0.00,0.00,30.00,1015.40,10.00,M,SCT,BKN,M,M,15000.00,22000.00,M,M,M,M,M,M,M,M,M,42.10,KRNO 090155Z 00000KT 10SM SCT150 BKN220 06/M06 A3000 RMK AO2 SLP154 T00561056,M
EKO,2023-01-09 01:56,-115.7860,40.8242,1367.00,33.00,26.10,75.18,350.00,3.00,0.00,30.08,1019.80,10.00,M,CLR,M,M,M,M,M,M,M,M,M,M,M,M,M,M,29.95,KEKO 090156Z AUTO 35003KT 10SM CLR 01/M03 A3008 RMK AO2 SLP198 T00061033,M
NFL,2023-01-09 01:56,-118.7010,39.4166,1199.00,45.00,19.00,35.02,0.00,0.00,0.00,30.01,1013.20,10.00,M,CLR,M,M,M,M,M,M,M,M,M,M,M,M,M,M,45.00,KNFL 090156Z AUTO 00000KT 10SM CLR 07/M07 A3001 RMK AO2 SLP132 T00721072,M
TPH,2023-01-09 01:56,-117.0904,38.0505,1654.00,38.00,30.00,72.93,170.00,9.00,0.00,30.10,1019.80,10.00,M,CLR,M,M,M,M,M,M,M,M,M,M,M,M,M,M,30.85,KTPH 090156Z AUTO 17009KT 10SM CLR 03/M01 A3010 RMK AO2 SLP198 T00331011,M
LAS,2023-01-09 01:56,-115.1634,36.0719,663.00,52.00,36.00,54.26,M,5.00,0.00,30.14,1020.70,10.00,M,FEW,FEW,M,M,14000.00,25000.00,M,M,M,M,M,M,M,M,M,52.00,KLAS 090156Z VRB05KT 10SM FEW140 FEW250 11/02 A3014 RMK AO2 SLP207 T01110022,M
HND,2023-01-09 01:56,-115.1344,35.9729,742.79,50.00,38.00,62.98,0.00,0.00,0.00,30.15,1023.40,10.00,M,CLR,M,M,M,M,M,M,M,M,M,M,M,M,M,M,50.00,KHND 090156Z 00000KT 10SM CLR 10/03 A3015 RMK AO2 SLP234 T01000033,M
WMC,2023-01-09 01:56,-117.8072,40.9019,1315.00,35.00,26.10,69.41,90.00,7.00,0.00,30.02,1017.20,10.00,M,CLR,M,M,M,M,M,M,M,M,M,M,M,M,M,M,28.56,KWMC 090156Z AUTO 09007KT 10SM CLR 02/M03 A3002 RMK AO2 SLP172 T00171033,M
BVU,2023-01-09 02:15,-114.8611,35.9475,671.00,50.00,33.80,53.54,70.00,4.00,0.00,30.14,M,10.00,M,CLR,M,M,M,M,M,M,M,M,M,M,M,M,M,M,50.00,KBVU 090215Z AUTO 07004KT 10SM CLR 10/01 A3014 RMK AO2,M
CXP,2023-01-09 02:15,-119.7326,39.1923,1431.00,35.60,21.20,55.41,0.00,0.00,0.00,30.03,M,10.00,M,CLR,M,M,M,M,M,M,M,M,M,M,M,M,M,M,35.60,KCXP 090215Z AUTO 00000KT 10SM CLR 02/M06 A3003 RMK AO2,M
RTS,2023-01-09 02:15,-119.8764,39.6682,1539.00,37.40,19.40,47.80,0.00,0.00,0.00,30.02,M,10.00,M,CLR,M,M,M,M,M,M,M,M,M,M,M,M,M,M,37.40,KRTS 090215Z AUTO 00000KT 10SM CLR 03/M07 A3002 RMK AO2,M
05U,2023-01-09 02:15,-116.0051,39.6042,1811.23,26.60,21.20,79.77,170.00,5.00,0.00,30.12,M,10.00,M,CLR,M,M,M,M,M,M,M,M,M,M,M,M,M,M,19.98,K05U 090215Z AUTO 17005KT 10SM CLR M03/M06 A3012 RMK A01,M
MEV,2023-01-09 02:15,-119.7500,38.9963,1441.42,33.80,24.80,69.25,110.00,6.00,0.00,30.01,M,10.00,M,FEW,SCT,SCT,M,3600.00,4400.00,5500.00,M,M,M,M,M,M,M,M,27.70,KMEV 090215Z AUTO 11006KT 10SM FEW036 SCT044 SCT055 01/M04 A3001 RMK AO2,M
BAM,2023-01-09 02:15,-116.8743,40.5990,1382.36,35.60,30.20,80.51,80.00,4.00,0.00,30.07,M,10.00,M,CLR,M,M,M,M,M,M,M,M,M,M,M,M,M,M,31.62,KBAM 090215Z AUTO 08004KT 10SM CLR 02/M01 A3007 RMK AO1,M
TMT,2023-01-09 02:15,-117.1971,39.4643,1749.34,29.10,25.70,86.94,130.00,3.00,0.00,30.08,M,10.00,M,CLR,M,M,M,M,M,M,M,M,M,M,M,M,M,M,25.37,KTMT 090215Z AUTO 13003KT 10SM CLR M02/M03 A3008 RMK AO2 T10161035,M
BVU,2023-01-09 02:35,-114.8611,35.9475,671.00,50.00,35.60,57.52,40.00,7.00,0.00,30.14,M,10.00,M,CLR,M,M,M,M,M,M,M,M,M,M,M,M,M,M,50.00,KBVU 090235Z AUTO 04007KT 10SM CLR 10/02 A3014 RMK AO2,M
CXP,2023-01-09 02:35,-119.7326,39.1923,1431.00,32.00,23.00,69.04,0.00,0.00,0.00,30.03,M,10.00,M,CLR,M,M,M,M,M,M,M,M,M,M,M,M,M,M,32.00,KCXP 090235Z AUTO 00000KT 10SM CLR M00/M05 A3003 RMK AO2,M
RTS,2023-01-09 02:35,-119.8764,39.6682,1539.00,35.60,19.40,51.33,0.00,0.00,0.00,30.00,M,10.00,M,FEW,M,M,M,12000.00,M,M,M,M,M,M,M,M,M,M,35.60,KRTS 090235Z AUTO 00000KT 10SM FEW120 02/M07 A3000 RMK AO2,M
05U,2023-01-09 02:35,-116.0051,39.6042,1811.23,26.60,21.20,79.77,190.00,10.00,0.00,30.12,M,10.00,M,CLR,M,M,M,M,M,M,M,M,M,M,M,M,M,M,16.20,K05U 090235Z AUTO 19010KT 10SM CLR M03/M06 A3012 RMK A01,M
BAM,2023-01-09 02:35,-116.8743,40.5990,1382.36,37.40,30.20,74.98,0.00,0.00,0.00,30.06,M,10.00,M,CLR,M,M,M,M,M,M,M,M,M,M,M,M,M,M,37.40,KBAM 090235Z AUTO 00000KT 10SM CLR 03/M01 A3006 RMK AO1,M
MEV,2023-01-09 02:35,-119.7500,38.9963,1441.42,33.80,24.80,69.25,160.00,6.00,0.00,30.01,M,10.00,M,FEW,FEW,M,M,4200.00,4700.00,M,M,M,M,M,M,M,M,M,27.70,KMEV 090235Z AUTO 16006KT 10SM FEW042 FEW047 01/M04 A3001 RMK AO2,M
TMT,2023-01-09 02:35,-117.1971,39.4643,1749.34,27.30,24.60,89.41,150.00,4.00,0.00,30.08,M,10.00,M,CLR,M,M,M,M,M,M,M,M,M,M,M,M,M,M,21.93,KTMT 090235Z AUTO 15004KT 10SM CLR M03/M04 A3008 RMK AO2 T10261041,M
P68,2023-01-09 02:53,-116.0056,39.6014,1993.00,24.10,18.00,77.21,160.00,11.00,0.00,30.10,1020.30,M,M,M,M,M,M,M,M,M,M,M,M,M,M,M,M,M,12.48,KP68 090253Z AUTO 16011KT M04/M08 A3010 RMK AO1 SLP203 T10441078 51009,M
ELY,2023-01-09 02:53,-114.8453,39.2950,1909.00,28.90,19.90,68.67,210.00,11.00,0.00,30.13,1020.90,10.00,M,CLR,M,M,M,M,M,M,M,M,M,M,M,M,M,M,18.55,KELY 090253Z AUTO 21011KT 10SM CLR M02/M07 A3013 RMK AO2 SLP209 T10171067 50008 $,M
LOL,2023-01-09 02:53,-118.5701,40.0684,1192.43,35.00,27.00,72.04,40.00,5.00,0.00,30.01,1017.40,10.00,M,CLR,M,M,M,M,M,M,M,M,M,M,M,M,M,M,30.08,KLOL 090253Z AUTO 04005KT 10SM CLR 02/M03 A3001 RMK AO2 SLP174 T00171028 50003,M
VGT,2023-01-09 02:53,-115.1933,36.2111,667.00,51.00,36.00,56.10,140.00,3.00,0.00,30.13,1022.80,10.00,M,CLR,M,M,M,M,M,M,M,M,M,M,M,M,M,M,51.10,KVGT 090253Z 14003KT 10SM CLR 11/02 A3013 RMK AO2 SLP228 T01060022 51007,M
BVU,2023-01-09 02:55,-114.8611,35.9475,671.00,50.00,39.20,66.27,30.00,8.00,0.00,30.14,M,10.00,M,CLR,M,M,M,M,M,M,M,M,M,M,M,M,M,M,50.00,KBVU 090255Z AUTO 03008KT 10SM CLR 10/04 A3014 RMK AO2,M
CXP,2023-01-09 02:55,-119.7326,39.1923,1431.00,33.80,23.00,64.23,0.00,0.00,0.00,30.03,M,10.00,M,CLR,M,M,M,M,M,M,M,M,M,M,M,M,M,M,33.80,KCXP 090255Z AUTO 00000KT 10SM CLR 01/M05 A3003 RMK AO2,M
RNO,2023-01-09 02:55,-119.7711,39.4839,1341.00,39.00,24.10,54.77,260.00,4.00,0.00,30.00,1015.50,10.00,M,BKN,OVC,M,M,15000.00,22000.00,M,M,M,M,M,M,M,M,M,35.59,KRNO 090255Z 26004KT 10SM BKN150 OVC220 04/M04 A3000 RMK AO2 SLP155 T00391044 50000,M
RTS,2023-01-09 02:55,-119.8764,39.6682,1539.00,35.60,21.20,55.41,0.00,0.00,0.00,30.01,M,10.00,M,FEW,M,M,M,12000.00,M,M,M,M,M,M,M,M,M,M,35.60,KRTS 090255Z AUTO 00000KT 10SM FEW120 02/M06 A3001 RMK AO2,M
05U,2023-01-09 02:55,-116.0051,39.6042,1811.23,24.80,19.40,79.62,M,M,0.00,30.12,M,10.00,M,CLR,M,M,M,M,M,M,M,M,M,M,M,M,M,M,M,K05U 090255Z AUTO 10SM CLR M04/M07 A3012 RMK A01,M
MEV,2023-01-09 02:55,-119.7500,38.9963,1441.42,32.00,23.00,69.04,160.00,4.00,0.00,30.01,M,10.00,M,SCT,M,M,M,4300.00,M,M,M,M,M,M,M,M,M,M,27.42,KMEV 090255Z AUTO 16004KT 10SM SCT043 M00/M05 A3001 RMK AO2,M
BAM,2023-01-09 02:55,-116.8743,40.5990,1382.36,37.40,30.20,74.98,90.00,7.00,0.00,30.06,M,10.00,M,CLR,M,M,M,M,M,M,M,M,M,M,M,M,M,M,31.36,KBAM 090255Z AUTO 09007KT 10SM CLR 03/M01 A3006 RMK AO1,M
TMT,2023-01-09 02:55,-117.1971,39.4643,1749.34,25.70,23.50,91.23,180.00,5.00,0.00,30.07,M,10.00,M,CLR,M,M,M,M,M,M,M,M,M,M,M,M,M,M,18.91,KTMT 090255Z AUTO 18005KT 10SM CLR M03/M05 A3007 RMK AO2 T10351047,M
LSV,2023-01-09 02:55,-115.0343,36.2362,570.00,49.60,36.30,60.02,80.00,10.00,0.00,30.12,1020.20,10.00,M,CLR,M,M,M,M,M,M,M,M,M,M,M,M,M,M,45.04,KLSV 090255Z AUTO 08010KT 10SM CLR 10/02 A3012 RMK AO2 SLP202 T00980024 52008 $,M
INS,2023-01-09 02:55,-115.6733,36.5872,955.00,38.00,30.20,72.95,0.00,0.00,0.00,30.14,1021.20,10.00,M,CLR,M,M,M,M,M,M,M,M,M,M,M,M,M,M,38.10,KINS 090255Z AUTO 00000KT 10SM CLR 03/M01 A3014 RMK AO2 SLP212 T00341010 51008 $,M
EKO,2023-01-09 02:56,-115.7860,40.8242,1367.00,30.00,25.00,81.40,0.00,0.00,0.00,30.07,1020.00,10.00,M,CLR,M,M,M,M,M,M,M,M,M,M,M,M,M,M,30.00,KEKO 090256Z AUTO 00000KT 10SM CLR M01/M04 A3007 RMK AO2 SLP200 T10111039 50005,M
WMC,2023-01-09 02:56,-117.8072,40.9019,1315.00,37.00,24.10,59.24,M,4.00,0.00,30.01,1016.20,10.00,M,CLR,M,M,M,M,M,M,M,M,M,M,M,M,M,M,33.26,KWMC 090256Z AUTO VRB04KT 10SM CLR 03/M04 A3001 RMK AO2 SLP162 T00281044 50000,M
NFL,2023-01-09 02:56,-118.7010,39.4166,1199.00,39.00,26.10,59.52,70.00,8.00,0.00,29.99,1012.60,10.00,M,CLR,M,M,M,M,M,M,M,M,M,M,M,M,M,M,32.74,KNFL 090256Z AUTO 07008KT 10SM CLR 04/M03 A2999 RMK AO2 SLP126 T00391033 58003,M
TPH,2023-01-09 02:56,-117.0904,38.0505,1654.00,36.00,30.00,78.60,130.00,7.00,0.00,30.11,1020.30,10.00,M,CLR,M,M,M,M,M,M,M,M,M,M,M,M,M,M,29.65,KTPH 090256Z AUTO 13007KT 10SM CLR 02/M01 A3011 RMK AO2 SLP203 T00221011 51008,M
HND,2023-01-09 02:56,-115.1344,35.9729,742.79,46.00,38.00,73.18,140.00,4.00,0.00,30.16,1023.90,10.00,M,CLR,M,M,M,M,M,M,M,M,M,M,M,M,M,M,43.77,KHND 090256Z 14004KT 10SM CLR 08/03 A3016 RMK AO2 SLP239 T00780033 51010,M
LAS,2023-01-09 02:56,-115.1634,36.0719,663.00,51.00,35.00,54.13,M,3.00,0.00,30.14,1020.80,10.00,M,FEW,FEW,M,M,14000.00,25000.00,M,M,M,M,M,M,M,M,M,51.10,KLAS 090256Z VRB03KT 10SM FEW140 FEW250 11/02 A3014 RMK AO2 SLP208 T01060017 51007,M
BVU,2023-01-09 03:15,-114.8611,35.9475,671.00,50.00,39.20,66.27,30.00,7.00,0.00,30.15,M,10.00,M,CLR,M,M,M,M,M,M,M,M,M,M,M,M,M,M,50.00,KBVU 090315Z AUTO 03007KT 10SM CLR 10/04 A3015 RMK AO2,M
CXP,2023-01-09 03:15,-119.7326,39.1923,1431.00,32.00,23.00,69.04,0.00,0.00,0.00,30.02,M,10.00,M,CLR,M,M,M,M,M,M,M,M,M,M,M,M,M,M,32.00,KCXP 090315Z AUTO 00000KT 10SM CLR 00/M05 A3002 RMK AO2,M
RTS,2023-01-09 03:15,-119.8764,39.6682,1539.00,32.00,24.80,74.44,0.00,0.00,0.00,29.99,M,10.00,M,BKN,M,M,M,12000.00,M,M,M,M,M,M,M,M,M,M,32.00,KRTS 090315Z AUTO 00000KT 10SM BKN120 00/M04 A2999 RMK AO2,M
05U,2023-01-09 03:15,-116.0051,39.6042,1811.23,28.40,23.00,79.92,150.00,9.00,0.00,30.12,M,10.00,M,CLR,M,M,M,M,M,M,M,M,M,M,M,M,M,M,19.04,K05U 090315Z AUTO 15009KT 10SM CLR M02/M05 A3012 RMK A01,M
MEV,2023-01-09 03:15,-119.7500,38.9963,1441.42,33.80,24.80,69.25,0.00,0.00,0.00,30.00,M,10.00,M,FEW,FEW,M,M,3500.00,4500.00,M,M,M,M,M,M,M,M,M,33.80,KMEV 090315Z AUTO 00000KT 10SM FEW035 FEW045 01/M04 A3000 RMK AO2,M
BAM,2023-01-09 03:15,-116.8743,40.5990,1382.36,37.40,28.40,69.67,100.00,5.00,0.00,30.05,M,10.00,M,CLR,M,M,M,M,M,M,M,M,M,M,M,M,M,M,32.81,KBAM 090315Z AUTO 10005KT 10SM CLR 03/M02 A3005 RMK AO1,M
TMT,2023-01-09 03:15,-117.1971,39.4643,1749.34,26.40,23.50,88.62,220.00,5.00,0.00,30.06,M,10.00,M,CLR,M,M,M,M,M,M,M,M,M,M,M,M,M,M,19.74,KTMT 090315Z AUTO 22005KT 10SM CLR M03/M05 A3006 RMK AO2 T10311047,M
BVU,2023-01-09 03:35,-114.8611,35.9475,671.00,50.00,37.40,61.76,40.00,6.00,0.00,30.15,M,10.00,M,CLR,M,M,M,M,M,M,M,M,M,M,M,M,M,M,50.00,KBVU 090335Z AUTO 04006KT 10SM CLR 10/03 A3015 RMK AO2,M
CXP,2023-01-09 03:35,-119.7326,39.1923,1431.00,32.00,23.00,69.04,0.00,0.00,0.00,30.00,M,10.00,M,CLR,M,M,M,M,M,M,M,M,M,M,M,M,M,M,32.00,KCXP 090335Z AUTO 00000KT 10SM CLR M00/M05 A3000 RMK AO2,M
RTS,2023-01-09 03:35,-119.8764,39.6682,1539.00,33.80,23.00,64.23,0.00,0.00,0.00,30.00,M,10.00,M,BKN,M,M,M,11000.00,M,M,M,M,M,M,M,M,M,M,33.80,KRTS 090335Z AUTO 00000KT 10SM BKN110 01/M05 A3000 RMK AO2,M
05U,2023-01-09 03:35,-116.0051,39.6042,1811.23,26.60,19.40,73.89,160.00,8.00,0.00,30.12,M,10.00,M,CLR,M,M,M,M,M,M,M,M,M,M,M,M,M,M,17.46,K05U 090335Z AUTO 16008KT 10SM CLR M03/M07 A3012 RMK A01,M
MEV,2023-01-09 03:35,-119.7500,38.9963,1441.42,33.80,23.00,64.23,0.00,0.00,0.00,29.99,M,10.00,M,FEW,FEW,M,M,3600.00,4500.00,M,M,M,M,M,M,M,M,M,33.80,KMEV 090335Z AUTO 00000KT 10SM FEW036 FEW045 01/M05 A2999 RMK AO2,M
BAM,2023-01-09 03:35,-116.8743,40.5990,1382.36,33.80,30.20,86.49,70.00,8.00,0.00,30.05,M,10.00,M,CLR,M,M,M,M,M,M,M,M,M,M,M,M,M,M,26.33,KBAM 090335Z AUTO 07008KT 10SM CLR 01/M01 A3005 RMK AO1,M
TMT,2023-01-09 03:35,-117.1971,39.4643,1749.34,24.10,22.30,92.72,20.00,4.00,0.00,30.07,M,10.00,M,CLR,M,M,M,M,M,M,M,M,M,M,M,M,M,M,18.19,KTMT 090335Z AUTO 02004KT 10SM CLR M04/M05 A3007 RMK AO2 T10441054,M
P68,2023-01-09 03:53,-116.0056,39.6014,1993.00,32.00,21.90,65.92,170.00,12.00,0.00,30.08,1018.30,M,M,M,M,M,M,M,M,M,M,M,M,M,M,M,M,M,22.00,KP68 090353Z AUTO 17012KT 00/M06 A3008 RMK AO1 SLP183 T00001056,M
ELY,2023-01-09 03:53,-114.8453,39.2950,1909.00,30.90,21.00,66.34,200.00,13.00,0.00,30.13,1020.50,10.00,M,CLR,M,M,M,M,M,M,M,M,M,M,M,M,M,M,20.16,KELY 090353Z AUTO 20013KT 10SM CLR M01/M06 A3013 RMK AO2 SLP205 T10061061 $,M
VGT,2023-01-09 03:53,-115.1933,36.2111,667.00,50.00,36.00,58.44,170.00,3.00,0.00,30.15,1023.10,10.00,M,CLR,M,M,M,M,M,M,M,M,M,M,M,M,M,M,50.00,KVGT 090353Z 17003KT 10SM CLR 10/02 A3015 RMK AO2 SLP231 T01000022,M
LOL,2023-01-09 03:53,-118.5701,40.0684,1192.43,32.00,27.00,81.55,300.00,6.00,0.00,29.98,1016.60,10.00,M,CLR,M,M,M,M,M,M,M,M,M,M,M,M,M,M,25.53,KLOL 090353Z AUTO 30006KT 10SM CLR 00/M03 A2998 RMK AO2 SLP166 T00001028,M
BVU,2023-01-09 03:55,-114.8611,35.9475,671.00,50.00,37.40,61.76,50.00,5.00,0.00,30.15,M,10.00,M,CLR,M,M,M,M,M,M,M,M,M,M,M,M,M,M,50.00,KBVU 090355Z AUTO 05005KT 10SM CLR 10/03 A3015 RMK AO2,M
CXP,2023-01-09 03:55,-119.7326,39.1923,1431.00,30.20,23.00,74.26,0.00,0.00,0.00,30.00,M,10.00,M,CLR,M,M,M,M,M,M,M,M,M,M,M,M,M,M,30.20,KCXP 090355Z AUTO 00000KT 10SM CLR M01/M05 A3000 RMK AO2,M
INS,2023-01-09 03:55,-115.6733,36.5872,955.00,38.30,31.50,76.29,0.00,0.00,0.00,30.15,1021.30,10.00,M,CLR,M,M,M,M,M,M,M,M,M,M,M,M,M,M,38.30,KINS 090355Z AUTO 00000KT 10SM CLR 04/M00 A3015 RMK AO2 SLP213 T00351003 $,M
RNO,2023-01-09 03:55,-119.7711,39.4839,1341.00,37.00,24.10,59.24,350.00,5.00,0.00,29.99,1015.40,10.00,M,SCT,BKN,OVC,M,15000.00,19000.00,25000.00,M,M,M,M,M,M,M,M,32.33,KRNO 090355Z 35005KT 10SM SCT150 BKN190 OVC250 03/M04 A2999 RMK AO2 SLP154 T00281044,M
RTS,2023-01-09 03:55,-119.8764,39.6682,1539.00,33.80,21.20,59.53,80.00,6.00,0.00,30.00,M,10.00,M,FEW,M,M,M,11000.00,M,M,M,M,M,M,M,M,M,M,27.70,KRTS 090355Z AUTO 08006KT 10SM FEW110 01/M06 A3000 RMK AO2,M
05U,2023-01-09 03:55,-116.0051,39.6042,1811.23,32.00,23.00,69.04,170.00,11.00,0.00,30.11,M,10.00,M,CLR,M,M,M,M,M,M,M,M,M,M,M,M,M,M,22.47,K05U 090355Z AUTO 17011KT 10SM CLR M00/M05 A3011 RMK A01,M
MEV,2023-01-09 03:55,-119.7500,38.9963,1441.42,32.00,24.80,74.44,0.00,0.00,0.00,29.99,M,10.00,M,FEW,SCT,M,M,4600.00,11000.00,M,M,M,M,M,M,M,M,M,32.00,KMEV 090355Z AUTO 00000KT 10SM FEW046 SCT110 M00/M04 A2999 RMK AO2,M
BAM,2023-01-09 03:55,-116.8743,40.5990,1382.36,37.40,30.20,74.98,70.00,7.00,0.00,30.05,M,10.00,M,CLR,M,M,M,M,M,M,M,M,M,M,M,M,M,M,31.36,KBAM 090355Z AUTO 07007KT 10SM CLR 03/M01 A3005 RMK AO1,M
TMT,2023-01-09 03:55,-117.1971,39.4643,1749.34,25.70,23.50,91.23,0.00,0.00,0.00,30.06,M,10.00,M,CLR,M,M,M,M,M,M,M,M,M,M,M,M,M,M,25.70,KTMT 090355Z AUTO 00000KT 10SM CLR M03/M05 A3006 RMK AO2 T10351047,M
LSV,2023-01-09 03:55,-115.0343,36.2362,570.00,48.70,36.00,61.34,90.00,7.00,0.00,30.13,1020.50,10.00,M,CLR,M,M,M,M,M,M,M,M,M,M,M,M,M,M,45.14,KLSV 090355Z AUTO 09007KT 10SM CLR 09/02 A3013 RMK AO2 SLP205 T00930022 $,M
EKO,2023-01-09 03:56,-115.7860,40.8242,1367.00,30.00,24.10,78.40,90.00,5.00,0.00,30.07,1020.10,10.00,M,CLR,M,M,M,M,M,M,M,M,M,M,M,M,M,M,24.02,KEKO 090356Z AUTO 09005KT 10SM CLR M01/M04 A3007 RMK AO2 SLP201 T10111044,M
WMC,2023-01-09 03:56,-117.8072,40.9019,1315.00,34.00,23.00,63.72,170.00,8.00,0.00,30.00,1016.40,10.00,M,CLR,M,M,M,M,M,M,M,M,M,M,M,M,M,M,26.58,KWMC 090356Z AUTO 17008KT 10SM CLR 01/M05 A3000 RMK AO2 SLP164 T00111050,M
NFL,2023-01-09 03:56,-118.7010,39.4166,1199.00,39.00,28.00,64.37,230.00,3.00,0.00,29.99,1012.60,10.00,M,CLR,M,M,M,M,M,M,M,M,M,M,M,M,M,M,36.69,KNFL 090356Z AUTO 23003KT 10SM CLR 04/M02 A2999 RMK AO2 SLP126 T00391022,M
TPH,2023-01-09 03:56,-117.0904,38.0505,1654.00,35.00,30.00,81.46,150.00,5.00,0.00,30.12,1020.50,10.00,M,CLR,M,M,M,M,M,M,M,M,M,M,M,M,M,M,30.08,KTPH 090356Z AUTO 15005KT 10SM CLR 02/M01 A3012 RMK AO2 SLP205 T00171011,M
LAS,2023-01-09 03:56,-115.1634,36.0719,663.00,50.00,36.00,58.44,0.00,0.00,0.00,30.16,1021.40,10.00,M,FEW,FEW,M,M,14000.00,25000.00,M,M,M,M,M,M,M,M,M,50.00,KLAS 090356Z 00000KT 10SM FEW140 FEW250 10/02 A3016 RMK AO2 SLP214 T01000022,M
HND,2023-01-09 03:56,-115.1344,35.9729,742.79,46.00,38.00,73.18,160.00,5.00,0.00,30.17,1024.30,10.00,M,CLR,M,M,M,M,M,M,M,M,M,M,M,M,M,M,43.02,KHND 090356Z 16005KT 10SM CLR 08/03 A3017 RMK AO2 SLP243 T00780033,M
BVU,2023-01-09 04:15,-114.8611,35.9475,671.00,50.00,37.40,61.76,50.00,5.00,0.00,30.15,M,10.00,M,CLR,M,M,M,M,M,M,M,M,M,M,M,M,M,M,50.00,KBVU 090415Z AUTO 05005KT 10SM CLR 10/03 A3015 RMK AO2,M
CXP,2023-01-09 04:15,-119.7326,39.1923,1431.00,32.00,24.80,74.44,0.00,0.00,0.00,30.01,M,10.00,M,SCT,M,M,M,11000.00,M,M,M,M,M,M,M,M,M,M,32.00,KCXP 090415Z AUTO 00000KT 10SM SCT110 00/M04 A3001 RMK AO2,M
RTS,2023-01-09 04:15,-119.8764,39.6682,1539.00,33.80,21.20,59.53,110.00,4.00,0.00,30.00,M,10.00,M,CLR,M,M,M,M,M,M,M,M,M,M,M,M,M,M,29.52,KRTS 090415Z AUTO 11004KT 10SM CLR 01/M06 A3000 RMK AO2,M
05U,2023-01-09 04:15,-116.0051,39.6042,1811.23,30.20,21.20,68.83,180.00,9.00,0.00,30.11,M,10.00,M,CLR,M,M,M,M,M,M,M,M,M,M,M,M,M,M,21.28,K05U 090415Z AUTO 18009KT 10SM CLR M01/M06 A3011 RMK A01,M
MEV,2023-01-09 04:15,-119.7500,38.9963,1441.42,32.00,24.80,74.44,70.00,3.00,0.00,30.00,M,10.00,M,SCT,M,M,M,12000.00,M,M,M,M,M,M,M,M,M,M,28.69,KMEV 090415Z AUTO 07003KT 10SM SCT120 M00/M04 A3000 RMK AO2,M
BAM,2023-01-09 04:15,-116.8743,40.5990,1382.36,35.60,30.20,80.51,60.00,7.00,0.00,30.05,M,10.00,M,CLR,M,M,M,M,M,M,M,M,M,M,M,M,M,M,29.17,KBAM 090415Z AUTO 06007KT 10SM CLR 02/M01 A3005 RMK AO1,M
TMT,2023-01-09 04:15,-117.1971,39.4643,1749.34,20.80,19.40,94.21,130.00,3.00,0.00,30.06,M,10.00,M,CLR,M,M,M,M,M,M,M,M,M,M,M,M,M,M,15.88,KTMT 090415Z AUTO 13003KT 10SM CLR M06/M07 A3006 RMK AO2 T10621070,M
BVU,2023-01-09 04:35,-114.8611,35.9475,671.00,50.00,35.60,57.52,60.00,6.00,0.00,30.15,M,10.00,M,CLR,M,M,M,M,M,M,M,M,M,M,M,M,M,M,50.00,KBVU 090435Z AUTO 06006KT 10SM CLR 10/02 A3015 RMK AO2,M
CXP,2023-01-09 04:35,-119.7326,39.1923,1431.00,30.20,24.80,80.07,0.00,0.00,0.00,30.00,M,10.00,M,FEW,OVC,M,M,8000.00,9500.00,M,M,M,M,M,M,M,M,M,30.20,KCXP 090435Z AUTO 00000KT 10SM FEW080 OVC095 M01/M04 A3000 RMK AO2,M
RTS,2023-01-09 04:35,-119.8764,39.6682,1539.00,35.60,19.40,51.33,130.00,4.00,0.00,29.98,M,10.00,M,CLR,M,M,M,M,M,M,M,M,M,M,M,M,M,M,31.62,KRTS 090435Z AUTO 13004KT 10SM CLR 02/M07 A2998 RMK AO2,M
05U,2023-01-09 04:35,-116.0051,39.6042,1811.23,30.20,21.20,68.83,170.00,10.00,0.00,30.11,M,10.00,M,CLR,M,M,M,M,M,M,M,M,M,M,M,M,M,M,20.71,K05U 090435Z AUTO 17010KT 10SM CLR M01/M06 A3011 RMK A01,M
MEV,2023-01-09 04:35,-119.7500,38.9963,1441.42,30.20,24.80,80.07,90.00,7.00,0.00,29.99,M,10.00,M,BKN,M,M,M,11000.00,M,M,M,M,M,M,M,M,M,M,22.59,KMEV 090435Z AUTO 09007KT 10SM BKN110 M01/M04 A2999 RMK AO2,M
BAM,2023-01-09 04:35,-116.8743,40.5990,1382.36,37.40,30.20,74.98,70.00,7.00,0.00,30.04,M,10.00,M,CLR,M,M,M,M,M,M,M,M,M,M,M,M,M,M,31.36,KBAM 090435Z AUTO 07007KT 10SM CLR 03/M01 A3004 RMK AO1,M
TMT,2023-01-09 04:35,-117.1971,39.4643,1749.34,20.10,18.70,94.19,120.00,4.00,0.00,30.06,M,10.00,M,CLR,M,M,M,M,M,M,M,M,M,M,M,M,M,M,13.52,KTMT 090435Z AUTO 12004KT 10SM CLR M07/M07 A3006 RMK AO2 T10661074,M
P68,2023-01-09 04:53,-116.0056,39.6014,1993.00,32.00,21.90,65.92,160.00,14.00,0.00,30.08,1018.40,M,M,M,M,M,M,M,M,M,M,M,M,M,M,M,M,M,21.16,KP68 090453Z AUTO 16014KT 00/M06 A3008 RMK AO1 SLP184 T00001056,M
ELY,2023-01-09 04:53,-114.8453,39.2950,1909.00,28.90,19.90,68.67,200.00,11.00,0.00,30.12,1020.20,10.00,M,CLR,M,M,M,M,M,M,M,M,M,M,M,M,M,M,18.55,KELY 090453Z AUTO 20011KT 10SM CLR M02/M07 A3012 RMK AO2 SLP202 T10171067 $,M
LOL,2023-01-09 04:53,-118.5701,40.0684,1192.43,33.00,27.00,78.03,0.00,0.00,0.00,30.00,1017.00,10.00,M,CLR,M,M,M,M,M,M,M,M,M,M,M,M,M,M,33.10,KLOL 090453Z AUTO 00000KT 10SM CLR 01/M03 A3000 RMK AO2 SLP170 T00061028,M
VGT,2023-01-09 04:53,-115.1933,36.2111,667.00,50.00,35.00,56.39,0.00,0.00,0.00,30.15,1022.90,10.00,M,CLR,M,M,M,M,M,M,M,M,M,M,M,M,M,M,50.00,KVGT 090453Z AUTO 00000KT 10SM CLR 10/02 A3015 RMK AO2 SLP229 T01000017,M
BVU,2023-01-09 04:55,-114.8611,35.9475,671.00,50.00,35.60,57.52,50.00,6.00,0.00,30.15,M,10.00,M,CLR,M,M,M,M,M,M,M,M,M,M,M,M,M,M,50.00,KBVU 090455Z AUTO 05006KT 10SM CLR 10/02 A3015 RMK AO2,M
CXP,2023-01-09 04:55,-119.7326,39.1923,1431.00,32.00,24.80,74.44,0.00,0.00,0.00,30.00,M,10.00,M,FEW,BKN,M,M,8000.00,9000.00,M,M,M,M,M,M,M,M,M,32.00,KCXP 090455Z AUTO 00000KT 10SM FEW080 BKN090 M00/M04 A3000 RMK AO2,M
INS,2023-01-09 04:55,-115.6733,36.5872,955.00,38.50,31.60,76.01,0.00,0.00,0.00,30.16,1021.40,10.00,M,SCT,BKN,M,M,14000.00,17000.00,M,M,M,M,M,M,M,M,M,38.50,KINS 090455Z AUTO 00000KT 10SM SCT140 BKN170 04/M00 A3016 RMK AO2 SLP214 T00361002 $,M
RNO,2023-01-09 04:55,-119.7711,39.4839,1341.00,37.00,23.00,56.57,280.00,6.00,0.00,29.98,1014.90,10.00,M,BKN,OVC,M,M,14000.00,21000.00,M,M,M,M,M,M,M,M,M,31.55,KRNO 090455Z 28006KT 10SM BKN140 OVC210 03/M05 A2998 RMK AO2 SLP149 T00281050,M
RTS,2023-01-09 04:55,-119.8764,39.6682,1539.00,32.00,23.00,69.04,0.00,0.00,0.00,29.99,M,10.00,M,FEW,M,M,M,11000.00,M,M,M,M,M,M,M,M,M,M,32.00,KRTS 090455Z AUTO 00000KT 10SM FEW110 00/M05 A2999 RMK AO2,M
05U,2023-01-09 04:55,-116.0051,39.6042,1811.23,30.20,23.00,74.26,160.00,11.00,0.00,30.10,M,10.00,M,CLR,M,M,M,M,M,M,M,M,M,M,M,M,M,M,20.19,K05U 090455Z AUTO 16011KT 10SM CLR M01/M05 A3010 RMK A01,M
MEV,2023-01-09 04:55,-119.7500,38.9963,1441.42,32.00,24.80,74.44,80.00,4.00,0.00,29.98,M,10.00,M,FEW,SCT,BKN,M,5000.00,9000.00,12000.00,M,M,M,M,M,M,M,M,27.42,KMEV 090455Z AUTO 08004KT 10SM FEW050 SCT090 BKN120 M00/M04 A2998 RMK AO2,M
BAM,2023-01-09 04:55,-116.8743,40.5990,1382.36,37.40,30.20,74.98,70.00,6.00,0.00,30.04,M,10.00,M,CLR,M,M,M,M,M,M,M,M,M,M,M,M,M,M,32.03,KBAM 090455Z AUTO 07006KT 10SM CLR 03/M01 A3004 RMK AO1,M
TMT,2023-01-09 04:55,-117.1971,39.4643,1749.34,20.30,19.20,95.42,0.00,0.00,0.00,30.05,M,10.00,M,CLR,M,M,M,M,M,M,M,M,M,M,M,M,M,M,20.30,KTMT 090455Z AUTO 00000KT 10SM CLR M06/M07 A3005 RMK AO2 T10651071,M
LSV,2023-01-09 04:55,-115.0343,36.2362,570.00,49.00,35.80,59.95,80.00,7.00,0.00,30.13,1020.30,10.00,M,CLR,M,M,M,M,M,M,M,M,M,M,M,M,M,M,45.62,KLSV 090455Z AUTO 08007KT 10SM CLR 10/02 A3013 RMK AO2 SLP203 T00950021 $,M
EKO,2023-01-09 04:56,-115.7860,40.8242,1367.00,28.90,23.00,78.30,30.00,4.00,0.00,30.06,1019.30,10.00,M,CLR,M,M,M,M,M,M,M,M,M,M,M,M,M,M,23.80,KEKO 090456Z AUTO 03004KT 10SM CLR M02/M05 A3006 RMK AO2 SLP193 T10171050,M
WMC,2023-01-09 04:56,-117.8072,40.9019,1315.00,34.00,23.00,63.72,60.00,4.00,0.00,30.01,1016.60,10.00,M,CLR,M,M,M,M,M,M,M,M,M,M,M,M,M,M,29.76,KWMC 090456Z AUTO 06004KT 10SM CLR 01/M05 A3001 RMK AO2 SLP166 T00111050,M
NFL,2023-01-09 04:56,-118.7010,39.4166,1199.00,39.00,28.00,64.37,0.00,0.00,0.00,29.99,1012.50,10.00,M,CLR,M,M,M,M,M,M,M,M,M,M,M,M,M,M,39.00,KNFL 090456Z AUTO 00000KT 10SM CLR 04/M02 A2999 RMK AO2 SLP125 T00391022,M
HND,2023-01-09 04:56,-115.1344,35.9729,742.79,46.00,39.00,76.40,200.00,3.00,0.00,30.17,1023.80,10.00,M,CLR,M,M,M,M,M,M,M,M,M,M,M,M,M,M,44.69,KHND 090456Z AUTO 20003KT 10SM CLR 08/04 A3017 RMK AO2 SLP238 T00780039,M
TPH,2023-01-09 04:56,-117.0904,38.0505,1654.00,35.00,30.00,81.46,120.00,5.00,0.00,30.11,1020.00,10.00,M,OVC,M,M,M,11000.00,M,M,M,M,M,M,M,M,M,M,30.08,KTPH 090456Z AUTO 12005KT 10SM OVC110 02/M01 A3011 RMK AO2 SLP200 T00171011,M
LAS,2023-01-09 04:56,-115.1634,36.0719,663.00,50.00,36.00,58.44,270.00,4.00,0.00,30.15,1021.20,10.00,M,FEW,M,M,M,25000.00,M,M,M,M,M,M,M,M,M,M,50.00,KLAS 090456Z 27004KT 10SM FEW250 10/02 A3015 RMK AO2 SLP212 T01000022,M
BVU,2023-01-09 05:15,-114.8611,35.9475,671.00,51.80,35.60,53.81,50.00,7.00,0.00,30.15,M,10.00,M,CLR,M,M,M,M,M,M,M,M,M,M,M,M,M,M,51.80,KBVU 090515Z AUTO 05007KT 10SM CLR 11/02 A3015 RMK AO2,M
CXP,2023-01-09 05:15,-119.7326,39.1923,1431.00,30.20,24.80,80.07,0.00,0.00,0.00,29.99,M,10.00,M,FEW,FEW,M,M,9000.00,12000.00,M,M,M,M,M,M,M,M,M,30.20,KCXP 090515Z AUTO 00000KT 10SM FEW090 FEW120 M01/M04 A2999 RMK AO2,M
RTS,2023-01-09 05:15,-119.8764,39.6682,1539.00,30.20,23.00,74.26,330.00,4.00,0.00,29.99,M,10.00,M,FEW,M,M,M,11000.00,M,M,M,M,M,M,M,M,M,M,25.32,KRTS 090515Z AUTO 33004KT 10SM FEW110 M01/M05 A2999 RMK AO2,M
05U,2023-01-09 05:15,-116.0051,39.6042,1811.23,32.00,23.00,69.04,160.00,10.00,0.00,30.10,M,10.00,M,CLR,M,M,M,M,M,M,M,M,M,M,M,M,M,M,22.97,K05U 090515Z AUTO 16010KT 10SM CLR M00/M05 A3010 RMK A01,M
MEV,2023-01-09 05:15,-119.7500,38.9963,1441.42,30.20,23.00,74.26,0.00,0.00,0.00,29.98,M,10.00,M,FEW,SCT,BKN,M,4600.00,5500.00,8500.00,M,M,M,M,M,M,M,M,30.20,KMEV 090515Z AUTO 00000KT 10SM FEW046 SCT055 BKN085 M01/M05 A2998 RMK AO2,M
BAM,2023-01-09 05:15,-116.8743,40.5990,1382.36,35.60,30.20,80.51,80.00,7.00,0.00,30.04,M,10.00,M,CLR,M,M,M,M,M,M,M,M,M,M,M,M,M,M,29.17,KBAM 090515Z AUTO 08007KT 10SM CLR 02/M01 A3004 RMK AO1,M
TMT,2023-01-09 05:15,-117.1971,39.4643,1749.34,19.60,18.10,93.78,280.00,3.00,0.00,30.05,M,10.00,M,CLR,M,M,M,M,M,M,M,M,M,M,M,M,M,M,14.51,KTMT 090515Z AUTO 28003KT 10SM CLR M07/M08 A3005 RMK AO2 T10691077,M
BVU,2023-01-09 05:35,-114.8611,35.9475,671.00,50.00,35.60,57.52,50.00,6.00,0.00,30.15,M,10.00,M,CLR,M,M,M,M,M,M,M,M,M,M,M,M,M,M,50.00,KBVU 090535Z AUTO 05006KT 10SM CLR 10/02 A3015 RMK AO2,M
CXP,2023-01-09 05:35,-119.7326,39.1923,1431.00,30.20,24.80,80.07,0.00,0.00,0.00,29.99,M,10.00,M,CLR,M,M,M,M,M,M,M,M,M,M,M,M,M,M,30.20,KCXP 090535Z AUTO 00000KT 10SM CLR M01/M04 A2999 RMK AO2,M
RTS,2023-01-09 05:35,-119.8764,39.6682,1539.00,32.00,23.00,69.04,10.00,7.00,0.00,29.96,M,10.00,M,SCT,M,M,M,6000.00,M,M,M,M,M,M,M,M,M,M,24.78,KRTS 090535Z AUTO 01007KT 10SM SCT060 M00/M05 A2996 RMK AO2,M
05U,2023-01-09 05:35,-116.0051,39.6042,1811.23,28.40,19.40,68.61,190.00,6.00,0.00,30.10,M,10.00,M,CLR,M,M,M,M,M,M,M,M,M,M,M,M,M,M,21.19,K05U 090535Z AUTO 19006KT 10SM CLR M02/M07 A3010 RMK A01,M
MEV,2023-01-09 05:35,-119.7500,38.9963,1441.42,30.20,24.80,80.07,0.00,0.00,0.00,29.97,M,10.00,M,FEW,FEW,BKN,M,5000.00,6500.00,11000.00,M,M,M,M,M,M,M,M,30.20,KMEV 090535Z AUTO 00000KT 10SM FEW050 FEW065 BKN110 M01/M04 A2997 RMK AO2,M
BAM,2023-01-09 05:35,-116.8743,40.5990,1382.36,35.60,30.20,80.51,90.00,6.00,0.00,30.04,M,10.00,M,CLR,M,M,M,M,M,M,M,M,M,M,M,M,M,M,29.87,KBAM 090535Z AUTO 09006KT 10SM CLR 02/M01 A3004 RMK AO1,M
TMT,2023-01-09 05:35,-117.1971,39.4643,1749.34,19.90,19.00,96.23,290.00,3.00,0.00,30.05,M,10.00,M,CLR,M,M,M,M,M,M,M,M,M,M,M,M,M,M,14.86,KTMT 090535Z AUTO 29003KT 10SM CLR M07/M07 A3005 RMK AO2 T10671072,M
05U,2023-01-09 05:50,-116.0051,39.6042,1811.23,23.00,17.60,79.47,140.00,7.00,0.00,30.09,M,10.00,M,FEW,M,M,M,12000.00,M,M,M,M,M,M,M,M,M,M,13.81,K05U 090550Z AUTO 14007KT 10SM FEW120 M05/M08 A3009 RMK A01,M
P68,2023-01-09 05:53,-116.0056,39.6014,1993.00,27.00,19.00,71.45,140.00,8.00,0.00,30.06,1018.30,M,M,M,M,M,M,M,M,M,M,M,M,M,M,M,M,M,17.95,KP68 090553Z AUTO 14008KT M03/M07 A3006 RMK AO1 SLP183 T10281072 10028 21061 58009,M
ELY,2023-01-09 05:53,-114.8453,39.2950,1909.00,30.00,21.00,68.81,220.00,11.00,0.00,30.12,1019.70,10.00,M,CLR,M,M,M,M,M,M,M,M,M,M,M,M,M,M,19.94,KELY 090553Z AUTO 22011KT 10SM CLR M01/M06 A3012 RMK AO2 SLP197 T10111061 10022 21028 55002 $,M
LOL,2023-01-09 05:53,-118.5701,40.0684,1192.43,30.90,26.10,82.15,130.00,5.00,0.00,29.98,1016.20,10.00,M,CLR,M,M,M,M,M,M,M,M,M,M,M,M,M,M,25.09,KLOL 090553Z AUTO 13005KT 10SM CLR M01/M03 A2998 RMK AO2 SLP162 T10061033 10072 21011 56010,M
VGT,2023-01-09 05:53,-115.1933,36.2111,667.00,50.00,35.00,56.39,0.00,0.00,0.00,30.15,1022.90,10.00,M,CLR,M,M,M,M,M,M,M,M,M,M,M,M,M,M,50.00,KVGT 090553Z AUTO 00000KT 10SM CLR 10/02 A3015 RMK AO2 SLP229 T01000017 10133 20100 51005,M
BVU,2023-01-09 05:55,-114.8611,35.9475,671.00,50.00,35.60,57.52,40.00,5.00,0.00,30.16,M,10.00,M,CLR,M,M,M,M,M,M,M,M,M,M,M,M,M,M,50.00,KBVU 090555Z AUTO 04005KT 10SM CLR 10/02 A3016 RMK AO2,M
CXP,2023-01-09 05:55,-119.7326,39.1923,1431.00,30.20,24.80,80.07,0.00,0.00,0.00,29.98,M,10.00,M,FEW,SCT,BKN,M,5500.00,7500.00,9000.00,M,M,M,M,M,M,M,M,30.20,KCXP 090555Z AUTO 00000KT 10SM FEW055 SCT075 BKN090 M01/M04 A2998 RMK AO2,M
INS,2023-01-09 05:55,-115.6733,36.5872,955.00,39.20,31.60,73.95,0.00,0.00,0.00,30.16,1021.40,10.00,M,BKN,BKN,M,M,13000.00,19000.00,M,M,M,M,M,M,M,M,M,39.20,KINS 090555Z AUTO 00000KT 10SM BKN130 BKN190 04/M00 A3016 RMK AO2 SLP214 T00401002 10102 20031 51006 $,M
RTS,2023-01-09 05:55,-119.8764,39.6682,1539.00,32.00,24.80,74.44,100.00,5.00,0.00,29.95,M,10.00,M,FEW,M,M,M,6000.00,M,M,M,M,M,M,M,M,M,M,26.40,KRTS 090555Z AUTO 10005KT 10SM FEW060 M00/M04 A2995 RMK AO2,M
MEV,2023-01-09 05:55,-119.7500,38.9963,1441.42,30.20,24.80,80.07,0.00,0.00,0.00,29.96,M,10.00,M,FEW,FEW,BKN,M,5000.00,8000.00,11000.00,M,M,M,M,M,M,M,M,30.20,KMEV 090555Z AUTO 00000KT 10SM FEW050 FEW080 BKN110 M01/M04 A2996 RMK AO2,M
BAM,2023-01-09 05:55,-116.8743,40.5990,1382.36,35.60,30.20,80.51,70.00,8.00,0.00,30.03,M,10.00,M,CLR,M,M,M,M,M,M,M,M,M,M,M,M,M,M,28.55,KBAM 090555Z AUTO 07008KT 10SM CLR 02/M01 A3003 RMK AO1,M
TMT,2023-01-09 05:55,-117.1971,39.4643,1749.34,21.20,20.10,95.43,0.00,0.00,0.00,30.05,M,10.00,M,BKN,M,M,M,12000.00,M,M,M,M,M,M,M,M,M,M,21.20,KTMT 090555Z AUTO 00000KT 10SM BKN120 M06/M07 A3005 RMK AO2 T10601066 10036 21071,M
LSV,2023-01-09 05:55,-115.0343,36.2362,570.00,47.70,34.50,60.00,360.00,4.00,0.00,30.14,1020.50,10.00,M,BKN,M,M,M,14000.00,M,M,M,M,M,M,M,M,M,M,45.75,KLSV 090555Z AUTO 36004KT 10SM BKN140 09/01 A3014 RMK AO2 SLP205 T00870014 10139 20087 52005 $,M
RNO,2023-01-09 05:55,-119.7711,39.4839,1341.00,34.00,25.00,69.28,200.00,3.00,0.00,29.95,1014.00,10.00,M,BKN,OVC,M,M,14000.00,21000.00,M,M,M,M,M,M,M,M,M,30.97,KRNO 090555Z COR 20003KT 10SM BKN140 OVC210 01/M04 A2995 RMK AO2 SLP140 4/002 T00111039 10078 20011 58016,2
EKO,2023-01-09 05:56,-115.7860,40.8242,1367.00,28.00,23.00,81.25,80.00,4.00,0.00,30.06,1019.50,10.00,M,CLR,M,M,M,M,M,M,M,M,M,M,M,M,M,M,22.75,KEKO 090556Z AUTO 08004KT 10SM CLR M02/M05 A3006 RMK AO2 SLP195 T10221050 10056 21022 55003,M
WMC,2023-01-09 05:56,-117.8072,40.9019,1315.00,30.90,23.00,72.18,90.00,4.00,0.00,30.00,1015.90,10.00,M,CLR,M,M,M,M,M,M,M,M,M,M,M,M,M,M,26.14,KWMC 090556Z AUTO 09004KT 10SM CLR M01/M05 A3000 RMK AO2 SLP159 T10061050 10061 21006 57004,M
HND,2023-01-09 05:56,-115.1344,35.9729,742.79,46.00,39.00,76.40,170.00,5.00,0.00,30.17,1023.70,10.00,M,CLR,M,M,M,M,M,M,M,M,M,M,M,M,M,M,43.02,KHND 090556Z AUTO 17005KT 10SM CLR 08/04 A3017 RMK AO2 SLP237 T00780039 10122 20072 51003,M
TPH,2023-01-09 05:56,-117.0904,38.0505,1654.00,35.00,28.90,77.88,150.00,6.00,0.00,30.11,1019.90,10.00,M,CLR,M,M,M,M,M,M,M,M,M,M,M,M,M,M,29.26,KTPH 090556Z AUTO 15006KT 10SM CLR 02/M02 A3011 RMK AO2 SLP199 T00171017 10061 20011 58001,M
LAS,2023-01-09 05:56,-115.1634,36.0719,663.00,49.00,36.00,60.88,0.00,0.00,0.00,30.16,1021.00,10.00,M,FEW,OVC,M,M,15000.00,19000.00,M,M,M,M,M,M,M,M,M,48.90,KLAS 090556Z 00000KT 10SM FEW150 OVC190 09/02 A3016 RMK AO2 SLP210 T00940022 10128 20094 51004,M
NFL,2023-01-09 05:56,-118.7010,39.4166,1199.00,41.00,33.00,73.25,160.00,8.00,0.00,29.97,1011.90,10.00,M,FEW,M,M,M,12000.00,M,M,M,M,M,M,M,M,M,M,35.20,KNFL 090556Z AUTO 16008KT 10SM FEW120 05/01 A2997 RMK AO2 SLP119 T00500006 10094 20028 58007,M
BVU,2023-01-09 06:15,-114.8611,35.9475,671.00,51.80,35.60,53.81,50.00,5.00,0.00,30.16,M,10.00,M,CLR,M,M,M,M,M,M,M,M,M,M,M,M,M,M,51.80,KBVU 090615Z AUTO 05005KT 10SM CLR 11/02 A3016 RMK AO2,M
CXP,2023-01-09 06:15,-119.7326,39.1923,1431.00,30.20,24.80,80.07,0.00,0.00,0.00,29.97,M,10.00,M,SCT,SCT,BKN,M,6000.00,7500.00,9000.00,M,M,M,M,M,M,M,M,30.20,KCXP 090615Z AUTO 00000KT 10SM SCT060 SCT075 BKN090 M01/M04 A2997 RMK AO2,M
RTS,2023-01-09 06:15,-119.8764,39.6682,1539.00,32.00,24.80,74.44,210.00,4.00,0.00,29.95,M,10.00,M,CLR,M,M,M,M,M,M,M,M,M,M,M,M,M,M,27.42,KRTS 090615Z AUTO 21004KT 10SM CLR M00/M04 A2995 RMK AO2,M
05U,2023-01-09 06:15,-116.0051,39.6042,1811.23,30.20,21.20,68.83,190.00,5.00,0.00,30.09,M,10.00,11.00,FEW,M,M,M,12000.00,M,M,M,M,M,M,M,M,M,M,24.26,K05U 090615Z AUTO 19005G11KT 10SM FEW120 M01/M06 A3009 RMK A01,M
MEV,2023-01-09 06:15,-119.7500,38.9963,1441.42,32.00,24.80,74.44,0.00,0.00,0.00,29.95,M,10.00,M,BKN,BKN,OVC,M,6500.00,8000.00,10000.00,M,M,M,M,M,M,M,M,32.00,KMEV 090615Z AUTO 00000KT 10SM BKN065 BKN080 OVC100 M00/M04 A2995 RMK AO2,M
BAM,2023-01-09 06:15,-116.8743,40.5990,1382.36,37.40,30.20,74.98,80.00,7.00,0.00,30.03,M,10.00,M,CLR,M,M,M,M,M,M,M,M,M,M,M,M,M,M,31.36,KBAM 090615Z AUTO 08007KT 10SM CLR 03/M01 A3003 RMK AO1,M
TMT,2023-01-09 06:15,-117.1971,39.4643,1749.34,21.90,21.00,96.26,0.00,0.00,0.00,30.04,M,10.00,M,OVC,M,M,M,11000.00,M,M,M,M,M,M,M,M,M,M,21.90,KTMT 090615Z AUTO 00000KT 10SM OVC110 M06/M06 A3004 RMK AO2 T10561061,M
BVU,2023-01-09 06:35,-114.8611,35.9475,671.00,50.00,35.60,57.52,60.00,6.00,0.00,30.15,M,10.00,M,FEW,M,M,M,12000.00,M,M,M,M,M,M,M,M,M,M,50.00,KBVU 090635Z AUTO 06006KT 10SM FEW120 10/02 A3015 RMK AO2,M
CXP,2023-01-09 06:35,-119.7326,39.1923,1431.00,30.20,26.60,86.28,0.00,0.00,0.00,29.96,M,10.00,M,BKN,BKN,M,M,6000.00,7000.00,M,M,M,M,M,M,M,M,M,30.20,KCXP 090635Z AUTO 00000KT 10SM BKN060 BKN070 M01/M03 A2996 RMK AO2,M
RTS,2023-01-09 06:35,-119.8764,39.6682,1539.00,32.00,24.80,74.44,80.00,3.00,0.00,29.93,M,10.00,M,FEW,SCT,SCT,M,5500.00,6500.00,12000.00,M,M,M,M,M,M,M,M,28.69,KRTS 090635Z AUTO 08003KT 10SM FEW055 SCT065 SCT120 M00/M04 A2993 RMK AO2,M
05U,2023-01-09 06:35,-116.0051,39.6042,1811.23,21.20,17.60,85.74,0.00,0.00,0.00,30.09,M,10.00,M,SCT,M,M,M,12000.00,M,M,M,M,M,M,M,M,M,M,21.20,K05U 090635Z AUTO 00000KT 10SM SCT120 M06/M08 A3009 RMK A01,M
MEV,2023-01-09 06:35,-119.7500,38.9963,1441.42,30.20,24.80,80.07,0.00,0.00,0.00,29.95,M,10.00,M,FEW,OVC,M,M,4500.00,6000.00,M,M,M,M,M,M,M,M,M,30.20,KMEV 090635Z AUTO 00000KT 10SM FEW045 OVC060 M01/M04 A2995 RMK AO2,M
BAM,2023-01-09 06:35,-116.8743,40.5990,1382.36,37.40,30.20,74.98,70.00,10.00,0.00,30.02,M,10.00,M,CLR,M,M,M,M,M,M,M,M,M,M,M,M,M,M,29.74,KBAM 090635Z AUTO 07010KT 10SM CLR 03/M01 A3002 RMK AO1,M
TMT,2023-01-09 06:35,-117.1971,39.4643,1749.34,22.80,21.20,93.47,0.00,0.00,0.00,30.04,M,10.00,M,BKN,M,M,M,10000.00,M,M,M,M,M,M,M,M,M,M,22.80,KTMT 090635Z AUTO 00000KT 10SM BKN100 M05/M06 A3004 RMK AO2 T10511060,M
P68,2023-01-09 06:53,-116.0056,39.6014,1993.00,24.10,18.00,77.21,160.00,4.00,0.00,30.06,1018.60,M,M,M,M,M,M,M,M,M,M,M,M,M,M,M,M,M,18.19,KP68 090653Z AUTO 16004KT M04/M08 A3006 RMK AO1 SLP186 T10441078,M
ELY,2023-01-09 06:53,-114.8453,39.2950,1909.00,26.10,19.90,77.06,210.00,13.00,0.00,30.12,1020.00,10.00,M,CLR,M,M,M,M,M,M,M,M,M,M,M,M,M,M,14.01,KELY 090653Z AUTO 21013KT 10SM CLR M03/M07 A3012 RMK AO2 SLP200 T10331067 $,M
VGT,2023-01-09 06:53,-115.1933,36.2111,667.00,49.00,36.00,60.88,0.00,0.00,0.00,30.13,1022.30,10.00,M,CLR,M,M,M,M,M,M,M,M,M,M,M,M,M,M,48.90,KVGT 090653Z AUTO 00000KT 10SM CLR 09/02 A3013 RMK AO2 SLP223 T00940022,M
LOL,2023-01-09 06:53,-118.5701,40.0684,1192.43,30.90,28.00,88.84,280.00,7.00,0.00,29.96,1015.10,10.00,M,CLR,M,M,M,M,M,M,M,M,M,M,M,M,M,M,23.44,KLOL 090653Z AUTO 28007KT 10SM CLR M01/M02 A2996 RMK AO2 SLP151 T10061022,M
BVU,2023-01-09 06:55,-114.8611,35.9475,671.00,50.00,35.60,57.52,60.00,7.00,0.00,30.14,M,10.00,M,FEW,M,M,M,12000.00,M,M,M,M,M,M,M,M,M,M,50.00,KBVU 090655Z AUTO 06007KT 10SM FEW120 10/02 A3014 RMK AO2,M
CXP,2023-01-09 06:55,-119.7326,39.1923,1431.00,32.00,26.60,80.22,0.00,0.00,0.00,29.95,M,10.00,M,BKN,OVC,M,M,5500.00,7500.00,M,M,M,M,M,M,M,M,M,32.00,KCXP 090655Z AUTO 00000KT 10SM BKN055 OVC075 M00/M03 A2995 RMK AO2,M
RNO,2023-01-09 06:55,-119.7711,39.4839,1341.00,36.00,26.10,66.97,0.00,0.00,0.00,29.92,1012.70,10.00,M,SCT,BKN,OVC,M,7500.00,14000.00,18000.00,M,M,M,M,M,M,M,M,36.00,KRNO 090655Z 00000KT 10SM SCT075 BKN140 OVC180 02/M03 A2992 RMK AO2 SLP127 T00221033,M
RTS,2023-01-09 06:55,-119.8764,39.6682,1539.00,32.00,24.80,74.44,M,4.00,0.00,29.93,M,10.00,M,BKN,BKN,M,M,6000.00,7000.00,M,M,M,M,M,M,M,M,M,27.42,KRTS 090655Z AUTO VRB04KT 10SM BKN060 BKN070 M00/M04 A2993 RMK AO2,M
05U,2023-01-09 06:55,-116.0051,39.6042,1811.23,23.00,19.40,85.85,M,4.00,0.00,30.09,M,10.00,M,BKN,M,M,M,12000.00,M,M,M,M,M,M,M,M,M,M,16.91,K05U 090655Z AUTO VRB04KT 10SM BKN120 M05/M07 A3009 RMK A01,M
MEV,2023-01-09 06:55,-119.7500,38.9963,1441.42,32.00,26.60,80.22,330.00,3.00,0.00,29.93,M,10.00,M,SCT,BKN,OVC,M,4800.00,5500.00,7500.00,M,M,M,M,M,M,M,M,28.69,KMEV 090655Z AUTO 33003KT 10SM SCT048 BKN055 OVC075 M00/M03 A2993 RMK AO2,M
BAM,2023-01-09 06:55,-116.8743,40.5990,1382.36,37.40,30.20,74.98,80.00,9.00,0.00,30.00,M,10.00,M,CLR,M,M,M,M,M,M,M,M,M,M,M,M,M,M,30.23,KBAM 090655Z AUTO 08009KT 10SM CLR 03/M01 A3000 RMK AO1,M
TMT,2023-01-09 06:55,-117.1971,39.4643,1749.34,22.10,20.80,94.65,0.00,0.00,0.00,30.03,M,10.00,M,OVC,M,M,M,10000.00,M,M,M,M,M,M,M,M,M,M,22.10,KTMT 090655Z AUTO 00000KT 10SM OVC100 M05/M06 A3003 RMK AO2 T10551062,M
LSV,2023-01-09 06:55,-115.0343,36.2362,570.00,47.30,35.00,61.89,40.00,4.00,0.00,30.13,1020.10,10.00,M,FEW,SCT,M,M,15000.00,17000.00,M,M,M,M,M,M,M,M,M,45.29,KLSV 090655Z AUTO 04004KT 10SM FEW150 SCT170 09/02 A3013 RMK AO2 SLP201 T00850016 $,M
INS,2023-01-09 06:55,-115.6733,36.5872,955.00,40.00,32.70,75.23,0.00,0.00,0.00,30.14,1020.30,10.00,M,OVC,M,M,M,14000.00,M,M,M,M,M,M,M,M,M,M,39.90,KINS 090655Z AUTO 00000KT 10SM OVC140 04/00 A3014 RMK AO2 SLP203 T00440004 $,M
EKO,2023-01-09 06:56,-115.7860,40.8242,1367.00,27.00,21.90,80.83,80.00,9.00,0.00,30.05,1019.10,10.00,M,CLR,M,M,M,M,M,M,M,M,M,M,M,M,M,M,17.30,KEKO 090656Z AUTO 08009KT 10SM CLR M03/M06 A3005 RMK AO2 SLP191 T10281056,M
WMC,2023-01-09 06:56,-117.8072,40.9019,1315.00,35.00,25.00,66.31,60.00,8.00,0.00,29.96,1014.50,10.00,M,CLR,M,M,M,M,M,M,M,M,M,M,M,M,M,M,27.93,KWMC 090656Z AUTO 06008KT 10SM CLR 02/M04 A2996 RMK AO2 SLP145 T00171039,M
HND,2023-01-09 06:56,-115.1344,35.9729,742.79,46.00,39.00,76.40,160.00,3.00,0.00,30.16,1023.20,10.00,M,CLR,M,M,M,M,M,M,M,M,M,M,M,M,M,M,44.69,KHND 090656Z AUTO 16003KT 10SM CLR 08/04 A3016 RMK AO2 SLP232 T00780039 401390028,M
TPH,2023-01-09 06:56,-117.0904,38.0505,1654.00,34.00,28.90,81.37,110.00,9.00,0.00,30.08,1018.50,10.00,M,CLR,M,M,M,M,M,M,M,M,M,M,M,M,M,M,26.00,KTPH 090656Z AUTO 11009KT 10SM CLR 01/M02 A3008 RMK AO2 SLP185 T00111017,M
LAS,2023-01-09 06:56,-115.1634,36.0719,663.00,49.00,36.00,60.88,240.00,3.00,0.00,30.14,1020.60,10.00,M,BKN,OVC,M,M,15000.00,18000.00,M,M,M,M,M,M,M,M,M,48.01,KLAS 090656Z 24003KT 10SM BKN150 OVC180 09/02 A3014 RMK AO2 SLP206 T00940022,M
NFL,2023-01-09 06:56,-118.7010,39.4166,1199.00,44.00,33.00,65.02,190.00,10.00,0.00,29.94,1011.00,10.00,M,OVC,M,M,M,11000.00,M,M,M,M,M,M,M,M,M,M,38.14,KNFL 090656Z AUTO 19010KT 10SM OVC110 07/01 A2994 RMK AO2 SLP110 T00670006,M
BVU,2023-01-09 07:15,-114.8611,35.9475,671.00,50.00,35.60,57.52,60.00,6.00,0.00,30.14,M,10.00,M,CLR,M,M,M,M,M,M,M,M,M,M,M,M,M,M,50.00,KBVU 090715Z AUTO 06006KT 10SM CLR 10/02 A3014 RMK AO2,M
CXP,2023-01-09 07:15,-119.7326,39.1923,1431.00,32.00,26.60,80.22,0.00,0.00,0.00,29.94,M,10.00,M,FEW,SCT,OVC,M,6000.00,7500.00,9500.00,M,M,M,M,M,M,M,M,32.00,KCXP 090715Z AUTO 00000KT 10SM FEW060 SCT075 OVC095 M00/M03 A2994 RMK AO2,M
RTS,2023-01-09 07:15,-119.8764,39.6682,1539.00,32.00,24.80,74.44,0.00,0.00,0.00,29.92,M,10.00,M,OVC,M,M,M,5500.00,M,M,M,M,M,M,M,M,M,M,32.00,KRTS 090715Z AUTO 00000KT 10SM OVC055 M00/M04 A2992 RMK AO2,M
05U,2023-01-09 07:15,-116.0051,39.6042,1811.23,30.20,24.80,80.07,120.00,9.00,0.00,30.07,M,10.00,M,BKN,M,M,M,11000.00,M,M,M,M,M,M,M,M,M,M,21.28,K05U 090715Z AUTO 12009KT 10SM BKN110 M01/M04 A3007 RMK A01,M
MEV,2023-01-09 07:15,-119.7500,38.9963,1441.42,32.00,26.60,80.22,50.00,4.00,0.00,29.92,M,10.00,M,FEW,BKN,OVC,M,4300.00,4800.00,7500.00,M,M,M,M,M,M,M,M,27.42,KMEV 090715Z AUTO 05004KT 10SM FEW043 BKN048 OVC075 M00/M03 A2992 RMK AO2,M
BAM,2023-01-09 07:15,-116.8743,40.5990,1382.36,37.40,30.20,74.98,80.00,9.00,0.00,29.99,M,10.00,M,CLR,M,M,M,M,M,M,M,M,M,M,M,M,M,M,30.23,KBAM 090715Z AUTO 08009KT 10SM CLR 03/M01 A2999 RMK AO1,M
TMT,2023-01-09 07:15,-117.1971,39.4643,1749.34,23.00,21.60,94.27,260.00,4.00,0.00,30.03,M,10.00,M,BKN,OVC,M,M,10000.00,12000.00,M,M,M,M,M,M,M,M,M,16.91,KTMT 090715Z AUTO 26004KT 10SM BKN100 OVC120 M05/M06 A3003 RMK AO2 T10501058,M
BVU,2023-01-09 07:35,-114.8611,35.9475,671.00,48.20,39.20,70.88,0.00,0.00,0.00,30.14,M,10.00,M,CLR,M,M,M,M,M,M,M,M,M,M,M,M,M,M,48.20,KBVU 090735Z AUTO 00000KT 10SM CLR 09/04 A3014 RMK AO2,M
CXP,2023-01-09 07:35,-119.7326,39.1923,1431.00,32.00,26.60,80.22,0.00,0.00,0.00,29.92,M,9.00,M,FEW,BKN,OVC,M,6500.00,7500.00,10000.00,M,M,M,M,M,M,M,M,32.00,KCXP 090735Z AUTO 00000KT 9SM FEW065 BKN075 OVC100 M00/M03 A2992 RMK AO2,M
RTS,2023-01-09 07:35,-119.8764,39.6682,1539.00,30.20,24.80,80.07,10.00,4.00,0.00,29.91,M,10.00,M,OVC,M,M,M,5500.00,M,M,M,M,M,M,M,M,M,M,25.32,KRTS 090735Z AUTO 01004KT 10SM OVC055 M01/M04 A2991 RMK AO2,M
05U,2023-01-09 07:35,-116.0051,39.6042,1811.23,33.80,24.80,69.25,120.00,12.00,0.00,30.07,M,10.00,M,BKN,M,M,M,11000.00,M,M,M,M,M,M,M,M,M,M,24.29,K05U 090735Z AUTO 12012KT 10SM BKN110 01/M04 A3007 RMK A01,M
MEV,2023-01-09 07:35,-119.7500,38.9963,1441.42,32.00,26.60,80.22,350.00,7.00,0.00,29.90,M,10.00,M,SCT,SCT,OVC,M,4500.00,5500.00,7500.00,M,M,M,M,M,M,M,M,24.78,KMEV 090735Z AUTO 35007KT 10SM SCT045 SCT055 OVC075 M00/M03 A2990 RMK AO2,M
TMT,2023-01-09 07:35,-117.1971,39.4643,1749.34,24.60,22.80,92.74,0.00,0.00,0.00,30.02,M,10.00,M,SCT,BKN,OVC,M,6000.00,7500.00,9000.00,M,M,M,M,M,M,M,M,24.60,KTMT 090735Z AUTO 00000KT 10SM SCT060 BKN075 OVC090 M04/M05 A3002 RMK AO2 T10411051,M
BAM,2023-01-09 07:40,-116.8743,40.5990,1382.36,37.40,30.20,74.98,120.00,5.00,0.00,29.99,M,10.00,M,CLR,M,M,M,M,M,M,M,M,M,M,M,M,M,M,32.81,KBAM 090740Z AUTO 12005KT 10SM CLR 03/M01 A2999 RMK AO1,M
P68,2023-01-09 07:53,-116.0056,39.6014,1993.00,33.00,24.10,69.17,170.00,5.00,0.00,30.04,1015.80,M,M,M,M,M,M,M,M,M,M,M,M,M,M,M,M,M,27.70,KP68 090753Z AUTO 17005KT 01/M04 A3004 RMK AO1 SLP158 T00061044 400561067,M
ELY,2023-01-09 07:53,-114.8453,39.2950,1909.00,30.90,21.90,68.91,200.00,13.00,0.00,30.10,1018.70,10.00,M,FEW,M,M,M,12000.00,M,M,M,M,M,M,M,M,M,M,20.16,KELY 090753Z AUTO 20013KT 10SM FEW120 M01/M06 A3010 RMK AO2 SLP187 T10061056 400391033 $,M
LOL,2023-01-09 07:53,-118.5701,40.0684,1192.43,33.00,28.00,81.30,M,6.00,0.00,29.93,1014.00,10.00,M,OVC,M,M,M,9000.00,M,M,M,M,M,M,M,M,M,M,26.86,KLOL 090753Z AUTO VRB06KT 10SM OVC090 01/M02 A2993 RMK AO2 SLP140 T00061022 401001011,M
VGT,2023-01-09 07:53,-115.1933,36.2111,667.00,49.00,35.00,58.75,0.00,0.00,0.00,30.13,1021.90,10.00,M,CLR,M,M,M,M,M,M,M,M,M,M,M,M,M,M,48.90,KVGT 090753Z AUTO 00000KT 10SM CLR 09/02 A3013 RMK AO2 SLP219 T00940017 401440039,M
BVU,2023-01-09 07:55,-114.8611,35.9475,671.00,50.00,35.60,57.52,30.00,5.00,0.00,30.13,M,10.00,M,CLR,M,M,M,M,M,M,M,M,M,M,M,M,M,M,50.00,KBVU 090755Z AUTO 03005KT 10SM CLR 10/02 A3013 RMK AO2,M
CXP,2023-01-09 07:55,-119.7326,39.1923,1431.00,32.00,26.60,80.22,0.00,0.00,0.00,29.91,M,10.00,M,FEW,OVC,M,M,5500.00,7000.00,M,M,M,M,M,M,M,M,M,32.00,KCXP 090755Z AUTO 00000KT 10SM FEW055 OVC070 M00/M03 A2991 RMK AO2,M
INS,2023-01-09 07:55,-115.6733,36.5872,955.00,37.00,32.40,83.26,0.00,0.00,0.00,30.12,1019.60,10.00,M,OVC,M,M,M,12000.00,M,M,M,M,M,M,M,M,M,M,37.00,KINS 090755Z AUTO 00000KT 10SM OVC120 03/00 A3012 RMK AO2 SLP196 T00280002 401071013 $,M
RNO,2023-01-09 07:55,-119.7711,39.4839,1341.00,36.00,27.00,69.51,0.00,0.00,0.00,29.89,1011.30,10.00,M,OVC,M,M,M,5500.00,M,M,M,M,M,M,M,M,M,M,36.00,KRNO 090755Z 00000KT 10SM OVC055 02/M03 A2989 RMK AO2 SLP113 T00221028 400830011,M
RTS,2023-01-09 07:55,-119.8764,39.6682,1539.00,32.00,24.80,74.44,0.00,0.00,0.00,29.89,M,10.00,M,BKN,OVC,M,M,5500.00,6500.00,M,M,M,M,M,M,M,M,M,32.00,KRTS 090755Z AUTO 00000KT 10SM BKN055 OVC065 M00/M04 A2989 RMK AO2,M
05U,2023-01-09 07:55,-116.0051,39.6042,1811.23,33.80,24.80,69.25,160.00,5.00,0.00,30.07,M,10.00,M,BKN,M,M,M,11000.00,M,M,M,M,M,M,M,M,M,M,28.53,K05U 090755Z AUTO 16005KT 10SM BKN110 01/M04 A3007 RMK A01,M
MEV,2023-01-09 07:55,-119.7500,38.9963,1441.42,33.80,26.60,74.63,M,4.00,0.00,29.90,M,10.00,M,FEW,FEW,OVC,M,4300.00,6000.00,7500.00,M,M,M,M,M,M,M,M,29.52,KMEV 090755Z AUTO VRB04KT 10SM FEW043 FEW060 OVC075 01/M03 A2990 RMK AO2,M
BAM,2023-01-09 07:55,-116.8743,40.5990,1382.36,37.40,30.20,74.98,70.00,9.00,0.00,29.99,M,10.00,M,CLR,M,M,M,M,M,M,M,M,M,M,M,M,M,M,30.23,KBAM 090755Z AUTO 07009KT 10SM CLR 03/M01 A2999 RMK AO1,M
TMT,2023-01-09 07:55,-117.1971,39.4643,1749.34,24.80,23.00,92.74,50.00,3.00,0.00,30.01,M,10.00,M,OVC,M,M,M,7000.00,M,M,M,M,M,M,M,M,M,M,20.46,KTMT 090755Z AUTO 05003KT 10SM OVC070 M04/M05 A3001 RMK AO2 T10401050 400491071,M
LSV,2023-01-09 07:55,-115.0343,36.2362,570.00,47.70,37.00,65.99,30.00,3.00,0.00,30.11,1019.40,10.00,M,BKN,OVC,M,M,14000.00,16000.00,M,M,M,M,M,M,M,M,M,46.64,KLSV 090755Z AUTO 03003KT 10SM BKN140 OVC160 09/03 A3011 RMK AO2 SLP194 T00870027 401460029 $,M
EKO,2023-01-09 07:56,-115.7860,40.8242,1367.00,28.90,21.90,74.76,20.00,7.00,0.00,30.04,1018.00,10.00,M,CLR,M,M,M,M,M,M,M,M,M,M,M,M,M,M,21.00,KEKO 090756Z AUTO 02007KT 10SM CLR M02/M06 A3004 RMK AO2 SLP180 T10171056 400721061,M
HND,2023-01-09 07:56,-115.1344,35.9729,742.79,45.00,39.00,79.36,160.00,4.00,0.00,30.15,1022.70,10.00,M,CLR,M,M,M,M,M,M,M,M,M,M,M,M,M,M,42.60,KHND 090756Z AUTO 16004KT 10SM CLR 07/04 A3015 RMK AO2 SLP227 T00720039,M
TPH,2023-01-09 07:56,-117.0904,38.0505,1654.00,36.00,28.90,75.15,130.00,7.00,0.00,30.06,1017.50,10.00,M,OVC,M,M,M,3300.00,M,M,M,M,M,M,M,M,M,M,29.65,KTPH 090756Z AUTO 13007KT 10SM OVC033 02/M02 A3006 RMK AO2 SLP175 T00221017 400781011,M
LAS,2023-01-09 07:56,-115.1634,36.0719,663.00,48.00,36.00,62.97,280.00,3.00,0.00,30.13,1020.10,10.00,M,BKN,OVC,M,M,15000.00,18000.00,M,M,M,M,M,M,M,M,M,46.98,KLAS 090756Z 28003KT 10SM BKN150 OVC180 09/02 A3013 RMK AO2 SLP201 T00890022 401330044,M
WMC,2023-01-09 07:56,-117.8072,40.9019,1315.00,35.00,25.00,66.31,90.00,9.00,0.00,29.94,1013.70,10.00,M,CLR,M,M,M,M,M,M,M,M,M,M,M,M,M,M,27.37,KWMC 090756Z AUTO 09009KT 10SM CLR 02/M04 A2994 RMK AO2 SLP137 T00171039 400941011,M
NFL,2023-01-09 07:56,-118.7010,39.4166,1199.00,44.00,33.00,65.02,140.00,4.00,0.00,29.91,1010.20,10.00,M,OVC,M,M,M,9500.00,M,M,M,M,M,M,M,M,M,M,41.55,KNFL 090756Z AUTO 14004KT 10SM OVC095 07/01 A2991 RMK AO2 SLP102 T00670006 401110028,M
BVU,2023-01-09 08:15,-114.8611,35.9475,671.00,50.00,35.60,57.52,40.00,6.00,0.00,30.12,M,10.00,M,CLR,M,M,M,M,M,M,M,M,M,M,M,M,M,M,50.00,KBVU 090815Z AUTO 04006KT 10SM CLR 10/02 A3012 RMK AO2,M
CXP,2023-01-09 08:15,-119.7326,39.1923,1431.00,32.00,26.60,80.22,0.00,0.00,0.00,29.91,M,10.00,M,SCT,BKN,OVC,M,4200.00,5500.00,7000.00,M,M,M,M,M,M,M,M,32.00,KCXP 090815Z AUTO 00000KT 10SM SCT042 BKN055 OVC070 00/M03 A2991 RMK AO2,M
RTS,2023-01-09 08:15,-119.8764,39.6682,1539.00,32.00,26.60,80.22,0.00,0.00,0.00,29.88,M,10.00,M,SCT,OVC,M,M,3900.00,5500.00,M,M,M,M,M,M,M,M,M,32.00,KRTS 090815Z AUTO 00000KT 10SM SCT039 OVC055 M00/M03 A2988 RMK AO2,M
05U,2023-01-09 08:15,-116.0051,39.6042,1811.23,32.00,23.00,69.04,0.00,0.00,0.00,30.06,M,10.00,M,BKN,OVC,M,M,9000.00,11000.00,M,M,M,M,M,M,M,M,M,32.00,K05U 090815Z AUTO 00000KT 10SM BKN090 OVC110 00/M05 A3006 RMK A01,M
MEV,2023-01-09 08:15,-119.7500,38.9963,1441.42,32.00,26.60,80.22,M,4.00,0.00,29.88,M,10.00,M,FEW,BKN,OVC,M,2900.00,5500.00,7500.00,M,-RA,M,M,M,M,M,M,27.42,KMEV 090815Z AUTO VRB04KT 10SM -RA FEW029 BKN055 OVC075 00/M03 A2988 RMK AO2,M
BAM,2023-01-09 08:15,-116.8743,40.5990,1382.36,37.40,30.20,74.98,70.00,8.00,0.00,29.98,M,10.00,M,CLR,M,M,M,M,M,M,M,M,M,M,M,M,M,M,30.76,KBAM 090815Z AUTO 07008KT 10SM CLR 03/M01 A2998 RMK AO1,M
TMT,2023-01-09 08:15,-117.1971,39.4643,1749.34,25.90,23.90,92.01,70.00,4.00,0.00,29.99,M,10.00,M,OVC,M,M,M,7000.00,M,M,M,M,M,M,M,M,M,M,20.30,KTMT 090815Z AUTO 07004KT 10SM OVC070 M03/M04 A2999 RMK AO2 T10341045,M
BVU,2023-01-09 08:35,-114.8611,35.9475,671.00,50.00,35.60,57.52,50.00,5.00,0.00,30.12,M,10.00,M,CLR,M,M,M,M,M,M,M,M,M,M,M,M,M,M,50.00,KBVU 090835Z AUTO 05005KT 10SM CLR 10/02 A3012 RMK AO2,M
CXP,2023-01-09 08:35,-119.7326,39.1923,1431.00,32.00,26.60,80.22,0.00,0.00,0.00,29.89,M,10.00,M,FEW,SCT,BKN,M,3300.00,4100.00,4900.00,M,M,M,M,M,M,M,M,32.00,KCXP 090835Z AUTO 00000KT 10SM FEW033 SCT041 BKN049 00/M03 A2989 RMK AO2,M
RTS,2023-01-09 08:35,-119.8764,39.6682,1539.00,32.00,26.60,80.22,130.00,3.00,0.00,29.87,M,10.00,M,SCT,BKN,OVC,M,3000.00,3700.00,4400.00,M,M,M,M,M,M,M,M,28.69,KRTS 090835Z AUTO 13003KT 10SM SCT030 BKN037 OVC044 00/M03 A2987 RMK AO2,M
05U,2023-01-09 08:35,-116.0051,39.6042,1811.23,33.80,24.80,69.25,0.00,0.00,0.00,30.05,M,10.00,M,OVC,M,M,M,9000.00,M,M,M,M,M,M,M,M,M,M,33.80,K05U 090835Z AUTO 00000KT 10SM OVC090 01/M04 A3005 RMK A01,M
MEV,2023-01-09 08:35,-119.7500,38.9963,1441.42,39.20,32.00,75.16,170.00,18.00,0.00,29.87,M,10.00,24.00,FEW,BKN,OVC,M,2800.00,3700.00,5500.00,M,M,M,M,M,M,M,M,29.23,KMEV 090835Z AUTO 17018G24KT 10SM FEW028 BKN037 OVC055 04/00 A2987 RMK AO2,M
BAM,2023-01-09 08:35,-116.8743,40.5990,1382.36,37.40,32.00,80.65,140.00,5.00,0.00,29.98,M,10.00,M,SCT,M,M,M,9500.00,M,M,M,M,M,M,M,M,M,M,32.81,KBAM 090835Z AUTO 14005KT 10SM SCT095 03/00 A2998 RMK AO1,M
TMT,2023-01-09 08:35,-117.1971,39.4643,1749.34,26.60,24.10,90.13,0.00,0.00,0.00,29.98,M,10.00,M,SCT,OVC,M,M,8000.00,9000.00,M,M,M,M,M,M,M,M,M,26.60,KTMT 090835Z AUTO 00000KT 10SM SCT080 OVC090 M03/M04 A2998 RMK AO2 T10301044,M
TPH,2023-01-09 08:49,-117.0904,38.0505,1654.00,37.00,30.00,75.56,150.00,9.00,0.00,30.04,M,10.00,M,BKN,OVC,M,M,2600.00,4100.00,M,M,M,M,M,M,M,M,M,29.73,KTPH 090849Z AUTO 15009KT 10SM BKN026 OVC041 03/M01 A3004 RMK AO2 T00281011,M
P68,2023-01-09 08:53,-116.0056,39.6014,1993.00,35.00,26.10,69.41,150.00,6.00,0.00,30.03,1015.30,M,M,M,M,M,M,M,M,M,M,M,M,M,M,M,M,M,29.26,KP68 090853Z AUTO 15006KT 02/M03 A3003 RMK AO1 SLP153 T00171033 58009,M
ELY,2023-01-09 08:53,-114.8453,39.2950,1909.00,28.90,21.90,74.76,220.00,11.00,0.00,30.07,1017.90,10.00,M,BKN,M,M,M,10000.00,M,M,M,M,M,M,M,M,M,M,18.55,KELY 090853Z AUTO 22011KT 10SM BKN100 M02/M06 A3007 RMK AO2 SLP179 T10171056 58014 $,M
LOL,2023-01-09 08:53,-118.5701,40.0684,1192.43,33.00,28.00,81.30,50.00,5.00,0.00,29.89,1012.60,10.00,M,OVC,M,M,M,6000.00,M,M,M,M,M,M,M,M,M,M,27.70,KLOL 090853Z AUTO 05005KT 10SM OVC060 01/M02 A2989 RMK AO2 SLP126 T00061022 58026,M
VGT,2023-01-09 08:53,-115.1933,36.2111,667.00,49.00,36.00,60.88,0.00,0.00,0.00,30.12,1021.40,10.00,M,SCT,M,M,M,9000.00,M,M,M,M,M,M,M,M,M,M,48.90,KVGT 090853Z AUTO 00000KT 10SM SCT090 09/02 A3012 RMK AO2 SLP214 T00940022 56012,M
BVU,2023-01-09 08:55,-114.8611,35.9475,671.00,50.00,35.60,57.52,40.00,5.00,0.00,30.11,M,10.00,M,CLR,M,M,M,M,M,M,M,M,M,M,M,M,M,M,50.00,KBVU 090855Z AUTO 04005KT 10SM CLR 10/02 A3011 RMK AO2,M
CXP,2023-01-09 08:55,-119.7326,39.1923,1431.00,32.00,26.60,80.22,0.00,0.00,0.00,29.88,M,10.00,M,FEW,BKN,OVC,M,4200.00,4800.00,6500.00,M,M,M,M,M,M,M,M,32.00,KCXP 090855Z AUTO 00000KT 10SM FEW042 BKN048 OVC065 00/M03 A2988 RMK AO2,M
INS,2023-01-09 08:55,-115.6733,36.5872,955.00,36.70,31.50,81.25,0.00,0.00,0.00,30.11,1019.00,10.00,M,FEW,OVC,M,M,9000.00,11000.00,M,M,M,M,M,M,M,M,M,36.70,KINS 090855Z AUTO 00000KT 10SM FEW090 OVC110 03/M00 A3011 RMK AO2 SLP190 T00261003 57014 $,M
RNO,2023-01-09 08:55,-119.7711,39.4839,1341.00,37.00,28.00,69.63,0.00,0.00,T,29.85,1009.90,10.00,M,OVC,M,M,M,4600.00,M,M,M,-RA,M,M,M,M,M,M,37.00,KRNO 090855Z 00000KT 10SM -RA OVC046 03/M02 A2985 RMK AO2 RAB45 SLP099 P0000 60000 T00281022 58030,M
RTS,2023-01-09 08:55,-119.8764,39.6682,1539.00,32.00,24.80,74.44,M,4.00,0.00,29.86,M,10.00,M,BKN,OVC,M,M,2700.00,3300.00,M,M,M,M,M,M,M,M,M,27.42,KRTS 090855Z AUTO VRB04KT 10SM BKN027 OVC033 00/M04 A2986 RMK AO2,M
05U,2023-01-09 08:55,-116.0051,39.6042,1811.23,35.60,26.60,69.46,170.00,4.00,0.00,30.05,M,10.00,M,SCT,OVC,M,M,7500.00,9000.00,M,M,M,M,M,M,M,M,M,31.62,K05U 090855Z AUTO 17004KT 10SM SCT075 OVC090 02/M03 A3005 RMK A01,M
MEV,2023-01-09 08:55,-119.7500,38.9963,1441.42,39.20,32.00,75.16,170.00,15.00,0.00,29.86,M,10.00,24.00,SCT,BKN,OVC,M,2700.00,3400.00,7500.00,M,-RA,M,M,M,M,M,M,30.11,KMEV 090855Z AUTO 17015G24KT 10SM -RA SCT027 BKN034 OVC075 04/00 A2986 RMK AO2,M
BAM,2023-01-09 08:55,-116.8743,40.5990,1382.36,35.60,32.00,86.59,70.00,5.00,0.00,29.97,M,10.00,M,BKN,M,M,M,10000.00,M,M,M,M,M,M,M,M,M,M,30.67,KBAM 090855Z AUTO 07005KT 10SM BKN100 02/00 A2997 RMK AO1,M
TMT,2023-01-09 08:55,-117.1971,39.4643,1749.34,25.90,23.90,92.01,0.00,0.00,0.00,29.96,M,10.00,M,OVC,M,M,M,9000.00,M,M,M,M,M,M,M,M,M,M,25.90,KTMT 090855Z AUTO 00000KT 10SM OVC090 M03/M04 A2996 RMK AO2 T10341045,M
LSV,2023-01-09 08:55,-115.0343,36.2362,570.00,46.80,35.60,64.84,60.00,5.00,0.00,30.10,1019.00,10.00,M,OVC,M,M,M,14000.00,M,M,M,M,M,M,M,M,M,M,43.97,KLSV 090855Z AUTO 06005KT 10SM OVC140 08/02 A3010 RMK AO2 SLP190 T00820020 57012 $,M
EKO,2023-01-09 08:56,-115.7860,40.8242,1367.00,27.00,21.00,77.80,70.00,8.00,0.00,30.02,1017.70,10.00,M,CLR,M,M,M,M,M,M,M,M,M,M,M,M,M,M,17.95,KEKO 090856Z AUTO 07008KT 10SM CLR M03/M06 A3002 RMK AO2 SLP177 T10281061 58012,M
HND,2023-01-09 08:56,-115.1344,35.9729,742.79,45.00,39.00,79.36,240.00,3.00,0.00,30.14,1022.20,10.00,M,CLR,M,M,M,M,M,M,M,M,M,M,M,M,M,M,43.55,KHND 090856Z AUTO 24003KT 10SM CLR 07/04 A3014 RMK AO2 SLP222 T00720039 56011,M
TPH,2023-01-09 08:56,-117.0904,38.0505,1654.00,37.00,30.00,75.56,160.00,8.00,0.00,30.04,1016.60,10.00,M,BKN,OVC,M,M,2600.00,3900.00,M,M,M,M,M,M,M,M,M,30.27,KTPH 090856Z AUTO 16008KT 10SM BKN026 OVC039 03/M01 A3004 RMK AO2 SLP166 T00281011 56018,M
LAS,2023-01-09 08:56,-115.1634,36.0719,663.00,48.00,36.00,62.97,0.00,0.00,0.00,30.12,1019.80,10.00,M,FEW,OVC,M,M,11000.00,15000.00,M,M,M,M,M,M,M,M,M,48.00,KLAS 090856Z 00000KT 10SM FEW110 OVC150 09/02 A3012 RMK AO2 SLP198 T00890022 56011,M
NFL,2023-01-09 08:56,-118.7010,39.4166,1199.00,43.00,33.00,67.82,160.00,12.00,0.00,29.87,1009.10,10.00,M,OVC,M,M,M,11000.00,M,M,M,M,M,M,M,M,M,M,36.00,KNFL 090856Z AUTO 16012KT 10SM OVC110 06/01 A2987 RMK AO2 SLP091 T00610006 58028,M
WMC,2023-01-09 08:56,-117.8072,40.9019,1315.00,35.00,26.10,69.41,80.00,10.00,0.00,29.92,1012.80,10.00,M,BKN,OVC,M,M,7500.00,9500.00,M,M,M,M,M,M,M,M,M,26.86,KWMC 090856Z AUTO 08010KT 10SM BKN075 OVC095 02/M03 A2992 RMK AO2 SLP128 T00171033 56024,M
TMT,2023-01-09 09:10,-117.1971,39.4643,1749.34,25.50,23.90,93.55,0.00,0.00,0.00,29.95,M,10.00,M,OVC,M,M,M,9000.00,M,M,M,M,M,M,M,M,M,M,25.50,KTMT 090910Z AUTO 00000KT 10SM OVC090 M04/M04 A2995 RMK AO2 T10361045,M
TPH,2023-01-09 09:14,-117.0904,38.0505,1654.00,37.00,30.00,75.56,160.00,9.00,0.00,30.03,M,10.00,M,SCT,BKN,M,M,2600.00,3600.00,M,M,M,M,M,M,M,M,M,29.73,KTPH 090914Z AUTO 16009KT 10SM SCT026 BKN036 03/M01 A3003 RMK AO2 T00281011,M
BVU,2023-01-09 09:15,-114.8611,35.9475,671.00,50.00,37.40,61.76,30.00,7.00,0.00,30.12,M,10.00,M,CLR,M,M,M,M,M,M,M,M,M,M,M,M,M,M,50.00,KBVU 090915Z AUTO 03007KT 10SM CLR 10/03 A3012 RMK AO2,M
CXP,2023-01-09 09:15,-119.7326,39.1923,1431.00,32.00,28.40,86.39,0.00,0.00,0.00,29.87,M,10.00,M,BKN,OVC,M,M,4100.00,4800.00,M,M,M,M,M,M,M,M,M,32.00,KCXP 090915Z AUTO 00000KT 10SM BKN041 OVC048 00/M02 A2987 RMK AO2,M
RTS,2023-01-09 09:15,-119.8764,39.6682,1539.00,32.00,26.60,80.22,0.00,0.00,0.00,29.85,M,10.00,M,OVC,M,M,M,2500.00,M,M,M,M,M,M,M,M,M,M,32.00,KRTS 090915Z AUTO 00000KT 10SM OVC025 00/M03 A2985 RMK AO2,M
05U,2023-01-09 09:15,-116.0051,39.6042,1811.23,33.80,26.60,74.63,0.00,0.00,0.00,30.04,M,10.00,M,OVC,M,M,M,7500.00,M,M,M,M,M,M,M,M,M,M,33.80,K05U 090915Z AUTO 00000KT 10SM OVC075 01/M03 A3004 RMK A01,M
MEV,2023-01-09 09:15,-119.7500,38.9963,1441.42,39.20,33.80,80.79,170.00,17.00,0.00,29.85,M,10.00,M,BKN,BKN,OVC,M,2900.00,3400.00,5500.00,M,-RA,M,M,M,M,M,M,29.51,KMEV 090915Z AUTO 17017KT 10SM -RA BKN029 BKN034 OVC055 04/01 A2985 RMK AO2,M
BAM,2023-01-09 09:15,-116.8743,40.5990,1382.36,37.40,30.20,74.98,60.00,9.00,0.00,29.96,M,10.00,M,OVC,M,M,M,10000.00,M,M,M,M,M,M,M,M,M,M,30.23,KBAM 090915Z AUTO 06009KT 10SM OVC100 03/M01 A2996 RMK AO1,M
05U,2023-01-09 09:30,-116.0051,39.6042,1811.23,33.80,26.60,74.63,150.00,12.00,0.00,30.03,M,10.00,M,BKN,OVC,M,M,7500.00,8500.00,M,M,M,M,M,M,M,M,M,24.29,K05U 090930Z AUTO 15012KT 10SM BKN075 OVC085 01/M03 A3003 RMK A01,M
BVU,2023-01-09 09:35,-114.8611,35.9475,671.00,50.00,39.20,66.27,20.00,6.00,0.00,30.13,M,10.00,M,FEW,M,M,M,9000.00,M,M,M,M,M,M,M,M,M,M,50.00,KBVU 090935Z AUTO 02006KT 10SM FEW090 10/04 A3013 RMK AO2,M
CXP,2023-01-09 09:35,-119.7326,39.1923,1431.00,33.80,26.60,74.63,0.00,0.00,0.00,29.87,M,10.00,M,SCT,BKN,OVC,M,2900.00,4000.00,4600.00,M,M,M,M,M,M,M,M,33.80,KCXP 090935Z AUTO 00000KT 10SM SCT029 BKN040 OVC046 01/M03 A2987 RMK AO2,M
RTS,2023-01-09 09:35,-119.8764,39.6682,1539.00,33.80,24.80,69.25,0.00,0.00,0.00,29.85,M,10.00,M,SCT,BKN,OVC,M,2400.00,3300.00,4600.00,M,M,M,M,M,M,M,M,33.80,KRTS 090935Z AUTO 00000KT 10SM SCT024 BKN033 OVC046 01/M04 A2985 RMK AO2,M
MEV,2023-01-09 09:35,-119.7500,38.9963,1441.42,39.20,33.80,80.79,160.00,13.00,0.00,29.85,M,6.00,M,SCT,OVC,M,M,2000.00,2800.00,M,M,-RA HZ,M,M,M,M,M,M,30.79,KMEV 090935Z AUTO 16013KT 6SM -RA HZ SCT020 OVC028 04/01 A2985 RMK AO2,M
BAM,2023-01-09 09:35,-116.8743,40.5990,1382.36,37.40,30.20,74.98,60.00,6.00,0.00,29.96,M,10.00,M,OVC,M,M,M,9000.00,M,M,M,M,M,M,M,M,M,M,32.03,KBAM 090935Z AUTO 06006KT 10SM OVC090 03/M01 A2996 RMK AO1,M
TMT,2023-01-09 09:35,-117.1971,39.4643,1749.34,25.90,24.30,93.56,0.00,0.00,0.00,29.95,M,10.00,M,OVC,M,M,M,9000.00,M,M,M,M,M,M,M,M,M,M,25.90,KTMT 090935Z AUTO 00000KT 10SM OVC090 M03/M04 A2995 RMK AO2 T10341043,M
P68,2023-01-09 09:53,-116.0056,39.6014,1993.00,35.00,25.00,66.31,160.00,16.00,0.00,30.01,1014.50,M,24.00,M,M,M,M,M,M,M,M,M,M,M,M,M,M,M,24.46,KP68 090953Z AUTO 16016G24KT 02/M04 A3001 RMK AO1 SLP145 T00171039,M
ELY,2023-01-09 09:53,-114.8453,39.2950,1909.00,30.90,23.00,72.18,210.00,16.00,0.00,30.07,1017.40,10.00,M,OVC,M,M,M,10000.00,M,M,M,M,M,M,M,M,M,M,18.98,KELY 090953Z AUTO 21016KT 10SM OVC100 M01/M05 A3007 RMK AO2 SLP174 T10061050 $,M
LOL,2023-01-09 09:53,-118.5701,40.0684,1192.43,35.00,28.00,75.06,0.00,0.00,0.00,29.87,1011.50,10.00,M,OVC,M,M,M,8000.00,M,M,M,M,M,M,M,M,M,M,35.10,KLOL 090953Z AUTO 00000KT 10SM OVC080 02/M02 A2987 RMK AO2 SLP115 T00171022,M
VGT,2023-01-09 09:53,-115.1933,36.2111,667.00,50.00,35.00,56.39,170.00,3.00,0.00,30.12,1021.30,10.00,M,OVC,M,M,M,7000.00,M,M,M,M,M,M,M,M,M,M,50.00,KVGT 090953Z AUTO 17003KT 10SM OVC070 10/02 A3012 RMK AO2 SLP213 T01000017,M
BVU,2023-01-09 09:55,-114.8611,35.9475,671.00,50.00,39.20,66.27,30.00,5.00,0.00,30.13,M,10.00,M,BKN,M,M,M,8500.00,M,M,M,M,M,M,M,M,M,M,50.00,KBVU 090955Z AUTO 03005KT 10SM BKN085 10/04 A3013 RMK AO2,M
CXP,2023-01-09 09:55,-119.7326,39.1923,1431.00,35.60,28.40,74.80,0.00,0.00,0.00,29.87,M,4.00,M,BKN,BKN,M,M,2600.00,3400.00,M,M,UP HZ,M,M,M,M,M,M,35.60,KCXP 090955Z AUTO 00000KT 4SM UP HZ BKN026 BKN034 02/M02 A2987 RMK AO2,M
INS,2023-01-09 09:55,-115.6733,36.5872,955.00,38.30,32.70,80.07,0.00,0.00,0.00,30.10,1018.40,10.00,M,OVC,M,M,M,11000.00,M,M,M,M,M,M,M,M,M,M,38.30,KINS 090955Z AUTO 00000KT 10SM OVC110 04/00 A3010 RMK AO2 SLP184 T00350004 $,M
RTS,2023-01-09 09:55,-119.8764,39.6682,1539.00,33.80,26.60,74.63,0.00,0.00,0.00,29.85,M,10.00,M,BKN,BKN,OVC,M,2400.00,3200.00,3700.00,M,-RA,M,M,M,M,M,M,33.80,KRTS 090955Z AUTO 00000KT 10SM -RA BKN024 BKN032 OVC037 01/M03 A2985 RMK AO2,M
05U,2023-01-09 09:55,-116.0051,39.6042,1811.23,35.60,26.60,69.46,170.00,11.00,0.00,30.03,M,10.00,19.00,OVC,M,M,M,7500.00,M,M,M,M,M,M,M,M,M,M,27.02,K05U 090955Z AUTO 17011G19KT 10SM OVC075 02/M03 A3003 RMK A01,M
MEV,2023-01-09 09:55,-119.7500,38.9963,1441.42,37.40,33.80,86.69,150.00,13.00,0.00,29.84,M,9.00,19.00,FEW,BKN,OVC,M,2300.00,3000.00,3600.00,M,UP,M,M,M,M,M,M,28.49,KMEV 090955Z AUTO 15013G19KT 9SM UP FEW023 BKN030 OVC036 03/01 A2984 RMK AO2,M
BAM,2023-01-09 09:55,-116.8743,40.5990,1382.36,37.40,32.00,80.65,70.00,4.00,0.00,29.94,M,10.00,M,OVC,M,M,M,8000.00,M,M,M,M,M,M,M,M,M,M,33.73,KBAM 090955Z AUTO 07004KT 10SM OVC080 03/00 A2994 RMK AO1,M
TMT,2023-01-09 09:55,-117.1971,39.4643,1749.34,26.10,24.40,93.17,0.00,0.00,0.00,29.95,M,10.00,M,OVC,M,M,M,9000.00,M,M,M,M,M,M,M,M,M,M,26.10,KTMT 090955Z AUTO 00000KT 10SM OVC090 M03/M04 A2995 RMK AO2 T10331042,M
RNO,2023-01-09 09:55,-119.7711,39.4839,1341.00,41.00,33.00,73.25,160.00,16.00,0.01,29.84,1009.30,9.00,M,OVC,M,M,M,3400.00,M,M,M,RA,M,M,M,M,M,M,32.15,KRNO 090955Z 16016KT 9SM RA OVC034 05/01 A2984 RMK AO2 SLP093 P0001 T00500006,M
LSV,2023-01-09 09:55,-115.0343,36.2362,570.00,47.00,37.00,68.01,60.00,6.00,0.00,30.11,1019.30,10.00,M,OVC,M,M,M,7500.00,M,M,M,M,M,M,M,M,M,M,43.48,KLSV 090955Z AUTO 06006KT 10SM OVC075 08/03 A3011 RMK AO2 SLP193 T00830027 $,M
EKO,2023-01-09 09:56,-115.7860,40.8242,1367.00,28.90,21.90,74.76,70.00,7.00,0.00,30.01,1017.00,10.00,M,OVC,M,M,M,10000.00,M,M,M,M,M,M,M,M,M,M,21.00,KEKO 090956Z AUTO 07007KT 10SM OVC100 M02/M06 A3001 RMK AO2 SLP170 T10171056,M
WMC,2023-01-09 09:56,-117.8072,40.9019,1315.00,36.00,26.10,66.97,70.00,5.00,0.00,29.90,1012.20,10.00,M,OVC,M,M,M,7000.00,M,M,M,M,M,M,M,M,M,M,31.15,KWMC 090956Z AUTO 07005KT 10SM OVC070 02/M03 A2990 RMK AO2 SLP122 T00221033,M
NFL,2023-01-09 09:56,-118.7010,39.4166,1199.00,44.00,32.00,62.21,150.00,14.00,0.00,29.85,1008.50,10.00,20.00,OVC,M,M,M,8000.00,M,M,M,M,M,M,M,M,M,M,36.76,KNFL 090956Z AUTO 15014G20KT 10SM OVC080 07/00 A2985 RMK AO2 SLP085 T00670000,M
HND,2023-01-09 09:56,-115.1344,35.9729,742.79,46.00,39.00,76.40,130.00,3.00,0.00,30.13,1022.10,10.00,M,OVC,M,M,M,7500.00,M,M,M,M,M,M,M,M,M,M,44.69,KHND 090956Z AUTO 13003KT 10SM OVC075 08/04 A3013 RMK AO2 SLP221 T00780039,M
TPH,2023-01-09 09:56,-117.0904,38.0505,1654.00,37.00,30.90,78.37,150.00,9.00,0.00,30.02,1015.70,10.00,M,SCT,OVC,M,M,2300.00,3600.00,M,M,M,M,M,M,M,M,M,29.73,KTPH 090956Z AUTO 15009KT 10SM SCT023 OVC036 03/M01 A3002 RMK AO2 SLP157 T00281006,M
LAS,2023-01-09 09:56,-115.1634,36.0719,663.00,48.00,36.00,62.97,0.00,0.00,0.00,30.12,1019.60,10.00,M,OVC,M,M,M,7500.00,M,M,M,M,M,M,M,M,M,M,48.00,KLAS 090956Z 00000KT 10SM OVC075 09/02 A3012 RMK AO2 SLP196 T00890022,M
TPH,2023-01-09 10:07,-117.0904,38.0505,1654.00,37.00,30.90,78.37,150.00,9.00,0.00,30.02,M,10.00,M,BKN,OVC,M,M,2000.00,3600.00,M,M,M,M,M,M,M,M,M,29.73,KTPH 091007Z AUTO 15009KT 10SM BKN020 OVC036 03/M01 A3002 RMK AO2 T00281006,M
RNO,2023-01-09 10:11,-119.7711,39.4839,1341.00,40.00,33.00,76.44,160.00,17.00,0.03,29.83,M,5.00,M,OVC,M,M,M,2800.00,M,M,M,RA,M,M,M,M,M,M,30.42,KRNO 091011Z 16017KT 5SM RA OVC028 04/01 A2983 RMK AO2 P0003 T00440006,M
BVU,2023-01-09 10:15,-114.8611,35.9475,671.00,50.00,37.40,61.76,50.00,6.00,0.00,30.11,M,10.00,M,OVC,M,M,M,8500.00,M,M,M,M,M,M,M,M,M,M,50.00,KBVU 091015Z AUTO 05006KT 10SM OVC085 10/03 A3011 RMK AO2,M
CXP,2023-01-09 10:15,-119.7326,39.1923,1431.00,37.40,32.00,80.65,0.00,0.00,0.00,29.86,M,10.00,M,BKN,M,M,M,3100.00,M,M,M,UP,M,M,M,M,M,M,37.40,KCXP 091015Z AUTO 00000KT 10SM UP BKN031 03/M00 A2986 RMK AO2,M
RTS,2023-01-09 10:15,-119.8764,39.6682,1539.00,35.60,30.20,80.51,140.00,6.00,0.00,29.84,M,5.00,11.00,FEW,BKN,BKN,M,1000.00,1900.00,2300.00,M,-RA,M,M,M,M,M,M,29.87,KRTS 091015Z AUTO 14006G11KT 5SM -RA FEW010 BKN019 BKN023 02/M01 A2984 RMK AO2,M
05U,2023-01-09 10:15,-116.0051,39.6042,1811.23,35.60,26.60,69.46,160.00,12.00,0.00,30.04,M,10.00,M,OVC,M,M,M,7000.00,M,M,M,M,M,M,M,M,M,M,26.58,K05U 091015Z AUTO 16012KT 10SM OVC070 02/M03 A3004 RMK A01,M
MEV,2023-01-09 10:15,-119.7500,38.9963,1441.42,39.20,33.80,80.79,140.00,14.00,0.00,29.83,M,5.00,M,FEW,BKN,OVC,M,900.00,3100.00,3700.00,M,UP HZ,M,M,M,M,M,M,30.44,KMEV 091015Z AUTO 14014KT 5SM UP HZ FEW009 BKN031 OVC037 04/01 A2983 RMK AO2,M
BAM,2023-01-09 10:15,-116.8743,40.5990,1382.36,35.60,32.00,86.59,0.00,0.00,0.00,29.94,M,10.00,M,OVC,M,M,M,8000.00,M,M,M,M,M,M,M,M,M,M,35.60,KBAM 091015Z AUTO 00000KT 10SM OVC080 02/00 A2994 RMK AO1,M
TMT,2023-01-09 10:15,-117.1971,39.4643,1749.34,27.30,25.30,92.06,0.00,0.00,0.00,29.93,M,10.00,M,OVC,M,M,M,9000.00,M,M,M,M,M,M,M,M,M,M,27.30,KTMT 091015Z AUTO 00000KT 10SM OVC090 M03/M04 A2993 RMK AO2 T10261037,M
BVU,2023-01-09 10:35,-114.8611,35.9475,671.00,50.00,35.60,57.52,60.00,7.00,0.00,30.11,M,10.00,M,SCT,SCT,M,M,8500.00,12000.00,M,M,M,M,M,M,M,M,M,50.00,KBVU 091035Z AUTO 06007KT 10SM SCT085 SCT120 10/02 A3011 RMK AO2,M
CXP,2023-01-09 10:35,-119.7326,39.1923,1431.00,37.40,33.80,86.69,0.00,0.00,0.00,29.84,M,10.00,M,OVC,M,M,M,3000.00,M,M,M,-RA,M,M,M,M,M,M,37.40,KCXP 091035Z AUTO 00000KT 10SM -RA OVC030 03/01 A2984 RMK AO2,M
RTS,2023-01-09 10:35,-119.8764,39.6682,1539.00,35.60,32.00,86.59,140.00,9.00,0.00,29.83,M,5.00,M,BKN,BKN,M,M,1100.00,1700.00,M,M,-RA,M,M,M,M,M,M,27.99,KRTS 091035Z AUTO 14009KT 5SM -RA BKN011 BKN017 02/M00 A2983 RMK AO2,M
05U,2023-01-09 10:35,-116.0051,39.6042,1811.23,35.60,26.60,69.46,140.00,7.00,0.00,30.02,M,10.00,13.00,SCT,OVC,M,M,4400.00,7500.00,M,M,M,M,M,M,M,M,M,29.17,K05U 091035Z AUTO 14007G13KT 10SM SCT044 OVC075 02/M03 A3002 RMK A01,M
MEV,2023-01-09 10:35,-119.7500,38.9963,1441.42,37.40,33.80,86.69,140.00,14.00,0.00,29.82,M,8.00,20.00,FEW,BKN,OVC,M,2500.00,3000.00,3400.00,M,UP,M,M,M,M,M,M,28.12,KMEV 091035Z AUTO 14014G20KT 8SM UP FEW025 BKN030 OVC034 03/01 A2982 RMK AO2,M
BAM,2023-01-09 10:35,-116.8743,40.5990,1382.36,33.80,32.00,93.03,140.00,4.00,0.00,29.93,M,10.00,M,SCT,OVC,M,M,8000.00,9000.00,M,M,M,M,M,M,M,M,M,29.52,KBAM 091035Z AUTO 14004KT 10SM SCT080 OVC090 01/00 A2993 RMK AO1,M
TMT,2023-01-09 10:35,-117.1971,39.4643,1749.34,28.00,25.50,90.19,290.00,3.00,0.00,29.95,M,10.00,M,BKN,OVC,M,M,6500.00,7500.00,M,M,M,M,M,M,M,M,M,24.12,KTMT 091035Z AUTO 29003KT 10SM BKN065 OVC075 M02/M04 A2995 RMK AO2 T10221036,M
P68,2023-01-09 10:53,-116.0056,39.6014,1993.00,34.00,25.00,69.28,160.00,13.00,0.00,29.98,1013.80,M,18.00,M,M,M,M,M,M,M,M,M,M,M,M,M,M,M,24.13,KP68 091053Z AUTO 16013G18KT 01/M04 A2998 RMK AO1 SLP138 T00111039,M
ELY,2023-01-09 10:53,-114.8453,39.2950,1909.00,32.00,23.00,69.04,210.00,13.00,0.00,30.04,1016.50,10.00,M,FEW,SCT,OVC,M,5000.00,7500.00,10000.00,M,M,M,M,M,M,M,M,21.57,KELY 091053Z AUTO 21013KT 10SM FEW050 SCT075 OVC100 00/M05 A3004 RMK AO2 SLP165 T00001050 $,M
LOL,2023-01-09 10:53,-118.5701,40.0684,1192.43,33.00,28.90,84.36,150.00,3.00,0.00,29.86,1011.40,10.00,M,OVC,M,M,M,7000.00,M,M,M,M,M,M,M,M,M,M,29.95,KLOL 091053Z AUTO 15003KT 10SM OVC070 01/M02 A2986 RMK AO2 SLP114 T00061017,M
VGT,2023-01-09 10:53,-115.1933,36.2111,667.00,49.00,35.00,58.75,0.00,0.00,0.00,30.10,1020.90,10.00,M,BKN,M,M,M,8500.00,M,M,M,M,M,M,M,M,M,M,48.90,KVGT 091053Z AUTO 00000KT 10SM BKN085 09/02 A3010 RMK AO2 SLP209 T00940017,M
BVU,2023-01-09 10:55,-114.8611,35.9475,671.00,50.00,37.40,61.76,50.00,6.00,0.00,30.11,M,10.00,M,FEW,M,M,M,12000.00,M,M,M,M,M,M,M,M,M,M,50.00,KBVU 091055Z AUTO 05006KT 10SM FEW120 10/03 A3011 RMK AO2,M
CXP,2023-01-09 10:55,-119.7326,39.1923,1431.00,35.60,33.80,93.08,0.00,0.00,0.00,29.84,M,10.00,M,OVC,M,M,M,3000.00,M,M,M,-RA,M,M,M,M,M,M,35.60,KCXP 091055Z AUTO 00000KT 10SM -RA OVC030 02/01 A2984 RMK AO2,M
INS,2023-01-09 10:55,-115.6733,36.5872,955.00,37.80,32.70,81.66,80.00,3.00,0.00,30.08,1017.70,10.00,M,BKN,OVC,M,M,9500.00,11000.00,M,M,M,M,M,M,M,M,M,35.32,KINS 091055Z AUTO 08003KT 10SM BKN095 OVC110 03/00 A3008 RMK AO2 SLP177 T00320004 $,M
RNO,2023-01-09 10:55,-119.7711,39.4839,1341.00,39.00,34.00,82.08,130.00,6.00,0.08,29.81,1008.40,9.00,M,OVC,M,M,M,2800.00,M,M,M,-RA,M,M,M,M,M,M,33.96,KRNO 091055Z 13006KT 9SM -RA OVC028 04/01 A2981 RMK AO2 SLP084 P0008 T00390011,M
RTS,2023-01-09 10:55,-119.8764,39.6682,1539.00,35.60,33.80,93.08,160.00,8.00,0.01,29.82,M,7.00,M,BKN,OVC,M,M,800.00,1200.00,M,M,-RA,M,M,M,M,M,M,28.55,KRTS 091055Z AUTO 16008KT 7SM -RA BKN008 OVC012 02/01 A2982 RMK AO2 P0001,M
05U,2023-01-09 10:55,-116.0051,39.6042,1811.23,35.60,26.60,69.46,170.00,12.00,0.00,30.01,M,10.00,M,BKN,OVC,M,M,4300.00,7500.00,M,M,M,M,M,M,M,M,M,26.58,K05U 091055Z AUTO 17012KT 10SM BKN043 OVC075 02/M03 A3001 RMK A01,M
MEV,2023-01-09 10:55,-119.7500,38.9963,1441.42,39.20,33.80,80.79,130.00,14.00,0.01,29.82,M,9.00,M,FEW,BKN,OVC,M,2200.00,2800.00,3300.00,M,-RA,M,M,M,M,M,M,30.44,KMEV 091055Z AUTO 13014KT 110V170 9SM -RA FEW022 BKN028 OVC033 04/01 A2982 RMK AO2 P0001,M
BAM,2023-01-09 10:55,-116.8743,40.5990,1382.36,35.60,32.00,86.59,70.00,9.00,0.00,29.92,M,10.00,M,SCT,OVC,M,M,8000.00,9000.00,M,M,M,M,M,M,M,M,M,27.99,KBAM 091055Z AUTO 07009KT 10SM SCT080 OVC090 02/00 A2992 RMK AO1,M
TMT,2023-01-09 10:55,-117.1971,39.4643,1749.34,28.00,25.70,90.94,340.00,3.00,0.00,29.94,M,10.00,M,OVC,M,M,M,6500.00,M,M,M,M,M,M,M,M,M,M,24.12,KTMT 091055Z AUTO 34003KT 10SM OVC065 M02/M03 A2994 RMK AO2 T10221035,M
LSV,2023-01-09 10:55,-115.0343,36.2362,570.00,48.20,37.80,67.10,60.00,9.00,0.00,30.08,1018.20,10.00,M,OVC,M,M,M,13000.00,M,M,M,M,M,M,M,M,M,M,43.66,KLSV 091055Z AUTO 06009KT 10SM OVC130 09/03 A3008 RMK AO2 SLP182 T00900032 $,M
EKO,2023-01-09 10:56,-115.7860,40.8242,1367.00,28.00,21.90,77.57,80.00,8.00,0.00,29.98,1016.20,10.00,M,OVC,M,M,M,9000.00,M,M,M,M,M,M,M,M,M,M,19.19,KEKO 091056Z AUTO 08008KT 10SM OVC090 M02/M06 A2998 RMK AO2 SLP162 T10221056,M
WMC,2023-01-09 10:56,-117.8072,40.9019,1315.00,36.00,27.00,69.51,60.00,6.00,0.00,29.87,1011.00,10.00,M,OVC,M,M,M,5500.00,M,M,M,M,M,M,M,M,M,M,30.35,KWMC 091056Z AUTO 06006KT 10SM OVC055 02/M03 A2987 RMK AO2 SLP110 T00221028,M
HND,2023-01-09 10:56,-115.1344,35.9729,742.79,45.00,39.00,79.36,200.00,3.00,0.00,30.12,1021.70,10.00,M,FEW,M,M,M,7500.00,M,M,M,M,M,M,M,M,M,M,43.55,KHND 091056Z AUTO 20003KT 10SM FEW075 07/04 A3012 RMK AO2 SLP217 T00720039,M
TPH,2023-01-09 10:56,-117.0904,38.0505,1654.00,37.00,32.00,81.93,140.00,8.00,0.00,30.01,1015.30,10.00,M,BKN,OVC,M,M,1900.00,3700.00,M,M,M,M,M,M,M,M,M,30.27,KTPH 091056Z AUTO 14008KT 10SM BKN019 OVC037 03/00 A3001 RMK AO2 SLP153 T00280000,M
LAS,2023-01-09 10:56,-115.1634,36.0719,663.00,48.00,37.00,65.51,210.00,3.00,0.00,30.11,1019.30,10.00,M,BKN,M,M,M,8000.00,M,M,M,M,M,M,M,M,M,M,46.98,KLAS 091056Z 21003KT 10SM BKN080 09/03 A3011 RMK AO2 SLP193 T00890028,M
NFL,2023-01-09 10:56,-118.7010,39.4166,1199.00,45.00,33.00,62.83,160.00,14.00,T,29.84,1008.10,10.00,M,BKN,OVC,M,M,5000.00,7500.00,M,M,-RA,M,M,M,M,M,M,37.92,KNFL 091056Z AUTO 16014KT 10SM -RA BKN050 OVC075 07/01 A2984 RMK AO2 RAB54 SLP081 P0000 T00720006,M
BVU,2023-01-09 11:15,-114.8611,35.9475,671.00,50.00,35.60,57.52,60.00,5.00,0.00,30.10,M,10.00,M,CLR,M,M,M,M,M,M,M,M,M,M,M,M,M,M,50.00,KBVU 091115Z AUTO 06005KT 10SM CLR 10/02 A3010 RMK AO2,M
CXP,2023-01-09 11:15,-119.7326,39.1923,1431.00,35.60,32.00,86.59,80.00,8.00,0.00,29.83,M,9.00,M,FEW,OVC,M,M,2200.00,2800.00,M,M,-RA,M,M,M,M,M,M,28.55,KCXP 091115Z AUTO 08008KT 9SM -RA FEW022 OVC028 02/M00 A2983 RMK AO2,M
RTS,2023-01-09 11:15,-119.8764,39.6682,1539.00,35.60,33.80,93.08,120.00,5.00,0.00,29.81,M,8.00,M,OVC,M,M,M,700.00,M,M,M,-RA,M,M,M,M,M,M,30.67,KRTS 091115Z AUTO 12005KT 8SM -RA OVC007 02/01 A2981 RMK AO2,M
05U,2023-01-09 11:15,-116.0051,39.6042,1811.23,35.60,26.60,69.46,180.00,15.00,0.00,30.00,M,10.00,M,SCT,OVC,M,M,4300.00,7000.00,M,M,M,M,M,M,M,M,M,25.45,K05U 091115Z AUTO 18015KT 10SM SCT043 OVC070 02/M03 A3000 RMK A01,M
MEV,2023-01-09 11:15,-119.7500,38.9963,1441.42,39.20,33.80,80.79,140.00,11.00,0.00,29.81,M,6.00,17.00,OVC,M,M,M,2600.00,M,M,M,-RA HZ,M,M,M,M,M,M,31.57,KMEV 091115Z AUTO 14011G17KT 6SM -RA HZ OVC026 04/01 A2981 RMK AO2,M
BAM,2023-01-09 11:15,-116.8743,40.5990,1382.36,37.40,32.00,80.65,70.00,10.00,0.00,29.91,M,10.00,M,SCT,OVC,M,M,7000.00,9000.00,M,M,M,M,M,M,M,M,M,29.74,KBAM 091115Z AUTO 07010KT 10SM SCT070 OVC090 03/00 A2991 RMK AO1,M
TMT,2023-01-09 11:15,-117.1971,39.4643,1749.34,28.40,26.20,91.34,60.00,3.00,0.00,29.93,M,10.00,M,SCT,OVC,M,M,4200.00,5000.00,M,M,M,M,M,M,M,M,M,24.57,KTMT 091115Z AUTO 06003KT 10SM SCT042 OVC050 M02/M03 A2993 RMK AO2 T10201032,M
TPH,2023-01-09 11:23,-117.0904,38.0505,1654.00,36.00,32.00,85.23,150.00,5.00,0.00,30.00,M,10.00,M,SCT,BKN,BKN,M,1700.00,3600.00,9500.00,M,M,M,M,M,M,M,M,31.15,KTPH 091123Z AUTO 15005KT 10SM SCT017 BKN036 BKN095 02/00 A3000 RMK AO2 T00220000,M
05U,2023-01-09 11:30,-116.0051,39.6042,1811.23,35.60,26.60,69.46,160.00,16.00,0.00,29.99,M,10.00,M,BKN,BKN,OVC,M,4300.00,6000.00,7500.00,M,M,M,M,M,M,M,M,25.11,K05U 091130Z AUTO 16016KT 10SM BKN043 BKN060 OVC075 02/M03 A2999 RMK A01,M
BVU,2023-01-09 11:35,-114.8611,35.9475,671.00,50.00,35.60,57.52,70.00,6.00,0.00,30.10,M,10.00,M,SCT,SCT,M,M,9000.00,12000.00,M,M,M,M,M,M,M,M,M,50.00,KBVU 091135Z AUTO 07006KT 10SM SCT090 SCT120 10/02 A3010 RMK AO2,M
CXP,2023-01-09 11:35,-119.7326,39.1923,1431.00,35.60,32.00,86.59,70.00,5.00,0.00,29.82,M,9.00,M,OVC,M,M,M,2800.00,M,M,M,-RA,M,M,M,M,M,M,30.67,KCXP 091135Z AUTO 07005KT 9SM -RA OVC028 02/00 A2982 RMK AO2,M
RTS,2023-01-09 11:35,-119.8764,39.6682,1539.00,35.60,33.80,93.08,100.00,6.00,0.00,29.81,M,9.00,M,OVC,M,M,M,800.00,M,M,M,-DZ,M,M,M,M,M,M,29.87,KRTS 091135Z AUTO 10006KT 9SM -DZ OVC008 02/01 A2981 RMK AO2,M
MEV,2023-01-09 11:35,-119.7500,38.9963,1441.42,39.20,33.80,80.79,140.00,14.00,0.00,29.81,M,6.00,22.00,FEW,BKN,OVC,M,1400.00,2300.00,2900.00,M,-RA HZ,M,M,M,M,M,M,30.44,KMEV 091135Z AUTO 14014G22KT 6SM -RA HZ FEW014 BKN023 OVC029 04/01 A2981 RMK AO2,M
BAM,2023-01-09 11:35,-116.8743,40.5990,1382.36,39.20,32.00,75.16,90.00,12.00,0.00,29.91,M,10.00,M,OVC,M,M,M,8000.00,M,M,M,M,M,M,M,M,M,M,31.17,KBAM 091135Z AUTO 09012KT 10SM OVC080 04/00 A2991 RMK AO1,M
TMT,2023-01-09 11:35,-117.1971,39.4643,1749.34,28.80,26.60,91.35,0.00,0.00,0.00,29.94,M,10.00,M,SCT,BKN,OVC,M,2700.00,3100.00,5000.00,M,M,M,M,M,M,M,M,28.80,KTMT 091135Z AUTO 00000KT 10SM SCT027 BKN031 OVC050 M02/M03 A2994 RMK AO2 T10181030,M
P68,2023-01-09 11:53,-116.0056,39.6014,1993.00,34.00,27.00,75.26,160.00,19.00,0.00,29.96,1013.30,M,M,M,M,M,M,M,M,M,M,M,M,M,M,28.00,160.00,2023-01-09 11:32,22.08,KP68 091153Z AUTO 16019KT 01/M03 A2996 RMK AO1 PK WND 16028/1132 SLP133 T00111028 10017 21067 56020,M
ELY,2023-01-09 11:53,-114.8453,39.2950,1909.00,33.00,23.00,66.06,210.00,16.00,0.00,30.02,1015.60,10.00,29.00,SCT,BKN,OVC,M,4600.00,7500.00,9500.00,M,M,M,M,M,29.00,220.00,2023-01-09 11:49,21.85,KELY 091153Z AUTO 21016G29KT 10SM SCT046 BKN075 OVC095 01/M05 A3002 RMK AO2 PK WND 22029/1149 SLP156 T00061050 10006 21033 58015 $,M
VGT,2023-01-09 11:53,-115.1933,36.2111,667.00,48.00,37.00,65.51,0.00,0.00,0.00,30.08,1020.30,10.00,M,BKN,BKN,M,M,10000.00,12000.00,M,M,M,M,M,M,M,M,M,48.00,KVGT 091153Z AUTO 00000KT 10SM BKN100 BKN120 09/03 A3008 RMK AO2 SLP203 T00890028 10100 20089 58010,M
LOL,2023-01-09 11:53,-118.5701,40.0684,1192.43,33.00,30.90,91.51,330.00,4.00,T,29.84,1011.00,10.00,M,OVC,M,M,M,4000.00,M,M,M,-RA,M,M,M,M,M,M,28.70,KLOL 091153Z AUTO 33004KT 10SM -RA OVC040 01/M01 A2984 RMK AO2 RAB25 SLP110 P0000 60000 T00061006 10022 21011 56017,M
BVU,2023-01-09 11:55,-114.8611,35.9475,671.00,50.00,35.60,57.52,100.00,6.00,0.00,30.09,M,10.00,M,SCT,BKN,M,M,9500.00,12000.00,M,M,M,M,M,M,M,M,M,50.00,KBVU 091155Z AUTO 10006KT 10SM SCT095 BKN120 10/02 A3009 RMK AO2,M
CXP,2023-01-09 11:55,-119.7326,39.1923,1431.00,35.60,32.00,86.59,80.00,8.00,0.02,29.81,M,8.00,M,OVC,M,M,M,2800.00,M,M,M,-RA,M,M,M,M,M,M,28.55,KCXP 091155Z AUTO 08008KT 8SM -RA OVC028 02/00 A2981 RMK AO2 P0002,M
INS,2023-01-09 11:55,-115.6733,36.5872,955.00,37.60,33.80,86.02,280.00,5.00,0.00,30.07,1017.40,10.00,M,OVC,M,M,M,8000.00,M,M,M,M,M,M,M,M,M,M,33.05,KINS 091155Z AUTO 28005KT 10SM OVC080 03/01 A3007 RMK AO2 SLP174 T00310010 10045 20024 57014 $,M
RTS,2023-01-09 11:55,-119.8764,39.6682,1539.00,35.60,33.80,93.08,70.00,9.00,0.02,29.78,M,8.00,M,OVC,M,M,M,900.00,M,M,M,-RA,M,M,M,M,M,M,27.99,KRTS 091155Z AUTO 07009KT 8SM -RA OVC009 02/01 A2978 RMK AO2 P0002,M
05U,2023-01-09 11:55,-116.0051,39.6042,1811.23,35.60,26.60,69.46,170.00,15.00,0.00,29.99,M,10.00,20.00,FEW,BKN,OVC,M,4200.00,6000.00,7000.00,M,M,M,M,M,M,M,M,25.45,K05U 091155Z AUTO 17015G20KT 10SM FEW042 BKN060 OVC070 02/M03 A2999 RMK A01,M
MEV,2023-01-09 11:55,-119.7500,38.9963,1441.42,39.20,33.80,80.79,140.00,17.00,0.02,29.79,M,8.00,27.00,BKN,OVC,M,M,2300.00,2800.00,M,M,-RA,M,M,M,M,M,M,29.51,KMEV 091155Z AUTO 14017G27KT 8SM -RA BKN023 OVC028 04/01 A2979 RMK AO2 P0002,M
BAM,2023-01-09 11:55,-116.8743,40.5990,1382.36,37.40,32.00,80.65,100.00,11.00,0.00,29.90,M,10.00,M,OVC,M,M,M,7500.00,M,M,M,M,M,M,M,M,M,M,29.29,KBAM 091155Z AUTO 10011KT 10SM OVC075 03/00 A2990 RMK AO1,M
TMT,2023-01-09 11:55,-117.1971,39.4643,1749.34,30.20,28.60,93.68,310.00,3.00,0.01,29.94,M,4.00,M,BKN,BKN,OVC,M,1600.00,2100.00,2900.00,M,-SN,M,M,M,M,M,M,26.63,KTMT 091155Z AUTO 31003KT 4SM -SN BKN016 BKN021 OVC029 M01/M02 A2994 RMK AO2 P0001 60001 70001 T10101019 11010 21059,M
LSV,2023-01-09 11:55,-115.0343,36.2362,570.00,46.80,35.20,63.82,0.00,0.00,0.00,30.07,1017.90,10.00,M,BKN,BKN,M,M,11000.00,13000.00,M,M,M,M,M,M,M,M,M,46.80,KLSV 091155Z AUTO 00000KT 10SM BKN110 BKN130 08/02 A3007 RMK AO2 SLP179 T00820018 10090 20080 58009 $,M
RNO,2023-01-09 11:55,-119.7711,39.4839,1341.00,41.00,35.00,79.34,130.00,12.00,0.04,29.77,1006.90,10.00,18.00,OVC,M,M,M,2800.00,M,M,M,-RA,M,M,M,M,M,M,33.46,KRNO 091155Z 13012G18KT 10SM -RA OVC028 05/02 A2977 RMK AO2 SLP069 4/002 P0004 60013 70021 T00500017 10056 20011 58021,2
EKO,2023-01-09 11:56,-115.7860,40.8242,1367.00,28.00,21.90,77.57,70.00,7.00,0.00,29.97,1015.80,10.00,M,OVC,M,M,M,4000.00,M,M,M,M,M,M,M,M,M,M,19.90,KEKO 091156Z AUTO 07007KT 10SM OVC040 M02/M06 A2997 RMK AO2 SLP158 T10221056 11006 21033 56016,M
WMC,2023-01-09 11:56,-117.8072,40.9019,1315.00,37.00,27.00,66.82,50.00,11.00,0.00,29.84,1010.40,10.00,M,OVC,M,M,M,5500.00,M,M,M,M,M,M,M,M,M,M,28.79,KWMC 091156Z AUTO 05011KT 10SM OVC055 03/M03 A2984 RMK AO2 SLP104 T00281028 10028 21011 58021,M
LAS,2023-01-09 11:56,-115.1634,36.0719,663.00,48.00,37.00,65.51,0.00,0.00,0.00,30.09,1018.50,10.00,M,FEW,OVC,M,M,8000.00,11000.00,M,M,M,M,M,M,M,M,M,48.00,KLAS 091156Z 00000KT 10SM FEW080 OVC110 09/03 A3009 RMK AO2 SLP185 T00890028 10094 20083 58011,M
NFL,2023-01-09 11:56,-118.7010,39.4166,1199.00,45.00,33.00,62.83,170.00,13.00,T,29.82,1007.50,10.00,M,BKN,OVC,M,M,6000.00,8000.00,M,M,M,M,M,M,M,M,M,38.22,KNFL 091156Z AUTO 17013KT 10SM BKN060 OVC080 07/01 A2982 RMK AO2 RAE04 SLP075 P0000 60000 70001 T00720006 10072 20050 56015,M
HND,2023-01-09 11:56,-115.1344,35.9729,742.79,46.00,38.00,73.18,160.00,3.00,0.00,30.10,1021.00,10.00,M,FEW,SCT,M,M,8000.00,12000.00,M,M,M,M,M,M,M,M,M,44.69,KHND 091156Z AUTO 16003KT 10SM FEW080 SCT120 08/03 A3010 RMK AO2 SLP210 T00780033 10078 20072 58012,M
TPH,2023-01-09 11:56,-117.0904,38.0505,1654.00,37.00,33.00,85.64,180.00,8.00,0.00,29.98,1014.50,10.00,M,FEW,FEW,OVC,M,1900.00,2700.00,3600.00,M,M,M,M,M,M,M,M,30.27,KTPH 091156Z AUTO 18008KT 10SM FEW019 FEW027 OVC036 03/01 A2998 RMK AO2 SLP145 T00280006 10033 20011 58017,M
CXP,2023-01-09 12:10,-119.7326,39.1923,1431.00,37.40,33.80,86.69,M,4.00,0.00,29.81,M,10.00,M,BKN,OVC,M,M,2700.00,3200.00,M,M,-RA,M,M,M,M,M,M,33.73,KCXP 091210Z AUTO VRB04KT 10SM -RA BKN027 OVC032 03/01 A2981 RMK AO2,M
BVU,2023-01-09 12:15,-114.8611,35.9475,671.00,50.00,35.60,57.52,90.00,6.00,0.00,30.09,M,10.00,M,SCT,BKN,M,M,10000.00,12000.00,M,M,M,M,M,M,M,M,M,50.00,KBVU 091215Z AUTO 09006KT 10SM SCT100 BKN120 10/02 A3009 RMK AO2,M
RTS,2023-01-09 12:15,-119.8764,39.6682,1539.00,35.60,33.80,93.08,80.00,7.00,0.00,29.78,M,8.00,M,OVC,M,M,M,1000.00,M,M,M,-RA,M,M,M,M,M,M,29.17,KRTS 091215Z AUTO 08007KT 8SM -RA OVC010 02/01 A2978 RMK AO2,M
05U,2023-01-09 12:15,-116.0051,39.6042,1811.23,35.60,28.40,74.80,160.00,15.00,0.00,29.99,M,10.00,M,FEW,OVC,M,M,4000.00,6500.00,M,M,M,M,M,M,M,M,M,25.45,K05U 091215Z AUTO 16015KT 10SM FEW040 OVC065 02/M02 A2999 RMK A01,M
MEV,2023-01-09 12:15,-119.7500,38.9963,1441.42,39.20,33.80,80.79,130.00,20.00,0.00,29.78,M,2.50,28.00,FEW,BKN,OVC,M,400.00,2300.00,2800.00,M,-RA HZ,M,M,M,M,M,M,28.70,KMEV 091215Z AUTO 13020G28KT 2 1/2SM -RA HZ FEW004 BKN023 OVC028 04/01 A2978 RMK AO2,M
BAM,2023-01-09 12:15,-116.8743,40.5990,1382.36,35.60,32.00,86.59,0.00,0.00,0.00,29.89,M,10.00,M,OVC,M,M,M,8500.00,M,M,M,M,M,M,M,M,M,M,35.60,KBAM 091215Z AUTO 00000KT 10SM OVC085 02/00 A2989 RMK AO1,M
TMT,2023-01-09 12:15,-117.1971,39.4643,1749.34,31.50,30.90,97.60,0.00,0.00,0.02,29.93,M,1.25,M,OVC,M,M,M,1400.00,M,M,M,-SN,M,M,M,M,M,M,31.50,KTMT 091215Z AUTO 00000KT 1 1/4SM -SN OVC014 00/M01 A2993 RMK AO2 P0002 T10031006,M
BVU,2023-01-09 12:35,-114.8611,35.9475,671.00,50.00,35.60,57.52,60.00,5.00,0.00,30.09,M,10.00,M,SCT,BKN,M,M,9000.00,11000.00,M,M,M,M,M,M,M,M,M,50.00,KBVU 091235Z AUTO 06005KT 10SM SCT090 BKN110 10/02 A3009 RMK AO2,M
CXP,2023-01-09 12:35,-119.7326,39.1923,1431.00,37.40,33.80,86.69,100.00,4.00,0.00,29.79,M,9.00,M,BKN,OVC,M,M,2200.00,2800.00,M,M,-RA,M,M,M,M,M,M,33.73,KCXP 091235Z AUTO 10004KT 9SM -RA BKN022 OVC028 03/01 A2979 RMK AO2,M
RTS,2023-01-09 12:35,-119.8764,39.6682,1539.00,35.60,33.80,93.08,100.00,9.00,0.00,29.75,M,10.00,M,OVC,M,M,M,900.00,M,M,M,-DZ,M,M,M,M,M,M,27.99,KRTS 091235Z AUTO 10009KT 10SM -DZ OVC009 02/01 A2975 RMK AO2,M
05U,2023-01-09 12:35,-116.0051,39.6042,1811.23,35.60,28.40,74.80,160.00,17.00,0.00,29.98,M,10.00,M,FEW,OVC,M,M,3900.00,6000.00,M,M,M,M,M,M,M,M,M,24.79,K05U 091235Z AUTO 16017KT 10SM FEW039 OVC060 02/M02 A2998 RMK A01,M
MEV,2023-01-09 12:35,-119.7500,38.9963,1441.42,37.40,33.80,86.69,130.00,17.00,0.00,29.76,M,4.00,M,FEW,SCT,OVC,M,400.00,2400.00,3500.00,M,-RA BR,M,M,M,M,M,M,27.15,KMEV 091235Z AUTO 13017KT 4SM -RA BR FEW004 SCT024 OVC035 03/01 A2976 RMK AO2,M
BAM,2023-01-09 12:35,-116.8743,40.5990,1382.36,35.60,32.00,86.59,160.00,5.00,0.00,29.89,M,10.00,M,SCT,BKN,OVC,M,6500.00,7500.00,8500.00,M,M,M,M,M,M,M,M,30.67,KBAM 091235Z AUTO 16005KT 10SM SCT065 BKN075 OVC085 02/00 A2989 RMK AO1,M
TMT,2023-01-09 12:35,-117.1971,39.4643,1749.34,32.00,32.00,100.00,70.00,3.00,0.04,29.92,M,5.00,M,SCT,BKN,OVC,M,1400.00,1900.00,2400.00,M,-SN,M,M,M,M,M,M,28.69,KTMT 091235Z AUTO 07003KT 5SM -SN SCT014 BKN019 OVC024 00/00 A2992 RMK AO2 P0004 T00000000,M
05U,2023-01-09 12:50,-116.0051,39.6042,1811.23,33.80,28.40,80.36,160.00,18.00,0.00,29.98,M,10.00,M,FEW,BKN,OVC,M,3700.00,6000.00,7000.00,M,M,M,M,M,M,M,M,22.12,K05U 091250Z AUTO 16018KT 10SM FEW037 BKN060 OVC070 01/M02 A2998 RMK A01,M
P68,2023-01-09 12:53,-116.0056,39.6014,1993.00,34.00,27.00,75.26,160.00,18.00,0.00,29.95,1013.80,M,M,M,M,M,M,M,M,M,M,M,M,M,M,26.00,160.00,2023-01-09 12:20,22.38,KP68 091253Z AUTO 16018KT 01/M03 A2995 RMK AO1 PK WND 16026/1220 SLP138 T00111028,M
VGT,2023-01-09 12:53,-115.1933,36.2111,667.00,49.00,36.00,60.88,360.00,3.00,0.00,30.09,1020.40,10.00,M,BKN,M,M,M,8500.00,M,M,M,M,M,M,M,M,M,M,48.01,KVGT 091253Z AUTO 36003KT 10SM BKN085 09/02 A3009 RMK AO2 SLP204 T00940022,M
LOL,2023-01-09 12:53,-118.5701,40.0684,1192.43,34.00,32.00,92.29,30.00,7.00,T,29.80,1009.80,10.00,M,BKN,OVC,M,M,4300.00,5500.00,M,M,M,M,M,M,M,M,M,27.22,KLOL 091253Z AUTO 03007KT 10SM BKN043 OVC055 01/00 A2980 RMK AO2 RAE52 SLP098 P0000 T00110000,M
ELY,2023-01-09 12:53,-114.8453,39.2950,1909.00,33.00,24.10,69.17,230.00,17.00,0.00,30.01,1016.00,10.00,30.00,FEW,OVC,M,M,4200.00,7000.00,M,M,M,M,M,M,30.00,220.00,2023-01-09 12:52,21.52,KELY 091253Z AUTO 23017G30KT 10SM FEW042 OVC070 01/M04 A3001 RMK AO2 PK WND 22030/1252 SLP160 T00061044 $,M
BVU,2023-01-09 12:55,-114.8611,35.9475,671.00,50.00,35.60,57.52,70.00,6.00,0.00,30.09,M,10.00,M,FEW,BKN,OVC,M,6000.00,9500.00,12000.00,M,M,M,M,M,M,M,M,50.00,KBVU 091255Z AUTO 07006KT 10SM FEW060 BKN095 OVC120 10/02 A3009 RMK AO2,M
CXP,2023-01-09 12:55,-119.7326,39.1923,1431.00,37.40,33.80,86.69,180.00,4.00,0.01,29.77,M,9.00,M,FEW,SCT,OVC,M,2100.00,2500.00,3300.00,M,-RA,M,M,M,M,M,M,33.73,KCXP 091255Z AUTO 18004KT 9SM -RA FEW021 SCT025 OVC033 03/01 A2977 RMK AO2 P0001,M
INS,2023-01-09 12:55,-115.6733,36.5872,955.00,38.70,34.00,83.05,260.00,3.00,0.00,30.06,1017.30,10.00,M,FEW,SCT,BKN,M,7000.00,11000.00,14000.00,M,M,M,M,M,M,M,M,36.35,KINS 091255Z AUTO 26003KT 10SM FEW070 SCT110 BKN140 04/01 A3006 RMK AO2 SLP173 T00370011 $,M
RTS,2023-01-09 12:55,-119.8764,39.6682,1539.00,35.60,33.80,93.08,130.00,11.00,0.01,29.73,M,9.00,19.00,OVC,M,M,M,900.00,M,M,M,-DZ,M,M,M,M,M,M,27.02,KRTS 091255Z AUTO 13011G19KT 9SM -DZ OVC009 02/01 A2973 RMK AO2 P0001,M
MEV,2023-01-09 12:55,-119.7500,38.9963,1441.42,37.40,33.80,86.69,140.00,13.00,0.07,29.75,M,7.00,19.00,BKN,OVC,M,M,2600.00,3300.00,M,M,UP,M,M,M,M,M,M,28.49,KMEV 091255Z AUTO 14013G19KT 7SM UP BKN026 OVC033 03/01 A2975 RMK AO2 P0007,M
BAM,2023-01-09 12:55,-116.8743,40.5990,1382.36,37.40,32.00,80.65,190.00,5.00,0.00,29.89,M,10.00,M,SCT,BKN,OVC,M,5000.00,6500.00,7500.00,M,M,M,M,M,M,M,M,32.81,KBAM 091255Z AUTO 19005KT 10SM SCT050 BKN065 OVC075 03/00 A2989 RMK AO1,M
TMT,2023-01-09 12:55,-117.1971,39.4643,1749.34,32.00,32.00,100.00,120.00,3.00,0.05,29.91,M,7.00,M,BKN,OVC,M,M,1200.00,2200.00,M,M,-RA,M,M,M,M,M,M,28.69,KTMT 091255Z AUTO 12003KT 7SM -RA BKN012 OVC022 00/00 A2991 RMK AO2 P0005 T00000000,M
LSV,2023-01-09 12:55,-115.0343,36.2362,570.00,46.00,35.20,65.78,0.00,0.00,0.00,30.07,1018.10,10.00,M,BKN,BKN,M,M,9000.00,11000.00,M,M,M,M,M,M,M,M,M,46.00,KLSV 091255Z AUTO 00000KT 10SM BKN090 BKN110 08/02 A3007 RMK AO2 SLP181 T00780018 $,M
RNO,2023-01-09 12:55,-119.7711,39.4839,1341.00,40.00,35.00,82.80,150.00,10.00,0.05,29.73,1005.50,7.00,M,OVC,M,M,M,2800.00,M,M,M,-RA,M,M,M,M,M,M,32.87,KRNO 091255Z 15010KT 7SM -RA OVC028 04/02 A2973 RMK AO2 PRESFR SLP055 P0005 T00440017,M
EKO,2023-01-09 12:56,-115.7860,40.8242,1367.00,28.90,23.00,78.30,90.00,6.00,0.00,29.95,1015.60,10.00,M,FEW,OVC,M,M,2800.00,3700.00,M,M,M,M,M,M,M,M,M,21.80,KEKO 091256Z AUTO 09006KT 10SM FEW028 OVC037 M02/M05 A2995 RMK AO2 SLP156 T10171050,M
WMC,2023-01-09 12:56,-117.8072,40.9019,1315.00,37.00,30.00,75.56,90.00,5.00,T,29.82,1010.00,10.00,M,OVC,M,M,M,3400.00,M,M,M,-RA,M,M,M,M,M,M,32.33,KWMC 091256Z AUTO 09005KT 10SM -RA OVC034 03/M01 A2982 RMK AO2 RAB42 SLP100 P0000 T00281011,M
HND,2023-01-09 12:56,-115.1344,35.9729,742.79,45.00,39.00,79.36,0.00,0.00,0.00,30.10,1021.20,10.00,M,OVC,M,M,M,11000.00,M,M,M,M,M,M,M,M,M,M,45.00,KHND 091256Z AUTO 00000KT 10SM OVC110 07/04 A3010 RMK AO2 SLP212 T00720039,M
LAS,2023-01-09 12:56,-115.1634,36.0719,663.00,48.00,37.00,65.51,0.00,0.00,0.00,30.09,1018.60,10.00,M,SCT,OVC,M,M,8000.00,11000.00,M,M,M,M,M,M,M,M,M,48.00,KLAS 091256Z 00000KT 10SM SCT080 OVC110 09/03 A3009 RMK AO2 SLP186 T00890028,M
NFL,2023-01-09 12:56,-118.7010,39.4166,1199.00,44.00,33.00,65.02,160.00,15.00,0.00,29.79,1006.60,10.00,M,OVC,M,M,M,7000.00,M,M,M,M,M,M,M,M,M,M,36.47,KNFL 091256Z AUTO 16015KT 10SM OVC070 07/01 A2979 RMK AO2 SLP066 T00670006,M
TPH,2023-01-09 12:56,-117.0904,38.0505,1654.00,38.00,33.00,82.66,160.00,10.00,0.00,29.99,1014.90,10.00,M,BKN,BKN,M,M,3700.00,9500.00,M,M,M,M,M,M,M,M,M,30.37,KTPH 091256Z AUTO 16010KT 10SM BKN037 BKN095 03/01 A2999 RMK AO2 SLP149 T00330006,M
EKO,2023-01-09 13:12,-115.7860,40.8242,1367.00,28.90,24.10,82.00,60.00,8.00,T,29.95,M,2.50,M,BKN,BKN,OVC,M,2100.00,2800.00,3500.00,M,-SN,M,M,M,M,M,M,20.29,KEKO 091312Z AUTO 06008KT 2 1/2SM -SN BKN021 BKN028 OVC035 M02/M04 A2995 RMK AO2 SNB02 P0000 T10171044,M
BVU,2023-01-09 13:15,-114.8611,35.9475,671.00,50.00,35.60,57.52,60.00,6.00,0.00,30.09,M,10.00,M,BKN,BKN,M,M,10000.00,12000.00,M,M,M,M,M,M,M,M,M,50.00,KBVU 091315Z AUTO 06006KT 10SM BKN100 BKN120 10/02 A3009 RMK AO2,M
CXP,2023-01-09 13:15,-119.7326,39.1923,1431.00,35.60,32.00,86.59,70.00,5.00,0.00,29.76,M,8.00,M,SCT,BKN,OVC,M,1900.00,2700.00,3200.00,M,UP,M,M,M,M,M,M,30.67,KCXP 091315Z AUTO 07005KT 8SM UP SCT019 BKN027 OVC032 02/00 A2976 RMK AO2,M
RTS,2023-01-09 13:15,-119.8764,39.6682,1539.00,35.60,33.80,93.08,130.00,14.00,0.00,29.71,M,8.00,M,OVC,M,M,M,800.00,M,M,M,-DZ,M,M,M,M,M,M,25.80,KRTS 091315Z AUTO 13014KT 8SM -DZ OVC008 02/01 A2971 RMK AO2,M
05U,2023-01-09 13:15,-116.0051,39.6042,1811.23,35.60,28.40,74.80,160.00,17.00,0.00,29.98,M,10.00,M,SCT,BKN,OVC,M,3300.00,4000.00,4500.00,M,M,M,M,M,M,M,M,24.79,K05U 091315Z AUTO 16017KT 10SM SCT033 BKN040 OVC045 02/M02 A2998 RMK A01,M
MEV,2023-01-09 13:15,-119.7500,38.9963,1441.42,39.20,35.60,86.79,140.00,18.00,0.00,29.73,M,4.00,M,BKN,OVC,M,M,2600.00,3200.00,M,M,-RA BR,M,M,M,M,M,M,29.23,KMEV 091315Z AUTO 14018KT 4SM -RA BR BKN026 OVC032 04/02 A2973 RMK AO2,M
BAM,2023-01-09 13:15,-116.8743,40.5990,1382.36,41.00,32.00,70.08,210.00,4.00,0.00,29.89,M,10.00,M,SCT,OVC,M,M,3800.00,5000.00,M,M,M,M,M,M,M,M,M,37.93,KBAM 091315Z AUTO 21004KT 10SM SCT038 OVC050 05/00 A2989 RMK AO1,M
TMT,2023-01-09 13:15,-117.1971,39.4643,1749.34,32.00,32.00,100.00,0.00,0.00,0.00,29.89,M,10.00,M,BKN,BKN,OVC,M,1200.00,3000.00,5000.00,M,M,M,M,M,M,M,M,32.00,KTMT 091315Z AUTO 00000KT 10SM BKN012 BKN030 OVC050 00/00 A2989 RMK AO2 T00000000,M
RNO,2023-01-09 13:15,-119.7711,39.4839,1341.00,40.00,35.00,82.80,160.00,9.00,0.02,29.71,M,10.00,M,OVC,M,M,M,3100.00,M,M,M,-RA,M,M,M,M,M,M,33.34,KRNO 091315Z 16009KT 10SM -RA OVC031 04/02 A2971 RMK AO2 P0002 T00440017,M
BVU,2023-01-09 13:35,-114.8611,35.9475,671.00,48.20,35.60,61.52,40.00,5.00,0.00,30.10,M,10.00,M,SCT,M,M,M,11000.00,M,M,M,M,M,M,M,M,M,M,45.63,KBVU 091335Z AUTO 04005KT 10SM SCT110 09/02 A3010 RMK AO2,M
CXP,2023-01-09 13:35,-119.7326,39.1923,1431.00,37.40,33.80,86.69,100.00,5.00,0.00,29.74,M,5.00,11.00,SCT,OVC,M,M,1900.00,2800.00,M,M,-RA BR,M,M,M,M,M,M,32.81,KCXP 091335Z AUTO 10005G11KT 5SM -RA BR SCT019 OVC028 03/01 A2974 RMK AO2,M
RTS,2023-01-09 13:35,-119.8764,39.6682,1539.00,35.60,33.80,93.08,120.00,12.00,0.00,29.69,M,9.00,21.00,OVC,M,M,M,800.00,M,M,M,-DZ,M,M,M,M,M,M,26.58,KRTS 091335Z AUTO 12012G21KT 9SM -DZ OVC008 02/01 A2969 RMK AO2,M
05U,2023-01-09 13:35,-116.0051,39.6042,1811.23,35.60,28.40,74.80,160.00,15.00,0.00,29.98,M,10.00,M,SCT,BKN,OVC,M,2700.00,3200.00,4000.00,M,M,M,M,M,M,M,M,25.45,K05U 091335Z AUTO 16015KT 10SM SCT027 BKN032 OVC040 02/M02 A2998 RMK A01,M
MEV,2023-01-09 13:35,-119.7500,38.9963,1441.42,39.20,35.60,86.79,140.00,18.00,0.00,29.70,M,6.00,M,SCT,OVC,M,M,2700.00,3500.00,M,M,-RA BR,M,M,M,M,M,M,29.23,KMEV 091335Z AUTO 14018KT 6SM -RA BR SCT027 OVC035 04/02 A2970 RMK AO2,M
BAM,2023-01-09 13:35,-116.8743,40.5990,1382.36,41.00,32.00,70.08,150.00,3.00,0.00,29.89,M,10.00,M,BKN,OVC,M,M,3100.00,3800.00,M,M,M,M,M,M,M,M,M,38.98,KBAM 091335Z AUTO 15003KT 10SM BKN031 OVC038 05/00 A2989 RMK AO1,M
TMT,2023-01-09 13:35,-117.1971,39.4643,1749.34,32.00,32.00,100.00,60.00,4.00,0.00,29.89,M,10.00,M,SCT,BKN,OVC,M,1600.00,4800.00,6500.00,M,M,M,M,M,M,M,M,27.42,KTMT 091335Z AUTO 06004KT 10SM SCT016 BKN048 OVC065 00/00 A2989 RMK AO2 T00000000,M
EKO,2023-01-09 13:42,-115.7860,40.8242,1367.00,30.00,26.10,85.21,20.00,6.00,0.01,29.95,M,1.25,M,OVC,M,M,M,1500.00,M,M,M,-SN BR,M,M,M,M,M,M,23.12,KEKO 091342Z AUTO 02006KT 1 1/4SM -SN BR OVC015 M01/M03 A2995 RMK AO2 SNB02 P0001 T10111033,M
CXP,2023-01-09 13:50,-119.7326,39.1923,1431.00,35.60,33.80,93.08,100.00,5.00,0.00,29.73,M,10.00,M,FEW,OVC,M,M,1900.00,3000.00,M,M,UP,M,M,M,M,M,M,30.67,KCXP 091350Z AUTO 10005KT 10SM UP FEW019 OVC030 02/01 A2973 RMK AO2,M
EKO,2023-01-09 13:53,-115.7860,40.8242,1367.00,30.20,28.40,92.92,70.00,5.00,0.02,29.94,M,1.25,M,OVC,M,M,M,1300.00,M,M,M,-SN BR,M,M,M,M,M,M,24.26,KEKO 091353Z AUTO 07005KT 1 1/4SM -SN BR OVC013 M01/M02 A2994 RMK AO2 SNB02 P0002,M
P68,2023-01-09 13:53,-116.0056,39.6014,1993.00,34.00,28.00,78.43,150.00,18.00,0.00,29.94,1014.20,M,M,M,M,M,M,M,M,M,M,M,M,M,M,M,M,M,22.38,KP68 091353Z AUTO 15018KT 01/M02 A2994 RMK AO1 SLP142 T00111022,M
ELY,2023-01-09 13:53,-114.8453,39.2950,1909.00,32.00,28.00,84.98,230.00,13.00,T,30.02,1016.80,5.00,20.00,BKN,BKN,OVC,M,1900.00,3400.00,4400.00,M,-SN BR,M,M,M,26.00,220.00,2023-01-09 12:54,21.57,KELY 091353Z AUTO 23013G20KT 5SM -SN BR BKN019 BKN034 OVC044 00/M02 A3002 RMK AO2 PK WND 22026/1254 SNB48 SLP168 P0000 T00001022 $,M
VGT,2023-01-09 13:53,-115.1933,36.2111,667.00,48.00,36.00,62.97,0.00,0.00,0.00,30.09,1020.80,10.00,M,BKN,M,M,M,10000.00,M,M,M,M,M,M,M,M,M,M,48.00,KVGT 091353Z AUTO 00000KT 10SM BKN100 09/02 A3009 RMK AO2 SLP208 T00890022,M
LOL,2023-01-09 13:53,-118.5701,40.0684,1192.43,36.00,32.00,85.23,150.00,3.00,T,29.76,1008.80,10.00,M,OVC,M,M,M,6000.00,M,M,M,M,M,M,M,M,M,M,33.26,KLOL 091353Z AUTO 15003KT 10SM OVC060 02/00 A2976 RMK AO2 RAB50E52 SLP088 P0000 T00220000,M
BVU,2023-01-09 13:55,-114.8611,35.9475,671.00,48.20,37.40,66.05,50.00,6.00,0.00,30.10,M,10.00,M,FEW,M,M,M,12000.00,M,M,M,M,M,M,M,M,M,M,45.04,KBVU 091355Z AUTO 05006KT 10SM FEW120 09/03 A3010 RMK AO2,M
RTS,2023-01-09 13:55,-119.8764,39.6682,1539.00,35.60,33.80,93.08,120.00,11.00,0.01,29.69,M,10.00,M,BKN,OVC,M,M,900.00,1300.00,M,M,-DZ,M,M,M,M,M,M,27.02,KRTS 091355Z AUTO 12011KT 090V150 10SM -DZ BKN009 OVC013 02/01 A2969 RMK AO2 P0001,M
05U,2023-01-09 13:55,-116.0051,39.6042,1811.23,35.60,30.20,80.51,160.00,15.00,0.00,29.97,M,10.00,M,FEW,SCT,BKN,M,2700.00,3200.00,3800.00,M,M,M,M,M,M,M,M,25.45,K05U 091355Z AUTO 16015KT 10SM FEW027 SCT032 BKN038 02/M01 A2997 RMK A01,M
MEV,2023-01-09 13:55,-119.7500,38.9963,1441.42,39.20,35.60,86.79,140.00,12.00,0.03,29.70,M,5.00,18.00,FEW,SCT,OVC,M,1700.00,2800.00,3400.00,M,-RA BR,M,M,M,M,M,M,31.17,KMEV 091355Z AUTO 14012G18KT 5SM -RA BR FEW017 SCT028 OVC034 04/02 A2970 RMK AO2 P0003,M
BAM,2023-01-09 13:55,-116.8743,40.5990,1382.36,41.00,33.80,75.33,130.00,5.00,0.00,29.88,M,10.00,M,OVC,M,M,M,2700.00,M,M,M,M,M,M,M,M,M,M,37.08,KBAM 091355Z AUTO 13005KT 10SM OVC027 05/01 A2988 RMK AO1,M
TMT,2023-01-09 13:55,-117.1971,39.4643,1749.34,32.40,32.00,98.40,90.00,6.00,0.00,29.88,M,10.00,M,BKN,OVC,M,M,4200.00,4800.00,M,M,M,M,M,M,M,M,M,26.01,KTMT 091355Z AUTO 09006KT 10SM BKN042 OVC048 00/00 A2988 RMK AO2 T00020000,M
LSV,2023-01-09 13:55,-115.0343,36.2362,570.00,46.20,36.30,68.19,70.00,7.00,0.00,30.08,1018.50,10.00,M,BKN,BKN,M,M,11000.00,13000.00,M,M,M,M,M,M,M,M,M,42.09,KLSV 091355Z AUTO 07007KT 10SM BKN110 BKN130 08/02 A3008 RMK AO2 SLP185 T00790024 $,M
INS,2023-01-09 13:55,-115.6733,36.5872,955.00,38.50,33.00,80.74,300.00,4.00,0.00,30.06,1017.50,10.00,M,BKN,OVC,M,M,8500.00,10000.00,M,M,M,M,M,M,M,M,M,35.01,KINS 091355Z AUTO 30004KT 10SM BKN085 OVC100 04/01 A3006 RMK AO2 SLP175 T00360006 $,M
RNO,2023-01-09 13:55,-119.7711,39.4839,1341.00,40.00,35.00,82.80,140.00,7.00,0.03,29.68,1004.30,10.00,M,FEW,OVC,M,M,2600.00,3400.00,M,M,-RA,M,M,M,M,M,M,34.41,KRNO 091355Z 14007KT 10SM -RA FEW026 OVC034 04/02 A2968 RMK AO2 SLP043 P0003 T00440017,M
EKO,2023-01-09 13:56,-115.7860,40.8242,1367.00,30.00,27.00,88.44,110.00,4.00,0.02,29.94,1015.30,1.50,M,FEW,OVC,M,M,700.00,1300.00,M,M,-SN BR,M,M,M,M,M,M,25.08,KEKO 091356Z AUTO 11004KT 1 1/2SM -SN BR FEW007 OVC013 M01/M03 A2994 RMK AO2 SNB02 SLP153 P0002 T10111028,M
HND,2023-01-09 13:56,-115.1344,35.9729,742.79,46.00,38.00,73.18,220.00,3.00,0.00,30.11,1021.60,10.00,M,BKN,M,M,M,10000.00,M,M,M,M,M,M,M,M,M,M,44.69,KHND 091356Z 22003KT 10SM BKN100 08/03 A3011 RMK AO2 SLP216 T00780033,M
LAS,2023-01-09 13:56,-115.1634,36.0719,663.00,48.00,38.00,67.87,0.00,0.00,0.00,30.10,1019.00,10.00,M,SCT,BKN,OVC,M,10000.00,13000.00,20000.00,M,M,M,M,M,M,M,M,48.00,KLAS 091356Z 00000KT 10SM SCT100 BKN130 OVC200 09/03 A3010 RMK AO2 SLP190 T00890033,M
TPH,2023-01-09 13:56,-117.0904,38.0505,1654.00,38.00,32.00,79.08,170.00,15.00,0.00,29.98,1014.90,10.00,M,BKN,OVC,M,M,3500.00,8000.00,M,M,M,M,M,M,M,M,M,28.43,KTPH 091356Z AUTO 17015KT 10SM BKN035 OVC080 03/00 A2998 RMK AO2 SLP149 T00330000,M
WMC,2023-01-09 13:56,-117.8072,40.9019,1315.00,38.00,33.00,82.66,150.00,19.00,0.01,29.78,1008.60,10.00,28.00,FEW,OVC,M,M,2500.00,7000.00,M,M,-RA,M,M,M,29.00,150.00,2023-01-09 13:29,27.24,KWMC 091356Z AUTO 15019G28KT 10SM -RA FEW025 OVC070 03/01 A2978 RMK AO2 PK WND 15029/1329 SLP086 P0001 T00330006,M
NFL,2023-01-09 13:56,-118.7010,39.4166,1199.00,44.00,33.00,65.02,140.00,18.00,0.00,29.73,1004.90,10.00,24.00,BKN,OVC,M,M,8000.00,10000.00,M,M,M,M,M,M,M,M,M,35.68,KNFL 091356Z AUTO 14018G24KT 10SM BKN080 OVC100 07/01 A2973 RMK AO2 SLP049 T00670006,M
ELY,2023-01-09 14:05,-114.8453,39.2950,1909.00,32.00,28.90,88.17,220.00,14.00,T,30.02,M,2.00,M,BKN,OVC,M,M,1700.00,4100.00,M,M,-SN BR,M,M,M,M,M,M,21.16,KELY 091405Z AUTO 22014KT 2SM -SN BR BKN017 OVC041 00/M02 A3002 RMK AO2 P0000 T00001017 $,M
EKO,2023-01-09 14:08,-115.7860,40.8242,1367.00,28.90,27.00,92.49,90.00,6.00,0.01,29.93,M,1.50,M,OVC,M,M,M,900.00,M,M,M,-SN BR,M,M,M,M,M,M,21.80,KEKO 091408Z AUTO 09006KT 1 1/2SM -SN BR OVC009 M02/M03 A2993 RMK AO2 CIG 007V013 P0001 T10171028,M
BVU,2023-01-09 14:15,-114.8611,35.9475,671.00,48.20,37.40,66.05,50.00,7.00,0.00,30.10,M,10.00,M,BKN,M,M,M,11000.00,M,M,M,M,M,M,M,M,M,M,44.53,KBVU 091415Z AUTO 05007KT 10SM BKN110 09/03 A3010 RMK AO2,M
CXP,2023-01-09 14:15,-119.7326,39.1923,1431.00,35.60,33.80,93.08,0.00,0.00,0.00,29.72,M,5.00,M,FEW,BKN,OVC,M,1500.00,3000.00,3400.00,M,UP BR,M,M,M,M,M,M,35.60,KCXP 091415Z AUTO 00000KT 5SM UP BR FEW015 BKN030 OVC034 02/01 A2972 RMK AO2,M
RTS,2023-01-09 14:15,-119.8764,39.6682,1539.00,37.40,33.80,86.69,140.00,14.00,0.00,29.67,M,8.00,21.00,BKN,BKN,OVC,M,1200.00,2200.00,2800.00,M,-DZ,M,M,M,M,M,M,28.12,KRTS 091415Z AUTO 14014G21KT 8SM -DZ BKN012 BKN022 OVC028 03/01 A2967 RMK AO2,M
05U,2023-01-09 14:15,-116.0051,39.6042,1811.23,35.60,28.40,74.80,170.00,18.00,0.00,29.96,M,10.00,M,FEW,BKN,OVC,M,3500.00,5500.00,6500.00,M,M,M,M,M,M,M,M,24.49,K05U 091415Z AUTO 17018KT 10SM FEW035 BKN055 OVC065 02/M02 A2996 RMK A01,M
MEV,2023-01-09 14:15,-119.7500,38.9963,1441.42,39.20,35.60,86.79,140.00,11.00,0.00,29.69,M,4.00,M,OVC,M,M,M,3300.00,M,M,M,-RA BR,M,M,M,M,M,M,31.57,KMEV 091415Z AUTO 14011KT 4SM -RA BR OVC033 04/02 A2969 RMK AO2,M
BAM,2023-01-09 14:15,-116.8743,40.5990,1382.36,41.00,33.80,75.33,80.00,3.00,0.00,29.87,M,10.00,M,SCT,BKN,OVC,M,2300.00,3200.00,7500.00,M,M,M,M,M,M,M,M,38.98,KBAM 091415Z AUTO 08003KT 10SM SCT023 BKN032 OVC075 05/01 A2987 RMK AO1,M
TMT,2023-01-09 14:15,-117.1971,39.4643,1749.34,32.70,32.20,98.01,80.00,4.00,0.00,29.87,M,10.00,M,SCT,BKN,OVC,M,4200.00,4800.00,6000.00,M,M,M,M,M,M,M,M,28.24,KTMT 091415Z AUTO 08004KT 10SM SCT042 BKN048 OVC060 00/00 A2987 RMK AO2 T00040001,M
ELY,2023-01-09 14:19,-114.8453,39.2950,1909.00,30.90,30.00,96.41,220.00,12.00,T,30.01,M,1.75,M,OVC,M,M,M,1500.00,M,M,M,-SN BR,M,M,M,M,M,M,20.60,KELY 091419Z AUTO 22012KT 1 3/4SM -SN BR OVC015 M01/M01 A3001 RMK AO2 P0000 T10061011 $,M
EKO,2023-01-09 14:21,-115.7860,40.8242,1367.00,28.90,27.00,92.49,30.00,4.00,0.01,29.93,M,2.50,M,OVC,M,M,M,900.00,M,M,M,-SN BR,M,M,M,M,M,M,23.80,KEKO 091421Z AUTO 03004KT 2 1/2SM -SN BR OVC009 M02/M03 A2993 RMK AO2 CIG 005V013 P0001 T10171028,M
TPH,2023-01-09 14:22,-117.0904,38.0505,1654.00,38.00,32.00,79.08,160.00,11.00,0.00,29.97,M,10.00,M,BKN,OVC,M,M,1800.00,3300.00,M,M,M,M,M,M,M,M,M,29.92,KTPH 091422Z AUTO 16011KT 10SM BKN018 OVC033 03/00 A2997 RMK AO2 T00330000,M
ELY,2023-01-09 14:30,-114.8453,39.2950,1909.00,32.00,30.00,92.22,220.00,12.00,T,30.01,M,1.75,M,OVC,M,M,M,1400.00,M,M,M,-SN BR,M,M,M,M,M,M,22.00,KELY 091430Z AUTO 22012KT 1 3/4SM -SN BR OVC014 00/M01 A3001 RMK AO2 P0000 T00001011 $,M
EKO,2023-01-09 14:31,-115.7860,40.8242,1367.00,30.00,28.00,92.15,40.00,5.00,0.02,29.93,M,2.50,M,OVC,M,M,M,1000.00,M,M,M,-SN BR,M,M,M,M,M,M,24.02,KEKO 091431Z AUTO 04005KT 2 1/2SM -SN BR OVC010 M01/M02 A2993 RMK AO2 CIG 007V013 P0002 T10111022,M
BVU,2023-01-09 14:35,-114.8611,35.9475,671.00,48.20,35.60,61.52,40.00,5.00,0.00,30.11,M,10.00,M,OVC,M,M,M,11000.00,M,M,M,M,M,M,M,M,M,M,45.63,KBVU 091435Z AUTO 04005KT 10SM OVC110 09/02 A3011 RMK AO2,M
CXP,2023-01-09 14:35,-119.7326,39.1923,1431.00,35.60,33.80,93.08,90.00,5.00,0.00,29.71,M,4.00,M,FEW,FEW,OVC,M,1500.00,2200.00,3000.00,M,-RA BR,M,M,M,M,M,M,30.67,KCXP 091435Z AUTO 09005KT 4SM -RA BR FEW015 FEW022 OVC030 02/01 A2971 RMK AO2,M
RTS,2023-01-09 14:35,-119.8764,39.6682,1539.00,35.60,33.80,93.08,140.00,15.00,0.00,29.66,M,8.00,M,BKN,BKN,OVC,M,1000.00,2200.00,2900.00,M,-RA,M,M,M,M,M,M,25.45,KRTS 091435Z AUTO 14015KT 8SM -RA BKN010 BKN022 OVC029 02/01 A2966 RMK AO2,M
05U,2023-01-09 14:35,-116.0051,39.6042,1811.23,35.60,28.40,74.80,160.00,18.00,0.00,29.95,M,10.00,25.00,FEW,BKN,OVC,M,4900.00,5500.00,6500.00,M,M,M,M,M,M,M,M,24.49,K05U 091435Z AUTO 16018G25KT 10SM FEW049 BKN055 OVC065 02/M02 A2995 RMK A01,M
MEV,2023-01-09 14:35,-119.7500,38.9963,1441.42,39.20,35.60,86.79,130.00,12.00,0.00,29.68,M,4.00,20.00,OVC,M,M,M,3200.00,M,M,M,-RA BR,M,M,M,M,M,M,31.17,KMEV 091435Z AUTO 13012G20KT 4SM -RA BR OVC032 04/02 A2968 RMK AO2,M
BAM,2023-01-09 14:35,-116.8743,40.5990,1382.36,37.40,33.80,86.69,300.00,3.00,0.00,29.84,M,10.00,M,SCT,SCT,OVC,M,3400.00,4000.00,7500.00,M,M,M,M,M,M,M,M,34.86,KBAM 091435Z AUTO 30003KT 10SM SCT034 SCT040 OVC075 03/01 A2984 RMK AO1,M
TMT,2023-01-09 14:35,-117.1971,39.4643,1749.34,34.50,32.20,91.20,0.00,0.00,0.00,29.83,M,10.00,M,SCT,BKN,OVC,M,4000.00,4800.00,6000.00,M,M,M,M,M,M,M,M,34.50,KTMT 091435Z AUTO 00000KT 10SM SCT040 BKN048 OVC060 01/00 A2983 RMK AO2 T00140001,M
NFL,2023-01-09 14:35,-118.7010,39.4166,1199.00,45.00,33.00,62.83,140.00,15.00,0.00,29.71,M,10.00,M,BKN,OVC,M,M,7000.00,9000.00,M,M,M,M,M,M,28.00,140.00,2023-01-09 14:02,37.63,KNFL 091435Z 14015KT 10SM BKN070 OVC090 07/01 A2971 RMK AO2 PK WND 14028/1402 T00720006,M
ELY,2023-01-09 14:38,-114.8453,39.2950,1909.00,32.00,30.00,92.22,210.00,12.00,T,30.00,M,2.00,M,BKN,OVC,M,M,1400.00,2400.00,M,M,-SN BR,M,M,M,M,M,M,22.00,KELY 091438Z AUTO 21012KT 2SM -SN BR BKN014 OVC024 00/M01 A3000 RMK AO2 P0000 T00001011 $,M
EKO,2023-01-09 14:45,-115.7860,40.8242,1367.00,32.00,30.00,92.22,50.00,5.00,0.02,29.91,M,4.00,M,FEW,OVC,M,M,700.00,1200.00,M,M,-SN BR,M,M,M,M,M,M,26.40,KEKO 091445Z AUTO 05005KT 4SM -SN BR FEW007 OVC012 00/M01 A2991 RMK AO2 P0002 T00001011,M
ELY,2023-01-09 14:51,-114.8453,39.2950,1909.00,32.00,30.20,92.97,210.00,15.00,0.01,29.99,M,2.50,M,BKN,OVC,M,M,1500.00,2600.00,M,M,-SN BR,M,M,M,M,M,M,20.78,KELY 091451Z AUTO 21015KT 2 1/2SM -SN BR BKN015 OVC026 00/M01 A2999 RMK AO2 P0001 $,M
P68,2023-01-09 14:53,-116.0056,39.6014,1993.00,34.00,28.00,78.43,160.00,22.00,0.00,29.91,1013.30,M,32.00,M,M,M,M,M,M,M,M,M,M,M,M,32.00,160.00,2023-01-09 14:52,21.26,KP68 091453Z AUTO 16022G32KT 01/M02 A2991 RMK AO1 PK WND 16032/1452 SLP133 T00111022 58015,M
ELY,2023-01-09 14:53,-114.8453,39.2950,1909.00,32.00,30.90,95.65,210.00,15.00,0.01,29.99,1015.80,2.50,M,BKN,OVC,M,M,1500.00,2600.00,M,M,-SN BR,M,M,M,M,M,M,20.78,KELY 091453Z AUTO 21015KT 2 1/2SM -SN BR BKN015 OVC026 00/M01 A2999 RMK AO2 SLP158 P0001 60001 T00001006 58007 $,M
VGT,2023-01-09 14:53,-115.1933,36.2111,667.00,49.00,36.00,60.88,0.00,0.00,0.00,30.09,1020.80,10.00,M,BKN,M,M,M,10000.00,M,M,M,M,M,M,M,M,M,M,48.90,KVGT 091453Z 00000KT 10SM BKN100 09/02 A3009 RMK AO2 SLP208 T00940022 51002,M
LOL,2023-01-09 14:53,-118.5701,40.0684,1192.43,40.00,34.00,79.25,190.00,8.00,0.00,29.71,1006.90,10.00,M,OVC,M,M,M,5500.00,M,M,M,M,M,M,M,M,M,M,33.84,KLOL 091453Z AUTO 19008KT 10SM OVC055 04/01 A2971 RMK AO2 SLP069 60000 T00440011 58038,M
BVU,2023-01-09 14:55,-114.8611,35.9475,671.00,48.20,35.60,61.52,50.00,7.00,0.00,30.10,M,10.00,M,OVC,M,M,M,11000.00,M,M,M,M,M,M,M,M,M,M,44.53,KBVU 091455Z AUTO 05007KT 10SM OVC110 09/02 A3010 RMK AO2,M
CXP,2023-01-09 14:55,-119.7326,39.1923,1431.00,35.60,33.80,93.08,0.00,0.00,0.08,29.70,M,3.00,M,OVC,M,M,M,3100.00,M,M,M,-RA BR,M,M,M,M,M,M,35.60,KCXP 091455Z AUTO 00000KT 3SM -RA BR OVC031 02/01 A2970 RMK AO2 P0008,M
INS,2023-01-09 14:55,-115.6733,36.5872,955.00,40.50,33.40,75.59,0.00,0.00,0.00,30.05,1017.40,10.00,M,OVC,M,M,M,7500.00,M,M,M,M,M,M,M,M,M,M,40.50,KINS 091455Z AUTO 00000KT 10SM OVC075 05/01 A3005 RMK AO2 SLP174 T00470008 56005 $,M
LSV,2023-01-09 14:55,-115.0343,36.2362,570.00,46.60,37.40,70.15,30.00,6.00,0.00,30.08,1018.50,10.00,M,CLR,M,M,M,M,M,M,M,M,M,M,M,M,M,M,43.11,KLSV 091455Z AUTO 03006KT 10SM CLR 08/03 A3008 RMK AO2 SLP185 T00810030 52003 $,M
RTS,2023-01-09 14:55,-119.8764,39.6682,1539.00,35.60,33.80,93.08,150.00,12.00,0.00,29.66,M,8.00,18.00,BKN,BKN,OVC,M,900.00,1300.00,2600.00,M,-DZ,M,M,M,M,M,M,26.58,KRTS 091455Z AUTO 15012G18KT 8SM -DZ BKN009 BKN013 OVC026 02/01 A2966 RMK AO2,M
05U,2023-01-09 14:55,-116.0051,39.6042,1811.23,35.60,30.20,80.51,160.00,20.00,0.00,29.93,M,10.00,27.00,FEW,BKN,OVC,M,5000.00,6500.00,7500.00,M,M,M,M,M,M,M,M,23.92,K05U 091455Z AUTO 16020G27KT 10SM FEW050 BKN065 OVC075 02/M01 A2993 RMK A01,M
MEV,2023-01-09 14:55,-119.7500,38.9963,1441.42,37.40,35.60,93.14,190.00,7.00,0.12,29.67,M,4.00,12.00,OVC,M,M,M,3200.00,M,M,M,RA BR,M,M,M,M,M,M,31.36,KMEV 091455Z AUTO 19007G12KT 140V220 4SM RA BR OVC032 03/02 A2967 RMK AO2 P0012,M
BAM,2023-01-09 14:55,-116.8743,40.5990,1382.36,37.40,33.80,86.69,0.00,0.00,0.00,29.81,M,10.00,M,SCT,BKN,M,M,5000.00,8000.00,M,M,M,M,M,M,M,M,M,37.40,KBAM 091455Z AUTO 00000KT 10SM SCT050 BKN080 03/01 A2981 RMK AO1,M
TMT,2023-01-09 14:55,-117.1971,39.4643,1749.34,36.30,32.00,84.23,290.00,3.00,0.00,29.81,M,10.00,M,SCT,BKN,OVC,M,4600.00,7000.00,8000.00,M,M,M,M,M,M,M,M,33.60,KTMT 091455Z AUTO 29003KT 10SM SCT046 BKN070 OVC080 02/00 A2981 RMK AO2 60005 T00240000,M
RNO,2023-01-09 14:55,-119.7711,39.4839,1341.00,40.00,35.00,82.80,150.00,11.00,0.04,29.65,1003.40,10.00,M,OVC,M,M,M,3500.00,M,M,M,-RA,M,M,M,M,M,M,32.45,KRNO 091455Z 15011KT 10SM -RA OVC035 04/02 A2965 RMK AO2 SLP034 P0004 60012 T00440017 56036,M
WMC,2023-01-09 14:56,-117.8072,40.9019,1315.00,37.00,32.00,81.93,200.00,11.00,T,29.74,1007.30,10.00,M,OVC,M,M,M,6500.00,M,M,M,M,M,M,M,27.00,160.00,2023-01-09 14:09,28.79,KWMC 091456Z AUTO 20011KT 10SM OVC065 03/00 A2974 RMK AO2 PK WND 16027/1409 RAE1357 SLP073 P0000 60001 T00280000 58031,M
NFL,2023-01-09 14:56,-118.7010,39.4166,1199.00,46.00,33.00,60.49,140.00,19.00,0.00,29.71,1004.10,10.00,25.00,BKN,OVC,M,M,6000.00,7500.00,M,M,M,M,M,M,28.00,140.00,2023-01-09 14:02,37.95,KNFL 091456Z 14019G25KT 10SM BKN060 OVC075 08/01 A2971 RMK AO2 PK WND 14028/1402 SLP041 T00780006 56034,M
HND,2023-01-09 14:56,-115.1344,35.9729,742.79,46.00,38.00,73.18,0.00,0.00,0.00,30.11,1021.60,10.00,M,BKN,M,M,M,11000.00,M,M,M,M,M,M,M,M,M,M,46.00,KHND 091456Z 00000KT 10SM BKN110 08/03 A3011 RMK AO2 SLP216 T00780033 50003,M
EKO,2023-01-09 14:56,-115.7860,40.8242,1367.00,35.00,30.90,84.49,200.00,7.00,0.03,29.89,1013.60,8.00,M,BKN,BKN,OVC,M,1200.00,3400.00,5000.00,M,-SN,M,M,M,M,M,M,28.56,KEKO 091456Z AUTO 20007KT 8SM -SN BKN012 BKN034 OVC050 02/M01 A2989 RMK AO2 PRESFR SLP136 P0003 60005 T00171006 58017,M
TPH,2023-01-09 14:56,-117.0904,38.0505,1654.00,38.00,32.00,79.08,150.00,10.00,0.00,29.96,1014.30,10.00,M,OVC,M,M,M,1800.00,M,M,M,M,M,M,M,M,M,M,30.37,KTPH 091456Z AUTO 15010KT 10SM OVC018 03/00 A2996 RMK AO2 SLP143 T00330000 58008,M
LAS,2023-01-09 14:56,-115.1634,36.0719,663.00,47.00,38.00,70.73,40.00,3.00,0.00,30.10,1019.10,10.00,M,FEW,BKN,OVC,M,8000.00,12000.00,20000.00,M,M,M,M,M,M,M,M,45.72,KLAS 091456Z 04003KT 10SM FEW080 BKN120 OVC200 08/03 A3010 RMK AO2 SLP191 T00830033 53004,M
EKO,2023-01-09 15:08,-115.7860,40.8242,1367.00,36.00,32.00,85.23,210.00,11.00,T,29.89,M,10.00,21.00,SCT,SCT,OVC,M,1200.00,3400.00,5000.00,M,UP,M,M,M,M,M,M,27.52,KEKO 091508Z AUTO 21011G21KT 170V240 10SM UP SCT012 SCT034 OVC050 02/00 A2989 RMK AO2 UPB00SNE00 P0000 T00220000,M
05U,2023-01-09 15:10,-116.0051,39.6042,1811.23,35.60,30.20,80.51,170.00,18.00,0.00,29.91,M,10.00,25.00,SCT,BKN,M,M,6500.00,7500.00,M,M,M,M,M,M,M,M,M,24.49,K05U 091510Z AUTO 17018G25KT 10SM SCT065 BKN075 02/M01 A2991 RMK A01,M
BVU,2023-01-09 15:15,-114.8611,35.9475,671.00,50.00,35.60,57.52,70.00,5.00,0.00,30.10,M,10.00,M,OVC,M,M,M,10000.00,M,M,M,M,M,M,M,M,M,M,50.00,KBVU 091515Z AUTO 07005KT 10SM OVC100 10/02 A3010 RMK AO2,M
CXP,2023-01-09 15:15,-119.7326,39.1923,1431.00,35.60,35.60,100.00,0.00,0.00,0.00,29.69,M,3.00,M,OVC,M,M,M,3200.00,M,M,M,RA BR,M,M,M,M,M,M,35.60,KCXP 091515Z AUTO 00000KT 3SM RA BR OVC032 02/02 A2969 RMK AO2,M
ELY,2023-01-09 15:15,-114.8453,39.2950,1909.00,32.00,30.00,92.22,210.00,15.00,T,29.98,M,1.25,M,SCT,OVC,M,M,1600.00,2500.00,M,M,-SN BR,M,M,M,M,M,M,20.78,KELY 091515Z AUTO 21015KT 1 1/4SM -SN BR SCT016 OVC025 00/M01 A2998 RMK AO2 P0000 T00001011 $,M
RTS,2023-01-09 15:15,-119.8764,39.6682,1539.00,35.60,33.80,93.08,140.00,11.00,0.00,29.66,M,7.00,M,M,M,M,M,M,M,M,M,-RA,M,M,M,M,M,M,27.02,KRTS 091515Z AUTO 14011KT 7SM -RA 02/01 A2966 RMK AO2,M
MEV,2023-01-09 15:15,-119.7500,38.9963,1441.42,37.40,35.60,93.14,280.00,3.00,0.00,29.67,M,3.00,M,OVC,M,M,M,3300.00,M,M,M,-RA BR,M,M,M,M,M,M,34.86,KMEV 091515Z AUTO 28003KT 3SM -RA BR OVC033 03/02 A2967 RMK AO2 LTG DSNT W,M
BAM,2023-01-09 15:15,-116.8743,40.5990,1382.36,37.40,33.80,86.69,270.00,5.00,0.00,29.80,M,10.00,M,SCT,SCT,M,M,7000.00,8000.00,M,M,M,M,M,M,M,M,M,32.81,KBAM 091515Z AUTO 27005KT 10SM SCT070 SCT080 03/01 A2980 RMK AO1,M
TMT,2023-01-09 15:15,-117.1971,39.4643,1749.34,33.60,32.00,93.78,230.00,7.00,0.00,29.81,M,10.00,M,OVC,M,M,M,7000.00,M,M,M,M,M,M,M,M,M,M,26.73,KTMT 091515Z AUTO 23007KT 10SM OVC070 01/00 A2981 RMK AO2 LTG DSNT W T00090000,M
05U,2023-01-09 15:30,-116.0051,39.6042,1811.23,35.60,30.20,80.51,160.00,20.00,0.00,29.91,M,10.00,26.00,FEW,SCT,SCT,M,2500.00,6500.00,7500.00,M,M,M,M,M,M,M,M,23.92,K05U 091530Z AUTO 16020G26KT 10SM FEW025 SCT065 SCT075 02/M01 A2991 RMK A01,M
ELY,2023-01-09 15:32,-114.8453,39.2950,1909.00,32.00,30.00,92.22,220.00,16.00,T,29.98,M,1.50,M,BKN,OVC,M,M,1600.00,2500.00,M,M,-SN BR,M,M,M,M,M,M,20.42,KELY 091532Z AUTO 22016KT 1 1/2SM -SN BR BKN016 OVC025 00/M01 A2998 RMK AO2 P0000 T00001011 $,M
BVU,2023-01-09 15:35,-114.8611,35.9475,671.00,50.00,35.60,57.52,80.00,6.00,0.00,30.10,M,10.00,M,SCT,M,M,M,9000.00,M,M,M,M,M,M,M,M,M,M,50.00,KBVU 091535Z AUTO 08006KT 10SM SCT090 10/02 A3010 RMK AO2,M
CXP,2023-01-09 15:35,-119.7326,39.1923,1431.00,37.40,35.60,93.14,0.00,0.00,0.00,29.70,M,2.00,M,FEW,OVC,M,M,1700.00,3200.00,M,M,-RA BR,M,M,M,M,M,M,37.40,KCXP 091535Z AUTO 00000KT 2SM -RA BR FEW017 OVC032 03/02 A2970 RMK AO2,M
RTS,2023-01-09 15:35,-119.8764,39.6682,1539.00,35.60,33.80,93.08,120.00,10.00,0.00,29.67,M,5.00,M,FEW,BKN,OVC,M,900.00,2900.00,3400.00,M,-RA,M,M,M,M,M,M,27.48,KRTS 091535Z AUTO 12010KT 5SM -RA FEW009 BKN029 OVC034 02/01 A2967 RMK AO2,M
MEV,2023-01-09 15:35,-119.7500,38.9963,1441.42,37.40,35.60,93.14,0.00,0.00,0.00,29.67,M,3.00,M,OVC,M,M,M,3500.00,M,M,M,UP BR,M,M,M,M,M,M,37.40,KMEV 091535Z AUTO 00000KT 3SM UP BR OVC035 03/02 A2967 RMK AO2,M
BAM,2023-01-09 15:35,-116.8743,40.5990,1382.36,37.40,33.80,86.69,0.00,0.00,0.00,29.79,M,10.00,M,SCT,SCT,M,M,7000.00,8000.00,M,M,M,M,M,M,M,M,M,37.40,KBAM 091535Z AUTO 00000KT 10SM SCT070 SCT080 03/01 A2979 RMK AO1,M
TMT,2023-01-09 15:35,-117.1971,39.4643,1749.34,35.20,32.00,87.98,230.00,5.00,0.00,29.81,M,10.00,M,SCT,BKN,OVC,M,5500.00,7500.00,9000.00,M,M,M,M,M,M,M,M,30.20,KTMT 091535Z AUTO 23005KT 10SM SCT055 BKN075 OVC090 02/00 A2981 RMK AO2 T00180000,M
ELY,2023-01-09 15:49,-114.8453,39.2950,1909.00,32.00,30.20,92.97,200.00,16.00,0.01,29.96,M,3.00,M,BKN,OVC,M,M,1600.00,3700.00,M,M,-SN BR,M,M,M,M,M,M,20.42,KELY 091549Z AUTO 20016KT 3SM -SN BR BKN016 OVC037 00/M01 A2996 RMK AO2 P0001 $,M
ELY,2023-01-09 15:50,-114.8453,39.2950,1909.00,32.00,30.90,95.65,200.00,16.00,0.01,29.96,1014.30,3.00,M,BKN,OVC,M,M,1600.00,3700.00,M,M,-SN BR,M,M,M,M,M,M,20.42,KELY 091550Z AUTO 20016KT 3SM -SN BR BKN016 OVC037 00/M01 A2996 RMK AO2 SLP143 P0001 T00001006 $,M
05U,2023-01-09 15:50,-116.0051,39.6042,1811.23,35.60,30.20,80.51,160.00,20.00,0.00,29.92,M,10.00,M,BKN,BKN,M,M,2300.00,6500.00,M,M,M,M,M,M,M,M,M,23.92,K05U 091550Z AUTO 16020KT 10SM BKN023 BKN065 02/M01 A2992 RMK A01,M
ELY,2023-01-09 15:50,-114.8453,39.2950,1909.00,M,M,M,200.00,16.00,0.01,29.96,M,3.00,M,BKN,OVC,M,M,1600.00,3700.00,M,M,-SN BR,M,M,M,M,M,M,M,KELY 091550Z AUTO 20016KT 3SM -SN BR BKN016 OVC037 00/M01 A2996 RMK P0001 T00001010 MADISHF,M
VGT,2023-01-09 15:53,-115.1933,36.2111,667.00,49.00,36.00,60.88,0.00,0.00,0.00,30.10,1020.90,10.00,M,OVC,M,M,M,8500.00,M,M,M,M,M,M,M,M,M,M,48.90,KVGT 091553Z 00000KT 10SM OVC085 09/02 A3010 RMK AO2 SLP209 T00940022,M
LOL,2023-01-09 15:53,-118.5701,40.0684,1192.43,41.00,35.00,79.34,180.00,8.00,T,29.70,1006.50,10.00,M,BKN,OVC,M,M,4200.00,4900.00,M,M,-RA,M,M,M,M,M,M,35.20,KLOL 091553Z AUTO 18008KT 10SM -RA BKN042 OVC049 05/02 A2970 RMK AO2 RAB20 SLP065 P0000 T00500017,M
P68,2023-01-09 15:53,-116.0056,39.6014,1993.00,35.00,28.90,77.88,160.00,18.00,0.00,29.89,1011.40,M,30.00,M,M,M,M,M,M,M,M,M,M,M,M,34.00,150.00,2023-01-09 15:24,23.83,KP68 091553Z AUTO 16018G30KT 02/M02 A2989 RMK AO1 PK WND 15034/1524 SLP114 T00171017,M
BVU,2023-01-09 15:55,-114.8611,35.9475,671.00,48.20,35.60,61.52,70.00,7.00,0.00,30.11,M,10.00,M,CLR,M,M,M,M,M,M,M,M,M,M,M,M,M,M,44.53,KBVU 091555Z AUTO 07007KT 10SM CLR 09/02 A3011 RMK AO2,M
CXP,2023-01-09 15:55,-119.7326,39.1923,1431.00,37.40,35.60,93.14,340.00,3.00,0.12,29.69,M,1.75,M,OVC,M,M,M,3100.00,M,M,M,-RA BR,M,M,M,M,M,M,34.86,KCXP 091555Z AUTO 34003KT 1 3/4SM -RA BR OVC031 03/02 A2969 RMK AO2 P0012,M
RTS,2023-01-09 15:55,-119.8764,39.6682,1539.00,37.40,33.80,86.69,140.00,11.00,0.02,29.67,M,5.00,M,FEW,BKN,OVC,M,900.00,3000.00,3400.00,M,-RA,M,M,M,M,M,M,29.29,KRTS 091555Z AUTO 14011KT 5SM -RA FEW009 BKN030 OVC034 03/01 A2967 RMK AO2 P0002,M
MEV,2023-01-09 15:55,-119.7500,38.9963,1441.42,37.40,35.60,93.14,320.00,5.00,0.11,29.67,M,2.00,M,FEW,OVC,M,M,1900.00,3600.00,M,M,UP BR,M,M,M,M,M,M,32.81,KMEV 091555Z AUTO 32005KT 2SM UP BR FEW019 OVC036 03/02 A2967 RMK AO2 P0011,M
BAM,2023-01-09 15:55,-116.8743,40.5990,1382.36,35.60,33.80,93.08,0.00,0.00,0.00,29.80,M,10.00,M,SCT,SCT,BKN,M,6500.00,8500.00,11000.00,M,M,M,M,M,M,M,M,35.60,KBAM 091555Z AUTO 00000KT 10SM SCT065 SCT085 BKN110 02/01 A2980 RMK AO1,M
LSV,2023-01-09 15:55,-115.0343,36.2362,570.00,47.70,38.70,70.82,0.00,0.00,0.00,30.08,1018.50,10.00,M,FEW,M,M,M,9000.00,M,M,M,M,M,M,M,M,M,M,47.70,KLSV 091555Z AUTO 00000KT 10SM FEW090 09/04 A3008 RMK AO2 SLP185 T00870037 $,M
TMT,2023-01-09 15:55,-117.1971,39.4643,1749.34,36.00,32.00,85.23,0.00,0.00,0.00,29.80,M,10.00,M,SCT,OVC,M,M,6500.00,7500.00,M,M,M,M,M,M,M,M,M,36.00,KTMT 091555Z AUTO 00000KT 10SM SCT065 OVC075 02/00 A2980 RMK AO2 T00220000,M
RNO,2023-01-09 15:55,-119.7711,39.4839,1341.00,39.00,35.00,85.76,130.00,7.00,0.04,29.65,1003.70,9.00,M,FEW,OVC,M,M,2000.00,4400.00,M,M,-RA,M,M,M,M,M,M,33.31,KRNO 091555Z 13007KT 9SM -RA FEW020 OVC044 04/02 A2965 RMK AO2 SLP037 P0004 T00390017,M
INS,2023-01-09 15:55,-115.6733,36.5872,955.00,45.00,31.60,58.92,120.00,17.00,0.00,30.05,1017.10,10.00,M,BKN,OVC,M,M,6500.00,8500.00,M,M,M,M,M,M,M,M,M,37.24,KINS 091555Z AUTO 12017KT 10SM BKN065 OVC085 07/M00 A3005 RMK AO2 SLP171 T00731002 $,M
NFL,2023-01-09 15:56,-118.7010,39.4166,1199.00,45.00,35.00,68.05,160.00,14.00,T,29.68,1003.40,10.00,20.00,BKN,OVC,M,M,6500.00,8000.00,M,M,M,M,M,M,32.00,150.00,2023-01-09 15:30,37.92,KNFL 091556Z 16014G20KT 10SM BKN065 OVC080 07/02 A2968 RMK AO2 PK WND 15032/1530 RAB34E43 SLP034 P0000 T00720017,M
HND,2023-01-09 15:56,-115.1344,35.9729,742.79,46.00,38.00,73.18,0.00,0.00,0.00,30.12,1022.00,10.00,M,OVC,M,M,M,8500.00,M,M,M,M,M,M,M,M,M,M,46.00,KHND 091556Z 00000KT 10SM OVC085 08/03 A3012 RMK AO2 SLP220 T00780033,M
LAS,2023-01-09 15:56,-115.1634,36.0719,663.00,48.00,38.00,67.87,0.00,0.00,T,30.11,1019.30,10.00,M,SCT,OVC,M,M,8000.00,11000.00,M,M,-RA,M,M,M,M,M,M,48.00,KLAS 091556Z 00000KT 10SM -RA SCT080 OVC110 09/03 A3011 RMK AO2 RAB54 SLP193 P0000 T00890033,M
EKO,2023-01-09 15:56,-115.7860,40.8242,1367.00,38.00,32.00,79.08,200.00,8.00,T,29.85,1012.00,10.00,17.00,OVC,M,M,M,6000.00,M,M,M,M,M,M,M,27.00,190.00,2023-01-09 15:34,31.38,KEKO 091556Z AUTO 20008G17KT 10SM OVC060 03/00 A2985 RMK AO2 PK WND 19027/1534 UPB00E16SNE00 SLP120 P0000 T00330000,M
WMC,2023-01-09 15:56,-117.8072,40.9019,1315.00,38.00,33.00,82.66,180.00,9.00,T,29.71,1006.50,10.00,M,OVC,M,M,M,6500.00,M,M,M,-RA,M,M,M,M,M,M,30.85,KWMC 091556Z AUTO 18009KT 10SM -RA OVC065 03/01 A2971 RMK AO2 RAB13E30B53 SLP065 P0000 T00330006,M
TPH,2023-01-09 15:56,-117.0904,38.0505,1654.00,38.00,33.00,82.66,160.00,13.00,0.00,29.95,1014.10,10.00,M,OVC,M,M,M,1700.00,M,M,M,M,M,M,M,M,M,M,29.13,KTPH 091556Z AUTO 16013KT 10SM OVC017 03/01 A2995 RMK AO2 SLP141 T00330006,M
05U,2023-01-09 16:10,-116.0051,39.6042,1811.23,35.60,30.20,80.51,160.00,17.00,0.00,29.92,M,10.00,22.00,BKN,BKN,OVC,M,2300.00,2800.00,8000.00,M,M,M,M,M,M,M,M,24.79,K05U 091610Z AUTO 16017G22KT 10SM BKN023 BKN028 OVC080 02/M01 A2992 RMK A01,M
ELY,2023-01-09 16:10,-114.8453,39.2950,1909.00,33.00,30.90,91.51,200.00,17.00,T,29.98,M,7.00,27.00,SCT,BKN,OVC,M,2000.00,4100.00,4900.00,M,-SN,M,M,M,27.00,200.00,2023-01-09 16:04,21.52,KELY 091610Z AUTO 20017G27KT 7SM -SN SCT020 BKN041 OVC049 01/M01 A2998 RMK AO2 PK WND 20027/1604 UPB1559E04SNE1559B10 P0000 T00061006 $,M
BVU,2023-01-09 16:15,-114.8611,35.9475,671.00,50.00,35.60,57.52,100.00,5.00,0.00,30.12,M,10.00,M,FEW,M,M,M,11000.00,M,M,M,M,M,M,M,M,M,M,50.00,KBVU 091615Z AUTO 10005KT 10SM FEW110 10/02 A3012 RMK AO2,M
CXP,2023-01-09 16:15,-119.7326,39.1923,1431.00,37.40,35.60,93.14,0.00,0.00,0.00,29.70,M,1.75,M,OVC,M,M,M,3000.00,M,M,M,-RA BR,M,M,M,M,M,M,37.40,KCXP 091615Z AUTO 00000KT 1 3/4SM -RA BR OVC030 03/02 A2970 RMK AO2,M
RTS,2023-01-09 16:15,-119.8764,39.6682,1539.00,37.40,33.80,86.69,130.00,11.00,0.00,29.66,M,5.00,M,FEW,OVC,M,M,2400.00,3100.00,M,M,-RA,M,M,M,M,M,M,29.29,KRTS 091615Z AUTO 13011KT 5SM -RA FEW024 OVC031 03/01 A2966 RMK AO2,M
MEV,2023-01-09 16:15,-119.7500,38.9963,1441.42,37.40,35.60,93.14,350.00,5.00,0.00,29.67,M,3.00,M,FEW,OVC,M,M,1800.00,3700.00,M,M,-RA BR,M,M,M,M,M,M,32.81,KMEV 091615Z AUTO 35005KT 3SM -RA BR FEW018 OVC037 03/02 A2967 RMK AO2,M
BAM,2023-01-09 16:15,-116.8743,40.5990,1382.36,37.40,33.80,86.69,60.00,4.00,0.00,29.77,M,10.00,M,BKN,BKN,OVC,M,8000.00,10000.00,12000.00,M,M,M,M,M,M,M,M,33.73,KBAM 091615Z AUTO 06004KT 10SM BKN080 BKN100 OVC120 03/01 A2977 RMK AO1,M
TMT,2023-01-09 16:15,-117.1971,39.4643,1749.34,37.80,32.00,79.39,220.00,11.00,0.00,29.80,M,10.00,14.00,SCT,BKN,OVC,M,4600.00,6000.00,7000.00,M,-DZ,M,M,M,M,M,M,29.80,KTMT 091615Z AUTO 22011G14KT 10SM -DZ SCT046 BKN060 OVC070 03/00 A2980 RMK AO2 LTG DSNT W T00320000,M
05U,2023-01-09 16:30,-116.0051,39.6042,1811.23,35.60,30.20,80.51,150.00,21.00,0.00,29.91,M,10.00,M,BKN,BKN,BKN,M,2300.00,4600.00,8000.00,M,M,M,M,M,M,M,M,23.65,K05U 091630Z AUTO 15021KT 10SM BKN023 BKN046 BKN080 02/M01 A2991 RMK A01,M
BVU,2023-01-09 16:35,-114.8611,35.9475,671.00,50.00,35.60,57.52,80.00,6.00,0.00,30.12,M,10.00,M,BKN,BKN,M,M,9500.00,12000.00,M,M,M,M,M,M,M,M,M,50.00,KBVU 091635Z AUTO 08006KT 10SM BKN095 BKN120 10/02 A3012 RMK AO2,M
CXP,2023-01-09 16:35,-119.7326,39.1923,1431.00,35.60,35.60,100.00,80.00,11.00,0.00,29.69,M,2.00,M,SCT,M,M,M,3000.00,M,M,M,-RA BR,M,M,M,M,M,M,27.02,KCXP 091635Z AUTO 08011KT 2SM -RA BR SCT030 02/02 A2969 RMK AO2 VIS 1 1/2V3,M
RTS,2023-01-09 16:35,-119.8764,39.6682,1539.00,35.60,33.80,93.08,120.00,10.00,0.00,29.67,M,6.00,M,FEW,BKN,OVC,M,2400.00,3400.00,4200.00,M,-DZ,M,M,M,M,M,M,27.48,KRTS 091635Z AUTO 12010KT 6SM -DZ FEW024 BKN034 OVC042 02/01 A2967 RMK AO2,M
MEV,2023-01-09 16:35,-119.7500,38.9963,1441.42,35.60,35.60,100.00,10.00,8.00,0.00,29.67,M,5.00,M,FEW,BKN,OVC,M,2000.00,3400.00,4000.00,M,UP BR,M,M,M,M,M,M,28.55,KMEV 091635Z AUTO 01008KT 5SM UP BR FEW020 BKN034 OVC040 02/02 A2967 RMK AO2,M
BAM,2023-01-09 16:35,-116.8743,40.5990,1382.36,37.40,33.80,86.69,290.00,3.00,0.00,29.78,M,10.00,M,SCT,BKN,OVC,M,5000.00,7000.00,8000.00,M,M,M,M,M,M,M,M,34.86,KBAM 091635Z AUTO 29003KT 10SM SCT050 BKN070 OVC080 03/01 A2978 RMK AO1,M
TMT,2023-01-09 16:35,-117.1971,39.4643,1749.34,38.00,32.00,79.08,210.00,10.00,0.00,29.80,M,10.00,M,SCT,OVC,M,M,4900.00,6000.00,M,M,M,M,M,M,M,M,M,30.37,KTMT 091635Z AUTO 21010KT 10SM SCT049 OVC060 03/00 A2980 RMK AO2 T00330000,M
P68,2023-01-09 16:53,-116.0056,39.6014,1993.00,36.00,30.00,78.60,140.00,22.00,0.00,29.89,1011.40,M,28.00,M,M,M,M,M,M,M,M,M,M,M,M,29.00,150.00,2023-01-09 16:41,23.93,KP68 091653Z AUTO 14022G28KT 02/M01 A2989 RMK AO1 PK WND 15029/1641 SLP114 T00221011,M
ELY,2023-01-09 16:53,-114.8453,39.2950,1909.00,34.00,30.00,85.11,170.00,14.00,T,29.96,1014.40,10.00,27.00,OVC,M,M,M,4200.00,M,M,M,M,M,M,M,28.00,180.00,2023-01-09 16:37,23.74,KELY 091653Z AUTO 17014G27KT 10SM OVC042 01/M01 A2996 RMK AO2 PK WND 18028/1637 UPB1559E04B39E47SNE1559B10E39 SLP144 P0000 T00111011,M
LOL,2023-01-09 16:53,-118.5701,40.0684,1192.43,45.00,37.00,73.37,220.00,12.00,T,29.72,1006.90,10.00,19.00,OVC,M,M,M,4100.00,M,M,M,-RA,M,M,M,M,M,M,38.55,KLOL 091653Z AUTO 22012G19KT 10SM -RA OVC041 07/03 A2972 RMK AO2 SLP069 P0000 T00720028,M
VGT,2023-01-09 16:53,-115.1933,36.2111,667.00,50.00,38.00,62.98,0.00,0.00,T,30.11,1021.50,10.00,M,OVC,M,M,M,9000.00,M,M,M,-RA,M,M,M,M,M,M,50.00,KVGT 091653Z 00000KT 10SM -RA OVC090 10/03 A3011 RMK AO2 RAB25 SLP215 P0000 T01000033,M
BVU,2023-01-09 16:55,-114.8611,35.9475,671.00,50.00,35.60,57.52,60.00,5.00,0.00,30.12,M,10.00,M,SCT,M,M,M,9500.00,M,M,M,M,M,M,M,M,M,M,50.00,KBVU 091655Z AUTO 06005KT 10SM SCT095 10/02 A3012 RMK AO2,M
CXP,2023-01-09 16:55,-119.7326,39.1923,1431.00,35.60,35.60,100.00,80.00,11.00,0.11,29.70,M,4.00,M,FEW,SCT,M,M,3000.00,4000.00,M,M,-RA BR,M,M,M,M,M,M,27.02,KCXP 091655Z AUTO 08011KT 4SM -RA BR FEW030 SCT040 02/02 A2970 RMK AO2 LTG DSNT W P0011,M
RNO,2023-01-09 16:55,-119.7711,39.4839,1341.00,40.00,36.00,85.81,M,4.00,0.04,29.68,1004.40,10.00,M,FEW,OVC,M,M,1400.00,4500.00,M,M,-RA,M,M,M,M,M,M,36.65,KRNO 091655Z VRB04KT 10SM -RA FEW014 OVC045 04/02 A2968 RMK AO2 SLP044 P0004 T00440022,M
RTS,2023-01-09 16:55,-119.8764,39.6682,1539.00,37.40,35.60,93.14,140.00,8.00,0.01,29.69,M,6.00,M,FEW,BKN,BKN,M,2900.00,3600.00,4200.00,M,-DZ,M,M,M,M,M,M,30.76,KRTS 091655Z AUTO 14008KT 6SM -DZ FEW029 BKN036 BKN042 03/02 A2969 RMK AO2 P0001,M
05U,2023-01-09 16:55,-116.0051,39.6042,1811.23,37.40,30.20,74.98,140.00,18.00,0.00,29.91,M,10.00,24.00,FEW,SCT,BKN,M,2300.00,3300.00,4100.00,M,M,M,M,M,M,M,M,26.86,K05U 091655Z AUTO 14018G24KT 10SM FEW023 SCT033 BKN041 03/M01 A2991 RMK A01,M
MEV,2023-01-09 16:55,-119.7500,38.9963,1441.42,35.60,35.60,100.00,20.00,6.00,0.05,29.69,M,4.00,M,SCT,OVC,M,M,3100.00,3900.00,M,M,-RA BR,M,M,M,M,M,M,29.87,KMEV 091655Z AUTO 02006KT 4SM -RA BR SCT031 OVC039 02/02 A2969 RMK AO2 LTG DSNT W P0005,M
BAM,2023-01-09 16:55,-116.8743,40.5990,1382.36,37.40,35.60,93.14,0.00,0.00,0.00,29.78,M,10.00,M,SCT,BKN,OVC,M,4200.00,4800.00,5500.00,M,M,M,M,M,M,M,M,37.40,KBAM 091655Z AUTO 00000KT 10SM SCT042 BKN048 OVC055 03/02 A2978 RMK AO1,M
LSV,2023-01-09 16:55,-115.0343,36.2362,570.00,49.30,39.60,69.09,60.00,12.00,0.00,30.09,1018.70,10.00,M,CLR,M,M,M,M,M,M,M,M,M,M,M,M,M,M,44.02,KLSV 091655Z AUTO 06012KT 10SM CLR 10/04 A3009 RMK AO2 SLP187 T00960042 $,M
TMT,2023-01-09 16:55,-117.1971,39.4643,1749.34,38.70,32.00,76.64,220.00,11.00,0.00,29.79,M,10.00,18.00,OVC,M,M,M,6000.00,M,M,M,M,M,M,M,M,M,M,30.93,KTMT 091655Z AUTO 22011G18KT 10SM OVC060 04/00 A2979 RMK AO2 T00370000,M
INS,2023-01-09 16:55,-115.6733,36.5872,955.00,46.00,32.70,59.75,100.00,20.00,0.00,30.05,1016.90,10.00,M,OVC,M,M,M,5500.00,M,M,M,M,M,M,M,M,M,M,37.60,KINS 091655Z AUTO 10020KT 10SM OVC055 08/00 A3005 RMK AO2 SLP169 T00770004 $,M
EKO,2023-01-09 16:56,-115.7860,40.8242,1367.00,37.00,30.90,78.37,210.00,7.00,T,29.86,1012.50,8.00,M,FEW,OVC,M,M,3200.00,4100.00,M,M,-RA,M,M,M,M,M,M,30.87,KEKO 091656Z AUTO 21007KT 160V250 8SM -RA FEW032 OVC041 03/M01 A2986 RMK AO2 UPB37E49RAB49 SLP125 P0000 T00281006,M
NFL,2023-01-09 16:56,-118.7010,39.4166,1199.00,46.00,37.00,70.64,170.00,21.00,0.01,29.71,1004.10,10.00,30.00,OVC,M,M,M,6000.00,M,M,M,-RA,M,M,M,35.00,160.00,2023-01-09 16:27,37.53,KNFL 091656Z 17021G30KT 10SM -RA OVC060 08/03 A2971 RMK AO2 PK WND 16035/1627 RAB23 SLP041 P0001 T00780028,M
WMC,2023-01-09 16:56,-117.8072,40.9019,1315.00,39.00,35.00,85.76,200.00,6.00,T,29.72,1006.60,10.00,M,FEW,OVC,M,M,3200.00,4000.00,M,M,-RA,M,M,M,M,M,M,33.96,KWMC 091656Z AUTO 20006KT 10SM -RA FEW032 OVC040 04/02 A2972 RMK AO2 SLP066 P0000 T00390017,M
HND,2023-01-09 16:56,-115.1344,35.9729,742.79,48.00,38.00,67.87,0.00,0.00,0.00,30.13,1022.30,10.00,M,FEW,OVC,M,M,7000.00,11000.00,M,M,M,M,M,M,M,M,M,48.00,KHND 091656Z 00000KT 10SM FEW070 OVC110 09/03 A3013 RMK AO2 SLP223 T00890033,M
TPH,2023-01-09 16:56,-117.0904,38.0505,1654.00,38.00,34.00,85.69,160.00,15.00,T,29.95,1014.00,10.00,24.00,OVC,M,M,M,1500.00,M,M,M,M,M,M,M,M,M,M,28.43,KTPH 091656Z AUTO 16015G24KT 10SM OVC015 03/01 A2995 RMK AO2 RAB02E16 SLP140 P0000 T00330011,M
LAS,2023-01-09 16:56,-115.1634,36.0719,663.00,49.00,38.00,65.62,90.00,4.00,T,30.12,1019.80,10.00,M,BKN,OVC,M,M,7500.00,10000.00,M,M,M,M,M,M,M,M,M,47.16,KLAS 091656Z 09004KT 10SM BKN075 OVC100 09/03 A3012 RMK AO2 RAE08B35E51 SLP198 P0000 T00940033,M
05U,2023-01-09 17:10,-116.0051,39.6042,1811.23,37.40,32.00,80.65,140.00,18.00,0.00,29.91,M,10.00,24.00,SCT,BKN,OVC,M,2500.00,2900.00,4100.00,M,M,M,M,M,M,M,M,26.86,K05U 091710Z AUTO 14018G24KT 10SM SCT025 BKN029 OVC041 03/M00 A2991 RMK A01,M
BVU,2023-01-09 17:15,-114.8611,35.9475,671.00,51.80,33.80,50.08,130.00,7.00,0.00,30.13,M,10.00,M,CLR,M,M,M,M,M,M,M,M,M,M,M,M,M,M,51.80,KBVU 091715Z AUTO 13007KT 10SM CLR 11/01 A3013 RMK AO2,M
CXP,2023-01-09 17:15,-119.7326,39.1923,1431.00,35.60,35.60,100.00,80.00,8.00,0.00,29.72,M,3.00,M,FEW,M,M,M,3200.00,M,M,M,-SN BR,M,M,M,M,M,M,28.55,KCXP 091715Z AUTO 08008KT 3SM -SN BR FEW032 02/02 A2972 RMK AO2,M
RTS,2023-01-09 17:15,-119.8764,39.6682,1539.00,37.40,35.60,93.14,130.00,8.00,0.00,29.70,M,4.00,M,BKN,OVC,M,M,2800.00,3500.00,M,M,-RA,M,M,M,M,M,M,30.76,KRTS 091715Z AUTO 13008KT 4SM -RA BKN028 OVC035 03/02 A2970 RMK AO2,M
MEV,2023-01-09 17:15,-119.7500,38.9963,1441.42,37.40,37.40,100.00,50.00,4.00,0.00,29.71,M,2.50,M,OVC,M,M,M,3700.00,M,M,M,-RA BR,M,M,M,M,M,M,33.73,KMEV 091715Z AUTO 05004KT 2 1/2SM -RA BR OVC037 03/03 A2971 RMK AO2 VIS 2V4,M
BAM,2023-01-09 17:15,-116.8743,40.5990,1382.36,37.40,35.60,93.14,310.00,3.00,0.00,29.79,M,10.00,M,SCT,BKN,OVC,M,3700.00,4400.00,4900.00,M,M,M,M,M,M,M,M,34.86,KBAM 091715Z AUTO 31003KT 10SM SCT037 BKN044 OVC049 03/02 A2979 RMK AO1,M
TMT,2023-01-09 17:15,-117.1971,39.4643,1749.34,38.70,32.20,77.26,220.00,15.00,0.00,29.80,M,10.00,M,OVC,M,M,M,6000.00,M,M,M,M,M,M,M,M,M,M,29.47,KTMT 091715Z AUTO 22015KT 10SM OVC060 04/00 A2980 RMK AO2 T00370001,M
TPH,2023-01-09 17:18,-117.0904,38.0505,1654.00,39.00,34.00,82.08,160.00,17.00,0.00,29.95,M,10.00,27.00,OVC,M,M,M,1400.00,M,M,M,M,M,M,M,27.00,150.00,2023-01-09 17:16,29.25,KTPH 091718Z AUTO 16017G27KT 10SM OVC014 04/01 A2995 RMK AO2 PK WND 15027/1716 T00390011,M
BVU,2023-01-09 17:35,-114.8611,35.9475,671.00,53.60,33.80,46.88,150.00,11.00,0.00,30.13,M,10.00,M,FEW,M,M,M,12000.00,M,M,M,M,M,M,M,M,M,M,53.60,KBVU 091735Z AUTO 15011KT 10SM FEW120 12/01 A3013 RMK AO2,M
CXP,2023-01-09 17:35,-119.7326,39.1923,1431.00,37.40,35.60,93.14,100.00,7.00,0.00,29.73,M,3.00,M,FEW,FEW,M,M,3500.00,4100.00,M,M,RA BR,M,M,M,M,M,M,31.36,KCXP 091735Z AUTO 10007KT 3SM RA BR FEW035 FEW041 03/02 A2973 RMK AO2,M
RTS,2023-01-09 17:35,-119.8764,39.6682,1539.00,37.40,35.60,93.14,0.00,0.00,0.00,29.73,M,3.00,M,OVC,M,M,M,2700.00,M,M,M,-RA,M,M,M,M,M,M,37.40,KRTS 091735Z AUTO 00000KT 3SM -RA OVC027 03/02 A2973 RMK AO2,M
05U,2023-01-09 17:35,-116.0051,39.6042,1811.23,37.40,32.00,80.65,130.00,12.00,0.00,29.91,M,10.00,20.00,BKN,BKN,OVC,M,2200.00,2600.00,3100.00,M,M,M,M,M,M,M,M,28.87,K05U 091735Z AUTO 13012G20KT 10SM BKN022 BKN026 OVC031 03/M00 A2991 RMK A01,M
MEV,2023-01-09 17:35,-119.7500,38.9963,1441.42,37.40,35.60,93.14,90.00,5.00,0.00,29.72,M,3.00,M,OVC,M,M,M,3600.00,M,M,M,-RA BR,M,M,M,M,M,M,32.81,KMEV 091735Z AUTO 09005KT 3SM -RA BR OVC036 03/02 A2972 RMK AO2,M
BAM,2023-01-09 17:35,-116.8743,40.5990,1382.36,39.20,35.60,86.79,0.00,0.00,0.00,29.79,M,10.00,M,BKN,OVC,M,M,3500.00,4200.00,M,M,M,M,M,M,M,M,M,39.20,KBAM 091735Z AUTO 00000KT 10SM BKN035 OVC042 04/02 A2979 RMK AO1,M
TMT,2023-01-09 17:35,-117.1971,39.4643,1749.34,39.20,32.00,75.16,220.00,17.00,0.00,29.80,M,10.00,M,OVC,M,M,M,7000.00,M,M,M,M,M,M,M,M,M,M,29.51,KTMT 091735Z AUTO 22017KT 10SM OVC070 04/00 A2980 RMK AO2 T00400000,M
ELY,2023-01-09 17:53,-114.8453,39.2950,1909.00,36.00,30.00,78.60,180.00,19.00,T,29.94,1013.60,10.00,29.00,OVC,M,M,M,4100.00,M,M,M,M,M,M,M,35.00,180.00,2023-01-09 17:42,24.73,KELY 091753Z AUTO 18019G29KT 10SM OVC041 02/M01 A2994 RMK AO2 PK WND 18035/1742 UPB1659E21SNB01E16 SLP136 P0000 60002 T00221011 10022 21006 56013,M
LOL,2023-01-09 17:53,-118.5701,40.0684,1192.43,42.00,39.00,88.67,230.00,6.00,0.02,29.74,1007.80,10.00,M,BKN,OVC,M,M,3700.00,4700.00,M,M,-RA,M,M,M,M,M,M,37.69,KLOL 091753Z AUTO 23006KT 10SM -RA BKN037 OVC047 06/04 A2974 RMK AO2 SLP078 P0002 60002 T00560039 10072 20006 53007,M
VGT,2023-01-09 17:53,-115.1933,36.2111,667.00,52.00,38.00,58.48,100.00,3.00,T,30.12,1021.60,10.00,M,BKN,OVC,M,M,7000.00,9000.00,M,M,M,M,M,M,M,M,M,52.00,KVGT 091753Z 10003KT 10SM BKN070 OVC090 11/03 A3012 RMK AO2 RAE1658 SLP216 P0000 60000 T01110033 10111 20083 53008,M
P68,2023-01-09 17:53,-116.0056,39.6014,1993.00,38.00,30.90,75.64,140.00,16.00,0.00,29.88,1011.50,M,22.00,M,M,M,M,M,M,M,M,M,M,M,M,29.00,140.00,2023-01-09 16:54,28.11,KP68 091753Z AUTO 14016G22KT 03/M01 A2988 RMK AO1 PK WND 14029/1654 SLP115 T00331006 10033 20011 56007,M
BVU,2023-01-09 17:55,-114.8611,35.9475,671.00,55.40,33.80,43.90,160.00,6.00,0.00,30.13,M,10.00,M,SCT,M,M,M,11000.00,M,M,M,M,M,M,M,M,M,M,55.40,KBVU 091755Z AUTO 16006KT 10SM SCT110 13/01 A3013 RMK AO2,M
CXP,2023-01-09 17:55,-119.7326,39.1923,1431.00,37.40,35.60,93.14,0.00,0.00,0.08,29.76,M,2.00,M,FEW,M,M,M,3400.00,M,M,M,RA BR,M,M,M,M,M,M,37.40,KCXP 091755Z AUTO 00000KT 2SM RA BR FEW034 03/02 A2976 RMK AO2 P0008,M
INS,2023-01-09 17:55,-115.6733,36.5872,955.00,47.70,34.00,58.81,170.00,5.00,0.00,30.06,1017.30,10.00,M,FEW,OVC,M,M,4900.00,6000.00,M,M,M,M,M,M,M,M,M,45.04,KINS 091755Z AUTO 17005KT 10SM FEW049 OVC060 09/01 A3006 RMK AO2 SLP173 T00870011 10087 20031 51004 $,M
RTS,2023-01-09 17:55,-119.8764,39.6682,1539.00,37.40,35.60,93.14,0.00,0.00,0.11,29.74,M,4.00,M,BKN,BKN,M,M,2600.00,3100.00,M,M,-RA,M,M,M,M,M,M,37.40,KRTS 091755Z AUTO 00000KT 4SM -RA BKN026 BKN031 03/02 A2974 RMK AO2 P0011,M
05U,2023-01-09 17:55,-116.0051,39.6042,1811.23,39.20,32.00,75.16,140.00,13.00,0.00,29.91,M,10.00,M,SCT,SCT,BKN,M,2400.00,3100.00,3900.00,M,M,M,M,M,M,M,M,30.79,K05U 091755Z AUTO 14013KT 10SM SCT024 SCT031 BKN039 04/M00 A2991 RMK A01,M
MEV,2023-01-09 17:55,-119.7500,38.9963,1441.42,37.40,35.60,93.14,130.00,7.00,0.14,29.73,M,2.50,M,OVC,M,M,M,3300.00,M,M,M,RA BR,M,M,M,M,M,M,31.36,KMEV 091755Z AUTO 13007KT 2 1/2SM RA BR OVC033 03/02 A2973 RMK AO2 P0014 VIS 2V3,M
BAM,2023-01-09 17:55,-116.8743,40.5990,1382.36,39.20,35.60,86.79,0.00,0.00,0.00,29.80,M,10.00,M,OVC,M,M,M,3500.00,M,M,M,M,M,M,M,M,M,M,39.20,KBAM 091755Z AUTO 00000KT 10SM OVC035 04/02 A2980 RMK AO1,M
TMT,2023-01-09 17:55,-117.1971,39.4643,1749.34,39.40,32.20,75.18,220.00,15.00,0.00,29.80,M,10.00,M,OVC,M,M,M,7000.00,M,M,M,M,M,M,M,M,M,M,30.37,KTMT 091755Z AUTO 22015KT 10SM OVC070 04/00 A2980 RMK AO2 LTG DSNT W 60005 T00410001 10041 21008,M
RNO,2023-01-09 17:55,-119.7711,39.4839,1341.00,41.00,38.00,88.62,340.00,3.00,0.11,29.73,1006.30,4.00,M,FEW,OVC,M,M,1300.00,3500.00,M,M,+RA BR,M,M,M,M,M,M,38.98,KRNO 091755Z 34003KT 4SM +RA BR FEW013 OVC035 05/03 A2973 RMK AO2 SLP063 P0011 60031 T00500033 10050 20039 53022,M
LSV,2023-01-09 17:55,-115.0343,36.2362,570.00,51.00,40.30,66.89,70.00,10.00,0.00,30.10,1019.10,10.00,M,BKN,OVC,M,M,8000.00,12000.00,M,M,M,M,M,M,M,M,M,50.90,KLSV 091755Z COR AUTO 07010KT 10SM BKN080 OVC120 11/05 A3010 RMK AO2 SLP191 T01050046 10105 20077 53007 $ COR 1813,M
WMC,2023-01-09 17:56,-117.8072,40.9019,1315.00,41.00,36.00,82.22,160.00,16.00,0.04,29.74,1007.40,6.00,25.00,FEW,BKN,OVC,M,2900.00,4200.00,5000.00,M,-RA,M,M,M,M,M,M,32.15,KWMC 091756Z AUTO 16016G25KT 6SM -RA FEW029 BKN042 OVC050 05/02 A2974 RMK AO2 SLP074 P0004 60005 T00500022 10050 20022 55001,M
NFL,2023-01-09 17:56,-118.7010,39.4166,1199.00,45.00,39.00,79.36,180.00,9.00,0.01,29.74,1005.10,10.00,M,BKN,OVC,M,M,6000.00,7500.00,M,M,-RA,M,M,M,27.00,160.00,2023-01-09 16:57,39.68,KNFL 091756Z 18009KT 10SM -RA BKN060 OVC075 07/04 A2974 RMK AO2 PK WND 16027/1657 RAE30B46 SLP051 WR// P0001 60002 T00720039 10078 20067 53010,M
LAS,2023-01-09 17:56,-115.1634,36.0719,663.00,50.00,37.00,60.79,0.00,0.00,0.00,30.13,1020.00,10.00,M,FEW,BKN,OVC,M,5000.00,7000.00,9000.00,M,M,M,M,M,M,M,M,50.00,KLAS 091756Z 00000KT 10SM FEW050 BKN070 OVC090 10/03 A3013 RMK AO2 SLP200 60000 T01000028 10100 20083 52008,M
HND,2023-01-09 17:56,-115.1344,35.9729,742.79,49.00,39.00,68.51,320.00,4.00,0.00,30.14,1022.40,10.00,M,SCT,OVC,M,M,7000.00,9000.00,M,M,M,M,M,M,M,M,M,47.16,KHND 091756Z 32004KT 10SM SCT070 OVC090 09/04 A3014 RMK AO2 SLP224 T00940039 10100 20072 51009,M
TPH,2023-01-09 17:56,-117.0904,38.0505,1654.00,38.00,37.00,96.52,160.00,15.00,T,29.96,1014.30,4.00,25.00,OVC,M,M,M,800.00,M,M,M,-RA BR,M,M,M,27.00,150.00,2023-01-09 17:16,28.43,KTPH 091756Z AUTO 16015G25KT 4SM -RA BR OVC008 03/03 A2996 RMK AO2 PK WND 15027/1716 RAB45 CIG 007V011 SLP143 P0000 60000 T00330028 10039 20028 53001,M
EKO,2023-01-09 17:56,-115.7860,40.8242,1367.00,38.00,33.00,82.66,180.00,13.00,0.05,29.85,1012.20,5.00,27.00,OVC,M,M,M,3100.00,M,M,M,RA,M,M,M,34.00,150.00,2023-01-09 17:11,29.13,KEKO 091756Z AUTO 18013G27KT 5SM RA OVC031 03/01 A2985 RMK AO2 PK WND 15034/1711 SLP122 P0005 60010 T00330006 10033 21022 56012,M
EKO,2023-01-09 18:03,-115.7860,40.8242,1367.00,37.00,34.00,88.78,180.00,13.00,0.01,29.85,M,5.00,27.00,OVC,M,M,M,2900.00,M,M,M,-RA BR,M,M,M,M,M,M,27.97,KEKO 091803Z AUTO 18013G27KT 5SM -RA BR OVC029 03/01 A2985 RMK AO2 P0001 T00280011,M
EKO,2023-01-09 18:13,-115.7860,40.8242,1367.00,37.00,34.00,88.78,180.00,17.00,0.01,29.85,M,7.00,28.00,BKN,OVC,M,M,3100.00,4800.00,M,M,-RA,M,M,M,28.00,180.00,2023-01-09 18:11,26.63,KEKO 091813Z AUTO 18017G28KT 7SM -RA BKN031 OVC048 03/01 A2985 RMK AO2 PK WND 18028/1811 P0001 T00280011,M
BVU,2023-01-09 18:15,-114.8611,35.9475,671.00,55.40,32.00,40.84,130.00,7.00,0.00,30.12,M,10.00,M,FEW,FEW,M,M,9000.00,11000.00,M,M,M,M,M,M,M,M,M,55.40,KBVU 091815Z AUTO 13007KT 10SM FEW090 FEW110 13/M00 A3012 RMK AO2,M
CXP,2023-01-09 18:15,-119.7326,39.1923,1431.00,37.40,35.60,93.14,110.00,4.00,0.00,29.77,M,1.25,M,SCT,SCT,M,M,2800.00,3300.00,M,M,RA BR,M,M,M,M,M,M,33.73,KCXP 091815Z AUTO 11004KT 1 1/4SM RA BR SCT028 SCT033 03/02 A2977 RMK AO2,M
RTS,2023-01-09 18:15,-119.8764,39.6682,1539.00,37.40,35.60,93.14,130.00,5.00,0.00,29.75,M,6.00,M,SCT,BKN,M,M,2700.00,3300.00,M,M,-RA,M,M,M,M,M,M,32.81,KRTS 091815Z AUTO 13005KT 6SM -RA SCT027 BKN033 03/02 A2975 RMK AO2,M
05U,2023-01-09 18:15,-116.0051,39.6042,1811.23,39.20,32.00,75.16,120.00,17.00,0.00,29.89,M,10.00,23.00,SCT,BKN,BKN,M,2700.00,3300.00,4700.00,M,M,M,M,M,M,M,M,29.51,K05U 091815Z AUTO 12017G23KT 10SM SCT027 BKN033 BKN047 04/M00 A2989 RMK A01,M
MEV,2023-01-09 18:15,-119.7500,38.9963,1441.42,39.20,37.40,93.19,90.00,6.00,0.00,29.75,M,4.00,M,OVC,M,M,M,3200.00,M,M,M,-RA BR,M,M,M,M,M,M,34.20,KMEV 091815Z AUTO 09006KT 4SM -RA BR OVC032 04/03 A2975 RMK AO2,M
BAM,2023-01-09 18:15,-116.8743,40.5990,1382.36,41.00,37.40,86.89,0.00,0.00,0.00,29.79,M,10.00,M,OVC,M,M,M,3700.00,M,M,M,M,M,M,M,M,M,M,41.00,KBAM 091815Z AUTO 00000KT 10SM OVC037 05/03 A2979 RMK AO1,M
TMT,2023-01-09 18:15,-117.1971,39.4643,1749.34,40.00,32.00,72.57,210.00,18.00,0.00,29.80,M,10.00,M,OVC,M,M,M,6000.00,M,M,M,M,M,M,M,M,M,M,30.41,KTMT 091815Z AUTO 21018KT 10SM OVC060 05/00 A2980 RMK AO2 T00450000,M
BVU,2023-01-09 18:35,-114.8611,35.9475,671.00,55.40,30.20,37.97,160.00,10.00,0.00,30.12,M,10.00,M,FEW,M,M,M,8500.00,M,M,M,M,M,M,M,M,M,M,55.40,KBVU 091835Z AUTO 16010KT 10SM FEW085 13/M01 A3012 RMK AO2,M
CXP,2023-01-09 18:35,-119.7326,39.1923,1431.00,37.40,35.60,93.14,90.00,7.00,0.00,29.78,M,2.50,M,FEW,M,M,M,2900.00,M,M,M,-RA BR,M,M,M,M,M,M,31.36,KCXP 091835Z AUTO 09007KT 2 1/2SM -RA BR FEW029 03/02 A2978 RMK AO2,M
RTS,2023-01-09 18:35,-119.8764,39.6682,1539.00,37.40,35.60,93.14,0.00,0.00,0.00,29.77,M,6.00,M,FEW,BKN,M,M,2300.00,3100.00,M,M,-RA,M,M,M,M,M,M,37.40,KRTS 091835Z AUTO 00000KT 6SM -RA FEW023 BKN031 03/02 A2977 RMK AO2,M
05U,2023-01-09 18:35,-116.0051,39.6042,1811.23,39.20,32.00,75.16,140.00,11.00,0.00,29.89,M,10.00,18.00,BKN,BKN,BKN,M,2700.00,3200.00,4800.00,M,M,M,M,M,M,M,M,31.57,K05U 091835Z AUTO 14011G18KT 10SM BKN027 BKN032 BKN048 04/M00 A2989 RMK A01,M
MEV,2023-01-09 18:35,-119.7500,38.9963,1441.42,37.40,37.40,100.00,90.00,10.00,0.00,29.75,M,4.00,M,OVC,M,M,M,3100.00,M,M,M,-RA BR,M,M,M,M,M,M,29.74,KMEV 091835Z AUTO 09010KT 4SM -RA BR OVC031 03/03 A2975 RMK AO2,M
BAM,2023-01-09 18:35,-116.8743,40.5990,1382.36,42.80,37.40,81.07,0.00,0.00,0.00,29.79,M,10.00,M,BKN,BKN,OVC,M,3700.00,4800.00,5000.00,M,M,M,M,M,M,M,M,42.80,KBAM 091835Z AUTO 00000KT 10SM BKN037 BKN048 OVC050 06/03 A2979 RMK AO1,M
TMT,2023-01-09 18:35,-117.1971,39.4643,1749.34,40.50,32.20,72.03,210.00,18.00,0.00,29.80,M,10.00,23.00,OVC,M,M,M,6000.00,M,M,M,M,M,M,M,M,M,M,30.94,KTMT 091835Z AUTO 21018G23KT 10SM OVC060 05/00 A2980 RMK AO2 T00470001,M
TPH,2023-01-09 18:40,-117.0904,38.0505,1654.00,38.00,37.00,96.52,160.00,13.00,T,29.94,M,4.00,22.00,OVC,M,M,M,600.00,M,M,M,BR,M,M,M,26.00,160.00,2023-01-09 18:16,29.13,KTPH 091840Z AUTO 16013G22KT 4SM BR OVC006 03/03 A2994 RMK AO2 PK WND 16026/1816 RAE38 P0000 T00330028,M
05U,2023-01-09 18:50,-116.0051,39.6042,1811.23,39.20,32.00,75.16,150.00,11.00,0.00,29.89,M,10.00,18.00,SCT,BKN,BKN,M,2500.00,3200.00,4300.00,M,M,M,M,M,M,M,M,31.57,K05U 091850Z AUTO 15011G18KT 10SM SCT025 BKN032 BKN043 04/M00 A2989 RMK A01,M
P68,2023-01-09 18:53,-116.0056,39.6014,1993.00,38.00,30.90,75.64,130.00,15.00,0.00,29.86,1011.20,M,21.00,M,M,M,M,M,M,M,M,M,M,M,M,26.00,120.00,2023-01-09 18:06,28.43,KP68 091853Z AUTO 13015G21KT 03/M01 A2986 RMK AO1 PK WND 12026/1806 SLP112 T00331006,M
ELY,2023-01-09 18:53,-114.8453,39.2950,1909.00,37.00,30.00,75.56,180.00,18.00,T,29.92,1013.20,10.00,30.00,FEW,OVC,M,M,3300.00,4500.00,M,M,M,M,M,M,35.00,160.00,2023-01-09 18:07,26.33,KELY 091853Z AUTO 18018G30KT 10SM FEW033 OVC045 03/M01 A2992 RMK AO2 PK WND 16035/1807 UPB04E38RAB38E49 SLP132 P0000 T00281011,M
LOL,2023-01-09 18:53,-118.5701,40.0684,1192.43,43.00,40.00,88.71,230.00,10.00,0.01,29.76,1008.40,10.00,M,OVC,M,M,M,3500.00,M,M,M,-RA,M,M,M,M,M,M,36.76,KLOL 091853Z AUTO 23010KT 10SM -RA OVC035 06/04 A2976 RMK AO2 SLP084 P0001 T00610044,M
VGT,2023-01-09 18:53,-115.1933,36.2111,667.00,53.00,37.00,54.21,70.00,9.00,0.00,30.10,1021.10,10.00,M,FEW,OVC,M,M,5500.00,7000.00,M,M,M,M,M,M,M,M,M,53.10,KVGT 091853Z 07009KT 10SM FEW055 OVC070 12/03 A3010 RMK AO2 SLP211 T01170028,M
BVU,2023-01-09 18:55,-114.8611,35.9475,671.00,57.20,30.20,35.57,150.00,13.00,0.00,30.11,M,10.00,18.00,FEW,FEW,M,M,8000.00,11000.00,M,M,M,M,M,M,M,M,M,57.20,KBVU 091855Z AUTO 15013G18KT 10SM FEW080 FEW110 14/M01 A3011 RMK AO2,M
CXP,2023-01-09 18:55,-119.7326,39.1923,1431.00,39.20,37.40,93.19,0.00,0.00,0.17,29.79,M,1.50,M,FEW,SCT,SCT,M,400.00,2700.00,3200.00,M,RA BR,M,M,M,M,M,M,39.20,KCXP 091855Z AUTO 00000KT 1 1/2SM RA BR FEW004 SCT027 SCT032 04/03 A2979 RMK AO2 P0017,M
INS,2023-01-09 18:55,-115.6733,36.5872,955.00,48.60,31.80,52.05,100.00,16.00,0.00,30.03,1016.00,10.00,M,OVC,M,M,M,5500.00,M,M,M,M,M,M,M,M,M,M,42.05,KINS 091855Z AUTO 10016KT 10SM OVC055 09/M00 A3003 RMK AO2 SLP160 T00921001 $,M
LSV,2023-01-09 18:55,-115.0343,36.2362,570.00,53.00,38.30,57.05,80.00,10.00,0.00,30.09,1018.70,10.00,M,BKN,OVC,M,M,7000.00,12000.00,M,M,M,M,M,M,M,M,M,53.10,KLSV 091855Z 08010KT 10SM BKN070 OVC120 12/04 A3009 RMK AO2A SLP187 T01170035 $,M
RTS,2023-01-09 18:55,-119.8764,39.6682,1539.00,39.20,35.60,86.79,100.00,5.00,0.04,29.76,M,5.00,M,FEW,BKN,BKN,M,2300.00,3000.00,3500.00,M,-DZ,M,M,M,M,M,M,34.95,KRTS 091855Z AUTO 10005KT 5SM -DZ FEW023 BKN030 BKN035 04/02 A2976 RMK AO2 P0004,M
MEV,2023-01-09 18:55,-119.7500,38.9963,1441.42,39.20,37.40,93.19,120.00,4.00,0.08,29.78,M,3.00,M,OVC,M,M,M,3100.00,M,M,M,-RA BR,M,M,M,M,M,M,35.83,KMEV 091855Z AUTO 12004KT 3SM -RA BR OVC031 04/03 A2978 RMK AO2 P0008,M
BAM,2023-01-09 18:55,-116.8743,40.5990,1382.36,41.00,37.40,86.89,0.00,0.00,0.00,29.79,M,10.00,M,SCT,BKN,OVC,M,2900.00,3700.00,5500.00,M,M,M,M,M,M,M,M,41.00,KBAM 091855Z AUTO 00000KT 10SM SCT029 BKN037 OVC055 05/03 A2979 RMK AO1,M
TMT,2023-01-09 18:55,-117.1971,39.4643,1749.34,40.00,32.20,73.16,220.00,16.00,0.00,29.80,M,10.00,M,OVC,M,M,M,6000.00,M,M,M,M,M,M,M,M,M,M,30.98,KTMT 091855Z AUTO 22016KT 10SM OVC060 05/00 A2980 RMK AO2 T00450001,M
RNO,2023-01-09 18:55,-119.7711,39.4839,1341.00,40.00,38.00,92.48,50.00,7.00,0.17,29.75,1007.10,4.00,M,OVC,M,M,M,3100.00,M,M,M,+RA BR,M,M,M,M,M,M,34.41,KRNO 091855Z 05007KT 4SM +RA BR OVC031 04/03 A2975 RMK AO2 SLP071 P0017 T00440033,M
EKO,2023-01-09 18:56,-115.7860,40.8242,1367.00,38.00,34.00,85.69,200.00,12.00,0.04,29.82,1011.00,10.00,21.00,OVC,M,M,M,4500.00,M,M,M,-RA,M,M,M,29.00,170.00,2023-01-09 18:17,29.51,KEKO 091856Z AUTO 20012G21KT 10SM -RA OVC045 03/01 A2982 RMK AO2 PK WND 17029/1817 SLP110 P0004 T00330011,M
WMC,2023-01-09 18:56,-117.8072,40.9019,1315.00,40.00,37.00,89.27,210.00,9.00,0.05,29.74,1007.20,8.00,M,BKN,OVC,M,M,3600.00,5000.00,M,M,-RA,M,M,M,M,M,M,33.34,KWMC 091856Z AUTO 21009KT 8SM -RA BKN036 OVC050 04/03 A2974 RMK AO2 SLP072 P0005 T00440028,M
HND,2023-01-09 18:56,-115.1344,35.9729,742.79,50.00,39.00,65.75,30.00,4.00,0.00,30.12,1021.90,10.00,M,BKN,OVC,M,M,6000.00,8000.00,M,M,M,M,M,M,M,M,M,50.00,KHND 091856Z 03004KT 10SM BKN060 OVC080 10/04 A3012 RMK AO2 SLP219 T01000039,M
LAS,2023-01-09 18:56,-115.1634,36.0719,663.00,51.00,37.00,58.36,70.00,3.00,0.00,30.11,1019.40,10.00,M,BKN,OVC,M,M,6500.00,9000.00,M,M,M,M,M,M,M,M,M,51.10,KLAS 091856Z 07003KT 10SM BKN065 OVC090 11/03 A3011 RMK AO2 SLP194 VIRGA DSNT W T01060028,M
TPH,2023-01-09 18:56,-117.0904,38.0505,1654.00,39.00,38.00,95.78,170.00,16.00,T,29.94,1013.60,4.00,25.00,OVC,M,M,M,600.00,M,M,M,BR,M,M,M,26.00,160.00,2023-01-09 18:16,29.54,KTPH 091856Z AUTO 17016G25KT 4SM BR OVC006 04/03 A2994 RMK AO2 PK WND 16026/1816 RAE38 SLP136 P0000 T00390033,M
NFL,2023-01-09 18:56,-118.7010,39.4166,1199.00,44.00,40.00,85.06,190.00,15.00,0.05,29.77,1006.10,5.00,M,OVC,M,M,M,4200.00,M,M,M,-RA BR,M,M,M,M,M,M,36.47,KNFL 091856Z 19015KT 5SM -RA BR OVC042 07/04 A2977 RMK AO2 SLP061 P0005 T00670044,M
05U,2023-01-09 19:10,-116.0051,39.6042,1811.23,39.20,32.00,75.16,180.00,15.00,0.00,29.87,M,10.00,M,FEW,FEW,BKN,M,2400.00,3300.00,4400.00,M,M,M,M,M,M,M,M,30.11,K05U 091910Z AUTO 18015KT 10SM FEW024 FEW033 BKN044 04/M00 A2987 RMK A01,M
BVU,2023-01-09 19:15,-114.8611,35.9475,671.00,57.20,30.20,35.57,160.00,10.00,0.00,30.11,M,10.00,16.00,CLR,M,M,M,M,M,M,M,M,M,M,M,M,M,M,57.20,KBVU 091915Z AUTO 16010G16KT 10SM CLR 14/M01 A3011 RMK AO2,M
CXP,2023-01-09 19:15,-119.7326,39.1923,1431.00,37.40,37.40,100.00,80.00,7.00,0.00,29.77,M,1.75,M,FEW,BKN,BKN,M,400.00,2400.00,3200.00,M,RA BR,M,M,M,M,M,M,31.36,KCXP 091915Z AUTO 08007KT 1 3/4SM RA BR FEW004 BKN024 BKN032 03/03 A2977 RMK AO2 VIS 1 1/4V2 1/2,M
RTS,2023-01-09 19:15,-119.8764,39.6682,1539.00,37.40,35.60,93.14,350.00,9.00,0.00,29.77,M,5.00,M,SCT,BKN,M,M,2300.00,2900.00,M,M,-RA,M,M,M,M,M,M,30.23,KRTS 091915Z AUTO 35009KT 5SM -RA SCT023 BKN029 03/02 A2977 RMK AO2,M
MEV,2023-01-09 19:15,-119.7500,38.9963,1441.42,39.20,37.40,93.19,160.00,11.00,0.00,29.77,M,3.00,18.00,BKN,BKN,M,M,3200.00,3800.00,M,M,-RA BR,M,M,M,M,M,M,31.57,KMEV 091915Z AUTO 16011G18KT 130V290 3SM -RA BR BKN032 BKN038 04/03 A2977 RMK AO2,M
BAM,2023-01-09 19:15,-116.8743,40.5990,1382.36,42.80,37.40,81.07,0.00,0.00,0.00,29.79,M,10.00,M,SCT,BKN,OVC,M,1300.00,3700.00,6000.00,M,M,M,M,M,M,M,M,42.80,KBAM 091915Z AUTO 00000KT 10SM SCT013 BKN037 OVC060 06/03 A2979 RMK AO1,M
TMT,2023-01-09 19:15,-117.1971,39.4643,1749.34,39.70,32.00,73.71,230.00,15.00,0.00,29.80,M,10.00,20.00,OVC,M,M,M,6000.00,M,M,M,M,M,M,M,M,M,M,30.76,KTMT 091915Z AUTO 23015G20KT 10SM OVC060 04/00 A2980 RMK AO2 T00430000,M
TPH,2023-01-09 19:25,-117.0904,38.0505,1654.00,39.00,38.00,95.78,170.00,20.00,T,29.91,M,3.00,30.00,OVC,M,M,M,800.00,M,M,M,-RA BR,M,M,M,30.00,180.00,2023-01-09 19:12,28.44,KTPH 091925Z AUTO 17020G30KT 3SM -RA BR OVC008 04/03 A2991 RMK AO2 PK WND 18030/1912 RAB22 CIG 005V010 P0000 T00390033,M
LOL,2023-01-09 19:26,-118.5701,40.0684,1192.43,43.00,41.00,92.58,230.00,10.00,T,29.77,M,10.00,M,BKN,OVC,M,M,2700.00,3300.00,M,M,-RA,M,M,M,M,M,M,36.76,KLOL 091926Z AUTO 23010KT 10SM -RA BKN027 OVC033 06/05 A2977 RMK AO2 P0000 T00610050,M
WMC,2023-01-09 19:34,-117.8072,40.9019,1315.00,41.00,38.00,88.62,200.00,10.00,0.04,29.74,M,8.00,M,BKN,OVC,M,M,2700.00,3500.00,M,M,-RA,M,M,M,M,M,M,34.25,KWMC 091934Z AUTO 20010KT 8SM -RA BKN027 OVC035 05/03 A2974 RMK AO2 P0004 T00500033,M
BVU,2023-01-09 19:35,-114.8611,35.9475,671.00,57.20,30.20,35.57,150.00,15.00,0.00,30.09,M,10.00,20.00,CLR,M,M,M,M,M,M,M,M,M,M,M,M,M,M,57.20,KBVU 091935Z AUTO 15015G20KT 10SM CLR 14/M01 A3009 RMK AO2,M
CXP,2023-01-09 19:35,-119.7326,39.1923,1431.00,39.20,39.20,100.00,0.00,0.00,0.00,29.77,M,3.00,M,SCT,M,M,M,2500.00,M,M,M,-RA BR,M,M,M,M,M,M,39.20,KCXP 091935Z AUTO 00000KT 3SM -RA BR SCT025 04/04 A2977 RMK AO2,M
RTS,2023-01-09 19:35,-119.8764,39.6682,1539.00,37.40,35.60,93.14,300.00,7.00,0.00,29.78,M,4.00,M,SCT,SCT,M,M,2200.00,2600.00,M,M,-RA,M,M,M,M,M,M,31.36,KRTS 091935Z AUTO 30007KT 4SM -RA SCT022 SCT026 03/02 A2978 RMK AO2,M
05U,2023-01-09 19:35,-116.0051,39.6042,1811.23,41.00,32.00,70.08,160.00,8.00,0.00,29.87,M,10.00,M,FEW,M,M,M,4800.00,M,M,M,M,M,M,M,M,M,M,35.20,K05U 091935Z AUTO 16008KT 10SM FEW048 05/M00 A2987 RMK A01,M
MEV,2023-01-09 19:35,-119.7500,38.9963,1441.42,39.20,35.60,86.79,130.00,11.00,0.00,29.75,M,4.00,M,BKN,BKN,M,M,3300.00,4000.00,M,M,-RA BR,M,M,M,M,M,M,31.57,KMEV 091935Z AUTO 13011KT 4SM -RA BR BKN033 BKN040 04/02 A2975 RMK AO2,M
BAM,2023-01-09 19:35,-116.8743,40.5990,1382.36,41.00,37.40,86.89,0.00,0.00,0.00,29.78,M,10.00,M,SCT,BKN,OVC,M,1100.00,5000.00,6000.00,M,M,M,M,M,M,M,M,41.00,KBAM 091935Z AUTO 00000KT 10SM SCT011 BKN050 OVC060 05/03 A2978 RMK AO1,M
TMT,2023-01-09 19:35,-117.1971,39.4643,1749.34,38.80,32.00,76.34,210.00,14.00,0.00,29.80,M,10.00,18.00,OVC,M,M,M,5000.00,M,M,M,M,M,M,M,M,M,M,29.93,KTMT 091935Z AUTO 21014G18KT 10SM OVC050 04/00 A2980 RMK AO2 T00380000,M
RNO,2023-01-09 19:38,-119.7711,39.4839,1341.00,41.00,39.00,92.52,0.00,0.00,0.09,29.78,M,2.50,M,OVC,M,M,M,2800.00,M,M,M,+RA BR,M,M,M,M,M,M,41.00,KRNO 091938Z 00000KT 2 1/2SM +RA BR OVC028 05/04 A2978 RMK AO2 P0009 T00500039,M
RNO,2023-01-09 19:51,-119.7711,39.4839,1341.00,41.00,39.20,93.24,0.00,0.00,0.13,29.79,M,5.00,M,FEW,OVC,M,M,1400.00,3300.00,M,M,RA BR,M,M,M,M,M,M,41.00,KRNO 091951Z 00000KT 5SM RA BR FEW014 OVC033 05/04 A2979 RMK AO2 P0013,M
P68,2023-01-09 19:53,-116.0056,39.6014,1993.00,39.00,30.90,72.45,170.00,10.00,0.00,29.84,1009.10,M,20.00,M,M,M,M,M,M,M,M,M,M,M,M,M,M,M,31.75,KP68 091953Z AUTO 17010G20KT 04/M01 A2984 RMK AO1 SLP091 T00391006,M
ELY,2023-01-09 19:53,-114.8453,39.2950,1909.00,37.00,30.90,78.37,190.00,18.00,T,29.91,1012.00,10.00,32.00,OVC,M,M,M,3200.00,M,M,M,-RA,M,M,M,39.00,160.00,2023-01-09 19:20,26.33,KELY 091953Z AUTO 19018G32KT 10SM -RA OVC032 03/M01 A2991 RMK AO2 PK WND 16039/1920 RAB36 SLP120 P0000 T00281006,M
VGT,2023-01-09 19:53,-115.1933,36.2111,667.00,54.00,36.00,50.42,80.00,4.00,T,30.06,1019.60,10.00,M,OVC,M,M,M,7000.00,M,M,M,M,M,M,M,M,M,M,54.00,KVGT 091953Z 08004KT 10SM OVC070 12/02 A3006 RMK AO2 RAB07E21 SLP196 P0000 T01220022,M
LOL,2023-01-09 19:53,-118.5701,40.0684,1192.43,44.00,42.00,92.62,210.00,12.00,T,29.77,1008.50,10.00,M,BKN,OVC,M,M,2500.00,3300.00,M,M,-RA,M,M,M,M,M,M,37.40,KLOL 091953Z AUTO 21012KT 10SM -RA BKN025 OVC033 07/06 A2977 RMK AO2 SLP085 P0000 T00670056,M
BVU,2023-01-09 19:55,-114.8611,35.9475,671.00,59.00,30.20,33.35,160.00,15.00,0.00,30.07,M,10.00,M,CLR,M,M,M,M,M,M,M,M,M,M,M,M,M,M,59.00,KBVU 091955Z AUTO 16015KT 10SM CLR 15/M01 A3007 RMK AO2,M
CXP,2023-01-09 19:55,-119.7326,39.1923,1431.00,39.20,39.20,100.00,330.00,4.00,0.11,29.79,M,2.00,M,FEW,M,M,M,2500.00,M,M,M,RA BR,M,M,M,M,M,M,35.83,KCXP 091955Z AUTO 33004KT 2SM RA BR FEW025 04/04 A2979 RMK AO2 P0011,M
INS,2023-01-09 19:55,-115.6733,36.5872,955.00,47.00,35.20,63.10,90.00,11.00,0.00,30.00,1015.20,10.00,M,OVC,M,M,M,5500.00,M,M,M,M,M,M,M,M,M,M,41.55,KINS 091955Z AUTO 09011KT 10SM OVC055 08/02 A3000 RMK AO2 SLP152 T00840018 $,M
RNO,2023-01-09 19:55,-119.7711,39.4839,1341.00,41.00,39.00,92.52,180.00,3.00,0.14,29.79,1008.50,5.00,M,FEW,OVC,M,M,1400.00,3300.00,M,M,+RA BR,M,M,M,M,M,M,38.98,KRNO 091955Z 18003KT 5SM +RA BR FEW014 OVC033 05/04 A2979 RMK AO2 SLP085 P0014 T00500039,M
RTS,2023-01-09 19:55,-119.8764,39.6682,1539.00,37.40,35.60,93.14,260.00,6.00,0.09,29.80,M,3.00,M,FEW,M,M,M,2000.00,M,M,M,-RA,M,M,M,M,M,M,32.03,KRTS 091955Z AUTO 26006KT 3SM -RA FEW020 03/02 A2980 RMK AO2 P0009,M
05U,2023-01-09 19:55,-116.0051,39.6042,1811.23,41.00,32.00,70.08,180.00,7.00,0.00,29.86,M,10.00,13.00,FEW,FEW,M,M,4100.00,4800.00,M,M,M,M,M,M,M,M,M,35.75,K05U 091955Z AUTO 18007G13KT 10SM FEW041 FEW048 05/M00 A2986 RMK A01,M
MEV,2023-01-09 19:55,-119.7500,38.9963,1441.42,39.20,35.60,86.79,130.00,10.00,0.09,29.76,M,2.00,M,BKN,OVC,M,M,2700.00,3400.00,M,M,RA BR,M,M,M,M,M,M,32.00,KMEV 091955Z AUTO 13010KT 2SM RA BR BKN027 OVC034 04/02 A2976 RMK AO2 P0009 VIS 1 1/2V4,M
BAM,2023-01-09 19:55,-116.8743,40.5990,1382.36,42.80,39.20,86.99,0.00,0.00,0.00,29.78,M,10.00,M,SCT,OVC,M,M,3700.00,4800.00,M,M,M,M,M,M,M,M,M,42.80,KBAM 091955Z AUTO 00000KT 10SM SCT037 OVC048 06/04 A2978 RMK AO1,M
TMT,2023-01-09 19:55,-117.1971,39.4643,1749.34,39.60,32.00,74.00,210.00,15.00,0.00,29.79,M,10.00,18.00,OVC,M,M,M,5000.00,M,M,M,M,M,M,M,M,M,M,30.63,KTMT 091955Z AUTO 21015G18KT 10SM OVC050 04/00 A2979 RMK AO2 T00420000,M
LSV,2023-01-09 19:55,-115.0343,36.2362,570.00,55.00,36.50,49.77,70.00,10.00,0.00,30.05,1017.30,10.00,M,BKN,OVC,M,M,10000.00,18000.00,M,M,M,M,M,M,M,M,M,54.90,KLSV 091955Z COR AUTO 07010KT 10SM BKN100 OVC180 13/03 A3005 RMK AO2 SLP173 T01270025 $ COR 2004,M
EKO,2023-01-09 19:56,-115.7860,40.8242,1367.00,38.00,34.00,85.69,220.00,10.00,T,29.79,1009.80,10.00,M,FEW,OVC,M,M,3500.00,4700.00,M,M,-RA,M,M,M,M,M,M,30.37,KEKO 091956Z AUTO 22010KT 10SM -RA FEW035 OVC047 03/01 A2979 RMK AO2 SLP098 P0000 T00330011,M
NFL,2023-01-09 19:56,-118.7010,39.4166,1199.00,44.00,41.00,88.77,210.00,6.00,0.03,29.79,1006.50,5.00,M,BKN,OVC,M,M,4500.00,5500.00,M,M,-RA BR,M,M,M,M,M,M,40.10,KNFL 091956Z 21006KT 5SM -RA BR BKN045 OVC055 07/05 A2979 RMK AO2 SLP065 WR// P0003 T00670050,M
TPH,2023-01-09 19:56,-117.0904,38.0505,1654.00,39.00,37.00,92.45,160.00,16.00,T,29.91,1012.30,10.00,25.00,OVC,M,M,M,900.00,M,M,M,M,M,M,M,30.00,180.00,2023-01-09 19:12,29.54,KTPH 091956Z AUTO 16016G25KT 10SM OVC009 04/03 A2991 RMK AO2 PK WND 18030/1912 RAB22E33 CIG 006V012 SLP123 P0000 T00390028,M
LAS,2023-01-09 19:56,-115.1634,36.0719,663.00,53.00,37.00,54.21,20.00,4.00,0.00,30.07,1017.90,10.00,M,SCT,BKN,BKN,OVC,6500.00,8000.00,15000.00,20000.00,M,M,M,M,M,M,M,53.10,KLAS 091956Z 02004KT 10SM SCT065 BKN080 BKN150 OVC200 12/03 A3007 RMK AO2 SLP179 T01170028,M
WMC,2023-01-09 19:56,-117.8072,40.9019,1315.00,41.00,38.00,88.62,230.00,9.00,0.05,29.75,1007.40,10.00,M,BKN,OVC,M,M,2300.00,2900.00,M,M,-RA,M,M,M,M,M,M,34.70,KWMC 091956Z AUTO 23009KT 10SM -RA BKN023 OVC029 05/03 A2975 RMK AO2 SLP074 P0005 T00500033,M
HND,2023-01-09 19:56,-115.1344,35.9729,742.79,53.00,38.00,56.17,360.00,4.00,T,30.08,1020.20,10.00,M,SCT,BKN,M,M,7000.00,8000.00,M,M,M,M,M,M,M,M,M,53.10,KHND 091956Z 36004KT 10SM SCT070 BKN080 12/03 A3008 RMK AO2 RAB12E23 SLP202 P0000 T01170033,M
BVU,2023-01-09 20:15,-114.8611,35.9475,671.00,57.20,30.20,35.57,150.00,11.00,0.00,30.06,M,10.00,M,CLR,M,M,M,M,M,M,M,M,M,M,M,M,M,M,57.20,KBVU 092015Z AUTO 15011KT 10SM CLR 14/M01 A3006 RMK AO2,M
CXP,2023-01-09 20:15,-119.7326,39.1923,1431.00,41.00,39.20,93.24,0.00,0.00,0.00,29.81,M,1.00,M,SCT,SCT,M,M,1500.00,2600.00,M,M,RA BR,M,M,M,M,M,M,41.00,KCXP 092015Z AUTO 00000KT 1SM RA BR SCT015 SCT026 05/04 A2981 RMK AO2,M
RTS,2023-01-09 20:15,-119.8764,39.6682,1539.00,37.40,33.80,86.69,140.00,4.00,0.00,29.79,M,9.00,11.00,CLR,M,M,M,M,M,M,M,M,M,M,M,M,M,M,33.73,KRTS 092015Z AUTO 14004G11KT 9SM CLR 03/01 A2979 RMK AO2,M
05U,2023-01-09 20:15,-116.0051,39.6042,1811.23,41.00,32.00,70.08,180.00,9.00,0.00,29.85,M,10.00,M,FEW,M,M,M,4300.00,M,M,M,M,M,M,M,M,M,M,34.70,K05U 092015Z AUTO 18009KT 10SM FEW043 05/M00 A2985 RMK A01,M
MEV,2023-01-09 20:15,-119.7500,38.9963,1441.42,39.20,35.60,86.79,260.00,6.00,0.00,29.78,M,2.00,M,OVC,M,M,M,2600.00,M,M,M,RA BR,M,M,M,M,M,M,34.20,KMEV 092015Z AUTO 26006KT 2SM RA BR OVC026 04/02 A2978 RMK AO2,M
BAM,2023-01-09 20:15,-116.8743,40.5990,1382.36,42.80,39.20,86.99,170.00,4.00,0.00,29.78,M,10.00,M,BKN,OVC,M,M,5000.00,6000.00,M,M,M,M,M,M,M,M,M,40.03,KBAM 092015Z AUTO 17004KT 10SM BKN050 OVC060 06/04 A2978 RMK AO1,M
TMT,2023-01-09 20:15,-117.1971,39.4643,1749.34,39.00,32.00,75.75,240.00,9.00,0.00,29.80,M,10.00,M,OVC,M,M,M,5000.00,M,M,M,M,M,M,M,M,M,M,32.22,KTMT 092015Z AUTO 24009KT 10SM OVC050 04/00 A2980 RMK AO2 T00390000,M
TPH,2023-01-09 20:16,-117.0904,38.0505,1654.00,40.00,38.00,92.48,160.00,15.00,0.00,29.90,M,10.00,26.00,OVC,M,M,M,600.00,M,M,M,M,M,M,M,26.00,170.00,2023-01-09 20:07,31.02,KTPH 092016Z AUTO 16015G26KT 10SM OVC006 04/03 A2990 RMK AO2 PK WND 17026/2007 CIG 005V009 T00440033,M
LOL,2023-01-09 20:28,-118.5701,40.0684,1192.43,44.00,42.00,92.62,220.00,13.00,T,29.78,M,10.00,M,SCT,BKN,OVC,M,2200.00,5000.00,6000.00,M,-RA,M,M,M,M,M,M,37.07,KLOL 092028Z AUTO 22013KT 10SM -RA SCT022 BKN050 OVC060 07/06 A2978 RMK AO2 P0000 T00670056,M
WMC,2023-01-09 20:33,-117.8072,40.9019,1315.00,42.00,38.00,84.93,160.00,12.00,0.01,29.75,M,10.00,M,SCT,BKN,OVC,M,2300.00,3100.00,4000.00,M,-RA,M,M,M,M,M,M,34.86,KWMC 092033Z AUTO 16012KT 10SM -RA SCT023 BKN031 OVC040 06/03 A2975 RMK AO2 P0001 T00560033,M
BVU,2023-01-09 20:35,-114.8611,35.9475,671.00,59.00,30.20,33.35,150.00,13.00,0.00,30.05,M,10.00,M,FEW,M,M,M,11000.00,M,M,M,M,M,M,M,M,M,M,59.00,KBVU 092035Z AUTO 15013KT 10SM FEW110 15/M01 A3005 RMK AO2,M
CXP,2023-01-09 20:35,-119.7326,39.1923,1431.00,39.20,39.20,100.00,0.00,0.00,0.00,29.81,M,4.00,M,FEW,SCT,M,M,1300.00,2400.00,M,M,-RA BR,M,M,M,M,M,M,39.20,KCXP 092035Z AUTO 00000KT 4SM -RA BR FEW013 SCT024 04/04 A2981 RMK AO2,M
RTS,2023-01-09 20:35,-119.8764,39.6682,1539.00,37.40,33.80,86.69,0.00,0.00,0.00,29.78,M,10.00,M,CLR,M,M,M,M,M,M,M,M,M,M,M,M,M,M,37.40,KRTS 092035Z AUTO 00000KT 10SM CLR 03/01 A2978 RMK AO2,M
05U,2023-01-09 20:35,-116.0051,39.6042,1811.23,41.00,32.00,70.08,M,4.00,0.00,29.85,M,10.00,10.00,FEW,BKN,M,M,3700.00,4300.00,M,M,M,M,M,M,M,M,M,37.93,K05U 092035Z AUTO VRB04G10KT 10SM FEW037 BKN043 05/M00 A2985 RMK A01,M
MEV,2023-01-09 20:35,-119.7500,38.9963,1441.42,39.20,37.40,93.19,140.00,7.00,0.00,29.79,M,2.50,M,BKN,M,M,M,2600.00,M,M,M,-RA BR,M,M,M,M,M,M,33.56,KMEV 092035Z AUTO 14007KT 2 1/2SM -RA BR BKN026 04/03 A2979 RMK AO2 VIS 1 1/2V3,M
BAM,2023-01-09 20:35,-116.8743,40.5990,1382.36,41.00,39.20,93.24,170.00,6.00,0.00,29.78,M,10.00,M,OVC,M,M,M,5000.00,M,M,M,M,M,M,M,M,M,M,36.37,KBAM 092035Z AUTO 17006KT 10SM OVC050 05/04 A2978 RMK AO1,M
TMT,2023-01-09 20:35,-117.1971,39.4643,1749.34,39.00,32.20,76.36,240.00,10.00,0.00,29.81,M,10.00,M,OVC,M,M,M,4600.00,M,M,M,M,M,M,M,M,M,M,31.75,KTMT 092035Z AUTO 24010KT 10SM OVC046 04/00 A2981 RMK AO2 T00390001,M
05U,2023-01-09 20:50,-116.0051,39.6042,1811.23,41.00,32.00,70.08,170.00,6.00,0.00,29.85,M,10.00,15.00,BKN,M,M,M,4100.00,M,M,M,M,M,M,M,M,M,M,36.37,K05U 092050Z AUTO 17006G15KT 10SM BKN041 05/M00 A2985 RMK A01,M
P68,2023-01-09 20:53,-116.0056,39.6014,1993.00,40.00,30.90,69.96,160.00,8.00,0.00,29.83,1008.10,M,M,M,M,M,M,M,M,M,M,M,M,M,M,M,M,M,33.84,KP68 092053Z AUTO 16008KT 04/M01 A2983 RMK AO1 SLP081 T00441006 56016,M
ELY,2023-01-09 20:53,-114.8453,39.2950,1909.00,37.00,32.00,81.93,170.00,22.00,T,29.87,1011.00,9.00,33.00,BKN,OVC,M,M,3400.00,4300.00,M,M,-RA,M,M,M,35.00,180.00,2023-01-09 20:11,25.27,KELY 092053Z AUTO 17022G33KT 9SM -RA BKN034 OVC043 03/00 A2987 RMK AO2 PK WND 18035/2011 UPB32E36 SLP110 P0000 60000 T00280000 58021,M
VGT,2023-01-09 20:53,-115.1933,36.2111,667.00,55.00,36.00,48.62,30.00,5.00,T,30.03,1018.40,10.00,M,OVC,M,M,M,7000.00,M,M,M,-RA,M,M,M,M,M,M,55.00,KVGT 092053Z 03005KT 10SM -RA OVC070 13/02 A3003 RMK AO2 RAB40 SLP184 P0000 60000 T01280022 58029,M
LOL,2023-01-09 20:53,-118.5701,40.0684,1192.43,43.00,43.00,100.00,210.00,12.00,0.02,29.78,1009.10,4.00,M,BKN,OVC,M,M,4200.00,5000.00,M,M,RA BR,M,M,M,M,M,M,36.00,KLOL 092053Z AUTO 21012KT 4SM RA BR BKN042 OVC050 06/06 A2978 RMK AO2 SLP091 P0002 60003 T00610061 51012,M
DRA,2023-01-09 20:53,-116.0278,36.6206,1009.00,57.00,40.00,52.70,210.00,26.00,0.00,29.93,1011.70,10.00,38.00,BKN,M,M,M,4200.00,M,M,M,M,M,M,M,41.00,200.00,2023-01-09 20:22,57.00,KDRA 092053Z AUTO 21026G38KT 10SM BKN042 14/04 A2993 RMK AO2 PK WND 20041/2022 SLP117 T01390044 58035,M
TPH,2023-01-09 20:54,-117.0904,38.0505,1654.00,39.20,39.20,100.00,170.00,18.00,T,29.89,M,10.00,26.00,OVC,M,M,M,700.00,M,M,M,-RA,M,M,M,27.00,190.00,2023-01-09 20:34,29.23,KTPH 092054Z AUTO 17018G26KT 10SM -RA OVC007 04/04 A2989 RMK AO2 PK WND 19027/2034 RAB30 P0000,M
BVU,2023-01-09 20:55,-114.8611,35.9475,671.00,59.00,30.20,33.35,150.00,18.00,0.00,30.04,M,10.00,25.00,FEW,M,M,M,11000.00,M,M,M,M,M,M,M,M,M,M,59.00,KBVU 092055Z AUTO 15018G25KT 10SM FEW110 15/M01 A3004 RMK AO2,M
CXP,2023-01-09 20:55,-119.7326,39.1923,1431.00,39.20,37.40,93.19,110.00,7.00,0.13,29.80,M,9.00,M,FEW,SCT,BKN,M,1400.00,2500.00,3800.00,M,-RA,M,M,M,M,M,M,33.56,KCXP 092055Z AUTO 11007KT 090V150 9SM -RA FEW014 SCT025 BKN038 04/03 A2980 RMK AO2 P0013,M
INS,2023-01-09 20:55,-115.6733,36.5872,955.00,49.00,34.50,56.93,110.00,16.00,0.00,29.97,1014.20,10.00,27.00,OVC,M,M,M,5000.00,M,M,M,M,M,M,M,27.00,100.00,2023-01-09 20:48,42.71,KINS 092055Z AUTO 11016G27KT 10SM OVC050 10/01 A2997 RMK AO2 PK WND 10027/48 SLP142 T00950014 57028 $,M
RNO,2023-01-09 20:55,-119.7711,39.4839,1341.00,41.00,37.00,85.54,140.00,7.00,0.07,29.78,1008.10,10.00,M,FEW,BKN,OVC,M,2000.00,5000.00,8500.00,M,M,M,M,M,M,M,M,35.75,KRNO 092055Z 14007KT 10SM FEW020 BKN050 OVC085 05/03 A2978 RMK AO2 RAE37 SLP081 P0007 60038 T00500028 50011,M
RTS,2023-01-09 20:55,-119.8764,39.6682,1539.00,39.20,33.80,80.79,250.00,11.00,0.00,29.79,M,10.00,M,CLR,M,M,M,M,M,M,M,M,M,M,M,M,M,M,31.57,KRTS 092055Z AUTO 25011KT 10SM CLR 04/01 A2979 RMK AO2,M
MEV,2023-01-09 20:55,-119.7500,38.9963,1441.42,41.00,37.40,86.89,M,5.00,0.14,29.79,M,3.00,12.00,BKN,BKN,M,M,2600.00,3200.00,M,M,-RA BR,M,M,M,M,M,M,37.08,KMEV 092055Z AUTO VRB05G12KT 3SM -RA BR BKN026 BKN032 05/03 A2979 RMK AO2 P0014,M
BAM,2023-01-09 20:55,-116.8743,40.5990,1382.36,42.80,39.20,86.99,190.00,9.00,0.00,29.78,M,10.00,17.00,OVC,M,M,M,5000.00,M,M,M,M,M,M,M,M,M,M,36.94,KBAM 092055Z AUTO 19009G17KT 10SM OVC050 06/04 A2978 RMK AO1,M
TMT,2023-01-09 20:55,-117.1971,39.4643,1749.34,39.70,32.00,73.71,220.00,13.00,0.00,29.81,M,10.00,M,OVC,M,M,M,4600.00,M,M,M,M,M,M,M,M,M,M,31.43,KTMT 092055Z AUTO 22013KT 10SM OVC046 04/00 A2981 RMK AO2 T00430000,M
LSV,2023-01-09 20:55,-115.0343,36.2362,570.00,56.00,37.00,48.95,60.00,8.00,0.00,30.01,1015.90,10.00,M,BKN,OVC,M,M,10000.00,18000.00,M,M,M,M,M,M,M,M,M,55.90,KLSV 092055Z 06008KT 10SM BKN100 OVC180 13/03 A3001 RMK AO2A SLP159 T01330028 57029 $,M
NFL,2023-01-09 20:56,-118.7010,39.4166,1199.00,45.00,41.00,85.77,180.00,12.00,0.02,29.79,1006.50,7.00,M,BKN,OVC,M,M,4300.00,5500.00,M,M,-RA,M,M,M,M,M,M,38.55,KNFL 092056Z 18012KT 7SM -RA BKN043 OVC055 07/05 A2979 RMK AO2 SLP065 WR// P0002 60010 T00720050 51014,M
LAS,2023-01-09 20:56,-115.1634,36.0719,663.00,54.00,37.00,52.45,360.00,5.00,T,30.03,1016.80,10.00,M,SCT,BKN,OVC,M,6500.00,7500.00,15000.00,M,-RA,M,M,M,M,M,M,54.00,KLAS 092056Z 36005KT 10SM -RA SCT065 BKN075 OVC150 12/03 A3003 RMK AO2 RAB53 SLP168 P0000 60000 T01220028 58029,M
HND,2023-01-09 20:56,-115.1344,35.9729,742.79,54.00,38.00,54.34,320.00,7.00,0.00,30.04,1019.00,10.00,M,FEW,SCT,OVC,M,4800.00,6000.00,7500.00,M,M,M,M,M,M,M,M,54.00,KHND 092056Z 32007KT 10SM FEW048 SCT060 OVC075 12/03 A3004 RMK AO2 SLP190 60000 T01220033 58029,M
WMC,2023-01-09 20:56,-117.8072,40.9019,1315.00,42.00,39.00,88.67,200.00,9.00,0.01,29.76,1007.60,10.00,M,BKN,BKN,OVC,M,2000.00,3300.00,4200.00,M,-RA,M,M,M,M,M,M,36.07,KWMC 092056Z AUTO 20009KT 10SM -RA BKN020 BKN033 OVC042 06/04 A2976 RMK AO2 SLP076 P0001 60011 T00560039 53006,M
EKO,2023-01-09 20:56,-115.7860,40.8242,1367.00,40.00,35.00,82.80,200.00,10.00,0.01,29.79,1009.80,10.00,M,OVC,M,M,M,3700.00,M,M,M,-RA,M,M,M,M,M,M,32.87,KEKO 092056Z AUTO 20010KT 10SM -RA OVC037 04/02 A2979 RMK AO2 RAE1959B24 SLP098 P0001 60005 T00440017 56018,M
TPH,2023-01-09 20:56,-117.0904,38.0505,1654.00,40.00,38.00,92.48,170.00,18.00,T,29.89,1011.30,10.00,26.00,OVC,M,M,M,700.00,M,M,M,M,M,M,M,27.00,190.00,2023-01-09 20:34,30.15,KTPH 092056Z AUTO 17018G26KT 10SM OVC007 04/03 A2989 RMK AO2 PK WND 19027/2034 RAB30E55 CIG 005V010 SLP113 P0000 60000 T00440033 56015,M
05U,2023-01-09 21:10,-116.0051,39.6042,1811.23,41.00,32.00,70.08,130.00,9.00,0.00,29.85,M,10.00,M,BKN,BKN,M,M,3500.00,4300.00,M,M,M,M,M,M,M,M,M,34.70,K05U 092110Z AUTO 13009KT 10SM BKN035 BKN043 05/M00 A2985 RMK A01,M
BVU,2023-01-09 21:15,-114.8611,35.9475,671.00,59.00,30.20,33.35,160.00,15.00,0.00,30.03,M,10.00,M,FEW,M,M,M,8500.00,M,M,M,M,M,M,M,M,M,M,59.00,KBVU 092115Z AUTO 16015KT 10SM FEW085 15/M01 A3003 RMK AO2,M
CXP,2023-01-09 21:15,-119.7326,39.1923,1431.00,39.20,37.40,93.19,60.00,4.00,0.00,29.81,M,10.00,M,FEW,SCT,BKN,M,1400.00,3800.00,4600.00,M,M,M,M,M,M,M,M,35.83,KCXP 092115Z AUTO 06004KT 10SM FEW014 SCT038 BKN046 04/03 A2981 RMK AO2,M
RTS,2023-01-09 21:15,-119.8764,39.6682,1539.00,39.20,32.00,75.16,270.00,16.00,0.00,29.80,M,10.00,23.00,CLR,M,M,M,M,M,M,M,M,M,M,M,M,M,M,29.80,KRTS 092115Z AUTO 27016G23KT 10SM CLR 04/00 A2980 RMK AO2,M
MEV,2023-01-09 21:15,-119.7500,38.9963,1441.42,39.20,37.40,93.19,50.00,5.00,0.00,29.79,M,10.00,M,FEW,FEW,SCT,M,2600.00,3200.00,4600.00,M,-RA,M,M,M,M,M,M,34.95,KMEV 092115Z AUTO 05005KT 10SM -RA FEW026 FEW032 SCT046 04/03 A2979 RMK AO2,M
BAM,2023-01-09 21:15,-116.8743,40.5990,1382.36,42.80,41.00,93.30,200.00,4.00,0.00,29.78,M,10.00,M,OVC,M,M,M,6000.00,M,M,M,M,M,M,M,M,M,M,40.03,KBAM 092115Z AUTO 20004KT 10SM OVC060 06/05 A2978 RMK AO1,M
TMT,2023-01-09 21:15,-117.1971,39.4643,1749.34,38.30,33.00,81.37,240.00,9.00,0.00,29.83,M,10.00,M,OVC,M,M,M,4600.00,M,M,M,M,M,M,M,M,M,M,31.35,KTMT 092115Z AUTO 24009KT 10SM OVC046 04/01 A2983 RMK AO2 T00350006,M
05U,2023-01-09 21:30,-116.0051,39.6042,1811.23,41.00,32.00,70.08,130.00,13.00,0.00,29.84,M,10.00,M,OVC,M,M,M,3400.00,M,M,M,M,M,M,M,M,M,M,33.10,K05U 092130Z AUTO 13013KT 10SM OVC034 05/00 A2984 RMK A01,M
ELY,2023-01-09 21:34,-114.8453,39.2950,1909.00,38.00,32.00,79.08,170.00,23.00,T,29.87,M,10.00,33.00,BKN,OVC,M,M,2900.00,3900.00,M,M,-RA,M,M,M,37.00,180.00,2023-01-09 21:22,26.24,KELY 092134Z AUTO 17023G33KT 10SM -RA BKN029 OVC039 03/00 A2987 RMK AO2 PK WND 18037/2122 P0000 T00330000,M
BVU,2023-01-09 21:35,-114.8611,35.9475,671.00,59.00,28.40,30.98,150.00,15.00,0.00,30.02,M,10.00,22.00,FEW,M,M,M,8000.00,M,M,M,M,M,M,M,M,M,M,59.00,KBVU 092135Z AUTO 15015G22KT 10SM FEW080 15/M02 A3002 RMK AO2,M
CXP,2023-01-09 21:35,-119.7326,39.1923,1431.00,39.20,39.20,100.00,130.00,4.00,0.00,29.81,M,10.00,M,BKN,BKN,OVC,M,3900.00,4700.00,6000.00,M,M,M,M,M,M,M,M,35.83,KCXP 092135Z AUTO 13004KT 10SM BKN039 BKN047 OVC060 04/04 A2981 RMK AO2,M
RTS,2023-01-09 21:35,-119.8764,39.6682,1539.00,39.20,32.00,75.16,240.00,12.00,0.00,29.80,M,10.00,M,CLR,M,M,M,M,M,M,M,M,M,M,M,M,M,M,31.17,KRTS 092135Z AUTO 24012KT 10SM CLR 04/00 A2980 RMK AO2,M
MEV,2023-01-09 21:35,-119.7500,38.9963,1441.42,39.20,35.60,86.79,20.00,5.00,0.00,29.79,M,8.00,M,FEW,FEW,FEW,M,2500.00,3100.00,3800.00,M,-RA,M,M,M,M,M,M,34.95,KMEV 092135Z AUTO 02005KT 8SM -RA FEW025 FEW031 FEW038 04/02 A2979 RMK AO2,M
BAM,2023-01-09 21:35,-116.8743,40.5990,1382.36,42.80,41.00,93.30,240.00,11.00,0.00,29.80,M,10.00,16.00,SCT,SCT,OVC,M,3500.00,4200.00,6000.00,M,M,M,M,M,M,M,M,36.11,KBAM 092135Z AUTO 24011G16KT 10SM SCT035 SCT042 OVC060 06/05 A2980 RMK AO1,M
TMT,2023-01-09 21:35,-117.1971,39.4643,1749.34,37.60,33.40,84.65,260.00,10.00,0.00,29.83,M,10.00,M,BKN,OVC,M,M,4200.00,4800.00,M,M,M,M,M,M,M,M,M,29.99,KTMT 092135Z AUTO 26010KT 10SM BKN042 OVC048 03/01 A2983 RMK AO2 T00310008,M
05U,2023-01-09 21:50,-116.0051,39.6042,1811.23,41.00,32.00,70.08,140.00,16.00,0.00,29.85,M,10.00,M,OVC,M,M,M,3300.00,M,M,M,M,M,M,M,M,M,M,32.15,K05U 092150Z AUTO 14016KT 10SM OVC033 05/00 A2985 RMK A01,M
P68,2023-01-09 21:53,-116.0056,39.6014,1993.00,39.00,32.00,75.75,140.00,15.00,0.00,29.83,1008.40,M,23.00,M,M,M,M,M,M,M,M,M,M,M,M,M,M,M,29.85,KP68 092153Z AUTO 14015G23KT 04/00 A2983 RMK AO1 SLP084 T00390000,M
DRA,2023-01-09 21:53,-116.0278,36.6206,1009.00,57.00,41.00,54.99,200.00,22.00,0.00,29.90,1010.90,10.00,34.00,OVC,M,M,M,4400.00,M,M,M,M,M,M,M,40.00,220.00,2023-01-09 21:25,57.00,KDRA 092153Z AUTO 20022G34KT 10SM OVC044 14/05 A2990 RMK AO2 PK WND 22040/2125 SLP109 T01390050,M
ELY,2023-01-09 21:53,-114.8453,39.2950,1909.00,39.00,30.90,72.45,170.00,23.00,T,29.86,1010.10,10.00,36.00,SCT,OVC,M,M,2900.00,3900.00,M,M,M,M,M,M,37.00,180.00,2023-01-09 21:22,27.72,KELY 092153Z AUTO 17023G36KT 10SM SCT029 OVC039 04/M01 A2986 RMK AO2 PK WND 18037/2122 RAE40 SLP101 P0000 T00391006,M
LOL,2023-01-09 21:53,-118.5701,40.0684,1192.43,44.00,43.00,95.88,210.00,9.00,0.01,29.79,1009.30,10.00,M,SCT,BKN,M,M,3900.00,4900.00,M,M,M,M,M,M,M,M,M,38.56,KLOL 092153Z AUTO 21009KT 10SM SCT039 BKN049 07/06 A2979 RMK AO2 RAE23 SLP093 P0001 T00670061,M
VGT,2023-01-09 21:53,-115.1933,36.2111,667.00,56.00,35.00,45.40,40.00,5.00,T,30.00,1017.30,10.00,M,OVC,M,M,M,7000.00,M,M,M,M,M,M,M,M,M,M,55.90,KVGT 092153Z 04005KT 10SM OVC070 13/02 A3000 RMK AO2 RAE37 SLP173 P0000 T01330017,M
BVU,2023-01-09 21:55,-114.8611,35.9475,671.00,59.00,30.20,33.35,160.00,14.00,0.00,30.02,M,10.00,19.00,CLR,M,M,M,M,M,M,M,M,M,M,M,M,M,M,59.00,KBVU 092155Z AUTO 16014G19KT 10SM CLR 15/M01 A3002 RMK AO2,M
CXP,2023-01-09 21:55,-119.7326,39.1923,1431.00,41.00,35.60,80.93,160.00,7.00,0.00,29.81,M,10.00,16.00,FEW,SCT,SCT,M,3800.00,4800.00,5500.00,M,M,M,M,M,M,M,M,35.75,KCXP 092155Z AUTO 16007G16KT 10SM FEW038 SCT048 SCT055 05/02 A2981 RMK AO2,M
RNO,2023-01-09 21:55,-119.7711,39.4839,1341.00,43.00,37.00,79.19,0.00,0.00,0.00,29.80,1008.00,10.00,M,SCT,OVC,M,M,3700.00,8000.00,M,M,M,M,M,M,M,M,M,43.00,KRNO 092155Z 00000KT 10SM SCT037 OVC080 06/03 A2980 RMK AO2 SLP080 T00610028,M
RTS,2023-01-09 21:55,-119.8764,39.6682,1539.00,39.20,32.00,75.16,250.00,7.00,0.00,29.81,M,10.00,12.00,CLR,M,M,M,M,M,M,M,M,M,M,M,M,M,M,33.56,KRTS 092155Z AUTO 25007G12KT 10SM CLR 04/00 A2981 RMK AO2,M
MEV,2023-01-09 21:55,-119.7500,38.9963,1441.42,41.00,33.80,75.33,280.00,11.00,0.01,29.79,M,9.00,M,FEW,FEW,SCT,M,2200.00,2900.00,5500.00,M,-RA,M,M,M,M,M,M,33.84,KMEV 092155Z AUTO 28011KT 9SM -RA FEW022 FEW029 SCT055 05/01 A2979 RMK AO2 P0001,M
BAM,2023-01-09 21:55,-116.8743,40.5990,1382.36,42.80,41.00,93.30,240.00,7.00,0.00,29.80,M,5.00,16.00,BKN,OVC,M,M,4800.00,5500.00,M,M,M,M,M,M,M,M,M,37.94,KBAM 092155Z AUTO 24007G16KT 5SM BKN048 OVC055 06/05 A2980 RMK AO1,M
TMT,2023-01-09 21:55,-117.1971,39.4643,1749.34,37.40,33.80,86.69,260.00,12.00,0.00,29.85,M,10.00,M,BKN,OVC,M,M,3700.00,4500.00,M,M,-RA,M,M,M,M,M,M,28.87,KTMT 092155Z AUTO 26012KT 10SM -RA BKN037 OVC045 03/01 A2985 RMK AO2 T00300010,M
INS,2023-01-09 21:55,-115.6733,36.5872,955.00,50.00,35.00,55.94,90.00,18.00,0.00,29.94,1012.90,10.00,M,BKN,OVC,M,M,5500.00,7000.00,M,M,M,M,M,M,29.00,100.00,2023-01-09 21:33,50.00,KINS 092155Z AUTO 09018KT 10SM BKN055 OVC070 10/02 A2994 RMK AO2 PK WND 10029/33 SLP129 T01000016 $,M
LSV,2023-01-09 21:55,-115.0343,36.2362,570.00,57.60,37.00,45.85,60.00,8.00,0.00,29.98,1014.90,10.00,M,BKN,M,M,M,10000.00,M,M,M,M,M,M,M,M,M,M,57.60,KLSV 092155Z 06008KT 10SM BKN100 14/03 A2998 RMK AO2A SLP149 T01420027 $,M
WMC,2023-01-09 21:56,-117.8072,40.9019,1315.00,43.00,40.00,88.71,160.00,12.00,0.02,29.77,1007.80,10.00,M,OVC,M,M,M,2000.00,M,M,M,-RA,M,M,M,M,M,M,36.00,KWMC 092156Z AUTO 16012KT 10SM -RA OVC020 06/04 A2977 RMK AO2 SLP078 P0002 T00610044,M
NFL,2023-01-09 21:56,-118.7010,39.4166,1199.00,45.00,42.00,89.49,180.00,9.00,0.03,29.80,1006.90,10.00,M,BKN,OVC,M,M,3700.00,7000.00,M,M,-RA,M,M,M,M,M,M,39.68,KNFL 092156Z 18009KT 10SM -RA BKN037 OVC070 07/06 A2980 RMK AO2 SLP069 WR// P0003 T00720056,M
HND,2023-01-09 21:56,-115.1344,35.9729,742.79,54.00,40.00,58.76,330.00,3.00,T,30.02,1018.10,10.00,M,FEW,OVC,M,M,6500.00,7500.00,M,M,-RA,M,M,M,M,M,M,54.00,KHND 092156Z 33003KT 10SM -RA FEW065 OVC075 12/04 A3002 RMK AO2 RAB15 SLP181 P0000 T01220044,M
LAS,2023-01-09 21:56,-115.1634,36.0719,663.00,54.00,38.00,54.34,300.00,5.00,T,30.00,1015.70,10.00,M,SCT,BKN,OVC,M,6500.00,7500.00,15000.00,M,-RA,M,M,M,M,M,M,54.00,KLAS 092156Z 30005KT 10SM -RA SCT065 BKN075 OVC150 12/03 A3000 RMK AO2 SLP157 P0000 T01220033,M
TPH,2023-01-09 21:56,-117.0904,38.0505,1654.00,40.00,39.00,96.55,170.00,15.00,0.01,29.89,1011.40,6.00,M,OVC,M,M,M,800.00,M,M,M,-RA BR,M,M,M,M,M,M,31.02,KTPH 092156Z AUTO 17015KT 6SM -RA BR OVC008 04/04 A2989 RMK AO2 RAB25 SLP114 P0001 T00440039,M
EKO,2023-01-09 21:56,-115.7860,40.8242,1367.00,38.00,35.00,89.53,240.00,6.00,0.03,29.80,1010.10,9.00,M,OVC,M,M,M,3100.00,M,M,M,-RA,M,M,M,M,M,M,32.64,KEKO 092156Z AUTO 24006KT 9SM -RA OVC031 03/02 A2980 RMK AO2 SLP101 P0003 T00330017,M
05U,2023-01-09 22:10,-116.0051,39.6042,1811.23,41.00,32.00,70.08,140.00,11.00,0.00,29.85,M,10.00,18.00,OVC,M,M,M,3100.00,M,M,M,M,M,M,M,M,M,M,33.84,K05U 092210Z AUTO 14011G18KT 10SM OVC031 05/00 A2985 RMK A01,M
TPH,2023-01-09 22:11,-117.0904,38.0505,1654.00,40.00,39.00,96.55,170.00,12.00,0.01,29.88,M,2.00,22.00,OVC,M,M,M,800.00,M,M,M,-RA BR,M,M,M,M,M,M,32.06,KTPH 092211Z AUTO 17012G22KT 2SM -RA BR OVC008 04/04 A2988 RMK AO2 P0001 T00440039,M
BVU,2023-01-09 22:15,-114.8611,35.9475,671.00,57.20,30.20,35.57,160.00,14.00,0.00,30.02,M,10.00,19.00,FEW,M,M,M,8500.00,M,M,M,M,M,M,M,M,M,M,57.20,KBVU 092215Z AUTO 16014G19KT 10SM FEW085 14/M01 A3002 RMK AO2,M
CXP,2023-01-09 22:15,-119.7326,39.1923,1431.00,41.00,35.60,80.93,0.00,0.00,0.00,29.81,M,10.00,M,CLR,M,M,M,M,M,M,M,M,M,M,M,M,M,M,41.00,KCXP 092215Z AUTO 00000KT 10SM CLR 05/02 A2981 RMK AO2,M
RTS,2023-01-09 22:15,-119.8764,39.6682,1539.00,39.20,33.80,80.79,0.00,0.00,0.00,29.81,M,10.00,M,CLR,M,M,M,M,M,M,M,M,M,M,M,M,M,M,39.20,KRTS 092215Z AUTO 00000KT 10SM CLR 04/01 A2981 RMK AO2,M
MEV,2023-01-09 22:15,-119.7500,38.9963,1441.42,39.20,35.60,86.79,350.00,9.00,0.00,29.78,M,10.00,M,FEW,SCT,SCT,M,3100.00,6000.00,7000.00,M,M,M,M,M,M,M,M,32.47,KMEV 092215Z AUTO 35009KT 10SM FEW031 SCT060 SCT070 04/02 A2978 RMK AO2,M
BAM,2023-01-09 22:15,-116.8743,40.5990,1382.36,42.80,41.00,93.30,0.00,0.00,0.00,29.80,M,10.00,M,SCT,BKN,OVC,M,2800.00,4400.00,9500.00,M,M,M,M,M,M,M,M,42.80,KBAM 092215Z AUTO 00000KT 10SM SCT028 BKN044 OVC095 06/05 A2980 RMK AO1,M
TMT,2023-01-09 22:15,-117.1971,39.4643,1749.34,36.00,34.00,91.99,240.00,11.00,0.00,29.86,M,7.00,M,BKN,OVC,M,M,3400.00,4000.00,M,M,DZ,M,M,M,M,M,M,27.65,KTMT 092215Z AUTO 24011KT 7SM DZ BKN034 OVC040 02/01 A2986 RMK AO2 T00230011,M
EKO,2023-01-09 22:16,-115.7860,40.8242,1367.00,38.00,35.00,89.53,230.00,7.00,0.01,29.81,M,6.00,M,BKN,OVC,M,M,2900.00,3600.00,M,M,RA BR,M,M,M,M,M,M,31.97,KEKO 092216Z AUTO 23007KT 6SM RA BR BKN029 OVC036 03/02 A2981 RMK AO2 P0001 T00330017,M
CXP,2023-01-09 22:35,-119.7326,39.1923,1431.00,42.80,32.00,65.38,M,6.00,0.00,29.81,M,10.00,M,CLR,M,M,M,M,M,M,M,M,M,M,M,M,M,M,38.54,KCXP 092235Z AUTO VRB06KT 10SM CLR 06/00 A2981 RMK AO2,M
BVU,2023-01-09 22:35,-114.8611,35.9475,671.00,57.20,30.20,35.57,180.00,15.00,0.00,30.01,M,10.00,M,FEW,M,M,M,8500.00,M,M,M,M,M,M,M,M,M,M,57.20,KBVU 092235Z AUTO 18015KT 10SM FEW085 14/M01 A3001 RMK AO2,M
RTS,2023-01-09 22:35,-119.8764,39.6682,1539.00,41.00,30.20,65.16,280.00,5.00,0.00,29.81,M,10.00,M,SCT,SCT,M,M,3600.00,4300.00,M,M,M,M,M,M,M,M,M,37.08,KRTS 092235Z AUTO 28005KT 10SM SCT036 SCT043 05/M01 A2981 RMK AO2,M
05U,2023-01-09 22:35,-116.0051,39.6042,1811.23,39.20,32.00,75.16,140.00,12.00,0.00,29.86,M,10.00,M,OVC,M,M,M,2800.00,M,M,M,M,M,M,M,M,M,M,31.17,K05U 092235Z AUTO 14012KT 10SM OVC028 04/00 A2986 RMK A01,M
MEV,2023-01-09 22:35,-119.7500,38.9963,1441.42,41.00,35.60,80.93,0.00,0.00,0.00,29.79,M,10.00,M,SCT,BKN,BKN,M,4100.00,5500.00,6500.00,M,M,M,M,M,M,M,M,41.00,KMEV 092235Z AUTO 00000KT 10SM SCT041 BKN055 BKN065 05/02 A2979 RMK AO2,M
BAM,2023-01-09 22:35,-116.8743,40.5990,1382.36,42.80,41.00,93.30,280.00,3.00,0.00,29.81,M,10.00,M,SCT,SCT,OVC,M,2000.00,2900.00,9500.00,M,M,M,M,M,M,M,M,41.03,KBAM 092235Z AUTO 28003KT 10SM SCT020 SCT029 OVC095 06/05 A2981 RMK AO1,M
TMT,2023-01-09 22:35,-117.1971,39.4643,1749.34,36.00,34.00,92.35,230.00,12.00,0.00,29.86,M,5.00,M,BKN,BKN,OVC,M,2800.00,3500.00,4100.00,M,-RA,M,M,M,M,M,M,27.09,KTMT 092235Z AUTO 23012KT 5SM -RA BKN028 BKN035 OVC041 02/01 A2986 RMK AO2 LTG DSNT S T00220011,M
TPH,2023-01-09 22:38,-117.0904,38.0505,1654.00,40.00,39.00,96.55,170.00,12.00,0.03,29.88,M,3.00,M,BKN,OVC,M,M,700.00,1200.00,M,M,-RA BR,M,M,M,M,M,M,32.06,KTPH 092238Z AUTO 17012KT 3SM -RA BR BKN007 OVC012 04/04 A2988 RMK AO2 P0003 T00440039,M
05U,2023-01-09 22:50,-116.0051,39.6042,1811.23,39.20,32.00,75.16,130.00,13.00,0.00,29.86,M,10.00,M,OVC,M,M,M,2900.00,M,M,M,M,M,M,M,M,M,M,30.79,K05U 092250Z AUTO 13013KT 10SM OVC029 04/00 A2986 RMK A01,M
P68,2023-01-09 22:53,-116.0056,39.6014,1993.00,39.00,32.00,75.75,130.00,12.00,0.00,29.84,1008.80,M,M,M,M,M,M,M,M,M,M,M,M,M,M,M,M,M,30.91,KP68 092253Z AUTO 13012KT 04/00 A2984 RMK AO1 SLP088 T00390000,M
DRA,2023-01-09 22:53,-116.0278,36.6206,1009.00,57.00,41.00,54.99,190.00,23.00,0.00,29.89,1010.40,10.00,38.00,SCT,BKN,M,M,4600.00,7000.00,M,M,M,M,M,M,40.00,190.00,2023-01-09 22:39,57.00,KDRA 092253Z AUTO 19023G38KT 10SM SCT046 BKN070 14/05 A2989 RMK AO2 PK WND 19040/2239 SLP104 T01390050,M
ELY,2023-01-09 22:53,-114.8453,39.2950,1909.00,38.00,32.00,79.08,160.00,24.00,0.00,29.87,1010.20,10.00,34.00,BKN,BKN,OVC,M,3300.00,4000.00,9000.00,M,M,M,M,M,41.00,160.00,2023-01-09 22:08,26.02,KELY 092253Z AUTO 16024G34KT 10SM BKN033 BKN040 OVC090 03/00 A2987 RMK AO2 PK WND 16041/2208 SLP102 T00330000,M
LOL,2023-01-09 22:53,-118.5701,40.0684,1192.43,45.00,43.00,92.65,180.00,3.00,0.00,29.79,1009.50,10.00,M,FEW,M,M,M,2300.00,M,M,M,M,M,M,M,M,M,M,43.55,KLOL 092253Z AUTO 18003KT 10SM FEW023 07/06 A2979 RMK AO2 SLP095 T00720061,M
VGT,2023-01-09 22:53,-115.1933,36.2111,667.00,57.00,35.00,43.63,40.00,7.00,0.00,29.98,1016.80,10.00,M,OVC,M,M,M,6000.00,M,M,M,M,M,M,M,M,M,M,57.00,KVGT 092253Z 04007KT 10SM OVC060 14/02 A2998 RMK AO2 SLP168 T01390017,M
BVU,2023-01-09 22:55,-114.8611,35.9475,671.00,59.00,30.20,33.35,160.00,14.00,0.00,30.01,M,10.00,M,CLR,M,M,M,M,M,M,M,M,M,M,M,M,M,M,59.00,KBVU 092255Z AUTO 16014KT 10SM CLR 15/M01 A3001 RMK AO2,M
CXP,2023-01-09 22:55,-119.7326,39.1923,1431.00,42.80,28.40,56.48,260.00,7.00,0.00,29.82,M,10.00,M,CLR,M,M,M,M,M,M,M,M,M,M,M,M,M,M,37.94,KCXP 092255Z AUTO 26007KT 10SM CLR 06/M02 A2982 RMK AO2,M
INS,2023-01-09 22:55,-115.6733,36.5872,955.00,49.80,35.60,57.95,100.00,20.00,0.00,29.92,1012.20,10.00,25.00,BKN,OVC,M,M,5500.00,9000.00,M,M,M,M,M,M,29.00,100.00,2023-01-09 22:54,42.78,KINS 092255Z AUTO 10020G25KT 10SM BKN055 OVC090 10/02 A2992 RMK AO2 PK WND 10029/54 SLP122 T00990020 $,M
RNO,2023-01-09 22:55,-119.7711,39.4839,1341.00,44.00,37.00,75.93,90.00,4.00,0.00,29.78,1007.60,10.00,M,SCT,SCT,OVC,M,5000.00,11000.00,19000.00,M,M,M,M,M,M,M,M,41.55,KRNO 092255Z 09004KT 10SM SCT050 SCT110 OVC190 07/03 A2978 RMK AO2 SLP076 T00670028,M
RTS,2023-01-09 22:55,-119.8764,39.6682,1539.00,39.20,30.20,69.88,230.00,4.00,0.00,29.81,M,10.00,M,SCT,SCT,M,M,3800.00,4600.00,M,M,M,M,M,M,M,M,M,35.83,KRTS 092255Z AUTO 23004KT 10SM SCT038 SCT046 04/M01 A2981 RMK AO2,M
MEV,2023-01-09 22:55,-119.7500,38.9963,1441.42,41.00,35.60,80.93,70.00,4.00,0.00,29.79,M,10.00,M,SCT,BKN,OVC,M,4400.00,4900.00,5500.00,M,M,M,M,M,M,M,M,37.93,KMEV 092255Z AUTO 07004KT 10SM SCT044 BKN049 OVC055 05/02 A2979 RMK AO2,M
BAM,2023-01-09 22:55,-116.8743,40.5990,1382.36,44.60,41.00,87.09,310.00,4.00,0.00,29.81,M,10.00,M,SCT,SCT,OVC,M,2000.00,3200.00,11000.00,M,M,M,M,M,M,M,M,42.13,KBAM 092255Z AUTO 31004KT 10SM SCT020 SCT032 OVC110 07/05 A2981 RMK AO1,M
LSV,2023-01-09 22:55,-115.0343,36.2362,570.00,59.40,34.30,38.77,90.00,6.00,0.00,29.97,1014.40,10.00,M,BKN,M,M,M,6000.00,M,M,M,M,M,M,M,M,M,M,59.40,KLSV 092255Z AUTO 09006KT 10SM BKN060 15/01 A2997 RMK AO2 SLP144 T01520013 $,M
TMT,2023-01-09 22:55,-117.1971,39.4643,1749.34,35.60,34.00,93.83,230.00,9.00,0.00,29.87,M,7.00,M,BKN,OVC,M,M,2600.00,3700.00,M,M,DZ,M,M,M,M,M,M,27.99,KTMT 092255Z AUTO 23009KT 7SM DZ BKN026 OVC037 02/01 A2987 RMK AO2 T00200011,M
EKO,2023-01-09 22:56,-115.7860,40.8242,1367.00,38.00,36.00,92.78,220.00,6.00,0.07,29.83,1011.30,3.00,M,BKN,OVC,M,M,2500.00,3200.00,M,M,RA BR,M,M,M,M,M,M,32.64,KEKO 092256Z AUTO 22006KT 3SM RA BR BKN025 OVC032 03/02 A2983 RMK AO2 SLP113 P0007 T00330022,M
TPH,2023-01-09 22:56,-117.0904,38.0505,1654.00,40.00,39.00,96.55,170.00,12.00,0.05,29.89,1011.50,3.00,M,BKN,OVC,M,M,900.00,1300.00,M,M,-RA BR,M,M,M,M,M,M,32.06,KTPH 092256Z AUTO 17012KT 3SM -RA BR BKN009 OVC013 04/04 A2989 RMK AO2 SLP115 P0005 T00440039,M
LAS,2023-01-09 22:56,-115.1634,36.0719,663.00,54.00,37.00,52.45,300.00,6.00,T,29.99,1015.20,10.00,M,SCT,BKN,BKN,OVC,6000.00,7000.00,10000.00,15000.00,M,M,M,M,M,M,M,54.00,KLAS 092256Z 30006KT 10SM SCT060 BKN070 BKN100 OVC150 12/03 A2999 RMK AO2 RAE46 SLP152 VCSH W-N P0000 T01220028,M
NFL,2023-01-09 22:56,-118.7010,39.4166,1199.00,45.00,42.00,89.49,200.00,10.00,T,29.79,1006.70,10.00,M,BKN,OVC,M,M,3000.00,7000.00,M,M,M,M,M,M,M,M,M,39.27,KNFL 092256Z 20010KT 10SM BKN030 OVC070 07/06 A2979 RMK AO2 RAE2158 SLP067 WR// P0000 T00720056,M
HND,2023-01-09 22:56,-115.1344,35.9729,742.79,54.00,40.00,58.76,310.00,4.00,T,30.01,1017.80,10.00,M,BKN,M,M,M,8000.00,M,M,M,M,M,M,M,M,M,M,54.00,KHND 092256Z 31004KT 10SM BKN080 12/04 A3001 RMK AO2 RAE30 SLP178 P0000 T01220044,M
WMC,2023-01-09 22:56,-117.8072,40.9019,1315.00,44.00,40.00,85.06,160.00,9.00,T,29.78,1008.10,10.00,M,SCT,BKN,M,M,2100.00,9000.00,M,M,M,M,M,M,M,M,M,38.56,KWMC 092256Z AUTO 16009KT 10SM SCT021 BKN090 07/04 A2978 RMK AO2 RAE10 SLP081 P0000 T00670044,M
CXP,2023-01-09 23:10,-119.7326,39.1923,1431.00,42.80,24.80,48.67,260.00,6.00,0.00,29.82,M,10.00,12.00,CLR,M,M,M,M,M,M,M,M,M,M,M,M,M,M,38.54,KCXP 092310Z AUTO 26006G12KT 10SM CLR 06/M04 A2982 RMK AO2,M
BVU,2023-01-09 23:15,-114.8611,35.9475,671.00,57.20,30.20,35.57,170.00,13.00,0.00,30.02,M,10.00,20.00,CLR,M,M,M,M,M,M,M,M,M,M,M,M,M,M,57.20,KBVU 092315Z AUTO 17013G20KT 10SM CLR 14/M01 A3002 RMK AO2,M
RTS,2023-01-09 23:15,-119.8764,39.6682,1539.00,39.20,32.00,75.16,160.00,4.00,0.00,29.82,M,10.00,M,CLR,M,M,M,M,M,M,M,M,M,M,M,M,M,M,35.83,KRTS 092315Z AUTO 16004KT 10SM CLR 04/M00 A2982 RMK AO2,M
05U,2023-01-09 23:15,-116.0051,39.6042,1811.23,41.00,32.00,70.08,M,5.00,0.00,29.87,M,10.00,13.00,SCT,BKN,BKN,M,3000.00,3500.00,4200.00,M,M,M,M,M,M,M,M,37.08,K05U 092315Z AUTO VRB05G13KT 10SM SCT030 BKN035 BKN042 05/00 A2987 RMK A01,M
MEV,2023-01-09 23:15,-119.7500,38.9963,1441.42,39.20,35.60,86.79,80.00,5.00,0.00,29.79,M,10.00,M,BKN,BKN,M,M,4500.00,5500.00,M,M,M,M,M,M,M,M,M,34.95,KMEV 092315Z AUTO 08005KT 10SM BKN045 BKN055 04/02 A2979 RMK AO2,M
BAM,2023-01-09 23:15,-116.8743,40.5990,1382.36,42.80,41.00,93.30,0.00,0.00,0.00,29.81,M,10.00,M,SCT,BKN,M,M,3000.00,11000.00,M,M,M,M,M,M,M,M,M,42.80,KBAM 092315Z AUTO 00000KT 10SM SCT030 BKN110 06/05 A2981 RMK AO1,M
TMT,2023-01-09 23:15,-117.1971,39.4643,1749.34,35.20,34.00,95.33,230.00,8.00,0.02,29.87,M,3.00,M,BKN,OVC,M,M,2600.00,3300.00,M,M,-RA,M,M,M,M,M,M,28.05,KTMT 092315Z AUTO 23008KT 3SM -RA BKN026 OVC033 02/01 A2987 RMK AO2 P0002 T00180011,M
INS,2023-01-09 23:21,-115.6733,36.5872,955.00,50.00,37.40,61.76,80.00,14.00,0.00,29.93,1012.50,10.00,21.00,BKN,OVC,M,M,5000.00,9000.00,M,M,M,M,M,M,M,M,M,50.00,KINS 092321Z AUTO 08014G21KT 10SM BKN050 OVC090 10/03 A2993 RMK AO2 WSHFT 12 SLP125 $,M
TPH,2023-01-09 23:27,-117.0904,38.0505,1654.00,40.00,40.00,100.00,170.00,7.00,0.01,29.91,M,4.00,M,OVC,M,M,M,600.00,M,M,M,-RA BR,M,M,M,M,M,M,34.41,KTPH 092327Z AUTO 17007KT 4SM -RA BR OVC006 04/04 A2991 RMK AO2 CIG 004V009 P0001 T00440044,M
LSV,2023-01-09 23:31,-115.0343,36.2362,570.00,59.00,35.60,41.42,120.00,5.00,0.00,29.98,1014.70,10.00,M,BKN,M,M,M,6500.00,M,M,M,-DZ,M,M,M,M,M,M,59.00,KLSV 092331Z AUTO 12005KT 10SM -DZ BKN065 15/02 A2998 RMK AO2 DZB31 SLP147 $,M
BVU,2023-01-09 23:35,-114.8611,35.9475,671.00,57.20,30.20,35.57,170.00,12.00,0.00,30.02,M,10.00,18.00,SCT,M,M,M,9000.00,M,M,M,M,M,M,M,M,M,M,57.20,KBVU 092335Z AUTO 17012G18KT 10SM SCT090 14/M01 A3002 RMK AO2,M
CXP,2023-01-09 23:35,-119.7326,39.1923,1431.00,42.80,26.60,52.45,M,5.00,0.00,29.82,M,10.00,M,FEW,M,M,M,5500.00,M,M,M,M,M,M,M,M,M,M,39.22,KCXP 092335Z AUTO VRB05KT 10SM FEW055 06/M03 A2982 RMK AO2,M
RTS,2023-01-09 23:35,-119.8764,39.6682,1539.00,39.20,28.40,64.93,240.00,3.00,0.00,29.82,M,10.00,M,CLR,M,M,M,M,M,M,M,M,M,M,M,M,M,M,36.92,KRTS 092335Z AUTO 24003KT 10SM CLR 04/M02 A2982 RMK AO2,M
05U,2023-01-09 23:35,-116.0051,39.6042,1811.23,41.00,33.80,75.33,260.00,3.00,0.00,29.88,M,10.00,M,SCT,BKN,OVC,M,2800.00,3400.00,4200.00,M,M,M,M,M,M,M,M,38.98,K05U 092335Z AUTO 26003KT 10SM SCT028 BKN034 OVC042 05/01 A2988 RMK A01,M
MEV,2023-01-09 23:35,-119.7500,38.9963,1441.42,37.40,33.80,86.69,40.00,6.00,0.00,29.81,M,10.00,M,BKN,BKN,M,M,4300.00,5000.00,M,M,M,M,M,M,M,M,M,32.03,KMEV 092335Z AUTO 04006KT 10SM BKN043 BKN050 03/01 A2981 RMK AO2,M
BAM,2023-01-09 23:35,-116.8743,40.5990,1382.36,42.80,41.00,93.30,330.00,3.00,0.00,29.82,M,10.00,M,SCT,SCT,M,M,3000.00,11000.00,M,M,M,M,M,M,M,M,M,41.03,KBAM 092335Z AUTO 33003KT 10SM SCT030 SCT110 06/05 A2982 RMK AO1,M
TMT,2023-01-09 23:35,-117.1971,39.4643,1749.34,35.00,33.80,95.71,230.00,7.00,0.02,29.87,M,5.00,M,SCT,BKN,OVC,M,2800.00,3500.00,4100.00,M,DZ,M,M,M,M,M,M,28.31,KTMT 092335Z AUTO 23007KT 5SM DZ SCT028 BKN035 OVC041 02/01 A2987 RMK AO2 P0002 T00160010,M
LSV,2023-01-09 23:41,-115.0343,36.2362,570.00,57.20,35.60,44.19,120.00,5.00,0.00,29.98,1014.90,10.00,M,BKN,M,M,M,6500.00,M,M,M,M,M,M,M,M,M,M,57.20,KLSV 092341Z AUTO 12005KT 10SM BKN065 14/02 A2998 RMK AO2 DZB31E41 SLP149 $,M
05U,2023-01-09 23:50,-116.0051,39.6042,1811.23,41.00,33.80,75.33,260.00,5.00,0.00,29.88,M,9.00,M,BKN,OVC,M,M,2800.00,3300.00,M,M,M,M,M,M,M,M,M,37.08,K05U 092350Z AUTO 26005KT 9SM BKN028 OVC033 05/01 A2988 RMK A01,M
DRA,2023-01-09 23:53,-116.0278,36.6206,1009.00,57.00,41.00,54.99,190.00,16.00,0.00,29.90,1010.80,10.00,36.00,BKN,M,M,M,4600.00,M,M,M,M,M,M,M,42.00,200.00,2023-01-09 23:16,57.00,KDRA 092353Z AUTO 19016G36KT 10SM BKN046 14/05 A2990 RMK AO2 PK WND 20042/2316 SLP108 T01390050 10144 20083 55007,M
ELY,2023-01-09 23:53,-114.8453,39.2950,1909.00,38.00,32.00,79.08,190.00,9.00,T,29.88,1010.40,10.00,M,OVC,M,M,M,3400.00,M,M,M,M,M,M,M,28.00,170.00,2023-01-09 22:56,30.85,KELY 092353Z AUTO 19009KT 10SM OVC034 03/00 A2988 RMK AO2 PK WND 17028/2256 RAB13E28 SLP104 P0000 60000 T00330000 10039 20017 53003,M
VGT,2023-01-09 23:53,-115.1933,36.2111,667.00,54.00,41.00,61.32,0.00,0.00,T,29.99,1017.10,10.00,M,OVC,M,M,M,6000.00,M,M,M,M,M,M,M,M,M,M,54.00,KVGT 092353Z 00000KT 10SM OVC060 12/05 A2999 RMK AO2 RAB09E34 SLP171 P0000 60000 T01220050 10139 20111 55014,M
TPH,2023-01-09 23:53,-117.0904,38.0505,1654.00,39.20,39.20,100.00,140.00,5.00,0.02,29.91,M,4.00,M,OVC,M,M,M,400.00,M,M,M,-RA BR,M,M,M,M,M,M,34.95,KTPH 092353Z AUTO 14005KT 4SM -RA BR OVC004 04/04 A2991 RMK AO2 CIG 003V007 P0002,M
P68,2023-01-09 23:53,-116.0056,39.6014,1993.00,40.00,33.00,76.44,240.00,8.00,0.00,29.85,1009.40,M,M,M,M,M,M,M,M,M,M,M,M,M,M,M,M,M,33.84,KP68 092353Z AUTO 24008KT 04/01 A2985 RMK AO1 SLP094 T00440006 10044 20028 53008,M
LOL,2023-01-09 23:53,-118.5701,40.0684,1192.43,44.00,42.00,92.62,180.00,6.00,0.00,29.80,1009.60,10.00,M,CLR,M,M,M,M,M,M,M,M,M,M,M,M,M,M,40.10,KLOL 092353Z AUTO 18006KT 10SM CLR 07/06 A2980 RMK AO2 SLP096 60004 T00670056 10072 20056 51006 TSNO,M
BVU,2023-01-09 23:55,-114.8611,35.9475,671.00,57.20,30.20,35.57,190.00,11.00,0.00,30.02,M,10.00,18.00,SCT,M,M,M,9000.00,M,M,M,M,M,M,M,M,M,M,57.20,KBVU 092355Z AUTO 19011G18KT 10SM SCT090 14/M01 A3002 RMK AO2,M
CXP,2023-01-09 23:55,-119.7326,39.1923,1431.00,41.00,28.40,60.54,290.00,5.00,0.00,29.82,M,10.00,M,CLR,M,M,M,M,M,M,M,M,M,M,M,M,M,M,37.08,KCXP 092355Z AUTO 29005KT 10SM CLR 05/M02 A2982 RMK AO2,M
RNO,2023-01-09 23:55,-119.7711,39.4839,1341.00,44.00,32.00,62.21,40.00,3.00,0.00,29.80,1007.90,10.00,M,SCT,BKN,OVC,M,5000.00,9000.00,15000.00,M,M,M,M,M,M,M,M,42.52,KRNO 092355Z 04003KT 10SM SCT050 BKN090 OVC150 07/00 A2980 RMK AO2 SLP079 60038 T00670000 10078 20044 53004,M
RTS,2023-01-09 23:55,-119.8764,39.6682,1539.00,39.20,26.60,60.29,240.00,8.00,0.00,29.82,M,10.00,M,CLR,M,M,M,M,M,M,M,M,M,M,M,M,M,M,32.98,KRTS 092355Z AUTO 24008KT 10SM CLR 04/M03 A2982 RMK AO2,M
MEV,2023-01-09 23:55,-119.7500,38.9963,1441.42,39.20,33.80,80.79,40.00,7.00,0.00,29.79,M,10.00,M,SCT,BKN,M,M,4700.00,5500.00,M,M,M,M,M,M,M,M,M,33.56,KMEV 092355Z AUTO 04007KT 10SM SCT047 BKN055 04/01 A2979 RMK AO2,M
BAM,2023-01-09 23:55,-116.8743,40.5990,1382.36,44.60,41.00,87.09,240.00,7.00,0.00,29.82,M,10.00,M,SCT,SCT,BKN,M,2800.00,8000.00,10000.00,M,M,M,M,M,M,M,M,40.14,KBAM 092355Z AUTO 24007KT 10SM SCT028 SCT080 BKN100 07/05 A2982 RMK AO1,M
TMT,2023-01-09 23:55,-117.1971,39.4643,1749.34,34.20,33.60,97.63,150.00,6.00,0.03,29.86,M,5.00,M,BKN,OVC,M,M,3800.00,4800.00,M,M,DZ,M,M,M,M,M,M,28.18,KTMT 092355Z AUTO 15006KT 5SM DZ BKN038 OVC048 01/01 A2986 RMK AO2 P0003 60003 T00120009 10047 20012,M
LSV,2023-01-09 23:55,-115.0343,36.2362,570.00,57.60,35.80,43.90,100.00,3.00,T,29.98,1014.90,10.00,M,BKN,M,M,M,6000.00,M,M,M,M,M,M,M,M,M,M,57.60,KLSV 092355Z AUTO 10003KT 10SM BKN060 14/02 A2998 RMK AO2 DZB31E41 SLP149 P0000 60000 T01420021 10154 20105 55009 $,M
INS,2023-01-09 23:55,-115.6733,36.5872,955.00,49.00,35.80,59.95,90.00,22.00,0.00,29.93,1012.50,10.00,M,BKN,BKN,OVC,M,5500.00,8000.00,10000.00,M,M,M,M,M,31.00,110.00,2023-01-09 22:54,41.48,KINS 092355Z AUTO 09022KT 10SM BKN055 BKN080 OVC100 10/02 A2993 RMK AO2 PK WND 11031/2254 SLP125 T00950021 10104 20084 55012 $,M
NFL,2023-01-09 23:56,-118.7010,39.4166,1199.00,45.00,41.00,85.77,200.00,9.00,0.00,29.80,1007.00,10.00,M,SCT,BKN,OVC,M,3000.00,5000.00,7000.00,M,M,M,M,M,M,M,M,39.68,KNFL 092356Z 20009KT 10SM SCT030 BKN050 OVC070 07/05 A2980 RMK AO2 SLP070 WR// 60013 T00720050 10078 20067 51005,M
HND,2023-01-09 23:56,-115.1344,35.9729,742.79,57.00,34.00,41.76,160.00,11.00,T,30.00,1017.30,10.00,17.00,FEW,OVC,M,M,6000.00,8000.00,M,M,M,M,M,M,M,M,M,57.00,KHND 092356Z 16011G17KT 10SM FEW060 OVC080 14/01 A3000 RMK AO2 WSHFT 2339 RAB13E41 SLP173 P0000 60000 T01390011 10139 20094 56015,M
WMC,2023-01-09 23:56,-117.8072,40.9019,1315.00,45.00,38.00,76.01,0.00,0.00,0.00,29.79,1008.40,10.00,M,CLR,M,M,M,M,M,M,M,M,M,M,M,M,M,M,45.00,KWMC 092356Z AUTO 00000KT 10SM CLR 07/03 A2979 RMK AO2 SLP084 60013 T00720033 10072 20044 53009,M
LAS,2023-01-09 23:56,-115.1634,36.0719,663.00,52.00,40.00,63.24,310.00,5.00,T,29.99,1015.30,10.00,M,SCT,BKN,BKN,OVC,6000.00,7000.00,10000.00,15000.00,M,M,M,M,M,M,M,52.00,KLAS 092356Z 31005KT 10SM SCT060 BKN070 BKN100 OVC150 11/04 A2999 RMK AO2 RAB10E53 SLP153 P0000 60000 T01110044 10128 20100 55014,M
TPH,2023-01-09 23:56,-117.0904,38.0505,1654.00,40.00,39.00,96.55,130.00,5.00,0.03,29.90,1012.00,3.00,M,OVC,M,M,M,400.00,M,M,M,-RA BR,M,M,M,M,M,M,35.78,KTPH 092356Z AUTO 13005KT 3SM -RA BR OVC004 04/04 A2990 RMK AO2 CIG 003V007 SLP120 P0003 60009 T00440039 10044 20033 50005,M
EKO,2023-01-09 23:56,-115.7860,40.8242,1367.00,38.00,35.00,89.53,M,5.00,0.05,29.83,1011.20,10.00,M,OVC,M,M,M,2500.00,M,M,M,-RA,M,M,M,M,M,M,33.40,KEKO 092356Z AUTO VRB05KT 10SM -RA OVC025 03/02 A2983 RMK AO2 SLP112 P0005 60020 T00330017 10044 20022 50010,M
