station,valid,lon,lat,elevation,tmpf,dwpf,relh,drct,sknt,p01i,alti,mslp,vsby,gust,skyc1,skyc2,skyc3,skyc4,skyl1,skyl2,skyl3,skyl4,wxcodes,ice_accretion_1hr,ice_accretion_3hr,ice_accretion_6hr,peak_wind_gust,peak_wind_drct,peak_wind_time,feel,metar,snowdepth
LSV,2024-03-24 00:00,-115.0343,36.2362,570.00,68.00,26.60,20.98,250.00,20.00,0.00,29.55,999.20,10.00,27.00,CLR,M,M,M,M,M,M,M,M,M,M,M,M,M,M,68.00,KLSV 240000Z AUTO 25020G27KT 10SM CLR 20/M03 A2955 RMK AO2 WSHFT 2347 SLP992,M
BVU,2024-03-24 00:15,-114.8611,35.9475,671.00,66.20,33.80,29.92,220.00,18.00,0.00,29.60,M,10.00,M,BKN,SCT,M,M,9000.00,12000.00,M,M,M,M,M,M,M,M,M,66.20,KBVU 240015Z AUTO 22018KT 10SM BKN090 SCT120 19/01 A2960 RMK AO2,M
CXP,2024-03-24 00:15,-119.7326,39.1923,1431.00,42.80,26.60,52.45,240.00,11.00,0.00,29.71,M,10.00,21.00,SCT,SCT,M,M,4700.00,6500.00,M,M,M,M,M,M,M,M,M,36.11,KCXP 240015Z AUTO 24011G21KT 220V280 10SM SCT047 SCT065 06/M03 A2971 RMK AO2,M
RTS,2024-03-24 00:15,-119.8764,39.6682,1539.00,42.80,24.80,48.67,230.00,13.00,0.00,29.69,M,10.00,M,SCT,M,M,M,3600.00,M,M,M,M,M,M,M,M,M,M,35.40,KRTS 240015Z AUTO 23013KT 10SM SCT036 06/M04 A2969 RMK AO2,M
MEV,2024-03-24 00:15,-119.7500,38.9963,1441.42,41.00,26.60,56.22,230.00,12.00,0.00,29.70,M,10.00,18.00,CLR,M,M,M,M,M,M,M,M,M,M,M,M,M,M,33.46,KMEV 240015Z AUTO 23012G18KT 10SM CLR 05/M03 A2970 RMK AO2,M
HTH,2024-03-24 00:15,-118.6315,38.5448,1282.89,53.60,8.60,16.10,230.00,6.00,0.00,29.64,M,10.00,15.00,FEW,M,M,M,12000.00,M,M,M,M,M,M,M,M,M,M,53.60,KHTH 240015Z AUTO 23006G15KT 10SM FEW120 12/M13 A2964 RMK A01,M
10U,2024-03-24 00:15,-116.1876,41.9532,1637.00,37.40,30.20,74.98,0.00,0.00,0.00,29.60,M,10.00,M,FEW,SCT,SCT,M,3500.00,5000.00,7000.00,M,M,M,M,M,M,M,M,37.40,K10U 240015Z AUTO 00000KT 10SM FEW035 SCT050 SCT070 03/M01 A2960 RMK AO2,M
TMT,2024-03-24 00:15,-117.1971,39.4643,1749.34,43.70,20.00,38.41,300.00,22.00,0.00,29.65,M,10.00,29.00,CLR,M,M,M,M,M,M,M,M,M,M,M,M,M,M,34.25,KTMT 240015Z AUTO 30022G29KT 10SM CLR 07/M07 A2965 RMK AO2 T00651067,M
ELY,2024-03-24 00:27,-114.8453,39.2950,1909.00,32.00,30.00,92.22,10.00,10.00,0.04,29.62,M,0.25,M,VV ,M,M,M,600.00,M,M,M,+SN FG,M,M,M,M,M,M,22.97,KELY 240027Z AUTO 01010KT 1/4SM +SN FG VV006 00/M01 A2962 RMK AO2 P0004 T00001011,M
BVU,2024-03-24 00:35,-114.8611,35.9475,671.00,66.20,33.80,29.92,220.00,17.00,0.00,29.59,M,10.00,23.00,FEW,M,M,M,9000.00,M,M,M,M,M,M,M,M,M,M,66.20,KBVU 240035Z AUTO 22017G23KT 10SM FEW090 19/01 A2959 RMK AO2,M
CXP,2024-03-24 00:35,-119.7326,39.1923,1431.00,42.80,24.80,48.67,220.00,12.00,0.00,29.71,M,10.00,19.00,FEW,FEW,M,M,4700.00,6500.00,M,M,M,M,M,M,M,M,M,35.75,KCXP 240035Z AUTO 22012G19KT 10SM FEW047 FEW065 06/M04 A2971 RMK AO2,M
RTS,2024-03-24 00:35,-119.8764,39.6682,1539.00,41.00,24.80,52.17,230.00,11.00,0.00,29.69,M,10.00,22.00,SCT,BKN,M,M,3700.00,4500.00,M,M,M,M,M,M,M,M,M,33.84,KRTS 240035Z AUTO 23011G22KT 10SM SCT037 BKN045 05/M04 A2969 RMK AO2,M
MEV,2024-03-24 00:35,-119.7500,38.9963,1441.42,42.80,23.00,45.14,220.00,12.00,0.00,29.69,M,10.00,17.00,CLR,M,M,M,M,M,M,M,M,M,M,M,M,M,M,35.75,KMEV 240035Z AUTO 22012G17KT 10SM CLR 06/M05 A2969 RMK AO2,M
HTH,2024-03-24 00:35,-118.6315,38.5448,1282.89,53.60,10.40,17.45,250.00,8.00,0.00,29.63,M,10.00,15.00,FEW,M,M,M,11000.00,M,M,M,M,M,M,M,M,M,M,53.60,KHTH 240035Z AUTO 25008G15KT 10SM FEW110 12/M12 A2963 RMK A01,M
10U,2024-03-24 00:35,-116.1876,41.9532,1637.00,39.20,30.20,69.88,0.00,0.00,0.00,29.60,M,10.00,M,FEW,SCT,M,M,7500.00,11000.00,M,M,M,M,M,M,M,M,M,39.20,K10U 240035Z AUTO 00000KT 10SM FEW075 SCT110 04/M01 A2960 RMK AO2,M
TMT,2024-03-24 00:35,-117.1971,39.4643,1749.34,42.00,20.00,41.00,300.00,21.00,0.00,29.65,M,10.00,26.00,CLR,M,M,M,M,M,M,M,M,M,M,M,M,M,M,32.19,KTMT 240035Z AUTO 30021G26KT 10SM CLR 06/M07 A2965 RMK AO2 T00561067,M
ELY,2024-03-24 00:43,-114.8453,39.2950,1909.00,31.00,30.00,96.02,330.00,8.00,0.06,29.63,M,0.50,M,VV ,M,M,M,600.00,M,M,M,SN FZFG,M,M,M,M,M,M,22.88,KELY 240043Z AUTO 33008KT 1/2SM SN FZFG VV006 M01/M01 A2963 RMK AO2 P0006 T10061011,M
DRA,2024-03-24 00:53,-116.0278,36.6206,1009.00,60.00,24.00,24.92,210.00,25.00,0.00,29.54,997.30,10.00,39.00,CLR,M,M,M,M,M,M,M,M,M,M,M,40.00,200.00,2024-03-24 00:04,60.00,KDRA 240053Z AUTO 21025G39KT 10SM CLR 16/M04 A2954 RMK AO2 PK WND 20040/0004 SLP973 T01561044,M
ELY,2024-03-24 00:53,-114.8453,39.2950,1909.00,31.00,30.00,96.02,10.00,7.00,0.07,29.63,1001.10,0.75,M,BKN,OVC,M,M,600.00,1100.00,M,M,-SN BR,M,M,M,M,M,M,23.56,KELY 240053Z AUTO 01007KT 3/4SM -SN BR BKN006 OVC011 M01/M01 A2963 RMK AO2 SLP011 P0007 T10061011,M
VGT,2024-03-24 00:53,-115.1933,36.2111,667.00,66.00,30.00,25.85,230.00,16.00,0.00,29.57,1001.70,10.00,28.00,CLR,M,M,M,M,M,M,M,M,M,M,M,29.00,250.00,2024-03-24 00:06,66.00,KVGT 240053Z 23016G28KT 10SM CLR 19/M01 A2957 RMK AO2 PK WND 25029/0006 SLP017 T01891011,M
LOL,2024-03-24 00:53,-118.5701,40.0684,1192.43,50.00,20.00,30.29,270.00,13.00,0.00,29.62,1002.50,10.00,24.00,FEW,M,M,M,9000.00,M,M,M,M,M,M,M,M,M,M,50.00,KLOL 240053Z AUTO 27013G24KT 10SM FEW090 10/M07 A2962 RMK AO2 SLP025 T01001067,M
BVU,2024-03-24 00:55,-114.8611,35.9475,671.00,64.40,33.80,31.85,220.00,12.00,0.00,29.59,M,10.00,19.00,CLR,M,M,M,M,M,M,M,M,M,M,M,M,M,M,64.40,KBVU 240055Z AUTO 22012G19KT 10SM CLR 18/01 A2959 RMK AO2,M
CXP,2024-03-24 00:55,-119.7326,39.1923,1431.00,42.80,23.00,45.14,230.00,11.00,0.00,29.70,M,10.00,18.00,CLR,M,M,M,M,M,M,M,M,M,M,M,M,M,M,36.11,KCXP 240055Z AUTO 23011G18KT 10SM CLR 06/M05 A2970 RMK AO2,M
INS,2024-03-24 00:55,-115.6733,36.5872,955.00,60.60,15.60,17.05,190.00,28.00,0.00,29.50,996.00,10.00,37.00,BKN,M,M,M,19000.00,M,M,M,M,M,M,M,40.00,220.00,2024-03-24 00:07,60.60,KINS 240055Z AUTO 19028G37KT 10SM BKN190 16/M09 A2950 RMK AO2 PK WND 22040/07 SLP960 T01591091 $,M
LSV,2024-03-24 00:55,-115.0343,36.2362,570.00,67.00,25.70,20.92,240.00,26.00,0.00,29.54,998.90,10.00,31.00,CLR,M,M,M,M,M,M,M,M,M,M,M,M,M,M,67.00,KLSV 240055Z AUTO 24026G31KT 10SM CLR 19/M03 A2954 RMK AO2 SLP989 T01941035,M
RTS,2024-03-24 00:55,-119.8764,39.6682,1539.00,41.00,23.00,48.39,250.00,13.00,0.00,29.68,M,10.00,M,FEW,FEW,M,M,3800.00,4500.00,M,M,M,M,M,M,M,M,M,33.10,KRTS 240055Z AUTO 25013KT 10SM FEW038 FEW045 05/M05 A2968 RMK AO2,M
MEV,2024-03-24 00:55,-119.7500,38.9963,1441.42,41.00,23.00,48.39,220.00,10.00,0.00,29.69,M,10.00,M,CLR,M,M,M,M,M,M,M,M,M,M,M,M,M,M,34.25,KMEV 240055Z AUTO 22010KT 10SM CLR 05/M05 A2969 RMK AO2,M
HTH,2024-03-24 00:55,-118.6315,38.5448,1282.89,51.80,8.60,17.20,310.00,13.00,0.00,29.64,M,10.00,18.00,CLR,M,M,M,M,M,M,M,M,M,M,M,M,M,M,51.80,KHTH 240055Z AUTO 31013G18KT 10SM CLR 11/M13 A2964 RMK A01,M
10U,2024-03-24 00:55,-116.1876,41.9532,1637.00,37.40,32.00,80.65,130.00,6.00,0.00,29.60,M,10.00,M,FEW,BKN,M,M,6000.00,10000.00,M,M,M,M,M,M,M,M,M,32.03,K10U 240055Z AUTO 13006KT 10SM FEW060 BKN100 03/M00 A2960 RMK AO2,M
RNO,2024-03-24 00:55,-119.7711,39.4839,1341.00,48.00,23.00,37.06,240.00,8.00,0.00,29.67,1003.50,10.00,M,FEW,BKN,BKN,M,3600.00,6500.00,17000.00,M,M,M,M,M,M,M,M,43.82,KRNO 240055Z COR 24008KT 10SM FEW036 BKN065 BKN170 09/M05 A2967 RMK AO2 SLP035 ACSL S T00891050 $,M
TMT,2024-03-24 00:55,-117.1971,39.4643,1749.34,41.00,19.20,41.19,290.00,15.00,0.00,29.65,M,10.00,22.00,CLR,M,M,M,M,M,M,M,M,M,M,M,M,M,M,32.45,KTMT 240055Z AUTO 29015G22KT 10SM CLR 05/M07 A2965 RMK AO2 T00501071,M
EKO,2024-03-24 00:56,-115.7860,40.8242,1367.00,46.00,23.00,39.96,270.00,13.00,T,29.59,1000.20,10.00,M,SCT,BKN,M,M,6000.00,10000.00,M,M,M,M,M,M,M,M,M,39.50,KEKO 240056Z AUTO 27013KT 10SM SCT060 BKN100 08/M05 A2959 RMK AO2 RAB32E41 SLP002 P0000 T00781050,M
WMC,2024-03-24 00:56,-117.8072,40.9019,1315.00,46.00,26.00,45.29,230.00,5.00,0.00,29.61,1002.20,10.00,M,CLR,M,M,M,M,M,M,M,M,M,M,M,M,M,M,43.02,KWMC 240056Z AUTO 23005KT 10SM CLR 08/M03 A2961 RMK AO2 SLP022 T00781033,M
NFL,2024-03-24 00:56,-118.7010,39.4166,1199.00,51.00,19.00,27.96,260.00,19.00,0.00,29.63,1001.90,10.00,25.00,CLR,M,M,M,M,M,M,M,M,M,M,M,29.00,260.00,2024-03-24 00:13,51.00,KNFL 240056Z AUTO 26019G25KT 10SM CLR 11/M07 A2963 RMK AO2 PK WND 26029/0013 SLP019 T01061072,M
HND,2024-03-24 00:56,-115.1344,35.9729,742.79,63.00,34.00,33.72,230.00,21.00,0.00,29.61,1002.90,10.00,29.00,CLR,M,M,M,M,M,M,M,M,M,M,M,31.00,230.00,2024-03-24 00:20,63.00,KHND 240056Z 23021G29KT 10SM CLR 17/01 A2961 RMK AO2 PK WND 23031/0020 LTG DSNT E SLP029 T01720011,M
TPH,2024-03-24 00:56,-117.0904,38.0505,1654.00,50.00,10.00,19.58,310.00,18.00,0.00,29.58,999.50,10.00,27.00,CLR,M,M,M,M,M,M,M,M,M,M,M,35.00,300.00,2024-03-24 00:00,50.00,KTPH 240056Z AUTO 31018G27KT 10SM CLR 10/M12 A2958 RMK AO2 PK WND 30035/0000 SLP995 T01001122,M
LAS,2024-03-24 00:56,-115.1634,36.0719,663.00,63.00,32.00,31.12,230.00,19.00,0.00,29.58,1000.20,10.00,33.00,FEW,SCT,BKN,BKN,7000.00,12000.00,14000.00,18000.00,M,M,M,M,33.00,230.00,2024-03-24 00:51,63.00,KLAS 240056Z 23019G33KT 10SM FEW070 SCT120 BKN140 BKN180 17/00 A2958 RMK AO2 PK WND 23033/0051 LTG DSNT E SLP002 OCNL VCBLDU CB DSNT E-SE T01720000 $,M
ELY,2024-03-24 01:07,-114.8453,39.2950,1909.00,31.00,30.00,96.02,20.00,5.00,0.01,29.64,M,0.50,M,FEW,OVC,M,M,500.00,1000.00,M,M,SN FZFG,M,M,M,M,M,M,25.21,KELY 240107Z AUTO 02005KT 1/2SM SN FZFG FEW005 OVC010 M01/M01 A2964 RMK AO2 P0001 T10061011,M
EKO,2024-03-24 01:10,-115.7860,40.8242,1367.00,46.00,22.00,38.31,280.00,9.00,0.00,29.60,M,10.00,M,FEW,FEW,M,M,6000.00,9000.00,M,M,M,M,M,M,M,M,M,40.92,KEKO 240110Z AUTO 28009KT 10SM FEW060 FEW090 08/M06 A2960 RMK AO2 WSHFT 0050 T00781056,M
BVU,2024-03-24 01:15,-114.8611,35.9475,671.00,64.40,32.00,29.63,230.00,18.00,0.00,29.58,M,10.00,24.00,CLR,M,M,M,M,M,M,M,M,M,M,M,M,M,M,64.40,KBVU 240115Z AUTO 23018G24KT 10SM CLR 18/M00 A2958 RMK AO2,M
CXP,2024-03-24 01:15,-119.7326,39.1923,1431.00,42.80,24.80,48.67,230.00,11.00,0.00,29.69,M,10.00,20.00,CLR,M,M,M,M,M,M,M,M,M,M,M,M,M,M,36.11,KCXP 240115Z AUTO 23011G20KT 10SM CLR 06/M04 A2969 RMK AO2,M
RTS,2024-03-24 01:15,-119.8764,39.6682,1539.00,39.20,21.20,48.10,240.00,9.00,0.00,29.68,M,10.00,18.00,CLR,M,M,M,M,M,M,M,M,M,M,M,M,M,M,32.47,KRTS 240115Z AUTO 24009G18KT 10SM CLR 04/M06 A2968 RMK AO2,M
MEV,2024-03-24 01:15,-119.7500,38.9963,1441.42,42.80,24.80,48.67,220.00,10.00,0.00,29.69,M,10.00,M,CLR,M,M,M,M,M,M,M,M,M,M,M,M,M,M,36.51,KMEV 240115Z AUTO 22010KT 180V240 10SM CLR 06/M04 A2969 RMK AO2,M
HTH,2024-03-24 01:15,-118.6315,38.5448,1282.89,51.80,8.60,17.20,300.00,10.00,0.00,29.64,M,10.00,M,FEW,M,M,M,11000.00,M,M,M,M,M,M,M,M,M,M,51.80,KHTH 240115Z AUTO 30010KT 10SM FEW110 11/M13 A2964 RMK A01,M
10U,2024-03-24 01:15,-116.1876,41.9532,1637.00,37.40,32.00,80.65,180.00,8.00,0.00,29.60,M,10.00,M,SCT,BKN,BKN,M,4500.00,5000.00,6000.00,M,M,M,M,M,M,M,M,30.76,K10U 240115Z AUTO 18008KT 10SM SCT045 BKN050 BKN060 03/M00 A2960 RMK AO2,M
TMT,2024-03-24 01:15,-117.1971,39.4643,1749.34,40.60,21.00,45.16,310.00,9.00,0.00,29.65,M,10.00,M,CLR,M,M,M,M,M,M,M,M,M,M,M,M,M,M,34.21,KTMT 240115Z AUTO 31009KT 10SM CLR 05/M06 A2965 RMK AO2 T00481061,M
ELY,2024-03-24 01:19,-114.8453,39.2950,1909.00,31.00,29.00,92.19,90.00,5.00,0.01,29.63,M,1.50,M,FEW,SCT,OVC,M,500.00,800.00,1800.00,M,-SN BR,M,M,M,M,M,M,25.21,KELY 240119Z AUTO 09005KT 1 1/2SM -SN BR FEW005 SCT008 OVC018 M01/M02 A2963 RMK AO2 P0001 T10061017,M
ELY,2024-03-24 01:23,-114.8453,39.2950,1909.00,31.00,29.00,92.19,100.00,5.00,0.01,29.63,M,3.00,M,SCT,OVC,M,M,900.00,2300.00,M,M,-SN BR,M,M,M,M,M,M,25.21,KELY 240123Z AUTO 10005KT 3SM -SN BR SCT009 OVC023 M01/M02 A2963 RMK AO2 P0001 T10061017,M
RTS,2024-03-24 01:30,-119.8764,39.6682,1539.00,39.20,21.20,48.10,250.00,13.00,0.00,29.68,M,10.00,M,CLR,M,M,M,M,M,M,M,M,M,M,M,M,M,M,30.79,KRTS 240130Z AUTO 25013KT 10SM CLR 04/M06 A2968 RMK AO2,M
ELY,2024-03-24 01:34,-114.8453,39.2950,1909.00,31.00,30.00,96.02,0.00,0.00,0.01,29.62,M,9.00,M,FEW,BKN,OVC,M,900.00,3700.00,6500.00,M,M,M,M,M,M,M,M,31.00,KELY 240134Z AUTO 00000KT 9SM FEW009 BKN037 OVC065 M01/M01 A2962 RMK AO2 SNE31 P0001 T10061011,M
BVU,2024-03-24 01:35,-114.8611,35.9475,671.00,64.40,32.00,29.63,240.00,20.00,0.00,29.58,M,10.00,M,CLR,M,M,M,M,M,M,M,M,M,M,M,M,M,M,64.40,KBVU 240135Z AUTO 24020KT 10SM CLR 18/00 A2958 RMK AO2,M
CXP,2024-03-24 01:35,-119.7326,39.1923,1431.00,41.00,24.80,52.17,220.00,8.00,0.00,29.70,M,10.00,17.00,CLR,M,M,M,M,M,M,M,M,M,M,M,M,M,M,35.20,KCXP 240135Z AUTO 22008G17KT 10SM CLR 05/M04 A2970 RMK AO2,M
MEV,2024-03-24 01:35,-119.7500,38.9963,1441.42,41.00,28.40,60.54,210.00,6.00,0.00,29.69,M,10.00,M,CLR,M,M,M,M,M,M,M,M,M,M,M,M,M,M,36.37,KMEV 240135Z AUTO 21006KT 10SM CLR 05/M02 A2969 RMK AO2,M
HTH,2024-03-24 01:35,-118.6315,38.5448,1282.89,50.00,15.80,25.28,320.00,17.00,0.00,29.64,M,10.00,22.00,FEW,M,M,M,10000.00,M,M,M,M,M,M,M,M,M,M,50.00,KHTH 240135Z AUTO 32017G22KT 10SM FEW100 10/M09 A2964 RMK A01,M
10U,2024-03-24 01:35,-116.1876,41.9532,1637.00,35.60,30.20,80.51,290.00,6.00,0.00,29.61,M,3.00,12.00,SCT,BKN,BKN,M,400.00,800.00,4200.00,M,-SN,M,M,M,M,M,M,29.87,K10U 240135Z AUTO 29006G12KT 3SM -SN SCT004 BKN008 BKN042 02/M01 A2961 RMK AO2,M
TMT,2024-03-24 01:35,-117.1971,39.4643,1749.34,39.40,19.80,44.96,290.00,15.00,0.00,29.65,M,10.00,M,CLR,M,M,M,M,M,M,M,M,M,M,M,M,M,M,30.37,KTMT 240135Z AUTO 29015KT 10SM CLR 04/M07 A2965 RMK AO2 T00411068,M
DRA,2024-03-24 01:53,-116.0278,36.6206,1009.00,57.00,17.00,20.60,200.00,25.00,0.00,29.55,997.70,10.00,40.00,CLR,M,M,M,M,M,M,M,M,M,M,M,40.00,220.00,2024-03-24 01:52,57.00,KDRA 240153Z AUTO 20025G40KT 10SM CLR 14/M08 A2955 RMK AO2 PK WND 22040/0152 SLP977 T01391083,M
ELY,2024-03-24 01:53,-114.8453,39.2950,1909.00,31.00,28.00,88.48,230.00,7.00,0.01,29.63,1001.50,10.00,M,SCT,SCT,OVC,M,6500.00,7500.00,9000.00,M,M,M,M,M,M,M,M,23.56,KELY 240153Z AUTO 23007KT 10SM SCT065 SCT075 OVC090 M01/M02 A2963 RMK AO2 SNE31 SLP015 P0001 T10061022,M
VGT,2024-03-24 01:53,-115.1933,36.2111,667.00,64.00,30.00,27.71,210.00,17.00,0.00,29.55,1001.10,10.00,27.00,CLR,M,M,M,M,M,M,M,M,M,M,M,28.00,250.00,2024-03-24 01:15,64.00,KVGT 240153Z 21017G27KT 10SM CLR 18/M01 A2955 RMK AO2 PK WND 25028/0115 SLP011 T01781011,M
LOL,2024-03-24 01:53,-118.5701,40.0684,1192.43,47.00,21.00,35.36,270.00,17.00,0.00,29.62,1002.50,10.00,M,FEW,BKN,BKN,M,7500.00,9000.00,11000.00,M,M,M,M,M,M,M,M,39.73,KLOL 240153Z AUTO 27017KT 10SM FEW075 BKN090 BKN110 08/M06 A2962 RMK AO2 SLP025 T00831061,M
BVU,2024-03-24 01:55,-114.8611,35.9475,671.00,62.60,32.00,31.56,230.00,17.00,0.00,29.58,M,10.00,22.00,CLR,M,M,M,M,M,M,M,M,M,M,M,M,M,M,62.60,KBVU 240155Z AUTO 23017G22KT 10SM CLR 17/00 A2958 RMK AO2,M
CXP,2024-03-24 01:55,-119.7326,39.1923,1431.00,41.00,24.80,52.17,M,6.00,0.00,29.70,M,10.00,15.00,CLR,M,M,M,M,M,M,M,M,M,M,M,M,M,M,36.37,KCXP 240155Z AUTO VRB06G15KT 10SM CLR 05/M04 A2970 RMK AO2,M
INS,2024-03-24 01:55,-115.6733,36.5872,955.00,59.40,10.00,13.90,180.00,21.00,0.00,29.50,996.00,10.00,33.00,BKN,M,M,M,20000.00,M,M,M,M,M,M,M,45.00,210.00,2024-03-24 01:47,59.40,KINS 240155Z AUTO 18021G33KT 10SM BKN200 15/M12 A2950 RMK AO2 PK WND 21045/47 SLP960 T01521122 $,M
RNO,2024-03-24 01:55,-119.7711,39.4839,1341.00,44.00,23.00,43.11,330.00,5.00,0.00,29.66,1003.70,10.00,M,FEW,SCT,BKN,M,4000.00,8000.00,20000.00,M,M,M,M,M,29.00,280.00,2024-03-24 01:05,40.65,KRNO 240155Z 33005KT 10SM FEW040 SCT080 BKN200 07/M05 A2966 RMK AO2 PK WND 28029/0105 SLP037 ACSL DSNT S T00671050 $,M
LSV,2024-03-24 01:55,-115.0343,36.2362,570.00,65.30,29.50,25.95,230.00,17.00,0.00,29.53,998.60,10.00,M,CLR,M,M,M,M,M,M,M,M,M,M,M,27.00,260.00,2024-03-24 00:56,65.30,KLSV 240155Z AUTO 23017KT 10SM CLR 19/M01 A2953 RMK AO2 PK WND 26027/0056 SLP986 T01851014,M
RTS,2024-03-24 01:55,-119.8764,39.6682,1539.00,39.20,21.20,48.10,260.00,12.00,0.00,29.68,M,10.00,17.00,CLR,M,M,M,M,M,M,M,M,M,M,M,M,M,M,31.17,KRTS 240155Z AUTO 26012G17KT 10SM CLR 04/M06 A2968 RMK AO2,M
MEV,2024-03-24 01:55,-119.7500,38.9963,1441.42,39.20,23.00,51.89,240.00,9.00,0.00,29.69,M,10.00,M,CLR,M,M,M,M,M,M,M,M,M,M,M,M,M,M,32.47,KMEV 240155Z AUTO 24009KT 10SM CLR 04/M05 A2969 RMK AO2,M
HTH,2024-03-24 01:55,-118.6315,38.5448,1282.89,50.00,12.20,21.59,280.00,13.00,0.00,29.64,M,10.00,M,SCT,M,M,M,9000.00,M,M,M,M,M,M,M,M,M,M,50.00,KHTH 240155Z AUTO 28013KT 10SM SCT090 10/M11 A2964 RMK A01,M
10U,2024-03-24 01:55,-116.1876,41.9532,1637.00,35.60,28.40,74.80,320.00,7.00,0.00,29.60,M,1.75,M,OVC,M,M,M,400.00,M,M,M,-SN,M,M,M,M,M,M,29.17,K10U 240155Z AUTO 32007KT 1 3/4SM -SN OVC004 02/M02 A2960 RMK AO2,M
TMT,2024-03-24 01:55,-117.1971,39.4643,1749.34,37.00,20.00,49.82,280.00,7.00,0.00,29.65,M,10.00,M,CLR,M,M,M,M,M,M,M,M,M,M,M,M,M,M,30.87,KTMT 240155Z AUTO 28007KT 10SM CLR 03/M07 A2965 RMK AO2 T00271067,M
EKO,2024-03-24 01:56,-115.7860,40.8242,1367.00,42.00,23.00,46.55,280.00,5.00,0.00,29.60,1001.10,10.00,M,CLR,M,M,M,M,M,M,M,M,M,M,M,M,M,M,38.27,KEKO 240156Z AUTO 28005KT 10SM CLR 06/M05 A2960 RMK AO2 WSHFT 0050 SLP011 T00561050,M
WMC,2024-03-24 01:56,-117.8072,40.9019,1315.00,45.00,26.00,47.04,90.00,6.00,0.00,29.61,1002.30,10.00,M,BKN,OVC,M,M,6000.00,8000.00,M,M,M,M,M,M,M,M,M,41.19,KWMC 240156Z AUTO 09006KT 10SM BKN060 OVC080 07/M03 A2961 RMK AO2 SLP023 T00721033,M
NFL,2024-03-24 01:56,-118.7010,39.4166,1199.00,48.00,22.00,35.53,280.00,11.00,0.00,29.64,1002.20,10.00,M,CLR,M,M,M,M,M,M,M,M,M,M,M,M,M,M,42.69,KNFL 240156Z AUTO 28011KT 10SM CLR 09/M06 A2964 RMK AO2 SLP022 T00891056,M
HND,2024-03-24 01:56,-115.1344,35.9729,742.79,61.00,34.00,36.19,230.00,15.00,0.00,29.59,1002.50,10.00,26.00,CLR,M,M,M,M,M,M,M,M,M,M,M,29.00,220.00,2024-03-24 00:57,61.00,KHND 240156Z 23015G26KT 10SM CLR 16/01 A2959 RMK AO2 PK WND 22029/0057 SLP025 T01610011,M
TPH,2024-03-24 01:56,-117.0904,38.0505,1654.00,46.00,6.00,18.99,330.00,16.00,0.00,29.59,1000.50,10.00,M,CLR,M,M,M,M,M,M,M,M,M,M,M,28.00,290.00,2024-03-24 01:20,38.67,KTPH 240156Z AUTO 33016KT 10SM CLR 08/M14 A2959 RMK AO2 PK WND 29028/0120 SLP005 T00781144,M
LAS,2024-03-24 01:56,-115.1634,36.0719,663.00,61.00,35.00,37.66,230.00,17.00,0.00,29.56,999.80,10.00,25.00,FEW,SCT,BKN,M,7000.00,12000.00,17000.00,M,M,M,M,M,29.00,220.00,2024-03-24 00:59,61.00,KLAS 240156Z 23017G25KT 10SM FEW070 SCT120 BKN170 16/02 A2956 RMK AO2 PK WND 22029/0059 SLP998 T01610017 $,M
BVU,2024-03-24 02:15,-114.8611,35.9475,671.00,62.60,32.00,31.56,240.00,18.00,0.00,29.57,M,10.00,26.00,CLR,M,M,M,M,M,M,M,M,M,M,M,M,M,M,62.60,KBVU 240215Z AUTO 24018G26KT 10SM CLR 17/M00 A2957 RMK AO2,M
CXP,2024-03-24 02:15,-119.7326,39.1923,1431.00,41.00,23.00,48.39,240.00,8.00,0.00,29.71,M,10.00,14.00,FEW,M,M,M,4700.00,M,M,M,M,M,M,M,M,M,M,35.20,KCXP 240215Z AUTO 24008G14KT 10SM FEW047 05/M05 A2971 RMK AO2,M
RTS,2024-03-24 02:15,-119.8764,39.6682,1539.00,37.40,23.00,55.68,240.00,16.00,0.00,29.68,M,10.00,21.00,CLR,M,M,M,M,M,M,M,M,M,M,M,M,M,M,27.46,KRTS 240215Z AUTO 24016G21KT 10SM CLR 03/M05 A2968 RMK AO2,M
MEV,2024-03-24 02:15,-119.7500,38.9963,1441.42,39.20,23.00,51.89,260.00,11.00,0.00,29.69,M,10.00,M,CLR,M,M,M,M,M,M,M,M,M,M,M,M,M,M,31.57,KMEV 240215Z AUTO 26011KT 10SM CLR 04/M05 A2969 RMK AO2,M
HTH,2024-03-24 02:15,-118.6315,38.5448,1282.89,48.20,15.80,27.04,320.00,10.00,0.00,29.65,M,10.00,M,FEW,BKN,M,M,9000.00,12000.00,M,M,M,M,M,M,M,M,M,43.28,KHTH 240215Z AUTO 32010KT 10SM FEW090 BKN120 09/M09 A2965 RMK A01,M
10U,2024-03-24 02:15,-116.1876,41.9532,1637.00,33.80,30.20,86.49,280.00,10.00,0.00,29.61,M,2.50,22.00,OVC,M,M,M,400.00,M,M,M,-SN,M,M,M,M,M,M,25.23,K10U 240215Z AUTO 28010G22KT 2 1/2SM -SN OVC004 01/M01 A2961 RMK AO2,M
TMT,2024-03-24 02:15,-117.1971,39.4643,1749.34,35.20,20.00,53.50,280.00,5.00,0.00,29.64,M,10.00,M,CLR,M,M,M,M,M,M,M,M,M,M,M,M,M,M,30.20,KTMT 240215Z AUTO 28005KT 10SM CLR 02/M07 A2964 RMK AO2 T00181067,M
BVU,2024-03-24 02:35,-114.8611,35.9475,671.00,60.80,32.00,33.64,230.00,16.00,0.00,29.57,M,10.00,M,CLR,M,M,M,M,M,M,M,M,M,M,M,M,M,M,60.80,KBVU 240235Z AUTO 23016KT 10SM CLR 16/M00 A2957 RMK AO2,M
CXP,2024-03-24 02:35,-119.7326,39.1923,1431.00,39.20,21.20,48.10,220.00,8.00,0.00,29.70,M,10.00,M,FEW,M,M,M,4700.00,M,M,M,M,M,M,M,M,M,M,32.98,KCXP 240235Z AUTO 22008KT 10SM FEW047 04/M06 A2970 RMK AO2,M
RTS,2024-03-24 02:35,-119.8764,39.6682,1539.00,37.40,23.00,55.68,240.00,14.00,0.00,29.68,M,10.00,M,CLR,M,M,M,M,M,M,M,M,M,M,M,M,M,M,28.12,KRTS 240235Z AUTO 24014KT 10SM CLR 03/M05 A2968 RMK AO2,M
MEV,2024-03-24 02:35,-119.7500,38.9963,1441.42,37.40,21.20,51.61,230.00,11.00,0.00,29.69,M,10.00,M,SCT,SCT,M,M,5000.00,5500.00,M,M,M,M,M,M,M,M,M,29.29,KMEV 240235Z AUTO 23011KT 10SM SCT050 SCT055 03/M06 A2969 RMK AO2,M
HTH,2024-03-24 02:35,-118.6315,38.5448,1282.89,48.20,15.80,27.04,320.00,9.00,0.00,29.64,M,10.00,M,BKN,M,M,M,11000.00,M,M,M,M,M,M,M,M,M,M,43.66,KHTH 240235Z AUTO 32009KT 10SM BKN110 09/M09 A2964 RMK A01,M
10U,2024-03-24 02:35,-116.1876,41.9532,1637.00,33.80,30.20,86.49,320.00,7.00,0.00,29.61,M,4.00,14.00,BKN,BKN,OVC,M,400.00,800.00,2000.00,M,-SN,M,M,M,M,M,M,26.97,K10U 240235Z AUTO 32007G14KT 4SM -SN BKN004 BKN008 OVC020 01/M01 A2961 RMK AO2,M
TMT,2024-03-24 02:35,-117.1971,39.4643,1749.34,33.30,20.00,57.72,260.00,5.00,0.00,29.65,M,10.00,M,CLR,M,M,M,M,M,M,M,M,M,M,M,M,M,M,27.94,KTMT 240235Z AUTO 26005KT 10SM CLR 01/M07 A2965 RMK AO2 T00071066,M
DRA,2024-03-24 02:53,-116.0278,36.6206,1009.00,54.00,17.00,22.98,210.00,15.00,0.00,29.56,998.30,10.00,24.00,CLR,M,M,M,M,M,M,M,M,M,M,M,34.00,180.00,2024-03-24 02:12,54.00,KDRA 240253Z AUTO 21015G24KT 10SM CLR 12/M08 A2956 RMK AO2 PK WND 18034/0212 SLP983 T01221083 55002,M
ELY,2024-03-24 02:53,-114.8453,39.2950,1909.00,32.00,28.00,84.98,150.00,3.00,0.00,29.63,1001.00,10.00,M,BKN,BKN,OVC,M,4700.00,5500.00,7000.00,M,M,M,M,M,M,M,M,28.69,KELY 240253Z AUTO 15003KT 10SM BKN047 BKN055 OVC070 00/M02 A2963 RMK AO2 SLP010 60008 T00001022 51003,M
VGT,2024-03-24 02:53,-115.1933,36.2111,667.00,63.00,27.00,25.38,220.00,18.00,0.00,29.52,1000.20,10.00,29.00,CLR,M,M,M,M,M,M,M,M,M,M,M,32.00,210.00,2024-03-24 02:34,63.00,KVGT 240253Z 22018G29KT 10SM CLR 17/M03 A2952 RMK AO2 PK WND 21032/0234 SLP002 T01721028 58017,M
LOL,2024-03-24 02:53,-118.5701,40.0684,1192.43,44.00,21.00,39.62,270.00,10.00,0.00,29.63,1003.10,10.00,M,CLR,M,M,M,M,M,M,M,M,M,M,M,M,M,M,38.02,KLOL 240253Z AUTO 27010KT 10SM CLR 07/M06 A2963 RMK AO2 SLP031 T00671061 53001,M
BVU,2024-03-24 02:55,-114.8611,35.9475,671.00,60.80,32.00,33.64,230.00,16.00,0.00,29.56,M,10.00,M,CLR,M,M,M,M,M,M,M,M,M,M,M,M,M,M,60.80,KBVU 240255Z AUTO 23016KT 10SM CLR 16/00 A2956 RMK AO2,M
CXP,2024-03-24 02:55,-119.7326,39.1923,1431.00,39.20,21.20,48.10,240.00,8.00,0.00,29.69,M,10.00,15.00,CLR,M,M,M,M,M,M,M,M,M,M,M,M,M,M,32.98,KCXP 240255Z AUTO 24008G15KT 10SM CLR 04/M06 A2969 RMK AO2,M
INS,2024-03-24 02:55,-115.6733,36.5872,955.00,58.50,6.00,11.98,180.00,14.00,0.00,29.53,996.90,10.00,26.00,FEW,M,M,M,21000.00,M,M,M,M,M,M,M,38.00,200.00,2024-03-24 02:30,58.50,KINS 240255Z AUTO 18014G26KT 10SM FEW210 15/M14 A2953 RMK AO2 PK WND 20038/30 SLP969 T01471145 55004 $,M
RNO,2024-03-24 02:55,-119.7711,39.4839,1341.00,42.00,23.00,46.55,280.00,7.00,0.00,29.66,1003.70,10.00,M,FEW,SCT,BKN,M,3500.00,6500.00,20000.00,M,M,M,M,M,M,M,M,36.97,KRNO 240255Z 28007KT 10SM FEW035 SCT065 BKN200 06/M05 A2966 RMK AO2 SLP037 T00561050 51001,M
LSV,2024-03-24 02:55,-115.0343,36.2362,570.00,63.30,33.80,33.11,210.00,12.00,0.00,29.52,998.40,10.00,M,CLR,M,M,M,M,M,M,M,M,M,M,M,M,M,M,63.30,KLSV 240255Z AUTO 21012KT 10SM CLR 17/01 A2952 RMK AO2 SLP984 T01740010 57008,M
RTS,2024-03-24 02:55,-119.8764,39.6682,1539.00,37.40,21.20,51.61,260.00,8.00,0.00,29.68,M,10.00,15.00,CLR,M,M,M,M,M,M,M,M,M,M,M,M,M,M,30.76,KRTS 240255Z AUTO 26008G15KT 10SM CLR 03/M06 A2968 RMK AO2,M
MEV,2024-03-24 02:55,-119.7500,38.9963,1441.42,37.40,23.00,55.68,260.00,7.00,0.00,29.69,M,10.00,M,BKN,OVC,M,M,5500.00,7000.00,M,M,M,M,M,M,M,M,M,31.36,KMEV 240255Z AUTO 26007KT 10SM BKN055 OVC070 03/M05 A2969 RMK AO2,M
HTH,2024-03-24 02:55,-118.6315,38.5448,1282.89,48.20,15.80,27.04,280.00,8.00,0.00,29.65,M,10.00,M,FEW,M,M,M,11000.00,M,M,M,M,M,M,M,M,M,M,44.07,KHTH 240255Z AUTO 28008KT 10SM FEW110 09/M09 A2965 RMK A01,M
10U,2024-03-24 02:55,-116.1876,41.9532,1637.00,32.00,30.20,92.97,160.00,4.00,0.00,29.61,M,10.00,M,FEW,SCT,BKN,M,600.00,3300.00,6000.00,M,M,M,M,M,M,M,M,27.42,K10U 240255Z AUTO 16004KT 10SM FEW006 SCT033 BKN060 00/M01 A2961 RMK AO2,M
TMT,2024-03-24 02:55,-117.1971,39.4643,1749.34,27.30,16.70,63.92,0.00,0.00,0.00,29.65,M,10.00,M,CLR,M,M,M,M,M,M,M,M,M,M,M,M,M,M,27.30,KTMT 240255Z AUTO 00000KT 10SM CLR M03/M08 A2965 RMK AO2 T10261085,M
EKO,2024-03-24 02:56,-115.7860,40.8242,1367.00,37.00,23.00,56.57,230.00,4.00,0.00,29.59,1001.20,10.00,M,CLR,M,M,M,M,M,M,M,M,M,M,M,M,M,M,33.26,KEKO 240256Z AUTO 23004KT 10SM CLR 03/M05 A2959 RMK AO2 SLP012 60000 T00281050 56004,M
WMC,2024-03-24 02:56,-117.8072,40.9019,1315.00,41.00,26.00,54.84,190.00,5.00,0.00,29.61,1002.40,10.00,M,BKN,M,M,M,8000.00,M,M,M,M,M,M,M,M,M,M,37.08,KWMC 240256Z AUTO 19005KT 10SM BKN080 05/M03 A2961 RMK AO2 SLP024 T00501033 58001,M
NFL,2024-03-24 02:56,-118.7010,39.4166,1199.00,45.00,20.00,36.55,260.00,11.00,0.00,29.65,1002.30,10.00,21.00,FEW,M,M,M,9500.00,M,M,M,M,M,M,M,M,M,M,38.89,KNFL 240256Z AUTO 26011G21KT 10SM FEW095 07/M07 A2965 RMK AO2 SLP023 T00721067 52006,M
HND,2024-03-24 02:56,-115.1344,35.9729,742.79,59.00,34.00,38.87,230.00,12.00,0.00,29.59,1002.50,10.00,M,CLR,M,M,M,M,M,M,M,M,M,M,M,31.00,240.00,2024-03-24 02:16,59.00,KHND 240256Z 23012KT 10SM CLR 15/01 A2959 RMK AO2 PK WND 24031/0216 SLP025 T01500011 56009,M
TPH,2024-03-24 02:56,-117.0904,38.0505,1654.00,43.00,8.00,23.31,330.00,13.00,0.00,29.61,1001.00,10.00,20.00,CLR,M,M,M,M,M,M,M,M,M,M,M,M,M,M,35.66,KTPH 240256Z AUTO 33013G20KT 10SM CLR 06/M13 A2961 RMK AO2 SLP010 T00611133 53009,M
LAS,2024-03-24 02:56,-115.1634,36.0719,663.00,60.00,35.00,39.03,230.00,14.00,0.00,29.55,999.50,10.00,24.00,FEW,SCT,M,M,12000.00,16000.00,M,M,M,M,M,M,27.00,230.00,2024-03-24 02:13,60.00,KLAS 240256Z 23014G24KT 10SM FEW120 SCT160 16/02 A2955 RMK AO2 PK WND 23027/0213 SLP995 T01560017 56013 $,M
BVU,2024-03-24 03:15,-114.8611,35.9475,671.00,60.80,32.00,33.64,230.00,9.00,0.00,29.56,M,10.00,18.00,CLR,M,M,M,M,M,M,M,M,M,M,M,M,M,M,60.80,KBVU 240315Z AUTO 23009G18KT 10SM CLR 16/M00 A2956 RMK AO2,M
CXP,2024-03-24 03:15,-119.7326,39.1923,1431.00,39.20,23.00,51.89,170.00,6.00,0.00,29.69,M,10.00,M,FEW,M,M,M,4800.00,M,M,M,M,M,M,M,M,M,M,34.20,KCXP 240315Z AUTO 17006KT 10SM FEW048 04/M05 A2969 RMK AO2,M
RTS,2024-03-24 03:15,-119.8764,39.6682,1539.00,37.40,21.20,51.61,260.00,10.00,0.00,29.68,M,10.00,M,SCT,M,M,M,4100.00,M,M,M,M,M,M,M,M,M,M,29.74,KRTS 240315Z AUTO 26010KT 10SM SCT041 03/M06 A2968 RMK AO2,M
MEV,2024-03-24 03:15,-119.7500,38.9963,1441.42,35.60,23.00,59.79,230.00,6.00,0.00,29.69,M,10.00,M,FEW,SCT,SCT,M,5000.00,6000.00,7000.00,M,M,M,M,M,M,M,M,29.87,KMEV 240315Z AUTO 23006KT 10SM FEW050 SCT060 SCT070 02/M05 A2969 RMK AO2,M
HTH,2024-03-24 03:15,-118.6315,38.5448,1282.89,46.40,17.60,31.28,310.00,5.00,0.00,29.65,M,10.00,16.00,CLR,M,M,M,M,M,M,M,M,M,M,M,M,M,M,43.50,KHTH 240315Z AUTO 31005G16KT 10SM CLR 08/M08 A2965 RMK A01,M
10U,2024-03-24 03:15,-116.1876,41.9532,1637.00,32.00,30.20,92.97,140.00,9.00,0.00,29.61,M,10.00,M,SCT,BKN,BKN,M,5000.00,6000.00,7000.00,M,M,M,M,M,M,M,M,23.51,K10U 240315Z AUTO 14009KT 10SM SCT050 BKN060 BKN070 M00/M01 A2961 RMK AO2,M
TMT,2024-03-24 03:15,-117.1971,39.4643,1749.34,26.60,16.50,65.22,160.00,4.00,0.00,29.65,M,10.00,M,CLR,M,M,M,M,M,M,M,M,M,M,M,M,M,M,21.11,KTMT 240315Z AUTO 16004KT 10SM CLR M03/M09 A2965 RMK AO2 T10301086,M
BVU,2024-03-24 03:35,-114.8611,35.9475,671.00,59.00,32.00,35.87,200.00,5.00,0.00,29.57,M,10.00,12.00,CLR,M,M,M,M,M,M,M,M,M,M,M,M,M,M,59.00,KBVU 240335Z AUTO 20005G12KT 10SM CLR 15/M00 A2957 RMK AO2,M
CXP,2024-03-24 03:35,-119.7326,39.1923,1431.00,39.20,23.00,51.89,160.00,9.00,0.00,29.69,M,10.00,M,BKN,BKN,M,M,4700.00,6000.00,M,M,M,M,M,M,M,M,M,32.47,KCXP 240335Z AUTO 16009KT 10SM BKN047 BKN060 04/M05 A2969 RMK AO2,M
RTS,2024-03-24 03:35,-119.8764,39.6682,1539.00,35.60,23.00,59.79,270.00,10.00,0.00,29.67,M,10.00,18.00,FEW,OVC,M,M,3900.00,11000.00,M,M,M,M,M,M,M,M,M,27.48,KRTS 240335Z AUTO 27010G18KT 10SM FEW039 OVC110 02/M05 A2967 RMK AO2,M
MEV,2024-03-24 03:35,-119.7500,38.9963,1441.42,37.40,21.20,51.61,220.00,10.00,0.00,29.68,M,10.00,M,CLR,M,M,M,M,M,M,M,M,M,M,M,M,M,M,29.74,KMEV 240335Z AUTO 22010KT 10SM CLR 03/M06 A2968 RMK AO2,M
HTH,2024-03-24 03:35,-118.6315,38.5448,1282.89,46.40,19.40,33.79,330.00,5.00,0.00,29.65,M,10.00,M,SCT,M,M,M,11000.00,M,M,M,M,M,M,M,M,M,M,43.50,KHTH 240335Z AUTO 33005KT 10SM SCT110 08/M07 A2965 RMK A01,M
10U,2024-03-24 03:35,-116.1876,41.9532,1637.00,30.20,28.40,92.92,140.00,6.00,0.00,29.61,M,10.00,M,FEW,SCT,BKN,M,5000.00,6000.00,7500.00,M,M,M,M,M,M,M,M,23.36,K10U 240335Z AUTO 14006KT 10SM FEW050 SCT060 BKN075 M01/M02 A2961 RMK AO2,M
DRA,2024-03-24 03:53,-116.0278,36.6206,1009.00,53.00,18.00,24.88,210.00,21.00,0.00,29.55,997.90,10.00,30.00,CLR,M,M,M,M,M,M,M,M,M,M,M,34.00,220.00,2024-03-24 03:05,53.00,KDRA 240353Z AUTO 21021G30KT 10SM CLR 12/M08 A2955 RMK AO2 PK WND 22034/0305 SLP979 T01171078,M
ELY,2024-03-24 03:53,-114.8453,39.2950,1909.00,28.00,26.00,92.08,210.00,4.00,0.00,29.62,1000.90,10.00,M,FEW,M,M,M,12000.00,M,M,M,M,M,M,M,M,M,M,22.75,KELY 240353Z AUTO 21004KT 10SM FEW120 M02/M03 A2962 RMK AO2 SLP009 T10221033,M
VGT,2024-03-24 03:53,-115.1933,36.2111,667.00,61.00,23.00,23.06,240.00,10.00,0.00,29.55,1001.10,10.00,24.00,CLR,M,M,M,M,M,M,M,M,M,M,M,32.00,220.00,2024-03-24 03:01,61.00,KVGT 240353Z AUTO 24010G24KT 10SM CLR 16/M05 A2955 RMK AO2 PK WND 22032/0301 SLP011 T01611050,M
LOL,2024-03-24 03:53,-118.5701,40.0684,1192.43,42.00,23.00,46.55,280.00,10.00,0.00,29.64,1003.40,10.00,M,SCT,M,M,M,7000.00,M,M,M,M,M,M,M,M,M,M,35.51,KLOL 240353Z AUTO 28010KT 10SM SCT070 06/M05 A2964 RMK AO2 SLP034 T00561050,M
BVU,2024-03-24 03:55,-114.8611,35.9475,671.00,59.00,32.00,35.87,180.00,6.00,0.00,29.58,M,10.00,M,CLR,M,M,M,M,M,M,M,M,M,M,M,M,M,M,59.00,KBVU 240355Z AUTO 18006KT 10SM CLR 15/00 A2958 RMK AO2,M
CXP,2024-03-24 03:55,-119.7326,39.1923,1431.00,39.20,23.00,51.89,200.00,14.00,0.00,29.68,M,10.00,19.00,SCT,SCT,M,M,4600.00,6000.00,M,M,M,M,M,M,M,M,M,30.44,KCXP 240355Z AUTO 20014G19KT 10SM SCT046 SCT060 04/M05 A2968 RMK AO2,M
RNO,2024-03-24 03:55,-119.7711,39.4839,1341.00,42.00,24.00,48.55,40.00,6.00,0.00,29.65,1003.30,10.00,M,FEW,SCT,BKN,M,3500.00,7000.00,20000.00,M,M,M,M,M,M,M,M,37.57,KRNO 240355Z 04006KT 10SM FEW035 SCT070 BKN200 06/M04 A2965 RMK AO2 SLP033 T00561044,M
LSV,2024-03-24 03:55,-115.0343,36.2362,570.00,62.00,26.60,25.86,230.00,18.00,0.00,29.51,997.90,10.00,21.00,CLR,M,M,M,M,M,M,M,M,M,M,M,M,M,M,62.00,KLSV 240355Z AUTO 23018G21KT 10SM CLR 17/M03 A2951 RMK AO2 SLP979 T01661030,M
RTS,2024-03-24 03:55,-119.8764,39.6682,1539.00,35.60,23.00,59.79,270.00,8.00,0.00,29.68,M,10.00,18.00,SCT,M,M,M,12000.00,M,M,M,M,M,M,M,M,M,M,28.55,KRTS 240355Z AUTO 27008G18KT 10SM SCT120 02/M05 A2968 RMK AO2,M
MEV,2024-03-24 03:55,-119.7500,38.9963,1441.42,35.60,21.20,55.41,0.00,0.00,0.00,29.69,M,10.00,M,SCT,M,M,M,9500.00,M,M,M,M,M,M,M,M,M,M,35.60,KMEV 240355Z AUTO 00000KT 10SM SCT095 02/M06 A2969 RMK AO2,M
HTH,2024-03-24 03:55,-118.6315,38.5448,1282.89,44.60,19.40,36.18,40.00,6.00,0.00,29.66,M,10.00,M,SCT,M,M,M,11000.00,M,M,M,M,M,M,M,M,M,M,40.71,KHTH 240355Z AUTO 04006KT 10SM SCT110 07/M07 A2966 RMK A01,M
10U,2024-03-24 03:55,-116.1876,41.9532,1637.00,30.20,28.40,92.92,130.00,4.00,0.00,29.61,M,10.00,M,BKN,OVC,M,M,6000.00,7000.00,M,M,M,M,M,M,M,M,M,25.32,K10U 240355Z AUTO 13004KT 10SM BKN060 OVC070 M01/M02 A2961 RMK AO2,M
INS,2024-03-24 03:55,-115.6733,36.5872,955.00,55.20,16.00,21.06,240.00,19.00,0.00,29.54,997.40,10.00,26.00,CLR,M,M,M,M,M,M,M,M,M,M,M,29.00,220.00,2024-03-24 02:55,55.20,KINS 240355Z AUTO 24019G26KT 10SM CLR 13/M09 A2954 RMK AO2 PK WND 22029/0255 SLP974 T01291089 $,M
INS,2024-03-24 03:56,-115.6733,36.5872,955.00,55.40,15.80,20.73,250.00,15.00,0.00,29.54,997.40,10.00,26.00,CLR,M,M,M,M,M,M,M,M,M,M,M,M,M,M,55.40,KINS 240356Z AUTO 25015G26KT 10SM CLR 13/M09 A2954 RMK AO2 WSHFT 43 SLP974 $,M
EKO,2024-03-24 03:56,-115.7860,40.8242,1367.00,34.00,23.00,63.72,0.00,0.00,0.00,29.60,1001.90,10.00,M,CLR,M,M,M,M,M,M,M,M,M,M,M,M,M,M,34.00,KEKO 240356Z AUTO 00000KT 10SM CLR 01/M05 A2960 RMK AO2 SLP019 T00111050,M
WMC,2024-03-24 03:56,-117.8072,40.9019,1315.00,39.00,27.00,61.78,260.00,9.00,0.00,29.61,1002.40,10.00,M,SCT,M,M,M,7000.00,M,M,M,M,M,M,M,M,M,M,32.22,KWMC 240356Z AUTO 26009KT 10SM SCT070 04/M03 A2961 RMK AO2 SLP024 T00391028,M
NFL,2024-03-24 03:56,-118.7010,39.4166,1199.00,44.00,22.00,41.34,280.00,9.00,0.00,29.66,1002.60,10.00,M,CLR,M,M,M,M,M,M,M,M,M,M,M,M,M,M,38.44,KNFL 240356Z AUTO 28009KT 10SM CLR 07/M06 A2966 RMK AO2 SLP026 T00671056,M
HND,2024-03-24 03:56,-115.1344,35.9729,742.79,58.00,29.00,32.91,220.00,15.00,0.00,29.58,1002.20,10.00,21.00,CLR,M,M,M,M,M,M,M,M,M,M,M,M,M,M,58.00,KHND 240356Z AUTO 22015G21KT 10SM CLR 14/M02 A2958 RMK AO2 SLP022 T01441017,M
TPH,2024-03-24 03:56,-117.0904,38.0505,1654.00,39.00,12.00,32.54,10.00,7.00,0.00,29.62,1001.50,10.00,M,CLR,M,M,M,M,M,M,M,M,M,M,M,M,M,M,33.31,KTPH 240356Z AUTO 01007KT 10SM CLR 04/M11 A2962 RMK AO2 SLP015 T00391111,M
LAS,2024-03-24 03:56,-115.1634,36.0719,663.00,58.00,29.00,32.91,220.00,14.00,0.00,29.55,999.50,10.00,25.00,FEW,SCT,M,M,12000.00,16000.00,M,M,M,M,M,M,30.00,220.00,2024-03-24 03:34,58.00,KLAS 240356Z 22014G25KT 10SM FEW120 SCT160 14/M02 A2955 RMK AO2 PK WND 22030/0334 SLP995 T01441017 $,M
INS,2024-03-24 04:04,-115.6733,36.5872,955.00,55.40,12.20,17.70,210.00,16.00,0.00,29.54,997.40,10.00,M,CLR,M,M,M,M,M,M,M,M,M,M,M,M,M,M,55.40,KINS 240404Z AUTO 21016KT 10SM CLR 13/M11 A2954 RMK AO2 WSHFT 0357 SLP974 $,M
BVU,2024-03-24 04:15,-114.8611,35.9475,671.00,59.00,28.40,30.98,240.00,17.00,0.00,29.57,M,10.00,24.00,CLR,M,M,M,M,M,M,M,M,M,M,M,M,M,M,59.00,KBVU 240415Z AUTO 24017G24KT 10SM CLR 15/M02 A2957 RMK AO2,M
CXP,2024-03-24 04:15,-119.7326,39.1923,1431.00,39.20,21.20,48.10,200.00,10.00,0.00,29.68,M,10.00,20.00,FEW,BKN,M,M,4700.00,6000.00,M,M,M,M,M,M,M,M,M,32.00,KCXP 240415Z AUTO 20010G20KT 10SM FEW047 BKN060 04/M06 A2968 RMK AO2,M
RTS,2024-03-24 04:15,-119.8764,39.6682,1539.00,35.60,23.00,59.79,260.00,12.00,0.00,29.68,M,10.00,M,FEW,M,M,M,4100.00,M,M,M,M,M,M,M,M,M,M,26.58,KRTS 240415Z AUTO 26012KT 10SM FEW041 02/M05 A2968 RMK AO2,M
MEV,2024-03-24 04:15,-119.7500,38.9963,1441.42,35.60,23.00,59.79,100.00,5.00,0.00,29.69,M,10.00,M,SCT,BKN,OVC,M,6000.00,10000.00,12000.00,M,M,M,M,M,M,M,M,30.67,KMEV 240415Z AUTO 10005KT 10SM SCT060 BKN100 OVC120 02/M05 A2969 RMK AO2,M
HTH,2024-03-24 04:15,-118.6315,38.5448,1282.89,44.60,17.60,33.49,M,5.00,0.00,29.66,M,10.00,13.00,FEW,M,M,M,12000.00,M,M,M,M,M,M,M,M,M,M,41.36,KHTH 240415Z AUTO VRB05G13KT 10SM FEW120 07/M08 A2966 RMK A01,M
10U,2024-03-24 04:15,-116.1876,41.9532,1637.00,30.20,28.40,92.92,140.00,5.00,0.00,29.61,M,10.00,M,BKN,OVC,M,M,6000.00,7000.00,M,M,M,M,M,M,M,M,M,24.26,K10U 240415Z AUTO 14005KT 10SM BKN060 OVC070 M01/M02 A2961 RMK AO2,M
TMT,2024-03-24 04:15,-117.1971,39.4643,1749.34,26.00,16.00,65.43,190.00,4.00,0.00,29.66,M,10.00,M,CLR,M,M,M,M,M,M,M,M,M,M,M,M,M,M,20.41,KTMT 240415Z AUTO 19004KT 10SM CLR M03/M09 A2966 RMK AO2 T10341089,M
RTS,2024-03-24 04:25,-119.8764,39.6682,1539.00,35.60,23.00,59.79,260.00,11.00,0.00,29.68,M,10.00,M,FEW,M,M,M,4000.00,M,M,M,M,M,M,M,M,M,M,27.02,KRTS 240425Z AUTO 26011KT 10SM FEW040 02/M05 A2968 RMK AO2,M
MEV,2024-03-24 04:30,-119.7500,38.9963,1441.42,35.60,23.00,59.79,M,4.00,0.00,29.69,M,10.00,M,FEW,SCT,BKN,M,4600.00,6000.00,10000.00,M,M,M,M,M,M,M,M,31.62,KMEV 240430Z AUTO VRB04KT 10SM FEW046 SCT060 BKN100 02/M05 A2969 RMK AO2,M
BVU,2024-03-24 04:35,-114.8611,35.9475,671.00,59.00,26.60,28.77,260.00,14.00,0.00,29.58,M,10.00,20.00,CLR,M,M,M,M,M,M,M,M,M,M,M,M,M,M,59.00,KBVU 240435Z AUTO 26014G20KT 10SM CLR 15/M03 A2958 RMK AO2,M
CXP,2024-03-24 04:35,-119.7326,39.1923,1431.00,39.20,21.20,48.10,200.00,11.00,0.00,29.69,M,10.00,23.00,FEW,BKN,OVC,M,3100.00,6000.00,7000.00,M,M,M,M,M,M,M,M,31.57,KCXP 240435Z AUTO 20011G23KT 10SM FEW031 BKN060 OVC070 04/M06 A2969 RMK AO2,M
HTH,2024-03-24 04:35,-118.6315,38.5448,1282.89,44.60,21.20,39.06,120.00,6.00,0.00,29.67,M,10.00,M,FEW,M,M,M,11000.00,M,M,M,M,M,M,M,M,M,M,40.71,KHTH 240435Z AUTO 12006KT 10SM FEW110 07/M06 A2967 RMK A01,M
10U,2024-03-24 04:35,-116.1876,41.9532,1637.00,28.40,26.60,92.86,130.00,5.00,0.00,29.61,M,10.00,M,BKN,OVC,M,M,5500.00,6500.00,M,M,M,M,M,M,M,M,M,22.12,K10U 240435Z AUTO 13005KT 10SM BKN055 OVC065 M02/M03 A2961 RMK AO2,M
DRA,2024-03-24 04:53,-116.0278,36.6206,1009.00,51.00,19.00,27.96,240.00,14.00,0.00,29.57,998.70,10.00,25.00,CLR,M,M,M,M,M,M,M,M,M,M,M,32.00,220.00,2024-03-24 04:13,51.00,KDRA 240453Z AUTO 24014G25KT 10SM CLR 11/M07 A2957 RMK AO2 PK WND 22032/0413 SLP987 T01061072,M
ELY,2024-03-24 04:53,-114.8453,39.2950,1909.00,27.00,26.00,95.95,180.00,3.00,0.00,29.62,1000.90,10.00,M,CLR,M,M,M,M,M,M,M,M,M,M,M,M,M,M,22.97,KELY 240453Z AUTO 18003KT 10SM CLR M03/M03 A2962 RMK AO2 SLP009 T10281033,M
VGT,2024-03-24 04:53,-115.1933,36.2111,667.00,60.00,25.00,25.98,250.00,14.00,0.00,29.55,1001.10,10.00,M,CLR,M,M,M,M,M,M,M,M,M,M,M,27.00,250.00,2024-03-24 04:38,60.00,KVGT 240453Z AUTO 25014KT 10SM CLR 16/M04 A2955 RMK AO2 PK WND 25027/0438 SLP011 T01561039,M
LOL,2024-03-24 04:53,-118.5701,40.0684,1192.43,38.00,22.00,52.14,250.00,6.00,0.00,29.64,1003.80,10.00,M,CLR,M,M,M,M,M,M,M,M,M,M,M,M,M,M,32.76,KLOL 240453Z AUTO 25006KT 10SM CLR 03/M06 A2964 RMK AO2 SLP038 T00331056,M
BVU,2024-03-24 04:55,-114.8611,35.9475,671.00,57.20,26.60,30.69,260.00,17.00,0.00,29.59,M,10.00,22.00,CLR,M,M,M,M,M,M,M,M,M,M,M,M,M,M,57.20,KBVU 240455Z AUTO 26017G22KT 10SM CLR 14/M03 A2959 RMK AO2,M
CXP,2024-03-24 04:55,-119.7326,39.1923,1431.00,39.20,21.20,48.10,210.00,9.00,0.00,29.69,M,10.00,14.00,SCT,BKN,OVC,M,4100.00,4800.00,12000.00,M,M,M,M,M,M,M,M,32.47,KCXP 240455Z AUTO 21009G14KT 10SM SCT041 BKN048 OVC120 04/M06 A2969 RMK AO2,M
INS,2024-03-24 04:55,-115.6733,36.5872,955.00,53.00,20.70,27.93,330.00,11.00,0.00,29.56,998.30,10.00,16.00,CLR,M,M,M,M,M,M,M,M,M,M,M,31.00,320.00,2024-03-24 04:41,53.00,KINS 240455Z AUTO 33011G16KT 10SM CLR 12/M06 A2956 RMK AO2 PK WND 32031/41 SLP983 T01161063 $,M
RNO,2024-03-24 04:55,-119.7711,39.4839,1341.00,42.00,23.00,46.55,50.00,5.00,0.00,29.66,1003.10,10.00,M,BKN,OVC,M,M,6000.00,16000.00,M,M,M,M,M,M,M,M,M,38.27,KRNO 240455Z 05005KT 10SM BKN060 OVC160 06/M05 A2966 RMK AO2 SLP031 T00561050,M
LSV,2024-03-24 04:55,-115.0343,36.2362,570.00,60.40,24.40,24.98,230.00,14.00,0.00,29.52,998.40,10.00,M,CLR,M,M,M,M,M,M,M,M,M,M,M,M,M,M,60.40,KLSV 240455Z AUTO 23014KT 10SM CLR 16/M04 A2952 RMK AO2 SLP984 T01581042,M
RTS,2024-03-24 04:55,-119.8764,39.6682,1539.00,35.60,23.00,59.79,250.00,8.00,0.00,29.67,M,10.00,M,FEW,SCT,M,M,3900.00,4700.00,M,M,M,M,M,M,M,M,M,28.55,KRTS 240455Z AUTO 25008KT 10SM FEW039 SCT047 02/M05 A2967 RMK AO2,M
MEV,2024-03-24 04:55,-119.7500,38.9963,1441.42,39.20,19.40,44.55,220.00,11.00,0.00,29.68,M,10.00,M,OVC,M,M,M,10000.00,M,M,M,M,M,M,M,M,M,M,31.57,KMEV 240455Z AUTO 22011KT 10SM OVC100 04/M07 A2968 RMK AO2,M
HTH,2024-03-24 04:55,-118.6315,38.5448,1282.89,44.60,15.80,30.98,180.00,7.00,0.00,29.66,M,10.00,12.00,FEW,M,M,M,11000.00,M,M,M,M,M,M,M,M,M,M,40.14,KHTH 240455Z AUTO 18007G12KT 10SM FEW110 07/M09 A2966 RMK A01,M
10U,2024-03-24 04:55,-116.1876,41.9532,1637.00,28.40,26.60,92.86,150.00,5.00,0.00,29.61,M,10.00,M,BKN,OVC,M,M,4500.00,6000.00,M,M,M,M,M,M,M,M,M,22.12,K10U 240455Z AUTO 15005KT 10SM BKN045 OVC060 M02/M03 A2961 RMK AO2,M
TMT,2024-03-24 04:55,-117.1971,39.4643,1749.34,29.50,19.00,64.48,0.00,0.00,0.00,29.66,M,10.00,M,SCT,M,M,M,6000.00,M,M,M,M,M,M,M,M,M,M,29.50,KTMT 240455Z AUTO 00000KT 10SM SCT060 M01/M07 A2966 RMK AO2 T10141073,M
EKO,2024-03-24 04:56,-115.7860,40.8242,1367.00,31.00,22.00,68.92,270.00,4.00,0.00,29.61,1002.50,10.00,M,CLR,M,M,M,M,M,M,M,M,M,M,M,M,M,M,26.25,KEKO 240456Z AUTO 27004KT 10SM CLR M01/M06 A2961 RMK AO2 SLP025 T10061056,M
WMC,2024-03-24 04:56,-117.8072,40.9019,1315.00,33.00,24.00,69.16,190.00,6.00,0.00,29.62,1003.10,10.00,M,CLR,M,M,M,M,M,M,M,M,M,M,M,M,M,M,26.73,KWMC 240456Z AUTO 19006KT 10SM CLR 01/M04 A2962 RMK AO2 SLP031 T00061044,M
NFL,2024-03-24 04:56,-118.7010,39.4166,1199.00,42.00,22.00,44.63,290.00,10.00,0.00,29.66,1002.80,10.00,M,CLR,M,M,M,M,M,M,M,M,M,M,M,M,M,M,35.51,KNFL 240456Z AUTO 29010KT 10SM CLR 06/M06 A2966 RMK AO2 SLP028 T00561056,M
HND,2024-03-24 04:56,-115.1344,35.9729,742.79,56.00,29.00,35.38,230.00,12.00,0.00,29.61,1003.10,10.00,M,CLR,M,M,M,M,M,M,M,M,M,M,M,M,M,M,56.00,KHND 240456Z AUTO 23012KT 10SM CLR 13/M02 A2961 RMK AO2 SLP031 T01331017,M
TPH,2024-03-24 04:56,-117.0904,38.0505,1654.00,35.00,15.00,43.47,10.00,8.00,0.00,29.63,1001.50,10.00,M,CLR,M,M,M,M,M,M,M,M,M,M,M,M,M,M,27.81,KTPH 240456Z AUTO 01008KT 10SM CLR 02/M09 A2963 RMK AO2 SLP015 T00171094,M
LAS,2024-03-24 04:56,-115.1634,36.0719,663.00,57.00,28.00,32.75,200.00,4.00,0.00,29.57,1000.00,10.00,M,FEW,SCT,M,M,12000.00,20000.00,M,M,M,M,M,M,35.00,240.00,2024-03-24 04:01,57.00,KLAS 240456Z 20004KT 10SM FEW120 SCT200 14/M02 A2957 RMK AO2 PK WND 24035/0401 SLP000 T01391022 $,M
RTS,2024-03-24 05:10,-119.8764,39.6682,1539.00,35.60,23.00,59.79,250.00,13.00,0.00,29.67,M,10.00,M,FEW,SCT,SCT,M,3500.00,4400.00,4900.00,M,M,M,M,M,M,M,M,26.18,KRTS 240510Z AUTO 25013KT 10SM FEW035 SCT044 SCT049 02/M05 A2967 RMK AO2,M
BVU,2024-03-24 05:15,-114.8611,35.9475,671.00,57.20,26.60,30.69,250.00,19.00,0.00,29.56,M,10.00,M,CLR,M,M,M,M,M,M,M,M,M,M,M,M,M,M,57.20,KBVU 240515Z AUTO 25019KT 10SM CLR 14/M03 A2956 RMK AO2,M
CXP,2024-03-24 05:15,-119.7326,39.1923,1431.00,39.20,21.20,48.10,190.00,6.00,0.00,29.69,M,10.00,M,SCT,BKN,M,M,4300.00,5000.00,M,M,M,M,M,M,M,M,M,34.20,KCXP 240515Z AUTO 19006KT 10SM SCT043 BKN050 04/M06 A2969 RMK AO2,M
MEV,2024-03-24 05:15,-119.7500,38.9963,1441.42,37.40,19.40,47.80,M,5.00,0.00,29.68,M,10.00,M,FEW,BKN,M,M,4600.00,11000.00,M,M,M,M,M,M,M,M,M,32.81,KMEV 240515Z AUTO VRB05KT 10SM FEW046 BKN110 03/M07 A2968 RMK AO2,M
HTH,2024-03-24 05:15,-118.6315,38.5448,1282.89,44.60,15.80,30.98,0.00,0.00,0.00,29.66,M,10.00,M,FEW,M,M,M,11000.00,M,M,M,M,M,M,M,M,M,M,44.60,KHTH 240515Z AUTO 00000KT 10SM FEW110 07/M09 A2966 RMK A01,M
10U,2024-03-24 05:15,-116.1876,41.9532,1637.00,26.60,24.80,92.80,0.00,0.00,0.00,29.61,M,10.00,M,BKN,BKN,M,M,4100.00,4700.00,M,M,M,M,M,M,M,M,M,26.60,K10U 240515Z AUTO 00000KT 10SM BKN041 BKN047 M03/M04 A2961 RMK AO2,M
TMT,2024-03-24 05:15,-117.1971,39.4643,1749.34,28.40,18.00,64.62,250.00,4.00,0.00,29.66,M,10.00,M,BKN,BKN,M,M,5000.00,6000.00,M,M,M,M,M,M,M,M,M,23.22,KTMT 240515Z AUTO 25004KT 10SM BKN050 BKN060 M02/M08 A2966 RMK AO2 T10201077,M
BVU,2024-03-24 05:35,-114.8611,35.9475,671.00,57.20,26.60,30.69,240.00,25.00,0.00,29.56,M,10.00,31.00,CLR,M,M,M,M,M,M,M,M,M,M,M,M,M,M,57.20,KBVU 240535Z AUTO 24025G31KT 10SM CLR 14/M03 A2956 RMK AO2,M
CXP,2024-03-24 05:35,-119.7326,39.1923,1431.00,39.20,21.20,48.10,210.00,11.00,0.00,29.68,M,10.00,M,FEW,FEW,SCT,M,4000.00,4600.00,5500.00,M,M,M,M,M,M,M,M,31.57,KCXP 240535Z AUTO 21011KT 10SM FEW040 FEW046 SCT055 04/M06 A2968 RMK AO2,M
RTS,2024-03-24 05:35,-119.8764,39.6682,1539.00,35.60,23.00,59.79,250.00,8.00,0.00,29.67,M,10.00,18.00,CLR,M,M,M,M,M,M,M,M,M,M,M,M,M,M,28.55,KRTS 240535Z AUTO 25008G18KT 10SM CLR 02/M05 A2967 RMK AO2,M
MEV,2024-03-24 05:35,-119.7500,38.9963,1441.42,35.60,21.20,55.41,0.00,0.00,0.00,29.68,M,10.00,M,FEW,FEW,FEW,M,4700.00,6000.00,12000.00,M,M,M,M,M,M,M,M,35.60,KMEV 240535Z AUTO 00000KT 10SM FEW047 FEW060 FEW120 02/M06 A2968 RMK AO2,M
HTH,2024-03-24 05:35,-118.6315,38.5448,1282.89,44.60,15.80,30.98,290.00,8.00,0.00,29.66,M,10.00,M,CLR,M,M,M,M,M,M,M,M,M,M,M,M,M,M,39.63,KHTH 240535Z AUTO 29008KT 10SM CLR 07/M09 A2966 RMK A01,M
10U,2024-03-24 05:35,-116.1876,41.9532,1637.00,26.60,24.80,92.80,210.00,3.00,0.00,29.61,M,10.00,M,FEW,FEW,FEW,M,4100.00,4700.00,5500.00,M,M,M,M,M,M,M,M,22.52,K10U 240535Z AUTO 21003KT 10SM FEW041 FEW047 FEW055 M03/M04 A2961 RMK AO2,M
DRA,2024-03-24 05:53,-116.0278,36.6206,1009.00,48.00,28.00,45.61,40.00,14.00,0.00,29.60,999.90,10.00,23.00,BKN,M,M,M,11000.00,M,M,M,M,M,M,M,28.00,20.00,2024-03-24 05:41,41.79,KDRA 240553Z AUTO 04014G23KT 10SM BKN110 09/M02 A2960 RMK AO2 PK WND 02028/0541 WSHFT 0538 SLP999 T00891022 10161 20089 53013,M
ELY,2024-03-24 05:53,-114.8453,39.2950,1909.00,25.00,23.00,91.97,0.00,0.00,0.00,29.61,1000.80,10.00,M,CLR,M,M,M,M,M,M,M,M,M,M,M,M,M,M,25.00,KELY 240553Z AUTO 00000KT 10SM CLR M04/M05 A2961 RMK AO2 SLP008 60008 T10391050 10000 21039 58006,M
VGT,2024-03-24 05:53,-115.1933,36.2111,667.00,59.00,21.00,22.76,240.00,8.00,0.00,29.54,1000.70,10.00,M,CLR,M,M,M,M,M,M,M,M,M,M,M,M,M,M,59.00,KVGT 240553Z AUTO 24008KT 10SM CLR 15/M06 A2954 RMK AO2 SLP007 T01501061 10200 20150 50006,M
LOL,2024-03-24 05:53,-118.5701,40.0684,1192.43,36.00,20.00,51.83,240.00,4.00,0.00,29.65,1004.00,10.00,M,OVC,M,M,M,10000.00,M,M,M,M,M,M,M,M,M,M,32.09,KLOL 240553Z AUTO 24004KT 10SM OVC100 02/M07 A2965 RMK AO2 SLP040 T00221067 10111 20017 51006,M
BVU,2024-03-24 05:55,-114.8611,35.9475,671.00,55.40,26.60,32.76,240.00,16.00,0.00,29.58,M,10.00,22.00,CLR,M,M,M,M,M,M,M,M,M,M,M,M,M,M,55.40,KBVU 240555Z AUTO 24016G22KT 10SM CLR 13/M03 A2958 RMK AO2,M
CXP,2024-03-24 05:55,-119.7326,39.1923,1431.00,39.20,21.20,48.10,220.00,10.00,0.00,29.67,M,10.00,29.00,FEW,FEW,FEW,M,3300.00,4000.00,4600.00,M,M,M,M,M,M,M,M,32.00,KCXP 240555Z AUTO 22010G29KT 190V270 10SM FEW033 FEW040 FEW046 04/M06 A2967 RMK AO2,M
INS,2024-03-24 05:55,-115.6733,36.5872,955.00,50.70,24.00,34.94,340.00,11.00,0.00,29.60,999.90,10.00,15.00,CLR,M,M,M,M,M,M,M,M,M,M,M,M,M,M,50.70,KINS 240555Z AUTO 34011G15KT 10SM CLR 10/M04 A2960 RMK AO2 SLP999 T01041044 10166 20100 53022 $,M
RNO,2024-03-24 05:55,-119.7711,39.4839,1341.00,41.00,24.00,50.46,80.00,5.00,0.00,29.65,1002.70,10.00,M,SCT,BKN,M,M,6500.00,16000.00,M,M,M,M,M,M,M,M,M,37.08,KRNO 240555Z 08005KT 10SM SCT065 BKN160 05/M04 A2965 RMK AO2 SLP027 T00501044 10089 20050 58004,M
LSV,2024-03-24 05:55,-115.0343,36.2362,570.00,58.30,26.20,29.02,220.00,16.00,0.00,29.51,997.90,10.00,M,CLR,M,M,M,M,M,M,M,M,M,M,M,M,M,M,58.30,KLSV 240555Z AUTO 22016KT 10SM CLR 15/M03 A2951 RMK AO2 SLP979 T01461032 10205 20146 55004,M
RTS,2024-03-24 05:55,-119.8764,39.6682,1539.00,37.40,23.00,55.68,230.00,11.00,0.00,29.66,M,10.00,18.00,CLR,M,M,M,M,M,M,M,M,M,M,M,M,M,M,29.29,KRTS 240555Z AUTO 23011G18KT 10SM CLR 03/M05 A2966 RMK AO2,M
MEV,2024-03-24 05:55,-119.7500,38.9963,1441.42,35.60,21.20,55.41,0.00,0.00,0.00,29.68,M,10.00,M,SCT,BKN,BKN,M,4600.00,5000.00,6000.00,M,M,M,M,M,M,M,M,35.60,KMEV 240555Z AUTO 00000KT 10SM SCT046 BKN050 BKN060 02/M06 A2968 RMK AO2,M
HTH,2024-03-24 05:55,-118.6315,38.5448,1282.89,44.60,14.00,28.64,M,4.00,0.00,29.66,M,10.00,12.00,CLR,M,M,M,M,M,M,M,M,M,M,M,M,M,M,42.13,KHTH 240555Z AUTO VRB04G12KT 10SM CLR 07/M10 A2966 RMK A01,M
10U,2024-03-24 05:55,-116.1876,41.9532,1637.00,24.80,24.80,100.00,200.00,3.00,0.00,29.61,M,10.00,M,SCT,BKN,BKN,M,6000.00,7500.00,9000.00,M,M,M,M,M,M,M,M,20.46,K10U 240555Z AUTO 20003KT 10SM SCT060 BKN075 BKN090 M04/M04 A2961 RMK AO2,M
TMT,2024-03-24 05:55,-117.1971,39.4643,1749.34,28.00,18.70,67.69,250.00,5.00,0.00,29.66,M,10.00,M,SCT,BKN,M,M,5000.00,9000.00,M,M,M,M,M,M,M,M,M,21.64,KTMT 240555Z AUTO 25005KT 10SM SCT050 BKN090 M02/M07 A2966 RMK AO2 T10231074 10077 21041,M
EKO,2024-03-24 05:56,-115.7860,40.8242,1367.00,29.00,22.00,74.77,240.00,4.00,0.00,29.60,1002.90,10.00,M,CLR,M,M,M,M,M,M,M,M,M,M,M,M,M,M,23.92,KEKO 240556Z AUTO 24004KT 10SM CLR M02/M06 A2960 RMK AO2 SLP029 60000 T10171056 10078 21017 50003,M
WMC,2024-03-24 05:56,-117.8072,40.9019,1315.00,34.00,24.00,66.45,0.00,0.00,0.00,29.63,1002.80,10.00,M,CLR,M,M,M,M,M,M,M,M,M,M,M,M,M,M,34.00,KWMC 240556Z AUTO 00000KT 10SM CLR 01/M04 A2963 RMK AO2 SLP028 T00111044 10094 20000 52005,M
NFL,2024-03-24 05:56,-118.7010,39.4166,1199.00,38.00,22.00,52.14,340.00,3.00,0.00,29.66,1002.60,10.00,M,CLR,M,M,M,M,M,M,M,M,M,M,M,M,M,M,35.55,KNFL 240556Z AUTO 34003KT 10SM CLR 03/M06 A2966 RMK AO2 SLP026 T00331056 10122 20033 50003,M
HND,2024-03-24 05:56,-115.1344,35.9729,742.79,54.00,29.00,38.05,220.00,13.00,0.00,29.60,1002.70,10.00,20.00,CLR,M,M,M,M,M,M,M,M,M,M,M,M,M,M,54.00,KHND 240556Z AUTO 22013G20KT 10SM CLR 12/M02 A2960 RMK AO2 SLP027 T01221017 10189 20122 50003,M
TPH,2024-03-24 05:56,-117.0904,38.0505,1654.00,32.00,17.00,53.46,350.00,5.00,0.00,29.63,1001.90,10.00,M,FEW,M,M,M,12000.00,M,M,M,M,M,M,M,M,M,M,26.40,KTPH 240556Z AUTO 35005KT 10SM FEW120 00/M08 A2963 RMK AO2 SLP019 T00001083 10117 20000 51007,M
LAS,2024-03-24 05:56,-115.1634,36.0719,663.00,55.00,27.00,33.79,210.00,9.00,0.00,29.56,999.60,10.00,17.00,FEW,SCT,M,M,12000.00,20000.00,M,M,M,M,M,M,M,M,M,55.00,KLAS 240556Z 21009G17KT 10SM FEW120 SCT200 13/M03 A2956 RMK AO2 SLP996 T01281028 10189 20128 50002 $,M
INS,2024-03-24 06:02,-115.6733,36.5872,955.00,50.00,26.60,39.95,350.00,11.00,0.00,29.60,999.90,10.00,M,CLR,M,M,M,M,M,M,M,M,M,M,M,M,M,M,50.00,KINS 240602Z AUTO 35011KT 10SM CLR 10/M03 A2960 RMK AO2 WSHFT 0549 SLP999 $,M
RTS,2024-03-24 06:10,-119.8764,39.6682,1539.00,37.40,21.20,51.61,240.00,12.00,0.00,29.66,M,10.00,19.00,CLR,M,M,M,M,M,M,M,M,M,M,M,M,M,M,28.87,KRTS 240610Z AUTO 24012G19KT 10SM CLR 03/M06 A2966 RMK AO2,M
BVU,2024-03-24 06:15,-114.8611,35.9475,671.00,55.40,28.40,35.28,240.00,15.00,0.00,29.57,M,10.00,M,CLR,M,M,M,M,M,M,M,M,M,M,M,M,M,M,55.40,KBVU 240615Z AUTO 24015KT 10SM CLR 13/M02 A2957 RMK AO2,M
CXP,2024-03-24 06:15,-119.7326,39.1923,1431.00,39.20,21.20,48.10,210.00,10.00,0.00,29.67,M,10.00,16.00,CLR,M,M,M,M,M,M,M,M,M,M,M,M,M,M,32.00,KCXP 240615Z AUTO 21010G16KT 10SM CLR 04/M06 A2967 RMK AO2,M
MEV,2024-03-24 06:15,-119.7500,38.9963,1441.42,37.40,21.20,51.61,0.00,0.00,0.00,29.67,M,10.00,M,BKN,OVC,M,M,5000.00,6000.00,M,M,M,M,M,M,M,M,M,37.40,KMEV 240615Z AUTO 00000KT 10SM BKN050 OVC060 03/M06 A2967 RMK AO2,M
HTH,2024-03-24 06:15,-118.6315,38.5448,1282.89,44.60,12.20,26.45,M,3.00,0.00,29.66,M,10.00,10.00,CLR,M,M,M,M,M,M,M,M,M,M,M,M,M,M,43.09,KHTH 240615Z AUTO VRB03G10KT 10SM CLR 07/M11 A2966 RMK A01,M
10U,2024-03-24 06:15,-116.1876,41.9532,1637.00,26.60,24.80,92.80,170.00,4.00,0.00,29.61,M,10.00,M,FEW,OVC,M,M,2700.00,5500.00,M,M,M,M,M,M,M,M,M,21.11,K10U 240615Z AUTO 17004KT 10SM FEW027 OVC055 M03/M04 A2961 RMK AO2,M
TMT,2024-03-24 06:15,-117.1971,39.4643,1749.34,28.00,18.50,67.11,230.00,5.00,0.00,29.66,M,10.00,M,BKN,M,M,M,5000.00,M,M,M,M,M,M,M,M,M,M,21.64,KTMT 240615Z AUTO 23005KT 10SM BKN050 M02/M07 A2966 RMK AO2 T10221075,M
INS,2024-03-24 06:20,-115.6733,36.5872,955.00,48.20,28.40,46.02,310.00,12.00,0.00,29.61,1000.20,10.00,M,CLR,M,M,M,M,M,M,M,M,M,M,M,M,M,M,42.62,KINS 240620Z AUTO 31012KT 10SM CLR 09/M02 A2961 RMK AO2 WSHFT 11 SLP002 $,M
BVU,2024-03-24 06:35,-114.8611,35.9475,671.00,53.60,26.60,34.98,230.00,18.00,0.00,29.55,M,10.00,M,CLR,M,M,M,M,M,M,M,M,M,M,M,M,M,M,53.60,KBVU 240635Z AUTO 23018KT 10SM CLR 12/M03 A2955 RMK AO2,M
CXP,2024-03-24 06:35,-119.7326,39.1923,1431.00,39.20,21.20,48.10,210.00,12.00,0.00,29.67,M,10.00,M,FEW,M,M,M,3600.00,M,M,M,M,M,M,M,M,M,M,31.17,KCXP 240635Z AUTO 21012KT 10SM FEW036 04/M06 A2967 RMK AO2,M
VGT,2024-03-24 06:35,-115.1933,36.2111,667.00,58.00,26.00,29.09,310.00,16.00,0.00,29.54,M,10.00,21.00,CLR,M,M,M,M,M,M,M,M,M,M,M,27.00,280.00,2024-03-24 06:22,58.00,KVGT 240635Z AUTO 31016G21KT 10SM CLR 14/M03 A2954 RMK AO2 PK WND 28027/0622 WSHFT 0615 T01441033,M
RTS,2024-03-24 06:35,-119.8764,39.6682,1539.00,37.40,21.20,51.61,270.00,7.00,0.00,29.66,M,10.00,17.00,FEW,SCT,M,M,6500.00,12000.00,M,M,M,M,M,M,M,M,M,31.36,KRTS 240635Z AUTO 27007G17KT 10SM FEW065 SCT120 03/M06 A2966 RMK AO2,M
MEV,2024-03-24 06:35,-119.7500,38.9963,1441.42,35.60,21.20,55.41,0.00,0.00,0.00,29.67,M,10.00,M,FEW,FEW,BKN,M,4100.00,4900.00,5500.00,M,M,M,M,M,M,M,M,35.60,KMEV 240635Z AUTO 00000KT 10SM FEW041 FEW049 BKN055 02/M06 A2967 RMK AO2,M
HTH,2024-03-24 06:35,-118.6315,38.5448,1282.89,44.60,12.20,26.45,180.00,4.00,0.00,29.66,M,10.00,M,CLR,M,M,M,M,M,M,M,M,M,M,M,M,M,M,42.13,KHTH 240635Z AUTO 18004KT 10SM CLR 07/M11 A2966 RMK A01,M
10U,2024-03-24 06:35,-116.1876,41.9532,1637.00,28.40,26.60,92.86,210.00,5.00,0.00,29.61,M,3.00,M,SCT,BKN,OVC,M,500.00,2500.00,5000.00,M,-SN,M,M,M,M,M,M,22.12,K10U 240635Z AUTO 21005KT 3SM -SN SCT005 BKN025 OVC050 M02/M03 A2961 RMK AO2,M
TMT,2024-03-24 06:35,-117.1971,39.4643,1749.34,30.00,18.50,61.84,220.00,4.00,0.00,29.66,M,10.00,M,OVC,M,M,M,5000.00,M,M,M,M,M,M,M,M,M,M,25.08,KTMT 240635Z AUTO 22004KT 10SM OVC050 M01/M07 A2966 RMK AO2 T10121075,M
DRA,2024-03-24 06:53,-116.0278,36.6206,1009.00,47.00,31.00,53.52,50.00,12.00,0.00,29.59,999.40,10.00,M,FEW,M,M,M,12000.00,M,M,M,M,M,M,M,M,M,M,41.09,KDRA 240653Z AUTO 05012KT 10SM FEW120 08/M01 A2959 RMK AO2 SLP994 T00831006,M
ELY,2024-03-24 06:53,-114.8453,39.2950,1909.00,26.00,24.00,92.01,190.00,4.00,0.00,29.61,1001.40,10.00,M,BKN,BKN,M,M,5000.00,6500.00,M,M,M,M,M,M,M,M,M,20.41,KELY 240653Z AUTO 19004KT 10SM BKN050 BKN065 M03/M04 A2961 RMK AO2 SLP014 T10331044,M
VGT,2024-03-24 06:53,-115.1933,36.2111,667.00,57.00,28.00,32.75,300.00,16.00,0.00,29.54,1000.60,10.00,22.00,CLR,M,M,M,M,M,M,M,M,M,M,M,27.00,280.00,2024-03-24 06:22,57.00,KVGT 240653Z AUTO 30016G22KT 10SM CLR 14/M02 A2954 RMK AO2 PK WND 28027/0622 WSHFT 0615 SLP006 T01391022,M
LOL,2024-03-24 06:53,-118.5701,40.0684,1192.43,34.00,20.00,56.12,160.00,5.00,0.00,29.65,1003.80,10.00,M,SCT,SCT,M,M,10000.00,12000.00,M,M,M,M,M,M,M,M,M,28.77,KLOL 240653Z AUTO 16005KT 10SM SCT100 SCT120 01/M07 A2965 RMK AO2 SLP038 T00111067,M
BVU,2024-03-24 06:55,-114.8611,35.9475,671.00,53.60,26.60,34.98,230.00,15.00,0.00,29.56,M,10.00,21.00,CLR,M,M,M,M,M,M,M,M,M,M,M,M,M,M,53.60,KBVU 240655Z AUTO 23015G21KT 10SM CLR 12/M03 A2956 RMK AO2,M
CXP,2024-03-24 06:55,-119.7326,39.1923,1431.00,39.20,21.20,48.10,200.00,14.00,0.00,29.66,M,10.00,23.00,FEW,BKN,BKN,M,2600.00,3300.00,3800.00,M,M,M,M,M,M,M,M,30.44,KCXP 240655Z AUTO 20014G23KT 130V240 10SM FEW026 BKN033 BKN038 04/M06 A2966 RMK AO2,M
INS,2024-03-24 06:55,-115.6733,36.5872,955.00,47.50,30.00,50.43,300.00,3.00,0.00,29.60,999.90,10.00,M,CLR,M,M,M,M,M,M,M,M,M,M,M,M,M,M,46.41,KINS 240655Z AUTO 30003KT 10SM CLR 09/M01 A2960 RMK AO2 SLP999 T00861012 $,M
RNO,2024-03-24 06:55,-119.7711,39.4839,1341.00,41.00,23.00,48.39,70.00,4.00,0.00,29.64,1002.00,10.00,M,BKN,BKN,M,M,5000.00,12000.00,M,M,M,M,M,M,M,M,M,37.93,KRNO 240655Z 07004KT 10SM BKN050 BKN120 05/M05 A2964 RMK AO2 SLP020 T00501050,M
RTS,2024-03-24 06:55,-119.8764,39.6682,1539.00,35.60,23.00,59.79,260.00,12.00,0.00,29.65,M,10.00,M,FEW,FEW,SCT,M,4000.00,4600.00,6500.00,M,M,M,M,M,M,M,M,26.58,KRTS 240655Z AUTO 26012KT 10SM FEW040 FEW046 SCT065 02/M05 A2965 RMK AO2,M
MEV,2024-03-24 06:55,-119.7500,38.9963,1441.42,37.40,21.20,51.61,230.00,7.00,0.00,29.66,M,10.00,M,FEW,FEW,M,M,5500.00,12000.00,M,M,M,M,M,M,M,M,M,31.36,KMEV 240655Z AUTO 23007KT 10SM FEW055 FEW120 03/M06 A2966 RMK AO2,M
HTH,2024-03-24 06:55,-118.6315,38.5448,1282.89,42.80,17.60,35.87,10.00,5.00,0.00,29.66,M,10.00,M,CLR,M,M,M,M,M,M,M,M,M,M,M,M,M,M,39.22,KHTH 240655Z AUTO 01005KT 10SM CLR 06/M08 A2966 RMK A01,M
10U,2024-03-24 06:55,-116.1876,41.9532,1637.00,30.20,30.20,100.00,230.00,5.00,0.00,29.61,M,1.75,M,BKN,OVC,M,M,300.00,1100.00,M,M,-SN,M,M,M,M,M,M,24.26,K10U 240655Z AUTO 23005KT 1 3/4SM -SN BKN003 OVC011 M01/M01 A2961 RMK AO2 VIS 1V2 1/2,M
TMT,2024-03-24 06:55,-117.1971,39.4643,1749.34,29.00,19.00,65.81,10.00,3.00,0.00,29.66,M,10.00,M,OVC,M,M,M,5000.00,M,M,M,M,M,M,M,M,M,M,25.26,KTMT 240655Z AUTO 01003KT 10SM OVC050 M02/M07 A2966 RMK AO2 T10171072,M
LSV,2024-03-24 06:55,-115.0343,36.2362,570.00,57.20,26.00,29.94,170.00,11.00,0.00,29.49,997.20,10.00,M,CLR,M,M,M,M,M,M,M,M,M,M,M,M,M,M,57.20,KLSV 240655Z AUTO 17011KT 10SM CLR 14/M03 A2949 RMK AO2 SLP972 T01401033,M
EKO,2024-03-24 06:56,-115.7860,40.8242,1367.00,28.00,22.00,77.89,0.00,0.00,0.00,29.60,1003.10,10.00,M,CLR,M,M,M,M,M,M,M,M,M,M,M,M,M,M,28.00,KEKO 240656Z AUTO 00000KT 10SM CLR M02/M06 A2960 RMK AO2 SLP031 T10221056,M
WMC,2024-03-24 06:56,-117.8072,40.9019,1315.00,36.00,25.00,63.98,110.00,3.00,0.00,29.62,1002.30,10.00,M,CLR,M,M,M,M,M,M,M,M,M,M,M,M,M,M,33.26,KWMC 240656Z AUTO 11003KT 10SM CLR 02/M04 A2962 RMK AO2 SLP023 T00221039,M
NFL,2024-03-24 06:56,-118.7010,39.4166,1199.00,36.00,21.00,54.08,0.00,0.00,0.00,29.66,1002.60,10.00,M,CLR,M,M,M,M,M,M,M,M,M,M,M,M,M,M,36.00,KNFL 240656Z AUTO 00000KT 10SM CLR 02/M06 A2966 RMK AO2 SLP026 T00221061,M
HND,2024-03-24 06:56,-115.1344,35.9729,742.79,52.00,28.00,39.30,230.00,13.00,0.00,29.59,1002.70,10.00,M,CLR,M,M,M,M,M,M,M,M,M,M,M,M,M,M,52.00,KHND 240656Z AUTO 23013KT 10SM CLR 11/M02 A2959 RMK AO2 SLP027 T01111022 402000111,M
TPH,2024-03-24 06:56,-117.0904,38.0505,1654.00,31.00,17.00,55.67,10.00,9.00,0.00,29.63,1001.90,10.00,M,CLR,M,M,M,M,M,M,M,M,M,M,M,M,M,M,22.27,KTPH 240656Z AUTO 01009KT 10SM CLR M01/M08 A2963 RMK AO2 SLP019 T10061083,M
LAS,2024-03-24 06:56,-115.1634,36.0719,663.00,52.00,28.00,39.30,230.00,15.00,0.00,29.54,999.40,10.00,25.00,FEW,M,M,M,20000.00,M,M,M,M,M,M,M,M,M,M,52.00,KLAS 240656Z 23015G25KT 10SM FEW200 11/M02 A2954 RMK AO2 SLP994 T01111022 $,M
BVU,2024-03-24 07:15,-114.8611,35.9475,671.00,53.60,28.40,37.67,240.00,11.00,0.00,29.56,M,10.00,17.00,CLR,M,M,M,M,M,M,M,M,M,M,M,M,M,M,53.60,KBVU 240715Z AUTO 24011G17KT 10SM CLR 12/M02 A2956 RMK AO2,M
CXP,2024-03-24 07:15,-119.7326,39.1923,1431.00,39.20,21.20,48.10,220.00,10.00,0.00,29.66,M,10.00,16.00,SCT,BKN,OVC,M,2800.00,3400.00,4400.00,M,M,M,M,M,M,M,M,32.00,KCXP 240715Z AUTO 22010G16KT 200V280 10SM SCT028 BKN034 OVC044 04/M06 A2966 RMK AO2,M
RTS,2024-03-24 07:15,-119.8764,39.6682,1539.00,35.60,23.00,59.79,250.00,15.00,0.00,29.65,M,10.00,22.00,FEW,M,M,M,12000.00,M,M,M,M,M,M,M,M,M,M,25.45,KRTS 240715Z AUTO 25015G22KT 10SM FEW120 02/M05 A2965 RMK AO2,M
MEV,2024-03-24 07:15,-119.7500,38.9963,1441.42,37.40,21.20,51.61,170.00,5.00,0.00,29.65,M,10.00,M,FEW,FEW,SCT,M,3100.00,4200.00,12000.00,M,M,M,M,M,M,M,M,32.81,KMEV 240715Z AUTO 17005KT 10SM FEW031 FEW042 SCT120 03/M06 A2965 RMK AO2,M
HTH,2024-03-24 07:15,-118.6315,38.5448,1282.89,42.80,17.60,35.87,340.00,4.00,0.00,29.66,M,10.00,M,CLR,M,M,M,M,M,M,M,M,M,M,M,M,M,M,40.03,KHTH 240715Z AUTO 34004KT 10SM CLR 06/M08 A2966 RMK A01,M
10U,2024-03-24 07:15,-116.1876,41.9532,1637.00,30.20,30.20,100.00,180.00,5.00,0.00,29.61,M,10.00,M,SCT,BKN,OVC,M,400.00,3300.00,4400.00,M,M,M,M,M,M,M,M,24.26,K10U 240715Z AUTO 18005KT 10SM SCT004 BKN033 OVC044 M01/M01 A2961 RMK AO2,M
TMT,2024-03-24 07:15,-117.1971,39.4643,1749.34,27.30,19.00,70.57,280.00,7.00,0.00,29.66,M,10.00,M,BKN,M,M,M,6000.00,M,M,M,M,M,M,M,M,M,M,19.05,KTMT 240715Z AUTO 28007KT 10SM BKN060 M03/M07 A2966 RMK AO2 T10261072,M
BVU,2024-03-24 07:35,-114.8611,35.9475,671.00,51.80,28.40,40.25,220.00,6.00,0.00,29.56,M,10.00,M,CLR,M,M,M,M,M,M,M,M,M,M,M,M,M,M,51.80,KBVU 240735Z AUTO 22006KT 10SM CLR 11/M02 A2956 RMK AO2,M
CXP,2024-03-24 07:35,-119.7326,39.1923,1431.00,39.20,21.20,48.10,220.00,7.00,0.00,29.66,M,10.00,13.00,FEW,BKN,BKN,M,2900.00,3700.00,4400.00,M,M,M,M,M,M,M,M,33.56,KCXP 240735Z AUTO 22007G13KT 10SM FEW029 BKN037 BKN044 04/M06 A2966 RMK AO2,M
RTS,2024-03-24 07:35,-119.8764,39.6682,1539.00,35.60,23.00,59.79,260.00,16.00,0.00,29.65,M,10.00,M,CLR,M,M,M,M,M,M,M,M,M,M,M,M,M,M,25.11,KRTS 240735Z AUTO 26016KT 10SM CLR 02/M05 A2965 RMK AO2,M
MEV,2024-03-24 07:35,-119.7500,38.9963,1441.42,35.60,21.20,55.41,90.00,4.00,0.00,29.65,M,10.00,M,FEW,FEW,SCT,M,3200.00,4300.00,6000.00,M,M,M,M,M,M,M,M,31.62,KMEV 240735Z AUTO 09004KT 10SM FEW032 FEW043 SCT060 02/M06 A2965 RMK AO2,M
HTH,2024-03-24 07:35,-118.6315,38.5448,1282.89,41.00,19.40,41.54,0.00,0.00,0.00,29.66,M,10.00,M,CLR,M,M,M,M,M,M,M,M,M,M,M,M,M,M,41.00,KHTH 240735Z AUTO 00000KT 10SM CLR 05/M07 A2966 RMK A01,M
10U,2024-03-24 07:35,-116.1876,41.9532,1637.00,30.20,30.20,100.00,0.00,0.00,0.00,29.61,M,10.00,M,BKN,OVC,M,M,2900.00,3500.00,M,M,M,M,M,M,M,M,M,30.20,K10U 240735Z AUTO 00000KT 10SM BKN029 OVC035 M01/M01 A2961 RMK AO2,M
RTS,2024-03-24 07:50,-119.8764,39.6682,1539.00,35.60,23.00,59.79,250.00,16.00,0.00,29.65,M,10.00,22.00,CLR,M,M,M,M,M,M,M,M,M,M,M,M,M,M,25.11,KRTS 240750Z AUTO 25016G22KT 10SM CLR 02/M05 A2965 RMK AO2,M
DRA,2024-03-24 07:53,-116.0278,36.6206,1009.00,48.00,28.00,45.61,40.00,6.00,0.00,29.57,998.80,10.00,M,OVC,M,M,M,11000.00,M,M,M,M,M,M,M,M,M,M,44.80,KDRA 240753Z AUTO 04006KT 10SM OVC110 09/M02 A2957 RMK AO2 SLP988 T00891022 401780078,M
ELY,2024-03-24 07:53,-114.8453,39.2950,1909.00,24.00,22.00,91.94,180.00,5.00,0.00,29.60,1001.90,10.00,M,SCT,BKN,M,M,4600.00,6000.00,M,M,M,M,M,M,M,M,M,16.89,KELY 240753Z AUTO 18005KT 10SM SCT046 BKN060 M04/M06 A2960 RMK AO2 SLP019 T10441056 400831050,M
VGT,2024-03-24 07:53,-115.1933,36.2111,667.00,55.00,31.00,39.80,340.00,9.00,0.00,29.53,1000.60,10.00,M,CLR,M,M,M,M,M,M,M,M,M,M,M,M,M,M,55.00,KVGT 240753Z AUTO 34009KT 10SM CLR 13/M01 A2953 RMK AO2 SLP006 T01281006 402220128,M
LOL,2024-03-24 07:53,-118.5701,40.0684,1192.43,34.00,20.00,56.12,190.00,5.00,0.00,29.64,1003.40,10.00,M,SCT,M,M,M,12000.00,M,M,M,M,M,M,M,M,M,M,28.77,KLOL 240753Z AUTO 19005KT 10SM SCT120 01/M07 A2964 RMK AO2 SLP034 T00111067 401220006,M
BVU,2024-03-24 07:55,-114.8611,35.9475,671.00,51.80,28.40,40.25,220.00,14.00,0.00,29.54,M,10.00,M,CLR,M,M,M,M,M,M,M,M,M,M,M,M,M,M,51.80,KBVU 240755Z AUTO 22014KT 10SM CLR 11/M02 A2954 RMK AO2,M
CXP,2024-03-24 07:55,-119.7326,39.1923,1431.00,39.20,23.00,51.89,220.00,11.00,0.00,29.65,M,10.00,20.00,FEW,FEW,FEW,M,3500.00,5000.00,11000.00,M,M,M,M,M,M,M,M,31.57,KCXP 240755Z AUTO 22011G20KT 10SM FEW035 FEW050 FEW110 04/M05 A2965 RMK AO2,M
INS,2024-03-24 07:55,-115.6733,36.5872,955.00,47.70,29.50,49.05,220.00,7.00,0.00,29.57,998.80,10.00,M,SCT,BKN,M,M,11000.00,15000.00,M,M,M,M,M,M,M,M,M,43.92,KINS 240755Z AUTO 22007KT 10SM SCT110 BKN150 09/M01 A2957 RMK AO2 SLP988 T00871014 401880081 $,M
RNO,2024-03-24 07:55,-119.7711,39.4839,1341.00,41.00,24.00,50.46,50.00,7.00,0.00,29.63,1001.90,10.00,M,SCT,BKN,BKN,M,4000.00,6000.00,12000.00,M,M,M,M,M,M,M,M,35.75,KRNO 240755Z 05007KT 10SM SCT040 BKN060 BKN120 05/M04 A2963 RMK AO2 SLP019 T00501044 401110022,M
LSV,2024-03-24 07:55,-115.0343,36.2362,570.00,54.70,31.00,40.23,70.00,4.00,0.00,29.51,998.00,10.00,M,CLR,M,M,M,M,M,M,M,M,M,M,M,M,M,M,54.70,KLSV 240755Z AUTO 07004KT 10SM CLR 13/M01 A2951 RMK AO2 SLP980 T01261006 402230126,M
MEV,2024-03-24 07:55,-119.7500,38.9963,1441.42,35.60,23.00,59.79,0.00,0.00,0.00,29.65,M,10.00,M,FEW,SCT,BKN,M,2700.00,4400.00,5500.00,M,M,M,M,M,M,M,M,35.60,KMEV 240755Z AUTO 00000KT 10SM FEW027 SCT044 BKN055 02/M05 A2965 RMK AO2,M
HTH,2024-03-24 07:55,-118.6315,38.5448,1282.89,41.00,17.60,38.45,0.00,0.00,0.00,29.66,M,10.00,M,CLR,M,M,M,M,M,M,M,M,M,M,M,M,M,M,41.00,KHTH 240755Z AUTO 00000KT 10SM CLR 05/M08 A2966 RMK A01,M
TMT,2024-03-24 07:55,-117.1971,39.4643,1749.34,25.50,17.40,70.97,170.00,4.00,0.00,29.65,M,10.00,M,CLR,M,M,M,M,M,M,M,M,M,M,M,M,M,M,19.83,KTMT 240755Z AUTO 17004KT 10SM CLR M04/M08 A2965 RMK AO2 T10361081 401011041,M
EKO,2024-03-24 07:56,-115.7860,40.8242,1367.00,29.00,22.00,74.77,0.00,0.00,0.00,29.60,1002.70,10.00,M,FEW,M,M,M,5500.00,M,M,M,M,M,M,M,M,M,M,29.00,KEKO 240756Z AUTO 00000KT 10SM FEW055 M02/M06 A2960 RMK AO2 SLP027 T10171056 401001033,M
WMC,2024-03-24 07:56,-117.8072,40.9019,1315.00,37.00,25.00,61.50,0.00,0.00,0.00,29.62,1002.20,10.00,M,BKN,M,M,M,9500.00,M,M,M,M,M,M,M,M,M,M,37.00,KWMC 240756Z AUTO 00000KT 10SM BKN095 03/M04 A2962 RMK AO2 SLP022 T00281039 401060000,M
NFL,2024-03-24 07:56,-118.7010,39.4166,1199.00,32.00,20.00,60.81,60.00,4.00,0.00,29.65,1002.50,10.00,M,FEW,M,M,M,12000.00,M,M,M,M,M,M,M,M,M,M,27.42,KNFL 240756Z AUTO 06004KT 10SM FEW120 00/M07 A2965 RMK AO2 SLP025 T00001067 401391006,M
HND,2024-03-24 07:56,-115.1344,35.9729,742.79,50.00,31.00,47.83,220.00,20.00,0.00,29.57,1001.80,10.00,28.00,CLR,M,M,M,M,M,M,M,M,M,M,M,28.00,230.00,2024-03-24 07:50,50.00,KHND 240756Z AUTO 22020G28KT 10SM CLR 10/M01 A2957 RMK AO2 PK WND 23028/0750 SLP018 T01001006,M
TPH,2024-03-24 07:56,-117.0904,38.0505,1654.00,31.00,18.00,58.12,20.00,4.00,0.00,29.62,1001.30,10.00,M,BKN,M,M,M,11000.00,M,M,M,M,M,M,M,M,M,M,26.25,KTPH 240756Z AUTO 02004KT 10SM BKN110 M01/M08 A2962 RMK AO2 SLP013 T10061078 401391011,M
LAS,2024-03-24 07:56,-115.1634,36.0719,663.00,51.00,29.00,42.49,220.00,5.00,0.00,29.54,999.30,10.00,16.00,BKN,M,M,M,20000.00,M,M,M,M,M,M,M,26.00,230.00,2024-03-24 07:12,51.00,KLAS 240756Z 22005G16KT 10SM BKN200 11/M02 A2954 RMK AO2 PK WND 23026/0712 SLP993 T01061017 402000106 $,M
BVU,2024-03-24 08:15,-114.8611,35.9475,671.00,50.00,28.40,43.03,230.00,11.00,0.00,29.54,M,10.00,M,CLR,M,M,M,M,M,M,M,M,M,M,M,M,M,M,50.00,KBVU 240815Z AUTO 23011KT 10SM CLR 10/M02 A2954 RMK AO2,M
CXP,2024-03-24 08:15,-119.7326,39.1923,1431.00,39.20,23.00,51.89,210.00,13.00,0.00,29.65,M,10.00,19.00,FEW,M,M,M,12000.00,M,M,M,M,M,M,M,M,M,M,30.79,KCXP 240815Z AUTO 21013G19KT 10SM FEW120 04/M05 A2965 RMK AO2,M
RTS,2024-03-24 08:15,-119.8764,39.6682,1539.00,35.60,23.00,59.79,260.00,13.00,0.00,29.64,M,10.00,M,CLR,M,M,M,M,M,M,M,M,M,M,M,M,M,M,26.18,KRTS 240815Z AUTO 26013KT 10SM CLR 02/M05 A2964 RMK AO2,M
MEV,2024-03-24 08:15,-119.7500,38.9963,1441.42,35.60,23.00,59.79,M,3.00,0.00,29.65,M,10.00,M,FEW,SCT,SCT,M,3200.00,6000.00,12000.00,M,M,M,M,M,M,M,M,32.80,KMEV 240815Z AUTO VRB03KT 10SM FEW032 SCT060 SCT120 02/M05 A2965 RMK AO2,M
HTH,2024-03-24 08:15,-118.6315,38.5448,1282.89,37.40,17.60,44.25,160.00,5.00,0.00,29.65,M,10.00,M,CLR,M,M,M,M,M,M,M,M,M,M,M,M,M,M,32.81,KHTH 240815Z AUTO 16005KT 10SM CLR 03/M08 A2965 RMK A01,M
10U,2024-03-24 08:15,-116.1876,41.9532,1637.00,30.20,30.20,100.00,240.00,4.00,0.00,29.61,M,9.00,M,SCT,BKN,OVC,M,400.00,1000.00,1400.00,M,UP,M,M,M,M,M,M,25.32,K10U 240815Z AUTO 24004KT 9SM UP SCT004 BKN010 OVC014 M01/M01 A2961 RMK AO2,M
TMT,2024-03-24 08:15,-117.1971,39.4643,1749.34,24.00,16.50,72.67,170.00,4.00,0.00,29.65,M,10.00,M,CLR,M,M,M,M,M,M,M,M,M,M,M,M,M,M,18.08,KTMT 240815Z AUTO 17004KT 10SM CLR M04/M09 A2965 RMK AO2 T10441086,M
BVU,2024-03-24 08:35,-114.8611,35.9475,671.00,50.00,30.20,46.31,230.00,9.00,0.00,29.54,M,10.00,M,CLR,M,M,M,M,M,M,M,M,M,M,M,M,M,M,50.00,KBVU 240835Z AUTO 23009KT 10SM CLR 10/M01 A2954 RMK AO2,M
CXP,2024-03-24 08:35,-119.7326,39.1923,1431.00,39.20,23.00,51.89,180.00,7.00,0.00,29.66,M,10.00,M,FEW,FEW,SCT,M,1900.00,3100.00,11000.00,M,M,M,M,M,M,M,M,33.56,KCXP 240835Z AUTO 18007KT 10SM FEW019 FEW031 SCT110 04/M05 A2966 RMK AO2,M
RTS,2024-03-24 08:35,-119.8764,39.6682,1539.00,35.60,23.00,59.79,270.00,14.00,0.00,29.64,M,10.00,M,FEW,M,M,M,5500.00,M,M,M,M,M,M,M,M,M,M,25.80,KRTS 240835Z AUTO 27014KT 10SM FEW055 02/M05 A2964 RMK AO2,M
MEV,2024-03-24 08:35,-119.7500,38.9963,1441.42,35.60,23.00,59.79,0.00,0.00,0.00,29.65,M,10.00,M,FEW,SCT,SCT,M,4900.00,5500.00,6500.00,M,M,M,M,M,M,M,M,35.60,KMEV 240835Z AUTO 00000KT 10SM FEW049 SCT055 SCT065 02/M05 A2965 RMK AO2,M
HTH,2024-03-24 08:35,-118.6315,38.5448,1282.89,37.40,15.80,40.93,160.00,3.00,0.00,29.65,M,10.00,M,CLR,M,M,M,M,M,M,M,M,M,M,M,M,M,M,34.86,KHTH 240835Z AUTO 16003KT 10SM CLR 03/M09 A2965 RMK A01,M
10U,2024-03-24 08:35,-116.1876,41.9532,1637.00,32.00,30.20,92.97,0.00,0.00,0.00,29.60,M,4.00,M,SCT,BKN,OVC,M,400.00,900.00,4200.00,M,-SN,M,M,M,M,M,M,32.00,K10U 240835Z AUTO 00000KT 4SM -SN SCT004 BKN009 OVC042 M00/M01 A2960 RMK AO2,M
TMT,2024-03-24 08:35,-117.1971,39.4643,1749.34,22.60,17.00,78.75,160.00,5.00,0.00,29.65,M,10.00,M,CLR,M,M,M,M,M,M,M,M,M,M,M,M,M,M,15.23,KTMT 240835Z AUTO 16005KT 10SM CLR M05/M08 A2965 RMK AO2 T10521084,M
DRA,2024-03-24 08:53,-116.0278,36.6206,1009.00,44.00,29.00,55.29,360.00,3.00,0.00,29.58,999.10,10.00,M,CLR,M,M,M,M,M,M,M,M,M,M,M,M,M,M,42.41,KDRA 240853Z AUTO 36003KT 10SM CLR 07/M02 A2958 RMK AO2 SLP991 T00671017 55007,M
ELY,2024-03-24 08:53,-114.8453,39.2950,1909.00,23.00,20.00,88.08,160.00,3.00,0.00,29.60,1001.30,10.00,M,CLR,M,M,M,M,M,M,M,M,M,M,M,M,M,M,18.40,KELY 240853Z AUTO 16003KT 10SM CLR M05/M07 A2960 RMK AO2 SLP013 T10501067 57004,M
VGT,2024-03-24 08:53,-115.1933,36.2111,667.00,55.00,30.00,38.21,360.00,4.00,0.00,29.53,1000.60,10.00,M,CLR,M,M,M,M,M,M,M,M,M,M,M,M,M,M,55.00,KVGT 240853Z AUTO 36004KT 10SM CLR 13/M01 A2953 RMK AO2 SLP006 T01281011 56002,M
LOL,2024-03-24 08:53,-118.5701,40.0684,1192.43,34.00,21.00,58.56,0.00,0.00,0.00,29.64,1003.50,10.00,M,BKN,OVC,M,M,6000.00,11000.00,M,M,M,M,M,M,M,M,M,34.00,KLOL 240853Z AUTO 00000KT 10SM BKN060 OVC110 01/M06 A2964 RMK AO2 SLP035 T00111061 58003,M
BVU,2024-03-24 08:55,-114.8611,35.9475,671.00,50.00,30.20,46.31,220.00,7.00,0.00,29.53,M,10.00,M,CLR,M,M,M,M,M,M,M,M,M,M,M,M,M,M,50.00,KBVU 240855Z AUTO 22007KT 10SM CLR 10/M01 A2953 RMK AO2,M
CXP,2024-03-24 08:55,-119.7326,39.1923,1431.00,39.20,23.00,51.89,M,5.00,0.00,29.66,M,10.00,M,FEW,SCT,BKN,M,3700.00,5000.00,11000.00,M,M,M,M,M,M,M,M,34.95,KCXP 240855Z AUTO VRB05KT 10SM FEW037 SCT050 BKN110 04/M05 A2966 RMK AO2,M
INS,2024-03-24 08:55,-115.6733,36.5872,955.00,47.70,29.50,49.05,0.00,0.00,0.00,29.56,998.30,10.00,M,SCT,BKN,M,M,10000.00,13000.00,M,M,M,M,M,M,M,M,M,47.70,KINS 240855Z AUTO 00000KT 10SM SCT100 BKN130 09/M01 A2956 RMK AO2 SLP983 T00871014 57012 $,M
RNO,2024-03-24 08:55,-119.7711,39.4839,1341.00,41.00,24.00,50.46,M,4.00,0.00,29.63,1001.70,10.00,M,SCT,BKN,BKN,M,4000.00,6000.00,12000.00,M,M,M,M,M,M,M,M,37.93,KRNO 240855Z VRB04KT 10SM SCT040 BKN060 BKN120 05/M04 A2963 RMK AO2 SLP017 T00501044 55004,M
LSV,2024-03-24 08:55,-115.0343,36.2362,570.00,55.00,30.40,38.84,340.00,7.00,0.00,29.51,998.00,10.00,M,CLR,M,M,M,M,M,M,M,M,M,M,M,M,M,M,55.00,KLSV 240855Z AUTO 34007KT 10SM CLR 13/M01 A2951 RMK AO2 SLP980 T01271009 55001,M
RTS,2024-03-24 08:55,-119.8764,39.6682,1539.00,35.60,24.80,64.46,280.00,11.00,0.00,29.64,M,10.00,17.00,FEW,M,M,M,5000.00,M,M,M,M,M,M,M,M,M,M,27.02,KRTS 240855Z AUTO 28011G17KT 10SM FEW050 02/M04 A2964 RMK AO2,M
MEV,2024-03-24 08:55,-119.7500,38.9963,1441.42,35.60,23.00,59.79,120.00,5.00,0.00,29.64,M,10.00,M,FEW,BKN,M,M,4300.00,5000.00,M,M,M,M,M,M,M,M,M,30.67,KMEV 240855Z AUTO 12005KT 10SM FEW043 BKN050 02/M05 A2964 RMK AO2,M
HTH,2024-03-24 08:55,-118.6315,38.5448,1282.89,39.20,15.80,38.15,0.00,0.00,0.00,29.65,M,10.00,M,BKN,M,M,M,12000.00,M,M,M,M,M,M,M,M,M,M,39.20,KHTH 240855Z AUTO 00000KT 10SM BKN120 04/M09 A2965 RMK A01,M
10U,2024-03-24 08:55,-116.1876,41.9532,1637.00,30.20,30.20,100.00,0.00,0.00,0.00,29.61,M,8.00,M,FEW,SCT,BKN,M,400.00,1000.00,3700.00,M,-SN,M,M,M,M,M,M,30.20,K10U 240855Z AUTO 00000KT 8SM -SN FEW004 SCT010 BKN037 M01/M01 A2961 RMK AO2,M
TMT,2024-03-24 08:55,-117.1971,39.4643,1749.34,24.40,17.00,73.03,180.00,4.00,0.00,29.66,M,10.00,M,CLR,M,M,M,M,M,M,M,M,M,M,M,M,M,M,18.55,KTMT 240855Z AUTO 18004KT 10SM CLR M04/M08 A2966 RMK AO2 T10421083,M
EKO,2024-03-24 08:56,-115.7860,40.8242,1367.00,26.00,21.00,81.09,0.00,0.00,0.00,29.60,1002.70,10.00,M,FEW,SCT,M,M,6000.00,7500.00,M,M,M,M,M,M,M,M,M,26.00,KEKO 240856Z AUTO 00000KT 10SM FEW060 SCT075 M03/M06 A2960 RMK AO2 SLP027 T10331061 55000,M
WMC,2024-03-24 08:56,-117.8072,40.9019,1315.00,40.00,25.00,54.69,240.00,9.00,0.00,29.62,1002.20,10.00,15.00,FEW,OVC,M,M,4900.00,5500.00,M,M,M,M,M,M,M,M,M,33.46,KWMC 240856Z AUTO 24009G15KT 10SM FEW049 OVC055 04/M04 A2962 RMK AO2 SLP022 T00441039 55002,M
NFL,2024-03-24 08:56,-118.7010,39.4166,1199.00,30.00,19.00,63.18,130.00,5.00,0.00,29.65,1002.30,10.00,M,SCT,M,M,M,8000.00,M,M,M,M,M,M,M,M,M,M,24.02,KNFL 240856Z AUTO 13005KT 10SM SCT080 M01/M07 A2965 RMK AO2 SLP023 T10111072 58004,M
HND,2024-03-24 08:56,-115.1344,35.9729,742.79,49.00,31.00,49.65,220.00,11.00,0.00,29.57,1001.80,10.00,M,CLR,M,M,M,M,M,M,M,M,M,M,M,M,M,M,43.95,KHND 240856Z AUTO 22011KT 10SM CLR 09/M01 A2957 RMK AO2 SLP018 T00941006 56011,M
TPH,2024-03-24 08:56,-117.0904,38.0505,1654.00,31.00,19.00,60.67,330.00,5.00,0.00,29.62,1001.40,10.00,M,CLR,M,M,M,M,M,M,M,M,M,M,M,M,M,M,25.21,KTPH 240856Z AUTO 33005KT 10SM CLR M01/M07 A2962 RMK AO2 SLP014 T10061072 58004,M
LAS,2024-03-24 08:56,-115.1634,36.0719,663.00,50.00,30.00,45.93,230.00,8.00,0.00,29.55,999.70,10.00,M,BKN,M,M,M,20000.00,M,M,M,M,M,M,M,M,M,M,50.00,KLAS 240856Z 23008KT 10SM BKN200 10/M01 A2955 RMK AO2 SLP997 T01001011 55002 $,M
BVU,2024-03-24 09:15,-114.8611,35.9475,671.00,50.00,30.20,46.31,240.00,4.00,0.00,29.53,M,10.00,M,CLR,M,M,M,M,M,M,M,M,M,M,M,M,M,M,50.00,KBVU 240915Z AUTO 24004KT 10SM CLR 10/M01 A2953 RMK AO2,M
CXP,2024-03-24 09:15,-119.7326,39.1923,1431.00,37.40,23.00,55.68,200.00,4.00,0.00,29.66,M,10.00,M,FEW,BKN,BKN,M,4500.00,5000.00,12000.00,M,M,M,M,M,M,M,M,33.73,KCXP 240915Z AUTO 20004KT 10SM FEW045 BKN050 BKN120 03/M05 A2966 RMK AO2,M
RTS,2024-03-24 09:15,-119.8764,39.6682,1539.00,33.80,23.00,64.23,280.00,11.00,0.00,29.64,M,10.00,M,CLR,M,M,M,M,M,M,M,M,M,M,M,M,M,M,24.74,KRTS 240915Z AUTO 28011KT 10SM CLR 01/M05 A2964 RMK AO2,M
MEV,2024-03-24 09:15,-119.7500,38.9963,1441.42,33.80,23.00,64.23,70.00,5.00,0.00,29.65,M,10.00,M,FEW,BKN,BKN,M,4600.00,5500.00,6500.00,M,M,M,M,M,M,M,M,28.53,KMEV 240915Z AUTO 07005KT 10SM FEW046 BKN055 BKN065 01/M05 A2965 RMK AO2,M
HTH,2024-03-24 09:15,-118.6315,38.5448,1282.89,42.80,12.20,28.34,M,4.00,0.00,29.65,M,10.00,M,BKN,M,M,M,12000.00,M,M,M,M,M,M,M,M,M,M,40.03,KHTH 240915Z AUTO VRB04KT 10SM BKN120 06/M11 A2965 RMK A01,M
10U,2024-03-24 09:15,-116.1876,41.9532,1637.00,30.20,28.40,92.92,0.00,0.00,0.00,29.60,M,10.00,M,BKN,OVC,M,M,800.00,1200.00,M,M,M,M,M,M,M,M,M,30.20,K10U 240915Z AUTO 00000KT 10SM BKN008 OVC012 M01/M02 A2960 RMK AO2,M
TMT,2024-03-24 09:15,-117.1971,39.4643,1749.34,23.00,16.30,75.12,200.00,4.00,0.00,29.65,M,10.00,M,CLR,M,M,M,M,M,M,M,M,M,M,M,M,M,M,16.91,KTMT 240915Z AUTO 20004KT 10SM CLR M05/M09 A2965 RMK AO2 T10511087,M
BVU,2024-03-24 09:35,-114.8611,35.9475,671.00,48.20,30.20,49.53,0.00,0.00,0.00,29.53,M,10.00,M,CLR,M,M,M,M,M,M,M,M,M,M,M,M,M,M,48.20,KBVU 240935Z AUTO 00000KT 10SM CLR 09/M01 A2953 RMK AO2,M
CXP,2024-03-24 09:35,-119.7326,39.1923,1431.00,39.20,23.00,51.89,190.00,5.00,0.00,29.66,M,10.00,M,OVC,M,M,M,5000.00,M,M,M,M,M,M,M,M,M,M,34.95,KCXP 240935Z AUTO 19005KT 10SM OVC050 04/M05 A2966 RMK AO2,M
RTS,2024-03-24 09:35,-119.8764,39.6682,1539.00,35.60,23.00,59.79,250.00,9.00,0.00,29.64,M,10.00,M,FEW,FEW,SCT,M,3400.00,4000.00,4500.00,M,M,M,M,M,M,M,M,27.99,KRTS 240935Z AUTO 25009KT 10SM FEW034 FEW040 SCT045 02/M05 A2964 RMK AO2,M
MEV,2024-03-24 09:35,-119.7500,38.9963,1441.42,33.80,23.00,64.23,170.00,4.00,0.00,29.64,M,10.00,M,FEW,BKN,BKN,M,4800.00,5500.00,6500.00,M,M,M,M,M,M,M,M,29.52,KMEV 240935Z AUTO 17004KT 10SM FEW048 BKN055 BKN065 01/M05 A2964 RMK AO2,M
HTH,2024-03-24 09:35,-118.6315,38.5448,1282.89,41.00,15.80,35.57,280.00,4.00,0.00,29.65,M,10.00,M,BKN,M,M,M,12000.00,M,M,M,M,M,M,M,M,M,M,37.93,KHTH 240935Z AUTO 28004KT 10SM BKN120 05/M09 A2965 RMK A01,M
10U,2024-03-24 09:35,-116.1876,41.9532,1637.00,30.20,30.20,100.00,140.00,3.00,0.00,29.60,M,10.00,M,OVC,M,M,M,800.00,M,M,M,M,M,M,M,M,M,M,26.63,K10U 240935Z AUTO 14003KT 10SM OVC008 M01/M01 A2960 RMK AO2,M
TMT,2024-03-24 09:35,-117.1971,39.4643,1749.34,22.50,17.20,79.77,0.00,0.00,0.00,29.65,M,10.00,M,BKN,M,M,M,5500.00,M,M,M,M,M,M,M,M,M,M,22.50,KTMT 240935Z AUTO 00000KT 10SM BKN055 M05/M08 A2965 RMK AO2 T10531082,M
DRA,2024-03-24 09:53,-116.0278,36.6206,1009.00,42.00,30.00,62.18,310.00,4.00,0.00,29.57,999.00,10.00,M,CLR,M,M,M,M,M,M,M,M,M,M,M,M,M,M,39.10,KDRA 240953Z AUTO 31004KT 10SM CLR 06/M01 A2957 RMK AO2 SLP990 T00561011,M
ELY,2024-03-24 09:53,-114.8453,39.2950,1909.00,18.00,16.00,91.72,160.00,7.00,0.00,29.58,1001.70,10.00,M,CLR,M,M,M,M,M,M,M,M,T,M,M,M,M,M,7.71,KELY 240953Z AUTO 16007KT 10SM CLR M08/M09 A2958 RMK AO2 SLP017 I1000 T10781089,M
VGT,2024-03-24 09:53,-115.1933,36.2111,667.00,53.00,31.00,42.81,330.00,7.00,0.00,29.52,1000.30,10.00,M,CLR,M,M,M,M,M,M,M,M,M,M,M,M,M,M,53.00,KVGT 240953Z AUTO 33007KT 10SM CLR 12/M01 A2952 RMK AO2 SLP003 T01171006,M
LOL,2024-03-24 09:53,-118.5701,40.0684,1192.43,34.00,21.00,58.56,180.00,4.00,0.00,29.63,1003.10,10.00,M,OVC,M,M,M,6500.00,M,M,M,M,M,M,M,M,M,M,29.76,KLOL 240953Z AUTO 18004KT 10SM OVC065 01/M06 A2963 RMK AO2 SLP031 T00111061,M
BVU,2024-03-24 09:55,-114.8611,35.9475,671.00,48.20,30.20,49.53,0.00,0.00,0.00,29.53,M,10.00,M,CLR,M,M,M,M,M,M,M,M,M,M,M,M,M,M,48.20,KBVU 240955Z AUTO 00000KT 10SM CLR 09/M01 A2953 RMK AO2,M
CXP,2024-03-24 09:55,-119.7326,39.1923,1431.00,37.40,23.00,55.68,0.00,0.00,0.00,29.65,M,10.00,M,FEW,BKN,OVC,M,4200.00,5000.00,6000.00,M,M,M,M,M,M,M,M,37.40,KCXP 240955Z AUTO 00000KT 10SM FEW042 BKN050 OVC060 03/M05 A2965 RMK AO2,M
INS,2024-03-24 09:55,-115.6733,36.5872,955.00,47.50,28.20,46.86,240.00,7.00,0.00,29.57,998.60,10.00,M,OVC,M,M,M,9000.00,M,M,M,M,M,M,M,M,M,M,43.67,KINS 240955Z AUTO 24007KT 10SM OVC090 09/M02 A2957 RMK AO2 SLP986 T00861021 $,M
RNO,2024-03-24 09:55,-119.7711,39.4839,1341.00,40.00,24.00,52.45,360.00,3.00,0.00,29.63,1001.70,10.00,M,SCT,BKN,BKN,M,4000.00,6000.00,12000.00,M,M,M,M,M,M,M,M,37.83,KRNO 240955Z 36003KT 10SM SCT040 BKN060 BKN120 04/M04 A2963 RMK AO2 SLP017 T00441044,M
LSV,2024-03-24 09:55,-115.0343,36.2362,570.00,51.60,31.00,45.08,50.00,5.00,0.00,29.50,997.80,10.00,M,CLR,M,M,M,M,M,M,M,M,M,M,M,M,M,M,51.60,KLSV 240955Z AUTO 05005KT 10SM CLR 11/M01 A2950 RMK AO2 SLP978 T01091006,M
RTS,2024-03-24 09:55,-119.8764,39.6682,1539.00,35.60,23.00,59.79,260.00,6.00,0.00,29.64,M,10.00,M,SCT,BKN,OVC,M,3600.00,4700.00,6500.00,M,M,M,M,M,M,M,M,29.87,KRTS 240955Z AUTO 26006KT 10SM SCT036 BKN047 OVC065 02/M05 A2964 RMK AO2,M
MEV,2024-03-24 09:55,-119.7500,38.9963,1441.42,35.60,23.00,59.79,100.00,3.00,0.00,29.64,M,10.00,M,FEW,BKN,OVC,M,3600.00,4700.00,5500.00,M,M,M,M,M,M,M,M,32.80,KMEV 240955Z AUTO 10003KT 10SM FEW036 BKN047 OVC055 02/M05 A2964 RMK AO2,M
HTH,2024-03-24 09:55,-118.6315,38.5448,1282.89,37.40,15.80,40.93,320.00,5.00,0.00,29.64,M,10.00,M,FEW,M,M,M,11000.00,M,M,M,M,M,M,M,M,M,M,32.81,KHTH 240955Z AUTO 32005KT 10SM FEW110 03/M09 A2964 RMK A01,M
10U,2024-03-24 09:55,-116.1876,41.9532,1637.00,30.20,30.20,100.00,150.00,3.00,0.00,29.60,M,10.00,M,OVC,M,M,M,700.00,M,M,M,M,M,M,M,M,M,M,26.63,K10U 240955Z AUTO 15003KT 10SM OVC007 M01/M01 A2960 RMK AO2,M
TMT,2024-03-24 09:55,-117.1971,39.4643,1749.34,24.40,18.00,76.24,0.00,0.00,0.00,29.64,M,10.00,M,OVC,M,M,M,5500.00,M,M,M,M,M,M,M,M,M,M,24.40,KTMT 240955Z AUTO 00000KT 10SM OVC055 M04/M08 A2964 RMK AO2 T10421078,M
EKO,2024-03-24 09:56,-115.7860,40.8242,1367.00,28.00,21.00,74.67,0.00,0.00,0.00,29.59,1001.70,10.00,M,SCT,M,M,M,7500.00,M,M,M,M,M,M,M,M,M,M,28.00,KEKO 240956Z AUTO 00000KT 10SM SCT075 M02/M06 A2959 RMK AO2 SLP017 T10221061,M
WMC,2024-03-24 09:56,-117.8072,40.9019,1315.00,38.00,25.00,59.13,240.00,7.00,0.00,29.60,1001.50,10.00,M,SCT,BKN,M,M,5500.00,12000.00,M,M,M,M,M,M,M,M,M,32.09,KWMC 240956Z AUTO 24007KT 10SM SCT055 BKN120 03/M04 A2960 RMK AO2 SLP015 T00331039,M
NFL,2024-03-24 09:56,-118.7010,39.4166,1199.00,35.00,21.00,56.27,140.00,5.00,0.00,29.63,1001.90,10.00,M,BKN,M,M,M,12000.00,M,M,M,M,M,M,M,M,M,M,29.96,KNFL 240956Z AUTO 14005KT 10SM BKN120 02/M06 A2963 RMK AO2 SLP019 T00171061,M
HND,2024-03-24 09:56,-115.1344,35.9729,742.79,48.00,32.00,53.67,220.00,11.00,0.00,29.55,1001.30,10.00,M,CLR,M,M,M,M,M,M,M,M,M,M,M,M,M,M,42.69,KHND 240956Z AUTO 22011KT 10SM CLR 09/00 A2955 RMK AO2 SLP013 T00890000,M
TPH,2024-03-24 09:56,-117.0904,38.0505,1654.00,31.00,19.00,60.67,360.00,7.00,0.00,29.61,1001.80,10.00,M,BKN,M,M,M,11000.00,M,M,M,M,M,M,M,M,M,M,23.56,KTPH 240956Z AUTO 36007KT 10SM BKN110 M01/M07 A2961 RMK AO2 SLP018 T10061072,M
LAS,2024-03-24 09:56,-115.1634,36.0719,663.00,49.00,30.00,47.68,220.00,7.00,0.00,29.53,998.90,10.00,M,FEW,M,M,M,20000.00,M,M,M,M,M,M,M,M,M,M,45.50,KLAS 240956Z 22007KT 10SM FEW200 09/M01 A2953 RMK AO2 SLP989 T00941011 $,M
BVU,2024-03-24 10:15,-114.8611,35.9475,671.00,46.40,30.20,53.00,0.00,0.00,0.00,29.52,M,10.00,M,CLR,M,M,M,M,M,M,M,M,M,M,M,M,M,M,46.40,KBVU 241015Z AUTO 00000KT 10SM CLR 08/M01 A2952 RMK AO2,M
CXP,2024-03-24 10:15,-119.7326,39.1923,1431.00,39.20,23.00,51.89,280.00,7.00,0.00,29.65,M,10.00,M,FEW,BKN,OVC,M,3400.00,4300.00,5000.00,M,-RA,M,M,M,M,M,M,33.56,KCXP 241015Z AUTO 28007KT 10SM -RA FEW034 BKN043 OVC050 04/M05 A2965 RMK AO2,M
RTS,2024-03-24 10:15,-119.8764,39.6682,1539.00,35.60,23.00,59.79,250.00,7.00,0.00,29.64,M,10.00,M,FEW,SCT,BKN,M,2000.00,2800.00,3900.00,M,M,M,M,M,M,M,M,29.17,KRTS 241015Z AUTO 25007KT 10SM FEW020 SCT028 BKN039 02/M05 A2964 RMK AO2,M
MEV,2024-03-24 10:15,-119.7500,38.9963,1441.42,33.80,24.80,69.25,90.00,6.00,0.00,29.64,M,10.00,M,FEW,BKN,OVC,M,3800.00,5000.00,6500.00,M,M,M,M,M,M,M,M,27.70,KMEV 241015Z AUTO 09006KT 10SM FEW038 BKN050 OVC065 01/M04 A2964 RMK AO2,M
HTH,2024-03-24 10:15,-118.6315,38.5448,1282.89,37.40,15.80,40.93,210.00,5.00,0.00,29.64,M,10.00,M,FEW,M,M,M,12000.00,M,M,M,M,M,M,M,M,M,M,32.81,KHTH 241015Z AUTO 21005KT 10SM FEW120 03/M09 A2964 RMK A01,M
10U,2024-03-24 10:15,-116.1876,41.9532,1637.00,32.00,30.20,92.97,0.00,0.00,0.00,29.59,M,10.00,M,OVC,M,M,M,800.00,M,M,M,M,M,M,M,M,M,M,32.00,K10U 241015Z AUTO 00000KT 10SM OVC008 M00/M01 A2959 RMK AO2,M
TMT,2024-03-24 10:15,-117.1971,39.4643,1749.34,21.70,16.70,80.74,0.00,0.00,0.00,29.64,M,10.00,M,SCT,SCT,M,M,5500.00,6500.00,M,M,M,M,M,M,M,M,M,21.70,KTMT 241015Z AUTO 00000KT 10SM SCT055 SCT065 M06/M08 A2964 RMK AO2 T10571085,M
BVU,2024-03-24 10:35,-114.8611,35.9475,671.00,48.20,30.20,49.53,0.00,0.00,0.00,29.53,M,10.00,M,FEW,M,M,M,10000.00,M,M,M,M,M,M,M,M,M,M,48.20,KBVU 241035Z AUTO 00000KT 10SM FEW100 09/M01 A2953 RMK AO2,M
CXP,2024-03-24 10:35,-119.7326,39.1923,1431.00,37.40,24.80,60.04,300.00,5.00,0.00,29.65,M,10.00,M,FEW,BKN,OVC,M,3800.00,4500.00,5000.00,M,M,M,M,M,M,M,M,32.81,KCXP 241035Z AUTO 30005KT 10SM FEW038 BKN045 OVC050 03/M04 A2965 RMK AO2,M
RTS,2024-03-24 10:35,-119.8764,39.6682,1539.00,35.60,23.00,59.79,260.00,10.00,0.00,29.63,M,10.00,M,SCT,BKN,OVC,M,2300.00,3300.00,5000.00,M,M,M,M,M,M,M,M,27.48,KRTS 241035Z AUTO 26010KT 10SM SCT023 BKN033 OVC050 02/M05 A2963 RMK AO2,M
MEV,2024-03-24 10:35,-119.7500,38.9963,1441.42,32.00,24.80,74.44,0.00,0.00,0.00,29.64,M,10.00,M,FEW,SCT,BKN,M,4000.00,4600.00,5500.00,M,M,M,M,M,M,M,M,32.00,KMEV 241035Z AUTO 00000KT 10SM FEW040 SCT046 BKN055 00/M04 A2964 RMK AO2,M
HTH,2024-03-24 10:35,-118.6315,38.5448,1282.89,35.60,15.80,43.95,170.00,5.00,0.00,29.64,M,10.00,M,FEW,M,M,M,12000.00,M,M,M,M,M,M,M,M,M,M,30.67,KHTH 241035Z AUTO 17005KT 10SM FEW120 02/M09 A2964 RMK A01,M
10U,2024-03-24 10:35,-116.1876,41.9532,1637.00,30.20,28.40,92.92,170.00,4.00,0.00,29.59,M,5.00,M,BKN,BKN,OVC,M,300.00,900.00,3900.00,M,-SN,M,M,M,M,M,M,25.32,K10U 241035Z AUTO 17004KT 5SM -SN BKN003 BKN009 OVC039 M01/M02 A2959 RMK AO2,M
TMT,2024-03-24 10:35,-117.1971,39.4643,1749.34,21.00,16.50,82.46,0.00,0.00,0.00,29.64,M,10.00,M,CLR,M,M,M,M,M,M,M,M,M,M,M,M,M,M,21.00,KTMT 241035Z AUTO 00000KT 10SM CLR M06/M09 A2964 RMK AO2 T10611086,M
DRA,2024-03-24 10:53,-116.0278,36.6206,1009.00,41.00,27.00,57.15,340.00,4.00,0.00,29.57,999.10,10.00,M,CLR,M,M,M,M,M,M,M,M,M,M,M,M,M,M,37.93,KDRA 241053Z AUTO 34004KT 10SM CLR 05/M03 A2957 RMK AO2 SLP991 T00501028,M
ELY,2024-03-24 10:53,-114.8453,39.2950,1909.00,16.00,14.00,91.64,170.00,9.00,0.00,29.58,1003.50,10.00,M,CLR,M,M,M,M,M,M,M,M,T,M,M,M,M,M,3.62,KELY 241053Z AUTO 17009KT 10SM CLR M09/M10 A2958 RMK AO2 SLP035 I1000 T10891100,M
VGT,2024-03-24 10:53,-115.1933,36.2111,667.00,53.00,30.00,41.11,310.00,5.00,0.00,29.51,999.80,10.00,M,BKN,M,M,M,10000.00,M,M,M,M,M,M,M,M,M,M,53.00,KVGT 241053Z AUTO 31005KT 10SM BKN100 12/M01 A2951 RMK AO2 SLP998 T01171011,M
LOL,2024-03-24 10:53,-118.5701,40.0684,1192.43,37.00,23.00,56.57,0.00,0.00,0.00,29.63,1002.80,10.00,M,OVC,M,M,M,5500.00,M,M,M,M,M,M,M,M,M,M,37.00,KLOL 241053Z AUTO 00000KT 10SM OVC055 03/M05 A2963 RMK AO2 SLP028 T00281050,M
TMT,2024-03-24 10:55,-117.1971,39.4643,1749.34,20.30,15.80,82.40,250.00,5.00,0.00,29.63,M,10.00,M,SCT,SCT,M,M,6000.00,8000.00,M,M,M,M,M,M,M,M,M,12.50,KTMT 241055Z AUTO 25005KT 10SM SCT060 SCT080 M06/M09 A2963 RMK AO2 T10651090,M
BVU,2024-03-24 10:55,-114.8611,35.9475,671.00,48.20,30.20,49.53,120.00,3.00,0.00,29.52,M,10.00,M,BKN,M,M,M,9500.00,M,M,M,M,M,M,M,M,M,M,47.21,KBVU 241055Z AUTO 12003KT 10SM BKN095 09/M01 A2952 RMK AO2,M
CXP,2024-03-24 10:55,-119.7326,39.1923,1431.00,37.40,24.80,60.04,290.00,7.00,0.00,29.65,M,10.00,M,BKN,OVC,M,M,3600.00,4500.00,M,M,M,M,M,M,M,M,M,31.36,KCXP 241055Z AUTO 29007KT 10SM BKN036 OVC045 03/M04 A2965 RMK AO2,M
INS,2024-03-24 10:55,-115.6733,36.5872,955.00,48.40,27.50,44.02,270.00,5.00,0.00,29.56,998.30,10.00,M,BKN,OVC,M,M,6500.00,8000.00,M,M,M,M,M,M,M,M,M,45.87,KINS 241055Z AUTO 27005KT 10SM BKN065 OVC080 09/M02 A2956 RMK AO2 SLP983 T00911025 $,M
RNO,2024-03-24 10:55,-119.7711,39.4839,1341.00,40.00,24.00,52.45,270.00,6.00,0.00,29.63,1001.70,10.00,M,SCT,BKN,BKN,M,3500.00,5500.00,12000.00,M,M,M,M,M,M,M,M,35.17,KRNO 241055Z 27006KT 10SM SCT035 BKN055 BKN120 04/M04 A2963 RMK AO2 SLP017 T00441044,M
LSV,2024-03-24 10:55,-115.0343,36.2362,570.00,50.50,30.00,45.09,200.00,4.00,0.00,29.49,997.60,10.00,M,FEW,M,M,M,11000.00,M,M,M,M,M,M,M,M,M,M,50.50,KLSV 241055Z AUTO 20004KT 10SM FEW110 10/M01 A2949 RMK AO2 SLP976 T01031011,M
RTS,2024-03-24 10:55,-119.8764,39.6682,1539.00,35.60,24.80,64.46,260.00,9.00,0.00,29.63,M,10.00,M,SCT,BKN,OVC,M,2200.00,2800.00,3500.00,M,-RA,M,M,M,M,M,M,27.99,KRTS 241055Z AUTO 26009KT 10SM -RA SCT022 BKN028 OVC035 02/M04 A2963 RMK AO2,M
MEV,2024-03-24 10:55,-119.7500,38.9963,1441.42,33.80,24.80,69.25,0.00,0.00,0.00,29.64,M,10.00,M,SCT,BKN,OVC,M,3300.00,4000.00,4700.00,M,M,M,M,M,M,M,M,33.80,KMEV 241055Z AUTO 00000KT 10SM SCT033 BKN040 OVC047 01/M04 A2964 RMK AO2,M
HTH,2024-03-24 10:55,-118.6315,38.5448,1282.89,35.60,15.80,43.95,0.00,0.00,0.00,29.64,M,10.00,M,SCT,M,M,M,11000.00,M,M,M,M,M,M,M,M,M,M,35.60,KHTH 241055Z AUTO 00000KT 10SM SCT110 02/M09 A2964 RMK A01,M
10U,2024-03-24 10:55,-116.1876,41.9532,1637.00,30.20,28.40,92.92,160.00,3.00,0.00,29.59,M,10.00,M,FEW,BKN,OVC,M,200.00,800.00,3900.00,M,M,M,M,M,M,M,M,26.63,K10U 241055Z AUTO 16003KT 10SM FEW002 BKN008 OVC039 M01/M02 A2959 RMK AO2,M
EKO,2024-03-24 10:56,-115.7860,40.8242,1367.00,25.00,21.00,84.53,0.00,0.00,0.00,29.59,1002.20,10.00,M,CLR,M,M,M,M,M,M,M,M,M,M,M,M,M,M,25.00,KEKO 241056Z AUTO 00000KT 10SM CLR M04/M06 A2959 RMK AO2 SLP022 T10391061,M
WMC,2024-03-24 10:56,-117.8072,40.9019,1315.00,38.00,27.00,64.24,250.00,7.00,0.00,29.60,1001.50,10.00,M,BKN,OVC,M,M,7500.00,8500.00,M,M,M,M,M,M,M,M,M,32.09,KWMC 241056Z AUTO 25007KT 10SM BKN075 OVC085 03/M03 A2960 RMK AO2 SLP015 T00331028,M
NFL,2024-03-24 10:56,-118.7010,39.4166,1199.00,37.00,22.00,54.23,150.00,4.00,0.00,29.63,1001.80,10.00,M,OVC,M,M,M,7000.00,M,M,M,M,M,M,M,M,M,M,33.26,KNFL 241056Z AUTO 15004KT 10SM OVC070 03/M06 A2963 RMK AO2 SLP018 T00281056,M
HND,2024-03-24 10:56,-115.1344,35.9729,742.79,47.00,31.00,53.52,170.00,6.00,0.00,29.56,1001.60,10.00,M,CLR,M,M,M,M,M,M,M,M,M,M,M,M,M,M,43.60,KHND 241056Z AUTO 17006KT 10SM CLR 08/M01 A2956 RMK AO2 SLP016 T00831006,M
TPH,2024-03-24 10:56,-117.0904,38.0505,1654.00,29.00,18.00,63.05,330.00,5.00,0.00,29.61,1001.60,10.00,M,CLR,M,M,M,M,M,M,M,M,M,M,M,M,M,M,22.83,KTPH 241056Z AUTO 33005KT 10SM CLR M02/M08 A2961 RMK AO2 SLP016 T10171078,M
LAS,2024-03-24 10:56,-115.1634,36.0719,663.00,49.00,30.00,47.68,200.00,4.00,0.00,29.53,999.00,10.00,M,BKN,M,M,M,20000.00,M,M,M,M,M,M,M,M,M,M,47.27,KLAS 241056Z 20004KT 10SM BKN200 09/M01 A2953 RMK AO2 SLP990 T00941011 $,M
BVU,2024-03-24 11:15,-114.8611,35.9475,671.00,48.20,30.20,49.53,0.00,0.00,0.00,29.52,M,10.00,M,BKN,OVC,M,M,9500.00,11000.00,M,M,M,M,M,M,M,M,M,48.20,KBVU 241115Z AUTO 00000KT 10SM BKN095 OVC110 09/M01 A2952 RMK AO2,M
CXP,2024-03-24 11:15,-119.7326,39.1923,1431.00,37.40,24.80,60.04,280.00,6.00,0.00,29.64,M,10.00,M,BKN,OVC,M,M,3500.00,4100.00,M,M,M,M,M,M,M,M,M,32.03,KCXP 241115Z AUTO 28006KT 10SM BKN035 OVC041 03/M04 A2964 RMK AO2,M
RTS,2024-03-24 11:15,-119.8764,39.6682,1539.00,33.80,24.80,69.25,280.00,6.00,0.00,29.63,M,10.00,M,SCT,BKN,OVC,M,2700.00,6000.00,7000.00,M,M,M,M,M,M,M,M,27.70,KRTS 241115Z AUTO 28006KT 10SM SCT027 BKN060 OVC070 01/M04 A2963 RMK AO2,M
MEV,2024-03-24 11:15,-119.7500,38.9963,1441.42,33.80,26.60,74.63,0.00,0.00,0.00,29.64,M,10.00,M,BKN,OVC,M,M,3700.00,4500.00,M,M,M,M,M,M,M,M,M,33.80,KMEV 241115Z AUTO 00000KT 10SM BKN037 OVC045 01/M03 A2964 RMK AO2,M
HTH,2024-03-24 11:15,-118.6315,38.5448,1282.89,37.40,14.00,37.84,0.00,0.00,0.00,29.64,M,10.00,M,BKN,M,M,M,11000.00,M,M,M,M,M,M,M,M,M,M,37.40,KHTH 241115Z AUTO 00000KT 10SM BKN110 03/M10 A2964 RMK A01,M
10U,2024-03-24 11:15,-116.1876,41.9532,1637.00,30.20,28.40,92.92,160.00,5.00,0.00,29.59,M,10.00,M,OVC,M,M,M,900.00,M,M,M,M,M,M,M,M,M,M,24.26,K10U 241115Z AUTO 16005KT 10SM OVC009 M01/M02 A2959 RMK AO2,M
TMT,2024-03-24 11:15,-117.1971,39.4643,1749.34,21.00,16.50,82.46,250.00,7.00,0.00,29.63,M,10.00,M,SCT,M,M,M,8000.00,M,M,M,M,M,M,M,M,M,M,11.37,KTMT 241115Z AUTO 25007KT 10SM SCT080 M06/M09 A2963 RMK AO2 T10621086,M
BVU,2024-03-24 11:35,-114.8611,35.9475,671.00,48.20,30.20,49.53,170.00,3.00,0.00,29.53,M,10.00,M,FEW,BKN,OVC,M,8000.00,9500.00,12000.00,M,M,M,M,M,M,M,M,47.21,KBVU 241135Z AUTO 17003KT 10SM FEW080 BKN095 OVC120 09/M01 A2953 RMK AO2,M
CXP,2024-03-24 11:35,-119.7326,39.1923,1431.00,37.40,26.60,64.70,300.00,8.00,0.00,29.65,M,10.00,M,BKN,OVC,M,M,3200.00,3800.00,M,M,M,M,M,M,M,M,M,30.76,KCXP 241135Z AUTO 30008KT 10SM BKN032 OVC038 03/M03 A2965 RMK AO2,M
RTS,2024-03-24 11:35,-119.8764,39.6682,1539.00,33.80,26.60,74.63,310.00,6.00,0.00,29.64,M,10.00,M,SCT,BKN,OVC,M,2500.00,4000.00,10000.00,M,-UP,M,M,M,M,M,M,27.70,KRTS 241135Z AUTO 31006KT 10SM -UP SCT025 BKN040 OVC100 01/M03 A2964 RMK AO2,M
MEV,2024-03-24 11:35,-119.7500,38.9963,1441.42,33.80,26.60,74.63,0.00,0.00,0.00,29.64,M,10.00,M,FEW,SCT,BKN,M,1100.00,2000.00,3000.00,M,M,M,M,M,M,M,M,33.80,KMEV 241135Z AUTO 00000KT 10SM FEW011 SCT020 BKN030 01/M03 A2964 RMK AO2,M
HTH,2024-03-24 11:35,-118.6315,38.5448,1282.89,35.60,15.80,43.95,60.00,4.00,0.00,29.64,M,10.00,M,SCT,OVC,M,M,7500.00,11000.00,M,M,M,M,M,M,M,M,M,31.62,KHTH 241135Z AUTO 06004KT 10SM SCT075 OVC110 02/M09 A2964 RMK A01,M
10U,2024-03-24 11:35,-116.1876,41.9532,1637.00,30.20,28.40,92.92,190.00,7.00,0.00,29.59,M,10.00,M,SCT,BKN,OVC,M,1000.00,2000.00,4800.00,M,M,M,M,M,M,M,M,22.59,K10U 241135Z AUTO 19007KT 10SM SCT010 BKN020 OVC048 M01/M02 A2959 RMK AO2,M
TMT,2024-03-24 11:35,-117.1971,39.4643,1749.34,19.40,15.40,84.15,340.00,3.00,0.00,29.63,M,10.00,M,SCT,M,M,M,8000.00,M,M,M,M,M,M,M,M,M,M,14.28,KTMT 241135Z AUTO 34003KT 10SM SCT080 M07/M09 A2963 RMK AO2 T10701092,M
DRA,2024-03-24 11:53,-116.0278,36.6206,1009.00,41.00,29.00,62.04,0.00,0.00,0.00,29.58,999.40,10.00,M,CLR,M,M,M,M,M,M,M,M,M,M,M,M,M,M,41.00,KDRA 241153Z AUTO 00000KT 10SM CLR 05/M02 A2958 RMK AO2 SLP994 T00501017 10089 20044 55000,M
ELY,2024-03-24 11:53,-114.8453,39.2950,1909.00,15.00,12.00,87.65,160.00,7.00,0.00,29.58,1003.40,10.00,M,CLR,M,M,M,M,M,M,M,M,0.01,M,0.01,M,M,M,4.06,KELY 241153Z AUTO 16007KT 10SM CLR M09/M11 A2958 RMK AO2 SLP034 70049 I1001 I6001 T10941111 11033 21094 56005,M
VGT,2024-03-24 11:53,-115.1933,36.2111,667.00,54.00,30.00,39.63,340.00,4.00,0.00,29.52,1000.20,10.00,M,OVC,M,M,M,10000.00,M,M,M,M,M,M,M,M,M,M,54.00,KVGT 241153Z AUTO 34004KT 10SM OVC100 12/M01 A2952 RMK AO2 SLP002 T01221011 10156 20117 55004,M
LOL,2024-03-24 11:53,-118.5701,40.0684,1192.43,36.00,31.00,81.86,290.00,10.00,T,29.64,1003.20,10.00,M,OVC,M,M,M,4300.00,M,M,M,-RA,M,M,M,M,M,M,27.98,KLOL 241153Z AUTO 29010KT 10SM -RA OVC043 02/M01 A2964 RMK AO2 RAB24 SLP032 P0000 60000 70001 T00221006 10056 20006 55001,M
BVU,2024-03-24 11:55,-114.8611,35.9475,671.00,48.20,32.00,53.27,130.00,4.00,0.00,29.53,M,10.00,M,FEW,OVC,M,M,8000.00,9500.00,M,M,M,M,M,M,M,M,M,46.34,KBVU 241155Z AUTO 13004KT 10SM FEW080 OVC095 09/M00 A2953 RMK AO2,M
CXP,2024-03-24 11:55,-119.7326,39.1923,1431.00,35.60,26.60,69.46,290.00,7.00,0.00,29.66,M,7.00,M,FEW,BKN,BKN,M,1200.00,2900.00,3300.00,M,-SN,M,M,M,M,M,M,29.17,KCXP 241155Z AUTO 29007KT 7SM -SN FEW012 BKN029 BKN033 02/M03 A2966 RMK AO2,M
RNO,2024-03-24 11:55,-119.7711,39.4839,1341.00,38.00,27.00,64.24,260.00,6.00,0.00,29.63,1002.10,10.00,M,SCT,BKN,M,M,3000.00,5000.00,M,M,M,M,M,M,M,M,M,32.76,KRNO 241155Z 26006KT 10SM SCT030 BKN050 03/M03 A2963 RMK AO2 SLP021 T00331028 10050 20033 55000,M
RTS,2024-03-24 11:55,-119.8764,39.6682,1539.00,32.00,26.60,80.22,350.00,6.00,0.00,29.64,M,10.00,M,FEW,BKN,BKN,M,2200.00,3800.00,5000.00,M,M,M,M,M,M,M,M,25.53,KRTS 241155Z AUTO 35006KT 10SM FEW022 BKN038 BKN050 00/M03 A2964 RMK AO2,M
MEV,2024-03-24 11:55,-119.7500,38.9963,1441.42,35.60,24.80,64.46,0.00,0.00,0.00,29.64,M,10.00,M,FEW,SCT,BKN,M,1700.00,3400.00,4600.00,M,M,M,M,M,M,M,M,35.60,KMEV 241155Z AUTO 00000KT 10SM FEW017 SCT034 BKN046 02/M04 A2964 RMK AO2,M
HTH,2024-03-24 11:55,-118.6315,38.5448,1282.89,35.60,15.80,43.95,0.00,0.00,0.00,29.64,M,10.00,M,BKN,OVC,M,M,7000.00,8000.00,M,M,M,M,M,M,M,M,M,35.60,KHTH 241155Z AUTO 00000KT 10SM BKN070 OVC080 02/M09 A2964 RMK A01,M
10U,2024-03-24 11:55,-116.1876,41.9532,1637.00,30.20,28.40,92.92,230.00,3.00,0.00,29.59,M,10.00,M,FEW,BKN,OVC,M,2000.00,3000.00,4100.00,M,UP,M,M,M,M,M,M,26.63,K10U 241155Z AUTO 23003KT 10SM UP FEW020 BKN030 OVC041 M01/M02 A2959 RMK AO2,M
INS,2024-03-24 11:55,-115.6733,36.5872,955.00,46.00,26.40,46.04,230.00,12.00,0.00,29.56,998.70,10.00,M,FEW,M,M,M,9000.00,M,M,M,M,M,M,M,M,M,M,39.82,KINS 241155Z AUTO 23012KT 10SM FEW090 08/M03 A2956 RMK AO2 SLP987 T00781031 10102 20078 50000 $,M
LSV,2024-03-24 11:55,-115.0343,36.2362,570.00,52.00,30.20,43.00,170.00,9.00,0.00,29.49,997.50,10.00,M,CLR,M,M,M,M,M,M,M,M,M,M,M,M,M,M,52.00,KLSV 241155Z AUTO 17009KT 10SM CLR 11/M01 A2949 RMK AO2 SLP975 T01111010 10146 20090 56005,M
TMT,2024-03-24 11:55,-117.1971,39.4643,1749.34,20.00,15.60,82.74,0.00,0.00,0.00,29.64,M,10.00,M,SCT,M,M,M,8000.00,M,M,M,M,M,M,M,M,M,M,20.00,KTMT 241155Z AUTO 00000KT 10SM SCT080 M07/M09 A2964 RMK AO2 70001 T10671091 11012 21073,M
EKO,2024-03-24 11:56,-115.7860,40.8242,1367.00,26.00,21.00,81.09,0.00,0.00,0.00,29.58,1002.10,10.00,M,BKN,M,M,M,4700.00,M,M,M,M,M,M,M,M,M,M,26.00,KEKO 241156Z AUTO 00000KT 10SM BKN047 M03/M06 A2958 RMK AO2 SLP021 T10331061 11011 21044 56005,M
WMC,2024-03-24 11:56,-117.8072,40.9019,1315.00,36.00,30.00,78.60,250.00,6.00,0.00,29.61,1002.10,10.00,M,OVC,M,M,M,2900.00,M,M,M,M,M,M,M,M,M,M,30.35,KWMC 241156Z AUTO 25006KT 10SM OVC029 02/M01 A2961 RMK AO2 SLP021 70021 T00221011 10044 20006 55002,M
NFL,2024-03-24 11:56,-118.7010,39.4166,1199.00,38.00,23.00,54.39,0.00,0.00,0.00,29.63,1001.80,10.00,M,OVC,M,M,M,6000.00,M,M,M,M,M,M,M,M,M,M,38.00,KNFL 241156Z AUTO 00000KT 10SM OVC060 03/M05 A2963 RMK AO2 SLP018 T00331050 10044 21011 56005,M
HND,2024-03-24 11:56,-115.1344,35.9729,742.79,46.00,32.00,57.87,210.00,10.00,0.00,29.56,1001.80,10.00,M,OVC,M,M,M,9500.00,M,M,M,M,M,M,M,M,M,M,40.52,KHND 241156Z AUTO 21010KT 10SM OVC095 08/00 A2956 RMK AO2 SLP018 T00780000 10122 20078 55002,M
TPH,2024-03-24 11:56,-117.0904,38.0505,1654.00,29.00,17.00,60.39,330.00,8.00,0.00,29.61,1001.10,10.00,M,CLR,M,M,M,M,M,M,M,M,M,M,M,M,M,M,20.42,KTPH 241156Z AUTO 33008KT 10SM CLR M02/M08 A2961 RMK AO2 SLP011 70004 T10171083 10006 21033 56004,M
LAS,2024-03-24 11:56,-115.1634,36.0719,663.00,49.00,32.00,51.70,210.00,4.00,0.00,29.54,999.30,10.00,M,BKN,BKN,M,M,10000.00,20000.00,M,M,M,M,M,M,M,M,M,47.27,KLAS 241156Z 21004KT 10SM BKN100 BKN200 09/00 A2954 RMK AO2 SLP993 T00940000 10128 20089 55003 $,M
WMC,2024-03-24 12:03,-117.8072,40.9019,1315.00,36.00,30.00,78.60,270.00,7.00,T,29.61,M,10.00,M,OVC,M,M,M,3100.00,M,M,M,-SN,M,M,M,M,M,M,29.65,KWMC 241203Z AUTO 27007KT 10SM -SN OVC031 02/M01 A2961 RMK AO2 SNB03 P0000 T00221011,M
BVU,2024-03-24 12:15,-114.8611,35.9475,671.00,48.20,32.00,53.27,90.00,4.00,0.00,29.53,M,10.00,M,FEW,OVC,M,M,8000.00,9500.00,M,M,M,M,M,M,M,M,M,46.34,KBVU 241215Z AUTO 09004KT 10SM FEW080 OVC095 09/M00 A2953 RMK AO2,M
CXP,2024-03-24 12:15,-119.7326,39.1923,1431.00,33.80,28.40,80.36,0.00,0.00,0.00,29.67,M,4.00,M,FEW,SCT,BKN,M,1100.00,2700.00,4600.00,M,-SN HZ,M,M,M,M,M,M,33.80,KCXP 241215Z AUTO 00000KT 4SM -SN HZ FEW011 SCT027 BKN046 01/M02 A2967 RMK AO2,M
RTS,2024-03-24 12:15,-119.8764,39.6682,1539.00,32.00,26.60,80.22,20.00,9.00,0.00,29.64,M,10.00,M,FEW,SCT,BKN,M,4000.00,4900.00,6000.00,M,M,M,M,M,M,M,M,23.51,KRTS 241215Z AUTO 02009KT 10SM FEW040 SCT049 BKN060 00/M03 A2964 RMK AO2,M
MEV,2024-03-24 12:15,-119.7500,38.9963,1441.42,33.80,26.60,74.63,170.00,6.00,0.00,29.64,M,10.00,M,FEW,SCT,OVC,M,3500.00,4800.00,5500.00,M,M,M,M,M,M,M,M,27.70,KMEV 241215Z AUTO 17006KT 10SM FEW035 SCT048 OVC055 01/M03 A2964 RMK AO2,M
HTH,2024-03-24 12:15,-118.6315,38.5448,1282.89,37.40,15.80,40.93,0.00,0.00,0.00,29.65,M,10.00,M,FEW,BKN,OVC,M,4400.00,5000.00,7000.00,M,M,M,M,M,M,M,M,37.40,KHTH 241215Z AUTO 00000KT 10SM FEW044 BKN050 OVC070 03/M09 A2965 RMK A01,M
10U,2024-03-24 12:15,-116.1876,41.9532,1637.00,30.20,28.40,92.92,210.00,3.00,0.00,29.59,M,10.00,M,FEW,SCT,OVC,M,1200.00,2900.00,5000.00,M,-UP,M,M,M,M,M,M,26.63,K10U 241215Z AUTO 21003KT 10SM -UP FEW012 SCT029 OVC050 M01/M02 A2959 RMK AO2,M
TMT,2024-03-24 12:15,-117.1971,39.4643,1749.34,19.40,14.70,81.62,200.00,5.00,0.00,29.63,M,10.00,M,SCT,BKN,M,M,6500.00,8000.00,M,M,M,M,M,M,M,M,M,11.43,KTMT 241215Z AUTO 20005KT 10SM SCT065 BKN080 M07/M10 A2963 RMK AO2 T10701096,M
RTS,2024-03-24 12:30,-119.8764,39.6682,1539.00,32.00,26.60,80.22,10.00,7.00,0.00,29.65,M,10.00,M,FEW,FEW,BKN,M,4100.00,4800.00,5500.00,M,M,M,M,M,M,M,M,24.78,KRTS 241230Z AUTO 01007KT 10SM FEW041 FEW048 BKN055 00/M03 A2965 RMK AO2,M
MEV,2024-03-24 12:30,-119.7500,38.9963,1441.42,33.80,26.60,74.63,170.00,7.00,0.00,29.64,M,10.00,M,FEW,SCT,OVC,M,4100.00,4700.00,5500.00,M,M,M,M,M,M,M,M,26.97,KMEV 241230Z AUTO 17007KT 10SM FEW041 SCT047 OVC055 01/M03 A2964 RMK AO2,M
BVU,2024-03-24 12:35,-114.8611,35.9475,671.00,48.20,32.00,53.27,130.00,4.00,0.00,29.54,M,10.00,M,OVC,M,M,M,9000.00,M,M,M,M,M,M,M,M,M,M,46.34,KBVU 241235Z AUTO 13004KT 10SM OVC090 09/M00 A2954 RMK AO2,M
CXP,2024-03-24 12:35,-119.7326,39.1923,1431.00,33.80,30.20,86.49,0.00,0.00,0.00,29.66,M,5.00,M,FEW,SCT,BKN,M,2600.00,3300.00,3800.00,M,-RA BR,M,M,M,M,M,M,33.80,KCXP 241235Z AUTO 00000KT 5SM -RA BR FEW026 SCT033 BKN038 01/M01 A2966 RMK AO2,M
HTH,2024-03-24 12:35,-118.6315,38.5448,1282.89,37.40,17.60,44.25,80.00,3.00,0.00,29.64,M,10.00,M,FEW,BKN,OVC,M,3400.00,5000.00,5500.00,M,M,M,M,M,M,M,M,34.86,KHTH 241235Z AUTO 08003KT 10SM FEW034 BKN050 OVC055 03/M08 A2964 RMK A01,M
10U,2024-03-24 12:35,-116.1876,41.9532,1637.00,30.20,28.40,92.92,220.00,4.00,0.00,29.59,M,10.00,M,FEW,SCT,OVC,M,900.00,3100.00,5000.00,M,UP,M,M,M,M,M,M,25.32,K10U 241235Z AUTO 22004KT 10SM UP FEW009 SCT031 OVC050 M01/M02 A2959 RMK AO2,M
TMT,2024-03-24 12:35,-117.1971,39.4643,1749.34,19.40,15.30,83.78,200.00,5.00,0.00,29.64,M,10.00,M,SCT,OVC,M,M,6500.00,8000.00,M,M,M,M,M,M,M,M,M,11.43,KTMT 241235Z AUTO 20005KT 10SM SCT065 OVC080 M07/M09 A2964 RMK AO2 T10701093,M
RTS,2024-03-24 12:50,-119.8764,39.6682,1539.00,33.80,26.60,74.63,10.00,3.00,0.00,29.66,M,10.00,M,OVC,M,M,M,5500.00,M,M,M,M,M,M,M,M,M,M,30.75,KRTS 241250Z AUTO 01003KT 10SM OVC055 01/M03 A2966 RMK AO2,M
DRA,2024-03-24 12:53,-116.0278,36.6206,1009.00,40.00,29.00,64.50,0.00,0.00,0.00,29.59,1000.00,10.00,M,CLR,M,M,M,M,M,M,M,M,M,M,M,M,M,M,40.00,KDRA 241253Z AUTO 00000KT 10SM CLR 04/M02 A2959 RMK AO2 SLP000 T00441017,M
ELY,2024-03-24 12:53,-114.8453,39.2950,1909.00,15.00,12.00,87.65,160.00,9.00,0.00,29.57,1003.60,10.00,M,BKN,M,M,M,4900.00,M,M,M,M,T,M,M,M,M,M,2.38,KELY 241253Z AUTO 16009KT 10SM BKN049 M09/M11 A2957 RMK AO2 SLP036 I1000 T10941111,M
VGT,2024-03-24 12:53,-115.1933,36.2111,667.00,54.00,30.00,39.63,330.00,13.00,0.00,29.53,1000.60,10.00,M,BKN,M,M,M,12000.00,M,M,M,M,M,M,M,M,M,M,54.00,KVGT 241253Z AUTO 33013KT 10SM BKN120 12/M01 A2953 RMK AO2 SLP006 T01221011,M
LOL,2024-03-24 12:53,-118.5701,40.0684,1192.43,35.00,32.00,88.68,270.00,6.00,T,29.65,1003.80,10.00,M,OVC,M,M,M,3200.00,M,M,M,-RA,M,M,M,M,M,M,29.14,KLOL 241253Z AUTO 27006KT 10SM -RA OVC032 02/00 A2965 RMK AO2 SLP038 P0000 T00170000,M
BVU,2024-03-24 12:55,-114.8611,35.9475,671.00,46.40,32.00,57.00,0.00,0.00,0.00,29.54,M,10.00,M,BKN,BKN,M,M,9000.00,11000.00,M,M,M,M,M,M,M,M,M,46.40,KBVU 241255Z AUTO 00000KT 10SM BKN090 BKN110 08/M00 A2954 RMK AO2,M
CXP,2024-03-24 12:55,-119.7326,39.1923,1431.00,33.80,30.20,86.49,10.00,5.00,0.00,29.67,M,8.00,M,FEW,BKN,OVC,M,2700.00,3300.00,4800.00,M,-SN,M,M,M,M,M,M,28.53,KCXP 241255Z AUTO 01005KT 8SM -SN FEW027 BKN033 OVC048 01/M01 A2967 RMK AO2,M
INS,2024-03-24 12:55,-115.6733,36.5872,955.00,44.20,27.70,52.02,230.00,13.00,0.00,29.58,999.60,10.00,M,CLR,M,M,M,M,M,M,M,M,M,M,M,M,M,M,37.20,KINS 241255Z AUTO 23013KT 10SM CLR 07/M02 A2958 RMK AO2 SLP996 T00681024 $,M
RNO,2024-03-24 12:55,-119.7711,39.4839,1341.00,37.00,27.00,66.82,M,3.00,0.00,29.66,1003.00,10.00,M,SCT,BKN,M,M,4000.00,12000.00,M,M,M,M,M,M,M,M,M,34.40,KRNO 241255Z VRB03KT 10SM SCT040 BKN120 03/M03 A2966 RMK AO2 SLP030 T00281028,M
LSV,2024-03-24 12:55,-115.0343,36.2362,570.00,50.40,32.00,49.07,100.00,5.00,0.00,29.52,998.60,10.00,M,CLR,M,M,M,M,M,M,M,M,M,M,M,M,M,M,50.40,KLSV 241255Z AUTO 10005KT 10SM CLR 10/00 A2952 RMK AO2 SLP986 T01020000,M
HTH,2024-03-24 12:55,-118.6315,38.5448,1282.89,37.40,15.80,40.93,100.00,5.00,0.00,29.65,M,10.00,M,FEW,BKN,OVC,M,4500.00,5000.00,6500.00,M,M,M,M,M,M,M,M,32.81,KHTH 241255Z AUTO 10005KT 10SM FEW045 BKN050 OVC065 03/M09 A2965 RMK A01,M
10U,2024-03-24 12:55,-116.1876,41.9532,1637.00,30.20,28.40,92.92,200.00,4.00,0.00,29.59,M,10.00,M,FEW,SCT,BKN,M,900.00,3100.00,4400.00,M,M,M,M,M,M,M,M,25.32,K10U 241255Z AUTO 20004KT 10SM FEW009 SCT031 BKN044 M01/M02 A2959 RMK AO2,M
TMT,2024-03-24 12:55,-117.1971,39.4643,1749.34,21.40,15.80,78.64,220.00,4.00,0.00,29.64,M,10.00,M,SCT,OVC,M,M,6500.00,7500.00,M,M,M,M,M,M,M,M,M,15.04,KTMT 241255Z AUTO 22004KT 10SM SCT065 OVC075 M06/M09 A2964 RMK AO2 T10591090,M
EKO,2024-03-24 12:56,-115.7860,40.8242,1367.00,23.00,20.00,88.08,0.00,0.00,0.00,29.59,1002.40,10.00,M,SCT,M,M,M,5000.00,M,M,M,M,M,M,M,M,M,M,23.00,KEKO 241256Z AUTO 00000KT 10SM SCT050 M05/M07 A2959 RMK AO2 SLP024 T10501067,M
WMC,2024-03-24 12:56,-117.8072,40.9019,1315.00,35.00,31.00,85.17,0.00,0.00,T,29.62,1002.50,4.00,M,SCT,OVC,M,M,2200.00,3000.00,M,M,-SN BR,M,M,M,M,M,M,35.00,KWMC 241256Z AUTO 00000KT 4SM -SN BR SCT022 OVC030 02/M01 A2962 RMK AO2 SNB03E12B35 SLP025 P0000 T00171006,M
NFL,2024-03-24 12:56,-118.7010,39.4166,1199.00,41.00,24.00,50.46,320.00,8.00,0.00,29.65,1002.30,10.00,M,OVC,M,M,M,4800.00,M,M,M,M,M,M,M,M,M,M,35.20,KNFL 241256Z AUTO 32008KT 10SM OVC048 05/M04 A2965 RMK AO2 SLP023 T00501044,M
HND,2024-03-24 12:56,-115.1344,35.9729,742.79,46.00,31.00,55.58,190.00,11.00,0.00,29.57,1002.20,10.00,M,FEW,M,M,M,10000.00,M,M,M,M,M,M,M,M,M,M,40.16,KHND 241256Z AUTO 19011KT 10SM FEW100 08/M01 A2957 RMK AO2 SLP022 T00781006,M
TPH,2024-03-24 12:56,-117.0904,38.0505,1654.00,26.00,17.00,68.32,330.00,5.00,0.00,29.61,1001.90,10.00,M,CLR,M,M,M,M,M,M,M,M,M,M,M,M,M,M,19.27,KTPH 241256Z AUTO 33005KT 10SM CLR M03/M08 A2961 RMK AO2 SLP019 T10331083,M
LAS,2024-03-24 12:56,-115.1634,36.0719,663.00,48.00,31.00,51.54,200.00,8.00,0.00,29.55,999.80,10.00,M,SCT,BKN,M,M,11000.00,20000.00,M,M,M,M,M,M,M,M,M,43.82,KLAS 241256Z 20008KT 10SM SCT110 BKN200 09/M01 A2955 RMK AO2 SLP998 T00891006 $,M
ELY,2024-03-24 13:01,-114.8453,39.2950,1909.00,15.00,13.00,91.61,170.00,8.00,0.00,29.57,M,6.00,M,FEW,BKN,M,M,200.00,4900.00,M,M,BR,M,M,M,M,M,M,3.17,KELY 241301Z AUTO 17008KT 6SM BR FEW002 BKN049 M09/M11 A2957 RMK AO2 T10941106,M
WMC,2024-03-24 13:03,-117.8072,40.9019,1315.00,34.00,31.00,88.63,0.00,0.00,T,29.62,M,3.00,M,OVC,M,M,M,2500.00,M,M,M,-SN BR,M,M,M,M,M,M,34.00,KWMC 241303Z AUTO 00000KT 3SM -SN BR OVC025 01/M01 A2962 RMK AO2 P0000 T00111006,M
BVU,2024-03-24 13:15,-114.8611,35.9475,671.00,44.60,32.00,61.03,0.00,0.00,0.00,29.55,M,10.00,M,FEW,M,M,M,11000.00,M,M,M,M,M,M,M,M,M,M,44.60,KBVU 241315Z AUTO 00000KT 10SM FEW110 07/M00 A2955 RMK AO2,M
CXP,2024-03-24 13:15,-119.7326,39.1923,1431.00,33.80,30.20,86.49,320.00,3.00,0.00,29.67,M,10.00,M,FEW,BKN,OVC,M,400.00,3500.00,4900.00,M,M,M,M,M,M,M,M,30.75,KCXP 241315Z AUTO 32003KT 10SM FEW004 BKN035 OVC049 01/M01 A2967 RMK AO2,M
RTS,2024-03-24 13:15,-119.8764,39.6682,1539.00,33.80,26.60,74.63,M,4.00,0.00,29.66,M,10.00,M,BKN,OVC,M,M,5000.00,6000.00,M,M,M,M,M,M,M,M,M,29.52,KRTS 241315Z AUTO VRB04KT 10SM BKN050 OVC060 01/M03 A2966 RMK AO2,M
MEV,2024-03-24 13:15,-119.7500,38.9963,1441.42,32.00,26.60,80.22,0.00,0.00,0.00,29.65,M,10.00,M,FEW,SCT,OVC,M,3500.00,4400.00,5500.00,M,M,M,M,M,M,M,M,32.00,KMEV 241315Z AUTO 00000KT 10SM FEW035 SCT044 OVC055 00/M03 A2965 RMK AO2,M
HTH,2024-03-24 13:15,-118.6315,38.5448,1282.89,37.40,15.80,40.93,70.00,7.00,0.00,29.64,M,10.00,M,OVC,M,M,M,5500.00,M,M,M,M,M,M,M,M,M,M,31.36,KHTH 241315Z AUTO 07007KT 10SM OVC055 03/M09 A2964 RMK A01,M
10U,2024-03-24 13:15,-116.1876,41.9532,1637.00,30.20,28.40,92.92,0.00,0.00,0.00,29.59,M,10.00,M,FEW,SCT,OVC,M,500.00,4400.00,5000.00,M,-SN,M,M,M,M,M,M,30.20,K10U 241315Z AUTO 00000KT 10SM -SN FEW005 SCT044 OVC050 M01/M02 A2959 RMK AO2,M
TMT,2024-03-24 13:15,-117.1971,39.4643,1749.34,21.00,16.30,81.74,0.00,0.00,0.00,29.64,M,10.00,M,BKN,M,M,M,7500.00,M,M,M,M,M,M,M,M,M,M,21.00,KTMT 241315Z AUTO 00000KT 10SM BKN075 M06/M09 A2964 RMK AO2 T10611087,M
NFL,2024-03-24 13:20,-118.7010,39.4166,1199.00,40.00,26.00,57.01,240.00,5.00,T,29.66,M,10.00,M,SCT,OVC,M,M,3000.00,4000.00,M,M,-RASN,M,M,M,M,M,M,35.90,KNFL 241320Z 24005KT 10SM -RASN SCT030 OVC040 04/M03 A2966 RMK AO2 RAB20SNB20 P0000 T00441033,M
WMC,2024-03-24 13:26,-117.8072,40.9019,1315.00,34.00,30.00,85.11,0.00,0.00,0.01,29.62,M,2.00,M,OVC,M,M,M,2100.00,M,M,M,-SN BR,M,M,M,M,M,M,34.00,KWMC 241326Z AUTO 00000KT 2SM -SN BR OVC021 01/M01 A2962 RMK AO2 P0001 T00111011,M
LOL,2024-03-24 13:29,-118.5701,40.0684,1192.43,34.00,32.00,92.29,230.00,3.00,T,29.65,M,9.00,M,OVC,M,M,M,2800.00,M,M,M,-SN,M,M,M,M,M,M,30.97,KLOL 241329Z AUTO 23003KT 9SM -SN OVC028 01/00 A2965 RMK AO2 RAE26SNB26 P0000 T00110000,M
BVU,2024-03-24 13:35,-114.8611,35.9475,671.00,46.40,32.00,57.00,0.00,0.00,0.00,29.56,M,10.00,M,SCT,M,M,M,10000.00,M,M,M,M,M,M,M,M,M,M,46.40,KBVU 241335Z AUTO 00000KT 10SM SCT100 08/M00 A2956 RMK AO2,M
CXP,2024-03-24 13:35,-119.7326,39.1923,1431.00,33.80,30.20,86.49,0.00,0.00,0.00,29.68,M,2.00,M,SCT,BKN,OVC,M,400.00,3000.00,4900.00,M,-RA HZ,M,M,M,M,M,M,33.80,KCXP 241335Z AUTO 00000KT 2SM -RA HZ SCT004 BKN030 OVC049 01/M01 A2968 RMK AO2,M
RTS,2024-03-24 13:35,-119.8764,39.6682,1539.00,32.00,24.80,74.44,310.00,4.00,0.00,29.66,M,10.00,M,FEW,BKN,OVC,M,4300.00,5000.00,6500.00,M,M,M,M,M,M,M,M,27.42,KRTS 241335Z AUTO 31004KT 10SM FEW043 BKN050 OVC065 M00/M04 A2966 RMK AO2,M
MEV,2024-03-24 13:35,-119.7500,38.9963,1441.42,33.80,28.40,80.36,340.00,10.00,0.00,29.67,M,6.00,M,SCT,BKN,OVC,M,1900.00,2700.00,4400.00,M,-SN HZ,M,M,M,M,M,M,25.23,KMEV 241335Z AUTO 34010KT 6SM -SN HZ SCT019 BKN027 OVC044 01/M02 A2967 RMK AO2,M
HTH,2024-03-24 13:35,-118.6315,38.5448,1282.89,39.20,14.00,35.26,120.00,5.00,0.00,29.65,M,10.00,M,FEW,OVC,M,M,5500.00,7000.00,M,M,M,M,M,M,M,M,M,34.95,KHTH 241335Z AUTO 12005KT 10SM FEW055 OVC070 04/M10 A2965 RMK A01,M
10U,2024-03-24 13:35,-116.1876,41.9532,1637.00,30.20,28.40,92.92,180.00,4.00,0.00,29.59,M,10.00,M,FEW,FEW,OVC,M,800.00,3500.00,5000.00,M,-UP,M,M,M,M,M,M,25.32,K10U 241335Z AUTO 18004KT 10SM -UP FEW008 FEW035 OVC050 M01/M02 A2959 RMK AO2,M
TMT,2024-03-24 13:35,-117.1971,39.4643,1749.34,20.00,15.80,83.46,0.00,0.00,0.00,29.64,M,10.00,M,SCT,M,M,M,7500.00,M,M,M,M,M,M,M,M,M,M,20.00,KTMT 241335Z AUTO 00000KT 10SM SCT075 M07/M09 A2964 RMK AO2 T10671090,M
WMC,2024-03-24 13:51,-117.8072,40.9019,1315.00,33.80,30.20,86.49,0.00,0.00,0.02,29.63,M,1.75,M,OVC,M,M,M,1900.00,M,M,M,-SN BR,M,M,M,M,M,M,33.80,KWMC 241351Z AUTO 00000KT 1 3/4SM -SN BR OVC019 01/M01 A2963 RMK AO2 P0002,M
DRA,2024-03-24 13:53,-116.0278,36.6206,1009.00,38.00,29.00,69.74,0.00,0.00,0.00,29.60,1000.70,10.00,M,CLR,M,M,M,M,M,M,M,M,M,M,M,M,M,M,38.00,KDRA 241353Z AUTO 00000KT 10SM CLR 03/M02 A2960 RMK AO2 SLP007 T00331017,M
ELY,2024-03-24 13:53,-114.8453,39.2950,1909.00,14.00,11.00,87.59,180.00,9.00,0.00,29.58,1003.80,10.00,M,CLR,M,M,M,M,M,M,M,M,T,M,M,M,M,M,1.13,KELY 241353Z AUTO 18009KT 10SM CLR M10/M12 A2958 RMK AO2 SLP038 I1000 T11001117,M
VGT,2024-03-24 13:53,-115.1933,36.2111,667.00,53.00,30.00,41.11,330.00,11.00,0.00,29.55,1001.40,10.00,M,FEW,M,M,M,11000.00,M,M,M,M,M,M,M,M,M,M,53.00,KVGT 241353Z 33011KT 10SM FEW110 12/M01 A2955 RMK AO2 SLP014 T01171011,M
LOL,2024-03-24 13:53,-118.5701,40.0684,1192.43,33.00,32.00,96.06,200.00,4.00,0.01,29.66,1004.60,5.00,M,FEW,FEW,OVC,M,1000.00,1500.00,2300.00,M,-SN BR,M,M,M,M,M,M,28.59,KLOL 241353Z AUTO 20004KT 5SM -SN BR FEW010 FEW015 OVC023 01/00 A2966 RMK AO2 RAE26SNB26 SLP046 P0001 T00060000,M
BVU,2024-03-24 13:55,-114.8611,35.9475,671.00,46.40,32.00,57.00,80.00,5.00,0.00,29.57,M,10.00,M,BKN,M,M,M,10000.00,M,M,M,M,M,M,M,M,M,M,43.50,KBVU 241355Z AUTO 08005KT 10SM BKN100 08/M00 A2957 RMK AO2,M
CXP,2024-03-24 13:55,-119.7326,39.1923,1431.00,32.00,30.20,92.97,0.00,0.00,0.00,29.69,M,9.00,M,FEW,SCT,BKN,M,400.00,2800.00,4100.00,M,M,M,M,M,M,M,M,32.00,KCXP 241355Z AUTO 00000KT 9SM FEW004 SCT028 BKN041 00/M01 A2969 RMK AO2,M
INS,2024-03-24 13:55,-115.6733,36.5872,955.00,44.20,27.70,52.02,220.00,12.00,0.00,29.60,1000.30,10.00,M,CLR,M,M,M,M,M,M,M,M,M,M,M,M,M,M,37.53,KINS 241355Z AUTO 22012KT 10SM CLR 07/M02 A2960 RMK AO2 SLP003 T00681024 $,M
RNO,2024-03-24 13:55,-119.7711,39.4839,1341.00,38.00,25.00,59.13,290.00,7.00,0.00,29.66,1003.60,10.00,M,BKN,BKN,M,M,4000.00,10000.00,M,M,M,M,M,M,M,M,M,32.09,KRNO 241355Z 29007KT 10SM BKN040 BKN100 03/M04 A2966 RMK AO2 SLP036 SH VC ALQDS T00331039,M
LSV,2024-03-24 13:55,-115.0343,36.2362,570.00,51.80,30.60,44.03,0.00,0.00,0.00,29.53,998.90,10.00,M,CLR,M,M,M,M,M,M,M,M,M,M,M,M,M,M,51.80,KLSV 241355Z AUTO 00000KT 10SM CLR 11/M01 A2953 RMK AO2 SLP989 T01101008,M
RTS,2024-03-24 13:55,-119.8764,39.6682,1539.00,32.00,26.60,80.22,320.00,7.00,0.00,29.68,M,10.00,M,SCT,SCT,OVC,M,3600.00,4500.00,5500.00,M,M,M,M,M,M,M,M,24.78,KRTS 241355Z AUTO 32007KT 10SM SCT036 SCT045 OVC055 M00/M03 A2968 RMK AO2,M
MEV,2024-03-24 13:55,-119.7500,38.9963,1441.42,32.00,30.20,92.97,20.00,9.00,0.00,29.67,M,1.25,M,OVC,M,M,M,300.00,M,M,M,-SN BR,M,M,M,M,M,M,23.51,KMEV 241355Z AUTO 02009KT 1 1/4SM -SN BR OVC003 00/M01 A2967 RMK AO2,M
HTH,2024-03-24 13:55,-118.6315,38.5448,1282.89,41.00,15.80,35.57,120.00,6.00,0.00,29.66,M,10.00,M,FEW,BKN,OVC,M,5500.00,7000.00,8500.00,M,M,M,M,M,M,M,M,36.37,KHTH 241355Z AUTO 12006KT 10SM FEW055 BKN070 OVC085 05/M09 A2966 RMK A01,M
10U,2024-03-24 13:55,-116.1876,41.9532,1637.00,30.20,28.40,92.92,200.00,5.00,0.00,29.60,M,7.00,M,SCT,SCT,BKN,M,2800.00,3600.00,5000.00,M,-SN,M,M,M,M,M,M,24.26,K10U 241355Z AUTO 20005KT 7SM -SN SCT028 SCT036 BKN050 M01/M02 A2960 RMK AO2,M
TMT,2024-03-24 13:55,-117.1971,39.4643,1749.34,20.00,15.80,83.46,0.00,0.00,0.00,29.65,M,10.00,M,SCT,M,M,M,7500.00,M,M,M,M,M,M,M,M,M,M,20.00,KTMT 241355Z AUTO 00000KT 10SM SCT075 M07/M09 A2965 RMK AO2 T10661090,M
EKO,2024-03-24 13:56,-115.7860,40.8242,1367.00,26.00,21.00,81.09,0.00,0.00,0.00,29.59,1002.90,10.00,M,BKN,M,M,M,4700.00,M,M,M,M,M,M,M,M,M,M,26.00,KEKO 241356Z AUTO 00000KT 10SM BKN047 M03/M06 A2959 RMK AO2 SLP029 T10331061,M
WMC,2024-03-24 13:56,-117.8072,40.9019,1315.00,33.00,30.00,88.58,0.00,0.00,0.02,29.63,1003.00,1.50,M,BKN,OVC,M,M,1700.00,2300.00,M,M,-SN BR,M,M,M,M,M,M,33.00,KWMC 241356Z AUTO 00000KT 1 1/2SM -SN BR BKN017 OVC023 01/M01 A2963 RMK AO2 SLP030 P0002 T00061011,M
NFL,2024-03-24 13:56,-118.7010,39.4166,1199.00,38.00,28.00,66.94,360.00,3.00,T,29.67,1003.00,10.00,M,SCT,OVC,M,M,3000.00,4000.00,M,M,-RASN,M,M,M,M,M,M,35.55,KNFL 241356Z 36003KT 10SM -RASN SCT030 OVC040 03/M02 A2967 RMK AO2 RAB20SNB20 SLP030 P0000 T00331022,M
HND,2024-03-24 13:56,-115.1344,35.9729,742.79,46.00,31.00,55.58,180.00,9.00,0.00,29.59,1003.10,10.00,M,BKN,M,M,M,10000.00,M,M,M,M,M,M,M,M,M,M,40.92,KHND 241356Z 18009KT 10SM BKN100 08/M01 A2959 RMK AO2 SLP031 T00781006,M
TPH,2024-03-24 13:56,-117.0904,38.0505,1654.00,26.00,17.00,68.32,320.00,3.00,0.00,29.63,1003.20,10.00,M,CLR,M,M,M,M,M,M,M,M,M,M,M,M,M,M,21.83,KTPH 241356Z AUTO 32003KT 10SM CLR M03/M08 A2963 RMK AO2 SLP032 T10331083,M
LAS,2024-03-24 13:56,-115.1634,36.0719,663.00,48.00,32.00,53.67,190.00,7.00,0.00,29.56,1000.30,10.00,M,FEW,SCT,BKN,M,10000.00,12000.00,25000.00,M,M,M,M,M,M,M,M,44.28,KLAS 241356Z 19007KT 10SM FEW100 SCT120 BKN250 09/00 A2956 RMK AO2 SLP003 T00890000 $,M
WMC,2024-03-24 14:03,-117.8072,40.9019,1315.00,33.00,30.00,88.58,0.00,0.00,0.01,29.63,M,0.75,M,VV ,M,M,M,1700.00,M,M,M,-SN BR,M,M,M,M,M,M,33.00,KWMC 241403Z AUTO 00000KT 3/4SM -SN BR VV017 01/M01 A2963 RMK AO2 P0001 T00061011,M
RTS,2024-03-24 14:10,-119.8764,39.6682,1539.00,32.00,28.40,86.39,320.00,11.00,0.00,29.68,M,4.00,M,FEW,BKN,OVC,M,300.00,2500.00,5500.00,M,-SN,M,M,M,M,M,M,22.47,KRTS 241410Z AUTO 32011KT 4SM -SN FEW003 BKN025 OVC055 00/M02 A2968 RMK AO2,M
WMC,2024-03-24 14:13,-117.8072,40.9019,1315.00,33.00,31.00,92.25,0.00,0.00,0.01,29.63,M,1.00,M,VV ,M,M,M,1700.00,M,M,M,-SN BR,M,M,M,M,M,M,33.00,KWMC 241413Z AUTO 00000KT 1SM -SN BR VV017 01/M01 A2963 RMK AO2 P0001 T00061006,M
BVU,2024-03-24 14:15,-114.8611,35.9475,671.00,46.40,32.00,57.00,90.00,3.00,0.00,29.58,M,10.00,M,BKN,M,M,M,10000.00,M,M,M,M,M,M,M,M,M,M,45.15,KBVU 241415Z AUTO 09003KT 10SM BKN100 08/M00 A2958 RMK AO2,M
CXP,2024-03-24 14:15,-119.7326,39.1923,1431.00,32.00,30.20,92.97,0.00,0.00,0.00,29.70,M,9.00,M,SCT,SCT,OVC,M,800.00,2900.00,4600.00,M,-RA,M,M,M,M,M,M,32.00,KCXP 241415Z AUTO 00000KT 9SM -RA SCT008 SCT029 OVC046 00/M01 A2970 RMK AO2,M
MEV,2024-03-24 14:15,-119.7500,38.9963,1441.42,32.00,30.20,92.97,50.00,7.00,0.00,29.68,M,2.50,M,BKN,BKN,OVC,M,300.00,900.00,3600.00,M,-SN BR,M,M,M,M,M,M,24.78,KMEV 241415Z AUTO 05007KT 2 1/2SM -SN BR BKN003 BKN009 OVC036 M00/M01 A2968 RMK AO2,M
HTH,2024-03-24 14:15,-118.6315,38.5448,1282.89,41.00,15.80,35.57,110.00,4.00,0.00,29.67,M,10.00,M,OVC,M,M,M,7500.00,M,M,M,M,M,M,M,M,M,M,37.93,KHTH 241415Z AUTO 11004KT 10SM OVC075 05/M09 A2967 RMK A01,M
10U,2024-03-24 14:15,-116.1876,41.9532,1637.00,30.20,28.40,92.92,210.00,7.00,0.00,29.61,M,4.00,M,BKN,BKN,M,M,2700.00,5000.00,M,M,-SN,M,M,M,M,M,M,22.59,K10U 241415Z AUTO 21007KT 4SM -SN BKN027 BKN050 M01/M02 A2961 RMK AO2,M
TMT,2024-03-24 14:15,-117.1971,39.4643,1749.34,21.40,16.50,81.07,0.00,0.00,0.00,29.66,M,10.00,M,SCT,BKN,BKN,M,5500.00,7500.00,9000.00,M,M,M,M,M,M,M,M,21.40,KTMT 241415Z AUTO 00000KT 10SM SCT055 BKN075 BKN090 M06/M09 A2966 RMK AO2 T10591086,M
LOL,2024-03-24 14:22,-118.5701,40.0684,1192.43,32.00,32.00,100.00,170.00,3.00,0.01,29.67,M,2.50,M,BKN,OVC,M,M,2300.00,3100.00,M,M,-SN BR,M,M,M,M,M,M,28.69,KLOL 241422Z AUTO 17003KT 2 1/2SM -SN BR BKN023 OVC031 00/00 A2967 RMK AO2 P0001 T00000000,M
BVU,2024-03-24 14:35,-114.8611,35.9475,671.00,48.20,32.00,53.27,60.00,4.00,0.00,29.59,M,10.00,M,CLR,M,M,M,M,M,M,M,M,M,M,M,M,M,M,46.34,KBVU 241435Z AUTO 06004KT 10SM CLR 09/M00 A2959 RMK AO2,M
CXP,2024-03-24 14:35,-119.7326,39.1923,1431.00,32.00,30.20,92.97,0.00,0.00,0.00,29.70,M,10.00,M,SCT,BKN,OVC,M,1000.00,3600.00,5500.00,M,M,M,M,M,M,M,M,32.00,KCXP 241435Z AUTO 00000KT 10SM SCT010 BKN036 OVC055 00/M01 A2970 RMK AO2,M
RTS,2024-03-24 14:35,-119.8764,39.6682,1539.00,32.00,30.20,92.97,300.00,7.00,0.00,29.69,M,9.00,M,FEW,SCT,BKN,M,300.00,2500.00,4800.00,M,-UP,M,M,M,M,M,M,24.78,KRTS 241435Z AUTO 30007KT 9SM -UP FEW003 SCT025 BKN048 M00/M01 A2969 RMK AO2,M
MEV,2024-03-24 14:35,-119.7500,38.9963,1441.42,32.00,30.20,92.97,60.00,6.00,0.00,29.69,M,10.00,M,FEW,SCT,BKN,M,300.00,3500.00,4400.00,M,M,M,M,M,M,M,M,25.53,KMEV 241435Z AUTO 06006KT 10SM FEW003 SCT035 BKN044 M00/M01 A2969 RMK AO2,M
HTH,2024-03-24 14:35,-118.6315,38.5448,1282.89,41.00,17.60,38.45,110.00,3.00,0.00,29.68,M,10.00,M,OVC,M,M,M,7000.00,M,M,M,M,M,M,M,M,M,M,38.98,KHTH 241435Z AUTO 11003KT 10SM OVC070 05/M08 A2968 RMK A01,M
10U,2024-03-24 14:35,-116.1876,41.9532,1637.00,30.20,28.40,92.92,200.00,7.00,0.00,29.61,M,3.00,M,OVC,M,M,M,2600.00,M,M,M,-SN,M,M,M,M,M,M,22.59,K10U 241435Z AUTO 20007KT 3SM -SN OVC026 M01/M02 A2961 RMK AO2,M
TMT,2024-03-24 14:35,-117.1971,39.4643,1749.34,25.00,17.80,73.72,190.00,4.00,0.00,29.66,M,10.00,M,SCT,BKN,OVC,M,4300.00,5500.00,7500.00,M,M,M,M,M,M,M,M,19.25,KTMT 241435Z AUTO 19004KT 10SM SCT043 BKN055 OVC075 M04/M08 A2966 RMK AO2 T10381079,M
LOL,2024-03-24 14:36,-118.5701,40.0684,1192.43,32.00,32.00,100.00,170.00,3.00,0.01,29.67,M,1.75,M,BKN,OVC,M,M,2300.00,3100.00,M,M,-SN BR,M,M,M,M,M,M,28.69,KLOL 241436Z AUTO 17003KT 1 3/4SM -SN BR BKN023 OVC031 00/00 A2967 RMK AO2 P0001 T00000000,M
WMC,2024-03-24 14:40,-117.8072,40.9019,1315.00,33.00,31.00,92.25,210.00,5.00,0.03,29.64,M,0.75,M,VV ,M,M,M,1800.00,M,M,M,-SN BR,M,M,M,M,M,M,27.58,KWMC 241440Z AUTO 21005KT 3/4SM -SN BR VV018 01/M01 A2964 RMK AO2 P0003 T00061006,M
WMC,2024-03-24 14:49,-117.8072,40.9019,1315.00,33.00,31.00,92.25,190.00,4.00,0.03,29.65,M,1.00,M,VV ,M,M,M,1800.00,M,M,M,-SN BR,M,M,M,M,M,M,28.59,KWMC 241449Z AUTO 19004KT 1SM -SN BR VV018 01/M01 A2965 RMK AO2 P0003 T00061006,M
DRA,2024-03-24 14:53,-116.0278,36.6206,1009.00,39.00,31.00,72.75,0.00,0.00,0.00,29.63,1001.60,10.00,M,CLR,M,M,M,M,M,M,M,M,M,M,M,M,M,M,39.00,KDRA 241453Z AUTO 00000KT 10SM CLR 04/M01 A2963 RMK AO2 SLP016 T00391006 53016,M
ELY,2024-03-24 14:53,-114.8453,39.2950,1909.00,17.00,16.00,95.76,180.00,7.00,0.00,29.60,1003.70,10.00,M,FEW,M,M,M,4700.00,M,M,M,M,M,T,M,M,M,M,6.50,KELY 241453Z AUTO 18007KT 10SM FEW047 M08/M09 A2960 RMK AO2 SLP037 I3000 T10831089 53005,M
VGT,2024-03-24 14:53,-115.1933,36.2111,667.00,53.00,29.00,39.47,330.00,14.00,0.00,29.57,1002.40,10.00,M,CLR,M,M,M,M,M,M,M,M,M,M,M,M,M,M,53.00,KVGT 241453Z 33014KT 10SM CLR 12/M02 A2957 RMK AO2 SLP024 T01171017 53017,M
LOL,2024-03-24 14:53,-118.5701,40.0684,1192.43,32.00,32.00,100.00,0.00,0.00,0.03,29.68,1005.50,0.75,M,VV ,M,M,M,1500.00,M,M,M,-SN BR,M,M,M,M,M,M,32.00,KLOL 241453Z AUTO 00000KT 3/4SM -SN BR VV015 00/00 A2968 RMK AO2 SLP055 P0003 60004 T00000000 53012,M
BVU,2024-03-24 14:55,-114.8611,35.9475,671.00,50.00,30.20,46.31,0.00,0.00,0.00,29.60,M,10.00,M,CLR,M,M,M,M,M,M,M,M,M,M,M,M,M,M,50.00,KBVU 241455Z AUTO 00000KT 10SM CLR 10/M01 A2960 RMK AO2,M
CXP,2024-03-24 14:55,-119.7326,39.1923,1431.00,33.80,32.00,93.03,340.00,3.00,0.00,29.71,M,10.00,M,FEW,BKN,BKN,M,900.00,4500.00,5500.00,M,M,M,M,M,M,M,M,30.75,KCXP 241455Z AUTO 34003KT 10SM FEW009 BKN045 BKN055 01/M00 A2971 RMK AO2,M
RNO,2024-03-24 14:55,-119.7711,39.4839,1341.00,38.00,27.00,64.24,330.00,9.00,0.00,29.69,1004.60,10.00,M,SCT,BKN,BKN,BKN,3800.00,9000.00,15000.00,21000.00,M,M,M,M,M,M,M,30.97,KRNO 241455Z 33009KT 10SM SCT038 BKN090 BKN150 BKN210 03/M03 A2969 RMK AO2 SLP046 ACSL DSNT NW MTN TOPS OBSCD DSNT S THRU NW SH VC SW AND W T00331028 51017,M
RTS,2024-03-24 14:55,-119.8764,39.6682,1539.00,32.00,26.60,80.22,310.00,8.00,0.00,29.69,M,10.00,M,FEW,BKN,BKN,M,4900.00,6500.00,11000.00,M,M,M,M,M,M,M,M,24.11,KRTS 241455Z AUTO 31008KT 10SM FEW049 BKN065 BKN110 00/M03 A2969 RMK AO2,M
MEV,2024-03-24 14:55,-119.7500,38.9963,1441.42,32.00,30.20,92.97,80.00,4.00,0.00,29.69,M,10.00,M,BKN,BKN,BKN,M,4300.00,5000.00,6000.00,M,M,M,M,M,M,M,M,27.42,KMEV 241455Z AUTO 08004KT 10SM BKN043 BKN050 BKN060 M00/M01 A2969 RMK AO2,M
HTH,2024-03-24 14:55,-118.6315,38.5448,1282.89,41.00,17.60,38.45,0.00,0.00,0.00,29.69,M,10.00,M,BKN,M,M,M,7000.00,M,M,M,M,M,M,M,M,M,M,41.00,KHTH 241455Z AUTO 00000KT 10SM BKN070 05/M08 A2969 RMK A01,M
10U,2024-03-24 14:55,-116.1876,41.9532,1637.00,30.20,28.40,92.92,220.00,4.00,0.00,29.62,M,9.00,M,BKN,OVC,M,M,2400.00,2900.00,M,M,-SN,M,M,M,M,M,M,25.32,K10U 241455Z AUTO 22004KT 9SM -SN BKN024 OVC029 M01/M02 A2962 RMK AO2,M
TMT,2024-03-24 14:55,-117.1971,39.4643,1749.34,26.00,18.50,72.88,250.00,3.00,0.00,29.66,M,10.00,M,SCT,BKN,OVC,M,3800.00,4500.00,5000.00,M,M,M,M,M,M,M,M,21.83,KTMT 241455Z AUTO 25003KT 10SM SCT038 BKN045 OVC050 M03/M07 A2966 RMK AO2 T10331075,M
INS,2024-03-24 14:55,-115.6733,36.5872,955.00,46.80,27.00,45.79,240.00,12.00,0.00,29.62,1000.90,10.00,M,SCT,M,M,M,13000.00,M,M,M,M,M,M,M,M,M,M,40.84,KINS 241455Z AUTO 24012KT 10SM SCT130 08/M03 A2962 RMK AO2 SLP009 T00821027 52016 $,M
LSV,2024-03-24 14:55,-115.0343,36.2362,570.00,51.80,33.80,50.08,0.00,0.00,0.00,29.56,1000.10,10.00,M,CLR,M,M,M,M,M,M,M,M,M,M,M,M,M,M,51.80,KLSV 241455Z AUTO 00000KT 10SM CLR 11/01 A2956 RMK AO2 SLP001 T01100010 52020,M
EKO,2024-03-24 14:56,-115.7860,40.8242,1367.00,30.00,24.00,78.07,260.00,3.00,0.00,29.61,1003.60,10.00,M,FEW,OVC,M,M,4100.00,6000.00,M,M,M,M,M,M,M,M,M,26.40,KEKO 241456Z AUTO 26003KT 10SM FEW041 OVC060 M01/M04 A2961 RMK AO2 SLP036 T10111044 53009,M
WMC,2024-03-24 14:56,-117.8072,40.9019,1315.00,33.00,31.00,92.25,190.00,4.00,0.04,29.65,1004.00,1.25,M,OVC,M,M,M,1700.00,M,M,M,-SN BR,M,M,M,M,M,M,28.59,KWMC 241456Z AUTO 19004KT 1 1/4SM -SN BR OVC017 01/M01 A2965 RMK AO2 SLP040 P0004 60006 T00061006 53008,M
NFL,2024-03-24 14:56,-118.7010,39.4166,1199.00,35.00,32.00,88.68,130.00,9.00,T,29.69,1003.50,10.00,M,SCT,BKN,BKN,M,4000.00,5000.00,10000.00,M,M,M,M,M,M,M,M,27.24,KNFL 241456Z 13009KT 10SM SCT040 BKN050 BKN100 02/00 A2969 RMK AO2 RAE40SNE19 SLP035 SH VC N-E-S P0000 60000 T00170000 51017,M
HND,2024-03-24 14:56,-115.1344,35.9729,742.79,49.00,32.00,51.70,210.00,12.00,0.00,29.62,1004.10,10.00,M,CLR,M,M,M,M,M,M,M,M,M,M,M,M,M,M,43.64,KHND 241456Z 21012KT 10SM CLR 09/00 A2962 RMK AO2 SLP041 T00940000 53019,M
TPH,2024-03-24 14:56,-117.0904,38.0505,1654.00,31.00,18.00,58.12,360.00,4.00,0.00,29.65,1003.60,10.00,M,CLR,M,M,M,M,M,M,M,M,M,M,M,M,M,M,26.25,KTPH 241456Z AUTO 36004KT 10SM CLR M01/M08 A2965 RMK AO2 SLP036 T10061078 53013,M
LAS,2024-03-24 14:56,-115.1634,36.0719,663.00,50.00,31.00,47.83,220.00,6.00,0.00,29.59,1001.30,10.00,M,FEW,BKN,M,M,12000.00,20000.00,M,M,M,M,M,M,M,M,M,50.00,KLAS 241456Z 22006KT 10SM FEW120 BKN200 10/M01 A2959 RMK AO2 SLP013 T01001006 53016 $,M
LOL,2024-03-24 15:03,-118.5701,40.0684,1192.43,32.00,32.00,100.00,0.00,0.00,0.01,29.68,M,0.50,M,VV ,M,M,M,1200.00,M,M,M,SN FG,M,M,M,M,M,M,32.00,KLOL 241503Z AUTO 00000KT 1/2SM SN FG VV012 00/00 A2968 RMK AO2 P0001 T00000000,M
WMC,2024-03-24 15:08,-117.8072,40.9019,1315.00,33.00,31.00,92.25,200.00,5.00,T,29.65,M,1.75,M,OVC,M,M,M,1500.00,M,M,M,-SN BR,M,M,M,M,M,M,27.58,KWMC 241508Z AUTO 20005KT 1 3/4SM -SN BR OVC015 01/M01 A2965 RMK AO2 P0000 T00061006,M
BVU,2024-03-24 15:15,-114.8611,35.9475,671.00,50.00,30.20,46.31,170.00,5.00,0.00,29.60,M,10.00,M,CLR,M,M,M,M,M,M,M,M,M,M,M,M,M,M,50.00,KBVU 241515Z AUTO 17005KT 10SM CLR 10/M01 A2960 RMK AO2,M
CXP,2024-03-24 15:15,-119.7326,39.1923,1431.00,33.80,30.20,86.49,300.00,4.00,0.00,29.71,M,9.00,M,SCT,SCT,BKN,M,2300.00,3400.00,4400.00,M,-RA,M,M,M,M,M,M,29.52,KCXP 241515Z AUTO 30004KT 9SM -RA SCT023 SCT034 BKN044 01/M01 A2971 RMK AO2,M
RTS,2024-03-24 15:15,-119.8764,39.6682,1539.00,33.80,26.60,74.63,290.00,7.00,0.00,29.70,M,10.00,M,CLR,M,M,M,M,M,M,M,M,M,M,M,M,M,M,26.97,KRTS 241515Z AUTO 29007KT 10SM CLR 01/M03 A2970 RMK AO2,M
MEV,2024-03-24 15:15,-119.7500,38.9963,1441.42,33.80,30.20,86.49,100.00,4.00,0.00,29.70,M,10.00,M,FEW,SCT,M,M,6000.00,8000.00,M,M,M,M,M,M,M,M,M,29.52,KMEV 241515Z AUTO 10004KT 10SM FEW060 SCT080 01/M01 A2970 RMK AO2,M
HTH,2024-03-24 15:15,-118.6315,38.5448,1282.89,41.00,21.20,44.85,0.00,0.00,0.00,29.69,M,10.00,M,FEW,M,M,M,7000.00,M,M,M,M,M,M,M,M,M,M,41.00,KHTH 241515Z AUTO 00000KT 10SM FEW070 05/M06 A2969 RMK A01,M
10U,2024-03-24 15:15,-116.1876,41.9532,1637.00,32.00,30.20,92.97,230.00,8.00,0.00,29.62,M,10.00,M,OVC,M,M,M,2500.00,M,M,M,UP,M,M,M,M,M,M,24.11,K10U 241515Z AUTO 23008KT 10SM UP OVC025 M00/M01 A2962 RMK AO2,M
TMT,2024-03-24 15:15,-117.1971,39.4643,1749.34,26.40,19.80,75.79,270.00,4.00,0.00,29.66,M,10.00,M,SCT,BKN,OVC,M,2900.00,4200.00,4800.00,M,M,M,M,M,M,M,M,20.88,KTMT 241515Z AUTO 27004KT 10SM SCT029 BKN042 OVC048 M03/M07 A2966 RMK AO2 T10311068,M
LOL,2024-03-24 15:17,-118.5701,40.0684,1192.43,32.00,32.00,100.00,0.00,0.00,0.04,29.68,M,0.25,M,VV ,M,M,M,900.00,M,M,M,+SN FG,M,M,M,M,M,M,32.00,KLOL 241517Z AUTO 00000KT 1/4SM +SN FG VV009 00/00 A2968 RMK AO2 P0004 T00000000,M
WMC,2024-03-24 15:21,-117.8072,40.9019,1315.00,33.00,31.00,92.25,190.00,6.00,0.01,29.65,M,1.25,M,BKN,OVC,M,M,1000.00,1600.00,M,M,-SN BR,M,M,M,M,M,M,26.73,KWMC 241521Z AUTO 19006KT 1 1/4SM -SN BR BKN010 OVC016 01/M01 A2965 RMK AO2 P0001 T00061006,M
WMC,2024-03-24 15:28,-117.8072,40.9019,1315.00,34.00,31.00,88.63,190.00,5.00,0.01,29.65,M,1.50,M,BKN,OVC,M,M,1000.00,1400.00,M,M,-SN BR,M,M,M,M,M,M,28.77,KWMC 241528Z AUTO 19005KT 1 1/2SM -SN BR BKN010 OVC014 01/M01 A2965 RMK AO2 P0001 T00111006,M
LOL,2024-03-24 15:32,-118.5701,40.0684,1192.43,32.00,32.00,100.00,0.00,0.00,0.06,29.69,M,0.50,M,VV ,M,M,M,900.00,M,M,M,SN FG,M,M,M,M,M,M,32.00,KLOL 241532Z AUTO 00000KT 1/2SM SN FG VV009 00/00 A2969 RMK AO2 P0006 T00000000,M
BVU,2024-03-24 15:35,-114.8611,35.9475,671.00,51.80,30.20,43.32,M,3.00,0.00,29.61,M,10.00,M,CLR,M,M,M,M,M,M,M,M,M,M,M,M,M,M,51.80,KBVU 241535Z AUTO VRB03KT 10SM CLR 11/M01 A2961 RMK AO2,M
CXP,2024-03-24 15:35,-119.7326,39.1923,1431.00,33.80,30.20,86.49,0.00,0.00,0.00,29.72,M,1.50,M,FEW,SCT,SCT,M,400.00,1900.00,2500.00,M,-SN BR,M,M,M,M,M,M,33.80,KCXP 241535Z AUTO 00000KT 1 1/2SM -SN BR FEW004 SCT019 SCT025 01/M01 A2972 RMK AO2,M
RTS,2024-03-24 15:35,-119.8764,39.6682,1539.00,33.80,28.40,80.36,M,4.00,0.00,29.71,M,10.00,M,CLR,M,M,M,M,M,M,M,M,M,M,M,M,M,M,29.52,KRTS 241535Z AUTO VRB04KT 10SM CLR 01/M02 A2971 RMK AO2,M
MEV,2024-03-24 15:35,-119.7500,38.9963,1441.42,35.60,32.00,86.59,0.00,0.00,0.00,29.71,M,10.00,M,FEW,SCT,BKN,M,1800.00,4900.00,8000.00,M,M,M,M,M,M,M,M,35.60,KMEV 241535Z AUTO 00000KT 10SM FEW018 SCT049 BKN080 02/M00 A2971 RMK AO2,M
HTH,2024-03-24 15:35,-118.6315,38.5448,1282.89,41.00,21.20,44.85,100.00,8.00,0.00,29.69,M,10.00,M,CLR,M,M,M,M,M,M,M,M,M,M,M,M,M,M,35.20,KHTH 241535Z AUTO 10008KT 10SM CLR 05/M06 A2969 RMK A01,M
10U,2024-03-24 15:35,-116.1876,41.9532,1637.00,32.00,28.40,86.39,220.00,8.00,0.00,29.63,M,10.00,M,FEW,SCT,BKN,M,2200.00,2700.00,3100.00,M,M,M,M,M,M,M,M,24.11,K10U 241535Z AUTO 22008KT 10SM FEW022 SCT027 BKN031 M00/M02 A2963 RMK AO2,M
TMT,2024-03-24 15:35,-117.1971,39.4643,1749.34,27.00,21.00,77.80,240.00,3.00,0.00,29.67,M,5.00,M,SCT,BKN,OVC,M,2000.00,2800.00,4000.00,M,-SN,M,M,M,M,M,M,22.97,KTMT 241535Z AUTO 24003KT 5SM -SN SCT020 BKN028 OVC040 M03/M06 A2967 RMK AO2 T10281062,M
WMC,2024-03-24 15:40,-117.8072,40.9019,1315.00,34.00,31.00,88.63,200.00,3.00,0.02,29.66,M,1.00,M,OVC,M,M,M,1000.00,M,M,M,-SN BR,M,M,M,M,M,M,30.97,KWMC 241540Z AUTO 20003KT 1SM -SN BR OVC010 01/M01 A2966 RMK AO2 P0002 T00111006,M
LOL,2024-03-24 15:44,-118.5701,40.0684,1192.43,32.00,32.00,100.00,0.00,0.00,0.08,29.69,M,0.75,M,VV ,M,M,M,1100.00,M,M,M,-SN BR,M,M,M,M,M,M,32.00,KLOL 241544Z AUTO 00000KT 3/4SM -SN BR VV011 00/00 A2969 RMK AO2 P0008 T00000000,M
LOL,2024-03-24 15:53,-118.5701,40.0684,1192.43,32.00,32.00,100.00,0.00,0.00,0.08,29.69,1006.20,1.00,M,VV ,M,M,M,1500.00,M,M,M,-SN BR,M,M,M,M,M,M,32.00,KLOL 241553Z AUTO 00000KT 1SM -SN BR VV015 00/00 A2969 RMK AO2 SLP062 P0008 T00000000,M
DRA,2024-03-24 15:53,-116.0278,36.6206,1009.00,45.00,31.00,57.73,210.00,5.00,0.00,29.65,1002.10,10.00,M,CLR,M,M,M,M,M,M,M,M,M,M,M,M,M,M,41.83,KDRA 241553Z AUTO 21005KT 10SM CLR 07/M01 A2965 RMK AO2 SLP021 T00721006,M
ELY,2024-03-24 15:53,-114.8453,39.2950,1909.00,21.00,20.00,95.84,190.00,6.00,0.00,29.60,1004.00,10.00,M,SCT,BKN,M,M,4900.00,6000.00,M,M,M,M,M,M,M,M,M,12.28,KELY 241553Z AUTO 19006KT 10SM SCT049 BKN060 M06/M07 A2960 RMK AO2 SLP040 T10611067,M
VGT,2024-03-24 15:53,-115.1933,36.2111,667.00,55.00,29.00,36.69,330.00,12.00,0.00,29.60,1003.10,10.00,M,CLR,M,M,M,M,M,M,M,M,M,M,M,M,M,M,55.00,KVGT 241553Z 33012KT 10SM CLR 13/M02 A2960 RMK AO2 SLP031 T01281017,M
RNO,2024-03-24 15:55,-119.7711,39.4839,1341.00,37.00,31.00,78.69,280.00,12.00,T,29.72,1005.70,4.00,21.00,SCT,BKN,BKN,M,1000.00,3000.00,5000.00,M,-SN,M,M,M,M,M,M,28.37,KRNO 241555Z 28012G21KT 4SM -SN SCT010 BKN030 BKN050 03/M01 A2972 RMK AO2 WSHFT 1535 RAB49E51SNB51 SLP057 ACSL DSNT NW P0000 T00281006,M
BVU,2024-03-24 15:55,-114.8611,35.9475,671.00,53.60,30.20,40.54,220.00,5.00,0.00,29.62,M,10.00,M,CLR,M,M,M,M,M,M,M,M,M,M,M,M,M,M,53.60,KBVU 241555Z AUTO 22005KT 10SM CLR 12/M01 A2962 RMK AO2,M
CXP,2024-03-24 15:55,-119.7326,39.1923,1431.00,33.80,32.00,93.03,0.00,0.00,0.00,29.73,M,4.00,M,FEW,SCT,SCT,M,400.00,1900.00,2700.00,M,-RA BR,M,M,M,M,M,M,33.80,KCXP 241555Z AUTO 00000KT 4SM -RA BR FEW004 SCT019 SCT027 01/M00 A2973 RMK AO2,M
RTS,2024-03-24 15:55,-119.8764,39.6682,1539.00,37.40,26.60,64.70,300.00,10.00,0.00,29.72,M,10.00,M,FEW,BKN,BKN,M,4200.00,6000.00,9500.00,M,M,M,M,M,M,M,M,29.74,KRTS 241555Z AUTO 30010KT 10SM FEW042 BKN060 BKN095 03/M03 A2972 RMK AO2,M
MEV,2024-03-24 15:55,-119.7500,38.9963,1441.42,37.40,32.00,80.65,180.00,5.00,0.00,29.71,M,10.00,M,FEW,SCT,BKN,M,2700.00,3400.00,4200.00,M,M,M,M,M,M,M,M,32.81,KMEV 241555Z AUTO 18005KT 10SM FEW027 SCT034 BKN042 03/M00 A2971 RMK AO2,M
HTH,2024-03-24 15:55,-118.6315,38.5448,1282.89,41.00,21.20,44.85,70.00,6.00,0.00,29.70,M,10.00,M,CLR,M,M,M,M,M,M,M,M,M,M,M,M,M,M,36.37,KHTH 241555Z AUTO 07006KT 10SM CLR 05/M06 A2970 RMK A01,M
10U,2024-03-24 15:55,-116.1876,41.9532,1637.00,32.00,30.20,92.97,220.00,8.00,0.00,29.63,M,10.00,M,BKN,BKN,OVC,M,1800.00,3000.00,6000.00,M,M,M,M,M,M,M,M,24.11,K10U 241555Z AUTO 22008KT 10SM BKN018 BKN030 OVC060 00/M01 A2963 RMK AO2,M
INS,2024-03-24 15:55,-115.6733,36.5872,955.00,51.30,25.00,35.63,250.00,13.00,0.00,29.63,1001.10,10.00,M,CLR,M,M,M,M,M,M,M,M,M,M,M,M,M,M,51.30,KINS 241555Z AUTO 25013KT 10SM CLR 11/M04 A2963 RMK AO2 SLP011 T01071038 $,M
TMT,2024-03-24 15:55,-117.1971,39.4643,1749.34,30.20,23.00,74.26,240.00,9.00,0.00,29.68,M,10.00,M,SCT,BKN,OVC,M,2000.00,2700.00,3200.00,M,M,M,M,M,M,M,M,21.28,KTMT 241555Z AUTO 24009KT 10SM SCT020 BKN027 OVC032 M01/M05 A2968 RMK AO2 T10101051,M
LSV,2024-03-24 15:55,-115.0343,36.2362,570.00,54.50,31.30,41.02,340.00,3.00,0.00,29.57,1000.30,10.00,M,CLR,M,M,M,M,M,M,M,M,M,M,M,M,M,M,54.50,KLSV 241555Z AUTO 34003KT 10SM CLR 13/M00 A2957 RMK AO2 SLP003 T01251004,M
WMC,2024-03-24 15:56,-117.8072,40.9019,1315.00,34.00,31.00,88.63,170.00,5.00,0.03,29.66,1004.60,1.75,M,SCT,OVC,M,M,800.00,1300.00,M,M,-SN BR,M,M,M,M,M,M,28.77,KWMC 241556Z AUTO 17005KT 1 3/4SM -SN BR SCT008 OVC013 01/M01 A2966 RMK AO2 SLP046 P0003 T00111006,M
NFL,2024-03-24 15:56,-118.7010,39.4166,1199.00,37.00,33.00,85.29,130.00,8.00,0.00,29.70,1003.90,10.00,M,SCT,BKN,OVC,M,4000.00,5500.00,10000.00,M,M,M,M,M,M,M,M,30.27,KNFL 241556Z 13008KT 10SM SCT040 BKN055 OVC100 03/01 A2970 RMK AO2 SLP039 SH VC N-E T00280006,M
EKO,2024-03-24 15:56,-115.7860,40.8242,1367.00,37.00,27.00,66.82,230.00,7.00,0.00,29.62,1003.30,10.00,M,BKN,BKN,M,M,6000.00,8000.00,M,M,M,M,M,M,M,M,M,30.87,KEKO 241556Z AUTO 23007KT 10SM BKN060 BKN080 03/M03 A2962 RMK AO2 SLP033 T00281028,M
HND,2024-03-24 15:56,-115.1344,35.9729,742.79,51.00,31.00,46.09,210.00,10.00,0.00,29.64,1004.50,10.00,M,CLR,M,M,M,M,M,M,M,M,M,M,M,M,M,M,51.00,KHND 241556Z 21010KT 10SM CLR 11/M01 A2964 RMK AO2 SLP045 T01061006,M
TPH,2024-03-24 15:56,-117.0904,38.0505,1654.00,37.00,20.00,49.82,330.00,17.00,0.00,29.68,1004.30,10.00,22.00,BKN,M,M,M,11000.00,M,M,M,M,M,M,M,M,M,M,26.63,KTPH 241556Z AUTO 33017G22KT 10SM BKN110 03/M07 A2968 RMK AO2 SLP043 T00281067,M
LAS,2024-03-24 15:56,-115.1634,36.0719,663.00,51.00,31.00,46.09,210.00,3.00,0.00,29.61,1002.10,10.00,M,FEW,BKN,M,M,12000.00,20000.00,M,M,M,M,M,M,M,M,M,51.00,KLAS 241556Z 21003KT 10SM FEW120 BKN200 11/M01 A2961 RMK AO2 SLP021 T01061006 $,M
RNO,2024-03-24 15:58,-119.7711,39.4839,1341.00,36.00,32.00,85.23,270.00,11.00,T,29.72,M,1.00,M,SCT,BKN,BKN,M,1000.00,3000.00,5000.00,M,-SN,M,M,M,M,M,M,27.52,KRNO 241558Z 27011KT 1SM R17R/P6000FT -SN SCT010 BKN030 BKN050 02/00 A2972 RMK AO2 SFC VIS 2 P0000 T00220000 $,M
LOL,2024-03-24 15:59,-118.5701,40.0684,1192.43,32.00,32.00,100.00,0.00,0.00,T,29.70,M,2.00,M,FEW,BKN,OVC,M,800.00,1500.00,3800.00,M,-SN BR,M,M,M,M,M,M,32.00,KLOL 241559Z AUTO 00000KT 2SM -SN BR FEW008 BKN015 OVC038 00/00 A2970 RMK AO2 P0000 T00000000,M
WMC,2024-03-24 16:03,-117.8072,40.9019,1315.00,34.00,31.00,88.63,200.00,4.00,T,29.67,M,1.75,M,BKN,OVC,M,M,800.00,1300.00,M,M,-SN BR,M,M,M,M,M,M,29.76,KWMC 241603Z AUTO 20004KT 1 3/4SM -SN BR BKN008 OVC013 01/M01 A2967 RMK AO2 P0000 T00111006,M
RNO,2024-03-24 16:05,-119.7711,39.4839,1341.00,35.00,31.00,85.17,270.00,8.00,T,29.72,M,1.00,M,SCT,BKN,BKN,OVC,1000.00,2500.00,5000.00,20000.00,-SN,M,M,M,M,M,M,27.81,KRNO 241605Z 27008KT 1SM R17R/4000VP6000FT -SN SCT010 BKN025 BKN050 OVC200 02/M01 A2972 RMK AO2 P0000 T00171006 $,M
LOL,2024-03-24 16:05,-118.5701,40.0684,1192.43,32.00,32.00,100.00,0.00,0.00,T,29.70,M,1.75,M,OVC,M,M,M,1100.00,M,M,M,-SN BR,M,M,M,M,M,M,32.00,KLOL 241605Z AUTO 00000KT 1 3/4SM -SN BR OVC011 00/00 A2970 RMK AO2 P0000 T00000000,M
BVU,2024-03-24 16:15,-114.8611,35.9475,671.00,53.60,30.20,40.54,210.00,3.00,0.00,29.62,M,10.00,M,CLR,M,M,M,M,M,M,M,M,M,M,M,M,M,M,53.60,KBVU 241615Z AUTO 21003KT 10SM CLR 12/M01 A2962 RMK AO2,M
CXP,2024-03-24 16:15,-119.7326,39.1923,1431.00,33.80,32.00,93.03,0.00,0.00,0.00,29.73,M,2.00,M,FEW,SCT,SCT,M,300.00,1900.00,3500.00,M,-SN BR,M,M,M,M,M,M,33.80,KCXP 241615Z AUTO 00000KT 2SM -SN BR FEW003 SCT019 SCT035 01/M00 A2973 RMK AO2,M
RTS,2024-03-24 16:15,-119.8764,39.6682,1539.00,37.40,26.60,64.70,300.00,10.00,0.00,29.72,M,10.00,M,FEW,SCT,BKN,M,3000.00,4400.00,6000.00,M,M,M,M,M,M,M,M,29.74,KRTS 241615Z AUTO 30010KT 10SM FEW030 SCT044 BKN060 03/M03 A2972 RMK AO2,M
MEV,2024-03-24 16:15,-119.7500,38.9963,1441.42,37.40,30.20,74.98,190.00,5.00,0.00,29.71,M,10.00,M,FEW,FEW,BKN,M,2700.00,3400.00,5500.00,M,M,M,M,M,M,M,M,32.81,KMEV 241615Z AUTO 19005KT 10SM FEW027 FEW034 BKN055 03/M01 A2971 RMK AO2,M
HTH,2024-03-24 16:15,-118.6315,38.5448,1282.89,41.00,19.40,41.54,80.00,6.00,0.00,29.71,M,10.00,M,SCT,M,M,M,6500.00,M,M,M,M,M,M,M,M,M,M,36.37,KHTH 241615Z AUTO 08006KT 10SM SCT065 05/M07 A2971 RMK A01,M
10U,2024-03-24 16:15,-116.1876,41.9532,1637.00,33.80,30.20,86.49,220.00,7.00,0.00,29.63,M,10.00,M,FEW,BKN,OVC,M,1000.00,1400.00,1800.00,M,M,M,M,M,M,M,M,26.97,K10U 241615Z AUTO 22007KT 10SM FEW010 BKN014 OVC018 01/M01 A2963 RMK AO2,M
TMT,2024-03-24 16:15,-117.1971,39.4643,1749.34,32.00,25.00,75.07,240.00,10.00,0.00,29.68,M,10.00,M,OVC,M,M,M,3400.00,M,M,M,M,M,M,M,M,M,M,22.97,KTMT 241615Z AUTO 24010KT 10SM OVC034 00/M04 A2968 RMK AO2 T10011039,M
LOL,2024-03-24 16:16,-118.5701,40.0684,1192.43,33.00,32.00,96.06,0.00,0.00,T,29.70,M,1.75,M,FEW,BKN,OVC,M,300.00,1100.00,3100.00,M,-SN BR,M,M,M,M,M,M,33.00,KLOL 241616Z AUTO 00000KT 1 3/4SM -SN BR FEW003 BKN011 OVC031 01/00 A2970 RMK AO2 P0000 T00060000,M
WMC,2024-03-24 16:19,-117.8072,40.9019,1315.00,34.00,31.00,88.63,190.00,5.00,0.01,29.67,M,1.25,M,BKN,OVC,M,M,800.00,1300.00,M,M,-SN BR,M,M,M,M,M,M,28.77,KWMC 241619Z AUTO 19005KT 1 1/4SM -SN BR BKN008 OVC013 01/M01 A2967 RMK AO2 P0001 T00111006,M
RNO,2024-03-24 16:19,-119.7711,39.4839,1341.00,35.00,32.00,88.68,240.00,5.00,T,29.73,M,9.00,M,SCT,BKN,BKN,BKN,1000.00,5000.00,14000.00,20000.00,M,M,M,M,M,M,M,29.96,KRNO 241619Z 24005KT 9SM SCT010 BKN050 BKN140 BKN200 02/00 A2973 RMK AO2 SNE15 ACSL DSNT W THRU NW P0000 T00170000 $,M
WMC,2024-03-24 16:23,-117.8072,40.9019,1315.00,34.00,31.00,88.63,190.00,4.00,0.02,29.67,M,1.50,M,OVC,M,M,M,1000.00,M,M,M,-SN BR,M,M,M,M,M,M,29.76,KWMC 241623Z AUTO 19004KT 1 1/2SM -SN BR OVC010 01/M01 A2967 RMK AO2 P0002 T00111006,M
LOL,2024-03-24 16:25,-118.5701,40.0684,1192.43,33.00,32.00,96.06,0.00,0.00,T,29.70,M,3.00,M,SCT,BKN,OVC,M,400.00,1300.00,4200.00,M,-SN BR,M,M,M,M,M,M,33.00,KLOL 241625Z AUTO 00000KT 3SM -SN BR SCT004 BKN013 OVC042 01/00 A2970 RMK AO2 P0000 T00060000,M
LOL,2024-03-24 16:34,-118.5701,40.0684,1192.43,33.00,33.00,100.00,0.00,0.00,T,29.71,M,5.00,M,FEW,BKN,OVC,M,300.00,700.00,1300.00,M,-SN BR,M,M,M,M,M,M,33.00,KLOL 241634Z AUTO 00000KT 5SM -SN BR FEW003 BKN007 OVC013 01/01 A2971 RMK AO2 P0000 T00060006,M
BVU,2024-03-24 16:35,-114.8611,35.9475,671.00,55.40,30.20,37.97,210.00,4.00,0.00,29.62,M,10.00,M,CLR,M,M,M,M,M,M,M,M,M,M,M,M,M,M,55.40,KBVU 241635Z AUTO 21004KT 10SM CLR 13/M01 A2962 RMK AO2,M
CXP,2024-03-24 16:35,-119.7326,39.1923,1431.00,33.80,30.20,86.49,0.00,0.00,0.00,29.74,M,10.00,M,FEW,SCT,SCT,M,1400.00,3500.00,4500.00,M,M,M,M,M,M,M,M,33.80,KCXP 241635Z AUTO 00000KT 10SM FEW014 SCT035 SCT045 01/M01 A2974 RMK AO2,M
RTS,2024-03-24 16:35,-119.8764,39.6682,1539.00,39.20,26.60,60.29,310.00,12.00,0.00,29.73,M,10.00,M,FEW,FEW,FEW,M,2400.00,3300.00,6000.00,M,M,M,M,M,M,M,M,31.17,KRTS 241635Z AUTO 31012KT 10SM FEW024 FEW033 FEW060 04/M03 A2973 RMK AO2,M
MEV,2024-03-24 16:35,-119.7500,38.9963,1441.42,37.40,32.00,80.65,240.00,5.00,0.00,29.72,M,3.00,M,FEW,FEW,BKN,M,1900.00,3000.00,5500.00,M,-RA HZ,M,M,M,M,M,M,32.81,KMEV 241635Z AUTO 24005KT 3SM -RA HZ FEW019 FEW030 BKN055 03/M00 A2972 RMK AO2,M
HTH,2024-03-24 16:35,-118.6315,38.5448,1282.89,42.80,19.40,38.75,50.00,6.00,0.00,29.72,M,10.00,M,FEW,M,M,M,7000.00,M,M,M,M,M,M,M,M,M,M,38.54,KHTH 241635Z AUTO 05006KT 10SM FEW070 06/M07 A2972 RMK A01,M
10U,2024-03-24 16:35,-116.1876,41.9532,1637.00,33.80,30.20,86.49,280.00,7.00,0.00,29.64,M,10.00,M,OVC,M,M,M,1300.00,M,M,M,M,M,M,M,M,M,M,26.97,K10U 241635Z AUTO 28007KT 10SM OVC013 01/M01 A2964 RMK AO2,M
TMT,2024-03-24 16:35,-117.1971,39.4643,1749.34,32.40,25.00,73.87,240.00,8.00,0.00,29.68,M,10.00,M,SCT,BKN,OVC,M,1900.00,2400.00,3400.00,M,-SN,M,M,M,M,M,M,24.61,KTMT 241635Z AUTO 24008KT 10SM -SN SCT019 BKN024 OVC034 00/M04 A2968 RMK AO2 T00021038,M
WMC,2024-03-24 16:36,-117.8072,40.9019,1315.00,34.00,32.00,92.29,230.00,4.00,0.02,29.68,M,1.25,M,BKN,OVC,M,M,700.00,1000.00,M,M,-SN BR,M,M,M,M,M,M,29.76,KWMC 241636Z AUTO 23004KT 1 1/4SM -SN BR BKN007 OVC010 01/00 A2968 RMK AO2 P0002 T00110000,M
WMC,2024-03-24 16:45,-117.8072,40.9019,1315.00,34.00,32.00,92.29,250.00,7.00,0.03,29.68,M,1.50,M,SCT,OVC,M,M,500.00,1000.00,M,M,-SN BR,M,M,M,M,M,M,27.22,KWMC 241645Z AUTO 25007KT 1 1/2SM -SN BR SCT005 OVC010 01/00 A2968 RMK AO2 P0003 T00110000,M
LOL,2024-03-24 16:50,-118.5701,40.0684,1192.43,33.80,33.80,100.00,0.00,0.00,T,29.71,M,7.00,M,FEW,SCT,OVC,M,300.00,800.00,4000.00,M,UP,M,M,M,M,M,M,33.80,KLOL 241650Z AUTO 00000KT 7SM UP FEW003 SCT008 OVC040 01/01 A2971 RMK AO2 UPB50SNE50 P0000,M
DRA,2024-03-24 16:53,-116.0278,36.6206,1009.00,49.00,30.00,47.68,230.00,11.00,0.00,29.66,1002.30,10.00,M,CLR,M,M,M,M,M,M,M,M,M,M,M,M,M,M,43.95,KDRA 241653Z AUTO 23011KT 10SM CLR 09/M01 A2966 RMK AO2 SLP023 T00941011,M
ELY,2024-03-24 16:53,-114.8453,39.2950,1909.00,30.00,26.00,84.85,0.00,0.00,0.00,29.62,1003.30,10.00,M,BKN,M,M,M,4500.00,M,M,M,M,M,M,M,M,M,M,30.00,KELY 241653Z AUTO 00000KT 10SM BKN045 M01/M03 A2962 RMK AO2 SLP033 T10111033,M
VGT,2024-03-24 16:53,-115.1933,36.2111,667.00,57.00,29.00,34.12,340.00,7.00,0.00,29.61,1003.60,10.00,M,CLR,M,M,M,M,M,M,M,M,M,M,M,M,M,M,57.00,KVGT 241653Z 34007KT 10SM CLR 14/M02 A2961 RMK AO2 SLP036 T01391017,M
LOL,2024-03-24 16:53,-118.5701,40.0684,1192.43,33.00,33.00,100.00,0.00,0.00,T,29.71,1007.10,7.00,M,FEW,BKN,OVC,M,300.00,800.00,3900.00,M,UP,M,M,M,M,M,M,33.00,KLOL 241653Z AUTO 00000KT 7SM UP FEW003 BKN008 OVC039 01/01 A2971 RMK AO2 UPB50SNE50 SLP071 P0000 T00060006,M
BVU,2024-03-24 16:55,-114.8611,35.9475,671.00,55.40,30.20,37.97,210.00,4.00,0.00,29.63,M,10.00,M,CLR,M,M,M,M,M,M,M,M,M,M,M,M,M,M,55.40,KBVU 241655Z AUTO 21004KT 10SM CLR 13/M01 A2963 RMK AO2,M
CXP,2024-03-24 16:55,-119.7326,39.1923,1431.00,35.60,32.00,86.59,210.00,5.00,0.00,29.75,M,6.00,M,SCT,BKN,BKN,M,1000.00,3500.00,4500.00,M,-RA BR,M,M,M,M,M,M,30.67,KCXP 241655Z AUTO 21005KT 6SM -RA BR SCT010 BKN035 BKN045 02/M00 A2975 RMK AO2,M
INS,2024-03-24 16:55,-115.6733,36.5872,955.00,52.70,25.00,33.84,220.00,7.00,0.00,29.64,1001.40,10.00,M,FEW,M,M,M,12000.00,M,M,M,M,M,M,M,M,M,M,52.70,KINS 241655Z AUTO 22007KT 10SM FEW120 12/M04 A2964 RMK AO2 SLP014 T01151038 $,M
RNO,2024-03-24 16:55,-119.7711,39.4839,1341.00,41.00,32.00,70.08,310.00,5.00,T,29.73,1005.80,10.00,M,FEW,BKN,BKN,M,1500.00,3900.00,11000.00,M,M,M,M,M,M,M,M,37.08,KRNO 241655Z 31005KT 10SM FEW015 BKN039 BKN110 05/00 A2973 RMK AO2 SNE15 SLP058 MTN TOPS OBSCD DSNT SW THRU NW SH VC W P0000 T00500000 $,M
LSV,2024-03-24 16:55,-115.0343,36.2362,570.00,56.50,30.60,37.08,0.00,0.00,0.00,29.59,1001.00,10.00,M,CLR,M,M,M,M,M,M,M,M,M,M,M,M,M,M,56.50,KLSV 241655Z AUTO 00000KT 10SM CLR 14/M01 A2959 RMK AO2 SLP010 T01361008,M
RTS,2024-03-24 16:55,-119.8764,39.6682,1539.00,37.40,24.80,60.04,320.00,14.00,0.00,29.73,M,10.00,20.00,FEW,SCT,BKN,M,2400.00,3400.00,5500.00,M,M,M,M,M,M,M,M,28.12,KRTS 241655Z AUTO 32014G20KT 10SM FEW024 SCT034 BKN055 03/M04 A2973 RMK AO2,M
MEV,2024-03-24 16:55,-119.7500,38.9963,1441.42,35.60,30.20,80.51,0.00,0.00,0.00,29.73,M,8.00,M,FEW,FEW,SCT,M,2300.00,2800.00,4700.00,M,-SN,M,M,M,M,M,M,35.60,KMEV 241655Z AUTO 00000KT 8SM -SN FEW023 FEW028 SCT047 02/M01 A2973 RMK AO2,M
HTH,2024-03-24 16:55,-118.6315,38.5448,1282.89,42.80,23.00,45.14,350.00,12.00,0.00,29.73,M,10.00,M,FEW,FEW,SCT,M,2300.00,3000.00,3700.00,M,M,M,M,M,M,M,M,35.75,KHTH 241655Z AUTO 35012KT 10SM FEW023 FEW030 SCT037 06/M05 A2973 RMK A01,M
10U,2024-03-24 16:55,-116.1876,41.9532,1637.00,33.80,30.20,86.49,M,5.00,0.00,29.65,M,10.00,M,OVC,M,M,M,1300.00,M,M,M,M,M,M,M,M,M,M,28.53,K10U 241655Z AUTO VRB05KT 10SM OVC013 01/M01 A2965 RMK AO2,M
TMT,2024-03-24 16:55,-117.1971,39.4643,1749.34,33.00,27.00,78.34,220.00,10.00,0.00,29.68,M,5.00,M,BKN,OVC,M,M,1800.00,2500.00,M,M,-SN,M,M,M,M,M,M,24.22,KTMT 241655Z AUTO 22010KT 5SM -SN BKN018 OVC025 01/M03 A2968 RMK AO2 T00061028,M
EKO,2024-03-24 16:56,-115.7860,40.8242,1367.00,39.00,26.00,59.27,250.00,14.00,0.00,29.62,1003.60,10.00,M,OVC,M,M,M,6500.00,M,M,M,M,M,M,M,M,M,M,30.19,KEKO 241656Z AUTO 25014KT 10SM OVC065 04/M03 A2962 RMK AO2 SLP036 T00391033,M
WMC,2024-03-24 16:56,-117.8072,40.9019,1315.00,34.00,32.00,92.29,280.00,6.00,0.04,29.69,1006.00,2.00,M,SCT,OVC,M,M,500.00,1000.00,M,M,-SN BR,M,M,M,M,M,M,27.94,KWMC 241656Z AUTO 28006KT 2SM -SN BR SCT005 OVC010 01/00 A2969 RMK AO2 SLP060 P0004 T00110000,M
NFL,2024-03-24 16:56,-118.7010,39.4166,1199.00,39.00,32.00,75.75,160.00,5.00,0.00,29.72,1004.50,10.00,M,SCT,BKN,BKN,M,4000.00,6000.00,10000.00,M,M,M,M,M,M,M,M,34.71,KNFL 241656Z 16005KT 10SM SCT040 BKN060 BKN100 04/00 A2972 RMK AO2 SLP045 SH DSNT NE-E T00390000,M
HND,2024-03-24 16:56,-115.1344,35.9729,742.79,53.00,31.00,42.81,200.00,12.00,0.00,29.65,1005.00,10.00,M,CLR,M,M,M,M,M,M,M,M,M,M,M,M,M,M,53.00,KHND 241656Z 20012KT 10SM CLR 12/M01 A2965 RMK AO2 SLP050 T01171006,M
TPH,2024-03-24 16:56,-117.0904,38.0505,1654.00,36.00,22.00,56.42,330.00,10.00,0.00,29.69,1005.20,10.00,M,SCT,OVC,M,M,6500.00,8000.00,M,M,M,M,M,M,M,M,M,27.98,KTPH 241656Z AUTO 33010KT 10SM SCT065 OVC080 02/M06 A2969 RMK AO2 SLP052 T00221056,M
LAS,2024-03-24 16:56,-115.1634,36.0719,663.00,53.00,31.00,42.81,M,5.00,0.00,29.63,1002.40,10.00,M,FEW,BKN,M,M,12000.00,20000.00,M,M,M,M,M,M,M,M,M,53.00,KLAS 241656Z VRB05KT 10SM FEW120 BKN200 12/M01 A2963 RMK AO2 SLP024 T01171006 $,M
WMC,2024-03-24 17:00,-117.8072,40.9019,1315.00,35.00,32.00,88.68,280.00,6.00,T,29.69,M,3.00,M,OVC,M,M,M,800.00,M,M,M,-SN BR,M,M,M,M,M,M,29.14,KWMC 241700Z AUTO 28006KT 3SM -SN BR OVC008 02/00 A2969 RMK AO2 P0000 T00170000,M
LOL,2024-03-24 17:04,-118.5701,40.0684,1192.43,34.00,33.00,96.08,0.00,0.00,T,29.72,M,10.00,M,SCT,BKN,OVC,M,300.00,3900.00,5500.00,M,M,M,M,M,M,M,M,34.00,KLOL 241704Z AUTO 00000KT 10SM SCT003 BKN039 OVC055 01/01 A2972 RMK AO2 UPE04 P0000 T00110006,M
BVU,2024-03-24 17:15,-114.8611,35.9475,671.00,55.40,28.40,35.28,M,3.00,0.00,29.63,M,10.00,M,CLR,M,M,M,M,M,M,M,M,M,M,M,M,M,M,55.40,KBVU 241715Z AUTO VRB03KT 10SM CLR 13/M02 A2963 RMK AO2,M
CXP,2024-03-24 17:15,-119.7326,39.1923,1431.00,35.60,32.00,86.59,180.00,6.00,0.00,29.75,M,1.25,M,BKN,BKN,BKN,M,400.00,900.00,1800.00,M,-SN BR,M,M,M,M,M,M,29.87,KCXP 241715Z AUTO 18006KT 1 1/4SM -SN BR BKN004 BKN009 BKN018 02/00 A2975 RMK AO2 VIS 1/2V3,M
RTS,2024-03-24 17:15,-119.8764,39.6682,1539.00,37.40,26.60,64.70,320.00,11.00,0.00,29.74,M,10.00,M,FEW,BKN,OVC,M,3500.00,4900.00,5500.00,M,M,M,M,M,M,M,M,29.29,KRTS 241715Z AUTO 32011KT 10SM FEW035 BKN049 OVC055 03/M03 A2974 RMK AO2,M
MEV,2024-03-24 17:15,-119.7500,38.9963,1441.42,35.60,32.00,86.59,30.00,5.00,0.00,29.74,M,6.00,M,FEW,FEW,M,M,2300.00,3000.00,M,M,-RA BR,M,M,M,M,M,M,30.67,KMEV 241715Z AUTO 03005KT 6SM -RA BR FEW023 FEW030 02/00 A2974 RMK AO2,M
HTH,2024-03-24 17:15,-118.6315,38.5448,1282.89,41.00,24.80,52.17,10.00,7.00,0.00,29.73,M,10.00,M,FEW,FEW,M,M,3000.00,3700.00,M,M,M,M,M,M,M,M,M,35.75,KHTH 241715Z AUTO 01007KT 10SM FEW030 FEW037 05/M04 A2973 RMK A01,M
10U,2024-03-24 17:15,-116.1876,41.9532,1637.00,33.80,30.20,86.49,0.00,0.00,0.00,29.65,M,2.50,M,FEW,BKN,OVC,M,500.00,1400.00,1800.00,M,UP,M,M,M,M,M,M,33.80,K10U 241715Z AUTO 00000KT 2 1/2SM UP FEW005 BKN014 OVC018 01/M01 A2965 RMK AO2,M
TMT,2024-03-24 17:15,-117.1971,39.4643,1749.34,33.40,27.00,77.09,210.00,9.00,0.00,29.69,M,10.00,M,SCT,BKN,OVC,M,1400.00,2000.00,3600.00,M,M,M,M,M,M,M,M,25.25,KTMT 241715Z AUTO 21009KT 10SM SCT014 BKN020 OVC036 01/M03 A2969 RMK AO2 T00081028,M
RNO,2024-03-24 17:29,-119.7711,39.4839,1341.00,42.00,30.00,62.18,320.00,14.00,T,29.73,M,2.00,25.00,FEW,BKN,BKN,M,2000.00,4500.00,11000.00,M,-RA,M,M,M,M,M,M,34.05,KRNO 241729Z 32014G25KT 2SM -RA FEW020 BKN045 BKN110 06/M01 A2973 RMK AO2 RAB27 P0000 T00561011 $,M
RTS,2024-03-24 17:30,-119.8764,39.6682,1539.00,39.20,26.60,60.29,290.00,13.00,0.00,29.74,M,10.00,18.00,FEW,SCT,OVC,M,2900.00,4900.00,5500.00,M,M,M,M,M,M,M,M,30.79,KRTS 241730Z AUTO 29013G18KT 10SM FEW029 SCT049 OVC055 04/M03 A2974 RMK AO2,M
WMC,2024-03-24 17:31,-117.8072,40.9019,1315.00,36.00,33.00,88.73,320.00,12.00,0.01,29.70,M,2.00,19.00,BKN,BKN,OVC,M,800.00,1800.00,3000.00,M,-SN BR,M,M,M,M,M,M,27.09,KWMC 241731Z AUTO 32012G19KT 2SM -SN BR BKN008 BKN018 OVC030 02/01 A2970 RMK AO2 VIS 1 1/2V3 P0001 T00220006,M
BVU,2024-03-24 17:35,-114.8611,35.9475,671.00,57.20,28.40,33.05,200.00,6.00,0.00,29.63,M,10.00,M,CLR,M,M,M,M,M,M,M,M,M,M,M,M,M,M,57.20,KBVU 241735Z AUTO 20006KT 10SM CLR 14/M02 A2963 RMK AO2,M
CXP,2024-03-24 17:35,-119.7326,39.1923,1431.00,35.60,33.80,93.08,170.00,5.00,0.00,29.76,M,9.00,M,BKN,BKN,BKN,M,500.00,900.00,1700.00,M,M,M,M,M,M,M,M,30.67,KCXP 241735Z AUTO 17005KT 9SM BKN005 BKN009 BKN017 02/01 A2976 RMK AO2,M
RNO,2024-03-24 17:35,-119.7711,39.4839,1341.00,38.00,31.00,75.65,300.00,7.00,T,29.74,M,2.00,25.00,FEW,BKN,BKN,M,2000.00,3500.00,5000.00,M,-SN BR,M,M,M,M,M,M,32.09,KRNO 241735Z 30007G25KT 2SM R17R/5000VP6000FT -SN BR FEW020 BKN035 BKN050 03/M01 A2974 RMK AO2 RAB27E31SNB31 P0000 T00331006 $,M
MEV,2024-03-24 17:35,-119.7500,38.9963,1441.42,35.60,32.00,86.59,20.00,6.00,0.00,29.74,M,9.00,M,FEW,SCT,SCT,M,1800.00,2400.00,3000.00,M,UP,M,M,M,M,M,M,29.87,KMEV 241735Z AUTO 02006KT 9SM UP FEW018 SCT024 SCT030 02/00 A2974 RMK AO2,M
HTH,2024-03-24 17:35,-118.6315,38.5448,1282.89,42.80,26.60,52.45,10.00,6.00,0.00,29.73,M,10.00,M,CLR,M,M,M,M,M,M,M,M,M,M,M,M,M,M,38.54,KHTH 241735Z AUTO 01006KT 10SM CLR 06/M03 A2973 RMK A01,M
10U,2024-03-24 17:35,-116.1876,41.9532,1637.00,35.60,30.20,80.51,320.00,6.00,0.00,29.65,M,10.00,M,FEW,SCT,OVC,M,1400.00,2200.00,5500.00,M,M,M,M,M,M,M,M,29.87,K10U 241735Z AUTO 32006KT 10SM FEW014 SCT022 OVC055 02/M01 A2965 RMK AO2,M
TMT,2024-03-24 17:35,-117.1971,39.4643,1749.34,35.60,27.00,70.62,210.00,9.00,0.00,29.69,M,10.00,M,SCT,BKN,OVC,M,1400.00,3300.00,4100.00,M,M,M,M,M,M,M,M,27.99,KTMT 241735Z AUTO 21009KT 10SM SCT014 BKN033 OVC041 02/M03 A2969 RMK AO2 T00201028,M
WMC,2024-03-24 17:38,-117.8072,40.9019,1315.00,36.00,33.00,88.73,320.00,13.00,0.01,29.70,M,3.00,19.00,SCT,BKN,OVC,M,800.00,2700.00,3500.00,M,-SN BR,M,M,M,M,M,M,26.69,KWMC 241738Z AUTO 32013G19KT 3SM -SN BR SCT008 BKN027 OVC035 02/01 A2970 RMK AO2 P0001 T00220006,M
RNO,2024-03-24 17:45,-119.7711,39.4839,1341.00,37.00,31.00,78.69,0.00,0.00,0.03,29.74,M,7.00,M,FEW,BKN,BKN,M,1500.00,3500.00,5000.00,M,M,M,M,M,M,M,M,37.00,KRNO 241745Z 00000KT 7SM R17R/4500VP6000FT FEW015 BKN035 BKN050 03/M01 A2974 RMK AO2 RAB27E31SNB31E45 P0003 T00281006 $,M
WMC,2024-03-24 17:51,-117.8072,40.9019,1315.00,37.40,33.80,86.69,310.00,10.00,0.01,29.70,M,6.00,M,FEW,BKN,OVC,M,700.00,3200.00,4500.00,M,-SN BR,M,M,M,M,M,M,29.74,KWMC 241751Z AUTO 31010KT 6SM -SN BR FEW007 BKN032 OVC045 03/01 A2970 RMK AO2 P0001,M
DRA,2024-03-24 17:53,-116.0278,36.6206,1009.00,52.00,29.00,40.95,230.00,9.00,0.00,29.66,1002.40,10.00,M,FEW,M,M,M,11000.00,M,M,M,M,M,M,M,M,M,M,52.00,KDRA 241753Z AUTO 23009KT 10SM FEW110 11/M02 A2966 RMK AO2 SLP024 T01111017 10111 20022 51010,M
ELY,2024-03-24 17:53,-114.8453,39.2950,1909.00,33.00,25.00,72.11,360.00,4.00,0.00,29.63,1003.70,10.00,M,FEW,BKN,OVC,M,3700.00,4500.00,5500.00,M,M,M,M,T,M,M,M,28.59,KELY 241753Z AUTO 36004KT 10SM FEW037 BKN045 OVC055 01/M04 A2963 RMK AO2 SLP037 I6000 T00061039 10011 21106 53009 $,M
VGT,2024-03-24 17:53,-115.1933,36.2111,667.00,61.00,24.00,24.05,330.00,11.00,0.00,29.62,1003.70,10.00,M,CLR,M,M,M,M,M,M,M,M,M,M,M,M,M,M,61.00,KVGT 241753Z 33011KT 10SM CLR 16/M04 A2962 RMK AO2 SLP037 T01611044 10161 20111 51014,M
LOL,2024-03-24 17:53,-118.5701,40.0684,1192.43,35.00,34.00,96.09,160.00,4.00,T,29.73,1007.80,10.00,M,FEW,FEW,OVC,M,300.00,5500.00,7500.00,M,M,M,M,M,M,M,M,30.92,KLOL 241753Z AUTO 16004KT 10SM FEW003 FEW055 OVC075 02/01 A2973 RMK AO2 UPE04 SLP078 P0000 60012 T00170011 10022 20000 52012,M
BVU,2024-03-24 17:55,-114.8611,35.9475,671.00,59.00,28.40,30.98,M,6.00,0.00,29.64,M,10.00,13.00,CLR,M,M,M,M,M,M,M,M,M,M,M,M,M,M,59.00,KBVU 241755Z AUTO VRB06G13KT 170V250 10SM CLR 15/M02 A2964 RMK AO2,M
CXP,2024-03-24 17:55,-119.7326,39.1923,1431.00,37.40,33.80,86.69,M,4.00,0.00,29.76,M,10.00,M,FEW,BKN,OVC,M,500.00,800.00,1800.00,M,M,M,M,M,M,M,M,33.73,KCXP 241755Z AUTO VRB04KT 10SM FEW005 BKN008 OVC018 03/01 A2976 RMK AO2,M
INS,2024-03-24 17:55,-115.6733,36.5872,955.00,55.00,25.70,32.02,280.00,8.00,0.00,29.65,1001.80,10.00,M,FEW,M,M,M,10000.00,M,M,M,M,M,M,M,M,M,M,55.00,KINS 241755Z AUTO 28008KT 10SM FEW100 13/M03 A2965 RMK AO2 SLP018 T01281035 10128 20067 $,M
RNO,2024-03-24 17:55,-119.7711,39.4839,1341.00,39.00,31.00,72.75,0.00,0.00,0.04,29.75,1006.60,10.00,M,FEW,SCT,BKN,BKN,1500.00,4500.00,6000.00,21000.00,M,M,M,M,M,M,M,39.00,KRNO 241755Z 00000KT 10SM FEW015 SCT045 BKN060 BKN210 04/M01 A2975 RMK AO2 RAB27E31SNB31E45 SLP066 MTN TOPS OBSCD DSNT E AND S THRU SW SH VC E P0004 60004 T00391006 10072 20017 51017 $,M
LSV,2024-03-24 17:55,-115.0343,36.2362,570.00,59.00,28.60,31.24,240.00,4.00,0.00,29.60,1001.30,10.00,M,CLR,M,M,M,M,M,M,M,M,M,M,M,M,M,M,59.00,KLSV 241755Z AUTO 24004KT 10SM CLR 15/M02 A2960 RMK AO2 SLP013 T01511019 10152 20102,M
RTS,2024-03-24 17:55,-119.8764,39.6682,1539.00,41.00,24.80,52.17,310.00,10.00,0.00,29.74,M,10.00,16.00,FEW,BKN,BKN,M,3300.00,4600.00,5500.00,M,M,M,M,M,M,M,M,34.25,KRTS 241755Z AUTO 31010G16KT 10SM FEW033 BKN046 BKN055 05/M04 A2974 RMK AO2,M
MEV,2024-03-24 17:55,-119.7500,38.9963,1441.42,37.40,32.00,80.65,40.00,5.00,0.00,29.75,M,10.00,M,FEW,FEW,M,M,2400.00,2900.00,M,M,M,M,M,M,M,M,M,32.81,KMEV 241755Z AUTO 04005KT 10SM FEW024 FEW029 03/00 A2975 RMK AO2,M
HTH,2024-03-24 17:55,-118.6315,38.5448,1282.89,44.60,24.80,45.44,320.00,4.00,0.00,29.73,M,10.00,M,FEW,FEW,M,M,7000.00,11000.00,M,M,M,M,M,M,M,M,M,42.13,KHTH 241755Z AUTO 32004KT 10SM FEW070 FEW110 07/M04 A2973 RMK A01,M
10U,2024-03-24 17:55,-116.1876,41.9532,1637.00,35.60,30.20,80.51,M,4.00,0.00,29.65,M,10.00,M,SCT,BKN,OVC,M,1700.00,2300.00,5500.00,M,M,M,M,M,M,M,M,31.62,K10U 241755Z AUTO VRB04KT 10SM SCT017 BKN023 OVC055 02/M01 A2965 RMK AO2,M
TMT,2024-03-24 17:55,-117.1971,39.4643,1749.34,34.70,26.00,70.23,210.00,9.00,0.00,29.70,M,10.00,M,SCT,BKN,OVC,M,2300.00,3000.00,3900.00,M,M,M,M,M,M,M,M,26.87,KTMT 241755Z AUTO 21009KT 10SM SCT023 BKN030 OVC039 02/M03 A2970 RMK AO2 T00151034 10025 21073,M
EKO,2024-03-24 17:56,-115.7860,40.8242,1367.00,44.00,27.00,50.93,240.00,15.00,0.00,29.63,1003.30,10.00,30.00,SCT,M,M,M,3100.00,M,M,M,M,M,M,M,30.00,240.00,2024-03-24 17:52,36.34,KEKO 241756Z AUTO 24015G30KT 10SM SCT031 07/M03 A2963 RMK AO2 PK WND 24030/1752 SLP033 T00671028 10067 21050 51003,M
WMC,2024-03-24 17:56,-117.8072,40.9019,1315.00,37.00,34.00,88.78,300.00,11.00,0.01,29.70,1006.20,6.00,M,FEW,BKN,OVC,M,900.00,3200.00,4500.00,M,-SN BR,M,M,M,M,M,M,28.79,KWMC 241756Z AUTO 30011KT 6SM -SN BR FEW009 BKN032 OVC045 03/01 A2970 RMK AO2 SLP062 P0001 60014 T00280011 10033 20006 51012,M
NFL,2024-03-24 17:56,-118.7010,39.4166,1199.00,42.00,29.00,59.69,300.00,13.00,0.00,29.73,1004.90,9.00,18.00,SCT,BKN,OVC,M,3000.00,5000.00,7000.00,M,M,M,M,M,M,M,M,34.38,KNFL 241756Z 30013G18KT 9SM SCT030 BKN050 OVC070 06/M02 A2973 RMK AO2 SLP049 SH VC ALQDS 60000 T00561017 10056 20017 52015,M
HND,2024-03-24 17:56,-115.1344,35.9729,742.79,57.00,29.00,34.12,230.00,9.00,0.00,29.66,1005.10,10.00,M,FEW,M,M,M,12000.00,M,M,M,M,M,M,M,M,M,M,57.00,KHND 241756Z 23009KT 170V280 10SM FEW120 14/M02 A2966 RMK AO2 SLP051 T01391017 10139 20078 51011,M
TPH,2024-03-24 17:56,-117.0904,38.0505,1654.00,40.00,22.00,48.22,320.00,13.00,0.00,29.69,1005.20,10.00,19.00,FEW,SCT,OVC,M,5500.00,6500.00,8500.00,M,M,M,M,M,M,M,M,31.82,KTPH 241756Z AUTO 32013G19KT 10SM FEW055 SCT065 OVC085 04/M06 A2969 RMK AO2 SLP052 T00441056 10044 21039 51011,M
LAS,2024-03-24 17:56,-115.1634,36.0719,663.00,56.00,29.00,35.38,210.00,4.00,0.00,29.63,1002.60,10.00,M,FEW,SCT,BKN,M,10000.00,18000.00,25000.00,M,M,M,M,M,M,M,M,56.00,KLAS 241756Z 21004KT 10SM FEW100 SCT180 BKN250 13/M02 A2963 RMK AO2 SLP026 T01331017 10139 20083 51013 $,M
BVU,2024-03-24 18:15,-114.8611,35.9475,671.00,59.00,28.40,30.98,210.00,7.00,0.00,29.63,M,10.00,M,CLR,M,M,M,M,M,M,M,M,M,M,M,M,M,M,59.00,KBVU 241815Z AUTO 21007KT 10SM CLR 15/M02 A2963 RMK AO2,M
CXP,2024-03-24 18:15,-119.7326,39.1923,1431.00,37.40,32.00,80.65,0.00,0.00,0.00,29.76,M,10.00,M,FEW,SCT,BKN,M,800.00,1900.00,4600.00,M,M,M,M,M,M,M,M,37.40,KCXP 241815Z AUTO 00000KT 10SM FEW008 SCT019 BKN046 03/00 A2976 RMK AO2,M
RTS,2024-03-24 18:15,-119.8764,39.6682,1539.00,39.20,24.80,55.95,340.00,12.00,0.00,29.75,M,10.00,22.00,FEW,SCT,BKN,M,3100.00,3600.00,4200.00,M,M,M,M,M,M,M,M,31.17,KRTS 241815Z AUTO 34012G22KT 10SM FEW031 SCT036 BKN042 04/M04 A2975 RMK AO2,M
MEV,2024-03-24 18:15,-119.7500,38.9963,1441.42,39.20,32.00,75.16,20.00,5.00,0.00,29.75,M,10.00,M,CLR,M,M,M,M,M,M,M,M,M,M,M,M,M,M,34.95,KMEV 241815Z AUTO 02005KT 10SM CLR 04/M00 A2975 RMK AO2,M
HTH,2024-03-24 18:15,-118.6315,38.5448,1282.89,44.60,23.00,42.14,0.00,0.00,0.00,29.73,M,10.00,M,FEW,FEW,M,M,7000.00,11000.00,M,M,M,M,M,M,M,M,M,44.60,KHTH 241815Z AUTO 00000KT 10SM FEW070 FEW110 07/M05 A2973 RMK A01,M
10U,2024-03-24 18:15,-116.1876,41.9532,1637.00,37.40,30.20,74.98,280.00,7.00,0.00,29.65,M,10.00,M,FEW,SCT,BKN,M,1700.00,2200.00,2800.00,M,M,M,M,M,M,M,M,31.36,K10U 241815Z AUTO 28007KT 250V310 10SM FEW017 SCT022 BKN028 03/M01 A2965 RMK AO2,M
WMC,2024-03-24 18:17,-117.8072,40.9019,1315.00,37.00,33.00,85.29,310.00,14.00,T,29.71,M,10.00,M,BKN,BKN,OVC,M,1200.00,2900.00,3500.00,M,-SN,M,M,M,M,M,M,27.61,KWMC 241817Z AUTO 31014KT 10SM -SN BKN012 BKN029 OVC035 03/01 A2971 RMK AO2 RAB05E14 P0000 T00280006,M
WMC,2024-03-24 18:24,-117.8072,40.9019,1315.00,38.00,34.00,85.35,300.00,12.00,T,29.71,M,9.00,M,SCT,OVC,M,M,1200.00,2600.00,M,M,M,M,M,M,M,M,M,29.64,KWMC 241824Z AUTO 30012KT 9SM SCT012 OVC026 03/01 A2971 RMK AO2 RAB05E14SNE24 P0000 T00330011,M
BVU,2024-03-24 18:35,-114.8611,35.9475,671.00,59.00,26.60,28.77,M,3.00,0.00,29.63,M,10.00,11.00,CLR,M,M,M,M,M,M,M,M,M,M,M,M,M,M,59.00,KBVU 241835Z AUTO VRB03G11KT 10SM CLR 15/M03 A2963 RMK AO2,M
CXP,2024-03-24 18:35,-119.7326,39.1923,1431.00,39.20,32.00,75.16,0.00,0.00,0.00,29.77,M,10.00,M,BKN,BKN,BKN,M,1600.00,4600.00,5500.00,M,M,M,M,M,M,M,M,39.20,KCXP 241835Z AUTO 00000KT 10SM BKN016 BKN046 BKN055 04/M00 A2977 RMK AO2,M
RTS,2024-03-24 18:35,-119.8764,39.6682,1539.00,41.00,26.60,56.22,310.00,21.00,0.00,29.76,M,9.00,28.00,SCT,BKN,BKN,M,3100.00,4200.00,5500.00,M,M,M,M,M,M,M,M,30.86,KRTS 241835Z AUTO 31021G28KT 9SM SCT031 BKN042 BKN055 05/M03 A2976 RMK AO2,M
MEV,2024-03-24 18:35,-119.7500,38.9963,1441.42,41.00,28.40,60.54,0.00,0.00,0.00,29.75,M,10.00,M,CLR,M,M,M,M,M,M,M,M,M,M,M,M,M,M,41.00,KMEV 241835Z AUTO 00000KT 10SM CLR 05/M02 A2975 RMK AO2,M
HTH,2024-03-24 18:35,-118.6315,38.5448,1282.89,46.40,24.80,42.44,M,4.00,0.00,29.73,M,10.00,M,CLR,M,M,M,M,M,M,M,M,M,M,M,M,M,M,44.24,KHTH 241835Z AUTO VRB04KT 10SM CLR 08/M04 A2973 RMK A01,M
10U,2024-03-24 18:35,-116.1876,41.9532,1637.00,37.40,30.20,74.98,280.00,11.00,0.00,29.65,M,10.00,M,SCT,BKN,OVC,M,2200.00,5000.00,6500.00,M,M,M,M,M,M,M,M,29.29,K10U 241835Z AUTO 28011KT 10SM SCT022 BKN050 OVC065 03/M01 A2965 RMK AO2,M
TMT,2024-03-24 18:35,-117.1971,39.4643,1749.34,34.50,28.00,76.88,200.00,8.00,0.00,29.69,M,5.00,M,BKN,OVC,M,M,2100.00,2900.00,M,M,UP,M,M,M,M,M,M,27.19,KTMT 241835Z AUTO 20008KT 5SM UP BKN021 OVC029 01/M02 A2969 RMK AO2 T00141023,M
DRA,2024-03-24 18:53,-116.0278,36.6206,1009.00,54.00,27.00,35.05,230.00,13.00,0.00,29.66,1002.20,10.00,M,CLR,M,M,M,M,M,M,M,M,M,M,M,M,M,M,54.00,KDRA 241853Z AUTO 23013KT 10SM CLR 12/M03 A2966 RMK AO2 SLP022 T01221028,M
ELY,2024-03-24 18:53,-114.8453,39.2950,1909.00,36.00,24.00,61.37,M,3.00,0.00,29.64,1003.40,10.00,M,BKN,M,M,M,6000.00,M,M,M,M,M,M,M,M,M,M,33.26,KELY 241853Z AUTO VRB03KT 10SM BKN060 02/M04 A2964 RMK AO2 SLP034 T00221044 $,M
VGT,2024-03-24 18:53,-115.1933,36.2111,667.00,60.00,22.00,22.91,290.00,8.00,0.00,29.62,1003.90,10.00,M,BKN,M,M,M,12000.00,M,M,M,M,M,M,M,M,M,M,60.00,KVGT 241853Z 29008KT 10SM BKN120 16/M06 A2962 RMK AO2 SLP039 T01561056,M
LOL,2024-03-24 18:53,-118.5701,40.0684,1192.43,41.00,36.00,82.22,M,3.00,0.00,29.74,1007.80,10.00,M,CLR,M,M,M,M,M,M,M,M,M,M,M,M,M,M,38.98,KLOL 241853Z AUTO VRB03KT 10SM CLR 05/02 A2974 RMK AO2 SLP078 T00500022,M
BVU,2024-03-24 18:55,-114.8611,35.9475,671.00,59.00,24.80,26.70,0.00,0.00,0.00,29.63,M,10.00,M,CLR,M,M,M,M,M,M,M,M,M,M,M,M,M,M,59.00,KBVU 241855Z AUTO 00000KT 10SM CLR 15/M04 A2963 RMK AO2,M
CXP,2024-03-24 18:55,-119.7326,39.1923,1431.00,42.80,32.00,65.38,M,3.00,0.00,29.76,M,10.00,M,FEW,FEW,OVC,M,1600.00,4600.00,5500.00,M,M,M,M,M,M,M,M,41.03,KCXP 241855Z AUTO VRB03KT 10SM FEW016 FEW046 OVC055 06/M00 A2976 RMK AO2,M
RNO,2024-03-24 18:55,-119.7711,39.4839,1341.00,45.00,27.00,49.02,330.00,10.00,0.00,29.75,1006.10,10.00,M,FEW,SCT,BKN,BKN,2500.00,4000.00,6000.00,21000.00,M,M,M,M,M,M,M,39.27,KRNO 241855Z 33010KT 10SM FEW025 SCT040 BKN060 BKN210 07/M03 A2975 RMK AO2 SLP061 CLDS TPG MTNS DSNT S THRU NW T00721028 $,M
RTS,2024-03-24 18:55,-119.8764,39.6682,1539.00,35.60,28.40,74.80,310.00,9.00,0.00,29.77,M,2.00,19.00,FEW,FEW,SCT,M,2400.00,3100.00,4400.00,M,-SN,M,M,M,M,M,M,27.99,KRTS 241855Z AUTO 31009G19KT 2SM -SN FEW024 FEW031 SCT044 02/M02 A2977 RMK AO2,M
MEV,2024-03-24 18:55,-119.7500,38.9963,1441.42,42.80,26.60,52.45,0.00,0.00,0.00,29.75,M,10.00,M,FEW,M,M,M,4900.00,M,M,M,M,M,M,M,M,M,M,42.80,KMEV 241855Z AUTO 00000KT 10SM FEW049 06/M03 A2975 RMK AO2,M
HTH,2024-03-24 18:55,-118.6315,38.5448,1282.89,46.40,24.80,42.44,320.00,11.00,0.00,29.75,M,10.00,17.00,FEW,FEW,SCT,M,1700.00,4000.00,7500.00,M,M,M,M,M,M,M,M,40.66,KHTH 241855Z AUTO 32011G17KT 10SM FEW017 FEW040 SCT075 08/M04 A2975 RMK A01,M
10U,2024-03-24 18:55,-116.1876,41.9532,1637.00,39.20,30.20,69.88,320.00,11.00,0.00,29.65,M,10.00,M,SCT,SCT,OVC,M,2600.00,4300.00,5000.00,M,M,M,M,M,M,M,M,31.57,K10U 241855Z AUTO 32011KT 10SM SCT026 SCT043 OVC050 04/M01 A2965 RMK AO2,M
INS,2024-03-24 18:55,-115.6733,36.5872,955.00,58.30,21.60,23.94,240.00,17.00,0.00,29.63,1001.10,10.00,M,FEW,SCT,M,M,7000.00,19000.00,M,M,M,M,M,M,M,M,M,58.30,KINS 241855Z AUTO 24017KT 10SM FEW070 SCT190 15/M06 A2963 RMK AO2 SLP011 T01461058 $,M
LSV,2024-03-24 18:55,-115.0343,36.2362,570.00,62.00,26.60,25.86,250.00,8.00,0.00,29.59,1000.90,10.00,M,CLR,M,M,M,M,M,M,M,M,M,M,M,M,M,M,62.00,KLSV 241855Z AUTO 25008KT 10SM CLR 17/M03 A2959 RMK AO2 SLP009 T01661030,M
TMT,2024-03-24 18:55,-117.1971,39.4643,1749.34,34.70,27.70,75.33,340.00,8.00,0.00,29.70,M,3.00,M,SCT,OVC,M,M,1600.00,2400.00,M,M,-RA,M,M,M,M,M,M,27.44,KTMT 241855Z AUTO 34008KT 3SM -RA SCT016 OVC024 02/M02 A2970 RMK AO2 T00151024,M
EKO,2024-03-24 18:56,-115.7860,40.8242,1367.00,44.00,24.00,44.96,280.00,15.00,0.00,29.63,1003.50,10.00,21.00,FEW,BKN,BKN,M,4100.00,6000.00,7500.00,M,M,M,M,M,M,M,M,36.34,KEKO 241856Z AUTO 28015G21KT 10SM FEW041 BKN060 BKN075 07/M04 A2963 RMK AO2 SLP035 T00671044,M
WMC,2024-03-24 18:56,-117.8072,40.9019,1315.00,40.00,33.00,75.84,300.00,13.00,T,29.72,1006.30,10.00,M,SCT,BKN,OVC,M,2500.00,3200.00,4800.00,M,M,M,M,M,M,M,M,31.82,KWMC 241856Z AUTO 30013KT 10SM SCT025 BKN032 OVC048 04/01 A2972 RMK AO2 RAB05E14SNE24 SLP063 P0000 T00440006,M
NFL,2024-03-24 18:56,-118.7010,39.4166,1199.00,44.00,32.00,62.44,330.00,9.00,T,29.74,1005.10,10.00,M,SCT,BKN,BKN,M,5000.00,7000.00,10000.00,M,M,M,M,M,M,M,M,38.44,KNFL 241856Z 33009KT 10SM SCT050 BKN070 BKN100 07/00 A2974 RMK AO2 RAB01E17 SLP051 SH VC N SH DSNT E-SE P0000 T00670000,M
HND,2024-03-24 18:56,-115.1344,35.9729,742.79,60.00,29.00,30.64,220.00,9.00,0.00,29.65,1004.90,10.00,18.00,FEW,M,M,M,9500.00,M,M,M,M,M,M,M,M,M,M,60.00,KHND 241856Z 22009G18KT 10SM FEW095 16/M02 A2965 RMK AO2 SLP049 T01561017,M
TPH,2024-03-24 18:56,-117.0904,38.0505,1654.00,42.00,20.00,41.00,320.00,17.00,0.00,29.69,1004.90,10.00,27.00,FEW,SCT,OVC,M,4500.00,5000.00,10000.00,M,M,M,M,M,27.00,330.00,2024-03-24 18:56,33.18,KTPH 241856Z AUTO 32017G27KT 10SM FEW045 SCT050 OVC100 06/M07 A2969 RMK AO2 PK WND 33027/1856 SLP049 T00561067,M
LAS,2024-03-24 18:56,-115.1634,36.0719,663.00,57.00,21.00,24.45,240.00,10.00,0.00,29.63,1002.70,10.00,24.00,OVC,M,M,M,9000.00,M,M,M,M,M,M,M,M,M,M,57.00,KLAS 241856Z 24010G24KT 10SM OVC090 14/M06 A2963 RMK AO2 SLP027 T01391061 $,M
BVU,2024-03-24 19:15,-114.8611,35.9475,671.00,60.80,24.80,25.04,M,4.00,0.00,29.63,M,10.00,10.00,CLR,M,M,M,M,M,M,M,M,M,M,M,M,M,M,60.80,KBVU 241915Z AUTO VRB04G10KT 10SM CLR 16/M04 A2963 RMK AO2,M
CXP,2024-03-24 19:15,-119.7326,39.1923,1431.00,37.40,30.20,74.98,290.00,8.00,0.00,29.77,M,2.00,13.00,FEW,FEW,BKN,M,300.00,2200.00,5500.00,M,-RA HZ,M,M,M,M,M,M,30.76,KCXP 241915Z AUTO 29008G13KT 2SM -RA HZ FEW003 FEW022 BKN055 03/M01 A2977 RMK AO2 VIS 3/4V5,M
RTS,2024-03-24 19:15,-119.8764,39.6682,1539.00,35.60,28.40,74.80,270.00,6.00,0.00,29.77,M,10.00,M,SCT,M,M,M,4600.00,M,M,M,M,M,M,M,M,M,M,29.87,KRTS 241915Z AUTO 27006KT 10SM SCT046 02/M02 A2977 RMK AO2,M
MEV,2024-03-24 19:15,-119.7500,38.9963,1441.42,42.80,24.80,48.67,0.00,0.00,0.00,29.75,M,10.00,M,SCT,BKN,BKN,M,4100.00,4800.00,5500.00,M,M,M,M,M,M,M,M,42.80,KMEV 241915Z AUTO 00000KT 10SM SCT041 BKN048 BKN055 06/M04 A2975 RMK AO2,M
HTH,2024-03-24 19:15,-118.6315,38.5448,1282.89,42.80,26.60,52.45,330.00,8.00,0.00,29.74,M,10.00,M,FEW,FEW,FEW,M,3900.00,7000.00,8500.00,M,M,M,M,M,M,M,M,37.42,KHTH 241915Z AUTO 33008KT 10SM FEW039 FEW070 FEW085 06/M03 A2974 RMK A01,M
10U,2024-03-24 19:15,-116.1876,41.9532,1637.00,39.20,30.20,69.88,330.00,12.00,0.00,29.66,M,10.00,18.00,FEW,SCT,BKN,M,2500.00,3100.00,4500.00,M,M,M,M,M,M,M,M,31.17,K10U 241915Z AUTO 33012G18KT 10SM FEW025 SCT031 BKN045 04/M01 A2966 RMK AO2,M
TMT,2024-03-24 19:15,-117.1971,39.4643,1749.34,34.00,28.40,79.72,300.00,13.00,0.00,29.70,M,3.00,M,SCT,OVC,M,M,1900.00,2600.00,M,M,UP,M,M,M,M,M,M,24.13,KTMT 241915Z AUTO 30013KT 3SM UP SCT019 OVC026 01/M02 A2970 RMK AO2 T00111020,M
LSV,2024-03-24 19:31,-115.0343,36.2362,570.00,62.60,24.80,23.50,260.00,17.00,0.00,29.58,1000.70,10.00,23.00,CLR,M,M,M,M,M,M,M,M,M,M,M,M,M,M,62.60,KLSV 241931Z AUTO 26017G23KT 10SM CLR 17/M04 A2958 RMK AO2 WSHFT 21 SLP007,M
BVU,2024-03-24 19:35,-114.8611,35.9475,671.00,60.80,26.60,26.98,230.00,9.00,0.00,29.62,M,10.00,M,FEW,M,M,M,7500.00,M,M,M,M,M,M,M,M,M,M,60.80,KBVU 241935Z AUTO 23009KT 10SM FEW075 16/M03 A2962 RMK AO2,M
CXP,2024-03-24 19:35,-119.7326,39.1923,1431.00,41.00,30.20,65.16,0.00,0.00,0.00,29.77,M,10.00,M,FEW,SCT,BKN,M,3000.00,5500.00,6500.00,M,M,M,M,M,M,M,M,41.00,KCXP 241935Z AUTO 00000KT 10SM FEW030 SCT055 BKN065 05/M01 A2977 RMK AO2,M
RTS,2024-03-24 19:35,-119.8764,39.6682,1539.00,37.40,26.60,64.70,M,5.00,0.00,29.77,M,10.00,M,FEW,FEW,M,M,5000.00,5500.00,M,M,M,M,M,M,M,M,M,32.81,KRTS 241935Z AUTO VRB05KT 10SM FEW050 FEW055 03/M03 A2977 RMK AO2,M
MEV,2024-03-24 19:35,-119.7500,38.9963,1441.42,42.80,24.80,48.67,0.00,0.00,0.00,29.74,M,10.00,M,SCT,OVC,M,M,4200.00,5500.00,M,M,M,M,M,M,M,M,M,42.80,KMEV 241935Z AUTO 00000KT 10SM SCT042 OVC055 06/M04 A2974 RMK AO2,M
HTH,2024-03-24 19:35,-118.6315,38.5448,1282.89,42.80,26.60,52.45,310.00,15.00,0.00,29.75,M,10.00,M,CLR,M,M,M,M,M,M,M,M,M,M,M,M,M,M,34.78,KHTH 241935Z AUTO 31015KT 10SM CLR 06/M03 A2975 RMK A01,M
10U,2024-03-24 19:35,-116.1876,41.9532,1637.00,37.40,28.40,69.67,320.00,16.00,0.00,29.67,M,10.00,21.00,FEW,BKN,OVC,M,2900.00,4500.00,5500.00,M,M,M,M,M,M,M,M,27.46,K10U 241935Z AUTO 32016G21KT 10SM FEW029 BKN045 OVC055 03/M02 A2967 RMK AO2,M
TMT,2024-03-24 19:35,-117.1971,39.4643,1749.34,31.00,30.00,96.02,240.00,4.00,0.04,29.70,M,0.50,M,OVC,M,M,M,600.00,M,M,M,SN,M,M,M,M,M,M,26.25,KTMT 241935Z AUTO 24004KT 1/2SM SN OVC006 M01/M01 A2970 RMK AO2 P0004 T10061011,M
INS,2024-03-24 19:38,-115.6733,36.5872,955.00,57.20,19.40,22.68,290.00,18.00,0.00,29.64,1001.60,10.00,25.00,BKN,M,M,M,11000.00,M,M,M,M,M,M,M,M,M,M,57.20,KINS 241938Z AUTO 29018G25KT 10SM BKN110 14/M07 A2964 RMK AO2 WSHFT 29 SLP016 $,M
LAS,2024-03-24 19:40,-115.1634,36.0719,663.00,54.00,29.00,38.05,330.00,9.00,T,29.65,M,10.00,28.00,BKN,OVC,M,M,6000.00,7500.00,M,M,-RA,M,M,M,28.00,330.00,2024-03-24 19:31,54.00,KLAS 241940Z 33009G28KT 280V360 10SM -RA BKN060 OVC075 12/M02 A2965 RMK AO2 PK WND 33028/1931 WSHFT 1920 RAB36 P0000 T01221017 $,M
INS,2024-03-24 19:51,-115.6733,36.5872,955.00,53.60,19.40,25.85,310.00,20.00,0.00,29.66,1002.50,10.00,31.00,FEW,OVC,M,M,5000.00,11000.00,M,M,-RA,M,M,M,M,M,M,53.60,KINS 241951Z AUTO 31020G31KT 10SM -RA FEW050 OVC110 12/M07 A2966 RMK AO2 RAB51 PRESRR SLP025 $,M
DRA,2024-03-24 19:53,-116.0278,36.6206,1009.00,54.00,23.00,29.67,230.00,11.00,0.00,29.65,1002.00,10.00,27.00,FEW,BKN,M,M,7500.00,9500.00,M,M,M,M,M,M,27.00,270.00,2024-03-24 19:44,54.00,KDRA 241953Z AUTO 23011G27KT 10SM FEW075 BKN095 12/M05 A2965 RMK AO2 PK WND 27027/1944 SLP020 T01221050,M
ELY,2024-03-24 19:53,-114.8453,39.2950,1909.00,36.00,23.00,58.85,330.00,6.00,0.00,29.63,1003.30,10.00,M,BKN,M,M,M,7000.00,M,M,M,M,M,M,M,M,M,M,30.35,KELY 241953Z AUTO 33006KT 10SM BKN070 02/M05 A2963 RMK AO2 SLP033 T00221050 $,M
VGT,2024-03-24 19:53,-115.1933,36.2111,667.00,57.00,28.00,32.75,210.00,13.00,0.00,29.62,1004.10,10.00,M,CLR,M,M,M,M,M,M,M,M,M,M,M,32.00,270.00,2024-03-24 19:10,57.00,KVGT 241953Z 21013KT 10SM CLR 14/M02 A2962 RMK AO2 PK WND 27032/1910 SLP041 T01391022,M
LOL,2024-03-24 19:53,-118.5701,40.0684,1192.43,43.00,34.00,70.30,290.00,11.00,0.00,29.74,1007.70,10.00,M,FEW,FEW,BKN,M,3200.00,4100.00,7000.00,M,M,M,M,M,M,M,M,36.37,KLOL 241953Z AUTO 29011KT 10SM FEW032 FEW041 BKN070 06/01 A2974 RMK AO2 SLP077 T00610011,M
BVU,2024-03-24 19:55,-114.8611,35.9475,671.00,60.80,24.80,25.04,240.00,5.00,0.00,29.62,M,10.00,M,FEW,SCT,M,M,6000.00,7500.00,M,M,M,M,M,M,M,M,M,60.80,KBVU 241955Z AUTO 24005KT 10SM FEW060 SCT075 16/M04 A2962 RMK AO2,M
CXP,2024-03-24 19:55,-119.7326,39.1923,1431.00,37.40,32.00,80.65,300.00,10.00,0.01,29.78,M,2.50,M,FEW,SCT,BKN,M,2700.00,3500.00,5000.00,M,-RA HZ,M,M,M,M,M,M,29.74,KCXP 241955Z AUTO 30010KT 2 1/2SM -RA HZ FEW027 SCT035 BKN050 03/M00 A2978 RMK AO2 P0001 VIS 1 1/4V5,M
INS,2024-03-24 19:55,-115.6733,36.5872,955.00,54.00,18.00,23.99,340.00,10.00,T,29.65,1002.20,10.00,29.00,FEW,FEW,BKN,M,4900.00,5500.00,11000.00,M,-RA,M,M,M,31.00,290.00,2024-03-24 19:42,54.00,KINS 241955Z AUTO 34010G29KT 10SM -RA FEW049 FEW055 BKN110 12/M08 A2965 RMK AO2 PK WND 29031/42 RAB51 SLP022 P0000 T01221078 $,M
LSV,2024-03-24 19:55,-115.0343,36.2362,570.00,60.60,24.60,25.01,240.00,16.00,0.00,29.58,1000.80,10.00,M,CLR,M,M,M,M,M,M,M,M,M,M,M,26.00,260.00,2024-03-24 19:41,60.60,KLSV 241955Z AUTO 24016KT 10SM CLR 16/M04 A2958 RMK AO2 PK WND 26026/41 SLP008 T01591041,M
RTS,2024-03-24 19:55,-119.8764,39.6682,1539.00,37.40,30.20,74.98,10.00,10.00,0.00,29.77,M,10.00,M,SCT,SCT,BKN,M,3100.00,4000.00,5500.00,M,+UP,M,M,M,M,M,M,29.74,KRTS 241955Z AUTO 01010KT 10SM +UP SCT031 SCT040 BKN055 03/M01 A2977 RMK AO2,M
MEV,2024-03-24 19:55,-119.7500,38.9963,1441.42,44.60,23.00,42.14,330.00,6.00,0.00,29.75,M,10.00,M,FEW,SCT,BKN,M,4300.00,5000.00,6000.00,M,M,M,M,M,M,M,M,40.71,KMEV 241955Z AUTO 33006KT 10SM FEW043 SCT050 BKN060 07/M05 A2975 RMK AO2,M
HTH,2024-03-24 19:55,-118.6315,38.5448,1282.89,41.00,32.00,70.08,350.00,20.00,0.00,29.76,M,8.00,29.00,FEW,FEW,SCT,M,3100.00,4000.00,7000.00,M,M,M,M,M,M,M,M,31.09,KHTH 241955Z AUTO 35020G29KT 8SM FEW031 FEW040 SCT070 05/M00 A2976 RMK A01,M
10U,2024-03-24 19:55,-116.1876,41.9532,1637.00,39.20,28.40,64.93,320.00,16.00,0.00,29.67,M,10.00,21.00,FEW,BKN,OVC,M,4100.00,4900.00,5500.00,M,M,M,M,M,M,M,M,29.80,K10U 241955Z AUTO 32016G21KT 10SM FEW041 BKN049 OVC055 04/M02 A2967 RMK AO2,M
RNO,2024-03-24 19:55,-119.7711,39.4839,1341.00,47.00,25.00,41.83,330.00,13.00,0.00,29.76,1006.30,10.00,M,SCT,BKN,BKN,BKN,4000.00,6000.00,8000.00,21000.00,M,M,M,M,29.00,320.00,2024-03-24 19:19,40.79,KRNO 241955Z COR 33013KT 10SM SCT040 BKN060CB BKN080 BKN210 08/M04 A2976 RMK AO2 PK WND 32029/1919 SLP063 CB ALQDS MOV SE SH DSNT N AND SE AND SW T00831039 $,M
TMT,2024-03-24 19:55,-117.1971,39.4643,1749.34,32.00,30.60,94.50,140.00,3.00,0.04,29.70,M,10.00,M,SCT,BKN,OVC,M,400.00,2700.00,4400.00,M,M,M,M,M,M,M,M,28.69,KTMT 241955Z AUTO 14003KT 10SM SCT004 BKN027 OVC044 00/M01 A2970 RMK AO2 P0004 T10011008,M
EKO,2024-03-24 19:56,-115.7860,40.8242,1367.00,45.00,23.00,41.50,310.00,10.00,T,29.63,1003.60,10.00,19.00,SCT,BKN,OVC,M,4700.00,6000.00,7500.00,M,M,M,M,M,M,M,M,39.27,KEKO 241956Z AUTO 31010G19KT 10SM SCT047 BKN060 OVC075 07/M05 A2963 RMK AO2 RAB18E32 SLP036 P0000 T00721050,M
WMC,2024-03-24 19:56,-117.8072,40.9019,1315.00,44.00,35.00,70.42,280.00,9.00,0.00,29.72,1006.00,10.00,19.00,FEW,SCT,BKN,M,2100.00,3900.00,5500.00,M,M,M,M,M,M,M,M,38.44,KWMC 241956Z AUTO 28009G19KT 10SM FEW021 SCT039 BKN055 07/02 A2972 RMK AO2 SLP060 T00670017,M
NFL,2024-03-24 19:56,-118.7010,39.4166,1199.00,47.00,29.00,49.34,40.00,11.00,0.00,29.75,1005.30,10.00,19.00,FEW,BKN,BKN,M,3000.00,5500.00,9000.00,M,M,M,M,M,M,M,M,41.42,KNFL 241956Z 04011G19KT 10SM FEW030 BKN055 BKN090 08/M02 A2975 RMK AO2 SLP053 SH DSNT E AND S-W T00831017,M
HND,2024-03-24 19:56,-115.1344,35.9729,742.79,55.00,26.00,32.42,360.00,15.00,T,29.66,1005.60,10.00,M,FEW,SCT,OVC,M,4400.00,6000.00,7500.00,M,-RA,M,M,M,M,M,M,55.00,KHND 241956Z 36015KT 10SM -RA FEW044 SCT060 OVC075 13/M03 A2966 RMK AO2 RAB53 SLP056 P0000 T01281033,M
TPH,2024-03-24 19:56,-117.0904,38.0505,1654.00,42.00,22.00,44.63,320.00,18.00,0.00,29.68,1004.70,10.00,26.00,SCT,BKN,OVC,M,4700.00,6000.00,9500.00,M,M,M,M,M,27.00,330.00,2024-03-24 18:57,32.91,KTPH 241956Z AUTO 32018G26KT 10SM SCT047 BKN060 OVC095 06/M06 A2968 RMK AO2 PK WND 33027/1857 SLP047 T00561056,M
LAS,2024-03-24 19:56,-115.1634,36.0719,663.00,53.00,29.00,39.47,40.00,12.00,T,29.64,1003.00,10.00,22.00,BKN,BKN,OVC,M,6000.00,7000.00,9500.00,M,-RA,M,M,M,28.00,330.00,2024-03-24 19:31,53.00,KLAS 241956Z 04012G22KT 10SM -RA BKN060 BKN070 OVC095 12/M02 A2964 RMK AO2 PK WND 33028/1931 WSHFT 1920 RAB36 SLP030 P0000 T01171017 $,M
INS,2024-03-24 20:04,-115.6733,36.5872,955.00,53.60,21.20,27.91,250.00,11.00,0.00,29.67,1002.90,10.00,25.00,FEW,SCT,BKN,OVC,5000.00,8000.00,10000.00,12000.00,-RA,M,M,M,M,M,M,53.60,KINS 242004Z AUTO 25011G25KT 10SM -RA FEW050 SCT080 BKN100 OVC120 12/M06 A2967 RMK AO2 RAE00RAB04 SLP029 $,M
LAS,2024-03-24 20:07,-115.1634,36.0719,663.00,54.00,26.00,33.63,20.00,3.00,T,29.63,M,10.00,M,SCT,BKN,OVC,M,6000.00,8000.00,10000.00,M,M,M,M,M,M,M,M,54.00,KLAS 242007Z 02003KT 10SM SCT060 BKN080 OVC100 12/M03 A2963 RMK AO2 RAE1959 P0000 T01221033 $,M
BVU,2024-03-24 20:15,-114.8611,35.9475,671.00,59.00,30.20,33.35,290.00,13.00,0.00,29.62,M,10.00,M,FEW,SCT,BKN,M,4900.00,6000.00,7500.00,M,-RA,M,M,M,M,M,M,59.00,KBVU 242015Z AUTO 29013KT 10SM -RA FEW049 SCT060 BKN075 15/M01 A2962 RMK AO2,M
CXP,2024-03-24 20:15,-119.7326,39.1923,1431.00,35.60,32.00,86.59,0.00,0.00,0.00,29.78,M,1.50,M,SCT,SCT,BKN,M,300.00,700.00,2700.00,M,-SN HZ,M,M,M,M,M,M,35.60,KCXP 242015Z AUTO 00000KT 1 1/2SM -SN HZ SCT003 SCT007 BKN027 02/M00 A2978 RMK AO2,M
RTS,2024-03-24 20:15,-119.8764,39.6682,1539.00,35.60,30.20,80.51,360.00,12.00,0.00,29.78,M,6.00,M,FEW,BKN,BKN,M,2800.00,3600.00,4400.00,M,-RA,M,M,M,M,M,M,26.58,KRTS 242015Z AUTO 36012KT 6SM -RA FEW028 BKN036 BKN044 02/M01 A2978 RMK AO2,M
MEV,2024-03-24 20:15,-119.7500,38.9963,1441.42,44.60,24.80,45.44,M,6.00,0.00,29.74,M,10.00,M,FEW,SCT,M,M,5000.00,6000.00,M,M,M,M,M,M,M,M,M,40.71,KMEV 242015Z AUTO VRB06KT 10SM FEW050 SCT060 07/M04 A2974 RMK AO2,M
HTH,2024-03-24 20:15,-118.6315,38.5448,1282.89,41.00,30.20,65.16,320.00,8.00,0.00,29.76,M,10.00,M,FEW,SCT,SCT,M,2200.00,3000.00,6500.00,M,M,M,M,M,M,M,M,35.20,KHTH 242015Z AUTO 32008KT 10SM FEW022 SCT030 SCT065 05/M01 A2976 RMK A01,M
10U,2024-03-24 20:15,-116.1876,41.9532,1637.00,39.20,28.40,64.93,320.00,12.00,0.00,29.67,M,10.00,18.00,FEW,OVC,M,M,2800.00,4900.00,M,M,M,M,M,M,M,M,M,31.17,K10U 242015Z AUTO 32012G18KT 10SM FEW028 OVC049 04/M02 A2967 RMK AO2,M
TMT,2024-03-24 20:15,-117.1971,39.4643,1749.34,32.00,30.70,94.88,110.00,8.00,0.00,29.70,M,10.00,M,SCT,BKN,OVC,M,1200.00,3000.00,3800.00,M,-SN,M,M,M,M,M,M,24.11,KTMT 242015Z AUTO 11008KT 10SM -SN SCT012 BKN030 OVC038 00/M01 A2970 RMK AO2 T00001007,M
INS,2024-03-24 20:16,-115.6733,36.5872,955.00,53.60,23.00,30.11,300.00,13.00,0.00,29.65,1002.20,10.00,21.00,FEW,FEW,BKN,OVC,1900.00,3900.00,5500.00,10000.00,M,M,M,M,M,M,M,53.60,KINS 242016Z AUTO 30013G21KT 10SM FEW019 FEW039 BKN055 OVC100 12/M05 A2965 RMK AO2 RAE00RAB04E16 PRESFR SLP022 $,M
MEV,2024-03-24 20:30,-119.7500,38.9963,1441.42,41.00,30.20,65.16,20.00,16.00,0.00,29.76,M,10.00,26.00,FEW,BKN,BKN,M,4300.00,5000.00,6000.00,M,-RA,M,M,M,M,M,M,32.15,KMEV 242030Z AUTO 02016G26KT 10SM -RA FEW043 BKN050 BKN060 05/M01 A2976 RMK AO2,M
BVU,2024-03-24 20:35,-114.8611,35.9475,671.00,51.80,32.00,46.59,20.00,11.00,0.00,29.64,M,4.00,30.00,FEW,BKN,OVC,M,300.00,2900.00,7500.00,M,RA,M,M,M,M,M,M,51.80,KBVU 242035Z AUTO 02011G30KT 4SM RA FEW003 BKN029 OVC075 11/M00 A2964 RMK AO2,M
CXP,2024-03-24 20:35,-119.7326,39.1923,1431.00,37.40,32.00,80.65,120.00,4.00,0.00,29.78,M,10.00,M,CLR,M,M,M,M,M,M,M,M,M,M,M,M,M,M,33.73,KCXP 242035Z AUTO 12004KT 10SM CLR 03/00 A2978 RMK AO2,M
RTS,2024-03-24 20:35,-119.8764,39.6682,1539.00,35.60,30.20,80.51,320.00,3.00,0.00,29.78,M,8.00,M,FEW,SCT,BKN,M,2000.00,2800.00,4400.00,M,M,M,M,M,M,M,M,32.80,KRTS 242035Z AUTO 32003KT 8SM FEW020 SCT028 BKN044 02/M01 A2978 RMK AO2,M
HTH,2024-03-24 20:35,-118.6315,38.5448,1282.89,42.80,26.60,52.45,330.00,10.00,0.00,29.76,M,10.00,18.00,FEW,M,M,M,2900.00,M,M,M,M,M,M,M,M,M,M,36.51,KHTH 242035Z AUTO 33010G18KT 10SM FEW029 06/M03 A2976 RMK A01,M
10U,2024-03-24 20:35,-116.1876,41.9532,1637.00,39.20,26.60,60.29,320.00,14.00,0.00,29.68,M,10.00,M,FEW,BKN,OVC,M,3000.00,4200.00,5000.00,M,M,M,M,M,M,M,M,30.44,K10U 242035Z AUTO 32014KT 10SM FEW030 BKN042 OVC050 04/M03 A2968 RMK AO2,M
TMT,2024-03-24 20:35,-117.1971,39.4643,1749.34,34.00,31.50,90.44,110.00,9.00,0.00,29.69,M,10.00,M,SCT,BKN,OVC,M,1000.00,2900.00,3400.00,M,M,M,M,M,M,M,M,26.00,KTMT 242035Z AUTO 11009KT 10SM SCT010 BKN029 OVC034 01/00 A2969 RMK AO2 T00111003,M
DRA,2024-03-24 20:53,-116.0278,36.6206,1009.00,57.00,23.00,26.61,240.00,12.00,0.00,29.63,1001.10,10.00,17.00,SCT,SCT,M,M,9500.00,12000.00,M,M,M,M,M,M,M,M,M,57.00,KDRA 242053Z AUTO 24012G17KT 10SM SCT095 SCT120 14/M05 A2963 RMK AO2 SLP011 T01391050 58011,M
ELY,2024-03-24 20:53,-114.8453,39.2950,1909.00,38.00,25.00,59.13,350.00,11.00,0.00,29.62,1002.90,10.00,18.00,FEW,FEW,M,M,3500.00,6000.00,M,M,M,M,M,M,M,M,M,30.05,KELY 242053Z AUTO 35011G18KT 10SM FEW035 FEW060 03/M04 A2962 RMK AO2 SLP029 T00331039 58003 $,M
VGT,2024-03-24 20:53,-115.1933,36.2111,667.00,57.00,30.00,35.54,310.00,13.00,T,29.63,1004.50,10.00,26.00,FEW,BKN,BKN,M,6000.00,8000.00,10000.00,M,M,M,M,M,26.00,310.00,2024-03-24 20:49,57.00,KVGT 242053Z 31013G26KT 10SM FEW060 BKN080 BKN100 14/M01 A2963 RMK AO2 PK WND 31026/2049 WSHFT 2034 RAB23E42 SLP045 P0000 60000 T01391011 53004,M
LOL,2024-03-24 20:53,-118.5701,40.0684,1192.43,40.00,32.00,72.85,320.00,8.00,T,29.75,1008.30,10.00,M,BKN,OVC,M,M,3700.00,4700.00,M,M,-RA,M,M,M,27.00,340.00,2024-03-24 20:35,33.97,KLOL 242053Z AUTO 32008KT 10SM -RA BKN037 OVC047 04/00 A2975 RMK AO2 PK WND 34027/2035 RAB36 SLP083 P0000 60000 T00440000 53006,M
BVU,2024-03-24 20:55,-114.8611,35.9475,671.00,55.40,28.40,35.28,340.00,4.00,0.00,29.62,M,10.00,M,FEW,SCT,SCT,M,2900.00,5000.00,6500.00,M,M,M,M,M,M,M,M,55.40,KBVU 242055Z AUTO 34004KT 10SM FEW029 SCT050 SCT065 13/M02 A2962 RMK AO2,M
CXP,2024-03-24 20:55,-119.7326,39.1923,1431.00,39.20,32.00,75.16,140.00,5.00,0.00,29.78,M,10.00,M,CLR,M,M,M,M,M,M,M,M,M,M,M,M,M,M,34.95,KCXP 242055Z AUTO 14005KT 10SM CLR 04/00 A2978 RMK AO2,M
RNO,2024-03-24 20:55,-119.7711,39.4839,1341.00,46.00,29.00,51.24,350.00,18.00,0.00,29.76,1006.50,10.00,M,FEW,BKN,OVC,M,4000.00,6000.00,9000.00,M,M,M,M,M,M,M,M,38.18,KRNO 242055Z 35018KT 10SM FEW040 BKN060CB OVC090 08/M02 A2976 RMK AO2 SLP065 CB ALQDS MOV SE SH DSNT ALQDS T00781017 53005 $,M
RTS,2024-03-24 20:55,-119.8764,39.6682,1539.00,39.20,26.60,60.29,320.00,13.00,0.00,29.78,M,10.00,19.00,FEW,FEW,SCT,M,2000.00,2800.00,8500.00,M,M,M,M,M,M,M,M,30.79,KRTS 242055Z AUTO 32013G19KT 10SM FEW020 FEW028 SCT085 04/M03 A2978 RMK AO2,M
05U,2024-03-24 20:55,-116.0051,39.6042,1811.23,37.40,30.20,74.98,270.00,6.00,0.02,29.66,M,10.00,M,M,M,M,M,M,M,M,M,M,M,M,M,M,M,M,32.03,K05U 242055Z AUTO 27006KT 10SM 03/M01 A2966 RMK A01 P0002,M
HTH,2024-03-24 20:55,-118.6315,38.5448,1282.89,42.80,28.40,56.48,310.00,13.00,0.00,29.76,M,10.00,M,FEW,FEW,SCT,M,3400.00,4200.00,7000.00,M,M,M,M,M,M,M,M,35.40,KHTH 242055Z AUTO 31013KT 10SM FEW034 FEW042 SCT070 06/M02 A2976 RMK A01,M
10U,2024-03-24 20:55,-116.1876,41.9532,1637.00,39.20,26.60,60.29,320.00,14.00,0.00,29.68,M,10.00,19.00,FEW,OVC,M,M,4300.00,5000.00,M,M,M,M,M,M,M,M,M,30.44,K10U 242055Z AUTO 32014G19KT 10SM FEW043 OVC050 04/M03 A2968 RMK AO2,M
LSV,2024-03-24 20:55,-115.0343,36.2362,570.00,60.30,25.00,25.70,250.00,18.00,0.00,29.59,1001.10,10.00,M,CLR,M,M,M,M,M,M,M,M,M,M,M,29.00,240.00,2024-03-24 20:34,60.30,KLSV 242055Z AUTO 25018KT 10SM CLR 16/M04 A2959 RMK AO2 PK WND 24029/34 SLP011 T01571038 55004,M
TMT,2024-03-24 20:55,-117.1971,39.4643,1749.34,33.30,30.70,90.05,40.00,11.00,0.01,29.70,M,5.00,M,SCT,BKN,OVC,M,1000.00,3500.00,4700.00,M,-SN,M,M,M,M,M,M,24.11,KTMT 242055Z AUTO 04011KT 5SM -SN SCT010 BKN035 OVC047 01/M01 A2970 RMK AO2 P0001 60006 T00071007,M
INS,2024-03-24 20:55,-115.6733,36.5872,955.00,49.60,29.00,44.76,310.00,21.00,0.02,29.67,1003.10,9.00,32.00,FEW,FEW,SCT,BKN,600.00,1800.00,3000.00,3800.00,-RA,M,M,M,32.00,310.00,2024-03-24 20:52,42.33,KINS 242055Z AUTO 31021G32KT 9SM -RA FEW006 FEW018 SCT030 BKN038 BKN048 OVC060 10/M02 A2967 RMK AO2 PK WND 31032/52 RAE00RAB04E16RAB46 SLP031 P0002 60002 T00981016 53008 $,M
EKO,2024-03-24 20:56,-115.7860,40.8242,1367.00,47.00,24.00,40.12,290.00,12.00,T,29.62,1003.30,10.00,22.00,FEW,BKN,M,M,4700.00,7000.00,M,M,M,M,M,M,M,M,M,41.09,KEKO 242056Z AUTO 29012G22KT 10SM FEW047 BKN070 08/M04 A2962 RMK AO2 RAB12E26 SLP033 P0000 60000 T00831044 58001,M
WMC,2024-03-24 20:56,-117.8072,40.9019,1315.00,47.00,32.00,55.73,320.00,15.00,0.00,29.71,1005.20,10.00,23.00,BKN,BKN,M,M,4000.00,4800.00,M,M,M,M,M,M,M,M,M,40.23,KWMC 242056Z AUTO 32015G23KT 10SM BKN040 BKN048 08/00 A2971 RMK AO2 SLP052 60000 T00830000 50003,M
NFL,2024-03-24 20:56,-118.7010,39.4166,1199.00,49.00,28.00,43.93,320.00,9.00,0.00,29.74,1005.20,10.00,15.00,BKN,BKN,M,M,4200.00,7000.00,M,M,M,M,M,M,M,M,M,44.65,KNFL 242056Z AUTO 32009G15KT 10SM BKN042 BKN070 09/M02 A2974 RMK AO2 SLP052 60000 T00941022 50002,M
HND,2024-03-24 20:56,-115.1344,35.9729,742.79,57.00,25.00,28.93,30.00,6.00,T,29.65,1005.20,10.00,M,FEW,M,M,M,9500.00,M,M,M,M,M,M,M,M,M,M,57.00,KHND 242056Z 03006KT 10SM FEW095 14/M04 A2965 RMK AO2 RAE17 SLP052 P0000 60000 T01391039 58001,M
TPH,2024-03-24 20:56,-117.0904,38.0505,1654.00,46.00,19.00,33.72,320.00,20.00,0.00,29.66,1003.60,10.00,29.00,FEW,M,M,M,5500.00,M,M,M,M,M,M,M,31.00,330.00,2024-03-24 20:44,37.73,KTPH 242056Z AUTO 32020G29KT 10SM FEW055 08/M07 A2966 RMK AO2 PK WND 33031/2044 SLP036 T00781072 58008,M
LAS,2024-03-24 20:56,-115.1634,36.0719,663.00,55.00,24.00,29.83,M,5.00,T,29.61,1002.00,10.00,17.00,FEW,BKN,BKN,M,5000.00,7000.00,9000.00,M,M,M,M,M,M,M,M,55.00,KLAS 242056Z VRB05G17KT 10SM FEW050TCU BKN070 BKN090 13/M04 A2961 RMK AO2 RAE1959 PRESFR SLP020 VCSH TCU VC S P0000 60000 T01281044 58007 $,M
LSV,2024-03-24 20:59,-115.0343,36.2362,570.00,60.80,26.60,26.98,280.00,13.00,0.00,29.59,1001.10,10.00,M,CLR,M,M,M,M,M,M,M,M,M,M,M,M,M,M,60.80,KLSV 242059Z AUTO 28013KT 10SM CLR 16/M03 A2959 RMK AO2 WSHFT 45 SLP011,M
VGT,2024-03-24 21:00,-115.1933,36.2111,667.00,58.00,29.00,32.91,310.00,9.00,0.00,29.63,M,10.00,M,FEW,BKN,BKN,M,5000.00,8000.00,9000.00,M,M,M,M,M,M,M,M,58.00,KVGT 242100Z 31009KT 10SM FEW050 BKN080 BKN090 14/M02 A2963 RMK AO2 WSHFT 2040 LTG DSNT NE T01441017,M
LSV,2024-03-24 21:00,-115.0343,36.2362,570.00,60.80,26.60,26.98,290.00,13.00,0.00,29.59,1001.10,10.00,M,CLR,M,M,M,M,M,M,M,-RA,M,M,M,M,M,M,60.80,KLSV 242100Z AUTO 29013KT 10SM -RA CLR 16/M03 A2959 RMK AO2 RAB00 SLP011,M
LSV,2024-03-24 21:09,-115.0343,36.2362,570.00,59.00,28.40,30.98,290.00,11.00,0.00,29.59,1001.10,10.00,M,CLR,M,M,M,M,M,M,M,M,M,M,M,M,M,M,59.00,KLSV 242109Z AUTO 29011KT 10SM CLR 15/M02 A2959 RMK AO2 RAB00E09 SLP011,M
INS,2024-03-24 21:10,-115.6733,36.5872,955.00,48.20,30.20,49.53,50.00,8.00,0.00,29.65,1002.40,10.00,M,FEW,FEW,SCT,BKN,400.00,1700.00,2700.00,3400.00,M,M,M,M,M,M,M,44.07,KINS 242110Z AUTO 05008KT 10SM FEW004 FEW017 SCT027 BKN034 BKN046 OVC065 09/M01 A2965 RMK AO2 RAE10 PRESFR SLP024 $,M
05U,2024-03-24 21:10,-116.0051,39.6042,1811.23,39.20,28.40,64.93,200.00,10.00,0.00,29.67,M,10.00,M,M,M,M,M,M,M,M,M,M,M,M,M,M,M,M,32.00,K05U 242110Z AUTO 20010KT 10SM 04/M02 A2967 RMK A01,M
BVU,2024-03-24 21:15,-114.8611,35.9475,671.00,59.00,30.20,33.35,290.00,8.00,0.00,29.61,M,10.00,M,CLR,M,M,M,M,M,M,M,M,M,M,M,M,M,M,59.00,KBVU 242115Z AUTO 29008KT 10SM CLR 15/M01 A2961 RMK AO2,M
CXP,2024-03-24 21:15,-119.7326,39.1923,1431.00,42.80,32.00,65.38,M,4.00,0.00,29.78,M,10.00,M,CLR,M,M,M,M,M,M,M,M,M,M,M,M,M,M,40.03,KCXP 242115Z AUTO VRB04KT 10SM CLR 06/00 A2978 RMK AO2,M
RTS,2024-03-24 21:15,-119.8764,39.6682,1539.00,39.20,28.40,64.93,290.00,11.00,0.00,29.78,M,10.00,M,FEW,FEW,SCT,M,6000.00,7000.00,8500.00,M,-RA,M,M,M,M,M,M,31.57,KRTS 242115Z AUTO 29011KT 10SM -RA FEW060 FEW070 SCT085 04/M02 A2978 RMK AO2,M
MEV,2024-03-24 21:15,-119.7500,38.9963,1441.42,42.80,30.20,60.79,50.00,9.00,0.00,29.76,M,10.00,M,CLR,M,M,M,M,M,M,M,M,M,M,M,M,M,M,36.94,KMEV 242115Z AUTO 05009KT 10SM CLR 06/M01 A2976 RMK AO2,M
HTH,2024-03-24 21:15,-118.6315,38.5448,1282.89,42.80,30.20,60.79,300.00,10.00,0.00,29.76,M,10.00,M,FEW,SCT,BKN,M,3600.00,4800.00,6000.00,M,M,M,M,M,M,M,M,36.51,KHTH 242115Z AUTO 30010KT 10SM FEW036 SCT048 BKN060 06/M01 A2976 RMK A01,M
10U,2024-03-24 21:15,-116.1876,41.9532,1637.00,41.00,26.60,56.22,320.00,11.00,0.00,29.67,M,10.00,20.00,OVC,M,M,M,5500.00,M,M,M,M,M,M,M,M,M,M,33.84,K10U 242115Z AUTO 32011G20KT 10SM OVC055 05/M03 A2967 RMK AO2,M
TMT,2024-03-24 21:15,-117.1971,39.4643,1749.34,31.30,30.20,95.64,70.00,8.00,0.04,29.70,M,1.00,M,OVC,M,M,M,1300.00,M,M,M,-SN,M,M,M,M,M,M,23.25,KTMT 242115Z AUTO 07008KT 1SM -SN OVC013 00/M01 A2970 RMK AO2 P0004 T10041010,M
ELY,2024-03-24 21:19,-114.8453,39.2950,1909.00,37.00,27.00,66.82,40.00,13.00,0.00,29.61,M,10.00,19.00,SCT,M,M,M,4700.00,M,M,M,M,M,M,M,M,M,M,27.97,KELY 242119Z AUTO 04013G19KT 10SM SCT047 03/M03 A2961 RMK AO2 WSHFT 2059 T00281028 $,M
BVU,2024-03-24 21:35,-114.8611,35.9475,671.00,60.80,26.60,26.98,290.00,9.00,0.00,29.61,M,10.00,18.00,CLR,M,M,M,M,M,M,M,M,M,M,M,M,M,M,60.80,KBVU 242135Z AUTO 29009G18KT 10SM CLR 16/M03 A2961 RMK AO2,M
CXP,2024-03-24 21:35,-119.7326,39.1923,1431.00,42.80,30.20,60.79,0.00,0.00,0.00,29.78,M,10.00,M,SCT,SCT,BKN,M,3600.00,4500.00,6000.00,M,-RA,M,M,M,M,M,M,42.80,KCXP 242135Z AUTO 00000KT 10SM -RA SCT036 SCT045 BKN060 06/M01 A2978 RMK AO2,M
RTS,2024-03-24 21:35,-119.8764,39.6682,1539.00,39.20,24.80,55.95,270.00,8.00,0.00,29.78,M,10.00,M,CLR,M,M,M,M,M,M,M,M,M,M,M,M,M,M,32.98,KRTS 242135Z AUTO 27008KT 10SM CLR 04/M04 A2978 RMK AO2,M
05U,2024-03-24 21:35,-116.0051,39.6042,1811.23,35.60,28.40,74.80,190.00,11.00,0.00,29.67,M,5.00,M,FEW,SCT,BKN,M,2400.00,3200.00,3700.00,M,HZ,M,M,M,M,M,M,27.02,K05U 242135Z AUTO 19011KT 5SM HZ FEW024 SCT032 BKN037 02/M02 A2967 RMK A01,M
MEV,2024-03-24 21:35,-119.7500,38.9963,1441.42,42.80,28.40,56.48,360.00,13.00,0.00,29.76,M,10.00,18.00,CLR,M,M,M,M,M,M,M,M,M,M,M,M,M,M,35.40,KMEV 242135Z AUTO 36013G18KT 10SM CLR 06/M02 A2976 RMK AO2,M
HTH,2024-03-24 21:35,-118.6315,38.5448,1282.89,44.60,30.20,56.74,340.00,16.00,0.00,29.76,M,10.00,25.00,FEW,SCT,BKN,M,3600.00,4400.00,5500.00,M,M,M,M,M,M,M,M,36.84,KHTH 242135Z AUTO 34016G25KT 10SM FEW036 SCT044 BKN055 07/M01 A2976 RMK A01,M
10U,2024-03-24 21:35,-116.1876,41.9532,1637.00,41.00,28.40,60.54,320.00,13.00,0.00,29.67,M,10.00,18.00,FEW,OVC,M,M,3300.00,5500.00,M,M,M,M,M,M,M,M,M,33.10,K10U 242135Z AUTO 32013G18KT 10SM FEW033 OVC055 05/M02 A2967 RMK AO2,M
TMT,2024-03-24 21:35,-117.1971,39.4643,1749.34,32.00,30.20,92.97,90.00,7.00,0.06,29.70,M,2.00,M,SCT,BKN,OVC,M,900.00,1500.00,2000.00,M,-SN,M,M,M,M,M,M,24.78,KTMT 242135Z AUTO 09007KT 2SM -SN SCT009 BKN015 OVC020 00/M01 A2970 RMK AO2 P0006 T10011010,M
LAS,2024-03-24 21:39,-115.1634,36.0719,663.00,57.00,27.00,31.43,340.00,15.00,0.00,29.63,M,10.00,M,FEW,BKN,BKN,M,5000.00,6500.00,9000.00,M,M,M,M,M,M,M,M,57.00,KLAS 242139Z 34015KT 10SM FEW050 BKN065 BKN090 14/M03 A2963 RMK AO2 VCSH CB DSNT SE T01391028 $,M
DRA,2024-03-24 21:53,-116.0278,36.6206,1009.00,58.00,18.00,20.75,310.00,9.00,0.00,29.61,1000.70,10.00,25.00,OVC,M,M,M,10000.00,M,M,M,M,M,M,M,M,M,M,58.00,KDRA 242153Z AUTO 31009G25KT 10SM OVC100 14/M08 A2961 RMK AO2 SLP007 T01441078,M
ELY,2024-03-24 21:53,-114.8453,39.2950,1909.00,36.00,24.00,61.37,10.00,8.00,0.00,29.61,1003.60,10.00,M,BKN,M,M,M,5500.00,M,M,M,M,M,M,M,M,M,M,29.04,KELY 242153Z AUTO 01008KT 10SM BKN055 02/M04 A2961 RMK AO2 WSHFT 2059 SLP036 T00221044 $,M
VGT,2024-03-24 21:53,-115.1933,36.2111,667.00,57.00,28.00,32.75,320.00,18.00,0.00,29.63,1004.40,10.00,27.00,FEW,BKN,BKN,M,6500.00,9000.00,11000.00,M,M,M,M,M,28.00,330.00,2024-03-24 21:16,57.00,KVGT 242153Z 32018G27KT 10SM FEW065 BKN090 BKN110 14/M02 A2963 RMK AO2 PK WND 33028/2116 WSHFT 2040 SLP044 T01391022,M
RNO,2024-03-24 21:53,-119.7711,39.4839,1341.00,44.60,26.60,48.96,320.00,9.00,0.00,29.76,M,10.00,21.00,FEW,BKN,OVC,M,4000.00,6000.00,9000.00,M,M,M,M,M,M,M,M,39.18,KRNO 242153Z 32009G21KT 10SM FEW040 BKN060CB OVC090 07/M03 A2976 RMK AO2 WSHFT 2133 CB ALQDS MOV SE SH VC E THRU SW THRU NW $,M
LOL,2024-03-24 21:53,-118.5701,40.0684,1192.43,47.00,31.00,53.52,310.00,11.00,T,29.73,1006.80,10.00,M,FEW,M,M,M,5500.00,M,M,M,M,M,M,M,M,M,M,41.42,KLOL 242153Z AUTO 31011KT 10SM FEW055 08/M01 A2973 RMK AO2 RAE2056 SLP068 P0000 T00831006,M
BVU,2024-03-24 21:55,-114.8611,35.9475,671.00,62.60,26.60,25.32,320.00,20.00,0.00,29.61,M,10.00,28.00,CLR,M,M,M,M,M,M,M,M,M,M,M,M,M,M,62.60,KBVU 242155Z AUTO 32020G28KT 10SM CLR 17/M03 A2961 RMK AO2,M
CXP,2024-03-24 21:55,-119.7326,39.1923,1431.00,41.00,30.20,65.16,280.00,9.00,0.00,29.79,M,9.00,M,FEW,SCT,BKN,M,1700.00,2700.00,4200.00,M,-RA,M,M,M,M,M,M,34.70,KCXP 242155Z AUTO 28009KT 9SM -RA FEW017 SCT027 BKN042 05/M01 A2979 RMK AO2,M
INS,2024-03-24 21:55,-115.6733,36.5872,955.00,51.00,27.70,40.28,100.00,4.00,0.01,29.64,1001.80,10.00,M,BKN,OVC,M,M,7000.00,9000.00,M,M,M,M,M,M,M,M,M,51.00,KINS 242155Z AUTO 10004KT 10SM BKN070 OVC090 11/M02 A2964 RMK AO2 RAE10 SLP018 P0001 T01061024 $,M
RNO,2024-03-24 21:55,-119.7711,39.4839,1341.00,44.00,28.00,53.07,320.00,8.00,0.00,29.77,1007.00,10.00,21.00,FEW,BKN,OVC,M,4000.00,6000.00,9000.00,M,M,M,M,M,M,M,M,38.90,KRNO 242155Z 32008G21KT 10SM FEW040 BKN060CB OVC090 07/M02 A2977 RMK AO2 WSHFT 2133 SLP070 CB ALQDS MOV SE SH VC E THRU SW THRU NW T00671022 $,M
LSV,2024-03-24 21:55,-115.0343,36.2362,570.00,61.00,22.00,22.11,310.00,7.00,T,29.59,1001.20,10.00,15.00,CLR,M,M,M,M,M,M,M,M,M,M,M,26.00,290.00,2024-03-24 20:56,61.00,KLSV 242155Z AUTO 31007G15KT 10SM CLR 16/M06 A2959 RMK AO2 PK WND 29026/2056 RAB00E09 SLP012 P0000 T01621056,M
RTS,2024-03-24 21:55,-119.8764,39.6682,1539.00,41.00,26.60,56.22,300.00,8.00,0.00,29.78,M,10.00,M,CLR,M,M,M,M,M,M,M,M,M,M,M,M,M,M,35.20,KRTS 242155Z AUTO 30008KT 10SM CLR 05/M03 A2978 RMK AO2,M
05U,2024-03-24 21:55,-116.0051,39.6042,1811.23,39.20,28.40,64.93,200.00,8.00,0.04,29.66,M,10.00,13.00,SCT,BKN,BKN,M,3600.00,4300.00,6500.00,M,M,M,M,M,M,M,M,32.98,K05U 242155Z AUTO 20008G13KT 10SM SCT036 BKN043 BKN065 04/M02 A2966 RMK A01 P0004,M
MEV,2024-03-24 21:55,-119.7500,38.9963,1441.42,44.60,26.60,48.96,360.00,17.00,0.00,29.75,M,10.00,M,FEW,SCT,SCT,M,4300.00,5000.00,5500.00,M,M,M,M,M,M,M,M,36.58,KMEV 242155Z AUTO 36017KT 10SM FEW043 SCT050 SCT055 07/M03 A2975 RMK AO2,M
HTH,2024-03-24 21:55,-118.6315,38.5448,1282.89,42.80,26.60,52.45,330.00,24.00,0.00,29.77,M,10.00,M,BKN,BKN,M,M,5000.00,5500.00,M,M,M,M,M,M,M,M,M,32.63,KHTH 242155Z AUTO 33024KT 10SM BKN050 BKN055 06/M03 A2977 RMK A01,M
10U,2024-03-24 21:55,-116.1876,41.9532,1637.00,42.80,26.60,52.45,320.00,15.00,0.00,29.67,M,10.00,21.00,FEW,BKN,M,M,3700.00,5500.00,M,M,M,M,M,M,M,M,M,34.78,K10U 242155Z AUTO 32015G21KT 10SM FEW037 BKN055 06/M03 A2967 RMK AO2,M
TMT,2024-03-24 21:55,-117.1971,39.4643,1749.34,32.00,30.00,92.22,110.00,7.00,0.08,29.70,M,5.00,M,SCT,BKN,OVC,M,800.00,4100.00,4900.00,M,-SN,M,M,M,M,M,M,24.78,KTMT 242155Z AUTO 11007KT 5SM -SN SCT008 BKN041 OVC049 00/M01 A2970 RMK AO2 P0008 T10011012,M
EKO,2024-03-24 21:56,-115.7860,40.8242,1367.00,43.00,28.00,55.14,330.00,21.00,0.00,29.63,1003.70,10.00,27.00,BKN,BKN,BKN,M,4800.00,6000.00,7500.00,M,M,M,M,M,27.00,330.00,2024-03-24 21:56,33.52,KEKO 242156Z AUTO 33021G27KT 10SM BKN048 BKN060 BKN075 06/M02 A2963 RMK AO2 PK WND 33027/2156 SLP037 T00611022,M
WMC,2024-03-24 21:56,-117.8072,40.9019,1315.00,49.00,26.00,40.45,320.00,17.00,0.00,29.70,1005.00,10.00,24.00,SCT,M,M,M,5500.00,M,M,M,M,M,M,M,M,M,M,42.35,KWMC 242156Z AUTO 32017G24KT 10SM SCT055 09/M03 A2970 RMK AO2 SLP050 T00941033,M
NFL,2024-03-24 21:56,-118.7010,39.4166,1199.00,46.00,29.00,51.24,290.00,13.00,T,29.74,1005.00,9.00,22.00,SCT,SCT,BKN,M,4400.00,5000.00,8000.00,M,M,M,M,M,M,M,M,39.50,KNFL 242156Z AUTO 29013G22KT 9SM SCT044 SCT050 BKN080 08/M02 A2974 RMK AO2 RAB36E46 SLP050 P0000 T00781017,M
HND,2024-03-24 21:56,-115.1344,35.9729,742.79,58.00,27.00,30.32,350.00,15.00,0.00,29.64,1004.90,10.00,20.00,BKN,BKN,M,M,7500.00,9000.00,M,M,M,M,M,M,M,M,M,58.00,KHND 242156Z 35015G20KT 10SM BKN075 BKN090 14/M03 A2964 RMK AO2 SLP049 T01441028,M
TPH,2024-03-24 21:56,-117.0904,38.0505,1654.00,48.00,18.00,29.96,300.00,15.00,0.00,29.65,1002.80,10.00,30.00,CLR,M,M,M,M,M,M,M,M,M,M,M,32.00,330.00,2024-03-24 21:29,41.52,KTPH 242156Z AUTO 30015G30KT 10SM CLR 09/M08 A2965 RMK AO2 PK WND 33032/2129 SLP028 T00891078,M
LAS,2024-03-24 21:56,-115.1634,36.0719,663.00,55.00,29.00,36.69,350.00,19.00,0.00,29.63,1002.60,10.00,27.00,FEW,BKN,BKN,M,5000.00,6500.00,9000.00,M,M,M,M,M,27.00,350.00,2024-03-24 21:48,55.00,KLAS 242156Z 35019G27KT 10SM FEW050 BKN065 BKN090 13/M02 A2963 RMK AO2 PK WND 35027/2148 SLP026 VCSH CB DSNT SE T01281017 $,M
EKO,2024-03-24 22:04,-115.7860,40.8242,1367.00,38.00,29.00,69.74,330.00,13.00,T,29.64,M,3.00,27.00,SCT,BKN,BKN,M,2100.00,4600.00,6000.00,M,-RA,M,M,M,27.00,320.00,2024-03-24 21:57,29.26,KEKO 242204Z AUTO 33013G27KT 3SM -RA SCT021 BKN046 BKN060 03/M02 A2964 RMK AO2 PK WND 32027/2157 WSHFT 2144 RAB2158 PRESRR P0000 T00331017,M
BVU,2024-03-24 22:15,-114.8611,35.9475,671.00,59.00,26.60,28.77,320.00,21.00,0.00,29.61,M,10.00,29.00,CLR,M,M,M,M,M,M,M,M,M,M,M,M,M,M,59.00,KBVU 242215Z AUTO 32021G29KT 10SM CLR 15/M03 A2961 RMK AO2,M
CXP,2024-03-24 22:15,-119.7326,39.1923,1431.00,39.20,30.20,69.88,0.00,0.00,0.00,29.79,M,7.00,M,FEW,FEW,SCT,M,400.00,1500.00,4300.00,M,-RA,M,M,M,M,M,M,39.20,KCXP 242215Z AUTO 00000KT 7SM -RA FEW004 FEW015 SCT043 04/M01 A2979 RMK AO2,M
EKO,2024-03-24 22:15,-115.7860,40.8242,1367.00,38.00,30.00,72.64,320.00,11.00,T,29.64,M,3.00,20.00,BKN,BKN,OVC,M,2300.00,3300.00,4700.00,M,-SN,M,M,M,27.00,320.00,2024-03-24 21:57,30.05,KEKO 242215Z AUTO 32011G20KT 3SM -SN BKN023 BKN033 OVC047 03/M01 A2964 RMK AO2 PK WND 32027/2157 WSHFT 2144 RAB2158E05SNB05 P0000 T00331011,M
ELY,2024-03-24 22:15,-114.8453,39.2950,1909.00,33.00,27.00,78.34,290.00,9.00,T,29.62,M,1.75,17.00,FEW,BKN,BKN,M,1500.00,3400.00,4800.00,M,-SN,M,M,M,M,M,M,24.76,KELY 242215Z AUTO 29009G17KT 1 3/4SM -SN FEW015 BKN034 BKN048 01/M03 A2962 RMK AO2 SNB07 P0000 T00061028 $,M
RTS,2024-03-24 22:15,-119.8764,39.6682,1539.00,39.20,24.80,55.95,310.00,11.00,0.00,29.78,M,9.00,19.00,FEW,M,M,M,4000.00,M,M,M,-DZ,M,M,M,M,M,M,31.57,KRTS 242215Z AUTO 31011G19KT 9SM -DZ FEW040 04/M04 A2978 RMK AO2,M
05U,2024-03-24 22:15,-116.0051,39.6042,1811.23,37.40,24.80,60.04,0.00,0.00,0.00,29.66,M,10.00,M,FEW,OVC,M,M,3500.00,4600.00,M,M,M,M,M,M,M,M,M,37.40,K05U 242215Z AUTO 00000KT 10SM FEW035 OVC046 03/M04 A2966 RMK A01,M
MEV,2024-03-24 22:15,-119.7500,38.9963,1441.42,42.80,26.60,52.45,350.00,16.00,0.00,29.76,M,10.00,22.00,FEW,FEW,FEW,M,5000.00,5500.00,6500.00,M,M,M,M,M,M,M,M,34.50,KMEV 242215Z AUTO 35016G22KT 10SM FEW050 FEW055 FEW065 06/M03 A2976 RMK AO2,M
HTH,2024-03-24 22:15,-118.6315,38.5448,1282.89,39.20,32.00,75.16,330.00,8.00,0.00,29.77,M,7.00,18.00,FEW,FEW,SCT,M,1400.00,2400.00,5000.00,M,M,M,M,M,M,M,M,32.98,KHTH 242215Z AUTO 33008G18KT 7SM FEW014 FEW024 SCT050 04/00 A2977 RMK A01,M
10U,2024-03-24 22:15,-116.1876,41.9532,1637.00,42.80,24.80,48.67,320.00,14.00,0.00,29.67,M,10.00,23.00,FEW,SCT,M,M,3800.00,5500.00,M,M,M,M,M,M,M,M,M,35.08,K10U 242215Z AUTO 32014G23KT 10SM FEW038 SCT055 06/M04 A2967 RMK AO2,M
TMT,2024-03-24 22:15,-117.1971,39.4643,1749.34,32.40,29.70,89.64,120.00,5.00,0.00,29.71,M,5.00,M,SCT,BKN,OVC,M,2200.00,2900.00,4900.00,M,-SN,M,M,M,M,M,M,26.87,KTMT 242215Z AUTO 12005KT 5SM -SN SCT022 BKN029 OVC049 00/M01 A2971 RMK AO2 T00021013,M
EKO,2024-03-24 22:18,-115.7860,40.8242,1367.00,37.00,30.00,75.56,320.00,12.00,T,29.64,M,1.75,20.00,BKN,BKN,OVC,M,2100.00,3500.00,4700.00,M,-SN,M,M,M,27.00,320.00,2024-03-24 21:57,28.37,KEKO 242218Z AUTO 32012G20KT 1 3/4SM -SN BKN021 BKN035 OVC047 03/M01 A2964 RMK AO2 PK WND 32027/2157 WSHFT 2144 RAB2158E05SNB05 P0000 T00281011,M
ELY,2024-03-24 22:21,-114.8453,39.2950,1909.00,33.00,27.00,78.34,310.00,8.00,0.02,29.62,M,2.50,M,SCT,BKN,BKN,M,1700.00,2300.00,3400.00,M,-SN,M,M,M,M,M,M,25.34,KELY 242221Z AUTO 31008KT 2 1/2SM -SN SCT017 BKN023 BKN034 01/M03 A2962 RMK AO2 SNB07 P0002 T00061028 $,M
EKO,2024-03-24 22:25,-115.7860,40.8242,1367.00,39.00,30.00,69.85,290.00,9.00,0.04,29.64,M,3.00,17.00,BKN,BKN,OVC,M,2100.00,3500.00,8500.00,M,-SN,M,M,M,27.00,320.00,2024-03-24 21:57,32.22,KEKO 242225Z AUTO 29009G17KT 3SM -SN BKN021 BKN035 OVC085 04/M01 A2964 RMK AO2 PK WND 32027/2157 WSHFT 2144 RAB2158E05SNB05 P0004 T00391011,M
ELY,2024-03-24 22:28,-114.8453,39.2950,1909.00,33.00,27.00,78.34,360.00,4.00,0.02,29.62,M,9.00,M,FEW,BKN,OVC,M,1700.00,2300.00,5500.00,M,M,M,M,M,M,M,M,28.59,KELY 242228Z AUTO 36004KT 9SM FEW017 BKN023 OVC055 01/M03 A2962 RMK AO2 SNB07E27 P0002 T00061028 $,M
BVU,2024-03-24 22:35,-114.8611,35.9475,671.00,60.80,24.80,25.04,320.00,21.00,0.00,29.60,M,10.00,M,CLR,M,M,M,M,M,M,M,M,M,M,M,M,M,M,60.80,KBVU 242235Z AUTO 32021KT 10SM CLR 16/M04 A2960 RMK AO2,M
CXP,2024-03-24 22:35,-119.7326,39.1923,1431.00,41.00,30.20,65.16,30.00,11.00,0.00,29.79,M,10.00,M,FEW,FEW,SCT,M,3000.00,3500.00,4300.00,M,M,M,M,M,M,M,M,33.84,KCXP 242235Z AUTO 03011KT 10SM FEW030 FEW035 SCT043 05/M01 A2979 RMK AO2,M
RTS,2024-03-24 22:35,-119.8764,39.6682,1539.00,39.20,26.60,60.29,290.00,6.00,0.00,29.79,M,10.00,M,CLR,M,M,M,M,M,M,M,M,M,M,M,M,M,M,34.20,KRTS 242235Z AUTO 29006KT 10SM CLR 04/M03 A2979 RMK AO2,M
05U,2024-03-24 22:35,-116.0051,39.6042,1811.23,37.40,26.60,64.70,0.00,0.00,0.00,29.66,M,10.00,M,SCT,BKN,OVC,M,4800.00,5500.00,6500.00,M,M,M,M,M,M,M,M,37.40,K05U 242235Z AUTO 00000KT 10SM SCT048 BKN055 OVC065 03/M03 A2966 RMK A01,M
MEV,2024-03-24 22:35,-119.7500,38.9963,1441.42,42.80,30.20,60.79,30.00,12.00,0.00,29.77,M,10.00,M,CLR,M,M,M,M,M,M,M,M,M,M,M,M,M,M,35.75,KMEV 242235Z AUTO 03012KT 10SM CLR 06/M01 A2977 RMK AO2,M
HTH,2024-03-24 22:35,-118.6315,38.5448,1282.89,41.00,28.40,60.54,350.00,12.00,0.00,29.78,M,10.00,M,CLR,M,M,M,M,M,M,M,M,M,M,M,M,M,M,33.46,KHTH 242235Z AUTO 35012KT 10SM CLR 05/M02 A2978 RMK A01,M
10U,2024-03-24 22:35,-116.1876,41.9532,1637.00,42.80,24.80,48.67,310.00,16.00,0.00,29.67,M,10.00,21.00,FEW,BKN,M,M,4500.00,5000.00,M,M,M,M,M,M,M,M,M,34.50,K10U 242235Z AUTO 31016G21KT 10SM FEW045 BKN050 06/M04 A2967 RMK AO2,M
TMT,2024-03-24 22:35,-117.1971,39.4643,1749.34,32.40,29.50,88.92,360.00,13.00,0.01,29.71,M,3.00,17.00,SCT,BKN,OVC,M,1200.00,1700.00,2600.00,M,-SN,M,M,M,M,M,M,22.08,KTMT 242235Z AUTO 36013G17KT 3SM -SN SCT012 BKN017 OVC026 00/M01 A2971 RMK AO2 LTG DSNT NE P0001 T00021014,M
EKO,2024-03-24 22:36,-115.7860,40.8242,1367.00,41.00,30.00,64.63,320.00,10.00,0.04,29.64,M,10.00,19.00,SCT,BKN,OVC,M,2300.00,7000.00,8500.00,M,M,M,M,M,27.00,320.00,2024-03-24 21:57,34.25,KEKO 242236Z AUTO 32010G19KT 10SM SCT023 BKN070 OVC085 05/M01 A2964 RMK AO2 PK WND 32027/2157 WSHFT 2144 LTG DSNT SE RAB2158E05SNB05E29 P0004 T00501011,M
ELY,2024-03-24 22:37,-114.8453,39.2950,1909.00,34.00,26.00,72.22,70.00,3.00,0.02,29.62,M,10.00,M,SCT,SCT,M,M,2100.00,4800.00,M,M,M,M,M,M,M,M,M,30.97,KELY 242237Z AUTO 07003KT 10SM SCT021 SCT048 01/M03 A2962 RMK AO2 SNB07E27 P0002 T00111033 $,M
05U,2024-03-24 22:50,-116.0051,39.6042,1811.23,M,M,M,0.00,0.00,0.00,29.65,M,10.00,M,SCT,M,M,M,6000.00,M,M,M,M,M,M,M,M,M,M,M,K05U 242250Z AUTO 00000KT 10SM SCT060 A2965 RMK A01,M
DRA,2024-03-24 22:53,-116.0278,36.6206,1009.00,61.00,16.00,17.10,310.00,13.00,0.00,29.60,1000.10,10.00,25.00,BKN,M,M,M,10000.00,M,M,M,M,M,M,M,M,M,M,61.00,KDRA 242253Z AUTO 31013G25KT 10SM BKN100 16/M09 A2960 RMK AO2 SLP001 T01611089,M
ELY,2024-03-24 22:53,-114.8453,39.2950,1909.00,35.00,28.00,75.36,0.00,0.00,0.02,29.62,1004.30,10.00,M,FEW,SCT,SCT,M,4600.00,6000.00,8000.00,M,M,M,M,M,M,M,M,35.00,KELY 242253Z AUTO 00000KT 10SM FEW046 SCT060 SCT080 02/M02 A2962 RMK AO2 SNB07E27 SLP043 P0002 T00171022 $,M
VGT,2024-03-24 22:53,-115.1933,36.2111,667.00,58.00,29.00,32.91,290.00,11.00,0.00,29.61,1003.70,10.00,M,FEW,M,M,M,9500.00,M,M,M,M,M,M,M,30.00,350.00,2024-03-24 22:01,58.00,KVGT 242253Z 29011KT 10SM FEW095 14/M02 A2961 RMK AO2 PK WND 35030/2201 SLP037 T01441017,M
LOL,2024-03-24 22:53,-118.5701,40.0684,1192.43,48.00,30.00,49.49,320.00,14.00,0.00,29.72,1006.40,10.00,23.00,FEW,M,M,M,6500.00,M,M,M,M,M,M,M,M,M,M,41.79,KLOL 242253Z AUTO 32014G23KT 10SM FEW065 09/M01 A2972 RMK AO2 SLP064 T00891011,M
BVU,2024-03-24 22:55,-114.8611,35.9475,671.00,57.20,28.40,33.05,320.00,19.00,0.00,29.61,M,10.00,34.00,FEW,M,M,M,11000.00,M,M,M,M,M,M,M,M,M,M,57.20,KBVU 242255Z AUTO 32019G34KT 10SM FEW110 14/M02 A2961 RMK AO2,M
CXP,2024-03-24 22:55,-119.7326,39.1923,1431.00,41.00,28.40,60.54,M,4.00,0.00,29.80,M,9.00,M,FEW,SCT,BKN,M,3800.00,4400.00,5000.00,M,-RA,M,M,M,M,M,M,37.93,KCXP 242255Z AUTO VRB04KT 9SM -RA FEW038 SCT044 BKN050 05/M02 A2980 RMK AO2,M
INS,2024-03-24 22:55,-115.6733,36.5872,955.00,55.00,24.00,29.83,200.00,8.00,0.00,29.61,1000.60,10.00,M,FEW,M,M,M,14000.00,M,M,M,M,M,M,M,M,M,M,55.00,KINS 242255Z AUTO 20008KT 10SM FEW140 13/M04 A2961 RMK AO2 SLP006 T01281044 $,M
RNO,2024-03-24 22:55,-119.7711,39.4839,1341.00,48.00,24.00,38.64,330.00,11.00,T,29.77,1006.70,10.00,M,FEW,BKN,BKN,M,3500.00,8000.00,20000.00,M,M,M,M,M,29.00,310.00,2024-03-24 22:26,42.69,KRNO 242255Z 33011KT 10SM FEW035 BKN080 BKN200 09/M04 A2977 RMK AO2 PK WND 31029/2226 RAB40E49 SLP067 SH VC SE THRU SW THRU W P0000 T00891044 $,M
RTS,2024-03-24 22:55,-119.8764,39.6682,1539.00,42.80,26.60,52.45,260.00,8.00,0.00,29.78,M,10.00,M,CLR,M,M,M,M,M,M,M,M,M,M,M,M,M,M,37.42,KRTS 242255Z AUTO 26008KT 230V290 10SM CLR 06/M03 A2978 RMK AO2,M
MEV,2024-03-24 22:55,-119.7500,38.9963,1441.42,42.80,30.20,60.79,40.00,11.00,0.00,29.78,M,10.00,M,CLR,M,M,M,M,M,M,M,M,M,M,M,M,M,M,36.11,KMEV 242255Z AUTO 04011KT 10SM CLR 06/M01 A2978 RMK AO2,M
HTH,2024-03-24 22:55,-118.6315,38.5448,1282.89,42.80,28.40,56.48,320.00,11.00,0.00,29.78,M,10.00,M,CLR,M,M,M,M,M,M,M,M,M,M,M,M,M,M,36.11,KHTH 242255Z AUTO 32011KT 10SM CLR 06/M02 A2978 RMK A01,M
10U,2024-03-24 22:55,-116.1876,41.9532,1637.00,42.80,24.80,48.67,320.00,16.00,0.00,29.67,M,10.00,23.00,BKN,OVC,M,M,4700.00,5500.00,M,M,M,M,M,M,M,M,M,34.50,K10U 242255Z AUTO 32016G23KT 10SM BKN047 OVC055 06/M04 A2967 RMK AO2 LTG DSNT S,M
TMT,2024-03-24 22:55,-117.1971,39.4643,1749.34,33.80,27.50,77.45,340.00,16.00,0.01,29.71,M,10.00,23.00,SCT,BKN,OVC,M,1500.00,5000.00,5500.00,M,M,M,M,M,M,M,M,22.76,KTMT 242255Z AUTO 34016G23KT 10SM SCT015 BKN050 OVC055 01/M02 A2971 RMK AO2 P0001 T00101025,M
LSV,2024-03-24 22:55,-115.0343,36.2362,570.00,60.40,22.50,23.07,270.00,10.00,0.00,29.58,1000.90,10.00,M,CLR,M,M,M,M,M,M,M,M,M,M,M,28.00,330.00,2024-03-24 22:15,60.40,KLSV 242255Z AUTO 27010KT 10SM CLR 16/M05 A2958 RMK AO2 PK WND 33028/15 SLP009 T01581053,M
EKO,2024-03-24 22:56,-115.7860,40.8242,1367.00,43.00,29.00,57.44,300.00,15.00,0.04,29.64,1004.50,10.00,M,SCT,BKN,M,M,7000.00,9000.00,M,M,M,M,M,M,27.00,320.00,2024-03-24 21:57,35.04,KEKO 242256Z AUTO 30015KT 10SM SCT070 BKN090 06/M02 A2964 RMK AO2 PK WND 32027/2157 WSHFT 2144 LTG DSNT SE RAB2158E05SNB05E29 SLP045 P0004 T00611017,M
WMC,2024-03-24 22:56,-117.8072,40.9019,1315.00,49.00,26.00,40.45,320.00,15.00,0.00,29.71,1005.20,10.00,23.00,FEW,M,M,M,5500.00,M,M,M,M,M,M,M,M,M,M,42.82,KWMC 242256Z AUTO 32015G23KT 10SM FEW055 09/M03 A2971 RMK AO2 SLP052 T00941033,M
NFL,2024-03-24 22:56,-118.7010,39.4166,1199.00,51.00,25.00,36.03,330.00,10.00,T,29.73,1004.80,10.00,M,BKN,OVC,M,M,6000.00,8000.00,M,M,M,M,M,M,M,M,M,51.00,KNFL 242256Z AUTO 33010KT 10SM BKN060 OVC080 11/M04 A2973 RMK AO2 RAB2157E08 SLP048 P0000 T01061039,M
HND,2024-03-24 22:56,-115.1344,35.9729,742.79,58.00,29.00,32.91,340.00,12.00,T,29.64,1004.90,10.00,M,FEW,SCT,BKN,M,6000.00,8000.00,11000.00,M,M,M,M,M,M,M,M,58.00,KHND 242256Z 34012KT 10SM FEW060 SCT080 BKN110 14/M02 A2964 RMK AO2 RAB06E43 SLP049 P0000 T01441017,M
TPH,2024-03-24 22:56,-117.0904,38.0505,1654.00,47.00,22.00,36.89,330.00,23.00,0.00,29.65,1003.30,10.00,33.00,FEW,M,M,M,5000.00,M,M,M,M,M,M,M,38.00,300.00,2024-03-24 22:43,38.48,KTPH 242256Z AUTO 33023G33KT 10SM FEW050 08/M06 A2965 RMK AO2 PK WND 30038/2243 SLP033 T00831056,M
LAS,2024-03-24 22:56,-115.1634,36.0719,663.00,56.00,28.00,33.96,310.00,9.00,T,29.61,1002.10,10.00,M,FEW,SCT,BKN,BKN,5500.00,8000.00,11000.00,16000.00,M,M,M,M,30.00,340.00,2024-03-24 22:15,56.00,KLAS 242256Z 31009KT 10SM FEW055 SCT080 BKN110 BKN160 13/M02 A2961 RMK AO2 PK WND 34030/2215 RAB21E32 SLP021 SH DSNT E-SE P0000 T01331022 $,M
BVU,2024-03-24 23:15,-114.8611,35.9475,671.00,57.20,26.60,30.69,310.00,10.00,0.00,29.61,M,10.00,18.00,SCT,M,M,M,10000.00,M,M,M,M,M,M,M,M,M,M,57.20,KBVU 242315Z AUTO 31010G18KT 10SM SCT100 14/M03 A2961 RMK AO2,M
CXP,2024-03-24 23:15,-119.7326,39.1923,1431.00,41.00,32.00,70.08,180.00,4.00,0.00,29.80,M,10.00,M,FEW,SCT,M,M,4300.00,5000.00,M,M,M,M,M,M,M,M,M,37.93,KCXP 242315Z AUTO 18004KT 10SM FEW043 SCT050 05/M00 A2980 RMK AO2,M
RTS,2024-03-24 23:15,-119.8764,39.6682,1539.00,42.80,21.20,41.84,330.00,13.00,0.00,29.78,M,10.00,M,FEW,M,M,M,4200.00,M,M,M,M,M,M,M,M,M,M,35.40,KRTS 242315Z AUTO 33013KT 10SM FEW042 06/M06 A2978 RMK AO2,M
05U,2024-03-24 23:15,-116.0051,39.6042,1811.23,M,M,M,350.00,6.00,0.00,29.66,M,9.00,M,FEW,BKN,BKN,M,3400.00,4800.00,6000.00,M,M,M,M,M,M,M,M,M,K05U 242315Z AUTO 35006KT 9SM FEW034 BKN048 BKN060 A2966 RMK A01,M
10U,2024-03-24 23:15,-116.1876,41.9532,1637.00,42.80,24.80,48.67,310.00,17.00,0.00,29.68,M,10.00,M,SCT,OVC,M,M,4700.00,6000.00,M,M,M,M,M,M,M,M,M,34.22,K10U 242315Z AUTO 31017KT 10SM SCT047 OVC060 06/M04 A2968 RMK AO2,M
TMT,2024-03-24 23:15,-117.1971,39.4643,1749.34,34.70,25.50,68.79,350.00,14.00,0.00,29.72,M,10.00,20.00,SCT,BKN,OVC,M,4800.00,6000.00,7500.00,M,M,M,M,M,M,M,M,24.64,KTMT 242315Z AUTO 35014G20KT 10SM SCT048 BKN060 OVC075 02/M04 A2972 RMK AO2 T00151036,M
BVU,2024-03-24 23:35,-114.8611,35.9475,671.00,57.20,26.60,30.69,310.00,6.00,0.00,29.60,M,10.00,14.00,SCT,M,M,M,10000.00,M,M,M,M,M,M,M,M,M,M,57.20,KBVU 242335Z AUTO 31006G14KT 10SM SCT100 14/M03 A2960 RMK AO2,M
CXP,2024-03-24 23:35,-119.7326,39.1923,1431.00,42.80,30.20,60.79,M,4.00,0.00,29.79,M,10.00,M,CLR,M,M,M,M,M,M,M,M,M,M,M,M,M,M,40.03,KCXP 242335Z AUTO VRB04KT 10SM CLR 06/M01 A2979 RMK AO2,M
RTS,2024-03-24 23:35,-119.8764,39.6682,1539.00,42.80,21.20,41.84,340.00,9.00,0.00,29.78,M,10.00,18.00,CLR,M,M,M,M,M,M,M,M,M,M,M,M,M,M,36.94,KRTS 242335Z AUTO 34009G18KT 10SM CLR 06/M06 A2978 RMK AO2,M
05U,2024-03-24 23:35,-116.0051,39.6042,1811.23,41.00,28.40,60.54,130.00,10.00,0.00,29.66,M,10.00,M,BKN,BKN,BKN,M,5000.00,6500.00,8500.00,M,M,M,M,M,M,M,M,34.25,K05U 242335Z AUTO 13010KT 080V160 10SM BKN050 BKN065 BKN085 05/M02 A2966 RMK A01,M
MEV,2024-03-24 23:35,-119.7500,38.9963,1441.42,41.00,28.40,60.54,30.00,8.00,0.00,29.79,M,10.00,M,FEW,SCT,BKN,M,1900.00,3100.00,3900.00,M,M,M,M,M,M,M,M,35.20,KMEV 242335Z AUTO 03008KT 10SM FEW019 SCT031 BKN039 05/M02 A2979 RMK AO2,M
HTH,2024-03-24 23:35,-118.6315,38.5448,1282.89,42.80,28.40,56.48,300.00,5.00,0.00,29.77,M,10.00,11.00,CLR,M,M,M,M,M,M,M,M,M,M,M,M,M,M,39.22,KHTH 242335Z AUTO 30005G11KT 10SM CLR 06/M02 A2977 RMK A01,M
10U,2024-03-24 23:35,-116.1876,41.9532,1637.00,44.60,24.80,45.44,310.00,15.00,0.00,29.67,M,10.00,23.00,OVC,M,M,M,5500.00,M,M,M,M,M,M,M,M,M,M,37.11,K10U 242335Z AUTO 31015G23KT 10SM OVC055 07/M04 A2967 RMK AO2,M
TMT,2024-03-24 23:35,-117.1971,39.4643,1749.34,35.60,24.60,63.93,350.00,10.00,0.00,29.73,M,10.00,16.00,SCT,BKN,M,M,3100.00,7500.00,M,M,M,M,M,M,M,M,M,27.48,KTMT 242335Z AUTO 35010G16KT 10SM SCT031 BKN075 02/M04 A2973 RMK AO2 T00201041,M
05U,2024-03-24 23:50,-116.0051,39.6042,1811.23,41.00,28.40,60.54,120.00,11.00,0.00,29.67,M,10.00,M,FEW,BKN,OVC,M,3300.00,4800.00,5500.00,M,M,M,M,M,M,M,M,33.84,K05U 242350Z AUTO 12011KT 10SM FEW033 BKN048 OVC055 05/M02 A2967 RMK A01,M
DRA,2024-03-24 23:53,-116.0278,36.6206,1009.00,53.00,25.00,33.46,M,4.00,T,29.60,1000.80,10.00,M,FEW,BKN,OVC,M,4600.00,6500.00,8500.00,M,-RA,M,M,M,26.00,350.00,2024-03-24 23:29,53.00,KDRA 242353Z AUTO VRB04KT 10SM -RA FEW046 BKN065 OVC085 12/M04 A2960 RMK AO2 PK WND 35026/2329 RAB31 SLP008 P0000 60000 T01171039 10161 20111 55007,M
ELY,2024-03-24 23:53,-114.8453,39.2950,1909.00,36.00,26.00,66.69,230.00,3.00,0.00,29.61,1003.90,10.00,M,FEW,M,M,M,9500.00,M,M,M,M,M,M,M,M,M,M,33.26,KELY 242353Z AUTO 23003KT 10SM FEW095 02/M03 A2961 RMK AO2 SLP039 60002 T00221033 10039 20006 58002 $,M
VGT,2024-03-24 23:53,-115.1933,36.2111,667.00,60.00,26.00,27.08,270.00,12.00,0.00,29.59,1002.90,10.00,M,CLR,M,M,M,M,M,M,M,M,M,M,M,M,M,M,60.00,KVGT 242353Z 27012KT 10SM CLR 16/M03 A2959 RMK AO2 SLP029 60000 T01561033 10167 20133 58014,M
LOL,2024-03-24 23:53,-118.5701,40.0684,1192.43,46.00,31.00,55.58,300.00,12.00,0.00,29.73,1006.80,10.00,M,FEW,M,M,M,7000.00,M,M,M,M,M,M,M,M,M,M,39.82,KLOL 242353Z AUTO 30012KT 10SM FEW070 08/M01 A2973 RMK AO2 SLP068 60000 T00781006 10094 20017 55008,M
BVU,2024-03-24 23:55,-114.8611,35.9475,671.00,57.20,26.60,30.69,310.00,7.00,0.00,29.60,M,10.00,M,CLR,M,M,M,M,M,M,M,M,M,M,M,M,M,M,57.20,KBVU 242355Z AUTO 31007KT 10SM CLR 14/M03 A2960 RMK AO2,M
CXP,2024-03-24 23:55,-119.7326,39.1923,1431.00,41.00,30.20,65.16,190.00,5.00,0.00,29.80,M,10.00,M,FEW,M,M,M,4500.00,M,M,M,M,M,M,M,M,M,M,37.08,KCXP 242355Z AUTO 19005KT 10SM FEW045 05/M01 A2980 RMK AO2,M
INS,2024-03-24 23:55,-115.6733,36.5872,955.00,56.00,21.00,25.35,210.00,13.00,0.00,29.59,999.90,10.00,M,CLR,M,M,M,M,M,M,M,M,M,M,M,M,M,M,56.00,KINS 242355Z AUTO 21013KT 10SM CLR 13/M06 A2959 RMK AO2 SLP999 60003 T01341062 10152 20081 57024 $,M
RNO,2024-03-24 23:55,-119.7711,39.4839,1341.00,49.00,24.00,37.22,290.00,11.00,0.00,29.77,1006.70,10.00,16.00,FEW,SCT,BKN,M,3500.00,8000.00,20000.00,M,M,M,M,M,M,M,M,43.95,KRNO 242355Z 29011G16KT 10SM FEW035 SCT080 BKN200 09/M04 A2977 RMK AO2 SLP067 CB DSNT NW 60000 T00941044 10100 20039 52001 $,M
RTS,2024-03-24 23:55,-119.8764,39.6682,1539.00,42.80,23.00,45.14,320.00,13.00,0.00,29.78,M,10.00,M,FEW,SCT,M,M,6500.00,8000.00,M,M,M,M,M,M,M,M,M,35.40,KRTS 242355Z AUTO 32013KT 10SM FEW065 SCT080 06/M05 A2978 RMK AO2,M
MEV,2024-03-24 23:55,-119.7500,38.9963,1441.42,39.20,26.60,60.29,320.00,6.00,0.00,29.79,M,9.00,M,FEW,FEW,SCT,M,2100.00,3200.00,4500.00,M,-RA,M,M,M,M,M,M,34.20,KMEV 242355Z AUTO 32006KT 9SM -RA FEW021 FEW032 SCT045 04/M03 A2979 RMK AO2,M
HTH,2024-03-24 23:55,-118.6315,38.5448,1282.89,44.60,26.60,48.96,320.00,5.00,0.00,29.77,M,10.00,10.00,CLR,M,M,M,M,M,M,M,M,M,M,M,M,M,M,41.36,KHTH 242355Z AUTO 32005G10KT 10SM CLR 07/M03 A2977 RMK A01,M
10U,2024-03-24 23:55,-116.1876,41.9532,1637.00,41.00,24.80,52.17,330.00,14.00,0.00,29.68,M,10.00,24.00,BKN,OVC,M,M,5000.00,6000.00,M,M,M,M,M,M,M,M,M,32.76,K10U 242355Z AUTO 33014G24KT 10SM BKN050 OVC060 05/M04 A2968 RMK AO2,M
TMT,2024-03-24 23:55,-117.1971,39.4643,1749.34,36.00,27.00,69.51,360.00,10.00,0.00,29.73,M,10.00,15.00,BKN,BKN,BKN,M,3300.00,4000.00,4600.00,M,M,M,M,M,M,M,M,27.98,KTMT 242355Z AUTO 36010G15KT 330V030 10SM BKN033 BKN040 BKN046 02/M03 A2973 RMK AO2 60017 T00221028 10022 21007,M
LSV,2024-03-24 23:55,-115.0343,36.2362,570.00,60.00,24.00,24.92,280.00,10.00,0.00,29.56,1000.10,10.00,M,CLR,M,M,M,M,M,M,M,M,M,M,M,M,M,M,60.00,KLSV 242355Z AUTO 28010KT 10SM CLR 16/M04 A2956 RMK AO2 SLP001 60000 T01551045 10175 20150 58008,M
EKO,2024-03-24 23:56,-115.7860,40.8242,1367.00,43.00,28.00,55.14,300.00,6.00,0.00,29.66,1004.90,10.00,M,FEW,FEW,SCT,M,4200.00,4900.00,11000.00,M,M,M,M,M,M,M,M,38.78,KEKO 242356Z AUTO 30006KT 10SM FEW042 FEW049 SCT110 06/M02 A2966 RMK AO2 SLP049 60004 T00611022 10094 20028 53010,M
WMC,2024-03-24 23:56,-117.8072,40.9019,1315.00,50.00,23.00,34.39,340.00,14.00,0.00,29.71,1005.30,10.00,M,SCT,M,M,M,6500.00,M,M,M,M,M,M,M,M,M,M,50.00,KWMC 242356Z AUTO 34014KT 10SM SCT065 10/M05 A2971 RMK AO2 SLP053 60000 T01001050 10100 20028 56001,M
NFL,2024-03-24 23:56,-118.7010,39.4166,1199.00,48.00,28.00,45.61,20.00,17.00,0.00,29.74,1005.10,10.00,M,SCT,BKN,OVC,M,6500.00,8000.00,12000.00,M,M,M,M,M,26.00,310.00,2024-03-24 23:04,41.04,KNFL 242356Z AUTO 02017KT 10SM SCT065 BKN080 OVC120 09/M02 A2974 RMK AO2 PK WND 31026/2304 SLP051 60000 T00891022 10106 20044 55000,M
HND,2024-03-24 23:56,-115.1344,35.9729,742.79,57.00,27.00,31.43,360.00,9.00,0.00,29.63,1004.40,10.00,M,CLR,M,M,M,M,M,M,M,M,M,M,M,M,M,M,57.00,KHND 242356Z 36009KT 10SM CLR 14/M03 A2963 RMK AO2 SLP044 60000 T01391028 10167 20128 58008,M
TPH,2024-03-24 23:56,-117.0904,38.0505,1654.00,45.00,24.00,43.28,320.00,26.00,0.00,29.66,1003.80,10.00,35.00,FEW,M,M,M,5500.00,M,M,M,M,M,M,M,37.00,320.00,2024-03-24 23:28,35.24,KTPH 242356Z AUTO 32026G35KT 10SM FEW055 07/M04 A2966 RMK AO2 PK WND 32037/2328 SLP038 T00721044 10094 20044 55002,M
LAS,2024-03-24 23:56,-115.1634,36.0719,663.00,57.00,26.00,30.16,310.00,7.00,0.00,29.60,1001.60,10.00,M,FEW,BKN,BKN,M,10000.00,16000.00,22000.00,M,M,M,M,M,M,M,M,57.00,KLAS 242356Z 31007KT 10SM FEW100 BKN160 BKN220 14/M03 A2960 RMK AO2 SLP016 60000 T01391033 10144 20111 58004 $,M
