station,valid,lon,lat,elevation,tmpf,dwpf,relh,drct,sknt,p01i,alti,mslp,vsby,gust,skyc1,skyc2,skyc3,skyc4,skyl1,skyl2,skyl3,skyl4,wxcodes,ice_accretion_1hr,ice_accretion_3hr,ice_accretion_6hr,peak_wind_gust,peak_wind_drct,peak_wind_time,feel,metar,snowdepth
05U,2023-08-31 00:10,-116.0051,39.6042,1811.23,87.80,26.60,10.91,M,M,0.00,30.11,M,10.00,M,M,M,M,M,M,M,M,M,M,M,M,M,M,M,M,83.69,K05U 310010Z AUTO 10SM 31/M03 A3011 RMK A01,M
BVU,2023-08-31 00:15,-114.8611,35.9475,671.00,109.40,30.20,6.56,240.00,14.00,0.00,29.76,M,10.00,22.00,CLR,M,M,M,M,M,M,M,M,M,M,M,M,M,M,101.66,KBVU 310015Z AUTO 24014G22KT 10SM CLR 43/M01 A2976 RMK AO2,M
CXP,2023-08-31 00:15,-119.7326,39.1923,1431.00,86.00,26.60,11.55,50.00,7.00,0.00,30.05,M,10.00,M,CLR,M,M,M,M,M,M,M,M,M,M,M,M,M,M,82.39,KCXP 310015Z AUTO 05007KT 10SM CLR 30/M03 A3005 RMK AO2,M
RTS,2023-08-31 00:15,-119.8764,39.6682,1539.00,84.20,23.00,10.53,40.00,6.00,0.00,30.08,M,10.00,M,CLR,M,M,M,M,M,M,M,M,M,M,M,M,M,M,80.88,KRTS 310015Z AUTO 04006KT 10SM CLR 29/M05 A3008 RMK AO2,M
MEV,2023-08-31 00:15,-119.7500,38.9963,1441.42,86.00,30.20,13.38,280.00,5.00,0.00,30.03,M,10.00,M,CLR,M,M,M,M,M,M,M,M,M,M,M,M,M,M,82.64,KMEV 310015Z AUTO 28005KT 10SM CLR 30/M01 A3003 RMK AO2,M
HTH,2023-08-31 00:15,-118.6315,38.5448,1282.89,86.00,23.00,9.94,320.00,10.00,0.00,30.00,M,10.00,M,CLR,M,M,M,M,M,M,M,M,M,M,M,M,M,M,82.14,KHTH 310015Z AUTO 32010KT 10SM CLR 30/M05 A3000 RMK A01,M
10U,2023-08-31 00:15,-116.1876,41.9532,1637.00,73.40,26.60,17.46,350.00,9.00,0.00,30.13,M,10.00,M,CLR,M,M,M,M,M,M,M,M,M,M,M,M,M,M,73.40,K10U 310015Z AUTO 35009KT 10SM CLR 23/M03 A3013 RMK AO2,M
BAM,2023-08-31 00:15,-116.8743,40.5990,1382.36,84.20,32.00,15.25,340.00,7.00,0.00,30.06,M,10.00,M,CLR,M,M,M,M,M,M,M,M,M,M,M,M,M,M,81.28,KBAM 310015Z AUTO 34007KT 10SM CLR 29/00 A3006 RMK AO1,M
TMT,2023-08-31 00:15,-117.1971,39.4643,1749.34,84.60,29.30,13.49,340.00,10.00,0.00,30.10,M,M,16.00,CLR,M,M,M,M,M,M,M,M,M,M,M,M,M,M,81.56,KTMT 310015Z AUTO 34010G16KT CLR 29/M01 A3010 RMK AO2 T02921015 PWINO,M
LSV,2023-08-31 00:25,-115.0343,36.2362,570.00,107.60,33.80,7.99,150.00,12.00,0.00,29.71,1003.30,10.00,M,CLR,M,M,M,M,M,M,M,M,M,M,M,M,M,M,100.66,KLSV 310025Z AUTO 15012KT 10SM CLR 42/01 A2971 RMK AO2 WSHFT 19 SLP033 $,M
LSV,2023-08-31 00:27,-115.0343,36.2362,570.00,107.60,33.80,7.99,190.00,17.00,0.00,29.70,1002.90,10.00,24.00,CLR,M,M,M,M,M,M,M,M,M,M,M,M,M,M,100.66,KLSV 310027Z AUTO 19017G24KT 10SM CLR 42/01 A2970 RMK AO2 WSHFT 26 SLP029 $,M
LSV,2023-08-31 00:28,-115.0343,36.2362,570.00,107.60,33.80,7.99,240.00,15.00,0.00,29.70,1002.90,10.00,24.00,CLR,M,M,M,M,M,M,M,M,M,M,M,M,M,M,100.66,KLSV 310028Z AUTO 24015G24KT 10SM CLR 42/01 A2970 RMK AO2 WSHFT 28 SLP029 $,M
05U,2023-08-31 00:30,-116.0051,39.6042,1811.23,86.00,24.80,10.72,M,M,0.00,30.11,M,10.00,M,M,M,M,M,M,M,M,M,M,M,M,M,M,M,M,82.26,K05U 310030Z AUTO 10SM 30/M04 A3011 RMK A01,M
BVU,2023-08-31 00:35,-114.8611,35.9475,671.00,107.60,30.20,6.91,270.00,18.00,0.00,29.76,M,10.00,M,CLR,M,M,M,M,M,M,M,M,M,M,M,M,M,M,100.10,KBVU 310035Z AUTO 27018KT 10SM CLR 42/M01 A2976 RMK AO2,M
CXP,2023-08-31 00:35,-119.7326,39.1923,1431.00,86.00,28.40,12.44,70.00,8.00,0.00,30.04,M,10.00,M,CLR,M,M,M,M,M,M,M,M,M,M,M,M,M,M,82.54,KCXP 310035Z AUTO 07008KT 10SM CLR 30/M02 A3004 RMK AO2,M
RTS,2023-08-31 00:35,-119.8764,39.6682,1539.00,84.20,23.00,10.53,80.00,8.00,0.00,30.07,M,10.00,M,CLR,M,M,M,M,M,M,M,M,M,M,M,M,M,M,80.88,KRTS 310035Z AUTO 08008KT 10SM CLR 29/M05 A3007 RMK AO2,M
MEV,2023-08-31 00:35,-119.7500,38.9963,1441.42,84.20,30.20,14.18,290.00,5.00,0.00,30.02,M,10.00,M,CLR,M,M,M,M,M,M,M,M,M,M,M,M,M,M,81.26,KMEV 310035Z AUTO 29005KT 10SM CLR 29/M01 A3002 RMK AO2,M
HTH,2023-08-31 00:35,-118.6315,38.5448,1282.89,86.00,26.60,11.55,320.00,10.00,0.00,30.00,M,10.00,M,CLR,M,M,M,M,M,M,M,M,M,M,M,M,M,M,82.39,KHTH 310035Z AUTO 32010KT 10SM CLR 30/M03 A3000 RMK A01,M
BAM,2023-08-31 00:35,-116.8743,40.5990,1382.36,84.20,32.00,15.25,340.00,12.00,0.00,30.05,M,10.00,M,CLR,M,M,M,M,M,M,M,M,M,M,M,M,M,M,81.28,KBAM 310035Z AUTO 34012KT 10SM CLR 29/00 A3005 RMK AO1,M
TMT,2023-08-31 00:35,-117.1971,39.4643,1749.34,83.30,29.70,14.30,20.00,8.00,0.00,30.10,M,M,16.00,CLR,M,M,M,M,M,M,M,M,M,M,M,M,M,M,80.60,KTMT 310035Z AUTO 02008G16KT CLR 29/M01 A3010 RMK AO2 T02851013 PWINO,M
10U,2023-08-31 00:40,-116.1876,41.9532,1637.00,73.40,28.40,18.80,360.00,9.00,0.00,30.13,M,10.00,M,CLR,M,M,M,M,M,M,M,M,M,M,M,M,M,M,73.40,K10U 310040Z AUTO 36009KT 10SM CLR 23/M02 A3013 RMK AO2,M
P68,2023-08-31 00:53,-116.0056,39.6014,1993.00,84.00,24.00,11.05,30.00,12.00,0.00,30.08,1011.40,M,M,M,M,M,M,M,M,M,M,M,M,M,M,M,M,M,80.81,KP68 310053Z AUTO 03012KT 29/M04 A3008 RMK AO1 SLP114 T02891044,M
DRA,2023-08-31 00:53,-116.0278,36.6206,1009.00,100.00,34.00,10.10,210.00,11.00,0.00,29.88,1006.40,10.00,19.00,CLR,M,M,M,M,M,M,M,M,M,M,M,M,M,M,94.16,KDRA 310053Z AUTO 21011G19KT 10SM CLR 38/01 A2988 RMK AO2 SLP064 T03780011,M
ELY,2023-08-31 00:53,-114.8453,39.2950,1909.00,83.00,16.00,8.12,210.00,8.00,0.00,30.11,1010.50,10.00,M,CLR,M,M,M,M,M,M,M,M,M,M,M,M,M,M,79.69,KELY 310053Z AUTO 21008KT 10SM CLR 28/M09 A3011 RMK AO2 SLP105 T02831089,M
VGT,2023-08-31 00:53,-115.1933,36.2111,667.00,108.00,38.00,9.32,260.00,13.00,0.00,29.77,1006.20,10.00,M,CLR,M,M,M,M,M,M,M,M,M,M,M,M,M,M,101.82,KVGT 310053Z 26013KT 10SM CLR 42/03 A2977 RMK AO2 SLP062 T04220033,M
LOL,2023-08-31 00:53,-118.5701,40.0684,1192.43,86.00,31.00,13.83,60.00,6.00,0.00,29.98,1011.60,10.00,M,CLR,M,M,M,M,M,M,M,M,M,M,M,M,M,M,82.64,KLOL 310053Z AUTO 06006KT 10SM CLR 30/M01 A2998 RMK AO2 SLP116 T03001006,M
BVU,2023-08-31 00:55,-114.8611,35.9475,671.00,107.60,32.00,7.43,270.00,14.00,0.00,29.76,M,10.00,M,CLR,M,M,M,M,M,M,M,M,M,M,M,M,M,M,100.37,KBVU 310055Z AUTO 27014KT 10SM CLR 42/00 A2976 RMK AO2,M
CXP,2023-08-31 00:55,-119.7326,39.1923,1431.00,84.20,26.60,12.23,70.00,11.00,0.00,30.04,M,10.00,M,CLR,M,M,M,M,M,M,M,M,M,M,M,M,M,M,81.13,KCXP 310055Z AUTO 07011KT 10SM CLR 29/M03 A3004 RMK AO2,M
RNO,2023-08-31 00:55,-119.7711,39.4839,1341.00,88.00,26.00,10.57,350.00,4.00,0.00,30.00,1010.80,10.00,M,CLR,M,M,M,M,M,M,M,M,M,M,M,M,M,M,83.79,KRNO 310055Z 35004KT 10SM CLR 31/M03 A3000 RMK AO2 SLP108 HZ ALQDS T03111033,M
RTS,2023-08-31 00:55,-119.8764,39.6682,1539.00,82.40,23.00,11.16,50.00,7.00,0.00,30.07,M,10.00,M,CLR,M,M,M,M,M,M,M,M,M,M,M,M,M,M,79.67,KRTS 310055Z AUTO 05007KT 10SM CLR 28/M05 A3007 RMK AO2,M
05U,2023-08-31 00:55,-116.0051,39.6042,1811.23,84.20,24.80,11.35,M,M,0.00,30.11,M,10.00,M,M,M,M,M,M,M,M,M,M,M,M,M,M,M,M,81.00,K05U 310055Z AUTO 10SM 29/M04 A3011 RMK A01,M
MEV,2023-08-31 00:55,-119.7500,38.9963,1441.42,84.20,33.80,16.39,280.00,6.00,0.00,30.02,M,10.00,M,CLR,M,M,M,M,M,M,M,M,M,M,M,M,M,M,81.30,KMEV 310055Z AUTO 28006KT 10SM CLR 29/01 A3002 RMK AO2,M
HTH,2023-08-31 00:55,-118.6315,38.5448,1282.89,86.00,26.60,11.55,320.00,11.00,0.00,29.99,M,10.00,M,CLR,M,M,M,M,M,M,M,M,M,M,M,M,M,M,82.39,KHTH 310055Z AUTO 32011KT 10SM CLR 30/M03 A2999 RMK A01,M
BAM,2023-08-31 00:55,-116.8743,40.5990,1382.36,82.40,33.80,17.38,340.00,9.00,0.00,30.05,M,10.00,M,CLR,M,M,M,M,M,M,M,M,M,M,M,M,M,M,80.03,KBAM 310055Z AUTO 34009KT 10SM CLR 28/01 A3005 RMK AO1,M
TMT,2023-08-31 00:55,-117.1971,39.4643,1749.34,82.60,29.70,14.63,350.00,9.00,0.00,30.10,M,M,M,CLR,M,M,M,M,M,M,M,M,M,M,M,M,M,M,80.10,KTMT 310055Z AUTO 35009KT CLR 28/M01 A3010 RMK AO2 T02811013 PWINO,M
10U,2023-08-31 00:55,-116.1876,41.9532,1637.00,73.40,26.60,17.46,360.00,6.00,0.00,30.13,M,10.00,12.00,CLR,M,M,M,M,M,M,M,M,M,M,M,M,M,M,73.40,K10U 310055Z AUTO 36006G12KT 10SM CLR 23/M03 A3013 RMK AO2,M
INS,2023-08-31 00:55,-115.6733,36.5872,955.00,100.00,25.00,6.99,210.00,13.00,0.00,29.86,1006.00,10.00,M,CLR,M,M,M,M,M,M,M,M,M,M,M,M,M,M,93.09,KINS 310055Z AUTO 21013KT 10SM CLR 38/M04 A2986 RMK AO2 SLP060 T03781039 $,M
LSV,2023-08-31 00:55,-115.0343,36.2362,570.00,108.00,34.00,7.96,210.00,12.00,0.00,29.71,1003.30,10.00,M,CLR,M,M,M,M,M,M,M,M,M,M,M,M,M,M,101.04,KLSV 310055Z AUTO 21012KT 10SM CLR 42/01 A2971 RMK AO2 SLP033 T04220011 $,M
EKO,2023-08-31 00:56,-115.7860,40.8242,1367.00,83.00,21.00,10.06,290.00,10.00,0.00,30.06,1013.20,10.00,M,CLR,M,M,M,M,M,M,M,M,M,M,M,M,M,M,79.94,KEKO 310056Z AUTO 29010KT 10SM CLR 28/M06 A3006 RMK AO2 SLP132 T02831061,M
WMC,2023-08-31 00:56,-117.8072,40.9019,1315.00,84.00,17.00,8.21,330.00,8.00,0.00,30.04,1013.40,10.00,M,CLR,M,M,M,M,M,M,M,M,M,M,M,M,M,M,80.42,KWMC 310056Z AUTO 33008KT 10SM CLR 29/M08 A3004 RMK AO2 SLP134 T02891083,M
NFL,2023-08-31 00:56,-118.7010,39.4166,1199.00,86.00,32.00,14.40,20.00,7.00,0.00,29.98,1012.50,8.00,M,CLR,M,M,M,M,M,M,M,M,M,M,M,M,M,M,82.64,KNFL 310056Z 02007KT 8SM CLR 30/00 A2998 RMK AO2 SLP125 T03000000,M
HND,2023-08-31 00:56,-115.1344,35.9729,742.79,104.00,44.00,13.24,260.00,9.00,0.00,29.83,1007.90,10.00,M,CLR,M,M,M,M,M,M,M,M,M,M,M,M,M,M,99.70,KHND 310056Z 26009KT 10SM CLR 40/07 A2983 RMK AO2 SLP079 T04000067,M
TPH,2023-08-31 00:56,-117.0904,38.0505,1654.00,89.00,19.00,7.63,0.00,0.00,0.00,30.06,1009.90,10.00,M,CLR,M,M,M,M,M,M,M,M,M,M,M,M,M,M,84.08,KTPH 310056Z AUTO 00000KT 10SM CLR 32/M07 A3006 RMK AO2 SLP099 T03171072,M
LAS,2023-08-31 00:56,-115.1634,36.0719,663.00,106.00,38.00,9.89,220.00,12.00,0.00,29.78,1005.00,10.00,18.00,FEW,FEW,M,M,13000.00,15000.00,M,M,M,M,M,M,M,M,M,100.06,KLAS 310056Z 22012G18KT 10SM FEW130 FEW150 41/03 A2978 RMK AO2 SLP050 T04110033,M
05U,2023-08-31 01:10,-116.0051,39.6042,1811.23,82.40,30.20,15.03,M,M,0.00,30.11,M,10.00,M,M,M,M,M,M,M,M,M,M,M,M,M,M,M,M,79.97,K05U 310110Z AUTO 10SM 28/M01 A3011 RMK A01,M
BVU,2023-08-31 01:15,-114.8611,35.9475,671.00,105.80,30.20,7.29,250.00,10.00,0.00,29.76,M,10.00,17.00,CLR,M,M,M,M,M,M,M,M,M,M,M,M,M,M,98.56,KBVU 310115Z AUTO 25010G17KT 10SM CLR 41/M01 A2976 RMK AO2,M
CXP,2023-08-31 01:15,-119.7326,39.1923,1431.00,84.20,26.60,12.23,60.00,11.00,0.00,30.03,M,10.00,M,CLR,M,M,M,M,M,M,M,M,M,M,M,M,M,M,81.13,KCXP 310115Z AUTO 06011KT 10SM CLR 29/M03 A3003 RMK AO2,M
RTS,2023-08-31 01:15,-119.8764,39.6682,1539.00,82.40,23.00,11.16,50.00,7.00,0.00,30.07,M,10.00,12.00,CLR,M,M,M,M,M,M,M,M,M,M,M,M,M,M,79.67,KRTS 310115Z AUTO 05007G12KT 10SM CLR 28/M05 A3007 RMK AO2,M
MEV,2023-08-31 01:15,-119.7500,38.9963,1441.42,84.20,33.80,16.39,270.00,6.00,0.00,30.01,M,10.00,M,CLR,M,M,M,M,M,M,M,M,M,M,M,M,M,M,81.30,KMEV 310115Z AUTO 27006KT 10SM CLR 29/01 A3001 RMK AO2,M
HTH,2023-08-31 01:15,-118.6315,38.5448,1282.89,86.00,28.40,12.44,330.00,10.00,0.00,29.99,M,10.00,15.00,CLR,M,M,M,M,M,M,M,M,M,M,M,M,M,M,82.54,KHTH 310115Z AUTO 33010G15KT 10SM CLR 30/M02 A2999 RMK A01,M
10U,2023-08-31 01:15,-116.1876,41.9532,1637.00,71.60,28.40,19.98,30.00,7.00,0.00,30.12,M,10.00,M,CLR,M,M,M,M,M,M,M,M,M,M,M,M,M,M,71.60,K10U 310115Z AUTO 03007KT 10SM CLR 22/M02 A3012 RMK AO2,M
BAM,2023-08-31 01:15,-116.8743,40.5990,1382.36,80.60,32.00,17.14,340.00,8.00,0.00,30.04,M,10.00,M,CLR,M,M,M,M,M,M,M,M,M,M,M,M,M,M,78.82,KBAM 310115Z AUTO 34008KT 10SM CLR 27/00 A3004 RMK AO1,M
TMT,2023-08-31 01:15,-117.1971,39.4643,1749.34,81.00,30.00,15.60,340.00,8.00,0.00,30.10,M,M,14.00,CLR,M,M,M,M,M,M,M,M,M,M,M,M,M,M,79.02,KTMT 310115Z AUTO 34008G14KT CLR 27/M01 A3010 RMK AO2 T02731012 PWINO,M
BVU,2023-08-31 01:35,-114.8611,35.9475,671.00,105.80,35.60,9.05,260.00,13.00,0.00,29.76,M,10.00,18.00,CLR,M,M,M,M,M,M,M,M,M,M,M,M,M,M,99.42,KBVU 310135Z AUTO 26013G18KT 10SM CLR 41/02 A2976 RMK AO2,M
CXP,2023-08-31 01:35,-119.7326,39.1923,1431.00,82.40,26.60,12.97,70.00,8.00,0.00,30.03,M,10.00,M,CLR,M,M,M,M,M,M,M,M,M,M,M,M,M,M,79.92,KCXP 310135Z AUTO 07008KT 10SM CLR 28/M03 A3003 RMK AO2,M
RTS,2023-08-31 01:35,-119.8764,39.6682,1539.00,80.60,23.00,11.83,50.00,8.00,0.00,30.06,M,10.00,M,CLR,M,M,M,M,M,M,M,M,M,M,M,M,M,M,78.80,KRTS 310135Z AUTO 05008KT 10SM CLR 27/M05 A3006 RMK AO2,M
05U,2023-08-31 01:35,-116.0051,39.6042,1811.23,78.80,32.00,18.18,M,M,0.00,30.11,M,10.00,M,M,M,M,M,M,M,M,M,M,M,M,M,M,M,M,78.80,K05U 310135Z AUTO 10SM 26/M00 A3011 RMK A01,M
MEV,2023-08-31 01:35,-119.7500,38.9963,1441.42,82.40,39.20,21.51,280.00,7.00,0.00,30.01,M,10.00,M,CLR,M,M,M,M,M,M,M,M,M,M,M,M,M,M,80.21,KMEV 310135Z AUTO 28007KT 10SM CLR 28/04 A3001 RMK AO2,M
HTH,2023-08-31 01:35,-118.6315,38.5448,1282.89,84.20,35.60,17.61,320.00,10.00,0.00,29.98,M,10.00,M,CLR,M,M,M,M,M,M,M,M,M,M,M,M,M,M,81.34,KHTH 310135Z AUTO 32010KT 10SM CLR 29/02 A2998 RMK A01,M
10U,2023-08-31 01:35,-116.1876,41.9532,1637.00,71.60,28.40,19.98,40.00,4.00,0.00,30.12,M,10.00,10.00,CLR,M,M,M,M,M,M,M,M,M,M,M,M,M,M,71.60,K10U 310135Z AUTO 04004G10KT 10SM CLR 22/M02 A3012 RMK AO2,M
BAM,2023-08-31 01:35,-116.8743,40.5990,1382.36,78.80,32.00,18.18,340.00,8.00,0.00,30.04,M,10.00,M,CLR,M,M,M,M,M,M,M,M,M,M,M,M,M,M,78.80,KBAM 310135Z AUTO 34008KT 10SM CLR 26/00 A3004 RMK AO1,M
TMT,2023-08-31 01:35,-117.1971,39.4643,1749.34,79.30,29.70,16.29,340.00,9.00,0.00,30.10,M,M,M,CLR,M,M,M,M,M,M,M,M,M,M,M,M,M,M,79.30,KTMT 310135Z AUTO 34009KT CLR 26/M01 A3010 RMK AO2 T02631013 PWINO,M
05U,2023-08-31 01:50,-116.0051,39.6042,1811.23,77.00,32.00,19.30,M,M,0.00,30.11,M,10.00,M,M,M,M,M,M,M,M,M,M,M,M,M,M,M,M,77.00,K05U 310150Z AUTO 10SM 25/M00 A3011 RMK A01,M
P68,2023-08-31 01:53,-116.0056,39.6014,1993.00,77.00,31.00,18.53,10.00,7.00,0.00,30.08,1011.80,M,M,M,M,M,M,M,M,M,M,M,M,M,M,M,M,M,77.00,KP68 310153Z AUTO 01007KT 25/M01 A3008 RMK AO1 SLP118 T02501006,M
DRA,2023-08-31 01:53,-116.0278,36.6206,1009.00,96.00,33.00,10.96,240.00,9.00,0.00,29.87,1006.20,10.00,M,CLR,M,M,M,M,M,M,M,M,M,M,M,M,M,M,90.66,KDRA 310153Z AUTO 24009KT 10SM CLR 36/01 A2987 RMK AO2 SLP062 T03560006,M
ELY,2023-08-31 01:53,-114.8453,39.2950,1909.00,74.00,29.00,18.88,210.00,7.00,0.00,30.10,1011.20,10.00,M,CLR,M,M,M,M,M,M,M,M,M,M,M,M,M,M,74.00,KELY 310153Z AUTO 21007KT 10SM CLR 23/M02 A3010 RMK AO2 SLP112 T02331017,M
VGT,2023-08-31 01:53,-115.1933,36.2111,667.00,105.00,37.00,9.79,250.00,10.00,0.00,29.76,1006.10,10.00,M,CLR,M,M,M,M,M,M,M,M,M,M,M,M,M,M,98.98,KVGT 310153Z 25010KT 10SM CLR 41/03 A2976 RMK AO2 SLP061 T04060028,M
LOL,2023-08-31 01:53,-118.5701,40.0684,1192.43,83.00,31.00,15.23,60.00,6.00,0.00,29.97,1011.20,10.00,M,CLR,M,M,M,M,M,M,M,M,M,M,M,M,M,M,80.40,KLOL 310153Z AUTO 06006KT 10SM CLR 28/M01 A2997 RMK AO2 SLP112 T02831006,M
BVU,2023-08-31 01:55,-114.8611,35.9475,671.00,104.00,37.40,10.25,270.00,12.00,0.00,29.76,M,10.00,M,CLR,M,M,M,M,M,M,M,M,M,M,M,M,M,M,98.19,KBVU 310155Z AUTO 27012KT 10SM CLR 40/03 A2976 RMK AO2,M
CXP,2023-08-31 01:55,-119.7326,39.1923,1431.00,82.40,26.60,12.97,60.00,10.00,0.00,30.03,M,10.00,M,CLR,M,M,M,M,M,M,M,M,M,M,M,M,M,M,79.92,KCXP 310155Z AUTO 06010KT 10SM CLR 28/M03 A3003 RMK AO2,M
RNO,2023-08-31 01:55,-119.7711,39.4839,1341.00,86.00,27.00,11.74,30.00,10.00,0.00,29.99,1010.40,10.00,M,CLR,M,M,M,M,M,M,M,M,M,M,M,M,M,M,82.42,KRNO 310155Z 03010KT 10SM CLR 30/M03 A2999 RMK AO2 SLP104 HZ ALQDS T03001028,M
RTS,2023-08-31 01:55,-119.8764,39.6682,1539.00,78.80,21.20,11.64,60.00,7.00,0.00,30.06,M,10.00,M,CLR,M,M,M,M,M,M,M,M,M,M,M,M,M,M,78.80,KRTS 310155Z AUTO 06007KT 10SM CLR 26/M06 A3006 RMK AO2,M
MEV,2023-08-31 01:55,-119.7500,38.9963,1441.42,80.60,37.40,21.25,280.00,6.00,0.00,30.01,M,10.00,M,CLR,M,M,M,M,M,M,M,M,M,M,M,M,M,M,79.02,KMEV 310155Z AUTO 28006KT 10SM CLR 27/03 A3001 RMK AO2,M
HTH,2023-08-31 01:55,-118.6315,38.5448,1282.89,82.40,35.60,18.67,310.00,8.00,0.00,29.99,M,10.00,M,CLR,M,M,M,M,M,M,M,M,M,M,M,M,M,M,80.08,KHTH 310155Z AUTO 31008KT 10SM CLR 28/02 A2999 RMK A01,M
BAM,2023-08-31 01:55,-116.8743,40.5990,1382.36,78.80,30.20,16.90,330.00,8.00,0.00,30.04,M,10.00,M,CLR,M,M,M,M,M,M,M,M,M,M,M,M,M,M,78.80,KBAM 310155Z AUTO 33008KT 10SM CLR 26/M01 A3004 RMK AO1,M
TMT,2023-08-31 01:55,-117.1971,39.4643,1749.34,77.00,30.00,17.80,340.00,6.00,0.00,30.10,M,M,M,CLR,M,M,M,M,M,M,M,M,M,M,M,M,M,M,77.00,KTMT 310155Z AUTO 34006KT CLR 25/M01 A3010 RMK AO2 T02491011 PWINO,M
10U,2023-08-31 01:55,-116.1876,41.9532,1637.00,69.80,30.20,22.86,30.00,4.00,0.00,30.11,M,10.00,M,CLR,M,M,M,M,M,M,M,M,M,M,M,M,M,M,69.80,K10U 310155Z AUTO 03004KT 10SM CLR 21/M01 A3011 RMK AO2,M
INS,2023-08-31 01:55,-115.6733,36.5872,955.00,97.50,29.00,8.90,210.00,9.00,0.00,29.85,1005.80,10.00,M,CLR,M,M,M,M,M,M,M,M,M,M,M,M,M,M,91.40,KINS 310155Z AUTO 21009KT 10SM CLR 36/M02 A2985 RMK AO2 SLP058 T03641016 $,M
LSV,2023-08-31 01:55,-115.0343,36.2362,570.00,105.60,32.00,7.88,230.00,11.00,0.00,29.70,1002.90,10.00,M,CLR,M,M,M,M,M,M,M,M,M,M,M,M,M,M,98.65,KLSV 310155Z AUTO 23011KT 10SM CLR 41/00 A2970 RMK AO2 SLP029 T04090001 $,M
EKO,2023-08-31 01:56,-115.7860,40.8242,1367.00,78.00,20.00,11.35,280.00,4.00,0.00,30.05,1013.40,10.00,M,CLR,M,M,M,M,M,M,M,M,M,M,M,M,M,M,78.00,KEKO 310156Z AUTO 28004KT 10SM CLR 26/M07 A3005 RMK AO2 SLP134 T02561067,M
WMC,2023-08-31 01:56,-117.8072,40.9019,1315.00,80.00,22.00,11.57,340.00,4.00,0.00,30.03,1013.20,10.00,M,CLR,M,M,M,M,M,M,M,M,M,M,M,M,M,M,78.12,KWMC 310156Z AUTO 34004KT 10SM CLR 27/M06 A3003 RMK AO2 SLP132 T02671056,M
NFL,2023-08-31 01:56,-118.7010,39.4166,1199.00,82.00,35.00,18.47,20.00,10.00,0.00,29.97,1012.00,9.00,M,CLR,M,M,M,M,M,M,M,M,M,M,M,M,M,M,79.80,KNFL 310156Z 02010KT 9SM CLR 28/02 A2997 RMK AO2 SLP120 T02780017,M
HND,2023-08-31 01:56,-115.1344,35.9729,742.79,102.00,44.00,14.05,240.00,12.00,0.00,29.82,1007.80,10.00,15.00,CLR,M,M,M,M,M,M,M,M,M,M,M,M,M,M,97.77,KHND 310156Z 24012G15KT 10SM CLR 39/07 A2982 RMK AO2 SLP078 T03890067,M
TPH,2023-08-31 01:56,-117.0904,38.0505,1654.00,87.00,24.00,10.04,80.00,3.00,0.00,30.04,1009.70,10.00,M,CLR,M,M,M,M,M,M,M,M,M,M,M,M,M,M,82.92,KTPH 310156Z AUTO 08003KT 10SM CLR 31/M04 A3004 RMK AO2 SLP097 T03061044,M
LAS,2023-08-31 01:56,-115.1634,36.0719,663.00,103.00,40.00,11.69,220.00,11.00,0.00,29.77,1004.90,10.00,17.00,FEW,FEW,M,M,13000.00,15000.00,M,M,M,M,M,M,M,M,M,97.86,KLAS 310156Z 22011G17KT 10SM FEW130 FEW150 39/04 A2977 RMK AO2 SLP049 T03940044,M
BVU,2023-08-31 02:15,-114.8611,35.9475,671.00,102.20,37.40,10.81,270.00,12.00,0.00,29.76,M,10.00,M,CLR,M,M,M,M,M,M,M,M,M,M,M,M,M,M,96.63,KBVU 310215Z AUTO 27012KT 10SM CLR 39/03 A2976 RMK AO2,M
CXP,2023-08-31 02:15,-119.7326,39.1923,1431.00,80.60,26.60,13.75,60.00,9.00,0.00,30.03,M,10.00,M,CLR,M,M,M,M,M,M,M,M,M,M,M,M,M,M,78.68,KCXP 310215Z AUTO 06009KT 10SM CLR 27/M03 A3003 RMK AO2,M
RTS,2023-08-31 02:15,-119.8764,39.6682,1539.00,77.00,21.20,12.35,40.00,5.00,0.00,30.06,M,10.00,M,CLR,M,M,M,M,M,M,M,M,M,M,M,M,M,M,77.00,KRTS 310215Z AUTO 04005KT 10SM CLR 25/M06 A3006 RMK AO2,M
05U,2023-08-31 02:15,-116.0051,39.6042,1811.23,69.80,35.60,28.39,M,M,0.00,30.11,M,10.00,M,M,M,M,M,M,M,M,M,M,M,M,M,M,M,M,69.80,K05U 310215Z AUTO 10SM 21/02 A3011 RMK A01,M
MEV,2023-08-31 02:15,-119.7500,38.9963,1441.42,77.00,39.20,25.67,300.00,7.00,0.00,30.01,M,10.00,M,CLR,M,M,M,M,M,M,M,M,M,M,M,M,M,M,77.00,KMEV 310215Z AUTO 30007KT 10SM CLR 25/04 A3001 RMK AO2,M
HTH,2023-08-31 02:15,-118.6315,38.5448,1282.89,80.60,33.80,18.42,310.00,7.00,0.00,29.99,M,10.00,M,CLR,M,M,M,M,M,M,M,M,M,M,M,M,M,M,78.88,KHTH 310215Z AUTO 31007KT 10SM CLR 27/01 A2999 RMK A01,M
10U,2023-08-31 02:15,-116.1876,41.9532,1637.00,66.20,30.20,25.88,30.00,4.00,0.00,30.11,M,10.00,M,CLR,M,M,M,M,M,M,M,M,M,M,M,M,M,M,66.20,K10U 310215Z AUTO 03004KT 10SM CLR 19/M01 A3011 RMK AO2,M
BAM,2023-08-31 02:15,-116.8743,40.5990,1382.36,77.00,30.20,17.94,330.00,6.00,0.00,30.04,M,10.00,M,CLR,M,M,M,M,M,M,M,M,M,M,M,M,M,M,77.00,KBAM 310215Z AUTO 33006KT 10SM CLR 25/M01 A3004 RMK AO1,M
TMT,2023-08-31 02:15,-117.1971,39.4643,1749.34,73.00,30.70,20.93,350.00,4.00,0.00,30.10,M,M,M,CLR,M,M,M,M,M,M,M,M,M,M,M,M,M,M,73.00,KTMT 310215Z AUTO 35004KT CLR 23/M01 A3010 RMK AO2 T02281007 PWINO,M
05U,2023-08-31 02:30,-116.0051,39.6042,1811.23,68.00,33.80,28.11,M,M,0.00,30.11,M,7.00,M,M,M,M,M,M,M,M,M,M,M,M,M,M,M,M,68.00,K05U 310230Z AUTO 7SM 20/01 A3011 RMK A01,M
BVU,2023-08-31 02:35,-114.8611,35.9475,671.00,102.20,37.40,10.81,270.00,10.00,0.00,29.76,M,10.00,17.00,CLR,M,M,M,M,M,M,M,M,M,M,M,M,M,M,96.63,KBVU 310235Z AUTO 27010G17KT 10SM CLR 39/03 A2976 RMK AO2,M
CXP,2023-08-31 02:35,-119.7326,39.1923,1431.00,80.60,24.80,12.76,50.00,10.00,0.00,30.03,M,10.00,M,CLR,M,M,M,M,M,M,M,M,M,M,M,M,M,M,78.94,KCXP 310235Z AUTO 05010KT 10SM CLR 27/M04 A3003 RMK AO2,M
RTS,2023-08-31 02:35,-119.8764,39.6682,1539.00,75.20,19.40,12.14,50.00,6.00,0.00,30.06,M,10.00,M,CLR,M,M,M,M,M,M,M,M,M,M,M,M,M,M,75.20,KRTS 310235Z AUTO 05006KT 10SM CLR 24/M07 A3006 RMK AO2,M
MEV,2023-08-31 02:35,-119.7500,38.9963,1441.42,73.40,35.60,25.13,320.00,9.00,0.00,30.01,M,10.00,M,CLR,M,M,M,M,M,M,M,M,M,M,M,M,M,M,73.40,KMEV 310235Z AUTO 32009KT 10SM CLR 23/02 A3001 RMK AO2,M
HTH,2023-08-31 02:35,-118.6315,38.5448,1282.89,78.80,33.80,19.55,310.00,9.00,0.00,29.99,M,10.00,M,CLR,M,M,M,M,M,M,M,M,M,M,M,M,M,M,78.80,KHTH 310235Z AUTO 31009KT 10SM CLR 26/01 A2999 RMK A01,M
10U,2023-08-31 02:35,-116.1876,41.9532,1637.00,64.40,30.20,27.55,20.00,5.00,0.00,30.11,M,10.00,M,CLR,M,M,M,M,M,M,M,M,M,M,M,M,M,M,64.40,K10U 310235Z AUTO 02005KT 10SM CLR 18/M01 A3011 RMK AO2,M
BAM,2023-08-31 02:35,-116.8743,40.5990,1382.36,73.40,28.40,18.80,320.00,5.00,0.00,30.04,M,10.00,M,CLR,M,M,M,M,M,M,M,M,M,M,M,M,M,M,73.40,KBAM 310235Z AUTO 32005KT 10SM CLR 23/M02 A3004 RMK AO1,M
TMT,2023-08-31 02:35,-117.1971,39.4643,1749.34,69.00,32.00,25.27,10.00,4.00,0.00,30.10,M,M,M,CLR,M,M,M,M,M,M,M,M,M,M,M,M,M,M,69.00,KTMT 310235Z AUTO 01004KT CLR 21/00 A3010 RMK AO2 T02060000 PWINO,M
P68,2023-08-31 02:53,-116.0056,39.6014,1993.00,66.00,30.00,25.85,330.00,8.00,0.00,30.09,1012.20,M,M,M,M,M,M,M,M,M,M,M,M,M,M,M,M,M,66.00,KP68 310253Z AUTO 33008KT 19/M01 A3009 RMK AO1 SLP122 T01891011 53003,M
DRA,2023-08-31 02:53,-116.0278,36.6206,1009.00,91.00,35.00,13.86,220.00,5.00,0.00,29.87,1006.40,10.00,M,CLR,M,M,M,M,M,M,M,M,M,M,M,M,M,M,86.81,KDRA 310253Z AUTO 22005KT 10SM CLR 33/02 A2987 RMK AO2 SLP064 T03280017 55004,M
ELY,2023-08-31 02:53,-114.8453,39.2950,1909.00,62.00,31.00,30.96,180.00,6.00,0.00,30.10,1011.50,10.00,M,CLR,M,M,M,M,M,M,M,M,M,M,M,M,M,M,62.00,KELY 310253Z AUTO 18006KT 10SM CLR 17/M01 A3010 RMK AO2 SLP115 T01671006 56004,M
VGT,2023-08-31 02:53,-115.1933,36.2111,667.00,103.00,39.00,11.24,230.00,7.00,0.00,29.77,1006.30,10.00,M,CLR,M,M,M,M,M,M,M,M,M,M,M,M,M,M,97.64,KVGT 310253Z 23007KT 10SM CLR 39/04 A2977 RMK AO2 SLP063 T03940039 55003,M
LOL,2023-08-31 02:53,-118.5701,40.0684,1192.43,76.00,32.00,19.95,30.00,8.00,0.00,29.97,1011.50,10.00,M,CLR,M,M,M,M,M,M,M,M,M,M,M,M,M,M,76.00,KLOL 310253Z AUTO 03008KT 10SM CLR 24/00 A2997 RMK AO2 SLP115 T02440000 55009,M
BVU,2023-08-31 02:55,-114.8611,35.9475,671.00,100.40,39.20,12.25,270.00,8.00,0.00,29.77,M,10.00,M,CLR,M,M,M,M,M,M,M,M,M,M,M,M,M,M,95.43,KBVU 310255Z AUTO 27008KT 10SM CLR 38/04 A2977 RMK AO2,M
CXP,2023-08-31 02:55,-119.7326,39.1923,1431.00,78.80,24.80,13.54,50.00,10.00,0.00,30.03,M,10.00,M,CLR,M,M,M,M,M,M,M,M,M,M,M,M,M,M,78.80,KCXP 310255Z AUTO 05010KT 10SM CLR 26/M04 A3003 RMK AO2,M
RNO,2023-08-31 02:55,-119.7711,39.4839,1341.00,81.00,28.00,14.38,360.00,6.00,0.00,30.01,1011.10,10.00,M,CLR,M,M,M,M,M,M,M,M,M,M,M,M,M,M,78.98,KRNO 310255Z 36006KT 10SM CLR 27/M02 A3001 RMK AO2 SLP111 HZ ALQDS T02721022 55005,M
RTS,2023-08-31 02:55,-119.8764,39.6682,1539.00,71.60,21.20,14.80,270.00,8.00,0.00,30.07,M,10.00,M,CLR,M,M,M,M,M,M,M,M,M,M,M,M,M,M,71.60,KRTS 310255Z AUTO 27008KT 10SM CLR 22/M06 A3007 RMK AO2,M
05U,2023-08-31 02:55,-116.0051,39.6042,1811.23,64.40,30.20,27.55,M,M,0.00,30.12,M,10.00,M,M,M,M,M,M,M,M,M,M,M,M,M,M,M,M,64.40,K05U 310255Z AUTO 10SM 18/M01 A3012 RMK A01,M
MEV,2023-08-31 02:55,-119.7500,38.9963,1441.42,71.60,35.60,26.71,320.00,8.00,0.00,30.02,M,10.00,M,CLR,M,M,M,M,M,M,M,VCTS,M,M,M,M,M,M,71.60,KMEV 310255Z AUTO 32008KT 10SM VCTS CLR 22/02 A3002 RMK AO2 LTG DSNT SW,M
HTH,2023-08-31 02:55,-118.6315,38.5448,1282.89,78.80,33.80,19.55,320.00,9.00,0.00,29.99,M,10.00,M,CLR,M,M,M,M,M,M,M,M,M,M,M,M,M,M,78.80,KHTH 310255Z AUTO 32009KT 10SM CLR 26/01 A2999 RMK A01,M
BAM,2023-08-31 02:55,-116.8743,40.5990,1382.36,73.40,28.40,18.80,330.00,6.00,0.00,30.04,M,10.00,M,CLR,M,M,M,M,M,M,M,M,M,M,M,M,M,M,73.40,KBAM 310255Z AUTO 33006KT 10SM CLR 23/M02 A3004 RMK AO1,M
TMT,2023-08-31 02:55,-117.1971,39.4643,1749.34,63.50,30.60,28.90,0.00,0.00,0.00,30.11,M,M,M,CLR,M,M,M,M,M,M,M,M,M,M,M,M,M,M,63.50,KTMT 310255Z AUTO 00000KT CLR 18/M01 A3011 RMK AO2 T01751008 PWINO,M
10U,2023-08-31 02:55,-116.1876,41.9532,1637.00,60.80,32.00,33.64,10.00,4.00,0.00,30.12,M,10.00,M,CLR,M,M,M,M,M,M,M,M,M,M,M,M,M,M,60.80,K10U 310255Z AUTO 01004KT 10SM CLR 16/M00 A3012 RMK AO2,M
INS,2023-08-31 02:55,-115.6733,36.5872,955.00,93.60,33.30,11.94,190.00,9.00,0.00,29.86,1006.00,10.00,M,CLR,M,M,M,M,M,M,M,M,M,M,M,M,M,M,88.79,KINS 310255Z AUTO 19009KT 10SM CLR 34/01 A2986 RMK AO2 SLP060 T03420007 55002 $,M
LSV,2023-08-31 02:55,-115.0343,36.2362,570.00,102.20,35.20,9.91,220.00,7.00,0.00,29.71,1003.20,10.00,M,CLR,M,M,M,M,M,M,M,M,M,M,M,M,M,M,96.23,KLSV 310255Z AUTO 22007KT 10SM CLR 39/02 A2971 RMK AO2 SLP032 T03900018 55002 $,M
EKO,2023-08-31 02:56,-115.7860,40.8242,1367.00,68.00,24.00,18.83,0.00,0.00,0.00,30.06,1013.80,10.00,M,CLR,M,M,M,M,M,M,M,M,M,M,M,M,M,M,68.00,KEKO 310256Z AUTO 00000KT 10SM CLR 20/M04 A3006 RMK AO2 SLP138 T02001044 55003,M
WMC,2023-08-31 02:56,-117.8072,40.9019,1315.00,71.00,26.00,18.47,20.00,5.00,0.00,30.03,1013.20,10.00,M,CLR,M,M,M,M,M,M,M,M,M,M,M,M,M,M,71.00,KWMC 310256Z AUTO 02005KT 10SM CLR 22/M03 A3003 RMK AO2 SLP132 T02171033 55008,M
NFL,2023-08-31 02:56,-118.7010,39.4166,1199.00,76.00,39.00,26.34,30.00,6.00,0.00,29.97,1012.10,10.00,M,CLR,M,M,M,M,M,M,M,M,M,M,M,M,M,M,76.00,KNFL 310256Z 03006KT 10SM CLR 24/04 A2997 RMK AO2 SLP121 T02440039 55009,M
HND,2023-08-31 02:56,-115.1344,35.9729,742.79,100.00,46.00,16.10,250.00,6.00,0.00,29.82,1007.70,10.00,M,CLR,M,M,M,M,M,M,M,M,M,M,M,M,M,M,96.16,KHND 310256Z 25006KT 10SM CLR 38/08 A2982 RMK AO2 SLP077 T03780078 55001,M
TPH,2023-08-31 02:56,-117.0904,38.0505,1654.00,76.00,36.00,23.40,M,3.00,0.00,30.04,1009.80,10.00,M,CLR,M,M,M,M,M,M,M,M,M,M,M,M,M,M,76.00,KTPH 310256Z AUTO VRB03KT 10SM CLR 24/02 A3004 RMK AO2 SLP098 T02440022 55007,M
LAS,2023-08-31 02:56,-115.1634,36.0719,663.00,100.00,43.00,14.36,230.00,6.00,0.00,29.78,1005.10,10.00,M,FEW,M,M,M,15000.00,M,M,M,M,M,M,M,M,M,M,95.68,KLAS 310256Z 23006KT 10SM FEW150 38/06 A2978 RMK AO2 SLP051 T03780061 55003,M
05U,2023-08-31 03:10,-116.0051,39.6042,1811.23,64.40,30.20,27.55,M,M,0.00,30.12,M,10.00,M,M,M,M,M,M,M,M,M,M,M,M,M,M,M,M,64.40,K05U 310310Z AUTO 10SM 18/M01 A3012 RMK A01,M
BVU,2023-08-31 03:15,-114.8611,35.9475,671.00,98.60,39.20,12.94,310.00,8.00,0.00,29.77,M,10.00,M,CLR,M,M,M,M,M,M,M,M,M,M,M,M,M,M,93.89,KBVU 310315Z AUTO 31008KT 10SM CLR 37/04 A2977 RMK AO2,M
CXP,2023-08-31 03:15,-119.7326,39.1923,1431.00,78.80,24.80,13.54,30.00,8.00,0.00,30.04,M,10.00,13.00,CLR,M,M,M,M,M,M,M,M,M,M,M,M,M,M,78.80,KCXP 310315Z AUTO 03008G13KT 10SM CLR 26/M04 A3004 RMK AO2,M
RTS,2023-08-31 03:15,-119.8764,39.6682,1539.00,69.80,19.40,14.57,330.00,6.00,0.00,30.07,M,10.00,M,CLR,M,M,M,M,M,M,M,M,M,M,M,M,M,M,69.80,KRTS 310315Z AUTO 33006KT 10SM CLR 21/M07 A3007 RMK AO2,M
MEV,2023-08-31 03:15,-119.7500,38.9963,1441.42,71.60,33.80,24.86,330.00,6.00,0.00,30.02,M,10.00,M,CLR,M,M,M,M,M,M,M,M,M,M,M,M,M,M,71.60,KMEV 310315Z AUTO 33006KT 10SM CLR 22/01 A3002 RMK AO2,M
BAM,2023-08-31 03:15,-116.8743,40.5990,1382.36,71.60,28.40,19.98,320.00,6.00,0.00,30.04,M,10.00,M,CLR,M,M,M,M,M,M,M,M,M,M,M,M,M,M,71.60,KBAM 310315Z AUTO 32006KT 10SM CLR 22/M02 A3004 RMK AO1,M
HTH,2023-08-31 03:15,-118.6315,38.5448,1282.89,77.00,32.00,19.30,310.00,8.00,0.00,29.99,M,10.00,M,CLR,M,M,M,M,M,M,M,M,M,M,M,M,M,M,77.00,KHTH 310315Z AUTO 31008KT 10SM CLR 25/M00 A2999 RMK A01,M
10U,2023-08-31 03:15,-116.1876,41.9532,1637.00,57.20,30.20,35.57,360.00,5.00,0.00,30.12,M,10.00,M,CLR,M,M,M,M,M,M,M,M,M,M,M,M,M,M,57.20,K10U 310315Z AUTO 36005KT 10SM CLR 14/M01 A3012 RMK AO2,M
TMT,2023-08-31 03:15,-117.1971,39.4643,1749.34,60.60,30.00,31.24,0.00,0.00,0.00,30.11,M,M,M,CLR,M,M,M,M,M,M,M,M,M,M,M,M,M,M,60.60,KTMT 310315Z AUTO 00000KT CLR 16/M01 A3011 RMK AO2 T01591012 PWINO,M
BVU,2023-08-31 03:35,-114.8611,35.9475,671.00,98.60,39.20,12.94,300.00,5.00,0.00,29.77,M,10.00,M,CLR,M,M,M,M,M,M,M,M,M,M,M,M,M,M,93.89,KBVU 310335Z AUTO 30005KT 10SM CLR 37/04 A2977 RMK AO2,M
CXP,2023-08-31 03:35,-119.7326,39.1923,1431.00,78.80,24.80,13.54,50.00,9.00,0.00,30.04,M,10.00,M,CLR,M,M,M,M,M,M,M,M,M,M,M,M,M,M,78.80,KCXP 310335Z AUTO 05009KT 10SM CLR 26/M04 A3004 RMK AO2,M
RTS,2023-08-31 03:35,-119.8764,39.6682,1539.00,69.80,19.40,14.57,0.00,0.00,0.00,30.07,M,10.00,M,CLR,M,M,M,M,M,M,M,M,M,M,M,M,M,M,69.80,KRTS 310335Z AUTO 00000KT 10SM CLR 21/M07 A3007 RMK AO2,M
05U,2023-08-31 03:35,-116.0051,39.6042,1811.23,62.60,30.20,29.35,M,M,0.00,30.13,M,10.00,M,M,M,M,M,M,M,M,M,M,M,M,M,M,M,M,62.60,K05U 310335Z AUTO 10SM 17/M01 A3013 RMK A01,M
MEV,2023-08-31 03:35,-119.7500,38.9963,1441.42,64.40,35.60,34.22,50.00,3.00,0.00,30.03,M,10.00,M,CLR,M,M,M,M,M,M,M,M,M,M,M,M,M,M,64.40,KMEV 310335Z AUTO 05003KT 10SM CLR 18/02 A3003 RMK AO2,M
HTH,2023-08-31 03:35,-118.6315,38.5448,1282.89,77.00,30.20,17.94,310.00,5.00,0.00,30.00,M,10.00,M,M,M,M,M,M,M,M,M,M,M,M,M,M,M,M,77.00,KHTH 310335Z AUTO 31005KT 10SM 25/M01 A3000 RMK A01,M
10U,2023-08-31 03:35,-116.1876,41.9532,1637.00,57.20,30.20,35.57,350.00,6.00,0.00,30.12,M,10.00,M,CLR,M,M,M,M,M,M,M,M,M,M,M,M,M,M,57.20,K10U 310335Z AUTO 35006KT 10SM CLR 14/M01 A3012 RMK AO2,M
BAM,2023-08-31 03:35,-116.8743,40.5990,1382.36,68.00,32.00,26.15,350.00,7.00,0.00,30.05,M,10.00,M,CLR,M,M,M,M,M,M,M,M,M,M,M,M,M,M,68.00,KBAM 310335Z AUTO 35007KT 10SM CLR 20/00 A3005 RMK AO1,M
TMT,2023-08-31 03:35,-117.1971,39.4643,1749.34,54.30,29.00,37.63,0.00,0.00,0.00,30.12,M,M,M,CLR,M,M,M,M,M,M,M,M,M,M,M,M,M,M,54.30,KTMT 310335Z AUTO 00000KT CLR 12/M02 A3012 RMK AO2 T01241016 PWINO,M
05U,2023-08-31 03:50,-116.0051,39.6042,1811.23,62.60,26.60,25.32,M,M,0.00,30.14,M,10.00,M,M,M,M,M,M,M,M,M,M,M,M,M,M,M,M,62.60,K05U 310350Z AUTO 10SM 17/M03 A3014 RMK A01,M
P68,2023-08-31 03:53,-116.0056,39.6014,1993.00,64.00,29.00,26.60,50.00,4.00,0.00,30.12,1012.10,M,M,M,M,M,M,M,M,M,M,M,M,M,M,M,M,M,64.00,KP68 310353Z AUTO 05004KT 18/M02 A3012 RMK AO1 SLP121 T01781017,M
DRA,2023-08-31 03:53,-116.0278,36.6206,1009.00,86.00,41.00,20.54,90.00,3.00,0.00,29.88,1006.60,10.00,M,CLR,M,M,M,M,M,M,M,M,M,M,M,M,M,M,82.86,KDRA 310353Z AUTO 09003KT 10SM CLR 30/05 A2988 RMK AO2 SLP066 T03000050,M
ELY,2023-08-31 03:53,-114.8453,39.2950,1909.00,62.00,26.00,25.23,210.00,6.00,0.00,30.11,1010.30,10.00,M,CLR,M,M,M,M,M,M,M,M,M,M,M,M,M,M,62.00,KELY 310353Z AUTO 21006KT 10SM CLR 17/M03 A3011 RMK AO2 SLP103 T01671033,M
VGT,2023-08-31 03:53,-115.1933,36.2111,667.00,100.00,41.00,13.30,250.00,7.00,0.00,29.78,1006.60,10.00,M,CLR,M,M,M,M,M,M,M,M,M,M,M,M,M,M,95.42,KVGT 310353Z 25007KT 10SM CLR 38/05 A2978 RMK AO2 SLP066 T03780050,M
LOL,2023-08-31 03:53,-118.5701,40.0684,1192.43,73.00,24.00,15.88,30.00,9.00,0.00,29.98,1012.00,10.00,M,CLR,M,M,M,M,M,M,M,M,M,M,M,M,M,M,73.00,KLOL 310353Z AUTO 03009KT 10SM CLR 23/M04 A2998 RMK AO2 SLP120 T02281044,M
BVU,2023-08-31 03:55,-114.8611,35.9475,671.00,98.60,41.00,13.87,320.00,5.00,0.00,29.78,M,10.00,M,CLR,M,M,M,M,M,M,M,M,M,M,M,M,M,M,94.09,KBVU 310355Z AUTO 32005KT 10SM CLR 37/05 A2978 RMK AO2,M
CXP,2023-08-31 03:55,-119.7326,39.1923,1431.00,77.00,26.60,15.48,M,4.00,0.00,30.06,M,10.00,M,CLR,M,M,M,M,M,M,M,M,M,M,M,M,M,M,77.00,KCXP 310355Z AUTO VRB04KT 10SM CLR 25/M03 A3006 RMK AO2,M
RNO,2023-08-31 03:55,-119.7711,39.4839,1341.00,78.00,26.00,14.61,340.00,5.00,0.00,30.02,1011.50,10.00,M,CLR,M,M,M,M,M,M,M,M,M,M,M,M,M,M,78.00,KRNO 310355Z 34005KT 10SM CLR 26/M03 A3002 RMK AO2 SLP115 HZ ALQDS T02561033,M
RTS,2023-08-31 03:55,-119.8764,39.6682,1539.00,68.00,21.20,16.74,300.00,4.00,0.00,30.08,M,10.00,M,CLR,M,M,M,M,M,M,M,M,M,M,M,M,M,M,68.00,KRTS 310355Z AUTO 30004KT 10SM CLR 20/M06 A3008 RMK AO2,M
MEV,2023-08-31 03:55,-119.7500,38.9963,1441.42,66.20,33.80,29.92,340.00,4.00,0.00,30.04,M,10.00,M,CLR,M,M,M,M,M,M,M,M,M,M,M,M,M,M,66.20,KMEV 310355Z AUTO 34004KT 10SM CLR 19/01 A3004 RMK AO2,M
HTH,2023-08-31 03:55,-118.6315,38.5448,1282.89,75.20,28.40,17.70,300.00,7.00,0.00,30.00,M,10.00,M,CLR,M,M,M,M,M,M,M,M,M,M,M,M,M,M,75.20,KHTH 310355Z AUTO 30007KT 10SM CLR 24/M02 A3000 RMK A01,M
BAM,2023-08-31 03:55,-116.8743,40.5990,1382.36,69.80,28.40,21.24,340.00,8.00,0.00,30.05,M,10.00,M,CLR,M,M,M,M,M,M,M,M,M,M,M,M,M,M,69.80,KBAM 310355Z AUTO 34008KT 10SM CLR 21/M02 A3005 RMK AO1,M
TMT,2023-08-31 03:55,-117.1971,39.4643,1749.34,58.50,29.30,32.73,160.00,4.00,0.00,30.12,M,M,M,CLR,M,M,M,M,M,M,M,M,M,M,M,M,M,M,58.50,KTMT 310355Z AUTO 16004KT CLR 15/M01 A3012 RMK AO2 T01471015 PWINO,M
10U,2023-08-31 03:55,-116.1876,41.9532,1637.00,57.20,28.40,33.05,340.00,7.00,0.00,30.13,M,10.00,M,CLR,M,M,M,M,M,M,M,M,M,M,M,M,M,M,57.20,K10U 310355Z AUTO 34007KT 10SM CLR 14/M02 A3013 RMK AO2,M
INS,2023-08-31 03:55,-115.6733,36.5872,955.00,91.40,33.60,12.94,210.00,9.00,0.00,29.86,1005.60,10.00,M,CLR,M,M,M,M,M,M,M,M,M,M,M,M,M,M,87.11,KINS 310355Z AUTO 21009KT 10SM CLR 33/01 A2986 RMK AO2 SLP056 T03300009 $,M
LSV,2023-08-31 03:55,-115.0343,36.2362,570.00,96.40,39.40,13.94,310.00,3.00,0.00,29.72,1003.40,10.00,M,CLR,M,M,M,M,M,M,M,M,M,M,M,M,M,M,91.88,KLSV 310355Z AUTO 31003KT 10SM CLR 36/04 A2972 RMK AO2 SLP034 T03580041 $,M
EKO,2023-08-31 03:56,-115.7860,40.8242,1367.00,63.00,27.00,25.38,0.00,0.00,0.00,30.07,1014.10,10.00,M,CLR,M,M,M,M,M,M,M,M,M,M,M,M,M,M,63.00,KEKO 310356Z AUTO 00000KT 10SM CLR 17/M03 A3007 RMK AO2 SLP141 T01721028,M
WMC,2023-08-31 03:56,-117.8072,40.9019,1315.00,58.00,24.00,26.77,0.00,0.00,0.00,30.03,1013.80,10.00,M,CLR,M,M,M,M,M,M,M,M,M,M,M,M,M,M,58.00,KWMC 310356Z AUTO 00000KT 10SM CLR 14/M04 A3003 RMK AO2 SLP138 T01441044,M
NFL,2023-08-31 03:56,-118.7010,39.4166,1199.00,70.00,42.00,36.22,240.00,5.00,0.00,29.98,1012.30,10.00,M,CLR,M,M,M,M,M,M,M,M,M,M,M,M,M,M,70.00,KNFL 310356Z 24005KT 10SM CLR 21/06 A2998 RMK AO2 SLP123 T02110056,M
HND,2023-08-31 03:56,-115.1344,35.9729,742.79,95.00,47.00,19.48,160.00,7.00,0.00,29.83,1008.00,10.00,M,CLR,M,M,M,M,M,M,M,M,M,M,M,M,M,M,91.37,KHND 310356Z AUTO 16007KT 10SM CLR 35/08 A2983 RMK AO2 SLP080 T03500083,M
TPH,2023-08-31 03:56,-117.0904,38.0505,1654.00,73.00,33.00,22.96,350.00,6.00,0.00,30.06,1010.00,10.00,M,CLR,M,M,M,M,M,M,M,M,M,M,M,M,M,M,73.00,KTPH 310356Z AUTO 35006KT 10SM CLR 23/01 A3006 RMK AO2 SLP100 T02280006,M
LAS,2023-08-31 03:56,-115.1634,36.0719,663.00,99.00,42.00,14.24,240.00,3.00,0.00,29.78,1005.20,10.00,M,FEW,M,M,M,15000.00,M,M,M,M,M,M,M,M,M,M,94.59,KLAS 310356Z 24003KT 10SM FEW150 37/06 A2978 RMK AO2 SLP052 T03720056,M
BVU,2023-08-31 04:15,-114.8611,35.9475,671.00,96.80,42.80,15.71,130.00,6.00,0.00,29.78,M,10.00,M,CLR,M,M,M,M,M,M,M,M,M,M,M,M,M,M,92.57,KBVU 310415Z AUTO 13006KT 10SM CLR 36/06 A2978 RMK AO2,M
CXP,2023-08-31 04:15,-119.7326,39.1923,1431.00,71.60,30.20,21.50,0.00,0.00,0.00,30.06,M,10.00,M,CLR,M,M,M,M,M,M,M,M,M,M,M,M,M,M,71.60,KCXP 310415Z AUTO 00000KT 10SM CLR 22/M01 A3006 RMK AO2,M
RTS,2023-08-31 04:15,-119.8764,39.6682,1539.00,66.20,21.20,17.81,0.00,0.00,0.00,30.08,M,10.00,M,CLR,M,M,M,M,M,M,M,M,M,M,M,M,M,M,66.20,KRTS 310415Z AUTO 00000KT 10SM CLR 19/M06 A3008 RMK AO2,M
05U,2023-08-31 04:15,-116.0051,39.6042,1811.23,59.00,32.00,35.87,M,M,0.00,30.14,M,10.00,M,M,M,M,M,M,M,M,M,M,M,M,M,M,M,M,59.00,K05U 310415Z AUTO 10SM 15/M00 A3014 RMK A01,M
MEV,2023-08-31 04:15,-119.7500,38.9963,1441.42,64.40,33.80,31.85,0.00,0.00,0.00,30.05,M,10.00,M,FEW,M,M,M,4200.00,M,M,M,M,M,M,M,M,M,M,64.40,KMEV 310415Z AUTO 00000KT 10SM FEW042 18/01 A3005 RMK AO2,M
HTH,2023-08-31 04:15,-118.6315,38.5448,1282.89,73.40,30.20,20.23,300.00,5.00,0.00,30.01,M,10.00,M,CLR,M,M,M,M,M,M,M,M,M,M,M,M,M,M,73.40,KHTH 310415Z AUTO 30005KT 10SM CLR 23/M01 A3001 RMK A01,M
10U,2023-08-31 04:15,-116.1876,41.9532,1637.00,53.60,30.20,40.54,0.00,0.00,0.00,30.13,M,10.00,M,CLR,M,M,M,M,M,M,M,M,M,M,M,M,M,M,53.60,K10U 310415Z AUTO 00000KT 10SM CLR 12/M01 A3013 RMK AO2,M
BAM,2023-08-31 04:15,-116.8743,40.5990,1382.36,68.00,28.40,22.59,330.00,8.00,0.00,30.06,M,10.00,M,CLR,M,M,M,M,M,M,M,M,M,M,M,M,M,M,68.00,KBAM 310415Z AUTO 33008KT 10SM CLR 20/M02 A3006 RMK AO1,M
TMT,2023-08-31 04:15,-117.1971,39.4643,1749.34,55.20,28.60,35.83,190.00,3.00,0.00,30.13,M,M,M,CLR,M,M,M,M,M,M,M,M,M,M,M,M,M,M,55.20,KTMT 310415Z AUTO 19003KT CLR 13/M02 A3013 RMK AO2 T01291019 PWINO,M
BVU,2023-08-31 04:35,-114.8611,35.9475,671.00,95.00,42.80,16.60,140.00,3.00,0.00,29.79,M,10.00,M,CLR,M,M,M,M,M,M,M,M,M,M,M,M,M,M,90.86,KBVU 310435Z AUTO 14003KT 10SM CLR 35/06 A2979 RMK AO2,M
CXP,2023-08-31 04:35,-119.7326,39.1923,1431.00,69.80,32.00,24.59,170.00,4.00,0.00,30.07,M,10.00,M,CLR,M,M,M,M,M,M,M,M,M,M,M,M,M,M,69.80,KCXP 310435Z AUTO 17004KT 10SM CLR 21/00 A3007 RMK AO2,M
RTS,2023-08-31 04:35,-119.8764,39.6682,1539.00,66.20,21.20,17.81,0.00,0.00,0.00,30.08,M,10.00,M,CLR,M,M,M,M,M,M,M,M,M,M,M,M,M,M,66.20,KRTS 310435Z AUTO 00000KT 10SM CLR 19/M06 A3008 RMK AO2,M
05U,2023-08-31 04:35,-116.0051,39.6042,1811.23,55.40,32.00,40.84,M,M,0.00,30.15,M,10.00,M,M,M,M,M,M,M,M,M,M,M,M,M,M,M,M,55.40,K05U 310435Z AUTO 10SM 13/00 A3015 RMK A01,M
MEV,2023-08-31 04:35,-119.7500,38.9963,1441.42,64.40,33.80,31.85,40.00,5.00,0.00,30.05,M,10.00,M,FEW,M,M,M,4100.00,M,M,M,M,M,M,M,M,M,M,64.40,KMEV 310435Z AUTO 04005KT 10SM FEW041 18/01 A3005 RMK AO2,M
HTH,2023-08-31 04:35,-118.6315,38.5448,1282.89,73.40,32.00,21.76,310.00,7.00,0.00,30.01,M,10.00,M,CLR,M,M,M,M,M,M,M,M,M,M,M,M,M,M,73.40,KHTH 310435Z AUTO 31007KT 10SM CLR 23/M00 A3001 RMK A01,M
10U,2023-08-31 04:35,-116.1876,41.9532,1637.00,51.80,32.00,46.59,0.00,0.00,0.00,30.13,M,10.00,M,CLR,M,M,M,M,M,M,M,M,M,M,M,M,M,M,51.80,K10U 310435Z AUTO 00000KT 10SM CLR 11/M00 A3013 RMK AO2,M
BAM,2023-08-31 04:35,-116.8743,40.5990,1382.36,68.00,30.20,24.32,330.00,9.00,0.00,30.06,M,10.00,M,CLR,M,M,M,M,M,M,M,M,M,M,M,M,M,M,68.00,KBAM 310435Z AUTO 33009KT 10SM CLR 20/M01 A3006 RMK AO1,M
TMT,2023-08-31 04:35,-117.1971,39.4643,1749.34,52.00,28.60,40.28,220.00,3.00,0.00,30.13,M,M,M,CLR,M,M,M,M,M,M,M,M,M,M,M,M,M,M,52.00,KTMT 310435Z AUTO 22003KT CLR 11/M02 A3013 RMK AO2 T01111019 PWINO,M
05U,2023-08-31 04:50,-116.0051,39.6042,1811.23,55.40,32.00,40.84,M,M,0.00,30.15,M,10.00,M,M,M,M,M,M,M,M,M,M,M,M,M,M,M,M,55.40,K05U 310450Z AUTO 10SM 13/00 A3015 RMK A01,M
P68,2023-08-31 04:53,-116.0056,39.6014,1993.00,55.00,33.00,43.14,0.00,0.00,0.00,30.12,1013.10,M,M,M,M,M,M,M,M,M,M,M,M,M,M,M,M,M,55.00,KP68 310453Z AUTO 00000KT 13/01 A3012 RMK AO1 SLP131 T01280006,M
DRA,2023-08-31 04:53,-116.0278,36.6206,1009.00,83.00,43.00,24.44,70.00,4.00,0.00,29.89,1006.50,10.00,M,CLR,M,M,M,M,M,M,M,M,M,M,M,M,M,M,80.79,KDRA 310453Z AUTO 07004KT 10SM CLR 28/06 A2989 RMK AO2 SLP065 T02830061,M
ELY,2023-08-31 04:53,-114.8453,39.2950,1909.00,62.00,25.00,24.20,190.00,6.00,0.00,30.12,1010.00,10.00,M,CLR,M,M,M,M,M,M,M,M,M,M,M,M,M,M,62.00,KELY 310453Z AUTO 19006KT 10SM CLR 17/M04 A3012 RMK AO2 SLP100 T01671039,M
VGT,2023-08-31 04:53,-115.1933,36.2111,667.00,96.00,43.00,16.22,320.00,3.00,0.00,29.78,1006.60,10.00,M,CLR,M,M,M,M,M,M,M,M,M,M,M,M,M,M,91.83,KVGT 310453Z AUTO 32003KT 10SM CLR 36/06 A2978 RMK AO2 SLP066 T03560061,M
LOL,2023-08-31 04:53,-118.5701,40.0684,1192.43,69.00,21.00,16.03,40.00,5.00,0.00,29.98,1012.00,10.00,M,CLR,M,M,M,M,M,M,M,M,M,M,M,M,M,M,69.00,KLOL 310453Z AUTO 04005KT 10SM CLR 21/M06 A2998 RMK AO2 SLP120 T02061061,M
BVU,2023-08-31 04:55,-114.8611,35.9475,671.00,93.20,44.60,18.80,340.00,5.00,0.00,29.79,M,10.00,M,CLR,M,M,M,M,M,M,M,M,M,M,M,M,M,M,89.34,KBVU 310455Z AUTO 34005KT 10SM CLR 34/07 A2979 RMK AO2,M
CXP,2023-08-31 04:55,-119.7326,39.1923,1431.00,68.00,32.00,26.15,0.00,0.00,0.00,30.07,M,10.00,M,CLR,M,M,M,M,M,M,M,M,M,M,M,M,M,M,68.00,KCXP 310455Z AUTO 00000KT 10SM CLR 20/00 A3007 RMK AO2,M
RNO,2023-08-31 04:55,-119.7711,39.4839,1341.00,75.00,31.00,19.81,270.00,4.00,0.00,30.03,1011.80,10.00,M,CLR,M,M,M,M,M,M,M,M,M,M,M,M,M,M,75.00,KRNO 310455Z 27004KT 10SM CLR 24/M01 A3003 RMK AO2 SLP118 HZ ALQDS T02391006,M
RTS,2023-08-31 04:55,-119.8764,39.6682,1539.00,66.20,21.20,17.81,350.00,3.00,0.00,30.08,M,10.00,M,CLR,M,M,M,M,M,M,M,M,M,M,M,M,M,M,66.20,KRTS 310455Z AUTO 35003KT 10SM CLR 19/M06 A3008 RMK AO2,M
MEV,2023-08-31 04:55,-119.7500,38.9963,1441.42,66.20,32.00,27.83,100.00,6.00,0.00,30.05,M,10.00,M,FEW,FEW,M,M,3900.00,4700.00,M,M,M,M,M,M,M,M,M,66.20,KMEV 310455Z AUTO 10006KT 10SM FEW039 FEW047 19/M00 A3005 RMK AO2,M
HTH,2023-08-31 04:55,-118.6315,38.5448,1282.89,73.40,33.80,23.39,290.00,5.00,0.00,30.01,M,10.00,M,CLR,M,M,M,M,M,M,M,M,M,M,M,M,M,M,73.40,KHTH 310455Z AUTO 29005KT 10SM CLR 23/01 A3001 RMK A01,M
BAM,2023-08-31 04:55,-116.8743,40.5990,1382.36,68.00,28.40,22.59,330.00,6.00,0.00,30.05,M,10.00,M,CLR,M,M,M,M,M,M,M,M,M,M,M,M,M,M,68.00,KBAM 310455Z AUTO 33006KT 10SM CLR 20/M02 A3005 RMK AO1,M
TMT,2023-08-31 04:55,-117.1971,39.4643,1749.34,49.50,28.20,43.48,200.00,4.00,0.00,30.13,M,M,M,CLR,M,M,M,M,M,M,M,M,M,M,M,M,M,M,47.86,KTMT 310455Z AUTO 20004KT CLR 10/M02 A3013 RMK AO2 T00971021 PWINO,M
10U,2023-08-31 04:55,-116.1876,41.9532,1637.00,51.80,33.80,50.08,330.00,3.00,0.00,30.13,M,10.00,M,CLR,M,M,M,M,M,M,M,M,M,M,M,M,M,M,51.80,K10U 310455Z AUTO 33003KT 10SM CLR 11/01 A3013 RMK AO2,M
INS,2023-08-31 04:55,-115.6733,36.5872,955.00,86.00,37.40,17.85,230.00,9.00,0.00,29.87,1006.00,10.00,M,CLR,M,M,M,M,M,M,M,M,M,M,M,M,M,M,82.73,KINS 310455Z AUTO 23009KT 10SM CLR 30/03 A2987 RMK AO2 SLP060 T02990030 $,M
LSV,2023-08-31 04:55,-115.0343,36.2362,570.00,94.00,39.20,14.89,0.00,0.00,0.00,29.73,1003.80,10.00,M,CLR,M,M,M,M,M,M,M,M,M,M,M,M,M,M,89.65,KLSV 310455Z AUTO 00000KT 10SM CLR 34/04 A2973 RMK AO2 SLP038 T03440040 $,M
EKO,2023-08-31 04:56,-115.7860,40.8242,1367.00,58.00,30.00,34.28,0.00,0.00,0.00,30.07,1014.00,10.00,M,CLR,M,M,M,M,M,M,M,M,M,M,M,M,M,M,58.00,KEKO 310456Z AUTO 00000KT 10SM CLR 14/M01 A3007 RMK AO2 SLP140 T01441011 $,M
WMC,2023-08-31 04:56,-117.8072,40.9019,1315.00,56.00,24.00,28.77,300.00,6.00,0.00,30.03,1013.60,10.00,M,CLR,M,M,M,M,M,M,M,M,M,M,M,M,M,M,56.00,KWMC 310456Z AUTO 30006KT 10SM CLR 13/M04 A3003 RMK AO2 SLP136 T01331044,M
NFL,2023-08-31 04:56,-118.7010,39.4166,1199.00,67.00,45.00,45.04,M,5.00,0.00,29.98,1012.40,10.00,M,CLR,M,M,M,M,M,M,M,M,M,M,M,M,M,M,67.00,KNFL 310456Z VRB05KT 10SM CLR 19/07 A2998 RMK AO2 SLP124 T01940072,M
HND,2023-08-31 04:56,-115.1344,35.9729,742.79,93.00,48.00,21.51,170.00,9.00,0.00,29.84,1008.30,10.00,M,CLR,M,M,M,M,M,M,M,M,M,M,M,M,M,M,89.58,KHND 310456Z AUTO 17009KT 10SM CLR 34/09 A2984 RMK AO2 SLP083 T03390089,M
TPH,2023-08-31 04:56,-117.0904,38.0505,1654.00,69.00,33.00,26.31,20.00,8.00,0.00,30.07,1010.50,10.00,M,CLR,M,M,M,M,M,M,M,M,M,M,M,M,M,M,69.00,KTPH 310456Z AUTO 02008KT 10SM CLR 21/01 A3007 RMK AO2 SLP105 T02060006,M
LAS,2023-08-31 04:56,-115.1634,36.0719,663.00,96.00,45.00,17.51,200.00,5.00,0.00,29.79,1005.50,10.00,M,FEW,M,M,M,15000.00,M,M,M,M,M,M,M,M,M,M,92.07,KLAS 310456Z 20005KT 10SM FEW150 36/07 A2979 RMK AO2 SLP055 T03560072,M
BVU,2023-08-31 05:15,-114.8611,35.9475,671.00,91.40,46.40,21.29,330.00,4.00,0.00,29.79,M,10.00,M,CLR,M,M,M,M,M,M,M,M,M,M,M,M,M,M,87.86,KBVU 310515Z AUTO 33004KT 10SM CLR 33/08 A2979 RMK AO2,M
CXP,2023-08-31 05:15,-119.7326,39.1923,1431.00,68.00,33.80,28.11,0.00,0.00,0.00,30.07,M,10.00,M,CLR,M,M,M,M,M,M,M,M,M,M,M,M,M,M,68.00,KCXP 310515Z AUTO 00000KT 10SM CLR 20/01 A3007 RMK AO2,M
RTS,2023-08-31 05:15,-119.8764,39.6682,1539.00,62.60,21.20,20.20,340.00,4.00,0.00,30.08,M,10.00,M,CLR,M,M,M,M,M,M,M,M,M,M,M,M,M,M,62.60,KRTS 310515Z AUTO 34004KT 10SM CLR 17/M06 A3008 RMK AO2,M
05U,2023-08-31 05:15,-116.0051,39.6042,1811.23,51.80,32.00,46.59,M,M,0.00,30.15,M,10.00,M,M,M,M,M,M,M,M,M,M,M,M,M,M,M,M,51.80,K05U 310515Z AUTO 10SM 11/M00 A3015 RMK A01,M
MEV,2023-08-31 05:15,-119.7500,38.9963,1441.42,62.60,32.00,31.56,80.00,5.00,0.00,30.05,M,10.00,M,FEW,SCT,SCT,M,3500.00,4200.00,6000.00,M,M,M,M,M,M,M,M,62.60,KMEV 310515Z AUTO 08005KT 10SM FEW035 SCT042 SCT060 17/M00 A3005 RMK AO2,M
HTH,2023-08-31 05:15,-118.6315,38.5448,1282.89,73.40,32.00,21.76,260.00,5.00,0.00,30.01,M,10.00,M,CLR,M,M,M,M,M,M,M,M,M,M,M,M,M,M,73.40,KHTH 310515Z AUTO 26005KT 10SM CLR 23/00 A3001 RMK A01,M
10U,2023-08-31 05:15,-116.1876,41.9532,1637.00,51.80,32.00,46.59,290.00,3.00,0.00,30.13,M,10.00,M,CLR,M,M,M,M,M,M,M,M,M,M,M,M,M,M,51.80,K10U 310515Z AUTO 29003KT 10SM CLR 11/00 A3013 RMK AO2,M
BAM,2023-08-31 05:15,-116.8743,40.5990,1382.36,62.60,28.40,27.27,360.00,3.00,0.00,30.06,M,10.00,M,CLR,M,M,M,M,M,M,M,M,M,M,M,M,M,M,62.60,KBAM 310515Z AUTO 36003KT 10SM CLR 17/M02 A3006 RMK AO1,M
TMT,2023-08-31 05:15,-117.1971,39.4643,1749.34,48.40,28.40,45.67,220.00,6.00,0.00,30.13,M,M,M,CLR,M,M,M,M,M,M,M,M,M,M,M,M,M,M,45.28,KTMT 310515Z AUTO 22006KT CLR 09/M02 A3013 RMK AO2 T00911020 PWINO,M
05U,2023-08-31 05:30,-116.0051,39.6042,1811.23,53.60,32.00,43.61,M,M,0.00,30.15,M,10.00,M,M,M,M,M,M,M,M,M,M,M,M,M,M,M,M,53.60,K05U 310530Z AUTO 10SM 12/M00 A3015 RMK A01,M
BVU,2023-08-31 05:35,-114.8611,35.9475,671.00,93.20,44.60,18.80,300.00,3.00,0.00,29.79,M,10.00,M,CLR,M,M,M,M,M,M,M,M,M,M,M,M,M,M,89.34,KBVU 310535Z AUTO 30003KT 10SM CLR 34/07 A2979 RMK AO2,M
CXP,2023-08-31 05:35,-119.7326,39.1923,1431.00,66.20,33.80,29.92,0.00,0.00,0.00,30.07,M,10.00,M,CLR,M,M,M,M,M,M,M,M,M,M,M,M,M,M,66.20,KCXP 310535Z AUTO 00000KT 10SM CLR 19/01 A3007 RMK AO2,M
RTS,2023-08-31 05:35,-119.8764,39.6682,1539.00,59.00,21.20,22.95,340.00,5.00,0.00,30.08,M,10.00,M,CLR,M,M,M,M,M,M,M,M,M,M,M,M,M,M,59.00,KRTS 310535Z AUTO 34005KT 10SM CLR 15/M06 A3008 RMK AO2,M
MEV,2023-08-31 05:35,-119.7500,38.9963,1441.42,62.60,32.00,31.56,0.00,0.00,0.00,30.05,M,10.00,M,FEW,SCT,BKN,M,3500.00,4200.00,4900.00,M,M,M,M,M,M,M,M,62.60,KMEV 310535Z AUTO 00000KT 10SM FEW035 SCT042 BKN049 17/M00 A3005 RMK AO2,M
HTH,2023-08-31 05:35,-118.6315,38.5448,1282.89,71.60,32.00,23.13,260.00,5.00,0.00,30.01,M,10.00,M,CLR,M,M,M,M,M,M,M,M,M,M,M,M,M,M,71.60,KHTH 310535Z AUTO 26005KT 10SM CLR 22/M00 A3001 RMK A01,M
10U,2023-08-31 05:35,-116.1876,41.9532,1637.00,50.00,32.00,49.81,290.00,3.00,0.00,30.14,M,10.00,M,CLR,M,M,M,M,M,M,M,M,M,M,M,M,M,M,50.00,K10U 310535Z AUTO 29003KT 10SM CLR 10/00 A3014 RMK AO2,M
BAM,2023-08-31 05:35,-116.8743,40.5990,1382.36,60.80,30.20,31.28,60.00,4.00,0.00,30.06,M,10.00,M,CLR,M,M,M,M,M,M,M,M,M,M,M,M,M,M,60.80,KBAM 310535Z AUTO 06004KT 10SM CLR 16/M01 A3006 RMK AO1,M
TMT,2023-08-31 05:35,-117.1971,39.4643,1749.34,50.00,29.70,45.37,220.00,7.00,0.00,30.13,M,M,M,CLR,M,M,M,M,M,M,M,M,M,M,M,M,M,M,50.00,KTMT 310535Z AUTO 22007KT CLR 10/M01 A3013 RMK AO2 T00991013 PWINO,M
P68,2023-08-31 05:53,-116.0056,39.6014,1993.00,49.00,30.00,47.68,0.00,0.00,0.00,30.12,1013.10,M,M,M,M,M,M,M,M,M,M,M,M,M,M,M,M,M,49.00,KP68 310553Z AUTO 00000KT 09/M01 A3012 RMK AO1 SLP131 T00941011 10306 20094 51009,M
DRA,2023-08-31 05:53,-116.0278,36.6206,1009.00,81.00,39.00,22.33,80.00,5.00,0.00,29.89,1006.50,10.00,M,CLR,M,M,M,M,M,M,M,M,M,M,M,M,M,M,79.33,KDRA 310553Z AUTO 08005KT 10SM CLR 27/04 A2989 RMK AO2 SLP065 T02720039 10389 20267 51005,M
ELY,2023-08-31 05:53,-114.8453,39.2950,1909.00,55.00,29.00,36.69,280.00,4.00,0.00,30.14,1010.80,10.00,M,CLR,M,M,M,M,M,M,M,M,M,M,M,M,M,M,55.00,KELY 310553Z AUTO 28004KT 10SM CLR 13/M02 A3014 RMK AO2 SLP108 T01281017 10300 20128 53010,M
VGT,2023-08-31 05:53,-115.1933,36.2111,667.00,95.00,45.00,18.06,160.00,6.00,0.00,29.79,1007.00,10.00,M,CLR,M,M,M,M,M,M,M,M,M,M,M,M,M,M,91.10,KVGT 310553Z AUTO 16006KT 10SM CLR 35/07 A2979 RMK AO2 SLP070 T03500072 10428 20339 52008,M
LOL,2023-08-31 05:53,-118.5701,40.0684,1192.43,68.00,20.00,15.90,0.00,0.00,0.00,29.99,1011.80,10.00,M,CLR,M,M,M,M,M,M,M,M,M,M,M,M,M,M,68.00,KLOL 310553Z AUTO 00000KT 10SM CLR 20/M07 A2999 RMK AO2 SLP118 T02001067 10300 20194 51004,M
BVU,2023-08-31 05:55,-114.8611,35.9475,671.00,91.40,44.60,19.89,310.00,6.00,0.00,29.79,M,10.00,M,CLR,M,M,M,M,M,M,M,M,M,M,M,M,M,M,87.68,KBVU 310555Z AUTO 31006KT 10SM CLR 33/07 A2979 RMK AO2,M
CXP,2023-08-31 05:55,-119.7326,39.1923,1431.00,64.40,33.80,31.85,0.00,0.00,0.00,30.06,M,10.00,M,CLR,M,M,M,M,M,M,M,M,M,M,M,M,M,M,64.40,KCXP 310555Z AUTO 00000KT 10SM CLR 18/01 A3006 RMK AO2,M
RNO,2023-08-31 05:55,-119.7711,39.4839,1341.00,71.00,33.00,24.57,250.00,6.00,0.00,30.03,1011.50,10.00,M,CLR,M,M,M,M,M,M,M,M,M,M,M,M,M,M,71.00,KRNO 310555Z 25006KT 10SM CLR 22/01 A3003 RMK AO2 SLP115 HZ ALQDS T02170006 10322 20217 50008,M
RTS,2023-08-31 05:55,-119.8764,39.6682,1539.00,59.00,21.20,22.95,0.00,0.00,0.00,30.08,M,10.00,M,CLR,M,M,M,M,M,M,M,M,M,M,M,M,M,M,59.00,KRTS 310555Z AUTO 00000KT 10SM CLR 15/M06 A3008 RMK AO2,M
05U,2023-08-31 05:55,-116.0051,39.6042,1811.23,50.00,30.20,46.31,M,M,0.00,30.15,M,10.00,M,M,M,M,M,M,M,M,M,M,M,M,M,M,M,M,50.00,K05U 310555Z AUTO 10SM 10/M01 A3015 RMK A01,M
MEV,2023-08-31 05:55,-119.7500,38.9963,1441.42,53.60,37.40,54.07,180.00,3.00,0.00,30.05,M,10.00,M,SCT,BKN,BKN,M,3700.00,4300.00,6000.00,M,M,M,M,M,M,M,M,53.60,KMEV 310555Z AUTO 18003KT 10SM SCT037 BKN043 BKN060 12/03 A3005 RMK AO2,M
HTH,2023-08-31 05:55,-118.6315,38.5448,1282.89,71.60,30.20,21.50,240.00,4.00,0.00,30.01,M,6.00,M,CLR,M,M,M,M,M,M,M,HZ,M,M,M,M,M,M,71.60,KHTH 310555Z AUTO 24004KT 6SM HZ CLR 22/M01 A3001 RMK A01,M
BAM,2023-08-31 05:55,-116.8743,40.5990,1382.36,57.20,26.60,30.69,70.00,4.00,0.00,30.05,M,10.00,M,CLR,M,M,M,M,M,M,M,M,M,M,M,M,M,M,57.20,KBAM 310555Z AUTO 07004KT 10SM CLR 14/M03 A3005 RMK AO1,M
TMT,2023-08-31 05:55,-117.1971,39.4643,1749.34,48.70,30.00,48.21,190.00,4.00,0.00,30.13,M,M,M,CLR,M,M,M,M,M,M,M,M,M,M,M,M,M,M,46.92,KTMT 310555Z AUTO 19004KT CLR 09/M01 A3013 RMK AO2 T00931011 10296 20082 PWINO,M
10U,2023-08-31 05:55,-116.1876,41.9532,1637.00,48.20,33.80,57.26,300.00,4.00,0.00,30.13,M,10.00,M,CLR,M,M,M,M,M,M,M,M,M,M,M,M,M,M,46.34,K10U 310555Z AUTO 30004KT 10SM CLR 09/01 A3013 RMK AO2,M
INS,2023-08-31 05:55,-115.6733,36.5872,955.00,85.60,38.70,19.03,0.00,0.00,0.00,29.88,1006.20,10.00,M,CLR,M,M,M,M,M,M,M,M,M,M,M,M,M,M,82.46,KINS 310555Z AUTO 00000KT 10SM CLR 30/04 A2988 RMK AO2 SLP062 T02980037 10387 20292 52006 $,M
LSV,2023-08-31 05:55,-115.0343,36.2362,570.00,89.00,41.40,18.97,160.00,7.00,0.00,29.74,1004.00,10.00,M,CLR,M,M,M,M,M,M,M,M,M,M,M,M,M,M,85.33,KLSV 310555Z AUTO 16007KT 10SM CLR 32/05 A2974 RMK AO2 SLP040 T03170052 10431 20316 52008 $,M
EKO,2023-08-31 05:56,-115.7860,40.8242,1367.00,57.00,28.00,32.75,50.00,4.00,0.00,30.07,1013.60,10.00,M,CLR,M,M,M,M,M,M,M,M,M,M,M,M,M,M,57.00,KEKO 310556Z AUTO 05004KT 10SM CLR 14/M02 A3007 RMK AO2 SLP136 T01391022 10289 20128 51004 $,M
WMC,2023-08-31 05:56,-117.8072,40.9019,1315.00,58.00,26.00,29.09,350.00,6.00,0.00,30.03,1013.20,10.00,M,CLR,M,M,M,M,M,M,M,M,M,M,M,M,M,M,58.00,KWMC 310556Z AUTO 35006KT 10SM CLR 14/M03 A3003 RMK AO2 SLP132 T01441033 10300 20117 58000,M
NFL,2023-08-31 05:56,-118.7010,39.4166,1199.00,64.00,42.00,44.57,M,5.00,0.00,29.98,1012.30,9.00,M,CLR,M,M,M,M,M,M,M,M,M,M,M,M,M,M,64.00,KNFL 310556Z VRB05KT 9SM CLR 18/06 A2998 RMK AO2 SLP123 T01780056 10306 20172 50002,M
HND,2023-08-31 05:56,-115.1344,35.9729,742.79,92.00,48.00,22.19,220.00,7.00,0.00,29.84,1008.30,10.00,M,CLR,M,M,M,M,M,M,M,M,M,M,M,M,M,M,88.63,KHND 310556Z AUTO 22007KT 10SM CLR 33/09 A2984 RMK AO2 SLP083 T03330089 10417 20333 51006,M
TPH,2023-08-31 05:56,-117.0904,38.0505,1654.00,67.00,33.00,28.18,10.00,7.00,0.00,30.07,1010.30,10.00,M,CLR,M,M,M,M,M,M,M,M,M,M,M,M,M,M,67.00,KTPH 310556Z AUTO 01007KT 10SM CLR 19/01 A3007 RMK AO2 SLP103 T01940006 10322 20189 51006,M
LAS,2023-08-31 05:56,-115.1634,36.0719,663.00,95.00,45.00,18.06,210.00,5.00,0.00,29.80,1005.70,10.00,M,FEW,M,M,M,11000.00,M,M,M,M,M,M,M,M,M,M,91.10,KLAS 310556Z 21005KT 10SM FEW110 35/07 A2980 RMK AO2 SLP057 T03500072 10417 20350 53006,M
05U,2023-08-31 06:10,-116.0051,39.6042,1811.23,50.00,30.20,46.31,M,M,0.00,30.15,M,10.00,M,M,M,M,M,M,M,M,M,M,M,M,M,M,M,M,50.00,K05U 310610Z AUTO 10SM 10/M01 A3015 RMK A01,M
BVU,2023-08-31 06:15,-114.8611,35.9475,671.00,91.40,48.20,22.78,350.00,4.00,0.00,29.80,M,10.00,M,CLR,M,M,M,M,M,M,M,M,M,M,M,M,M,M,88.09,KBVU 310615Z AUTO 35004KT 10SM CLR 33/09 A2980 RMK AO2,M
CXP,2023-08-31 06:15,-119.7326,39.1923,1431.00,62.60,33.80,33.93,0.00,0.00,0.00,30.06,M,10.00,M,CLR,M,M,M,M,M,M,M,M,M,M,M,M,M,M,62.60,KCXP 310615Z AUTO 00000KT 10SM CLR 17/01 A3006 RMK AO2,M
RTS,2023-08-31 06:15,-119.8764,39.6682,1539.00,53.60,21.20,27.91,0.00,0.00,0.00,30.08,M,10.00,M,CLR,M,M,M,M,M,M,M,M,M,M,M,M,M,M,53.60,KRTS 310615Z AUTO 00000KT 10SM CLR 12/M06 A3008 RMK AO2,M
MEV,2023-08-31 06:15,-119.7500,38.9963,1441.42,55.40,37.40,50.64,0.00,0.00,0.00,30.05,M,10.00,M,BKN,OVC,M,M,4100.00,5500.00,M,M,M,M,M,M,M,M,M,55.40,KMEV 310615Z AUTO 00000KT 10SM BKN041 OVC055 13/03 A3005 RMK AO2,M
HTH,2023-08-31 06:15,-118.6315,38.5448,1282.89,69.80,30.20,22.86,0.00,0.00,0.00,30.01,M,10.00,M,CLR,M,M,M,M,M,M,M,M,M,M,M,M,M,M,69.80,KHTH 310615Z AUTO 00000KT 10SM CLR 21/M01 A3001 RMK A01,M
10U,2023-08-31 06:15,-116.1876,41.9532,1637.00,48.20,33.80,57.26,310.00,4.00,0.00,30.13,M,10.00,M,CLR,M,M,M,M,M,M,M,M,M,M,M,M,M,M,46.34,K10U 310615Z AUTO 31004KT 10SM CLR 09/01 A3013 RMK AO2,M
BAM,2023-08-31 06:15,-116.8743,40.5990,1382.36,57.20,24.80,28.48,90.00,4.00,0.00,30.05,M,10.00,M,CLR,M,M,M,M,M,M,M,M,M,M,M,M,M,M,57.20,KBAM 310615Z AUTO 09004KT 10SM CLR 14/M04 A3005 RMK AO1,M
TMT,2023-08-31 06:15,-117.1971,39.4643,1749.34,50.70,31.00,46.61,210.00,5.00,0.00,30.13,M,M,M,CLR,M,M,M,M,M,M,M,M,M,M,M,M,M,M,50.70,KTMT 310615Z AUTO 21005KT CLR 10/00 A3013 RMK AO2 T01041005 PWINO,M
BVU,2023-08-31 06:35,-114.8611,35.9475,671.00,93.20,48.20,21.54,0.00,0.00,0.00,29.80,M,10.00,M,CLR,M,M,M,M,M,M,M,M,M,M,M,M,M,M,89.80,KBVU 310635Z AUTO 00000KT 10SM CLR 34/09 A2980 RMK AO2,M
CXP,2023-08-31 06:35,-119.7326,39.1923,1431.00,60.80,32.00,33.64,0.00,0.00,0.00,30.05,M,10.00,M,CLR,M,M,M,M,M,M,M,M,M,M,M,M,M,M,60.80,KCXP 310635Z AUTO 00000KT 10SM CLR 16/00 A3005 RMK AO2,M
RTS,2023-08-31 06:35,-119.8764,39.6682,1539.00,53.60,21.20,27.91,340.00,5.00,0.00,30.08,M,10.00,M,CLR,M,M,M,M,M,M,M,M,M,M,M,M,M,M,53.60,KRTS 310635Z AUTO 34005KT 10SM CLR 12/M06 A3008 RMK AO2,M
05U,2023-08-31 06:35,-116.0051,39.6042,1811.23,50.00,30.20,46.31,M,M,0.00,30.15,M,10.00,M,M,M,M,M,M,M,M,M,M,M,M,M,M,M,M,50.00,K05U 310635Z AUTO 10SM 10/M01 A3015 RMK A01,M
MEV,2023-08-31 06:35,-119.7500,38.9963,1441.42,55.40,35.60,47.16,150.00,5.00,0.00,30.05,M,10.00,M,BKN,BKN,M,M,4300.00,5500.00,M,M,M,M,M,M,M,M,M,55.40,KMEV 310635Z AUTO 15005KT 10SM BKN043 BKN055 13/02 A3005 RMK AO2,M
HTH,2023-08-31 06:35,-118.6315,38.5448,1282.89,66.20,32.00,27.83,190.00,4.00,0.00,30.01,M,10.00,M,CLR,M,M,M,M,M,M,M,M,M,M,M,M,M,M,66.20,KHTH 310635Z AUTO 19004KT 10SM CLR 19/00 A3001 RMK A01,M
10U,2023-08-31 06:35,-116.1876,41.9532,1637.00,50.00,33.80,53.54,320.00,3.00,0.00,30.13,M,10.00,M,CLR,M,M,M,M,M,M,M,M,M,M,M,M,M,M,50.00,K10U 310635Z AUTO 32003KT 10SM CLR 10/01 A3013 RMK AO2,M
BAM,2023-08-31 06:35,-116.8743,40.5990,1382.36,51.80,23.00,32.17,70.00,3.00,0.00,30.05,M,10.00,M,CLR,M,M,M,M,M,M,M,M,M,M,M,M,M,M,51.80,KBAM 310635Z AUTO 07003KT 10SM CLR 11/M05 A3005 RMK AO1,M
TMT,2023-08-31 06:35,-117.1971,39.4643,1749.34,47.50,34.00,59.26,230.00,5.00,0.00,30.13,M,M,M,CLR,M,M,M,M,M,M,M,M,M,M,M,M,M,M,44.80,KTMT 310635Z AUTO 23005KT CLR 09/01 A3013 RMK AO2 T00860012 PWINO,M
05U,2023-08-31 06:50,-116.0051,39.6042,1811.23,50.00,28.40,43.03,M,M,0.00,30.14,M,10.00,M,M,M,M,M,M,M,M,M,M,M,M,M,M,M,M,50.00,K05U 310650Z AUTO 10SM 10/M02 A3014 RMK A01,M
P68,2023-08-31 06:53,-116.0056,39.6014,1993.00,51.00,30.00,44.26,180.00,3.00,0.00,30.12,1012.50,M,M,M,M,M,M,M,M,M,M,M,M,M,M,M,M,M,51.00,KP68 310653Z AUTO 18003KT 11/M01 A3012 RMK AO1 SLP125 T01061011,M
DRA,2023-08-31 06:53,-116.0278,36.6206,1009.00,79.00,38.00,22.93,40.00,6.00,0.00,29.89,1006.30,10.00,M,CLR,M,M,M,M,M,M,M,M,M,M,M,M,M,M,79.00,KDRA 310653Z AUTO 04006KT 10SM CLR 26/03 A2989 RMK AO2 SLP063 T02610033,M
ELY,2023-08-31 06:53,-114.8453,39.2950,1909.00,51.00,30.00,44.26,190.00,5.00,0.00,30.14,1010.80,10.00,M,CLR,M,M,M,M,M,M,M,M,M,M,M,M,M,M,51.00,KELY 310653Z AUTO 19005KT 10SM CLR 11/M01 A3014 RMK AO2 SLP108 T01061011,M
VGT,2023-08-31 06:53,-115.1933,36.2111,667.00,95.00,42.00,16.10,220.00,8.00,0.00,29.79,1006.90,10.00,M,CLR,M,M,M,M,M,M,M,M,M,M,M,M,M,M,90.79,KVGT 310653Z AUTO 22008KT 10SM CLR 35/06 A2979 RMK AO2 SLP069 T03500056,M
LOL,2023-08-31 06:53,-118.5701,40.0684,1192.43,58.00,28.00,31.59,0.00,0.00,0.00,29.98,1012.20,10.00,M,CLR,M,M,M,M,M,M,M,M,M,M,M,M,M,M,58.00,KLOL 310653Z AUTO 00000KT 10SM CLR 14/M02 A2998 RMK AO2 SLP122 T01441022,M
BVU,2023-08-31 06:55,-114.8611,35.9475,671.00,87.80,53.60,31.17,10.00,4.00,0.00,29.80,M,10.00,M,CLR,M,M,M,M,M,M,M,M,M,M,M,M,M,M,85.72,KBVU 310655Z AUTO 01004KT 10SM CLR 31/12 A2980 RMK AO2,M
CXP,2023-08-31 06:55,-119.7326,39.1923,1431.00,59.00,35.60,41.42,0.00,0.00,0.00,30.05,M,10.00,M,CLR,M,M,M,M,M,M,M,M,M,M,M,M,M,M,59.00,KCXP 310655Z AUTO 00000KT 10SM CLR 15/02 A3005 RMK AO2,M
RNO,2023-08-31 06:55,-119.7711,39.4839,1341.00,68.00,33.00,27.23,M,3.00,0.00,30.02,1011.30,10.00,M,CLR,M,M,M,M,M,M,M,M,M,M,M,M,M,M,68.00,KRNO 310655Z VRB03KT 10SM CLR 20/01 A3002 RMK AO2 SLP113 HZ ALQDS T02000006,M
RTS,2023-08-31 06:55,-119.8764,39.6682,1539.00,57.20,23.00,26.42,330.00,5.00,0.00,30.07,M,10.00,M,CLR,M,M,M,M,M,M,M,M,M,M,M,M,M,M,57.20,KRTS 310655Z AUTO 33005KT 10SM CLR 14/M05 A3007 RMK AO2,M
MEV,2023-08-31 06:55,-119.7500,38.9963,1441.42,51.80,33.80,50.08,100.00,5.00,0.00,30.04,M,10.00,M,BKN,BKN,M,M,4400.00,5500.00,M,M,M,M,M,M,M,M,M,51.80,KMEV 310655Z AUTO 10005KT 10SM BKN044 BKN055 11/01 A3004 RMK AO2,M
HTH,2023-08-31 06:55,-118.6315,38.5448,1282.89,69.80,32.00,24.59,0.00,0.00,0.00,30.00,M,10.00,M,CLR,M,M,M,M,M,M,M,M,M,M,M,M,M,M,69.80,KHTH 310655Z AUTO 00000KT 10SM CLR 21/00 A3000 RMK A01,M
BAM,2023-08-31 06:55,-116.8743,40.5990,1382.36,50.00,23.00,34.39,150.00,3.00,0.00,30.06,M,10.00,M,CLR,M,M,M,M,M,M,M,M,M,M,M,M,M,M,50.00,KBAM 310655Z AUTO 15003KT 10SM CLR 10/M05 A3006 RMK AO1,M
TMT,2023-08-31 06:55,-117.1971,39.4643,1749.34,46.60,33.80,60.81,0.00,0.00,0.00,30.13,M,M,M,CLR,M,M,M,M,M,M,M,M,M,M,M,M,M,M,46.60,KTMT 310655Z AUTO 00000KT CLR 08/01 A3013 RMK AO2 T00810010 PWINO,M
10U,2023-08-31 06:55,-116.1876,41.9532,1637.00,48.20,32.00,53.27,0.00,0.00,0.00,30.12,M,10.00,M,CLR,M,M,M,M,M,M,M,M,M,M,M,M,M,M,48.20,K10U 310655Z AUTO 00000KT 10SM CLR 09/00 A3012 RMK AO2,M
INS,2023-08-31 06:55,-115.6733,36.5872,955.00,81.00,38.70,22.07,0.00,0.00,0.00,29.88,1006.30,10.00,M,CLR,M,M,M,M,M,M,M,M,M,M,M,M,M,M,79.31,KINS 310655Z AUTO 00000KT 10SM CLR 27/04 A2988 RMK AO2 SLP063 T02730037 $,M
LSV,2023-08-31 06:55,-115.0343,36.2362,570.00,90.50,44.00,19.99,310.00,3.00,0.00,29.74,1003.80,10.00,M,CLR,M,M,M,M,M,M,M,M,M,M,M,M,M,M,86.81,KLSV 310655Z AUTO 31003KT 10SM CLR 33/07 A2974 RMK AO2 SLP038 T03250066 $,M
EKO,2023-08-31 06:56,-115.7860,40.8242,1367.00,56.00,28.00,33.96,0.00,0.00,0.00,30.07,1013.40,10.00,M,CLR,M,M,M,M,M,M,M,M,M,M,M,M,M,M,56.00,KEKO 310656Z AUTO 00000KT 10SM CLR 13/M02 A3007 RMK AO2 SLP134 T01331022 $,M
WMC,2023-08-31 06:56,-117.8072,40.9019,1315.00,57.00,25.00,28.93,80.00,6.00,0.00,30.03,1012.90,10.00,M,CLR,M,M,M,M,M,M,M,M,M,M,M,M,M,M,57.00,KWMC 310656Z AUTO 08006KT 10SM CLR 14/M04 A3003 RMK AO2 SLP129 T01391039,M
NFL,2023-08-31 06:56,-118.7010,39.4166,1199.00,60.00,41.00,49.39,0.00,0.00,0.00,29.97,1012.00,10.00,M,CLR,M,M,M,M,M,M,M,M,M,M,M,M,M,M,60.00,KNFL 310656Z AUTO 00000KT 10SM CLR 16/05 A2997 RMK AO2 SLP120 T01560050,M
HND,2023-08-31 06:56,-115.1344,35.9729,742.79,91.00,47.00,22.05,210.00,10.00,0.00,29.85,1008.50,10.00,M,CLR,M,M,M,M,M,M,M,M,M,M,M,M,M,M,87.57,KHND 310656Z AUTO 21010KT 10SM CLR 33/08 A2985 RMK AO2 SLP085 T03280083 404280278,M
TPH,2023-08-31 06:56,-117.0904,38.0505,1654.00,62.00,35.00,36.35,340.00,6.00,0.00,30.07,1010.40,10.00,M,CLR,M,M,M,M,M,M,M,M,M,M,M,M,M,M,62.00,KTPH 310656Z AUTO 34006KT 10SM CLR 17/02 A3007 RMK AO2 SLP104 T01670017,M
LAS,2023-08-31 06:56,-115.1634,36.0719,663.00,95.00,41.00,15.49,230.00,8.00,0.00,29.81,1005.80,10.00,M,BKN,M,M,M,13000.00,M,M,M,M,M,M,M,M,M,M,90.70,KLAS 310656Z 23008KT 10SM BKN130 35/05 A2981 RMK AO2 SLP058 T03500050,M
BVU,2023-08-31 07:15,-114.8611,35.9475,671.00,87.80,55.40,33.29,0.00,0.00,0.00,29.80,M,10.00,M,CLR,M,M,M,M,M,M,M,M,M,M,M,M,M,M,86.11,KBVU 310715Z AUTO 00000KT 10SM CLR 31/13 A2980 RMK AO2,M
CXP,2023-08-31 07:15,-119.7326,39.1923,1431.00,59.00,35.60,41.42,0.00,0.00,0.00,30.05,M,10.00,M,CLR,M,M,M,M,M,M,M,M,M,M,M,M,M,M,59.00,KCXP 310715Z AUTO 00000KT 10SM CLR 15/02 A3005 RMK AO2,M
RTS,2023-08-31 07:15,-119.8764,39.6682,1539.00,53.60,21.20,27.91,350.00,5.00,0.00,30.07,M,10.00,M,CLR,M,M,M,M,M,M,M,M,M,M,M,M,M,M,53.60,KRTS 310715Z AUTO 35005KT 10SM CLR 12/M06 A3007 RMK AO2,M
05U,2023-08-31 07:15,-116.0051,39.6042,1811.23,50.00,28.40,43.03,M,M,0.00,30.14,M,10.00,M,M,M,M,M,M,M,M,M,M,M,M,M,M,M,M,50.00,K05U 310715Z AUTO 10SM 10/M02 A3014 RMK A01,M
MEV,2023-08-31 07:15,-119.7500,38.9963,1441.42,51.80,33.80,50.08,100.00,5.00,0.00,30.04,M,10.00,M,BKN,BKN,BKN,M,4100.00,4600.00,5000.00,M,M,M,M,M,M,M,M,51.80,KMEV 310715Z AUTO 10005KT 10SM BKN041 BKN046 BKN050 11/01 A3004 RMK AO2,M
HTH,2023-08-31 07:15,-118.6315,38.5448,1282.89,68.00,33.80,28.11,210.00,5.00,0.00,30.00,M,10.00,M,CLR,M,M,M,M,M,M,M,M,M,M,M,M,M,M,68.00,KHTH 310715Z AUTO 21005KT 10SM CLR 20/01 A3000 RMK A01,M
10U,2023-08-31 07:15,-116.1876,41.9532,1637.00,44.60,32.00,61.03,270.00,3.00,0.00,30.12,M,10.00,M,CLR,M,M,M,M,M,M,M,M,M,M,M,M,M,M,43.09,K10U 310715Z AUTO 27003KT 10SM CLR 07/00 A3012 RMK AO2,M
BAM,2023-08-31 07:15,-116.8743,40.5990,1382.36,51.80,23.00,32.17,140.00,3.00,0.00,30.05,M,10.00,M,CLR,M,M,M,M,M,M,M,M,M,M,M,M,M,M,51.80,KBAM 310715Z AUTO 14003KT 10SM CLR 11/M05 A3005 RMK AO1,M
TMT,2023-08-31 07:15,-117.1971,39.4643,1749.34,47.30,33.00,57.36,240.00,3.00,0.00,30.12,M,M,M,CLR,M,M,M,M,M,M,M,M,M,M,M,M,M,M,46.18,KTMT 310715Z AUTO 24003KT CLR 09/01 A3012 RMK AO2 T00850005 PWINO,M
05U,2023-08-31 07:30,-116.0051,39.6042,1811.23,48.20,28.40,46.02,M,M,0.00,30.14,M,10.00,M,M,M,M,M,M,M,M,M,M,M,M,M,M,M,M,M,K05U 310730Z AUTO 10SM 09/M02 A3014 RMK A01,M
BVU,2023-08-31 07:35,-114.8611,35.9475,671.00,89.60,53.60,29.45,350.00,4.00,0.00,29.80,M,10.00,M,CLR,M,M,M,M,M,M,M,M,M,M,M,M,M,M,87.36,KBVU 310735Z AUTO 35004KT 10SM CLR 32/12 A2980 RMK AO2,M
CXP,2023-08-31 07:35,-119.7326,39.1923,1431.00,59.00,33.80,38.56,0.00,0.00,0.00,30.05,M,10.00,M,CLR,M,M,M,M,M,M,M,M,M,M,M,M,M,M,59.00,KCXP 310735Z AUTO 00000KT 10SM CLR 15/01 A3005 RMK AO2,M
RTS,2023-08-31 07:35,-119.8764,39.6682,1539.00,53.60,21.20,27.91,340.00,4.00,0.00,30.06,M,10.00,M,CLR,M,M,M,M,M,M,M,M,M,M,M,M,M,M,53.60,KRTS 310735Z AUTO 34004KT 10SM CLR 12/M06 A3006 RMK AO2,M
MEV,2023-08-31 07:35,-119.7500,38.9963,1441.42,50.00,33.80,53.54,110.00,4.00,0.00,30.04,M,10.00,M,FEW,BKN,BKN,M,4000.00,4800.00,5500.00,M,M,M,M,M,M,M,M,50.00,KMEV 310735Z AUTO 11004KT 10SM FEW040 BKN048 BKN055 10/01 A3004 RMK AO2,M
HTH,2023-08-31 07:35,-118.6315,38.5448,1282.89,66.20,33.80,29.92,210.00,5.00,0.00,30.00,M,10.00,M,CLR,M,M,M,M,M,M,M,M,M,M,M,M,M,M,66.20,KHTH 310735Z AUTO 21005KT 10SM CLR 19/01 A3000 RMK A01,M
10U,2023-08-31 07:35,-116.1876,41.9532,1637.00,44.60,32.00,61.03,300.00,4.00,0.00,30.11,M,10.00,M,CLR,M,M,M,M,M,M,M,M,M,M,M,M,M,M,42.13,K10U 310735Z AUTO 30004KT 10SM CLR 07/00 A3011 RMK AO2,M
BAM,2023-08-31 07:35,-116.8743,40.5990,1382.36,51.80,23.00,32.17,130.00,4.00,0.00,30.05,M,10.00,M,CLR,M,M,M,M,M,M,M,M,M,M,M,M,M,M,51.80,KBAM 310735Z AUTO 13004KT 10SM CLR 11/M05 A3005 RMK AO1,M
TMT,2023-08-31 07:35,-117.1971,39.4643,1749.34,44.20,32.00,61.97,0.00,0.00,0.00,30.12,M,M,M,CLR,M,M,M,M,M,M,M,M,M,M,M,M,M,M,44.20,KTMT 310735Z AUTO 00000KT CLR 07/00 A3012 RMK AO2 T00681001 PWINO,M
P68,2023-08-31 07:53,-116.0056,39.6014,1993.00,50.00,30.00,45.93,190.00,4.00,0.00,30.12,1012.30,M,M,M,M,M,M,M,M,M,M,M,M,M,M,M,M,M,50.00,KP68 310753Z AUTO 19004KT 10/M01 A3012 RMK AO1 SLP123 T01001011 403110061,M
DRA,2023-08-31 07:53,-116.0278,36.6206,1009.00,79.00,37.00,22.05,0.00,0.00,0.00,29.88,1006.00,10.00,M,CLR,M,M,M,M,M,M,M,M,M,M,M,M,M,M,79.00,KDRA 310753Z AUTO 00000KT 10SM CLR 26/03 A2988 RMK AO2 SLP060 T02610028 403940189,M
ELY,2023-08-31 07:53,-114.8453,39.2950,1909.00,49.00,29.00,45.77,170.00,9.00,0.00,30.14,1010.80,10.00,M,CLR,M,M,M,M,M,M,M,M,M,M,M,M,M,M,44.65,KELY 310753Z AUTO 17009KT 10SM CLR 09/M02 A3014 RMK AO2 SLP108 T00941017 403110061,M
VGT,2023-08-31 07:53,-115.1933,36.2111,667.00,94.00,40.00,15.37,M,5.00,0.00,29.80,1007.10,10.00,M,CLR,M,M,M,M,M,M,M,M,M,M,M,M,M,M,89.70,KVGT 310753Z AUTO VRB05KT 10SM CLR 34/04 A2980 RMK AO2 SLP071 T03440044 404330267,M
LOL,2023-08-31 07:53,-118.5701,40.0684,1192.43,56.00,29.00,35.38,0.00,0.00,0.00,29.97,1011.80,10.00,M,CLR,M,M,M,M,M,M,M,M,M,M,M,M,M,M,56.00,KLOL 310753Z AUTO 00000KT 10SM CLR 13/M02 A2997 RMK AO2 SLP118 T01331017 403060133,M
BVU,2023-08-31 07:55,-114.8611,35.9475,671.00,87.80,55.40,33.29,330.00,4.00,0.00,29.80,M,10.00,M,CLR,M,M,M,M,M,M,M,M,M,M,M,M,M,M,86.11,KBVU 310755Z AUTO 33004KT 10SM CLR 31/13 A2980 RMK AO2,M
CXP,2023-08-31 07:55,-119.7326,39.1923,1431.00,57.20,33.80,41.13,0.00,0.00,0.00,30.05,M,10.00,M,CLR,M,M,M,M,M,M,M,M,M,M,M,M,M,M,57.20,KCXP 310755Z AUTO 00000KT 10SM CLR 14/01 A3005 RMK AO2,M
RNO,2023-08-31 07:55,-119.7711,39.4839,1341.00,66.00,33.00,29.18,260.00,3.00,0.00,30.02,1010.90,10.00,M,CLR,M,M,M,M,M,M,M,M,M,M,M,M,M,M,66.00,KRNO 310755Z 26003KT 10SM CLR 19/01 A3002 RMK AO2 SLP109 HZ ALQDS T01890006 403220128,M
RTS,2023-08-31 07:55,-119.8764,39.6682,1539.00,55.40,23.00,28.20,330.00,4.00,0.00,30.06,M,10.00,M,CLR,M,M,M,M,M,M,M,M,M,M,M,M,M,M,55.40,KRTS 310755Z AUTO 33004KT 10SM CLR 13/M05 A3006 RMK AO2,M
05U,2023-08-31 07:55,-116.0051,39.6042,1811.23,48.20,28.40,46.02,M,M,0.00,30.14,M,10.00,M,M,M,M,M,M,M,M,M,M,M,M,M,M,M,M,M,K05U 310755Z AUTO 10SM 09/M02 A3014 RMK A01,M
MEV,2023-08-31 07:55,-119.7500,38.9963,1441.42,53.60,33.80,46.88,0.00,0.00,0.00,30.04,M,10.00,M,SCT,BKN,M,M,4600.00,5500.00,M,M,M,M,M,M,M,M,M,53.60,KMEV 310755Z AUTO 00000KT 10SM SCT046 BKN055 12/01 A3004 RMK AO2,M
HTH,2023-08-31 07:55,-118.6315,38.5448,1282.89,64.40,32.00,29.63,220.00,6.00,0.00,30.00,M,10.00,M,CLR,M,M,M,M,M,M,M,M,M,M,M,M,M,M,64.40,KHTH 310755Z AUTO 22006KT 10SM CLR 18/00 A3000 RMK A01,M
BAM,2023-08-31 07:55,-116.8743,40.5990,1382.36,50.00,23.00,34.39,90.00,3.00,0.00,30.05,M,10.00,M,CLR,M,M,M,M,M,M,M,M,M,M,M,M,M,M,50.00,KBAM 310755Z AUTO 09003KT 10SM CLR 10/M05 A3005 RMK AO1,M
TMT,2023-08-31 07:55,-117.1971,39.4643,1749.34,41.00,31.00,67.30,0.00,0.00,0.00,30.12,M,M,M,CLR,M,M,M,M,M,M,M,M,M,M,M,M,M,M,41.00,KTMT 310755Z AUTO 00000KT CLR 05/M01 A3012 RMK AO2 T00501006 403010000 PWINO,M
10U,2023-08-31 07:55,-116.1876,41.9532,1637.00,42.80,30.20,60.79,0.00,0.00,0.00,30.11,M,10.00,M,CLR,M,M,M,M,M,M,M,M,M,M,M,M,M,M,42.80,K10U 310755Z AUTO 00000KT 10SM CLR 06/M01 A3011 RMK AO2,M
INS,2023-08-31 07:55,-115.6733,36.5872,955.00,79.00,39.20,24.03,250.00,4.00,0.00,29.88,1006.30,10.00,M,CLR,M,M,M,M,M,M,M,M,M,M,M,M,M,M,79.00,KINS 310755Z AUTO 25004KT 10SM CLR 26/04 A2988 RMK AO2 SLP063 T02620040 403940188 $,M
LSV,2023-08-31 07:55,-115.0343,36.2362,570.00,87.80,41.70,19.93,40.00,4.00,0.00,29.75,1004.30,10.00,M,SCT,M,M,M,13000.00,M,M,M,M,M,M,M,M,M,M,84.34,KLSV 310755Z AUTO 04004KT 10SM SCT130 31/05 A2975 RMK AO2 SLP043 T03100054 404410238 $,M
EKO,2023-08-31 07:56,-115.7860,40.8242,1367.00,50.00,29.00,44.10,0.00,0.00,0.00,30.07,1013.80,10.00,M,CLR,M,M,M,M,M,M,M,M,M,M,M,M,M,M,50.00,KEKO 310756Z AUTO 00000KT 10SM CLR 10/M02 A3007 RMK AO2 SLP138 T01001017 402940067 $,M
WMC,2023-08-31 07:56,-117.8072,40.9019,1315.00,57.00,27.00,31.43,80.00,8.00,0.00,30.02,1012.40,10.00,M,CLR,M,M,M,M,M,M,M,M,M,M,M,M,M,M,57.00,KWMC 310756Z AUTO 08008KT 10SM CLR 14/M03 A3002 RMK AO2 SLP124 T01391028 403000067 $,M
NFL,2023-08-31 07:56,-118.7010,39.4166,1199.00,59.00,42.00,53.20,240.00,3.00,0.00,29.97,1011.90,9.00,M,CLR,M,M,M,M,M,M,M,M,M,M,M,M,M,M,59.00,KNFL 310756Z AUTO 24003KT 9SM CLR 15/06 A2997 RMK AO2 SLP119 T01500056 403060111,M
HND,2023-08-31 07:56,-115.1344,35.9729,742.79,91.00,42.00,18.23,220.00,11.00,0.00,29.85,1008.50,10.00,M,CLR,M,M,M,M,M,M,M,M,M,M,M,M,M,M,87.11,KHND 310756Z AUTO 22011KT 10SM CLR 33/06 A2985 RMK AO2 SLP085 T03280056,M
TPH,2023-08-31 07:56,-117.0904,38.0505,1654.00,60.00,35.00,39.03,350.00,7.00,0.00,30.06,1010.20,10.00,M,CLR,M,M,M,M,M,M,M,M,M,M,M,M,M,M,60.00,KTPH 310756Z AUTO 35007KT 10SM CLR 16/02 A3006 RMK AO2 SLP102 T01560017 403220139,M
LAS,2023-08-31 07:56,-115.1634,36.0719,663.00,95.00,39.00,14.33,230.00,9.00,0.00,29.80,1005.70,10.00,M,BKN,M,M,M,14000.00,M,M,M,M,M,M,M,M,M,M,90.55,KLAS 310756Z 23009KT 10SM BKN140 35/04 A2980 RMK AO2 SLP057 T03500039 404280289,M
05U,2023-08-31 08:10,-116.0051,39.6042,1811.23,48.20,28.40,46.02,M,M,0.00,30.14,M,10.00,M,M,M,M,M,M,M,M,M,M,M,M,M,M,M,M,M,K05U 310810Z AUTO 10SM 09/M02 A3014 RMK A01,M
BVU,2023-08-31 08:15,-114.8611,35.9475,671.00,87.80,53.60,31.17,0.00,0.00,0.00,29.80,M,10.00,M,CLR,M,M,M,M,M,M,M,M,M,M,M,M,M,M,85.72,KBVU 310815Z AUTO 00000KT 10SM CLR 31/12 A2980 RMK AO2,M
CXP,2023-08-31 08:15,-119.7326,39.1923,1431.00,59.00,33.80,38.56,0.00,0.00,0.00,30.05,M,10.00,M,CLR,M,M,M,M,M,M,M,M,M,M,M,M,M,M,59.00,KCXP 310815Z AUTO 00000KT 10SM CLR 15/01 A3005 RMK AO2,M
RTS,2023-08-31 08:15,-119.8764,39.6682,1539.00,53.60,21.20,27.91,360.00,5.00,0.00,30.05,M,10.00,M,CLR,M,M,M,M,M,M,M,M,M,M,M,M,M,M,53.60,KRTS 310815Z AUTO 36005KT 10SM CLR 12/M06 A3005 RMK AO2,M
MEV,2023-08-31 08:15,-119.7500,38.9963,1441.42,53.60,35.60,50.36,0.00,0.00,0.00,30.03,M,10.00,M,FEW,BKN,BKN,M,3700.00,5000.00,5500.00,M,M,M,M,M,M,M,M,53.60,KMEV 310815Z AUTO 00000KT 10SM FEW037 BKN050 BKN055 12/02 A3003 RMK AO2,M
HTH,2023-08-31 08:15,-118.6315,38.5448,1282.89,64.40,32.00,29.63,210.00,3.00,0.00,30.00,M,10.00,M,CLR,M,M,M,M,M,M,M,M,M,M,M,M,M,M,64.40,KHTH 310815Z AUTO 21003KT 10SM CLR 18/00 A3000 RMK A01,M
10U,2023-08-31 08:15,-116.1876,41.9532,1637.00,41.00,28.40,60.54,0.00,0.00,0.00,30.11,M,10.00,M,CLR,M,M,M,M,M,M,M,M,M,M,M,M,M,M,41.00,K10U 310815Z AUTO 00000KT 10SM CLR 05/M02 A3011 RMK AO2,M
BAM,2023-08-31 08:15,-116.8743,40.5990,1382.36,48.20,21.20,34.09,100.00,3.00,0.00,30.04,M,10.00,M,CLR,M,M,M,M,M,M,M,M,M,M,M,M,M,M,47.21,KBAM 310815Z AUTO 10003KT 10SM CLR 09/M06 A3004 RMK AO1,M
TMT,2023-08-31 08:15,-117.1971,39.4643,1749.34,42.80,31.30,63.56,0.00,0.00,0.00,30.11,M,M,M,CLR,M,M,M,M,M,M,M,M,M,M,M,M,M,M,42.80,KTMT 310815Z AUTO 00000KT CLR 06/00 A3011 RMK AO2 T00601004 PWINO,M
BVU,2023-08-31 08:35,-114.8611,35.9475,671.00,86.00,55.40,35.25,30.00,3.00,0.00,29.80,M,10.00,M,CLR,M,M,M,M,M,M,M,M,M,M,M,M,M,M,84.54,KBVU 310835Z AUTO 03003KT 10SM CLR 30/13 A2980 RMK AO2,M
CXP,2023-08-31 08:35,-119.7326,39.1923,1431.00,59.00,33.80,38.56,0.00,0.00,0.00,30.05,M,10.00,M,CLR,M,M,M,M,M,M,M,M,M,M,M,M,M,M,59.00,KCXP 310835Z AUTO 00000KT 10SM CLR 15/01 A3005 RMK AO2,M
RTS,2023-08-31 08:35,-119.8764,39.6682,1539.00,55.40,26.60,32.76,0.00,0.00,0.00,30.05,M,10.00,M,CLR,M,M,M,M,M,M,M,M,M,M,M,M,M,M,55.40,KRTS 310835Z AUTO 00000KT 10SM CLR 13/M03 A3005 RMK AO2,M
05U,2023-08-31 08:35,-116.0051,39.6042,1811.23,48.20,28.40,46.02,M,M,0.00,30.13,M,10.00,M,M,M,M,M,M,M,M,M,M,M,M,M,M,M,M,M,K05U 310835Z AUTO 10SM 09/M02 A3013 RMK A01,M
MEV,2023-08-31 08:35,-119.7500,38.9963,1441.42,50.00,35.60,57.52,0.00,0.00,0.00,30.03,M,10.00,M,FEW,SCT,OVC,M,3700.00,4400.00,5000.00,M,M,M,M,M,M,M,M,50.00,KMEV 310835Z AUTO 00000KT 10SM FEW037 SCT044 OVC050 10/02 A3003 RMK AO2,M
HTH,2023-08-31 08:35,-118.6315,38.5448,1282.89,64.40,33.80,31.85,180.00,4.00,0.00,29.99,M,10.00,M,CLR,M,M,M,M,M,M,M,M,M,M,M,M,M,M,64.40,KHTH 310835Z AUTO 18004KT 10SM CLR 18/01 A2999 RMK A01,M
10U,2023-08-31 08:35,-116.1876,41.9532,1637.00,46.40,33.80,61.28,0.00,0.00,0.00,30.10,M,10.00,M,CLR,M,M,M,M,M,M,M,M,M,M,M,M,M,M,46.40,K10U 310835Z AUTO 00000KT 10SM CLR 08/01 A3010 RMK AO2,M
BAM,2023-08-31 08:35,-116.8743,40.5990,1382.36,44.60,21.20,39.06,130.00,3.00,0.00,30.04,M,10.00,M,CLR,M,M,M,M,M,M,M,M,M,M,M,M,M,M,43.09,KBAM 310835Z AUTO 13003KT 10SM CLR 07/M06 A3004 RMK AO1,M
TMT,2023-08-31 08:35,-117.1971,39.4643,1749.34,40.60,30.40,66.71,0.00,0.00,0.00,30.10,M,M,M,CLR,M,M,M,M,M,M,M,M,M,M,M,M,M,M,40.60,KTMT 310835Z AUTO 00000KT CLR 05/M01 A3010 RMK AO2 T00481009 PWINO,M
P68,2023-08-31 08:53,-116.0056,39.6014,1993.00,51.00,29.00,42.49,190.00,5.00,0.00,30.11,1011.60,M,M,M,M,M,M,M,M,M,M,M,M,M,M,M,M,M,51.00,KP68 310853Z AUTO 19005KT 11/M02 A3011 RMK AO1 SLP116 T01061017 58005,M
DRA,2023-08-31 08:53,-116.0278,36.6206,1009.00,77.00,36.00,22.64,330.00,4.00,0.00,29.88,1006.20,10.00,M,CLR,M,M,M,M,M,M,M,M,M,M,M,M,M,M,77.00,KDRA 310853Z AUTO 33004KT 10SM CLR 25/02 A2988 RMK AO2 SLP062 T02500022 55002,M
ELY,2023-08-31 08:53,-114.8453,39.2950,1909.00,47.00,28.00,47.36,170.00,5.00,0.00,30.14,1011.10,10.00,M,CLR,M,M,M,M,M,M,M,M,M,M,M,M,M,M,44.21,KELY 310853Z AUTO 17005KT 10SM CLR 08/M02 A3014 RMK AO2 SLP111 T00831022 52000,M
VGT,2023-08-31 08:53,-115.1933,36.2111,667.00,92.00,40.00,16.35,240.00,5.00,0.00,29.79,1006.90,10.00,M,CLR,M,M,M,M,M,M,M,M,M,M,M,M,M,M,87.88,KVGT 310853Z AUTO 24005KT 10SM CLR 33/04 A2979 RMK AO2 SLP069 T03330044 50000,M
LOL,2023-08-31 08:53,-118.5701,40.0684,1192.43,60.00,29.00,30.64,10.00,6.00,0.00,29.96,1010.90,10.00,M,CLR,M,M,M,M,M,M,M,M,M,M,M,M,M,M,60.00,KLOL 310853Z AUTO 01006KT 10SM CLR 16/M02 A2996 RMK AO2 SLP109 T01561017 58008,M
BVU,2023-08-31 08:55,-114.8611,35.9475,671.00,84.20,55.40,37.35,0.00,0.00,0.00,29.80,M,10.00,M,CLR,M,M,M,M,M,M,M,M,M,M,M,M,M,M,83.09,KBVU 310855Z AUTO 00000KT 10SM CLR 29/13 A2980 RMK AO2,M
CXP,2023-08-31 08:55,-119.7326,39.1923,1431.00,59.00,33.80,38.56,0.00,0.00,0.00,30.04,M,10.00,M,CLR,M,M,M,M,M,M,M,M,M,M,M,M,M,M,59.00,KCXP 310855Z AUTO 00000KT 10SM CLR 15/01 A3004 RMK AO2,M
RNO,2023-08-31 08:55,-119.7711,39.4839,1341.00,64.00,33.00,31.28,230.00,4.00,0.00,30.01,1010.60,10.00,M,CLR,M,M,M,M,M,M,M,M,M,M,M,M,M,M,64.00,KRNO 310855Z 23004KT 10SM CLR 18/01 A3001 RMK AO2 SLP106 HZ ALQDS T01780006 58007,M
RTS,2023-08-31 08:55,-119.8764,39.6682,1539.00,53.60,23.00,30.11,0.00,0.00,0.00,30.05,M,10.00,M,CLR,M,M,M,M,M,M,M,M,M,M,M,M,M,M,53.60,KRTS 310855Z AUTO 00000KT 10SM CLR 12/M05 A3005 RMK AO2,M
HTH,2023-08-31 08:55,-118.6315,38.5448,1282.89,62.60,32.00,31.56,200.00,5.00,0.00,29.99,M,10.00,M,CLR,M,M,M,M,M,M,M,M,M,M,M,M,M,M,62.60,KHTH 310855Z AUTO 20005KT 10SM CLR 17/00 A2999 RMK A01,M
05U,2023-08-31 08:55,-116.0051,39.6042,1811.23,50.00,28.40,43.03,M,M,0.00,30.13,M,10.00,M,M,M,M,M,M,M,M,M,M,M,M,M,M,M,M,50.00,K05U 310855Z AUTO 10SM 10/M02 A3013 RMK A01,M
MEV,2023-08-31 08:55,-119.7500,38.9963,1441.42,48.20,35.60,61.52,0.00,0.00,0.00,30.03,M,10.00,M,FEW,BKN,BKN,M,4500.00,5000.00,6500.00,M,M,M,M,M,M,M,M,48.20,KMEV 310855Z AUTO 00000KT 10SM FEW045 BKN050 BKN065 09/02 A3003 RMK AO2,M
BAM,2023-08-31 08:55,-116.8743,40.5990,1382.36,46.40,21.20,36.48,0.00,0.00,0.00,30.04,M,10.00,M,CLR,M,M,M,M,M,M,M,M,M,M,M,M,M,M,46.40,KBAM 310855Z AUTO 00000KT 10SM CLR 08/M06 A3004 RMK AO1,M
TMT,2023-08-31 08:55,-117.1971,39.4643,1749.34,43.00,32.00,64.88,0.00,0.00,0.00,30.10,M,M,M,CLR,M,M,M,M,M,M,M,M,M,M,M,M,M,M,43.00,KTMT 310855Z AUTO 00000KT CLR 06/00 A3010 RMK AO2 T00610000 PWINO,M
10U,2023-08-31 08:55,-116.1876,41.9532,1637.00,42.80,32.00,65.38,160.00,3.00,0.00,30.10,M,10.00,M,CLR,M,M,M,M,M,M,M,M,M,M,M,M,M,M,41.03,K10U 310855Z AUTO 16003KT 10SM CLR 06/00 A3010 RMK AO2,M
INS,2023-08-31 08:55,-115.6733,36.5872,955.00,76.00,37.80,25.13,0.00,0.00,0.00,29.88,1006.20,10.00,M,CLR,M,M,M,M,M,M,M,M,M,M,M,M,M,M,76.00,KINS 310855Z AUTO 00000KT 10SM CLR 25/03 A2988 RMK AO2 SLP062 T02450032 50000 $,M
LSV,2023-08-31 08:55,-115.0343,36.2362,570.00,86.70,43.30,21.95,10.00,3.00,0.00,29.75,1004.30,10.00,M,CLR,M,M,M,M,M,M,M,M,M,M,M,M,M,M,83.54,KLSV 310855Z AUTO 01003KT 10SM CLR 30/06 A2975 RMK AO2 SLP043 T03040063 50003 $,M
EKO,2023-08-31 08:56,-115.7860,40.8242,1367.00,47.00,31.00,53.52,0.00,0.00,0.00,30.07,1013.70,10.00,M,CLR,M,M,M,M,M,M,M,M,M,M,M,M,M,M,47.00,KEKO 310856Z AUTO 00000KT 10SM CLR 08/M01 A3007 RMK AO2 SLP137 T00831006 58001 $,M
WMC,2023-08-31 08:56,-117.8072,40.9019,1315.00,61.00,27.00,27.24,80.00,6.00,0.00,30.02,1011.80,10.00,M,CLR,M,M,M,M,M,M,M,M,M,M,M,M,M,M,61.00,KWMC 310856Z AUTO 08006KT 10SM CLR 16/M03 A3002 RMK AO2 SLP118 T01611028 58004 $,M
NFL,2023-08-31 08:56,-118.7010,39.4166,1199.00,58.00,42.00,55.14,240.00,3.00,0.00,29.96,1011.70,9.00,M,CLR,M,M,M,M,M,M,M,M,M,M,M,M,M,M,58.00,KNFL 310856Z AUTO 24003KT 9SM CLR 14/06 A2996 RMK AO2 SLP117 T01440056 56006,M
HND,2023-08-31 08:56,-115.1344,35.9729,742.79,90.00,41.00,18.10,210.00,13.00,0.00,29.84,1008.20,10.00,M,CLR,M,M,M,M,M,M,M,M,M,M,M,M,M,M,86.16,KHND 310856Z AUTO 21013KT 10SM CLR 32/05 A2984 RMK AO2 SLP082 T03220050 58000,M
TPH,2023-08-31 08:56,-117.0904,38.0505,1654.00,58.00,34.00,40.28,340.00,7.00,0.00,30.06,1010.00,10.00,M,CLR,M,M,M,M,M,M,M,M,M,M,M,M,M,M,58.00,KTPH 310856Z AUTO 34007KT 10SM CLR 14/01 A3006 RMK AO2 SLP100 T01440011 58003,M
LAS,2023-08-31 08:56,-115.1634,36.0719,663.00,92.00,39.00,15.73,240.00,10.00,0.00,29.80,1005.70,10.00,M,BKN,M,M,M,14000.00,M,M,M,M,M,M,M,M,M,M,87.83,KLAS 310856Z 24010KT 10SM BKN140 33/04 A2980 RMK AO2 SLP057 T03330039 50001,M
05U,2023-08-31 09:10,-116.0051,39.6042,1811.23,48.20,26.60,42.73,M,M,0.00,30.12,M,10.00,M,M,M,M,M,M,M,M,M,M,M,M,M,M,M,M,M,K05U 310910Z AUTO 10SM 09/M03 A3012 RMK A01,M
BVU,2023-08-31 09:15,-114.8611,35.9475,671.00,84.20,53.60,34.97,0.00,0.00,0.00,29.80,M,10.00,M,CLR,M,M,M,M,M,M,M,M,M,M,M,M,M,M,82.76,KBVU 310915Z AUTO 00000KT 10SM CLR 29/12 A2980 RMK AO2,M
CXP,2023-08-31 09:15,-119.7326,39.1923,1431.00,57.20,35.60,44.19,0.00,0.00,0.00,30.04,M,10.00,M,CLR,M,M,M,M,M,M,M,M,M,M,M,M,M,M,57.20,KCXP 310915Z AUTO 00000KT 10SM CLR 14/02 A3004 RMK AO2,M
RTS,2023-08-31 09:15,-119.8764,39.6682,1539.00,48.20,23.00,36.78,340.00,4.00,0.00,30.04,M,10.00,M,CLR,M,M,M,M,M,M,M,M,M,M,M,M,M,M,46.34,KRTS 310915Z AUTO 34004KT 10SM CLR 09/M05 A3004 RMK AO2,M
10U,2023-08-31 09:15,-116.1876,41.9532,1637.00,41.00,32.00,70.08,0.00,0.00,0.00,30.10,M,10.00,M,CLR,M,M,M,M,M,M,M,M,M,M,M,M,M,M,41.00,K10U 310915Z AUTO 00000KT 10SM CLR 05/M00 A3010 RMK AO2,M
BAM,2023-08-31 09:15,-116.8743,40.5990,1382.36,46.40,23.00,39.36,0.00,0.00,0.00,30.04,M,10.00,M,CLR,M,M,M,M,M,M,M,M,M,M,M,M,M,M,46.40,KBAM 310915Z AUTO 00000KT 10SM CLR 08/M05 A3004 RMK AO1,M
TMT,2023-08-31 09:15,-117.1971,39.4643,1749.34,42.60,31.00,63.28,0.00,0.00,0.00,30.10,M,M,M,CLR,M,M,M,M,M,M,M,M,M,M,M,M,M,M,42.60,KTMT 310915Z AUTO 00000KT CLR 06/00 A3010 RMK AO2 T00591005 PWINO,M
BVU,2023-08-31 09:35,-114.8611,35.9475,671.00,86.00,51.80,30.90,60.00,3.00,0.00,29.80,M,10.00,M,CLR,M,M,M,M,M,M,M,M,M,M,M,M,M,M,83.87,KBVU 310935Z AUTO 06003KT 10SM CLR 30/11 A2980 RMK AO2,M
CXP,2023-08-31 09:35,-119.7326,39.1923,1431.00,55.40,35.60,47.16,0.00,0.00,0.00,30.03,M,10.00,M,CLR,M,M,M,M,M,M,M,M,M,M,M,M,M,M,55.40,KCXP 310935Z AUTO 00000KT 10SM CLR 13/02 A3003 RMK AO2,M
RTS,2023-08-31 09:35,-119.8764,39.6682,1539.00,51.80,23.00,32.17,360.00,3.00,0.00,30.04,M,10.00,M,CLR,M,M,M,M,M,M,M,M,M,M,M,M,M,M,51.80,KRTS 310935Z AUTO 36003KT 10SM CLR 11/M05 A3004 RMK AO2,M
05U,2023-08-31 09:35,-116.0051,39.6042,1811.23,46.40,28.40,49.24,M,M,0.00,30.12,M,10.00,M,M,M,M,M,M,M,M,M,M,M,M,M,M,M,M,M,K05U 310935Z AUTO 10SM 08/M02 A3012 RMK A01,M
MEV,2023-08-31 09:35,-119.7500,38.9963,1441.42,50.00,33.80,53.54,0.00,0.00,0.00,30.02,M,10.00,M,FEW,SCT,BKN,M,3500.00,4900.00,5500.00,M,M,M,M,M,M,M,M,50.00,KMEV 310935Z AUTO 00000KT 10SM FEW035 SCT049 BKN055 10/01 A3002 RMK AO2,M
HTH,2023-08-31 09:35,-118.6315,38.5448,1282.89,62.60,32.00,31.56,0.00,0.00,0.00,29.98,M,10.00,M,CLR,M,M,M,M,M,M,M,M,M,M,M,M,M,M,62.60,KHTH 310935Z AUTO 00000KT 10SM CLR 17/M00 A2998 RMK A01,M
10U,2023-08-31 09:35,-116.1876,41.9532,1637.00,41.00,30.20,65.16,260.00,3.00,0.00,30.10,M,10.00,M,CLR,M,M,M,M,M,M,M,M,M,M,M,M,M,M,38.98,K10U 310935Z AUTO 26003KT 10SM CLR 05/M01 A3010 RMK AO2,M
BAM,2023-08-31 09:35,-116.8743,40.5990,1382.36,46.40,26.60,45.73,40.00,6.00,0.00,30.04,M,10.00,M,CLR,M,M,M,M,M,M,M,M,M,M,M,M,M,M,42.87,KBAM 310935Z AUTO 04006KT 10SM CLR 08/M03 A3004 RMK AO1,M
TMT,2023-08-31 09:35,-117.1971,39.4643,1749.34,42.00,32.00,67.42,210.00,3.00,0.00,30.10,M,M,M,CLR,M,M,M,M,M,M,M,M,M,M,M,M,M,M,40.12,KTMT 310935Z AUTO 21003KT CLR 06/00 A3010 RMK AO2 T00550000 PWINO,M
05U,2023-08-31 09:50,-116.0051,39.6042,1811.23,46.40,28.40,49.24,M,M,0.00,30.12,M,10.00,M,M,M,M,M,M,M,M,M,M,M,M,M,M,M,M,M,K05U 310950Z AUTO 10SM 08/M02 A3012 RMK A01,M
P68,2023-08-31 09:53,-116.0056,39.6014,1993.00,47.00,29.00,49.34,190.00,5.00,0.00,30.09,1011.40,M,M,M,M,M,M,M,M,M,M,M,M,M,M,M,M,M,44.21,KP68 310953Z AUTO 19005KT 08/M02 A3009 RMK AO1 SLP114 T00831017,M
DRA,2023-08-31 09:53,-116.0278,36.6206,1009.00,79.00,35.00,20.37,340.00,5.00,0.00,29.88,1005.60,10.00,M,CLR,M,M,M,M,M,M,M,M,M,M,M,M,M,M,79.00,KDRA 310953Z AUTO 34005KT 10SM CLR 26/02 A2988 RMK AO2 SLP056 T02610017,M
ELY,2023-08-31 09:53,-114.8453,39.2950,1909.00,45.00,28.00,51.08,180.00,9.00,0.00,30.13,1010.80,10.00,M,CLR,M,M,M,M,M,M,M,M,M,M,M,M,M,M,39.68,KELY 310953Z AUTO 18009KT 10SM CLR 07/M02 A3013 RMK AO2 SLP108 T00721022,M
VGT,2023-08-31 09:53,-115.1933,36.2111,667.00,93.00,38.00,14.66,210.00,7.00,0.00,29.79,1006.70,10.00,M,CLR,M,M,M,M,M,M,M,M,M,M,M,M,M,M,88.68,KVGT 310953Z AUTO 21007KT 10SM CLR 34/03 A2979 RMK AO2 SLP067 T03390033,M
LOL,2023-08-31 09:53,-118.5701,40.0684,1192.43,62.00,29.00,28.54,360.00,3.00,0.00,29.95,1010.50,10.00,M,CLR,M,M,M,M,M,M,M,M,M,M,M,M,M,M,62.00,KLOL 310953Z AUTO 36003KT 10SM CLR 17/M02 A2995 RMK AO2 SLP105 T01671017,M
BVU,2023-08-31 09:55,-114.8611,35.9475,671.00,84.20,51.80,32.73,40.00,4.00,0.00,29.80,M,10.00,M,CLR,M,M,M,M,M,M,M,M,M,M,M,M,M,M,82.48,KBVU 310955Z AUTO 04004KT 10SM CLR 29/11 A2980 RMK AO2,M
CXP,2023-08-31 09:55,-119.7326,39.1923,1431.00,55.40,37.40,50.64,0.00,0.00,0.00,30.03,M,10.00,M,CLR,M,M,M,M,M,M,M,M,M,M,M,M,M,M,55.40,KCXP 310955Z AUTO 00000KT 10SM CLR 13/03 A3003 RMK AO2,M
RNO,2023-08-31 09:55,-119.7711,39.4839,1341.00,62.00,34.00,34.93,0.00,0.00,0.00,29.99,1010.20,10.00,M,CLR,M,M,M,M,M,M,M,M,M,M,M,M,M,M,62.00,KRNO 310955Z 00000KT 10SM CLR 17/01 A2999 RMK AO2 SLP102 HZ ALQDS T01670011,M
RTS,2023-08-31 09:55,-119.8764,39.6682,1539.00,50.00,23.00,34.39,340.00,5.00,0.00,30.03,M,10.00,M,CLR,M,M,M,M,M,M,M,M,M,M,M,M,M,M,50.00,KRTS 310955Z AUTO 34005KT 10SM CLR 10/M05 A3003 RMK AO2,M
MEV,2023-08-31 09:55,-119.7500,38.9963,1441.42,48.20,35.60,61.52,0.00,0.00,0.00,30.01,M,10.00,M,FEW,SCT,BKN,M,3200.00,4700.00,5000.00,M,M,M,M,M,M,M,M,48.20,KMEV 310955Z AUTO 00000KT 10SM FEW032 SCT047 BKN050 09/02 A3001 RMK AO2,M
HTH,2023-08-31 09:55,-118.6315,38.5448,1282.89,60.80,33.80,36.16,0.00,0.00,0.00,29.98,M,10.00,M,CLR,M,M,M,M,M,M,M,M,M,M,M,M,M,M,60.80,KHTH 310955Z AUTO 00000KT 10SM CLR 16/01 A2998 RMK A01,M
BAM,2023-08-31 09:55,-116.8743,40.5990,1382.36,50.00,28.40,43.03,20.00,7.00,0.00,30.03,M,10.00,M,CLR,M,M,M,M,M,M,M,M,M,M,M,M,M,M,50.00,KBAM 310955Z AUTO 02007KT 10SM CLR 10/M02 A3003 RMK AO1,M
TMT,2023-08-31 09:55,-117.1971,39.4643,1749.34,37.40,29.00,71.40,120.00,4.00,0.00,30.10,M,M,M,CLR,M,M,M,M,M,M,M,M,M,M,M,M,M,M,33.73,KTMT 310955Z AUTO 12004KT CLR 03/M02 A3010 RMK AO2 T00301017 PWINO,M
10U,2023-08-31 09:55,-116.1876,41.9532,1637.00,41.00,32.00,70.08,0.00,0.00,0.00,30.09,M,10.00,M,CLR,M,M,M,M,M,M,M,M,M,M,M,M,M,M,41.00,K10U 310955Z AUTO 00000KT 10SM CLR 05/00 A3009 RMK AO2,M
INS,2023-08-31 09:55,-115.6733,36.5872,955.00,75.00,37.80,25.98,200.00,3.00,0.00,29.87,1005.80,10.00,M,CLR,M,M,M,M,M,M,M,M,M,M,M,M,M,M,75.00,KINS 310955Z AUTO 20003KT 10SM CLR 24/03 A2987 RMK AO2 SLP058 T02390032 $,M
LSV,2023-08-31 09:55,-115.0343,36.2362,570.00,82.40,44.00,25.89,360.00,5.00,0.00,29.74,1004.00,10.00,M,CLR,M,M,M,M,M,M,M,M,M,M,M,M,M,M,80.46,KLSV 310955Z AUTO 36005KT 10SM CLR 28/07 A2974 RMK AO2 SLP040 T02800067 $,M
EKO,2023-08-31 09:56,-115.7860,40.8242,1367.00,48.00,29.00,47.52,90.00,3.00,0.00,30.07,1013.50,10.00,M,CLR,M,M,M,M,M,M,M,M,M,M,M,M,M,M,46.98,KEKO 310956Z AUTO 09003KT 10SM CLR 09/M02 A3007 RMK AO2 SLP135 T00891017 $,M
WMC,2023-08-31 09:56,-117.8072,40.9019,1315.00,61.00,27.00,27.24,50.00,10.00,0.00,29.99,1011.00,10.00,M,CLR,M,M,M,M,M,M,M,M,M,M,M,M,M,M,61.00,KWMC 310956Z AUTO 05010KT 10SM CLR 16/M03 A2999 RMK AO2 SLP110 T01611028 $,M
NFL,2023-08-31 09:56,-118.7010,39.4166,1199.00,57.00,39.00,50.88,0.00,0.00,0.00,29.95,1011.30,10.00,M,CLR,M,M,M,M,M,M,M,M,M,M,M,M,M,M,57.00,KNFL 310956Z AUTO 00000KT 10SM CLR 14/04 A2995 RMK AO2 SLP113 T01390039,M
HND,2023-08-31 09:56,-115.1344,35.9729,742.79,89.00,40.00,17.96,200.00,10.00,0.00,29.84,1008.20,10.00,M,CLR,M,M,M,M,M,M,M,M,M,M,M,M,M,M,85.26,KHND 310956Z AUTO 20010KT 10SM CLR 32/04 A2984 RMK AO2 SLP082 T03170044,M
TPH,2023-08-31 09:56,-117.0904,38.0505,1654.00,57.00,33.00,40.12,340.00,8.00,0.00,30.05,1009.70,10.00,M,CLR,M,M,M,M,M,M,M,M,M,M,M,M,M,M,57.00,KTPH 310956Z AUTO 34008KT 10SM CLR 14/01 A3005 RMK AO2 SLP097 T01390006,M
LAS,2023-08-31 09:56,-115.1634,36.0719,663.00,91.00,38.00,15.60,220.00,10.00,0.00,29.80,1005.50,10.00,M,SCT,M,M,M,14000.00,M,M,M,M,M,M,M,M,M,M,86.90,KLAS 310956Z 22010KT 10SM SCT140 33/03 A2980 RMK AO2 SLP055 T03280033,M
BVU,2023-08-31 10:15,-114.8611,35.9475,671.00,82.40,51.80,34.69,0.00,0.00,0.00,29.80,M,10.00,M,CLR,M,M,M,M,M,M,M,M,M,M,M,M,M,M,81.20,KBVU 311015Z AUTO 00000KT 10SM CLR 28/11 A2980 RMK AO2,M
CXP,2023-08-31 10:15,-119.7326,39.1923,1431.00,53.60,35.60,50.36,0.00,0.00,0.00,30.02,M,10.00,M,CLR,M,M,M,M,M,M,M,M,M,M,M,M,M,M,53.60,KCXP 311015Z AUTO 00000KT 10SM CLR 12/02 A3002 RMK AO2,M
RTS,2023-08-31 10:15,-119.8764,39.6682,1539.00,51.80,23.00,32.17,320.00,5.00,0.00,30.03,M,10.00,M,CLR,M,M,M,M,M,M,M,M,M,M,M,M,M,M,51.80,KRTS 311015Z AUTO 32005KT 10SM CLR 11/M05 A3003 RMK AO2,M
05U,2023-08-31 10:15,-116.0051,39.6042,1811.23,46.40,28.40,49.24,M,M,0.00,30.11,M,10.00,M,M,M,M,M,M,M,M,M,M,M,M,M,M,M,M,M,K05U 311015Z AUTO 10SM 08/M02 A3011 RMK A01,M
MEV,2023-08-31 10:15,-119.7500,38.9963,1441.42,46.40,33.80,61.28,0.00,0.00,0.00,30.01,M,10.00,M,FEW,SCT,SCT,M,3700.00,4700.00,5500.00,M,M,M,M,M,M,M,M,46.40,KMEV 311015Z AUTO 00000KT 10SM FEW037 SCT047 SCT055 08/01 A3001 RMK AO2,M
HTH,2023-08-31 10:15,-118.6315,38.5448,1282.89,60.80,33.80,36.16,0.00,0.00,0.00,29.97,M,10.00,M,CLR,M,M,M,M,M,M,M,M,M,M,M,M,M,M,60.80,KHTH 311015Z AUTO 00000KT 10SM CLR 16/01 A2997 RMK A01,M
10U,2023-08-31 10:15,-116.1876,41.9532,1637.00,39.20,30.20,69.88,110.00,6.00,0.00,30.09,M,10.00,M,CLR,M,M,M,M,M,M,M,M,M,M,M,M,M,M,34.20,K10U 311015Z AUTO 11006KT 10SM CLR 04/M01 A3009 RMK AO2,M
BAM,2023-08-31 10:15,-116.8743,40.5990,1382.36,51.80,28.40,40.25,30.00,4.00,0.00,30.02,M,10.00,M,CLR,M,M,M,M,M,M,M,M,M,M,M,M,M,M,51.80,KBAM 311015Z AUTO 03004KT 10SM CLR 11/M02 A3002 RMK AO1,M
TMT,2023-08-31 10:15,-117.1971,39.4643,1749.34,38.30,29.50,70.35,0.00,0.00,0.00,30.09,M,M,M,CLR,M,M,M,M,M,M,M,M,M,M,M,M,M,M,38.30,KTMT 311015Z AUTO 00000KT CLR 04/M01 A3009 RMK AO2 T00351014 PWINO,M
05U,2023-08-31 10:30,-116.0051,39.6042,1811.23,46.40,28.40,49.24,M,M,0.00,30.10,M,10.00,M,M,M,M,M,M,M,M,M,M,M,M,M,M,M,M,M,K05U 311030Z AUTO 10SM 08/M02 A3010 RMK A01,M
BVU,2023-08-31 10:35,-114.8611,35.9475,671.00,82.40,51.80,34.69,0.00,0.00,0.00,29.79,M,10.00,M,CLR,M,M,M,M,M,M,M,M,M,M,M,M,M,M,81.20,KBVU 311035Z AUTO 00000KT 10SM CLR 28/11 A2979 RMK AO2,M
CXP,2023-08-31 10:35,-119.7326,39.1923,1431.00,53.60,37.40,54.07,0.00,0.00,0.00,30.02,M,10.00,M,CLR,M,M,M,M,M,M,M,M,M,M,M,M,M,M,53.60,KCXP 311035Z AUTO 00000KT 10SM CLR 12/03 A3002 RMK AO2,M
RTS,2023-08-31 10:35,-119.8764,39.6682,1539.00,50.00,24.80,37.08,0.00,0.00,0.00,30.03,M,10.00,M,CLR,M,M,M,M,M,M,M,M,M,M,M,M,M,M,50.00,KRTS 311035Z AUTO 00000KT 10SM CLR 10/M04 A3003 RMK AO2,M
MEV,2023-08-31 10:35,-119.7500,38.9963,1441.42,44.60,32.00,61.03,0.00,0.00,0.00,30.00,M,10.00,M,FEW,FEW,SCT,M,3500.00,4600.00,5500.00,M,M,M,M,M,M,M,M,44.60,KMEV 311035Z AUTO 00000KT 10SM FEW035 FEW046 SCT055 07/00 A3000 RMK AO2,M
HTH,2023-08-31 10:35,-118.6315,38.5448,1282.89,62.60,37.40,39.14,0.00,0.00,0.00,29.97,M,10.00,M,CLR,M,M,M,M,M,M,M,M,M,M,M,M,M,M,62.60,KHTH 311035Z AUTO 00000KT 10SM CLR 17/03 A2997 RMK A01,M
10U,2023-08-31 10:35,-116.1876,41.9532,1637.00,42.80,32.00,65.38,80.00,4.00,0.00,30.08,M,10.00,M,CLR,M,M,M,M,M,M,M,M,M,M,M,M,M,M,40.03,K10U 311035Z AUTO 08004KT 10SM CLR 06/00 A3008 RMK AO2,M
BAM,2023-08-31 10:35,-116.8743,40.5990,1382.36,50.00,26.60,39.95,0.00,0.00,0.00,30.02,M,10.00,M,CLR,M,M,M,M,M,M,M,M,M,M,M,M,M,M,50.00,KBAM 311035Z AUTO 00000KT 10SM CLR 10/M03 A3002 RMK AO1,M
TMT,2023-08-31 10:35,-117.1971,39.4643,1749.34,39.20,30.00,69.31,0.00,0.00,0.00,30.09,M,M,M,CLR,M,M,M,M,M,M,M,M,M,M,M,M,M,M,39.20,KTMT 311035Z AUTO 00000KT CLR 04/M01 A3009 RMK AO2 T00401011 PWINO,M
P68,2023-08-31 10:53,-116.0056,39.6014,1993.00,46.00,29.00,51.24,160.00,5.00,0.00,30.08,1010.60,M,M,M,M,M,M,M,M,M,M,M,M,M,M,M,M,M,43.02,KP68 311053Z AUTO 16005KT 08/M02 A3008 RMK AO1 SLP106 T00781017,M
DRA,2023-08-31 10:53,-116.0278,36.6206,1009.00,79.00,34.00,19.57,320.00,6.00,0.00,29.87,1005.50,10.00,M,CLR,M,M,M,M,M,M,M,M,M,M,M,M,M,M,79.00,KDRA 311053Z AUTO 32006KT 10SM CLR 26/01 A2987 RMK AO2 SLP055 T02610011,M
ELY,2023-08-31 10:53,-114.8453,39.2950,1909.00,45.00,29.00,53.22,170.00,8.00,0.00,30.12,1010.10,10.00,M,CLR,M,M,M,M,M,M,M,M,M,M,M,M,M,M,40.13,KELY 311053Z AUTO 17008KT 10SM CLR 07/M02 A3012 RMK AO2 SLP101 T00721017,M
VGT,2023-08-31 10:53,-115.1933,36.2111,667.00,90.00,39.00,16.74,280.00,4.00,0.00,29.78,1006.70,10.00,M,CLR,M,M,M,M,M,M,M,M,M,M,M,M,M,M,86.07,KVGT 311053Z AUTO 28004KT 10SM CLR 32/04 A2978 RMK AO2 SLP067 T03220039,M
LOL,2023-08-31 10:53,-118.5701,40.0684,1192.43,54.00,30.00,39.63,230.00,4.00,0.00,29.94,1010.40,10.00,M,CLR,M,M,M,M,M,M,M,M,M,M,M,M,M,M,54.00,KLOL 311053Z AUTO 23004KT 10SM CLR 12/M01 A2994 RMK AO2 SLP104 T01221011,M
BVU,2023-08-31 10:55,-114.8611,35.9475,671.00,82.40,51.80,34.69,100.00,3.00,0.00,29.79,M,10.00,M,CLR,M,M,M,M,M,M,M,M,M,M,M,M,M,M,81.20,KBVU 311055Z AUTO 10003KT 10SM CLR 28/11 A2979 RMK AO2,M
CXP,2023-08-31 10:55,-119.7326,39.1923,1431.00,51.80,37.40,57.77,0.00,0.00,0.00,30.02,M,10.00,M,CLR,M,M,M,M,M,M,M,M,M,M,M,M,M,M,51.80,KCXP 311055Z AUTO 00000KT 10SM CLR 11/03 A3002 RMK AO2,M
RNO,2023-08-31 10:55,-119.7711,39.4839,1341.00,61.00,35.00,37.66,0.00,0.00,0.00,29.98,1009.50,10.00,M,CLR,M,M,M,M,M,M,M,M,M,M,M,M,M,M,61.00,KRNO 311055Z 00000KT 10SM CLR 16/02 A2998 RMK AO2 SLP095 HZ ALQDS T01610017,M
RTS,2023-08-31 10:55,-119.8764,39.6682,1539.00,51.80,23.00,32.17,0.00,0.00,0.00,30.02,M,10.00,M,CLR,M,M,M,M,M,M,M,M,M,M,M,M,M,M,51.80,KRTS 311055Z AUTO 00000KT 10SM CLR 11/M05 A3002 RMK AO2,M
05U,2023-08-31 10:55,-116.0051,39.6042,1811.23,44.60,28.40,52.72,M,M,0.00,30.10,M,10.00,M,M,M,M,M,M,M,M,M,M,M,M,M,M,M,M,M,K05U 311055Z AUTO 10SM 07/M02 A3010 RMK A01,M
MEV,2023-08-31 10:55,-119.7500,38.9963,1441.42,42.80,33.80,70.28,0.00,0.00,0.00,30.00,M,10.00,M,FEW,SCT,M,M,3300.00,4500.00,M,M,M,M,M,M,M,M,M,42.80,KMEV 311055Z AUTO 00000KT 10SM FEW033 SCT045 06/01 A3000 RMK AO2,M
HTH,2023-08-31 10:55,-118.6315,38.5448,1282.89,60.80,35.60,38.85,0.00,0.00,0.00,29.97,M,10.00,M,CLR,M,M,M,M,M,M,M,M,M,M,M,M,M,M,60.80,KHTH 311055Z AUTO 00000KT 10SM CLR 16/02 A2997 RMK A01,M
BAM,2023-08-31 10:55,-116.8743,40.5990,1382.36,50.00,28.40,43.03,10.00,5.00,0.00,30.01,M,10.00,M,CLR,M,M,M,M,M,M,M,M,M,M,M,M,M,M,50.00,KBAM 311055Z AUTO 01005KT 10SM CLR 10/M02 A3001 RMK AO1,M
TMT,2023-08-31 10:55,-117.1971,39.4643,1749.34,39.20,29.30,67.36,0.00,0.00,0.00,30.08,M,M,M,CLR,M,M,M,M,M,M,M,M,M,M,M,M,M,M,39.20,KTMT 311055Z AUTO 00000KT CLR 04/M01 A3008 RMK AO2 T00401015 PWINO,M
10U,2023-08-31 10:55,-116.1876,41.9532,1637.00,44.60,32.00,61.03,120.00,6.00,0.00,30.08,M,10.00,M,CLR,M,M,M,M,M,M,M,M,M,M,M,M,M,M,40.71,K10U 311055Z AUTO 12006KT 10SM CLR 07/00 A3008 RMK AO2,M
INS,2023-08-31 10:55,-115.6733,36.5872,955.00,74.70,36.50,24.93,0.00,0.00,0.00,29.86,1005.60,10.00,M,CLR,M,M,M,M,M,M,M,M,M,M,M,M,M,M,74.70,KINS 311055Z AUTO 00000KT 10SM CLR 24/03 A2986 RMK AO2 SLP056 T02370025 $,M
LSV,2023-08-31 10:55,-115.0343,36.2362,570.00,81.50,43.30,25.95,340.00,4.00,0.00,29.74,1004.00,10.00,M,CLR,M,M,M,M,M,M,M,M,M,M,M,M,M,M,79.86,KLSV 311055Z AUTO 34004KT 10SM CLR 28/06 A2974 RMK AO2 SLP040 T02750063 $,M
EKO,2023-08-31 10:56,-115.7860,40.8242,1367.00,49.00,30.00,47.68,30.00,4.00,0.00,30.06,1013.10,10.00,M,CLR,M,M,M,M,M,M,M,M,M,M,M,M,M,M,47.27,KEKO 311056Z AUTO 03004KT 10SM CLR 09/M01 A3006 RMK AO2 SLP131 T00941011 $,M
WMC,2023-08-31 10:56,-117.8072,40.9019,1315.00,60.00,27.00,28.23,60.00,9.00,0.00,29.98,1010.30,10.00,M,CLR,M,M,M,M,M,M,M,M,M,M,M,M,M,M,60.00,KWMC 311056Z AUTO 06009KT 10SM CLR 16/M03 A2998 RMK AO2 SLP103 T01561028 $,M
NFL,2023-08-31 10:56,-118.7010,39.4166,1199.00,54.00,40.00,58.99,140.00,3.00,0.00,29.94,1011.00,9.00,M,CLR,M,M,M,M,M,M,M,M,M,M,M,M,M,M,54.00,KNFL 311056Z AUTO 14003KT 9SM CLR 12/04 A2994 RMK AO2 SLP110 T01220044,M
HND,2023-08-31 10:56,-115.1344,35.9729,742.79,88.00,39.00,17.83,200.00,14.00,0.00,29.84,1008.00,10.00,M,CLR,M,M,M,M,M,M,M,M,M,M,M,M,M,M,84.38,KHND 311056Z AUTO 20014KT 10SM CLR 31/04 A2984 RMK AO2 SLP080 T03110039,M
TPH,2023-08-31 10:56,-117.0904,38.0505,1654.00,56.00,33.00,41.60,330.00,8.00,0.00,30.04,1009.30,10.00,M,CLR,M,M,M,M,M,M,M,M,M,M,M,M,M,M,56.00,KTPH 311056Z AUTO 33008KT 10SM CLR 13/01 A3004 RMK AO2 SLP093 T01330006,M
LAS,2023-08-31 10:56,-115.1634,36.0719,663.00,93.00,36.00,13.55,230.00,10.00,0.00,29.80,1005.50,10.00,M,FEW,M,M,M,14000.00,M,M,M,M,M,M,M,M,M,M,88.59,KLAS 311056Z 23010KT 10SM FEW140 34/02 A2980 RMK AO2 SLP055 T03390022,M
05U,2023-08-31 11:10,-116.0051,39.6042,1811.23,46.40,28.40,49.24,M,M,0.00,30.10,M,10.00,M,M,M,M,M,M,M,M,M,M,M,M,M,M,M,M,M,K05U 311110Z AUTO 10SM 08/M02 A3010 RMK A01,M
BVU,2023-08-31 11:15,-114.8611,35.9475,671.00,84.20,48.20,28.63,0.00,0.00,0.00,29.79,M,10.00,M,CLR,M,M,M,M,M,M,M,M,M,M,M,M,M,M,82.04,KBVU 311115Z AUTO 00000KT 10SM CLR 29/09 A2979 RMK AO2,M
CXP,2023-08-31 11:15,-119.7326,39.1923,1431.00,51.80,37.40,57.77,0.00,0.00,0.00,30.01,M,10.00,M,CLR,M,M,M,M,M,M,M,M,M,M,M,M,M,M,51.80,KCXP 311115Z AUTO 00000KT 10SM CLR 11/03 A3001 RMK AO2,M
RTS,2023-08-31 11:15,-119.8764,39.6682,1539.00,50.00,26.60,39.95,0.00,0.00,0.00,30.02,M,10.00,M,CLR,M,M,M,M,M,M,M,M,M,M,M,M,M,M,50.00,KRTS 311115Z AUTO 00000KT 10SM CLR 10/M03 A3002 RMK AO2,M
MEV,2023-08-31 11:15,-119.7500,38.9963,1441.42,42.80,33.80,70.28,0.00,0.00,0.00,30.00,M,10.00,M,FEW,FEW,M,M,3200.00,4400.00,M,M,M,M,M,M,M,M,M,42.80,KMEV 311115Z AUTO 00000KT 10SM FEW032 FEW044 06/01 A3000 RMK AO2,M
HTH,2023-08-31 11:15,-118.6315,38.5448,1282.89,60.80,33.80,36.16,0.00,0.00,0.00,29.96,M,10.00,M,CLR,M,M,M,M,M,M,M,M,M,M,M,M,M,M,60.80,KHTH 311115Z AUTO 00000KT 10SM CLR 16/01 A2996 RMK A01,M
BAM,2023-08-31 11:15,-116.8743,40.5990,1382.36,50.00,28.40,43.03,10.00,3.00,0.00,30.01,M,10.00,M,CLR,M,M,M,M,M,M,M,M,M,M,M,M,M,M,50.00,KBAM 311115Z AUTO 01003KT 10SM CLR 10/M02 A3001 RMK AO1,M
TMT,2023-08-31 11:15,-117.1971,39.4643,1749.34,39.00,29.30,67.89,0.00,0.00,0.00,30.08,M,M,M,CLR,M,M,M,M,M,M,M,M,M,M,M,M,M,M,39.00,KTMT 311115Z AUTO 00000KT CLR 04/M01 A3008 RMK AO2 T00381015 PWINO,M
05U,2023-08-31 11:30,-116.0051,39.6042,1811.23,44.60,28.40,52.72,M,M,0.00,30.10,M,10.00,M,M,M,M,M,M,M,M,M,M,M,M,M,M,M,M,M,K05U 311130Z AUTO 10SM 07/M02 A3010 RMK A01,M
BVU,2023-08-31 11:35,-114.8611,35.9475,671.00,80.60,50.00,34.41,0.00,0.00,0.00,29.79,M,10.00,M,CLR,M,M,M,M,M,M,M,M,M,M,M,M,M,M,79.88,KBVU 311135Z AUTO 00000KT 10SM CLR 27/10 A2979 RMK AO2,M
CXP,2023-08-31 11:35,-119.7326,39.1923,1431.00,51.80,37.40,57.77,0.00,0.00,0.00,30.00,M,10.00,M,CLR,M,M,M,M,M,M,M,M,M,M,M,M,M,M,51.80,KCXP 311135Z AUTO 00000KT 10SM CLR 11/03 A3000 RMK AO2,M
RTS,2023-08-31 11:35,-119.8764,39.6682,1539.00,48.20,24.80,39.66,0.00,0.00,0.00,30.01,M,10.00,M,CLR,M,M,M,M,M,M,M,M,M,M,M,M,M,M,48.20,KRTS 311135Z AUTO 00000KT 10SM CLR 09/M04 A3001 RMK AO2,M
MEV,2023-08-31 11:35,-119.7500,38.9963,1441.42,44.60,33.80,65.61,100.00,4.00,0.00,29.99,M,10.00,M,FEW,FEW,M,M,3000.00,4000.00,M,M,M,M,M,M,M,M,M,42.13,KMEV 311135Z AUTO 10004KT 10SM FEW030 FEW040 07/01 A2999 RMK AO2,M
HTH,2023-08-31 11:35,-118.6315,38.5448,1282.89,59.00,35.60,41.42,190.00,4.00,0.00,29.96,M,10.00,M,CLR,M,M,M,M,M,M,M,M,M,M,M,M,M,M,59.00,KHTH 311135Z AUTO 19004KT 10SM CLR 15/02 A2996 RMK A01,M
BAM,2023-08-31 11:35,-116.8743,40.5990,1382.36,46.40,28.40,49.24,50.00,3.00,0.00,30.01,M,10.00,M,CLR,M,M,M,M,M,M,M,M,M,M,M,M,M,M,45.15,KBAM 311135Z AUTO 05003KT 10SM CLR 08/M02 A3001 RMK AO1,M
P68,2023-08-31 11:53,-116.0056,39.6014,1993.00,44.00,28.00,53.07,0.00,0.00,0.00,30.07,1010.50,M,M,M,M,M,M,M,M,M,M,M,M,M,M,M,M,M,44.00,KP68 311153Z AUTO 00000KT 07/M02 A3007 RMK AO1 SLP105 T00671022 10111 20061 56010,M
DRA,2023-08-31 11:53,-116.0278,36.6206,1009.00,75.00,36.00,24.20,360.00,4.00,0.00,29.87,1005.70,10.00,M,CLR,M,M,M,M,M,M,M,M,M,M,M,M,M,M,75.00,KDRA 311153Z AUTO 36004KT 10SM CLR 24/02 A2987 RMK AO2 SLP057 T02390022 10294 20233 55003,M
ELY,2023-08-31 11:53,-114.8453,39.2950,1909.00,42.00,30.00,62.18,150.00,7.00,0.00,30.11,1010.50,10.00,M,CLR,M,M,M,M,M,M,M,M,M,M,M,M,M,M,36.97,KELY 311153Z AUTO 15007KT 10SM CLR 06/M01 A3011 RMK AO2 SLP105 T00561011 10128 20056 57008,M
VGT,2023-08-31 11:53,-115.1933,36.2111,667.00,88.00,39.00,17.83,0.00,0.00,0.00,29.78,1006.80,10.00,M,CLR,M,M,M,M,M,M,M,M,M,M,M,M,M,M,84.38,KVGT 311153Z AUTO 00000KT 10SM CLR 31/04 A2978 RMK AO2 SLP068 T03110039 10356 20306 56002,M
LOL,2023-08-31 11:53,-118.5701,40.0684,1192.43,51.00,30.00,44.26,0.00,0.00,0.00,29.93,1010.30,10.00,M,CLR,M,M,M,M,M,M,M,M,M,M,M,M,M,M,51.00,KLOL 311153Z AUTO 00000KT 10SM CLR 11/M01 A2993 RMK AO2 SLP103 T01061011 10194 20100 58009,M
BVU,2023-08-31 11:55,-114.8611,35.9475,671.00,78.80,50.00,36.51,20.00,4.00,0.00,29.79,M,10.00,M,CLR,M,M,M,M,M,M,M,M,M,M,M,M,M,M,78.80,KBVU 311155Z AUTO 02004KT 10SM CLR 26/10 A2979 RMK AO2,M
CXP,2023-08-31 11:55,-119.7326,39.1923,1431.00,51.80,37.40,57.77,0.00,0.00,0.00,30.00,M,10.00,M,CLR,M,M,M,M,M,M,M,M,M,M,M,M,M,M,51.80,KCXP 311155Z AUTO 00000KT 10SM CLR 11/03 A3000 RMK AO2,M
RTS,2023-08-31 11:55,-119.8764,39.6682,1539.00,48.20,30.20,49.53,0.00,0.00,0.00,30.01,M,10.00,M,CLR,M,M,M,M,M,M,M,M,M,M,M,M,M,M,48.20,KRTS 311155Z AUTO 00000KT 10SM CLR 09/M01 A3001 RMK AO2,M
05U,2023-08-31 11:55,-116.0051,39.6042,1811.23,42.80,28.40,56.48,M,M,0.00,30.09,M,10.00,M,M,M,M,M,M,M,M,M,M,M,M,M,M,M,M,M,K05U 311155Z AUTO 10SM 06/M02 A3009 RMK A01,M
MEV,2023-08-31 11:55,-119.7500,38.9963,1441.42,44.60,33.80,65.61,110.00,4.00,0.00,29.99,M,10.00,M,FEW,FEW,M,M,3300.00,4000.00,M,M,M,M,M,M,M,M,M,42.13,KMEV 311155Z AUTO 11004KT 10SM FEW033 FEW040 07/01 A2999 RMK AO2,M
HTH,2023-08-31 11:55,-118.6315,38.5448,1282.89,60.80,32.00,33.64,270.00,5.00,0.00,29.96,M,10.00,M,CLR,M,M,M,M,M,M,M,M,M,M,M,M,M,M,60.80,KHTH 311155Z AUTO 27005KT 10SM CLR 16/00 A2996 RMK A01,M
BAM,2023-08-31 11:55,-116.8743,40.5990,1382.36,42.80,26.60,52.45,0.00,0.00,0.00,30.01,M,10.00,M,CLR,M,M,M,M,M,M,M,M,M,M,M,M,M,M,42.80,KBAM 311155Z AUTO 00000KT 10SM CLR 06/M03 A3001 RMK AO1,M
TMT,2023-08-31 11:55,-117.1971,39.4643,1749.34,36.00,26.20,67.25,0.00,0.00,0.00,30.07,M,M,M,CLR,M,M,M,M,M,M,M,M,M,M,M,M,M,M,36.00,KTMT 311155Z AUTO 00000KT CLR 02/M03 A3007 RMK AO2 T00221032 10107 20013 PWINO,M
RNO,2023-08-31 11:55,-119.7711,39.4839,1341.00,57.00,37.00,47.04,180.00,3.00,0.00,29.97,1009.50,10.00,M,CLR,M,M,M,M,M,M,M,M,M,M,M,M,M,M,57.00,KRNO 311155Z COR 18003KT 10SM CLR 14/03 A2997 RMK AO2 SLP095 HZ ALQDS T01390028 10217 20139 56010,M
10U,2023-08-31 11:55,-116.1876,41.9532,1637.00,39.20,32.00,75.16,0.00,0.00,0.00,30.07,M,10.00,M,CLR,M,M,M,M,M,M,M,M,M,M,M,M,M,M,39.20,K10U 311155Z AUTO 00000KT 10SM CLR 04/00 A3007 RMK AO2,M
INS,2023-08-31 11:55,-115.6733,36.5872,955.00,73.80,36.70,25.90,0.00,0.00,0.00,29.87,1006.00,10.00,M,CLR,M,M,M,M,M,M,M,M,M,M,M,M,M,M,73.80,KINS 311155Z AUTO 00000KT 10SM CLR 23/03 A2987 RMK AO2 SLP060 T02320026 10297 20221 55002 $,M
LSV,2023-08-31 11:55,-115.0343,36.2362,570.00,80.80,41.70,24.97,360.00,4.00,0.00,29.74,1004.10,10.00,M,CLR,M,M,M,M,M,M,M,M,M,M,M,M,M,M,79.35,KLSV 311155Z AUTO 36004KT 10SM CLR 27/05 A2974 RMK AO2 SLP041 T02710054 10334 20271 56001 $,M
EKO,2023-08-31 11:56,-115.7860,40.8242,1367.00,48.00,29.00,47.52,90.00,4.00,0.00,30.05,1012.80,10.00,M,CLR,M,M,M,M,M,M,M,M,M,M,M,M,M,M,46.10,KEKO 311156Z AUTO 09004KT 10SM CLR 09/M02 A3005 RMK AO2 SLP128 T00891017 10139 20078 58006 $,M
WMC,2023-08-31 11:56,-117.8072,40.9019,1315.00,41.00,26.00,54.84,160.00,6.00,0.00,29.98,1011.70,10.00,M,CLR,M,M,M,M,M,M,M,M,M,M,M,M,M,M,36.37,KWMC 311156Z AUTO 16006KT 10SM CLR 05/M03 A2998 RMK AO2 SLP117 T00501033 10172 20050 56011 $,M
NFL,2023-08-31 11:56,-118.7010,39.4166,1199.00,56.00,40.00,54.85,220.00,3.00,0.00,29.93,1010.80,10.00,M,CLR,M,M,M,M,M,M,M,M,M,M,M,M,M,M,56.00,KNFL 311156Z AUTO 22003KT 10SM CLR 13/04 A2993 RMK AO2 SLP108 T01330044 10183 20122 56009,M
HND,2023-08-31 11:56,-115.1344,35.9729,742.79,87.00,38.00,17.70,210.00,10.00,0.00,29.84,1008.10,10.00,M,CLR,M,M,M,M,M,M,M,M,M,M,M,M,M,M,83.53,KHND 311156Z AUTO 21010KT 10SM CLR 31/03 A2984 RMK AO2 SLP081 T03060033 10333 20306 56002,M
TPH,2023-08-31 11:56,-117.0904,38.0505,1654.00,57.00,33.00,40.12,340.00,8.00,0.00,30.03,1008.80,10.00,M,CLR,M,M,M,M,M,M,M,M,M,M,M,M,M,M,57.00,KTPH 311156Z AUTO 34008KT 10SM CLR 14/01 A3003 RMK AO2 SLP088 T01390006 10194 20128 56008,M
LAS,2023-08-31 11:56,-115.1634,36.0719,663.00,90.00,33.00,13.20,220.00,7.00,0.00,29.79,1005.40,10.00,M,CLR,M,M,M,M,M,M,M,M,M,M,M,M,M,M,85.92,KLAS 311156Z 22007KT 10SM CLR 32/01 A2979 RMK AO2 SLP054 T03220006 10350 20322 56003,M
05U,2023-08-31 12:10,-116.0051,39.6042,1811.23,41.00,28.40,60.54,M,M,0.00,30.09,M,10.00,M,M,M,M,M,M,M,M,M,M,M,M,M,M,M,M,M,K05U 311210Z AUTO 10SM 05/M02 A3009 RMK A01,M
BVU,2023-08-31 12:15,-114.8611,35.9475,671.00,80.60,48.20,32.18,20.00,4.00,0.00,29.79,M,10.00,M,CLR,M,M,M,M,M,M,M,M,M,M,M,M,M,M,79.71,KBVU 311215Z AUTO 02004KT 10SM CLR 27/09 A2979 RMK AO2,M
CXP,2023-08-31 12:15,-119.7326,39.1923,1431.00,50.00,37.40,61.76,0.00,0.00,0.00,30.00,M,10.00,M,CLR,M,M,M,M,M,M,M,M,M,M,M,M,M,M,50.00,KCXP 311215Z AUTO 00000KT 10SM CLR 10/03 A3000 RMK AO2,M
RTS,2023-08-31 12:15,-119.8764,39.6682,1539.00,51.80,26.60,37.38,330.00,4.00,0.00,30.01,M,10.00,M,CLR,M,M,M,M,M,M,M,M,M,M,M,M,M,M,51.80,KRTS 311215Z AUTO 33004KT 10SM CLR 11/M03 A3001 RMK AO2,M
MEV,2023-08-31 12:15,-119.7500,38.9963,1441.42,42.80,33.80,70.28,0.00,0.00,0.00,29.98,M,9.00,M,CLR,M,M,M,M,M,M,M,M,M,M,M,M,M,M,42.80,KMEV 311215Z AUTO 00000KT 9SM CLR 06/01 A2998 RMK AO2,M
HTH,2023-08-31 12:15,-118.6315,38.5448,1282.89,59.00,33.80,38.56,240.00,6.00,0.00,29.95,M,10.00,M,CLR,M,M,M,M,M,M,M,M,M,M,M,M,M,M,59.00,KHTH 311215Z AUTO 24006KT 10SM CLR 15/01 A2995 RMK A01,M
10U,2023-08-31 12:15,-116.1876,41.9532,1637.00,37.40,32.00,80.65,0.00,0.00,0.00,30.07,M,10.00,M,CLR,M,M,M,M,M,M,M,M,M,M,M,M,M,M,37.40,K10U 311215Z AUTO 00000KT 10SM CLR 03/00 A3007 RMK AO2,M
BAM,2023-08-31 12:15,-116.8743,40.5990,1382.36,42.80,26.60,52.45,160.00,4.00,0.00,30.01,M,10.00,M,CLR,M,M,M,M,M,M,M,M,M,M,M,M,M,M,40.03,KBAM 311215Z AUTO 16004KT 10SM CLR 06/M03 A3001 RMK AO1,M
TMT,2023-08-31 12:15,-117.1971,39.4643,1749.34,34.50,26.60,72.57,0.00,0.00,0.00,30.06,M,M,M,CLR,M,M,M,M,M,M,M,M,M,M,M,M,M,M,34.50,KTMT 311215Z AUTO 00000KT CLR 01/M03 A3006 RMK AO2 T00141030 PWINO,M
BVU,2023-08-31 12:35,-114.8611,35.9475,671.00,80.60,48.20,32.18,0.00,0.00,0.00,29.79,M,10.00,M,CLR,M,M,M,M,M,M,M,M,M,M,M,M,M,M,79.71,KBVU 311235Z AUTO 00000KT 10SM CLR 27/09 A2979 RMK AO2,M
CXP,2023-08-31 12:35,-119.7326,39.1923,1431.00,50.00,35.60,57.52,0.00,0.00,0.00,30.00,M,10.00,M,CLR,M,M,M,M,M,M,M,M,M,M,M,M,M,M,50.00,KCXP 311235Z AUTO 00000KT 10SM CLR 10/02 A3000 RMK AO2,M
RTS,2023-08-31 12:35,-119.8764,39.6682,1539.00,44.60,23.00,42.14,340.00,7.00,0.00,30.00,M,10.00,M,CLR,M,M,M,M,M,M,M,M,M,M,M,M,M,M,40.14,KRTS 311235Z AUTO 34007KT 10SM CLR 07/M05 A3000 RMK AO2,M
05U,2023-08-31 12:35,-116.0051,39.6042,1811.23,39.20,28.40,64.93,M,M,0.00,30.09,M,10.00,M,M,M,M,M,M,M,M,M,M,M,M,M,M,M,M,M,K05U 311235Z AUTO 10SM 04/M02 A3009 RMK A01,M
MEV,2023-08-31 12:35,-119.7500,38.9963,1441.42,41.00,33.80,75.33,190.00,3.00,0.00,29.99,M,10.00,M,CLR,M,M,M,M,M,M,M,M,M,M,M,M,M,M,38.98,KMEV 311235Z AUTO 19003KT 10SM CLR 05/01 A2999 RMK AO2,M
HTH,2023-08-31 12:35,-118.6315,38.5448,1282.89,57.20,33.80,41.13,220.00,4.00,0.00,29.95,M,10.00,M,CLR,M,M,M,M,M,M,M,M,M,M,M,M,M,M,57.20,KHTH 311235Z AUTO 22004KT 10SM CLR 14/01 A2995 RMK A01,M
10U,2023-08-31 12:35,-116.1876,41.9532,1637.00,39.20,33.80,80.79,50.00,4.00,0.00,30.07,M,10.00,M,CLR,M,M,M,M,M,M,M,M,M,M,M,M,M,M,35.83,K10U 311235Z AUTO 05004KT 10SM CLR 04/01 A3007 RMK AO2,M
BAM,2023-08-31 12:35,-116.8743,40.5990,1382.36,41.00,21.20,44.85,0.00,0.00,0.00,30.00,M,10.00,M,CLR,M,M,M,M,M,M,M,M,M,M,M,M,M,M,41.00,KBAM 311235Z AUTO 00000KT 10SM CLR 05/M06 A3000 RMK AO1,M
TMT,2023-08-31 12:35,-117.1971,39.4643,1749.34,37.00,28.80,71.95,0.00,0.00,0.00,30.06,M,M,M,CLR,M,M,M,M,M,M,M,M,M,M,M,M,M,M,37.00,KTMT 311235Z AUTO 00000KT CLR 03/M02 A3006 RMK AO2 T00281018 PWINO,M
05U,2023-08-31 12:50,-116.0051,39.6042,1811.23,41.00,28.40,60.54,M,M,0.00,30.09,M,10.00,M,M,M,M,M,M,M,M,M,M,M,M,M,M,M,M,M,K05U 311250Z AUTO 10SM 05/M02 A3009 RMK A01,M
P68,2023-08-31 12:53,-116.0056,39.6014,1993.00,42.00,28.00,57.30,240.00,4.00,0.00,30.06,1010.90,M,M,M,M,M,M,M,M,M,M,M,M,M,M,M,M,M,39.10,KP68 311253Z AUTO 24004KT 06/M02 A3006 RMK AO1 SLP109 T00561022,M
DRA,2023-08-31 12:53,-116.0278,36.6206,1009.00,73.00,36.00,25.88,20.00,7.00,0.00,29.87,1005.80,10.00,M,CLR,M,M,M,M,M,M,M,M,M,M,M,M,M,M,73.00,KDRA 311253Z AUTO 02007KT 10SM CLR 23/02 A2987 RMK AO2 SLP058 T02280022,M
ELY,2023-08-31 12:53,-114.8453,39.2950,1909.00,39.00,30.00,69.85,180.00,8.00,0.00,30.11,1011.10,10.00,M,CLR,M,M,M,M,M,M,M,M,M,M,M,M,M,M,32.74,KELY 311253Z AUTO 18008KT 10SM CLR 04/M01 A3011 RMK AO2 SLP111 T00391011,M
VGT,2023-08-31 12:53,-115.1933,36.2111,667.00,82.00,44.00,26.23,290.00,3.00,0.00,29.79,1007.20,10.00,M,CLR,M,M,M,M,M,M,M,M,M,M,M,M,M,M,80.21,KVGT 311253Z 29003KT 10SM CLR 28/07 A2979 RMK AO2 SLP072 T02780067,M
LOL,2023-08-31 12:53,-118.5701,40.0684,1192.43,50.00,32.00,49.81,0.00,0.00,0.00,29.92,1010.00,10.00,M,CLR,M,M,M,M,M,M,M,M,M,M,M,M,M,M,50.00,KLOL 311253Z AUTO 00000KT 10SM CLR 10/00 A2992 RMK AO2 SLP100 T01000000,M
BVU,2023-08-31 12:55,-114.8611,35.9475,671.00,82.40,46.40,28.36,60.00,5.00,0.00,29.80,M,10.00,M,CLR,M,M,M,M,M,M,M,M,M,M,M,M,M,M,80.64,KBVU 311255Z AUTO 06005KT 10SM CLR 28/08 A2980 RMK AO2,M
CXP,2023-08-31 12:55,-119.7326,39.1923,1431.00,50.00,37.40,61.76,0.00,0.00,0.00,30.00,M,10.00,M,CLR,M,M,M,M,M,M,M,M,M,M,M,M,M,M,50.00,KCXP 311255Z AUTO 00000KT 10SM CLR 10/03 A3000 RMK AO2,M
RNO,2023-08-31 12:55,-119.7711,39.4839,1341.00,56.00,37.00,48.77,0.00,0.00,0.00,29.96,1009.40,10.00,M,CLR,M,M,M,M,M,M,M,M,M,M,M,M,M,M,56.00,KRNO 311255Z 00000KT 10SM CLR 13/03 A2996 RMK AO2 SLP094 HZ ALQDS T01330028,M
RTS,2023-08-31 12:55,-119.8764,39.6682,1539.00,42.80,24.80,48.67,340.00,5.00,0.00,30.00,M,10.00,M,CLR,M,M,M,M,M,M,M,M,M,M,M,M,M,M,39.22,KRTS 311255Z AUTO 34005KT 10SM CLR 06/M04 A3000 RMK AO2,M
MEV,2023-08-31 12:55,-119.7500,38.9963,1441.42,42.80,33.80,70.28,130.00,3.00,0.00,29.99,M,8.00,M,CLR,M,M,M,M,M,M,M,M,M,M,M,M,M,M,41.03,KMEV 311255Z AUTO 13003KT 8SM CLR 06/01 A2999 RMK AO2,M
HTH,2023-08-31 12:55,-118.6315,38.5448,1282.89,57.20,33.80,41.13,230.00,3.00,0.00,29.95,M,10.00,M,CLR,M,M,M,M,M,M,M,M,M,M,M,M,M,M,57.20,KHTH 311255Z AUTO 23003KT 10SM CLR 14/01 A2995 RMK A01,M
BAM,2023-08-31 12:55,-116.8743,40.5990,1382.36,42.80,26.60,52.45,0.00,0.00,0.00,30.00,M,10.00,M,CLR,M,M,M,M,M,M,M,M,M,M,M,M,M,M,42.80,KBAM 311255Z AUTO 00000KT 10SM CLR 06/M03 A3000 RMK AO1,M
TMT,2023-08-31 12:55,-117.1971,39.4643,1749.34,39.20,29.00,66.54,0.00,0.00,0.00,30.06,M,M,M,CLR,M,M,M,M,M,M,M,M,M,M,M,M,M,M,39.20,KTMT 311255Z AUTO 00000KT CLR 04/M02 A3006 RMK AO2 T00401017 PWINO,M
10U,2023-08-31 12:55,-116.1876,41.9532,1637.00,39.20,33.80,80.79,40.00,4.00,0.00,30.07,M,10.00,M,CLR,M,M,M,M,M,M,M,M,M,M,M,M,M,M,35.83,K10U 311255Z AUTO 04004KT 10SM CLR 04/01 A3007 RMK AO2,M
INS,2023-08-31 12:55,-115.6733,36.5872,955.00,72.00,38.00,28.96,210.00,3.00,0.00,29.87,1006.10,10.00,M,CLR,M,M,M,M,M,M,M,M,M,M,M,M,M,M,72.00,KINS 311255Z AUTO 21003KT 10SM CLR 22/03 A2987 RMK AO2 SLP061 T02220033 $,M
LSV,2023-08-31 12:55,-115.0343,36.2362,570.00,78.60,41.00,26.12,40.00,4.00,0.00,29.75,1004.50,10.00,M,CLR,M,M,M,M,M,M,M,M,M,M,M,M,M,M,78.60,KLSV 311255Z AUTO 04004KT 10SM CLR 26/05 A2975 RMK AO2 SLP045 T02590049 $,M
EKO,2023-08-31 12:56,-115.7860,40.8242,1367.00,42.00,31.00,64.75,0.00,0.00,0.00,30.05,1013.40,10.00,M,CLR,M,M,M,M,M,M,M,M,M,M,M,M,M,M,42.00,KEKO 311256Z AUTO 00000KT 10SM CLR 06/M01 A3005 RMK AO2 SLP134 T00561006 $,M
WMC,2023-08-31 12:56,-117.8072,40.9019,1315.00,40.00,25.00,54.69,140.00,5.00,0.00,29.97,1011.40,10.00,M,CLR,M,M,M,M,M,M,M,M,M,M,M,M,M,M,35.90,KWMC 311256Z AUTO 14005KT 10SM CLR 04/M04 A2997 RMK AO2 SLP114 T00441039 $,M
HND,2023-08-31 12:56,-115.1344,35.9729,742.79,85.00,37.00,18.14,220.00,8.00,0.00,29.84,1008.30,10.00,M,CLR,M,M,M,M,M,M,M,M,M,M,M,M,M,M,81.96,KHND 311256Z AUTO 22008KT 10SM CLR 29/03 A2984 RMK AO2 SLP083 T02940028,M
TPH,2023-08-31 12:56,-117.0904,38.0505,1654.00,54.00,34.00,46.57,360.00,8.00,0.00,30.04,1009.50,10.00,M,CLR,M,M,M,M,M,M,M,M,M,M,M,M,M,M,54.00,KTPH 311256Z AUTO 36008KT 10SM CLR 12/01 A3004 RMK AO2 SLP095 T01220011,M
LAS,2023-08-31 12:56,-115.1634,36.0719,663.00,89.00,31.00,12.57,0.00,0.00,0.00,29.80,1005.80,10.00,M,FEW,M,M,M,15000.00,M,M,M,M,M,M,M,M,M,M,84.98,KLAS 311256Z 00000KT 10SM FEW150 32/M01 A2980 RMK AO2 SLP058 T03171006,M
NFL,2023-08-31 12:56,-118.7010,39.4166,1199.00,53.00,38.00,56.59,220.00,3.00,0.00,29.92,1010.60,10.00,M,CLR,M,M,M,M,M,M,M,M,M,M,M,M,M,M,53.00,KNFL 311256Z AUTO 22003KT 10SM CLR 12/03 A2992 RMK AO2 SLP106 T01170033,M
BVU,2023-08-31 13:15,-114.8611,35.9475,671.00,82.40,42.80,24.72,60.00,8.00,0.00,29.80,M,10.00,M,CLR,M,M,M,M,M,M,M,M,M,M,M,M,M,M,80.39,KBVU 311315Z AUTO 06008KT 10SM CLR 28/06 A2980 RMK AO2,M
CXP,2023-08-31 13:15,-119.7326,39.1923,1431.00,48.20,37.40,66.05,0.00,0.00,0.00,30.00,M,10.00,M,CLR,M,M,M,M,M,M,M,M,M,M,M,M,M,M,48.20,KCXP 311315Z AUTO 00000KT 10SM CLR 09/03 A3000 RMK AO2,M
RTS,2023-08-31 13:15,-119.8764,39.6682,1539.00,44.60,24.80,45.44,0.00,0.00,0.00,30.00,M,10.00,M,CLR,M,M,M,M,M,M,M,M,M,M,M,M,M,M,44.60,KRTS 311315Z AUTO 00000KT 10SM CLR 07/M04 A3000 RMK AO2,M
05U,2023-08-31 13:15,-116.0051,39.6042,1811.23,41.00,28.40,60.54,M,M,0.00,30.09,M,10.00,M,M,M,M,M,M,M,M,M,M,M,M,M,M,M,M,M,K05U 311315Z AUTO 10SM 05/M02 A3009 RMK A01,M
MEV,2023-08-31 13:15,-119.7500,38.9963,1441.42,39.20,30.20,69.88,M,4.00,0.00,29.99,M,8.00,M,CLR,M,M,M,M,M,M,M,M,M,M,M,M,M,M,35.83,KMEV 311315Z AUTO VRB04KT 8SM CLR 04/M01 A2999 RMK AO2,M
HTH,2023-08-31 13:15,-118.6315,38.5448,1282.89,59.00,33.80,38.56,270.00,3.00,0.00,29.95,M,10.00,M,CLR,M,M,M,M,M,M,M,M,M,M,M,M,M,M,59.00,KHTH 311315Z AUTO 27003KT 10SM CLR 15/01 A2995 RMK A01,M
10U,2023-08-31 13:15,-116.1876,41.9532,1637.00,37.40,33.80,86.69,20.00,4.00,0.00,30.06,M,10.00,M,CLR,M,M,M,M,M,M,M,M,M,M,M,M,M,M,33.73,K10U 311315Z AUTO 02004KT 10SM CLR 03/01 A3006 RMK AO2,M
BAM,2023-08-31 13:15,-116.8743,40.5990,1382.36,41.00,23.00,48.39,60.00,6.00,0.00,29.99,M,10.00,M,CLR,M,M,M,M,M,M,M,M,M,M,M,M,M,M,36.37,KBAM 311315Z AUTO 06006KT 10SM CLR 05/M05 A2999 RMK AO1,M
TMT,2023-08-31 13:15,-117.1971,39.4643,1749.34,32.50,25.00,73.57,0.00,0.00,0.00,30.06,M,M,M,CLR,M,M,M,M,M,M,M,M,M,M,M,M,M,M,32.50,KTMT 311315Z AUTO 00000KT CLR 00/M04 A3006 RMK AO2 T00031038 PWINO,M
BVU,2023-08-31 13:35,-114.8611,35.9475,671.00,84.20,42.80,23.33,60.00,7.00,0.00,29.81,M,10.00,M,CLR,M,M,M,M,M,M,M,M,M,M,M,M,M,M,81.61,KBVU 311335Z AUTO 06007KT 10SM CLR 29/06 A2981 RMK AO2,M
CXP,2023-08-31 13:35,-119.7326,39.1923,1431.00,48.20,37.40,66.05,0.00,0.00,0.00,30.00,M,10.00,M,CLR,M,M,M,M,M,M,M,M,M,M,M,M,M,M,48.20,KCXP 311335Z AUTO 00000KT 10SM CLR 09/03 A3000 RMK AO2,M
RTS,2023-08-31 13:35,-119.8764,39.6682,1539.00,44.60,26.60,48.96,0.00,0.00,0.00,30.00,M,9.00,M,CLR,M,M,M,M,M,M,M,M,M,M,M,M,M,M,44.60,KRTS 311335Z AUTO 00000KT 9SM CLR 07/M03 A3000 RMK AO2,M
05U,2023-08-31 13:35,-116.0051,39.6042,1811.23,41.00,28.40,60.54,M,M,0.00,30.09,M,10.00,M,M,M,M,M,M,M,M,M,M,M,M,M,M,M,M,M,K05U 311335Z AUTO 10SM 05/M02 A3009 RMK A01,M
MEV,2023-08-31 13:35,-119.7500,38.9963,1441.42,39.20,30.20,69.88,120.00,4.00,0.00,29.99,M,6.00,M,CLR,M,M,M,M,M,M,M,HZ,M,M,M,M,M,M,35.83,KMEV 311335Z AUTO 12004KT 6SM HZ CLR 04/M01 A2999 RMK AO2,M
HTH,2023-08-31 13:35,-118.6315,38.5448,1282.89,57.20,35.60,44.19,0.00,0.00,0.00,29.96,M,10.00,M,CLR,M,M,M,M,M,M,M,M,M,M,M,M,M,M,57.20,KHTH 311335Z AUTO 00000KT 10SM CLR 14/02 A2996 RMK A01,M
BAM,2023-08-31 13:35,-116.8743,40.5990,1382.36,44.60,26.60,48.96,80.00,6.00,0.00,30.00,M,10.00,M,CLR,M,M,M,M,M,M,M,M,M,M,M,M,M,M,40.71,KBAM 311335Z AUTO 08006KT 10SM CLR 07/M03 A3000 RMK AO1,M
TMT,2023-08-31 13:35,-117.1971,39.4643,1749.34,35.20,28.40,76.00,0.00,0.00,0.00,30.06,M,M,M,CLR,M,M,M,M,M,M,M,M,M,M,M,M,M,M,35.20,KTMT 311335Z AUTO 00000KT CLR 02/M02 A3006 RMK AO2 T00181020 PWINO,M
10U,2023-08-31 13:35,-116.1876,41.9532,1637.00,41.00,35.60,80.93,20.00,3.00,0.00,30.06,M,10.00,M,CLR,M,M,M,M,M,M,M,M,M,M,M,M,M,M,38.98,K10U 311335Z AUTO 02003KT 10SM CLR 05/02 A3006 RMK AO2,M
05U,2023-08-31 13:50,-116.0051,39.6042,1811.23,42.80,30.20,60.79,M,M,0.00,30.09,M,10.00,M,M,M,M,M,M,M,M,M,M,M,M,M,M,M,M,M,K05U 311350Z AUTO 10SM 06/M01 A3009 RMK A01,M
P68,2023-08-31 13:53,-116.0056,39.6014,1993.00,43.00,30.00,59.83,200.00,3.00,0.00,30.07,1011.80,M,M,M,M,M,M,M,M,M,M,M,M,M,M,M,M,M,41.26,KP68 311353Z AUTO 20003KT 06/M01 A3007 RMK AO1 SLP118 T00611011,M
DRA,2023-08-31 13:53,-116.0278,36.6206,1009.00,76.00,35.00,22.49,350.00,7.00,0.00,29.88,1006.40,10.00,M,CLR,M,M,M,M,M,M,M,M,M,M,M,M,M,M,76.00,KDRA 311353Z AUTO 35007KT 10SM CLR 24/02 A2988 RMK AO2 SLP064 T02440017,M
ELY,2023-08-31 13:53,-114.8453,39.2950,1909.00,45.00,32.00,60.11,180.00,7.00,0.00,30.11,1011.50,10.00,M,CLR,M,M,M,M,M,M,M,M,M,M,M,M,M,M,40.63,KELY 311353Z AUTO 18007KT 10SM CLR 07/00 A3011 RMK AO2 SLP115 T00720000,M
VGT,2023-08-31 13:53,-115.1933,36.2111,667.00,84.00,43.00,23.66,280.00,6.00,0.00,29.81,1007.70,10.00,M,CLR,M,M,M,M,M,M,M,M,M,M,M,M,M,M,81.48,KVGT 311353Z 28006KT 10SM CLR 29/06 A2981 RMK AO2 SLP077 T02890061,M
LOL,2023-08-31 13:53,-118.5701,40.0684,1192.43,48.00,30.00,49.49,240.00,3.00,0.00,29.93,1010.40,10.00,M,CLR,M,M,M,M,M,M,M,M,M,M,M,M,M,M,46.98,KLOL 311353Z AUTO 24003KT 10SM CLR 09/M01 A2993 RMK AO2 SLP104 T00891011,M
BVU,2023-08-31 13:55,-114.8611,35.9475,671.00,86.00,42.80,22.02,40.00,3.00,0.00,29.82,M,10.00,M,CLR,M,M,M,M,M,M,M,M,M,M,M,M,M,M,82.95,KBVU 311355Z AUTO 04003KT 10SM CLR 30/06 A2982 RMK AO2,M
CXP,2023-08-31 13:55,-119.7326,39.1923,1431.00,48.20,37.40,66.05,0.00,0.00,0.00,30.00,M,9.00,M,CLR,M,M,M,M,M,M,M,M,M,M,M,M,M,M,48.20,KCXP 311355Z AUTO 00000KT 9SM CLR 09/03 A3000 RMK AO2,M
RNO,2023-08-31 13:55,-119.7711,39.4839,1341.00,56.00,38.00,50.73,0.00,0.00,0.00,29.97,1009.70,10.00,M,CLR,M,M,M,M,M,M,M,M,M,M,M,M,M,M,56.00,KRNO 311355Z 00000KT 10SM CLR 13/03 A2997 RMK AO2 SLP097 HZ ALQDS T01330033,M
RTS,2023-08-31 13:55,-119.8764,39.6682,1539.00,46.40,33.80,61.28,0.00,0.00,0.00,30.00,M,10.00,M,CLR,M,M,M,M,M,M,M,M,M,M,M,M,M,M,46.40,KRTS 311355Z AUTO 00000KT 10SM CLR 08/01 A3000 RMK AO2,M
MEV,2023-08-31 13:55,-119.7500,38.9963,1441.42,39.20,30.20,69.88,0.00,0.00,0.00,29.99,M,6.00,M,CLR,M,M,M,M,M,M,M,HZ,M,M,M,M,M,M,39.20,KMEV 311355Z AUTO 00000KT 6SM HZ CLR 04/M01 A2999 RMK AO2,M
HTH,2023-08-31 13:55,-118.6315,38.5448,1282.89,57.20,35.60,44.19,230.00,4.00,0.00,29.96,M,10.00,M,CLR,M,M,M,M,M,M,M,M,M,M,M,M,M,M,57.20,KHTH 311355Z AUTO 23004KT 10SM CLR 14/02 A2996 RMK A01,M
BAM,2023-08-31 13:55,-116.8743,40.5990,1382.36,46.40,28.40,49.24,40.00,6.00,0.00,30.00,M,10.00,M,CLR,M,M,M,M,M,M,M,M,M,M,M,M,M,M,42.87,KBAM 311355Z AUTO 04006KT 10SM CLR 08/M02 A3000 RMK AO1,M
TMT,2023-08-31 13:55,-117.1971,39.4643,1749.34,38.00,29.50,71.18,0.00,0.00,0.00,30.06,M,M,M,CLR,M,M,M,M,M,M,M,M,M,M,M,M,M,M,38.00,KTMT 311355Z AUTO 00000KT CLR 03/M01 A3006 RMK AO2 T00331014 PWINO,M
INS,2023-08-31 13:55,-115.6733,36.5872,955.00,75.00,35.60,23.82,220.00,10.00,0.00,29.88,1006.50,10.00,16.00,CLR,M,M,M,M,M,M,M,M,M,M,M,M,M,M,75.00,KINS 311355Z AUTO 22010G16KT 10SM CLR 24/02 A2988 RMK AO2 SLP065 T02380020 $,M
LSV,2023-08-31 13:55,-115.0343,36.2362,570.00,82.00,42.60,24.86,270.00,3.00,0.00,29.76,1004.90,10.00,M,CLR,M,M,M,M,M,M,M,M,M,M,M,M,M,M,80.12,KLSV 311355Z AUTO 27003KT 10SM CLR 28/06 A2976 RMK AO2 SLP049 T02770059 $,M
EKO,2023-08-31 13:56,-115.7860,40.8242,1367.00,47.00,31.00,53.52,60.00,5.00,0.00,30.05,1013.50,10.00,M,CLR,M,M,M,M,M,M,M,M,M,M,M,M,M,M,44.21,KEKO 311356Z AUTO 06005KT 10SM CLR 08/M01 A3005 RMK AO2 SLP135 T00831006 $,M
WMC,2023-08-31 13:56,-117.8072,40.9019,1315.00,46.00,26.00,45.29,120.00,6.00,0.00,29.97,1011.30,10.00,M,CLR,M,M,M,M,M,M,M,M,M,M,M,M,M,M,42.39,KWMC 311356Z AUTO 12006KT 10SM CLR 08/M03 A2997 RMK AO2 SLP113 T00781033 $,M
NFL,2023-08-31 13:56,-118.7010,39.4166,1199.00,54.00,38.00,54.56,0.00,0.00,0.00,29.93,1010.80,9.00,M,CLR,M,M,M,M,M,M,M,M,M,M,M,M,M,M,54.00,KNFL 311356Z 00000KT 9SM CLR 12/03 A2993 RMK AO2 SLP108 T01220033,M
HND,2023-08-31 13:56,-115.1344,35.9729,742.79,87.00,38.00,17.70,190.00,9.00,0.00,29.85,1008.70,10.00,M,CLR,M,M,M,M,M,M,M,M,M,M,M,M,M,M,83.53,KHND 311356Z 19009KT 10SM CLR 31/03 A2985 RMK AO2 SLP087 T03060033,M
TPH,2023-08-31 13:56,-117.0904,38.0505,1654.00,55.00,34.00,44.90,360.00,7.00,0.00,30.05,1010.00,10.00,M,CLR,M,M,M,M,M,M,M,M,M,M,M,M,M,M,55.00,KTPH 311356Z AUTO 36007KT 10SM CLR 13/01 A3005 RMK AO2 SLP100 T01280011,M
LAS,2023-08-31 13:56,-115.1634,36.0719,663.00,90.00,36.00,14.88,220.00,5.00,0.00,29.82,1006.30,10.00,M,FEW,M,M,M,15000.00,M,M,M,M,M,M,M,M,M,M,85.97,KLAS 311356Z 22005KT 10SM FEW150 32/02 A2982 RMK AO2 SLP063 T03220022,M
10U,2023-08-31 14:00,-116.1876,41.9532,1637.00,41.00,35.60,80.93,20.00,4.00,0.00,30.06,M,10.00,M,CLR,M,M,M,M,M,M,M,M,M,M,M,M,M,M,37.93,K10U 311400Z AUTO 02004KT 10SM CLR 05/02 A3006 RMK AO2,M
CXP,2023-08-31 14:15,-119.7326,39.1923,1431.00,51.80,37.40,57.77,0.00,0.00,0.00,30.00,M,10.00,M,CLR,M,M,M,M,M,M,M,M,M,M,M,M,M,M,51.80,KCXP 311415Z AUTO 00000KT 10SM CLR 11/03 A3000 RMK AO2,M
RTS,2023-08-31 14:15,-119.8764,39.6682,1539.00,48.20,32.00,53.27,0.00,0.00,0.00,30.00,M,10.00,M,CLR,M,M,M,M,M,M,M,M,M,M,M,M,M,M,48.20,KRTS 311415Z AUTO 00000KT 10SM CLR 09/00 A3000 RMK AO2,M
05U,2023-08-31 14:15,-116.0051,39.6042,1811.23,48.20,28.40,46.02,M,M,0.00,30.09,M,10.00,M,M,M,M,M,M,M,M,M,M,M,M,M,M,M,M,M,K05U 311415Z AUTO 10SM 09/M02 A3009 RMK A01,M
MEV,2023-08-31 14:15,-119.7500,38.9963,1441.42,42.80,33.80,70.28,0.00,0.00,0.00,29.99,M,10.00,M,CLR,M,M,M,M,M,M,M,M,M,M,M,M,M,M,42.80,KMEV 311415Z AUTO 00000KT 10SM CLR 06/01 A2999 RMK AO2,M
BVU,2023-08-31 14:15,-114.8611,35.9475,671.00,86.00,46.40,25.26,10.00,4.00,0.00,29.83,M,10.00,M,CLR,M,M,M,M,M,M,M,M,M,M,M,M,M,M,83.22,KBVU 311415Z AUTO 01004KT 10SM CLR 30/08 A2983 RMK AO2,M
BAM,2023-08-31 14:15,-116.8743,40.5990,1382.36,51.80,28.40,40.25,40.00,5.00,0.00,30.00,M,10.00,M,CLR,M,M,M,M,M,M,M,M,M,M,M,M,M,M,51.80,KBAM 311415Z AUTO 04005KT 10SM CLR 11/M02 A3000 RMK AO1,M
HTH,2023-08-31 14:15,-118.6315,38.5448,1282.89,60.80,35.60,38.85,0.00,0.00,0.00,29.96,M,10.00,M,CLR,M,M,M,M,M,M,M,M,M,M,M,M,M,M,60.80,KHTH 311415Z AUTO 00000KT 10SM CLR 16/02 A2996 RMK A01,M
TMT,2023-08-31 14:15,-117.1971,39.4643,1749.34,42.30,31.00,64.01,0.00,0.00,0.00,30.06,M,M,M,CLR,M,M,M,M,M,M,M,M,M,M,M,M,M,M,42.30,KTMT 311415Z AUTO 00000KT CLR 06/00 A3006 RMK AO2 T00571005 PWINO,M
10U,2023-08-31 14:15,-116.1876,41.9532,1637.00,44.60,35.60,70.48,0.00,0.00,0.00,30.06,M,10.00,M,CLR,M,M,M,M,M,M,M,M,M,M,M,M,M,M,44.60,K10U 311415Z AUTO 00000KT 10SM CLR 07/02 A3006 RMK AO2,M
05U,2023-08-31 14:30,-116.0051,39.6042,1811.23,51.80,28.40,40.25,M,M,0.00,30.09,M,9.00,M,M,M,M,M,M,M,M,M,M,M,M,M,M,M,M,51.80,K05U 311430Z AUTO 9SM 11/M02 A3009 RMK A01,M
BVU,2023-08-31 14:35,-114.8611,35.9475,671.00,87.80,48.20,25.52,0.00,0.00,0.00,29.83,M,10.00,M,CLR,M,M,M,M,M,M,M,M,M,M,M,M,M,M,84.87,KBVU 311435Z AUTO 00000KT 10SM CLR 31/09 A2983 RMK AO2,M
CXP,2023-08-31 14:35,-119.7326,39.1923,1431.00,53.60,37.40,54.07,0.00,0.00,0.00,30.00,M,10.00,M,CLR,M,M,M,M,M,M,M,M,M,M,M,M,M,M,53.60,KCXP 311435Z AUTO 00000KT 10SM CLR 12/03 A3000 RMK AO2,M
RTS,2023-08-31 14:35,-119.8764,39.6682,1539.00,51.80,28.40,40.25,0.00,0.00,0.00,30.01,M,10.00,M,CLR,M,M,M,M,M,M,M,M,M,M,M,M,M,M,51.80,KRTS 311435Z AUTO 00000KT 10SM CLR 11/M02 A3001 RMK AO2,M
MEV,2023-08-31 14:35,-119.7500,38.9963,1441.42,46.40,35.60,65.83,0.00,0.00,0.00,29.99,M,10.00,M,CLR,M,M,M,M,M,M,M,M,M,M,M,M,M,M,46.40,KMEV 311435Z AUTO 00000KT 10SM CLR 08/02 A2999 RMK AO2,M
HTH,2023-08-31 14:35,-118.6315,38.5448,1282.89,62.60,33.80,33.93,0.00,0.00,0.00,29.96,M,10.00,M,CLR,M,M,M,M,M,M,M,M,M,M,M,M,M,M,62.60,KHTH 311435Z AUTO 00000KT 10SM CLR 17/01 A2996 RMK A01,M
10U,2023-08-31 14:35,-116.1876,41.9532,1637.00,46.40,35.60,65.83,360.00,5.00,0.00,30.05,M,10.00,M,CLR,M,M,M,M,M,M,M,M,M,M,M,M,M,M,43.50,K10U 311435Z AUTO 36005KT 10SM CLR 08/02 A3005 RMK AO2,M
BAM,2023-08-31 14:35,-116.8743,40.5990,1382.36,55.40,32.00,40.84,360.00,7.00,0.00,30.00,M,10.00,M,CLR,M,M,M,M,M,M,M,M,M,M,M,M,M,M,55.40,KBAM 311435Z AUTO 36007KT 10SM CLR 13/00 A3000 RMK AO1,M
TMT,2023-08-31 14:35,-117.1971,39.4643,1749.34,45.50,32.00,58.98,210.00,4.00,0.00,30.06,M,M,M,CLR,M,M,M,M,M,M,M,M,M,M,M,M,M,M,43.18,KTMT 311435Z AUTO 21004KT CLR 08/00 A3006 RMK AO2 T00751001 PWINO,M
P68,2023-08-31 14:53,-116.0056,39.6014,1993.00,55.00,27.00,33.79,220.00,3.00,0.00,30.06,1011.30,M,M,M,M,M,M,M,M,M,M,M,M,M,M,M,M,M,55.00,KP68 311453Z AUTO 22003KT 13/M03 A3006 RMK AO1 SLP113 T01281028 58003,M
DRA,2023-08-31 14:53,-116.0278,36.6206,1009.00,85.00,36.00,17.44,10.00,5.00,0.00,29.89,1006.30,10.00,M,CLR,M,M,M,M,M,M,M,M,M,M,M,M,M,M,81.93,KDRA 311453Z AUTO 01005KT 10SM CLR 29/02 A2989 RMK AO2 SLP063 T02940022 53004,M
ELY,2023-08-31 14:53,-114.8453,39.2950,1909.00,56.00,36.00,46.88,200.00,3.00,0.00,30.10,1011.50,10.00,M,CLR,M,M,M,M,M,M,M,M,M,M,M,M,M,M,56.00,KELY 311453Z AUTO 20003KT 10SM CLR 13/02 A3010 RMK AO2 SLP115 T01330022 58002,M
VGT,2023-08-31 14:53,-115.1933,36.2111,667.00,88.00,42.00,20.03,0.00,0.00,0.00,29.82,1008.10,10.00,M,CLR,M,M,M,M,M,M,M,M,M,M,M,M,M,M,84.52,KVGT 311453Z 00000KT 10SM CLR 31/06 A2982 RMK AO2 SLP081 T03110056 53012,M
LOL,2023-08-31 14:53,-118.5701,40.0684,1192.43,57.00,34.00,41.76,100.00,5.00,0.00,29.93,1010.30,10.00,M,CLR,M,M,M,M,M,M,M,M,M,M,M,M,M,M,57.00,KLOL 311453Z AUTO 10005KT 10SM CLR 14/01 A2993 RMK AO2 SLP103 T01390011 55000,M
BVU,2023-08-31 14:55,-114.8611,35.9475,671.00,89.60,39.20,17.09,130.00,5.00,0.00,29.83,M,10.00,M,CLR,M,M,M,M,M,M,M,M,M,M,M,M,M,M,85.73,KBVU 311455Z AUTO 13005KT 10SM CLR 32/04 A2983 RMK AO2,M
CXP,2023-08-31 14:55,-119.7326,39.1923,1431.00,57.20,37.40,47.44,0.00,0.00,0.00,30.00,M,10.00,M,CLR,M,M,M,M,M,M,M,M,M,M,M,M,M,M,57.20,KCXP 311455Z AUTO 00000KT 10SM CLR 14/03 A3000 RMK AO2,M
RNO,2023-08-31 14:55,-119.7711,39.4839,1341.00,59.00,38.00,45.53,0.00,0.00,0.00,29.97,1010.00,10.00,M,CLR,M,M,M,M,M,M,M,M,M,M,M,M,M,M,59.00,KRNO 311455Z 00000KT 10SM CLR 15/03 A2997 RMK AO2 SLP100 T01500033 53001,M
RTS,2023-08-31 14:55,-119.8764,39.6682,1539.00,55.40,30.20,37.97,0.00,0.00,0.00,30.01,M,10.00,M,CLR,M,M,M,M,M,M,M,M,M,M,M,M,M,M,55.40,KRTS 311455Z AUTO 00000KT 10SM CLR 13/M01 A3001 RMK AO2,M
05U,2023-08-31 14:55,-116.0051,39.6042,1811.23,57.20,26.60,30.69,M,M,0.00,30.08,M,10.00,M,M,M,M,M,M,M,M,M,M,M,M,M,M,M,M,57.20,K05U 311455Z AUTO 10SM 14/M03 A3008 RMK A01,M
MEV,2023-08-31 14:55,-119.7500,38.9963,1441.42,50.00,35.60,57.52,0.00,0.00,0.00,29.99,M,10.00,M,CLR,M,M,M,M,M,M,M,M,M,M,M,M,M,M,50.00,KMEV 311455Z AUTO 00000KT 10SM CLR 10/02 A2999 RMK AO2,M
HTH,2023-08-31 14:55,-118.6315,38.5448,1282.89,64.40,33.80,31.85,0.00,0.00,0.00,29.96,M,10.00,M,CLR,M,M,M,M,M,M,M,M,M,M,M,M,M,M,64.40,KHTH 311455Z AUTO 00000KT 10SM CLR 18/01 A2996 RMK A01,M
BAM,2023-08-31 14:55,-116.8743,40.5990,1382.36,59.00,32.00,35.87,20.00,7.00,0.00,29.99,M,10.00,M,CLR,M,M,M,M,M,M,M,M,M,M,M,M,M,M,59.00,KBAM 311455Z AUTO 02007KT 10SM CLR 15/00 A2999 RMK AO1,M
TMT,2023-08-31 14:55,-117.1971,39.4643,1749.34,48.60,32.00,52.48,0.00,0.00,0.00,30.06,M,M,M,CLR,M,M,M,M,M,M,M,M,M,M,M,M,M,M,48.60,KTMT 311455Z AUTO 00000KT CLR 09/00 A3006 RMK AO2 T00920000 PWINO,M
10U,2023-08-31 14:55,-116.1876,41.9532,1637.00,48.20,35.60,61.52,20.00,3.00,0.00,30.05,M,10.00,M,CLR,M,M,M,M,M,M,M,M,M,M,M,M,M,M,47.21,K10U 311455Z AUTO 02003KT 10SM CLR 09/02 A3005 RMK AO2,M
INS,2023-08-31 14:55,-115.6733,36.5872,955.00,77.70,35.80,21.95,280.00,3.00,0.00,29.88,1006.50,10.00,M,CLR,M,M,M,M,M,M,M,M,M,M,M,M,M,M,77.70,KINS 311455Z AUTO 28003KT 10SM CLR 25/02 A2988 RMK AO2 SLP065 T02540021 52005 $,M
LSV,2023-08-31 14:55,-115.0343,36.2362,570.00,86.40,41.70,20.84,0.00,0.00,0.00,29.77,1005.20,10.00,M,CLR,M,M,M,M,M,M,M,M,M,M,M,M,M,M,83.21,KLSV 311455Z AUTO 00000KT 10SM CLR 30/05 A2977 RMK AO2 SLP052 T03020054 53010 $,M
EKO,2023-08-31 14:56,-115.7860,40.8242,1367.00,52.00,31.00,44.42,90.00,4.00,0.00,30.04,1013.50,10.00,M,CLR,M,M,M,M,M,M,M,M,M,M,M,M,M,M,52.00,KEKO 311456Z AUTO 09004KT 10SM CLR 11/M01 A3004 RMK AO2 SLP135 T01111006 58003 $,M
WMC,2023-08-31 14:56,-117.8072,40.9019,1315.00,58.00,30.00,34.28,80.00,6.00,0.00,29.96,1010.90,10.00,M,CLR,M,M,M,M,M,M,M,M,M,M,M,M,M,M,58.00,KWMC 311456Z AUTO 08006KT 10SM CLR 14/M01 A2996 RMK AO2 SLP109 T01441011 56005,M
NFL,2023-08-31 14:56,-118.7010,39.4166,1199.00,63.00,39.00,41.09,0.00,0.00,0.00,29.93,1010.90,7.00,M,CLR,M,M,M,M,M,M,M,M,M,M,M,M,M,M,63.00,KNFL 311456Z 00000KT 7SM CLR 17/04 A2993 RMK AO2 SLP109 T01720039 53001,M
HND,2023-08-31 14:56,-115.1344,35.9729,742.79,92.00,40.00,16.35,170.00,6.00,0.00,29.86,1009.10,10.00,M,CLR,M,M,M,M,M,M,M,M,M,M,M,M,M,M,87.88,KHND 311456Z 17006KT 10SM CLR 33/04 A2986 RMK AO2 SLP091 T03330044 53008,M
TPH,2023-08-31 14:56,-117.0904,38.0505,1654.00,63.00,35.00,35.10,360.00,5.00,0.00,30.04,1010.20,10.00,M,CLR,M,M,M,M,M,M,M,M,M,M,M,M,M,M,63.00,KTPH 311456Z AUTO 36005KT 10SM CLR 17/02 A3004 RMK AO2 SLP102 T01720017 50004,M
LAS,2023-08-31 14:56,-115.1634,36.0719,663.00,90.00,40.00,17.41,120.00,3.00,0.00,29.83,1006.70,10.00,M,CLR,M,M,M,M,M,M,M,M,M,M,M,M,M,M,86.11,KLAS 311456Z 12003KT 10SM CLR 32/04 A2983 RMK AO2 SLP067 T03220044 52010,M
05U,2023-08-31 15:10,-116.0051,39.6042,1811.23,59.00,26.60,28.77,M,M,0.00,30.08,M,10.00,M,M,M,M,M,M,M,M,M,M,M,M,M,M,M,M,59.00,K05U 311510Z AUTO 10SM 15/M03 A3008 RMK A01,M
BVU,2023-08-31 15:15,-114.8611,35.9475,671.00,91.40,39.20,16.15,M,5.00,0.00,29.83,M,10.00,M,CLR,M,M,M,M,M,M,M,M,M,M,M,M,M,M,87.30,KBVU 311515Z AUTO VRB05KT 10SM CLR 33/04 A2983 RMK AO2,M
CXP,2023-08-31 15:15,-119.7326,39.1923,1431.00,59.00,37.40,44.47,0.00,0.00,0.00,30.00,M,10.00,M,CLR,M,M,M,M,M,M,M,M,M,M,M,M,M,M,59.00,KCXP 311515Z AUTO 00000KT 10SM CLR 15/03 A3000 RMK AO2,M
RTS,2023-08-31 15:15,-119.8764,39.6682,1539.00,59.00,30.20,33.35,0.00,0.00,0.00,30.00,M,10.00,M,CLR,M,M,M,M,M,M,M,M,M,M,M,M,M,M,59.00,KRTS 311515Z AUTO 00000KT 10SM CLR 15/M01 A3000 RMK AO2,M
MEV,2023-08-31 15:15,-119.7500,38.9963,1441.42,53.60,35.60,50.36,0.00,0.00,0.00,29.99,M,10.00,M,CLR,M,M,M,M,M,M,M,M,M,M,M,M,M,M,53.60,KMEV 311515Z AUTO 00000KT 10SM CLR 12/02 A2999 RMK AO2,M
HTH,2023-08-31 15:15,-118.6315,38.5448,1282.89,66.20,33.80,29.92,0.00,0.00,0.00,29.95,M,10.00,M,CLR,M,M,M,M,M,M,M,M,M,M,M,M,M,M,66.20,KHTH 311515Z AUTO 00000KT 10SM CLR 19/01 A2995 RMK A01,M
BAM,2023-08-31 15:15,-116.8743,40.5990,1382.36,60.80,32.00,33.64,20.00,5.00,0.00,29.99,M,10.00,M,CLR,M,M,M,M,M,M,M,M,M,M,M,M,M,M,60.80,KBAM 311515Z AUTO 02005KT 10SM CLR 16/00 A2999 RMK AO1,M
TMT,2023-08-31 15:15,-117.1971,39.4643,1749.34,51.40,33.00,49.23,210.00,4.00,0.00,30.05,M,M,M,CLR,M,M,M,M,M,M,M,M,M,M,M,M,M,M,51.40,KTMT 311515Z AUTO 21004KT CLR 11/01 A3005 RMK AO2 T01080005 PWINO,M
10U,2023-08-31 15:20,-116.1876,41.9532,1637.00,53.60,37.40,54.07,20.00,4.00,0.00,30.04,M,10.00,M,CLR,M,M,M,M,M,M,M,M,M,M,M,M,M,M,53.60,K10U 311520Z AUTO 02004KT 10SM CLR 12/03 A3004 RMK AO2,M
BVU,2023-08-31 15:35,-114.8611,35.9475,671.00,93.20,42.80,17.55,180.00,6.00,0.00,29.82,M,10.00,M,CLR,M,M,M,M,M,M,M,M,M,M,M,M,M,M,89.17,KBVU 311535Z AUTO 18006KT 10SM CLR 34/06 A2982 RMK AO2,M
CXP,2023-08-31 15:35,-119.7326,39.1923,1431.00,60.80,35.60,38.85,0.00,0.00,0.00,30.00,M,10.00,M,CLR,M,M,M,M,M,M,M,M,M,M,M,M,M,M,60.80,KCXP 311535Z AUTO 00000KT 10SM CLR 16/02 A3000 RMK AO2,M
RTS,2023-08-31 15:35,-119.8764,39.6682,1539.00,60.80,32.00,33.64,0.00,0.00,0.00,30.00,M,10.00,M,CLR,M,M,M,M,M,M,M,M,M,M,M,M,M,M,60.80,KRTS 311535Z AUTO 00000KT 10SM CLR 16/M00 A3000 RMK AO2,M
05U,2023-08-31 15:35,-116.0051,39.6042,1811.23,64.40,26.60,23.77,M,M,0.00,30.08,M,10.00,M,M,M,M,M,M,M,M,M,M,M,M,M,M,M,M,64.40,K05U 311535Z AUTO 10SM 18/M03 A3008 RMK A01,M
MEV,2023-08-31 15:35,-119.7500,38.9963,1441.42,59.00,37.40,44.47,0.00,0.00,0.00,29.99,M,6.00,M,CLR,M,M,M,M,M,M,M,HZ,M,M,M,M,M,M,59.00,KMEV 311535Z AUTO 00000KT 6SM HZ CLR 15/03 A2999 RMK AO2,M
HTH,2023-08-31 15:35,-118.6315,38.5448,1282.89,66.20,33.80,29.92,260.00,4.00,0.00,29.95,M,10.00,M,CLR,M,M,M,M,M,M,M,M,M,M,M,M,M,M,66.20,KHTH 311535Z AUTO 26004KT 10SM CLR 19/01 A2995 RMK A01,M
10U,2023-08-31 15:35,-116.1876,41.9532,1637.00,55.40,37.40,50.64,30.00,4.00,0.00,30.03,M,10.00,M,CLR,M,M,M,M,M,M,M,M,M,M,M,M,M,M,55.40,K10U 311535Z AUTO 03004KT 10SM CLR 13/03 A3003 RMK AO2,M
BAM,2023-08-31 15:35,-116.8743,40.5990,1382.36,62.60,32.00,31.56,30.00,5.00,0.00,29.99,M,10.00,M,CLR,M,M,M,M,M,M,M,M,M,M,M,M,M,M,62.60,KBAM 311535Z AUTO 03005KT 10SM CLR 17/00 A2999 RMK AO1,M
TMT,2023-08-31 15:35,-117.1971,39.4643,1749.34,55.80,34.00,43.61,240.00,3.00,0.00,30.05,M,M,M,CLR,M,M,M,M,M,M,M,M,M,M,M,M,M,M,55.80,KTMT 311535Z AUTO 24003KT CLR 13/01 A3005 RMK AO2 T01320012 PWINO,M
05U,2023-08-31 15:50,-116.0051,39.6042,1811.23,66.20,26.60,22.33,M,M,0.00,30.07,M,10.00,M,M,M,M,M,M,M,M,M,M,M,M,M,M,M,M,66.20,K05U 311550Z AUTO 10SM 19/M03 A3007 RMK A01,M
P68,2023-08-31 15:53,-116.0056,39.6014,1993.00,64.00,26.00,23.51,0.00,0.00,0.00,30.04,1010.10,M,M,M,M,M,M,M,M,M,M,M,M,M,M,M,M,M,64.00,KP68 311553Z AUTO 00000KT 18/M03 A3004 RMK AO1 SLP101 T01781033,M
DRA,2023-08-31 15:53,-116.0278,36.6206,1009.00,92.00,26.00,9.32,M,3.00,0.00,29.88,1006.10,10.00,M,CLR,M,M,M,M,M,M,M,M,M,M,M,M,M,M,86.76,KDRA 311553Z AUTO VRB03KT 10SM CLR 33/M03 A2988 RMK AO2 SLP061 T03331033,M
ELY,2023-08-31 15:53,-114.8453,39.2950,1909.00,71.00,37.00,28.81,M,M,0.00,30.09,1009.00,10.00,M,CLR,M,M,M,M,M,M,M,M,M,M,M,M,M,M,71.00,KELY 311553Z AUTO 10SM CLR 22/03 A3009 RMK AO2 SLP090 T02170028,M
VGT,2023-08-31 15:53,-115.1933,36.2111,667.00,92.00,43.00,18.36,0.00,0.00,0.00,29.82,1008.00,10.00,M,CLR,M,M,M,M,M,M,M,M,M,M,M,M,M,M,88.08,KVGT 311553Z 00000KT 10SM CLR 33/06 A2982 RMK AO2 SLP080 T03330061,M
LOL,2023-08-31 15:53,-118.5701,40.0684,1192.43,66.00,31.00,26.92,30.00,8.00,0.00,29.92,1009.70,10.00,M,CLR,M,M,M,M,M,M,M,M,M,M,M,M,M,M,66.00,KLOL 311553Z AUTO 03008KT 10SM CLR 19/M01 A2992 RMK AO2 SLP097 T01891006,M
BVU,2023-08-31 15:55,-114.8611,35.9475,671.00,95.00,50.00,21.79,160.00,9.00,0.00,29.82,M,10.00,M,CLR,M,M,M,M,M,M,M,M,M,M,M,M,M,M,91.89,KBVU 311555Z AUTO 16009KT 10SM CLR 35/10 A2982 RMK AO2,M
CXP,2023-08-31 15:55,-119.7326,39.1923,1431.00,62.60,33.80,33.93,0.00,0.00,0.00,30.00,M,10.00,M,CLR,M,M,M,M,M,M,M,M,M,M,M,M,M,M,62.60,KCXP 311555Z AUTO 00000KT 10SM CLR 17/01 A3000 RMK AO2,M
RNO,2023-08-31 15:55,-119.7711,39.4839,1341.00,64.00,37.00,36.68,0.00,0.00,0.00,29.97,1009.60,10.00,M,CLR,M,M,M,M,M,M,M,M,M,M,M,M,M,M,64.00,KRNO 311555Z 00000KT 10SM CLR 18/03 A2997 RMK AO2 SLP096 T01780028,M
RTS,2023-08-31 15:55,-119.8764,39.6682,1539.00,62.60,33.80,33.93,0.00,0.00,0.00,30.00,M,10.00,M,CLR,M,M,M,M,M,M,M,M,M,M,M,M,M,M,62.60,KRTS 311555Z AUTO 00000KT 10SM CLR 17/01 A3000 RMK AO2,M
MEV,2023-08-31 15:55,-119.7500,38.9963,1441.42,60.80,35.60,38.85,0.00,0.00,0.00,29.98,M,6.00,M,CLR,M,M,M,M,M,M,M,HZ,M,M,M,M,M,M,60.80,KMEV 311555Z AUTO 00000KT 6SM HZ CLR 16/02 A2998 RMK AO2,M
HTH,2023-08-31 15:55,-118.6315,38.5448,1282.89,66.20,35.60,32.14,0.00,0.00,0.00,29.95,M,10.00,M,CLR,M,M,M,M,M,M,M,M,M,M,M,M,M,M,66.20,KHTH 311555Z AUTO 00000KT 10SM CLR 19/02 A2995 RMK A01,M
BAM,2023-08-31 15:55,-116.8743,40.5990,1382.36,64.40,32.00,29.63,40.00,8.00,0.00,29.98,M,10.00,M,CLR,M,M,M,M,M,M,M,M,M,M,M,M,M,M,64.40,KBAM 311555Z AUTO 04008KT 10SM CLR 18/00 A2998 RMK AO1,M
TMT,2023-08-31 15:55,-117.1971,39.4643,1749.34,58.50,34.50,40.36,200.00,3.00,0.00,30.05,M,M,M,CLR,M,M,M,M,M,M,M,M,M,M,M,M,M,M,58.50,KTMT 311555Z AUTO 20003KT CLR 15/01 A3005 RMK AO2 T01470014 PWINO,M
10U,2023-08-31 15:55,-116.1876,41.9532,1637.00,59.00,37.40,44.47,0.00,0.00,0.00,30.03,M,10.00,M,CLR,M,M,M,M,M,M,M,M,M,M,M,M,M,M,59.00,K10U 311555Z AUTO 00000KT 10SM CLR 15/03 A3003 RMK AO2,M
INS,2023-08-31 15:55,-115.6733,36.5872,955.00,82.00,35.60,18.91,0.00,0.00,0.00,29.88,1006.30,10.00,M,CLR,M,M,M,M,M,M,M,M,M,M,M,M,M,M,79.82,KINS 311555Z AUTO 00000KT 10SM CLR 28/02 A2988 RMK AO2 SLP063 T02770020 $,M
LSV,2023-08-31 15:55,-115.0343,36.2362,570.00,94.00,44.00,17.93,0.00,0.00,0.00,29.77,1005.10,10.00,M,CLR,M,M,M,M,M,M,M,M,M,M,M,M,M,M,90.04,KLSV 311555Z AUTO 00000KT 10SM CLR 34/07 A2977 RMK AO2 SLP051 T03440066 $,M
EKO,2023-08-31 15:56,-115.7860,40.8242,1367.00,59.00,33.00,37.34,0.00,0.00,0.00,30.02,1012.80,10.00,M,CLR,M,M,M,M,M,M,M,M,M,M,M,M,M,M,59.00,KEKO 311556Z AUTO 00000KT 10SM CLR 15/01 A3002 RMK AO2 SLP128 T01500006 $,M
WMC,2023-08-31 15:56,-117.8072,40.9019,1315.00,63.00,32.00,31.12,120.00,5.00,0.00,29.95,1011.00,10.00,M,CLR,M,M,M,M,M,M,M,M,M,M,M,M,M,M,63.00,KWMC 311556Z AUTO 12005KT 10SM CLR 17/00 A2995 RMK AO2 SLP110 T01720000,M
NFL,2023-08-31 15:56,-118.7010,39.4166,1199.00,69.00,40.00,34.69,0.00,0.00,0.00,29.92,1010.60,10.00,M,CLR,M,M,M,M,M,M,M,M,M,M,M,M,M,M,69.00,KNFL 311556Z 00000KT 10SM CLR 21/04 A2992 RMK AO2 SLP106 T02060044,M
HND,2023-08-31 15:56,-115.1344,35.9729,742.79,96.00,41.00,15.02,200.00,9.00,0.00,29.86,1009.00,10.00,M,CLR,M,M,M,M,M,M,M,M,M,M,M,M,M,M,91.64,KHND 311556Z 20009KT 10SM CLR 36/05 A2986 RMK AO2 SLP090 T03560050,M
TPH,2023-08-31 15:56,-117.0904,38.0505,1654.00,69.00,32.00,25.27,110.00,4.00,0.00,30.04,1009.70,10.00,M,CLR,M,M,M,M,M,M,M,M,M,M,M,M,M,M,69.00,KTPH 311556Z AUTO 11004KT 10SM CLR 21/00 A3004 RMK AO2 SLP097 T02060000,M
LAS,2023-08-31 15:56,-115.1634,36.0719,663.00,96.00,41.00,15.02,140.00,7.00,0.00,29.83,1006.50,10.00,M,FEW,M,M,M,12000.00,M,M,M,M,M,M,M,M,M,M,91.64,KLAS 311556Z 14007KT 10SM FEW120 36/05 A2983 RMK AO2 SLP065 T03560050,M
05U,2023-08-31 16:10,-116.0051,39.6042,1811.23,68.00,24.80,19.47,M,M,0.00,30.07,M,10.00,M,M,M,M,M,M,M,M,M,M,M,M,M,M,M,M,68.00,K05U 311610Z AUTO 10SM 20/M04 A3007 RMK A01,M
HTH,2023-08-31 16:10,-118.6315,38.5448,1282.89,68.00,35.60,30.20,310.00,3.00,0.00,29.94,M,10.00,M,CLR,M,M,M,M,M,M,M,M,M,M,M,M,M,M,68.00,KHTH 311610Z AUTO 31003KT 10SM CLR 20/02 A2994 RMK A01,M
BVU,2023-08-31 16:15,-114.8611,35.9475,671.00,95.00,51.80,23.30,160.00,10.00,0.00,29.83,M,10.00,M,CLR,M,M,M,M,M,M,M,M,M,M,M,M,M,M,92.26,KBVU 311615Z AUTO 16010KT 10SM CLR 35/11 A2983 RMK AO2,M
CXP,2023-08-31 16:15,-119.7326,39.1923,1431.00,64.40,33.80,31.85,M,3.00,0.00,30.00,M,10.00,M,CLR,M,M,M,M,M,M,M,M,M,M,M,M,M,M,64.40,KCXP 311615Z AUTO VRB03KT 10SM CLR 18/01 A3000 RMK AO2,M
RTS,2023-08-31 16:15,-119.8764,39.6682,1539.00,66.20,32.00,27.83,110.00,5.00,0.00,29.99,M,10.00,M,CLR,M,M,M,M,M,M,M,M,M,M,M,M,M,M,66.20,KRTS 311615Z AUTO 11005KT 10SM CLR 19/M00 A2999 RMK AO2,M
MEV,2023-08-31 16:15,-119.7500,38.9963,1441.42,62.60,33.80,33.93,0.00,0.00,0.00,29.98,M,9.00,M,CLR,M,M,M,M,M,M,M,M,M,M,M,M,M,M,62.60,KMEV 311615Z AUTO 00000KT 9SM CLR 17/01 A2998 RMK AO2,M
10U,2023-08-31 16:15,-116.1876,41.9532,1637.00,62.60,37.40,39.14,50.00,4.00,0.00,30.02,M,10.00,M,CLR,M,M,M,M,M,M,M,M,M,M,M,M,M,M,62.60,K10U 311615Z AUTO 05004KT 10SM CLR 17/03 A3002 RMK AO2,M
BAM,2023-08-31 16:15,-116.8743,40.5990,1382.36,68.00,32.00,26.15,20.00,6.00,0.00,29.97,M,10.00,M,CLR,M,M,M,M,M,M,M,M,M,M,M,M,M,M,68.00,KBAM 311615Z AUTO 02006KT 10SM CLR 20/00 A2997 RMK AO1,M
TMT,2023-08-31 16:15,-117.1971,39.4643,1749.34,61.50,32.00,32.81,0.00,0.00,0.00,30.04,M,M,M,CLR,M,M,M,M,M,M,M,M,M,M,M,M,M,M,61.50,KTMT 311615Z AUTO 00000KT CLR 16/00 A3004 RMK AO2 T01640001 PWINO,M
DRA,2023-08-31 16:21,-116.0278,36.6206,1009.00,94.00,21.00,7.10,200.00,11.00,0.00,29.88,M,10.00,19.00,CLR,M,M,M,M,M,M,M,M,M,M,M,M,M,M,87.87,KDRA 311621Z AUTO 20011G19KT 10SM CLR 34/M06 A2988 RMK AO2 WSHFT 1604 T03441061,M
BVU,2023-08-31 16:35,-114.8611,35.9475,671.00,96.80,53.60,23.55,160.00,15.00,0.00,29.83,M,10.00,20.00,CLR,M,M,M,M,M,M,M,M,M,M,M,M,M,M,94.59,KBVU 311635Z AUTO 16015G20KT 10SM CLR 36/12 A2983 RMK AO2,M
CXP,2023-08-31 16:35,-119.7326,39.1923,1431.00,68.00,33.80,28.11,0.00,0.00,0.00,29.99,M,10.00,M,CLR,M,M,M,M,M,M,M,M,M,M,M,M,M,M,68.00,KCXP 311635Z AUTO 00000KT 10SM CLR 20/01 A2999 RMK AO2,M
RTS,2023-08-31 16:35,-119.8764,39.6682,1539.00,68.00,32.00,26.15,0.00,0.00,0.00,29.99,M,10.00,M,CLR,M,M,M,M,M,M,M,M,M,M,M,M,M,M,68.00,KRTS 311635Z AUTO 00000KT 10SM CLR 20/M00 A2999 RMK AO2,M
05U,2023-08-31 16:35,-116.0051,39.6042,1811.23,69.80,26.60,19.72,M,M,0.00,30.07,M,10.00,M,M,M,M,M,M,M,M,M,M,M,M,M,M,M,M,69.80,K05U 311635Z AUTO 10SM 21/M03 A3007 RMK A01,M
MEV,2023-08-31 16:35,-119.7500,38.9963,1441.42,66.20,33.80,29.92,0.00,0.00,0.00,29.98,M,7.00,M,CLR,M,M,M,M,M,M,M,M,M,M,M,M,M,M,66.20,KMEV 311635Z AUTO 00000KT 7SM CLR 19/01 A2998 RMK AO2,M
HTH,2023-08-31 16:35,-118.6315,38.5448,1282.89,69.80,35.60,28.39,20.00,4.00,0.00,29.95,M,10.00,M,CLR,M,M,M,M,M,M,M,M,M,M,M,M,M,M,69.80,KHTH 311635Z AUTO 02004KT 10SM CLR 21/02 A2995 RMK A01,M
10U,2023-08-31 16:35,-116.1876,41.9532,1637.00,68.00,33.80,28.11,M,6.00,0.00,30.02,M,10.00,M,CLR,M,M,M,M,M,M,M,M,M,M,M,M,M,M,68.00,K10U 311635Z AUTO VRB06KT 10SM CLR 20/01 A3002 RMK AO2,M
BAM,2023-08-31 16:35,-116.8743,40.5990,1382.36,69.80,32.00,24.59,30.00,7.00,0.00,29.97,M,10.00,M,CLR,M,M,M,M,M,M,M,M,M,M,M,M,M,M,69.80,KBAM 311635Z AUTO 03007KT 10SM CLR 21/00 A2997 RMK AO1,M
TMT,2023-08-31 16:35,-117.1971,39.4643,1749.34,65.00,31.60,28.55,0.00,0.00,0.00,30.03,M,M,M,CLR,M,M,M,M,M,M,M,M,M,M,M,M,M,M,65.00,KTMT 311635Z AUTO 00000KT CLR 18/00 A3003 RMK AO2 T01841002 PWINO,M
05U,2023-08-31 16:50,-116.0051,39.6042,1811.23,71.60,26.60,18.55,M,M,0.00,30.07,M,9.00,M,M,M,M,M,M,M,M,M,M,M,M,M,M,M,M,71.60,K05U 311650Z AUTO 9SM 22/M03 A3007 RMK A01,M
P68,2023-08-31 16:53,-116.0056,39.6014,1993.00,71.00,27.00,19.25,0.00,0.00,0.00,30.04,1010.00,M,M,M,M,M,M,M,M,M,M,M,M,M,M,M,M,M,71.00,KP68 311653Z AUTO 00000KT 22/M03 A3004 RMK AO1 SLP100 T02171028,M
DRA,2023-08-31 16:53,-116.0278,36.6206,1009.00,95.00,20.00,6.60,210.00,19.00,0.00,29.89,1006.20,10.00,29.00,CLR,M,M,M,M,M,M,M,M,M,M,M,29.00,220.00,2023-08-31 16:52,88.54,KDRA 311653Z AUTO 21019G29KT 10SM CLR 35/M07 A2989 RMK AO2 PK WND 22029/1652 WSHFT 1604 SLP062 T03501067,M
ELY,2023-08-31 16:53,-114.8453,39.2950,1909.00,80.00,33.00,18.20,160.00,14.00,0.00,30.07,1007.40,10.00,20.00,CLR,M,M,M,M,M,M,M,M,M,M,M,M,M,M,78.56,KELY 311653Z AUTO 16014G20KT 10SM CLR 27/01 A3007 RMK AO2 SLP074 T02670006,M
VGT,2023-08-31 16:53,-115.1933,36.2111,667.00,98.00,43.00,15.26,120.00,8.00,0.00,29.82,1008.00,10.00,M,CLR,M,M,M,M,M,M,M,M,M,M,M,M,M,M,93.75,KVGT 311653Z AUTO 12008KT 10SM CLR 37/06 A2982 RMK AO2 SLP080 T03670061 PNO $,M
LOL,2023-08-31 16:53,-118.5701,40.0684,1192.43,73.00,32.00,22.06,40.00,7.00,0.00,29.91,1009.20,10.00,M,CLR,M,M,M,M,M,M,M,M,M,M,M,M,M,M,73.00,KLOL 311653Z AUTO 04007KT 10SM CLR 23/00 A2991 RMK AO2 SLP092 T02280000,M
BVU,2023-08-31 16:55,-114.8611,35.9475,671.00,96.80,53.60,23.55,160.00,13.00,0.00,29.83,M,10.00,18.00,CLR,M,M,M,M,M,M,M,M,M,M,M,M,M,M,94.59,KBVU 311655Z AUTO 16013G18KT 10SM CLR 36/12 A2983 RMK AO2,M
CXP,2023-08-31 16:55,-119.7326,39.1923,1431.00,69.80,33.80,26.43,0.00,0.00,0.00,29.98,M,10.00,M,CLR,M,M,M,M,M,M,M,M,M,M,M,M,M,M,69.80,KCXP 311655Z AUTO 00000KT 10SM CLR 21/01 A2998 RMK AO2,M
RNO,2023-08-31 16:55,-119.7711,39.4839,1341.00,69.00,38.00,32.08,110.00,4.00,0.00,29.95,1008.80,10.00,M,CLR,M,M,M,M,M,M,M,M,M,M,M,M,M,M,69.00,KRNO 311655Z 11004KT 10SM CLR 21/03 A2995 RMK AO2 SLP088 T02060033,M
RTS,2023-08-31 16:55,-119.8764,39.6682,1539.00,71.60,28.40,19.98,M,4.00,0.00,29.99,M,10.00,M,CLR,M,M,M,M,M,M,M,M,M,M,M,M,M,M,71.60,KRTS 311655Z AUTO VRB04KT 10SM CLR 22/M02 A2999 RMK AO2,M
MEV,2023-08-31 16:55,-119.7500,38.9963,1441.42,69.80,37.40,30.49,0.00,0.00,0.00,29.97,M,8.00,M,CLR,M,M,M,M,M,M,M,M,M,M,M,M,M,M,69.80,KMEV 311655Z AUTO 00000KT 8SM CLR 21/03 A2997 RMK AO2,M
HTH,2023-08-31 16:55,-118.6315,38.5448,1282.89,71.60,33.80,24.86,0.00,0.00,0.00,29.94,M,10.00,M,CLR,M,M,M,M,M,M,M,M,M,M,M,M,M,M,71.60,KHTH 311655Z AUTO 00000KT 10SM CLR 22/01 A2994 RMK A01,M
BAM,2023-08-31 16:55,-116.8743,40.5990,1382.36,71.60,33.80,24.86,20.00,6.00,0.00,29.96,M,10.00,M,CLR,M,M,M,M,M,M,M,M,M,M,M,M,M,M,71.60,KBAM 311655Z AUTO 02006KT 10SM CLR 22/01 A2996 RMK AO1,M
TMT,2023-08-31 16:55,-117.1971,39.4643,1749.34,67.00,32.00,27.07,0.00,0.00,0.00,30.03,M,M,M,CLR,M,M,M,M,M,M,M,M,M,M,M,M,M,M,67.00,KTMT 311655Z AUTO 00000KT CLR 19/00 A3003 RMK AO2 T01940001 PWINO,M
10U,2023-08-31 16:55,-116.1876,41.9532,1637.00,69.80,33.80,26.43,50.00,8.00,0.00,30.01,M,10.00,M,CLR,M,M,M,M,M,M,M,M,M,M,M,M,M,M,69.80,K10U 311655Z AUTO 05008KT 10SM CLR 21/01 A3001 RMK AO2,M
INS,2023-08-31 16:55,-115.6733,36.5872,955.00,89.20,33.80,13.98,90.00,4.00,0.00,29.88,1006.30,10.00,M,CLR,M,M,M,M,M,M,M,M,M,M,M,M,M,M,85.25,KINS 311655Z AUTO 09004KT 10SM CLR 32/01 A2988 RMK AO2 SLP063 T03180010 $,M
LSV,2023-08-31 16:55,-115.0343,36.2362,570.00,103.60,43.00,12.89,100.00,3.00,0.00,29.77,1004.90,10.00,M,CLR,M,M,M,M,M,M,M,M,M,M,M,M,M,M,99.12,KLSV 311655Z AUTO 10003KT 10SM CLR 40/06 A2977 RMK AO2 SLP049 T03980062 $,M
EKO,2023-08-31 16:56,-115.7860,40.8242,1367.00,66.00,34.00,30.37,350.00,3.00,0.00,30.01,1012.10,10.00,M,CLR,M,M,M,M,M,M,M,M,M,M,M,M,M,M,66.00,KEKO 311656Z AUTO 35003KT 10SM CLR 19/01 A3001 RMK AO2 SLP121 T01890011 $,M
WMC,2023-08-31 16:56,-117.8072,40.9019,1315.00,73.00,30.00,20.34,60.00,9.00,0.00,29.94,1009.90,10.00,M,CLR,M,M,M,M,M,M,M,M,M,M,M,M,M,M,73.00,KWMC 311656Z AUTO 06009KT 10SM CLR 23/M01 A2994 RMK AO2 SLP099 T02281011,M
NFL,2023-08-31 16:56,-118.7010,39.4166,1199.00,75.00,32.00,20.63,0.00,0.00,0.00,29.92,1010.50,10.00,M,CLR,M,M,M,M,M,M,M,M,M,M,M,M,M,M,75.00,KNFL 311656Z 00000KT 10SM CLR 24/00 A2992 RMK AO2 SLP105 T02390000,M
HND,2023-08-31 16:56,-115.1344,35.9729,742.79,99.00,44.00,15.38,190.00,10.00,0.00,29.86,1009.10,10.00,M,CLR,M,M,M,M,M,M,M,M,M,M,M,M,M,M,94.85,KHND 311656Z 19010KT 10SM CLR 37/07 A2986 RMK AO2 SLP091 T03720067,M
TPH,2023-08-31 16:56,-117.0904,38.0505,1654.00,75.00,29.00,18.26,120.00,6.00,0.00,30.03,1009.40,10.00,M,CLR,M,M,M,M,M,M,M,M,M,M,M,M,M,M,75.00,KTPH 311656Z AUTO 12006KT 10SM CLR 24/M02 A3003 RMK AO2 SLP094 T02391017,M
LAS,2023-08-31 16:56,-115.1634,36.0719,663.00,99.00,43.00,14.80,180.00,8.00,0.00,29.82,1006.50,10.00,M,FEW,M,M,M,12000.00,M,M,M,M,M,M,M,M,M,M,94.72,KLAS 311656Z 18008KT 10SM FEW120 37/06 A2982 RMK AO2 SLP065 T03720061,M
BVU,2023-08-31 17:15,-114.8611,35.9475,671.00,98.60,53.60,22.29,160.00,12.00,0.00,29.83,M,10.00,M,CLR,M,M,M,M,M,M,M,M,M,M,M,M,M,M,96.51,KBVU 311715Z AUTO 16012KT 10SM CLR 37/12 A2983 RMK AO2,M
CXP,2023-08-31 17:15,-119.7326,39.1923,1431.00,69.80,33.80,26.43,0.00,0.00,0.00,29.97,M,10.00,M,CLR,M,M,M,M,M,M,M,M,M,M,M,M,M,M,69.80,KCXP 311715Z AUTO 00000KT 10SM CLR 21/01 A2997 RMK AO2,M
RTS,2023-08-31 17:15,-119.8764,39.6682,1539.00,73.40,24.80,16.20,M,4.00,0.00,29.98,M,10.00,10.00,CLR,M,M,M,M,M,M,M,M,M,M,M,M,M,M,73.40,KRTS 311715Z AUTO VRB04G10KT 10SM CLR 23/M04 A2998 RMK AO2,M
05U,2023-08-31 17:15,-116.0051,39.6042,1811.23,75.20,28.40,17.70,M,M,0.00,30.06,M,10.00,M,M,M,M,M,M,M,M,M,M,M,M,M,M,M,M,75.20,K05U 311715Z AUTO 10SM 24/M02 A3006 RMK A01,M
MEV,2023-08-31 17:15,-119.7500,38.9963,1441.42,73.40,28.40,18.80,0.00,0.00,0.00,29.96,M,10.00,M,CLR,M,M,M,M,M,M,M,M,M,M,M,M,M,M,73.40,KMEV 311715Z AUTO 00000KT 10SM CLR 23/M02 A2996 RMK AO2,M
HTH,2023-08-31 17:15,-118.6315,38.5448,1282.89,73.40,32.00,21.76,20.00,4.00,0.00,29.94,M,10.00,M,CLR,M,M,M,M,M,M,M,M,M,M,M,M,M,M,73.40,KHTH 311715Z AUTO 02004KT 10SM CLR 23/00 A2994 RMK A01,M
BAM,2023-08-31 17:15,-116.8743,40.5990,1382.36,71.60,33.80,24.86,340.00,6.00,0.00,29.96,M,10.00,M,CLR,M,M,M,M,M,M,M,M,M,M,M,M,M,M,71.60,KBAM 311715Z AUTO 34006KT 10SM CLR 22/01 A2996 RMK AO1,M
TMT,2023-08-31 17:15,-117.1971,39.4643,1749.34,69.00,33.30,26.63,0.00,0.00,0.00,30.02,M,M,M,CLR,M,M,M,M,M,M,M,M,M,M,M,M,M,M,69.00,KTMT 311715Z AUTO 00000KT CLR 21/01 A3002 RMK AO2 T02060007 PWINO,M
10U,2023-08-31 17:15,-116.1876,41.9532,1637.00,73.40,30.20,20.23,110.00,8.00,0.00,30.00,M,10.00,M,CLR,M,M,M,M,M,M,M,M,M,M,M,M,M,M,73.40,K10U 311715Z AUTO 11008KT 10SM CLR 23/M01 A3000 RMK AO2,M
VGT,2023-08-31 17:30,-115.1933,36.2111,667.00,101.00,44.00,14.48,130.00,7.00,0.00,29.81,M,M,M,FEW,M,M,M,200.00,M,M,M,M,M,M,M,M,M,M,96.80,KVGT 311730Z AUTO 13007KT FEW002 38/07 A2981 RMK AO2 T03830067 PWINO PNO $,M
05U,2023-08-31 17:30,-116.0051,39.6042,1811.23,77.00,28.40,16.67,M,M,0.00,30.05,M,10.00,M,M,M,M,M,M,M,M,M,M,M,M,M,M,M,M,77.00,K05U 311730Z AUTO 10SM 25/M02 A3005 RMK A01,M
BVU,2023-08-31 17:35,-114.8611,35.9475,671.00,98.60,55.40,23.81,160.00,13.00,0.00,29.82,M,10.00,20.00,CLR,M,M,M,M,M,M,M,M,M,M,M,M,M,M,97.09,KBVU 311735Z AUTO 16013G20KT 10SM CLR 37/13 A2982 RMK AO2,M
CXP,2023-08-31 17:35,-119.7326,39.1923,1431.00,73.40,33.80,23.39,290.00,3.00,0.00,29.97,M,10.00,M,CLR,M,M,M,M,M,M,M,M,M,M,M,M,M,M,73.40,KCXP 311735Z AUTO 29003KT 10SM CLR 23/01 A2997 RMK AO2,M
RTS,2023-08-31 17:35,-119.8764,39.6682,1539.00,75.20,24.80,15.25,M,4.00,0.00,29.97,M,10.00,10.00,CLR,M,M,M,M,M,M,M,M,M,M,M,M,M,M,75.20,KRTS 311735Z AUTO VRB04G10KT 10SM CLR 24/M04 A2997 RMK AO2,M
MEV,2023-08-31 17:35,-119.7500,38.9963,1441.42,75.20,33.80,22.02,300.00,6.00,0.00,29.95,M,10.00,M,CLR,M,M,M,M,M,M,M,M,M,M,M,M,M,M,75.20,KMEV 311735Z AUTO 30006KT 10SM CLR 24/01 A2995 RMK AO2,M
HTH,2023-08-31 17:35,-118.6315,38.5448,1282.89,75.20,32.00,20.49,360.00,3.00,0.00,29.93,M,10.00,M,CLR,M,M,M,M,M,M,M,M,M,M,M,M,M,M,75.20,KHTH 311735Z AUTO 36003KT 10SM CLR 24/00 A2993 RMK A01,M
BAM,2023-08-31 17:35,-116.8743,40.5990,1382.36,73.40,33.80,23.39,350.00,6.00,0.00,29.95,M,10.00,M,CLR,M,M,M,M,M,M,M,M,M,M,M,M,M,M,73.40,KBAM 311735Z AUTO 35006KT 10SM CLR 23/01 A2995 RMK AO1,M
TMT,2023-08-31 17:35,-117.1971,39.4643,1749.34,72.50,33.60,23.92,0.00,0.00,0.00,30.01,M,M,M,CLR,M,M,M,M,M,M,M,M,M,M,M,M,M,M,72.50,KTMT 311735Z AUTO 00000KT CLR 23/01 A3001 RMK AO2 T02250009 PWINO,M
10U,2023-08-31 17:35,-116.1876,41.9532,1637.00,73.40,26.60,17.46,M,3.00,0.00,29.99,M,10.00,M,CLR,M,M,M,M,M,M,M,M,M,M,M,M,M,M,73.40,K10U 311735Z AUTO VRB03KT 10SM CLR 23/M03 A2999 RMK AO2,M
P68,2023-08-31 17:53,-116.0056,39.6014,1993.00,79.00,31.00,17.35,M,5.00,0.00,30.01,1008.70,M,M,M,M,M,M,M,M,M,M,M,M,M,M,M,M,M,79.00,KP68 311753Z AUTO VRB05KT 26/M01 A3001 RMK AO1 SLP087 T02611006 10261 20039 58015,M
DRA,2023-08-31 17:53,-116.0278,36.6206,1009.00,96.00,24.00,7.58,200.00,15.00,0.00,29.89,1006.30,10.00,25.00,CLR,M,M,M,M,M,M,M,M,M,M,M,26.00,200.00,2023-08-31 17:38,89.67,KDRA 311753Z AUTO 20015G25KT 10SM CLR 36/M04 A2989 RMK AO2 PK WND 20026/1738 SLP063 T03561044 10361 20222 53000,M
ELY,2023-08-31 17:53,-114.8453,39.2950,1909.00,84.00,23.00,10.60,220.00,16.00,0.00,30.06,1007.20,10.00,33.00,CLR,M,M,M,M,M,M,M,M,M,M,M,33.00,190.00,2023-08-31 17:48,80.75,KELY 311753Z AUTO 22016G33KT 10SM CLR 29/M05 A3006 RMK AO2 PK WND 19033/1748 SLP072 T02891050 10289 20033 56013,M
VGT,2023-08-31 17:53,-115.1933,36.2111,667.00,102.00,44.00,14.05,M,M,0.00,29.81,1007.50,10.00,M,CLR,M,M,M,M,M,M,M,M,M,M,M,M,M,M,97.77,KVGT 311753Z 10SM CLR 39/07 A2981 RMK AO2 SLP075 6//// T03890067 10389 20272 58004 PNO $,M
LOL,2023-08-31 17:53,-118.5701,40.0684,1192.43,75.00,32.00,20.63,M,3.00,0.00,29.90,1008.70,10.00,M,CLR,M,M,M,M,M,M,M,M,M,M,M,M,M,M,75.00,KLOL 311753Z AUTO VRB03KT 10SM CLR 24/00 A2990 RMK AO2 SLP087 T02390000 10239 20072 58009,M
BVU,2023-08-31 17:55,-114.8611,35.9475,671.00,98.60,55.40,23.81,140.00,18.00,0.00,29.82,M,10.00,M,CLR,M,M,M,M,M,M,M,M,M,M,M,M,M,M,97.09,KBVU 311755Z AUTO 14018KT 10SM CLR 37/13 A2982 RMK AO2,M
CXP,2023-08-31 17:55,-119.7326,39.1923,1431.00,75.20,32.00,20.49,320.00,4.00,0.00,29.95,M,10.00,M,CLR,M,M,M,M,M,M,M,M,M,M,M,M,M,M,75.20,KCXP 311755Z AUTO 32004KT 10SM CLR 24/M00 A2995 RMK AO2,M
RNO,2023-08-31 17:55,-119.7711,39.4839,1341.00,77.00,35.00,21.76,M,3.00,0.00,29.92,1007.70,10.00,M,CLR,M,M,M,M,M,M,M,M,M,M,M,M,M,M,77.00,KRNO 311755Z VRB03KT 10SM CLR 25/02 A2992 RMK AO2 SLP077 T02500017 10250 20128 58015,M
RTS,2023-08-31 17:55,-119.8764,39.6682,1539.00,75.20,24.80,15.25,M,3.00,0.00,29.97,M,10.00,M,CLR,M,M,M,M,M,M,M,M,M,M,M,M,M,M,75.20,KRTS 311755Z AUTO VRB03KT 10SM CLR 24/M04 A2997 RMK AO2,M
05U,2023-08-31 17:55,-116.0051,39.6042,1811.23,80.60,30.20,15.94,M,M,0.00,30.03,M,10.00,M,M,M,M,M,M,M,M,M,M,M,M,M,M,M,M,78.77,K05U 311755Z AUTO 10SM 27/M01 A3003 RMK A01,M
MEV,2023-08-31 17:55,-119.7500,38.9963,1441.42,73.40,41.00,31.05,M,6.00,0.00,29.94,M,10.00,M,CLR,M,M,M,M,M,M,M,M,M,M,M,M,M,M,73.40,KMEV 311755Z AUTO VRB06KT 10SM CLR 23/05 A2994 RMK AO2,M
HTH,2023-08-31 17:55,-118.6315,38.5448,1282.89,77.00,33.80,20.74,M,3.00,0.00,29.93,M,10.00,M,CLR,M,M,M,M,M,M,M,M,M,M,M,M,M,M,77.00,KHTH 311755Z AUTO VRB03KT 10SM CLR 25/01 A2993 RMK A01,M
BAM,2023-08-31 17:55,-116.8743,40.5990,1382.36,75.20,33.80,22.02,20.00,4.00,0.00,29.95,M,10.00,M,CLR,M,M,M,M,M,M,M,M,M,M,M,M,M,M,75.20,KBAM 311755Z AUTO 02004KT 10SM CLR 24/01 A2995 RMK AO1,M
TMT,2023-08-31 17:55,-117.1971,39.4643,1749.34,75.00,32.00,20.63,290.00,3.00,0.00,30.00,M,M,M,CLR,M,M,M,M,M,M,M,M,M,M,M,M,M,M,75.00,KTMT 311755Z AUTO 29003KT CLR 24/00 A3000 RMK AO2 T02380001 10238 20002 PWINO,M
INS,2023-08-31 17:55,-115.6733,36.5872,955.00,95.00,30.00,10.01,90.00,8.00,0.00,29.87,1005.80,10.00,M,CLR,M,M,M,M,M,M,M,M,M,M,M,M,M,M,89.45,KINS 311755Z AUTO 09008KT 10SM CLR 35/M01 A2987 RMK AO2 SLP058 T03501012 10350 20206 58003 $,M
LSV,2023-08-31 17:55,-115.0343,36.2362,570.00,105.60,42.60,11.96,160.00,9.00,0.00,29.76,1004.70,10.00,M,CLR,M,M,M,M,M,M,M,M,M,M,M,M,M,M,100.79,KLSV 311755Z AUTO 16009KT 10SM CLR 41/06 A2976 RMK AO2 SLP047 T04090059 10415 20256 56004 $,M
EKO,2023-08-31 17:56,-115.7860,40.8242,1367.00,73.00,35.00,24.87,M,3.00,0.00,29.98,1010.50,10.00,M,CLR,M,M,M,M,M,M,M,M,M,M,M,M,M,M,73.00,KEKO 311756Z AUTO VRB03KT 10SM CLR 23/02 A2998 RMK AO2 SLP105 T02280017 10228 20056 58017,M
WMC,2023-08-31 17:56,-117.8072,40.9019,1315.00,78.00,30.00,17.22,60.00,5.00,0.00,29.91,1008.70,10.00,M,CLR,M,M,M,M,M,M,M,M,M,M,M,M,M,M,78.00,KWMC 311756Z AUTO 06005KT 10SM CLR 26/M01 A2991 RMK AO2 SLP087 T02561011 10256 20044 58015,M
NFL,2023-08-31 17:56,-118.7010,39.4166,1199.00,78.00,34.00,20.23,320.00,3.00,0.00,29.90,1010.00,10.00,M,CLR,M,M,M,M,M,M,M,M,M,M,M,M,M,M,78.00,KNFL 311756Z 32003KT 10SM CLR 26/01 A2990 RMK AO2 SLP100 T02560011 10256 20100 58008,M
HND,2023-08-31 17:56,-115.1344,35.9729,742.79,102.00,48.00,16.35,200.00,10.00,0.00,29.86,1008.70,10.00,M,CLR,M,M,M,M,M,M,M,M,M,M,M,M,M,M,98.58,KHND 311756Z 20010KT 10SM CLR 39/09 A2986 RMK AO2 SLP087 T03890089 10389 20283 58002,M
TPH,2023-08-31 17:56,-117.0904,38.0505,1654.00,81.00,25.00,12.70,150.00,10.00,0.00,30.02,1008.40,10.00,M,CLR,M,M,M,M,M,M,M,M,M,M,M,M,M,M,78.89,KTPH 311756Z AUTO 15010KT 10SM CLR 27/M04 A3002 RMK AO2 SLP084 T02721039 10272 20122 58008,M
LAS,2023-08-31 17:56,-115.1634,36.0719,663.00,101.00,44.00,14.48,190.00,7.00,0.00,29.81,1006.10,10.00,19.00,FEW,M,M,M,12000.00,M,M,M,M,M,M,M,M,M,M,96.80,KLAS 311756Z 19007G19KT 10SM FEW120 38/07 A2981 RMK AO2 SLP061 T03830067 10383 20306 58004,M
05U,2023-08-31 18:10,-116.0051,39.6042,1811.23,82.40,30.20,15.03,M,M,0.00,30.03,M,10.00,M,M,M,M,M,M,M,M,M,M,M,M,M,M,M,M,79.97,K05U 311810Z AUTO 10SM 28/M01 A3003 RMK A01,M
BVU,2023-08-31 18:15,-114.8611,35.9475,671.00,100.40,55.40,22.54,160.00,19.00,0.00,29.81,M,10.00,25.00,CLR,M,M,M,M,M,M,M,M,M,M,M,M,M,M,99.06,KBVU 311815Z AUTO 16019G25KT 10SM CLR 38/13 A2981 RMK AO2,M
CXP,2023-08-31 18:15,-119.7326,39.1923,1431.00,80.60,23.00,11.83,210.00,7.00,0.00,29.95,M,10.00,M,CLR,M,M,M,M,M,M,M,M,M,M,M,M,M,M,78.80,KCXP 311815Z AUTO 21007KT 180V240 10SM CLR 27/M05 A2995 RMK AO2,M
RTS,2023-08-31 18:15,-119.8764,39.6682,1539.00,77.00,24.80,14.37,220.00,7.00,0.00,29.97,M,10.00,M,CLR,M,M,M,M,M,M,M,M,M,M,M,M,M,M,77.00,KRTS 311815Z AUTO 22007KT 10SM CLR 25/M04 A2997 RMK AO2,M
MEV,2023-08-31 18:15,-119.7500,38.9963,1441.42,75.20,33.80,22.02,0.00,0.00,0.00,29.93,M,10.00,M,CLR,M,M,M,M,M,M,M,M,M,M,M,M,M,M,75.20,KMEV 311815Z AUTO 00000KT 10SM CLR 24/01 A2993 RMK AO2,M
HTH,2023-08-31 18:15,-118.6315,38.5448,1282.89,78.80,37.40,22.54,0.00,0.00,0.00,29.91,M,10.00,M,CLR,M,M,M,M,M,M,M,M,M,M,M,M,M,M,78.80,KHTH 311815Z AUTO 00000KT 10SM CLR 26/03 A2991 RMK A01,M
BAM,2023-08-31 18:15,-116.8743,40.5990,1382.36,77.00,33.80,20.74,300.00,3.00,0.00,29.93,M,10.00,M,CLR,M,M,M,M,M,M,M,M,M,M,M,M,M,M,77.00,KBAM 311815Z AUTO 30003KT 10SM CLR 25/01 A2993 RMK AO1,M
TMT,2023-08-31 18:15,-117.1971,39.4643,1749.34,76.50,32.00,19.62,320.00,3.00,0.00,29.99,M,M,M,CLR,M,M,M,M,M,M,M,M,M,M,M,M,M,M,76.50,KTMT 311815Z AUTO 32003KT CLR 25/00 A2999 RMK AO2 T02470000 PWINO,M
BVU,2023-08-31 18:35,-114.8611,35.9475,671.00,100.40,55.40,22.54,140.00,18.00,0.00,29.81,M,10.00,24.00,CLR,M,M,M,M,M,M,M,M,M,M,M,M,M,M,99.06,KBVU 311835Z AUTO 14018G24KT 10SM CLR 38/13 A2981 RMK AO2,M
CXP,2023-08-31 18:35,-119.7326,39.1923,1431.00,82.40,23.00,11.16,180.00,7.00,0.00,29.94,M,10.00,15.00,CLR,M,M,M,M,M,M,M,M,M,M,M,M,M,M,79.67,KCXP 311835Z AUTO 18007G15KT 10SM CLR 28/M05 A2994 RMK AO2,M
RTS,2023-08-31 18:35,-119.8764,39.6682,1539.00,78.80,21.20,11.64,250.00,12.00,0.00,29.96,M,10.00,20.00,CLR,M,M,M,M,M,M,M,M,M,M,M,M,M,M,78.80,KRTS 311835Z AUTO 25012G20KT 10SM CLR 26/M06 A2996 RMK AO2,M
05U,2023-08-31 18:35,-116.0051,39.6042,1811.23,84.20,28.40,13.18,M,M,0.00,30.02,M,10.00,M,M,M,M,M,M,M,M,M,M,M,M,M,M,M,M,81.25,K05U 311835Z AUTO 10SM 29/M02 A3002 RMK A01,M
MEV,2023-08-31 18:35,-119.7500,38.9963,1441.42,78.80,33.80,19.55,M,6.00,0.00,29.92,M,10.00,M,CLR,M,M,M,M,M,M,M,M,M,M,M,M,M,M,78.80,KMEV 311835Z AUTO VRB06KT 10SM CLR 26/01 A2992 RMK AO2,M
HTH,2023-08-31 18:35,-118.6315,38.5448,1282.89,78.80,33.80,19.55,0.00,0.00,0.00,29.90,M,10.00,M,CLR,M,M,M,M,M,M,M,M,M,M,M,M,M,M,78.80,KHTH 311835Z AUTO 00000KT 10SM CLR 26/01 A2990 RMK A01,M
BAM,2023-08-31 18:35,-116.8743,40.5990,1382.36,78.80,33.80,19.55,0.00,0.00,0.00,29.92,M,10.00,M,CLR,M,M,M,M,M,M,M,M,M,M,M,M,M,M,78.80,KBAM 311835Z AUTO 00000KT 10SM CLR 26/01 A2992 RMK AO1,M
TMT,2023-08-31 18:35,-117.1971,39.4643,1749.34,78.60,33.00,19.05,300.00,5.00,0.00,29.98,M,M,M,CLR,M,M,M,M,M,M,M,M,M,M,M,M,M,M,78.60,KTMT 311835Z AUTO 30005KT CLR 26/01 A2998 RMK AO2 T02590005 PWINO,M
10U,2023-08-31 18:35,-116.1876,41.9532,1637.00,78.80,26.60,14.59,180.00,4.00,0.00,29.96,M,10.00,M,CLR,M,M,M,M,M,M,M,M,M,M,M,M,M,M,78.80,K10U 311835Z AUTO 18004KT 10SM CLR 26/M03 A2996 RMK AO2,M
05U,2023-08-31 18:50,-116.0051,39.6042,1811.23,86.00,28.40,12.44,M,M,0.00,30.01,M,10.00,M,M,M,M,M,M,M,M,M,M,M,M,M,M,M,M,82.54,K05U 311850Z AUTO 10SM 30/M02 A3001 RMK A01,M
P68,2023-08-31 18:53,-116.0056,39.6014,1993.00,85.00,27.00,12.12,160.00,14.00,0.00,29.98,1006.90,M,23.00,M,M,M,M,M,M,M,M,M,M,M,M,M,M,M,81.72,KP68 311853Z AUTO 16014G23KT 29/M03 A2998 RMK AO1 SLP069 T02941028,M
DRA,2023-08-31 18:53,-116.0278,36.6206,1009.00,98.00,29.00,8.77,200.00,19.00,0.00,29.87,1005.70,10.00,25.00,CLR,M,M,M,M,M,M,M,M,M,M,M,30.00,180.00,2023-08-31 18:06,91.82,KDRA 311853Z AUTO 20019G25KT 10SM CLR 37/M02 A2987 RMK AO2 PK WND 18030/1806 SLP057 T03671017,M
ELY,2023-08-31 18:53,-114.8453,39.2950,1909.00,84.00,26.00,12.01,190.00,16.00,0.00,30.05,1007.30,10.00,30.00,CLR,M,M,M,M,M,M,M,M,M,M,M,34.00,190.00,2023-08-31 18:20,80.95,KELY 311853Z AUTO 19016G30KT 10SM CLR 29/M03 A3005 RMK AO2 PK WND 19034/1820 SLP073 T02891033,M
VGT,2023-08-31 18:53,-115.1933,36.2111,667.00,104.00,46.00,14.28,0.00,0.00,0.00,29.78,1006.70,10.00,M,CLR,M,M,M,M,M,M,M,M,M,M,M,M,M,M,100.12,KVGT 311853Z 00000KT 10SM CLR 40/08 A2978 RMK AO2 SLP067 T04000078 PNO $,M
LOL,2023-08-31 18:53,-118.5701,40.0684,1192.43,80.00,35.00,19.71,140.00,5.00,0.00,29.87,1007.80,10.00,M,CLR,M,M,M,M,M,M,M,M,M,M,M,M,M,M,78.63,KLOL 311853Z AUTO 14005KT 10SM CLR 27/02 A2987 RMK AO2 SLP078 T02670017,M
BVU,2023-08-31 18:55,-114.8611,35.9475,671.00,102.20,53.60,20.00,160.00,19.00,0.00,29.80,M,10.00,24.00,CLR,M,M,M,M,M,M,M,M,M,M,M,M,M,M,100.38,KBVU 311855Z AUTO 16019G24KT 10SM CLR 39/12 A2980 RMK AO2,M
CXP,2023-08-31 18:55,-119.7326,39.1923,1431.00,80.60,21.20,10.97,M,6.00,0.00,29.93,M,10.00,M,CLR,M,M,M,M,M,M,M,M,M,M,M,M,M,M,78.68,KCXP 311855Z AUTO VRB06KT 10SM CLR 27/M06 A2993 RMK AO2,M
RTS,2023-08-31 18:55,-119.8764,39.6682,1539.00,78.80,19.40,10.78,230.00,8.00,0.00,29.96,M,10.00,20.00,CLR,M,M,M,M,M,M,M,M,M,M,M,M,M,M,78.80,KRTS 311855Z AUTO 23008G20KT 10SM CLR 26/M07 A2996 RMK AO2,M
MEV,2023-08-31 18:55,-119.7500,38.9963,1441.42,84.20,23.00,10.53,200.00,11.00,0.00,29.91,M,10.00,M,CLR,M,M,M,M,M,M,M,M,M,M,M,M,M,M,80.88,KMEV 311855Z AUTO 20011KT 10SM CLR 29/M05 A2991 RMK AO2,M
HTH,2023-08-31 18:55,-118.6315,38.5448,1282.89,80.60,32.00,17.14,10.00,8.00,0.00,29.88,M,10.00,M,CLR,M,M,M,M,M,M,M,M,M,M,M,M,M,M,78.82,KHTH 311855Z AUTO 01008KT 360V060 10SM CLR 27/M00 A2988 RMK A01,M
RNO,2023-08-31 18:55,-119.7711,39.4839,1341.00,82.00,27.00,13.36,120.00,4.00,0.00,29.90,1006.70,10.00,M,CLR,M,M,M,M,M,M,M,M,M,M,M,M,M,M,79.64,KRNO 311855Z COR 12004KT 10SM CLR 28/M03 A2990 RMK AO2 SLP067 T02781028,M
BAM,2023-08-31 18:55,-116.8743,40.5990,1382.36,80.60,32.00,17.14,0.00,0.00,0.00,29.91,M,10.00,M,CLR,M,M,M,M,M,M,M,M,M,M,M,M,M,M,78.82,KBAM 311855Z AUTO 00000KT 10SM CLR 27/00 A2991 RMK AO1,M
TMT,2023-08-31 18:55,-117.1971,39.4643,1749.34,79.70,32.00,17.65,270.00,4.00,0.00,29.97,M,M,M,CLR,M,M,M,M,M,M,M,M,M,M,M,M,M,M,79.70,KTMT 311855Z AUTO 27004KT CLR 27/00 A2997 RMK AO2 T02650000 PWINO,M
10U,2023-08-31 18:55,-116.1876,41.9532,1637.00,80.60,26.60,13.75,0.00,0.00,0.00,29.95,M,10.00,M,CLR,M,M,M,M,M,M,M,M,M,M,M,M,M,M,78.68,K10U 311855Z AUTO 00000KT 10SM CLR 27/M03 A2995 RMK AO2,M
INS,2023-08-31 18:55,-115.6733,36.5872,955.00,98.80,35.00,10.90,200.00,13.00,0.00,29.85,1005.20,10.00,16.00,CLR,M,M,M,M,M,M,M,M,M,M,M,M,M,M,93.30,KINS 311855Z AUTO 20013G16KT 10SM CLR 37/02 A2985 RMK AO2 SLP052 T03710017 $,M
LSV,2023-08-31 18:55,-115.0343,36.2362,570.00,104.40,47.50,14.93,110.00,10.00,0.00,29.74,1004.00,10.00,16.00,CLR,M,M,M,M,M,M,M,M,M,M,M,M,M,M,100.87,KLSV 311855Z AUTO 11010G16KT 10SM CLR 40/09 A2974 RMK AO2 SLP040 T04020086 $,M
EKO,2023-08-31 18:56,-115.7860,40.8242,1367.00,80.00,33.00,18.20,360.00,4.00,0.00,29.94,1008.70,10.00,M,CLR,M,M,M,M,M,M,M,M,M,M,M,M,M,M,78.56,KEKO 311856Z AUTO 36004KT 10SM CLR 27/01 A2994 RMK AO2 SLP087 T02670006,M
WMC,2023-08-31 18:56,-117.8072,40.9019,1315.00,81.00,29.00,14.98,100.00,5.00,0.00,29.88,1007.40,10.00,M,CLR,M,M,M,M,M,M,M,M,M,M,M,M,M,M,79.00,KWMC 311856Z AUTO 10005KT 10SM CLR 27/M02 A2988 RMK AO2 SLP074 T02721017,M
NFL,2023-08-31 18:56,-118.7010,39.4166,1199.00,81.00,32.00,16.92,220.00,4.00,0.00,29.87,1009.10,10.00,M,CLR,M,M,M,M,M,M,M,M,M,M,M,M,M,M,79.07,KNFL 311856Z 22004KT 10SM CLR 27/00 A2987 RMK AO2 SLP091 T02720000,M
HND,2023-08-31 18:56,-115.1344,35.9729,742.79,104.00,49.00,15.99,200.00,11.00,0.00,29.84,1008.10,10.00,M,CLR,M,M,M,M,M,M,M,M,M,M,M,M,M,M,100.86,KHND 311856Z 20011KT 10SM CLR 40/09 A2984 RMK AO2 SLP081 T04000094,M
TPH,2023-08-31 18:56,-117.0904,38.0505,1654.00,85.00,20.00,9.04,190.00,15.00,0.00,29.99,1007.40,10.00,23.00,CLR,M,M,M,M,M,M,M,M,M,M,M,M,M,M,81.27,KTPH 311856Z AUTO 19015G23KT 10SM CLR 29/M07 A2999 RMK AO2 SLP074 T02941067,M
LAS,2023-08-31 18:56,-115.1634,36.0719,663.00,103.00,45.00,14.17,200.00,12.00,0.00,29.80,1005.60,10.00,23.00,FEW,FEW,M,M,12000.00,20000.00,M,M,M,M,M,M,26.00,190.00,2023-08-31 18:36,98.93,KLAS 311856Z 20012G23KT 10SM FEW120 FEW200 39/07 A2980 RMK AO2 PK WND 19026/1836 SLP056 T03940072,M
LSV,2023-08-31 19:00,-115.0343,36.2362,570.00,104.00,48.20,15.52,110.00,16.00,0.00,29.73,1003.70,10.00,23.00,CLR,M,M,M,M,M,M,M,M,M,M,M,M,M,M,100.65,KLSV 311900Z AUTO 11016G23KT 10SM CLR 40/09 A2973 RMK AO2 WSHFT 1856 SLP037 $,M
LSV,2023-08-31 19:06,-115.0343,36.2362,570.00,104.00,44.60,13.54,150.00,11.00,0.00,29.73,1003.70,10.00,23.00,CLR,M,M,M,M,M,M,M,M,M,M,M,M,M,M,99.82,KLSV 311906Z AUTO 15011G23KT 10SM CLR 40/07 A2973 RMK AO2 WSHFT 01 SLP037 $,M
BVU,2023-08-31 19:15,-114.8611,35.9475,671.00,102.20,53.60,20.00,150.00,19.00,0.00,29.79,M,10.00,25.00,CLR,M,M,M,M,M,M,M,M,M,M,M,M,M,M,100.38,KBVU 311915Z AUTO 15019G25KT 10SM CLR 39/12 A2979 RMK AO2,M
CXP,2023-08-31 19:15,-119.7326,39.1923,1431.00,82.40,23.00,11.16,M,4.00,0.00,29.92,M,10.00,M,CLR,M,M,M,M,M,M,M,M,M,M,M,M,M,M,79.67,KCXP 311915Z AUTO VRB04KT 10SM CLR 28/M05 A2992 RMK AO2,M
RTS,2023-08-31 19:15,-119.8764,39.6682,1539.00,78.80,21.20,11.64,260.00,10.00,0.00,29.94,M,10.00,M,CLR,M,M,M,M,M,M,M,M,M,M,M,M,M,M,78.80,KRTS 311915Z AUTO 26010KT 220V280 10SM CLR 26/M06 A2994 RMK AO2,M
05U,2023-08-31 19:15,-116.0051,39.6042,1811.23,86.00,26.60,11.55,M,M,0.00,30.00,M,10.00,M,M,M,M,M,M,M,M,M,M,M,M,M,M,M,M,82.39,K05U 311915Z AUTO 10SM 30/M03 A3000 RMK A01,M
MEV,2023-08-31 19:15,-119.7500,38.9963,1441.42,84.20,21.20,9.76,200.00,9.00,0.00,29.91,M,10.00,20.00,CLR,M,M,M,M,M,M,M,M,M,M,M,M,M,M,80.77,KMEV 311915Z AUTO 20009G20KT 10SM CLR 29/M06 A2991 RMK AO2,M
HTH,2023-08-31 19:15,-118.6315,38.5448,1282.89,80.60,33.80,18.42,M,4.00,0.00,29.87,M,10.00,M,CLR,M,M,M,M,M,M,M,M,M,M,M,M,M,M,78.88,KHTH 311915Z AUTO VRB04KT 10SM CLR 27/01 A2987 RMK A01,M
BAM,2023-08-31 19:15,-116.8743,40.5990,1382.36,82.40,32.00,16.17,40.00,3.00,0.00,29.89,M,10.00,M,CLR,M,M,M,M,M,M,M,M,M,M,M,M,M,M,80.00,KBAM 311915Z AUTO 04003KT 10SM CLR 28/00 A2989 RMK AO1,M
TMT,2023-08-31 19:15,-117.1971,39.4643,1749.34,82.20,31.60,16.01,290.00,6.00,0.00,29.96,M,M,M,CLR,M,M,M,M,M,M,M,M,M,M,M,M,M,M,79.85,KTMT 311915Z AUTO 29006KT CLR 28/00 A2996 RMK AO2 T02791002 PWINO,M
10U,2023-08-31 19:20,-116.1876,41.9532,1637.00,80.60,26.60,13.75,M,5.00,0.00,29.94,M,10.00,M,CLR,M,M,M,M,M,M,M,M,M,M,M,M,M,M,78.68,K10U 311920Z AUTO VRB05KT 10SM CLR 27/M03 A2994 RMK AO2,M
INS,2023-08-31 19:30,-115.6733,36.5872,955.00,100.40,35.60,10.63,170.00,12.00,0.00,29.83,1004.30,10.00,19.00,CLR,M,M,M,M,M,M,M,M,M,M,M,M,M,M,94.76,KINS 311930Z AUTO 17012G19KT 10SM CLR 38/02 A2983 RMK AO2 WSHFT 25 SLP043 $,M
05U,2023-08-31 19:30,-116.0051,39.6042,1811.23,86.00,24.80,10.72,M,M,0.00,29.98,M,10.00,M,M,M,M,M,M,M,M,M,M,M,M,M,M,M,M,82.26,K05U 311930Z AUTO 10SM 30/M04 A2998 RMK A01,M
BVU,2023-08-31 19:35,-114.8611,35.9475,671.00,104.00,53.60,18.95,160.00,20.00,0.00,29.78,M,10.00,26.00,CLR,M,M,M,M,M,M,M,M,M,M,M,M,M,M,102.31,KBVU 311935Z AUTO 16020G26KT 10SM CLR 40/12 A2978 RMK AO2,M
CXP,2023-08-31 19:35,-119.7326,39.1923,1431.00,82.40,19.40,9.58,240.00,8.00,0.00,29.91,M,10.00,16.00,CLR,M,M,M,M,M,M,M,M,M,M,M,M,M,M,79.45,KCXP 311935Z AUTO 24008G16KT 210V270 10SM CLR 28/M07 A2991 RMK AO2,M
RTS,2023-08-31 19:35,-119.8764,39.6682,1539.00,78.80,17.60,9.98,270.00,7.00,0.00,29.94,M,10.00,19.00,CLR,M,M,M,M,M,M,M,M,M,M,M,M,M,M,78.80,KRTS 311935Z AUTO 27007G19KT 10SM CLR 26/M08 A2994 RMK AO2,M
MEV,2023-08-31 19:35,-119.7500,38.9963,1441.42,84.20,21.20,9.76,210.00,9.00,0.00,29.90,M,10.00,17.00,CLR,M,M,M,M,M,M,M,M,M,M,M,M,M,M,80.77,KMEV 311935Z AUTO 21009G17KT 10SM CLR 29/M06 A2990 RMK AO2,M
HTH,2023-08-31 19:35,-118.6315,38.5448,1282.89,82.40,32.00,16.17,360.00,8.00,0.00,29.86,M,10.00,M,CLR,M,M,M,M,M,M,M,M,M,M,M,M,M,M,80.00,KHTH 311935Z AUTO 36008KT 10SM CLR 28/M00 A2986 RMK A01,M
BAM,2023-08-31 19:35,-116.8743,40.5990,1382.36,82.40,32.00,16.17,270.00,3.00,0.00,29.88,M,10.00,M,CLR,M,M,M,M,M,M,M,M,M,M,M,M,M,M,80.00,KBAM 311935Z AUTO 27003KT 10SM CLR 28/00 A2988 RMK AO1,M
TMT,2023-08-31 19:35,-117.1971,39.4643,1749.34,84.00,27.70,12.88,220.00,5.00,0.00,29.95,M,M,M,CLR,M,M,M,M,M,M,M,M,M,M,M,M,M,M,81.08,KTMT 311935Z AUTO 22005KT CLR 29/M02 A2995 RMK AO2 T02881024 PWINO,M
10U,2023-08-31 19:35,-116.1876,41.9532,1637.00,80.60,26.60,13.75,M,4.00,0.00,29.93,M,10.00,10.00,CLR,M,M,M,M,M,M,M,M,M,M,M,M,M,M,78.68,K10U 311935Z AUTO VRB04G10KT 10SM CLR 27/M03 A2993 RMK AO2,M
INS,2023-08-31 19:38,-115.6733,36.5872,955.00,100.40,35.60,10.63,160.00,15.00,0.00,29.83,1004.50,10.00,21.00,CLR,M,M,M,M,M,M,M,M,M,M,M,M,M,M,94.76,KINS 311938Z AUTO 16015G21KT 10SM CLR 38/02 A2983 RMK AO2 WSHFT 35 SLP045 $,M
P68,2023-08-31 19:53,-116.0056,39.6014,1993.00,87.00,17.00,7.46,190.00,14.00,0.00,29.94,1005.30,M,25.00,M,M,M,M,M,M,M,M,M,M,M,M,29.00,160.00,2023-08-31 19:17,82.54,KP68 311953Z AUTO 19014G25KT 31/M08 A2994 RMK AO1 PK WND 16029/1917 SLP053 T03061083,M
DRA,2023-08-31 19:53,-116.0278,36.6206,1009.00,99.00,36.00,11.27,210.00,17.00,0.00,29.85,1005.10,10.00,31.00,CLR,M,M,M,M,M,M,M,M,M,M,M,31.00,210.00,2023-08-31 19:44,93.63,KDRA 311953Z AUTO 21017G31KT 10SM CLR 37/02 A2985 RMK AO2 PK WND 21031/1944 SLP051 T03720022,M
ELY,2023-08-31 19:53,-114.8453,39.2950,1909.00,85.00,29.00,13.16,210.00,19.00,0.00,30.03,1007.00,10.00,35.00,CLR,M,M,M,M,M,M,M,M,M,M,M,35.00,190.00,2023-08-31 19:48,81.86,KELY 311953Z AUTO 21019G35KT 10SM CLR 29/M02 A3003 RMK AO2 PK WND 19035/1948 SLP070 T02941017,M
VGT,2023-08-31 19:53,-115.1933,36.2111,667.00,106.00,46.00,13.46,200.00,15.00,0.00,29.76,1005.80,10.00,32.00,CLR,M,M,M,M,M,M,M,M,M,M,M,32.00,200.00,2023-08-31 19:45,102.07,KVGT 311953Z 20015G32KT 10SM CLR 41/08 A2976 RMK AO2 PK WND 20032/1945 SLP058 T04110078 PNO $,M
LOL,2023-08-31 19:53,-118.5701,40.0684,1192.43,83.00,30.00,14.62,200.00,7.00,0.00,29.83,1006.60,10.00,M,CLR,M,M,M,M,M,M,M,M,M,M,M,M,M,M,80.39,KLOL 311953Z AUTO 20007KT 10SM CLR 28/M01 A2983 RMK AO2 SLP066 T02831011,M
BVU,2023-08-31 19:55,-114.8611,35.9475,671.00,104.00,53.60,18.95,160.00,22.00,0.00,29.77,M,10.00,30.00,CLR,M,M,M,M,M,M,M,M,M,M,M,M,M,M,102.31,KBVU 311955Z AUTO 16022G30KT 10SM CLR 40/12 A2977 RMK AO2,M
CXP,2023-08-31 19:55,-119.7326,39.1923,1431.00,84.20,19.40,9.04,240.00,12.00,0.00,29.90,M,10.00,17.00,CLR,M,M,M,M,M,M,M,M,M,M,M,M,M,M,80.68,KCXP 311955Z AUTO 24012G17KT 220V280 10SM CLR 29/M07 A2990 RMK AO2,M
RNO,2023-08-31 19:55,-119.7711,39.4839,1341.00,87.00,17.00,7.46,200.00,11.00,0.00,29.87,1005.40,10.00,21.00,CLR,M,M,M,M,M,M,M,M,M,M,M,28.00,170.00,2023-08-31 19:25,82.54,KRNO 311955Z 20011G21KT 10SM CLR 31/M08 A2987 RMK AO2 PK WND 17028/1925 SLP054 T03061083,M
RTS,2023-08-31 19:55,-119.8764,39.6682,1539.00,80.60,17.60,9.40,250.00,18.00,0.00,29.94,M,10.00,25.00,CLR,M,M,M,M,M,M,M,M,M,M,M,M,M,M,78.45,KRTS 311955Z AUTO 25018G25KT 10SM CLR 27/M08 A2994 RMK AO2,M
05U,2023-08-31 19:55,-116.0051,39.6042,1811.23,87.80,19.40,8.06,M,M,0.00,29.97,M,10.00,M,M,M,M,M,M,M,M,M,M,M,M,M,M,M,M,83.23,K05U 311955Z AUTO 10SM 31/M07 A2997 RMK A01,M
MEV,2023-08-31 19:55,-119.7500,38.9963,1441.42,86.00,17.60,7.90,200.00,13.00,0.00,29.89,M,8.00,20.00,CLR,M,M,M,M,M,M,M,M,M,M,M,M,M,M,81.85,KMEV 311955Z AUTO 20013G20KT 8SM CLR 30/M08 A2989 RMK AO2,M
HTH,2023-08-31 19:55,-118.6315,38.5448,1282.89,84.20,28.40,13.18,M,6.00,0.00,29.85,M,10.00,M,CLR,M,M,M,M,M,M,M,M,M,M,M,M,M,M,81.25,KHTH 311955Z AUTO VRB06KT 10SM CLR 29/M02 A2985 RMK A01,M
BAM,2023-08-31 19:55,-116.8743,40.5990,1382.36,86.00,32.00,14.40,230.00,3.00,0.00,29.87,M,10.00,M,CLR,M,M,M,M,M,M,M,M,M,M,M,M,M,M,82.64,KBAM 311955Z AUTO 23003KT 10SM CLR 30/00 A2987 RMK AO1,M
TMT,2023-08-31 19:55,-117.1971,39.4643,1749.34,85.00,25.70,11.49,230.00,6.00,0.00,29.93,M,M,M,CLR,M,M,M,M,M,M,M,M,M,M,M,M,M,M,81.62,KTMT 311955Z AUTO 23006KT CLR 30/M03 A2993 RMK AO2 T02951035 PWINO,M
10U,2023-08-31 19:55,-116.1876,41.9532,1637.00,80.60,24.80,12.76,M,6.00,0.00,29.92,M,10.00,M,CLR,M,M,M,M,M,M,M,M,M,M,M,M,M,M,78.94,K10U 311955Z AUTO VRB06KT 10SM CLR 27/M04 A2992 RMK AO2,M
INS,2023-08-31 19:55,-115.6733,36.5872,955.00,99.30,37.80,11.99,190.00,14.00,0.00,29.83,1004.50,10.00,24.00,CLR,M,M,M,M,M,M,M,M,M,M,M,M,M,M,94.21,KINS 311955Z AUTO 19014G24KT 10SM CLR 37/03 A2983 RMK AO2 SLP045 T03740032 $,M
LSV,2023-08-31 19:55,-115.0343,36.2362,570.00,107.20,43.70,11.90,190.00,20.00,0.00,29.71,1003.00,10.00,28.00,CLR,M,M,M,M,M,M,M,M,M,M,M,28.00,180.00,2023-08-31 19:51,102.52,KLSV 311955Z AUTO 19020G28KT 10SM CLR 42/07 A2971 RMK AO2 PK WND 18028/51 SLP030 T04180065 $,M
EKO,2023-08-31 19:56,-115.7860,40.8242,1367.00,84.00,32.00,15.35,M,3.00,0.00,29.91,1007.60,10.00,M,CLR,M,M,M,M,M,M,M,M,M,M,M,M,M,M,81.13,KEKO 311956Z AUTO VRB03KT 10SM CLR 29/00 A2991 RMK AO2 SLP076 T02890000,M
WMC,2023-08-31 19:56,-117.8072,40.9019,1315.00,85.00,26.00,11.63,350.00,5.00,0.00,29.85,1006.00,10.00,M,CLR,M,M,M,M,M,M,M,M,M,M,M,M,M,M,81.64,KWMC 311956Z AUTO 35005KT 10SM CLR 29/M03 A2985 RMK AO2 SLP060 T02941033,M
NFL,2023-08-31 19:56,-118.7010,39.4166,1199.00,84.00,32.00,15.35,0.00,0.00,0.00,29.84,1008.10,10.00,M,CLR,M,M,M,M,M,M,M,M,M,M,M,M,M,M,81.13,KNFL 311956Z 00000KT 10SM CLR 29/00 A2984 RMK AO2 SLP081 T02890000,M
HND,2023-08-31 19:56,-115.1344,35.9729,742.79,105.00,48.00,14.95,220.00,13.00,0.00,29.81,1007.10,10.00,21.00,CLR,M,M,M,M,M,M,M,M,M,M,M,M,M,M,101.60,KHND 311956Z 22013G21KT 10SM CLR 41/09 A2981 RMK AO2 SLP071 T04060089,M
TPH,2023-08-31 19:56,-117.0904,38.0505,1654.00,88.00,21.00,8.57,190.00,21.00,0.00,29.96,1006.50,10.00,34.00,CLR,M,M,M,M,M,M,M,M,M,M,M,34.00,180.00,2023-08-31 19:53,83.46,KTPH 311956Z AUTO 19021G34KT 10SM CLR 31/M06 A2996 RMK AO2 PK WND 18034/1953 SLP065 T03111061,M
LAS,2023-08-31 19:56,-115.1634,36.0719,663.00,105.00,45.00,13.35,210.00,8.00,0.00,29.77,1004.60,10.00,19.00,FEW,FEW,M,M,12000.00,20000.00,M,M,M,M,M,M,M,M,M,100.87,KLAS 311956Z 21008G19KT 150V230 10SM FEW120 FEW200 41/07 A2977 RMK AO2 SLP046 T04060072,M
05U,2023-08-31 20:10,-116.0051,39.6042,1811.23,89.60,17.60,7.05,M,M,0.00,29.96,M,10.00,M,CLR,M,M,M,M,M,M,M,M,M,M,M,M,M,M,84.45,K05U 312010Z AUTO 10SM CLR 32/M08 A2996 RMK A01,M
LSV,2023-08-31 20:14,-115.0343,36.2362,570.00,109.40,48.20,13.24,150.00,11.00,0.00,29.70,1002.60,10.00,19.00,CLR,M,M,M,M,M,M,M,M,M,M,M,M,M,M,105.97,KLSV 312014Z AUTO 15011G19KT 10SM CLR 43/09 A2970 RMK AO2 WSHFT 06 SLP026 $,M
BVU,2023-08-31 20:15,-114.8611,35.9475,671.00,104.00,53.60,18.95,140.00,20.00,0.00,29.76,M,10.00,28.00,CLR,M,M,M,M,M,M,M,M,M,M,M,M,M,M,102.31,KBVU 312015Z AUTO 14020G28KT 10SM CLR 40/12 A2976 RMK AO2,M
CXP,2023-08-31 20:15,-119.7326,39.1923,1431.00,84.20,19.40,9.04,240.00,7.00,0.00,29.90,M,10.00,20.00,CLR,M,M,M,M,M,M,M,M,M,M,M,M,M,M,80.68,KCXP 312015Z AUTO 24007G20KT 220V280 10SM CLR 29/M07 A2990 RMK AO2,M
RTS,2023-08-31 20:15,-119.8764,39.6682,1539.00,80.60,17.60,9.40,230.00,17.00,0.00,29.93,M,10.00,24.00,CLR,M,M,M,M,M,M,M,M,M,M,M,M,M,M,78.45,KRTS 312015Z AUTO 23017G24KT 10SM CLR 27/M08 A2993 RMK AO2,M
MEV,2023-08-31 20:15,-119.7500,38.9963,1441.42,84.20,19.40,9.04,M,6.00,0.00,29.89,M,10.00,20.00,CLR,M,M,M,M,M,M,M,M,M,M,M,M,M,M,80.68,KMEV 312015Z AUTO VRB06G20KT 160V280 10SM CLR 29/M07 A2989 RMK AO2,M
HTH,2023-08-31 20:15,-118.6315,38.5448,1282.89,84.20,28.40,13.18,340.00,7.00,0.00,29.83,M,10.00,12.00,CLR,M,M,M,M,M,M,M,M,M,M,M,M,M,M,81.25,KHTH 312015Z AUTO 34007G12KT 10SM CLR 29/M02 A2983 RMK A01,M
10U,2023-08-31 20:15,-116.1876,41.9532,1637.00,82.40,23.00,11.16,M,4.00,0.00,29.90,M,10.00,M,CLR,M,M,M,M,M,M,M,M,M,M,M,M,M,M,79.67,K10U 312015Z AUTO VRB04KT 10SM CLR 28/M05 A2990 RMK AO2,M
BAM,2023-08-31 20:15,-116.8743,40.5990,1382.36,86.00,30.20,13.38,300.00,3.00,0.00,29.86,M,10.00,M,CLR,M,M,M,M,M,M,M,M,M,M,M,M,M,M,82.64,KBAM 312015Z AUTO 30003KT 10SM CLR 30/M01 A2986 RMK AO1,M
TMT,2023-08-31 20:15,-117.1971,39.4643,1749.34,87.60,23.00,9.45,200.00,20.00,0.00,29.93,M,M,27.00,CLR,M,M,M,M,M,M,M,M,M,M,M,M,M,M,83.29,KTMT 312015Z AUTO 20020G27KT CLR 31/M05 A2993 RMK AO2 T03091049 PWINO,M
LSV,2023-08-31 20:18,-115.0343,36.2362,570.00,107.60,50.00,14.92,170.00,16.00,0.00,29.70,1002.70,10.00,20.00,CLR,M,M,M,M,M,M,M,M,M,M,M,M,M,M,104.80,KLSV 312018Z AUTO 17016G20KT 10SM CLR 42/10 A2970 RMK AO2 WSHFT 16 SLP027 $,M
LSV,2023-08-31 20:26,-115.0343,36.2362,570.00,107.60,50.00,14.92,140.00,12.00,0.00,29.70,1002.70,10.00,19.00,CLR,M,M,M,M,M,M,M,M,M,M,M,M,M,M,104.80,KLSV 312026Z AUTO 14012G19KT 10SM CLR 42/10 A2970 RMK AO2 WSHFT 21 SLP027 $,M
BVU,2023-08-31 20:35,-114.8611,35.9475,671.00,104.00,53.60,18.95,150.00,20.00,0.00,29.75,M,10.00,27.00,CLR,M,M,M,M,M,M,M,M,M,M,M,M,M,M,102.31,KBVU 312035Z AUTO 15020G27KT 10SM CLR 40/12 A2975 RMK AO2,M
CXP,2023-08-31 20:35,-119.7326,39.1923,1431.00,84.20,21.20,9.76,250.00,11.00,0.00,29.90,M,10.00,19.00,CLR,M,M,M,M,M,M,M,M,M,M,M,M,M,M,80.77,KCXP 312035Z AUTO 25011G19KT 220V280 10SM CLR 29/M06 A2990 RMK AO2,M
RTS,2023-08-31 20:35,-119.8764,39.6682,1539.00,80.60,17.60,9.40,230.00,16.00,0.00,29.92,M,10.00,21.00,CLR,M,M,M,M,M,M,M,M,M,M,M,M,M,M,78.45,KRTS 312035Z AUTO 23016G21KT 10SM CLR 27/M08 A2992 RMK AO2,M
05U,2023-08-31 20:35,-116.0051,39.6042,1811.23,89.60,17.60,7.05,M,M,0.00,29.95,M,10.00,M,CLR,M,M,M,M,M,M,M,M,M,M,M,M,M,M,84.45,K05U 312035Z AUTO 10SM CLR 32/M08 A2995 RMK A01,M
MEV,2023-08-31 20:35,-119.7500,38.9963,1441.42,86.00,19.40,8.53,190.00,10.00,0.00,29.88,M,10.00,20.00,CLR,M,M,M,M,M,M,M,M,M,M,M,M,M,M,81.94,KMEV 312035Z AUTO 19010G20KT 160V230 10SM CLR 30/M07 A2988 RMK AO2,M
HTH,2023-08-31 20:35,-118.6315,38.5448,1282.89,86.00,26.60,11.55,10.00,9.00,0.00,29.83,M,10.00,M,CLR,M,M,M,M,M,M,M,M,M,M,M,M,M,M,82.39,KHTH 312035Z AUTO 01009KT 10SM CLR 30/M03 A2983 RMK A01,M
BAM,2023-08-31 20:35,-116.8743,40.5990,1382.36,87.80,30.20,12.64,0.00,0.00,0.00,29.85,M,10.00,M,CLR,M,M,M,M,M,M,M,M,M,M,M,M,M,M,84.01,KBAM 312035Z AUTO 00000KT 10SM CLR 31/M01 A2985 RMK AO1,M
TMT,2023-08-31 20:35,-117.1971,39.4643,1749.34,87.60,23.70,9.73,220.00,20.00,0.00,29.92,M,M,29.00,CLR,M,M,M,M,M,M,M,M,M,M,M,M,M,M,83.33,KTMT 312035Z AUTO 22020G29KT CLR 31/M05 A2992 RMK AO2 T03091046 PWINO,M
10U,2023-08-31 20:35,-116.1876,41.9532,1637.00,86.00,23.00,9.94,M,5.00,0.00,29.89,M,10.00,15.00,CLR,M,M,M,M,M,M,M,M,M,M,M,M,M,M,82.14,K10U 312035Z AUTO VRB05G15KT 10SM CLR 30/M05 A2989 RMK AO2,M
LSV,2023-08-31 20:40,-115.0343,36.2362,570.00,107.60,44.60,12.18,170.00,12.00,0.00,29.69,1002.30,10.00,20.00,CLR,M,M,M,M,M,M,M,M,M,M,M,M,M,M,103.15,KLSV 312040Z AUTO 17012G20KT 10SM CLR 42/07 A2969 RMK AO2 WSHFT 38 SLP023 $,M
05U,2023-08-31 20:50,-116.0051,39.6042,1811.23,89.60,17.60,7.05,M,M,0.00,29.95,M,10.00,M,CLR,M,M,M,M,M,M,M,M,M,M,M,M,M,M,84.45,K05U 312050Z AUTO 10SM CLR 32/M08 A2995 RMK A01,M
P68,2023-08-31 20:53,-116.0056,39.6014,1993.00,88.00,16.00,6.92,210.00,14.00,0.00,29.92,1004.50,M,28.00,M,M,M,M,M,M,M,M,M,M,M,M,35.00,200.00,2023-08-31 20:23,83.22,KP68 312053Z AUTO 21014G28KT 31/M09 A2992 RMK AO1 PK WND 20035/2023 SLP045 T03111089 56024,M
DRA,2023-08-31 20:53,-116.0278,36.6206,1009.00,100.00,36.00,10.93,210.00,13.00,0.00,29.84,1004.50,10.00,26.00,CLR,M,M,M,M,M,M,M,M,M,M,M,31.00,220.00,2023-08-31 20:02,94.48,KDRA 312053Z AUTO 21013G26KT 10SM CLR 38/02 A2984 RMK AO2 PK WND 22031/2002 SLP045 T03780022 56016,M
ELY,2023-08-31 20:53,-114.8453,39.2950,1909.00,85.00,30.00,13.71,180.00,20.00,0.00,30.00,1006.20,10.00,34.00,CLR,M,M,M,M,M,M,M,M,M,M,M,35.00,200.00,2023-08-31 20:16,81.86,KELY 312053Z AUTO 18020G34KT 10SM CLR 29/M01 A3000 RMK AO2 PK WND 20035/2016 SLP062 T02941011 58016,M
VGT,2023-08-31 20:53,-115.1933,36.2111,667.00,106.00,46.00,13.46,210.00,16.00,0.00,29.74,1005.00,10.00,23.00,CLR,M,M,M,M,M,M,M,M,M,M,M,26.00,200.00,2023-08-31 20:16,102.07,KVGT 312053Z 21016G23KT 10SM CLR 41/08 A2974 RMK AO2 PK WND 20026/2016 SLP050 6//// T04110078 56023,M
LOL,2023-08-31 20:53,-118.5701,40.0684,1192.43,86.00,27.00,11.74,180.00,8.00,0.00,29.81,1005.40,10.00,16.00,CLR,M,M,M,M,M,M,M,M,M,M,M,M,M,M,82.42,KLOL 312053Z AUTO 18008G16KT 10SM CLR 30/M03 A2981 RMK AO2 SLP054 T03001028 56027,M
BVU,2023-08-31 20:55,-114.8611,35.9475,671.00,104.00,53.60,18.95,150.00,18.00,0.00,29.74,M,10.00,28.00,CLR,M,M,M,M,M,M,M,M,M,M,M,M,M,M,102.31,KBVU 312055Z AUTO 15018G28KT 10SM CLR 40/12 A2974 RMK AO2,M
CXP,2023-08-31 20:55,-119.7326,39.1923,1431.00,84.20,19.40,9.04,260.00,14.00,0.00,29.89,M,10.00,20.00,CLR,M,M,M,M,M,M,M,M,M,M,M,M,M,M,80.68,KCXP 312055Z AUTO 26014G20KT 10SM CLR 29/M07 A2989 RMK AO2,M
RNO,2023-08-31 20:55,-119.7711,39.4839,1341.00,87.00,24.00,10.04,280.00,14.00,0.00,29.85,1004.80,10.00,21.00,CLR,M,M,M,M,M,M,M,M,M,M,M,M,M,M,82.92,KRNO 312055Z 28014G21KT 10SM CLR 31/M04 A2985 RMK AO2 SLP048 T03061044 56022,M
RTS,2023-08-31 20:55,-119.8764,39.6682,1539.00,80.60,17.60,9.40,220.00,13.00,0.00,29.91,M,10.00,19.00,CLR,M,M,M,M,M,M,M,M,M,M,M,M,M,M,78.45,KRTS 312055Z AUTO 22013G19KT 10SM CLR 27/M08 A2991 RMK AO2,M
MEV,2023-08-31 20:55,-119.7500,38.9963,1441.42,86.00,21.20,9.21,200.00,8.00,0.00,29.88,M,10.00,M,CLR,M,M,M,M,M,M,M,M,M,M,M,M,M,M,82.04,KMEV 312055Z AUTO 20008KT 10SM CLR 30/M06 A2988 RMK AO2,M
HTH,2023-08-31 20:55,-118.6315,38.5448,1282.89,87.80,26.60,10.91,340.00,10.00,0.00,29.81,M,10.00,M,CLR,M,M,M,M,M,M,M,M,M,M,M,M,M,M,83.69,KHTH 312055Z AUTO 34010KT 10SM CLR 31/M03 A2981 RMK A01,M
LSV,2023-08-31 20:55,-115.0343,36.2362,570.00,108.70,44.80,11.88,210.00,13.00,0.00,29.69,1002.20,10.00,19.00,CLR,M,M,M,M,M,M,M,M,M,M,M,M,M,M,104.20,KLSV 312055Z AUTO 21013G19KT 10SM CLR 43/07 A2969 RMK AO2 SLP022 T04260071 57024 $,M
BAM,2023-08-31 20:55,-116.8743,40.5990,1382.36,89.60,28.40,11.09,250.00,8.00,0.00,29.84,M,10.00,M,CLR,M,M,M,M,M,M,M,M,M,M,M,M,M,M,85.17,KBAM 312055Z AUTO 25008KT 10SM CLR 32/M02 A2984 RMK AO1,M
TMT,2023-08-31 20:55,-117.1971,39.4643,1749.34,88.50,23.00,9.18,210.00,23.00,0.00,29.91,M,M,29.00,CLR,M,M,M,M,M,M,M,M,M,M,M,M,M,M,83.94,KTMT 312055Z AUTO 21023G29KT CLR 31/M05 A2991 RMK AO2 T03141049 PWINO,M
INS,2023-08-31 20:55,-115.6733,36.5872,955.00,100.00,38.00,11.83,170.00,15.00,0.00,29.81,1003.90,10.00,22.00,CLR,M,M,M,M,M,M,M,M,M,M,M,33.00,230.00,2023-08-31 19:57,94.85,KINS 312055Z AUTO 17015G22KT 10SM CLR 38/03 A2981 RMK AO2 PK WND 23033/1957 SLP039 T03770034 57019 $,M
EKO,2023-08-31 20:56,-115.7860,40.8242,1367.00,89.00,30.00,12.07,220.00,10.00,0.00,29.87,1006.00,10.00,16.00,CLR,M,M,M,M,M,M,M,M,M,M,M,M,M,M,84.88,KEKO 312056Z AUTO 22010G16KT 10SM CLR 32/M01 A2987 RMK AO2 SLP060 T03171011 58034,M
WMC,2023-08-31 20:56,-117.8072,40.9019,1315.00,90.00,26.00,9.92,300.00,8.00,0.00,29.81,1004.20,10.00,M,CLR,M,M,M,M,M,M,M,M,M,M,M,M,M,M,85.26,KWMC 312056Z AUTO 30008KT 10SM CLR 32/M03 A2981 RMK AO2 SLP042 T03221033 58029,M
NFL,2023-08-31 20:56,-118.7010,39.4166,1199.00,88.00,32.00,13.51,M,4.00,0.00,29.81,1007.30,10.00,M,CLR,M,M,M,M,M,M,M,M,M,M,M,M,M,M,84.24,KNFL 312056Z VRB04KT 10SM CLR 31/00 A2981 RMK AO2 SLP073 T03110000 56028,M
HND,2023-08-31 20:56,-115.1344,35.9729,742.79,104.00,48.00,15.40,220.00,13.00,0.00,29.79,1006.50,10.00,21.00,CLR,M,M,M,M,M,M,M,M,M,M,M,M,M,M,100.60,KHND 312056Z 22013G21KT 10SM CLR 40/09 A2979 RMK AO2 SLP065 T04000089 58021,M
TPH,2023-08-31 20:56,-117.0904,38.0505,1654.00,90.00,22.00,8.39,210.00,25.00,0.00,29.93,1005.40,10.00,32.00,CLR,M,M,M,M,M,M,M,M,M,M,M,42.00,190.00,2023-08-31 20:22,84.98,KTPH 312056Z AUTO 21025G32KT 10SM CLR 32/M06 A2993 RMK AO2 PK WND 19042/2022 SLP054 T03221056 58025,M
LAS,2023-08-31 20:56,-115.1634,36.0719,663.00,107.00,45.00,12.58,220.00,15.00,0.00,29.75,1003.90,10.00,26.00,FEW,SCT,M,M,12000.00,20000.00,M,M,M,M,M,M,26.00,200.00,2023-08-31 20:47,102.73,KLAS 312056Z 22015G26KT 10SM FEW120 SCT200 42/07 A2975 RMK AO2 PK WND 20026/2047 SLP039 T04170072 58020,M
LSV,2023-08-31 20:56,-115.0343,36.2362,570.00,109.40,42.80,10.78,220.00,11.00,0.00,29.68,1001.90,10.00,19.00,CLR,M,M,M,M,M,M,M,M,M,M,M,M,M,M,104.25,KLSV 312056Z AUTO 22011G19KT 10SM CLR 43/06 A2968 RMK AO2 WSHFT 50 SLP019 $,M
LSV,2023-08-31 20:59,-115.0343,36.2362,570.00,109.40,42.80,10.78,180.00,13.00,0.00,29.69,1002.20,10.00,19.00,CLR,M,M,M,M,M,M,M,M,M,M,M,M,M,M,104.25,KLSV 312059Z AUTO 18013G19KT 10SM CLR 43/06 A2969 RMK AO2 WSHFT 56 SLP022 $,M
10U,2023-08-31 21:00,-116.1876,41.9532,1637.00,84.20,23.00,10.53,M,5.00,0.00,29.88,M,10.00,12.00,CLR,M,M,M,M,M,M,M,M,M,M,M,M,M,M,80.88,K10U 312100Z AUTO VRB05G12KT 10SM CLR 29/M05 A2988 RMK AO2,M
BVU,2023-08-31 21:15,-114.8611,35.9475,671.00,104.00,53.60,18.95,160.00,17.00,0.00,29.74,M,10.00,28.00,CLR,M,M,M,M,M,M,M,M,M,M,M,M,M,M,102.31,KBVU 312115Z AUTO 16017G28KT 10SM CLR 40/12 A2974 RMK AO2,M
CXP,2023-08-31 21:15,-119.7326,39.1923,1431.00,84.20,23.00,10.53,260.00,13.00,0.00,29.89,M,10.00,23.00,CLR,M,M,M,M,M,M,M,M,M,M,M,M,M,M,80.88,KCXP 312115Z AUTO 26013G23KT 230V290 10SM CLR 29/M05 A2989 RMK AO2,M
RTS,2023-08-31 21:15,-119.8764,39.6682,1539.00,80.60,19.40,10.16,250.00,13.00,0.00,29.92,M,10.00,22.00,CLR,M,M,M,M,M,M,M,M,M,M,M,M,M,M,78.56,KRTS 312115Z AUTO 25013G22KT 10SM CLR 27/M07 A2992 RMK AO2,M
05U,2023-08-31 21:15,-116.0051,39.6042,1811.23,89.60,19.40,7.61,M,M,0.00,29.94,M,10.00,M,CLR,M,M,M,M,M,M,M,M,M,M,M,M,M,M,84.54,K05U 312115Z AUTO 10SM CLR 32/M07 A2994 RMK A01,M
MEV,2023-08-31 21:15,-119.7500,38.9963,1441.42,86.00,24.80,10.72,190.00,10.00,0.00,29.87,M,9.00,16.00,CLR,M,M,M,M,M,M,M,M,M,M,M,M,M,M,82.26,KMEV 312115Z AUTO 19010G16KT 9SM CLR 30/M04 A2987 RMK AO2,M
HTH,2023-08-31 21:15,-118.6315,38.5448,1282.89,87.80,26.60,10.91,320.00,12.00,0.00,29.81,M,10.00,M,CLR,M,M,M,M,M,M,M,M,M,M,M,M,M,M,83.69,KHTH 312115Z AUTO 32012KT 10SM CLR 31/M03 A2981 RMK A01,M
10U,2023-08-31 21:15,-116.1876,41.9532,1637.00,84.20,21.20,9.76,160.00,9.00,0.00,29.86,M,10.00,M,CLR,M,M,M,M,M,M,M,M,M,M,M,M,M,M,80.77,K10U 312115Z AUTO 16009KT 140V200 10SM CLR 29/M06 A2986 RMK AO2,M
BAM,2023-08-31 21:15,-116.8743,40.5990,1382.36,91.40,28.40,10.48,250.00,9.00,0.00,29.82,M,10.00,M,CLR,M,M,M,M,M,M,M,M,M,M,M,M,M,M,86.53,KBAM 312115Z AUTO 25009KT 200V270 10SM CLR 33/M02 A2982 RMK AO1,M
TMT,2023-08-31 21:15,-117.1971,39.4643,1749.34,87.80,22.00,9.00,220.00,18.00,0.00,29.90,M,M,30.00,CLR,M,M,M,M,M,M,M,M,M,M,M,M,M,M,83.37,KTMT 312115Z AUTO 22018G30KT CLR 31/M05 A2990 RMK AO2 T03101055 PWINO,M
LSV,2023-08-31 21:30,-115.0343,36.2362,570.00,109.40,42.80,10.78,180.00,21.00,0.00,29.67,1001.60,10.00,26.00,FEW,M,M,M,16000.00,M,M,M,M,M,M,M,M,M,M,104.25,KLSV 312130Z AUTO 18021G26KT 10SM FEW160 43/06 A2967 RMK AO2 WSHFT 21 SLP016 $,M
05U,2023-08-31 21:30,-116.0051,39.6042,1811.23,89.60,19.40,7.61,M,M,0.00,29.94,M,10.00,M,CLR,M,M,M,M,M,M,M,M,M,M,M,M,M,M,84.54,K05U 312130Z AUTO 10SM CLR 32/M07 A2994 RMK A01,M
BVU,2023-08-31 21:35,-114.8611,35.9475,671.00,105.80,53.60,17.97,180.00,24.00,0.00,29.72,M,10.00,M,CLR,M,M,M,M,M,M,M,M,M,M,M,M,M,M,104.23,KBVU 312135Z AUTO 18024KT 10SM CLR 41/12 A2972 RMK AO2,M
CXP,2023-08-31 21:35,-119.7326,39.1923,1431.00,84.20,23.00,10.53,270.00,14.00,0.00,29.89,M,10.00,21.00,CLR,M,M,M,M,M,M,M,M,M,M,M,M,M,M,80.88,KCXP 312135Z AUTO 27014G21KT 10SM CLR 29/M05 A2989 RMK AO2,M
RTS,2023-08-31 21:35,-119.8764,39.6682,1539.00,80.60,19.40,10.16,230.00,18.00,0.00,29.91,M,10.00,27.00,CLR,M,M,M,M,M,M,M,M,M,M,M,M,M,M,78.56,KRTS 312135Z AUTO 23018G27KT 10SM CLR 27/M07 A2991 RMK AO2,M
MEV,2023-08-31 21:35,-119.7500,38.9963,1441.42,86.00,23.00,9.94,250.00,13.00,0.00,29.87,M,10.00,22.00,CLR,M,M,M,M,M,M,M,M,M,M,M,M,M,M,82.14,KMEV 312135Z AUTO 25013G22KT 220V280 10SM CLR 30/M05 A2987 RMK AO2,M
HTH,2023-08-31 21:35,-118.6315,38.5448,1282.89,89.60,24.80,9.56,340.00,9.00,0.00,29.81,M,10.00,14.00,CLR,M,M,M,M,M,M,M,M,M,M,M,M,M,M,84.88,KHTH 312135Z AUTO 34009G14KT 10SM CLR 32/M04 A2981 RMK A01,M
10U,2023-08-31 21:35,-116.1876,41.9532,1637.00,86.00,21.20,9.21,M,4.00,0.00,29.86,M,10.00,15.00,CLR,M,M,M,M,M,M,M,M,M,M,M,M,M,M,82.04,K10U 312135Z AUTO VRB04G15KT 10SM CLR 30/M06 A2986 RMK AO2,M
BAM,2023-08-31 21:35,-116.8743,40.5990,1382.36,91.40,26.60,9.74,260.00,14.00,0.00,29.81,M,10.00,19.00,CLR,M,M,M,M,M,M,M,M,M,M,M,M,M,M,86.36,KBAM 312135Z AUTO 26014G19KT 10SM CLR 33/M03 A2981 RMK AO1,M
TMT,2023-08-31 21:35,-117.1971,39.4643,1749.34,88.70,22.00,8.75,210.00,23.00,0.00,29.90,M,M,27.00,CLR,M,M,M,M,M,M,M,M,M,M,M,M,M,M,84.03,KTMT 312135Z AUTO 21023G27KT CLR 32/M06 A2990 RMK AO2 T03151056 PWINO,M
INS,2023-08-31 21:51,-115.6733,36.5872,955.00,100.40,39.20,12.25,160.00,11.00,0.00,29.79,1003.20,10.00,22.00,CLR,M,M,M,M,M,M,M,M,M,M,M,M,M,M,95.43,KINS 312151Z AUTO 16011G22KT 10SM CLR 38/04 A2979 RMK AO2 WSHFT 42 SLP032 $,M
P68,2023-08-31 21:53,-116.0056,39.6014,1993.00,88.00,17.00,7.22,200.00,9.00,0.00,29.90,1004.00,M,30.00,M,M,M,M,M,M,M,M,M,M,M,M,31.00,200.00,2023-08-31 21:09,83.26,KP68 312153Z AUTO 20009G30KT 31/M08 A2990 RMK AO1 PK WND 20031/2109 SLP040 T03111083,M
DRA,2023-08-31 21:53,-116.0278,36.6206,1009.00,100.00,35.00,10.51,200.00,21.00,0.00,29.82,1003.60,10.00,29.00,CLR,M,M,M,M,M,M,M,M,M,M,M,31.00,200.00,2023-08-31 21:42,94.32,KDRA 312153Z AUTO 20021G29KT 10SM CLR 38/02 A2982 RMK AO2 PK WND 20031/2142 SLP036 T03780017,M
ELY,2023-08-31 21:53,-114.8453,39.2950,1909.00,86.00,30.00,13.28,190.00,21.00,0.00,29.97,1005.30,10.00,39.00,CLR,M,M,M,M,M,M,M,M,M,M,M,39.00,170.00,2023-08-31 21:46,82.64,KELY 312153Z AUTO 19021G39KT 10SM CLR 30/M01 A2997 RMK AO2 PK WND 17039/2146 SLP053 T03001011,M
VGT,2023-08-31 21:53,-115.1933,36.2111,667.00,107.00,46.00,13.07,220.00,17.00,0.00,29.71,1004.20,10.00,26.00,CLR,M,M,M,M,M,M,M,M,M,M,M,26.00,210.00,2023-08-31 21:44,103.03,KVGT 312153Z 22017G26KT 10SM CLR 42/08 A2971 RMK AO2 PK WND 21026/2144 SLP042 T04170078,M
LOL,2023-08-31 21:53,-118.5701,40.0684,1192.43,89.00,23.00,9.04,210.00,11.00,0.00,29.78,1004.00,10.00,16.00,CLR,M,M,M,M,M,M,M,M,M,M,M,M,M,M,84.31,KLOL 312153Z AUTO 21011G16KT 10SM CLR 32/M05 A2978 RMK AO2 SLP040 T03171050,M
BVU,2023-08-31 21:55,-114.8611,35.9475,671.00,104.00,50.00,16.59,180.00,18.00,0.00,29.71,M,10.00,29.00,CLR,M,M,M,M,M,M,M,M,M,M,M,M,M,M,101.14,KBVU 312155Z AUTO 18018G29KT 10SM CLR 40/10 A2971 RMK AO2,M
CXP,2023-08-31 21:55,-119.7326,39.1923,1431.00,84.20,24.80,11.35,260.00,12.00,0.00,29.88,M,10.00,22.00,CLR,M,M,M,M,M,M,M,M,M,M,M,M,M,M,81.00,KCXP 312155Z AUTO 26012G22KT 10SM CLR 29/M04 A2988 RMK AO2,M
RNO,2023-08-31 21:55,-119.7711,39.4839,1341.00,88.00,26.00,10.57,260.00,8.00,0.00,29.83,1004.30,10.00,21.00,FEW,M,M,M,20000.00,M,M,M,M,M,M,M,27.00,270.00,2023-08-31 21:10,83.79,KRNO 312155Z 26008G21KT 10SM FEW200 31/M03 A2983 RMK AO2 PK WND 27027/2110 SLP043 T03111033,M
RTS,2023-08-31 21:55,-119.8764,39.6682,1539.00,82.40,19.40,9.58,230.00,17.00,0.00,29.90,M,10.00,23.00,CLR,M,M,M,M,M,M,M,M,M,M,M,M,M,M,79.45,KRTS 312155Z AUTO 23017G23KT 10SM CLR 28/M07 A2990 RMK AO2,M
05U,2023-08-31 21:55,-116.0051,39.6042,1811.23,89.60,19.40,7.61,M,M,0.00,29.92,M,10.00,M,CLR,M,M,M,M,M,M,M,M,M,M,M,M,M,M,84.54,K05U 312155Z AUTO 10SM CLR 32/M07 A2992 RMK A01,M
MEV,2023-08-31 21:55,-119.7500,38.9963,1441.42,86.00,23.00,9.94,240.00,9.00,0.00,29.86,M,10.00,18.00,CLR,M,M,M,M,M,M,M,M,M,M,M,M,M,M,82.14,KMEV 312155Z AUTO 24009G18KT 10SM CLR 30/M05 A2986 RMK AO2,M
HTH,2023-08-31 21:55,-118.6315,38.5448,1282.89,89.60,21.20,8.22,M,5.00,0.00,29.80,M,10.00,17.00,CLR,M,M,M,M,M,M,M,M,M,M,M,M,M,M,84.64,KHTH 312155Z AUTO VRB05G17KT 10SM CLR 32/M06 A2980 RMK A01,M
INS,2023-08-31 21:55,-115.6733,36.5872,955.00,99.70,38.00,11.94,180.00,12.00,0.00,29.79,1003.20,10.00,22.00,CLR,M,M,M,M,M,M,M,M,M,M,M,28.00,230.00,2023-08-31 21:32,94.59,KINS 312155Z AUTO 18012G22KT 10SM CLR 38/03 A2979 RMK AO2 PK WND 23028/32 SLP032 T03760033 $,M
BAM,2023-08-31 21:55,-116.8743,40.5990,1382.36,91.40,26.60,9.74,250.00,13.00,0.00,29.80,M,10.00,19.00,CLR,M,M,M,M,M,M,M,M,M,M,M,M,M,M,86.36,KBAM 312155Z AUTO 25013G19KT 10SM CLR 33/M03 A2980 RMK AO1,M
TMT,2023-08-31 21:55,-117.1971,39.4643,1749.34,88.00,22.50,9.13,230.00,23.00,0.00,29.89,M,M,31.00,CLR,M,M,M,M,M,M,M,M,M,M,M,M,M,M,83.55,KTMT 312155Z AUTO 23023G31KT CLR 31/M05 A2989 RMK AO2 T03111053 PWINO,M
10U,2023-08-31 21:55,-116.1876,41.9532,1637.00,86.00,21.20,9.21,140.00,9.00,0.00,29.84,M,10.00,18.00,CLR,M,M,M,M,M,M,M,M,M,M,M,M,M,M,82.04,K10U 312155Z AUTO 14009G18KT 10SM CLR 30/M06 A2984 RMK AO2,M
LSV,2023-08-31 21:55,-115.0343,36.2362,570.00,109.20,43.00,10.93,180.00,20.00,0.00,29.66,1001.30,10.00,26.00,CLR,M,M,M,M,M,M,M,M,M,M,M,27.00,230.00,2023-08-31 21:18,104.12,KLSV 312155Z AUTO 18020G26KT 10SM CLR 43/06 A2966 RMK AO2 PK WND 23027/18 SLP013 T04290061 $,M
EKO,2023-08-31 21:56,-115.7860,40.8242,1367.00,90.00,26.00,9.92,210.00,7.00,0.00,29.82,1004.20,10.00,M,CLR,M,M,M,M,M,M,M,M,M,M,M,M,M,M,85.26,KEKO 312156Z AUTO 21007KT 180V250 10SM CLR 32/M03 A2982 RMK AO2 SLP042 T03221033,M
WMC,2023-08-31 21:56,-117.8072,40.9019,1315.00,91.00,24.00,8.85,260.00,16.00,0.00,29.79,1003.30,10.00,27.00,CLR,M,M,M,M,M,M,M,M,M,M,M,27.00,240.00,2023-08-31 21:51,85.86,KWMC 312156Z AUTO 26016G27KT 10SM CLR 33/M04 A2979 RMK AO2 PK WND 24027/2151 SLP033 T03281044,M
NFL,2023-08-31 21:56,-118.7010,39.4166,1199.00,90.00,31.00,12.18,30.00,10.00,0.00,29.77,1006.10,10.00,15.00,CLR,M,M,M,M,M,M,M,M,M,M,M,M,M,M,85.73,KNFL 312156Z COR 03010G15KT 10SM CLR 32/M01 A2977 RMK AO2 SLP061 T03221006,M
HND,2023-08-31 21:56,-115.1344,35.9729,742.79,105.00,48.00,14.95,240.00,13.00,0.00,29.77,1005.70,10.00,22.00,CLR,M,M,M,M,M,M,M,M,M,M,M,M,M,M,101.60,KHND 312156Z 24013G22KT 10SM CLR 41/09 A2977 RMK AO2 SLP057 T04060089,M
TPH,2023-08-31 21:56,-117.0904,38.0505,1654.00,90.00,19.00,7.39,210.00,16.00,0.00,29.91,1004.50,10.00,32.00,CLR,M,M,M,M,M,M,M,M,M,M,M,36.00,170.00,2023-08-31 21:43,84.81,KTPH 312156Z AUTO 21016G32KT 10SM CLR 32/M07 A2991 RMK AO2 PK WND 17036/2143 SLP045 T03221072,M
LAS,2023-08-31 21:56,-115.1634,36.0719,663.00,106.00,46.00,13.46,230.00,13.00,0.00,29.73,1003.30,10.00,30.00,SCT,SCT,M,M,12000.00,20000.00,M,M,M,M,M,M,30.00,220.00,2023-08-31 21:51,102.07,KLAS 312156Z 23013G30KT 10SM SCT120 SCT200 41/08 A2973 RMK AO2 PK WND 22030/2151 SLP033 CB DSNT NE-SE T04110078,M
INS,2023-08-31 21:59,-115.6733,36.5872,955.00,100.40,37.40,11.41,200.00,17.00,0.00,29.79,1003.20,10.00,24.00,CLR,M,M,M,M,M,M,M,M,M,M,M,M,M,M,95.08,KINS 312159Z AUTO 20017G24KT 10SM CLR 38/03 A2979 RMK AO2 WSHFT 51 SLP032 $,M
LSV,2023-08-31 22:06,-115.0343,36.2362,570.00,107.60,42.80,11.37,220.00,13.00,0.00,29.65,1001.00,10.00,29.00,CLR,M,M,M,M,M,M,M,M,M,M,M,M,M,M,102.63,KLSV 312206Z AUTO 22013G29KT 10SM CLR 42/06 A2965 RMK AO2 WSHFT 2152 SLP010 $,M
05U,2023-08-31 22:10,-116.0051,39.6042,1811.23,89.60,19.40,7.61,M,M,0.00,29.92,M,10.00,M,CLR,M,M,M,M,M,M,M,M,M,M,M,M,M,M,84.54,K05U 312210Z AUTO 10SM CLR 32/M07 A2992 RMK A01,M
LSV,2023-08-31 22:11,-115.0343,36.2362,570.00,109.40,42.80,10.78,180.00,19.00,0.00,29.65,1000.90,10.00,29.00,CLR,M,M,M,M,M,M,M,M,M,M,M,M,M,M,104.25,KLSV 312211Z AUTO 18019G29KT 10SM CLR 43/06 A2965 RMK AO2 WSHFT 07 SLP009 $,M
BVU,2023-08-31 22:15,-114.8611,35.9475,671.00,100.40,59.00,25.67,180.00,20.00,0.00,29.71,M,8.00,27.00,FEW,FEW,SCT,M,2900.00,4800.00,12000.00,M,M,M,M,M,M,M,M,100.57,KBVU 312215Z AUTO 18020G27KT 8SM FEW029 FEW048 SCT120 38/15 A2971 RMK AO2,M
CXP,2023-08-31 22:15,-119.7326,39.1923,1431.00,82.40,26.60,12.97,240.00,11.00,0.00,29.87,M,10.00,25.00,CLR,M,M,M,M,M,M,M,M,M,M,M,M,M,M,79.92,KCXP 312215Z AUTO 24011G25KT 200V260 10SM CLR 28/M03 A2987 RMK AO2,M
RTS,2023-08-31 22:15,-119.8764,39.6682,1539.00,82.40,19.40,9.58,240.00,16.00,0.00,29.89,M,10.00,25.00,CLR,M,M,M,M,M,M,M,M,M,M,M,M,M,M,79.45,KRTS 312215Z AUTO 24016G25KT 10SM CLR 28/M07 A2989 RMK AO2,M
MEV,2023-08-31 22:15,-119.7500,38.9963,1441.42,86.00,23.00,9.94,M,5.00,0.00,29.85,M,10.00,17.00,CLR,M,M,M,M,M,M,M,M,M,M,M,M,M,M,82.14,KMEV 312215Z AUTO VRB05G17KT 10SM CLR 30/M05 A2985 RMK AO2,M
HTH,2023-08-31 22:15,-118.6315,38.5448,1282.89,91.40,6.80,4.13,190.00,4.00,0.00,29.78,M,10.00,11.00,CLR,M,M,M,M,M,M,M,M,M,M,M,M,M,M,85.36,KHTH 312215Z AUTO 19004G11KT 10SM CLR 33/M14 A2978 RMK A01,M
10U,2023-08-31 22:15,-116.1876,41.9532,1637.00,87.80,19.40,8.06,200.00,13.00,0.00,29.83,M,10.00,20.00,CLR,M,M,M,M,M,M,M,M,M,M,M,M,M,M,83.23,K10U 312215Z AUTO 20013G20KT 10SM CLR 31/M07 A2983 RMK AO2,M
BAM,2023-08-31 22:15,-116.8743,40.5990,1382.36,91.40,24.80,9.04,240.00,12.00,0.00,29.80,M,10.00,20.00,CLR,M,M,M,M,M,M,M,M,M,M,M,M,M,M,86.21,KBAM 312215Z AUTO 24012G20KT 10SM CLR 33/M04 A2980 RMK AO1,M
TMT,2023-08-31 22:15,-117.1971,39.4643,1749.34,84.70,21.70,9.81,220.00,22.00,0.00,29.89,M,M,31.00,CLR,M,M,M,M,M,M,M,M,M,M,M,M,M,M,81.15,KTMT 312215Z AUTO 22022G31KT CLR 29/M06 A2989 RMK AO2 T02931057 PWINO,M
05U,2023-08-31 22:30,-116.0051,39.6042,1811.23,89.60,19.40,7.61,M,M,0.00,29.91,M,10.00,M,CLR,M,M,M,M,M,M,M,M,M,M,M,M,M,M,84.54,K05U 312230Z AUTO 10SM CLR 32/M07 A2991 RMK A01,M
BVU,2023-08-31 22:35,-114.8611,35.9475,671.00,100.40,53.60,21.11,180.00,17.00,0.00,29.70,M,10.00,23.00,FEW,SCT,M,M,7000.00,12000.00,M,M,M,M,M,M,M,M,M,98.44,KBVU 312235Z AUTO 18017G23KT 10SM FEW070 SCT120 38/12 A2970 RMK AO2,M
CXP,2023-08-31 22:35,-119.7326,39.1923,1431.00,84.20,26.60,12.23,270.00,15.00,0.00,29.86,M,10.00,22.00,CLR,M,M,M,M,M,M,M,M,M,M,M,M,M,M,81.13,KCXP 312235Z AUTO 27015G22KT 10SM CLR 29/M03 A2986 RMK AO2,M
RTS,2023-08-31 22:35,-119.8764,39.6682,1539.00,80.60,23.00,11.83,240.00,18.00,0.00,29.88,M,10.00,M,CLR,M,M,M,M,M,M,M,M,M,M,M,M,M,M,78.80,KRTS 312235Z AUTO 24018KT 10SM CLR 27/M05 A2988 RMK AO2,M
MEV,2023-08-31 22:35,-119.7500,38.9963,1441.42,84.20,30.20,14.18,200.00,11.00,0.00,29.85,M,10.00,17.00,CLR,M,M,M,M,M,M,M,M,M,M,M,M,M,M,81.26,KMEV 312235Z AUTO 20011G17KT 160V230 10SM CLR 29/M01 A2985 RMK AO2,M
HTH,2023-08-31 22:35,-118.6315,38.5448,1282.89,95.00,-0.40,2.65,190.00,15.00,0.00,29.78,M,10.00,24.00,CLR,M,M,M,M,M,M,M,M,M,M,M,M,M,M,87.72,KHTH 312235Z AUTO 19015G24KT 10SM CLR 35/M18 A2978 RMK A01,M
10U,2023-08-31 22:35,-116.1876,41.9532,1637.00,87.80,19.40,8.06,220.00,15.00,0.00,29.83,M,10.00,27.00,CLR,M,M,M,M,M,M,M,M,M,M,M,M,M,M,83.23,K10U 312235Z AUTO 22015G27KT 10SM CLR 31/M07 A2983 RMK AO2,M
BAM,2023-08-31 22:35,-116.8743,40.5990,1382.36,91.40,23.00,8.38,250.00,17.00,0.00,29.79,M,10.00,23.00,CLR,M,M,M,M,M,M,M,M,M,M,M,M,M,M,86.08,KBAM 312235Z AUTO 25017G23KT 10SM CLR 33/M05 A2979 RMK AO1,M
TMT,2023-08-31 22:35,-117.1971,39.4643,1749.34,87.40,23.00,9.51,220.00,24.00,0.00,29.89,M,M,32.00,CLR,M,M,M,M,M,M,M,M,M,M,M,M,M,M,83.15,KTMT 312235Z AUTO 22024G32KT CLR 31/M05 A2989 RMK AO2 T03081049 PWINO,M
INS,2023-08-31 22:39,-115.6733,36.5872,955.00,98.60,35.60,11.23,220.00,17.00,0.00,29.78,1002.90,10.00,24.00,CLR,M,M,M,M,M,M,M,M,M,M,M,M,M,M,93.23,KINS 312239Z AUTO 22017G24KT 10SM CLR 37/02 A2978 RMK AO2 WSHFT 28 SLP029 $,M
05U,2023-08-31 22:50,-116.0051,39.6042,1811.23,89.60,19.40,7.61,M,M,0.00,29.90,M,10.00,M,CLR,M,M,M,M,M,M,M,M,M,M,M,M,M,M,84.54,K05U 312250Z AUTO 10SM CLR 32/M07 A2990 RMK A01,M
P68,2023-08-31 22:53,-116.0056,39.6014,1993.00,89.00,17.00,7.00,200.00,18.00,0.00,29.88,1003.30,M,28.00,M,M,M,M,M,M,M,M,M,M,M,M,34.00,200.00,2023-08-31 22:04,83.99,KP68 312253Z AUTO 20018G28KT 32/M08 A2988 RMK AO1 PK WND 20034/2204 SLP033 T03171083,M
DRA,2023-08-31 22:53,-116.0278,36.6206,1009.00,101.00,32.00,9.04,210.00,24.00,0.00,29.79,1002.90,10.00,34.00,CLR,M,M,M,M,M,M,M,M,M,M,M,34.00,190.00,2023-08-31 22:51,94.72,KDRA 312253Z AUTO 21024G34KT 10SM CLR 38/00 A2979 RMK AO2 PK WND 19034/2251 SLP029 T03830000,M
ELY,2023-08-31 22:53,-114.8453,39.2950,1909.00,87.00,31.00,13.39,210.00,28.00,0.00,29.95,1004.50,10.00,40.00,CLR,M,M,M,M,M,M,M,M,M,M,M,40.00,200.00,2023-08-31 22:52,83.43,KELY 312253Z AUTO 21028G40KT 10SM CLR 31/M01 A2995 RMK AO2 PK WND 20040/2252 SLP045 T03061006,M
VGT,2023-08-31 22:53,-115.1933,36.2111,667.00,107.00,46.00,13.07,230.00,17.00,0.00,29.70,1003.70,10.00,27.00,CLR,M,M,M,M,M,M,M,M,M,M,M,29.00,250.00,2023-08-31 22:33,103.03,KVGT 312253Z 23017G27KT 10SM CLR 42/08 A2970 RMK AO2 PK WND 25029/2233 LTG DSNT E SLP037 T04170078,M
LOL,2023-08-31 22:53,-118.5701,40.0684,1192.43,89.00,23.00,9.04,180.00,10.00,0.00,29.74,1003.30,10.00,M,CLR,M,M,M,M,M,M,M,M,M,M,M,M,M,M,84.31,KLOL 312253Z AUTO 18010KT 10SM CLR 32/M05 A2974 RMK AO2 SLP033 T03171050,M
BVU,2023-08-31 22:55,-114.8611,35.9475,671.00,104.00,50.00,16.59,200.00,16.00,0.00,29.70,M,10.00,24.00,SCT,M,M,M,12000.00,M,M,M,M,M,M,M,M,M,M,101.14,KBVU 312255Z AUTO 20016G24KT 10SM SCT120 40/10 A2970 RMK AO2,M
CXP,2023-08-31 22:55,-119.7326,39.1923,1431.00,82.40,28.40,13.96,260.00,16.00,0.00,29.86,M,10.00,21.00,CLR,M,M,M,M,M,M,M,M,M,M,M,M,M,M,79.94,KCXP 312255Z AUTO 26016G21KT 10SM CLR 28/M02 A2986 RMK AO2,M
RNO,2023-08-31 22:55,-119.7711,39.4839,1341.00,87.00,28.00,11.85,270.00,15.00,0.00,29.82,1004.00,10.00,M,FEW,M,M,M,20000.00,M,M,M,M,M,M,M,27.00,250.00,2023-08-31 22:25,83.22,KRNO 312255Z 27015KT 10SM FEW200 31/M02 A2982 RMK AO2 PK WND 25027/2225 SLP040 T03061022,M
RTS,2023-08-31 22:55,-119.8764,39.6682,1539.00,80.60,19.40,10.16,240.00,18.00,0.00,29.88,M,10.00,27.00,CLR,M,M,M,M,M,M,M,M,M,M,M,M,M,M,78.56,KRTS 312255Z AUTO 24018G27KT 10SM CLR 27/M07 A2988 RMK AO2,M
MEV,2023-08-31 22:55,-119.7500,38.9963,1441.42,84.20,28.40,13.18,230.00,14.00,0.00,29.85,M,10.00,20.00,CLR,M,M,M,M,M,M,M,M,M,M,M,M,M,M,81.25,KMEV 312255Z AUTO 23014G20KT 10SM CLR 29/M02 A2985 RMK AO2,M
HTH,2023-08-31 22:55,-118.6315,38.5448,1282.89,93.20,10.40,4.59,250.00,13.00,0.00,29.78,M,10.00,23.00,CLR,M,M,M,M,M,M,M,M,M,M,M,M,M,M,86.76,KHTH 312255Z AUTO 25013G23KT 10SM CLR 34/M12 A2978 RMK A01,M
10U,2023-08-31 22:55,-116.1876,41.9532,1637.00,87.80,12.20,5.89,220.00,17.00,0.00,29.84,M,10.00,29.00,CLR,M,M,M,M,M,M,M,M,M,M,M,M,M,M,82.93,K10U 312255Z AUTO 22017G29KT 10SM CLR 31/M11 A2984 RMK AO2,M
BAM,2023-08-31 22:55,-116.8743,40.5990,1382.36,91.40,23.00,8.38,260.00,16.00,0.00,29.78,M,10.00,23.00,CLR,M,M,M,M,M,M,M,M,M,M,M,M,M,M,86.08,KBAM 312255Z AUTO 26016G23KT 10SM CLR 33/M05 A2978 RMK AO1,M
TMT,2023-08-31 22:55,-117.1971,39.4643,1749.34,86.00,23.50,10.15,240.00,21.00,0.00,29.88,M,M,31.00,CLR,M,M,M,M,M,M,M,M,M,M,M,M,M,M,82.17,KTMT 312255Z AUTO 24021G31KT CLR 30/M05 A2988 RMK AO2 T03001047 PWINO,M
INS,2023-08-31 22:55,-115.6733,36.5872,955.00,99.00,33.00,10.00,180.00,15.00,0.00,29.78,1003.00,10.00,22.00,CLR,M,M,M,M,M,M,M,M,M,M,M,27.00,230.00,2023-08-31 22:45,93.16,KINS 312255Z AUTO 18015G22KT 10SM CLR 37/01 A2978 RMK AO2 PK WND 23027/45 SLP030 T03730005 $,M
LSV,2023-08-31 22:55,-115.0343,36.2362,570.00,109.20,43.00,10.93,200.00,27.00,0.00,29.64,1000.70,10.00,31.00,CLR,M,M,M,M,M,M,M,M,M,M,M,32.00,190.00,2023-08-31 22:13,104.12,KLSV 312255Z AUTO 20027G31KT 10SM CLR 43/06 A2964 RMK AO2 PK WND 19032/13 SLP007 T04290061 $,M
EKO,2023-08-31 22:56,-115.7860,40.8242,1367.00,91.00,25.00,9.23,M,M,0.00,29.78,1002.80,10.00,M,CLR,M,M,M,M,M,M,M,M,M,M,M,M,M,M,85.93,KEKO 312256Z AUTO 10SM CLR 33/M04 A2978 RMK AO2 SLP028 T03281039,M
WMC,2023-08-31 22:56,-117.8072,40.9019,1315.00,91.00,7.00,4.22,200.00,19.00,0.00,29.76,1002.50,10.00,36.00,CLR,M,M,M,M,M,M,M,M,M,M,M,36.00,200.00,2023-08-31 22:51,85.08,KWMC 312256Z AUTO 20019G36KT 10SM CLR 33/M14 A2976 RMK AO2 PK WND 20036/2251 SLP025 T03281139,M
NFL,2023-08-31 22:56,-118.7010,39.4166,1199.00,91.00,28.00,10.44,30.00,5.00,0.00,29.75,1005.40,10.00,M,CLR,M,M,M,M,M,M,M,M,M,M,M,M,M,M,86.19,KNFL 312256Z 03005KT 10SM CLR 33/M02 A2975 RMK AO2 SLP054 T03281022,M
HND,2023-08-31 22:56,-115.1344,35.9729,742.79,102.00,48.00,16.35,200.00,18.00,0.00,29.76,1005.40,10.00,33.00,FEW,SCT,SCT,M,3500.00,7000.00,8000.00,M,M,M,M,M,33.00,220.00,2023-08-31 22:48,98.58,KHND 312256Z 20018G33KT 10SM FEW035 SCT070 SCT080 39/09 A2976 RMK AO2 PK WND 22033/2248 SLP054 T03890089,M
TPH,2023-08-31 22:56,-117.0904,38.0505,1654.00,90.00,20.00,7.71,180.00,22.00,0.00,29.89,1004.20,10.00,28.00,CLR,M,M,M,M,M,M,M,M,M,M,M,32.00,200.00,2023-08-31 22:18,84.86,KTPH 312256Z AUTO 18022G28KT 10SM CLR 32/M07 A2989 RMK AO2 PK WND 20032/2218 SLP042 T03221067,M
LAS,2023-08-31 22:56,-115.1634,36.0719,663.00,104.00,46.00,14.28,240.00,15.00,0.00,29.71,1002.60,10.00,23.00,SCT,SCT,M,M,12000.00,20000.00,M,M,M,M,M,M,33.00,240.00,2023-08-31 21:58,100.12,KLAS 312256Z 24015G23KT 10SM SCT120 SCT200 40/08 A2971 RMK AO2 PK WND 24033/2158 LTG DSNT NE SLP026 CB DSNT NE-SE T04000078,M
LAS,2023-08-31 22:59,-115.1634,36.0719,663.00,104.00,46.00,14.28,260.00,17.00,0.00,29.71,M,10.00,24.00,FEW,SCT,BKN,M,12000.00,17000.00,20000.00,M,M,M,M,M,M,M,M,100.12,KLAS 312259Z 26017G24KT 10SM FEW120CB SCT170 BKN200 40/08 A2971 RMK AO2 LTG DSNT NE VIRGA OHD CB OHD-N-E-S MOV N T04000078,M
BVU,2023-08-31 23:15,-114.8611,35.9475,671.00,104.00,46.40,14.50,190.00,18.00,0.00,29.69,M,10.00,M,FEW,M,M,M,12000.00,M,M,M,M,M,M,M,M,M,M,100.21,KBVU 312315Z AUTO 19018KT 10SM FEW120 40/08 A2969 RMK AO2,M
CXP,2023-08-31 23:15,-119.7326,39.1923,1431.00,82.40,28.40,13.96,260.00,12.00,0.00,29.86,M,10.00,21.00,CLR,M,M,M,M,M,M,M,M,M,M,M,M,M,M,79.94,KCXP 312315Z AUTO 26012G21KT 10SM CLR 28/M02 A2986 RMK AO2,M
RTS,2023-08-31 23:15,-119.8764,39.6682,1539.00,80.60,23.00,11.83,240.00,15.00,0.00,29.88,M,10.00,23.00,CLR,M,M,M,M,M,M,M,M,M,M,M,M,M,M,78.80,KRTS 312315Z AUTO 24015G23KT 10SM CLR 27/M05 A2988 RMK AO2,M
05U,2023-08-31 23:15,-116.0051,39.6042,1811.23,89.60,17.60,7.05,M,M,0.00,29.89,M,10.00,M,CLR,M,M,M,M,M,M,M,M,M,M,M,M,M,M,84.45,K05U 312315Z AUTO 10SM CLR 32/M08 A2989 RMK A01,M
MEV,2023-08-31 23:15,-119.7500,38.9963,1441.42,84.20,28.40,13.18,240.00,13.00,0.00,29.85,M,9.00,20.00,CLR,M,M,M,M,M,M,M,M,M,M,M,M,M,M,81.25,KMEV 312315Z AUTO 24013G20KT 9SM CLR 29/M02 A2985 RMK AO2,M
HTH,2023-08-31 23:15,-118.6315,38.5448,1282.89,93.20,1.40,3.05,220.00,15.00,0.00,29.77,M,10.00,28.00,CLR,M,M,M,M,M,M,M,M,M,M,M,M,M,M,86.51,KHTH 312315Z AUTO 22015G28KT 10SM CLR 34/M17 A2977 RMK A01,M
10U,2023-08-31 23:15,-116.1876,41.9532,1637.00,86.00,14.00,6.75,220.00,19.00,0.00,29.83,M,10.00,M,CLR,M,M,M,M,M,M,M,M,M,M,M,M,M,M,81.71,K10U 312315Z AUTO 22019KT 10SM CLR 30/M10 A2983 RMK AO2,M
BAM,2023-08-31 23:15,-116.8743,40.5990,1382.36,91.40,21.20,7.77,250.00,16.00,0.00,29.78,M,10.00,21.00,CLR,M,M,M,M,M,M,M,M,M,M,M,M,M,M,85.96,KBAM 312315Z AUTO 25016G21KT 10SM CLR 33/M06 A2978 RMK AO1,M
TMT,2023-08-31 23:15,-117.1971,39.4643,1749.34,86.40,25.50,10.89,220.00,24.00,0.00,29.88,M,M,29.00,CLR,M,M,M,M,M,M,M,M,M,M,M,M,M,M,82.60,KTMT 312315Z AUTO 22024G29KT CLR 30/M04 A2988 RMK AO2 T03021036 PWINO,M
INS,2023-08-31 23:17,-115.6733,36.5872,955.00,98.60,33.80,10.45,210.00,19.00,0.00,29.77,1002.50,10.00,25.00,CLR,M,M,M,M,M,M,M,M,M,M,M,M,M,M,92.94,KINS 312317Z AUTO 21019G25KT 10SM CLR 37/01 A2977 RMK AO2 WSHFT 07 SLP025 $,M
05U,2023-08-31 23:30,-116.0051,39.6042,1811.23,89.60,19.40,7.61,M,M,0.00,29.89,M,10.00,M,CLR,M,M,M,M,M,M,M,M,M,M,M,M,M,M,84.54,K05U 312330Z AUTO 10SM CLR 32/M07 A2989 RMK A01,M
BVU,2023-08-31 23:35,-114.8611,35.9475,671.00,104.00,46.40,14.50,210.00,14.00,0.00,29.69,M,10.00,19.00,CLR,M,M,M,M,M,M,M,M,M,M,M,M,M,M,100.21,KBVU 312335Z AUTO 21014G19KT 10SM CLR 40/08 A2969 RMK AO2,M
CXP,2023-08-31 23:35,-119.7326,39.1923,1431.00,82.40,30.20,15.03,240.00,14.00,0.00,29.86,M,10.00,22.00,CLR,M,M,M,M,M,M,M,M,M,M,M,M,M,M,79.97,KCXP 312335Z AUTO 24014G22KT 10SM CLR 28/M01 A2986 RMK AO2,M
RTS,2023-08-31 23:35,-119.8764,39.6682,1539.00,80.60,23.00,11.83,240.00,18.00,0.00,29.88,M,10.00,24.00,CLR,M,M,M,M,M,M,M,M,M,M,M,M,M,M,78.80,KRTS 312335Z AUTO 24018G24KT 10SM CLR 27/M05 A2988 RMK AO2,M
MEV,2023-08-31 23:35,-119.7500,38.9963,1441.42,84.20,30.20,14.18,240.00,14.00,0.00,29.84,M,10.00,22.00,CLR,M,M,M,M,M,M,M,M,M,M,M,M,M,M,81.26,KMEV 312335Z AUTO 24014G22KT 10SM CLR 29/M01 A2984 RMK AO2,M
HTH,2023-08-31 23:35,-118.6315,38.5448,1282.89,93.20,3.20,3.31,230.00,13.00,0.00,29.77,M,10.00,20.00,CLR,M,M,M,M,M,M,M,M,M,M,M,M,M,M,86.55,KHTH 312335Z AUTO 23013G20KT 10SM CLR 34/M16 A2977 RMK A01,M
BAM,2023-08-31 23:35,-116.8743,40.5990,1382.36,91.40,21.20,7.77,260.00,17.00,0.00,29.77,M,10.00,22.00,CLR,M,M,M,M,M,M,M,M,M,M,M,M,M,M,85.96,KBAM 312335Z AUTO 26017G22KT 10SM CLR 33/M06 A2977 RMK AO1,M
TMT,2023-08-31 23:35,-117.1971,39.4643,1749.34,86.00,26.40,11.45,250.00,20.00,0.00,29.87,M,M,25.00,CLR,M,M,M,M,M,M,M,M,M,M,M,M,M,M,82.38,KTMT 312335Z AUTO 25020G25KT CLR 30/M03 A2987 RMK AO2 T02991031 PWINO,M
10U,2023-08-31 23:35,-116.1876,41.9532,1637.00,86.00,12.20,6.24,210.00,16.00,0.00,29.82,M,10.00,24.00,CLR,M,M,M,M,M,M,M,M,M,M,M,M,M,M,81.64,K10U 312335Z AUTO 21016G24KT 10SM CLR 30/M11 A2982 RMK AO2,M
P68,2023-08-31 23:53,-116.0056,39.6014,1993.00,88.00,16.00,6.92,200.00,17.00,0.00,29.86,1003.00,M,26.00,M,M,M,M,M,M,M,M,M,M,M,M,32.00,200.00,2023-08-31 23:39,83.22,KP68 312353Z AUTO 20017G26KT 31/M09 A2986 RMK AO1 PK WND 20032/2339 SLP030 T03111089 10317 20261 56018,M
DRA,2023-08-31 23:53,-116.0278,36.6206,1009.00,100.00,34.00,10.10,220.00,24.00,0.00,29.77,1002.20,10.00,37.00,CLR,M,M,M,M,M,M,M,M,M,M,M,37.00,220.00,2023-08-31 23:53,94.16,KDRA 312353Z AUTO 22024G37KT 10SM CLR 38/01 A2977 RMK AO2 PK WND 22037/2353 SLP022 T03780011 10383 20356 58021,M
ELY,2023-08-31 23:53,-114.8453,39.2950,1909.00,86.00,31.00,13.83,180.00,16.00,0.00,29.93,1004.40,10.00,39.00,CLR,M,M,M,M,M,M,M,M,M,M,M,40.00,210.00,2023-08-31 22:59,82.64,KELY 312353Z AUTO 18016G39KT 10SM CLR 30/M01 A2993 RMK AO2 PK WND 21040/2259 SLP044 T03001006 10311 20289 56018,M
VGT,2023-08-31 23:53,-115.1933,36.2111,667.00,106.00,47.00,13.98,230.00,15.00,0.00,29.68,1003.10,10.00,23.00,CLR,M,M,M,M,M,M,M,M,M,M,M,32.00,260.00,2023-08-31 23:25,102.32,KVGT 312353Z 23015G23KT 10SM CLR 41/08 A2968 RMK AO2 PK WND 26032/2325 SLP031 6//// T04110083 10422 20389 56019,M
LOL,2023-08-31 23:53,-118.5701,40.0684,1192.43,89.00,22.00,8.66,160.00,15.00,0.00,29.72,1002.70,10.00,21.00,CLR,M,M,M,M,M,M,M,M,M,M,M,M,M,M,84.25,KLOL 312353Z AUTO 16015G21KT 10SM CLR 32/M06 A2972 RMK AO2 SLP027 T03171056 10322 20239 56027,M
BVU,2023-08-31 23:55,-114.8611,35.9475,671.00,104.00,46.40,14.50,250.00,13.00,0.00,29.68,M,10.00,36.00,CLR,M,M,M,M,M,M,M,M,M,M,M,M,M,M,100.21,KBVU 312355Z AUTO 25013G36KT 200V270 10SM CLR 40/08 A2968 RMK AO2,M
CXP,2023-08-31 23:55,-119.7326,39.1923,1431.00,82.40,32.00,16.17,260.00,13.00,0.00,29.86,M,10.00,19.00,CLR,M,M,M,M,M,M,M,M,M,M,M,M,M,M,80.00,KCXP 312355Z AUTO 26013G19KT 10SM CLR 28/M00 A2986 RMK AO2,M
RNO,2023-08-31 23:55,-119.7711,39.4839,1341.00,84.00,31.00,14.74,280.00,12.00,0.00,29.81,1004.10,10.00,30.00,SCT,M,M,M,20000.00,M,M,M,M,M,M,M,30.00,290.00,2023-08-31 23:55,81.12,KRNO 312355Z 28012G30KT 10SM SCT200 29/M01 A2981 RMK AO2 PK WND 29030/2355 SLP041 T02891006 10317 20250 56012,M
RTS,2023-08-31 23:55,-119.8764,39.6682,1539.00,77.00,23.00,13.32,230.00,15.00,0.00,29.88,M,10.00,21.00,CLR,M,M,M,M,M,M,M,M,M,M,M,M,M,M,77.00,KRTS 312355Z AUTO 23015G21KT 10SM CLR 25/M05 A2988 RMK AO2,M
05U,2023-08-31 23:55,-116.0051,39.6042,1811.23,89.60,19.40,7.61,M,M,0.00,29.89,M,10.00,M,CLR,M,M,M,M,M,M,M,M,M,M,M,M,M,M,84.54,K05U 312355Z AUTO 10SM CLR 32/M07 A2989 RMK A01,M
MEV,2023-08-31 23:55,-119.7500,38.9963,1441.42,82.40,28.40,13.96,220.00,10.00,0.00,29.84,M,10.00,18.00,CLR,M,M,M,M,M,M,M,M,M,M,M,M,M,M,79.94,KMEV 312355Z AUTO 22010G18KT 10SM CLR 28/M02 A2984 RMK AO2,M
HTH,2023-08-31 23:55,-118.6315,38.5448,1282.89,93.20,5.00,3.60,210.00,17.00,0.00,29.77,M,10.00,M,CLR,M,M,M,M,M,M,M,M,M,M,M,M,M,M,86.60,KHTH 312355Z AUTO 21017KT 10SM CLR 34/M15 A2977 RMK A01,M
BAM,2023-08-31 23:55,-116.8743,40.5990,1382.36,91.40,21.20,7.77,240.00,17.00,0.00,29.77,M,10.00,25.00,CLR,M,M,M,M,M,M,M,M,M,M,M,M,M,M,85.96,KBAM 312355Z AUTO 24017G25KT 10SM CLR 33/M06 A2977 RMK AO1,M
TMT,2023-08-31 23:55,-117.1971,39.4643,1749.34,85.30,26.40,11.71,250.00,16.00,0.00,29.87,M,M,25.00,CLR,M,M,M,M,M,M,M,M,M,M,M,M,M,M,81.88,KTMT 312355Z AUTO 25016G25KT CLR 30/M03 A2987 RMK AO2 T02961031 10315 20240 PWINO,M
10U,2023-08-31 23:55,-116.1876,41.9532,1637.00,86.00,12.20,6.24,230.00,15.00,0.00,29.82,M,10.00,25.00,CLR,M,M,M,M,M,M,M,M,M,M,M,M,M,M,81.64,K10U 312355Z AUTO 23015G25KT 10SM CLR 30/M11 A2982 RMK AO2,M
INS,2023-08-31 23:55,-115.6733,36.5872,955.00,98.40,32.40,9.94,190.00,14.00,0.00,29.76,1002.40,10.00,26.00,CLR,M,M,M,M,M,M,M,M,M,M,M,28.00,230.00,2023-08-31 23:23,92.58,KINS 312355Z AUTO 19014G26KT 10SM CLR 37/00 A2976 RMK AO2 PK WND 23028/23 SLP024 T03690002 10380 20350 57015 $,M
LSV,2023-08-31 23:55,-115.0343,36.2362,570.00,107.00,43.50,11.88,200.00,19.00,0.00,29.62,1000.00,10.00,M,CLR,M,M,M,M,M,M,M,M,M,M,M,31.00,200.00,2023-08-31 22:55,102.28,KLSV 312355Z AUTO 20019KT 10SM CLR 42/06 A2962 RMK AO2 PK WND 20031/2255 SLP000 T04160064 10433 20396 57019 $,M
EKO,2023-08-31 23:56,-115.7860,40.8242,1367.00,90.00,25.00,9.52,290.00,18.00,0.00,29.77,1002.40,10.00,30.00,CLR,M,M,M,M,M,M,M,M,M,M,M,30.00,290.00,2023-08-31 23:49,85.19,KEKO 312356Z AUTO 29018G30KT 10SM CLR 32/M04 A2977 RMK AO2 PK WND 29030/2349 SLP024 T03221039 10333 20228 56028,M
WMC,2023-08-31 23:56,-117.8072,40.9019,1315.00,89.00,17.00,7.00,250.00,10.00,0.00,29.75,1003.60,10.00,24.00,CLR,M,M,M,M,M,M,M,M,M,M,M,34.00,200.00,2023-08-31 22:59,83.99,KWMC 312356Z AUTO 25010G24KT 10SM CLR 32/M08 A2975 RMK AO2 PK WND 20034/2259 SLP036 T03171083 10333 20256 56018,M
NFL,2023-08-31 23:56,-118.7010,39.4166,1199.00,91.00,25.00,9.23,280.00,12.00,0.00,29.74,1005.00,10.00,16.00,FEW,FEW,FEW,M,8000.00,12000.00,25000.00,M,M,M,M,M,M,M,M,85.93,KNFL 312356Z 28012G16KT 10SM FEW080 FEW120 FEW250 33/M04 A2974 RMK AO2 SLP050 T03281039 10333 20256 56022,M
HND,2023-08-31 23:56,-115.1344,35.9729,742.79,103.00,50.00,17.10,220.00,13.00,0.00,29.73,1004.50,10.00,M,CLR,M,M,M,M,M,M,M,M,M,M,M,M,M,M,100.11,KHND 312356Z 22013KT 10SM CLR 39/10 A2973 RMK AO2 SLP045 T03940100 10411 20383 58019,M
TPH,2023-08-31 23:56,-117.0904,38.0505,1654.00,89.00,21.00,8.30,200.00,18.00,0.00,29.88,1003.90,10.00,29.00,CLR,M,M,M,M,M,M,M,M,M,M,M,33.00,190.00,2023-08-31 23:12,84.19,KTPH 312356Z AUTO 20018G29KT 10SM CLR 32/M06 A2988 RMK AO2 PK WND 19033/2312 SLP039 T03171061 10328 20272 56014,M
LAS,2023-08-31 23:56,-115.1634,36.0719,663.00,105.00,47.00,14.40,240.00,15.00,0.00,29.69,1002.00,10.00,23.00,FEW,SCT,SCT,M,12000.00,17000.00,20000.00,M,M,M,M,M,M,M,M,101.34,KLAS 312356Z 24015G23KT 10SM FEW120CB SCT170 SCT200 41/08 A2969 RMK AO2 SLP020 CB NE-SE AND DSNT NE-SE AND SW MOV N T04060083 10417 20383 56018,M
