station,valid,lon,lat,elevation,tmpf,dwpf,relh,drct,sknt,p01i,alti,mslp,vsby,gust,skyc1,skyc2,skyc3,skyc4,skyl1,skyl2,skyl3,skyl4,wxcodes,ice_accretion_1hr,ice_accretion_3hr,ice_accretion_6hr,peak_wind_gust,peak_wind_drct,peak_wind_time,feel,metar,snowdepth
BAM,2024-03-07 00:00,-116.8743,40.5990,1382.36,46.40,33.80,61.28,340.00,6.00,0.00,29.83,M,10.00,M,SCT,BKN,M,M,5000.00,10000.00,M,M,M,M,M,M,M,M,M,42.87,KBAM 070000Z AUTO 34006KT 10SM SCT050 BKN100 08/01 A2983 RMK AO1,M
LSV,2024-03-07 00:11,-115.0343,36.2362,570.00,68.00,10.40,10.47,230.00,12.00,0.00,29.67,1003.90,10.00,M,CLR,M,M,M,M,M,M,M,M,M,M,M,M,M,M,68.00,KLSV 070011Z AUTO 23012KT 10SM CLR 20/M12 A2967 RMK AO2 WSHFT 2357 SLP039 $,M
BVU,2024-03-07 00:15,-114.8611,35.9475,671.00,66.20,19.40,16.50,180.00,12.00,0.00,29.70,M,10.00,M,CLR,M,M,M,M,M,M,M,M,M,M,M,M,M,M,66.20,KBVU 070015Z AUTO 18012KT 10SM CLR 19/M07 A2970 RMK AO2,M
CXP,2024-03-07 00:15,-119.7326,39.1923,1431.00,48.20,24.80,39.66,350.00,6.00,0.00,29.81,M,10.00,M,BKN,M,M,M,8000.00,M,M,M,M,M,M,M,M,M,M,45.04,KCXP 070015Z AUTO 35006KT 10SM BKN080 09/M04 A2981 RMK AO2,M
RTS,2024-03-07 00:15,-119.8764,39.6682,1539.00,41.00,28.40,60.54,310.00,7.00,0.00,29.84,M,10.00,M,CLR,M,M,M,M,M,M,M,M,M,M,M,M,M,M,35.75,KRTS 070015Z AUTO 31007KT 10SM CLR 05/M02 A2984 RMK AO2,M
MEV,2024-03-07 00:15,-119.7500,38.9963,1441.42,48.20,24.80,39.66,M,6.00,0.00,29.79,M,10.00,M,OVC,M,M,M,6500.00,M,M,M,M,M,M,M,M,M,M,45.04,KMEV 070015Z AUTO VRB06KT 10SM OVC065 09/M04 A2979 RMK AO2,M
HTH,2024-03-07 00:15,-118.6315,38.5448,1282.89,53.60,15.80,22.13,340.00,8.00,0.00,29.77,M,10.00,M,BKN,BKN,M,M,9000.00,11000.00,M,M,M,M,M,M,M,M,M,53.60,KHTH 070015Z AUTO 34008KT 10SM BKN090 BKN110 12/M09 A2977 RMK A01,M
10U,2024-03-07 00:15,-116.1876,41.9532,1637.00,33.80,33.80,100.00,60.00,4.00,0.00,29.82,M,2.00,M,BKN,OVC,M,M,400.00,1000.00,M,M,-SN,M,M,M,M,M,M,29.52,K10U 070015Z AUTO 06004KT 2SM -SN BKN004 OVC010 01/01 A2982 RMK AO2,M
TMT,2024-03-07 00:15,-117.1971,39.4643,1749.34,42.40,24.00,47.80,50.00,4.00,0.00,29.81,M,10.00,14.00,SCT,BKN,OVC,M,4100.00,4800.00,5500.00,M,M,M,M,M,M,M,M,39.56,KTMT 070015Z AUTO 05004G14KT 10SM SCT041 BKN048 OVC055 06/M04 A2981 RMK AO2 T00581044,M
EKO,2024-03-07 00:16,-115.7860,40.8242,1367.00,42.00,33.00,70.19,290.00,8.00,0.00,29.81,M,10.00,M,BKN,OVC,M,M,3000.00,3700.00,M,M,M,M,M,M,M,M,M,36.43,KEKO 070016Z AUTO 29008KT 10SM BKN030 OVC037 06/01 A2981 RMK AO2 T00560006,M
BAM,2024-03-07 00:20,-116.8743,40.5990,1382.36,46.40,33.80,61.28,340.00,8.00,0.00,29.82,M,10.00,M,CLR,M,M,M,M,M,M,M,M,M,M,M,M,M,M,41.85,KBAM 070020Z AUTO 34008KT 10SM CLR 08/01 A2982 RMK AO1,M
BVU,2024-03-07 00:35,-114.8611,35.9475,671.00,66.20,21.20,17.81,150.00,15.00,0.00,29.70,M,10.00,M,CLR,M,M,M,M,M,M,M,M,M,M,M,M,M,M,66.20,KBVU 070035Z AUTO 15015KT 10SM CLR 19/M06 A2970 RMK AO2,M
CXP,2024-03-07 00:35,-119.7326,39.1923,1431.00,48.20,30.20,49.53,310.00,8.00,0.00,29.81,M,10.00,M,BKN,BKN,M,M,7000.00,8500.00,M,M,M,M,M,M,M,M,M,44.07,KCXP 070035Z AUTO 31008KT 10SM BKN070 BKN085 09/M01 A2981 RMK AO2,M
RTS,2024-03-07 00:35,-119.8764,39.6682,1539.00,41.00,28.40,60.54,300.00,6.00,0.00,29.83,M,10.00,M,CLR,M,M,M,M,M,M,M,M,M,M,M,M,M,M,36.37,KRTS 070035Z AUTO 30006KT 10SM CLR 05/M02 A2983 RMK AO2,M
MEV,2024-03-07 00:35,-119.7500,38.9963,1441.42,48.20,23.00,36.78,360.00,7.00,0.00,29.80,M,10.00,M,FEW,SCT,OVC,M,6000.00,7000.00,9000.00,M,M,M,M,M,M,M,M,44.53,KMEV 070035Z AUTO 36007KT 10SM FEW060 SCT070 OVC090 09/M05 A2980 RMK AO2,M
HTH,2024-03-07 00:35,-118.6315,38.5448,1282.89,53.60,17.60,23.93,330.00,8.00,0.00,29.77,M,10.00,M,BKN,BKN,M,M,9000.00,11000.00,M,M,M,M,M,M,M,M,M,53.60,KHTH 070035Z AUTO 33008KT 10SM BKN090 BKN110 12/M08 A2977 RMK A01,M
10U,2024-03-07 00:35,-116.1876,41.9532,1637.00,33.80,32.00,93.03,0.00,0.00,0.00,29.82,M,2.00,M,OVC,M,M,M,500.00,M,M,M,-SN,M,M,M,M,M,M,33.80,K10U 070035Z AUTO 00000KT 2SM -SN OVC005 01/00 A2982 RMK AO2,M
TMT,2024-03-07 00:35,-117.1971,39.4643,1749.34,42.30,24.40,48.80,360.00,5.00,0.00,29.81,M,10.00,M,SCT,SCT,OVC,M,4300.00,4800.00,5500.00,M,M,M,M,M,M,M,M,38.63,KTMT 070035Z AUTO 36005KT 10SM SCT043 SCT048 OVC055 06/M04 A2981 RMK AO2 T00571042,M
ELY,2024-03-07 00:37,-114.8453,39.2950,1909.00,40.00,27.00,59.41,120.00,6.00,T,29.79,M,2.50,M,BKN,BKN,OVC,M,3500.00,4400.00,6000.00,M,-RA,M,M,M,M,M,M,35.17,KELY 070037Z AUTO 12006KT 2 1/2SM -RA BKN035 BKN044 OVC060 04/M03 A2979 RMK AO2 RAB37 P0000 T00441028,M
BAM,2024-03-07 00:40,-116.8743,40.5990,1382.36,46.40,33.80,61.28,350.00,8.00,0.00,29.82,M,10.00,M,CLR,M,M,M,M,M,M,M,M,M,M,M,M,M,M,41.85,KBAM 070040Z AUTO 35008KT 10SM CLR 08/01 A2982 RMK AO1,M
ELY,2024-03-07 00:46,-114.8453,39.2950,1909.00,40.00,26.00,57.01,110.00,4.00,T,29.78,M,6.00,M,SCT,OVC,M,M,3500.00,6000.00,M,M,-RA,M,M,M,M,M,M,36.76,KELY 070046Z AUTO 11004KT 6SM -RA SCT035 OVC060 04/M03 A2978 RMK AO2 RAB37 P0000 T00441033,M
P68,2024-03-07 00:53,-116.0056,39.6014,1993.00,42.00,26.00,52.76,360.00,8.00,0.00,29.79,1007.20,M,M,M,M,M,M,M,M,M,M,M,M,M,M,M,M,M,36.43,KP68 070053Z AUTO 36008KT 06/M03 A2979 RMK AO1 SLP072 T00561033,M
DRA,2024-03-07 00:53,-116.0278,36.6206,1009.00,57.00,20.00,23.44,230.00,13.00,0.00,29.73,1005.10,10.00,M,CLR,M,M,M,M,M,M,M,M,M,M,M,M,M,M,57.00,KDRA 070053Z AUTO 23013KT 10SM CLR 14/M07 A2973 RMK AO2 SLP051 T01391067,M
ELY,2024-03-07 00:53,-114.8453,39.2950,1909.00,41.00,26.00,54.84,40.00,6.00,T,29.78,1008.10,10.00,M,SCT,BKN,OVC,M,3300.00,6000.00,8500.00,M,M,M,M,M,M,M,M,36.37,KELY 070053Z AUTO 04006KT 10SM SCT033 BKN060 OVC085 05/M03 A2978 RMK AO2 RAB37E52 SLP081 P0000 T00501033,M
VGT,2024-03-07 00:53,-115.1933,36.2111,667.00,66.00,12.00,12.04,240.00,11.00,0.00,29.70,1006.60,10.00,M,CLR,M,M,M,M,M,M,M,M,M,M,M,M,M,M,66.00,KVGT 070053Z 24011KT 10SM CLR 19/M11 A2970 RMK AO2 SLP066 T01891111,M
LOL,2024-03-07 00:53,-118.5701,40.0684,1192.43,48.00,32.00,53.67,50.00,4.00,T,29.80,1008.90,10.00,M,OVC,M,M,M,5500.00,M,M,M,M,M,M,M,M,M,M,46.10,KLOL 070053Z AUTO 05004KT 10SM OVC055 09/00 A2980 RMK AO2 RAE2357 SLP089 P0000 T00890000,M
BVU,2024-03-07 00:55,-114.8611,35.9475,671.00,66.20,10.40,11.14,230.00,10.00,0.00,29.70,M,10.00,M,CLR,M,M,M,M,M,M,M,M,M,M,M,M,M,M,66.20,KBVU 070055Z AUTO 23010KT 10SM CLR 19/M12 A2970 RMK AO2,M
CXP,2024-03-07 00:55,-119.7326,39.1923,1431.00,46.40,30.20,53.00,310.00,8.00,0.00,29.82,M,10.00,M,OVC,M,M,M,7000.00,M,M,M,M,M,M,M,M,M,M,41.85,KCXP 070055Z AUTO 31008KT 10SM OVC070 08/M01 A2982 RMK AO2,M
INS,2024-03-07 00:55,-115.6733,36.5872,955.00,62.40,9.00,11.95,50.00,4.00,0.00,29.71,1004.10,10.00,M,FEW,FEW,M,M,10000.00,15000.00,M,M,M,M,M,M,M,M,M,62.40,KINS 070055Z AUTO 05004KT 10SM FEW100 FEW150 17/M13 A2971 RMK AO2 SLP041 T01691127 $,M
RNO,2024-03-07 00:55,-119.7711,39.4839,1341.00,46.00,28.00,49.18,330.00,12.00,0.00,29.82,1008.70,10.00,M,FEW,BKN,M,M,6000.00,15000.00,M,M,M,M,M,M,M,M,M,39.82,KRNO 070055Z 33012KT 10SM FEW060 BKN150 08/M02 A2982 RMK AO2 SLP087 T00781022,M
RTS,2024-03-07 00:55,-119.8764,39.6682,1539.00,41.00,26.60,56.22,310.00,10.00,0.00,29.84,M,10.00,M,CLR,M,M,M,M,M,M,M,M,M,M,M,M,M,M,34.25,KRTS 070055Z AUTO 31010KT 10SM CLR 05/M03 A2984 RMK AO2,M
MEV,2024-03-07 00:55,-119.7500,38.9963,1441.42,46.40,26.60,45.73,350.00,11.00,0.00,29.80,M,10.00,17.00,OVC,M,M,M,9500.00,M,M,M,M,M,M,M,M,M,M,40.66,KMEV 070055Z AUTO 35011G17KT 10SM OVC095 08/M03 A2980 RMK AO2,M
HTH,2024-03-07 00:55,-118.6315,38.5448,1282.89,51.80,15.80,23.65,360.00,9.00,0.00,29.77,M,10.00,M,OVC,M,M,M,9000.00,M,M,M,M,M,M,M,M,M,M,51.80,KHTH 070055Z AUTO 36009KT 10SM OVC090 11/M09 A2977 RMK A01,M
TMT,2024-03-07 00:55,-117.1971,39.4643,1749.34,42.30,24.40,48.80,30.00,7.00,0.00,29.81,M,10.00,M,SCT,OVC,M,M,4900.00,5500.00,M,M,M,M,M,M,M,M,M,37.33,KTMT 070055Z AUTO 03007KT 340V050 10SM SCT049 OVC055 06/M04 A2981 RMK AO2 T00571042,M
10U,2024-03-07 00:55,-116.1876,41.9532,1637.00,33.80,32.00,93.03,0.00,0.00,0.00,29.82,M,2.00,M,BKN,OVC,M,M,300.00,700.00,M,M,-SN,M,M,M,M,M,M,33.80,K10U 070055Z AUTO 00000KT 2SM -SN BKN003 OVC007 01/00 A2982 RMK AO2,M
LSV,2024-03-07 00:55,-115.0343,36.2362,570.00,66.70,12.60,12.07,250.00,13.00,0.00,29.67,1004.00,10.00,M,CLR,M,M,M,M,M,M,M,M,M,M,M,M,M,M,66.70,KLSV 070055Z AUTO 25013KT 10SM CLR 19/M11 A2967 RMK AO2 SLP040 T01931108 $,M
EKO,2024-03-07 00:56,-115.7860,40.8242,1367.00,41.00,31.00,67.30,320.00,3.00,0.00,29.81,1009.60,10.00,M,BKN,OVC,M,M,4500.00,6000.00,M,M,M,M,M,M,M,M,M,38.98,KEKO 070056Z AUTO 32003KT 10SM BKN045 OVC060 05/M01 A2981 RMK AO2 SLP096 T00501006,M
WMC,2024-03-07 00:56,-117.8072,40.9019,1315.00,47.00,33.00,58.01,280.00,9.00,0.00,29.81,1008.80,10.00,M,SCT,OVC,M,M,7000.00,9500.00,M,M,M,M,M,M,M,M,M,42.17,KWMC 070056Z AUTO 28009KT 10SM SCT070 OVC095 08/01 A2981 RMK AO2 SLP088 T00830006,M
NFL,2024-03-07 00:56,-118.7010,39.4166,1199.00,52.00,22.00,30.62,10.00,5.00,0.00,29.78,1006.30,10.00,M,SCT,BKN,OVC,M,5000.00,10000.00,25000.00,M,M,M,M,M,M,M,M,52.00,KNFL 070056Z 01005KT 10SM SCT050 BKN100 OVC250 11/M06 A2978 RMK AO2 SLP063 T01111056,M
HND,2024-03-07 00:56,-115.1344,35.9729,742.79,64.00,19.00,17.51,260.00,10.00,0.00,29.74,1007.80,10.00,M,CLR,M,M,M,M,M,M,M,M,M,M,M,M,M,M,64.00,KHND 070056Z 26010KT 10SM CLR 18/M07 A2974 RMK AO2 SLP078 T01781072,M
TPH,2024-03-07 00:56,-117.0904,38.0505,1654.00,47.00,29.00,49.34,10.00,15.00,0.00,29.76,1007.30,10.00,M,FEW,M,M,M,9500.00,M,M,M,M,M,M,M,M,M,M,40.23,KTPH 070056Z AUTO 01015KT 10SM FEW095 08/M02 A2976 RMK AO2 SLP073 T00831017,M
LAS,2024-03-07 00:56,-115.1634,36.0719,663.00,63.00,19.00,18.14,240.00,14.00,0.00,29.71,1005.20,10.00,M,FEW,FEW,BKN,M,10000.00,15000.00,22000.00,M,M,M,M,M,M,M,M,63.00,KLAS 070056Z 24014KT 10SM FEW100 FEW150 BKN220 17/M07 A2971 RMK AO2 SLP052 T01721072 $,M
BAM,2024-03-07 01:00,-116.8743,40.5990,1382.36,46.40,35.60,65.83,10.00,6.00,0.00,29.82,M,10.00,M,SCT,M,M,M,12000.00,M,M,M,M,M,M,M,M,M,M,42.87,KBAM 070100Z AUTO 01006KT 10SM SCT120 08/02 A2982 RMK AO1,M
BVU,2024-03-07 01:15,-114.8611,35.9475,671.00,64.40,10.40,11.86,250.00,10.00,0.00,29.71,M,10.00,M,CLR,M,M,M,M,M,M,M,M,M,M,M,M,M,M,64.40,KBVU 070115Z AUTO 25010KT 10SM CLR 18/M12 A2971 RMK AO2,M
CXP,2024-03-07 01:15,-119.7326,39.1923,1431.00,46.40,30.20,53.00,320.00,10.00,0.00,29.82,M,10.00,M,SCT,OVC,M,M,5500.00,7000.00,M,M,M,M,M,M,M,M,M,41.03,KCXP 070115Z AUTO 32010KT 10SM SCT055 OVC070 08/M01 A2982 RMK AO2,M
RTS,2024-03-07 01:15,-119.8764,39.6682,1539.00,41.00,26.60,56.22,310.00,7.00,0.00,29.84,M,10.00,M,SCT,M,M,M,7000.00,M,M,M,M,M,M,M,M,M,M,35.75,KRTS 070115Z AUTO 31007KT 10SM SCT070 05/M03 A2984 RMK AO2,M
MEV,2024-03-07 01:15,-119.7500,38.9963,1441.42,46.40,28.40,49.24,360.00,14.00,0.00,29.80,M,10.00,M,BKN,M,M,M,10000.00,M,M,M,M,M,M,M,M,M,M,39.72,KMEV 070115Z AUTO 36014KT 10SM BKN100 08/M02 A2980 RMK AO2,M
HTH,2024-03-07 01:15,-118.6315,38.5448,1282.89,51.80,15.80,23.65,360.00,7.00,0.00,29.77,M,10.00,M,OVC,M,M,M,9000.00,M,M,M,M,M,M,M,M,M,M,51.80,KHTH 070115Z AUTO 36007KT 10SM OVC090 11/M09 A2977 RMK A01,M
10U,2024-03-07 01:15,-116.1876,41.9532,1637.00,32.00,32.00,100.00,0.00,0.00,0.00,29.83,M,1.00,M,OVC,M,M,M,300.00,M,M,M,-SN,M,M,M,M,M,M,32.00,K10U 070115Z AUTO 00000KT 1SM -SN OVC003 00/00 A2983 RMK AO2,M
TMT,2024-03-07 01:15,-117.1971,39.4643,1749.34,40.30,26.00,56.35,340.00,5.00,0.00,29.81,M,10.00,M,SCT,OVC,M,M,3600.00,4700.00,M,M,M,M,M,M,M,M,M,36.25,KTMT 070115Z AUTO 34005KT 10SM SCT036 OVC047 05/M03 A2981 RMK AO2 T00461034,M
BAM,2024-03-07 01:20,-116.8743,40.5990,1382.36,44.60,35.60,70.48,10.00,5.00,0.00,29.81,M,10.00,M,SCT,M,M,M,10000.00,M,M,M,M,M,M,M,M,M,M,41.36,KBAM 070120Z AUTO 01005KT 10SM SCT100 07/02 A2981 RMK AO1,M
BVU,2024-03-07 01:35,-114.8611,35.9475,671.00,64.40,12.20,12.84,260.00,10.00,0.00,29.71,M,10.00,M,CLR,M,M,M,M,M,M,M,M,M,M,M,M,M,M,64.40,KBVU 070135Z AUTO 26010KT 10SM CLR 18/M11 A2971 RMK AO2,M
CXP,2024-03-07 01:35,-119.7326,39.1923,1431.00,44.60,28.40,52.72,320.00,8.00,0.00,29.82,M,10.00,M,SCT,OVC,M,M,6000.00,7000.00,M,M,M,M,M,M,M,M,M,39.63,KCXP 070135Z AUTO 32008KT 10SM SCT060 OVC070 07/M02 A2982 RMK AO2,M
RTS,2024-03-07 01:35,-119.8764,39.6682,1539.00,39.20,26.60,60.29,300.00,5.00,0.00,29.84,M,10.00,M,OVC,M,M,M,7500.00,M,M,M,M,M,M,M,M,M,M,34.95,KRTS 070135Z AUTO 30005KT 10SM OVC075 04/M03 A2984 RMK AO2,M
MEV,2024-03-07 01:35,-119.7500,38.9963,1441.42,44.60,28.40,52.72,360.00,15.00,0.00,29.80,M,10.00,M,SCT,SCT,OVC,M,7000.00,8000.00,10000.00,M,M,M,M,M,M,M,M,37.11,KMEV 070135Z AUTO 36015KT 10SM SCT070 SCT080 OVC100 07/M02 A2980 RMK AO2,M
HTH,2024-03-07 01:35,-118.6315,38.5448,1282.89,51.80,15.80,23.65,330.00,7.00,0.00,29.77,M,10.00,M,OVC,M,M,M,8000.00,M,M,M,M,M,M,M,M,M,M,51.80,KHTH 070135Z AUTO 33007KT 10SM OVC080 11/M09 A2977 RMK A01,M
10U,2024-03-07 01:35,-116.1876,41.9532,1637.00,32.00,32.00,100.00,0.00,0.00,0.00,29.83,M,1.25,M,OVC,M,M,M,300.00,M,M,M,-SN,M,M,M,M,M,M,32.00,K10U 070135Z AUTO 00000KT 1 1/4SM -SN OVC003 00/00 A2983 RMK AO2,M
TMT,2024-03-07 01:35,-117.1971,39.4643,1749.34,39.60,26.00,57.90,0.00,0.00,0.00,29.81,M,10.00,M,BKN,BKN,M,M,4900.00,6500.00,M,M,M,M,M,M,M,M,M,39.60,KTMT 070135Z AUTO 00000KT 10SM BKN049 BKN065 04/M03 A2981 RMK AO2 T00421034,M
BAM,2024-03-07 01:40,-116.8743,40.5990,1382.36,44.60,35.60,70.48,10.00,4.00,0.00,29.81,M,10.00,M,BKN,M,M,M,11000.00,M,M,M,M,M,M,M,M,M,M,42.13,KBAM 070140Z AUTO 01004KT 10SM BKN110 07/02 A2981 RMK AO1,M
P68,2024-03-07 01:53,-116.0056,39.6014,1993.00,39.00,27.00,61.78,10.00,5.00,0.00,29.79,1008.50,M,M,M,M,M,M,M,M,M,M,M,M,M,M,M,M,M,34.71,KP68 070153Z AUTO 01005KT 04/M03 A2979 RMK AO1 SLP085 T00391028,M
DRA,2024-03-07 01:53,-116.0278,36.6206,1009.00,56.00,21.00,25.35,210.00,9.00,0.00,29.73,1005.40,10.00,M,CLR,M,M,M,M,M,M,M,M,M,M,M,M,M,M,56.00,KDRA 070153Z AUTO 21009KT 10SM CLR 13/M06 A2973 RMK AO2 SLP054 T01331061,M
ELY,2024-03-07 01:53,-114.8453,39.2950,1909.00,38.00,27.00,64.24,120.00,9.00,0.00,29.79,1009.20,10.00,M,OVC,M,M,M,5500.00,M,M,M,M,M,M,M,M,M,M,30.97,KELY 070153Z AUTO 12009KT 10SM OVC055 03/M03 A2979 RMK AO2 SLP092 T00331028,M
VGT,2024-03-07 01:53,-115.1933,36.2111,667.00,64.00,20.00,18.27,230.00,12.00,0.00,29.70,1006.80,10.00,M,CLR,M,M,M,M,M,M,M,M,M,M,M,M,M,M,64.00,KVGT 070153Z 23012KT 10SM CLR 18/M07 A2970 RMK AO2 SLP068 T01781067,M
LOL,2024-03-07 01:53,-118.5701,40.0684,1192.43,46.00,33.00,60.25,70.00,5.00,0.00,29.81,1009.50,10.00,M,OVC,M,M,M,6000.00,M,M,M,M,M,M,M,M,M,M,43.02,KLOL 070153Z AUTO 07005KT 10SM OVC060 08/01 A2981 RMK AO2 SLP095 T00780006,M
BVU,2024-03-07 01:55,-114.8611,35.9475,671.00,62.60,14.00,14.81,250.00,10.00,0.00,29.71,M,10.00,M,CLR,M,M,M,M,M,M,M,M,M,M,M,M,M,M,62.60,KBVU 070155Z AUTO 25010KT 10SM CLR 17/M10 A2971 RMK AO2,M
CXP,2024-03-07 01:55,-119.7326,39.1923,1431.00,44.60,30.20,56.74,330.00,8.00,0.00,29.82,M,10.00,M,BKN,OVC,M,M,6000.00,7000.00,M,M,M,M,M,M,M,M,M,39.63,KCXP 070155Z AUTO 33008KT 10SM BKN060 OVC070 07/M01 A2982 RMK AO2,M
INS,2024-03-07 01:55,-115.6733,36.5872,955.00,59.50,17.20,19.00,220.00,4.00,0.00,29.72,1004.80,10.00,M,FEW,M,M,M,10000.00,M,M,M,M,M,M,M,M,M,M,59.50,KINS 070155Z AUTO 22004KT 10SM FEW100 15/M08 A2972 RMK AO2 SLP048 T01531082 $,M
RNO,2024-03-07 01:55,-119.7711,39.4839,1341.00,45.00,28.00,51.08,330.00,9.00,0.00,29.83,1009.50,10.00,M,FEW,SCT,BKN,M,6000.00,11000.00,20000.00,M,M,M,M,M,M,M,M,39.68,KRNO 070155Z 33009KT 10SM FEW060 SCT110 BKN200 07/M02 A2983 RMK AO2 SLP095 T00721022,M
LSV,2024-03-07 01:55,-115.0343,36.2362,570.00,65.30,11.30,11.96,240.00,10.00,0.00,29.67,1004.00,10.00,M,CLR,M,M,M,M,M,M,M,M,M,M,M,M,M,M,65.30,KLSV 070155Z AUTO 24010KT 10SM CLR 19/M11 A2967 RMK AO2 SLP040 T01851115 $,M
RTS,2024-03-07 01:55,-119.8764,39.6682,1539.00,39.20,26.60,60.29,300.00,5.00,0.00,29.84,M,10.00,M,OVC,M,M,M,7000.00,M,M,M,M,M,M,M,M,M,M,34.95,KRTS 070155Z AUTO 30005KT 10SM OVC070 04/M03 A2984 RMK AO2,M
MEV,2024-03-07 01:55,-119.7500,38.9963,1441.42,44.60,28.40,52.72,360.00,13.00,0.00,29.81,M,10.00,M,OVC,M,M,M,7000.00,M,M,M,M,M,M,M,M,M,M,37.71,KMEV 070155Z AUTO 36013KT 10SM OVC070 07/M02 A2981 RMK AO2,M
HTH,2024-03-07 01:55,-118.6315,38.5448,1282.89,50.00,19.40,29.52,330.00,11.00,0.00,29.78,M,10.00,M,BKN,OVC,M,M,7500.00,8500.00,M,M,M,M,M,M,M,M,M,50.00,KHTH 070155Z AUTO 33011KT 10SM BKN075 OVC085 10/M07 A2978 RMK A01,M
TMT,2024-03-07 01:55,-117.1971,39.4643,1749.34,40.00,25.00,54.69,0.00,0.00,0.00,29.81,M,10.00,M,SCT,M,M,M,6000.00,M,M,M,M,M,M,M,M,M,M,40.00,KTMT 070155Z AUTO 00000KT 10SM SCT060 04/M04 A2981 RMK AO2 T00441039,M
10U,2024-03-07 01:55,-116.1876,41.9532,1637.00,32.00,32.00,100.00,0.00,0.00,0.00,29.83,M,4.00,M,SCT,BKN,OVC,M,300.00,1500.00,2300.00,M,-SN,M,M,M,M,M,M,32.00,K10U 070155Z AUTO 00000KT 4SM -SN SCT003 BKN015 OVC023 00/00 A2983 RMK AO2,M
EKO,2024-03-07 01:56,-115.7860,40.8242,1367.00,39.00,32.00,75.75,10.00,3.00,0.00,29.81,1009.90,10.00,M,CLR,M,M,M,M,M,M,M,M,M,M,M,M,M,M,36.69,KEKO 070156Z AUTO 01003KT 10SM CLR 04/00 A2981 RMK AO2 SLP099 T00390000,M
WMC,2024-03-07 01:56,-117.8072,40.9019,1315.00,41.00,32.00,70.08,250.00,4.00,0.00,29.81,1009.50,10.00,M,FEW,M,M,M,11000.00,M,M,M,M,M,M,M,M,M,M,37.93,KWMC 070156Z AUTO 25004KT 10SM FEW110 05/00 A2981 RMK AO2 SLP095 T00500000,M
NFL,2024-03-07 01:56,-118.7010,39.4166,1199.00,47.00,24.00,40.12,30.00,7.00,0.00,29.79,1006.60,10.00,M,SCT,BKN,OVC,M,5000.00,10000.00,25000.00,M,M,M,M,M,M,M,M,43.06,KNFL 070156Z 03007KT 10SM SCT050 BKN100 OVC250 08/M04 A2979 RMK AO2 SLP066 SH DSNT NW-N T00831044,M
HND,2024-03-07 01:56,-115.1344,35.9729,742.79,61.00,19.00,19.46,260.00,10.00,0.00,29.74,1008.00,10.00,15.00,CLR,M,M,M,M,M,M,M,M,M,M,M,M,M,M,61.00,KHND 070156Z 26010G15KT 10SM CLR 16/M07 A2974 RMK AO2 SLP080 T01611072,M
TPH,2024-03-07 01:56,-117.0904,38.0505,1654.00,42.00,29.00,59.69,360.00,11.00,0.00,29.77,1008.30,10.00,M,FEW,M,M,M,6500.00,M,M,M,M,M,M,M,M,M,M,35.10,KTPH 070156Z AUTO 36011KT 10SM FEW065 06/M02 A2977 RMK AO2 SLP083 T00561017,M
LAS,2024-03-07 01:56,-115.1634,36.0719,663.00,62.00,18.00,18.00,230.00,9.00,0.00,29.71,1005.50,10.00,M,FEW,FEW,BKN,M,10000.00,15000.00,22000.00,M,M,M,M,M,M,M,M,62.00,KLAS 070156Z 23009KT 10SM FEW100 FEW150 BKN220 17/M08 A2971 RMK AO2 SLP055 T01671078 $,M
BAM,2024-03-07 02:00,-116.8743,40.5990,1382.36,44.60,35.60,70.48,360.00,4.00,0.00,29.81,M,10.00,M,SCT,M,M,M,12000.00,M,M,M,M,M,M,M,M,M,M,42.13,KBAM 070200Z AUTO 36004KT 10SM SCT120 07/02 A2981 RMK AO1,M
BVU,2024-03-07 02:15,-114.8611,35.9475,671.00,62.60,17.60,17.32,250.00,9.00,0.00,29.72,M,10.00,M,CLR,M,M,M,M,M,M,M,M,M,M,M,M,M,M,62.60,KBVU 070215Z AUTO 25009KT 10SM CLR 17/M08 A2972 RMK AO2,M
CXP,2024-03-07 02:15,-119.7326,39.1923,1431.00,44.60,24.80,45.44,M,3.00,0.00,29.83,M,10.00,M,BKN,OVC,M,M,5500.00,6500.00,M,M,M,M,M,M,M,M,M,43.09,KCXP 070215Z AUTO VRB03KT 10SM BKN055 OVC065 07/M04 A2983 RMK AO2,M
RTS,2024-03-07 02:15,-119.8764,39.6682,1539.00,37.40,28.40,69.67,250.00,5.00,0.00,29.85,M,10.00,M,BKN,OVC,M,M,6500.00,7500.00,M,M,M,M,M,M,M,M,M,32.81,KRTS 070215Z AUTO 25005KT 10SM BKN065 OVC075 03/M02 A2985 RMK AO2,M
MEV,2024-03-07 02:15,-119.7500,38.9963,1441.42,42.80,28.40,56.48,360.00,11.00,0.00,29.81,M,10.00,M,FEW,OVC,M,M,5500.00,7000.00,M,M,M,M,M,M,M,M,M,36.11,KMEV 070215Z AUTO 36011KT 10SM FEW055 OVC070 06/M02 A2981 RMK AO2,M
HTH,2024-03-07 02:15,-118.6315,38.5448,1282.89,50.00,17.60,27.33,350.00,9.00,0.00,29.78,M,10.00,M,OVC,M,M,M,7500.00,M,M,M,M,M,M,M,M,M,M,50.00,KHTH 070215Z AUTO 35009KT 10SM OVC075 10/M08 A2978 RMK A01,M
10U,2024-03-07 02:15,-116.1876,41.9532,1637.00,32.00,32.00,100.00,310.00,5.00,0.00,29.83,M,10.00,M,OVC,M,M,M,2500.00,M,M,M,M,M,M,M,M,M,M,26.40,K10U 070215Z AUTO 31005KT 10SM OVC025 00/M00 A2983 RMK AO2,M
TMT,2024-03-07 02:15,-117.1971,39.4643,1749.34,38.00,26.00,61.64,340.00,3.00,0.00,29.81,M,10.00,M,SCT,M,M,M,5000.00,M,M,M,M,M,M,M,M,M,M,35.55,KTMT 070215Z AUTO 34003KT 10SM SCT050 03/M03 A2981 RMK AO2 T00331034,M
BAM,2024-03-07 02:20,-116.8743,40.5990,1382.36,42.80,35.60,75.50,360.00,3.00,0.00,29.82,M,10.00,M,SCT,M,M,M,12000.00,M,M,M,M,M,M,M,M,M,M,41.03,KBAM 070220Z AUTO 36003KT 10SM SCT120 06/02 A2982 RMK AO1,M
BVU,2024-03-07 02:35,-114.8611,35.9475,671.00,62.60,19.40,18.71,240.00,6.00,0.00,29.72,M,10.00,M,CLR,M,M,M,M,M,M,M,M,M,M,M,M,M,M,62.60,KBVU 070235Z AUTO 24006KT 10SM CLR 17/M07 A2972 RMK AO2,M
CXP,2024-03-07 02:35,-119.7326,39.1923,1431.00,42.80,26.60,52.45,320.00,6.00,0.00,29.83,M,10.00,M,SCT,OVC,M,M,5500.00,7500.00,M,M,M,M,M,M,M,M,M,38.54,KCXP 070235Z AUTO 32006KT 10SM SCT055 OVC075 06/M03 A2983 RMK AO2,M
RTS,2024-03-07 02:35,-119.8764,39.6682,1539.00,39.20,28.40,64.93,240.00,4.00,0.00,29.84,M,10.00,M,SCT,OVC,M,M,6500.00,7500.00,M,M,M,M,M,M,M,M,M,35.83,KRTS 070235Z AUTO 24004KT 10SM SCT065 OVC075 04/M02 A2984 RMK AO2,M
MEV,2024-03-07 02:35,-119.7500,38.9963,1441.42,42.80,28.40,56.48,360.00,11.00,0.00,29.81,M,10.00,M,OVC,M,M,M,7000.00,M,M,M,M,M,M,M,M,M,M,36.11,KMEV 070235Z AUTO 36011KT 10SM OVC070 06/M02 A2981 RMK AO2,M
HTH,2024-03-07 02:35,-118.6315,38.5448,1282.89,48.20,17.60,29.23,330.00,7.00,0.00,29.78,M,10.00,M,OVC,M,M,M,7500.00,M,M,M,M,M,M,M,M,M,M,44.53,KHTH 070235Z AUTO 33007KT 10SM OVC075 09/M08 A2978 RMK A01,M
10U,2024-03-07 02:35,-116.1876,41.9532,1637.00,32.00,32.00,100.00,310.00,5.00,0.00,29.83,M,10.00,M,BKN,BKN,OVC,M,2700.00,3500.00,4300.00,M,M,M,M,M,M,M,M,26.40,K10U 070235Z AUTO 31005KT 10SM BKN027 BKN035 OVC043 00/M00 A2983 RMK AO2,M
TMT,2024-03-07 02:35,-117.1971,39.4643,1749.34,38.00,25.50,60.37,0.00,0.00,0.00,29.81,M,10.00,M,SCT,BKN,M,M,5000.00,10000.00,M,M,M,M,M,M,M,M,M,38.00,KTMT 070235Z AUTO 00000KT 10SM SCT050 BKN100 03/M04 A2981 RMK AO2 T00341036,M
BAM,2024-03-07 02:40,-116.8743,40.5990,1382.36,42.80,33.80,70.28,10.00,4.00,0.00,29.82,M,10.00,M,BKN,M,M,M,11000.00,M,M,M,M,M,M,M,M,M,M,40.03,KBAM 070240Z AUTO 01004KT 10SM BKN110 06/01 A2982 RMK AO1,M
P68,2024-03-07 02:53,-116.0056,39.6014,1993.00,38.00,28.00,66.94,330.00,5.00,0.00,29.79,1008.30,M,M,M,M,M,M,M,M,M,M,M,M,M,M,M,M,M,33.52,KP68 070253Z AUTO 33005KT 03/M02 A2979 RMK AO1 SLP083 T00331022 52002,M
DRA,2024-03-07 02:53,-116.0278,36.6206,1009.00,55.00,24.00,29.83,210.00,10.00,0.00,29.74,1005.50,10.00,M,CLR,M,M,M,M,M,M,M,M,M,M,M,M,M,M,55.00,KDRA 070253Z AUTO 21010KT 10SM CLR 13/M04 A2974 RMK AO2 SLP055 T01281044 53003,M
ELY,2024-03-07 02:53,-114.8453,39.2950,1909.00,37.00,28.00,69.63,140.00,7.00,0.00,29.80,1008.90,10.00,M,BKN,OVC,M,M,7500.00,11000.00,M,M,M,M,M,M,M,M,M,30.87,KELY 070253Z AUTO 14007KT 10SM BKN075 OVC110 03/M02 A2980 RMK AO2 SLP089 60000 T00281022 53002,M
VGT,2024-03-07 02:53,-115.1933,36.2111,667.00,63.00,24.00,22.41,220.00,11.00,0.00,29.70,1006.90,10.00,M,CLR,M,M,M,M,M,M,M,M,M,M,M,M,M,M,63.00,KVGT 070253Z 22011KT 10SM CLR 17/M04 A2970 RMK AO2 SLP069 T01721044 55001,M
LOL,2024-03-07 02:53,-118.5701,40.0684,1192.43,43.00,34.00,70.30,360.00,4.00,0.00,29.81,1010.10,10.00,M,SCT,M,M,M,11000.00,M,M,M,M,M,M,M,M,M,M,40.27,KLOL 070253Z AUTO 36004KT 10SM SCT110 06/01 A2981 RMK AO2 SLP101 60000 T00610011 53005,M
BVU,2024-03-07 02:55,-114.8611,35.9475,671.00,60.80,19.40,19.94,230.00,4.00,0.00,29.72,M,10.00,M,CLR,M,M,M,M,M,M,M,M,M,M,M,M,M,M,60.80,KBVU 070255Z AUTO 23004KT 10SM CLR 16/M07 A2972 RMK AO2,M
CXP,2024-03-07 02:55,-119.7326,39.1923,1431.00,42.80,28.40,56.48,350.00,6.00,0.00,29.84,M,10.00,M,OVC,M,M,M,7000.00,M,M,M,M,M,M,M,M,M,M,38.54,KCXP 070255Z AUTO 35006KT 10SM OVC070 06/M02 A2984 RMK AO2,M
INS,2024-03-07 02:55,-115.6733,36.5872,955.00,59.00,16.70,18.93,250.00,4.00,0.00,29.73,M,10.00,M,BKN,M,M,M,15000.00,M,M,M,M,M,M,M,M,M,M,59.00,KINS 070255Z AUTO 25004KT 10SM BKN150 15/M08 A2973 RMK AO2 SLPNO T01501085 $,M
RNO,2024-03-07 02:55,-119.7711,39.4839,1341.00,44.00,28.00,53.07,330.00,7.00,0.00,29.83,1009.60,10.00,M,BKN,M,M,M,9000.00,M,M,M,M,M,M,M,M,M,M,39.41,KRNO 070255Z 33007KT 10SM BKN090 07/M02 A2983 RMK AO2 SLP096 T00671022 51005,M
RTS,2024-03-07 02:55,-119.8764,39.6682,1539.00,37.40,28.40,69.67,270.00,4.00,0.00,29.84,M,10.00,M,BKN,OVC,M,M,7000.00,8500.00,M,M,M,M,M,M,M,M,M,33.73,KRTS 070255Z AUTO 27004KT 10SM BKN070 OVC085 03/M02 A2984 RMK AO2,M
MEV,2024-03-07 02:55,-119.7500,38.9963,1441.42,42.80,28.40,56.48,10.00,10.00,0.00,29.81,M,10.00,M,OVC,M,M,M,7000.00,M,M,M,M,M,M,M,M,M,M,36.51,KMEV 070255Z AUTO 01010KT 10SM OVC070 06/M02 A2981 RMK AO2,M
HTH,2024-03-07 02:55,-118.6315,38.5448,1282.89,46.40,19.40,33.79,320.00,7.00,0.00,29.79,M,10.00,M,OVC,M,M,M,7500.00,M,M,M,M,M,M,M,M,M,M,42.33,KHTH 070255Z AUTO 32007KT 10SM OVC075 08/M07 A2979 RMK A01,M
10U,2024-03-07 02:55,-116.1876,41.9532,1637.00,32.00,30.20,92.97,330.00,5.00,0.00,29.83,M,10.00,M,BKN,OVC,M,M,3600.00,4200.00,M,M,UP,M,M,M,M,M,M,26.40,K10U 070255Z AUTO 33005KT 10SM UP BKN036 OVC042 M00/M01 A2983 RMK AO2,M
LSV,2024-03-07 02:55,-115.0343,36.2362,570.00,68.00,32.00,26.15,220.00,10.00,0.00,29.68,M,10.00,M,CLR,M,M,M,M,M,M,M,M,M,M,M,M,M,M,68.00,KLSV 070255Z COR AUTO 22010KT 10SM CLR 20/00 A2968 RMK AO2 SLPNO ALSTG ESTMD RVRNO VISNO RWY21L $ COR 0301,M
TMT,2024-03-07 02:55,-117.1971,39.4643,1749.34,36.70,26.80,67.06,0.00,0.00,0.00,29.81,M,10.00,M,SCT,SCT,M,M,5000.00,10000.00,M,M,M,M,M,M,M,M,M,36.70,KTMT 070255Z AUTO 00000KT 10SM SCT050 SCT100 03/M03 A2981 RMK AO2 T00261029,M
EKO,2024-03-07 02:56,-115.7860,40.8242,1367.00,37.00,31.00,78.69,70.00,3.00,0.00,29.81,M,10.00,M,CLR,M,M,M,M,M,M,M,M,M,M,M,M,M,M,34.40,KEKO 070256Z AUTO 07003KT 10SM CLR 03/M01 A2981 RMK AO2 SLPNO T00281006 56003,M
WMC,2024-03-07 02:56,-117.8072,40.9019,1315.00,39.00,33.00,78.86,340.00,7.00,0.00,29.82,1010.00,10.00,M,SCT,M,M,M,5000.00,M,M,M,M,M,M,M,M,M,M,33.31,KWMC 070256Z AUTO 34007KT 10SM SCT050 04/01 A2982 RMK AO2 SLP100 T00390006 53003,M
NFL,2024-03-07 02:56,-118.7010,39.4166,1199.00,45.00,27.00,49.02,20.00,7.00,0.00,29.80,1006.80,10.00,M,SCT,BKN,OVC,M,5000.00,10000.00,25000.00,M,M,M,M,M,M,M,M,40.63,KNFL 070256Z 02007KT 10SM SCT050 BKN100 OVC250 07/M03 A2980 RMK AO2 SLP068 SH DSNT N-NE T00721028 53005,M
HND,2024-03-07 02:56,-115.1344,35.9729,742.79,59.00,22.00,23.74,190.00,7.00,0.00,29.75,1008.20,10.00,M,CLR,M,M,M,M,M,M,M,M,M,M,M,M,M,M,59.00,KHND 070256Z 19007KT 10SM CLR 15/M06 A2975 RMK AO2 SLP082 T01501056 53004,M
TPH,2024-03-07 02:56,-117.0904,38.0505,1654.00,41.00,30.00,64.63,360.00,13.00,0.00,29.77,1008.00,10.00,M,OVC,M,M,M,6000.00,M,M,M,M,M,M,M,M,M,M,33.10,KTPH 070256Z AUTO 36013KT 10SM OVC060 05/M01 A2977 RMK AO2 SLP080 T00501011 53004,M
LAS,2024-03-07 02:56,-115.1634,36.0719,663.00,60.00,20.00,21.05,210.00,5.00,0.00,29.72,1005.60,10.00,M,FEW,FEW,BKN,M,10000.00,15000.00,22000.00,M,M,M,M,M,M,M,M,60.00,KLAS 070256Z 21005KT 10SM FEW100 FEW150 BKN220 16/M07 A2972 RMK AO2 SLP056 T01561067 53001 $,M
BAM,2024-03-07 03:00,-116.8743,40.5990,1382.36,42.80,33.80,70.28,10.00,4.00,0.00,29.82,M,10.00,M,OVC,M,M,M,10000.00,M,M,M,M,M,M,M,M,M,M,40.03,KBAM 070300Z AUTO 01004KT 10SM OVC100 06/01 A2982 RMK AO1,M
BVU,2024-03-07 03:15,-114.8611,35.9475,671.00,59.00,19.40,21.26,220.00,4.00,0.00,29.72,M,10.00,M,CLR,M,M,M,M,M,M,M,M,M,M,M,M,M,M,59.00,KBVU 070315Z AUTO 22004KT 10SM CLR 15/M07 A2972 RMK AO2,M
CXP,2024-03-07 03:15,-119.7326,39.1923,1431.00,41.00,30.20,65.16,330.00,8.00,0.00,29.84,M,10.00,M,BKN,OVC,M,M,6000.00,7000.00,M,M,M,M,M,M,M,M,M,35.20,KCXP 070315Z AUTO 33008KT 10SM BKN060 OVC070 05/M01 A2984 RMK AO2,M
RTS,2024-03-07 03:15,-119.8764,39.6682,1539.00,37.40,28.40,69.67,240.00,3.00,0.00,29.85,M,10.00,M,BKN,OVC,M,M,7000.00,8500.00,M,M,M,M,M,M,M,M,M,34.86,KRTS 070315Z AUTO 24003KT 10SM BKN070 OVC085 03/M02 A2985 RMK AO2,M
MEV,2024-03-07 03:15,-119.7500,38.9963,1441.42,41.00,28.40,60.54,10.00,10.00,0.00,29.82,M,10.00,M,FEW,BKN,OVC,M,4900.00,7000.00,8500.00,M,M,M,M,M,M,M,M,34.25,KMEV 070315Z AUTO 01010KT 10SM FEW049 BKN070 OVC085 05/M02 A2982 RMK AO2,M
HTH,2024-03-07 03:15,-118.6315,38.5448,1282.89,48.20,21.20,34.09,310.00,9.00,0.00,29.80,M,10.00,M,OVC,M,M,M,7000.00,M,M,M,M,M,M,M,M,M,M,43.66,KHTH 070315Z AUTO 31009KT 10SM OVC070 09/M06 A2980 RMK A01,M
10U,2024-03-07 03:15,-116.1876,41.9532,1637.00,32.00,30.20,92.97,0.00,0.00,0.00,29.84,M,7.00,M,FEW,SCT,OVC,M,400.00,800.00,3600.00,M,-SN,M,M,M,M,M,M,32.00,K10U 070315Z AUTO 00000KT 7SM -SN FEW004 SCT008 OVC036 M00/M01 A2984 RMK AO2,M
TMT,2024-03-07 03:15,-117.1971,39.4643,1749.34,33.30,26.60,76.13,90.00,3.00,0.00,29.82,M,10.00,M,CLR,M,M,M,M,M,M,M,M,M,M,M,M,M,M,30.17,KTMT 070315Z AUTO 09003KT 10SM CLR 01/M03 A2982 RMK AO2 T00071030,M
BAM,2024-03-07 03:20,-116.8743,40.5990,1382.36,41.00,35.60,80.93,40.00,6.00,0.00,29.82,M,10.00,M,OVC,M,M,M,9000.00,M,M,M,M,M,M,M,M,M,M,36.37,KBAM 070320Z AUTO 04006KT 10SM OVC090 05/02 A2982 RMK AO1,M
BVU,2024-03-07 03:35,-114.8611,35.9475,671.00,59.00,19.40,21.26,200.00,3.00,0.00,29.72,M,10.00,M,CLR,M,M,M,M,M,M,M,M,M,M,M,M,M,M,59.00,KBVU 070335Z AUTO 20003KT 10SM CLR 15/M07 A2972 RMK AO2,M
CXP,2024-03-07 03:35,-119.7326,39.1923,1431.00,41.00,28.40,60.54,330.00,7.00,0.00,29.84,M,10.00,M,BKN,OVC,M,M,5500.00,7000.00,M,M,M,M,M,M,M,M,M,35.75,KCXP 070335Z AUTO 33007KT 10SM BKN055 OVC070 05/M02 A2984 RMK AO2,M
RTS,2024-03-07 03:35,-119.8764,39.6682,1539.00,37.40,28.40,69.67,0.00,0.00,0.00,29.85,M,10.00,M,FEW,OVC,M,M,7000.00,8000.00,M,M,M,M,M,M,M,M,M,37.40,KRTS 070335Z AUTO 00000KT 10SM FEW070 OVC080 03/M02 A2985 RMK AO2,M
MEV,2024-03-07 03:35,-119.7500,38.9963,1441.42,41.00,28.40,60.54,10.00,9.00,0.00,29.82,M,10.00,14.00,FEW,OVC,M,M,4900.00,8500.00,M,M,M,M,M,M,M,M,M,34.70,KMEV 070335Z AUTO 01009G14KT 10SM FEW049 OVC085 05/M02 A2982 RMK AO2,M
HTH,2024-03-07 03:35,-118.6315,38.5448,1282.89,46.40,21.20,36.48,310.00,7.00,0.00,29.80,M,10.00,M,OVC,M,M,M,7500.00,M,M,M,M,M,M,M,M,M,M,42.33,KHTH 070335Z AUTO 31007KT 10SM OVC075 08/M06 A2980 RMK A01,M
10U,2024-03-07 03:35,-116.1876,41.9532,1637.00,30.20,30.20,100.00,340.00,4.00,0.00,29.84,M,10.00,M,FEW,SCT,BKN,M,600.00,3100.00,3900.00,M,M,M,M,M,M,M,M,25.32,K10U 070335Z AUTO 34004KT 10SM FEW006 SCT031 BKN039 M01/M01 A2984 RMK AO2,M
TMT,2024-03-07 03:35,-117.1971,39.4643,1749.34,32.70,26.60,77.99,0.00,0.00,0.00,29.83,M,10.00,M,SCT,BKN,M,M,7000.00,8000.00,M,M,M,M,M,M,M,M,M,32.70,KTMT 070335Z AUTO 00000KT 10SM SCT070 BKN080 00/M03 A2983 RMK AO2 T00041030,M
BAM,2024-03-07 03:40,-116.8743,40.5990,1382.36,41.00,35.60,80.93,50.00,7.00,0.00,29.82,M,10.00,M,BKN,M,M,M,11000.00,M,M,M,M,M,M,M,M,M,M,35.75,KBAM 070340Z AUTO 05007KT 10SM BKN110 05/02 A2982 RMK AO1,M
P68,2024-03-07 03:53,-116.0056,39.6014,1993.00,36.00,28.00,72.43,40.00,4.00,0.00,29.80,1007.70,M,M,M,M,M,M,M,M,M,M,M,M,M,M,M,M,M,32.09,KP68 070353Z AUTO 04004KT 02/M02 A2980 RMK AO1 SLP077 T00221022,M
DRA,2024-03-07 03:53,-116.0278,36.6206,1009.00,54.00,26.00,33.63,240.00,5.00,0.00,29.74,1005.40,10.00,M,CLR,M,M,M,M,M,M,M,M,M,M,M,M,M,M,54.00,KDRA 070353Z AUTO 24005KT 10SM CLR 12/M03 A2974 RMK AO2 SLP054 T01221033,M
ELY,2024-03-07 03:53,-114.8453,39.2950,1909.00,32.00,26.00,78.25,200.00,5.00,0.00,29.80,1008.60,10.00,M,BKN,M,M,M,11000.00,M,M,M,M,M,M,M,M,M,M,26.40,KELY 070353Z AUTO 20005KT 10SM BKN110 00/M03 A2980 RMK AO2 SLP086 T00001033,M
VGT,2024-03-07 03:53,-115.1933,36.2111,667.00,63.00,25.00,23.36,210.00,12.00,0.00,29.70,1006.80,10.00,M,CLR,M,M,M,M,M,M,M,M,M,M,M,M,M,M,63.00,KVGT 070353Z 21012KT 10SM CLR 17/M04 A2970 RMK AO2 SLP068 T01721039,M
LOL,2024-03-07 03:53,-118.5701,40.0684,1192.43,43.00,31.00,62.31,340.00,7.00,0.00,29.82,1010.10,10.00,M,CLR,M,M,M,M,M,M,M,M,M,M,M,M,M,M,38.19,KLOL 070353Z AUTO 34007KT 10SM CLR 06/M01 A2982 RMK AO2 SLP101 T00611006,M
BVU,2024-03-07 03:55,-114.8611,35.9475,671.00,59.00,19.40,21.26,180.00,3.00,0.00,29.72,M,10.00,M,CLR,M,M,M,M,M,M,M,M,M,M,M,M,M,M,59.00,KBVU 070355Z AUTO 18003KT 10SM CLR 15/M07 A2972 RMK AO2,M
CXP,2024-03-07 03:55,-119.7326,39.1923,1431.00,41.00,28.40,60.54,360.00,4.00,0.00,29.85,M,10.00,M,FEW,SCT,M,M,5500.00,6500.00,M,M,M,M,M,M,M,M,M,37.93,KCXP 070355Z AUTO 36004KT 10SM FEW055 SCT065 05/M02 A2985 RMK AO2,M
INS,2024-03-07 03:55,-115.6733,36.5872,955.00,56.30,19.00,23.03,250.00,8.00,0.00,29.73,M,10.00,M,BKN,M,M,M,14000.00,M,M,M,M,M,M,M,M,M,M,56.30,KINS 070355Z AUTO 25008KT 10SM BKN140 14/M07 A2973 RMK AO2 SLPNO T01351072 $,M
RNO,2024-03-07 03:55,-119.7711,39.4839,1341.00,43.00,28.00,55.14,330.00,4.00,0.00,29.84,1009.70,10.00,M,BKN,M,M,M,10000.00,M,M,M,M,M,M,M,M,M,M,40.27,KRNO 070355Z 33004KT 10SM BKN100 06/M02 A2984 RMK AO2 SLP097 T00611022,M
LSV,2024-03-07 03:55,-115.0343,36.2362,570.00,62.20,20.70,20.06,190.00,7.00,0.00,29.68,M,10.00,M,CLR,M,M,M,M,M,M,M,M,M,M,M,M,M,M,62.20,KLSV 070355Z AUTO 19007KT 10SM CLR 17/M06 A2968 RMK AO2 SLPNO T01681063 $,M
RTS,2024-03-07 03:55,-119.8764,39.6682,1539.00,35.60,26.60,69.46,270.00,3.00,0.00,29.85,M,10.00,M,FEW,BKN,M,M,7000.00,8000.00,M,M,M,M,M,M,M,M,M,32.80,KRTS 070355Z AUTO 27003KT 10SM FEW070 BKN080 02/M03 A2985 RMK AO2,M
MEV,2024-03-07 03:55,-119.7500,38.9963,1441.42,39.20,28.40,64.93,10.00,11.00,0.00,29.83,M,10.00,M,BKN,OVC,M,M,8500.00,11000.00,M,M,M,M,M,M,M,M,M,31.57,KMEV 070355Z AUTO 01011KT 10SM BKN085 OVC110 04/M02 A2983 RMK AO2,M
HTH,2024-03-07 03:55,-118.6315,38.5448,1282.89,44.60,24.80,45.44,320.00,7.00,0.00,29.81,M,10.00,M,OVC,M,M,M,7000.00,M,M,M,M,M,M,M,M,M,M,40.14,KHTH 070355Z AUTO 32007KT 10SM OVC070 07/M04 A2981 RMK A01,M
TMT,2024-03-07 03:55,-117.1971,39.4643,1749.34,33.60,26.60,75.23,240.00,3.00,0.00,29.83,M,10.00,M,SCT,BKN,M,M,6000.00,8000.00,M,M,M,M,M,M,M,M,M,30.52,KTMT 070355Z AUTO 24003KT 10SM SCT060 BKN080 01/M03 A2983 RMK AO2 T00091030,M
10U,2024-03-07 03:55,-116.1876,41.9532,1637.00,30.20,28.40,92.92,0.00,0.00,0.00,29.84,M,10.00,M,SCT,BKN,OVC,M,3100.00,3600.00,9000.00,M,UP,M,M,M,M,M,M,30.20,K10U 070355Z AUTO 00000KT 10SM UP SCT031 BKN036 OVC090 M01/M02 A2984 RMK AO2,M
EKO,2024-03-07 03:56,-115.7860,40.8242,1367.00,35.00,30.00,81.78,0.00,0.00,0.00,29.81,1009.80,10.00,M,BKN,M,M,M,11000.00,M,M,M,M,M,M,M,M,M,M,35.00,KEKO 070356Z AUTO 00000KT 10SM BKN110 02/M01 A2981 RMK AO2 SLP098 T00171011,M
WMC,2024-03-07 03:56,-117.8072,40.9019,1315.00,39.00,35.00,85.42,350.00,6.00,0.00,29.83,1010.10,10.00,M,SCT,OVC,M,M,3400.00,4900.00,M,M,M,M,M,M,M,M,M,33.96,KWMC 070356Z AUTO 35006KT 10SM SCT034 OVC049 04/02 A2983 RMK AO2 SLP101 T00390017,M
NFL,2024-03-07 03:56,-118.7010,39.4166,1199.00,45.00,30.00,55.43,20.00,7.00,0.00,29.81,1007.30,10.00,M,SCT,BKN,OVC,M,5000.00,10000.00,25000.00,M,M,M,M,M,M,M,M,40.63,KNFL 070356Z 02007KT 10SM SCT050 BKN100 OVC250 07/M01 A2981 RMK AO2 SLP073 T00721011,M
HND,2024-03-07 03:56,-115.1344,35.9729,742.79,58.00,25.00,27.91,190.00,9.00,0.00,29.75,1008.00,10.00,M,CLR,M,M,M,M,M,M,M,M,M,M,M,M,M,M,58.00,KHND 070356Z 19009KT 10SM CLR 14/M04 A2975 RMK AO2 SLP080 T01441039,M
TPH,2024-03-07 03:56,-117.0904,38.0505,1654.00,40.00,30.00,67.18,360.00,12.00,0.00,29.78,1008.00,10.00,M,OVC,M,M,M,8000.00,M,M,M,M,M,M,M,M,M,M,32.18,KTPH 070356Z AUTO 36012KT 10SM OVC080 04/M01 A2978 RMK AO2 SLP080 T00441011,M
LAS,2024-03-07 03:56,-115.1634,36.0719,663.00,59.00,23.00,24.76,230.00,9.00,0.00,29.72,1005.70,10.00,M,FEW,FEW,BKN,M,10000.00,15000.00,22000.00,M,M,M,M,M,M,M,M,59.00,KLAS 070356Z 23009KT 10SM FEW100 FEW150 BKN220 15/M05 A2972 RMK AO2 SLP057 T01501050 $,M
BAM,2024-03-07 04:00,-116.8743,40.5990,1382.36,41.00,35.60,80.93,40.00,8.00,0.00,29.82,M,10.00,M,SCT,BKN,M,M,9000.00,11000.00,M,M,M,M,M,M,M,M,M,35.20,KBAM 070400Z AUTO 04008KT 10SM SCT090 BKN110 05/02 A2982 RMK AO1,M
CXP,2024-03-07 04:10,-119.7326,39.1923,1431.00,41.00,28.40,60.54,350.00,5.00,0.00,29.85,M,10.00,M,CLR,M,M,M,M,M,M,M,M,M,M,M,M,M,M,37.08,KCXP 070410Z AUTO 35005KT 10SM CLR 05/M02 A2985 RMK AO2,M
BVU,2024-03-07 04:15,-114.8611,35.9475,671.00,57.20,24.80,28.48,0.00,0.00,0.00,29.72,M,10.00,M,CLR,M,M,M,M,M,M,M,M,M,M,M,M,M,M,57.20,KBVU 070415Z AUTO 00000KT 10SM CLR 14/M04 A2972 RMK AO2,M
RTS,2024-03-07 04:15,-119.8764,39.6682,1539.00,35.60,26.60,69.46,0.00,0.00,0.00,29.85,M,10.00,M,FEW,M,M,M,9000.00,M,M,M,M,M,M,M,M,M,M,35.60,KRTS 070415Z AUTO 00000KT 10SM FEW090 02/M03 A2985 RMK AO2,M
MEV,2024-03-07 04:15,-119.7500,38.9963,1441.42,39.20,28.40,64.93,30.00,9.00,0.00,29.83,M,10.00,M,FEW,BKN,OVC,M,6500.00,8000.00,10000.00,M,M,M,M,M,M,M,M,32.47,KMEV 070415Z AUTO 03009KT 10SM FEW065 BKN080 OVC100 04/M02 A2983 RMK AO2,M
HTH,2024-03-07 04:15,-118.6315,38.5448,1282.89,44.60,24.80,45.44,320.00,10.00,0.00,29.81,M,10.00,M,OVC,M,M,M,7000.00,M,M,M,M,M,M,M,M,M,M,38.77,KHTH 070415Z AUTO 32010KT 10SM OVC070 07/M04 A2981 RMK A01,M
TMT,2024-03-07 04:15,-117.1971,39.4643,1749.34,32.40,27.30,81.25,300.00,3.00,0.00,29.83,M,10.00,M,BKN,OVC,M,M,7000.00,8000.00,M,M,M,M,M,M,M,M,M,29.15,KTMT 070415Z AUTO 30003KT 10SM BKN070 OVC080 00/M03 A2983 RMK AO2 T00021026,M
10U,2024-03-07 04:15,-116.1876,41.9532,1637.00,30.20,28.40,92.92,330.00,6.00,0.00,29.84,M,5.00,M,SCT,BKN,BKN,M,3200.00,3900.00,5500.00,M,-SN,M,M,M,M,M,M,23.36,K10U 070415Z AUTO 33006KT 5SM -SN SCT032 BKN039 BKN055 M01/M02 A2984 RMK AO2,M
BAM,2024-03-07 04:20,-116.8743,40.5990,1382.36,39.20,35.60,86.79,50.00,7.00,0.00,29.83,M,10.00,M,SCT,BKN,M,M,7000.00,9000.00,M,M,M,M,M,M,M,M,M,33.56,KBAM 070420Z AUTO 05007KT 10SM SCT070 BKN090 04/02 A2983 RMK AO1,M
BVU,2024-03-07 04:35,-114.8611,35.9475,671.00,57.20,24.80,28.48,60.00,4.00,0.00,29.72,M,10.00,M,CLR,M,M,M,M,M,M,M,M,M,M,M,M,M,M,57.20,KBVU 070435Z AUTO 06004KT 10SM CLR 14/M04 A2972 RMK AO2,M
CXP,2024-03-07 04:35,-119.7326,39.1923,1431.00,39.20,28.40,64.93,330.00,8.00,0.00,29.85,M,10.00,M,BKN,M,M,M,9000.00,M,M,M,M,M,M,M,M,M,M,32.98,KCXP 070435Z AUTO 33008KT 10SM BKN090 04/M02 A2985 RMK AO2,M
RTS,2024-03-07 04:35,-119.8764,39.6682,1539.00,35.60,26.60,69.46,0.00,0.00,0.00,29.86,M,10.00,M,CLR,M,M,M,M,M,M,M,M,M,M,M,M,M,M,35.60,KRTS 070435Z AUTO 00000KT 10SM CLR 02/M03 A2986 RMK AO2,M
MEV,2024-03-07 04:35,-119.7500,38.9963,1441.42,39.20,28.40,64.93,M,4.00,0.00,29.84,M,10.00,M,BKN,BKN,OVC,M,6000.00,7000.00,8000.00,M,M,M,M,M,M,M,M,35.83,KMEV 070435Z AUTO VRB04KT 10SM BKN060 BKN070 OVC080 04/M02 A2984 RMK AO2,M
HTH,2024-03-07 04:35,-118.6315,38.5448,1282.89,44.60,26.60,48.96,320.00,9.00,0.00,29.81,M,10.00,M,OVC,M,M,M,7000.00,M,M,M,M,M,M,M,M,M,M,39.18,KHTH 070435Z AUTO 32009KT 10SM OVC070 07/M03 A2981 RMK A01,M
10U,2024-03-07 04:35,-116.1876,41.9532,1637.00,28.40,28.40,100.00,330.00,7.00,0.00,29.85,M,4.00,M,FEW,SCT,OVC,M,600.00,1600.00,3600.00,M,UP,M,M,M,M,M,M,20.39,K10U 070435Z AUTO 33007KT 4SM UP FEW006 SCT016 OVC036 M02/M02 A2985 RMK AO2,M
TMT,2024-03-07 04:35,-117.1971,39.4643,1749.34,33.00,26.80,77.70,0.00,0.00,0.00,29.83,M,10.00,M,BKN,BKN,BKN,M,6000.00,8000.00,8500.00,M,M,M,M,M,M,M,M,33.00,KTMT 070435Z AUTO 00000KT 10SM BKN060 BKN080 BKN085 01/M03 A2983 RMK AO2 T00051029,M
BAM,2024-03-07 04:40,-116.8743,40.5990,1382.36,39.20,35.60,86.79,50.00,7.00,0.00,29.83,M,10.00,M,OVC,M,M,M,7000.00,M,M,M,M,M,M,M,M,M,M,33.56,KBAM 070440Z AUTO 05007KT 10SM OVC070 04/02 A2983 RMK AO1,M
P68,2024-03-07 04:53,-116.0056,39.6014,1993.00,35.00,28.00,75.36,60.00,4.00,0.00,29.81,1007.30,M,M,M,M,M,M,M,M,M,M,M,M,M,M,M,M,M,30.92,KP68 070453Z AUTO 06004KT 02/M02 A2981 RMK AO1 SLP073 T00171022,M
DRA,2024-03-07 04:53,-116.0278,36.6206,1009.00,53.00,29.00,39.47,250.00,8.00,0.00,29.75,1005.40,10.00,M,FEW,M,M,M,12000.00,M,M,M,M,M,M,M,M,M,M,53.00,KDRA 070453Z AUTO 25008KT 10SM FEW120 12/M02 A2975 RMK AO2 SLP054 T01171017,M
ELY,2024-03-07 04:53,-114.8453,39.2950,1909.00,34.00,28.00,78.43,180.00,8.00,0.00,29.80,1007.70,10.00,M,FEW,SCT,OVC,M,5500.00,7000.00,11000.00,M,M,M,M,M,M,M,M,26.58,KELY 070453Z AUTO 18008KT 10SM FEW055 SCT070 OVC110 01/M02 A2980 RMK AO2 SLP077 T00111022,M
VGT,2024-03-07 04:53,-115.1933,36.2111,667.00,62.00,26.00,25.23,220.00,10.00,0.00,29.71,1006.90,10.00,M,CLR,M,M,M,M,M,M,M,M,M,M,M,M,M,M,62.00,KVGT 070453Z AUTO 22010KT 10SM CLR 17/M03 A2971 RMK AO2 SLP069 T01671033,M
LOL,2024-03-07 04:53,-118.5701,40.0684,1192.43,42.00,32.00,67.42,350.00,5.00,0.00,29.83,1010.10,10.00,M,SCT,BKN,M,M,5500.00,8500.00,M,M,M,M,M,M,M,M,M,38.27,KLOL 070453Z AUTO 35005KT 10SM SCT055 BKN085 06/00 A2983 RMK AO2 SLP101 T00560000,M
BVU,2024-03-07 04:55,-114.8611,35.9475,671.00,57.20,26.60,30.69,0.00,0.00,0.00,29.73,M,10.00,M,CLR,M,M,M,M,M,M,M,M,M,M,M,M,M,M,57.20,KBVU 070455Z AUTO 00000KT 10SM CLR 14/M03 A2973 RMK AO2,M
CXP,2024-03-07 04:55,-119.7326,39.1923,1431.00,39.20,28.40,64.93,320.00,7.00,0.00,29.86,M,10.00,M,BKN,OVC,M,M,7500.00,9000.00,M,M,M,M,M,M,M,M,M,33.56,KCXP 070455Z AUTO 32007KT 10SM BKN075 OVC090 04/M02 A2986 RMK AO2,M
INS,2024-03-07 04:55,-115.6733,36.5872,955.00,55.40,20.00,24.83,20.00,5.00,0.00,29.74,M,10.00,M,BKN,M,M,M,14000.00,M,M,M,M,M,M,M,M,M,M,55.40,KINS 070455Z AUTO 02005KT 10SM BKN140 13/M07 A2974 RMK AO2 SLPNO T01301066 $,M
RNO,2024-03-07 04:55,-119.7711,39.4839,1341.00,41.00,28.00,59.55,0.00,0.00,0.00,29.85,1010.00,10.00,M,BKN,M,M,M,9500.00,M,M,M,M,M,M,M,M,M,M,41.00,KRNO 070455Z 00000KT 10SM BKN095 05/M02 A2985 RMK AO2 SLP100 T00501022,M
LSV,2024-03-07 04:55,-115.0343,36.2362,570.00,62.00,21.60,20.98,180.00,4.00,0.00,29.69,M,10.00,M,CLR,M,M,M,M,M,M,M,M,M,M,M,M,M,M,62.00,KLSV 070455Z AUTO 18004KT 10SM CLR 17/M06 A2969 RMK AO2 SLPNO T01661058 $,M
RTS,2024-03-07 04:55,-119.8764,39.6682,1539.00,33.80,26.60,74.63,0.00,0.00,0.00,29.86,M,10.00,M,CLR,M,M,M,M,M,M,M,M,M,M,M,M,M,M,33.80,KRTS 070455Z AUTO 00000KT 10SM CLR 01/M03 A2986 RMK AO2,M
MEV,2024-03-07 04:55,-119.7500,38.9963,1441.42,39.20,28.40,64.93,0.00,0.00,0.00,29.85,M,10.00,M,SCT,BKN,OVC,M,6000.00,7500.00,8500.00,M,M,M,M,M,M,M,M,39.20,KMEV 070455Z AUTO 00000KT 10SM SCT060 BKN075 OVC085 04/M02 A2985 RMK AO2,M
HTH,2024-03-07 04:55,-118.6315,38.5448,1282.89,44.60,28.40,52.72,320.00,9.00,0.00,29.82,M,10.00,M,OVC,M,M,M,7000.00,M,M,M,M,M,M,M,M,M,M,39.18,KHTH 070455Z AUTO 32009KT 10SM OVC070 07/M02 A2982 RMK A01,M
TMT,2024-03-07 04:55,-117.1971,39.4643,1749.34,32.50,26.60,78.62,0.00,0.00,0.00,29.83,M,10.00,M,OVC,M,M,M,6500.00,M,M,M,M,M,M,M,M,M,M,32.50,KTMT 070455Z AUTO 00000KT 10SM OVC065 00/M03 A2983 RMK AO2 T00031030,M
10U,2024-03-07 04:55,-116.1876,41.9532,1637.00,28.40,28.40,100.00,330.00,7.00,0.00,29.85,M,2.00,M,SCT,BKN,OVC,M,300.00,1100.00,3400.00,M,-SN,M,M,M,M,M,M,20.39,K10U 070455Z AUTO 33007KT 2SM -SN SCT003 BKN011 OVC034 M02/M02 A2985 RMK AO2,M
EKO,2024-03-07 04:56,-115.7860,40.8242,1367.00,34.00,31.00,88.63,0.00,0.00,0.00,29.81,1009.90,10.00,M,OVC,M,M,M,9000.00,M,M,M,M,M,M,M,M,M,M,34.00,KEKO 070456Z AUTO 00000KT 10SM OVC090 01/M01 A2981 RMK AO2 SLP099 T00111006,M
WMC,2024-03-07 04:56,-117.8072,40.9019,1315.00,39.00,34.00,82.08,330.00,7.00,T,29.84,1010.20,10.00,M,SCT,OVC,M,M,2800.00,3700.00,M,M,-RA,M,M,M,M,M,M,33.31,KWMC 070456Z AUTO 33007KT 10SM -RA SCT028 OVC037 04/01 A2984 RMK AO2 RAB52 SLP102 P0000 T00390011,M
NFL,2024-03-07 04:56,-118.7010,39.4166,1199.00,43.00,32.00,64.88,20.00,6.00,0.00,29.82,1007.60,10.00,M,SCT,BKN,OVC,M,5000.00,10000.00,25000.00,M,M,M,M,M,M,M,M,38.78,KNFL 070456Z 02006KT 10SM SCT050 BKN100 OVC250 06/00 A2982 RMK AO2 SLP076 T00610000,M
HND,2024-03-07 04:56,-115.1344,35.9729,742.79,58.00,25.00,27.91,210.00,10.00,0.00,29.75,1008.10,10.00,M,CLR,M,M,M,M,M,M,M,M,M,M,M,M,M,M,58.00,KHND 070456Z AUTO 21010KT 10SM CLR 14/M04 A2975 RMK AO2 SLP081 T01441039,M
TPH,2024-03-07 04:56,-117.0904,38.0505,1654.00,38.00,31.00,75.65,360.00,11.00,0.00,29.80,1008.50,10.00,M,SCT,M,M,M,6000.00,M,M,M,M,M,M,M,M,M,M,30.05,KTPH 070456Z AUTO 36011KT 10SM SCT060 03/M01 A2980 RMK AO2 SLP085 T00331006,M
LAS,2024-03-07 04:56,-115.1634,36.0719,663.00,59.00,24.00,25.82,220.00,6.00,0.00,29.73,1005.60,10.00,M,FEW,FEW,BKN,M,10000.00,15000.00,22000.00,M,M,M,M,M,M,M,M,59.00,KLAS 070456Z 22006KT 10SM FEW100 FEW150 BKN220 15/M04 A2973 RMK AO2 SLP056 T01501044 $,M
BAM,2024-03-07 05:00,-116.8743,40.5990,1382.36,39.20,35.60,86.79,60.00,5.00,0.00,29.83,M,10.00,M,OVC,M,M,M,7500.00,M,M,M,M,M,M,M,M,M,M,34.95,KBAM 070500Z AUTO 06005KT 10SM OVC075 04/02 A2983 RMK AO1,M
BVU,2024-03-07 05:15,-114.8611,35.9475,671.00,57.20,24.80,28.48,0.00,0.00,0.00,29.73,M,10.00,M,CLR,M,M,M,M,M,M,M,M,M,M,M,M,M,M,57.20,KBVU 070515Z AUTO 00000KT 10SM CLR 14/M04 A2973 RMK AO2,M
CXP,2024-03-07 05:15,-119.7326,39.1923,1431.00,37.40,28.40,69.67,0.00,0.00,0.00,29.86,M,10.00,M,OVC,M,M,M,7500.00,M,M,M,M,M,M,M,M,M,M,37.40,KCXP 070515Z AUTO 00000KT 10SM OVC075 03/M02 A2986 RMK AO2,M
RTS,2024-03-07 05:15,-119.8764,39.6682,1539.00,33.80,26.60,74.63,0.00,0.00,0.00,29.86,M,10.00,M,CLR,M,M,M,M,M,M,M,M,M,M,M,M,M,M,33.80,KRTS 070515Z AUTO 00000KT 10SM CLR 01/M03 A2986 RMK AO2,M
MEV,2024-03-07 05:15,-119.7500,38.9963,1441.42,37.40,28.40,69.67,0.00,0.00,0.00,29.85,M,10.00,M,BKN,OVC,M,M,7500.00,9000.00,M,M,M,M,M,M,M,M,M,37.40,KMEV 070515Z AUTO 00000KT 10SM BKN075 OVC090 03/M02 A2985 RMK AO2,M
HTH,2024-03-07 05:15,-118.6315,38.5448,1282.89,42.80,28.40,56.48,320.00,9.00,0.00,29.83,M,10.00,M,BKN,OVC,M,M,6500.00,7500.00,M,M,M,M,M,M,M,M,M,36.94,KHTH 070515Z AUTO 32009KT 10SM BKN065 OVC075 06/M02 A2983 RMK A01,M
TMT,2024-03-07 05:15,-117.1971,39.4643,1749.34,32.00,27.30,82.57,0.00,0.00,0.00,29.83,M,10.00,M,BKN,OVC,M,M,6500.00,7000.00,M,M,M,M,M,M,M,M,M,32.00,KTMT 070515Z AUTO 00000KT 10SM BKN065 OVC070 00/M03 A2983 RMK AO2 T00001026,M
10U,2024-03-07 05:15,-116.1876,41.9532,1637.00,28.40,28.40,100.00,350.00,5.00,0.00,29.85,M,8.00,M,SCT,BKN,OVC,M,300.00,1000.00,4100.00,M,UP,M,M,M,M,M,M,22.12,K10U 070515Z AUTO 35005KT 8SM UP SCT003 BKN010 OVC041 M02/M02 A2985 RMK AO2,M
BAM,2024-03-07 05:20,-116.8743,40.5990,1382.36,37.40,35.60,93.14,0.00,0.00,0.00,29.84,M,10.00,M,SCT,BKN,M,M,6000.00,7500.00,M,M,M,M,M,M,M,M,M,37.40,KBAM 070520Z AUTO 00000KT 10SM SCT060 BKN075 03/02 A2984 RMK AO1,M
WMC,2024-03-07 05:24,-117.8072,40.9019,1315.00,38.00,34.00,85.35,330.00,9.00,T,29.84,M,10.00,M,BKN,OVC,M,M,2800.00,3500.00,M,M,M,M,M,M,M,M,M,30.97,KWMC 070524Z AUTO 33009KT 10SM BKN028 OVC035 03/01 A2984 RMK AO2 RAE12 P0000 T00330011,M
BVU,2024-03-07 05:35,-114.8611,35.9475,671.00,55.40,30.20,37.97,0.00,0.00,0.00,29.73,M,10.00,M,CLR,M,M,M,M,M,M,M,M,M,M,M,M,M,M,55.40,KBVU 070535Z AUTO 00000KT 10SM CLR 13/M01 A2973 RMK AO2,M
CXP,2024-03-07 05:35,-119.7326,39.1923,1431.00,37.40,28.40,69.67,0.00,0.00,0.00,29.87,M,10.00,M,OVC,M,M,M,7500.00,M,M,M,M,M,M,M,M,M,M,37.40,KCXP 070535Z AUTO 00000KT 10SM OVC075 03/M02 A2987 RMK AO2,M
RTS,2024-03-07 05:35,-119.8764,39.6682,1539.00,33.80,26.60,74.63,0.00,0.00,0.00,29.87,M,10.00,M,FEW,FEW,M,M,8000.00,10000.00,M,M,M,M,M,M,M,M,M,33.80,KRTS 070535Z AUTO 00000KT 10SM FEW080 FEW100 01/M03 A2987 RMK AO2,M
MEV,2024-03-07 05:35,-119.7500,38.9963,1441.42,33.80,28.40,80.36,120.00,4.00,0.00,29.85,M,10.00,M,BKN,OVC,M,M,7000.00,8000.00,M,M,M,M,M,M,M,M,M,29.52,KMEV 070535Z AUTO 12004KT 10SM BKN070 OVC080 01/M02 A2985 RMK AO2,M
HTH,2024-03-07 05:35,-118.6315,38.5448,1282.89,42.80,30.20,60.79,320.00,8.00,0.00,29.84,M,10.00,M,FEW,SCT,M,M,7000.00,8000.00,M,M,M,M,M,M,M,M,M,37.42,KHTH 070535Z AUTO 32008KT 10SM FEW070 SCT080 06/M01 A2984 RMK A01,M
10U,2024-03-07 05:35,-116.1876,41.9532,1637.00,28.40,26.60,92.86,350.00,6.00,0.00,29.86,M,10.00,M,BKN,OVC,M,M,300.00,4000.00,M,M,UP,M,M,M,M,M,M,21.19,K10U 070535Z AUTO 35006KT 10SM UP BKN003 OVC040 M02/M03 A2986 RMK AO2,M
TMT,2024-03-07 05:35,-117.1971,39.4643,1749.34,31.50,27.30,84.25,0.00,0.00,0.00,29.84,M,10.00,M,BKN,OVC,M,M,6500.00,7000.00,M,M,M,M,M,M,M,M,M,31.50,KTMT 070535Z AUTO 00000KT 10SM BKN065 OVC070 00/M03 A2984 RMK AO2 T10031026,M
BAM,2024-03-07 05:40,-116.8743,40.5990,1382.36,37.40,33.80,86.69,30.00,3.00,0.00,29.84,M,10.00,M,BKN,BKN,M,M,6000.00,7500.00,M,M,M,M,M,M,M,M,M,34.86,KBAM 070540Z AUTO 03003KT 10SM BKN060 BKN075 03/01 A2984 RMK AO1,M
P68,2024-03-07 05:53,-116.0056,39.6014,1993.00,36.00,29.00,75.46,80.00,3.00,0.00,29.82,1007.40,M,M,M,M,M,M,M,M,M,M,M,M,M,M,M,M,M,33.26,KP68 070553Z AUTO 08003KT 02/M02 A2982 RMK AO1 SLP074 T00221017 10072 20017 53007,M
DRA,2024-03-07 05:53,-116.0278,36.6206,1009.00,52.00,28.00,39.30,240.00,13.00,0.00,29.76,1005.50,10.00,M,FEW,M,M,M,12000.00,M,M,M,M,M,M,M,M,M,M,52.00,KDRA 070553Z AUTO 24013KT 10SM FEW120 11/M02 A2976 RMK AO2 SLP055 T01111022 10156 20111 53006,M
ELY,2024-03-07 05:53,-114.8453,39.2950,1909.00,34.00,28.00,78.43,210.00,8.00,0.00,29.81,1007.00,10.00,M,SCT,OVC,M,M,5500.00,7000.00,M,M,M,M,M,M,M,M,M,26.58,KELY 070553Z AUTO 21008KT 10SM SCT055 OVC070 01/M02 A2981 RMK AO2 SLP070 60000 T00111022 10061 21006 53004,M
VGT,2024-03-07 05:53,-115.1933,36.2111,667.00,61.00,26.00,26.14,200.00,6.00,0.00,29.71,1006.90,10.00,M,CLR,M,M,M,M,M,M,M,M,M,M,M,M,M,M,61.00,KVGT 070553Z AUTO 20006KT 10SM CLR 16/M03 A2971 RMK AO2 SLP069 T01611033 10200 20161 51003,M
LOL,2024-03-07 05:53,-118.5701,40.0684,1192.43,42.00,32.00,67.42,360.00,9.00,T,29.85,1010.50,10.00,M,OVC,M,M,M,6000.00,M,M,M,-RA,M,M,M,M,M,M,35.95,KLOL 070553Z AUTO 36009KT 330V050 10SM -RA OVC060 06/00 A2985 RMK AO2 RAB53 SLP105 P0000 60000 T00560000 10100 20044 53010,M
BVU,2024-03-07 05:55,-114.8611,35.9475,671.00,55.40,30.20,37.97,0.00,0.00,0.00,29.73,M,10.00,M,CLR,M,M,M,M,M,M,M,M,M,M,M,M,M,M,55.40,KBVU 070555Z AUTO 00000KT 10SM CLR 13/M01 A2973 RMK AO2,M
CXP,2024-03-07 05:55,-119.7326,39.1923,1431.00,35.60,28.40,74.80,330.00,5.00,0.00,29.87,M,10.00,M,OVC,M,M,M,7500.00,M,M,M,M,M,M,M,M,M,M,30.67,KCXP 070555Z AUTO 33005KT 10SM OVC075 02/M02 A2987 RMK AO2,M
INS,2024-03-07 05:55,-115.6733,36.5872,955.00,55.60,22.00,26.84,360.00,5.00,0.00,29.74,M,10.00,M,OVC,M,M,M,13000.00,M,M,M,M,M,M,M,M,M,M,55.60,KINS 070555Z AUTO 36005KT 10SM OVC130 13/M05 A2974 RMK AO2 SLPNO T01311055 10156 20127 52006 $,M
RNO,2024-03-07 05:55,-119.7711,39.4839,1341.00,39.00,28.00,64.37,0.00,0.00,0.00,29.86,1010.10,10.00,M,SCT,BKN,M,M,9000.00,20000.00,M,M,M,M,M,M,M,M,M,39.00,KRNO 070555Z 00000KT 10SM SCT090 BKN200 04/M02 A2986 RMK AO2 SLP101 T00391022 10089 20039 52009,M
LSV,2024-03-07 05:55,-115.0343,36.2362,570.00,61.50,22.30,22.00,180.00,8.00,0.00,29.69,M,10.00,M,CLR,M,M,M,M,M,M,M,M,M,M,M,M,M,M,61.50,KLSV 070555Z AUTO 18008KT 10SM CLR 16/M05 A2969 RMK AO2 SLPNO T01641054 10184 20161 $,M
RTS,2024-03-07 05:55,-119.8764,39.6682,1539.00,33.80,26.60,74.63,310.00,5.00,0.00,29.87,M,10.00,M,BKN,BKN,M,M,7500.00,9500.00,M,M,M,M,M,M,M,M,M,28.53,KRTS 070555Z AUTO 31005KT 10SM BKN075 BKN095 01/M03 A2987 RMK AO2,M
MEV,2024-03-07 05:55,-119.7500,38.9963,1441.42,33.80,28.40,80.36,0.00,0.00,0.00,29.86,M,10.00,M,OVC,M,M,M,7000.00,M,M,M,M,M,M,M,M,M,M,33.80,KMEV 070555Z AUTO 00000KT 10SM OVC070 01/M02 A2986 RMK AO2,M
HTH,2024-03-07 05:55,-118.6315,38.5448,1282.89,42.80,28.40,56.48,320.00,10.00,0.00,29.84,M,10.00,M,CLR,M,M,M,M,M,M,M,M,M,M,M,M,M,M,36.51,KHTH 070555Z AUTO 32010KT 10SM CLR 06/M02 A2984 RMK A01,M
10U,2024-03-07 05:55,-116.1876,41.9532,1637.00,28.40,26.60,92.86,330.00,9.00,0.00,29.86,M,10.00,M,OVC,M,M,M,400.00,M,M,M,UP,M,M,M,M,M,M,19.04,K10U 070555Z AUTO 33009KT 10SM UP OVC004 M02/M03 A2986 RMK AO2,M
TMT,2024-03-07 05:55,-117.1971,39.4643,1749.34,30.60,27.00,86.31,150.00,3.00,0.00,29.84,M,10.00,M,BKN,OVC,M,M,5000.00,6500.00,M,M,M,M,M,M,M,M,M,27.09,KTMT 070555Z AUTO 15003KT 10SM BKN050 OVC065 M01/M03 A2984 RMK AO2 T10081027 10066 21008,M
EKO,2024-03-07 05:56,-115.7860,40.8242,1367.00,33.00,30.00,88.58,0.00,0.00,0.00,29.82,1010.10,10.00,M,OVC,M,M,M,8500.00,M,M,M,M,M,M,M,M,M,M,33.00,KEKO 070556Z AUTO 00000KT 10SM OVC085 01/M01 A2982 RMK AO2 SLP101 T00061011 10061 20006 53003,M
WMC,2024-03-07 05:56,-117.8072,40.9019,1315.00,37.00,33.00,85.29,320.00,9.00,T,29.84,1010.40,10.00,M,OVC,M,M,M,2400.00,M,M,M,-RA,M,M,M,M,M,M,29.73,KWMC 070556Z AUTO 32009KT 10SM -RA OVC024 03/01 A2984 RMK AO2 RAE12B51 SLP104 P0000 60000 T00280006 10089 20028 51006,M
NFL,2024-03-07 05:56,-118.7010,39.4166,1199.00,40.00,33.00,75.84,10.00,5.00,0.00,29.83,1007.90,10.00,M,SCT,BKN,BKN,M,5000.00,10000.00,25000.00,M,M,M,M,M,M,M,M,35.90,KNFL 070556Z 01005KT 10SM SCT050 BKN100 BKN250 04/01 A2983 RMK AO2 SLP079 T00440006 10122 20044 51011,M
HND,2024-03-07 05:56,-115.1344,35.9729,742.79,58.00,25.00,27.91,210.00,5.00,0.00,29.75,1008.10,10.00,M,FEW,M,M,M,12000.00,M,M,M,M,M,M,M,M,M,M,58.00,KHND 070556Z AUTO 21005KT 10SM FEW120 14/M04 A2975 RMK AO2 SLP081 T01441039 10183 20139 53002,M
TPH,2024-03-07 05:56,-117.0904,38.0505,1654.00,37.00,31.00,78.69,350.00,10.00,0.00,29.81,1008.60,10.00,M,FEW,M,M,M,5500.00,M,M,M,M,M,M,M,M,M,M,29.24,KTPH 070556Z AUTO 35010KT 10SM FEW055 03/M01 A2981 RMK AO2 SLP086 T00281006 10100 20028 53012,M
LAS,2024-03-07 05:56,-115.1634,36.0719,663.00,58.00,25.00,27.91,230.00,7.00,0.00,29.72,1005.50,10.00,M,FEW,FEW,BKN,M,10000.00,15000.00,20000.00,M,M,M,M,M,M,M,M,58.00,KLAS 070556Z 23007KT 10SM FEW100 FEW150 BKN200 14/M04 A2972 RMK AO2 SLP055 T01441039 10183 20144 50002 $,M
BAM,2024-03-07 06:00,-116.8743,40.5990,1382.36,37.40,33.80,86.69,10.00,3.00,0.00,29.84,M,10.00,M,SCT,M,M,M,6000.00,M,M,M,M,M,M,M,M,M,M,34.86,KBAM 070600Z AUTO 01003KT 10SM SCT060 03/01 A2984 RMK AO1,M
BVU,2024-03-07 06:15,-114.8611,35.9475,671.00,55.40,30.20,37.97,0.00,0.00,0.00,29.73,M,10.00,M,FEW,M,M,M,12000.00,M,M,M,M,M,M,M,M,M,M,55.40,KBVU 070615Z AUTO 00000KT 10SM FEW120 13/M01 A2973 RMK AO2,M
CXP,2024-03-07 06:15,-119.7326,39.1923,1431.00,37.40,28.40,69.67,350.00,5.00,0.00,29.87,M,10.00,M,BKN,OVC,M,M,6500.00,8000.00,M,M,M,M,M,M,M,M,M,32.81,KCXP 070615Z AUTO 35005KT 10SM BKN065 OVC080 03/M02 A2987 RMK AO2,M
RTS,2024-03-07 06:15,-119.8764,39.6682,1539.00,30.20,26.60,86.28,350.00,4.00,0.00,29.87,M,10.00,M,SCT,BKN,OVC,M,6500.00,7500.00,9000.00,M,M,M,M,M,M,M,M,25.32,KRTS 070615Z AUTO 35004KT 10SM SCT065 BKN075 OVC090 M01/M03 A2987 RMK AO2,M
MEV,2024-03-07 06:15,-119.7500,38.9963,1441.42,32.00,28.40,86.39,190.00,3.00,0.00,29.86,M,10.00,M,OVC,M,M,M,7000.00,M,M,M,M,M,M,M,M,M,M,28.69,KMEV 070615Z AUTO 19003KT 10SM OVC070 00/M02 A2986 RMK AO2,M
HTH,2024-03-07 06:15,-118.6315,38.5448,1282.89,42.80,28.40,56.48,330.00,9.00,0.00,29.84,M,10.00,M,FEW,M,M,M,12000.00,M,M,M,M,M,M,M,M,M,M,36.94,KHTH 070615Z AUTO 33009KT 10SM FEW120 06/M02 A2984 RMK A01,M
10U,2024-03-07 06:15,-116.1876,41.9532,1637.00,28.40,26.60,92.86,340.00,6.00,0.00,29.86,M,7.00,M,SCT,BKN,OVC,M,500.00,1400.00,2400.00,M,UP,M,M,M,M,M,M,21.19,K10U 070615Z AUTO 34006KT 7SM UP SCT005 BKN014 OVC024 M02/M03 A2986 RMK AO2,M
TMT,2024-03-07 06:15,-117.1971,39.4643,1749.34,30.00,26.40,86.27,140.00,3.00,0.00,29.84,M,10.00,M,SCT,M,M,M,5000.00,M,M,M,M,M,M,M,M,M,M,26.40,KTMT 070615Z AUTO 14003KT 10SM SCT050 M01/M03 A2984 RMK AO2 T10111031,M
BAM,2024-03-07 06:20,-116.8743,40.5990,1382.36,37.40,33.80,86.69,0.00,0.00,0.00,29.84,M,10.00,M,BKN,M,M,M,6000.00,M,M,M,M,M,M,M,M,M,M,37.40,KBAM 070620Z AUTO 00000KT 10SM BKN060 03/01 A2984 RMK AO1,M
BVU,2024-03-07 06:35,-114.8611,35.9475,671.00,55.40,30.20,37.97,0.00,0.00,0.00,29.72,M,10.00,M,SCT,M,M,M,12000.00,M,M,M,M,M,M,M,M,M,M,55.40,KBVU 070635Z AUTO 00000KT 10SM SCT120 13/M01 A2972 RMK AO2,M
CXP,2024-03-07 06:35,-119.7326,39.1923,1431.00,35.60,28.40,74.80,M,3.00,0.00,29.87,M,10.00,M,OVC,M,M,M,6500.00,M,M,M,M,M,M,M,M,M,M,32.80,KCXP 070635Z AUTO VRB03KT 10SM OVC065 02/M02 A2987 RMK AO2,M
RTS,2024-03-07 06:35,-119.8764,39.6682,1539.00,33.80,26.60,74.63,0.00,0.00,0.00,29.87,M,10.00,M,FEW,OVC,M,M,6500.00,9000.00,M,M,M,M,M,M,M,M,M,33.80,KRTS 070635Z AUTO 00000KT 10SM FEW065 OVC090 01/M03 A2987 RMK AO2,M
MEV,2024-03-07 06:35,-119.7500,38.9963,1441.42,33.80,28.40,80.36,90.00,3.00,0.00,29.86,M,10.00,M,OVC,M,M,M,7000.00,M,M,M,M,M,M,M,M,M,M,30.75,KMEV 070635Z AUTO 09003KT 10SM OVC070 01/M02 A2986 RMK AO2,M
HTH,2024-03-07 06:35,-118.6315,38.5448,1282.89,41.00,26.60,56.22,320.00,7.00,0.00,29.85,M,10.00,M,FEW,M,M,M,9000.00,M,M,M,M,M,M,M,M,M,M,35.75,KHTH 070635Z AUTO 32007KT 10SM FEW090 05/M03 A2985 RMK A01,M
10U,2024-03-07 06:35,-116.1876,41.9532,1637.00,28.40,26.60,92.86,340.00,7.00,0.00,29.86,M,10.00,M,SCT,BKN,OVC,M,1600.00,4600.00,6500.00,M,-UP,M,M,M,M,M,M,20.39,K10U 070635Z AUTO 34007KT 10SM -UP SCT016 BKN046 OVC065 M02/M03 A2986 RMK AO2,M
TMT,2024-03-07 06:35,-117.1971,39.4643,1749.34,30.00,26.20,85.56,0.00,0.00,0.00,29.84,M,10.00,M,CLR,M,M,M,M,M,M,M,M,M,M,M,M,M,M,30.00,KTMT 070635Z AUTO 00000KT 10SM CLR M01/M03 A2984 RMK AO2 T10121032,M
BAM,2024-03-07 06:40,-116.8743,40.5990,1382.36,37.40,33.80,86.69,0.00,0.00,0.00,29.84,M,10.00,M,SCT,OVC,M,M,6000.00,6500.00,M,M,M,M,M,M,M,M,M,37.40,KBAM 070640Z AUTO 00000KT 10SM SCT060 OVC065 03/01 A2984 RMK AO1,M
WMC,2024-03-07 06:49,-117.8072,40.9019,1315.00,35.00,32.00,88.68,320.00,8.00,T,29.86,M,9.00,M,BKN,OVC,M,M,1000.00,1600.00,M,M,-RA,M,M,M,M,M,M,27.81,KWMC 070649Z AUTO 32008KT 9SM -RA BKN010 OVC016 02/00 A2986 RMK AO2 RAE02B23 CIG 008V013 P0000 T00170000,M
P68,2024-03-07 06:53,-116.0056,39.6014,1993.00,34.00,30.00,85.11,0.00,0.00,0.00,29.82,1007.60,M,M,M,M,M,M,M,M,M,M,M,M,M,M,M,M,M,34.00,KP68 070653Z AUTO 00000KT 01/M01 A2982 RMK AO1 SLP076 T00111011,M
DRA,2024-03-07 06:53,-116.0278,36.6206,1009.00,51.00,33.00,49.96,250.00,8.00,0.00,29.76,1005.40,10.00,M,CLR,M,M,M,M,M,M,M,M,M,M,M,M,M,M,51.00,KDRA 070653Z AUTO 25008KT 10SM CLR 11/01 A2976 RMK AO2 SLP054 T01060006,M
ELY,2024-03-07 06:53,-114.8453,39.2950,1909.00,33.00,28.00,81.63,120.00,3.00,0.00,29.81,1006.70,10.00,M,SCT,OVC,M,M,4500.00,6500.00,M,M,M,M,M,M,M,M,M,29.83,KELY 070653Z AUTO 12003KT 10SM SCT045 OVC065 01/M02 A2981 RMK AO2 SLP067 T00061022,M
VGT,2024-03-07 06:53,-115.1933,36.2111,667.00,61.00,27.00,27.24,260.00,5.00,0.00,29.71,1006.70,10.00,M,SCT,M,M,M,11000.00,M,M,M,M,M,M,M,M,M,M,61.00,KVGT 070653Z AUTO 26005KT 10SM SCT110 16/M03 A2971 RMK AO2 SLP067 T01611028,M
LOL,2024-03-07 06:53,-118.5701,40.0684,1192.43,41.00,34.00,75.94,50.00,8.00,T,29.85,1010.60,7.00,M,SCT,BKN,OVC,M,3100.00,4100.00,6500.00,M,-RA,M,M,M,M,M,M,35.20,KLOL 070653Z AUTO 05008KT 7SM -RA SCT031 BKN041 OVC065 05/01 A2985 RMK AO2 RAE07B49 SLP106 P0000 T00500011,M
BVU,2024-03-07 06:55,-114.8611,35.9475,671.00,55.40,30.20,37.97,340.00,3.00,0.00,29.72,M,10.00,M,FEW,M,M,M,12000.00,M,M,M,M,M,M,M,M,M,M,55.40,KBVU 070655Z AUTO 34003KT 10SM FEW120 13/M01 A2972 RMK AO2,M
CXP,2024-03-07 06:55,-119.7326,39.1923,1431.00,35.60,28.40,74.80,70.00,4.00,0.00,29.87,M,10.00,M,OVC,M,M,M,6500.00,M,M,M,M,M,M,M,M,M,M,31.62,KCXP 070655Z AUTO 07004KT 10SM OVC065 02/M02 A2987 RMK AO2,M
INS,2024-03-07 06:55,-115.6733,36.5872,955.00,53.80,26.00,33.88,290.00,8.00,0.00,29.74,M,10.00,M,OVC,M,M,M,12000.00,M,M,M,M,M,M,M,M,M,M,53.80,KINS 070655Z AUTO 29008KT 10SM OVC120 12/M03 A2974 RMK AO2 SLPNO T01211033 $,M
RNO,2024-03-07 06:55,-119.7711,39.4839,1341.00,37.00,28.00,69.63,170.00,4.00,0.00,29.86,1010.20,10.00,M,BKN,M,M,M,9500.00,M,M,M,M,M,M,M,M,M,M,33.26,KRNO 070655Z 17004KT 10SM BKN095 03/M02 A2986 RMK AO2 SLP102 T00281022,M
LSV,2024-03-07 06:55,-115.0343,36.2362,570.00,60.30,24.30,24.97,190.00,7.00,0.00,29.68,M,10.00,M,CLR,M,M,M,M,M,M,M,M,M,M,M,M,M,M,60.30,KLSV 070655Z AUTO 19007KT 10SM CLR 16/M04 A2968 RMK AO2 SLPNO T01571043 $,M
RTS,2024-03-07 06:55,-119.8764,39.6682,1539.00,32.00,26.60,80.22,10.00,3.00,0.00,29.87,M,10.00,M,SCT,M,M,M,9000.00,M,M,M,M,M,M,M,M,M,M,28.69,KRTS 070655Z AUTO 01003KT 10SM SCT090 M00/M03 A2987 RMK AO2,M
MEV,2024-03-07 06:55,-119.7500,38.9963,1441.42,30.20,26.60,86.28,140.00,4.00,0.00,29.86,M,10.00,M,OVC,M,M,M,7000.00,M,M,M,M,M,M,M,M,M,M,25.32,KMEV 070655Z AUTO 14004KT 10SM OVC070 M01/M03 A2986 RMK AO2,M
HTH,2024-03-07 06:55,-118.6315,38.5448,1282.89,41.00,26.60,56.22,330.00,7.00,0.00,29.85,M,10.00,M,BKN,M,M,M,8500.00,M,M,M,M,M,M,M,M,M,M,35.75,KHTH 070655Z AUTO 33007KT 10SM BKN085 05/M03 A2985 RMK A01,M
TMT,2024-03-07 06:55,-117.1971,39.4643,1749.34,30.70,25.70,81.45,250.00,3.00,0.00,29.84,M,10.00,M,SCT,M,M,M,7500.00,M,M,M,M,M,M,M,M,M,M,27.20,KTMT 070655Z AUTO 25003KT 10SM SCT075 M01/M03 A2984 RMK AO2 T10071035,M
10U,2024-03-07 06:55,-116.1876,41.9532,1637.00,26.60,26.60,100.00,330.00,9.00,0.00,29.86,M,9.00,M,BKN,BKN,OVC,M,1300.00,3200.00,6500.00,M,UP,M,M,M,M,M,M,16.80,K10U 070655Z AUTO 33009KT 9SM UP BKN013 BKN032 OVC065 M03/M03 A2986 RMK AO2,M
EKO,2024-03-07 06:56,-115.7860,40.8242,1367.00,31.00,30.00,96.02,0.00,0.00,0.00,29.82,1010.10,10.00,M,SCT,BKN,M,M,8000.00,9000.00,M,M,M,M,M,M,M,M,M,31.00,KEKO 070656Z AUTO 00000KT 10SM SCT080 BKN090 M01/M01 A2982 RMK AO2 SLP101 T10061011,M
WMC,2024-03-07 06:56,-117.8072,40.9019,1315.00,35.00,32.00,88.68,320.00,7.00,0.01,29.86,1010.90,8.00,M,BKN,OVC,M,M,1000.00,1600.00,M,M,-RA,M,M,M,M,M,M,28.44,KWMC 070656Z AUTO 32007KT 8SM -RA BKN010 OVC016 02/00 A2986 RMK AO2 RAE02B23 CIG 008V013 SLP109 P0001 T00170000,M
NFL,2024-03-07 06:56,-118.7010,39.4166,1199.00,38.00,31.00,75.65,340.00,7.00,0.00,29.84,1008.10,10.00,M,FEW,SCT,SCT,M,5000.00,10000.00,25000.00,M,M,M,M,M,M,M,M,32.09,KNFL 070656Z 34007KT 10SM FEW050 SCT100 SCT250 03/M01 A2984 RMK AO2 SLP081 T00331006,M
HND,2024-03-07 06:56,-115.1344,35.9729,742.79,58.00,26.00,29.09,230.00,5.00,0.00,29.75,1007.80,10.00,M,BKN,M,M,M,11000.00,M,M,M,M,M,M,M,M,M,M,58.00,KHND 070656Z AUTO 23005KT 10SM BKN110 14/M03 A2975 RMK AO2 SLP078 T01441033 402000089,M
TPH,2024-03-07 06:56,-117.0904,38.0505,1654.00,35.00,31.00,85.17,360.00,9.00,0.00,29.81,1008.40,10.00,M,FEW,M,M,M,6500.00,M,M,M,M,M,M,M,M,M,M,27.24,KTPH 070656Z AUTO 36009KT 10SM FEW065 02/M01 A2981 RMK AO2 SLP084 T00171006,M
LAS,2024-03-07 06:56,-115.1634,36.0719,663.00,58.00,28.00,31.59,250.00,11.00,0.00,29.73,1005.40,10.00,M,BKN,BKN,OVC,M,11000.00,15000.00,20000.00,M,M,M,M,M,M,M,M,58.00,KLAS 070656Z 25011KT 10SM BKN110 BKN150 OVC200 14/M02 A2973 RMK AO2 SLP054 T01441022 $,M
BAM,2024-03-07 07:00,-116.8743,40.5990,1382.36,37.40,33.80,86.69,140.00,3.00,0.00,29.84,M,10.00,M,SCT,SCT,OVC,M,4600.00,5500.00,7500.00,M,M,M,M,M,M,M,M,34.86,KBAM 070700Z AUTO 14003KT 10SM SCT046 SCT055 OVC075 03/01 A2984 RMK AO1,M
BVU,2024-03-07 07:15,-114.8611,35.9475,671.00,55.40,28.40,35.28,0.00,0.00,0.00,29.72,M,10.00,M,CLR,M,M,M,M,M,M,M,M,M,M,M,M,M,M,55.40,KBVU 070715Z AUTO 00000KT 10SM CLR 13/M02 A2972 RMK AO2,M
CXP,2024-03-07 07:15,-119.7326,39.1923,1431.00,35.60,28.40,74.80,70.00,5.00,0.00,29.87,M,10.00,M,BKN,BKN,OVC,M,4900.00,6000.00,6500.00,M,M,M,M,M,M,M,M,30.67,KCXP 070715Z AUTO 07005KT 10SM BKN049 BKN060 OVC065 02/M02 A2987 RMK AO2,M
RTS,2024-03-07 07:15,-119.8764,39.6682,1539.00,30.20,26.60,86.28,360.00,5.00,0.00,29.87,M,10.00,M,SCT,M,M,M,12000.00,M,M,M,M,M,M,M,M,M,M,24.26,KRTS 070715Z AUTO 36005KT 10SM SCT120 M01/M03 A2987 RMK AO2,M
MEV,2024-03-07 07:15,-119.7500,38.9963,1441.42,30.20,26.60,86.28,150.00,3.00,0.00,29.86,M,10.00,M,SCT,OVC,M,M,6000.00,7000.00,M,M,M,M,M,M,M,M,M,26.63,KMEV 070715Z AUTO 15003KT 10SM SCT060 OVC070 M01/M03 A2986 RMK AO2,M
HTH,2024-03-07 07:15,-118.6315,38.5448,1282.89,39.20,26.60,60.29,330.00,7.00,0.00,29.85,M,10.00,M,CLR,M,M,M,M,M,M,M,M,M,M,M,M,M,M,33.56,KHTH 070715Z AUTO 33007KT 10SM CLR 04/M03 A2985 RMK A01,M
TMT,2024-03-07 07:15,-117.1971,39.4643,1749.34,29.50,26.40,88.05,290.00,3.00,0.00,29.84,M,10.00,M,SCT,M,M,M,7500.00,M,M,M,M,M,M,M,M,M,M,25.83,KTMT 070715Z AUTO 29003KT 10SM SCT075 M01/M03 A2984 RMK AO2 T10141031,M
10U,2024-03-07 07:15,-116.1876,41.9532,1637.00,26.60,24.80,92.80,340.00,8.00,0.00,29.87,M,1.50,14.00,BKN,BKN,OVC,M,400.00,1000.00,1300.00,M,-SN,M,M,M,M,M,M,17.46,K10U 070715Z AUTO 34008G14KT 1 1/2SM -SN BKN004 BKN010 OVC013 M03/M04 A2987 RMK AO2,M
BAM,2024-03-07 07:20,-116.8743,40.5990,1382.36,37.40,33.80,86.69,0.00,0.00,0.00,29.84,M,10.00,M,BKN,BKN,M,M,4700.00,7000.00,M,M,M,M,M,M,M,M,M,37.40,KBAM 070720Z AUTO 00000KT 10SM BKN047 BKN070 03/01 A2984 RMK AO1,M
WMC,2024-03-07 07:24,-117.8072,40.9019,1315.00,34.00,31.00,88.63,330.00,6.00,0.02,29.86,M,3.00,M,OVC,M,M,M,900.00,M,M,M,-SN BR,M,M,M,M,M,M,27.94,KWMC 070724Z AUTO 33006KT 3SM -SN BR OVC009 01/M01 A2986 RMK AO2 RAE15SNB15 P0002 T00111006,M
RTS,2024-03-07 07:30,-119.8764,39.6682,1539.00,30.20,24.80,80.07,340.00,5.00,0.00,29.87,M,10.00,M,FEW,M,M,M,12000.00,M,M,M,M,M,M,M,M,M,M,24.26,KRTS 070730Z AUTO 34005KT 10SM FEW120 M01/M04 A2987 RMK AO2,M
MEV,2024-03-07 07:30,-119.7500,38.9963,1441.42,28.40,26.60,92.86,120.00,7.00,0.00,29.86,M,10.00,M,FEW,FEW,BKN,M,3400.00,5000.00,6000.00,M,M,M,M,M,M,M,M,20.39,KMEV 070730Z AUTO 12007KT 10SM FEW034 FEW050 BKN060 M02/M03 A2986 RMK AO2,M
BVU,2024-03-07 07:35,-114.8611,35.9475,671.00,55.40,26.60,32.76,320.00,4.00,0.00,29.72,M,10.00,M,CLR,M,M,M,M,M,M,M,M,M,M,M,M,M,M,55.40,KBVU 070735Z AUTO 32004KT 10SM CLR 13/M03 A2972 RMK AO2,M
CXP,2024-03-07 07:35,-119.7326,39.1923,1431.00,33.80,28.40,80.36,0.00,0.00,0.00,29.87,M,10.00,M,BKN,SCT,M,M,4900.00,6000.00,M,M,M,M,M,M,M,M,M,33.80,KCXP 070735Z AUTO 00000KT 10SM BKN049 SCT060 01/M02 A2987 RMK AO2,M
HTH,2024-03-07 07:35,-118.6315,38.5448,1282.89,41.00,26.60,56.22,330.00,9.00,0.00,29.85,M,10.00,M,CLR,M,M,M,M,M,M,M,M,M,M,M,M,M,M,34.70,KHTH 070735Z AUTO 33009KT 10SM CLR 05/M03 A2985 RMK A01,M
10U,2024-03-07 07:35,-116.1876,41.9532,1637.00,26.60,24.80,92.80,350.00,8.00,0.00,29.87,M,5.00,M,FEW,BKN,OVC,M,400.00,800.00,1400.00,M,UP,M,M,M,M,M,M,17.46,K10U 070735Z AUTO 35008KT 5SM UP FEW004 BKN008 OVC014 M03/M04 A2987 RMK AO2,M
TMT,2024-03-07 07:35,-117.1971,39.4643,1749.34,28.20,26.00,91.33,210.00,3.00,0.00,29.84,M,10.00,M,CLR,M,M,M,M,M,M,M,M,M,M,M,M,M,M,24.34,KTMT 070735Z AUTO 21003KT 10SM CLR M02/M03 A2984 RMK AO2 T10211033,M
BAM,2024-03-07 07:40,-116.8743,40.5990,1382.36,35.60,33.80,93.08,0.00,0.00,0.00,29.84,M,10.00,M,SCT,BKN,M,M,4900.00,6000.00,M,M,M,M,M,M,M,M,M,35.60,KBAM 070740Z AUTO 00000KT 10SM SCT049 BKN060 02/01 A2984 RMK AO1,M
ELY,2024-03-07 07:49,-114.8453,39.2950,1909.00,32.00,26.60,80.22,0.00,0.00,0.00,29.81,M,10.00,M,BKN,OVC,M,M,2900.00,6000.00,M,M,M,M,M,M,M,M,M,32.00,KELY 070749Z AUTO 00000KT 10SM BKN029 OVC060 00/M03 A2981 RMK AO2,M
CXP,2024-03-07 07:50,-119.7326,39.1923,1431.00,33.80,28.40,80.36,0.00,0.00,0.00,29.87,M,10.00,M,FEW,FEW,M,M,4800.00,6000.00,M,M,M,M,M,M,M,M,M,33.80,KCXP 070750Z AUTO 00000KT 10SM FEW048 FEW060 01/M02 A2987 RMK AO2,M
P68,2024-03-07 07:53,-116.0056,39.6014,1993.00,33.00,32.00,96.06,0.00,0.00,0.01,29.82,1007.50,M,M,M,M,M,M,M,M,M,M,M,M,M,M,M,M,M,33.00,KP68 070753Z AUTO 00000KT 01/00 A2982 RMK AO1 SLP075 P0001 T00060000 400891039,M
DRA,2024-03-07 07:53,-116.0278,36.6206,1009.00,51.00,32.00,47.99,260.00,8.00,0.00,29.76,1005.40,10.00,M,OVC,M,M,M,10000.00,M,M,M,M,M,M,M,M,M,M,51.00,KDRA 070753Z AUTO 26008KT 10SM OVC100 11/00 A2976 RMK AO2 SLP054 T01060000 401780011,M
ELY,2024-03-07 07:53,-114.8453,39.2950,1909.00,33.00,28.00,81.63,0.00,0.00,0.00,29.81,1006.70,10.00,M,BKN,OVC,M,M,2900.00,6000.00,M,M,M,M,M,M,M,M,M,33.00,KELY 070753Z AUTO 00000KT 10SM BKN029 OVC060 01/M02 A2981 RMK AO2 SLP067 T00061022 400891061,M
VGT,2024-03-07 07:53,-115.1933,36.2111,667.00,60.00,27.00,28.23,240.00,13.00,0.00,29.71,1006.70,10.00,M,CLR,M,M,M,M,M,M,M,M,M,M,M,M,M,M,60.00,KVGT 070753Z AUTO 24013KT 10SM CLR 16/M03 A2971 RMK AO2 SLP067 T01561028 402110072,M
LOL,2024-03-07 07:53,-118.5701,40.0684,1192.43,39.00,35.00,85.42,40.00,6.00,T,29.85,1010.30,10.00,M,SCT,OVC,M,M,5500.00,7000.00,M,M,M,M,M,M,M,M,M,33.96,KLOL 070753Z AUTO 04006KT 10SM SCT055 OVC070 04/02 A2985 RMK AO2 RAE24 SLP103 P0000 T00390017 401170017,M
BVU,2024-03-07 07:55,-114.8611,35.9475,671.00,55.40,28.40,35.28,340.00,3.00,0.00,29.72,M,10.00,M,SCT,M,M,M,12000.00,M,M,M,M,M,M,M,M,M,M,55.40,KBVU 070755Z AUTO 34003KT 10SM SCT120 13/M02 A2972 RMK AO2,M
INS,2024-03-07 07:55,-115.6733,36.5872,955.00,53.20,27.00,36.09,300.00,7.00,0.00,29.75,M,10.00,M,FEW,M,M,M,10000.00,M,M,M,M,M,M,M,M,M,M,53.20,KINS 070755Z AUTO 30007KT 10SM FEW100 12/M03 A2975 RMK AO2 SLPNO T01181028 401560057 $,M
RNO,2024-03-07 07:55,-119.7711,39.4839,1341.00,37.00,28.00,69.63,280.00,5.00,0.00,29.86,1010.00,10.00,M,SCT,M,M,M,9500.00,M,M,M,M,M,M,M,M,M,M,32.33,KRNO 070755Z 28005KT 10SM SCT095 03/M02 A2986 RMK AO2 SLP100 T00281022 401220011,M
LSV,2024-03-07 07:55,-115.0343,36.2362,570.00,60.40,24.40,24.98,210.00,7.00,0.00,29.68,M,10.00,M,CLR,M,M,M,M,M,M,M,M,M,M,M,M,M,M,60.40,KLSV 070755Z AUTO 21007KT 10SM CLR 16/M04 A2968 RMK AO2 SLPNO T01581042 401850109 $,M
RTS,2024-03-07 07:55,-119.8764,39.6682,1539.00,28.40,26.60,92.86,350.00,6.00,0.00,29.87,M,10.00,M,CLR,M,M,M,M,M,M,M,M,M,M,M,M,M,M,21.19,KRTS 070755Z AUTO 35006KT 10SM CLR M02/M03 A2987 RMK AO2,M
MEV,2024-03-07 07:55,-119.7500,38.9963,1441.42,30.20,26.60,86.28,90.00,6.00,0.00,29.86,M,10.00,M,FEW,FEW,SCT,M,4300.00,4800.00,6000.00,M,M,M,M,M,M,M,M,23.36,KMEV 070755Z AUTO 09006KT 10SM FEW043 FEW048 SCT060 M01/M03 A2986 RMK AO2,M
HTH,2024-03-07 07:55,-118.6315,38.5448,1282.89,41.00,26.60,56.22,330.00,9.00,0.00,29.85,M,10.00,M,CLR,M,M,M,M,M,M,M,M,M,M,M,M,M,M,34.70,KHTH 070755Z AUTO 33009KT 10SM CLR 05/M03 A2985 RMK A01,M
TMT,2024-03-07 07:55,-117.1971,39.4643,1749.34,28.40,25.30,87.99,0.00,0.00,0.00,29.84,M,10.00,M,CLR,M,M,M,M,M,M,M,M,M,M,M,M,M,M,28.40,KTMT 070755Z AUTO 00000KT 10SM CLR M02/M04 A2984 RMK AO2 T10201037 400851028,M
10U,2024-03-07 07:55,-116.1876,41.9532,1637.00,26.60,24.80,92.80,360.00,7.00,0.00,29.87,M,10.00,M,FEW,SCT,OVC,M,700.00,1200.00,2500.00,M,UP,M,M,M,M,M,M,18.20,K10U 070755Z AUTO 36007KT 10SM UP FEW007 SCT012 OVC025 M03/M04 A2987 RMK AO2,M
EKO,2024-03-07 07:56,-115.7860,40.8242,1367.00,31.00,29.00,92.19,0.00,0.00,0.00,29.81,1010.00,10.00,M,BKN,BKN,OVC,M,7000.00,9000.00,11000.00,M,M,M,M,M,M,M,M,31.00,KEKO 070756Z AUTO 00000KT 10SM BKN070 BKN090 OVC110 M01/M02 A2981 RMK AO2 SLP100 T10061017 400671006,M
WMC,2024-03-07 07:56,-117.8072,40.9019,1315.00,34.00,31.00,88.63,330.00,3.00,0.04,29.86,1010.80,8.00,M,BKN,OVC,M,M,800.00,1400.00,M,M,UP,M,M,M,M,M,M,30.97,KWMC 070756Z AUTO 33003KT 8SM UP BKN008 OVC014 01/M01 A2986 RMK AO2 RAE15UPB56SNB15E56 SLP108 P0004 T00111006 400890011,M
NFL,2024-03-07 07:56,-118.7010,39.4166,1199.00,36.00,30.00,78.60,350.00,5.00,0.00,29.84,1008.20,10.00,M,CLR,M,M,M,M,M,M,M,M,M,M,M,M,M,M,31.15,KNFL 070756Z AUTO 35005KT 10SM CLR 02/M01 A2984 RMK AO2 SLP082 T00221011 401280011,M
HND,2024-03-07 07:56,-115.1344,35.9729,742.79,56.00,27.00,32.59,210.00,5.00,0.00,29.75,1008.00,10.00,M,OVC,M,M,M,10000.00,M,M,M,M,M,M,M,M,M,M,56.00,KHND 070756Z AUTO 21005KT 10SM OVC100 13/M03 A2975 RMK AO2 SLP080 T01331028,M
TPH,2024-03-07 07:56,-117.0904,38.0505,1654.00,33.00,30.00,88.58,310.00,7.00,0.00,29.81,1008.30,10.00,M,FEW,M,M,M,12000.00,M,M,M,M,M,M,M,M,M,M,26.00,KTPH 070756Z AUTO 31007KT 10SM FEW120 01/M01 A2981 RMK AO2 SLP083 T00061011 401061039,M
LAS,2024-03-07 07:56,-115.1634,36.0719,663.00,58.00,28.00,31.59,250.00,9.00,0.00,29.72,1005.30,10.00,M,BKN,OVC,M,M,11000.00,15000.00,M,M,M,M,M,M,M,M,M,58.00,KLAS 070756Z 25009KT 10SM BKN110 OVC150 14/M02 A2972 RMK AO2 SLP053 T01441022 402000083 $,M
BAM,2024-03-07 08:00,-116.8743,40.5990,1382.36,35.60,33.80,93.08,0.00,0.00,0.00,29.84,M,10.00,M,SCT,BKN,M,M,6000.00,7500.00,M,M,M,M,M,M,M,M,M,35.60,KBAM 070800Z AUTO 00000KT 10SM SCT060 BKN075 02/01 A2984 RMK AO1,M
WMC,2024-03-07 08:05,-117.8072,40.9019,1315.00,34.00,31.00,88.63,0.00,0.00,T,29.86,M,10.00,M,SCT,OVC,M,M,800.00,1300.00,M,M,M,M,M,M,M,M,M,34.00,KWMC 070805Z AUTO 00000KT 10SM SCT008 OVC013 01/M01 A2986 RMK AO2 UPE01RAB01E02 P0000 T00111006,M
BVU,2024-03-07 08:15,-114.8611,35.9475,671.00,53.60,32.00,43.61,0.00,0.00,0.00,29.73,M,10.00,M,BKN,M,M,M,12000.00,M,M,M,M,M,M,M,M,M,M,53.60,KBVU 070815Z AUTO 00000KT 10SM BKN120 12/M00 A2973 RMK AO2,M
CXP,2024-03-07 08:15,-119.7326,39.1923,1431.00,32.00,28.40,86.39,0.00,0.00,0.00,29.87,M,10.00,M,CLR,M,M,M,M,M,M,M,M,M,M,M,M,M,M,32.00,KCXP 070815Z AUTO 00000KT 10SM CLR 00/M02 A2987 RMK AO2,M
RTS,2024-03-07 08:15,-119.8764,39.6682,1539.00,26.60,24.80,92.80,330.00,5.00,0.00,29.87,M,10.00,M,FEW,M,M,M,9000.00,M,M,M,M,M,M,M,M,M,M,19.98,KRTS 070815Z AUTO 33005KT 10SM FEW090 M03/M04 A2987 RMK AO2,M
MEV,2024-03-07 08:15,-119.7500,38.9963,1441.42,28.40,24.80,86.18,110.00,3.00,0.00,29.86,M,10.00,M,FEW,SCT,BKN,M,3700.00,5000.00,6000.00,M,M,M,M,M,M,M,M,24.57,KMEV 070815Z AUTO 11003KT 10SM FEW037 SCT050 BKN060 M02/M04 A2986 RMK AO2,M
HTH,2024-03-07 08:15,-118.6315,38.5448,1282.89,41.00,28.40,60.54,320.00,8.00,0.00,29.85,M,10.00,M,FEW,M,M,M,12000.00,M,M,M,M,M,M,M,M,M,M,35.20,KHTH 070815Z AUTO 32008KT 10SM FEW120 05/M02 A2985 RMK A01,M
10U,2024-03-07 08:15,-116.1876,41.9532,1637.00,26.60,24.80,92.80,360.00,5.00,0.00,29.87,M,10.00,M,OVC,M,M,M,2300.00,M,M,M,M,M,M,M,M,M,M,19.98,K10U 070815Z AUTO 36005KT 10SM OVC023 M03/M04 A2987 RMK AO2,M
TMT,2024-03-07 08:15,-117.1971,39.4643,1749.34,27.00,25.00,92.05,160.00,4.00,0.00,29.84,M,10.00,M,CLR,M,M,M,M,M,M,M,M,M,M,M,M,M,M,21.58,KTMT 070815Z AUTO 16004KT 10SM CLR M03/M04 A2984 RMK AO2 T10281039,M
BAM,2024-03-07 08:20,-116.8743,40.5990,1382.36,37.40,33.80,86.69,0.00,0.00,0.00,29.84,M,10.00,M,BKN,OVC,M,M,4700.00,7500.00,M,M,M,M,M,M,M,M,M,37.40,KBAM 070820Z AUTO 00000KT 10SM BKN047 OVC075 03/01 A2984 RMK AO1,M
WMC,2024-03-07 08:30,-117.8072,40.9019,1315.00,34.00,31.00,88.63,330.00,5.00,T,29.86,M,10.00,M,BKN,OVC,M,M,600.00,1400.00,M,M,-SN,M,M,M,M,M,M,28.77,KWMC 070830Z AUTO 33005KT 10SM -SN BKN006 OVC014 01/M01 A2986 RMK AO2 UPE01RAB01E02B14E26SNB26 P0000 T00111006,M
BVU,2024-03-07 08:35,-114.8611,35.9475,671.00,53.60,32.00,43.61,0.00,0.00,0.00,29.73,M,10.00,M,BKN,OVC,M,M,8500.00,12000.00,M,M,M,M,M,M,M,M,M,53.60,KBVU 070835Z AUTO 00000KT 10SM BKN085 OVC120 12/M00 A2973 RMK AO2,M
CXP,2024-03-07 08:35,-119.7326,39.1923,1431.00,32.00,28.40,86.39,0.00,0.00,0.00,29.87,M,10.00,M,CLR,M,M,M,M,M,M,M,M,M,M,M,M,M,M,32.00,KCXP 070835Z AUTO 00000KT 10SM CLR 00/M02 A2987 RMK AO2,M
RTS,2024-03-07 08:35,-119.8764,39.6682,1539.00,28.40,24.80,86.18,340.00,6.00,0.00,29.87,M,10.00,M,SCT,M,M,M,9000.00,M,M,M,M,M,M,M,M,M,M,21.19,KRTS 070835Z AUTO 34006KT 10SM SCT090 M02/M04 A2987 RMK AO2,M
HTH,2024-03-07 08:35,-118.6315,38.5448,1282.89,39.20,28.40,64.93,320.00,8.00,0.00,29.85,M,10.00,M,FEW,M,M,M,11000.00,M,M,M,M,M,M,M,M,M,M,32.98,KHTH 070835Z AUTO 32008KT 10SM FEW110 04/M02 A2985 RMK A01,M
10U,2024-03-07 08:35,-116.1876,41.9532,1637.00,26.60,24.80,92.80,350.00,5.00,0.00,29.87,M,10.00,M,BKN,OVC,M,M,2400.00,2800.00,M,M,M,M,M,M,M,M,M,19.98,K10U 070835Z AUTO 35005KT 10SM BKN024 OVC028 M03/M04 A2987 RMK AO2,M
TMT,2024-03-07 08:35,-117.1971,39.4643,1749.34,27.30,25.00,90.91,200.00,3.00,0.00,29.84,M,10.00,M,BKN,M,M,M,5500.00,M,M,M,M,M,M,M,M,M,M,23.32,KTMT 070835Z AUTO 20003KT 10SM BKN055 M03/M04 A2984 RMK AO2 T10261038,M
BAM,2024-03-07 08:40,-116.8743,40.5990,1382.36,37.40,33.80,86.69,330.00,6.00,0.00,29.84,M,10.00,M,SCT,BKN,OVC,M,4700.00,6500.00,11000.00,M,M,M,M,M,M,M,M,32.03,KBAM 070840Z AUTO 33006KT 10SM SCT047 BKN065 OVC110 03/01 A2984 RMK AO1,M
P68,2024-03-07 08:53,-116.0056,39.6014,1993.00,32.00,32.00,100.00,180.00,3.00,0.00,29.81,1007.10,M,M,M,M,M,M,M,M,M,M,M,M,M,M,M,M,M,28.69,KP68 070853Z AUTO 18003KT 00/00 A2981 RMK AO1 SLP071 60001 T00000000 58002,M
DRA,2024-03-07 08:53,-116.0278,36.6206,1009.00,50.00,33.00,51.85,310.00,6.00,0.00,29.77,1005.50,10.00,M,OVC,M,M,M,11000.00,M,M,M,M,M,M,M,M,M,M,50.00,KDRA 070853Z AUTO 31006KT 10SM OVC110 10/01 A2977 RMK AO2 SLP055 T01000006 53002,M
ELY,2024-03-07 08:53,-114.8453,39.2950,1909.00,33.00,29.00,85.04,330.00,5.00,0.00,29.81,1006.50,10.00,M,OVC,M,M,M,2700.00,M,M,M,M,M,M,M,M,M,M,27.58,KELY 070853Z AUTO 33005KT 10SM OVC027 01/M02 A2981 RMK AO2 SLP065 T00061017 58001,M
VGT,2024-03-07 08:53,-115.1933,36.2111,667.00,59.00,29.00,31.76,270.00,9.00,0.00,29.71,1006.80,10.00,M,CLR,M,M,M,M,M,M,M,M,M,M,M,M,M,M,59.00,KVGT 070853Z AUTO 27009KT 10SM CLR 15/M02 A2971 RMK AO2 SLP068 T01501017 50001,M
LOL,2024-03-07 08:53,-118.5701,40.0684,1192.43,38.00,35.00,88.83,30.00,8.00,0.00,29.85,1010.60,10.00,M,OVC,M,M,M,7500.00,M,M,M,M,M,M,M,M,M,M,31.50,KLOL 070853Z AUTO 03008KT 10SM OVC075 03/02 A2985 RMK AO2 SLP106 60000 T00330017 51001,M
BVU,2024-03-07 08:55,-114.8611,35.9475,671.00,53.60,32.00,43.61,0.00,0.00,0.00,29.73,M,10.00,M,SCT,OVC,M,M,7500.00,9000.00,M,M,M,M,M,M,M,M,M,53.60,KBVU 070855Z AUTO 00000KT 10SM SCT075 OVC090 12/00 A2973 RMK AO2,M
CXP,2024-03-07 08:55,-119.7326,39.1923,1431.00,32.00,28.40,86.39,0.00,0.00,0.00,29.88,M,10.00,M,CLR,M,M,M,M,M,M,M,M,M,M,M,M,M,M,32.00,KCXP 070855Z AUTO 00000KT 10SM CLR M00/M02 A2988 RMK AO2,M
INS,2024-03-07 08:55,-115.6733,36.5872,955.00,51.00,27.50,39.95,30.00,3.00,0.00,29.75,M,10.00,M,SCT,M,M,M,10000.00,M,M,M,M,M,M,M,M,M,M,51.00,KINS 070855Z AUTO 03003KT 10SM SCT100 11/M02 A2975 RMK AO2 SLPNO T01051025 53003 $,M
RNO,2024-03-07 08:55,-119.7711,39.4839,1341.00,34.00,27.00,75.26,0.00,0.00,0.00,29.87,1010.40,10.00,M,SCT,M,M,M,9500.00,M,M,M,M,M,M,M,M,M,M,34.00,KRNO 070855Z 00000KT 10SM SCT095 01/M03 A2987 RMK AO2 SLP104 T00111028 53002,M
LSV,2024-03-07 08:55,-115.0343,36.2362,570.00,60.30,27.00,27.93,300.00,12.00,0.00,29.69,M,10.00,M,CLR,M,M,M,M,M,M,M,M,M,M,M,M,M,M,60.30,KLSV 070855Z AUTO 30012KT 10SM CLR 16/M03 A2969 RMK AO2 SLPNO T01571028 55000 $,M
RTS,2024-03-07 08:55,-119.8764,39.6682,1539.00,28.40,24.80,86.18,350.00,6.00,0.00,29.88,M,10.00,M,BKN,M,M,M,9000.00,M,M,M,M,M,M,M,M,M,M,21.19,KRTS 070855Z AUTO 35006KT 10SM BKN090 M02/M04 A2988 RMK AO2,M
MEV,2024-03-07 08:55,-119.7500,38.9963,1441.42,28.40,26.60,92.86,70.00,4.00,0.00,29.86,M,10.00,M,FEW,FEW,SCT,M,3800.00,6000.00,7000.00,M,M,M,M,M,M,M,M,23.22,KMEV 070855Z AUTO 07004KT 10SM FEW038 FEW060 SCT070 M02/M03 A2986 RMK AO2,M
HTH,2024-03-07 08:55,-118.6315,38.5448,1282.89,39.20,28.40,64.93,310.00,8.00,0.00,29.85,M,10.00,M,CLR,M,M,M,M,M,M,M,M,M,M,M,M,M,M,32.98,KHTH 070855Z AUTO 31008KT 10SM CLR 04/M02 A2985 RMK A01,M
TMT,2024-03-07 08:55,-117.1971,39.4643,1749.34,27.00,24.80,91.28,170.00,4.00,0.00,29.83,M,10.00,M,BKN,M,M,M,5500.00,M,M,M,M,M,M,M,M,M,M,21.58,KTMT 070855Z AUTO 17004KT 10SM BKN055 M03/M04 A2983 RMK AO2 T10271040,M
10U,2024-03-07 08:55,-116.1876,41.9532,1637.00,26.60,24.80,92.80,20.00,4.00,0.00,29.87,M,10.00,M,FEW,BKN,OVC,M,2600.00,3000.00,4500.00,M,M,M,M,M,M,M,M,21.11,K10U 070855Z AUTO 02004KT 10SM FEW026 BKN030 OVC045 M03/M04 A2987 RMK AO2,M
EKO,2024-03-07 08:56,-115.7860,40.8242,1367.00,31.00,29.00,92.19,0.00,0.00,0.00,29.81,1010.00,10.00,M,BKN,M,M,M,6500.00,M,M,M,M,M,M,M,M,M,M,31.00,KEKO 070856Z AUTO 00000KT 10SM BKN065 M01/M02 A2981 RMK AO2 SLP100 T10061017 58001,M
WMC,2024-03-07 08:56,-117.8072,40.9019,1315.00,35.00,32.00,88.68,350.00,6.00,T,29.86,1011.10,4.00,M,BKN,OVC,M,M,600.00,1500.00,M,M,BR,M,M,M,M,M,M,29.14,KWMC 070856Z AUTO 35006KT 4SM BR BKN006 OVC015 02/00 A2986 RMK AO2 UPE01RAB01E02B14E26SNB26E43 SLP111 P0000 60005 T00170000 51006,M
NFL,2024-03-07 08:56,-118.7010,39.4166,1199.00,35.00,29.00,78.51,30.00,3.00,0.00,29.85,1008.30,10.00,M,CLR,M,M,M,M,M,M,M,M,M,M,M,M,M,M,32.12,KNFL 070856Z AUTO 03003KT 10SM CLR 02/M02 A2985 RMK AO2 SLP083 T00171017 51004,M
HND,2024-03-07 08:56,-115.1344,35.9729,742.79,56.00,30.00,36.85,210.00,3.00,0.00,29.76,1008.10,10.00,M,OVC,M,M,M,11000.00,M,M,M,M,M,M,M,M,M,M,56.00,KHND 070856Z AUTO 21003KT 10SM OVC110 13/M01 A2976 RMK AO2 SLP081 T01331011 53001,M
TPH,2024-03-07 08:56,-117.0904,38.0505,1654.00,35.00,31.00,85.17,350.00,8.00,0.00,29.81,1007.70,10.00,M,FEW,BKN,M,M,4800.00,11000.00,M,M,M,M,M,M,M,M,M,27.81,KTPH 070856Z AUTO 35008KT 10SM FEW048 BKN110 02/M01 A2981 RMK AO2 SLP077 T00171006 58002,M
LAS,2024-03-07 08:56,-115.1634,36.0719,663.00,57.00,30.00,35.54,270.00,10.00,0.00,29.72,1005.30,10.00,M,OVC,M,M,M,10000.00,M,M,M,M,M,M,M,M,M,M,57.00,KLAS 070856Z 27010KT 10SM OVC100 14/M01 A2972 RMK AO2 SLP053 T01391011 50000 $,M
BAM,2024-03-07 09:00,-116.8743,40.5990,1382.36,37.40,35.60,93.14,330.00,8.00,0.00,29.85,M,10.00,M,SCT,BKN,OVC,M,600.00,6500.00,11000.00,M,M,M,M,M,M,M,M,30.76,KBAM 070900Z AUTO 33008KT 10SM SCT006 BKN065 OVC110 03/02 A2985 RMK AO1,M
BAM,2024-03-07 09:10,-116.8743,40.5990,1382.36,35.60,35.60,100.00,340.00,8.00,0.00,29.85,M,10.00,M,SCT,BKN,OVC,M,3600.00,4900.00,6500.00,M,M,M,M,M,M,M,M,28.55,KBAM 070910Z AUTO 34008KT 10SM SCT036 BKN049 OVC065 02/02 A2985 RMK AO1,M
BVU,2024-03-07 09:15,-114.8611,35.9475,671.00,55.40,28.40,35.28,0.00,0.00,0.00,29.73,M,10.00,M,BKN,OVC,M,M,7500.00,10000.00,M,M,M,M,M,M,M,M,M,55.40,KBVU 070915Z AUTO 00000KT 10SM BKN075 OVC100 13/M02 A2973 RMK AO2,M
CXP,2024-03-07 09:15,-119.7326,39.1923,1431.00,32.00,26.60,80.22,0.00,0.00,0.00,29.88,M,10.00,M,CLR,M,M,M,M,M,M,M,M,M,M,M,M,M,M,32.00,KCXP 070915Z AUTO 00000KT 10SM CLR M00/M03 A2988 RMK AO2,M
RTS,2024-03-07 09:15,-119.8764,39.6682,1539.00,28.40,24.80,86.18,330.00,6.00,0.00,29.88,M,10.00,M,OVC,M,M,M,9000.00,M,M,M,M,M,M,M,M,M,M,21.19,KRTS 070915Z AUTO 33006KT 10SM OVC090 M02/M04 A2988 RMK AO2,M
MEV,2024-03-07 09:15,-119.7500,38.9963,1441.42,28.40,24.80,86.18,60.00,4.00,0.00,29.86,M,10.00,M,SCT,M,M,M,6000.00,M,M,M,M,M,M,M,M,M,M,23.22,KMEV 070915Z AUTO 06004KT 10SM SCT060 M02/M04 A2986 RMK AO2,M
HTH,2024-03-07 09:15,-118.6315,38.5448,1282.89,39.20,28.40,64.93,260.00,5.00,0.00,29.85,M,10.00,M,SCT,M,M,M,7500.00,M,M,M,M,M,M,M,M,M,M,34.95,KHTH 070915Z AUTO 26005KT 10SM SCT075 04/M02 A2985 RMK A01,M
10U,2024-03-07 09:15,-116.1876,41.9532,1637.00,24.80,24.80,100.00,340.00,3.00,0.00,29.88,M,10.00,M,SCT,SCT,OVC,M,2400.00,3300.00,4500.00,M,M,M,M,M,M,M,M,20.46,K10U 070915Z AUTO 34003KT 10SM SCT024 SCT033 OVC045 M04/M04 A2988 RMK AO2,M
TMT,2024-03-07 09:15,-117.1971,39.4643,1749.34,26.60,24.80,92.80,280.00,4.00,0.00,29.83,M,10.00,M,BKN,M,M,M,5500.00,M,M,M,M,M,M,M,M,M,M,21.11,KTMT 070915Z AUTO 28004KT 10SM BKN055 M03/M04 A2983 RMK AO2 T10301040,M
ELY,2024-03-07 09:17,-114.8453,39.2950,1909.00,33.00,29.00,85.04,330.00,4.00,0.00,29.80,M,10.00,M,SCT,BKN,OVC,M,2900.00,3700.00,4700.00,M,M,M,M,M,M,M,M,28.59,KELY 070917Z AUTO 33004KT 10SM SCT029 BKN037 OVC047 01/M02 A2980 RMK AO2 T00061017,M
CXP,2024-03-07 09:30,-119.7326,39.1923,1431.00,30.20,26.60,86.28,0.00,0.00,0.00,29.88,M,10.00,M,CLR,M,M,M,M,M,M,M,M,M,M,M,M,M,M,30.20,KCXP 070930Z AUTO 00000KT 10SM CLR M01/M03 A2988 RMK AO2,M
BVU,2024-03-07 09:35,-114.8611,35.9475,671.00,55.40,26.60,32.76,180.00,5.00,0.00,29.73,M,10.00,M,OVC,M,M,M,7000.00,M,M,M,M,M,M,M,M,M,M,55.40,KBVU 070935Z AUTO 18005KT 10SM OVC070 13/M03 A2973 RMK AO2,M
RTS,2024-03-07 09:35,-119.8764,39.6682,1539.00,28.40,24.80,86.18,0.00,0.00,0.00,29.87,M,10.00,M,OVC,M,M,M,9500.00,M,M,M,M,M,M,M,M,M,M,28.40,KRTS 070935Z AUTO 00000KT 10SM OVC095 M02/M04 A2987 RMK AO2,M
MEV,2024-03-07 09:35,-119.7500,38.9963,1441.42,26.60,24.80,92.80,110.00,5.00,0.00,29.86,M,10.00,M,BKN,M,M,M,6000.00,M,M,M,M,M,M,M,M,M,M,19.98,KMEV 070935Z AUTO 11005KT 10SM BKN060 M03/M04 A2986 RMK AO2,M
HTH,2024-03-07 09:35,-118.6315,38.5448,1282.89,37.40,28.40,69.67,260.00,5.00,0.00,29.85,M,10.00,M,SCT,M,M,M,7500.00,M,M,M,M,M,M,M,M,M,M,32.81,KHTH 070935Z AUTO 26005KT 10SM SCT075 03/M02 A2985 RMK A01,M
TMT,2024-03-07 09:35,-117.1971,39.4643,1749.34,26.60,24.80,92.80,290.00,5.00,0.00,29.83,M,10.00,M,OVC,M,M,M,5500.00,M,M,M,M,M,M,M,M,M,M,19.98,KTMT 070935Z AUTO 29005KT 10SM OVC055 M03/M04 A2983 RMK AO2 T10301040,M
10U,2024-03-07 09:35,-116.1876,41.9532,1637.00,26.60,24.80,92.80,0.00,0.00,0.00,29.88,M,10.00,M,SCT,SCT,OVC,M,2400.00,3600.00,4900.00,M,M,M,M,M,M,M,M,26.60,K10U 070935Z AUTO 00000KT 10SM SCT024 SCT036 OVC049 M03/M04 A2988 RMK AO2,M
BAM,2024-03-07 09:40,-116.8743,40.5990,1382.36,35.60,33.80,93.08,330.00,8.00,0.00,29.85,M,10.00,M,SCT,SCT,OVC,M,1300.00,3400.00,4500.00,M,M,M,M,M,M,M,M,28.55,KBAM 070940Z AUTO 33008KT 10SM SCT013 SCT034 OVC045 02/01 A2985 RMK AO1,M
P68,2024-03-07 09:53,-116.0056,39.6014,1993.00,32.00,31.00,96.04,180.00,4.00,0.00,29.80,1006.90,M,M,M,M,M,M,M,M,M,M,M,M,M,M,M,M,M,27.42,KP68 070953Z AUTO 18004KT 00/M01 A2980 RMK AO1 SLP069 T00001006,M
DRA,2024-03-07 09:53,-116.0278,36.6206,1009.00,48.00,34.00,58.16,310.00,6.00,0.00,29.76,1005.20,10.00,M,OVC,M,M,M,11000.00,M,M,M,M,M,M,M,M,M,M,44.80,KDRA 070953Z AUTO 31006KT 10SM OVC110 09/01 A2976 RMK AO2 SLP052 T00890011,M
ELY,2024-03-07 09:53,-114.8453,39.2950,1909.00,31.00,28.00,88.48,320.00,4.00,0.00,29.79,1006.80,10.00,M,FEW,BKN,OVC,M,3100.00,4000.00,8000.00,M,M,M,M,M,M,M,M,26.25,KELY 070953Z AUTO 32004KT 10SM FEW031 BKN040 OVC080 M01/M02 A2979 RMK AO2 SLP068 T10061022,M
VGT,2024-03-07 09:53,-115.1933,36.2111,667.00,59.00,29.00,31.76,280.00,5.00,0.00,29.71,1006.40,10.00,M,OVC,M,M,M,8500.00,M,M,M,M,M,M,M,M,M,M,59.00,KVGT 070953Z AUTO 28005KT 10SM OVC085 15/M02 A2971 RMK AO2 SLP064 T01501017,M
LOL,2024-03-07 09:53,-118.5701,40.0684,1192.43,38.00,35.00,88.83,40.00,8.00,0.00,29.85,1010.60,10.00,M,OVC,M,M,M,8000.00,M,M,M,M,M,M,M,M,M,M,31.50,KLOL 070953Z AUTO 04008KT 10SM OVC080 03/02 A2985 RMK AO2 SLP106 T00330017,M
BVU,2024-03-07 09:55,-114.8611,35.9475,671.00,57.20,30.20,35.57,190.00,7.00,0.00,29.73,M,10.00,16.00,SCT,BKN,OVC,M,5000.00,6500.00,7500.00,M,M,M,M,M,M,M,M,57.20,KBVU 070955Z AUTO 19007G16KT 10SM SCT050 BKN065 OVC075 14/M01 A2973 RMK AO2,M
CXP,2024-03-07 09:55,-119.7326,39.1923,1431.00,32.00,28.40,86.39,0.00,0.00,0.00,29.88,M,10.00,M,CLR,M,M,M,M,M,M,M,M,M,M,M,M,M,M,32.00,KCXP 070955Z AUTO 00000KT 10SM CLR M00/M02 A2988 RMK AO2,M
INS,2024-03-07 09:55,-115.6733,36.5872,955.00,50.00,29.70,45.37,300.00,6.00,0.00,29.75,M,10.00,M,CLR,M,M,M,M,M,M,M,M,M,M,M,M,M,M,50.00,KINS 070955Z AUTO 30006KT 10SM CLR 10/M01 A2975 RMK AO2 SLPNO T01011013 $,M
RNO,2024-03-07 09:55,-119.7711,39.4839,1341.00,34.00,26.00,72.22,180.00,3.00,0.00,29.87,1010.40,10.00,M,SCT,M,M,M,9500.00,M,M,M,M,M,M,M,M,M,M,30.97,KRNO 070955Z 18003KT 10SM SCT095 01/M03 A2987 RMK AO2 SLP104 T00111033,M
LSV,2024-03-07 09:55,-115.0343,36.2362,570.00,60.00,26.80,27.99,180.00,6.00,0.00,29.68,M,10.00,M,CLR,M,M,M,M,M,M,M,M,M,M,M,M,M,M,60.00,KLSV 070955Z AUTO 18006KT 10SM CLR 16/M03 A2968 RMK AO2 SLPNO T01551029 $,M
RTS,2024-03-07 09:55,-119.8764,39.6682,1539.00,28.40,24.80,86.18,350.00,3.00,0.00,29.87,M,10.00,M,OVC,M,M,M,9500.00,M,M,M,M,M,M,M,M,M,M,24.57,KRTS 070955Z AUTO 35003KT 10SM OVC095 M02/M04 A2987 RMK AO2,M
MEV,2024-03-07 09:55,-119.7500,38.9963,1441.42,28.40,24.80,86.18,110.00,4.00,0.00,29.86,M,10.00,M,BKN,M,M,M,6000.00,M,M,M,M,M,M,M,M,M,M,23.22,KMEV 070955Z AUTO 11004KT 10SM BKN060 M02/M04 A2986 RMK AO2,M
HTH,2024-03-07 09:55,-118.6315,38.5448,1282.89,37.40,28.40,69.67,260.00,6.00,0.00,29.85,M,10.00,M,SCT,M,M,M,7500.00,M,M,M,M,M,M,M,M,M,M,32.03,KHTH 070955Z AUTO 26006KT 10SM SCT075 03/M02 A2985 RMK A01,M
10U,2024-03-07 09:55,-116.1876,41.9532,1637.00,26.60,24.80,92.80,350.00,3.00,0.00,29.88,M,10.00,M,OVC,M,M,M,4900.00,M,M,M,M,M,M,M,M,M,M,22.52,K10U 070955Z AUTO 35003KT 10SM OVC049 M03/M04 A2988 RMK AO2,M
TMT,2024-03-07 09:55,-117.1971,39.4643,1749.34,26.20,24.30,92.40,300.00,4.00,0.00,29.83,M,10.00,M,SCT,M,M,M,5500.00,M,M,M,M,M,M,M,M,M,M,20.65,KTMT 070955Z AUTO 30004KT 10SM SCT055 M03/M04 A2983 RMK AO2 T10321043,M
EKO,2024-03-07 09:56,-115.7860,40.8242,1367.00,31.00,28.00,88.48,0.00,0.00,0.00,29.81,1009.80,10.00,M,FEW,M,M,M,4100.00,M,M,M,M,T,M,M,M,M,M,31.00,KEKO 070956Z AUTO 00000KT 10SM FEW041 M01/M02 A2981 RMK AO2 SLP098 I1000 T10061022,M
WMC,2024-03-07 09:56,-117.8072,40.9019,1315.00,34.00,31.00,88.63,340.00,4.00,0.00,29.86,1011.10,10.00,M,OVC,M,M,M,600.00,M,M,M,M,M,M,M,M,M,M,29.76,KWMC 070956Z AUTO 34004KT 10SM OVC006 01/M01 A2986 RMK AO2 SLP111 T00111006,M
NFL,2024-03-07 09:56,-118.7010,39.4166,1199.00,33.00,29.00,85.04,270.00,5.00,0.00,29.85,1008.40,10.00,M,CLR,M,M,M,M,M,M,M,M,M,M,M,M,M,M,27.58,KNFL 070956Z AUTO 27005KT 10SM CLR 01/M02 A2985 RMK AO2 SLP084 T00061017,M
HND,2024-03-07 09:56,-115.1344,35.9729,742.79,54.00,32.00,42.98,190.00,10.00,0.00,29.75,1007.90,10.00,M,BKN,BKN,OVC,M,7500.00,9000.00,12000.00,M,M,M,M,M,M,M,M,54.00,KHND 070956Z AUTO 19010KT 10SM BKN075 BKN090 OVC120 12/00 A2975 RMK AO2 SLP079 T01220000,M
TPH,2024-03-07 09:56,-117.0904,38.0505,1654.00,34.00,31.00,88.63,300.00,3.00,0.00,29.80,1007.60,10.00,M,SCT,BKN,M,M,4600.00,7500.00,M,M,M,M,M,M,M,M,M,30.97,KTPH 070956Z AUTO 30003KT 10SM SCT046 BKN075 01/M01 A2980 RMK AO2 SLP076 T00111006,M
LAS,2024-03-07 09:56,-115.1634,36.0719,663.00,55.00,33.00,43.14,220.00,8.00,0.00,29.72,1005.20,10.00,M,SCT,OVC,M,M,9500.00,11000.00,M,M,M,M,M,M,M,M,M,55.00,KLAS 070956Z 22008KT 10SM SCT095 OVC110 13/01 A2972 RMK AO2 SLP052 T01280006 $,M
BAM,2024-03-07 10:00,-116.8743,40.5990,1382.36,35.60,33.80,93.08,330.00,7.00,0.00,29.85,M,10.00,M,SCT,BKN,OVC,M,1300.00,3300.00,4100.00,M,M,M,M,M,M,M,M,29.17,KBAM 071000Z AUTO 33007KT 10SM SCT013 BKN033 OVC041 02/01 A2985 RMK AO1,M
ELY,2024-03-07 10:13,-114.8453,39.2950,1909.00,32.00,29.00,88.53,350.00,3.00,0.00,29.79,M,10.00,M,FEW,BKN,OVC,M,600.00,1500.00,7000.00,M,M,M,M,M,M,M,M,28.69,KELY 071013Z AUTO 35003KT 10SM FEW006 BKN015 OVC070 00/M02 A2979 RMK AO2 T00001017,M
BVU,2024-03-07 10:15,-114.8611,35.9475,671.00,55.40,32.00,40.84,160.00,10.00,0.00,29.73,M,10.00,M,FEW,BKN,OVC,M,4600.00,5000.00,7500.00,M,M,M,M,M,M,M,M,55.40,KBVU 071015Z AUTO 16010KT 10SM FEW046 BKN050 OVC075 13/M00 A2973 RMK AO2,M
CXP,2024-03-07 10:15,-119.7326,39.1923,1431.00,32.00,26.60,80.22,0.00,0.00,0.00,29.87,M,10.00,M,CLR,M,M,M,M,M,M,M,M,M,M,M,M,M,M,32.00,KCXP 071015Z AUTO 00000KT 10SM CLR M00/M03 A2987 RMK AO2,M
RTS,2024-03-07 10:15,-119.8764,39.6682,1539.00,26.60,24.80,92.80,340.00,4.00,0.00,29.87,M,10.00,M,SCT,M,M,M,9500.00,M,M,M,M,M,M,M,M,M,M,21.11,KRTS 071015Z AUTO 34004KT 10SM SCT095 M03/M04 A2987 RMK AO2,M
MEV,2024-03-07 10:15,-119.7500,38.9963,1441.42,26.60,24.80,92.80,100.00,4.00,0.00,29.86,M,10.00,M,OVC,M,M,M,6000.00,M,M,M,M,M,M,M,M,M,M,21.11,KMEV 071015Z AUTO 10004KT 10SM OVC060 M03/M04 A2986 RMK AO2,M
HTH,2024-03-07 10:15,-118.6315,38.5448,1282.89,39.20,28.40,64.93,280.00,5.00,0.00,29.84,M,10.00,M,OVC,M,M,M,7500.00,M,M,M,M,M,M,M,M,M,M,34.95,KHTH 071015Z AUTO 28005KT 10SM OVC075 04/M02 A2984 RMK A01,M
10U,2024-03-07 10:15,-116.1876,41.9532,1637.00,26.60,24.80,92.80,350.00,5.00,0.00,29.87,M,10.00,M,OVC,M,M,M,4900.00,M,M,M,M,M,M,M,M,M,M,19.98,K10U 071015Z AUTO 35005KT 10SM OVC049 M03/M04 A2987 RMK AO2,M
TMT,2024-03-07 10:15,-117.1971,39.4643,1749.34,25.70,24.00,93.16,290.00,4.00,0.00,29.82,M,10.00,M,SCT,SCT,M,M,7000.00,8500.00,M,M,M,M,M,M,M,M,M,20.06,KTMT 071015Z AUTO 29004KT 10SM SCT070 SCT085 M03/M04 A2982 RMK AO2 T10351045,M
BAM,2024-03-07 10:20,-116.8743,40.5990,1382.36,35.60,33.80,93.08,330.00,8.00,0.00,29.85,M,10.00,M,BKN,OVC,M,M,3300.00,4400.00,M,M,M,M,M,M,M,M,M,28.55,KBAM 071020Z AUTO 33008KT 10SM BKN033 OVC044 02/01 A2985 RMK AO1,M
ELY,2024-03-07 10:23,-114.8453,39.2950,1909.00,32.00,30.00,92.22,30.00,6.00,0.00,29.79,M,10.00,M,BKN,BKN,OVC,M,400.00,800.00,1500.00,M,M,M,M,M,M,M,M,25.53,KELY 071023Z AUTO 03006KT 10SM BKN004 BKN008 OVC015 00/M01 A2979 RMK AO2 T00001011,M
ELY,2024-03-07 10:33,-114.8453,39.2950,1909.00,32.00,29.00,88.53,10.00,9.00,T,29.78,M,5.00,M,BKN,BKN,OVC,M,600.00,900.00,1500.00,M,-SN BR,M,M,M,M,M,M,23.51,KELY 071033Z AUTO 01009KT 5SM -SN BR BKN006 BKN009 OVC015 00/M02 A2978 RMK AO2 SNB28 CIG 004V008 P0000 T00001017,M
BVU,2024-03-07 10:35,-114.8611,35.9475,671.00,55.40,33.80,43.90,180.00,14.00,0.00,29.73,M,10.00,19.00,FEW,SCT,BKN,M,4200.00,5000.00,6500.00,M,M,M,M,M,M,M,M,55.40,KBVU 071035Z AUTO 18014G19KT 10SM FEW042 SCT050 BKN065 13/01 A2973 RMK AO2,M
CXP,2024-03-07 10:35,-119.7326,39.1923,1431.00,30.20,26.60,86.28,0.00,0.00,0.00,29.86,M,10.00,M,SCT,M,M,M,5000.00,M,M,M,M,M,M,M,M,M,M,30.20,KCXP 071035Z AUTO 00000KT 10SM SCT050 M01/M03 A2986 RMK AO2,M
RTS,2024-03-07 10:35,-119.8764,39.6682,1539.00,24.80,23.00,92.74,350.00,5.00,0.00,29.86,M,10.00,M,FEW,M,M,M,9500.00,M,M,M,M,M,M,M,M,M,M,17.84,KRTS 071035Z AUTO 35005KT 10SM FEW095 M04/M05 A2986 RMK AO2,M
MEV,2024-03-07 10:35,-119.7500,38.9963,1441.42,26.60,24.80,92.80,110.00,6.00,0.00,29.85,M,10.00,M,OVC,M,M,M,6000.00,M,M,M,M,M,M,M,M,M,M,19.03,KMEV 071035Z AUTO 11006KT 10SM OVC060 M03/M04 A2985 RMK AO2,M
HTH,2024-03-07 10:35,-118.6315,38.5448,1282.89,39.20,28.40,64.93,260.00,6.00,0.00,29.84,M,10.00,M,OVC,M,M,M,7500.00,M,M,M,M,M,M,M,M,M,M,34.20,KHTH 071035Z AUTO 26006KT 10SM OVC075 04/M02 A2984 RMK A01,M
10U,2024-03-07 10:35,-116.1876,41.9532,1637.00,26.60,24.80,92.80,350.00,5.00,0.00,29.87,M,10.00,M,OVC,M,M,M,5000.00,M,M,M,M,M,M,M,M,M,M,19.98,K10U 071035Z AUTO 35005KT 10SM OVC050 M03/M04 A2987 RMK AO2,M
TMT,2024-03-07 10:35,-117.1971,39.4643,1749.34,24.60,23.00,93.52,160.00,4.00,0.00,29.83,M,10.00,M,CLR,M,M,M,M,M,M,M,M,M,M,M,M,M,M,18.78,KTMT 071035Z AUTO 16004KT 10SM CLR M04/M05 A2983 RMK AO2 T10411050,M
WMC,2024-03-07 10:39,-117.8072,40.9019,1315.00,35.00,32.00,88.68,360.00,4.00,0.00,29.86,M,10.00,M,SCT,OVC,M,M,600.00,1800.00,M,M,M,M,M,M,M,M,M,30.92,KWMC 071039Z AUTO 36004KT 10SM SCT006 OVC018 02/00 A2986 RMK AO2 T00170000,M
BAM,2024-03-07 10:40,-116.8743,40.5990,1382.36,35.60,33.80,93.08,320.00,8.00,0.00,29.84,M,10.00,M,SCT,BKN,OVC,M,3100.00,4800.00,6000.00,M,M,M,M,M,M,M,M,28.55,KBAM 071040Z AUTO 32008KT 10SM SCT031 BKN048 OVC060 02/01 A2984 RMK AO1,M
ELY,2024-03-07 10:44,-114.8453,39.2950,1909.00,31.00,28.00,88.48,20.00,7.00,T,29.78,M,3.00,M,SCT,OVC,M,M,600.00,1200.00,M,M,-SN BR,M,M,M,M,M,M,23.56,KELY 071044Z AUTO 02007KT 3SM -SN BR SCT006 OVC012 M01/M02 A2978 RMK AO2 SNB28 P0000 T10061022,M
P68,2024-03-07 10:53,-116.0056,39.6014,1993.00,30.00,29.00,96.00,230.00,5.00,0.00,29.79,1006.80,M,M,M,M,M,M,M,M,M,M,M,M,M,M,M,M,M,24.02,KP68 071053Z AUTO 23005KT M01/M02 A2979 RMK AO1 SLP068 T10111017,M
DRA,2024-03-07 10:53,-116.0278,36.6206,1009.00,48.00,35.00,60.52,270.00,7.00,0.00,29.74,1004.80,10.00,M,BKN,OVC,M,M,9000.00,11000.00,M,M,M,M,M,M,M,M,M,44.28,KDRA 071053Z AUTO 27007KT 10SM BKN090 OVC110 09/02 A2974 RMK AO2 SLP048 T00890017,M
ELY,2024-03-07 10:53,-114.8453,39.2950,1909.00,31.00,28.00,88.48,10.00,9.00,0.01,29.78,1006.40,3.00,M,FEW,OVC,M,M,600.00,1200.00,M,M,-SN BR,M,M,M,M,M,M,22.27,KELY 071053Z AUTO 01009KT 3SM -SN BR FEW006 OVC012 M01/M02 A2978 RMK AO2 SNB28 SLP064 P0001 T10061022,M
VGT,2024-03-07 10:53,-115.1933,36.2111,667.00,58.00,30.00,34.28,310.00,4.00,0.00,29.71,1006.60,10.00,M,OVC,M,M,M,8000.00,M,M,M,M,M,M,M,M,M,M,58.00,KVGT 071053Z AUTO 31004KT 10SM OVC080 14/M01 A2971 RMK AO2 SLP066 T01441011,M
LOL,2024-03-07 10:53,-118.5701,40.0684,1192.43,37.00,34.00,88.78,40.00,8.00,0.00,29.84,1010.10,10.00,M,BKN,BKN,M,M,8000.00,10000.00,M,M,M,M,M,M,M,M,M,30.27,KLOL 071053Z AUTO 04008KT 10SM BKN080 BKN100 03/01 A2984 RMK AO2 SLP101 T00280011,M
BVU,2024-03-07 10:55,-114.8611,35.9475,671.00,53.60,35.60,50.36,170.00,10.00,0.00,29.73,M,10.00,M,BKN,OVC,M,M,7500.00,10000.00,M,M,M,M,M,M,M,M,M,53.60,KBVU 071055Z AUTO 17010KT 10SM BKN075 OVC100 12/02 A2973 RMK AO2,M
CXP,2024-03-07 10:55,-119.7326,39.1923,1431.00,28.40,26.60,92.86,0.00,0.00,0.00,29.86,M,10.00,M,FEW,SCT,M,M,5000.00,7000.00,M,M,M,M,M,M,M,M,M,28.40,KCXP 071055Z AUTO 00000KT 10SM FEW050 SCT070 M02/M03 A2986 RMK AO2,M
INS,2024-03-07 10:55,-115.6733,36.5872,955.00,50.00,31.00,47.83,220.00,4.00,0.00,29.74,M,10.00,M,OVC,M,M,M,13000.00,M,M,M,M,M,M,M,M,M,M,50.00,KINS 071055Z AUTO 22004KT 10SM OVC130 10/M00 A2974 RMK AO2 SLPNO T01001005 $,M
RNO,2024-03-07 10:55,-119.7711,39.4839,1341.00,33.00,26.00,75.17,0.00,0.00,0.00,29.86,1010.20,10.00,M,FEW,M,M,M,9500.00,M,M,M,M,M,M,M,M,M,M,33.00,KRNO 071055Z 00000KT 10SM FEW095 01/M03 A2986 RMK AO2 SLP102 T00061033,M
LSV,2024-03-07 10:55,-115.0343,36.2362,570.00,59.00,30.00,33.08,200.00,12.00,0.00,29.69,M,10.00,M,CLR,M,M,M,M,M,M,M,M,M,M,M,M,M,M,59.00,KLSV 071055Z AUTO 20012KT 10SM CLR 15/M01 A2969 RMK AO2 SLPNO T01491012 $,M
RTS,2024-03-07 10:55,-119.8764,39.6682,1539.00,26.60,24.80,92.80,10.00,4.00,0.00,29.86,M,10.00,M,FEW,BKN,M,M,4600.00,9500.00,M,M,M,M,M,M,M,M,M,21.11,KRTS 071055Z AUTO 01004KT 10SM FEW046 BKN095 M03/M04 A2986 RMK AO2,M
MEV,2024-03-07 10:55,-119.7500,38.9963,1441.42,28.40,26.60,92.86,0.00,0.00,0.00,29.85,M,10.00,M,OVC,M,M,M,6000.00,M,M,M,M,M,M,M,M,M,M,28.40,KMEV 071055Z AUTO 00000KT 10SM OVC060 M02/M03 A2985 RMK AO2,M
HTH,2024-03-07 10:55,-118.6315,38.5448,1282.89,37.40,28.40,69.67,240.00,6.00,0.00,29.84,M,10.00,M,OVC,M,M,M,7500.00,M,M,M,M,M,M,M,M,M,M,32.03,KHTH 071055Z AUTO 24006KT 10SM OVC075 03/M02 A2984 RMK A01,M
TMT,2024-03-07 10:55,-117.1971,39.4643,1749.34,25.00,23.50,93.93,170.00,4.00,0.00,29.82,M,10.00,M,SCT,BKN,M,M,5000.00,7000.00,M,M,M,M,M,M,M,M,M,19.25,KTMT 071055Z AUTO 17004KT 10SM SCT050 BKN070 M04/M05 A2982 RMK AO2 T10381047,M
10U,2024-03-07 10:55,-116.1876,41.9532,1637.00,26.60,24.80,92.80,0.00,0.00,0.00,29.87,M,10.00,M,OVC,M,M,M,5000.00,M,M,M,M,M,M,M,M,M,M,26.60,K10U 071055Z AUTO 00000KT 10SM OVC050 M03/M04 A2987 RMK AO2,M
EKO,2024-03-07 10:56,-115.7860,40.8242,1367.00,31.00,29.00,92.19,0.00,0.00,0.00,29.80,1009.40,10.00,M,FEW,BKN,OVC,M,3700.00,4700.00,7000.00,M,M,M,M,M,M,M,M,31.00,KEKO 071056Z AUTO 00000KT 10SM FEW037 BKN047 OVC070 M01/M02 A2980 RMK AO2 SLP094 T10061017,M
WMC,2024-03-07 10:56,-117.8072,40.9019,1315.00,34.00,31.00,88.63,310.00,4.00,T,29.86,1010.80,9.00,M,FEW,OVC,M,M,800.00,1800.00,M,M,-SN,M,M,M,M,M,M,29.76,KWMC 071056Z AUTO 31004KT 9SM -SN FEW008 OVC018 01/M01 A2986 RMK AO2 SNB49 SLP108 P0000 T00111006,M
NFL,2024-03-07 10:56,-118.7010,39.4166,1199.00,34.00,30.00,85.11,0.00,0.00,0.00,29.84,1008.00,10.00,M,OVC,M,M,M,4500.00,M,M,M,M,M,M,M,M,M,M,34.00,KNFL 071056Z AUTO 00000KT 10SM OVC045 01/M01 A2984 RMK AO2 SLP080 T00111011,M
HND,2024-03-07 10:56,-115.1344,35.9729,742.79,53.00,33.00,46.41,200.00,11.00,0.00,29.74,1007.70,10.00,M,OVC,M,M,M,11000.00,M,M,M,M,M,M,M,M,M,M,53.00,KHND 071056Z AUTO 20011KT 10SM OVC110 12/01 A2974 RMK AO2 SLP077 T01170006,M
TPH,2024-03-07 10:56,-117.0904,38.0505,1654.00,31.00,29.00,92.19,330.00,5.00,0.00,29.78,1007.40,10.00,M,SCT,BKN,M,M,5000.00,6000.00,M,M,M,M,M,M,M,M,M,25.21,KTPH 071056Z AUTO 33005KT 10SM SCT050 BKN060 M01/M02 A2978 RMK AO2 SLP074 T10061017,M
LAS,2024-03-07 10:56,-115.1634,36.0719,663.00,54.00,34.00,46.57,220.00,13.00,0.00,29.72,1005.20,10.00,20.00,OVC,M,M,M,8500.00,M,M,M,M,M,M,M,M,M,M,54.00,KLAS 071056Z 22013G20KT 10SM OVC085 12/01 A2972 RMK AO2 SLP052 VIRGA W-N T01220011 $,M
BAM,2024-03-07 11:00,-116.8743,40.5990,1382.36,33.80,33.80,100.00,320.00,8.00,0.00,29.84,M,10.00,M,SCT,BKN,OVC,M,400.00,3400.00,6000.00,M,M,M,M,M,M,M,M,26.33,KBAM 071100Z AUTO 32008KT 10SM SCT004 BKN034 OVC060 01/01 A2984 RMK AO1,M
BVU,2024-03-07 11:15,-114.8611,35.9475,671.00,53.60,35.60,50.36,160.00,13.00,0.00,29.73,M,10.00,M,OVC,M,M,M,7500.00,M,M,M,M,M,M,M,M,M,M,53.60,KBVU 071115Z AUTO 16013KT 10SM OVC075 12/02 A2973 RMK AO2,M
CXP,2024-03-07 11:15,-119.7326,39.1923,1431.00,30.20,26.60,86.28,0.00,0.00,0.00,29.86,M,10.00,M,FEW,M,M,M,6500.00,M,M,M,M,M,M,M,M,M,M,30.20,KCXP 071115Z AUTO 00000KT 10SM FEW065 M01/M03 A2986 RMK AO2,M
RTS,2024-03-07 11:15,-119.8764,39.6682,1539.00,28.40,24.80,86.18,0.00,0.00,0.00,29.86,M,10.00,M,FEW,BKN,M,M,4700.00,9000.00,M,M,M,M,M,M,M,M,M,28.40,KRTS 071115Z AUTO 00000KT 10SM FEW047 BKN090 M02/M04 A2986 RMK AO2,M
MEV,2024-03-07 11:15,-119.7500,38.9963,1441.42,28.40,26.60,92.86,0.00,0.00,0.00,29.85,M,10.00,M,FEW,FEW,OVC,M,3700.00,4500.00,6500.00,M,M,M,M,M,M,M,M,28.40,KMEV 071115Z AUTO 00000KT 10SM FEW037 FEW045 OVC065 M02/M03 A2985 RMK AO2,M
HTH,2024-03-07 11:15,-118.6315,38.5448,1282.89,37.40,28.40,69.67,260.00,5.00,0.00,29.84,M,10.00,M,OVC,M,M,M,7500.00,M,M,M,M,M,M,M,M,M,M,32.81,KHTH 071115Z AUTO 26005KT 10SM OVC075 03/M02 A2984 RMK A01,M
10U,2024-03-07 11:15,-116.1876,41.9532,1637.00,26.60,24.80,92.80,0.00,0.00,0.00,29.87,M,10.00,M,OVC,M,M,M,5000.00,M,M,M,M,M,M,M,M,M,M,26.60,K10U 071115Z AUTO 00000KT 10SM OVC050 M03/M04 A2987 RMK AO2,M
TMT,2024-03-07 11:15,-117.1971,39.4643,1749.34,26.60,24.40,91.27,0.00,0.00,0.00,29.82,M,10.00,M,SCT,BKN,OVC,M,3900.00,5000.00,7000.00,M,M,M,M,M,M,M,M,26.60,KTMT 071115Z AUTO 00000KT 10SM SCT039 BKN050 OVC070 M03/M04 A2982 RMK AO2 T10301042,M
LOL,2024-03-07 11:19,-118.5701,40.0684,1192.43,37.00,34.00,88.78,40.00,8.00,0.00,29.84,M,10.00,M,BKN,BKN,OVC,M,2900.00,3700.00,10000.00,M,M,M,M,M,M,M,M,30.27,KLOL 071119Z AUTO 04008KT 10SM BKN029 BKN037 OVC100 03/01 A2984 RMK AO2 T00280011,M
BAM,2024-03-07 11:20,-116.8743,40.5990,1382.36,33.80,33.80,100.00,320.00,10.00,0.00,29.84,M,10.00,M,BKN,BKN,OVC,M,400.00,1100.00,3600.00,M,M,M,M,M,M,M,M,25.23,KBAM 071120Z AUTO 32010KT 10SM BKN004 BKN011 OVC036 01/01 A2984 RMK AO1,M
ELY,2024-03-07 11:21,-114.8453,39.2950,1909.00,31.00,29.00,92.19,20.00,8.00,T,29.78,M,10.00,M,OVC,M,M,M,1500.00,M,M,M,M,M,M,M,M,M,M,22.88,KELY 071121Z AUTO 02008KT 10SM OVC015 M01/M02 A2978 RMK AO2 SNE1059 P0000 T10061017,M
BVU,2024-03-07 11:35,-114.8611,35.9475,671.00,53.60,37.40,54.07,150.00,11.00,0.00,29.73,M,10.00,M,OVC,M,M,M,7500.00,M,M,M,M,M,M,M,M,M,M,53.60,KBVU 071135Z AUTO 15011KT 10SM OVC075 12/03 A2973 RMK AO2,M
CXP,2024-03-07 11:35,-119.7326,39.1923,1431.00,28.40,26.60,92.86,0.00,0.00,0.00,29.86,M,10.00,M,CLR,M,M,M,M,M,M,M,M,M,M,M,M,M,M,28.40,KCXP 071135Z AUTO 00000KT 10SM CLR M02/M03 A2986 RMK AO2,M
RTS,2024-03-07 11:35,-119.8764,39.6682,1539.00,28.40,24.80,86.18,350.00,4.00,0.00,29.86,M,10.00,M,FEW,M,M,M,9500.00,M,M,M,M,M,M,M,M,M,M,23.22,KRTS 071135Z AUTO 35004KT 10SM FEW095 M02/M04 A2986 RMK AO2,M
MEV,2024-03-07 11:35,-119.7500,38.9963,1441.42,26.60,24.80,92.80,0.00,0.00,0.00,29.85,M,10.00,M,SCT,BKN,BKN,M,3600.00,4300.00,4900.00,M,M,M,M,M,M,M,M,26.60,KMEV 071135Z AUTO 00000KT 10SM SCT036 BKN043 BKN049 M03/M04 A2985 RMK AO2,M
HTH,2024-03-07 11:35,-118.6315,38.5448,1282.89,37.40,28.40,69.67,290.00,5.00,0.00,29.84,M,10.00,M,OVC,M,M,M,7500.00,M,M,M,M,M,M,M,M,M,M,32.81,KHTH 071135Z AUTO 29005KT 10SM OVC075 03/M02 A2984 RMK A01,M
10U,2024-03-07 11:35,-116.1876,41.9532,1637.00,26.60,23.00,86.07,340.00,5.00,0.00,29.87,M,10.00,M,OVC,M,M,M,5000.00,M,M,M,M,M,M,M,M,M,M,19.98,K10U 071135Z AUTO 34005KT 10SM OVC050 M03/M05 A2987 RMK AO2,M
TMT,2024-03-07 11:35,-117.1971,39.4643,1749.34,26.20,24.00,91.25,290.00,3.00,0.00,29.83,M,10.00,M,SCT,BKN,OVC,M,4100.00,5000.00,6000.00,M,M,M,M,M,M,M,M,22.06,KTMT 071135Z AUTO 29003KT 10SM SCT041 BKN050 OVC060 M03/M04 A2983 RMK AO2 T10321044,M
BAM,2024-03-07 11:40,-116.8743,40.5990,1382.36,33.80,33.80,100.00,330.00,9.00,0.00,29.84,M,5.00,M,SCT,SCT,OVC,M,400.00,900.00,3900.00,M,M,M,M,M,M,M,M,25.75,KBAM 071140Z AUTO 33009KT 5SM SCT004 SCT009 OVC039 01/01 A2984 RMK AO1,M
P68,2024-03-07 11:53,-116.0056,39.6014,1993.00,30.00,29.00,96.00,230.00,5.00,0.00,29.78,1006.70,M,M,M,M,M,M,M,M,M,M,M,M,M,M,M,M,M,24.02,KP68 071153Z AUTO 23005KT M01/M02 A2978 RMK AO1 SLP067 60001 70001 T10111017 10022 21017 56008,M
DRA,2024-03-07 11:53,-116.0278,36.6206,1009.00,46.00,35.00,65.26,0.00,0.00,0.00,29.75,1005.00,10.00,M,CLR,M,M,M,M,M,M,M,M,M,M,M,M,M,M,46.00,KDRA 071153Z AUTO 00000KT 10SM CLR 08/02 A2975 RMK AO2 SLP050 T00780017 10111 20078 55006,M
ELY,2024-03-07 11:53,-114.8453,39.2950,1909.00,31.00,29.00,92.19,20.00,7.00,T,29.78,1006.60,10.00,M,OVC,M,M,M,2100.00,M,M,M,M,M,M,M,M,M,M,23.56,KELY 071153Z AUTO 02007KT 10SM OVC021 M01/M02 A2978 RMK AO2 SNE1059 SLP066 P0000 60001 70001 T10061017 10011 21006 56007,M
VGT,2024-03-07 11:53,-115.1933,36.2111,667.00,57.00,34.00,41.76,200.00,5.00,0.00,29.72,1007.00,10.00,M,BKN,OVC,M,M,8000.00,9500.00,M,M,M,M,M,M,M,M,M,57.00,KVGT 071153Z AUTO 20005KT 10SM BKN080 OVC095 14/01 A2972 RMK AO2 SLP070 T01390011 10161 20139 53002,M
LOL,2024-03-07 11:53,-118.5701,40.0684,1192.43,36.00,34.00,92.35,30.00,9.00,T,29.85,1010.70,10.00,M,BKN,OVC,M,M,2900.00,3700.00,M,M,M,M,M,M,M,M,M,28.49,KLOL 071153Z AUTO 03009KT 10SM BKN029 OVC037 02/01 A2985 RMK AO2 RAB36E45 SLP107 P0000 60000 T00220011 10061 20022 55001,M
EKO,2024-03-07 11:54,-115.7860,40.8242,1367.00,30.20,28.40,92.92,0.00,0.00,T,29.80,M,2.50,M,SCT,OVC,M,M,1900.00,2800.00,M,M,-SN BR,M,M,M,M,M,M,30.20,KEKO 071154Z AUTO 00000KT 2 1/2SM -SN BR SCT019 OVC028 M01/M02 A2980 RMK AO2 SNB16E25B44 P0000,M
BVU,2024-03-07 11:55,-114.8611,35.9475,671.00,53.60,37.40,54.07,130.00,7.00,0.00,29.74,M,10.00,M,SCT,BKN,OVC,M,5000.00,6500.00,7500.00,M,M,M,M,M,M,M,M,53.60,KBVU 071155Z AUTO 13007KT 10SM SCT050 BKN065 OVC075 12/03 A2974 RMK AO2,M
CXP,2024-03-07 11:55,-119.7326,39.1923,1431.00,28.40,24.80,86.18,0.00,0.00,0.00,29.86,M,10.00,M,CLR,M,M,M,M,M,M,M,M,M,M,M,M,M,M,28.40,KCXP 071155Z AUTO 00000KT 10SM CLR M02/M04 A2986 RMK AO2,M
INS,2024-03-07 11:55,-115.6733,36.5872,955.00,48.00,32.00,53.67,210.00,6.00,0.00,29.74,M,10.00,M,SCT,BKN,M,M,7500.00,12000.00,M,M,M,M,M,M,M,M,M,44.80,KINS 071155Z AUTO 21006KT 10SM SCT075 BKN120 09/00 A2974 RMK AO2 SLPNO T00880000 10134 20085 55003 $,M
RNO,2024-03-07 11:55,-119.7711,39.4839,1341.00,32.00,25.00,75.07,0.00,0.00,0.00,29.86,1010.60,10.00,M,FEW,FEW,M,M,6000.00,9500.00,M,M,M,M,M,M,M,M,M,32.00,KRNO 071155Z 00000KT 10SM FEW060 FEW095 00/M04 A2986 RMK AO2 SLP106 T00001039 10039 21006 55003,M
LSV,2024-03-07 11:55,-115.0343,36.2362,570.00,57.00,32.70,39.64,210.00,10.00,0.00,29.70,M,10.00,M,CLR,M,M,M,M,M,M,M,M,M,M,M,M,M,M,57.00,KLSV 071155Z AUTO 21010KT 10SM CLR 14/00 A2970 RMK AO2 SLPNO T01380004 10163 20138 53003 $,M
RTS,2024-03-07 11:55,-119.8764,39.6682,1539.00,28.40,23.00,79.92,350.00,3.00,0.00,29.86,M,10.00,M,BKN,M,M,M,9000.00,M,M,M,M,M,M,M,M,M,M,24.57,KRTS 071155Z AUTO 35003KT 10SM BKN090 M02/M05 A2986 RMK AO2,M
MEV,2024-03-07 11:55,-119.7500,38.9963,1441.42,24.80,23.00,92.74,130.00,6.00,0.00,29.85,M,10.00,M,FEW,BKN,BKN,M,3700.00,5000.00,6000.00,M,M,M,M,M,M,M,M,16.86,KMEV 071155Z AUTO 13006KT 10SM FEW037 BKN050 BKN060 M04/M05 A2985 RMK AO2,M
HTH,2024-03-07 11:55,-118.6315,38.5448,1282.89,35.60,28.40,74.80,290.00,4.00,0.00,29.85,M,10.00,M,BKN,BKN,OVC,M,5500.00,6500.00,7500.00,M,M,M,M,M,M,M,M,31.62,KHTH 071155Z AUTO 29004KT 10SM BKN055 BKN065 OVC075 02/M02 A2985 RMK A01,M
10U,2024-03-07 11:55,-116.1876,41.9532,1637.00,24.80,21.20,85.96,340.00,6.00,0.00,29.87,M,10.00,M,OVC,M,M,M,5000.00,M,M,M,M,M,M,M,M,M,M,16.86,K10U 071155Z AUTO 34006KT 10SM OVC050 M04/M06 A2987 RMK AO2,M
TMT,2024-03-07 11:55,-117.1971,39.4643,1749.34,26.00,23.70,90.86,270.00,3.00,0.00,29.83,M,10.00,M,SCT,BKN,OVC,M,4300.00,5000.00,6000.00,M,M,M,M,M,M,M,M,21.83,KTMT 071155Z AUTO 27003KT 10SM SCT043 BKN050 OVC060 M03/M05 A2983 RMK AO2 T10331046 11003 21042,M
EKO,2024-03-07 11:56,-115.7860,40.8242,1367.00,31.00,29.00,92.19,0.00,0.00,T,29.80,1009.50,1.75,M,SCT,OVC,M,M,1900.00,2500.00,M,M,-SN BR,M,M,T,M,M,M,31.00,KEKO 071156Z AUTO 00000KT 1 3/4SM -SN BR SCT019 OVC025 M01/M02 A2980 RMK AO2 SNB16E25B44 SLP095 P0000 60000 I6000 T10061017 10011 21011 55004,M
WMC,2024-03-07 11:56,-117.8072,40.9019,1315.00,34.00,30.00,85.11,330.00,5.00,T,29.86,1011.00,10.00,M,FEW,BKN,OVC,M,1500.00,2100.00,8000.00,M,M,M,M,M,M,M,M,28.77,KWMC 071156Z AUTO 33005KT 10SM FEW015 BKN021 OVC080 01/M01 A2986 RMK AO2 SNE1059B22E31 SLP110 P0000 60005 70009 T00111011 10028 20006 55000,M
NFL,2024-03-07 11:56,-118.7010,39.4166,1199.00,33.00,29.00,85.04,320.00,4.00,0.00,29.84,1008.00,10.00,M,SCT,M,M,M,4600.00,M,M,M,M,M,M,M,M,M,M,28.59,KNFL 071156Z AUTO 32004KT 10SM SCT046 01/M02 A2984 RMK AO2 SLP080 T00061017 10044 20000 57003,M
HND,2024-03-07 11:56,-115.1344,35.9729,742.79,54.00,33.00,44.74,0.00,0.00,0.00,29.75,1007.90,10.00,M,BKN,OVC,M,M,7000.00,8500.00,M,M,M,M,M,M,M,M,M,54.00,KHND 071156Z AUTO 00000KT 10SM BKN070 OVC085 12/01 A2975 RMK AO2 SLP079 T01220006 10144 20117 55002,M
TPH,2024-03-07 11:56,-117.0904,38.0505,1654.00,32.00,28.00,84.98,340.00,7.00,0.00,29.79,1007.70,10.00,M,OVC,M,M,M,7000.00,M,M,M,M,M,M,M,M,M,M,24.78,KTPH 071156Z AUTO 34007KT 10SM OVC070 00/M02 A2979 RMK AO2 SLP077 T00001022 10028 21006 55006,M
LAS,2024-03-07 11:56,-115.1634,36.0719,663.00,54.00,34.00,46.57,200.00,5.00,0.00,29.73,1005.60,10.00,M,OVC,M,M,M,8000.00,M,M,M,M,M,M,M,M,M,M,54.00,KLAS 071156Z 20005KT 10SM OVC080 12/01 A2973 RMK AO2 SLP056 VIRGA W-N T01220011 10144 20122 $,M
BAM,2024-03-07 12:00,-116.8743,40.5990,1382.36,33.80,32.00,93.03,340.00,8.00,0.00,29.85,M,3.00,M,BKN,BKN,OVC,M,400.00,1600.00,4100.00,M,M,M,M,M,M,M,M,26.33,KBAM 071200Z AUTO 34008KT 3SM BKN004 BKN016 OVC041 01/00 A2985 RMK AO1,M
EKO,2024-03-07 12:06,-115.7860,40.8242,1367.00,31.00,29.00,92.19,0.00,0.00,T,29.80,M,1.00,M,FEW,BKN,OVC,M,900.00,1400.00,1900.00,M,-SN BR,M,M,M,M,M,M,31.00,KEKO 071206Z AUTO 00000KT 1SM -SN BR FEW009 BKN014 OVC019 M01/M02 A2980 RMK AO2 P0000 T10061017,M
BVU,2024-03-07 12:15,-114.8611,35.9475,671.00,53.60,37.40,54.07,140.00,8.00,0.00,29.74,M,10.00,M,BKN,BKN,OVC,M,5000.00,6000.00,7000.00,M,M,M,M,M,M,M,M,53.60,KBVU 071215Z AUTO 14008KT 10SM BKN050 BKN060 OVC070 12/03 A2974 RMK AO2,M
CXP,2024-03-07 12:15,-119.7326,39.1923,1431.00,28.40,26.60,92.86,0.00,0.00,0.00,29.87,M,10.00,M,CLR,M,M,M,M,M,M,M,M,M,M,M,M,M,M,28.40,KCXP 071215Z AUTO 00000KT 10SM CLR M02/M03 A2987 RMK AO2,M
RTS,2024-03-07 12:15,-119.8764,39.6682,1539.00,26.60,23.00,86.07,330.00,6.00,0.00,29.86,M,10.00,M,BKN,OVC,M,M,6500.00,9000.00,M,M,M,M,M,M,M,M,M,19.03,KRTS 071215Z AUTO 33006KT 10SM BKN065 OVC090 M03/M05 A2986 RMK AO2,M
MEV,2024-03-07 12:15,-119.7500,38.9963,1441.42,24.80,23.00,92.74,120.00,5.00,0.00,29.86,M,10.00,M,BKN,BKN,M,M,5000.00,6000.00,M,M,M,M,M,M,M,M,M,17.84,KMEV 071215Z AUTO 12005KT 10SM BKN050 BKN060 M04/M05 A2986 RMK AO2,M
HTH,2024-03-07 12:15,-118.6315,38.5448,1282.89,37.40,28.40,69.67,350.00,4.00,0.00,29.85,M,10.00,M,BKN,M,M,M,5000.00,M,M,M,M,M,M,M,M,M,M,33.73,KHTH 071215Z AUTO 35004KT 10SM BKN050 03/M02 A2985 RMK A01,M
10U,2024-03-07 12:15,-116.1876,41.9532,1637.00,23.00,19.40,85.85,330.00,7.00,0.00,29.88,M,10.00,M,FEW,OVC,M,M,4100.00,5000.00,M,M,M,M,M,M,M,M,M,13.81,K10U 071215Z AUTO 33007KT 10SM FEW041 OVC050 M05/M07 A2988 RMK AO2,M
TMT,2024-03-07 12:15,-117.1971,39.4643,1749.34,26.40,24.30,91.64,0.00,0.00,0.00,29.83,M,10.00,M,OVC,M,M,M,4500.00,M,M,M,M,M,M,M,M,M,M,26.40,KTMT 071215Z AUTO 00000KT 10SM OVC045 M03/M04 A2983 RMK AO2 T10311043,M
ELY,2024-03-07 12:16,-114.8453,39.2950,1909.00,31.00,29.00,92.19,340.00,8.00,0.00,29.78,M,10.00,M,SCT,BKN,OVC,M,400.00,2100.00,2700.00,M,M,M,M,M,M,M,M,22.88,KELY 071216Z AUTO 34008KT 10SM SCT004 BKN021 OVC027 M01/M02 A2978 RMK AO2 T10061017,M
BAM,2024-03-07 12:20,-116.8743,40.5990,1382.36,33.80,33.80,100.00,330.00,7.00,0.00,29.85,M,3.00,M,BKN,OVC,M,M,400.00,1300.00,M,M,M,M,M,M,M,M,M,26.97,KBAM 071220Z AUTO 33007KT 3SM BKN004 OVC013 01/01 A2985 RMK AO1,M
LOL,2024-03-07 12:24,-118.5701,40.0684,1192.43,36.00,34.00,92.35,40.00,8.00,T,29.85,M,10.00,M,FEW,OVC,M,M,1700.00,3000.00,M,M,-RA,M,M,M,M,M,M,29.04,KLOL 071224Z AUTO 04008KT 10SM -RA FEW017 OVC030 02/01 A2985 RMK AO2 RAB1159 P0000 T00220011,M
ELY,2024-03-07 12:25,-114.8453,39.2950,1909.00,31.00,29.00,92.19,330.00,8.00,0.00,29.78,M,10.00,M,BKN,BKN,OVC,M,400.00,2100.00,2700.00,M,M,M,M,M,M,M,M,22.88,KELY 071225Z AUTO 33008KT 10SM BKN004 BKN021 OVC027 M01/M02 A2978 RMK AO2 T10061017,M
LOL,2024-03-07 12:32,-118.5701,40.0684,1192.43,35.00,33.00,92.32,50.00,9.00,0.01,29.85,M,9.00,M,FEW,BKN,OVC,M,1700.00,2600.00,7000.00,M,-RA,M,M,M,M,M,M,27.24,KLOL 071232Z AUTO 05009KT 9SM -RA FEW017 BKN026 OVC070 02/01 A2985 RMK AO2 RAB1159 P0001 T00170006,M
WMC,2024-03-07 12:33,-117.8072,40.9019,1315.00,33.00,30.00,88.58,320.00,5.00,0.00,29.87,M,10.00,M,SCT,OVC,M,M,1700.00,6000.00,M,M,M,M,M,M,M,M,M,27.58,KWMC 071233Z AUTO 32005KT 10SM SCT017 OVC060 01/M01 A2987 RMK AO2 T00061011,M
BVU,2024-03-07 12:35,-114.8611,35.9475,671.00,53.60,39.20,58.02,150.00,8.00,0.00,29.75,M,10.00,M,FEW,SCT,OVC,M,4700.00,6000.00,7000.00,M,M,M,M,M,M,M,M,53.60,KBVU 071235Z AUTO 15008KT 10SM FEW047 SCT060 OVC070 12/04 A2975 RMK AO2,M
CXP,2024-03-07 12:35,-119.7326,39.1923,1431.00,28.40,24.80,86.18,0.00,0.00,0.00,29.87,M,10.00,M,CLR,M,M,M,M,M,M,M,M,M,M,M,M,M,M,28.40,KCXP 071235Z AUTO 00000KT 10SM CLR M02/M04 A2987 RMK AO2,M
RTS,2024-03-07 12:35,-119.8764,39.6682,1539.00,26.60,23.00,86.07,340.00,5.00,0.00,29.87,M,10.00,M,FEW,OVC,M,M,4700.00,6500.00,M,M,M,M,M,M,M,M,M,19.98,KRTS 071235Z AUTO 34005KT 10SM FEW047 OVC065 M03/M05 A2987 RMK AO2,M
MEV,2024-03-07 12:35,-119.7500,38.9963,1441.42,24.80,23.00,92.74,110.00,5.00,0.00,29.86,M,10.00,M,FEW,SCT,BKN,M,3200.00,3800.00,5000.00,M,M,M,M,M,M,M,M,17.84,KMEV 071235Z AUTO 11005KT 10SM FEW032 SCT038 BKN050 M04/M05 A2986 RMK AO2,M
HTH,2024-03-07 12:35,-118.6315,38.5448,1282.89,35.60,30.20,80.51,310.00,6.00,0.00,29.86,M,10.00,M,CLR,M,M,M,M,M,M,M,M,M,M,M,M,M,M,29.87,KHTH 071235Z AUTO 31006KT 10SM CLR 02/M01 A2986 RMK A01,M
10U,2024-03-07 12:35,-116.1876,41.9532,1637.00,21.20,19.40,92.63,340.00,5.00,0.00,29.88,M,10.00,M,FEW,OVC,M,M,4100.00,5000.00,M,M,M,M,M,M,M,M,M,13.57,K10U 071235Z AUTO 34005KT 10SM FEW041 OVC050 M06/M07 A2988 RMK AO2,M
TMT,2024-03-07 12:35,-117.1971,39.4643,1749.34,27.00,24.80,91.28,0.00,0.00,0.00,29.83,M,10.00,M,BKN,OVC,M,M,4500.00,5500.00,M,M,M,M,M,M,M,M,M,27.00,KTMT 071235Z AUTO 00000KT 10SM BKN045 OVC055 M03/M04 A2983 RMK AO2 T10281040,M
BAM,2024-03-07 12:40,-116.8743,40.5990,1382.36,33.80,33.80,100.00,340.00,8.00,0.00,29.85,M,10.00,M,BKN,OVC,M,M,400.00,2300.00,M,M,M,M,M,M,M,M,M,26.33,KBAM 071240Z AUTO 34008KT 10SM BKN004 OVC023 01/01 A2985 RMK AO1,M
EKO,2024-03-07 12:45,-115.7860,40.8242,1367.00,32.00,30.00,92.22,M,4.00,0.04,29.81,M,1.00,M,SCT,BKN,OVC,M,500.00,900.00,1300.00,M,-SN BR,M,M,M,M,M,M,27.42,KEKO 071245Z AUTO VRB04KT 1SM -SN BR SCT005 BKN009 OVC013 00/M01 A2981 RMK AO2 P0004 T00001011,M
P68,2024-03-07 12:53,-116.0056,39.6014,1993.00,28.00,27.00,95.97,0.00,0.00,0.00,29.79,1007.70,M,M,M,M,M,M,M,M,M,M,M,M,M,M,M,M,M,28.00,KP68 071253Z AUTO 00000KT M02/M03 A2979 RMK AO1 SLP077 T10221028,M
DRA,2024-03-07 12:53,-116.0278,36.6206,1009.00,46.00,36.00,67.90,280.00,5.00,0.00,29.76,1005.50,10.00,M,OVC,M,M,M,8000.00,M,M,M,M,M,M,M,M,M,M,43.02,KDRA 071253Z AUTO 28005KT 10SM OVC080 08/02 A2976 RMK AO2 SLP055 T00780022,M
ELY,2024-03-07 12:53,-114.8453,39.2950,1909.00,30.00,28.00,92.15,330.00,7.00,0.00,29.79,1007.00,10.00,M,BKN,OVC,M,M,400.00,4600.00,M,M,M,M,M,M,M,M,M,22.34,KELY 071253Z AUTO 33007KT 10SM BKN004 OVC046 M01/M02 A2979 RMK AO2 SLP070 T10111022,M
VGT,2024-03-07 12:53,-115.1933,36.2111,667.00,55.00,35.00,46.73,230.00,6.00,0.00,29.73,1007.50,10.00,M,CLR,M,M,M,M,M,M,M,M,M,M,M,M,M,M,55.00,KVGT 071253Z AUTO 23006KT 10SM CLR 13/02 A2973 RMK AO2 SLP075 T01280017,M
LOL,2024-03-07 12:53,-118.5701,40.0684,1192.43,35.00,33.00,92.32,30.00,7.00,0.01,29.86,1011.20,10.00,M,FEW,OVC,M,M,2100.00,7500.00,M,M,M,M,M,M,M,M,M,28.44,KLOL 071253Z AUTO 03007KT 10SM FEW021 OVC075 02/01 A2986 RMK AO2 RAB1159E48 SLP112 P0001 T00170006,M
WMC,2024-03-07 12:54,-117.8072,40.9019,1315.00,33.80,30.20,86.49,350.00,4.00,0.00,29.87,M,10.00,M,FEW,OVC,M,M,900.00,6500.00,M,M,M,M,M,M,M,M,M,29.52,KWMC 071254Z AUTO 35004KT 10SM FEW009 OVC065 01/M01 A2987 RMK AO2,M
EKO,2024-03-07 12:54,-115.7860,40.8242,1367.00,33.80,30.20,86.49,30.00,5.05,M,29.81,M,0.75,M,VV ,M,M,M,698.00,M,M,M,-SN BR,M,M,M,M,M,M,28.48,SPECI KEKO 071254Z 03005KT 3/4SM -SN BR VV007 01/M01 A2981 RMK AO2 P0005 FIBI,M
BVU,2024-03-07 12:55,-114.8611,35.9475,671.00,51.80,39.20,61.99,160.00,10.00,0.00,29.75,M,10.00,M,SCT,BKN,OVC,M,4600.00,5500.00,6500.00,M,M,M,M,M,M,M,M,51.80,KBVU 071255Z AUTO 16010KT 10SM SCT046 BKN055 OVC065 11/04 A2975 RMK AO2,M
CXP,2024-03-07 12:55,-119.7326,39.1923,1431.00,26.60,24.80,92.80,0.00,0.00,0.00,29.88,M,10.00,M,CLR,M,M,M,M,M,M,M,M,M,M,M,M,M,M,26.60,KCXP 071255Z AUTO 00000KT 10SM CLR M03/M04 A2988 RMK AO2,M
INS,2024-03-07 12:55,-115.6733,36.5872,955.00,47.70,32.70,55.83,210.00,6.00,0.00,29.75,M,10.00,M,BKN,M,M,M,7500.00,M,M,M,M,M,M,M,M,M,M,44.44,KINS 071255Z AUTO 21006KT 10SM BKN075 09/00 A2975 RMK AO2 SLPNO T00870004 $,M
RNO,2024-03-07 12:55,-119.7711,39.4839,1341.00,30.00,25.00,81.40,210.00,3.00,0.00,29.87,1011.20,10.00,M,SCT,BKN,M,M,5500.00,9500.00,M,M,M,M,M,M,M,M,M,26.40,KRNO 071255Z 21003KT 10SM SCT055 BKN095 M01/M04 A2987 RMK AO2 SLP112 T10111039,M
RTS,2024-03-07 12:55,-119.8764,39.6682,1539.00,26.60,24.80,92.80,330.00,5.00,0.00,29.87,M,10.00,M,OVC,M,M,M,7000.00,M,M,M,M,M,M,M,M,M,M,19.98,KRTS 071255Z AUTO 33005KT 10SM OVC070 M03/M04 A2987 RMK AO2,M
MEV,2024-03-07 12:55,-119.7500,38.9963,1441.42,24.80,23.00,92.74,110.00,5.00,0.00,29.86,M,10.00,M,BKN,BKN,BKN,M,3800.00,4600.00,6000.00,M,M,M,M,M,M,M,M,17.84,KMEV 071255Z AUTO 11005KT 10SM BKN038 BKN046 BKN060 M04/M05 A2986 RMK AO2,M
HTH,2024-03-07 12:55,-118.6315,38.5448,1282.89,35.60,30.20,80.51,0.00,0.00,0.00,29.86,M,10.00,M,BKN,M,M,M,6500.00,M,M,M,M,M,M,M,M,M,M,35.60,KHTH 071255Z AUTO 00000KT 10SM BKN065 02/M01 A2986 RMK A01,M
10U,2024-03-07 12:55,-116.1876,41.9532,1637.00,21.20,19.40,92.63,330.00,6.00,0.00,29.89,M,10.00,M,OVC,M,M,M,5000.00,M,M,M,M,M,M,M,M,M,M,12.52,K10U 071255Z AUTO 33006KT 10SM OVC050 M06/M07 A2989 RMK AO2,M
TMT,2024-03-07 12:55,-117.1971,39.4643,1749.34,26.80,25.00,92.81,0.00,0.00,0.00,29.83,M,10.00,M,OVC,M,M,M,6500.00,M,M,M,M,M,M,M,M,M,M,26.80,KTMT 071255Z AUTO 00000KT 10SM OVC065 M03/M04 A2983 RMK AO2 T10291039,M
LSV,2024-03-07 12:55,-115.0343,36.2362,570.00,55.80,33.60,42.92,200.00,7.00,0.00,29.71,M,10.00,M,CLR,M,M,M,M,M,M,M,M,M,M,M,M,M,M,55.80,KLSV 071255Z AUTO 20007KT 10SM CLR 13/01 A2971 RMK AO2 SLPNO T01320009 $,M
EKO,2024-03-07 12:56,-115.7860,40.8242,1367.00,33.00,30.00,88.58,30.00,6.00,0.05,29.81,1009.90,0.75,M,FEW,OVC,M,M,400.00,800.00,M,M,-SN BR,M,M,M,M,M,M,26.73,KEKO 071256Z AUTO 03006KT 3/4SM -SN BR FEW004 OVC008 01/M01 A2981 RMK AO2 SLP099 P0005 T00061011,M
WMC,2024-03-07 12:56,-117.8072,40.9019,1315.00,33.00,30.00,88.58,360.00,4.00,0.00,29.87,1011.40,10.00,M,FEW,OVC,M,M,900.00,6000.00,M,M,M,M,M,M,M,M,M,28.59,KWMC 071256Z AUTO 36004KT 10SM FEW009 OVC060 01/M01 A2987 RMK AO2 SLP114 T00061011,M
NFL,2024-03-07 12:56,-118.7010,39.4166,1199.00,35.00,30.00,81.78,350.00,3.00,0.00,29.85,1008.40,10.00,M,OVC,M,M,M,5000.00,M,M,M,M,M,M,M,M,M,M,32.12,KNFL 071256Z AUTO 35003KT 10SM OVC050 02/M01 A2985 RMK AO2 SLP084 T00171011,M
HND,2024-03-07 12:56,-115.1344,35.9729,742.79,52.00,37.00,56.45,170.00,11.00,T,29.75,1008.20,10.00,M,FEW,OVC,M,M,7000.00,8500.00,M,M,M,M,M,M,M,M,M,52.00,KHND 071256Z AUTO 17011KT 10SM FEW070 OVC085 11/03 A2975 RMK AO2 RAB02E13 SLP082 P0000 T01110028,M
TPH,2024-03-07 12:56,-117.0904,38.0505,1654.00,29.00,26.00,88.38,360.00,6.00,0.00,29.79,1008.30,10.00,M,CLR,M,M,M,M,M,M,M,M,M,M,M,M,M,M,21.92,KTPH 071256Z AUTO 36006KT 10SM CLR M02/M03 A2979 RMK AO2 SLP083 T10171033,M
LAS,2024-03-07 12:56,-115.1634,36.0719,663.00,54.00,34.00,46.57,190.00,3.00,0.00,29.73,1005.80,10.00,M,OVC,M,M,M,9000.00,M,M,M,M,M,M,M,M,M,M,54.00,KLAS 071256Z 19003KT 10SM OVC090 12/01 A2973 RMK AO2 SLP058 T01220011 $,M
BAM,2024-03-07 13:00,-116.8743,40.5990,1382.36,33.80,32.00,93.03,340.00,4.00,0.00,29.86,M,10.00,M,SCT,SCT,OVC,M,400.00,800.00,2500.00,M,M,M,M,M,M,M,M,29.52,KBAM 071300Z AUTO 34004KT 10SM SCT004 SCT008 OVC025 01/00 A2986 RMK AO1,M
EKO,2024-03-07 13:03,-115.7860,40.8242,1367.00,33.00,30.00,88.58,50.00,7.00,0.01,29.81,M,1.00,M,FEW,OVC,M,M,400.00,800.00,M,M,-SN BR,M,M,M,M,M,M,26.00,KEKO 071303Z AUTO 05007KT 1SM -SN BR FEW004 OVC008 01/M01 A2981 RMK AO2 P0001 T00061011,M
ELY,2024-03-07 13:03,-114.8453,39.2950,1909.00,30.00,28.00,92.15,330.00,8.00,0.00,29.79,M,10.00,M,SCT,SCT,OVC,M,400.00,4400.00,5000.00,M,M,M,M,M,M,M,M,21.65,KELY 071303Z AUTO 33008KT 10SM SCT004 SCT044 OVC050 M01/M02 A2979 RMK AO2 T10111022,M
CXP,2024-03-07 13:10,-119.7326,39.1923,1431.00,28.40,26.60,92.86,0.00,0.00,0.00,29.88,M,10.00,M,BKN,M,M,M,3900.00,M,M,M,M,M,M,M,M,M,M,28.40,KCXP 071310Z AUTO 00000KT 10SM BKN039 M02/M03 A2988 RMK AO2,M
EKO,2024-03-07 13:14,-115.7860,40.8242,1367.00,32.00,30.00,92.22,80.00,6.00,0.02,29.81,M,1.50,M,OVC,M,M,M,1300.00,M,M,M,-SN BR,M,M,M,M,M,M,25.53,KEKO 071314Z AUTO 08006KT 1 1/2SM -SN BR OVC013 00/M01 A2981 RMK AO2 P0002 T00001011,M
BVU,2024-03-07 13:15,-114.8611,35.9475,671.00,51.80,39.20,61.99,160.00,8.00,0.00,29.76,M,10.00,M,BKN,OVC,M,M,4600.00,5500.00,M,M,M,M,M,M,M,M,M,51.80,KBVU 071315Z AUTO 16008KT 10SM BKN046 OVC055 11/04 A2976 RMK AO2,M
RTS,2024-03-07 13:15,-119.8764,39.6682,1539.00,26.60,24.80,92.80,340.00,4.00,0.00,29.87,M,10.00,M,FEW,FEW,OVC,M,4200.00,5500.00,6500.00,M,M,M,M,M,M,M,M,21.11,KRTS 071315Z AUTO 34004KT 10SM FEW042 FEW055 OVC065 M03/M04 A2987 RMK AO2,M
MEV,2024-03-07 13:15,-119.7500,38.9963,1441.42,24.80,23.00,92.74,0.00,0.00,0.00,29.87,M,10.00,M,BKN,OVC,M,M,3900.00,5000.00,M,M,M,M,M,M,M,M,M,24.80,KMEV 071315Z AUTO 00000KT 10SM BKN039 OVC050 M04/M05 A2987 RMK AO2,M
HTH,2024-03-07 13:15,-118.6315,38.5448,1282.89,35.60,30.20,80.51,300.00,4.00,0.00,29.86,M,10.00,M,OVC,M,M,M,6500.00,M,M,M,M,M,M,M,M,M,M,31.62,KHTH 071315Z AUTO 30004KT 10SM OVC065 02/M01 A2986 RMK A01,M
10U,2024-03-07 13:15,-116.1876,41.9532,1637.00,19.40,17.60,92.57,330.00,5.00,0.00,29.89,M,10.00,M,SCT,SCT,M,M,5000.00,5500.00,M,M,M,M,M,M,M,M,M,11.43,K10U 071315Z AUTO 33005KT 10SM SCT050 SCT055 M07/M08 A2989 RMK AO2,M
TMT,2024-03-07 13:15,-117.1971,39.4643,1749.34,27.00,24.60,90.52,0.00,0.00,0.00,29.84,M,10.00,M,SCT,OVC,M,M,5000.00,6500.00,M,M,M,M,M,M,M,M,M,27.00,KTMT 071315Z AUTO 00000KT 10SM SCT050 OVC065 M03/M04 A2984 RMK AO2 T10281041,M
EKO,2024-03-07 13:18,-115.7860,40.8242,1367.00,32.00,30.00,92.22,70.00,8.00,0.02,29.81,M,2.00,M,OVC,M,M,M,1500.00,M,M,M,-SN BR,M,M,M,M,M,M,24.11,KEKO 071318Z AUTO 07008KT 2SM -SN BR OVC015 00/M01 A2981 RMK AO2 P0002 T00001011,M
BAM,2024-03-07 13:20,-116.8743,40.5990,1382.36,33.80,32.00,93.03,320.00,5.00,0.00,29.87,M,10.00,M,OVC,M,M,M,2500.00,M,M,M,M,M,M,M,M,M,M,28.53,KBAM 071320Z AUTO 32005KT 10SM OVC025 01/00 A2987 RMK AO1,M
EKO,2024-03-07 13:28,-115.7860,40.8242,1367.00,31.00,30.00,96.02,60.00,5.00,0.02,29.82,M,7.00,M,BKN,BKN,OVC,M,1500.00,3600.00,4800.00,M,-SN,M,M,M,M,M,M,25.21,KEKO 071328Z AUTO 06005KT 7SM -SN BKN015 BKN036 OVC048 M01/M01 A2982 RMK AO2 P0002 T10061011,M
BVU,2024-03-07 13:35,-114.8611,35.9475,671.00,51.80,41.00,66.48,160.00,8.00,0.00,29.76,M,10.00,M,SCT,OVC,M,M,4600.00,5500.00,M,M,M,M,M,M,M,M,M,51.80,KBVU 071335Z AUTO 16008KT 10SM SCT046 OVC055 11/05 A2976 RMK AO2,M
CXP,2024-03-07 13:35,-119.7326,39.1923,1431.00,28.40,26.60,92.86,0.00,0.00,0.00,29.88,M,10.00,M,OVC,M,M,M,3900.00,M,M,M,M,M,M,M,M,M,M,28.40,KCXP 071335Z AUTO 00000KT 10SM OVC039 M02/M03 A2988 RMK AO2,M
RTS,2024-03-07 13:35,-119.8764,39.6682,1539.00,28.40,24.80,86.18,20.00,3.00,0.00,29.87,M,10.00,M,FEW,BKN,OVC,M,3100.00,4600.00,6000.00,M,M,M,M,M,M,M,M,24.57,KRTS 071335Z AUTO 02003KT 10SM FEW031 BKN046 OVC060 M02/M04 A2987 RMK AO2,M
MEV,2024-03-07 13:35,-119.7500,38.9963,1441.42,24.80,23.00,92.74,0.00,0.00,0.00,29.87,M,10.00,M,SCT,OVC,M,M,3900.00,5000.00,M,M,M,M,M,M,M,M,M,24.80,KMEV 071335Z AUTO 00000KT 10SM SCT039 OVC050 M04/M05 A2987 RMK AO2,M
HTH,2024-03-07 13:35,-118.6315,38.5448,1282.89,35.60,30.20,80.51,290.00,3.00,0.00,29.87,M,10.00,M,BKN,OVC,M,M,4900.00,7000.00,M,M,M,M,M,M,M,M,M,32.80,KHTH 071335Z AUTO 29003KT 10SM BKN049 OVC070 02/M01 A2987 RMK A01,M
10U,2024-03-07 13:35,-116.1876,41.9532,1637.00,15.80,14.00,92.44,310.00,4.00,0.00,29.90,M,10.00,M,CLR,M,M,M,M,M,M,M,M,M,M,M,M,M,M,8.50,K10U 071335Z AUTO 31004KT 10SM CLR M09/M10 A2990 RMK AO2,M
TMT,2024-03-07 13:35,-117.1971,39.4643,1749.34,27.50,25.00,90.17,0.00,0.00,0.00,29.84,M,10.00,M,OVC,M,M,M,6500.00,M,M,M,M,M,M,M,M,M,M,27.50,KTMT 071335Z AUTO 00000KT 10SM OVC065 M02/M04 A2984 RMK AO2 T10251039,M
EKO,2024-03-07 13:36,-115.7860,40.8242,1367.00,31.00,30.00,96.02,60.00,3.00,0.02,29.82,M,9.00,M,SCT,BKN,OVC,M,1900.00,3600.00,4800.00,M,M,M,M,M,M,M,M,27.55,KEKO 071336Z AUTO 06003KT 9SM SCT019 BKN036 OVC048 M01/M01 A2982 RMK AO2 SNE33 P0002 T10061011,M
BAM,2024-03-07 13:40,-116.8743,40.5990,1382.36,33.80,32.00,93.03,330.00,5.00,0.00,29.87,M,10.00,M,OVC,M,M,M,2500.00,M,M,M,M,M,M,M,M,M,M,28.53,KBAM 071340Z AUTO 33005KT 10SM OVC025 01/00 A2987 RMK AO1,M
LOL,2024-03-07 13:42,-118.5701,40.0684,1192.43,35.00,33.00,92.32,40.00,6.00,0.00,29.87,M,10.00,M,BKN,BKN,OVC,M,2700.00,5000.00,8000.00,M,M,M,M,M,M,M,M,29.14,KLOL 071342Z AUTO 04006KT 10SM BKN027 BKN050 OVC080 02/01 A2987 RMK AO2 T00170006,M
P68,2024-03-07 13:53,-116.0056,39.6014,1993.00,27.00,25.00,92.05,190.00,4.00,0.00,29.81,1008.70,M,M,M,M,M,M,M,M,M,M,M,M,M,M,M,M,M,21.58,KP68 071353Z AUTO 19004KT M03/M04 A2981 RMK AO1 SLP087 T10281039,M
DRA,2024-03-07 13:53,-116.0278,36.6206,1009.00,45.00,36.00,70.53,330.00,5.00,0.00,29.77,1006.10,10.00,M,OVC,M,M,M,9000.00,M,M,M,M,M,M,M,M,M,M,41.83,KDRA 071353Z AUTO 33005KT 10SM OVC090 07/02 A2977 RMK AO2 SLP061 T00720022,M
ELY,2024-03-07 13:53,-114.8453,39.2950,1909.00,30.00,28.00,92.15,300.00,5.00,0.00,29.80,1008.20,10.00,M,OVC,M,M,M,3300.00,M,M,M,M,M,M,M,M,M,M,24.02,KELY 071353Z AUTO 30005KT 10SM OVC033 M01/M02 A2980 RMK AO2 SLP082 T10111022,M
VGT,2024-03-07 13:53,-115.1933,36.2111,667.00,54.00,35.00,48.46,0.00,0.00,0.00,29.75,1008.20,10.00,M,BKN,M,M,M,11000.00,M,M,M,M,M,M,M,M,M,M,54.00,KVGT 071353Z 00000KT 10SM BKN110 12/02 A2975 RMK AO2 SLP082 T01220017,M
LOL,2024-03-07 13:53,-118.5701,40.0684,1192.43,35.00,33.00,92.32,40.00,6.00,0.00,29.87,1011.90,10.00,M,OVC,M,M,M,2900.00,M,M,M,M,M,M,M,M,M,M,29.14,KLOL 071353Z AUTO 04006KT 10SM OVC029 02/01 A2987 RMK AO2 SLP119 T00170006,M
BVU,2024-03-07 13:55,-114.8611,35.9475,671.00,50.00,41.00,71.07,170.00,6.00,0.00,29.76,M,10.00,11.00,BKN,BKN,OVC,M,5000.00,6000.00,7500.00,M,M,M,M,M,M,M,M,50.00,KBVU 071355Z AUTO 17006G11KT 10SM BKN050 BKN060 OVC075 10/05 A2976 RMK AO2,M
CXP,2024-03-07 13:55,-119.7326,39.1923,1431.00,28.40,24.80,86.18,0.00,0.00,0.00,29.89,M,10.00,M,SCT,BKN,OVC,M,3900.00,5500.00,8000.00,M,M,M,M,M,M,M,M,28.40,KCXP 071355Z AUTO 00000KT 10SM SCT039 BKN055 OVC080 M02/M04 A2989 RMK AO2,M
INS,2024-03-07 13:55,-115.6733,36.5872,955.00,47.00,33.00,58.01,250.00,4.00,0.00,29.77,1005.90,10.00,M,OVC,M,M,M,8500.00,M,M,M,M,M,M,M,M,M,M,44.94,KINS 071355Z AUTO 25004KT 10SM OVC085 08/01 A2977 RMK AO2 SLP059 T00830005 $,M
RNO,2024-03-07 13:55,-119.7711,39.4839,1341.00,31.00,25.00,78.16,0.00,0.00,0.00,29.88,1011.60,10.00,M,FEW,BKN,M,M,5500.00,9500.00,M,M,M,M,M,M,M,M,M,31.00,KRNO 071355Z 00000KT 10SM FEW055 BKN095 M01/M04 A2988 RMK AO2 SLP116 T10061039,M
RTS,2024-03-07 13:55,-119.8764,39.6682,1539.00,28.40,26.60,92.86,0.00,0.00,0.00,29.88,M,10.00,M,BKN,BKN,OVC,M,2600.00,4000.00,6000.00,M,M,M,M,M,M,M,M,28.40,KRTS 071355Z AUTO 00000KT 10SM BKN026 BKN040 OVC060 M02/M03 A2988 RMK AO2,M
MEV,2024-03-07 13:55,-119.7500,38.9963,1441.42,24.80,23.00,92.74,0.00,0.00,0.00,29.87,M,10.00,M,BKN,OVC,M,M,4000.00,5500.00,M,M,M,M,M,M,M,M,M,24.80,KMEV 071355Z AUTO 00000KT 10SM BKN040 OVC055 M04/M05 A2987 RMK AO2,M
HTH,2024-03-07 13:55,-118.6315,38.5448,1282.89,35.60,30.20,80.51,240.00,4.00,0.00,29.87,M,10.00,M,OVC,M,M,M,5000.00,M,M,M,M,M,M,M,M,M,M,31.62,KHTH 071355Z AUTO 24004KT 10SM OVC050 02/M01 A2987 RMK A01,M
TMT,2024-03-07 13:55,-117.1971,39.4643,1749.34,28.00,24.80,87.60,0.00,0.00,0.00,29.84,M,10.00,M,OVC,M,M,M,7500.00,M,M,M,M,M,M,M,M,M,M,28.00,KTMT 071355Z AUTO 00000KT 10SM OVC075 M02/M04 A2984 RMK AO2 T10221040,M
10U,2024-03-07 13:55,-116.1876,41.9532,1637.00,15.80,14.00,92.44,350.00,4.00,0.00,29.89,M,10.00,M,CLR,M,M,M,M,M,M,M,M,M,M,M,M,M,M,8.50,K10U 071355Z AUTO 35004KT 10SM CLR M09/M10 A2989 RMK AO2,M
LSV,2024-03-07 13:55,-115.0343,36.2362,570.00,55.40,36.50,48.87,180.00,11.00,0.00,29.72,1005.30,10.00,M,CLR,M,M,M,M,M,M,M,M,M,M,M,M,M,M,55.40,KLSV 071355Z AUTO 18011KT 10SM CLR 13/03 A2972 RMK AO2 SLP053 T01300025 $,M
EKO,2024-03-07 13:56,-115.7860,40.8242,1367.00,32.00,30.00,92.22,60.00,4.00,0.02,29.83,1010.70,10.00,M,BKN,OVC,M,M,3800.00,4900.00,M,M,M,M,M,M,M,M,M,27.42,KEKO 071356Z AUTO 06004KT 10SM BKN038 OVC049 00/M01 A2983 RMK AO2 SNE33 SLP107 P0002 T00001011,M
WMC,2024-03-07 13:56,-117.8072,40.9019,1315.00,32.00,28.00,84.98,10.00,7.00,0.00,29.88,1012.30,10.00,M,SCT,BKN,M,M,7500.00,9000.00,M,M,M,M,M,M,M,M,M,24.78,KWMC 071356Z AUTO 01007KT 10SM SCT075 BKN090 00/M02 A2988 RMK AO2 SLP123 T00001022,M
NFL,2024-03-07 13:56,-118.7010,39.4166,1199.00,36.00,32.00,85.23,310.00,3.00,0.00,29.86,1008.80,10.00,M,BKN,OVC,M,M,4000.00,5000.00,M,M,M,M,M,M,M,M,M,33.26,KNFL 071356Z AUTO 31003KT 10SM BKN040 OVC050 02/00 A2986 RMK AO2 SLP088 T00220000,M
HND,2024-03-07 13:56,-115.1344,35.9729,742.79,50.00,38.00,63.23,190.00,8.00,0.00,29.77,1009.10,10.00,M,OVC,M,M,M,8500.00,M,M,M,M,M,M,M,M,M,M,50.00,KHND 071356Z AUTO 19008KT 10SM OVC085 10/03 A2977 RMK AO2 SLP091 T01000033,M
TPH,2024-03-07 13:56,-117.0904,38.0505,1654.00,29.00,26.00,88.38,360.00,9.00,0.00,29.80,1009.10,10.00,M,CLR,M,M,M,M,M,M,M,M,M,M,M,M,M,M,19.78,KTPH 071356Z AUTO 36009KT 10SM CLR M02/M03 A2980 RMK AO2 SLP091 T10171033,M
LAS,2024-03-07 13:56,-115.1634,36.0719,663.00,52.00,37.00,56.45,160.00,4.00,0.00,29.75,1006.70,10.00,M,FEW,OVC,M,M,7500.00,10000.00,M,M,M,M,M,M,M,M,M,52.00,KLAS 071356Z 16004KT 10SM FEW075 OVC100 11/03 A2975 RMK AO2 SLP067 VIRGA NE AND SE T01110028 $,M
BAM,2024-03-07 14:00,-116.8743,40.5990,1382.36,33.80,32.00,93.03,360.00,3.00,0.00,29.88,M,10.00,M,OVC,M,M,M,2500.00,M,M,M,M,M,M,M,M,M,M,30.75,KBAM 071400Z AUTO 36003KT 10SM OVC025 01/00 A2988 RMK AO1,M
BVU,2024-03-07 14:15,-114.8611,35.9475,671.00,50.00,41.00,71.07,130.00,6.00,0.00,29.77,M,10.00,M,FEW,SCT,OVC,M,5000.00,7500.00,9000.00,M,M,M,M,M,M,M,M,50.00,KBVU 071415Z AUTO 13006KT 10SM FEW050 SCT075 OVC090 10/05 A2977 RMK AO2,M
CXP,2024-03-07 14:15,-119.7326,39.1923,1431.00,28.40,26.60,92.86,0.00,0.00,0.00,29.89,M,10.00,M,BKN,BKN,OVC,M,4000.00,5500.00,8000.00,M,M,M,M,M,M,M,M,28.40,KCXP 071415Z AUTO 00000KT 10SM BKN040 BKN055 OVC080 M02/M03 A2989 RMK AO2,M
RTS,2024-03-07 14:15,-119.8764,39.6682,1539.00,28.40,26.60,92.86,0.00,0.00,0.00,29.88,M,10.00,M,OVC,M,M,M,2500.00,M,M,M,M,M,M,M,M,M,M,28.40,KRTS 071415Z AUTO 00000KT 10SM OVC025 M02/M03 A2988 RMK AO2,M
MEV,2024-03-07 14:15,-119.7500,38.9963,1441.42,24.80,23.00,92.74,0.00,0.00,0.00,29.88,M,10.00,M,FEW,BKN,M,M,4100.00,6000.00,M,M,M,M,M,M,M,M,M,24.80,KMEV 071415Z AUTO 00000KT 10SM FEW041 BKN060 M04/M05 A2988 RMK AO2,M
HTH,2024-03-07 14:15,-118.6315,38.5448,1282.89,37.40,30.20,74.98,230.00,5.00,0.00,29.87,M,10.00,M,OVC,M,M,M,5000.00,M,M,M,M,M,M,M,M,M,M,32.81,KHTH 071415Z AUTO 23005KT 10SM OVC050 03/M01 A2987 RMK A01,M
10U,2024-03-07 14:15,-116.1876,41.9532,1637.00,14.00,12.20,92.38,10.00,4.00,0.00,29.90,M,10.00,M,SCT,M,M,M,400.00,M,M,M,M,M,M,M,M,M,M,6.40,K10U 071415Z AUTO 01004KT 10SM SCT004 M10/M11 A2990 RMK AO2,M
TMT,2024-03-07 14:15,-117.1971,39.4643,1749.34,28.40,25.50,88.72,0.00,0.00,0.00,29.85,M,10.00,M,SCT,BKN,OVC,M,1600.00,5000.00,7500.00,M,M,M,M,M,M,M,M,28.40,KTMT 071415Z AUTO 00000KT 10SM SCT016 BKN050 OVC075 M02/M04 A2985 RMK AO2 T10201036,M
BAM,2024-03-07 14:20,-116.8743,40.5990,1382.36,33.80,32.00,93.03,340.00,6.00,0.00,29.89,M,10.00,M,OVC,M,M,M,2500.00,M,M,M,M,M,M,M,M,M,M,27.70,KBAM 071420Z AUTO 34006KT 10SM OVC025 01/00 A2989 RMK AO1,M
LOL,2024-03-07 14:21,-118.5701,40.0684,1192.43,35.00,33.00,92.32,10.00,7.00,0.00,29.88,M,10.00,M,SCT,BKN,OVC,M,3100.00,4500.00,5500.00,M,M,M,M,M,M,M,M,28.44,KLOL 071421Z AUTO 01007KT 10SM SCT031 BKN045 OVC055 02/01 A2988 RMK AO2 T00170006,M
ELY,2024-03-07 14:22,-114.8453,39.2950,1909.00,30.00,29.00,96.00,310.00,4.00,T,29.80,M,1.75,M,FEW,FEW,OVC,M,1500.00,2400.00,3500.00,M,-SN BR,M,M,M,M,M,M,25.08,KELY 071422Z AUTO 31004KT 1 3/4SM -SN BR FEW015 FEW024 OVC035 M01/M02 A2980 RMK AO2 SNB11 P0000 T10111017,M
ELY,2024-03-07 14:28,-114.8453,39.2950,1909.00,30.00,29.00,96.00,330.00,4.00,T,29.80,M,1.25,M,FEW,BKN,OVC,M,1600.00,2800.00,3600.00,M,-SN BR,M,M,M,M,M,M,25.08,KELY 071428Z AUTO 33004KT 1 1/4SM -SN BR FEW016 BKN028 OVC036 M01/M02 A2980 RMK AO2 SNB11 P0000 T10111017,M
BVU,2024-03-07 14:35,-114.8611,35.9475,671.00,50.00,41.00,71.07,M,M,0.00,29.78,M,10.00,M,FEW,BKN,OVC,M,6500.00,8000.00,9000.00,M,M,M,M,M,M,M,M,50.00,KBVU 071435Z AUTO 6.70833307KT 10SM FEW065 BKN080 OVC090 10/05 A2978 RMK AO2,M
CXP,2024-03-07 14:35,-119.7326,39.1923,1431.00,30.20,26.60,86.28,0.00,0.00,0.00,29.90,M,10.00,M,OVC,M,M,M,4000.00,M,M,M,M,M,M,M,M,M,M,30.20,KCXP 071435Z AUTO 00000KT 10SM OVC040 M01/M03 A2990 RMK AO2,M
RTS,2024-03-07 14:35,-119.8764,39.6682,1539.00,30.20,26.60,86.28,0.00,0.00,0.00,29.89,M,10.00,M,OVC,M,M,M,2800.00,M,M,M,M,M,M,M,M,M,M,30.20,KRTS 071435Z AUTO 00000KT 10SM OVC028 M01/M03 A2989 RMK AO2,M
MEV,2024-03-07 14:35,-119.7500,38.9963,1441.42,24.80,23.00,92.74,0.00,0.00,0.00,29.88,M,10.00,M,BKN,BKN,M,M,3900.00,6000.00,M,M,M,M,M,M,M,M,M,24.80,KMEV 071435Z AUTO 00000KT 10SM BKN039 BKN060 M04/M05 A2988 RMK AO2,M
HTH,2024-03-07 14:35,-118.6315,38.5448,1282.89,37.40,30.20,74.98,0.00,0.00,0.00,29.88,M,10.00,M,OVC,M,M,M,4800.00,M,M,M,M,M,M,M,M,M,M,37.40,KHTH 071435Z AUTO 00000KT 10SM OVC048 03/M01 A2988 RMK A01,M
10U,2024-03-07 14:35,-116.1876,41.9532,1637.00,12.20,10.40,92.32,0.00,0.00,0.00,29.91,M,10.00,M,BKN,M,M,M,400.00,M,M,M,M,M,M,M,M,M,M,12.20,K10U 071435Z AUTO 00000KT 10SM BKN004 M11/M12 A2991 RMK AO2,M
TMT,2024-03-07 14:35,-117.1971,39.4643,1749.34,28.40,26.00,90.58,0.00,0.00,0.00,29.86,M,10.00,M,SCT,BKN,OVC,M,1600.00,4400.00,5000.00,M,M,M,M,M,M,M,M,28.40,KTMT 071435Z AUTO 00000KT 10SM SCT016 BKN044 OVC050 M02/M03 A2986 RMK AO2 T10201033,M
BAM,2024-03-07 14:40,-116.8743,40.5990,1382.36,33.80,32.00,93.03,350.00,5.00,0.00,29.89,M,10.00,M,OVC,M,M,M,2500.00,M,M,M,M,M,M,M,M,M,M,28.53,KBAM 071440Z AUTO 35005KT 10SM OVC025 01/00 A2989 RMK AO1,M
NFL,2024-03-07 14:42,-118.7010,39.4166,1199.00,37.00,33.00,85.29,0.00,0.00,0.00,29.88,M,10.00,M,BKN,OVC,M,M,3700.00,7500.00,M,M,M,M,M,M,M,M,M,37.00,KNFL 071442Z 00000KT 10SM BKN037 OVC075 03/01 A2988 RMK AO2 T00280006,M
P68,2024-03-07 14:53,-116.0056,39.6014,1993.00,28.00,26.00,92.08,190.00,4.00,0.00,29.82,1009.20,M,M,M,M,M,M,M,M,M,M,M,M,M,M,M,M,M,22.75,KP68 071453Z AUTO 19004KT M02/M03 A2982 RMK AO1 SLP092 T10221033 53010,M
DRA,2024-03-07 14:53,-116.0278,36.6206,1009.00,46.00,36.00,67.90,360.00,3.00,0.00,29.79,1006.70,10.00,M,OVC,M,M,M,9500.00,M,M,M,M,M,M,M,M,M,M,44.69,KDRA 071453Z AUTO 36003KT 10SM OVC095 08/02 A2979 RMK AO2 SLP067 T00780022 53012,M
ELY,2024-03-07 14:53,-114.8453,39.2950,1909.00,31.00,29.00,92.19,0.00,0.00,T,29.81,1008.60,1.00,M,OVC,M,M,M,2200.00,M,M,M,-SN BR,M,M,M,M,M,M,31.00,KELY 071453Z AUTO 00000KT 1SM -SN BR OVC022 M01/M02 A2981 RMK AO2 SNB11 SLP086 P0000 60000 T10061017 53008,M
VGT,2024-03-07 14:53,-115.1933,36.2111,667.00,54.00,35.00,48.46,70.00,3.00,0.00,29.77,1009.00,10.00,M,BKN,OVC,M,M,9500.00,11000.00,M,M,M,M,M,M,M,M,M,54.00,KVGT 071453Z 07003KT 10SM BKN095 OVC110 12/02 A2977 RMK AO2 SLP090 T01220017 53016,M
LOL,2024-03-07 14:53,-118.5701,40.0684,1192.43,35.00,33.00,92.32,20.00,8.00,0.00,29.89,1012.80,10.00,M,SCT,OVC,M,M,3300.00,4700.00,M,M,M,M,M,M,M,M,M,27.81,KLOL 071453Z AUTO 02008KT 10SM SCT033 OVC047 02/01 A2989 RMK AO2 SLP128 60001 T00170006 53013,M
BVU,2024-03-07 14:55,-114.8611,35.9475,671.00,50.00,41.00,71.07,230.00,3.00,0.00,29.79,M,10.00,M,BKN,OVC,M,M,6000.00,8000.00,M,M,M,M,M,M,M,M,M,50.00,KBVU 071455Z AUTO 23003KT 10SM BKN060 OVC080 10/05 A2979 RMK AO2,M
CXP,2024-03-07 14:55,-119.7326,39.1923,1431.00,30.20,26.60,86.28,0.00,0.00,0.00,29.91,M,10.00,M,OVC,M,M,M,4100.00,M,M,M,M,M,M,M,M,M,M,30.20,KCXP 071455Z AUTO 00000KT 10SM OVC041 M01/M03 A2991 RMK AO2,M
INS,2024-03-07 14:55,-115.6733,36.5872,955.00,49.30,34.00,55.39,220.00,6.00,0.00,29.79,1006.60,10.00,M,OVC,M,M,M,8500.00,M,M,M,M,M,M,M,M,M,M,46.37,KINS 071455Z AUTO 22006KT 10SM OVC085 10/01 A2979 RMK AO2 SLP066 T00960012 52013 $,M
RNO,2024-03-07 14:55,-119.7711,39.4839,1341.00,33.00,26.00,75.17,0.00,0.00,0.00,29.90,1012.10,10.00,M,FEW,BKN,BKN,M,3000.00,5500.00,9000.00,M,M,M,M,M,M,M,M,33.00,KRNO 071455Z 00000KT 10SM FEW030 BKN055 BKN090 01/M03 A2990 RMK AO2 SLP121 T00061033 53012,M
RTS,2024-03-07 14:55,-119.8764,39.6682,1539.00,30.20,28.40,92.92,0.00,0.00,0.00,29.90,M,7.00,M,BKN,OVC,M,M,3100.00,5500.00,M,M,-SN,M,M,M,M,M,M,30.20,KRTS 071455Z AUTO 00000KT 7SM -SN BKN031 OVC055 M01/M02 A2990 RMK AO2,M
MEV,2024-03-07 14:55,-119.7500,38.9963,1441.42,26.60,26.60,100.00,0.00,0.00,0.00,29.89,M,10.00,M,OVC,M,M,M,4000.00,M,M,M,M,M,M,M,M,M,M,26.60,KMEV 071455Z AUTO 00000KT 10SM OVC040 M03/M03 A2989 RMK AO2,M
HTH,2024-03-07 14:55,-118.6315,38.5448,1282.89,37.40,32.00,80.65,320.00,3.00,0.00,29.89,M,10.00,M,FEW,OVC,M,M,4000.00,5000.00,M,M,M,M,M,M,M,M,M,34.86,KHTH 071455Z AUTO 32003KT 10SM FEW040 OVC050 03/M00 A2989 RMK A01,M
10U,2024-03-07 14:55,-116.1876,41.9532,1637.00,14.00,12.20,92.38,0.00,0.00,0.00,29.92,M,10.00,M,OVC,M,M,M,400.00,M,M,M,M,M,M,M,M,M,M,14.00,K10U 071455Z AUTO 00000KT 10SM OVC004 M10/M11 A2992 RMK AO2,M
TMT,2024-03-07 14:55,-117.1971,39.4643,1749.34,29.00,26.40,89.86,0.00,0.00,0.00,29.86,M,10.00,M,SCT,OVC,M,M,1400.00,2500.00,M,M,M,M,M,M,M,M,M,29.00,KTMT 071455Z AUTO 00000KT 10SM SCT014 OVC025 M02/M03 A2986 RMK AO2 T10171031,M
LSV,2024-03-07 14:55,-115.0343,36.2362,570.00,55.40,36.50,48.87,190.00,11.00,0.00,29.75,M,10.00,M,CLR,M,M,M,M,M,M,M,M,M,M,M,M,M,M,55.40,KLSV 071455Z AUTO 19011KT 10SM CLR 13/03 A2975 RMK AO2 SLPNO T01300025 52016 $,M
EKO,2024-03-07 14:56,-115.7860,40.8242,1367.00,31.00,30.00,96.02,0.00,0.00,0.00,29.86,1012.10,10.00,M,FEW,OVC,M,M,4100.00,5000.00,M,M,M,M,M,M,M,M,M,31.00,KEKO 071456Z AUTO 00000KT 10SM FEW041 OVC050 M01/M01 A2986 RMK AO2 SLP121 60007 T10061011 53017 $,M
WMC,2024-03-07 14:56,-117.8072,40.9019,1315.00,31.00,27.00,84.92,350.00,4.00,0.00,29.91,1013.40,10.00,M,CLR,M,M,M,M,M,M,M,M,M,M,M,M,M,M,26.25,KWMC 071456Z AUTO 35004KT 10SM CLR M01/M03 A2991 RMK AO2 SLP134 T10061028 53010,M
NFL,2024-03-07 14:56,-118.7010,39.4166,1199.00,37.00,33.00,85.29,310.00,3.00,0.00,29.88,1009.30,10.00,M,BKN,OVC,M,M,3700.00,7500.00,M,M,M,M,M,M,M,M,M,34.40,KNFL 071456Z 31003KT 10SM BKN037 OVC075 03/01 A2988 RMK AO2 SLP093 T00280006 53013,M
HND,2024-03-07 14:56,-115.1344,35.9729,742.79,48.00,40.00,73.67,220.00,12.00,0.00,29.80,1010.20,10.00,M,FEW,OVC,M,M,8000.00,10000.00,M,M,M,M,M,M,M,M,M,42.37,KHND 071456Z 22012KT 10SM FEW080 OVC100 09/04 A2980 RMK AO2 SLP102 60000 T00890044 53016,M
TPH,2024-03-07 14:56,-117.0904,38.0505,1654.00,31.00,26.00,81.48,10.00,10.00,0.00,29.82,1009.90,10.00,M,CLR,M,M,M,M,M,M,M,M,M,M,M,M,M,M,21.71,KTPH 071456Z AUTO 01010KT 10SM CLR M01/M03 A2982 RMK AO2 SLP099 T10061033 53010,M
LAS,2024-03-07 14:56,-115.1634,36.0719,663.00,52.00,38.00,58.71,180.00,3.00,0.00,29.78,1007.60,10.00,M,FEW,BKN,BKN,M,8000.00,11000.00,20000.00,M,M,M,M,M,M,M,M,52.00,KLAS 071456Z 18003KT 10SM FEW080 BKN110 BKN200 11/03 A2978 RMK AO2 SLP076 T01110033 53016 $,M
BAM,2024-03-07 15:00,-116.8743,40.5990,1382.36,33.80,32.00,93.03,340.00,5.00,0.00,29.90,M,10.00,M,OVC,M,M,M,2700.00,M,M,M,M,M,M,M,M,M,M,28.53,KBAM 071500Z AUTO 34005KT 10SM OVC027 01/00 A2990 RMK AO1,M
ELY,2024-03-07 15:07,-114.8453,39.2950,1909.00,30.00,29.00,96.00,330.00,3.00,T,29.81,M,2.00,M,BKN,BKN,M,M,2900.00,4700.00,M,M,-SN BR,M,M,M,M,M,M,26.40,KELY 071507Z AUTO 33003KT 2SM -SN BR BKN029 BKN047 M01/M02 A2981 RMK AO2 P0000 T10111017,M
ELY,2024-03-07 15:10,-114.8453,39.2950,1909.00,30.00,29.00,96.00,330.00,4.00,T,29.81,M,3.00,M,FEW,BKN,OVC,M,400.00,2900.00,4700.00,M,-SN BR,M,M,M,M,M,M,25.08,KELY 071510Z AUTO 33004KT 3SM -SN BR FEW004 BKN029 OVC047 M01/M02 A2981 RMK AO2 P0000 T10111017,M
BVU,2024-03-07 15:15,-114.8611,35.9475,671.00,50.00,42.80,76.18,220.00,4.00,0.00,29.80,M,10.00,M,BKN,BKN,M,M,6000.00,7500.00,M,M,M,M,M,M,M,M,M,50.00,KBVU 071515Z AUTO 22004KT 10SM BKN060 BKN075 10/06 A2980 RMK AO2,M
CXP,2024-03-07 15:15,-119.7326,39.1923,1431.00,30.20,26.60,86.28,0.00,0.00,0.00,29.91,M,10.00,M,BKN,BKN,OVC,M,4300.00,4800.00,6500.00,M,M,M,M,M,M,M,M,30.20,KCXP 071515Z AUTO 00000KT 10SM BKN043 BKN048 OVC065 M01/M03 A2991 RMK AO2,M
RTS,2024-03-07 15:15,-119.8764,39.6682,1539.00,30.20,28.40,92.92,0.00,0.00,0.00,29.90,M,9.00,M,SCT,BKN,OVC,M,3300.00,5000.00,8000.00,M,-SN,M,M,M,M,M,M,30.20,KRTS 071515Z AUTO 00000KT 9SM -SN SCT033 BKN050 OVC080 M01/M02 A2990 RMK AO2,M
MEV,2024-03-07 15:15,-119.7500,38.9963,1441.42,28.40,28.40,100.00,0.00,0.00,0.00,29.90,M,10.00,M,OVC,M,M,M,4400.00,M,M,M,M,M,M,M,M,M,M,28.40,KMEV 071515Z AUTO 00000KT 10SM OVC044 M02/M02 A2990 RMK AO2,M
HTH,2024-03-07 15:15,-118.6315,38.5448,1282.89,37.40,30.20,74.98,0.00,0.00,0.00,29.90,M,10.00,M,FEW,OVC,M,M,3700.00,5000.00,M,M,M,M,M,M,M,M,M,37.40,KHTH 071515Z AUTO 00000KT 10SM FEW037 OVC050 03/M01 A2990 RMK A01,M
10U,2024-03-07 15:15,-116.1876,41.9532,1637.00,15.80,15.80,100.00,0.00,0.00,0.00,29.92,M,10.00,M,OVC,M,M,M,300.00,M,M,M,M,M,M,M,M,M,M,15.80,K10U 071515Z AUTO 00000KT 10SM OVC003 M09/M09 A2992 RMK AO2,M
TMT,2024-03-07 15:15,-117.1971,39.4643,1749.34,30.00,27.00,88.44,0.00,0.00,0.00,29.87,M,10.00,M,BKN,OVC,M,M,1200.00,2500.00,M,M,M,M,M,M,M,M,M,30.00,KTMT 071515Z AUTO 00000KT 10SM BKN012 OVC025 M01/M03 A2987 RMK AO2 T10121028,M
BAM,2024-03-07 15:20,-116.8743,40.5990,1382.36,33.80,32.00,93.03,330.00,4.00,0.00,29.91,M,10.00,M,SCT,OVC,M,M,2700.00,4200.00,M,M,M,M,M,M,M,M,M,29.52,KBAM 071520Z AUTO 33004KT 10SM SCT027 OVC042 01/00 A2991 RMK AO1,M
ELY,2024-03-07 15:28,-114.8453,39.2950,1909.00,30.00,29.00,96.00,310.00,5.00,T,29.82,M,9.00,M,BKN,BKN,OVC,M,400.00,1800.00,3900.00,M,M,M,M,M,M,M,M,24.02,KELY 071528Z AUTO 31005KT 9SM BKN004 BKN018 OVC039 M01/M02 A2982 RMK AO2 SNE25 P0000 T10111017,M
HTH,2024-03-07 15:30,-118.6315,38.5448,1282.89,37.40,32.00,80.65,0.00,0.00,0.00,29.91,M,10.00,M,SCT,OVC,M,M,3700.00,5000.00,M,M,M,M,M,M,M,M,M,37.40,KHTH 071530Z AUTO 00000KT 10SM SCT037 OVC050 03/M00 A2991 RMK A01,M
BVU,2024-03-07 15:35,-114.8611,35.9475,671.00,50.00,42.80,76.18,180.00,5.00,0.00,29.80,M,10.00,M,FEW,BKN,M,M,6000.00,9500.00,M,M,M,M,M,M,M,M,M,50.00,KBVU 071535Z AUTO 18005KT 10SM FEW060 BKN095 10/06 A2980 RMK AO2,M
CXP,2024-03-07 15:35,-119.7326,39.1923,1431.00,32.00,28.40,86.39,0.00,0.00,0.00,29.92,M,10.00,M,FEW,OVC,M,M,4500.00,6500.00,M,M,M,M,M,M,M,M,M,32.00,KCXP 071535Z AUTO 00000KT 10SM FEW045 OVC065 M00/M02 A2992 RMK AO2,M
RTS,2024-03-07 15:35,-119.8764,39.6682,1539.00,30.20,28.40,92.92,0.00,0.00,0.00,29.91,M,10.00,M,SCT,BKN,OVC,M,4800.00,6000.00,8000.00,M,M,M,M,M,M,M,M,30.20,KRTS 071535Z AUTO 00000KT 10SM SCT048 BKN060 OVC080 M01/M02 A2991 RMK AO2,M
MEV,2024-03-07 15:35,-119.7500,38.9963,1441.42,30.20,28.40,92.92,0.00,0.00,0.00,29.91,M,10.00,M,SCT,OVC,M,M,4500.00,7000.00,M,M,M,M,M,M,M,M,M,30.20,KMEV 071535Z AUTO 00000KT 10SM SCT045 OVC070 M01/M02 A2991 RMK AO2,M
10U,2024-03-07 15:35,-116.1876,41.9532,1637.00,17.60,15.80,92.50,0.00,0.00,0.00,29.93,M,10.00,M,OVC,M,M,M,200.00,M,M,M,M,M,M,M,M,M,M,17.60,K10U 071535Z AUTO 00000KT 10SM OVC002 M08/M09 A2993 RMK AO2,M
TMT,2024-03-07 15:35,-117.1971,39.4643,1749.34,30.00,27.00,88.44,190.00,3.00,0.00,29.87,M,10.00,M,SCT,OVC,M,M,1200.00,2100.00,M,M,M,M,M,M,M,M,M,26.40,KTMT 071535Z AUTO 19003KT 10SM SCT012 OVC021 M01/M03 A2987 RMK AO2 T10111028,M
BAM,2024-03-07 15:40,-116.8743,40.5990,1382.36,33.80,32.00,93.03,0.00,0.00,0.00,29.91,M,10.00,M,BKN,BKN,OVC,M,3100.00,4000.00,6500.00,M,M,M,M,M,M,M,M,33.80,KBAM 071540Z AUTO 00000KT 10SM BKN031 BKN040 OVC065 01/00 A2991 RMK AO1,M
LOL,2024-03-07 15:41,-118.5701,40.0684,1192.43,36.00,32.00,85.23,30.00,9.00,0.00,29.91,M,10.00,M,BKN,OVC,M,M,2900.00,4500.00,M,M,M,M,M,M,M,M,M,28.49,KLOL 071541Z AUTO 03009KT 10SM BKN029 OVC045 02/00 A2991 RMK AO2 T00220000,M
P68,2024-03-07 15:53,-116.0056,39.6014,1993.00,33.00,29.00,85.04,0.00,0.00,0.00,29.84,1009.50,M,M,M,M,M,M,M,M,M,M,M,M,M,M,M,M,M,33.00,KP68 071553Z AUTO 00000KT 01/M02 A2984 RMK AO1 SLP095 T00061017,M
DRA,2024-03-07 15:53,-116.0278,36.6206,1009.00,48.00,36.00,62.97,0.00,0.00,0.00,29.81,1007.50,10.00,M,OVC,M,M,M,10000.00,M,M,M,M,M,M,M,M,M,M,48.00,KDRA 071553Z AUTO 00000KT 10SM OVC100 09/02 A2981 RMK AO2 SLP075 T00890022,M
ELY,2024-03-07 15:53,-114.8453,39.2950,1909.00,32.00,30.00,92.22,330.00,4.00,T,29.83,1009.70,10.00,M,OVC,M,M,M,300.00,M,M,M,M,M,M,M,M,M,M,27.42,KELY 071553Z AUTO 33004KT 10SM OVC003 00/M01 A2983 RMK AO2 SNE25 SLP097 P0000 T00001011,M
VGT,2024-03-07 15:53,-115.1933,36.2111,667.00,55.00,36.00,48.62,320.00,4.00,0.00,29.79,1009.50,10.00,M,OVC,M,M,M,11000.00,M,M,M,M,M,M,M,M,M,M,55.00,KVGT 071553Z 32004KT 10SM OVC110 13/02 A2979 RMK AO2 SLP095 T01280022,M
LOL,2024-03-07 15:53,-118.5701,40.0684,1192.43,37.00,32.00,81.93,40.00,9.00,0.00,29.91,1013.50,10.00,M,BKN,BKN,OVC,M,3000.00,3800.00,5500.00,M,M,M,M,M,M,M,M,29.73,KLOL 071553Z AUTO 04009KT 10SM BKN030 BKN038 OVC055 03/00 A2991 RMK AO2 SLP135 T00280000,M
BVU,2024-03-07 15:55,-114.8611,35.9475,671.00,50.00,42.80,76.18,150.00,6.00,0.00,29.81,M,10.00,M,BKN,M,M,M,9500.00,M,M,M,M,M,M,M,M,M,M,50.00,KBVU 071555Z AUTO 15006KT 10SM BKN095 10/06 A2981 RMK AO2,M
CXP,2024-03-07 15:55,-119.7326,39.1923,1431.00,32.00,28.40,86.39,0.00,0.00,0.00,29.93,M,10.00,M,OVC,M,M,M,6500.00,M,M,M,M,M,M,M,M,M,M,32.00,KCXP 071555Z AUTO 00000KT 10SM OVC065 00/M02 A2993 RMK AO2,M
INS,2024-03-07 15:55,-115.6733,36.5872,955.00,51.00,34.00,52.00,260.00,4.00,0.00,29.80,1007.00,10.00,M,BKN,OVC,M,M,8000.00,10000.00,M,M,M,M,M,M,M,M,M,51.00,KINS 071555Z AUTO 26004KT 10SM BKN080 OVC100 11/01 A2980 RMK AO2 SLP070 T01050011 $,M
RNO,2024-03-07 15:55,-119.7711,39.4839,1341.00,35.00,26.00,69.39,170.00,3.00,0.00,29.92,1012.80,10.00,M,SCT,BKN,M,M,3800.00,7500.00,M,M,M,M,M,M,M,M,M,32.12,KRNO 071555Z 17003KT 10SM SCT038 BKN075 02/M03 A2992 RMK AO2 SLP128 T00171033,M
LSV,2024-03-07 15:55,-115.0343,36.2362,570.00,55.20,38.30,52.84,190.00,14.00,0.00,29.76,1006.80,10.00,M,CLR,M,M,M,M,M,M,M,M,M,M,M,M,M,M,55.20,KLSV 071555Z AUTO 19014KT 10SM CLR 13/04 A2976 RMK AO2 SLP068 T01290035 $,M
RTS,2024-03-07 15:55,-119.8764,39.6682,1539.00,32.00,28.40,86.39,340.00,3.00,0.00,29.92,M,10.00,M,FEW,SCT,BKN,M,4600.00,5500.00,6500.00,M,M,M,M,M,M,M,M,28.69,KRTS 071555Z AUTO 34003KT 10SM FEW046 SCT055 BKN065 M00/M02 A2992 RMK AO2,M
MEV,2024-03-07 15:55,-119.7500,38.9963,1441.42,32.00,28.40,86.39,0.00,0.00,0.00,29.92,M,10.00,M,OVC,M,M,M,6500.00,M,M,M,M,M,M,M,M,M,M,32.00,KMEV 071555Z AUTO 00000KT 10SM OVC065 00/M02 A2992 RMK AO2,M
HTH,2024-03-07 15:55,-118.6315,38.5448,1282.89,39.20,32.00,75.16,300.00,5.00,0.00,29.92,M,10.00,M,BKN,OVC,M,M,3600.00,5500.00,M,M,M,M,M,M,M,M,M,34.95,KHTH 071555Z AUTO 30005KT 10SM BKN036 OVC055 04/00 A2992 RMK A01,M
10U,2024-03-07 15:55,-116.1876,41.9532,1637.00,17.60,15.80,92.50,0.00,0.00,0.00,29.94,M,10.00,M,OVC,M,M,M,300.00,M,M,M,M,M,M,M,M,M,M,17.60,K10U 071555Z AUTO 00000KT 10SM OVC003 M08/M09 A2994 RMK AO2,M
TMT,2024-03-07 15:55,-117.1971,39.4643,1749.34,30.70,27.30,87.03,0.00,0.00,0.00,29.89,M,7.00,M,BKN,OVC,M,M,2100.00,4000.00,M,M,M,M,M,M,M,M,M,30.70,KTMT 071555Z AUTO 00000KT 7SM BKN021 OVC040 M01/M03 A2989 RMK AO2 T10071026,M
EKO,2024-03-07 15:56,-115.7860,40.8242,1367.00,33.00,29.00,85.04,0.00,0.00,0.00,29.88,1012.80,10.00,M,FEW,OVC,M,M,1500.00,6000.00,M,M,M,M,M,M,M,M,M,33.00,KEKO 071556Z AUTO 00000KT 10SM FEW015 OVC060 01/M02 A2988 RMK AO2 SLP128 T00061017 $,M
WMC,2024-03-07 15:56,-117.8072,40.9019,1315.00,33.00,28.00,81.63,340.00,9.00,0.00,29.94,1014.30,10.00,M,CLR,M,M,M,M,M,M,M,M,M,M,M,M,M,M,24.76,KWMC 071556Z AUTO 34009KT 10SM CLR 01/M02 A2994 RMK AO2 SLP143 T00061022,M
NFL,2024-03-07 15:56,-118.7010,39.4166,1199.00,40.00,35.00,82.15,360.00,5.00,0.00,29.91,1010.20,10.00,M,FEW,BKN,OVC,M,2000.00,3000.00,7000.00,M,M,M,M,M,M,M,M,35.90,KNFL 071556Z 36005KT 10SM FEW020 BKN030 OVC070 04/02 A2991 RMK AO2 SLP102 T00440017,M
HND,2024-03-07 15:56,-115.1344,35.9729,742.79,51.00,38.00,60.92,190.00,7.00,0.00,29.82,1010.80,10.00,M,OVC,M,M,M,10000.00,M,M,M,M,M,M,M,M,M,M,51.00,KHND 071556Z 19007KT 10SM OVC100 11/03 A2982 RMK AO2 SLP108 T01060033,M
TPH,2024-03-07 15:56,-117.0904,38.0505,1654.00,37.00,27.00,66.82,360.00,10.00,0.00,29.85,1010.00,10.00,M,CLR,M,M,M,M,M,M,M,M,M,M,M,M,M,M,29.24,KTPH 071556Z AUTO 36010KT 10SM CLR 03/M03 A2985 RMK AO2 SLP100 T00281028,M
LAS,2024-03-07 15:56,-115.1634,36.0719,663.00,53.00,39.00,58.85,180.00,4.00,0.00,29.80,1008.20,10.00,M,FEW,FEW,SCT,BKN,3000.00,8000.00,11000.00,20000.00,M,M,M,M,M,M,M,53.00,KLAS 071556Z 18004KT 10SM FEW030 FEW080 SCT110 BKN200 12/04 A2980 RMK AO2 SLP082 CB DSNT SW T01170039 $,M
BAM,2024-03-07 16:00,-116.8743,40.5990,1382.36,33.80,32.00,93.03,10.00,3.00,0.00,29.92,M,10.00,M,BKN,OVC,M,M,2900.00,6500.00,M,M,M,M,M,M,M,M,M,30.75,KBAM 071600Z AUTO 01003KT 10SM BKN029 OVC065 01/00 A2992 RMK AO1,M
ELY,2024-03-07 16:11,-114.8453,39.2950,1909.00,32.00,29.00,88.53,330.00,5.00,0.00,29.83,M,10.00,M,BKN,BKN,M,M,500.00,900.00,M,M,M,M,M,M,M,M,M,26.40,KELY 071611Z AUTO 33005KT 10SM BKN005 BKN009 00/M02 A2983 RMK AO2 CIG 002V007 T00001017,M
BVU,2024-03-07 16:15,-114.8611,35.9475,671.00,51.80,42.80,71.26,130.00,6.00,0.00,29.81,M,10.00,M,BKN,M,M,M,10000.00,M,M,M,M,M,M,M,M,M,M,51.80,KBVU 071615Z AUTO 13006KT 10SM BKN100 11/06 A2981 RMK AO2,M
CXP,2024-03-07 16:15,-119.7326,39.1923,1431.00,33.80,26.60,74.63,0.00,0.00,0.00,29.94,M,10.00,M,OVC,M,M,M,7000.00,M,M,M,M,M,M,M,M,M,M,33.80,KCXP 071615Z AUTO 00000KT 10SM OVC070 01/M03 A2994 RMK AO2,M
RTS,2024-03-07 16:15,-119.8764,39.6682,1539.00,32.00,30.20,92.97,340.00,3.00,0.00,29.93,M,10.00,M,BKN,BKN,BKN,M,4700.00,5500.00,6500.00,M,M,M,M,M,M,M,M,28.69,KRTS 071615Z AUTO 34003KT 10SM BKN047 BKN055 BKN065 00/M01 A2993 RMK AO2,M
MEV,2024-03-07 16:15,-119.7500,38.9963,1441.42,32.00,30.20,92.97,0.00,0.00,0.00,29.92,M,10.00,M,OVC,M,M,M,6500.00,M,M,M,M,M,M,M,M,M,M,32.00,KMEV 071615Z AUTO 00000KT 10SM OVC065 00/M01 A2992 RMK AO2,M
HTH,2024-03-07 16:15,-118.6315,38.5448,1282.89,39.20,32.00,75.16,340.00,4.00,0.00,29.92,M,10.00,M,SCT,BKN,OVC,M,3800.00,4900.00,6500.00,M,M,M,M,M,M,M,M,35.83,KHTH 071615Z AUTO 34004KT 10SM SCT038 BKN049 OVC065 04/M00 A2992 RMK A01,M
10U,2024-03-07 16:15,-116.1876,41.9532,1637.00,19.40,17.60,92.57,0.00,0.00,0.00,29.95,M,10.00,M,OVC,M,M,M,400.00,M,M,M,M,M,M,M,M,M,M,19.40,K10U 071615Z AUTO 00000KT 10SM OVC004 M07/M08 A2995 RMK AO2,M
TMT,2024-03-07 16:15,-117.1971,39.4643,1749.34,31.00,28.40,89.95,0.00,0.00,0.00,29.89,M,5.00,M,BKN,BKN,OVC,M,2300.00,3000.00,4000.00,M,-SN,M,M,M,M,M,M,31.00,KTMT 071615Z AUTO 00000KT 5SM -SN BKN023 BKN030 OVC040 00/M02 A2989 RMK AO2 T10051020,M
BAM,2024-03-07 16:20,-116.8743,40.5990,1382.36,35.60,32.00,86.59,330.00,4.00,0.00,29.93,M,10.00,M,OVC,M,M,M,2900.00,M,M,M,M,M,M,M,M,M,M,31.62,KBAM 071620Z AUTO 33004KT 10SM OVC029 02/00 A2993 RMK AO1,M
BVU,2024-03-07 16:35,-114.8611,35.9475,671.00,53.60,41.00,62.23,130.00,5.00,0.00,29.81,M,10.00,M,FEW,M,M,M,11000.00,M,M,M,M,M,M,M,M,M,M,53.60,KBVU 071635Z AUTO 13005KT 10SM FEW110 12/05 A2981 RMK AO2,M
CXP,2024-03-07 16:35,-119.7326,39.1923,1431.00,33.80,26.60,74.63,0.00,0.00,0.00,29.94,M,10.00,M,FEW,BKN,OVC,M,5000.00,7000.00,8500.00,M,M,M,M,M,M,M,M,33.80,KCXP 071635Z AUTO 00000KT 10SM FEW050 BKN070 OVC085 01/M03 A2994 RMK AO2,M
RTS,2024-03-07 16:35,-119.8764,39.6682,1539.00,33.80,30.20,86.49,340.00,3.00,0.00,29.93,M,10.00,M,BKN,BKN,OVC,M,2000.00,3900.00,4600.00,M,M,M,M,M,M,M,M,30.75,KRTS 071635Z AUTO 34003KT 10SM BKN020 BKN039 OVC046 01/M01 A2993 RMK AO2,M
MEV,2024-03-07 16:35,-119.7500,38.9963,1441.42,33.80,28.40,80.36,0.00,0.00,0.00,29.93,M,10.00,M,BKN,BKN,M,M,6500.00,8000.00,M,M,M,M,M,M,M,M,M,33.80,KMEV 071635Z AUTO 00000KT 10SM BKN065 BKN080 01/M02 A2993 RMK AO2,M
HTH,2024-03-07 16:35,-118.6315,38.5448,1282.89,41.00,32.00,70.08,330.00,5.00,0.00,29.93,M,10.00,M,FEW,FEW,BKN,M,4100.00,4900.00,5500.00,M,M,M,M,M,M,M,M,37.08,KHTH 071635Z AUTO 33005KT 10SM FEW041 FEW049 BKN055 05/00 A2993 RMK A01,M
10U,2024-03-07 16:35,-116.1876,41.9532,1637.00,21.20,19.40,92.63,0.00,0.00,0.00,29.95,M,10.00,M,SCT,M,M,M,300.00,M,M,M,M,M,M,M,M,M,M,21.20,K10U 071635Z AUTO 00000KT 10SM SCT003 M06/M07 A2995 RMK AO2,M
TMT,2024-03-07 16:35,-117.1971,39.4643,1749.34,32.00,28.80,87.81,0.00,0.00,0.00,29.89,M,10.00,M,SCT,BKN,OVC,M,2100.00,2800.00,3300.00,M,M,M,M,M,M,M,M,32.00,KTMT 071635Z AUTO 00000KT 10SM SCT021 BKN028 OVC033 00/M02 A2989 RMK AO2 T00001018,M
BAM,2024-03-07 16:40,-116.8743,40.5990,1382.36,35.60,32.00,86.59,330.00,4.00,0.00,29.93,M,10.00,M,SCT,SCT,BKN,M,2900.00,3300.00,5000.00,M,M,M,M,M,M,M,M,31.62,KBAM 071640Z AUTO 33004KT 10SM SCT029 SCT033 BKN050 02/00 A2993 RMK AO1,M
ELY,2024-03-07 16:42,-114.8453,39.2950,1909.00,34.00,29.00,81.71,0.00,0.00,0.00,29.83,M,10.00,M,BKN,M,M,M,1000.00,M,M,M,M,M,M,M,M,M,M,34.00,KELY 071642Z AUTO 00000KT 10SM BKN010 01/M02 A2983 RMK AO2 CIG 007V013 T00111017,M
CXP,2024-03-07 16:50,-119.7326,39.1923,1431.00,35.60,28.40,74.80,0.00,0.00,0.00,29.95,M,10.00,M,FEW,SCT,OVC,M,4800.00,7000.00,8500.00,M,M,M,M,M,M,M,M,35.60,KCXP 071650Z AUTO 00000KT 10SM FEW048 SCT070 OVC085 02/M02 A2995 RMK AO2,M
ELY,2024-03-07 16:51,-114.8453,39.2950,1909.00,37.40,30.20,74.98,320.00,4.00,0.00,29.83,M,10.00,M,SCT,BKN,M,M,1200.00,8000.00,M,M,M,M,M,M,M,M,M,33.73,KELY 071651Z AUTO 32004KT 10SM SCT012 BKN080 03/M01 A2983 RMK AO2,M
P68,2024-03-07 16:53,-116.0056,39.6014,1993.00,33.00,31.00,92.25,360.00,7.00,0.00,29.87,1010.60,M,M,M,M,M,M,M,M,M,M,M,M,M,M,M,M,M,26.00,KP68 071653Z AUTO 36007KT 01/M01 A2987 RMK AO1 SLP106 T00061006,M
DRA,2024-03-07 16:53,-116.0278,36.6206,1009.00,51.00,36.00,56.31,0.00,0.00,0.00,29.82,1007.60,10.00,M,OVC,M,M,M,9000.00,M,M,M,M,M,M,M,M,M,M,51.00,KDRA 071653Z AUTO 00000KT 10SM OVC090 11/02 A2982 RMK AO2 SLP076 T01060022,M
ELY,2024-03-07 16:53,-114.8453,39.2950,1909.00,37.00,30.00,75.56,330.00,4.00,0.00,29.84,1008.80,10.00,M,SCT,BKN,M,M,1200.00,8000.00,M,M,M,M,M,M,M,M,M,33.26,KELY 071653Z AUTO 33004KT 10SM SCT012 BKN080 03/M01 A2984 RMK AO2 SLP088 T00281011,M
VGT,2024-03-07 16:53,-115.1933,36.2111,667.00,57.00,36.00,45.22,0.00,0.00,0.00,29.80,1009.90,10.00,M,BKN,M,M,M,11000.00,M,M,M,M,M,M,M,M,M,M,57.00,KVGT 071653Z 00000KT 10SM BKN110 14/02 A2980 RMK AO2 SLP099 T01390022,M
LOL,2024-03-07 16:53,-118.5701,40.0684,1192.43,39.00,32.00,75.75,30.00,13.00,0.00,29.93,1014.00,10.00,18.00,OVC,M,M,M,6000.00,M,M,M,M,M,M,M,M,M,M,30.54,KLOL 071653Z AUTO 03013G18KT 10SM OVC060 04/00 A2993 RMK AO2 SLP140 T00390000,M
BVU,2024-03-07 16:55,-114.8611,35.9475,671.00,53.60,39.20,58.02,170.00,5.00,0.00,29.82,M,10.00,M,CLR,M,M,M,M,M,M,M,M,M,M,M,M,M,M,53.60,KBVU 071655Z AUTO 17005KT 10SM CLR 12/04 A2982 RMK AO2,M
RNO,2024-03-07 16:55,-119.7711,39.4839,1341.00,39.00,26.00,59.27,0.00,0.00,0.00,29.94,1013.30,10.00,M,FEW,BKN,M,M,3600.00,7000.00,M,M,M,M,M,M,M,M,M,39.00,KRNO 071655Z 00000KT 10SM FEW036 BKN070 04/M03 A2994 RMK AO2 SLP133 T00391033,M
LSV,2024-03-07 16:55,-115.0343,36.2362,570.00,57.20,37.80,48.19,180.00,10.00,0.00,29.78,1007.50,10.00,M,CLR,M,M,M,M,M,M,M,M,M,M,M,M,M,M,57.20,KLSV 071655Z AUTO 18010KT 10SM CLR 14/03 A2978 RMK AO2 SLP075 T01400032 $,M
RTS,2024-03-07 16:55,-119.8764,39.6682,1539.00,33.80,30.20,86.49,0.00,0.00,0.00,29.94,M,10.00,M,SCT,BKN,OVC,M,1500.00,2000.00,4500.00,M,M,M,M,M,M,M,M,33.80,KRTS 071655Z AUTO 00000KT 10SM SCT015 BKN020 OVC045 01/M01 A2994 RMK AO2,M
MEV,2024-03-07 16:55,-119.7500,38.9963,1441.42,33.80,28.40,80.36,0.00,0.00,0.00,29.93,M,10.00,M,FEW,SCT,M,M,7000.00,8000.00,M,M,M,M,M,M,M,M,M,33.80,KMEV 071655Z AUTO 00000KT 10SM FEW070 SCT080 01/M02 A2993 RMK AO2,M
HTH,2024-03-07 16:55,-118.6315,38.5448,1282.89,44.60,32.00,61.03,340.00,9.00,0.00,29.93,M,10.00,M,FEW,BKN,BKN,M,5500.00,6500.00,11000.00,M,M,M,M,M,M,M,M,39.18,KHTH 071655Z AUTO 34009KT 10SM FEW055 BKN065 BKN110 07/00 A2993 RMK A01,M
10U,2024-03-07 16:55,-116.1876,41.9532,1637.00,23.00,19.40,85.85,0.00,0.00,0.00,29.96,M,10.00,M,FEW,M,M,M,500.00,M,M,M,M,M,M,M,M,M,M,23.00,K10U 071655Z AUTO 00000KT 10SM FEW005 M05/M07 A2996 RMK AO2,M
TMT,2024-03-07 16:55,-117.1971,39.4643,1749.34,31.00,29.30,93.32,40.00,3.00,0.00,29.91,M,1.50,M,SCT,BKN,OVC,M,800.00,1200.00,2100.00,M,-SN,M,M,M,M,M,M,27.55,KTMT 071655Z AUTO 04003KT 1 1/2SM -SN SCT008 BKN012 OVC021 00/M01 A2991 RMK AO2 VIS 1/2V4 T10051015,M
INS,2024-03-07 16:55,-115.6733,36.5872,955.00,53.00,33.40,47.16,290.00,7.00,0.00,29.81,1007.10,10.00,M,OVC,M,M,M,12000.00,M,M,M,M,M,M,M,M,M,M,53.00,KINS 071655Z AUTO 29007KT 10SM OVC120 12/01 A2981 RMK AO2 SLP071 T01170008 $,M
EKO,2024-03-07 16:56,-115.7860,40.8242,1367.00,35.00,28.00,75.36,0.00,0.00,0.00,29.90,1013.20,10.00,M,OVC,M,M,M,6000.00,M,M,M,M,M,M,M,M,M,M,35.00,KEKO 071656Z AUTO 00000KT 10SM OVC060 02/M02 A2990 RMK AO2 SLP132 T00171022,M
WMC,2024-03-07 16:56,-117.8072,40.9019,1315.00,36.00,29.00,75.46,340.00,9.00,0.00,29.96,1014.80,10.00,M,CLR,M,M,M,M,M,M,M,M,M,M,M,M,M,M,28.49,KWMC 071656Z AUTO 34009KT 10SM CLR 02/M02 A2996 RMK AO2 SLP148 T00221017,M
NFL,2024-03-07 16:56,-118.7010,39.4166,1199.00,42.00,35.00,76.03,20.00,8.00,T,29.93,1010.80,10.00,M,SCT,BKN,OVC,M,2200.00,3000.00,7000.00,M,-RA,M,M,M,M,M,M,36.43,KNFL 071656Z 02008KT 10SM -RA SCT022 BKN030 OVC070 06/02 A2993 RMK AO2 DZB03E18RAB18 SLP108 P0000 T00560017,M
HND,2024-03-07 16:56,-115.1344,35.9729,742.79,55.00,38.00,52.60,180.00,7.00,0.00,29.83,1010.80,10.00,M,OVC,M,M,M,9000.00,M,M,M,M,M,M,M,M,M,M,55.00,KHND 071656Z 18007KT 10SM OVC090 13/03 A2983 RMK AO2 SLP108 T01280033,M
TPH,2024-03-07 16:56,-117.0904,38.0505,1654.00,42.00,28.00,57.30,360.00,7.00,0.00,29.86,1010.20,10.00,M,FEW,M,M,M,9000.00,M,M,M,M,M,M,M,M,M,M,36.97,KTPH 071656Z AUTO 36007KT 10SM FEW090 06/M02 A2986 RMK AO2 SLP102 T00561022,M
LAS,2024-03-07 16:56,-115.1634,36.0719,663.00,55.00,37.00,50.58,180.00,7.00,0.00,29.81,1008.60,10.00,M,FEW,FEW,SCT,BKN,3000.00,8000.00,11000.00,20000.00,M,M,M,M,M,M,M,55.00,KLAS 071656Z 18007KT 10SM FEW030 FEW080 SCT110 BKN200 13/03 A2981 RMK AO2 SLP086 CB DSNT S T01280028,M
BAM,2024-03-07 17:00,-116.8743,40.5990,1382.36,37.40,32.00,80.65,360.00,4.00,0.00,29.95,M,10.00,M,SCT,SCT,SCT,M,1900.00,5000.00,7000.00,M,M,M,M,M,M,M,M,33.73,KBAM 071700Z AUTO 36004KT 10SM SCT019 SCT050 SCT070 03/00 A2995 RMK AO1,M
BVU,2024-03-07 17:15,-114.8611,35.9475,671.00,53.60,41.00,62.23,0.00,0.00,0.00,29.82,M,10.00,M,CLR,M,M,M,M,M,M,M,M,M,M,M,M,M,M,53.60,KBVU 071715Z AUTO 00000KT 10SM CLR 12/05 A2982 RMK AO2,M
CXP,2024-03-07 17:15,-119.7326,39.1923,1431.00,37.40,28.40,69.67,210.00,4.00,0.00,29.95,M,10.00,M,BKN,BKN,OVC,M,4800.00,7000.00,8500.00,M,M,M,M,M,M,M,M,33.73,KCXP 071715Z AUTO 21004KT 10SM BKN048 BKN070 OVC085 03/M02 A2995 RMK AO2,M
RTS,2024-03-07 17:15,-119.8764,39.6682,1539.00,35.60,30.20,80.51,0.00,0.00,0.00,29.95,M,10.00,M,FEW,BKN,OVC,M,1600.00,3600.00,4600.00,M,M,M,M,M,M,M,M,35.60,KRTS 071715Z AUTO 00000KT 10SM FEW016 BKN036 OVC046 02/M01 A2995 RMK AO2,M
MEV,2024-03-07 17:15,-119.7500,38.9963,1441.42,35.60,28.40,74.80,0.00,0.00,0.00,29.93,M,10.00,M,BKN,M,M,M,8000.00,M,M,M,M,M,M,M,M,M,M,35.60,KMEV 071715Z AUTO 00000KT 10SM BKN080 02/M02 A2993 RMK AO2,M
HTH,2024-03-07 17:15,-118.6315,38.5448,1282.89,44.60,32.00,61.03,320.00,7.00,0.00,29.93,M,10.00,M,OVC,M,M,M,7000.00,M,M,M,M,M,M,M,M,M,M,40.14,KHTH 071715Z AUTO 32007KT 10SM OVC070 07/00 A2993 RMK A01,M
10U,2024-03-07 17:15,-116.1876,41.9532,1637.00,23.00,19.40,85.85,100.00,3.00,0.00,29.97,M,10.00,M,CLR,M,M,M,M,M,M,M,M,M,M,M,M,M,M,18.40,K10U 071715Z AUTO 10003KT 10SM CLR M05/M07 A2997 RMK AO2,M
TMT,2024-03-07 17:15,-117.1971,39.4643,1749.34,32.00,30.20,92.97,0.00,0.00,0.00,29.91,M,1.50,M,SCT,OVC,M,M,1100.00,1800.00,M,M,-SN,M,M,M,M,M,M,32.00,KTMT 071715Z AUTO 00000KT 1 1/2SM -SN SCT011 OVC018 00/M01 A2991 RMK AO2 T10011010,M
BAM,2024-03-07 17:20,-116.8743,40.5990,1382.36,37.40,30.20,74.98,0.00,0.00,0.00,29.95,M,10.00,M,BKN,BKN,M,M,1900.00,7000.00,M,M,M,M,M,M,M,M,M,37.40,KBAM 071720Z AUTO 00000KT 10SM BKN019 BKN070 03/M01 A2995 RMK AO1,M
BVU,2024-03-07 17:35,-114.8611,35.9475,671.00,53.60,39.20,58.02,130.00,5.00,0.00,29.82,M,10.00,M,CLR,M,M,M,M,M,M,M,M,M,M,M,M,M,M,53.60,KBVU 071735Z AUTO 13005KT 10SM CLR 12/04 A2982 RMK AO2,M
CXP,2024-03-07 17:35,-119.7326,39.1923,1431.00,39.20,26.60,60.29,190.00,5.00,0.00,29.95,M,9.00,M,BKN,OVC,M,M,4900.00,7000.00,M,M,M,M,M,M,M,M,M,34.95,KCXP 071735Z AUTO 19005KT 9SM BKN049 OVC070 04/M03 A2995 RMK AO2,M
RTS,2024-03-07 17:35,-119.8764,39.6682,1539.00,35.60,30.20,80.51,0.00,0.00,0.00,29.96,M,10.00,M,SCT,BKN,M,M,2100.00,3400.00,M,M,M,M,M,M,M,M,M,35.60,KRTS 071735Z AUTO 00000KT 10SM SCT021 BKN034 02/M01 A2996 RMK AO2,M
MEV,2024-03-07 17:35,-119.7500,38.9963,1441.42,37.40,28.40,69.67,0.00,0.00,0.00,29.93,M,10.00,M,SCT,M,M,M,8000.00,M,M,M,M,M,M,M,M,M,M,37.40,KMEV 071735Z AUTO 00000KT 10SM SCT080 03/M02 A2993 RMK AO2,M
HTH,2024-03-07 17:35,-118.6315,38.5448,1282.89,44.60,32.00,61.03,330.00,8.00,0.00,29.93,M,10.00,M,OVC,M,M,M,7000.00,M,M,M,M,M,M,M,M,M,M,39.63,KHTH 071735Z AUTO 33008KT 10SM OVC070 07/00 A2993 RMK A01,M
10U,2024-03-07 17:35,-116.1876,41.9532,1637.00,24.80,21.20,85.96,0.00,0.00,0.00,29.97,M,10.00,M,CLR,M,M,M,M,M,M,M,M,M,M,M,M,M,M,24.80,K10U 071735Z AUTO 00000KT 10SM CLR M04/M06 A2997 RMK AO2,M
TMT,2024-03-07 17:35,-117.1971,39.4643,1749.34,33.00,32.00,96.06,0.00,0.00,0.00,29.92,M,7.00,M,SCT,SCT,OVC,M,700.00,1700.00,3500.00,M,M,M,M,M,M,M,M,33.00,KTMT 071735Z AUTO 00000KT 7SM SCT007 SCT017 OVC035 01/00 A2992 RMK AO2 T00061001,M
BAM,2024-03-07 17:40,-116.8743,40.5990,1382.36,37.40,32.00,80.65,0.00,0.00,0.00,29.96,M,10.00,M,BKN,BKN,M,M,1900.00,7500.00,M,M,M,M,M,M,M,M,M,37.40,KBAM 071740Z AUTO 00000KT 10SM BKN019 BKN075 03/00 A2996 RMK AO1,M
P68,2024-03-07 17:53,-116.0056,39.6014,1993.00,35.00,32.00,88.68,10.00,8.00,0.00,29.88,1010.60,M,M,M,M,M,M,M,M,M,M,M,M,M,M,M,M,M,27.81,KP68 071753Z AUTO 01008KT 02/00 A2988 RMK AO1 SLP106 T00170000 10033 21039 51018,M
DRA,2024-03-07 17:53,-116.0278,36.6206,1009.00,51.00,37.00,58.58,210.00,7.00,0.00,29.83,1008.00,10.00,M,CLR,M,M,M,M,M,M,M,M,M,M,M,M,M,M,51.00,KDRA 071753Z AUTO 21007KT 10SM CLR 11/03 A2983 RMK AO2 SLP080 T01060028 10111 20072 51013,M
ELY,2024-03-07 17:53,-114.8453,39.2950,1909.00,41.00,27.00,57.15,0.00,0.00,0.00,29.84,1008.40,10.00,M,SCT,SCT,M,M,2800.00,6000.00,M,M,M,M,M,M,M,M,M,41.00,KELY 071753Z AUTO 00000KT 10SM SCT028 SCT060 05/M03 A2984 RMK AO2 SLP084 60000 T00501028 10050 21011 51003,M
VGT,2024-03-07 17:53,-115.1933,36.2111,667.00,59.00,36.00,42.08,170.00,4.00,0.00,29.81,1010.10,10.00,M,BKN,M,M,M,11000.00,M,M,M,M,M,M,M,M,M,M,59.00,KVGT 071753Z 17004KT 10SM BKN110 15/02 A2981 RMK AO2 SLP101 T01500022 10156 20122 51011,M
LOL,2024-03-07 17:53,-118.5701,40.0684,1192.43,41.00,30.00,64.63,30.00,15.00,0.00,29.96,1014.70,10.00,M,BKN,OVC,M,M,6000.00,7500.00,M,M,M,M,M,M,M,M,M,32.45,KLOL 071753Z AUTO 03015KT 10SM BKN060 OVC075 05/M01 A2996 RMK AO2 SLP147 60001 T00501011 10050 20017 51021,M
BVU,2024-03-07 17:55,-114.8611,35.9475,671.00,53.60,39.20,58.02,210.00,3.00,0.00,29.83,M,10.00,M,CLR,M,M,M,M,M,M,M,M,M,M,M,M,M,M,53.60,KBVU 071755Z AUTO 21003KT 10SM CLR 12/04 A2983 RMK AO2,M
CXP,2024-03-07 17:55,-119.7326,39.1923,1431.00,41.00,28.40,60.54,0.00,0.00,0.00,29.95,M,10.00,M,BKN,M,M,M,4900.00,M,M,M,M,M,M,M,M,M,M,41.00,KCXP 071755Z AUTO 00000KT 10SM BKN049 05/M02 A2995 RMK AO2,M
INS,2024-03-07 17:55,-115.6733,36.5872,955.00,54.70,32.50,42.74,310.00,5.00,0.00,29.82,1007.50,10.00,M,OVC,M,M,M,11000.00,M,M,M,M,M,M,M,M,M,M,54.70,KINS 071755Z AUTO 31005KT 10SM OVC110 13/00 A2982 RMK AO2 SLP075 T01260003 10126 20079 52011 $,M
RNO,2024-03-07 17:55,-119.7711,39.4839,1341.00,41.00,28.00,59.55,20.00,4.00,0.00,29.96,1014.10,10.00,M,FEW,BKN,M,M,3500.00,6000.00,M,M,M,M,M,M,M,M,M,37.93,KRNO 071755Z 02004KT 10SM FEW035 BKN060 05/M02 A2996 RMK AO2 SLP141 T00501022 10056 21017 53018,M
RTS,2024-03-07 17:55,-119.8764,39.6682,1539.00,35.60,30.20,80.51,360.00,10.00,0.00,29.96,M,10.00,M,OVC,M,M,M,1900.00,M,M,M,M,M,M,M,M,M,M,27.48,KRTS 071755Z AUTO 36010KT 10SM OVC019 02/M01 A2996 RMK AO2,M
MEV,2024-03-07 17:55,-119.7500,38.9963,1441.42,39.20,28.40,64.93,0.00,0.00,0.00,29.94,M,10.00,M,FEW,M,M,M,8000.00,M,M,M,M,M,M,M,M,M,M,39.20,KMEV 071755Z AUTO 00000KT 10SM FEW080 04/M02 A2994 RMK AO2,M
HTH,2024-03-07 17:55,-118.6315,38.5448,1282.89,44.60,32.00,61.03,320.00,8.00,0.00,29.93,M,10.00,M,BKN,BKN,M,M,7000.00,11000.00,M,M,M,M,M,M,M,M,M,39.63,KHTH 071755Z AUTO 32008KT 10SM BKN070 BKN110 07/M00 A2993 RMK A01,M
10U,2024-03-07 17:55,-116.1876,41.9532,1637.00,24.80,21.20,85.96,M,4.00,0.00,29.97,M,10.00,M,CLR,M,M,M,M,M,M,M,M,M,M,M,M,M,M,19.01,K10U 071755Z AUTO VRB04KT 10SM CLR M04/M06 A2997 RMK AO2,M
TMT,2024-03-07 17:55,-117.1971,39.4643,1749.34,35.00,32.00,88.68,50.00,6.00,0.00,29.92,M,10.00,M,BKN,BKN,OVC,M,900.00,1500.00,3700.00,M,M,M,M,M,M,M,M,29.14,KTMT 071755Z AUTO 05006KT 10SM BKN009 BKN015 OVC037 02/00 A2992 RMK AO2 T00171001 10017 21033,M
LSV,2024-03-07 17:55,-115.0343,36.2362,570.00,59.00,36.00,42.08,180.00,7.00,0.00,29.79,1007.70,10.00,M,CLR,M,M,M,M,M,M,M,M,M,M,M,M,M,M,59.00,KLSV 071755Z AUTO 18007KT 10SM CLR 15/02 A2979 RMK AO2 SLP077 T01500022 10152 20127 52013 $,M
EKO,2024-03-07 17:56,-115.7860,40.8242,1367.00,36.00,26.00,66.69,0.00,0.00,0.00,29.91,1013.60,10.00,M,FEW,BKN,M,M,2100.00,6000.00,M,M,M,M,M,M,M,M,M,36.00,KEKO 071756Z AUTO 00000KT 10SM FEW021 BKN060 02/M03 A2991 RMK AO2 SLP136 60007 T00221033 10028 21011 51015,M
WMC,2024-03-07 17:56,-117.8072,40.9019,1315.00,38.00,29.00,69.74,340.00,11.00,0.00,29.98,1015.70,10.00,M,CLR,M,M,M,M,M,M,M,M,M,M,M,M,M,M,30.05,KWMC 071756Z AUTO 34011KT 10SM CLR 03/M02 A2998 RMK AO2 SLP157 T00331017 10033 21006 51023,M
NFL,2024-03-07 17:56,-118.7010,39.4166,1199.00,42.00,34.00,73.06,340.00,9.00,T,29.95,1011.40,9.00,M,FEW,BKN,OVC,M,1800.00,2500.00,3500.00,M,-RA,M,M,M,M,M,M,35.95,KNFL 071756Z 34009KT 9SM -RA FEW018 BKN025 OVC035 06/01 A2995 RMK AO2 SLP114 WR// P0000 60000 T00560011 10061 21006 51021,M
HND,2024-03-07 17:56,-115.1344,35.9729,742.79,57.00,38.00,48.93,240.00,10.00,0.00,29.83,1011.10,10.00,M,SCT,M,M,M,9500.00,M,M,M,M,M,M,M,M,M,M,57.00,KHND 071756Z 24010KT 10SM SCT095 14/03 A2983 RMK AO2 SLP111 60000 T01390033 10139 20089 51011,M
TPH,2024-03-07 17:56,-117.0904,38.0505,1654.00,44.00,28.00,53.07,0.00,0.00,0.00,29.86,1010.00,10.00,M,FEW,FEW,M,M,4000.00,5000.00,M,M,M,M,M,M,M,M,M,44.00,KTPH 071756Z AUTO 00000KT 10SM FEW040 FEW050 07/M02 A2986 RMK AO2 SLP100 T00671022 10078 21028 51011,M
LAS,2024-03-07 17:56,-115.1634,36.0719,663.00,57.00,37.00,47.04,M,4.00,0.00,29.81,1008.70,10.00,M,FEW,SCT,BKN,M,5500.00,12000.00,20000.00,M,M,M,M,M,M,M,M,57.00,KLAS 071756Z VRB04KT 10SM FEW055 SCT120 BKN200 14/03 A2981 RMK AO2 SLP087 T01390028 10139 20106 51012,M
BAM,2024-03-07 18:00,-116.8743,40.5990,1382.36,39.20,32.00,75.16,300.00,4.00,0.00,29.96,M,10.00,M,BKN,BKN,BKN,M,2100.00,3700.00,5000.00,M,M,M,M,M,M,M,M,35.83,KBAM 071800Z AUTO 30004KT 10SM BKN021 BKN037 BKN050 04/00 A2996 RMK AO1,M
BVU,2024-03-07 18:15,-114.8611,35.9475,671.00,55.40,39.20,54.34,180.00,5.00,0.00,29.83,M,10.00,M,CLR,M,M,M,M,M,M,M,M,M,M,M,M,M,M,55.40,KBVU 071815Z AUTO 18005KT 10SM CLR 13/04 A2983 RMK AO2,M
CXP,2024-03-07 18:15,-119.7326,39.1923,1431.00,41.00,28.40,60.54,0.00,0.00,0.00,29.95,M,10.00,M,OVC,M,M,M,4900.00,M,M,M,M,M,M,M,M,M,M,41.00,KCXP 071815Z AUTO 00000KT 10SM OVC049 05/M02 A2995 RMK AO2,M
RTS,2024-03-07 18:15,-119.8764,39.6682,1539.00,35.60,30.20,80.51,360.00,8.00,0.00,29.96,M,10.00,M,OVC,M,M,M,2100.00,M,M,M,M,M,M,M,M,M,M,28.55,KRTS 071815Z AUTO 36008KT 10SM OVC021 02/M01 A2996 RMK AO2,M
MEV,2024-03-07 18:15,-119.7500,38.9963,1441.42,41.00,28.40,60.54,0.00,0.00,0.00,29.94,M,10.00,M,FEW,M,M,M,8000.00,M,M,M,M,M,M,M,M,M,M,41.00,KMEV 071815Z AUTO 00000KT 10SM FEW080 05/M02 A2994 RMK AO2,M
HTH,2024-03-07 18:15,-118.6315,38.5448,1282.89,44.60,30.20,56.74,M,6.00,0.00,29.94,M,10.00,M,FEW,SCT,SCT,M,6000.00,7000.00,11000.00,M,M,M,M,M,M,M,M,40.71,KHTH 071815Z AUTO VRB06KT 10SM FEW060 SCT070 SCT110 07/M01 A2994 RMK A01,M
10U,2024-03-07 18:15,-116.1876,41.9532,1637.00,24.80,21.20,85.96,M,3.00,0.00,29.98,M,10.00,M,CLR,M,M,M,M,M,M,M,M,M,M,M,M,M,M,20.46,K10U 071815Z AUTO VRB03KT 10SM CLR M04/M06 A2998 RMK AO2,M
TMT,2024-03-07 18:15,-117.1971,39.4643,1749.34,36.00,32.00,85.23,0.00,0.00,0.00,29.92,M,10.00,M,OVC,M,M,M,1100.00,M,M,M,M,M,M,M,M,M,M,36.00,KTMT 071815Z AUTO 00000KT 10SM OVC011 02/00 A2992 RMK AO2 T00221001,M
BAM,2024-03-07 18:20,-116.8743,40.5990,1382.36,39.20,32.00,75.16,300.00,8.00,0.00,29.96,M,10.00,M,BKN,BKN,BKN,M,2300.00,3400.00,4100.00,M,M,M,M,M,M,M,M,32.98,KBAM 071820Z AUTO 30008KT 10SM BKN023 BKN034 BKN041 04/00 A2996 RMK AO1,M
BVU,2024-03-07 18:35,-114.8611,35.9475,671.00,57.20,37.40,47.44,M,4.00,0.00,29.83,M,10.00,M,FEW,M,M,M,12000.00,M,M,M,M,M,M,M,M,M,M,57.20,KBVU 071835Z AUTO VRB04KT 10SM FEW120 14/03 A2983 RMK AO2,M
CXP,2024-03-07 18:35,-119.7326,39.1923,1431.00,42.80,28.40,56.48,0.00,0.00,0.00,29.95,M,10.00,M,SCT,M,M,M,4900.00,M,M,M,M,M,M,M,M,M,M,42.80,KCXP 071835Z AUTO 00000KT 10SM SCT049 06/M02 A2995 RMK AO2,M
RTS,2024-03-07 18:35,-119.8764,39.6682,1539.00,35.60,32.00,86.59,40.00,7.00,0.00,29.97,M,10.00,M,SCT,OVC,M,M,1300.00,2100.00,M,M,-DZ,M,M,M,M,M,M,29.17,KRTS 071835Z AUTO 04007KT 10SM -DZ SCT013 OVC021 02/M00 A2997 RMK AO2,M
MEV,2024-03-07 18:35,-119.7500,38.9963,1441.42,41.00,28.40,60.54,300.00,3.00,0.00,29.94,M,10.00,M,CLR,M,M,M,M,M,M,M,M,M,M,M,M,M,M,38.98,KMEV 071835Z AUTO 30003KT 10SM CLR 05/M02 A2994 RMK AO2,M
HTH,2024-03-07 18:35,-118.6315,38.5448,1282.89,46.40,30.20,53.00,350.00,7.00,0.00,29.94,M,10.00,M,CLR,M,M,M,M,M,M,M,M,M,M,M,M,M,M,42.33,KHTH 071835Z AUTO 35007KT 10SM CLR 08/M01 A2994 RMK A01,M
10U,2024-03-07 18:35,-116.1876,41.9532,1637.00,26.60,21.20,79.77,M,3.00,0.00,29.98,M,10.00,M,CLR,M,M,M,M,M,M,M,M,M,M,M,M,M,M,22.52,K10U 071835Z AUTO VRB03KT 10SM CLR M03/M06 A2998 RMK AO2,M
TMT,2024-03-07 18:35,-117.1971,39.4643,1749.34,36.30,31.00,80.89,40.00,3.00,0.00,29.92,M,10.00,M,BKN,OVC,M,M,1300.00,2000.00,M,M,M,M,M,M,M,M,M,33.60,KTMT 071835Z AUTO 04003KT 10SM BKN013 OVC020 02/M01 A2992 RMK AO2 T00241006,M
BAM,2024-03-07 18:40,-116.8743,40.5990,1382.36,41.00,32.00,70.08,320.00,9.00,0.00,29.96,M,10.00,M,SCT,BKN,M,M,2300.00,3200.00,M,M,M,M,M,M,M,M,M,34.70,KBAM 071840Z AUTO 32009KT 10SM SCT023 BKN032 05/00 A2996 RMK AO1,M
P68,2024-03-07 18:53,-116.0056,39.6014,1993.00,38.00,31.00,75.65,350.00,10.00,0.00,29.89,1010.80,M,M,M,M,M,M,M,M,M,M,M,M,M,M,M,M,M,30.49,KP68 071853Z AUTO 35010KT 03/M01 A2989 RMK AO1 SLP108 T00331006,M
DRA,2024-03-07 18:53,-116.0278,36.6206,1009.00,54.00,36.00,50.42,0.00,0.00,0.00,29.83,1007.80,10.00,M,FEW,M,M,M,12000.00,M,M,M,M,M,M,M,M,M,M,54.00,KDRA 071853Z AUTO 00000KT 10SM FEW120 12/02 A2983 RMK AO2 SLP078 T01220022,M
ELY,2024-03-07 18:53,-114.8453,39.2950,1909.00,40.00,25.00,54.69,360.00,8.00,0.00,29.84,1008.50,10.00,M,FEW,BKN,OVC,M,4100.00,5000.00,9000.00,M,M,M,M,M,M,M,M,33.97,KELY 071853Z AUTO 36008KT 10SM FEW041 BKN050 OVC090 04/M04 A2984 RMK AO2 SLP085 T00441039,M
VGT,2024-03-07 18:53,-115.1933,36.2111,667.00,61.00,36.00,39.19,M,3.00,0.00,29.80,1009.90,10.00,M,CLR,M,M,M,M,M,M,M,M,M,M,M,M,M,M,61.00,KVGT 071853Z VRB03KT 10SM CLR 16/02 A2980 RMK AO2 SLP099 T01610022,M
LOL,2024-03-07 18:53,-118.5701,40.0684,1192.43,43.00,29.00,57.44,30.00,15.00,0.00,29.96,1015.00,10.00,M,OVC,M,M,M,7000.00,M,M,M,M,M,M,M,M,M,M,35.04,KLOL 071853Z AUTO 03015KT 10SM OVC070 06/M02 A2996 RMK AO2 SLP150 T00611017,M
EKO,2024-03-07 18:54,-115.7860,40.8242,1367.00,39.20,28.40,64.93,240.00,7.97,M,29.91,M,10.00,M,BKN,BKN,M,M,2798.00,3700.00,M,M,M,M,M,M,M,M,M,33.00,SPECI KEKO 071854Z 24008KT 10SM BKN028 BKN037 04/M02 A2991 RMK AO2 FIBI,M
BVU,2024-03-07 18:55,-114.8611,35.9475,671.00,57.20,37.40,47.44,120.00,5.00,0.00,29.82,M,10.00,M,CLR,M,M,M,M,M,M,M,M,M,M,M,M,M,M,57.20,KBVU 071855Z AUTO 12005KT 10SM CLR 14/03 A2982 RMK AO2,M
CXP,2024-03-07 18:55,-119.7326,39.1923,1431.00,44.60,30.20,56.74,0.00,0.00,0.00,29.95,M,10.00,M,CLR,M,M,M,M,M,M,M,M,M,M,M,M,M,M,44.60,KCXP 071855Z AUTO 00000KT 10SM CLR 07/M01 A2995 RMK AO2,M
RNO,2024-03-07 18:55,-119.7711,39.4839,1341.00,43.00,32.00,64.88,20.00,9.00,0.00,29.96,1014.20,10.00,M,BKN,BKN,M,M,3000.00,6500.00,M,M,M,M,M,M,M,M,M,37.19,KRNO 071855Z 02009KT 10SM BKN030 BKN065 06/00 A2996 RMK AO2 SLP142 T00610000,M
RTS,2024-03-07 18:55,-119.8764,39.6682,1539.00,35.60,30.20,80.51,40.00,4.00,0.00,29.97,M,10.00,M,BKN,BKN,M,M,1500.00,1900.00,M,M,-DZ,M,M,M,M,M,M,31.62,KRTS 071855Z AUTO 04004KT 10SM -DZ BKN015 BKN019 02/M01 A2997 RMK AO2,M
MEV,2024-03-07 18:55,-119.7500,38.9963,1441.42,42.80,30.20,60.79,M,6.00,0.00,29.94,M,10.00,M,CLR,M,M,M,M,M,M,M,M,M,M,M,M,M,M,38.54,KMEV 071855Z AUTO VRB06KT 10SM CLR 06/M01 A2994 RMK AO2,M
HTH,2024-03-07 18:55,-118.6315,38.5448,1282.89,48.20,30.20,49.53,340.00,10.00,0.00,29.93,M,10.00,M,CLR,M,M,M,M,M,M,M,M,M,M,M,M,M,M,43.28,KHTH 071855Z AUTO 34010KT 10SM CLR 09/M01 A2993 RMK A01,M
TMT,2024-03-07 18:55,-117.1971,39.4643,1749.34,36.00,31.00,81.86,320.00,12.00,0.00,29.93,M,5.00,M,BKN,OVC,M,M,1700.00,2500.00,M,M,HZ,M,M,M,M,M,M,27.09,KTMT 071855Z AUTO 32012KT 5SM HZ BKN017 OVC025 02/00 A2993 RMK AO2 T00231005,M
10U,2024-03-07 18:55,-116.1876,41.9532,1637.00,28.40,19.40,68.61,20.00,10.00,0.00,29.99,M,10.00,M,CLR,M,M,M,M,M,M,M,M,M,M,M,M,M,M,18.45,K10U 071855Z AUTO 02010KT 10SM CLR M02/M07 A2999 RMK AO2,M
INS,2024-03-07 18:55,-115.6733,36.5872,955.00,55.60,30.40,38.00,M,M,0.00,29.82,1007.50,10.00,M,SCT,OVC,M,M,9000.00,10000.00,M,M,M,M,M,M,M,M,M,55.60,KINS 071855Z AUTO M 10SM SCT090 OVC100 13/M01 A2982 RMK AO2 SLP075 T01311009 $,M
LSV,2024-03-07 18:55,-115.0343,36.2362,570.00,60.40,35.40,39.09,70.00,3.00,0.00,29.78,1007.40,10.00,M,FEW,M,M,M,12000.00,M,M,M,M,M,M,M,M,M,M,60.40,KLSV 071855Z AUTO 07003KT 10SM FEW120 16/02 A2978 RMK AO2 SLP074 T01580019 $,M
EKO,2024-03-07 18:56,-115.7860,40.8242,1367.00,40.00,29.00,64.50,240.00,9.00,0.00,29.91,1013.60,10.00,M,BKN,BKN,M,M,2800.00,3700.00,M,M,M,M,M,M,M,M,M,33.46,KEKO 071856Z AUTO 24009KT 10SM BKN028 BKN037 04/M02 A2991 RMK AO2 SLP136 T00441017,M
WMC,2024-03-07 18:56,-117.8072,40.9019,1315.00,41.00,27.00,57.15,60.00,8.00,0.00,29.98,1015.60,10.00,M,OVC,M,M,M,3100.00,M,M,M,M,M,M,M,M,M,M,35.20,KWMC 071856Z AUTO 06008KT 10SM OVC031 05/M03 A2998 RMK AO2 SLP156 T00501028,M
NFL,2024-03-07 18:56,-118.7010,39.4166,1199.00,41.00,35.00,79.02,280.00,10.00,0.01,29.96,1011.70,10.00,M,SCT,BKN,OVC,M,1800.00,2500.00,3500.00,M,-RA,M,M,M,M,M,M,34.25,KNFL 071856Z 28010KT 10SM -RA SCT018 BKN025 OVC035 05/02 A2996 RMK AO2 SLP117 P0001 T00500017,M
HND,2024-03-07 18:56,-115.1344,35.9729,742.79,58.00,36.00,43.62,0.00,0.00,0.00,29.83,1010.90,10.00,M,FEW,M,M,M,10000.00,M,M,M,M,M,M,M,M,M,M,58.00,KHND 071856Z 00000KT 10SM FEW100 14/02 A2983 RMK AO2 SLP109 T01440022,M
TPH,2024-03-07 18:56,-117.0904,38.0505,1654.00,48.00,24.00,38.64,340.00,9.00,0.00,29.86,1009.70,10.00,21.00,SCT,M,M,M,4900.00,M,M,M,M,M,M,M,M,M,M,43.41,KTPH 071856Z AUTO 34009G21KT 10SM SCT049 09/M04 A2986 RMK AO2 SLP097 T00891044,M
LAS,2024-03-07 18:56,-115.1634,36.0719,663.00,59.00,36.00,42.08,130.00,5.00,0.00,29.81,1008.50,10.00,M,FEW,SCT,SCT,M,5500.00,12000.00,20000.00,M,M,M,M,M,M,M,M,59.00,KLAS 071856Z 13005KT 10SM FEW055 SCT120 SCT200 15/02 A2981 RMK AO2 SLP085 CB DSNT N AND W T01500022,M
BAM,2024-03-07 19:00,-116.8743,40.5990,1382.36,41.00,32.00,70.08,340.00,8.00,0.00,29.97,M,10.00,14.00,BKN,BKN,M,M,2900.00,3500.00,M,M,M,M,M,M,M,M,M,35.20,KBAM 071900Z AUTO 34008G14KT 10SM BKN029 BKN035 05/00 A2997 RMK AO1,M
EKO,2024-03-07 19:05,-115.7860,40.8242,1367.00,40.00,29.00,64.50,240.00,6.00,0.00,29.91,M,10.00,M,SCT,OVC,M,M,2800.00,3900.00,M,M,M,M,M,M,M,M,M,35.17,KEKO 071905Z AUTO 24006KT 10SM SCT028 OVC039 04/M02 A2991 RMK AO2 T00441017,M
BVU,2024-03-07 19:15,-114.8611,35.9475,671.00,57.20,37.40,47.44,M,4.00,0.00,29.81,M,10.00,M,CLR,M,M,M,M,M,M,M,M,M,M,M,M,M,M,57.20,KBVU 071915Z AUTO VRB04KT 10SM CLR 14/03 A2981 RMK AO2,M
CXP,2024-03-07 19:15,-119.7326,39.1923,1431.00,44.60,32.00,61.03,340.00,6.00,0.00,29.96,M,10.00,M,SCT,BKN,BKN,M,3100.00,3600.00,5000.00,M,M,M,M,M,M,M,M,40.71,KCXP 071915Z AUTO 34006KT 10SM SCT031 BKN036 BKN050 07/M00 A2996 RMK AO2,M
RTS,2024-03-07 19:15,-119.8764,39.6682,1539.00,37.40,30.20,74.98,360.00,9.00,0.00,29.98,M,10.00,M,OVC,M,M,M,1600.00,M,M,M,M,M,M,M,M,M,M,30.23,KRTS 071915Z AUTO 36009KT 10SM OVC016 03/M01 A2998 RMK AO2,M
MEV,2024-03-07 19:15,-119.7500,38.9963,1441.42,44.60,30.20,56.74,50.00,4.00,0.00,29.94,M,10.00,M,CLR,M,M,M,M,M,M,M,M,M,M,M,M,M,M,42.13,KMEV 071915Z AUTO 05004KT 10SM CLR 07/M01 A2994 RMK AO2,M
HTH,2024-03-07 19:15,-118.6315,38.5448,1282.89,48.20,30.20,49.53,340.00,8.00,0.00,29.93,M,10.00,14.00,CLR,M,M,M,M,M,M,M,M,M,M,M,M,M,M,44.07,KHTH 071915Z AUTO 34008G14KT 10SM CLR 09/M01 A2993 RMK A01,M
10U,2024-03-07 19:15,-116.1876,41.9532,1637.00,28.40,17.60,63.51,40.00,8.00,0.00,29.99,M,10.00,13.00,CLR,M,M,M,M,M,M,M,M,M,M,M,M,M,M,19.68,K10U 071915Z AUTO 04008G13KT 10SM CLR M02/M08 A2999 RMK AO2,M
TMT,2024-03-07 19:15,-117.1971,39.4643,1749.34,34.50,32.00,90.46,320.00,12.00,0.00,29.93,M,7.00,M,SCT,BKN,OVC,M,1600.00,2600.00,4000.00,M,-SN,M,M,M,M,M,M,25.18,KTMT 071915Z AUTO 32012KT 7SM -SN SCT016 BKN026 OVC040 01/00 A2993 RMK AO2 T00140000,M
BAM,2024-03-07 19:20,-116.8743,40.5990,1382.36,42.80,30.20,60.79,320.00,9.00,0.00,29.97,M,10.00,M,SCT,SCT,SCT,M,2900.00,4400.00,6500.00,M,M,M,M,M,M,M,M,36.94,KBAM 071920Z AUTO 32009KT 10SM SCT029 SCT044 SCT065 06/M01 A2997 RMK AO1,M
BVU,2024-03-07 19:35,-114.8611,35.9475,671.00,59.00,37.40,44.47,110.00,5.00,0.00,29.81,M,10.00,M,CLR,M,M,M,M,M,M,M,M,M,M,M,M,M,M,59.00,KBVU 071935Z AUTO 11005KT 10SM CLR 15/03 A2981 RMK AO2,M
CXP,2024-03-07 19:35,-119.7326,39.1923,1431.00,41.00,32.00,70.08,40.00,10.00,0.00,29.96,M,10.00,16.00,BKN,BKN,OVC,M,3300.00,3800.00,4500.00,M,M,M,M,M,M,M,M,34.25,KCXP 071935Z AUTO 04010G16KT 10SM BKN033 BKN038 OVC045 05/00 A2996 RMK AO2,M
RTS,2024-03-07 19:35,-119.8764,39.6682,1539.00,37.40,28.40,69.67,20.00,5.00,0.00,29.98,M,10.00,M,OVC,M,M,M,1600.00,M,M,M,M,M,M,M,M,M,M,32.81,KRTS 071935Z AUTO 02005KT 10SM OVC016 03/M02 A2998 RMK AO2,M
HTH,2024-03-07 19:35,-118.6315,38.5448,1282.89,48.20,28.40,46.02,350.00,10.00,0.00,29.93,M,10.00,M,CLR,M,M,M,M,M,M,M,M,M,M,M,M,M,M,43.28,KHTH 071935Z AUTO 35010KT 300V360 10SM CLR 09/M02 A2993 RMK A01,M
10U,2024-03-07 19:35,-116.1876,41.9532,1637.00,28.40,19.40,68.61,30.00,9.00,0.00,29.99,M,10.00,M,CLR,M,M,M,M,M,M,M,M,M,M,M,M,M,M,19.04,K10U 071935Z AUTO 03009KT 10SM CLR M02/M07 A2999 RMK AO2,M
TMT,2024-03-07 19:35,-117.1971,39.4643,1749.34,36.00,32.40,86.62,330.00,11.00,0.00,29.93,M,10.00,M,BKN,OVC,M,M,3200.00,4000.00,M,M,UP,M,M,M,M,M,M,27.52,KTMT 071935Z AUTO 33011KT 10SM UP BKN032 OVC040 02/00 A2993 RMK AO2 T00220002,M
MEV,2024-03-07 19:35,-119.7500,38.9963,1441.42,46.40,30.20,53.00,320.00,5.00,0.00,29.94,M,10.00,10.00,CLR,M,M,M,M,M,M,M,M,M,M,M,M,M,M,43.50,KMEV 071935Z AUTO 32005G10KT 10SM CLR 08/M01 A2994 RMK AO2,M
BAM,2024-03-07 19:40,-116.8743,40.5990,1382.36,41.00,30.20,65.16,330.00,5.00,0.00,29.98,M,10.00,M,SCT,BKN,BKN,M,2900.00,3600.00,4400.00,M,M,M,M,M,M,M,M,37.08,KBAM 071940Z AUTO 33005KT 10SM SCT029 BKN036 BKN044 05/M01 A2998 RMK AO1,M
P68,2024-03-07 19:53,-116.0056,39.6014,1993.00,41.00,28.00,59.55,360.00,11.00,0.01,29.88,1010.20,M,15.00,M,M,M,M,M,M,M,M,M,M,M,M,M,M,M,33.84,KP68 071953Z AUTO 36011G15KT 05/M02 A2988 RMK AO1 SLP102 P0001 T00501022,M
DRA,2024-03-07 19:53,-116.0278,36.6206,1009.00,58.00,35.00,41.92,M,5.00,0.00,29.81,1007.10,10.00,M,CLR,M,M,M,M,M,M,M,M,M,M,M,M,M,M,58.00,KDRA 071953Z AUTO VRB05KT 10SM CLR 14/02 A2981 RMK AO2 SLP071 T01440017,M
ELY,2024-03-07 19:53,-114.8453,39.2950,1909.00,42.00,23.00,46.55,330.00,8.00,0.00,29.83,1008.10,10.00,M,FEW,BKN,M,M,4700.00,6000.00,M,M,M,M,M,M,M,M,M,36.43,KELY 071953Z AUTO 33008KT 10SM FEW047 BKN060 06/M05 A2983 RMK AO2 SLP081 T00561050,M
VGT,2024-03-07 19:53,-115.1933,36.2111,667.00,62.00,36.00,37.83,M,5.00,0.00,29.79,1009.50,10.00,M,CLR,M,M,M,M,M,M,M,M,M,M,M,M,M,M,62.00,KVGT 071953Z VRB05KT 10SM CLR 17/02 A2979 RMK AO2 SLP095 T01670022,M
LOL,2024-03-07 19:53,-118.5701,40.0684,1192.43,45.00,27.00,49.02,40.00,13.00,0.00,29.97,1015.00,10.00,M,FEW,OVC,M,M,4400.00,7000.00,M,M,M,M,M,M,M,M,M,38.22,KLOL 071953Z AUTO 04013KT 10SM FEW044 OVC070 07/M03 A2997 RMK AO2 SLP150 T00721028,M
BVU,2024-03-07 19:55,-114.8611,35.9475,671.00,59.00,35.60,41.42,0.00,0.00,0.00,29.81,M,10.00,M,CLR,M,M,M,M,M,M,M,M,M,M,M,M,M,M,59.00,KBVU 071955Z AUTO 00000KT 10SM CLR 15/02 A2981 RMK AO2,M
CXP,2024-03-07 19:55,-119.7326,39.1923,1431.00,41.00,33.80,75.33,40.00,11.00,0.00,29.97,M,10.00,M,FEW,BKN,OVC,M,3300.00,4200.00,5000.00,M,M,M,M,M,M,M,M,33.84,KCXP 071955Z AUTO 04011KT 10SM FEW033 BKN042 OVC050 05/01 A2997 RMK AO2,M
INS,2024-03-07 19:55,-115.6733,36.5872,955.00,58.60,27.30,30.04,300.00,7.00,0.00,29.80,1006.80,10.00,M,FEW,M,M,M,11000.00,M,M,M,M,M,M,M,M,M,M,58.60,KINS 071955Z AUTO 30007KT 10SM FEW110 15/M03 A2980 RMK AO2 SLP068 T01481026 $,M
RNO,2024-03-07 19:55,-119.7711,39.4839,1341.00,43.00,32.00,64.88,10.00,8.00,0.00,29.97,1014.50,10.00,M,BKN,BKN,M,M,3000.00,6500.00,M,M,M,M,M,M,M,M,M,37.66,KRNO 071955Z 01008KT 10SM BKN030 BKN065 06/00 A2997 RMK AO2 SLP145 SH VC SE MTNS OBSCD SW THRU NW T00610000,M
LSV,2024-03-07 19:55,-115.0343,36.2362,570.00,62.60,37.20,38.83,110.00,5.00,0.00,29.77,1007.10,10.00,M,CLR,M,M,M,M,M,M,M,M,M,M,M,M,M,M,62.60,KLSV 071955Z AUTO 11005KT 10SM CLR 17/03 A2977 RMK AO2 SLP071 T01700029 $,M
RTS,2024-03-07 19:55,-119.8764,39.6682,1539.00,37.40,28.40,69.67,350.00,8.00,0.00,29.98,M,10.00,M,BKN,BKN,OVC,M,1800.00,2500.00,3800.00,M,M,M,M,M,M,M,M,30.76,KRTS 071955Z AUTO 35008KT 10SM BKN018 BKN025 OVC038 03/M02 A2998 RMK AO2,M
10U,2024-03-07 19:55,-116.1876,41.9532,1637.00,30.20,19.40,63.75,10.00,9.00,0.00,29.99,M,10.00,M,CLR,M,M,M,M,M,M,M,M,M,M,M,M,M,M,21.28,K10U 071955Z AUTO 01009KT 10SM CLR M01/M07 A2999 RMK AO2,M
TMT,2024-03-07 19:55,-117.1971,39.4643,1749.34,35.20,32.50,89.77,320.00,7.00,0.00,29.93,M,7.00,M,SCT,BKN,OVC,M,700.00,3200.00,4200.00,M,UP,M,M,M,M,M,M,28.68,KTMT 071955Z AUTO 32007KT 7SM UP SCT007 BKN032 OVC042 02/00 A2993 RMK AO2 T00180003,M
EKO,2024-03-07 19:56,-115.7860,40.8242,1367.00,41.00,23.00,48.39,290.00,9.00,0.00,29.92,1014.00,10.00,M,CLR,M,M,M,M,M,M,M,M,M,M,M,M,M,M,34.70,KEKO 071956Z AUTO 29009KT 10SM CLR 05/M05 A2992 RMK AO2 SLP140 T00501050,M
WMC,2024-03-07 19:56,-117.8072,40.9019,1315.00,40.00,23.00,50.30,30.00,9.00,0.00,29.99,1016.00,10.00,M,OVC,M,M,M,3700.00,M,M,M,M,M,M,M,M,M,M,33.46,KWMC 071956Z AUTO 03009KT 10SM OVC037 04/M05 A2999 RMK AO2 SLP160 T00441050,M
NFL,2024-03-07 19:56,-118.7010,39.4166,1199.00,45.00,31.00,57.73,350.00,8.00,T,29.96,1011.80,10.00,M,SCT,BKN,OVC,M,2500.00,3500.00,6000.00,M,M,M,M,M,M,M,M,40.13,KNFL 071956Z 35008KT 10SM SCT025 BKN035 OVC060 07/M01 A2996 RMK AO2 RAE1857 SLP118 P0000 T00721006,M
HND,2024-03-07 19:56,-115.1344,35.9729,742.79,61.00,35.00,37.66,160.00,3.00,0.00,29.82,1010.40,10.00,M,BKN,M,M,M,5500.00,M,M,M,M,M,M,M,M,M,M,61.00,KHND 071956Z 16003KT 10SM BKN055 16/02 A2982 RMK AO2 SLP104 T01610017,M
TPH,2024-03-07 19:56,-117.0904,38.0505,1654.00,47.00,23.00,38.48,10.00,18.00,0.00,29.85,1010.00,10.00,22.00,BKN,OVC,M,M,5500.00,7500.00,M,M,M,M,M,M,M,M,M,39.49,KTPH 071956Z AUTO 01018G22KT 10SM BKN055 OVC075 08/M05 A2985 RMK AO2 SLP100 T00831050,M
LAS,2024-03-07 19:56,-115.1634,36.0719,663.00,58.00,36.00,43.62,20.00,3.00,0.00,29.80,1008.30,10.00,M,FEW,SCT,SCT,M,5000.00,12000.00,20000.00,M,M,M,M,M,M,M,M,58.00,KLAS 071956Z 02003KT 10SM FEW050 SCT120 SCT200 14/02 A2980 RMK AO2 SLP083 CB DSNT N AND W T01440022,M
BAM,2024-03-07 20:00,-116.8743,40.5990,1382.36,42.80,30.20,60.79,340.00,5.00,0.00,29.98,M,10.00,M,SCT,BKN,M,M,3400.00,4300.00,M,M,M,M,M,M,M,M,M,39.22,KBAM 072000Z AUTO 34005KT 10SM SCT034 BKN043 06/M01 A2998 RMK AO1,M
BVU,2024-03-07 20:15,-114.8611,35.9475,671.00,59.00,35.60,41.42,M,4.00,0.00,29.80,M,10.00,M,CLR,M,M,M,M,M,M,M,M,M,M,M,M,M,M,59.00,KBVU 072015Z AUTO VRB04KT 10SM CLR 15/02 A2980 RMK AO2,M
CXP,2024-03-07 20:15,-119.7326,39.1923,1431.00,42.80,32.00,65.38,60.00,7.00,0.00,29.97,M,10.00,M,BKN,BKN,OVC,M,4500.00,5500.00,7500.00,M,M,M,M,M,M,M,M,37.94,KCXP 072015Z AUTO 06007KT 10SM BKN045 BKN055 OVC075 06/00 A2997 RMK AO2,M
RTS,2024-03-07 20:15,-119.8764,39.6682,1539.00,37.40,28.40,69.67,360.00,6.00,0.00,29.98,M,10.00,M,SCT,BKN,OVC,M,2200.00,3800.00,5000.00,M,M,M,M,M,M,M,M,32.03,KRTS 072015Z AUTO 36006KT 10SM SCT022 BKN038 OVC050 03/M02 A2998 RMK AO2,M
MEV,2024-03-07 20:15,-119.7500,38.9963,1441.42,44.60,32.00,61.03,350.00,13.00,0.00,29.94,M,10.00,21.00,FEW,SCT,BKN,M,3400.00,4100.00,4800.00,M,M,M,M,M,M,M,M,37.71,KMEV 072015Z AUTO 35013G21KT 10SM FEW034 SCT041 BKN048 07/M00 A2994 RMK AO2,M
HTH,2024-03-07 20:15,-118.6315,38.5448,1282.89,50.00,30.20,46.31,330.00,12.00,0.00,29.93,M,10.00,18.00,CLR,M,M,M,M,M,M,M,M,M,M,M,M,M,M,50.00,KHTH 072015Z AUTO 33012G18KT 10SM CLR 10/M01 A2993 RMK A01,M
10U,2024-03-07 20:15,-116.1876,41.9532,1637.00,30.20,19.40,63.75,350.00,9.00,0.00,30.00,M,10.00,M,FEW,M,M,M,2900.00,M,M,M,M,M,M,M,M,M,M,21.28,K10U 072015Z AUTO 35009KT 10SM FEW029 M01/M07 A3000 RMK AO2,M
TMT,2024-03-07 20:15,-117.1971,39.4643,1749.34,37.00,32.40,83.26,340.00,7.00,0.00,29.93,M,10.00,M,SCT,SCT,OVC,M,1100.00,3500.00,4100.00,M,M,M,M,M,M,M,M,30.87,KTMT 072015Z AUTO 34007KT 10SM SCT011 SCT035 OVC041 03/00 A2993 RMK AO2 T00280002,M
BAM,2024-03-07 20:20,-116.8743,40.5990,1382.36,42.80,28.40,56.48,340.00,8.00,0.00,29.98,M,10.00,M,SCT,BKN,BKN,M,4100.00,4700.00,5000.00,M,M,M,M,M,M,M,M,37.42,KBAM 072020Z AUTO 34008KT 10SM SCT041 BKN047 BKN050 06/M02 A2998 RMK AO1,M
BVU,2024-03-07 20:35,-114.8611,35.9475,671.00,60.80,35.60,38.85,0.00,0.00,0.00,29.80,M,10.00,M,CLR,M,M,M,M,M,M,M,M,M,M,M,M,M,M,60.80,KBVU 072035Z AUTO 00000KT 10SM CLR 16/02 A2980 RMK AO2,M
CXP,2024-03-07 20:35,-119.7326,39.1923,1431.00,42.80,32.00,65.38,60.00,12.00,0.00,29.97,M,10.00,M,BKN,BKN,OVC,M,3400.00,4000.00,4500.00,M,M,M,M,M,M,M,M,35.75,KCXP 072035Z AUTO 06012KT 10SM BKN034 BKN040 OVC045 06/00 A2997 RMK AO2,M
RTS,2024-03-07 20:35,-119.8764,39.6682,1539.00,39.20,28.40,64.93,10.00,5.00,0.00,29.99,M,10.00,M,BKN,BKN,OVC,M,3800.00,4300.00,5000.00,M,M,M,M,M,M,M,M,34.95,KRTS 072035Z AUTO 01005KT 10SM BKN038 BKN043 OVC050 04/M02 A2999 RMK AO2,M
MEV,2024-03-07 20:35,-119.7500,38.9963,1441.42,46.40,32.00,57.00,360.00,16.00,0.00,29.94,M,10.00,M,FEW,FEW,FEW,M,3800.00,4700.00,5500.00,M,M,M,M,M,M,M,M,39.19,KMEV 072035Z AUTO 36016KT 10SM FEW038 FEW047 FEW055 08/00 A2994 RMK AO2,M
HTH,2024-03-07 20:35,-118.6315,38.5448,1282.89,50.00,28.40,43.03,330.00,15.00,0.00,29.93,M,10.00,M,CLR,M,M,M,M,M,M,M,M,M,M,M,M,M,M,50.00,KHTH 072035Z AUTO 33015KT 10SM CLR 10/M02 A2993 RMK A01,M
10U,2024-03-07 20:35,-116.1876,41.9532,1637.00,30.20,17.60,59.01,M,5.00,0.00,30.00,M,10.00,12.00,FEW,M,M,M,3000.00,M,M,M,M,M,M,M,M,M,M,24.26,K10U 072035Z AUTO VRB05G12KT 10SM FEW030 M01/M08 A3000 RMK AO2,M
TMT,2024-03-07 20:35,-117.1971,39.4643,1749.34,39.40,31.50,73.08,340.00,6.00,0.00,29.93,M,10.00,M,SCT,SCT,BKN,M,1300.00,4200.00,9000.00,M,M,M,M,M,M,M,M,34.44,KTMT 072035Z AUTO 34006KT 10SM SCT013 SCT042 BKN090 04/00 A2993 RMK AO2 T00411003,M
BAM,2024-03-07 20:40,-116.8743,40.5990,1382.36,42.80,28.40,56.48,330.00,8.00,0.00,29.97,M,10.00,M,SCT,SCT,M,M,4100.00,4800.00,M,M,M,M,M,M,M,M,M,37.42,KBAM 072040Z AUTO 33008KT 10SM SCT041 SCT048 06/M02 A2997 RMK AO1,M
P68,2024-03-07 20:53,-116.0056,39.6014,1993.00,42.00,25.00,50.61,360.00,12.00,0.00,29.88,1010.20,M,21.00,M,M,M,M,M,M,M,M,M,M,M,M,M,M,M,34.73,KP68 072053Z AUTO 36012G21KT 06/M04 A2988 RMK AO1 SLP102 60001 T00561039 58001,M
DRA,2024-03-07 20:53,-116.0278,36.6206,1009.00,58.00,33.00,38.70,M,3.00,0.00,29.79,1006.50,10.00,M,FEW,M,M,M,12000.00,M,M,M,M,M,M,M,M,M,M,58.00,KDRA 072053Z AUTO VRB03KT 10SM FEW120 14/01 A2979 RMK AO2 SLP065 T01440006 58012,M
ELY,2024-03-07 20:53,-114.8453,39.2950,1909.00,45.00,28.00,51.08,20.00,17.00,0.00,29.83,1007.70,10.00,21.00,BKN,OVC,M,M,4100.00,5500.00,M,M,M,M,M,M,M,M,M,37.11,KELY 072053Z AUTO 02017G21KT 10SM BKN041 OVC055 07/M02 A2983 RMK AO2 SLP077 T00721022 57003,M
VGT,2024-03-07 20:53,-115.1933,36.2111,667.00,65.00,35.00,32.72,60.00,12.00,0.00,29.78,1009.10,10.00,22.00,BKN,M,M,M,6000.00,M,M,M,M,M,M,M,M,M,M,65.00,KVGT 072053Z 06012G22KT 10SM BKN060 18/02 A2978 RMK AO2 SLP091 T01830017 58008,M
LOL,2024-03-07 20:53,-118.5701,40.0684,1192.43,47.00,28.00,47.36,30.00,10.00,0.00,29.96,1014.80,10.00,20.00,BKN,BKN,OVC,M,4800.00,6000.00,7500.00,M,M,M,M,M,M,M,M,41.78,KLOL 072053Z AUTO 03010G20KT 10SM BKN048 BKN060 OVC075 08/M02 A2996 RMK AO2 SLP148 T00831022 51002,M
BVU,2024-03-07 20:55,-114.8611,35.9475,671.00,60.80,33.80,36.16,M,4.00,0.00,29.79,M,10.00,10.00,FEW,M,M,M,6000.00,M,M,M,M,M,M,M,M,M,M,60.80,KBVU 072055Z AUTO VRB04G10KT 10SM FEW060 16/01 A2979 RMK AO2,M
CXP,2024-03-07 20:55,-119.7326,39.1923,1431.00,42.80,32.00,65.38,30.00,8.00,0.00,29.97,M,10.00,13.00,BKN,OVC,M,M,2900.00,3600.00,M,M,M,M,M,M,M,M,M,37.42,KCXP 072055Z AUTO 03008G13KT 10SM BKN029 OVC036 06/00 A2997 RMK AO2,M
INS,2024-03-07 20:55,-115.6733,36.5872,955.00,59.70,27.30,28.88,0.00,0.00,0.00,29.78,1006.10,10.00,M,CLR,M,M,M,M,M,M,M,M,M,M,M,M,M,M,59.70,KINS 072055Z AUTO 00000KT 10SM CLR 15/M03 A2978 RMK AO2 SLP061 T01541026 58013 $,M
RNO,2024-03-07 20:55,-119.7711,39.4839,1341.00,46.00,32.00,57.87,80.00,7.00,0.00,29.98,1014.80,10.00,15.00,FEW,BKN,M,M,2500.00,5000.00,M,M,M,M,M,M,M,M,M,41.84,KRNO 072055Z 08007G15KT 10SM FEW025 BKN050 08/00 A2998 RMK AO2 SLP148 MTN TOPS OBSCD SW THRU NW T00780000 53006,M
RTS,2024-03-07 20:55,-119.8764,39.6682,1539.00,39.20,30.20,69.88,10.00,9.00,0.00,29.99,M,10.00,M,FEW,OVC,M,M,2100.00,3700.00,M,M,M,M,M,M,M,M,M,32.47,KRTS 072055Z AUTO 01009KT 10SM FEW021 OVC037 04/M01 A2999 RMK AO2,M
MEV,2024-03-07 20:55,-119.7500,38.9963,1441.42,46.40,32.00,57.00,10.00,13.00,0.00,29.94,M,10.00,20.00,CLR,M,M,M,M,M,M,M,M,M,M,M,M,M,M,40.02,KMEV 072055Z AUTO 01013G20KT 10SM CLR 08/M00 A2994 RMK AO2,M
HTH,2024-03-07 20:55,-118.6315,38.5448,1282.89,50.00,32.00,49.81,340.00,20.00,0.00,29.93,M,10.00,M,CLR,M,M,M,M,M,M,M,M,M,M,M,M,M,M,50.00,KHTH 072055Z AUTO 34020KT 10SM CLR 10/00 A2993 RMK A01,M
TMT,2024-03-07 20:55,-117.1971,39.4643,1749.34,40.00,28.80,63.97,10.00,7.00,0.00,29.93,M,10.00,M,SCT,SCT,BKN,M,2700.00,3200.00,3900.00,M,M,M,M,M,M,M,M,34.53,KTMT 072055Z AUTO 01007KT 10SM SCT027 SCT032 BKN039 05/M02 A2993 RMK AO2 T00451018,M
10U,2024-03-07 20:55,-116.1876,41.9532,1637.00,30.20,17.60,59.01,30.00,10.00,0.00,30.00,M,10.00,M,BKN,M,M,M,3000.00,M,M,M,M,M,M,M,M,M,M,20.71,K10U 072055Z AUTO 03010KT 350V070 10SM BKN030 M01/M08 A3000 RMK AO2,M
LSV,2024-03-07 20:55,-115.0343,36.2362,570.00,62.20,33.40,33.87,10.00,14.00,0.00,29.76,1006.70,10.00,21.00,CLR,M,M,M,M,M,M,M,M,M,M,M,M,M,M,62.20,KLSV 072055Z AUTO 01014G21KT 10SM CLR 17/01 A2976 RMK AO2 SLP067 T01680008 57008 $,M
EKO,2024-03-07 20:56,-115.7860,40.8242,1367.00,41.00,20.00,42.62,280.00,7.00,0.00,29.93,1014.20,10.00,M,CLR,M,M,M,M,M,M,M,M,M,M,M,M,M,M,35.75,KEKO 072056Z AUTO 28007KT 260V320 10SM CLR 05/M07 A2993 RMK AO2 SLP142 T00501067 53005,M
WMC,2024-03-07 20:56,-117.8072,40.9019,1315.00,42.00,24.00,48.55,20.00,10.00,0.00,29.99,1015.70,10.00,M,OVC,M,M,M,4000.00,M,M,M,M,M,M,M,M,M,M,35.51,KWMC 072056Z AUTO 02010KT 10SM OVC040 06/M04 A2999 RMK AO2 SLP157 T00561044 53002,M
NFL,2024-03-07 20:56,-118.7010,39.4166,1199.00,47.00,29.00,49.34,330.00,10.00,0.00,29.96,1011.70,10.00,M,SCT,BKN,BKN,M,2500.00,4000.00,7000.00,M,M,M,M,M,M,M,M,41.78,KNFL 072056Z COR 33010KT 10SM SCT025 BKN040 BKN070 08/M02 A2996 RMK AO2 SLP117 60001 T00831017 50003,M
HND,2024-03-07 20:56,-115.1344,35.9729,742.79,61.00,34.00,36.19,M,3.00,0.00,29.81,1010.00,10.00,M,CLR,M,M,M,M,M,M,M,M,M,M,M,M,M,M,61.00,KHND 072056Z VRB03KT 10SM CLR 16/01 A2981 RMK AO2 SLP100 T01610011 58009,M
TPH,2024-03-07 20:56,-117.0904,38.0505,1654.00,47.00,26.00,43.61,30.00,11.00,T,29.85,1009.70,10.00,17.00,FEW,SCT,OVC,M,3700.00,4300.00,5000.00,M,M,M,M,M,26.00,20.00,2024-03-07 20:31,41.42,KTPH 072056Z AUTO 03011G17KT 10SM FEW037 SCT043 OVC050 08/M03 A2985 RMK AO2 PK WND 02026/2031 RAB1957E06B38E47 SLP097 P0000 60000 T00831033 56003,M
LAS,2024-03-07 20:56,-115.1634,36.0719,663.00,63.00,34.00,33.72,30.00,4.00,0.00,29.79,1007.80,10.00,M,SCT,SCT,BKN,M,5000.00,12000.00,20000.00,M,M,M,M,M,M,M,M,63.00,KLAS 072056Z 03004KT 10SM SCT050 SCT120 BKN200 17/01 A2979 RMK AO2 SLP078 CB DSNT SW-W T01720011 58007,M
BAM,2024-03-07 21:00,-116.8743,40.5990,1382.36,42.80,26.60,52.45,360.00,5.00,0.00,29.97,M,10.00,M,SCT,BKN,M,M,4100.00,5000.00,M,M,M,M,M,M,M,M,M,39.22,KBAM 072100Z AUTO 36005KT 10SM SCT041 BKN050 06/M03 A2997 RMK AO1,M
ELY,2024-03-07 21:10,-114.8453,39.2950,1909.00,40.00,30.00,67.18,20.00,16.00,0.00,29.83,M,10.00,20.00,FEW,BKN,BKN,M,3900.00,5000.00,7000.00,M,M,M,M,M,M,M,M,30.85,KELY 072110Z AUTO 02016G20KT 10SM FEW039 BKN050 BKN070 04/M01 A2983 RMK AO2 WSHFT 2050 T00441011,M
BVU,2024-03-07 21:15,-114.8611,35.9475,671.00,60.80,33.80,36.16,0.00,0.00,0.00,29.79,M,10.00,M,FEW,SCT,M,M,5500.00,6500.00,M,M,M,M,M,M,M,M,M,60.80,KBVU 072115Z AUTO 00000KT 10SM FEW055 SCT065 16/01 A2979 RMK AO2,M
CXP,2024-03-07 21:15,-119.7326,39.1923,1431.00,44.60,30.20,56.74,360.00,5.00,0.00,29.98,M,10.00,12.00,SCT,SCT,OVC,M,2900.00,4100.00,5000.00,M,M,M,M,M,M,M,M,41.36,KCXP 072115Z AUTO 36005G12KT 10SM SCT029 SCT041 OVC050 07/M01 A2998 RMK AO2,M
RTS,2024-03-07 21:15,-119.8764,39.6682,1539.00,39.20,30.20,69.88,340.00,8.00,0.00,29.99,M,10.00,M,FEW,BKN,BKN,M,2000.00,3600.00,4100.00,M,M,M,M,M,M,M,M,32.98,KRTS 072115Z AUTO 34008KT 10SM FEW020 BKN036 BKN041 04/M01 A2999 RMK AO2,M
MEV,2024-03-07 21:15,-119.7500,38.9963,1441.42,48.20,32.00,53.27,350.00,18.00,0.00,29.94,M,10.00,M,CLR,M,M,M,M,M,M,M,M,M,M,M,M,M,M,41.07,KMEV 072115Z AUTO 35018KT 10SM CLR 09/M00 A2994 RMK AO2,M
HTH,2024-03-07 21:15,-118.6315,38.5448,1282.89,48.20,33.80,57.26,340.00,19.00,0.00,29.94,M,10.00,25.00,FEW,M,M,M,2800.00,M,M,M,M,M,M,M,M,M,M,40.86,KHTH 072115Z AUTO 34019G25KT 10SM FEW028 09/01 A2994 RMK A01,M
10U,2024-03-07 21:15,-116.1876,41.9532,1637.00,30.20,19.40,63.75,50.00,7.00,0.00,30.00,M,10.00,M,SCT,M,M,M,3100.00,M,M,M,M,M,M,M,M,M,M,22.59,K10U 072115Z AUTO 05007KT 030V110 10SM SCT031 M01/M07 A3000 RMK AO2,M
TMT,2024-03-07 21:15,-117.1971,39.4643,1749.34,39.40,28.00,63.37,10.00,9.00,0.00,29.93,M,10.00,14.00,SCT,BKN,OVC,M,3100.00,3900.00,5000.00,M,M,M,M,M,M,M,M,32.72,KTMT 072115Z AUTO 01009G14KT 10SM SCT031 BKN039 OVC050 04/M02 A2993 RMK AO2 T00411022,M
BAM,2024-03-07 21:20,-116.8743,40.5990,1382.36,42.80,28.40,56.48,350.00,10.00,0.00,29.98,M,10.00,16.00,BKN,M,M,M,4500.00,M,M,M,M,M,M,M,M,M,M,36.51,KBAM 072120Z AUTO 35010G16KT 10SM BKN045 06/M02 A2998 RMK AO1,M
BVU,2024-03-07 21:35,-114.8611,35.9475,671.00,60.80,33.80,36.16,150.00,5.00,0.00,29.78,M,10.00,M,SCT,BKN,M,M,5500.00,6500.00,M,M,M,M,M,M,M,M,M,60.80,KBVU 072135Z AUTO 15005KT 10SM SCT055 BKN065 16/01 A2978 RMK AO2,M
CXP,2024-03-07 21:35,-119.7326,39.1923,1431.00,42.80,32.00,65.38,60.00,11.00,0.00,29.98,M,10.00,M,SCT,SCT,BKN,M,2900.00,3500.00,5000.00,M,M,M,M,M,M,M,M,36.11,KCXP 072135Z AUTO 06011KT 10SM SCT029 SCT035 BKN050 06/00 A2998 RMK AO2,M
RTS,2024-03-07 21:35,-119.8764,39.6682,1539.00,41.00,28.40,60.54,320.00,8.00,0.00,29.99,M,10.00,M,SCT,SCT,BKN,M,3900.00,4700.00,5500.00,M,M,M,M,M,M,M,M,35.20,KRTS 072135Z AUTO 32008KT 300V360 10SM SCT039 SCT047 BKN055 05/M02 A2999 RMK AO2,M
MEV,2024-03-07 21:35,-119.7500,38.9963,1441.42,46.40,32.00,57.00,360.00,17.00,0.00,29.95,M,10.00,M,SCT,SCT,M,M,3300.00,4000.00,M,M,M,M,M,M,M,M,M,38.94,KMEV 072135Z AUTO 36017KT 10SM SCT033 SCT040 08/00 A2995 RMK AO2,M
HTH,2024-03-07 21:35,-118.6315,38.5448,1282.89,48.20,32.00,53.27,340.00,18.00,0.00,29.95,M,10.00,24.00,FEW,FEW,M,M,2900.00,3500.00,M,M,M,M,M,M,M,M,M,41.07,KHTH 072135Z AUTO 34018G24KT 10SM FEW029 FEW035 09/00 A2995 RMK A01,M
10U,2024-03-07 21:35,-116.1876,41.9532,1637.00,30.20,17.60,59.01,30.00,5.00,0.00,30.00,M,10.00,12.00,FEW,M,M,M,3100.00,M,M,M,M,M,M,M,M,M,M,24.26,K10U 072135Z AUTO 03005G12KT 10SM FEW031 M01/M08 A3000 RMK AO2,M
TMT,2024-03-07 21:35,-117.1971,39.4643,1749.34,39.40,27.70,62.60,10.00,11.00,0.00,29.93,M,10.00,15.00,SCT,SCT,OVC,M,3300.00,4800.00,6000.00,M,M,M,M,M,M,M,M,31.82,KTMT 072135Z AUTO 01011G15KT 10SM SCT033 SCT048 OVC060 04/M02 A2993 RMK AO2 T00411024,M
ELY,2024-03-07 21:36,-114.8453,39.2950,1909.00,35.00,28.00,75.36,10.00,12.00,0.01,29.85,M,1.75,22.00,SCT,BKN,OVC,M,2500.00,4400.00,6000.00,M,-SN,M,M,M,M,M,M,25.82,KELY 072136Z AUTO 01012G22KT 1 3/4SM -SN SCT025 BKN044 OVC060 02/M02 A2985 RMK AO2 WSHFT 2050 RAB19E25SNB25 P0001 T00171022,M
HND,2024-03-07 21:39,-115.1344,35.9729,742.79,59.00,35.60,41.42,270.00,14.00,0.00,29.81,M,10.00,M,BKN,OVC,M,M,6500.00,9500.00,M,M,M,M,M,M,M,M,M,59.00,KHND 072139Z 27014KT 10SM BKN065 OVC095 15/02 A2981 RMK AO2 WSHFT 2119 LTG DSNT S,M
BAM,2024-03-07 21:40,-116.8743,40.5990,1382.36,42.80,26.60,52.45,10.00,7.00,0.00,29.98,M,10.00,15.00,BKN,M,M,M,4500.00,M,M,M,M,M,M,M,M,M,M,37.94,KBAM 072140Z AUTO 01007G15KT 10SM BKN045 06/M03 A2998 RMK AO1,M
ELY,2024-03-07 21:44,-114.8453,39.2950,1909.00,35.00,28.00,75.36,10.00,11.00,0.03,29.86,M,3.00,M,FEW,BKN,OVC,M,2500.00,3600.00,5500.00,M,-SN,M,M,M,M,M,M,26.26,KELY 072144Z AUTO 01011KT 3SM -SN FEW025 BKN036 OVC055 02/M02 A2986 RMK AO2 WSHFT 2050 RAB19E25SNB25 P0003 T00171022,M
P68,2024-03-07 21:53,-116.0056,39.6014,1993.00,40.00,26.00,57.01,330.00,13.00,0.00,29.89,1011.00,M,22.00,M,M,M,M,M,M,M,M,M,M,M,M,M,M,M,31.82,KP68 072153Z AUTO 33013G22KT 04/M03 A2989 RMK AO1 SLP110 T00441033,M
DRA,2024-03-07 21:53,-116.0278,36.6206,1009.00,48.00,39.00,70.85,300.00,20.00,T,29.81,1007.80,5.00,32.00,FEW,BKN,OVC,M,2900.00,6000.00,9500.00,M,RA,M,M,M,32.00,300.00,2024-03-07 21:46,40.39,KDRA 072153Z AUTO 30020G32KT 5SM RA FEW029 BKN060 OVC095 09/04 A2981 RMK AO2 PK WND 30032/2146 RAB49 SLP078 P0000 T00890039,M
ELY,2024-03-07 21:53,-114.8453,39.2950,1909.00,36.00,29.00,75.46,10.00,12.00,0.03,29.86,1010.40,9.00,M,FEW,OVC,M,M,2300.00,3800.00,M,M,M,M,M,M,M,M,M,27.09,KELY 072153Z AUTO 01012KT 9SM FEW023 OVC038 02/M02 A2986 RMK AO2 WSHFT 2050 RAB19E25SNB25E52 SLP104 P0003 T00221017,M
VGT,2024-03-07 21:53,-115.1933,36.2111,667.00,62.00,36.00,37.83,240.00,7.00,0.00,29.77,1008.90,10.00,M,OVC,M,M,M,11000.00,M,M,M,M,M,M,M,M,M,M,62.00,KVGT 072153Z 24007KT 10SM OVC110 17/02 A2977 RMK AO2 SLP089 T01670022,M
LOL,2024-03-07 21:53,-118.5701,40.0684,1192.43,46.00,26.00,45.29,10.00,9.00,0.00,29.98,1015.50,10.00,M,OVC,M,M,M,5000.00,M,M,M,M,M,M,M,M,M,M,40.92,KLOL 072153Z AUTO 01009KT 10SM OVC050 08/M03 A2998 RMK AO2 SLP155 T00781033,M
BVU,2024-03-07 21:55,-114.8611,35.9475,671.00,62.60,33.80,33.93,200.00,5.00,0.00,29.78,M,10.00,M,FEW,M,M,M,6000.00,M,M,M,M,M,M,M,M,M,M,62.60,KBVU 072155Z AUTO 20005KT 10SM FEW060 17/01 A2978 RMK AO2,M
CXP,2024-03-07 21:55,-119.7326,39.1923,1431.00,42.80,33.80,70.28,50.00,6.00,0.00,29.99,M,10.00,M,SCT,BKN,OVC,M,2400.00,2900.00,3500.00,M,M,M,M,M,M,M,M,38.54,KCXP 072155Z AUTO 05006KT 10SM SCT024 BKN029 OVC035 06/01 A2999 RMK AO2,M
INS,2024-03-07 21:55,-115.6733,36.5872,955.00,59.70,23.00,24.15,230.00,3.00,0.00,29.77,1005.70,10.00,M,SCT,M,M,M,7000.00,M,M,M,M,M,M,M,M,M,M,59.70,KINS 072155Z AUTO 23003KT 10SM SCT070 15/M05 A2977 RMK AO2 SLP057 T01541051 $,M
RNO,2024-03-07 21:55,-119.7711,39.4839,1341.00,45.00,31.00,57.73,10.00,13.00,0.00,29.98,1014.90,10.00,M,FEW,BKN,M,M,3000.00,5500.00,M,M,M,M,M,M,M,M,M,38.22,KRNO 072155Z 01013KT 10SM FEW030 BKN055 07/M01 A2998 RMK AO2 SLP149 MTN TOPS OBSCD SW THRU W T00721006,M
RTS,2024-03-07 21:55,-119.8764,39.6682,1539.00,41.00,28.40,60.54,320.00,7.00,0.00,30.00,M,10.00,M,FEW,SCT,BKN,M,3200.00,4200.00,4800.00,M,M,M,M,M,M,M,M,35.75,KRTS 072155Z AUTO 32007KT 300V360 10SM FEW032 SCT042 BKN048 05/M02 A3000 RMK AO2,M
MEV,2024-03-07 21:55,-119.7500,38.9963,1441.42,46.40,32.00,57.00,350.00,15.00,0.00,29.96,M,10.00,20.00,FEW,FEW,M,M,3200.00,4000.00,M,M,M,M,M,M,M,M,M,39.45,KMEV 072155Z AUTO 35015G20KT 10SM FEW032 FEW040 08/00 A2996 RMK AO2,M
HTH,2024-03-07 21:55,-118.6315,38.5448,1282.89,48.20,32.00,53.27,340.00,18.00,0.00,29.95,M,10.00,23.00,CLR,M,M,M,M,M,M,M,M,M,M,M,M,M,M,41.07,KHTH 072155Z AUTO 34018G23KT 10SM CLR 09/M00 A2995 RMK A01,M
10U,2024-03-07 21:55,-116.1876,41.9532,1637.00,30.20,17.60,59.01,30.00,7.00,0.00,30.01,M,10.00,13.00,CLR,M,M,M,M,M,M,M,M,M,M,M,M,M,M,22.59,K10U 072155Z AUTO 03007G13KT 10SM CLR M01/M08 A3001 RMK AO2,M
TMT,2024-03-07 21:55,-117.1971,39.4643,1749.34,40.00,27.00,59.41,350.00,14.00,0.00,29.94,M,10.00,17.00,SCT,OVC,M,M,3300.00,6000.00,M,M,M,M,M,M,M,M,M,31.47,KTMT 072155Z AUTO 35014G17KT 10SM SCT033 OVC060 04/M03 A2994 RMK AO2 T00441027,M
LSV,2024-03-07 21:55,-115.0343,36.2362,570.00,61.50,32.00,32.81,10.00,8.00,0.00,29.75,1006.40,10.00,M,CLR,M,M,M,M,M,M,M,M,M,M,M,M,M,M,61.50,KLSV 072155Z AUTO 01008KT 10SM CLR 16/00 A2975 RMK AO2 SLP064 T01640001 $,M
EKO,2024-03-07 21:56,-115.7860,40.8242,1367.00,40.00,16.00,37.30,330.00,10.00,0.00,29.94,1014.50,10.00,M,CLR,M,M,M,M,M,M,M,M,M,M,M,M,M,M,33.00,KEKO 072156Z AUTO 33010KT 10SM CLR 04/M09 A2994 RMK AO2 SLP145 T00441089,M
WMC,2024-03-07 21:56,-117.8072,40.9019,1315.00,42.00,24.00,48.55,10.00,7.00,0.00,30.01,1016.40,10.00,M,BKN,BKN,M,M,4200.00,4800.00,M,M,M,M,M,M,M,M,M,36.97,KWMC 072156Z AUTO 01007KT 340V040 10SM BKN042 BKN048 06/M04 A3001 RMK AO2 SLP164 T00561044,M
NFL,2024-03-07 21:56,-118.7010,39.4166,1199.00,48.00,27.00,43.77,10.00,10.00,0.00,29.97,1012.00,10.00,M,SCT,SCT,BKN,M,2500.00,4500.00,7000.00,M,M,M,M,M,M,M,M,43.03,KNFL 072156Z 01010KT 10SM SCT025 SCT045 BKN070 09/M03 A2997 RMK AO2 SLP120 T00891028,M
HND,2024-03-07 21:56,-115.1344,35.9729,742.79,59.00,35.00,40.45,270.00,8.00,0.00,29.81,1010.20,10.00,15.00,FEW,BKN,M,M,6500.00,9000.00,M,M,M,M,M,M,M,M,M,59.00,KHND 072156Z 27008G15KT 10SM FEW065 BKN090 15/02 A2981 RMK AO2 WSHFT 2119 SLP102 T01500017,M
TPH,2024-03-07 21:56,-117.0904,38.0505,1654.00,49.00,26.00,40.45,320.00,12.00,T,29.85,1009.40,10.00,22.00,FEW,SCT,M,M,5000.00,9000.00,M,M,M,M,M,M,M,M,M,43.64,KTPH 072156Z AUTO 32012G22KT 10SM FEW050 SCT090 09/M03 A2985 RMK AO2 RAB2059E11 SLP094 P0000 T00941033,M
LAS,2024-03-07 21:56,-115.1634,36.0719,663.00,59.00,35.00,40.45,260.00,13.00,0.00,29.79,1007.80,10.00,M,SCT,BKN,BKN,M,6500.00,12000.00,25000.00,M,M,M,M,M,M,M,M,59.00,KLAS 072156Z 26013KT 10SM SCT065 BKN120 BKN250 15/02 A2979 RMK AO2 SLP078 CB DSNT S-SW VCSH W T01500017,M
BAM,2024-03-07 22:00,-116.8743,40.5990,1382.36,42.80,26.60,52.45,350.00,6.00,0.00,29.98,M,10.00,14.00,BKN,M,M,M,4700.00,M,M,M,M,M,M,M,M,M,M,38.54,KBAM 072200Z AUTO 35006G14KT 10SM BKN047 06/M03 A2998 RMK AO1,M
ELY,2024-03-07 22:11,-114.8453,39.2950,1909.00,35.00,29.00,78.51,360.00,15.00,T,29.87,M,1.50,25.00,SCT,BKN,OVC,M,1400.00,3900.00,4600.00,M,-SN,M,M,M,M,M,M,24.67,KELY 072211Z AUTO 36015G25KT 1 1/2SM -SN SCT014 BKN039 OVC046 02/M02 A2987 RMK AO2 SNB07 P0000 T00171017,M
BVU,2024-03-07 22:15,-114.8611,35.9475,671.00,60.80,33.80,36.16,130.00,6.00,0.00,29.78,M,10.00,M,BKN,M,M,M,9500.00,M,M,M,M,M,M,M,M,M,M,60.80,KBVU 072215Z AUTO 13006KT 10SM BKN095 16/01 A2978 RMK AO2,M
CXP,2024-03-07 22:15,-119.7326,39.1923,1431.00,42.80,32.00,65.38,30.00,4.00,0.00,29.99,M,10.00,M,OVC,M,M,M,2400.00,M,M,M,M,M,M,M,M,M,M,40.03,KCXP 072215Z AUTO 03004KT 10SM OVC024 06/00 A2999 RMK AO2,M
VGT,2024-03-07 22:15,-115.1933,36.2111,667.00,61.00,38.00,42.40,240.00,10.00,0.00,29.77,M,10.00,M,BKN,M,M,M,11000.00,M,M,M,M,M,M,M,M,M,M,61.00,KVGT 072215Z 24010KT 10SM BKN110 16/03 A2977 RMK AO2 WSHFT 2155 T01610033,M
RTS,2024-03-07 22:15,-119.8764,39.6682,1539.00,41.00,28.40,60.54,330.00,9.00,0.00,30.01,M,10.00,M,FEW,OVC,M,M,3200.00,4700.00,M,M,M,M,M,M,M,M,M,34.70,KRTS 072215Z AUTO 33009KT 10SM FEW032 OVC047 05/M02 A3001 RMK AO2,M
MEV,2024-03-07 22:15,-119.7500,38.9963,1441.42,46.40,32.00,57.00,10.00,14.00,0.00,29.96,M,10.00,19.00,CLR,M,M,M,M,M,M,M,M,M,M,M,M,M,M,39.72,KMEV 072215Z AUTO 01014G19KT 10SM CLR 08/M00 A2996 RMK AO2,M
HTH,2024-03-07 22:15,-118.6315,38.5448,1282.89,46.40,32.00,57.00,320.00,17.00,0.00,29.96,M,10.00,25.00,FEW,M,M,M,7000.00,M,M,M,M,M,M,M,M,M,M,38.94,KHTH 072215Z AUTO 32017G25KT 10SM FEW070 08/00 A2996 RMK A01,M
10U,2024-03-07 22:15,-116.1876,41.9532,1637.00,30.20,17.60,59.01,20.00,7.00,0.00,30.02,M,10.00,14.00,CLR,M,M,M,M,M,M,M,M,M,M,M,M,M,M,22.59,K10U 072215Z AUTO 02007G14KT 360V070 10SM CLR M01/M08 A3002 RMK AO2,M
TMT,2024-03-07 22:15,-117.1971,39.4643,1749.34,39.20,26.40,59.79,10.00,11.00,0.00,29.94,M,10.00,15.00,BKN,BKN,OVC,M,3300.00,3900.00,6000.00,M,M,M,M,M,M,M,M,31.57,KTMT 072215Z AUTO 01011G15KT 10SM BKN033 BKN039 OVC060 04/M03 A2994 RMK AO2 T00401031,M
ELY,2024-03-07 22:16,-114.8453,39.2950,1909.00,35.00,30.00,81.78,10.00,13.00,T,29.87,M,0.75,21.00,BKN,OVC,M,M,1200.00,4100.00,M,M,-SN,M,M,M,M,M,M,25.41,KELY 072216Z AUTO 01013G21KT 3/4SM -SN BKN012 OVC041 02/M01 A2987 RMK AO2 SNB07 P0000 T00171011,M
BAM,2024-03-07 22:20,-116.8743,40.5990,1382.36,42.80,26.60,52.45,20.00,8.00,0.00,29.99,M,10.00,15.00,BKN,M,M,M,4700.00,M,M,M,M,M,M,M,M,M,M,37.42,KBAM 072220Z AUTO 02008G15KT 10SM BKN047 06/M03 A2999 RMK AO1,M
ELY,2024-03-07 22:23,-114.8453,39.2950,1909.00,35.00,30.00,81.78,20.00,8.00,T,29.88,M,1.50,17.00,BKN,BKN,M,M,1600.00,4300.00,M,M,-SN,M,M,M,M,M,M,27.81,KELY 072223Z AUTO 02008G17KT 1 1/2SM -SN BKN016 BKN043 02/M01 A2988 RMK AO2 SNB07 P0000 T00171011,M
ELY,2024-03-07 22:26,-114.8453,39.2950,1909.00,35.00,31.00,85.17,40.00,9.00,T,29.87,M,3.00,M,BKN,BKN,OVC,M,1600.00,2500.00,4300.00,M,-SN BR,M,M,M,M,M,M,27.24,KELY 072226Z AUTO 04009KT 3SM -SN BR BKN016 BKN025 OVC043 02/M01 A2987 RMK AO2 SNB07 P0000 T00171006,M
BVU,2024-03-07 22:35,-114.8611,35.9475,671.00,60.80,33.80,36.16,0.00,0.00,0.00,29.78,M,10.00,M,SCT,BKN,M,M,7000.00,9500.00,M,M,M,M,M,M,M,M,M,60.80,KBVU 072235Z AUTO 00000KT 10SM SCT070 BKN095 16/01 A2978 RMK AO2,M
CXP,2024-03-07 22:35,-119.7326,39.1923,1431.00,42.80,32.00,65.38,20.00,4.00,0.00,30.00,M,10.00,M,BKN,OVC,M,M,2400.00,3000.00,M,M,M,M,M,M,M,M,M,40.03,KCXP 072235Z AUTO 02004KT 10SM BKN024 OVC030 06/00 A3000 RMK AO2,M
RTS,2024-03-07 22:35,-119.8764,39.6682,1539.00,39.20,28.40,64.93,340.00,8.00,0.00,30.01,M,10.00,M,OVC,M,M,M,4900.00,M,M,M,M,M,M,M,M,M,M,32.98,KRTS 072235Z AUTO 34008KT 10SM OVC049 04/M02 A3001 RMK AO2,M
10U,2024-03-07 22:35,-116.1876,41.9532,1637.00,32.00,17.60,54.87,40.00,11.00,0.00,30.03,M,10.00,M,CLR,M,M,M,M,M,M,M,M,M,M,M,M,M,M,22.47,K10U 072235Z AUTO 04011KT 10SM CLR M00/M08 A3003 RMK AO2,M
TMT,2024-03-07 22:35,-117.1971,39.4643,1749.34,40.00,26.60,58.44,350.00,11.00,0.00,29.95,M,10.00,15.00,BKN,BKN,OVC,M,3300.00,4300.00,4900.00,M,M,M,M,M,M,M,M,32.58,KTMT 072235Z AUTO 35011G15KT 10SM BKN033 BKN043 OVC049 04/M03 A2995 RMK AO2 T00441030,M
BAM,2024-03-07 22:40,-116.8743,40.5990,1382.36,42.80,26.60,52.45,50.00,11.00,0.00,29.99,M,10.00,M,BKN,M,M,M,4900.00,M,M,M,M,M,M,M,M,M,M,36.11,KBAM 072240Z AUTO 05011KT 10SM BKN049 06/M03 A2999 RMK AO1,M
DRA,2024-03-07 22:41,-116.0278,36.6206,1009.00,52.00,38.00,58.71,30.00,14.00,0.08,29.83,M,10.00,24.00,BKN,OVC,M,M,7000.00,8000.00,M,M,-RA,M,M,M,M,M,M,52.00,KDRA 072241Z AUTO 03014G24KT 10SM -RA BKN070 OVC080 11/03 A2983 RMK AO2 WSHFT 2224 P0008 T01110033,M
P68,2024-03-07 22:53,-116.0056,39.6014,1993.00,40.00,25.00,54.69,350.00,13.00,0.00,29.91,1012.10,M,M,M,M,M,M,M,M,M,M,M,M,M,M,31.00,350.00,2024-03-07 22:05,31.82,KP68 072253Z AUTO 35013KT 04/M04 A2991 RMK AO1 PK WND 35031/2205 SLP121 T00441039,M
DRA,2024-03-07 22:53,-116.0278,36.6206,1009.00,54.00,39.00,56.74,40.00,13.00,0.08,29.82,1008.00,10.00,M,BKN,OVC,M,M,7000.00,8500.00,M,M,M,M,M,M,M,M,M,54.00,KDRA 072253Z AUTO 04013KT 10SM BKN070 OVC085 12/04 A2982 RMK AO2 WSHFT 2224 RAE43 SLP080 P0008 T01220039,M
ELY,2024-03-07 22:53,-114.8453,39.2950,1909.00,39.00,29.00,67.06,30.00,8.00,T,29.87,1010.30,10.00,M,SCT,OVC,M,M,3200.00,6500.00,M,M,M,M,M,M,M,M,M,32.74,KELY 072253Z AUTO 03008KT 10SM SCT032 OVC065 04/M02 A2987 RMK AO2 SNB07E38 SLP103 P0000 T00391017,M
VGT,2024-03-07 22:53,-115.1933,36.2111,667.00,61.00,37.00,40.77,250.00,13.00,0.00,29.77,1008.90,10.00,M,SCT,M,M,M,10000.00,M,M,M,M,M,M,M,M,M,M,61.00,KVGT 072253Z 25013KT 10SM SCT100 16/03 A2977 RMK AO2 WSHFT 2155 SLP089 T01610028,M
LOL,2024-03-07 22:53,-118.5701,40.0684,1192.43,46.00,26.00,45.29,360.00,12.00,0.00,30.00,1016.20,10.00,M,OVC,M,M,M,6500.00,M,M,M,M,M,M,M,M,M,M,39.82,KLOL 072253Z AUTO 36012KT 10SM OVC065 08/M03 A3000 RMK AO2 SLP162 T00781033,M
BVU,2024-03-07 22:55,-114.8611,35.9475,671.00,60.80,33.80,36.16,200.00,9.00,0.00,29.78,M,10.00,M,BKN,BKN,BKN,M,6000.00,7500.00,9500.00,M,M,M,M,M,M,M,M,60.80,KBVU 072255Z AUTO 20009KT 10SM BKN060 BKN075 BKN095 16/01 A2978 RMK AO2,M
CXP,2024-03-07 22:55,-119.7326,39.1923,1431.00,44.60,32.00,61.03,70.00,8.00,0.00,30.00,M,10.00,M,BKN,BKN,OVC,M,2600.00,3100.00,4200.00,M,M,M,M,M,M,M,M,39.63,KCXP 072255Z AUTO 07008KT 10SM BKN026 BKN031 OVC042 07/00 A3000 RMK AO2,M
INS,2024-03-07 22:55,-115.6733,36.5872,955.00,57.00,26.60,30.92,270.00,12.00,0.00,29.80,1007.00,10.00,M,BKN,BKN,M,M,7000.00,9500.00,M,M,M,M,M,M,M,M,M,57.00,KINS 072255Z AUTO 27012KT 10SM BKN070 BKN095 14/M03 A2980 RMK AO2 LTG DSNT SW SLP070 T01391030 $,M
RNO,2024-03-07 22:55,-119.7711,39.4839,1341.00,46.00,29.00,51.24,10.00,9.00,0.00,30.00,1015.60,10.00,17.00,FEW,BKN,M,M,3000.00,5500.00,M,M,M,M,M,M,M,M,M,40.92,KRNO 072255Z 01009G17KT 10SM FEW030 BKN055 08/M02 A3000 RMK AO2 SLP156 MTN TOPS OBSCD DSNT SW T00781017,M
LSV,2024-03-07 22:55,-115.0343,36.2362,570.00,63.00,30.20,28.94,0.00,0.00,0.00,29.74,1006.00,10.00,M,CLR,M,M,M,M,M,M,M,M,M,M,M,M,M,M,63.00,KLSV 072255Z AUTO 00000KT 10SM CLR 17/M01 A2974 RMK AO2 SLP060 T01721010 $,M
RTS,2024-03-07 22:55,-119.8764,39.6682,1539.00,41.00,30.20,65.16,360.00,9.00,0.00,30.02,M,10.00,M,FEW,SCT,OVC,M,2700.00,3900.00,5000.00,M,M,M,M,M,M,M,M,34.70,KRTS 072255Z AUTO 36009KT 10SM FEW027 SCT039 OVC050 05/M01 A3002 RMK AO2,M
MEV,2024-03-07 22:55,-119.7500,38.9963,1441.42,44.60,30.20,56.74,350.00,14.00,0.00,29.97,M,10.00,M,SCT,OVC,M,M,3700.00,7000.00,M,M,M,M,M,M,M,M,M,37.40,KMEV 072255Z AUTO 35014KT 10SM SCT037 OVC070 07/M01 A2997 RMK AO2,M
HTH,2024-03-07 22:55,-118.6315,38.5448,1282.89,46.40,32.00,57.00,330.00,17.00,0.00,29.97,M,10.00,M,FEW,SCT,M,M,7000.00,8500.00,M,M,M,M,M,M,M,M,M,38.94,KHTH 072255Z AUTO 33017KT 10SM FEW070 SCT085 08/M00 A2997 RMK A01,M
10U,2024-03-07 22:55,-116.1876,41.9532,1637.00,32.00,17.60,54.87,40.00,9.00,0.00,30.03,M,10.00,19.00,FEW,M,M,M,3400.00,M,M,M,M,M,M,M,M,M,M,23.51,K10U 072255Z AUTO 04009G19KT 10SM FEW034 M00/M08 A3003 RMK AO2,M
TMT,2024-03-07 22:55,-117.1971,39.4643,1749.34,39.40,27.30,61.58,360.00,14.00,0.00,29.96,M,10.00,M,SCT,BKN,OVC,M,3300.00,4700.00,6000.00,M,M,M,M,M,M,M,M,30.70,KTMT 072255Z AUTO 36014KT 10SM SCT033 BKN047 OVC060 04/M03 A2996 RMK AO2 T00411026,M
EKO,2024-03-07 22:56,-115.7860,40.8242,1367.00,40.00,18.00,40.67,340.00,11.00,0.00,29.95,1015.10,10.00,M,CLR,M,M,M,M,M,M,M,M,M,M,M,M,M,M,32.58,KEKO 072256Z AUTO 34011KT 10SM CLR 04/M08 A2995 RMK AO2 SLP151 T00441078,M
WMC,2024-03-07 22:56,-117.8072,40.9019,1315.00,45.00,22.00,39.79,350.00,12.00,0.00,30.02,1016.60,10.00,M,BKN,M,M,M,4900.00,M,M,M,M,M,M,M,M,M,M,38.55,KWMC 072256Z AUTO 35012KT 10SM BKN049 07/M06 A3002 RMK AO2 SLP166 T00721056,M
NFL,2024-03-07 22:56,-118.7010,39.4166,1199.00,48.00,28.00,45.61,360.00,12.00,0.00,29.99,1012.50,10.00,M,SCT,BKN,OVC,M,3000.00,5000.00,7000.00,M,M,M,M,M,M,M,M,42.37,KNFL 072256Z 36012KT 10SM SCT030 BKN050 OVC070 09/M02 A2999 RMK AO2 SLP125 T00891022,M
HND,2024-03-07 22:56,-115.1344,35.9729,742.79,60.00,34.00,37.50,280.00,9.00,0.00,29.81,1010.30,10.00,M,FEW,BKN,M,M,6500.00,9500.00,M,M,M,M,M,M,M,M,M,60.00,KHND 072256Z 28009KT 10SM FEW065 BKN095 16/01 A2981 RMK AO2 SLP103 T01560011,M
TPH,2024-03-07 22:56,-117.0904,38.0505,1654.00,50.00,24.00,35.86,340.00,17.00,0.00,29.86,1010.10,10.00,M,FEW,M,M,M,5000.00,M,M,M,M,M,M,M,M,M,M,50.00,KTPH 072256Z AUTO 34017KT 10SM FEW050 10/M04 A2986 RMK AO2 SLP101 T01001044,M
LAS,2024-03-07 22:56,-115.1634,36.0719,663.00,59.00,34.00,38.87,250.00,9.00,0.00,29.77,1007.40,10.00,M,SCT,BKN,BKN,M,6500.00,12000.00,25000.00,M,M,M,M,M,M,M,M,59.00,KLAS 072256Z 25009KT 10SM SCT065 BKN120 BKN250 15/01 A2977 RMK AO2 SLP074 CB DSNT S-SW VCSH W T01500011,M
BAM,2024-03-07 23:00,-116.8743,40.5990,1382.36,42.80,26.60,52.45,60.00,12.00,0.00,30.00,M,10.00,M,BKN,M,M,M,4900.00,M,M,M,M,M,M,M,M,M,M,35.75,KBAM 072300Z AUTO 06012KT 10SM BKN049 06/M03 A3000 RMK AO1,M
BVU,2024-03-07 23:15,-114.8611,35.9475,671.00,59.00,35.60,41.42,240.00,11.00,0.00,29.78,M,10.00,M,OVC,M,M,M,6000.00,M,M,M,M,M,M,M,M,M,M,59.00,KBVU 072315Z AUTO 24011KT 10SM OVC060 15/02 A2978 RMK AO2,M
CXP,2024-03-07 23:15,-119.7326,39.1923,1431.00,44.60,32.00,61.03,60.00,8.00,0.00,30.00,M,10.00,M,SCT,OVC,M,M,2600.00,3200.00,M,M,M,M,M,M,M,M,M,39.63,KCXP 072315Z AUTO 06008KT 10SM SCT026 OVC032 07/M00 A3000 RMK AO2,M
RTS,2024-03-07 23:15,-119.8764,39.6682,1539.00,41.00,26.60,56.22,330.00,7.00,0.00,30.02,M,10.00,M,FEW,SCT,OVC,M,2700.00,3800.00,5000.00,M,M,M,M,M,M,M,M,35.75,KRTS 072315Z AUTO 33007KT 10SM FEW027 SCT038 OVC050 05/M03 A3002 RMK AO2,M
MEV,2024-03-07 23:15,-119.7500,38.9963,1441.42,48.20,30.20,49.53,340.00,13.00,0.00,29.97,M,10.00,18.00,SCT,SCT,BKN,M,3600.00,4100.00,7500.00,M,M,M,M,M,M,M,M,42.32,KMEV 072315Z AUTO 34013G18KT 10SM SCT036 SCT041 BKN075 09/M01 A2997 RMK AO2,M
HTH,2024-03-07 23:15,-118.6315,38.5448,1282.89,46.40,30.20,53.00,330.00,16.00,0.00,29.98,M,10.00,21.00,FEW,SCT,SCT,M,5000.00,6000.00,7500.00,M,M,M,M,M,M,M,M,39.19,KHTH 072315Z AUTO 33016G21KT 10SM FEW050 SCT060 SCT075 08/M01 A2998 RMK A01,M
10U,2024-03-07 23:15,-116.1876,41.9532,1637.00,32.00,19.40,59.27,10.00,11.00,0.00,30.04,M,10.00,M,FEW,M,M,M,3400.00,M,M,M,M,M,M,M,M,M,M,22.47,K10U 072315Z AUTO 01011KT 10SM FEW034 M00/M07 A3004 RMK AO2,M
TMT,2024-03-07 23:15,-117.1971,39.4643,1749.34,41.00,26.40,55.75,340.00,13.00,0.00,29.97,M,10.00,M,OVC,M,M,M,6000.00,M,M,M,M,M,M,M,M,M,M,33.10,KTMT 072315Z AUTO 34013KT 10SM OVC060 05/M03 A2997 RMK AO2 T00501031,M
BAM,2024-03-07 23:20,-116.8743,40.5990,1382.36,42.80,24.80,48.67,40.00,10.00,0.00,30.01,M,10.00,16.00,OVC,M,M,M,4900.00,M,M,M,M,M,M,M,M,M,M,36.51,KBAM 072320Z AUTO 04010G16KT 10SM OVC049 06/M04 A3001 RMK AO1,M
HND,2024-03-07 23:25,-115.1344,35.9729,742.79,60.80,33.80,36.16,180.00,9.00,0.00,29.81,M,10.00,M,CLR,M,M,M,M,M,M,M,M,M,M,M,M,M,M,60.80,KHND 072325Z 18009KT 10SM CLR 16/01 A2981 RMK AO2 WSHFT 2305,M
BVU,2024-03-07 23:35,-114.8611,35.9475,671.00,59.00,35.60,41.42,230.00,11.00,0.00,29.78,M,10.00,M,SCT,BKN,BKN,M,6000.00,7500.00,9500.00,M,M,M,M,M,M,M,M,59.00,KBVU 072335Z AUTO 23011KT 10SM SCT060 BKN075 BKN095 15/02 A2978 RMK AO2,M
CXP,2024-03-07 23:35,-119.7326,39.1923,1431.00,44.60,30.20,56.74,10.00,5.00,0.00,30.01,M,10.00,M,OVC,M,M,M,3400.00,M,M,M,M,M,M,M,M,M,M,41.36,KCXP 072335Z AUTO 01005KT 10SM OVC034 07/M01 A3001 RMK AO2,M
RTS,2024-03-07 23:35,-119.8764,39.6682,1539.00,41.00,28.40,60.54,340.00,7.00,0.00,30.02,M,10.00,13.00,OVC,M,M,M,5000.00,M,M,M,M,M,M,M,M,M,M,35.75,KRTS 072335Z AUTO 34007G13KT 10SM OVC050 05/M02 A3002 RMK AO2,M
MEV,2024-03-07 23:35,-119.7500,38.9963,1441.42,46.40,30.20,53.00,10.00,10.00,0.00,29.98,M,10.00,18.00,FEW,FEW,M,M,3800.00,4300.00,M,M,M,M,M,M,M,M,M,41.03,KMEV 072335Z AUTO 01010G18KT 10SM FEW038 FEW043 08/M01 A2998 RMK AO2,M
HTH,2024-03-07 23:35,-118.6315,38.5448,1282.89,46.40,30.20,53.00,330.00,13.00,0.00,29.99,M,10.00,20.00,BKN,BKN,OVC,M,4400.00,5000.00,7000.00,M,M,M,M,M,M,M,M,40.02,KHTH 072335Z AUTO 33013G20KT 10SM BKN044 BKN050 OVC070 08/M01 A2999 RMK A01,M
10U,2024-03-07 23:35,-116.1876,41.9532,1637.00,32.00,17.60,54.87,40.00,9.00,0.00,30.04,M,10.00,14.00,CLR,M,M,M,M,M,M,M,M,M,M,M,M,M,M,23.51,K10U 072335Z AUTO 04009G14KT 10SM CLR M00/M08 A3004 RMK AO2,M
TMT,2024-03-07 23:35,-117.1971,39.4643,1749.34,39.20,26.00,58.81,350.00,11.00,0.00,29.97,M,10.00,15.00,SCT,SCT,OVC,M,4000.00,4900.00,6000.00,M,M,M,M,M,M,M,M,31.57,KTMT 072335Z AUTO 35011G15KT 10SM SCT040 SCT049 OVC060 04/M03 A2997 RMK AO2 T00401034,M
BAM,2024-03-07 23:40,-116.8743,40.5990,1382.36,42.80,26.60,52.45,50.00,12.00,0.00,30.02,M,10.00,18.00,OVC,M,M,M,5000.00,M,M,M,M,M,M,M,M,M,M,35.75,KBAM 072340Z AUTO 05012G18KT 10SM OVC050 06/M03 A3002 RMK AO1,M
P68,2024-03-07 23:53,-116.0056,39.6014,1993.00,38.00,24.00,56.71,350.00,14.00,0.00,29.94,1013.20,M,21.00,M,M,M,M,M,M,M,M,M,M,M,M,M,M,M,28.90,KP68 072353Z AUTO 35014G21KT 03/M04 A2994 RMK AO1 SLP132 60001 T00331044 10067 20017 53018,M
DRA,2024-03-07 23:53,-116.0278,36.6206,1009.00,59.00,31.00,34.45,30.00,4.00,0.00,29.80,1006.80,10.00,M,OVC,M,M,M,11000.00,M,M,M,M,M,M,M,M,M,M,59.00,KDRA 072353Z AUTO 03004KT 10SM OVC110 15/M01 A2980 RMK AO2 SLP068 60008 T01501006 10156 20083 50002,M
ELY,2024-03-07 23:53,-114.8453,39.2950,1909.00,39.00,29.00,67.06,30.00,15.00,0.00,29.88,1010.90,10.00,M,BKN,M,M,M,6000.00,M,M,M,M,M,M,M,M,M,M,29.85,KELY 072353Z AUTO 03015KT 10SM BKN060 04/M02 A2988 RMK AO2 SLP109 60003 T00391017 10078 20017 53006,M
VGT,2024-03-07 23:53,-115.1933,36.2111,667.00,62.00,36.00,37.83,240.00,11.00,0.00,29.78,1009.10,10.00,M,CLR,M,M,M,M,M,M,M,M,M,M,M,M,M,M,62.00,KVGT 072353Z 24011KT 10SM CLR 17/02 A2978 RMK AO2 SLP091 T01670022 10183 20150 55001,M
LOL,2024-03-07 23:53,-118.5701,40.0684,1192.43,47.00,27.00,45.45,350.00,12.00,0.00,30.02,1016.90,10.00,22.00,OVC,M,M,M,6000.00,M,M,M,M,M,M,M,M,M,M,41.09,KLOL 072353Z AUTO 35012G22KT 10SM OVC060 08/M03 A3002 RMK AO2 SLP169 T00831028 10083 20050 53016,M
BVU,2024-03-07 23:55,-114.8611,35.9475,671.00,60.80,35.60,38.85,220.00,10.00,0.00,29.79,M,10.00,M,FEW,M,M,M,9500.00,M,M,M,M,M,M,M,M,M,M,60.80,KBVU 072355Z AUTO 22010KT 10SM FEW095 16/02 A2979 RMK AO2,M
CXP,2024-03-07 23:55,-119.7326,39.1923,1431.00,44.60,30.20,56.74,330.00,13.00,0.00,30.01,M,10.00,M,OVC,M,M,M,3400.00,M,M,M,M,M,M,M,M,M,M,37.71,KCXP 072355Z AUTO 33013KT 10SM OVC034 07/M01 A3001 RMK AO2,M
INS,2024-03-07 23:55,-115.6733,36.5872,955.00,57.40,25.30,28.87,260.00,6.00,0.00,29.81,1007.50,10.00,M,FEW,M,M,M,15000.00,M,M,M,M,M,M,M,M,M,M,57.40,KINS 072355Z AUTO 26006KT 10SM FEW150 14/M04 A2981 RMK AO2 SLP075 T01411037 10168 20124 53010 $,M
RNO,2024-03-07 23:55,-119.7711,39.4839,1341.00,46.00,29.00,51.24,20.00,10.00,0.00,30.02,1016.30,10.00,M,BKN,BKN,M,M,3500.00,6000.00,M,M,M,M,M,M,M,M,M,40.52,KRNO 072355Z 02010KT 10SM BKN035 BKN060 08/M02 A3002 RMK AO2 SLP163 T00781017 10078 20050 53012,M
RTS,2024-03-07 23:55,-119.8764,39.6682,1539.00,41.00,28.40,60.54,320.00,9.00,0.00,30.03,M,10.00,M,FEW,SCT,M,M,3700.00,5500.00,M,M,M,M,M,M,M,M,M,34.70,KRTS 072355Z AUTO 32009KT 10SM FEW037 SCT055 05/M02 A3003 RMK AO2,M
MEV,2024-03-07 23:55,-119.7500,38.9963,1441.42,46.40,28.40,49.24,360.00,12.00,0.00,29.99,M,10.00,17.00,SCT,M,M,M,4600.00,M,M,M,M,M,M,M,M,M,M,40.33,KMEV 072355Z AUTO 36012G17KT 10SM SCT046 08/M02 A2999 RMK AO2,M
HTH,2024-03-07 23:55,-118.6315,38.5448,1282.89,46.40,28.40,49.24,330.00,14.00,0.00,29.99,M,10.00,M,BKN,OVC,M,M,4500.00,5500.00,M,M,M,M,M,M,M,M,M,39.72,KHTH 072355Z AUTO 33014KT 10SM BKN045 OVC055 08/M02 A2999 RMK A01,M
10U,2024-03-07 23:55,-116.1876,41.9532,1637.00,30.20,17.60,59.01,50.00,8.00,0.00,30.04,M,10.00,M,CLR,M,M,M,M,M,M,M,M,M,M,M,M,M,M,21.90,K10U 072355Z AUTO 05008KT 10SM CLR M01/M08 A3004 RMK AO2,M
TMT,2024-03-07 23:55,-117.1971,39.4643,1749.34,38.30,25.30,59.17,350.00,11.00,0.00,29.99,M,10.00,M,BKN,BKN,OVC,M,3500.00,4300.00,6000.00,M,M,M,M,M,M,M,M,30.43,KTMT 072355Z AUTO 35011KT 10SM BKN035 BKN043 OVC060 04/M04 A2999 RMK AO2 T00351037 10052 20011,M
LSV,2024-03-07 23:55,-115.0343,36.2362,570.00,62.20,34.00,34.69,260.00,7.00,0.00,29.75,1006.50,10.00,M,CLR,M,M,M,M,M,M,M,M,M,M,M,M,M,M,62.20,KLSV 072355Z AUTO 26007KT 10SM CLR 17/01 A2975 RMK AO2 SLP065 T01680012 10176 20148 55004 $,M
EKO,2024-03-07 23:56,-115.7860,40.8242,1367.00,39.00,16.00,38.78,350.00,10.00,0.00,29.97,1015.90,10.00,15.00,CLR,M,M,M,M,M,M,M,M,M,M,M,M,M,M,31.75,KEKO 072356Z AUTO 35010G15KT 10SM CLR 04/M09 A2997 RMK AO2 SLP159 T00391089 10050 20028 53013,M
WMC,2024-03-07 23:56,-117.8072,40.9019,1315.00,44.00,21.00,39.62,340.00,12.00,0.00,30.04,1017.30,10.00,19.00,CLR,M,M,M,M,M,M,M,M,M,M,M,M,M,M,37.27,KWMC 072356Z AUTO 34012G19KT 10SM CLR 07/M06 A3004 RMK AO2 SLP173 T00671061 10072 20033 51014,M
NFL,2024-03-07 23:56,-118.7010,39.4166,1199.00,48.00,27.00,43.77,10.00,15.00,0.00,30.00,1012.90,10.00,20.00,SCT,BKN,OVC,M,3000.00,5000.00,7000.00,M,M,M,M,M,M,M,M,41.52,KNFL 072356Z 01015G20KT 10SM SCT030 BKN050 OVC070 09/M03 A3000 RMK AO2 SLP129 60001 T00891028 10094 20044 53012,M
HND,2024-03-07 23:56,-115.1344,35.9729,742.79,60.00,34.00,37.50,190.00,10.00,0.00,29.81,1010.20,10.00,M,CLR,M,M,M,M,M,M,M,M,M,M,M,M,M,M,60.00,KHND 072356Z 19010KT 10SM CLR 16/01 A2981 RMK AO2 WSHFT 2305 SLP102 T01560011 10167 20139 50000,M
TPH,2024-03-07 23:56,-117.0904,38.0505,1654.00,47.00,26.00,43.61,20.00,16.00,0.00,29.89,1011.20,10.00,25.00,BKN,BKN,OVC,M,7500.00,8500.00,11000.00,M,M,M,M,M,34.00,10.00,2024-03-07 23:14,39.97,KTPH 072356Z AUTO 02016G25KT 10SM BKN075 BKN085 OVC110 08/M03 A2989 RMK AO2 PK WND 01034/2314 SLP112 60000 T00831033 10100 20067 53011,M
LAS,2024-03-07 23:56,-115.1634,36.0719,663.00,59.00,34.00,38.87,260.00,8.00,0.00,29.79,1007.80,10.00,M,SCT,BKN,BKN,M,6500.00,12000.00,25000.00,M,M,M,M,M,M,M,M,59.00,KLAS 072356Z 26008KT 10SM SCT065 BKN120 BKN250 15/01 A2979 RMK AO2 SLP078 CB DSNT S-SW VCSH W T01500011 10172 20133 55002,M
