station,valid,lon,lat,elevation,tmpf,dwpf,relh,drct,sknt,p01i,alti,mslp,vsby,gust,skyc1,skyc2,skyc3,skyc4,skyl1,skyl2,skyl3,skyl4,wxcodes,ice_accretion_1hr,ice_accretion_3hr,ice_accretion_6hr,peak_wind_gust,peak_wind_drct,peak_wind_time,feel,metar,snowdepth
MEV,2025-05-06 00:10,-119.7500,38.9963,1441.42,62.60,19.40,18.71,340.00,5.00,0.00,29.96,M,10.00,16.00,CLR,M,M,M,M,M,M,M,M,M,M,M,M,M,M,62.60,KMEV 060010Z AUTO 34005G16KT 10SM CLR 17/M07 A2996 RMK AO2,M
BVU,2025-05-06 00:15,-114.8611,35.9475,671.00,57.20,53.60,87.74,0.00,0.00,0.00,29.75,M,5.00,M,FEW,SCT,OVC,M,3300.00,5000.00,7000.00,M,-RA,M,M,M,M,M,M,57.20,KBVU 060015Z AUTO 00000KT 5SM -RA FEW033 SCT050 OVC070 14/12 A2975 RMK AO2,M
BAM,2025-05-06 00:15,-116.8743,40.5990,1382.36,64.40,19.40,17.56,360.00,19.00,0.00,29.92,M,10.00,24.00,CLR,M,M,M,M,M,M,M,M,M,M,M,M,M,M,64.40,KBAM 060015Z AUTO 36019G24KT 10SM CLR 18/M07 A2992 RMK AO1,M
CXP,2025-05-06 00:15,-119.7326,39.1923,1431.00,64.40,17.60,16.26,340.00,9.00,0.00,29.97,M,10.00,20.00,CLR,M,M,M,M,M,M,M,M,M,M,M,M,M,M,64.40,KCXP 060015Z AUTO 34009G20KT 10SM CLR 18/M08 A2997 RMK AO2,M
RTS,2025-05-06 00:15,-119.8764,39.6682,1539.00,62.60,10.40,12.63,60.00,13.00,0.00,29.99,M,10.00,19.00,CLR,M,M,M,M,M,M,M,M,M,M,M,M,M,M,62.60,KRTS 060015Z AUTO 06013G19KT 10SM CLR 17/M12 A2999 RMK AO2,M
HTH,2025-05-06 00:15,-118.6315,38.5448,1282.89,64.40,21.20,18.96,M,M,0.00,29.94,M,10.00,M,CLR,M,M,M,M,M,M,M,M,M,M,M,M,M,M,64.40,KHTH 060015Z AUTO 17.58333318G23KT 10SM CLR 18/M06 A2994 RMK A01,M
TMT,2025-05-06 00:15,-117.1971,39.4643,1749.34,57.20,27.70,32.12,320.00,7.00,0.00,29.95,M,10.00,20.00,CLR,M,M,M,M,M,M,M,M,M,M,M,M,M,M,57.20,KTMT 060015Z AUTO 32007G20KT 10SM CLR 14/M02 A2995 RMK AO2 T01401024,M
BVU,2025-05-06 00:35,-114.8611,35.9475,671.00,59.00,55.40,87.83,230.00,5.00,0.00,29.75,M,10.00,M,FEW,FEW,OVC,M,700.00,4200.00,7000.00,M,-RA,M,M,M,M,M,M,59.00,KBVU 060035Z AUTO 23005KT 10SM -RA FEW007 FEW042 OVC070 15/13 A2975 RMK AO2,M
BAM,2025-05-06 00:35,-116.8743,40.5990,1382.36,64.40,17.60,16.26,340.00,20.00,0.00,29.92,M,10.00,27.00,CLR,M,M,M,M,M,M,M,M,M,M,M,M,M,M,64.40,KBAM 060035Z AUTO 34020G27KT 10SM CLR 18/M08 A2992 RMK AO1,M
CXP,2025-05-06 00:35,-119.7326,39.1923,1431.00,64.40,15.80,15.04,350.00,13.00,0.00,29.98,M,10.00,18.00,CLR,M,M,M,M,M,M,M,M,M,M,M,M,M,M,64.40,KCXP 060035Z AUTO 35013G18KT 10SM CLR 18/M09 A2998 RMK AO2,M
RTS,2025-05-06 00:35,-119.8764,39.6682,1539.00,62.60,10.40,12.63,60.00,14.00,0.00,29.99,M,10.00,M,CLR,M,M,M,M,M,M,M,M,M,M,M,M,M,M,62.60,KRTS 060035Z AUTO 06014KT 10SM CLR 17/M12 A2999 RMK AO2,M
MEV,2025-05-06 00:35,-119.7500,38.9963,1441.42,64.40,19.40,17.56,10.00,9.00,0.00,29.96,M,10.00,15.00,CLR,M,M,M,M,M,M,M,M,M,M,M,M,M,M,64.40,KMEV 060035Z AUTO 01009G15KT 10SM CLR 18/M07 A2996 RMK AO2,M
HTH,2025-05-06 00:35,-118.6315,38.5448,1282.89,64.40,21.20,18.96,10.00,19.00,0.00,29.94,M,10.00,24.00,CLR,M,M,M,M,M,M,M,M,M,M,M,M,M,M,64.40,KHTH 060035Z AUTO 01019G24KT 10SM CLR 18/M06 A2994 RMK A01,M
TMT,2025-05-06 00:35,-117.1971,39.4643,1749.34,57.20,26.60,30.69,360.00,15.00,0.00,29.95,M,10.00,18.00,CLR,M,M,M,M,M,M,M,M,M,M,M,M,M,M,57.20,KTMT 060035Z AUTO 36015G18KT 10SM CLR 14/M03 A2995 RMK AO2 T01401030,M
P68,2025-05-06 00:53,-116.0056,39.6014,1993.00,57.00,21.00,24.45,350.00,18.00,0.00,29.90,1008.20,M,25.00,M,M,M,M,M,M,M,M,M,M,M,M,29.00,360.00,2025-05-05 23:57,57.00,KP68 060053Z AUTO 35018G25KT 14/M06 A2990 RMK AO1 PK WND 36029/2357 SLP082 T01391061,M
DRA,2025-05-06 00:53,-116.0278,36.6206,1009.00,69.00,46.00,43.67,M,5.00,T,29.71,1002.60,10.00,M,SCT,BKN,M,M,9500.00,11000.00,M,M,M,M,M,M,M,M,M,69.00,KDRA 060053Z AUTO VRB05KT 10SM SCT095 BKN110 21/08 A2971 RMK AO2 RAB2357E07 SLP026 P0000 T02060078,M
ELY,2025-05-06 00:53,-114.8453,39.2950,1909.00,52.00,38.00,58.71,350.00,14.00,T,29.84,1005.80,10.00,23.00,OVC,M,M,M,6000.00,M,M,M,M,M,M,M,26.00,330.00,2025-05-06 00:18,52.00,KELY 060053Z AUTO 35014G23KT 10SM OVC060 11/03 A2984 RMK AO2 PK WND 33026/0018 RAB2356E29 SLP058 P0000 T01110033,M
VGT,2025-05-06 00:53,-115.1933,36.2111,667.00,60.00,53.00,77.64,190.00,3.00,0.00,29.76,1008.40,10.00,M,SCT,BKN,OVC,M,1800.00,7000.00,11000.00,M,M,M,M,M,M,M,M,60.00,KVGT 060053Z 19003KT 10SM SCT018 BKN070 OVC110 16/12 A2976 RMK AO2 SLP084 T01560117,M
LOL,2025-05-06 00:53,-118.5701,40.0684,1192.43,67.00,15.00,13.27,30.00,18.00,0.00,29.92,M,10.00,25.00,CLR,M,M,M,M,M,M,M,M,M,M,M,M,M,M,67.00,KLOL 060053Z AUTO 03018G25KT 10SM CLR 19/M09 A2992 RMK AO2 SLPNO T01941094,M
BVU,2025-05-06 00:55,-114.8611,35.9475,671.00,57.20,55.40,93.69,230.00,4.00,0.00,29.76,M,10.00,M,SCT,OVC,M,M,600.00,7000.00,M,M,M,M,M,M,M,M,M,57.20,KBVU 060055Z AUTO 23004KT 10SM SCT006 OVC070 14/13 A2976 RMK AO2,M
RNO,2025-05-06 00:55,-119.7711,39.4839,1341.00,65.00,12.00,12.47,20.00,10.00,0.00,29.97,1011.90,10.00,19.00,FEW,M,M,M,20000.00,M,M,M,M,M,M,M,26.00,20.00,2025-05-06 00:17,65.00,KRNO 060055Z 02010G19KT 10SM FEW200 18/M11 A2997 RMK AO2 PK WND 02026/0017 SLP119 T01831111,M
BAM,2025-05-06 00:55,-116.8743,40.5990,1382.36,62.60,17.60,17.32,350.00,21.00,0.00,29.93,M,10.00,28.00,CLR,M,M,M,M,M,M,M,M,M,M,M,M,M,M,62.60,KBAM 060055Z AUTO 35021G28KT 10SM CLR 17/M08 A2993 RMK AO1,M
CXP,2025-05-06 00:55,-119.7326,39.1923,1431.00,64.40,14.00,13.90,360.00,10.00,0.00,29.98,M,10.00,17.00,CLR,M,M,M,M,M,M,M,M,M,M,M,M,M,M,64.40,KCXP 060055Z AUTO 36010G17KT 10SM CLR 18/M10 A2998 RMK AO2,M
RTS,2025-05-06 00:55,-119.8764,39.6682,1539.00,62.60,10.40,12.63,40.00,12.00,0.00,29.99,M,10.00,M,CLR,M,M,M,M,M,M,M,M,M,M,M,M,M,M,62.60,KRTS 060055Z AUTO 04012KT 10SM CLR 17/M12 A2999 RMK AO2,M
MEV,2025-05-06 00:55,-119.7500,38.9963,1441.42,64.40,19.40,17.56,330.00,9.00,0.00,29.96,M,10.00,M,CLR,M,M,M,M,M,M,M,M,M,M,M,M,M,M,64.40,KMEV 060055Z AUTO 33009KT 10SM CLR 18/M07 A2996 RMK AO2,M
HTH,2025-05-06 00:55,-118.6315,38.5448,1282.89,64.40,21.20,18.96,360.00,17.00,0.00,29.94,M,10.00,M,CLR,M,M,M,M,M,M,M,M,M,M,M,M,M,M,64.40,KHTH 060055Z AUTO 36017KT 10SM CLR 18/M06 A2994 RMK A01,M
TMT,2025-05-06 00:55,-117.1971,39.4643,1749.34,56.70,27.30,32.17,360.00,14.00,0.00,29.95,M,10.00,18.00,CLR,M,M,M,M,M,M,M,M,M,M,M,M,M,M,56.70,KTMT 060055Z AUTO 36014G18KT 10SM CLR 14/M03 A2995 RMK AO2 T01371026,M
EKO,2025-05-06 00:56,-115.7860,40.8242,1367.00,61.00,24.00,24.05,300.00,11.00,0.00,29.87,1008.70,10.00,M,CLR,M,M,M,M,M,M,M,M,M,M,M,M,M,M,61.00,KEKO 060056Z AUTO 30011KT 10SM CLR 16/M04 A2987 RMK AO2 SLP087 T01611044,M
WMC,2025-05-06 00:56,-117.8072,40.9019,1315.00,63.00,15.00,15.26,350.00,19.00,0.00,29.94,1012.10,10.00,28.00,CLR,M,M,M,M,M,M,M,M,M,M,M,33.00,350.00,2025-05-06 00:05,63.00,KWMC 060056Z AUTO 35019G28KT 10SM CLR 17/M09 A2994 RMK AO2 PK WND 35033/0005 SLP121 T01721094,M
HND,2025-05-06 00:56,-115.1344,35.9729,742.79,59.00,52.00,77.55,M,M,0.01,29.78,1009.30,10.00,M,FEW,BKN,OVC,M,3400.00,8500.00,12000.00,M,-RA,M,M,M,M,M,M,59.00,KHND 060056Z 10SM -RA FEW034 BKN085 OVC120 15/11 A2978 RMK AO2 SLP093 P0001 T01500111 $,M
TPH,2025-05-06 00:56,-117.0904,38.0505,1654.00,62.00,30.00,29.73,310.00,26.00,0.00,29.85,1006.50,10.00,35.00,FEW,M,M,M,7500.00,M,M,M,M,M,M,M,38.00,320.00,2025-05-06 00:33,62.00,KTPH 060056Z AUTO 31026G35KT 10SM FEW075 17/M01 A2985 RMK AO2 PK WND 32038/0033 SLP065 T01671011,M
LAS,2025-05-06 00:56,-115.1634,36.0719,663.00,60.00,55.00,83.53,0.00,0.00,T,29.78,1007.30,10.00,M,SCT,SCT,BKN,OVC,1200.00,2900.00,10000.00,17000.00,M,M,M,M,M,M,M,60.00,KLAS 060056Z 00000KT 10SM SCT012 SCT029 BKN100 OVC170 16/13 A2978 RMK AO2 RAE06 SLP073 P0000 T01560128,M
NFL,2025-05-06 00:57,-118.7010,39.4166,1199.00,68.00,21.00,16.60,20.00,11.00,0.00,29.92,1010.50,7.00,M,SCT,M,M,M,20000.00,M,M,M,M,M,M,M,M,M,M,68.00,KNFL 060057Z 02011KT 7SM SCT200 20/M06 A2992 RMK AO2 SLP105 T02001061,M
BVU,2025-05-06 01:15,-114.8611,35.9475,671.00,57.20,57.20,100.00,240.00,4.00,0.00,29.76,M,10.00,M,BKN,OVC,M,M,600.00,6500.00,M,M,M,M,M,M,M,M,M,57.20,KBVU 060115Z AUTO 24004KT 10SM BKN006 OVC065 14/14 A2976 RMK AO2,M
BAM,2025-05-06 01:15,-116.8743,40.5990,1382.36,62.60,17.60,17.32,340.00,18.00,0.00,29.93,M,10.00,25.00,CLR,M,M,M,M,M,M,M,M,M,M,M,M,M,M,62.60,KBAM 060115Z AUTO 34018G25KT 10SM CLR 17/M08 A2993 RMK AO1,M
CXP,2025-05-06 01:15,-119.7326,39.1923,1431.00,64.40,12.20,12.84,360.00,10.00,0.00,29.98,M,10.00,16.00,CLR,M,M,M,M,M,M,M,M,M,M,M,M,M,M,64.40,KCXP 060115Z AUTO 36010G16KT 10SM CLR 18/M11 A2998 RMK AO2,M
RTS,2025-05-06 01:15,-119.8764,39.6682,1539.00,60.80,10.40,13.46,60.00,11.00,0.00,29.99,M,10.00,M,CLR,M,M,M,M,M,M,M,M,M,M,M,M,M,M,60.80,KRTS 060115Z AUTO 06011KT 10SM CLR 16/M12 A2999 RMK AO2,M
MEV,2025-05-06 01:15,-119.7500,38.9963,1441.42,62.60,14.00,14.81,340.00,15.00,0.00,29.96,M,10.00,M,CLR,M,M,M,M,M,M,M,M,M,M,M,M,M,M,62.60,KMEV 060115Z AUTO 34015KT 10SM CLR 17/M10 A2996 RMK AO2,M
HTH,2025-05-06 01:15,-118.6315,38.5448,1282.89,64.40,21.20,18.96,360.00,14.00,0.00,29.94,M,10.00,M,CLR,M,M,M,M,M,M,M,M,M,M,M,M,M,M,64.40,KHTH 060115Z AUTO 36014KT 10SM CLR 18/M06 A2994 RMK A01,M
TMT,2025-05-06 01:15,-117.1971,39.4643,1749.34,56.50,26.20,30.96,360.00,13.00,0.00,29.96,M,10.00,19.00,CLR,M,M,M,M,M,M,M,M,M,M,M,M,M,M,56.50,KTMT 060115Z AUTO 36013G19KT 10SM CLR 14/M03 A2996 RMK AO2 T01361032,M
MEV,2025-05-06 01:25,-119.7500,38.9963,1441.42,62.60,12.20,13.68,360.00,15.00,0.00,29.96,M,10.00,M,CLR,M,M,M,M,M,M,M,M,M,M,M,M,M,M,62.60,KMEV 060125Z AUTO 36015KT 10SM CLR 17/M11 A2996 RMK AO2,M
RTS,2025-05-06 01:25,-119.8764,39.6682,1539.00,60.80,10.40,13.46,60.00,11.00,0.00,29.99,M,10.00,16.00,CLR,M,M,M,M,M,M,M,M,M,M,M,M,M,M,60.80,KRTS 060125Z AUTO 06011G16KT 10SM CLR 16/M12 A2999 RMK AO2,M
BVU,2025-05-06 01:35,-114.8611,35.9475,671.00,57.20,55.40,93.69,0.00,0.00,0.00,29.77,M,10.00,M,FEW,SCT,SCT,M,600.00,6500.00,7500.00,M,M,M,M,M,M,M,M,57.20,KBVU 060135Z AUTO 00000KT 10SM FEW006 SCT065 SCT075 14/13 A2977 RMK AO2,M
CXP,2025-05-06 01:35,-119.7326,39.1923,1431.00,62.60,14.00,14.81,330.00,8.00,0.00,29.98,M,10.00,15.00,CLR,M,M,M,M,M,M,M,M,M,M,M,M,M,M,62.60,KCXP 060135Z AUTO 33008G15KT 10SM CLR 17/M10 A2998 RMK AO2,M
HTH,2025-05-06 01:35,-118.6315,38.5448,1282.89,62.60,21.20,20.20,350.00,15.00,0.00,29.93,M,10.00,20.00,CLR,M,M,M,M,M,M,M,M,M,M,M,M,M,M,62.60,KHTH 060135Z AUTO 35015G20KT 10SM CLR 17/M06 A2993 RMK A01,M
BAM,2025-05-06 01:35,-116.8743,40.5990,1382.36,62.60,17.60,17.32,350.00,18.00,0.00,29.93,M,10.00,22.00,CLR,M,M,M,M,M,M,M,M,M,M,M,M,M,M,62.60,KBAM 060135Z AUTO 35018G22KT 10SM CLR 17/M08 A2993 RMK AO1,M
TMT,2025-05-06 01:35,-117.1971,39.4643,1749.34,55.80,24.00,28.98,10.00,14.00,0.00,29.96,M,10.00,19.00,CLR,M,M,M,M,M,M,M,M,M,M,M,M,M,M,55.80,KTMT 060135Z AUTO 01014G19KT 10SM CLR 13/M04 A2996 RMK AO2 T01321045,M
INS,2025-05-06 01:44,-115.6733,36.5872,955.00,57.20,55.40,93.69,130.00,11.00,0.00,29.76,1005.20,10.00,M,FEW,SCT,BKN,BKN,400.00,5500.00,7000.00,8000.00,M,M,M,M,M,M,M,57.20,KINS 060144Z AUTO 13011KT 10SM FEW004 SCT055 BKN070 BKN080 OVC100 14/13 A2976 RMK AO2 DZE0055RAB0055E05DZB07E10RAB10E35DZB35E44 SLP052 $,M
CXP,2025-05-06 01:50,-119.7326,39.1923,1431.00,62.60,14.00,14.81,330.00,12.00,0.00,29.98,M,10.00,M,CLR,M,M,M,M,M,M,M,M,M,M,M,M,M,M,62.60,KCXP 060150Z AUTO 33012KT 10SM CLR 17/M10 A2998 RMK AO2,M
P68,2025-05-06 01:53,-116.0056,39.6014,1993.00,54.00,20.00,26.13,340.00,17.00,0.00,29.91,1008.70,M,26.00,M,M,M,M,M,M,M,M,M,M,M,M,26.00,340.00,2025-05-06 01:52,54.00,KP68 060153Z AUTO 34017G26KT 12/M07 A2991 RMK AO1 PK WND 34026/0152 SLP087 T01221067,M
DRA,2025-05-06 01:53,-116.0278,36.6206,1009.00,64.00,50.00,60.34,110.00,17.00,T,29.72,1003.20,10.00,25.00,FEW,OVC,M,M,4000.00,8500.00,M,M,-RA,M,M,M,M,M,M,64.00,KDRA 060153Z AUTO 11017G25KT 10SM -RA FEW040 OVC085 18/10 A2972 RMK AO2 RAB46 SLP032 P0000 T01780100,M
ELY,2025-05-06 01:53,-114.8453,39.2950,1909.00,53.00,38.00,56.59,330.00,9.00,0.00,29.85,1005.60,10.00,M,FEW,OVC,M,M,6000.00,8500.00,M,M,M,M,M,M,M,M,M,53.00,KELY 060153Z AUTO 33009KT 10SM FEW060 OVC085 12/03 A2985 RMK AO2 SLP056 T01170033,M
LOL,2025-05-06 01:53,-118.5701,40.0684,1192.43,64.00,17.00,16.07,30.00,15.00,0.00,29.92,M,10.00,24.00,CLR,M,M,M,M,M,M,M,M,M,M,M,M,M,M,64.00,KLOL 060153Z AUTO 03015G24KT 10SM CLR 18/M08 A2992 RMK AO2 SLPNO T01781083,M
VGT,2025-05-06 01:53,-115.1933,36.2111,667.00,59.00,54.00,83.46,0.00,0.00,0.03,29.78,1009.20,10.00,M,OVC,M,M,M,8500.00,M,M,M,-RA,M,M,M,M,M,M,59.00,KVGT 060153Z 00000KT 10SM -RA OVC085 15/12 A2978 RMK AO2 RAB0054 SLP092 P0003 T01500122,M
RNO,2025-05-06 01:55,-119.7711,39.4839,1341.00,64.00,13.00,13.49,50.00,10.00,0.00,29.96,1011.80,10.00,M,FEW,M,M,M,20000.00,M,M,M,M,M,M,M,M,M,M,64.00,KRNO 060155Z 05010KT 10SM FEW200 18/M11 A2996 RMK AO2 SLP118 T01781106,M
BAM,2025-05-06 01:55,-116.8743,40.5990,1382.36,60.80,17.60,18.46,350.00,18.00,0.00,29.93,M,10.00,22.00,CLR,M,M,M,M,M,M,M,M,M,M,M,M,M,M,60.80,KBAM 060155Z AUTO 35018G22KT 10SM CLR 16/M08 A2993 RMK AO1,M
TMT,2025-05-06 01:55,-117.1971,39.4643,1749.34,54.70,24.30,30.54,360.00,12.00,0.00,29.96,M,10.00,21.00,CLR,M,M,M,M,M,M,M,M,M,M,M,M,M,M,54.70,KTMT 060155Z AUTO 36012G21KT 10SM CLR 13/M04 A2996 RMK AO2 T01261043,M
BVU,2025-05-06 01:55,-114.8611,35.9475,671.00,57.20,57.20,100.00,0.00,0.00,0.00,29.77,M,10.00,M,CLR,M,M,M,M,M,M,M,M,M,M,M,M,M,M,57.20,KBVU 060155Z AUTO 00000KT 10SM CLR 14/14 A2977 RMK AO2,M
HTH,2025-05-06 01:55,-118.6315,38.5448,1282.89,62.60,21.20,20.20,360.00,13.00,0.00,29.94,M,10.00,M,CLR,M,M,M,M,M,M,M,M,M,M,M,M,M,M,62.60,KHTH 060155Z AUTO 36013KT 10SM CLR 17/M06 A2994 RMK A01,M
INS,2025-05-06 01:55,-115.6733,36.5872,955.00,58.00,54.30,87.46,120.00,9.00,0.02,29.76,1005.20,10.00,M,FEW,FEW,FEW,OVC,500.00,4500.00,7000.00,10000.00,M,M,M,M,M,M,M,58.00,KINS 060155Z AUTO 12009KT 10SM FEW005 FEW045 FEW070 OVC100 14/12 A2976 RMK AO2 LTG DSNT S RAB0055E05DZB07E10RAB10E35DZB35E44 SLP052 P0002 T01440124 $,M
LSV,2025-05-06 01:55,-115.0343,36.2362,570.00,61.50,53.00,73.61,0.00,0.00,0.00,29.74,1006.00,10.00,M,FEW,BKN,M,M,5000.00,15000.00,M,M,M,M,M,M,M,M,M,61.50,KLSV 060155Z 00000KT 10SM FEW050 BKN150 16/12 A2974 RMK AO2A SLP060 T01640117 $,M
EKO,2025-05-06 01:56,-115.7860,40.8242,1367.00,58.00,13.00,16.69,350.00,12.00,0.00,29.88,1009.90,10.00,21.00,CLR,M,M,M,M,M,M,M,M,M,M,M,M,M,M,58.00,KEKO 060156Z AUTO 35012G21KT 10SM CLR 14/M11 A2988 RMK AO2 SLP099 T01441106,M
WMC,2025-05-06 01:56,-117.8072,40.9019,1315.00,61.00,12.00,14.35,350.00,17.00,0.00,29.94,1012.10,10.00,26.00,CLR,M,M,M,M,M,M,M,M,M,M,M,30.00,350.00,2025-05-06 01:05,61.00,KWMC 060156Z AUTO 35017G26KT 10SM CLR 16/M11 A2994 RMK AO2 PK WND 35030/0105 SLP121 T01611111,M
HND,2025-05-06 01:56,-115.1344,35.9729,742.79,59.00,52.00,77.55,M,M,T,29.80,1009.90,10.00,M,FEW,OVC,M,M,1900.00,9500.00,M,M,M,M,M,M,M,M,M,59.00,KHND 060156Z 10SM FEW019 OVC095 15/11 A2980 RMK AO2 RAE02 SLP099 P0000 T01500111 $,M
TPH,2025-05-06 01:56,-117.0904,38.0505,1654.00,60.00,28.00,29.41,310.00,25.00,0.00,29.86,1007.00,10.00,36.00,CLR,M,M,M,M,M,M,M,M,M,M,M,37.00,310.00,2025-05-06 01:44,60.00,KTPH 060156Z AUTO 31025G36KT 10SM CLR 16/M02 A2986 RMK AO2 PK WND 31037/0144 SLP070 T01561022,M
LAS,2025-05-06 01:56,-115.1634,36.0719,663.00,60.00,55.00,83.53,0.00,0.00,T,29.79,1007.60,9.00,M,SCT,SCT,BKN,OVC,1200.00,2900.00,10000.00,20000.00,-RA,M,M,M,M,M,M,60.00,KLAS 060156Z 00000KT 9SM -RA SCT012 SCT029 BKN100 OVC200 16/13 A2979 RMK AO2 RAB09E20B50 SLP076 P0000 T01560128 $,M
NFL,2025-05-06 01:57,-118.7010,39.4166,1199.00,65.00,20.00,17.65,10.00,12.00,0.00,29.92,1010.50,9.00,M,SCT,M,M,M,20000.00,M,M,M,M,M,M,M,M,M,M,65.00,KNFL 060157Z 01012KT 9SM SCT200 18/M07 A2992 RMK AO2 SLP105 T01831067,M
RTS,2025-05-06 02:05,-119.8764,39.6682,1539.00,60.80,12.20,14.58,70.00,6.00,0.00,29.99,M,10.00,M,CLR,M,M,M,M,M,M,M,M,M,M,M,M,M,M,60.80,KRTS 060205Z AUTO 07006KT 10SM CLR 16/M11 A2999 RMK AO2,M
MEV,2025-05-06 02:05,-119.7500,38.9963,1441.42,60.80,12.20,14.58,330.00,11.00,0.00,29.96,M,10.00,M,CLR,M,M,M,M,M,M,M,M,M,M,M,M,M,M,60.80,KMEV 060205Z AUTO 33011KT 10SM CLR 16/M11 A2996 RMK AO2,M
LSV,2025-05-06 02:12,-115.0343,36.2362,570.00,62.60,53.60,72.38,0.00,0.00,0.00,29.75,1006.30,10.00,M,BKN,M,M,M,8000.00,M,M,M,-RA,M,M,M,M,M,M,62.60,KLSV 060212Z AUTO 00000KT 10SM -RA BKN080 17/12 A2975 RMK AO2 RAB12 SLP063 $,M
VGT,2025-05-06 02:13,-115.1933,36.2111,667.00,59.00,55.00,86.56,0.00,0.00,0.04,29.79,M,2.50,M,OVC,M,M,M,7500.00,M,M,M,RA BR,M,M,M,M,M,M,59.00,KVGT 060213Z 00000KT 2 1/2SM RA BR OVC075 15/13 A2979 RMK AO2 LTG DSNT SW AND W P0004 T01500128,M
CXP,2025-05-06 02:15,-119.7326,39.1923,1431.00,62.60,14.00,14.81,330.00,11.00,0.00,29.98,M,10.00,M,CLR,M,M,M,M,M,M,M,M,M,M,M,M,M,M,62.60,KCXP 060215Z AUTO 33011KT 10SM CLR 17/M10 A2998 RMK AO2,M
HTH,2025-05-06 02:15,-118.6315,38.5448,1282.89,62.60,21.20,20.20,350.00,10.00,0.00,29.94,M,10.00,M,CLR,M,M,M,M,M,M,M,M,M,M,M,M,M,M,62.60,KHTH 060215Z AUTO 35010KT 10SM CLR 17/M06 A2994 RMK A01,M
TMT,2025-05-06 02:15,-117.1971,39.4643,1749.34,53.60,23.50,30.75,360.00,11.00,0.00,29.97,M,10.00,M,CLR,M,M,M,M,M,M,M,M,M,M,M,M,M,M,53.60,KTMT 060215Z AUTO 36011KT 10SM CLR 12/M05 A2997 RMK AO2 T01201047,M
BVU,2025-05-06 02:15,-114.8611,35.9475,671.00,57.20,55.40,93.69,0.00,0.00,0.00,29.78,M,10.00,M,FEW,M,M,M,9500.00,M,M,M,M,M,M,M,M,M,M,57.20,KBVU 060215Z AUTO 00000KT 10SM FEW095 14/13 A2978 RMK AO2,M
BAM,2025-05-06 02:15,-116.8743,40.5990,1382.36,60.80,17.60,18.46,350.00,16.00,0.00,29.93,M,10.00,M,CLR,M,M,M,M,M,M,M,M,M,M,M,M,M,M,60.80,KBAM 060215Z AUTO 35016KT 10SM CLR 16/M08 A2993 RMK AO1,M
VGT,2025-05-06 02:20,-115.1933,36.2111,667.00,59.00,55.00,86.56,30.00,3.00,0.04,29.79,M,6.00,M,OVC,M,M,M,7500.00,M,M,M,-RA BR,M,M,M,M,M,M,59.00,KVGT 060220Z 03003KT 6SM -RA BR OVC075 15/13 A2979 RMK AO2 LTG DSNT SW AND W P0004 T01500128,M
BVU,2025-05-06 02:35,-114.8611,35.9475,671.00,59.00,57.20,93.74,0.00,0.00,0.00,29.79,M,10.00,M,BKN,M,M,M,8500.00,M,M,M,M,M,M,M,M,M,M,59.00,KBVU 060235Z AUTO 00000KT 10SM BKN085 15/14 A2979 RMK AO2,M
BAM,2025-05-06 02:35,-116.8743,40.5990,1382.36,59.00,17.60,19.68,350.00,15.00,0.00,29.95,M,10.00,24.00,CLR,M,M,M,M,M,M,M,M,M,M,M,M,M,M,59.00,KBAM 060235Z AUTO 35015G24KT 10SM CLR 15/M08 A2995 RMK AO1,M
CXP,2025-05-06 02:35,-119.7326,39.1923,1431.00,60.80,14.00,15.78,340.00,10.00,0.00,29.99,M,10.00,M,CLR,M,M,M,M,M,M,M,M,M,M,M,M,M,M,60.80,KCXP 060235Z AUTO 34010KT 10SM CLR 16/M10 A2999 RMK AO2,M
HTH,2025-05-06 02:35,-118.6315,38.5448,1282.89,60.80,23.00,23.23,350.00,8.00,0.00,29.95,M,10.00,13.00,CLR,M,M,M,M,M,M,M,M,M,M,M,M,M,M,60.80,KHTH 060235Z AUTO 35008G13KT 10SM CLR 16/M05 A2995 RMK A01,M
TMT,2025-05-06 02:35,-117.1971,39.4643,1749.34,51.40,24.60,34.91,350.00,7.00,0.00,29.97,M,10.00,M,CLR,M,M,M,M,M,M,M,M,M,M,M,M,M,M,51.40,KTMT 060235Z AUTO 35007KT 10SM CLR 11/M04 A2997 RMK AO2 T01081041,M
HTH,2025-05-06 02:50,-118.6315,38.5448,1282.89,60.80,23.00,23.23,340.00,7.00,0.00,29.95,M,10.00,M,CLR,M,M,M,M,M,M,M,M,M,M,M,M,M,M,60.80,KHTH 060250Z AUTO 34007KT 10SM CLR 16/M05 A2995 RMK A01,M
P68,2025-05-06 02:53,-116.0056,39.6014,1993.00,49.00,19.00,30.12,330.00,10.00,0.00,29.93,1010.00,M,M,M,M,M,M,M,M,M,M,M,M,M,M,M,M,M,44.29,KP68 060253Z AUTO 33010KT 09/M07 A2993 RMK AO1 SLP100 T00941072 53010,M
DRA,2025-05-06 02:53,-116.0278,36.6206,1009.00,61.00,49.00,64.61,110.00,15.00,T,29.75,1004.50,10.00,27.00,BKN,OVC,M,M,9500.00,11000.00,M,M,M,M,M,M,33.00,120.00,2025-05-06 02:03,61.00,KDRA 060253Z AUTO 11015G27KT 10SM BKN095 OVC110 16/09 A2975 RMK AO2 PK WND 12033/0203 RAE0157 SLP045 P0000 60000 T01610094 53014,M
ELY,2025-05-06 02:53,-114.8453,39.2950,1909.00,52.00,37.00,56.45,360.00,11.00,T,29.87,1006.30,10.00,M,BKN,OVC,M,M,5000.00,7500.00,M,M,-RA,M,M,M,M,M,M,52.00,KELY 060253Z AUTO 36011KT 10SM -RA BKN050 OVC075 11/03 A2987 RMK AO2 RAB44 SLP063 P0000 60000 T01110028 51012,M
VGT,2025-05-06 02:53,-115.1933,36.2111,667.00,59.00,54.00,83.46,0.00,0.00,0.08,29.80,1009.70,7.00,M,OVC,M,M,M,8000.00,M,M,M,-RA,M,M,M,M,M,M,59.00,KVGT 060253Z 00000KT 7SM -RA OVC080 15/12 A2980 RMK AO2 SLP097 P0008 60011 T01500122 53014,M
LOL,2025-05-06 02:53,-118.5701,40.0684,1192.43,60.00,19.00,20.17,30.00,11.00,0.00,29.94,M,10.00,M,CLR,M,M,M,M,M,M,M,M,M,M,M,27.00,20.00,2025-05-06 01:59,60.00,KLOL 060253Z AUTO 03011KT 10SM CLR 16/M07 A2994 RMK AO2 PK WND 02027/0159 SLPNO T01561072 53006,M
CXP,2025-05-06 02:55,-119.7326,39.1923,1431.00,60.80,15.80,17.07,20.00,7.00,0.00,30.00,M,10.00,M,FEW,M,M,M,1400.00,M,M,M,M,M,M,M,M,M,M,60.80,KCXP 060255Z AUTO 02007KT 10SM FEW014 16/M09 A3000 RMK AO2,M
RTS,2025-05-06 02:55,-119.8764,39.6682,1539.00,55.40,14.00,19.16,60.00,6.00,0.00,30.00,M,10.00,M,CLR,M,M,M,M,M,M,M,M,M,M,M,M,M,M,55.40,KRTS 060255Z AUTO 06006KT 10SM CLR 13/M10 A3000 RMK AO2,M
MEV,2025-05-06 02:55,-119.7500,38.9963,1441.42,53.60,21.20,27.91,320.00,7.00,0.00,29.98,M,10.00,M,CLR,M,M,M,M,M,M,M,M,M,M,M,M,M,M,53.60,KMEV 060255Z AUTO 32007KT 10SM CLR 12/M06 A2998 RMK AO2,M
TMT,2025-05-06 02:55,-117.1971,39.4643,1749.34,50.00,22.60,33.81,10.00,9.00,0.00,29.99,M,10.00,M,CLR,M,M,M,M,M,M,M,M,M,M,M,M,M,M,50.00,KTMT 060255Z AUTO 01009KT 10SM CLR 10/M05 A2999 RMK AO2 T01001052,M
BVU,2025-05-06 02:55,-114.8611,35.9475,671.00,59.00,57.20,93.74,0.00,0.00,0.00,29.79,M,10.00,M,BKN,OVC,M,M,8000.00,9000.00,M,M,M,M,M,M,M,M,M,59.00,KBVU 060255Z AUTO 00000KT 10SM BKN080 OVC090 15/14 A2979 RMK AO2,M
RNO,2025-05-06 02:55,-119.7711,39.4839,1341.00,62.00,15.00,15.80,40.00,6.00,0.00,29.98,1012.40,10.00,M,FEW,M,M,M,15000.00,M,M,M,M,M,M,M,M,M,M,62.00,KRNO 060255Z 04006KT 10SM FEW150 17/M09 A2998 RMK AO2 SLP124 T01671094 53002,M
BAM,2025-05-06 02:55,-116.8743,40.5990,1382.36,57.20,15.80,19.42,350.00,14.00,0.00,29.95,M,10.00,M,CLR,M,M,M,M,M,M,M,M,M,M,M,M,M,M,57.20,KBAM 060255Z AUTO 35014KT 10SM CLR 14/M09 A2995 RMK AO1,M
INS,2025-05-06 02:55,-115.6733,36.5872,955.00,55.60,52.70,89.95,100.00,14.00,0.00,29.79,1006.40,10.00,M,SCT,OVC,M,M,9500.00,12000.00,M,M,M,M,M,M,M,M,M,55.60,KINS 060255Z AUTO 10014KT 10SM SCT095 OVC120 13/12 A2979 RMK AO2 SLP064 60004 T01310115 52024 $,M
EKO,2025-05-06 02:56,-115.7860,40.8242,1367.00,53.00,17.00,23.83,30.00,10.00,0.00,29.91,1011.00,10.00,M,CLR,M,M,M,M,M,M,M,M,M,M,M,M,M,M,53.00,KEKO 060256Z AUTO 03010KT 10SM CLR 12/M08 A2991 RMK AO2 SLP110 T01171083 53014,M
WMC,2025-05-06 02:56,-117.8072,40.9019,1315.00,54.00,16.00,22.00,360.00,7.00,0.00,29.96,1013.00,10.00,M,CLR,M,M,M,M,M,M,M,M,M,M,M,M,M,M,54.00,KWMC 060256Z AUTO 36007KT 10SM CLR 12/M09 A2996 RMK AO2 SLP130 T01221089 53006,M
HND,2025-05-06 02:56,-115.1344,35.9729,742.79,57.00,55.00,93.01,0.00,0.00,0.03,29.82,1010.70,8.00,M,OVC,M,M,M,7000.00,M,M,M,-RA,M,M,M,M,M,M,57.00,KHND 060256Z 00000KT 8SM -RA OVC070 14/13 A2982 RMK AO2 RAB26 SLP107 P0003 60004 T01390128 53012 $,M
TPH,2025-05-06 02:56,-117.0904,38.0505,1654.00,56.00,26.00,31.27,310.00,19.00,0.00,29.89,1008.60,10.00,26.00,CLR,M,M,M,M,M,M,M,M,M,M,M,35.00,310.00,2025-05-06 02:17,56.00,KTPH 060256Z AUTO 31019G26KT 10SM CLR 13/M03 A2989 RMK AO2 PK WND 31035/0217 SLP086 T01331033 53017,M
LAS,2025-05-06 02:56,-115.1634,36.0719,663.00,59.00,54.00,83.46,0.00,0.00,0.05,29.80,1008.20,7.00,M,SCT,BKN,OVC,M,1000.00,7000.00,8000.00,M,-RA,M,M,M,M,M,M,59.00,KLAS 060256Z 00000KT 7SM -RA SCT010 BKN070 OVC080 15/12 A2980 RMK AO2 SLP082 P0005 60005 T01500122 53013 $,M
NFL,2025-05-06 02:57,-118.7010,39.4166,1199.00,61.00,22.00,22.11,10.00,6.00,0.00,29.94,1011.10,10.00,M,FEW,FEW,M,M,16000.00,20000.00,M,M,M,M,M,M,M,M,M,61.00,KNFL 060257Z 01006KT 10SM FEW160 FEW200 16/M06 A2994 RMK AO2 SLP111 T01611056 53007,M
RTS,2025-05-06 03:05,-119.8764,39.6682,1539.00,53.60,14.00,20.46,60.00,7.00,0.00,30.01,M,10.00,M,CLR,M,M,M,M,M,M,M,M,M,M,M,M,M,M,53.60,KRTS 060305Z AUTO 06007KT 10SM CLR 12/M10 A3001 RMK AO2,M
MEV,2025-05-06 03:05,-119.7500,38.9963,1441.42,53.60,21.20,27.91,340.00,4.00,0.00,29.98,M,10.00,M,CLR,M,M,M,M,M,M,M,M,M,M,M,M,M,M,53.60,KMEV 060305Z AUTO 34004KT 10SM CLR 12/M06 A2998 RMK AO2,M
BVU,2025-05-06 03:15,-114.8611,35.9475,671.00,59.00,57.20,93.74,170.00,4.00,0.00,29.80,M,10.00,M,FEW,OVC,M,M,4600.00,7500.00,M,M,M,M,M,M,M,M,M,59.00,KBVU 060315Z AUTO 17004KT 10SM FEW046 OVC075 15/14 A2980 RMK AO2,M
BAM,2025-05-06 03:15,-116.8743,40.5990,1382.36,55.40,19.40,24.21,360.00,11.00,0.00,29.96,M,10.00,M,CLR,M,M,M,M,M,M,M,M,M,M,M,M,M,M,55.40,KBAM 060315Z AUTO 36011KT 10SM CLR 13/M07 A2996 RMK AO1,M
CXP,2025-05-06 03:15,-119.7326,39.1923,1431.00,59.00,15.80,18.20,40.00,7.00,0.00,30.00,M,10.00,M,CLR,M,M,M,M,M,M,M,M,M,M,M,M,M,M,59.00,KCXP 060315Z AUTO 04007KT 10SM CLR 15/M09 A3000 RMK AO2,M
HTH,2025-05-06 03:15,-118.6315,38.5448,1282.89,57.20,30.20,35.57,320.00,6.00,0.00,29.96,M,10.00,M,CLR,M,M,M,M,M,M,M,M,M,M,M,M,M,M,57.20,KHTH 060315Z AUTO 32006KT 10SM CLR 14/M01 A2996 RMK A01,M
TMT,2025-05-06 03:15,-117.1971,39.4643,1749.34,47.70,22.30,36.39,10.00,7.00,0.00,29.99,M,10.00,M,CLR,M,M,M,M,M,M,M,M,M,M,M,M,M,M,43.92,KTMT 060315Z AUTO 01007KT 10SM CLR 09/M05 A2999 RMK AO2 T00871054,M
LSV,2025-05-06 03:23,-115.0343,36.2362,570.00,60.40,54.50,80.86,190.00,3.00,0.04,29.77,1006.90,9.00,M,FEW,BKN,M,M,3000.00,7000.00,M,M,-RA,M,M,M,M,M,M,60.40,KLSV 060323Z 19003KT 9SM -RA FEW030 BKN070 16/13 A2977 RMK RAB0219E0234RAB04E10RAB16E22RAB23 SLP069 P0004 T01580125 $,M
BVU,2025-05-06 03:35,-114.8611,35.9475,671.00,57.20,57.20,100.00,0.00,0.00,0.00,29.81,M,10.00,M,FEW,SCT,BKN,M,4700.00,6000.00,7000.00,M,-RA,M,M,M,M,M,M,57.20,KBVU 060335Z AUTO 00000KT 10SM -RA FEW047 SCT060 BKN070 14/14 A2981 RMK AO2,M
BAM,2025-05-06 03:35,-116.8743,40.5990,1382.36,51.80,21.20,29.82,10.00,8.00,0.00,29.98,M,10.00,M,CLR,M,M,M,M,M,M,M,M,M,M,M,M,M,M,51.80,KBAM 060335Z AUTO 01008KT 10SM CLR 11/M06 A2998 RMK AO1,M
CXP,2025-05-06 03:35,-119.7326,39.1923,1431.00,57.20,15.80,19.42,340.00,4.00,0.00,30.01,M,10.00,M,CLR,M,M,M,M,M,M,M,M,M,M,M,M,M,M,57.20,KCXP 060335Z AUTO 34004KT 10SM CLR 14/M09 A3001 RMK AO2,M
RTS,2025-05-06 03:35,-119.8764,39.6682,1539.00,51.80,15.80,23.65,0.00,0.00,0.00,30.01,M,10.00,M,CLR,M,M,M,M,M,M,M,M,M,M,M,M,M,M,51.80,KRTS 060335Z AUTO 00000KT 10SM CLR 11/M09 A3001 RMK AO2,M
MEV,2025-05-06 03:35,-119.7500,38.9963,1441.42,48.20,23.00,36.78,30.00,6.00,0.00,29.99,M,10.00,M,CLR,M,M,M,M,M,M,M,M,M,M,M,M,M,M,45.04,KMEV 060335Z AUTO 03006KT 10SM CLR 09/M05 A2999 RMK AO2,M
HTH,2025-05-06 03:35,-118.6315,38.5448,1282.89,57.20,28.40,33.05,330.00,6.00,0.00,29.97,M,10.00,M,CLR,M,M,M,M,M,M,M,M,M,M,M,M,M,M,57.20,KHTH 060335Z AUTO 33006KT 10SM CLR 14/M02 A2997 RMK A01,M
TMT,2025-05-06 03:35,-117.1971,39.4643,1749.34,45.70,21.70,38.26,20.00,5.00,0.00,30.00,M,10.00,M,CLR,M,M,M,M,M,M,M,M,M,M,M,M,M,M,42.67,KTMT 060335Z AUTO 02005KT 10SM CLR 08/M06 A3000 RMK AO2 T00761057,M
INS,2025-05-06 03:45,-115.6733,36.5872,955.00,55.40,53.60,93.65,110.00,11.00,0.00,29.80,1006.80,10.00,M,SCT,BKN,OVC,M,400.00,11000.00,13000.00,M,M,M,M,M,M,M,M,55.40,KINS 060345Z AUTO 11011KT 10SM SCT004 BKN110 OVC130 13/12 A2980 RMK AO2 SLP068 $,M
MEV,2025-05-06 03:45,-119.7500,38.9963,1441.42,53.60,19.40,25.85,30.00,9.00,0.00,29.99,M,10.00,M,CLR,M,M,M,M,M,M,M,M,M,M,M,M,M,M,53.60,KMEV 060345Z AUTO 03009KT 10SM CLR 12/M07 A2999 RMK AO2,M
RTS,2025-05-06 03:45,-119.8764,39.6682,1539.00,51.80,15.80,23.65,M,3.00,0.00,30.02,M,10.00,M,CLR,M,M,M,M,M,M,M,M,M,M,M,M,M,M,51.80,KRTS 060345Z AUTO VRB03KT 10SM CLR 11/M09 A3002 RMK AO2,M
P68,2025-05-06 03:53,-116.0056,39.6014,1993.00,47.00,19.00,32.47,340.00,8.00,0.00,29.95,1011.00,M,M,M,M,M,M,M,M,M,M,M,M,M,M,M,M,M,42.59,KP68 060353Z AUTO 34008KT 08/M07 A2995 RMK AO1 SLP110 T00831072,M
DRA,2025-05-06 03:53,-116.0278,36.6206,1009.00,61.00,47.00,59.94,120.00,15.00,0.00,29.78,1005.70,10.00,21.00,FEW,SCT,M,M,9500.00,12000.00,M,M,M,M,M,M,28.00,90.00,2025-05-06 02:58,61.00,KDRA 060353Z AUTO 12015G21KT 10SM FEW095 SCT120 16/08 A2978 RMK AO2 PK WND 09028/0258 SLP057 T01610083,M
ELY,2025-05-06 03:53,-114.8453,39.2950,1909.00,50.00,35.00,56.16,340.00,12.00,0.01,29.88,1007.20,10.00,M,OVC,M,M,M,5000.00,M,M,M,-RA,M,M,M,28.00,340.00,2025-05-06 02:59,50.00,KELY 060353Z AUTO 34012KT 10SM -RA OVC050 10/02 A2988 RMK AO2 PK WND 34028/0259 RAE14B33 SLP072 P0001 T01000017,M
VGT,2025-05-06 03:53,-115.1933,36.2111,667.00,58.00,54.00,86.51,210.00,3.00,0.03,29.82,1010.50,8.00,M,FEW,OVC,M,M,1100.00,8000.00,M,M,-RA,M,M,M,M,M,M,58.00,KVGT 060353Z 21003KT 8SM -RA FEW011 OVC080 14/12 A2982 RMK AO2 SLP105 P0003 T01440122,M
LOL,2025-05-06 03:53,-118.5701,40.0684,1192.43,57.00,17.00,20.60,360.00,10.00,0.00,29.96,1013.10,10.00,M,CLR,M,M,M,M,M,M,M,M,M,M,M,M,M,M,57.00,KLOL 060353Z AUTO 36010KT 10SM CLR 14/M08 A2996 RMK AO2 SLP131 T01391083,M
BAM,2025-05-06 03:55,-116.8743,40.5990,1382.36,51.80,21.20,29.82,10.00,8.00,0.00,29.98,M,10.00,M,CLR,M,M,M,M,M,M,M,M,M,M,M,M,M,M,51.80,KBAM 060355Z AUTO 01008KT 10SM CLR 11/M06 A2998 RMK AO1,M
CXP,2025-05-06 03:55,-119.7326,39.1923,1431.00,53.60,17.60,23.93,0.00,0.00,0.00,30.02,M,10.00,M,CLR,M,M,M,M,M,M,M,M,M,M,M,M,M,M,53.60,KCXP 060355Z AUTO 00000KT 10SM CLR 12/M08 A3002 RMK AO2,M
HTH,2025-05-06 03:55,-118.6315,38.5448,1282.89,57.20,24.80,28.48,360.00,10.00,0.00,29.98,M,10.00,M,FEW,FEW,M,M,3800.00,5500.00,M,M,M,M,M,M,M,M,M,57.20,KHTH 060355Z AUTO 36010KT 10SM FEW038 FEW055 14/M04 A2998 RMK A01,M
TMT,2025-05-06 03:55,-117.1971,39.4643,1749.34,41.00,25.00,52.61,0.00,0.00,0.00,30.01,M,10.00,M,CLR,M,M,M,M,M,M,M,M,M,M,M,M,M,M,41.00,KTMT 060355Z AUTO 00000KT 10SM CLR 05/M04 A3001 RMK AO2 T00511038,M
BVU,2025-05-06 03:55,-114.8611,35.9475,671.00,57.20,57.20,100.00,0.00,0.00,0.00,29.81,M,10.00,M,FEW,BKN,OVC,M,4700.00,8500.00,11000.00,M,M,M,M,M,M,M,M,57.20,KBVU 060355Z AUTO 00000KT 10SM FEW047 BKN085 OVC110 14/14 A2981 RMK AO2,M
RNO,2025-05-06 03:55,-119.7711,39.4839,1341.00,60.00,16.00,17.72,0.00,0.00,0.00,29.99,1012.80,10.00,M,FEW,M,M,M,15000.00,M,M,M,M,M,M,M,M,M,M,60.00,KRNO 060355Z 00000KT 10SM FEW150 16/M09 A2999 RMK AO2 SLP128 T01561089,M
INS,2025-05-06 03:55,-115.6733,36.5872,955.00,55.40,53.00,91.61,100.00,10.00,0.00,29.81,1007.10,10.00,M,SCT,OVC,M,M,400.00,10000.00,M,M,M,M,M,M,M,M,M,55.40,KINS 060355Z AUTO 10010KT 10SM SCT004 OVC100 13/12 A2981 RMK AO2 SLP071 T01300116 $,M
LSV,2025-05-06 03:55,-115.0343,36.2362,570.00,60.00,54.70,82.62,0.00,0.00,0.04,29.79,1007.70,10.00,M,OVC,M,M,M,8000.00,M,M,M,M,M,M,M,M,M,M,60.00,KLSV 060355Z 00000KT 10SM OVC080 16/13 A2979 RMK AO2A RAE23RAB23E29RAB35E41 SLP077 P0004 T01550126 $,M
EKO,2025-05-06 03:56,-115.7860,40.8242,1367.00,51.00,18.00,26.79,10.00,14.00,0.00,29.94,1011.90,10.00,23.00,CLR,M,M,M,M,M,M,M,M,M,M,M,M,M,M,51.00,KEKO 060356Z AUTO 01014G23KT 10SM CLR 11/M08 A2994 RMK AO2 SLP119 T01061078,M
WMC,2025-05-06 03:56,-117.8072,40.9019,1315.00,50.00,17.00,26.63,360.00,6.00,0.00,29.99,1014.10,10.00,M,CLR,M,M,M,M,M,M,M,M,M,M,M,M,M,M,50.00,KWMC 060356Z AUTO 36006KT 10SM CLR 10/M08 A2999 RMK AO2 SLP141 T01001083,M
HND,2025-05-06 03:56,-115.1344,35.9729,742.79,58.00,55.00,89.72,190.00,3.00,0.03,29.84,1011.10,10.00,M,SCT,OVC,M,M,1000.00,8000.00,M,M,-RA,M,M,M,M,M,M,58.00,KHND 060356Z AUTO 19003KT 10SM -RA SCT010 OVC080 14/13 A2984 RMK AO2 SLP111 P0003 T01440128 $,M
TPH,2025-05-06 03:56,-117.0904,38.0505,1654.00,54.00,25.00,32.26,320.00,18.00,0.00,29.92,1009.50,10.00,27.00,CLR,M,M,M,M,M,M,M,M,M,M,M,29.00,320.00,2025-05-06 03:14,54.00,KTPH 060356Z AUTO 32018G27KT 10SM CLR 12/M04 A2992 RMK AO2 PK WND 32029/0314 SLP095 T01221039,M
LAS,2025-05-06 03:56,-115.1634,36.0719,663.00,59.00,54.00,83.46,0.00,0.00,0.01,29.83,1009.10,10.00,M,SCT,BKN,OVC,M,1400.00,7000.00,8000.00,M,M,M,M,M,M,M,M,59.00,KLAS 060356Z 00000KT 10SM SCT014 BKN070 OVC080 15/12 A2983 RMK AO2 RAE45 SLP091 P0001 T01500122 $,M
INS,2025-05-06 04:00,-115.6733,36.5872,955.00,55.40,51.80,87.65,100.00,13.00,0.00,29.82,1007.30,10.00,M,BKN,OVC,M,M,400.00,10000.00,M,M,M,M,M,M,M,M,M,55.40,KINS 060400Z AUTO 10013KT 10SM BKN004 OVC100 13/11 A2982 RMK AO2 BKN V SCT SLP073 $,M
LSV,2025-05-06 04:04,-115.0343,36.2362,570.00,60.80,55.40,82.37,0.00,0.00,0.00,29.79,1007.70,9.00,M,OVC,M,M,M,8000.00,M,M,M,-RA,M,M,M,M,M,M,60.80,KLSV 060404Z 00000KT 9SM -RA OVC080 16/13 A2979 RMK AO2A RAB04 SLP077 $,M
HND,2025-05-06 04:07,-115.1344,35.9729,742.79,57.20,55.40,93.69,0.00,0.00,T,29.85,M,10.00,M,BKN,BKN,OVC,M,1000.00,1500.00,8000.00,M,M,M,M,M,M,M,M,57.20,KHND 060407Z AUTO 00000KT 10SM BKN010 BKN015 OVC080 14/13 A2985 RMK AO2 RAE02 CIG 007V013 P0000 $,M
LAS,2025-05-06 04:11,-115.1634,36.0719,663.00,59.00,54.00,83.46,0.00,0.00,0.01,29.84,M,7.00,M,FEW,BKN,OVC,M,1200.00,1700.00,7500.00,M,-RA,M,M,M,M,M,M,59.00,KLAS 060411Z 00000KT 7SM -RA FEW012 BKN017 OVC075 15/12 A2984 RMK AO2 RAB0358 P0001 T01500122 $,M
BVU,2025-05-06 04:15,-114.8611,35.9475,671.00,57.20,55.40,93.69,0.00,0.00,0.00,29.82,M,10.00,M,BKN,BKN,OVC,M,1400.00,9000.00,11000.00,M,M,M,M,M,M,M,M,57.20,KBVU 060415Z AUTO 00000KT 10SM BKN014 BKN090 OVC110 14/13 A2982 RMK AO2,M
BAM,2025-05-06 04:15,-116.8743,40.5990,1382.36,50.00,21.20,31.87,10.00,6.00,0.00,29.99,M,10.00,M,CLR,M,M,M,M,M,M,M,M,M,M,M,M,M,M,50.00,KBAM 060415Z AUTO 01006KT 10SM CLR 10/M06 A2999 RMK AO1,M
CXP,2025-05-06 04:15,-119.7326,39.1923,1431.00,51.80,19.40,27.62,0.00,0.00,0.00,30.02,M,10.00,M,CLR,M,M,M,M,M,M,M,M,M,M,M,M,M,M,51.80,KCXP 060415Z AUTO 00000KT 10SM CLR 11/M07 A3002 RMK AO2,M
RTS,2025-05-06 04:15,-119.8764,39.6682,1539.00,50.00,19.40,29.52,240.00,4.00,0.00,30.03,M,10.00,M,CLR,M,M,M,M,M,M,M,M,M,M,M,M,M,M,50.00,KRTS 060415Z AUTO 24004KT 10SM CLR 10/M07 A3003 RMK AO2,M
MEV,2025-05-06 04:15,-119.7500,38.9963,1441.42,50.00,21.20,31.87,0.00,0.00,0.00,30.01,M,10.00,M,FEW,FEW,M,M,4300.00,5000.00,M,M,M,M,M,M,M,M,M,50.00,KMEV 060415Z AUTO 00000KT 10SM FEW043 FEW050 10/M06 A3001 RMK AO2,M
HTH,2025-05-06 04:15,-118.6315,38.5448,1282.89,57.20,23.00,26.42,340.00,8.00,0.00,29.99,M,10.00,M,FEW,FEW,M,M,3800.00,4700.00,M,M,M,M,M,M,M,M,M,57.20,KHTH 060415Z AUTO 34008KT 10SM FEW038 FEW047 14/M05 A2999 RMK A01,M
TMT,2025-05-06 04:15,-117.1971,39.4643,1749.34,43.70,22.50,42.70,0.00,0.00,0.00,30.02,M,10.00,M,CLR,M,M,M,M,M,M,M,M,M,M,M,M,M,M,43.70,KTMT 060415Z AUTO 00000KT 10SM CLR 07/M05 A3002 RMK AO2 T00651053,M
BVU,2025-05-06 04:35,-114.8611,35.9475,671.00,57.20,55.40,93.69,0.00,0.00,0.00,29.83,M,10.00,M,OVC,M,M,M,1600.00,M,M,M,-RA,M,M,M,M,M,M,57.20,KBVU 060435Z AUTO 00000KT 10SM -RA OVC016 14/13 A2983 RMK AO2,M
BAM,2025-05-06 04:35,-116.8743,40.5990,1382.36,48.20,23.00,36.78,0.00,0.00,0.00,30.00,M,10.00,M,CLR,M,M,M,M,M,M,M,M,M,M,M,M,M,M,48.20,KBAM 060435Z AUTO 00000KT 10SM CLR 09/M05 A3000 RMK AO1,M
CXP,2025-05-06 04:35,-119.7326,39.1923,1431.00,51.80,19.40,27.62,130.00,4.00,0.00,30.03,M,10.00,M,CLR,M,M,M,M,M,M,M,M,M,M,M,M,M,M,51.80,KCXP 060435Z AUTO 13004KT 10SM CLR 11/M07 A3003 RMK AO2,M
RTS,2025-05-06 04:35,-119.8764,39.6682,1539.00,51.80,19.40,27.62,0.00,0.00,0.00,30.04,M,10.00,M,CLR,M,M,M,M,M,M,M,M,M,M,M,M,M,M,51.80,KRTS 060435Z AUTO 00000KT 10SM CLR 11/M07 A3004 RMK AO2,M
MEV,2025-05-06 04:35,-119.7500,38.9963,1441.42,44.60,24.80,45.44,210.00,4.00,0.00,30.01,M,10.00,M,FEW,SCT,M,M,3200.00,4400.00,M,M,M,M,M,M,M,M,M,42.13,KMEV 060435Z AUTO 21004KT 10SM FEW032 SCT044 07/M04 A3001 RMK AO2,M
HTH,2025-05-06 04:35,-118.6315,38.5448,1282.89,57.20,23.00,26.42,330.00,6.00,0.00,30.00,M,10.00,M,FEW,SCT,M,M,5000.00,6000.00,M,M,M,M,M,M,M,M,M,57.20,KHTH 060435Z AUTO 33006KT 10SM FEW050 SCT060 14/M05 A3000 RMK A01,M
TMT,2025-05-06 04:35,-117.1971,39.4643,1749.34,41.00,23.70,49.83,260.00,5.00,0.00,30.03,M,10.00,M,CLR,M,M,M,M,M,M,M,M,M,M,M,M,M,M,37.08,KTMT 060435Z AUTO 26005KT 10SM CLR 05/M05 A3003 RMK AO2 T00501046,M
INS,2025-05-06 04:40,-115.6733,36.5872,955.00,55.40,51.80,87.65,100.00,9.00,0.00,29.83,1007.60,10.00,M,OVC,M,M,M,600.00,M,M,M,M,M,M,M,M,M,M,55.40,KINS 060440Z AUTO 10009KT 10SM OVC006 13/11 A2983 RMK AO2 SLP076 $,M
HND,2025-05-06 04:42,-115.1344,35.9729,742.79,57.20,53.60,87.74,190.00,7.00,0.02,29.85,M,10.00,M,FEW,SCT,OVC,M,1000.00,2000.00,7500.00,M,RA,M,M,M,M,M,M,57.20,KHND 060442Z AUTO 19007KT 10SM RA FEW010 SCT020 OVC075 14/12 A2985 RMK AO2 P0002 $,M
P68,2025-05-06 04:53,-116.0056,39.6014,1993.00,42.00,25.00,50.61,50.00,8.00,0.00,29.98,1012.00,M,M,M,M,M,M,M,M,M,M,M,M,M,M,M,M,M,36.43,KP68 060453Z AUTO 05008KT 06/M04 A2998 RMK AO1 SLP120 T00561039,M
DRA,2025-05-06 04:53,-116.0278,36.6206,1009.00,57.00,50.00,77.38,130.00,13.00,0.00,29.82,1007.00,10.00,M,CLR,M,M,M,M,M,M,M,M,M,M,M,M,M,M,57.00,KDRA 060453Z AUTO 13013KT 10SM CLR 14/10 A2982 RMK AO2 SLP070 T01390100,M
ELY,2025-05-06 04:53,-114.8453,39.2950,1909.00,49.00,30.00,47.68,340.00,11.00,T,29.91,1008.00,10.00,19.00,BKN,OVC,M,M,5000.00,6500.00,M,M,M,M,M,M,M,M,M,43.95,KELY 060453Z AUTO 34011G19KT 10SM BKN050 OVC065 09/M01 A2991 RMK AO2 RAE03 SLP080 P0000 T00941011,M
VGT,2025-05-06 04:53,-115.1933,36.2111,667.00,58.00,54.00,86.51,210.00,5.00,0.03,29.83,1010.90,10.00,M,FEW,OVC,M,M,2800.00,8000.00,M,M,-RA,M,M,M,M,M,M,58.00,KVGT 060453Z AUTO 21005KT 10SM -RA FEW028 OVC080 14/12 A2983 RMK AO2 SLP109 P0003 T01440122,M
LOL,2025-05-06 04:53,-118.5701,40.0684,1192.43,55.00,18.00,23.13,30.00,8.00,0.00,29.98,1013.90,10.00,M,CLR,M,M,M,M,M,M,M,M,M,M,M,M,M,M,55.00,KLOL 060453Z AUTO 03008KT 10SM CLR 13/M08 A2998 RMK AO2 SLP139 T01281078,M
BVU,2025-05-06 04:55,-114.8611,35.9475,671.00,57.20,55.40,93.69,0.00,0.00,0.00,29.83,M,10.00,M,SCT,SCT,OVC,M,1700.00,5500.00,7500.00,M,-RA,M,M,M,M,M,M,57.20,KBVU 060455Z AUTO 00000KT 10SM -RA SCT017 SCT055 OVC075 14/13 A2983 RMK AO2,M
RNO,2025-05-06 04:55,-119.7711,39.4839,1341.00,56.00,22.00,26.45,290.00,3.00,0.00,30.01,1013.70,10.00,M,CLR,M,M,M,M,M,M,M,M,M,M,M,M,M,M,56.00,KRNO 060455Z 29003KT 10SM CLR 13/M06 A3001 RMK AO2 SLP137 T01331056,M
BAM,2025-05-06 04:55,-116.8743,40.5990,1382.36,50.00,21.20,31.87,0.00,0.00,0.00,30.01,M,10.00,M,CLR,M,M,M,M,M,M,M,M,M,M,M,M,M,M,50.00,KBAM 060455Z AUTO 00000KT 10SM CLR 10/M06 A3001 RMK AO1,M
CXP,2025-05-06 04:55,-119.7326,39.1923,1431.00,53.60,19.40,25.85,0.00,0.00,0.00,30.04,M,10.00,M,CLR,M,M,M,M,M,M,M,M,M,M,M,M,M,M,53.60,KCXP 060455Z AUTO 00000KT 10SM CLR 12/M07 A3004 RMK AO2,M
RTS,2025-05-06 04:55,-119.8764,39.6682,1539.00,48.20,19.40,31.57,250.00,4.00,0.00,30.04,M,10.00,M,M,M,M,M,M,M,M,M,M,M,M,M,M,M,M,46.34,KRTS 060455Z AUTO 25004KT 10SM 09/M07 A3004 RMK AO2,M
MEV,2025-05-06 04:55,-119.7500,38.9963,1441.42,41.00,23.00,48.39,200.00,5.00,0.00,30.02,M,10.00,M,FEW,SCT,SCT,M,3500.00,4500.00,6000.00,M,M,M,M,M,M,M,M,37.08,KMEV 060455Z AUTO 20005KT 10SM FEW035 SCT045 SCT060 05/M05 A3002 RMK AO2,M
HTH,2025-05-06 04:55,-118.6315,38.5448,1282.89,53.60,28.40,37.67,330.00,4.00,0.00,30.00,M,10.00,M,FEW,BKN,BKN,M,4300.00,5000.00,6000.00,M,M,M,M,M,M,M,M,53.60,KHTH 060455Z AUTO 33004KT 10SM FEW043 BKN050 BKN060 12/M02 A3000 RMK A01,M
TMT,2025-05-06 04:55,-117.1971,39.4643,1749.34,40.00,24.00,52.45,350.00,3.00,0.00,30.03,M,10.00,M,CLR,M,M,M,M,M,M,M,M,M,M,M,M,M,M,37.83,KTMT 060455Z AUTO 35003KT 10SM CLR 05/M04 A3003 RMK AO2 T00451044,M
INS,2025-05-06 04:55,-115.6733,36.5872,955.00,55.40,51.60,87.00,90.00,9.00,0.00,29.83,1007.60,10.00,M,SCT,OVC,M,M,600.00,11000.00,M,M,M,M,M,M,M,M,M,55.40,KINS 060455Z AUTO 09009KT 10SM SCT006 OVC110 13/11 A2983 RMK AO2 SLP076 T01300109 $,M
LSV,2025-05-06 04:55,-115.0343,36.2362,570.00,59.00,55.00,86.56,0.00,0.00,0.10,29.80,1008.10,8.00,M,OVC,M,M,M,8000.00,M,M,M,M,M,M,M,M,M,M,59.00,KLSV 060455Z 00000KT 8SM OVC080 15/13 A2980 RMK AO2A RAE0355RAB04E10RAB13E19RAB20E39RAB41E54 SLP081 P0010 T01490127 $,M
EKO,2025-05-06 04:56,-115.7860,40.8242,1367.00,48.00,20.00,32.64,320.00,6.00,0.00,29.96,1012.50,10.00,15.00,CLR,M,M,M,M,M,M,M,M,M,M,M,M,M,M,44.80,KEKO 060456Z AUTO 32006G15KT 10SM CLR 09/M07 A2996 RMK AO2 SLP125 T00891067,M
WMC,2025-05-06 04:56,-117.8072,40.9019,1315.00,49.00,19.00,30.12,360.00,8.00,0.00,30.01,1014.80,10.00,M,CLR,M,M,M,M,M,M,M,M,M,M,M,M,M,M,45.05,KWMC 060456Z AUTO 36008KT 10SM CLR 09/M07 A3001 RMK AO2 SLP148 T00941072,M
HND,2025-05-06 04:56,-115.1344,35.9729,742.79,57.00,54.00,89.68,240.00,6.00,0.03,29.87,1012.10,10.00,M,FEW,BKN,OVC,M,1200.00,7500.00,9000.00,M,RA,M,M,M,M,M,M,57.00,KHND 060456Z AUTO 24006KT 10SM RA FEW012 BKN075 OVC090 14/12 A2987 RMK AO2 SLP121 P0003 T01390122 $,M
TPH,2025-05-06 04:56,-117.0904,38.0505,1654.00,54.00,24.00,30.94,320.00,12.00,0.00,29.95,1010.20,10.00,M,CLR,M,M,M,M,M,M,M,M,M,M,M,M,M,M,54.00,KTPH 060456Z AUTO 32012KT 10SM CLR 12/M04 A2995 RMK AO2 SLP102 T01221044,M
LAS,2025-05-06 04:56,-115.1634,36.0719,663.00,58.00,54.00,86.51,0.00,0.00,0.06,29.84,1009.70,8.00,M,FEW,BKN,OVC,M,400.00,8000.00,10000.00,M,-RA VCFG,M,M,M,M,M,M,58.00,KLAS 060456Z 00000KT 8SM -RA VCFG FEW004 BKN080 OVC100 14/12 A2984 RMK AO2 RAB0358 SLP097 VIS LWR NW-N MTNS OBSCURED DSNT W-N P0006 T01440122 $,M
NFL,2025-05-06 04:57,-118.7010,39.4166,1199.00,55.00,22.00,27.43,30.00,3.00,0.00,29.98,1012.30,10.00,M,FEW,M,M,M,20000.00,M,M,M,M,M,M,M,M,M,M,55.00,KNFL 060457Z 03003KT 10SM FEW200 13/M06 A2998 RMK AO2 SLP123 T01281056,M
LSV,2025-05-06 05:00,-115.0343,36.2362,570.00,59.00,53.60,82.25,0.00,0.00,0.00,29.80,1008.10,10.00,M,OVC,M,M,M,8000.00,M,M,M,-RA,M,M,M,M,M,M,59.00,KLSV 060500Z 00000KT 10SM -RA OVC080 15/12 A2980 RMK AO2A RAB00 SLP081 $,M
CXP,2025-05-06 05:10,-119.7326,39.1923,1431.00,51.80,17.60,25.56,0.00,0.00,0.00,30.04,M,10.00,M,CLR,M,M,M,M,M,M,M,M,M,M,M,M,M,M,51.80,KCXP 060510Z AUTO 00000KT 10SM CLR 11/M08 A3004 RMK AO2,M
BVU,2025-05-06 05:15,-114.8611,35.9475,671.00,57.20,55.40,93.69,0.00,0.00,0.00,29.83,M,10.00,M,SCT,BKN,OVC,M,4800.00,6000.00,7500.00,M,-RA,M,M,M,M,M,M,57.20,KBVU 060515Z AUTO 00000KT 10SM -RA SCT048 BKN060 OVC075 14/13 A2983 RMK AO2,M
BAM,2025-05-06 05:15,-116.8743,40.5990,1382.36,50.00,21.20,31.87,0.00,0.00,0.00,30.01,M,10.00,M,CLR,M,M,M,M,M,M,M,M,M,M,M,M,M,M,50.00,KBAM 060515Z AUTO 00000KT 10SM CLR 10/M06 A3001 RMK AO1,M
RTS,2025-05-06 05:15,-119.8764,39.6682,1539.00,48.20,21.20,34.09,0.00,0.00,0.00,30.05,M,10.00,M,M,M,M,M,M,M,M,M,M,M,M,M,M,M,M,48.20,KRTS 060515Z AUTO 00000KT 10SM 09/M06 A3005 RMK AO2,M
MEV,2025-05-06 05:15,-119.7500,38.9963,1441.42,44.60,21.20,39.06,180.00,4.00,0.00,30.03,M,10.00,M,FEW,SCT,SCT,M,3600.00,4500.00,5000.00,M,M,M,M,M,M,M,M,42.13,KMEV 060515Z AUTO 18004KT 10SM FEW036 SCT045 SCT050 07/M06 A3003 RMK AO2,M
HTH,2025-05-06 05:15,-118.6315,38.5448,1282.89,55.40,24.80,30.40,0.00,0.00,0.00,30.01,M,10.00,M,SCT,BKN,M,M,5000.00,6000.00,M,M,M,M,M,M,M,M,M,55.40,KHTH 060515Z AUTO 00000KT 10SM SCT050 BKN060 13/M04 A3001 RMK A01,M
TMT,2025-05-06 05:15,-117.1971,39.4643,1749.34,42.60,21.20,42.16,350.00,4.00,0.00,30.04,M,10.00,M,CLR,M,M,M,M,M,M,M,M,M,M,M,M,M,M,39.80,KTMT 060515Z AUTO 35004KT 10SM CLR 06/M06 A3004 RMK AO2 T00591060,M
LSV,2025-05-06 05:27,-115.0343,36.2362,570.00,59.00,55.40,87.83,0.00,0.00,0.00,29.81,1008.30,10.00,M,SCT,OVC,M,M,3000.00,8000.00,M,M,-RA,M,M,M,M,M,M,59.00,KLSV 060527Z 00000KT 10SM -RA SCT030 OVC080 15/13 A2981 RMK AO2A RAE0455RAB00E03DZB06E12RAB12 SLP083 $,M
BVU,2025-05-06 05:35,-114.8611,35.9475,671.00,57.20,55.40,93.69,0.00,0.00,0.00,29.83,M,10.00,M,FEW,BKN,OVC,M,4600.00,8000.00,9000.00,M,M,M,M,M,M,M,M,57.20,KBVU 060535Z AUTO 00000KT 10SM FEW046 BKN080 OVC090 14/13 A2983 RMK AO2,M
BAM,2025-05-06 05:35,-116.8743,40.5990,1382.36,48.20,23.00,36.78,330.00,6.00,0.00,30.02,M,10.00,M,CLR,M,M,M,M,M,M,M,M,M,M,M,M,M,M,45.04,KBAM 060535Z AUTO 33006KT 10SM CLR 09/M05 A3002 RMK AO1,M
CXP,2025-05-06 05:35,-119.7326,39.1923,1431.00,50.00,21.20,31.87,0.00,0.00,0.00,30.04,M,10.00,M,CLR,M,M,M,M,M,M,M,M,M,M,M,M,M,M,50.00,KCXP 060535Z AUTO 00000KT 10SM CLR 10/M06 A3004 RMK AO2,M
RTS,2025-05-06 05:35,-119.8764,39.6682,1539.00,46.40,17.60,31.28,0.00,0.00,0.00,30.05,M,10.00,M,M,M,M,M,M,M,M,M,M,M,M,M,M,M,M,46.40,KRTS 060535Z AUTO 00000KT 10SM 08/M08 A3005 RMK AO2,M
MEV,2025-05-06 05:35,-119.7500,38.9963,1441.42,42.80,23.00,45.14,0.00,0.00,0.00,30.03,M,10.00,M,FEW,SCT,SCT,M,3700.00,4600.00,5500.00,M,M,M,M,M,M,M,M,42.80,KMEV 060535Z AUTO 00000KT 10SM FEW037 SCT046 SCT055 06/M05 A3003 RMK AO2,M
HTH,2025-05-06 05:35,-118.6315,38.5448,1282.89,55.40,26.60,32.76,360.00,4.00,0.00,30.01,M,10.00,M,BKN,M,M,M,6000.00,M,M,M,M,M,M,M,M,M,M,55.40,KHTH 060535Z AUTO 36004KT 10SM BKN060 13/M03 A3001 RMK A01,M
TMT,2025-05-06 05:35,-117.1971,39.4643,1749.34,42.00,19.80,40.65,0.00,0.00,0.00,30.03,M,10.00,M,CLR,M,M,M,M,M,M,M,M,M,M,M,M,M,M,42.00,KTMT 060535Z AUTO 00000KT 10SM CLR 06/M07 A3003 RMK AO2 T00551068,M
INS,2025-05-06 05:40,-115.6733,36.5872,955.00,55.40,51.80,87.65,110.00,6.00,0.00,29.85,1008.10,10.00,M,BKN,BKN,M,M,500.00,10000.00,M,M,M,M,M,M,M,M,M,55.40,KINS 060540Z AUTO 11006KT 10SM BKN005 BKN100 13/11 A2985 RMK AO2 BKN005 V SCT SLP081 $,M
RTS,2025-05-06 05:45,-119.8764,39.6682,1539.00,46.40,19.40,33.79,60.00,4.00,0.00,30.05,M,10.00,M,CLR,M,M,M,M,M,M,M,M,M,M,M,M,M,M,44.24,KRTS 060545Z AUTO 06004KT 10SM CLR 08/M07 A3005 RMK AO2,M
MEV,2025-05-06 05:45,-119.7500,38.9963,1441.42,46.40,23.00,39.36,0.00,0.00,0.00,30.03,M,10.00,M,FEW,SCT,SCT,M,3600.00,4500.00,6000.00,M,M,M,M,M,M,M,M,46.40,KMEV 060545Z AUTO 00000KT 10SM FEW036 SCT045 SCT060 08/M05 A3003 RMK AO2,M
P68,2025-05-06 05:53,-116.0056,39.6014,1993.00,41.00,20.00,42.62,100.00,4.00,0.00,29.99,1012.10,M,M,M,M,M,M,M,M,M,M,M,M,M,M,M,M,M,37.93,KP68 060553Z AUTO 10004KT 05/M07 A2999 RMK AO1 SLP121 T00501067 10144 20050 51016,M
DRA,2025-05-06 05:53,-116.0278,36.6206,1009.00,56.00,50.00,80.23,100.00,8.00,0.00,29.84,1007.70,10.00,M,CLR,M,M,M,M,M,M,M,M,M,M,M,M,M,M,56.00,KDRA 060553Z AUTO 10008KT 10SM CLR 13/10 A2984 RMK AO2 SLP077 60000 T01330100 10211 20133 51027,M
ELY,2025-05-06 05:53,-114.8453,39.2950,1909.00,45.00,21.00,38.14,10.00,14.00,0.00,29.93,1008.80,10.00,23.00,BKN,M,M,M,7500.00,M,M,M,M,M,M,M,26.00,360.00,2025-05-06 05:39,37.92,KELY 060553Z AUTO 01014G23KT 10SM BKN075 07/M06 A2993 RMK AO2 PK WND 36026/0539 SLP088 60001 T00721061 10133 20072 51018,M
VGT,2025-05-06 05:53,-115.1933,36.2111,667.00,58.00,54.00,86.51,50.00,3.00,0.06,29.85,1011.40,9.00,M,OVC,M,M,M,8000.00,M,M,M,-RA,M,M,M,M,M,M,58.00,KVGT 060553Z AUTO 05003KT 9SM -RA OVC080 14/12 A2985 RMK AO2 SLP114 P0006 60023 T01440122 10156 20144 51016,M
LOL,2025-05-06 05:53,-118.5701,40.0684,1192.43,54.00,18.00,23.99,10.00,13.00,0.00,29.99,1014.10,10.00,19.00,CLR,M,M,M,M,M,M,M,M,M,M,M,M,M,M,54.00,KLOL 060553Z AUTO 01013G19KT 10SM CLR 12/M08 A2999 RMK AO2 SLP141 T01221078 10194 20111 51015,M
BVU,2025-05-06 05:55,-114.8611,35.9475,671.00,57.20,55.40,93.69,0.00,0.00,0.00,29.83,M,10.00,M,OVC,M,M,M,7500.00,M,M,M,M,M,M,M,M,M,M,57.20,KBVU 060555Z AUTO 00000KT 10SM OVC075 14/13 A2983 RMK AO2,M
RNO,2025-05-06 05:55,-119.7711,39.4839,1341.00,53.00,24.00,32.10,0.00,0.00,0.00,30.02,1014.10,10.00,M,CLR,M,M,M,M,M,M,M,M,M,M,M,M,M,M,53.00,KRNO 060555Z 00000KT 10SM CLR 12/M04 A3002 RMK AO2 SLP141 T01171044 10189 20117 51014,M
BAM,2025-05-06 05:55,-116.8743,40.5990,1382.36,46.40,23.00,39.36,330.00,7.00,0.00,30.02,M,10.00,M,CLR,M,M,M,M,M,M,M,M,M,M,M,M,M,M,42.33,KBAM 060555Z AUTO 33007KT 10SM CLR 08/M05 A3002 RMK AO1,M
CXP,2025-05-06 05:55,-119.7326,39.1923,1431.00,48.20,21.20,34.09,0.00,0.00,0.00,30.04,M,10.00,M,CLR,M,M,M,M,M,M,M,M,M,M,M,M,M,M,48.20,KCXP 060555Z AUTO 00000KT 10SM CLR 09/M06 A3004 RMK AO2,M
HTH,2025-05-06 05:55,-118.6315,38.5448,1282.89,53.60,26.60,34.98,0.00,0.00,0.00,30.01,M,10.00,M,SCT,M,M,M,5500.00,M,M,M,M,M,M,M,M,M,M,53.60,KHTH 060555Z AUTO 00000KT 10SM SCT055 12/M03 A3001 RMK A01,M
TMT,2025-05-06 05:55,-117.1971,39.4643,1749.34,38.70,21.40,49.46,190.00,4.00,0.00,30.03,M,10.00,M,CLR,M,M,M,M,M,M,M,M,M,M,M,M,M,M,35.24,KTMT 060555Z AUTO 19004KT 10SM CLR 04/M06 A3003 RMK AO2 T00371059 10144 20037,M
INS,2025-05-06 05:55,-115.6733,36.5872,955.00,55.00,51.60,88.28,120.00,6.00,0.00,29.85,1008.30,10.00,M,OVC,M,M,M,500.00,M,M,M,M,M,M,M,M,M,M,55.00,KINS 060555Z AUTO 12006KT 10SM OVC005 13/11 A2985 RMK AO2 OVC V BKN SLP083 60004 T01280109 10196 20126 52020 $,M
EKO,2025-05-06 05:56,-115.7860,40.8242,1367.00,45.00,23.00,41.50,300.00,7.00,0.00,29.95,1012.30,10.00,M,CLR,M,M,M,M,M,M,M,M,M,M,M,M,M,M,40.63,KEKO 060556Z AUTO 30007KT 10SM CLR 07/M05 A2995 RMK AO2 SLP123 T00721050 10172 20072 50011,M
WMC,2025-05-06 05:56,-117.8072,40.9019,1315.00,46.00,21.00,36.72,340.00,8.00,0.00,30.02,1015.00,10.00,M,CLR,M,M,M,M,M,M,M,M,M,M,M,M,M,M,41.36,KWMC 060556Z AUTO 34008KT 10SM CLR 08/M06 A3002 RMK AO2 SLP150 T00781061 10178 20078 51018,M
HND,2025-05-06 05:56,-115.1344,35.9729,742.79,56.00,54.00,92.98,190.00,9.00,0.06,29.86,1011.80,10.00,M,SCT,OVC,M,M,2800.00,8000.00,M,M,-RA,M,M,M,M,M,M,56.00,KHND 060556Z AUTO 19009KT 10SM -RA SCT028 OVC080 13/12 A2986 RMK AO2 SLP118 P0006 60016 T01330122 10150 20133 50012 $,M
TPH,2025-05-06 05:56,-117.0904,38.0505,1654.00,50.00,21.00,31.60,340.00,10.00,0.00,29.96,1010.70,10.00,M,CLR,M,M,M,M,M,M,M,M,M,M,M,M,M,M,50.00,KTPH 060556Z AUTO 34010KT 10SM CLR 10/M06 A2996 RMK AO2 SLP107 T01001061 10183 20100 51019,M
LAS,2025-05-06 05:56,-115.1634,36.0719,663.00,58.00,56.00,93.04,0.00,0.00,0.04,29.85,1009.80,9.00,M,FEW,SCT,OVC,M,900.00,3200.00,8000.00,M,-RA,M,M,M,M,M,M,58.00,KLAS 060556Z 00000KT 9SM -RA FEW009 SCT032 OVC080 14/13 A2985 RMK AO2 SLP098 SHRA OBSCURES MTNS DSNT W-N P0004 60016 T01440133 10156 20144 51016 $,M
NFL,2025-05-06 05:57,-118.7010,39.4166,1199.00,51.00,23.00,33.13,360.00,5.00,0.00,29.99,1012.50,10.00,M,FEW,M,M,M,20000.00,M,M,M,M,M,M,M,M,M,M,51.00,KNFL 060557Z 36005KT 10SM FEW200 11/M05 A2999 RMK AO2 SLP125 T01061050 10206 20106 51014,M
BVU,2025-05-06 06:15,-114.8611,35.9475,671.00,57.20,55.40,93.69,0.00,0.00,0.00,29.84,M,10.00,M,BKN,OVC,M,M,1900.00,7500.00,M,M,M,M,M,M,M,M,M,57.20,KBVU 060615Z AUTO 00000KT 10SM BKN019 OVC075 14/13 A2984 RMK AO2,M
INS,2025-05-06 06:15,-115.6733,36.5872,955.00,55.40,51.80,87.65,150.00,3.00,0.00,29.84,1008.00,10.00,M,OVC,M,M,M,400.00,M,M,M,M,M,M,M,M,M,M,55.40,KINS 060615Z AUTO 15003KT 10SM OVC004 13/11 A2984 RMK AO2 SLP080 $,M
BAM,2025-05-06 06:15,-116.8743,40.5990,1382.36,46.40,23.00,39.36,330.00,6.00,0.00,30.01,M,10.00,M,CLR,M,M,M,M,M,M,M,M,M,M,M,M,M,M,42.87,KBAM 060615Z AUTO 33006KT 10SM CLR 08/M05 A3001 RMK AO1,M
CXP,2025-05-06 06:15,-119.7326,39.1923,1431.00,46.40,21.20,36.48,0.00,0.00,0.00,30.04,M,10.00,M,CLR,M,M,M,M,M,M,M,M,M,M,M,M,M,M,46.40,KCXP 060615Z AUTO 00000KT 10SM CLR 08/M06 A3004 RMK AO2,M
RTS,2025-05-06 06:15,-119.8764,39.6682,1539.00,44.60,19.40,36.18,M,4.00,0.00,30.05,M,10.00,M,CLR,M,M,M,M,M,M,M,M,M,M,M,M,M,M,42.13,KRTS 060615Z AUTO VRB04KT 10SM CLR 07/M07 A3005 RMK AO2,M
MEV,2025-05-06 06:15,-119.7500,38.9963,1441.42,44.60,23.00,42.14,210.00,4.00,0.00,30.03,M,10.00,M,FEW,SCT,SCT,M,4100.00,5000.00,6000.00,M,M,M,M,M,M,M,M,42.13,KMEV 060615Z AUTO 21004KT 10SM FEW041 SCT050 SCT060 07/M05 A3003 RMK AO2,M
HTH,2025-05-06 06:15,-118.6315,38.5448,1282.89,53.60,26.60,34.98,260.00,6.00,0.00,30.00,M,10.00,M,FEW,M,M,M,5500.00,M,M,M,M,M,M,M,M,M,M,53.60,KHTH 060615Z AUTO 26006KT 10SM FEW055 12/M03 A3000 RMK A01,M
TMT,2025-05-06 06:15,-117.1971,39.4643,1749.34,40.30,19.00,41.96,0.00,0.00,0.00,30.03,M,10.00,M,CLR,M,M,M,M,M,M,M,M,M,M,M,M,M,M,40.30,KTMT 060615Z AUTO 00000KT 10SM CLR 05/M07 A3003 RMK AO2 T00461072,M
BVU,2025-05-06 06:35,-114.8611,35.9475,671.00,57.20,55.40,93.69,0.00,0.00,0.00,29.84,M,10.00,M,BKN,OVC,M,M,2200.00,7500.00,M,M,M,M,M,M,M,M,M,57.20,KBVU 060635Z AUTO 00000KT 10SM BKN022 OVC075 14/13 A2984 RMK AO2,M
BAM,2025-05-06 06:35,-116.8743,40.5990,1382.36,44.60,24.80,45.44,330.00,7.00,0.00,30.01,M,10.00,M,CLR,M,M,M,M,M,M,M,M,M,M,M,M,M,M,40.14,KBAM 060635Z AUTO 33007KT 10SM CLR 07/M04 A3001 RMK AO1,M
CXP,2025-05-06 06:35,-119.7326,39.1923,1431.00,46.40,21.20,36.48,0.00,0.00,0.00,30.04,M,10.00,M,CLR,M,M,M,M,M,M,M,M,M,M,M,M,M,M,46.40,KCXP 060635Z AUTO 00000KT 10SM CLR 08/M06 A3004 RMK AO2,M
RTS,2025-05-06 06:35,-119.8764,39.6682,1539.00,44.60,17.60,33.49,260.00,4.00,0.00,30.05,M,10.00,M,CLR,M,M,M,M,M,M,M,M,M,M,M,M,M,M,42.13,KRTS 060635Z AUTO 26004KT 10SM CLR 07/M08 A3005 RMK AO2,M
MEV,2025-05-06 06:35,-119.7500,38.9963,1441.42,42.80,24.80,48.67,0.00,0.00,0.00,30.02,M,10.00,M,FEW,M,M,M,5000.00,M,M,M,M,M,M,M,M,M,M,42.80,KMEV 060635Z AUTO 00000KT 10SM FEW050 06/M04 A3002 RMK AO2,M
HTH,2025-05-06 06:35,-118.6315,38.5448,1282.89,51.80,32.00,46.59,290.00,5.00,0.00,30.00,M,10.00,M,CLR,M,M,M,M,M,M,M,M,M,M,M,M,M,M,51.80,KHTH 060635Z AUTO 29005KT 10SM CLR 11/M00 A3000 RMK A01,M
TMT,2025-05-06 06:35,-117.1971,39.4643,1749.34,40.50,18.00,39.88,10.00,3.00,0.00,30.03,M,10.00,M,CLR,M,M,M,M,M,M,M,M,M,M,M,M,M,M,38.41,KTMT 060635Z AUTO 01003KT 10SM CLR 05/M08 A3003 RMK AO2 T00471078,M
RTS,2025-05-06 06:45,-119.8764,39.6682,1539.00,42.80,19.40,38.75,0.00,0.00,0.00,30.06,M,10.00,M,M,M,M,M,M,M,M,M,M,M,M,M,M,M,M,42.80,KRTS 060645Z AUTO 00000KT 10SM 06/M07 A3006 RMK AO2,M
MEV,2025-05-06 06:45,-119.7500,38.9963,1441.42,42.80,24.80,48.67,0.00,0.00,0.00,30.02,M,10.00,M,SCT,M,M,M,5000.00,M,M,M,M,M,M,M,M,M,M,42.80,KMEV 060645Z AUTO 00000KT 10SM SCT050 06/M04 A3002 RMK AO2,M
LSV,2025-05-06 06:47,-115.0343,36.2362,570.00,59.00,55.40,87.83,0.00,0.00,0.00,29.80,1008.00,10.00,M,FEW,SCT,OVC,M,2600.00,1000.00,8000.00,M,-RA,M,M,M,M,M,M,59.00,KLSV 060647Z 00000KT 10SM -RA FEW026 SCT010 OVC080 15/13 A2980 RMK AO2A RAB0555E16RAB18E39RAB47 SLP080 $,M
P68,2025-05-06 06:53,-116.0056,39.6014,1993.00,37.00,21.00,51.99,0.00,0.00,0.00,29.98,1012.10,M,M,M,M,M,M,M,M,M,M,M,M,M,M,M,M,M,37.00,KP68 060653Z AUTO 00000KT 03/M06 A2998 RMK AO1 SLP121 T00281061,M
DRA,2025-05-06 06:53,-116.0278,36.6206,1009.00,55.00,50.00,83.20,90.00,4.00,0.00,29.84,1008.00,10.00,M,CLR,M,M,M,M,M,M,M,M,M,M,M,M,M,M,55.00,KDRA 060653Z AUTO 09004KT 10SM CLR 13/10 A2984 RMK AO2 SLP080 T01280100,M
ELY,2025-05-06 06:53,-114.8453,39.2950,1909.00,43.00,21.00,41.17,350.00,12.00,0.00,29.94,1008.40,10.00,M,OVC,M,M,M,7500.00,M,M,M,M,M,M,M,M,M,M,36.00,KELY 060653Z AUTO 35012KT 10SM OVC075 06/M06 A2994 RMK AO2 SLP084 T00611061,M
LOL,2025-05-06 06:53,-118.5701,40.0684,1192.43,52.00,17.00,24.73,20.00,13.00,0.00,30.01,1014.40,10.00,20.00,CLR,M,M,M,M,M,M,M,M,M,M,M,26.00,10.00,2025-05-06 06:15,52.00,KLOL 060653Z AUTO 02013G20KT 10SM CLR 11/M08 A3001 RMK AO2 PK WND 01026/0615 SLP144 T01111083,M
VGT,2025-05-06 06:53,-115.1933,36.2111,667.00,57.00,55.00,93.01,110.00,3.00,0.05,29.83,1010.80,10.00,M,OVC,M,M,M,8000.00,M,M,M,M,M,M,M,M,M,M,57.00,KVGT 060653Z AUTO 11003KT 10SM OVC080 14/13 A2983 RMK AO2 RAE46 SLP108 P0005 T01390128,M
BVU,2025-05-06 06:55,-114.8611,35.9475,671.00,57.20,55.40,93.69,0.00,0.00,0.00,29.83,M,10.00,M,SCT,OVC,M,M,2300.00,8000.00,M,M,M,M,M,M,M,M,M,57.20,KBVU 060655Z AUTO 00000KT 10SM SCT023 OVC080 14/13 A2983 RMK AO2,M
RNO,2025-05-06 06:55,-119.7711,39.4839,1341.00,51.00,25.00,36.03,260.00,3.00,0.00,30.03,1014.20,10.00,M,FEW,M,M,M,15000.00,M,M,M,M,M,M,M,M,M,M,51.00,KRNO 060655Z 26003KT 10SM FEW150 11/M04 A3003 RMK AO2 SLP142 T01061039,M
BAM,2025-05-06 06:55,-116.8743,40.5990,1382.36,44.60,24.80,45.44,320.00,7.00,0.00,30.01,M,10.00,M,CLR,M,M,M,M,M,M,M,M,M,M,M,M,M,M,40.14,KBAM 060655Z AUTO 32007KT 10SM CLR 07/M04 A3001 RMK AO1,M
CXP,2025-05-06 06:55,-119.7326,39.1923,1431.00,44.60,23.00,42.14,0.00,0.00,0.00,30.04,M,10.00,M,CLR,M,M,M,M,M,M,M,M,M,M,M,M,M,M,44.60,KCXP 060655Z AUTO 00000KT 10SM CLR 07/M05 A3004 RMK AO2,M
HTH,2025-05-06 06:55,-118.6315,38.5448,1282.89,51.80,32.00,46.59,340.00,8.00,0.00,30.00,M,10.00,M,CLR,M,M,M,M,M,M,M,M,M,M,M,M,M,M,51.80,KHTH 060655Z AUTO 34008KT 10SM CLR 11/M00 A3000 RMK A01,M
TMT,2025-05-06 06:55,-117.1971,39.4643,1749.34,35.00,19.40,52.56,0.00,0.00,0.00,30.04,M,10.00,M,CLR,M,M,M,M,M,M,M,M,M,M,M,M,M,M,35.00,KTMT 060655Z AUTO 00000KT 10SM CLR 02/M07 A3004 RMK AO2 T00171070,M
INS,2025-05-06 06:55,-115.6733,36.5872,955.00,55.00,52.50,91.26,0.00,0.00,0.00,29.85,1008.10,10.00,M,OVC,M,M,M,400.00,M,M,M,M,M,M,M,M,M,M,55.00,KINS 060655Z AUTO 00000KT 10SM OVC004 13/11 A2985 RMK AO2 SLP081 T01280114 $,M
LSV,2025-05-06 06:55,-115.0343,36.2362,570.00,58.60,56.00,91.06,0.00,0.00,0.06,29.80,1008.00,10.00,M,SCT,OVC,M,M,2600.00,8000.00,M,M,-RA,M,M,M,M,M,M,58.60,KLSV 060655Z 00000KT 10SM -RA SCT026 OVC080 15/13 A2980 RMK AO2A RAE16RAB18E39RAB47 SLP080 P0006 T01480133 $,M
EKO,2025-05-06 06:56,-115.7860,40.8242,1367.00,45.00,25.00,45.12,310.00,9.00,0.00,29.94,1011.70,10.00,M,CLR,M,M,M,M,M,M,M,M,M,M,M,M,M,M,39.68,KEKO 060656Z AUTO 31009KT 10SM CLR 07/M04 A2994 RMK AO2 SLP117 T00721039,M
WMC,2025-05-06 06:56,-117.8072,40.9019,1315.00,37.00,22.00,54.23,0.00,0.00,0.00,30.03,1015.90,10.00,M,CLR,M,M,M,M,M,M,M,M,M,M,M,M,M,M,37.00,KWMC 060656Z AUTO 00000KT 10SM CLR 03/M06 A3003 RMK AO2 SLP159 T00281056,M
HND,2025-05-06 06:56,-115.1344,35.9729,742.79,56.00,54.00,92.98,200.00,9.00,0.06,29.85,1011.30,10.00,M,OVC,M,M,M,7500.00,M,M,M,RA,M,M,M,M,M,M,56.00,KHND 060656Z AUTO 20009KT 10SM RA OVC075 13/12 A2985 RMK AO2 SLP113 P0006 T01330122 402000133 $,M
TPH,2025-05-06 06:56,-117.0904,38.0505,1654.00,50.00,15.00,24.41,340.00,11.00,0.00,29.96,1010.30,10.00,M,CLR,M,M,M,M,M,M,M,M,M,M,M,M,M,M,50.00,KTPH 060656Z AUTO 34011KT 10SM CLR 10/M09 A2996 RMK AO2 SLP103 T01001094,M
LAS,2025-05-06 06:56,-115.1634,36.0719,663.00,58.00,55.00,89.72,M,3.00,0.07,29.84,1009.30,7.00,M,FEW,FEW,OVC,M,0.00,1200.00,6000.00,M,-RA VCFG,M,M,M,M,M,M,58.00,KLAS 060656Z VRB03KT 7SM -RA VCFG FEW000 FEW012 OVC060 14/13 A2984 RMK AO2 SLP093 VIS LWR NW-NE BR FEW000 FOGBANK VC NW-NE P0007 T01440128 $,M
NFL,2025-05-06 06:57,-118.7010,39.4166,1199.00,47.00,25.00,41.83,360.00,7.00,0.00,29.99,1012.70,10.00,M,CLR,M,M,M,M,M,M,M,M,M,M,M,M,M,M,43.06,KNFL 060657Z AUTO 36007KT 10SM CLR 08/M04 A2999 RMK AO2 SLP127 T00831039,M
LSV,2025-05-06 07:01,-115.0343,36.2362,570.00,59.00,55.40,87.83,0.00,0.00,0.00,29.80,1008.00,10.00,M,SCT,OVC,M,M,2600.00,8000.00,M,M,M,M,M,M,M,M,M,59.00,KLSV 060701Z 00000KT 10SM SCT026 OVC080 15/13 A2980 RMK AO2A RAE0657DZB0657E01 SLP080 $,M
BVU,2025-05-06 07:15,-114.8611,35.9475,671.00,57.20,55.40,93.69,170.00,3.00,0.00,29.82,M,10.00,M,FEW,SCT,BKN,M,2200.00,5500.00,8000.00,M,-RA,M,M,M,M,M,M,57.20,KBVU 060715Z AUTO 17003KT 10SM -RA FEW022 SCT055 BKN080 14/13 A2982 RMK AO2,M
BAM,2025-05-06 07:15,-116.8743,40.5990,1382.36,44.60,26.60,48.96,320.00,8.00,0.00,30.01,M,10.00,M,CLR,M,M,M,M,M,M,M,M,M,M,M,M,M,M,39.63,KBAM 060715Z AUTO 32008KT 10SM CLR 07/M03 A3001 RMK AO1,M
CXP,2025-05-06 07:15,-119.7326,39.1923,1431.00,44.60,21.20,39.06,90.00,4.00,0.00,30.04,M,10.00,M,CLR,M,M,M,M,M,M,M,M,M,M,M,M,M,M,42.13,KCXP 060715Z AUTO 09004KT 10SM CLR 07/M06 A3004 RMK AO2,M
RTS,2025-05-06 07:15,-119.8764,39.6682,1539.00,42.80,17.60,35.87,0.00,0.00,0.00,30.06,M,10.00,M,M,M,M,M,M,M,M,M,M,M,M,M,M,M,M,42.80,KRTS 060715Z AUTO 00000KT 10SM 06/M08 A3006 RMK AO2,M
MEV,2025-05-06 07:15,-119.7500,38.9963,1441.42,37.40,24.80,60.04,0.00,0.00,0.00,30.03,M,10.00,M,FEW,FEW,FEW,M,4300.00,5000.00,6500.00,M,M,M,M,M,M,M,M,37.40,KMEV 060715Z AUTO 00000KT 10SM FEW043 FEW050 FEW065 03/M04 A3003 RMK AO2,M
HTH,2025-05-06 07:15,-118.6315,38.5448,1282.89,50.00,33.80,53.54,0.00,0.00,0.00,30.00,M,10.00,M,CLR,M,M,M,M,M,M,M,M,M,M,M,M,M,M,50.00,KHTH 060715Z AUTO 00000KT 10SM CLR 10/01 A3000 RMK A01,M
TMT,2025-05-06 07:15,-117.1971,39.4643,1749.34,38.50,19.00,45.01,0.00,0.00,0.00,30.04,M,10.00,M,CLR,M,M,M,M,M,M,M,M,M,M,M,M,M,M,38.50,KTMT 060715Z AUTO 00000KT 10SM CLR 04/M07 A3004 RMK AO2 T00361072,M
LSV,2025-05-06 07:26,-115.0343,36.2362,570.00,59.00,55.40,87.83,0.00,0.00,0.00,29.80,1007.80,10.00,M,SCT,OVC,M,M,2700.00,11000.00,M,M,-RA,M,M,M,M,M,M,59.00,KLSV 060726Z 00000KT 10SM -RA SCT027 OVC110 15/13 A2980 RMK AO2A RAB0655E0657DZB0657E01RAB26 SLP078 $,M
BVU,2025-05-06 07:35,-114.8611,35.9475,671.00,57.20,55.40,93.69,220.00,3.00,0.00,29.82,M,10.00,M,SCT,BKN,OVC,M,4900.00,6000.00,9000.00,M,M,M,M,M,M,M,M,57.20,KBVU 060735Z AUTO 22003KT 10SM SCT049 BKN060 OVC090 14/13 A2982 RMK AO2,M
BAM,2025-05-06 07:35,-116.8743,40.5990,1382.36,44.60,26.60,48.96,320.00,8.00,0.00,30.01,M,10.00,M,CLR,M,M,M,M,M,M,M,M,M,M,M,M,M,M,39.63,KBAM 060735Z AUTO 32008KT 10SM CLR 07/M03 A3001 RMK AO1,M
CXP,2025-05-06 07:35,-119.7326,39.1923,1431.00,42.80,21.20,41.84,0.00,0.00,0.00,30.04,M,10.00,M,CLR,M,M,M,M,M,M,M,M,M,M,M,M,M,M,42.80,KCXP 060735Z AUTO 00000KT 10SM CLR 06/M06 A3004 RMK AO2,M
RTS,2025-05-06 07:35,-119.8764,39.6682,1539.00,42.80,17.60,35.87,310.00,4.00,0.00,30.06,M,10.00,M,M,M,M,M,M,M,M,M,M,M,M,M,M,M,M,40.03,KRTS 060735Z AUTO 31004KT 10SM 06/M08 A3006 RMK AO2,M
MEV,2025-05-06 07:35,-119.7500,38.9963,1441.42,37.40,24.80,60.04,50.00,4.00,0.00,30.03,M,10.00,M,FEW,SCT,SCT,M,4500.00,5500.00,7000.00,M,M,M,M,M,M,M,M,33.73,KMEV 060735Z AUTO 05004KT 10SM FEW045 SCT055 SCT070 03/M04 A3003 RMK AO2,M
HTH,2025-05-06 07:35,-118.6315,38.5448,1282.89,51.80,24.80,34.69,M,4.00,0.00,30.00,M,10.00,M,CLR,M,M,M,M,M,M,M,M,M,M,M,M,M,M,51.80,KHTH 060735Z AUTO VRB04KT 10SM CLR 11/M04 A3000 RMK A01,M
TMT,2025-05-06 07:35,-117.1971,39.4643,1749.34,33.30,22.00,62.83,0.00,0.00,0.00,30.04,M,10.00,M,CLR,M,M,M,M,M,M,M,M,M,M,M,M,M,M,33.30,KTMT 060735Z AUTO 00000KT 10SM CLR 01/M06 A3004 RMK AO2 T00071056,M
LSV,2025-05-06 07:40,-115.0343,36.2362,570.00,59.00,55.40,87.83,0.00,0.00,0.00,29.79,1007.50,10.00,M,OVC,M,M,M,10000.00,M,M,M,M,M,M,M,M,M,M,59.00,KLSV 060740Z 00000KT 10SM OVC100 15/13 A2979 RMK AO2A RAE0657DZB0657E01RAB26E40 SLP075 $,M
P68,2025-05-06 07:53,-116.0056,39.6014,1993.00,32.00,21.00,63.45,180.00,4.00,0.00,29.97,1012.10,M,M,M,M,M,M,M,M,M,M,M,M,M,M,M,M,M,27.42,KP68 060753Z AUTO 18004KT 00/M06 A2997 RMK AO1 SLP121 T00001061 401560000,M
DRA,2025-05-06 07:53,-116.0278,36.6206,1009.00,52.00,49.00,89.46,0.00,0.00,0.00,29.85,1008.00,10.00,M,CLR,M,M,M,M,M,M,M,M,M,M,M,M,M,M,52.00,KDRA 060753Z AUTO 00000KT 10SM CLR 11/09 A2985 RMK AO2 SLP080 T01110094 402330111,M
ELY,2025-05-06 07:53,-114.8453,39.2950,1909.00,40.00,22.00,48.22,330.00,10.00,0.00,29.93,1008.50,10.00,M,SCT,M,M,M,7500.00,M,M,M,M,M,M,M,M,M,M,33.00,KELY 060753Z AUTO 33010KT 10SM SCT075 04/M06 A2993 RMK AO2 SLP085 T00441056 401610044,M
VGT,2025-05-06 07:53,-115.1933,36.2111,667.00,58.00,55.00,89.72,50.00,3.00,T,29.82,1010.40,10.00,M,BKN,OVC,M,M,10000.00,11000.00,M,M,M,M,M,M,M,M,M,58.00,KVGT 060753Z AUTO 05003KT 10SM BKN100 OVC110 14/13 A2982 RMK AO2 RAB11E21 SLP104 P0000 T01440128 402060139,M
LOL,2025-05-06 07:53,-118.5701,40.0684,1192.43,50.00,18.00,27.80,10.00,9.00,0.00,30.02,1014.70,10.00,M,CLR,M,M,M,M,M,M,M,M,M,M,M,M,M,M,50.00,KLOL 060753Z AUTO 01009KT 10SM CLR 10/M08 A3002 RMK AO2 SLP147 T01001078 402000094,M
BVU,2025-05-06 07:55,-114.8611,35.9475,671.00,57.20,53.60,87.74,0.00,0.00,0.00,29.82,M,10.00,M,SCT,SCT,OVC,M,1400.00,4700.00,8500.00,M,M,M,M,M,M,M,M,57.20,KBVU 060755Z AUTO 00000KT 10SM SCT014 SCT047 OVC085 14/12 A2982 RMK AO2,M
RNO,2025-05-06 07:55,-119.7711,39.4839,1341.00,49.00,24.00,37.22,0.00,0.00,0.00,30.03,1014.40,10.00,M,FEW,M,M,M,15000.00,M,M,M,M,M,M,M,M,M,M,49.00,KRNO 060755Z 00000KT 10SM FEW150 09/M04 A3003 RMK AO2 SLP144 T00941044 401890061,M
BAM,2025-05-06 07:55,-116.8743,40.5990,1382.36,42.80,26.60,52.45,330.00,9.00,0.00,30.01,M,10.00,M,CLR,M,M,M,M,M,M,M,M,M,M,M,M,M,M,36.94,KBAM 060755Z AUTO 33009KT 10SM CLR 06/M03 A3001 RMK AO1,M
CXP,2025-05-06 07:55,-119.7326,39.1923,1431.00,42.80,23.00,45.14,0.00,0.00,0.00,30.04,M,10.00,M,CLR,M,M,M,M,M,M,M,M,M,M,M,M,M,M,42.80,KCXP 060755Z AUTO 00000KT 10SM CLR 06/M05 A3004 RMK AO2,M
RTS,2025-05-06 07:55,-119.8764,39.6682,1539.00,41.00,15.80,35.57,0.00,0.00,0.00,30.06,M,10.00,M,CLR,M,M,M,M,M,M,M,M,M,M,M,M,M,M,41.00,KRTS 060755Z AUTO 00000KT 10SM CLR 05/M09 A3006 RMK AO2,M
MEV,2025-05-06 07:55,-119.7500,38.9963,1441.42,37.40,24.80,60.04,0.00,0.00,0.00,30.03,M,10.00,M,FEW,FEW,SCT,M,4100.00,4800.00,5500.00,M,M,M,M,M,M,M,M,37.40,KMEV 060755Z AUTO 00000KT 10SM FEW041 FEW048 SCT055 03/M04 A3003 RMK AO2,M
HTH,2025-05-06 07:55,-118.6315,38.5448,1282.89,51.80,23.00,32.17,320.00,5.00,0.00,30.00,M,10.00,M,CLR,M,M,M,M,M,M,M,M,M,M,M,M,M,M,51.80,KHTH 060755Z AUTO 32005KT 10SM CLR 11/M05 A3000 RMK A01,M
TMT,2025-05-06 07:55,-117.1971,39.4643,1749.34,37.00,19.60,48.98,0.00,0.00,0.00,30.03,M,10.00,M,CLR,M,M,M,M,M,M,M,M,M,M,M,M,M,M,37.00,KTMT 060755Z AUTO 00000KT 10SM CLR 03/M07 A3003 RMK AO2 T00281069 401460000,M
INS,2025-05-06 07:55,-115.6733,36.5872,955.00,53.60,51.30,91.88,300.00,3.00,0.00,29.85,1008.10,7.00,M,BKN,OVC,M,M,300.00,6000.00,M,M,M,M,M,M,M,M,M,53.60,KINS 060755Z AUTO 30003KT 7SM BKN003 OVC060 12/11 A2985 RMK AO2 SLP081 T01200107 402030119 $,M
LSV,2025-05-06 07:55,-115.0343,36.2362,570.00,59.00,55.60,88.47,0.00,0.00,0.01,29.79,1007.50,10.00,M,SCT,OVC,M,M,9000.00,10000.00,M,M,M,M,M,M,M,M,M,59.00,KLSV 060755Z 00000KT 10SM SCT090 OVC100 15/13 A2979 RMK AO2A RAB0655E0657DZB0657E01RAB26E40 SLP075 P0001 T01510131 402080147 $,M
EKO,2025-05-06 07:56,-115.7860,40.8242,1367.00,42.00,27.00,54.99,250.00,3.00,0.00,29.94,1012.10,10.00,M,SCT,OVC,M,M,6000.00,8000.00,M,M,M,M,M,M,M,M,M,40.12,KEKO 060756Z AUTO 25003KT 10SM SCT060 OVC080 06/M03 A2994 RMK AO2 SLP121 T00561028 401720056,M
WMC,2025-05-06 07:56,-117.8072,40.9019,1315.00,37.00,23.00,56.57,350.00,5.00,0.00,30.02,1015.40,10.00,M,CLR,M,M,M,M,M,M,M,M,M,M,M,M,M,M,32.33,KWMC 060756Z AUTO 35005KT 10SM CLR 03/M05 A3002 RMK AO2 SLP154 T00281050 401780011,M
HND,2025-05-06 07:56,-115.1344,35.9729,742.79,56.00,54.00,92.98,160.00,3.00,T,29.85,1011.20,10.00,M,BKN,OVC,M,M,9500.00,11000.00,M,M,M,M,M,M,M,M,M,56.00,KHND 060756Z AUTO 16003KT 10SM BKN095 OVC110 13/12 A2985 RMK AO2 RAE50 SLP112 P0000 T01330122 $,M
TPH,2025-05-06 07:56,-117.0904,38.0505,1654.00,48.00,14.00,25.18,360.00,9.00,0.00,29.96,1010.40,10.00,M,CLR,M,M,M,M,M,M,M,M,M,M,M,M,M,M,43.41,KTPH 060756Z AUTO 36009KT 10SM CLR 09/M10 A2996 RMK AO2 SLP104 T00891100 401890089,M
LAS,2025-05-06 07:56,-115.1634,36.0719,663.00,58.00,55.00,89.72,0.00,0.00,T,29.83,1008.90,9.00,M,FEW,FEW,OVC,M,200.00,5000.00,10000.00,M,VCFG,M,M,M,M,M,M,58.00,KLAS 060756Z 00000KT 9SM VCFG FEW002 FEW050 OVC100 14/13 A2983 RMK AO2 RAE02 SLP089 VIS LWR NW-NE BR FEW002 FOGBANK VC NW-NE P0000 T01440128 402000139 $,M
NFL,2025-05-06 07:57,-118.7010,39.4166,1199.00,49.00,23.00,35.69,360.00,8.00,0.00,30.00,1012.80,10.00,M,CLR,M,M,M,M,M,M,M,M,M,M,M,M,M,M,45.05,KNFL 060757Z AUTO 36008KT 10SM CLR 09/M05 A3000 RMK AO2 SLP128 T00941050 402060072,M
VGT,2025-05-06 08:02,-115.1933,36.2111,667.00,58.00,55.00,89.72,60.00,3.00,0.00,29.82,M,10.00,M,SCT,BKN,OVC,M,900.00,9500.00,11000.00,M,M,M,M,M,M,M,M,58.00,KVGT 060802Z AUTO 06003KT 10SM SCT009 BKN095 OVC110 14/13 A2982 RMK AO2 T01440128,M
VGT,2025-05-06 08:11,-115.1933,36.2111,667.00,58.00,55.00,89.72,50.00,3.00,0.00,29.82,M,9.00,M,BKN,OVC,M,M,900.00,9500.00,M,M,M,M,M,M,M,M,M,58.00,KVGT 060811Z AUTO 05003KT 9SM BKN009 OVC095 14/13 A2982 RMK AO2 T01440128,M
BAM,2025-05-06 08:15,-116.8743,40.5990,1382.36,42.80,28.40,56.48,270.00,5.00,0.00,30.01,M,10.00,M,CLR,M,M,M,M,M,M,M,M,M,M,M,M,M,M,39.22,KBAM 060815Z AUTO 27005KT 10SM CLR 06/M02 A3001 RMK AO1,M
CXP,2025-05-06 08:15,-119.7326,39.1923,1431.00,42.80,23.00,45.14,0.00,0.00,0.00,30.04,M,10.00,M,CLR,M,M,M,M,M,M,M,M,M,M,M,M,M,M,42.80,KCXP 060815Z AUTO 00000KT 10SM CLR 06/M05 A3004 RMK AO2,M
RTS,2025-05-06 08:15,-119.8764,39.6682,1539.00,41.00,17.60,38.45,0.00,0.00,0.00,30.05,M,10.00,M,M,M,M,M,M,M,M,M,M,M,M,M,M,M,M,41.00,KRTS 060815Z AUTO 00000KT 10SM 05/M08 A3005 RMK AO2,M
MEV,2025-05-06 08:15,-119.7500,38.9963,1441.42,35.60,24.80,64.46,0.00,0.00,0.00,30.03,M,10.00,M,FEW,FEW,SCT,M,2800.00,3300.00,4000.00,M,M,M,M,M,M,M,M,35.60,KMEV 060815Z AUTO 00000KT 10SM FEW028 FEW033 SCT040 02/M04 A3003 RMK AO2,M
HTH,2025-05-06 08:15,-118.6315,38.5448,1282.89,50.00,30.20,46.31,250.00,4.00,0.00,29.99,M,10.00,M,CLR,M,M,M,M,M,M,M,M,M,M,M,M,M,M,50.00,KHTH 060815Z AUTO 25004KT 10SM CLR 10/M01 A2999 RMK A01,M
TMT,2025-05-06 08:15,-117.1971,39.4643,1749.34,34.70,20.50,55.75,80.00,3.00,0.00,30.03,M,10.00,M,CLR,M,M,M,M,M,M,M,M,M,M,M,M,M,M,31.78,KTMT 060815Z AUTO 08003KT 10SM CLR 02/M06 A3003 RMK AO2 T00151064,M
BVU,2025-05-06 08:15,-114.8611,35.9475,671.00,57.20,55.40,93.69,0.00,0.00,0.00,29.83,M,10.00,M,SCT,BKN,OVC,M,1300.00,2700.00,8500.00,M,M,M,M,M,M,M,M,57.20,KBVU 060815Z AUTO 00000KT 10SM SCT013 BKN027 OVC085 14/13 A2983 RMK AO2,M
INS,2025-05-06 08:20,-115.6733,36.5872,955.00,53.60,51.80,93.60,350.00,3.00,0.00,29.85,1008.10,7.00,M,OVC,M,M,M,600.00,M,M,M,M,M,M,M,M,M,M,53.60,KINS 060820Z AUTO 35003KT 7SM OVC006 12/11 A2985 RMK AO2 SLP081 $,M
INS,2025-05-06 08:30,-115.6733,36.5872,955.00,53.60,51.80,93.60,0.00,0.00,0.00,29.85,1008.10,9.00,M,FEW,BKN,BKN,OVC,400.00,800.00,6000.00,7000.00,M,M,M,M,M,M,M,53.60,KINS 060830Z AUTO 00000KT 9SM FEW004 BKN008 BKN060 OVC070 12/11 A2985 RMK AO2 SLP081 $,M
HTH,2025-05-06 08:30,-118.6315,38.5448,1282.89,48.20,30.20,49.53,230.00,6.00,0.00,29.99,M,10.00,M,CLR,M,M,M,M,M,M,M,M,M,M,M,M,M,M,45.04,KHTH 060830Z AUTO 23006KT 10SM CLR 09/M01 A2999 RMK A01,M
BVU,2025-05-06 08:35,-114.8611,35.9475,671.00,57.20,55.40,93.69,0.00,0.00,0.00,29.82,M,10.00,M,FEW,BKN,OVC,M,1300.00,2700.00,3200.00,M,-RA,M,M,M,M,M,M,57.20,KBVU 060835Z AUTO 00000KT 10SM -RA FEW013 BKN027 OVC032 14/13 A2982 RMK AO2,M
BAM,2025-05-06 08:35,-116.8743,40.5990,1382.36,42.80,28.40,56.48,280.00,7.00,0.00,30.01,M,10.00,M,CLR,M,M,M,M,M,M,M,M,M,M,M,M,M,M,37.94,KBAM 060835Z AUTO 28007KT 10SM CLR 06/M02 A3001 RMK AO1,M
CXP,2025-05-06 08:35,-119.7326,39.1923,1431.00,41.00,23.00,48.39,0.00,0.00,0.00,30.04,M,10.00,M,CLR,M,M,M,M,M,M,M,M,M,M,M,M,M,M,41.00,KCXP 060835Z AUTO 00000KT 10SM CLR 05/M05 A3004 RMK AO2,M
RTS,2025-05-06 08:35,-119.8764,39.6682,1539.00,41.00,17.60,38.45,0.00,0.00,0.00,30.05,M,10.00,M,CLR,M,M,M,M,M,M,M,M,M,M,M,M,M,M,41.00,KRTS 060835Z AUTO 00000KT 10SM CLR 05/M08 A3005 RMK AO2,M
MEV,2025-05-06 08:35,-119.7500,38.9963,1441.42,33.80,26.60,74.63,0.00,0.00,0.00,30.03,M,10.00,M,FEW,FEW,SCT,M,3000.00,4200.00,6000.00,M,M,M,M,M,M,M,M,33.80,KMEV 060835Z AUTO 00000KT 10SM FEW030 FEW042 SCT060 01/M03 A3003 RMK AO2,M
TMT,2025-05-06 08:35,-117.1971,39.4643,1749.34,31.50,22.00,67.54,0.00,0.00,0.00,30.03,M,10.00,M,CLR,M,M,M,M,M,M,M,M,M,M,M,M,M,M,31.50,KTMT 060835Z AUTO 00000KT 10SM CLR 00/M06 A3003 RMK AO2 T10031056,M
INS,2025-05-06 08:40,-115.6733,36.5872,955.00,53.60,51.80,93.60,280.00,3.00,0.00,29.84,1007.80,10.00,M,SCT,BKN,OVC,M,800.00,6000.00,7500.00,M,M,M,M,M,M,M,M,53.60,KINS 060840Z AUTO 28003KT 10SM SCT008 BKN060 OVC075 12/11 A2984 RMK AO2 SLP078 $,M
P68,2025-05-06 08:53,-116.0056,39.6014,1993.00,29.00,23.00,77.98,0.00,0.00,0.00,29.97,1011.90,M,M,M,M,M,M,M,M,M,M,M,M,M,M,M,M,M,29.00,KP68 060853Z AUTO 00000KT M02/M05 A2997 RMK AO1 SLP119 T10171050 56005,M
DRA,2025-05-06 08:53,-116.0278,36.6206,1009.00,52.00,49.00,89.46,150.00,4.00,0.00,29.84,1007.60,10.00,M,CLR,M,M,M,M,M,M,M,M,M,M,M,M,M,M,52.00,KDRA 060853Z AUTO 15004KT 10SM CLR 11/09 A2984 RMK AO2 SLP076 T01110094 50002,M
ELY,2025-05-06 08:53,-114.8453,39.2950,1909.00,34.00,19.00,53.77,280.00,10.00,0.00,29.93,1009.10,10.00,M,CLR,M,M,M,M,M,M,M,M,M,M,M,M,M,M,25.48,KELY 060853Z AUTO 28010KT 10SM CLR 01/M07 A2993 RMK AO2 SLP091 T00111072 58001,M
VGT,2025-05-06 08:53,-115.1933,36.2111,667.00,58.00,55.00,89.72,10.00,3.00,0.00,29.82,1010.40,7.00,M,OVC,M,M,M,700.00,M,M,M,M,M,M,M,M,M,M,58.00,KVGT 060853Z AUTO 01003KT 7SM OVC007 14/13 A2982 RMK AO2 SLP104 60005 T01440128 56008,M
LOL,2025-05-06 08:53,-118.5701,40.0684,1192.43,49.00,21.00,32.80,20.00,12.00,0.00,30.01,1014.30,10.00,17.00,CLR,M,M,M,M,M,M,M,M,M,M,M,M,M,M,43.64,KLOL 060853Z AUTO 02012G17KT 10SM CLR 09/M06 A3001 RMK AO2 SLP143 T00941061 50004,M
BAM,2025-05-06 08:55,-116.8743,40.5990,1382.36,42.80,30.20,60.79,290.00,9.00,0.00,30.01,M,10.00,M,SCT,M,M,M,7500.00,M,M,M,M,M,M,M,M,M,M,36.94,KBAM 060855Z AUTO 29009KT 10SM SCT075 06/M01 A3001 RMK AO1,M
CXP,2025-05-06 08:55,-119.7326,39.1923,1431.00,42.80,23.00,45.14,160.00,4.00,0.00,30.04,M,10.00,M,CLR,M,M,M,M,M,M,M,M,M,M,M,M,M,M,40.03,KCXP 060855Z AUTO 16004KT 10SM CLR 06/M05 A3004 RMK AO2,M
RTS,2025-05-06 08:55,-119.8764,39.6682,1539.00,37.40,15.80,40.93,20.00,4.00,0.00,30.05,M,10.00,M,M,M,M,M,M,M,M,M,M,M,M,M,M,M,M,33.73,KRTS 060855Z AUTO 02004KT 10SM 03/M09 A3005 RMK AO2,M
MEV,2025-05-06 08:55,-119.7500,38.9963,1441.42,33.80,24.80,69.25,0.00,0.00,0.00,30.03,M,10.00,M,FEW,SCT,M,M,4000.00,6000.00,M,M,M,M,M,M,M,M,M,33.80,KMEV 060855Z AUTO 00000KT 10SM FEW040 SCT060 01/M04 A3003 RMK AO2,M
HTH,2025-05-06 08:55,-118.6315,38.5448,1282.89,50.00,28.40,43.03,340.00,5.00,0.00,29.99,M,10.00,M,CLR,M,M,M,M,M,M,M,M,M,M,M,M,M,M,50.00,KHTH 060855Z AUTO 34005KT 10SM CLR 10/M02 A2999 RMK A01,M
TMT,2025-05-06 08:55,-117.1971,39.4643,1749.34,31.30,23.00,71.02,160.00,3.00,0.00,30.03,M,10.00,M,CLR,M,M,M,M,M,M,M,M,M,M,M,M,M,M,27.89,KTMT 060855Z AUTO 16003KT 10SM CLR 00/M05 A3003 RMK AO2 T10041051,M
BVU,2025-05-06 08:55,-114.8611,35.9475,671.00,57.20,55.40,93.69,100.00,4.00,0.00,29.82,M,10.00,M,BKN,BKN,OVC,M,3100.00,4900.00,8500.00,M,-RA,M,M,M,M,M,M,57.20,KBVU 060855Z AUTO 10004KT 10SM -RA BKN031 BKN049 OVC085 14/13 A2982 RMK AO2,M
RNO,2025-05-06 08:55,-119.7711,39.4839,1341.00,45.00,28.00,51.08,200.00,3.00,0.00,30.03,1014.20,10.00,M,CLR,M,M,M,M,M,M,M,M,M,M,M,M,M,M,43.55,KRNO 060855Z 20003KT 10SM CLR 07/M02 A3003 RMK AO2 SLP142 T00721022 50001,M
INS,2025-05-06 08:55,-115.6733,36.5872,955.00,53.40,51.00,91.54,0.00,0.00,0.00,29.84,1007.60,10.00,M,FEW,BKN,OVC,M,800.00,6000.00,8000.00,M,M,M,M,M,M,M,M,53.40,KINS 060855Z AUTO 00000KT 10SM FEW008 BKN060 OVC080 12/11 A2984 RMK AO2 SLP076 T01190105 58003 $,M
LSV,2025-05-06 08:55,-115.0343,36.2362,570.00,59.00,55.20,87.19,30.00,5.00,0.00,29.79,1007.50,10.00,M,BKN,BKN,M,M,9000.00,12000.00,M,M,M,M,M,M,M,M,M,59.00,KLSV 060855Z 03005KT 10SM BKN090 BKN120 15/13 A2979 RMK AO2A SLP075 60007 T01510129 57008 $,M
TPH,2025-05-06 08:56,-117.0904,38.0505,1654.00,44.00,18.00,34.86,360.00,10.00,0.00,29.96,1010.50,10.00,M,CLR,M,M,M,M,M,M,M,M,M,M,M,M,M,M,38.02,KTPH 060856Z AUTO 36010KT 10SM CLR 07/M08 A2996 RMK AO2 SLP105 T00671078 56001,M
LAS,2025-05-06 08:56,-115.1634,36.0719,663.00,58.00,55.00,89.72,100.00,3.00,0.00,29.83,1008.90,9.00,M,FEW,FEW,OVC,M,200.00,5000.00,11000.00,M,VCFG,M,M,M,M,M,M,58.00,KLAS 060856Z 10003KT 9SM VCFG FEW002 FEW050 OVC110 14/13 A2983 RMK AO2 SLP089 VIS LWR NW-NE BR FEW002 FOGBANK VC NW-NE 60007 T01440128 56008 $,M
EKO,2025-05-06 08:56,-115.7860,40.8242,1367.00,45.00,29.00,53.22,60.00,5.00,0.00,29.94,1011.40,10.00,M,OVC,M,M,M,4200.00,M,M,M,M,M,M,M,M,M,M,41.83,KEKO 060856Z AUTO 06005KT 10SM OVC042 07/M02 A2994 RMK AO2 SLP114 T00721017 56002,M
WMC,2025-05-06 08:56,-117.8072,40.9019,1315.00,34.00,24.00,66.45,250.00,5.00,0.00,30.02,1015.40,10.00,M,CLR,M,M,M,M,M,M,M,M,M,M,M,M,M,M,28.77,KWMC 060856Z AUTO 25005KT 10SM CLR 01/M04 A3002 RMK AO2 SLP154 T00111044 51001,M
HND,2025-05-06 08:56,-115.1344,35.9729,742.79,56.00,54.00,92.98,0.00,0.00,0.00,29.84,1011.10,10.00,M,SCT,BKN,M,M,8000.00,11000.00,M,M,M,M,M,M,M,M,M,56.00,KHND 060856Z AUTO 00000KT 10SM SCT080 BKN110 13/12 A2984 RMK AO2 SLP111 60006 T01330122 56007 $,M
NFL,2025-05-06 08:57,-118.7010,39.4166,1199.00,48.00,21.00,34.05,350.00,10.00,0.00,30.00,1012.80,10.00,M,CLR,M,M,M,M,M,M,M,M,M,M,M,M,M,M,43.03,KNFL 060857Z AUTO 35010KT 10SM CLR 09/M06 A3000 RMK AO2 SLP128 T00891061 50003,M
BVU,2025-05-06 09:15,-114.8611,35.9475,671.00,57.20,55.40,93.69,80.00,3.00,0.00,29.81,M,10.00,M,FEW,FEW,OVC,M,4900.00,6500.00,8500.00,M,M,M,M,M,M,M,M,57.20,KBVU 060915Z AUTO 08003KT 10SM FEW049 FEW065 OVC085 14/13 A2981 RMK AO2,M
CXP,2025-05-06 09:15,-119.7326,39.1923,1431.00,41.00,24.80,52.17,0.00,0.00,0.00,30.05,M,10.00,M,CLR,M,M,M,M,M,M,M,M,M,M,M,M,M,M,41.00,KCXP 060915Z AUTO 00000KT 10SM CLR 05/M04 A3005 RMK AO2,M
RTS,2025-05-06 09:15,-119.8764,39.6682,1539.00,41.00,17.60,38.45,270.00,4.00,0.00,30.05,M,10.00,M,CLR,M,M,M,M,M,M,M,M,M,M,M,M,M,M,37.93,KRTS 060915Z AUTO 27004KT 10SM CLR 05/M08 A3005 RMK AO2,M
MEV,2025-05-06 09:15,-119.7500,38.9963,1441.42,35.60,24.80,64.46,70.00,7.00,0.00,30.03,M,10.00,M,SCT,SCT,BKN,M,3400.00,4000.00,4500.00,M,M,M,M,M,M,M,M,29.17,KMEV 060915Z AUTO 07007KT 050V120 10SM SCT034 SCT040 BKN045 02/M04 A3003 RMK AO2,M
HTH,2025-05-06 09:15,-118.6315,38.5448,1282.89,50.00,30.20,46.31,290.00,5.00,0.00,29.99,M,10.00,M,CLR,M,M,M,M,M,M,M,M,M,M,M,M,M,M,50.00,KHTH 060915Z AUTO 29005KT 10SM CLR 10/M01 A2999 RMK A01,M
TMT,2025-05-06 09:15,-117.1971,39.4643,1749.34,32.50,23.00,67.67,220.00,8.00,0.00,30.03,M,10.00,M,CLR,M,M,M,M,M,M,M,M,M,M,M,M,M,M,24.73,KTMT 060915Z AUTO 22008KT 10SM CLR 00/M05 A3003 RMK AO2 T00031051,M
BAM,2025-05-06 09:20,-116.8743,40.5990,1382.36,42.80,30.20,60.79,290.00,8.00,0.00,30.00,M,10.00,M,SCT,M,M,M,7500.00,M,M,M,M,M,M,M,M,M,M,37.42,KBAM 060920Z AUTO 29008KT 10SM SCT075 06/M01 A3000 RMK AO1,M
VGT,2025-05-06 09:23,-115.1933,36.2111,667.00,58.00,55.00,89.72,0.00,0.00,0.00,29.82,M,8.00,M,SCT,OVC,M,M,700.00,1100.00,M,M,M,M,M,M,M,M,M,58.00,KVGT 060923Z AUTO 00000KT 8SM SCT007 OVC011 14/13 A2982 RMK AO2 T01440128,M
RTS,2025-05-06 09:25,-119.8764,39.6682,1539.00,37.40,17.60,44.25,M,4.00,0.00,30.05,M,10.00,M,CLR,M,M,M,M,M,M,M,M,M,M,M,M,M,M,33.73,KRTS 060925Z AUTO VRB04KT 10SM CLR 03/M08 A3005 RMK AO2,M
MEV,2025-05-06 09:25,-119.7500,38.9963,1441.42,35.60,26.60,69.46,M,5.00,0.00,30.03,M,10.00,M,SCT,SCT,BKN,M,3500.00,4300.00,6000.00,M,M,M,M,M,M,M,M,30.67,KMEV 060925Z AUTO VRB05KT 10SM SCT035 SCT043 BKN060 02/M03 A3003 RMK AO2,M
BVU,2025-05-06 09:35,-114.8611,35.9475,671.00,57.20,55.40,93.69,0.00,0.00,0.00,29.82,M,9.00,M,FEW,FEW,OVC,M,2100.00,4300.00,8500.00,M,-DZ,M,M,M,M,M,M,57.20,KBVU 060935Z AUTO 00000KT 9SM -DZ FEW021 FEW043 OVC085 14/13 A2982 RMK AO2,M
BAM,2025-05-06 09:35,-116.8743,40.5990,1382.36,42.80,30.20,60.79,320.00,3.00,0.00,30.00,M,10.00,M,CLR,M,M,M,M,M,M,M,M,M,M,M,M,M,M,41.03,KBAM 060935Z AUTO 32003KT 10SM CLR 06/M01 A3000 RMK AO1,M
CXP,2025-05-06 09:35,-119.7326,39.1923,1431.00,41.00,23.00,48.39,0.00,0.00,0.00,30.05,M,10.00,M,CLR,M,M,M,M,M,M,M,M,M,M,M,M,M,M,41.00,KCXP 060935Z AUTO 00000KT 10SM CLR 05/M05 A3005 RMK AO2,M
HTH,2025-05-06 09:35,-118.6315,38.5448,1282.89,48.20,32.00,53.27,290.00,9.00,0.00,29.99,M,10.00,M,CLR,M,M,M,M,M,M,M,M,M,M,M,M,M,M,43.66,KHTH 060935Z AUTO 29009KT 10SM CLR 09/M00 A2999 RMK A01,M
TMT,2025-05-06 09:35,-117.1971,39.4643,1749.34,32.00,22.30,67.04,150.00,3.00,0.00,30.02,M,10.00,M,CLR,M,M,M,M,M,M,M,M,M,M,M,M,M,M,28.69,KTMT 060935Z AUTO 15003KT 10SM CLR 00/M05 A3002 RMK AO2 T10011054,M
RTS,2025-05-06 09:45,-119.8764,39.6682,1539.00,37.40,15.80,40.93,0.00,0.00,0.00,30.05,M,10.00,M,M,M,M,M,M,M,M,M,M,M,M,M,M,M,M,37.40,KRTS 060945Z AUTO 00000KT 10SM 03/M09 A3005 RMK AO2,M
MEV,2025-05-06 09:45,-119.7500,38.9963,1441.42,35.60,26.60,69.46,50.00,5.00,0.00,30.03,M,10.00,M,SCT,SCT,BKN,M,3600.00,4100.00,4700.00,M,M,M,M,M,M,M,M,30.67,KMEV 060945Z AUTO 05005KT 10SM SCT036 SCT041 BKN047 02/M03 A3003 RMK AO2,M
LSV,2025-05-06 09:49,-115.0343,36.2362,570.00,59.00,55.40,87.83,0.00,0.00,0.00,29.79,1007.70,10.00,M,FEW,SCT,SCT,BKN,1300.00,4500.00,6500.00,8500.00,-RA,M,M,M,M,M,M,59.00,KLSV 060949Z 00000KT 10SM -RA FEW013 SCT045 SCT065 BKN085 15/13 A2979 RMK AO2A RAB49 SLP077 $,M
P68,2025-05-06 09:53,-116.0056,39.6014,1993.00,31.00,21.00,66.07,140.00,3.00,0.00,29.96,1011.10,M,M,M,M,M,M,M,M,M,M,M,M,M,M,M,M,M,27.55,KP68 060953Z AUTO 14003KT M01/M06 A2996 RMK AO1 SLP111 T10061061,M
DRA,2025-05-06 09:53,-116.0278,36.6206,1009.00,50.00,47.00,89.37,0.00,0.00,0.00,29.84,1007.40,10.00,M,CLR,M,M,M,M,M,M,M,M,M,M,M,M,M,M,50.00,KDRA 060953Z AUTO 00000KT 10SM CLR 10/08 A2984 RMK AO2 SLP074 T01000083,M
ELY,2025-05-06 09:53,-114.8453,39.2950,1909.00,35.00,18.00,49.50,300.00,8.00,0.00,29.92,1008.10,10.00,M,SCT,M,M,M,7000.00,M,M,M,M,M,M,M,M,M,M,27.81,KELY 060953Z AUTO 30008KT 10SM SCT070 02/M08 A2992 RMK AO2 SLP081 T00171078,M
VGT,2025-05-06 09:53,-115.1933,36.2111,667.00,58.00,55.00,89.72,140.00,4.00,0.01,29.81,1010.30,5.00,M,SCT,OVC,M,M,1200.00,7000.00,M,M,-RA BR,M,M,M,M,M,M,58.00,KVGT 060953Z AUTO 14004KT 5SM -RA BR SCT012 OVC070 14/13 A2981 RMK AO2 RAB46 SLP103 P0001 T01440128,M
LOL,2025-05-06 09:53,-118.5701,40.0684,1192.43,48.00,21.00,34.05,10.00,6.00,0.00,30.00,1014.10,10.00,M,CLR,M,M,M,M,M,M,M,M,M,M,M,M,M,M,44.80,KLOL 060953Z AUTO 01006KT 10SM CLR 09/M06 A3000 RMK AO2 SLP141 T00891061,M
BVU,2025-05-06 09:55,-114.8611,35.9475,671.00,57.20,55.40,93.69,0.00,0.00,0.00,29.82,M,10.00,M,OVC,M,M,M,8500.00,M,M,M,M,M,M,M,M,M,M,57.20,KBVU 060955Z AUTO 00000KT 10SM OVC085 14/13 A2982 RMK AO2,M
RNO,2025-05-06 09:55,-119.7711,39.4839,1341.00,46.00,26.00,45.29,0.00,0.00,0.00,30.03,1014.10,10.00,M,CLR,M,M,M,M,M,M,M,M,M,M,M,M,M,M,46.00,KRNO 060955Z 00000KT 10SM CLR 08/M03 A3003 RMK AO2 SLP141 T00781033,M
BAM,2025-05-06 09:55,-116.8743,40.5990,1382.36,41.00,30.20,65.16,340.00,3.00,0.00,30.01,M,10.00,M,CLR,M,M,M,M,M,M,M,M,M,M,M,M,M,M,38.98,KBAM 060955Z AUTO 34003KT 10SM CLR 05/M01 A3001 RMK AO1,M
CXP,2025-05-06 09:55,-119.7326,39.1923,1431.00,39.20,24.80,55.95,0.00,0.00,0.00,30.04,M,10.00,M,CLR,M,M,M,M,M,M,M,M,M,M,M,M,M,M,39.20,KCXP 060955Z AUTO 00000KT 10SM CLR 04/M04 A3004 RMK AO2,M
HTH,2025-05-06 09:55,-118.6315,38.5448,1282.89,50.00,26.60,39.95,310.00,10.00,0.00,29.99,M,10.00,17.00,CLR,M,M,M,M,M,M,M,M,M,M,M,M,M,M,50.00,KHTH 060955Z AUTO 31010G17KT 10SM CLR 10/M03 A2999 RMK A01,M
TMT,2025-05-06 09:55,-117.1971,39.4643,1749.34,33.60,22.50,63.40,230.00,8.00,0.00,30.03,M,10.00,M,CLR,M,M,M,M,M,M,M,M,M,M,M,M,M,M,26.08,KTMT 060955Z AUTO 23008KT 10SM CLR 01/M05 A3003 RMK AO2 T00091053,M
INS,2025-05-06 09:55,-115.6733,36.5872,955.00,51.00,49.00,92.83,240.00,6.00,0.00,29.84,1007.80,10.00,M,CLR,M,M,M,M,M,M,M,M,M,M,M,M,M,M,51.00,KINS 060955Z AUTO 24006KT 10SM CLR 11/09 A2984 RMK AO2 SLP078 T01060094 $,M
LSV,2025-05-06 09:55,-115.0343,36.2362,570.00,59.40,55.40,86.58,0.00,0.00,T,29.79,1007.70,9.00,M,FEW,BKN,M,M,6500.00,8500.00,M,M,-RA,M,M,M,M,M,M,59.40,KLSV 060955Z 00000KT 9SM -RA FEW065 BKN085 15/13 A2979 RMK AO2A RAE0855RAB49 SLP077 P0000 T01520130 $,M
EKO,2025-05-06 09:56,-115.7860,40.8242,1367.00,43.00,34.00,70.30,30.00,10.00,0.00,29.95,1011.90,10.00,M,SCT,BKN,OVC,M,3800.00,5000.00,7000.00,M,M,M,M,M,M,M,M,36.76,KEKO 060956Z AUTO 03010KT 10SM SCT038 BKN050 OVC070 06/01 A2995 RMK AO2 SLP119 T00610011,M
WMC,2025-05-06 09:56,-117.8072,40.9019,1315.00,41.00,25.00,52.61,290.00,7.00,0.00,30.01,1014.40,10.00,M,CLR,M,M,M,M,M,M,M,M,M,M,M,M,M,M,35.75,KWMC 060956Z AUTO 29007KT 10SM CLR 05/M04 A3001 RMK AO2 SLP144 T00501039,M
HND,2025-05-06 09:56,-115.1344,35.9729,742.79,56.00,54.00,92.98,0.00,0.00,0.00,29.85,1011.50,10.00,M,OVC,M,M,M,6500.00,M,M,M,M,M,M,M,M,M,M,56.00,KHND 060956Z AUTO 00000KT 10SM OVC065 13/12 A2985 RMK AO2 SLP115 T01330122 $,M
TPH,2025-05-06 09:56,-117.0904,38.0505,1654.00,41.00,17.00,37.47,360.00,7.00,0.00,29.95,1010.60,10.00,M,CLR,M,M,M,M,M,M,M,M,M,M,M,M,M,M,35.75,KTPH 060956Z AUTO 36007KT 10SM CLR 05/M08 A2995 RMK AO2 SLP106 T00501083,M
LAS,2025-05-06 09:56,-115.1634,36.0719,663.00,57.00,55.00,93.01,60.00,3.00,0.00,29.84,1009.50,9.00,M,FEW,FEW,OVC,M,200.00,600.00,7000.00,M,M,M,M,M,M,M,M,57.00,KLAS 060956Z 06003KT 9SM FEW002 FEW006 OVC070 14/13 A2984 RMK AO2 SLP095 BR FEW002 FOGBANK OBSCURES MTNS DSNT S-SW AND W-N T01390128 $,M
NFL,2025-05-06 09:57,-118.7010,39.4166,1199.00,47.00,22.00,36.89,360.00,10.00,0.00,30.00,1012.80,10.00,M,CLR,M,M,M,M,M,M,M,M,M,M,M,M,M,M,41.78,KNFL 060957Z AUTO 36010KT 10SM CLR 08/M06 A3000 RMK AO2 SLP128 T00831056,M
RTS,2025-05-06 10:05,-119.8764,39.6682,1539.00,35.60,15.80,43.95,360.00,5.00,0.00,30.04,M,10.00,M,M,M,M,M,M,M,M,M,M,M,M,M,M,M,M,30.67,KRTS 061005Z AUTO 36005KT 10SM 02/M09 A3004 RMK AO2,M
LSV,2025-05-06 10:07,-115.0343,36.2362,570.00,59.00,55.40,87.83,0.00,0.00,0.00,29.79,1007.70,10.00,M,FEW,BKN,M,M,6000.00,8000.00,M,M,M,M,M,M,M,M,M,59.00,KLSV 061007Z 00000KT 10SM FEW060 BKN080 15/13 A2979 RMK AO2A RAE04DZB04E07 SLP077 $,M
VGT,2025-05-06 10:11,-115.1933,36.2111,667.00,58.00,55.00,89.72,0.00,0.00,T,29.82,M,7.00,M,BKN,BKN,OVC,M,1000.00,2000.00,7000.00,M,-RA,M,M,M,M,M,M,58.00,KVGT 061011Z AUTO 00000KT 7SM -RA BKN010 BKN020 OVC070 14/13 A2982 RMK AO2 P0000 T01440128,M
BAM,2025-05-06 10:15,-116.8743,40.5990,1382.36,37.40,30.20,74.98,0.00,0.00,0.00,30.01,M,10.00,M,CLR,M,M,M,M,M,M,M,M,M,M,M,M,M,M,37.40,KBAM 061015Z AUTO 00000KT 10SM CLR 03/M01 A3001 RMK AO1,M
CXP,2025-05-06 10:15,-119.7326,39.1923,1431.00,39.20,24.80,55.95,0.00,0.00,0.00,30.04,M,10.00,M,CLR,M,M,M,M,M,M,M,M,M,M,M,M,M,M,39.20,KCXP 061015Z AUTO 00000KT 10SM CLR 04/M04 A3004 RMK AO2,M
MEV,2025-05-06 10:15,-119.7500,38.9963,1441.42,32.00,24.80,74.44,110.00,5.00,0.00,30.03,M,10.00,M,FEW,SCT,M,M,3300.00,4600.00,M,M,M,M,M,M,M,M,M,26.40,KMEV 061015Z AUTO 11005KT 10SM FEW033 SCT046 00/M04 A3003 RMK AO2,M
HTH,2025-05-06 10:15,-118.6315,38.5448,1282.89,50.00,26.60,39.95,310.00,10.00,0.00,29.99,M,10.00,M,CLR,M,M,M,M,M,M,M,M,M,M,M,M,M,M,50.00,KHTH 061015Z AUTO 31010KT 10SM CLR 10/M03 A2999 RMK A01,M
TMT,2025-05-06 10:15,-117.1971,39.4643,1749.34,32.40,21.70,64.32,250.00,5.00,0.00,30.02,M,10.00,M,CLR,M,M,M,M,M,M,M,M,M,M,M,M,M,M,26.87,KTMT 061015Z AUTO 25005KT 10SM CLR 00/M06 A3002 RMK AO2 T00021057,M
BVU,2025-05-06 10:15,-114.8611,35.9475,671.00,57.20,55.40,93.69,0.00,0.00,0.00,29.83,M,10.00,M,FEW,SCT,BKN,M,1200.00,6500.00,8000.00,M,M,M,M,M,M,M,M,57.20,KBVU 061015Z AUTO 00000KT 10SM FEW012 SCT065 BKN080 14/13 A2983 RMK AO2,M
RTS,2025-05-06 10:25,-119.8764,39.6682,1539.00,32.00,15.80,50.75,310.00,5.00,0.00,30.05,M,10.00,M,M,M,M,M,M,M,M,M,M,M,M,M,M,M,M,26.40,KRTS 061025Z AUTO 31005KT 10SM M00/M09 A3005 RMK AO2,M
MEV,2025-05-06 10:25,-119.7500,38.9963,1441.42,33.80,26.60,74.63,260.00,4.00,0.00,30.03,M,10.00,10.00,SCT,SCT,M,M,4300.00,5000.00,M,M,M,M,M,M,M,M,M,29.52,KMEV 061025Z AUTO 26004G10KT 10SM SCT043 SCT050 01/M03 A3003 RMK AO2,M
BVU,2025-05-06 10:35,-114.8611,35.9475,671.00,57.20,55.40,93.69,0.00,0.00,0.00,29.82,M,10.00,M,FEW,BKN,OVC,M,1200.00,6000.00,7500.00,M,M,M,M,M,M,M,M,57.20,KBVU 061035Z AUTO 00000KT 10SM FEW012 BKN060 OVC075 14/13 A2982 RMK AO2,M
BAM,2025-05-06 10:35,-116.8743,40.5990,1382.36,37.40,28.40,69.67,0.00,0.00,0.00,30.00,M,10.00,M,CLR,M,M,M,M,M,M,M,M,M,M,M,M,M,M,37.40,KBAM 061035Z AUTO 00000KT 10SM CLR 03/M02 A3000 RMK AO1,M
CXP,2025-05-06 10:35,-119.7326,39.1923,1431.00,39.20,24.80,55.95,0.00,0.00,0.00,30.04,M,10.00,M,CLR,M,M,M,M,M,M,M,M,M,M,M,M,M,M,39.20,KCXP 061035Z AUTO 00000KT 10SM CLR 04/M04 A3004 RMK AO2,M
HTH,2025-05-06 10:35,-118.6315,38.5448,1282.89,48.20,21.20,34.09,320.00,10.00,0.00,30.00,M,10.00,M,CLR,M,M,M,M,M,M,M,M,M,M,M,M,M,M,43.28,KHTH 061035Z AUTO 32010KT 10SM CLR 09/M06 A3000 RMK A01,M
TMT,2025-05-06 10:35,-117.1971,39.4643,1749.34,32.00,22.30,67.04,260.00,4.00,0.00,30.02,M,10.00,M,CLR,M,M,M,M,M,M,M,M,M,M,M,M,M,M,27.42,KTMT 061035Z AUTO 26004KT 10SM CLR 00/M05 A3002 RMK AO2 T00011054,M
INS,2025-05-06 10:40,-115.6733,36.5872,955.00,50.00,50.00,100.00,250.00,6.00,0.00,29.84,1007.80,2.75,M,CLR,M,M,M,M,M,M,M,BR,M,M,M,M,M,M,50.00,KINS 061040Z AUTO 25006KT 2 3/4SM BR CLR 10/10 A2984 RMK AO2 VIS 2 3/4V8 VIS 1/4 RWY08 SLP078 $,M
VGT,2025-05-06 10:41,-115.1933,36.2111,667.00,58.00,55.00,89.72,0.00,0.00,T,29.83,M,6.00,M,OVC,M,M,M,1500.00,M,M,M,BR,M,M,M,M,M,M,58.00,KVGT 061041Z AUTO 00000KT 6SM BR OVC015 14/13 A2983 RMK AO2 RAE12 P0000 T01440128,M
INS,2025-05-06 10:45,-115.6733,36.5872,955.00,50.00,48.20,93.50,250.00,7.00,0.00,29.84,1007.80,0.38,M,CLR,M,M,M,M,M,M,M,FG,M,M,M,M,M,M,50.00,KINS 061045Z AUTO 25007KT 3/8SM R26/2000V3500FT FG CLR 10/09 A2984 RMK AO2 VIS 3/8V6 SLP078 $,M
RTS,2025-05-06 10:45,-119.8764,39.6682,1539.00,30.20,15.80,54.59,350.00,6.00,0.00,30.05,M,10.00,M,CLR,M,M,M,M,M,M,M,M,M,M,M,M,M,M,23.36,KRTS 061045Z AUTO 35006KT 10SM CLR M01/M09 A3005 RMK AO2,M
MEV,2025-05-06 10:45,-119.7500,38.9963,1441.42,33.80,26.60,74.63,0.00,0.00,0.00,30.03,M,10.00,M,SCT,SCT,M,M,4400.00,5000.00,M,M,M,M,M,M,M,M,M,33.80,KMEV 061045Z AUTO 00000KT 10SM SCT044 SCT050 01/M03 A3003 RMK AO2,M
P68,2025-05-06 10:53,-116.0056,39.6014,1993.00,30.00,21.00,68.81,270.00,4.00,0.00,29.96,1011.30,M,M,M,M,M,M,M,M,M,M,M,M,M,M,M,M,M,25.08,KP68 061053Z AUTO 27004KT M01/M06 A2996 RMK AO1 SLP113 T10111061,M
DRA,2025-05-06 10:53,-116.0278,36.6206,1009.00,49.00,47.00,92.77,0.00,0.00,0.00,29.85,1007.70,10.00,M,CLR,M,M,M,M,M,M,M,M,M,M,M,M,M,M,49.00,KDRA 061053Z AUTO 00000KT 10SM CLR 09/08 A2985 RMK AO2 SLP077 T00940083,M
ELY,2025-05-06 10:53,-114.8453,39.2950,1909.00,34.00,19.00,53.77,0.00,0.00,0.00,29.93,1008.70,10.00,M,BKN,M,M,M,7000.00,M,M,M,M,M,M,M,M,M,M,34.00,KELY 061053Z AUTO 00000KT 10SM BKN070 01/M07 A2993 RMK AO2 SLP087 T00111072,M
VGT,2025-05-06 10:53,-115.1933,36.2111,667.00,58.00,55.00,89.72,0.00,0.00,T,29.83,1011.00,5.00,M,OVC,M,M,M,1700.00,M,M,M,BR,M,M,M,M,M,M,58.00,KVGT 061053Z AUTO 00000KT 5SM BR OVC017 14/13 A2983 RMK AO2 RAE12 SLP110 P0000 T01440128,M
LOL,2025-05-06 10:53,-118.5701,40.0684,1192.43,47.00,22.00,36.89,10.00,9.00,0.00,30.01,1014.30,10.00,M,CLR,M,M,M,M,M,M,M,M,M,M,M,M,M,M,42.17,KLOL 061053Z AUTO 01009KT 10SM CLR 08/M06 A3001 RMK AO2 SLP143 T00831056,M
BVU,2025-05-06 10:55,-114.8611,35.9475,671.00,57.20,55.40,93.69,0.00,0.00,0.00,29.83,M,10.00,M,OVC,M,M,M,6000.00,M,M,M,M,M,M,M,M,M,M,57.20,KBVU 061055Z AUTO 00000KT 10SM OVC060 14/13 A2983 RMK AO2,M
RNO,2025-05-06 10:55,-119.7711,39.4839,1341.00,44.00,27.00,50.93,300.00,3.00,0.00,30.03,1014.20,10.00,M,CLR,M,M,M,M,M,M,M,M,M,M,M,M,M,M,42.41,KRNO 061055Z 30003KT 10SM CLR 07/M03 A3003 RMK AO2 SLP142 T00671028,M
CXP,2025-05-06 10:55,-119.7326,39.1923,1431.00,35.60,24.80,64.46,0.00,0.00,0.00,30.05,M,10.00,M,CLR,M,M,M,M,M,M,M,M,M,M,M,M,M,M,35.60,KCXP 061055Z AUTO 00000KT 10SM CLR 02/M04 A3005 RMK AO2,M
HTH,2025-05-06 10:55,-118.6315,38.5448,1282.89,50.00,21.20,31.87,M,M,0.00,30.00,M,10.00,M,CLR,M,M,M,M,M,M,M,M,M,M,M,M,M,M,50.00,KHTH 061055Z AUTO 9.88000010KT 10SM CLR 10/M06 A3000 RMK A01,M
TMT,2025-05-06 10:55,-117.1971,39.4643,1749.34,32.00,23.50,70.51,280.00,5.00,0.00,30.02,M,10.00,M,CLR,M,M,M,M,M,M,M,M,M,M,M,M,M,M,26.40,KTMT 061055Z AUTO 28005KT 10SM CLR 00/M05 A3002 RMK AO2 T00011047,M
BAM,2025-05-06 10:55,-116.8743,40.5990,1382.36,37.40,30.20,74.98,310.00,8.00,0.00,30.00,M,10.00,M,CLR,M,M,M,M,M,M,M,M,M,M,M,M,M,M,30.76,KBAM 061055Z AUTO 31008KT 10SM CLR 03/M01 A3000 RMK AO1,M
INS,2025-05-06 10:55,-115.6733,36.5872,955.00,50.40,49.00,94.92,260.00,7.00,0.00,29.84,1007.80,0.38,M,FEW,SCT,M,M,0.00,10000.00,M,M,FG,M,M,M,M,M,M,50.40,KINS 061055Z AUTO 26007KT 3/8SM R26/1600V2800FT FG FEW000 SCT100 10/09 A2984 RMK AO2 SLP078 T01020094 $,M
LSV,2025-05-06 10:55,-115.0343,36.2362,570.00,59.70,56.00,87.55,0.00,0.00,T,29.80,1008.10,9.00,M,SCT,BKN,M,M,9000.00,12000.00,M,M,M,M,M,M,M,M,M,59.70,KLSV 061055Z 00000KT 9SM SCT090 BKN120 15/13 A2980 RMK AO2A RAB0955E04DZB04E07 CIG 028V120 BKN028 V SCT SLP081 P0000 T01540134 $,M
EKO,2025-05-06 10:56,-115.7860,40.8242,1367.00,40.00,36.00,85.48,10.00,7.00,0.01,29.96,1012.60,9.00,M,SCT,BKN,OVC,M,1400.00,2100.00,3200.00,M,-RA,M,M,M,M,M,M,34.53,KEKO 061056Z AUTO 01007KT 9SM -RA SCT014 BKN021 OVC032 04/02 A2996 RMK AO2 RAB09 SLP126 P0001 T00440022,M
WMC,2025-05-06 10:56,-117.8072,40.9019,1315.00,37.00,24.00,58.99,310.00,4.00,0.00,30.02,1014.70,10.00,M,CLR,M,M,M,M,M,M,M,M,M,M,M,M,M,M,33.26,KWMC 061056Z AUTO 31004KT 10SM CLR 03/M04 A3002 RMK AO2 SLP147 T00281044,M
HND,2025-05-06 10:56,-115.1344,35.9729,742.79,57.00,54.00,89.68,200.00,6.00,0.02,29.85,1011.60,10.00,M,OVC,M,M,M,6000.00,M,M,M,-RA,M,M,M,M,M,M,57.00,KHND 061056Z AUTO 20006KT 10SM -RA OVC060 14/12 A2985 RMK AO2 RAB33 SLP116 P0002 T01390122 $,M
TPH,2025-05-06 10:56,-117.0904,38.0505,1654.00,34.00,16.00,47.25,360.00,7.00,0.00,29.95,1011.10,10.00,M,CLR,M,M,M,M,M,M,M,M,M,M,M,M,M,M,27.22,KTPH 061056Z AUTO 36007KT 10SM CLR 01/M09 A2995 RMK AO2 SLP111 T00111089,M
LAS,2025-05-06 10:56,-115.1634,36.0719,663.00,57.00,55.00,93.01,0.00,0.00,T,29.85,1009.70,10.00,M,FEW,FEW,OVC,M,200.00,600.00,7000.00,M,M,M,M,M,M,M,M,57.00,KLAS 061056Z 00000KT 10SM FEW002 FEW006 OVC070 14/13 A2985 RMK AO2 RAB25E34 SLP097 BR FEW002 FOGBANK OBSCURES MTNS DSNT S-SW AND W-N P0000 T01390128 $,M
NFL,2025-05-06 10:57,-118.7010,39.4166,1199.00,44.00,23.00,43.11,360.00,4.00,0.00,30.01,1013.10,10.00,M,CLR,M,M,M,M,M,M,M,M,M,M,M,M,M,M,41.43,KNFL 061057Z AUTO 36004KT 10SM CLR 07/M05 A3001 RMK AO2 SLP131 T00671050,M
LSV,2025-05-06 11:05,-115.0343,36.2362,570.00,59.00,55.40,87.83,0.00,0.00,0.00,29.80,1008.10,10.00,M,BKN,OVC,M,M,2800.00,12000.00,M,M,M,M,M,M,M,M,M,59.00,KLSV 061105Z AUTO 00000KT 10SM BKN028 OVC120 15/13 A2980 RMK AO2 SLP081 $,M
INS,2025-05-06 11:10,-115.6733,36.5872,955.00,50.00,48.20,93.50,260.00,5.00,0.00,29.85,1008.10,2.75,M,BKN,M,M,M,10000.00,M,M,M,BR,M,M,M,M,M,M,50.00,KINS 061110Z AUTO 26005KT 2 3/4SM BR BKN100 10/09 A2985 RMK AO2 VIS 3/8V2 3/4 SLP081 $,M
BVU,2025-05-06 11:15,-114.8611,35.9475,671.00,57.20,55.40,93.69,0.00,0.00,0.00,29.83,M,5.00,M,FEW,SCT,BKN,M,1000.00,3000.00,4600.00,M,-RA,M,M,M,M,M,M,57.20,KBVU 061115Z AUTO 00000KT 5SM -RA FEW010 SCT030 BKN046 14/13 A2983 RMK AO2,M
INS,2025-05-06 11:15,-115.6733,36.5872,955.00,50.00,48.20,93.50,260.00,5.00,0.00,29.85,1008.10,6.00,M,OVC,M,M,M,10000.00,M,M,M,BR,M,M,M,M,M,M,50.00,KINS 061115Z AUTO 26005KT 6SM BR OVC100 10/09 A2985 RMK AO2 SLP081 $,M
BAM,2025-05-06 11:15,-116.8743,40.5990,1382.36,41.00,30.20,65.16,310.00,6.00,0.00,30.00,M,10.00,M,CLR,M,M,M,M,M,M,M,M,M,M,M,M,M,M,36.37,KBAM 061115Z AUTO 31006KT 10SM CLR 05/M01 A3000 RMK AO1,M
CXP,2025-05-06 11:15,-119.7326,39.1923,1431.00,39.20,23.00,51.89,0.00,0.00,0.00,30.05,M,10.00,M,CLR,M,M,M,M,M,M,M,M,M,M,M,M,M,M,39.20,KCXP 061115Z AUTO 00000KT 10SM CLR 04/M05 A3005 RMK AO2,M
HTH,2025-05-06 11:15,-118.6315,38.5448,1282.89,46.40,23.00,39.36,290.00,11.00,0.00,30.00,M,10.00,M,CLR,M,M,M,M,M,M,M,M,M,M,M,M,M,M,40.66,KHTH 061115Z AUTO 29011KT 10SM CLR 08/M05 A3000 RMK A01,M
TMT,2025-05-06 11:15,-117.1971,39.4643,1749.34,29.70,23.50,77.40,200.00,5.00,0.00,30.02,M,10.00,M,CLR,M,M,M,M,M,M,M,M,M,M,M,M,M,M,23.66,KTMT 061115Z AUTO 20005KT 10SM CLR M01/M05 A3002 RMK AO2 T10131047,M
VGT,2025-05-06 11:21,-115.1933,36.2111,667.00,58.00,55.00,89.72,0.00,0.00,0.00,29.84,M,5.00,M,SCT,SCT,OVC,M,600.00,1000.00,1800.00,M,BR,M,M,M,M,M,M,58.00,KVGT 061121Z AUTO 00000KT 5SM BR SCT006 SCT010 OVC018 14/13 A2984 RMK AO2 T01440128,M
EKO,2025-05-06 11:24,-115.7860,40.8242,1367.00,39.00,35.00,85.42,30.00,6.00,0.02,29.97,M,10.00,M,FEW,OVC,M,M,1600.00,3200.00,M,M,-RA,M,M,M,M,M,M,33.96,KEKO 061124Z AUTO 03006KT 10SM -RA FEW016 OVC032 04/02 A2997 RMK AO2 P0002 T00390017,M
LSV,2025-05-06 11:25,-115.0343,36.2362,570.00,59.00,55.40,87.83,0.00,0.00,0.00,29.81,1008.40,10.00,M,FEW,BKN,M,M,6000.00,8000.00,M,M,M,M,M,M,M,M,M,59.00,KLSV 061125Z 00000KT 10SM FEW060 BKN080 15/13 A2981 RMK AO2A CIG 027V060 SLP084 $,M
BVU,2025-05-06 11:35,-114.8611,35.9475,671.00,57.20,55.40,93.69,0.00,0.00,0.00,29.84,M,4.00,M,SCT,BKN,OVC,M,400.00,4000.00,5500.00,M,-RA,M,M,M,M,M,M,57.20,KBVU 061135Z AUTO 00000KT 4SM -RA SCT004 BKN040 OVC055 14/13 A2984 RMK AO2,M
BAM,2025-05-06 11:35,-116.8743,40.5990,1382.36,39.20,30.20,69.88,320.00,5.00,0.00,30.01,M,10.00,M,CLR,M,M,M,M,M,M,M,M,M,M,M,M,M,M,34.95,KBAM 061135Z AUTO 32005KT 10SM CLR 04/M01 A3001 RMK AO1,M
CXP,2025-05-06 11:35,-119.7326,39.1923,1431.00,37.40,23.00,55.68,0.00,0.00,0.00,30.05,M,10.00,M,CLR,M,M,M,M,M,M,M,M,M,M,M,M,M,M,37.40,KCXP 061135Z AUTO 00000KT 10SM CLR 03/M05 A3005 RMK AO2,M
RTS,2025-05-06 11:35,-119.8764,39.6682,1539.00,33.80,15.80,47.22,250.00,4.00,0.00,30.05,M,10.00,M,CLR,M,M,M,M,M,M,M,M,M,M,M,M,M,M,29.52,KRTS 061135Z AUTO 25004KT 10SM CLR 01/M09 A3005 RMK AO2,M
MEV,2025-05-06 11:35,-119.7500,38.9963,1441.42,30.20,24.80,80.07,160.00,4.00,0.00,30.03,M,10.00,M,FEW,SCT,M,M,4400.00,5000.00,M,M,M,M,M,M,M,M,M,25.32,KMEV 061135Z AUTO 16004KT 10SM FEW044 SCT050 M01/M04 A3003 RMK AO2,M
HTH,2025-05-06 11:35,-118.6315,38.5448,1282.89,48.20,19.40,31.57,310.00,12.00,0.00,30.01,M,10.00,M,CLR,M,M,M,M,M,M,M,M,M,M,M,M,M,M,42.62,KHTH 061135Z AUTO 31012KT 10SM CLR 09/M07 A3001 RMK A01,M
TMT,2025-05-06 11:35,-117.1971,39.4643,1749.34,29.00,24.00,81.32,240.00,5.00,0.00,30.02,M,10.00,M,CLR,M,M,M,M,M,M,M,M,M,M,M,M,M,M,22.83,KTMT 061135Z AUTO 24005KT 10SM CLR M02/M04 A3002 RMK AO2 T10171045,M
VGT,2025-05-06 11:41,-115.1933,36.2111,667.00,58.00,56.00,93.04,100.00,3.00,0.00,29.84,M,5.00,M,BKN,BKN,OVC,M,600.00,1100.00,1800.00,M,BR,M,M,M,M,M,M,58.00,KVGT 061141Z AUTO 10003KT 5SM BR BKN006 BKN011 OVC018 14/13 A2984 RMK AO2 T01440133,M
P68,2025-05-06 11:53,-116.0056,39.6014,1993.00,30.00,22.00,71.78,270.00,3.00,0.00,29.96,1011.40,M,M,M,M,M,M,M,M,M,M,M,M,M,M,M,M,M,26.40,KP68 061153Z AUTO 27003KT M01/M06 A2996 RMK AO1 SLP114 T10111056 10056 21028 56002,M
DRA,2025-05-06 11:53,-116.0278,36.6206,1009.00,47.00,45.00,92.71,0.00,0.00,0.00,29.85,1008.20,10.00,M,CLR,M,M,M,M,M,M,M,M,M,M,M,M,M,M,47.00,KDRA 061153Z AUTO 00000KT 10SM CLR 08/07 A2985 RMK AO2 SLP082 70009 T00830072 10133 20078 53004,M
ELY,2025-05-06 11:53,-114.8453,39.2950,1909.00,32.00,19.00,58.27,290.00,4.00,0.00,29.93,1009.90,10.00,M,CLR,M,M,M,M,M,M,M,M,M,M,M,M,M,M,27.42,KELY 061153Z AUTO 29004KT 10SM CLR 00/M07 A2993 RMK AO2 SLP099 70001 T00001072 10072 20000 53002,M
VGT,2025-05-06 11:53,-115.1933,36.2111,667.00,58.00,55.00,89.72,0.00,0.00,0.00,29.84,1011.40,5.00,M,FEW,BKN,OVC,M,600.00,1500.00,2100.00,M,BR,M,M,M,M,M,M,58.00,KVGT 061153Z AUTO 00000KT 5SM BR FEW006 BKN015 OVC021 14/13 A2984 RMK AO2 SLP114 60006 70044 T01440128 10144 20139 51008,M
LOL,2025-05-06 11:53,-118.5701,40.0684,1192.43,46.00,22.00,38.31,10.00,9.00,0.00,30.02,1014.60,10.00,M,CLR,M,M,M,M,M,M,M,M,M,M,M,M,M,M,40.92,KLOL 061153Z AUTO 01009KT 10SM CLR 08/M06 A3002 RMK AO2 SLP146 7//// T00781056 10128 20056 53003,M
BVU,2025-05-06 11:55,-114.8611,35.9475,671.00,57.20,57.20,100.00,80.00,3.00,0.00,29.84,M,10.00,M,FEW,OVC,M,M,500.00,3700.00,M,M,M,M,M,M,M,M,M,57.20,KBVU 061155Z AUTO 08003KT 10SM FEW005 OVC037 14/14 A2984 RMK AO2,M
RNO,2025-05-06 11:55,-119.7711,39.4839,1341.00,43.00,26.00,50.77,260.00,3.00,0.00,30.03,1014.40,10.00,M,CLR,M,M,M,M,M,M,M,M,M,M,M,M,M,M,41.26,KRNO 061155Z 26003KT 10SM CLR 06/M03 A3003 RMK AO2 SLP144 T00611033 10122 20061 53002,M
BAM,2025-05-06 11:55,-116.8743,40.5990,1382.36,37.40,28.40,69.67,100.00,3.00,0.00,30.01,M,10.00,M,SCT,M,M,M,7000.00,M,M,M,M,M,M,M,M,M,M,34.86,KBAM 061155Z AUTO 10003KT 10SM SCT070 03/M02 A3001 RMK AO1,M
CXP,2025-05-06 11:55,-119.7326,39.1923,1431.00,37.40,24.80,60.04,0.00,0.00,0.00,30.05,M,10.00,M,CLR,M,M,M,M,M,M,M,M,M,M,M,M,M,M,37.40,KCXP 061155Z AUTO 00000KT 10SM CLR 03/M04 A3005 RMK AO2,M
RTS,2025-05-06 11:55,-119.8764,39.6682,1539.00,32.00,15.80,50.75,320.00,3.00,0.00,30.06,M,10.00,M,CLR,M,M,M,M,M,M,M,M,M,M,M,M,M,M,28.69,KRTS 061155Z AUTO 32003KT 10SM CLR 00/M09 A3006 RMK AO2,M
MEV,2025-05-06 11:55,-119.7500,38.9963,1441.42,30.20,24.80,80.07,100.00,4.00,0.00,30.03,M,10.00,M,FEW,SCT,SCT,M,4300.00,5000.00,6000.00,M,M,M,M,M,M,M,M,25.32,KMEV 061155Z AUTO 10004KT 10SM FEW043 SCT050 SCT060 M01/M04 A3003 RMK AO2,M
HTH,2025-05-06 11:55,-118.6315,38.5448,1282.89,48.20,19.40,31.57,310.00,11.00,0.00,30.00,M,10.00,M,CLR,M,M,M,M,M,M,M,M,M,M,M,M,M,M,42.94,KHTH 061155Z AUTO 31011KT 10SM CLR 09/M07 A3000 RMK A01,M
TMT,2025-05-06 11:55,-117.1971,39.4643,1749.34,29.30,24.30,81.35,260.00,6.00,0.00,30.02,M,10.00,M,CLR,M,M,M,M,M,M,M,M,M,M,M,M,M,M,22.28,KTMT 061155Z AUTO 26006KT 10SM CLR M01/M04 A3002 RMK AO2 T10151043 10052 21022,M
INS,2025-05-06 11:55,-115.6733,36.5872,955.00,49.00,47.50,94.53,260.00,3.00,0.00,29.85,1008.10,9.00,M,BKN,M,M,M,10000.00,M,M,M,M,M,M,M,M,M,M,48.12,KINS 061155Z AUTO 26003KT 9SM BKN100 10/09 A2985 RMK AO2 SLP081 70011 T00950086 10130 20095 53004 $,M
LSV,2025-05-06 11:55,-115.0343,36.2362,570.00,59.70,55.80,86.91,0.00,0.00,0.00,29.81,1008.40,10.00,M,FEW,BKN,M,M,6000.00,8000.00,M,M,M,M,M,M,M,M,M,59.70,KLSV 061155Z 00000KT 10SM FEW060 BKN080 15/13 A2981 RMK AO2A OVC V BKN SLP084 60007 70043 T01540132 10154 20147 52007 $,M
EKO,2025-05-06 11:56,-115.7860,40.8242,1367.00,39.00,36.00,88.87,60.00,3.00,0.02,29.97,1012.70,10.00,M,FEW,FEW,OVC,M,1600.00,3100.00,5000.00,M,M,M,M,M,M,M,M,36.69,KEKO 061156Z AUTO 06003KT 10SM FEW016 FEW031 OVC050 04/02 A2997 RMK AO2 RAE47 SLP127 P0002 60003 70003 T00390022 10078 20039 51007,M
WMC,2025-05-06 11:56,-117.8072,40.9019,1315.00,40.00,25.00,54.69,340.00,12.00,0.00,30.02,1014.50,10.00,M,CLR,M,M,M,M,M,M,M,M,M,M,M,M,M,M,32.18,KWMC 061156Z AUTO 34012KT 10SM CLR 04/M04 A3002 RMK AO2 SLP145 T00441039 10083 20006 56002,M
HND,2025-05-06 11:56,-115.1344,35.9729,742.79,56.00,55.00,96.43,40.00,4.00,T,29.87,1012.20,9.00,M,OVC,M,M,M,6000.00,M,M,M,-RA,M,M,M,M,M,M,56.00,KHND 061156Z AUTO 04004KT 9SM -RA OVC060 13/13 A2987 RMK AO2 RAE00B53 SLP122 P0000 60008 70064 T01330128 10139 20133 53008 $,M
TPH,2025-05-06 11:56,-117.0904,38.0505,1654.00,42.00,17.00,36.05,340.00,10.00,0.00,29.95,1010.20,10.00,17.00,CLR,M,M,M,M,M,M,M,M,M,M,M,M,M,M,35.51,KTPH 061156Z AUTO 34010G17KT 10SM CLR 06/M08 A2995 RMK AO2 SLP102 T00561083 10100 20006 55002,M
LAS,2025-05-06 11:56,-115.1634,36.0719,663.00,57.00,55.00,93.01,80.00,5.00,0.00,29.85,1010.00,9.00,M,FEW,FEW,OVC,M,0.00,1000.00,7000.00,M,VCFG,M,M,M,M,M,M,57.00,KLAS 061156Z 08005KT 9SM VCFG FEW000 FEW010 OVC070 14/13 A2985 RMK AO2 SLP100 VIS LWR SW-NW BR FEW000 FOGBANK VC SW-NW MTNS OBSCURED DSNT SW-NW 60007 70057 T01390128 10144 20139 51007 $,M
NFL,2025-05-06 11:57,-118.7010,39.4166,1199.00,43.00,23.00,44.80,320.00,7.00,0.00,30.01,1013.10,10.00,M,CLR,M,M,M,M,M,M,M,M,M,M,M,M,M,M,38.19,KNFL 061157Z AUTO 32007KT 10SM CLR 06/M05 A3001 RMK AO2 SLP131 T00611050 10106 20044 51003,M
BVU,2025-05-06 12:15,-114.8611,35.9475,671.00,57.20,55.40,93.69,130.00,3.00,0.00,29.84,M,10.00,M,FEW,FEW,OVC,M,3500.00,4000.00,5500.00,M,M,M,M,M,M,M,M,57.20,KBVU 061215Z AUTO 13003KT 10SM FEW035 FEW040 OVC055 14/13 A2984 RMK AO2,M
HND,2025-05-06 12:15,-115.1344,35.9729,742.79,55.40,55.40,100.00,50.00,4.00,T,29.87,M,7.00,M,FEW,OVC,M,M,400.00,5500.00,M,M,M,M,M,M,M,M,M,55.40,KHND 061215Z AUTO 05004KT 7SM FEW004 OVC055 13/13 A2987 RMK AO2 RAE07 P0000 $,M
BAM,2025-05-06 12:15,-116.8743,40.5990,1382.36,35.60,30.20,80.51,300.00,3.00,0.00,30.01,M,10.00,M,SCT,M,M,M,7000.00,M,M,M,M,M,M,M,M,M,M,32.80,KBAM 061215Z AUTO 30003KT 10SM SCT070 02/M01 A3001 RMK AO1,M
CXP,2025-05-06 12:15,-119.7326,39.1923,1431.00,35.60,24.80,64.46,0.00,0.00,0.00,30.05,M,10.00,M,CLR,M,M,M,M,M,M,M,M,M,M,M,M,M,M,35.60,KCXP 061215Z AUTO 00000KT 10SM CLR 02/M04 A3005 RMK AO2,M
RTS,2025-05-06 12:15,-119.8764,39.6682,1539.00,33.80,15.80,47.22,0.00,0.00,0.00,30.05,M,10.00,M,CLR,M,M,M,M,M,M,M,M,M,M,M,M,M,M,33.80,KRTS 061215Z AUTO 00000KT 10SM CLR 01/M09 A3005 RMK AO2,M
MEV,2025-05-06 12:15,-119.7500,38.9963,1441.42,30.20,26.60,86.28,110.00,4.00,0.00,30.03,M,10.00,M,FEW,SCT,BKN,M,4000.00,4800.00,5500.00,M,M,M,M,M,M,M,M,25.32,KMEV 061215Z AUTO 11004KT 10SM FEW040 SCT048 BKN055 M01/M03 A3003 RMK AO2,M
HTH,2025-05-06 12:15,-118.6315,38.5448,1282.89,46.40,21.20,36.48,330.00,7.00,0.00,30.01,M,10.00,M,CLR,M,M,M,M,M,M,M,M,M,M,M,M,M,M,42.33,KHTH 061215Z AUTO 33007KT 10SM CLR 08/M06 A3001 RMK A01,M
TMT,2025-05-06 12:15,-117.1971,39.4643,1749.34,29.00,24.00,81.32,230.00,5.00,0.00,30.01,M,10.00,M,CLR,M,M,M,M,M,M,M,M,M,M,M,M,M,M,22.83,KTMT 061215Z AUTO 23005KT 10SM CLR M02/M04 A3001 RMK AO2 T10161045,M
BVU,2025-05-06 12:35,-114.8611,35.9475,671.00,57.20,55.40,93.69,0.00,0.00,0.00,29.85,M,10.00,M,OVC,M,M,M,5500.00,M,M,M,M,M,M,M,M,M,M,57.20,KBVU 061235Z AUTO 00000KT 10SM OVC055 14/13 A2985 RMK AO2,M
BAM,2025-05-06 12:35,-116.8743,40.5990,1382.36,39.20,30.20,69.88,330.00,7.00,0.00,30.01,M,10.00,M,CLR,M,M,M,M,M,M,M,M,M,M,M,M,M,M,33.56,KBAM 061235Z AUTO 33007KT 10SM CLR 04/M01 A3001 RMK AO1,M
CXP,2025-05-06 12:35,-119.7326,39.1923,1431.00,37.40,24.80,60.04,0.00,0.00,0.00,30.05,M,10.00,M,CLR,M,M,M,M,M,M,M,M,M,M,M,M,M,M,37.40,KCXP 061235Z AUTO 00000KT 10SM CLR 03/M04 A3005 RMK AO2,M
RTS,2025-05-06 12:35,-119.8764,39.6682,1539.00,28.40,15.80,58.75,350.00,5.00,0.00,30.06,M,10.00,M,CLR,M,M,M,M,M,M,M,M,M,M,M,M,M,M,22.12,KRTS 061235Z AUTO 35005KT 10SM CLR M02/M09 A3006 RMK AO2,M
MEV,2025-05-06 12:35,-119.7500,38.9963,1441.42,30.20,26.60,86.28,210.00,4.00,0.00,30.04,M,10.00,M,FEW,M,M,M,5000.00,M,M,M,M,M,M,M,M,M,M,25.32,KMEV 061235Z AUTO 21004KT 10SM FEW050 M01/M03 A3004 RMK AO2,M
HTH,2025-05-06 12:35,-118.6315,38.5448,1282.89,44.60,23.00,42.14,280.00,9.00,0.00,30.01,M,10.00,M,CLR,M,M,M,M,M,M,M,M,M,M,M,M,M,M,39.18,KHTH 061235Z AUTO 28009KT 10SM CLR 07/M05 A3001 RMK A01,M
TMT,2025-05-06 12:35,-117.1971,39.4643,1749.34,28.20,23.00,80.58,0.00,0.00,0.00,30.02,M,10.00,M,CLR,M,M,M,M,M,M,M,M,M,M,M,M,M,M,28.20,KTMT 061235Z AUTO 00000KT 10SM CLR M02/M05 A3002 RMK AO2 T10211050,M
LSV,2025-05-06 12:45,-115.0343,36.2362,570.00,60.80,55.40,82.37,40.00,3.00,0.00,29.82,1008.80,10.00,M,FEW,BKN,M,M,6000.00,8000.00,M,M,M,M,M,M,M,M,M,60.80,KLSV 061245Z 04003KT 10SM FEW060 BKN080 16/13 A2982 RMK AO2A SLP088 $,M
P68,2025-05-06 12:53,-116.0056,39.6014,1993.00,27.00,22.00,81.17,0.00,0.00,0.00,29.96,1012.20,M,M,M,M,M,M,M,M,M,M,M,M,M,M,M,M,M,27.00,KP68 061253Z AUTO 00000KT M03/M06 A2996 RMK AO1 SLP122 T10281056,M
DRA,2025-05-06 12:53,-116.0278,36.6206,1009.00,48.00,45.00,89.29,0.00,0.00,0.00,29.87,1008.70,10.00,M,CLR,M,M,M,M,M,M,M,M,M,M,M,M,M,M,48.00,KDRA 061253Z AUTO 00000KT 10SM CLR 09/07 A2987 RMK AO2 SLP087 T00890072,M
ELY,2025-05-06 12:53,-114.8453,39.2950,1909.00,27.00,19.00,71.45,260.00,3.00,0.00,29.94,1011.40,10.00,M,CLR,M,M,M,M,M,M,M,M,M,M,M,M,M,M,22.97,KELY 061253Z AUTO 26003KT 10SM CLR M03/M07 A2994 RMK AO2 SLP114 T10281072,M
VGT,2025-05-06 12:53,-115.1933,36.2111,667.00,58.00,55.00,89.72,120.00,4.00,0.00,29.85,1011.70,10.00,M,OVC,M,M,M,2300.00,M,M,M,M,M,M,M,M,M,M,58.00,KVGT 061253Z 12004KT 10SM OVC023 14/13 A2985 RMK AO2 SLP117 T01440128,M
LOL,2025-05-06 12:53,-118.5701,40.0684,1192.43,42.00,22.00,44.63,70.00,6.00,0.00,30.03,1015.40,10.00,M,CLR,M,M,M,M,M,M,M,M,M,M,M,M,M,M,37.57,KLOL 061253Z AUTO 07006KT 10SM CLR 06/M06 A3003 RMK AO2 SLP154 T00561056,M
BVU,2025-05-06 12:55,-114.8611,35.9475,671.00,57.20,55.40,93.69,0.00,0.00,0.00,29.85,M,9.00,M,FEW,BKN,OVC,M,1100.00,5500.00,7000.00,M,-RA,M,M,M,M,M,M,57.20,KBVU 061255Z AUTO 00000KT 9SM -RA FEW011 BKN055 OVC070 14/13 A2985 RMK AO2,M
RNO,2025-05-06 12:55,-119.7711,39.4839,1341.00,41.00,25.00,52.61,280.00,5.00,0.00,30.04,1014.60,10.00,M,CLR,M,M,M,M,M,M,M,M,M,M,M,M,M,M,37.08,KRNO 061255Z 28005KT 10SM CLR 05/M04 A3004 RMK AO2 SLP146 T00501039,M
LSV,2025-05-06 12:55,-115.0343,36.2362,570.00,60.00,55.60,85.37,50.00,3.00,0.00,29.82,1008.80,10.00,M,FEW,BKN,M,M,3000.00,8000.00,M,M,M,M,M,M,M,M,M,60.00,KLSV 061255Z 05003KT 10SM FEW030 BKN080 16/13 A2982 RMK AO2A SLP088 T01560131 $,M
BAM,2025-05-06 12:55,-116.8743,40.5990,1382.36,41.00,30.20,65.16,350.00,4.00,0.00,30.01,M,10.00,M,BKN,M,M,M,4400.00,M,M,M,M,M,M,M,M,M,M,37.93,KBAM 061255Z AUTO 35004KT 10SM BKN044 05/M01 A3001 RMK AO1,M
CXP,2025-05-06 12:55,-119.7326,39.1923,1431.00,35.60,24.80,64.46,0.00,0.00,0.00,30.05,M,10.00,M,CLR,M,M,M,M,M,M,M,M,M,M,M,M,M,M,35.60,KCXP 061255Z AUTO 00000KT 10SM CLR 02/M04 A3005 RMK AO2,M
RTS,2025-05-06 12:55,-119.8764,39.6682,1539.00,30.20,15.80,54.59,360.00,7.00,0.00,30.06,M,10.00,M,M,M,M,M,M,M,M,M,M,M,M,M,M,M,M,22.59,KRTS 061255Z AUTO 36007KT 10SM M01/M09 A3006 RMK AO2,M
MEV,2025-05-06 12:55,-119.7500,38.9963,1441.42,30.20,26.60,86.28,0.00,0.00,0.00,30.04,M,10.00,M,CLR,M,M,M,M,M,M,M,M,M,M,M,M,M,M,30.20,KMEV 061255Z AUTO 00000KT 10SM CLR M01/M03 A3004 RMK AO2,M
HTH,2025-05-06 12:55,-118.6315,38.5448,1282.89,48.20,19.40,31.57,310.00,12.00,0.00,30.01,M,10.00,M,CLR,M,M,M,M,M,M,M,M,M,M,M,M,M,M,42.62,KHTH 061255Z AUTO 31012KT 10SM CLR 09/M07 A3001 RMK A01,M
TMT,2025-05-06 12:55,-117.1971,39.4643,1749.34,27.50,23.00,82.93,230.00,3.00,0.00,30.02,M,10.00,M,CLR,M,M,M,M,M,M,M,M,M,M,M,M,M,M,23.54,KTMT 061255Z AUTO 23003KT 10SM CLR M02/M05 A3002 RMK AO2 T10251050,M
EKO,2025-05-06 12:56,-115.7860,40.8242,1367.00,41.00,34.00,75.94,70.00,6.00,0.00,29.97,1012.90,10.00,M,BKN,OVC,M,M,6500.00,7500.00,M,M,M,M,M,M,M,M,M,36.37,KEKO 061256Z AUTO 07006KT 10SM BKN065 OVC075 05/01 A2997 RMK AO2 SLP129 T00500011,M
WMC,2025-05-06 12:56,-117.8072,40.9019,1315.00,41.00,25.00,52.61,360.00,9.00,0.00,30.03,1015.10,10.00,M,CLR,M,M,M,M,M,M,M,M,M,M,M,M,M,M,34.70,KWMC 061256Z AUTO 36009KT 10SM CLR 05/M04 A3003 RMK AO2 SLP151 T00501039,M
HND,2025-05-06 12:56,-115.1344,35.9729,742.79,56.00,55.00,96.43,M,M,T,29.88,1012.50,6.00,M,FEW,SCT,OVC,M,300.00,5000.00,11000.00,M,BR,M,M,M,M,M,M,56.00,KHND 061256Z AUTO 6SM BR FEW003 SCT050 OVC110 13/13 A2988 RMK AO2 RAE07 SLP125 P0000 T01330128 $,M
TPH,2025-05-06 12:56,-117.0904,38.0505,1654.00,40.00,16.00,37.30,310.00,4.00,0.00,29.96,1011.30,10.00,M,CLR,M,M,M,M,M,M,M,M,M,M,M,M,M,M,36.76,KTPH 061256Z AUTO 31004KT 10SM CLR 04/M09 A2996 RMK AO2 SLP113 T00441089,M
LAS,2025-05-06 12:56,-115.1634,36.0719,663.00,57.00,55.00,93.01,0.00,0.00,0.00,29.87,1010.40,10.00,M,FEW,SCT,BKN,M,0.00,3900.00,7000.00,M,VCFG,M,M,M,M,M,M,57.00,KLAS 061256Z 00000KT 10SM VCFG FEW000 SCT039 BKN070 14/13 A2987 RMK AO2 SLP104 BR FEW000 T01390128 $,M
NFL,2025-05-06 12:57,-118.7010,39.4166,1199.00,41.00,24.00,50.46,350.00,6.00,0.00,30.01,1013.30,10.00,M,CLR,M,M,M,M,M,M,M,M,M,M,M,M,M,M,36.37,KNFL 061257Z AUTO 35006KT 10SM CLR 05/M04 A3001 RMK AO2 SLP133 T00501044,M
LSV,2025-05-06 13:05,-115.0343,36.2362,570.00,59.00,55.40,87.83,0.00,0.00,0.00,29.82,1008.80,10.00,M,FEW,BKN,M,M,3000.00,8000.00,M,M,M,M,M,M,M,M,M,59.00,KLSV 061305Z 00000KT 10SM FEW030 BKN080 15/13 A2982 RMK AO2A SLP088 $,M
BVU,2025-05-06 13:15,-114.8611,35.9475,671.00,57.20,55.40,93.69,90.00,3.00,0.00,29.86,M,10.00,M,FEW,SCT,BKN,M,3400.00,7000.00,11000.00,M,M,M,M,M,M,M,M,57.20,KBVU 061315Z AUTO 09003KT 10SM FEW034 SCT070 BKN110 14/13 A2986 RMK AO2,M
BAM,2025-05-06 13:15,-116.8743,40.5990,1382.36,41.00,30.20,65.16,10.00,4.00,0.00,30.02,M,10.00,M,OVC,M,M,M,4400.00,M,M,M,M,M,M,M,M,M,M,37.93,KBAM 061315Z AUTO 01004KT 10SM OVC044 05/M01 A3002 RMK AO1,M
CXP,2025-05-06 13:15,-119.7326,39.1923,1431.00,37.40,24.80,60.04,0.00,0.00,0.00,30.05,M,10.00,M,CLR,M,M,M,M,M,M,M,M,M,M,M,M,M,M,37.40,KCXP 061315Z AUTO 00000KT 10SM CLR 03/M04 A3005 RMK AO2,M
RTS,2025-05-06 13:15,-119.8764,39.6682,1539.00,35.60,19.40,51.33,0.00,0.00,0.00,30.06,M,10.00,M,CLR,M,M,M,M,M,M,M,M,M,M,M,M,M,M,35.60,KRTS 061315Z AUTO 00000KT 10SM CLR 02/M07 A3006 RMK AO2,M
MEV,2025-05-06 13:15,-119.7500,38.9963,1441.42,28.40,24.80,86.18,130.00,3.00,0.00,30.03,M,10.00,M,CLR,M,M,M,M,M,M,M,M,M,M,M,M,M,M,24.57,KMEV 061315Z AUTO 13003KT 10SM CLR M02/M04 A3003 RMK AO2,M
HTH,2025-05-06 13:15,-118.6315,38.5448,1282.89,48.20,19.40,31.57,290.00,11.00,0.00,30.02,M,10.00,M,CLR,M,M,M,M,M,M,M,M,M,M,M,M,M,M,42.94,KHTH 061315Z AUTO 29011KT 10SM CLR 09/M07 A3002 RMK A01,M
TMT,2025-05-06 13:15,-117.1971,39.4643,1749.34,28.40,23.70,82.31,0.00,0.00,0.00,30.03,M,10.00,M,CLR,M,M,M,M,M,M,M,M,M,M,M,M,M,M,28.40,KTMT 061315Z AUTO 00000KT 10SM CLR M02/M05 A3003 RMK AO2 T10201046,M
RTS,2025-05-06 13:25,-119.8764,39.6682,1539.00,33.80,17.60,51.04,0.00,0.00,0.00,30.06,M,10.00,M,CLR,M,M,M,M,M,M,M,M,M,M,M,M,M,M,33.80,KRTS 061325Z AUTO 00000KT 10SM CLR 01/M08 A3006 RMK AO2,M
MEV,2025-05-06 13:25,-119.7500,38.9963,1441.42,28.40,24.80,86.18,110.00,3.00,0.00,30.04,M,10.00,M,CLR,M,M,M,M,M,M,M,M,M,M,M,M,M,M,24.57,KMEV 061325Z AUTO 11003KT 10SM CLR M02/M04 A3004 RMK AO2,M
BVU,2025-05-06 13:35,-114.8611,35.9475,671.00,55.40,55.40,100.00,0.00,0.00,0.00,29.86,M,10.00,M,CLR,M,M,M,M,M,M,M,M,M,M,M,M,M,M,55.40,KBVU 061335Z AUTO 00000KT 10SM CLR 13/13 A2986 RMK AO2,M
BAM,2025-05-06 13:35,-116.8743,40.5990,1382.36,41.00,30.20,65.16,340.00,6.00,0.00,30.02,M,10.00,M,SCT,OVC,M,M,4400.00,6000.00,M,M,M,M,M,M,M,M,M,36.37,KBAM 061335Z AUTO 34006KT 10SM SCT044 OVC060 05/M01 A3002 RMK AO1,M
CXP,2025-05-06 13:35,-119.7326,39.1923,1431.00,37.40,24.80,60.04,0.00,0.00,0.00,30.06,M,10.00,M,CLR,M,M,M,M,M,M,M,M,M,M,M,M,M,M,37.40,KCXP 061335Z AUTO 00000KT 10SM CLR 03/M04 A3006 RMK AO2,M
HTH,2025-05-06 13:35,-118.6315,38.5448,1282.89,48.20,21.20,34.09,320.00,12.00,0.00,30.02,M,10.00,M,CLR,M,M,M,M,M,M,M,M,M,M,M,M,M,M,42.62,KHTH 061335Z AUTO 32012KT 10SM CLR 09/M06 A3002 RMK A01,M
TMT,2025-05-06 13:35,-117.1971,39.4643,1749.34,30.60,25.70,81.79,190.00,3.00,0.00,30.03,M,10.00,M,CLR,M,M,M,M,M,M,M,M,M,M,M,M,M,M,27.09,KTMT 061335Z AUTO 19003KT 10SM CLR M01/M03 A3003 RMK AO2 T10081035,M
INS,2025-05-06 13:40,-115.6733,36.5872,955.00,48.20,46.40,93.45,0.00,0.00,0.00,29.89,1010.10,0.50,M,CLR,M,M,M,M,M,M,M,FG,M,M,M,M,M,M,48.20,KINS 061340Z AUTO 00000KT 1/2SM R26/2600V3500FT FG CLR 09/08 A2989 RMK AO2 VIS 1/2V8 SLP101 $,M
INS,2025-05-06 13:50,-115.6733,36.5872,955.00,48.20,46.40,93.45,280.00,4.00,0.00,29.89,1010.10,4.00,M,CLR,M,M,M,M,M,M,M,BR,M,M,M,M,M,M,46.34,KINS 061350Z AUTO 28004KT 4SM BR CLR 09/08 A2989 RMK AO2 SLP101 $,M
ELY,2025-05-06 13:53,-114.8453,39.2950,1909.00,36.00,24.00,61.37,260.00,4.00,0.00,29.96,1010.40,10.00,M,OVC,M,M,M,8500.00,M,M,M,M,M,M,M,M,M,M,32.09,KELY 061353Z AUTO 26004KT 10SM OVC085 02/M04 A2996 RMK AO2 SLP104 T00221044,M
VGT,2025-05-06 13:53,-115.1933,36.2111,667.00,59.00,55.00,86.56,180.00,4.00,0.00,29.87,1012.40,10.00,M,SCT,OVC,M,M,800.00,2800.00,M,M,M,M,M,M,M,M,M,59.00,KVGT 061353Z 18004KT 10SM SCT008 OVC028 15/13 A2987 RMK AO2 SLP124 T01500128,M
LOL,2025-05-06 13:53,-118.5701,40.0684,1192.43,46.00,24.00,41.67,70.00,5.00,0.00,30.04,1015.90,10.00,M,CLR,M,M,M,M,M,M,M,M,M,M,M,M,M,M,43.02,KLOL 061353Z AUTO 07005KT 10SM CLR 08/M04 A3004 RMK AO2 SLP159 T00781044,M
P68,2025-05-06 13:53,-116.0056,39.6014,1993.00,33.00,25.00,72.11,190.00,3.00,0.00,29.99,1012.50,M,M,M,M,M,M,M,M,M,M,M,M,M,M,M,M,M,29.83,KP68 061353Z AUTO 19003KT 01/M04 A2999 RMK AO1 SLP125 T00061039,M
DRA,2025-05-06 13:53,-116.0278,36.6206,1009.00,52.00,47.00,82.99,0.00,0.00,0.00,29.89,1009.50,10.00,M,CLR,M,M,M,M,M,M,M,M,M,M,M,M,M,M,52.00,KDRA 061353Z AUTO 00000KT 10SM CLR 11/08 A2989 RMK AO2 SLP095 T01110083,M
BVU,2025-05-06 13:55,-114.8611,35.9475,671.00,55.40,55.40,100.00,0.00,0.00,0.00,29.87,M,10.00,M,BKN,BKN,BKN,M,1300.00,1900.00,3800.00,M,M,M,M,M,M,M,M,55.40,KBVU 061355Z AUTO 00000KT 10SM BKN013 BKN019 BKN038 13/13 A2987 RMK AO2,M
CXP,2025-05-06 13:55,-119.7326,39.1923,1431.00,41.00,24.80,52.17,M,4.00,0.00,30.07,M,10.00,M,CLR,M,M,M,M,M,M,M,M,M,M,M,M,M,M,37.93,KCXP 061355Z AUTO VRB04KT 10SM CLR 05/M04 A3007 RMK AO2,M
RNO,2025-05-06 13:55,-119.7711,39.4839,1341.00,43.00,25.00,48.70,280.00,3.00,0.00,30.06,1015.30,10.00,M,CLR,M,M,M,M,M,M,M,M,M,M,M,M,M,M,41.26,KRNO 061355Z 28003KT 10SM CLR 06/M04 A3006 RMK AO2 SLP153 T00611039,M
LSV,2025-05-06 13:55,-115.0343,36.2362,570.00,60.00,56.00,86.61,90.00,3.00,0.00,29.84,1009.50,10.00,M,BKN,M,M,M,2500.00,M,M,M,M,M,M,M,M,M,M,60.00,KLSV 061355Z AUTO 09003KT 10SM BKN025 16/13 A2984 RMK AO2 CIG 025V120 BKN V SCT SLP095 T01560134 $,M
RTS,2025-05-06 13:55,-119.8764,39.6682,1539.00,33.80,19.40,55.14,0.00,0.00,0.00,30.07,M,10.00,M,CLR,M,M,M,M,M,M,M,M,M,M,M,M,M,M,33.80,KRTS 061355Z AUTO 00000KT 10SM CLR 01/M07 A3007 RMK AO2,M
MEV,2025-05-06 13:55,-119.7500,38.9963,1441.42,33.80,28.40,80.36,210.00,3.00,0.00,30.05,M,10.00,M,CLR,M,M,M,M,M,M,M,M,M,M,M,M,M,M,30.75,KMEV 061355Z AUTO 21003KT 10SM CLR 01/M02 A3005 RMK AO2,M
BAM,2025-05-06 13:55,-116.8743,40.5990,1382.36,41.00,32.00,70.08,330.00,8.00,0.00,30.04,M,10.00,M,SCT,BKN,OVC,M,3800.00,4700.00,6000.00,M,M,M,M,M,M,M,M,35.20,KBAM 061355Z AUTO 33008KT 10SM SCT038 BKN047 OVC060 05/00 A3004 RMK AO1,M
HTH,2025-05-06 13:55,-118.6315,38.5448,1282.89,48.20,21.20,34.09,320.00,7.00,0.00,30.03,M,10.00,M,CLR,M,M,M,M,M,M,M,M,M,M,M,M,M,M,44.53,KHTH 061355Z AUTO 32007KT 10SM CLR 09/M06 A3003 RMK A01,M
TMT,2025-05-06 13:55,-117.1971,39.4643,1749.34,33.80,27.00,75.87,200.00,3.00,0.00,30.04,M,10.00,M,CLR,M,M,M,M,M,M,M,M,M,M,M,M,M,M,30.75,KTMT 061355Z AUTO 20003KT 10SM CLR 01/M03 A3004 RMK AO2 T00101027,M
INS,2025-05-06 13:55,-115.6733,36.5872,955.00,48.40,46.80,94.16,310.00,4.00,0.00,29.89,1010.10,9.00,M,CLR,M,M,M,M,M,M,M,M,M,M,M,M,M,M,46.57,KINS 061355Z AUTO 31004KT 9SM CLR 09/08 A2989 RMK AO2 SLP101 T00910082 $,M
EKO,2025-05-06 13:56,-115.7860,40.8242,1367.00,41.00,34.00,75.94,50.00,9.00,0.00,30.00,1014.10,10.00,M,BKN,OVC,M,M,4100.00,5000.00,M,M,M,M,M,M,M,M,M,34.70,KEKO 061356Z AUTO 05009KT 10SM BKN041 OVC050 05/01 A3000 RMK AO2 SLP141 T00500011,M
WMC,2025-05-06 13:56,-117.8072,40.9019,1315.00,40.00,27.00,59.41,350.00,6.00,0.00,30.05,1016.00,10.00,M,CLR,M,M,M,M,M,M,M,M,M,M,M,M,M,M,35.17,KWMC 061356Z AUTO 35006KT 10SM CLR 04/M03 A3005 RMK AO2 SLP160 T00441028,M
HND,2025-05-06 13:56,-115.1344,35.9729,742.79,56.00,55.00,96.43,0.00,0.00,0.00,29.90,1013.30,5.00,M,BKN,M,M,M,500.00,M,M,M,BR,M,M,M,M,M,M,56.00,KHND 061356Z AUTO 00000KT 5SM BR BKN005 13/13 A2990 RMK AO2 SLP133 T01330128 $,M
TPH,2025-05-06 13:56,-117.0904,38.0505,1654.00,43.00,18.00,36.22,0.00,0.00,0.00,29.97,1011.50,10.00,M,CLR,M,M,M,M,M,M,M,M,M,M,M,M,M,M,43.00,KTPH 061356Z AUTO 00000KT 10SM CLR 06/M08 A2997 RMK AO2 SLP115 T00611078,M
LAS,2025-05-06 13:56,-115.1634,36.0719,663.00,58.00,55.00,89.72,0.00,0.00,0.00,29.89,1011.10,10.00,M,FEW,SCT,BKN,M,500.00,2000.00,6000.00,M,M,M,M,M,M,M,M,58.00,KLAS 061356Z 00000KT 10SM FEW005 SCT020 BKN060 14/13 A2989 RMK AO2 SLP111 T01440128 $,M
NFL,2025-05-06 13:57,-118.7010,39.4166,1199.00,45.00,25.00,45.12,360.00,5.00,0.00,30.03,1013.90,10.00,M,FEW,M,M,M,10000.00,M,M,M,M,M,M,M,M,M,M,41.83,KNFL 061357Z 36005KT 10SM FEW100 07/M04 A3003 RMK AO2 SLP139 T00721039,M
INS,2025-05-06 14:10,-115.6733,36.5872,955.00,48.20,46.40,93.45,330.00,5.00,0.00,29.90,1010.40,0.50,M,FEW,M,M,M,0.00,M,M,M,FG,M,M,M,M,M,M,45.63,KINS 061410Z AUTO 33005KT 1/2SM R26/1600V3500FT FG FEW000 09/08 A2990 RMK AO2 VIS 1/2V9 SLP104 $,M
BVU,2025-05-06 14:15,-114.8611,35.9475,671.00,57.20,55.40,93.69,0.00,0.00,0.00,29.88,M,10.00,M,SCT,BKN,BKN,M,1300.00,3800.00,4600.00,M,M,M,M,M,M,M,M,57.20,KBVU 061415Z AUTO 00000KT 10SM SCT013 BKN038 BKN046 14/13 A2988 RMK AO2,M
CXP,2025-05-06 14:15,-119.7326,39.1923,1431.00,42.80,23.00,45.14,0.00,0.00,0.00,30.07,M,10.00,M,CLR,M,M,M,M,M,M,M,M,M,M,M,M,M,M,42.80,KCXP 061415Z AUTO 00000KT 10SM CLR 06/M05 A3007 RMK AO2,M
RTS,2025-05-06 14:15,-119.8764,39.6682,1539.00,37.40,19.40,47.80,0.00,0.00,0.00,30.08,M,10.00,M,CLR,M,M,M,M,M,M,M,M,M,M,M,M,M,M,37.40,KRTS 061415Z AUTO 00000KT 10SM CLR 03/M07 A3008 RMK AO2,M
MEV,2025-05-06 14:15,-119.7500,38.9963,1441.42,37.40,30.20,74.98,0.00,0.00,0.00,30.06,M,10.00,M,CLR,M,M,M,M,M,M,M,M,M,M,M,M,M,M,37.40,KMEV 061415Z AUTO 00000KT 10SM CLR 03/M01 A3006 RMK AO2,M
BAM,2025-05-06 14:15,-116.8743,40.5990,1382.36,41.00,33.80,75.33,330.00,6.00,0.00,30.06,M,10.00,M,SCT,OVC,M,M,4000.00,4900.00,M,M,M,M,M,M,M,M,M,36.37,KBAM 061415Z AUTO 33006KT 10SM SCT040 OVC049 05/01 A3006 RMK AO1,M
HTH,2025-05-06 14:15,-118.6315,38.5448,1282.89,50.00,21.20,31.87,350.00,12.00,0.00,30.03,M,10.00,M,CLR,M,M,M,M,M,M,M,M,M,M,M,M,M,M,50.00,KHTH 061415Z AUTO 35012KT 10SM CLR 10/M06 A3003 RMK A01,M
TMT,2025-05-06 14:15,-117.1971,39.4643,1749.34,37.20,27.00,66.29,0.00,0.00,0.00,30.05,M,10.00,M,CLR,M,M,M,M,M,M,M,M,M,M,M,M,M,M,37.20,KTMT 061415Z AUTO 00000KT 10SM CLR 03/M03 A3005 RMK AO2 T00291027,M
INS,2025-05-06 14:20,-115.6733,36.5872,955.00,48.20,46.40,93.45,330.00,4.00,0.00,29.90,1010.40,0.12,M,BKN,M,M,M,0.00,M,M,M,FG,M,M,M,M,M,M,46.34,KINS 061420Z AUTO 33004KT 1/8SM R26/1200V2600FT FG BKN000 09/08 A2990 RMK AO2 BKN V FEW SLP104 $,M
RTS,2025-05-06 14:25,-119.8764,39.6682,1539.00,39.20,19.40,44.55,0.00,0.00,0.00,30.09,M,10.00,M,CLR,M,M,M,M,M,M,M,M,M,M,M,M,M,M,39.20,KRTS 061425Z AUTO 00000KT 10SM CLR 04/M07 A3009 RMK AO2,M
MEV,2025-05-06 14:25,-119.7500,38.9963,1441.42,39.20,30.20,69.88,0.00,0.00,0.00,30.06,M,10.00,M,CLR,M,M,M,M,M,M,M,M,M,M,M,M,M,M,39.20,KMEV 061425Z AUTO 00000KT 10SM CLR 04/M01 A3006 RMK AO2,M
INS,2025-05-06 14:30,-115.6733,36.5872,955.00,50.00,48.20,93.50,0.00,0.00,0.00,29.90,1010.40,2.25,M,SCT,M,M,M,0.00,M,M,M,BR,M,M,M,M,M,M,50.00,KINS 061430Z AUTO 00000KT 2 1/4SM BR SCT000 10/09 A2990 RMK AO2 VIS 1/4V2 1/4 VIS 1/8 RWY08 SLP104 $,M
BVU,2025-05-06 14:35,-114.8611,35.9475,671.00,57.20,55.40,93.69,0.00,0.00,0.00,29.88,M,10.00,M,FEW,M,M,M,3800.00,M,M,M,M,M,M,M,M,M,M,57.20,KBVU 061435Z AUTO 00000KT 10SM FEW038 14/13 A2988 RMK AO2,M
CXP,2025-05-06 14:35,-119.7326,39.1923,1431.00,46.40,23.00,39.36,0.00,0.00,0.00,30.08,M,10.00,M,CLR,M,M,M,M,M,M,M,M,M,M,M,M,M,M,46.40,KCXP 061435Z AUTO 00000KT 10SM CLR 08/M05 A3008 RMK AO2,M
INS,2025-05-06 14:35,-115.6733,36.5872,955.00,50.00,48.20,93.50,0.00,0.00,0.00,29.90,1010.40,7.00,M,SCT,M,M,M,0.00,M,M,M,M,M,M,M,M,M,M,50.00,KINS 061435Z AUTO 00000KT 7SM SCT000 10/09 A2990 RMK AO2 VIS 1/4 RWY08 SLP104 $,M
BAM,2025-05-06 14:35,-116.8743,40.5990,1382.36,41.00,33.80,75.33,340.00,5.00,0.00,30.07,M,10.00,M,SCT,BKN,OVC,M,3500.00,4100.00,4800.00,M,M,M,M,M,M,M,M,37.08,KBAM 061435Z AUTO 34005KT 10SM SCT035 BKN041 OVC048 05/01 A3007 RMK AO1,M
HTH,2025-05-06 14:35,-118.6315,38.5448,1282.89,50.00,21.20,31.87,350.00,14.00,0.00,30.05,M,10.00,M,CLR,M,M,M,M,M,M,M,M,M,M,M,M,M,M,50.00,KHTH 061435Z AUTO 35014KT 10SM CLR 10/M06 A3005 RMK A01,M
TMT,2025-05-06 14:35,-117.1971,39.4643,1749.34,39.20,26.40,59.79,250.00,3.00,0.00,30.05,M,10.00,M,CLR,M,M,M,M,M,M,M,M,M,M,M,M,M,M,36.92,KTMT 061435Z AUTO 25003KT 10SM CLR 04/M03 A3005 RMK AO2 T00401031,M
HND,2025-05-06 14:47,-115.1344,35.9729,742.79,57.20,55.40,93.69,290.00,3.00,0.00,29.92,M,9.00,M,OVC,M,M,M,700.00,M,M,M,M,M,M,M,M,M,M,57.20,KHND 061447Z AUTO 29003KT 9SM OVC007 14/13 A2992 RMK AO2 CIG 004V010 $,M
LOL,2025-05-06 14:53,-118.5701,40.0684,1192.43,51.00,24.00,34.55,20.00,11.00,0.00,30.06,1016.20,10.00,20.00,CLR,M,M,M,M,M,M,M,M,M,M,M,M,M,M,51.00,KLOL 061453Z AUTO 02011G20KT 10SM CLR 11/M04 A3006 RMK AO2 SLP162 T01061044 51012,M
P68,2025-05-06 14:53,-116.0056,39.6014,1993.00,38.00,26.00,61.64,40.00,5.00,0.00,30.00,1013.10,M,M,M,M,M,M,M,M,M,M,M,M,M,M,M,M,M,33.52,KP68 061453Z AUTO 04005KT 03/M03 A3000 RMK AO1 SLP131 T00331033 53013,M
DRA,2025-05-06 14:53,-116.0278,36.6206,1009.00,60.00,35.00,39.03,360.00,5.00,0.00,29.90,1009.60,10.00,M,CLR,M,M,M,M,M,M,M,M,M,M,M,M,M,M,60.00,KDRA 061453Z AUTO 36005KT 10SM CLR 16/02 A2990 RMK AO2 SLP096 T01560017 51015,M
ELY,2025-05-06 14:53,-114.8453,39.2950,1909.00,39.00,25.00,56.86,20.00,11.00,0.00,29.97,1010.70,10.00,M,CLR,M,M,M,M,M,M,M,M,M,M,M,M,M,M,31.31,KELY 061453Z AUTO 02011KT 10SM CLR 04/M04 A2997 RMK AO2 SLP107 T00391039 53011,M
VGT,2025-05-06 14:53,-115.1933,36.2111,667.00,59.00,55.00,86.56,0.00,0.00,0.00,29.89,1013.00,10.00,M,SCT,BKN,M,M,800.00,2800.00,M,M,M,M,M,M,M,M,M,59.00,KVGT 061453Z 00000KT 10SM SCT008 BKN028 15/13 A2989 RMK AO2 SLP130 T01500128 53016,M
RNO,2025-05-06 14:55,-119.7711,39.4839,1341.00,47.00,25.00,41.83,0.00,0.00,0.00,30.07,1015.50,10.00,M,CLR,M,M,M,M,M,M,M,M,M,M,M,M,M,M,47.00,KRNO 061455Z 00000KT 10SM CLR 08/M04 A3007 RMK AO2 SLP155 T00831039 53011,M
BVU,2025-05-06 14:55,-114.8611,35.9475,671.00,57.20,55.40,93.69,0.00,0.00,0.00,29.89,M,10.00,M,SCT,BKN,M,M,4300.00,4800.00,M,M,M,M,M,M,M,M,M,57.20,KBVU 061455Z AUTO 00000KT 10SM SCT043 BKN048 14/13 A2989 RMK AO2,M
CXP,2025-05-06 14:55,-119.7326,39.1923,1431.00,48.20,23.00,36.78,0.00,0.00,0.00,30.09,M,10.00,M,CLR,M,M,M,M,M,M,M,M,M,M,M,M,M,M,48.20,KCXP 061455Z AUTO 00000KT 10SM CLR 09/M05 A3009 RMK AO2,M
RTS,2025-05-06 14:55,-119.8764,39.6682,1539.00,42.80,19.40,38.75,0.00,0.00,0.00,30.08,M,10.00,M,CLR,M,M,M,M,M,M,M,M,M,M,M,M,M,M,42.80,KRTS 061455Z AUTO 00000KT 10SM CLR 06/M07 A3008 RMK AO2,M
MEV,2025-05-06 14:55,-119.7500,38.9963,1441.42,44.60,28.40,52.72,0.00,0.00,0.00,30.07,M,10.00,M,CLR,M,M,M,M,M,M,M,M,M,M,M,M,M,M,44.60,KMEV 061455Z AUTO 00000KT 10SM CLR 07/M02 A3007 RMK AO2,M
BAM,2025-05-06 14:55,-116.8743,40.5990,1382.36,41.00,33.80,75.33,270.00,3.00,0.00,30.07,M,10.00,M,SCT,SCT,OVC,M,3600.00,4400.00,5000.00,M,M,M,M,M,M,M,M,38.98,KBAM 061455Z AUTO 27003KT 10SM SCT036 SCT044 OVC050 05/01 A3007 RMK AO1,M
HTH,2025-05-06 14:55,-118.6315,38.5448,1282.89,51.80,21.20,29.82,360.00,18.00,0.00,30.05,M,10.00,24.00,CLR,M,M,M,M,M,M,M,M,M,M,M,M,M,M,51.80,KHTH 061455Z AUTO 36018G24KT 10SM CLR 11/M06 A3005 RMK A01,M
TMT,2025-05-06 14:55,-117.1971,39.4643,1749.34,40.00,26.00,57.01,0.00,0.00,0.00,30.05,M,10.00,M,CLR,M,M,M,M,M,M,M,M,M,M,M,M,M,M,40.00,KTMT 061455Z AUTO 00000KT 10SM CLR 05/M03 A3005 RMK AO2 T00451034,M
INS,2025-05-06 14:55,-115.6733,36.5872,955.00,50.50,48.00,91.09,0.00,0.00,0.00,29.91,1010.80,5.00,M,BKN,M,M,M,200.00,M,M,M,BR,M,M,M,M,M,M,50.50,KINS 061455Z AUTO 00000KT 5SM BR BKN002 10/09 A2991 RMK AO2 VIS 1/4 RWY08 BKN V SCT SLP108 T01030089 52017 $,M
LSV,2025-05-06 14:55,-115.0343,36.2362,570.00,61.00,54.50,79.15,0.00,0.00,0.00,29.86,1010.10,10.00,M,FEW,SCT,BKN,M,1000.00,3000.00,6000.00,M,M,M,M,M,M,M,M,61.00,KLSV 061455Z COR 00000KT 10SM FEW010 SCT030 BKN060 16/13 A2986 RMK AO2A SLP101 T01620125 52015 $ COR 1504,M
EKO,2025-05-06 14:56,-115.7860,40.8242,1367.00,43.00,34.00,70.30,40.00,7.00,0.00,30.02,1015.20,10.00,M,OVC,M,M,M,3500.00,M,M,M,M,M,M,M,M,M,M,38.19,KEKO 061456Z AUTO 04007KT 10SM OVC035 06/01 A3002 RMK AO2 SLP152 T00610011 53016,M
WMC,2025-05-06 14:56,-117.8072,40.9019,1315.00,46.00,26.00,45.29,360.00,9.00,0.00,30.07,1016.90,10.00,M,CLR,M,M,M,M,M,M,M,M,M,M,M,M,M,M,40.92,KWMC 061456Z AUTO 36009KT 10SM CLR 08/M03 A3007 RMK AO2 SLP169 T00781033 53017,M
TPH,2025-05-06 14:56,-117.0904,38.0505,1654.00,50.00,16.00,25.50,340.00,12.00,0.00,29.99,1012.00,10.00,M,CLR,M,M,M,M,M,M,M,M,M,M,M,M,M,M,50.00,KTPH 061456Z AUTO 34012KT 10SM CLR 10/M09 A2999 RMK AO2 SLP120 T01001089 53013,M
LAS,2025-05-06 14:56,-115.1634,36.0719,663.00,59.00,54.00,83.46,0.00,0.00,0.00,29.91,1011.80,10.00,M,SCT,SCT,BKN,M,1000.00,1800.00,3000.00,M,M,M,M,M,M,M,M,59.00,KLAS 061456Z 00000KT 10SM SCT010 SCT018 BKN030 15/12 A2991 RMK AO2 SLP118 T01500122 53017,M
HND,2025-05-06 14:56,-115.1344,35.9729,742.79,58.00,55.00,89.72,240.00,3.00,0.00,29.92,1014.10,10.00,M,BKN,OVC,M,M,700.00,1800.00,M,M,M,M,M,M,M,M,M,58.00,KHND 061456Z 24003KT 10SM BKN007 OVC018 14/13 A2992 RMK AO2 CIG 005V011 SLP141 60000 T01440128 53018 $,M
NFL,2025-05-06 14:57,-118.7010,39.4166,1199.00,50.00,25.00,37.39,300.00,4.00,0.00,30.05,1014.50,10.00,M,FEW,M,M,M,10000.00,M,M,M,M,M,M,M,M,M,M,50.00,KNFL 061457Z 30004KT 10SM FEW100 10/M04 A3005 RMK AO2 SLP145 T01001039 53014,M
VGT,2025-05-06 15:00,-115.1933,36.2111,667.00,60.00,55.00,83.53,170.00,3.00,0.00,29.89,M,10.00,M,FEW,BKN,M,M,1200.00,3000.00,M,M,M,M,M,M,M,M,M,60.00,KVGT 061500Z 17003KT 10SM FEW012 BKN030 16/13 A2989 RMK AO2 T01560128,M
INS,2025-05-06 15:11,-115.6733,36.5872,955.00,51.80,48.20,87.47,0.00,0.00,0.00,29.91,1010.80,10.00,M,BKN,M,M,M,200.00,M,M,M,M,M,M,M,M,M,M,51.80,KINS 061511Z 00000KT 10SM BKN002 11/09 A2991 RMK VIS 3/8 RWY08 SLP108 $//////////////////////////////////////////////////////////// ///////////////////////////////////////////////////////////// ////////////////////////////////////////////////////////////,M
INS,2025-05-06 15:13,-115.6733,36.5872,955.00,51.80,48.20,87.47,0.00,0.00,0.00,29.91,1010.80,10.00,M,CLR,M,M,M,M,M,M,M,M,M,M,M,M,M,M,51.80,KINS 061513Z 00000KT 10SM CLR 11/09 A2991 RMK VIS 3/8 RWY08 SLP108 $,M
BAM,2025-05-06 15:15,-116.8743,40.5990,1382.36,42.80,33.80,70.28,290.00,4.00,0.00,30.08,M,10.00,M,SCT,OVC,M,M,4400.00,6000.00,M,M,M,M,M,M,M,M,M,40.03,KBAM 061515Z AUTO 29004KT 10SM SCT044 OVC060 06/01 A3008 RMK AO1,M
BVU,2025-05-06 15:15,-114.8611,35.9475,671.00,59.00,55.40,87.83,0.00,0.00,0.00,29.89,M,10.00,M,BKN,BKN,M,M,4200.00,4800.00,M,M,M,M,M,M,M,M,M,59.00,KBVU 061515Z AUTO 00000KT 10SM BKN042 BKN048 15/13 A2989 RMK AO2,M
CXP,2025-05-06 15:15,-119.7326,39.1923,1431.00,50.00,21.20,31.87,0.00,0.00,0.00,30.09,M,10.00,M,CLR,M,M,M,M,M,M,M,M,M,M,M,M,M,M,50.00,KCXP 061515Z AUTO 00000KT 10SM CLR 10/M06 A3009 RMK AO2,M
RTS,2025-05-06 15:15,-119.8764,39.6682,1539.00,44.60,19.40,36.18,150.00,4.00,0.00,30.08,M,10.00,M,CLR,M,M,M,M,M,M,M,M,M,M,M,M,M,M,42.13,KRTS 061515Z AUTO 15004KT 10SM CLR 07/M07 A3008 RMK AO2,M
MEV,2025-05-06 15:15,-119.7500,38.9963,1441.42,46.40,26.60,45.73,0.00,0.00,0.00,30.07,M,10.00,M,CLR,M,M,M,M,M,M,M,M,M,M,M,M,M,M,46.40,KMEV 061515Z AUTO 00000KT 10SM CLR 08/M03 A3007 RMK AO2,M
HTH,2025-05-06 15:15,-118.6315,38.5448,1282.89,51.80,21.20,29.82,360.00,19.00,0.00,30.06,M,10.00,M,CLR,M,M,M,M,M,M,M,M,M,M,M,M,M,M,51.80,KHTH 061515Z AUTO 36019KT 10SM CLR 11/M06 A3006 RMK A01,M
TMT,2025-05-06 15:15,-117.1971,39.4643,1749.34,40.60,26.60,57.10,300.00,5.00,0.00,30.06,M,10.00,M,SCT,BKN,M,M,7500.00,10000.00,M,M,M,M,M,M,M,M,M,36.61,KTMT 061515Z AUTO 30005KT 10SM SCT075 BKN100 05/M03 A3006 RMK AO2 T00481030,M
HND,2025-05-06 15:20,-115.1344,35.9729,742.79,57.20,53.60,87.74,M,M,0.00,29.92,M,10.00,M,SCT,BKN,M,M,900.00,1800.00,M,M,M,M,M,M,M,M,M,57.20,KHND 061520Z 10SM SCT009 BKN018 14/12 A2992 RMK AO2 $,M
CXP,2025-05-06 15:35,-119.7326,39.1923,1431.00,51.80,21.20,29.82,90.00,6.00,0.00,30.08,M,10.00,M,CLR,M,M,M,M,M,M,M,M,M,M,M,M,M,M,51.80,KCXP 061535Z AUTO 09006KT 10SM CLR 11/M06 A3008 RMK AO2,M
RTS,2025-05-06 15:35,-119.8764,39.6682,1539.00,48.20,21.20,34.09,110.00,5.00,0.00,30.09,M,10.00,M,CLR,M,M,M,M,M,M,M,M,M,M,M,M,M,M,45.63,KRTS 061535Z AUTO 11005KT 10SM CLR 09/M06 A3009 RMK AO2,M
MEV,2025-05-06 15:35,-119.7500,38.9963,1441.42,48.20,24.80,39.66,M,3.00,0.00,30.07,M,10.00,M,CLR,M,M,M,M,M,M,M,M,M,M,M,M,M,M,47.21,KMEV 061535Z AUTO VRB03KT 10SM CLR 09/M04 A3007 RMK AO2,M
HTH,2025-05-06 15:35,-118.6315,38.5448,1282.89,51.80,23.00,32.17,350.00,15.00,0.00,30.06,M,10.00,21.00,CLR,M,M,M,M,M,M,M,M,M,M,M,M,M,M,51.80,KHTH 061535Z AUTO 35015G21KT 10SM CLR 11/M05 A3006 RMK A01,M
TMT,2025-05-06 15:35,-117.1971,39.4643,1749.34,41.00,26.20,55.29,330.00,3.00,0.00,30.06,M,10.00,M,SCT,OVC,M,M,7500.00,9000.00,M,M,M,M,M,M,M,M,M,38.98,KTMT 061535Z AUTO 33003KT 10SM SCT075 OVC090 05/M03 A3006 RMK AO2 T00511032,M
BVU,2025-05-06 15:35,-114.8611,35.9475,671.00,60.80,55.40,82.37,0.00,0.00,0.00,29.90,M,10.00,M,FEW,SCT,BKN,M,1100.00,4200.00,5000.00,M,M,M,M,M,M,M,M,60.80,KBVU 061535Z AUTO 00000KT 10SM FEW011 SCT042 BKN050 16/13 A2990 RMK AO2,M
BAM,2025-05-06 15:35,-116.8743,40.5990,1382.36,42.80,33.80,70.28,270.00,3.00,0.00,30.09,M,10.00,M,SCT,BKN,BKN,M,2200.00,4600.00,6000.00,M,M,M,M,M,M,M,M,41.03,KBAM 061535Z AUTO 27003KT 10SM SCT022 BKN046 BKN060 06/01 A3009 RMK AO1,M
HND,2025-05-06 15:38,-115.1344,35.9729,742.79,60.80,53.60,77.14,M,M,0.00,29.92,M,10.00,M,FEW,SCT,M,M,1600.00,3200.00,M,M,M,M,M,M,M,M,M,60.80,KHND 061538Z 10SM FEW016 SCT032 16/12 A2992 RMK AO2 $,M
RTS,2025-05-06 15:45,-119.8764,39.6682,1539.00,48.20,21.20,34.09,100.00,11.00,0.00,30.09,M,10.00,M,CLR,M,M,M,M,M,M,M,M,M,M,M,M,M,M,42.94,KRTS 061545Z AUTO 10011KT 10SM CLR 09/M06 A3009 RMK AO2,M
MEV,2025-05-06 15:45,-119.7500,38.9963,1441.42,50.00,24.80,37.08,M,3.00,0.00,30.06,M,10.00,M,CLR,M,M,M,M,M,M,M,M,M,M,M,M,M,M,50.00,KMEV 061545Z AUTO VRB03KT 10SM CLR 10/M04 A3006 RMK AO2,M
P68,2025-05-06 15:53,-116.0056,39.6014,1993.00,41.00,28.00,59.55,20.00,7.00,0.00,30.02,1013.60,M,M,M,M,M,M,M,M,M,M,M,M,M,M,M,M,M,35.75,KP68 061553Z AUTO 02007KT 05/M02 A3002 RMK AO1 SLP136 T00501022,M
DRA,2025-05-06 15:53,-116.0278,36.6206,1009.00,64.00,25.00,22.56,M,M,0.00,29.91,1009.50,10.00,M,CLR,M,M,M,M,M,M,M,M,M,M,M,M,M,M,64.00,KDRA 061553Z AUTO 10SM CLR 18/M04 A2991 RMK AO2 SLP095 T01781039,M
ELY,2025-05-06 15:53,-114.8453,39.2950,1909.00,42.00,29.00,59.69,30.00,13.00,0.00,29.98,1010.80,10.00,M,SCT,BKN,M,M,7000.00,8500.00,M,M,M,M,M,M,M,M,M,34.38,KELY 061553Z AUTO 03013KT 10SM SCT070 BKN085 06/M02 A2998 RMK AO2 SLP108 T00561017,M
VGT,2025-05-06 15:53,-115.1933,36.2111,667.00,62.00,55.00,77.81,130.00,6.00,0.00,29.89,1013.10,10.00,M,SCT,BKN,M,M,1300.00,3000.00,M,M,M,M,M,M,M,M,M,62.00,KVGT 061553Z 13006KT 10SM SCT013 BKN030 17/13 A2989 RMK AO2 SLP131 T01670128,M
LOL,2025-05-06 15:53,-118.5701,40.0684,1192.43,54.00,24.00,30.94,10.00,18.00,0.00,30.05,1016.10,10.00,25.00,CLR,M,M,M,M,M,M,M,M,M,M,M,27.00,30.00,2025-05-06 15:27,54.00,KLOL 061553Z AUTO 01018G25KT 10SM CLR 12/M04 A3005 RMK AO2 PK WND 03027/1527 SLP161 T01221044,M
BVU,2025-05-06 15:55,-114.8611,35.9475,671.00,60.80,55.40,82.37,0.00,0.00,0.00,29.90,M,10.00,M,SCT,SCT,SCT,M,1200.00,4200.00,5000.00,M,M,M,M,M,M,M,M,60.80,KBVU 061555Z AUTO 00000KT 10SM SCT012 SCT042 SCT050 16/13 A2990 RMK AO2,M
RNO,2025-05-06 15:55,-119.7711,39.4839,1341.00,51.00,23.00,33.13,M,3.00,0.00,30.08,1015.50,10.00,M,CLR,M,M,M,M,M,M,M,M,M,M,M,M,M,M,51.00,KRNO 061555Z VRB03KT 10SM CLR 11/M05 A3008 RMK AO2 SLP155 T01061050,M
BAM,2025-05-06 15:55,-116.8743,40.5990,1382.36,44.60,33.80,65.61,310.00,4.00,0.00,30.09,M,10.00,M,SCT,SCT,BKN,M,2200.00,4800.00,8500.00,M,M,M,M,M,M,M,M,42.13,KBAM 061555Z AUTO 31004KT 10SM SCT022 SCT048 BKN085 07/01 A3009 RMK AO1,M
CXP,2025-05-06 15:55,-119.7326,39.1923,1431.00,51.80,21.20,29.82,80.00,8.00,0.00,30.08,M,10.00,14.00,CLR,M,M,M,M,M,M,M,M,M,M,M,M,M,M,51.80,KCXP 061555Z AUTO 08008G14KT 10SM CLR 11/M06 A3008 RMK AO2,M
HTH,2025-05-06 15:55,-118.6315,38.5448,1282.89,53.60,23.00,30.11,350.00,15.00,0.00,30.06,M,10.00,M,CLR,M,M,M,M,M,M,M,M,M,M,M,M,M,M,53.60,KHTH 061555Z AUTO 35015KT 10SM CLR 12/M05 A3006 RMK A01,M
TMT,2025-05-06 15:55,-117.1971,39.4643,1749.34,43.00,26.20,51.19,350.00,8.00,0.00,30.06,M,10.00,M,SCT,BKN,M,M,7500.00,9000.00,M,M,M,M,M,M,M,M,M,37.66,KTMT 061555Z AUTO 35008KT 10SM SCT075 BKN090 06/M03 A3006 RMK AO2 T00621032,M
LSV,2025-05-06 15:55,-115.0343,36.2362,570.00,62.00,55.40,78.95,180.00,4.00,0.00,29.86,1010.10,10.00,M,FEW,SCT,BKN,M,1000.00,3000.00,5000.00,M,M,M,M,M,M,M,M,62.00,KLSV 061555Z 18004KT 10SM FEW010 SCT030 BKN050 17/13 A2986 RMK AO2A SLP101 T01670130 $,M
EKO,2025-05-06 15:56,-115.7860,40.8242,1367.00,44.00,33.00,65.01,40.00,16.00,0.00,30.03,1015.30,10.00,M,OVC,M,M,M,3800.00,M,M,M,M,M,M,M,26.00,30.00,2025-05-06 15:46,36.06,KEKO 061556Z AUTO 04016KT 10SM OVC038 07/01 A3003 RMK AO2 PK WND 03026/1546 SLP153 T00670006,M
WMC,2025-05-06 15:56,-117.8072,40.9019,1315.00,49.00,27.00,42.16,30.00,10.00,0.00,30.08,1017.10,10.00,M,CLR,M,M,M,M,M,M,M,M,M,M,M,M,M,M,44.29,KWMC 061556Z AUTO 03010KT 10SM CLR 09/M03 A3008 RMK AO2 SLP171 T00941028,M
HND,2025-05-06 15:56,-115.1344,35.9729,742.79,61.00,54.00,77.72,M,M,0.00,29.92,1013.90,10.00,M,FEW,M,M,M,3200.00,M,M,M,M,M,M,M,M,M,M,61.00,KHND 061556Z 10SM FEW032 16/12 A2992 RMK AO2 SLP139 T01610122 $,M
TPH,2025-05-06 15:56,-117.0904,38.0505,1654.00,51.00,18.00,26.79,330.00,9.00,0.00,29.99,1011.90,10.00,M,CLR,M,M,M,M,M,M,M,M,M,M,M,M,M,M,51.00,KTPH 061556Z AUTO 33009KT 10SM CLR 11/M08 A2999 RMK AO2 SLP119 T01061078,M
LAS,2025-05-06 15:56,-115.1634,36.0719,663.00,63.00,55.00,75.11,0.00,0.00,0.00,29.91,1011.60,10.00,M,SCT,SCT,M,M,1500.00,6000.00,M,M,M,M,M,M,M,M,M,63.00,KLAS 061556Z 00000KT 10SM SCT015 SCT060 17/13 A2991 RMK AO2 SLP116 T01720128,M
NFL,2025-05-06 15:57,-118.7010,39.4166,1199.00,55.00,25.00,31.11,10.00,13.00,0.00,30.06,1014.70,10.00,M,FEW,M,M,M,10000.00,M,M,M,M,M,M,M,M,M,M,55.00,KNFL 061557Z 01013KT 10SM FEW100 13/M04 A3006 RMK AO2 SLP147 T01281039,M
BVU,2025-05-06 16:15,-114.8611,35.9475,671.00,60.80,55.40,82.37,160.00,4.00,0.00,29.90,M,10.00,M,FEW,M,M,M,1400.00,M,M,M,M,M,M,M,M,M,M,60.80,KBVU 061615Z AUTO 16004KT 10SM FEW014 16/13 A2990 RMK AO2,M
BAM,2025-05-06 16:15,-116.8743,40.5990,1382.36,44.60,35.60,70.48,20.00,3.00,0.00,30.08,M,10.00,M,SCT,M,M,M,8500.00,M,M,M,M,M,M,M,M,M,M,43.09,KBAM 061615Z AUTO 02003KT 10SM SCT085 07/02 A3008 RMK AO1,M
CXP,2025-05-06 16:15,-119.7326,39.1923,1431.00,53.60,21.20,27.91,60.00,11.00,0.00,30.09,M,10.00,M,CLR,M,M,M,M,M,M,M,M,M,M,M,M,M,M,53.60,KCXP 061615Z AUTO 06011KT 10SM CLR 12/M06 A3009 RMK AO2,M
RTS,2025-05-06 16:15,-119.8764,39.6682,1539.00,50.00,21.20,31.87,80.00,8.00,0.00,30.09,M,10.00,15.00,CLR,M,M,M,M,M,M,M,M,M,M,M,M,M,M,50.00,KRTS 061615Z AUTO 08008G15KT 10SM CLR 10/M06 A3009 RMK AO2,M
MEV,2025-05-06 16:15,-119.7500,38.9963,1441.42,51.80,23.00,32.17,M,4.00,0.00,30.07,M,10.00,M,CLR,M,M,M,M,M,M,M,M,M,M,M,M,M,M,51.80,KMEV 061615Z AUTO VRB04KT 10SM CLR 11/M05 A3007 RMK AO2,M
HTH,2025-05-06 16:15,-118.6315,38.5448,1282.89,53.60,23.00,30.11,360.00,13.00,0.00,30.06,M,10.00,M,CLR,M,M,M,M,M,M,M,M,M,M,M,M,M,M,53.60,KHTH 061615Z AUTO 36013KT 10SM CLR 12/M05 A3006 RMK A01,M
TMT,2025-05-06 16:15,-117.1971,39.4643,1749.34,42.40,25.70,51.31,10.00,11.00,0.00,30.07,M,10.00,M,SCT,BKN,BKN,M,5000.00,6500.00,9000.00,M,M,M,M,M,M,M,M,35.61,KTMT 061615Z AUTO 01011KT 10SM SCT050 BKN065 BKN090 06/M03 A3007 RMK AO2 T00581035,M
VGT,2025-05-06 16:22,-115.1933,36.2111,667.00,64.00,54.00,69.92,120.00,5.00,0.00,29.89,M,10.00,M,BKN,BKN,M,M,2900.00,3300.00,M,M,M,M,M,M,M,M,M,64.00,KVGT 061622Z 12005KT 10SM BKN029 BKN033 18/12 A2989 RMK AO2 T01780122,M
INS,2025-05-06 16:24,-115.6733,36.5872,955.00,60.80,42.80,51.45,0.00,0.00,0.00,29.90,1010.00,10.00,M,CLR,M,M,M,M,M,M,M,M,M,M,M,M,M,M,60.80,KINS 061624Z 00000KT 10SM CLR 16/06 A2990 RMK SLP100 $,M
BVU,2025-05-06 16:35,-114.8611,35.9475,671.00,62.60,55.40,77.29,0.00,0.00,0.00,29.89,M,10.00,M,BKN,BKN,M,M,1600.00,4300.00,M,M,M,M,M,M,M,M,M,62.60,KBVU 061635Z AUTO 00000KT 10SM BKN016 BKN043 17/13 A2989 RMK AO2,M
LSV,2025-05-06 16:35,-115.0343,36.2362,570.00,62.60,55.40,77.29,70.00,6.00,0.00,29.86,1010.10,10.00,M,BKN,OVC,M,M,1700.00,2500.00,M,M,M,M,M,M,M,M,M,62.60,KLSV 061635Z 07006KT 10SM BKN017 OVC025 17/13 A2986 RMK AO2A SLP101 $,M
BAM,2025-05-06 16:35,-116.8743,40.5990,1382.36,46.40,35.60,65.83,0.00,0.00,0.00,30.08,M,10.00,M,CLR,M,M,M,M,M,M,M,M,M,M,M,M,M,M,46.40,KBAM 061635Z AUTO 00000KT 10SM CLR 08/02 A3008 RMK AO1,M
CXP,2025-05-06 16:35,-119.7326,39.1923,1431.00,53.60,21.20,27.91,80.00,10.00,0.00,30.08,M,10.00,M,CLR,M,M,M,M,M,M,M,M,M,M,M,M,M,M,53.60,KCXP 061635Z AUTO 08010KT 050V110 10SM CLR 12/M06 A3008 RMK AO2,M
RTS,2025-05-06 16:35,-119.8764,39.6682,1539.00,51.80,21.20,29.82,50.00,9.00,0.00,30.09,M,10.00,M,CLR,M,M,M,M,M,M,M,M,M,M,M,M,M,M,51.80,KRTS 061635Z AUTO 05009KT 10SM CLR 11/M06 A3009 RMK AO2,M
MEV,2025-05-06 16:35,-119.7500,38.9963,1441.42,53.60,21.20,27.91,20.00,4.00,0.00,30.07,M,10.00,M,CLR,M,M,M,M,M,M,M,M,M,M,M,M,M,M,53.60,KMEV 061635Z AUTO 02004KT 10SM CLR 12/M06 A3007 RMK AO2,M
HTH,2025-05-06 16:35,-118.6315,38.5448,1282.89,53.60,23.00,30.11,360.00,17.00,0.00,30.06,M,10.00,M,CLR,M,M,M,M,M,M,M,M,M,M,M,M,M,M,53.60,KHTH 061635Z AUTO 36017KT 10SM CLR 12/M05 A3006 RMK A01,M
TMT,2025-05-06 16:35,-117.1971,39.4643,1749.34,42.00,26.00,52.76,10.00,10.00,0.00,30.08,M,10.00,14.00,SCT,SCT,BKN,M,2800.00,3800.00,5000.00,M,M,M,M,M,M,M,M,35.51,KTMT 061635Z AUTO 01010G14KT 10SM SCT028 SCT038 BKN050 06/M03 A3008 RMK AO2 T00551033,M
VGT,2025-05-06 16:42,-115.1933,36.2111,667.00,65.00,52.00,62.74,M,5.00,0.00,29.89,M,10.00,M,SCT,SCT,M,M,2700.00,3500.00,M,M,M,M,M,M,M,M,M,65.00,KVGT 061642Z VRB05KT 10SM SCT027 SCT035 18/11 A2989 RMK AO2 T01830111,M
LSV,2025-05-06 16:42,-115.0343,36.2362,570.00,62.60,55.40,77.29,40.00,6.00,0.00,29.86,1010.10,10.00,M,FEW,SCT,BKN,M,2000.00,5000.00,8000.00,M,M,M,M,M,M,M,M,62.60,KLSV 061642Z COR 04006KT 10SM FEW020 SCT050 BKN080 17/13 A2986 RMK SLP101 $ COR 1643,M
P68,2025-05-06 16:53,-116.0056,39.6014,1993.00,42.00,32.00,67.42,360.00,9.00,0.00,30.03,1014.50,M,M,M,M,M,M,M,M,M,M,M,M,M,M,M,M,M,35.95,KP68 061653Z AUTO 36009KT 06/00 A3003 RMK AO1 SLP145 T00560000,M
DRA,2025-05-06 16:53,-116.0278,36.6206,1009.00,67.00,19.00,15.77,30.00,13.00,0.00,29.90,1009.60,10.00,19.00,CLR,M,M,M,M,M,M,M,M,M,M,M,M,M,M,67.00,KDRA 061653Z AUTO 03013G19KT 10SM CLR 19/M07 A2990 RMK AO2 SLP096 T01941072,M
ELY,2025-05-06 16:53,-114.8453,39.2950,1909.00,45.00,31.00,57.73,10.00,16.00,0.00,29.99,1010.80,10.00,M,FEW,SCT,OVC,M,5000.00,6000.00,9000.00,M,M,M,M,M,M,M,M,37.36,KELY 061653Z AUTO 01016KT 10SM FEW050 SCT060 OVC090 07/M01 A2999 RMK AO2 SLP108 T00721006,M
VGT,2025-05-06 16:53,-115.1933,36.2111,667.00,66.00,52.00,60.60,0.00,0.00,0.00,29.89,1012.70,10.00,M,FEW,M,M,M,3000.00,M,M,M,M,M,M,M,M,M,M,66.00,KVGT 061653Z 00000KT 10SM FEW030 19/11 A2989 RMK AO2 SLP127 T01890111,M
LOL,2025-05-06 16:53,-118.5701,40.0684,1192.43,55.00,24.00,29.83,30.00,10.00,0.00,30.06,1016.60,10.00,20.00,CLR,M,M,M,M,M,M,M,M,M,M,M,M,M,M,55.00,KLOL 061653Z AUTO 03010G20KT 10SM CLR 13/M04 A3006 RMK AO2 SLP166 T01281044,M
BVU,2025-05-06 16:55,-114.8611,35.9475,671.00,62.60,55.40,77.29,150.00,4.00,0.00,29.89,M,10.00,M,BKN,M,M,M,1800.00,M,M,M,M,M,M,M,M,M,M,62.60,KBVU 061655Z AUTO 15004KT 10SM BKN018 17/13 A2989 RMK AO2,M
RNO,2025-05-06 16:55,-119.7711,39.4839,1341.00,55.00,22.00,27.43,0.00,0.00,0.00,30.08,1015.60,10.00,M,CLR,M,M,M,M,M,M,M,M,M,M,M,M,M,M,55.00,KRNO 061655Z 00000KT 10SM CLR 13/M06 A3008 RMK AO2 SLP156 T01281056,M
BAM,2025-05-06 16:55,-116.8743,40.5990,1382.36,46.40,33.80,61.28,270.00,3.00,0.00,30.08,M,10.00,M,CLR,M,M,M,M,M,M,M,M,M,M,M,M,M,M,45.15,KBAM 061655Z AUTO 27003KT 10SM CLR 08/01 A3008 RMK AO1,M
CXP,2025-05-06 16:55,-119.7326,39.1923,1431.00,55.40,21.20,26.13,80.00,7.00,0.00,30.08,M,10.00,15.00,CLR,M,M,M,M,M,M,M,M,M,M,M,M,M,M,55.40,KCXP 061655Z AUTO 08007G15KT 10SM CLR 13/M06 A3008 RMK AO2,M
RTS,2025-05-06 16:55,-119.8764,39.6682,1539.00,51.80,21.20,29.82,60.00,8.00,0.00,30.09,M,10.00,15.00,CLR,M,M,M,M,M,M,M,M,M,M,M,M,M,M,51.80,KRTS 061655Z AUTO 06008G15KT 030V100 10SM CLR 11/M06 A3009 RMK AO2,M
MEV,2025-05-06 16:55,-119.7500,38.9963,1441.42,53.60,21.20,27.91,0.00,0.00,0.00,30.07,M,10.00,10.00,CLR,M,M,M,M,M,M,M,M,M,M,M,M,M,M,53.60,KMEV 061655Z AUTO 00000G10KT 10SM CLR 12/M06 A3007 RMK AO2,M
HTH,2025-05-06 16:55,-118.6315,38.5448,1282.89,55.40,23.00,28.20,360.00,17.00,0.00,30.06,M,10.00,M,CLR,M,M,M,M,M,M,M,M,M,M,M,M,M,M,55.40,KHTH 061655Z AUTO 36017KT 10SM CLR 13/M05 A3006 RMK A01,M
TMT,2025-05-06 16:55,-117.1971,39.4643,1749.34,42.30,27.00,54.36,50.00,7.00,0.00,30.08,M,10.00,M,SCT,OVC,M,M,3800.00,7000.00,M,M,M,M,M,M,M,M,M,37.33,KTMT 061655Z AUTO 05007KT 10SM SCT038 OVC070 06/M03 A3008 RMK AO2 T00571027,M
INS,2025-05-06 16:55,-115.6733,36.5872,955.00,63.00,34.30,34.13,0.00,0.00,0.00,29.90,1009.80,10.00,M,CLR,M,M,M,M,M,M,M,M,M,M,M,M,M,M,63.00,KINS 061655Z AUTO 00000KT 10SM CLR 17/01 A2990 RMK AO2 SLP098 T01730013 $,M
LSV,2025-05-06 16:55,-115.0343,36.2362,570.00,62.60,55.20,76.73,0.00,0.00,0.00,29.85,1009.80,10.00,M,FEW,SCT,BKN,M,3000.00,8000.00,10000.00,M,M,M,M,M,M,M,M,62.60,KLSV 061655Z COR 00000KT 10SM FEW030 SCT080 BKN100 17/13 A2985 RMK AO2A SLP098 T01700129 $ COR 1657,M
EKO,2025-05-06 16:56,-115.7860,40.8242,1367.00,46.00,32.00,57.87,30.00,9.00,T,30.04,1016.10,10.00,M,OVC,M,M,M,3600.00,M,M,M,M,M,M,M,M,M,M,40.92,KEKO 061656Z AUTO 03009KT 10SM OVC036 08/00 A3004 RMK AO2 RAB15E28 SLP161 P0000 T00780000,M
WMC,2025-05-06 16:56,-117.8072,40.9019,1315.00,53.00,29.00,39.47,30.00,11.00,0.00,30.07,1016.60,10.00,16.00,CLR,M,M,M,M,M,M,M,M,M,M,M,M,M,M,53.00,KWMC 061656Z AUTO 03011G16KT 10SM CLR 12/M02 A3007 RMK AO2 SLP166 T01171017,M
HND,2025-05-06 16:56,-115.1344,35.9729,742.79,65.00,53.00,65.09,310.00,3.00,0.00,29.92,1013.60,10.00,M,CLR,M,M,M,M,M,M,M,M,M,M,M,M,M,M,65.00,KHND 061656Z 31003KT 10SM CLR 18/12 A2992 RMK AO2 SLP136 T01830117 $,M
TPH,2025-05-06 16:56,-117.0904,38.0505,1654.00,53.00,19.00,25.98,310.00,14.00,0.00,29.99,1011.80,10.00,25.00,CLR,M,M,M,M,M,M,M,M,M,M,M,26.00,300.00,2025-05-06 16:35,53.00,KTPH 061656Z AUTO 31014G25KT 10SM CLR 12/M07 A2999 RMK AO2 PK WND 30026/1635 SLP118 T01171072,M
LAS,2025-05-06 16:56,-115.1634,36.0719,663.00,64.00,53.00,67.41,0.00,0.00,0.00,29.90,1011.40,10.00,M,SCT,SCT,M,M,2500.00,6000.00,M,M,M,M,M,M,M,M,M,64.00,KLAS 061656Z 00000KT 10SM SCT025 SCT060 18/12 A2990 RMK AO2 SLP114 T01780117,M
NFL,2025-05-06 16:57,-118.7010,39.4166,1199.00,57.00,24.00,27.75,10.00,10.00,0.00,30.06,1014.80,10.00,20.00,FEW,FEW,M,M,6000.00,12000.00,M,M,M,M,M,M,M,M,M,57.00,KNFL 061657Z 01010G20KT 10SM FEW060 FEW120 14/M04 A3006 RMK AO2 SLP148 T01391044,M
BVU,2025-05-06 17:15,-114.8611,35.9475,671.00,62.60,55.40,77.29,M,3.00,0.00,29.88,M,10.00,M,SCT,M,M,M,1900.00,M,M,M,M,M,M,M,M,M,M,62.60,KBVU 061715Z AUTO VRB03KT 10SM SCT019 17/13 A2988 RMK AO2,M
BAM,2025-05-06 17:15,-116.8743,40.5990,1382.36,50.00,33.80,53.54,0.00,0.00,0.00,30.08,M,10.00,M,CLR,M,M,M,M,M,M,M,M,M,M,M,M,M,M,50.00,KBAM 061715Z AUTO 00000KT 10SM CLR 10/01 A3008 RMK AO1,M
CXP,2025-05-06 17:15,-119.7326,39.1923,1431.00,55.40,21.20,26.13,60.00,11.00,0.00,30.09,M,10.00,M,CLR,M,M,M,M,M,M,M,M,M,M,M,M,M,M,55.40,KCXP 061715Z AUTO 06011KT 10SM CLR 13/M06 A3009 RMK AO2,M
RTS,2025-05-06 17:15,-119.8764,39.6682,1539.00,51.80,21.20,29.82,60.00,11.00,0.00,30.10,M,10.00,M,CLR,M,M,M,M,M,M,M,M,M,M,M,M,M,M,51.80,KRTS 061715Z AUTO 06011KT 10SM CLR 11/M06 A3010 RMK AO2,M
MEV,2025-05-06 17:15,-119.7500,38.9963,1441.42,55.40,21.20,26.13,340.00,9.00,0.00,30.07,M,10.00,M,CLR,M,M,M,M,M,M,M,M,M,M,M,M,M,M,55.40,KMEV 061715Z AUTO 34009KT 10SM CLR 13/M06 A3007 RMK AO2,M
HTH,2025-05-06 17:15,-118.6315,38.5448,1282.89,55.40,21.20,26.13,20.00,16.00,0.00,30.07,M,10.00,22.00,CLR,M,M,M,M,M,M,M,M,M,M,M,M,M,M,55.40,KHTH 061715Z AUTO 02016G22KT 10SM CLR 13/M06 A3007 RMK A01,M
TMT,2025-05-06 17:15,-117.1971,39.4643,1749.34,42.60,26.60,52.85,0.00,0.00,0.00,30.08,M,10.00,M,SCT,SCT,OVC,M,3800.00,4500.00,7500.00,M,M,M,M,M,M,M,M,42.60,KTMT 061715Z AUTO 00000KT 10SM SCT038 SCT045 OVC075 06/M03 A3008 RMK AO2 T00591030,M
RTS,2025-05-06 17:25,-119.8764,39.6682,1539.00,53.60,21.20,27.91,50.00,9.00,0.00,30.10,M,10.00,M,CLR,M,M,M,M,M,M,M,M,M,M,M,M,M,M,53.60,KRTS 061725Z AUTO 05009KT 10SM CLR 12/M06 A3010 RMK AO2,M
MEV,2025-05-06 17:25,-119.7500,38.9963,1441.42,55.40,21.20,26.13,M,3.00,0.00,30.07,M,10.00,11.00,CLR,M,M,M,M,M,M,M,M,M,M,M,M,M,M,55.40,KMEV 061725Z AUTO VRB03G11KT 10SM CLR 13/M06 A3007 RMK AO2,M
BVU,2025-05-06 17:35,-114.8611,35.9475,671.00,64.40,53.60,67.95,240.00,3.00,0.00,29.88,M,10.00,M,CLR,M,M,M,M,M,M,M,M,M,M,M,M,M,M,64.40,KBVU 061735Z AUTO 24003KT 10SM CLR 18/12 A2988 RMK AO2,M
BAM,2025-05-06 17:35,-116.8743,40.5990,1382.36,50.00,33.80,53.54,0.00,0.00,0.00,30.08,M,10.00,M,CLR,M,M,M,M,M,M,M,M,M,M,M,M,M,M,50.00,KBAM 061735Z AUTO 00000KT 10SM CLR 10/01 A3008 RMK AO1,M
CXP,2025-05-06 17:35,-119.7326,39.1923,1431.00,55.40,21.20,26.13,90.00,10.00,0.00,30.09,M,10.00,19.00,CLR,M,M,M,M,M,M,M,M,M,M,M,M,M,M,55.40,KCXP 061735Z AUTO 09010G19KT 10SM CLR 13/M06 A3009 RMK AO2,M
HTH,2025-05-06 17:35,-118.6315,38.5448,1282.89,57.20,21.20,24.49,10.00,13.00,0.00,30.07,M,10.00,21.00,CLR,M,M,M,M,M,M,M,M,M,M,M,M,M,M,57.20,KHTH 061735Z AUTO 01013G21KT 10SM CLR 14/M06 A3007 RMK A01,M
TMT,2025-05-06 17:35,-117.1971,39.4643,1749.34,44.00,27.00,50.93,0.00,0.00,0.00,30.08,M,10.00,M,SCT,SCT,SCT,M,3800.00,4600.00,7500.00,M,M,M,M,M,M,M,M,44.00,KTMT 061735Z AUTO 00000KT 10SM SCT038 SCT046 SCT075 07/M03 A3008 RMK AO2 T00671027,M
P68,2025-05-06 17:53,-116.0056,39.6014,1993.00,43.00,34.00,70.30,M,4.00,0.00,30.04,1014.70,M,M,M,M,M,M,M,M,M,M,M,M,M,M,M,M,M,40.27,KP68 061753Z AUTO VRB04KT 06/01 A3004 RMK AO1 SLP147 T00610011 10061 21033 51009,M
DRA,2025-05-06 17:53,-116.0278,36.6206,1009.00,68.00,20.00,15.90,M,3.00,0.00,29.89,1009.30,10.00,M,CLR,M,M,M,M,M,M,M,M,M,M,M,M,M,M,68.00,KDRA 061753Z AUTO VRB03KT 10SM CLR 20/M07 A2989 RMK AO2 SLP093 T02001067 10217 20078 58002,M
ELY,2025-05-06 17:53,-114.8453,39.2950,1909.00,43.00,30.00,59.83,20.00,17.00,0.00,30.00,1012.30,10.00,27.00,SCT,BKN,M,M,8500.00,10000.00,M,M,M,M,M,M,27.00,20.00,2025-05-06 17:47,34.49,KELY 061753Z AUTO 02017G27KT 10SM SCT085 BKN100 06/M01 A3000 RMK AO2 PK WND 02027/1747 SLP123 T00611011 10083 21028 53008,M
VGT,2025-05-06 17:53,-115.1933,36.2111,667.00,67.00,49.00,52.37,90.00,4.00,0.00,29.87,1012.10,10.00,M,FEW,M,M,M,3200.00,M,M,M,M,M,M,M,M,M,M,67.00,KVGT 061753Z 09004KT 10SM FEW032 19/09 A2987 RMK AO2 SLP121 T01940094 10200 20144 58006,M
LOL,2025-05-06 17:53,-118.5701,40.0684,1192.43,56.00,24.00,28.77,100.00,8.00,0.00,30.06,1016.60,10.00,M,CLR,M,M,M,M,M,M,M,M,M,M,M,M,M,M,56.00,KLOL 061753Z AUTO 10008KT 10SM CLR 13/M04 A3006 RMK AO2 SLP166 T01331044 10139 20050 53002,M
BVU,2025-05-06 17:55,-114.8611,35.9475,671.00,64.40,55.40,72.56,0.00,0.00,0.00,29.88,M,10.00,M,SCT,M,M,M,2200.00,M,M,M,M,M,M,M,M,M,M,64.40,KBVU 061755Z AUTO 00000KT 10SM SCT022 18/13 A2988 RMK AO2,M
RNO,2025-05-06 17:55,-119.7711,39.4839,1341.00,57.00,22.00,25.51,90.00,4.00,0.00,30.08,1015.80,10.00,M,CLR,M,M,M,M,M,M,M,M,M,M,M,M,M,M,57.00,KRNO 061755Z 09004KT 10SM CLR 14/M06 A3008 RMK AO2 SLP158 T01391056 10139 20044 51002,M
BAM,2025-05-06 17:55,-116.8743,40.5990,1382.36,51.80,33.80,50.08,0.00,0.00,0.00,30.08,M,10.00,M,SCT,M,M,M,3500.00,M,M,M,M,M,M,M,M,M,M,51.80,KBAM 061755Z AUTO 00000KT 10SM SCT035 11/01 A3008 RMK AO1,M
CXP,2025-05-06 17:55,-119.7326,39.1923,1431.00,55.40,21.20,26.13,50.00,10.00,0.00,30.09,M,10.00,17.00,CLR,M,M,M,M,M,M,M,M,M,M,M,M,M,M,55.40,KCXP 061755Z AUTO 05010G17KT 10SM CLR 13/M06 A3009 RMK AO2,M
RTS,2025-05-06 17:55,-119.8764,39.6682,1539.00,53.60,19.40,25.85,40.00,7.00,0.00,30.10,M,10.00,16.00,CLR,M,M,M,M,M,M,M,M,M,M,M,M,M,M,53.60,KRTS 061755Z AUTO 04007G16KT 10SM CLR 12/M07 A3010 RMK AO2,M
MEV,2025-05-06 17:55,-119.7500,38.9963,1441.42,57.20,21.20,24.49,340.00,8.00,0.00,30.07,M,10.00,14.00,CLR,M,M,M,M,M,M,M,M,M,M,M,M,M,M,57.20,KMEV 061755Z AUTO 34008G14KT 310V030 10SM CLR 14/M06 A3007 RMK AO2,M
HTH,2025-05-06 17:55,-118.6315,38.5448,1282.89,57.20,21.20,24.49,350.00,20.00,0.00,30.06,M,10.00,26.00,CLR,M,M,M,M,M,M,M,M,M,M,M,M,M,M,57.20,KHTH 061755Z AUTO 35020G26KT 10SM CLR 14/M06 A3006 RMK A01,M
TMT,2025-05-06 17:55,-117.1971,39.4643,1749.34,44.60,28.20,52.29,30.00,5.00,0.00,30.08,M,10.00,M,SCT,M,M,M,3800.00,M,M,M,M,M,M,M,M,M,M,41.36,KTMT 061755Z AUTO 03005KT 10SM SCT038 07/M02 A3008 RMK AO2 T00701021 10077 21031,M
INS,2025-05-06 17:55,-115.6733,36.5872,955.00,67.00,26.80,21.90,20.00,4.00,0.00,29.89,1009.30,10.00,M,CLR,M,M,M,M,M,M,M,M,M,M,M,M,M,M,67.00,KINS 061755Z AUTO 02004KT 10SM CLR 19/M03 A2989 RMK AO2 SLP093 T01941029 10194 20085 58007 $,M
LSV,2025-05-06 17:55,-115.0343,36.2362,570.00,67.00,53.00,60.73,0.00,0.00,0.00,29.84,1009.30,10.00,M,SCT,SCT,M,M,4000.00,6000.00,M,M,M,M,M,M,M,M,M,67.00,KLSV 061755Z 00000KT 10SM SCT040 SCT060 19/12 A2984 RMK AO2A SLP093 T01940117 10194 20154 58005 $,M
EKO,2025-05-06 17:56,-115.7860,40.8242,1367.00,49.00,32.00,51.70,40.00,13.00,0.00,30.04,1016.00,10.00,M,BKN,M,M,M,4900.00,M,M,M,M,M,M,M,M,M,M,43.35,KEKO 061756Z AUTO 04013KT 10SM BKN049 09/00 A3004 RMK AO2 SLP160 60000 T00940000 10100 20039 50006,M
WMC,2025-05-06 17:56,-117.8072,40.9019,1315.00,55.00,29.00,36.69,50.00,9.00,0.00,30.07,1016.50,10.00,M,CLR,M,M,M,M,M,M,M,M,M,M,M,M,M,M,55.00,KWMC 061756Z AUTO 05009KT 10SM CLR 13/M02 A3007 RMK AO2 SLP165 T01281017 10128 20028 58002,M
HND,2025-05-06 17:56,-115.1344,35.9729,742.79,68.00,52.00,56.55,M,3.00,0.00,29.90,1013.00,10.00,M,FEW,M,M,M,3400.00,M,M,M,M,M,M,M,M,M,M,68.00,KHND 061756Z VRB03KT 10SM FEW034 20/11 A2990 RMK AO2 SLP130 60000 T02000111 10200 20133 58007 $,M
TPH,2025-05-06 17:56,-117.0904,38.0505,1654.00,55.00,19.00,24.14,330.00,16.00,0.00,30.00,1012.20,10.00,28.00,CLR,M,M,M,M,M,M,M,M,M,M,M,28.00,320.00,2025-05-06 17:55,55.00,KTPH 061756Z AUTO 33016G28KT 10SM CLR 13/M07 A3000 RMK AO2 PK WND 32028/1755 SLP122 T01281072 10128 20044 53001,M
LAS,2025-05-06 17:56,-115.1634,36.0719,663.00,67.00,52.00,58.53,90.00,4.00,0.00,29.88,1010.60,10.00,M,FEW,SCT,M,M,3300.00,6000.00,M,M,M,M,M,M,M,M,M,67.00,KLAS 061756Z 09004KT 10SM FEW033 SCT060 19/11 A2988 RMK AO2 SLP106 T01940111 10194 20139 58008,M
NFL,2025-05-06 17:57,-118.7010,39.4166,1199.00,59.00,25.00,26.92,40.00,9.00,0.00,30.06,1014.90,10.00,17.00,FEW,FEW,M,M,6000.00,12000.00,M,M,M,M,M,M,M,M,M,59.00,KNFL 061757Z 04009G17KT 10SM FEW060 FEW120 15/M04 A3006 RMK AO2 SLP149 T01501039 10150 20039 51004,M
BVU,2025-05-06 18:15,-114.8611,35.9475,671.00,66.20,55.40,68.15,100.00,7.00,0.00,29.87,M,10.00,M,BKN,BKN,M,M,2500.00,2900.00,M,M,M,M,M,M,M,M,M,66.20,KBVU 061815Z AUTO 10007KT 070V130 10SM BKN025 BKN029 19/13 A2987 RMK AO2,M
BAM,2025-05-06 18:15,-116.8743,40.5990,1382.36,51.80,33.80,50.08,20.00,4.00,0.00,30.08,M,10.00,M,SCT,SCT,M,M,3700.00,6500.00,M,M,M,M,M,M,M,M,M,51.80,KBAM 061815Z AUTO 02004KT 10SM SCT037 SCT065 11/01 A3008 RMK AO1,M
CXP,2025-05-06 18:15,-119.7326,39.1923,1431.00,57.20,21.20,24.49,80.00,8.00,0.00,30.08,M,10.00,13.00,CLR,M,M,M,M,M,M,M,M,M,M,M,M,M,M,57.20,KCXP 061815Z AUTO 08008G13KT 050V110 10SM CLR 14/M06 A3008 RMK AO2,M
RTS,2025-05-06 18:15,-119.8764,39.6682,1539.00,53.60,19.40,25.85,80.00,9.00,0.00,30.09,M,10.00,M,CLR,M,M,M,M,M,M,M,M,M,M,M,M,M,M,53.60,KRTS 061815Z AUTO 08009KT 060V130 10SM CLR 12/M07 A3009 RMK AO2,M
MEV,2025-05-06 18:15,-119.7500,38.9963,1441.42,57.20,21.20,24.49,320.00,10.00,0.00,30.06,M,10.00,17.00,CLR,M,M,M,M,M,M,M,M,M,M,M,M,M,M,57.20,KMEV 061815Z AUTO 32010G17KT 10SM CLR 14/M06 A3006 RMK AO2,M
HTH,2025-05-06 18:15,-118.6315,38.5448,1282.89,57.20,21.20,24.49,360.00,18.00,0.00,30.06,M,10.00,25.00,CLR,M,M,M,M,M,M,M,M,M,M,M,M,M,M,57.20,KHTH 061815Z AUTO 36018G25KT 10SM CLR 14/M06 A3006 RMK A01,M
TMT,2025-05-06 18:15,-117.1971,39.4643,1749.34,45.70,28.80,51.40,0.00,0.00,0.00,30.09,M,10.00,M,SCT,BKN,M,M,4000.00,6000.00,M,M,M,M,M,M,M,M,M,45.70,KTMT 061815Z AUTO 00000KT 10SM SCT040 BKN060 08/M02 A3009 RMK AO2 T00761018,M
ELY,2025-05-06 18:33,-114.8453,39.2950,1909.00,38.00,32.00,78.77,80.00,11.00,T,30.04,M,4.00,19.00,FEW,BKN,OVC,M,1100.00,2000.00,4300.00,M,-SN,M,M,M,26.00,30.00,2025-05-06 17:54,30.05,KELY 061833Z AUTO 08011G19KT 4SM -SN FEW011 BKN020 OVC043 03/00 A3004 RMK AO2 PK WND 03026/1754 RAB17E31SNB31 P0000 T00330000,M
BVU,2025-05-06 18:35,-114.8611,35.9475,671.00,66.20,53.60,63.82,120.00,7.00,0.00,29.87,M,10.00,M,SCT,SCT,SCT,M,2500.00,3700.00,4400.00,M,M,M,M,M,M,M,M,66.20,KBVU 061835Z AUTO 12007KT 10SM SCT025 SCT037 SCT044 19/12 A2987 RMK AO2,M
BAM,2025-05-06 18:35,-116.8743,40.5990,1382.36,51.80,33.80,50.08,360.00,7.00,0.00,30.08,M,10.00,M,SCT,SCT,OVC,M,3900.00,5000.00,6500.00,M,M,M,M,M,M,M,M,51.80,KBAM 061835Z AUTO 36007KT 10SM SCT039 SCT050 OVC065 11/01 A3008 RMK AO1,M
CXP,2025-05-06 18:35,-119.7326,39.1923,1431.00,57.20,21.20,24.49,80.00,12.00,0.00,30.08,M,10.00,19.00,CLR,M,M,M,M,M,M,M,M,M,M,M,M,M,M,57.20,KCXP 061835Z AUTO 08012G19KT 10SM CLR 14/M06 A3008 RMK AO2,M
RTS,2025-05-06 18:35,-119.8764,39.6682,1539.00,53.60,17.60,23.93,90.00,10.00,0.00,30.10,M,10.00,15.00,CLR,M,M,M,M,M,M,M,M,M,M,M,M,M,M,53.60,KRTS 061835Z AUTO 09010G15KT 10SM CLR 12/M08 A3010 RMK AO2,M
MEV,2025-05-06 18:35,-119.7500,38.9963,1441.42,59.00,21.20,22.95,310.00,8.00,0.00,30.06,M,10.00,15.00,CLR,M,M,M,M,M,M,M,M,M,M,M,M,M,M,59.00,KMEV 061835Z AUTO 31008G15KT 10SM CLR 15/M06 A3006 RMK AO2,M
HTH,2025-05-06 18:35,-118.6315,38.5448,1282.89,59.00,21.20,22.95,360.00,18.00,0.00,30.07,M,10.00,25.00,CLR,M,M,M,M,M,M,M,M,M,M,M,M,M,M,59.00,KHTH 061835Z AUTO 36018G25KT 10SM CLR 15/M06 A3007 RMK A01,M
TMT,2025-05-06 18:35,-117.1971,39.4643,1749.34,49.30,30.20,47.53,50.00,8.00,0.00,30.08,M,10.00,M,BKN,BKN,M,M,4000.00,6000.00,M,M,M,M,M,M,M,M,M,45.42,KTMT 061835Z AUTO 05008KT 10SM BKN040 BKN060 10/M01 A3008 RMK AO2 T00961010,M
ELY,2025-05-06 18:40,-114.8453,39.2950,1909.00,38.00,33.00,82.00,50.00,8.00,0.01,30.04,M,5.00,M,BKN,OVC,M,M,1800.00,2300.00,M,M,-SN,M,M,M,26.00,30.00,2025-05-06 17:54,31.50,KELY 061840Z AUTO 05008KT 5SM -SN BKN018 OVC023 03/01 A3004 RMK AO2 PK WND 03026/1754 WSHFT 1820 RAB17E31SNB31 P0001 T00330006,M
P68,2025-05-06 18:53,-116.0056,39.6014,1993.00,46.00,34.00,62.71,20.00,8.00,0.00,30.05,1015.00,M,M,M,M,M,M,M,M,M,M,M,M,M,M,M,M,M,41.36,KP68 061853Z AUTO 02008KT 08/01 A3005 RMK AO1 SLP150 T00780011,M
DRA,2025-05-06 18:53,-116.0278,36.6206,1009.00,71.00,28.00,20.06,240.00,8.00,0.00,29.88,1008.50,10.00,M,CLR,M,M,M,M,M,M,M,M,M,M,M,M,M,M,71.00,KDRA 061853Z AUTO 24008KT 10SM CLR 22/M02 A2988 RMK AO2 SLP085 T02171022,M
ELY,2025-05-06 18:53,-114.8453,39.2950,1909.00,38.00,34.00,85.35,30.00,12.00,0.02,30.04,1014.60,7.00,18.00,BKN,OVC,M,M,1600.00,2100.00,M,M,-RA,M,M,M,26.00,30.00,2025-05-06 17:54,29.64,KELY 061853Z AUTO 03012G18KT 7SM -RA BKN016 OVC021 03/01 A3004 RMK AO2 PK WND 03026/1754 WSHFT 1820 RAB17E31B41SNB31E41 SLP146 P0002 T00330011,M
VGT,2025-05-06 18:53,-115.1933,36.2111,667.00,70.00,49.00,47.24,0.00,0.00,0.00,29.86,1011.80,10.00,M,FEW,SCT,M,M,4500.00,11000.00,M,M,M,M,M,M,M,M,M,70.00,KVGT 061853Z 00000KT 10SM FEW045 SCT110 21/09 A2986 RMK AO2 SLP118 T02110094,M
LOL,2025-05-06 18:53,-118.5701,40.0684,1192.43,60.00,24.00,24.92,20.00,6.00,0.00,30.06,1016.30,10.00,M,CLR,M,M,M,M,M,M,M,M,M,M,M,M,M,M,60.00,KLOL 061853Z AUTO 02006KT 10SM CLR 16/M04 A3006 RMK AO2 SLP163 T01561044,M
BVU,2025-05-06 18:55,-114.8611,35.9475,671.00,66.20,53.60,63.82,140.00,6.00,0.00,29.87,M,10.00,13.00,FEW,FEW,M,M,2500.00,4000.00,M,M,M,M,M,M,M,M,M,66.20,KBVU 061855Z AUTO 14006G13KT 10SM FEW025 FEW040 19/12 A2987 RMK AO2,M
RNO,2025-05-06 18:55,-119.7711,39.4839,1341.00,58.00,21.00,23.59,M,4.00,0.00,30.07,1015.60,10.00,M,CLR,M,M,M,M,M,M,M,M,M,M,M,M,M,M,58.00,KRNO 061855Z VRB04KT 10SM CLR 14/M06 A3007 RMK AO2 SLP156 T01441061,M
BAM,2025-05-06 18:55,-116.8743,40.5990,1382.36,51.80,33.80,50.08,320.00,3.00,0.00,30.08,M,10.00,M,SCT,OVC,M,M,5000.00,6500.00,M,M,M,M,M,M,M,M,M,51.80,KBAM 061855Z AUTO 32003KT 10SM SCT050 OVC065 11/01 A3008 RMK AO1,M
CXP,2025-05-06 18:55,-119.7326,39.1923,1431.00,59.00,21.20,22.95,90.00,15.00,0.00,30.08,M,10.00,M,CLR,M,M,M,M,M,M,M,M,M,M,M,M,M,M,59.00,KCXP 061855Z AUTO 09015KT 10SM CLR 15/M06 A3008 RMK AO2,M
RTS,2025-05-06 18:55,-119.8764,39.6682,1539.00,55.40,19.40,24.21,100.00,12.00,0.00,30.09,M,10.00,M,CLR,M,M,M,M,M,M,M,M,M,M,M,M,M,M,55.40,KRTS 061855Z AUTO 10012KT 080V140 10SM CLR 13/M07 A3009 RMK AO2,M
MEV,2025-05-06 18:55,-119.7500,38.9963,1441.42,59.00,19.40,21.26,330.00,11.00,0.00,30.05,M,10.00,16.00,CLR,M,M,M,M,M,M,M,M,M,M,M,M,M,M,59.00,KMEV 061855Z AUTO 33011G16KT 310V010 10SM CLR 15/M07 A3005 RMK AO2,M
HTH,2025-05-06 18:55,-118.6315,38.5448,1282.89,59.00,21.20,22.95,10.00,20.00,0.00,30.06,M,10.00,27.00,CLR,M,M,M,M,M,M,M,M,M,M,M,M,M,M,59.00,KHTH 061855Z AUTO 01020G27KT 10SM CLR 15/M06 A3006 RMK A01,M
TMT,2025-05-06 18:55,-117.1971,39.4643,1749.34,49.00,30.40,48.46,60.00,9.00,0.00,30.08,M,10.00,M,SCT,SCT,M,M,4200.00,5000.00,M,M,M,M,M,M,M,M,M,44.65,KTMT 061855Z AUTO 06009KT 030V110 10SM SCT042 SCT050 10/M01 A3008 RMK AO2 T00951009,M
INS,2025-05-06 18:55,-115.6733,36.5872,955.00,69.40,14.50,11.95,290.00,6.00,0.00,29.89,1009.10,10.00,15.00,CLR,M,M,M,M,M,M,M,M,M,M,M,M,M,M,69.40,KINS 061855Z AUTO 29006G15KT 10SM CLR 21/M10 A2989 RMK AO2 SLP091 T02081097 $,M
LSV,2025-05-06 18:55,-115.0343,36.2362,570.00,69.00,51.60,53.84,0.00,0.00,0.00,29.83,1008.90,10.00,M,SCT,M,M,M,10000.00,M,M,M,M,M,M,M,M,M,M,69.00,KLSV 061855Z 00000KT 10SM SCT100 21/11 A2983 RMK AO2A SLP089 T02050109 $,M
EKO,2025-05-06 18:56,-115.7860,40.8242,1367.00,51.00,32.00,47.99,10.00,11.00,0.00,30.04,1015.70,10.00,M,BKN,M,M,M,6000.00,M,M,M,M,M,M,M,M,M,M,51.00,KEKO 061856Z AUTO 01011KT 10SM BKN060 11/00 A3004 RMK AO2 SLP157 T01060000,M
WMC,2025-05-06 18:56,-117.8072,40.9019,1315.00,59.00,29.00,31.76,60.00,13.00,0.00,30.07,1017.00,10.00,21.00,CLR,M,M,M,M,M,M,M,M,M,M,M,M,M,M,59.00,KWMC 061856Z AUTO 06013G21KT 10SM CLR 15/M02 A3007 RMK AO2 SLP170 T01501017,M
HND,2025-05-06 18:56,-115.1344,35.9729,742.79,69.00,51.00,52.66,170.00,5.00,0.00,29.89,1012.50,10.00,M,BKN,M,M,M,4000.00,M,M,M,M,M,M,M,M,M,M,69.00,KHND 061856Z 17005KT 10SM BKN040 21/11 A2989 RMK AO2 SLP125 T02060106 $,M
TPH,2025-05-06 18:56,-117.0904,38.0505,1654.00,54.00,18.00,23.99,30.00,17.00,0.00,30.00,1012.60,10.00,27.00,BKN,OVC,M,M,8000.00,9000.00,M,M,M,M,M,M,27.00,20.00,2025-05-06 18:53,54.00,KTPH 061856Z AUTO 03017G27KT 10SM BKN080 OVC090 12/M08 A3000 RMK AO2 PK WND 02027/1853 SLP126 T01221078,M
LAS,2025-05-06 18:56,-115.1634,36.0719,663.00,69.00,49.00,48.88,M,4.00,0.00,29.88,1010.30,10.00,M,SCT,SCT,M,M,4100.00,8000.00,M,M,M,M,M,M,M,M,M,69.00,KLAS 061856Z VRB04KT 10SM SCT041 SCT080 21/09 A2988 RMK AO2 SLP103 T02060094,M
NFL,2025-05-06 18:57,-118.7010,39.4166,1199.00,60.00,24.00,24.92,30.00,10.00,0.00,30.06,1014.70,10.00,19.00,FEW,FEW,M,M,6000.00,12000.00,M,M,M,M,M,M,M,M,M,60.00,KNFL 061857Z COR 03010G19KT 10SM FEW060 FEW120 16/M04 A3006 RMK AO2 SLP147 T01561044,M
RTS,2025-05-06 19:05,-119.8764,39.6682,1539.00,55.40,17.60,22.41,100.00,10.00,0.00,30.09,M,10.00,16.00,CLR,M,M,M,M,M,M,M,M,M,M,M,M,M,M,55.40,KRTS 061905Z AUTO 10010G16KT 10SM CLR 13/M08 A3009 RMK AO2,M
MEV,2025-05-06 19:05,-119.7500,38.9963,1441.42,60.80,19.40,19.94,320.00,14.00,0.00,30.05,M,10.00,20.00,CLR,M,M,M,M,M,M,M,M,M,M,M,M,M,M,60.80,KMEV 061905Z AUTO 32014G20KT 10SM CLR 16/M07 A3005 RMK AO2,M
CXP,2025-05-06 19:10,-119.7326,39.1923,1431.00,59.00,21.20,22.95,50.00,11.00,0.00,30.09,M,10.00,17.00,CLR,M,M,M,M,M,M,M,M,M,M,M,M,M,M,59.00,KCXP 061910Z AUTO 05011G17KT 10SM CLR 15/M06 A3009 RMK AO2,M
BVU,2025-05-06 19:15,-114.8611,35.9475,671.00,68.00,53.60,59.97,130.00,5.00,0.00,29.86,M,10.00,11.00,FEW,M,M,M,2700.00,M,M,M,M,M,M,M,M,M,M,68.00,KBVU 061915Z AUTO 13005G11KT 10SM FEW027 20/12 A2986 RMK AO2,M
BAM,2025-05-06 19:15,-116.8743,40.5990,1382.36,53.60,33.80,46.88,360.00,4.00,0.00,30.08,M,10.00,M,OVC,M,M,M,5000.00,M,M,M,M,M,M,M,M,M,M,53.60,KBAM 061915Z AUTO 36004KT 10SM OVC050 12/01 A3008 RMK AO1,M
HTH,2025-05-06 19:15,-118.6315,38.5448,1282.89,60.80,19.40,19.94,10.00,18.00,0.00,30.06,M,10.00,26.00,CLR,M,M,M,M,M,M,M,M,M,M,M,M,M,M,60.80,KHTH 061915Z AUTO 01018G26KT 10SM CLR 16/M07 A3006 RMK A01,M
TMT,2025-05-06 19:15,-117.1971,39.4643,1749.34,50.00,30.00,45.93,40.00,9.00,0.00,30.08,M,10.00,M,BKN,M,M,M,5000.00,M,M,M,M,M,M,M,M,M,M,50.00,KTMT 061915Z AUTO 04009KT 10SM BKN050 10/M01 A3008 RMK AO2 T00991011,M
CXP,2025-05-06 19:30,-119.7326,39.1923,1431.00,57.20,19.40,22.68,M,3.00,0.00,30.08,M,10.00,15.00,CLR,M,M,M,M,M,M,M,M,M,M,M,M,M,M,57.20,KCXP 061930Z AUTO VRB03G15KT 10SM CLR 14/M07 A3008 RMK AO2,M
INS,2025-05-06 19:31,-115.6733,36.5872,955.00,71.60,15.80,11.74,290.00,15.00,0.00,29.86,1008.10,10.00,33.00,CLR,M,M,M,M,M,M,M,M,M,M,M,M,M,M,71.60,KINS 061931Z AUTO 29015G33KT 10SM CLR 22/M09 A2986 RMK AO2 WSHFT 30 SLP081 $,M
BVU,2025-05-06 19:35,-114.8611,35.9475,671.00,68.00,53.60,59.97,140.00,7.00,0.00,29.86,M,10.00,M,CLR,M,M,M,M,M,M,M,M,M,M,M,M,M,M,68.00,KBVU 061935Z AUTO 14007KT 110V170 10SM CLR 20/12 A2986 RMK AO2,M
BAM,2025-05-06 19:35,-116.8743,40.5990,1382.36,53.60,33.80,46.88,0.00,0.00,0.00,30.08,M,10.00,M,SCT,OVC,M,M,4800.00,6000.00,M,M,M,M,M,M,M,M,M,53.60,KBAM 061935Z AUTO 00000KT 10SM SCT048 OVC060 12/01 A3008 RMK AO1,M
HTH,2025-05-06 19:35,-118.6315,38.5448,1282.89,60.80,19.40,19.94,360.00,16.00,0.00,30.06,M,10.00,22.00,CLR,M,M,M,M,M,M,M,M,M,M,M,M,M,M,60.80,KHTH 061935Z AUTO 36016G22KT 10SM CLR 16/M07 A3006 RMK A01,M
TMT,2025-05-06 19:35,-117.1971,39.4643,1749.34,48.60,29.30,47.03,50.00,5.00,0.00,30.08,M,10.00,15.00,SCT,OVC,M,M,4500.00,6000.00,M,M,M,M,M,M,M,M,M,46.11,KTMT 061935Z AUTO 05005G15KT 10SM SCT045 OVC060 09/M01 A3008 RMK AO2 T00921015,M
ELY,2025-05-06 19:40,-114.8453,39.2950,1909.00,39.00,36.00,88.87,60.00,8.00,0.02,30.05,M,10.00,M,BKN,OVC,M,M,3500.00,4400.00,M,M,M,M,M,M,M,M,M,32.74,KELY 061940Z AUTO 06008KT 10SM BKN035 OVC044 04/02 A3005 RMK AO2 RAE35 P0002 T00390022,M
P68,2025-05-06 19:53,-116.0056,39.6014,1993.00,48.00,38.00,68.13,350.00,10.00,0.00,30.04,1015.30,M,16.00,M,M,M,M,M,M,M,M,M,M,M,M,M,M,M,43.03,KP68 061953Z AUTO 35010G16KT 09/03 A3004 RMK AO1 SLP153 T00890033,M
DRA,2025-05-06 19:53,-116.0278,36.6206,1009.00,73.00,25.00,16.56,280.00,13.00,0.00,29.87,1008.30,10.00,19.00,CLR,M,M,M,M,M,M,M,M,M,M,M,M,M,M,73.00,KDRA 061953Z AUTO 28013G19KT 10SM CLR 23/M04 A2987 RMK AO2 SLP083 T02281039,M
ELY,2025-05-06 19:53,-114.8453,39.2950,1909.00,40.00,36.00,85.48,30.00,11.00,0.02,30.05,1015.30,6.00,M,BKN,OVC,M,M,2800.00,3800.00,M,M,-RA BR,M,M,M,M,M,M,32.58,KELY 061953Z AUTO 03011KT 6SM -RA BR BKN028 OVC038 04/02 A3005 RMK AO2 RAE35B41 SLP153 P0002 T00440022,M
VGT,2025-05-06 19:53,-115.1933,36.2111,667.00,68.00,45.00,43.51,140.00,4.00,T,29.85,1011.60,10.00,M,OVC,M,M,M,7500.00,M,M,M,M,M,M,M,M,M,M,68.00,KVGT 061953Z 14004KT 10SM OVC075 20/07 A2985 RMK AO2 RAB37E48 SLP116 P0000 T02000072,M
LOL,2025-05-06 19:53,-118.5701,40.0684,1192.43,60.00,23.00,23.90,M,3.00,0.00,30.04,1015.90,10.00,M,CLR,M,M,M,M,M,M,M,M,M,M,M,M,M,M,60.00,KLOL 061953Z AUTO VRB03KT 10SM CLR 16/M05 A3004 RMK AO2 SLP159 T01561050,M
BVU,2025-05-06 19:55,-114.8611,35.9475,671.00,68.00,53.60,59.97,110.00,8.00,0.00,29.85,M,10.00,14.00,SCT,M,M,M,9500.00,M,M,M,M,M,M,M,M,M,M,68.00,KBVU 061955Z AUTO 11008G14KT 10SM SCT095 20/12 A2985 RMK AO2,M
RNO,2025-05-06 19:55,-119.7711,39.4839,1341.00,62.00,22.00,21.34,180.00,7.00,0.00,30.06,1014.90,10.00,M,CLR,M,M,M,M,M,M,M,M,M,M,M,M,M,M,62.00,KRNO 061955Z 18007KT 10SM CLR 17/M06 A3006 RMK AO2 SLP149 T01671056,M
BAM,2025-05-06 19:55,-116.8743,40.5990,1382.36,55.40,33.80,43.90,350.00,5.00,0.00,30.08,M,10.00,M,SCT,OVC,M,M,4800.00,6000.00,M,M,M,M,M,M,M,M,M,55.40,KBAM 061955Z AUTO 35005KT 10SM SCT048 OVC060 13/01 A3008 RMK AO1,M
CXP,2025-05-06 19:55,-119.7326,39.1923,1431.00,59.00,19.40,21.26,60.00,9.00,0.00,30.07,M,10.00,15.00,CLR,M,M,M,M,M,M,M,M,M,M,M,M,M,M,59.00,KCXP 061955Z AUTO 06009G15KT 10SM CLR 15/M07 A3007 RMK AO2,M
RTS,2025-05-06 19:55,-119.8764,39.6682,1539.00,57.20,19.40,22.68,M,4.00,0.00,30.08,M,10.00,13.00,CLR,M,M,M,M,M,M,M,M,M,M,M,M,M,M,57.20,KRTS 061955Z AUTO VRB04G13KT 10SM CLR 14/M07 A3008 RMK AO2,M
MEV,2025-05-06 19:55,-119.7500,38.9963,1441.42,62.60,24.80,23.50,170.00,10.00,0.00,30.04,M,10.00,16.00,CLR,M,M,M,M,M,M,M,M,M,M,M,M,M,M,62.60,KMEV 061955Z AUTO 17010G16KT 140V200 10SM CLR 17/M04 A3004 RMK AO2,M
HTH,2025-05-06 19:55,-118.6315,38.5448,1282.89,60.80,19.40,19.94,350.00,10.00,0.00,30.05,M,10.00,20.00,CLR,M,M,M,M,M,M,M,M,M,M,M,M,M,M,60.80,KHTH 061955Z AUTO 35010G20KT 320V020 10SM CLR 16/M07 A3005 RMK A01,M
TMT,2025-05-06 19:55,-117.1971,39.4643,1749.34,48.60,29.00,46.46,30.00,8.00,0.00,30.08,M,10.00,M,SCT,SCT,OVC,M,4500.00,5000.00,6000.00,M,M,M,M,M,M,M,M,44.56,KTMT 061955Z AUTO 03008KT 10SM SCT045 SCT050 OVC060 09/M02 A3008 RMK AO2 T00921017,M
LSV,2025-05-06 19:55,-115.0343,36.2362,570.00,71.00,50.00,47.39,180.00,7.00,0.00,29.81,1008.10,10.00,M,FEW,SCT,SCT,M,2500.00,8000.00,12000.00,M,M,M,M,M,M,M,M,71.00,KLSV 061955Z 18007KT 10SM FEW025 SCT080 SCT120 22/10 A2981 RMK AO2A SLP081 T02160101 $,M
EKO,2025-05-06 19:56,-115.7860,40.8242,1367.00,54.00,32.00,42.98,100.00,7.00,0.00,30.03,1015.30,10.00,24.00,SCT,M,M,M,5000.00,M,M,M,M,M,M,M,M,M,M,54.00,KEKO 061956Z AUTO 10007G24KT 070V130 10SM SCT050 12/00 A3003 RMK AO2 SLP153 T01220000,M
WMC,2025-05-06 19:56,-117.8072,40.9019,1315.00,61.00,29.00,29.57,60.00,12.00,0.00,30.06,1016.60,10.00,19.00,CLR,M,M,M,M,M,M,M,M,M,M,M,M,M,M,61.00,KWMC 061956Z AUTO 06012G19KT 10SM CLR 16/M02 A3006 RMK AO2 SLP166 T01611017,M
HND,2025-05-06 19:56,-115.1344,35.9729,742.79,72.00,50.00,45.81,190.00,6.00,0.00,29.87,1011.80,10.00,M,FEW,M,M,M,4800.00,M,M,M,M,M,M,M,M,M,M,72.00,KHND 061956Z 19006KT 10SM FEW048 22/10 A2987 RMK AO2 SLP118 T02220100 $,M
TPH,2025-05-06 19:56,-117.0904,38.0505,1654.00,57.00,19.00,22.46,320.00,10.00,0.00,30.01,1012.70,10.00,20.00,FEW,M,M,M,9000.00,M,M,M,M,M,M,M,26.00,350.00,2025-05-06 19:25,57.00,KTPH 061956Z AUTO 32010G20KT 10SM FEW090 14/M07 A3001 RMK AO2 PK WND 35026/1925 SLP127 T01391072,M
LAS,2025-05-06 19:56,-115.1634,36.0719,663.00,69.00,50.00,50.74,70.00,7.00,0.00,29.86,1009.80,10.00,M,SCT,BKN,BKN,M,4800.00,6000.00,10000.00,M,M,M,M,M,M,M,M,69.00,KLAS 061956Z 07007KT 10SM SCT048 BKN060 BKN100 21/10 A2986 RMK AO2 SLP098 T02060100,M
NFL,2025-05-06 19:57,-118.7010,39.4166,1199.00,63.00,24.00,22.41,20.00,7.00,0.00,30.04,1014.20,10.00,M,SCT,SCT,M,M,6000.00,12000.00,M,M,M,M,M,M,M,M,M,63.00,KNFL 061957Z 02007KT 340V050 10SM SCT060 SCT120 17/M04 A3004 RMK AO2 SLP142 T01721044,M
VGT,2025-05-06 20:06,-115.1933,36.2111,667.00,68.00,42.00,38.79,190.00,10.00,T,29.85,M,10.00,21.00,BKN,M,M,M,7500.00,M,M,M,M,M,M,M,M,M,M,68.00,KVGT 062006Z 19010G21KT 10SM BKN075 20/06 A2985 RMK AO2 RAB1954E03 P0000 T02000056,M
BVU,2025-05-06 20:15,-114.8611,35.9475,671.00,69.80,53.60,56.38,110.00,11.00,0.00,29.85,M,10.00,M,FEW,M,M,M,10000.00,M,M,M,M,M,M,M,M,M,M,69.80,KBVU 062015Z AUTO 11011KT 10SM FEW100 21/12 A2985 RMK AO2,M
BAM,2025-05-06 20:15,-116.8743,40.5990,1382.36,55.40,33.80,43.90,260.00,6.00,0.00,30.07,M,10.00,M,SCT,OVC,M,M,5000.00,6500.00,M,M,M,M,M,M,M,M,M,55.40,KBAM 062015Z AUTO 26006KT 10SM SCT050 OVC065 13/01 A3007 RMK AO1,M
CXP,2025-05-06 20:15,-119.7326,39.1923,1431.00,59.00,19.40,21.26,M,5.00,0.00,30.07,M,10.00,11.00,CLR,M,M,M,M,M,M,M,M,M,M,M,M,M,M,59.00,KCXP 062015Z AUTO VRB05G11KT 10SM CLR 15/M07 A3007 RMK AO2,M
RTS,2025-05-06 20:15,-119.8764,39.6682,1539.00,57.20,17.60,20.99,130.00,7.00,0.00,30.08,M,10.00,M,CLR,M,M,M,M,M,M,M,M,M,M,M,M,M,M,57.20,KRTS 062015Z AUTO 13007KT 10SM CLR 14/M08 A3008 RMK AO2,M
MEV,2025-05-06 20:15,-119.7500,38.9963,1441.42,60.80,24.80,25.04,220.00,8.00,0.00,30.04,M,10.00,M,CLR,M,M,M,M,M,M,M,M,M,M,M,M,M,M,60.80,KMEV 062015Z AUTO 22008KT 10SM CLR 16/M04 A3004 RMK AO2,M
HTH,2025-05-06 20:15,-118.6315,38.5448,1282.89,60.80,19.40,19.94,300.00,11.00,0.00,30.05,M,10.00,18.00,CLR,M,M,M,M,M,M,M,M,M,M,M,M,M,M,60.80,KHTH 062015Z AUTO 30011G18KT 280V340 10SM CLR 16/M07 A3005 RMK A01,M
TMT,2025-05-06 20:15,-117.1971,39.4643,1749.34,50.00,28.40,43.03,40.00,5.00,0.00,30.08,M,10.00,14.00,OVC,M,M,M,6500.00,M,M,M,M,M,M,M,M,M,M,50.00,KTMT 062015Z AUTO 04005G14KT 10SM OVC065 10/M02 A3008 RMK AO2 T01001020,M
LAS,2025-05-06 20:26,-115.1634,36.0719,663.00,62.00,50.00,64.73,310.00,16.00,0.06,29.88,M,7.00,25.00,BKN,BKN,M,M,4200.00,9000.00,M,M,TSRA,M,M,M,M,M,M,62.00,KLAS 062026Z 31016G25KT 7SM TSRA BKN042CB BKN090 17/10 A2988 RMK AO2 WSHFT 2009 RAB1959 TSB21E22B26 OCNL LTGIC OHD-W TS OHD-W MOV E P0006 T01670100,M
VGT,2025-05-06 20:27,-115.1933,36.2111,667.00,65.00,44.00,46.47,150.00,13.00,T,29.85,M,10.00,21.00,FEW,OVC,M,M,5000.00,7500.00,M,M,VCTS -RA,M,M,M,M,M,M,65.00,KVGT 062027Z 15013G21KT 10SM VCTS -RA FEW050 OVC075 18/07 A2985 RMK AO2 RAB1954E03B15 LTG DIST SW P0000 T01830067,M
HND,2025-05-06 20:27,-115.1344,35.9729,742.79,71.60,53.60,53.03,M,5.00,0.00,29.87,M,10.00,M,SCT,BKN,M,M,7000.00,11000.00,M,M,VCTS,M,M,M,M,M,M,71.60,KHND 062027Z VRB05KT 10SM VCTS SCT070 BKN110 22/12 A2987 RMK AO2 TSB21 $,M
BVU,2025-05-06 20:35,-114.8611,35.9475,671.00,71.60,53.60,53.03,140.00,12.00,0.00,29.84,M,10.00,M,FEW,M,M,M,11000.00,M,M,M,VCTS,M,M,M,M,M,M,71.60,KBVU 062035Z AUTO 14012KT 10SM VCTS FEW110 22/12 A2984 RMK AO2 LTG DSNT S AND W,M
BAM,2025-05-06 20:35,-116.8743,40.5990,1382.36,57.20,33.80,41.13,350.00,3.00,0.00,30.07,M,10.00,M,SCT,BKN,M,M,5000.00,6500.00,M,M,M,M,M,M,M,M,M,57.20,KBAM 062035Z AUTO 35003KT 10SM SCT050 BKN065 14/01 A3007 RMK AO1,M
CXP,2025-05-06 20:35,-119.7326,39.1923,1431.00,60.80,19.40,19.94,80.00,8.00,0.00,30.06,M,10.00,15.00,CLR,M,M,M,M,M,M,M,M,M,M,M,M,M,M,60.80,KCXP 062035Z AUTO 08008G15KT 10SM CLR 16/M07 A3006 RMK AO2,M
RTS,2025-05-06 20:35,-119.8764,39.6682,1539.00,57.20,19.40,22.68,110.00,8.00,0.00,30.07,M,10.00,15.00,CLR,M,M,M,M,M,M,M,M,M,M,M,M,M,M,57.20,KRTS 062035Z AUTO 11008G15KT 10SM CLR 14/M07 A3007 RMK AO2,M
MEV,2025-05-06 20:35,-119.7500,38.9963,1441.42,60.80,23.00,23.23,320.00,7.00,0.00,30.03,M,10.00,M,CLR,M,M,M,M,M,M,M,M,M,M,M,M,M,M,60.80,KMEV 062035Z AUTO 32007KT 10SM CLR 16/M05 A3003 RMK AO2,M
HTH,2025-05-06 20:35,-118.6315,38.5448,1282.89,62.60,19.40,18.71,310.00,9.00,0.00,30.04,M,10.00,18.00,CLR,M,M,M,M,M,M,M,M,M,M,M,M,M,M,62.60,KHTH 062035Z AUTO 31009G18KT 10SM CLR 17/M07 A3004 RMK A01,M
TMT,2025-05-06 20:35,-117.1971,39.4643,1749.34,50.40,30.00,45.25,360.00,15.00,0.00,30.08,M,10.00,19.00,SCT,OVC,M,M,5000.00,7000.00,M,M,M,M,M,M,M,M,M,50.40,KTMT 062035Z AUTO 36015G19KT 10SM SCT050 OVC070 10/M01 A3008 RMK AO2 T01021012,M
ELY,2025-05-06 20:39,-114.8453,39.2950,1909.00,40.00,35.00,82.15,20.00,6.00,0.02,30.06,M,10.00,M,BKN,OVC,M,M,3300.00,4200.00,M,M,-RA,M,M,M,M,M,M,35.17,KELY 062039Z AUTO 02006KT 10SM -RA BKN033 OVC042 04/02 A3006 RMK AO2 P0002 T00440017,M
RTS,2025-05-06 20:45,-119.8764,39.6682,1539.00,57.20,19.40,22.68,0.00,0.00,0.00,30.07,M,10.00,11.00,CLR,M,M,M,M,M,M,M,M,M,M,M,M,M,M,57.20,KRTS 062045Z AUTO 00000G11KT 10SM CLR 14/M07 A3007 RMK AO2,M
MEV,2025-05-06 20:45,-119.7500,38.9963,1441.42,62.60,23.00,21.79,M,4.00,0.00,30.03,M,10.00,11.00,CLR,M,M,M,M,M,M,M,M,M,M,M,M,M,M,62.60,KMEV 062045Z AUTO VRB04G11KT 10SM CLR 17/M05 A3003 RMK AO2,M
HND,2025-05-06 20:46,-115.1344,35.9729,742.79,62.60,51.80,67.75,40.00,16.00,T,29.87,M,10.00,26.00,SCT,OVC,M,M,3600.00,7500.00,M,M,-RA,M,M,M,26.00,350.00,2025-05-06 20:39,62.60,KHND 062046Z 04016G26KT 10SM -RA SCT036 OVC075 17/11 A2987 RMK AO2 PK WND 35026/2039 WSHFT 2032 LTG DSNT SE TSB21E44RAB39 P0000 $,M
VGT,2025-05-06 20:50,-115.1933,36.2111,667.00,66.20,44.60,45.60,120.00,10.00,T,29.85,M,10.00,M,OVC,M,M,M,8000.00,M,M,M,M,M,M,M,M,M,M,66.20,KVGT 062050Z 12010KT 10SM OVC080 19/07 A2985 RMK AO2 RAB1954E03B15E31 LTG DIST SW P0000,M
CXP,2025-05-06 20:50,-119.7326,39.1923,1431.00,62.60,21.20,20.20,50.00,9.00,0.00,30.06,M,5.00,18.00,CLR,M,M,M,M,M,M,M,HZ,M,M,M,M,M,M,62.60,KCXP 062050Z AUTO 05009G18KT 5SM HZ CLR 17/M06 A3006 RMK AO2,M
P68,2025-05-06 20:53,-116.0056,39.6014,1993.00,52.00,33.00,48.15,320.00,11.00,0.00,30.04,1014.80,M,M,M,M,M,M,M,M,M,M,M,M,M,M,M,M,M,52.00,KP68 062053Z AUTO 32011KT 11/01 A3004 RMK AO1 SLP148 T01110006 58001,M
DRA,2025-05-06 20:53,-116.0278,36.6206,1009.00,73.00,27.00,17.99,320.00,13.00,0.00,29.89,1008.80,10.00,28.00,CLR,M,M,M,M,M,M,M,M,M,M,M,31.00,310.00,2025-05-06 20:24,73.00,KDRA 062053Z AUTO 32013G28KT 10SM CLR 23/M03 A2989 RMK AO2 PK WND 31031/2024 SLP088 T02281028 55002,M
ELY,2025-05-06 20:53,-114.8453,39.2950,1909.00,41.00,36.00,82.22,40.00,5.00,0.02,30.06,1016.30,10.00,M,FEW,BKN,OVC,M,3100.00,4100.00,5000.00,M,M,M,M,M,M,M,M,37.08,KELY 062053Z AUTO 04005KT 10SM FEW031 BKN041 OVC050 05/02 A3006 RMK AO2 RAE51 SLP163 P0002 60006 T00500022 51017,M
VGT,2025-05-06 20:53,-115.1933,36.2111,667.00,66.00,44.00,44.88,140.00,8.00,T,29.85,1011.30,10.00,M,OVC,M,M,M,8000.00,M,M,M,M,M,M,M,M,M,M,66.00,KVGT 062053Z 14008KT 10SM OVC080 19/07 A2985 RMK AO2 RAB1954E03B15E31 SLP113 LTG DIST SW P0000 60000 T01890067 56006,M
LOL,2025-05-06 20:53,-118.5701,40.0684,1192.43,64.00,25.00,22.56,90.00,8.00,0.00,30.03,1014.90,10.00,19.00,CLR,M,M,M,M,M,M,M,M,M,M,M,M,M,M,64.00,KLOL 062053Z AUTO 09008G19KT 10SM CLR 18/M04 A3003 RMK AO2 SLP149 T01781039 58011,M
BVU,2025-05-06 20:55,-114.8611,35.9475,671.00,69.80,53.60,56.38,110.00,12.00,0.00,29.84,M,10.00,M,SCT,BKN,M,M,6500.00,11000.00,M,M,VCTS,M,M,M,M,M,M,69.80,KBVU 062055Z AUTO 11012KT 10SM VCTS SCT065 BKN110 21/12 A2984 RMK AO2 LTG DSNT ALQDS,M
RNO,2025-05-06 20:55,-119.7711,39.4839,1341.00,65.00,22.00,19.21,70.00,7.00,0.00,30.04,1014.50,10.00,M,CLR,M,M,M,M,M,M,M,M,M,M,M,M,M,M,65.00,KRNO 062055Z 07007KT 10SM CLR 18/M06 A3004 RMK AO2 SLP145 T01831056 58011,M
BAM,2025-05-06 20:55,-116.8743,40.5990,1382.36,59.00,33.80,38.56,350.00,6.00,0.00,30.07,M,10.00,M,SCT,BKN,M,M,5000.00,6500.00,M,M,M,M,M,M,M,M,M,59.00,KBAM 062055Z AUTO 35006KT 10SM SCT050 BKN065 15/01 A3007 RMK AO1,M
HTH,2025-05-06 20:55,-118.6315,38.5448,1282.89,60.80,19.40,19.94,330.00,6.00,0.00,30.04,M,10.00,17.00,CLR,M,M,M,M,M,M,M,M,M,M,M,M,M,M,60.80,KHTH 062055Z AUTO 33006G17KT 10SM CLR 16/M07 A3004 RMK A01,M
TMT,2025-05-06 20:55,-117.1971,39.4643,1749.34,49.60,29.50,45.68,20.00,9.00,0.00,30.09,M,10.00,M,SCT,OVC,M,M,4800.00,7000.00,M,M,M,M,M,M,M,M,M,45.40,KTMT 062055Z AUTO 02009KT 10SM SCT048 OVC070 10/M01 A3009 RMK AO2 T00981014,M
INS,2025-05-06 20:55,-115.6733,36.5872,955.00,71.20,14.00,11.00,320.00,9.00,0.00,29.87,1008.40,10.00,19.00,OVC,M,M,M,11000.00,M,M,M,M,M,M,M,M,M,M,71.20,KINS 062055Z AUTO 32009G19KT 10SM OVC110 22/M10 A2987 RMK AO2 SLP084 T02181100 57007 $,M
LSV,2025-05-06 20:55,-115.0343,36.2362,570.00,69.00,45.00,42.04,200.00,18.00,T,29.81,1008.20,10.00,23.00,FEW,SCT,BKN,M,3500.00,5500.00,10000.00,M,VCTS,M,M,M,M,M,M,69.00,KLSV 062055Z 20018G23KT 10SM VCTS FEW035 SCT055 BKN100 21/07 A2981 RMK AO2A SLP082 P0000 60000 T02060072 57010 $,M
EKO,2025-05-06 20:56,-115.7860,40.8242,1367.00,56.00,30.00,36.85,M,6.00,0.00,30.02,1014.60,10.00,M,BKN,M,M,M,6000.00,M,M,M,M,M,M,M,M,M,M,56.00,KEKO 062056Z AUTO VRB06KT 10SM BKN060 13/M01 A3002 RMK AO2 SLP146 T01331011 57005,M
WMC,2025-05-06 20:56,-117.8072,40.9019,1315.00,61.00,29.00,29.57,10.00,8.00,0.00,30.04,1016.20,10.00,M,FEW,M,M,M,7000.00,M,M,M,M,M,M,M,M,M,M,61.00,KWMC 062056Z AUTO 01008KT 10SM FEW070 16/M02 A3004 RMK AO2 SLP162 T01611017 58007,M
HND,2025-05-06 20:56,-115.1344,35.9729,742.79,62.00,52.00,69.71,20.00,9.00,T,29.88,1012.50,10.00,M,FEW,BKN,OVC,M,3400.00,7000.00,10000.00,M,-RA,M,M,M,26.00,350.00,2025-05-06 20:39,62.00,KHND 062056Z 02009KT 10SM -RA FEW034 BKN070 OVC100 17/11 A2988 RMK AO2 PK WND 35026/2039 WSHFT 2032 LTG DSNT NE TSB21E44RAB39 SLP125 P0000 60000 T01670111 55006 $,M
TPH,2025-05-06 20:56,-117.0904,38.0505,1654.00,58.00,15.00,18.22,330.00,15.00,0.00,30.00,1012.80,10.00,21.00,SCT,M,M,M,8500.00,M,M,M,M,M,M,M,M,M,M,58.00,KTPH 062056Z AUTO 33015G21KT 10SM SCT085 14/M09 A3000 RMK AO2 SLP128 T01441094 50001,M
LAS,2025-05-06 20:56,-115.1634,36.0719,663.00,67.00,49.00,52.37,40.00,10.00,0.61,29.86,1010.00,10.00,16.00,SCT,BKN,M,M,4200.00,9000.00,M,M,-TSRA,M,M,M,M,M,M,67.00,KLAS 062056Z 04010G16KT 10SM -TSRA SCT042CB BKN090 19/09 A2986 RMK AO2 WSHFT 2009 RAB1959 TSB21E22B26 SLP100 OCNL LTGIC E-SE TS E-SE MOV E P0061 60061 T01940094 55006,M
NFL,2025-05-06 20:57,-118.7010,39.4166,1199.00,63.00,24.00,22.41,20.00,6.00,0.00,30.03,1013.90,10.00,14.00,SCT,SCT,M,M,6000.00,12000.00,M,M,M,M,M,M,M,M,M,63.00,KNFL 062057Z 02006G14KT 10SM SCT060 SCT120 17/M04 A3003 RMK AO2 SLP139 T01721044 58010,M
HND,2025-05-06 21:06,-115.1344,35.9729,742.79,64.40,51.80,63.60,20.00,11.00,T,29.88,M,10.00,M,FEW,SCT,BKN,M,3400.00,6500.00,9000.00,M,VCTS,M,M,M,M,M,M,64.40,KHND 062106Z 02011KT 10SM VCTS FEW034 SCT065 BKN090 18/11 A2988 RMK AO2 LTG DSNT NE AND E TSB00RAE02 P0000 $,M
LAS,2025-05-06 21:11,-115.1634,36.0719,663.00,68.00,48.00,48.73,60.00,10.00,T,29.86,M,10.00,M,FEW,SCT,BKN,M,4200.00,9000.00,20000.00,M,M,M,M,M,M,M,M,68.00,KLAS 062111Z 06010KT 10SM FEW042CB SCT090 BKN200 20/09 A2986 RMK AO2 RAE07 TSE07 OCNL LTG DSNT E-SE TS DSNT E-SE P0000 T02000089,M
BVU,2025-05-06 21:15,-114.8611,35.9475,671.00,66.20,57.20,72.74,80.00,10.00,0.00,29.84,M,6.00,15.00,OVC,M,M,M,6500.00,M,M,M,VCTS RA,M,M,M,M,M,M,66.20,KBVU 062115Z AUTO 08010G15KT 6SM VCTS RA OVC065 19/14 A2984 RMK AO2,M
BAM,2025-05-06 21:15,-116.8743,40.5990,1382.36,59.00,33.80,38.56,320.00,7.00,0.00,30.07,M,10.00,M,SCT,BKN,BKN,M,5000.00,6500.00,8000.00,M,M,M,M,M,M,M,M,59.00,KBAM 062115Z AUTO 32007KT 10SM SCT050 BKN065 BKN080 15/01 A3007 RMK AO1,M
CXP,2025-05-06 21:15,-119.7326,39.1923,1431.00,62.60,21.20,20.20,80.00,9.00,0.00,30.05,M,10.00,16.00,CLR,M,M,M,M,M,M,M,M,M,M,M,M,M,M,62.60,KCXP 062115Z AUTO 08009G16KT 10SM CLR 17/M06 A3005 RMK AO2,M
RTS,2025-05-06 21:15,-119.8764,39.6682,1539.00,59.00,19.40,21.26,M,3.00,0.00,30.06,M,10.00,M,CLR,M,M,M,M,M,M,M,M,M,M,M,M,M,M,59.00,KRTS 062115Z AUTO VRB03KT 10SM CLR 15/M07 A3006 RMK AO2,M
MEV,2025-05-06 21:15,-119.7500,38.9963,1441.42,64.40,19.40,17.56,M,3.00,0.00,30.02,M,10.00,19.00,CLR,M,M,M,M,M,M,M,M,M,M,M,M,M,M,64.40,KMEV 062115Z AUTO VRB03G19KT 10SM CLR 18/M07 A3002 RMK AO2,M
HTH,2025-05-06 21:15,-118.6315,38.5448,1282.89,62.60,19.40,18.71,340.00,10.00,0.00,30.04,M,10.00,17.00,CLR,M,M,M,M,M,M,M,M,M,M,M,M,M,M,62.60,KHTH 062115Z AUTO 34010G17KT 310V020 10SM CLR 17/M07 A3004 RMK A01,M
TMT,2025-05-06 21:15,-117.1971,39.4643,1749.34,50.50,29.00,43.28,20.00,6.00,0.00,30.08,M,10.00,M,SCT,OVC,M,M,4800.00,7000.00,M,M,M,M,M,M,M,M,M,50.50,KTMT 062115Z AUTO 02006KT 10SM SCT048 OVC070 10/M02 A3008 RMK AO2 T01031017,M
INS,2025-05-06 21:21,-115.6733,36.5872,955.00,71.60,10.40,9.25,300.00,18.00,0.00,29.86,1008.10,10.00,24.00,BKN,BKN,M,M,12000.00,16000.00,M,M,M,M,M,M,M,M,M,71.60,KINS 062121Z AUTO 30018G24KT 10SM BKN120 BKN160 22/M12 A2986 RMK AO2 WSHFT 10 SLP081 $,M
HTH,2025-05-06 21:30,-118.6315,38.5448,1282.89,62.60,19.40,18.71,330.00,12.00,0.00,30.04,M,10.00,19.00,CLR,M,M,M,M,M,M,M,M,M,M,M,M,M,M,62.60,KHTH 062130Z AUTO 33012G19KT 10SM CLR 17/M07 A3004 RMK A01,M
HND,2025-05-06 21:32,-115.1344,35.9729,742.79,66.20,51.80,59.74,70.00,12.00,T,29.88,M,10.00,17.00,CLR,M,M,M,M,M,M,M,M,M,M,M,M,M,M,66.20,KHND 062132Z 07012G17KT 10SM CLR 19/11 A2988 RMK AO2 LTG DSNT E TSB00E26RAE02 P0000 $,M
BVU,2025-05-06 21:35,-114.8611,35.9475,671.00,59.00,51.80,76.98,40.00,15.00,0.00,29.85,M,0.75,27.00,BKN,OVC,M,M,600.00,3000.00,M,M,VCTS RA,M,M,M,M,M,M,59.00,KBVU 062135Z AUTO 04015G27KT 3/4SM VCTS RA BKN006 OVC030 15/11 A2985 RMK AO2,M
BAM,2025-05-06 21:35,-116.8743,40.5990,1382.36,60.80,33.80,36.16,320.00,9.00,0.00,30.07,M,10.00,16.00,BKN,BKN,BKN,M,6500.00,7000.00,8000.00,M,M,M,M,M,M,M,M,60.80,KBAM 062135Z AUTO 32009G16KT 10SM BKN065 BKN070 BKN080 16/01 A3007 RMK AO1,M
CXP,2025-05-06 21:35,-119.7326,39.1923,1431.00,62.60,21.20,20.20,M,5.00,0.00,30.05,M,10.00,13.00,CLR,M,M,M,M,M,M,M,M,M,M,M,M,M,M,62.60,KCXP 062135Z AUTO VRB05G13KT 10SM CLR 17/M06 A3005 RMK AO2,M
RTS,2025-05-06 21:35,-119.8764,39.6682,1539.00,60.80,19.40,19.94,70.00,8.00,0.00,30.06,M,10.00,13.00,CLR,M,M,M,M,M,M,M,M,M,M,M,M,M,M,60.80,KRTS 062135Z AUTO 07008G13KT 020V120 10SM CLR 16/M07 A3006 RMK AO2,M
MEV,2025-05-06 21:35,-119.7500,38.9963,1441.42,64.40,19.40,17.56,360.00,14.00,0.00,30.01,M,10.00,20.00,CLR,M,M,M,M,M,M,M,M,M,M,M,M,M,M,64.40,KMEV 062135Z AUTO 36014G20KT 10SM CLR 18/M07 A3001 RMK AO2,M
TMT,2025-05-06 21:35,-117.1971,39.4643,1749.34,51.30,28.80,41.68,360.00,8.00,0.00,30.09,M,10.00,14.00,SCT,OVC,M,M,5000.00,7000.00,M,M,M,M,M,M,M,M,M,51.30,KTMT 062135Z AUTO 36008G14KT 10SM SCT050 OVC070 11/M02 A3009 RMK AO2 T01071018,M
INS,2025-05-06 21:52,-115.6733,36.5872,955.00,71.60,8.60,8.54,260.00,17.00,0.00,29.87,1008.60,10.00,21.00,BKN,BKN,M,M,12000.00,15000.00,M,M,M,M,M,M,M,M,M,71.60,KINS 062152Z AUTO 26017G21KT 10SM BKN120 BKN150 22/M13 A2987 RMK AO2 WSHFT 49 SLP086 $,M
P68,2025-05-06 21:53,-116.0056,39.6014,1993.00,53.00,30.00,41.11,330.00,9.00,0.00,30.03,1014.50,M,18.00,M,M,M,M,M,M,M,M,M,M,M,M,M,M,M,53.00,KP68 062153Z AUTO 33009G18KT 12/M01 A3003 RMK AO1 SLP145 T01171011,M
DRA,2025-05-06 21:53,-116.0278,36.6206,1009.00,72.00,26.00,17.85,310.00,12.00,0.00,29.89,1009.10,10.00,28.00,CLR,M,M,M,M,M,M,M,M,M,M,M,28.00,310.00,2025-05-06 21:44,72.00,KDRA 062153Z AUTO 31012G28KT 10SM CLR 22/M03 A2989 RMK AO2 PK WND 31028/2144 SLP091 T02221033,M
ELY,2025-05-06 21:53,-114.8453,39.2950,1909.00,46.00,36.00,67.90,350.00,4.00,0.00,30.04,1014.70,10.00,M,SCT,M,M,M,8000.00,M,M,M,M,M,M,M,M,M,M,43.77,KELY 062153Z AUTO 35004KT 10SM SCT080 08/02 A3004 RMK AO2 SLP147 T00780022,M
VGT,2025-05-06 21:53,-115.1933,36.2111,667.00,71.00,42.00,35.01,100.00,6.00,0.00,29.83,1010.70,10.00,M,FEW,M,M,M,11000.00,M,M,M,M,M,M,M,M,M,M,71.00,KVGT 062153Z 10006KT 10SM FEW110 22/06 A2983 RMK AO2 LTG DSNT SE SLP107 T02170056,M
LOL,2025-05-06 21:53,-118.5701,40.0684,1192.43,64.00,25.00,22.56,M,M,0.00,30.02,1014.80,10.00,M,CLR,M,M,M,M,M,M,M,M,M,M,M,M,M,M,64.00,KLOL 062153Z AUTO 10SM CLR 18/M04 A3002 RMK AO2 SLP148 T01781039,M
BVU,2025-05-06 21:55,-114.8611,35.9475,671.00,62.60,51.80,67.75,30.00,18.00,0.00,29.84,M,10.00,M,FEW,SCT,SCT,M,500.00,2900.00,4700.00,M,VCTS,M,M,M,M,M,M,62.60,KBVU 062155Z AUTO 03018KT 10SM VCTS FEW005 SCT029 SCT047 17/11 A2984 RMK AO2 LTG DSNT NE-S,M
RNO,2025-05-06 21:55,-119.7711,39.4839,1341.00,65.00,21.00,18.41,20.00,6.00,0.00,30.03,1014.00,10.00,M,CLR,M,M,M,M,M,M,M,M,M,M,M,M,M,M,65.00,KRNO 062155Z 02006KT 10SM CLR 18/M06 A3003 RMK AO2 SLP140 T01831061,M
BAM,2025-05-06 21:55,-116.8743,40.5990,1382.36,59.00,32.00,35.87,320.00,9.00,0.00,30.06,M,10.00,14.00,BKN,OVC,M,M,6000.00,8000.00,M,M,M,M,M,M,M,M,M,59.00,KBAM 062155Z AUTO 32009G14KT 10SM BKN060 OVC080 15/00 A3006 RMK AO1,M
CXP,2025-05-06 21:55,-119.7326,39.1923,1431.00,62.60,21.20,20.20,50.00,8.00,0.00,30.04,M,10.00,16.00,CLR,M,M,M,M,M,M,M,M,M,M,M,M,M,M,62.60,KCXP 062155Z AUTO 05008G16KT 10SM CLR 17/M06 A3004 RMK AO2,M
RTS,2025-05-06 21:55,-119.8764,39.6682,1539.00,60.80,19.40,19.94,80.00,8.00,0.00,30.05,M,10.00,14.00,CLR,M,M,M,M,M,M,M,M,M,M,M,M,M,M,60.80,KRTS 062155Z AUTO 08008G14KT 10SM CLR 16/M07 A3005 RMK AO2,M
MEV,2025-05-06 21:55,-119.7500,38.9963,1441.42,64.40,19.40,17.56,340.00,14.00,0.00,30.01,M,10.00,M,CLR,M,M,M,M,M,M,M,M,M,M,M,M,M,M,64.40,KMEV 062155Z AUTO 34014KT 10SM CLR 18/M07 A3001 RMK AO2,M
HTH,2025-05-06 21:55,-118.6315,38.5448,1282.89,62.60,19.40,18.71,10.00,8.00,0.00,30.03,M,10.00,20.00,CLR,M,M,M,M,M,M,M,M,M,M,M,M,M,M,62.60,KHTH 062155Z AUTO 01008G20KT 330V030 10SM CLR 17/M07 A3003 RMK A01,M
TMT,2025-05-06 21:55,-117.1971,39.4643,1749.34,51.00,28.60,41.80,330.00,10.00,0.00,30.08,M,10.00,M,BKN,OVC,M,M,6000.00,7000.00,M,M,M,M,M,M,M,M,M,51.00,KTMT 062155Z AUTO 33010KT 10SM BKN060 OVC070 11/M02 A3008 RMK AO2 T01051019,M
LSV,2025-05-06 21:55,-115.0343,36.2362,570.00,71.80,41.00,32.78,140.00,7.00,T,29.80,1007.70,10.00,M,FEW,SCT,BKN,M,11000.00,15000.00,19000.00,M,M,M,M,M,M,M,M,71.80,KLSV 062155Z 14007KT 10SM FEW110 SCT150 BKN190 22/05 A2980 RMK AO2A LTG DSNT E-SE SLP077 P0000 T02210051 $,M
EKO,2025-05-06 21:56,-115.7860,40.8242,1367.00,58.00,31.00,35.70,330.00,7.00,0.00,30.03,1014.60,10.00,M,BKN,M,M,M,6500.00,M,M,M,M,M,M,M,M,M,M,58.00,KEKO 062156Z AUTO 33007KT 10SM BKN065 14/M01 A3003 RMK AO2 SLP146 T01441006,M
WMC,2025-05-06 21:56,-117.8072,40.9019,1315.00,61.00,29.00,29.57,60.00,8.00,0.00,30.04,1015.50,10.00,17.00,BKN,M,M,M,7000.00,M,M,M,M,M,M,M,M,M,M,61.00,KWMC 062156Z AUTO 06008G17KT 10SM BKN070 16/M02 A3004 RMK AO2 SLP155 T01611017,M
HND,2025-05-06 21:56,-115.1344,35.9729,742.79,68.00,49.00,50.59,80.00,8.00,T,29.87,1012.00,10.00,M,CLR,M,M,M,M,M,M,M,M,M,M,M,M,M,M,68.00,KHND 062156Z 08008KT 10SM CLR 20/09 A2987 RMK AO2 LTG DSNT E AND SE TSB00E26RAE02 SLP120 P0000 T02000094 $,M
TPH,2025-05-06 21:56,-117.0904,38.0505,1654.00,62.00,19.00,18.79,340.00,16.00,0.00,30.00,1012.40,10.00,26.00,FEW,M,M,M,8500.00,M,M,M,M,M,M,M,26.00,350.00,2025-05-06 21:55,62.00,KTPH 062156Z AUTO 34016G26KT 10SM FEW085 17/M07 A3000 RMK AO2 PK WND 35026/2155 SLP124 T01671072,M
LAS,2025-05-06 21:56,-115.1634,36.0719,663.00,67.00,51.00,56.41,120.00,8.00,T,29.85,1009.70,10.00,M,SCT,BKN,M,M,9000.00,20000.00,M,M,M,M,M,M,M,M,M,67.00,KLAS 062156Z 12008KT 10SM SCT090 BKN200 19/11 A2985 RMK AO2 LTG DSNT E AND SE RAE07 TSE07 SLP097 CB DSNT E-SE P0000 T01940106,M
NFL,2025-05-06 21:57,-118.7010,39.4166,1199.00,65.00,24.00,20.89,M,6.00,0.00,30.02,1013.60,10.00,20.00,SCT,M,M,M,6000.00,M,M,M,M,M,M,M,M,M,M,65.00,KNFL 062157Z VRB06G20KT 10SM SCT060 18/M04 A3002 RMK AO2 SLP136 T01831044,M
INS,2025-05-06 22:05,-115.6733,36.5872,955.00,71.60,6.80,7.87,280.00,14.00,0.00,29.87,1008.40,10.00,M,BKN,OVC,M,M,11000.00,14000.00,M,M,M,M,M,M,M,M,M,71.60,KINS 062205Z AUTO 28014KT 10SM BKN110 OVC140 22/M14 A2987 RMK AO2 WSHFT 2154 SLP084 $,M
BVU,2025-05-06 22:15,-114.8611,35.9475,671.00,66.20,50.00,55.88,60.00,12.00,0.00,29.85,M,10.00,21.00,CLR,M,M,M,M,M,M,M,M,M,M,M,M,M,M,66.20,KBVU 062215Z AUTO 06012G21KT 10SM CLR 19/10 A2985 RMK AO2 LTG DSNT SE,M
BAM,2025-05-06 22:15,-116.8743,40.5990,1382.36,60.80,33.80,36.16,340.00,8.00,0.00,30.06,M,10.00,M,SCT,M,M,M,7000.00,M,M,M,M,M,M,M,M,M,M,60.80,KBAM 062215Z AUTO 34008KT 300V010 10SM SCT070 16/01 A3006 RMK AO1,M
CXP,2025-05-06 22:15,-119.7326,39.1923,1431.00,62.60,21.20,20.20,M,4.00,0.00,30.04,M,10.00,16.00,CLR,M,M,M,M,M,M,M,M,M,M,M,M,M,M,62.60,KCXP 062215Z AUTO VRB04G16KT 10SM CLR 17/M06 A3004 RMK AO2,M
RTS,2025-05-06 22:15,-119.8764,39.6682,1539.00,59.00,19.40,21.26,0.00,0.00,0.00,30.05,M,10.00,M,CLR,M,M,M,M,M,M,M,M,M,M,M,M,M,M,59.00,KRTS 062215Z AUTO 00000KT 10SM CLR 15/M07 A3005 RMK AO2,M
MEV,2025-05-06 22:15,-119.7500,38.9963,1441.42,64.40,19.40,17.56,10.00,10.00,0.00,30.01,M,10.00,19.00,CLR,M,M,M,M,M,M,M,M,M,M,M,M,M,M,64.40,KMEV 062215Z AUTO 01010G19KT 10SM CLR 18/M07 A3001 RMK AO2,M
HTH,2025-05-06 22:15,-118.6315,38.5448,1282.89,62.60,19.40,18.71,20.00,10.00,0.00,30.03,M,10.00,18.00,CLR,M,M,M,M,M,M,M,M,M,M,M,M,M,M,62.60,KHTH 062215Z AUTO 02010G18KT 10SM CLR 17/M07 A3003 RMK A01,M
TMT,2025-05-06 22:15,-117.1971,39.4643,1749.34,53.00,29.70,40.61,30.00,9.00,0.00,30.08,M,10.00,14.00,BKN,OVC,M,M,5000.00,7000.00,M,M,M,M,M,M,M,M,M,53.00,KTMT 062215Z AUTO 03009G14KT 330V040 10SM BKN050 OVC070 12/M01 A3008 RMK AO2 T01161013,M
RTS,2025-05-06 22:25,-119.8764,39.6682,1539.00,60.80,19.40,19.94,50.00,7.00,0.00,30.05,M,10.00,17.00,CLR,M,M,M,M,M,M,M,M,M,M,M,M,M,M,60.80,KRTS 062225Z AUTO 05007G17KT 360V110 10SM CLR 16/M07 A3005 RMK AO2,M
MEV,2025-05-06 22:25,-119.7500,38.9963,1441.42,64.40,19.40,17.56,340.00,12.00,0.00,30.01,M,10.00,18.00,CLR,M,M,M,M,M,M,M,M,M,M,M,M,M,M,64.40,KMEV 062225Z AUTO 34012G18KT 10SM CLR 18/M07 A3001 RMK AO2,M
BVU,2025-05-06 22:35,-114.8611,35.9475,671.00,66.20,50.00,55.88,40.00,12.00,0.00,29.84,M,10.00,M,CLR,M,M,M,M,M,M,M,M,M,M,M,M,M,M,66.20,KBVU 062235Z AUTO 04012KT 10SM CLR 19/10 A2984 RMK AO2 LTG DSNT NE AND SE,M
BAM,2025-05-06 22:35,-116.8743,40.5990,1382.36,60.80,33.80,36.16,340.00,6.00,0.00,30.06,M,10.00,M,SCT,M,M,M,7000.00,M,M,M,M,M,M,M,M,M,M,60.80,KBAM 062235Z AUTO 34006KT 10SM SCT070 16/01 A3006 RMK AO1,M
CXP,2025-05-06 22:35,-119.7326,39.1923,1431.00,64.40,21.20,18.96,100.00,11.00,0.00,30.04,M,10.00,M,CLR,M,M,M,M,M,M,M,M,M,M,M,M,M,M,64.40,KCXP 062235Z AUTO 10011KT 10SM CLR 18/M06 A3004 RMK AO2,M
HTH,2025-05-06 22:35,-118.6315,38.5448,1282.89,64.40,21.20,18.96,330.00,13.00,0.00,30.02,M,10.00,19.00,CLR,M,M,M,M,M,M,M,M,M,M,M,M,M,M,64.40,KHTH 062235Z AUTO 33013G19KT 10SM CLR 18/M06 A3002 RMK A01,M
TMT,2025-05-06 22:35,-117.1971,39.4643,1749.34,52.70,29.50,40.73,20.00,4.00,0.00,30.07,M,10.00,M,BKN,BKN,M,M,5000.00,7000.00,M,M,M,M,M,M,M,M,M,52.70,KTMT 062235Z AUTO 02004KT 10SM BKN050 BKN070 12/M01 A3007 RMK AO2 T01151014,M
P68,2025-05-06 22:53,-116.0056,39.6014,1993.00,57.00,28.00,32.75,10.00,6.00,0.00,30.02,1013.60,M,17.00,M,M,M,M,M,M,M,M,M,M,M,M,M,M,M,57.00,KP68 062253Z AUTO 01006G17KT 14/M02 A3002 RMK AO1 SLP136 T01391022,M
DRA,2025-05-06 22:53,-116.0278,36.6206,1009.00,71.00,26.00,18.47,300.00,12.00,0.00,29.88,1008.90,10.00,22.00,BKN,M,M,M,12000.00,M,M,M,M,M,M,M,M,M,M,71.00,KDRA 062253Z AUTO 30012G22KT 10SM BKN120 22/M03 A2988 RMK AO2 SLP089 T02171033,M
ELY,2025-05-06 22:53,-114.8453,39.2950,1909.00,51.00,32.00,47.99,340.00,7.00,0.00,30.03,1013.60,10.00,M,FEW,M,M,M,4800.00,M,M,M,M,M,M,M,M,M,M,51.00,KELY 062253Z AUTO 34007KT 10SM FEW048 11/00 A3003 RMK AO2 SLP136 T01060000,M
VGT,2025-05-06 22:53,-115.1933,36.2111,667.00,70.00,47.00,43.82,150.00,9.00,0.00,29.83,1010.60,10.00,M,CLR,M,M,M,M,M,M,M,M,M,M,M,M,M,M,70.00,KVGT 062253Z 15009KT 10SM CLR 21/08 A2983 RMK AO2 SLP106 T02110083,M
LOL,2025-05-06 22:53,-118.5701,40.0684,1192.43,65.00,25.00,21.78,M,6.00,0.00,30.01,1014.40,10.00,M,SCT,M,M,M,8000.00,M,M,M,M,M,M,M,M,M,M,65.00,KLOL 062253Z AUTO VRB06KT 10SM SCT080 18/M04 A3001 RMK AO2 SLP144 T01831039,M
BVU,2025-05-06 22:55,-114.8611,35.9475,671.00,68.00,48.20,49.10,60.00,8.00,0.00,29.83,M,10.00,13.00,CLR,M,M,M,M,M,M,M,M,M,M,M,M,M,M,68.00,KBVU 062255Z AUTO 06008G13KT 10SM CLR 20/09 A2983 RMK AO2 LTG DSNT NE-SE,M
RNO,2025-05-06 22:55,-119.7711,39.4839,1341.00,66.00,22.00,18.55,M,3.00,0.00,30.02,1013.60,10.00,M,CLR,M,M,M,M,M,M,M,M,M,M,M,M,M,M,66.00,KRNO 062255Z VRB03KT 10SM CLR 19/M06 A3002 RMK AO2 SLP136 FU DSNT W T01891056,M
BAM,2025-05-06 22:55,-116.8743,40.5990,1382.36,60.80,33.80,36.16,340.00,4.00,0.00,30.06,M,10.00,M,SCT,M,M,M,7000.00,M,M,M,M,M,M,M,M,M,M,60.80,KBAM 062255Z AUTO 34004KT 10SM SCT070 16/01 A3006 RMK AO1,M
CXP,2025-05-06 22:55,-119.7326,39.1923,1431.00,64.40,21.20,18.96,70.00,10.00,0.00,30.04,M,10.00,16.00,CLR,M,M,M,M,M,M,M,M,M,M,M,M,M,M,64.40,KCXP 062255Z AUTO 07010G16KT 10SM CLR 18/M06 A3004 RMK AO2,M
RTS,2025-05-06 22:55,-119.8764,39.6682,1539.00,60.80,21.20,21.53,40.00,10.00,0.00,30.04,M,10.00,16.00,CLR,M,M,M,M,M,M,M,M,M,M,M,M,M,M,60.80,KRTS 062255Z AUTO 04010G16KT 10SM CLR 16/M06 A3004 RMK AO2,M
MEV,2025-05-06 22:55,-119.7500,38.9963,1441.42,66.20,17.60,15.27,10.00,16.00,0.00,30.00,M,10.00,M,CLR,M,M,M,M,M,M,M,M,M,M,M,M,M,M,66.20,KMEV 062255Z AUTO 01016KT 10SM CLR 19/M08 A3000 RMK AO2,M
HTH,2025-05-06 22:55,-118.6315,38.5448,1282.89,64.40,17.60,16.26,330.00,11.00,0.00,30.02,M,10.00,20.00,CLR,M,M,M,M,M,M,M,M,M,M,M,M,M,M,64.40,KHTH 062255Z AUTO 33011G20KT 10SM CLR 18/M08 A3002 RMK A01,M
TMT,2025-05-06 22:55,-117.1971,39.4643,1749.34,53.40,28.40,37.95,0.00,0.00,0.00,30.07,M,10.00,M,SCT,SCT,M,M,5000.00,7500.00,M,M,M,M,M,M,M,M,M,53.40,KTMT 062255Z AUTO 00000KT 10SM SCT050 SCT075 12/M02 A3007 RMK AO2 T01191020,M
INS,2025-05-06 22:55,-115.6733,36.5872,955.00,71.20,12.00,10.07,300.00,11.00,0.00,29.87,1008.60,10.00,25.00,OVC,M,M,M,10000.00,M,M,M,M,M,M,M,29.00,320.00,2025-05-06 22:21,71.20,KINS 062255Z AUTO 30011G25KT 10SM OVC100 22/M11 A2987 RMK AO2 PK WND 32029/21 SLP086 T02181112 $,M
LSV,2025-05-06 22:55,-115.0343,36.2362,570.00,72.00,46.20,39.72,130.00,10.00,0.00,29.79,1007.40,10.00,M,FEW,BKN,M,M,5000.00,12000.00,M,M,M,M,M,M,M,M,M,72.00,KLSV 062255Z 13010KT 10SM FEW050 BKN120 22/08 A2979 RMK AO2A SLP074 T02220079 $,M
EKO,2025-05-06 22:56,-115.7860,40.8242,1367.00,59.00,31.00,34.45,M,3.00,0.00,30.02,1014.60,10.00,M,BKN,M,M,M,6500.00,M,M,M,M,M,M,M,M,M,M,59.00,KEKO 062256Z AUTO VRB03KT 10SM BKN065 15/M01 A3002 RMK AO2 SLP146 T01501006,M
WMC,2025-05-06 22:56,-117.8072,40.9019,1315.00,64.00,30.00,27.71,40.00,9.00,0.00,30.03,1015.10,10.00,M,SCT,M,M,M,7000.00,M,M,M,M,M,M,M,M,M,M,64.00,KWMC 062256Z AUTO 04009KT 10SM SCT070 18/M01 A3003 RMK AO2 SLP151 T01781011,M
HND,2025-05-06 22:56,-115.1344,35.9729,742.79,71.00,44.00,37.80,M,3.00,0.00,29.86,1011.40,10.00,M,CLR,M,M,M,M,M,M,M,M,M,M,M,M,M,M,71.00,KHND 062256Z VRB03KT 10SM CLR 22/07 A2986 RMK AO2 LTG DSNT SE SLP114 T02170067 $,M
TPH,2025-05-06 22:56,-117.0904,38.0505,1654.00,59.00,20.00,21.81,10.00,15.00,0.00,30.00,1013.50,10.00,22.00,FEW,SCT,M,M,9000.00,11000.00,M,M,M,M,M,M,M,M,M,59.00,KTPH 062256Z AUTO 01015G22KT 10SM FEW090 SCT110 15/M07 A3000 RMK AO2 SLP135 T01501067,M
LAS,2025-05-06 22:56,-115.1634,36.0719,663.00,68.00,48.00,48.73,100.00,6.00,0.00,29.84,1009.40,10.00,M,FEW,FEW,BKN,BKN,11000.00,16000.00,20000.00,25000.00,M,M,M,M,M,M,M,68.00,KLAS 062256Z 10006KT 10SM FEW110 FEW160 BKN200 BKN250 20/09 A2984 RMK AO2 SLP094 CB DSNT E-SE T02000089,M
NFL,2025-05-06 22:57,-118.7010,39.4166,1199.00,67.00,26.00,21.18,20.00,10.00,0.00,30.01,1013.30,10.00,18.00,SCT,M,M,M,6000.00,M,M,M,M,M,M,M,M,M,M,67.00,KNFL 062257Z 02010G18KT 10SM SCT060 19/M03 A3001 RMK AO2 SLP133 T01941033,M
BVU,2025-05-06 23:15,-114.8611,35.9475,671.00,68.00,46.40,45.88,80.00,6.00,0.00,29.83,M,10.00,M,CLR,M,M,M,M,M,M,M,M,M,M,M,M,M,M,68.00,KBVU 062315Z AUTO 08006KT 10SM CLR 20/08 A2983 RMK AO2 LTG DSNT SE,M
BAM,2025-05-06 23:15,-116.8743,40.5990,1382.36,60.80,33.80,36.16,320.00,7.00,0.00,30.05,M,10.00,M,CLR,M,M,M,M,M,M,M,M,M,M,M,M,M,M,60.80,KBAM 062315Z AUTO 32007KT 10SM CLR 16/01 A3005 RMK AO1,M
CXP,2025-05-06 23:15,-119.7326,39.1923,1431.00,64.40,21.20,18.96,80.00,11.00,0.00,30.03,M,10.00,M,CLR,M,M,M,M,M,M,M,M,M,M,M,M,M,M,64.40,KCXP 062315Z AUTO 08011KT 10SM CLR 18/M06 A3003 RMK AO2,M
RTS,2025-05-06 23:15,-119.8764,39.6682,1539.00,60.80,19.40,19.94,10.00,6.00,0.00,30.04,M,10.00,16.00,CLR,M,M,M,M,M,M,M,M,M,M,M,M,M,M,60.80,KRTS 062315Z AUTO 01006G16KT 10SM CLR 16/M07 A3004 RMK AO2,M
MEV,2025-05-06 23:15,-119.7500,38.9963,1441.42,66.20,17.60,15.27,360.00,16.00,0.00,30.00,M,10.00,M,CLR,M,M,M,M,M,M,M,M,M,M,M,M,M,M,66.20,KMEV 062315Z AUTO 36016KT 10SM CLR 19/M08 A3000 RMK AO2,M
HTH,2025-05-06 23:15,-118.6315,38.5448,1282.89,64.40,21.20,18.96,320.00,14.00,0.00,30.02,M,10.00,M,CLR,M,M,M,M,M,M,M,M,M,M,M,M,M,M,64.40,KHTH 062315Z AUTO 32014KT 10SM CLR 18/M06 A3002 RMK A01,M
TMT,2025-05-06 23:15,-117.1971,39.4643,1749.34,54.00,27.70,36.07,360.00,8.00,0.00,30.07,M,10.00,M,SCT,BKN,M,M,6000.00,7500.00,M,M,M,M,M,M,M,M,M,54.00,KTMT 062315Z AUTO 36008KT 10SM SCT060 BKN075 12/M02 A3007 RMK AO2 T01221024,M
CXP,2025-05-06 23:30,-119.7326,39.1923,1431.00,64.40,21.20,18.96,70.00,12.00,0.00,30.03,M,10.00,M,CLR,M,M,M,M,M,M,M,M,M,M,M,M,M,M,64.40,KCXP 062330Z AUTO 07012KT 10SM CLR 18/M06 A3003 RMK AO2,M
BVU,2025-05-06 23:35,-114.8611,35.9475,671.00,68.00,46.40,45.88,90.00,4.00,0.00,29.83,M,10.00,M,CLR,M,M,M,M,M,M,M,M,M,M,M,M,M,M,68.00,KBVU 062335Z AUTO 09004KT 10SM CLR 20/08 A2983 RMK AO2,M
BAM,2025-05-06 23:35,-116.8743,40.5990,1382.36,62.60,33.80,33.93,20.00,4.00,0.00,30.05,M,10.00,M,SCT,M,M,M,6000.00,M,M,M,M,M,M,M,M,M,M,62.60,KBAM 062335Z AUTO 02004KT 10SM SCT060 17/01 A3005 RMK AO1,M
RTS,2025-05-06 23:35,-119.8764,39.6682,1539.00,60.80,21.20,21.53,40.00,8.00,0.00,30.04,M,10.00,14.00,CLR,M,M,M,M,M,M,M,M,M,M,M,M,M,M,60.80,KRTS 062335Z AUTO 04008G14KT 10SM CLR 16/M06 A3004 RMK AO2,M
MEV,2025-05-06 23:35,-119.7500,38.9963,1441.42,66.20,17.60,15.27,10.00,13.00,0.00,30.00,M,10.00,19.00,CLR,M,M,M,M,M,M,M,M,M,M,M,M,M,M,66.20,KMEV 062335Z AUTO 01013G19KT 10SM CLR 19/M08 A3000 RMK AO2,M
HTH,2025-05-06 23:35,-118.6315,38.5448,1282.89,64.40,19.40,17.56,320.00,13.00,0.00,30.02,M,10.00,19.00,CLR,M,M,M,M,M,M,M,M,M,M,M,M,M,M,64.40,KHTH 062335Z AUTO 32013G19KT 10SM CLR 18/M07 A3002 RMK A01,M
TMT,2025-05-06 23:35,-117.1971,39.4643,1749.34,54.70,28.60,36.49,20.00,12.00,0.00,30.07,M,10.00,15.00,SCT,BKN,M,M,6000.00,7500.00,M,M,M,M,M,M,M,M,M,54.70,KTMT 062335Z AUTO 02012G15KT 10SM SCT060 BKN075 13/M02 A3007 RMK AO2 T01261019,M
P68,2025-05-06 23:53,-116.0056,39.6014,1993.00,56.00,26.00,31.27,30.00,7.00,0.00,30.02,1013.90,M,M,M,M,M,M,M,M,M,M,M,M,M,M,M,M,M,56.00,KP68 062353Z AUTO 03007KT 13/M03 A3002 RMK AO1 SLP139 T01331033 10144 20056 56004,M
VGT,2025-05-06 23:53,-115.1933,36.2111,667.00,71.00,44.00,37.80,140.00,8.00,0.00,29.83,1010.60,10.00,19.00,FEW,M,M,M,11000.00,M,M,M,M,M,M,M,M,M,M,71.00,KVGT 062353Z 14008G19KT 10SM FEW110 22/07 A2983 RMK AO2 SLP106 60000 T02170067 10222 20183 55005,M
DRA,2025-05-06 23:53,-116.0278,36.6206,1009.00,67.00,23.00,18.69,M,M,0.00,29.89,1009.70,10.00,M,FEW,FEW,OVC,M,6500.00,8000.00,10000.00,M,M,M,M,M,M,M,M,67.00,KDRA 062353Z AUTO 10SM FEW065 FEW080 OVC100 19/M05 A2989 RMK AO2 SLP097 T01941050 10244 20194 53002,M
ELY,2025-05-06 23:53,-114.8453,39.2950,1909.00,52.00,27.00,37.72,0.00,0.00,0.00,30.04,1014.20,10.00,M,OVC,M,M,M,6500.00,M,M,M,M,M,M,M,M,M,M,52.00,KELY 062353Z AUTO 00000KT 10SM OVC065 11/M03 A3004 RMK AO2 SLP142 60006 T01111028 10111 20028 55007,M
LOL,2025-05-06 23:53,-118.5701,40.0684,1192.43,66.00,26.00,21.93,120.00,7.00,0.00,30.00,1014.20,10.00,M,CLR,M,M,M,M,M,M,M,M,M,M,M,M,M,M,66.00,KLOL 062353Z AUTO 12007KT 10SM CLR 19/M03 A3000 RMK AO2 SLP142 T01891033 10194 20139 56007,M
BVU,2025-05-06 23:55,-114.8611,35.9475,671.00,69.80,46.40,43.13,150.00,3.00,0.00,29.83,M,10.00,M,CLR,M,M,M,M,M,M,M,VCTS,M,M,M,M,M,M,69.80,KBVU 062355Z AUTO 15003KT 10SM VCTS CLR 21/08 A2983 RMK AO2 LTG DSNT SE,M
RNO,2025-05-06 23:55,-119.7711,39.4839,1341.00,65.00,21.00,18.41,0.00,0.00,0.00,30.01,1013.50,10.00,M,CLR,M,M,M,M,M,M,M,M,M,M,M,M,M,M,65.00,KRNO 062355Z 00000KT 10SM CLR 18/M06 A3001 RMK AO2 SLP135 FU DSNT W T01831061 10194 20133 56009,M
BAM,2025-05-06 23:55,-116.8743,40.5990,1382.36,62.60,33.80,33.93,320.00,5.00,0.00,30.05,M,10.00,M,SCT,M,M,M,6000.00,M,M,M,M,M,M,M,M,M,M,62.60,KBAM 062355Z AUTO 32005KT 10SM SCT060 17/01 A3005 RMK AO1,M
CXP,2025-05-06 23:55,-119.7326,39.1923,1431.00,64.40,21.20,18.96,50.00,12.00,0.00,30.03,M,10.00,20.00,CLR,M,M,M,M,M,M,M,M,M,M,M,M,M,M,64.40,KCXP 062355Z AUTO 05012G20KT 10SM CLR 18/M06 A3003 RMK AO2,M
RTS,2025-05-06 23:55,-119.8764,39.6682,1539.00,60.80,21.20,21.53,50.00,11.00,0.00,30.04,M,10.00,M,CLR,M,M,M,M,M,M,M,M,M,M,M,M,M,M,60.80,KRTS 062355Z AUTO 05011KT 10SM CLR 16/M06 A3004 RMK AO2,M
MEV,2025-05-06 23:55,-119.7500,38.9963,1441.42,66.20,17.60,15.27,10.00,10.00,0.00,30.00,M,10.00,17.00,CLR,M,M,M,M,M,M,M,M,M,M,M,M,M,M,66.20,KMEV 062355Z AUTO 01010G17KT 10SM CLR 19/M08 A3000 RMK AO2,M
HTH,2025-05-06 23:55,-118.6315,38.5448,1282.89,64.40,19.40,17.56,320.00,13.00,0.00,30.02,M,10.00,19.00,CLR,M,M,M,M,M,M,M,M,M,M,M,M,M,M,64.40,KHTH 062355Z AUTO 32013G19KT 10SM CLR 18/M07 A3002 RMK A01,M
TMT,2025-05-06 23:55,-117.1971,39.4643,1749.34,53.80,28.00,36.79,360.00,11.00,0.00,30.07,M,10.00,M,BKN,BKN,M,M,6000.00,7500.00,M,M,M,M,M,M,M,M,M,53.80,KTMT 062355Z AUTO 36011KT 10SM BKN060 BKN075 12/M02 A3007 RMK AO2 T01211023 10132 20070,M
INS,2025-05-06 23:55,-115.6733,36.5872,955.00,69.60,16.50,12.95,320.00,16.00,0.00,29.88,1009.10,10.00,21.00,OVC,M,M,M,11000.00,M,M,M,M,M,M,M,M,M,M,69.60,KINS 062355Z AUTO 32016G21KT 10SM OVC110 21/M09 A2988 RMK AO2 SLP091 T02091086 10230 20193 53006 $,M
LSV,2025-05-06 23:55,-115.0343,36.2362,570.00,71.80,42.00,34.07,90.00,8.00,0.00,29.80,1007.70,10.00,M,FEW,M,M,M,15000.00,M,M,M,M,M,M,M,M,M,M,71.80,KLSV 062355Z AUTO 09008KT 10SM FEW150 22/06 A2980 RMK AO2 SLP077 60000 T02210055 10225 20195 58001 $,M
EKO,2025-05-06 23:56,-115.7860,40.8242,1367.00,60.00,30.00,31.92,0.00,0.00,0.00,30.01,1014.50,10.00,M,OVC,M,M,M,7000.00,M,M,M,M,M,M,M,M,M,M,60.00,KEKO 062356Z AUTO 00000KT 10SM OVC070 16/M01 A3001 RMK AO2 SLP145 T01561011 10161 20094 58003,M
WMC,2025-05-06 23:56,-117.8072,40.9019,1315.00,64.00,30.00,27.71,60.00,8.00,0.00,30.03,1014.90,10.00,M,CLR,M,M,M,M,M,M,M,M,M,M,M,M,M,M,64.00,KWMC 062356Z AUTO 06008KT 10SM CLR 18/M01 A3003 RMK AO2 SLP149 T01781011 10183 20128 56005,M
HND,2025-05-06 23:56,-115.1344,35.9729,742.79,70.00,45.00,40.63,40.00,9.00,0.00,29.86,1011.60,10.00,M,SCT,M,M,M,11000.00,M,M,M,M,M,M,M,M,M,M,70.00,KHND 062356Z AUTO 04009KT 10SM SCT110 21/07 A2986 RMK AO2 SLP116 60000 T02110072 10233 20167 55006 $,M
TPH,2025-05-06 23:56,-117.0904,38.0505,1654.00,58.00,25.00,27.91,80.00,21.00,0.00,30.00,1012.90,10.00,28.00,SCT,BKN,M,M,9000.00,11000.00,M,M,M,M,M,M,28.00,70.00,2025-05-06 23:48,58.00,KTPH 062356Z AUTO 08021G28KT 10SM SCT090 BKN110 14/M04 A3000 RMK AO2 PK WND 07028/2348 SLP129 T01441039 10167 20122 57001,M
LAS,2025-05-06 23:56,-115.1634,36.0719,663.00,68.00,47.00,46.93,60.00,10.00,0.00,29.86,1009.90,10.00,M,FEW,BKN,BKN,BKN,8000.00,11000.00,20000.00,25000.00,M,M,M,M,M,M,M,68.00,KLAS 062356Z 06010KT 10SM FEW080 BKN110 BKN200 BKN250 20/08 A2986 RMK AO2 SLP099 60061 T02000083 10211 20139 55001,M
NFL,2025-05-06 23:57,-118.7010,39.4166,1199.00,67.00,26.00,21.18,60.00,12.00,0.00,30.01,1013.20,10.00,16.00,SCT,M,M,M,6000.00,M,M,M,M,M,M,M,M,M,M,67.00,KNFL 062357Z 06012G16KT 10SM SCT060 19/M03 A3001 RMK AO2 SLP132 T01941033 10200 20150 56007,M
