station,valid,lon,lat,elevation,tmpf,dwpf,relh,drct,sknt,p01i,alti,mslp,vsby,gust,skyc1,skyc2,skyc3,skyc4,skyl1,skyl2,skyl3,skyl4,wxcodes,ice_accretion_1hr,ice_accretion_3hr,ice_accretion_6hr,peak_wind_gust,peak_wind_drct,peak_wind_time,feel,metar,snowdepth
05U,2023-01-30 00:10,-116.0051,39.6042,1811.23,21.20,15.80,79.31,10.00,9.00,0.00,29.84,M,10.00,M,M,M,M,M,M,M,M,M,M,M,M,M,M,M,M,10.08,K05U 300010Z AUTO 01009KT 10SM M06/M09 A2984 RMK A01,M
BVU,2023-01-30 00:15,-114.8611,35.9475,671.00,55.40,28.40,35.28,170.00,16.00,0.00,29.73,M,10.00,M,CLR,M,M,M,M,M,M,M,M,M,M,M,M,M,M,55.40,KBVU 300015Z AUTO 17016KT 10SM CLR 13/M02 A2973 RMK AO2,M
CXP,2023-01-30 00:15,-119.7326,39.1923,1431.00,26.60,14.00,58.49,30.00,10.00,0.00,29.90,M,10.00,M,FEW,OVC,M,M,4200.00,4900.00,M,M,M,M,M,M,M,M,M,16.20,KCXP 300015Z AUTO 03010KT 10SM FEW042 OVC049 M03/M10 A2990 RMK AO2,M
RTS,2023-01-30 00:15,-119.8764,39.6682,1539.00,24.80,10.40,53.75,30.00,9.00,0.00,29.90,M,10.00,M,CLR,M,M,M,M,M,M,M,M,M,M,M,M,M,M,14.56,KRTS 300015Z AUTO 03009KT 10SM CLR M04/M12 A2990 RMK AO2,M
MEV,2023-01-30 00:15,-119.7500,38.9963,1441.42,26.60,21.20,79.77,350.00,13.00,0.00,29.87,M,10.00,M,FEW,BKN,OVC,M,1800.00,2400.00,3200.00,M,M,M,M,M,M,M,M,14.65,KMEV 300015Z AUTO 35013KT 10SM FEW018 BKN024 OVC032 M03/M06 A2987 RMK AO2,M
BAM,2023-01-30 00:15,-116.8743,40.5990,1382.36,28.40,12.20,50.17,50.00,8.00,0.00,29.95,M,10.00,M,CLR,M,M,M,M,M,M,M,M,M,M,M,M,M,M,19.68,KBAM 300015Z AUTO 05008KT 10SM CLR M02/M11 A2995 RMK AO1,M
05U,2023-01-30 00:30,-116.0051,39.6042,1811.23,21.20,15.80,79.31,20.00,10.00,0.00,29.85,M,10.00,15.00,M,M,M,M,M,M,M,M,M,M,M,M,M,M,M,9.42,K05U 300030Z AUTO 02010G15KT 10SM M06/M09 A2985 RMK A01,M
BVU,2023-01-30 00:35,-114.8611,35.9475,671.00,55.40,28.40,35.28,160.00,19.00,0.00,29.73,M,10.00,24.00,FEW,M,M,M,7000.00,M,M,M,M,M,M,M,M,M,M,55.40,KBVU 300035Z AUTO 16019G24KT 10SM FEW070 13/M02 A2973 RMK AO2,M
CXP,2023-01-30 00:35,-119.7326,39.1923,1431.00,26.60,14.00,58.49,50.00,10.00,0.00,29.91,M,10.00,M,FEW,OVC,M,M,4000.00,5000.00,M,M,M,M,M,M,M,M,M,16.20,KCXP 300035Z AUTO 05010KT 10SM FEW040 OVC050 M03/M10 A2991 RMK AO2,M
RTS,2023-01-30 00:35,-119.8764,39.6682,1539.00,24.80,8.60,49.59,60.00,7.00,0.00,29.91,M,10.00,13.00,CLR,M,M,M,M,M,M,M,M,M,M,M,M,M,M,16.00,KRTS 300035Z AUTO 06007G13KT 10SM CLR M04/M13 A2991 RMK AO2,M
MEV,2023-01-30 00:35,-119.7500,38.9963,1441.42,26.60,21.20,79.77,360.00,13.00,0.00,29.88,M,10.00,M,BKN,OVC,M,M,1800.00,2400.00,M,M,M,M,M,M,M,M,M,14.65,KMEV 300035Z AUTO 36013KT 10SM BKN018 OVC024 M03/M06 A2988 RMK AO2,M
BAM,2023-01-30 00:35,-116.8743,40.5990,1382.36,28.40,12.20,50.17,70.00,8.00,0.00,29.95,M,10.00,M,CLR,M,M,M,M,M,M,M,M,M,M,M,M,M,M,19.68,KBAM 300035Z AUTO 07008KT 10SM CLR M02/M11 A2995 RMK AO1,M
05U,2023-01-30 00:50,-116.0051,39.6042,1811.23,19.40,14.00,79.16,20.00,8.00,0.00,29.86,M,10.00,M,M,M,M,M,M,M,M,M,M,M,M,M,M,M,M,8.59,K05U 300050Z AUTO 02008KT 10SM M07/M10 A2986 RMK A01,M
ELY,2023-01-30 00:51,-114.8453,39.2950,1909.00,19.40,17.60,92.57,20.00,17.00,0.01,29.78,M,M,M,OVC,M,M,M,1700.00,M,M,M,-SN,M,M,M,M,M,M,3.57,KELY 300051Z AUTO 02017KT -SN OVC017 M07/M08 A2978 RMK AO2 P0001 $,M
P68,2023-01-30 00:53,-116.0056,39.6014,1993.00,19.00,14.00,80.52,20.00,9.00,0.00,29.83,1014.10,M,M,M,M,M,M,M,M,M,M,M,M,M,M,M,M,M,7.35,KP68 300053Z AUTO 02009KT M07/M10 A2983 RMK AO1 SLP141 T10721100,M
DRA,2023-01-30 00:53,-116.0278,36.6206,1009.00,50.00,26.10,39.14,180.00,14.00,0.00,29.70,1005.00,10.00,M,OVC,M,M,M,7500.00,M,M,M,M,M,M,M,M,M,M,50.00,KDRA 300053Z AUTO 18014KT 10SM OVC075 10/M03 A2970 RMK AO2 SLP050 T01001033,M
ELY,2023-01-30 00:53,-114.8453,39.2950,1909.00,19.90,18.00,92.19,20.00,18.00,0.01,29.78,1012.60,M,M,OVC,M,M,M,1700.00,M,M,M,-SN,M,M,M,M,M,M,3.82,KELY 300053Z AUTO 02018KT -SN OVC017 M07/M08 A2978 RMK AO2 SLP126 P0001 T10671078 $,M
LOL,2023-01-30 00:53,-118.5701,40.0684,1192.43,27.00,10.90,50.17,30.00,20.00,0.00,29.93,1015.90,10.00,26.00,BKN,M,M,M,5000.00,M,M,M,M,M,M,M,28.00,30.00,2023-01-30 00:02,12.50,KLOL 300053Z AUTO 03020G26KT 10SM BKN050 M03/M12 A2993 RMK AO2 PK WND 03028/0002 SLP159 T10281117,M
VGT,2023-01-30 00:53,-115.1933,36.2111,667.00,56.00,27.00,32.71,170.00,9.00,0.00,29.71,1007.90,10.00,19.00,CLR,M,M,M,M,M,M,M,M,M,M,M,M,M,M,55.90,KVGT 300053Z AUTO 17009G19KT 10SM CLR 13/M03 A2971 RMK AO2 SLP079 T01331028,M
BVU,2023-01-30 00:55,-114.8611,35.9475,671.00,53.60,30.20,40.54,170.00,17.00,0.00,29.74,M,10.00,M,FEW,M,M,M,7000.00,M,M,M,M,M,M,M,M,M,M,53.60,KBVU 300055Z AUTO 17017KT 10SM FEW070 12/M01 A2974 RMK AO2,M
CXP,2023-01-30 00:55,-119.7326,39.1923,1431.00,26.60,17.60,68.40,50.00,5.00,0.00,29.92,M,10.00,11.00,OVC,M,M,M,5500.00,M,M,M,M,M,M,M,M,M,M,19.98,KCXP 300055Z AUTO 05005G11KT 10SM OVC055 M03/M08 A2992 RMK AO2,M
INS,2023-01-30 00:55,-115.6733,36.5872,955.00,50.00,21.40,32.14,310.00,4.00,0.00,29.71,1005.80,10.00,M,OVC,M,M,M,7000.00,M,M,M,M,M,M,M,M,M,M,50.00,KINS 300055Z AUTO 31004KT 10SM OVC070 10/M06 A2971 RMK AO2 SLP058 T01001059,M
RNO,2023-01-30 00:55,-119.7711,39.4839,1341.00,27.00,12.00,52.68,10.00,7.00,0.00,29.92,1015.00,10.00,16.00,SCT,BKN,M,M,4500.00,5000.00,M,M,M,M,M,M,M,M,M,18.68,KRNO 300055Z 01007G16KT 10SM SCT045 BKN050 M03/M11 A2992 RMK AO2 SLP150 T10281111 $,M
LSV,2023-01-30 00:55,-115.0343,36.2362,570.00,56.70,27.10,31.90,220.00,16.00,0.00,29.69,1005.20,10.00,M,CLR,M,M,M,M,M,M,M,M,M,M,M,M,M,M,56.70,KLSV 300055Z AUTO 22016KT 10SM CLR 14/M03 A2969 RMK AO2 SLP052 T01371027 $,M
RTS,2023-01-30 00:55,-119.8764,39.6682,1539.00,23.00,6.80,49.29,60.00,8.00,0.00,29.91,M,10.00,M,CLR,M,M,M,M,M,M,M,M,M,M,M,M,M,M,13.03,KRTS 300055Z AUTO 06008KT 10SM CLR M05/M14 A2991 RMK AO2,M
MEV,2023-01-30 00:55,-119.7500,38.9963,1441.42,24.80,21.20,85.96,360.00,13.00,0.00,29.90,M,9.00,M,SCT,OVC,M,M,1700.00,2700.00,M,M,UP,M,M,M,M,M,M,12.34,KMEV 300055Z AUTO 36013KT 9SM UP SCT017 OVC027 M04/M06 A2990 RMK AO2,M
BAM,2023-01-30 00:55,-116.8743,40.5990,1382.36,26.60,12.20,54.03,80.00,5.00,0.00,29.96,M,10.00,M,CLR,M,M,M,M,M,M,M,M,M,M,M,M,M,M,19.98,KBAM 300055Z AUTO 08005KT 10SM CLR M03/M11 A2996 RMK AO1,M
NFL,2023-01-30 00:56,-118.7010,39.4166,1199.00,30.90,19.00,60.92,10.00,15.00,0.00,29.89,1009.70,10.00,24.00,OVC,M,M,M,3700.00,M,M,M,M,M,M,M,M,M,M,19.35,KNFL 300056Z AUTO 01015G24KT 10SM OVC037 M01/M07 A2989 RMK AO2 SLP097 T10061072,M
HND,2023-01-30 00:56,-115.1344,35.9729,742.79,54.00,25.00,32.26,210.00,12.00,0.00,29.75,1009.30,10.00,M,CLR,M,M,M,M,M,M,M,M,M,M,M,M,M,M,54.00,KHND 300056Z 21012KT 10SM CLR 12/M04 A2975 RMK AO2 SLP093 T01221039,M
TPH,2023-01-30 00:56,-117.0904,38.0505,1654.00,M,M,M,20.00,11.00,0.00,29.74,M,M,M,OVC,M,M,M,5000.00,M,M,M,M,M,M,M,M,M,M,M,KTPH 300056Z AUTO 02011KT OVC050 A2974 RMK AO2 SLPNO PWINO $,M
LAS,2023-01-30 00:56,-115.1634,36.0719,663.00,54.00,26.10,33.77,210.00,7.00,0.00,29.73,1006.60,10.00,M,FEW,M,M,M,8000.00,M,M,M,M,M,M,M,M,M,M,54.00,KLAS 300056Z 21007KT 10SM FEW080 12/M03 A2973 RMK AO2 SLP066 T01221033,M
EKO,2023-01-30 00:56,-115.7860,40.8242,1367.00,18.00,6.00,59.06,10.00,6.00,0.00,29.91,1016.60,10.00,M,CLR,M,M,M,M,M,M,M,M,M,M,M,M,M,M,8.67,KEKO 300056Z AUTO 01006KT 10SM CLR M08/M14 A2991 RMK AO2 SLP166 T10781144,M
05U,2023-01-30 01:10,-116.0051,39.6042,1811.23,19.40,14.00,79.16,30.00,8.00,0.00,29.86,M,10.00,M,M,M,M,M,M,M,M,M,M,M,M,M,M,M,M,8.59,K05U 300110Z AUTO 03008KT 10SM M07/M10 A2986 RMK A01,M
BVU,2023-01-30 01:15,-114.8611,35.9475,671.00,53.60,30.20,40.54,160.00,15.00,0.00,29.75,M,10.00,21.00,FEW,M,M,M,7000.00,M,M,M,M,M,M,M,M,M,M,53.60,KBVU 300115Z AUTO 16015G21KT 10SM FEW070 12/M01 A2975 RMK AO2,M
CXP,2023-01-30 01:15,-119.7326,39.1923,1431.00,26.60,12.20,54.03,60.00,9.00,0.00,29.92,M,10.00,M,OVC,M,M,M,5500.00,M,M,M,M,M,M,M,M,M,M,16.80,KCXP 300115Z AUTO 06009KT 10SM OVC055 M03/M11 A2992 RMK AO2,M
RTS,2023-01-30 01:15,-119.8764,39.6682,1539.00,21.20,5.00,48.99,10.00,6.00,0.00,29.92,M,10.00,M,CLR,M,M,M,M,M,M,M,M,M,M,M,M,M,M,12.52,KRTS 300115Z AUTO 01006KT 10SM CLR M06/M15 A2992 RMK AO2,M
MEV,2023-01-30 01:15,-119.7500,38.9963,1441.42,24.80,19.40,79.62,10.00,9.00,0.00,29.91,M,10.00,15.00,SCT,OVC,M,M,2100.00,2700.00,M,M,M,M,M,M,M,M,M,14.56,KMEV 300115Z AUTO 01009G15KT 10SM SCT021 OVC027 M04/M07 A2991 RMK AO2,M
BAM,2023-01-30 01:15,-116.8743,40.5990,1382.36,26.60,12.20,54.03,80.00,7.00,0.00,29.96,M,10.00,M,CLR,M,M,M,M,M,M,M,M,M,M,M,M,M,M,18.20,KBAM 300115Z AUTO 08007KT 10SM CLR M03/M11 A2996 RMK AO1,M
05U,2023-01-30 01:30,-116.0051,39.6042,1811.23,19.40,14.00,79.16,30.00,6.00,0.00,29.87,M,10.00,M,M,M,M,M,M,M,M,M,M,M,M,M,M,M,M,10.36,K05U 300130Z AUTO 03006KT 10SM M07/M10 A2987 RMK A01,M
ELY,2023-01-30 01:33,-114.8453,39.2950,1909.00,19.90,18.00,92.19,10.00,17.00,0.01,29.80,M,M,M,OVC,M,M,M,1300.00,M,M,M,SN,M,M,M,M,M,M,4.22,KELY 300133Z AUTO 01017KT SN OVC013 M07/M08 A2980 RMK AO2 P0001 T10671078 $,M
BVU,2023-01-30 01:35,-114.8611,35.9475,671.00,51.80,30.20,43.32,160.00,13.00,0.00,29.76,M,10.00,20.00,FEW,M,M,M,7000.00,M,M,M,M,M,M,M,M,M,M,51.80,KBVU 300135Z AUTO 16013G20KT 10SM FEW070 11/M01 A2976 RMK AO2,M
CXP,2023-01-30 01:35,-119.7326,39.1923,1431.00,26.60,12.20,54.03,50.00,7.00,0.00,29.93,M,10.00,M,BKN,OVC,M,M,5000.00,6000.00,M,M,M,M,M,M,M,M,M,18.20,KCXP 300135Z AUTO 05007KT 10SM BKN050 OVC060 M03/M11 A2993 RMK AO2,M
RTS,2023-01-30 01:35,-119.8764,39.6682,1539.00,19.40,5.00,52.89,0.00,0.00,0.00,29.93,M,10.00,M,CLR,M,M,M,M,M,M,M,M,M,M,M,M,M,M,19.40,KRTS 300135Z AUTO 00000KT 10SM CLR M07/M15 A2993 RMK AO2,M
MEV,2023-01-30 01:35,-119.7500,38.9963,1441.42,24.80,21.20,85.96,360.00,7.00,0.00,29.92,M,10.00,M,BKN,OVC,M,M,2500.00,2900.00,M,M,M,M,M,M,M,M,M,16.00,KMEV 300135Z AUTO 36007KT 10SM BKN025 OVC029 M04/M06 A2992 RMK AO2,M
BAM,2023-01-30 01:35,-116.8743,40.5990,1382.36,24.80,12.20,58.22,100.00,7.00,0.00,29.97,M,10.00,M,CLR,M,M,M,M,M,M,M,M,M,M,M,M,M,M,16.00,KBAM 300135Z AUTO 10007KT 10SM CLR M04/M11 A2997 RMK AO1,M
05U,2023-01-30 01:45,-116.0051,39.6042,1811.23,19.40,14.00,79.16,20.00,5.00,0.00,29.88,M,10.00,M,M,M,M,M,M,M,M,M,M,M,M,M,M,M,M,11.43,K05U 300145Z AUTO 02005KT 10SM M07/M10 A2988 RMK A01,M
ELY,2023-01-30 01:46,-114.8453,39.2950,1909.00,19.90,17.10,88.68,20.00,18.00,0.01,29.81,M,M,M,OVC,M,M,M,1700.00,M,M,M,-SN,M,M,M,M,M,M,3.82,KELY 300146Z AUTO 02018KT -SN OVC017 M07/M08 A2981 RMK AO2 P0001 T10671083 $,M
P68,2023-01-30 01:53,-116.0056,39.6014,1993.00,18.00,12.00,76.97,10.00,6.00,0.00,29.86,1015.40,M,M,M,M,M,M,M,M,M,M,M,M,M,M,M,M,M,8.67,KP68 300153Z AUTO 01006KT M08/M11 A2986 RMK AO1 SLP154 T10781111,M
ELY,2023-01-30 01:53,-114.8453,39.2950,1909.00,19.90,17.10,88.68,20.00,17.00,0.01,29.81,1013.90,M,M,OVC,M,M,M,1900.00,M,M,M,-SN,M,M,M,M,M,M,4.22,KELY 300153Z AUTO 02017KT -SN OVC019 M07/M08 A2981 RMK AO2 SLP139 P0001 T10671083 $,M
VGT,2023-01-30 01:53,-115.1933,36.2111,667.00,55.00,27.00,33.79,190.00,9.00,0.00,29.73,1008.50,10.00,M,BKN,M,M,M,10000.00,M,M,M,M,M,M,M,M,M,M,55.00,KVGT 300153Z AUTO 19009KT 10SM BKN100 13/M03 A2973 RMK AO2 SLP085 T01281028,M
LOL,2023-01-30 01:53,-118.5701,40.0684,1192.43,25.00,10.00,52.36,30.00,18.00,0.00,29.96,1017.10,10.00,25.00,CLR,M,M,M,M,M,M,M,M,M,M,M,28.00,30.00,2023-01-30 01:34,10.53,KLOL 300153Z AUTO 03018G25KT 10SM CLR M04/M12 A2996 RMK AO2 PK WND 03028/0134 SLP171 T10391122,M
DRA,2023-01-30 01:53,-116.0278,36.6206,1009.00,49.00,27.00,42.32,180.00,14.00,0.00,29.71,1005.30,10.00,22.00,SCT,OVC,M,M,8000.00,10000.00,M,M,M,M,M,M,M,M,M,42.95,KDRA 300153Z AUTO 18014G22KT 10SM SCT080 OVC100 09/M03 A2971 RMK AO2 SLP053 T00941028,M
BVU,2023-01-30 01:55,-114.8611,35.9475,671.00,51.80,30.20,43.32,160.00,16.00,0.00,29.76,M,10.00,M,CLR,M,M,M,M,M,M,M,M,M,M,M,M,M,M,51.80,KBVU 300155Z AUTO 16016KT 10SM CLR 11/M01 A2976 RMK AO2,M
CXP,2023-01-30 01:55,-119.7326,39.1923,1431.00,24.80,10.40,53.75,40.00,7.00,0.00,29.94,M,10.00,M,SCT,OVC,M,M,5000.00,6000.00,M,M,M,M,M,M,M,M,M,16.00,KCXP 300155Z AUTO 04007KT 10SM SCT050 OVC060 M04/M12 A2994 RMK AO2,M
INS,2023-01-30 01:55,-115.6733,36.5872,955.00,47.80,21.60,35.19,70.00,3.00,0.00,29.72,1006.20,10.00,M,BKN,OVC,M,M,7500.00,9000.00,M,M,M,M,M,M,M,M,M,46.75,KINS 300155Z AUTO 07003KT 10SM BKN075 OVC090 09/M06 A2972 RMK AO2 SLP062 T00881058,M
RNO,2023-01-30 01:55,-119.7711,39.4839,1341.00,26.10,10.00,50.02,40.00,7.00,0.00,29.94,1015.90,10.00,M,SCT,SCT,M,M,5000.00,7000.00,M,M,M,M,M,M,M,M,M,17.59,KRNO 300155Z 04007KT 10SM SCT050 SCT070 M03/M12 A2994 RMK AO2 SLP159 T10331122 $,M
LSV,2023-01-30 01:55,-115.0343,36.2362,570.00,54.70,26.10,32.92,190.00,12.00,0.00,29.71,1006.00,10.00,M,OVC,M,M,M,9000.00,M,M,M,M,M,M,M,M,M,M,54.70,KLSV 300155Z AUTO 19012KT 10SM OVC090 13/M03 A2971 RMK AO2 SLP060 T01261033 $,M
RTS,2023-01-30 01:55,-119.8764,39.6682,1539.00,19.40,5.00,52.89,70.00,6.00,0.00,29.94,M,10.00,M,CLR,M,M,M,M,M,M,M,M,M,M,M,M,M,M,10.36,KRTS 300155Z AUTO 07006KT 10SM CLR M07/M15 A2994 RMK AO2,M
MEV,2023-01-30 01:55,-119.7500,38.9963,1441.42,24.80,19.40,79.62,360.00,7.00,0.00,29.92,M,9.00,M,OVC,M,M,M,2600.00,M,M,M,M,M,M,M,M,M,M,16.00,KMEV 300155Z AUTO 36007KT 9SM OVC026 M04/M07 A2992 RMK AO2,M
BAM,2023-01-30 01:55,-116.8743,40.5990,1382.36,23.00,12.20,62.78,70.00,11.00,0.00,29.98,M,10.00,14.00,CLR,M,M,M,M,M,M,M,M,M,M,M,M,M,M,11.09,KBAM 300155Z AUTO 07011G14KT 10SM CLR M05/M11 A2998 RMK AO1,M
NFL,2023-01-30 01:56,-118.7010,39.4166,1199.00,28.90,16.00,58.06,10.00,15.00,0.00,29.93,1011.00,10.00,M,OVC,M,M,M,3900.00,M,M,M,M,M,M,M,M,M,M,16.76,KNFL 300156Z AUTO 01015KT 10SM OVC039 M02/M09 A2993 RMK AO2 SLP110 T10171089,M
HND,2023-01-30 01:56,-115.1344,35.9729,742.79,51.00,25.00,35.89,190.00,8.00,0.00,29.77,1010.10,10.00,M,CLR,M,M,M,M,M,M,M,M,M,M,M,M,M,M,51.10,KHND 300156Z 19008KT 10SM CLR 11/M04 A2977 RMK AO2 SLP101 T01061039,M
TPH,2023-01-30 01:56,-117.0904,38.0505,1654.00,M,M,M,10.00,15.00,0.00,29.76,M,M,M,BKN,OVC,M,M,3800.00,5500.00,M,M,M,M,M,M,M,M,M,M,KTPH 300156Z AUTO 01015KT BKN038 OVC055 A2976 RMK AO2 SLPNO PWINO $,M
LAS,2023-01-30 01:56,-115.1634,36.0719,663.00,54.00,26.10,33.77,180.00,7.00,0.00,29.74,1007.00,10.00,M,SCT,M,M,M,8000.00,M,M,M,M,M,M,M,M,M,M,54.00,KLAS 300156Z 18007KT 10SM SCT080 12/M03 A2974 RMK AO2 SLP070 T01221033,M
EKO,2023-01-30 01:56,-115.7860,40.8242,1367.00,15.10,4.00,60.54,M,3.00,0.00,29.94,1018.10,10.00,M,CLR,M,M,M,M,M,M,M,M,M,M,M,M,M,M,9.37,KEKO 300156Z AUTO VRB03KT 10SM CLR M09/M16 A2994 RMK AO2 SLP181 T10941156,M
05U,2023-01-30 02:10,-116.0051,39.6042,1811.23,17.60,12.20,79.00,20.00,4.00,0.00,29.89,M,10.00,M,M,M,M,M,M,M,M,M,M,M,M,M,M,M,M,10.60,K05U 300210Z AUTO 02004KT 10SM M08/M11 A2989 RMK A01,M
BVU,2023-01-30 02:15,-114.8611,35.9475,671.00,51.80,32.00,46.59,160.00,13.00,0.00,29.77,M,10.00,19.00,CLR,M,M,M,M,M,M,M,M,M,M,M,M,M,M,51.80,KBVU 300215Z AUTO 16013G19KT 10SM CLR 11/M00 A2977 RMK AO2,M
CXP,2023-01-30 02:15,-119.7326,39.1923,1431.00,24.80,10.40,53.75,40.00,9.00,0.00,29.94,M,10.00,M,BKN,OVC,M,M,4800.00,6000.00,M,M,M,M,M,M,M,M,M,14.56,KCXP 300215Z AUTO 04009KT 10SM BKN048 OVC060 M04/M12 A2994 RMK AO2,M
RTS,2023-01-30 02:15,-119.8764,39.6682,1539.00,19.40,5.00,52.89,50.00,6.00,0.00,29.94,M,10.00,M,CLR,M,M,M,M,M,M,M,M,M,M,M,M,M,M,10.36,KRTS 300215Z AUTO 05006KT 10SM CLR M07/M15 A2994 RMK AO2,M
MEV,2023-01-30 02:15,-119.7500,38.9963,1441.42,24.80,19.40,79.62,350.00,6.00,0.00,29.93,M,10.00,M,BKN,OVC,M,M,2700.00,3200.00,M,M,M,M,M,M,M,M,M,16.86,KMEV 300215Z AUTO 35006KT 10SM BKN027 OVC032 M04/M07 A2993 RMK AO2,M
BAM,2023-01-30 02:15,-116.8743,40.5990,1382.36,23.00,10.40,57.96,60.00,7.00,0.00,29.99,M,10.00,M,CLR,M,M,M,M,M,M,M,M,M,M,M,M,M,M,13.81,KBAM 300215Z AUTO 06007KT 10SM CLR M05/M12 A2999 RMK AO1,M
ELY,2023-01-30 02:27,-114.8453,39.2950,1909.00,19.00,16.00,87.87,20.00,17.00,T,29.82,M,M,M,OVC,M,M,M,3300.00,M,M,M,-SN,M,M,M,M,M,M,3.04,KELY 300227Z AUTO 02017KT -SN OVC033 M07/M09 A2982 RMK AO2 P0000 T10721089 $,M
05U,2023-01-30 02:30,-116.0051,39.6042,1811.23,17.60,12.20,79.00,20.00,4.00,0.00,29.90,M,10.00,M,M,M,M,M,M,M,M,M,M,M,M,M,M,M,M,10.60,K05U 300230Z AUTO 02004KT 10SM M08/M11 A2990 RMK A01,M
BVU,2023-01-30 02:35,-114.8611,35.9475,671.00,51.80,32.00,46.59,160.00,14.00,0.00,29.76,M,10.00,M,FEW,M,M,M,8000.00,M,M,M,M,M,M,M,M,M,M,51.80,KBVU 300235Z AUTO 16014KT 10SM FEW080 11/M00 A2976 RMK AO2,M
CXP,2023-01-30 02:35,-119.7326,39.1923,1431.00,24.80,10.40,53.75,360.00,5.00,0.00,29.95,M,10.00,12.00,OVC,M,M,M,4500.00,M,M,M,M,M,M,M,M,M,M,17.84,KCXP 300235Z AUTO 36005G12KT 10SM OVC045 M04/M12 A2995 RMK AO2,M
RTS,2023-01-30 02:35,-119.8764,39.6682,1539.00,19.40,3.20,48.69,90.00,6.00,0.00,29.95,M,10.00,M,CLR,M,M,M,M,M,M,M,M,M,M,M,M,M,M,10.36,KRTS 300235Z AUTO 09006KT 10SM CLR M07/M16 A2995 RMK AO2,M
MEV,2023-01-30 02:35,-119.7500,38.9963,1441.42,24.80,19.40,79.62,340.00,6.00,0.00,29.94,M,10.00,M,BKN,OVC,M,M,2600.00,3300.00,M,M,M,M,M,M,M,M,M,16.86,KMEV 300235Z AUTO 34006KT 10SM BKN026 OVC033 M04/M07 A2994 RMK AO2,M
BAM,2023-01-30 02:35,-116.8743,40.5990,1382.36,23.00,12.20,62.78,70.00,10.00,0.00,29.99,M,10.00,14.00,CLR,M,M,M,M,M,M,M,M,M,M,M,M,M,M,11.68,KBAM 300235Z AUTO 07010G14KT 10SM CLR M05/M11 A2999 RMK AO1,M
05U,2023-01-30 02:50,-116.0051,39.6042,1811.23,15.80,10.40,78.84,0.00,0.00,0.00,29.90,M,10.00,M,M,M,M,M,M,M,M,M,M,M,M,M,M,M,M,15.80,K05U 300250Z AUTO 00000KT 10SM M09/M12 A2990 RMK A01,M
INS,2023-01-30 02:53,-115.6733,36.5872,955.00,48.20,26.60,42.73,210.00,5.00,0.00,29.75,1007.20,10.00,18.00,FEW,SCT,BKN,BKN,1700.00,3700.00,4800.00,5500.00,-RA,M,M,M,M,M,M,45.63,KINS 300253Z AUTO 21005G18KT 10SM -RA FEW017 SCT037 BKN048 BKN055 OVC070 09/M03 A2975 RMK AO2 RAB53 SLP072,M
P68,2023-01-30 02:53,-116.0056,39.6014,1993.00,15.10,10.00,79.84,360.00,3.00,0.00,29.88,1016.30,M,M,M,M,M,M,M,M,M,M,M,M,M,M,M,M,M,9.37,KP68 300253Z AUTO 36003KT M09/M12 A2988 RMK AO1 SLP163 T10941122 51020,M
DRA,2023-01-30 02:53,-116.0278,36.6206,1009.00,47.00,27.00,45.62,220.00,10.00,0.00,29.73,1006.10,10.00,M,BKN,M,M,M,10000.00,M,M,M,M,M,M,M,M,M,M,41.65,KDRA 300253Z AUTO 22010KT 10SM BKN100 08/M03 A2973 RMK AO2 SLP061 T00831028 53010,M
ELY,2023-01-30 02:53,-114.8453,39.2950,1909.00,18.00,16.00,91.72,20.00,17.00,T,29.83,1014.60,M,M,OVC,M,M,M,3900.00,M,M,M,-SN,M,M,M,M,M,M,1.73,KELY 300253Z AUTO 02017KT -SN OVC039 M08/M09 A2983 RMK AO2 SLP146 P0000 60002 T10781089 53013 $,M
VGT,2023-01-30 02:53,-115.1933,36.2111,667.00,54.00,27.00,35.05,190.00,8.00,0.00,29.74,1008.90,10.00,M,FEW,M,M,M,10000.00,M,M,M,M,M,M,M,M,M,M,54.00,KVGT 300253Z AUTO 19008KT 10SM FEW100 12/M03 A2974 RMK AO2 SLP089 T01221028 51013,M
LOL,2023-01-30 02:53,-118.5701,40.0684,1192.43,23.00,10.00,56.93,30.00,17.00,0.00,29.98,1018.10,10.00,26.00,CLR,M,M,M,M,M,M,M,M,M,M,M,29.00,30.00,2023-01-30 02:11,8.28,KLOL 300253Z AUTO 03017G26KT 10SM CLR M05/M12 A2998 RMK AO2 PK WND 03029/0211 SLP181 T10501122 51022,M
BVU,2023-01-30 02:55,-114.8611,35.9475,671.00,51.80,32.00,46.59,170.00,13.00,0.00,29.76,M,10.00,19.00,CLR,M,M,M,M,M,M,M,M,M,M,M,M,M,M,51.80,KBVU 300255Z AUTO 17013G19KT 10SM CLR 11/M00 A2976 RMK AO2,M
CXP,2023-01-30 02:55,-119.7326,39.1923,1431.00,24.80,10.40,53.75,330.00,10.00,0.00,29.95,M,10.00,M,OVC,M,M,M,4400.00,M,M,M,M,M,M,M,M,M,M,13.94,KCXP 300255Z AUTO 33010KT 10SM OVC044 M04/M12 A2995 RMK AO2,M
INS,2023-01-30 02:55,-115.6733,36.5872,955.00,48.20,26.20,42.03,200.00,5.00,T,29.75,1007.20,10.00,18.00,FEW,SCT,BKN,BKN,1700.00,3700.00,4800.00,5500.00,-RA,M,M,M,M,M,M,45.63,KINS 300255Z AUTO 20005G18KT 10SM -RA FEW017 SCT037 BKN048 BKN055 OVC070 09/M03 A2975 RMK AO2 RAB53 SLP072 P0000 60000 T00901032 52015,M
RNO,2023-01-30 02:55,-119.7711,39.4839,1341.00,23.00,9.00,54.44,350.00,6.00,0.00,29.97,1016.60,10.00,M,SCT,SCT,M,M,5000.00,7000.00,M,M,M,M,M,M,M,M,M,14.69,KRNO 300255Z 35006KT 10SM SCT050 SCT070 M05/M13 A2997 RMK AO2 SLP166 T10501128 51021 $,M
LSV,2023-01-30 02:55,-115.0343,36.2362,570.00,54.00,29.50,38.83,170.00,16.00,0.00,29.71,1006.00,10.00,M,BKN,M,M,M,10000.00,M,M,M,M,M,M,M,M,M,M,54.00,KLSV 300255Z AUTO 17016KT 10SM BKN100 12/M01 A2971 RMK AO2 SLP060 T01221014 50009 $,M
RTS,2023-01-30 02:55,-119.8764,39.6682,1539.00,19.40,3.20,48.69,90.00,6.00,0.00,29.96,M,10.00,M,CLR,M,M,M,M,M,M,M,M,M,M,M,M,M,M,10.36,KRTS 300255Z AUTO 09006KT 10SM CLR M07/M16 A2996 RMK AO2,M
MEV,2023-01-30 02:55,-119.7500,38.9963,1441.42,24.80,17.60,73.70,340.00,8.00,0.00,29.94,M,10.00,M,OVC,M,M,M,2500.00,M,M,M,M,M,M,M,M,M,M,15.24,KMEV 300255Z AUTO 34008KT 10SM OVC025 M04/M08 A2994 RMK AO2,M
BAM,2023-01-30 02:55,-116.8743,40.5990,1382.36,21.20,10.40,62.53,90.00,7.00,0.00,30.00,M,10.00,11.00,CLR,M,M,M,M,M,M,M,M,M,M,M,M,M,M,11.61,KBAM 300255Z AUTO 09007G11KT 10SM CLR M06/M12 A3000 RMK AO1,M
EKO,2023-01-30 02:56,-115.7860,40.8242,1367.00,12.90,3.00,63.96,40.00,4.00,0.00,29.96,1019.30,10.00,M,CLR,M,M,M,M,M,M,M,M,M,M,M,M,M,M,5.12,KEKO 300256Z AUTO 04004KT 10SM CLR M11/M16 A2996 RMK AO2 SLP193 T11061161 53022,M
NFL,2023-01-30 02:56,-118.7010,39.4166,1199.00,27.00,15.10,60.37,360.00,13.00,0.00,29.95,1011.50,10.00,M,BKN,OVC,M,M,4100.00,8000.00,M,M,M,M,M,M,M,M,M,15.16,KNFL 300256Z AUTO 36013KT 10SM BKN041 OVC080 M03/M09 A2995 RMK AO2 SLP115 T10281094 51025,M
HND,2023-01-30 02:56,-115.1344,35.9729,742.79,50.00,28.00,42.33,170.00,10.00,0.00,29.76,1010.00,10.00,M,CLR,M,M,M,M,M,M,M,M,M,M,M,M,M,M,50.00,KHND 300256Z 17010KT 10SM CLR 10/M02 A2976 RMK AO2 SLP100 T01001022 50006,M
TPH,2023-01-30 02:56,-117.0904,38.0505,1654.00,M,M,M,10.00,12.00,0.00,29.78,M,M,M,SCT,OVC,M,M,2500.00,3300.00,M,M,M,M,M,M,M,M,M,M,KTPH 300256Z AUTO 01012KT SCT025 OVC033 A2978 RMK AO2 SLPNO 52017 PWINO $,M
LAS,2023-01-30 02:56,-115.1634,36.0719,663.00,53.00,26.10,34.90,180.00,5.00,0.00,29.75,1007.30,10.00,M,SCT,M,M,M,8000.00,M,M,M,M,M,M,M,M,M,M,53.10,KLAS 300256Z 18005KT 10SM SCT080 12/M03 A2975 RMK AO2 SLP073 T01171033 51009,M
TPH,2023-01-30 03:05,-117.0904,38.0505,1654.00,M,M,M,20.00,9.00,0.00,29.78,M,M,M,BKN,OVC,M,M,2500.00,3300.00,M,M,M,M,M,M,M,M,M,M,KTPH 300305Z AUTO 02009KT BKN025 OVC033 A2978 RMK AO2 PWINO $,M
05U,2023-01-30 03:10,-116.0051,39.6042,1811.23,15.80,10.40,78.84,0.00,0.00,0.00,29.91,M,10.00,M,M,M,M,M,M,M,M,M,M,M,M,M,M,M,M,15.80,K05U 300310Z AUTO 00000KT 10SM M09/M12 A2991 RMK A01,M
INS,2023-01-30 03:14,-115.6733,36.5872,955.00,46.40,33.80,61.28,110.00,6.00,0.00,29.75,1007.20,10.00,M,FEW,SCT,BKN,BKN,1600.00,3700.00,4900.00,6000.00,M,M,M,M,M,M,M,42.87,KINS 300314Z AUTO 11006KT 10SM FEW016 SCT037 BKN049 BKN060 OVC110 08/01 A2975 RMK AO2 RAE10DZB10E14 SLP072,M
BVU,2023-01-30 03:15,-114.8611,35.9475,671.00,51.80,32.00,46.59,170.00,14.00,0.00,29.77,M,10.00,20.00,CLR,M,M,M,M,M,M,M,M,M,M,M,M,M,M,51.80,KBVU 300315Z AUTO 17014G20KT 10SM CLR 11/M00 A2977 RMK AO2,M
CXP,2023-01-30 03:15,-119.7326,39.1923,1431.00,24.80,10.40,53.75,350.00,7.00,0.00,29.96,M,10.00,M,OVC,M,M,M,4500.00,M,M,M,M,M,M,M,M,M,M,16.00,KCXP 300315Z AUTO 35007KT 10SM OVC045 M04/M12 A2996 RMK AO2,M
RTS,2023-01-30 03:15,-119.8764,39.6682,1539.00,15.80,3.20,56.86,0.00,0.00,0.00,29.96,M,10.00,M,CLR,M,M,M,M,M,M,M,M,M,M,M,M,M,M,15.80,KRTS 300315Z AUTO 00000KT 10SM CLR M09/M16 A2996 RMK AO2,M
MEV,2023-01-30 03:15,-119.7500,38.9963,1441.42,24.80,15.80,68.18,330.00,6.00,0.00,29.95,M,10.00,M,OVC,M,M,M,2500.00,M,M,M,M,M,M,M,M,M,M,16.86,KMEV 300315Z AUTO 33006KT 10SM OVC025 M04/M09 A2995 RMK AO2,M
BAM,2023-01-30 03:15,-116.8743,40.5990,1382.36,21.20,10.40,62.53,70.00,10.00,0.00,30.01,M,10.00,16.00,CLR,M,M,M,M,M,M,M,M,M,M,M,M,M,M,9.42,KBAM 300315Z AUTO 07010G16KT 10SM CLR M06/M12 A3001 RMK AO1,M
05U,2023-01-30 03:30,-116.0051,39.6042,1811.23,15.80,10.40,78.84,40.00,3.00,0.00,29.92,M,10.00,M,M,M,M,M,M,M,M,M,M,M,M,M,M,M,M,10.17,K05U 300330Z AUTO 04003KT 10SM M09/M12 A2992 RMK A01,M
BVU,2023-01-30 03:35,-114.8611,35.9475,671.00,50.00,30.20,46.31,290.00,6.00,0.00,29.77,M,10.00,M,CLR,M,M,M,M,M,M,M,M,M,M,M,M,M,M,50.00,KBVU 300335Z AUTO 29006KT 10SM CLR 10/M01 A2977 RMK AO2,M
CXP,2023-01-30 03:35,-119.7326,39.1923,1431.00,24.80,10.40,53.75,10.00,7.00,0.00,29.97,M,10.00,M,OVC,M,M,M,4500.00,M,M,M,M,M,M,M,M,M,M,16.00,KCXP 300335Z AUTO 01007KT 350V050 10SM OVC045 M04/M12 A2997 RMK AO2,M
RTS,2023-01-30 03:35,-119.8764,39.6682,1539.00,15.80,3.20,56.86,M,4.00,0.00,29.97,M,10.00,M,CLR,M,M,M,M,M,M,M,M,M,M,M,M,M,M,8.50,KRTS 300335Z AUTO VRB04KT 10SM CLR M09/M16 A2997 RMK AO2,M
MEV,2023-01-30 03:35,-119.7500,38.9963,1441.42,23.00,14.00,67.96,350.00,9.00,0.00,29.95,M,10.00,M,SCT,BKN,OVC,M,2200.00,2700.00,3800.00,M,M,M,M,M,M,M,M,12.32,KMEV 300335Z AUTO 35009KT 10SM SCT022 BKN027 OVC038 M05/M10 A2995 RMK AO2,M
BAM,2023-01-30 03:35,-116.8743,40.5990,1382.36,21.20,10.40,62.53,70.00,15.00,0.00,30.02,M,10.00,M,CLR,M,M,M,M,M,M,M,M,M,M,M,M,M,M,6.78,KBAM 300335Z AUTO 07015KT 10SM CLR M06/M12 A3002 RMK AO1,M
05U,2023-01-30 03:50,-116.0051,39.6042,1811.23,15.80,8.60,72.73,360.00,5.00,0.00,29.93,M,10.00,M,M,M,M,M,M,M,M,M,M,M,M,M,M,M,M,7.16,K05U 300350Z AUTO 36005KT 10SM M09/M13 A2993 RMK A01,M
TPH,2023-01-30 03:51,-117.0904,38.0505,1654.00,M,M,M,360.00,14.00,0.00,29.79,M,M,M,FEW,BKN,OVC,M,2800.00,3400.00,4100.00,M,M,M,M,M,M,M,M,M,KTPH 300351Z AUTO 36014KT FEW028 BKN034 OVC041 A2979 RMK AO2 PWINO $,M
P68,2023-01-30 03:53,-116.0056,39.6014,1993.00,15.10,8.10,73.31,350.00,7.00,0.00,29.90,1016.90,M,M,M,M,M,M,M,M,M,M,M,M,M,M,M,M,M,4.18,KP68 300353Z AUTO 35007KT M09/M13 A2990 RMK AO1 SLP169 T10941133,M
DRA,2023-01-30 03:53,-116.0278,36.6206,1009.00,46.00,27.00,47.20,210.00,5.00,0.00,29.75,1006.60,10.00,M,BKN,M,M,M,10000.00,M,M,M,M,M,M,M,M,M,M,43.02,KDRA 300353Z AUTO 21005KT 10SM BKN100 08/M03 A2975 RMK AO2 SLP066 T00781028,M
ELY,2023-01-30 03:53,-114.8453,39.2950,1909.00,17.10,14.00,87.38,10.00,19.00,T,29.85,1014.80,M,25.00,OVC,M,M,M,3800.00,M,M,M,UP,M,M,M,M,M,M,-0.27,KELY 300353Z AUTO 01019G25KT UP OVC038 M08/M10 A2985 RMK AO2 UPB08E18B46SNE08B18E46 SLP148 P0000 T10831100 $,M
VGT,2023-01-30 03:53,-115.1933,36.2111,667.00,54.00,27.00,35.05,250.00,8.00,0.00,29.76,1009.50,10.00,M,OVC,M,M,M,12000.00,M,M,M,M,M,M,M,M,M,M,54.00,KVGT 300353Z AUTO 25008KT 10SM OVC120 12/M03 A2976 RMK AO2 SLP095 T01221028,M
LOL,2023-01-30 03:53,-118.5701,40.0684,1192.43,21.90,10.00,59.63,30.00,19.00,0.00,30.01,1019.20,10.00,27.00,CLR,M,M,M,M,M,M,M,M,M,M,M,27.00,40.00,2023-01-30 03:48,6.08,KLOL 300353Z AUTO 03019G27KT 10SM CLR M06/M12 A3001 RMK AO2 PK WND 04027/0348 SLP192 T10561122,M
BVU,2023-01-30 03:55,-114.8611,35.9475,671.00,50.00,32.00,49.81,230.00,8.00,0.00,29.79,M,10.00,13.00,CLR,M,M,M,M,M,M,M,M,M,M,M,M,M,M,50.00,KBVU 300355Z AUTO 23008G13KT 220V280 10SM CLR 10/M00 A2979 RMK AO2,M
CXP,2023-01-30 03:55,-119.7326,39.1923,1431.00,24.80,10.40,53.75,350.00,6.00,0.00,29.98,M,10.00,M,OVC,M,M,M,4500.00,M,M,M,M,M,M,M,M,M,M,16.86,KCXP 300355Z AUTO 35006KT 10SM OVC045 M04/M12 A2998 RMK AO2,M
RNO,2023-01-30 03:55,-119.7711,39.4839,1341.00,19.00,9.00,64.50,0.00,0.00,0.00,29.99,1018.00,10.00,M,FEW,SCT,M,M,5000.00,7000.00,M,M,M,M,M,M,M,M,M,19.00,KRNO 300355Z 00000KT 10SM FEW050 SCT070 M07/M13 A2999 RMK AO2 SLP180 T10721128 $,M
LSV,2023-01-30 03:55,-115.0343,36.2362,570.00,53.00,30.40,41.94,150.00,15.00,0.00,29.73,1006.50,10.00,M,FEW,M,M,M,9000.00,M,M,M,M,M,M,M,M,M,M,52.90,KLSV 300355Z AUTO 15015KT 10SM FEW090 12/M01 A2973 RMK AO2 SLP065 T01161009 $,M
RTS,2023-01-30 03:55,-119.8764,39.6682,1539.00,12.20,1.40,61.25,0.00,0.00,0.00,29.98,M,10.00,M,CLR,M,M,M,M,M,M,M,M,M,M,M,M,M,M,12.20,KRTS 300355Z AUTO 00000KT 10SM CLR M11/M17 A2998 RMK AO2,M
MEV,2023-01-30 03:55,-119.7500,38.9963,1441.42,23.00,14.00,67.96,340.00,9.00,0.00,29.96,M,10.00,M,SCT,BKN,OVC,M,2800.00,3400.00,4100.00,M,M,M,M,M,M,M,M,12.32,KMEV 300355Z AUTO 34009KT 10SM SCT028 BKN034 OVC041 M05/M10 A2996 RMK AO2,M
BAM,2023-01-30 03:55,-116.8743,40.5990,1382.36,21.20,10.40,62.53,70.00,12.00,0.00,30.02,M,10.00,16.00,CLR,M,M,M,M,M,M,M,M,M,M,M,M,M,M,8.26,KBAM 300355Z AUTO 07012G16KT 10SM CLR M06/M12 A3002 RMK AO1,M
INS,2023-01-30 03:55,-115.6733,36.5872,955.00,44.80,30.00,55.86,130.00,6.00,T,29.76,1007.60,10.00,M,SCT,BKN,M,M,6500.00,11000.00,M,M,M,M,M,M,M,M,M,40.95,KINS 300355Z AUTO 13006KT 10SM SCT065 BKN110 07/M01 A2976 RMK AO2 RAE10DZB10E14 SLP076 P0000 T00711011,M
EKO,2023-01-30 03:56,-115.7860,40.8242,1367.00,10.90,1.00,63.69,40.00,4.00,0.00,29.99,1020.70,10.00,M,CLR,M,M,M,M,M,M,M,M,M,M,M,M,M,M,2.78,KEKO 300356Z AUTO 04004KT 10SM CLR M12/M17 A2999 RMK AO2 SLP207 T11171172,M
NFL,2023-01-30 03:56,-118.7010,39.4166,1199.00,25.00,14.00,62.50,350.00,14.00,0.00,29.98,1012.20,7.00,M,CLR,M,M,M,M,M,M,M,M,M,M,M,M,M,M,12.14,KNFL 300356Z AUTO 35014KT 7SM CLR M04/M10 A2998 RMK AO2 SLP122 T10391100,M
TPH,2023-01-30 03:56,-117.0904,38.0505,1654.00,M,M,M,10.00,16.00,0.00,29.80,M,M,M,SCT,BKN,OVC,M,2800.00,3700.00,4500.00,M,M,M,M,M,M,M,M,M,KTPH 300356Z AUTO 01016KT SCT028 BKN037 OVC045 A2980 RMK AO2 SLPNO PWINO $,M
LAS,2023-01-30 03:56,-115.1634,36.0719,663.00,51.00,27.00,38.99,180.00,3.00,0.00,29.77,1007.90,10.00,M,FEW,SCT,BKN,M,5000.00,8000.00,10000.00,M,M,M,M,M,M,M,M,51.10,KLAS 300356Z 18003KT 10SM FEW050 SCT080 BKN100 11/M03 A2977 RMK AO2 SLP079 T01061028,M
HND,2023-01-30 03:56,-115.1344,35.9729,742.79,49.00,28.00,44.10,170.00,13.00,0.00,29.78,1010.40,10.00,M,FEW,M,M,M,11000.00,M,M,M,M,M,M,M,M,M,M,43.22,KHND 300356Z 17013KT 10SM FEW110 09/M02 A2978 RMK AO2 SLP104 T00941022,M
05U,2023-01-30 04:10,-116.0051,39.6042,1811.23,15.80,8.60,72.73,20.00,6.00,0.00,29.94,M,10.00,M,M,M,M,M,M,M,M,M,M,M,M,M,M,M,M,6.02,K05U 300410Z AUTO 02006KT 10SM M09/M13 A2994 RMK A01,M
BVU,2023-01-30 04:15,-114.8611,35.9475,671.00,50.00,30.20,46.31,200.00,10.00,0.00,29.79,M,10.00,15.00,CLR,M,M,M,M,M,M,M,M,M,M,M,M,M,M,50.00,KBVU 300415Z AUTO 20010G15KT 10SM CLR 10/M01 A2979 RMK AO2,M
CXP,2023-01-30 04:15,-119.7326,39.1923,1431.00,23.00,10.40,57.96,320.00,6.00,0.00,29.99,M,10.00,M,OVC,M,M,M,4700.00,M,M,M,M,M,M,M,M,M,M,14.69,KCXP 300415Z AUTO 32006KT 10SM OVC047 M05/M12 A2999 RMK AO2,M
RTS,2023-01-30 04:15,-119.8764,39.6682,1539.00,12.20,3.20,66.58,0.00,0.00,0.00,29.99,M,10.00,M,CLR,M,M,M,M,M,M,M,M,M,M,M,M,M,M,12.20,KRTS 300415Z AUTO 00000KT 10SM CLR M11/M16 A2999 RMK AO2,M
MEV,2023-01-30 04:15,-119.7500,38.9963,1441.42,23.00,14.00,67.96,350.00,10.00,0.00,29.97,M,10.00,M,SCT,OVC,M,M,3400.00,4200.00,M,M,M,M,M,M,M,M,M,11.68,KMEV 300415Z AUTO 35010KT 10SM SCT034 OVC042 M05/M10 A2997 RMK AO2,M
BAM,2023-01-30 04:15,-116.8743,40.5990,1382.36,21.20,8.60,57.69,330.00,3.00,0.00,30.04,M,10.00,M,CLR,M,M,M,M,M,M,M,M,M,M,M,M,M,M,16.34,KBAM 300415Z AUTO 33003KT 10SM CLR M06/M13 A3004 RMK AO1,M
05U,2023-01-30 04:30,-116.0051,39.6042,1811.23,14.00,6.80,72.53,10.00,5.00,0.00,29.95,M,10.00,M,M,M,M,M,M,M,M,M,M,M,M,M,M,M,M,5.02,K05U 300430Z AUTO 01005KT 10SM M10/M14 A2995 RMK A01,M
BVU,2023-01-30 04:35,-114.8611,35.9475,671.00,50.00,32.00,49.81,200.00,11.00,0.00,29.80,M,10.00,18.00,CLR,M,M,M,M,M,M,M,M,M,M,M,M,M,M,50.00,KBVU 300435Z AUTO 20011G18KT 10SM CLR 10/M00 A2980 RMK AO2,M
CXP,2023-01-30 04:35,-119.7326,39.1923,1431.00,23.00,10.40,57.96,320.00,6.00,0.00,30.00,M,10.00,M,OVC,M,M,M,4700.00,M,M,M,M,M,M,M,M,M,M,14.69,KCXP 300435Z AUTO 32006KT 10SM OVC047 M05/M12 A3000 RMK AO2,M
RTS,2023-01-30 04:35,-119.8764,39.6682,1539.00,10.40,1.40,66.35,330.00,5.00,0.00,30.01,M,10.00,M,SCT,M,M,M,6000.00,M,M,M,M,M,M,M,M,M,M,0.74,KRTS 300435Z AUTO 33005KT 10SM SCT060 M12/M17 A3001 RMK AO2,M
MEV,2023-01-30 04:35,-119.7500,38.9963,1441.42,23.00,14.00,67.96,350.00,12.00,0.00,29.98,M,10.00,M,OVC,M,M,M,4400.00,M,M,M,M,M,M,M,M,M,M,10.55,KMEV 300435Z AUTO 35012KT 10SM OVC044 M05/M10 A2998 RMK AO2,M
BAM,2023-01-30 04:35,-116.8743,40.5990,1382.36,21.20,8.60,57.69,50.00,7.00,0.00,30.04,M,10.00,15.00,CLR,M,M,M,M,M,M,M,M,M,M,M,M,M,M,11.61,KBAM 300435Z AUTO 05007G15KT 10SM CLR M06/M13 A3004 RMK AO1,M
TPH,2023-01-30 04:39,-117.0904,38.0505,1654.00,M,M,M,10.00,17.00,0.00,29.81,M,M,M,BKN,OVC,M,M,2000.00,4700.00,M,M,M,M,M,M,M,M,M,M,KTPH 300439Z AUTO 01017KT BKN020 OVC047 A2981 RMK AO2 PWINO $,M
05U,2023-01-30 04:50,-116.0051,39.6042,1811.23,14.00,6.80,72.53,10.00,7.00,0.00,29.95,M,10.00,M,M,M,M,M,M,M,M,M,M,M,M,M,M,M,M,2.84,K05U 300450Z AUTO 01007KT 10SM M10/M14 A2995 RMK A01,M
DRA,2023-01-30 04:53,-116.0278,36.6206,1009.00,46.00,28.00,49.18,170.00,8.00,0.00,29.76,1006.80,10.00,M,FEW,OVC,M,M,5500.00,7000.00,M,M,M,M,M,M,M,M,M,41.36,KDRA 300453Z AUTO 17008KT 10SM FEW055 OVC070 08/M02 A2976 RMK AO2 SLP068 T00781022,M
ELY,2023-01-30 04:53,-114.8453,39.2950,1909.00,15.10,12.00,87.27,20.00,16.00,T,29.88,1015.00,M,M,BKN,BKN,OVC,M,3400.00,7000.00,8500.00,M,-SN,M,M,M,M,M,M,-1.61,KELY 300453Z AUTO 02016KT -SN BKN034 BKN070 OVC085 M09/M11 A2988 RMK AO2 UPE17SNB40 SLP150 P0000 T10941111 $,M
VGT,2023-01-30 04:53,-115.1933,36.2111,667.00,53.00,32.00,44.42,190.00,5.00,0.00,29.78,1010.10,10.00,M,BKN,OVC,M,M,6000.00,8000.00,M,M,M,M,M,M,M,M,M,53.10,KVGT 300453Z AUTO 19005KT 10SM BKN060 OVC080 12/00 A2978 RMK AO2 SLP101 T01170000,M
LOL,2023-01-30 04:53,-118.5701,40.0684,1192.43,19.90,9.00,62.07,30.00,17.00,0.00,30.04,1020.60,10.00,M,CLR,M,M,M,M,M,M,M,M,M,M,M,M,M,M,4.22,KLOL 300453Z AUTO 03017KT 10SM CLR M07/M13 A3004 RMK AO2 SLP206 T10671128,M
P68,2023-01-30 04:53,-116.0056,39.6014,1993.00,12.90,6.00,73.74,360.00,6.00,0.00,29.93,1017.50,M,M,M,M,M,M,M,M,M,M,M,M,M,M,M,M,M,2.53,KP68 300453Z AUTO 36006KT M11/M14 A2993 RMK AO1 SLP175 T11061144,M
BVU,2023-01-30 04:55,-114.8611,35.9475,671.00,50.00,32.00,49.81,260.00,5.00,0.00,29.80,M,10.00,M,FEW,FEW,FEW,M,6000.00,8000.00,9500.00,M,M,M,M,M,M,M,M,50.00,KBVU 300455Z AUTO 26005KT 10SM FEW060 FEW080 FEW095 10/M00 A2980 RMK AO2,M
CXP,2023-01-30 04:55,-119.7326,39.1923,1431.00,23.00,10.40,57.96,320.00,6.00,0.00,30.01,M,10.00,M,OVC,M,M,M,4600.00,M,M,M,M,M,M,M,M,M,M,14.69,KCXP 300455Z AUTO 32006KT 10SM OVC046 M05/M12 A3001 RMK AO2,M
INS,2023-01-30 04:55,-115.6733,36.5872,955.00,44.00,29.80,56.90,330.00,5.00,0.00,29.78,1008.00,10.00,M,FEW,OVC,M,M,5000.00,6500.00,M,M,M,M,M,M,M,M,M,40.77,KINS 300455Z AUTO 33005KT 10SM FEW050 OVC065 07/M01 A2978 RMK AO2 SLP080 T00671012,M
RNO,2023-01-30 04:55,-119.7711,39.4839,1341.00,21.90,8.10,54.75,20.00,6.00,0.00,30.02,1018.80,10.00,M,SCT,M,M,M,6000.00,M,M,M,M,M,M,M,M,M,M,13.37,KRNO 300455Z 02006KT 10SM SCT060 M06/M13 A3002 RMK AO2 SLP188 T10561133 $,M
LSV,2023-01-30 04:55,-115.0343,36.2362,570.00,53.00,30.90,42.80,170.00,12.00,0.00,29.76,1007.30,10.00,M,OVC,M,M,M,7000.00,M,M,M,M,M,M,M,M,M,M,52.90,KLSV 300455Z AUTO 17012KT 10SM OVC070 12/M01 A2976 RMK AO2 SLP073 T01161006 $,M
RTS,2023-01-30 04:55,-119.8764,39.6682,1539.00,10.40,-0.40,60.99,230.00,4.00,0.00,30.01,M,10.00,M,FEW,M,M,M,6000.00,M,M,M,M,M,M,M,M,M,M,2.20,KRTS 300455Z AUTO 23004KT 10SM FEW060 M12/M18 A3001 RMK AO2,M
MEV,2023-01-30 04:55,-119.7500,38.9963,1441.42,23.00,14.00,67.96,340.00,9.00,0.00,29.98,M,10.00,M,OVC,M,M,M,4400.00,M,M,M,M,M,M,M,M,M,M,12.32,KMEV 300455Z AUTO 34009KT 10SM OVC044 M05/M10 A2998 RMK AO2,M
BAM,2023-01-30 04:55,-116.8743,40.5990,1382.36,19.40,8.60,62.28,70.00,7.00,0.00,30.05,M,10.00,M,CLR,M,M,M,M,M,M,M,M,M,M,M,M,M,M,9.42,KBAM 300455Z AUTO 07007KT 10SM CLR M07/M13 A3005 RMK AO1,M
EKO,2023-01-30 04:56,-115.7860,40.8242,1367.00,9.00,-0.90,63.42,10.00,4.00,0.00,30.01,1021.70,10.00,M,CLR,M,M,M,M,M,M,M,M,M,M,M,M,M,M,0.56,KEKO 300456Z AUTO 01004KT 10SM CLR M13/M18 A3001 RMK AO2 SLP217 T11281183,M
NFL,2023-01-30 04:56,-118.7010,39.4166,1199.00,24.10,12.90,61.83,340.00,12.00,0.00,30.01,1013.40,5.00,M,FEW,M,M,M,1500.00,M,M,M,HZ,M,M,M,M,M,M,11.95,KNFL 300456Z AUTO 34012KT 5SM HZ FEW015 M04/M11 A3001 RMK AO2 SLP134 T10441106,M
TPH,2023-01-30 04:56,-117.0904,38.0505,1654.00,M,M,M,10.00,13.00,0.00,29.81,M,M,M,BKN,OVC,M,M,2200.00,7500.00,M,M,M,M,M,M,M,M,M,M,KTPH 300456Z AUTO 01013KT BKN022 OVC075 A2981 RMK AO2 SLPNO PWINO $,M
LAS,2023-01-30 04:56,-115.1634,36.0719,663.00,50.00,27.00,40.62,230.00,4.00,0.00,29.79,1008.50,10.00,M,FEW,SCT,BKN,M,5000.00,8000.00,10000.00,M,M,M,M,M,M,M,M,50.00,KLAS 300456Z 23004KT 10SM FEW050 SCT080 BKN100 10/M03 A2979 RMK AO2 SLP085 T01001028,M
HND,2023-01-30 04:56,-115.1344,35.9729,742.79,49.00,28.00,44.10,190.00,6.00,0.00,29.81,1011.00,10.00,M,OVC,M,M,M,11000.00,M,M,M,M,M,M,M,M,M,M,45.88,KHND 300456Z AUTO 19006KT 10SM OVC110 09/M02 A2981 RMK AO2 SLP110 T00941022,M
TPH,2023-01-30 05:04,-117.0904,38.0505,1654.00,M,M,M,10.00,13.00,0.00,29.82,M,M,M,SCT,OVC,M,M,2900.00,7500.00,M,M,M,M,M,M,M,M,M,M,KTPH 300504Z AUTO 01013KT SCT029 OVC075 A2982 RMK AO2 PWINO $,M
05U,2023-01-30 05:10,-116.0051,39.6042,1811.23,12.20,6.80,78.51,30.00,5.00,0.00,29.96,M,10.00,M,M,M,M,M,M,M,M,M,M,M,M,M,M,M,M,2.88,K05U 300510Z AUTO 03005KT 10SM M11/M14 A2996 RMK A01,M
BVU,2023-01-30 05:15,-114.8611,35.9475,671.00,50.00,32.00,49.81,270.00,7.00,0.00,29.81,M,10.00,M,BKN,M,M,M,9000.00,M,M,M,M,M,M,M,M,M,M,50.00,KBVU 300515Z AUTO 27007KT 260V320 10SM BKN090 10/M00 A2981 RMK AO2,M
CXP,2023-01-30 05:15,-119.7326,39.1923,1431.00,23.00,8.60,53.47,330.00,7.00,0.00,30.02,M,10.00,M,OVC,M,M,M,4800.00,M,M,M,M,M,M,M,M,M,M,13.81,KCXP 300515Z AUTO 33007KT 10SM OVC048 M05/M13 A3002 RMK AO2,M
RTS,2023-01-30 05:15,-119.8764,39.6682,1539.00,10.40,1.40,66.35,300.00,3.00,0.00,30.02,M,10.00,M,CLR,M,M,M,M,M,M,M,M,M,M,M,M,M,M,4.00,KRTS 300515Z AUTO 30003KT 10SM CLR M12/M17 A3002 RMK AO2,M
MEV,2023-01-30 05:15,-119.7500,38.9963,1441.42,23.00,14.00,67.96,340.00,12.00,0.00,29.99,M,10.00,M,OVC,M,M,M,4300.00,M,M,M,M,M,M,M,M,M,M,10.55,KMEV 300515Z AUTO 34012KT 10SM OVC043 M05/M10 A2999 RMK AO2,M
BAM,2023-01-30 05:15,-116.8743,40.5990,1382.36,19.40,8.60,62.28,70.00,9.00,0.00,30.06,M,10.00,M,CLR,M,M,M,M,M,M,M,M,M,M,M,M,M,M,7.85,KBAM 300515Z AUTO 07009KT 10SM CLR M07/M13 A3006 RMK AO1,M
INS,2023-01-30 05:29,-115.6733,36.5872,955.00,42.80,32.00,65.38,170.00,3.00,0.00,29.80,1008.50,10.00,M,FEW,SCT,BKN,BKN,2300.00,2800.00,3900.00,4800.00,-RA,M,M,M,M,M,M,41.03,KINS 300529Z AUTO 17003KT 10SM -RA FEW023 SCT028 BKN039 BKN048 OVC065 06/M00 A2980 RMK AO2 RAB29 SLP085,M
05U,2023-01-30 05:30,-116.0051,39.6042,1811.23,12.20,6.80,78.51,10.00,6.00,0.00,29.96,M,10.00,M,M,M,M,M,M,M,M,M,M,M,M,M,M,M,M,1.68,K05U 300530Z AUTO 01006KT 10SM M11/M14 A2996 RMK A01,M
BVU,2023-01-30 05:35,-114.8611,35.9475,671.00,50.00,33.80,53.54,220.00,9.00,0.00,29.81,M,10.00,17.00,FEW,OVC,M,M,7000.00,9000.00,M,M,M,M,M,M,M,M,M,50.00,KBVU 300535Z AUTO 22009G17KT 190V260 10SM FEW070 OVC090 10/01 A2981 RMK AO2,M
CXP,2023-01-30 05:35,-119.7326,39.1923,1431.00,23.00,8.60,53.47,M,5.00,0.00,30.02,M,10.00,M,OVC,M,M,M,5000.00,M,M,M,M,M,M,M,M,M,M,15.71,KCXP 300535Z AUTO VRB05KT 10SM OVC050 M05/M13 A3002 RMK AO2,M
RTS,2023-01-30 05:35,-119.8764,39.6682,1539.00,6.80,-2.20,65.87,0.00,0.00,0.00,30.02,M,10.00,M,CLR,M,M,M,M,M,M,M,M,M,M,M,M,M,M,6.80,KRTS 300535Z AUTO 00000KT 10SM CLR M14/M19 A3002 RMK AO2,M
MEV,2023-01-30 05:35,-119.7500,38.9963,1441.42,23.00,12.20,62.78,350.00,12.00,0.00,30.00,M,10.00,M,OVC,M,M,M,4400.00,M,M,M,M,M,M,M,M,M,M,10.55,KMEV 300535Z AUTO 35012KT 10SM OVC044 M05/M11 A3000 RMK AO2,M
BAM,2023-01-30 05:35,-116.8743,40.5990,1382.36,17.60,8.60,67.28,70.00,9.00,0.00,30.06,M,10.00,M,CLR,M,M,M,M,M,M,M,M,M,M,M,M,M,M,5.61,KBAM 300535Z AUTO 07009KT 10SM CLR M08/M13 A3006 RMK AO1,M
INS,2023-01-30 05:39,-115.6733,36.5872,955.00,42.80,32.00,65.38,0.00,0.00,0.00,29.81,1008.80,10.00,M,FEW,SCT,BKN,BKN,500.00,1800.00,2600.00,3700.00,-RA,M,M,M,M,M,M,42.80,KINS 300539Z AUTO 00000KT 10SM -RA FEW005 SCT018 BKN026 BKN037 OVC044 06/00 A2981 RMK AO2 RAB29 CIG 026V041 BKN026 V SCT SLP088,M
05U,2023-01-30 05:50,-116.0051,39.6042,1811.23,12.20,5.00,72.33,20.00,5.00,0.00,29.97,M,10.00,M,M,M,M,M,M,M,M,M,M,M,M,M,M,M,M,2.88,K05U 300550Z AUTO 02005KT 10SM M11/M15 A2997 RMK A01,M
P68,2023-01-30 05:53,-116.0056,39.6014,1993.00,12.00,5.00,72.97,360.00,6.00,0.00,29.95,1018.60,M,M,M,M,M,M,M,M,M,M,M,M,M,M,M,M,M,1.44,KP68 300553Z AUTO 36006KT M11/M15 A2995 RMK AO1 SLP186 T11111150 11061 21111 51020,M
DRA,2023-01-30 05:53,-116.0278,36.6206,1009.00,45.00,30.00,55.43,0.00,0.00,0.00,29.78,1007.20,10.00,M,BKN,OVC,M,M,7000.00,10000.00,M,M,M,M,M,M,M,M,M,45.00,KDRA 300553Z AUTO 00000KT 10SM BKN070 OVC100 07/M01 A2978 RMK AO2 SLP072 T00721011 10106 20072 51017,M
ELY,2023-01-30 05:53,-114.8453,39.2950,1909.00,12.90,9.00,84.07,20.00,18.00,T,29.89,1016.00,M,M,FEW,FEW,OVC,M,3100.00,4000.00,7500.00,M,-SN,M,M,M,M,M,M,-5.39,KELY 300553Z AUTO 02018KT -SN FEW031 FEW040 OVC075 M11/M13 A2989 RMK AO2 SNE0454B14 SLP160 P0000 60002 T11061128 11056 21106 51018 $,M
VGT,2023-01-30 05:53,-115.1933,36.2111,667.00,51.00,34.00,51.81,190.00,4.00,0.00,29.80,1010.70,10.00,M,BKN,OVC,M,M,6500.00,10000.00,M,M,M,M,M,M,M,M,M,51.10,KVGT 300553Z AUTO 19004KT 10SM BKN065 OVC100 11/01 A2980 RMK AO2 SLP107 T01060011 10144 20100 51021,M
LOL,2023-01-30 05:53,-118.5701,40.0684,1192.43,19.00,8.10,61.94,20.00,16.00,0.00,30.07,1021.40,10.00,23.00,CLR,M,M,M,M,M,M,M,M,M,M,M,M,M,M,3.47,KLOL 300553Z AUTO 02016G23KT 10SM CLR M07/M13 A3007 RMK AO2 SLP214 T10721133 11011 21072 51026,M
BVU,2023-01-30 05:55,-114.8611,35.9475,671.00,50.00,33.80,53.54,180.00,18.00,0.00,29.80,M,10.00,M,SCT,OVC,M,M,7000.00,9000.00,M,M,M,M,M,M,M,M,M,50.00,KBVU 300555Z AUTO 18018KT 10SM SCT070 OVC090 10/01 A2980 RMK AO2,M
CXP,2023-01-30 05:55,-119.7326,39.1923,1431.00,23.00,8.60,53.47,30.00,6.00,0.00,30.03,M,10.00,M,OVC,M,M,M,5000.00,M,M,M,M,M,M,M,M,M,M,14.69,KCXP 300555Z AUTO 03006KT 10SM OVC050 M05/M13 A3003 RMK AO2,M
INS,2023-01-30 05:55,-115.6733,36.5872,955.00,43.50,31.30,61.88,320.00,3.00,0.01,29.81,1008.80,10.00,M,FEW,BKN,BKN,OVC,400.00,1900.00,2400.00,4300.00,-RA,M,M,M,M,M,M,41.84,KINS 300555Z AUTO 32003KT 10SM -RA FEW004 BKN019 BKN024 OVC043 06/M00 A2981 RMK AO2 RAB29 SLP088 P0001 60001 T00641004 10107 20060 52019,M
RNO,2023-01-30 05:55,-119.7711,39.4839,1341.00,19.90,8.10,59.60,10.00,6.00,0.00,30.04,1019.90,10.00,M,SCT,M,M,M,6000.00,M,M,M,M,M,M,M,M,M,M,10.96,KRNO 300555Z 01006KT 10SM SCT060 M07/M13 A3004 RMK AO2 SLP199 4/002 T10671133 11006 21078 51023 $,2
LSV,2023-01-30 05:55,-115.0343,36.2362,570.00,52.50,31.30,44.14,210.00,8.00,0.00,29.78,1008.00,10.00,M,BKN,BKN,M,M,6500.00,8000.00,M,M,M,M,M,M,M,M,M,52.50,KLSV 300555Z AUTO 21008KT 10SM BKN065 BKN080 11/M00 A2978 RMK AO2 SLP080 T01141004 10156 20114 52022 $,M
RTS,2023-01-30 05:55,-119.8764,39.6682,1539.00,12.20,1.40,61.25,0.00,0.00,0.00,30.03,M,10.00,M,CLR,M,M,M,M,M,M,M,M,M,M,M,M,M,M,12.20,KRTS 300555Z AUTO 00000KT 10SM CLR M11/M17 A3003 RMK AO2,M
MEV,2023-01-30 05:55,-119.7500,38.9963,1441.42,23.00,14.00,67.96,360.00,11.00,0.00,30.01,M,10.00,M,OVC,M,M,M,4400.00,M,M,M,M,M,M,M,M,M,M,11.09,KMEV 300555Z AUTO 36011KT 10SM OVC044 M05/M10 A3001 RMK AO2,M
BAM,2023-01-30 05:55,-116.8743,40.5990,1382.36,19.40,8.60,62.28,70.00,13.00,0.00,30.07,M,10.00,M,CLR,M,M,M,M,M,M,M,M,M,M,M,M,M,M,5.43,KBAM 300555Z AUTO 07013KT 10SM CLR M07/M13 A3007 RMK AO1,M
EKO,2023-01-30 05:56,-115.7860,40.8242,1367.00,5.00,-2.00,72.18,0.00,0.00,0.00,30.03,1022.90,10.00,M,CLR,M,M,M,M,M,M,M,M,M,M,M,M,M,M,5.00,KEKO 300556Z AUTO 00000KT 10SM CLR M15/M19 A3003 RMK AO2 SLP229 T11501189 11056 21172 51019,M
NFL,2023-01-30 05:56,-118.7010,39.4166,1199.00,21.90,12.00,65.18,340.00,14.00,0.00,30.04,1014.10,5.00,M,FEW,M,M,M,1300.00,M,M,M,HZ,M,M,M,M,M,M,8.14,KNFL 300556Z AUTO 34014KT 5SM HZ FEW013 M06/M11 A3004 RMK AO2 SLP141 T10561111 10000 21056 53026,M
HND,2023-01-30 05:56,-115.1344,35.9729,742.79,49.00,30.00,47.85,180.00,8.00,0.00,29.82,1011.20,10.00,M,FEW,OVC,M,M,6500.00,10000.00,M,M,M,M,M,M,M,M,M,44.93,KHND 300556Z AUTO 18008KT 10SM FEW065 OVC100 09/M01 A2982 RMK AO2 SLP112 T00941011 10133 20089 51019,M
TPH,2023-01-30 05:56,-117.0904,38.0505,1654.00,M,M,M,350.00,14.00,0.00,29.84,M,M,M,OVC,M,M,M,7000.00,M,M,M,M,M,M,M,M,M,M,M,KTPH 300556Z AUTO 35014KT OVC070 A2984 RMK AO2 SLPNO 53015 PWINO $,M
LAS,2023-01-30 05:56,-115.1634,36.0719,663.00,50.00,33.00,52.06,260.00,5.00,0.00,29.81,1009.10,10.00,M,FEW,BKN,BKN,M,5000.00,8500.00,11000.00,M,M,M,M,M,M,M,M,50.00,KLAS 300556Z 26005KT 10SM FEW050 BKN085 BKN110 10/01 A2981 RMK AO2 SLP091 T01000006 10133 20094 52021,M
05U,2023-01-30 06:10,-116.0051,39.6042,1811.23,12.20,5.00,72.33,10.00,7.00,0.00,29.97,M,10.00,M,M,M,M,M,M,M,M,M,M,M,M,M,M,M,M,0.64,K05U 300610Z AUTO 01007KT 330V030 10SM M11/M15 A2997 RMK A01,M
BVU,2023-01-30 06:15,-114.8611,35.9475,671.00,48.20,33.80,57.26,M,6.00,0.00,29.81,M,10.00,14.00,FEW,OVC,M,M,7500.00,9000.00,M,M,M,M,M,M,M,M,M,45.04,KBVU 300615Z AUTO VRB06G14KT 10SM FEW075 OVC090 09/01 A2981 RMK AO2,M
CXP,2023-01-30 06:15,-119.7326,39.1923,1431.00,19.40,6.80,57.41,340.00,6.00,0.00,30.04,M,10.00,M,OVC,M,M,M,5000.00,M,M,M,M,M,M,M,M,M,M,10.36,KCXP 300615Z AUTO 34006KT 10SM OVC050 M07/M14 A3004 RMK AO2,M
INS,2023-01-30 06:15,-115.6733,36.5872,955.00,42.80,32.00,65.38,150.00,3.00,0.00,29.81,1008.60,10.00,M,SCT,SCT,BKN,OVC,1800.00,2500.00,3700.00,5500.00,-RA,M,M,M,M,M,M,41.03,KINS 300615Z AUTO 15003KT 10SM -RA SCT018 SCT025 BKN037 OVC055 06/00 A2981 RMK AO2 SLP086,M
RTS,2023-01-30 06:15,-119.8764,39.6682,1539.00,10.40,1.40,66.35,350.00,3.00,0.00,30.04,M,10.00,M,CLR,M,M,M,M,M,M,M,M,M,M,M,M,M,M,4.00,KRTS 300615Z AUTO 35003KT 10SM CLR M12/M17 A3004 RMK AO2,M
MEV,2023-01-30 06:15,-119.7500,38.9963,1441.42,23.00,12.20,62.78,350.00,12.00,0.00,30.01,M,10.00,M,OVC,M,M,M,4300.00,M,M,M,M,M,M,M,M,M,M,10.55,KMEV 300615Z AUTO 35012KT 10SM OVC043 M05/M11 A3001 RMK AO2,M
BAM,2023-01-30 06:15,-116.8743,40.5990,1382.36,17.60,8.60,67.28,80.00,11.00,0.00,30.08,M,10.00,M,CLR,M,M,M,M,M,M,M,M,M,M,M,M,M,M,4.27,KBAM 300615Z AUTO 08011KT 10SM CLR M08/M13 A3008 RMK AO1,M
INS,2023-01-30 06:16,-115.6733,36.5872,955.00,42.80,32.00,65.38,140.00,3.00,0.00,29.81,1008.60,10.00,M,SCT,SCT,OVC,M,1800.00,2500.00,5500.00,M,M,M,M,M,M,M,M,41.03,KINS 300616Z AUTO 14003KT 10SM SCT018 SCT025 OVC055 06/00 A2981 RMK AO2 RAE15 SLP086,M
INS,2023-01-30 06:27,-115.6733,36.5872,955.00,42.80,33.80,70.28,160.00,5.00,0.00,29.81,1008.60,10.00,M,FEW,BKN,BKN,OVC,1800.00,5000.00,6000.00,9500.00,-DZ,M,M,M,M,M,M,39.22,KINS 300627Z AUTO 16005KT 10SM -DZ FEW018 BKN050 BKN060 OVC095 06/01 A2981 RMK AO2 RAE15DZB27 SLP086,M
05U,2023-01-30 06:30,-116.0051,39.6042,1811.23,12.20,5.00,72.33,10.00,8.00,0.00,29.97,M,10.00,M,M,M,M,M,M,M,M,M,M,M,M,M,M,M,M,-0.28,K05U 300630Z AUTO 01008KT 10SM M11/M15 A2997 RMK A01,M
BVU,2023-01-30 06:35,-114.8611,35.9475,671.00,48.20,33.80,57.26,230.00,8.00,0.00,29.82,M,10.00,M,FEW,SCT,M,M,5000.00,9000.00,M,M,M,M,M,M,M,M,M,44.07,KBVU 300635Z AUTO 23008KT 10SM FEW050 SCT090 09/01 A2982 RMK AO2,M
CXP,2023-01-30 06:35,-119.7326,39.1923,1431.00,19.40,6.80,57.41,330.00,5.00,0.00,30.05,M,10.00,M,OVC,M,M,M,5500.00,M,M,M,M,M,M,M,M,M,M,11.43,KCXP 300635Z AUTO 33005KT 10SM OVC055 M07/M14 A3005 RMK AO2,M
RTS,2023-01-30 06:35,-119.8764,39.6682,1539.00,6.80,-2.20,65.87,10.00,5.00,0.00,30.04,M,10.00,M,CLR,M,M,M,M,M,M,M,M,M,M,M,M,M,M,-3.53,KRTS 300635Z AUTO 01005KT 10SM CLR M14/M19 A3004 RMK AO2,M
MEV,2023-01-30 06:35,-119.7500,38.9963,1441.42,21.20,12.20,67.73,350.00,14.00,0.00,30.02,M,10.00,M,OVC,M,M,M,4400.00,M,M,M,M,M,M,M,M,M,M,7.24,KMEV 300635Z AUTO 35014KT 10SM OVC044 M06/M11 A3002 RMK AO2,M
BAM,2023-01-30 06:35,-116.8743,40.5990,1382.36,17.60,8.60,67.28,70.00,10.00,0.00,30.08,M,10.00,16.00,CLR,M,M,M,M,M,M,M,M,M,M,M,M,M,M,4.91,KBAM 300635Z AUTO 07010G16KT 10SM CLR M08/M13 A3008 RMK AO1,M
INS,2023-01-30 06:37,-115.6733,36.5872,955.00,42.80,33.80,70.28,150.00,4.00,0.00,29.81,1008.60,10.00,M,BKN,BKN,M,M,5500.00,9500.00,M,M,M,M,M,M,M,M,M,40.03,KINS 300637Z AUTO 15004KT 10SM BKN055 BKN095 06/01 A2981 RMK AO2 RAE15DZB27E37 SLP086,M
05U,2023-01-30 06:50,-116.0051,39.6042,1811.23,12.20,5.00,72.33,10.00,7.00,0.00,29.98,M,10.00,M,M,M,M,M,M,M,M,M,M,M,M,M,M,M,M,0.64,K05U 300650Z AUTO 01007KT 10SM M11/M15 A2998 RMK A01,M
ELY,2023-01-30 06:53,-114.8453,39.2950,1909.00,12.00,8.10,84.01,20.00,18.00,T,29.91,1016.40,M,M,BKN,OVC,M,M,3100.00,7000.00,M,M,M,M,M,M,M,M,M,-6.58,KELY 300653Z AUTO 02018KT BKN031 OVC070 M11/M13 A2991 RMK AO2 SNE0556 SLP164 P0000 T11111133 $,M
VGT,2023-01-30 06:53,-115.1933,36.2111,667.00,50.00,34.00,53.97,220.00,6.00,0.00,29.82,1011.20,10.00,M,OVC,M,M,M,5000.00,M,M,M,M,M,M,M,M,M,M,50.00,KVGT 300653Z AUTO 22006KT 10SM OVC050 10/01 A2982 RMK AO2 SLP112 T01000011,M
LOL,2023-01-30 06:53,-118.5701,40.0684,1192.43,19.00,7.00,58.94,30.00,14.00,0.00,30.08,1021.50,10.00,20.00,CLR,M,M,M,M,M,M,M,M,M,M,M,M,M,M,4.41,KLOL 300653Z AUTO 03014G20KT 10SM CLR M07/M14 A3008 RMK AO2 SLP215 T10721139,M
P68,2023-01-30 06:53,-116.0056,39.6014,1993.00,10.90,4.00,72.85,350.00,6.00,0.00,29.96,1018.20,M,M,M,M,M,M,M,M,M,M,M,M,M,M,M,M,M,0.12,KP68 300653Z AUTO 35006KT M12/M16 A2996 RMK AO1 SLP182 T11171156,M
DRA,2023-01-30 06:53,-116.0278,36.6206,1009.00,42.00,33.00,70.20,50.00,10.00,0.00,29.81,1007.90,10.00,M,OVC,M,M,M,5000.00,M,M,M,M,M,M,M,M,M,M,35.63,KDRA 300653Z AUTO 05010KT 10SM OVC050 06/01 A2981 RMK AO2 SLP079 T00560006,M
BVU,2023-01-30 06:55,-114.8611,35.9475,671.00,46.40,33.80,61.28,0.00,0.00,0.00,29.83,M,10.00,M,FEW,M,M,M,6500.00,M,M,M,M,M,M,M,M,M,M,46.40,KBVU 300655Z AUTO 00000KT 10SM FEW065 08/01 A2983 RMK AO2,M
CXP,2023-01-30 06:55,-119.7326,39.1923,1431.00,19.40,6.80,57.41,360.00,6.00,0.00,30.06,M,10.00,M,OVC,M,M,M,5500.00,M,M,M,M,M,M,M,M,M,M,10.36,KCXP 300655Z AUTO 36006KT 10SM OVC055 M07/M14 A3006 RMK AO2,M
INS,2023-01-30 06:55,-115.6733,36.5872,955.00,41.00,33.60,74.73,0.00,0.00,T,29.82,1009.00,10.00,M,FEW,SCT,M,M,5500.00,9500.00,M,M,M,M,M,M,M,M,M,41.00,KINS 300655Z AUTO 00000KT 10SM FEW055 SCT095 05/01 A2982 RMK AO2 RAE15DZB27E37 SLP090 P0000 T00500009,M
RNO,2023-01-30 06:55,-119.7711,39.4839,1341.00,17.10,8.10,67.22,0.00,0.00,0.00,30.07,1021.00,10.00,M,FEW,M,M,M,6000.00,M,M,M,M,M,M,M,M,M,M,17.10,KRNO 300655Z COR 00000KT 10SM FEW060 M08/M13 A3007 RMK AO2 SLP210 T10831133 $,M
LSV,2023-01-30 06:55,-115.0343,36.2362,570.00,51.30,32.70,48.82,250.00,6.00,0.00,29.80,1008.60,10.00,M,OVC,M,M,M,6000.00,M,M,M,M,M,M,M,M,M,M,51.30,KLSV 300655Z AUTO 25006KT 10SM OVC060 11/00 A2980 RMK AO2 SLP086 T01070004 $,M
RTS,2023-01-30 06:55,-119.8764,39.6682,1539.00,5.00,-2.20,71.50,300.00,3.00,0.00,30.06,M,10.00,M,CLR,M,M,M,M,M,M,M,M,M,M,M,M,M,M,-2.18,KRTS 300655Z AUTO 30003KT 10SM CLR M15/M19 A3006 RMK AO2,M
MEV,2023-01-30 06:55,-119.7500,38.9963,1441.42,21.20,12.20,67.73,360.00,14.00,0.00,30.03,M,10.00,M,OVC,M,M,M,4500.00,M,M,M,M,M,M,M,M,M,M,7.24,KMEV 300655Z AUTO 36014KT 10SM OVC045 M06/M11 A3003 RMK AO2,M
BAM,2023-01-30 06:55,-116.8743,40.5990,1382.36,17.60,8.60,67.28,50.00,7.00,0.00,30.09,M,10.00,M,CLR,M,M,M,M,M,M,M,M,M,M,M,M,M,M,7.23,KBAM 300655Z AUTO 05007KT 10SM CLR M08/M13 A3009 RMK AO1,M
NFL,2023-01-30 06:56,-118.7010,39.4166,1199.00,21.00,10.90,64.48,340.00,12.00,0.00,30.06,1014.80,6.00,M,CLR,M,M,M,M,M,M,M,HZ,M,M,M,M,M,M,8.00,KNFL 300656Z AUTO 34012KT 6SM HZ CLR M06/M12 A3006 RMK AO2 SLP148 T10611117,M
HND,2023-01-30 06:56,-115.1344,35.9729,742.79,48.00,32.00,53.67,240.00,6.00,0.00,29.83,1011.60,10.00,M,FEW,BKN,OVC,M,5500.00,7000.00,10000.00,M,M,M,M,M,M,M,M,44.80,KHND 300656Z AUTO 24006KT 10SM FEW055 BKN070 OVC100 09/00 A2983 RMK AO2 SLP116 T00890000 401440011,M
TPH,2023-01-30 06:56,-117.0904,38.0505,1654.00,M,M,M,360.00,14.00,0.00,29.85,M,M,M,SCT,OVC,M,M,4300.00,7500.00,M,M,M,M,M,M,27.00,350.00,2023-01-30 06:14,M,KTPH 300656Z AUTO 36014KT SCT043 OVC075 A2985 RMK AO2 PK WND 35027/0614 SLPNO PWINO $,M
LAS,2023-01-30 06:56,-115.1634,36.0719,663.00,48.00,36.00,62.97,270.00,3.00,T,29.82,1009.40,10.00,M,BKN,BKN,OVC,M,5500.00,7500.00,11000.00,M,M,M,M,M,M,M,M,46.98,KLAS 300656Z 27003KT 10SM BKN055 BKN075 OVC110 09/02 A2982 RMK AO2 RAB33E42 SLP094 SHRA OBSCURES MTNS DSNT W-N P0000 T00890022,M
EKO,2023-01-30 06:56,-115.7860,40.8242,1367.00,1.00,-5.00,74.89,M,3.00,0.00,30.04,1023.70,10.00,M,CLR,M,M,M,M,M,M,M,M,M,M,M,M,M,M,-6.75,KEKO 300656Z AUTO VRB03KT 10SM CLR M17/M21 A3004 RMK AO2 SLP237 T11721206,M
05U,2023-01-30 07:10,-116.0051,39.6042,1811.23,10.40,3.20,72.12,340.00,8.00,0.00,29.98,M,10.00,M,M,M,M,M,M,M,M,M,M,M,M,M,M,M,M,-2.49,K05U 300710Z AUTO 34008KT 10SM M12/M16 A2998 RMK A01,M
BVU,2023-01-30 07:15,-114.8611,35.9475,671.00,48.20,33.80,57.26,230.00,4.00,0.00,29.83,M,10.00,M,FEW,BKN,BKN,M,4800.00,6500.00,9500.00,M,M,M,M,M,M,M,M,46.34,KBVU 300715Z AUTO 23004KT 10SM FEW048 BKN065 BKN095 09/01 A2983 RMK AO2,M
CXP,2023-01-30 07:15,-119.7326,39.1923,1431.00,17.60,5.00,57.14,10.00,6.00,0.00,30.07,M,10.00,M,FEW,OVC,M,M,5000.00,5500.00,M,M,M,M,M,M,M,M,M,8.19,KCXP 300715Z AUTO 01006KT 10SM FEW050 OVC055 M08/M15 A3007 RMK AO2,M
RTS,2023-01-30 07:15,-119.8764,39.6682,1539.00,3.20,-4.00,71.29,310.00,4.00,0.00,30.06,M,10.00,M,CLR,M,M,M,M,M,M,M,M,M,M,M,M,M,M,-6.21,KRTS 300715Z AUTO 31004KT 10SM CLR M16/M20 A3006 RMK AO2,M
MEV,2023-01-30 07:15,-119.7500,38.9963,1441.42,21.20,12.20,67.73,360.00,12.00,0.00,30.04,M,10.00,M,OVC,M,M,M,4600.00,M,M,M,M,M,M,M,M,M,M,8.26,KMEV 300715Z AUTO 36012KT 10SM OVC046 M06/M11 A3004 RMK AO2,M
BAM,2023-01-30 07:15,-116.8743,40.5990,1382.36,17.60,8.60,67.28,70.00,9.00,0.00,30.09,M,10.00,M,CLR,M,M,M,M,M,M,M,M,M,M,M,M,M,M,5.61,KBAM 300715Z AUTO 07009KT 10SM CLR M08/M13 A3009 RMK AO1,M
INS,2023-01-30 07:28,-115.6733,36.5872,955.00,39.20,35.60,86.79,10.00,3.00,0.00,29.83,1009.30,10.00,M,FEW,BKN,BKN,BKN,2500.00,4000.00,5000.00,7000.00,-RA,M,M,M,M,M,M,36.92,KINS 300728Z AUTO 01003KT 10SM -RA FEW025 BKN040 BKN050 BKN070 OVC090 04/02 A2983 RMK AO2 RAB28 SLP093,M
05U,2023-01-30 07:30,-116.0051,39.6042,1811.23,10.40,3.20,72.12,340.00,7.00,0.00,29.99,M,10.00,M,M,M,M,M,M,M,M,M,M,M,M,M,M,M,M,-1.55,K05U 300730Z AUTO 34007KT 10SM M12/M16 A2999 RMK A01,M
BVU,2023-01-30 07:35,-114.8611,35.9475,671.00,48.20,33.80,57.26,0.00,0.00,0.00,29.83,M,10.00,M,BKN,OVC,M,M,4900.00,6000.00,M,M,M,M,M,M,M,M,M,48.20,KBVU 300735Z AUTO 00000KT 10SM BKN049 OVC060 09/01 A2983 RMK AO2,M
CXP,2023-01-30 07:35,-119.7326,39.1923,1431.00,17.60,5.00,57.14,350.00,3.00,0.00,30.07,M,10.00,M,SCT,M,M,M,6000.00,M,M,M,M,M,M,M,M,M,M,12.23,KCXP 300735Z AUTO 35003KT 10SM SCT060 M08/M15 A3007 RMK AO2,M
RTS,2023-01-30 07:35,-119.8764,39.6682,1539.00,5.00,-2.20,71.50,340.00,5.00,0.00,30.06,M,10.00,M,CLR,M,M,M,M,M,M,M,M,M,M,M,M,M,M,-5.67,KRTS 300735Z AUTO 34005KT 10SM CLR M15/M19 A3006 RMK AO2,M
MEV,2023-01-30 07:35,-119.7500,38.9963,1441.42,19.40,10.40,67.51,360.00,12.00,0.00,30.04,M,10.00,M,OVC,M,M,M,4600.00,M,M,M,M,M,M,M,M,M,M,5.97,KMEV 300735Z AUTO 36012KT 10SM OVC046 M07/M12 A3004 RMK AO2,M
BAM,2023-01-30 07:35,-116.8743,40.5990,1382.36,15.80,8.60,72.73,70.00,7.00,0.00,30.10,M,10.00,M,CLR,M,M,M,M,M,M,M,M,M,M,M,M,M,M,5.03,KBAM 300735Z AUTO 07007KT 10SM CLR M09/M13 A3010 RMK AO1,M
NFL,2023-01-30 07:39,-118.7010,39.4166,1199.00,19.90,10.90,67.57,350.00,13.00,0.00,30.07,M,4.00,20.00,BKN,M,M,M,800.00,M,M,M,HZ,M,M,M,M,M,M,6.07,KNFL 300739Z AUTO 35013G20KT 4SM HZ BKN008 M07/M12 A3007 RMK AO2 T10671117,M
INS,2023-01-30 07:50,-115.6733,36.5872,955.00,39.20,35.60,86.79,360.00,5.00,0.00,29.83,1009.30,10.00,M,FEW,FEW,SCT,OVC,2100.00,3900.00,4900.00,6500.00,M,M,M,M,M,M,M,34.95,KINS 300750Z AUTO 36005KT 10SM FEW021 FEW039 SCT049 OVC065 04/02 A2983 RMK AO2 RAB28E50 SLP093,M
05U,2023-01-30 07:50,-116.0051,39.6042,1811.23,10.40,3.20,72.12,340.00,7.00,0.00,29.99,M,10.00,M,M,M,M,M,M,M,M,M,M,M,M,M,M,M,M,-1.55,K05U 300750Z AUTO 34007KT 10SM M12/M16 A2999 RMK A01,M
P68,2023-01-30 07:53,-116.0056,39.6014,1993.00,9.00,1.90,72.30,340.00,7.00,0.00,29.97,1018.70,M,M,M,M,M,M,M,M,M,M,M,M,M,M,M,M,M,-3.26,KP68 300753Z AUTO 34007KT M13/M17 A2997 RMK AO1 SLP187 T11281167 410281133,M
ELY,2023-01-30 07:53,-114.8453,39.2950,1909.00,9.00,5.00,83.41,30.00,11.00,T,29.91,1017.20,M,21.00,OVC,M,M,M,3000.00,M,M,M,M,M,M,M,M,M,M,-6.60,KELY 300753Z AUTO 03011G21KT OVC030 M13/M15 A2991 RMK AO2 SNB04E23 SLP172 P0000 T11281150 410171128 $,M
LOL,2023-01-30 07:53,-118.5701,40.0684,1192.43,17.10,8.10,67.22,10.00,10.00,0.00,30.11,1022.60,10.00,M,CLR,M,M,M,M,M,M,M,M,M,M,M,M,M,M,4.28,KLOL 300753Z AUTO 01010KT 10SM CLR M08/M13 A3011 RMK AO2 SLP226 T10831133 400061083,M
DRA,2023-01-30 07:53,-116.0278,36.6206,1009.00,42.00,33.00,70.20,40.00,7.00,0.00,29.83,1008.60,10.00,M,BKN,OVC,M,M,3600.00,4800.00,M,M,M,M,M,M,M,M,M,37.09,KDRA 300753Z AUTO 04007KT 10SM BKN036 OVC048 06/01 A2983 RMK AO2 SLP086 T00560006 401171022,M
VGT,2023-01-30 07:53,-115.1933,36.2111,667.00,49.00,38.00,65.62,280.00,3.00,0.01,29.81,1010.90,9.00,M,BKN,OVC,M,M,4000.00,5500.00,M,M,-RA,M,M,M,M,M,M,48.01,KVGT 300753Z AUTO 28003KT 9SM -RA BKN040 OVC055 09/03 A2981 RMK AO2 RAB0655E12B33 SLP109 P0001 T00940033 401560022,M
BVU,2023-01-30 07:55,-114.8611,35.9475,671.00,48.20,35.60,61.52,0.00,0.00,0.00,29.83,M,10.00,M,OVC,M,M,M,5000.00,M,M,M,M,M,M,M,M,M,M,48.20,KBVU 300755Z AUTO 00000KT 10SM OVC050 09/02 A2983 RMK AO2,M
CXP,2023-01-30 07:55,-119.7326,39.1923,1431.00,15.80,3.20,56.86,340.00,6.00,0.00,30.07,M,10.00,M,CLR,M,M,M,M,M,M,M,M,M,M,M,M,M,M,6.02,KCXP 300755Z AUTO 34006KT 10SM CLR M09/M16 A3007 RMK AO2,M
INS,2023-01-30 07:55,-115.6733,36.5872,955.00,40.00,35.20,83.13,360.00,5.00,T,29.83,1009.10,10.00,M,FEW,BKN,OVC,M,4900.00,6500.00,8000.00,M,M,M,M,M,M,M,M,35.78,KINS 300755Z AUTO 36005KT 10SM FEW049 BKN065 OVC080 04/02 A2983 RMK AO2 RAB28E50 SLP091 P0000 T00440018 401211042,M
RNO,2023-01-30 07:55,-119.7711,39.4839,1341.00,17.10,10.00,73.20,0.00,0.00,0.00,30.09,1021.60,10.00,M,FEW,M,M,M,6000.00,M,M,M,M,M,M,M,M,M,M,17.10,KRNO 300755Z 00000KT 10SM FEW060 M08/M12 A3009 RMK AO2 SLP216 T10831122 400001106 $,M
LSV,2023-01-30 07:55,-115.0343,36.2362,570.00,49.80,34.30,55.03,0.00,0.00,0.00,29.81,1008.90,10.00,M,OVC,M,M,M,5500.00,M,M,M,M,M,M,M,M,M,M,49.80,KLSV 300755Z AUTO 00000KT 10SM OVC055 10/01 A2981 RMK AO2 SLP089 T00990013 401730034 $,M
RTS,2023-01-30 07:55,-119.8764,39.6682,1539.00,1.40,-5.80,71.07,0.00,0.00,0.00,30.07,M,10.00,M,CLR,M,M,M,M,M,M,M,M,M,M,M,M,M,M,1.40,KRTS 300755Z AUTO 00000KT 10SM CLR M17/M21 A3007 RMK AO2,M
MEV,2023-01-30 07:55,-119.7500,38.9963,1441.42,19.40,8.60,62.28,350.00,11.00,0.00,30.04,M,10.00,M,BKN,BKN,OVC,M,3700.00,4500.00,5000.00,M,M,M,M,M,M,M,M,6.54,KMEV 300755Z AUTO 35011KT 10SM BKN037 BKN045 OVC050 M07/M13 A3004 RMK AO2,M
BAM,2023-01-30 07:55,-116.8743,40.5990,1382.36,15.80,6.80,67.05,70.00,9.00,0.00,30.10,M,10.00,M,CLR,M,M,M,M,M,M,M,M,M,M,M,M,M,M,3.37,KBAM 300755Z AUTO 07009KT 10SM CLR M09/M14 A3010 RMK AO1,M
EKO,2023-01-30 07:56,-115.7860,40.8242,1367.00,-6.00,-11.00,78.29,220.00,3.00,0.00,30.06,1025.10,10.00,M,CLR,M,M,M,M,M,M,M,M,M,M,M,M,M,M,-14.75,KEKO 300756Z AUTO 22003KT 10SM CLR M21/M24 A3006 RMK AO2 SLP251 T12111239 410111211,M
NFL,2023-01-30 07:56,-118.7010,39.4166,1199.00,19.90,10.90,67.57,350.00,13.00,0.00,30.08,1015.30,3.00,M,OVC,M,M,M,700.00,M,M,M,HZ,M,M,M,M,M,M,6.07,KNFL 300756Z AUTO 35013KT 3SM HZ OVC007 M07/M12 A3008 RMK AO2 SLP153 T10671117 400111067,M
HND,2023-01-30 07:56,-115.1344,35.9729,742.79,46.00,32.00,57.87,0.00,0.00,0.00,29.84,1011.90,10.00,M,SCT,OVC,M,M,5500.00,11000.00,M,M,M,M,M,M,M,M,M,46.00,KHND 300756Z AUTO 00000KT 10SM SCT055 OVC110 08/00 A2984 RMK AO2 SLP119 T00780000,M
TPH,2023-01-30 07:56,-117.0904,38.0505,1654.00,M,M,M,360.00,20.00,0.00,29.87,M,M,28.00,BKN,M,M,M,4100.00,M,M,M,M,M,M,M,28.00,10.00,2023-01-30 07:52,M,KTPH 300756Z AUTO 36020G28KT BKN041 A2987 RMK AO2 PK WND 01028/0752 SLPNO PWINO $,M
LAS,2023-01-30 07:56,-115.1634,36.0719,663.00,48.00,36.00,62.97,0.00,0.00,0.00,29.83,1009.60,10.00,M,FEW,BKN,OVC,M,6000.00,9000.00,11000.00,M,M,M,M,M,M,M,M,48.00,KLAS 300756Z 00000KT 10SM FEW060 BKN090 OVC110 09/02 A2983 RMK AO2 SLP096 SHSN OBSCURES MTNS DSNT W-N T00890022 401440028,M
ELY,2023-01-30 08:00,-114.8453,39.2950,1909.00,8.10,4.00,82.58,30.00,15.00,0.00,29.91,M,M,M,BKN,M,M,M,2900.00,M,M,M,M,M,M,M,M,M,M,-10.20,KELY 300800Z AUTO 03015KT BKN029 M13/M16 A2991 RMK AO2 T11331156 $,M
05U,2023-01-30 08:10,-116.0051,39.6042,1811.23,8.60,1.40,71.92,330.00,7.00,0.00,29.99,M,10.00,M,M,M,M,M,M,M,M,M,M,M,M,M,M,M,M,-3.74,K05U 300810Z AUTO 33007KT 10SM M13/M17 A2999 RMK A01,M
BVU,2023-01-30 08:15,-114.8611,35.9475,671.00,50.00,33.80,53.54,0.00,0.00,0.00,29.83,M,10.00,M,OVC,M,M,M,5000.00,M,M,M,M,M,M,M,M,M,M,50.00,KBVU 300815Z AUTO 00000KT 10SM OVC050 10/01 A2983 RMK AO2,M
CXP,2023-01-30 08:15,-119.7326,39.1923,1431.00,14.00,3.20,61.51,330.00,7.00,0.00,30.08,M,10.00,M,CLR,M,M,M,M,M,M,M,M,M,M,M,M,M,M,2.84,KCXP 300815Z AUTO 33007KT 10SM CLR M10/M16 A3008 RMK AO2,M
RTS,2023-01-30 08:15,-119.8764,39.6682,1539.00,-0.40,-5.80,77.32,0.00,0.00,0.00,30.07,M,10.00,M,CLR,M,M,M,M,M,M,M,M,M,M,M,M,M,M,-0.40,KRTS 300815Z AUTO 00000KT 10SM CLR M18/M21 A3007 RMK AO2,M
MEV,2023-01-30 08:15,-119.7500,38.9963,1441.42,17.60,8.60,67.28,350.00,10.00,0.00,30.05,M,10.00,M,SCT,BKN,OVC,M,3300.00,3900.00,4600.00,M,M,M,M,M,M,M,M,4.91,KMEV 300815Z AUTO 35010KT 10SM SCT033 BKN039 OVC046 M08/M13 A3005 RMK AO2,M
BAM,2023-01-30 08:15,-116.8743,40.5990,1382.36,15.80,6.80,67.05,70.00,9.00,0.00,30.12,M,10.00,M,CLR,M,M,M,M,M,M,M,M,M,M,M,M,M,M,3.37,KBAM 300815Z AUTO 07009KT 10SM CLR M09/M14 A3012 RMK AO1,M
INS,2023-01-30 08:21,-115.6733,36.5872,955.00,41.00,33.80,75.33,10.00,6.00,0.00,29.84,1009.40,10.00,M,FEW,BKN,BKN,OVC,2800.00,3400.00,7000.00,9000.00,-RA,M,M,M,M,M,M,36.37,KINS 300821Z AUTO 01006KT 10SM -RA FEW028 BKN034 BKN070 OVC090 05/01 A2984 RMK AO2 RAB21 SLP094,M
05U,2023-01-30 08:30,-116.0051,39.6042,1811.23,8.60,1.40,71.92,330.00,6.00,0.00,30.00,M,10.00,M,M,M,M,M,M,M,M,M,M,M,M,M,M,M,M,-2.65,K05U 300830Z AUTO 33006KT 10SM M13/M17 A3000 RMK A01,M
BVU,2023-01-30 08:35,-114.8611,35.9475,671.00,48.20,35.60,61.52,0.00,0.00,0.00,29.84,M,10.00,M,OVC,M,M,M,5000.00,M,M,M,M,M,M,M,M,M,M,48.20,KBVU 300835Z AUTO 00000KT 10SM OVC050 09/02 A2984 RMK AO2,M
CXP,2023-01-30 08:35,-119.7326,39.1923,1431.00,14.00,3.20,61.51,330.00,6.00,0.00,30.08,M,10.00,M,CLR,M,M,M,M,M,M,M,M,M,M,M,M,M,M,3.85,KCXP 300835Z AUTO 33006KT 10SM CLR M10/M16 A3008 RMK AO2,M
RTS,2023-01-30 08:35,-119.8764,39.6682,1539.00,3.20,-2.20,77.67,300.00,4.00,0.00,30.07,M,10.00,M,CLR,M,M,M,M,M,M,M,M,M,M,M,M,M,M,-6.21,KRTS 300835Z AUTO 30004KT 10SM CLR M16/M19 A3007 RMK AO2,M
MEV,2023-01-30 08:35,-119.7500,38.9963,1441.42,17.60,6.80,62.02,360.00,12.00,0.00,30.05,M,10.00,M,BKN,BKN,OVC,M,3400.00,3900.00,4500.00,M,M,M,M,M,M,M,M,3.67,KMEV 300835Z AUTO 36012KT 10SM BKN034 BKN039 OVC045 M08/M14 A3005 RMK AO2,M
BAM,2023-01-30 08:35,-116.8743,40.5990,1382.36,15.80,6.80,67.05,90.00,5.00,0.00,30.11,M,10.00,M,CLR,M,M,M,M,M,M,M,M,M,M,M,M,M,M,7.16,KBAM 300835Z AUTO 09005KT 10SM CLR M09/M14 A3011 RMK AO1,M
NFL,2023-01-30 08:36,-118.7010,39.4166,1199.00,19.90,10.00,64.91,340.00,11.00,0.00,30.09,M,6.00,M,SCT,M,M,M,1100.00,M,M,M,HZ,M,M,M,M,M,M,7.18,KNFL 300836Z AUTO 34011KT 6SM HZ SCT011 M07/M12 A3009 RMK AO2 T10671122,M
INS,2023-01-30 08:37,-115.6733,36.5872,955.00,39.20,33.80,80.79,20.00,6.00,0.00,29.84,1009.40,10.00,M,FEW,SCT,SCT,BKN,2700.00,3300.00,6000.00,7500.00,M,M,M,M,M,M,M,34.20,KINS 300837Z AUTO 02006KT 10SM FEW027 SCT033 SCT060 BKN075 04/01 A2984 RMK AO2 RAB21E31DZB31E37 SLP094,M
EKO,2023-01-30 08:47,-115.7860,40.8242,1367.00,-8.00,-13.00,78.10,0.00,0.00,0.00,30.07,M,10.00,M,FEW,M,M,M,100.00,M,M,M,M,M,M,M,M,M,M,-8.00,KEKO 300847Z AUTO 00000KT 10SM FEW001 M22/M25 A3007 RMK AO2 T12221250,M
05U,2023-01-30 08:50,-116.0051,39.6042,1811.23,8.60,1.40,71.92,340.00,9.00,0.00,30.00,M,10.00,M,M,M,M,M,M,M,M,M,M,M,M,M,M,M,M,-5.58,K05U 300850Z AUTO 34009KT 10SM M13/M17 A3000 RMK A01,M
P68,2023-01-30 08:53,-116.0056,39.6014,1993.00,8.10,1.00,72.20,340.00,8.00,0.00,29.97,1019.40,M,M,M,M,M,M,M,M,M,M,M,M,M,M,M,M,M,-5.33,KP68 300853Z AUTO 34008KT M13/M17 A2997 RMK AO1 SLP194 T11331172 51007,M
LOL,2023-01-30 08:53,-118.5701,40.0684,1192.43,17.10,7.00,63.95,30.00,13.00,0.00,30.11,1022.80,10.00,22.00,CLR,M,M,M,M,M,M,M,M,M,M,M,M,M,M,2.48,KLOL 300853Z AUTO 03013G22KT 10SM CLR M08/M14 A3011 RMK AO2 SLP228 T10831139 51012,M
ELY,2023-01-30 08:53,-114.8453,39.2950,1909.00,8.10,4.00,82.58,20.00,16.00,0.00,29.92,1017.90,M,M,OVC,M,M,M,2500.00,M,M,M,M,M,M,M,M,M,M,-10.73,KELY 300853Z AUTO 02016KT OVC025 M13/M16 A2992 RMK AO2 SLP179 60000 T11331156 51008 $,M
VGT,2023-01-30 08:53,-115.1933,36.2111,667.00,48.00,40.00,73.38,50.00,4.00,T,29.83,1011.50,10.00,M,OVC,M,M,M,5000.00,M,M,M,M,M,M,M,M,M,M,46.10,KVGT 300853Z AUTO 05004KT 10SM OVC050 09/04 A2983 RMK AO2 RAE03 SLP115 P0000 60001 T00890044 52009,M
DRA,2023-01-30 08:53,-116.0278,36.6206,1009.00,40.00,33.00,76.44,40.00,9.00,0.00,29.84,1009.20,10.00,M,BKN,OVC,M,M,3300.00,4900.00,M,M,M,M,M,M,M,M,M,33.34,KDRA 300853Z AUTO 04009KT 10SM BKN033 OVC049 04/01 A2984 RMK AO2 SLP092 T00440006 51018,M
BVU,2023-01-30 08:55,-114.8611,35.9475,671.00,46.40,35.60,65.83,320.00,5.00,0.00,29.84,M,10.00,M,BKN,OVC,M,M,4700.00,5500.00,M,M,M,M,M,M,M,M,M,43.50,KBVU 300855Z AUTO 32005KT 10SM BKN047 OVC055 08/02 A2984 RMK AO2,M
CXP,2023-01-30 08:55,-119.7326,39.1923,1431.00,12.20,1.40,61.25,0.00,0.00,0.00,30.09,M,10.00,M,CLR,M,M,M,M,M,M,M,M,M,M,M,M,M,M,12.20,KCXP 300855Z AUTO 00000KT 10SM CLR M11/M17 A3009 RMK AO2,M
RTS,2023-01-30 08:55,-119.8764,39.6682,1539.00,-0.40,-7.60,70.85,300.00,3.00,0.00,30.08,M,10.00,M,CLR,M,M,M,M,M,M,M,M,M,M,M,M,M,M,-8.35,KRTS 300855Z AUTO 30003KT 10SM CLR M18/M22 A3008 RMK AO2,M
MEV,2023-01-30 08:55,-119.7500,38.9963,1441.42,15.80,6.80,67.05,20.00,6.00,0.00,30.06,M,10.00,M,OVC,M,M,M,3700.00,M,M,M,M,M,M,M,M,M,M,6.02,KMEV 300855Z AUTO 02006KT 10SM OVC037 M09/M14 A3006 RMK AO2,M
BAM,2023-01-30 08:55,-116.8743,40.5990,1382.36,15.80,5.00,61.77,0.00,0.00,0.00,30.12,M,10.00,M,CLR,M,M,M,M,M,M,M,M,M,M,M,M,M,M,15.80,KBAM 300855Z AUTO 00000KT 10SM CLR M09/M15 A3012 RMK AO1,M
INS,2023-01-30 08:55,-115.6733,36.5872,955.00,39.20,35.00,85.09,0.00,0.00,T,29.85,1009.80,10.00,M,BKN,BKN,M,M,3500.00,7500.00,M,M,M,M,M,M,M,M,M,39.20,KINS 300855Z AUTO 00000KT 10SM BKN035 BKN075 04/02 A2985 RMK AO2 RAB21E31DZB31E37 SLP098 P0000 60000 T00400017 52013,M
RNO,2023-01-30 08:55,-119.7711,39.4839,1341.00,10.90,6.00,80.57,190.00,3.00,0.00,30.10,1022.60,10.00,M,FEW,M,M,M,6000.00,M,M,M,M,M,M,M,M,M,M,4.57,KRNO 300855Z 19003KT 10SM FEW060 M12/M14 A3010 RMK AO2 SLP226 T11171144 51016 $,M
LSV,2023-01-30 08:55,-115.0343,36.2362,570.00,49.00,33.60,54.92,0.00,0.00,0.00,29.81,1008.90,10.00,M,BKN,M,M,M,6000.00,M,M,M,M,M,M,M,M,M,M,49.10,KLSV 300855Z AUTO 00000KT 10SM BKN060 10/01 A2981 RMK AO2 SLP089 T00950009 52011 $,M
EKO,2023-01-30 08:56,-115.7860,40.8242,1367.00,-8.00,-13.00,78.10,0.00,0.00,0.00,30.07,1025.70,10.00,M,FEW,M,M,M,100.00,M,M,M,M,M,M,M,M,M,M,-8.00,KEKO 300856Z AUTO 00000KT 10SM FEW001 M22/M25 A3007 RMK AO2 SLP257 T12221250 53013,M
NFL,2023-01-30 08:56,-118.7010,39.4166,1199.00,19.00,10.00,67.46,340.00,9.00,0.00,30.10,1015.90,10.00,M,CLR,M,M,M,M,M,M,M,M,M,M,M,M,M,M,7.35,KNFL 300856Z AUTO 34009KT 10SM CLR M07/M12 A3010 RMK AO2 SLP159 T10721122 53018,M
HND,2023-01-30 08:56,-115.1344,35.9729,742.79,46.00,32.00,57.87,0.00,0.00,0.00,29.85,1012.30,10.00,M,OVC,M,M,M,4800.00,M,M,M,M,M,M,M,M,M,M,46.00,KHND 300856Z AUTO 00000KT 10SM OVC048 08/00 A2985 RMK AO2 SLP123 T00780000 51010,M
TPH,2023-01-30 08:56,-117.0904,38.0505,1654.00,M,M,M,340.00,15.00,0.00,29.89,M,M,22.00,OVC,M,M,M,4200.00,M,M,M,M,M,M,M,M,M,M,M,KTPH 300856Z AUTO 34015G22KT OVC042 A2989 RMK AO2 SLPNO 53015 PWINO $,M
LAS,2023-01-30 08:56,-115.1634,36.0719,663.00,47.00,37.00,68.27,200.00,3.00,T,29.84,1009.80,10.00,M,OVC,M,M,M,4900.00,M,M,M,M,M,M,M,M,M,M,45.72,KLAS 300856Z 20003KT 10SM OVC049 08/03 A2984 RMK AO2 RAB30E44 SLP098 MTNS OBSCURED DSNT W-N P0000 60000 T00830028 51008,M
INS,2023-01-30 09:10,-115.6733,36.5872,955.00,39.20,33.80,80.79,0.00,0.00,0.00,29.86,1009.90,10.00,M,BKN,OVC,M,M,2600.00,3400.00,M,M,M,M,M,M,M,M,M,39.20,KINS 300910Z AUTO 00000KT 10SM BKN026 OVC034 04/01 A2986 RMK AO2 CIG 026V035 BKN V SCT SLP099,M
05U,2023-01-30 09:10,-116.0051,39.6042,1811.23,6.80,-0.40,71.71,350.00,6.00,0.00,30.00,M,10.00,M,M,M,M,M,M,M,M,M,M,M,M,M,M,M,M,-4.82,K05U 300910Z AUTO 35006KT 10SM M14/M18 A3000 RMK A01,M
BVU,2023-01-30 09:15,-114.8611,35.9475,671.00,48.20,35.60,61.52,320.00,4.00,0.00,29.85,M,10.00,M,OVC,M,M,M,4500.00,M,M,M,M,M,M,M,M,M,M,46.34,KBVU 300915Z AUTO 32004KT 10SM OVC045 09/02 A2985 RMK AO2,M
CXP,2023-01-30 09:15,-119.7326,39.1923,1431.00,10.40,3.20,72.12,0.00,0.00,0.00,30.10,M,10.00,M,BKN,M,M,M,4600.00,M,M,M,M,M,M,M,M,M,M,10.40,KCXP 300915Z AUTO 00000KT 10SM BKN046 M12/M16 A3010 RMK AO2,M
RTS,2023-01-30 09:15,-119.8764,39.6682,1539.00,1.40,-5.80,71.07,0.00,0.00,0.00,30.08,M,10.00,M,CLR,M,M,M,M,M,M,M,M,M,M,M,M,M,M,1.40,KRTS 300915Z AUTO 00000KT 10SM CLR M17/M21 A3008 RMK AO2,M
MEV,2023-01-30 09:15,-119.7500,38.9963,1441.42,17.60,8.60,67.28,360.00,12.00,0.00,30.07,M,10.00,M,OVC,M,M,M,3800.00,M,M,M,M,M,M,M,M,M,M,3.67,KMEV 300915Z AUTO 36012KT 10SM OVC038 M08/M13 A3007 RMK AO2,M
BAM,2023-01-30 09:20,-116.8743,40.5990,1382.36,14.00,6.80,72.53,60.00,9.00,0.00,30.12,M,10.00,M,CLR,M,M,M,M,M,M,M,M,M,M,M,M,M,M,1.13,KBAM 300920Z AUTO 06009KT 10SM CLR M10/M14 A3012 RMK AO1,M
INS,2023-01-30 09:21,-115.6733,36.5872,955.00,39.20,35.60,86.79,280.00,4.00,0.00,29.86,1009.90,10.00,M,SCT,OVC,M,M,1800.00,2500.00,M,M,-RA,M,M,M,M,M,M,35.83,KINS 300921Z AUTO 28004KT 10SM -RA SCT018 OVC025 04/02 A2986 RMK AO2 RAB21 SLP099,M
05U,2023-01-30 09:30,-116.0051,39.6042,1811.23,8.60,1.40,71.92,350.00,9.00,0.00,30.01,M,10.00,M,M,M,M,M,M,M,M,M,M,M,M,M,M,M,M,-5.58,K05U 300930Z AUTO 35009KT 10SM M13/M17 A3001 RMK A01,M
BVU,2023-01-30 09:35,-114.8611,35.9475,671.00,46.40,35.60,65.83,0.00,0.00,0.00,29.86,M,10.00,M,OVC,M,M,M,4300.00,M,M,M,M,M,M,M,M,M,M,46.40,KBVU 300935Z AUTO 00000KT 10SM OVC043 08/02 A2986 RMK AO2,M
CXP,2023-01-30 09:35,-119.7326,39.1923,1431.00,10.40,1.40,66.35,0.00,0.00,0.00,30.10,M,10.00,M,FEW,M,M,M,4600.00,M,M,M,M,M,M,M,M,M,M,10.40,KCXP 300935Z AUTO 00000KT 10SM FEW046 M12/M17 A3010 RMK AO2,M
RTS,2023-01-30 09:35,-119.8764,39.6682,1539.00,5.00,-0.40,77.84,0.00,0.00,0.00,30.07,M,10.00,M,CLR,M,M,M,M,M,M,M,M,M,M,M,M,M,M,5.00,KRTS 300935Z AUTO 00000KT 10SM CLR M15/M18 A3007 RMK AO2,M
MEV,2023-01-30 09:35,-119.7500,38.9963,1441.42,17.60,6.80,62.02,350.00,10.00,0.00,30.07,M,10.00,M,OVC,M,M,M,4100.00,M,M,M,M,M,M,M,M,M,M,4.91,KMEV 300935Z AUTO 35010KT 10SM OVC041 M08/M14 A3007 RMK AO2,M
BAM,2023-01-30 09:35,-116.8743,40.5990,1382.36,14.00,5.00,66.82,60.00,6.00,0.00,30.12,M,10.00,M,CLR,M,M,M,M,M,M,M,M,M,M,M,M,M,M,3.85,KBAM 300935Z AUTO 06006KT 10SM CLR M10/M15 A3012 RMK AO1,M
INS,2023-01-30 09:41,-115.6733,36.5872,955.00,39.20,35.60,86.79,0.00,0.00,0.00,29.86,1009.90,10.00,M,SCT,SCT,BKN,OVC,1800.00,2400.00,3400.00,7000.00,-RA,M,M,M,M,M,M,39.20,KINS 300941Z AUTO 00000KT 10SM -RA SCT018 SCT024 BKN034 OVC070 04/02 A2986 RMK AO2 RAB21 SLP099,M
05U,2023-01-30 09:50,-116.0051,39.6042,1811.23,8.60,-0.40,66.11,350.00,9.00,0.00,30.01,M,10.00,M,M,M,M,M,M,M,M,M,M,M,M,M,M,M,M,-5.58,K05U 300950Z AUTO 35009KT 10SM M13/M18 A3001 RMK A01,M
INS,2023-01-30 09:52,-115.6733,36.5872,955.00,39.20,35.60,86.79,280.00,3.00,0.00,29.87,1010.20,10.00,M,FEW,FEW,OVC,M,1700.00,3400.00,7000.00,M,M,M,M,M,M,M,M,36.92,KINS 300952Z AUTO 28003KT 10SM FEW017 FEW034 OVC070 04/02 A2987 RMK AO2 RAB21E50DZB50E52 SLP102,M
P68,2023-01-30 09:53,-116.0056,39.6014,1993.00,7.00,0.00,72.41,350.00,10.00,0.00,29.99,1020.30,M,M,M,M,M,M,M,M,M,M,M,M,M,M,M,M,M,-8.38,KP68 300953Z AUTO 35010KT M14/M18 A2999 RMK AO1 SLP203 T11391178,M
DRA,2023-01-30 09:53,-116.0278,36.6206,1009.00,39.00,30.90,72.45,30.00,11.00,0.00,29.86,1009.80,10.00,M,FEW,BKN,OVC,M,3500.00,6000.00,10000.00,M,M,M,M,M,M,M,M,31.31,KDRA 300953Z AUTO 03011KT 10SM FEW035 BKN060 OVC100 04/M01 A2986 RMK AO2 SLP098 T00391006,M
ELY,2023-01-30 09:53,-114.8453,39.2950,1909.00,8.10,3.00,79.23,20.00,18.00,0.00,29.94,1018.50,M,27.00,OVC,M,M,M,2400.00,M,M,M,M,M,M,M,28.00,10.00,2023-01-30 09:24,-11.71,KELY 300953Z AUTO 02018G27KT OVC024 M13/M16 A2994 RMK AO2 PK WND 01028/0924 SLP185 T11331161 $,M
VGT,2023-01-30 09:53,-115.1933,36.2111,667.00,48.00,39.00,70.85,320.00,5.00,T,29.85,1012.20,10.00,M,OVC,M,M,M,5000.00,M,M,M,-RA,M,M,M,M,M,M,45.40,KVGT 300953Z AUTO 32005KT 10SM -RA OVC050 09/04 A2985 RMK AO2 RAB45 SLP122 P0000 T00890039,M
LOL,2023-01-30 09:53,-118.5701,40.0684,1192.43,17.10,6.00,61.39,40.00,13.00,0.00,30.12,1023.10,10.00,17.00,CLR,M,M,M,M,M,M,M,M,M,M,M,27.00,20.00,2023-01-30 08:56,2.48,KLOL 300953Z AUTO 04013G17KT 10SM CLR M08/M14 A3012 RMK AO2 PK WND 02027/0856 SLP231 T10831144,M
BVU,2023-01-30 09:55,-114.8611,35.9475,671.00,48.20,35.60,61.52,0.00,0.00,0.00,29.86,M,10.00,M,OVC,M,M,M,4100.00,M,M,M,M,M,M,M,M,M,M,48.20,KBVU 300955Z AUTO 00000KT 10SM OVC041 09/02 A2986 RMK AO2,M
CXP,2023-01-30 09:55,-119.7326,39.1923,1431.00,10.40,3.20,72.12,0.00,0.00,0.00,30.10,M,10.00,M,CLR,M,M,M,M,M,M,M,M,M,M,M,M,M,M,10.40,KCXP 300955Z AUTO 00000KT 10SM CLR M12/M16 A3010 RMK AO2,M
RNO,2023-01-30 09:55,-119.7711,39.4839,1341.00,9.00,5.00,83.41,180.00,4.00,0.00,30.10,1022.90,10.00,M,CLR,M,M,M,M,M,M,M,M,M,M,M,M,M,M,0.56,KRNO 300955Z 18004KT 10SM CLR M13/M15 A3010 RMK AO2 SLP229 T11281150 $,M
LSV,2023-01-30 09:55,-115.0343,36.2362,570.00,48.00,34.30,58.86,0.00,0.00,0.00,29.83,1009.50,10.00,M,BKN,M,M,M,6500.00,M,M,M,M,M,M,M,M,M,M,48.00,KLSV 300955Z AUTO 00000KT 10SM BKN065 09/01 A2983 RMK AO2 SLP095 T00890013 $,M
RTS,2023-01-30 09:55,-119.8764,39.6682,1539.00,5.00,-2.20,71.50,0.00,0.00,0.00,30.08,M,10.00,M,CLR,M,M,M,M,M,M,M,M,M,M,M,M,M,M,5.00,KRTS 300955Z AUTO 00000KT 10SM CLR M15/M19 A3008 RMK AO2,M
MEV,2023-01-30 09:55,-119.7500,38.9963,1441.42,17.60,6.80,62.02,20.00,7.00,0.00,30.08,M,10.00,13.00,OVC,M,M,M,4100.00,M,M,M,M,M,M,M,M,M,M,7.23,KMEV 300955Z AUTO 02007G13KT 10SM OVC041 M08/M14 A3008 RMK AO2,M
BAM,2023-01-30 09:55,-116.8743,40.5990,1382.36,14.00,5.00,66.82,340.00,3.00,0.00,30.12,M,10.00,M,CLR,M,M,M,M,M,M,M,M,M,M,M,M,M,M,8.11,KBAM 300955Z AUTO 34003KT 10SM CLR M10/M15 A3012 RMK AO1,M
INS,2023-01-30 09:55,-115.6733,36.5872,955.00,38.70,35.00,86.08,280.00,4.00,T,29.87,1010.20,10.00,M,FEW,FEW,BKN,OVC,1700.00,3400.00,6500.00,8000.00,M,M,M,M,M,M,M,35.24,KINS 300955Z AUTO 28004KT 10SM FEW017 FEW034 BKN065 OVC080 04/02 A2987 RMK AO2 RAB21E50DZB50E52 SLP102 P0000 T00370016,M
EKO,2023-01-30 09:56,-115.7860,40.8242,1367.00,-8.00,-14.10,73.90,0.00,0.00,0.00,30.08,1025.90,10.00,M,CLR,M,M,M,M,M,M,M,M,T,M,M,M,M,M,-8.00,KEKO 300956Z AUTO 00000KT 10SM CLR M22/M26 A3008 RMK AO2 SLP259 I1000 T12221256,M
NFL,2023-01-30 09:56,-118.7010,39.4166,1199.00,18.00,10.00,70.41,340.00,7.00,0.00,30.12,1016.60,4.00,M,OVC,M,M,M,1200.00,M,M,M,HZ,M,M,M,M,M,M,7.71,KNFL 300956Z AUTO 34007KT 4SM HZ OVC012 M08/M12 A3012 RMK AO2 SLP166 T10781122,M
HND,2023-01-30 09:56,-115.1344,35.9729,742.79,46.00,32.00,57.87,180.00,3.00,0.00,29.87,1013.00,10.00,M,BKN,OVC,M,M,4600.00,6000.00,M,M,M,M,M,M,M,M,M,44.69,KHND 300956Z AUTO 18003KT 10SM BKN046 OVC060 08/00 A2987 RMK AO2 SLP130 T00780000,M
TPH,2023-01-30 09:56,-117.0904,38.0505,1654.00,M,M,M,340.00,11.00,0.00,29.92,M,M,M,OVC,M,M,M,5000.00,M,M,M,M,M,M,M,M,M,M,M,KTPH 300956Z AUTO 34011KT OVC050 A2992 RMK AO2 SLPNO PWINO $,M
LAS,2023-01-30 09:56,-115.1634,36.0719,663.00,47.00,36.00,65.63,270.00,7.00,0.01,29.86,1010.70,10.00,M,OVC,M,M,M,4900.00,M,M,M,M,M,M,M,M,M,M,42.94,KLAS 300956Z 27007KT 10SM OVC049 08/02 A2986 RMK AO2 RAB0857E03B41E55 SLP107 MTNS OBSCURED DSNT W-N P0001 T00830022,M
05U,2023-01-30 10:10,-116.0051,39.6042,1811.23,6.80,-0.40,71.71,350.00,7.00,0.00,30.02,M,10.00,13.00,M,M,M,M,M,M,M,M,M,M,M,M,M,M,M,-5.94,K05U 301010Z AUTO 35007G13KT 10SM M14/M18 A3002 RMK A01,M
BVU,2023-01-30 10:15,-114.8611,35.9475,671.00,46.40,35.60,65.83,0.00,0.00,0.00,29.87,M,10.00,M,OVC,M,M,M,4000.00,M,M,M,M,M,M,M,M,M,M,46.40,KBVU 301015Z AUTO 00000KT 10SM OVC040 08/02 A2987 RMK AO2,M
CXP,2023-01-30 10:15,-119.7326,39.1923,1431.00,8.60,1.40,71.92,0.00,0.00,0.00,30.11,M,9.00,M,CLR,M,M,M,M,M,M,M,M,M,M,M,M,M,M,8.60,KCXP 301015Z AUTO 00000KT 9SM CLR M13/M17 A3011 RMK AO2,M
LSV,2023-01-30 10:15,-115.0343,36.2362,570.00,48.20,33.80,57.26,0.00,0.00,0.00,29.84,1009.80,10.00,M,BKN,BKN,M,M,4600.00,6500.00,M,M,M,M,M,M,M,M,M,48.20,KLSV 301015Z AUTO 00000KT 10SM BKN046 BKN065 09/01 A2984 RMK AO2 SLP098 $,M
RTS,2023-01-30 10:15,-119.8764,39.6682,1539.00,5.00,-2.20,71.50,0.00,0.00,0.00,30.08,M,10.00,M,CLR,M,M,M,M,M,M,M,M,M,M,M,M,M,M,5.00,KRTS 301015Z AUTO 00000KT 10SM CLR M15/M19 A3008 RMK AO2,M
MEV,2023-01-30 10:15,-119.7500,38.9963,1441.42,15.80,6.80,67.05,40.00,3.00,0.00,30.09,M,10.00,M,OVC,M,M,M,4200.00,M,M,M,M,M,M,M,M,M,M,10.17,KMEV 301015Z AUTO 04003KT 10SM OVC042 M09/M14 A3009 RMK AO2,M
BAM,2023-01-30 10:15,-116.8743,40.5990,1382.36,14.00,5.00,66.82,350.00,4.00,0.00,30.13,M,10.00,M,CLR,M,M,M,M,M,M,M,M,M,M,M,M,M,M,6.40,KBAM 301015Z AUTO 35004KT 10SM CLR M10/M15 A3013 RMK AO1,M
LSV,2023-01-30 10:26,-115.0343,36.2362,570.00,48.20,35.60,61.52,270.00,7.00,0.00,29.85,1010.20,10.00,M,BKN,M,M,M,4600.00,M,M,M,-RA,M,M,M,M,M,M,44.53,KLSV 301026Z AUTO 27007KT 10SM -RA BKN046 09/02 A2985 RMK AO2 RAB26 SLP102 $,M
05U,2023-01-30 10:30,-116.0051,39.6042,1811.23,5.00,-2.20,71.50,330.00,5.00,0.00,30.03,M,10.00,M,M,M,M,M,M,M,M,M,M,M,M,M,M,M,M,-5.67,K05U 301030Z AUTO 33005KT 10SM M15/M19 A3003 RMK A01,M
BVU,2023-01-30 10:35,-114.8611,35.9475,671.00,48.20,37.40,66.05,240.00,6.00,0.00,29.88,M,10.00,M,OVC,M,M,M,4000.00,M,M,M,M,M,M,M,M,M,M,45.04,KBVU 301035Z AUTO 24006KT 10SM OVC040 09/03 A2988 RMK AO2,M
CXP,2023-01-30 10:35,-119.7326,39.1923,1431.00,8.60,1.40,71.92,0.00,0.00,0.00,30.11,M,10.00,M,CLR,M,M,M,M,M,M,M,M,M,M,M,M,M,M,8.60,KCXP 301035Z AUTO 00000KT 10SM CLR M13/M17 A3011 RMK AO2,M
RTS,2023-01-30 10:35,-119.8764,39.6682,1539.00,-0.40,-7.60,70.85,0.00,0.00,0.00,30.08,M,10.00,M,CLR,M,M,M,M,M,M,M,M,M,M,M,M,M,M,-0.40,KRTS 301035Z AUTO 00000KT 10SM CLR M18/M22 A3008 RMK AO2,M
MEV,2023-01-30 10:35,-119.7500,38.9963,1441.42,14.00,5.00,66.82,0.00,0.00,0.00,30.10,M,10.00,M,BKN,OVC,M,M,3400.00,4400.00,M,M,M,M,M,M,M,M,M,14.00,KMEV 301035Z AUTO 00000KT 10SM BKN034 OVC044 M10/M15 A3010 RMK AO2,M
BAM,2023-01-30 10:35,-116.8743,40.5990,1382.36,14.00,5.00,66.82,20.00,4.00,0.00,30.13,M,10.00,M,CLR,M,M,M,M,M,M,M,M,M,M,M,M,M,M,6.40,KBAM 301035Z AUTO 02004KT 10SM CLR M10/M15 A3013 RMK AO1,M
INS,2023-01-30 10:40,-115.6733,36.5872,955.00,39.20,33.80,80.79,350.00,6.00,0.00,29.88,1010.80,10.00,M,BKN,BKN,OVC,M,2500.00,8000.00,10000.00,M,M,M,M,M,M,M,M,34.20,KINS 301040Z AUTO 35006KT 10SM BKN025 BKN080 OVC100 04/01 A2988 RMK AO2 CIG 025V080 SLP108,M
LSV,2023-01-30 10:42,-115.0343,36.2362,570.00,48.20,35.60,61.52,290.00,9.00,0.00,29.85,1010.20,10.00,M,BKN,M,M,M,4600.00,M,M,M,M,M,M,M,M,M,M,43.66,KLSV 301042Z AUTO 29009KT 10SM BKN046 09/02 A2985 RMK AO2 RAB26E42 SLP102 $,M
05U,2023-01-30 10:50,-116.0051,39.6042,1811.23,5.00,-2.20,71.50,330.00,4.00,0.00,30.03,M,10.00,M,M,M,M,M,M,M,M,M,M,M,M,M,M,M,M,-4.11,K05U 301050Z AUTO 33004KT 10SM M15/M19 A3003 RMK A01,M
P68,2023-01-30 10:53,-116.0056,39.6014,1993.00,5.00,-0.90,76.03,340.00,4.00,0.00,30.00,1020.90,M,M,M,M,M,M,M,M,M,M,M,M,M,M,M,M,M,-4.11,KP68 301053Z AUTO 34004KT M15/M18 A3000 RMK AO1 SLP209 T11501183,M
DRA,2023-01-30 10:53,-116.0278,36.6206,1009.00,37.00,28.90,72.24,40.00,16.00,0.00,29.88,1010.40,10.00,M,BKN,M,M,M,10000.00,M,M,M,M,M,M,M,M,M,M,26.94,KDRA 301053Z AUTO 04016KT 10SM BKN100 03/M02 A2988 RMK AO2 SLP104 T00281017,M
ELY,2023-01-30 10:53,-114.8453,39.2950,1909.00,6.00,1.90,82.43,10.00,12.00,0.00,29.96,1020.00,M,M,OVC,M,M,M,2000.00,M,M,M,M,M,M,M,M,M,M,-10.96,KELY 301053Z AUTO 01012KT OVC020 M14/M17 A2996 RMK AO2 SLP200 T11441167 $,M
LOL,2023-01-30 10:53,-118.5701,40.0684,1192.43,16.00,5.00,61.23,30.00,8.00,0.00,30.15,1024.20,10.00,M,CLR,M,M,M,M,M,M,M,M,M,M,M,M,M,M,4.40,KLOL 301053Z AUTO 03008KT 10SM CLR M09/M15 A3015 RMK AO2 SLP242 T10891150,M
VGT,2023-01-30 10:53,-115.1933,36.2111,667.00,46.00,40.00,79.13,290.00,7.00,0.02,29.88,1013.30,9.00,M,OVC,M,M,M,4400.00,M,M,M,-RA,M,M,M,M,M,M,41.84,KVGT 301053Z AUTO 29007KT 9SM -RA OVC044 08/04 A2988 RMK AO2 SLP133 P0002 T00780044,M
BVU,2023-01-30 10:55,-114.8611,35.9475,671.00,46.40,39.20,75.84,310.00,4.00,0.00,29.88,M,10.00,M,OVC,M,M,M,3900.00,M,M,M,-DZ,M,M,M,M,M,M,44.24,KBVU 301055Z AUTO 31004KT 10SM -DZ OVC039 08/04 A2988 RMK AO2,M
CXP,2023-01-30 10:55,-119.7326,39.1923,1431.00,3.20,-2.20,77.67,0.00,0.00,0.00,30.11,M,10.00,M,CLR,M,M,M,M,M,M,M,M,M,M,M,M,M,M,3.20,KCXP 301055Z AUTO 00000KT 10SM CLR M16/M19 A3011 RMK AO2,M
INS,2023-01-30 10:55,-115.6733,36.5872,955.00,38.30,33.60,83.02,340.00,5.00,0.00,29.89,1010.90,10.00,M,OVC,M,M,M,2500.00,M,M,M,M,M,M,M,M,M,M,33.88,KINS 301055Z AUTO 34005KT 10SM OVC025 04/01 A2989 RMK AO2 OVC V BKN SLP109 T00350009,M
LSV,2023-01-30 10:55,-115.0343,36.2362,570.00,48.00,35.60,61.98,300.00,9.00,T,29.86,1010.50,10.00,M,BKN,M,M,M,4700.00,M,M,M,M,M,M,M,M,M,M,43.41,KLSV 301055Z AUTO 30009KT 10SM BKN047 09/02 A2986 RMK AO2 RAB26E42 SLP105 P0000 T00890020 $,M
RTS,2023-01-30 10:55,-119.8764,39.6682,1539.00,-0.40,-7.60,70.85,0.00,0.00,0.00,30.08,M,10.00,M,CLR,M,M,M,M,M,M,M,M,M,M,M,M,M,M,-0.40,KRTS 301055Z AUTO 00000KT 10SM CLR M18/M22 A3008 RMK AO2,M
MEV,2023-01-30 10:55,-119.7500,38.9963,1441.42,12.20,5.00,72.33,0.00,0.00,0.00,30.09,M,10.00,M,OVC,M,M,M,3300.00,M,M,M,M,M,M,M,M,M,M,12.20,KMEV 301055Z AUTO 00000KT 10SM OVC033 M11/M15 A3009 RMK AO2,M
BAM,2023-01-30 10:55,-116.8743,40.5990,1382.36,14.00,5.00,66.82,350.00,4.00,0.00,30.13,M,10.00,M,CLR,M,M,M,M,M,M,M,M,M,M,M,M,M,M,6.40,KBAM 301055Z AUTO 35004KT 10SM CLR M10/M15 A3013 RMK AO1,M
RNO,2023-01-30 10:55,-119.7711,39.4839,1341.00,9.00,4.00,79.31,0.00,0.00,0.00,30.10,1022.70,10.00,M,CLR,M,M,M,M,M,M,M,M,M,M,M,M,M,M,9.00,KRNO 301055Z 00000KT 10SM CLR M13/M16 A3010 RMK AO2 SLP227 T11281156 $,M
EKO,2023-01-30 10:56,-115.7860,40.8242,1367.00,-9.00,-13.00,82.02,0.00,0.00,0.00,30.09,1027.10,10.00,M,CLR,M,M,M,M,M,M,M,M,T,M,M,M,M,M,-9.00,KEKO 301056Z AUTO 00000KT 10SM CLR M23/M25 A3009 RMK AO2 SLP271 I1000 T12281250,M
NFL,2023-01-30 10:56,-118.7010,39.4166,1199.00,17.10,9.00,69.99,320.00,7.00,0.00,30.14,1017.10,10.00,M,CLR,M,M,M,M,M,M,M,M,M,M,M,M,M,M,6.62,KNFL 301056Z AUTO 32007KT 10SM CLR M08/M13 A3014 RMK AO2 SLP171 T10831128,M
HND,2023-01-30 10:56,-115.1344,35.9729,742.79,45.00,36.00,70.53,280.00,3.00,T,29.90,1013.90,10.00,M,OVC,M,M,M,4600.00,M,M,M,-RA,M,M,M,M,M,M,43.55,KHND 301056Z AUTO 28003KT 10SM -RA OVC046 07/02 A2990 RMK AO2 RAB28 SLP139 P0000 T00720022,M
TPH,2023-01-30 10:56,-117.0904,38.0505,1654.00,M,M,M,320.00,13.00,0.00,29.94,M,M,23.00,OVC,M,M,M,6000.00,M,M,M,M,M,M,M,M,M,M,M,KTPH 301056Z AUTO 32013G23KT OVC060 A2994 RMK AO2 SLPNO PWINO $,M
LAS,2023-01-30 10:56,-115.1634,36.0719,663.00,45.00,38.00,76.01,300.00,5.00,T,29.88,1011.50,10.00,M,BKN,OVC,M,M,4900.00,6500.00,M,M,M,M,M,M,M,M,M,41.83,KLAS 301056Z 30005KT 10SM BKN049 OVC065 07/03 A2988 RMK AO2 RAB25E37 SLP115 MTNS OBSCURED DSNT W-N P0000 T00720033,M
LSV,2023-01-30 11:03,-115.0343,36.2362,570.00,48.20,35.60,61.52,300.00,9.00,0.00,29.86,1010.50,10.00,M,OVC,M,M,M,4700.00,M,M,M,-RA,M,M,M,M,M,M,43.66,KLSV 301103Z AUTO 30009KT 10SM -RA OVC047 09/02 A2986 RMK AO2 RAB03 SLP105 $,M
EKO,2023-01-30 11:08,-115.7860,40.8242,1367.00,-11.00,-16.10,77.41,0.00,0.00,0.00,30.10,M,2.00,M,FEW,M,M,M,100.00,M,M,M,HZ,M,M,M,M,M,M,-11.00,KEKO 301108Z AUTO 00000KT 2SM HZ FEW001 M24/M27 A3010 RMK AO2 T12391267,M
05U,2023-01-30 11:10,-116.0051,39.6042,1811.23,5.00,-2.20,71.50,M,M,0.00,30.03,M,10.00,M,M,M,M,M,M,M,M,M,M,M,M,M,M,M,M,M,K05U 301110Z AUTO 10SM M15/M19 A3003 RMK A01,M
DRA,2023-01-30 11:14,-116.0278,36.6206,1009.00,38.00,28.90,69.73,40.00,13.00,0.00,29.88,M,10.00,M,BKN,BKN,M,M,2700.00,10000.00,M,M,M,M,M,M,M,M,M,29.13,KDRA 301114Z AUTO 04013KT 10SM BKN027 BKN100 03/M02 A2988 RMK AO2 T00331017,M
BVU,2023-01-30 11:15,-114.8611,35.9475,671.00,46.40,39.20,75.84,0.00,0.00,0.00,29.89,M,9.00,M,OVC,M,M,M,3700.00,M,M,M,-RA,M,M,M,M,M,M,46.40,KBVU 301115Z AUTO 00000KT 9SM -RA OVC037 08/04 A2989 RMK AO2,M
CXP,2023-01-30 11:15,-119.7326,39.1923,1431.00,8.60,1.40,71.92,0.00,0.00,0.00,30.11,M,10.00,M,CLR,M,M,M,M,M,M,M,M,M,M,M,M,M,M,8.60,KCXP 301115Z AUTO 00000KT 10SM CLR M13/M17 A3011 RMK AO2,M
RTS,2023-01-30 11:15,-119.8764,39.6682,1539.00,-4.00,-9.40,76.96,30.00,4.00,0.00,30.08,M,10.00,M,CLR,M,M,M,M,M,M,M,M,M,M,M,M,M,M,-14.62,KRTS 301115Z AUTO 03004KT 10SM CLR M20/M23 A3008 RMK AO2,M
MEV,2023-01-30 11:15,-119.7500,38.9963,1441.42,10.40,3.20,72.12,0.00,0.00,0.00,30.09,M,10.00,M,BKN,BKN,OVC,M,1900.00,2400.00,4200.00,M,M,M,M,M,M,M,M,10.40,KMEV 301115Z AUTO 00000KT 10SM BKN019 BKN024 OVC042 M12/M16 A3009 RMK AO2,M
BAM,2023-01-30 11:15,-116.8743,40.5990,1382.36,14.00,5.00,66.82,350.00,6.00,0.00,30.13,M,10.00,M,CLR,M,M,M,M,M,M,M,M,M,M,M,M,M,M,3.85,KBAM 301115Z AUTO 35006KT 10SM CLR M10/M15 A3013 RMK AO1,M
EKO,2023-01-30 11:17,-115.7860,40.8242,1367.00,-11.90,-17.00,77.32,0.00,0.00,0.00,30.10,M,10.00,M,FEW,M,M,M,100.00,M,M,M,M,M,M,M,M,M,M,-11.90,KEKO 301117Z AUTO 00000KT 10SM FEW001 M24/M27 A3010 RMK AO2 T12441272,M
LSV,2023-01-30 11:18,-115.0343,36.2362,570.00,46.40,35.60,65.83,300.00,9.00,0.00,29.87,1011.00,10.00,M,OVC,M,M,M,4600.00,M,M,M,M,M,M,M,M,M,M,41.42,KLSV 301118Z AUTO 30009KT 10SM OVC046 08/02 A2987 RMK AO2 RAB03E16DZB16E18 SLP110 $,M
LSV,2023-01-30 11:22,-115.0343,36.2362,570.00,46.40,35.60,65.83,300.00,7.00,0.00,29.87,1011.00,10.00,M,OVC,M,M,M,4600.00,M,M,M,-DZ,M,M,M,M,M,M,42.33,KLSV 301122Z AUTO 30007KT 10SM -DZ OVC046 08/02 A2987 RMK AO2 RAB03E16DZB16E18DZB22 SLP110 $,M
05U,2023-01-30 11:30,-116.0051,39.6042,1811.23,5.00,-2.20,71.50,M,M,0.00,30.03,M,10.00,M,M,M,M,M,M,M,M,M,M,M,M,M,M,M,M,M,K05U 301130Z AUTO 10SM M15/M19 A3003 RMK A01,M
LSV,2023-01-30 11:33,-115.0343,36.2362,570.00,46.40,37.40,70.68,310.00,8.00,0.00,29.87,1011.00,10.00,M,BKN,M,M,M,4600.00,M,M,M,M,M,M,M,M,M,M,41.85,KLSV 301133Z AUTO 31008KT 10SM BKN046 08/03 A2987 RMK AO2 RAB03E16DZB16E18DZB22E33 SLP110 $,M
BVU,2023-01-30 11:35,-114.8611,35.9475,671.00,46.40,39.20,75.84,0.00,0.00,0.00,29.89,M,10.00,M,OVC,M,M,M,3500.00,M,M,M,M,M,M,M,M,M,M,46.40,KBVU 301135Z AUTO 00000KT 10SM OVC035 08/04 A2989 RMK AO2,M
CXP,2023-01-30 11:35,-119.7326,39.1923,1431.00,5.00,-0.40,77.84,310.00,4.00,0.00,30.11,M,10.00,M,CLR,M,M,M,M,M,M,M,M,M,M,M,M,M,M,-4.11,KCXP 301135Z AUTO 31004KT 10SM CLR M15/M18 A3011 RMK AO2,M
RTS,2023-01-30 11:35,-119.8764,39.6682,1539.00,-0.40,-5.80,77.32,0.00,0.00,0.00,30.08,M,10.00,M,CLR,M,M,M,M,M,M,M,M,M,M,M,M,M,M,-0.40,KRTS 301135Z AUTO 00000KT 10SM CLR M18/M21 A3008 RMK AO2,M
MEV,2023-01-30 11:35,-119.7500,38.9963,1441.42,6.80,1.40,78.01,110.00,4.00,0.00,30.09,M,10.00,M,OVC,M,M,M,2100.00,M,M,M,M,M,M,M,M,M,M,-2.01,KMEV 301135Z AUTO 11004KT 10SM OVC021 M14/M17 A3009 RMK AO2,M
BAM,2023-01-30 11:35,-116.8743,40.5990,1382.36,12.20,5.00,72.33,20.00,5.00,0.00,30.14,M,10.00,M,CLR,M,M,M,M,M,M,M,M,M,M,M,M,M,M,2.88,KBAM 301135Z AUTO 02005KT 10SM CLR M11/M15 A3014 RMK AO1,M
INS,2023-01-30 11:40,-115.6733,36.5872,955.00,37.40,32.00,80.65,350.00,7.00,0.00,29.89,1011.20,10.00,M,BKN,OVC,M,M,3000.00,3800.00,M,M,M,M,M,M,M,M,M,31.36,KINS 301140Z AUTO 35007KT 10SM BKN030 OVC038 03/00 A2989 RMK AO2 SLP112,M
05U,2023-01-30 11:50,-116.0051,39.6042,1811.23,5.00,-2.20,71.50,340.00,4.00,0.00,30.03,M,10.00,M,M,M,M,M,M,M,M,M,M,M,M,M,M,M,M,-4.11,K05U 301150Z AUTO 34004KT 10SM M15/M19 A3003 RMK A01,M
P68,2023-01-30 11:53,-116.0056,39.6014,1993.00,4.00,-2.00,75.92,330.00,5.00,0.00,30.01,1021.50,M,M,M,M,M,M,M,M,M,M,M,M,M,M,M,M,M,-6.98,KP68 301153Z AUTO 33005KT M16/M19 A3001 RMK AO1 SLP215 T11561189 11111 21156 51009,M
DRA,2023-01-30 11:53,-116.0278,36.6206,1009.00,38.00,28.00,67.20,40.00,12.00,0.00,29.89,1011.00,10.00,M,BKN,OVC,M,M,2700.00,3700.00,M,M,M,M,M,M,M,M,M,29.51,KDRA 301153Z AUTO 04012KT 10SM BKN027 OVC037 03/M02 A2989 RMK AO2 SLP110 T00331022 10072 20028 51016,M
ELY,2023-01-30 11:53,-114.8453,39.2950,1909.00,5.00,0.00,79.32,350.00,7.00,0.00,29.98,1020.80,M,M,OVC,M,M,M,2000.00,M,M,M,M,M,M,M,M,M,M,-8.13,KELY 301153Z AUTO 35007KT 300V020 OVC020 M15/M18 A2998 RMK AO2 SLP208 60000 70006 T11501178 11106 21150 51015 $,M
LOL,2023-01-30 11:53,-118.5701,40.0684,1192.43,14.00,5.00,66.82,30.00,8.00,0.00,30.15,1024.70,10.00,M,CLR,M,M,M,M,M,M,M,M,M,M,M,M,M,M,1.94,KLOL 301153Z AUTO 03008KT 10SM CLR M10/M15 A3015 RMK AO2 SLP247 T11001150 11072 21100 51014,M
VGT,2023-01-30 11:53,-115.1933,36.2111,667.00,45.00,40.00,82.19,320.00,6.00,0.07,29.89,1013.80,10.00,M,OVC,M,M,M,4500.00,M,M,M,M,M,M,M,M,M,M,41.19,KVGT 301153Z AUTO 32006KT 10SM OVC045 07/04 A2989 RMK AO2 RAE42 SLP138 P0007 60010 70010 T00720044 10106 20072 51019,M
BVU,2023-01-30 11:55,-114.8611,35.9475,671.00,46.40,39.20,75.84,0.00,0.00,0.00,29.90,M,6.00,M,FEW,SCT,OVC,M,2300.00,2800.00,3400.00,M,-RA,M,M,M,M,M,M,46.40,KBVU 301155Z AUTO 00000KT 6SM -RA FEW023 SCT028 OVC034 08/04 A2990 RMK AO2,M
CXP,2023-01-30 11:55,-119.7326,39.1923,1431.00,6.80,-0.40,71.71,0.00,0.00,0.00,30.11,M,10.00,M,CLR,M,M,M,M,M,M,M,M,M,M,M,M,M,M,6.80,KCXP 301155Z AUTO 00000KT 10SM CLR M14/M18 A3011 RMK AO2,M
RTS,2023-01-30 11:55,-119.8764,39.6682,1539.00,-4.00,-9.40,76.96,0.00,0.00,0.00,30.09,M,10.00,M,CLR,M,M,M,M,M,M,M,M,M,M,M,M,M,M,-4.00,KRTS 301155Z AUTO 00000KT 10SM CLR M20/M23 A3009 RMK AO2,M
MEV,2023-01-30 11:55,-119.7500,38.9963,1441.42,5.00,1.40,84.68,70.00,5.00,0.00,30.09,M,10.00,M,OVC,M,M,M,2100.00,M,M,M,M,M,M,M,M,M,M,-5.67,KMEV 301155Z AUTO 07005KT 10SM OVC021 M15/M17 A3009 RMK AO2,M
BAM,2023-01-30 11:55,-116.8743,40.5990,1382.36,12.20,5.00,72.33,20.00,4.00,0.00,30.15,M,10.00,M,CLR,M,M,M,M,M,M,M,M,M,M,M,M,M,M,4.30,KBAM 301155Z AUTO 02004KT 10SM CLR M11/M15 A3015 RMK AO1,M
LSV,2023-01-30 11:55,-115.0343,36.2362,570.00,46.40,38.50,73.80,100.00,5.00,T,29.88,1011.30,10.00,M,BKN,OVC,M,M,3600.00,4600.00,M,M,M,M,M,M,M,M,M,43.50,KLSV 301155Z AUTO 10005KT 10SM BKN036 OVC046 08/04 A2988 RMK AO2 RAB03E16DZB16E18DZB22E33 SLP113 P0000 60000 T00800036 10114 20080 52022 $,M
INS,2023-01-30 11:55,-115.6733,36.5872,955.00,38.00,32.00,79.08,360.00,7.00,0.00,29.90,1011.50,10.00,M,BKN,OVC,M,M,3000.00,3800.00,M,M,M,M,M,M,M,M,M,31.97,KINS 301155Z AUTO 36007KT 10SM BKN030 OVC038 03/00 A2990 RMK AO2 SLP115 60000 70001 T00330000 10064 20033 52014,M
RNO,2023-01-30 11:55,-119.7711,39.4839,1341.00,6.00,1.90,82.43,210.00,4.00,0.00,30.11,1023.40,10.00,M,CLR,M,M,M,M,M,M,M,M,T,M,T,M,M,M,-2.82,KRNO 301155Z 21004KT 10SM CLR M14/M17 A3011 RMK AO2 SLP234 4/002 70019 I1000 I6000 T11441167 11067 21144 51004 $,2
EKO,2023-01-30 11:56,-115.7860,40.8242,1367.00,-11.00,-16.10,77.41,0.00,0.00,0.00,30.10,1027.60,10.00,M,CLR,M,M,M,M,M,M,M,M,T,M,T,M,M,M,-11.00,KEKO 301156Z AUTO 00000KT 10SM CLR M24/M27 A3010 RMK AO2 SLP276 70010 I1000 I6000 T12391267 11156 21250 53008,M
NFL,2023-01-30 11:56,-118.7010,39.4166,1199.00,16.00,9.00,73.41,320.00,3.00,0.00,30.14,1017.30,10.00,M,CLR,M,M,M,M,M,M,M,M,M,M,M,M,M,M,10.40,KNFL 301156Z AUTO 32003KT 10SM CLR M09/M13 A3014 RMK AO2 SLP173 T10891128 11056 21089 51013,M
TPH,2023-01-30 11:56,-117.0904,38.0505,1654.00,M,M,M,320.00,14.00,0.00,29.95,M,M,25.00,FEW,OVC,M,M,4700.00,6000.00,M,M,M,M,M,M,26.00,320.00,2023-01-30 11:26,M,KTPH 301156Z AUTO 32014G25KT FEW047 OVC060 A2995 RMK AO2 PK WND 32026/1126 SLPNO 51017 PWINO $,M
LAS,2023-01-30 11:56,-115.1634,36.0719,663.00,44.00,39.00,82.12,300.00,5.00,T,29.90,1012.30,10.00,M,OVC,M,M,M,3900.00,M,M,M,M,M,M,M,M,M,M,40.77,KLAS 301156Z 30005KT 10SM OVC039 07/04 A2990 RMK AO2 RAB23E43 SLP123 P0000 60001 70001 T00670039 10100 20067 51021,M
HND,2023-01-30 11:56,-115.1344,35.9729,742.79,44.00,38.00,78.66,0.00,0.00,T,29.91,1014.50,10.00,M,BKN,BKN,OVC,M,3200.00,4400.00,5500.00,M,M,M,M,M,M,M,M,44.10,KHND 301156Z AUTO 00000KT 10SM BKN032 BKN044 OVC055 07/03 A2991 RMK AO2 RAE51 SLP145 P0000 60000 T00670033 10094 20067 51018,M
LSV,2023-01-30 12:04,-115.0343,36.2362,570.00,46.40,41.00,81.34,40.00,7.00,0.00,29.89,1011.60,10.00,M,SCT,BKN,OVC,M,2100.00,2700.00,3500.00,M,M,M,M,M,M,M,M,42.33,KLSV 301204Z AUTO 04007KT 10SM SCT021 BKN027 OVC035 08/05 A2989 RMK AO2 CIG 027V036 BKN V SCT SLP116 $,M
INS,2023-01-30 12:05,-115.6733,36.5872,955.00,37.40,32.00,80.65,350.00,7.00,0.00,29.90,1011.50,10.00,M,BKN,OVC,M,M,2900.00,3900.00,M,M,M,M,M,M,M,M,M,31.36,KINS 301205Z AUTO 35007KT 10SM BKN029 OVC039 03/M00 A2990 RMK AO2 SLP115,M
DRA,2023-01-30 12:05,-116.0278,36.6206,1009.00,37.00,26.10,64.38,40.00,13.00,0.00,29.89,M,10.00,M,SCT,OVC,M,M,2700.00,3900.00,M,M,M,M,M,M,M,M,M,27.97,KDRA 301205Z AUTO 04013KT 10SM SCT027 OVC039 03/M03 A2989 RMK AO2 T00281033,M
05U,2023-01-30 12:10,-116.0051,39.6042,1811.23,5.00,-2.20,71.50,330.00,5.00,0.00,30.04,M,10.00,M,M,M,M,M,M,M,M,M,M,M,M,M,M,M,M,-5.67,K05U 301210Z AUTO 33005KT 10SM M15/M19 A3004 RMK A01,M
EKO,2023-01-30 12:14,-115.7860,40.8242,1367.00,-11.00,-15.00,81.85,0.00,0.00,0.00,30.10,M,10.00,M,FEW,M,M,M,100.00,M,M,M,M,M,M,M,M,M,M,-11.00,KEKO 301214Z AUTO 00000KT 10SM FEW001 M24/M26 A3010 RMK AO2 T12391261,M
RTS,2023-01-30 12:15,-119.8764,39.6682,1539.00,-2.20,-7.60,77.14,0.00,0.00,0.00,30.09,M,10.00,M,CLR,M,M,M,M,M,M,M,M,M,M,M,M,M,M,-2.20,KRTS 301215Z AUTO 00000KT 10SM CLR M19/M22 A3009 RMK AO2,M
BVU,2023-01-30 12:15,-114.8611,35.9475,671.00,44.60,39.20,81.20,0.00,0.00,0.00,29.90,M,10.00,M,FEW,OVC,M,M,2800.00,3500.00,M,M,M,M,M,M,M,M,M,44.60,KBVU 301215Z AUTO 00000KT 10SM FEW028 OVC035 07/04 A2990 RMK AO2,M
CXP,2023-01-30 12:15,-119.7326,39.1923,1431.00,3.20,-2.20,77.67,160.00,3.00,0.00,30.11,M,10.00,M,CLR,M,M,M,M,M,M,M,M,M,M,M,M,M,M,-4.24,KCXP 301215Z AUTO 16003KT 10SM CLR M16/M19 A3011 RMK AO2,M
MEV,2023-01-30 12:15,-119.7500,38.9963,1441.42,6.80,-0.40,71.71,350.00,4.00,0.00,30.09,M,10.00,M,BKN,BKN,BKN,M,2100.00,3100.00,3700.00,M,M,M,M,M,M,M,M,-2.01,KMEV 301215Z AUTO 35004KT 10SM BKN021 BKN031 BKN037 M14/M18 A3009 RMK AO2,M
BAM,2023-01-30 12:15,-116.8743,40.5990,1382.36,10.40,5.00,78.35,0.00,0.00,0.00,30.15,M,10.00,M,CLR,M,M,M,M,M,M,M,M,M,M,M,M,M,M,10.40,KBAM 301215Z AUTO 00000KT 10SM CLR M12/M15 A3015 RMK AO1,M
LSV,2023-01-30 12:20,-115.0343,36.2362,570.00,46.40,37.40,70.68,40.00,6.00,0.00,29.90,1012.10,10.00,M,OVC,M,M,M,2400.00,M,M,M,-RA,M,M,M,M,M,M,42.87,KLSV 301220Z AUTO 04006KT 10SM -RA OVC024 08/03 A2990 RMK AO2 RAB20 OVC V BKN SLP121 $,M
05U,2023-01-30 12:30,-116.0051,39.6042,1811.23,5.00,-2.20,71.50,340.00,7.00,0.00,30.04,M,10.00,M,M,M,M,M,M,M,M,M,M,M,M,M,M,M,M,-8.13,K05U 301230Z AUTO 34007KT 10SM M15/M19 A3004 RMK A01,M
BVU,2023-01-30 12:35,-114.8611,35.9475,671.00,44.60,39.20,81.20,140.00,5.00,0.00,29.91,M,10.00,M,OVC,M,M,M,3400.00,M,M,M,M,M,M,M,M,M,M,41.36,KBVU 301235Z AUTO 14005KT 10SM OVC034 07/04 A2991 RMK AO2,M
CXP,2023-01-30 12:35,-119.7326,39.1923,1431.00,3.20,-0.40,84.56,0.00,0.00,0.00,30.11,M,10.00,M,CLR,M,M,M,M,M,M,M,M,M,M,M,M,M,M,3.20,KCXP 301235Z AUTO 00000KT 10SM CLR M16/M18 A3011 RMK AO2,M
RTS,2023-01-30 12:35,-119.8764,39.6682,1539.00,-2.20,-7.60,77.14,0.00,0.00,0.00,30.10,M,10.00,M,CLR,M,M,M,M,M,M,M,M,M,M,M,M,M,M,-2.20,KRTS 301235Z AUTO 00000KT 10SM CLR M19/M22 A3010 RMK AO2,M
MEV,2023-01-30 12:35,-119.7500,38.9963,1441.42,6.80,-0.40,71.71,60.00,5.00,0.00,30.09,M,10.00,M,FEW,BKN,M,M,2200.00,3500.00,M,M,M,M,M,M,M,M,M,-3.53,KMEV 301235Z AUTO 06005KT 10SM FEW022 BKN035 M14/M18 A3009 RMK AO2,M
BAM,2023-01-30 12:35,-116.8743,40.5990,1382.36,8.60,3.20,78.18,260.00,5.00,0.00,30.15,M,10.00,M,CLR,M,M,M,M,M,M,M,M,M,M,M,M,M,M,-1.39,KBAM 301235Z AUTO 26005KT 10SM CLR M13/M16 A3015 RMK AO1,M
EKO,2023-01-30 12:40,-115.7860,40.8242,1367.00,-9.90,-16.10,73.31,0.00,0.00,0.00,30.11,M,10.00,M,BKN,M,M,M,100.00,M,M,M,M,T,M,M,M,M,M,-9.90,KEKO 301240Z AUTO 00000KT 10SM BKN001 M23/M27 A3011 RMK AO2 I1000 T12331267,M
05U,2023-01-30 12:50,-116.0051,39.6042,1811.23,5.00,-2.20,71.50,360.00,7.00,0.00,30.05,M,10.00,M,M,M,M,M,M,M,M,M,M,M,M,M,M,M,M,-8.13,K05U 301250Z AUTO 36007KT 10SM M15/M19 A3005 RMK A01,M
P68,2023-01-30 12:53,-116.0056,39.6014,1993.00,5.00,-2.00,72.18,340.00,8.00,0.00,30.03,1022.50,M,M,M,M,M,M,M,M,M,M,M,M,M,M,M,M,M,-9.15,KP68 301253Z AUTO 34008KT M15/M19 A3003 RMK AO1 SLP225 T11501189,M
DRA,2023-01-30 12:53,-116.0278,36.6206,1009.00,38.00,25.00,59.36,50.00,12.00,0.00,29.90,1011.40,10.00,M,OVC,M,M,M,4200.00,M,M,M,M,M,M,M,M,M,M,29.51,KDRA 301253Z AUTO 05012KT 10SM OVC042 03/M04 A2990 RMK AO2 SLP114 T00331039,M
ELY,2023-01-30 12:53,-114.8453,39.2950,1909.00,5.00,0.00,79.32,20.00,10.00,0.00,29.99,1021.80,M,M,OVC,M,M,M,1700.00,M,M,M,M,M,M,M,M,M,M,-10.89,KELY 301253Z AUTO 02010KT OVC017 M15/M18 A2999 RMK AO2 SLP218 T11501178 $,M
LOL,2023-01-30 12:53,-118.5701,40.0684,1192.43,14.00,5.00,66.82,30.00,7.00,0.00,30.17,1025.40,10.00,M,CLR,M,M,M,M,M,M,M,M,M,M,M,M,M,M,2.84,KLOL 301253Z AUTO 03007KT 10SM CLR M10/M15 A3017 RMK AO2 SLP254 T11001150,M
VGT,2023-01-30 12:53,-115.1933,36.2111,667.00,45.00,40.00,82.19,20.00,3.00,0.02,29.91,1014.40,10.00,M,BKN,OVC,M,M,3000.00,5500.00,M,M,-RA,M,M,M,M,M,M,43.55,KVGT 301253Z AUTO 02003KT 10SM -RA BKN030 OVC055 07/04 A2991 RMK AO2 RAB09 SLP144 P0002 T00720044,M
EKO,2023-01-30 12:54,-115.7860,40.8242,1367.00,-9.40,-14.80,76.40,0.00,0.00,0.00,30.11,M,10.00,M,FEW,M,M,M,100.00,M,M,M,M,T,M,M,M,M,M,-9.40,KEKO 301254Z AUTO 00000KT 10SM FEW001 M23/M26 A3011 RMK AO2 I1000,M
BVU,2023-01-30 12:55,-114.8611,35.9475,671.00,44.60,39.20,81.20,0.00,0.00,0.00,29.91,M,10.00,M,OVC,M,M,M,3400.00,M,M,M,M,M,M,M,M,M,M,44.60,KBVU 301255Z AUTO 00000KT 10SM OVC034 07/04 A2991 RMK AO2,M
CXP,2023-01-30 12:55,-119.7326,39.1923,1431.00,3.20,-2.20,77.67,0.00,0.00,0.00,30.11,M,10.00,M,CLR,M,M,M,M,M,M,M,M,M,M,M,M,M,M,3.20,KCXP 301255Z AUTO 00000KT 10SM CLR M16/M19 A3011 RMK AO2,M
INS,2023-01-30 12:55,-115.6733,36.5872,955.00,38.70,31.80,76.02,360.00,5.00,0.00,29.91,1011.80,10.00,M,OVC,M,M,M,2700.00,M,M,M,M,M,M,M,M,M,M,34.35,KINS 301255Z AUTO 36005KT 10SM OVC027 04/M00 A2991 RMK AO2 SLP118 T00371001,M
RNO,2023-01-30 12:55,-119.7711,39.4839,1341.00,7.00,1.90,79.13,0.00,0.00,0.00,30.12,1024.10,10.00,M,CLR,M,M,M,M,M,M,M,M,T,M,M,M,M,M,7.00,KRNO 301255Z 00000KT 10SM CLR M14/M17 A3012 RMK AO2 SLP241 I1000 T11391167 $,M
RTS,2023-01-30 12:55,-119.8764,39.6682,1539.00,-2.20,-7.60,77.14,0.00,0.00,0.00,30.10,M,10.00,M,CLR,M,M,M,M,M,M,M,M,M,M,M,M,M,M,-2.20,KRTS 301255Z AUTO 00000KT 10SM CLR M19/M22 A3010 RMK AO2,M
MEV,2023-01-30 12:55,-119.7500,38.9963,1441.42,5.00,-0.40,77.84,60.00,4.00,0.00,30.09,M,10.00,M,BKN,BKN,M,M,3400.00,4100.00,M,M,M,M,M,M,M,M,M,-4.11,KMEV 301255Z AUTO 06004KT 10SM BKN034 BKN041 M15/M18 A3009 RMK AO2,M
BAM,2023-01-30 12:55,-116.8743,40.5990,1382.36,12.20,3.20,66.58,0.00,0.00,0.00,30.15,M,10.00,M,CLR,M,M,M,M,M,M,M,M,M,M,M,M,M,M,12.20,KBAM 301255Z AUTO 00000KT 10SM CLR M11/M16 A3015 RMK AO1,M
LSV,2023-01-30 12:55,-115.0343,36.2362,570.00,43.20,35.00,72.89,20.00,7.00,T,29.91,1012.60,10.00,M,OVC,M,M,M,2500.00,M,M,M,-RA,M,M,M,M,M,M,38.43,KLSV 301255Z AUTO 02007KT 10SM -RA OVC025 06/02 A2991 RMK AO2 RAB20 SLP126 P0000 T00620017 $,M
INS,2023-01-30 12:56,-115.6733,36.5872,955.00,39.20,32.00,75.16,340.00,4.00,0.00,29.91,1011.80,10.00,M,OVC,M,M,M,2700.00,M,M,M,-DZ,M,M,M,M,M,M,35.83,KINS 301256Z AUTO 34004KT 10SM -DZ OVC027 04/M00 A2991 RMK AO2 DZB56 SLP118,M
EKO,2023-01-30 12:56,-115.7860,40.8242,1367.00,-9.00,-15.00,74.16,0.00,0.00,0.00,30.11,1028.00,10.00,M,FEW,M,M,M,100.00,M,M,M,M,T,M,M,M,M,M,-9.00,KEKO 301256Z AUTO 00000KT 10SM FEW001 M23/M26 A3011 RMK AO2 SLP280 I1000 T12281261,M
NFL,2023-01-30 12:56,-118.7010,39.4166,1199.00,15.10,8.10,73.31,320.00,5.00,0.00,30.16,1017.80,10.00,M,CLR,M,M,M,M,M,M,M,M,M,M,M,M,M,M,6.32,KNFL 301256Z AUTO 32005KT 10SM CLR M09/M13 A3016 RMK AO2 SLP178 T10941133,M
TPH,2023-01-30 12:56,-117.0904,38.0505,1654.00,M,M,M,320.00,17.00,0.00,29.97,M,M,M,OVC,M,M,M,5000.00,M,M,M,M,M,M,M,M,M,M,M,KTPH 301256Z AUTO 32017KT OVC050 A2997 RMK AO2 SLPNO PWINO $,M
LAS,2023-01-30 12:56,-115.1634,36.0719,663.00,44.00,39.00,82.12,0.00,0.00,0.01,29.91,1012.70,10.00,M,BKN,OVC,M,M,3600.00,5500.00,M,M,M,M,M,M,M,M,M,44.10,KLAS 301256Z 00000KT 10SM BKN036 OVC055 07/04 A2991 RMK AO2 SLP127 MTNS OBSCURED DSNT NW-N P0001 T00670039,M
HND,2023-01-30 12:56,-115.1344,35.9729,742.79,44.00,38.00,78.66,0.00,0.00,T,29.92,1015.00,10.00,M,OVC,M,M,M,4400.00,M,M,M,M,M,M,M,M,M,M,44.10,KHND 301256Z AUTO 00000KT 10SM OVC044 07/03 A2992 RMK AO2 RAB02E38 SLP150 P0000 T00670033,M
LSV,2023-01-30 13:01,-115.0343,36.2362,570.00,42.80,35.60,75.50,20.00,12.00,0.00,29.91,1012.60,10.00,M,OVC,M,M,M,2600.00,M,M,M,M,M,M,M,M,M,M,35.75,KLSV 301301Z AUTO 02012KT 10SM OVC026 06/02 A2991 RMK AO2 RAE01 SLP126 $,M
05U,2023-01-30 13:10,-116.0051,39.6042,1811.23,5.00,-2.20,71.50,350.00,7.00,0.00,30.05,M,10.00,M,M,M,M,M,M,M,M,M,M,M,M,M,M,M,M,-8.13,K05U 301310Z AUTO 35007KT 10SM M15/M19 A3005 RMK A01,M
BVU,2023-01-30 13:15,-114.8611,35.9475,671.00,44.60,39.20,81.20,50.00,5.00,0.00,29.92,M,10.00,M,OVC,M,M,M,3400.00,M,M,M,M,M,M,M,M,M,M,41.36,KBVU 301315Z AUTO 05005KT 10SM OVC034 07/04 A2992 RMK AO2,M
CXP,2023-01-30 13:15,-119.7326,39.1923,1431.00,6.80,1.40,78.01,0.00,0.00,0.00,30.13,M,10.00,M,FEW,M,M,M,3000.00,M,M,M,M,M,M,M,M,M,M,6.80,KCXP 301315Z AUTO 00000KT 10SM FEW030 M14/M17 A3013 RMK AO2,M
RTS,2023-01-30 13:15,-119.8764,39.6682,1539.00,-0.40,-5.80,77.32,310.00,3.00,0.00,30.11,M,10.00,M,CLR,M,M,M,M,M,M,M,M,M,M,M,M,M,M,-8.35,KRTS 301315Z AUTO 31003KT 10SM CLR M18/M21 A3011 RMK AO2,M
MEV,2023-01-30 13:15,-119.7500,38.9963,1441.42,6.80,-0.40,71.71,0.00,0.00,0.00,30.10,M,10.00,M,FEW,BKN,M,M,3000.00,3500.00,M,M,M,M,M,M,M,M,M,6.80,KMEV 301315Z AUTO 00000KT 10SM FEW030 BKN035 M14/M18 A3010 RMK AO2,M
BAM,2023-01-30 13:15,-116.8743,40.5990,1382.36,10.40,3.20,72.12,360.00,4.00,0.00,30.16,M,10.00,M,CLR,M,M,M,M,M,M,M,M,M,M,M,M,M,M,2.20,KBAM 301315Z AUTO 36004KT 10SM CLR M12/M16 A3016 RMK AO1,M
INS,2023-01-30 13:24,-115.6733,36.5872,955.00,37.40,33.80,86.69,0.00,0.00,0.00,29.92,1012.40,10.00,M,FEW,FEW,OVC,M,500.00,1200.00,2400.00,M,M,M,M,M,M,M,M,37.40,KINS 301324Z AUTO 00000KT 10SM FEW005 FEW012 OVC024 03/01 A2992 RMK AO2 DZB1256E1258RAB1258E24 SLP124,M
05U,2023-01-30 13:30,-116.0051,39.6042,1811.23,5.00,-2.20,71.50,340.00,7.00,0.00,30.06,M,10.00,M,M,M,M,M,M,M,M,M,M,M,M,M,M,M,M,-8.13,K05U 301330Z AUTO 34007KT 10SM M15/M19 A3006 RMK A01,M
BVU,2023-01-30 13:35,-114.8611,35.9475,671.00,44.60,37.40,75.68,0.00,0.00,0.00,29.93,M,9.00,M,OVC,M,M,M,3200.00,M,M,M,M,M,M,M,M,M,M,44.60,KBVU 301335Z AUTO 00000KT 9SM OVC032 07/03 A2993 RMK AO2,M
CXP,2023-01-30 13:35,-119.7326,39.1923,1431.00,6.80,1.40,78.01,290.00,3.00,0.00,30.13,M,10.00,M,CLR,M,M,M,M,M,M,M,M,M,M,M,M,M,M,-0.12,KCXP 301335Z AUTO 29003KT 10SM CLR M14/M17 A3013 RMK AO2,M
RTS,2023-01-30 13:35,-119.8764,39.6682,1539.00,-2.20,-7.60,77.14,0.00,0.00,0.00,30.12,M,10.00,M,CLR,M,M,M,M,M,M,M,M,M,M,M,M,M,M,-2.20,KRTS 301335Z AUTO 00000KT 10SM CLR M19/M22 A3012 RMK AO2,M
MEV,2023-01-30 13:35,-119.7500,38.9963,1441.42,5.00,-0.40,77.84,0.00,0.00,0.00,30.11,M,10.00,M,SCT,SCT,SCT,M,3300.00,4000.00,7500.00,M,M,M,M,M,M,M,M,5.00,KMEV 301335Z AUTO 00000KT 10SM SCT033 SCT040 SCT075 M15/M18 A3011 RMK AO2,M
BAM,2023-01-30 13:35,-116.8743,40.5990,1382.36,10.40,3.20,72.12,0.00,0.00,0.00,30.16,M,10.00,M,CLR,M,M,M,M,M,M,M,M,M,M,M,M,M,M,10.40,KBAM 301335Z AUTO 00000KT 10SM CLR M12/M16 A3016 RMK AO1,M
INS,2023-01-30 13:44,-115.6733,36.5872,955.00,37.40,33.80,86.69,350.00,5.00,0.00,29.93,1012.80,10.00,M,OVC,M,M,M,2300.00,M,M,M,-RA,M,M,M,M,M,M,32.81,KINS 301344Z AUTO 35005KT 10SM -RA OVC023 03/01 A2993 RMK AO2 DZB1256E1258RAB1258E24RAB44 SLP128,M
VGT,2023-01-30 13:45,-115.1933,36.2111,667.00,45.00,40.00,82.19,90.00,4.00,T,29.93,M,10.00,M,BKN,OVC,M,M,2600.00,3500.00,M,M,M,M,M,M,M,M,M,42.60,KVGT 301345Z AUTO 09004KT 10SM BKN026 OVC035 07/04 A2993 RMK AO2 RAE04 P0000 T00720044,M
05U,2023-01-30 13:50,-116.0051,39.6042,1811.23,5.00,-2.20,71.50,360.00,8.00,0.00,30.06,M,10.00,M,M,M,M,M,M,M,M,M,M,M,M,M,M,M,M,-9.15,K05U 301350Z AUTO 36008KT 10SM M15/M19 A3006 RMK A01,M
INS,2023-01-30 13:53,-115.6733,36.5872,955.00,37.40,32.00,80.65,360.00,6.00,0.00,29.93,1012.80,10.00,M,OVC,M,M,M,2300.00,M,M,M,M,M,M,M,M,M,M,32.03,KINS 301353Z AUTO 36006KT 10SM OVC023 03/M00 A2993 RMK AO2 DZB1256E1258RAB1258E24RAB44E53 SLP128,M
P68,2023-01-30 13:53,-116.0056,39.6014,1993.00,4.00,-2.00,75.92,350.00,8.00,0.00,30.04,1023.10,M,M,M,M,M,M,M,M,M,M,M,M,M,M,M,M,M,-10.50,KP68 301353Z AUTO 35008KT M16/M19 A3004 RMK AO1 SLP231 T11561189,M
DRA,2023-01-30 13:53,-116.0278,36.6206,1009.00,37.00,25.00,61.50,20.00,12.00,0.00,29.92,1012.10,10.00,M,FEW,OVC,M,M,3400.00,4900.00,M,M,M,M,M,M,M,M,M,28.37,KDRA 301353Z AUTO 02012KT 10SM FEW034 OVC049 03/M04 A2992 RMK AO2 SLP121 T00281039,M
ELY,2023-01-30 13:53,-114.8453,39.2950,1909.00,4.00,0.00,83.42,360.00,7.00,0.00,30.00,1022.40,M,M,OVC,M,M,M,1700.00,M,M,M,M,M,M,M,M,M,M,-9.47,KELY 301353Z AUTO 36007KT OVC017 M16/M18 A3000 RMK AO2 SLP224 T11561178 $,M
VGT,2023-01-30 13:53,-115.1933,36.2111,667.00,45.00,41.00,85.77,100.00,4.00,T,29.93,1015.30,10.00,M,OVC,M,M,M,2600.00,M,M,M,M,M,M,M,M,M,M,42.60,KVGT 301353Z AUTO 10004KT 10SM OVC026 07/05 A2993 RMK AO2 RAE04 SLP153 P0000 T00720050,M
LOL,2023-01-30 13:53,-118.5701,40.0684,1192.43,12.90,5.00,70.13,0.00,0.00,0.00,30.19,1026.40,10.00,M,CLR,M,M,M,M,M,M,M,M,M,M,M,M,M,M,12.90,KLOL 301353Z AUTO 00000KT 10SM CLR M11/M15 A3019 RMK AO2 SLP264 T11061150,M
BVU,2023-01-30 13:55,-114.8611,35.9475,671.00,44.60,39.20,81.20,10.00,8.00,0.00,29.93,M,10.00,M,SCT,OVC,M,M,2500.00,3000.00,M,M,-RA,M,M,M,M,M,M,39.63,KBVU 301355Z AUTO 01008KT 10SM -RA SCT025 OVC030 07/04 A2993 RMK AO2,M
CXP,2023-01-30 13:55,-119.7326,39.1923,1431.00,5.00,-0.40,77.84,0.00,0.00,0.00,30.14,M,10.00,M,CLR,M,M,M,M,M,M,M,M,M,M,M,M,M,M,5.00,KCXP 301355Z AUTO 00000KT 10SM CLR M15/M18 A3014 RMK AO2,M
RTS,2023-01-30 13:55,-119.8764,39.6682,1539.00,-0.40,-5.80,77.32,0.00,0.00,0.00,30.12,M,10.00,M,CLR,M,M,M,M,M,M,M,M,M,M,M,M,M,M,-0.40,KRTS 301355Z AUTO 00000KT 10SM CLR M18/M21 A3012 RMK AO2,M
MEV,2023-01-30 13:55,-119.7500,38.9963,1441.42,5.00,-0.40,77.84,0.00,0.00,0.00,30.12,M,10.00,M,SCT,SCT,M,M,3300.00,3900.00,M,M,M,M,M,M,M,M,M,5.00,KMEV 301355Z AUTO 00000KT 10SM SCT033 SCT039 M15/M18 A3012 RMK AO2,M
BAM,2023-01-30 13:55,-116.8743,40.5990,1382.36,8.60,3.20,78.18,10.00,3.00,0.00,30.17,M,10.00,M,CLR,M,M,M,M,M,M,M,M,M,M,M,M,M,M,1.94,KBAM 301355Z AUTO 01003KT 10SM CLR M13/M16 A3017 RMK AO1,M
RNO,2023-01-30 13:55,-119.7711,39.4839,1341.00,10.00,4.00,75.83,M,4.00,0.00,30.14,1024.70,10.00,M,CLR,M,M,M,M,M,M,M,M,T,M,M,M,M,M,1.73,KRNO 301355Z VRB04KT 10SM CLR M12/M16 A3014 RMK AO2 SLP247 I1000 T11221156 $,M
LSV,2023-01-30 13:55,-115.0343,36.2362,570.00,42.40,38.00,83.96,30.00,18.00,T,29.93,1013.40,10.00,M,OVC,M,M,M,2900.00,M,M,M,M,M,M,M,M,M,M,33.44,KLSV 301355Z AUTO 03018KT 10SM OVC029 06/03 A2993 RMK AO2 RAE01 SLP134 P0000 T00580033 $,M
INS,2023-01-30 13:55,-115.6733,36.5872,955.00,38.00,31.60,77.81,360.00,6.00,0.01,29.93,1012.80,10.00,M,OVC,M,M,M,2300.00,M,M,M,M,M,M,M,M,M,M,32.64,KINS 301355Z AUTO 36006KT 10SM OVC023 03/M00 A2993 RMK AO2 DZB1256E1258RAB1258E24RAB44E53 SLP128 P0001 T00331002,M
EKO,2023-01-30 13:56,-115.7860,40.8242,1367.00,-9.90,-17.00,70.02,90.00,4.00,0.00,30.13,1029.40,10.00,M,CLR,M,M,M,M,M,M,M,M,T,M,M,M,M,M,-21.51,KEKO 301356Z AUTO 09004KT 10SM CLR M23/M27 A3013 RMK AO2 SLP294 I1000 T12331272 $,M
NFL,2023-01-30 13:56,-118.7010,39.4166,1199.00,15.10,8.10,73.31,320.00,3.00,0.00,30.18,1018.20,10.00,M,CLR,M,M,M,M,M,M,M,M,M,M,M,M,M,M,9.37,KNFL 301356Z AUTO 32003KT 10SM CLR M09/M13 A3018 RMK AO2 SLP182 T10941133,M
TPH,2023-01-30 13:56,-117.0904,38.0505,1654.00,M,M,M,320.00,16.00,0.00,29.97,M,M,21.00,OVC,M,M,M,5000.00,M,M,M,M,M,M,M,M,M,M,M,KTPH 301356Z AUTO 32016G21KT OVC050 A2997 RMK AO2 SLPNO PWINO $,M
LAS,2023-01-30 13:56,-115.1634,36.0719,663.00,42.00,37.00,81.98,40.00,10.00,0.00,29.94,1013.70,10.00,M,FEW,BKN,OVC,M,1800.00,3300.00,4000.00,M,M,M,M,M,M,M,M,35.63,KLAS 301356Z 04010KT 10SM FEW018 BKN033 OVC040 06/03 A2994 RMK AO2 SLP137 T00560028,M
HND,2023-01-30 13:56,-115.1344,35.9729,742.79,42.00,38.00,84.93,30.00,7.00,0.00,29.95,1016.00,10.00,M,BKN,OVC,M,M,1200.00,3100.00,M,M,M,M,M,M,M,M,M,37.09,KHND 301356Z AUTO 03007KT 10SM BKN012 OVC031 06/03 A2995 RMK AO2 SLP160 T00560033,M
LSV,2023-01-30 14:05,-115.0343,36.2362,570.00,42.80,37.40,81.07,40.00,14.00,0.00,29.94,1013.70,10.00,20.00,OVC,M,M,M,3000.00,M,M,M,M,M,M,M,M,M,M,35.08,KLSV 301405Z AUTO 04014G20KT 10SM OVC030 06/03 A2994 RMK AO2 SLP137 $,M
05U,2023-01-30 14:10,-116.0051,39.6042,1811.23,5.00,-2.20,71.50,350.00,5.00,0.00,30.07,M,10.00,M,M,M,M,M,M,M,M,M,M,M,M,M,M,M,M,-5.67,K05U 301410Z AUTO 35005KT 10SM M15/M19 A3007 RMK A01,M
BVU,2023-01-30 14:15,-114.8611,35.9475,671.00,42.80,39.20,86.99,20.00,5.00,0.00,29.94,M,9.00,11.00,FEW,SCT,BKN,M,2100.00,2800.00,3200.00,M,M,M,M,M,M,M,M,39.22,KBVU 301415Z AUTO 02005G11KT 9SM FEW021 SCT028 BKN032 06/04 A2994 RMK AO2,M
CXP,2023-01-30 14:15,-119.7326,39.1923,1431.00,6.80,1.40,78.01,250.00,4.00,0.00,30.15,M,10.00,M,CLR,M,M,M,M,M,M,M,M,M,M,M,M,M,M,-2.01,KCXP 301415Z AUTO 25004KT 10SM CLR M14/M17 A3015 RMK AO2,M
RTS,2023-01-30 14:15,-119.8764,39.6682,1539.00,1.40,-4.00,77.49,30.00,4.00,0.00,30.13,M,10.00,M,CLR,M,M,M,M,M,M,M,M,M,M,M,M,M,M,-8.31,KRTS 301415Z AUTO 03004KT 10SM CLR M17/M20 A3013 RMK AO2,M
MEV,2023-01-30 14:15,-119.7500,38.9963,1441.42,5.00,-0.40,77.84,0.00,0.00,0.00,30.13,M,10.00,M,FEW,SCT,SCT,M,3900.00,4600.00,8000.00,M,M,M,M,M,M,M,M,5.00,KMEV 301415Z AUTO 00000KT 10SM FEW039 SCT046 SCT080 M15/M18 A3013 RMK AO2,M
BAM,2023-01-30 14:15,-116.8743,40.5990,1382.36,8.60,3.20,78.18,40.00,4.00,0.00,30.17,M,10.00,M,CLR,M,M,M,M,M,M,M,M,M,M,M,M,M,M,0.09,KBAM 301415Z AUTO 04004KT 10SM CLR M13/M16 A3017 RMK AO1,M
LAS,2023-01-30 14:20,-115.1634,36.0719,663.00,41.00,35.00,79.34,40.00,12.00,0.00,29.95,M,10.00,M,SCT,BKN,OVC,M,2200.00,2800.00,3500.00,M,M,M,M,M,M,M,M,33.46,KLAS 301420Z 04012KT 10SM SCT022 BKN028 OVC035 05/02 A2995 RMK AO2 T00500017,M
INS,2023-01-30 14:21,-115.6733,36.5872,955.00,37.40,30.20,74.98,350.00,6.00,0.00,29.95,1013.50,10.00,M,OVC,M,M,M,2100.00,M,M,M,-RA,M,M,M,M,M,M,32.03,KINS 301421Z AUTO 35006KT 10SM -RA OVC021 03/M01 A2995 RMK AO2 RAB21 SLP135,M
05U,2023-01-30 14:30,-116.0051,39.6042,1811.23,5.00,-2.20,71.50,10.00,7.00,0.00,30.07,M,10.00,M,M,M,M,M,M,M,M,M,M,M,M,M,M,M,M,-8.13,K05U 301430Z AUTO 01007KT 10SM M15/M19 A3007 RMK A01,M
BVU,2023-01-30 14:35,-114.8611,35.9475,671.00,42.80,39.20,86.99,360.00,7.00,0.00,29.94,M,10.00,M,SCT,OVC,M,M,3200.00,4100.00,M,M,M,M,M,M,M,M,M,37.94,KBVU 301435Z AUTO 36007KT 10SM SCT032 OVC041 06/04 A2994 RMK AO2,M
CXP,2023-01-30 14:35,-119.7326,39.1923,1431.00,6.80,1.40,78.01,0.00,0.00,0.00,30.16,M,10.00,M,CLR,M,M,M,M,M,M,M,M,M,M,M,M,M,M,6.80,KCXP 301435Z AUTO 00000KT 10SM CLR M14/M17 A3016 RMK AO2,M
RTS,2023-01-30 14:35,-119.8764,39.6682,1539.00,-2.20,-7.60,77.14,90.00,3.00,0.00,30.14,M,10.00,M,CLR,M,M,M,M,M,M,M,M,M,M,M,M,M,M,-10.41,KRTS 301435Z AUTO 09003KT 10SM CLR M19/M22 A3014 RMK AO2,M
MEV,2023-01-30 14:35,-119.7500,38.9963,1441.42,-0.40,-4.00,84.30,140.00,3.00,0.00,30.14,M,10.00,M,FEW,FEW,FEW,M,3900.00,4500.00,8500.00,M,M,M,M,M,M,M,M,-8.35,KMEV 301435Z AUTO 14003KT 10SM FEW039 FEW045 FEW085 M18/M20 A3014 RMK AO2,M
BAM,2023-01-30 14:35,-116.8743,40.5990,1382.36,6.80,3.20,84.80,100.00,3.00,0.00,30.19,M,10.00,M,CLR,M,M,M,M,M,M,M,M,M,M,M,M,M,M,-0.12,KBAM 301435Z AUTO 10003KT 10SM CLR M14/M16 A3019 RMK AO1,M
05U,2023-01-30 14:50,-116.0051,39.6042,1811.23,3.20,-2.20,77.67,20.00,5.00,0.00,30.08,M,10.00,M,M,M,M,M,M,M,M,M,M,M,M,M,M,M,M,-7.81,K05U 301450Z AUTO 02005KT 10SM M16/M19 A3008 RMK A01,M
DRA,2023-01-30 14:53,-116.0278,36.6206,1009.00,36.00,25.00,63.98,30.00,8.00,0.00,29.94,1013.10,10.00,M,OVC,M,M,M,5500.00,M,M,M,M,M,M,M,M,M,M,29.04,KDRA 301453Z AUTO 03008KT 10SM OVC055 02/M04 A2994 RMK AO2 SLP131 T00221039 53016,M
ELY,2023-01-30 14:53,-114.8453,39.2950,1909.00,4.00,-0.90,79.97,20.00,5.00,0.00,30.02,1023.30,M,M,OVC,M,M,M,1500.00,M,M,M,M,M,M,M,M,M,M,-6.98,KELY 301453Z AUTO 02005KT OVC015 M16/M18 A3002 RMK AO2 SLP233 T11561183 51012 $,M
VGT,2023-01-30 14:53,-115.1933,36.2111,667.00,43.00,36.00,76.12,0.00,0.00,T,29.96,1016.30,10.00,M,OVC,M,M,M,2400.00,M,M,M,-RA,M,M,M,M,M,M,43.00,KVGT 301453Z 00000KT 10SM -RA OVC024 06/02 A2996 RMK AO2 RAB32 SLP163 P0000 60002 T00610022 53021,M
P68,2023-01-30 14:53,-116.0056,39.6014,1993.00,3.00,-3.00,75.82,360.00,6.00,0.00,30.06,1024.70,M,M,M,M,M,M,M,M,M,M,M,M,M,M,M,M,M,-9.40,KP68 301453Z AUTO 36006KT M16/M19 A3006 RMK AO1 SLP247 T11611194 53015,M
LOL,2023-01-30 14:53,-118.5701,40.0684,1192.43,12.00,4.00,69.38,20.00,5.00,0.00,30.20,1027.20,10.00,M,CLR,M,M,M,M,M,M,M,M,M,M,M,M,M,M,2.64,KLOL 301453Z AUTO 02005KT 10SM CLR M11/M16 A3020 RMK AO2 SLP272 T11111156 53015,M
BVU,2023-01-30 14:55,-114.8611,35.9475,671.00,42.80,37.40,81.07,360.00,9.00,0.00,29.95,M,10.00,M,SCT,BKN,OVC,M,4100.00,4800.00,6500.00,M,M,M,M,M,M,M,M,36.94,KBVU 301455Z AUTO 36009KT 10SM SCT041 BKN048 OVC065 06/03 A2995 RMK AO2,M
CXP,2023-01-30 14:55,-119.7326,39.1923,1431.00,6.80,-0.40,71.71,0.00,0.00,0.00,30.17,M,10.00,M,CLR,M,M,M,M,M,M,M,M,M,M,M,M,M,M,6.80,KCXP 301455Z AUTO 00000KT 10SM CLR M14/M18 A3017 RMK AO2,M
INS,2023-01-30 14:55,-115.6733,36.5872,955.00,37.60,29.70,72.90,0.00,0.00,T,29.96,1013.80,10.00,M,SCT,SCT,OVC,M,700.00,1600.00,2500.00,M,-RA,M,M,M,M,M,M,37.60,KINS 301455Z AUTO 00000KT 10SM -RA SCT007 SCT016 OVC025 03/M01 A2996 RMK AO2 RAB21 CIG 016V025 SLP138 P0000 60001 T00311013 52019,M
RNO,2023-01-30 14:55,-119.7711,39.4839,1341.00,9.00,1.90,72.30,260.00,3.00,0.00,30.17,1026.20,10.00,M,FEW,M,M,M,6000.00,M,M,M,M,M,T,M,M,M,M,2.40,KRNO 301455Z 26003KT 10SM FEW060 M13/M17 A3017 RMK AO2 SLP262 I3000 T11281167 53020 $,M
RTS,2023-01-30 14:55,-119.8764,39.6682,1539.00,-5.80,-11.20,76.77,0.00,0.00,0.00,30.15,M,10.00,M,CLR,M,M,M,M,M,M,M,M,M,M,M,M,M,M,-5.80,KRTS 301455Z AUTO 00000KT 10SM CLR M21/M24 A3015 RMK AO2,M
MEV,2023-01-30 14:55,-119.7500,38.9963,1441.42,-2.20,-5.80,84.17,150.00,5.00,0.00,30.15,M,10.00,M,CLR,M,M,M,M,M,M,M,M,M,M,M,M,M,M,-14.22,KMEV 301455Z AUTO 15005KT 10SM CLR M19/M21 A3015 RMK AO2,M
BAM,2023-01-30 14:55,-116.8743,40.5990,1382.36,8.60,3.20,78.18,40.00,5.00,0.00,30.20,M,10.00,M,CLR,M,M,M,M,M,M,M,M,M,M,M,M,M,M,-1.39,KBAM 301455Z AUTO 04005KT 10SM CLR M13/M16 A3020 RMK AO1,M
LSV,2023-01-30 14:55,-115.0343,36.2362,570.00,40.50,37.00,86.87,50.00,16.00,0.00,29.96,1014.40,10.00,M,OVC,M,M,M,3300.00,M,M,M,M,M,M,M,M,M,M,31.50,KLSV 301455Z AUTO 05016KT 10SM OVC033 05/03 A2996 RMK AO2 SLP144 60000 T00470027 52023 $,M
EKO,2023-01-30 14:56,-115.7860,40.8242,1367.00,-9.90,-15.00,77.52,80.00,5.00,0.00,30.15,1030.60,10.00,M,CLR,M,M,M,M,M,M,M,M,T,T,M,M,M,M,-23.37,KEKO 301456Z AUTO 08005KT 10SM CLR M23/M26 A3015 RMK AO2 SLP306 I1000 I3000 T12331261 53014 $,M
NFL,2023-01-30 14:56,-118.7010,39.4166,1199.00,14.00,8.10,76.92,M,M,0.00,30.20,1019.00,10.00,M,SCT,M,M,M,3000.00,M,M,M,M,M,M,M,M,M,M,M,KNFL 301456Z 10SM SCT030 M10/M13 A3020 RMK AO2 SLP190 T11001133 53018 $,M
TPH,2023-01-30 14:56,-117.0904,38.0505,1654.00,M,M,M,320.00,13.00,0.00,30.00,M,M,21.00,OVC,M,M,M,5000.00,M,M,M,M,M,M,M,M,M,M,M,KTPH 301456Z AUTO 32013G21KT OVC050 A3000 RMK AO2 SLPNO 53015 PWINO $,M
LAS,2023-01-30 14:56,-115.1634,36.0719,663.00,40.00,34.00,79.25,40.00,12.00,0.00,29.97,1014.80,10.00,M,FEW,BKN,OVC,M,1200.00,2100.00,3300.00,M,M,M,M,M,M,M,M,32.06,KLAS 301456Z 04012KT 10SM FEW012 BKN021 OVC033 04/01 A2997 RMK AO2 SLP148 60001 T00440011 53021 $,M
HND,2023-01-30 14:56,-115.1344,35.9729,742.79,40.00,35.00,82.80,60.00,9.00,0.00,29.98,1017.30,10.00,M,OVC,M,M,M,1200.00,M,M,M,M,M,M,M,M,M,M,33.34,KHND 301456Z 06009KT 10SM OVC012 04/02 A2998 RMK AO2 SLP173 60000 T00440017 53021,M
INS,2023-01-30 15:10,-115.6733,36.5872,955.00,37.40,30.20,74.98,10.00,5.00,0.00,29.96,1013.80,10.00,M,FEW,OVC,M,M,1700.00,2500.00,M,M,M,M,M,M,M,M,M,32.81,KINS 301510Z AUTO 01005KT 10SM FEW017 OVC025 03/M01 A2996 RMK AO2 RAE10 SLP138,M
05U,2023-01-30 15:10,-116.0051,39.6042,1811.23,3.20,-4.00,71.29,10.00,3.00,0.00,30.09,M,10.00,M,M,M,M,M,M,M,M,M,M,M,M,M,M,M,M,-4.24,K05U 301510Z AUTO 01003KT 10SM M16/M20 A3009 RMK A01,M
HND,2023-01-30 15:11,-115.1344,35.9729,742.79,39.20,35.60,86.79,50.00,8.00,0.00,29.98,M,10.00,M,OVC,M,M,M,1600.00,M,M,M,M,M,M,M,M,M,M,32.98,KHND 301511Z 05008KT 10SM OVC016 04/02 A2998 RMK AO2,M
BVU,2023-01-30 15:15,-114.8611,35.9475,671.00,42.80,37.40,81.07,20.00,6.00,0.00,29.96,M,10.00,12.00,SCT,BKN,OVC,M,2400.00,3100.00,6500.00,M,M,M,M,M,M,M,M,38.54,KBVU 301515Z AUTO 02006G12KT 10SM SCT024 BKN031 OVC065 06/03 A2996 RMK AO2,M
CXP,2023-01-30 15:15,-119.7326,39.1923,1431.00,6.80,-0.40,71.71,0.00,0.00,0.00,30.18,M,10.00,M,CLR,M,M,M,M,M,M,M,M,M,M,M,M,M,M,6.80,KCXP 301515Z AUTO 00000KT 10SM CLR M14/M18 A3018 RMK AO2,M
RTS,2023-01-30 15:15,-119.8764,39.6682,1539.00,-2.20,-7.60,77.14,0.00,0.00,0.00,30.16,M,10.00,M,CLR,M,M,M,M,M,M,M,M,M,M,M,M,M,M,-2.20,KRTS 301515Z AUTO 00000KT 10SM CLR M19/M22 A3016 RMK AO2,M
MEV,2023-01-30 15:15,-119.7500,38.9963,1441.42,-2.20,-5.80,84.17,150.00,8.00,0.00,30.16,M,10.00,M,CLR,M,M,M,M,M,M,M,M,M,M,M,M,M,M,-18.02,KMEV 301515Z AUTO 15008KT 10SM CLR M19/M21 A3016 RMK AO2,M
BAM,2023-01-30 15:15,-116.8743,40.5990,1382.36,8.60,3.20,78.18,70.00,3.00,0.00,30.21,M,10.00,M,CLR,M,M,M,M,M,M,M,M,M,M,M,M,M,M,1.94,KBAM 301515Z AUTO 07003KT 10SM CLR M13/M16 A3021 RMK AO1,M
05U,2023-01-30 15:30,-116.0051,39.6042,1811.23,5.00,-2.20,71.50,360.00,4.00,0.00,30.10,M,10.00,M,M,M,M,M,M,M,M,M,M,M,M,M,M,M,M,-4.11,K05U 301530Z AUTO 36004KT 10SM M15/M19 A3010 RMK A01,M
BVU,2023-01-30 15:35,-114.8611,35.9475,671.00,41.00,37.40,86.89,280.00,4.00,0.00,29.97,M,10.00,11.00,SCT,OVC,M,M,1900.00,2300.00,M,M,M,M,M,M,M,M,M,37.93,KBVU 301535Z AUTO 28004G11KT 10SM SCT019 OVC023 05/03 A2997 RMK AO2,M
CXP,2023-01-30 15:35,-119.7326,39.1923,1431.00,6.80,1.40,78.01,0.00,0.00,0.00,30.19,M,10.00,M,CLR,M,M,M,M,M,M,M,M,M,M,M,M,M,M,6.80,KCXP 301535Z AUTO 00000KT 10SM CLR M14/M17 A3019 RMK AO2,M
RTS,2023-01-30 15:35,-119.8764,39.6682,1539.00,-2.20,-7.60,77.14,0.00,0.00,0.00,30.16,M,10.00,M,CLR,M,M,M,M,M,M,M,M,M,M,M,M,M,M,-2.20,KRTS 301535Z AUTO 00000KT 10SM CLR M19/M22 A3016 RMK AO2,M
MEV,2023-01-30 15:35,-119.7500,38.9963,1441.42,1.40,-4.00,77.49,160.00,5.00,0.00,30.18,M,10.00,M,CLR,M,M,M,M,M,M,M,M,M,M,M,M,M,M,-9.95,KMEV 301535Z AUTO 16005KT 10SM CLR M17/M20 A3018 RMK AO2,M
BAM,2023-01-30 15:35,-116.8743,40.5990,1382.36,6.80,1.40,78.01,0.00,0.00,0.00,30.22,M,10.00,M,CLR,M,M,M,M,M,M,M,M,M,M,M,M,M,M,6.80,KBAM 301535Z AUTO 00000KT 10SM CLR M14/M17 A3022 RMK AO1,M
INS,2023-01-30 15:40,-115.6733,36.5872,955.00,37.40,32.00,80.65,30.00,4.00,0.00,29.98,1014.70,10.00,M,SCT,OVC,M,M,1600.00,2500.00,M,M,-RA,M,M,M,M,M,M,33.73,KINS 301540Z AUTO 03004KT 10SM -RA SCT016 OVC025 03/M00 A2998 RMK AO2 RAE10RAB40 SLP147,M
INS,2023-01-30 15:43,-115.6733,36.5872,955.00,37.40,32.00,80.65,60.00,3.00,0.00,29.98,1014.70,10.00,M,SCT,OVC,M,M,1600.00,2600.00,M,M,M,M,M,M,M,M,M,34.86,KINS 301543Z AUTO 06003KT 10SM SCT016 OVC026 03/M00 A2998 RMK AO2 RAE10RAB40E43 SLP147,M
05U,2023-01-30 15:50,-116.0051,39.6042,1811.23,5.00,-4.00,65.62,340.00,4.00,0.00,30.11,M,10.00,M,M,M,M,M,M,M,M,M,M,M,M,M,M,M,M,-4.11,K05U 301550Z AUTO 34004KT 10SM M15/M20 A3011 RMK A01,M
INS,2023-01-30 15:53,-115.6733,36.5872,955.00,37.40,33.80,86.69,90.00,3.00,0.00,29.99,1015.10,10.00,M,BKN,OVC,M,M,1400.00,3000.00,M,M,M,M,M,M,M,M,M,34.86,KINS 301553Z AUTO 09003KT 10SM BKN014 OVC030 03/01 A2999 RMK AO2 RAE10RAB40E43 CIG 014V030 BKN V SCT SLP151,M
DRA,2023-01-30 15:53,-116.0278,36.6206,1009.00,37.00,24.10,59.24,40.00,12.00,0.00,29.98,1014.30,10.00,M,OVC,M,M,M,3900.00,M,M,M,M,M,M,M,M,M,M,28.37,KDRA 301553Z AUTO 04012KT 10SM OVC039 03/M04 A2998 RMK AO2 SLP143 T00281044,M
ELY,2023-01-30 15:53,-114.8453,39.2950,1909.00,3.00,-2.00,79.14,30.00,11.00,0.00,30.04,1024.50,M,M,OVC,M,M,M,1600.00,M,M,M,M,M,M,M,M,M,M,-14.18,KELY 301553Z AUTO 03011KT OVC016 M16/M19 A3004 RMK AO2 SLP245 T11611189 $,M
VGT,2023-01-30 15:53,-115.1933,36.2111,667.00,42.00,36.00,78.80,0.00,0.00,T,29.99,1017.40,10.00,M,OVC,M,M,M,2700.00,M,M,M,M,M,M,M,M,M,M,42.10,KVGT 301553Z 00000KT 10SM OVC027 06/02 A2999 RMK AO2 RAE34 SLP174 P0000 T00560022,M
LOL,2023-01-30 15:53,-118.5701,40.0684,1192.43,14.00,5.00,66.82,20.00,9.00,0.00,30.24,1028.60,10.00,M,CLR,M,M,M,M,M,M,M,M,M,M,M,M,M,M,1.13,KLOL 301553Z AUTO 02009KT 10SM CLR M10/M15 A3024 RMK AO2 SLP286 T11001150,M
P68,2023-01-30 15:53,-116.0056,39.6014,1993.00,4.00,-3.00,72.74,350.00,4.00,0.00,30.09,1025.20,M,M,M,M,M,M,M,M,M,M,M,M,M,M,M,M,M,-5.39,KP68 301553Z AUTO 35004KT M16/M19 A3009 RMK AO1 SLP252 T11561194,M
BVU,2023-01-30 15:55,-114.8611,35.9475,671.00,42.80,37.40,81.07,340.00,3.00,0.00,29.98,M,10.00,11.00,OVC,M,M,M,2000.00,M,M,M,M,M,M,M,M,M,M,41.03,KBVU 301555Z AUTO 34003G11KT 10SM OVC020 06/03 A2998 RMK AO2,M
CXP,2023-01-30 15:55,-119.7326,39.1923,1431.00,8.60,1.40,71.92,0.00,0.00,0.00,30.19,M,10.00,M,CLR,M,M,M,M,M,M,M,M,M,M,M,M,M,M,8.60,KCXP 301555Z AUTO 00000KT 10SM CLR M13/M17 A3019 RMK AO2,M
LSV,2023-01-30 15:55,-115.0343,36.2362,570.00,40.50,37.40,88.59,40.00,15.00,0.00,29.99,1015.60,10.00,M,OVC,M,M,M,3700.00,M,M,M,M,M,M,M,M,M,M,31.80,KLSV 301555Z AUTO 04015KT 10SM OVC037 05/03 A2999 RMK AO2 SLP156 T00470030 $,M
RTS,2023-01-30 15:55,-119.8764,39.6682,1539.00,1.40,-4.00,77.49,0.00,0.00,0.00,30.16,M,10.00,M,CLR,M,M,M,M,M,M,M,M,M,M,M,M,M,M,1.40,KRTS 301555Z AUTO 00000KT 10SM CLR M17/M20 A3016 RMK AO2,M
MEV,2023-01-30 15:55,-119.7500,38.9963,1441.42,3.20,-0.40,84.56,150.00,5.00,0.00,30.18,M,10.00,M,CLR,M,M,M,M,M,M,M,M,M,M,M,M,M,M,-7.81,KMEV 301555Z AUTO 15005KT 10SM CLR M16/M18 A3018 RMK AO2,M
BAM,2023-01-30 15:55,-116.8743,40.5990,1382.36,8.60,3.20,78.18,30.00,6.00,0.00,30.23,M,10.00,M,CLR,M,M,M,M,M,M,M,M,M,M,M,M,M,M,-2.65,KBAM 301555Z AUTO 03006KT 10SM CLR M13/M16 A3023 RMK AO1,M
INS,2023-01-30 15:55,-115.6733,36.5872,955.00,37.20,33.00,84.28,90.00,4.00,T,29.99,1015.10,10.00,M,BKN,OVC,M,M,1400.00,3000.00,M,M,M,M,M,M,M,M,M,33.49,KINS 301555Z AUTO 09004KT 10SM BKN014 OVC030 03/01 A2999 RMK AO2 RAE10RAB40E43 CIG 014V030 BKN V SCT SLP151 P0000 T00290005,M
RNO,2023-01-30 15:55,-119.7711,39.4839,1341.00,10.90,4.00,72.85,190.00,3.00,0.00,30.20,1027.20,10.00,M,FEW,M,M,M,4000.00,M,M,M,M,M,M,M,M,M,M,4.57,KRNO 301555Z 19003KT 10SM FEW040 M12/M16 A3020 RMK AO2 SLP272 T11171156,M
EKO,2023-01-30 15:56,-115.7860,40.8242,1367.00,-9.00,-13.00,82.02,80.00,5.00,0.00,30.18,1031.90,10.00,M,CLR,M,M,M,M,M,M,M,M,M,M,M,M,M,M,-22.30,KEKO 301556Z AUTO 08005KT 10SM CLR M23/M25 A3018 RMK AO2 SLP319 T12281250 $,M
HND,2023-01-30 15:56,-115.1344,35.9729,742.79,39.00,34.00,82.08,60.00,6.00,T,30.01,1018.60,10.00,M,OVC,M,M,M,2000.00,M,M,M,-RA,M,M,M,M,M,M,33.96,KHND 301556Z 06006KT 10SM -RA OVC020 04/01 A3001 RMK AO2 RAB31 SLP186 P0000 T00390011,M
TPH,2023-01-30 15:56,-117.0904,38.0505,1654.00,M,M,M,320.00,10.00,0.00,30.02,M,M,19.00,OVC,M,M,M,6000.00,M,M,M,M,M,M,M,M,M,M,M,KTPH 301556Z AUTO 32010G19KT OVC060 A3002 RMK AO2 SLPNO PWINO $,M
NFL,2023-01-30 15:56,-118.7010,39.4166,1199.00,15.10,7.00,69.75,310.00,7.00,0.00,30.23,1019.80,10.00,M,SCT,M,M,M,3000.00,M,M,M,M,M,M,M,M,M,M,4.18,KNFL 301556Z 31007KT 10SM SCT030 M09/M14 A3023 RMK AO2 SLP198 T10941139,M
LAS,2023-01-30 15:56,-115.1634,36.0719,663.00,39.00,33.00,79.17,70.00,12.00,T,30.01,1016.20,10.00,M,FEW,BKN,OVC,M,1200.00,2100.00,2700.00,M,-RA,M,M,M,M,M,M,30.91,KLAS 301556Z 07012KT 10SM -RA FEW012 BKN021 OVC027 04/01 A3001 RMK AO2 RAB53 SLP162 P0000 T00390006 $,M
INS,2023-01-30 15:58,-115.6733,36.5872,955.00,37.40,32.00,80.65,80.00,4.00,0.00,29.99,1015.10,10.00,M,FEW,BKN,OVC,M,1000.00,1600.00,3000.00,M,-RA,M,M,M,M,M,M,33.73,KINS 301558Z AUTO 08004KT 10SM -RA FEW010 BKN016 OVC030 03/00 A2999 RMK AO2 RAB58 CIG 014V030 BKN V SCT SLP151,M
ELY,2023-01-30 16:02,-114.8453,39.2950,1909.00,4.00,-2.00,75.92,20.00,11.00,0.00,30.05,M,M,M,OVC,M,M,M,1400.00,M,M,M,M,M,M,M,M,M,M,-13.04,KELY 301602Z AUTO 02011KT OVC014 M16/M19 A3005 RMK AO2 T11561189 $,M
CXP,2023-01-30 16:10,-119.7326,39.1923,1431.00,10.40,3.20,72.12,0.00,0.00,0.00,30.19,M,10.00,M,CLR,M,M,M,M,M,M,M,M,M,M,M,M,M,M,10.40,KCXP 301610Z AUTO 00000KT 10SM CLR M12/M16 A3019 RMK AO2,M
05U,2023-01-30 16:10,-116.0051,39.6042,1811.23,5.00,-4.00,65.62,350.00,6.00,0.00,30.12,M,10.00,M,M,M,M,M,M,M,M,M,M,M,M,M,M,M,M,-6.99,K05U 301610Z AUTO 35006KT 10SM M15/M20 A3012 RMK A01,M
INS,2023-01-30 16:13,-115.6733,36.5872,955.00,37.40,30.20,74.98,0.00,0.00,0.00,30.00,1015.40,10.00,M,FEW,SCT,BKN,OVC,1000.00,1700.00,3200.00,4200.00,-RA,M,M,M,M,M,M,37.40,KINS 301613Z AUTO 00000KT 10SM -RA FEW010 SCT017 BKN032 OVC042 03/M01 A3000 RMK AO2 RAB1558 SLP154,M
BVU,2023-01-30 16:15,-114.8611,35.9475,671.00,41.00,35.60,80.93,M,M,0.00,29.99,M,10.00,M,OVC,M,M,M,1900.00,M,M,M,M,M,M,M,M,M,M,M,KBVU 301615Z AUTO 10SM OVC019 05/02 A2999 RMK AO2,M
RTS,2023-01-30 16:15,-119.8764,39.6682,1539.00,5.00,-0.40,77.84,0.00,0.00,0.00,30.17,M,10.00,M,CLR,M,M,M,M,M,M,M,M,M,M,M,M,M,M,5.00,KRTS 301615Z AUTO 00000KT 10SM CLR M15/M18 A3017 RMK AO2,M
MEV,2023-01-30 16:15,-119.7500,38.9963,1441.42,6.80,1.40,78.01,140.00,6.00,0.00,30.18,M,10.00,M,CLR,M,M,M,M,M,M,M,M,M,M,M,M,M,M,-4.82,KMEV 301615Z AUTO 14006KT 10SM CLR M14/M17 A3018 RMK AO2,M
BAM,2023-01-30 16:15,-116.8743,40.5990,1382.36,10.40,3.20,72.12,30.00,5.00,0.00,30.23,M,10.00,M,CLR,M,M,M,M,M,M,M,M,M,M,M,M,M,M,0.74,KBAM 301615Z AUTO 03005KT 10SM CLR M12/M16 A3023 RMK AO1,M
05U,2023-01-30 16:30,-116.0051,39.6042,1811.23,5.00,-4.00,65.62,350.00,6.00,0.00,30.14,M,10.00,M,M,M,M,M,M,M,M,M,M,M,M,M,M,M,M,-6.99,K05U 301630Z AUTO 35006KT 10SM M15/M20 A3014 RMK A01,M
BVU,2023-01-30 16:35,-114.8611,35.9475,671.00,41.00,35.60,80.93,350.00,9.00,0.00,30.00,M,10.00,M,OVC,M,M,M,1900.00,M,M,M,M,M,M,M,M,M,M,34.70,KBVU 301635Z AUTO 35009KT 10SM OVC019 05/02 A3000 RMK AO2,M
CXP,2023-01-30 16:35,-119.7326,39.1923,1431.00,12.20,3.20,66.58,0.00,0.00,0.00,30.20,M,10.00,M,FEW,M,M,M,3600.00,M,M,M,M,M,M,M,M,M,M,12.20,KCXP 301635Z AUTO 00000KT 10SM FEW036 M11/M16 A3020 RMK AO2,M
RTS,2023-01-30 16:35,-119.8764,39.6682,1539.00,3.20,-2.20,77.67,150.00,3.00,0.00,30.18,M,10.00,M,CLR,M,M,M,M,M,M,M,M,M,M,M,M,M,M,-4.24,KRTS 301635Z AUTO 15003KT 10SM CLR M16/M19 A3018 RMK AO2,M
MEV,2023-01-30 16:35,-119.7500,38.9963,1441.42,6.80,1.40,78.01,130.00,6.00,0.00,30.19,M,10.00,M,CLR,M,M,M,M,M,M,M,M,M,M,M,M,M,M,-4.82,KMEV 301635Z AUTO 13006KT 10SM CLR M14/M17 A3019 RMK AO2,M
BAM,2023-01-30 16:35,-116.8743,40.5990,1382.36,12.20,3.20,66.58,40.00,5.00,0.00,30.24,M,10.00,M,CLR,M,M,M,M,M,M,M,M,M,M,M,M,M,M,2.88,KBAM 301635Z AUTO 04005KT 10SM CLR M11/M16 A3024 RMK AO1,M
INS,2023-01-30 16:40,-115.6733,36.5872,955.00,37.40,30.20,74.98,0.00,0.00,0.00,30.01,1015.80,10.00,M,FEW,FEW,BKN,OVC,700.00,1900.00,4000.00,4900.00,M,M,M,M,M,M,M,37.40,KINS 301640Z AUTO 00000KT 10SM FEW007 FEW019 BKN040 OVC049 03/M01 A3001 RMK AO2 RAB1558E31DZB31E40 SLP158,M
HND,2023-01-30 16:42,-115.1344,35.9729,742.79,37.40,35.60,93.14,50.00,6.00,T,30.03,M,10.00,M,BKN,OVC,M,M,1300.00,2100.00,M,M,-RA,M,M,M,M,M,M,32.03,KHND 301642Z 05006KT 10SM -RA BKN013 OVC021 03/02 A3003 RMK AO2 P0000,M
LSV,2023-01-30 16:43,-115.0343,36.2362,570.00,41.00,37.40,86.89,40.00,13.00,0.00,30.01,1016.30,10.00,20.00,SCT,M,M,M,3500.00,M,M,M,M,M,M,M,M,M,M,33.10,KLSV 301643Z AUTO 04013G20KT 10SM SCT035 05/03 A3001 RMK AO2 SLP163 $,M
05U,2023-01-30 16:50,-116.0051,39.6042,1811.23,5.00,-4.00,65.62,350.00,4.00,0.00,30.14,M,10.00,M,M,M,M,M,M,M,M,M,M,M,M,M,M,M,M,-4.11,K05U 301650Z AUTO 35004KT 10SM M15/M20 A3014 RMK A01,M
INS,2023-01-30 16:52,-115.6733,36.5872,955.00,37.40,30.20,74.98,70.00,5.00,0.00,30.02,1016.10,10.00,M,FEW,SCT,OVC,M,700.00,1400.00,3800.00,M,-RA,M,M,M,M,M,M,32.81,KINS 301652Z AUTO 07005KT 10SM -RA FEW007 SCT014 OVC038 03/M01 A3002 RMK AO2 RAB1558E31DZB31E40RAB52 SLP161,M
DRA,2023-01-30 16:53,-116.0278,36.6206,1009.00,38.00,21.90,52.13,60.00,12.00,0.00,30.00,1015.10,10.00,M,BKN,OVC,M,M,4400.00,6000.00,M,M,M,M,M,M,M,M,M,29.51,KDRA 301653Z AUTO 06012KT 10SM BKN044 OVC060 03/M06 A3000 RMK AO2 SLP151 T00331056,M
ELY,2023-01-30 16:53,-114.8453,39.2950,1909.00,5.00,-0.90,76.03,20.00,12.00,0.00,30.07,1025.40,M,M,OVC,M,M,M,1300.00,M,M,M,M,M,M,M,M,M,M,-12.36,KELY 301653Z AUTO 02012KT OVC013 M15/M18 A3007 RMK AO2 SLP254 T11501183 $,M
LOL,2023-01-30 16:53,-118.5701,40.0684,1192.43,17.10,5.00,58.38,30.00,12.00,0.00,30.26,1029.00,10.00,M,CLR,M,M,M,M,M,M,M,M,M,M,M,M,M,M,3.04,KLOL 301653Z AUTO 03012KT 10SM CLR M08/M15 A3026 RMK AO2 SLP290 T10831150,M
P68,2023-01-30 16:53,-116.0056,39.6014,1993.00,4.00,-3.00,72.74,350.00,3.00,0.00,30.12,1026.70,M,M,M,M,M,M,M,M,M,M,M,M,M,M,M,M,M,-3.43,KP68 301653Z AUTO 35003KT M16/M19 A3012 RMK AO1 SLP267 T11561194,M
VGT,2023-01-30 16:53,-115.1933,36.2111,667.00,42.00,35.00,76.04,350.00,6.00,T,30.02,1018.50,10.00,M,OVC,M,M,M,2700.00,M,M,M,M,M,M,M,M,M,M,37.69,KVGT 301653Z 35006KT 10SM OVC027 06/02 A3002 RMK AO2 RAB08E21 SLP185 P0000 T00560017,M
BVU,2023-01-30 16:55,-114.8611,35.9475,671.00,41.00,35.60,80.93,350.00,9.00,0.00,30.01,M,10.00,M,BKN,OVC,M,M,1500.00,1900.00,M,M,M,M,M,M,M,M,M,34.70,KBVU 301655Z AUTO 35009KT 10SM BKN015 OVC019 05/02 A3001 RMK AO2,M
CXP,2023-01-30 16:55,-119.7326,39.1923,1431.00,12.20,3.20,66.58,0.00,0.00,0.00,30.22,M,10.00,M,CLR,M,M,M,M,M,M,M,M,M,M,M,M,M,M,12.20,KCXP 301655Z AUTO 00000KT 10SM CLR M11/M16 A3022 RMK AO2,M
INS,2023-01-30 16:55,-115.6733,36.5872,955.00,37.00,30.90,78.68,60.00,5.00,T,30.02,1016.10,10.00,M,FEW,SCT,OVC,M,700.00,1400.00,3800.00,M,-DZ,M,M,M,M,M,M,32.21,KINS 301655Z AUTO 06005KT 10SM -DZ FEW007 SCT014 OVC038 03/M01 A3002 RMK AO2 RAB1558E31DZB31E40RAB52E53DZB53 SLP161 P0000 T00271006,M
RNO,2023-01-30 16:55,-119.7711,39.4839,1341.00,15.10,10.00,79.84,0.00,0.00,0.00,30.22,1027.20,10.00,M,CLR,M,M,M,M,M,M,M,M,M,M,M,M,M,M,15.10,KRNO 301655Z 00000KT 10SM CLR M09/M12 A3022 RMK AO2 SLP272 T10941122,M
LSV,2023-01-30 16:55,-115.0343,36.2362,570.00,40.80,36.70,85.19,50.00,14.00,0.00,30.02,1016.60,10.00,M,SCT,M,M,M,3500.00,M,M,M,M,M,M,M,M,M,M,32.51,KLSV 301655Z AUTO 05014KT 10SM SCT035 05/03 A3002 RMK AO2 SLP166 T00490026 $,M
RTS,2023-01-30 16:55,-119.8764,39.6682,1539.00,5.00,1.40,84.68,0.00,0.00,0.00,30.19,M,10.00,M,CLR,M,M,M,M,M,M,M,M,M,M,M,M,M,M,5.00,KRTS 301655Z AUTO 00000KT 10SM CLR M15/M17 A3019 RMK AO2,M
MEV,2023-01-30 16:55,-119.7500,38.9963,1441.42,8.60,3.20,78.18,90.00,5.00,0.00,30.20,M,10.00,M,CLR,M,M,M,M,M,M,M,M,M,M,M,M,M,M,-1.39,KMEV 301655Z AUTO 09005KT 10SM CLR M13/M16 A3020 RMK AO2,M
BAM,2023-01-30 16:55,-116.8743,40.5990,1382.36,14.00,3.20,61.51,30.00,5.00,0.00,30.25,M,10.00,M,CLR,M,M,M,M,M,M,M,M,M,M,M,M,M,M,5.02,KBAM 301655Z AUTO 03005KT 10SM CLR M10/M16 A3025 RMK AO1,M
TPH,2023-01-30 16:56,-117.0904,38.0505,1654.00,M,M,M,320.00,15.00,0.00,30.04,M,M,M,OVC,M,M,M,6000.00,M,M,M,M,M,M,M,M,M,M,M,KTPH 301656Z AUTO 32015KT OVC060 A3004 RMK AO2 SLPNO PWINO $,M
NFL,2023-01-30 16:56,-118.7010,39.4166,1199.00,18.00,7.00,61.52,350.00,6.00,0.00,30.25,1020.60,10.00,M,SCT,M,M,M,3000.00,M,M,M,M,M,M,M,M,M,M,8.67,KNFL 301656Z 35006KT 10SM SCT030 M08/M14 A3025 RMK AO2 SLP206 T10781139,M
EKO,2023-01-30 16:56,-115.7860,40.8242,1367.00,-2.00,-5.00,86.24,0.00,0.00,0.00,30.21,1032.00,10.00,M,CLR,M,M,M,M,M,M,M,M,M,M,M,M,M,M,-2.00,KEKO 301656Z AUTO 00000KT 10SM CLR M19/M21 A3021 RMK AO2 SLP320 T11891206,M
LAS,2023-01-30 16:56,-115.1634,36.0719,663.00,39.00,33.00,79.17,60.00,13.00,0.01,30.03,1017.20,10.00,M,FEW,BKN,OVC,M,1100.00,2200.00,3000.00,M,-RA,M,M,M,M,M,M,30.54,KLAS 301656Z 06013KT 10SM -RA FEW011 BKN022 OVC030 04/01 A3003 RMK AO2 SLP172 P0001 T00390006,M
HND,2023-01-30 16:56,-115.1344,35.9729,742.79,38.00,35.00,89.53,50.00,7.00,0.01,30.04,1019.50,10.00,M,BKN,BKN,OVC,M,1100.00,1700.00,2500.00,M,-RA,M,M,M,M,M,M,31.97,KHND 301656Z 05007KT 10SM -RA BKN011 BKN017 OVC025 03/02 A3004 RMK AO2 SLP195 P0001 T00330017,M
LSV,2023-01-30 16:57,-115.0343,36.2362,570.00,41.00,35.60,80.93,50.00,13.00,0.00,30.02,1016.60,10.00,M,BKN,M,M,M,3600.00,M,M,M,M,M,M,M,M,M,M,33.10,KLSV 301657Z AUTO 05013KT 10SM BKN036 05/02 A3002 RMK AO2 SLP166 $,M
VGT,2023-01-30 17:03,-115.1933,36.2111,667.00,42.00,35.00,76.04,350.00,5.00,0.00,30.03,M,10.00,M,OVC,M,M,M,4500.00,M,M,M,M,M,M,M,M,M,M,38.39,KVGT 301703Z 35005KT 10SM OVC045 06/02 A3003 RMK AO2 T00560017,M
INS,2023-01-30 17:07,-115.6733,36.5872,955.00,35.60,30.20,80.51,70.00,3.00,0.00,30.03,1016.70,10.00,M,FEW,SCT,BKN,OVC,700.00,1400.00,2600.00,3600.00,M,M,M,M,M,M,M,32.80,KINS 301707Z AUTO 07003KT 10SM FEW007 SCT014 BKN026 OVC036 02/M01 A3003 RMK AO2 DZE1656RAB1656E00DZB00E07 CIG 026V038 BKN V SCT SLP167,M
05U,2023-01-30 17:10,-116.0051,39.6042,1811.23,6.80,-2.20,65.87,M,M,0.00,30.15,M,10.00,M,M,M,M,M,M,M,M,M,M,M,M,M,M,M,M,M,K05U 301710Z AUTO 10SM M14/M19 A3015 RMK A01,M
INS,2023-01-30 17:14,-115.6733,36.5872,955.00,37.40,32.00,80.65,0.00,0.00,0.00,30.03,1016.50,10.00,M,FEW,SCT,BKN,OVC,700.00,1400.00,2600.00,3800.00,-DZ,M,M,M,M,M,M,37.40,KINS 301714Z AUTO 00000KT 10SM -DZ FEW007 SCT014 BKN026 OVC038 03/M00 A3003 RMK AO2 DZE1656RAB1656E00DZB00E07DZB14 CIG 026V036 SLP165,M
BVU,2023-01-30 17:15,-114.8611,35.9475,671.00,39.20,35.60,86.79,340.00,13.00,0.00,30.02,M,10.00,18.00,OVC,M,M,M,1600.00,M,M,M,M,M,M,M,M,M,M,30.79,KBVU 301715Z AUTO 34013G18KT 10SM OVC016 04/02 A3002 RMK AO2,M
CXP,2023-01-30 17:15,-119.7326,39.1923,1431.00,14.00,3.20,61.51,100.00,4.00,0.00,30.23,M,10.00,M,FEW,M,M,M,3800.00,M,M,M,M,M,M,M,M,M,M,6.40,KCXP 301715Z AUTO 10004KT 10SM FEW038 M10/M16 A3023 RMK AO2,M
RTS,2023-01-30 17:15,-119.8764,39.6682,1539.00,8.60,1.40,71.92,0.00,0.00,0.00,30.21,M,10.00,M,CLR,M,M,M,M,M,M,M,M,M,M,M,M,M,M,8.60,KRTS 301715Z AUTO 00000KT 10SM CLR M13/M17 A3021 RMK AO2,M
MEV,2023-01-30 17:15,-119.7500,38.9963,1441.42,10.40,3.20,72.12,70.00,4.00,0.00,30.22,M,10.00,M,FEW,SCT,M,M,3100.00,3900.00,M,M,M,M,M,M,M,M,M,2.20,KMEV 301715Z AUTO 07004KT 10SM FEW031 SCT039 M12/M16 A3022 RMK AO2,M
BAM,2023-01-30 17:15,-116.8743,40.5990,1382.36,14.00,5.00,66.82,30.00,6.00,0.00,30.26,M,10.00,M,CLR,M,M,M,M,M,M,M,M,M,M,M,M,M,M,3.85,KBAM 301715Z AUTO 03006KT 10SM CLR M10/M15 A3026 RMK AO1,M
INS,2023-01-30 17:19,-115.6733,36.5872,955.00,37.40,32.00,80.65,0.00,0.00,0.00,30.03,1016.50,10.00,M,FEW,FEW,OVC,M,700.00,2600.00,4000.00,M,-DZ,M,M,M,M,M,M,37.40,KINS 301719Z AUTO 00000KT 10SM -DZ FEW007 FEW026 OVC040 03/M00 A3003 RMK AO2 DZE1656RAB1656E00DZB00E07DZB14 SLP165,M
HND,2023-01-30 17:23,-115.1344,35.9729,742.79,37.40,33.80,86.69,60.00,10.00,T,30.05,M,10.00,M,SCT,OVC,M,M,1100.00,2300.00,M,M,-RA,M,M,M,M,M,M,29.74,KHND 301723Z 06010KT 10SM -RA SCT011 OVC023 03/01 A3005 RMK AO2 P0000,M
05U,2023-01-30 17:30,-116.0051,39.6042,1811.23,6.80,-2.20,65.87,0.00,0.00,0.00,30.15,M,9.00,M,M,M,M,M,M,M,M,M,M,M,M,M,M,M,M,6.80,K05U 301730Z AUTO 00000KT 9SM M14/M19 A3015 RMK A01,M
BVU,2023-01-30 17:35,-114.8611,35.9475,671.00,39.20,35.60,86.79,350.00,14.00,0.00,30.02,M,8.00,21.00,OVC,M,M,M,1800.00,M,M,M,-RA,M,M,M,M,M,M,30.44,KBVU 301735Z AUTO 35014G21KT 8SM -RA OVC018 04/02 A3002 RMK AO2,M
CXP,2023-01-30 17:35,-119.7326,39.1923,1431.00,15.80,5.00,61.77,110.00,5.00,0.00,30.24,M,10.00,M,SCT,M,M,M,3800.00,M,M,M,M,M,M,M,M,M,M,7.16,KCXP 301735Z AUTO 11005KT 10SM SCT038 M09/M15 A3024 RMK AO2,M
RTS,2023-01-30 17:35,-119.8764,39.6682,1539.00,10.40,1.40,66.35,150.00,5.00,0.00,30.21,M,10.00,M,CLR,M,M,M,M,M,M,M,M,M,M,M,M,M,M,0.74,KRTS 301735Z AUTO 15005KT 10SM CLR M12/M17 A3021 RMK AO2,M
MEV,2023-01-30 17:35,-119.7500,38.9963,1441.42,12.20,5.00,72.33,0.00,0.00,0.00,30.23,M,10.00,M,SCT,BKN,OVC,M,2300.00,3100.00,3900.00,M,M,M,M,M,M,M,M,12.20,KMEV 301735Z AUTO 00000KT 10SM SCT023 BKN031 OVC039 M11/M15 A3023 RMK AO2,M
BAM,2023-01-30 17:35,-116.8743,40.5990,1382.36,17.60,5.00,57.14,360.00,4.00,0.00,30.27,M,10.00,M,CLR,M,M,M,M,M,M,M,M,M,M,M,M,M,M,10.60,KBAM 301735Z AUTO 36004KT 10SM CLR M08/M15 A3027 RMK AO1,M
HND,2023-01-30 17:40,-115.1344,35.9729,742.79,35.60,33.80,93.08,60.00,9.00,T,30.06,M,10.00,M,SCT,OVC,M,M,800.00,2300.00,M,M,-RA,M,M,M,M,M,M,27.99,KHND 301740Z 06009KT 10SM -RA SCT008 OVC023 02/01 A3006 RMK AO2 P0000,M
LSV,2023-01-30 17:47,-115.0343,36.2362,570.00,41.00,33.80,75.33,30.00,16.00,0.00,30.05,1017.70,10.00,M,BKN,M,M,M,3900.00,M,M,M,-RA,M,M,M,M,M,M,32.15,KLSV 301747Z AUTO 03016KT 10SM -RA BKN039 05/01 A3005 RMK AO2 RAB47 SLP177 $,M
05U,2023-01-30 17:50,-116.0051,39.6042,1811.23,12.20,1.40,61.25,0.00,0.00,0.00,30.16,M,10.00,M,M,M,M,M,M,M,M,M,M,M,M,M,M,M,M,12.20,K05U 301750Z AUTO 00000KT 10SM M11/M17 A3016 RMK A01,M
CXP,2023-01-30 17:50,-119.7326,39.1923,1431.00,15.80,5.00,61.77,80.00,7.00,0.00,30.25,M,10.00,M,FEW,M,M,M,3800.00,M,M,M,M,M,M,M,M,M,M,5.03,KCXP 301750Z AUTO 08007KT 10SM FEW038 M09/M15 A3025 RMK AO2,M
INS,2023-01-30 17:53,-115.6733,36.5872,955.00,35.60,33.80,93.08,100.00,5.00,0.00,30.05,1017.40,10.00,M,FEW,OVC,M,M,700.00,4800.00,M,M,M,M,M,M,M,M,M,30.67,KINS 301753Z AUTO 10005KT 10SM FEW007 OVC048 02/01 A3005 RMK AO2 DZE1656RAB1656E00DZB00E07DZB14E20RAB20E39DZB39E53 SLP174,M
P68,2023-01-30 17:53,-116.0056,39.6014,1993.00,6.00,-0.90,72.31,0.00,0.00,0.00,30.13,1027.20,M,M,M,M,M,M,M,M,M,M,M,M,M,M,M,M,M,6.10,KP68 301753Z AUTO 00000KT M14/M18 A3013 RMK AO1 SLP272 T11441183 11133 21161 51020,M
DRA,2023-01-30 17:53,-116.0278,36.6206,1009.00,39.00,21.00,48.06,50.00,14.00,0.00,30.02,1015.90,10.00,M,FEW,BKN,OVC,M,4400.00,5500.00,11000.00,M,M,M,M,M,M,M,M,30.19,KDRA 301753Z AUTO 05014KT 10SM FEW044 BKN055 OVC110 04/M06 A3002 RMK AO2 SLP159 T00391061 10044 20022 51025,M
ELY,2023-01-30 17:53,-114.8453,39.2950,1909.00,5.00,-0.90,76.03,30.00,14.00,0.00,30.10,1026.70,M,M,OVC,M,M,M,1400.00,M,M,M,M,M,M,M,M,M,M,-13.64,KELY 301753Z AUTO 03014KT OVC014 M15/M18 A3010 RMK AO2 SLP267 T11501183 11144 21161 53022 $,M
LOL,2023-01-30 17:53,-118.5701,40.0684,1192.43,19.90,6.00,54.44,30.00,11.00,0.00,30.29,1029.80,10.00,M,CLR,M,M,M,M,M,M,M,M,M,M,M,M,M,M,7.18,KLOL 301753Z AUTO 03011KT 10SM CLR M07/M14 A3029 RMK AO2 SLP298 T10671144 11067 21122 51026,M
VGT,2023-01-30 17:53,-115.1933,36.2111,667.00,42.00,35.00,76.04,320.00,11.00,0.01,30.04,1019.50,10.00,M,OVC,M,M,M,4500.00,M,M,M,M,M,M,M,M,M,M,35.23,KVGT 301753Z 32011KT 10SM OVC045 06/02 A3004 RMK AO2 RAB13E47 SLP195 P0001 60003 T00560017 10078 20056 51027,M
BVU,2023-01-30 17:55,-114.8611,35.9475,671.00,39.20,33.80,80.79,350.00,16.00,0.00,30.03,M,10.00,M,OVC,M,M,M,1900.00,M,M,M,-RA,M,M,M,M,M,M,29.80,KBVU 301755Z AUTO 35016KT 10SM -RA OVC019 04/01 A3003 RMK AO2,M
INS,2023-01-30 17:55,-115.6733,36.5872,955.00,35.40,34.30,95.72,100.00,5.00,T,30.05,1017.40,10.00,M,FEW,OVC,M,M,700.00,4800.00,M,M,M,M,M,M,M,M,M,30.43,KINS 301755Z AUTO 10005KT 10SM FEW007 OVC048 02/01 A3005 RMK AO2 DZE1656RAB1656E00DZB00E07DZB14E20RAB20E39DZB39E53 SLP174 P0000 60001 T00190013 10038 20019 52028,M
RNO,2023-01-30 17:55,-119.7711,39.4839,1341.00,18.00,7.00,61.52,0.00,0.00,0.00,30.25,1028.20,10.00,M,FEW,M,M,M,4000.00,M,M,M,M,M,M,T,M,M,M,18.00,KRNO 301755Z 00000KT 10SM FEW040 M08/M14 A3025 RMK AO2 SLP282 4/001 I6000 T10781139 11072 21156 53023,1
LSV,2023-01-30 17:55,-115.0343,36.2362,570.00,41.20,33.30,73.27,30.00,15.00,T,30.05,1017.70,10.00,M,BKN,M,M,M,3900.00,M,M,M,-RA,M,M,M,M,M,M,32.71,KLSV 301755Z AUTO 03015KT 10SM -RA BKN039 05/01 A3005 RMK AO2 RAB47 SLP177 P0000 60000 T00510007 10080 20046 52030 $,M
RTS,2023-01-30 17:55,-119.8764,39.6682,1539.00,14.00,1.40,56.58,170.00,4.00,0.00,30.22,M,10.00,M,CLR,M,M,M,M,M,M,M,M,M,M,M,M,M,M,6.40,KRTS 301755Z AUTO 17004KT 10SM CLR M10/M17 A3022 RMK AO2,M
MEV,2023-01-30 17:55,-119.7500,38.9963,1441.42,12.20,5.00,72.33,240.00,3.00,0.00,30.25,M,10.00,M,FEW,SCT,BKN,M,1400.00,2000.00,2500.00,M,M,M,M,M,M,M,M,6.05,KMEV 301755Z AUTO 24003KT 10SM FEW014 SCT020 BKN025 M11/M15 A3025 RMK AO2,M
BAM,2023-01-30 17:55,-116.8743,40.5990,1382.36,17.60,5.00,57.14,340.00,3.00,0.00,30.28,M,10.00,M,CLR,M,M,M,M,M,M,M,M,M,M,M,M,M,M,12.23,KBAM 301755Z AUTO 34003KT 10SM CLR M08/M15 A3028 RMK AO1,M
EKO,2023-01-30 17:56,-115.7860,40.8242,1367.00,3.00,-4.00,71.95,0.00,0.00,0.00,30.24,1032.90,10.00,M,CLR,M,M,M,M,M,M,M,M,M,M,T,M,M,M,3.00,KEKO 301756Z AUTO 00000KT 10SM CLR M16/M20 A3024 RMK AO2 SLP329 I6000 T11611200 11161 21256 51023,M
LSV,2023-01-30 17:56,-115.0343,36.2362,570.00,41.00,33.80,75.33,30.00,16.00,0.00,30.05,1017.70,10.00,M,SCT,M,M,M,3900.00,M,M,M,-RA,M,M,M,M,M,M,32.15,KLSV 301756Z AUTO 03016KT 10SM -RA SCT039 05/01 A3005 RMK AO2 SLP177 $,M
NFL,2023-01-30 17:56,-118.7010,39.4166,1199.00,21.00,8.10,56.88,M,6.00,0.00,30.28,1021.30,10.00,M,FEW,M,M,M,4000.00,M,M,M,M,M,M,M,M,M,M,12.28,KNFL 301756Z VRB06KT 10SM FEW040 M06/M13 A3028 RMK AO2 SLP213 T10611133 11061 21100 51023,M
HND,2023-01-30 17:56,-115.1344,35.9729,742.79,36.00,34.00,92.35,60.00,9.00,T,30.06,1020.60,10.00,M,SCT,BKN,OVC,M,800.00,2100.00,2600.00,M,-RA,M,M,M,M,M,M,28.49,KHND 301756Z 06009KT 10SM -RA SCT008 BKN021 OVC026 02/01 A3006 RMK AO2 SLP206 P0000 60001 T00220011 10067 20022 51028,M
TPH,2023-01-30 17:56,-117.0904,38.0505,1654.00,M,M,M,320.00,14.00,0.00,30.07,M,M,22.00,BKN,M,M,M,4700.00,M,M,M,M,M,M,M,M,M,M,M,KTPH 301756Z AUTO 32014G22KT BKN047 A3007 RMK AO2 SLPNO 53020 PWINO $,M
LAS,2023-01-30 17:56,-115.1634,36.0719,663.00,38.00,33.00,82.66,50.00,13.00,T,30.06,1018.20,7.00,M,OVC,M,M,M,1800.00,M,M,M,-RA,M,M,M,M,M,M,29.13,KLAS 301756Z 05013KT 7SM -RA OVC018 03/01 A3006 RMK AO2 SLP182 P0000 60002 T00330006 10067 20033 51029,M
INS,2023-01-30 17:58,-115.6733,36.5872,955.00,35.60,35.60,100.00,100.00,5.00,0.00,30.05,1017.40,10.00,M,FEW,OVC,M,M,700.00,4800.00,M,M,-DZ,M,M,M,M,M,M,30.67,KINS 301758Z AUTO 10005KT 10SM -DZ FEW007 OVC048 02/02 A3005 RMK AO2 DZB58 SLP174,M
INS,2023-01-30 18:09,-115.6733,36.5872,955.00,35.60,35.60,100.00,100.00,7.00,0.00,30.05,1017.40,10.00,M,OVC,M,M,M,5000.00,M,M,M,M,M,M,M,M,M,M,29.17,KINS 301809Z AUTO 10007KT 10SM OVC050 02/02 A3005 RMK AO2 DZB1758E09 SLP174,M
05U,2023-01-30 18:10,-116.0051,39.6042,1811.23,10.40,-0.40,60.99,M,M,0.00,30.17,M,10.00,M,M,M,M,M,M,M,M,M,M,M,M,M,M,M,M,M,K05U 301810Z AUTO 10SM M12/M18 A3017 RMK A01,M
LSV,2023-01-30 18:11,-115.0343,36.2362,570.00,41.00,32.00,70.08,50.00,16.00,0.00,30.06,1018.00,10.00,M,FEW,M,M,M,3900.00,M,M,M,M,M,M,M,M,M,M,32.15,KLSV 301811Z AUTO 05016KT 10SM FEW039 05/00 A3006 RMK AO2 RAE11 SLP180 $,M
BVU,2023-01-30 18:15,-114.8611,35.9475,671.00,39.20,33.80,80.79,360.00,14.00,0.00,30.05,M,9.00,M,OVC,M,M,M,2200.00,M,M,M,-RA,M,M,M,M,M,M,30.44,KBVU 301815Z AUTO 36014KT 9SM -RA OVC022 04/01 A3005 RMK AO2,M
CXP,2023-01-30 18:15,-119.7326,39.1923,1431.00,17.60,3.20,52.60,70.00,10.00,0.00,30.25,M,10.00,M,CLR,M,M,M,M,M,M,M,M,M,M,M,M,M,M,4.91,KCXP 301815Z AUTO 07010KT 10SM CLR M08/M16 A3025 RMK AO2,M
RTS,2023-01-30 18:15,-119.8764,39.6682,1539.00,15.80,1.40,52.31,150.00,5.00,0.00,30.23,M,10.00,M,CLR,M,M,M,M,M,M,M,M,M,M,M,M,M,M,7.16,KRTS 301815Z AUTO 15005KT 10SM CLR M09/M17 A3023 RMK AO2,M
MEV,2023-01-30 18:15,-119.7500,38.9963,1441.42,14.00,5.00,66.82,0.00,0.00,0.00,30.25,M,10.00,M,FEW,FEW,SCT,M,1300.00,1900.00,3800.00,M,M,M,M,M,M,M,M,14.00,KMEV 301815Z AUTO 00000KT 10SM FEW013 FEW019 SCT038 M10/M15 A3025 RMK AO2,M
BAM,2023-01-30 18:15,-116.8743,40.5990,1382.36,17.60,6.80,62.02,340.00,3.00,0.00,30.29,M,10.00,M,CLR,M,M,M,M,M,M,M,M,M,M,M,M,M,M,12.23,KBAM 301815Z AUTO 34003KT 10SM CLR M08/M14 A3029 RMK AO1,M
INS,2023-01-30 18:17,-115.6733,36.5872,955.00,35.60,35.60,100.00,110.00,7.00,0.00,30.05,1017.40,10.00,M,OVC,M,M,M,4800.00,M,M,M,-DZ,M,M,M,M,M,M,29.17,KINS 301817Z AUTO 11007KT 10SM -DZ OVC048 02/02 A3005 RMK AO2 DZB1758E09DZB17 SLP174,M
05U,2023-01-30 18:30,-116.0051,39.6042,1811.23,10.40,-0.40,60.99,60.00,4.00,0.00,30.18,M,10.00,M,M,M,M,M,M,M,M,M,M,M,M,M,M,M,M,2.20,K05U 301830Z AUTO 06004KT 10SM M12/M18 A3018 RMK A01,M
BVU,2023-01-30 18:35,-114.8611,35.9475,671.00,39.20,33.80,80.79,350.00,17.00,0.00,30.04,M,7.00,22.00,BKN,BKN,BKN,M,2300.00,3000.00,3400.00,M,-RA,M,M,M,M,M,M,29.51,KBVU 301835Z AUTO 35017G22KT 7SM -RA BKN023 BKN030 BKN034 04/01 A3004 RMK AO2,M
CXP,2023-01-30 18:35,-119.7326,39.1923,1431.00,17.60,3.20,52.60,80.00,13.00,0.00,30.26,M,10.00,M,CLR,M,M,M,M,M,M,M,M,M,M,M,M,M,M,3.12,KCXP 301835Z AUTO 08013KT 10SM CLR M08/M16 A3026 RMK AO2,M
INS,2023-01-30 18:35,-115.6733,36.5872,955.00,35.60,33.80,93.08,150.00,5.00,0.00,30.05,1017.40,10.00,M,OVC,M,M,M,4900.00,M,M,M,M,M,M,M,M,M,M,30.67,KINS 301835Z AUTO 15005KT 10SM OVC049 02/01 A3005 RMK AO2 DZB1758E09DZB17E21RAB21E35 SLP174,M
RTS,2023-01-30 18:35,-119.8764,39.6682,1539.00,15.80,1.40,52.31,150.00,4.00,0.00,30.25,M,10.00,M,CLR,M,M,M,M,M,M,M,M,M,M,M,M,M,M,8.50,KRTS 301835Z AUTO 15004KT 10SM CLR M09/M17 A3025 RMK AO2,M
MEV,2023-01-30 18:35,-119.7500,38.9963,1441.42,15.80,5.00,61.77,170.00,4.00,0.00,30.25,M,10.00,M,CLR,M,M,M,M,M,M,M,M,M,M,M,M,M,M,8.50,KMEV 301835Z AUTO 17004KT 10SM CLR M09/M15 A3025 RMK AO2,M
BAM,2023-01-30 18:35,-116.8743,40.5990,1382.36,17.60,6.80,62.02,0.00,0.00,0.00,30.29,M,10.00,M,CLR,M,M,M,M,M,M,M,M,M,M,M,M,M,M,17.60,KBAM 301835Z AUTO 00000KT 10SM CLR M08/M14 A3029 RMK AO1,M
HND,2023-01-30 18:40,-115.1344,35.9729,742.79,35.60,33.80,93.08,50.00,8.00,0.01,30.08,M,8.00,M,BKN,BKN,OVC,M,800.00,1400.00,2400.00,M,-RA,M,M,M,M,M,M,28.55,KHND 301840Z 05008KT 8SM -RA BKN008 BKN014 OVC024 02/01 A3008 RMK AO2 CIG 006V011 P0001,M
VGT,2023-01-30 18:41,-115.1933,36.2111,667.00,43.00,34.00,70.30,330.00,12.00,T,30.06,M,10.00,M,OVC,M,M,M,2800.00,M,M,M,-RA,M,M,M,M,M,M,36.00,KVGT 301841Z 33012KT 10SM -RA OVC028 06/01 A3006 RMK AO2 RAB1756 P0000 T00610011,M
05U,2023-01-30 18:50,-116.0051,39.6042,1811.23,10.40,1.40,66.35,20.00,5.00,0.00,30.18,M,10.00,M,M,M,M,M,M,M,M,M,M,M,M,M,M,M,M,0.74,K05U 301850Z AUTO 02005KT 10SM M12/M17 A3018 RMK A01,M
LSV,2023-01-30 18:51,-115.0343,36.2362,570.00,39.20,32.00,75.16,80.00,11.00,0.00,30.07,1018.50,10.00,M,CLR,M,M,M,M,M,M,M,M,M,M,M,M,M,M,31.57,KLSV 301851Z AUTO 08011KT 10SM CLR 04/00 A3007 RMK AO2 WSHFT 46 RAE11 SLP185 $,M
P68,2023-01-30 18:53,-116.0056,39.6014,1993.00,10.00,1.90,69.13,360.00,5.00,0.00,30.16,1027.50,M,M,M,M,M,M,M,M,M,M,M,M,M,M,M,M,M,0.27,KP68 301853Z AUTO 36005KT M12/M17 A3016 RMK AO1 SLP275 T11221167,M
DRA,2023-01-30 18:53,-116.0278,36.6206,1009.00,42.00,24.10,48.56,10.00,7.00,0.00,30.03,1016.20,10.00,17.00,FEW,BKN,M,M,2400.00,11000.00,M,M,M,M,M,M,M,M,M,37.09,KDRA 301853Z AUTO 01007G17KT 10SM FEW024 BKN110 06/M04 A3003 RMK AO2 SLP162 T00561044,M
ELY,2023-01-30 18:53,-114.8453,39.2950,1909.00,7.00,1.00,75.88,20.00,11.00,T,30.10,1026.50,M,M,OVC,M,M,M,1500.00,M,M,M,M,M,M,M,M,M,M,-9.13,KELY 301853Z AUTO 02011KT OVC015 M14/M17 A3010 RMK AO2 SNB19E28 SLP265 P0000 T11391172 $,M
LOL,2023-01-30 18:53,-118.5701,40.0684,1192.43,21.90,5.00,47.56,50.00,12.00,0.00,30.30,1030.20,10.00,M,CLR,M,M,M,M,M,M,M,M,M,M,M,M,M,M,9.15,KLOL 301853Z AUTO 05012KT 10SM CLR M06/M15 A3030 RMK AO2 SLP302 T10561150,M
VGT,2023-01-30 18:53,-115.1933,36.2111,667.00,43.00,33.00,67.82,340.00,12.00,T,30.06,1020.00,10.00,M,OVC,M,M,M,4000.00,M,M,M,-RA,M,M,M,M,M,M,36.00,KVGT 301853Z 34012KT 10SM -RA OVC040 06/01 A3006 RMK AO2 RAB1756 SLP200 P0000 T00610006,M
BVU,2023-01-30 18:55,-114.8611,35.9475,671.00,39.20,33.80,80.79,340.00,14.00,0.00,30.05,M,10.00,21.00,BKN,M,M,M,2600.00,M,M,M,M,M,M,M,M,M,M,30.44,KBVU 301855Z AUTO 34014G21KT 10SM BKN026 04/01 A3005 RMK AO2,M
CXP,2023-01-30 18:55,-119.7326,39.1923,1431.00,17.60,5.00,57.14,80.00,12.00,0.00,30.27,M,10.00,M,CLR,M,M,M,M,M,M,M,M,M,M,M,M,M,M,3.67,KCXP 301855Z AUTO 08012KT 10SM CLR M08/M15 A3027 RMK AO2,M
RNO,2023-01-30 18:55,-119.7711,39.4839,1341.00,21.90,8.10,54.75,0.00,0.00,0.00,30.28,1029.00,10.00,M,FEW,M,M,M,4000.00,M,M,M,M,M,M,M,M,M,M,21.90,KRNO 301855Z 00000KT 10SM FEW040 M06/M13 A3028 RMK AO2 SLP290 T10561133,M
LSV,2023-01-30 18:55,-115.0343,36.2362,570.00,40.00,32.00,73.14,80.00,10.00,T,30.07,1018.50,10.00,M,OVC,M,M,M,3800.00,M,M,M,M,M,M,M,M,M,M,32.87,KLSV 301855Z COR 08010KT 10SM OVC038 04/00 A3007 RMK AO2A RAE11 SLP185 P0000 T00440000 $ COR 1858,M
RTS,2023-01-30 18:55,-119.8764,39.6682,1539.00,15.80,1.40,52.31,130.00,4.00,0.00,30.25,M,10.00,M,CLR,M,M,M,M,M,M,M,M,M,M,M,M,M,M,8.50,KRTS 301855Z AUTO 13004KT 10SM CLR M09/M17 A3025 RMK AO2,M
MEV,2023-01-30 18:55,-119.7500,38.9963,1441.42,15.80,6.80,67.05,110.00,4.00,0.00,30.27,M,10.00,M,CLR,M,M,M,M,M,M,M,M,M,M,M,M,M,M,8.50,KMEV 301855Z AUTO 11004KT 10SM CLR M09/M14 A3027 RMK AO2,M
BAM,2023-01-30 18:55,-116.8743,40.5990,1382.36,17.60,6.80,62.02,290.00,3.00,0.00,30.29,M,10.00,M,CLR,M,M,M,M,M,M,M,M,M,M,M,M,M,M,12.23,KBAM 301855Z AUTO 29003KT 10SM CLR M08/M14 A3029 RMK AO1,M
INS,2023-01-30 18:55,-115.6733,36.5872,955.00,37.00,32.70,84.60,160.00,6.00,T,30.05,1017.40,10.00,M,OVC,M,M,M,6000.00,M,M,M,M,M,M,M,M,M,M,31.43,KINS 301855Z AUTO 16006KT 10SM OVC060 03/00 A3005 RMK AO2 DZB1758E09DZB17E21RAB21E35 SLP174 P0000 T00270004,M
EKO,2023-01-30 18:56,-115.7860,40.8242,1367.00,5.00,-2.00,72.18,M,3.00,0.00,30.24,1033.20,10.00,M,CLR,M,M,M,M,M,M,M,M,M,M,M,M,M,M,-2.18,KEKO 301856Z AUTO VRB03KT 10SM CLR M15/M19 A3024 RMK AO2 SLP332 T11501189,M
NFL,2023-01-30 18:56,-118.7010,39.4166,1199.00,21.90,8.10,54.75,320.00,6.00,0.00,30.30,1022.10,10.00,M,SCT,M,M,M,4500.00,M,M,M,M,M,M,M,M,M,M,13.37,KNFL 301856Z 32006KT 10SM SCT045 M06/M13 A3030 RMK AO2 SLP221 T10561133,M
HND,2023-01-30 18:56,-115.1344,35.9729,742.79,36.00,34.00,92.35,50.00,8.00,0.02,30.08,1021.10,10.00,M,BKN,OVC,M,M,800.00,1200.00,M,M,-RA,M,M,M,M,M,M,29.04,KHND 301856Z 05008KT 10SM -RA BKN008 OVC012 02/01 A3008 RMK AO2 CIG 006V009 SLP211 P0002 T00220011,M
TPH,2023-01-30 18:56,-117.0904,38.0505,1654.00,M,M,M,320.00,16.00,0.00,30.09,M,M,25.00,OVC,M,M,M,4800.00,M,M,M,M,M,M,M,26.00,320.00,2023-01-30 18:27,M,KTPH 301856Z AUTO 32016G25KT OVC048 A3009 RMK AO2 PK WND 32026/1827 SLPNO PWINO $,M
LAS,2023-01-30 18:56,-115.1634,36.0719,663.00,38.00,33.00,82.66,60.00,10.00,0.01,30.08,1018.80,8.00,M,FEW,BKN,OVC,M,1900.00,2600.00,3900.00,M,-RA,M,M,M,M,M,M,30.37,KLAS 301856Z 06010KT 8SM -RA FEW019 BKN026 OVC039 03/01 A3008 RMK AO2 SLP188 P0001 T00330006,M
LSV,2023-01-30 18:58,-115.0343,36.2362,570.00,39.20,32.00,75.16,80.00,9.00,0.00,30.07,1018.50,10.00,M,OVC,M,M,M,3800.00,M,M,M,-RA,M,M,M,M,M,M,32.47,KLSV 301858Z COR 08009KT 10SM -RA OVC038 04/00 A3007 RMK AO2A RAB58 SLP185 $ COR 1903,M
HND,2023-01-30 19:06,-115.1344,35.9729,742.79,35.60,33.80,93.08,60.00,6.00,T,30.08,M,10.00,M,SCT,OVC,M,M,800.00,1200.00,M,M,-RA,M,M,M,M,M,M,29.87,KHND 301906Z 06006KT 10SM -RA SCT008 OVC012 02/01 A3008 RMK AO2 P0000,M
05U,2023-01-30 19:10,-116.0051,39.6042,1811.23,10.40,1.40,66.35,40.00,4.00,0.00,30.19,M,10.00,M,M,M,M,M,M,M,M,M,M,M,M,M,M,M,M,2.20,K05U 301910Z AUTO 04004KT 10SM M12/M17 A3019 RMK A01,M
INS,2023-01-30 19:14,-115.6733,36.5872,955.00,37.40,32.00,80.65,140.00,3.00,0.00,30.05,1017.40,10.00,M,OVC,M,M,M,7000.00,M,M,M,-RA,M,M,M,M,M,M,34.86,KINS 301914Z AUTO 14003KT 10SM -RA OVC070 03/M00 A3005 RMK AO2 RAB14 SLP174,M
BVU,2023-01-30 19:15,-114.8611,35.9475,671.00,39.20,33.80,80.79,350.00,18.00,0.00,30.05,M,10.00,M,OVC,M,M,M,2800.00,M,M,M,M,M,M,M,M,M,M,29.23,KBVU 301915Z AUTO 35018KT 10SM OVC028 04/01 A3005 RMK AO2,M
CXP,2023-01-30 19:15,-119.7326,39.1923,1431.00,17.60,5.00,57.14,70.00,12.00,0.00,30.28,M,10.00,M,CLR,M,M,M,M,M,M,M,M,M,M,M,M,M,M,3.67,KCXP 301915Z AUTO 07012KT 10SM CLR M08/M15 A3028 RMK AO2,M
RTS,2023-01-30 19:15,-119.8764,39.6682,1539.00,17.60,1.40,48.39,170.00,6.00,0.00,30.24,M,10.00,M,CLR,M,M,M,M,M,M,M,M,M,M,M,M,M,M,8.19,KRTS 301915Z AUTO 17006KT 10SM CLR M08/M17 A3024 RMK AO2,M
MEV,2023-01-30 19:15,-119.7500,38.9963,1441.42,15.80,6.80,67.05,120.00,5.00,0.00,30.26,M,10.00,M,CLR,M,M,M,M,M,M,M,M,M,M,M,M,M,M,7.16,KMEV 301915Z AUTO 12005KT 10SM CLR M09/M14 A3026 RMK AO2,M
BAM,2023-01-30 19:15,-116.8743,40.5990,1382.36,19.40,6.80,57.41,280.00,3.00,0.00,30.28,M,10.00,M,CLR,M,M,M,M,M,M,M,M,M,M,M,M,M,M,14.28,KBAM 301915Z AUTO 28003KT 10SM CLR M07/M14 A3028 RMK AO1,M
HND,2023-01-30 19:17,-115.1344,35.9729,742.79,35.60,33.80,93.08,50.00,6.00,0.01,30.08,M,10.00,M,BKN,OVC,M,M,800.00,1200.00,M,M,-RA,M,M,M,M,M,M,29.87,KHND 301917Z 05006KT 10SM -RA BKN008 OVC012 02/01 A3008 RMK AO2 CIG 006V012 P0001,M
INS,2023-01-30 19:26,-115.6733,36.5872,955.00,37.40,30.20,74.98,0.00,0.00,0.00,30.05,1017.40,10.00,M,OVC,M,M,M,6500.00,M,M,M,M,M,M,M,M,M,M,37.40,KINS 301926Z AUTO 00000KT 10SM OVC065 03/M01 A3005 RMK AO2 RAB14E26 SLP174,M
05U,2023-01-30 19:30,-116.0051,39.6042,1811.23,10.40,1.40,66.35,100.00,3.00,0.00,30.18,M,10.00,M,M,M,M,M,M,M,M,M,M,M,M,M,M,M,M,4.00,K05U 301930Z AUTO 10003KT 10SM M12/M17 A3018 RMK A01,M
BVU,2023-01-30 19:35,-114.8611,35.9475,671.00,37.40,33.80,86.69,340.00,18.00,0.00,30.04,M,10.00,M,M,M,M,M,M,M,M,M,M,M,M,M,M,M,M,26.86,KBVU 301935Z AUTO 34018KT 10SM 03/01 A3004 RMK AO2,M
CXP,2023-01-30 19:35,-119.7326,39.1923,1431.00,19.40,5.00,52.89,80.00,10.00,0.00,30.27,M,10.00,M,CLR,M,M,M,M,M,M,M,M,M,M,M,M,M,M,7.17,KCXP 301935Z AUTO 08010KT 10SM CLR M07/M15 A3027 RMK AO2,M
RTS,2023-01-30 19:35,-119.8764,39.6682,1539.00,17.60,1.40,48.39,170.00,5.00,0.00,30.23,M,10.00,M,CLR,M,M,M,M,M,M,M,M,M,M,M,M,M,M,9.29,KRTS 301935Z AUTO 17005KT 10SM CLR M08/M17 A3023 RMK AO2,M
MEV,2023-01-30 19:35,-119.7500,38.9963,1441.42,15.80,5.00,61.77,110.00,3.00,0.00,30.27,M,10.00,M,CLR,M,M,M,M,M,M,M,M,M,M,M,M,M,M,10.17,KMEV 301935Z AUTO 11003KT 10SM CLR M09/M15 A3027 RMK AO2,M
BAM,2023-01-30 19:35,-116.8743,40.5990,1382.36,19.40,8.60,62.28,70.00,4.00,0.00,30.28,M,10.00,M,CLR,M,M,M,M,M,M,M,M,M,M,M,M,M,M,12.71,KBAM 301935Z AUTO 07004KT 10SM CLR M07/M13 A3028 RMK AO1,M
LAS,2023-01-30 19:45,-115.1634,36.0719,663.00,39.00,35.00,85.76,60.00,9.00,0.01,30.06,M,10.00,M,SCT,BKN,OVC,M,2600.00,3700.00,4700.00,M,-RA,M,M,M,M,M,M,32.22,KLAS 301945Z 06009KT 10SM -RA SCT026 BKN037 OVC047 04/02 A3006 RMK AO2 P0001 T00390017,M
05U,2023-01-30 19:50,-116.0051,39.6042,1811.23,12.20,1.40,61.25,0.00,0.00,0.00,30.17,M,10.00,M,M,M,M,M,M,M,M,M,M,M,M,M,M,M,M,12.20,K05U 301950Z AUTO 00000KT 10SM M11/M17 A3017 RMK A01,M
HND,2023-01-30 19:51,-115.1344,35.9729,742.79,35.60,35.60,100.00,60.00,5.00,0.02,30.06,M,10.00,M,SCT,OVC,M,M,800.00,3200.00,M,M,-RA,M,M,M,M,M,M,30.67,KHND 301951Z 06005KT 10SM -RA SCT008 OVC032 02/02 A3006 RMK AO2 P0002,M
P68,2023-01-30 19:53,-116.0056,39.6014,1993.00,10.90,1.00,63.69,90.00,3.00,0.00,30.14,1027.30,M,M,M,M,M,M,M,M,M,M,M,M,M,M,M,M,M,4.57,KP68 301953Z AUTO 09003KT M12/M17 A3014 RMK AO1 SLP273 T11171172,M
DRA,2023-01-30 19:53,-116.0278,36.6206,1009.00,44.00,23.00,42.95,10.00,11.00,0.00,30.02,1015.60,10.00,M,FEW,M,M,M,11000.00,M,M,M,M,M,M,M,M,M,M,37.76,KDRA 301953Z AUTO 01011KT 10SM FEW110 07/M05 A3002 RMK AO2 SLP156 T00671050,M
ELY,2023-01-30 19:53,-114.8453,39.2950,1909.00,10.00,3.00,72.75,20.00,9.00,0.00,30.10,1026.30,M,M,SCT,M,M,M,1600.00,M,M,M,M,M,M,M,M,M,M,-3.84,KELY 301953Z AUTO 02009KT SCT016 M12/M16 A3010 RMK AO2 SLP263 T11221161 $,M
LOL,2023-01-30 19:53,-118.5701,40.0684,1192.43,25.00,5.00,41.76,50.00,10.00,0.00,30.29,1029.70,10.00,M,CLR,M,M,M,M,M,M,M,M,M,M,M,M,M,M,14.19,KLOL 301953Z AUTO 05010KT 10SM CLR M04/M15 A3029 RMK AO2 SLP297 T10391150,M
VGT,2023-01-30 19:53,-115.1933,36.2111,667.00,43.00,33.00,67.82,340.00,8.00,0.01,30.05,1019.70,10.00,M,SCT,OVC,M,M,2800.00,4400.00,M,M,M,M,M,M,M,M,M,37.66,KVGT 301953Z 34008KT 10SM SCT028 OVC044 06/01 A3005 RMK AO2 RAE41 SLP197 P0001 T00610006,M
BVU,2023-01-30 19:55,-114.8611,35.9475,671.00,39.20,33.80,80.79,10.00,10.00,0.00,30.04,M,10.00,17.00,M,M,M,M,M,M,M,M,M,M,M,M,M,M,M,32.00,KBVU 301955Z AUTO 01010G17KT 10SM 04/01 A3004 RMK AO2,M
CXP,2023-01-30 19:55,-119.7326,39.1923,1431.00,19.40,5.00,52.89,80.00,8.00,0.00,30.26,M,10.00,M,CLR,M,M,M,M,M,M,M,M,M,M,M,M,M,M,8.59,KCXP 301955Z AUTO 08008KT 10SM CLR M07/M15 A3026 RMK AO2,M
INS,2023-01-30 19:55,-115.6733,36.5872,955.00,38.80,28.80,67.04,0.00,0.00,T,30.04,1017.00,10.00,M,BKN,OVC,M,M,6000.00,8000.00,M,M,M,M,M,M,M,M,M,38.80,KINS 301955Z AUTO 00000KT 10SM BKN060 OVC080 04/M02 A3004 RMK AO2 RAB14E26 SLP170 P0000 T00381018,M
RNO,2023-01-30 19:55,-119.7711,39.4839,1341.00,24.10,7.00,47.50,0.00,0.00,0.00,30.26,1028.20,10.00,M,CLR,M,M,M,M,M,M,M,M,M,M,M,M,M,M,24.10,KRNO 301955Z 00000KT 10SM CLR M04/M14 A3026 RMK AO2 SLP282 T10441139,M
RTS,2023-01-30 19:55,-119.8764,39.6682,1539.00,17.60,1.40,48.39,M,5.00,0.00,30.23,M,10.00,M,CLR,M,M,M,M,M,M,M,M,M,M,M,M,M,M,9.29,KRTS 301955Z AUTO VRB05KT 10SM CLR M08/M17 A3023 RMK AO2,M
MEV,2023-01-30 19:55,-119.7500,38.9963,1441.42,17.60,5.00,57.14,140.00,4.00,0.00,30.26,M,10.00,M,CLR,M,M,M,M,M,M,M,M,M,M,M,M,M,M,10.60,KMEV 301955Z AUTO 14004KT 10SM CLR M08/M15 A3026 RMK AO2,M
BAM,2023-01-30 19:55,-116.8743,40.5990,1382.36,21.20,8.60,57.69,40.00,4.00,0.00,30.27,M,10.00,M,CLR,M,M,M,M,M,M,M,M,M,M,M,M,M,M,14.81,KBAM 301955Z AUTO 04004KT 10SM CLR M06/M13 A3027 RMK AO1,M
EKO,2023-01-30 19:56,-115.7860,40.8242,1367.00,7.00,0.00,72.41,0.00,0.00,0.00,30.22,1033.00,10.00,M,CLR,M,M,M,M,M,M,M,M,M,M,M,M,M,M,7.00,KEKO 301956Z AUTO 00000KT 10SM CLR M14/M18 A3022 RMK AO2 SLP330 T11391178,M
NFL,2023-01-30 19:56,-118.7010,39.4166,1199.00,25.00,8.10,48.08,M,3.00,0.00,30.28,1021.40,10.00,M,SCT,M,M,M,3000.00,M,M,M,M,M,M,M,M,M,M,20.69,KNFL 301956Z VRB03KT 10SM SCT030 M04/M13 A3028 RMK AO2 SLP214 T10391133,M
HND,2023-01-30 19:56,-115.1344,35.9729,742.79,36.00,34.00,92.35,60.00,5.00,0.02,30.06,1020.60,10.00,M,SCT,SCT,OVC,M,600.00,1200.00,3000.00,M,-RA,M,M,M,M,M,M,31.15,KHND 301956Z 06005KT 10SM -RA SCT006 SCT012 OVC030 02/01 A3006 RMK AO2 SLP206 P0002 T00220011,M
TPH,2023-01-30 19:56,-117.0904,38.0505,1654.00,M,M,M,320.00,20.00,0.00,30.07,M,M,28.00,SCT,M,M,M,5500.00,M,M,M,M,M,M,M,28.00,320.00,2023-01-30 19:48,M,KTPH 301956Z AUTO 32020G28KT SCT055 A3007 RMK AO2 PK WND 32028/1948 SLPNO PWINO $,M
LAS,2023-01-30 19:56,-115.1634,36.0719,663.00,39.00,34.00,82.08,50.00,8.00,0.01,30.06,1018.10,10.00,M,SCT,BKN,OVC,M,2600.00,3700.00,4700.00,M,-RA,M,M,M,M,M,M,32.74,KLAS 301956Z 05008KT 10SM -RA SCT026 BKN037 OVC047 04/01 A3006 RMK AO2 SLP181 P0001 T00390011,M
LSV,2023-01-30 19:58,-115.0343,36.2362,570.00,39.40,39.20,99.22,80.00,11.00,T,30.05,1017.80,10.00,M,OVC,M,M,M,3800.00,M,M,M,M,M,M,M,M,M,M,31.82,KLSV 301958Z 08011KT 10SM OVC038 04/04 A3005 RMK RAB1858E24 SLP178 P0000 T00410040 $,M
HND,2023-01-30 20:07,-115.1344,35.9729,742.79,37.40,35.60,93.14,50.00,8.00,T,30.06,M,10.00,M,SCT,BKN,OVC,M,800.00,1200.00,3000.00,M,-RA,M,M,M,M,M,M,30.76,KHND 302007Z 05008KT 10SM -RA SCT008 BKN012 OVC030 03/02 A3006 RMK AO2 P0000,M
05U,2023-01-30 20:10,-116.0051,39.6042,1811.23,14.00,1.40,56.58,0.00,0.00,0.00,30.17,M,10.00,M,M,M,M,M,M,M,M,M,M,M,M,M,M,M,M,14.00,K05U 302010Z AUTO 00000KT 10SM M10/M17 A3017 RMK A01,M
BVU,2023-01-30 20:15,-114.8611,35.9475,671.00,39.20,33.80,80.79,M,4.00,0.00,30.04,M,10.00,10.00,SCT,SCT,OVC,M,1300.00,2000.00,3400.00,M,M,M,M,M,M,M,M,35.83,KBVU 302015Z AUTO VRB04G10KT 10SM SCT013 SCT020 OVC034 04/01 A3004 RMK AO2,M
CXP,2023-01-30 20:15,-119.7326,39.1923,1431.00,19.40,5.00,52.89,70.00,6.00,0.00,30.25,M,10.00,M,CLR,M,M,M,M,M,M,M,M,M,M,M,M,M,M,10.36,KCXP 302015Z AUTO 07006KT 10SM CLR M07/M15 A3025 RMK AO2,M
HND,2023-01-30 20:15,-115.1344,35.9729,742.79,37.40,35.60,93.14,60.00,6.00,T,30.06,M,10.00,M,BKN,BKN,OVC,M,800.00,1400.00,3000.00,M,-RA,M,M,M,M,M,M,32.03,KHND 302015Z 06006KT 10SM -RA BKN008 BKN014 OVC030 03/02 A3006 RMK AO2 CIG 005V012 P0000,M
RTS,2023-01-30 20:15,-119.8764,39.6682,1539.00,19.40,1.40,44.79,0.00,0.00,0.00,30.22,M,10.00,M,CLR,M,M,M,M,M,M,M,M,M,M,M,M,M,M,19.40,KRTS 302015Z AUTO 00000KT 10SM CLR M07/M17 A3022 RMK AO2,M
MEV,2023-01-30 20:15,-119.7500,38.9963,1441.42,17.60,6.80,62.02,200.00,5.00,0.00,30.24,M,10.00,M,CLR,M,M,M,M,M,M,M,M,M,M,M,M,M,M,9.29,KMEV 302015Z AUTO 20005KT 10SM CLR M08/M14 A3024 RMK AO2,M
BAM,2023-01-30 20:15,-116.8743,40.5990,1382.36,21.20,8.60,57.69,50.00,4.00,0.00,30.27,M,10.00,M,CLR,M,M,M,M,M,M,M,M,M,M,M,M,M,M,14.81,KBAM 302015Z AUTO 05004KT 10SM CLR M06/M13 A3027 RMK AO1,M
05U,2023-01-30 20:30,-116.0051,39.6042,1811.23,15.80,-0.40,48.08,M,M,0.00,30.16,M,10.00,M,M,M,M,M,M,M,M,M,M,M,M,M,M,M,M,M,K05U 302030Z AUTO 10SM M09/M18 A3016 RMK A01,M
LAS,2023-01-30 20:31,-115.1634,36.0719,663.00,39.00,34.00,82.08,50.00,7.00,T,30.05,M,10.00,M,BKN,OVC,M,M,2800.00,4800.00,M,M,M,M,M,M,M,M,M,33.31,KLAS 302031Z 05007KT 10SM BKN028 OVC048 04/01 A3005 RMK AO2 RAE01 P0000 T00390011,M
HND,2023-01-30 20:33,-115.1344,35.9729,742.79,37.40,35.60,93.14,50.00,4.00,T,30.05,M,10.00,M,SCT,BKN,OVC,M,800.00,1300.00,3300.00,M,-RA,M,M,M,M,M,M,33.73,KHND 302033Z 05004KT 10SM -RA SCT008 BKN013 OVC033 03/02 A3005 RMK AO2 P0000,M
BVU,2023-01-30 20:35,-114.8611,35.9475,671.00,39.20,33.80,80.79,M,5.00,0.00,30.03,M,10.00,12.00,M,M,M,M,M,M,M,M,M,M,M,M,M,M,M,34.95,KBVU 302035Z AUTO VRB05G12KT 10SM 04/01 A3003 RMK AO2,M
CXP,2023-01-30 20:35,-119.7326,39.1923,1431.00,19.40,5.00,52.89,70.00,6.00,0.00,30.25,M,10.00,M,CLR,M,M,M,M,M,M,M,M,M,M,M,M,M,M,10.36,KCXP 302035Z AUTO 07006KT 10SM CLR M07/M15 A3025 RMK AO2,M
RTS,2023-01-30 20:35,-119.8764,39.6682,1539.00,19.40,1.40,44.79,120.00,4.00,0.00,30.22,M,10.00,M,CLR,M,M,M,M,M,M,M,M,M,M,M,M,M,M,12.71,KRTS 302035Z AUTO 12004KT 10SM CLR M07/M17 A3022 RMK AO2,M
MEV,2023-01-30 20:35,-119.7500,38.9963,1441.42,17.60,5.00,57.14,0.00,0.00,0.00,30.24,M,10.00,M,CLR,M,M,M,M,M,M,M,M,M,M,M,M,M,M,17.60,KMEV 302035Z AUTO 00000KT 10SM CLR M08/M15 A3024 RMK AO2,M
BAM,2023-01-30 20:35,-116.8743,40.5990,1382.36,21.20,8.60,57.69,0.00,0.00,0.00,30.27,M,10.00,M,CLR,M,M,M,M,M,M,M,M,M,M,M,M,M,M,21.20,KBAM 302035Z AUTO 00000KT 10SM CLR M06/M13 A3027 RMK AO1,M
HND,2023-01-30 20:45,-115.1344,35.9729,742.79,37.40,35.60,93.14,70.00,4.00,T,30.05,M,10.00,M,BKN,BKN,OVC,M,800.00,1400.00,3300.00,M,-RA,M,M,M,M,M,M,33.73,KHND 302045Z 07004KT 10SM -RA BKN008 BKN014 OVC033 03/02 A3005 RMK AO2 CIG 006V010 P0000,M
05U,2023-01-30 20:50,-116.0051,39.6042,1811.23,15.80,-0.40,48.08,0.00,0.00,0.00,30.15,M,10.00,M,M,M,M,M,M,M,M,M,M,M,M,M,M,M,M,15.80,K05U 302050Z AUTO 00000KT 10SM M09/M18 A3015 RMK A01,M
P68,2023-01-30 20:53,-116.0056,39.6014,1993.00,12.90,1.00,58.29,0.00,0.00,0.00,30.12,1026.20,M,M,M,M,M,M,M,M,M,M,M,M,M,M,M,M,M,12.90,KP68 302053Z AUTO 00000KT M11/M17 A3012 RMK AO1 SLP262 T11061172 58003,M
DRA,2023-01-30 20:53,-116.0278,36.6206,1009.00,42.00,21.90,44.27,30.00,13.00,0.00,30.01,1015.80,10.00,M,BKN,OVC,M,M,8000.00,11000.00,M,M,M,M,M,M,M,M,M,34.51,KDRA 302053Z AUTO 03013KT 10SM BKN080 OVC110 06/M06 A3001 RMK AO2 SLP158 T00561056 58003,M
ELY,2023-01-30 20:53,-114.8453,39.2950,1909.00,10.00,1.90,69.13,30.00,8.00,0.00,30.07,1025.90,M,M,CLR,M,M,M,M,M,M,M,M,M,M,M,M,M,M,-2.99,KELY 302053Z AUTO 03008KT CLR M12/M17 A3007 RMK AO2 SLP259 60000 T11221167 58006 $,M
VGT,2023-01-30 20:53,-115.1933,36.2111,667.00,42.00,34.00,72.78,120.00,5.00,0.00,30.03,1019.10,10.00,M,OVC,M,M,M,4200.00,M,M,M,M,M,M,M,M,M,M,38.39,KVGT 302053Z 12005KT 10SM OVC042 06/01 A3003 RMK AO2 SLP191 60001 T00560011 58005,M
LOL,2023-01-30 20:53,-118.5701,40.0684,1192.43,26.10,5.00,39.90,M,4.00,0.00,30.27,1029.00,10.00,M,CLR,M,M,M,M,M,M,M,M,M,M,M,M,M,M,20.53,KLOL 302053Z AUTO VRB04KT 10SM CLR M03/M15 A3027 RMK AO2 SLP290 T10331150 58004,M
BVU,2023-01-30 20:55,-114.8611,35.9475,671.00,39.20,33.80,80.79,M,4.00,0.00,30.03,M,10.00,M,M,M,M,M,M,M,M,M,M,M,M,M,M,M,M,35.83,KBVU 302055Z AUTO VRB04KT 10SM 04/01 A3003 RMK AO2,M
CXP,2023-01-30 20:55,-119.7326,39.1923,1431.00,19.40,5.00,52.89,70.00,5.00,0.00,30.25,M,10.00,M,CLR,M,M,M,M,M,M,M,M,M,M,M,M,M,M,11.43,KCXP 302055Z AUTO 07005KT 10SM CLR M07/M15 A3025 RMK AO2,M
INS,2023-01-30 20:55,-115.6733,36.5872,955.00,39.40,29.70,67.94,0.00,0.00,0.00,30.03,1016.70,10.00,M,OVC,M,M,M,7000.00,M,M,M,M,M,M,M,M,M,M,39.40,KINS 302055Z AUTO 00000KT 10SM OVC070 04/M01 A3003 RMK AO2 SLP167 60000 T00411013 58007,M
RNO,2023-01-30 20:55,-119.7711,39.4839,1341.00,21.90,7.00,52.10,100.00,3.00,0.00,30.24,1028.10,10.00,M,CLR,M,M,M,M,M,M,M,M,M,M,M,M,M,M,17.14,KRNO 302055Z 10003KT 10SM CLR M06/M14 A3024 RMK AO2 SLP281 T10561139 58004,M
RTS,2023-01-30 20:55,-119.8764,39.6682,1539.00,19.40,-0.40,41.17,80.00,5.00,0.00,30.21,M,10.00,10.00,CLR,M,M,M,M,M,M,M,M,M,M,M,M,M,M,11.43,KRTS 302055Z AUTO 08005G10KT 10SM CLR M07/M18 A3021 RMK AO2,M
MEV,2023-01-30 20:55,-119.7500,38.9963,1441.42,17.60,6.80,62.02,0.00,0.00,0.00,30.24,M,10.00,M,CLR,M,M,M,M,M,M,M,M,M,M,M,M,M,M,17.60,KMEV 302055Z AUTO 00000KT 10SM CLR M08/M14 A3024 RMK AO2,M
BAM,2023-01-30 20:55,-116.8743,40.5990,1382.36,21.20,8.60,57.69,330.00,6.00,0.00,30.26,M,10.00,M,SCT,M,M,M,2900.00,M,M,M,M,M,M,M,M,M,M,12.52,KBAM 302055Z AUTO 33006KT 10SM SCT029 M06/M13 A3026 RMK AO1,M
EKO,2023-01-30 20:56,-115.7860,40.8242,1367.00,10.00,-2.00,57.57,0.00,0.00,0.00,30.20,1032.30,10.00,M,CLR,M,M,M,M,M,M,M,M,M,M,M,M,M,M,10.00,KEKO 302056Z AUTO 00000KT 10SM CLR M12/M19 A3020 RMK AO2 SLP323 T11221189 58012,M
NFL,2023-01-30 20:56,-118.7010,39.4166,1199.00,25.00,8.10,48.08,M,4.00,0.00,30.26,1020.80,10.00,M,SCT,M,M,M,3000.00,M,M,M,M,M,M,M,M,M,M,19.25,KNFL 302056Z VRB04KT 10SM SCT030 M04/M13 A3026 RMK AO2 SLP208 T10391133 58005,M
TPH,2023-01-30 20:56,-117.0904,38.0505,1654.00,M,M,M,320.00,21.00,0.00,30.06,M,M,30.00,CLR,M,M,M,M,M,M,M,M,M,M,M,30.00,310.00,2023-01-30 20:53,M,KTPH 302056Z AUTO 32021G30KT CLR A3006 RMK AO2 PK WND 31030/2053 SLPNO 58003 PWINO $,M
LAS,2023-01-30 20:56,-115.1634,36.0719,663.00,39.00,34.00,82.08,60.00,7.00,T,30.04,1017.60,10.00,M,FEW,BKN,OVC,M,1200.00,2800.00,5500.00,M,-RA,M,M,M,M,M,M,33.31,KLAS 302056Z 06007KT 10SM -RA FEW012 BKN028 OVC055 04/01 A3004 RMK AO2 RAE01B48 SLP176 BKN V SCT P0000 60002 T00390011 58006,M
HND,2023-01-30 20:56,-115.1344,35.9729,742.79,37.00,35.00,92.76,60.00,4.00,T,30.05,1020.00,10.00,M,BKN,BKN,OVC,M,800.00,1200.00,3400.00,M,-RA,M,M,M,M,M,M,33.26,KHND 302056Z 06004KT 10SM -RA BKN008 BKN012 OVC034 03/02 A3005 RMK AO2 SLP200 P0000 60004 T00280017 58006,M
LSV,2023-01-30 20:58,-115.0343,36.2362,570.00,39.70,39.60,99.61,80.00,10.00,0.00,30.03,1017.10,10.00,M,OVC,M,M,M,2900.00,M,M,M,M,M,M,M,M,M,M,32.62,KLSV 302058Z 08010KT 10SM OVC029 04/04 A3003 RMK SLP171 60000 T00430042 58007 $,M
05U,2023-01-30 21:10,-116.0051,39.6042,1811.23,15.80,-0.40,48.08,M,M,0.00,30.15,M,10.00,M,M,M,M,M,M,M,M,M,M,M,M,M,M,M,M,M,K05U 302110Z AUTO 10SM M09/M18 A3015 RMK A01,M
BVU,2023-01-30 21:15,-114.8611,35.9475,671.00,39.20,33.80,80.79,0.00,0.00,0.00,30.03,M,10.00,M,OVC,M,M,M,1300.00,M,M,M,M,M,M,M,M,M,M,39.20,KBVU 302115Z AUTO 00000KT 10SM OVC013 04/01 A3003 RMK AO2,M
CXP,2023-01-30 21:15,-119.7326,39.1923,1431.00,19.40,5.00,52.89,80.00,6.00,0.00,30.24,M,10.00,M,CLR,M,M,M,M,M,M,M,M,M,M,M,M,M,M,10.36,KCXP 302115Z AUTO 08006KT 10SM CLR M07/M15 A3024 RMK AO2,M
RTS,2023-01-30 21:15,-119.8764,39.6682,1539.00,19.40,1.40,44.79,110.00,6.00,0.00,30.21,M,10.00,M,CLR,M,M,M,M,M,M,M,M,M,M,M,M,M,M,10.36,KRTS 302115Z AUTO 11006KT 10SM CLR M07/M17 A3021 RMK AO2,M
MEV,2023-01-30 21:15,-119.7500,38.9963,1441.42,19.40,6.80,57.41,200.00,4.00,0.00,30.22,M,10.00,M,CLR,M,M,M,M,M,M,M,M,M,M,M,M,M,M,12.71,KMEV 302115Z AUTO 20004KT 10SM CLR M07/M14 A3022 RMK AO2,M
BAM,2023-01-30 21:15,-116.8743,40.5990,1382.36,21.20,8.60,57.69,300.00,4.00,0.00,30.24,M,10.00,M,SCT,M,M,M,2900.00,M,M,M,M,M,M,M,M,M,M,14.81,KBAM 302115Z AUTO 30004KT 10SM SCT029 M06/M13 A3024 RMK AO1,M
LAS,2023-01-30 21:18,-115.1634,36.0719,663.00,40.00,34.00,79.25,60.00,6.00,T,30.04,M,10.00,M,SCT,BKN,OVC,M,2800.00,4200.00,5500.00,M,-RA,M,M,M,M,M,M,35.04,KLAS 302118Z 06006KT 10SM -RA SCT028 BKN042 OVC055 04/01 A3004 RMK AO2 SCT V BKN P0000 T00440011,M
HND,2023-01-30 21:22,-115.1344,35.9729,742.79,37.40,33.80,86.69,70.00,4.00,T,30.05,M,10.00,M,BKN,OVC,M,M,1000.00,3100.00,M,M,-RA,M,M,M,M,M,M,33.73,KHND 302122Z 07004KT 10SM -RA BKN010 OVC031 03/01 A3005 RMK AO2 CIG 007V013 P0000,M
05U,2023-01-30 21:30,-116.0051,39.6042,1811.23,17.60,-0.40,44.48,M,M,0.00,30.15,M,10.00,M,M,M,M,M,M,M,M,M,M,M,M,M,M,M,M,M,K05U 302130Z AUTO 10SM M08/M18 A3015 RMK A01,M
BVU,2023-01-30 21:35,-114.8611,35.9475,671.00,39.20,33.80,80.79,0.00,0.00,0.00,30.03,M,10.00,11.00,BKN,OVC,M,M,1400.00,3000.00,M,M,M,M,M,M,M,M,M,39.20,KBVU 302135Z AUTO 00000G11KT 10SM BKN014 OVC030 04/01 A3003 RMK AO2,M
CXP,2023-01-30 21:35,-119.7326,39.1923,1431.00,21.20,5.00,48.99,60.00,5.00,0.00,30.24,M,10.00,M,CLR,M,M,M,M,M,M,M,M,M,M,M,M,M,M,13.57,KCXP 302135Z AUTO 06005KT 10SM CLR M06/M15 A3024 RMK AO2,M
RTS,2023-01-30 21:35,-119.8764,39.6682,1539.00,19.40,-0.40,41.17,90.00,7.00,0.00,30.21,M,10.00,M,CLR,M,M,M,M,M,M,M,M,M,M,M,M,M,M,9.42,KRTS 302135Z AUTO 09007KT 10SM CLR M07/M18 A3021 RMK AO2,M
MEV,2023-01-30 21:35,-119.7500,38.9963,1441.42,19.40,6.80,57.41,0.00,0.00,0.00,30.22,M,10.00,M,CLR,M,M,M,M,M,M,M,M,M,M,M,M,M,M,19.40,KMEV 302135Z AUTO 00000KT 10SM CLR M07/M14 A3022 RMK AO2,M
BAM,2023-01-30 21:35,-116.8743,40.5990,1382.36,23.00,10.40,57.96,360.00,6.00,0.00,30.24,M,10.00,M,CLR,M,M,M,M,M,M,M,M,M,M,M,M,M,M,14.69,KBAM 302135Z AUTO 36006KT 10SM CLR M05/M12 A3024 RMK AO1,M
HND,2023-01-30 21:36,-115.1344,35.9729,742.79,37.40,35.60,93.14,0.00,0.00,T,30.05,M,10.00,M,SCT,BKN,OVC,M,1000.00,2500.00,3300.00,M,-RA,M,M,M,M,M,M,37.40,KHND 302136Z 00000KT 10SM -RA SCT010 BKN025 OVC033 03/02 A3005 RMK AO2 P0000,M
HND,2023-01-30 21:45,-115.1344,35.9729,742.79,37.40,33.80,86.69,50.00,3.00,T,30.05,M,10.00,M,BKN,BKN,OVC,M,1000.00,2500.00,3400.00,M,-RA,M,M,M,M,M,M,34.86,KHND 302145Z 05003KT 10SM -RA BKN010 BKN025 OVC034 03/01 A3005 RMK AO2 CIG 008V013 P0000,M
05U,2023-01-30 21:50,-116.0051,39.6042,1811.23,17.60,-0.40,44.48,0.00,0.00,0.00,30.14,M,10.00,M,M,M,M,M,M,M,M,M,M,M,M,M,M,M,M,17.60,K05U 302150Z AUTO 00000KT 10SM M08/M18 A3014 RMK A01,M
P68,2023-01-30 21:53,-116.0056,39.6014,1993.00,12.00,1.00,60.65,160.00,4.00,0.00,30.12,1026.30,M,M,M,M,M,M,M,M,M,M,M,M,M,M,M,M,M,4.07,KP68 302153Z AUTO 16004KT M11/M17 A3012 RMK AO1 SLP263 T11111172,M
ELY,2023-01-30 21:53,-114.8453,39.2950,1909.00,9.00,1.90,72.30,350.00,7.00,0.00,30.07,1025.80,M,M,CLR,M,M,M,M,M,M,M,M,M,M,M,M,M,M,-3.26,KELY 302153Z AUTO 35007KT CLR M13/M17 A3007 RMK AO2 SLP258 T11281167 $,M
VGT,2023-01-30 21:53,-115.1933,36.2111,667.00,42.00,34.00,72.78,120.00,5.00,0.00,30.03,1019.10,10.00,M,FEW,FEW,OVC,M,3200.00,5000.00,5400.00,M,M,M,M,M,M,M,M,38.39,KVGT 302153Z 12005KT 10SM FEW032 FEW050 OVC054 06/01 A3003 RMK AO2 SLP191 T00560011,M
LOL,2023-01-30 21:53,-118.5701,40.0684,1192.43,27.00,5.00,38.44,M,3.00,0.00,30.24,1027.90,10.00,M,CLR,M,M,M,M,M,M,M,M,M,M,M,M,M,M,22.97,KLOL 302153Z AUTO VRB03KT 10SM CLR M03/M15 A3024 RMK AO2 SLP279 T10281150,M
DRA,2023-01-30 21:53,-116.0278,36.6206,1009.00,42.00,19.90,40.67,40.00,17.00,0.00,30.02,1015.90,10.00,M,OVC,M,M,M,6000.00,M,M,M,M,M,M,M,M,M,M,33.31,KDRA 302153Z AUTO 04017KT 10SM OVC060 06/M07 A3002 RMK AO2 SLP159 T00561067,M
BVU,2023-01-30 21:55,-114.8611,35.9475,671.00,39.20,33.80,80.79,10.00,9.00,0.00,30.03,M,10.00,M,FEW,SCT,OVC,M,1400.00,2300.00,3100.00,M,M,M,M,M,M,M,M,32.47,KBVU 302155Z AUTO 01009KT 10SM FEW014 SCT023 OVC031 04/01 A3003 RMK AO2,M
CXP,2023-01-30 21:55,-119.7326,39.1923,1431.00,21.20,5.00,48.99,60.00,6.00,0.00,30.23,M,10.00,M,CLR,M,M,M,M,M,M,M,M,M,M,M,M,M,M,12.52,KCXP 302155Z AUTO 06006KT 10SM CLR M06/M15 A3023 RMK AO2,M
INS,2023-01-30 21:55,-115.6733,36.5872,955.00,40.50,27.70,59.98,0.00,0.00,0.00,30.03,1016.70,10.00,M,OVC,M,M,M,3500.00,M,M,M,M,M,M,M,M,M,M,40.50,KINS 302155Z AUTO 00000KT 10SM OVC035 05/M02 A3003 RMK AO2 SLP167 T00471024,M
RNO,2023-01-30 21:55,-119.7711,39.4839,1341.00,25.00,8.10,48.08,80.00,6.00,0.00,30.22,1027.40,10.00,M,CLR,M,M,M,M,M,M,M,M,M,M,M,M,M,M,17.10,KRNO 302155Z 08006KT 10SM CLR M04/M13 A3022 RMK AO2 SLP274 T10391133,M
RTS,2023-01-30 21:55,-119.8764,39.6682,1539.00,19.40,1.40,44.79,120.00,7.00,0.00,30.19,M,10.00,M,CLR,M,M,M,M,M,M,M,M,M,M,M,M,M,M,9.42,KRTS 302155Z AUTO 12007KT 10SM CLR M07/M17 A3019 RMK AO2,M
MEV,2023-01-30 21:55,-119.7500,38.9963,1441.42,19.40,6.80,57.41,0.00,0.00,0.00,30.22,M,10.00,M,CLR,M,M,M,M,M,M,M,M,M,M,M,M,M,M,19.40,KMEV 302155Z AUTO 00000KT 10SM CLR M07/M14 A3022 RMK AO2,M
BAM,2023-01-30 21:55,-116.8743,40.5990,1382.36,21.20,8.60,57.69,320.00,3.00,0.00,30.24,M,10.00,M,CLR,M,M,M,M,M,M,M,M,M,M,M,M,M,M,16.34,KBAM 302155Z AUTO 32003KT 10SM CLR M06/M13 A3024 RMK AO1,M
EKO,2023-01-30 21:56,-115.7860,40.8242,1367.00,12.00,0.00,57.88,0.00,0.00,0.00,30.19,1031.90,10.00,M,CLR,M,M,M,M,M,M,M,M,M,M,M,M,M,M,12.00,KEKO 302156Z AUTO 00000KT 10SM CLR M11/M18 A3019 RMK AO2 SLP319 T11111178,M
NFL,2023-01-30 21:56,-118.7010,39.4166,1199.00,27.00,8.10,44.26,30.00,6.00,0.00,30.25,1020.60,10.00,M,SCT,M,M,M,3000.00,M,M,M,M,M,M,M,M,M,M,19.51,KNFL 302156Z 03006KT 10SM SCT030 M03/M13 A3025 RMK AO2 SLP206 T10281133,M
HND,2023-01-30 21:56,-115.1344,35.9729,742.79,37.00,34.00,88.78,40.00,5.00,T,30.05,1020.10,10.00,M,FEW,BKN,OVC,M,1000.00,2500.00,3000.00,M,-RA,M,M,M,M,M,M,32.33,KHND 302156Z 04005KT 10SM -RA FEW010 BKN025 OVC030 03/01 A3005 RMK AO2 SLP201 P0000 T00280011,M
TPH,2023-01-30 21:56,-117.0904,38.0505,1654.00,M,M,M,330.00,22.00,0.00,30.06,M,M,27.00,CLR,M,M,M,M,M,M,M,M,M,M,M,30.00,320.00,2023-01-30 21:42,M,KTPH 302156Z AUTO 33022G27KT CLR A3006 RMK AO2 PK WND 32030/2142 SLPNO PWINO $,M
LAS,2023-01-30 21:56,-115.1634,36.0719,663.00,40.00,32.00,73.14,90.00,6.00,0.01,30.04,1017.50,10.00,M,OVC,M,M,M,4700.00,M,M,M,M,M,M,M,M,M,M,35.04,KLAS 302156Z 09006KT 10SM OVC047 04/00 A3004 RMK AO2 RAE48 SLP175 P0001 T00440000,M
LSV,2023-01-30 21:58,-115.0343,36.2362,570.00,39.70,39.60,99.61,80.00,9.00,0.00,30.02,1016.90,10.00,M,BKN,M,M,M,4700.00,M,M,M,M,M,M,M,M,M,M,33.09,KLSV 302158Z 08009KT 10SM BKN047 04/04 A3002 RMK SLP169 T00430042 $,M
LSV,2023-01-30 22:06,-115.0343,36.2362,570.00,41.00,41.00,100.00,80.00,8.00,0.00,30.02,M,10.00,M,BKN,M,M,M,4700.00,M,M,M,-RA,M,M,M,M,M,M,35.20,KLSV 302206Z 08008KT 10SM -RA BKN047 05/05 A3002,M
HND,2023-01-30 22:09,-115.1344,35.9729,742.79,37.40,33.80,86.69,40.00,6.00,T,30.05,M,10.00,M,SCT,BKN,OVC,M,1400.00,3000.00,3500.00,M,-RA,M,M,M,M,M,M,32.03,KHND 302209Z 04006KT 10SM -RA SCT014 BKN030 OVC035 03/01 A3005 RMK AO2 P0000,M
CXP,2023-01-30 22:10,-119.7326,39.1923,1431.00,21.20,5.00,48.99,70.00,5.00,0.00,30.23,M,10.00,M,CLR,M,M,M,M,M,M,M,M,M,M,M,M,M,M,13.57,KCXP 302210Z AUTO 07005KT 10SM CLR M06/M15 A3023 RMK AO2,M
05U,2023-01-30 22:10,-116.0051,39.6042,1811.23,15.80,-0.40,48.08,M,M,0.00,30.14,M,10.00,M,M,M,M,M,M,M,M,M,M,M,M,M,M,M,M,M,K05U 302210Z AUTO 10SM M09/M18 A3014 RMK A01,M
BVU,2023-01-30 22:15,-114.8611,35.9475,671.00,41.00,33.80,75.33,350.00,13.00,0.00,30.03,M,10.00,21.00,SCT,OVC,M,M,2500.00,3100.00,M,M,M,M,M,M,M,M,M,33.10,KBVU 302215Z AUTO 35013G21KT 10SM SCT025 OVC031 05/01 A3003 RMK AO2,M
RTS,2023-01-30 22:15,-119.8764,39.6682,1539.00,19.40,-0.40,41.17,120.00,6.00,0.00,30.19,M,10.00,M,CLR,M,M,M,M,M,M,M,M,M,M,M,M,M,M,10.36,KRTS 302215Z AUTO 12006KT 10SM CLR M07/M18 A3019 RMK AO2,M
MEV,2023-01-30 22:15,-119.7500,38.9963,1441.42,21.20,6.80,53.18,0.00,0.00,0.00,30.21,M,10.00,M,CLR,M,M,M,M,M,M,M,M,M,M,M,M,M,M,21.20,KMEV 302215Z AUTO 00000KT 10SM CLR M06/M14 A3021 RMK AO2,M
BAM,2023-01-30 22:15,-116.8743,40.5990,1382.36,23.00,8.60,53.47,0.00,0.00,0.00,30.24,M,10.00,M,CLR,M,M,M,M,M,M,M,M,M,M,M,M,M,M,23.00,KBAM 302215Z AUTO 00000KT 10SM CLR M05/M13 A3024 RMK AO1,M
LSV,2023-01-30 22:24,-115.0343,36.2362,570.00,41.00,41.00,100.00,80.00,8.00,0.00,30.02,M,10.00,M,BKN,M,M,M,3800.00,M,M,M,M,M,M,M,M,M,M,35.20,KLSV 302224Z 08008KT 10SM BKN038 05/05 A3002,M
HND,2023-01-30 22:28,-115.1344,35.9729,742.79,37.40,35.60,93.14,100.00,4.00,0.01,30.05,M,10.00,M,FEW,BKN,OVC,M,1300.00,2900.00,3500.00,M,-RA,M,M,M,M,M,M,33.73,KHND 302228Z 10004KT 10SM -RA FEW013 BKN029 OVC035 03/02 A3005 RMK AO2 P0001,M
05U,2023-01-30 22:30,-116.0051,39.6042,1811.23,17.60,-0.40,44.48,M,M,0.00,30.14,M,10.00,M,M,M,M,M,M,M,M,M,M,M,M,M,M,M,M,M,K05U 302230Z AUTO 10SM M08/M18 A3014 RMK A01,M
BVU,2023-01-30 22:35,-114.8611,35.9475,671.00,41.00,32.00,70.08,350.00,14.00,0.00,30.03,M,10.00,20.00,FEW,SCT,SCT,M,2300.00,3100.00,9000.00,M,M,M,M,M,M,M,M,32.76,KBVU 302235Z AUTO 35014G20KT 10SM FEW023 SCT031 SCT090 05/M00 A3003 RMK AO2,M
CXP,2023-01-30 22:35,-119.7326,39.1923,1431.00,21.20,5.00,48.99,40.00,5.00,0.00,30.23,M,10.00,M,CLR,M,M,M,M,M,M,M,M,M,M,M,M,M,M,13.57,KCXP 302235Z AUTO 04005KT 10SM CLR M06/M15 A3023 RMK AO2,M
RTS,2023-01-30 22:35,-119.8764,39.6682,1539.00,21.20,1.40,41.49,100.00,7.00,0.00,30.19,M,10.00,M,CLR,M,M,M,M,M,M,M,M,M,M,M,M,M,M,11.61,KRTS 302235Z AUTO 10007KT 10SM CLR M06/M17 A3019 RMK AO2,M
MEV,2023-01-30 22:35,-119.7500,38.9963,1441.42,21.20,6.80,53.18,200.00,3.00,0.00,30.21,M,10.00,M,CLR,M,M,M,M,M,M,M,M,M,M,M,M,M,M,16.34,KMEV 302235Z AUTO 20003KT 10SM CLR M06/M14 A3021 RMK AO2,M
BAM,2023-01-30 22:35,-116.8743,40.5990,1382.36,23.00,8.60,53.47,320.00,3.00,0.00,30.24,M,10.00,M,CLR,M,M,M,M,M,M,M,M,M,M,M,M,M,M,18.40,KBAM 302235Z AUTO 32003KT 10SM CLR M05/M13 A3024 RMK AO1,M
05U,2023-01-30 22:50,-116.0051,39.6042,1811.23,17.60,-0.40,44.48,M,M,0.00,30.14,M,10.00,M,M,M,M,M,M,M,M,M,M,M,M,M,M,M,M,M,K05U 302250Z AUTO 10SM M08/M18 A3014 RMK A01,M
P68,2023-01-30 22:53,-116.0056,39.6014,1993.00,12.00,0.00,57.88,0.00,0.00,0.00,30.12,1026.60,M,M,M,M,M,M,M,M,M,M,M,M,M,M,M,M,M,12.00,KP68 302253Z AUTO 00000KT M11/M18 A3012 RMK AO1 SLP266 T11111178,M
ELY,2023-01-30 22:53,-114.8453,39.2950,1909.00,10.00,1.90,69.13,350.00,4.00,0.00,30.08,1026.40,M,M,CLR,M,M,M,M,M,M,M,M,M,M,M,M,M,M,1.73,KELY 302253Z AUTO 35004KT CLR M12/M17 A3008 RMK AO2 SLP264 T11221167 $,M
VGT,2023-01-30 22:53,-115.1933,36.2111,667.00,43.00,33.00,67.82,130.00,6.00,0.00,30.04,1019.30,10.00,M,BKN,OVC,M,M,5500.00,9000.00,M,M,M,M,M,M,M,M,M,38.78,KVGT 302253Z 13006KT 10SM BKN055 OVC090 06/01 A3004 RMK AO2 SLP193 T00610006,M
LOL,2023-01-30 22:53,-118.5701,40.0684,1192.43,28.00,4.00,35.07,30.00,5.00,0.00,30.24,1027.90,10.00,M,CLR,M,M,M,M,M,M,M,M,M,M,M,M,M,M,21.64,KLOL 302253Z AUTO 03005KT 10SM CLR M02/M16 A3024 RMK AO2 SLP279 T10221156,M
DRA,2023-01-30 22:53,-116.0278,36.6206,1009.00,42.00,19.90,40.67,40.00,15.00,0.00,30.03,1016.20,10.00,M,BKN,BKN,OVC,M,6000.00,8000.00,9500.00,M,M,M,M,M,M,M,M,33.87,KDRA 302253Z AUTO 04015KT 10SM BKN060 BKN080 OVC095 06/M07 A3003 RMK AO2 SLP162 T00561067,M
BVU,2023-01-30 22:55,-114.8611,35.9475,671.00,41.00,30.20,65.16,360.00,16.00,0.00,30.03,M,10.00,22.00,BKN,BKN,M,M,3700.00,8500.00,M,M,M,M,M,M,M,M,M,32.15,KBVU 302255Z AUTO 36016G22KT 10SM BKN037 BKN085 05/M01 A3003 RMK AO2,M
CXP,2023-01-30 22:55,-119.7326,39.1923,1431.00,21.20,5.00,48.99,70.00,4.00,0.00,30.22,M,10.00,M,CLR,M,M,M,M,M,M,M,M,M,M,M,M,M,M,14.81,KCXP 302255Z AUTO 07004KT 10SM CLR M06/M15 A3022 RMK AO2,M
INS,2023-01-30 22:55,-115.6733,36.5872,955.00,41.00,28.60,61.04,150.00,7.00,0.00,30.04,1017.00,10.00,M,OVC,M,M,M,4000.00,M,M,M,M,M,M,M,M,M,M,35.75,KINS 302255Z AUTO 15007KT 10SM OVC040 05/M02 A3004 RMK AO2 SLP170 T00501019,M
RNO,2023-01-30 22:55,-119.7711,39.4839,1341.00,25.00,8.10,48.08,160.00,6.00,0.00,30.21,1027.20,10.00,M,CLR,M,M,M,M,M,M,M,M,M,M,M,M,M,M,17.10,KRNO 302255Z 16006KT 10SM CLR M04/M13 A3021 RMK AO2 SLP272 T10391133,M
LSV,2023-01-30 22:55,-115.0343,36.2362,570.00,42.80,41.00,93.30,50.00,14.00,0.00,30.02,1016.80,10.00,18.00,SCT,BKN,M,M,2100.00,6500.00,M,M,M,M,M,M,M,M,M,35.08,KLSV 302255Z 05014G18KT 10SM SCT021 BKN065 06/05 A3002 RMK SLP168,M
RTS,2023-01-30 22:55,-119.8764,39.6682,1539.00,21.20,1.40,41.49,100.00,7.00,0.00,30.19,M,10.00,M,CLR,M,M,M,M,M,M,M,M,M,M,M,M,M,M,11.61,KRTS 302255Z AUTO 10007KT 10SM CLR M06/M17 A3019 RMK AO2,M
MEV,2023-01-30 22:55,-119.7500,38.9963,1441.42,21.20,6.80,53.18,0.00,0.00,0.00,30.21,M,10.00,M,CLR,M,M,M,M,M,M,M,M,M,M,M,M,M,M,21.20,KMEV 302255Z AUTO 00000KT 10SM CLR M06/M14 A3021 RMK AO2,M
BAM,2023-01-30 22:55,-116.8743,40.5990,1382.36,23.00,8.60,53.47,0.00,0.00,0.00,30.25,M,10.00,M,CLR,M,M,M,M,M,M,M,M,M,M,M,M,M,M,23.00,KBAM 302255Z AUTO 00000KT 10SM CLR M05/M13 A3025 RMK AO1,M
EKO,2023-01-30 22:56,-115.7860,40.8242,1367.00,12.90,1.00,58.29,170.00,3.00,0.00,30.20,1032.30,10.00,M,CLR,M,M,M,M,M,M,M,M,M,M,M,M,M,M,6.85,KEKO 302256Z AUTO 17003KT 10SM CLR M11/M17 A3020 RMK AO2 SLP323 T11061172,M
NFL,2023-01-30 22:56,-118.7010,39.4166,1199.00,26.10,7.00,43.70,M,4.00,0.00,30.24,1020.20,10.00,M,FEW,M,M,M,3000.00,M,M,M,M,M,M,M,M,M,M,20.53,KNFL 302256Z VRB04KT 10SM FEW030 M03/M14 A3024 RMK AO2 SLP202 T10331139,M
TPH,2023-01-30 22:56,-117.0904,38.0505,1654.00,M,M,M,320.00,19.00,0.00,30.06,M,M,29.00,CLR,M,M,M,M,M,M,M,M,M,M,M,31.00,320.00,2023-01-30 22:46,M,KTPH 302256Z AUTO 32019G29KT CLR A3006 RMK AO2 PK WND 32031/2246 SLPNO PWINO $,M
LAS,2023-01-30 22:56,-115.1634,36.0719,663.00,39.00,34.00,82.08,120.00,4.00,0.00,30.05,1017.90,10.00,M,SCT,BKN,BKN,BKN,2900.00,4900.00,6000.00,20000.00,M,M,M,M,M,M,M,35.59,KLAS 302256Z 12004KT 10SM SCT029 BKN049 BKN060 BKN200 04/01 A3005 RMK AO2 SLP179 VCSH SE-SW T00390011,M
HND,2023-01-30 22:56,-115.1344,35.9729,742.79,38.00,35.00,89.53,80.00,6.00,0.01,30.05,1020.10,10.00,M,FEW,OVC,M,M,1000.00,3900.00,M,M,-RA,M,M,M,M,M,M,32.64,KHND 302256Z 08006KT 10SM -RA FEW010 OVC039 03/02 A3005 RMK AO2 SLP201 P0001 T00330017,M
LSV,2023-01-30 22:57,-115.0343,36.2362,570.00,42.80,39.20,86.99,70.00,10.00,0.00,30.02,1016.80,10.00,18.00,BKN,M,M,M,4100.00,M,M,M,M,M,M,M,M,M,M,36.51,KLSV 302257Z AUTO 07010G18KT 10SM BKN041 06/04 A3002 RMK AO2 SLP168 $,M
05U,2023-01-30 23:10,-116.0051,39.6042,1811.23,17.60,-0.40,44.48,0.00,0.00,0.00,30.15,M,10.00,M,M,M,M,M,M,M,M,M,M,M,M,M,M,M,M,17.60,K05U 302310Z AUTO 00000KT 10SM M08/M18 A3015 RMK A01,M
BVU,2023-01-30 23:15,-114.8611,35.9475,671.00,41.00,28.40,60.54,360.00,13.00,0.00,30.03,M,10.00,22.00,BKN,BKN,OVC,M,3800.00,6500.00,8000.00,M,M,M,M,M,M,M,M,33.10,KBVU 302315Z AUTO 36013G22KT 10SM BKN038 BKN065 OVC080 05/M02 A3003 RMK AO2,M
CXP,2023-01-30 23:15,-119.7326,39.1923,1431.00,21.20,5.00,48.99,0.00,0.00,0.00,30.22,M,10.00,M,CLR,M,M,M,M,M,M,M,M,M,M,M,M,M,M,21.20,KCXP 302315Z AUTO 00000KT 10SM CLR M06/M15 A3022 RMK AO2,M
RTS,2023-01-30 23:15,-119.8764,39.6682,1539.00,21.20,1.40,41.49,120.00,5.00,0.00,30.19,M,10.00,M,M,M,M,M,M,M,M,M,M,M,M,M,M,M,M,13.57,KRTS 302315Z AUTO 12005KT 10SM M06/M17 A3019 RMK AO2,M
MEV,2023-01-30 23:15,-119.7500,38.9963,1441.42,21.20,6.80,53.18,0.00,0.00,0.00,30.21,M,10.00,M,CLR,M,M,M,M,M,M,M,M,M,M,M,M,M,M,21.20,KMEV 302315Z AUTO 00000KT 10SM CLR M06/M14 A3021 RMK AO2,M
BAM,2023-01-30 23:15,-116.8743,40.5990,1382.36,23.00,8.60,53.47,330.00,4.00,0.00,30.25,M,10.00,M,CLR,M,M,M,M,M,M,M,M,M,M,M,M,M,M,16.91,KBAM 302315Z AUTO 33004KT 10SM CLR M05/M13 A3025 RMK AO1,M
LSV,2023-01-30 23:29,-115.0343,36.2362,570.00,44.60,33.80,65.61,50.00,11.00,0.00,30.02,1016.60,10.00,M,SCT,M,M,M,4600.00,M,M,M,M,M,M,M,M,M,M,38.39,KLSV 302329Z AUTO 05011KT 10SM SCT046 07/01 A3002 RMK AO2 SLP166 $,M
05U,2023-01-30 23:30,-116.0051,39.6042,1811.23,15.80,-0.40,48.08,0.00,0.00,0.00,30.16,M,10.00,M,M,M,M,M,M,M,M,M,M,M,M,M,M,M,M,15.80,K05U 302330Z AUTO 00000KT 10SM M09/M18 A3016 RMK A01,M
BVU,2023-01-30 23:35,-114.8611,35.9475,671.00,42.80,28.40,56.48,360.00,11.00,0.00,30.03,M,10.00,18.00,BKN,BKN,M,M,4000.00,8000.00,M,M,M,M,M,M,M,M,M,36.11,KBVU 302335Z AUTO 36011G18KT 10SM BKN040 BKN080 06/M02 A3003 RMK AO2,M
CXP,2023-01-30 23:35,-119.7326,39.1923,1431.00,21.20,6.80,53.18,0.00,0.00,0.00,30.23,M,10.00,M,CLR,M,M,M,M,M,M,M,M,M,M,M,M,M,M,21.20,KCXP 302335Z AUTO 00000KT 10SM CLR M06/M14 A3023 RMK AO2,M
RTS,2023-01-30 23:35,-119.8764,39.6682,1539.00,21.20,1.40,41.49,110.00,4.00,0.00,30.20,M,10.00,M,CLR,M,M,M,M,M,M,M,M,M,M,M,M,M,M,14.81,KRTS 302335Z AUTO 11004KT 10SM CLR M06/M17 A3020 RMK AO2,M
MEV,2023-01-30 23:35,-119.7500,38.9963,1441.42,21.20,6.80,53.18,260.00,3.00,0.00,30.21,M,10.00,M,CLR,M,M,M,M,M,M,M,M,M,M,M,M,M,M,16.34,KMEV 302335Z AUTO 26003KT 10SM CLR M06/M14 A3021 RMK AO2,M
BAM,2023-01-30 23:35,-116.8743,40.5990,1382.36,23.00,8.60,53.47,360.00,4.00,0.00,30.25,M,10.00,M,CLR,M,M,M,M,M,M,M,M,M,M,M,M,M,M,16.91,KBAM 302335Z AUTO 36004KT 10SM CLR M05/M13 A3025 RMK AO1,M
05U,2023-01-30 23:50,-116.0051,39.6042,1811.23,15.80,-2.20,44.16,M,M,0.00,30.16,M,10.00,M,M,M,M,M,M,M,M,M,M,M,M,M,M,M,M,M,K05U 302350Z AUTO 10SM M09/M19 A3016 RMK A01,M
P68,2023-01-30 23:53,-116.0056,39.6014,1993.00,14.00,-0.90,50.80,70.00,3.00,0.00,30.13,1027.20,M,M,M,M,M,M,M,M,M,M,M,M,M,M,M,M,M,8.11,KP68 302353Z AUTO 07003KT M10/M18 A3013 RMK AO1 SLP272 T11001183 11089 21144 53004,M
DRA,2023-01-30 23:53,-116.0278,36.6206,1009.00,41.00,19.90,42.44,30.00,14.00,0.00,30.03,1016.50,10.00,M,BKN,OVC,M,M,5500.00,12000.00,M,M,M,M,M,M,M,M,M,32.76,KDRA 302353Z AUTO 03014KT 10SM BKN055 OVC120 05/M07 A3003 RMK AO2 SLP165 T00501067 10072 20039 53005,M
ELY,2023-01-30 23:53,-114.8453,39.2950,1909.00,9.00,1.00,69.33,350.00,4.00,0.00,30.09,1027.20,M,M,CLR,M,M,M,M,M,M,M,M,M,M,M,M,M,M,0.56,KELY 302353Z AUTO 35004KT CLR M13/M17 A3009 RMK AO2 SLP272 60000 T11281172 11111 21150 53005 $,M
VGT,2023-01-30 23:53,-115.1933,36.2111,667.00,47.00,30.90,53.50,M,M,0.00,30.03,1019.10,10.00,M,CLR,M,M,M,M,M,M,M,M,M,M,M,M,M,M,M,KVGT 302353Z 10SM CLR 08/M01 A3003 RMK AO2 SLP191 60001 T00831006 10083 20050 50001,M
LOL,2023-01-30 23:53,-118.5701,40.0684,1192.43,28.00,4.00,35.07,0.00,0.00,0.00,30.25,1028.20,10.00,M,CLR,M,M,M,M,M,M,M,M,M,M,M,M,M,M,28.00,KLOL 302353Z AUTO 00000KT 10SM CLR M02/M16 A3025 RMK AO2 SLP282 T10221156 11017 21067 55008,M
BVU,2023-01-30 23:55,-114.8611,35.9475,671.00,42.80,26.60,52.45,10.00,12.00,0.00,30.04,M,10.00,20.00,OVC,M,M,M,4300.00,M,M,M,M,M,M,M,M,M,M,35.75,KBVU 302355Z AUTO 01012G20KT 10SM OVC043 06/M03 A3004 RMK AO2,M
CXP,2023-01-30 23:55,-119.7326,39.1923,1431.00,21.20,6.80,53.18,0.00,0.00,0.00,30.23,M,10.00,M,CLR,M,M,M,M,M,M,M,M,M,M,M,M,M,M,21.20,KCXP 302355Z AUTO 00000KT 10SM CLR M06/M14 A3023 RMK AO2,M
INS,2023-01-30 23:55,-115.6733,36.5872,955.00,40.50,27.70,59.98,190.00,5.00,0.00,30.04,1017.00,10.00,M,FEW,SCT,OVC,M,4200.00,6500.00,8500.00,M,M,M,M,M,M,M,M,36.49,KINS 302355Z AUTO 19005KT 10SM FEW042 SCT065 OVC085 05/M02 A3004 RMK AO2 SLP170 60000 T00471024 10051 20019 52005,M
RNO,2023-01-30 23:55,-119.7711,39.4839,1341.00,25.00,8.10,48.08,140.00,6.00,0.00,30.21,1027.60,10.00,M,CLR,M,M,M,M,M,M,M,M,M,M,M,M,M,M,17.10,KRNO 302355Z 14006KT 10SM CLR M04/M13 A3021 RMK AO2 SLP276 4/001 T10391133 11028 21089 55007,1
LSV,2023-01-30 23:55,-115.0343,36.2362,570.00,45.00,29.50,54.11,30.00,16.00,0.00,30.03,1017.00,10.00,22.00,FEW,BKN,M,M,4700.00,5500.00,M,M,M,M,M,M,M,M,M,37.49,KLSV 302355Z AUTO 03016G22KT 10SM FEW047 BKN055 07/M01 A3003 RMK AO2 SLP170 60000 T00731014 10073 20037 55000 $,M
RTS,2023-01-30 23:55,-119.8764,39.6682,1539.00,21.20,3.20,45.10,90.00,8.00,0.00,30.19,M,10.00,M,CLR,M,M,M,M,M,M,M,M,M,M,M,M,M,M,10.81,KRTS 302355Z AUTO 09008KT 10SM CLR M06/M16 A3019 RMK AO2,M
MEV,2023-01-30 23:55,-119.7500,38.9963,1441.42,19.40,6.80,57.41,0.00,0.00,0.00,30.22,M,10.00,M,CLR,M,M,M,M,M,M,M,M,M,M,M,M,M,M,19.40,KMEV 302355Z AUTO 00000KT 10SM CLR M07/M14 A3022 RMK AO2,M
BAM,2023-01-30 23:55,-116.8743,40.5990,1382.36,23.00,8.60,53.47,360.00,4.00,0.00,30.26,M,10.00,M,CLR,M,M,M,M,M,M,M,M,M,M,M,M,M,M,16.91,KBAM 302355Z AUTO 36004KT 10SM CLR M05/M13 A3026 RMK AO1,M
EKO,2023-01-30 23:56,-115.7860,40.8242,1367.00,12.90,1.00,58.29,210.00,4.00,0.00,30.21,1032.70,10.00,M,CLR,M,M,M,M,M,M,M,M,M,M,M,M,M,M,5.12,KEKO 302356Z AUTO 21004KT 10SM CLR M11/M17 A3021 RMK AO2 SLP327 T11061172 11089 21161 53003,M
NFL,2023-01-30 23:56,-118.7010,39.4166,1199.00,27.00,5.00,38.44,350.00,6.00,0.00,30.25,1020.40,10.00,M,FEW,M,M,M,4000.00,M,M,M,M,M,M,M,M,M,M,19.51,KNFL 302356Z 35006KT 10SM FEW040 M03/M15 A3025 RMK AO2 SLP204 T10281150 11022 21067 55005,M
TPH,2023-01-30 23:56,-117.0904,38.0505,1654.00,27.00,7.00,42.11,330.00,20.00,0.00,30.07,M,10.00,29.00,CLR,M,M,M,M,M,M,M,M,M,M,M,30.00,320.00,2023-01-30 23:31,12.50,KTPH 302356Z AUTO 33020G29KT 10SM CLR M03/M14 A3007 RMK AO2 PK WND 32030/2331 SLPNO T10281139 53001,M
HND,2023-01-30 23:56,-115.1344,35.9729,742.79,39.00,33.00,79.17,70.00,4.00,T,30.06,1020.40,10.00,M,FEW,SCT,OVC,M,5000.00,6000.00,7500.00,M,M,M,M,M,M,M,M,35.59,KHND 302356Z 07004KT 10SM FEW050 SCT060 OVC075 04/01 A3006 RMK AO2 RAE36 SLP204 P0000 60005 T00390006 10039 20022 53003,M
LAS,2023-01-30 23:56,-115.1634,36.0719,663.00,40.00,33.00,76.44,150.00,5.00,0.00,30.05,1017.90,10.00,M,SCT,BKN,BKN,BKN,3000.00,8000.00,10000.00,20000.00,M,M,M,M,M,M,M,35.78,KLAS 302356Z 15005KT 10SM SCT030 BKN080 BKN100 BKN200 04/01 A3005 RMK AO2 SLP179 60003 T00440006 10044 20033 53002,M
