station,valid,lon,lat,elevation,tmpf,dwpf,relh,drct,sknt,p01i,alti,mslp,vsby,gust,skyc1,skyc2,skyc3,skyc4,skyl1,skyl2,skyl3,skyl4,wxcodes,ice_accretion_1hr,ice_accretion_3hr,ice_accretion_6hr,peak_wind_gust,peak_wind_drct,peak_wind_time,feel,metar,snowdepth
BVU,2021-12-23 00:15,-114.8611,35.9475,671.00,51.80,30.20,43.32,40.00,6.00,0.00,30.02,M,10.00,M,CLR,M,M,M,M,M,M,M,M,M,M,M,M,M,M,51.80,KBVU 230015Z AUTO 04006KT 10SM CLR 11/M01 A3002 RMK AO2,M
RTS,2021-12-23 00:15,-119.8764,39.6682,1539.00,42.80,32.00,65.38,260.00,19.00,0.00,29.89,M,10.00,M,CLR,M,M,M,M,M,M,M,M,M,M,M,M,M,M,33.72,KRTS 230015Z AUTO 26019KT 10SM CLR 06/M00 A2989 RMK AO2,M
TMT,2021-12-23 00:15,-117.1971,39.4643,1749.34,40.00,25.30,55.59,180.00,5.00,0.00,29.94,M,10.00,M,CLR,M,M,M,M,M,M,M,M,M,M,M,M,M,M,35.78,KTMT 230015Z AUTO 18005KT 10SM CLR 04/M04 A2994 RMK AO2 T00441037,M
BAM,2021-12-23 00:15,-116.8743,40.5990,1382.36,33.80,30.20,86.49,10.00,5.00,0.00,29.93,M,10.00,M,OVC,M,M,M,7000.00,M,M,M,M,M,M,M,M,M,M,28.53,KBAM 230015Z AUTO 01005KT 10SM OVC070 01/M01 A2993 RMK AO1,M
HTH,2021-12-23 00:15,-118.6315,38.5448,1282.89,41.00,26.60,56.22,240.00,4.00,0.00,29.91,M,10.00,M,CLR,M,M,M,M,M,M,M,M,M,M,M,M,M,M,37.93,KHTH 230015Z AUTO 24004KT 10SM CLR 05/M03 A2991 RMK A01,M
MEV,2021-12-23 00:15,-119.7500,38.9963,1441.42,42.80,35.60,75.50,0.00,0.00,0.00,29.90,M,10.00,M,BKN,BKN,OVC,M,4000.00,4600.00,5500.00,M,M,M,M,M,M,M,M,42.80,KMEV 230015Z AUTO 00000KT 10SM BKN040 BKN046 OVC055 06/02 A2990 RMK AO2,M
CXP,2021-12-23 00:15,-119.7326,39.1923,1431.00,48.20,33.80,57.26,M,6.00,0.00,29.90,M,10.00,11.00,FEW,M,M,M,6000.00,M,M,M,M,M,M,M,M,M,M,45.04,KCXP 230015Z AUTO VRB06G11KT 160V230 10SM FEW060 09/01 A2990 RMK AO2,M
05U,2021-12-23 00:15,-116.0051,39.6042,1811.23,30.20,15.80,54.59,210.00,3.00,0.00,29.97,M,10.00,M,CLR,M,M,M,M,M,M,M,M,M,M,M,M,M,M,26.63,K05U 230015Z AUTO 21003KT 10SM CLR M01/M09 A2997 RMK A01,M
BVU,2021-12-23 00:35,-114.8611,35.9475,671.00,51.80,28.40,40.25,30.00,7.00,0.00,30.02,M,10.00,M,CLR,M,M,M,M,M,M,M,M,M,M,M,M,M,M,51.80,KBVU 230035Z AUTO 03007KT 10SM CLR 11/M02 A3002 RMK AO2,M
RTS,2021-12-23 00:35,-119.8764,39.6682,1539.00,42.80,32.00,65.38,250.00,11.00,0.00,29.88,M,10.00,M,CLR,M,M,M,M,M,M,M,M,M,M,M,M,M,M,36.11,KRTS 230035Z AUTO 25011KT 10SM CLR 06/M00 A2988 RMK AO2,M
CXP,2021-12-23 00:35,-119.7326,39.1923,1431.00,48.20,33.80,57.26,210.00,6.00,0.00,29.91,M,10.00,M,SCT,BKN,M,M,5000.00,6000.00,M,M,M,M,M,M,M,M,M,45.04,KCXP 230035Z AUTO 21006KT 10SM SCT050 BKN060 09/01 A2991 RMK AO2,M
05U,2021-12-23 00:35,-116.0051,39.6042,1811.23,24.80,14.00,63.03,220.00,6.00,0.00,29.97,M,10.00,M,CLR,M,M,M,M,M,M,M,M,M,M,M,M,M,M,16.86,K05U 230035Z AUTO 22006KT 10SM CLR M04/M10 A2997 RMK A01,M
MEV,2021-12-23 00:35,-119.7500,38.9963,1441.42,42.80,37.40,81.07,140.00,4.00,0.00,29.90,M,10.00,M,BKN,OVC,M,M,3600.00,4300.00,M,M,-RA,M,M,M,M,M,M,40.03,KMEV 230035Z AUTO 14004KT 10SM -RA BKN036 OVC043 06/03 A2990 RMK AO2,M
BAM,2021-12-23 00:35,-116.8743,40.5990,1382.36,32.00,28.40,86.39,340.00,6.00,0.00,29.93,M,10.00,M,OVC,M,M,M,7000.00,M,M,M,M,M,M,M,M,M,M,25.53,KBAM 230035Z AUTO 34006KT 10SM OVC070 00/M02 A2993 RMK AO1,M
HTH,2021-12-23 00:35,-118.6315,38.5448,1282.89,39.20,26.60,60.29,210.00,9.00,0.00,29.91,M,10.00,M,CLR,M,M,M,M,M,M,M,M,M,M,M,M,M,M,32.47,KHTH 230035Z AUTO 21009KT 10SM CLR 04/M03 A2991 RMK A01,M
TMT,2021-12-23 00:35,-117.1971,39.4643,1749.34,37.20,24.40,59.51,170.00,6.00,0.00,29.93,M,10.00,M,CLR,M,M,M,M,M,M,M,M,M,M,M,M,M,M,31.79,KTMT 230035Z AUTO 17006KT 10SM CLR 03/M04 A2993 RMK AO2 T00291042,M
DRA,2021-12-23 00:53,-116.0278,36.6206,1009.00,46.00,21.90,38.15,100.00,8.00,0.00,30.00,1015.70,10.00,M,CLR,M,M,M,M,M,M,M,M,M,M,M,M,M,M,41.36,KDRA 230053Z AUTO 10008KT 10SM CLR 08/M06 A3000 RMK AO2 SLP157 T00781056,M
ELY,2021-12-23 00:53,-114.8453,39.2950,1909.00,33.00,16.00,48.98,210.00,11.00,0.00,30.00,1017.30,10.00,M,CLR,M,M,M,M,M,M,M,M,M,M,M,M,M,M,23.86,KELY 230053Z AUTO 21011KT 10SM CLR 01/M09 A3000 RMK AO2 SLP173 T00061089,M
LOL,2021-12-23 00:53,-118.5701,40.0684,1192.43,36.00,27.00,69.51,70.00,5.00,0.00,29.89,1014.10,10.00,M,CLR,M,M,M,M,M,M,M,M,M,M,M,M,M,M,31.15,KLOL 230053Z AUTO 07005KT 10SM CLR 02/M03 A2989 RMK AO2 SLP141 T00221028,M
VGT,2021-12-23 00:53,-115.1933,36.2111,667.00,53.00,23.00,30.67,110.00,6.00,0.00,30.01,1018.60,10.00,M,CLR,M,M,M,M,M,M,M,M,M,M,M,M,M,M,53.10,KVGT 230053Z 11006KT 10SM CLR 12/M05 A3001 RMK AO2 SLP186 T01171050,M
BAM,2021-12-23 00:55,-116.8743,40.5990,1382.36,32.00,28.40,86.39,350.00,3.00,0.00,29.92,M,10.00,M,OVC,M,M,M,7000.00,M,M,M,M,M,M,M,M,M,M,28.69,KBAM 230055Z AUTO 35003KT 10SM OVC070 00/M02 A2992 RMK AO1,M
RNO,2021-12-23 00:55,-119.7711,39.4839,1341.00,47.00,33.00,58.47,270.00,7.00,0.00,29.87,1010.80,10.00,M,SCT,SCT,BKN,M,4500.00,19000.00,24000.00,M,M,M,M,M,M,M,M,42.94,KRNO 230055Z 27007KT 10SM SCT045 SCT190 BKN240 08/01 A2987 RMK AO2 SLP108 SH VC SW THRU W MTN TOPS OBSCD SW THRU NW T00830006,M
CXP,2021-12-23 00:55,-119.7326,39.1923,1431.00,46.40,33.80,61.28,180.00,3.00,0.00,29.91,M,10.00,M,FEW,BKN,OVC,M,3100.00,4200.00,5000.00,M,M,M,M,M,M,M,M,45.15,KCXP 230055Z AUTO 18003KT 10SM FEW031 BKN042 OVC050 08/01 A2991 RMK AO2,M
RTS,2021-12-23 00:55,-119.8764,39.6682,1539.00,42.80,32.00,65.38,250.00,12.00,0.00,29.89,M,10.00,18.00,CLR,M,M,M,M,M,M,M,M,M,M,M,M,M,M,35.75,KRTS 230055Z AUTO 25012G18KT 10SM CLR 06/M00 A2989 RMK AO2,M
05U,2021-12-23 00:55,-116.0051,39.6042,1811.23,24.80,14.00,63.03,170.00,4.00,0.00,29.96,M,10.00,M,CLR,M,M,M,M,M,M,M,M,M,M,M,M,M,M,19.01,K05U 230055Z AUTO 17004KT 10SM CLR M04/M10 A2996 RMK A01,M
MEV,2021-12-23 00:55,-119.7500,38.9963,1441.42,42.80,37.40,81.07,220.00,5.00,0.00,29.91,M,10.00,M,BKN,OVC,M,M,3600.00,4200.00,M,M,-RA,M,M,M,M,M,M,39.22,KMEV 230055Z AUTO 22005KT 10SM -RA BKN036 OVC042 06/03 A2991 RMK AO2,M
HTH,2021-12-23 00:55,-118.6315,38.5448,1282.89,39.20,24.80,55.95,0.00,0.00,0.00,29.89,M,10.00,M,CLR,M,M,M,M,M,M,M,M,M,M,M,M,M,M,39.20,KHTH 230055Z AUTO 00000KT 10SM CLR 04/M04 A2989 RMK A01,M
TMT,2021-12-23 00:55,-117.1971,39.4643,1749.34,32.50,23.90,70.27,170.00,7.00,0.00,29.95,M,10.00,M,CLR,M,M,M,M,M,M,M,M,M,M,M,M,M,M,25.39,KTMT 230055Z AUTO 17007KT 10SM CLR 00/M04 A2995 RMK AO2 T00031045,M
EKO,2021-12-23 00:56,-115.7860,40.8242,1367.00,30.90,19.90,63.31,100.00,4.00,0.00,29.93,1016.90,10.00,M,FEW,BKN,M,M,6500.00,8500.00,M,M,M,M,M,M,M,M,M,26.14,KEKO 230056Z AUTO 10004KT 10SM FEW065 BKN085 M01/M07 A2993 RMK AO2 SLP169 T10061067,M
TPH,2021-12-23 00:56,-117.0904,38.0505,1654.00,26.10,19.00,74.16,0.00,0.00,0.00,30.02,1020.10,10.00,M,CLR,M,M,M,M,M,M,M,M,M,M,M,M,M,M,26.10,KTPH 230056Z AUTO 00000KT 10SM CLR M03/M07 A3002 RMK AO2 SLP201 T10331072,M
NFL,2021-12-23 00:56,-118.7010,39.4166,1199.00,37.00,25.00,61.50,70.00,7.00,0.00,29.89,1009.50,10.00,M,SCT,BKN,OVC,M,6000.00,12000.00,20000.00,M,M,M,M,M,M,M,M,30.87,KNFL 230056Z 07007KT 10SM SCT060 BKN120 OVC200 03/M04 A2989 RMK AO2 SLP095 T00281039,M
HND,2021-12-23 00:56,-115.1344,35.9729,742.79,51.00,26.10,37.57,0.00,0.00,0.00,30.04,1019.60,10.00,M,CLR,M,M,M,M,M,M,M,M,M,M,M,M,M,M,51.10,KHND 230056Z 00000KT 10SM CLR 11/M03 A3004 RMK AO2 SLP196 T01061033,M
LAS,2021-12-23 00:56,-115.1634,36.0719,663.00,53.00,23.00,30.67,20.00,5.00,0.00,30.02,1016.70,10.00,M,FEW,BKN,BKN,M,12000.00,18000.00,22000.00,M,M,M,M,M,M,M,M,53.10,KLAS 230056Z 02005KT 10SM FEW120 BKN180 BKN220 12/M05 A3002 RMK AO2 SLP167 T01171050,M
WMC,2021-12-23 00:56,-117.8072,40.9019,1315.00,34.00,30.00,85.11,60.00,7.00,0.00,29.89,1013.80,10.00,M,OVC,M,M,M,4600.00,M,M,M,M,M,M,M,M,M,M,27.22,KWMC 230056Z AUTO 06007KT 10SM OVC046 01/M01 A2989 RMK AO2 SLP138 T00111011,M
INS,2021-12-23 00:58,-115.6733,36.5872,955.00,44.20,24.80,46.13,0.00,0.00,0.00,30.02,1016.80,10.00,M,CLR,M,M,M,M,M,M,M,M,M,M,M,M,M,M,44.20,KINS 230058Z AUTO 00000KT 10SM CLR 07/M04 A3002 RMK AO2 SLP168 T00681040 VISNO RWY08 $,M
LSV,2021-12-23 00:58,-115.0343,36.2362,570.00,51.30,23.90,34.03,90.00,8.00,0.00,30.01,1016.60,10.00,M,OVC,M,M,M,15000.00,M,M,M,M,M,M,M,M,M,M,51.30,KLSV 230058Z AUTO 09008KT 10SM OVC150 11/M04 A3001 RMK AO2 SLP166 T01071045 $,M
MEV,2021-12-23 01:15,-119.7500,38.9963,1441.42,42.80,37.40,81.07,130.00,5.00,0.00,29.89,M,10.00,M,FEW,SCT,BKN,M,1500.00,3100.00,3700.00,M,-RA,M,M,M,M,M,M,39.22,KMEV 230115Z AUTO 13005KT 10SM -RA FEW015 SCT031 BKN037 06/03 A2989 RMK AO2,M
BVU,2021-12-23 01:15,-114.8611,35.9475,671.00,51.80,30.20,43.32,40.00,3.00,0.00,30.02,M,10.00,M,CLR,M,M,M,M,M,M,M,M,M,M,M,M,M,M,51.80,KBVU 230115Z AUTO 04003KT 10SM CLR 11/M01 A3002 RMK AO2,M
CXP,2021-12-23 01:15,-119.7326,39.1923,1431.00,44.60,35.60,70.48,190.00,3.00,0.00,29.90,M,10.00,M,BKN,OVC,M,M,4300.00,5000.00,M,M,M,M,M,M,M,M,M,43.09,KCXP 230115Z AUTO 19003KT 10SM BKN043 OVC050 07/02 A2990 RMK AO2,M
RTS,2021-12-23 01:15,-119.8764,39.6682,1539.00,41.00,32.00,70.08,260.00,11.00,0.00,29.88,M,10.00,17.00,CLR,M,M,M,M,M,M,M,M,M,M,M,M,M,M,33.84,KRTS 230115Z AUTO 26011G17KT 10SM CLR 05/M00 A2988 RMK AO2,M
05U,2021-12-23 01:15,-116.0051,39.6042,1811.23,24.80,14.00,63.03,200.00,4.00,0.00,29.96,M,10.00,M,CLR,M,M,M,M,M,M,M,M,M,M,M,M,M,M,19.01,K05U 230115Z AUTO 20004KT 10SM CLR M04/M10 A2996 RMK A01,M
BAM,2021-12-23 01:15,-116.8743,40.5990,1382.36,32.00,28.40,86.39,340.00,5.00,0.00,29.91,M,10.00,M,OVC,M,M,M,7000.00,M,M,M,M,M,M,M,M,M,M,26.40,KBAM 230115Z AUTO 34005KT 10SM OVC070 00/M02 A2991 RMK AO1,M
HTH,2021-12-23 01:15,-118.6315,38.5448,1282.89,39.20,26.60,60.29,0.00,0.00,0.00,29.90,M,10.00,10.00,CLR,M,M,M,M,M,M,M,M,M,M,M,M,M,M,39.20,KHTH 230115Z AUTO 00000G10KT 10SM CLR 04/M03 A2990 RMK A01,M
TMT,2021-12-23 01:15,-117.1971,39.4643,1749.34,30.90,23.00,72.18,160.00,7.00,0.00,29.93,M,10.00,M,CLR,M,M,M,M,M,M,M,M,M,M,M,M,M,M,23.44,KTMT 230115Z AUTO 16007KT 10SM CLR M01/M05 A2993 RMK AO2 T10061050,M
CXP,2021-12-23 01:35,-119.7326,39.1923,1431.00,44.60,35.60,70.48,0.00,0.00,0.00,29.90,M,10.00,M,BKN,BKN,OVC,M,3700.00,4600.00,5500.00,M,M,M,M,M,M,M,M,44.60,KCXP 230135Z AUTO 00000KT 10SM BKN037 BKN046 OVC055 07/02 A2990 RMK AO2,M
RTS,2021-12-23 01:35,-119.8764,39.6682,1539.00,41.00,32.00,70.08,M,6.00,0.00,29.88,M,10.00,12.00,CLR,M,M,M,M,M,M,M,M,M,M,M,M,M,M,36.37,KRTS 230135Z AUTO VRB06G12KT 10SM CLR 05/00 A2988 RMK AO2,M
TMT,2021-12-23 01:35,-117.1971,39.4643,1749.34,30.90,23.00,72.18,180.00,6.00,0.00,29.93,M,10.00,M,CLR,M,M,M,M,M,M,M,M,M,M,M,M,M,M,24.21,KTMT 230135Z AUTO 18006KT 10SM CLR M01/M05 A2993 RMK AO2 T10061050,M
05U,2021-12-23 01:35,-116.0051,39.6042,1811.23,28.40,14.00,54.31,0.00,0.00,0.00,29.96,M,10.00,M,CLR,M,M,M,M,M,M,M,M,M,M,M,M,M,M,28.40,K05U 230135Z AUTO 00000KT 10SM CLR M02/M10 A2996 RMK A01,M
HTH,2021-12-23 01:35,-118.6315,38.5448,1282.89,39.20,26.60,60.29,M,4.00,0.00,29.89,M,10.00,16.00,FEW,M,M,M,12000.00,M,M,M,M,M,M,M,M,M,M,35.83,KHTH 230135Z AUTO VRB04G16KT 10SM FEW120 04/M03 A2989 RMK A01,M
BVU,2021-12-23 01:35,-114.8611,35.9475,671.00,51.80,28.40,40.25,40.00,4.00,0.00,30.02,M,10.00,M,CLR,M,M,M,M,M,M,M,M,M,M,M,M,M,M,51.80,KBVU 230135Z AUTO 04004KT 10SM CLR 11/M02 A3002 RMK AO2,M
BAM,2021-12-23 01:35,-116.8743,40.5990,1382.36,32.00,28.40,86.39,0.00,0.00,0.00,29.91,M,10.00,M,OVC,M,M,M,6500.00,M,M,M,M,M,M,M,M,M,M,32.00,KBAM 230135Z AUTO 00000KT 10SM OVC065 00/M02 A2991 RMK AO1,M
MEV,2021-12-23 01:35,-119.7500,38.9963,1441.42,39.20,35.60,86.79,70.00,4.00,0.00,29.88,M,10.00,M,FEW,SCT,BKN,M,1800.00,3300.00,5500.00,M,M,M,M,M,M,M,M,35.83,KMEV 230135Z AUTO 07004KT 10SM FEW018 SCT033 BKN055 04/02 A2988 RMK AO2,M
ELY,2021-12-23 01:53,-114.8453,39.2950,1909.00,30.90,16.00,53.53,210.00,11.00,0.00,29.99,1017.60,10.00,M,CLR,M,M,M,M,M,M,M,M,M,M,M,M,M,M,21.08,KELY 230153Z AUTO 21011KT 10SM CLR M01/M09 A2999 RMK AO2 SLP176 T10061089,M
LOL,2021-12-23 01:53,-118.5701,40.0684,1192.43,34.00,28.00,78.43,0.00,0.00,0.00,29.89,1014.00,10.00,M,CLR,M,M,M,M,M,M,M,M,M,M,M,M,M,M,34.00,KLOL 230153Z AUTO 00000KT 10SM CLR 01/M02 A2989 RMK AO2 SLP140 T00111022,M
DRA,2021-12-23 01:53,-116.0278,36.6206,1009.00,45.00,23.00,41.50,40.00,5.00,0.00,29.99,1015.30,10.00,M,CLR,M,M,M,M,M,M,M,M,M,M,M,M,M,M,41.83,KDRA 230153Z AUTO 04005KT 10SM CLR 07/M05 A2999 RMK AO2 SLP153 T00721050,M
VGT,2021-12-23 01:53,-115.1933,36.2111,667.00,52.00,23.00,31.93,120.00,3.00,0.00,30.02,1018.80,10.00,M,CLR,M,M,M,M,M,M,M,M,M,M,M,M,M,M,52.00,KVGT 230153Z 12003KT 10SM CLR 11/M05 A3002 RMK AO2 SLP188 T01111050,M
TMT,2021-12-23 01:55,-117.1971,39.4643,1749.34,30.00,22.60,73.62,170.00,7.00,0.00,29.93,M,10.00,M,CLR,M,M,M,M,M,M,M,M,M,M,M,M,M,M,22.34,KTMT 230155Z AUTO 17007KT 10SM CLR M01/M05 A2993 RMK AO2 T10111052,M
BVU,2021-12-23 01:55,-114.8611,35.9475,671.00,51.80,30.20,43.32,20.00,4.00,0.00,30.03,M,10.00,M,CLR,M,M,M,M,M,M,M,M,M,M,M,M,M,M,51.80,KBVU 230155Z AUTO 02004KT 10SM CLR 11/M01 A3003 RMK AO2,M
RTS,2021-12-23 01:55,-119.8764,39.6682,1539.00,41.00,33.80,75.33,230.00,7.00,0.00,29.88,M,10.00,16.00,FEW,FEW,M,M,3400.00,4200.00,M,M,M,M,M,M,M,M,M,35.75,KRTS 230155Z AUTO 23007G16KT 10SM FEW034 FEW042 05/01 A2988 RMK AO2,M
05U,2021-12-23 01:55,-116.0051,39.6042,1811.23,24.80,14.00,63.03,0.00,0.00,0.00,29.95,M,10.00,M,SCT,M,M,M,12000.00,M,M,M,M,M,M,M,M,M,M,24.80,K05U 230155Z AUTO 00000KT 10SM SCT120 M04/M10 A2995 RMK A01,M
MEV,2021-12-23 01:55,-119.7500,38.9963,1441.42,39.20,35.60,86.79,80.00,7.00,0.00,29.88,M,10.00,M,FEW,SCT,BKN,M,2400.00,4800.00,5500.00,M,M,M,M,M,M,M,M,33.56,KMEV 230155Z AUTO 08007KT 10SM FEW024 SCT048 BKN055 04/02 A2988 RMK AO2,M
BAM,2021-12-23 01:55,-116.8743,40.5990,1382.36,32.00,28.40,86.39,270.00,4.00,0.00,29.91,M,10.00,M,OVC,M,M,M,6500.00,M,M,M,M,M,M,M,M,M,M,27.42,KBAM 230155Z AUTO 27004KT 10SM OVC065 00/M02 A2991 RMK AO1,M
HTH,2021-12-23 01:55,-118.6315,38.5448,1282.89,39.20,26.60,60.29,180.00,7.00,0.00,29.89,M,10.00,M,FEW,M,M,M,12000.00,M,M,M,M,M,M,M,M,M,M,33.56,KHTH 230155Z AUTO 18007KT 160V220 10SM FEW120 04/M03 A2989 RMK A01,M
CXP,2021-12-23 01:55,-119.7326,39.1923,1431.00,42.80,35.60,75.50,170.00,3.00,0.00,29.89,M,10.00,M,SCT,BKN,BKN,M,3700.00,4800.00,5500.00,M,M,M,M,M,M,M,M,41.03,KCXP 230155Z AUTO 17003KT 10SM SCT037 BKN048 BKN055 06/02 A2989 RMK AO2,M
RNO,2021-12-23 01:55,-119.7711,39.4839,1341.00,45.00,35.00,68.05,280.00,7.00,0.00,29.86,1010.80,10.00,16.00,SCT,OVC,M,M,4000.00,21000.00,M,M,M,M,M,M,M,M,M,40.63,KRNO 230155Z 28007G16KT 10SM SCT040 OVC210 07/02 A2986 RMK AO2 SLP108 T00720017,M
HND,2021-12-23 01:56,-115.1344,35.9729,742.79,49.00,27.00,42.32,0.00,0.00,0.00,30.04,1019.90,10.00,M,CLR,M,M,M,M,M,M,M,M,M,M,M,M,M,M,48.90,KHND 230156Z 00000KT 10SM CLR 09/M03 A3004 RMK AO2 SLP199 T00941028,M
WMC,2021-12-23 01:56,-117.8072,40.9019,1315.00,33.00,28.90,84.36,50.00,7.00,0.00,29.89,1013.70,10.00,M,FEW,OVC,M,M,4700.00,6000.00,M,M,M,M,M,M,M,M,M,26.12,KWMC 230156Z AUTO 05007KT 10SM FEW047 OVC060 01/M02 A2989 RMK AO2 SLP137 T00061017,M
NFL,2021-12-23 01:56,-118.7010,39.4166,1199.00,36.00,25.00,63.98,60.00,7.00,0.00,29.88,1009.30,10.00,M,SCT,BKN,OVC,M,6000.00,12000.00,20000.00,M,M,M,M,M,M,M,M,29.65,KNFL 230156Z 06007KT 10SM SCT060 BKN120 OVC200 02/M04 A2988 RMK AO2 SLP093 T00221039,M
LAS,2021-12-23 01:56,-115.1634,36.0719,663.00,52.00,23.00,31.93,20.00,5.00,0.00,30.03,1017.00,10.00,M,FEW,BKN,BKN,M,12000.00,18000.00,22000.00,M,M,M,M,M,M,M,M,52.00,KLAS 230156Z 02005KT 10SM FEW120 BKN180 BKN220 11/M05 A3003 RMK AO2 SLP170 T01111050,M
TPH,2021-12-23 01:56,-117.0904,38.0505,1654.00,21.90,16.00,77.67,10.00,8.00,0.00,30.02,1020.90,10.00,M,FEW,M,M,M,10000.00,M,M,M,M,M,M,M,M,M,M,11.67,KTPH 230156Z AUTO 01008KT 10SM FEW100 M06/M09 A3002 RMK AO2 SLP209 T10561089,M
EKO,2021-12-23 01:56,-115.7860,40.8242,1367.00,30.90,19.90,63.31,70.00,3.00,0.00,29.91,1016.10,10.00,M,BKN,M,M,M,8000.00,M,M,M,M,M,M,M,M,M,M,27.43,KEKO 230156Z AUTO 07003KT 10SM BKN080 M01/M07 A2991 RMK AO2 SLP161 T10061067,M
LSV,2021-12-23 01:58,-115.0343,36.2362,570.00,50.00,24.80,37.08,90.00,7.00,0.00,30.02,1017.00,10.00,M,OVC,M,M,M,14000.00,M,M,M,M,M,M,M,M,M,M,50.00,KLSV 230158Z AUTO 09007KT 10SM OVC140 10/M04 A3002 RMK AO2 SLP170 T01001040 $,M
INS,2021-12-23 01:58,-115.6733,36.5872,955.00,40.00,25.70,56.08,60.00,3.00,0.00,30.02,1017.00,10.00,M,SCT,M,M,M,14000.00,M,M,M,M,M,M,M,M,M,M,37.95,KINS 230158Z AUTO 06003KT 10SM SCT140 05/M03 A3002 RMK AO2 SLP170 T00451035 VISNO RWY08 $,M
05U,2021-12-23 02:10,-116.0051,39.6042,1811.23,24.80,12.20,58.22,0.00,0.00,0.00,29.95,M,10.00,M,BKN,M,M,M,12000.00,M,M,M,M,M,M,M,M,M,M,24.80,K05U 230210Z AUTO 00000KT 10SM BKN120 M04/M11 A2995 RMK A01,M
BVU,2021-12-23 02:15,-114.8611,35.9475,671.00,51.80,30.20,43.32,40.00,5.00,0.00,30.03,M,10.00,M,CLR,M,M,M,M,M,M,M,M,M,M,M,M,M,M,51.80,KBVU 230215Z AUTO 04005KT 10SM CLR 11/M01 A3003 RMK AO2,M
TMT,2021-12-23 02:15,-117.1971,39.4643,1749.34,30.60,22.80,72.45,180.00,6.00,0.00,29.92,M,10.00,M,CLR,M,M,M,M,M,M,M,M,M,M,M,M,M,M,23.84,KTMT 230215Z AUTO 18006KT 10SM CLR M01/M05 A2992 RMK AO2 T10081051,M
HTH,2021-12-23 02:15,-118.6315,38.5448,1282.89,46.40,30.20,53.00,150.00,16.00,0.00,29.89,M,10.00,M,FEW,M,M,M,11000.00,M,M,M,M,M,M,M,M,M,M,39.19,KHTH 230215Z AUTO 15016KT 10SM FEW110 08/M01 A2989 RMK A01,M
BAM,2021-12-23 02:15,-116.8743,40.5990,1382.36,32.00,32.00,100.00,340.00,3.00,0.00,29.91,M,10.00,M,BKN,OVC,M,M,6500.00,7000.00,M,M,M,M,M,M,M,M,M,28.69,KBAM 230215Z AUTO 34003KT 10SM BKN065 OVC070 00/00 A2991 RMK AO1,M
MEV,2021-12-23 02:15,-119.7500,38.9963,1441.42,39.20,35.60,86.79,110.00,4.00,0.00,29.89,M,10.00,M,FEW,BKN,BKN,M,4300.00,5500.00,7000.00,M,M,M,M,M,M,M,M,35.83,KMEV 230215Z AUTO 11004KT 10SM FEW043 BKN055 BKN070 04/02 A2989 RMK AO2,M
RTS,2021-12-23 02:15,-119.8764,39.6682,1539.00,41.00,32.00,70.08,M,6.00,0.00,29.89,M,10.00,M,SCT,SCT,M,M,3500.00,5000.00,M,M,M,M,M,M,M,M,M,36.37,KRTS 230215Z AUTO VRB06KT 10SM SCT035 SCT050 05/M00 A2989 RMK AO2,M
CXP,2021-12-23 02:15,-119.7326,39.1923,1431.00,42.80,35.60,75.50,0.00,0.00,0.00,29.89,M,10.00,M,SCT,M,M,M,4900.00,M,M,M,M,M,M,M,M,M,M,42.80,KCXP 230215Z AUTO 00000KT 10SM SCT049 06/02 A2989 RMK AO2,M
HTH,2021-12-23 02:35,-118.6315,38.5448,1282.89,50.00,32.00,49.81,130.00,15.00,0.00,29.87,M,10.00,26.00,CLR,M,M,M,M,M,M,M,M,M,M,M,M,M,M,50.00,KHTH 230235Z AUTO 13015G26KT 090V150 10SM CLR 10/00 A2987 RMK A01,M
MEV,2021-12-23 02:35,-119.7500,38.9963,1441.42,39.20,35.60,86.79,110.00,6.00,0.00,29.88,M,10.00,M,FEW,SCT,BKN,M,1900.00,4500.00,5500.00,M,M,M,M,M,M,M,M,34.20,KMEV 230235Z AUTO 11006KT 10SM FEW019 SCT045 BKN055 04/02 A2988 RMK AO2,M
05U,2021-12-23 02:35,-116.0051,39.6042,1811.23,23.00,12.20,62.78,0.00,0.00,0.00,29.96,M,10.00,M,FEW,M,M,M,11000.00,M,M,M,M,M,M,M,M,M,M,23.00,K05U 230235Z AUTO 00000KT 10SM FEW110 M05/M11 A2996 RMK A01,M
RTS,2021-12-23 02:35,-119.8764,39.6682,1539.00,39.20,33.80,80.79,M,3.00,0.00,29.89,M,10.00,M,FEW,SCT,BKN,M,2800.00,3400.00,3900.00,M,M,M,M,M,M,M,M,36.92,KRTS 230235Z AUTO VRB03KT 10SM FEW028 SCT034 BKN039 04/01 A2989 RMK AO2,M
CXP,2021-12-23 02:35,-119.7326,39.1923,1431.00,41.00,35.60,80.93,90.00,4.00,0.00,29.88,M,10.00,M,BKN,BKN,BKN,M,4600.00,5500.00,8500.00,M,M,M,M,M,M,M,M,37.93,KCXP 230235Z AUTO 09004KT 10SM BKN046 BKN055 BKN085 05/02 A2988 RMK AO2,M
BVU,2021-12-23 02:35,-114.8611,35.9475,671.00,51.80,28.40,40.25,50.00,5.00,0.00,30.02,M,10.00,M,CLR,M,M,M,M,M,M,M,M,M,M,M,M,M,M,51.80,KBVU 230235Z AUTO 05005KT 10SM CLR 11/M02 A3002 RMK AO2,M
LOL,2021-12-23 02:53,-118.5701,40.0684,1192.43,30.90,25.00,78.48,0.00,0.00,0.00,29.88,1014.00,10.00,M,CLR,M,M,M,M,M,M,M,M,M,M,M,M,M,M,30.90,KLOL 230253Z AUTO 00000KT 10SM CLR M01/M04 A2988 RMK AO2 SLP140 T10061039 56007,M
P68,2021-12-23 02:53,-116.0056,39.6014,1993.00,30.20,12.20,46.62,150.00,3.00,0.00,29.94,1016.10,M,M,M,M,M,M,M,M,M,M,M,M,M,M,M,M,M,26.63,KP68 230253Z AUTO 15003KT M01/M11 A2994 RMK AO1 SLP161 T1011118!55002,M
ELY,2021-12-23 02:53,-114.8453,39.2950,1909.00,30.90,15.10,51.47,230.00,18.00,0.00,29.97,1017.40,10.00,22.00,CLR,M,M,M,M,M,M,M,M,M,M,M,M,M,M,18.30,KELY 230253Z AUTO 23018G22KT 10SM CLR M01/M09 A2997 RMK AO2 SLP174 T10061094 58007,M
DRA,2021-12-23 02:53,-116.0278,36.6206,1009.00,43.00,25.00,48.70,110.00,6.00,0.00,30.00,1015.90,10.00,M,CLR,M,M,M,M,M,M,M,M,M,M,M,M,M,M,38.78,KDRA 230253Z AUTO 11006KT 10SM CLR 06/M04 A3000 RMK AO2 SLP159 T00611039 55002,M
VGT,2021-12-23 02:53,-115.1933,36.2111,667.00,52.00,23.00,31.93,160.00,3.00,0.00,30.02,1018.70,10.00,M,CLR,M,M,M,M,M,M,M,M,M,M,M,M,M,M,52.00,KVGT 230253Z 16003KT 10SM CLR 11/M05 A3002 RMK AO2 SLP187 T01111050 53001,M
05U,2021-12-23 02:55,-116.0051,39.6042,1811.23,26.60,12.20,54.03,0.00,0.00,0.00,29.96,M,10.00,M,CLR,M,M,M,M,M,M,M,M,M,M,M,M,M,M,26.60,K05U 230255Z AUTO 00000KT 10SM CLR M03/M11 A2996 RMK A01,M
BVU,2021-12-23 02:55,-114.8611,35.9475,671.00,50.00,30.20,46.31,10.00,3.00,0.00,30.03,M,10.00,M,FEW,M,M,M,12000.00,M,M,M,M,M,M,M,M,M,M,50.00,KBVU 230255Z AUTO 01003KT 10SM FEW120 10/M01 A3003 RMK AO2,M
MEV,2021-12-23 02:55,-119.7500,38.9963,1441.42,37.40,35.60,93.14,0.00,0.00,0.00,29.87,M,10.00,M,FEW,SCT,BKN,M,3600.00,4400.00,5500.00,M,M,M,M,M,M,M,M,37.40,KMEV 230255Z AUTO 00000KT 10SM FEW036 SCT044 BKN055 03/02 A2987 RMK AO2,M
CXP,2021-12-23 02:55,-119.7326,39.1923,1431.00,41.00,35.60,80.93,0.00,0.00,0.00,29.88,M,10.00,M,SCT,SCT,M,M,5000.00,8500.00,M,M,M,M,M,M,M,M,M,41.00,KCXP 230255Z AUTO 00000KT 10SM SCT050 SCT085 05/02 A2988 RMK AO2,M
HTH,2021-12-23 02:55,-118.6315,38.5448,1282.89,41.00,26.60,56.22,200.00,7.00,0.00,29.88,M,10.00,M,FEW,SCT,M,M,7000.00,12000.00,M,M,M,M,M,M,M,M,M,35.75,KHTH 230255Z AUTO 20007KT 10SM FEW070 SCT120 05/M03 A2988 RMK A01,M
RTS,2021-12-23 02:55,-119.8764,39.6682,1539.00,39.20,33.80,80.79,230.00,4.00,0.00,29.88,M,10.00,M,SCT,BKN,OVC,M,2700.00,3100.00,3900.00,M,-DZ,M,M,M,M,M,M,35.83,KRTS 230255Z AUTO 23004KT 10SM -DZ SCT027 BKN031 OVC039 04/01 A2988 RMK AO2,M
RNO,2021-12-23 02:55,-119.7711,39.4839,1341.00,46.00,35.00,65.52,300.00,9.00,0.00,29.86,1010.40,10.00,16.00,FEW,SCT,OVC,M,5500.00,10000.00,21000.00,M,M,M,M,M,M,M,M,40.92,KRNO 230255Z 30009G16KT 10SM FEW055 SCT100 OVC210 08/02 A2986 RMK AO2 SLP104 T00780017 56008,M
WMC,2021-12-23 02:56,-117.8072,40.9019,1315.00,33.00,28.90,84.36,50.00,6.00,0.00,29.89,1013.60,10.00,M,BKN,OVC,M,M,4700.00,6000.00,M,M,M,M,M,M,M,M,M,26.86,KWMC 230256Z AUTO 05006KT 10SM BKN047 OVC060 01/M02 A2989 RMK AO2 SLP136 T00061017 56006,M
EKO,2021-12-23 02:56,-115.7860,40.8242,1367.00,30.00,19.90,65.66,90.00,4.00,0.00,29.91,1016.10,10.00,M,BKN,OVC,M,M,7000.00,8500.00,M,M,M,M,M,M,M,M,M,25.08,KEKO 230256Z AUTO 09004KT 10SM BKN070 OVC085 M01/M07 A2991 RMK AO2 SLP161 T10111067 56012,M
TPH,2021-12-23 02:56,-117.0904,38.0505,1654.00,26.10,21.00,80.75,10.00,8.00,0.00,30.01,1020.10,10.00,M,OVC,M,M,M,10000.00,M,M,M,M,M,M,M,M,M,M,16.85,KTPH 230256Z AUTO 01008KT 10SM OVC100 M03/M06 A3001 RMK AO2 SLP201 T10331061 58002,M
LAS,2021-12-23 02:56,-115.1634,36.0719,663.00,51.00,23.00,33.01,0.00,0.00,0.00,30.03,1017.00,10.00,M,SCT,BKN,BKN,M,12000.00,18000.00,22000.00,M,M,M,M,M,M,M,M,51.10,KLAS 230256Z 00000KT 10SM SCT120 BKN180 BKN220 11/M05 A3003 RMK AO2 SLP170 T01061050 53001,M
HND,2021-12-23 02:56,-115.1344,35.9729,742.79,47.00,28.00,47.54,170.00,3.00,0.00,30.04,1019.90,10.00,M,SCT,M,M,M,12000.00,M,M,M,M,M,M,M,M,M,M,45.72,KHND 230256Z 17003KT 10SM SCT120 08/M02 A3004 RMK AO2 SLP199 T00831022 50000,M
NFL,2021-12-23 02:56,-118.7010,39.4166,1199.00,35.00,25.00,66.31,40.00,5.00,0.00,29.88,1009.30,10.00,M,SCT,BKN,OVC,M,6000.00,12000.00,20000.00,M,M,M,M,M,M,M,M,30.08,KNFL 230256Z 04005KT 10SM SCT060 BKN120 OVC200 02/M04 A2988 RMK AO2 SLP093 T00171039 56009,M
LSV,2021-12-23 02:58,-115.0343,36.2362,570.00,49.80,24.60,37.04,70.00,6.00,0.00,30.02,1017.00,10.00,M,FEW,OVC,M,M,13000.00,19000.00,M,M,M,M,M,M,M,M,M,46.97,KLSV 230258Z AUTO 07006KT 10SM FEW130 OVC190 10/M04 A3002 RMK AO2 SLP170 T00991041 53001 $,M
INS,2021-12-23 02:58,-115.6733,36.5872,955.00,38.80,25.70,59.00,0.00,0.00,0.00,30.02,1017.00,10.00,M,BKN,BKN,M,M,18000.00,22000.00,M,M,M,M,M,M,M,M,M,38.80,KINS 230258Z AUTO 00000KT 10SM BKN180 BKN220 04/M03 A3002 RMK AO2 SLP170 T00381035 58001 VISNO RWY08 $,M
BVU,2021-12-23 03:15,-114.8611,35.9475,671.00,50.00,28.40,43.03,0.00,0.00,0.00,30.03,M,10.00,M,FEW,M,M,M,12000.00,M,M,M,M,M,M,M,M,M,M,50.00,KBVU 230315Z AUTO 00000KT 10SM FEW120 10/M02 A3003 RMK AO2,M
RTS,2021-12-23 03:15,-119.8764,39.6682,1539.00,39.20,35.60,86.79,0.00,0.00,0.00,29.88,M,9.00,M,BKN,OVC,M,M,2200.00,2900.00,M,M,-DZ,M,M,M,M,M,M,39.20,KRTS 230315Z AUTO 00000KT 9SM -DZ BKN022 OVC029 04/02 A2988 RMK AO2,M
MEV,2021-12-23 03:15,-119.7500,38.9963,1441.42,37.40,35.60,93.14,0.00,0.00,0.00,29.87,M,10.00,M,FEW,SCT,OVC,M,3600.00,4800.00,5500.00,M,M,M,M,M,M,M,M,37.40,KMEV 230315Z AUTO 00000KT 10SM FEW036 SCT048 OVC055 03/02 A2987 RMK AO2,M
HTH,2021-12-23 03:15,-118.6315,38.5448,1282.89,44.60,28.40,52.72,90.00,15.00,0.00,29.87,M,10.00,M,FEW,SCT,M,M,7000.00,12000.00,M,M,M,M,M,M,M,M,M,37.11,KHTH 230315Z AUTO 09015KT 10SM FEW070 SCT120 07/M02 A2987 RMK A01,M
CXP,2021-12-23 03:15,-119.7326,39.1923,1431.00,42.80,35.60,75.50,0.00,0.00,0.00,29.88,M,10.00,M,BKN,BKN,M,M,4800.00,5500.00,M,M,M,M,M,M,M,M,M,42.80,KCXP 230315Z AUTO 00000KT 10SM BKN048 BKN055 06/02 A2988 RMK AO2,M
05U,2021-12-23 03:15,-116.0051,39.6042,1811.23,28.40,14.00,54.31,0.00,0.00,0.00,29.96,M,10.00,M,BKN,M,M,M,11000.00,M,M,M,M,M,M,M,M,M,M,28.40,K05U 230315Z AUTO 00000KT 10SM BKN110 M02/M10 A2996 RMK A01,M
HTH,2021-12-23 03:35,-118.6315,38.5448,1282.89,44.60,28.40,52.72,100.00,11.00,0.00,29.88,M,10.00,18.00,FEW,FEW,M,M,7000.00,10000.00,M,M,M,M,M,M,M,M,M,38.39,KHTH 230335Z AUTO 10011G18KT 10SM FEW070 FEW100 07/M02 A2988 RMK A01,M
05U,2021-12-23 03:35,-116.0051,39.6042,1811.23,32.00,14.00,46.92,0.00,0.00,0.00,29.96,M,10.00,M,FEW,M,M,M,11000.00,M,M,M,M,M,M,M,M,M,M,32.00,K05U 230335Z AUTO 00000KT 10SM FEW110 M00/M10 A2996 RMK A01,M
MEV,2021-12-23 03:35,-119.7500,38.9963,1441.42,35.60,33.80,93.08,0.00,0.00,0.00,29.87,M,10.00,M,FEW,SCT,BKN,M,4000.00,5500.00,6500.00,M,M,M,M,M,M,M,M,35.60,KMEV 230335Z AUTO 00000KT 10SM FEW040 SCT055 BKN065 02/01 A2987 RMK AO2,M
CXP,2021-12-23 03:35,-119.7326,39.1923,1431.00,42.80,35.60,75.50,0.00,0.00,0.00,29.87,M,10.00,M,SCT,SCT,M,M,4800.00,5500.00,M,M,M,M,M,M,M,M,M,42.80,KCXP 230335Z AUTO 00000KT 10SM SCT048 SCT055 06/02 A2987 RMK AO2,M
RTS,2021-12-23 03:35,-119.8764,39.6682,1539.00,37.40,35.60,93.14,360.00,5.00,0.00,29.88,M,6.00,M,BKN,OVC,M,M,2300.00,2800.00,M,M,-RA,M,M,M,M,M,M,32.81,KRTS 230335Z AUTO 36005KT 6SM -RA BKN023 OVC028 03/02 A2988 RMK AO2,M
BVU,2021-12-23 03:35,-114.8611,35.9475,671.00,50.00,30.20,46.31,0.00,0.00,0.00,30.02,M,10.00,M,BKN,M,M,M,12000.00,M,M,M,M,M,M,M,M,M,M,50.00,KBVU 230335Z AUTO 00000KT 10SM BKN120 10/M01 A3002 RMK AO2,M
LOL,2021-12-23 03:53,-118.5701,40.0684,1192.43,30.90,26.10,82.15,0.00,0.00,0.00,29.87,1013.70,10.00,M,CLR,M,M,M,M,M,M,M,M,M,M,M,M,M,M,30.90,KLOL 230353Z AUTO 00000KT 10SM CLR M01/M03 A2987 RMK AO2 SLP137 T10061033,M
ELY,2021-12-23 03:53,-114.8453,39.2950,1909.00,32.00,16.00,51.20,220.00,16.00,0.00,29.98,1017.40,10.00,24.00,OVC,M,M,M,11000.00,M,M,M,M,M,M,M,31.00,210.00,2021-12-23 03:13,20.42,KELY 230353Z AUTO 22016G24KT 10SM OVC110 00/M09 A2998 RMK AO2 PK WND 21031/0313 SLP174 T00001089,M
VGT,2021-12-23 03:53,-115.1933,36.2111,667.00,51.00,24.10,34.57,0.00,0.00,0.00,30.02,1018.60,10.00,M,CLR,M,M,M,M,M,M,M,M,M,M,M,M,M,M,51.10,KVGT 230353Z 00000KT 10SM CLR 11/M04 A3002 RMK AO2 SLP186 T01061044,M
DRA,2021-12-23 03:53,-116.0278,36.6206,1009.00,42.00,25.00,50.42,100.00,4.00,0.00,30.00,1015.60,10.00,M,CLR,M,M,M,M,M,M,M,M,M,M,M,M,M,M,39.21,KDRA 230353Z AUTO 10004KT 10SM CLR 06/M04 A3000 RMK AO2 SLP156 T00561039,M
P68,2021-12-23 03:53,-116.0056,39.6014,1993.00,30.90,15.10,51.47,0.00,0.00,0.00,29.93,1015.00,M,M,M,M,M,M,M,M,M,M,M,M,M,M,M,M,M,30.90,KP68 230353Z AUTO 00000KT M01/M09 A2993 RMK AO1 SLP150 T10061094,M
HTH,2021-12-23 03:55,-118.6315,38.5448,1282.89,46.40,30.20,53.00,30.00,8.00,0.00,29.89,M,10.00,24.00,FEW,SCT,BKN,M,4600.00,6000.00,7500.00,M,M,M,M,M,M,M,M,41.85,KHTH 230355Z AUTO 03008G24KT 330V080 10SM FEW046 SCT060 BKN075 08/M01 A2989 RMK A01,M
RNO,2021-12-23 03:55,-119.7711,39.4839,1341.00,44.00,36.00,72.99,M,M,0.00,29.86,1010.90,10.00,M,SCT,BKN,OVC,M,3500.00,5500.00,10000.00,M,M,M,M,M,M,M,M,M,KRNO 230355Z 10SM SCT035 BKN055 OVC100 07/02 A2986 RMK AO2 SLP109 T00670022,M
BVU,2021-12-23 03:55,-114.8611,35.9475,671.00,50.00,30.20,46.31,0.00,0.00,0.00,30.01,M,10.00,M,OVC,M,M,M,12000.00,M,M,M,M,M,M,M,M,M,M,50.00,KBVU 230355Z AUTO 00000KT 10SM OVC120 10/M01 A3001 RMK AO2,M
CXP,2021-12-23 03:55,-119.7326,39.1923,1431.00,42.80,35.60,75.50,M,6.00,0.00,29.87,M,10.00,15.00,SCT,BKN,BKN,M,4800.00,5500.00,6500.00,M,M,M,M,M,M,M,M,38.54,KCXP 230355Z AUTO VRB06G15KT 10SM SCT048 BKN055 BKN065 06/02 A2987 RMK AO2,M
RTS,2021-12-23 03:55,-119.8764,39.6682,1539.00,39.20,35.60,86.79,240.00,12.00,0.03,29.87,M,8.00,M,BKN,BKN,OVC,M,2300.00,2800.00,3300.00,M,-RA,M,M,M,M,M,M,31.17,KRTS 230355Z AUTO 24012KT 8SM -RA BKN023 BKN028 OVC033 04/02 A2987 RMK AO2 P0003,M
05U,2021-12-23 03:55,-116.0051,39.6042,1811.23,32.00,14.00,46.92,0.00,0.00,0.00,29.96,M,10.00,M,BKN,M,M,M,12000.00,M,M,M,M,M,M,M,M,M,M,32.00,K05U 230355Z AUTO 00000KT 10SM BKN120 M00/M10 A2996 RMK A01,M
MEV,2021-12-23 03:55,-119.7500,38.9963,1441.42,37.40,35.60,93.14,60.00,5.00,0.00,29.86,M,10.00,M,FEW,SCT,BKN,M,3500.00,4300.00,5500.00,M,M,M,M,M,M,M,M,32.81,KMEV 230355Z AUTO 06005KT 10SM FEW035 SCT043 BKN055 03/02 A2986 RMK AO2,M
EKO,2021-12-23 03:56,-115.7860,40.8242,1367.00,28.90,19.90,68.67,0.00,0.00,0.00,29.91,1016.30,10.00,M,BKN,M,M,M,8000.00,M,M,M,M,M,M,M,M,M,M,28.90,KEKO 230356Z AUTO 00000KT 10SM BKN080 M02/M07 A2991 RMK AO2 SLP163 T10171067,M
TPH,2021-12-23 03:56,-117.0904,38.0505,1654.00,28.00,21.00,74.67,340.00,5.00,0.00,30.00,1019.50,10.00,M,OVC,M,M,M,9500.00,M,M,M,M,M,M,M,M,M,M,21.64,KTPH 230356Z AUTO 34005KT 10SM OVC095 M02/M06 A3000 RMK AO2 SLP195 T10221061,M
NFL,2021-12-23 03:56,-118.7010,39.4166,1199.00,35.00,26.10,69.41,90.00,4.00,0.00,29.88,1009.20,10.00,M,SCT,BKN,OVC,M,6000.00,10000.00,15000.00,M,M,M,M,M,M,M,M,31.04,KNFL 230356Z 09004KT 10SM SCT060 BKN100 OVC150 02/M03 A2988 RMK AO2 SLP092 T00171033,M
HND,2021-12-23 03:56,-115.1344,35.9729,742.79,47.00,28.90,49.32,0.00,0.00,0.00,30.03,1019.20,10.00,M,OVC,M,M,M,12000.00,M,M,M,M,M,M,M,M,M,M,46.90,KHND 230356Z 00000KT 10SM OVC120 08/M02 A3003 RMK AO2 SLP192 T00831017,M
LAS,2021-12-23 03:56,-115.1634,36.0719,663.00,50.00,24.10,36.01,0.00,0.00,0.00,30.02,1016.80,10.00,M,BKN,BKN,OVC,M,12000.00,18000.00,22000.00,M,M,M,M,M,M,M,M,50.00,KLAS 230356Z 00000KT 10SM BKN120 BKN180 OVC220 10/M04 A3002 RMK AO2 SLP168 T01001044,M
WMC,2021-12-23 03:56,-117.8072,40.9019,1315.00,33.00,28.90,84.36,80.00,7.00,0.00,29.87,1013.10,10.00,M,FEW,OVC,M,M,4700.00,6000.00,M,M,M,M,M,M,M,M,M,26.12,KWMC 230356Z AUTO 08007KT 10SM FEW047 OVC060 01/M02 A2987 RMK AO2 SLP131 T00061017,M
LSV,2021-12-23 03:58,-115.0343,36.2362,570.00,49.00,23.90,36.93,40.00,5.00,0.00,30.02,1016.90,10.00,M,OVC,M,M,M,12000.00,M,M,M,M,M,M,M,M,M,M,46.70,KLSV 230358Z AUTO 04005KT 10SM OVC120 10/M04 A3002 RMK AO2 SLP169 T00951045 $,M
INS,2021-12-23 03:58,-115.6733,36.5872,955.00,38.80,27.00,62.26,0.00,0.00,0.00,30.02,1017.00,10.00,M,BKN,M,M,M,12000.00,M,M,M,M,M,M,M,M,M,M,38.80,KINS 230358Z AUTO 00000KT 10SM BKN120 04/M03 A3002 RMK AO2 SLP170 T00381028 VISNO RWY08 $,M
05U,2021-12-23 04:15,-116.0051,39.6042,1811.23,28.40,15.80,58.75,0.00,0.00,0.00,29.95,M,10.00,M,SCT,M,M,M,12000.00,M,M,M,M,M,M,M,M,M,M,28.40,K05U 230415Z AUTO 00000KT 10SM SCT120 M02/M09 A2995 RMK A01,M
BVU,2021-12-23 04:15,-114.8611,35.9475,671.00,50.00,28.40,43.03,0.00,0.00,0.00,30.03,M,10.00,M,OVC,M,M,M,12000.00,M,M,M,M,M,M,M,M,M,M,50.00,KBVU 230415Z AUTO 00000KT 10SM OVC120 10/M02 A3003 RMK AO2,M
CXP,2021-12-23 04:15,-119.7326,39.1923,1431.00,44.60,35.60,70.48,0.00,0.00,0.00,29.87,M,10.00,M,FEW,BKN,M,M,4800.00,5500.00,M,M,M,M,M,M,M,M,M,44.60,KCXP 230415Z AUTO 00000KT 10SM FEW048 BKN055 07/02 A2987 RMK AO2,M
RTS,2021-12-23 04:15,-119.8764,39.6682,1539.00,41.00,35.60,80.93,260.00,15.00,0.00,29.86,M,7.00,20.00,BKN,BKN,OVC,M,2400.00,2800.00,3400.00,M,-RA,M,M,M,M,M,M,32.45,KRTS 230415Z AUTO 26015G20KT 7SM -RA BKN024 BKN028 OVC034 05/02 A2986 RMK AO2,M
MEV,2021-12-23 04:15,-119.7500,38.9963,1441.42,39.20,35.60,86.79,100.00,6.00,0.00,29.86,M,10.00,M,SCT,BKN,OVC,M,2800.00,4500.00,7500.00,M,M,M,M,M,M,M,M,34.20,KMEV 230415Z AUTO 10006KT 10SM SCT028 BKN045 OVC075 04/02 A2986 RMK AO2,M
HTH,2021-12-23 04:15,-118.6315,38.5448,1282.89,50.00,32.00,49.81,140.00,16.00,0.00,29.89,M,10.00,M,FEW,FEW,SCT,M,4600.00,5500.00,6500.00,M,M,M,M,M,M,M,M,50.00,KHTH 230415Z AUTO 14016KT 10SM FEW046 FEW055 SCT065 10/M00 A2989 RMK A01,M
MEV,2021-12-23 04:35,-119.7500,38.9963,1441.42,37.40,35.60,93.14,20.00,9.00,0.00,29.85,M,10.00,M,FEW,BKN,BKN,M,4100.00,6000.00,7500.00,M,M,M,M,M,M,M,M,30.23,KMEV 230435Z AUTO 02009KT 10SM FEW041 BKN060 BKN075 03/02 A2985 RMK AO2,M
CXP,2021-12-23 04:35,-119.7326,39.1923,1431.00,44.60,35.60,70.48,290.00,3.00,0.00,29.88,M,7.00,M,SCT,BKN,BKN,M,3500.00,4500.00,5000.00,M,-RA,M,M,M,M,M,M,43.09,KCXP 230435Z AUTO 29003KT 7SM -RA SCT035 BKN045 BKN050 07/02 A2988 RMK AO2,M
RTS,2021-12-23 04:35,-119.8764,39.6682,1539.00,41.00,35.60,80.93,250.00,6.00,0.00,29.86,M,6.00,14.00,BKN,OVC,M,M,2400.00,2900.00,M,M,-RA,M,M,M,M,M,M,36.37,KRTS 230435Z AUTO 25006G14KT 6SM -RA BKN024 OVC029 05/02 A2986 RMK AO2,M
05U,2021-12-23 04:35,-116.0051,39.6042,1811.23,28.40,15.80,58.75,0.00,0.00,0.00,29.95,M,10.00,M,CLR,M,M,M,M,M,M,M,M,M,M,M,M,M,M,28.40,K05U 230435Z AUTO 00000KT 10SM CLR M02/M09 A2995 RMK A01,M
HTH,2021-12-23 04:35,-118.6315,38.5448,1282.89,50.00,33.80,53.54,140.00,21.00,0.00,29.88,M,10.00,26.00,FEW,M,M,M,6000.00,M,M,M,M,M,M,M,M,M,M,50.00,KHTH 230435Z AUTO 14021G26KT 10SM FEW060 10/01 A2988 RMK A01,M
BVU,2021-12-23 04:35,-114.8611,35.9475,671.00,50.00,28.40,43.03,300.00,4.00,0.00,30.03,M,10.00,M,OVC,M,M,M,12000.00,M,M,M,M,M,M,M,M,M,M,50.00,KBVU 230435Z AUTO 30004KT 10SM OVC120 10/M02 A3003 RMK AO2,M
VGT,2021-12-23 04:53,-115.1933,36.2111,667.00,51.00,24.10,34.57,0.00,0.00,0.00,30.02,1018.60,10.00,M,BKN,OVC,M,M,10000.00,12000.00,M,M,M,M,M,M,M,M,M,51.10,KVGT 230453Z AUTO 00000KT 10SM BKN100 OVC120 11/M04 A3002 RMK AO2 SLP186 T01061044,M
ELY,2021-12-23 04:53,-114.8453,39.2950,1909.00,34.00,17.10,49.55,210.00,20.00,0.00,29.97,1014.80,10.00,M,OVC,M,M,M,10000.00,M,M,M,M,M,M,M,26.00,210.00,2021-12-23 04:28,21.80,KELY 230453Z AUTO 21020KT 10SM OVC100 01/M08 A2997 RMK AO2 PK WND 21026/0428 SLP148 T00111083,M
DRA,2021-12-23 04:53,-116.0278,36.6206,1009.00,43.00,25.00,48.70,60.00,6.00,0.00,30.01,1015.20,10.00,M,BKN,OVC,M,M,8500.00,11000.00,M,M,M,M,M,M,M,M,M,38.78,KDRA 230453Z AUTO 06006KT 10SM BKN085 OVC110 06/M04 A3001 RMK AO2 SLP152 T00611039,M
LOL,2021-12-23 04:53,-118.5701,40.0684,1192.43,32.00,26.10,78.58,110.00,3.00,0.00,29.87,1013.40,10.00,M,BKN,BKN,M,M,6000.00,7500.00,M,M,M,M,M,M,M,M,M,28.69,KLOL 230453Z AUTO 11003KT 10SM BKN060 BKN075 00/M03 A2987 RMK AO2 SLP134 T00001033,M
BVU,2021-12-23 04:55,-114.8611,35.9475,671.00,50.00,28.40,43.03,30.00,4.00,0.00,30.03,M,10.00,M,OVC,M,M,M,11000.00,M,M,M,M,M,M,M,M,M,M,50.00,KBVU 230455Z AUTO 03004KT 10SM OVC110 10/M02 A3003 RMK AO2,M
CXP,2021-12-23 04:55,-119.7326,39.1923,1431.00,42.80,35.60,75.50,0.00,0.00,0.00,29.87,M,10.00,M,SCT,BKN,OVC,M,3600.00,5500.00,7000.00,M,M,M,M,M,M,M,M,42.80,KCXP 230455Z AUTO 00000KT 10SM SCT036 BKN055 OVC070 06/02 A2987 RMK AO2,M
05U,2021-12-23 04:55,-116.0051,39.6042,1811.23,28.40,15.80,58.75,0.00,0.00,0.00,29.96,M,10.00,M,FEW,M,M,M,12000.00,M,M,M,M,M,M,M,M,M,M,28.40,K05U 230455Z AUTO 00000KT 10SM FEW120 M02/M09 A2996 RMK A01,M
MEV,2021-12-23 04:55,-119.7500,38.9963,1441.42,41.00,35.60,80.93,0.00,0.00,0.00,29.86,M,10.00,M,SCT,BKN,OVC,M,4000.00,5500.00,6500.00,M,M,M,M,M,M,M,M,41.00,KMEV 230455Z AUTO 00000KT 10SM SCT040 BKN055 OVC065 05/02 A2986 RMK AO2,M
HTH,2021-12-23 04:55,-118.6315,38.5448,1282.89,50.00,32.00,49.81,150.00,15.00,0.00,29.87,M,10.00,30.00,CLR,M,M,M,M,M,M,M,M,M,M,M,M,M,M,50.00,KHTH 230455Z AUTO 15015G30KT 140V210 10SM CLR 10/00 A2987 RMK A01,M
RTS,2021-12-23 04:55,-119.8764,39.6682,1539.00,41.00,35.60,80.93,260.00,12.00,0.01,29.85,M,10.00,M,SCT,BKN,OVC,M,2500.00,3600.00,6500.00,M,-DZ,M,M,M,M,M,M,33.46,KRTS 230455Z AUTO 26012KT 10SM -DZ SCT025 BKN036 OVC065 05/02 A2985 RMK AO2 P0001,M
RNO,2021-12-23 04:55,-119.7711,39.4839,1341.00,43.00,35.00,73.45,0.00,0.00,0.00,29.83,1009.90,10.00,M,SCT,OVC,M,M,6000.00,22000.00,M,M,M,M,M,M,M,M,M,43.00,KRNO 230455Z 00000KT 10SM SCT060 OVC220 06/02 A2983 RMK AO2 SLP099 T00610017,M
WMC,2021-12-23 04:56,-117.8072,40.9019,1315.00,33.00,27.00,78.03,110.00,5.00,0.00,29.86,1012.40,10.00,M,SCT,M,M,M,6000.00,M,M,M,M,M,M,M,M,M,M,27.70,KWMC 230456Z AUTO 11005KT 10SM SCT060 01/M03 A2986 RMK AO2 SLP124 T00061028,M
EKO,2021-12-23 04:56,-115.7860,40.8242,1367.00,28.90,21.00,71.96,0.00,0.00,0.00,29.91,1015.80,10.00,M,OVC,M,M,M,7000.00,M,M,M,M,M,M,M,M,M,M,28.90,KEKO 230456Z AUTO 00000KT 10SM OVC070 M02/M06 A2991 RMK AO2 SLP158 T10171061,M
LAS,2021-12-23 04:56,-115.1634,36.0719,663.00,51.00,24.10,34.57,0.00,0.00,0.00,30.03,1016.60,10.00,M,BKN,BKN,OVC,M,12000.00,18000.00,22000.00,M,M,M,M,M,M,M,M,51.10,KLAS 230456Z 00000KT 10SM BKN120 BKN180 OVC220 11/M04 A3003 RMK AO2 SLP166 T01061044,M
TPH,2021-12-23 04:56,-117.0904,38.0505,1654.00,30.00,24.10,78.40,40.00,4.00,0.00,30.01,1018.30,10.00,M,OVC,M,M,M,8500.00,M,M,M,M,M,M,M,M,M,M,25.08,KTPH 230456Z AUTO 04004KT 10SM OVC085 M01/M04 A3001 RMK AO2 SLP183 T10111044,M
NFL,2021-12-23 04:56,-118.7010,39.4166,1199.00,33.00,27.00,78.03,M,5.00,0.00,29.87,1009.00,10.00,M,BKN,OVC,M,M,6000.00,10000.00,M,M,M,M,M,M,M,M,M,27.70,KNFL 230456Z VRB05KT 10SM BKN060 OVC100 01/M03 A2987 RMK AO2 SLP090 T00061028,M
HND,2021-12-23 04:56,-115.1344,35.9729,742.79,47.00,28.90,49.32,180.00,4.00,0.00,30.04,1019.50,10.00,M,OVC,M,M,M,11000.00,M,M,M,M,M,M,M,M,M,M,44.82,KHND 230456Z AUTO 18004KT 10SM OVC110 08/M02 A3004 RMK AO2 SLP195 T00831017,M
INS,2021-12-23 04:58,-115.6733,36.5872,955.00,35.20,27.50,73.24,300.00,4.00,0.00,30.03,1017.40,10.00,M,SCT,BKN,M,M,13000.00,16000.00,M,M,M,M,M,M,M,M,M,31.16,KINS 230458Z AUTO 30004KT 10SM SCT130 BKN160 02/M02 A3003 RMK AO2 SLP174 T00181025 VISNO RWY08 $,M
LSV,2021-12-23 04:58,-115.0343,36.2362,570.00,49.30,23.40,35.89,80.00,7.00,0.00,30.02,1016.80,10.00,M,OVC,M,M,M,12000.00,M,M,M,M,M,M,M,M,M,M,45.87,KLSV 230458Z AUTO 08007KT 10SM OVC120 10/M05 A3002 RMK AO2 SLP168 T00961048 $,M
CXP,2021-12-23 05:15,-119.7326,39.1923,1431.00,42.80,35.60,75.50,0.00,0.00,0.00,29.87,M,10.00,M,FEW,BKN,OVC,M,3800.00,4600.00,7000.00,M,M,M,M,M,M,M,M,42.80,KCXP 230515Z AUTO 00000KT 10SM FEW038 BKN046 OVC070 06/02 A2987 RMK AO2,M
HTH,2021-12-23 05:15,-118.6315,38.5448,1282.89,50.00,33.80,53.54,170.00,15.00,0.00,29.87,M,10.00,26.00,CLR,M,M,M,M,M,M,M,M,M,M,M,M,M,M,50.00,KHTH 230515Z AUTO 17015G26KT 10SM CLR 10/01 A2987 RMK A01,M
MEV,2021-12-23 05:15,-119.7500,38.9963,1441.42,39.20,35.60,86.79,0.00,0.00,0.00,29.86,M,10.00,M,BKN,OVC,M,M,3400.00,4100.00,M,M,-RA,M,M,M,M,M,M,39.20,KMEV 230515Z AUTO 00000KT 10SM -RA BKN034 OVC041 04/02 A2986 RMK AO2,M
05U,2021-12-23 05:15,-116.0051,39.6042,1811.23,28.40,17.60,63.51,0.00,0.00,0.00,29.96,M,10.00,M,BKN,M,M,M,11000.00,M,M,M,M,M,M,M,M,M,M,28.40,K05U 230515Z AUTO 00000KT 10SM BKN110 M02/M08 A2996 RMK A01,M
RTS,2021-12-23 05:15,-119.8764,39.6682,1539.00,39.20,35.60,86.79,200.00,7.00,0.00,29.85,M,10.00,M,FEW,SCT,BKN,M,3300.00,4900.00,6000.00,M,M,M,M,M,M,M,M,33.56,KRTS 230515Z AUTO 20007KT 10SM FEW033 SCT049 BKN060 04/02 A2985 RMK AO2,M
BVU,2021-12-23 05:15,-114.8611,35.9475,671.00,50.00,33.80,53.54,30.00,3.00,0.00,30.03,M,10.00,M,OVC,M,M,M,10000.00,M,M,M,M,M,M,M,M,M,M,50.00,KBVU 230515Z AUTO 03003KT 10SM OVC100 10/01 A3003 RMK AO2,M
CXP,2021-12-23 05:35,-119.7326,39.1923,1431.00,42.80,35.60,75.50,0.00,0.00,0.00,29.86,M,10.00,M,BKN,OVC,M,M,4200.00,5000.00,M,M,M,M,M,M,M,M,M,42.80,KCXP 230535Z AUTO 00000KT 10SM BKN042 OVC050 06/02 A2986 RMK AO2,M
MEV,2021-12-23 05:35,-119.7500,38.9963,1441.42,39.20,35.60,86.79,140.00,3.00,0.00,29.85,M,9.00,M,BKN,BKN,OVC,M,3400.00,4100.00,5000.00,M,-RA,M,M,M,M,M,M,36.92,KMEV 230535Z AUTO 14003KT 9SM -RA BKN034 BKN041 OVC050 04/02 A2985 RMK AO2,M
TMT,2021-12-23 05:35,-117.1971,39.4643,1749.34,35.60,26.40,68.89,240.00,9.00,0.00,29.92,M,10.00,M,BKN,OVC,M,M,8000.00,10000.00,M,M,M,M,M,M,M,M,M,27.99,KTMT 230535Z AUTO 24009KT 10SM BKN080 OVC100 02/M03 A2992 RMK AO2 T00201031,M
HTH,2021-12-23 05:35,-118.6315,38.5448,1282.89,51.80,30.20,43.32,200.00,21.00,0.00,29.88,M,10.00,37.00,FEW,M,M,M,9500.00,M,M,M,M,M,M,M,M,M,M,51.80,KHTH 230535Z AUTO 20021G37KT 170V230 10SM FEW095 11/M01 A2988 RMK A01,M
05U,2021-12-23 05:35,-116.0051,39.6042,1811.23,30.20,17.60,59.01,190.00,5.00,0.00,29.95,M,10.00,M,FEW,OVC,M,M,7500.00,11000.00,M,M,M,M,M,M,M,M,M,24.26,K05U 230535Z AUTO 19005KT 10SM FEW075 OVC110 M01/M08 A2995 RMK A01,M
RTS,2021-12-23 05:35,-119.8764,39.6682,1539.00,39.20,33.80,80.79,0.00,0.00,0.00,29.85,M,10.00,10.00,FEW,SCT,BKN,M,4600.00,6500.00,8000.00,M,M,M,M,M,M,M,M,39.20,KRTS 230535Z AUTO 00000G10KT 10SM FEW046 SCT065 BKN080 04/01 A2985 RMK AO2,M
BAM,2021-12-23 05:35,-116.8743,40.5990,1382.36,30.20,30.20,100.00,0.00,0.00,0.00,29.89,M,10.00,M,BKN,BKN,M,M,7000.00,9000.00,M,M,M,M,M,M,M,M,M,30.20,KBAM 230535Z AUTO 00000KT 10SM BKN070 BKN090 M01/M01 A2989 RMK AO1,M
BVU,2021-12-23 05:35,-114.8611,35.9475,671.00,50.00,33.80,53.54,0.00,0.00,0.00,30.02,M,10.00,M,OVC,M,M,M,10000.00,M,M,M,M,M,M,M,M,M,M,50.00,KBVU 230535Z AUTO 00000KT 10SM OVC100 10/01 A3002 RMK AO2,M
ELY,2021-12-23 05:53,-114.8453,39.2950,1909.00,36.00,19.00,49.66,220.00,17.00,0.00,29.97,1013.40,10.00,24.00,OVC,M,M,M,9500.00,M,M,M,M,M,M,M,27.00,210.00,2021-12-23 05:29,25.32,KELY 230553Z AUTO 22017G24KT 10SM OVC095 02/M07 A2997 RMK AO2 PK WND 21027/0529 SLP134 T00221072 10022 21011 58001,M
LOL,2021-12-23 05:53,-118.5701,40.0684,1192.43,30.00,26.10,85.21,0.00,0.00,0.00,29.86,1013.00,10.00,M,BKN,BKN,M,M,6500.00,8000.00,M,M,M,M,M,M,M,M,M,30.00,KLOL 230553Z AUTO 00000KT 10SM BKN065 BKN080 M01/M03 A2986 RMK AO2 SLP130 T10111033 10061 21011 58007,M
VGT,2021-12-23 05:53,-115.1933,36.2111,667.00,51.00,23.00,33.01,210.00,3.00,0.00,30.03,1018.60,10.00,M,OVC,M,M,M,10000.00,M,M,M,M,M,M,M,M,M,M,51.10,KVGT 230553Z AUTO 21003KT 10SM OVC100 11/M05 A3003 RMK AO2 SLP186 T01061050 10128 20106 53003,M
P68,2021-12-23 05:53,-116.0056,39.6014,1993.00,28.90,19.00,66.08,M,3.00,0.00,29.93,1014.30,M,M,M,M,M,M,M,M,M,M,M,M,M,M,M,M,M,25.14,KP68 230553Z AUTO VRB03KT M02/M07 A2993 RMK AO1 SLP143 T10171072 10017 21056 58003,M
DRA,2021-12-23 05:53,-116.0278,36.6206,1009.00,42.00,28.00,57.08,360.00,5.00,T,30.02,1015.80,10.00,M,BKN,OVC,M,M,7000.00,8500.00,M,M,-RA,M,M,M,M,M,M,38.39,KDRA 230553Z AUTO 36005KT 10SM -RA BKN070 OVC085 06/M02 A3002 RMK AO2 RAB51 SLP158 P0000 60000 T00561022 10100 20044 53007,M
TMT,2021-12-23 05:55,-117.1971,39.4643,1749.34,36.50,27.50,69.57,220.00,11.00,0.00,29.92,M,10.00,M,BKN,OVC,M,M,7000.00,9000.00,M,M,M,M,M,M,M,M,M,28.15,KTMT 230555Z AUTO 22011KT 10SM BKN070 OVC090 03/M02 A2992 RMK AO2 T00251025 10059 21028,M
BVU,2021-12-23 05:55,-114.8611,35.9475,671.00,50.00,32.00,49.81,330.00,3.00,0.00,30.03,M,10.00,M,OVC,M,M,M,10000.00,M,M,M,M,M,M,M,M,M,M,50.00,KBVU 230555Z AUTO 33003KT 10SM OVC100 10/00 A3003 RMK AO2,M
BAM,2021-12-23 05:55,-116.8743,40.5990,1382.36,30.20,30.20,100.00,0.00,0.00,0.00,29.89,M,10.00,M,SCT,OVC,M,M,7000.00,8000.00,M,M,M,M,M,M,M,M,M,30.20,KBAM 230555Z AUTO 00000KT 10SM SCT070 OVC080 M01/M01 A2989 RMK AO1,M
MEV,2021-12-23 05:55,-119.7500,38.9963,1441.42,39.20,35.60,86.79,0.00,0.00,0.00,29.85,M,10.00,M,SCT,BKN,OVC,M,3500.00,4200.00,4900.00,M,-RA,M,M,M,M,M,M,39.20,KMEV 230555Z AUTO 00000KT 10SM -RA SCT035 BKN042 OVC049 04/02 A2985 RMK AO2,M
05U,2021-12-23 05:55,-116.0051,39.6042,1811.23,30.20,19.40,63.75,0.00,0.00,0.00,29.95,M,10.00,M,FEW,OVC,M,M,7500.00,10000.00,M,M,M,M,M,M,M,M,M,30.20,K05U 230555Z AUTO 00000KT 10SM FEW075 OVC100 M01/M07 A2995 RMK A01,M
RTS,2021-12-23 05:55,-119.8764,39.6682,1539.00,37.40,33.80,86.69,320.00,4.00,0.00,29.84,M,10.00,M,FEW,SCT,BKN,M,4500.00,6500.00,9000.00,M,M,M,M,M,M,M,M,33.73,KRTS 230555Z AUTO 32004KT 10SM FEW045 SCT065 BKN090 03/01 A2984 RMK AO2,M
RNO,2021-12-23 05:55,-119.7711,39.4839,1341.00,43.00,35.00,73.45,350.00,8.00,0.00,29.83,1009.30,10.00,M,FEW,OVC,M,M,5500.00,23000.00,M,M,M,M,M,M,M,M,M,37.66,KRNO 230555Z 35008KT 10SM FEW055 OVC230 06/02 A2983 RMK AO2 SLP093 T00610017 10089 20050 58008,M
CXP,2021-12-23 05:55,-119.7326,39.1923,1431.00,42.80,37.40,81.07,0.00,0.00,0.00,29.86,M,8.00,M,BKN,OVC,M,M,3800.00,4400.00,M,M,M,M,M,M,M,M,M,42.80,KCXP 230555Z AUTO 00000KT 8SM BKN038 OVC044 06/03 A2986 RMK AO2,M
HTH,2021-12-23 05:55,-118.6315,38.5448,1282.89,50.00,32.00,49.81,130.00,7.00,0.00,29.88,M,10.00,23.00,FEW,FEW,M,M,9000.00,12000.00,M,M,M,M,M,M,M,M,M,50.00,KHTH 230555Z AUTO 13007G23KT 080V200 10SM FEW090 FEW120 10/M00 A2988 RMK A01,M
WMC,2021-12-23 05:56,-117.8072,40.9019,1315.00,35.00,27.00,72.04,180.00,6.00,0.00,29.84,1011.50,10.00,M,OVC,M,M,M,6000.00,M,M,M,M,M,M,M,M,M,M,29.26,KWMC 230556Z AUTO 18006KT 10SM OVC060 02/M03 A2984 RMK AO2 SLP115 T00171028 10022 20006 58013,M
HND,2021-12-23 05:56,-115.1344,35.9729,742.79,47.00,30.00,51.58,170.00,3.00,0.00,30.04,1019.20,10.00,M,OVC,M,M,M,10000.00,M,M,M,M,M,M,M,M,M,M,45.72,KHND 230556Z AUTO 17003KT 10SM OVC100 08/M01 A3004 RMK AO2 SLP192 T00831011 10111 20083 53002,M
NFL,2021-12-23 05:56,-118.7010,39.4166,1199.00,34.00,27.00,75.26,M,5.00,0.00,29.85,1008.50,10.00,M,BKN,OVC,M,M,6000.00,10000.00,M,M,M,M,M,M,M,M,M,28.77,KNFL 230556Z VRB05KT 10SM BKN060 OVC100 01/M03 A2985 RMK AO2 SLP085 T00111028 10056 20006 58007,M
EKO,2021-12-23 05:56,-115.7860,40.8242,1367.00,27.00,19.90,74.25,200.00,3.00,0.00,29.90,1015.30,10.00,M,CLR,M,M,M,M,M,M,M,M,M,M,M,M,M,M,22.97,KEKO 230556Z AUTO 20003KT 10SM CLR M03/M07 A2990 RMK AO2 SLP153 T10281067 10006 21028 58001,M
LAS,2021-12-23 05:56,-115.1634,36.0719,663.00,50.00,26.10,39.14,280.00,3.00,0.00,30.03,1016.90,10.00,M,OVC,M,M,M,10000.00,M,M,M,M,M,M,M,M,M,M,50.00,KLAS 230556Z 28003KT 10SM OVC100 10/M03 A3003 RMK AO2 SLP169 T01001033 10122 20100 53001,M
TPH,2021-12-23 05:56,-117.0904,38.0505,1654.00,28.90,24.10,82.00,20.00,4.00,0.00,30.01,1017.80,10.00,M,OVC,M,M,M,9500.00,M,M,M,M,M,M,M,M,M,M,23.80,KTPH 230556Z AUTO 02004KT 10SM OVC095 M02/M04 A3001 RMK AO2 SLP178 T10171044 10028 21061 56002,M
INS,2021-12-23 06:03,-115.6733,36.5872,955.00,37.40,28.40,69.67,0.00,0.00,0.00,30.04,1017.30,10.00,M,BKN,OVC,M,M,7500.00,10000.00,M,M,M,M,M,M,M,M,M,37.40,KINS 230603Z AUTO 00000KT 10SM BKN075 OVC100 03/M02 A3004 RMK AO2 SLP173 VISNO RWY08 $,M
HTH,2021-12-23 06:15,-118.6315,38.5448,1282.89,46.40,30.20,53.00,170.00,10.00,0.00,29.89,M,10.00,17.00,CLR,M,M,M,M,M,M,M,M,M,M,M,M,M,M,41.03,KHTH 230615Z AUTO 17010G17KT 150V220 10SM CLR 08/M01 A2989 RMK A01,M
MEV,2021-12-23 06:15,-119.7500,38.9963,1441.42,39.20,35.60,86.79,0.00,0.00,0.00,29.85,M,10.00,M,BKN,OVC,M,M,3500.00,4300.00,M,M,-RA,M,M,M,M,M,M,39.20,KMEV 230615Z AUTO 00000KT 10SM -RA BKN035 OVC043 04/02 A2985 RMK AO2,M
BVU,2021-12-23 06:15,-114.8611,35.9475,671.00,50.00,30.20,46.31,0.00,0.00,0.00,30.03,M,10.00,M,OVC,M,M,M,10000.00,M,M,M,M,M,M,M,M,M,M,50.00,KBVU 230615Z AUTO 00000KT 10SM OVC100 10/M01 A3003 RMK AO2,M
CXP,2021-12-23 06:15,-119.7326,39.1923,1431.00,42.80,37.40,81.07,0.00,0.00,0.00,29.85,M,8.00,M,BKN,OVC,M,M,3500.00,4400.00,M,M,-UP,M,M,M,M,M,M,42.80,KCXP 230615Z AUTO 00000KT 8SM -UP BKN035 OVC044 06/03 A2985 RMK AO2,M
BAM,2021-12-23 06:15,-116.8743,40.5990,1382.36,32.00,32.00,100.00,0.00,0.00,0.00,29.89,M,10.00,M,SCT,OVC,M,M,7000.00,8000.00,M,M,M,M,M,M,M,M,M,32.00,KBAM 230615Z AUTO 00000KT 10SM SCT070 OVC080 00/00 A2989 RMK AO1,M
RTS,2021-12-23 06:15,-119.8764,39.6682,1539.00,37.40,33.80,86.69,M,4.00,0.00,29.83,M,10.00,M,SCT,SCT,M,M,4600.00,8500.00,M,M,M,M,M,M,M,M,M,33.73,KRTS 230615Z AUTO VRB04KT 10SM SCT046 SCT085 03/01 A2983 RMK AO2,M
TMT,2021-12-23 06:15,-117.1971,39.4643,1749.34,38.00,29.10,69.75,220.00,13.00,0.00,29.92,M,10.00,M,BKN,OVC,M,M,7000.00,8000.00,M,M,M,M,M,M,M,M,M,29.38,KTMT 230615Z AUTO 22013KT 10SM BKN070 OVC080 03/M02 A2992 RMK AO2 T00341016,M
05U,2021-12-23 06:15,-116.0051,39.6042,1811.23,28.40,19.40,68.61,210.00,5.00,0.00,29.95,M,10.00,M,BKN,OVC,M,M,7500.00,9500.00,M,M,M,M,M,M,M,M,M,22.12,K05U 230615Z AUTO 21005KT 10SM BKN075 OVC095 M02/M07 A2995 RMK A01,M
CXP,2021-12-23 06:35,-119.7326,39.1923,1431.00,42.80,37.40,81.07,0.00,0.00,0.00,29.86,M,6.00,M,BKN,OVC,M,M,3500.00,4500.00,M,M,-RA,M,M,M,M,M,M,42.80,KCXP 230635Z AUTO 00000KT 6SM -RA BKN035 OVC045 06/03 A2986 RMK AO2,M
BVU,2021-12-23 06:35,-114.8611,35.9475,671.00,50.00,30.20,46.31,0.00,0.00,0.00,30.03,M,10.00,M,OVC,M,M,M,10000.00,M,M,M,M,M,M,M,M,M,M,50.00,KBVU 230635Z AUTO 00000KT 10SM OVC100 10/M01 A3003 RMK AO2,M
RTS,2021-12-23 06:35,-119.8764,39.6682,1539.00,42.80,32.00,65.38,230.00,16.00,0.00,29.83,M,10.00,23.00,FEW,M,M,M,4500.00,M,M,M,M,M,M,M,M,M,M,34.50,KRTS 230635Z AUTO 23016G23KT 10SM FEW045 06/M00 A2983 RMK AO2,M
05U,2021-12-23 06:35,-116.0051,39.6042,1811.23,28.40,19.40,68.61,0.00,0.00,0.00,29.96,M,10.00,M,BKN,OVC,M,M,7500.00,9000.00,M,M,M,M,M,M,M,M,M,28.40,K05U 230635Z AUTO 00000KT 10SM BKN075 OVC090 M02/M07 A2996 RMK A01,M
MEV,2021-12-23 06:35,-119.7500,38.9963,1441.42,37.40,37.40,100.00,0.00,0.00,0.00,29.85,M,10.00,M,SCT,OVC,M,M,3300.00,4200.00,M,M,-RA,M,M,M,M,M,M,37.40,KMEV 230635Z AUTO 00000KT 10SM -RA SCT033 OVC042 03/03 A2985 RMK AO2,M
BAM,2021-12-23 06:35,-116.8743,40.5990,1382.36,32.00,30.20,92.97,0.00,0.00,0.00,29.89,M,10.00,M,BKN,M,M,M,8000.00,M,M,M,M,M,M,M,M,M,M,32.00,KBAM 230635Z AUTO 00000KT 10SM BKN080 00/M01 A2989 RMK AO1,M
HTH,2021-12-23 06:35,-118.6315,38.5448,1282.89,46.40,30.20,53.00,110.00,5.00,0.00,29.88,M,10.00,15.00,CLR,M,M,M,M,M,M,M,M,M,M,M,M,M,M,43.50,KHTH 230635Z AUTO 11005G15KT 10SM CLR 08/M01 A2988 RMK A01,M
TMT,2021-12-23 06:35,-117.1971,39.4643,1749.34,37.40,28.80,70.82,250.00,10.00,0.00,29.91,M,10.00,M,SCT,OVC,M,M,7000.00,9000.00,M,M,M,M,M,M,M,M,M,29.74,KTMT 230635Z AUTO 25010KT 10SM SCT070 OVC090 03/M02 A2991 RMK AO2 T00301018,M
LOL,2021-12-23 06:53,-118.5701,40.0684,1192.43,32.00,28.00,84.98,0.00,0.00,0.00,29.84,1012.20,10.00,M,OVC,M,M,M,6000.00,M,M,M,M,M,M,M,M,M,M,32.00,KLOL 230653Z AUTO 00000KT 10SM OVC060 00/M02 A2984 RMK AO2 SLP122 T00001022,M
VGT,2021-12-23 06:53,-115.1933,36.2111,667.00,51.00,24.10,34.57,0.00,0.00,0.00,30.02,1018.20,10.00,M,OVC,M,M,M,9500.00,M,M,M,M,M,M,M,M,M,M,51.10,KVGT 230653Z AUTO 00000KT 10SM OVC095 11/M04 A3002 RMK AO2 SLP182 T01061044,M
DRA,2021-12-23 06:53,-116.0278,36.6206,1009.00,41.00,35.00,79.34,60.00,4.00,0.01,30.02,1015.50,10.00,M,FEW,BKN,OVC,M,4400.00,5500.00,7000.00,M,-RA,M,M,M,M,M,M,37.93,KDRA 230653Z AUTO 06004KT 10SM -RA FEW044 BKN055 OVC070 05/02 A3002 RMK AO2 SLP155 P0001 T00500017,M
P68,2021-12-23 06:53,-116.0056,39.6014,1993.00,28.90,19.90,68.67,160.00,6.00,0.00,29.94,1014.00,M,M,M,M,M,M,M,M,M,M,M,M,M,M,M,M,M,21.80,KP68 230653Z AUTO 16006KT M02/M07 A2994 RMK AO1 SLP140 T10171067,M
ELY,2021-12-23 06:53,-114.8453,39.2950,1909.00,35.00,18.00,49.31,210.00,17.00,0.00,29.99,1014.10,10.00,22.00,OVC,M,M,M,8000.00,M,M,M,M,M,M,M,28.00,210.00,2021-12-23 06:16,24.14,KELY 230653Z AUTO 21017G22KT 10SM OVC080 02/M08 A2999 RMK AO2 PK WND 21028/0616 SLP141 T00171078,M
BVU,2021-12-23 06:55,-114.8611,35.9475,671.00,48.20,33.80,57.26,40.00,3.00,0.00,30.03,M,10.00,M,OVC,M,M,M,9500.00,M,M,M,M,M,M,M,M,M,M,47.21,KBVU 230655Z AUTO 04003KT 10SM OVC095 09/01 A3003 RMK AO2,M
CXP,2021-12-23 06:55,-119.7326,39.1923,1431.00,41.00,39.20,93.24,330.00,5.00,0.00,29.86,M,8.00,M,OVC,M,M,M,3500.00,M,M,M,-RA,M,M,M,M,M,M,37.08,KCXP 230655Z AUTO 33005KT 8SM -RA OVC035 05/04 A2986 RMK AO2,M
HTH,2021-12-23 06:55,-118.6315,38.5448,1282.89,46.40,33.80,61.28,90.00,9.00,0.00,29.88,M,10.00,M,CLR,M,M,M,M,M,M,M,M,M,M,M,M,M,M,41.42,KHTH 230655Z AUTO 09009KT 10SM CLR 08/01 A2988 RMK A01,M
MEV,2021-12-23 06:55,-119.7500,38.9963,1441.42,37.40,37.40,100.00,0.00,0.00,0.00,29.85,M,9.00,M,BKN,OVC,M,M,3400.00,4300.00,M,M,-RA,M,M,M,M,M,M,37.40,KMEV 230655Z AUTO 00000KT 9SM -RA BKN034 OVC043 03/03 A2985 RMK AO2,M
BAM,2021-12-23 06:55,-116.8743,40.5990,1382.36,32.00,30.20,92.97,220.00,3.00,0.00,29.88,M,10.00,M,BKN,M,M,M,8000.00,M,M,M,M,M,M,M,M,M,M,28.69,KBAM 230655Z AUTO 22003KT 10SM BKN080 00/M01 A2988 RMK AO1,M
RTS,2021-12-23 06:55,-119.8764,39.6682,1539.00,44.60,32.00,61.03,220.00,18.00,0.00,29.82,M,10.00,27.00,CLR,M,M,M,M,M,M,M,M,M,M,M,M,M,M,36.34,KRTS 230655Z AUTO 22018G27KT 10SM CLR 07/M00 A2982 RMK AO2,M
05U,2021-12-23 06:55,-116.0051,39.6042,1811.23,30.20,19.40,63.75,180.00,5.00,0.00,29.96,M,10.00,M,FEW,SCT,BKN,M,3600.00,4700.00,6000.00,M,M,M,M,M,M,M,M,24.26,K05U 230655Z AUTO 18005KT 10SM FEW036 SCT047 BKN060 M01/M07 A2996 RMK A01,M
RNO,2021-12-23 06:55,-119.7711,39.4839,1341.00,42.00,35.00,76.04,220.00,4.00,T,29.84,1009.50,10.00,M,SCT,BKN,OVC,M,3700.00,5000.00,24000.00,M,-RA,M,M,M,M,M,M,39.21,KRNO 230655Z 22004KT 10SM -RA SCT037 BKN050 OVC240 06/02 A2984 RMK AO2 RAB39 SLP095 P0000 T00560017,M
TMT,2021-12-23 06:55,-117.1971,39.4643,1749.34,36.30,28.00,71.58,210.00,9.00,0.00,29.89,M,10.00,M,OVC,M,M,M,10000.00,M,M,M,M,M,M,M,M,M,M,28.86,KTMT 230655Z AUTO 21009KT 10SM OVC100 02/M02 A2989 RMK AO2 T00241022,M
WMC,2021-12-23 06:56,-117.8072,40.9019,1315.00,34.00,27.00,75.26,M,M,0.00,29.82,1010.70,10.00,M,OVC,M,M,M,6000.00,M,M,M,M,M,M,M,M,M,M,M,KWMC 230656Z AUTO 10SM OVC060 01/M03 A2982 RMK AO2 SLP107 T00111028,M
HND,2021-12-23 06:56,-115.1344,35.9729,742.79,47.00,30.00,51.58,0.00,0.00,0.00,30.04,1019.10,10.00,M,OVC,M,M,M,9500.00,M,M,M,M,M,M,M,M,M,M,46.90,KHND 230656Z AUTO 00000KT 10SM OVC095 08/M01 A3004 RMK AO2 SLP191 T00831011 401220000,M
EKO,2021-12-23 06:56,-115.7860,40.8242,1367.00,27.00,21.00,77.80,0.00,0.00,0.00,29.89,1014.90,10.00,M,OVC,M,M,M,7500.00,M,M,M,M,M,M,M,M,M,M,27.00,KEKO 230656Z AUTO 00000KT 10SM OVC075 M03/M06 A2989 RMK AO2 SLP149 T10281061,M
NFL,2021-12-23 06:56,-118.7010,39.4166,1199.00,34.00,27.00,75.26,M,5.00,0.00,29.84,1008.00,10.00,M,BKN,OVC,M,M,6000.00,10000.00,M,M,M,M,M,M,M,M,M,28.77,KNFL 230656Z AUTO VRB05KT 10SM BKN060 OVC100 01/M03 A2984 RMK AO2 SLP080 T00111028,M
TPH,2021-12-23 06:56,-117.0904,38.0505,1654.00,28.90,25.00,85.14,350.00,6.00,0.00,30.00,1017.70,10.00,M,OVC,M,M,M,9000.00,M,M,M,M,M,M,M,M,M,M,21.80,KTPH 230656Z AUTO 35006KT 10SM OVC090 M02/M04 A3000 RMK AO2 SLP177 T10171039,M
LAS,2021-12-23 06:56,-115.1634,36.0719,663.00,50.00,26.10,39.14,0.00,0.00,0.00,30.03,1016.60,9.00,M,OVC,M,M,M,9500.00,M,M,M,M,M,M,M,M,M,M,50.00,KLAS 230656Z 00000KT 9SM OVC095 10/M03 A3003 RMK AO2 SLP166 T01001033,M
INS,2021-12-23 06:58,-115.6733,36.5872,955.00,39.00,28.90,66.79,0.00,0.00,0.00,30.04,1016.80,10.00,M,BKN,BKN,M,M,7000.00,13000.00,M,M,M,M,M,M,M,M,M,39.00,KINS 230658Z AUTO 00000KT 10SM BKN070 BKN130 04/M02 A3004 RMK AO2 SLP168 T00391017 VISNO RWY08 $,M
LSV,2021-12-23 06:58,-115.0343,36.2362,570.00,49.30,25.30,38.86,0.00,0.00,0.00,30.02,1016.50,10.00,M,BKN,OVC,M,M,10000.00,13000.00,M,M,M,M,M,M,M,M,M,49.30,KLSV 230658Z AUTO 00000KT 10SM BKN100 OVC130 10/M04 A3002 RMK AO2 SLP165 T00961037 $,M
CXP,2021-12-23 07:10,-119.7326,39.1923,1431.00,41.00,39.20,93.24,M,M,0.00,29.85,M,5.00,M,BKN,OVC,M,M,3400.00,4300.00,M,M,-RA,M,M,M,M,M,M,M,KCXP 230710Z AUTO 5SM -RA BKN034 OVC043 05/04 A2985 RMK AO2,M
05U,2021-12-23 07:10,-116.0051,39.6042,1811.23,30.20,19.40,63.75,150.00,5.00,0.00,29.93,M,10.00,M,FEW,BKN,OVC,M,4000.00,5500.00,6500.00,M,M,M,M,M,M,M,M,24.26,K05U 230710Z AUTO 15005KT 10SM FEW040 BKN055 OVC065 M01/M07 A2993 RMK A01,M
BVU,2021-12-23 07:15,-114.8611,35.9475,671.00,50.00,32.00,49.81,0.00,0.00,0.00,30.03,M,10.00,M,OVC,M,M,M,9000.00,M,M,M,M,M,M,M,M,M,M,50.00,KBVU 230715Z AUTO 00000KT 10SM OVC090 10/00 A3003 RMK AO2,M
RTS,2021-12-23 07:15,-119.8764,39.6682,1539.00,42.80,32.00,65.38,210.00,14.00,0.00,29.82,M,10.00,20.00,FEW,M,M,M,4600.00,M,M,M,M,M,M,M,M,M,M,35.08,KRTS 230715Z AUTO 21014G20KT 10SM FEW046 06/00 A2982 RMK AO2,M
HTH,2021-12-23 07:15,-118.6315,38.5448,1282.89,39.20,26.60,60.29,80.00,14.00,0.00,29.87,M,10.00,23.00,CLR,M,M,M,M,M,M,M,M,M,M,M,M,M,M,30.44,KHTH 230715Z AUTO 08014G23KT 10SM CLR 04/M03 A2987 RMK A01,M
TMT,2021-12-23 07:15,-117.1971,39.4643,1749.34,35.80,27.10,70.35,280.00,9.00,0.00,29.89,M,10.00,M,SCT,BKN,M,M,9500.00,12000.00,M,M,M,M,M,M,M,M,M,28.24,KTMT 230715Z AUTO 28009KT 10SM SCT095 BKN120 02/M03 A2989 RMK AO2 T00211027,M
BAM,2021-12-23 07:15,-116.8743,40.5990,1382.36,30.20,30.20,100.00,140.00,5.00,0.00,29.87,M,10.00,M,OVC,M,M,M,8000.00,M,M,M,M,M,M,M,M,M,M,24.26,KBAM 230715Z AUTO 14005KT 10SM OVC080 M01/M01 A2987 RMK AO1,M
MEV,2021-12-23 07:15,-119.7500,38.9963,1441.42,39.20,37.40,93.19,100.00,3.00,0.00,29.83,M,9.00,M,BKN,OVC,M,M,3300.00,4200.00,M,M,-RA,M,M,M,M,M,M,36.92,KMEV 230715Z AUTO 10003KT 9SM -RA BKN033 OVC042 04/03 A2983 RMK AO2,M
INS,2021-12-23 07:18,-115.6733,36.5872,955.00,37.40,28.40,69.67,0.00,0.00,0.00,30.04,1016.80,10.00,M,SCT,M,M,M,7500.00,M,M,M,M,M,M,M,M,M,M,37.40,KINS 230718Z AUTO 00000KT 10SM SCT075 03/M02 A3004 RMK AO2 SLP168 VISNO RWY08 $,M
CXP,2021-12-23 07:30,-119.7326,39.1923,1431.00,41.00,39.20,93.24,350.00,5.00,0.00,29.84,M,9.00,M,BKN,BKN,OVC,M,3400.00,4100.00,5500.00,M,M,M,M,M,M,M,M,37.08,KCXP 230730Z AUTO 35005KT 9SM BKN034 BKN041 OVC055 05/04 A2984 RMK AO2,M
RTS,2021-12-23 07:35,-119.8764,39.6682,1539.00,42.80,33.80,70.28,200.00,13.00,0.00,29.81,M,10.00,M,FEW,FEW,FEW,M,4300.00,5000.00,6000.00,M,M,M,M,M,M,M,M,35.40,KRTS 230735Z AUTO 20013KT 10SM FEW043 FEW050 FEW060 06/01 A2981 RMK AO2,M
BVU,2021-12-23 07:35,-114.8611,35.9475,671.00,50.00,32.00,49.81,0.00,0.00,0.00,30.03,M,10.00,M,SCT,OVC,M,M,7500.00,9000.00,M,M,M,M,M,M,M,M,M,50.00,KBVU 230735Z AUTO 00000KT 10SM SCT075 OVC090 10/00 A3003 RMK AO2,M
TMT,2021-12-23 07:35,-117.1971,39.4643,1749.34,38.00,27.50,65.84,250.00,12.00,0.00,29.89,M,10.00,M,CLR,M,M,M,M,M,M,M,M,M,M,M,M,M,M,29.51,KTMT 230735Z AUTO 25012KT 10SM CLR 03/M02 A2989 RMK AO2 T00331025,M
BAM,2021-12-23 07:35,-116.8743,40.5990,1382.36,30.20,30.20,100.00,150.00,6.00,0.00,29.85,M,10.00,M,OVC,M,M,M,8000.00,M,M,M,M,M,M,M,M,M,M,23.36,KBAM 230735Z AUTO 15006KT 10SM OVC080 M01/M01 A2985 RMK AO1,M
HTH,2021-12-23 07:35,-118.6315,38.5448,1282.89,44.60,33.80,65.61,130.00,8.00,0.00,29.86,M,10.00,M,CLR,M,M,M,M,M,M,M,M,M,M,M,M,M,M,39.63,KHTH 230735Z AUTO 13008KT 10SM CLR 07/01 A2986 RMK A01,M
05U,2021-12-23 07:35,-116.0051,39.6042,1811.23,32.00,19.40,59.27,130.00,10.00,0.00,29.92,M,10.00,M,FEW,BKN,OVC,M,5500.00,7000.00,8000.00,M,M,M,M,M,M,M,M,22.97,K05U 230735Z AUTO 13010KT 10SM FEW055 BKN070 OVC080 M00/M07 A2992 RMK A01,M
MEV,2021-12-23 07:35,-119.7500,38.9963,1441.42,41.00,39.20,93.24,160.00,10.00,0.00,29.83,M,3.00,M,FEW,SCT,BKN,M,1500.00,2700.00,3300.00,M,-RA BR,M,M,M,M,M,M,34.25,KMEV 230735Z AUTO 16010KT 3SM -RA BR FEW015 SCT027 BKN033 05/04 A2983 RMK AO2,M
INS,2021-12-23 07:38,-115.6733,36.5872,955.00,37.40,28.40,69.67,40.00,3.00,0.00,30.02,1016.10,10.00,M,BKN,M,M,M,8000.00,M,M,M,M,M,M,M,M,M,M,34.86,KINS 230738Z AUTO 04003KT 10SM BKN080 03/M02 A3002 RMK AO2 SLP161 VISNO RWY08 $,M
05U,2021-12-23 07:50,-116.0051,39.6042,1811.23,35.60,21.20,55.41,150.00,14.00,0.00,29.92,M,10.00,M,FEW,BKN,OVC,M,6500.00,7500.00,8500.00,M,M,M,M,M,M,M,M,25.80,K05U 230750Z AUTO 15014KT 10SM FEW065 BKN075 OVC085 02/M06 A2992 RMK A01,M
ELY,2021-12-23 07:53,-114.8453,39.2950,1909.00,34.00,19.90,55.88,220.00,14.00,0.00,29.96,1012.90,10.00,M,FEW,OVC,M,M,5500.00,8000.00,M,M,M,M,M,M,26.00,190.00,2021-12-23 07:00,23.74,KELY 230753Z AUTO 22014KT 10SM FEW055 OVC080 01/M07 A2996 RMK AO2 PK WND 19026/0700 SLP129 T00111067 400561100,M
P68,2021-12-23 07:53,-116.0056,39.6014,1993.00,37.00,21.90,54.01,150.00,17.00,0.00,29.89,1011.40,M,21.00,M,M,M,M,M,M,M,M,M,M,M,M,M,M,M,26.63,KP68 230753Z AUTO 15017G21KT 03/M06 A2989 RMK AO1 SLP114 T00281056 400561117,M
LOL,2021-12-23 07:53,-118.5701,40.0684,1192.43,32.00,28.90,88.17,100.00,4.00,T,29.82,1010.90,10.00,M,OVC,M,M,M,5000.00,M,M,M,M,M,M,M,M,M,M,27.42,KLOL 230753Z AUTO 10004KT 10SM OVC050 00/M02 A2982 RMK AO2 UPB37E46 SLP109 P0000 T00001017 400671050,M
VGT,2021-12-23 07:53,-115.1933,36.2111,667.00,50.00,27.00,40.62,350.00,4.00,0.00,30.02,1018.30,10.00,M,OVC,M,M,M,9500.00,M,M,M,M,M,M,M,M,M,M,50.00,KVGT 230753Z AUTO 35004KT 10SM OVC095 10/M03 A3002 RMK AO2 SLP183 T01001028 401390022,M
DRA,2021-12-23 07:53,-116.0278,36.6206,1009.00,40.00,36.00,85.81,310.00,6.00,0.01,30.00,1014.80,10.00,M,OVC,M,M,M,5500.00,M,M,M,-RA,M,M,M,M,M,M,35.04,KDRA 230753Z AUTO 31006KT 10SM -RA OVC055 04/02 A3000 RMK AO2 RAE08B38 SLP148 P0001 T00440022 401061028,M
RTS,2021-12-23 07:55,-119.8764,39.6682,1539.00,42.80,32.00,65.38,220.00,10.00,0.00,29.80,M,10.00,18.00,FEW,SCT,BKN,M,3100.00,4100.00,6000.00,M,M,M,M,M,M,M,M,36.51,KRTS 230755Z AUTO 22010G18KT 10SM FEW031 SCT041 BKN060 06/00 A2980 RMK AO2,M
TMT,2021-12-23 07:55,-117.1971,39.4643,1749.34,34.50,25.50,69.34,240.00,9.00,0.00,29.87,M,10.00,M,CLR,M,M,M,M,M,M,M,M,M,M,M,M,M,M,26.62,KTMT 230755Z AUTO 24009KT 10SM CLR 01/M04 A2987 RMK AO2 T00141036 400711161,M
HTH,2021-12-23 07:55,-118.6315,38.5448,1282.89,44.60,33.80,65.61,160.00,15.00,0.00,29.85,M,10.00,M,CLR,M,M,M,M,M,M,M,M,M,M,M,M,M,M,37.11,KHTH 230755Z AUTO 16015KT 10SM CLR 07/01 A2985 RMK A01,M
BAM,2021-12-23 07:55,-116.8743,40.5990,1382.36,30.20,30.20,100.00,90.00,3.00,0.00,29.85,M,10.00,M,OVC,M,M,M,7000.00,M,M,M,M,M,M,M,M,M,M,26.63,KBAM 230755Z AUTO 09003KT 10SM OVC070 M01/M01 A2985 RMK AO1,M
MEV,2021-12-23 07:55,-119.7500,38.9963,1441.42,41.00,39.20,93.24,240.00,9.00,0.01,29.83,M,9.00,M,FEW,BKN,OVC,M,1200.00,3200.00,3900.00,M,-RA,M,M,M,M,M,M,34.70,KMEV 230755Z AUTO 24009KT 9SM -RA FEW012 BKN032 OVC039 05/04 A2983 RMK AO2 P0001,M
CXP,2021-12-23 07:55,-119.7326,39.1923,1431.00,41.00,39.20,93.24,0.00,0.00,0.00,29.84,M,5.00,M,FEW,OVC,M,M,1600.00,3300.00,M,M,-RA,M,M,M,M,M,M,41.00,KCXP 230755Z AUTO 00000KT 5SM -RA FEW016 OVC033 05/04 A2984 RMK AO2,M
BVU,2021-12-23 07:55,-114.8611,35.9475,671.00,48.20,32.00,53.27,0.00,0.00,0.00,30.03,M,10.00,M,FEW,OVC,M,M,7500.00,9000.00,M,M,M,M,M,M,M,M,M,48.20,KBVU 230755Z AUTO 00000KT 10SM FEW075 OVC090 09/M00 A3003 RMK AO2,M
RNO,2021-12-23 07:55,-119.7711,39.4839,1341.00,42.00,37.00,81.98,0.00,0.00,T,29.79,1007.50,10.00,M,SCT,BKN,M,M,6000.00,24000.00,M,M,M,M,M,M,M,M,M,42.10,KRNO 230755Z 00000KT 10SM SCT060 BKN240 06/03 A2979 RMK AO2 RAE0658 SLP075 P0000 T00560028 401171028,M
LAS,2021-12-23 07:56,-115.1634,36.0719,663.00,50.00,26.10,39.14,280.00,3.00,0.00,30.03,1016.60,10.00,M,OVC,M,M,M,9000.00,M,M,M,M,M,M,M,M,M,M,50.00,KLAS 230756Z 28003KT 10SM OVC090 10/M03 A3003 RMK AO2 SLP166 T01001033 401330028,M
WMC,2021-12-23 07:56,-117.8072,40.9019,1315.00,37.00,26.10,64.38,200.00,12.00,0.00,29.79,1009.50,10.00,22.00,SCT,BKN,BKN,M,6000.00,8500.00,11000.00,M,M,M,M,M,M,M,M,28.37,KWMC 230756Z AUTO 20012G22KT 10SM SCT060 BKN085 BKN110 03/M03 A2979 RMK AO2 SLP095 T00281033 400331078,M
TPH,2021-12-23 07:56,-117.0904,38.0505,1654.00,25.00,21.00,84.53,0.00,0.00,0.00,29.97,1017.10,10.00,M,FEW,M,M,M,7000.00,M,M,M,M,M,M,M,M,M,M,25.00,KTPH 230756Z AUTO 00000KT 10SM FEW070 M04/M06 A2997 RMK AO2 SLP171 T10391061 400331111,M
HND,2021-12-23 07:56,-115.1344,35.9729,742.79,47.00,30.00,51.58,150.00,3.00,0.00,30.04,1018.90,10.00,M,OVC,M,M,M,9500.00,M,M,M,M,M,M,M,M,M,M,45.72,KHND 230756Z AUTO 15003KT 10SM OVC095 08/M01 A3004 RMK AO2 SLP189 T00831011,M
NFL,2021-12-23 07:56,-118.7010,39.4166,1199.00,32.00,26.10,78.58,0.00,0.00,0.00,29.81,1007.20,10.00,M,SCT,M,M,M,8500.00,M,M,M,M,M,M,M,M,M,M,32.00,KNFL 230756Z AUTO 00000KT 10SM SCT085 00/M03 A2981 RMK AO2 SLP072 T00001033 400781050,M
EKO,2021-12-23 07:56,-115.7860,40.8242,1367.00,27.00,21.90,80.83,0.00,0.00,0.00,29.85,1013.30,10.00,M,BKN,M,M,M,8000.00,M,M,M,M,M,M,M,M,M,M,27.00,KEKO 230756Z AUTO 00000KT 10SM BKN080 M03/M06 A2985 RMK AO2 SLP133 T10281056 400111117,M
LSV,2021-12-23 07:58,-115.0343,36.2362,570.00,48.20,27.30,43.98,0.00,0.00,0.00,30.02,1016.30,10.00,M,OVC,M,M,M,10000.00,M,M,M,M,M,M,M,M,M,M,48.20,KLSV 230758Z AUTO 00000KT 10SM OVC100 09/M03 A3002 RMK AO2 SLP163 T00901026 401251007 $,M
INS,2021-12-23 07:58,-115.6733,36.5872,955.00,38.00,29.50,70.90,80.00,5.00,0.00,30.01,1015.50,10.00,M,OVC,M,M,M,7500.00,M,M,M,M,M,M,M,M,M,M,33.64,KINS 230758Z AUTO 08005KT 10SM OVC075 03/M01 A3001 RMK AO2 SLP155 T00341014 400951036 VISNO RWY08 $,M
MEV,2021-12-23 08:15,-119.7500,38.9963,1441.42,39.20,37.40,93.19,0.00,0.00,0.00,29.82,M,9.00,M,FEW,BKN,OVC,M,3000.00,3400.00,4000.00,M,-RA,M,M,M,M,M,M,39.20,KMEV 230815Z AUTO 00000KT 9SM -RA FEW030 BKN034 OVC040 04/03 A2982 RMK AO2,M
05U,2021-12-23 08:15,-116.0051,39.6042,1811.23,37.40,21.20,51.61,170.00,6.00,0.00,29.91,M,10.00,11.00,OVC,M,M,M,7500.00,M,M,M,M,M,M,M,M,M,M,32.03,K05U 230815Z AUTO 17006G11KT 10SM OVC075 03/M06 A2991 RMK A01,M
BVU,2021-12-23 08:15,-114.8611,35.9475,671.00,48.20,30.20,49.53,0.00,0.00,0.00,30.03,M,10.00,M,OVC,M,M,M,10000.00,M,M,M,M,M,M,M,M,M,M,48.20,KBVU 230815Z AUTO 00000KT 10SM OVC100 09/M01 A3003 RMK AO2,M
RTS,2021-12-23 08:15,-119.8764,39.6682,1539.00,42.80,32.00,65.38,210.00,8.00,0.00,29.78,M,10.00,M,FEW,FEW,FEW,M,3100.00,3900.00,5000.00,M,M,M,M,M,M,M,M,37.42,KRTS 230815Z AUTO 21008KT 10SM FEW031 FEW039 FEW050 06/00 A2978 RMK AO2,M
CXP,2021-12-23 08:15,-119.7326,39.1923,1431.00,41.00,39.20,93.24,0.00,0.00,0.00,29.83,M,6.00,M,FEW,BKN,OVC,M,1700.00,3100.00,3800.00,M,-RA,M,M,M,M,M,M,41.00,KCXP 230815Z AUTO 00000KT 6SM -RA FEW017 BKN031 OVC038 05/04 A2983 RMK AO2,M
TMT,2021-12-23 08:15,-117.1971,39.4643,1749.34,32.20,24.40,72.63,240.00,9.00,0.00,29.87,M,10.00,M,CLR,M,M,M,M,M,M,M,M,M,M,M,M,M,M,23.76,KTMT 230815Z AUTO 24009KT 10SM CLR 00/M04 A2987 RMK AO2 T00011042,M
HTH,2021-12-23 08:15,-118.6315,38.5448,1282.89,41.00,30.20,65.16,90.00,8.00,0.00,29.86,M,10.00,M,CLR,M,M,M,M,M,M,M,M,M,M,M,M,M,M,35.20,KHTH 230815Z AUTO 09008KT 10SM CLR 05/M01 A2986 RMK A01,M
BAM,2021-12-23 08:15,-116.8743,40.5990,1382.36,30.20,30.20,100.00,60.00,5.00,0.00,29.84,M,10.00,M,OVC,M,M,M,7000.00,M,M,M,M,M,M,M,M,M,M,24.26,KBAM 230815Z AUTO 06005KT 10SM OVC070 M01/M01 A2984 RMK AO1,M
INS,2021-12-23 08:21,-115.6733,36.5872,955.00,39.20,30.20,69.88,10.00,5.00,0.00,30.01,1015.30,10.00,M,OVC,M,M,M,6500.00,M,M,M,-RA,M,M,M,M,M,M,34.95,KINS 230821Z AUTO 01005KT 10SM -RA OVC065 04/M01 A3001 RMK AO2 RAB21 SLP153 VISNO RWY08 $,M
RTS,2021-12-23 08:35,-119.8764,39.6682,1539.00,42.80,30.20,60.79,210.00,11.00,0.00,29.77,M,10.00,19.00,CLR,M,M,M,M,M,M,M,M,M,M,M,M,M,M,36.11,KRTS 230835Z AUTO 21011G19KT 10SM CLR 06/M01 A2977 RMK AO2,M
CXP,2021-12-23 08:35,-119.7326,39.1923,1431.00,41.00,39.20,93.24,0.00,0.00,0.00,29.81,M,9.00,M,BKN,OVC,M,M,3300.00,3900.00,M,M,M,M,M,M,M,M,M,41.00,KCXP 230835Z AUTO 00000KT 9SM BKN033 OVC039 05/04 A2981 RMK AO2,M
05U,2021-12-23 08:35,-116.0051,39.6042,1811.23,37.40,23.00,55.68,140.00,12.00,0.00,29.89,M,10.00,M,BKN,OVC,M,M,7500.00,8500.00,M,M,M,M,M,M,M,M,M,28.87,K05U 230835Z AUTO 14012KT 10SM BKN075 OVC085 03/M05 A2989 RMK A01,M
BAM,2021-12-23 08:35,-116.8743,40.5990,1382.36,32.00,28.40,86.39,0.00,0.00,0.00,29.83,M,10.00,M,SCT,OVC,M,M,7000.00,7500.00,M,M,M,M,M,M,M,M,M,32.00,KBAM 230835Z AUTO 00000KT 10SM SCT070 OVC075 00/M02 A2983 RMK AO1,M
BVU,2021-12-23 08:35,-114.8611,35.9475,671.00,48.20,30.20,49.53,330.00,3.00,0.00,30.01,M,10.00,M,OVC,M,M,M,9500.00,M,M,M,M,M,M,M,M,M,M,47.21,KBVU 230835Z AUTO 33003KT 10SM OVC095 09/M01 A3001 RMK AO2,M
HTH,2021-12-23 08:35,-118.6315,38.5448,1282.89,41.00,26.60,56.22,M,6.00,0.00,29.85,M,10.00,M,FEW,M,M,M,4400.00,M,M,M,M,M,M,M,M,M,M,36.37,KHTH 230835Z AUTO VRB06KT 10SM FEW044 05/M03 A2985 RMK A01,M
TMT,2021-12-23 08:35,-117.1971,39.4643,1749.34,32.00,23.00,69.04,240.00,9.00,0.00,29.86,M,10.00,M,CLR,M,M,M,M,M,M,M,M,M,M,M,M,M,M,23.51,KTMT 230835Z AUTO 24009KT 10SM CLR 00/M05 A2986 RMK AO2 T00001050,M
MEV,2021-12-23 08:35,-119.7500,38.9963,1441.42,39.20,37.40,93.19,0.00,0.00,0.00,29.80,M,4.00,M,BKN,BKN,OVC,M,3000.00,3400.00,4300.00,M,-RA BR,M,M,M,M,M,M,39.20,KMEV 230835Z AUTO 00000KT 4SM -RA BR BKN030 BKN034 OVC043 04/03 A2980 RMK AO2,M
TMT,2021-12-23 08:50,-117.1971,39.4643,1749.34,30.90,22.10,69.50,230.00,6.00,0.00,29.85,M,10.00,M,CLR,M,M,M,M,M,M,M,M,M,M,M,M,M,M,24.21,KTMT 230850Z AUTO 23006KT 10SM CLR M01/M05 A2985 RMK AO2 T10061055,M
BAM,2021-12-23 08:50,-116.8743,40.5990,1382.36,32.00,28.40,86.39,100.00,6.00,0.00,29.82,M,10.00,M,OVC,M,M,M,7500.00,M,M,M,M,M,M,M,M,M,M,25.53,KBAM 230850Z AUTO 10006KT 10SM OVC075 00/M02 A2982 RMK AO1,M
INS,2021-12-23 08:52,-115.6733,36.5872,955.00,37.40,30.20,74.98,260.00,5.00,0.00,30.01,1015.50,10.00,M,FEW,BKN,M,M,5000.00,8500.00,M,M,M,M,M,M,M,M,M,32.81,KINS 230852Z AUTO 26005KT 10SM FEW050 BKN085 03/M01 A3001 RMK AO2 RAB21E52RAB52 SLP155 VISNO RWY08 $,M
DRA,2021-12-23 08:53,-116.0278,36.6206,1009.00,40.00,37.00,89.27,110.00,3.00,0.02,29.97,1013.70,10.00,M,OVC,M,M,M,3900.00,M,M,M,M,M,M,M,M,M,M,37.72,KDRA 230853Z AUTO 11003KT 10SM OVC039 04/03 A2997 RMK AO2 RAE23 SLP137 P0002 60004 T00440028 58016,M
LOL,2021-12-23 08:53,-118.5701,40.0684,1192.43,32.00,28.90,88.17,0.00,0.00,T,29.79,1009.50,10.00,M,OVC,M,M,M,6500.00,M,M,M,M,M,M,M,M,M,M,32.00,KLOL 230853Z AUTO 00000KT 10SM OVC065 00/M02 A2979 RMK AO2 UPB0759E10 SLP095 P0000 60000 T00001017 58021,M
VGT,2021-12-23 08:53,-115.1933,36.2111,667.00,49.00,27.00,42.32,0.00,0.00,0.00,30.00,1017.60,10.00,M,BKN,OVC,M,M,9000.00,11000.00,M,M,M,M,M,M,M,M,M,48.90,KVGT 230853Z AUTO 00000KT 10SM BKN090 OVC110 09/M03 A3000 RMK AO2 SLP176 T00941028 58007,M
ELY,2021-12-23 08:53,-114.8453,39.2950,1909.00,34.00,19.90,55.88,180.00,16.00,0.00,29.93,1011.70,10.00,M,BKN,M,M,M,7000.00,M,M,M,M,M,M,M,M,M,M,23.03,KELY 230853Z AUTO 18016KT 10SM BKN070 01/M07 A2993 RMK AO2 SLP117 T00111067 58011,M
P68,2021-12-23 08:53,-116.0056,39.6014,1993.00,37.00,21.00,51.99,150.00,14.00,0.00,29.85,1009.00,M,22.00,M,M,M,M,M,M,M,M,M,M,M,M,M,M,M,27.61,KP68 230853Z AUTO 15014G22KT 03/M06 A2985 RMK AO1 SLP090 T00281061 58022,M
CXP,2021-12-23 08:55,-119.7326,39.1923,1431.00,41.00,39.20,93.24,0.00,0.00,0.00,29.80,M,9.00,M,FEW,SCT,BKN,M,2800.00,3300.00,4100.00,M,M,M,M,M,M,M,M,41.00,KCXP 230855Z AUTO 00000KT 9SM FEW028 SCT033 BKN041 05/04 A2980 RMK AO2,M
RNO,2021-12-23 08:55,-119.7711,39.4839,1341.00,42.00,37.00,81.98,0.00,0.00,0.00,29.76,1005.90,10.00,M,SCT,OVC,M,M,6500.00,21000.00,M,M,M,M,M,M,M,M,M,42.10,KRNO 230855Z 00000KT 10SM SCT065 OVC210 06/03 A2976 RMK AO2 SLP059 60000 T00560028 58021,M
HTH,2021-12-23 08:55,-118.6315,38.5448,1282.89,41.00,26.60,56.22,M,7.00,0.00,29.84,M,10.00,M,FEW,M,M,M,4500.00,M,M,M,M,M,M,M,M,M,M,35.75,KHTH 230855Z AUTO VRB07KT 10SM FEW045 05/M03 A2984 RMK A01,M
MEV,2021-12-23 08:55,-119.7500,38.9963,1441.42,39.20,37.40,93.19,110.00,5.00,0.03,29.78,M,10.00,M,FEW,BKN,OVC,M,2000.00,3100.00,6000.00,M,-RA,M,M,M,M,M,M,34.95,KMEV 230855Z AUTO 11005KT 10SM -RA FEW020 BKN031 OVC060 04/03 A2978 RMK AO2 P0003,M
05U,2021-12-23 08:55,-116.0051,39.6042,1811.23,37.40,21.20,51.61,150.00,15.00,0.00,29.87,M,10.00,M,BKN,BKN,M,M,8500.00,11000.00,M,M,M,M,M,M,M,M,M,27.78,K05U 230855Z AUTO 15015KT 10SM BKN085 BKN110 03/M06 A2987 RMK A01,M
RTS,2021-12-23 08:55,-119.8764,39.6682,1539.00,42.80,33.80,70.28,230.00,13.00,0.00,29.77,M,10.00,24.00,FEW,SCT,BKN,M,2200.00,2700.00,3400.00,M,-DZ,M,M,M,M,M,M,35.40,KRTS 230855Z AUTO 23013G24KT 10SM -DZ FEW022 SCT027 BKN034 06/01 A2977 RMK AO2,M
BVU,2021-12-23 08:55,-114.8611,35.9475,671.00,48.20,30.20,49.53,0.00,0.00,0.00,30.02,M,10.00,M,OVC,M,M,M,9000.00,M,M,M,M,M,M,M,M,M,M,48.20,KBVU 230855Z AUTO 00000KT 10SM OVC090 09/M01 A3002 RMK AO2,M
HND,2021-12-23 08:56,-115.1344,35.9729,742.79,46.00,30.00,53.37,210.00,3.00,0.00,30.02,1018.10,10.00,M,OVC,M,M,M,9000.00,M,M,M,M,M,M,M,M,M,M,44.69,KHND 230856Z AUTO 21003KT 10SM OVC090 08/M01 A3002 RMK AO2 SLP181 T00781011 58009,M
NFL,2021-12-23 08:56,-118.7010,39.4166,1199.00,30.90,26.10,82.15,50.00,5.00,0.00,29.80,1007.00,10.00,M,FEW,M,M,M,9000.00,M,M,M,M,M,M,M,M,M,M,25.09,KNFL 230856Z AUTO 05005KT 10SM FEW090 M01/M03 A2980 RMK AO2 SLP070 T10061033 56015,M
EKO,2021-12-23 08:56,-115.7860,40.8242,1367.00,24.10,19.90,83.75,0.00,0.00,0.00,29.83,1012.50,10.00,M,FEW,M,M,M,7500.00,M,M,M,M,M,M,M,M,M,M,24.10,KEKO 230856Z AUTO 00000KT 10SM FEW075 M04/M07 A2983 RMK AO2 SLP125 T10441067 58021,M
TPH,2021-12-23 08:56,-117.0904,38.0505,1654.00,21.00,17.10,84.62,350.00,3.00,0.00,29.94,1015.90,10.00,M,CLR,M,M,M,M,M,M,M,M,M,M,M,M,M,M,16.11,KTPH 230856Z AUTO 35003KT 10SM CLR M06/M08 A2994 RMK AO2 SLP159 T10611083 58019,M
WMC,2021-12-23 08:56,-117.8072,40.9019,1315.00,37.00,28.00,69.63,190.00,10.00,T,29.77,1008.40,10.00,M,OVC,M,M,M,5500.00,M,M,M,M,M,M,M,M,M,M,29.24,KWMC 230856Z AUTO 19010KT 10SM OVC055 03/M02 A2977 RMK AO2 RAB37E43 SLP084 P0000 60000 T00281022 58022,M
LAS,2021-12-23 08:56,-115.1634,36.0719,663.00,48.00,26.10,42.17,360.00,3.00,0.00,30.00,1015.80,10.00,M,BKN,OVC,M,M,9000.00,14000.00,M,M,M,M,M,M,M,M,M,46.98,KLAS 230856Z 36003KT 10SM BKN090 OVC140 09/M03 A3000 RMK AO2 SLP158 TOPS OF MTNS OBSCURED DSNT W-NW T00891033 58009,M
LSV,2021-12-23 08:58,-115.0343,36.2362,570.00,46.80,27.10,45.98,0.00,0.00,0.00,30.01,1016.00,10.00,M,SCT,BKN,M,M,9000.00,15000.00,M,M,M,M,M,M,M,M,M,46.80,KLSV 230858Z AUTO 00000KT 10SM SCT090 BKN150 08/M03 A3001 RMK AO2 SLP160 T00821027 55006 $,M
INS,2021-12-23 08:58,-115.6733,36.5872,955.00,37.60,30.00,73.79,240.00,3.00,T,30.01,1015.50,10.00,M,FEW,BKN,M,M,5000.00,8500.00,M,M,M,M,M,M,M,M,M,35.09,KINS 230858Z AUTO 24003KT 10SM FEW050 BKN085 03/M01 A3001 RMK AO2 RAB21E52RAB52E52 SLP155 P0000 60000 T00311011 58006 VISNO RWY08 $,M
TMT,2021-12-23 09:15,-117.1971,39.4643,1749.34,32.00,21.90,65.92,0.00,0.00,0.00,29.85,M,10.00,M,CLR,M,M,M,M,M,M,M,M,M,M,M,M,M,M,32.00,KTMT 230915Z AUTO 00000KT 10SM CLR 00/M06 A2985 RMK AO2 T00001056,M
MEV,2021-12-23 09:15,-119.7500,38.9963,1441.42,37.40,35.60,93.14,80.00,6.00,0.00,29.77,M,10.00,M,FEW,FEW,BKN,M,1700.00,3500.00,4200.00,M,M,M,M,M,M,M,M,32.03,KMEV 230915Z AUTO 08006KT 10SM FEW017 FEW035 BKN042 03/02 A2977 RMK AO2,M
05U,2021-12-23 09:15,-116.0051,39.6042,1811.23,37.40,19.40,47.80,160.00,17.00,0.00,29.87,M,10.00,M,FEW,M,M,M,10000.00,M,M,M,M,M,M,M,M,M,M,27.15,K05U 230915Z AUTO 16017KT 10SM FEW100 03/M07 A2987 RMK A01,M
RTS,2021-12-23 09:15,-119.8764,39.6682,1539.00,42.80,33.80,70.28,210.00,8.00,0.00,29.76,M,10.00,15.00,SCT,BKN,OVC,M,2500.00,4200.00,5000.00,M,-DZ,M,M,M,M,M,M,37.42,KRTS 230915Z AUTO 21008G15KT 10SM -DZ SCT025 BKN042 OVC050 06/01 A2976 RMK AO2,M
CXP,2021-12-23 09:15,-119.7326,39.1923,1431.00,41.00,39.20,93.24,0.00,0.00,0.00,29.79,M,9.00,M,SCT,BKN,OVC,M,3600.00,4300.00,7500.00,M,-UP,M,M,M,M,M,M,41.00,KCXP 230915Z AUTO 00000KT 9SM -UP SCT036 BKN043 OVC075 05/04 A2979 RMK AO2,M
BVU,2021-12-23 09:15,-114.8611,35.9475,671.00,46.40,30.20,53.00,300.00,4.00,0.00,30.01,M,10.00,M,FEW,BKN,BKN,M,8000.00,9000.00,12000.00,M,M,M,M,M,M,M,M,44.24,KBVU 230915Z AUTO 30004KT 10SM FEW080 BKN090 BKN120 08/M01 A3001 RMK AO2,M
HTH,2021-12-23 09:15,-118.6315,38.5448,1282.89,39.20,24.80,55.95,90.00,18.00,0.00,29.83,M,10.00,25.00,FEW,M,M,M,4400.00,M,M,M,M,M,M,M,M,M,M,29.23,KHTH 230915Z AUTO 09018G25KT 10SM FEW044 04/M04 A2983 RMK A01,M
BAM,2021-12-23 09:15,-116.8743,40.5990,1382.36,32.00,28.40,86.39,110.00,5.00,0.00,29.80,M,10.00,M,SCT,BKN,M,M,7000.00,8500.00,M,M,M,M,M,M,M,M,M,26.40,KBAM 230915Z AUTO 11005KT 10SM SCT070 BKN085 00/M02 A2980 RMK AO1,M
INS,2021-12-23 09:33,-115.6733,36.5872,955.00,37.40,30.20,74.98,140.00,3.00,0.00,29.99,1014.80,10.00,M,SCT,SCT,BKN,M,6000.00,7500.00,12000.00,M,M,M,M,M,M,M,M,34.86,KINS 230933Z AUTO 14003KT 10SM SCT060 SCT075 BKN120 03/M01 A2999 RMK AO2 SLP148 VISNO RWY08 $,M
05U,2021-12-23 09:35,-116.0051,39.6042,1811.23,35.60,21.20,55.41,170.00,10.00,0.00,29.87,M,10.00,M,CLR,M,M,M,M,M,M,M,M,M,M,M,M,M,M,27.48,K05U 230935Z AUTO 17010KT 140V200 10SM CLR 02/M06 A2987 RMK A01,M
BAM,2021-12-23 09:35,-116.8743,40.5990,1382.36,30.20,28.40,92.92,0.00,0.00,0.00,29.81,M,10.00,M,BKN,M,M,M,8500.00,M,M,M,M,M,M,M,M,M,M,30.20,KBAM 230935Z AUTO 00000KT 10SM BKN085 M01/M02 A2981 RMK AO1,M
RTS,2021-12-23 09:35,-119.8764,39.6682,1539.00,41.00,33.80,75.33,190.00,10.00,0.00,29.75,M,10.00,17.00,SCT,BKN,OVC,M,3900.00,7500.00,8500.00,M,M,M,M,M,M,M,M,34.25,KRTS 230935Z AUTO 19010G17KT 130V220 10SM SCT039 BKN075 OVC085 05/01 A2975 RMK AO2,M
CXP,2021-12-23 09:35,-119.7326,39.1923,1431.00,39.20,37.40,93.19,50.00,5.00,0.00,29.77,M,10.00,M,FEW,FEW,SCT,M,3500.00,4800.00,7500.00,M,M,M,M,M,M,M,M,34.95,KCXP 230935Z AUTO 05005KT 10SM FEW035 FEW048 SCT075 04/03 A2977 RMK AO2,M
MEV,2021-12-23 09:35,-119.7500,38.9963,1441.42,39.20,37.40,93.19,170.00,7.00,0.00,29.77,M,10.00,M,FEW,SCT,BKN,M,4100.00,5500.00,6500.00,M,M,M,M,M,M,M,M,33.56,KMEV 230935Z AUTO 17007KT 10SM FEW041 SCT055 BKN065 04/03 A2977 RMK AO2,M
BVU,2021-12-23 09:35,-114.8611,35.9475,671.00,46.40,30.20,53.00,340.00,4.00,0.00,30.00,M,10.00,M,FEW,BKN,M,M,9500.00,12000.00,M,M,M,M,M,M,M,M,M,44.24,KBVU 230935Z AUTO 34004KT 10SM FEW095 BKN120 08/M01 A3000 RMK AO2,M
TMT,2021-12-23 09:35,-117.1971,39.4643,1749.34,30.00,21.60,70.58,120.00,4.00,0.00,29.84,M,10.00,M,CLR,M,M,M,M,M,M,M,M,M,M,M,M,M,M,25.08,KTMT 230935Z AUTO 12004KT 10SM CLR M01/M06 A2984 RMK AO2 T10111058,M
HTH,2021-12-23 09:35,-118.6315,38.5448,1282.89,39.20,24.80,55.95,80.00,17.00,0.00,29.81,M,10.00,25.00,CLR,M,M,M,M,M,M,M,M,M,M,M,M,M,M,29.51,KHTH 230935Z AUTO 08017G25KT 10SM CLR 04/M04 A2981 RMK A01,M
DRA,2021-12-23 09:53,-116.0278,36.6206,1009.00,40.00,36.00,85.81,M,3.00,0.00,29.97,1013.70,10.00,M,OVC,M,M,M,3600.00,M,M,M,M,M,M,M,M,M,M,37.72,KDRA 230953Z AUTO VRB03KT 10SM OVC036 04/02 A2997 RMK AO2 SLP137 T00440022,M
VGT,2021-12-23 09:53,-115.1933,36.2111,667.00,49.00,26.10,40.77,0.00,0.00,0.00,29.99,1017.10,10.00,M,OVC,M,M,M,7500.00,M,M,M,M,M,M,M,M,M,M,48.90,KVGT 230953Z AUTO 00000KT 10SM OVC075 09/M03 A2999 RMK AO2 SLP171 T00941033,M
ELY,2021-12-23 09:53,-114.8453,39.2950,1909.00,32.00,27.00,81.55,190.00,19.00,0.00,29.93,1012.00,10.00,24.00,OVC,M,M,M,5000.00,M,M,M,M,M,M,M,M,M,M,19.44,KELY 230953Z AUTO 19019G24KT 10SM OVC050 00/M03 A2993 RMK AO2 SLP120 T00001028,M
LOL,2021-12-23 09:53,-118.5701,40.0684,1192.43,30.00,28.00,92.15,310.00,5.00,0.00,29.77,1008.80,9.00,M,FEW,M,M,M,6000.00,M,M,M,M,M,M,M,M,M,M,24.02,KLOL 230953Z AUTO 31005KT 9SM FEW060 M01/M02 A2977 RMK AO2 SLP088 T10111022,M
CXP,2021-12-23 09:55,-119.7326,39.1923,1431.00,39.20,39.20,100.00,0.00,0.00,0.00,29.76,M,10.00,M,FEW,BKN,BKN,M,3500.00,4300.00,4900.00,M,M,M,M,M,M,M,M,39.20,KCXP 230955Z AUTO 00000KT 10SM FEW035 BKN043 BKN049 04/04 A2976 RMK AO2,M
BVU,2021-12-23 09:55,-114.8611,35.9475,671.00,46.40,32.00,57.00,20.00,4.00,0.00,30.00,M,10.00,M,BKN,OVC,M,M,9000.00,11000.00,M,M,M,M,M,M,M,M,M,44.24,KBVU 230955Z AUTO 02004KT 10SM BKN090 OVC110 08/M00 A3000 RMK AO2,M
RNO,2021-12-23 09:55,-119.7711,39.4839,1341.00,41.00,36.00,82.22,350.00,6.00,0.00,29.71,1004.30,10.00,M,FEW,OVC,M,M,6500.00,20000.00,M,M,M,M,M,M,M,M,M,36.37,KRNO 230955Z 35006KT 10SM FEW065 OVC200 05/02 A2971 RMK AO2 SLP043 T00500022,M
RTS,2021-12-23 09:55,-119.8764,39.6682,1539.00,42.80,32.00,65.38,210.00,15.00,0.00,29.73,M,10.00,M,FEW,SCT,BKN,M,3300.00,6000.00,9000.00,M,M,M,M,M,M,M,M,34.78,KRTS 230955Z AUTO 21015KT 10SM FEW033 SCT060 BKN090 06/00 A2973 RMK AO2,M
05U,2021-12-23 09:55,-116.0051,39.6042,1811.23,33.80,17.60,51.04,150.00,13.00,0.00,29.86,M,10.00,21.00,CLR,M,M,M,M,M,M,M,M,M,M,M,M,M,M,23.87,K05U 230955Z AUTO 15013G21KT 10SM CLR 01/M08 A2986 RMK A01,M
MEV,2021-12-23 09:55,-119.7500,38.9963,1441.42,41.00,39.20,93.24,180.00,8.00,0.02,29.77,M,3.00,13.00,FEW,BKN,OVC,M,400.00,2900.00,6000.00,M,-RA BR,M,M,M,M,M,M,35.20,KMEV 230955Z AUTO 18008G13KT 3SM -RA BR FEW004 BKN029 OVC060 05/04 A2977 RMK AO2 P0002,M
BAM,2021-12-23 09:55,-116.8743,40.5990,1382.36,30.20,28.40,92.92,120.00,5.00,0.00,29.79,M,10.00,M,BKN,M,M,M,8500.00,M,M,M,M,M,M,M,M,M,M,24.26,KBAM 230955Z AUTO 12005KT 10SM BKN085 M01/M02 A2979 RMK AO1,M
HTH,2021-12-23 09:55,-118.6315,38.5448,1282.89,39.20,24.80,55.95,90.00,18.00,0.00,29.81,M,10.00,M,FEW,M,M,M,4900.00,M,M,M,M,M,M,M,M,M,M,29.23,KHTH 230955Z AUTO 09018KT 10SM FEW049 04/M04 A2981 RMK A01,M
TMT,2021-12-23 09:55,-117.1971,39.4643,1749.34,31.60,21.40,65.59,190.00,4.00,0.00,29.84,M,10.00,M,CLR,M,M,M,M,M,M,M,M,M,M,M,M,M,M,26.95,KTMT 230955Z AUTO 19004KT 10SM CLR 00/M06 A2984 RMK AO2 T10021059,M
HND,2021-12-23 09:56,-115.1344,35.9729,742.79,45.00,30.00,55.43,150.00,5.00,0.00,30.01,1018.00,10.00,M,OVC,M,M,M,8500.00,M,M,M,M,M,M,M,M,M,M,41.83,KHND 230956Z AUTO 15005KT 10SM OVC085 07/M01 A3001 RMK AO2 SLP180 T00721011,M
LAS,2021-12-23 09:56,-115.1634,36.0719,663.00,48.00,25.00,40.29,30.00,4.00,0.00,29.99,1015.30,10.00,M,OVC,M,M,M,8500.00,M,M,M,M,M,M,M,M,M,M,46.10,KLAS 230956Z 03004KT 10SM OVC085 09/M04 A2999 RMK AO2 SLP153 TOPS OF MTNS OBSCURED DSNT W-NW T00891039,M
TPH,2021-12-23 09:56,-117.0904,38.0505,1654.00,19.90,16.00,84.55,340.00,5.00,0.00,29.95,1015.90,10.00,M,CLR,M,M,M,M,M,M,M,M,M,M,M,M,M,M,12.03,KTPH 230956Z AUTO 34005KT 10SM CLR M07/M09 A2995 RMK AO2 SLP159 T10671089,M
WMC,2021-12-23 09:56,-117.8072,40.9019,1315.00,37.00,28.00,69.63,160.00,6.00,T,29.75,1007.90,10.00,M,OVC,M,M,M,4800.00,M,M,M,-RA,M,M,M,M,M,M,31.55,KWMC 230956Z AUTO 16006KT 10SM -RA OVC048 03/M02 A2975 RMK AO2 RAB48 SLP079 P0000 T00281022,M
EKO,2021-12-23 09:56,-115.7860,40.8242,1367.00,19.00,16.00,87.87,0.00,0.00,0.00,29.82,1012.50,10.00,M,FEW,M,M,M,7000.00,M,M,M,M,M,M,M,M,M,M,19.00,KEKO 230956Z AUTO 00000KT 10SM FEW070 M07/M09 A2982 RMK AO2 SLP125 T10721089,M
NFL,2021-12-23 09:56,-118.7010,39.4166,1199.00,32.00,26.10,78.58,110.00,7.00,0.00,29.76,1005.80,10.00,M,CLR,M,M,M,M,M,M,M,M,M,M,M,M,M,M,24.78,KNFL 230956Z AUTO 11007KT 10SM CLR 00/M03 A2976 RMK AO2 SLP058 T00001033,M
LSV,2021-12-23 09:58,-115.0343,36.2362,570.00,46.20,27.10,47.03,40.00,5.00,0.00,29.99,1015.30,10.00,M,OVC,M,M,M,8000.00,M,M,M,M,M,M,M,M,M,M,43.26,KLSV 230958Z AUTO 04005KT 10SM OVC080 08/M03 A2999 RMK AO2 SLP153 T00791027 $,M
INS,2021-12-23 09:58,-115.6733,36.5872,955.00,38.30,28.90,68.64,0.00,0.00,0.00,29.98,1014.30,10.00,M,FEW,M,M,M,12000.00,M,M,M,M,M,M,M,M,M,M,38.30,KINS 230958Z AUTO 00000KT 10SM FEW120 04/M02 A2998 RMK AO2 SLP143 T00351017 VISNO RWY08 $,M
05U,2021-12-23 10:15,-116.0051,39.6042,1811.23,33.80,17.60,51.04,160.00,9.00,0.00,29.86,M,10.00,16.00,CLR,M,M,M,M,M,M,M,M,M,M,M,M,M,M,25.75,K05U 231015Z AUTO 16009G16KT 10SM CLR 01/M08 A2986 RMK A01,M
MEV,2021-12-23 10:15,-119.7500,38.9963,1441.42,39.20,39.20,100.00,0.00,0.00,0.00,29.76,M,3.00,11.00,FEW,SCT,BKN,M,400.00,1500.00,2900.00,M,-RA BR,M,M,M,M,M,M,39.20,KMEV 231015Z AUTO 00000G11KT 3SM -RA BR FEW004 SCT015 BKN029 04/04 A2976 RMK AO2,M
BAM,2021-12-23 10:15,-116.8743,40.5990,1382.36,26.60,26.60,100.00,0.00,0.00,0.00,29.79,M,10.00,M,SCT,M,M,M,8500.00,M,M,M,M,M,M,M,M,M,M,26.60,KBAM 231015Z AUTO 00000KT 10SM SCT085 M03/M03 A2979 RMK AO1,M
HTH,2021-12-23 10:15,-118.6315,38.5448,1282.89,39.20,24.80,55.95,100.00,14.00,0.00,29.81,M,10.00,21.00,FEW,FEW,M,M,4700.00,5500.00,M,M,M,M,M,M,M,M,M,30.44,KHTH 231015Z AUTO 10014G21KT 10SM FEW047 FEW055 04/M04 A2981 RMK A01,M
TMT,2021-12-23 10:15,-117.1971,39.4643,1749.34,31.30,21.20,65.83,0.00,0.00,0.00,29.84,M,10.00,M,CLR,M,M,M,M,M,M,M,M,M,M,M,M,M,M,31.30,KTMT 231015Z AUTO 00000KT 10SM CLR 00/M06 A2984 RMK AO2 T10041060,M
BVU,2021-12-23 10:15,-114.8611,35.9475,671.00,48.20,30.20,49.53,30.00,6.00,0.00,30.00,M,10.00,M,OVC,M,M,M,9000.00,M,M,M,M,M,M,M,M,M,M,45.04,KBVU 231015Z AUTO 03006KT 10SM OVC090 09/M01 A3000 RMK AO2,M
CXP,2021-12-23 10:15,-119.7326,39.1923,1431.00,41.00,39.20,93.24,M,6.00,0.00,29.76,M,3.00,M,BKN,BKN,OVC,M,3100.00,3700.00,4400.00,M,-RA,M,M,M,M,M,M,36.37,KCXP 231015Z AUTO VRB06KT 120V180 3SM -RA BKN031 BKN037 OVC044 05/04 A2976 RMK AO2,M
RTS,2021-12-23 10:15,-119.8764,39.6682,1539.00,42.80,32.00,65.38,200.00,10.00,0.00,29.72,M,10.00,16.00,CLR,M,M,M,M,M,M,M,M,M,M,M,M,M,M,36.51,KRTS 231015Z AUTO 20010G16KT 160V230 10SM CLR 06/00 A2972 RMK AO2,M
TPH,2021-12-23 10:16,-117.0904,38.0505,1654.00,21.00,17.10,84.62,M,3.00,0.00,29.93,M,10.00,M,BKN,M,M,M,2700.00,M,M,M,M,M,M,M,M,M,M,16.11,KTPH 231016Z AUTO VRB03KT 10SM BKN027 M06/M08 A2993 RMK AO2 T10611083,M
INS,2021-12-23 10:18,-115.6733,36.5872,955.00,35.60,30.20,80.51,0.00,0.00,0.00,29.99,1014.80,10.00,M,BKN,M,M,M,5500.00,M,M,M,M,M,M,M,M,M,M,35.60,KINS 231018Z AUTO 00000KT 10SM BKN055 02/M01 A2999 RMK AO2 SLP148 VISNO RWY08 $,M
TMT,2021-12-23 10:35,-117.1971,39.4643,1749.34,27.10,19.40,72.38,50.00,3.00,0.00,29.83,M,10.00,M,CLR,M,M,M,M,M,M,M,M,M,M,M,M,M,M,23.09,KTMT 231035Z AUTO 05003KT 10SM CLR M03/M07 A2983 RMK AO2 T10271070,M
BAM,2021-12-23 10:35,-116.8743,40.5990,1382.36,28.40,28.40,100.00,0.00,0.00,0.00,29.79,M,10.00,M,SCT,M,M,M,10000.00,M,M,M,M,M,M,M,M,M,M,28.40,KBAM 231035Z AUTO 00000KT 10SM SCT100 M02/M02 A2979 RMK AO1,M
HTH,2021-12-23 10:35,-118.6315,38.5448,1282.89,42.80,28.40,56.48,100.00,12.00,0.00,29.79,M,10.00,M,CLR,M,M,M,M,M,M,M,M,M,M,M,M,M,M,35.75,KHTH 231035Z AUTO 10012KT 10SM CLR 06/M02 A2979 RMK A01,M
CXP,2021-12-23 10:35,-119.7326,39.1923,1431.00,42.80,39.20,86.99,220.00,4.00,0.00,29.76,M,7.00,M,SCT,BKN,OVC,M,2900.00,3300.00,5000.00,M,-RA,M,M,M,M,M,M,40.03,KCXP 231035Z AUTO 22004KT 7SM -RA SCT029 BKN033 OVC050 06/04 A2976 RMK AO2,M
RTS,2021-12-23 10:35,-119.8764,39.6682,1539.00,44.60,32.00,61.03,200.00,10.00,0.00,29.71,M,10.00,M,FEW,FEW,SCT,M,2900.00,3400.00,4500.00,M,M,M,M,M,M,M,M,38.77,KRTS 231035Z AUTO 20010KT 10SM FEW029 FEW034 SCT045 07/00 A2971 RMK AO2,M
MEV,2021-12-23 10:35,-119.7500,38.9963,1441.42,39.20,37.40,93.19,0.00,0.00,0.00,29.75,M,10.00,M,FEW,BKN,OVC,M,1600.00,3600.00,6500.00,M,M,M,M,M,M,M,M,39.20,KMEV 231035Z AUTO 00000KT 10SM FEW016 BKN036 OVC065 04/03 A2975 RMK AO2,M
05U,2021-12-23 10:35,-116.0051,39.6042,1811.23,32.00,17.60,54.87,190.00,6.00,0.00,29.86,M,10.00,M,CLR,M,M,M,M,M,M,M,M,M,M,M,M,M,M,25.53,K05U 231035Z AUTO 19006KT 10SM CLR 00/M08 A2986 RMK A01,M
BVU,2021-12-23 10:35,-114.8611,35.9475,671.00,48.20,30.20,49.53,0.00,0.00,0.00,30.00,M,10.00,M,OVC,M,M,M,9000.00,M,M,M,M,M,M,M,M,M,M,48.20,KBVU 231035Z AUTO 00000KT 10SM OVC090 09/M01 A3000 RMK AO2,M
DRA,2021-12-23 10:53,-116.0278,36.6206,1009.00,41.00,35.00,79.34,100.00,3.00,0.00,29.95,1012.80,10.00,M,OVC,M,M,M,3600.00,M,M,M,M,M,M,M,M,M,M,38.98,KDRA 231053Z AUTO 10003KT 10SM OVC036 05/02 A2995 RMK AO2 SLP128 T00500017,M
ELY,2021-12-23 10:53,-114.8453,39.2950,1909.00,33.00,28.90,84.36,210.00,15.00,0.00,29.90,1011.00,10.00,M,SCT,BKN,M,M,3000.00,3700.00,M,M,M,M,M,M,M,M,M,22.21,KELY 231053Z AUTO 21015KT 10SM SCT030 BKN037 01/M02 A2990 RMK AO2 SLP110 T00061017,M
VGT,2021-12-23 10:53,-115.1933,36.2111,667.00,50.00,26.10,39.14,0.00,0.00,0.00,29.98,1016.80,10.00,M,OVC,M,M,M,6500.00,M,M,M,M,M,M,M,M,M,M,50.00,KVGT 231053Z AUTO 00000KT 10SM OVC065 10/M03 A2998 RMK AO2 SLP168 T01001033,M
LOL,2021-12-23 10:53,-118.5701,40.0684,1192.43,30.00,27.00,88.44,100.00,4.00,0.00,29.74,1008.00,10.00,M,CLR,M,M,M,M,M,M,M,M,M,M,M,M,M,M,25.08,KLOL 231053Z AUTO 10004KT 10SM CLR M01/M03 A2974 RMK AO2 SLP080 T10111028,M
BVU,2021-12-23 10:55,-114.8611,35.9475,671.00,48.20,30.20,49.53,50.00,4.00,0.00,30.00,M,10.00,M,OVC,M,M,M,8500.00,M,M,M,M,M,M,M,M,M,M,46.34,KBVU 231055Z AUTO 05004KT 10SM OVC085 09/M01 A3000 RMK AO2,M
RNO,2021-12-23 10:55,-119.7711,39.4839,1341.00,43.00,37.00,79.19,180.00,13.00,T,29.69,1003.70,10.00,M,BKN,OVC,M,M,4900.00,6500.00,M,M,-RA,M,M,M,M,M,M,35.66,KRNO 231055Z 18013KT 10SM -RA BKN049 OVC065 06/03 A2969 RMK AO2 RAB30 PRESFR SLP037 P0000 T00610028,M
HTH,2021-12-23 10:55,-118.6315,38.5448,1282.89,41.00,28.40,60.54,90.00,17.00,0.00,29.79,M,10.00,M,CLR,M,M,M,M,M,M,M,M,M,M,M,M,M,M,31.87,KHTH 231055Z AUTO 09017KT 10SM CLR 05/M02 A2979 RMK A01,M
BAM,2021-12-23 10:55,-116.8743,40.5990,1382.36,26.60,23.00,86.07,130.00,4.00,0.00,29.77,M,10.00,M,SCT,M,M,M,10000.00,M,M,M,M,M,M,M,M,M,M,21.11,KBAM 231055Z AUTO 13004KT 10SM SCT100 M03/M05 A2977 RMK AO1,M
MEV,2021-12-23 10:55,-119.7500,38.9963,1441.42,39.20,37.40,93.19,0.00,0.00,0.03,29.73,M,10.00,M,FEW,SCT,BKN,M,2500.00,4400.00,7500.00,M,M,M,M,M,M,M,M,39.20,KMEV 231055Z AUTO 00000KT 10SM FEW025 SCT044 BKN075 04/03 A2973 RMK AO2 P0003,M
05U,2021-12-23 10:55,-116.0051,39.6042,1811.23,30.20,17.60,59.01,0.00,0.00,0.00,29.86,M,10.00,M,CLR,M,M,M,M,M,M,M,M,M,M,M,M,M,M,30.20,K05U 231055Z AUTO 00000KT 10SM CLR M01/M08 A2986 RMK A01,M
RTS,2021-12-23 10:55,-119.8764,39.6682,1539.00,42.80,35.60,75.50,180.00,15.00,0.00,29.71,M,6.00,M,FEW,BKN,BKN,M,2600.00,3300.00,5500.00,M,-RA,M,M,M,M,M,M,34.78,KRTS 231055Z AUTO 18015KT 6SM -RA FEW026 BKN033 BKN055 06/02 A2971 RMK AO2,M
TMT,2021-12-23 10:55,-117.1971,39.4643,1749.34,25.00,18.90,77.29,0.00,0.00,0.00,29.82,M,10.00,M,CLR,M,M,M,M,M,M,M,M,M,M,M,M,M,M,25.00,KTMT 231055Z AUTO 00000KT 10SM CLR M04/M07 A2982 RMK AO2 T10391073,M
CXP,2021-12-23 10:55,-119.7326,39.1923,1431.00,41.00,39.20,93.24,0.00,0.00,0.00,29.74,M,10.00,M,FEW,SCT,BKN,M,3200.00,4700.00,6500.00,M,M,M,M,M,M,M,M,41.00,KCXP 231055Z AUTO 00000KT 10SM FEW032 SCT047 BKN065 05/04 A2974 RMK AO2,M
NFL,2021-12-23 10:56,-118.7010,39.4166,1199.00,35.00,28.90,77.88,180.00,6.00,0.00,29.75,1005.40,10.00,M,FEW,SCT,M,M,9500.00,12000.00,M,M,M,M,M,M,M,M,M,29.26,KNFL 231056Z AUTO 18006KT 10SM FEW095 SCT120 02/M02 A2975 RMK AO2 SLP054 T00171017,M
LAS,2021-12-23 10:56,-115.1634,36.0719,663.00,48.00,26.10,42.17,210.00,3.00,0.00,29.99,1015.10,10.00,M,OVC,M,M,M,7000.00,M,M,M,M,M,M,M,M,M,M,46.98,KLAS 231056Z 21003KT 10SM OVC070 09/M03 A2999 RMK AO2 SLP151 TOPS OF MTNS OBSCURED DSNT SW-NW T00891033,M
WMC,2021-12-23 10:56,-117.8072,40.9019,1315.00,32.00,27.00,81.55,60.00,4.00,T,29.73,1007.50,10.00,M,OVC,M,M,M,6000.00,M,M,M,M,M,M,M,M,M,M,27.42,KWMC 231056Z AUTO 06004KT 10SM OVC060 00/M03 A2973 RMK AO2 RAE0959 SLP075 P0000 T00001028,M
EKO,2021-12-23 10:56,-115.7860,40.8242,1367.00,19.90,18.00,92.19,160.00,3.00,0.00,29.79,1011.40,10.00,M,FEW,BKN,M,M,8500.00,12000.00,M,M,M,M,M,M,M,M,M,14.86,KEKO 231056Z AUTO 16003KT 10SM FEW085 BKN120 M07/M08 A2979 RMK AO2 SLP114 T10671078,M
HND,2021-12-23 10:56,-115.1344,35.9729,742.79,45.00,30.90,57.50,0.00,0.00,0.00,30.01,1017.80,10.00,M,OVC,M,M,M,7500.00,M,M,M,M,M,M,M,M,M,M,45.00,KHND 231056Z AUTO 00000KT 10SM OVC075 07/M01 A3001 RMK AO2 SLP178 T00721006,M
TPH,2021-12-23 10:56,-117.0904,38.0505,1654.00,23.00,19.90,87.70,0.00,0.00,0.00,29.91,1014.40,10.00,M,OVC,M,M,M,2400.00,M,M,M,M,M,M,M,M,M,M,23.00,KTPH 231056Z AUTO 00000KT 10SM OVC024 M05/M07 A2991 RMK AO2 SLP144 T10501067,M
INS,2021-12-23 10:58,-115.6733,36.5872,955.00,38.00,28.90,69.18,0.00,0.00,0.00,29.97,1014.20,10.00,M,OVC,M,M,M,5000.00,M,M,M,M,M,M,M,M,M,M,38.10,KINS 231058Z AUTO 00000KT 10SM OVC050 03/M02 A2997 RMK AO2 SLP142 T00341017 VISNO RWY08 $,M
LSV,2021-12-23 10:58,-115.0343,36.2362,570.00,48.70,26.60,41.94,0.00,0.00,0.00,29.98,1014.90,10.00,M,OVC,M,M,M,7000.00,M,M,M,M,M,M,M,M,M,M,48.70,KLSV 231058Z AUTO 00000KT 10SM OVC070 09/M03 A2998 RMK AO2 SLP149 T00931030 $,M
CXP,2021-12-23 11:15,-119.7326,39.1923,1431.00,41.00,39.20,93.24,70.00,4.00,0.00,29.73,M,10.00,M,FEW,SCT,OVC,M,4200.00,5500.00,7500.00,M,M,M,M,M,M,M,M,37.93,KCXP 231115Z AUTO 07004KT 10SM FEW042 SCT055 OVC075 05/04 A2973 RMK AO2,M
MEV,2021-12-23 11:15,-119.7500,38.9963,1441.42,39.20,37.40,93.19,300.00,6.00,0.00,29.73,M,10.00,M,BKN,BKN,OVC,M,3600.00,4600.00,7500.00,M,-RA,M,M,M,M,M,M,34.20,KMEV 231115Z AUTO 30006KT 10SM -RA BKN036 BKN046 OVC075 04/03 A2973 RMK AO2,M
BAM,2021-12-23 11:15,-116.8743,40.5990,1382.36,24.80,23.00,92.74,90.00,5.00,0.00,29.76,M,10.00,M,CLR,M,M,M,M,M,M,M,M,M,M,M,M,M,M,17.84,KBAM 231115Z AUTO 09005KT 10SM CLR M04/M05 A2976 RMK AO1,M
HTH,2021-12-23 11:15,-118.6315,38.5448,1282.89,39.20,24.80,55.95,90.00,22.00,0.00,29.78,M,10.00,28.00,CLR,M,M,M,M,M,M,M,M,M,M,M,M,M,M,28.22,KHTH 231115Z AUTO 09022G28KT 10SM CLR 04/M04 A2978 RMK A01,M
05U,2021-12-23 11:15,-116.0051,39.6042,1811.23,30.20,19.40,63.75,0.00,0.00,0.00,29.86,M,10.00,M,CLR,M,M,M,M,M,M,M,M,M,M,M,M,M,M,30.20,K05U 231115Z AUTO 00000KT 10SM CLR M01/M07 A2986 RMK A01,M
TMT,2021-12-23 11:15,-117.1971,39.4643,1749.34,24.30,18.90,79.58,0.00,0.00,0.00,29.82,M,10.00,M,CLR,M,M,M,M,M,M,M,M,M,M,M,M,M,M,24.30,KTMT 231115Z AUTO 00000KT 10SM CLR M04/M07 A2982 RMK AO2 T10431073,M
BVU,2021-12-23 11:15,-114.8611,35.9475,671.00,48.20,32.00,53.27,30.00,3.00,0.00,29.99,M,10.00,M,FEW,BKN,OVC,M,6500.00,8000.00,9000.00,M,M,M,M,M,M,M,M,47.21,KBVU 231115Z AUTO 03003KT 10SM FEW065 BKN080 OVC090 09/M00 A2999 RMK AO2,M
RTS,2021-12-23 11:15,-119.8764,39.6682,1539.00,41.00,35.60,80.93,170.00,12.00,0.00,29.71,M,8.00,M,FEW,SCT,BKN,M,2300.00,3300.00,4500.00,M,M,M,M,M,M,M,M,33.46,KRTS 231115Z AUTO 17012KT 8SM FEW023 SCT033 BKN045 05/02 A2971 RMK AO2,M
INS,2021-12-23 11:23,-115.6733,36.5872,955.00,37.40,30.20,74.98,20.00,3.00,0.00,29.97,1014.20,10.00,M,FEW,SCT,M,M,5000.00,8000.00,M,M,M,M,M,M,M,M,M,34.86,KINS 231123Z AUTO 02003KT 10SM FEW050 SCT080 03/M01 A2997 RMK AO2 SLP142 VISNO RWY08 $,M
BVU,2021-12-23 11:35,-114.8611,35.9475,671.00,48.20,32.00,53.27,350.00,3.00,0.00,29.98,M,10.00,M,SCT,BKN,OVC,M,6000.00,7500.00,8500.00,M,M,M,M,M,M,M,M,47.21,KBVU 231135Z AUTO 35003KT 10SM SCT060 BKN075 OVC085 09/M00 A2998 RMK AO2,M
CXP,2021-12-23 11:35,-119.7326,39.1923,1431.00,41.00,39.20,93.24,0.00,0.00,0.00,29.72,M,10.00,M,FEW,SCT,BKN,M,3700.00,4300.00,4900.00,M,M,M,M,M,M,M,M,41.00,KCXP 231135Z AUTO 00000KT 10SM FEW037 SCT043 BKN049 05/04 A2972 RMK AO2,M
RTS,2021-12-23 11:35,-119.8764,39.6682,1539.00,39.20,37.40,93.19,180.00,6.00,0.00,29.70,M,4.00,12.00,BKN,BKN,OVC,M,2600.00,3400.00,4900.00,M,-RA,M,M,M,M,M,M,34.20,KRTS 231135Z AUTO 18006G12KT 4SM -RA BKN026 BKN034 OVC049 04/03 A2970 RMK AO2,M
05U,2021-12-23 11:35,-116.0051,39.6042,1811.23,28.40,15.80,58.75,0.00,0.00,0.00,29.84,M,10.00,M,CLR,M,M,M,M,M,M,M,M,M,M,M,M,M,M,28.40,K05U 231135Z AUTO 00000KT 10SM CLR M02/M09 A2984 RMK A01,M
MEV,2021-12-23 11:35,-119.7500,38.9963,1441.42,41.00,37.40,86.89,0.00,0.00,0.00,29.71,M,8.00,M,BKN,OVC,M,M,3200.00,3700.00,M,M,-RA,M,M,M,M,M,M,41.00,KMEV 231135Z AUTO 00000KT 8SM -RA BKN032 OVC037 05/03 A2971 RMK AO2,M
BAM,2021-12-23 11:35,-116.8743,40.5990,1382.36,26.60,23.00,86.07,90.00,5.00,0.00,29.76,M,10.00,M,CLR,M,M,M,M,M,M,M,M,M,M,M,M,M,M,19.98,KBAM 231135Z AUTO 09005KT 10SM CLR M03/M05 A2976 RMK AO1,M
HTH,2021-12-23 11:35,-118.6315,38.5448,1282.89,39.20,24.80,55.95,140.00,14.00,0.00,29.78,M,10.00,31.00,FEW,FEW,SCT,M,2300.00,3200.00,5000.00,M,M,M,M,M,M,M,M,30.44,KHTH 231135Z AUTO 14014G31KT 10SM FEW023 FEW032 SCT050 04/M04 A2978 RMK A01,M
INS,2021-12-23 11:43,-115.6733,36.5872,955.00,39.20,28.40,64.93,0.00,0.00,0.00,29.97,1014.20,10.00,M,BKN,M,M,M,8500.00,M,M,M,M,M,M,M,M,M,M,39.20,KINS 231143Z AUTO 00000KT 10SM BKN085 04/M02 A2997 RMK AO2 SLP142 VISNO RWY08 $,M
VGT,2021-12-23 11:53,-115.1933,36.2111,667.00,49.00,27.00,42.32,0.00,0.00,0.00,29.97,1016.30,10.00,M,FEW,OVC,M,M,6000.00,8000.00,M,M,M,M,M,M,M,M,M,48.90,KVGT 231153Z AUTO 00000KT 10SM FEW060 OVC080 09/M03 A2997 RMK AO2 SLP163 T00941028 10106 20094 58012,M
ELY,2021-12-23 11:53,-114.8453,39.2950,1909.00,33.00,30.00,88.23,230.00,13.00,0.00,29.89,1010.90,10.00,M,OVC,M,M,M,2800.00,M,M,M,M,M,M,M,M,M,M,22.98,KELY 231153Z AUTO 23013KT 10SM OVC028 01/M01 A2989 RMK AO2 SLP109 T00061011 10028 20000 58012,M
DRA,2021-12-23 11:53,-116.0278,36.6206,1009.00,41.00,33.00,73.25,110.00,6.00,0.00,29.95,1012.80,10.00,M,OVC,M,M,M,3300.00,M,M,M,M,M,M,M,M,M,M,36.37,KDRA 231153Z AUTO 11006KT 10SM OVC033 05/01 A2995 RMK AO2 SLP128 60004 70004 T00500006 10056 20039 58008,M
LOL,2021-12-23 11:53,-118.5701,40.0684,1192.43,30.90,28.00,88.84,0.00,0.00,T,29.72,1007.30,9.00,M,BKN,OVC,M,M,7000.00,9000.00,M,M,M,M,M,M,M,M,M,30.90,KLOL 231153Z AUTO 00000KT 9SM BKN070 OVC090 M01/M02 A2972 RMK AO2 UPB36E50 SLP073 P0000 60000 T10061022 10000 21017 56019,M
BAM,2021-12-23 11:55,-116.8743,40.5990,1382.36,26.60,23.00,86.07,60.00,5.00,0.00,29.76,M,10.00,M,CLR,M,M,M,M,M,M,M,M,M,M,M,M,M,M,19.98,KBAM 231155Z AUTO 06005KT 10SM CLR M03/M05 A2976 RMK AO1,M
05U,2021-12-23 11:55,-116.0051,39.6042,1811.23,26.60,17.60,68.40,0.00,0.00,0.00,29.84,M,10.00,M,CLR,M,M,M,M,M,M,M,M,M,M,M,M,M,M,26.60,K05U 231155Z AUTO 00000KT 10SM CLR M03/M08 A2984 RMK A01,M
RTS,2021-12-23 11:55,-119.8764,39.6682,1539.00,39.20,37.40,93.19,M,M,0.01,29.69,M,9.00,M,FEW,BKN,OVC,M,2000.00,2600.00,4200.00,M,-DZ,M,M,M,M,M,M,M,KRTS 231155Z AUTO 9SM -DZ FEW020 BKN026 OVC042 04/03 A2969 RMK AO2 P0001,M
RNO,2021-12-23 11:55,-119.7711,39.4839,1341.00,43.00,38.00,82.04,180.00,12.00,0.03,29.68,1003.20,10.00,M,BKN,OVC,M,M,5500.00,7000.00,M,M,-RA,M,M,M,M,M,M,36.00,KRNO 231155Z 18012KT 10SM -RA BKN055 OVC070 06/03 A2968 RMK AO2 SLP032 P0003 60003 70008 T00610033 10067 20033 56024,M
TMT,2021-12-23 11:55,-117.1971,39.4643,1749.34,25.70,18.50,73.80,190.00,4.00,0.00,29.81,M,10.00,M,CLR,M,M,M,M,M,M,M,M,M,M,M,M,M,M,20.06,KTMT 231155Z AUTO 19004KT 10SM CLR M03/M07 A2981 RMK AO2 T10351075 10040 21049,M
HTH,2021-12-23 11:55,-118.6315,38.5448,1282.89,39.20,23.00,51.89,100.00,16.00,0.00,29.76,M,10.00,28.00,CLR,M,M,M,M,M,M,M,M,M,M,M,M,M,M,29.80,KHTH 231155Z AUTO 10016G28KT 10SM CLR 04/M05 A2976 RMK A01,M
BVU,2021-12-23 11:55,-114.8611,35.9475,671.00,46.40,30.20,53.00,0.00,0.00,0.00,29.98,M,10.00,M,FEW,OVC,M,M,7000.00,8500.00,M,M,M,M,M,M,M,M,M,46.40,KBVU 231155Z AUTO 00000KT 10SM FEW070 OVC085 08/M01 A2998 RMK AO2,M
CXP,2021-12-23 11:55,-119.7326,39.1923,1431.00,41.00,39.20,93.24,0.00,0.00,0.00,29.71,M,7.00,M,BKN,OVC,M,M,3400.00,4500.00,M,M,-RA,M,M,M,M,M,M,41.00,KCXP 231155Z AUTO 00000KT 7SM -RA BKN034 OVC045 05/04 A2971 RMK AO2,M
MEV,2021-12-23 11:55,-119.7500,38.9963,1441.42,41.00,37.40,86.89,310.00,7.00,0.02,29.69,M,10.00,12.00,FEW,SCT,OVC,M,1700.00,3000.00,3500.00,M,-RA,M,M,M,M,M,M,35.75,KMEV 231155Z AUTO 31007G12KT 10SM -RA FEW017 SCT030 OVC035 05/03 A2969 RMK AO2 P0002,M
HND,2021-12-23 11:56,-115.1344,35.9729,742.79,45.00,30.90,57.50,200.00,4.00,0.00,29.98,1017.10,10.00,M,OVC,M,M,M,7000.00,M,M,M,M,M,M,M,M,M,M,42.60,KHND 231156Z AUTO 20004KT 10SM OVC070 07/M01 A2998 RMK AO2 SLP171 T00721006 10089 20072 58010,M
EKO,2021-12-23 11:56,-115.7860,40.8242,1367.00,21.90,18.00,84.68,0.00,0.00,0.00,29.77,1010.40,10.00,M,CLR,M,M,M,M,M,M,M,M,M,M,M,M,M,M,21.90,KEKO 231156Z AUTO 00000KT 10SM CLR M06/M08 A2977 RMK AO2 SLP104 T10561078 11022 21072 58018,M
WMC,2021-12-23 11:56,-117.8072,40.9019,1315.00,35.00,28.00,75.06,0.00,0.00,0.00,29.71,1006.40,10.00,M,BKN,M,M,M,6000.00,M,M,M,M,M,M,M,M,M,M,35.10,KWMC 231156Z AUTO 00000KT 10SM BKN060 02/M02 A2971 RMK AO2 SLP064 60000 70004 T00171022 10033 21006 58019,M
NFL,2021-12-23 11:56,-118.7010,39.4166,1199.00,33.00,28.00,81.30,310.00,5.00,0.00,29.72,1004.50,10.00,M,CLR,M,M,M,M,M,M,M,M,M,M,M,M,M,M,27.70,KNFL 231156Z AUTO 31005KT 10SM CLR 01/M02 A2972 RMK AO2 SLP045 T00061022 10022 21011 56025,M
TPH,2021-12-23 11:56,-117.0904,38.0505,1654.00,32.00,28.90,88.17,120.00,7.00,0.00,29.89,1012.60,10.00,M,OVC,M,M,M,2300.00,M,M,M,M,M,M,M,M,M,M,24.78,KTPH 231156Z AUTO 12007KT 10SM OVC023 00/M02 A2989 RMK AO2 PRESFR SLP126 T00001017 10000 21067 58015,M
LAS,2021-12-23 11:56,-115.1634,36.0719,663.00,48.00,26.10,42.17,0.00,0.00,0.00,29.97,1014.60,10.00,M,OVC,M,M,M,6000.00,M,M,M,M,M,M,M,M,M,M,48.00,KLAS 231156Z 00000KT 10SM OVC060 09/M03 A2997 RMK AO2 SLP146 TOPS OF MTNS OBSCURED DSNT NW T00891033 10100 20089 58010,M
INS,2021-12-23 11:58,-115.6733,36.5872,955.00,38.00,28.40,68.32,140.00,3.00,0.00,29.95,1013.50,10.00,M,BKN,M,M,M,8000.00,M,M,M,M,M,M,M,M,M,M,35.43,KINS 231158Z AUTO 14003KT 10SM BKN080 03/M02 A2995 RMK AO2 PRESFR SLP135 60000 T00331020 10043 20024 57018 VISNO RWY08 $,M
LSV,2021-12-23 11:58,-115.0343,36.2362,570.00,46.20,28.00,48.81,0.00,0.00,0.00,29.96,1014.30,10.00,M,BKN,BKN,M,M,7000.00,9000.00,M,M,M,M,M,M,M,M,M,46.20,KLSV 231158Z AUTO 00000KT 10SM BKN070 BKN090 08/M02 A2996 RMK AO2 SLP143 T00791022 10097 20075 57015 $,M
INS,2021-12-23 12:13,-115.6733,36.5872,955.00,39.20,28.40,64.93,0.00,0.00,0.00,29.95,1013.50,10.00,M,SCT,M,M,M,8000.00,M,M,M,M,M,M,M,M,M,M,39.20,KINS 231213Z AUTO 00000KT 10SM SCT080 04/M02 A2995 RMK AO2 SLP135 VISNO RWY08 $,M
TMT,2021-12-23 12:15,-117.1971,39.4643,1749.34,23.40,18.10,79.84,140.00,5.00,0.00,29.79,M,10.00,M,CLR,M,M,M,M,M,M,M,M,M,M,M,M,M,M,16.18,KTMT 231215Z AUTO 14005KT 10SM CLR M05/M08 A2979 RMK AO2 T10481077,M
RTS,2021-12-23 12:15,-119.8764,39.6682,1539.00,39.20,35.60,86.79,170.00,5.00,0.00,29.68,M,10.00,M,FEW,BKN,OVC,M,2400.00,2900.00,3500.00,M,-DZ,M,M,M,M,M,M,34.95,KRTS 231215Z AUTO 17005KT 10SM -DZ FEW024 BKN029 OVC035 04/02 A2968 RMK AO2,M
CXP,2021-12-23 12:15,-119.7326,39.1923,1431.00,41.00,39.20,93.24,0.00,0.00,0.00,29.70,M,8.00,M,OVC,M,M,M,3400.00,M,M,M,-RA,M,M,M,M,M,M,41.00,KCXP 231215Z AUTO 00000KT 8SM -RA OVC034 05/04 A2970 RMK AO2,M
05U,2021-12-23 12:15,-116.0051,39.6042,1811.23,30.20,19.40,63.75,0.00,0.00,0.00,29.84,M,10.00,M,CLR,M,M,M,M,M,M,M,M,M,M,M,M,M,M,30.20,K05U 231215Z AUTO 00000KT 10SM CLR M01/M07 A2984 RMK A01,M
BVU,2021-12-23 12:15,-114.8611,35.9475,671.00,48.20,28.40,46.02,0.00,0.00,0.00,29.98,M,10.00,M,OVC,M,M,M,8500.00,M,M,M,M,M,M,M,M,M,M,48.20,KBVU 231215Z AUTO 00000KT 10SM OVC085 09/M02 A2998 RMK AO2,M
BAM,2021-12-23 12:15,-116.8743,40.5990,1382.36,28.40,24.80,86.18,90.00,6.00,0.00,29.74,M,10.00,M,CLR,M,M,M,M,M,M,M,M,M,M,M,M,M,M,21.19,KBAM 231215Z AUTO 09006KT 10SM CLR M02/M04 A2974 RMK AO1,M
HTH,2021-12-23 12:15,-118.6315,38.5448,1282.89,39.20,23.00,51.89,90.00,24.00,0.00,29.74,M,10.00,33.00,CLR,M,M,M,M,M,M,M,M,M,M,M,M,M,M,27.77,KHTH 231215Z AUTO 09024G33KT 10SM CLR 04/M05 A2974 RMK A01,M
MEV,2021-12-23 12:15,-119.7500,38.9963,1441.42,41.00,37.40,86.89,160.00,4.00,0.00,29.69,M,10.00,M,SCT,BKN,OVC,M,3800.00,5000.00,6500.00,M,M,M,M,M,M,M,M,37.93,KMEV 231215Z AUTO 16004KT 10SM SCT038 BKN050 OVC065 05/03 A2969 RMK AO2,M
INS,2021-12-23 12:23,-115.6733,36.5872,955.00,37.40,28.40,69.67,0.00,0.00,0.00,29.95,1013.70,10.00,M,BKN,M,M,M,8500.00,M,M,M,M,M,M,M,M,M,M,37.40,KINS 231223Z AUTO 00000KT 10SM BKN085 03/M02 A2995 RMK AO2 SLP137 VISNO RWY08 $,M
BAM,2021-12-23 12:35,-116.8743,40.5990,1382.36,28.40,24.80,86.18,140.00,5.00,0.00,29.74,M,10.00,M,SCT,M,M,M,12000.00,M,M,M,M,M,M,M,M,M,M,22.12,KBAM 231235Z AUTO 14005KT 10SM SCT120 M02/M04 A2974 RMK AO1,M
05U,2021-12-23 12:35,-116.0051,39.6042,1811.23,32.00,24.80,74.44,150.00,13.00,0.00,29.82,M,10.00,M,CLR,M,M,M,M,M,M,M,M,M,M,M,M,M,M,21.57,K05U 231235Z AUTO 15013KT 10SM CLR 00/M04 A2982 RMK A01,M
RTS,2021-12-23 12:35,-119.8764,39.6682,1539.00,41.00,35.60,80.93,190.00,15.00,0.00,29.66,M,9.00,21.00,BKN,OVC,M,M,2900.00,3500.00,M,M,-DZ,M,M,M,M,M,M,32.45,KRTS 231235Z AUTO 19015G21KT 9SM -DZ BKN029 OVC035 05/02 A2966 RMK AO2,M
CXP,2021-12-23 12:35,-119.7326,39.1923,1431.00,42.80,39.20,86.99,0.00,0.00,0.00,29.70,M,6.00,M,OVC,M,M,M,3300.00,M,M,M,-RA,M,M,M,M,M,M,42.80,KCXP 231235Z AUTO 00000KT 6SM -RA OVC033 06/04 A2970 RMK AO2,M
BVU,2021-12-23 12:35,-114.8611,35.9475,671.00,48.20,30.20,49.53,330.00,3.00,0.00,29.97,M,10.00,M,OVC,M,M,M,7500.00,M,M,M,M,M,M,M,M,M,M,47.21,KBVU 231235Z AUTO 33003KT 10SM OVC075 09/M01 A2997 RMK AO2,M
HTH,2021-12-23 12:35,-118.6315,38.5448,1282.89,39.20,24.80,55.95,100.00,21.00,0.00,29.74,M,10.00,M,CLR,M,M,M,M,M,M,M,M,M,M,M,M,M,M,28.46,KHTH 231235Z AUTO 10021KT 10SM CLR 04/M04 A2974 RMK A01,M
MEV,2021-12-23 12:35,-119.7500,38.9963,1441.42,41.00,37.40,86.89,160.00,6.00,0.00,29.68,M,10.00,M,SCT,BKN,OVC,M,3500.00,4100.00,5000.00,M,-RA,M,M,M,M,M,M,36.37,KMEV 231235Z AUTO 16006KT 10SM -RA SCT035 BKN041 OVC050 05/03 A2968 RMK AO2,M
TMT,2021-12-23 12:35,-117.1971,39.4643,1749.34,25.70,19.80,78.02,0.00,0.00,0.00,29.79,M,10.00,M,CLR,M,M,M,M,M,M,M,M,M,M,M,M,M,M,25.70,KTMT 231235Z AUTO 00000KT 10SM CLR M03/M07 A2979 RMK AO2 T10351068,M
INS,2021-12-23 12:38,-115.6733,36.5872,955.00,37.40,28.40,69.67,0.00,0.00,0.00,29.95,1013.70,10.00,M,SCT,M,M,M,8500.00,M,M,M,M,M,M,M,M,M,M,37.40,KINS 231238Z AUTO 00000KT 10SM SCT085 03/M02 A2995 RMK AO2 SLP137 VISNO RWY08 $,M
ELY,2021-12-23 12:42,-114.8453,39.2950,1909.00,33.00,30.00,88.23,200.00,13.00,0.00,29.86,M,10.00,20.00,SCT,OVC,M,M,2400.00,3500.00,M,M,M,M,M,M,M,M,M,22.98,KELY 231242Z AUTO 20013G20KT 10SM SCT024 OVC035 01/M01 A2986 RMK AO2 T00061011,M
VGT,2021-12-23 12:53,-115.1933,36.2111,667.00,49.00,28.00,44.10,350.00,4.00,0.00,29.96,1016.10,10.00,M,SCT,OVC,M,M,6000.00,8000.00,M,M,M,M,M,M,M,M,M,47.16,KVGT 231253Z AUTO 35004KT 10SM SCT060 OVC080 09/M02 A2996 RMK AO2 SLP161 T00941022,M
LOL,2021-12-23 12:53,-118.5701,40.0684,1192.43,30.00,28.00,92.15,70.00,5.00,0.00,29.68,1006.70,9.00,M,BKN,M,M,M,11000.00,M,M,M,M,M,M,M,M,M,M,24.02,KLOL 231253Z AUTO 07005KT 9SM BKN110 M01/M02 A2968 RMK AO2 SLP067 T10111022,M
DRA,2021-12-23 12:53,-116.0278,36.6206,1009.00,42.00,34.00,72.78,M,3.00,0.00,29.93,1012.50,10.00,M,OVC,M,M,M,3100.00,M,M,M,M,M,M,M,M,M,M,40.23,KDRA 231253Z AUTO VRB03KT 10SM OVC031 06/01 A2993 RMK AO2 SLP125 T00560011,M
ELY,2021-12-23 12:53,-114.8453,39.2950,1909.00,33.00,30.00,88.23,200.00,12.00,0.00,29.87,1010.90,10.00,M,OVC,M,M,M,3500.00,M,M,M,M,M,M,M,M,M,M,23.40,KELY 231253Z AUTO 20012KT 10SM OVC035 01/M01 A2987 RMK AO2 SLP109 T00061011,M
RTS,2021-12-23 12:55,-119.8764,39.6682,1539.00,41.00,35.60,80.93,190.00,11.00,0.01,29.68,M,9.00,16.00,SCT,BKN,OVC,M,2700.00,3100.00,4200.00,M,-DZ,M,M,M,M,M,M,33.84,KRTS 231255Z AUTO 19011G16KT 9SM -DZ SCT027 BKN031 OVC042 05/02 A2968 RMK AO2 P0001,M
RNO,2021-12-23 12:55,-119.7711,39.4839,1341.00,43.00,39.00,85.66,200.00,7.00,0.06,29.67,1003.10,7.00,M,BKN,OVC,M,M,3600.00,7000.00,M,M,-RA,M,M,M,M,M,M,38.19,KRNO 231255Z 20007KT 7SM -RA BKN036 OVC070 06/04 A2967 RMK AO2 SLP031 P0006 T00610039,M
CXP,2021-12-23 12:55,-119.7326,39.1923,1431.00,42.80,39.20,86.99,0.00,0.00,0.00,29.70,M,6.00,M,OVC,M,M,M,3200.00,M,M,M,-RA,M,M,M,M,M,M,42.80,KCXP 231255Z AUTO 00000KT 6SM -RA OVC032 06/04 A2970 RMK AO2,M
BVU,2021-12-23 12:55,-114.8611,35.9475,671.00,48.20,30.20,49.53,0.00,0.00,0.00,29.97,M,10.00,M,OVC,M,M,M,7500.00,M,M,M,M,M,M,M,M,M,M,48.20,KBVU 231255Z AUTO 00000KT 10SM OVC075 09/M01 A2997 RMK AO2,M
TMT,2021-12-23 12:55,-117.1971,39.4643,1749.34,28.00,21.70,76.91,270.00,4.00,0.00,29.79,M,10.00,M,CLR,M,M,M,M,M,M,M,M,M,M,M,M,M,M,22.75,KTMT 231255Z AUTO 27004KT 10SM CLR M02/M06 A2979 RMK AO2 T10221057,M
HTH,2021-12-23 12:55,-118.6315,38.5448,1282.89,39.20,23.00,51.89,80.00,27.00,0.00,29.71,M,10.00,32.00,CLR,M,M,M,M,M,M,M,M,M,M,M,M,M,M,27.16,KHTH 231255Z AUTO 08027G32KT 10SM CLR 04/M05 A2971 RMK A01,M
BAM,2021-12-23 12:55,-116.8743,40.5990,1382.36,26.60,24.80,92.80,90.00,3.00,0.00,29.73,M,10.00,M,SCT,BKN,M,M,9500.00,11000.00,M,M,M,M,M,M,M,M,M,22.52,KBAM 231255Z AUTO 09003KT 10SM SCT095 BKN110 M03/M04 A2973 RMK AO1,M
MEV,2021-12-23 12:55,-119.7500,38.9963,1441.42,42.80,37.40,81.07,250.00,8.00,0.03,29.69,M,10.00,M,FEW,BKN,OVC,M,3500.00,4200.00,6000.00,M,M,M,M,M,M,M,M,37.42,KMEV 231255Z AUTO 25008KT 10SM FEW035 BKN042 OVC060 06/03 A2969 RMK AO2 P0003,M
05U,2021-12-23 12:55,-116.0051,39.6042,1811.23,32.00,23.00,69.04,0.00,0.00,0.00,29.83,M,10.00,M,FEW,M,M,M,11000.00,M,M,M,M,M,M,M,M,M,M,32.00,K05U 231255Z AUTO 00000KT 10SM FEW110 00/M05 A2983 RMK A01,M
TPH,2021-12-23 12:56,-117.0904,38.0505,1654.00,33.00,30.00,88.23,0.00,0.00,0.00,29.89,1013.50,10.00,M,OVC,M,M,M,2000.00,M,M,M,M,M,M,M,M,M,M,33.10,KTPH 231256Z AUTO 00000KT 10SM OVC020 01/M01 A2989 RMK AO2 SLP135 T00061011,M
HND,2021-12-23 12:56,-115.1344,35.9729,742.79,46.00,30.90,55.36,340.00,3.00,0.00,29.97,1016.50,10.00,M,BKN,OVC,M,M,5000.00,6000.00,M,M,M,M,M,M,M,M,M,44.69,KHND 231256Z AUTO 34003KT 10SM BKN050 OVC060 08/M01 A2997 RMK AO2 SLP165 T00781006,M
LAS,2021-12-23 12:56,-115.1634,36.0719,663.00,48.00,27.00,43.77,0.00,0.00,0.00,29.96,1014.10,10.00,M,SCT,BKN,OVC,M,4400.00,5000.00,7500.00,M,M,M,M,M,M,M,M,48.00,KLAS 231256Z 00000KT 10SM SCT044 BKN050 OVC075 09/M03 A2996 RMK AO2 SLP141 TOPS OF MTNS OBSCURED DSNT NW T00891028,M
NFL,2021-12-23 12:56,-118.7010,39.4166,1199.00,41.00,30.00,64.63,180.00,6.00,0.00,29.67,1002.90,10.00,M,FEW,SCT,BKN,M,8000.00,9500.00,11000.00,M,M,M,M,M,M,M,M,36.37,KNFL 231256Z AUTO 18006KT 10SM FEW080 SCT095 BKN110 05/M01 A2967 RMK AO2 SLP029 T00501011,M
EKO,2021-12-23 12:56,-115.7860,40.8242,1367.00,26.10,19.00,74.16,240.00,5.00,0.00,29.75,1009.60,10.00,M,CLR,M,M,M,M,M,M,M,M,M,M,M,M,M,M,19.39,KEKO 231256Z AUTO 24005KT 10SM CLR M03/M07 A2975 RMK AO2 SLP096 T10331072,M
WMC,2021-12-23 12:56,-117.8072,40.9019,1315.00,33.00,27.00,78.03,M,3.00,0.00,29.68,1005.80,10.00,M,BKN,BKN,OVC,M,6500.00,10000.00,11000.00,M,M,M,M,M,M,M,M,29.95,KWMC 231256Z AUTO VRB03KT 10SM BKN065 BKN100 OVC110 01/M03 A2968 RMK AO2 SLP058 T00061028,M
LSV,2021-12-23 12:58,-115.0343,36.2362,570.00,47.80,25.90,42.14,70.00,8.00,0.00,29.95,1013.90,10.00,M,BKN,BKN,OVC,M,7500.00,9000.00,12000.00,M,M,M,M,M,M,M,M,43.58,KLSV 231258Z AUTO 07008KT 10SM BKN075 BKN090 OVC120 09/M03 A2995 RMK AO2 SLP139 T00881034 $,M
INS,2021-12-23 12:58,-115.6733,36.5872,955.00,35.20,29.70,80.15,260.00,3.00,0.00,29.95,1013.90,10.00,M,FEW,M,M,M,8000.00,M,M,M,M,M,M,M,M,M,M,32.35,KINS 231258Z AUTO 26003KT 10SM FEW080 02/M01 A2995 RMK AO2 SLP139 T00181013 VISNO RWY08 $,M
INS,2021-12-23 13:08,-115.6733,36.5872,955.00,35.60,30.20,80.51,260.00,3.00,0.00,29.95,1013.90,10.00,M,BKN,M,M,M,8000.00,M,M,M,M,M,M,M,M,M,M,32.80,KINS 231308Z AUTO 26003KT 10SM BKN080 02/M01 A2995 RMK AO2 SLP139 VISNO RWY08 $,M
HTH,2021-12-23 13:15,-118.6315,38.5448,1282.89,39.20,23.00,51.89,90.00,22.00,0.00,29.73,M,10.00,28.00,CLR,M,M,M,M,M,M,M,M,M,M,M,M,M,M,28.22,KHTH 231315Z AUTO 09022G28KT 10SM CLR 04/M05 A2973 RMK A01,M
CXP,2021-12-23 13:15,-119.7326,39.1923,1431.00,41.00,39.20,93.24,110.00,4.00,0.00,29.70,M,5.00,M,OVC,M,M,M,3100.00,M,M,M,-RA,M,M,M,M,M,M,37.93,KCXP 231315Z AUTO 11004KT 5SM -RA OVC031 05/04 A2970 RMK AO2,M
RTS,2021-12-23 13:15,-119.8764,39.6682,1539.00,39.20,37.40,93.19,170.00,9.00,0.00,29.67,M,4.00,18.00,BKN,OVC,M,M,2500.00,3300.00,M,M,-RA,M,M,M,M,M,M,32.47,KRTS 231315Z AUTO 17009G18KT 4SM -RA BKN025 OVC033 04/03 A2967 RMK AO2,M
05U,2021-12-23 13:15,-116.0051,39.6042,1811.23,28.40,21.20,74.08,0.00,0.00,0.00,29.83,M,10.00,M,CLR,M,M,M,M,M,M,M,M,M,M,M,M,M,M,28.40,K05U 231315Z AUTO 00000KT 10SM CLR M02/M06 A2983 RMK A01,M
MEV,2021-12-23 13:15,-119.7500,38.9963,1441.42,39.20,37.40,93.19,90.00,4.00,0.00,29.68,M,6.00,M,BKN,OVC,M,M,3000.00,4200.00,M,M,-RA BR,M,M,M,M,M,M,35.83,KMEV 231315Z AUTO 09004KT 6SM -RA BR BKN030 OVC042 04/03 A2968 RMK AO2,M
BVU,2021-12-23 13:15,-114.8611,35.9475,671.00,48.20,32.00,53.27,0.00,0.00,0.00,29.97,M,10.00,M,SCT,OVC,M,M,6000.00,8000.00,M,M,M,M,M,M,M,M,M,48.20,KBVU 231315Z AUTO 00000KT 10SM SCT060 OVC080 09/M00 A2997 RMK AO2,M
BAM,2021-12-23 13:15,-116.8743,40.5990,1382.36,28.40,24.80,86.18,80.00,5.00,0.00,29.72,M,10.00,M,SCT,M,M,M,9500.00,M,M,M,M,M,M,M,M,M,M,22.12,KBAM 231315Z AUTO 08005KT 10SM SCT095 M02/M04 A2972 RMK AO1,M
TMT,2021-12-23 13:15,-117.1971,39.4643,1749.34,29.30,22.80,76.39,230.00,8.00,0.00,29.78,M,10.00,M,BKN,BKN,M,M,7500.00,8500.00,M,M,M,M,M,M,M,M,M,20.79,KTMT 231315Z AUTO 23008KT 10SM BKN075 BKN085 M01/M05 A2978 RMK AO2 T10151051,M
05U,2021-12-23 13:30,-116.0051,39.6042,1811.23,33.80,24.80,69.25,230.00,6.00,0.00,29.82,M,10.00,M,CLR,M,M,M,M,M,M,M,M,M,M,M,M,M,M,27.70,K05U 231330Z AUTO 23006KT 10SM CLR 01/M04 A2982 RMK A01,M
ELY,2021-12-23 13:31,-114.8453,39.2950,1909.00,34.00,30.00,85.11,200.00,14.00,0.00,29.86,M,10.00,M,BKN,BKN,OVC,M,2000.00,3300.00,4200.00,M,M,M,M,M,29.00,160.00,2021-12-23 13:02,23.74,KELY 231331Z AUTO 20014KT 10SM BKN020 BKN033 OVC042 01/M01 A2986 RMK AO2 PK WND 16029/1302 T00111011,M
BVU,2021-12-23 13:35,-114.8611,35.9475,671.00,48.20,30.20,49.53,0.00,0.00,0.00,29.97,M,10.00,M,BKN,BKN,OVC,M,6000.00,6500.00,8000.00,M,M,M,M,M,M,M,M,48.20,KBVU 231335Z AUTO 00000KT 10SM BKN060 BKN065 OVC080 09/M01 A2997 RMK AO2,M
MEV,2021-12-23 13:35,-119.7500,38.9963,1441.42,39.20,39.20,100.00,130.00,9.00,0.00,29.68,M,4.00,M,OVC,M,M,M,2900.00,M,M,M,-RA BR,M,M,M,M,M,M,32.47,KMEV 231335Z AUTO 13009KT 4SM -RA BR OVC029 04/04 A2968 RMK AO2,M
CXP,2021-12-23 13:35,-119.7326,39.1923,1431.00,42.80,39.20,86.99,0.00,0.00,0.00,29.69,M,4.00,M,OVC,M,M,M,3000.00,M,M,M,-RA,M,M,M,M,M,M,42.80,KCXP 231335Z AUTO 00000KT 4SM -RA OVC030 06/04 A2969 RMK AO2,M
BAM,2021-12-23 13:35,-116.8743,40.5990,1382.36,28.40,24.80,86.18,60.00,7.00,0.00,29.72,M,10.00,M,SCT,M,M,M,7500.00,M,M,M,M,M,M,M,M,M,M,20.39,KBAM 231335Z AUTO 06007KT 10SM SCT075 M02/M04 A2972 RMK AO1,M
HTH,2021-12-23 13:35,-118.6315,38.5448,1282.89,39.20,24.80,55.95,90.00,18.00,0.00,29.72,M,10.00,26.00,CLR,M,M,M,M,M,M,M,M,M,M,M,M,M,M,29.23,KHTH 231335Z AUTO 09018G26KT 10SM CLR 04/M04 A2972 RMK A01,M
TMT,2021-12-23 13:35,-117.1971,39.4643,1749.34,29.70,23.20,76.43,220.00,7.00,0.00,29.76,M,10.00,M,OVC,M,M,M,6500.00,M,M,M,M,M,M,M,M,M,M,21.98,KTMT 231335Z AUTO 22007KT 10SM OVC065 M01/M05 A2976 RMK AO2 T10131049,M
RTS,2021-12-23 13:35,-119.8764,39.6682,1539.00,39.20,35.60,86.79,210.00,10.00,0.00,29.67,M,5.00,M,OVC,M,M,M,2400.00,M,M,M,-RA,M,M,M,M,M,M,32.00,KRTS 231335Z AUTO 21010KT 5SM -RA OVC024 04/02 A2967 RMK AO2,M
ELY,2021-12-23 13:53,-114.8453,39.2950,1909.00,33.00,30.00,88.23,210.00,16.00,0.00,29.86,1010.80,10.00,22.00,BKN,BKN,M,M,2000.00,3300.00,M,M,M,M,M,M,29.00,160.00,2021-12-23 13:02,21.85,KELY 231353Z AUTO 21016G22KT 10SM BKN020 BKN033 01/M01 A2986 RMK AO2 PK WND 16029/1302 SLP108 T00061011,M
VGT,2021-12-23 13:53,-115.1933,36.2111,667.00,48.00,28.00,45.61,0.00,0.00,0.00,29.96,1016.20,10.00,M,OVC,M,M,M,5000.00,M,M,M,M,M,M,M,M,M,M,48.00,KVGT 231353Z 00000KT 10SM OVC050 09/M02 A2996 RMK AO2 SLP162 T00891022,M
DRA,2021-12-23 13:53,-116.0278,36.6206,1009.00,42.00,33.00,70.20,320.00,4.00,0.00,29.94,1012.70,10.00,M,BKN,OVC,M,M,3300.00,8500.00,M,M,M,M,M,M,M,M,M,39.21,KDRA 231353Z AUTO 32004KT 10SM BKN033 OVC085 06/01 A2994 RMK AO2 SLP127 T00560006,M
LOL,2021-12-23 13:53,-118.5701,40.0684,1192.43,32.00,28.90,88.17,140.00,3.00,T,29.69,1006.80,7.00,M,OVC,M,M,M,5500.00,M,M,M,UP,M,M,M,M,M,M,28.69,KLOL 231353Z AUTO 14003KT 7SM UP OVC055 00/M02 A2969 RMK AO2 UPB22 SLP068 P0000 T00001017,M
BVU,2021-12-23 13:55,-114.8611,35.9475,671.00,46.40,32.00,57.00,0.00,0.00,0.00,29.97,M,10.00,M,OVC,M,M,M,5500.00,M,M,M,M,M,M,M,M,M,M,46.40,KBVU 231355Z AUTO 00000KT 10SM OVC055 08/M00 A2997 RMK AO2,M
HTH,2021-12-23 13:55,-118.6315,38.5448,1282.89,42.80,30.20,60.79,170.00,7.00,0.00,29.70,M,10.00,16.00,CLR,M,M,M,M,M,M,M,M,M,M,M,M,M,M,37.94,KHTH 231355Z AUTO 17007G16KT 130V200 10SM CLR 06/M01 A2970 RMK A01,M
BAM,2021-12-23 13:55,-116.8743,40.5990,1382.36,30.20,24.80,80.07,30.00,6.00,0.00,29.71,M,10.00,M,SCT,M,M,M,7500.00,M,M,M,M,M,M,M,M,M,M,23.36,KBAM 231355Z AUTO 03006KT 10SM SCT075 M01/M04 A2971 RMK AO1,M
MEV,2021-12-23 13:55,-119.7500,38.9963,1441.42,41.00,39.20,93.24,130.00,6.00,0.02,29.67,M,9.00,M,BKN,OVC,M,M,3000.00,3600.00,M,M,-RA,M,M,M,M,M,M,36.37,KMEV 231355Z AUTO 13006KT 9SM -RA BKN030 OVC036 05/04 A2967 RMK AO2 P0002,M
05U,2021-12-23 13:55,-116.0051,39.6042,1811.23,32.00,24.80,74.44,0.00,0.00,0.00,29.82,M,10.00,M,FEW,M,M,M,8000.00,M,M,M,M,M,M,M,M,M,M,32.00,K05U 231355Z AUTO 00000KT 10SM FEW080 00/M04 A2982 RMK A01,M
RTS,2021-12-23 13:55,-119.8764,39.6682,1539.00,39.20,35.60,86.79,180.00,16.00,0.09,29.67,M,4.00,21.00,OVC,M,M,M,2300.00,M,M,M,+UP,M,M,M,M,M,M,29.80,KRTS 231355Z AUTO 18016G21KT 4SM +UP OVC023 04/02 A2967 RMK AO2 P0009,M
RNO,2021-12-23 13:55,-119.7711,39.4839,1341.00,41.00,38.00,88.62,200.00,8.00,0.18,29.67,1003.40,6.00,M,OVC,M,M,M,3100.00,M,M,M,-RA BR,M,M,M,M,M,M,35.20,KRNO 231355Z 20008KT 6SM -RA BR OVC031 05/03 A2967 RMK AO2 SLP034 P0018 T00500033,M
CXP,2021-12-23 13:55,-119.7326,39.1923,1431.00,42.80,39.20,86.99,0.00,0.00,0.00,29.69,M,7.00,M,OVC,M,M,M,3200.00,M,M,M,-RA,M,M,M,M,M,M,42.80,KCXP 231355Z AUTO 00000KT 7SM -RA OVC032 06/04 A2969 RMK AO2,M
TMT,2021-12-23 13:55,-117.1971,39.4643,1749.34,32.70,25.00,72.98,220.00,11.00,0.00,29.75,M,10.00,M,SCT,M,M,M,6500.00,M,M,M,M,M,M,M,M,M,M,23.35,KTMT 231355Z AUTO 22011KT 10SM SCT065 00/M04 A2975 RMK AO2 T00041039,M
TPH,2021-12-23 13:56,-117.0904,38.0505,1654.00,35.00,30.90,84.49,160.00,9.00,0.00,29.87,1013.20,10.00,M,OVC,M,M,M,1700.00,M,M,M,M,M,M,M,M,M,M,27.37,KTPH 231356Z AUTO 16009KT 10SM OVC017 02/M01 A2987 RMK AO2 SLP132 T00171006,M
EKO,2021-12-23 13:56,-115.7860,40.8242,1367.00,32.00,21.00,63.45,240.00,5.00,0.00,29.73,1008.20,10.00,M,BKN,BKN,M,M,8000.00,10000.00,M,M,M,M,M,M,M,M,M,26.40,KEKO 231356Z AUTO 24005KT 10SM BKN080 BKN100 00/M06 A2973 RMK AO2 SLP082 T00001061,M
HND,2021-12-23 13:56,-115.1344,35.9729,742.79,46.00,30.90,55.36,0.00,0.00,0.00,29.98,1017.00,10.00,M,FEW,OVC,M,M,4400.00,6500.00,M,M,M,M,M,M,M,M,M,46.00,KHND 231356Z AUTO 00000KT 10SM FEW044 OVC065 08/M01 A2998 RMK AO2 SLP170 T00781006,M
LAS,2021-12-23 13:56,-115.1634,36.0719,663.00,48.00,26.10,42.17,0.00,0.00,0.00,29.97,1014.50,10.00,M,FEW,BKN,BKN,M,4400.00,7000.00,12000.00,M,M,M,M,M,M,M,M,48.00,KLAS 231356Z 00000KT 10SM FEW044 BKN070 BKN120 09/M03 A2997 RMK AO2 SLP145 T00891033,M
WMC,2021-12-23 13:56,-117.8072,40.9019,1315.00,33.00,28.00,81.30,60.00,3.00,T,29.65,1004.90,10.00,M,OVC,M,M,M,6000.00,M,M,M,M,M,M,M,M,M,M,29.95,KWMC 231356Z AUTO 06003KT 10SM OVC060 01/M02 A2965 RMK AO2 RAB19E32 SLP049 P0000 T00061022,M
NFL,2021-12-23 13:56,-118.7010,39.4166,1199.00,42.00,30.00,61.94,180.00,10.00,0.00,29.68,1003.30,10.00,M,SCT,BKN,M,M,7000.00,9000.00,M,M,M,M,M,M,M,M,M,35.63,KNFL 231356Z AUTO 18010KT 10SM SCT070 BKN090 06/M01 A2968 RMK AO2 SLP033 T00561011,M
INS,2021-12-23 13:58,-115.6733,36.5872,955.00,35.80,29.80,78.58,0.00,0.00,0.00,29.95,1014.20,10.00,M,BKN,M,M,M,7500.00,M,M,M,M,M,M,M,M,M,M,35.80,KINS 231358Z AUTO 00000KT 10SM BKN075 02/M01 A2995 RMK AO2 SLP142 T00211012 VISNO RWY08 $,M
LSV,2021-12-23 13:58,-115.0343,36.2362,570.00,47.30,25.90,42.94,70.00,7.00,0.00,29.96,1014.30,10.00,M,BKN,M,M,M,7000.00,M,M,M,M,M,M,M,M,M,M,43.43,KLSV 231358Z AUTO 07007KT 10SM BKN070 09/M03 A2996 RMK AO2 SLP143 T00851034 $,M
ELY,2021-12-23 14:02,-114.8453,39.2950,1909.00,34.00,30.90,88.27,180.00,16.00,0.00,29.85,M,10.00,26.00,SCT,BKN,M,M,2000.00,3300.00,M,M,M,M,M,M,26.00,180.00,2021-12-23 13:58,23.03,KELY 231402Z AUTO 18016G26KT 10SM SCT020 BKN033 01/M01 A2985 RMK AO2 PK WND 18026/1358 T00111006,M
MEV,2021-12-23 14:15,-119.7500,38.9963,1441.42,41.00,39.20,93.24,0.00,0.00,0.00,29.66,M,10.00,M,BKN,BKN,OVC,M,3300.00,4300.00,5500.00,M,-RA,M,M,M,M,M,M,41.00,KMEV 231415Z AUTO 00000KT 10SM -RA BKN033 BKN043 OVC055 05/04 A2966 RMK AO2,M
BAM,2021-12-23 14:15,-116.8743,40.5990,1382.36,30.20,26.60,86.28,50.00,5.00,0.00,29.71,M,10.00,M,SCT,M,M,M,10000.00,M,M,M,M,M,M,M,M,M,M,24.26,KBAM 231415Z AUTO 05005KT 10SM SCT100 M01/M03 A2971 RMK AO1,M
HTH,2021-12-23 14:15,-118.6315,38.5448,1282.89,50.00,32.00,49.81,210.00,14.00,0.00,29.69,M,10.00,21.00,CLR,M,M,M,M,M,M,M,M,M,M,M,M,M,M,50.00,KHTH 231415Z AUTO 21014G21KT 10SM CLR 10/00 A2969 RMK A01,M
TMT,2021-12-23 14:15,-117.1971,39.4643,1749.34,32.00,24.80,74.44,220.00,10.00,0.00,29.74,M,10.00,M,CLR,M,M,M,M,M,M,M,M,M,M,M,M,M,M,22.97,KTMT 231415Z AUTO 22010KT 10SM CLR 00/M04 A2974 RMK AO2 T00001040,M
BVU,2021-12-23 14:15,-114.8611,35.9475,671.00,46.40,32.00,57.00,340.00,4.00,0.00,29.98,M,10.00,M,OVC,M,M,M,5500.00,M,M,M,M,M,M,M,M,M,M,44.24,KBVU 231415Z AUTO 34004KT 10SM OVC055 08/M00 A2998 RMK AO2,M
RTS,2021-12-23 14:15,-119.8764,39.6682,1539.00,37.40,35.60,93.14,150.00,10.00,0.00,29.67,M,7.00,M,BKN,OVC,M,M,2400.00,3000.00,M,M,-RA,M,M,M,M,M,M,29.74,KRTS 231415Z AUTO 15010KT 7SM -RA BKN024 OVC030 03/02 A2967 RMK AO2,M
05U,2021-12-23 14:15,-116.0051,39.6042,1811.23,32.00,24.80,74.44,160.00,9.00,0.00,29.81,M,10.00,M,CLR,M,M,M,M,M,M,M,M,M,M,M,M,M,M,23.51,K05U 231415Z AUTO 16009KT 10SM CLR M00/M04 A2981 RMK A01,M
CXP,2021-12-23 14:15,-119.7326,39.1923,1431.00,41.00,39.20,93.24,0.00,0.00,0.00,29.69,M,8.00,M,OVC,M,M,M,3300.00,M,M,M,-RA,M,M,M,M,M,M,41.00,KCXP 231415Z AUTO 00000KT 8SM -RA OVC033 05/04 A2969 RMK AO2,M
INS,2021-12-23 14:18,-115.6733,36.5872,955.00,37.40,30.20,74.98,0.00,0.00,0.00,29.95,1013.90,10.00,M,FEW,BKN,M,M,5000.00,8000.00,M,M,-RA,M,M,M,M,M,M,37.40,KINS 231418Z AUTO 00000KT 10SM -RA FEW050 BKN080 03/M01 A2995 RMK AO2 RAB18 SLP139 VISNO RWY08 $,M
TPH,2021-12-23 14:26,-117.0904,38.0505,1654.00,34.00,30.90,88.27,150.00,7.00,0.00,29.87,M,10.00,M,OVC,M,M,M,1400.00,M,M,M,M,M,M,M,M,M,M,27.22,KTPH 231426Z AUTO 15007KT 10SM OVC014 01/M01 A2987 RMK AO2 T00111006,M
CXP,2021-12-23 14:30,-119.7326,39.1923,1431.00,41.00,39.20,93.24,0.00,0.00,0.00,29.68,M,9.00,M,OVC,M,M,M,3300.00,M,M,M,M,M,M,M,M,M,M,41.00,KCXP 231430Z AUTO 00000KT 9SM OVC033 05/04 A2968 RMK AO2,M
RNO,2021-12-23 14:32,-119.7711,39.4839,1341.00,39.20,37.40,93.19,260.00,3.00,0.00,29.67,M,5.00,M,OVC,M,M,M,2900.00,M,M,M,RA BR,M,M,M,M,M,M,36.92,KRNO 231432Z 26003KT 5SM RA BR OVC029 04/03 A2967,M
BVU,2021-12-23 14:35,-114.8611,35.9475,671.00,48.20,32.00,53.27,0.00,0.00,0.00,29.97,M,10.00,M,FEW,BKN,OVC,M,4800.00,6000.00,6500.00,M,M,M,M,M,M,M,M,48.20,KBVU 231435Z AUTO 00000KT 10SM FEW048 BKN060 OVC065 09/M00 A2997 RMK AO2,M
HTH,2021-12-23 14:35,-118.6315,38.5448,1282.89,51.80,32.00,46.59,210.00,25.00,0.00,29.68,M,10.00,31.00,CLR,M,M,M,M,M,M,M,M,M,M,M,M,M,M,51.80,KHTH 231435Z AUTO 21025G31KT 10SM CLR 11/00 A2968 RMK A01,M
TMT,2021-12-23 14:35,-117.1971,39.4643,1749.34,33.00,25.70,74.54,220.00,9.00,0.00,29.74,M,10.00,M,CLR,M,M,M,M,M,M,M,M,M,M,M,M,M,M,24.63,KTMT 231435Z AUTO 22009KT 10SM CLR 01/M03 A2974 RMK AO2 T00051035,M
05U,2021-12-23 14:35,-116.0051,39.6042,1811.23,32.00,26.60,80.22,160.00,12.00,0.00,29.81,M,10.00,M,CLR,M,M,M,M,M,M,M,M,M,M,M,M,M,M,22.00,K05U 231435Z AUTO 16012KT 10SM CLR 00/M03 A2981 RMK A01,M
RTS,2021-12-23 14:35,-119.8764,39.6682,1539.00,37.40,35.60,93.14,140.00,11.00,0.00,29.66,M,5.00,M,BKN,OVC,M,M,2400.00,3000.00,M,M,-DZ,M,M,M,M,M,M,29.29,KRTS 231435Z AUTO 14011KT 5SM -DZ BKN024 OVC030 03/02 A2966 RMK AO2,M
BAM,2021-12-23 14:35,-116.8743,40.5990,1382.36,30.20,26.60,86.28,70.00,7.00,0.00,29.70,M,10.00,M,OVC,M,M,M,10000.00,M,M,M,M,M,M,M,M,M,M,22.59,KBAM 231435Z AUTO 07007KT 10SM OVC100 M01/M03 A2970 RMK AO1,M
MEV,2021-12-23 14:35,-119.7500,38.9963,1441.42,41.00,37.40,86.89,150.00,6.00,0.00,29.67,M,10.00,M,SCT,BKN,OVC,M,3200.00,4500.00,7500.00,M,-RA,M,M,M,M,M,M,36.37,KMEV 231435Z AUTO 15006KT 10SM -RA SCT032 BKN045 OVC075 05/03 A2967 RMK AO2,M
INS,2021-12-23 14:40,-115.6733,36.5872,955.00,35.60,32.00,86.59,0.00,0.00,0.00,29.95,1014.20,10.00,M,FEW,FEW,BKN,M,3300.00,5500.00,8000.00,M,M,M,M,M,M,M,M,35.60,KINS 231440Z AUTO 00000KT 10SM FEW033 FEW055 BKN080 02/M00 A2995 RMK AO2 RAB18E37DZB37E40DZB40 SLP142 VISNO RWY08 $,M
INS,2021-12-23 14:50,-115.6733,36.5872,955.00,35.60,32.00,86.59,20.00,5.00,0.00,29.95,1014.20,10.00,M,FEW,FEW,BKN,M,4000.00,7000.00,8500.00,M,-RA,M,M,M,M,M,M,30.67,KINS 231450Z AUTO 02005KT 10SM -RA FEW040 FEW070 BKN085 02/M00 A2995 RMK AO2 RAB18E37DZB37E40DZB40E40RAB50 SLP142 VISNO RWY08 $,M
ELY,2021-12-23 14:53,-114.8453,39.2950,1909.00,36.00,32.00,85.23,180.00,17.00,0.00,29.84,1009.50,10.00,25.00,SCT,SCT,M,M,3800.00,4500.00,M,M,M,M,M,M,29.00,160.00,2021-12-23 14:28,25.32,KELY 231453Z AUTO 18017G25KT 10SM SCT038 SCT045 02/00 A2984 RMK AO2 PK WND 16029/1428 SLP095 T00220000 58013,M
LOL,2021-12-23 14:53,-118.5701,40.0684,1192.43,32.00,30.00,92.22,50.00,3.00,T,29.69,1007.00,5.00,M,OVC,M,M,M,4000.00,M,M,M,-FZRA BR,0.01,0.01,M,M,M,M,28.69,KLOL 231453Z AUTO 05003KT 5SM -FZRA BR OVC040 00/M01 A2969 RMK AO2 UPE48FZRAB48 SLP070 P0000 60000 I1001 I3001 T00001011 55010,M
P68,2021-12-23 14:53,-116.0056,39.6014,1993.00,33.00,26.10,75.18,160.00,15.00,0.00,29.78,1008.00,M,M,M,M,M,M,M,M,M,M,M,M,M,M,M,M,M,22.21,KP68 231453Z AUTO 16015KT 01/M03 A2978 RMK AO1 SLP080 T00061033 58009,M
VGT,2021-12-23 14:53,-115.1933,36.2111,667.00,49.00,26.10,40.77,120.00,4.00,0.00,29.95,1015.90,10.00,M,FEW,SCT,OVC,M,4900.00,5500.00,7500.00,M,M,M,M,M,M,M,M,47.16,KVGT 231453Z 12004KT 10SM FEW049 SCT055 OVC075 09/M03 A2995 RMK AO2 SLP159 T00941033 56005,M
DRA,2021-12-23 14:53,-116.0278,36.6206,1009.00,42.00,33.00,70.20,100.00,3.00,0.00,29.93,1012.50,10.00,M,BKN,BKN,OVC,M,3000.00,3800.00,7500.00,M,M,M,M,M,M,M,M,40.23,KDRA 231453Z AUTO 10003KT 10SM BKN030 BKN038 OVC075 06/01 A2993 RMK AO2 SLP125 T00560006 56005,M
BAM,2021-12-23 14:55,-116.8743,40.5990,1382.36,32.00,28.40,86.39,60.00,4.00,0.00,29.70,M,10.00,M,OVC,M,M,M,9000.00,M,M,M,M,M,M,M,M,M,M,27.42,KBAM 231455Z AUTO 06004KT 10SM OVC090 00/M02 A2970 RMK AO1,M
RNO,2021-12-23 14:55,-119.7711,39.4839,1341.00,40.00,37.00,89.27,280.00,5.00,0.10,29.68,1003.70,3.00,M,OVC,M,M,M,2900.00,M,M,M,RA BR,M,M,M,M,M,M,35.78,KRNO 231455Z 28005KT 3SM RA BR OVC029 04/03 A2968 RMK AO2 SLP037 P0010 60034 T00440028 55000,M
HTH,2021-12-23 14:55,-118.6315,38.5448,1282.89,51.80,32.00,46.59,200.00,25.00,0.00,29.69,M,10.00,M,CLR,M,M,M,M,M,M,M,M,M,M,M,M,M,M,51.80,KHTH 231455Z AUTO 20025KT 10SM CLR 11/00 A2969 RMK A01,M
TMT,2021-12-23 14:55,-117.1971,39.4643,1749.34,34.20,26.60,73.44,240.00,9.00,0.00,29.74,M,10.00,M,CLR,M,M,M,M,M,M,M,M,M,M,M,M,M,M,26.25,KTMT 231455Z AUTO 24009KT 10SM CLR 01/M03 A2974 RMK AO2 T00121030,M
BVU,2021-12-23 14:55,-114.8611,35.9475,671.00,48.20,32.00,53.27,50.00,5.00,0.00,29.97,M,10.00,M,OVC,M,M,M,7000.00,M,M,M,M,M,M,M,M,M,M,45.63,KBVU 231455Z AUTO 05005KT 10SM OVC070 09/M00 A2997 RMK AO2,M
CXP,2021-12-23 14:55,-119.7326,39.1923,1431.00,41.00,39.20,93.24,0.00,0.00,0.00,29.67,M,10.00,M,BKN,OVC,M,M,3300.00,4200.00,M,M,M,M,M,M,M,M,M,41.00,KCXP 231455Z AUTO 00000KT 10SM BKN033 OVC042 05/04 A2967 RMK AO2,M
RTS,2021-12-23 14:55,-119.8764,39.6682,1539.00,37.40,35.60,93.14,160.00,12.00,0.05,29.67,M,5.00,M,BKN,OVC,M,M,2000.00,2600.00,M,M,-RA,M,M,M,M,M,M,28.87,KRTS 231455Z AUTO 16012KT 5SM -RA BKN020 OVC026 03/02 A2967 RMK AO2 P0005,M
05U,2021-12-23 14:55,-116.0051,39.6042,1811.23,32.00,26.60,80.22,150.00,13.00,0.00,29.80,M,10.00,M,CLR,M,M,M,M,M,M,M,M,M,M,M,M,M,M,21.57,K05U 231455Z AUTO 15013KT 10SM CLR 00/M03 A2980 RMK A01,M
MEV,2021-12-23 14:55,-119.7500,38.9963,1441.42,41.00,37.40,86.89,150.00,7.00,0.03,29.65,M,10.00,M,FEW,BKN,OVC,M,3200.00,4600.00,6500.00,M,M,M,M,M,M,M,M,35.75,KMEV 231455Z AUTO 15007KT 10SM FEW032 BKN046 OVC065 05/03 A2965 RMK AO2 P0003,M
NFL,2021-12-23 14:56,-118.7010,39.4166,1199.00,41.00,30.90,67.03,180.00,11.00,0.00,29.69,1003.60,10.00,M,OVC,M,M,M,5500.00,M,M,M,M,M,M,M,M,M,M,33.84,KNFL 231456Z AUTO 18011KT 10SM OVC055 05/M01 A2969 RMK AO2 SLP036 T00501006 55009,M
EKO,2021-12-23 14:56,-115.7860,40.8242,1367.00,33.00,23.00,66.06,0.00,0.00,0.00,29.72,1007.60,10.00,M,SCT,OVC,M,M,9000.00,11000.00,M,M,M,M,M,M,M,M,M,33.10,KEKO 231456Z AUTO 00000KT 10SM SCT090 OVC110 01/M05 A2972 RMK AO2 SLP076 T00061050 58016,M
WMC,2021-12-23 14:56,-117.8072,40.9019,1315.00,38.00,30.90,75.64,190.00,9.00,T,29.65,1004.30,10.00,M,OVC,M,M,M,4400.00,M,M,M,M,M,M,M,M,M,M,30.85,KWMC 231456Z AUTO 19009KT 10SM OVC044 03/M01 A2965 RMK AO2 RAB14E56 SLP043 P0000 60000 T00331006 56016,M
TPH,2021-12-23 14:56,-117.0904,38.0505,1654.00,35.00,33.00,92.32,170.00,6.00,0.00,29.86,1012.20,10.00,M,OVC,M,M,M,1300.00,M,M,M,M,M,M,M,M,M,M,29.26,KTPH 231456Z AUTO 17006KT 10SM OVC013 02/01 A2986 RMK AO2 SLP122 T00170006 58009,M
LAS,2021-12-23 14:56,-115.1634,36.0719,663.00,48.00,27.00,43.77,0.00,0.00,0.00,29.96,1014.30,10.00,M,FEW,BKN,OVC,M,4500.00,7500.00,10000.00,M,M,M,M,M,M,M,M,48.00,KLAS 231456Z 00000KT 10SM FEW045 BKN075 OVC100 09/M03 A2996 RMK AO2 SLP143 VIRGA DSNT SW-W T00891028 56004,M
HND,2021-12-23 14:56,-115.1344,35.9729,742.79,46.00,30.90,55.36,40.00,3.00,0.00,29.96,1016.60,10.00,M,FEW,OVC,M,M,5000.00,6500.00,M,M,M,M,M,M,M,M,M,44.69,KHND 231456Z 04003KT 10SM FEW050 OVC065 08/M01 A2996 RMK AO2 SLP166 T00781006 57006,M
INS,2021-12-23 14:58,-115.6733,36.5872,955.00,36.00,31.50,83.20,350.00,3.00,T,29.96,1014.50,10.00,M,BKN,M,M,M,8500.00,M,M,M,-RA,M,M,M,M,M,M,33.38,KINS 231458Z AUTO 35003KT 10SM -RA BKN085 02/M00 A2996 RMK AO2 RAB18E37DZB37E40DZB40E40RAB50 SLP145 P0000 60000 T00231003 53002 VISNO RWY08 $,M
LSV,2021-12-23 14:58,-115.0343,36.2362,570.00,47.80,25.90,42.14,40.00,5.00,0.00,29.96,1014.40,10.00,M,OVC,M,M,M,7000.00,M,M,M,M,M,M,M,M,M,M,45.16,KLSV 231458Z AUTO 04005KT 10SM OVC070 09/M03 A2996 RMK AO2 SLP144 T00881034 55002 $,M
INS,2021-12-23 15:08,-115.6733,36.5872,955.00,35.60,32.00,86.59,0.00,0.00,0.00,29.95,1014.20,10.00,M,FEW,SCT,M,M,6000.00,8500.00,M,M,-RA,M,M,M,M,M,M,35.60,KINS 231508Z AUTO 00000KT 10SM -RA FEW060 SCT085 02/00 A2995 RMK AO2 SLP142 VISNO RWY08 $,M
INS,2021-12-23 15:13,-115.6733,36.5872,955.00,35.60,32.00,86.59,0.00,0.00,0.00,29.95,1014.20,10.00,M,FEW,BKN,M,M,6000.00,8000.00,M,M,-RA,M,M,M,M,M,M,35.60,KINS 231513Z AUTO 00000KT 10SM -RA FEW060 BKN080 02/00 A2995 RMK AO2 SLP142 VISNO RWY08 $,M
05U,2021-12-23 15:15,-116.0051,39.6042,1811.23,32.00,26.60,80.22,120.00,10.00,0.00,29.79,M,10.00,15.00,FEW,M,M,M,2700.00,M,M,M,M,M,M,M,M,M,M,22.97,K05U 231515Z AUTO 12010G15KT 10SM FEW027 00/M03 A2979 RMK A01,M
BVU,2021-12-23 15:15,-114.8611,35.9475,671.00,50.00,30.20,46.31,60.00,5.00,0.00,29.96,M,10.00,M,BKN,OVC,M,M,6000.00,7000.00,M,M,M,M,M,M,M,M,M,50.00,KBVU 231515Z AUTO 06005KT 10SM BKN060 OVC070 10/M01 A2996 RMK AO2,M
HTH,2021-12-23 15:15,-118.6315,38.5448,1282.89,51.80,32.00,46.59,200.00,23.00,0.00,29.70,M,10.00,33.00,CLR,M,M,M,M,M,M,M,M,M,M,M,M,M,M,51.80,KHTH 231515Z AUTO 20023G33KT 10SM CLR 11/M00 A2970 RMK A01,M
MEV,2021-12-23 15:15,-119.7500,38.9963,1441.42,41.00,37.40,86.89,0.00,0.00,0.00,29.64,M,10.00,M,SCT,BKN,OVC,M,3400.00,4200.00,5000.00,M,-RA,M,M,M,M,M,M,41.00,KMEV 231515Z AUTO 00000KT 10SM -RA SCT034 BKN042 OVC050 05/03 A2964 RMK AO2,M
RTS,2021-12-23 15:15,-119.8764,39.6682,1539.00,35.60,33.80,93.08,M,6.00,0.00,29.68,M,5.00,13.00,OVC,M,M,M,1900.00,M,M,M,-RA,M,M,M,M,M,M,29.87,KRTS 231515Z AUTO VRB06G13KT 5SM -RA OVC019 02/01 A2968 RMK AO2,M
CXP,2021-12-23 15:15,-119.7326,39.1923,1431.00,42.80,37.40,81.07,M,4.00,0.00,29.66,M,8.00,M,BKN,BKN,OVC,M,3300.00,4100.00,4900.00,M,-RA,M,M,M,M,M,M,40.03,KCXP 231515Z AUTO VRB04KT 8SM -RA BKN033 BKN041 OVC049 06/03 A2966 RMK AO2,M
TMT,2021-12-23 15:15,-117.1971,39.4643,1749.34,32.00,25.30,76.01,230.00,7.00,0.00,29.74,M,10.00,M,CLR,M,M,M,M,M,M,M,M,M,M,M,M,M,M,24.78,KTMT 231515Z AUTO 23007KT 10SM CLR 00/M04 A2974 RMK AO2 T00001037,M
BAM,2021-12-23 15:15,-116.8743,40.5990,1382.36,32.00,28.40,86.39,40.00,4.00,0.00,29.71,M,10.00,M,SCT,BKN,OVC,M,5000.00,7000.00,9000.00,M,M,M,M,M,M,M,M,27.42,KBAM 231515Z AUTO 04004KT 10SM SCT050 BKN070 OVC090 00/M02 A2971 RMK AO1,M
NFL,2021-12-23 15:18,-118.7010,39.4166,1199.00,40.00,30.90,69.96,170.00,9.00,T,29.69,M,10.00,M,SCT,BKN,BKN,M,3000.00,5000.00,10000.00,M,M,M,M,M,M,M,M,33.34,KNFL 231518Z 17009KT 10SM SCT030 BKN050 BKN100 04/M01 A2969 RMK AO2 RAB03E15 SH VC SW-N P0000 T00441006,M
INS,2021-12-23 15:19,-115.6733,36.5872,955.00,37.40,32.00,80.65,0.00,0.00,0.00,29.96,1014.50,10.00,M,FEW,BKN,M,M,5500.00,8000.00,M,M,M,M,M,M,M,M,M,37.40,KINS 231519Z AUTO 00000KT 10SM FEW055 BKN080 03/00 A2996 RMK AO2 RAE19RAB19 SLP145 VISNO RWY08 $,M
TPH,2021-12-23 15:23,-117.0904,38.0505,1654.00,35.00,33.00,92.32,130.00,9.00,0.00,29.86,M,10.00,M,OVC,M,M,M,900.00,M,M,M,M,M,M,M,M,M,M,27.37,KTPH 231523Z AUTO 13009KT 10SM OVC009 02/01 A2986 RMK AO2 CIG 007V012 T00170006,M
INS,2021-12-23 15:24,-115.6733,36.5872,955.00,37.40,32.00,80.65,120.00,3.00,0.00,29.95,1014.20,10.00,M,SCT,BKN,M,M,5500.00,8000.00,M,M,-RA,M,M,M,M,M,M,34.86,KINS 231524Z AUTO 12003KT 10SM -RA SCT055 BKN080 03/00 A2995 RMK AO2 RAE19RAB19E19RAB24 SLP142 VISNO RWY08 $,M
05U,2021-12-23 15:35,-116.0051,39.6042,1811.23,33.80,26.60,74.63,110.00,11.00,0.00,29.79,M,10.00,16.00,SCT,SCT,M,M,2600.00,3100.00,M,M,M,M,M,M,M,M,M,24.74,K05U 231535Z AUTO 11011G16KT 10SM SCT026 SCT031 01/M03 A2979 RMK A01,M
MEV,2021-12-23 15:35,-119.7500,38.9963,1441.42,42.80,37.40,81.07,M,5.00,0.00,29.65,M,8.00,M,OVC,M,M,M,3600.00,M,M,M,-RA,M,M,M,M,M,M,39.22,KMEV 231535Z AUTO VRB05KT 8SM -RA OVC036 06/03 A2965 RMK AO2,M
BAM,2021-12-23 15:35,-116.8743,40.5990,1382.36,33.80,30.20,86.49,150.00,3.00,0.00,29.69,M,10.00,M,BKN,OVC,M,M,5000.00,7000.00,M,M,M,M,M,M,M,M,M,30.75,KBAM 231535Z AUTO 15003KT 10SM BKN050 OVC070 01/M01 A2969 RMK AO1,M
HTH,2021-12-23 15:35,-118.6315,38.5448,1282.89,50.00,33.80,53.54,210.00,12.00,0.00,29.70,M,10.00,21.00,FEW,FEW,FEW,M,2800.00,4000.00,6000.00,M,M,M,M,M,M,M,M,50.00,KHTH 231535Z AUTO 21012G21KT 10SM FEW028 FEW040 FEW060 10/01 A2970 RMK A01,M
RTS,2021-12-23 15:35,-119.8764,39.6682,1539.00,37.40,35.60,93.14,M,4.00,0.00,29.68,M,5.00,M,OVC,M,M,M,1700.00,M,M,M,RA,M,M,M,M,M,M,33.73,KRTS 231535Z AUTO VRB04KT 5SM RA OVC017 03/02 A2968 RMK AO2,M
TMT,2021-12-23 15:35,-117.1971,39.4643,1749.34,32.00,25.30,76.01,220.00,9.00,0.00,29.75,M,10.00,M,CLR,M,M,M,M,M,M,M,M,M,M,M,M,M,M,23.51,KTMT 231535Z AUTO 22009KT 10SM CLR 00/M04 A2975 RMK AO2 T00001037,M
BVU,2021-12-23 15:35,-114.8611,35.9475,671.00,50.00,30.20,46.31,60.00,5.00,0.00,29.96,M,10.00,M,OVC,M,M,M,6500.00,M,M,M,M,M,M,M,M,M,M,50.00,KBVU 231535Z AUTO 06005KT 10SM OVC065 10/M01 A2996 RMK AO2,M
INS,2021-12-23 15:35,-115.6733,36.5872,955.00,37.40,32.00,80.65,0.00,0.00,0.00,29.96,1014.50,10.00,M,FEW,BKN,M,M,5500.00,7500.00,M,M,M,M,M,M,M,M,M,37.40,KINS 231535Z AUTO 00000KT 10SM FEW055 BKN075 03/00 A2996 RMK AO2 RAE19RAB19E19RAB24E35RAB35 SLP145 VISNO RWY08 $,M
CXP,2021-12-23 15:35,-119.7326,39.1923,1431.00,42.80,37.40,81.07,160.00,4.00,0.00,29.66,M,4.00,M,BKN,OVC,M,M,3200.00,4200.00,M,M,-RA,M,M,M,M,M,M,40.03,KCXP 231535Z AUTO 16004KT 4SM -RA BKN032 OVC042 06/03 A2966 RMK AO2,M
DRA,2021-12-23 15:49,-116.0278,36.6206,1009.00,42.00,32.00,67.17,90.00,7.00,0.00,29.91,M,10.00,M,BKN,OVC,M,M,2900.00,3600.00,M,M,M,M,M,M,M,M,M,37.09,KDRA 231549Z AUTO 09007KT 10SM BKN029 OVC036 06/00 A2991 RMK AO2 T00560000,M
ELY,2021-12-23 15:53,-114.8453,39.2950,1909.00,37.00,32.00,81.93,170.00,23.00,0.00,29.81,1008.40,10.00,33.00,FEW,BKN,BKN,M,1900.00,3300.00,4200.00,M,M,M,M,M,33.00,150.00,2021-12-23 15:51,25.03,KELY 231553Z AUTO 17023G33KT 10SM FEW019 BKN033 BKN042 03/00 A2981 RMK AO2 PK WND 15033/1551 SLP084 T00280000,M
P68,2021-12-23 15:53,-116.0056,39.6014,1993.00,35.00,28.00,75.06,90.00,10.00,0.00,29.76,1007.10,M,M,M,M,M,M,M,M,M,M,M,M,M,M,M,M,M,26.86,KP68 231553Z AUTO 09010KT 02/M02 A2976 RMK AO1 SLP071 T00171022,M
DRA,2021-12-23 15:53,-116.0278,36.6206,1009.00,42.00,32.00,67.17,90.00,6.00,0.00,29.92,1012.20,10.00,M,OVC,M,M,M,2900.00,M,M,M,M,M,M,M,M,M,M,37.69,KDRA 231553Z AUTO 09006KT 10SM OVC029 06/00 A2992 RMK AO2 SLP122 T00560000,M
VGT,2021-12-23 15:53,-115.1933,36.2111,667.00,49.00,28.00,44.10,340.00,4.00,0.00,29.96,1016.10,10.00,M,BKN,OVC,M,M,5500.00,7500.00,M,M,M,M,M,M,M,M,M,47.16,KVGT 231553Z 34004KT 10SM BKN055 OVC075 09/M02 A2996 RMK AO2 SLP161 T00941022,M
LOL,2021-12-23 15:53,-118.5701,40.0684,1192.43,33.00,30.90,91.51,30.00,4.00,0.01,29.67,1006.10,5.00,M,OVC,M,M,M,4300.00,M,M,M,BR,0.02,M,M,M,M,M,28.70,KLOL 231553Z AUTO 03004KT 5SM BR OVC043 01/M01 A2967 RMK AO2 RAB40E41FZRAE53 SLP061 P0001 I1002 T00061006,M
INS,2021-12-23 15:55,-115.6733,36.5872,955.00,37.40,32.00,80.65,0.00,0.00,0.00,29.96,1014.50,10.00,M,SCT,M,M,M,7500.00,M,M,M,M,M,M,M,M,M,M,37.40,KINS 231555Z AUTO 00000KT 10SM SCT075 03/00 A2996 RMK AO2 RAE19RAB19E19RAB24E35RAB35E35 SLP145 VISNO RWY08 $,M
BVU,2021-12-23 15:55,-114.8611,35.9475,671.00,50.00,32.00,49.81,0.00,0.00,0.00,29.96,M,10.00,M,OVC,M,M,M,6500.00,M,M,M,M,M,M,M,M,M,M,50.00,KBVU 231555Z AUTO 00000KT 10SM OVC065 10/M00 A2996 RMK AO2,M
CXP,2021-12-23 15:55,-119.7326,39.1923,1431.00,42.80,39.20,86.99,220.00,3.00,0.00,29.67,M,3.00,M,OVC,M,M,M,2900.00,M,M,M,-RA,M,M,M,M,M,M,41.03,KCXP 231555Z AUTO 22003KT 3SM -RA OVC029 06/04 A2967 RMK AO2,M
05U,2021-12-23 15:55,-116.0051,39.6042,1811.23,35.60,28.40,74.80,100.00,6.00,0.00,29.79,M,10.00,M,SCT,M,M,M,2700.00,M,M,M,M,M,M,M,M,M,M,29.87,K05U 231555Z AUTO 10006KT 10SM SCT027 02/M02 A2979 RMK A01,M
RNO,2021-12-23 15:55,-119.7711,39.4839,1341.00,40.00,37.00,89.27,320.00,5.00,0.23,29.69,1004.30,3.00,M,OVC,M,M,M,2500.00,M,M,M,+RA BR,M,M,M,M,M,M,35.78,KRNO 231555Z 32005KT 3SM +RA BR OVC025 04/03 A2969 RMK AO2 SLP043 P0023 T00440028,M
MEV,2021-12-23 15:55,-119.7500,38.9963,1441.42,42.80,39.20,86.99,290.00,7.00,0.02,29.67,M,2.00,M,FEW,SCT,BKN,M,2300.00,2900.00,3400.00,M,-RA HZ,M,M,M,M,M,M,37.94,KMEV 231555Z AUTO 29007KT 2SM -RA HZ FEW023 SCT029 BKN034 06/04 A2967 RMK AO2 P0002 VIS 1 1/2V4,M
BAM,2021-12-23 15:55,-116.8743,40.5990,1382.36,35.60,30.20,80.51,140.00,5.00,0.00,29.69,M,10.00,M,SCT,BKN,OVC,M,6000.00,7000.00,9000.00,M,M,M,M,M,M,M,M,30.67,KBAM 231555Z AUTO 14005KT 10SM SCT060 BKN070 OVC090 02/M01 A2969 RMK AO1,M
HTH,2021-12-23 15:55,-118.6315,38.5448,1282.89,48.20,33.80,57.26,180.00,18.00,0.00,29.70,M,10.00,27.00,CLR,M,M,M,M,M,M,M,M,M,M,M,M,M,M,41.07,KHTH 231555Z AUTO 18018G27KT 10SM CLR 09/01 A2970 RMK A01,M
TMT,2021-12-23 15:55,-117.1971,39.4643,1749.34,33.40,26.40,75.21,230.00,8.00,0.00,29.75,M,10.00,M,CLR,M,M,M,M,M,M,M,M,M,M,M,M,M,M,25.84,KTMT 231555Z AUTO 23008KT 10SM CLR 01/M03 A2975 RMK AO2 T00081031,M
RTS,2021-12-23 15:55,-119.8764,39.6682,1539.00,35.60,33.80,93.08,230.00,4.00,0.18,29.70,M,8.00,M,BKN,OVC,M,M,1700.00,2200.00,M,M,-RA,M,M,M,M,M,M,31.62,KRTS 231555Z AUTO 23004KT 8SM -RA BKN017 OVC022 02/01 A2970 RMK AO2 P0018,M
WMC,2021-12-23 15:56,-117.8072,40.9019,1315.00,37.00,33.00,85.64,170.00,11.00,0.02,29.65,1004.40,10.00,M,OVC,M,M,M,3100.00,M,M,M,-RA,M,M,M,M,M,M,28.79,KWMC 231556Z AUTO 17011KT 10SM -RA OVC031 03/01 A2965 RMK AO2 RAB01 SLP044 P0002 T00280006,M
TPH,2021-12-23 15:56,-117.0904,38.0505,1654.00,35.00,34.00,95.71,130.00,8.00,0.00,29.85,1011.70,10.00,M,OVC,M,M,M,700.00,M,M,M,M,M,M,M,M,M,M,27.93,KTPH 231556Z AUTO 13008KT 10SM OVC007 02/01 A2985 RMK AO2 SLP117 T00170011,M
EKO,2021-12-23 15:56,-115.7860,40.8242,1367.00,37.00,25.00,61.50,210.00,10.00,0.00,29.70,1006.60,10.00,17.00,BKN,OVC,M,M,7000.00,8000.00,M,M,M,M,M,M,M,M,M,29.24,KEKO 231556Z AUTO 21010G17KT 10SM BKN070 OVC080 03/M04 A2970 RMK AO2 SLP066 T00281039,M
NFL,2021-12-23 15:56,-118.7010,39.4166,1199.00,41.00,32.00,70.08,160.00,12.00,T,29.65,1002.30,10.00,M,SCT,BKN,BKN,M,3000.00,5000.00,10000.00,M,M,M,M,M,M,M,M,33.46,KNFL 231556Z 16012KT 10SM SCT030 BKN050 BKN100 05/00 A2965 RMK AO2 RAB03E15 SLP023 SH VC SW-N P0000 T00500000,M
HND,2021-12-23 15:56,-115.1344,35.9729,742.79,48.00,30.00,49.49,340.00,5.00,0.00,29.98,1017.00,10.00,M,BKN,M,M,M,5000.00,M,M,M,M,M,M,M,M,M,M,45.40,KHND 231556Z 34005KT 10SM BKN050 09/M01 A2998 RMK AO2 PRESRR SLP170 T00891011,M
LAS,2021-12-23 15:56,-115.1634,36.0719,663.00,48.00,28.00,45.61,330.00,5.00,0.00,29.96,1014.40,10.00,M,SCT,BKN,BKN,M,5500.00,9000.00,12000.00,M,M,M,M,M,M,M,M,45.40,KLAS 231556Z 33005KT 10SM SCT055 BKN090 BKN120 09/M02 A2996 RMK AO2 SLP144 VIRGA DSNT SW-W T00891022,M
LSV,2021-12-23 15:58,-115.0343,36.2362,570.00,49.60,27.00,41.23,50.00,7.00,0.00,29.96,1014.30,10.00,M,OVC,M,M,M,6000.00,M,M,M,M,M,M,M,M,M,M,46.23,KLSV 231558Z AUTO 05007KT 10SM OVC060 10/M03 A2996 RMK AO2 SLP143 T00981028 $,M
INS,2021-12-23 15:58,-115.6733,36.5872,955.00,38.00,32.70,81.34,0.00,0.00,T,29.95,1014.20,10.00,M,SCT,M,M,M,7500.00,M,M,M,M,M,M,M,M,M,M,37.90,KINS 231558Z AUTO 00000KT 10SM SCT075 03/00 A2995 RMK AO2 RAE19RAB19E19RAB24E35RAB35E35 SLP142 P0000 T00330004 VISNO RWY08 $,M
DRA,2021-12-23 16:02,-116.0278,36.6206,1009.00,43.00,32.00,64.88,110.00,8.00,0.00,29.92,M,10.00,M,OVC,M,M,M,3100.00,M,M,M,M,M,M,M,M,M,M,37.66,KDRA 231602Z AUTO 11008KT 10SM OVC031 06/00 A2992 RMK AO2 T00610000,M
WMC,2021-12-23 16:08,-117.8072,40.9019,1315.00,37.00,34.00,88.78,170.00,11.00,T,29.65,M,10.00,M,BKN,OVC,M,M,2900.00,3300.00,M,M,-RA,M,M,M,M,M,M,28.79,KWMC 231608Z AUTO 17011KT 10SM -RA BKN029 OVC033 03/01 A2965 RMK AO2 P0000 T00280011,M
05U,2021-12-23 16:10,-116.0051,39.6042,1811.23,37.40,28.40,69.67,110.00,4.00,0.00,29.80,M,10.00,10.00,BKN,M,M,M,2800.00,M,M,M,M,M,M,M,M,M,M,33.73,K05U 231610Z AUTO 11004G10KT 10SM BKN028 03/M02 A2980 RMK A01,M
RTS,2021-12-23 16:15,-119.8764,39.6682,1539.00,33.80,32.00,93.03,290.00,7.00,0.00,29.71,M,4.00,M,BKN,M,M,M,2000.00,M,M,M,RA,M,M,M,M,M,M,26.97,KRTS 231615Z AUTO 29007KT 4SM RA BKN020 01/00 A2971 RMK AO2,M
CXP,2021-12-23 16:15,-119.7326,39.1923,1431.00,41.00,39.20,93.24,270.00,6.00,0.00,29.71,M,3.00,12.00,BKN,M,M,M,2900.00,M,M,M,-RA,M,M,M,M,M,M,36.37,KCXP 231615Z AUTO 27006G12KT 3SM -RA BKN029 05/04 A2971 RMK AO2,M
BVU,2021-12-23 16:15,-114.8611,35.9475,671.00,51.80,30.20,43.32,40.00,4.00,0.00,29.97,M,10.00,M,OVC,M,M,M,6500.00,M,M,M,M,M,M,M,M,M,M,51.80,KBVU 231615Z AUTO 04004KT 10SM OVC065 11/M01 A2997 RMK AO2,M
MEV,2021-12-23 16:15,-119.7500,38.9963,1441.42,41.00,39.20,93.24,360.00,6.00,0.00,29.68,M,1.25,M,SCT,BKN,OVC,M,400.00,1600.00,2900.00,M,-RA BR,M,M,M,M,M,M,36.37,KMEV 231615Z AUTO 36006KT 1 1/4SM -RA BR SCT004 BKN016 OVC029 05/04 A2968 RMK AO2,M
TMT,2021-12-23 16:15,-117.1971,39.4643,1749.34,34.20,27.10,74.97,230.00,7.00,0.00,29.75,M,10.00,M,CLR,M,M,M,M,M,M,M,M,M,M,M,M,M,M,27.46,KTMT 231615Z AUTO 23007KT 10SM CLR 01/M03 A2975 RMK AO2 T00121027,M
BAM,2021-12-23 16:15,-116.8743,40.5990,1382.36,35.60,30.20,80.51,0.00,0.00,0.00,29.69,M,10.00,M,SCT,BKN,OVC,M,6000.00,7000.00,9000.00,M,M,M,M,M,M,M,M,35.60,KBAM 231615Z AUTO 00000KT 10SM SCT060 BKN070 OVC090 02/M01 A2969 RMK AO1,M
HTH,2021-12-23 16:15,-118.6315,38.5448,1282.89,48.20,33.80,57.26,170.00,25.00,0.00,29.70,M,10.00,M,FEW,SCT,BKN,M,4200.00,5500.00,7000.00,M,M,M,M,M,M,M,M,39.75,KHTH 231615Z AUTO 17025KT 10SM FEW042 SCT055 BKN070 09/01 A2970 RMK A01,M
WMC,2021-12-23 16:20,-117.8072,40.9019,1315.00,38.00,34.00,85.69,170.00,13.00,T,29.65,M,7.00,22.00,FEW,SCT,OVC,M,1800.00,2600.00,3500.00,M,-RA,M,M,M,M,M,M,29.13,KWMC 231620Z AUTO 17013G22KT 7SM -RA FEW018 SCT026 OVC035 03/01 A2965 RMK AO2 P0000 T00330011,M
WMC,2021-12-23 16:28,-117.8072,40.9019,1315.00,38.00,34.00,85.69,170.00,8.00,0.01,29.65,M,8.00,21.00,SCT,BKN,OVC,M,1800.00,2500.00,3500.00,M,-RA,M,M,M,M,M,M,31.38,KWMC 231628Z AUTO 17008G21KT 8SM -RA SCT018 BKN025 OVC035 03/01 A2965 RMK AO2 P0001 T00330011,M
RNO,2021-12-23 16:32,-119.7711,39.4839,1341.00,38.00,37.00,96.52,320.00,9.00,0.12,29.71,M,5.00,M,FEW,OVC,M,M,1000.00,2800.00,M,M,RA BR,M,M,M,M,M,M,30.85,KRNO 231632Z 32009KT 5SM RA BR FEW010 OVC028 03/03 A2971 RMK AO2 P0012 T00330028,M
CXP,2021-12-23 16:35,-119.7326,39.1923,1431.00,41.00,37.40,86.89,M,4.00,0.00,29.73,M,3.00,M,SCT,SCT,M,M,1800.00,2700.00,M,M,-RA,M,M,M,M,M,M,37.93,KCXP 231635Z AUTO VRB04KT 3SM -RA SCT018 SCT027 05/03 A2973 RMK AO2,M
TMT,2021-12-23 16:35,-117.1971,39.4643,1749.34,35.40,27.70,73.27,240.00,6.00,0.00,29.74,M,10.00,M,CLR,M,M,M,M,M,M,M,M,M,M,M,M,M,M,29.63,KTMT 231635Z AUTO 24006KT 10SM CLR 02/M02 A2974 RMK AO2 T00191024,M
RTS,2021-12-23 16:35,-119.8764,39.6682,1539.00,33.80,32.00,93.03,0.00,0.00,0.00,29.72,M,3.00,M,CLR,M,M,M,M,M,M,M,-SN,M,M,M,M,M,M,33.80,KRTS 231635Z AUTO 00000KT 3SM -SN CLR 01/00 A2972 RMK AO2,M
05U,2021-12-23 16:35,-116.0051,39.6042,1811.23,39.20,28.40,64.93,0.00,0.00,0.00,29.80,M,10.00,M,SCT,M,M,M,2800.00,M,M,M,M,M,M,M,M,M,M,39.20,K05U 231635Z AUTO 00000KT 10SM SCT028 04/M02 A2980 RMK A01,M
BAM,2021-12-23 16:35,-116.8743,40.5990,1382.36,35.60,30.20,80.51,110.00,3.00,0.00,29.68,M,10.00,M,BKN,OVC,M,M,6000.00,9000.00,M,M,M,M,M,M,M,M,M,32.80,KBAM 231635Z AUTO 11003KT 10SM BKN060 OVC090 02/M01 A2968 RMK AO1,M
MEV,2021-12-23 16:35,-119.7500,38.9963,1441.42,41.00,39.20,93.24,290.00,11.00,0.00,29.71,M,1.75,M,SCT,BKN,OVC,M,400.00,1600.00,2800.00,M,-RA BR,M,M,M,M,M,M,33.84,KMEV 231635Z AUTO 29011KT 1 3/4SM -RA BR SCT004 BKN016 OVC028 05/04 A2971 RMK AO2,M
HTH,2021-12-23 16:35,-118.6315,38.5448,1282.89,46.40,37.40,70.68,160.00,22.00,0.00,29.70,M,9.00,28.00,FEW,SCT,BKN,M,2700.00,3600.00,4200.00,M,M,M,M,M,M,M,M,37.86,KHTH 231635Z AUTO 16022G28KT 9SM FEW027 SCT036 BKN042 08/03 A2970 RMK A01,M
BVU,2021-12-23 16:35,-114.8611,35.9475,671.00,53.60,28.40,37.67,30.00,4.00,0.00,29.97,M,10.00,M,OVC,M,M,M,7000.00,M,M,M,M,M,M,M,M,M,M,53.60,KBVU 231635Z AUTO 03004KT 10SM OVC070 12/M02 A2997 RMK AO2,M
LOL,2021-12-23 16:53,-118.5701,40.0684,1192.43,35.00,33.00,92.32,80.00,3.00,T,29.69,1006.80,7.00,M,OVC,M,M,M,4000.00,M,M,M,-RA,M,M,M,M,M,M,32.23,KLOL 231653Z AUTO 08003KT 7SM -RA OVC040 02/01 A2969 RMK AO2 RAB14 SLP068 P0000 T00170006,M
VGT,2021-12-23 16:53,-115.1933,36.2111,667.00,51.00,26.10,37.57,0.00,0.00,0.00,29.96,1016.20,10.00,M,FEW,BKN,OVC,M,5500.00,7000.00,9000.00,M,M,M,M,M,M,M,M,51.10,KVGT 231653Z 00000KT 10SM FEW055 BKN070 OVC090 11/M03 A2996 RMK AO2 SLP162 T01061033,M
P68,2021-12-23 16:53,-116.0056,39.6014,1993.00,38.00,28.90,69.73,130.00,10.00,0.00,29.77,1007.50,M,M,M,M,M,M,M,M,M,M,M,M,M,M,M,M,M,30.37,KP68 231653Z AUTO 13010KT 03/M02 A2977 RMK AO1 SLP075 T00331017,M
DRA,2021-12-23 16:53,-116.0278,36.6206,1009.00,43.00,33.00,67.82,100.00,6.00,T,29.89,1011.30,9.00,M,BKN,BKN,OVC,M,3500.00,5000.00,7500.00,M,-RA,M,M,M,M,M,M,38.78,KDRA 231653Z AUTO 10006KT 9SM -RA BKN035 BKN050 OVC075 06/01 A2989 RMK AO2 RAB51 PRESFR SLP113 P0000 T00610006,M
ELY,2021-12-23 16:53,-114.8453,39.2950,1909.00,37.00,32.00,81.93,160.00,22.00,0.00,29.82,1008.40,10.00,33.00,BKN,OVC,M,M,3800.00,4500.00,M,M,M,M,M,M,34.00,150.00,2021-12-23 16:14,25.27,KELY 231653Z AUTO 16022G33KT 10SM BKN038 OVC045 03/00 A2982 RMK AO2 PK WND 15034/1614 SLP084 T00280000,M
MEV,2021-12-23 16:55,-119.7500,38.9963,1441.42,39.20,37.40,93.19,30.00,7.00,0.04,29.68,M,3.00,M,FEW,FEW,SCT,M,400.00,900.00,2500.00,M,-RA BR,M,M,M,M,M,M,33.56,KMEV 231655Z AUTO 03007KT 3SM -RA BR FEW004 FEW009 SCT025 04/03 A2968 RMK AO2 P0004,M
BVU,2021-12-23 16:55,-114.8611,35.9475,671.00,55.40,28.40,35.28,0.00,0.00,0.00,29.97,M,10.00,M,SCT,OVC,M,M,7000.00,10000.00,M,M,M,M,M,M,M,M,M,55.40,KBVU 231655Z AUTO 00000KT 10SM SCT070 OVC100 13/M02 A2997 RMK AO2,M
CXP,2021-12-23 16:55,-119.7326,39.1923,1431.00,39.20,35.60,86.79,170.00,4.00,0.00,29.69,M,3.00,11.00,FEW,FEW,M,M,2500.00,6500.00,M,M,-RA,M,M,M,M,M,M,35.83,KCXP 231655Z AUTO 17004G11KT 3SM -RA FEW025 FEW065 04/02 A2969 RMK AO2,M
RTS,2021-12-23 16:55,-119.8764,39.6682,1539.00,32.00,32.00,100.00,0.00,0.00,0.18,29.72,M,2.00,M,FEW,M,M,M,300.00,M,M,M,-SN,M,M,M,M,M,M,32.00,KRTS 231655Z AUTO 00000KT 2SM -SN FEW003 00/M00 A2972 RMK AO2 P0018,M
05U,2021-12-23 16:55,-116.0051,39.6042,1811.23,41.00,30.20,65.16,130.00,8.00,0.00,29.79,M,10.00,14.00,BKN,M,M,M,3100.00,M,M,M,M,M,M,M,M,M,M,35.20,K05U 231655Z AUTO 13008G14KT 10SM BKN031 05/M01 A2979 RMK A01,M
RNO,2021-12-23 16:55,-119.7711,39.4839,1341.00,38.00,38.00,100.00,330.00,5.00,0.20,29.71,1005.30,4.00,M,FEW,OVC,M,M,1000.00,2600.00,M,M,RA BR,M,M,M,M,M,M,33.40,KRNO 231655Z 33005KT 4SM RA BR FEW010 OVC026 03/03 A2971 RMK AO2 SLP053 P0020 T00330033,M
BAM,2021-12-23 16:55,-116.8743,40.5990,1382.36,33.80,30.20,86.49,120.00,4.00,0.00,29.68,M,10.00,M,SCT,BKN,OVC,M,4500.00,7000.00,8000.00,M,M,M,M,M,M,M,M,29.52,KBAM 231655Z AUTO 12004KT 10SM SCT045 BKN070 OVC080 01/M01 A2968 RMK AO1,M
HTH,2021-12-23 16:55,-118.6315,38.5448,1282.89,44.60,37.40,75.68,160.00,20.00,0.01,29.71,M,4.00,26.00,SCT,BKN,OVC,M,3000.00,3800.00,5000.00,M,HZ,M,M,M,M,M,M,35.87,KHTH 231655Z AUTO 16020G26KT 4SM HZ SCT030 BKN038 OVC050 07/03 A2971 RMK A01 P0001,M
TMT,2021-12-23 16:55,-117.1971,39.4643,1749.34,37.40,28.90,71.11,220.00,17.00,0.00,29.74,M,10.00,22.00,CLR,M,M,M,M,M,M,M,M,M,M,M,M,M,M,27.15,KTMT 231655Z AUTO 22017G22KT 10SM CLR 03/M02 A2974 RMK AO2 T00301017,M
HND,2021-12-23 16:56,-115.1344,35.9729,742.79,48.00,30.00,49.49,0.00,0.00,0.00,29.97,1016.60,10.00,M,FEW,OVC,M,M,4400.00,6000.00,M,M,M,M,M,M,M,M,M,48.00,KHND 231656Z 00000KT 10SM FEW044 OVC060 09/M01 A2997 RMK AO2 SLP166 T00891011,M
NFL,2021-12-23 16:56,-118.7010,39.4166,1199.00,44.00,32.00,62.21,190.00,12.00,0.00,29.68,1003.30,9.00,M,SCT,BKN,OVC,M,3000.00,5000.00,8000.00,M,M,M,M,M,M,M,M,37.40,KNFL 231656Z 19012KT 9SM SCT030 BKN050 OVC080 07/00 A2968 RMK AO2 SLP033 SH VC SW-N T00670000,M
TPH,2021-12-23 16:56,-117.0904,38.0505,1654.00,35.00,33.00,92.32,150.00,5.00,0.00,29.87,1012.00,10.00,M,OVC,M,M,M,800.00,M,M,M,M,M,M,M,M,M,M,30.08,KTPH 231656Z AUTO 15005KT 10SM OVC008 02/01 A2987 RMK AO2 CIG 006V010 SLP120 T00170006,M
EKO,2021-12-23 16:56,-115.7860,40.8242,1367.00,40.00,27.00,59.65,200.00,7.00,0.00,29.69,1006.00,10.00,18.00,OVC,M,M,M,7000.00,M,M,M,M,M,M,M,M,M,M,34.41,KEKO 231656Z AUTO 20007G18KT 10SM OVC070 04/M03 A2969 RMK AO2 SLP060 T00441028,M
WMC,2021-12-23 16:56,-117.8072,40.9019,1315.00,38.00,34.00,85.69,180.00,13.00,0.01,29.66,1004.70,10.00,25.00,BKN,OVC,M,M,1900.00,2500.00,M,M,-RA,M,M,M,M,M,M,29.13,KWMC 231656Z AUTO 18013G25KT 10SM -RA BKN019 OVC025 03/01 A2966 RMK AO2 SLP047 P0001 T00330011,M
LAS,2021-12-23 16:56,-115.1634,36.0719,663.00,50.00,28.00,42.33,0.00,0.00,0.00,29.96,1014.20,10.00,M,FEW,BKN,BKN,M,4500.00,6000.00,12000.00,M,M,M,M,M,M,M,M,50.00,KLAS 231656Z 00000KT 10SM FEW045 BKN060 BKN120 10/M02 A2996 RMK AO2 SLP142 VIRGA DSNT SW-NW T01001022,M
LSV,2021-12-23 16:58,-115.0343,36.2362,570.00,51.00,28.80,41.99,50.00,11.00,0.00,29.95,1013.90,10.00,M,OVC,M,M,M,6000.00,M,M,M,M,M,M,M,M,M,M,51.10,KLSV 231658Z AUTO 05011KT 10SM OVC060 11/M02 A2995 RMK AO2 SLP139 T01061018 $,M
INS,2021-12-23 16:58,-115.6733,36.5872,955.00,41.40,31.60,67.90,200.00,3.00,0.00,29.94,1013.80,10.00,M,FEW,M,M,M,9000.00,M,M,M,M,M,M,M,M,M,M,39.43,KINS 231658Z AUTO 20003KT 10SM FEW090 05/M00 A2994 RMK AO2 SLP138 T00521002 VISNO RWY08 $,M
INS,2021-12-23 17:06,-115.6733,36.5872,955.00,42.80,32.00,65.38,320.00,4.00,0.00,29.94,1013.60,10.00,M,FEW,SCT,M,M,7000.00,9000.00,M,M,-RA,M,M,M,M,M,M,40.03,KINS 231706Z AUTO 32004KT 10SM -RA FEW070 SCT090 06/M00 A2994 RMK AO2 RAB06 SLP136 VISNO RWY08 $,M
05U,2021-12-23 17:10,-116.0051,39.6042,1811.23,41.00,30.20,65.16,130.00,6.00,0.00,29.80,M,10.00,14.00,OVC,M,M,M,3000.00,M,M,M,M,M,M,M,M,M,M,36.37,K05U 231710Z AUTO 13006G14KT 10SM OVC030 05/M01 A2980 RMK A01,M
CXP,2021-12-23 17:10,-119.7326,39.1923,1431.00,39.20,35.60,86.79,170.00,3.00,0.00,29.72,M,9.00,M,SCT,SCT,BKN,M,2700.00,3600.00,5500.00,M,M,M,M,M,M,M,M,36.92,KCXP 231710Z AUTO 17003KT 9SM SCT027 SCT036 BKN055 04/02 A2972 RMK AO2,M
HTH,2021-12-23 17:15,-118.6315,38.5448,1282.89,46.40,37.40,70.68,160.00,24.00,0.00,29.71,M,10.00,30.00,FEW,SCT,SCT,M,3000.00,3800.00,4400.00,M,M,M,M,M,M,M,M,37.49,KHTH 231715Z AUTO 16024G30KT 10SM FEW030 SCT038 SCT044 08/03 A2971 RMK A01,M
TMT,2021-12-23 17:15,-117.1971,39.4643,1749.34,39.60,30.00,68.24,220.00,11.00,0.00,29.74,M,10.00,16.00,CLR,M,M,M,M,M,M,M,M,M,M,M,M,M,M,32.07,KTMT 231715Z AUTO 22011G16KT 10SM CLR 04/M01 A2974 RMK AO2 T00421011,M
RTS,2021-12-23 17:15,-119.8764,39.6682,1539.00,32.00,32.00,100.00,0.00,0.00,0.00,29.74,M,1.00,M,OVC,M,M,M,300.00,M,M,M,-SN,M,M,M,M,M,M,32.00,KRTS 231715Z AUTO 00000KT 1SM -SN OVC003 00/M00 A2974 RMK AO2,M
MEV,2021-12-23 17:15,-119.7500,38.9963,1441.42,39.20,37.40,93.19,340.00,8.00,0.00,29.72,M,5.00,M,FEW,BKN,BKN,M,1900.00,2700.00,3300.00,M,-RA BR,M,M,M,M,M,M,32.98,KMEV 231715Z AUTO 34008KT 5SM -RA BR FEW019 BKN027 BKN033 04/03 A2972 RMK AO2,M
BAM,2021-12-23 17:15,-116.8743,40.5990,1382.36,41.00,32.00,70.08,160.00,3.00,0.00,29.67,M,10.00,M,SCT,SCT,M,M,4600.00,6500.00,M,M,M,M,M,M,M,M,M,38.98,KBAM 231715Z AUTO 16003KT 10SM SCT046 SCT065 05/00 A2967 RMK AO1,M
BVU,2021-12-23 17:15,-114.8611,35.9475,671.00,57.20,24.80,28.48,290.00,3.00,0.00,29.97,M,10.00,M,FEW,SCT,BKN,M,7000.00,8500.00,10000.00,M,M,M,M,M,M,M,M,57.20,KBVU 231715Z AUTO 29003KT 10SM FEW070 SCT085 BKN100 14/M04 A2997 RMK AO2,M
INS,2021-12-23 17:20,-115.6733,36.5872,955.00,41.00,33.80,75.33,0.00,0.00,0.00,29.92,1012.90,10.00,M,FEW,FEW,M,M,7000.00,8500.00,M,M,M,M,M,M,M,M,M,41.00,KINS 231720Z AUTO 00000KT 10SM FEW070 FEW085 05/01 A2992 RMK AO2 RAB06E20RAB20 PRESFR SLP129 VISNO RWY08 $,M
LOL,2021-12-23 17:21,-118.5701,40.0684,1192.43,36.00,34.00,92.35,180.00,6.00,0.04,29.73,M,3.00,M,BKN,OVC,M,M,2800.00,3600.00,M,M,RA BR,M,M,M,M,M,M,30.35,KLOL 231721Z AUTO 18006KT 3SM RA BR BKN028 OVC036 02/01 A2973 RMK AO2 P0004 T00220011,M
WMC,2021-12-23 17:28,-117.8072,40.9019,1315.00,36.00,34.00,92.35,0.00,0.00,0.03,29.69,M,4.00,M,BKN,OVC,M,M,1300.00,1900.00,M,M,RA BR,M,M,M,M,M,M,36.00,KWMC 231728Z AUTO 00000KT 4SM RA BR BKN013 OVC019 02/01 A2969 RMK AO2 P0003 T00220011,M
NFL,2021-12-23 17:30,-118.7010,39.4166,1199.00,41.00,36.00,82.22,290.00,9.00,0.04,29.73,M,2.00,20.00,FEW,BKN,OVC,M,1500.00,2500.00,3500.00,M,+RA,M,M,M,M,M,M,34.70,KNFL 231730Z 29009G20KT 2SM +RA FEW015 BKN025 OVC035 05/02 A2973 RMK AO2 RAB1657 P0004 T00500022,M
CXP,2021-12-23 17:35,-119.7326,39.1923,1431.00,39.20,37.40,93.19,0.00,0.00,0.00,29.75,M,7.00,M,FEW,BKN,BKN,M,2100.00,2700.00,3500.00,M,-RA,M,M,M,M,M,M,39.20,KCXP 231735Z AUTO 00000KT 7SM -RA FEW021 BKN027 BKN035 04/03 A2975 RMK AO2,M
BVU,2021-12-23 17:35,-114.8611,35.9475,671.00,55.40,28.40,35.28,290.00,4.00,0.00,29.97,M,10.00,M,FEW,SCT,SCT,M,4500.00,6000.00,9000.00,M,-RA,M,M,M,M,M,M,55.40,KBVU 231735Z AUTO 29004KT 10SM -RA FEW045 SCT060 SCT090 13/M02 A2997 RMK AO2,M
TMT,2021-12-23 17:35,-117.1971,39.4643,1749.34,40.30,29.80,65.87,230.00,12.00,0.00,29.74,M,10.00,18.00,CLR,M,M,M,M,M,M,M,M,M,M,M,M,M,M,32.57,KTMT 231735Z AUTO 23012G18KT 10SM CLR 05/M01 A2974 RMK AO2 T00461012,M
RTS,2021-12-23 17:35,-119.8764,39.6682,1539.00,32.00,32.00,100.00,40.00,7.00,0.00,29.70,M,1.25,M,BKN,M,M,M,300.00,M,M,M,-SN,M,M,M,M,M,M,24.78,KRTS 231735Z AUTO 04007KT 1 1/4SM -SN BKN003 00/00 A2970 RMK AO2,M
05U,2021-12-23 17:35,-116.0051,39.6042,1811.23,39.20,30.20,69.88,100.00,13.00,0.00,29.78,M,10.00,M,BKN,M,M,M,3200.00,M,M,M,M,M,M,M,M,M,M,30.79,K05U 231735Z AUTO 10013KT 10SM BKN032 04/M01 A2978 RMK A01,M
MEV,2021-12-23 17:35,-119.7500,38.9963,1441.42,39.20,35.60,86.79,270.00,4.00,0.00,29.75,M,2.00,M,SCT,BKN,OVC,M,1700.00,2100.00,2700.00,M,-RA BR,M,M,M,M,M,M,35.83,KMEV 231735Z AUTO 27004KT 2SM -RA BR SCT017 BKN021 OVC027 04/02 A2975 RMK AO2 VIS 1 1/2V3,M
BAM,2021-12-23 17:35,-116.8743,40.5990,1382.36,39.20,32.00,75.16,0.00,0.00,0.00,29.67,M,10.00,M,SCT,M,M,M,12000.00,M,M,M,M,M,M,M,M,M,M,39.20,KBAM 231735Z AUTO 00000KT 10SM SCT120 04/00 A2967 RMK AO1,M
HTH,2021-12-23 17:35,-118.6315,38.5448,1282.89,44.60,37.40,75.68,160.00,24.00,0.00,29.73,M,8.00,33.00,FEW,SCT,BKN,M,2500.00,3200.00,4600.00,M,M,M,M,M,M,M,M,35.06,KHTH 231735Z AUTO 16024G33KT 8SM FEW025 SCT032 BKN046 07/03 A2973 RMK A01,M
LOL,2021-12-23 17:39,-118.5701,40.0684,1192.43,35.00,33.00,92.32,130.00,8.00,0.07,29.73,M,4.00,M,FEW,OVC,M,M,2600.00,3600.00,M,M,-RA BR,M,M,M,M,M,M,27.93,KLOL 231739Z AUTO 13008KT 4SM -RA BR FEW026 OVC036 02/01 A2973 RMK AO2 P0007 T00170006,M
WMC,2021-12-23 17:52,-117.8072,40.9019,1315.00,35.60,33.80,93.08,270.00,4.00,0.06,29.71,M,2.50,M,SCT,BKN,OVC,M,1000.00,1500.00,2100.00,M,RA BR,M,M,M,M,M,M,31.62,KWMC 231752Z AUTO 27004KT 2 1/2SM RA BR SCT010 BKN015 OVC021 02/01 A2971 RMK AO2 P0006,M
DRA,2021-12-23 17:53,-116.0278,36.6206,1009.00,56.00,45.00,66.72,200.00,16.00,0.01,29.88,1010.30,10.00,26.00,FEW,BKN,M,M,3800.00,9000.00,M,M,M,M,M,M,26.00,200.00,2021-12-23 17:51,55.90,KDRA 231753Z AUTO 20016G26KT 10SM FEW038 BKN090 13/07 A2988 RMK AO2 PK WND 20026/1751 WSHFT 1737 RAE08 SLP103 P0001 60001 T01330072 10133 20050 56014,M
VGT,2021-12-23 17:53,-115.1933,36.2111,667.00,53.00,28.00,37.74,0.00,0.00,0.00,29.95,1015.80,10.00,M,BKN,OVC,M,M,6000.00,8000.00,M,M,M,M,M,M,M,M,M,53.10,KVGT 231753Z 00000KT 10SM BKN060 OVC080 12/M02 A2995 RMK AO2 SLP158 T01171022 10117 20083 58000,M
ELY,2021-12-23 17:53,-114.8453,39.2950,1909.00,37.00,32.00,81.93,150.00,21.00,0.00,29.81,1007.60,10.00,30.00,BKN,BKN,OVC,M,1700.00,3900.00,4700.00,M,M,M,M,M,38.00,150.00,2021-12-23 17:27,25.52,KELY 231753Z AUTO 15021G30KT 10SM BKN017 BKN039 OVC047 03/00 A2981 RMK AO2 PK WND 15038/1727 SLP076 T00280000 10028 20000 56008,M
LOL,2021-12-23 17:53,-118.5701,40.0684,1192.43,35.00,34.00,95.71,110.00,6.00,0.07,29.71,1007.50,6.00,M,BKN,OVC,M,M,4200.00,5500.00,M,M,-RA BR,M,M,0.03,M,M,M,29.26,KLOL 231753Z AUTO 11006KT 6SM -RA BR BKN042 OVC055 02/01 A2971 RMK AO2 SLP075 P0007 60008 I6003 T00170011 10028 21011 53005,M
P68,2021-12-23 17:53,-116.0056,39.6014,1993.00,37.00,30.00,75.56,100.00,13.00,0.00,29.75,1006.80,M,M,M,M,M,M,M,M,M,M,M,M,M,M,M,M,M,27.97,KP68 231753Z AUTO 10013KT 03/M01 A2975 RMK AO1 SLP068 T00281011 10039 21022 58008,M
BVU,2021-12-23 17:55,-114.8611,35.9475,671.00,55.40,28.40,35.28,0.00,0.00,0.00,29.96,M,10.00,M,FEW,SCT,BKN,M,3000.00,5000.00,9000.00,M,-DZ,M,M,M,M,M,M,55.40,KBVU 231755Z AUTO 00000KT 10SM -DZ FEW030 SCT050 BKN090 13/M02 A2996 RMK AO2,M
TMT,2021-12-23 17:55,-117.1971,39.4643,1749.34,40.00,30.00,66.92,240.00,11.00,0.00,29.73,M,10.00,17.00,SCT,SCT,M,M,7000.00,9000.00,M,M,M,M,M,M,M,M,M,32.70,KTMT 231755Z AUTO 24011G17KT 10SM SCT070 SCT090 05/M01 A2973 RMK AO2 T00451011 10047 21050,M
RNO,2021-12-23 17:55,-119.7711,39.4839,1341.00,37.00,37.00,100.00,50.00,5.00,0.10,29.72,1005.60,4.00,M,OVC,M,M,M,2500.00,M,M,M,RA BR,M,M,M,M,M,M,32.33,KRNO 231755Z 05005KT 4SM RA BR OVC025 03/03 A2972 RMK AO2 SLP056 P0010 60087 T00280028 10067 20028 51012,M
RTS,2021-12-23 17:55,-119.8764,39.6682,1539.00,32.00,32.00,100.00,130.00,7.00,0.11,29.73,M,0.25,M,BKN,BKN,OVC,M,200.00,600.00,2700.00,M,-SN,M,M,M,M,M,M,24.78,KRTS 231755Z AUTO 13007KT 1/4SM -SN BKN002 BKN006 OVC027 00/00 A2973 RMK AO2 P0011,M
05U,2021-12-23 17:55,-116.0051,39.6042,1811.23,39.20,30.20,69.88,100.00,12.00,0.00,29.77,M,10.00,M,SCT,BKN,M,M,3300.00,8500.00,M,M,M,M,M,M,M,M,M,31.17,K05U 231755Z AUTO 10012KT 10SM SCT033 BKN085 04/M01 A2977 RMK A01,M
MEV,2021-12-23 17:55,-119.7500,38.9963,1441.42,37.40,35.60,93.14,80.00,9.00,0.09,29.70,M,3.00,M,FEW,BKN,OVC,M,1600.00,2100.00,3200.00,M,-RA BR,M,M,M,M,M,M,30.23,KMEV 231755Z AUTO 08009KT 3SM -RA BR FEW016 BKN021 OVC032 03/02 A2970 RMK AO2 P0009,M
BAM,2021-12-23 17:55,-116.8743,40.5990,1382.36,39.20,32.00,75.16,180.00,3.00,0.00,29.67,M,10.00,M,SCT,M,M,M,11000.00,M,M,M,M,M,M,M,M,M,M,36.92,KBAM 231755Z AUTO 18003KT 10SM SCT110 04/00 A2967 RMK AO1,M
HTH,2021-12-23 17:55,-118.6315,38.5448,1282.89,44.60,37.40,75.68,160.00,22.00,0.00,29.73,M,7.00,28.00,FEW,SCT,BKN,M,2700.00,3100.00,3800.00,M,M,M,M,M,M,M,M,35.45,KHTH 231755Z AUTO 16022G28KT 7SM FEW027 SCT031 BKN038 07/03 A2973 RMK A01,M
CXP,2021-12-23 17:55,-119.7326,39.1923,1431.00,39.20,37.40,93.19,0.00,0.00,0.00,29.72,M,6.00,M,SCT,SCT,SCT,M,1600.00,2000.00,2700.00,M,BR,M,M,M,M,M,M,39.20,KCXP 231755Z AUTO 00000KT 6SM BR SCT016 SCT020 SCT027 04/03 A2972 RMK AO2,M
TPH,2021-12-23 17:56,-117.0904,38.0505,1654.00,36.00,33.00,89.09,130.00,6.00,0.00,29.84,1011.30,10.00,M,OVC,M,M,M,700.00,M,M,M,M,M,M,M,M,M,M,30.35,KTPH 231756Z AUTO 13006KT 10SM OVC007 02/01 A2984 RMK AO2 SLP113 T00220006 10022 20000 58004,M
HND,2021-12-23 17:56,-115.1344,35.9729,742.79,51.00,34.00,51.81,0.00,0.00,T,29.96,1016.40,10.00,M,FEW,BKN,OVC,M,3400.00,5000.00,7000.00,M,-RA,M,M,M,M,M,M,51.10,KHND 231756Z 00000KT 10SM -RA FEW034 BKN050 OVC070 11/01 A2996 RMK AO2 RAB37 SLP164 P0000 60000 T01060011 10106 20072 58000,M
LAS,2021-12-23 17:56,-115.1634,36.0719,663.00,51.00,28.90,42.16,50.00,5.00,0.00,29.96,1014.10,10.00,M,FEW,BKN,BKN,M,4500.00,6000.00,12000.00,M,M,M,M,M,M,M,M,51.10,KLAS 231756Z 05005KT 10SM FEW045 BKN060 BKN120 11/M02 A2996 RMK AO2 SLP141 VIRGA DSNT SE-SW-NW T01061017 10106 20083 58001,M
EKO,2021-12-23 17:56,-115.7860,40.8242,1367.00,41.00,28.90,61.79,210.00,11.00,0.00,29.68,1005.90,10.00,21.00,OVC,M,M,M,6000.00,M,M,M,M,M,M,M,M,M,M,33.84,KEKO 231756Z AUTO 21011G21KT 10SM OVC060 05/M02 A2968 RMK AO2 SLP059 T00501017 10050 21056 56010,M
WMC,2021-12-23 17:56,-117.8072,40.9019,1315.00,36.00,34.00,92.35,260.00,5.00,0.07,29.71,1006.30,2.50,M,SCT,BKN,OVC,M,1000.00,1500.00,2100.00,M,RA BR,M,M,M,M,M,M,31.15,KWMC 231756Z AUTO 26005KT 2 1/2SM RA BR SCT010 BKN015 OVC021 02/01 A2971 RMK AO2 SLP063 P0007 60010 T00220011 10039 20000 53017,M
NFL,2021-12-23 17:56,-118.7010,39.4166,1199.00,41.00,38.00,88.62,260.00,10.00,0.08,29.74,1005.00,4.00,M,FEW,BKN,OVC,M,1500.00,3000.00,4000.00,M,RA BR,M,M,M,M,M,M,34.25,KNFL 231756Z 26010KT 4SM RA BR FEW015 BKN030 OVC040 05/03 A2974 RMK AO2 RAB1657 SLP050 P0008 60008 T00500033 10067 20000 53013,M
INS,2021-12-23 17:58,-115.6733,36.5872,955.00,44.60,32.00,61.03,10.00,6.00,T,29.93,1013.00,10.00,M,FEW,M,M,M,9000.00,M,M,M,M,M,M,M,M,M,M,40.71,KINS 231758Z AUTO 01006KT 10SM FEW090 07/00 A2993 RMK AO2 RAB06E20RAB20E20 SLP130 P0000 60000 T00700000 10070 20018 57010 VISNO RWY08 $,M
LSV,2021-12-23 17:58,-115.0343,36.2362,570.00,50.40,29.30,43.98,0.00,0.00,0.00,29.95,1013.90,10.00,M,OVC,M,M,M,5000.00,M,M,M,M,M,M,M,M,M,M,50.40,KLSV 231758Z AUTO 00000KT 10SM OVC050 10/M01 A2995 RMK AO2 SLP139 T01021015 10111 20080 58002 $,M
INS,2021-12-23 18:08,-115.6733,36.5872,955.00,44.60,30.20,56.74,0.00,0.00,0.00,29.91,1012.30,10.00,M,BKN,M,M,M,8500.00,M,M,M,M,M,M,M,M,M,M,44.60,KINS 231808Z AUTO 00000KT 10SM BKN085 07/M01 A2991 RMK AO2 PRESFR SLP123 VISNO RWY08 $,M
05U,2021-12-23 18:10,-116.0051,39.6042,1811.23,39.20,30.20,69.88,140.00,8.00,0.00,29.76,M,10.00,16.00,SCT,M,M,M,8500.00,M,M,M,M,M,M,M,M,M,M,32.98,K05U 231810Z AUTO 14008G16KT 10SM SCT085 04/M01 A2976 RMK A01,M
CXP,2021-12-23 18:10,-119.7326,39.1923,1431.00,39.20,35.60,86.79,0.00,0.00,0.00,29.70,M,7.00,M,FEW,FEW,SCT,M,1600.00,2600.00,3000.00,M,-RA,M,M,M,M,M,M,39.20,KCXP 231810Z AUTO 00000KT 7SM -RA FEW016 FEW026 SCT030 04/02 A2970 RMK AO2,M
WMC,2021-12-23 18:10,-117.8072,40.9019,1315.00,36.00,34.00,92.35,0.00,0.00,0.03,29.71,M,4.00,M,FEW,OVC,M,M,1200.00,1900.00,M,M,-RA BR,M,M,M,M,M,M,36.00,KWMC 231810Z AUTO 00000KT 4SM -RA BR FEW012 OVC019 02/01 A2971 RMK AO2 P0003 T00220011,M
HTH,2021-12-23 18:15,-118.6315,38.5448,1282.89,42.80,37.40,81.07,160.00,20.00,0.00,29.74,M,2.50,28.00,BKN,OVC,M,M,3100.00,3900.00,M,M,HZ,M,M,M,M,M,M,33.48,KHTH 231815Z AUTO 16020G28KT 2 1/2SM HZ BKN031 OVC039 06/03 A2974 RMK A01,M
MEV,2021-12-23 18:15,-119.7500,38.9963,1441.42,37.40,35.60,93.14,90.00,12.00,0.00,29.70,M,3.00,M,FEW,BKN,BKN,M,1900.00,2700.00,3400.00,M,-RA BR,M,M,M,M,M,M,28.87,KMEV 231815Z AUTO 09012KT 3SM -RA BR FEW019 BKN027 BKN034 03/02 A2970 RMK AO2,M
BVU,2021-12-23 18:15,-114.8611,35.9475,671.00,57.20,28.40,33.05,0.00,0.00,0.00,29.96,M,10.00,M,FEW,BKN,BKN,M,5000.00,7000.00,9000.00,M,M,M,M,M,M,M,M,57.20,KBVU 231815Z AUTO 00000KT 10SM FEW050 BKN070 BKN090 14/M02 A2996 RMK AO2,M
RTS,2021-12-23 18:15,-119.8764,39.6682,1539.00,32.00,32.00,100.00,0.00,0.00,0.00,29.73,M,0.75,M,OVC,M,M,M,200.00,M,M,M,-SN,M,M,M,M,M,M,32.00,KRTS 231815Z AUTO 00000KT 3/4SM -SN OVC002 00/00 A2973 RMK AO2,M
BAM,2021-12-23 18:15,-116.8743,40.5990,1382.36,41.00,32.00,70.08,250.00,11.00,0.00,29.67,M,10.00,M,SCT,SCT,BKN,M,4200.00,4900.00,6000.00,M,M,M,M,M,M,M,M,33.84,KBAM 231815Z AUTO 25011KT 10SM SCT042 SCT049 BKN060 05/00 A2967 RMK AO1,M
TMT,2021-12-23 18:15,-117.1971,39.4643,1749.34,40.00,30.20,68.00,230.00,11.00,0.00,29.73,M,10.00,M,SCT,SCT,SCT,M,4800.00,7000.00,8000.00,M,M,M,M,M,M,M,M,32.45,KTMT 231815Z AUTO 23011KT 10SM SCT048 SCT070 SCT080 04/M01 A2973 RMK AO2 T00441010,M
INS,2021-12-23 18:18,-115.6733,36.5872,955.00,44.60,32.00,61.03,0.00,0.00,0.00,29.90,1012.00,10.00,M,SCT,M,M,M,8000.00,M,M,M,M,M,M,M,M,M,M,44.60,KINS 231818Z AUTO 00000KT 10SM SCT080 07/M00 A2990 RMK AO2 SLP120 VISNO RWY08 $,M
RNO,2021-12-23 18:32,-119.7711,39.4839,1341.00,36.00,35.00,96.49,310.00,8.00,0.06,29.74,M,3.00,M,FEW,OVC,M,M,800.00,1900.00,M,M,-RASN BR,M,M,M,M,M,M,29.04,KRNO 231832Z 31008KT 3SM -RASN BR FEW008 OVC019 02/02 A2974 RMK AO2 SNB31 P0006 T00220017,M
NFL,2021-12-23 18:33,-118.7010,39.4166,1199.00,41.00,38.00,88.62,240.00,7.00,0.14,29.73,M,2.00,M,FEW,BKN,M,M,1500.00,2500.00,M,M,+RA BR,M,M,M,M,M,M,35.75,KNFL 231833Z 24007KT 2SM +RA BR FEW015 BKN025 05/03 A2973 RMK AO2 PRESFR P0014 T00500033,M
HTH,2021-12-23 18:35,-118.6315,38.5448,1282.89,42.80,37.40,81.07,150.00,21.00,0.00,29.74,M,2.00,M,BKN,OVC,M,M,2900.00,3600.00,M,M,HZ,M,M,M,M,M,M,33.26,KHTH 231835Z AUTO 15021KT 2SM HZ BKN029 OVC036 06/03 A2974 RMK A01,M
MEV,2021-12-23 18:35,-119.7500,38.9963,1441.42,35.60,33.80,93.08,100.00,10.00,0.00,29.71,M,1.75,M,OVC,M,M,M,2200.00,M,M,M,RA BR,M,M,M,M,M,M,27.48,KMEV 231835Z AUTO 10010KT 1 3/4SM RA BR OVC022 02/01 A2971 RMK AO2,M
05U,2021-12-23 18:35,-116.0051,39.6042,1811.23,39.20,30.20,69.88,150.00,13.00,0.00,29.75,M,10.00,M,CLR,M,M,M,M,M,M,M,M,M,M,M,M,M,M,30.79,K05U 231835Z AUTO 15013KT 10SM CLR 04/M01 A2975 RMK A01,M
RTS,2021-12-23 18:35,-119.8764,39.6682,1539.00,32.00,32.00,100.00,M,4.00,0.00,29.73,M,0.50,M,OVC,M,M,M,200.00,M,M,M,-SN,M,M,M,M,M,M,27.42,KRTS 231835Z AUTO VRB04KT 1/2SM -SN OVC002 00/00 A2973 RMK AO2,M
BVU,2021-12-23 18:35,-114.8611,35.9475,671.00,57.20,26.60,30.69,M,4.00,0.00,29.95,M,10.00,M,SCT,BKN,BKN,M,6500.00,9000.00,11000.00,M,M,M,M,M,M,M,M,57.20,KBVU 231835Z AUTO VRB04KT 10SM SCT065 BKN090 BKN110 14/M03 A2995 RMK AO2,M
BAM,2021-12-23 18:35,-116.8743,40.5990,1382.36,41.00,32.00,70.08,270.00,11.00,0.00,29.68,M,10.00,16.00,BKN,OVC,M,M,4100.00,4900.00,M,M,M,M,M,M,M,M,M,33.84,KBAM 231835Z AUTO 27011G16KT 10SM BKN041 OVC049 05/00 A2968 RMK AO1,M
CXP,2021-12-23 18:35,-119.7326,39.1923,1431.00,39.20,37.40,93.19,0.00,0.00,0.00,29.74,M,6.00,M,FEW,FEW,SCT,M,2500.00,3200.00,4100.00,M,-RA,M,M,M,M,M,M,39.20,KCXP 231835Z AUTO 00000KT 6SM -RA FEW025 FEW032 SCT041 04/03 A2974 RMK AO2,M
TMT,2021-12-23 18:35,-117.1971,39.4643,1749.34,40.50,30.20,66.43,220.00,11.00,0.00,29.72,M,10.00,19.00,BKN,BKN,M,M,5500.00,6500.00,M,M,M,M,M,M,M,M,M,33.21,KTMT 231835Z AUTO 22011G19KT 10SM BKN055 BKN065 05/M01 A2972 RMK AO2 T00471010,M
RNO,2021-12-23 18:39,-119.7711,39.4839,1341.00,35.00,33.00,92.32,330.00,7.00,0.07,29.74,M,2.00,M,OVC,M,M,M,1700.00,M,M,M,-SNRA BR,M,M,M,M,M,M,28.56,KRNO 231839Z 33007KT 2SM R16R/6000VP6000FT -SNRA BR OVC017 02/01 A2974 RMK AO2 SNB31 P0007 T00170006,M
RNO,2021-12-23 18:43,-119.7711,39.4839,1341.00,34.00,33.00,96.46,330.00,6.00,0.09,29.74,M,1.50,M,OVC,M,M,M,1700.00,M,M,M,-SN BR,M,M,M,M,M,M,27.94,KRNO 231843Z 33006KT 1 1/2SM R16R/6000VP6000FT -SN BR OVC017 01/01 A2974 RMK AO2 RAE41SNB31 P0009 T00110006,M
ELY,2021-12-23 18:49,-114.8453,39.2950,1909.00,37.40,32.00,80.65,140.00,24.00,0.00,29.78,M,10.00,31.00,BKN,OVC,M,M,1400.00,3300.00,M,M,M,M,M,M,M,M,M,25.34,KELY 231849Z AUTO 14024G31KT 10SM BKN014 OVC033 03/00 A2978,M
05U,2021-12-23 18:50,-116.0051,39.6042,1811.23,41.00,30.20,65.16,150.00,9.00,0.00,29.74,M,10.00,M,CLR,M,M,M,M,M,M,M,M,M,M,M,M,M,M,34.70,K05U 231850Z AUTO 15009KT 10SM CLR 05/M01 A2974 RMK A01,M
ELY,2021-12-23 18:53,-114.8453,39.2950,1909.00,37.00,32.00,81.93,150.00,22.00,0.00,29.77,1006.50,10.00,31.00,BKN,OVC,M,M,1400.00,3100.00,M,M,M,M,M,M,33.00,150.00,2021-12-23 18:16,25.27,KELY 231853Z AUTO 15022G31KT 10SM BKN014 OVC031 03/00 A2977 RMK AO2 PK WND 15033/1816 PRESFR SLP065 T00280000,M
VGT,2021-12-23 18:53,-115.1933,36.2111,667.00,54.00,28.00,36.52,M,4.00,0.00,29.91,1014.40,10.00,M,FEW,FEW,M,M,7500.00,9000.00,M,M,M,M,M,M,M,M,M,54.00,KVGT 231853Z VRB04KT 10SM FEW075 FEW090 12/M02 A2991 RMK AO2 SLP144 T01221022,M
DRA,2021-12-23 18:53,-116.0278,36.6206,1009.00,56.00,46.00,69.30,190.00,16.00,0.00,29.86,1009.30,10.00,27.00,SCT,BKN,OVC,M,4000.00,8000.00,9000.00,M,M,M,M,M,28.00,180.00,2021-12-23 18:18,55.90,KDRA 231853Z AUTO 19016G27KT 10SM SCT040 BKN080 OVC090 13/08 A2986 RMK AO2 PK WND 18028/1818 SLP093 T01330078,M
LOL,2021-12-23 18:53,-118.5701,40.0684,1192.43,37.00,35.00,92.76,100.00,3.00,0.00,29.71,1007.10,7.00,M,M,M,M,M,M,M,M,M,-RA,M,M,M,M,M,M,34.40,KLOL 231853Z AUTO 10003KT 7SM -RA 03/02 A2971 RMK AO2 RAB43 SLP071 T00280017 PNO $,M
P68,2021-12-23 18:53,-116.0056,39.6014,1993.00,41.00,30.90,67.03,140.00,13.00,0.00,29.71,1004.90,M,18.00,M,M,M,M,M,M,M,M,M,M,M,M,26.00,160.00,2021-12-23 18:17,33.10,KP68 231853Z AUTO 14013G18KT 05/M01 A2971 RMK AO1 PK WND 16026/1817 SLP049 T00501006,M
TMT,2021-12-23 18:55,-117.1971,39.4643,1749.34,40.00,30.20,67.47,230.00,12.00,0.00,29.71,M,10.00,M,SCT,BKN,BKN,M,5500.00,7000.00,8500.00,M,M,M,M,M,M,M,M,32.31,KTMT 231855Z AUTO 23012KT 10SM SCT055 BKN070 BKN085 05/M01 A2971 RMK AO2 T00451010,M
MEV,2021-12-23 18:55,-119.7500,38.9963,1441.42,35.60,33.80,93.08,70.00,5.00,0.13,29.73,M,3.00,M,SCT,BKN,OVC,M,1400.00,2000.00,2500.00,M,-RA BR,M,M,M,M,M,M,30.67,KMEV 231855Z AUTO 07005KT 3SM -RA BR SCT014 BKN020 OVC025 02/01 A2973 RMK AO2 P0013,M
HTH,2021-12-23 18:55,-118.6315,38.5448,1282.89,41.00,37.40,86.89,140.00,19.00,0.14,29.71,M,6.00,M,SCT,BKN,M,M,2800.00,3500.00,M,M,BR,M,M,M,M,M,M,31.34,KHTH 231855Z AUTO 14019KT 6SM BR SCT028 BKN035 05/03 A2971 RMK A01 P0014,M
BAM,2021-12-23 18:55,-116.8743,40.5990,1382.36,39.20,33.80,80.79,250.00,19.00,0.00,29.71,M,7.00,24.00,SCT,BKN,OVC,M,2800.00,3500.00,4100.00,M,M,M,M,M,M,M,M,28.96,KBAM 231855Z AUTO 25019G24KT 7SM SCT028 BKN035 OVC041 04/01 A2971 RMK AO1,M
RNO,2021-12-23 18:55,-119.7711,39.4839,1341.00,34.00,33.00,96.46,60.00,7.00,0.14,29.74,1006.70,1.50,M,OVC,M,M,M,1700.00,M,M,M,-SNRA BR,M,M,M,M,M,M,27.22,KRNO 231855Z 06007KT 1 1/2SM -SNRA BR OVC017 01/01 A2974 RMK AO2 RAE41B50SNB31 SLP067 P0014 T00110006,M
CXP,2021-12-23 18:55,-119.7326,39.1923,1431.00,39.20,35.60,86.79,250.00,4.00,0.00,29.74,M,3.00,M,FEW,FEW,FEW,M,1200.00,2300.00,2800.00,M,RA,M,M,M,M,M,M,35.83,KCXP 231855Z AUTO 25004KT 3SM RA FEW012 FEW023 FEW028 04/02 A2974 RMK AO2,M
ELY,2021-12-23 18:55,-114.8453,39.2950,1909.00,37.00,32.00,81.93,150.00,23.00,0.00,29.77,M,10.00,31.00,SCT,OVC,M,M,1500.00,3100.00,M,M,M,M,M,M,31.00,150.00,2021-12-23 18:55,25.03,KELY 231855Z AUTO 15023G31KT 10SM SCT015 OVC031 03/00 A2977 RMK AO2 PK WND 15031/1855 PRESFR T00280000,M
BVU,2021-12-23 18:55,-114.8611,35.9475,671.00,59.00,26.60,28.77,110.00,6.00,0.00,29.93,M,10.00,M,BKN,BKN,BKN,M,6000.00,8500.00,11000.00,M,M,M,M,M,M,M,M,59.00,KBVU 231855Z AUTO 11006KT 10SM BKN060 BKN085 BKN110 15/M03 A2993 RMK AO2,M
RTS,2021-12-23 18:55,-119.8764,39.6682,1539.00,32.00,32.00,100.00,0.00,0.00,0.11,29.72,M,1.75,M,BKN,M,M,M,200.00,M,M,M,-SN,M,M,M,M,M,M,32.00,KRTS 231855Z AUTO 00000KT 1 3/4SM -SN BKN002 00/00 A2972 RMK AO2 P0011,M
HND,2021-12-23 18:56,-115.1344,35.9729,742.79,58.00,46.00,64.47,200.00,11.00,T,29.92,1014.40,10.00,M,SCT,OVC,M,M,6500.00,9000.00,M,M,M,M,M,M,M,M,M,57.90,KHND 231856Z 20011KT 10SM SCT065 OVC090 14/08 A2992 RMK AO2 RAE39 SLP144 P0000 T01440078,M
WMC,2021-12-23 18:56,-117.8072,40.9019,1315.00,37.00,34.00,88.78,120.00,6.00,0.05,29.67,1004.90,10.00,M,SCT,BKN,OVC,M,1800.00,2300.00,6000.00,M,UP,M,M,M,M,M,M,31.55,KWMC 231856Z AUTO 12006KT 10SM UP SCT018 BKN023 OVC060 03/01 A2967 RMK AO2 RAE50UPB23 PRESFR SLP049 P0005 T00280011,M
TPH,2021-12-23 18:56,-117.0904,38.0505,1654.00,36.00,34.00,92.35,100.00,9.00,0.00,29.81,1010.10,10.00,M,OVC,M,M,M,700.00,M,M,M,M,M,M,M,M,M,M,28.49,KTPH 231856Z AUTO 10009KT 10SM OVC007 02/01 A2981 RMK AO2 SLP101 T00220011,M
LAS,2021-12-23 18:56,-115.1634,36.0719,663.00,52.00,36.00,54.26,90.00,5.00,T,29.92,1012.70,10.00,M,FEW,SCT,BKN,M,3700.00,5000.00,7000.00,M,M,M,M,M,M,M,M,52.00,KLAS 231856Z 09005KT 10SM FEW037 SCT050 BKN070 11/02 A2992 RMK AO2 RAB19E43 SLP127 VIRGA DSNT SW P0000 T01110022,M
NFL,2021-12-23 18:56,-118.7010,39.4166,1199.00,41.00,38.00,88.62,200.00,5.00,0.15,29.72,1004.40,5.00,M,FEW,OVC,M,M,2000.00,2800.00,M,M,-RA BR,M,M,M,M,M,M,37.08,KNFL 231856Z 20005KT 5SM -RA BR FEW020 OVC028 05/03 A2972 RMK AO2 SLP044 P0015 T00500033,M
EKO,2021-12-23 18:56,-115.7860,40.8242,1367.00,42.00,30.00,61.94,210.00,12.00,0.00,29.64,1004.10,10.00,20.00,FEW,OVC,M,M,5000.00,6000.00,M,M,M,M,M,M,M,M,M,34.86,KEKO 231856Z AUTO 21012G20KT 10SM FEW050 OVC060 06/M01 A2964 RMK AO2 SLP041 T00561011,M
INS,2021-12-23 18:58,-115.6733,36.5872,955.00,47.70,32.40,55.16,320.00,7.00,0.00,29.88,1011.00,10.00,M,SCT,BKN,BKN,M,7000.00,9500.00,17000.00,M,M,M,M,M,M,M,M,43.92,KINS 231858Z AUTO 32007KT 10SM SCT070 BKN095 BKN170 09/00 A2988 RMK AO2 SLP110 T00870002 VISNO RWY08 $,M
LSV,2021-12-23 18:58,-115.0343,36.2362,570.00,53.00,30.00,40.96,280.00,4.00,0.00,29.91,1012.50,10.00,M,SCT,M,M,M,5500.00,M,M,M,M,M,M,M,M,M,M,53.10,KLSV 231858Z AUTO 28004KT 10SM SCT055 12/M01 A2991 RMK AO2 SLP125 T01171011 $,M
RNO,2021-12-23 19:03,-119.7711,39.4839,1341.00,34.00,34.00,100.00,70.00,7.00,0.03,29.73,M,2.50,M,FEW,OVC,M,M,800.00,1900.00,M,M,-RASN BR,M,M,M,M,M,M,27.22,KRNO 231903Z 07007KT 2 1/2SM -RASN BR FEW008 OVC019 01/01 A2973 RMK AO2 TWR VIS 3 P0003 T00110011,M
ELY,2021-12-23 19:05,-114.8453,39.2950,1909.00,37.00,32.00,81.93,170.00,21.00,0.00,29.77,M,10.00,32.00,FEW,OVC,M,M,1500.00,2900.00,M,M,M,M,M,M,32.00,160.00,2021-12-23 19:03,25.52,KELY 231905Z AUTO 17021G32KT 10SM FEW015 OVC029 03/00 A2977 RMK AO2 PK WND 16032/1903 T00280000,M
05U,2021-12-23 19:10,-116.0051,39.6042,1811.23,42.80,30.20,60.79,160.00,10.00,0.00,29.72,M,10.00,M,CLR,M,M,M,M,M,M,M,M,M,M,M,M,M,M,36.51,K05U 231910Z AUTO 16010KT 10SM CLR 06/M01 A2972 RMK A01,M
WMC,2021-12-23 19:14,-117.8072,40.9019,1315.00,38.00,34.00,85.69,150.00,13.00,T,29.65,M,10.00,M,SCT,BKN,OVC,M,1900.00,5500.00,9000.00,M,M,M,M,M,M,M,M,29.13,KWMC 231914Z AUTO 15013KT 10SM SCT019 BKN055 OVC090 03/01 A2965 RMK AO2 UPE1857RAB1857E1858 P0000 T00330011,M
MEV,2021-12-23 19:15,-119.7500,38.9963,1441.42,35.60,33.80,93.08,20.00,9.00,0.00,29.72,M,3.00,M,FEW,BKN,BKN,M,900.00,1300.00,1800.00,M,-RA BR,M,M,M,M,M,M,27.99,KMEV 231915Z AUTO 02009KT 3SM -RA BR FEW009 BKN013 BKN018 02/01 A2972 RMK AO2,M
BAM,2021-12-23 19:15,-116.8743,40.5990,1382.36,37.40,37.40,100.00,220.00,17.00,0.00,29.68,M,5.00,22.00,BKN,BKN,OVC,M,2600.00,3400.00,4600.00,M,M,M,M,M,M,M,M,27.15,KBAM 231915Z AUTO 22017G22KT 5SM BKN026 BKN034 OVC046 03/03 A2968 RMK AO1,M
HTH,2021-12-23 19:15,-118.6315,38.5448,1282.89,42.80,37.40,81.07,120.00,17.00,0.00,29.70,M,10.00,22.00,FEW,SCT,SCT,M,4000.00,4600.00,5000.00,M,M,M,M,M,M,M,M,34.22,KHTH 231915Z AUTO 12017G22KT 10SM FEW040 SCT046 SCT050 06/03 A2970 RMK A01,M
TMT,2021-12-23 19:15,-117.1971,39.4643,1749.34,41.00,30.00,64.63,220.00,11.00,0.00,29.70,M,10.00,22.00,SCT,BKN,OVC,M,4100.00,4900.00,8500.00,M,M,M,M,M,M,M,M,33.84,KTMT 231915Z AUTO 22011G22KT 10SM SCT041 BKN049 OVC085 05/M01 A2970 RMK AO2 T00501011,M
BVU,2021-12-23 19:15,-114.8611,35.9475,671.00,59.00,24.80,26.70,130.00,8.00,0.00,29.91,M,10.00,M,SCT,SCT,BKN,M,6000.00,7500.00,12000.00,M,M,M,M,M,M,M,M,59.00,KBVU 231915Z AUTO 13008KT 10SM SCT060 SCT075 BKN120 15/M04 A2991 RMK AO2,M
NFL,2021-12-23 19:15,-118.7010,39.4166,1199.00,41.00,38.00,88.62,220.00,5.00,0.04,29.72,M,2.50,M,OVC,M,M,M,2800.00,M,M,M,RA BR,M,M,M,M,M,M,37.08,KNFL 231915Z 22005KT 2 1/2SM RA BR OVC028 05/03 A2972 RMK AO2 P0004 T00500033,M
RTS,2021-12-23 19:15,-119.8764,39.6682,1539.00,32.00,32.00,100.00,120.00,6.00,0.00,29.72,M,0.75,M,BKN,BKN,M,M,200.00,2200.00,M,M,-RA,M,M,M,M,M,M,25.53,KRTS 231915Z AUTO 12006KT 3/4SM -RA BKN002 BKN022 00/00 A2972 RMK AO2,M
CXP,2021-12-23 19:15,-119.7326,39.1923,1431.00,37.40,35.60,93.14,130.00,3.00,0.00,29.74,M,2.50,M,FEW,FEW,M,M,1000.00,1400.00,M,M,-RA,M,M,M,M,M,M,34.86,KCXP 231915Z AUTO 13003KT 2 1/2SM -RA FEW010 FEW014 03/02 A2974 RMK AO2,M
RNO,2021-12-23 19:17,-119.7711,39.4839,1341.00,34.00,34.00,100.00,90.00,7.00,0.06,29.72,M,3.00,M,FEW,OVC,M,M,800.00,1900.00,M,M,-RASN BR,M,M,M,M,M,M,27.22,KRNO 231917Z 09007KT 3SM -RASN BR FEW008 OVC019 01/01 A2972 RMK AO2 P0006 T00110011,M
RNO,2021-12-23 19:34,-119.7711,39.4839,1341.00,33.80,33.80,100.00,40.00,3.00,0.00,29.69,M,2.50,M,FEW,OVC,M,M,600.00,1800.00,M,M,-RASN BR,M,M,M,M,M,M,30.75,KRNO 231934Z 04003KT 2 1/2SM -RASN BR FEW006 OVC018 01/01 A2969,M
BAM,2021-12-23 19:35,-116.8743,40.5990,1382.36,37.40,37.40,100.00,230.00,16.00,0.00,29.68,M,10.00,20.00,SCT,BKN,OVC,M,3100.00,7000.00,8000.00,M,M,M,M,M,M,M,M,27.46,KBAM 231935Z AUTO 23016G20KT 10SM SCT031 BKN070 OVC080 03/03 A2968 RMK AO1,M
HTH,2021-12-23 19:35,-118.6315,38.5448,1282.89,42.80,39.20,86.99,150.00,16.00,0.00,29.70,M,5.00,M,FEW,BKN,BKN,M,2800.00,3800.00,4500.00,M,HZ,M,M,M,M,M,M,34.50,KHTH 231935Z AUTO 15016KT 5SM HZ FEW028 BKN038 BKN045 06/04 A2970 RMK A01,M
MEV,2021-12-23 19:35,-119.7500,38.9963,1441.42,33.80,33.80,100.00,110.00,6.00,0.00,29.74,M,4.00,M,FEW,SCT,BKN,M,900.00,2400.00,2800.00,M,RA BR,M,M,M,M,M,M,27.70,KMEV 231935Z AUTO 11006KT 4SM RA BR FEW009 SCT024 BKN028 01/01 A2974 RMK AO2,M
05U,2021-12-23 19:35,-116.0051,39.6042,1811.23,44.60,30.20,56.74,170.00,10.00,0.00,29.69,M,10.00,M,CLR,M,M,M,M,M,M,M,M,M,M,M,M,M,M,38.77,K05U 231935Z AUTO 17010KT 10SM CLR 07/M01 A2969 RMK A01,M
BVU,2021-12-23 19:35,-114.8611,35.9475,671.00,59.00,24.80,26.70,150.00,11.00,0.00,29.90,M,10.00,16.00,FEW,SCT,M,M,8500.00,11000.00,M,M,M,M,M,M,M,M,M,59.00,KBVU 231935Z AUTO 15011G16KT 10SM FEW085 SCT110 15/M04 A2990 RMK AO2,M
TMT,2021-12-23 19:35,-117.1971,39.4643,1749.34,39.00,32.00,75.75,200.00,22.00,0.00,29.72,M,7.00,31.00,SCT,BKN,OVC,M,2400.00,3600.00,4500.00,M,-RA,M,M,M,M,M,M,27.95,KTMT 231935Z AUTO 20022G31KT 7SM -RA SCT024 BKN036 OVC045 04/00 A2972 RMK AO2 T00390000,M
RTS,2021-12-23 19:35,-119.8764,39.6682,1539.00,32.00,32.00,100.00,70.00,6.00,0.00,29.70,M,0.50,M,BKN,BKN,BKN,M,200.00,1400.00,2100.00,M,-SN,M,M,M,M,M,M,25.53,KRTS 231935Z AUTO 07006KT 1/2SM -SN BKN002 BKN014 BKN021 00/00 A2970 RMK AO2,M
CXP,2021-12-23 19:35,-119.7326,39.1923,1431.00,37.40,35.60,93.14,0.00,0.00,0.00,29.73,M,3.00,M,CLR,M,M,M,M,M,M,M,-RA,M,M,M,M,M,M,37.40,KCXP 231935Z AUTO 00000KT 3SM -RA CLR 03/02 A2973 RMK AO2,M
INS,2021-12-23 19:38,-115.6733,36.5872,955.00,48.20,32.00,53.27,0.00,0.00,0.00,29.85,1010.00,10.00,M,BKN,M,M,M,7000.00,M,M,M,-RA,M,M,M,M,M,M,48.20,KINS 231938Z AUTO 00000KT 10SM -RA BKN070 09/00 A2985 RMK AO2 RAB38 SLP100 VISNO RWY08 $,M
ELY,2021-12-23 19:39,-114.8453,39.2950,1909.00,37.00,32.00,81.93,190.00,18.00,0.00,29.74,M,10.00,34.00,BKN,M,M,M,3200.00,M,M,M,M,M,M,M,34.00,150.00,2021-12-23 19:33,26.33,KELY 231939Z AUTO 19018G34KT 10SM BKN032 03/00 A2974 RMK AO2 PK WND 15034/1933 T00280000,M
TPH,2021-12-23 19:41,-117.0904,38.0505,1654.00,37.00,35.00,92.76,150.00,8.00,0.00,29.79,M,10.00,M,OVC,M,M,M,600.00,M,M,M,M,M,M,M,M,M,M,30.27,KTPH 231941Z AUTO 15008KT 10SM OVC006 03/02 A2979 RMK AO2 T00280017,M
05U,2021-12-23 19:50,-116.0051,39.6042,1811.23,44.60,30.20,56.74,180.00,11.00,0.00,29.69,M,10.00,16.00,CLR,M,M,M,M,M,M,M,M,M,M,M,M,M,M,38.39,K05U 231950Z AUTO 18011G16KT 10SM CLR 07/M01 A2969 RMK A01,M
LOL,2021-12-23 19:51,-118.5701,40.0684,1192.43,37.40,37.40,100.00,170.00,11.00,0.02,29.71,M,10.00,M,FEW,BKN,OVC,M,800.00,3500.00,7500.00,M,-RA,M,M,M,M,M,M,29.29,KLOL 231951Z AUTO 17011KT 10SM -RA FEW008 BKN035 OVC075 03/03 A2971 RMK AO2 P0002 $,M
P68,2021-12-23 19:53,-116.0056,39.6014,1993.00,42.00,30.90,64.24,200.00,17.00,0.00,29.67,1002.10,M,24.00,M,M,M,M,M,M,M,M,M,M,M,M,M,M,M,33.31,KP68 231953Z AUTO 20017G24KT 06/M01 A2967 RMK AO1 SLP021 T00561006,M
VGT,2021-12-23 19:53,-115.1933,36.2111,667.00,56.00,28.00,34.08,60.00,3.00,0.00,29.87,1013.00,10.00,M,SCT,M,M,M,5000.00,M,M,M,M,M,M,M,M,M,M,55.90,KVGT 231953Z 06003KT 10SM SCT050 13/M02 A2987 RMK AO2 SLP130 T01331022,M
LOL,2021-12-23 19:53,-118.5701,40.0684,1192.43,38.00,37.00,96.52,170.00,11.00,0.02,29.70,1006.90,10.00,M,FEW,BKN,OVC,M,800.00,3100.00,7000.00,M,M,M,M,M,M,M,M,29.92,KLOL 231953Z AUTO 17011KT 10SM FEW008 BKN031 OVC070 03/03 A2970 RMK AO2 RAE53 SLP069 P0002 T00330028 $,M
ELY,2021-12-23 19:53,-114.8453,39.2950,1909.00,37.00,33.00,85.64,160.00,22.00,0.00,29.73,1005.00,10.00,34.00,FEW,BKN,M,M,1500.00,3500.00,M,M,M,M,M,M,34.00,150.00,2021-12-23 19:53,25.27,KELY 231953Z AUTO 16022G34KT 10SM FEW015 BKN035 03/01 A2973 RMK AO2 PK WND 15034/1953 SLP050 T00280006,M
DRA,2021-12-23 19:53,-116.0278,36.6206,1009.00,54.00,46.00,74.26,190.00,20.00,T,29.84,1008.90,10.00,27.00,BKN,BKN,OVC,M,3500.00,6500.00,8000.00,M,-RA,M,M,M,27.00,180.00,2021-12-23 19:52,54.00,KDRA 231953Z AUTO 19020G27KT 10SM -RA BKN035 BKN065 OVC080 12/08 A2984 RMK AO2 PK WND 18027/1952 RAB43 SLP089 P0000 T01220078,M
INS,2021-12-23 19:53,-115.6733,36.5872,955.00,48.20,32.00,53.27,160.00,4.00,0.00,29.85,1010.00,10.00,M,SCT,M,M,M,7000.00,M,M,M,-RA,M,M,M,M,M,M,46.34,KINS 231953Z AUTO 16004KT 10SM -RA SCT070 09/M00 A2985 RMK AO2 RAB38 SLP100 VISNO RWY08 $,M
HTH,2021-12-23 19:55,-118.6315,38.5448,1282.89,44.60,37.40,75.68,160.00,22.00,0.01,29.68,M,8.00,M,SCT,BKN,M,M,3000.00,4100.00,M,M,M,M,M,M,M,M,M,35.45,KHTH 231955Z AUTO 16022KT 8SM SCT030 BKN041 07/03 A2968 RMK A01 P0001,M
MEV,2021-12-23 19:55,-119.7500,38.9963,1441.42,33.80,33.80,100.00,90.00,8.00,0.15,29.70,M,2.00,15.00,FEW,M,M,M,2600.00,M,M,M,RA BR,M,M,M,M,M,M,26.33,KMEV 231955Z AUTO 09008G15KT 2SM RA BR FEW026 01/01 A2970 RMK AO2 P0015 VIS 1 1/2V3,M
RTS,2021-12-23 19:55,-119.8764,39.6682,1539.00,32.00,32.00,100.00,0.00,0.00,0.07,29.69,M,3.00,M,CLR,M,M,M,M,M,M,M,-SN,M,M,M,M,M,M,32.00,KRTS 231955Z AUTO 00000KT 3SM -SN CLR 00/00 A2969 RMK AO2 P0007,M
RNO,2021-12-23 19:55,-119.7711,39.4839,1341.00,34.00,33.00,96.46,220.00,8.00,0.11,29.72,1006.00,2.00,M,FEW,OVC,M,M,500.00,1600.00,M,M,-SN BR,M,M,M,M,M,M,26.58,KRNO 231955Z 22008KT 2SM -SN BR FEW005 OVC016 01/01 A2972 RMK AO2 RAE54 PRESRR SLP060 P0011 T00110006,M
BAM,2021-12-23 19:55,-116.8743,40.5990,1382.36,37.40,37.40,100.00,270.00,11.00,0.00,29.69,M,10.00,M,SCT,BKN,OVC,M,2300.00,4600.00,8000.00,M,M,M,M,M,M,M,M,29.29,KBAM 231955Z AUTO 27011KT 10SM SCT023 BKN046 OVC080 03/03 A2969 RMK AO1,M
BVU,2021-12-23 19:55,-114.8611,35.9475,671.00,59.00,24.80,26.70,160.00,9.00,0.00,29.89,M,10.00,M,FEW,SCT,M,M,8500.00,11000.00,M,M,M,M,M,M,M,M,M,59.00,KBVU 231955Z AUTO 16009KT 140V210 10SM FEW085 SCT110 15/M04 A2989 RMK AO2,M
TMT,2021-12-23 19:55,-117.1971,39.4643,1749.34,38.30,33.00,80.72,210.00,16.00,0.00,29.72,M,7.00,26.00,BKN,OVC,M,M,2500.00,3000.00,M,M,-RA,M,M,M,M,M,M,28.63,KTMT 231955Z AUTO 21016G26KT 7SM -RA BKN025 OVC030 04/01 A2972 RMK AO2 T00350005,M
CXP,2021-12-23 19:55,-119.7326,39.1923,1431.00,37.40,35.60,93.14,0.00,0.00,0.00,29.72,M,3.00,M,SCT,SCT,M,M,700.00,1100.00,M,M,-RA,M,M,M,M,M,M,37.40,KCXP 231955Z AUTO 00000KT 3SM -RA SCT007 SCT011 03/02 A2972 RMK AO2,M
HND,2021-12-23 19:56,-115.1344,35.9729,742.79,62.00,30.90,30.73,190.00,6.00,0.00,29.89,1013.20,10.00,M,SCT,OVC,M,M,6000.00,8000.00,M,M,M,M,M,M,M,M,M,62.10,KHND 231956Z 19006KT 10SM SCT060 OVC080 17/M01 A2989 RMK AO2 SLP132 T01671006,M
LAS,2021-12-23 19:56,-115.1634,36.0719,663.00,56.00,33.00,41.92,70.00,5.00,0.00,29.88,1011.20,10.00,M,BKN,BKN,M,M,5500.00,9000.00,M,M,M,M,M,M,M,M,M,55.90,KLAS 231956Z 07005KT 10SM BKN055 BKN090 13/01 A2988 RMK AO2 SLP112 VCSH SW T01330006,M
EKO,2021-12-23 19:56,-115.7860,40.8242,1367.00,38.00,32.00,79.08,250.00,20.00,T,29.66,1005.20,7.00,28.00,BKN,OVC,M,M,2200.00,3300.00,M,M,-RA,M,M,M,28.00,240.00,2021-12-23 19:50,26.98,KEKO 231956Z AUTO 25020G28KT 7SM -RA BKN022 OVC033 03/00 A2966 RMK AO2 PK WND 24028/1950 RAB38 SLP052 P0000 T00330000,M
WMC,2021-12-23 19:56,-117.8072,40.9019,1315.00,38.00,34.00,85.69,190.00,13.00,T,29.65,1003.90,10.00,M,SCT,BKN,OVC,M,2100.00,4800.00,8000.00,M,M,M,M,M,M,M,M,29.13,KWMC 231956Z AUTO 19013KT 10SM SCT021 BKN048 OVC080 03/01 A2965 RMK AO2 UPE1857RAB1857E1858 SLP039 P0000 T00330011,M
TPH,2021-12-23 19:56,-117.0904,38.0505,1654.00,37.00,35.00,92.76,120.00,7.00,0.00,29.78,1009.50,10.00,M,OVC,M,M,M,600.00,M,M,M,M,M,M,M,M,M,M,30.87,KTPH 231956Z AUTO 12007KT 10SM OVC006 03/02 A2978 RMK AO2 SLP095 T00280017,M
NFL,2021-12-23 19:56,-118.7010,39.4166,1199.00,41.00,38.00,88.62,270.00,11.00,0.16,29.72,1004.60,2.50,M,SCT,OVC,M,M,1800.00,2800.00,M,M,+RA BR,M,M,M,M,M,M,33.84,KNFL 231956Z 27011KT 2 1/2SM +RA BR SCT018 OVC028 05/03 A2972 RMK AO2 SLP046 P0016 T00500033,M
INS,2021-12-23 19:58,-115.6733,36.5872,955.00,48.70,33.80,56.20,160.00,3.00,T,29.85,1010.00,10.00,M,SCT,M,M,M,6500.00,M,M,M,-RA,M,M,M,M,M,M,47.78,KINS 231958Z AUTO 16003KT 10SM -RA SCT065 09/01 A2985 RMK AO2 RAB38 SLP100 P0000 T00930010 VISNO RWY08 $,M
LSV,2021-12-23 19:58,-115.0343,36.2362,570.00,56.80,30.20,36.09,70.00,9.00,0.00,29.87,1011.10,10.00,M,OVC,M,M,M,6000.00,M,M,M,M,M,M,M,M,M,M,56.80,KLSV 231958Z AUTO 07009KT 10SM OVC060 14/M01 A2987 RMK AO2 SLP111 T01381010 $,M
RNO,2021-12-23 20:03,-119.7711,39.4839,1341.00,33.00,33.00,100.00,210.00,6.00,0.01,29.72,M,1.00,M,OVC,M,M,M,1300.00,M,M,M,-SN BR,M,M,M,M,M,M,26.86,KRNO 232003Z 21006KT 1SM R16R/5000VP6000FT -SN BR OVC013 01/01 A2972 RMK AO2 P0001 T00060006,M
INS,2021-12-23 20:06,-115.6733,36.5872,955.00,48.20,35.60,61.52,0.00,0.00,0.00,29.85,1010.00,10.00,M,FEW,SCT,M,M,1200.00,7000.00,M,M,-RA,M,M,M,M,M,M,48.20,KINS 232006Z AUTO 00000KT 10SM -RA FEW012 SCT070 09/02 A2985 RMK AO2 SLP100 VISNO RWY08 $,M
DRA,2021-12-23 20:14,-116.0278,36.6206,1009.00,53.00,47.00,79.40,210.00,11.00,T,29.83,M,10.00,22.00,OVC,M,M,M,2900.00,M,M,M,-RA,M,M,M,27.00,180.00,2021-12-23 19:56,53.10,KDRA 232014Z AUTO 21011G22KT 10SM -RA OVC029 12/08 A2983 RMK AO2 PK WND 18027/1956 P0000 T01170083,M
BVU,2021-12-23 20:15,-114.8611,35.9475,671.00,60.80,24.80,25.04,170.00,13.00,0.00,29.88,M,10.00,19.00,FEW,BKN,M,M,9000.00,11000.00,M,M,M,M,M,M,M,M,M,60.80,KBVU 232015Z AUTO 17013G19KT 10SM FEW090 BKN110 16/M04 A2988 RMK AO2,M
CXP,2021-12-23 20:15,-119.7326,39.1923,1431.00,37.40,37.40,100.00,0.00,0.00,0.00,29.71,M,8.00,M,SCT,SCT,SCT,M,800.00,2500.00,3000.00,M,M,M,M,M,M,M,M,37.40,KCXP 232015Z AUTO 00000KT 8SM SCT008 SCT025 SCT030 03/03 A2971 RMK AO2,M
RTS,2021-12-23 20:15,-119.8764,39.6682,1539.00,32.00,32.00,100.00,140.00,7.00,0.00,29.71,M,3.00,M,FEW,M,M,M,600.00,M,M,M,-SN,M,M,M,M,M,M,24.78,KRTS 232015Z AUTO 14007KT 3SM -SN FEW006 00/00 A2971 RMK AO2,M
05U,2021-12-23 20:15,-116.0051,39.6042,1811.23,44.60,30.20,56.74,160.00,8.00,0.00,29.70,M,10.00,20.00,CLR,M,M,M,M,M,M,M,M,M,M,M,M,M,M,39.63,K05U 232015Z AUTO 16008G20KT 10SM CLR 07/M01 A2970 RMK A01,M
MEV,2021-12-23 20:15,-119.7500,38.9963,1441.42,33.80,33.80,100.00,110.00,7.00,0.00,29.70,M,3.00,13.00,SCT,SCT,SCT,M,1000.00,1600.00,2500.00,M,RA BR,M,M,M,M,M,M,26.97,KMEV 232015Z AUTO 11007G13KT 3SM RA BR SCT010 SCT016 SCT025 01/01 A2970 RMK AO2,M
BAM,2021-12-23 20:15,-116.8743,40.5990,1382.36,37.40,37.40,100.00,250.00,9.00,0.00,29.67,M,10.00,M,SCT,BKN,OVC,M,2300.00,5000.00,8000.00,M,M,M,M,M,M,M,M,30.23,KBAM 232015Z AUTO 25009KT 10SM SCT023 BKN050 OVC080 03/03 A2967 RMK AO1,M
HTH,2021-12-23 20:15,-118.6315,38.5448,1282.89,42.80,37.40,81.07,160.00,17.00,0.00,29.68,M,5.00,22.00,FEW,OVC,M,M,3000.00,3900.00,M,M,HZ,M,M,M,M,M,M,34.22,KHTH 232015Z AUTO 16017G22KT 5SM HZ FEW030 OVC039 06/03 A2968 RMK A01,M
TMT,2021-12-23 20:15,-117.1971,39.4643,1749.34,37.20,33.30,85.65,200.00,15.00,0.00,29.70,M,10.00,M,OVC,M,M,M,2500.00,M,M,M,-DZ,M,M,M,M,M,M,27.52,KTMT 232015Z AUTO 20015KT 10SM -DZ OVC025 03/01 A2970 RMK AO2 T00290007,M
INS,2021-12-23 20:16,-115.6733,36.5872,955.00,48.20,33.80,57.26,0.00,0.00,0.00,29.85,1010.00,10.00,M,SCT,BKN,BKN,M,2700.00,4700.00,6500.00,M,-RA,M,M,M,M,M,M,48.20,KINS 232016Z AUTO 00000KT 10SM -RA SCT027 BKN047 BKN065 09/01 A2985 RMK AO2 SLP100 VISNO RWY08 $,M
INS,2021-12-23 20:21,-115.6733,36.5872,955.00,48.20,37.40,66.05,0.00,0.00,0.00,29.84,1009.70,9.00,M,BKN,BKN,M,M,3500.00,7000.00,M,M,-RA,M,M,M,M,M,M,48.20,KINS 232021Z AUTO 00000KT 9SM -RA BKN035 BKN070 09/03 A2984 RMK AO2 SLP097 VISNO RWY08 $,M
DRA,2021-12-23 20:33,-116.0278,36.6206,1009.00,53.00,46.00,76.75,200.00,15.00,0.01,29.81,M,10.00,26.00,BKN,BKN,OVC,M,3000.00,4400.00,5500.00,M,-RA,M,M,M,28.00,200.00,2021-12-23 20:19,53.10,KDRA 232033Z AUTO 20015G26KT 10SM -RA BKN030 BKN044 OVC055 12/08 A2981 RMK AO2 PK WND 20028/2019 P0001 T01170078,M
TPH,2021-12-23 20:33,-117.0904,38.0505,1654.00,37.00,36.00,96.13,160.00,6.00,0.00,29.77,M,10.00,M,OVC,M,M,M,400.00,M,M,M,M,M,M,M,M,M,M,31.55,KTPH 232033Z AUTO 16006KT 10SM OVC004 03/02 A2977 RMK AO2 T00280022,M
CXP,2021-12-23 20:35,-119.7326,39.1923,1431.00,37.40,35.60,93.14,0.00,0.00,0.00,29.69,M,3.00,M,CLR,M,M,M,M,M,M,M,BR,M,M,M,M,M,M,37.40,KCXP 232035Z AUTO 00000KT 3SM BR CLR 03/02 A2969 RMK AO2,M
BVU,2021-12-23 20:35,-114.8611,35.9475,671.00,60.80,24.80,25.04,160.00,13.00,0.00,29.86,M,10.00,M,FEW,FEW,M,M,9000.00,12000.00,M,M,M,M,M,M,M,M,M,60.80,KBVU 232035Z AUTO 16013KT 10SM FEW090 FEW120 16/M04 A2986 RMK AO2,M
RTS,2021-12-23 20:35,-119.8764,39.6682,1539.00,32.00,32.00,100.00,120.00,5.00,0.00,29.69,M,0.25,M,BKN,OVC,M,M,300.00,700.00,M,M,-SN,M,M,M,M,M,M,26.40,KRTS 232035Z AUTO 12005KT 1/4SM -SN BKN003 OVC007 00/00 A2969 RMK AO2,M
BAM,2021-12-23 20:35,-116.8743,40.5990,1382.36,37.40,37.40,100.00,260.00,14.00,0.00,29.69,M,10.00,M,SCT,BKN,OVC,M,4500.00,6000.00,8000.00,M,M,M,M,M,M,M,M,28.12,KBAM 232035Z AUTO 26014KT 10SM SCT045 BKN060 OVC080 03/03 A2969 RMK AO1,M
MEV,2021-12-23 20:35,-119.7500,38.9963,1441.42,33.80,33.80,100.00,110.00,7.00,0.00,29.70,M,3.00,12.00,FEW,SCT,M,M,800.00,1300.00,M,M,RA BR,M,M,M,M,M,M,26.97,KMEV 232035Z AUTO 11007G12KT 3SM RA BR FEW008 SCT013 01/01 A2970 RMK AO2,M
05U,2021-12-23 20:35,-116.0051,39.6042,1811.23,41.00,32.00,70.08,150.00,9.00,0.00,29.70,M,10.00,16.00,CLR,M,M,M,M,M,M,M,M,M,M,M,M,M,M,34.70,K05U 232035Z AUTO 15009G16KT 10SM CLR 05/M00 A2970 RMK A01,M
TMT,2021-12-23 20:35,-117.1971,39.4643,1749.34,37.00,33.00,85.64,210.00,12.00,0.00,29.68,M,10.00,16.00,SCT,BKN,OVC,M,2400.00,3100.00,4200.00,M,M,M,M,M,M,M,M,28.37,KTMT 232035Z AUTO 21012G16KT 10SM SCT024 BKN031 OVC042 03/01 A2968 RMK AO2 T00280006,M
HTH,2021-12-23 20:35,-118.6315,38.5448,1282.89,42.80,37.40,81.07,150.00,13.00,0.00,29.69,M,4.00,M,OVC,M,M,M,3700.00,M,M,M,HZ,M,M,M,M,M,M,35.40,KHTH 232035Z AUTO 15013KT 4SM HZ OVC037 06/03 A2969 RMK A01,M
LSV,2021-12-23 20:39,-115.0343,36.2362,570.00,59.00,28.40,30.98,0.00,0.00,0.00,29.85,1010.30,10.00,M,OVC,M,M,M,6000.00,M,M,M,-RA,M,M,M,M,M,M,59.00,KLSV 232039Z AUTO 00000KT 10SM -RA OVC060 15/M02 A2985 RMK AO2 RAB39 SLP103 $,M
INS,2021-12-23 20:41,-115.6733,36.5872,955.00,48.20,35.60,61.52,0.00,0.00,0.00,29.84,1009.70,10.00,M,BKN,M,M,M,4000.00,M,M,M,-RA,M,M,M,M,M,M,48.20,KINS 232041Z AUTO 00000KT 10SM -RA BKN040 09/02 A2984 RMK AO2 SLP097 VISNO RWY08 $,M
RNO,2021-12-23 20:43,-119.7711,39.4839,1341.00,33.00,33.00,100.00,M,5.00,0.07,29.69,M,2.00,M,FEW,OVC,M,M,400.00,1700.00,M,M,-RASN BR,M,M,M,M,M,M,27.70,KRNO 232043Z VRB05KT 2SM -RASN BR FEW004 OVC017 01/01 A2969 RMK AO2 RAB34 P0007 T00060006,M
INS,2021-12-23 20:46,-115.6733,36.5872,955.00,48.20,35.60,61.52,0.00,0.00,0.00,29.84,1009.70,10.00,M,BKN,BKN,M,M,3500.00,7000.00,M,M,-RA,M,M,M,M,M,M,48.20,KINS 232046Z AUTO 00000KT 10SM -RA BKN035 BKN070 09/02 A2984 RMK AO2 SLP097 VISNO RWY08 $,M
WMC,2021-12-23 20:47,-117.8072,40.9019,1315.00,37.00,34.00,88.78,180.00,13.00,T,29.66,M,10.00,M,BKN,OVC,M,M,2600.00,3500.00,M,M,UP,M,M,M,M,M,M,27.97,KWMC 232047Z AUTO 18013KT 10SM UP BKN026 OVC035 03/01 A2966 RMK AO2 UPB08RAB15E19 P0000 T00280011,M
EKO,2021-12-23 20:49,-115.7860,40.8242,1367.00,34.00,30.90,88.27,230.00,8.00,0.05,29.65,M,2.00,M,OVC,M,M,M,1600.00,M,M,M,-SN BR,M,M,M,30.00,250.00,2021-12-23 19:57,26.58,KEKO 232049Z AUTO 23008KT 2SM -SN BR OVC016 01/M01 A2965 RMK AO2 PK WND 25030/1957 RAE38SNB38 P0005 T00111006,M
EKO,2021-12-23 20:52,-115.7860,40.8242,1367.00,33.80,30.20,86.49,230.00,7.00,0.06,29.66,M,1.75,M,OVC,M,M,M,1400.00,M,M,M,-SN BR,M,M,M,30.00,250.00,2021-12-23 19:57,26.97,KEKO 232052Z AUTO 23007KT 1 3/4SM -SN BR OVC014 01/M01 A2966 RMK AO2 PK WND 25030/1957 RAE38SNB38 P0006,M
LSV,2021-12-23 20:52,-115.0343,36.2362,570.00,59.00,33.80,38.56,100.00,7.00,0.00,29.84,1009.90,10.00,M,SCT,M,M,M,6000.00,M,M,M,M,M,M,M,M,M,M,59.00,KLSV 232052Z AUTO 10007KT 10SM SCT060 15/01 A2984 RMK AO2 RAB39E52 SLP099 $,M
DRA,2021-12-23 20:53,-116.0278,36.6206,1009.00,54.00,46.00,74.26,200.00,13.00,0.01,29.79,1007.30,10.00,24.00,FEW,BKN,OVC,M,3200.00,8000.00,9000.00,M,M,M,M,M,28.00,200.00,2021-12-23 20:19,54.00,KDRA 232053Z AUTO 20013G24KT 10SM FEW032 BKN080 OVC090 12/08 A2979 RMK AO2 PK WND 20028/2019 RAE44 SLP073 P0001 60001 T01220078 58028,M
P68,2021-12-23 20:53,-116.0056,39.6014,1993.00,42.00,30.90,64.24,180.00,9.00,0.00,29.67,1002.00,M,19.00,M,M,M,M,M,M,M,M,M,M,M,M,27.00,200.00,2021-12-23 20:08,36.07,KP68 232053Z AUTO 18009G19KT 06/M01 A2967 RMK AO1 PK WND 20027/2008 SLP020 T00561006 56024,M
VGT,2021-12-23 20:53,-115.1933,36.2111,667.00,57.00,30.00,35.54,110.00,3.00,T,29.84,1012.00,10.00,M,FEW,SCT,BKN,M,5000.00,6000.00,9000.00,M,M,M,M,M,M,M,M,57.00,KVGT 232053Z 11003KT 10SM FEW050 SCT060 BKN090 14/M01 A2984 RMK AO2 RAB20E43 SLP120 P0000 60000 T01391011 56034,M
LOL,2021-12-23 20:53,-118.5701,40.0684,1192.43,38.00,37.00,96.52,180.00,10.00,0.00,29.70,1006.70,10.00,M,SCT,BKN,OVC,M,400.00,1500.00,10000.00,M,M,M,M,M,M,M,M,30.37,KLOL 232053Z AUTO 18010KT 10SM SCT004 BKN015 OVC100 03/03 A2970 RMK AO2 SLP067 6//// T00330028 58003 $,M
ELY,2021-12-23 20:53,-114.8453,39.2950,1909.00,41.00,32.00,70.08,200.00,21.00,0.00,29.71,1003.60,10.00,44.00,SCT,M,M,M,3100.00,M,M,M,M,M,M,M,44.00,210.00,2021-12-23 20:44,30.86,KELY 232053Z AUTO 20021G44KT 10SM SCT031 05/00 A2971 RMK AO2 PK WND 21044/2044 SLP036 T00500000 58021,M
05U,2021-12-23 20:55,-116.0051,39.6042,1811.23,42.80,32.00,65.38,180.00,7.00,0.00,29.69,M,9.00,16.00,FEW,FEW,SCT,M,3100.00,3600.00,4400.00,M,M,M,M,M,M,M,M,37.94,K05U 232055Z AUTO 18007G16KT 9SM FEW031 FEW036 SCT044 06/M00 A2969 RMK A01,M
RNO,2021-12-23 20:55,-119.7711,39.4839,1341.00,34.00,33.00,96.46,M,3.00,0.08,29.68,1004.60,2.00,M,FEW,OVC,M,M,400.00,1700.00,M,M,-RASN BR,M,M,M,M,M,M,30.97,KRNO 232055Z VRB03KT 2SM -RASN BR FEW004 OVC017 01/01 A2968 RMK AO2 RAB34 SLP046 P0008 60033 T00110006 58012,M
BVU,2021-12-23 20:55,-114.8611,35.9475,671.00,60.80,24.80,25.04,170.00,13.00,0.00,29.86,M,10.00,M,FEW,FEW,SCT,M,5500.00,6500.00,9500.00,M,M,M,M,M,M,M,M,60.80,KBVU 232055Z AUTO 17013KT 10SM FEW055 FEW065 SCT095 16/M04 A2986 RMK AO2,M
CXP,2021-12-23 20:55,-119.7326,39.1923,1431.00,35.60,35.60,100.00,0.00,0.00,0.00,29.68,M,2.50,M,BKN,BKN,BKN,M,500.00,900.00,1300.00,M,-RA,M,M,M,M,M,M,35.60,KCXP 232055Z AUTO 00000KT 2 1/2SM -RA BKN005 BKN009 BKN013 02/02 A2968 RMK AO2,M
RTS,2021-12-23 20:55,-119.8764,39.6682,1539.00,32.00,32.00,100.00,0.00,0.00,0.05,29.69,M,1.00,M,BKN,M,M,M,200.00,M,M,M,-SN,M,M,M,M,M,M,32.00,KRTS 232055Z AUTO 00000KT 1SM -SN BKN002 00/00 A2969 RMK AO2 P0005,M
MEV,2021-12-23 20:55,-119.7500,38.9963,1441.42,35.60,33.80,93.08,130.00,8.00,0.19,29.68,M,4.00,M,FEW,SCT,M,M,1100.00,1600.00,M,M,UP BR,M,M,M,M,M,M,28.55,KMEV 232055Z AUTO 13008KT 4SM UP BR FEW011 SCT016 02/01 A2968 RMK AO2 P0019,M
BAM,2021-12-23 20:55,-116.8743,40.5990,1382.36,37.40,37.40,100.00,250.00,11.00,0.00,29.70,M,5.00,M,BKN,BKN,OVC,M,2400.00,3400.00,6000.00,M,M,M,M,M,M,M,M,29.29,KBAM 232055Z AUTO 25011KT 5SM BKN024 BKN034 OVC060 03/03 A2970 RMK AO1,M
HTH,2021-12-23 20:55,-118.6315,38.5448,1282.89,42.80,37.40,81.07,160.00,12.00,0.09,29.68,M,3.00,M,OVC,M,M,M,3500.00,M,M,M,HZ,M,M,M,M,M,M,35.75,KHTH 232055Z AUTO 16012KT 3SM HZ OVC035 06/03 A2968 RMK A01 P0009,M
TMT,2021-12-23 20:55,-117.1971,39.4643,1749.34,37.40,33.30,84.98,220.00,9.00,0.00,29.68,M,10.00,15.00,SCT,BKN,OVC,M,3100.00,4200.00,5000.00,M,M,M,M,M,M,M,M,30.23,KTMT 232055Z AUTO 22009G15KT 10SM SCT031 BKN042 OVC050 03/01 A2968 RMK AO2 60001 T00300007,M
EKO,2021-12-23 20:56,-115.7860,40.8242,1367.00,34.00,30.90,88.27,220.00,7.00,0.07,29.65,1005.90,1.50,M,FEW,OVC,M,M,900.00,1400.00,M,M,-SN BR,M,M,M,30.00,250.00,2021-12-23 19:57,27.22,KEKO 232056Z AUTO 22007KT 1 1/2SM -SN BR FEW009 OVC014 01/M01 A2965 RMK AO2 PK WND 25030/1957 RAE38SNB38 SLP059 P0007 60007 T00111006 56008,M
HND,2021-12-23 20:56,-115.1344,35.9729,742.79,56.00,36.00,47.05,10.00,6.00,0.00,29.86,1012.70,10.00,M,OVC,M,M,M,5000.00,M,M,M,M,M,M,M,M,M,M,55.90,KHND 232056Z 01006KT 10SM OVC050 13/02 A2986 RMK AO2 SLP127 60000 T01330022 56032,M
TPH,2021-12-23 20:56,-117.0904,38.0505,1654.00,37.00,36.00,96.13,0.00,0.00,0.00,29.76,1009.10,10.00,M,OVC,M,M,M,400.00,M,M,M,M,M,M,M,M,M,M,37.00,KTPH 232056Z AUTO 00000KT 10SM OVC004 03/02 A2976 RMK AO2 SLP091 T00280022 56025,M
WMC,2021-12-23 20:56,-117.8072,40.9019,1315.00,37.00,34.00,88.78,160.00,13.00,T,29.66,1004.40,10.00,23.00,BKN,OVC,M,M,2800.00,3600.00,M,M,UP,M,M,M,M,M,M,27.97,KWMC 232056Z AUTO 16013G23KT 10SM UP BKN028 OVC036 03/01 A2966 RMK AO2 UPB08RAB15E19 SLP044 P0000 60005 T00280011 55015,M
NFL,2021-12-23 20:56,-118.7010,39.4166,1199.00,40.00,37.00,89.27,140.00,4.00,0.14,29.68,1003.40,6.00,M,FEW,BKN,OVC,M,1500.00,2800.00,4000.00,M,-RA BR,M,M,M,M,M,M,36.65,KNFL 232056Z 14004KT 6SM -RA BR FEW015 BKN028 OVC040 04/03 A2968 RMK AO2 SLP034 P0014 60045 T00440028 58016,M
INS,2021-12-23 20:56,-115.6733,36.5872,955.00,48.20,37.40,66.05,160.00,3.00,0.00,29.84,1009.70,10.00,M,SCT,BKN,BKN,M,2100.00,6000.00,7000.00,M,-RA,M,M,M,M,M,M,47.21,KINS 232056Z AUTO 16003KT 10SM -RA SCT021 BKN060 BKN070 09/03 A2984 RMK AO2 SLP097 VISNO RWY08 $,M
LAS,2021-12-23 20:56,-115.1634,36.0719,663.00,55.00,35.00,46.91,0.00,0.00,T,29.85,1010.40,10.00,M,BKN,OVC,M,M,5000.00,6500.00,M,M,-RA,M,M,M,M,M,M,55.00,KLAS 232056Z 00000KT 10SM -RA BKN050 OVC065 13/02 A2985 RMK AO2 RAB31 SLP104 P0000 60000 T01280017 56034,M
LSV,2021-12-23 20:58,-115.0343,36.2362,570.00,58.50,31.60,35.93,110.00,7.00,T,29.84,1009.90,10.00,M,BKN,BKN,M,M,6000.00,20000.00,M,M,M,M,M,M,M,M,M,58.50,KLSV 232058Z AUTO 11007KT 10SM BKN060 BKN200 15/M00 A2984 RMK AO2 RAB39E52 SLP099 P0000 60000 T01471002 57034 $,M
INS,2021-12-23 20:58,-115.6733,36.5872,955.00,47.30,38.30,70.78,150.00,3.00,0.01,29.84,1009.70,10.00,M,SCT,BKN,BKN,M,2100.00,6000.00,7000.00,M,-RA,M,M,M,M,M,M,46.18,KINS 232058Z AUTO 15003KT 10SM -RA SCT021 BKN060 BKN070 09/04 A2984 RMK AO2 SLP097 P0001 60001 T00850035 57028 VISNO RWY08 $,M
INS,2021-12-23 21:03,-115.6733,36.5872,955.00,46.40,39.20,75.84,0.00,0.00,0.00,29.83,1009.30,10.00,M,FEW,SCT,M,M,2000.00,7000.00,M,M,-RA,M,M,M,M,M,M,46.40,KINS 232103Z AUTO 00000KT 10SM -RA FEW020 SCT070 08/04 A2983 RMK AO2 SLP093 VISNO RWY08 $,M
LOL,2021-12-23 21:04,-118.5701,40.0684,1192.43,39.00,38.00,95.78,170.00,9.00,0.00,29.67,M,10.00,M,BKN,BKN,OVC,M,400.00,1500.00,6000.00,M,M,M,M,M,M,M,M,32.22,KLOL 232104Z AUTO 17009KT 10SM BKN004 BKN015 OVC060 04/03 A2967 RMK AO2 PRESFR T00390033 $,M
EKO,2021-12-23 21:05,-115.7860,40.8242,1367.00,33.00,30.90,91.51,220.00,6.00,0.01,29.65,M,2.00,M,FEW,OVC,M,M,900.00,1600.00,M,M,-SN BR,M,M,M,M,M,M,26.86,KEKO 232105Z AUTO 22006KT 2SM -SN BR FEW009 OVC016 01/M01 A2965 RMK AO2 P0001 T00061006,M
TPH,2021-12-23 21:07,-117.0904,38.0505,1654.00,37.00,36.00,96.13,0.00,0.00,0.00,29.76,M,10.00,M,OVC,M,M,M,500.00,M,M,M,M,M,M,M,M,M,M,37.00,KTPH 232107Z AUTO 00000KT 10SM OVC005 03/02 A2976 RMK AO2 T00280022,M
BAM,2021-12-23 21:15,-116.8743,40.5990,1382.36,37.40,37.40,100.00,260.00,9.00,0.00,29.69,M,7.00,16.00,SCT,BKN,OVC,M,2400.00,3400.00,4900.00,M,M,M,M,M,M,M,M,30.23,KBAM 232115Z AUTO 26009G16KT 7SM SCT024 BKN034 OVC049 03/03 A2969 RMK AO1,M
TMT,2021-12-23 21:15,-117.1971,39.4643,1749.34,36.70,33.40,87.70,250.00,9.00,0.00,29.67,M,10.00,M,BKN,BKN,OVC,M,3100.00,4000.00,4700.00,M,-DZ,M,M,M,M,M,M,29.36,KTMT 232115Z AUTO 25009KT 10SM -DZ BKN031 BKN040 OVC047 03/01 A2967 RMK AO2 T00260008,M
HTH,2021-12-23 21:15,-118.6315,38.5448,1282.89,42.80,37.40,81.07,330.00,13.00,0.00,29.70,M,6.00,21.00,FEW,FEW,OVC,M,1200.00,2200.00,3400.00,M,HZ,M,M,M,M,M,M,35.40,KHTH 232115Z AUTO 33013G21KT 6SM HZ FEW012 FEW022 OVC034 06/03 A2970 RMK A01,M
05U,2021-12-23 21:15,-116.0051,39.6042,1811.23,39.20,32.00,75.16,140.00,12.00,0.00,29.68,M,10.00,M,FEW,FEW,BKN,M,3100.00,3800.00,5500.00,M,M,M,M,M,M,M,M,31.17,K05U 232115Z AUTO 14012KT 10SM FEW031 FEW038 BKN055 04/00 A2968 RMK A01,M
MEV,2021-12-23 21:15,-119.7500,38.9963,1441.42,35.60,33.80,93.08,150.00,9.00,0.00,29.70,M,3.00,M,FEW,M,M,M,1400.00,M,M,M,UP BR,M,M,M,M,M,M,27.99,KMEV 232115Z AUTO 15009KT 3SM UP BR FEW014 02/01 A2970 RMK AO2,M
RTS,2021-12-23 21:15,-119.8764,39.6682,1539.00,32.00,32.00,100.00,110.00,3.00,0.00,29.66,M,1.25,M,BKN,M,M,M,200.00,M,M,M,-SN,M,M,M,M,M,M,28.69,KRTS 232115Z AUTO 11003KT 1 1/4SM -SN BKN002 00/00 A2966 RMK AO2,M
CXP,2021-12-23 21:15,-119.7326,39.1923,1431.00,35.60,35.60,100.00,0.00,0.00,0.00,29.70,M,4.00,M,BKN,BKN,M,M,700.00,1000.00,M,M,-RA,M,M,M,M,M,M,35.60,KCXP 232115Z AUTO 00000KT 4SM -RA BKN007 BKN010 02/02 A2970 RMK AO2,M
BVU,2021-12-23 21:15,-114.8611,35.9475,671.00,57.20,32.00,38.26,180.00,12.00,0.00,29.86,M,9.00,M,FEW,SCT,BKN,M,4600.00,5500.00,8000.00,M,-RA,M,M,M,M,M,M,57.20,KBVU 232115Z AUTO 18012KT 9SM -RA FEW046 SCT055 BKN080 14/00 A2986 RMK AO2,M
EKO,2021-12-23 21:16,-115.7860,40.8242,1367.00,34.00,32.00,92.29,220.00,5.00,0.02,29.65,M,3.00,M,SCT,OVC,M,M,900.00,1600.00,M,M,-SN BR,M,M,M,M,M,M,28.77,KEKO 232116Z AUTO 22005KT 3SM -SN BR SCT009 OVC016 01/00 A2965 RMK AO2 P0002 T00110000,M
LOL,2021-12-23 21:16,-118.5701,40.0684,1192.43,39.00,38.00,95.78,170.00,7.00,0.00,29.67,M,10.00,M,BKN,BKN,OVC,M,300.00,7000.00,9000.00,M,M,M,M,M,M,M,M,33.31,KLOL 232116Z AUTO 17007KT 10SM BKN003 BKN070 OVC090 04/03 A2967 RMK AO2 T00390033 $,M
RNO,2021-12-23 21:25,-119.7711,39.4839,1341.00,33.00,33.00,100.00,0.00,0.00,0.04,29.68,M,1.00,M,OVC,M,M,M,1200.00,M,M,M,-SN BR,M,M,M,M,M,M,33.10,KRNO 232125Z 00000KT 1SM R16R/5500VP6000FT -SN BR OVC012 01/01 A2968 RMK AO2 TWR VIS 2 RAE23 P0004 T00060006,M
EKO,2021-12-23 21:25,-115.7860,40.8242,1367.00,34.00,32.00,92.29,210.00,6.00,0.03,29.66,M,2.50,M,FEW,OVC,M,M,900.00,1800.00,M,M,-SN BR,M,M,M,M,M,M,27.94,KEKO 232125Z AUTO 21006KT 2 1/2SM -SN BR FEW009 OVC018 01/00 A2966 RMK AO2 P0003 T00110000,M
LOL,2021-12-23 21:27,-118.5701,40.0684,1192.43,39.00,38.00,95.78,160.00,8.00,0.00,29.66,M,10.00,M,SCT,OVC,M,M,400.00,9000.00,M,M,M,M,M,M,M,M,M,32.74,KLOL 232127Z AUTO 16008KT 10SM SCT004 OVC090 04/03 A2966 RMK AO2 T00390033 $,M
TPH,2021-12-23 21:29,-117.0904,38.0505,1654.00,37.00,36.00,96.13,120.00,4.00,0.00,29.74,M,9.00,M,OVC,M,M,M,400.00,M,M,M,M,M,M,M,M,M,M,33.26,KTPH 232129Z AUTO 12004KT 9SM OVC004 03/02 A2974 RMK AO2 T00280022,M
WMC,2021-12-23 21:29,-117.8072,40.9019,1315.00,37.00,33.00,85.64,160.00,15.00,T,29.64,M,10.00,M,FEW,OVC,M,M,2800.00,3400.00,M,M,-RA,M,M,M,M,M,M,27.26,KWMC 232129Z AUTO 16015KT 10SM -RA FEW028 OVC034 03/01 A2964 RMK AO2 UPE06RAB06 P0000 T00280006,M
LOL,2021-12-23 21:34,-118.5701,40.0684,1192.43,39.00,38.00,95.78,170.00,11.00,0.00,29.67,M,10.00,M,BKN,BKN,OVC,M,400.00,9000.00,10000.00,M,M,M,M,M,M,M,M,31.31,KLOL 232134Z AUTO 17011KT 10SM BKN004 BKN090 OVC100 04/03 A2967 RMK AO2 T00390033 $,M
BVU,2021-12-23 21:35,-114.8611,35.9475,671.00,57.20,33.80,41.13,170.00,10.00,0.00,29.85,M,10.00,M,FEW,SCT,SCT,M,4700.00,6000.00,7000.00,M,M,M,M,M,M,M,M,57.20,KBVU 232135Z AUTO 17010KT 10SM FEW047 SCT060 SCT070 14/01 A2985 RMK AO2,M
TMT,2021-12-23 21:35,-117.1971,39.4643,1749.34,37.80,33.30,83.65,250.00,10.00,0.00,29.67,M,10.00,M,BKN,BKN,OVC,M,3100.00,3700.00,4400.00,M,-DZ,M,M,M,M,M,M,30.24,KTMT 232135Z AUTO 25010KT 10SM -DZ BKN031 BKN037 OVC044 03/01 A2967 RMK AO2 T00320007,M
HTH,2021-12-23 21:35,-118.6315,38.5448,1282.89,41.00,41.00,100.00,360.00,15.00,0.00,29.71,M,3.00,20.00,SCT,BKN,OVC,M,500.00,2000.00,3200.00,M,BR,M,M,M,M,M,M,32.45,KHTH 232135Z AUTO 36015G20KT 3SM BR SCT005 BKN020 OVC032 05/05 A2971 RMK A01,M
CXP,2021-12-23 21:35,-119.7326,39.1923,1431.00,35.60,35.60,100.00,0.00,0.00,0.00,29.71,M,3.00,M,SCT,BKN,M,M,800.00,1400.00,M,M,-RA,M,M,M,M,M,M,35.60,KCXP 232135Z AUTO 00000KT 3SM -RA SCT008 BKN014 02/02 A2971 RMK AO2,M
RTS,2021-12-23 21:35,-119.8764,39.6682,1539.00,32.00,32.00,100.00,90.00,7.00,0.00,29.66,M,1.00,M,BKN,BKN,M,M,200.00,600.00,M,M,-SN,M,M,M,M,M,M,24.78,KRTS 232135Z AUTO 09007KT 1SM -SN BKN002 BKN006 00/00 A2966 RMK AO2,M
05U,2021-12-23 21:35,-116.0051,39.6042,1811.23,42.80,30.20,60.79,200.00,6.00,0.00,29.68,M,10.00,M,BKN,BKN,M,M,5000.00,6000.00,M,M,M,M,M,M,M,M,M,38.54,K05U 232135Z AUTO 20006KT 10SM BKN050 BKN060 06/M01 A2968 RMK A01,M
MEV,2021-12-23 21:35,-119.7500,38.9963,1441.42,35.60,33.80,93.08,190.00,5.00,0.00,29.71,M,3.00,M,FEW,M,M,M,1000.00,M,M,M,RA BR,M,M,M,M,M,M,30.67,KMEV 232135Z AUTO 19005KT 3SM RA BR FEW010 02/01 A2971 RMK AO2,M
BAM,2021-12-23 21:35,-116.8743,40.5990,1382.36,37.40,37.40,100.00,220.00,10.00,0.00,29.67,M,10.00,M,SCT,SCT,OVC,M,4000.00,4700.00,9000.00,M,M,M,M,M,M,M,M,29.74,KBAM 232135Z AUTO 22010KT 10SM SCT040 SCT047 OVC090 03/03 A2967 RMK AO1,M
EKO,2021-12-23 21:36,-115.7860,40.8242,1367.00,34.00,32.00,92.29,220.00,4.00,0.04,29.66,M,4.00,M,SCT,OVC,M,M,800.00,1600.00,M,M,-SN BR,M,M,M,M,M,M,29.76,KEKO 232136Z AUTO 22004KT 4SM -SN BR SCT008 OVC016 01/00 A2966 RMK AO2 P0004 T00110000,M
EKO,2021-12-23 21:39,-115.7860,40.8242,1367.00,34.00,32.00,92.29,230.00,4.00,0.04,29.66,M,5.00,M,BKN,OVC,M,M,800.00,1600.00,M,M,-SN BR,M,M,M,M,M,M,29.76,KEKO 232139Z AUTO 23004KT 5SM -SN BR BKN008 OVC016 01/00 A2966 RMK AO2 P0004 T00110000,M
RNO,2021-12-23 21:39,-119.7711,39.4839,1341.00,33.00,33.00,100.00,170.00,4.00,0.06,29.68,M,1.75,M,SCT,OVC,M,M,600.00,1700.00,M,M,-SN BR,M,M,M,M,M,M,28.70,KRNO 232139Z 17004KT 1 3/4SM -SN BR SCT006 OVC017 01/01 A2968 RMK AO2 RAE23B35E37 P0006 T00060006,M
ELY,2021-12-23 21:39,-114.8453,39.2950,1909.00,41.00,32.00,70.08,190.00,23.00,0.00,29.70,M,10.00,40.00,BKN,BKN,M,M,2800.00,3300.00,M,M,M,M,M,M,40.00,190.00,2021-12-23 21:32,30.41,KELY 232139Z AUTO 19023G40KT 10SM BKN028 BKN033 05/00 A2970 RMK AO2 PK WND 19040/2132 T00500000 $,M
LSV,2021-12-23 21:41,-115.0343,36.2362,570.00,59.00,33.80,38.56,150.00,5.00,0.00,29.84,1010.10,10.00,M,OVC,M,M,M,5500.00,M,M,M,-RA,M,M,M,M,M,M,59.00,KLSV 232141Z AUTO 15005KT 10SM -RA OVC055 15/01 A2984 RMK AO2 RAB41 SLP101 $,M
LOL,2021-12-23 21:42,-118.5701,40.0684,1192.43,39.00,38.00,95.78,170.00,9.00,0.00,29.66,M,10.00,M,FEW,SCT,OVC,M,400.00,6500.00,10000.00,M,M,M,M,M,M,M,M,32.22,KLOL 232142Z AUTO 17009KT 10SM FEW004 SCT065 OVC100 04/03 A2966 RMK AO2 T00390033 $,M
INS,2021-12-23 21:43,-115.6733,36.5872,955.00,46.40,39.20,75.84,330.00,4.00,0.00,29.82,1009.00,10.00,M,SCT,BKN,M,M,3300.00,4500.00,M,M,-RA,M,M,M,M,M,M,44.24,KINS 232143Z AUTO 33004KT 10SM -RA SCT033 BKN045 08/04 A2982 RMK AO2 SLP090 VISNO RWY08 $,M
RNO,2021-12-23 21:44,-119.7711,39.4839,1341.00,33.00,32.00,95.67,180.00,6.00,0.06,29.69,M,1.00,M,OVC,M,M,M,1100.00,M,M,M,-SN BR,M,M,M,M,M,M,26.86,KRNO 232144Z 18006KT 1SM R16R/3500VP6000FT -SN BR OVC011 01/00 A2969 RMK AO2 RAE23B35E37 P0006 T00060000,M
EKO,2021-12-23 21:47,-115.7860,40.8242,1367.00,34.00,32.00,92.29,250.00,9.00,0.04,29.67,M,5.00,M,FEW,OVC,M,M,700.00,1300.00,M,M,-SN BR,M,M,M,M,M,M,26.00,KEKO 232147Z AUTO 25009KT 5SM -SN BR FEW007 OVC013 01/00 A2967 RMK AO2 P0004 T00110000,M
INS,2021-12-23 21:48,-115.6733,36.5872,955.00,46.40,39.20,75.84,320.00,5.00,0.00,29.82,1009.00,10.00,M,BKN,M,M,M,3900.00,M,M,M,-RA,M,M,M,M,M,M,43.50,KINS 232148Z AUTO 32005KT 10SM -RA BKN039 08/04 A2982 RMK AO2 SLP090 VISNO RWY08 $,M
INS,2021-12-23 21:53,-115.6733,36.5872,955.00,46.40,39.20,75.84,350.00,5.00,0.00,29.82,1009.00,10.00,M,BKN,M,M,M,4600.00,M,M,M,-RA,M,M,M,M,M,M,43.50,KINS 232153Z AUTO 35005KT 10SM -RA BKN046 08/04 A2982 RMK AO2 SLP090 VISNO RWY08 $,M
DRA,2021-12-23 21:53,-116.0278,36.6206,1009.00,53.00,45.00,73.89,200.00,18.00,0.01,29.77,1006.60,10.00,25.00,FEW,BKN,OVC,M,3900.00,7000.00,9500.00,M,M,M,M,M,29.00,200.00,2021-12-23 21:05,53.10,KDRA 232153Z AUTO 20018G25KT 10SM FEW039 BKN070 OVC095 12/07 A2977 RMK AO2 PK WND 20029/2105 RAB10E53 SLP066 P0001 T01170072,M
ELY,2021-12-23 21:53,-114.8453,39.2950,1909.00,39.00,32.00,75.75,190.00,19.00,0.00,29.70,1004.10,10.00,28.00,SCT,BKN,BKN,M,2800.00,3300.00,11000.00,M,M,M,M,M,40.00,190.00,2021-12-23 21:32,28.69,KELY 232153Z AUTO 19019G28KT 10SM SCT028 BKN033 BKN110 04/00 A2970 RMK AO2 PK WND 19040/2132 SLP041 T00390000 $,M
LOL,2021-12-23 21:53,-118.5701,40.0684,1192.43,39.00,38.00,95.78,180.00,11.00,0.00,29.66,1005.50,10.00,M,FEW,BKN,M,M,300.00,11000.00,M,M,M,M,M,M,M,M,M,31.31,KLOL 232153Z AUTO 18011KT 10SM FEW003 BKN110 04/03 A2966 RMK AO2 SLP055 T00390033 $,M
VGT,2021-12-23 21:53,-115.1933,36.2111,667.00,54.00,36.00,50.42,70.00,3.00,0.01,29.84,1011.80,10.00,M,FEW,OVC,M,M,7500.00,8500.00,M,M,-RA,M,M,M,M,M,M,54.00,KVGT 232153Z 07003KT 10SM -RA FEW075 OVC085 12/02 A2984 RMK AO2 RAB15 SLP118 P0001 T01220022,M
EKO,2021-12-23 21:54,-115.7860,40.8242,1367.00,33.80,30.20,86.49,240.00,8.94,M,29.66,M,4.00,M,BKN,OVC,M,M,898.00,1299.00,M,M,-SN BR,M,M,M,M,M,M,25.78,SPECI KEKO 232154Z 24009KT 4SM -SN BR BKN009 OVC013 01/M01 A2966 RMK AO2 P0005 FIBI,M
TMT,2021-12-23 21:55,-117.1971,39.4643,1749.34,37.00,33.80,88.07,240.00,14.00,0.00,29.68,M,4.00,M,BKN,BKN,OVC,M,2300.00,3000.00,3500.00,M,RA,M,M,M,M,M,M,27.61,KTMT 232155Z AUTO 24014KT 4SM RA BKN023 BKN030 OVC035 03/01 A2968 RMK AO2 T00280010,M
HTH,2021-12-23 21:55,-118.6315,38.5448,1282.89,39.20,39.20,100.00,10.00,18.00,0.15,29.71,M,1.75,M,SCT,SCT,OVC,M,500.00,1300.00,2700.00,M,BR,M,M,M,M,M,M,29.23,KHTH 232155Z AUTO 01018KT 1 3/4SM BR SCT005 SCT013 OVC027 04/04 A2971 RMK A01 P0015,M
BAM,2021-12-23 21:55,-116.8743,40.5990,1382.36,37.40,37.40,100.00,240.00,10.00,0.00,29.67,M,10.00,M,BKN,OVC,M,M,7000.00,9000.00,M,M,M,M,M,M,M,M,M,29.74,KBAM 232155Z AUTO 24010KT 10SM BKN070 OVC090 03/03 A2967 RMK AO1,M
MEV,2021-12-23 21:55,-119.7500,38.9963,1441.42,33.80,32.00,93.03,M,6.00,0.16,29.71,M,3.00,M,BKN,BKN,BKN,M,600.00,1000.00,1500.00,M,-SN BR,M,M,M,M,M,M,27.70,KMEV 232155Z AUTO VRB06KT 3SM -SN BR BKN006 BKN010 BKN015 01/00 A2971 RMK AO2 P0016,M
05U,2021-12-23 21:55,-116.0051,39.6042,1811.23,42.80,30.20,60.79,200.00,12.00,0.00,29.68,M,9.00,M,FEW,SCT,BKN,M,3500.00,4400.00,5000.00,M,M,M,M,M,M,M,M,35.75,K05U 232155Z AUTO 20012KT 9SM FEW035 SCT044 BKN050 06/M01 A2968 RMK A01,M
RTS,2021-12-23 21:55,-119.8764,39.6682,1539.00,32.00,32.00,100.00,110.00,5.00,0.07,29.68,M,4.00,M,BKN,BKN,BKN,M,300.00,2100.00,2700.00,M,-DZ,M,M,M,M,M,M,26.40,KRTS 232155Z AUTO 11005KT 4SM -DZ BKN003 BKN021 BKN027 00/00 A2968 RMK AO2 P0007,M
CXP,2021-12-23 21:55,-119.7326,39.1923,1431.00,35.60,33.80,93.08,0.00,0.00,0.00,29.70,M,3.00,M,BKN,BKN,BKN,M,400.00,1000.00,1500.00,M,-UP,M,M,M,M,M,M,35.60,KCXP 232155Z AUTO 00000KT 3SM -UP BKN004 BKN010 BKN015 02/01 A2970 RMK AO2,M
BVU,2021-12-23 21:55,-114.8611,35.9475,671.00,59.00,32.00,35.87,200.00,9.00,0.00,29.85,M,10.00,M,FEW,FEW,SCT,M,6000.00,7000.00,8500.00,M,M,M,M,M,M,M,M,59.00,KBVU 232155Z AUTO 20009KT 10SM FEW060 FEW070 SCT085 15/00 A2985 RMK AO2,M
RNO,2021-12-23 21:55,-119.7711,39.4839,1341.00,33.00,32.00,95.67,190.00,3.00,0.08,29.69,1005.20,1.00,M,OVC,M,M,M,1100.00,M,M,M,-SN BR,M,M,M,M,M,M,29.95,KRNO 232155Z 19003KT 1SM R16R/4500VP6000FT -SN BR OVC011 01/00 A2969 RMK AO2 TWR VIS 2 RAE23B35E37 SLP052 P0008 T00060000,M
WMC,2021-12-23 21:56,-117.8072,40.9019,1315.00,37.00,33.00,85.64,160.00,10.00,T,29.62,1003.10,10.00,20.00,BKN,OVC,M,M,3000.00,4300.00,M,M,M,M,M,M,M,M,M,29.24,KWMC 232156Z AUTO 16010G20KT 10SM BKN030 OVC043 03/01 A2962 RMK AO2 UPE06RAB06E32 SLP031 P0000 T00280006,M
TPH,2021-12-23 21:56,-117.0904,38.0505,1654.00,37.00,36.00,96.13,130.00,6.00,0.00,29.73,1008.30,6.00,M,OVC,M,M,M,400.00,M,M,M,BR,M,M,M,M,M,M,31.55,KTPH 232156Z AUTO 13006KT 6SM BR OVC004 03/02 A2973 RMK AO2 SLP083 T00280022,M
HND,2021-12-23 21:56,-115.1344,35.9729,742.79,54.00,39.00,56.74,30.00,3.00,T,29.86,1012.80,10.00,M,BKN,OVC,M,M,4000.00,5000.00,M,M,-RA,M,M,M,M,M,M,54.00,KHND 232156Z 03003KT 10SM -RA BKN040 OVC050 12/04 A2986 RMK AO2 RAB43 SLP128 P0000 T01220039,M
EKO,2021-12-23 21:56,-115.7860,40.8242,1367.00,34.00,30.90,88.27,230.00,10.00,0.06,29.66,1006.60,4.00,M,BKN,OVC,M,M,900.00,1300.00,M,M,-SN BR,M,M,M,M,M,M,25.48,KEKO 232156Z AUTO 23010KT 4SM -SN BR BKN009 OVC013 01/M01 A2966 RMK AO2 SLP066 P0006 T00111006,M
LSV,2021-12-23 21:56,-115.0343,36.2362,570.00,57.20,35.60,44.19,0.00,0.00,0.00,29.83,1009.70,10.00,M,BKN,BKN,M,M,5000.00,6500.00,M,M,M,M,M,M,M,M,M,57.20,KLSV 232156Z AUTO 00000KT 10SM BKN050 BKN065 14/02 A2983 RMK AO2 RAB41E56 SLP097 $,M
LAS,2021-12-23 21:56,-115.1634,36.0719,663.00,53.00,43.00,68.46,0.00,0.00,0.01,29.86,1010.60,5.00,M,BKN,OVC,M,M,5000.00,7000.00,M,M,-RA,M,M,M,M,M,M,53.10,KLAS 232156Z 00000KT 5SM -RA BKN050 OVC070 12/06 A2986 RMK AO2 SLP106 P0001 T01170061,M
NFL,2021-12-23 21:56,-118.7010,39.4166,1199.00,39.00,37.00,92.45,140.00,9.00,T,29.70,1004.00,10.00,M,FEW,BKN,OVC,M,1500.00,2800.00,5000.00,M,-RA,M,M,M,M,M,M,32.22,KNFL 232156Z 14009KT 10SM -RA FEW015 BKN028 OVC050 04/03 A2970 RMK AO2 SLP040 P0000 T00390028,M
INS,2021-12-23 21:58,-115.6733,36.5872,955.00,46.60,40.00,77.96,330.00,4.00,0.01,29.82,1009.00,10.00,M,BKN,M,M,M,4600.00,M,M,M,-RA,M,M,M,M,M,M,44.47,KINS 232158Z AUTO 33004KT 10SM -RA BKN046 08/05 A2982 RMK AO2 SLP090 P0001 T00810045 VISNO RWY08 $,M
LSV,2021-12-23 21:58,-115.0343,36.2362,570.00,58.00,34.30,40.92,0.00,0.00,T,29.83,1009.70,10.00,M,BKN,BKN,M,M,5500.00,7000.00,M,M,M,M,M,M,M,M,M,57.90,KLSV 232158Z AUTO 00000KT 10SM BKN055 BKN070 14/01 A2983 RMK AO2 RAB41E56 SLP097 P0000 T01440013 $,M
EKO,2021-12-23 22:03,-115.7860,40.8242,1367.00,34.00,32.00,92.29,220.00,9.00,0.01,29.66,M,3.00,M,SCT,OVC,M,M,900.00,1500.00,M,M,-SN BR,M,M,M,M,M,M,26.00,KEKO 232203Z AUTO 22009KT 3SM -SN BR SCT009 OVC015 01/00 A2966 RMK AO2 P0001 T00110000,M
RNO,2021-12-23 22:05,-119.7711,39.4839,1341.00,33.00,33.00,100.00,230.00,3.00,0.01,29.68,M,2.00,M,SCT,OVC,M,M,600.00,1800.00,M,M,-RASN BR,M,M,M,M,M,M,29.95,KRNO 232205Z 23003KT 2SM -RASN BR SCT006 OVC018 01/01 A2968 RMK AO2 RAB2159 P0001 T00060006,M
05U,2021-12-23 22:10,-116.0051,39.6042,1811.23,41.00,32.00,70.08,210.00,10.00,0.00,29.68,M,9.00,16.00,SCT,BKN,BKN,M,2600.00,3100.00,3700.00,M,M,M,M,M,M,M,M,34.25,K05U 232210Z AUTO 21010G16KT 9SM SCT026 BKN031 BKN037 05/00 A2968 RMK A01,M
BAM,2021-12-23 22:15,-116.8743,40.5990,1382.36,35.60,35.60,100.00,250.00,5.00,0.00,29.67,M,10.00,M,OVC,M,M,M,7000.00,M,M,M,M,M,M,M,M,M,M,30.67,KBAM 232215Z AUTO 25005KT 10SM OVC070 02/02 A2967 RMK AO1,M
TMT,2021-12-23 22:15,-117.1971,39.4643,1749.34,35.00,33.80,94.95,290.00,14.00,0.02,29.72,M,3.00,18.00,BKN,OVC,M,M,1300.00,2100.00,M,M,RA,M,M,M,M,M,M,25.16,KTMT 232215Z AUTO 29014G18KT 3SM RA BKN013 OVC021 02/01 A2972 RMK AO2 P0002 T00170010,M
MEV,2021-12-23 22:15,-119.7500,38.9963,1441.42,33.80,32.00,93.03,110.00,6.00,0.00,29.71,M,2.50,M,SCT,BKN,BKN,M,600.00,1000.00,1500.00,M,-SN BR,M,M,M,M,M,M,27.70,KMEV 232215Z AUTO 11006KT 2 1/2SM -SN BR SCT006 BKN010 BKN015 01/00 A2971 RMK AO2 VIS 1 1/4V3,M
BVU,2021-12-23 22:15,-114.8611,35.9475,671.00,59.00,30.20,33.35,180.00,13.00,0.00,29.85,M,10.00,M,SCT,BKN,BKN,M,6000.00,7500.00,8500.00,M,M,M,M,M,M,M,M,59.00,KBVU 232215Z AUTO 18013KT 10SM SCT060 BKN075 BKN085 15/M01 A2985 RMK AO2,M
HTH,2021-12-23 22:15,-118.6315,38.5448,1282.89,39.20,37.40,93.19,20.00,12.00,0.00,29.73,M,2.50,M,FEW,SCT,OVC,M,1400.00,1900.00,2500.00,M,BR,M,M,M,M,M,M,31.17,KHTH 232215Z AUTO 02012KT 2 1/2SM BR FEW014 SCT019 OVC025 04/03 A2973 RMK A01,M
RTS,2021-12-23 22:15,-119.8764,39.6682,1539.00,33.80,33.80,100.00,140.00,8.00,0.00,29.66,M,10.00,M,FEW,FEW,FEW,M,400.00,2000.00,2500.00,M,-RA,M,M,M,M,M,M,26.33,KRTS 232215Z AUTO 14008KT 10SM -RA FEW004 FEW020 FEW025 01/01 A2966 RMK AO2,M
CXP,2021-12-23 22:15,-119.7326,39.1923,1431.00,33.80,32.00,93.03,0.00,0.00,0.00,29.71,M,1.00,M,OVC,M,M,M,300.00,M,M,M,UP,M,M,M,M,M,M,33.80,KCXP 232215Z AUTO 00000KT 1SM UP OVC003 01/00 A2971 RMK AO2,M
RNO,2021-12-23 22:23,-119.7711,39.4839,1341.00,34.00,32.00,92.29,0.00,0.00,0.02,29.68,M,2.00,M,FEW,BKN,OVC,M,500.00,1800.00,3000.00,M,-RA BR,M,M,M,M,M,M,34.00,KRNO 232223Z 00000KT 2SM R16R/4000VP6000FT -RA BR FEW005 BKN018 OVC030 01/00 A2968 RMK AO2 SFC VIS 3 RAB2159SNE23 P0002 T00110000,M
RNO,2021-12-23 22:29,-119.7711,39.4839,1341.00,34.00,33.00,96.46,0.00,0.00,0.03,29.69,M,2.00,M,FEW,BKN,OVC,M,500.00,1800.00,3000.00,M,-RASN BR,M,M,M,M,M,M,34.00,KRNO 232229Z 00000KT 2SM -RASN BR FEW005 BKN018 OVC030 01/01 A2969 RMK AO2 SFC VIS 3 RAB2159SNE23B29 P0003 T00110006,M
05U,2021-12-23 22:30,-116.0051,39.6042,1811.23,39.20,32.00,75.16,210.00,8.00,0.00,29.68,M,10.00,M,FEW,SCT,OVC,M,2700.00,3300.00,4200.00,M,M,M,M,M,M,M,M,32.98,K05U 232230Z AUTO 21008KT 10SM FEW027 SCT033 OVC042 04/00 A2968 RMK A01,M
LSV,2021-12-23 22:31,-115.0343,36.2362,570.00,57.20,37.40,47.44,0.00,0.00,0.00,29.83,1009.70,10.00,M,BKN,BKN,M,M,4900.00,7000.00,M,M,M,M,M,M,M,M,M,57.20,KLSV 232231Z AUTO 00000KT 10SM BKN049 BKN070 14/03 A2983 RMK AO2 SLP097 $,M
MEV,2021-12-23 22:35,-119.7500,38.9963,1441.42,33.80,33.80,100.00,110.00,7.00,0.00,29.69,M,4.00,M,SCT,SCT,SCT,M,1000.00,1600.00,2100.00,M,-RA BR,M,M,M,M,M,M,26.97,KMEV 232235Z AUTO 11007KT 4SM -RA BR SCT010 SCT016 SCT021 01/01 A2969 RMK AO2,M
RTS,2021-12-23 22:35,-119.8764,39.6682,1539.00,32.00,32.00,100.00,130.00,7.00,0.00,29.67,M,10.00,M,FEW,SCT,BKN,M,500.00,2700.00,3500.00,M,M,M,M,M,M,M,M,24.78,KRTS 232235Z AUTO 13007KT 10SM FEW005 SCT027 BKN035 00/00 A2967 RMK AO2,M
CXP,2021-12-23 22:35,-119.7326,39.1923,1431.00,33.80,32.00,93.03,0.00,0.00,0.00,29.71,M,1.50,M,OVC,M,M,M,300.00,M,M,M,-SN,M,M,M,M,M,M,33.80,KCXP 232235Z AUTO 00000KT 1 1/2SM -SN OVC003 01/00 A2971 RMK AO2,M
BVU,2021-12-23 22:35,-114.8611,35.9475,671.00,57.20,33.80,41.13,170.00,11.00,0.00,29.85,M,10.00,16.00,FEW,SCT,BKN,M,3800.00,4500.00,6500.00,M,M,M,M,M,M,M,M,57.20,KBVU 232235Z AUTO 17011G16KT 10SM FEW038 SCT045 BKN065 14/01 A2985 RMK AO2,M
HTH,2021-12-23 22:35,-118.6315,38.5448,1282.89,37.40,37.40,100.00,0.00,0.00,0.00,29.74,M,2.50,M,SCT,BKN,BKN,M,1400.00,1800.00,2500.00,M,BR,M,M,M,M,M,M,37.40,KHTH 232235Z AUTO 00000KT 2 1/2SM BR SCT014 BKN018 BKN025 03/03 A2974 RMK A01,M
BAM,2021-12-23 22:35,-116.8743,40.5990,1382.36,37.40,37.40,100.00,230.00,10.00,0.00,29.68,M,10.00,M,SCT,BKN,OVC,M,5000.00,6500.00,7500.00,M,M,M,M,M,M,M,M,29.74,KBAM 232235Z AUTO 23010KT 10SM SCT050 BKN065 OVC075 03/03 A2968 RMK AO1,M
TMT,2021-12-23 22:35,-117.1971,39.4643,1749.34,32.20,32.00,99.20,0.00,0.00,0.07,29.72,M,0.75,M,OVC,M,M,M,1100.00,M,M,M,-SN,M,M,M,M,M,M,32.20,KTMT 232235Z AUTO 00000KT 3/4SM -SN OVC011 00/00 A2972 RMK AO2 P0007 T00010000,M
TPH,2021-12-23 22:42,-117.0904,38.0505,1654.00,37.00,37.00,100.00,180.00,3.00,0.00,29.72,M,2.50,M,OVC,M,M,M,200.00,M,M,M,BR,M,M,M,M,M,M,34.40,KTPH 232242Z AUTO 18003KT 2 1/2SM BR OVC002 03/03 A2972 RMK AO2 T00280028,M
LSV,2021-12-23 22:42,-115.0343,36.2362,570.00,59.00,35.60,41.42,0.00,0.00,0.00,29.84,1009.90,10.00,M,BKN,OVC,M,M,4700.00,7000.00,M,M,-RA,M,M,M,M,M,M,59.00,KLSV 232242Z AUTO 00000KT 10SM -RA BKN047 OVC070 15/02 A2984 RMK AO2 RAB42 SLP099 $,M
INS,2021-12-23 22:43,-115.6733,36.5872,955.00,46.40,42.80,87.19,310.00,5.00,0.00,29.81,1008.60,10.00,M,OVC,M,M,M,3900.00,M,M,M,-RA,M,M,M,M,M,M,43.50,KINS 232243Z AUTO 31005KT 10SM -RA OVC039 08/06 A2981 RMK AO2 SLP086 VISNO RWY08 $,M
EKO,2021-12-23 22:44,-115.7860,40.8242,1367.00,34.00,32.00,92.29,210.00,5.00,0.03,29.65,M,9.00,M,FEW,BKN,OVC,M,600.00,3300.00,5000.00,M,UP,M,M,M,M,M,M,28.77,KEKO 232244Z AUTO 21005KT 9SM UP FEW006 BKN033 OVC050 01/00 A2965 RMK AO2 UPB39SNE39 P0003 T00110000,M
TPH,2021-12-23 22:52,-117.0904,38.0505,1654.00,35.60,35.60,100.00,190.00,8.00,0.00,29.71,M,0.75,M,OVC,M,M,M,200.00,M,M,M,BR,M,M,M,M,M,M,28.55,KTPH 232252Z AUTO 19008KT 3/4SM BR OVC002 02/02 A2971 RMK AO2,M
DRA,2021-12-23 22:53,-116.0278,36.6206,1009.00,51.00,45.00,79.54,190.00,16.00,T,29.77,1006.50,10.00,27.00,FEW,BKN,OVC,M,2800.00,6000.00,7500.00,M,M,M,M,M,39.00,210.00,2021-12-23 22:16,51.10,KDRA 232253Z AUTO 19016G27KT 10SM FEW028 BKN060 OVC075 11/07 A2977 RMK AO2 PK WND 21039/2216 RAB40E53 SLP065 P0000 T01060072,M
ELY,2021-12-23 22:53,-114.8453,39.2950,1909.00,37.00,33.00,85.64,160.00,15.00,0.00,29.67,1003.20,10.00,27.00,FEW,SCT,OVC,M,1900.00,2500.00,3000.00,M,M,M,M,M,31.00,180.00,2021-12-23 22:02,27.26,KELY 232253Z AUTO 16015G27KT 10SM FEW019 SCT025 OVC030 03/01 A2967 RMK AO2 PK WND 18031/2202 SLP032 T00280006 $,M
LOL,2021-12-23 22:53,-118.5701,40.0684,1192.43,39.00,36.00,88.87,170.00,16.00,T,29.67,1005.80,10.00,M,SCT,BKN,OVC,M,2500.00,3300.00,10000.00,M,M,M,M,M,M,M,M,29.54,KLOL 232253Z AUTO 17016KT 10SM SCT025 BKN033 OVC100 04/02 A2967 RMK AO2 RAB22E36 SLP058 P0000 T00390022,M
VGT,2021-12-23 22:53,-115.1933,36.2111,667.00,54.00,41.00,61.32,90.00,6.00,0.02,29.83,1011.60,10.00,M,FEW,BKN,OVC,M,3700.00,6000.00,7500.00,M,-RA,M,M,M,M,M,M,54.00,KVGT 232253Z 09006KT 10SM -RA FEW037 BKN060 OVC075 12/05 A2983 RMK AO2 SLP116 P0002 T01220050,M
MEV,2021-12-23 22:55,-119.7500,38.9963,1441.42,33.80,32.00,93.03,0.00,0.00,0.05,29.68,M,2.50,M,BKN,BKN,M,M,1000.00,1400.00,M,M,-SN BR,M,M,M,M,M,M,33.80,KMEV 232255Z AUTO 00000KT 2 1/2SM -SN BR BKN010 BKN014 01/00 A2968 RMK AO2 P0005 VIS 1 1/2V5,M
BAM,2021-12-23 22:55,-116.8743,40.5990,1382.36,37.40,33.80,86.69,210.00,14.00,0.00,29.67,M,10.00,M,SCT,BKN,OVC,M,4200.00,5000.00,6500.00,M,M,M,M,M,M,M,M,28.12,KBAM 232255Z AUTO 21014KT 10SM SCT042 BKN050 OVC065 03/01 A2967 RMK AO1,M
HTH,2021-12-23 22:55,-118.6315,38.5448,1282.89,37.40,37.40,100.00,170.00,4.00,0.20,29.74,M,5.00,M,FEW,BKN,BKN,M,1400.00,2300.00,2700.00,M,BR,M,M,M,M,M,M,33.73,KHTH 232255Z AUTO 17004KT 5SM BR FEW014 BKN023 BKN027 03/03 A2974 RMK A01 P0020,M
RTS,2021-12-23 22:55,-119.8764,39.6682,1539.00,33.80,33.80,100.00,150.00,12.00,0.00,29.68,M,9.00,M,FEW,SCT,BKN,M,1400.00,1900.00,3500.00,M,M,M,M,M,M,M,M,24.29,KRTS 232255Z AUTO 15012KT 9SM FEW014 SCT019 BKN035 01/01 A2968 RMK AO2,M
BVU,2021-12-23 22:55,-114.8611,35.9475,671.00,57.20,35.60,44.19,170.00,9.00,0.00,29.84,M,10.00,16.00,FEW,SCT,BKN,M,3900.00,5000.00,6500.00,M,M,M,M,M,M,M,M,57.20,KBVU 232255Z AUTO 17009G16KT 10SM FEW039 SCT050 BKN065 14/02 A2984 RMK AO2,M
CXP,2021-12-23 22:55,-119.7326,39.1923,1431.00,33.80,33.80,100.00,320.00,3.00,0.00,29.70,M,1.25,M,OVC,M,M,M,300.00,M,M,M,-SN,M,M,M,M,M,M,30.75,KCXP 232255Z AUTO 32003KT 1 1/4SM -SN OVC003 01/01 A2970 RMK AO2,M
TMT,2021-12-23 22:55,-117.1971,39.4643,1749.34,32.00,32.00,100.00,140.00,4.00,0.10,29.73,M,0.75,M,OVC,M,M,M,900.00,M,M,M,-SN,M,M,M,M,M,M,27.42,KTMT 232255Z AUTO 14004KT 3/4SM -SN OVC009 00/00 A2973 RMK AO2 P0010 T00000000,M
RNO,2021-12-23 22:55,-119.7711,39.4839,1341.00,34.00,33.00,96.46,200.00,5.00,0.04,29.69,1004.80,2.00,M,FEW,BKN,OVC,M,500.00,1800.00,3000.00,M,-RASN BR,M,M,M,M,M,M,28.77,KRNO 232255Z 20005KT 2SM -RASN BR FEW005 BKN018 OVC030 01/01 A2969 RMK AO2 SFC VIS 3 RAB2159SNE23B29 SLP048 P0004 T00110006,M
05U,2021-12-23 22:55,-116.0051,39.6042,1811.23,39.20,33.80,80.79,210.00,8.00,0.00,29.69,M,6.00,M,FEW,BKN,OVC,M,1900.00,2800.00,4000.00,M,HZ,M,M,M,M,M,M,32.98,K05U 232255Z AUTO 21008KT 6SM HZ FEW019 BKN028 OVC040 04/01 A2969 RMK A01,M
LAS,2021-12-23 22:56,-115.1634,36.0719,663.00,52.00,45.00,76.94,0.00,0.00,0.07,29.83,1009.80,10.00,M,BKN,BKN,OVC,M,4800.00,5500.00,8000.00,M,-RA,M,M,M,M,M,M,52.00,KLAS 232256Z 00000KT 10SM -RA BKN048 BKN055 OVC080 11/07 A2983 RMK AO2 SLP098 P0007 T01110072,M
HND,2021-12-23 22:56,-115.1344,35.9729,742.79,55.00,49.00,79.85,190.00,8.00,0.01,29.85,1012.20,10.00,M,FEW,OVC,M,M,3400.00,5000.00,M,M,M,M,M,M,M,M,M,55.00,KHND 232256Z 19008KT 10SM FEW034 OVC050 13/09 A2985 RMK AO2 RAE50 SLP122 P0001 T01280094,M
WMC,2021-12-23 22:56,-117.8072,40.9019,1315.00,37.00,33.00,85.64,180.00,15.00,0.00,29.61,1003.30,10.00,24.00,OVC,M,M,M,3600.00,M,M,M,M,M,M,M,M,M,M,27.26,KWMC 232256Z AUTO 18015G24KT 10SM OVC036 03/01 A2961 RMK AO2 SLP033 T00280006,M
TPH,2021-12-23 22:56,-117.0904,38.0505,1654.00,36.00,36.00,100.00,190.00,9.00,0.00,29.71,1007.30,0.25,M,OVC,M,M,M,200.00,M,M,M,FG,M,M,M,M,M,M,28.49,KTPH 232256Z AUTO 19009KT 1/4SM FG OVC002 02/02 A2971 RMK AO2 SLP073 T00220022,M
EKO,2021-12-23 22:56,-115.7860,40.8242,1367.00,34.00,33.00,96.46,210.00,5.00,0.03,29.64,1006.20,10.00,M,BKN,BKN,OVC,M,3300.00,4200.00,5000.00,M,-RA,M,M,M,M,M,M,28.77,KEKO 232256Z AUTO 21005KT 10SM -RA BKN033 BKN042 OVC050 01/01 A2964 RMK AO2 UPB39E53RAB53SNE39 SLP062 P0003 T00110006,M
NFL,2021-12-23 22:56,-118.7010,39.4166,1199.00,40.00,38.00,92.48,130.00,6.00,0.04,29.70,1003.80,6.00,M,OVC,M,M,M,3000.00,M,M,M,-RA BR,M,M,M,M,M,M,35.04,KNFL 232256Z 13006KT 6SM -RA BR OVC030 04/03 A2970 RMK SLP038 P0004 T00440033,M
LSV,2021-12-23 22:58,-115.0343,36.2362,570.00,56.70,38.70,50.83,0.00,0.00,T,29.83,1009.60,10.00,M,BKN,M,M,M,4500.00,M,M,M,-RA,M,M,M,M,M,M,56.70,KLSV 232258Z AUTO 00000KT 10SM -RA BKN045 14/04 A2983 RMK AO2 RAB42 SLP096 P0000 T01370037 $,M
INS,2021-12-23 22:58,-115.6733,36.5872,955.00,46.20,42.30,86.17,80.00,4.00,0.04,29.79,1007.90,10.00,M,SCT,M,M,M,3500.00,M,M,M,-RA,M,M,M,M,M,M,44.00,KINS 232258Z AUTO 08004KT 10SM -RA SCT035 08/06 A2979 RMK AO2 PRESFR SLP079 P0004 T00790057 VISNO RWY08 $,M
INS,2021-12-23 23:00,-115.6733,36.5872,955.00,46.40,42.80,87.19,60.00,3.00,0.00,29.79,1007.90,10.00,M,SCT,M,M,M,3500.00,M,M,M,M,M,M,M,M,M,M,45.15,KINS 232300Z AUTO 06003KT 10SM SCT035 08/06 A2979 RMK AO2 RAE2257DZB2257E00DZB00 SLP079 VISNO RWY08 $,M
LSV,2021-12-23 23:00,-115.0343,36.2362,570.00,57.20,41.00,54.60,0.00,0.00,0.00,29.83,1009.60,10.00,M,BKN,M,M,M,4500.00,M,M,M,M,M,M,M,M,M,M,57.20,KLSV 232300Z AUTO 00000KT 10SM BKN045 14/05 A2983 RMK AO2 RAE00 SLP096 $,M
INS,2021-12-23 23:06,-115.6733,36.5872,955.00,46.40,42.80,87.19,0.00,0.00,0.00,29.79,1007.90,10.00,M,FEW,SCT,SCT,M,3900.00,4900.00,6000.00,M,-RA,M,M,M,M,M,M,46.40,KINS 232306Z AUTO 00000KT 10SM -RA FEW039 SCT049 SCT060 08/06 A2979 RMK AO2 RAE2257DZB2257E00DZB00E00RAB06 SLP079 VISNO RWY08 $,M
ELY,2021-12-23 23:09,-114.8453,39.2950,1909.00,38.00,33.00,82.66,150.00,19.00,T,29.66,M,10.00,29.00,BKN,OVC,M,M,2300.00,3000.00,M,M,-RA,M,M,M,29.00,150.00,2021-12-23 23:06,27.24,KELY 232309Z AUTO 15019G29KT 10SM -RA BKN023 OVC030 03/01 A2966 RMK AO2 PK WND 15029/2306 RAB2255 P0000 T00330006 $,M
INS,2021-12-23 23:11,-115.6733,36.5872,955.00,46.40,42.80,87.19,0.00,0.00,0.00,29.80,1008.30,10.00,M,FEW,BKN,M,M,4500.00,6000.00,M,M,-RA,M,M,M,M,M,M,46.40,KINS 232311Z AUTO 00000KT 10SM -RA FEW045 BKN060 08/06 A2980 RMK AO2 RAE2257DZB2257E00DZB00E00RAB06 SLP083 VISNO RWY08 $,M
RNO,2021-12-23 23:14,-119.7711,39.4839,1341.00,35.00,34.00,95.71,0.00,0.00,0.01,29.67,M,6.00,M,FEW,BKN,OVC,M,500.00,1800.00,3000.00,M,-RASN BR,M,M,M,M,M,M,35.10,KRNO 232314Z 00000KT 6SM -RASN BR FEW005 BKN018 OVC030 02/01 A2967 RMK AO2 P0001 T00170011,M
RTS,2021-12-23 23:15,-119.8764,39.6682,1539.00,33.80,33.80,100.00,130.00,5.00,0.00,29.67,M,10.00,M,FEW,SCT,BKN,M,700.00,2700.00,4000.00,M,M,M,M,M,M,M,M,28.53,KRTS 232315Z AUTO 13005KT 10SM FEW007 SCT027 BKN040 01/01 A2967 RMK AO2,M
TMT,2021-12-23 23:15,-117.1971,39.4643,1749.34,32.00,32.00,100.00,120.00,4.00,0.05,29.73,M,0.50,M,OVC,M,M,M,900.00,M,M,M,SN,M,M,M,M,M,M,27.42,KTMT 232315Z AUTO 12004KT 1/2SM SN OVC009 00/00 A2973 RMK AO2 P0005 T00000000,M
05U,2021-12-23 23:15,-116.0051,39.6042,1811.23,37.40,33.80,86.69,330.00,4.00,0.00,29.71,M,5.00,M,BKN,BKN,M,M,2100.00,2800.00,M,M,HZ,M,M,M,M,M,M,33.73,K05U 232315Z AUTO 33004KT 5SM HZ BKN021 BKN028 03/01 A2971 RMK A01,M
MEV,2021-12-23 23:15,-119.7500,38.9963,1441.42,35.60,33.80,93.08,130.00,10.00,0.00,29.68,M,5.00,M,SCT,BKN,BKN,M,900.00,2000.00,2400.00,M,-RA BR,M,M,M,M,M,M,27.48,KMEV 232315Z AUTO 13010KT 5SM -RA BR SCT009 BKN020 BKN024 02/01 A2968 RMK AO2,M
BAM,2021-12-23 23:15,-116.8743,40.5990,1382.36,37.40,35.60,93.14,210.00,15.00,0.00,29.67,M,10.00,M,BKN,OVC,M,M,5000.00,6500.00,M,M,M,M,M,M,M,M,M,27.78,KBAM 232315Z AUTO 21015KT 10SM BKN050 OVC065 03/02 A2967 RMK AO1,M
BVU,2021-12-23 23:15,-114.8611,35.9475,671.00,59.00,35.60,41.42,170.00,14.00,0.00,29.83,M,10.00,M,FEW,SCT,BKN,M,6500.00,7500.00,11000.00,M,M,M,M,M,M,M,M,59.00,KBVU 232315Z AUTO 17014KT 10SM FEW065 SCT075 BKN110 15/02 A2983 RMK AO2,M
HTH,2021-12-23 23:15,-118.6315,38.5448,1282.89,37.40,35.60,93.14,160.00,8.00,0.00,29.75,M,7.00,M,SCT,SCT,BKN,M,1100.00,2100.00,2600.00,M,M,M,M,M,M,M,M,30.76,KHTH 232315Z AUTO 16008KT 7SM SCT011 SCT021 BKN026 03/02 A2975 RMK A01,M
CXP,2021-12-23 23:15,-119.7326,39.1923,1431.00,33.80,33.80,100.00,M,M,0.00,29.69,M,1.50,M,OVC,M,M,M,400.00,M,M,M,-SN,M,M,M,M,M,M,M,KCXP 232315Z AUTO 1 1/2SM -SN OVC004 01/01 A2969 RMK AO2,M
LSV,2021-12-23 23:22,-115.0343,36.2362,570.00,55.40,41.00,58.27,0.00,0.00,0.00,29.82,1009.40,10.00,M,BKN,M,M,M,4300.00,M,M,M,-RA,M,M,M,M,M,M,55.40,KLSV 232322Z AUTO 00000KT 10SM -RA BKN043 13/05 A2982 RMK AO2 RAE00RAB22 SLP094 $,M
RNO,2021-12-23 23:25,-119.7711,39.4839,1341.00,35.00,35.00,100.00,0.00,0.00,0.01,29.66,M,10.00,M,FEW,SCT,OVC,M,400.00,1800.00,3100.00,M,M,M,M,M,M,M,M,35.10,KRNO 232325Z 00000KT 10SM FEW004 SCT018 OVC031 02/02 A2966 RMK AO2 RAE22SNE22 P0001 T00170017,M
TPH,2021-12-23 23:29,-117.0904,38.0505,1654.00,36.00,36.00,100.00,210.00,3.00,0.00,29.70,M,1.00,M,VV ,M,M,M,200.00,M,M,M,BR,M,M,M,M,M,M,33.26,KTPH 232329Z AUTO 21003KT 1SM BR VV002 02/02 A2970 RMK AO2 T00220022,M
CXP,2021-12-23 23:30,-119.7326,39.1923,1431.00,33.80,33.80,100.00,110.00,3.00,0.00,29.70,M,3.00,M,BKN,BKN,M,M,600.00,3200.00,M,M,-SN,M,M,M,M,M,M,30.75,KCXP 232330Z AUTO 11003KT 3SM -SN BKN006 BKN032 01/01 A2970 RMK AO2,M
INS,2021-12-23 23:31,-115.6733,36.5872,955.00,46.40,44.60,93.40,90.00,3.00,0.00,29.79,1007.90,10.00,M,BKN,BKN,OVC,M,3500.00,5000.00,6000.00,M,-RA,M,M,M,M,M,M,45.15,KINS 232331Z AUTO 09003KT 10SM -RA BKN035 BKN050 OVC060 08/07 A2979 RMK AO2 RAE2257DZB2257E00DZB00E00RAB06 SLP079 VISNO RWY08 $,M
05U,2021-12-23 23:35,-116.0051,39.6042,1811.23,33.80,32.00,93.03,340.00,9.00,0.00,29.72,M,0.25,M,OVC,M,M,M,200.00,M,M,M,FG,M,M,M,M,M,M,25.75,K05U 232335Z AUTO 34009KT 1/4SM FG OVC002 01/M00 A2972 RMK A01,M
BVU,2021-12-23 23:35,-114.8611,35.9475,671.00,57.20,35.60,44.19,180.00,12.00,0.00,29.84,M,10.00,17.00,FEW,BKN,OVC,M,6000.00,7500.00,11000.00,M,M,M,M,M,M,M,M,57.20,KBVU 232335Z AUTO 18012G17KT 10SM FEW060 BKN075 OVC110 14/02 A2984 RMK AO2,M
RTS,2021-12-23 23:35,-119.8764,39.6682,1539.00,33.80,33.80,100.00,170.00,6.00,0.00,29.66,M,10.00,M,FEW,FEW,FEW,M,700.00,1400.00,5000.00,M,M,M,M,M,M,M,M,27.70,KRTS 232335Z AUTO 17006KT 10SM FEW007 FEW014 FEW050 01/01 A2966 RMK AO2,M
MEV,2021-12-23 23:35,-119.7500,38.9963,1441.42,35.60,35.60,100.00,150.00,8.00,0.00,29.69,M,8.00,M,BKN,BKN,BKN,M,2100.00,2600.00,3300.00,M,UP,M,M,M,M,M,M,28.55,KMEV 232335Z AUTO 15008KT 8SM UP BKN021 BKN026 BKN033 02/02 A2969 RMK AO2,M
BAM,2021-12-23 23:35,-116.8743,40.5990,1382.36,37.40,33.80,86.69,220.00,14.00,0.00,29.67,M,7.00,M,SCT,OVC,M,M,4800.00,6500.00,M,M,M,M,M,M,M,M,M,28.12,KBAM 232335Z AUTO 22014KT 7SM SCT048 OVC065 03/01 A2967 RMK AO1,M
HTH,2021-12-23 23:35,-118.6315,38.5448,1282.89,35.60,35.60,100.00,190.00,7.00,0.00,29.76,M,9.00,M,FEW,FEW,SCT,M,1100.00,1600.00,2600.00,M,M,M,M,M,M,M,M,29.17,KHTH 232335Z AUTO 19007KT 9SM FEW011 FEW016 SCT026 02/02 A2976 RMK A01,M
TMT,2021-12-23 23:35,-117.1971,39.4643,1749.34,32.00,32.00,100.00,140.00,5.00,0.10,29.73,M,0.50,M,OVC,M,M,M,700.00,M,M,M,SN,M,M,M,M,M,M,26.40,KTMT 232335Z AUTO 14005KT 1/2SM SN OVC007 00/00 A2973 RMK AO2 P0010 T00000000,M
EKO,2021-12-23 23:38,-115.7860,40.8242,1367.00,35.00,33.00,92.32,210.00,6.00,0.02,29.66,M,8.00,M,OVC,M,M,M,2600.00,M,M,M,-RA,M,M,M,M,M,M,29.26,KEKO 232338Z AUTO 21006KT 8SM -RA OVC026 02/01 A2966 RMK AO2 UPB13E23 P0002 T00170006,M
INS,2021-12-23 23:41,-115.6733,36.5872,955.00,46.40,44.60,93.40,0.00,0.00,0.00,29.79,1007.90,10.00,M,SCT,SCT,BKN,M,3500.00,4400.00,5500.00,M,-RA,M,M,M,M,M,M,46.40,KINS 232341Z AUTO 00000KT 10SM -RA SCT035 SCT044 BKN055 08/07 A2979 RMK AO2 RAE2257DZB2257E00DZB00E00RAB06 SLP079 VISNO RWY08 $,M
TPH,2021-12-23 23:51,-117.0904,38.0505,1654.00,35.60,35.60,100.00,40.00,6.00,0.00,29.70,M,0.25,M,VV ,M,M,M,200.00,M,M,M,FG,M,M,M,M,M,M,29.87,KTPH 232351Z AUTO 04006KT 1/4SM FG VV002 02/02 A2970 RMK AO2,M
DRA,2021-12-23 23:53,-116.0278,36.6206,1009.00,52.00,43.00,71.28,200.00,24.00,T,29.76,1006.30,10.00,37.00,OVC,M,M,M,3100.00,M,M,M,-RA,M,M,M,40.00,240.00,2021-12-23 23:14,52.00,KDRA 232353Z AUTO 20024G37KT 10SM -RA OVC031 11/06 A2976 RMK AO2 PK WND 24040/2314 RAB52 SLP063 P0000 60002 T01110061 10133 20106 56009,M
LOL,2021-12-23 23:53,-118.5701,40.0684,1192.43,40.00,37.00,89.27,210.00,3.00,0.00,29.66,1005.40,10.00,M,FEW,BKN,OVC,M,1600.00,2100.00,11000.00,M,M,M,M,M,M,M,M,37.72,KLOL 232353Z AUTO 21003KT 10SM FEW016 BKN021 OVC110 04/03 A2966 RMK AO2 SLP054 6//// T00440028 10044 20028 56012,M
ELY,2021-12-23 23:53,-114.8453,39.2950,1909.00,37.00,33.00,85.64,170.00,16.00,T,29.66,1002.90,10.00,23.00,FEW,SCT,OVC,M,2100.00,2900.00,3600.00,M,-RA,M,M,M,29.00,150.00,2021-12-23 23:06,26.94,KELY 232353Z AUTO 17016G23KT 10SM -RA FEW021 SCT029 OVC036 03/01 A2966 RMK AO2 PK WND 15029/2306 RAB2255 SLP029 P0000 60000 T00280006 10050 20022 58013 $,M
VGT,2021-12-23 23:53,-115.1933,36.2111,667.00,53.00,42.00,66.13,70.00,6.00,T,29.82,1011.50,10.00,M,FEW,BKN,OVC,M,4300.00,5500.00,7000.00,M,-RA,M,M,M,M,M,M,53.10,KVGT 232353Z 07006KT 10SM -RA FEW043 BKN055 OVC070 12/06 A2982 RMK AO2 SLP115 P0000 60003 T01170056 10144 20117 56006,M
RTS,2021-12-23 23:55,-119.8764,39.6682,1539.00,33.80,32.00,93.03,0.00,0.00,0.00,29.66,M,10.00,M,FEW,SCT,SCT,M,2700.00,3700.00,5000.00,M,M,M,M,M,M,M,M,33.80,KRTS 232355Z AUTO 00000KT 10SM FEW027 SCT037 SCT050 01/00 A2966 RMK AO2,M
MEV,2021-12-23 23:55,-119.7500,38.9963,1441.42,35.60,33.80,93.08,0.00,0.00,0.07,29.70,M,10.00,M,SCT,BKN,OVC,M,2500.00,3100.00,3900.00,M,UP,M,M,M,M,M,M,35.60,KMEV 232355Z AUTO 00000KT 10SM UP SCT025 BKN031 OVC039 02/01 A2970 RMK AO2 P0007,M
BAM,2021-12-23 23:55,-116.8743,40.5990,1382.36,39.20,33.80,80.79,210.00,15.00,0.00,29.65,M,10.00,22.00,SCT,BKN,OVC,M,3400.00,4600.00,6500.00,M,M,M,M,M,M,M,M,30.11,KBAM 232355Z AUTO 21015G22KT 10SM SCT034 BKN046 OVC065 04/01 A2965 RMK AO1,M
TMT,2021-12-23 23:55,-117.1971,39.4643,1749.34,32.00,32.00,100.00,140.00,4.00,0.14,29.74,M,0.75,M,OVC,M,M,M,700.00,M,M,M,-SN,M,M,M,M,M,M,27.42,KTMT 232355Z AUTO 14004KT 3/4SM -SN OVC007 00/00 A2974 RMK AO2 P0014 60025 T00000000 10051 20000,M
05U,2021-12-23 23:55,-116.0051,39.6042,1811.23,33.80,32.00,93.03,0.00,0.00,0.01,29.73,M,0.25,M,OVC,M,M,M,200.00,M,M,M,FG,M,M,M,M,M,M,33.80,K05U 232355Z AUTO 00000KT 1/4SM FG OVC002 01/M00 A2973 RMK A01 P0001,M
RNO,2021-12-23 23:55,-119.7711,39.4839,1341.00,36.00,35.00,96.49,0.00,0.00,0.01,29.65,1003.40,10.00,M,FEW,SCT,BKN,BKN,200.00,2700.00,9000.00,18000.00,M,M,M,M,M,M,M,36.00,KRNO 232355Z 00000KT 10SM FEW002 SCT027 BKN090 BKN180 02/02 A2965 RMK AO2 RAE22SNE22 SLP034 MTN TOPS OBSCD ALQDS P0001 60046 T00220017 10028 20006 58007,M
CXP,2021-12-23 23:55,-119.7326,39.1923,1431.00,33.80,33.80,100.00,0.00,0.00,0.00,29.71,M,3.00,M,SCT,BKN,BKN,M,700.00,1400.00,2500.00,M,-SN,M,M,M,M,M,M,33.80,KCXP 232355Z AUTO 00000KT 3SM -SN SCT007 BKN014 BKN025 01/01 A2971 RMK AO2,M
BVU,2021-12-23 23:55,-114.8611,35.9475,671.00,57.20,37.40,47.44,180.00,10.00,0.00,29.84,M,10.00,M,SCT,BKN,OVC,M,5500.00,7000.00,7500.00,M,M,M,M,M,M,M,M,57.20,KBVU 232355Z AUTO 18010KT 10SM SCT055 BKN070 OVC075 14/03 A2984 RMK AO2,M
HTH,2021-12-23 23:55,-118.6315,38.5448,1282.89,37.40,35.60,93.14,140.00,6.00,0.04,29.74,M,9.00,M,SCT,SCT,BKN,M,1800.00,2300.00,2900.00,M,M,M,M,M,M,M,M,32.03,KHTH 232355Z AUTO 14006KT 9SM SCT018 SCT023 BKN029 03/02 A2974 RMK A01 P0004,M
WMC,2021-12-23 23:56,-117.8072,40.9019,1315.00,36.00,33.00,89.09,160.00,13.00,0.00,29.63,1003.50,10.00,M,FEW,BKN,OVC,M,3200.00,4000.00,5000.00,M,M,M,M,M,27.00,150.00,2021-12-23 23:29,26.69,KWMC 232356Z AUTO 16013KT 10SM FEW032 BKN040 OVC050 02/01 A2963 RMK AO2 PK WND 15027/2329 SLP035 60005 T00220006 10033 20022 55010,M
NFL,2021-12-23 23:56,-118.7010,39.4166,1199.00,40.00,37.00,89.27,150.00,12.00,T,29.70,1004.00,10.00,M,OVC,M,M,M,3000.00,M,M,M,M,M,M,M,M,M,M,32.06,KNFL 232356Z 15012KT 10SM OVC030 04/03 A2970 RMK AO2 RAE12 SLP040 P0000 60049 T00440028 10050 20039 51006,M
TPH,2021-12-23 23:56,-117.0904,38.0505,1654.00,37.00,37.00,100.00,0.00,0.00,0.00,29.70,1005.70,0.25,M,VV ,M,M,M,200.00,M,M,M,FG,M,M,M,M,M,M,37.00,KTPH 232356Z AUTO 00000KT 1/4SM FG VV002 03/03 A2970 RMK AO2 SLP057 T00280028 10028 20022 56009,M
HND,2021-12-23 23:56,-115.1344,35.9729,742.79,54.00,49.00,82.82,170.00,11.00,T,29.85,1012.40,10.00,M,BKN,OVC,M,M,4800.00,8000.00,M,M,-RA,M,M,M,M,M,M,54.00,KHND 232356Z 17011KT 10SM -RA BKN048 OVC080 12/09 A2985 RMK AO2 RAB02 SLP124 P0000 60001 T01220094 10167 20100 55004,M
EKO,2021-12-23 23:56,-115.7860,40.8242,1367.00,35.00,33.00,92.32,220.00,4.00,0.03,29.64,1005.60,9.00,M,FEW,OVC,M,M,1700.00,2400.00,M,M,-RA,M,M,M,M,M,M,31.04,KEKO 232356Z AUTO 22004KT 9SM -RA FEW017 OVC024 02/01 A2964 RMK AO2 UPB13E23 SLP056 P0003 60019 T00170006 10056 20006 58002,M
LAS,2021-12-23 23:56,-115.1634,36.0719,663.00,54.00,49.00,82.82,160.00,6.00,0.01,29.83,1009.80,10.00,M,FEW,SCT,OVC,M,4800.00,5500.00,7000.00,M,-RA,M,M,M,M,M,M,54.00,KLAS 232356Z 16006KT 10SM -RA FEW048 SCT055 OVC070 12/09 A2983 RMK AO2 SLP098 P0001 60009 T01220094 10139 20100 57006,M
LSV,2021-12-23 23:58,-115.0343,36.2362,570.00,54.00,45.30,72.05,0.00,0.00,0.02,29.83,1009.80,10.00,M,BKN,M,M,M,4600.00,M,M,M,-RA,M,M,M,M,M,M,54.10,KLSV 232358Z AUTO 00000KT 10SM -RA BKN046 12/07 A2983 RMK AO2 RAE00RAB22 SLP098 P0002 60002 T01230074 10150 20104 55005 $,M
INS,2021-12-23 23:58,-115.6733,36.5872,955.00,46.20,44.20,92.68,120.00,3.00,T,29.79,1007.90,10.00,M,FEW,BKN,M,M,2700.00,5000.00,M,M,-RA,M,M,M,M,M,M,44.92,KINS 232358Z AUTO 12003KT 10SM -RA FEW027 BKN050 08/07 A2979 RMK AO2 RAE2257DZB2257E00DZB00E00RAB06 SLP079 P0000 60006 T00790068 10095 20071 55013 VISNO RWY08 $,M
INS,2021-12-23 23:59,-115.6733,36.5872,955.00,46.40,44.60,93.40,120.00,3.00,0.00,29.79,1007.90,10.00,M,FEW,BKN,M,M,1300.00,5000.00,M,M,-RA,M,M,M,M,M,M,45.15,KINS 232359Z AUTO 12003KT 10SM -RA FEW013 BKN050 08/07 A2979 RMK AO2 SLP079 VISNO RWY08 $,M
