station,valid,lon,lat,elevation,tmpf,dwpf,relh,drct,sknt,p01i,alti,mslp,vsby,gust,skyc1,skyc2,skyc3,skyc4,skyl1,skyl2,skyl3,skyl4,wxcodes,ice_accretion_1hr,ice_accretion_3hr,ice_accretion_6hr,peak_wind_gust,peak_wind_drct,peak_wind_time,feel,metar,snowdepth
ELY,2022-07-18 00:04,-114.8453,39.2950,1909.00,80.00,48.00,32.46,30.00,14.00,0.00,30.17,M,10.00,25.00,SCT,M,M,M,10000.00,M,M,M,VCTS,M,M,M,M,M,M,79.42,KELY 180004Z AUTO 03014G25KT 10SM VCTS SCT100 27/09 A3017 RMK AO2 LTG DSNT SE T02670089,M
05U,2022-07-18 00:15,-116.0051,39.6042,1811.23,75.20,55.40,50.17,M,M,0.00,30.17,M,10.00,M,FEW,M,M,M,12000.00,M,M,M,M,M,M,M,M,M,M,75.20,K05U 180015Z AUTO 10SM FEW120 24/13 A3017 RMK A01,M
BVU,2022-07-18 00:15,-114.8611,35.9475,671.00,M,M,M,M,M,0.00,M,M,M,M,M,M,M,M,M,M,M,M,M,M,M,M,M,M,M,M,KBVU 180015Z AUTO RMK AO2 PNO PWINO TSNO,M
HTH,2022-07-18 00:15,-118.6315,38.5448,1282.89,96.80,37.40,12.73,330.00,13.00,0.00,29.92,M,10.00,20.00,CLR,M,M,M,M,M,M,M,M,M,M,M,M,M,M,92.04,KHTH 180015Z AUTO 33013G20KT 10SM CLR 36/03 A2992 RMK A01,M
CXP,2022-07-18 00:15,-119.7326,39.1923,1431.00,93.20,42.80,17.55,250.00,12.00,0.00,30.02,M,10.00,22.00,CLR,M,M,M,M,M,M,M,M,M,M,M,M,M,M,89.17,KCXP 180015Z AUTO 25012G22KT 10SM CLR 34/06 A3002 RMK AO2,M
BAM,2022-07-18 00:15,-116.8743,40.5990,1382.36,M,M,M,150.00,6.00,0.00,29.93,M,10.00,M,CLR,M,M,M,M,M,M,M,M,M,M,M,M,M,M,M,KBAM 180015Z AUTO 15006KT 10SM CLR A2993 RMK AO1,M
RTS,2022-07-18 00:15,-119.8764,39.6682,1539.00,91.40,35.60,14.02,240.00,15.00,0.00,30.05,M,10.00,25.00,CLR,M,M,M,M,M,M,M,M,M,M,M,M,M,M,87.17,KRTS 180015Z AUTO 24015G25KT 10SM CLR 33/02 A3005 RMK AO2,M
MEV,2022-07-18 00:15,-119.7500,38.9963,1441.42,95.00,41.00,15.49,240.00,14.00,0.00,30.01,M,10.00,20.00,CLR,M,M,M,M,M,M,M,M,M,M,M,M,M,M,90.70,KMEV 180015Z AUTO 24014G20KT 10SM CLR 35/05 A3001 RMK AO2,M
TMT,2022-07-18 00:15,-117.1971,39.4643,1749.34,73.40,54.30,51.20,180.00,16.00,0.00,30.14,M,10.00,27.00,SCT,SCT,OVC,M,4300.00,7500.00,11000.00,M,-RA,M,M,M,M,M,M,73.40,KTMT 180015Z AUTO 18016G27KT 10SM -RA SCT043 SCT075 OVC110 23/12 A3014 RMK AO2 T02300124,M
ELY,2022-07-18 00:26,-114.8453,39.2950,1909.00,79.00,50.00,36.27,60.00,18.00,0.00,30.18,M,10.00,23.00,BKN,M,M,M,11000.00,M,M,M,M,M,M,M,M,M,M,79.00,KELY 180026Z AUTO 06018G23KT 10SM BKN110 26/10 A3018 RMK AO2 T02610100,M
RTS,2022-07-18 00:35,-119.8764,39.6682,1539.00,89.60,37.40,15.92,240.00,16.00,0.00,30.05,M,10.00,23.00,CLR,M,M,M,M,M,M,M,M,M,M,M,M,M,M,85.67,KRTS 180035Z AUTO 24016G23KT 10SM CLR 32/03 A3005 RMK AO2,M
05U,2022-07-18 00:35,-116.0051,39.6042,1811.23,77.00,51.80,41.42,0.00,0.00,0.00,30.15,M,10.00,M,CLR,M,M,M,M,M,M,M,M,M,M,M,M,M,M,77.00,K05U 180035Z AUTO 00000KT 10SM CLR 25/11 A3015 RMK A01,M
MEV,2022-07-18 00:35,-119.7500,38.9963,1441.42,93.20,42.80,17.55,250.00,14.00,0.00,30.00,M,10.00,25.00,FEW,M,M,M,11000.00,M,M,M,M,M,M,M,M,M,M,89.17,KMEV 180035Z AUTO 25014G25KT 10SM FEW110 34/06 A3000 RMK AO2,M
BAM,2022-07-18 00:35,-116.8743,40.5990,1382.36,M,M,M,150.00,13.00,0.00,29.93,M,10.00,17.00,CLR,M,M,M,M,M,M,M,M,M,M,M,M,M,M,M,KBAM 180035Z AUTO 15013G17KT 10SM CLR A2993 RMK AO1,M
HTH,2022-07-18 00:35,-118.6315,38.5448,1282.89,96.80,37.40,12.73,340.00,9.00,0.00,29.92,M,10.00,M,CLR,M,M,M,M,M,M,M,M,M,M,M,M,M,M,92.04,KHTH 180035Z AUTO 34009KT 10SM CLR 36/03 A2992 RMK A01,M
TMT,2022-07-18 00:35,-117.1971,39.4643,1749.34,M,M,M,160.00,14.00,0.00,30.13,M,10.00,21.00,SCT,SCT,BKN,M,4900.00,6500.00,10000.00,M,M,M,M,M,M,M,M,M,KTMT 180035Z AUTO 16014G21KT 10SM SCT049 SCT065 BKN100 A3013 RMK AO2,M
CXP,2022-07-18 00:35,-119.7326,39.1923,1431.00,91.40,42.80,18.56,250.00,9.00,0.00,30.02,M,10.00,23.00,CLR,M,M,M,M,M,M,M,M,M,M,M,M,M,M,87.52,KCXP 180035Z AUTO 25009G23KT 10SM CLR 33/06 A3002 RMK AO2,M
BVU,2022-07-18 00:35,-114.8611,35.9475,671.00,M,M,M,M,M,0.00,M,M,M,M,M,M,M,M,M,M,M,M,M,M,M,M,M,M,M,M,KBVU 180035Z AUTO RMK AO2 PNO PWINO TSNO,M
HND,2022-07-18 00:51,-115.1344,35.9729,742.79,M,M,M,M,6.00,0.00,29.81,M,10.00,15.00,FEW,M,M,M,9000.00,M,M,M,M,M,M,M,M,M,M,M,KHND 180051Z VRB06G15KT 10SM FEW090 A2981 RMK FX,M
P68,2022-07-18 00:53,-116.0056,39.6014,1993.00,79.00,53.00,40.67,300.00,5.00,0.00,30.12,1011.60,M,M,M,M,M,M,M,M,M,M,M,M,M,M,M,M,M,79.00,KP68 180053Z AUTO 30005KT 26/12 A3012 RMK AO1 SLP116 T02610117,M
DRA,2022-07-18 00:53,-116.0278,36.6206,1009.00,101.00,44.00,14.58,200.00,3.00,0.00,29.88,1005.60,10.00,M,CLR,M,M,M,M,M,M,M,M,M,M,M,M,M,M,96.72,KDRA 180053Z AUTO 20003KT 10SM CLR 38/07 A2988 RMK AO2 SLP056 T03830067,M
LOL,2022-07-18 00:53,-118.5701,40.0684,1192.43,102.00,39.00,11.58,260.00,20.00,0.00,29.86,1005.70,10.00,26.00,CLR,M,M,M,M,M,M,M,M,M,M,M,26.00,260.00,2022-07-18 00:53,96.77,KLOL 180053Z AUTO 26020G26KT 10SM CLR 39/04 A2986 RMK AO2 PK WND 26026/0053 SLP057 T03890039,M
ELY,2022-07-18 00:53,-114.8453,39.2950,1909.00,79.00,50.00,36.27,30.00,12.00,0.00,30.18,1012.20,10.00,M,FEW,SCT,M,M,9500.00,12000.00,M,M,M,M,M,M,M,M,M,79.00,KELY 180053Z AUTO 03012KT 10SM FEW095 SCT120 26/10 A3018 RMK AO2 SLP122 T02610100,M
VGT,2022-07-18 00:53,-115.1933,36.2111,667.00,109.00,51.00,14.92,360.00,7.00,0.00,29.76,1005.80,10.00,M,CLR,M,M,M,M,M,M,M,M,M,M,M,M,M,M,106.59,KVGT 180053Z 36007KT 10SM CLR 43/11 A2976 RMK AO2 SLP058 T04280106,M
HTH,2022-07-18 00:55,-118.6315,38.5448,1282.89,96.80,35.60,11.86,350.00,9.00,0.00,29.92,M,10.00,M,CLR,M,M,M,M,M,M,M,M,M,M,M,M,M,M,91.72,KHTH 180055Z AUTO 35009KT 10SM CLR 36/02 A2992 RMK A01,M
BVU,2022-07-18 00:55,-114.8611,35.9475,671.00,M,M,M,M,M,0.00,M,M,M,M,M,M,M,M,M,M,M,M,M,M,M,M,M,M,M,M,KBVU 180055Z AUTO RMK AO2 PNO PWINO TSNO,M
CXP,2022-07-18 00:55,-119.7326,39.1923,1431.00,91.40,42.80,18.56,250.00,12.00,0.00,30.02,M,10.00,25.00,CLR,M,M,M,M,M,M,M,M,M,M,M,M,M,M,87.52,KCXP 180055Z AUTO 25012G25KT 10SM CLR 33/06 A3002 RMK AO2,M
RTS,2022-07-18 00:55,-119.8764,39.6682,1539.00,89.60,39.20,17.09,240.00,17.00,0.00,30.05,M,10.00,22.00,CLR,M,M,M,M,M,M,M,M,M,M,M,M,M,M,85.73,KRTS 180055Z AUTO 24017G22KT 10SM CLR 32/04 A3005 RMK AO2,M
05U,2022-07-18 00:55,-116.0051,39.6042,1811.23,80.60,51.80,36.79,310.00,4.00,0.00,30.15,M,10.00,M,CLR,M,M,M,M,M,M,M,M,M,M,M,M,M,M,80.08,K05U 180055Z AUTO 31004KT 10SM CLR 27/11 A3015 RMK A01,M
MEV,2022-07-18 00:55,-119.7500,38.9963,1441.42,91.40,41.00,17.32,260.00,17.00,0.00,30.00,M,10.00,28.00,CLR,M,M,M,M,M,M,M,M,M,M,M,M,M,M,87.40,KMEV 180055Z AUTO 26017G28KT 10SM CLR 33/05 A3000 RMK AO2,M
BAM,2022-07-18 00:55,-116.8743,40.5990,1382.36,M,M,M,160.00,22.00,0.00,29.93,M,7.00,26.00,CLR,M,M,M,M,M,M,M,M,M,M,M,M,M,M,M,KBAM 180055Z AUTO 16022G26KT 7SM CLR A2993 RMK AO1,M
TMT,2022-07-18 00:55,-117.1971,39.4643,1749.34,74.50,51.40,44.35,170.00,11.00,0.00,30.13,M,10.00,19.00,SCT,SCT,BKN,M,4600.00,5000.00,10000.00,M,-RA,M,M,M,M,M,M,74.50,KTMT 180055Z AUTO 17011G19KT 10SM -RA SCT046 SCT050 BKN100 24/11 A3013 RMK AO2 T02360108,M
RNO,2022-07-18 00:55,-119.7711,39.4839,1341.00,95.00,42.00,16.16,260.00,10.00,0.00,29.96,1007.90,10.00,27.00,FEW,FEW,M,M,8000.00,11000.00,M,M,M,M,M,M,27.00,260.00,2022-07-18 00:49,90.79,KRNO 180055Z 26010G27KT 10SM FEW080 FEW110 35/06 A2996 RMK AO2 PK WND 26027/0049 SLP079 T03500056,M
WMC,2022-07-18 00:56,-117.8072,40.9019,1315.00,98.00,35.00,11.17,230.00,12.00,0.00,29.88,1005.80,10.00,24.00,FEW,M,M,M,11000.00,M,M,M,M,M,M,M,26.00,250.00,2022-07-18 00:05,92.73,KWMC 180056Z AUTO 23012G24KT 10SM FEW110 37/02 A2988 RMK AO2 PK WND 25026/0005 SLP058 T03670017 TSNO,M
NFL,2022-07-18 00:56,-118.7010,39.4166,1199.00,97.00,40.00,13.96,300.00,11.00,0.00,29.88,1009.20,10.00,M,BKN,BKN,M,M,9000.00,12000.00,M,M,M,M,M,M,M,M,M,92.48,KNFL 180056Z 30011KT 10SM BKN090 BKN120 36/04 A2988 RMK AO2 SLP092 CB DSNT SE SH VC ALQDS T03610044,M
HND,2022-07-18 00:56,-115.1344,35.9729,742.79,M,M,M,M,M,0.00,M,M,M,M,M,M,M,M,M,M,M,M,M,M,M,M,M,M,M,M,KHND 180056Z AUTO RMK AO2 SLPNO PWINO FZRANO $,M
EKO,2022-07-18 00:56,-115.7860,40.8242,1367.00,88.00,43.00,20.82,160.00,8.00,0.00,30.02,1009.90,10.00,M,FEW,M,M,M,11000.00,M,M,M,M,M,M,M,M,M,M,84.58,KEKO 180056Z AUTO 16008KT 10SM FEW110 31/06 A3002 RMK AO2 SLP099 T03110061,M
LAS,2022-07-18 00:56,-115.1634,36.0719,663.00,106.00,48.00,14.51,200.00,3.00,0.00,29.77,1004.50,10.00,M,FEW,FEW,SCT,M,7500.00,11000.00,23000.00,M,M,M,M,M,M,M,M,102.59,KLAS 180056Z 20003KT 10SM FEW075 FEW110 SCT230 41/09 A2977 RMK AO2 SLP045 T04110089,M
TPH,2022-07-18 00:56,-117.0904,38.0505,1654.00,92.00,41.00,17.05,250.00,10.00,0.00,30.05,1008.20,10.00,19.00,CLR,M,M,M,M,M,M,M,M,M,M,M,33.00,220.00,2022-07-18 00:28,87.85,KTPH 180056Z AUTO 25010G19KT 10SM CLR 33/05 A3005 RMK AO2 PK WND 22033/0028 LTG DSNT NW SLP082 T03330050,M
LSV,2022-07-18 00:58,-115.0343,36.2362,570.00,109.00,49.30,13.95,330.00,5.00,0.00,29.73,1003.50,10.00,M,CLR,M,M,M,M,M,M,M,M,M,M,M,M,M,M,105.95,KLSV 180058Z AUTO 33005KT 10SM CLR 43/10 A2973 RMK AO2 SLP035 T04280096 $,M
INS,2022-07-18 00:58,-115.6733,36.5872,955.00,101.80,41.70,12.94,350.00,6.00,0.00,29.86,1005.30,10.00,M,CLR,M,M,M,M,M,M,M,M,M,M,M,M,M,M,97.20,KINS 180058Z AUTO 35006KT 10SM CLR 39/05 A2986 RMK AO2 SLP053 T03880054 $,M
TMT,2022-07-18 01:15,-117.1971,39.4643,1749.34,M,M,M,140.00,7.00,0.00,30.12,M,10.00,M,SCT,BKN,BKN,M,4900.00,7000.00,8000.00,M,M,M,M,M,M,M,M,M,KTMT 180115Z AUTO 14007KT 10SM SCT049 BKN070 BKN080 A3012 RMK AO2,M
BAM,2022-07-18 01:15,-116.8743,40.5990,1382.36,M,M,M,160.00,22.00,0.00,29.93,M,10.00,28.00,SCT,M,M,M,12000.00,M,M,M,M,M,M,M,M,M,M,M,KBAM 180115Z AUTO 16022G28KT 10SM SCT120 A2993 RMK AO1,M
HTH,2022-07-18 01:15,-118.6315,38.5448,1282.89,95.00,37.40,13.46,360.00,7.00,0.00,29.92,M,10.00,M,CLR,M,M,M,M,M,M,M,M,M,M,M,M,M,M,90.46,KHTH 180115Z AUTO 36007KT 10SM CLR 35/03 A2992 RMK A01,M
BVU,2022-07-18 01:15,-114.8611,35.9475,671.00,M,M,M,M,M,0.00,M,M,M,M,M,M,M,M,M,M,M,M,M,M,M,M,M,M,M,M,KBVU 180115Z AUTO RMK AO2 PNO PWINO TSNO,M
CXP,2022-07-18 01:15,-119.7326,39.1923,1431.00,91.40,42.80,18.56,260.00,14.00,0.00,30.02,M,10.00,19.00,CLR,M,M,M,M,M,M,M,M,M,M,M,M,M,M,87.52,KCXP 180115Z AUTO 26014G19KT 10SM CLR 33/06 A3002 RMK AO2,M
RTS,2022-07-18 01:15,-119.8764,39.6682,1539.00,89.60,37.40,15.92,250.00,16.00,0.00,30.05,M,10.00,22.00,CLR,M,M,M,M,M,M,M,M,M,M,M,M,M,M,85.67,KRTS 180115Z AUTO 25016G22KT 10SM CLR 32/03 A3005 RMK AO2,M
05U,2022-07-18 01:15,-116.0051,39.6042,1811.23,78.80,51.80,39.02,0.00,0.00,0.00,30.15,M,10.00,M,CLR,M,M,M,M,M,M,M,M,M,M,M,M,M,M,78.80,K05U 180115Z AUTO 00000KT 10SM CLR 26/11 A3015 RMK A01,M
MEV,2022-07-18 01:15,-119.7500,38.9963,1441.42,91.40,42.80,18.56,260.00,15.00,0.00,30.00,M,10.00,21.00,CLR,M,M,M,M,M,M,M,M,M,M,M,M,M,M,87.52,KMEV 180115Z AUTO 26015G21KT 10SM CLR 33/06 A3000 RMK AO2,M
TMT,2022-07-18 01:35,-117.1971,39.4643,1749.34,77.00,50.50,39.47,260.00,3.00,0.00,30.12,M,10.00,M,SCT,SCT,SCT,M,5500.00,7000.00,10000.00,M,M,M,M,M,M,M,M,77.00,KTMT 180135Z AUTO 26003KT 10SM SCT055 SCT070 SCT100 25/10 A3012 RMK AO2 T02500103,M
CXP,2022-07-18 01:35,-119.7326,39.1923,1431.00,89.60,42.80,19.64,260.00,14.00,0.00,30.03,M,10.00,20.00,CLR,M,M,M,M,M,M,M,M,M,M,M,M,M,M,85.93,KCXP 180135Z AUTO 26014G20KT 10SM CLR 32/06 A3003 RMK AO2,M
BVU,2022-07-18 01:35,-114.8611,35.9475,671.00,M,M,M,M,M,0.00,M,M,M,M,M,M,M,M,M,M,M,M,M,M,M,M,M,M,M,M,KBVU 180135Z AUTO RMK AO2 PNO PWINO TSNO,M
RTS,2022-07-18 01:35,-119.8764,39.6682,1539.00,87.80,37.40,16.86,260.00,18.00,0.00,30.05,M,10.00,25.00,CLR,M,M,M,M,M,M,M,M,M,M,M,M,M,M,84.16,KRTS 180135Z AUTO 26018G25KT 10SM CLR 31/03 A3005 RMK AO2,M
05U,2022-07-18 01:35,-116.0051,39.6042,1811.23,78.80,51.80,39.02,0.00,0.00,0.00,30.16,M,10.00,M,CLR,M,M,M,M,M,M,M,M,M,M,M,M,M,M,78.80,K05U 180135Z AUTO 00000KT 10SM CLR 26/11 A3016 RMK A01,M
MEV,2022-07-18 01:35,-119.7500,38.9963,1441.42,89.60,41.00,18.33,260.00,17.00,0.00,30.01,M,10.00,22.00,CLR,M,M,M,M,M,M,M,M,M,M,M,M,M,M,85.82,KMEV 180135Z AUTO 26017G22KT 10SM CLR 32/05 A3001 RMK AO2,M
BAM,2022-07-18 01:35,-116.8743,40.5990,1382.36,M,M,M,180.00,15.00,0.00,29.95,M,10.00,M,SCT,M,M,M,12000.00,M,M,M,M,M,M,M,M,M,M,M,KBAM 180135Z AUTO 18015KT 10SM SCT120 A2995 RMK AO1,M
HTH,2022-07-18 01:35,-118.6315,38.5448,1282.89,95.00,37.40,13.46,300.00,8.00,0.00,29.93,M,10.00,M,CLR,M,M,M,M,M,M,M,M,M,M,M,M,M,M,90.46,KHTH 180135Z AUTO 30008KT 10SM CLR 35/03 A2993 RMK A01,M
HND,2022-07-18 01:48,-115.1344,35.9729,742.79,M,M,M,190.00,6.00,0.00,29.80,M,10.00,M,FEW,M,M,M,8000.00,M,M,M,M,M,M,M,M,M,M,M,KHND 180148Z 19006KT 10SM FEW080 A2980 RMK FX,M
ELY,2022-07-18 01:53,-114.8453,39.2950,1909.00,77.00,49.00,37.19,50.00,9.00,0.00,30.18,1011.30,10.00,M,CLR,M,M,M,M,M,M,M,M,M,M,M,M,M,M,77.00,KELY 180153Z AUTO 05009KT 10SM CLR 25/09 A3018 RMK AO2 SLP113 T02500094,M
LOL,2022-07-18 01:53,-118.5701,40.0684,1192.43,98.00,39.00,13.03,270.00,20.00,0.00,29.87,1006.50,10.00,24.00,FEW,M,M,M,11000.00,M,M,M,M,M,M,M,27.00,260.00,2022-07-18 00:54,93.42,KLOL 180153Z AUTO 27020G24KT 10SM FEW110 37/04 A2987 RMK AO2 PK WND 26027/0054 SLP065 T03670039,M
P68,2022-07-18 01:53,-116.0056,39.6014,1993.00,79.00,52.00,39.06,0.00,0.00,0.00,30.13,1011.20,M,M,M,M,M,M,M,M,M,M,M,M,M,M,M,M,M,79.00,KP68 180153Z AUTO 00000KT 26/11 A3013 RMK AO1 SLP112 T02610111,M
DRA,2022-07-18 01:53,-116.0278,36.6206,1009.00,100.00,43.00,14.36,260.00,4.00,0.00,29.88,1005.60,10.00,M,CLR,M,M,M,M,M,M,M,M,M,M,M,M,M,M,95.68,KDRA 180153Z AUTO 26004KT 10SM CLR 38/06 A2988 RMK AO2 SLP056 T03780061,M
VGT,2022-07-18 01:53,-115.1933,36.2111,667.00,108.00,50.00,14.75,360.00,6.00,0.00,29.75,1005.60,10.00,M,CLR,M,M,M,M,M,M,M,M,M,M,M,M,M,M,105.19,KVGT 180153Z 36006KT 10SM CLR 42/10 A2975 RMK AO2 SLP056 T04220100,M
HTH,2022-07-18 01:55,-118.6315,38.5448,1282.89,95.00,37.40,13.46,240.00,15.00,0.00,29.95,M,10.00,28.00,FEW,FEW,BKN,M,4700.00,7000.00,9000.00,M,M,M,M,M,M,M,M,90.46,KHTH 180155Z AUTO 24015G28KT 10SM FEW047 FEW070 BKN090 35/03 A2995 RMK A01,M
BVU,2022-07-18 01:55,-114.8611,35.9475,671.00,M,M,M,M,M,0.00,M,M,M,M,M,M,M,M,M,M,M,M,M,M,M,M,M,M,M,M,KBVU 180155Z AUTO RMK AO2 PNO PWINO TSNO,M
CXP,2022-07-18 01:55,-119.7326,39.1923,1431.00,87.80,42.80,20.79,260.00,14.00,0.00,30.03,M,10.00,M,CLR,M,M,M,M,M,M,M,M,M,M,M,M,M,M,84.40,KCXP 180155Z AUTO 26014KT 10SM CLR 31/06 A3003 RMK AO2,M
RTS,2022-07-18 01:55,-119.8764,39.6682,1539.00,86.00,39.20,19.15,250.00,16.00,0.00,30.06,M,10.00,24.00,CLR,M,M,M,M,M,M,M,M,M,M,M,M,M,M,82.79,KRTS 180155Z AUTO 25016G24KT 10SM CLR 30/04 A3006 RMK AO2,M
05U,2022-07-18 01:55,-116.0051,39.6042,1811.23,78.80,51.80,39.02,0.00,0.00,0.00,30.16,M,10.00,M,CLR,M,M,M,M,M,M,M,M,M,M,M,M,M,M,78.80,K05U 180155Z AUTO 00000KT 10SM CLR 26/11 A3016 RMK A01,M
MEV,2022-07-18 01:55,-119.7500,38.9963,1441.42,89.60,42.80,19.64,260.00,15.00,0.00,30.02,M,10.00,22.00,CLR,M,M,M,M,M,M,M,M,M,M,M,M,M,M,85.93,KMEV 180155Z AUTO 26015G22KT 10SM CLR 32/06 A3002 RMK AO2,M
BAM,2022-07-18 01:55,-116.8743,40.5990,1382.36,M,M,M,180.00,6.00,0.00,29.95,M,10.00,M,SCT,M,M,M,11000.00,M,M,M,M,M,M,M,M,M,M,M,KBAM 180155Z AUTO 18006KT 10SM SCT110 A2995 RMK AO1,M
TMT,2022-07-18 01:55,-117.1971,39.4643,1749.34,M,M,M,270.00,3.00,0.00,30.12,M,10.00,M,CLR,M,M,M,M,M,M,M,M,M,M,M,M,M,M,M,KTMT 180155Z AUTO 27003KT 10SM CLR A3012 RMK AO2,M
RNO,2022-07-18 01:55,-119.7711,39.4839,1341.00,92.00,44.00,19.21,M,6.00,0.00,29.98,1008.60,10.00,19.00,FEW,FEW,M,M,8000.00,11000.00,M,M,M,M,M,M,M,M,M,88.09,KRNO 180155Z VRB06G19KT 10SM FEW080 FEW110 33/07 A2998 RMK AO2 SLP086 T03330067,M
TPH,2022-07-18 01:56,-117.0904,38.0505,1654.00,91.00,42.00,18.30,250.00,15.00,0.00,30.06,1008.30,10.00,20.00,BKN,M,M,M,11000.00,M,M,M,M,M,M,M,M,M,M,87.11,KTPH 180156Z AUTO 25015G20KT 10SM BKN110 33/06 A3006 RMK AO2 SLP083 T03280056,M
WMC,2022-07-18 01:56,-117.8072,40.9019,1315.00,94.00,40.00,15.35,270.00,13.00,0.00,29.90,1006.60,8.00,26.00,FEW,M,M,M,8500.00,M,M,M,M,M,M,M,31.00,250.00,2022-07-18 01:38,89.60,KWMC 180156Z AUTO 27013G26KT 8SM FEW085 34/04 A2990 RMK AO2 PK WND 25031/0138 SLP066 T03440044 TSNO,M
LAS,2022-07-18 01:56,-115.1634,36.0719,663.00,107.00,47.00,13.48,M,3.00,0.00,29.76,1004.30,10.00,M,FEW,FEW,SCT,M,7500.00,13000.00,23000.00,M,M,M,M,M,M,M,M,103.37,KLAS 180156Z VRB03KT 10SM FEW075 FEW130 SCT230 42/08 A2976 RMK AO2 SLP043 CB DSNT S AND SW T04170083,M
EKO,2022-07-18 01:56,-115.7860,40.8242,1367.00,86.00,48.00,26.82,170.00,14.00,0.00,30.02,1009.80,10.00,24.00,CLR,M,M,M,M,M,M,M,M,M,M,M,26.00,190.00,2022-07-18 01:07,83.38,KEKO 180156Z AUTO 17014G24KT 10SM CLR 30/09 A3002 RMK AO2 PK WND 19026/0107 SLP098 T03000089,M
HND,2022-07-18 01:56,-115.1344,35.9729,742.79,M,M,M,M,M,0.00,M,M,M,M,M,M,M,M,M,M,M,M,M,M,M,M,M,M,M,M,KHND 180156Z RMK AO2 SLPNO PWINO FZRANO $,M
NFL,2022-07-18 01:56,-118.7010,39.4166,1199.00,95.00,41.00,15.49,290.00,14.00,0.00,29.90,1009.90,10.00,21.00,FEW,M,M,M,10000.00,M,M,M,M,M,M,M,M,M,M,90.70,KNFL 180156Z AUTO 29014G21KT 10SM FEW100 35/05 A2990 RMK AO2 SLP099 T03500050,M
INS,2022-07-18 01:58,-115.6733,36.5872,955.00,101.00,41.20,12.96,360.00,5.00,0.00,29.85,1004.80,10.00,M,CLR,M,M,M,M,M,M,M,M,M,M,M,M,M,M,96.47,KINS 180158Z AUTO 36005KT 10SM CLR 38/05 A2985 RMK AO2 SLP048 T03840051 $,M
LSV,2022-07-18 01:58,-115.0343,36.2362,570.00,107.40,48.00,13.93,310.00,3.00,0.00,29.72,1003.20,10.00,M,CLR,M,M,M,M,M,M,M,M,M,M,M,M,M,M,103.97,KLSV 180158Z AUTO 31003KT 10SM CLR 42/09 A2972 RMK AO2 LTG DSNT S SLP032 T04190089 $,M
TPH,2022-07-18 02:09,-117.0904,38.0505,1654.00,88.00,45.00,22.47,320.00,16.00,0.00,30.07,M,10.00,24.00,OVC,M,M,M,10000.00,M,M,M,M,M,M,M,M,M,M,84.72,KTPH 180209Z AUTO 32016G24KT 10SM OVC100 31/07 A3007 RMK AO2 WSHFT 0155 T03110072,M
CXP,2022-07-18 02:10,-119.7326,39.1923,1431.00,87.80,42.80,20.79,260.00,12.00,0.00,30.04,M,10.00,21.00,CLR,M,M,M,M,M,M,M,M,M,M,M,M,M,M,84.40,KCXP 180210Z AUTO 26012G21KT 10SM CLR 31/06 A3004 RMK AO2,M
05U,2022-07-18 02:15,-116.0051,39.6042,1811.23,77.00,51.80,41.42,240.00,8.00,0.00,30.17,M,10.00,13.00,SCT,M,M,M,11000.00,M,M,M,M,M,M,M,M,M,M,77.00,K05U 180215Z AUTO 24008G13KT 10SM SCT110 25/11 A3017 RMK A01,M
RTS,2022-07-18 02:15,-119.8764,39.6682,1539.00,86.00,39.20,19.15,250.00,19.00,0.00,30.06,M,10.00,26.00,CLR,M,M,M,M,M,M,M,M,M,M,M,M,M,M,82.79,KRTS 180215Z AUTO 25019G26KT 10SM CLR 30/04 A3006 RMK AO2,M
BVU,2022-07-18 02:15,-114.8611,35.9475,671.00,M,M,M,M,M,0.00,M,M,M,M,M,M,M,M,M,M,M,M,M,M,M,M,M,M,M,M,KBVU 180215Z AUTO RMK AO2 PNO PWINO TSNO,M
TMT,2022-07-18 02:15,-117.1971,39.4643,1749.34,M,M,M,0.00,0.00,0.00,30.11,M,10.00,M,CLR,M,M,M,M,M,M,M,M,M,M,M,M,M,M,M,KTMT 180215Z AUTO 00000KT 10SM CLR A3011 RMK AO2,M
HTH,2022-07-18 02:15,-118.6315,38.5448,1282.89,93.20,37.40,14.23,320.00,8.00,0.00,29.95,M,10.00,15.00,SCT,BKN,OVC,M,4900.00,7500.00,9000.00,M,M,M,M,M,M,M,M,88.83,KHTH 180215Z AUTO 32008G15KT 10SM SCT049 BKN075 OVC090 34/03 A2995 RMK A01,M
BAM,2022-07-18 02:15,-116.8743,40.5990,1382.36,M,M,M,230.00,4.00,0.00,29.95,M,10.00,M,CLR,M,M,M,M,M,M,M,M,M,M,M,M,M,M,M,KBAM 180215Z AUTO 23004KT 10SM CLR A2995 RMK AO1,M
MEV,2022-07-18 02:15,-119.7500,38.9963,1441.42,87.80,42.80,20.79,260.00,10.00,0.00,30.02,M,10.00,16.00,CLR,M,M,M,M,M,M,M,M,M,M,M,M,M,M,84.40,KMEV 180215Z AUTO 26010G16KT 10SM CLR 31/06 A3002 RMK AO2,M
TPH,2022-07-18 02:28,-117.0904,38.0505,1654.00,86.00,45.00,23.95,320.00,18.00,0.00,30.09,M,10.00,29.00,BKN,M,M,M,10000.00,M,M,M,VCTS,M,M,M,29.00,340.00,2022-07-18 02:24,83.10,KTPH 180228Z AUTO 32018G29KT 10SM VCTS BKN100 30/07 A3009 RMK AO2 PK WND 34029/0224 WSHFT 0155 T03000072,M
CXP,2022-07-18 02:35,-119.7326,39.1923,1431.00,86.00,44.60,23.59,230.00,8.00,0.00,30.04,M,10.00,13.00,CLR,M,M,M,M,M,M,M,M,M,M,M,M,M,M,83.07,KCXP 180235Z AUTO 23008G13KT 200V270 10SM CLR 30/07 A3004 RMK AO2,M
RTS,2022-07-18 02:35,-119.8764,39.6682,1539.00,84.20,39.20,20.29,260.00,15.00,0.00,30.06,M,10.00,21.00,CLR,M,M,M,M,M,M,M,M,M,M,M,M,M,M,81.44,KRTS 180235Z AUTO 26015G21KT 10SM CLR 29/04 A3006 RMK AO2,M
MEV,2022-07-18 02:35,-119.7500,38.9963,1441.42,86.00,42.80,22.02,260.00,14.00,0.00,30.03,M,10.00,M,CLR,M,M,M,M,M,M,M,M,M,M,M,M,M,M,82.95,KMEV 180235Z AUTO 26014KT 10SM CLR 30/06 A3003 RMK AO2,M
05U,2022-07-18 02:35,-116.0051,39.6042,1811.23,75.20,51.80,43.97,0.00,0.00,0.00,30.17,M,10.00,M,OVC,M,M,M,11000.00,M,M,M,M,M,M,M,M,M,M,75.20,K05U 180235Z AUTO 00000KT 10SM OVC110 24/11 A3017 RMK A01,M
BVU,2022-07-18 02:35,-114.8611,35.9475,671.00,M,M,M,M,M,0.00,M,M,M,M,M,M,M,M,M,M,M,M,M,M,M,M,M,M,M,M,KBVU 180235Z AUTO RMK AO2 PNO PWINO TSNO,M
BAM,2022-07-18 02:35,-116.8743,40.5990,1382.36,M,M,M,200.00,12.00,0.00,29.94,M,10.00,M,CLR,M,M,M,M,M,M,M,M,M,M,M,M,M,M,M,KBAM 180235Z AUTO 20012KT 10SM CLR A2994 RMK AO1,M
HTH,2022-07-18 02:35,-118.6315,38.5448,1282.89,93.20,37.40,14.23,20.00,8.00,0.00,29.95,M,10.00,14.00,FEW,FEW,SCT,M,4400.00,5000.00,9000.00,M,M,M,M,M,M,M,M,88.83,KHTH 180235Z AUTO 02008G14KT 10SM FEW044 FEW050 SCT090 34/03 A2995 RMK A01,M
CXP,2022-07-18 02:50,-119.7326,39.1923,1431.00,86.00,44.60,23.59,250.00,6.00,0.00,30.05,M,10.00,12.00,FEW,M,M,M,1600.00,M,M,M,M,M,M,M,M,M,M,83.07,KCXP 180250Z AUTO 25006G12KT 10SM FEW016 30/07 A3005 RMK AO2,M
TPH,2022-07-18 02:52,-117.0904,38.0505,1654.00,82.40,50.00,32.46,40.00,20.00,0.00,30.09,M,10.00,25.00,BKN,M,M,M,11000.00,M,M,M,M,M,M,M,29.00,340.00,2022-07-18 02:24,80.99,KTPH 180252Z AUTO 04020G25KT 10SM BKN110 28/10 A3009 RMK AO2 PK WND 34029/0224 WSHFT 0238,M
LOL,2022-07-18 02:53,-118.5701,40.0684,1192.43,95.00,36.00,12.73,250.00,17.00,0.00,29.90,1007.00,10.00,M,CLR,M,M,M,M,M,M,M,M,M,M,M,26.00,280.00,2022-07-18 02:22,90.32,KLOL 180253Z AUTO 25017KT 10SM CLR 35/02 A2990 RMK AO2 PK WND 28026/0222 SLP070 T03500022 53008,M
VGT,2022-07-18 02:53,-115.1933,36.2111,667.00,107.00,50.00,15.14,360.00,4.00,0.00,29.79,1006.90,10.00,M,CLR,M,M,M,M,M,M,M,M,M,M,M,M,M,M,104.29,KVGT 180253Z 36004KT 10SM CLR 42/10 A2979 RMK AO2 LTG DSNT SW SLP069 T04170100 53003,M
ELY,2022-07-18 02:53,-114.8453,39.2950,1909.00,75.00,50.00,41.41,340.00,3.00,0.00,30.19,1010.70,10.00,M,BKN,M,M,M,12000.00,M,M,M,M,M,M,M,M,M,M,75.00,KELY 180253Z AUTO 34003KT 10SM BKN120 24/10 A3019 RMK AO2 SLP107 T02390100 51006,M
DRA,2022-07-18 02:53,-116.0278,36.6206,1009.00,97.00,42.00,15.20,250.00,3.00,0.00,29.89,1006.20,10.00,M,CLR,M,M,M,M,M,M,M,M,M,M,M,M,M,M,92.69,KDRA 180253Z AUTO 25003KT 10SM CLR 36/06 A2989 RMK AO2 SLP062 T03610056 55001,M
TPH,2022-07-18 02:53,-117.0904,38.0505,1654.00,82.00,50.00,32.88,30.00,21.00,0.00,30.09,1009.70,10.00,27.00,BKN,M,M,M,11000.00,M,M,M,M,M,M,M,29.00,340.00,2022-07-18 02:24,80.73,KTPH 180253Z AUTO 03021G27KT 10SM BKN110 28/10 A3009 RMK AO2 PK WND 34029/0224 WSHFT 0238 SLP097 T02780100 53013,M
P68,2022-07-18 02:53,-116.0056,39.6014,1993.00,74.00,52.00,46.27,200.00,8.00,0.00,30.14,1011.00,M,M,M,M,M,M,M,M,M,M,M,M,M,M,M,M,M,73.90,KP68 180253Z AUTO 20008KT 23/11 A3014 RMK AO1 SLP110 T02330111 55004,M
05U,2022-07-18 02:55,-116.0051,39.6042,1811.23,75.20,51.80,43.97,0.00,0.00,0.00,30.17,M,10.00,M,OVC,M,M,M,11000.00,M,M,M,M,M,M,M,M,M,M,75.20,K05U 180255Z AUTO 00000KT 10SM OVC110 24/11 A3017 RMK A01,M
BVU,2022-07-18 02:55,-114.8611,35.9475,671.00,M,M,M,M,M,0.00,M,M,M,M,M,M,M,M,M,M,M,M,M,M,M,M,M,M,M,M,KBVU 180255Z AUTO RMK AO2 PNO PWINO TSNO,M
RNO,2022-07-18 02:55,-119.7711,39.4839,1341.00,89.00,46.00,22.54,280.00,14.00,0.00,29.99,1009.10,10.00,M,FEW,FEW,FEW,M,10000.00,14000.00,18000.00,M,M,M,M,M,M,M,M,85.76,KRNO 180255Z 28014KT 10SM FEW100 FEW140 FEW180 32/08 A2999 RMK AO2 SLP091 ACSL DSNT NE THRU SE HZ VC W T03170078 53010,M
RTS,2022-07-18 02:55,-119.8764,39.6682,1539.00,84.20,41.00,21.76,240.00,13.00,0.00,30.07,M,10.00,18.00,CLR,M,M,M,M,M,M,M,M,M,M,M,M,M,M,81.52,KRTS 180255Z AUTO 24013G18KT 10SM CLR 29/05 A3007 RMK AO2,M
MEV,2022-07-18 02:55,-119.7500,38.9963,1441.42,84.20,44.60,24.99,270.00,12.00,0.00,30.03,M,10.00,23.00,CLR,M,M,M,M,M,M,M,M,M,M,M,M,M,M,81.73,KMEV 180255Z AUTO 27012G23KT 10SM CLR 29/07 A3003 RMK AO2,M
BAM,2022-07-18 02:55,-116.8743,40.5990,1382.36,M,M,M,180.00,8.00,0.00,29.95,M,10.00,14.00,CLR,M,M,M,M,M,M,M,M,M,M,M,M,M,M,M,KBAM 180255Z AUTO 18008G14KT 10SM CLR A2995 RMK AO1,M
HTH,2022-07-18 02:55,-118.6315,38.5448,1282.89,93.20,37.40,14.23,160.00,4.00,0.00,29.96,M,10.00,M,CLR,M,M,M,M,M,M,M,M,M,M,M,M,M,M,88.83,KHTH 180255Z AUTO 16004KT 10SM CLR 34/03 A2996 RMK A01,M
NFL,2022-07-18 02:56,-118.7010,39.4166,1199.00,93.00,42.00,17.19,280.00,15.00,0.00,29.92,1010.60,10.00,M,CLR,M,M,M,M,M,M,M,M,M,M,M,26.00,280.00,2022-07-18 02:03,88.93,KNFL 180256Z AUTO 28015KT 10SM CLR 34/06 A2992 RMK AO2 PK WND 28026/0203 SLP106 T03390056 53015,M
HND,2022-07-18 02:56,-115.1344,35.9729,742.79,M,M,M,M,M,0.00,M,M,M,M,M,M,M,M,M,M,M,M,M,M,M,M,M,M,M,M,KHND 180256Z AUTO RMK AO2 LTG DSNT S-W SLPNO 6//// PWINO FZRANO $,M
WMC,2022-07-18 02:56,-117.8072,40.9019,1315.00,92.00,42.00,17.79,300.00,9.00,0.00,29.91,1006.50,2.50,M,OVC,M,M,M,3300.00,M,M,M,HZ,M,M,M,M,M,M,87.92,KWMC 180256Z AUTO 30009KT 2 1/2SM HZ OVC033 33/06 A2991 RMK AO2 SLP065 T03330056 53006 TSNO,M
LAS,2022-07-18 02:56,-115.1634,36.0719,663.00,105.00,49.00,15.42,M,3.00,0.00,29.79,1005.30,10.00,M,FEW,SCT,BKN,M,7500.00,13000.00,23000.00,M,M,M,M,M,M,M,M,101.94,KLAS 180256Z VRB03KT 10SM FEW075 SCT130 BKN230 41/09 A2979 RMK AO2 LTG DSNT SW SLP053 CB DSNT S AND SW SH DSNT S AND SW T04060094 53002,M
EKO,2022-07-18 02:56,-115.7860,40.8242,1367.00,84.00,47.00,27.44,170.00,9.00,0.00,30.02,1009.60,10.00,17.00,CLR,M,M,M,M,M,M,M,M,M,M,M,M,M,M,81.77,KEKO 180256Z AUTO 17009G17KT 10SM CLR 29/08 A3002 RMK AO2 SLP096 T02890083 55004,M
INS,2022-07-18 02:58,-115.6733,36.5872,955.00,98.20,40.80,13.93,340.00,5.00,0.00,29.88,1005.90,10.00,M,CLR,M,M,M,M,M,M,M,M,M,M,M,M,M,M,93.69,KINS 180258Z AUTO 34005KT 10SM CLR 37/05 A2988 RMK AO2 SLP059 T03680049 53002 $,M
LSV,2022-07-18 02:58,-115.0343,36.2362,570.00,104.50,49.30,15.93,0.00,0.00,0.00,29.75,1004.30,10.00,M,CLR,M,M,M,M,M,M,M,M,M,M,M,M,M,M,101.45,KLSV 180258Z AUTO 00000KT 10SM CLR 40/10 A2975 RMK AO2 SLP043 T04030096 53003 $,M
TPH,2022-07-18 03:00,-117.0904,38.0505,1654.00,83.00,48.00,29.64,40.00,15.00,0.00,30.10,M,10.00,27.00,OVC,M,M,M,11000.00,M,M,M,M,M,M,M,M,M,M,81.11,KTPH 180300Z AUTO 04015G27KT 10SM OVC110 28/09 A3010 RMK AO2 WSHFT 0240 T02830089,M
05U,2022-07-18 03:10,-116.0051,39.6042,1811.23,75.20,50.00,41.14,0.00,0.00,0.00,30.17,M,10.00,M,SCT,OVC,M,M,7500.00,11000.00,M,M,M,M,M,M,M,M,M,75.20,K05U 180310Z AUTO 00000KT 10SM SCT075 OVC110 24/10 A3017 RMK A01,M
BAM,2022-07-18 03:15,-116.8743,40.5990,1382.36,M,M,M,230.00,8.00,0.00,29.96,M,10.00,M,CLR,M,M,M,M,M,M,M,M,M,M,M,M,M,M,M,KBAM 180315Z AUTO 23008KT 10SM CLR A2996 RMK AO1,M
BVU,2022-07-18 03:15,-114.8611,35.9475,671.00,M,M,M,M,M,0.00,M,M,M,M,M,M,M,M,M,M,M,M,M,M,M,M,M,M,M,M,KBVU 180315Z AUTO RMK AO2 PNO PWINO TSNO,M
CXP,2022-07-18 03:15,-119.7326,39.1923,1431.00,84.20,44.60,24.99,250.00,7.00,0.00,30.06,M,10.00,M,CLR,M,M,M,M,M,M,M,M,M,M,M,M,M,M,81.73,KCXP 180315Z AUTO 25007KT 10SM CLR 29/07 A3006 RMK AO2,M
HTH,2022-07-18 03:15,-118.6315,38.5448,1282.89,93.20,39.20,15.27,160.00,4.00,0.00,29.97,M,10.00,M,FEW,FEW,M,M,6500.00,12000.00,M,M,M,M,M,M,M,M,M,88.92,KHTH 180315Z AUTO 16004KT 10SM FEW065 FEW120 34/04 A2997 RMK A01,M
TMT,2022-07-18 03:15,-117.1971,39.4643,1749.34,M,M,M,240.00,5.00,0.00,30.12,M,10.00,M,SCT,M,M,M,12000.00,M,M,M,M,M,M,M,M,M,M,M,KTMT 180315Z AUTO 24005KT 10SM SCT120 A3012 RMK AO2 LTG DSNT S,M
RTS,2022-07-18 03:15,-119.8764,39.6682,1539.00,82.40,41.00,23.07,270.00,10.00,0.00,30.08,M,10.00,M,CLR,M,M,M,M,M,M,M,M,M,M,M,M,M,M,80.29,KRTS 180315Z AUTO 27010KT 10SM CLR 28/05 A3008 RMK AO2,M
MEV,2022-07-18 03:15,-119.7500,38.9963,1441.42,82.40,44.60,26.49,280.00,11.00,0.00,30.04,M,10.00,16.00,CLR,M,M,M,M,M,M,M,M,M,M,M,M,M,M,80.50,KMEV 180315Z AUTO 28011G16KT 10SM CLR 28/07 A3004 RMK AO2,M
WMC,2022-07-18 03:22,-117.8072,40.9019,1315.00,92.00,43.00,18.42,280.00,13.00,0.00,29.92,M,1.75,21.00,OVC,M,M,M,3100.00,M,M,M,HZ,M,M,M,M,M,M,87.99,KWMC 180322Z AUTO 28013G21KT 1 3/4SM HZ OVC031 33/06 A2992 RMK AO2 T03330061 TSNO,M
WMC,2022-07-18 03:33,-117.8072,40.9019,1315.00,91.00,42.00,18.30,280.00,11.00,0.00,29.93,M,1.50,19.00,OVC,M,M,M,2700.00,M,M,M,HZ,M,M,M,M,M,M,87.11,KWMC 180333Z AUTO 28011G19KT 1 1/2SM HZ OVC027 33/06 A2993 RMK AO2 T03280056 TSNO,M
RTS,2022-07-18 03:35,-119.8764,39.6682,1539.00,80.60,41.00,24.46,M,4.00,0.00,30.09,M,10.00,12.00,CLR,M,M,M,M,M,M,M,M,M,M,M,M,M,M,79.20,KRTS 180335Z AUTO VRB04G12KT 10SM CLR 27/05 A3009 RMK AO2,M
05U,2022-07-18 03:35,-116.0051,39.6042,1811.23,73.40,51.80,46.71,150.00,7.00,0.00,30.17,M,10.00,M,FEW,SCT,BKN,M,6000.00,7000.00,11000.00,M,M,M,M,M,M,M,M,73.40,K05U 180335Z AUTO 15007KT 10SM FEW060 SCT070 BKN110 23/11 A3017 RMK A01,M
MEV,2022-07-18 03:35,-119.7500,38.9963,1441.42,82.40,44.60,26.49,260.00,10.00,0.00,30.05,M,10.00,M,CLR,M,M,M,M,M,M,M,M,M,M,M,M,M,M,80.50,KMEV 180335Z AUTO 26010KT 10SM CLR 28/07 A3005 RMK AO2,M
BAM,2022-07-18 03:35,-116.8743,40.5990,1382.36,M,M,M,210.00,8.00,0.00,29.95,M,10.00,M,CLR,M,M,M,M,M,M,M,M,M,M,M,M,M,M,M,KBAM 180335Z AUTO 21008KT 10SM CLR A2995 RMK AO1,M
HTH,2022-07-18 03:35,-118.6315,38.5448,1282.89,89.60,42.80,19.64,110.00,7.00,0.00,29.98,M,10.00,M,FEW,FEW,BKN,M,5500.00,7000.00,9000.00,M,M,M,M,M,M,M,M,85.93,KHTH 180335Z AUTO 11007KT 10SM FEW055 FEW070 BKN090 32/06 A2998 RMK A01,M
CXP,2022-07-18 03:35,-119.7326,39.1923,1431.00,82.40,44.60,26.49,M,6.00,0.00,30.06,M,10.00,M,CLR,M,M,M,M,M,M,M,M,M,M,M,M,M,M,80.50,KCXP 180335Z AUTO VRB06KT 10SM CLR 28/07 A3006 RMK AO2,M
BVU,2022-07-18 03:35,-114.8611,35.9475,671.00,M,M,M,M,M,0.00,M,M,M,M,M,M,M,M,M,M,M,M,M,M,M,M,M,M,M,M,KBVU 180335Z AUTO RMK AO2 PNO PWINO TSNO,M
TMT,2022-07-18 03:35,-117.1971,39.4643,1749.34,73.00,54.00,51.51,230.00,8.00,0.00,30.14,M,10.00,M,OVC,M,M,M,12000.00,M,M,M,M,M,M,M,M,M,M,73.00,KTMT 180335Z AUTO 23008KT 10SM OVC120 23/12 A3014 RMK AO2 T02280123,M
WMC,2022-07-18 03:45,-117.8072,40.9019,1315.00,91.00,42.00,18.30,270.00,11.00,0.00,29.94,M,2.50,20.00,OVC,M,M,M,2500.00,M,M,M,HZ,M,M,M,M,M,M,87.11,KWMC 180345Z AUTO 27011G20KT 2 1/2SM HZ OVC025 33/06 A2994 RMK AO2 T03280056 TSNO,M
P68,2022-07-18 03:53,-116.0056,39.6014,1993.00,73.00,56.00,55.00,140.00,8.00,0.00,30.15,1011.00,M,M,M,M,M,M,M,M,M,M,M,M,M,M,M,M,M,73.00,KP68 180353Z AUTO 14008KT 23/13 A3015 RMK AO1 SLP110 T02280133,M
DRA,2022-07-18 03:53,-116.0278,36.6206,1009.00,92.00,41.00,17.05,220.00,5.00,0.00,29.92,1007.00,10.00,M,CLR,M,M,M,M,M,M,M,M,M,M,M,M,M,M,87.85,KDRA 180353Z AUTO 22005KT 10SM CLR 33/05 A2992 RMK AO2 SLP070 T03330050,M
LOL,2022-07-18 03:53,-118.5701,40.0684,1192.43,91.00,40.00,16.80,270.00,13.00,0.00,29.93,1008.00,10.00,M,CLR,M,M,M,M,M,M,M,M,M,M,M,M,M,M,86.98,KLOL 180353Z AUTO 27013KT 10SM CLR 33/04 A2993 RMK AO2 SLP080 T03280044,M
VGT,2022-07-18 03:53,-115.1933,36.2111,667.00,105.00,51.00,16.73,330.00,3.00,0.00,29.80,1007.30,10.00,M,CLR,M,M,M,M,M,M,M,M,M,M,M,M,M,M,102.61,KVGT 180353Z 33003KT 10SM CLR 41/11 A2980 RMK AO2 LTG DSNT SW SLP073 T04060106,M
ELY,2022-07-18 03:53,-114.8453,39.2950,1909.00,73.00,49.00,42.51,320.00,3.00,0.00,30.21,1010.80,10.00,M,BKN,M,M,M,11000.00,M,M,M,M,M,M,M,M,M,M,73.00,KELY 180353Z AUTO 32003KT 10SM BKN110 23/09 A3021 RMK AO2 SLP108 T02280094,M
RTS,2022-07-18 03:55,-119.8764,39.6682,1539.00,78.80,41.00,25.95,280.00,4.00,0.00,30.09,M,10.00,13.00,CLR,M,M,M,M,M,M,M,M,M,M,M,M,M,M,78.80,KRTS 180355Z AUTO 28004G13KT 10SM CLR 26/05 A3009 RMK AO2,M
TMT,2022-07-18 03:55,-117.1971,39.4643,1749.34,M,M,M,200.00,10.00,0.00,30.15,M,10.00,M,SCT,OVC,M,M,8000.00,11000.00,M,M,M,M,M,M,M,M,M,M,KTMT 180355Z AUTO 20010KT 10SM SCT080 OVC110 A3015 RMK AO2 LTG DSNT SE,M
HTH,2022-07-18 03:55,-118.6315,38.5448,1282.89,89.60,41.00,18.33,190.00,7.00,0.00,29.98,M,10.00,M,FEW,SCT,BKN,M,7500.00,9000.00,12000.00,M,M,M,M,M,M,M,M,85.82,KHTH 180355Z AUTO 19007KT 10SM FEW075 SCT090 BKN120 32/05 A2998 RMK A01,M
BAM,2022-07-18 03:55,-116.8743,40.5990,1382.36,M,M,M,0.00,0.00,0.00,29.96,M,10.00,M,CLR,M,M,M,M,M,M,M,M,M,M,M,M,M,M,M,KBAM 180355Z AUTO 00000KT 10SM CLR A2996 RMK AO1,M
MEV,2022-07-18 03:55,-119.7500,38.9963,1441.42,80.60,44.60,28.08,260.00,11.00,0.00,30.06,M,10.00,16.00,CLR,M,M,M,M,M,M,M,M,M,M,M,M,M,M,79.42,KMEV 180355Z AUTO 26011G16KT 10SM CLR 27/07 A3006 RMK AO2,M
05U,2022-07-18 03:55,-116.0051,39.6042,1811.23,73.40,57.20,56.88,140.00,7.00,0.00,30.17,M,10.00,M,FEW,BKN,OVC,M,6000.00,7000.00,11000.00,M,M,M,M,M,M,M,M,73.40,K05U 180355Z AUTO 14007KT 10SM FEW060 BKN070 OVC110 23/14 A3017 RMK A01,M
CXP,2022-07-18 03:55,-119.7326,39.1923,1431.00,82.40,44.60,26.49,250.00,8.00,0.00,30.07,M,10.00,16.00,CLR,M,M,M,M,M,M,M,M,M,M,M,M,M,M,80.50,KCXP 180355Z AUTO 25008G16KT 10SM CLR 28/07 A3007 RMK AO2,M
RNO,2022-07-18 03:55,-119.7711,39.4839,1341.00,86.00,47.00,25.74,230.00,6.00,0.00,30.01,1009.40,10.00,M,FEW,FEW,FEW,M,10000.00,14000.00,18000.00,M,M,M,M,M,M,M,M,83.27,KRNO 180355Z 23006KT 10SM FEW100 FEW140 FEW180 30/08 A3001 RMK AO2 SLP094 ACSL DSNT NE THRU SE T03000083,M
BVU,2022-07-18 03:55,-114.8611,35.9475,671.00,M,M,M,M,M,0.00,M,M,M,M,M,M,M,M,M,M,M,M,M,M,M,M,M,M,M,M,KBVU 180355Z AUTO RMK AO2 PNO PWINO TSNO,M
EKO,2022-07-18 03:56,-115.7860,40.8242,1367.00,81.00,46.00,29.23,180.00,6.00,0.00,30.03,1009.80,10.00,M,CLR,M,M,M,M,M,M,M,M,M,M,M,M,M,M,79.76,KEKO 180356Z AUTO 18006KT 10SM CLR 27/08 A3003 RMK AO2 SLP098 T02720078,M
WMC,2022-07-18 03:56,-117.8072,40.9019,1315.00,90.00,42.00,18.88,230.00,11.00,0.00,29.95,1007.60,2.50,M,BKN,OVC,M,M,2300.00,11000.00,M,M,HZ,M,M,M,M,M,M,86.23,KWMC 180356Z AUTO 23011KT 2 1/2SM HZ BKN023 OVC110 32/06 A2995 RMK AO2 SLP076 T03220056 TSNO,M
LAS,2022-07-18 03:56,-115.1634,36.0719,663.00,104.00,50.00,16.59,40.00,6.00,0.00,29.81,1006.10,10.00,M,FEW,SCT,BKN,M,7500.00,13000.00,23000.00,M,M,M,M,M,M,M,M,101.14,KLAS 180356Z 04006KT 10SM FEW075 SCT130 BKN230 40/10 A2981 RMK AO2 LTG DSNT SW AND W SLP061 CONS LTGICCCCG DSNT SE AND SW-W CB DSNT SE AND SW-W T04000100,M
TPH,2022-07-18 03:56,-117.0904,38.0505,1654.00,79.00,52.00,39.06,10.00,12.00,0.00,30.11,1010.30,10.00,M,CLR,M,M,M,M,M,M,M,M,M,M,M,32.00,20.00,2022-07-18 03:14,79.00,KTPH 180356Z AUTO 01012KT 10SM CLR 26/11 A3011 RMK AO2 PK WND 02032/0314 WSHFT 0240 SLP103 T02610111,M
HND,2022-07-18 03:56,-115.1344,35.9729,742.79,M,M,M,M,M,0.00,M,M,M,M,M,M,M,M,M,M,M,M,M,M,M,M,M,M,M,M,KHND 180356Z AUTO RMK AO2 LTG DSNT SW AND W SLPNO PWINO FZRANO $,M
INS,2022-07-18 03:58,-115.6733,36.5872,955.00,95.20,40.30,14.98,0.00,0.00,0.00,29.90,1006.70,10.00,M,CLR,M,M,M,M,M,M,M,M,M,M,M,M,M,M,90.83,KINS 180358Z AUTO 00000KT 10SM CLR 35/05 A2990 RMK AO2 SLP067 T03510046 $,M
LSV,2022-07-18 03:58,-115.0343,36.2362,570.00,101.70,48.60,16.87,140.00,3.00,0.00,29.77,1005.10,10.00,M,CLR,M,M,M,M,M,M,M,M,M,M,M,M,M,M,98.41,KLSV 180358Z AUTO 14003KT 10SM CLR 39/09 A2977 RMK AO2 SLP051 T03870092 $,M
WMC,2022-07-18 04:09,-117.8072,40.9019,1315.00,91.00,42.00,18.30,200.00,13.00,0.00,29.96,M,3.00,16.00,BKN,OVC,M,M,2500.00,11000.00,M,M,HZ,M,M,M,M,M,M,87.11,KWMC 180409Z AUTO 20013G16KT 3SM HZ BKN025 OVC110 33/06 A2996 RMK AO2 T03280056 TSNO,M
BAM,2022-07-18 04:15,-116.8743,40.5990,1382.36,M,M,M,0.00,0.00,0.00,29.97,M,10.00,M,CLR,M,M,M,M,M,M,M,M,M,M,M,M,M,M,M,KBAM 180415Z AUTO 00000KT 10SM CLR A2997 RMK AO1,M
TMT,2022-07-18 04:15,-117.1971,39.4643,1749.34,M,M,M,230.00,14.00,0.00,30.18,M,10.00,19.00,OVC,M,M,M,11000.00,M,M,M,M,M,M,M,M,M,M,M,KTMT 180415Z AUTO 23014G19KT 10SM OVC110 A3018 RMK AO2 LTG DSNT SE,M
RTS,2022-07-18 04:15,-119.8764,39.6682,1539.00,78.80,42.80,27.81,290.00,7.00,0.00,30.10,M,10.00,M,CLR,M,M,M,M,M,M,M,M,M,M,M,M,M,M,78.80,KRTS 180415Z AUTO 29007KT 250V330 10SM CLR 26/06 A3010 RMK AO2,M
CXP,2022-07-18 04:15,-119.7326,39.1923,1431.00,82.40,46.40,28.36,260.00,7.00,0.00,30.07,M,10.00,M,CLR,M,M,M,M,M,M,M,M,M,M,M,M,M,M,80.64,KCXP 180415Z AUTO 26007KT 10SM CLR 28/08 A3007 RMK AO2,M
BVU,2022-07-18 04:15,-114.8611,35.9475,671.00,M,M,M,M,M,0.00,M,M,M,M,M,M,M,M,M,M,M,M,M,M,M,M,M,M,M,M,KBVU 180415Z AUTO RMK AO2 PNO PWINO TSNO,M
05U,2022-07-18 04:15,-116.0051,39.6042,1811.23,73.40,55.40,53.29,150.00,7.00,0.00,30.18,M,10.00,M,FEW,SCT,BKN,M,5000.00,6500.00,7500.00,M,M,M,M,M,M,M,M,73.40,K05U 180415Z AUTO 15007KT 10SM FEW050 SCT065 BKN075 23/13 A3018 RMK A01,M
MEV,2022-07-18 04:15,-119.7500,38.9963,1441.42,80.60,44.60,28.08,260.00,8.00,0.00,30.06,M,10.00,M,CLR,M,M,M,M,M,M,M,M,M,M,M,M,M,M,79.42,KMEV 180415Z AUTO 26008KT 10SM CLR 27/07 A3006 RMK AO2,M
HTH,2022-07-18 04:15,-118.6315,38.5448,1282.89,89.60,42.80,19.64,190.00,8.00,0.00,29.99,M,10.00,M,FEW,BKN,M,M,7500.00,12000.00,M,M,M,M,M,M,M,M,M,85.93,KHTH 180415Z AUTO 19008KT 10SM FEW075 BKN120 32/06 A2999 RMK A01,M
WMC,2022-07-18 04:31,-117.8072,40.9019,1315.00,89.00,44.00,20.97,230.00,8.00,0.00,29.96,M,6.00,M,SCT,M,M,M,2800.00,M,M,M,HZ,M,M,M,M,M,M,85.59,KWMC 180431Z AUTO 23008KT 6SM HZ SCT028 32/07 A2996 RMK AO2 T03170067 TSNO,M
CXP,2022-07-18 04:35,-119.7326,39.1923,1431.00,80.60,44.60,28.08,M,4.00,0.00,30.08,M,10.00,M,CLR,M,M,M,M,M,M,M,M,M,M,M,M,M,M,79.42,KCXP 180435Z AUTO VRB04KT 10SM CLR 27/07 A3008 RMK AO2,M
RTS,2022-07-18 04:35,-119.8764,39.6682,1539.00,78.80,42.80,27.81,320.00,9.00,0.00,30.10,M,10.00,M,CLR,M,M,M,M,M,M,M,M,M,M,M,M,M,M,78.80,KRTS 180435Z AUTO 32009KT 300V360 10SM CLR 26/06 A3010 RMK AO2,M
BAM,2022-07-18 04:35,-116.8743,40.5990,1382.36,M,M,M,0.00,0.00,0.00,29.99,M,10.00,M,CLR,M,M,M,M,M,M,M,M,M,M,M,M,M,M,M,KBAM 180435Z AUTO 00000KT 10SM CLR A2999 RMK AO1,M
HTH,2022-07-18 04:35,-118.6315,38.5448,1282.89,89.60,41.00,18.33,220.00,5.00,0.00,30.00,M,10.00,M,BKN,OVC,M,M,9000.00,12000.00,M,M,M,M,M,M,M,M,M,85.82,KHTH 180435Z AUTO 22005KT 10SM BKN090 OVC120 32/05 A3000 RMK A01,M
TMT,2022-07-18 04:35,-117.1971,39.4643,1749.34,M,M,M,210.00,9.00,0.00,30.18,M,10.00,M,BKN,M,M,M,10000.00,M,M,M,M,M,M,M,M,M,M,M,KTMT 180435Z AUTO 21009KT 10SM BKN100 A3018 RMK AO2,M
05U,2022-07-18 04:35,-116.0051,39.6042,1811.23,73.40,51.80,46.71,210.00,15.00,0.00,30.21,M,10.00,M,FEW,BKN,OVC,M,6500.00,7500.00,11000.00,M,M,M,M,M,M,M,M,73.40,K05U 180435Z AUTO 21015KT 10SM FEW065 BKN075 OVC110 23/11 A3021 RMK A01,M
MEV,2022-07-18 04:35,-119.7500,38.9963,1441.42,80.60,44.60,28.08,260.00,11.00,0.00,30.07,M,10.00,17.00,CLR,M,M,M,M,M,M,M,M,M,M,M,M,M,M,79.42,KMEV 180435Z AUTO 26011G17KT 10SM CLR 27/07 A3007 RMK AO2,M
BVU,2022-07-18 04:35,-114.8611,35.9475,671.00,M,M,M,M,M,0.00,M,M,M,M,M,M,M,M,M,M,M,M,M,M,M,M,M,M,M,M,KBVU 180435Z AUTO RMK AO2 PNO PWINO TSNO,M
DRA,2022-07-18 04:53,-116.0278,36.6206,1009.00,90.00,42.00,18.88,60.00,4.00,0.00,29.93,1007.60,10.00,M,CLR,M,M,M,M,M,M,M,M,M,M,M,M,M,M,86.23,KDRA 180453Z AUTO 06004KT 10SM CLR 32/06 A2993 RMK AO2 SLP076 T03220056,M
ELY,2022-07-18 04:53,-114.8453,39.2950,1909.00,68.00,48.00,48.73,210.00,6.00,0.00,30.22,1011.30,10.00,M,CLR,M,M,M,M,M,M,M,M,M,M,M,M,M,M,68.00,KELY 180453Z AUTO 21006KT 10SM CLR 20/09 A3022 RMK AO2 SLP113 T02000089,M
LOL,2022-07-18 04:53,-118.5701,40.0684,1192.43,89.00,41.00,18.62,250.00,8.00,0.00,29.96,1009.00,10.00,M,CLR,M,M,M,M,M,M,M,M,M,M,M,M,M,M,85.39,KLOL 180453Z AUTO 25008KT 10SM CLR 32/05 A2996 RMK AO2 SLP090 T03170050,M
VGT,2022-07-18 04:53,-115.1933,36.2111,667.00,103.00,50.00,17.15,240.00,5.00,0.00,29.82,1008.00,10.00,M,CLR,M,M,M,M,M,M,M,M,M,M,M,M,M,M,100.01,KVGT 180453Z AUTO 24005KT 10SM CLR 39/10 A2982 RMK AO2 LTG DSNT SW SLP080 T03940100,M
P68,2022-07-18 04:53,-116.0056,39.6014,1993.00,73.00,50.00,44.29,210.00,13.00,0.00,30.19,1012.20,M,21.00,M,M,M,M,M,M,M,M,M,M,M,M,M,M,M,73.00,KP68 180453Z AUTO 21013G21KT 23/10 A3019 RMK AO1 SLP122 T02280100,M
BVU,2022-07-18 04:55,-114.8611,35.9475,671.00,M,M,M,M,M,0.00,M,M,M,M,M,M,M,M,M,M,M,M,M,M,M,M,M,M,M,M,KBVU 180455Z AUTO RMK AO2 PNO PWINO TSNO,M
RNO,2022-07-18 04:55,-119.7711,39.4839,1341.00,84.00,47.00,27.44,M,4.00,0.00,30.04,1010.10,10.00,M,FEW,FEW,FEW,M,11000.00,14000.00,18000.00,M,M,M,M,M,M,M,M,81.77,KRNO 180455Z VRB04KT 10SM FEW110 FEW140 FEW180 29/08 A3004 RMK AO2 SLP101 ACSL DSNT NE THRU SE T02890083,M
TMT,2022-07-18 04:55,-117.1971,39.4643,1749.34,M,M,M,190.00,4.00,0.00,30.19,M,10.00,M,BKN,M,M,M,10000.00,M,M,M,M,M,M,M,M,M,M,M,KTMT 180455Z AUTO 19004KT 10SM BKN100 A3019 RMK AO2,M
CXP,2022-07-18 04:55,-119.7326,39.1923,1431.00,80.60,44.60,28.08,M,4.00,0.00,30.09,M,10.00,M,CLR,M,M,M,M,M,M,M,M,M,M,M,M,M,M,79.42,KCXP 180455Z AUTO VRB04KT 10SM CLR 27/07 A3009 RMK AO2,M
RTS,2022-07-18 04:55,-119.8764,39.6682,1539.00,77.00,42.80,29.51,300.00,11.00,0.00,30.11,M,10.00,M,CLR,M,M,M,M,M,M,M,M,M,M,M,M,M,M,77.00,KRTS 180455Z AUTO 30011KT 10SM CLR 25/06 A3011 RMK AO2,M
05U,2022-07-18 04:55,-116.0051,39.6042,1811.23,73.40,51.80,46.71,230.00,9.00,0.00,30.23,M,10.00,18.00,SCT,BKN,M,M,7500.00,11000.00,M,M,M,M,M,M,M,M,M,73.40,K05U 180455Z AUTO 23009G18KT 10SM SCT075 BKN110 23/11 A3023 RMK A01,M
MEV,2022-07-18 04:55,-119.7500,38.9963,1441.42,78.80,44.60,29.79,M,6.00,0.00,30.08,M,10.00,11.00,CLR,M,M,M,M,M,M,M,M,M,M,M,M,M,M,78.80,KMEV 180455Z AUTO VRB06G11KT 10SM CLR 26/07 A3008 RMK AO2,M
BAM,2022-07-18 04:55,-116.8743,40.5990,1382.36,M,M,M,0.00,0.00,0.00,30.00,M,10.00,M,CLR,M,M,M,M,M,M,M,M,M,M,M,M,M,M,M,KBAM 180455Z AUTO 00000KT 10SM CLR A3000 RMK AO1,M
HTH,2022-07-18 04:55,-118.6315,38.5448,1282.89,91.40,37.40,15.05,260.00,8.00,0.00,30.01,M,10.00,M,FEW,BKN,OVC,M,5500.00,8000.00,12000.00,M,M,M,M,M,M,M,M,87.23,KHTH 180455Z AUTO 26008KT 10SM FEW055 BKN080 OVC120 33/03 A3001 RMK A01,M
TPH,2022-07-18 04:56,-117.0904,38.0505,1654.00,78.00,51.00,38.92,10.00,9.00,0.00,30.14,1010.80,10.00,M,BKN,M,M,M,11000.00,M,M,M,M,M,M,M,M,M,M,78.10,KTPH 180456Z AUTO 01009KT 10SM BKN110 26/11 A3014 RMK AO2 SLP108 T02560106,M
EKO,2022-07-18 04:56,-115.7860,40.8242,1367.00,80.00,46.00,30.11,200.00,6.00,0.00,30.05,1010.20,10.00,M,CLR,M,M,M,M,M,M,M,M,M,M,M,M,M,M,79.26,KEKO 180456Z AUTO 20006KT 10SM CLR 27/08 A3005 RMK AO2 SLP102 T02670078,M
WMC,2022-07-18 04:56,-117.8072,40.9019,1315.00,89.00,41.00,18.62,240.00,9.00,0.00,29.97,1008.10,10.00,M,CLR,M,M,M,M,M,M,M,M,M,M,M,M,M,M,85.39,KWMC 180456Z AUTO 24009KT 10SM CLR 32/05 A2997 RMK AO2 SLP081 T03170050 TSNO,M
HND,2022-07-18 04:56,-115.1344,35.9729,742.79,M,M,M,M,M,0.00,M,M,M,M,M,M,M,M,M,M,M,M,M,M,M,M,M,M,M,M,KHND 180456Z AUTO RMK AO2 LTG DSNT W SLPNO PWINO FZRANO $,M
LAS,2022-07-18 04:56,-115.1634,36.0719,663.00,101.00,49.00,17.48,190.00,7.00,0.00,29.83,1006.80,10.00,M,FEW,SCT,BKN,M,7500.00,13000.00,23000.00,M,M,M,M,M,M,M,M,97.67,KLAS 180456Z 19007KT 10SM FEW075 SCT130 BKN230 38/09 A2983 RMK AO2 LTG DSNT W SLP068 CB DSNT SW-W T03830094,M
LSV,2022-07-18 04:58,-115.0343,36.2362,570.00,99.00,48.20,17.98,0.00,0.00,0.00,29.79,1005.80,10.00,M,CLR,M,M,M,M,M,M,M,M,M,M,M,M,M,M,95.68,KLSV 180458Z AUTO 00000KT 10SM CLR 37/09 A2979 RMK AO2 SLP058 T03730090 $,M
INS,2022-07-18 04:58,-115.6733,36.5872,955.00,94.80,40.00,14.93,180.00,6.00,0.00,29.91,1006.90,10.00,M,CLR,M,M,M,M,M,M,M,M,M,M,M,M,M,M,90.43,KINS 180458Z AUTO 18006KT 10SM CLR 35/04 A2991 RMK AO2 SLP069 T03490044 $,M
TMT,2022-07-18 05:15,-117.1971,39.4643,1749.34,71.60,51.00,48.01,130.00,5.00,0.00,30.19,M,10.00,M,SCT,M,M,M,10000.00,M,M,M,M,M,M,M,M,M,M,71.60,KTMT 180515Z AUTO 13005KT 10SM SCT100 22/11 A3019 RMK AO2 T02200105,M
BVU,2022-07-18 05:15,-114.8611,35.9475,671.00,M,M,M,M,M,0.00,M,M,M,M,M,M,M,M,M,M,M,M,M,M,M,M,M,M,M,M,KBVU 180515Z AUTO RMK AO2 PNO PWINO TSNO,M
CXP,2022-07-18 05:15,-119.7326,39.1923,1431.00,80.60,44.60,28.08,210.00,5.00,0.00,30.09,M,10.00,13.00,CLR,M,M,M,M,M,M,M,M,M,M,M,M,M,M,79.42,KCXP 180515Z AUTO 21005G13KT 10SM CLR 27/07 A3009 RMK AO2,M
RTS,2022-07-18 05:15,-119.8764,39.6682,1539.00,75.20,42.80,31.34,310.00,9.00,0.00,30.11,M,10.00,M,CLR,M,M,M,M,M,M,M,M,M,M,M,M,M,M,75.20,KRTS 180515Z AUTO 31009KT 10SM CLR 24/06 A3011 RMK AO2,M
05U,2022-07-18 05:15,-116.0051,39.6042,1811.23,71.60,51.80,49.64,200.00,11.00,0.00,30.23,M,10.00,M,BKN,M,M,M,11000.00,M,M,M,M,M,M,M,M,M,M,71.60,K05U 180515Z AUTO 20011KT 10SM BKN110 22/11 A3023 RMK A01,M
BAM,2022-07-18 05:15,-116.8743,40.5990,1382.36,M,M,M,250.00,9.00,0.00,30.02,M,10.00,M,CLR,M,M,M,M,M,M,M,M,M,M,M,M,M,M,M,KBAM 180515Z AUTO 25009KT 10SM CLR A3002 RMK AO1,M
MEV,2022-07-18 05:15,-119.7500,38.9963,1441.42,77.00,44.60,31.62,180.00,5.00,0.00,30.09,M,10.00,12.00,CLR,M,M,M,M,M,M,M,M,M,M,M,M,M,M,77.00,KMEV 180515Z AUTO 18005G12KT 10SM CLR 25/07 A3009 RMK AO2,M
HTH,2022-07-18 05:15,-118.6315,38.5448,1282.89,89.60,37.40,15.92,250.00,5.00,0.00,30.02,M,10.00,11.00,FEW,SCT,BKN,M,4800.00,6000.00,8000.00,M,M,M,M,M,M,M,M,85.67,KHTH 180515Z AUTO 25005G11KT 10SM FEW048 SCT060 BKN080 32/03 A3002 RMK A01,M
MEV,2022-07-18 05:35,-119.7500,38.9963,1441.42,75.20,44.60,33.57,150.00,5.00,0.00,30.09,M,10.00,M,CLR,M,M,M,M,M,M,M,M,M,M,M,M,M,M,75.20,KMEV 180535Z AUTO 15005KT 10SM CLR 24/07 A3009 RMK AO2,M
TMT,2022-07-18 05:35,-117.1971,39.4643,1749.34,M,M,M,240.00,4.00,0.00,30.21,M,10.00,M,SCT,M,M,M,12000.00,M,M,M,M,M,M,M,M,M,M,M,KTMT 180535Z AUTO 24004KT 10SM SCT120 A3021 RMK AO2,M
BVU,2022-07-18 05:35,-114.8611,35.9475,671.00,M,M,M,M,M,0.00,M,M,M,M,M,M,M,M,M,M,M,M,M,M,M,M,M,M,M,M,KBVU 180535Z AUTO RMK AO2 PNO PWINO TSNO,M
CXP,2022-07-18 05:35,-119.7326,39.1923,1431.00,78.80,46.40,31.90,0.00,0.00,0.00,30.10,M,10.00,M,CLR,M,M,M,M,M,M,M,M,M,M,M,M,M,M,78.80,KCXP 180535Z AUTO 00000KT 10SM CLR 26/08 A3010 RMK AO2,M
RTS,2022-07-18 05:35,-119.8764,39.6682,1539.00,75.20,42.80,31.34,320.00,10.00,0.00,30.11,M,10.00,M,CLR,M,M,M,M,M,M,M,M,M,M,M,M,M,M,75.20,KRTS 180535Z AUTO 32010KT 10SM CLR 24/06 A3011 RMK AO2,M
05U,2022-07-18 05:35,-116.0051,39.6042,1811.23,71.60,50.00,46.43,180.00,11.00,0.00,30.24,M,10.00,18.00,FEW,SCT,OVC,M,5000.00,7000.00,10000.00,M,M,M,M,M,M,M,M,71.60,K05U 180535Z AUTO 18011G18KT 10SM FEW050 SCT070 OVC100 22/10 A3024 RMK A01,M
BAM,2022-07-18 05:35,-116.8743,40.5990,1382.36,M,M,M,230.00,12.00,0.00,30.02,M,10.00,M,CLR,M,M,M,M,M,M,M,M,M,M,M,M,M,M,M,KBAM 180535Z AUTO 23012KT 10SM CLR A3002 RMK AO1,M
HTH,2022-07-18 05:35,-118.6315,38.5448,1282.89,89.60,41.00,18.33,M,6.00,0.00,30.03,M,10.00,12.00,FEW,SCT,BKN,M,4800.00,6500.00,7500.00,M,M,M,M,M,M,M,M,85.82,KHTH 180535Z AUTO VRB06G12KT 050V110 10SM FEW048 SCT065 BKN075 32/05 A3003 RMK A01,M
CXP,2022-07-18 05:50,-119.7326,39.1923,1431.00,78.80,46.40,31.90,150.00,3.00,0.00,30.11,M,10.00,M,CLR,M,M,M,M,M,M,M,M,M,M,M,M,M,M,78.80,KCXP 180550Z AUTO 15003KT 10SM CLR 26/08 A3011 RMK AO2,M
ELY,2022-07-18 05:53,-114.8453,39.2950,1909.00,67.00,49.00,52.35,190.00,7.00,0.00,30.23,1011.70,10.00,M,CLR,M,M,M,M,M,M,M,M,M,M,M,M,M,M,66.90,KELY 180553Z AUTO 19007KT 10SM CLR 19/09 A3023 RMK AO2 SLP117 T01940094 10267 20194 51011,M
VGT,2022-07-18 05:53,-115.1933,36.2111,667.00,101.00,46.00,15.67,10.00,6.00,0.00,29.84,1008.40,10.00,M,CLR,M,M,M,M,M,M,M,M,M,M,M,M,M,M,97.06,KVGT 180553Z AUTO 01006KT 10SM CLR 38/08 A2984 RMK AO2 SLP084 T03830078 10433 20383 51016,M
DRA,2022-07-18 05:53,-116.0278,36.6206,1009.00,88.00,43.00,20.82,0.00,0.00,0.00,29.94,1008.30,10.00,M,CLR,M,M,M,M,M,M,M,M,M,M,M,M,M,M,84.58,KDRA 180553Z AUTO 00000KT 10SM CLR 31/06 A2994 RMK AO2 SLP083 T03110061 10383 20311 51016,M
P68,2022-07-18 05:53,-116.0056,39.6014,1993.00,71.00,50.00,47.23,200.00,19.00,0.00,30.21,1013.30,M,27.00,M,M,M,M,M,M,M,M,M,M,M,M,27.00,200.00,2022-07-18 05:51,71.10,KP68 180553Z AUTO 20019G27KT 22/10 A3021 RMK AO1 PK WND 20027/0551 SLP133 T02170100 10267 20217 53021,M
LOL,2022-07-18 05:53,-118.5701,40.0684,1192.43,88.00,41.00,19.28,240.00,9.00,0.00,29.99,1009.70,10.00,M,CLR,M,M,M,M,M,M,M,M,M,M,M,M,M,M,84.46,KLOL 180553Z AUTO 24009KT 10SM CLR 31/05 A2999 RMK AO2 SLP097 T03110050 10389 20306 51027,M
HTH,2022-07-18 05:55,-118.6315,38.5448,1282.89,87.80,42.80,20.79,140.00,9.00,0.00,30.04,M,10.00,M,FEW,SCT,BKN,M,7500.00,9000.00,11000.00,M,M,M,M,M,M,M,M,84.40,KHTH 180555Z AUTO 14009KT 10SM FEW075 SCT090 BKN110 31/06 A3004 RMK A01,M
05U,2022-07-18 05:55,-116.0051,39.6042,1811.23,71.60,50.00,46.43,200.00,20.00,0.00,30.24,M,10.00,M,FEW,FEW,BKN,M,5000.00,7000.00,11000.00,M,M,M,M,M,M,M,M,71.60,K05U 180555Z AUTO 20020KT 10SM FEW050 FEW070 BKN110 22/10 A3024 RMK A01,M
TMT,2022-07-18 05:55,-117.1971,39.4643,1749.34,69.40,54.30,58.64,0.00,0.00,0.00,30.21,M,10.00,M,OVC,M,M,M,11000.00,M,M,M,M,M,M,M,M,M,M,69.40,KTMT 180555Z AUTO 00000KT 10SM OVC110 21/12 A3021 RMK AO2 T02080124,M
BVU,2022-07-18 05:55,-114.8611,35.9475,671.00,M,M,M,M,M,0.00,M,M,M,M,M,M,M,M,M,M,M,M,M,M,M,M,M,M,M,M,KBVU 180555Z AUTO RMK AO2 PNO PWINO TSNO,M
RNO,2022-07-18 05:55,-119.7711,39.4839,1341.00,82.00,47.00,29.28,200.00,3.00,0.00,30.06,1010.70,10.00,M,FEW,SCT,SCT,M,11000.00,14000.00,18000.00,M,M,M,M,M,M,M,M,80.43,KRNO 180555Z 20003KT 10SM FEW110 SCT140 SCT180 28/08 A3006 RMK AO2 SLP107 T02780083 10367 20278 53019,M
RTS,2022-07-18 05:55,-119.8764,39.6682,1539.00,75.20,42.80,31.34,330.00,6.00,0.00,30.11,M,10.00,11.00,CLR,M,M,M,M,M,M,M,M,M,M,M,M,M,M,75.20,KRTS 180555Z AUTO 33006G11KT 10SM CLR 24/06 A3011 RMK AO2,M
MEV,2022-07-18 05:55,-119.7500,38.9963,1441.42,68.00,48.20,49.10,150.00,9.00,0.00,30.09,M,10.00,M,CLR,M,M,M,M,M,M,M,M,M,M,M,M,M,M,68.00,KMEV 180555Z AUTO 15009KT 10SM CLR 20/09 A3009 RMK AO2,M
BAM,2022-07-18 05:55,-116.8743,40.5990,1382.36,M,M,M,230.00,13.00,0.00,30.02,M,10.00,M,SCT,BKN,BKN,M,4800.00,5500.00,7000.00,M,M,M,M,M,M,M,M,M,KBAM 180555Z AUTO 23013KT 10SM SCT048 BKN055 BKN070 A3002 RMK AO1,M
TPH,2022-07-18 05:56,-117.0904,38.0505,1654.00,77.00,52.00,41.72,20.00,11.00,0.00,30.15,1010.90,10.00,M,SCT,M,M,M,12000.00,M,M,M,M,M,M,M,M,M,M,77.00,KTPH 180556Z AUTO 02011KT 10SM SCT120 25/11 A3015 RMK AO2 SLP109 T02500111 10350 20250 51016,M
LAS,2022-07-18 05:56,-115.1634,36.0719,663.00,98.00,52.00,21.34,180.00,4.00,0.00,29.85,1007.40,10.00,M,FEW,FEW,BKN,M,7500.00,13000.00,25000.00,M,M,M,M,M,M,M,M,95.53,KLAS 180556Z 18004KT 10SM FEW075 FEW130 BKN250 37/11 A2985 RMK AO2 SLP074 T03670111 10422 20367 51019,M
HND,2022-07-18 05:56,-115.1344,35.9729,742.79,M,M,M,M,M,0.00,M,M,M,M,M,M,M,M,M,M,M,M,M,M,M,M,M,M,M,M,KHND 180556Z AUTO RMK AO2 SLPNO 6//// PWINO FZRANO $,M
WMC,2022-07-18 05:56,-117.8072,40.9019,1315.00,87.00,41.00,19.83,250.00,9.00,0.00,30.00,1009.00,10.00,M,CLR,M,M,M,M,M,M,M,M,M,M,M,M,M,M,83.73,KWMC 180556Z AUTO 25009KT 10SM CLR 31/05 A3000 RMK AO2 SLP090 T03060050 10394 20306 51027 TSNO,M
EKO,2022-07-18 05:56,-115.7860,40.8242,1367.00,82.00,46.00,28.30,170.00,12.00,0.00,30.07,1010.20,10.00,21.00,CLR,M,M,M,M,M,M,M,M,M,M,M,M,M,M,80.36,KEKO 180556Z AUTO 17012G21KT 10SM CLR 28/08 A3007 RMK AO2 SLP102 T02780078 10317 20261 51014,M
LSV,2022-07-18 05:58,-115.0343,36.2362,570.00,100.20,50.50,18.94,190.00,9.00,0.00,29.80,1005.90,10.00,M,CLR,M,M,M,M,M,M,M,M,M,M,M,M,M,M,97.34,KLSV 180558Z AUTO 19009KT 10SM CLR 38/10 A2980 RMK AO2 SLP059 T03790103 10434 20372 52016 $,M
INS,2022-07-18 05:58,-115.6733,36.5872,955.00,91.60,40.60,16.95,240.00,3.00,0.00,29.92,1007.40,10.00,M,FEW,M,M,M,20000.00,M,M,M,M,M,M,M,M,M,M,87.56,KINS 180558Z AUTO 24003KT 10SM FEW200 33/05 A2992 RMK AO2 SLP074 T03310048 10394 20331 52014 $,M
CXP,2022-07-18 06:15,-119.7326,39.1923,1431.00,77.00,46.40,33.85,150.00,4.00,0.00,30.11,M,10.00,M,CLR,M,M,M,M,M,M,M,M,M,M,M,M,M,M,77.00,KCXP 180615Z AUTO 15004KT 10SM CLR 25/08 A3011 RMK AO2,M
BVU,2022-07-18 06:15,-114.8611,35.9475,671.00,M,M,M,M,M,0.00,M,M,M,M,M,M,M,M,M,M,M,M,M,M,M,M,M,M,M,M,KBVU 180615Z AUTO RMK AO2 PNO PWINO TSNO,M
TMT,2022-07-18 06:15,-117.1971,39.4643,1749.34,M,M,M,190.00,4.00,0.00,30.20,M,10.00,M,OVC,M,M,M,11000.00,M,M,M,M,M,M,M,M,M,M,M,KTMT 180615Z AUTO 19004KT 10SM OVC110 A3020 RMK AO2,M
HTH,2022-07-18 06:15,-118.6315,38.5448,1282.89,87.80,42.80,20.79,110.00,5.00,0.00,30.04,M,10.00,M,FEW,SCT,BKN,M,3600.00,5000.00,9000.00,M,M,M,M,M,M,M,M,84.40,KHTH 180615Z AUTO 11005KT 10SM FEW036 SCT050 BKN090 31/06 A3004 RMK A01,M
BAM,2022-07-18 06:15,-116.8743,40.5990,1382.36,M,M,M,230.00,9.00,0.00,30.03,M,10.00,15.00,SCT,SCT,M,M,5000.00,6500.00,M,M,M,M,M,M,M,M,M,M,KBAM 180615Z AUTO 23009G15KT 10SM SCT050 SCT065 A3003 RMK AO1,M
MEV,2022-07-18 06:15,-119.7500,38.9963,1441.42,71.60,44.60,37.89,150.00,10.00,0.00,30.10,M,10.00,M,CLR,M,M,M,M,M,M,M,M,M,M,M,M,M,M,71.60,KMEV 180615Z AUTO 15010KT 10SM CLR 22/07 A3010 RMK AO2,M
05U,2022-07-18 06:15,-116.0051,39.6042,1811.23,71.60,48.20,43.42,210.00,13.00,0.00,30.25,M,10.00,22.00,FEW,BKN,OVC,M,6500.00,8000.00,11000.00,M,M,M,M,M,M,M,M,71.60,K05U 180615Z AUTO 21013G22KT 10SM FEW065 BKN080 OVC110 22/09 A3025 RMK A01,M
RTS,2022-07-18 06:15,-119.8764,39.6682,1539.00,73.40,42.80,33.29,350.00,9.00,0.00,30.12,M,10.00,M,CLR,M,M,M,M,M,M,M,M,M,M,M,M,M,M,73.40,KRTS 180615Z AUTO 35009KT 10SM CLR 23/06 A3012 RMK AO2,M
BVU,2022-07-18 06:35,-114.8611,35.9475,671.00,M,M,M,M,M,0.00,M,M,M,M,M,M,M,M,M,M,M,M,M,M,M,M,M,M,M,M,KBVU 180635Z AUTO RMK AO2 PNO PWINO TSNO,M
TMT,2022-07-18 06:35,-117.1971,39.4643,1749.34,M,M,M,0.00,0.00,0.00,30.20,M,10.00,M,BKN,M,M,M,12000.00,M,M,M,M,M,M,M,M,M,M,M,KTMT 180635Z AUTO 00000KT 10SM BKN120 A3020 RMK AO2,M
HTH,2022-07-18 06:35,-118.6315,38.5448,1282.89,86.00,42.80,22.02,90.00,6.00,0.00,30.04,M,10.00,M,CLR,M,M,M,M,M,M,M,M,M,M,M,M,M,M,82.95,KHTH 180635Z AUTO 09006KT 10SM CLR 30/06 A3004 RMK A01,M
BAM,2022-07-18 06:35,-116.8743,40.5990,1382.36,M,M,M,230.00,10.00,0.00,30.04,M,10.00,M,BKN,M,M,M,12000.00,M,M,M,M,M,M,M,M,M,M,M,KBAM 180635Z AUTO 23010KT 10SM BKN120 A3004 RMK AO1,M
MEV,2022-07-18 06:35,-119.7500,38.9963,1441.42,68.00,46.40,45.88,140.00,7.00,0.00,30.10,M,10.00,M,CLR,M,M,M,M,M,M,M,M,M,M,M,M,M,M,68.00,KMEV 180635Z AUTO 14007KT 10SM CLR 20/08 A3010 RMK AO2,M
05U,2022-07-18 06:35,-116.0051,39.6042,1811.23,66.20,53.60,63.82,0.00,0.00,0.00,30.24,M,8.00,15.00,SCT,BKN,OVC,M,4200.00,6500.00,7500.00,M,M,M,M,M,M,M,M,66.20,K05U 180635Z AUTO 00000G15KT 8SM SCT042 BKN065 OVC075 19/12 A3024 RMK A01,M
RTS,2022-07-18 06:35,-119.8764,39.6682,1539.00,73.40,42.80,33.29,330.00,12.00,0.00,30.12,M,10.00,M,CLR,M,M,M,M,M,M,M,M,M,M,M,M,M,M,73.40,KRTS 180635Z AUTO 33012KT 10SM CLR 23/06 A3012 RMK AO2,M
CXP,2022-07-18 06:35,-119.7326,39.1923,1431.00,77.00,46.40,33.85,0.00,0.00,0.00,30.11,M,10.00,M,CLR,M,M,M,M,M,M,M,M,M,M,M,M,M,M,77.00,KCXP 180635Z AUTO 00000KT 10SM CLR 25/08 A3011 RMK AO2,M
CXP,2022-07-18 06:50,-119.7326,39.1923,1431.00,73.40,46.40,38.18,0.00,0.00,0.00,30.12,M,10.00,M,CLR,M,M,M,M,M,M,M,M,M,M,M,M,M,M,73.40,KCXP 180650Z AUTO 00000KT 10SM CLR 23/08 A3012 RMK AO2,M
LOL,2022-07-18 06:53,-118.5701,40.0684,1192.43,86.00,42.00,21.43,250.00,12.00,0.00,30.00,1010.20,10.00,M,CLR,M,M,M,M,M,M,M,M,M,M,M,M,M,M,82.92,KLOL 180653Z AUTO 25012KT 10SM CLR 30/06 A3000 RMK AO2 SLP102 T03000056,M
P68,2022-07-18 06:53,-116.0056,39.6014,1993.00,66.00,55.00,67.64,170.00,5.00,0.00,30.21,1014.40,M,M,M,M,M,M,M,M,M,M,M,M,M,M,31.00,200.00,2022-07-18 05:54,66.00,KP68 180653Z AUTO 17005KT 19/13 A3021 RMK AO1 PK WND 20031/0554 SLP144 T01890128,M
ELY,2022-07-18 06:53,-114.8453,39.2950,1909.00,63.00,47.00,55.64,160.00,9.00,0.00,30.24,1012.20,10.00,M,SCT,M,M,M,10000.00,M,M,M,M,M,M,M,M,M,M,63.00,KELY 180653Z AUTO 16009KT 10SM SCT100 17/08 A3024 RMK AO2 SLP122 T01720083,M
VGT,2022-07-18 06:53,-115.1933,36.2111,667.00,98.00,48.00,18.39,110.00,3.00,0.00,29.84,1008.50,10.00,M,CLR,M,M,M,M,M,M,M,M,M,M,M,M,M,M,94.63,KVGT 180653Z AUTO 11003KT 10SM CLR 37/09 A2984 RMK AO2 SLP085 T03670089,M
DRA,2022-07-18 06:53,-116.0278,36.6206,1009.00,87.00,44.00,22.34,40.00,7.00,0.00,29.94,1008.00,10.00,M,CLR,M,M,M,M,M,M,M,M,M,M,M,M,M,M,83.91,KDRA 180653Z AUTO 04007KT 10SM CLR 31/07 A2994 RMK AO2 SLP080 T03060067,M
BAM,2022-07-18 06:55,-116.8743,40.5990,1382.36,M,M,M,220.00,14.00,0.00,30.04,M,10.00,21.00,OVC,M,M,M,12000.00,M,M,M,M,M,M,M,M,M,M,M,KBAM 180655Z AUTO 22014G21KT 10SM OVC120 A3004 RMK AO1,M
MEV,2022-07-18 06:55,-119.7500,38.9963,1441.42,69.80,46.40,43.13,0.00,0.00,0.00,30.10,M,10.00,M,CLR,M,M,M,M,M,M,M,M,M,M,M,M,M,M,69.80,KMEV 180655Z AUTO 00000KT 10SM CLR 21/08 A3010 RMK AO2,M
BVU,2022-07-18 06:55,-114.8611,35.9475,671.00,M,M,M,M,M,0.00,M,M,M,M,M,M,M,M,M,M,M,M,M,M,M,M,M,M,M,M,KBVU 180655Z AUTO RMK AO2 PNO PWINO TSNO,M
TMT,2022-07-18 06:55,-117.1971,39.4643,1749.34,68.00,51.80,56.13,60.00,5.00,0.00,30.20,M,10.00,M,BKN,M,M,M,11000.00,M,M,M,M,M,M,M,M,M,M,68.00,KTMT 180655Z AUTO 06005KT 10SM BKN110 20/11 A3020 RMK AO2 T02000110,M
HTH,2022-07-18 06:55,-118.6315,38.5448,1282.89,84.20,44.60,24.99,100.00,6.00,0.00,30.05,M,10.00,M,FEW,M,M,M,12000.00,M,M,M,M,M,M,M,M,M,M,81.73,KHTH 180655Z AUTO 10006KT 10SM FEW120 29/07 A3005 RMK A01,M
RNO,2022-07-18 06:55,-119.7711,39.4839,1341.00,81.00,47.00,30.24,290.00,5.00,0.00,30.06,1010.50,10.00,M,FEW,M,M,M,11000.00,M,M,M,M,M,M,M,M,M,M,79.83,KRNO 180655Z 29005KT 10SM FEW110 27/08 A3006 RMK AO2 SLP105 T02720083,M
RTS,2022-07-18 06:55,-119.8764,39.6682,1539.00,73.40,42.80,33.29,310.00,10.00,0.00,30.12,M,10.00,M,CLR,M,M,M,M,M,M,M,M,M,M,M,M,M,M,73.40,KRTS 180655Z AUTO 31010KT 10SM CLR 23/06 A3012 RMK AO2,M
05U,2022-07-18 06:55,-116.0051,39.6042,1811.23,66.20,55.40,68.15,170.00,6.00,0.00,30.23,M,10.00,M,FEW,BKN,OVC,M,2400.00,7000.00,10000.00,M,M,M,M,M,M,M,M,66.20,K05U 180655Z AUTO 17006KT 10SM FEW024 BKN070 OVC100 19/13 A3023 RMK A01,M
LAS,2022-07-18 06:56,-115.1634,36.0719,663.00,96.00,53.00,23.62,190.00,6.00,0.00,29.84,1007.20,10.00,M,FEW,SCT,M,M,7500.00,20000.00,M,M,M,M,M,M,M,M,M,93.72,KLAS 180656Z 19006KT 10SM FEW075 SCT200 36/12 A2984 RMK AO2 SLP072 T03560117,M
EKO,2022-07-18 06:56,-115.7860,40.8242,1367.00,81.00,45.00,28.15,190.00,11.00,0.00,30.09,1011.00,10.00,21.00,BKN,M,M,M,12000.00,M,M,M,M,M,M,M,M,M,M,79.68,KEKO 180656Z AUTO 19011G21KT 10SM BKN120 27/07 A3009 RMK AO2 SLP110 T02720072,M
NFL,2022-07-18 06:56,-118.7010,39.4166,1199.00,85.00,45.00,24.81,300.00,5.00,0.00,30.02,1013.50,10.00,M,CLR,M,M,M,M,M,M,M,M,M,M,M,M,M,M,82.27,KNFL 180656Z AUTO 30005KT 10SM CLR 29/07 A3002 RMK AO2 SLP135 T02940072,M
WMC,2022-07-18 06:56,-117.8072,40.9019,1315.00,85.00,41.00,21.28,220.00,9.00,0.00,30.02,1009.50,10.00,M,CLR,M,M,M,M,M,M,M,M,M,M,M,M,M,M,82.03,KWMC 180656Z AUTO 22009KT 10SM CLR 29/05 A3002 RMK AO2 SLP095 T02940050 TSNO,M
TPH,2022-07-18 06:56,-117.0904,38.0505,1654.00,75.00,53.00,46.44,20.00,15.00,T,30.16,1011.30,10.00,M,FEW,M,M,M,12000.00,M,M,M,M,M,M,M,M,M,M,75.00,KTPH 180656Z AUTO 02015KT 10SM FEW120 24/12 A3016 RMK AO2 RAB11E21 SLP113 P0000 T02390117,M
HND,2022-07-18 06:56,-115.1344,35.9729,742.79,M,M,M,M,M,0.00,M,M,M,M,M,M,M,M,M,M,M,M,M,M,M,M,M,M,M,M,KHND 180656Z AUTO RMK AO2 SLPNO PWINO FZRANO $,M
INS,2022-07-18 06:58,-115.6733,36.5872,955.00,90.30,41.00,17.93,80.00,4.00,0.00,29.93,1007.70,10.00,M,CLR,M,M,M,M,M,M,M,M,M,M,M,M,M,M,86.43,KINS 180658Z AUTO 08004KT 10SM CLR 32/05 A2993 RMK AO2 SLP077 T03240050 $,M
LSV,2022-07-18 06:58,-115.0343,36.2362,570.00,97.50,49.60,19.89,220.00,5.00,0.00,29.80,1005.80,10.00,M,CLR,M,M,M,M,M,M,M,M,M,M,M,M,M,M,94.34,KLSV 180658Z AUTO 22005KT 10SM CLR 36/10 A2980 RMK AO2 SLP058 T03640098 $,M
BVU,2022-07-18 07:15,-114.8611,35.9475,671.00,M,M,M,M,M,0.00,M,M,M,M,M,M,M,M,M,M,M,M,M,M,M,M,M,M,M,M,KBVU 180715Z AUTO RMK AO2 PNO PWINO TSNO,M
CXP,2022-07-18 07:15,-119.7326,39.1923,1431.00,73.40,44.60,35.66,0.00,0.00,0.00,30.11,M,10.00,M,CLR,M,M,M,M,M,M,M,M,M,M,M,M,M,M,73.40,KCXP 180715Z AUTO 00000KT 10SM CLR 23/07 A3011 RMK AO2,M
RTS,2022-07-18 07:15,-119.8764,39.6682,1539.00,73.40,42.80,33.29,320.00,11.00,0.00,30.12,M,10.00,M,CLR,M,M,M,M,M,M,M,M,M,M,M,M,M,M,73.40,KRTS 180715Z AUTO 32011KT 10SM CLR 23/06 A3012 RMK AO2,M
05U,2022-07-18 07:15,-116.0051,39.6042,1811.23,66.20,51.80,59.74,110.00,5.00,0.00,30.22,M,10.00,M,FEW,SCT,OVC,M,5500.00,7000.00,10000.00,M,M,M,M,M,M,M,M,66.20,K05U 180715Z AUTO 11005KT 10SM FEW055 SCT070 OVC100 19/11 A3022 RMK A01,M
MEV,2022-07-18 07:15,-119.7500,38.9963,1441.42,68.00,44.60,42.85,20.00,4.00,0.00,30.10,M,10.00,M,CLR,M,M,M,M,M,M,M,M,M,M,M,M,M,M,68.00,KMEV 180715Z AUTO 02004KT 10SM CLR 20/07 A3010 RMK AO2,M
BAM,2022-07-18 07:15,-116.8743,40.5990,1382.36,M,M,M,230.00,9.00,0.00,30.04,M,10.00,M,OVC,M,M,M,11000.00,M,M,M,M,M,M,M,M,M,M,M,KBAM 180715Z AUTO 23009KT 10SM OVC110 A3004 RMK AO1,M
HTH,2022-07-18 07:15,-118.6315,38.5448,1282.89,84.20,42.80,23.33,80.00,7.00,0.00,30.05,M,10.00,M,FEW,M,M,M,12000.00,M,M,M,M,M,M,M,M,M,M,81.61,KHTH 180715Z AUTO 08007KT 10SM FEW120 29/06 A3005 RMK A01,M
TMT,2022-07-18 07:15,-117.1971,39.4643,1749.34,M,M,M,0.00,0.00,0.00,30.20,M,10.00,M,OVC,M,M,M,11000.00,M,M,M,M,M,M,M,M,M,M,M,KTMT 180715Z AUTO 00000KT 10SM OVC110 A3020 RMK AO2,M
TMT,2022-07-18 07:35,-117.1971,39.4643,1749.34,M,M,M,270.00,4.00,0.00,30.20,M,10.00,M,SCT,M,M,M,11000.00,M,M,M,M,M,M,M,M,M,M,M,KTMT 180735Z AUTO 27004KT 10SM SCT110 A3020 RMK AO2,M
CXP,2022-07-18 07:35,-119.7326,39.1923,1431.00,71.60,44.60,37.89,0.00,0.00,0.00,30.11,M,10.00,M,CLR,M,M,M,M,M,M,M,M,M,M,M,M,M,M,71.60,KCXP 180735Z AUTO 00000KT 10SM CLR 22/07 A3011 RMK AO2,M
RTS,2022-07-18 07:35,-119.8764,39.6682,1539.00,73.40,42.80,33.29,320.00,10.00,0.00,30.12,M,10.00,M,CLR,M,M,M,M,M,M,M,M,M,M,M,M,M,M,73.40,KRTS 180735Z AUTO 32010KT 10SM CLR 23/06 A3012 RMK AO2,M
05U,2022-07-18 07:35,-116.0051,39.6042,1811.23,66.20,53.60,63.82,0.00,0.00,0.00,30.23,M,10.00,M,SCT,M,M,M,10000.00,M,M,M,M,M,M,M,M,M,M,66.20,K05U 180735Z AUTO 00000KT 10SM SCT100 19/12 A3023 RMK A01,M
MEV,2022-07-18 07:35,-119.7500,38.9963,1441.42,64.40,44.60,48.55,70.00,6.00,0.00,30.10,M,10.00,M,CLR,M,M,M,M,M,M,M,M,M,M,M,M,M,M,64.40,KMEV 180735Z AUTO 07006KT 10SM CLR 18/07 A3010 RMK AO2,M
BAM,2022-07-18 07:35,-116.8743,40.5990,1382.36,M,M,M,220.00,10.00,0.00,30.05,M,10.00,M,BKN,M,M,M,11000.00,M,M,M,M,M,M,M,M,M,M,M,KBAM 180735Z AUTO 22010KT 10SM BKN110 A3005 RMK AO1,M
HTH,2022-07-18 07:35,-118.6315,38.5448,1282.89,84.20,42.80,23.33,60.00,4.00,0.00,30.05,M,10.00,M,FEW,M,M,M,12000.00,M,M,M,M,M,M,M,M,M,M,81.61,KHTH 180735Z AUTO 06004KT 10SM FEW120 29/06 A3005 RMK A01,M
BVU,2022-07-18 07:35,-114.8611,35.9475,671.00,M,M,M,M,M,0.00,M,M,M,M,M,M,M,M,M,M,M,M,M,M,M,M,M,M,M,M,KBVU 180735Z AUTO RMK AO2 PNO PWINO TSNO,M
P68,2022-07-18 07:53,-116.0056,39.6014,1993.00,64.00,55.00,72.52,260.00,8.00,0.00,30.20,1014.20,M,M,M,M,M,M,M,M,M,M,M,M,M,M,M,M,M,64.00,KP68 180753Z AUTO 26008KT 18/13 A3020 RMK AO1 SLP142 T01780128 403220139,M
VGT,2022-07-18 07:53,-115.1933,36.2111,667.00,98.00,48.00,18.39,0.00,0.00,0.00,29.84,1008.50,10.00,M,CLR,M,M,M,M,M,M,M,M,M,M,M,M,M,M,94.63,KVGT 180753Z AUTO 00000KT 10SM CLR 37/09 A2984 RMK AO2 SLP085 T03670089 404330317,M
ELY,2022-07-18 07:53,-114.8453,39.2950,1909.00,61.00,47.00,59.71,160.00,6.00,0.00,30.24,1012.10,10.00,M,CLR,M,M,M,M,M,M,M,M,M,M,M,M,M,M,61.00,KELY 180753Z AUTO 16006KT 10SM CLR 16/08 A3024 RMK AO2 SLP121 T01610083 403500122,M
LOL,2022-07-18 07:53,-118.5701,40.0684,1192.43,85.00,42.00,22.20,260.00,10.00,0.00,30.01,1010.40,10.00,M,CLR,M,M,M,M,M,M,M,M,M,M,M,M,M,M,82.08,KLOL 180753Z AUTO 26010KT 10SM CLR 29/06 A3001 RMK AO2 SLP104 T02940056 404000183,M
DRA,2022-07-18 07:53,-116.0278,36.6206,1009.00,85.00,44.00,23.97,20.00,3.00,0.00,29.94,1008.20,10.00,M,CLR,M,M,M,M,M,M,M,M,M,M,M,M,M,M,82.20,KDRA 180753Z AUTO 02003KT 10SM CLR 29/07 A2994 RMK AO2 SLP082 T02940067 403940267,M
BVU,2022-07-18 07:55,-114.8611,35.9475,671.00,M,M,M,M,M,0.00,M,M,M,M,M,M,M,M,M,M,M,M,M,M,M,M,M,M,M,M,KBVU 180755Z AUTO RMK AO2 PNO PWINO TSNO,M
RTS,2022-07-18 07:55,-119.8764,39.6682,1539.00,73.40,42.80,33.29,0.00,0.00,0.00,30.12,M,10.00,M,CLR,M,M,M,M,M,M,M,M,M,M,M,M,M,M,73.40,KRTS 180755Z AUTO 00000KT 10SM CLR 23/06 A3012 RMK AO2,M
05U,2022-07-18 07:55,-116.0051,39.6042,1811.23,64.40,55.40,72.56,0.00,0.00,0.00,30.23,M,10.00,M,CLR,M,M,M,M,M,M,M,M,M,M,M,M,M,M,64.40,K05U 180755Z AUTO 00000KT 10SM CLR 18/13 A3023 RMK A01,M
MEV,2022-07-18 07:55,-119.7500,38.9963,1441.42,64.40,44.60,48.55,80.00,5.00,0.00,30.10,M,10.00,M,CLR,M,M,M,M,M,M,M,M,M,M,M,M,M,M,64.40,KMEV 180755Z AUTO 08005KT 10SM CLR 18/07 A3010 RMK AO2,M
BAM,2022-07-18 07:55,-116.8743,40.5990,1382.36,M,M,M,280.00,9.00,0.00,30.06,M,10.00,M,BKN,M,M,M,12000.00,M,M,M,M,M,M,M,M,M,M,M,KBAM 180755Z AUTO 28009KT 10SM BKN120 A3006 RMK AO1,M
HTH,2022-07-18 07:55,-118.6315,38.5448,1282.89,84.20,42.80,23.33,0.00,0.00,0.00,30.05,M,10.00,M,FEW,SCT,BKN,M,7500.00,8500.00,12000.00,M,M,M,M,M,M,M,M,81.61,KHTH 180755Z AUTO 00000KT 10SM FEW075 SCT085 BKN120 29/06 A3005 RMK A01,M
TMT,2022-07-18 07:55,-117.1971,39.4643,1749.34,65.70,52.70,62.83,240.00,4.00,0.00,30.20,M,10.00,M,CLR,M,M,M,M,M,M,M,M,M,M,M,M,M,M,65.70,KTMT 180755Z AUTO 24004KT 10SM CLR 19/12 A3020 RMK AO2 T01870115,M
RNO,2022-07-18 07:55,-119.7711,39.4839,1341.00,77.00,48.00,35.95,0.00,0.00,0.00,30.06,1010.70,10.00,M,FEW,M,M,M,11000.00,M,M,M,M,M,M,M,M,M,M,77.00,KRNO 180755Z 00000KT 10SM FEW110 25/09 A3006 RMK AO2 SLP107 T02500089 403830206,M
CXP,2022-07-18 07:55,-119.7326,39.1923,1431.00,71.60,44.60,37.89,0.00,0.00,0.00,30.11,M,10.00,M,CLR,M,M,M,M,M,M,M,M,M,M,M,M,M,M,71.60,KCXP 180755Z AUTO 00000KT 10SM CLR 22/07 A3011 RMK AO2,M
HND,2022-07-18 07:56,-115.1344,35.9729,742.79,M,M,M,M,M,0.00,M,M,M,M,M,M,M,M,M,M,M,M,M,M,M,M,M,M,M,M,KHND 180756Z AUTO RMK AO2 SLPNO PWINO FZRANO $,M
WMC,2022-07-18 07:56,-117.8072,40.9019,1315.00,83.00,41.00,22.70,250.00,8.00,0.00,30.01,1009.50,10.00,M,CLR,M,M,M,M,M,M,M,M,M,M,M,M,M,M,80.62,KWMC 180756Z AUTO 25008KT 10SM CLR 28/05 A3001 RMK AO2 SLP095 T02830050 403940189 TSNO,M
EKO,2022-07-18 07:56,-115.7860,40.8242,1367.00,80.00,47.00,31.15,180.00,11.00,0.00,30.10,1011.20,10.00,24.00,FEW,M,M,M,9500.00,M,M,M,M,M,M,M,M,M,M,79.33,KEKO 180756Z AUTO 18011G24KT 10SM FEW095 27/08 A3010 RMK AO2 SLP112 T02670083 403720167,M
NFL,2022-07-18 07:56,-118.7010,39.4166,1199.00,83.00,46.00,27.48,310.00,5.00,0.00,30.02,1013.40,10.00,M,CLR,M,M,M,M,M,M,M,M,M,M,M,M,M,M,80.94,KNFL 180756Z AUTO 31005KT 10SM CLR 28/08 A3002 RMK AO2 SLP134 T02830078 404000183,M
TPH,2022-07-18 07:56,-117.0904,38.0505,1654.00,74.00,53.00,48.18,10.00,15.00,0.00,30.16,1011.00,10.00,M,CLR,M,M,M,M,M,M,M,M,M,M,M,M,M,M,73.90,KTPH 180756Z AUTO 01015KT 10SM CLR 23/12 A3016 RMK AO2 SLP110 T02330117 403560194,M
LAS,2022-07-18 07:56,-115.1634,36.0719,663.00,93.00,55.00,27.87,180.00,8.00,0.00,29.85,1007.30,10.00,M,FEW,FEW,M,M,12000.00,20000.00,M,M,M,M,M,M,M,M,M,91.03,KLAS 180756Z 18008KT 10SM FEW120 FEW200 34/13 A2985 RMK AO2 SLP073 T03390128 404220322,M
LSV,2022-07-18 07:58,-115.0343,36.2362,570.00,96.00,53.20,23.86,190.00,11.00,0.00,29.81,1006.10,10.00,M,CLR,M,M,M,M,M,M,M,M,M,M,M,M,M,M,93.54,KLSV 180758Z AUTO 19011KT 10SM CLR 36/12 A2981 RMK AO2 SLP061 T03550118 404560317 $,M
INS,2022-07-18 07:58,-115.6733,36.5872,955.00,85.80,40.00,19.96,0.00,0.00,0.00,29.93,1007.70,10.00,M,FEW,M,M,M,15000.00,M,M,M,M,M,M,M,M,M,M,82.67,KINS 180758Z AUTO 00000KT 10SM FEW150 30/05 A2993 RMK AO2 SLP077 T02990045 403940270 $,M
TMT,2022-07-18 08:15,-117.1971,39.4643,1749.34,65.50,53.00,63.74,220.00,7.00,0.00,30.21,M,10.00,M,SCT,M,M,M,12000.00,M,M,M,M,M,M,M,M,M,M,65.50,KTMT 180815Z AUTO 22007KT 10SM SCT120 19/12 A3021 RMK AO2 T01860116,M
05U,2022-07-18 08:15,-116.0051,39.6042,1811.23,66.20,53.60,63.82,240.00,9.00,0.00,30.22,M,10.00,M,CLR,M,M,M,M,M,M,M,M,M,M,M,M,M,M,66.20,K05U 180815Z AUTO 24009KT 10SM CLR 19/12 A3022 RMK A01,M
MEV,2022-07-18 08:15,-119.7500,38.9963,1441.42,64.40,46.40,51.98,0.00,0.00,0.00,30.11,M,10.00,M,CLR,M,M,M,M,M,M,M,M,M,M,M,M,M,M,64.40,KMEV 180815Z AUTO 00000KT 10SM CLR 18/08 A3011 RMK AO2,M
BAM,2022-07-18 08:15,-116.8743,40.5990,1382.36,M,M,M,270.00,9.00,0.00,30.06,M,10.00,M,BKN,M,M,M,12000.00,M,M,M,M,M,M,M,M,M,M,M,KBAM 180815Z AUTO 27009KT 10SM BKN120 A3006 RMK AO1,M
HTH,2022-07-18 08:15,-118.6315,38.5448,1282.89,82.40,42.80,24.72,120.00,4.00,0.00,30.06,M,10.00,M,FEW,FEW,BKN,M,7500.00,9000.00,12000.00,M,M,M,M,M,M,M,M,80.39,KHTH 180815Z AUTO 12004KT 10SM FEW075 FEW090 BKN120 28/06 A3006 RMK A01,M
BVU,2022-07-18 08:15,-114.8611,35.9475,671.00,M,M,M,M,M,0.00,M,M,M,M,M,M,M,M,M,M,M,M,M,M,M,M,M,M,M,M,KBVU 180815Z AUTO RMK AO2 PNO PWINO TSNO,M
CXP,2022-07-18 08:15,-119.7326,39.1923,1431.00,69.80,44.60,40.29,0.00,0.00,0.00,30.12,M,10.00,M,CLR,M,M,M,M,M,M,M,M,M,M,M,M,M,M,69.80,KCXP 180815Z AUTO 00000KT 10SM CLR 21/07 A3012 RMK AO2,M
RTS,2022-07-18 08:15,-119.8764,39.6682,1539.00,75.20,42.80,31.34,0.00,0.00,0.00,30.12,M,10.00,M,CLR,M,M,M,M,M,M,M,M,M,M,M,M,M,M,75.20,KRTS 180815Z AUTO 00000KT 10SM CLR 24/06 A3012 RMK AO2,M
05U,2022-07-18 08:35,-116.0051,39.6042,1811.23,64.40,53.60,67.95,220.00,9.00,0.00,30.23,M,10.00,M,CLR,M,M,M,M,M,M,M,M,M,M,M,M,M,M,64.40,K05U 180835Z AUTO 22009KT 10SM CLR 18/12 A3023 RMK A01,M
BVU,2022-07-18 08:35,-114.8611,35.9475,671.00,M,M,M,M,M,0.00,M,M,M,M,M,M,M,M,M,M,M,M,M,M,M,M,M,M,M,M,KBVU 180835Z AUTO RMK AO2 PNO PWINO TSNO,M
CXP,2022-07-18 08:35,-119.7326,39.1923,1431.00,69.80,44.60,40.29,0.00,0.00,0.00,30.12,M,10.00,M,CLR,M,M,M,M,M,M,M,M,M,M,M,M,M,M,69.80,KCXP 180835Z AUTO 00000KT 10SM CLR 21/07 A3012 RMK AO2,M
TMT,2022-07-18 08:35,-117.1971,39.4643,1749.34,64.80,52.70,64.83,210.00,4.00,0.00,30.21,M,10.00,M,SCT,M,M,M,11000.00,M,M,M,M,M,M,M,M,M,M,64.80,KTMT 180835Z AUTO 21004KT 10SM SCT110 18/12 A3021 RMK AO2 T01820115,M
HTH,2022-07-18 08:35,-118.6315,38.5448,1282.89,82.40,42.80,24.72,100.00,4.00,0.00,30.06,M,10.00,M,FEW,BKN,M,M,9000.00,12000.00,M,M,M,M,M,M,M,M,M,80.39,KHTH 180835Z AUTO 10004KT 10SM FEW090 BKN120 28/06 A3006 RMK A01,M
BAM,2022-07-18 08:35,-116.8743,40.5990,1382.36,M,M,M,270.00,7.00,0.00,30.07,M,10.00,M,OVC,M,M,M,12000.00,M,M,M,M,M,M,M,M,M,M,M,KBAM 180835Z AUTO 27007KT 10SM OVC120 A3007 RMK AO1,M
MEV,2022-07-18 08:35,-119.7500,38.9963,1441.42,64.40,46.40,51.98,0.00,0.00,0.00,30.11,M,10.00,M,CLR,M,M,M,M,M,M,M,M,M,M,M,M,M,M,64.40,KMEV 180835Z AUTO 00000KT 10SM CLR 18/08 A3011 RMK AO2,M
RTS,2022-07-18 08:35,-119.8764,39.6682,1539.00,71.60,42.80,35.37,230.00,6.00,0.00,30.12,M,10.00,M,CLR,M,M,M,M,M,M,M,M,M,M,M,M,M,M,71.60,KRTS 180835Z AUTO 23006KT 10SM CLR 22/06 A3012 RMK AO2,M
05U,2022-07-18 08:50,-116.0051,39.6042,1811.23,64.40,51.80,63.60,240.00,7.00,0.00,30.23,M,10.00,M,CLR,M,M,M,M,M,M,M,M,M,M,M,M,M,M,64.40,K05U 180850Z AUTO 24007KT 10SM CLR 18/11 A3023 RMK A01,M
VGT,2022-07-18 08:53,-115.1933,36.2111,667.00,94.00,52.00,24.28,150.00,4.00,0.00,29.86,1009.20,10.00,M,CLR,M,M,M,M,M,M,M,M,M,M,M,M,M,M,91.19,KVGT 180853Z AUTO 15004KT 10SM CLR 34/11 A2986 RMK AO2 SLP092 T03440111 53007,M
ELY,2022-07-18 08:53,-114.8453,39.2950,1909.00,60.00,46.00,59.59,180.00,11.00,0.00,30.24,1012.50,10.00,M,CLR,M,M,M,M,M,M,M,M,M,M,M,M,M,M,60.10,KELY 180853Z AUTO 18011KT 10SM CLR 16/08 A3024 RMK AO2 SLP125 T01560078 50001,M
P68,2022-07-18 08:53,-116.0056,39.6014,1993.00,65.00,52.00,62.96,200.00,6.00,0.00,30.21,1013.80,M,M,M,M,M,M,M,M,M,M,M,M,M,M,M,M,M,64.90,KP68 180853Z AUTO 20006KT 18/11 A3021 RMK AO1 SLP138 T01830111 55002,M
LOL,2022-07-18 08:53,-118.5701,40.0684,1192.43,79.00,43.00,27.84,160.00,6.00,0.00,30.02,1010.90,10.00,M,CLR,M,M,M,M,M,M,M,M,M,M,M,M,M,M,79.00,KLOL 180853Z AUTO 16006KT 10SM CLR 26/06 A3002 RMK AO2 SLP109 T02610061 52008,M
DRA,2022-07-18 08:53,-116.0278,36.6206,1009.00,82.00,43.00,25.24,0.00,0.00,0.00,29.95,1008.40,10.00,M,CLR,M,M,M,M,M,M,M,M,M,M,M,M,M,M,80.15,KDRA 180853Z AUTO 00000KT 10SM CLR 28/06 A2995 RMK AO2 SLP084 T02780061 53003,M
HTH,2022-07-18 08:55,-118.6315,38.5448,1282.89,82.40,42.80,24.72,140.00,8.00,0.00,30.06,M,10.00,M,SCT,M,M,M,11000.00,M,M,M,M,M,M,M,M,M,M,80.39,KHTH 180855Z AUTO 14008KT 10SM SCT110 28/06 A3006 RMK A01,M
BAM,2022-07-18 08:55,-116.8743,40.5990,1382.36,M,M,M,260.00,11.00,0.00,30.08,M,10.00,M,OVC,M,M,M,12000.00,M,M,M,M,M,M,M,M,M,M,M,KBAM 180855Z AUTO 26011KT 10SM OVC120 A3008 RMK AO1,M
BVU,2022-07-18 08:55,-114.8611,35.9475,671.00,M,M,M,M,M,0.00,M,M,M,M,M,M,M,M,M,M,M,M,M,M,M,M,M,M,M,M,KBVU 180855Z AUTO RMK AO2 PNO PWINO TSNO,M
MEV,2022-07-18 08:55,-119.7500,38.9963,1441.42,60.80,44.60,55.12,0.00,0.00,0.00,30.11,M,10.00,M,CLR,M,M,M,M,M,M,M,M,M,M,M,M,M,M,60.80,KMEV 180855Z AUTO 00000KT 10SM CLR 16/07 A3011 RMK AO2,M
CXP,2022-07-18 08:55,-119.7326,39.1923,1431.00,71.60,44.60,37.89,0.00,0.00,0.00,30.12,M,10.00,M,CLR,M,M,M,M,M,M,M,M,M,M,M,M,M,M,71.60,KCXP 180855Z AUTO 00000KT 10SM CLR 22/07 A3012 RMK AO2,M
RNO,2022-07-18 08:55,-119.7711,39.4839,1341.00,77.00,48.00,35.95,0.00,0.00,0.00,30.06,1010.90,10.00,M,FEW,M,M,M,17000.00,M,M,M,M,M,M,M,M,M,M,77.00,KRNO 180855Z 00000KT 10SM FEW170 25/09 A3006 RMK AO2 SLP109 T02500089 53003,M
RTS,2022-07-18 08:55,-119.8764,39.6682,1539.00,73.40,42.80,33.29,250.00,4.00,0.00,30.12,M,10.00,M,CLR,M,M,M,M,M,M,M,M,M,M,M,M,M,M,73.40,KRTS 180855Z AUTO 25004KT 10SM CLR 23/06 A3012 RMK AO2,M
TMT,2022-07-18 08:55,-117.1971,39.4643,1749.34,65.30,53.40,65.37,210.00,7.00,0.00,30.20,M,10.00,M,SCT,M,M,M,11000.00,M,M,M,M,M,M,M,M,M,M,65.30,KTMT 180855Z AUTO 21007KT 10SM SCT110 19/12 A3020 RMK AO2 T01850119,M
EKO,2022-07-18 08:56,-115.7860,40.8242,1367.00,78.00,47.00,33.26,190.00,7.00,0.00,30.11,1012.30,10.00,M,FEW,SCT,M,M,9000.00,11000.00,M,M,M,M,M,M,26.00,160.00,2022-07-18 08:04,78.10,KEKO 180856Z AUTO 19007KT 10SM FEW090 SCT110 26/08 A3011 RMK AO2 PK WND 16026/0804 SLP123 T02560083 51014,M
WMC,2022-07-18 08:56,-117.8072,40.9019,1315.00,79.00,41.00,25.78,220.00,6.00,0.00,30.03,1010.20,10.00,M,CLR,M,M,M,M,M,M,M,M,M,M,M,M,M,M,79.00,KWMC 180856Z AUTO 22006KT 10SM CLR 26/05 A3003 RMK AO2 SLP102 T02610050 53011 TSNO,M
HND,2022-07-18 08:56,-115.1344,35.9729,742.79,M,M,M,M,M,0.00,M,M,M,M,M,M,M,M,M,M,M,M,M,M,M,M,M,M,M,M,KHND 180856Z AUTO RMK AO2 SLPNO 6//// PWINO FZRANO $,M
TPH,2022-07-18 08:56,-117.0904,38.0505,1654.00,75.00,52.00,44.59,10.00,14.00,0.00,30.16,1011.20,10.00,M,BKN,M,M,M,12000.00,M,M,M,M,M,M,M,M,M,M,75.00,KTPH 180856Z AUTO 01014KT 10SM BKN120 24/11 A3016 RMK AO2 SLP112 60000 T02390111 51002,M
LAS,2022-07-18 08:56,-115.1634,36.0719,663.00,92.00,56.00,29.80,220.00,6.00,0.00,29.87,1008.00,10.00,M,FEW,FEW,M,M,12000.00,20000.00,M,M,M,M,M,M,M,M,M,90.17,KLAS 180856Z 22006KT 10SM FEW120 FEW200 33/13 A2987 RMK AO2 SLP080 T03330133 53005,M
NFL,2022-07-18 08:56,-118.7010,39.4166,1199.00,80.00,47.00,31.15,230.00,5.00,0.00,30.03,1013.70,10.00,M,CLR,M,M,M,M,M,M,M,M,M,M,M,M,M,M,79.33,KNFL 180856Z AUTO 23005KT 10SM CLR 27/08 A3003 RMK AO2 SLP137 T02670083 53005,M
LSV,2022-07-18 08:58,-115.0343,36.2362,570.00,93.00,53.00,26.00,40.00,3.00,0.00,29.83,1006.80,10.00,M,CLR,M,M,M,M,M,M,M,M,M,M,M,M,M,M,90.54,KLSV 180858Z AUTO 04003KT 10SM CLR 34/12 A2983 RMK AO2 SLP068 T03390117 53007 $,M
INS,2022-07-18 08:58,-115.6733,36.5872,955.00,83.00,40.00,21.92,0.00,0.00,0.00,29.94,1008.20,10.00,M,FEW,M,M,M,13000.00,M,M,M,M,M,M,M,M,M,M,80.58,KINS 180858Z AUTO 00000KT 10SM FEW130 28/05 A2994 RMK AO2 SLP082 T02830045 51005 $,M
HTH,2022-07-18 09:15,-118.6315,38.5448,1282.89,80.60,42.80,26.22,0.00,0.00,0.00,30.06,M,10.00,M,FEW,FEW,BKN,M,5000.00,7000.00,11000.00,M,M,M,M,M,M,M,M,79.30,KHTH 180915Z AUTO 00000KT 10SM FEW050 FEW070 BKN110 27/06 A3006 RMK A01,M
BAM,2022-07-18 09:15,-116.8743,40.5990,1382.36,M,M,M,230.00,11.00,0.00,30.08,M,10.00,M,BKN,M,M,M,12000.00,M,M,M,M,M,M,M,M,M,M,M,KBAM 180915Z AUTO 23011KT 10SM BKN120 A3008 RMK AO1,M
MEV,2022-07-18 09:15,-119.7500,38.9963,1441.42,60.80,44.60,55.12,80.00,5.00,0.00,30.11,M,10.00,M,CLR,M,M,M,M,M,M,M,M,M,M,M,M,M,M,60.80,KMEV 180915Z AUTO 08005KT 10SM CLR 16/07 A3011 RMK AO2,M
05U,2022-07-18 09:15,-116.0051,39.6042,1811.23,62.60,53.60,72.38,190.00,9.00,0.00,30.24,M,10.00,M,CLR,M,M,M,M,M,M,M,M,M,M,M,M,M,M,62.60,K05U 180915Z AUTO 19009KT 10SM CLR 17/12 A3024 RMK A01,M
RTS,2022-07-18 09:15,-119.8764,39.6682,1539.00,73.40,42.80,33.29,250.00,5.00,0.00,30.13,M,10.00,M,CLR,M,M,M,M,M,M,M,M,M,M,M,M,M,M,73.40,KRTS 180915Z AUTO 25005KT 10SM CLR 23/06 A3013 RMK AO2,M
CXP,2022-07-18 09:15,-119.7326,39.1923,1431.00,68.00,44.60,42.85,0.00,0.00,0.00,30.12,M,10.00,M,CLR,M,M,M,M,M,M,M,M,M,M,M,M,M,M,68.00,KCXP 180915Z AUTO 00000KT 10SM CLR 20/07 A3012 RMK AO2,M
BVU,2022-07-18 09:15,-114.8611,35.9475,671.00,M,M,M,M,M,0.00,M,M,M,M,M,M,M,M,M,M,M,M,M,M,M,M,M,M,M,M,KBVU 180915Z AUTO RMK AO2 PNO PWINO TSNO,M
TMT,2022-07-18 09:15,-117.1971,39.4643,1749.34,64.00,51.80,64.50,200.00,5.00,0.00,30.21,M,10.00,M,SCT,M,M,M,11000.00,M,M,M,M,M,M,M,M,M,M,64.00,KTMT 180915Z AUTO 20005KT 10SM SCT110 18/11 A3021 RMK AO2 T01780110,M
HTH,2022-07-18 09:35,-118.6315,38.5448,1282.89,80.60,44.60,28.08,190.00,4.00,0.00,30.07,M,10.00,M,FEW,M,M,M,12000.00,M,M,M,M,M,M,M,M,M,M,79.42,KHTH 180935Z AUTO 19004KT 10SM FEW120 27/07 A3007 RMK A01,M
BVU,2022-07-18 09:35,-114.8611,35.9475,671.00,M,M,M,M,M,0.00,M,M,M,M,M,M,M,M,M,M,M,M,M,M,M,M,M,M,M,M,KBVU 180935Z AUTO RMK AO2 PNO PWINO TSNO,M
CXP,2022-07-18 09:35,-119.7326,39.1923,1431.00,69.80,44.60,40.29,0.00,0.00,0.00,30.12,M,10.00,M,CLR,M,M,M,M,M,M,M,M,M,M,M,M,M,M,69.80,KCXP 180935Z AUTO 00000KT 10SM CLR 21/07 A3012 RMK AO2,M
RTS,2022-07-18 09:35,-119.8764,39.6682,1539.00,73.40,42.80,33.29,M,5.00,0.00,30.13,M,10.00,M,CLR,M,M,M,M,M,M,M,M,M,M,M,M,M,M,73.40,KRTS 180935Z AUTO VRB05KT 10SM CLR 23/06 A3013 RMK AO2,M
05U,2022-07-18 09:35,-116.0051,39.6042,1811.23,62.60,53.60,72.38,180.00,10.00,0.00,30.24,M,10.00,M,CLR,M,M,M,M,M,M,M,M,M,M,M,M,M,M,62.60,K05U 180935Z AUTO 18010KT 10SM CLR 17/12 A3024 RMK A01,M
MEV,2022-07-18 09:35,-119.7500,38.9963,1441.42,60.80,46.40,59.01,90.00,4.00,0.00,30.11,M,10.00,M,CLR,M,M,M,M,M,M,M,M,M,M,M,M,M,M,60.80,KMEV 180935Z AUTO 09004KT 10SM CLR 16/08 A3011 RMK AO2,M
BAM,2022-07-18 09:35,-116.8743,40.5990,1382.36,M,M,M,230.00,5.00,0.00,30.08,M,10.00,M,OVC,M,M,M,12000.00,M,M,M,M,M,M,M,M,M,M,M,KBAM 180935Z AUTO 23005KT 10SM OVC120 A3008 RMK AO1,M
TMT,2022-07-18 09:35,-117.1971,39.4643,1749.34,62.60,51.30,66.51,0.00,0.00,0.00,30.21,M,10.00,M,SCT,M,M,M,12000.00,M,M,M,M,M,M,M,M,M,M,62.60,KTMT 180935Z AUTO 00000KT 10SM SCT120 17/11 A3021 RMK AO2 T01700107,M
CXP,2022-07-18 09:50,-119.7326,39.1923,1431.00,69.80,44.60,40.29,300.00,3.00,0.00,30.12,M,10.00,M,CLR,M,M,M,M,M,M,M,M,M,M,M,M,M,M,69.80,KCXP 180950Z AUTO 30003KT 10SM CLR 21/07 A3012 RMK AO2,M
ELY,2022-07-18 09:53,-114.8453,39.2950,1909.00,57.00,45.00,64.12,170.00,9.00,0.00,30.24,1013.20,10.00,M,CLR,M,M,M,M,M,M,M,M,M,M,M,M,M,M,57.00,KELY 180953Z AUTO 17009KT 10SM CLR 14/07 A3024 RMK AO2 SLP132 T01390072,M
VGT,2022-07-18 09:53,-115.1933,36.2111,667.00,93.00,53.00,26.00,20.00,4.00,0.00,29.87,1009.50,10.00,M,CLR,M,M,M,M,M,M,M,M,M,M,M,M,M,M,90.54,KVGT 180953Z AUTO 02004KT 10SM CLR 34/12 A2987 RMK AO2 SLP095 T03390117,M
P68,2022-07-18 09:53,-116.0056,39.6014,1993.00,63.00,53.00,70.07,180.00,9.00,0.00,30.22,1014.10,M,M,M,M,M,M,M,M,M,M,M,M,M,M,M,M,M,63.00,KP68 180953Z AUTO 18009KT 17/12 A3022 RMK AO1 SLP141 T01720117,M
LOL,2022-07-18 09:53,-118.5701,40.0684,1192.43,75.00,44.00,33.16,200.00,4.00,0.00,30.02,1011.10,10.00,M,CLR,M,M,M,M,M,M,M,M,M,M,M,M,M,M,75.00,KLOL 180953Z AUTO 20004KT 10SM CLR 24/07 A3002 RMK AO2 SLP111 T02390067,M
DRA,2022-07-18 09:53,-116.0278,36.6206,1009.00,82.00,43.00,25.24,20.00,5.00,0.00,29.96,1008.50,10.00,M,CLR,M,M,M,M,M,M,M,M,M,M,M,M,M,M,80.15,KDRA 180953Z AUTO 02005KT 10SM CLR 28/06 A2996 RMK AO2 SLP085 T02780061,M
HTH,2022-07-18 09:55,-118.6315,38.5448,1282.89,78.80,46.40,31.90,90.00,6.00,0.00,30.07,M,10.00,M,CLR,M,M,M,M,M,M,M,M,M,M,M,M,M,M,78.80,KHTH 180955Z AUTO 09006KT 10SM CLR 26/08 A3007 RMK A01,M
05U,2022-07-18 09:55,-116.0051,39.6042,1811.23,62.60,53.60,72.38,180.00,8.00,0.00,30.24,M,10.00,M,BKN,M,M,M,10000.00,M,M,M,M,M,M,M,M,M,M,62.60,K05U 180955Z AUTO 18008KT 10SM BKN100 17/12 A3024 RMK A01,M
RTS,2022-07-18 09:55,-119.8764,39.6682,1539.00,71.60,42.80,35.37,270.00,4.00,0.00,30.13,M,10.00,M,CLR,M,M,M,M,M,M,M,M,M,M,M,M,M,M,71.60,KRTS 180955Z AUTO 27004KT 10SM CLR 22/06 A3013 RMK AO2,M
MEV,2022-07-18 09:55,-119.7500,38.9963,1441.42,60.80,46.40,59.01,110.00,6.00,0.00,30.11,M,10.00,M,CLR,M,M,M,M,M,M,M,M,M,M,M,M,M,M,60.80,KMEV 180955Z AUTO 11006KT 10SM CLR 16/08 A3011 RMK AO2,M
BAM,2022-07-18 09:55,-116.8743,40.5990,1382.36,M,M,M,150.00,5.00,0.00,30.08,M,10.00,M,OVC,M,M,M,12000.00,M,M,M,M,M,M,M,M,M,M,M,KBAM 180955Z AUTO 15005KT 10SM OVC120 A3008 RMK AO1,M
RNO,2022-07-18 09:55,-119.7711,39.4839,1341.00,74.00,48.00,39.87,0.00,0.00,0.00,30.07,1011.20,10.00,M,FEW,M,M,M,17000.00,M,M,M,M,M,M,M,M,M,M,73.90,KRNO 180955Z 00000KT 10SM FEW170 23/09 A3007 RMK AO2 SLP112 T02330089,M
TMT,2022-07-18 09:55,-117.1971,39.4643,1749.34,61.20,51.00,68.85,240.00,4.00,0.00,30.21,M,10.00,M,SCT,M,M,M,12000.00,M,M,M,M,M,M,M,M,M,M,61.20,KTMT 180955Z AUTO 24004KT 10SM SCT120 16/11 A3021 RMK AO2 T01620105,M
BVU,2022-07-18 09:55,-114.8611,35.9475,671.00,M,M,M,M,M,0.00,M,M,M,M,M,M,M,M,M,M,M,M,M,M,M,M,M,M,M,M,KBVU 180955Z AUTO RMK AO2 PNO PWINO TSNO,M
WMC,2022-07-18 09:56,-117.8072,40.9019,1315.00,77.00,42.00,28.73,0.00,0.00,0.00,30.04,1010.60,10.00,M,CLR,M,M,M,M,M,M,M,M,M,M,M,M,M,M,77.00,KWMC 180956Z AUTO 00000KT 10SM CLR 25/06 A3004 RMK AO2 SLP106 T02500056 TSNO,M
EKO,2022-07-18 09:56,-115.7860,40.8242,1367.00,75.00,47.00,36.87,250.00,8.00,0.00,30.13,1013.50,10.00,M,BKN,BKN,M,M,10000.00,12000.00,M,M,M,M,M,M,M,M,M,75.00,KEKO 180956Z AUTO 25008KT 10SM BKN100 BKN120 24/08 A3013 RMK AO2 SLP135 T02390083,M
HND,2022-07-18 09:56,-115.1344,35.9729,742.79,M,M,M,M,M,0.00,M,M,M,M,M,M,M,M,M,M,M,M,M,M,M,M,M,M,M,M,KHND 180956Z AUTO RMK AO2 SLPNO PWINO FZRANO $,M
LAS,2022-07-18 09:56,-115.1634,36.0719,663.00,91.00,55.00,29.66,130.00,4.00,0.00,29.87,1008.20,10.00,M,FEW,SCT,M,M,12000.00,18000.00,M,M,M,M,M,M,M,M,M,89.03,KLAS 180956Z 13004KT 10SM FEW120 SCT180 33/13 A2987 RMK AO2 SLP082 T03280128,M
NFL,2022-07-18 09:56,-118.7010,39.4166,1199.00,79.00,47.00,32.29,200.00,3.00,0.00,30.03,1013.80,10.00,M,CLR,M,M,M,M,M,M,M,M,M,M,M,M,M,M,79.00,KNFL 180956Z AUTO 20003KT 10SM CLR 26/08 A3003 RMK AO2 SLP138 T02610083,M
TPH,2022-07-18 09:56,-117.0904,38.0505,1654.00,72.00,53.00,51.37,10.00,14.00,0.00,30.17,1011.60,10.00,M,CLR,M,M,M,M,M,M,M,M,M,M,M,M,M,M,72.00,KTPH 180956Z AUTO 01014KT 10SM CLR 22/12 A3017 RMK AO2 SLP116 T02220117,M
LSV,2022-07-18 09:58,-115.0343,36.2362,570.00,91.80,54.00,27.89,0.00,0.00,0.00,29.85,1007.50,10.00,M,CLR,M,M,M,M,M,M,M,M,M,M,M,M,M,M,89.56,KLSV 180958Z AUTO 00000KT 10SM CLR 33/12 A2985 RMK AO2 SLP075 T03320122 $,M
INS,2022-07-18 09:58,-115.6733,36.5872,955.00,83.00,41.40,23.05,330.00,3.00,0.00,29.95,1008.40,10.00,M,SCT,M,M,M,12000.00,M,M,M,M,M,M,M,M,M,M,80.64,KINS 180958Z AUTO 33003KT 10SM SCT120 28/05 A2995 RMK AO2 SLP084 T02830052 $,M
RTS,2022-07-18 10:15,-119.8764,39.6682,1539.00,71.60,42.80,35.37,0.00,0.00,0.00,30.13,M,10.00,M,CLR,M,M,M,M,M,M,M,M,M,M,M,M,M,M,71.60,KRTS 181015Z AUTO 00000KT 10SM CLR 22/06 A3013 RMK AO2,M
CXP,2022-07-18 10:15,-119.7326,39.1923,1431.00,69.80,44.60,40.29,0.00,0.00,0.00,30.13,M,10.00,M,CLR,M,M,M,M,M,M,M,M,M,M,M,M,M,M,69.80,KCXP 181015Z AUTO 00000KT 10SM CLR 21/07 A3013 RMK AO2,M
BAM,2022-07-18 10:15,-116.8743,40.5990,1382.36,M,M,M,0.00,0.00,0.00,30.09,M,10.00,M,SCT,M,M,M,12000.00,M,M,M,M,M,M,M,M,M,M,M,KBAM 181015Z AUTO 00000KT 10SM SCT120 A3009 RMK AO1,M
05U,2022-07-18 10:15,-116.0051,39.6042,1811.23,62.60,53.60,72.38,0.00,0.00,0.00,30.25,M,10.00,M,BKN,M,M,M,11000.00,M,M,M,M,M,M,M,M,M,M,62.60,K05U 181015Z AUTO 00000KT 10SM BKN110 17/12 A3025 RMK A01,M
BVU,2022-07-18 10:15,-114.8611,35.9475,671.00,M,M,M,M,M,0.00,M,M,M,M,M,M,M,M,M,M,M,M,M,M,M,M,M,M,M,M,KBVU 181015Z AUTO RMK AO2 PNO PWINO TSNO,M
TMT,2022-07-18 10:15,-117.1971,39.4643,1749.34,62.00,51.60,68.93,120.00,4.00,0.00,30.22,M,10.00,M,BKN,M,M,M,12000.00,M,M,M,M,M,M,M,M,M,M,61.90,KTMT 181015Z AUTO 12004KT 10SM BKN120 17/11 A3022 RMK AO2 T01660109,M
HTH,2022-07-18 10:15,-118.6315,38.5448,1282.89,78.80,42.80,27.81,80.00,5.00,0.00,30.07,M,10.00,M,FEW,FEW,SCT,M,6000.00,7500.00,8500.00,M,M,M,M,M,M,M,M,78.80,KHTH 181015Z AUTO 08005KT 10SM FEW060 FEW075 SCT085 26/06 A3007 RMK A01,M
MEV,2022-07-18 10:15,-119.7500,38.9963,1441.42,59.00,46.40,62.92,170.00,4.00,0.00,30.11,M,10.00,M,CLR,M,M,M,M,M,M,M,M,M,M,M,M,M,M,59.00,KMEV 181015Z AUTO 17004KT 10SM CLR 15/08 A3011 RMK AO2,M
RTS,2022-07-18 10:35,-119.8764,39.6682,1539.00,71.60,42.80,35.37,0.00,0.00,0.00,30.13,M,10.00,M,CLR,M,M,M,M,M,M,M,M,M,M,M,M,M,M,71.60,KRTS 181035Z AUTO 00000KT 10SM CLR 22/06 A3013 RMK AO2,M
CXP,2022-07-18 10:35,-119.7326,39.1923,1431.00,71.60,44.60,37.89,0.00,0.00,0.00,30.13,M,10.00,M,CLR,M,M,M,M,M,M,M,M,M,M,M,M,M,M,71.60,KCXP 181035Z AUTO 00000KT 10SM CLR 22/07 A3013 RMK AO2,M
TMT,2022-07-18 10:35,-117.1971,39.4643,1749.34,60.60,50.40,69.04,0.00,0.00,0.00,30.22,M,10.00,M,BKN,M,M,M,11000.00,M,M,M,M,M,M,M,M,M,M,60.60,KTMT 181035Z AUTO 00000KT 10SM BKN110 16/10 A3022 RMK AO2 T01590102,M
HTH,2022-07-18 10:35,-118.6315,38.5448,1282.89,78.80,46.40,31.90,170.00,5.00,0.00,30.07,M,10.00,M,CLR,M,M,M,M,M,M,M,M,M,M,M,M,M,M,78.80,KHTH 181035Z AUTO 17005KT 10SM CLR 26/08 A3007 RMK A01,M
BVU,2022-07-18 10:35,-114.8611,35.9475,671.00,M,M,M,M,M,0.00,M,M,M,M,M,M,M,M,M,M,M,M,M,M,M,M,M,M,M,M,KBVU 181035Z AUTO RMK AO2 PNO PWINO TSNO,M
BAM,2022-07-18 10:35,-116.8743,40.5990,1382.36,M,M,M,80.00,4.00,0.00,30.08,M,10.00,M,SCT,M,M,M,12000.00,M,M,M,M,M,M,M,M,M,M,M,KBAM 181035Z AUTO 08004KT 10SM SCT120 A3008 RMK AO1,M
MEV,2022-07-18 10:35,-119.7500,38.9963,1441.42,60.80,48.20,63.15,0.00,0.00,0.00,30.12,M,10.00,M,CLR,M,M,M,M,M,M,M,M,M,M,M,M,M,M,60.80,KMEV 181035Z AUTO 00000KT 10SM CLR 16/09 A3012 RMK AO2,M
05U,2022-07-18 10:35,-116.0051,39.6042,1811.23,62.60,53.60,72.38,210.00,3.00,0.00,30.25,M,10.00,M,BKN,M,M,M,11000.00,M,M,M,M,M,M,M,M,M,M,62.60,K05U 181035Z AUTO 21003KT 10SM BKN110 17/12 A3025 RMK A01,M
P68,2022-07-18 10:53,-116.0056,39.6014,1993.00,61.00,53.00,75.20,170.00,6.00,0.00,30.22,1015.70,M,M,M,M,M,M,M,M,M,M,M,M,M,M,M,M,M,61.00,KP68 181053Z AUTO 17006KT 16/12 A3022 RMK AO1 SLP157 T01610117,M
LOL,2022-07-18 10:53,-118.5701,40.0684,1192.43,73.00,43.00,34.00,200.00,8.00,0.00,30.03,1011.70,10.00,M,CLR,M,M,M,M,M,M,M,M,M,M,M,M,M,M,73.00,KLOL 181053Z AUTO 20008KT 10SM CLR 23/06 A3003 RMK AO2 SLP117 T02280061,M
DRA,2022-07-18 10:53,-116.0278,36.6206,1009.00,80.00,45.00,28.99,110.00,4.00,0.00,29.96,1008.40,10.00,M,CLR,M,M,M,M,M,M,M,M,M,M,M,M,M,M,79.18,KDRA 181053Z AUTO 11004KT 10SM CLR 27/07 A2996 RMK AO2 SLP084 T02670072,M
ELY,2022-07-18 10:53,-114.8453,39.2950,1909.00,56.00,44.00,64.47,160.00,7.00,0.00,30.25,1014.10,10.00,M,CLR,M,M,M,M,M,M,M,M,M,M,M,M,M,M,55.90,KELY 181053Z AUTO 16007KT 10SM CLR 13/07 A3025 RMK AO2 SLP141 T01330067,M
VGT,2022-07-18 10:53,-115.1933,36.2111,667.00,91.00,53.00,27.67,100.00,5.00,0.00,29.89,1010.30,10.00,M,CLR,M,M,M,M,M,M,M,M,M,M,M,M,M,M,88.57,KVGT 181053Z AUTO 10005KT 10SM CLR 33/12 A2989 RMK AO2 SLP103 T03280117,M
LSV,2022-07-18 10:53,-115.0343,36.2362,570.00,89.60,53.60,29.45,90.00,11.00,0.00,29.87,1008.30,10.00,16.00,CLR,M,M,M,M,M,M,M,M,M,M,M,M,M,M,87.36,KLSV 181053Z AUTO 09011G16KT 10SM CLR 32/12 A2987 RMK AO2 WSHFT 53 SLP083 $,M
CXP,2022-07-18 10:55,-119.7326,39.1923,1431.00,71.60,44.60,37.89,0.00,0.00,0.00,30.13,M,10.00,M,CLR,M,M,M,M,M,M,M,M,M,M,M,M,M,M,71.60,KCXP 181055Z AUTO 00000KT 10SM CLR 22/07 A3013 RMK AO2,M
HTH,2022-07-18 10:55,-118.6315,38.5448,1282.89,78.80,44.60,29.79,0.00,0.00,0.00,30.07,M,10.00,M,SCT,M,M,M,11000.00,M,M,M,M,M,M,M,M,M,M,78.80,KHTH 181055Z AUTO 00000KT 10SM SCT110 26/07 A3007 RMK A01,M
RTS,2022-07-18 10:55,-119.8764,39.6682,1539.00,71.60,42.80,35.37,300.00,4.00,0.00,30.14,M,10.00,M,CLR,M,M,M,M,M,M,M,M,M,M,M,M,M,M,71.60,KRTS 181055Z AUTO 30004KT 10SM CLR 22/06 A3014 RMK AO2,M
RNO,2022-07-18 10:55,-119.7711,39.4839,1341.00,73.00,48.00,41.10,0.00,0.00,0.00,30.08,1011.70,10.00,M,FEW,M,M,M,15000.00,M,M,M,M,M,M,M,M,M,M,73.00,KRNO 181055Z 00000KT 10SM FEW150 23/09 A3008 RMK AO2 SLP117 T02280089,M
BAM,2022-07-18 10:55,-116.8743,40.5990,1382.36,M,M,M,220.00,4.00,0.00,30.09,M,10.00,M,BKN,M,M,M,12000.00,M,M,M,M,M,M,M,M,M,M,M,KBAM 181055Z AUTO 22004KT 10SM BKN120 A3009 RMK AO1,M
BVU,2022-07-18 10:55,-114.8611,35.9475,671.00,M,M,M,M,M,0.00,M,M,M,M,M,M,M,M,M,M,M,M,M,M,M,M,M,M,M,M,KBVU 181055Z AUTO RMK AO2 PNO PWINO TSNO,M
MEV,2022-07-18 10:55,-119.7500,38.9963,1441.42,62.60,48.20,59.26,0.00,0.00,0.00,30.12,M,10.00,M,CLR,M,M,M,M,M,M,M,M,M,M,M,M,M,M,62.60,KMEV 181055Z AUTO 00000KT 10SM CLR 17/09 A3012 RMK AO2,M
TMT,2022-07-18 10:55,-117.1971,39.4643,1749.34,61.00,50.40,68.07,170.00,6.00,0.00,30.24,M,10.00,M,OVC,M,M,M,10000.00,M,M,M,M,M,M,M,M,M,M,61.00,KTMT 181055Z AUTO 17006KT 10SM OVC100 16/10 A3024 RMK AO2 T01610102,M
05U,2022-07-18 10:55,-116.0051,39.6042,1811.23,62.60,53.60,72.38,170.00,5.00,0.00,30.25,M,10.00,M,FEW,M,M,M,11000.00,M,M,M,M,M,M,M,M,M,M,62.60,K05U 181055Z AUTO 17005KT 10SM FEW110 17/12 A3025 RMK A01,M
NFL,2022-07-18 10:56,-118.7010,39.4166,1199.00,71.00,45.00,39.13,130.00,5.00,0.00,30.04,1014.20,10.00,M,CLR,M,M,M,M,M,M,M,M,M,M,M,M,M,M,71.10,KNFL 181056Z AUTO 13005KT 10SM CLR 22/07 A3004 RMK AO2 SLP142 T02170072,M
LAS,2022-07-18 10:56,-115.1634,36.0719,663.00,93.00,56.00,28.79,160.00,12.00,0.00,29.91,1009.20,10.00,26.00,FEW,M,M,M,12000.00,M,M,M,M,M,M,M,26.00,150.00,2022-07-18 10:52,91.29,KLAS 181056Z 16012G26KT 10SM FEW120 34/13 A2991 RMK AO2 PK WND 15026/1052 SLP092 T03390133,M
TPH,2022-07-18 10:56,-117.0904,38.0505,1654.00,71.00,54.00,54.73,10.00,12.00,0.00,30.18,1012.10,10.00,M,BKN,M,M,M,12000.00,M,M,M,M,M,M,M,M,M,M,71.10,KTPH 181056Z AUTO 01012KT 10SM BKN120 22/12 A3018 RMK AO2 SLP121 T02170122,M
HND,2022-07-18 10:56,-115.1344,35.9729,742.79,M,M,M,M,M,0.00,M,M,M,M,M,M,M,M,M,M,M,M,M,M,M,M,M,M,M,M,KHND 181056Z AUTO RMK AO2 SLPNO PWINO FZRANO $,M
EKO,2022-07-18 10:56,-115.7860,40.8242,1367.00,75.00,47.00,36.87,270.00,5.00,0.00,30.12,1012.90,10.00,M,BKN,M,M,M,11000.00,M,M,M,M,M,M,M,M,M,M,75.00,KEKO 181056Z AUTO 27005KT 10SM BKN110 24/08 A3012 RMK AO2 SLP129 T02390083,M
WMC,2022-07-18 10:56,-117.8072,40.9019,1315.00,78.00,42.00,27.70,0.00,0.00,0.00,30.05,1010.70,10.00,M,CLR,M,M,M,M,M,M,M,M,M,M,M,M,M,M,78.10,KWMC 181056Z AUTO 00000KT 10SM CLR 26/06 A3005 RMK AO2 SLP107 T02560056 TSNO,M
INS,2022-07-18 10:58,-115.6733,36.5872,955.00,84.40,41.40,21.96,140.00,3.00,0.00,29.95,1008.30,10.00,M,SCT,BKN,M,M,12000.00,18000.00,M,M,M,M,M,M,M,M,M,81.68,KINS 181058Z AUTO 14003KT 10SM SCT120 BKN180 29/05 A2995 RMK AO2 SLP083 T02910052 $,M
LSV,2022-07-18 10:58,-115.0343,36.2362,570.00,90.00,52.50,27.93,40.00,7.00,0.00,29.87,1008.30,10.00,16.00,CLR,M,M,M,M,M,M,M,M,M,M,M,M,M,M,87.50,KLSV 181058Z AUTO 04007G16KT 10SM CLR 32/11 A2987 RMK AO2 SLP083 T03220114 $,M
CXP,2022-07-18 11:10,-119.7326,39.1923,1431.00,71.60,44.60,37.89,0.00,0.00,0.00,30.13,M,10.00,M,CLR,M,M,M,M,M,M,M,M,M,M,M,M,M,M,71.60,KCXP 181110Z AUTO 00000KT 10SM CLR 22/07 A3013 RMK AO2,M
HTH,2022-07-18 11:15,-118.6315,38.5448,1282.89,77.00,44.60,31.62,0.00,0.00,0.00,30.07,M,10.00,M,FEW,M,M,M,12000.00,M,M,M,M,M,M,M,M,M,M,77.00,KHTH 181115Z AUTO 00000KT 10SM FEW120 25/07 A3007 RMK A01,M
BVU,2022-07-18 11:15,-114.8611,35.9475,671.00,M,M,M,M,M,0.00,M,M,M,M,M,M,M,M,M,M,M,M,M,M,M,M,M,M,M,M,KBVU 181115Z AUTO RMK AO2 PNO PWINO TSNO,M
RTS,2022-07-18 11:15,-119.8764,39.6682,1539.00,69.80,42.80,37.61,0.00,0.00,0.00,30.14,M,10.00,M,CLR,M,M,M,M,M,M,M,M,M,M,M,M,M,M,69.80,KRTS 181115Z AUTO 00000KT 10SM CLR 21/06 A3014 RMK AO2,M
05U,2022-07-18 11:15,-116.0051,39.6042,1811.23,60.80,53.60,77.14,0.00,0.00,0.00,30.25,M,10.00,M,CLR,M,M,M,M,M,M,M,M,M,M,M,M,M,M,60.80,K05U 181115Z AUTO 00000KT 10SM CLR 16/12 A3025 RMK A01,M
MEV,2022-07-18 11:15,-119.7500,38.9963,1441.42,60.80,44.60,55.12,0.00,0.00,0.00,30.12,M,10.00,M,CLR,M,M,M,M,M,M,M,M,M,M,M,M,M,M,60.80,KMEV 181115Z AUTO 00000KT 10SM CLR 16/07 A3012 RMK AO2,M
BAM,2022-07-18 11:15,-116.8743,40.5990,1382.36,M,M,M,230.00,6.00,0.00,30.09,M,10.00,M,SCT,M,M,M,12000.00,M,M,M,M,M,M,M,M,M,M,M,KBAM 181115Z AUTO 23006KT 10SM SCT120 A3009 RMK AO1,M
TMT,2022-07-18 11:15,-117.1971,39.4643,1749.34,M,M,M,250.00,6.00,0.00,30.24,M,10.00,M,SCT,SCT,OVC,M,6000.00,7000.00,10000.00,M,RA,M,M,M,M,M,M,M,KTMT 181115Z AUTO 25006KT 10SM RA SCT060 SCT070 OVC100 A3024 RMK AO2,M
TMT,2022-07-18 11:35,-117.1971,39.4643,1749.34,61.00,56.00,83.29,0.00,0.00,0.00,30.24,M,10.00,M,SCT,SCT,OVC,M,4500.00,6000.00,11000.00,M,M,M,M,M,M,M,M,61.00,KTMT 181135Z AUTO 00000KT 10SM SCT045 SCT060 OVC110 16/13 A3024 RMK AO2 T01610133,M
HTH,2022-07-18 11:35,-118.6315,38.5448,1282.89,77.00,44.60,31.62,0.00,0.00,0.00,30.08,M,10.00,M,CLR,M,M,M,M,M,M,M,M,M,M,M,M,M,M,77.00,KHTH 181135Z AUTO 00000KT 10SM CLR 25/07 A3008 RMK A01,M
BAM,2022-07-18 11:35,-116.8743,40.5990,1382.36,M,M,M,230.00,5.00,0.00,30.09,M,10.00,M,CLR,M,M,M,M,M,M,M,M,M,M,M,M,M,M,M,KBAM 181135Z AUTO 23005KT 10SM CLR A3009 RMK AO1,M
MEV,2022-07-18 11:35,-119.7500,38.9963,1441.42,59.00,44.60,58.77,110.00,5.00,0.00,30.12,M,10.00,M,CLR,M,M,M,M,M,M,M,M,M,M,M,M,M,M,59.00,KMEV 181135Z AUTO 11005KT 10SM CLR 15/07 A3012 RMK AO2,M
05U,2022-07-18 11:35,-116.0051,39.6042,1811.23,60.80,53.60,77.14,220.00,5.00,0.00,30.26,M,10.00,M,CLR,M,M,M,M,M,M,M,M,M,M,M,M,M,M,60.80,K05U 181135Z AUTO 22005KT 10SM CLR 16/12 A3026 RMK A01,M
RTS,2022-07-18 11:35,-119.8764,39.6682,1539.00,71.60,42.80,35.37,M,3.00,0.00,30.14,M,10.00,M,CLR,M,M,M,M,M,M,M,M,M,M,M,M,M,M,71.60,KRTS 181135Z AUTO VRB03KT 10SM CLR 22/06 A3014 RMK AO2,M
CXP,2022-07-18 11:35,-119.7326,39.1923,1431.00,69.80,44.60,40.29,320.00,4.00,0.00,30.13,M,10.00,M,CLR,M,M,M,M,M,M,M,M,M,M,M,M,M,M,69.80,KCXP 181135Z AUTO 32004KT 10SM CLR 21/07 A3013 RMK AO2,M
BVU,2022-07-18 11:35,-114.8611,35.9475,671.00,M,M,M,M,M,0.00,M,M,M,M,M,M,M,M,M,M,M,M,M,M,M,M,M,M,M,M,KBVU 181135Z AUTO RMK AO2 PNO PWINO TSNO,M
P68,2022-07-18 11:53,-116.0056,39.6014,1993.00,60.00,52.00,74.57,210.00,8.00,0.00,30.23,1015.90,M,M,M,M,M,M,M,M,M,M,M,M,M,M,M,M,M,60.10,KP68 181153Z AUTO 21008KT 16/11 A3023 RMK AO1 SLP159 70018 T01560111 10222 20156 51006,M
LOL,2022-07-18 11:53,-118.5701,40.0684,1192.43,70.00,42.00,36.36,0.00,0.00,0.00,30.04,1011.80,10.00,M,CLR,M,M,M,M,M,M,M,M,M,M,M,M,M,M,70.00,KLOL 181153Z AUTO 00000KT 10SM CLR 21/06 A3004 RMK AO2 SLP118 T02110056 10311 20211 51005,M
ELY,2022-07-18 11:53,-114.8453,39.2950,1909.00,56.00,44.00,64.47,160.00,5.00,0.00,30.26,1014.80,10.00,M,CLR,M,M,M,M,M,M,M,M,M,M,M,M,M,M,55.90,KELY 181153Z AUTO 16005KT 10SM CLR 13/07 A3026 RMK AO2 SLP148 T01330067 10200 20122 53006,M
DRA,2022-07-18 11:53,-116.0278,36.6206,1009.00,81.00,45.00,28.15,20.00,4.00,0.00,29.97,1008.70,10.00,M,CLR,M,M,M,M,M,M,M,M,M,M,M,M,M,M,79.68,KDRA 181153Z AUTO 02004KT 10SM CLR 27/07 A2997 RMK AO2 SLP087 T02720072 10317 20256 53004,M
VGT,2022-07-18 11:53,-115.1933,36.2111,667.00,90.00,58.00,33.99,150.00,18.00,0.00,29.95,1012.20,10.00,30.00,CLR,M,M,M,M,M,M,M,M,M,M,M,40.00,170.00,2022-07-18 11:22,88.89,KVGT 181153Z AUTO 15018G30KT 10SM CLR 32/14 A2995 RMK AO2 PK WND 17040/1122 SLP122 T03220144 10389 20322 53028,M
RNO,2022-07-18 11:55,-119.7711,39.4839,1341.00,72.00,49.00,43.97,0.00,0.00,0.00,30.09,1012.00,10.00,M,SCT,M,M,M,15000.00,M,M,M,M,M,M,M,M,M,M,72.00,KRNO 181155Z 00000KT 10SM SCT150 22/09 A3009 RMK AO2 SLP120 T02220094 10278 20217 51006,M
MEV,2022-07-18 11:55,-119.7500,38.9963,1441.42,60.80,44.60,55.12,120.00,4.00,0.00,30.12,M,10.00,M,CLR,M,M,M,M,M,M,M,M,M,M,M,M,M,M,60.80,KMEV 181155Z AUTO 12004KT 10SM CLR 16/07 A3012 RMK AO2,M
CXP,2022-07-18 11:55,-119.7326,39.1923,1431.00,68.00,44.60,42.85,320.00,3.00,0.00,30.13,M,10.00,M,CLR,M,M,M,M,M,M,M,M,M,M,M,M,M,M,68.00,KCXP 181155Z AUTO 32003KT 10SM CLR 20/07 A3013 RMK AO2,M
BVU,2022-07-18 11:55,-114.8611,35.9475,671.00,M,M,M,M,M,0.00,M,M,M,M,M,M,M,M,M,M,M,M,M,M,M,M,M,M,M,M,KBVU 181155Z AUTO RMK AO2 PNO PWINO TSNO,M
BAM,2022-07-18 11:55,-116.8743,40.5990,1382.36,M,M,M,0.00,0.00,0.00,30.09,M,10.00,M,SCT,M,M,M,12000.00,M,M,M,M,M,M,M,M,M,M,M,KBAM 181155Z AUTO 00000KT 10SM SCT120 A3009 RMK AO1,M
TMT,2022-07-18 11:55,-117.1971,39.4643,1749.34,60.80,56.00,84.49,70.00,3.00,0.00,30.24,M,10.00,M,BKN,M,M,M,11000.00,M,M,M,M,M,M,M,M,M,M,60.80,KTMT 181155Z AUTO 07003KT 10SM BKN110 16/13 A3024 RMK AO2 T01600134,M
05U,2022-07-18 11:55,-116.0051,39.6042,1811.23,60.80,53.60,77.14,210.00,5.00,0.00,30.25,M,10.00,M,CLR,M,M,M,M,M,M,M,M,M,M,M,M,M,M,60.80,K05U 181155Z AUTO 21005KT 10SM CLR 16/12 A3025 RMK A01,M
RTS,2022-07-18 11:55,-119.8764,39.6682,1539.00,71.60,42.80,35.37,240.00,4.00,0.00,30.14,M,10.00,M,CLR,M,M,M,M,M,M,M,M,M,M,M,M,M,M,71.60,KRTS 181155Z AUTO 24004KT 10SM CLR 22/06 A3014 RMK AO2,M
HTH,2022-07-18 11:55,-118.6315,38.5448,1282.89,77.00,44.60,31.62,0.00,0.00,0.00,30.08,M,10.00,M,M,M,M,M,M,M,M,M,M,M,M,M,M,M,M,77.00,KHTH 181155Z AUTO 00000KT 10SM 25/07 A3008 RMK A01,M
EKO,2022-07-18 11:56,-115.7860,40.8242,1367.00,75.00,46.00,35.64,280.00,3.00,0.00,30.13,1013.10,10.00,M,SCT,M,M,M,11000.00,M,M,M,M,M,M,M,M,M,M,75.00,KEKO 181156Z AUTO 28003KT 10SM SCT110 24/08 A3013 RMK AO2 SLP131 T02390078 10278 20228 51004,M
HND,2022-07-18 11:56,-115.1344,35.9729,742.79,M,M,M,M,M,0.00,M,M,M,M,M,M,M,M,M,M,M,M,M,M,M,M,M,M,M,M,KHND 181156Z AUTO RMK AO2 SLPNO 6//// 7//// PWINO FZRANO $,M
WMC,2022-07-18 11:56,-117.8072,40.9019,1315.00,72.00,41.00,32.56,260.00,5.00,0.00,30.05,1011.30,10.00,M,CLR,M,M,M,M,M,M,M,M,M,M,M,M,M,M,72.00,KWMC 181156Z AUTO 26005KT 10SM CLR 22/05 A3005 RMK AO2 SLP113 T02220050 10306 20211 52006 TSNO,M
NFL,2022-07-18 11:56,-118.7010,39.4166,1199.00,71.00,45.00,39.13,150.00,5.00,0.00,30.04,1014.20,10.00,M,CLR,M,M,M,M,M,M,M,M,M,M,M,M,M,M,71.10,KNFL 181156Z AUTO 15005KT 10SM CLR 22/07 A3004 RMK AO2 SLP142 T02170072 10311 20206 51005,M
TPH,2022-07-18 11:56,-117.0904,38.0505,1654.00,69.00,53.00,56.70,20.00,12.00,0.00,30.17,1012.20,10.00,M,CLR,M,M,M,M,M,M,M,M,M,M,M,M,M,M,69.10,KTPH 181156Z AUTO 02012KT 10SM CLR 21/12 A3017 RMK AO2 SLP122 60000 T02060117 10250 20206 50004,M
LAS,2022-07-18 11:56,-115.1634,36.0719,663.00,87.00,60.00,40.31,170.00,18.00,0.00,29.95,1010.60,10.00,35.00,FEW,SCT,BKN,M,12000.00,15000.00,20000.00,M,M,M,M,M,37.00,180.00,2022-07-18 11:06,86.83,KLAS 181156Z 17018G35KT 10SM FEW120 SCT150 BKN200 31/16 A2995 RMK AO2 PK WND 18037/1106 SLP106 LTG DSNT S T03060156 10367 20306 53025,M
INS,2022-07-18 11:58,-115.6733,36.5872,955.00,82.20,46.00,28.01,90.00,9.00,0.00,29.98,1009.40,10.00,M,CLR,M,M,M,M,M,M,M,M,M,M,M,M,M,M,80.47,KINS 181158Z AUTO 09009KT 10SM CLR 28/08 A2998 RMK AO2 SLP094 T02790077 10334 20271 53012 $,M
LSV,2022-07-18 11:58,-115.0343,36.2362,570.00,91.20,59.70,34.91,170.00,21.00,0.00,29.94,1010.70,10.00,32.00,CLR,M,M,M,M,M,M,M,M,M,M,M,32.00,180.00,2022-07-18 11:50,90.74,KLSV 181158Z AUTO 17021G32KT 10SM CLR 33/15 A2994 RMK AO2 PK WND 18032/50 PRESRR SLP107 T03290154 10378 20318 52037 $,M
BAM,2022-07-18 12:15,-116.8743,40.5990,1382.36,M,M,M,80.00,3.00,0.00,30.09,M,10.00,M,CLR,M,M,M,M,M,M,M,M,M,M,M,M,M,M,M,KBAM 181215Z AUTO 08003KT 10SM CLR A3009 RMK AO1,M
BVU,2022-07-18 12:15,-114.8611,35.9475,671.00,M,M,M,M,M,0.00,M,M,M,M,M,M,M,M,M,M,M,M,M,M,M,M,M,M,M,M,KBVU 181215Z AUTO RMK AO2 PNO PWINO TSNO,M
CXP,2022-07-18 12:15,-119.7326,39.1923,1431.00,68.00,44.60,42.85,0.00,0.00,0.00,30.13,M,10.00,M,CLR,M,M,M,M,M,M,M,M,M,M,M,M,M,M,68.00,KCXP 181215Z AUTO 00000KT 10SM CLR 20/07 A3013 RMK AO2,M
RTS,2022-07-18 12:15,-119.8764,39.6682,1539.00,71.60,44.60,37.89,200.00,4.00,0.00,30.14,M,10.00,M,CLR,M,M,M,M,M,M,M,M,M,M,M,M,M,M,71.60,KRTS 181215Z AUTO 20004KT 10SM CLR 22/07 A3014 RMK AO2,M
05U,2022-07-18 12:15,-116.0051,39.6042,1811.23,60.80,53.60,77.14,0.00,0.00,0.00,30.25,M,10.00,M,FEW,M,M,M,12000.00,M,M,M,M,M,M,M,M,M,M,60.80,K05U 181215Z AUTO 00000KT 10SM FEW120 16/12 A3025 RMK A01,M
MEV,2022-07-18 12:15,-119.7500,38.9963,1441.42,59.00,44.60,58.77,0.00,0.00,0.00,30.12,M,10.00,M,CLR,M,M,M,M,M,M,M,M,M,M,M,M,M,M,59.00,KMEV 181215Z AUTO 00000KT 10SM CLR 15/07 A3012 RMK AO2,M
TMT,2022-07-18 12:15,-117.1971,39.4643,1749.34,60.80,55.00,81.18,100.00,6.00,0.00,30.24,M,10.00,M,OVC,M,M,M,10000.00,M,M,M,M,M,M,M,M,M,M,60.80,KTMT 181215Z AUTO 10006KT 10SM OVC100 16/13 A3024 RMK AO2 T01600128,M
HTH,2022-07-18 12:15,-118.6315,38.5448,1282.89,77.00,44.60,31.62,M,M,0.00,M,M,10.00,M,M,M,M,M,M,M,M,M,M,M,M,M,M,M,M,77.00,KHTH 181215Z AUTO 10SM 25/07 RMK A01,M
TMT,2022-07-18 12:35,-117.1971,39.4643,1749.34,59.70,54.00,81.70,120.00,3.00,0.00,30.24,M,10.00,M,BKN,M,M,M,10000.00,M,M,M,M,M,M,M,M,M,M,59.70,KTMT 181235Z AUTO 12003KT 10SM BKN100 15/12 A3024 RMK AO2 T01540123,M
RTS,2022-07-18 12:35,-119.8764,39.6682,1539.00,73.40,44.60,35.66,180.00,8.00,0.00,30.14,M,10.00,M,CLR,M,M,M,M,M,M,M,M,M,M,M,M,M,M,73.40,KRTS 181235Z AUTO 18008KT 10SM CLR 23/07 A3014 RMK AO2,M
05U,2022-07-18 12:35,-116.0051,39.6042,1811.23,60.80,53.60,77.14,210.00,9.00,0.00,30.26,M,10.00,M,FEW,M,M,M,12000.00,M,M,M,M,M,M,M,M,M,M,60.80,K05U 181235Z AUTO 21009KT 10SM FEW120 16/12 A3026 RMK A01,M
MEV,2022-07-18 12:35,-119.7500,38.9963,1441.42,59.00,44.60,58.77,0.00,0.00,0.00,30.12,M,10.00,M,CLR,M,M,M,M,M,M,M,M,M,M,M,M,M,M,59.00,KMEV 181235Z AUTO 00000KT 10SM CLR 15/07 A3012 RMK AO2,M
BAM,2022-07-18 12:35,-116.8743,40.5990,1382.36,M,M,M,110.00,4.00,0.00,30.10,M,10.00,M,CLR,M,M,M,M,M,M,M,M,M,M,M,M,M,M,M,KBAM 181235Z AUTO 11004KT 10SM CLR A3010 RMK AO1,M
HTH,2022-07-18 12:35,-118.6315,38.5448,1282.89,75.20,42.80,31.34,0.00,0.00,0.00,30.09,M,10.00,M,M,M,M,M,M,M,M,M,M,M,M,M,M,M,M,75.20,KHTH 181235Z AUTO 00000KT 10SM 24/06 A3009 RMK A01,M
BVU,2022-07-18 12:35,-114.8611,35.9475,671.00,M,M,M,M,M,0.00,M,M,M,M,M,M,M,M,M,M,M,M,M,M,M,M,M,M,M,M,KBVU 181235Z AUTO RMK AO2 PNO PWINO TSNO,M
CXP,2022-07-18 12:35,-119.7326,39.1923,1431.00,66.20,44.60,45.60,0.00,0.00,0.00,30.14,M,10.00,M,CLR,M,M,M,M,M,M,M,M,M,M,M,M,M,M,66.20,KCXP 181235Z AUTO 00000KT 10SM CLR 19/07 A3014 RMK AO2,M
P68,2022-07-18 12:53,-116.0056,39.6014,1993.00,60.00,53.00,77.65,240.00,3.00,0.00,30.24,1015.60,M,M,M,M,M,M,M,M,M,M,M,M,M,M,M,M,M,60.10,KP68 181253Z AUTO 24003KT 16/12 A3024 RMK AO1 SLP156 T01560117,M
DRA,2022-07-18 12:53,-116.0278,36.6206,1009.00,80.00,44.00,28.01,280.00,6.00,0.00,30.00,1009.90,10.00,M,CLR,M,M,M,M,M,M,M,M,M,M,M,M,M,M,79.12,KDRA 181253Z AUTO 28006KT 10SM CLR 27/07 A3000 RMK AO2 SLP099 T02670067,M
VGT,2022-07-18 12:53,-115.1933,36.2111,667.00,90.00,58.00,33.99,200.00,11.00,0.00,29.99,1013.70,10.00,18.00,CLR,M,M,M,M,M,M,M,M,M,M,M,32.00,180.00,2022-07-18 12:02,88.89,KVGT 181253Z 20011G18KT 10SM CLR 32/14 A2999 RMK AO2 PK WND 18032/1202 LTG DSNT S SLP137 T03220144,M
ELY,2022-07-18 12:53,-114.8453,39.2950,1909.00,56.00,45.00,66.72,170.00,8.00,0.00,30.27,1015.10,10.00,M,CLR,M,M,M,M,M,M,M,M,M,M,M,M,M,M,55.90,KELY 181253Z AUTO 17008KT 10SM CLR 13/07 A3027 RMK AO2 SLP151 T01330072,M
LOL,2022-07-18 12:53,-118.5701,40.0684,1192.43,66.00,42.00,41.73,70.00,4.00,0.00,30.05,1012.70,10.00,M,CLR,M,M,M,M,M,M,M,M,M,M,M,M,M,M,66.00,KLOL 181253Z AUTO 07004KT 10SM CLR 19/06 A3005 RMK AO2 SLP127 T01890056,M
HTH,2022-07-18 12:55,-118.6315,38.5448,1282.89,75.20,44.60,33.57,0.00,0.00,0.00,30.09,M,10.00,M,CLR,M,M,M,M,M,M,M,M,M,M,M,M,M,M,75.20,KHTH 181255Z AUTO 00000KT 10SM CLR 24/07 A3009 RMK A01,M
RNO,2022-07-18 12:55,-119.7711,39.4839,1341.00,72.00,49.00,43.97,0.00,0.00,0.00,30.10,1012.50,10.00,M,FEW,M,M,M,15000.00,M,M,M,M,M,M,M,M,M,M,72.00,KRNO 181255Z 00000KT 10SM FEW150 22/09 A3010 RMK AO2 SLP125 T02220094,M
TMT,2022-07-18 12:55,-117.1971,39.4643,1749.34,59.70,55.00,84.42,270.00,5.00,0.00,30.24,M,10.00,M,SCT,M,M,M,10000.00,M,M,M,M,M,M,M,M,M,M,59.70,KTMT 181255Z AUTO 27005KT 10SM SCT100 15/13 A3024 RMK AO2 T01540128,M
BAM,2022-07-18 12:55,-116.8743,40.5990,1382.36,M,M,M,180.00,6.00,0.00,30.10,M,10.00,M,CLR,M,M,M,M,M,M,M,M,M,M,M,M,M,M,M,KBAM 181255Z AUTO 18006KT 10SM CLR A3010 RMK AO1,M
MEV,2022-07-18 12:55,-119.7500,38.9963,1441.42,57.20,46.40,67.12,140.00,4.00,0.00,30.12,M,10.00,M,CLR,M,M,M,M,M,M,M,M,M,M,M,M,M,M,57.20,KMEV 181255Z AUTO 14004KT 10SM CLR 14/08 A3012 RMK AO2,M
05U,2022-07-18 12:55,-116.0051,39.6042,1811.23,60.80,53.60,77.14,0.00,0.00,0.00,30.26,M,10.00,M,CLR,M,M,M,M,M,M,M,M,M,M,M,M,M,M,60.80,K05U 181255Z AUTO 00000KT 10SM CLR 16/12 A3026 RMK A01,M
RTS,2022-07-18 12:55,-119.8764,39.6682,1539.00,75.20,44.60,33.57,170.00,8.00,0.00,30.15,M,10.00,M,CLR,M,M,M,M,M,M,M,M,M,M,M,M,M,M,75.20,KRTS 181255Z AUTO 17008KT 10SM CLR 24/07 A3015 RMK AO2,M
CXP,2022-07-18 12:55,-119.7326,39.1923,1431.00,66.20,44.60,45.60,0.00,0.00,0.00,30.14,M,10.00,M,CLR,M,M,M,M,M,M,M,M,M,M,M,M,M,M,66.20,KCXP 181255Z AUTO 00000KT 10SM CLR 19/07 A3014 RMK AO2,M
BVU,2022-07-18 12:55,-114.8611,35.9475,671.00,M,M,M,M,M,0.00,M,M,M,M,M,M,M,M,M,M,M,M,M,M,M,M,M,M,M,M,KBVU 181255Z AUTO RMK AO2 PNO PWINO TSNO,M
EKO,2022-07-18 12:56,-115.7860,40.8242,1367.00,75.00,47.00,36.87,M,4.00,0.00,30.14,1013.70,10.00,M,SCT,M,M,M,11000.00,M,M,M,M,M,M,M,M,M,M,75.00,KEKO 181256Z AUTO VRB04KT 10SM SCT110 24/08 A3014 RMK AO2 SLP137 T02390083,M
WMC,2022-07-18 12:56,-117.8072,40.9019,1315.00,65.00,40.00,39.82,150.00,4.00,0.00,30.07,1012.40,10.00,M,CLR,M,M,M,M,M,M,M,M,M,M,M,M,M,M,64.90,KWMC 181256Z AUTO 15004KT 10SM CLR 18/04 A3007 RMK AO2 SLP124 T01830044 TSNO,M
NFL,2022-07-18 12:56,-118.7010,39.4166,1199.00,71.00,45.00,39.13,180.00,3.00,0.00,30.06,1014.60,10.00,M,CLR,M,M,M,M,M,M,M,M,M,M,M,M,M,M,71.10,KNFL 181256Z AUTO 18003KT 10SM CLR 22/07 A3006 RMK AO2 SLP146 T02170072,M
TPH,2022-07-18 12:56,-117.0904,38.0505,1654.00,69.00,52.00,54.45,20.00,10.00,0.00,30.19,1012.90,10.00,M,CLR,M,M,M,M,M,M,M,M,M,M,M,M,M,M,69.10,KTPH 181256Z AUTO 02010KT 10SM CLR 21/11 A3019 RMK AO2 SLP129 T02060111,M
LAS,2022-07-18 12:56,-115.1634,36.0719,663.00,89.00,59.00,36.37,200.00,11.00,0.00,29.99,1012.10,10.00,22.00,FEW,SCT,BKN,M,12000.00,16000.00,22000.00,M,M,M,M,M,34.00,170.00,2022-07-18 12:00,88.37,KLAS 181256Z 20011G22KT 10SM FEW120 SCT160 BKN220 32/15 A2999 RMK AO2 PK WND 17034/1200 LTG DSNT S SLP121 OCNL LTGIC DSNT S CB DSNT S ACC DSNT NW T03170150,M
HND,2022-07-18 12:56,-115.1344,35.9729,742.79,M,M,M,M,M,0.00,M,M,M,M,M,M,M,M,M,M,M,M,VCTS,M,M,M,M,M,M,M,KHND 181256Z AUTO VCTS RMK AO2 LTG DSNT SW TSB51 SLPNO PWINO FZRANO $,M
INS,2022-07-18 12:58,-115.6733,36.5872,955.00,83.50,55.20,37.92,110.00,21.00,0.00,29.99,1009.60,10.00,28.00,CLR,M,M,M,M,M,M,M,M,M,M,M,29.00,120.00,2022-07-18 12:55,82.51,KINS 181258Z AUTO 11021G28KT 10SM CLR 29/13 A2999 RMK AO2 PK WND 12029/55 SLP096 T02860129 $,M
LSV,2022-07-18 12:58,-115.0343,36.2362,570.00,88.50,62.40,41.83,190.00,10.00,0.00,29.98,1012.20,10.00,M,CLR,M,M,M,M,M,M,M,M,M,M,M,31.00,180.00,2022-07-18 12:08,89.10,KLSV 181258Z AUTO 19010KT 10SM CLR 31/17 A2998 RMK AO2 PK WND 18031/08 SLP122 T03140169 $,M
HND,2022-07-18 13:14,-115.1344,35.9729,742.79,M,M,M,M,M,0.00,M,M,M,M,M,M,M,M,M,M,M,M,M,M,M,M,M,M,M,M,KHND 181314Z RMK AO2 TSE08 $,M
TMT,2022-07-18 13:15,-117.1971,39.4643,1749.34,59.20,56.30,90.10,310.00,6.00,0.00,30.25,M,10.00,M,SCT,M,M,M,12000.00,M,M,M,M,M,M,M,M,M,M,59.20,KTMT 181315Z AUTO 31006KT 10SM SCT120 15/14 A3025 RMK AO2 T01510135,M
05U,2022-07-18 13:15,-116.0051,39.6042,1811.23,62.60,53.60,72.38,0.00,0.00,0.00,30.28,M,10.00,10.00,CLR,M,M,M,M,M,M,M,M,M,M,M,M,M,M,62.60,K05U 181315Z AUTO 00000G10KT 10SM CLR 17/12 A3028 RMK A01,M
MEV,2022-07-18 13:15,-119.7500,38.9963,1441.42,57.20,46.40,67.12,180.00,4.00,0.00,30.13,M,10.00,M,CLR,M,M,M,M,M,M,M,M,M,M,M,M,M,M,57.20,KMEV 181315Z AUTO 18004KT 10SM CLR 14/08 A3013 RMK AO2,M
BAM,2022-07-18 13:15,-116.8743,40.5990,1382.36,M,M,M,240.00,3.00,0.00,30.12,M,10.00,M,CLR,M,M,M,M,M,M,M,M,M,M,M,M,M,M,M,KBAM 181315Z AUTO 24003KT 10SM CLR A3012 RMK AO1,M
HTH,2022-07-18 13:15,-118.6315,38.5448,1282.89,75.20,42.80,31.34,240.00,4.00,0.00,30.10,M,10.00,M,CLR,M,M,M,M,M,M,M,M,M,M,M,M,M,M,75.20,KHTH 181315Z AUTO 24004KT 10SM CLR 24/06 A3010 RMK A01,M
RTS,2022-07-18 13:15,-119.8764,39.6682,1539.00,73.40,44.60,35.66,200.00,4.00,0.00,30.16,M,10.00,M,CLR,M,M,M,M,M,M,M,M,M,M,M,M,M,M,73.40,KRTS 181315Z AUTO 20004KT 10SM CLR 23/07 A3016 RMK AO2,M
CXP,2022-07-18 13:15,-119.7326,39.1923,1431.00,64.40,44.60,48.55,0.00,0.00,0.00,30.15,M,10.00,M,CLR,M,M,M,M,M,M,M,M,M,M,M,M,M,M,64.40,KCXP 181315Z AUTO 00000KT 10SM CLR 18/07 A3015 RMK AO2,M
BVU,2022-07-18 13:15,-114.8611,35.9475,671.00,M,M,M,M,M,0.00,M,M,M,M,M,M,M,M,M,M,M,M,M,M,M,M,M,M,M,M,KBVU 181315Z AUTO RMK AO2 PNO PWINO TSNO,M
CXP,2022-07-18 13:35,-119.7326,39.1923,1431.00,66.20,46.40,48.83,0.00,0.00,0.00,30.15,M,10.00,M,CLR,M,M,M,M,M,M,M,M,M,M,M,M,M,M,66.20,KCXP 181335Z AUTO 00000KT 10SM CLR 19/08 A3015 RMK AO2,M
RTS,2022-07-18 13:35,-119.8764,39.6682,1539.00,73.40,44.60,35.66,180.00,4.00,0.00,30.16,M,10.00,M,CLR,M,M,M,M,M,M,M,M,M,M,M,M,M,M,73.40,KRTS 181335Z AUTO 18004KT 10SM CLR 23/07 A3016 RMK AO2,M
05U,2022-07-18 13:35,-116.0051,39.6042,1811.23,64.40,55.40,72.56,0.00,0.00,0.00,30.29,M,10.00,M,CLR,M,M,M,M,M,M,M,M,M,M,M,M,M,M,64.40,K05U 181335Z AUTO 00000KT 10SM CLR 18/13 A3029 RMK A01,M
MEV,2022-07-18 13:35,-119.7500,38.9963,1441.42,60.80,46.40,59.01,0.00,0.00,0.00,30.14,M,10.00,M,CLR,M,M,M,M,M,M,M,M,M,M,M,M,M,M,60.80,KMEV 181335Z AUTO 00000KT 10SM CLR 16/08 A3014 RMK AO2,M
BAM,2022-07-18 13:35,-116.8743,40.5990,1382.36,M,M,M,260.00,5.00,0.00,30.12,M,10.00,M,CLR,M,M,M,M,M,M,M,M,M,M,M,M,M,M,M,KBAM 181335Z AUTO 26005KT 10SM CLR A3012 RMK AO1,M
HTH,2022-07-18 13:35,-118.6315,38.5448,1282.89,75.20,44.60,33.57,0.00,0.00,0.00,30.10,M,10.00,M,CLR,M,M,M,M,M,M,M,M,M,M,M,M,M,M,75.20,KHTH 181335Z AUTO 00000KT 10SM CLR 24/07 A3010 RMK A01,M
TMT,2022-07-18 13:35,-117.1971,39.4643,1749.34,59.50,56.00,88.49,0.00,0.00,0.00,30.25,M,10.00,M,SCT,M,M,M,12000.00,M,M,M,M,M,M,M,M,M,M,59.50,KTMT 181335Z AUTO 00000KT 10SM SCT120 15/13 A3025 RMK AO2 T01530134,M
BVU,2022-07-18 13:35,-114.8611,35.9475,671.00,M,M,M,M,M,0.00,M,M,M,M,M,M,M,M,M,M,M,M,M,M,M,M,M,M,M,M,KBVU 181335Z AUTO RMK AO2 PNO PWINO TSNO,M
VGT,2022-07-18 13:53,-115.1933,36.2111,667.00,89.00,59.00,36.37,200.00,7.00,0.00,30.00,1014.10,10.00,15.00,CLR,M,M,M,M,M,M,M,M,M,M,M,28.00,210.00,2022-07-18 13:01,88.37,KVGT 181353Z 20007G15KT 10SM CLR 32/15 A3000 RMK AO2 PK WND 21028/1301 SLP141 T03170150,M
P68,2022-07-18 13:53,-116.0056,39.6014,1993.00,63.00,55.00,75.11,130.00,5.00,0.00,30.26,1016.30,M,M,M,M,M,M,M,M,M,M,M,M,M,M,M,M,M,63.00,KP68 181353Z AUTO 13005KT 17/13 A3026 RMK AO1 SLP163 T01720128,M
LOL,2022-07-18 13:53,-118.5701,40.0684,1192.43,71.00,43.00,36.25,0.00,0.00,0.00,30.07,1012.90,10.00,M,CLR,M,M,M,M,M,M,M,M,M,M,M,M,M,M,71.10,KLOL 181353Z AUTO 00000KT 10SM CLR 22/06 A3007 RMK AO2 SLP129 T02170061,M
ELY,2022-07-18 13:53,-114.8453,39.2950,1909.00,64.00,48.00,55.99,180.00,8.00,0.00,30.27,1014.50,10.00,M,CLR,M,M,M,M,M,M,M,M,M,M,M,M,M,M,64.00,KELY 181353Z AUTO 18008KT 10SM CLR 18/09 A3027 RMK AO2 SLP145 T01780089,M
DRA,2022-07-18 13:53,-116.0278,36.6206,1009.00,83.00,49.00,30.65,200.00,3.00,0.00,30.03,1011.00,10.00,M,CLR,M,M,M,M,M,M,M,M,M,M,M,M,M,M,81.20,KDRA 181353Z AUTO 20003KT 10SM CLR 28/09 A3003 RMK AO2 SLP110 T02830094,M
RTS,2022-07-18 13:55,-119.8764,39.6682,1539.00,77.00,44.60,31.62,200.00,4.00,0.00,30.16,M,10.00,M,CLR,M,M,M,M,M,M,M,M,M,M,M,M,M,M,77.00,KRTS 181355Z AUTO 20004KT 10SM CLR 25/07 A3016 RMK AO2,M
TMT,2022-07-18 13:55,-117.1971,39.4643,1749.34,59.50,56.00,87.85,140.00,3.00,0.00,30.25,M,10.00,M,BKN,M,M,M,11000.00,M,M,M,M,M,M,M,M,M,M,59.50,KTMT 181355Z AUTO 14003KT 10SM BKN110 15/13 A3025 RMK AO2 T01530133,M
RNO,2022-07-18 13:55,-119.7711,39.4839,1341.00,73.00,49.00,42.51,0.00,0.00,0.00,30.11,1012.90,10.00,M,SCT,M,M,M,15000.00,M,M,M,M,M,M,M,M,M,M,73.00,KRNO 181355Z 00000KT 10SM SCT150 23/09 A3011 RMK AO2 SLP129 T02280094,M
BVU,2022-07-18 13:55,-114.8611,35.9475,671.00,M,M,M,M,M,0.00,M,M,M,M,M,M,M,M,M,M,M,M,M,M,M,M,M,M,M,M,KBVU 181355Z AUTO RMK AO2 PNO PWINO TSNO,M
CXP,2022-07-18 13:55,-119.7326,39.1923,1431.00,68.00,46.40,45.88,0.00,0.00,0.00,30.16,M,10.00,M,CLR,M,M,M,M,M,M,M,M,M,M,M,M,M,M,68.00,KCXP 181355Z AUTO 00000KT 10SM CLR 20/08 A3016 RMK AO2,M
05U,2022-07-18 13:55,-116.0051,39.6042,1811.23,64.40,55.40,72.56,0.00,0.00,0.00,30.29,M,10.00,M,CLR,M,M,M,M,M,M,M,M,M,M,M,M,M,M,64.40,K05U 181355Z AUTO 00000KT 10SM CLR 18/13 A3029 RMK A01,M
MEV,2022-07-18 13:55,-119.7500,38.9963,1441.42,62.60,48.20,59.26,0.00,0.00,0.00,30.15,M,10.00,M,CLR,M,M,M,M,M,M,M,M,M,M,M,M,M,M,62.60,KMEV 181355Z AUTO 00000KT 10SM CLR 17/09 A3015 RMK AO2,M
BAM,2022-07-18 13:55,-116.8743,40.5990,1382.36,M,M,M,190.00,5.00,0.00,30.13,M,10.00,M,CLR,M,M,M,M,M,M,M,M,M,M,M,M,M,M,M,KBAM 181355Z AUTO 19005KT 10SM CLR A3013 RMK AO1,M
HTH,2022-07-18 13:55,-118.6315,38.5448,1282.89,75.20,44.60,33.57,0.00,0.00,0.00,30.11,M,10.00,M,CLR,M,M,M,M,M,M,M,M,M,M,M,M,M,M,75.20,KHTH 181355Z AUTO 00000KT 10SM CLR 24/07 A3011 RMK A01,M
LAS,2022-07-18 13:56,-115.1634,36.0719,663.00,87.00,59.00,38.75,220.00,8.00,0.00,30.00,1012.70,10.00,M,FEW,SCT,BKN,M,12000.00,16000.00,22000.00,M,M,M,M,M,M,M,M,86.47,KLAS 181356Z 22008KT 10SM FEW120 SCT160 BKN220 31/15 A3000 RMK AO2 LTG DSNT SE SLP127 VIRGA DSNT SE-S T03060150,M
EKO,2022-07-18 13:56,-115.7860,40.8242,1367.00,74.00,48.00,39.87,250.00,6.00,0.00,30.17,1014.70,10.00,M,BKN,M,M,M,12000.00,M,M,M,M,M,M,M,M,M,M,73.90,KEKO 181356Z AUTO 25006KT 10SM BKN120 23/09 A3017 RMK AO2 SLP147 T02330089,M
NFL,2022-07-18 13:56,-118.7010,39.4166,1199.00,76.00,46.00,34.58,0.00,0.00,0.00,30.07,1015.00,10.00,M,CLR,M,M,M,M,M,M,M,M,M,M,M,M,M,M,75.90,KNFL 181356Z AUTO 00000KT 10SM CLR 24/08 A3007 RMK AO2 SLP150 T02440078,M
HND,2022-07-18 13:56,-115.1344,35.9729,742.79,M,M,M,M,M,0.00,M,M,M,M,M,M,M,M,M,M,M,M,M,M,M,M,M,M,M,M,KHND 181356Z RMK AO2 LTG DSNT SE TSE08 SLPNO $,M
TPH,2022-07-18 13:56,-117.0904,38.0505,1654.00,71.00,52.00,50.86,20.00,11.00,0.00,30.20,1013.50,10.00,M,CLR,M,M,M,M,M,M,M,M,M,M,M,M,M,M,71.10,KTPH 181356Z AUTO 02011KT 10SM CLR 22/11 A3020 RMK AO2 SLP135 T02170111,M
WMC,2022-07-18 13:56,-117.8072,40.9019,1315.00,75.00,42.00,30.71,0.00,0.00,0.00,30.09,1012.80,10.00,M,CLR,M,M,M,M,M,M,M,M,M,M,M,M,M,M,75.00,KWMC 181356Z AUTO 00000KT 10SM CLR 24/06 A3009 RMK AO2 SLP128 T02390056 TSNO,M
LSV,2022-07-18 13:58,-115.0343,36.2362,570.00,88.70,61.20,39.84,220.00,5.00,0.00,29.98,1012.20,10.00,M,CLR,M,M,M,M,M,M,M,M,M,M,M,M,M,M,88.79,KLSV 181358Z AUTO 22005KT 10SM CLR 32/16 A2998 RMK AO2 SLP122 T03150162 $,M
INS,2022-07-18 13:58,-115.6733,36.5872,955.00,84.00,57.00,39.83,110.00,20.00,0.00,30.02,1010.70,10.00,27.00,CLR,M,M,M,M,M,M,M,M,M,M,M,32.00,130.00,2022-07-18 13:09,83.26,KINS 181358Z AUTO 11020G27KT 10SM CLR 29/14 A3002 RMK AO2 PK WND 13032/09 SLP107 T02890139 $,M
TMT,2022-07-18 14:15,-117.1971,39.4643,1749.34,63.30,56.00,76.79,120.00,3.00,0.00,30.25,M,10.00,M,BKN,BKN,M,M,10000.00,12000.00,M,M,M,M,M,M,M,M,M,63.30,KTMT 181415Z AUTO 12003KT 10SM BKN100 BKN120 17/13 A3025 RMK AO2 T01740133,M
HTH,2022-07-18 14:15,-118.6315,38.5448,1282.89,77.00,44.60,31.62,0.00,0.00,0.00,30.11,M,10.00,M,CLR,M,M,M,M,M,M,M,M,M,M,M,M,M,M,77.00,KHTH 181415Z AUTO 00000KT 10SM CLR 25/07 A3011 RMK A01,M
BAM,2022-07-18 14:15,-116.8743,40.5990,1382.36,M,M,M,0.00,0.00,0.00,30.13,M,10.00,M,CLR,M,M,M,M,M,M,M,M,M,M,M,M,M,M,M,KBAM 181415Z AUTO 00000KT 10SM CLR A3013 RMK AO1,M
MEV,2022-07-18 14:15,-119.7500,38.9963,1441.42,66.20,48.20,52.25,110.00,4.00,0.00,30.14,M,10.00,M,CLR,M,M,M,M,M,M,M,M,M,M,M,M,M,M,66.20,KMEV 181415Z AUTO 11004KT 10SM CLR 19/09 A3014 RMK AO2,M
BVU,2022-07-18 14:15,-114.8611,35.9475,671.00,M,M,M,M,M,0.00,M,M,M,M,M,M,M,M,M,M,M,M,M,M,M,M,M,M,M,M,KBVU 181415Z AUTO RMK AO2 PNO PWINO TSNO,M
05U,2022-07-18 14:15,-116.0051,39.6042,1811.23,68.00,53.60,59.97,0.00,0.00,0.00,30.29,M,10.00,M,CLR,M,M,M,M,M,M,M,M,M,M,M,M,M,M,68.00,K05U 181415Z AUTO 00000KT 10SM CLR 20/12 A3029 RMK A01,M
RTS,2022-07-18 14:15,-119.8764,39.6682,1539.00,77.00,44.60,31.62,0.00,0.00,0.00,30.17,M,10.00,M,CLR,M,M,M,M,M,M,M,M,M,M,M,M,M,M,77.00,KRTS 181415Z AUTO 00000KT 10SM CLR 25/07 A3017 RMK AO2,M
CXP,2022-07-18 14:15,-119.7326,39.1923,1431.00,69.80,46.40,43.13,0.00,0.00,0.00,30.16,M,10.00,M,CLR,M,M,M,M,M,M,M,M,M,M,M,M,M,M,69.80,KCXP 181415Z AUTO 00000KT 10SM CLR 21/08 A3016 RMK AO2,M
05U,2022-07-18 14:30,-116.0051,39.6042,1811.23,69.80,53.60,56.38,0.00,0.00,0.00,30.29,M,10.00,M,CLR,M,M,M,M,M,M,M,M,M,M,M,M,M,M,69.80,K05U 181430Z AUTO 00000KT 10SM CLR 21/12 A3029 RMK A01,M
BVU,2022-07-18 14:35,-114.8611,35.9475,671.00,M,M,M,M,M,0.00,M,M,M,M,M,M,M,M,M,M,M,M,M,M,M,M,M,M,M,M,KBVU 181435Z AUTO RMK AO2 PNO PWINO TSNO,M
RTS,2022-07-18 14:35,-119.8764,39.6682,1539.00,78.80,44.60,29.79,0.00,0.00,0.00,30.17,M,10.00,M,CLR,M,M,M,M,M,M,M,M,M,M,M,M,M,M,78.80,KRTS 181435Z AUTO 00000KT 10SM CLR 26/07 A3017 RMK AO2,M
HTH,2022-07-18 14:35,-118.6315,38.5448,1282.89,80.60,44.60,28.08,0.00,0.00,0.00,30.12,M,10.00,M,CLR,M,M,M,M,M,M,M,M,M,M,M,M,M,M,79.42,KHTH 181435Z AUTO 00000KT 10SM CLR 27/07 A3012 RMK A01,M
BAM,2022-07-18 14:35,-116.8743,40.5990,1382.36,M,M,M,0.00,0.00,0.00,30.13,M,10.00,M,CLR,M,M,M,M,M,M,M,M,M,M,M,M,M,M,M,KBAM 181435Z AUTO 00000KT 10SM CLR A3013 RMK AO1,M
MEV,2022-07-18 14:35,-119.7500,38.9963,1441.42,69.80,48.20,46.16,0.00,0.00,0.00,30.15,M,10.00,M,CLR,M,M,M,M,M,M,M,M,M,M,M,M,M,M,69.80,KMEV 181435Z AUTO 00000KT 10SM CLR 21/09 A3015 RMK AO2,M
CXP,2022-07-18 14:35,-119.7326,39.1923,1431.00,71.60,46.40,40.57,0.00,0.00,0.00,30.16,M,10.00,M,CLR,M,M,M,M,M,M,M,M,M,M,M,M,M,M,71.60,KCXP 181435Z AUTO 00000KT 10SM CLR 22/08 A3016 RMK AO2,M
TMT,2022-07-18 14:35,-117.1971,39.4643,1749.34,65.50,56.30,72.15,0.00,0.00,0.00,30.26,M,10.00,M,BKN,M,M,M,11000.00,M,M,M,M,M,M,M,M,M,M,65.50,KTMT 181435Z AUTO 00000KT 10SM BKN110 19/14 A3026 RMK AO2 T01860135,M
RTS,2022-07-18 14:50,-119.8764,39.6682,1539.00,78.80,44.60,29.79,0.00,0.00,0.00,30.17,M,10.00,M,CLR,M,M,M,M,M,M,M,M,M,M,M,M,M,M,78.80,KRTS 181450Z AUTO 00000KT 10SM CLR 26/07 A3017 RMK AO2,M
LOL,2022-07-18 14:53,-118.5701,40.0684,1192.43,81.00,46.00,29.23,0.00,0.00,0.00,30.07,1012.90,10.00,M,CLR,M,M,M,M,M,M,M,M,M,M,M,M,M,M,79.76,KLOL 181453Z AUTO 00000KT 10SM CLR 27/08 A3007 RMK AO2 SLP129 T02720078 51011,M
VGT,2022-07-18 14:53,-115.1933,36.2111,667.00,91.00,55.00,29.66,160.00,8.00,0.00,29.99,1013.70,10.00,M,CLR,M,M,M,M,M,M,M,M,M,M,M,M,M,M,89.03,KVGT 181453Z 16008KT 10SM CLR 33/13 A2999 RMK AO2 LTG DSNT SE SLP137 T03280128 50014,M
DRA,2022-07-18 14:53,-116.0278,36.6206,1009.00,88.00,50.00,27.12,40.00,12.00,0.00,30.06,1011.80,10.00,M,CLR,M,M,M,M,M,M,M,M,M,M,M,M,M,M,85.28,KDRA 181453Z AUTO 04012KT 10SM CLR 31/10 A3006 RMK AO2 SLP118 T03110100 51029,M
P68,2022-07-18 14:53,-116.0056,39.6014,1993.00,70.00,52.00,52.80,200.00,5.00,0.00,30.26,1016.20,M,M,M,M,M,M,M,M,M,M,M,M,M,M,M,M,M,70.00,KP68 181453Z AUTO 20005KT 21/11 A3026 RMK AO1 SLP162 T02110111 51010,M
ELY,2022-07-18 14:53,-114.8453,39.2950,1909.00,73.00,49.00,42.51,210.00,6.00,0.00,30.28,1014.40,10.00,M,CLR,M,M,M,M,M,M,M,M,M,M,M,M,M,M,73.00,KELY 181453Z AUTO 21006KT 10SM CLR 23/09 A3028 RMK AO2 SLP144 T02280094 53007,M
RNO,2022-07-18 14:55,-119.7711,39.4839,1341.00,77.00,50.00,38.74,0.00,0.00,0.00,30.12,1013.30,10.00,M,FEW,M,M,M,12000.00,M,M,M,M,M,M,M,M,M,M,77.00,KRNO 181455Z 00000KT 10SM FEW120 25/10 A3012 RMK AO2 SLP133 T02500100 52010,M
BVU,2022-07-18 14:55,-114.8611,35.9475,671.00,M,M,M,M,M,0.00,M,M,M,M,M,M,M,M,M,M,M,M,M,M,M,M,M,M,M,M,KBVU 181455Z AUTO RMK AO2 PNO PWINO TSNO,M
TMT,2022-07-18 14:55,-117.1971,39.4643,1749.34,65.50,56.70,73.20,0.00,0.00,0.00,30.26,M,10.00,M,SCT,M,M,M,11000.00,M,M,M,M,M,M,M,M,M,M,65.50,KTMT 181455Z AUTO 00000KT 10SM SCT110 19/14 A3026 RMK AO2 T01860137,M
HTH,2022-07-18 14:55,-118.6315,38.5448,1282.89,80.60,44.60,28.08,120.00,4.00,0.00,30.12,M,10.00,M,CLR,M,M,M,M,M,M,M,M,M,M,M,M,M,M,79.42,KHTH 181455Z AUTO 12004KT 10SM CLR 27/07 A3012 RMK A01,M
05U,2022-07-18 14:55,-116.0051,39.6042,1811.23,71.60,51.80,49.64,0.00,0.00,0.00,30.29,M,10.00,M,CLR,M,M,M,M,M,M,M,M,M,M,M,M,M,M,71.60,K05U 181455Z AUTO 00000KT 10SM CLR 22/11 A3029 RMK A01,M
MEV,2022-07-18 14:55,-119.7500,38.9963,1441.42,73.40,48.20,40.85,0.00,0.00,0.00,30.15,M,10.00,M,CLR,M,M,M,M,M,M,M,M,M,M,M,M,M,M,73.40,KMEV 181455Z AUTO 00000KT 10SM CLR 23/09 A3015 RMK AO2,M
BAM,2022-07-18 14:55,-116.8743,40.5990,1382.36,M,M,M,0.00,0.00,0.00,30.13,M,10.00,M,CLR,M,M,M,M,M,M,M,M,M,M,M,M,M,M,M,KBAM 181455Z AUTO 00000KT 10SM CLR A3013 RMK AO1,M
CXP,2022-07-18 14:55,-119.7326,39.1923,1431.00,73.40,46.40,38.18,0.00,0.00,0.00,30.16,M,10.00,M,CLR,M,M,M,M,M,M,M,M,M,M,M,M,M,M,73.40,KCXP 181455Z AUTO 00000KT 10SM CLR 23/08 A3016 RMK AO2,M
EKO,2022-07-18 14:56,-115.7860,40.8242,1367.00,81.00,46.00,29.23,200.00,9.00,0.00,30.17,1014.50,10.00,M,CLR,M,M,M,M,M,M,M,M,M,M,M,M,M,M,79.76,KEKO 181456Z AUTO 20009KT 10SM CLR 27/08 A3017 RMK AO2 SLP145 T02720078 51013,M
NFL,2022-07-18 14:56,-118.7010,39.4166,1199.00,82.00,45.00,27.24,0.00,0.00,0.00,30.08,1015.30,10.00,M,FEW,M,M,M,10000.00,M,M,M,M,M,M,M,M,M,M,80.28,KNFL 181456Z 00000KT 10SM FEW100 28/07 A3008 RMK AO2 SLP153 T02780072 51011,M
WMC,2022-07-18 14:56,-117.8072,40.9019,1315.00,84.00,43.00,23.66,240.00,3.00,0.00,30.10,1012.80,10.00,M,CLR,M,M,M,M,M,M,M,M,M,M,M,M,M,M,81.48,KWMC 181456Z AUTO 24003KT 10SM CLR 29/06 A3010 RMK AO2 SLP128 T02890061 51014 TSNO,M
HND,2022-07-18 14:56,-115.1344,35.9729,742.79,M,M,M,M,M,0.00,M,M,M,M,M,M,M,M,M,M,M,M,M,M,M,M,M,M,M,M,KHND 181456Z RMK AO2 LTG DSNT E SLPNO 6//// $,M
LAS,2022-07-18 14:56,-115.1634,36.0719,663.00,89.00,56.00,32.53,100.00,8.00,0.00,30.00,1012.70,10.00,M,FEW,SCT,BKN,M,12000.00,16000.00,22000.00,M,M,M,M,M,M,M,M,87.44,KLAS 181456Z 10008KT 10SM FEW120 SCT160 BKN220 32/13 A3000 RMK AO2 LTG DSNT E AND SE SLP127 CB DSNT E-SE VIRGA DSNT E-S T03170133 51018,M
TPH,2022-07-18 14:56,-117.0904,38.0505,1654.00,77.00,50.00,38.74,30.00,7.00,0.00,30.21,1014.00,10.00,M,CLR,M,M,M,M,M,M,M,M,M,M,M,M,M,M,77.00,KTPH 181456Z AUTO 03007KT 10SM CLR 25/10 A3021 RMK AO2 SLP140 T02500100 51011,M
INS,2022-07-18 14:58,-115.6733,36.5872,955.00,86.00,55.00,34.74,100.00,18.00,0.00,30.05,1011.90,10.00,M,CLR,M,M,M,M,M,M,M,M,M,M,M,27.00,120.00,2022-07-18 14:30,84.46,KINS 181458Z AUTO 10018KT 10SM CLR 30/13 A3005 RMK AO2 PK WND 12027/30 SLP119 T03000128 52023 $,M
LSV,2022-07-18 14:58,-115.0343,36.2362,570.00,90.30,58.80,34.78,240.00,4.00,0.00,29.98,1012.20,10.00,M,CLR,M,M,M,M,M,M,M,M,M,M,M,M,M,M,89.49,KLSV 181458Z AUTO 24004KT 10SM CLR 32/15 A2998 RMK AO2 SLP122 T03240149 50012 $,M
HTH,2022-07-18 15:15,-118.6315,38.5448,1282.89,82.40,44.60,26.49,0.00,0.00,0.00,30.12,M,10.00,M,CLR,M,M,M,M,M,M,M,M,M,M,M,M,M,M,80.50,KHTH 181515Z AUTO 00000KT 10SM CLR 28/07 A3012 RMK A01,M
TMT,2022-07-18 15:15,-117.1971,39.4643,1749.34,66.40,57.00,71.72,0.00,0.00,0.00,30.26,M,10.00,M,CLR,M,M,M,M,M,M,M,M,M,M,M,M,M,M,66.40,KTMT 181515Z AUTO 00000KT 10SM CLR 19/14 A3026 RMK AO2 T01910139,M
BAM,2022-07-18 15:15,-116.8743,40.5990,1382.36,M,M,M,140.00,4.00,0.00,30.13,M,10.00,M,CLR,M,M,M,M,M,M,M,M,M,M,M,M,M,M,M,KBAM 181515Z AUTO 14004KT 10SM CLR A3013 RMK AO1,M
MEV,2022-07-18 15:15,-119.7500,38.9963,1441.42,75.20,50.00,41.14,0.00,0.00,0.00,30.15,M,10.00,M,CLR,M,M,M,M,M,M,M,M,M,M,M,M,M,M,75.20,KMEV 181515Z AUTO 00000KT 10SM CLR 24/10 A3015 RMK AO2,M
05U,2022-07-18 15:15,-116.0051,39.6042,1811.23,73.40,51.80,46.71,0.00,0.00,0.00,30.29,M,10.00,M,CLR,M,M,M,M,M,M,M,M,M,M,M,M,M,M,73.40,K05U 181515Z AUTO 00000KT 10SM CLR 23/11 A3029 RMK A01,M
RTS,2022-07-18 15:15,-119.8764,39.6682,1539.00,80.60,44.60,28.08,0.00,0.00,0.00,30.18,M,10.00,M,CLR,M,M,M,M,M,M,M,M,M,M,M,M,M,M,79.42,KRTS 181515Z AUTO 00000KT 10SM CLR 27/07 A3018 RMK AO2,M
CXP,2022-07-18 15:15,-119.7326,39.1923,1431.00,75.20,46.40,35.94,0.00,0.00,0.00,30.17,M,10.00,M,CLR,M,M,M,M,M,M,M,M,M,M,M,M,M,M,75.20,KCXP 181515Z AUTO 00000KT 10SM CLR 24/08 A3017 RMK AO2,M
BVU,2022-07-18 15:15,-114.8611,35.9475,671.00,M,M,M,M,M,0.00,M,M,M,M,M,M,M,M,M,M,M,M,M,M,M,M,M,M,M,M,KBVU 181515Z AUTO RMK AO2 PNO PWINO TSNO,M
MEV,2022-07-18 15:35,-119.7500,38.9963,1441.42,75.20,48.20,38.46,310.00,4.00,0.00,30.15,M,10.00,M,CLR,M,M,M,M,M,M,M,M,M,M,M,M,M,M,75.20,KMEV 181535Z AUTO 31004KT 10SM CLR 24/09 A3015 RMK AO2,M
HTH,2022-07-18 15:35,-118.6315,38.5448,1282.89,84.20,44.60,24.99,60.00,4.00,0.00,30.12,M,10.00,M,CLR,M,M,M,M,M,M,M,M,M,M,M,M,M,M,81.73,KHTH 181535Z AUTO 06004KT 10SM CLR 29/07 A3012 RMK A01,M
05U,2022-07-18 15:35,-116.0051,39.6042,1811.23,77.00,48.20,36.22,0.00,0.00,0.00,30.29,M,10.00,M,CLR,M,M,M,M,M,M,M,M,M,M,M,M,M,M,77.00,K05U 181535Z AUTO 00000KT 10SM CLR 25/09 A3029 RMK A01,M
CXP,2022-07-18 15:35,-119.7326,39.1923,1431.00,78.80,46.40,31.90,290.00,3.00,0.00,30.16,M,10.00,M,CLR,M,M,M,M,M,M,M,M,M,M,M,M,M,M,78.80,KCXP 181535Z AUTO 29003KT 10SM CLR 26/08 A3016 RMK AO2,M
BAM,2022-07-18 15:35,-116.8743,40.5990,1382.36,M,M,M,150.00,3.00,0.00,30.13,M,10.00,M,CLR,M,M,M,M,M,M,M,M,M,M,M,M,M,M,M,KBAM 181535Z AUTO 15003KT 10SM CLR A3013 RMK AO1,M
TMT,2022-07-18 15:35,-117.1971,39.4643,1749.34,69.40,56.00,62.61,0.00,0.00,0.00,30.26,M,10.00,M,CLR,M,M,M,M,M,M,M,M,M,M,M,M,M,M,69.40,KTMT 181535Z AUTO 00000KT 10SM CLR 21/13 A3026 RMK AO2 T02080134,M
RTS,2022-07-18 15:35,-119.8764,39.6682,1539.00,80.60,44.60,28.08,M,3.00,0.00,30.18,M,10.00,M,CLR,M,M,M,M,M,M,M,M,M,M,M,M,M,M,79.42,KRTS 181535Z AUTO VRB03KT 10SM CLR 27/07 A3018 RMK AO2,M
BVU,2022-07-18 15:35,-114.8611,35.9475,671.00,M,M,M,M,M,0.00,M,M,M,M,M,M,M,M,M,M,M,M,M,M,M,M,M,M,M,M,KBVU 181535Z AUTO RMK AO2 PNO PWINO TSNO,M
CXP,2022-07-18 15:50,-119.7326,39.1923,1431.00,78.80,46.40,31.90,310.00,4.00,0.00,30.16,M,10.00,M,CLR,M,M,M,M,M,M,M,M,M,M,M,M,M,M,78.80,KCXP 181550Z AUTO 31004KT 10SM CLR 26/08 A3016 RMK AO2,M
05U,2022-07-18 15:50,-116.0051,39.6042,1811.23,78.80,48.20,34.13,0.00,0.00,0.00,30.29,M,10.00,M,CLR,M,M,M,M,M,M,M,M,M,M,M,M,M,M,78.80,K05U 181550Z AUTO 00000KT 10SM CLR 26/09 A3029 RMK A01,M
P68,2022-07-18 15:53,-116.0056,39.6014,1993.00,76.00,48.00,37.29,200.00,4.00,0.00,30.26,1015.60,M,M,M,M,M,M,M,M,M,M,M,M,M,M,M,M,M,75.90,KP68 181553Z AUTO 20004KT 24/09 A3026 RMK AO1 SLP156 T02440089,M
ELY,2022-07-18 15:53,-114.8453,39.2950,1909.00,80.00,48.00,32.46,0.00,0.00,0.00,30.28,1013.60,10.00,M,CLR,M,M,M,M,M,M,M,M,M,M,M,M,M,M,79.42,KELY 181553Z AUTO 00000KT 10SM CLR 27/09 A3028 RMK AO2 SLP136 T02670089,M
VGT,2022-07-18 15:53,-115.1933,36.2111,667.00,91.00,55.00,29.66,110.00,4.00,0.00,29.98,1013.60,10.00,M,CLR,M,M,M,M,M,M,M,M,M,M,M,M,M,M,89.03,KVGT 181553Z 11004KT 10SM CLR 33/13 A2998 RMK AO2 SLP136 T03280128,M
LOL,2022-07-18 15:53,-118.5701,40.0684,1192.43,89.00,46.00,22.54,190.00,8.00,0.00,30.07,1012.80,10.00,M,CLR,M,M,M,M,M,M,M,M,M,M,M,M,M,M,85.76,KLOL 181553Z AUTO 19008KT 10SM CLR 32/08 A3007 RMK AO2 SLP128 T03170078,M
DRA,2022-07-18 15:53,-116.0278,36.6206,1009.00,93.00,52.00,24.97,20.00,9.00,0.00,30.07,1012.10,10.00,M,CLR,M,M,M,M,M,M,M,M,M,M,M,M,M,M,90.29,KDRA 181553Z AUTO 02009KT 10SM CLR 34/11 A3007 RMK AO2 SLP121 T03390111,M
RTS,2022-07-18 15:55,-119.8764,39.6682,1539.00,82.40,44.60,26.49,210.00,5.00,0.00,30.18,M,10.00,11.00,CLR,M,M,M,M,M,M,M,M,M,M,M,M,M,M,80.50,KRTS 181555Z AUTO 21005G11KT 10SM CLR 28/07 A3018 RMK AO2,M
MEV,2022-07-18 15:55,-119.7500,38.9963,1441.42,77.00,50.00,38.74,300.00,4.00,0.00,30.15,M,10.00,M,CLR,M,M,M,M,M,M,M,M,M,M,M,M,M,M,77.00,KMEV 181555Z AUTO 30004KT 10SM CLR 25/10 A3015 RMK AO2,M
HTH,2022-07-18 15:55,-118.6315,38.5448,1282.89,86.00,44.60,23.59,0.00,0.00,0.00,30.12,M,10.00,M,CLR,M,M,M,M,M,M,M,M,M,M,M,M,M,M,83.07,KHTH 181555Z AUTO 00000KT 10SM CLR 30/07 A3012 RMK A01,M
TMT,2022-07-18 15:55,-117.1971,39.4643,1749.34,M,M,M,0.00,0.00,0.00,30.25,M,10.00,M,CLR,M,M,M,M,M,M,M,M,M,M,M,M,M,M,M,KTMT 181555Z AUTO 00000KT 10SM CLR A3025 RMK AO2,M
BVU,2022-07-18 15:55,-114.8611,35.9475,671.00,M,M,M,M,M,0.00,M,M,M,M,M,M,M,M,M,M,M,M,M,M,M,M,M,M,M,M,KBVU 181555Z AUTO RMK AO2 PNO PWINO TSNO,M
RNO,2022-07-18 15:55,-119.7711,39.4839,1341.00,82.00,50.00,32.88,0.00,0.00,0.00,30.12,1013.20,10.00,M,FEW,M,M,M,12000.00,M,M,M,M,M,M,M,M,M,M,80.73,KRNO 181555Z 00000KT 10SM FEW120 28/10 A3012 RMK AO2 SLP132 T02780100,M
BAM,2022-07-18 15:55,-116.8743,40.5990,1382.36,M,M,M,130.00,4.00,0.00,30.14,M,10.00,M,CLR,M,M,M,M,M,M,M,M,M,M,M,M,M,M,M,KBAM 181555Z AUTO 13004KT 10SM CLR A3014 RMK AO1,M
NFL,2022-07-18 15:56,-118.7010,39.4166,1199.00,87.00,44.00,22.34,M,3.00,0.00,30.08,1015.40,10.00,M,FEW,SCT,SCT,M,8000.00,12000.00,18000.00,M,M,M,M,M,M,M,M,83.91,KNFL 181556Z VRB03KT 10SM FEW080 SCT120 SCT180 31/07 A3008 RMK AO2 SLP154 T03060067,M
WMC,2022-07-18 15:56,-117.8072,40.9019,1315.00,88.00,44.00,21.72,270.00,4.00,0.00,30.10,1012.80,10.00,M,CLR,M,M,M,M,M,M,M,M,M,M,M,M,M,M,84.65,KWMC 181556Z AUTO 27004KT 10SM CLR 31/07 A3010 RMK AO2 SLP128 T03110067 TSNO,M
TPH,2022-07-18 15:56,-117.0904,38.0505,1654.00,81.00,49.00,32.60,140.00,3.00,0.00,30.22,1014.10,10.00,M,CLR,M,M,M,M,M,M,M,M,M,M,M,M,M,M,80.01,KTPH 181556Z AUTO 14003KT 10SM CLR 27/09 A3022 RMK AO2 SLP141 T02720094,M
HND,2022-07-18 15:56,-115.1344,35.9729,742.79,M,M,M,M,M,0.00,M,M,M,M,M,M,M,M,M,M,M,M,M,M,M,M,M,M,M,M,KHND 181556Z RMK AO2 SLPNO $,M
EKO,2022-07-18 15:56,-115.7860,40.8242,1367.00,80.00,47.00,31.15,210.00,7.00,0.00,30.17,1014.90,10.00,M,FEW,SCT,M,M,7000.00,12000.00,M,M,M,M,M,M,M,M,M,79.33,KEKO 181556Z AUTO 21007KT 10SM FEW070 SCT120 27/08 A3017 RMK AO2 SLP149 T02670083,M
LAS,2022-07-18 15:56,-115.1634,36.0719,663.00,89.00,56.00,32.53,190.00,3.00,0.00,29.99,1012.20,10.00,M,FEW,SCT,BKN,M,12000.00,16000.00,22000.00,M,M,M,M,M,M,M,M,87.44,KLAS 181556Z 19003KT 10SM FEW120 SCT160 BKN220 32/13 A2999 RMK AO2 SLP122 VIRGA DSNT E-S CB DSNT NW T03170133,M
INS,2022-07-18 15:58,-115.6733,36.5872,955.00,89.80,53.20,28.84,130.00,4.00,0.00,30.05,1011.70,10.00,M,FEW,M,M,M,15000.00,M,M,M,M,M,M,M,M,M,M,87.46,KINS 181558Z AUTO 13004KT 10SM FEW150 32/12 A3005 RMK AO2 SLP117 T03210118 $,M
LSV,2022-07-18 15:58,-115.0343,36.2362,570.00,91.00,58.00,32.94,350.00,4.00,0.00,29.96,1011.60,10.00,M,CLR,M,M,M,M,M,M,M,M,M,M,M,M,M,M,89.88,KLSV 181558Z AUTO 35004KT 10SM CLR 33/14 A2996 RMK AO2 SLP116 T03280144 $,M
RTS,2022-07-18 16:15,-119.8764,39.6682,1539.00,82.40,44.60,26.49,M,5.00,0.00,30.18,M,10.00,10.00,CLR,M,M,M,M,M,M,M,M,M,M,M,M,M,M,80.50,KRTS 181615Z AUTO VRB05G10KT 10SM CLR 28/07 A3018 RMK AO2,M
05U,2022-07-18 16:15,-116.0051,39.6042,1811.23,80.60,44.60,28.08,0.00,0.00,0.00,30.29,M,10.00,M,CLR,M,M,M,M,M,M,M,M,M,M,M,M,M,M,79.42,K05U 181615Z AUTO 00000KT 10SM CLR 27/07 A3029 RMK A01,M
MEV,2022-07-18 16:15,-119.7500,38.9963,1441.42,80.60,48.20,32.18,M,3.00,0.00,30.15,M,10.00,M,CLR,M,M,M,M,M,M,M,M,M,M,M,M,M,M,79.71,KMEV 181615Z AUTO VRB03KT 10SM CLR 27/09 A3015 RMK AO2,M
BVU,2022-07-18 16:15,-114.8611,35.9475,671.00,M,M,M,M,M,0.00,M,M,M,M,M,M,M,M,M,M,M,M,M,M,M,M,M,M,M,M,KBVU 181615Z AUTO RMK AO2 PNO PWINO TSNO,M
HTH,2022-07-18 16:15,-118.6315,38.5448,1282.89,86.00,44.60,23.59,80.00,4.00,0.00,30.11,M,10.00,M,CLR,M,M,M,M,M,M,M,M,M,M,M,M,M,M,83.07,KHTH 181615Z AUTO 08004KT 10SM CLR 30/07 A3011 RMK A01,M
TMT,2022-07-18 16:15,-117.1971,39.4643,1749.34,M,M,M,0.00,0.00,0.00,30.25,M,10.00,M,CLR,M,M,M,M,M,M,M,M,M,M,M,M,M,M,M,KTMT 181615Z AUTO 00000KT 10SM CLR A3025 RMK AO2,M
BAM,2022-07-18 16:15,-116.8743,40.5990,1382.36,M,M,M,100.00,6.00,0.00,30.14,M,10.00,M,CLR,M,M,M,M,M,M,M,M,M,M,M,M,M,M,M,KBAM 181615Z AUTO 10006KT 10SM CLR A3014 RMK AO1,M
CXP,2022-07-18 16:15,-119.7326,39.1923,1431.00,82.40,44.60,26.49,0.00,0.00,0.00,30.16,M,10.00,M,CLR,M,M,M,M,M,M,M,M,M,M,M,M,M,M,80.50,KCXP 181615Z AUTO 00000KT 10SM CLR 28/07 A3016 RMK AO2,M
HTH,2022-07-18 16:35,-118.6315,38.5448,1282.89,87.80,44.60,22.27,0.00,0.00,0.00,30.11,M,10.00,11.00,CLR,M,M,M,M,M,M,M,M,M,M,M,M,M,M,84.53,KHTH 181635Z AUTO 00000G11KT 10SM CLR 31/07 A3011 RMK A01,M
BVU,2022-07-18 16:35,-114.8611,35.9475,671.00,M,M,M,M,M,0.00,M,M,M,M,M,M,M,M,M,M,M,M,M,M,M,M,M,M,M,M,KBVU 181635Z AUTO RMK AO2 PNO PWINO TSNO,M
CXP,2022-07-18 16:35,-119.7326,39.1923,1431.00,84.20,46.40,26.76,0.00,0.00,0.00,30.16,M,10.00,M,CLR,M,M,M,M,M,M,M,M,M,M,M,M,M,M,81.87,KCXP 181635Z AUTO 00000KT 10SM CLR 29/08 A3016 RMK AO2,M
RTS,2022-07-18 16:35,-119.8764,39.6682,1539.00,84.20,44.60,24.99,0.00,0.00,0.00,30.18,M,10.00,10.00,CLR,M,M,M,M,M,M,M,M,M,M,M,M,M,M,81.73,KRTS 181635Z AUTO 00000G10KT 10SM CLR 29/07 A3018 RMK AO2,M
05U,2022-07-18 16:35,-116.0051,39.6042,1811.23,82.40,44.60,26.49,0.00,0.00,0.00,30.28,M,10.00,M,CLR,M,M,M,M,M,M,M,M,M,M,M,M,M,M,80.50,K05U 181635Z AUTO 00000KT 10SM CLR 28/07 A3028 RMK A01,M
MEV,2022-07-18 16:35,-119.7500,38.9963,1441.42,82.40,48.20,30.35,0.00,0.00,0.00,30.14,M,10.00,M,CLR,M,M,M,M,M,M,M,M,M,M,M,M,M,M,80.80,KMEV 181635Z AUTO 00000KT 10SM CLR 28/09 A3014 RMK AO2,M
BAM,2022-07-18 16:35,-116.8743,40.5990,1382.36,M,M,M,0.00,0.00,0.00,30.13,M,10.00,M,CLR,M,M,M,M,M,M,M,M,M,M,M,M,M,M,M,KBAM 181635Z AUTO 00000KT 10SM CLR A3013 RMK AO1,M
TMT,2022-07-18 16:35,-117.1971,39.4643,1749.34,M,M,M,0.00,0.00,0.00,30.25,M,10.00,M,CLR,M,M,M,M,M,M,M,M,M,M,M,M,M,M,M,KTMT 181635Z AUTO 00000KT 10SM CLR A3025 RMK AO2,M
P68,2022-07-18 16:53,-116.0056,39.6014,1993.00,79.00,46.00,31.21,0.00,0.00,0.00,30.25,1015.00,M,M,M,M,M,M,M,M,M,M,M,M,M,M,M,M,M,79.00,KP68 181653Z AUTO 00000KT 26/08 A3025 RMK AO1 SLP150 T02610078,M
ELY,2022-07-18 16:53,-114.8453,39.2950,1909.00,83.00,47.00,28.43,170.00,5.00,0.00,30.28,1013.80,10.00,14.00,SCT,M,M,M,10000.00,M,M,M,M,M,M,M,M,M,M,81.01,KELY 181653Z AUTO 17005G14KT 10SM SCT100 28/08 A3028 RMK AO2 SLP138 T02830083,M
DRA,2022-07-18 16:53,-116.0278,36.6206,1009.00,94.00,51.00,23.48,M,3.00,0.00,30.06,1012.00,10.00,M,CLR,M,M,M,M,M,M,M,M,M,M,M,M,M,M,91.00,KDRA 181653Z AUTO VRB03KT 10SM CLR 34/11 A3006 RMK AO2 SLP120 T03440106,M
LOL,2022-07-18 16:53,-118.5701,40.0684,1192.43,92.00,47.00,21.36,180.00,11.00,0.00,30.07,1012.50,10.00,M,CLR,M,M,M,M,M,M,M,M,M,M,M,M,M,M,88.39,KLOL 181653Z AUTO 18011KT 10SM CLR 33/08 A3007 RMK AO2 SLP125 T03330083,M
VGT,2022-07-18 16:53,-115.1933,36.2111,667.00,92.00,57.00,31.00,140.00,11.00,0.00,29.99,1014.00,10.00,M,CLR,M,M,M,M,M,M,M,M,M,M,M,M,M,M,90.50,KVGT 181653Z 14011KT 10SM CLR 33/14 A2999 RMK AO2 SLP140 T03330139,M
HTH,2022-07-18 16:55,-118.6315,38.5448,1282.89,89.60,44.60,21.04,M,5.00,0.00,30.11,M,10.00,M,CLR,M,M,M,M,M,M,M,M,M,M,M,M,M,M,86.07,KHTH 181655Z AUTO VRB05KT 10SM CLR 32/07 A3011 RMK A01,M
BVU,2022-07-18 16:55,-114.8611,35.9475,671.00,M,M,M,M,M,0.00,M,M,M,M,M,M,M,M,M,M,M,M,M,M,M,M,M,M,M,M,KBVU 181655Z AUTO RMK AO2 PNO PWINO TSNO,M
CXP,2022-07-18 16:55,-119.7326,39.1923,1431.00,87.80,44.60,22.27,M,3.00,0.00,30.15,M,10.00,M,CLR,M,M,M,M,M,M,M,M,M,M,M,M,M,M,84.53,KCXP 181655Z AUTO VRB03KT 10SM CLR 31/07 A3015 RMK AO2,M
RNO,2022-07-18 16:55,-119.7711,39.4839,1341.00,87.00,48.00,25.90,0.00,0.00,0.00,30.12,1012.80,10.00,M,FEW,M,M,M,10000.00,M,M,M,M,M,M,M,M,M,M,84.27,KRNO 181655Z 00000KT 10SM FEW100 31/09 A3012 RMK AO2 SLP128 T03060089,M
TMT,2022-07-18 16:55,-117.1971,39.4643,1749.34,M,M,M,0.00,0.00,0.00,30.25,M,10.00,M,CLR,M,M,M,M,M,M,M,M,M,M,M,M,M,M,M,KTMT 181655Z AUTO 00000KT 10SM CLR A3025 RMK AO2,M
RTS,2022-07-18 16:55,-119.8764,39.6682,1539.00,86.00,44.60,23.59,M,5.00,0.00,30.18,M,6.00,M,CLR,M,M,M,M,M,M,M,HZ,M,M,M,M,M,M,83.07,KRTS 181655Z AUTO VRB05KT 6SM HZ CLR 30/07 A3018 RMK AO2,M
05U,2022-07-18 16:55,-116.0051,39.6042,1811.23,82.40,44.60,26.49,0.00,0.00,0.00,30.28,M,10.00,M,CLR,M,M,M,M,M,M,M,M,M,M,M,M,M,M,80.50,K05U 181655Z AUTO 00000KT 10SM CLR 28/07 A3028 RMK A01,M
MEV,2022-07-18 16:55,-119.7500,38.9963,1441.42,86.00,46.40,25.26,0.00,0.00,0.00,30.14,M,10.00,M,CLR,M,M,M,M,M,M,M,M,M,M,M,M,M,M,83.22,KMEV 181655Z AUTO 00000KT 10SM CLR 30/08 A3014 RMK AO2,M
BAM,2022-07-18 16:55,-116.8743,40.5990,1382.36,M,M,M,230.00,9.00,0.00,30.13,M,10.00,M,CLR,M,M,M,M,M,M,M,M,M,M,M,M,M,M,M,KBAM 181655Z AUTO 23009KT 10SM CLR A3013 RMK AO1,M
EKO,2022-07-18 16:56,-115.7860,40.8242,1367.00,82.00,47.00,29.28,220.00,10.00,0.00,30.18,1015.10,10.00,M,CLR,M,M,M,M,M,M,M,M,M,M,M,M,M,M,80.43,KEKO 181656Z AUTO 22010KT 10SM CLR 28/08 A3018 RMK AO2 SLP151 T02780083,M
WMC,2022-07-18 16:56,-117.8072,40.9019,1315.00,92.00,47.00,21.36,230.00,15.00,0.00,30.10,1012.40,10.00,20.00,CLR,M,M,M,M,M,M,M,M,M,M,M,M,M,M,88.39,KWMC 181656Z AUTO 23015G20KT 10SM CLR 33/08 A3010 RMK AO2 SLP124 T03330083 TSNO,M
HND,2022-07-18 16:56,-115.1344,35.9729,742.79,M,M,M,M,M,0.00,M,M,M,M,M,M,M,M,M,M,M,M,M,M,M,M,M,M,M,M,KHND 181656Z AUTO RMK AO2 SLPNO PWINO FZRANO $,M
NFL,2022-07-18 16:56,-118.7010,39.4166,1199.00,91.00,43.00,18.94,170.00,5.00,0.00,30.08,1015.30,10.00,M,FEW,SCT,SCT,M,8000.00,12000.00,18000.00,M,M,M,M,M,M,M,M,87.18,KNFL 181656Z 17005KT 10SM FEW080 SCT120 SCT180 33/06 A3008 RMK AO2 SLP153 T03280061,M
TPH,2022-07-18 16:56,-117.0904,38.0505,1654.00,85.00,47.00,26.66,180.00,12.00,0.00,30.23,1014.20,10.00,M,CLR,M,M,M,M,M,M,M,M,M,M,M,M,M,M,82.42,KTPH 181656Z AUTO 18012KT 10SM CLR 29/08 A3023 RMK AO2 SLP142 T02940083,M
LAS,2022-07-18 16:56,-115.1634,36.0719,663.00,90.00,57.00,32.91,90.00,9.00,0.00,30.01,1012.90,10.00,M,FEW,SCT,BKN,M,12000.00,16000.00,22000.00,M,M,M,M,M,M,M,M,88.61,KLAS 181656Z 09009KT 10SM FEW120 SCT160 BKN220 32/14 A3001 RMK AO2 SLP129 VIRGA DSNT NE CB DSNT NW T03220139,M
LSV,2022-07-18 16:58,-115.0343,36.2362,570.00,93.70,59.40,31.95,130.00,8.00,0.00,29.97,1011.90,10.00,M,FEW,SCT,SCT,M,14000.00,18000.00,20000.00,M,M,M,M,M,M,M,M,93.26,KLSV 181658Z AUTO 13008KT 10SM FEW140 SCT180 SCT200 34/15 A2997 RMK AO2 SLP119 T03430152 $,M
INS,2022-07-18 16:58,-115.6733,36.5872,955.00,91.80,53.00,26.79,0.00,0.00,0.00,30.05,1011.70,10.00,M,BKN,M,M,M,19000.00,M,M,M,M,M,M,M,M,M,M,89.31,KINS 181658Z AUTO 00000KT 10SM BKN190 33/12 A3005 RMK AO2 SLP117 T03320116 $,M
05U,2022-07-18 17:10,-116.0051,39.6042,1811.23,84.20,42.80,23.33,0.00,0.00,0.00,30.28,M,10.00,M,CLR,M,M,M,M,M,M,M,M,M,M,M,M,M,M,81.61,K05U 181710Z AUTO 00000KT 10SM CLR 29/06 A3028 RMK A01,M
MEV,2022-07-18 17:15,-119.7500,38.9963,1441.42,87.80,46.40,23.85,150.00,5.00,0.00,30.14,M,10.00,M,CLR,M,M,M,M,M,M,M,M,M,M,M,M,M,M,84.68,KMEV 181715Z AUTO 15005KT 10SM CLR 31/08 A3014 RMK AO2,M
RTS,2022-07-18 17:15,-119.8764,39.6682,1539.00,86.00,44.60,23.59,230.00,13.00,0.00,30.18,M,10.00,19.00,CLR,M,M,M,M,M,M,M,M,M,M,M,M,M,M,83.07,KRTS 181715Z AUTO 23013G19KT 10SM CLR 30/07 A3018 RMK AO2,M
CXP,2022-07-18 17:15,-119.7326,39.1923,1431.00,89.60,44.60,21.04,200.00,7.00,0.00,30.15,M,10.00,M,CLR,M,M,M,M,M,M,M,M,M,M,M,M,M,M,86.07,KCXP 181715Z AUTO 20007KT 10SM CLR 32/07 A3015 RMK AO2,M
BVU,2022-07-18 17:15,-114.8611,35.9475,671.00,M,M,M,M,M,0.00,M,M,M,M,M,M,M,M,M,M,M,M,M,M,M,M,M,M,M,M,KBVU 181715Z AUTO RMK AO2 PNO PWINO TSNO,M
TMT,2022-07-18 17:15,-117.1971,39.4643,1749.34,M,M,M,330.00,4.00,0.00,30.24,M,10.00,M,CLR,M,M,M,M,M,M,M,M,M,M,M,M,M,M,M,KTMT 181715Z AUTO 33004KT 10SM CLR A3024 RMK AO2,M
BAM,2022-07-18 17:15,-116.8743,40.5990,1382.36,M,M,M,270.00,7.00,0.00,30.13,M,10.00,M,CLR,M,M,M,M,M,M,M,M,M,M,M,M,M,M,M,KBAM 181715Z AUTO 27007KT 10SM CLR A3013 RMK AO1,M
HTH,2022-07-18 17:15,-118.6315,38.5448,1282.89,89.60,42.80,19.64,M,3.00,0.00,30.10,M,10.00,M,CLR,M,M,M,M,M,M,M,M,M,M,M,M,M,M,85.93,KHTH 181715Z AUTO VRB03KT 10SM CLR 32/06 A3010 RMK A01,M
INS,2022-07-18 17:30,-115.6733,36.5872,955.00,91.40,55.40,29.72,0.00,0.00,0.00,30.05,1011.90,10.00,M,FEW,SCT,BKN,OVC,8000.00,11000.00,16000.00,19000.00,-RA,M,M,M,M,M,M,89.53,KINS 181730Z AUTO 00000KT 10SM -RA FEW080 SCT110 BKN160 OVC190 33/13 A3005 RMK AO2 RAB30 SLP119 $,M
INS,2022-07-18 17:33,-115.6733,36.5872,955.00,91.40,59.00,33.84,90.00,3.00,0.00,30.06,1012.20,10.00,M,FEW,SCT,SCT,BKN,300.00,8000.00,11000.00,16000.00,VCTS -RA,M,M,M,M,M,M,90.68,KINS 181733Z AUTO 09003KT 10SM VCTS -RA FEW003 SCT080 SCT110 BKN160 OVC190 33/15 A3006 RMK AO2 RAB30 SLP122 $,M
BAM,2022-07-18 17:35,-116.8743,40.5990,1382.36,M,M,M,230.00,11.00,0.00,30.13,M,10.00,14.00,CLR,M,M,M,M,M,M,M,M,M,M,M,M,M,M,M,KBAM 181735Z AUTO 23011G14KT 10SM CLR A3013 RMK AO1,M
BVU,2022-07-18 17:35,-114.8611,35.9475,671.00,M,M,M,M,M,0.00,M,M,M,M,M,M,M,M,M,M,M,M,M,M,M,M,M,M,M,M,KBVU 181735Z AUTO RMK AO2 PNO PWINO TSNO,M
CXP,2022-07-18 17:35,-119.7326,39.1923,1431.00,91.40,46.40,21.29,M,4.00,0.00,30.15,M,10.00,M,CLR,M,M,M,M,M,M,M,M,M,M,M,M,M,M,87.86,KCXP 181735Z AUTO VRB04KT 10SM CLR 33/08 A3015 RMK AO2,M
RTS,2022-07-18 17:35,-119.8764,39.6682,1539.00,86.00,44.60,23.59,240.00,12.00,0.00,30.18,M,10.00,18.00,CLR,M,M,M,M,M,M,M,M,M,M,M,M,M,M,83.07,KRTS 181735Z AUTO 24012G18KT 10SM CLR 30/07 A3018 RMK AO2,M
05U,2022-07-18 17:35,-116.0051,39.6042,1811.23,86.00,42.80,22.02,0.00,0.00,0.00,30.28,M,10.00,M,CLR,M,M,M,M,M,M,M,M,M,M,M,M,M,M,82.95,K05U 181735Z AUTO 00000KT 10SM CLR 30/06 A3028 RMK A01,M
MEV,2022-07-18 17:35,-119.7500,38.9963,1441.42,89.60,46.40,22.53,250.00,4.00,0.00,30.14,M,10.00,M,CLR,M,M,M,M,M,M,M,M,M,M,M,M,M,M,86.24,KMEV 181735Z AUTO 25004KT 10SM CLR 32/08 A3014 RMK AO2,M
HTH,2022-07-18 17:35,-118.6315,38.5448,1282.89,91.40,42.80,18.56,140.00,4.00,0.00,30.10,M,10.00,M,CLR,M,M,M,M,M,M,M,M,M,M,M,M,M,M,87.52,KHTH 181735Z AUTO 14004KT 10SM CLR 33/06 A3010 RMK A01,M
TMT,2022-07-18 17:35,-117.1971,39.4643,1749.34,M,M,M,30.00,4.00,0.00,30.24,M,10.00,M,CLR,M,M,M,M,M,M,M,M,M,M,M,M,M,M,M,KTMT 181735Z AUTO 03004KT 10SM CLR A3024 RMK AO2,M
INS,2022-07-18 17:41,-115.6733,36.5872,955.00,89.60,55.40,31.45,100.00,10.00,0.00,30.06,1012.20,10.00,M,FEW,SCT,BKN,BKN,300.00,5000.00,11000.00,16000.00,VCTS -RA,M,M,M,M,M,M,87.78,KINS 181741Z 10010KT 10SM VCTS -RA FEW003 SCT050 BKN110 BKN160 OVC190 32/13 A3006 RMK RAB30 SLP122 $,M
HND,2022-07-18 17:48,-115.1344,35.9729,742.79,M,M,M,140.00,5.00,0.00,30.04,M,10.00,M,M,M,M,M,M,M,M,M,M,M,M,M,M,M,M,M,KHND 181748Z 14005KT 10SM A3004 RMK FX,M
INS,2022-07-18 17:51,-115.6733,36.5872,955.00,89.60,57.20,33.56,140.00,3.00,0.00,30.06,1012.20,10.00,M,FEW,SCT,BKN,OVC,300.00,5000.00,13000.00,16000.00,VCTS,M,M,M,M,M,M,88.28,KINS 181751Z AUTO 14003KT 10SM VCTS FEW003 SCT050 BKN130 OVC160 32/14 A3006 RMK AO2 RAB30E48DZB48E51 SLP122 $,M
ELY,2022-07-18 17:53,-114.8453,39.2950,1909.00,86.00,44.00,23.14,240.00,10.00,0.00,30.28,1013.60,10.00,M,CLR,M,M,M,M,M,M,M,M,M,M,M,M,M,M,83.04,KELY 181753Z AUTO 24010KT 10SM CLR 30/07 A3028 RMK AO2 SLP136 T03000067 10306 20122 56001,M
P68,2022-07-18 17:53,-116.0056,39.6014,1993.00,83.00,43.00,24.51,0.00,0.00,0.00,30.25,1014.80,M,M,M,M,M,M,M,M,M,M,M,M,M,M,M,M,M,80.73,KP68 181753Z AUTO 00000KT 28/06 A3025 RMK AO1 SLP148 T02830061 10289 20156 57004,M
VGT,2022-07-18 17:53,-115.1933,36.2111,667.00,95.00,57.00,28.16,110.00,9.00,0.00,30.00,1014.30,10.00,M,CLR,M,M,M,M,M,M,M,M,M,M,M,M,M,M,93.75,KVGT 181753Z 11009KT 10SM CLR 35/14 A3000 RMK AO2 LTG DSNT N AND NW SLP143 T03500139 10350 20317 53005,M
DRA,2022-07-18 17:53,-116.0278,36.6206,1009.00,96.00,49.00,20.22,230.00,12.00,0.00,30.07,1012.20,10.00,M,CLR,M,M,M,M,M,M,M,M,M,M,M,M,M,M,92.78,KDRA 181753Z AUTO 23012KT 10SM CLR 36/09 A3007 RMK AO2 SLP122 T03560094 10367 20250 51003,M
LOL,2022-07-18 17:53,-118.5701,40.0684,1192.43,96.00,47.00,18.76,180.00,13.00,0.00,30.07,1012.30,10.00,M,CLR,M,M,M,M,M,M,M,M,M,M,M,M,M,M,92.44,KLOL 181753Z AUTO 18013KT 10SM CLR 36/08 A3007 RMK AO2 SLP123 T03560083 10356 20183 58002,M
RTS,2022-07-18 17:55,-119.8764,39.6682,1539.00,87.80,44.60,22.27,210.00,11.00,0.00,30.19,M,10.00,17.00,CLR,M,M,M,M,M,M,M,M,M,M,M,M,M,M,84.53,KRTS 181755Z AUTO 21011G17KT 10SM CLR 31/07 A3019 RMK AO2,M
05U,2022-07-18 17:55,-116.0051,39.6042,1811.23,86.00,42.80,22.02,0.00,0.00,0.00,30.28,M,10.00,M,CLR,M,M,M,M,M,M,M,M,M,M,M,M,M,M,82.95,K05U 181755Z AUTO 00000KT 10SM CLR 30/06 A3028 RMK A01,M
MEV,2022-07-18 17:55,-119.7500,38.9963,1441.42,87.80,44.60,22.27,20.00,4.00,0.00,30.14,M,10.00,M,CLR,M,M,M,M,M,M,M,M,M,M,M,M,M,M,84.53,KMEV 181755Z AUTO 02004KT 10SM CLR 31/07 A3014 RMK AO2,M
BAM,2022-07-18 17:55,-116.8743,40.5990,1382.36,M,M,M,160.00,4.00,0.00,30.13,M,10.00,M,CLR,M,M,M,M,M,M,M,M,M,M,M,M,M,M,M,KBAM 181755Z AUTO 16004KT 10SM CLR A3013 RMK AO1,M
CXP,2022-07-18 17:55,-119.7326,39.1923,1431.00,91.40,44.60,19.89,M,4.00,0.00,30.15,M,10.00,10.00,CLR,M,M,M,M,M,M,M,M,M,M,M,M,M,M,87.68,KCXP 181755Z AUTO VRB04G10KT 10SM CLR 33/07 A3015 RMK AO2,M
RNO,2022-07-18 17:55,-119.7711,39.4839,1341.00,91.00,49.00,23.68,M,3.00,0.00,30.12,1012.80,10.00,M,FEW,M,M,M,10000.00,M,M,M,M,M,M,M,M,M,M,87.82,KRNO 181755Z VRB03KT 10SM FEW100 33/09 A3012 RMK AO2 SLP128 T03280094 10328 20206 57001,M
HTH,2022-07-18 17:55,-118.6315,38.5448,1282.89,91.40,42.80,18.56,M,5.00,0.00,30.10,M,10.00,M,CLR,M,M,M,M,M,M,M,M,M,M,M,M,M,M,87.52,KHTH 181755Z AUTO VRB05KT 10SM CLR 33/06 A3010 RMK A01,M
BVU,2022-07-18 17:55,-114.8611,35.9475,671.00,M,M,M,M,M,0.00,M,M,M,M,M,M,M,M,M,M,M,M,M,M,M,M,M,M,M,M,KBVU 181755Z AUTO RMK AO2 PNO PWINO TSNO,M
TMT,2022-07-18 17:55,-117.1971,39.4643,1749.34,M,M,M,0.00,0.00,0.00,30.24,M,10.00,M,CLR,M,M,M,M,M,M,M,M,M,M,M,M,M,M,M,KTMT 181755Z AUTO 00000KT 10SM CLR A3024 RMK AO2,M
WMC,2022-07-18 17:56,-117.8072,40.9019,1315.00,94.00,47.00,20.07,220.00,7.00,0.00,30.10,1012.40,10.00,17.00,FEW,M,M,M,12000.00,M,M,M,M,M,M,M,M,M,M,90.29,KWMC 181756Z AUTO 22007G17KT 10SM FEW120 34/08 A3010 RMK AO2 SLP124 T03440083 10344 20183 58001 TSNO,M
NFL,2022-07-18 17:56,-118.7010,39.4166,1199.00,94.00,44.00,18.05,M,6.00,0.00,30.08,1015.20,10.00,M,SCT,SCT,SCT,M,8000.00,12000.00,15000.00,M,M,M,M,M,M,M,M,89.95,KNFL 181756Z VRB06KT 10SM SCT080 SCT120 SCT150 34/07 A3008 RMK AO2 SLP152 T03440067 10344 20206 58001,M
EKO,2022-07-18 17:56,-115.7860,40.8242,1367.00,88.00,46.00,23.34,230.00,7.00,0.00,30.17,1014.40,10.00,M,CLR,M,M,M,M,M,M,M,M,M,M,M,M,M,M,84.81,KEKO 181756Z AUTO 23007KT 10SM CLR 31/08 A3017 RMK AO2 SLP144 T03110078 10317 20228 50001,M
LAS,2022-07-18 17:56,-115.1634,36.0719,663.00,91.00,58.00,32.94,100.00,8.00,0.00,30.02,1013.30,10.00,M,FEW,FEW,BKN,M,12000.00,16000.00,22000.00,M,M,M,M,M,M,M,M,89.88,KLAS 181756Z 10008KT 10SM FEW120 FEW160 BKN220 33/14 A3002 RMK AO2 SLP133 CB DSNT NW T03280144 10333 20306 53004,M
HND,2022-07-18 17:56,-115.1344,35.9729,742.79,M,M,M,M,M,0.00,M,M,M,M,M,M,M,M,M,M,M,M,M,M,M,M,M,M,M,M,KHND 181756Z AUTO RMK AO2 SLPNO 6//// PWINO FZRANO $,M
TPH,2022-07-18 17:56,-117.0904,38.0505,1654.00,87.00,45.00,23.12,190.00,7.00,0.00,30.23,1014.10,10.00,19.00,CLR,M,M,M,M,M,M,M,M,M,M,M,M,M,M,83.98,KTPH 181756Z AUTO 19007G19KT 10SM CLR 31/07 A3023 RMK AO2 SLP141 T03060072 10311 20200 50005,M
LSV,2022-07-18 17:58,-115.0343,36.2362,570.00,95.20,58.00,28.91,120.00,10.00,0.00,29.98,1012.20,10.00,M,FEW,BKN,M,M,17000.00,20000.00,M,M,M,M,M,M,M,M,M,94.29,KLSV 181758Z AUTO 12010KT 10SM FEW170 BKN200 35/14 A2998 RMK AO2 SLP122 T03510144 10354 20310 53001 $,M
INS,2022-07-18 17:58,-115.6733,36.5872,955.00,90.00,54.50,29.96,110.00,3.00,T,30.06,1012.20,10.00,M,FEW,FEW,BKN,OVC,300.00,4900.00,13000.00,17000.00,M,M,M,M,M,M,M,88.03,KINS 181758Z AUTO 11003KT 10SM FEW003 FEW049 BKN130 OVC170 32/13 A3006 RMK AO2 RAB30E48DZB48E51 SLP122 P0000 60000 T03230125 10335 20279 53001 $,M
BAM,2022-07-18 18:15,-116.8743,40.5990,1382.36,M,M,M,220.00,6.00,0.00,30.13,M,10.00,17.00,CLR,M,M,M,M,M,M,M,M,M,M,M,M,M,M,M,KBAM 181815Z AUTO 22006G17KT 10SM CLR A3013 RMK AO1,M
05U,2022-07-18 18:15,-116.0051,39.6042,1811.23,86.00,41.00,20.54,0.00,0.00,0.00,30.28,M,10.00,M,CLR,M,M,M,M,M,M,M,M,M,M,M,M,M,M,82.86,K05U 181815Z AUTO 00000KT 10SM CLR 30/05 A3028 RMK A01,M
CXP,2022-07-18 18:15,-119.7326,39.1923,1431.00,91.40,44.60,19.89,M,4.00,0.00,30.15,M,10.00,12.00,CLR,M,M,M,M,M,M,M,M,M,M,M,M,M,M,87.68,KCXP 181815Z AUTO VRB04G12KT 10SM CLR 33/07 A3015 RMK AO2,M
RTS,2022-07-18 18:15,-119.8764,39.6682,1539.00,87.80,44.60,22.27,230.00,10.00,0.00,30.19,M,10.00,18.00,CLR,M,M,M,M,M,M,M,M,M,M,M,M,M,M,84.53,KRTS 181815Z AUTO 23010G18KT 10SM CLR 31/07 A3019 RMK AO2,M
BVU,2022-07-18 18:15,-114.8611,35.9475,671.00,M,M,M,M,M,0.00,M,M,M,M,M,M,M,M,M,M,M,M,M,M,M,M,M,M,M,M,KBVU 181815Z AUTO RMK AO2 PNO PWINO TSNO,M
MEV,2022-07-18 18:15,-119.7500,38.9963,1441.42,89.60,44.60,21.04,320.00,7.00,0.00,30.14,M,10.00,M,CLR,M,M,M,M,M,M,M,M,M,M,M,M,M,M,86.07,KMEV 181815Z AUTO 32007KT 290V350 10SM CLR 32/07 A3014 RMK AO2,M
TMT,2022-07-18 18:15,-117.1971,39.4643,1749.34,M,M,M,280.00,6.00,0.00,30.24,M,10.00,M,CLR,M,M,M,M,M,M,M,M,M,M,M,M,M,M,M,KTMT 181815Z AUTO 28006KT 10SM CLR A3024 RMK AO2,M
HTH,2022-07-18 18:15,-118.6315,38.5448,1282.89,91.40,42.80,18.56,M,6.00,0.00,30.10,M,10.00,11.00,CLR,M,M,M,M,M,M,M,M,M,M,M,M,M,M,87.52,KHTH 181815Z AUTO VRB06G11KT 10SM CLR 33/06 A3010 RMK A01,M
WMC,2022-07-18 18:27,-117.8072,40.9019,1315.00,95.00,47.00,19.40,210.00,9.00,0.00,30.10,M,10.00,25.00,SCT,M,M,M,11000.00,M,M,M,M,M,M,M,M,M,M,91.36,KWMC 181827Z AUTO 21009G25KT 10SM SCT110 35/08 A3010 RMK AO2 WSHFT 1807 T03500083 TSNO,M
RTS,2022-07-18 18:35,-119.8764,39.6682,1539.00,87.80,44.60,22.27,260.00,7.00,0.00,30.19,M,10.00,14.00,CLR,M,M,M,M,M,M,M,M,M,M,M,M,M,M,84.53,KRTS 181835Z AUTO 26007G14KT 240V300 10SM CLR 31/07 A3019 RMK AO2,M
05U,2022-07-18 18:35,-116.0051,39.6042,1811.23,89.60,42.80,19.64,0.00,0.00,0.00,30.27,M,10.00,M,CLR,M,M,M,M,M,M,M,M,M,M,M,M,M,M,85.93,K05U 181835Z AUTO 00000KT 10SM CLR 32/06 A3027 RMK A01,M
HTH,2022-07-18 18:35,-118.6315,38.5448,1282.89,93.20,42.80,17.55,M,5.00,0.00,30.09,M,10.00,11.00,CLR,M,M,M,M,M,M,M,M,M,M,M,M,M,M,89.17,KHTH 181835Z AUTO VRB05G11KT 10SM CLR 34/06 A3009 RMK A01,M
CXP,2022-07-18 18:35,-119.7326,39.1923,1431.00,91.40,44.60,19.89,260.00,10.00,0.00,30.16,M,10.00,16.00,FEW,M,M,M,9500.00,M,M,M,M,M,M,M,M,M,M,87.68,KCXP 181835Z AUTO 26010G16KT 10SM FEW095 33/07 A3016 RMK AO2,M
BAM,2022-07-18 18:35,-116.8743,40.5990,1382.36,M,M,M,210.00,7.00,0.00,30.13,M,10.00,16.00,CLR,M,M,M,M,M,M,M,M,M,M,M,M,M,M,M,KBAM 181835Z AUTO 21007G16KT 180V240 10SM CLR A3013 RMK AO1,M
TMT,2022-07-18 18:35,-117.1971,39.4643,1749.34,M,M,M,280.00,5.00,0.00,30.24,M,10.00,M,CLR,M,M,M,M,M,M,M,M,M,M,M,M,M,M,M,KTMT 181835Z AUTO 28005KT 10SM CLR A3024 RMK AO2,M
MEV,2022-07-18 18:35,-119.7500,38.9963,1441.42,89.60,44.60,21.04,M,6.00,0.00,30.14,M,10.00,M,FEW,M,M,M,12000.00,M,M,M,M,M,M,M,M,M,M,86.07,KMEV 181835Z AUTO VRB06KT 10SM FEW120 32/07 A3014 RMK AO2,M
BVU,2022-07-18 18:35,-114.8611,35.9475,671.00,M,M,M,M,M,0.00,M,M,M,M,M,M,M,M,M,M,M,M,M,M,M,M,M,M,M,M,KBVU 181835Z AUTO RMK AO2 PNO PWINO TSNO,M
HND,2022-07-18 18:48,-115.1344,35.9729,742.79,M,M,M,M,4.00,0.00,30.03,M,10.00,M,FEW,M,M,M,7000.00,M,M,M,M,M,M,M,M,M,M,M,KHND 181848Z VRB04KT 10SM FEW070 A3003 RMK FX,M
LOL,2022-07-18 18:53,-118.5701,40.0684,1192.43,94.00,47.00,20.07,M,5.00,0.00,30.06,1012.50,10.00,M,CLR,M,M,M,M,M,M,M,M,M,M,M,M,M,M,90.29,KLOL 181853Z AUTO VRB05KT 10SM CLR 34/08 A3006 RMK AO2 SLP125 T03440083,M
VGT,2022-07-18 18:53,-115.1933,36.2111,667.00,95.00,56.00,27.06,110.00,5.00,0.00,30.00,1014.10,10.00,M,CLR,M,M,M,M,M,M,M,M,M,M,M,M,M,M,93.38,KVGT 181853Z 11005KT 10SM CLR 35/13 A3000 RMK AO2 SLP141 T03500133,M
DRA,2022-07-18 18:53,-116.0278,36.6206,1009.00,95.00,49.00,20.92,230.00,16.00,0.00,30.07,1012.30,10.00,20.00,CLR,M,M,M,M,M,M,M,M,M,M,M,M,M,M,91.68,KDRA 181853Z AUTO 23016G20KT 10SM CLR 35/09 A3007 RMK AO2 SLP123 T03500094,M
ELY,2022-07-18 18:53,-114.8453,39.2950,1909.00,88.00,44.00,21.72,250.00,13.00,0.00,30.27,1013.30,10.00,20.00,CLR,M,M,M,M,M,M,M,M,M,M,M,M,M,M,84.65,KELY 181853Z AUTO 25013G20KT 10SM CLR 31/07 A3027 RMK AO2 SLP133 T03110067,M
P68,2022-07-18 18:53,-116.0056,39.6014,1993.00,87.00,45.00,23.12,M,4.00,0.00,30.23,1014.10,M,M,M,M,M,M,M,M,M,M,M,M,M,M,M,M,M,83.98,KP68 181853Z AUTO VRB04KT 31/07 A3023 RMK AO1 SLP141 T03060072,M
RNO,2022-07-18 18:55,-119.7711,39.4839,1341.00,93.00,48.00,21.51,M,4.00,0.00,30.11,1012.60,10.00,M,SCT,M,M,M,10000.00,M,M,M,M,M,M,M,M,M,M,89.58,KRNO 181855Z VRB04KT 10SM SCT100 34/09 A3011 RMK AO2 SLP126 TCU DSNT SE T03390089,M
BVU,2022-07-18 18:55,-114.8611,35.9475,671.00,M,M,M,M,M,0.00,M,M,M,M,M,M,M,M,M,M,M,M,M,M,M,M,M,M,M,M,KBVU 181855Z AUTO RMK AO2 PNO PWINO TSNO,M
CXP,2022-07-18 18:55,-119.7326,39.1923,1431.00,91.40,44.60,19.89,220.00,7.00,0.00,30.15,M,10.00,14.00,BKN,M,M,M,10000.00,M,M,M,M,M,M,M,M,M,M,87.68,KCXP 181855Z AUTO 22007G14KT 10SM BKN100 33/07 A3015 RMK AO2,M
HTH,2022-07-18 18:55,-118.6315,38.5448,1282.89,95.00,42.80,16.60,340.00,8.00,0.00,30.08,M,10.00,M,CLR,M,M,M,M,M,M,M,M,M,M,M,M,M,M,90.86,KHTH 181855Z AUTO 34008KT 10SM CLR 35/06 A3008 RMK A01,M
BAM,2022-07-18 18:55,-116.8743,40.5990,1382.36,M,M,M,240.00,11.00,0.00,30.13,M,10.00,19.00,CLR,M,M,M,M,M,M,M,M,M,M,M,M,M,M,M,KBAM 181855Z AUTO 24011G19KT 10SM CLR A3013 RMK AO1,M
MEV,2022-07-18 18:55,-119.7500,38.9963,1441.42,91.40,46.40,21.29,M,4.00,0.00,30.14,M,10.00,M,FEW,M,M,M,12000.00,M,M,M,M,M,M,M,M,M,M,87.86,KMEV 181855Z AUTO VRB04KT 10SM FEW120 33/08 A3014 RMK AO2,M
05U,2022-07-18 18:55,-116.0051,39.6042,1811.23,89.60,44.60,21.04,0.00,0.00,0.00,30.26,M,10.00,M,CLR,M,M,M,M,M,M,M,M,M,M,M,M,M,M,86.07,K05U 181855Z AUTO 00000KT 10SM CLR 32/07 A3026 RMK A01,M
RTS,2022-07-18 18:55,-119.8764,39.6682,1539.00,87.80,44.60,22.27,260.00,13.00,0.00,30.19,M,10.00,19.00,CLR,M,M,M,M,M,M,M,M,M,M,M,M,M,M,84.53,KRTS 181855Z AUTO 26013G19KT 10SM CLR 31/07 A3019 RMK AO2,M
TMT,2022-07-18 18:55,-117.1971,39.4643,1749.34,85.00,32.70,15.34,60.00,10.00,0.00,30.22,M,10.00,34.00,CLR,M,M,M,M,M,M,M,M,M,M,M,M,M,M,81.81,KTMT 181855Z AUTO 06010G34KT 040V130 10SM CLR 29/00 A3022 RMK AO2 LTG DSNT SE T02940004,M
WMC,2022-07-18 18:56,-117.8072,40.9019,1315.00,97.00,47.00,18.25,260.00,9.00,0.00,30.09,1012.20,10.00,19.00,FEW,M,M,M,11000.00,M,M,M,M,M,M,M,M,M,M,93.33,KWMC 181856Z AUTO 26009G19KT 10SM FEW110 36/08 A3009 RMK AO2 WSHFT 1807 SLP122 T03610083 TSNO,M
EKO,2022-07-18 18:56,-115.7860,40.8242,1367.00,92.00,44.00,19.21,210.00,8.00,0.00,30.15,1013.40,10.00,14.00,CLR,M,M,M,M,M,M,M,M,M,M,M,M,M,M,88.09,KEKO 181856Z AUTO 21008G14KT 10SM CLR 33/07 A3015 RMK AO2 SLP134 T03330067,M
LAS,2022-07-18 18:56,-115.1634,36.0719,663.00,95.00,57.00,28.16,80.00,7.00,0.00,30.01,1012.90,10.00,M,FEW,FEW,BKN,M,12000.00,16000.00,22000.00,M,M,M,M,M,M,M,M,93.75,KLAS 181856Z 08007KT 050V120 10SM FEW120 FEW160 BKN220 35/14 A3001 RMK AO2 SLP129 T03500139,M
HND,2022-07-18 18:56,-115.1344,35.9729,742.79,M,M,M,M,M,0.00,M,M,M,M,M,M,M,M,M,M,M,M,M,M,M,M,M,M,M,M,KHND 181856Z AUTO RMK AO2 SLPNO PWINO FZRANO $,M
NFL,2022-07-18 18:56,-118.7010,39.4166,1199.00,94.00,43.00,17.31,M,3.00,0.00,30.07,1014.90,10.00,M,SCT,SCT,SCT,M,8000.00,12000.00,15000.00,M,M,M,M,M,M,M,M,89.84,KNFL 181856Z VRB03KT 10SM SCT080 SCT120 SCT150 34/06 A3007 RMK AO2 SLP149 CB DSNT W-NW T03440061,M
TPH,2022-07-18 18:56,-117.0904,38.0505,1654.00,91.00,44.00,19.76,180.00,12.00,0.00,30.21,1013.40,10.00,21.00,CLR,M,M,M,M,M,M,M,M,M,M,M,M,M,M,87.27,KTPH 181856Z AUTO 18012G21KT 10SM CLR 33/07 A3021 RMK AO2 SLP134 T03280067,M
LSV,2022-07-18 18:58,-115.0343,36.2362,570.00,99.30,53.80,21.98,140.00,5.00,0.00,29.97,1011.80,10.00,M,FEW,BKN,BKN,M,10000.00,17000.00,20000.00,M,M,M,M,M,M,M,M,97.32,KLSV 181858Z AUTO 14005KT 10SM FEW100 BKN170 BKN200 37/12 A2997 RMK AO2 SLP118 T03740121 $,M
INS,2022-07-18 18:58,-115.6733,36.5872,955.00,94.60,52.20,23.94,0.00,0.00,0.00,30.05,1011.70,10.00,M,BKN,BKN,M,M,14000.00,18000.00,M,M,M,M,M,M,M,M,M,91.95,KINS 181858Z AUTO 00000KT 10SM BKN140 BKN180 35/11 A3005 RMK AO2 SLP117 T03480112 $,M
RTS,2022-07-18 19:15,-119.8764,39.6682,1539.00,89.60,44.60,21.04,250.00,16.00,0.00,30.18,M,10.00,22.00,FEW,M,M,M,9000.00,M,M,M,M,M,M,M,M,M,M,86.07,KRTS 181915Z AUTO 25016G22KT 10SM FEW090 32/07 A3018 RMK AO2,M
BVU,2022-07-18 19:15,-114.8611,35.9475,671.00,M,M,M,M,M,0.00,M,M,M,M,M,M,M,M,M,M,M,M,M,M,M,M,M,M,M,M,KBVU 181915Z AUTO RMK AO2 PNO PWINO TSNO,M
CXP,2022-07-18 19:15,-119.7326,39.1923,1431.00,91.40,44.60,19.89,260.00,11.00,0.00,30.15,M,10.00,16.00,FEW,FEW,M,M,10000.00,12000.00,M,M,M,M,M,M,M,M,M,87.68,KCXP 181915Z AUTO 26011G16KT 10SM FEW100 FEW120 33/07 A3015 RMK AO2,M
05U,2022-07-18 19:15,-116.0051,39.6042,1811.23,91.40,44.60,19.89,240.00,7.00,0.00,30.25,M,10.00,M,CLR,M,M,M,M,M,M,M,M,M,M,M,M,M,M,87.68,K05U 181915Z AUTO 24007KT 10SM CLR 33/07 A3025 RMK A01,M
MEV,2022-07-18 19:15,-119.7500,38.9963,1441.42,91.40,46.40,21.29,260.00,12.00,0.00,30.14,M,10.00,M,FEW,M,M,M,11000.00,M,M,M,M,M,M,M,M,M,M,87.86,KMEV 181915Z AUTO 26012KT 10SM FEW110 33/08 A3014 RMK AO2,M
BAM,2022-07-18 19:15,-116.8743,40.5990,1382.36,M,M,M,270.00,9.00,0.00,30.12,M,10.00,17.00,CLR,M,M,M,M,M,M,M,M,M,M,M,M,M,M,M,KBAM 181915Z AUTO 27009G17KT 10SM CLR A3012 RMK AO1,M
HTH,2022-07-18 19:15,-118.6315,38.5448,1282.89,95.00,42.80,16.60,M,3.00,0.00,30.08,M,10.00,12.00,CLR,M,M,M,M,M,M,M,M,M,M,M,M,M,M,90.86,KHTH 181915Z AUTO VRB03G12KT 10SM CLR 35/06 A3008 RMK A01,M
TMT,2022-07-18 19:15,-117.1971,39.4643,1749.34,M,M,M,190.00,8.00,0.00,30.22,M,10.00,M,CLR,M,M,M,M,M,M,M,TS,M,M,M,M,M,M,M,KTMT 181915Z AUTO 19008KT 10SM TS CLR A3022 RMK AO2 LTG DSNT SE,M
TMT,2022-07-18 19:35,-117.1971,39.4643,1749.34,M,M,M,150.00,13.00,0.00,30.22,M,10.00,18.00,SCT,M,M,M,10000.00,M,M,M,TS,M,M,M,M,M,M,M,KTMT 181935Z AUTO 15013G18KT 10SM TS SCT100 A3022 RMK AO2 LTG DSNT SE AND S,M
CXP,2022-07-18 19:35,-119.7326,39.1923,1431.00,91.40,44.60,19.89,270.00,9.00,0.00,30.14,M,10.00,16.00,CLR,M,M,M,M,M,M,M,M,M,M,M,M,M,M,87.68,KCXP 181935Z AUTO 27009G16KT 10SM CLR 33/07 A3014 RMK AO2,M
BAM,2022-07-18 19:35,-116.8743,40.5990,1382.36,M,M,M,230.00,13.00,0.00,30.11,M,10.00,16.00,CLR,M,M,M,M,M,M,M,M,M,M,M,M,M,M,M,KBAM 181935Z AUTO 23013G16KT 10SM CLR A3011 RMK AO1,M
RTS,2022-07-18 19:35,-119.8764,39.6682,1539.00,87.80,44.60,22.27,250.00,17.00,0.00,30.18,M,10.00,23.00,SCT,M,M,M,9000.00,M,M,M,M,M,M,M,M,M,M,84.53,KRTS 181935Z AUTO 25017G23KT 10SM SCT090 31/07 A3018 RMK AO2,M
05U,2022-07-18 19:35,-116.0051,39.6042,1811.23,89.60,42.80,19.64,0.00,0.00,0.00,30.24,M,10.00,M,CLR,M,M,M,M,M,M,M,M,M,M,M,M,M,M,85.93,K05U 181935Z AUTO 00000KT 10SM CLR 32/06 A3024 RMK A01,M
MEV,2022-07-18 19:35,-119.7500,38.9963,1441.42,93.20,46.40,20.13,260.00,11.00,0.00,30.13,M,10.00,M,FEW,M,M,M,12000.00,M,M,M,M,M,M,M,M,M,M,89.55,KMEV 181935Z AUTO 26011KT 10SM FEW120 34/08 A3013 RMK AO2,M
HTH,2022-07-18 19:35,-118.6315,38.5448,1282.89,95.00,42.80,16.60,M,6.00,0.00,30.07,M,10.00,13.00,CLR,M,M,M,M,M,M,M,M,M,M,M,M,M,M,90.86,KHTH 181935Z AUTO VRB06G13KT 10SM CLR 35/06 A3007 RMK A01,M
BVU,2022-07-18 19:35,-114.8611,35.9475,671.00,M,M,M,M,M,0.00,M,M,M,M,M,M,M,M,M,M,M,M,M,M,M,M,M,M,M,M,KBVU 181935Z AUTO RMK AO2 PNO PWINO TSNO,M
HND,2022-07-18 19:48,-115.1344,35.9729,742.79,M,M,M,20.00,10.00,0.00,30.00,M,10.00,16.00,FEW,M,M,M,7000.00,M,M,M,M,M,M,M,M,M,M,M,KHND 181948Z 02010G16KT 10SM FEW070 A3000 RMK FX,M
WMC,2022-07-18 19:52,-117.8072,40.9019,1315.00,95.00,48.20,20.38,350.00,11.00,0.00,30.08,M,10.00,M,SCT,M,M,M,11000.00,M,M,M,M,M,M,M,29.00,290.00,2022-07-18 19:33,91.56,KWMC 181952Z AUTO 35011KT 10SM SCT110 35/09 A3008 RMK AO2 PK WND 29029/1933 WSHFT 1932 TSNO,M
ELY,2022-07-18 19:53,-114.8453,39.2950,1909.00,89.00,44.00,20.97,190.00,13.00,0.00,30.25,1012.80,10.00,19.00,FEW,M,M,M,12000.00,M,M,M,M,M,M,M,27.00,190.00,2022-07-18 19:29,85.59,KELY 181953Z AUTO 19013G19KT 10SM FEW120 32/07 A3025 RMK AO2 PK WND 19027/1929 SLP128 T03170067,M
P68,2022-07-18 19:53,-116.0056,39.6014,1993.00,87.00,44.00,22.34,120.00,3.00,0.00,30.21,1013.60,M,M,M,M,M,M,M,M,M,M,M,M,M,M,M,M,M,83.91,KP68 181953Z AUTO 12003KT 31/07 A3021 RMK AO1 SLP136 T03060067,M
LOL,2022-07-18 19:53,-118.5701,40.0684,1192.43,98.00,44.00,15.87,180.00,10.00,0.00,30.03,1011.20,10.00,21.00,FEW,M,M,M,11000.00,M,M,M,M,M,M,M,M,M,M,93.99,KLOL 181953Z AUTO 18010G21KT 10SM FEW110 37/07 A3003 RMK AO2 LTG DSNT N SLP112 T03670067,M
VGT,2022-07-18 19:53,-115.1933,36.2111,667.00,99.00,55.00,23.18,90.00,3.00,0.00,29.97,1013.20,10.00,M,CLR,M,M,M,M,M,M,M,M,M,M,M,M,M,M,97.39,KVGT 181953Z 09003KT 10SM CLR 37/13 A2997 RMK AO2 SLP132 T03720128,M
DRA,2022-07-18 19:53,-116.0278,36.6206,1009.00,97.00,47.00,18.25,220.00,16.00,0.00,30.05,1011.60,10.00,25.00,CLR,M,M,M,M,M,M,M,M,M,M,M,26.00,220.00,2022-07-18 19:19,93.33,KDRA 181953Z AUTO 22016G25KT 10SM CLR 36/08 A3005 RMK AO2 PK WND 22026/1919 SLP116 T03610083,M
BVU,2022-07-18 19:55,-114.8611,35.9475,671.00,M,M,M,M,M,0.00,M,M,M,M,M,M,M,M,M,M,M,M,M,M,M,M,M,M,M,M,KBVU 181955Z AUTO RMK AO2 PNO PWINO TSNO,M
05U,2022-07-18 19:55,-116.0051,39.6042,1811.23,87.80,42.80,20.79,0.00,0.00,0.00,30.24,M,10.00,M,FEW,M,M,M,11000.00,M,M,M,M,M,M,M,M,M,M,84.40,K05U 181955Z AUTO 00000KT 10SM FEW110 31/06 A3024 RMK A01,M
MEV,2022-07-18 19:55,-119.7500,38.9963,1441.42,93.20,46.40,20.13,270.00,11.00,0.00,30.13,M,10.00,18.00,FEW,M,M,M,11000.00,M,M,M,M,M,M,M,M,M,M,89.55,KMEV 181955Z AUTO 27011G18KT 10SM FEW110 34/08 A3013 RMK AO2,M
BAM,2022-07-18 19:55,-116.8743,40.5990,1382.36,M,M,M,260.00,3.00,0.00,30.10,M,10.00,18.00,CLR,M,M,M,M,M,M,M,M,M,M,M,M,M,M,M,KBAM 181955Z AUTO 26003G18KT 10SM CLR A3010 RMK AO1,M
HTH,2022-07-18 19:55,-118.6315,38.5448,1282.89,95.00,41.00,15.49,M,4.00,0.00,30.06,M,10.00,13.00,CLR,M,M,M,M,M,M,M,M,M,M,M,M,M,M,90.70,KHTH 181955Z AUTO VRB04G13KT 10SM CLR 35/05 A3006 RMK A01,M
TMT,2022-07-18 19:55,-117.1971,39.4643,1749.34,M,M,M,140.00,20.00,0.00,30.23,M,10.00,26.00,SCT,M,M,M,10000.00,M,M,M,M,M,M,M,M,M,M,M,KTMT 181955Z AUTO 14020G26KT 10SM SCT100 A3023 RMK AO2 LTG DSNT SE,M
RTS,2022-07-18 19:55,-119.8764,39.6682,1539.00,87.80,44.60,22.27,250.00,15.00,0.00,30.18,M,10.00,21.00,FEW,M,M,M,9500.00,M,M,M,M,M,M,M,M,M,M,84.53,KRTS 181955Z AUTO 25015G21KT 10SM FEW095 31/07 A3018 RMK AO2,M
RNO,2022-07-18 19:55,-119.7711,39.4839,1341.00,95.00,46.00,18.76,250.00,11.00,0.00,30.10,1012.30,10.00,22.00,SCT,M,M,M,11000.00,M,M,M,M,M,M,M,M,M,M,91.23,KRNO 181955Z 25011G22KT 210V310 10SM SCT110 35/08 A3010 RMK AO2 SLP123 T03500078,M
CXP,2022-07-18 19:55,-119.7326,39.1923,1431.00,93.20,42.80,17.55,240.00,12.00,0.00,30.14,M,10.00,19.00,CLR,M,M,M,M,M,M,M,M,M,M,M,M,M,M,89.17,KCXP 181955Z AUTO 24012G19KT 210V270 10SM CLR 34/06 A3014 RMK AO2,M
WMC,2022-07-18 19:56,-117.8072,40.9019,1315.00,95.00,48.00,20.22,350.00,8.00,0.00,30.07,1011.80,10.00,18.00,SCT,M,M,M,11000.00,M,M,M,M,M,M,M,29.00,290.00,2022-07-18 19:33,91.53,KWMC 181956Z AUTO 35008G18KT 10SM SCT110 35/09 A3007 RMK AO2 PK WND 29029/1933 WSHFT 1932 SLP118 T03500089 TSNO,M
HND,2022-07-18 19:56,-115.1344,35.9729,742.79,M,M,M,M,M,0.00,M,M,M,M,M,M,M,M,M,M,M,M,M,M,M,M,M,M,M,M,KHND 181956Z AUTO RMK AO2 SLPNO PWINO FZRANO $,M
TPH,2022-07-18 19:56,-117.0904,38.0505,1654.00,90.00,43.00,19.55,230.00,12.00,0.00,30.19,1012.60,10.00,19.00,FEW,M,M,M,10000.00,M,M,M,M,M,M,M,M,M,M,86.29,KTPH 181956Z AUTO 23012G19KT 10SM FEW100 32/06 A3019 RMK AO2 SLP126 T03220061,M
EKO,2022-07-18 19:56,-115.7860,40.8242,1367.00,95.00,41.00,15.49,280.00,10.00,0.00,30.14,1012.70,10.00,17.00,FEW,M,M,M,11000.00,M,M,M,M,M,M,M,M,M,M,90.70,KEKO 181956Z AUTO 28010G17KT 10SM FEW110 35/05 A3014 RMK AO2 SLP127 T03500050,M
LAS,2022-07-18 19:56,-115.1634,36.0719,663.00,99.00,56.00,23.95,70.00,10.00,0.00,29.98,1011.90,10.00,M,FEW,SCT,M,M,12000.00,25000.00,M,M,M,M,M,M,M,M,M,97.71,KLAS 181956Z 07010KT 10SM FEW120 SCT250 37/13 A2998 RMK AO2 SLP119 T03720133,M
NFL,2022-07-18 19:56,-118.7010,39.4166,1199.00,98.00,42.00,14.70,270.00,8.00,0.00,30.04,1014.30,10.00,M,SCT,SCT,SCT,M,8000.00,10000.00,15000.00,M,M,M,M,M,M,M,M,93.74,KNFL 181956Z 27008KT 10SM SCT080 SCT100 SCT150 37/06 A3004 RMK AO2 SLP143 CB DSNT W-N T03670056,M
LSV,2022-07-18 19:58,-115.0343,36.2362,570.00,106.20,53.80,17.89,0.00,0.00,0.00,29.94,1010.70,10.00,M,FEW,M,M,M,17000.00,M,M,M,M,M,M,M,M,M,M,104.74,KLSV 181958Z AUTO 00000KT 10SM FEW170 41/12 A2994 RMK AO2 SLP107 T04120121 $,M
INS,2022-07-18 19:58,-115.6733,36.5872,955.00,96.30,50.00,20.94,110.00,7.00,0.00,30.03,1011.20,10.00,M,FEW,FEW,BKN,M,14000.00,16000.00,20000.00,M,M,M,M,M,M,M,M,93.20,KINS 181958Z AUTO 11007KT 10SM FEW140 FEW160 BKN200 36/10 A3003 RMK AO2 SLP112 T03570100 $,M
05U,2022-07-18 20:10,-116.0051,39.6042,1811.23,82.40,50.00,32.46,0.00,0.00,0.00,30.24,M,5.00,M,FEW,M,M,M,11000.00,M,M,M,HZ,M,M,M,M,M,M,80.99,K05U 182010Z AUTO 00000KT 5SM HZ FEW110 28/10 A3024 RMK A01,M
HTH,2022-07-18 20:15,-118.6315,38.5448,1282.89,96.80,39.20,13.66,110.00,6.00,0.00,30.05,M,10.00,12.00,CLR,M,M,M,M,M,M,M,M,M,M,M,M,M,M,92.23,KHTH 182015Z AUTO 11006G12KT 10SM CLR 36/04 A3005 RMK A01,M
CXP,2022-07-18 20:15,-119.7326,39.1923,1431.00,93.20,44.60,18.80,250.00,8.00,0.00,30.14,M,10.00,20.00,CLR,M,M,M,M,M,M,M,M,M,M,M,M,M,M,89.34,KCXP 182015Z AUTO 25008G20KT 210V280 10SM CLR 34/07 A3014 RMK AO2,M
TMT,2022-07-18 20:15,-117.1971,39.4643,1749.34,M,M,M,130.00,11.00,0.00,30.22,M,10.00,M,CLR,M,M,M,M,M,M,M,M,M,M,M,M,M,M,M,KTMT 182015Z AUTO 13011KT 10SM CLR A3022 RMK AO2,M
RTS,2022-07-18 20:15,-119.8764,39.6682,1539.00,89.60,44.60,21.04,240.00,14.00,0.00,30.18,M,10.00,19.00,FEW,M,M,M,9000.00,M,M,M,M,M,M,M,M,M,M,86.07,KRTS 182015Z AUTO 24014G19KT 220V280 10SM FEW090 32/07 A3018 RMK AO2,M
BAM,2022-07-18 20:15,-116.8743,40.5990,1382.36,M,M,M,230.00,9.00,0.00,30.09,M,10.00,15.00,SCT,M,M,M,12000.00,M,M,M,M,M,M,M,M,M,M,M,KBAM 182015Z AUTO 23009G15KT 10SM SCT120 A3009 RMK AO1,M
MEV,2022-07-18 20:15,-119.7500,38.9963,1441.42,93.20,46.40,20.13,270.00,10.00,0.00,30.12,M,10.00,16.00,CLR,M,M,M,M,M,M,M,M,M,M,M,M,M,M,89.55,KMEV 182015Z AUTO 27010G16KT 10SM CLR 34/08 A3012 RMK AO2,M
BVU,2022-07-18 20:15,-114.8611,35.9475,671.00,M,M,M,M,M,0.00,M,M,M,M,M,M,M,M,M,M,M,M,M,M,M,M,M,M,M,M,KBVU 182015Z AUTO RMK AO2 PNO PWINO TSNO,M
ELY,2022-07-18 20:23,-114.8453,39.2950,1909.00,90.00,44.00,20.39,180.00,13.00,0.00,30.24,M,7.00,25.00,FEW,M,M,M,900.00,M,M,M,M,M,M,M,32.00,200.00,2022-07-18 20:13,86.38,KELY 182023Z AUTO 18013G25KT 7SM FEW009 32/07 A3024 RMK AO2 PK WND 20032/2013 LTG DSNT N T03220067,M
LOL,2022-07-18 20:25,-118.5701,40.0684,1192.43,94.00,43.00,17.31,210.00,12.00,T,30.03,M,10.00,21.00,FEW,FEW,M,M,3000.00,11000.00,M,M,VCTS,M,M,M,38.00,220.00,2022-07-18 20:09,89.84,KLOL 182025Z AUTO 21012G21KT 10SM VCTS FEW030 FEW110 34/06 A3003 RMK AO2 PK WND 22038/2009 WSHFT 2009 LTG DSNT N AND W RAB09E24 P0000 T03440061,M
BAM,2022-07-18 20:35,-116.8743,40.5990,1382.36,M,M,M,210.00,10.00,0.00,30.09,M,10.00,19.00,SCT,M,M,M,12000.00,M,M,M,M,M,M,M,M,M,M,M,KBAM 182035Z AUTO 21010G19KT 10SM SCT120 A3009 RMK AO1,M
TMT,2022-07-18 20:35,-117.1971,39.4643,1749.34,M,M,M,0.00,0.00,0.00,30.22,M,10.00,M,CLR,M,M,M,M,M,M,M,M,M,M,M,M,M,M,M,KTMT 182035Z AUTO 00000KT 10SM CLR A3022 RMK AO2 LTG DSNT E,M
HTH,2022-07-18 20:35,-118.6315,38.5448,1282.89,96.80,39.20,13.66,0.00,0.00,0.00,30.04,M,10.00,M,CLR,M,M,M,M,M,M,M,M,M,M,M,M,M,M,92.23,KHTH 182035Z AUTO 00000KT 10SM CLR 36/04 A3004 RMK A01,M
BVU,2022-07-18 20:35,-114.8611,35.9475,671.00,M,M,M,M,M,0.00,M,M,M,M,M,M,M,M,M,M,M,M,M,M,M,M,M,M,M,M,KBVU 182035Z AUTO RMK AO2 PNO PWINO TSNO,M
CXP,2022-07-18 20:35,-119.7326,39.1923,1431.00,93.20,46.40,20.13,260.00,9.00,0.00,30.14,M,10.00,23.00,CLR,M,M,M,M,M,M,M,M,M,M,M,M,M,M,89.55,KCXP 182035Z AUTO 26009G23KT 230V300 10SM CLR 34/08 A3014 RMK AO2,M
RTS,2022-07-18 20:35,-119.8764,39.6682,1539.00,89.60,44.60,21.04,240.00,11.00,0.00,30.17,M,10.00,23.00,FEW,M,M,M,9000.00,M,M,M,M,M,M,M,M,M,M,86.07,KRTS 182035Z AUTO 24011G23KT 10SM FEW090 32/07 A3017 RMK AO2,M
05U,2022-07-18 20:35,-116.0051,39.6042,1811.23,86.00,46.40,25.26,0.00,0.00,0.00,30.23,M,10.00,M,CLR,M,M,M,M,M,M,M,M,M,M,M,M,M,M,83.22,K05U 182035Z AUTO 00000KT 10SM CLR 30/08 A3023 RMK A01,M
MEV,2022-07-18 20:35,-119.7500,38.9963,1441.42,93.20,46.40,20.13,280.00,13.00,0.00,30.12,M,10.00,22.00,FEW,M,M,M,11000.00,M,M,M,M,M,M,M,M,M,M,89.55,KMEV 182035Z AUTO 28013G22KT 10SM FEW110 34/08 A3012 RMK AO2,M
LOL,2022-07-18 20:40,-118.5701,40.0684,1192.43,97.00,45.00,16.98,250.00,24.00,T,30.04,M,10.00,30.00,CLR,M,M,M,M,M,M,M,M,M,M,M,38.00,220.00,2022-07-18 20:09,93.04,KLOL 182040Z AUTO 25024G30KT 10SM CLR 36/07 A3004 RMK AO2 PK WND 22038/2009 WSHFT 2023 LTG DSNT NE RAB09E24 P0000 T03610072,M
ELY,2022-07-18 20:53,-114.8453,39.2950,1909.00,91.00,42.00,18.30,230.00,12.00,0.00,30.22,1011.90,10.00,25.00,FEW,SCT,M,M,10000.00,12000.00,M,M,M,M,M,M,32.00,200.00,2022-07-18 20:13,87.11,KELY 182053Z AUTO 23012G25KT 10SM FEW100 SCT120 33/06 A3022 RMK AO2 PK WND 20032/2013 SLP119 T03280056 58015,M
VGT,2022-07-18 20:53,-115.1933,36.2111,667.00,103.00,53.00,19.23,100.00,6.00,0.00,29.94,1012.00,10.00,M,CLR,M,M,M,M,M,M,M,M,M,M,M,M,M,M,100.96,KVGT 182053Z 10006KT 10SM CLR 39/12 A2994 RMK AO2 SLP120 T03940117 58021,M
LOL,2022-07-18 20:53,-118.5701,40.0684,1192.43,93.00,45.00,19.21,270.00,22.00,T,30.05,1012.30,10.00,31.00,FEW,M,M,M,12000.00,M,M,M,M,M,M,M,38.00,220.00,2022-07-18 20:09,89.20,KLOL 182053Z AUTO 27022G31KT 10SM FEW120 34/07 A3005 RMK AO2 PK WND 22038/2009 WSHFT 2036 RAB09E24 SLP123 P0000 60000 T03390072 55005,M
DRA,2022-07-18 20:53,-116.0278,36.6206,1009.00,101.00,45.00,15.09,230.00,18.00,0.00,30.02,1010.50,10.00,24.00,CLR,M,M,M,M,M,M,M,M,M,M,M,28.00,230.00,2022-07-18 20:32,96.87,KDRA 182053Z AUTO 23018G24KT 10SM CLR 38/07 A3002 RMK AO2 PK WND 23028/2032 SLP105 T03830072 58015,M
P68,2022-07-18 20:53,-116.0056,39.6014,1993.00,82.00,51.00,34.25,M,4.00,0.03,30.20,1013.60,M,28.00,M,M,M,M,M,M,M,M,M,M,M,M,28.00,340.00,2022-07-18 20:44,80.85,KP68 182053Z AUTO VRB04G28KT 28/11 A3020 RMK AO1 PK WND 34028/2044 SLP136 P0003 60003 T02780106 56014,M
HTH,2022-07-18 20:55,-118.6315,38.5448,1282.89,96.80,37.40,12.73,140.00,5.00,0.00,30.05,M,10.00,15.00,CLR,M,M,M,M,M,M,M,M,M,M,M,M,M,M,92.04,KHTH 182055Z AUTO 14005G15KT 10SM CLR 36/03 A3005 RMK A01,M
RNO,2022-07-18 20:55,-119.7711,39.4839,1341.00,96.00,49.00,20.22,280.00,11.00,0.00,30.08,1011.60,10.00,19.00,SCT,M,M,M,11000.00,M,M,M,M,M,M,M,M,M,M,92.78,KRNO 182055Z 28011G19KT 10SM SCT110 36/09 A3008 RMK AO2 SLP116 T03560094 58009,M
BVU,2022-07-18 20:55,-114.8611,35.9475,671.00,M,M,M,M,M,0.00,M,M,M,M,M,M,M,M,M,M,M,M,M,M,M,M,M,M,M,M,KBVU 182055Z AUTO RMK AO2 PNO PWINO TSNO,M
CXP,2022-07-18 20:55,-119.7326,39.1923,1431.00,93.20,44.60,18.80,250.00,10.00,0.00,30.13,M,10.00,19.00,CLR,M,M,M,M,M,M,M,M,M,M,M,M,M,M,89.34,KCXP 182055Z AUTO 25010G19KT 10SM CLR 34/07 A3013 RMK AO2,M
RTS,2022-07-18 20:55,-119.8764,39.6682,1539.00,89.60,44.60,21.04,240.00,12.00,0.00,30.17,M,10.00,26.00,CLR,M,M,M,M,M,M,M,M,M,M,M,M,M,M,86.07,KRTS 182055Z AUTO 24012G26KT 10SM CLR 32/07 A3017 RMK AO2,M
05U,2022-07-18 20:55,-116.0051,39.6042,1811.23,82.40,50.00,32.46,0.00,0.00,0.02,30.22,M,9.00,13.00,FEW,FEW,M,M,10000.00,12000.00,M,M,M,M,M,M,M,M,M,80.99,K05U 182055Z AUTO 00000G13KT 9SM FEW100 FEW120 28/10 A3022 RMK A01 P0002,M
MEV,2022-07-18 20:55,-119.7500,38.9963,1441.42,95.00,44.60,17.78,270.00,20.00,0.00,30.11,M,10.00,M,FEW,M,M,M,11000.00,M,M,M,M,M,M,M,M,M,M,91.06,KMEV 182055Z AUTO 27020KT 10SM FEW110 35/07 A3011 RMK AO2,M
BAM,2022-07-18 20:55,-116.8743,40.5990,1382.36,M,M,M,250.00,10.00,0.00,30.08,M,10.00,18.00,CLR,M,M,M,M,M,M,M,M,M,M,M,M,M,M,M,KBAM 182055Z AUTO 25010G18KT 220V280 10SM CLR A3008 RMK AO1,M
TMT,2022-07-18 20:55,-117.1971,39.4643,1749.34,M,M,M,300.00,5.00,0.00,30.21,M,10.00,M,CLR,M,M,M,M,M,M,M,M,M,M,M,M,M,M,M,KTMT 182055Z AUTO 30005KT 10SM CLR A3021 RMK AO2,M
EKO,2022-07-18 20:56,-115.7860,40.8242,1367.00,96.00,41.00,14.97,220.00,9.00,0.00,30.12,1012.10,10.00,26.00,FEW,M,M,M,11000.00,M,M,M,M,M,M,M,26.00,240.00,2022-07-18 20:51,91.73,KEKO 182056Z AUTO 22009G26KT 10SM FEW110 36/05 A3012 RMK AO2 PK WND 24026/2051 LTG DSNT NW SLP121 T03560050 58017,M
NFL,2022-07-18 20:56,-118.7010,39.4166,1199.00,99.00,43.00,14.80,280.00,13.00,0.00,30.03,1013.90,10.00,M,SCT,SCT,SCT,M,8000.00,10000.00,15000.00,M,M,M,M,M,M,M,M,94.72,KNFL 182056Z 28013KT 10SM SCT080 SCT100 SCT150 37/06 A3003 RMK AO2 WSHFT 2034 SLP139 CB DSNT SW-NW-N T03720061 58013,M
HND,2022-07-18 20:56,-115.1344,35.9729,742.79,102.00,58.00,23.52,140.00,4.00,0.00,29.98,M,10.00,M,FEW,M,M,M,10000.00,M,M,M,M,M,M,M,M,M,M,101.87,KHND 182056Z 14004KT 10SM FEW100 39/14 A2998 RMK AO2 SLPNO 6//// T03890144,M
TPH,2022-07-18 20:56,-117.0904,38.0505,1654.00,94.00,39.00,14.82,210.00,13.00,0.00,30.17,1011.40,10.00,21.00,SCT,M,M,M,11000.00,M,M,M,M,M,M,M,M,M,M,89.54,KTPH 182056Z AUTO 21013G21KT 10SM SCT110 34/04 A3017 RMK AO2 SLP114 T03440039 57018,M
LAS,2022-07-18 20:56,-115.1634,36.0719,663.00,103.00,55.00,20.61,80.00,9.00,0.00,29.95,1010.60,10.00,17.00,FEW,SCT,M,M,12000.00,25000.00,M,M,M,M,M,M,M,M,M,101.65,KLAS 182056Z 08009G17KT 10SM FEW120 SCT250 39/13 A2995 RMK AO2 SLP106 TCU DSNT S T03940128 58023,M
WMC,2022-07-18 20:56,-117.8072,40.9019,1315.00,79.00,60.00,52.38,60.00,5.00,0.02,30.09,1013.40,9.00,M,FEW,BKN,BKN,M,7000.00,10000.00,12000.00,M,-RA,M,M,M,30.00,290.00,2022-07-18 20:31,79.00,KWMC 182056Z AUTO 06005KT 9SM -RA FEW070 BKN100 BKN120 26/16 A3009 RMK AO2 PK WND 29030/2031 RAB28 SLP134 P0002 60002 T02610156 55000 TSNO,M
LSV,2022-07-18 20:58,-115.0343,36.2362,570.00,109.00,52.70,15.87,250.00,4.00,0.00,29.91,1009.70,10.00,M,CLR,M,M,M,M,M,M,M,M,M,M,M,M,M,M,107.11,KLSV 182058Z AUTO 25004KT 10SM CLR 43/12 A2991 RMK AO2 SLP097 T04270115 57023 $,M
INS,2022-07-18 20:58,-115.6733,36.5872,955.00,99.00,49.50,18.93,20.00,5.00,0.00,30.00,1010.10,10.00,M,FEW,SCT,M,M,17000.00,21000.00,M,M,M,M,M,M,M,M,M,95.86,KINS 182058Z AUTO 02005KT 10SM FEW170 SCT210 37/10 A3000 RMK AO2 SLP101 T03720097 57018 $,M
HND,2022-07-18 21:06,-115.1344,35.9729,742.79,100.40,57.20,24.06,160.00,6.00,0.00,29.97,M,10.00,M,FEW,M,M,M,10000.00,M,M,M,VCTS,M,M,M,M,M,M,99.77,KHND 182106Z 16006KT 10SM VCTS FEW100 38/14 A2997 RMK AO2 TSB00,M
MEV,2022-07-18 21:15,-119.7500,38.9963,1441.42,93.20,46.40,20.13,280.00,17.00,0.00,30.11,M,10.00,M,FEW,M,M,M,11000.00,M,M,M,M,M,M,M,M,M,M,89.55,KMEV 182115Z AUTO 28017KT 10SM FEW110 34/08 A3011 RMK AO2,M
BAM,2022-07-18 21:15,-116.8743,40.5990,1382.36,M,M,M,290.00,8.00,0.00,30.08,M,10.00,M,SCT,M,M,M,12000.00,M,M,M,M,M,M,M,M,M,M,M,KBAM 182115Z AUTO 29008KT 10SM SCT120 A3008 RMK AO1,M
HTH,2022-07-18 21:15,-118.6315,38.5448,1282.89,95.00,37.40,13.46,170.00,22.00,0.00,30.05,M,10.00,28.00,FEW,M,M,M,12000.00,M,M,M,M,M,M,M,M,M,M,90.46,KHTH 182115Z AUTO 17022G28KT 10SM FEW120 35/03 A3005 RMK A01,M
TMT,2022-07-18 21:15,-117.1971,39.4643,1749.34,M,M,M,310.00,6.00,0.00,30.21,M,10.00,M,CLR,M,M,M,M,M,M,M,M,M,M,M,M,M,M,M,KTMT 182115Z AUTO 31006KT 10SM CLR A3021 RMK AO2,M
CXP,2022-07-18 21:15,-119.7326,39.1923,1431.00,93.20,46.40,20.13,290.00,20.00,0.00,30.13,M,10.00,27.00,CLR,M,M,M,M,M,M,M,M,M,M,M,M,M,M,89.55,KCXP 182115Z AUTO 29020G27KT 10SM CLR 34/08 A3013 RMK AO2,M
RTS,2022-07-18 21:15,-119.8764,39.6682,1539.00,91.40,42.80,18.56,230.00,14.00,0.00,30.16,M,10.00,22.00,CLR,M,M,M,M,M,M,M,M,M,M,M,M,M,M,87.52,KRTS 182115Z AUTO 23014G22KT 210V270 10SM CLR 33/06 A3016 RMK AO2,M
05U,2022-07-18 21:15,-116.0051,39.6042,1811.23,82.40,46.40,28.36,210.00,12.00,0.00,30.24,M,10.00,19.00,FEW,M,M,M,10000.00,M,M,M,M,M,M,M,M,M,M,80.64,K05U 182115Z AUTO 21012G19KT 10SM FEW100 28/08 A3024 RMK A01,M
BVU,2022-07-18 21:15,-114.8611,35.9475,671.00,M,M,M,M,M,0.00,M,M,M,M,M,M,M,M,M,M,M,M,M,M,M,M,M,M,M,M,KBVU 182115Z AUTO RMK AO2 PNO PWINO TSNO,M
HND,2022-07-18 21:21,-115.1344,35.9729,742.79,102.20,57.20,22.79,140.00,8.00,0.00,29.97,M,9.00,M,CLR,M,M,M,M,M,M,M,M,M,M,M,M,M,M,101.78,KHND 182121Z 14008KT 9SM CLR 39/14 A2997 RMK AO2 TSB00E15,M
P68,2022-07-18 21:28,-116.0056,39.6014,1993.00,83.00,49.00,30.65,270.00,11.00,0.00,30.22,M,M,21.00,M,M,M,M,M,M,M,M,M,M,M,M,M,M,M,81.20,KP68 182128Z AUTO 27011G21KT 28/09 A3022 RMK AO1 WSHFT 2111 T02830094,M
HND,2022-07-18 21:32,-115.1344,35.9729,742.79,100.40,59.00,25.67,190.00,16.00,0.00,29.97,M,10.00,21.00,FEW,SCT,M,M,5000.00,10000.00,M,M,VCTS,M,M,M,M,M,M,100.57,KHND 182132Z 19016G21KT 10SM VCTS FEW050 SCT100 38/15 A2997 RMK AO2 TSB00E15B26,M
BAM,2022-07-18 21:35,-116.8743,40.5990,1382.36,M,M,M,260.00,12.00,0.00,30.07,M,10.00,27.00,SCT,M,M,M,12000.00,M,M,M,M,M,M,M,M,M,M,M,KBAM 182135Z AUTO 26012G27KT 210V270 10SM SCT120 A3007 RMK AO1,M
HTH,2022-07-18 21:35,-118.6315,38.5448,1282.89,91.40,42.80,18.56,220.00,21.00,0.00,30.05,M,10.00,28.00,FEW,M,M,M,12000.00,M,M,M,M,M,M,M,M,M,M,87.52,KHTH 182135Z AUTO 22021G28KT 10SM FEW120 33/06 A3005 RMK A01,M
RTS,2022-07-18 21:35,-119.8764,39.6682,1539.00,91.40,42.80,18.56,240.00,19.00,0.00,30.16,M,10.00,27.00,CLR,M,M,M,M,M,M,M,M,M,M,M,M,M,M,87.52,KRTS 182135Z AUTO 24019G27KT 10SM CLR 33/06 A3016 RMK AO2,M
CXP,2022-07-18 21:35,-119.7326,39.1923,1431.00,93.20,46.40,20.13,270.00,14.00,0.00,30.13,M,10.00,21.00,CLR,M,M,M,M,M,M,M,M,M,M,M,M,M,M,89.55,KCXP 182135Z AUTO 27014G21KT 240V300 10SM CLR 34/08 A3013 RMK AO2,M
BVU,2022-07-18 21:35,-114.8611,35.9475,671.00,M,M,M,M,M,0.00,M,M,M,M,M,M,M,M,M,M,M,M,M,M,M,M,M,M,M,M,KBVU 182135Z AUTO RMK AO2 PNO PWINO TSNO,M
TMT,2022-07-18 21:35,-117.1971,39.4643,1749.34,M,M,M,330.00,5.00,0.00,30.20,M,10.00,M,CLR,M,M,M,M,M,M,M,M,M,M,M,M,M,M,M,KTMT 182135Z AUTO 33005KT 10SM CLR A3020 RMK AO2,M
05U,2022-07-18 21:35,-116.0051,39.6042,1811.23,86.00,48.20,27.03,270.00,6.00,0.00,30.24,M,10.00,13.00,FEW,M,M,M,10000.00,M,M,M,M,M,M,M,M,M,M,83.40,K05U 182135Z AUTO 27006G13KT 10SM FEW100 30/09 A3024 RMK A01,M
MEV,2022-07-18 21:35,-119.7500,38.9963,1441.42,93.20,46.40,20.13,280.00,20.00,0.00,30.10,M,10.00,M,FEW,M,M,M,11000.00,M,M,M,M,M,M,M,M,M,M,89.55,KMEV 182135Z AUTO 28020KT 10SM FEW110 34/08 A3010 RMK AO2,M
TPH,2022-07-18 21:41,-117.0904,38.0505,1654.00,90.00,43.00,19.55,260.00,14.00,0.00,30.16,M,10.00,27.00,FEW,M,M,M,10000.00,M,M,M,M,M,M,M,27.00,280.00,2022-07-18 21:33,86.29,KTPH 182141Z AUTO 26014G27KT 10SM FEW100 32/06 A3016 RMK AO2 PK WND 28027/2133 WSHFT 2121 T03220061,M
LAS,2022-07-18 21:42,-115.1634,36.0719,663.00,100.00,58.00,24.97,10.00,5.00,T,29.92,M,10.00,M,FEW,SCT,M,M,12000.00,20000.00,M,M,-TSRA,M,M,M,M,M,M,99.61,KLAS 182142Z 01005KT 10SM -TSRA FEW120CB SCT200 38/14 A2992 RMK AO2 LTG DSNT S RAB36 TSB42 OCNL LTGICCCCG OHD-S TS OHD-S MOV N CB DSNT NE-SE P0000 T03780144,M
CXP,2022-07-18 21:50,-119.7326,39.1923,1431.00,91.40,46.40,21.29,270.00,19.00,0.00,30.12,M,9.00,26.00,CLR,M,M,M,M,M,M,M,M,M,M,M,M,M,M,87.86,KCXP 182150Z AUTO 27019G26KT 9SM CLR 33/08 A3012 RMK AO2,M
VGT,2022-07-18 21:53,-115.1933,36.2111,667.00,103.00,54.00,19.87,120.00,5.00,0.00,29.91,1011.10,10.00,15.00,CLR,M,M,M,M,M,M,M,M,M,M,M,M,M,M,101.27,KVGT 182153Z AUTO 12005G15KT 10SM CLR 39/12 A2991 RMK AO2 LTG DSNT S SLP111 T03940122,M
P68,2022-07-18 21:53,-116.0056,39.6014,1993.00,85.00,48.00,27.79,310.00,12.00,0.00,30.20,1013.70,M,M,M,M,M,M,M,M,M,M,M,M,M,M,M,M,M,82.53,KP68 182153Z AUTO 31012KT 29/09 A3020 RMK AO1 WSHFT 2111 SLP137 T02940089,M
ELY,2022-07-18 21:53,-114.8453,39.2950,1909.00,93.00,38.00,14.60,190.00,12.00,0.00,30.20,1011.10,7.00,21.00,BKN,M,M,M,11000.00,M,M,M,M,M,M,M,30.00,250.00,2022-07-18 20:57,88.67,KELY 182153Z AUTO 19012G21KT 7SM BKN110 34/03 A3020 RMK AO2 PK WND 25030/2057 LTG DSNT NW SLP111 T03390033,M
LOL,2022-07-18 21:53,-118.5701,40.0684,1192.43,95.00,45.00,18.06,260.00,5.00,0.00,30.03,1011.90,10.00,M,FEW,M,M,M,12000.00,M,M,M,M,M,M,M,37.00,260.00,2022-07-18 20:55,91.10,KLOL 182153Z AUTO 26005KT 10SM FEW120 35/07 A3003 RMK AO2 PK WND 26037/2055 SLP119 T03500072,M
TMT,2022-07-18 21:55,-117.1971,39.4643,1749.34,M,M,M,260.00,3.00,0.00,30.20,M,10.00,M,CLR,M,M,M,M,M,M,M,M,M,M,M,M,M,M,M,KTMT 182155Z AUTO 26003KT 10SM CLR A3020 RMK AO2 LTG DSNT S,M
BVU,2022-07-18 21:55,-114.8611,35.9475,671.00,M,M,M,M,M,0.00,M,M,M,M,M,M,M,M,M,M,M,M,M,M,M,M,M,M,M,M,KBVU 182155Z AUTO RMK AO2 PNO PWINO TSNO,M
MEV,2022-07-18 21:55,-119.7500,38.9963,1441.42,93.20,46.40,20.13,280.00,15.00,0.00,30.10,M,10.00,23.00,CLR,M,M,M,M,M,M,M,M,M,M,M,M,M,M,89.55,KMEV 182155Z AUTO 28015G23KT 10SM CLR 34/08 A3010 RMK AO2,M
05U,2022-07-18 21:55,-116.0051,39.6042,1811.23,86.00,46.40,25.26,310.00,9.00,0.00,30.23,M,10.00,15.00,CLR,M,M,M,M,M,M,M,M,M,M,M,M,M,M,83.22,K05U 182155Z AUTO 31009G15KT 10SM CLR 30/08 A3023 RMK A01,M
RNO,2022-07-18 21:55,-119.7711,39.4839,1341.00,97.00,49.00,19.67,280.00,17.00,0.00,30.07,1011.20,10.00,25.00,SCT,SCT,M,M,11000.00,23000.00,M,M,M,M,M,M,M,M,M,93.69,KRNO 182155Z 28017G25KT 10SM SCT110 SCT230 36/09 A3007 RMK AO2 SLP112 CB DSNT NE AND SE T03610094,M
HTH,2022-07-18 21:55,-118.6315,38.5448,1282.89,93.20,42.80,17.55,280.00,15.00,0.00,30.06,M,10.00,21.00,FEW,FEW,SCT,M,8000.00,9500.00,12000.00,M,M,M,M,M,M,M,M,89.17,KHTH 182155Z AUTO 28015G21KT 10SM FEW080 FEW095 SCT120 34/06 A3006 RMK A01,M
RTS,2022-07-18 21:55,-119.8764,39.6682,1539.00,91.40,41.00,17.32,230.00,16.00,0.00,30.16,M,10.00,23.00,CLR,M,M,M,M,M,M,M,M,M,M,M,M,M,M,87.40,KRTS 182155Z AUTO 23016G23KT 10SM CLR 33/05 A3016 RMK AO2,M
BAM,2022-07-18 21:55,-116.8743,40.5990,1382.36,M,M,M,280.00,15.00,0.00,30.07,M,10.00,19.00,SCT,M,M,M,12000.00,M,M,M,M,M,M,M,M,M,M,M,KBAM 182155Z AUTO 28015G19KT 10SM SCT120 A3007 RMK AO1,M
HND,2022-07-18 21:56,-115.1344,35.9729,742.79,87.00,63.00,44.66,120.00,19.00,T,29.96,M,10.00,38.00,FEW,SCT,BKN,M,2500.00,5500.00,9000.00,M,-TSRA,M,M,M,38.00,150.00,2022-07-18 21:52,87.96,KHND 182156Z 12019G38KT 10SM -TSRA FEW025 SCT055 BKN090 31/17 A2996 RMK AO2 PK WND 15038/2152 TSB00E15B26RAB34 SLPNO P0000 T03060172,M
TPH,2022-07-18 21:56,-117.0904,38.0505,1654.00,88.00,47.00,24.15,310.00,16.00,0.00,30.17,1012.40,10.00,23.00,FEW,M,M,M,10000.00,M,M,M,M,M,M,M,27.00,280.00,2022-07-18 21:33,84.90,KTPH 182156Z AUTO 31016G23KT 10SM FEW100 31/08 A3017 RMK AO2 PK WND 28027/2133 WSHFT 2121 SLP124 T03110083,M
WMC,2022-07-18 21:56,-117.8072,40.9019,1315.00,84.00,58.00,41.14,30.00,6.00,T,30.08,1013.00,10.00,M,FEW,FEW,M,M,7500.00,11000.00,M,M,M,M,M,M,28.00,280.00,2022-07-18 21:28,83.47,KWMC 182156Z AUTO 03006KT 10SM FEW075 FEW110 29/14 A3008 RMK AO2 PK WND 28028/2128 RAE44 SLP130 P0000 T02890144 TSNO,M
LAS,2022-07-18 21:56,-115.1634,36.0719,663.00,89.00,66.00,46.55,10.00,5.00,T,29.93,1010.30,10.00,M,FEW,SCT,M,M,12000.00,20000.00,M,M,+TSRA,M,M,M,32.00,190.00,2022-07-18 21:53,91.60,KLAS 182156Z 01005KT 10SM +TSRA FEW120CB SCT200 32/19 A2993 RMK AO2 PK WND 19032/2153 LTG DSNT S RAB36 TSB42 SLP103 OCNL LTGICCCCG OHD-S TS OHD-S MOV N CB DSNT NE-SE P0000 T03170189,M
NFL,2022-07-18 21:56,-118.7010,39.4166,1199.00,99.00,42.00,14.30,290.00,18.00,0.00,30.02,1013.50,10.00,24.00,SCT,SCT,SCT,M,8000.00,10000.00,15000.00,M,M,M,M,M,M,M,M,94.60,KNFL 182156Z 29018G24KT 10SM SCT080 SCT100 SCT150 37/06 A3002 RMK AO2 SLP135 CB DSNT SW-NW-N T03720056,M
EKO,2022-07-18 21:56,-115.7860,40.8242,1367.00,96.00,41.00,14.97,220.00,10.00,0.00,30.09,1011.40,10.00,21.00,CLR,M,M,M,M,M,M,M,M,M,M,M,M,M,M,91.73,KEKO 182156Z AUTO 22010G21KT 10SM CLR 36/05 A3009 RMK AO2 SLP114 T03560050,M
LSV,2022-07-18 21:58,-115.0343,36.2362,570.00,109.00,56.00,17.84,150.00,4.00,0.00,29.88,1008.70,10.00,M,CLR,M,M,M,M,M,M,M,M,M,M,M,M,M,M,108.54,KLSV 182158Z AUTO 15004KT 10SM CLR 43/13 A2988 RMK AO2 LTG DSNT N SLP087 T04270133 $,M
INS,2022-07-18 21:58,-115.6733,36.5872,955.00,100.80,49.50,17.93,110.00,8.00,0.00,29.98,1009.40,10.00,M,BKN,M,M,M,21000.00,M,M,M,M,M,M,M,M,M,M,97.71,KINS 182158Z AUTO 11008KT 10SM BKN210 38/10 A2998 RMK AO2 SLP094 T03820097 $,M
VGT,2022-07-18 22:06,-115.1933,36.2111,667.00,103.00,55.00,20.61,150.00,8.00,0.00,29.91,M,10.00,M,CLR,M,M,M,M,M,M,M,VCTS,M,M,M,M,M,M,101.65,KVGT 182206Z 15008KT 10SM VCTS CLR 39/13 A2991 RMK AO2 LTG DSNT S T03940128,M
CXP,2022-07-18 22:15,-119.7326,39.1923,1431.00,91.40,46.40,21.29,280.00,16.00,0.00,30.13,M,10.00,25.00,CLR,M,M,M,M,M,M,M,M,M,M,M,M,M,M,87.86,KCXP 182215Z AUTO 28016G25KT 10SM CLR 33/08 A3013 RMK AO2,M
05U,2022-07-18 22:15,-116.0051,39.6042,1811.23,89.60,42.80,19.64,280.00,12.00,0.00,30.22,M,10.00,M,CLR,M,M,M,M,M,M,M,M,M,M,M,M,M,M,85.93,K05U 182215Z AUTO 28012KT 10SM CLR 32/06 A3022 RMK A01,M
MEV,2022-07-18 22:15,-119.7500,38.9963,1441.42,93.20,44.60,18.80,270.00,12.00,0.00,30.11,M,10.00,23.00,CLR,M,M,M,M,M,M,M,M,M,M,M,M,M,M,89.34,KMEV 182215Z AUTO 27012G23KT 10SM CLR 34/07 A3011 RMK AO2,M
BAM,2022-07-18 22:15,-116.8743,40.5990,1382.36,M,M,M,250.00,6.00,0.00,30.06,M,10.00,M,CLR,M,M,M,M,M,M,M,M,M,M,M,M,M,M,M,KBAM 182215Z AUTO 25006KT 10SM CLR A3006 RMK AO1,M
HTH,2022-07-18 22:15,-118.6315,38.5448,1282.89,93.20,42.80,17.55,330.00,13.00,0.00,30.06,M,10.00,26.00,FEW,M,M,M,12000.00,M,M,M,M,M,M,M,M,M,M,89.17,KHTH 182215Z AUTO 33013G26KT 10SM FEW120 34/06 A3006 RMK A01,M
TMT,2022-07-18 22:15,-117.1971,39.4643,1749.34,M,M,M,170.00,5.00,0.00,30.20,M,10.00,M,CLR,M,M,M,M,M,M,M,M,M,M,M,M,M,M,M,KTMT 182215Z AUTO 17005KT 10SM CLR A3020 RMK AO2,M
BVU,2022-07-18 22:15,-114.8611,35.9475,671.00,M,M,M,M,M,0.00,M,M,M,M,M,M,M,M,M,M,M,M,M,M,M,M,M,M,M,M,KBVU 182215Z AUTO RMK AO2 PNO PWINO TSNO,M
RTS,2022-07-18 22:15,-119.8764,39.6682,1539.00,91.40,41.00,17.32,230.00,16.00,0.00,30.15,M,10.00,25.00,CLR,M,M,M,M,M,M,M,M,M,M,M,M,M,M,87.40,KRTS 182215Z AUTO 23016G25KT 10SM CLR 33/05 A3015 RMK AO2,M
EKO,2022-07-18 22:16,-115.7860,40.8242,1367.00,97.00,40.00,13.96,270.00,12.00,0.00,30.09,M,10.00,20.00,CLR,M,M,M,M,M,M,M,M,M,M,M,M,M,M,92.48,KEKO 182216Z AUTO 27012G20KT 10SM CLR 36/04 A3009 RMK AO2 WSHFT 2156 T03610044,M
HND,2022-07-18 22:19,-115.1344,35.9729,742.79,89.60,68.00,49.10,120.00,12.00,0.02,29.96,M,10.00,17.00,FEW,SCT,BKN,M,2600.00,4500.00,9000.00,M,-TSRA,M,M,M,M,M,M,93.47,KHND 182219Z 12012G17KT 10SM -TSRA FEW026 SCT045 BKN090 32/20 A2996 RMK AO2 TSE16B19 P0002,M
VGT,2022-07-18 22:21,-115.1933,36.2111,667.00,103.00,55.00,20.61,150.00,12.00,0.00,29.90,M,10.00,18.00,CLR,M,M,M,M,M,M,M,M,M,M,M,M,M,M,101.65,KVGT 182221Z 15012G18KT 10SM CLR 39/13 A2990 RMK AO2 LTG DSNT S T03940128,M
HTH,2022-07-18 22:35,-118.6315,38.5448,1282.89,95.00,42.80,16.60,320.00,11.00,0.00,30.06,M,10.00,M,CLR,M,M,M,M,M,M,M,M,M,M,M,M,M,M,90.86,KHTH 182235Z AUTO 32011KT 10SM CLR 35/06 A3006 RMK A01,M
BVU,2022-07-18 22:35,-114.8611,35.9475,671.00,M,M,M,M,M,0.00,M,M,M,M,M,M,M,M,M,M,M,M,M,M,M,M,M,M,M,M,KBVU 182235Z AUTO RMK AO2 PNO PWINO TSNO,M
MEV,2022-07-18 22:35,-119.7500,38.9963,1441.42,93.20,44.60,18.80,280.00,20.00,0.00,30.11,M,10.00,25.00,FEW,M,M,M,11000.00,M,M,M,M,M,M,M,M,M,M,89.34,KMEV 182235Z AUTO 28020G25KT 10SM FEW110 34/07 A3011 RMK AO2,M
BAM,2022-07-18 22:35,-116.8743,40.5990,1382.36,M,M,M,340.00,17.00,0.00,30.07,M,10.00,23.00,SCT,M,M,M,12000.00,M,M,M,M,M,M,M,M,M,M,M,KBAM 182235Z AUTO 34017G23KT 10SM SCT120 A3007 RMK AO1,M
TMT,2022-07-18 22:35,-117.1971,39.4643,1749.34,M,M,M,120.00,15.00,0.00,30.21,M,10.00,27.00,SCT,M,M,M,12000.00,M,M,M,M,M,M,M,M,M,M,M,KTMT 182235Z AUTO 12015G27KT 10SM SCT120 A3021 RMK AO2 LTG DSNT SW,M
CXP,2022-07-18 22:35,-119.7326,39.1923,1431.00,91.40,44.60,19.89,260.00,15.00,0.00,30.13,M,10.00,24.00,CLR,M,M,M,M,M,M,M,M,M,M,M,M,M,M,87.68,KCXP 182235Z AUTO 26015G24KT 230V310 10SM CLR 33/07 A3013 RMK AO2,M
RTS,2022-07-18 22:35,-119.8764,39.6682,1539.00,91.40,41.00,17.32,210.00,13.00,0.00,30.15,M,10.00,24.00,CLR,M,M,M,M,M,M,M,M,M,M,M,M,M,M,87.40,KRTS 182235Z AUTO 21013G24KT 10SM CLR 33/05 A3015 RMK AO2,M
05U,2022-07-18 22:35,-116.0051,39.6042,1811.23,89.60,44.60,21.04,310.00,7.00,0.00,30.21,M,10.00,13.00,CLR,M,M,M,M,M,M,M,M,M,M,M,M,M,M,86.07,K05U 182235Z AUTO 31007G13KT 10SM CLR 32/07 A3021 RMK A01,M
LSV,2022-07-18 22:46,-115.0343,36.2362,570.00,105.80,55.40,19.19,210.00,14.00,T,29.86,1008.10,10.00,18.00,FEW,SCT,M,M,12000.00,17000.00,M,M,-RA,M,M,M,M,M,M,104.97,KLSV 182246Z 21014G18KT 10SM -RA FEW120CB SCT170 41/13 A2986 RMK LTG DSNT S RAB46 SLP081 P0000 $,M
DRA,2022-07-18 22:53,-116.0278,36.6206,1009.00,102.00,47.00,15.69,210.00,12.00,0.00,29.97,1009.00,10.00,24.00,CLR,M,M,M,M,M,M,M,M,M,M,M,28.00,220.00,2022-07-18 22:03,98.33,KDRA 182253Z AUTO 21012G24KT 10SM CLR 39/08 A2997 RMK AO2 PK WND 22028/2203 SLP090 T03890083,M
LOL,2022-07-18 22:53,-118.5701,40.0684,1192.43,93.00,47.00,20.64,290.00,17.00,0.00,30.03,1012.10,10.00,23.00,CLR,M,M,M,M,M,M,M,M,M,M,M,27.00,290.00,2022-07-18 22:25,89.43,KLOL 182253Z AUTO 29017G23KT 10SM CLR 34/08 A3003 RMK AO2 PK WND 29027/2225 SLP121 T03390083,M
P68,2022-07-18 22:53,-116.0056,39.6014,1993.00,89.00,43.00,20.11,M,3.00,0.00,30.18,1012.60,M,M,M,M,M,M,M,M,M,M,M,M,M,M,M,M,M,85.51,KP68 182253Z AUTO VRB03KT 32/06 A3018 RMK AO1 SLP126 T03170061,M
ELY,2022-07-18 22:53,-114.8453,39.2950,1909.00,90.00,37.00,15.48,210.00,10.00,0.00,30.20,1011.50,10.00,29.00,CLR,M,M,M,M,M,M,M,M,M,M,M,29.00,210.00,2022-07-18 22:46,86.00,KELY 182253Z AUTO 21010G29KT 10SM CLR 32/03 A3020 RMK AO2 PK WND 21029/2246 SLP115 T03220028,M
VGT,2022-07-18 22:53,-115.1933,36.2111,667.00,102.00,56.00,21.88,150.00,11.00,0.00,29.89,1010.40,10.00,M,CLR,M,M,M,M,M,M,M,M,M,M,M,M,M,M,101.01,KVGT 182253Z 15011KT 10SM CLR 39/13 A2989 RMK AO2 LTG DSNT SE AND SW SLP104 T03890133,M
05U,2022-07-18 22:55,-116.0051,39.6042,1811.23,91.40,42.80,18.56,M,4.00,0.00,30.21,M,10.00,M,CLR,M,M,M,M,M,M,M,M,M,M,M,M,M,M,87.52,K05U 182255Z AUTO VRB04KT 10SM CLR 33/06 A3021 RMK A01,M
HTH,2022-07-18 22:55,-118.6315,38.5448,1282.89,95.00,41.00,15.49,340.00,12.00,0.00,30.06,M,10.00,20.00,CLR,M,M,M,M,M,M,M,M,M,M,M,M,M,M,90.70,KHTH 182255Z AUTO 34012G20KT 10SM CLR 35/05 A3006 RMK A01,M
MEV,2022-07-18 22:55,-119.7500,38.9963,1441.42,93.20,44.60,18.80,280.00,16.00,0.00,30.11,M,10.00,25.00,FEW,M,M,M,11000.00,M,M,M,M,M,M,M,M,M,M,89.34,KMEV 182255Z AUTO 28016G25KT 10SM FEW110 34/07 A3011 RMK AO2,M
BAM,2022-07-18 22:55,-116.8743,40.5990,1382.36,M,M,M,340.00,16.00,0.00,30.07,M,10.00,23.00,SCT,M,M,M,12000.00,M,M,M,M,M,M,M,M,M,M,M,KBAM 182255Z AUTO 34016G23KT 10SM SCT120 A3007 RMK AO1,M
RNO,2022-07-18 22:55,-119.7711,39.4839,1341.00,94.00,47.00,20.07,300.00,12.00,0.00,30.07,1011.60,10.00,28.00,SCT,M,M,M,11000.00,M,M,M,M,M,M,M,28.00,280.00,2022-07-18 22:48,90.29,KRNO 182255Z 30012G28KT 10SM SCT110 34/08 A3007 RMK AO2 PK WND 28028/2248 LTG DSNT SE SLP116 CB DSNT E THRU SE T03440083,M
RTS,2022-07-18 22:55,-119.8764,39.6682,1539.00,91.40,42.80,18.56,250.00,16.00,0.00,30.15,M,10.00,25.00,CLR,M,M,M,M,M,M,M,M,M,M,M,M,M,M,87.52,KRTS 182255Z AUTO 25016G25KT 10SM CLR 33/06 A3015 RMK AO2,M
TMT,2022-07-18 22:55,-117.1971,39.4643,1749.34,M,M,M,130.00,17.00,0.00,30.19,M,10.00,23.00,CLR,M,M,M,M,M,M,M,M,M,M,M,M,M,M,M,KTMT 182255Z AUTO 13017G23KT 10SM CLR A3019 RMK AO2,M
BVU,2022-07-18 22:55,-114.8611,35.9475,671.00,M,M,M,M,M,0.00,M,M,M,M,M,M,M,M,M,M,M,M,M,M,M,M,M,M,M,M,KBVU 182255Z AUTO RMK AO2 PNO PWINO TSNO,M
CXP,2022-07-18 22:55,-119.7326,39.1923,1431.00,89.60,44.60,21.04,260.00,14.00,0.00,30.13,M,10.00,27.00,CLR,M,M,M,M,M,M,M,M,M,M,M,M,M,M,86.07,KCXP 182255Z AUTO 26014G27KT 10SM CLR 32/07 A3013 RMK AO2,M
LAS,2022-07-18 22:56,-115.1634,36.0719,663.00,99.00,63.00,30.86,M,5.00,0.17,29.90,1009.20,10.00,M,SCT,BKN,M,M,12000.00,20000.00,M,M,TS,M,M,M,M,M,M,101.09,KLAS 182256Z VRB05KT 10SM TS SCT120CB BKN200 37/17 A2990 RMK AO2 RAE23 SLP092 OCNL LTGICCCCG OHD-ALQDS TS OHD-ALQDS MOV N CB DSNT NE-SE P0017 T03720172,M
TPH,2022-07-18 22:56,-117.0904,38.0505,1654.00,90.00,44.00,20.39,0.00,0.00,0.02,30.15,1011.70,10.00,M,CLR,M,M,M,M,M,M,M,M,M,M,M,M,M,M,86.38,KTPH 182256Z AUTO 00000KT 10SM CLR 32/07 A3015 RMK AO2 RAB12E30 SLP117 P0002 T03220067,M
EKO,2022-07-18 22:56,-115.7860,40.8242,1367.00,95.00,43.00,16.73,300.00,7.00,0.00,30.09,1011.40,10.00,18.00,CLR,M,M,M,M,M,M,M,M,M,M,M,29.00,290.00,2022-07-18 22:32,90.88,KEKO 182256Z AUTO 30007G18KT 10SM CLR 35/06 A3009 RMK AO2 PK WND 29029/2232 WSHFT 2156 SLP114 T03500061,M
NFL,2022-07-18 22:56,-118.7010,39.4166,1199.00,101.00,43.00,13.98,310.00,15.00,0.00,30.01,1013.20,10.00,19.00,SCT,SCT,SCT,BKN,8000.00,12000.00,15000.00,25000.00,M,M,M,M,M,M,M,96.55,KNFL 182256Z 31015G19KT 10SM SCT080 SCT120 SCT150 BKN250 38/06 A3001 RMK AO2 SLP132 CB DSNT SE-S AND W T03830061,M
HND,2022-07-18 22:56,-115.1344,35.9729,742.79,98.00,62.00,30.72,120.00,11.00,0.02,29.94,M,10.00,19.00,FEW,M,M,M,3500.00,M,M,M,TS,M,M,M,M,M,M,99.51,KHND 182256Z 12011G19KT 10SM TS FEW035 37/17 A2994 RMK AO2 LTG DSNT NW TSE16B19RAE25 SLPNO P0002 T03670167,M
WMC,2022-07-18 22:56,-117.8072,40.9019,1315.00,87.00,50.00,27.91,120.00,5.00,0.00,30.07,1012.20,10.00,M,FEW,FEW,M,M,7500.00,10000.00,M,M,M,M,M,M,M,M,M,84.51,KWMC 182256Z AUTO 12005KT 10SM FEW075 FEW100 31/10 A3007 RMK AO2 SLP122 T03060100 TSNO,M
INS,2022-07-18 22:58,-115.6733,36.5872,955.00,101.00,48.20,16.92,90.00,11.00,0.00,29.96,1008.60,10.00,M,FEW,M,M,M,20000.00,M,M,M,M,M,M,M,M,M,M,97.71,KINS 182258Z AUTO 09011KT 10SM FEW200 38/09 A2996 RMK AO2 SLP086 T03840090 $,M
LSV,2022-07-18 22:58,-115.0343,36.2362,570.00,104.00,56.30,20.91,200.00,10.00,T,29.86,1008.10,10.00,M,FEW,SCT,M,M,12000.00,17000.00,M,M,M,M,M,M,M,M,M,103.39,KLSV 182258Z 20010KT 10SM FEW120CB SCT170 40/14 A2986 RMK AO2A RAB46E58 SLP081 P0000 T04000135 $,M
HND,2022-07-18 23:00,-115.1344,35.9729,742.79,98.60,60.80,28.90,110.00,12.00,0.00,29.94,M,10.00,M,FEW,M,M,M,3500.00,M,M,M,VCTS,M,M,M,M,M,M,99.39,KHND 182300Z 11012KT 10SM VCTS FEW035 37/16 A2994 RMK AO2 LTG DSNT NW TSE2257B00,M
HTH,2022-07-18 23:15,-118.6315,38.5448,1282.89,95.00,41.00,15.49,330.00,16.00,0.00,30.05,M,10.00,M,CLR,M,M,M,M,M,M,M,M,M,M,M,M,M,M,90.70,KHTH 182315Z AUTO 33016KT 10SM CLR 35/05 A3005 RMK A01,M
TMT,2022-07-18 23:15,-117.1971,39.4643,1749.34,M,M,M,110.00,10.00,0.00,30.18,M,10.00,16.00,CLR,M,M,M,M,M,M,M,M,M,M,M,M,M,M,M,KTMT 182315Z AUTO 11010G16KT 10SM CLR A3018 RMK AO2,M
CXP,2022-07-18 23:15,-119.7326,39.1923,1431.00,89.60,44.60,21.04,260.00,13.00,0.00,30.13,M,10.00,23.00,CLR,M,M,M,M,M,M,M,M,M,M,M,M,M,M,86.07,KCXP 182315Z AUTO 26013G23KT 10SM CLR 32/07 A3013 RMK AO2,M
MEV,2022-07-18 23:15,-119.7500,38.9963,1441.42,93.20,44.60,18.80,270.00,17.00,0.00,30.11,M,10.00,22.00,CLR,M,M,M,M,M,M,M,M,M,M,M,M,M,M,89.34,KMEV 182315Z AUTO 27017G22KT 10SM CLR 34/07 A3011 RMK AO2,M
BAM,2022-07-18 23:15,-116.8743,40.5990,1382.36,M,M,M,340.00,18.00,0.00,30.07,M,10.00,23.00,SCT,M,M,M,12000.00,M,M,M,M,M,M,M,M,M,M,M,KBAM 182315Z AUTO 34018G23KT 10SM SCT120 A3007 RMK AO1,M
BVU,2022-07-18 23:15,-114.8611,35.9475,671.00,M,M,M,M,M,0.00,M,M,M,M,M,M,M,M,M,M,M,M,M,M,M,M,M,M,M,M,KBVU 182315Z AUTO RMK AO2 PNO PWINO TSNO,M
RTS,2022-07-18 23:15,-119.8764,39.6682,1539.00,89.60,42.80,19.64,250.00,17.00,0.00,30.15,M,10.00,25.00,CLR,M,M,M,M,M,M,M,M,M,M,M,M,M,M,85.93,KRTS 182315Z AUTO 25017G25KT 10SM CLR 32/06 A3015 RMK AO2,M
05U,2022-07-18 23:15,-116.0051,39.6042,1811.23,87.80,46.40,23.85,0.00,0.00,0.00,30.21,M,10.00,M,CLR,M,M,M,M,M,M,M,M,M,M,M,M,M,M,84.68,K05U 182315Z AUTO 00000KT 10SM CLR 31/08 A3021 RMK A01,M
MEV,2022-07-18 23:35,-119.7500,38.9963,1441.42,93.20,42.80,17.55,280.00,15.00,0.00,30.11,M,10.00,25.00,CLR,M,M,M,M,M,M,M,M,M,M,M,M,M,M,89.17,KMEV 182335Z AUTO 28015G25KT 10SM CLR 34/06 A3011 RMK AO2,M
BAM,2022-07-18 23:35,-116.8743,40.5990,1382.36,M,M,M,330.00,20.00,0.00,30.08,M,7.00,30.00,CLR,M,M,M,M,M,M,M,M,M,M,M,M,M,M,M,KBAM 182335Z AUTO 33020G30KT 7SM CLR A3008 RMK AO1,M
HTH,2022-07-18 23:35,-118.6315,38.5448,1282.89,95.00,42.80,16.60,340.00,13.00,0.00,30.06,M,10.00,20.00,FEW,M,M,M,12000.00,M,M,M,M,M,M,M,M,M,M,90.86,KHTH 182335Z AUTO 34013G20KT 10SM FEW120 35/06 A3006 RMK A01,M
CXP,2022-07-18 23:35,-119.7326,39.1923,1431.00,89.60,44.60,21.04,260.00,10.00,0.00,30.13,M,10.00,18.00,CLR,M,M,M,M,M,M,M,M,M,M,M,M,M,M,86.07,KCXP 182335Z AUTO 26010G18KT 10SM CLR 32/07 A3013 RMK AO2,M
RTS,2022-07-18 23:35,-119.8764,39.6682,1539.00,89.60,42.80,19.64,240.00,22.00,0.00,30.15,M,10.00,M,CLR,M,M,M,M,M,M,M,M,M,M,M,M,M,M,85.93,KRTS 182335Z AUTO 24022KT 10SM CLR 32/06 A3015 RMK AO2,M
05U,2022-07-18 23:35,-116.0051,39.6042,1811.23,86.00,48.20,27.03,20.00,19.00,0.00,30.21,M,10.00,25.00,CLR,M,M,M,M,M,M,M,M,M,M,M,M,M,M,83.40,K05U 182335Z AUTO 02019G25KT 10SM CLR 30/09 A3021 RMK A01,M
TMT,2022-07-18 23:35,-117.1971,39.4643,1749.34,M,M,M,40.00,6.00,0.00,30.17,M,10.00,M,CLR,M,M,M,M,M,M,M,M,M,M,M,M,M,M,M,KTMT 182335Z AUTO 04006KT 10SM CLR A3017 RMK AO2,M
BVU,2022-07-18 23:35,-114.8611,35.9475,671.00,M,M,M,M,M,0.00,M,M,M,M,M,M,M,M,M,M,M,M,M,M,M,M,M,M,M,M,KBVU 182335Z AUTO RMK AO2 PNO PWINO TSNO,M
INS,2022-07-18 23:43,-115.6733,36.5872,955.00,100.40,46.40,16.15,150.00,10.00,0.00,29.95,1008.30,10.00,M,BKN,BKN,M,M,9500.00,15000.00,M,M,M,M,M,M,M,M,M,96.63,KINS 182343Z AUTO 15010KT 10SM BKN095 BKN150 38/08 A2995 RMK AO2 SLP083 $,M
NFL,2022-07-18 23:46,-118.7010,39.4166,1199.00,92.00,47.00,21.36,220.00,25.00,0.00,30.04,M,7.00,32.00,BKN,BKN,BKN,M,8000.00,12000.00,25000.00,M,M,M,M,M,32.00,220.00,2022-07-18 23:46,88.39,KNFL 182346Z AUTO 22025G32KT 7SM BKN080CB BKN120 BKN250 33/08 A3004 RMK AO2 PK WND 22032/2346 WSHFT 2326 PRESRR OCNL LTGIC VC S CB VC S MOV N T03330083,M
CXP,2022-07-18 23:50,-119.7326,39.1923,1431.00,91.40,42.80,18.56,270.00,10.00,0.00,30.13,M,10.00,18.00,CLR,M,M,M,M,M,M,M,M,M,M,M,M,M,M,87.52,KCXP 182350Z AUTO 27010G18KT 240V300 10SM CLR 33/06 A3013 RMK AO2,M
VGT,2022-07-18 23:53,-115.1933,36.2111,667.00,104.00,54.00,19.23,160.00,10.00,0.00,29.88,1009.90,10.00,M,CLR,M,M,M,M,M,M,M,M,M,M,M,M,M,M,102.46,KVGT 182353Z 16010KT 10SM CLR 40/12 A2988 RMK AO2 LTG DSNT SE AND S SLP099 T04000122 10406 20344 56020,M
INS,2022-07-18 23:53,-115.6733,36.5872,955.00,100.40,46.40,16.15,150.00,10.00,0.00,29.95,1008.40,10.00,M,SCT,BKN,OVC,M,9500.00,13000.00,15000.00,M,M,M,M,M,M,M,M,96.63,KINS 182353Z AUTO 15010KT 10SM SCT095 BKN130 OVC150 38/08 A2995 RMK AO2 SLP084 $,M
DRA,2022-07-18 23:53,-116.0278,36.6206,1009.00,102.00,48.00,16.35,230.00,15.00,0.00,29.96,1008.30,10.00,22.00,CLR,M,M,M,M,M,M,M,M,M,M,M,26.00,230.00,2022-07-18 23:15,98.58,KDRA 182353Z AUTO 23015G22KT 10SM CLR 39/09 A2996 RMK AO2 PK WND 23026/2315 SLP083 T03890089 10394 20339 56019,M
LOL,2022-07-18 23:53,-118.5701,40.0684,1192.43,96.00,46.00,18.13,320.00,14.00,0.00,30.02,1011.60,10.00,M,CLR,M,M,M,M,M,M,M,M,M,M,M,M,M,M,92.30,KLOL 182353Z AUTO 32014KT 10SM CLR 36/08 A3002 RMK AO2 SLP116 60000 T03560078 10372 20328 57009,M
ELY,2022-07-18 23:53,-114.8453,39.2950,1909.00,88.00,40.00,18.47,290.00,13.00,T,30.19,1011.60,10.00,27.00,SCT,M,M,M,12000.00,M,M,M,VCTS -RA,M,M,M,27.00,270.00,2022-07-18 23:46,84.41,KELY 182353Z AUTO 29013G27KT 10SM VCTS -RA SCT120 31/04 A3019 RMK AO2 PK WND 27027/2346 LTG DSNT NE RAB47 SLP116 P0000 60000 T03110044 10344 20294 56009,M
P68,2022-07-18 23:53,-116.0056,39.6014,1993.00,84.00,47.00,27.44,20.00,20.00,0.00,30.18,1013.10,M,M,M,M,M,M,M,M,M,M,M,M,M,M,30.00,20.00,2022-07-18 23:34,81.77,KP68 182353Z AUTO 02020KT 29/08 A3018 RMK AO1 PK WND 02030/2334 SLP131 60003 T02890083 10322 20256 58007,M
05U,2022-07-18 23:55,-116.0051,39.6042,1811.23,86.00,46.40,25.26,20.00,15.00,0.00,30.21,M,10.00,23.00,CLR,M,M,M,M,M,M,M,M,M,M,M,M,M,M,83.22,K05U 182355Z AUTO 02015G23KT 10SM CLR 30/08 A3021 RMK A01,M
RNO,2022-07-18 23:55,-119.7711,39.4839,1341.00,94.00,48.00,20.92,300.00,19.00,0.00,30.07,1011.50,10.00,27.00,SCT,M,M,M,11000.00,M,M,M,M,M,M,M,28.00,290.00,2022-07-18 23:27,90.45,KRNO 182355Z 30019G27KT 10SM SCT110 34/09 A3007 RMK AO2 PK WND 29028/2327 SLP115 CB DSNT NE THRU SE T03440089 10367 20322 56005,M
MEV,2022-07-18 23:55,-119.7500,38.9963,1441.42,91.40,42.80,18.56,280.00,15.00,0.00,30.12,M,10.00,20.00,CLR,M,M,M,M,M,M,M,M,M,M,M,M,M,M,87.52,KMEV 182355Z AUTO 28015G20KT 10SM CLR 33/06 A3012 RMK AO2,M
TMT,2022-07-18 23:55,-117.1971,39.4643,1749.34,M,M,M,20.00,8.00,0.00,30.16,M,10.00,M,CLR,M,M,M,M,M,M,M,M,M,M,M,M,M,M,M,KTMT 182355Z AUTO 02008KT 10SM CLR A3016 RMK AO2 LTG DSNT SW,M
HTH,2022-07-18 23:55,-118.6315,38.5448,1282.89,93.20,44.60,18.80,340.00,8.00,0.00,30.07,M,10.00,16.00,BKN,M,M,M,12000.00,M,M,M,M,M,M,M,M,M,M,89.34,KHTH 182355Z AUTO 34008G16KT 10SM BKN120 34/07 A3007 RMK A01,M
BVU,2022-07-18 23:55,-114.8611,35.9475,671.00,M,M,M,M,M,0.00,M,M,M,M,M,M,M,M,M,M,M,M,M,M,M,M,M,M,M,M,KBVU 182355Z AUTO RMK AO2 PNO PWINO TSNO,M
BAM,2022-07-18 23:55,-116.8743,40.5990,1382.36,M,M,M,340.00,15.00,0.00,30.07,M,10.00,22.00,SCT,SCT,BKN,M,4800.00,6000.00,8500.00,M,M,M,M,M,M,M,M,M,KBAM 182355Z AUTO 34015G22KT 10SM SCT048 SCT060 BKN085 A3007 RMK AO1,M
RTS,2022-07-18 23:55,-119.8764,39.6682,1539.00,89.60,42.80,19.64,240.00,19.00,0.00,30.15,M,10.00,26.00,CLR,M,M,M,M,M,M,M,M,M,M,M,M,M,M,85.93,KRTS 182355Z AUTO 24019G26KT 10SM CLR 32/06 A3015 RMK AO2,M
TPH,2022-07-18 23:56,-117.0904,38.0505,1654.00,90.00,43.00,19.55,0.00,0.00,0.00,30.14,1011.40,10.00,M,BKN,M,M,M,11000.00,M,M,M,M,M,M,M,M,M,M,86.29,KTPH 182356Z AUTO 00000KT 10SM BKN110 32/06 A3014 RMK AO2 SLP114 60002 T03220061 10350 20294 58008,M
WMC,2022-07-18 23:56,-117.8072,40.9019,1315.00,92.00,47.00,21.36,0.00,0.00,0.00,30.04,1011.40,10.00,M,CLR,M,M,M,M,M,M,M,M,M,M,M,M,M,M,88.39,KWMC 182356Z AUTO 00000KT 10SM CLR 33/08 A3004 RMK AO2 SLP114 60002 T03330083 10361 20233 58014 TSNO,M
HND,2022-07-18 23:56,-115.1344,35.9729,742.79,96.00,58.00,28.12,120.00,12.00,T,29.93,M,10.00,20.00,FEW,M,M,M,5500.00,M,M,M,TS,M,M,M,31.00,130.00,2022-07-18 23:36,95.27,KHND 182356Z 12012G20KT 10SM TS FEW055 36/14 A2993 RMK AO2 PK WND 13031/2336 TSE2257B00RAB10E20B40E52 SLPNO P0000 6//// T03560144 56014,M
EKO,2022-07-18 23:56,-115.7860,40.8242,1367.00,93.00,41.00,16.48,290.00,8.00,0.00,30.08,1011.20,10.00,17.00,BKN,M,M,M,11000.00,M,M,M,M,M,M,M,M,M,M,88.85,KEKO 182356Z AUTO 29008G17KT 10SM BKN110 34/05 A3008 RMK AO2 SLP112 T03390050 10367 20311 56010,M
LAS,2022-07-18 23:56,-115.1634,36.0719,663.00,99.00,59.00,26.78,150.00,12.00,0.00,29.88,1008.70,10.00,23.00,SCT,BKN,M,M,12000.00,20000.00,M,M,TS,M,M,M,28.00,150.00,2022-07-18 23:46,98.97,KLAS 182356Z 15012G23KT 10SM TS SCT120CB BKN200 37/15 A2988 RMK AO2 PK WND 15028/2346 LTG DSNT SE AND S SLP087 OCNL LTGICCCCG NE-SE AND SW TS NE-SE AND SW MOV N CB DSNT NE-SE 60017 T03720150 10400 20317 58020,M
LSV,2022-07-18 23:58,-115.0343,36.2362,570.00,104.40,52.30,17.86,170.00,11.00,0.00,29.84,1007.50,10.00,M,FEW,SCT,BKN,M,10000.00,12000.00,18000.00,M,M,M,M,M,M,M,M,102.28,KLSV 182358Z 17011KT 10SM FEW100 SCT120 BKN180 40/11 A2984 RMK AO2A LTG DSNT S SLP075 T04020113 10436 20350 57021 $,M
INS,2022-07-18 23:58,-115.6733,36.5872,955.00,100.20,47.50,16.94,130.00,8.00,0.00,29.94,1008.10,10.00,M,FEW,SCT,OVC,M,8000.00,10000.00,13000.00,M,M,M,M,M,M,M,M,96.65,KINS 182358Z AUTO 13008KT 10SM FEW080 SCT100 OVC130 38/09 A2994 RMK AO2 SLP081 T03790086 10385 20324 57017 $,M
