station,valid,lon,lat,elevation,tmpf,dwpf,relh,drct,sknt,p01i,alti,mslp,vsby,gust,skyc1,skyc2,skyc3,skyc4,skyl1,skyl2,skyl3,skyl4,wxcodes,ice_accretion_1hr,ice_accretion_3hr,ice_accretion_6hr,peak_wind_gust,peak_wind_drct,peak_wind_time,feel,metar,snowdepth
BVU,2024-06-25 00:15,-114.8611,35.9475,671.00,109.40,48.20,13.24,180.00,15.00,0.00,29.72,M,10.00,M,CLR,M,M,M,M,M,M,M,M,M,M,M,M,M,M,105.97,KBVU 250015Z AUTO 18015KT 10SM CLR 43/09 A2972 RMK AO2,M
CXP,2024-06-25 00:15,-119.7326,39.1923,1431.00,89.60,46.40,22.53,250.00,9.00,0.00,30.06,M,10.00,17.00,CLR,M,M,M,M,M,M,M,M,M,M,M,M,M,M,86.24,KCXP 250015Z AUTO 25009G17KT 210V270 10SM CLR 32/08 A3006 RMK AO2,M
RTS,2024-06-25 00:15,-119.8764,39.6682,1539.00,86.00,32.00,14.40,250.00,18.00,0.00,30.08,M,10.00,25.00,CLR,M,M,M,M,M,M,M,M,M,M,M,M,M,M,82.64,KRTS 250015Z AUTO 25018G25KT 10SM CLR 30/00 A3008 RMK AO2,M
MEV,2024-06-25 00:15,-119.7500,38.9963,1441.42,89.60,44.60,21.04,280.00,14.00,0.00,30.04,M,10.00,20.00,CLR,M,M,M,M,M,M,M,M,M,M,M,M,M,M,86.07,KMEV 250015Z AUTO 28014G20KT 10SM CLR 32/07 A3004 RMK AO2,M
BAM,2024-06-25 00:15,-116.8743,40.5990,1382.36,96.80,32.00,10.27,250.00,14.00,0.00,29.99,M,10.00,21.00,CLR,M,M,M,M,M,M,M,M,M,M,M,M,M,M,91.19,KBAM 250015Z AUTO 25014G21KT 10SM CLR 36/00 A2999 RMK AO1,M
HTH,2024-06-25 00:15,-118.6315,38.5448,1282.89,98.60,33.80,10.45,350.00,16.00,0.00,29.93,M,10.00,22.00,CLR,M,M,M,M,M,M,M,M,M,M,M,M,M,M,92.94,KHTH 250015Z AUTO 35016G22KT 10SM CLR 37/01 A2993 RMK A01,M
10U,2024-06-25 00:15,-116.1876,41.9532,1637.00,87.80,21.20,8.70,250.00,11.00,0.00,30.04,M,10.00,20.00,CLR,M,M,M,M,M,M,M,M,M,M,M,M,M,M,83.33,K10U 250015Z AUTO 25011G20KT 10SM CLR 31/M06 A3004 RMK AO2,M
TMT,2024-06-25 00:15,-117.1971,39.4643,1749.34,92.30,25.50,9.04,250.00,7.00,0.00,30.07,M,10.00,M,CLR,M,M,M,M,M,M,M,M,M,M,M,M,M,M,86.94,KTMT 250015Z AUTO 25007KT 10SM CLR 34/M04 A3007 RMK AO2 T03351036,M
BVU,2024-06-25 00:35,-114.8611,35.9475,671.00,107.60,46.40,13.04,210.00,10.00,0.00,29.72,M,10.00,M,CLR,M,M,M,M,M,M,M,M,M,M,M,M,M,M,103.71,KBVU 250035Z AUTO 21010KT 10SM CLR 42/08 A2972 RMK AO2,M
CXP,2024-06-25 00:35,-119.7326,39.1923,1431.00,87.80,46.40,23.85,250.00,12.00,0.00,30.07,M,10.00,17.00,CLR,M,M,M,M,M,M,M,M,M,M,M,M,M,M,84.68,KCXP 250035Z AUTO 25012G17KT 210V290 10SM CLR 31/08 A3007 RMK AO2,M
RTS,2024-06-25 00:35,-119.8764,39.6682,1539.00,86.00,32.00,14.40,270.00,14.00,0.00,30.08,M,10.00,24.00,CLR,M,M,M,M,M,M,M,M,M,M,M,M,M,M,82.64,KRTS 250035Z AUTO 27014G24KT 10SM CLR 30/00 A3008 RMK AO2,M
MEV,2024-06-25 00:35,-119.7500,38.9963,1441.42,89.60,46.40,22.53,270.00,14.00,0.00,30.05,M,10.00,21.00,CLR,M,M,M,M,M,M,M,M,M,M,M,M,M,M,86.24,KMEV 250035Z AUTO 27014G21KT 10SM CLR 32/08 A3005 RMK AO2,M
BAM,2024-06-25 00:35,-116.8743,40.5990,1382.36,95.00,32.00,10.85,270.00,11.00,0.00,29.98,M,10.00,18.00,CLR,M,M,M,M,M,M,M,M,M,M,M,M,M,M,89.71,KBAM 250035Z AUTO 27011G18KT 10SM CLR 35/00 A2998 RMK AO1,M
HTH,2024-06-25 00:35,-118.6315,38.5448,1282.89,98.60,35.60,11.23,350.00,12.00,0.00,29.93,M,10.00,19.00,CLR,M,M,M,M,M,M,M,M,M,M,M,M,M,M,93.23,KHTH 250035Z AUTO 35012G19KT 10SM CLR 37/02 A2993 RMK A01,M
10U,2024-06-25 00:35,-116.1876,41.9532,1637.00,87.80,21.20,8.70,270.00,11.00,0.00,30.04,M,10.00,17.00,CLR,M,M,M,M,M,M,M,M,M,M,M,M,M,M,83.33,K10U 250035Z AUTO 27011G17KT 10SM CLR 31/M06 A3004 RMK AO2,M
TMT,2024-06-25 00:35,-117.1971,39.4643,1749.34,91.40,27.50,10.10,250.00,9.00,0.00,30.07,M,10.00,M,CLR,M,M,M,M,M,M,M,M,M,M,M,M,M,M,86.44,KTMT 250035Z AUTO 25009KT 10SM CLR 33/M02 A3007 RMK AO2 T03301025,M
P68,2024-06-25 00:53,-116.0056,39.6014,1993.00,93.00,28.00,9.81,280.00,15.00,0.00,30.03,1007.90,M,24.00,M,M,M,M,M,M,M,M,M,M,M,M,M,M,M,87.70,KP68 250053Z AUTO 28015G24KT 34/M02 A3003 RMK AO1 SLP079 T03391022,M
DRA,2024-06-25 00:53,-116.0278,36.6206,1009.00,104.00,43.00,12.74,240.00,10.00,0.00,29.83,1003.80,10.00,15.00,CLR,M,M,M,M,M,M,M,M,M,M,M,M,M,M,99.47,KDRA 250053Z AUTO 24010G15KT 10SM CLR 40/06 A2983 RMK AO2 SLP038 T04000061,M
ELY,2024-06-25 00:53,-114.8453,39.2950,1909.00,90.00,26.00,9.92,200.00,10.00,0.00,30.07,1007.50,10.00,18.00,CLR,M,M,M,M,M,M,M,M,M,M,M,M,M,M,85.26,KELY 250053Z AUTO 20010G18KT 10SM CLR 32/M03 A3007 RMK AO2 SLP075 T03221033,M
VGT,2024-06-25 00:53,-115.1933,36.2111,667.00,111.00,43.00,10.37,210.00,13.00,0.00,29.70,1003.70,10.00,18.00,CLR,M,M,M,M,M,M,M,M,M,M,M,M,M,M,105.78,KVGT 250053Z 21013G18KT 10SM CLR 44/06 A2970 RMK AO2 SLP037 T04390061,M
LOL,2024-06-25 00:53,-118.5701,40.0684,1192.43,95.00,34.00,11.76,270.00,17.00,T,29.91,1008.80,10.00,25.00,CLR,M,M,M,M,M,M,M,M,M,M,M,26.00,290.00,2024-06-25 00:30,90.00,KLOL 250053Z AUTO 27017G25KT 10SM CLR 35/01 A2991 RMK AO2 PK WND 29026/0030 RAB32E41 SLP088 P0000 T03500011,M
BVU,2024-06-25 00:55,-114.8611,35.9475,671.00,107.60,48.20,13.95,180.00,11.00,0.00,29.71,M,10.00,17.00,CLR,M,M,M,M,M,M,M,M,M,M,M,M,M,M,104.23,KBVU 250055Z AUTO 18011G17KT 10SM CLR 42/09 A2971 RMK AO2,M
CXP,2024-06-25 00:55,-119.7326,39.1923,1431.00,87.80,46.40,23.85,270.00,10.00,0.00,30.07,M,10.00,17.00,CLR,M,M,M,M,M,M,M,M,M,M,M,M,M,M,84.68,KCXP 250055Z AUTO 27010G17KT 10SM CLR 31/08 A3007 RMK AO2,M
RNO,2024-06-25 00:55,-119.7711,39.4839,1341.00,91.00,52.00,26.57,250.00,17.00,0.00,30.01,1010.10,10.00,31.00,FEW,M,M,M,10000.00,M,M,M,M,M,M,M,31.00,240.00,2024-06-25 00:46,88.35,KRNO 250055Z 25017G31KT 10SM FEW100 33/11 A3001 RMK AO2 PK WND 24031/0046 SLP101 T03280111,M
RTS,2024-06-25 00:55,-119.8764,39.6682,1539.00,86.00,32.00,14.40,260.00,18.00,0.00,30.08,M,10.00,24.00,CLR,M,M,M,M,M,M,M,M,M,M,M,M,M,M,82.64,KRTS 250055Z AUTO 26018G24KT 10SM CLR 30/00 A3008 RMK AO2,M
MEV,2024-06-25 00:55,-119.7500,38.9963,1441.42,87.80,48.20,25.52,250.00,10.00,0.00,30.05,M,10.00,19.00,CLR,M,M,M,M,M,M,M,M,M,M,M,M,M,M,84.87,KMEV 250055Z AUTO 25010G19KT 10SM CLR 31/09 A3005 RMK AO2,M
BAM,2024-06-25 00:55,-116.8743,40.5990,1382.36,95.00,30.20,10.09,280.00,11.00,0.00,29.97,M,10.00,16.00,CLR,M,M,M,M,M,M,M,M,M,M,M,M,M,M,89.48,KBAM 250055Z AUTO 28011G16KT 10SM CLR 35/M01 A2997 RMK AO1,M
HTH,2024-06-25 00:55,-118.6315,38.5448,1282.89,95.00,39.20,14.44,330.00,17.00,0.00,29.94,M,10.00,24.00,CLR,M,M,M,M,M,M,M,M,M,M,M,M,M,M,90.57,KHTH 250055Z AUTO 33017G24KT 10SM CLR 35/04 A2994 RMK A01,M
10U,2024-06-25 00:55,-116.1876,41.9532,1637.00,87.80,26.60,10.91,220.00,8.00,0.00,30.03,M,10.00,15.00,CLR,M,M,M,M,M,M,M,M,M,M,M,M,M,M,83.69,K10U 250055Z AUTO 22008G15KT 10SM CLR 31/M03 A3003 RMK AO2,M
INS,2024-06-25 00:55,-115.6733,36.5872,955.00,104.70,34.50,8.95,240.00,12.00,0.00,29.80,M,10.00,M,CLR,M,M,M,M,M,M,M,M,M,M,M,M,M,M,98.27,KINS 250055Z AUTO 24012KT 10SM CLR 40/01 A2980 RMK AO2 SLPNO T04040014 $,M
TMT,2024-06-25 00:55,-117.1971,39.4643,1749.34,90.70,24.60,9.16,280.00,4.00,0.00,30.06,M,10.00,M,CLR,M,M,M,M,M,M,M,M,M,M,M,M,M,M,85.68,KTMT 250055Z AUTO 28004KT 10SM CLR 33/M04 A3006 RMK AO2 T03261041,M
LSV,2024-06-25 00:55,-115.0343,36.2362,570.00,110.00,35.40,7.94,240.00,14.00,0.00,29.64,1000.30,10.00,M,CLR,M,M,M,M,M,M,M,M,M,M,M,M,M,M,103.07,KLSV 250055Z AUTO 24014KT 10SM CLR 43/02 A2964 RMK AO2 SLP003 T04340019 $,M
EKO,2024-06-25 00:56,-115.7860,40.8242,1367.00,93.00,29.00,10.22,270.00,14.00,0.00,29.99,1009.20,10.00,20.00,CLR,M,M,M,M,M,M,M,M,M,M,M,M,M,M,87.80,KEKO 250056Z AUTO 27014G20KT 10SM CLR 34/M02 A2999 RMK AO2 SLP092 T03391017,M
WMC,2024-06-25 00:56,-117.8072,40.9019,1315.00,96.00,27.00,8.58,270.00,14.00,0.00,29.94,1008.50,10.00,21.00,CLR,M,M,M,M,M,M,M,M,M,M,M,M,M,M,89.94,KWMC 250056Z AUTO 27014G21KT 10SM CLR 36/M03 A2994 RMK AO2 SLP085 T03561028,M
NFL,2024-06-25 00:56,-118.7010,39.4166,1199.00,97.00,44.00,16.35,280.00,17.00,0.00,29.92,1010.60,10.00,23.00,SCT,SCT,M,M,8000.00,22000.00,M,M,M,M,M,M,M,M,M,92.91,KNFL 250056Z 28017G23KT 10SM SCT080 SCT220 36/07 A2992 RMK AO2 SLP106 CB DSNT S T03610067,M
HND,2024-06-25 00:56,-115.1344,35.9729,742.79,107.00,45.00,12.58,230.00,11.00,0.00,29.77,1005.60,10.00,M,CLR,M,M,M,M,M,M,M,M,M,M,M,M,M,M,102.73,KHND 250056Z 23011KT 10SM CLR 42/07 A2977 RMK AO2 SLP056 T04170072,M
TPH,2024-06-25 00:56,-117.0904,38.0505,1654.00,93.00,31.00,11.09,290.00,9.00,0.00,30.02,1007.60,10.00,M,CLR,M,M,M,M,M,M,M,M,M,M,M,M,M,M,88.03,KTPH 250056Z AUTO 29009KT 10SM CLR 34/M01 A3002 RMK AO2 SLP076 T03391006,M
LAS,2024-06-25 00:56,-115.1634,36.0719,663.00,110.00,42.00,10.28,270.00,8.00,0.00,29.72,1002.90,10.00,18.00,FEW,FEW,SCT,M,12000.00,16000.00,25000.00,M,M,M,M,M,M,M,M,104.58,KLAS 250056Z 27008G18KT 10SM FEW120 FEW160 SCT250 43/06 A2972 RMK AO2 SLP029 CB DSNT E T04330056,M
INS,2024-06-25 00:56,-115.6733,36.5872,955.00,104.00,33.80,8.88,230.00,12.00,0.00,29.80,M,10.00,M,CLR,M,M,M,M,M,M,M,M,M,M,M,M,M,M,97.55,KINS 250056Z AUTO 23012KT 10SM CLR 40/01 A2980 RMK AO2 WSHFT 51 SLPNO $,M
BVU,2024-06-25 01:15,-114.8611,35.9475,671.00,107.60,46.40,13.04,200.00,17.00,0.00,29.71,M,10.00,22.00,CLR,M,M,M,M,M,M,M,M,M,M,M,M,M,M,103.71,KBVU 250115Z AUTO 20017G22KT 10SM CLR 42/08 A2971 RMK AO2,M
CXP,2024-06-25 01:15,-119.7326,39.1923,1431.00,86.00,44.60,23.59,260.00,11.00,0.00,30.08,M,10.00,19.00,CLR,M,M,M,M,M,M,M,M,M,M,M,M,M,M,83.07,KCXP 250115Z AUTO 26011G19KT 10SM CLR 30/07 A3008 RMK AO2,M
RTS,2024-06-25 01:15,-119.8764,39.6682,1539.00,84.20,33.80,16.39,250.00,19.00,0.00,30.09,M,10.00,28.00,CLR,M,M,M,M,M,M,M,M,M,M,M,M,M,M,81.30,KRTS 250115Z AUTO 25019G28KT 10SM CLR 29/01 A3009 RMK AO2,M
MEV,2024-06-25 01:15,-119.7500,38.9963,1441.42,87.80,46.40,23.85,230.00,9.00,0.00,30.06,M,10.00,14.00,CLR,M,M,M,M,M,M,M,M,M,M,M,M,M,M,84.68,KMEV 250115Z AUTO 23009G14KT 10SM CLR 31/08 A3006 RMK AO2,M
BAM,2024-06-25 01:15,-116.8743,40.5990,1382.36,95.00,32.00,10.85,280.00,14.00,0.00,29.97,M,10.00,20.00,CLR,M,M,M,M,M,M,M,M,M,M,M,M,M,M,89.71,KBAM 250115Z AUTO 28014G20KT 10SM CLR 35/00 A2997 RMK AO1,M
HTH,2024-06-25 01:15,-118.6315,38.5448,1282.89,95.00,41.00,15.49,350.00,13.00,0.00,29.95,M,10.00,22.00,CLR,M,M,M,M,M,M,M,M,M,M,M,M,M,M,90.70,KHTH 250115Z AUTO 35013G22KT 10SM CLR 35/05 A2995 RMK A01,M
10U,2024-06-25 01:15,-116.1876,41.9532,1637.00,87.80,26.60,10.91,260.00,8.00,0.00,30.03,M,10.00,18.00,CLR,M,M,M,M,M,M,M,M,M,M,M,M,M,M,83.69,K10U 250115Z AUTO 26008G18KT 10SM CLR 31/M03 A3003 RMK AO2,M
TMT,2024-06-25 01:15,-117.1971,39.4643,1749.34,90.30,31.00,12.07,250.00,8.00,0.00,30.07,M,10.00,M,CLR,M,M,M,M,M,M,M,M,M,M,M,M,M,M,85.96,KTMT 250115Z AUTO 25008KT 10SM CLR 32/M01 A3007 RMK AO2 T03241006,M
LSV,2024-06-25 01:18,-115.0343,36.2362,570.00,109.40,35.60,8.14,210.00,12.00,0.00,29.64,1000.40,10.00,M,CLR,M,M,M,M,M,M,M,M,M,M,M,M,M,M,102.57,KLSV 250118Z AUTO 21012KT 10SM CLR 43/02 A2964 RMK AO2 WSHFT 07 SLP004 $,M
BVU,2024-06-25 01:35,-114.8611,35.9475,671.00,107.60,42.80,11.37,210.00,10.00,0.00,29.71,M,10.00,M,CLR,M,M,M,M,M,M,M,M,M,M,M,M,M,M,102.63,KBVU 250135Z AUTO 21010KT 10SM CLR 42/06 A2971 RMK AO2,M
CXP,2024-06-25 01:35,-119.7326,39.1923,1431.00,86.00,44.60,23.59,270.00,14.00,0.00,30.07,M,10.00,20.00,CLR,M,M,M,M,M,M,M,M,M,M,M,M,M,M,83.07,KCXP 250135Z AUTO 27014G20KT 10SM CLR 30/07 A3007 RMK AO2,M
RTS,2024-06-25 01:35,-119.8764,39.6682,1539.00,84.20,35.60,17.61,260.00,19.00,0.00,30.10,M,10.00,25.00,CLR,M,M,M,M,M,M,M,M,M,M,M,M,M,M,81.34,KRTS 250135Z AUTO 26019G25KT 10SM CLR 29/02 A3010 RMK AO2,M
BAM,2024-06-25 01:35,-116.8743,40.5990,1382.36,95.00,32.00,10.85,290.00,11.00,0.00,29.97,M,10.00,17.00,CLR,M,M,M,M,M,M,M,M,M,M,M,M,M,M,89.71,KBAM 250135Z AUTO 29011G17KT 10SM CLR 35/00 A2997 RMK AO1,M
10U,2024-06-25 01:35,-116.1876,41.9532,1637.00,86.00,24.80,10.72,210.00,12.00,0.00,30.03,M,10.00,18.00,CLR,M,M,M,M,M,M,M,M,M,M,M,M,M,M,82.26,K10U 250135Z AUTO 21012G18KT 10SM CLR 30/M04 A3003 RMK AO2,M
TMT,2024-06-25 01:35,-117.1971,39.4643,1749.34,89.40,32.00,12.92,300.00,15.00,0.00,30.07,M,10.00,M,CLR,M,M,M,M,M,M,M,M,M,M,M,M,M,M,85.39,KTMT 250135Z AUTO 30015KT 10SM CLR 32/00 A3007 RMK AO2 T03191001,M
P68,2024-06-25 01:53,-116.0056,39.6014,1993.00,89.00,28.00,11.12,280.00,5.00,0.00,30.05,1007.70,M,M,M,M,M,M,M,M,M,M,M,M,M,M,M,M,M,84.69,KP68 250153Z AUTO 28005KT 32/M02 A3005 RMK AO1 SLP077 T03171022,M
DRA,2024-06-25 01:53,-116.0278,36.6206,1009.00,102.00,43.00,13.52,240.00,11.00,0.00,29.83,1003.80,10.00,M,CLR,M,M,M,M,M,M,M,M,M,M,M,M,M,M,97.60,KDRA 250153Z AUTO 24011KT 10SM CLR 39/06 A2983 RMK AO2 SLP038 T03890061,M
ELY,2024-06-25 01:53,-114.8453,39.2950,1909.00,89.00,26.00,10.24,210.00,9.00,0.00,30.07,1006.80,10.00,M,CLR,M,M,M,M,M,M,M,M,M,M,M,M,M,M,84.52,KELY 250153Z AUTO 21009KT 10SM CLR 32/M03 A3007 RMK AO2 SLP068 T03171033,M
VGT,2024-06-25 01:53,-115.1933,36.2111,667.00,110.00,44.00,11.10,220.00,13.00,0.00,29.71,1003.90,10.00,17.00,CLR,M,M,M,M,M,M,M,M,M,M,M,M,M,M,105.14,KVGT 250153Z AUTO 22013G17KT 10SM CLR 43/07 A2971 RMK AO2 SLP039 T04330067,M
LOL,2024-06-25 01:53,-118.5701,40.0684,1192.43,93.00,34.00,12.51,280.00,16.00,0.00,29.93,1009.10,10.00,26.00,CLR,M,M,M,M,M,M,M,M,M,M,M,26.00,280.00,2024-06-25 01:50,88.42,KLOL 250153Z AUTO 28016G26KT 10SM CLR 34/01 A2993 RMK AO2 PK WND 28026/0150 SLP091 T03390011,M
BVU,2024-06-25 01:55,-114.8611,35.9475,671.00,107.60,42.80,11.37,210.00,9.00,0.00,29.72,M,10.00,M,CLR,M,M,M,M,M,M,M,M,M,M,M,M,M,M,102.63,KBVU 250155Z AUTO 21009KT 10SM CLR 42/06 A2972 RMK AO2,M
CXP,2024-06-25 01:55,-119.7326,39.1923,1431.00,84.20,44.60,24.99,270.00,10.00,0.00,30.07,M,10.00,18.00,CLR,M,M,M,M,M,M,M,M,M,M,M,M,M,M,81.73,KCXP 250155Z AUTO 27010G18KT 10SM CLR 29/07 A3007 RMK AO2,M
RNO,2024-06-25 01:55,-119.7711,39.4839,1341.00,89.00,51.00,27.27,280.00,11.00,0.00,30.03,1010.70,10.00,22.00,FEW,FEW,M,M,10000.00,25000.00,M,M,M,M,M,M,27.00,220.00,2024-06-25 01:18,86.31,KRNO 250155Z 28011G22KT 10SM FEW100 FEW250 32/11 A3003 RMK AO2 PK WND 22027/0118 SLP107 T03170106,M
RTS,2024-06-25 01:55,-119.8764,39.6682,1539.00,82.40,35.60,18.67,260.00,20.00,0.00,30.10,M,10.00,M,CLR,M,M,M,M,M,M,M,M,M,M,M,M,M,M,80.08,KRTS 250155Z AUTO 26020KT 10SM CLR 28/02 A3010 RMK AO2,M
MEV,2024-06-25 01:55,-119.7500,38.9963,1441.42,86.00,46.40,25.26,270.00,11.00,0.00,30.06,M,10.00,M,CLR,M,M,M,M,M,M,M,M,M,M,M,M,M,M,83.22,KMEV 250155Z AUTO 27011KT 10SM CLR 30/08 A3006 RMK AO2,M
HTH,2024-06-25 01:55,-118.6315,38.5448,1282.89,87.80,42.80,20.79,240.00,20.00,0.00,29.99,M,10.00,35.00,FEW,M,M,M,11000.00,M,M,M,M,M,M,M,M,M,M,84.40,KHTH 250155Z AUTO 24020G35KT 10SM FEW110 31/06 A2999 RMK A01,M
10U,2024-06-25 01:55,-116.1876,41.9532,1637.00,86.00,24.80,10.72,230.00,11.00,0.00,30.03,M,10.00,M,CLR,M,M,M,M,M,M,M,M,M,M,M,M,M,M,82.26,K10U 250155Z AUTO 23011KT 10SM CLR 30/M04 A3003 RMK AO2,M
INS,2024-06-25 01:55,-115.6733,36.5872,955.00,103.00,36.00,9.99,230.00,11.00,0.00,29.81,M,10.00,19.00,CLR,M,M,M,M,M,M,M,M,M,M,M,M,M,M,97.06,KINS 250155Z AUTO 23011G19KT 10SM CLR 40/02 A2981 RMK AO2 SLPNO T03950022 $,M
BAM,2024-06-25 01:55,-116.8743,40.5990,1382.36,93.20,33.80,12.34,250.00,11.00,0.00,29.97,M,10.00,14.00,CLR,M,M,M,M,M,M,M,M,M,M,M,M,M,M,88.55,KBAM 250155Z AUTO 25011G14KT 10SM CLR 34/01 A2997 RMK AO1,M
TMT,2024-06-25 01:55,-117.1971,39.4643,1749.34,88.00,32.00,13.51,300.00,11.00,0.00,30.07,M,10.00,15.00,CLR,M,M,M,M,M,M,M,M,M,M,M,M,M,M,84.24,KTMT 250155Z AUTO 30011G15KT 10SM CLR 31/00 A3007 RMK AO2 T03120001,M
LSV,2024-06-25 01:55,-115.0343,36.2362,570.00,109.60,35.00,7.90,230.00,11.00,0.00,29.65,1000.70,10.00,M,CLR,M,M,M,M,M,M,M,M,M,M,M,M,M,M,102.63,KLSV 250155Z AUTO 23011KT 10SM CLR 43/02 A2965 RMK AO2 SLP007 T04310017 $,M
EKO,2024-06-25 01:56,-115.7860,40.8242,1367.00,91.00,28.00,10.44,280.00,16.00,0.00,29.99,1008.80,10.00,22.00,CLR,M,M,M,M,M,M,M,M,M,M,M,M,M,M,86.19,KEKO 250156Z AUTO 28016G22KT 10SM CLR 33/M02 A2999 RMK AO2 SLP088 T03281022,M
WMC,2024-06-25 01:56,-117.8072,40.9019,1315.00,94.00,26.00,8.76,280.00,14.00,0.00,29.94,1008.30,10.00,M,CLR,M,M,M,M,M,M,M,M,M,M,M,M,M,M,88.27,KWMC 250156Z AUTO 28014KT 10SM CLR 34/M03 A2994 RMK AO2 SLP083 T03441033,M
NFL,2024-06-25 01:56,-118.7010,39.4166,1199.00,94.00,41.00,15.97,280.00,19.00,0.00,29.94,1011.00,10.00,27.00,SCT,SCT,BKN,M,8000.00,15000.00,22000.00,M,M,M,M,M,30.00,280.00,2024-06-25 01:36,89.77,KNFL 250156Z 28019G27KT 10SM SCT080 SCT150 BKN220 34/05 A2994 RMK AO2 PK WND 28030/0136 SLP110 CB DSNT S T03440050,M
HND,2024-06-25 01:56,-115.1344,35.9729,742.79,106.00,46.00,13.46,210.00,11.00,0.00,29.77,1005.80,10.00,M,CLR,M,M,M,M,M,M,M,M,M,M,M,M,M,M,102.07,KHND 250156Z 21011KT 10SM CLR 41/08 A2977 RMK AO2 SLP058 T04110078,M
TPH,2024-06-25 01:56,-117.0904,38.0505,1654.00,88.00,37.00,16.49,260.00,20.00,0.00,30.04,1008.00,7.00,29.00,SCT,BKN,M,M,2800.00,3600.00,M,M,M,M,M,M,29.00,260.00,2024-06-25 01:49,84.32,KTPH 250156Z AUTO 26020G29KT 7SM SCT028 BKN036 31/03 A3004 RMK AO2 PK WND 26029/0149 SLP080 T03110028,M
LAS,2024-06-25 01:56,-115.1634,36.0719,663.00,110.00,41.00,9.89,240.00,6.00,0.00,29.73,1003.00,10.00,M,FEW,FEW,SCT,M,12000.00,16000.00,25000.00,M,M,M,M,M,M,M,M,104.31,KLAS 250156Z 24006KT 10SM FEW120 FEW160 SCT250 43/05 A2973 RMK AO2 SLP030 CB DSNT E-S T04330050,M
BVU,2024-06-25 02:15,-114.8611,35.9475,671.00,107.60,42.80,11.37,180.00,7.00,0.00,29.72,M,10.00,12.00,CLR,M,M,M,M,M,M,M,M,M,M,M,M,M,M,102.63,KBVU 250215Z AUTO 18007G12KT 10SM CLR 42/06 A2972 RMK AO2,M
CXP,2024-06-25 02:15,-119.7326,39.1923,1431.00,84.20,44.60,24.99,270.00,13.00,0.00,30.07,M,10.00,22.00,CLR,M,M,M,M,M,M,M,M,M,M,M,M,M,M,81.73,KCXP 250215Z AUTO 27013G22KT 10SM CLR 29/07 A3007 RMK AO2,M
RTS,2024-06-25 02:15,-119.8764,39.6682,1539.00,82.40,33.80,17.38,260.00,17.00,0.00,30.10,M,10.00,M,CLR,M,M,M,M,M,M,M,M,M,M,M,M,M,M,80.03,KRTS 250215Z AUTO 26017KT 10SM CLR 28/01 A3010 RMK AO2,M
MEV,2024-06-25 02:15,-119.7500,38.9963,1441.42,82.40,48.20,30.35,250.00,11.00,0.00,30.06,M,10.00,M,CLR,M,M,M,M,M,M,M,M,M,M,M,M,M,M,80.80,KMEV 250215Z AUTO 25011KT 10SM CLR 28/09 A3006 RMK AO2,M
BAM,2024-06-25 02:15,-116.8743,40.5990,1382.36,91.40,35.60,14.02,260.00,10.00,0.00,29.97,M,10.00,M,CLR,M,M,M,M,M,M,M,M,M,M,M,M,M,M,87.17,KBAM 250215Z AUTO 26010KT 10SM CLR 33/02 A2997 RMK AO1,M
HTH,2024-06-25 02:15,-118.6315,38.5448,1282.89,87.80,39.20,18.09,230.00,10.00,0.00,30.00,M,10.00,20.00,CLR,M,M,M,M,M,M,M,M,M,M,M,M,M,M,84.22,KHTH 250215Z AUTO 23010G20KT 190V270 10SM CLR 31/04 A3000 RMK A01,M
10U,2024-06-25 02:15,-116.1876,41.9532,1637.00,84.20,23.00,10.53,260.00,9.00,0.00,30.03,M,10.00,15.00,CLR,M,M,M,M,M,M,M,M,M,M,M,M,M,M,80.88,K10U 250215Z AUTO 26009G15KT 10SM CLR 29/M05 A3003 RMK AO2,M
TMT,2024-06-25 02:15,-117.1971,39.4643,1749.34,87.00,34.50,15.41,310.00,8.00,0.00,30.08,M,10.00,15.00,CLR,M,M,M,M,M,M,M,M,M,M,M,M,M,M,83.46,KTMT 250215Z AUTO 31008G15KT 10SM CLR 31/01 A3008 RMK AO2 T03050014,M
BVU,2024-06-25 02:35,-114.8611,35.9475,671.00,104.00,51.80,17.74,180.00,11.00,0.00,29.72,M,10.00,M,CLR,M,M,M,M,M,M,M,M,M,M,M,M,M,M,101.69,KBVU 250235Z AUTO 18011KT 120V220 10SM CLR 40/11 A2972 RMK AO2,M
CXP,2024-06-25 02:35,-119.7326,39.1923,1431.00,82.40,44.60,26.49,280.00,12.00,0.00,30.07,M,10.00,21.00,CLR,M,M,M,M,M,M,M,M,M,M,M,M,M,M,80.50,KCXP 250235Z AUTO 28012G21KT 10SM CLR 28/07 A3007 RMK AO2,M
RTS,2024-06-25 02:35,-119.8764,39.6682,1539.00,80.60,33.80,18.42,270.00,18.00,0.00,30.10,M,10.00,M,CLR,M,M,M,M,M,M,M,M,M,M,M,M,M,M,78.88,KRTS 250235Z AUTO 27018KT 10SM CLR 27/01 A3010 RMK AO2,M
MEV,2024-06-25 02:35,-119.7500,38.9963,1441.42,82.40,48.20,30.35,250.00,10.00,0.00,30.07,M,10.00,M,CLR,M,M,M,M,M,M,M,M,M,M,M,M,M,M,80.80,KMEV 250235Z AUTO 25010KT 10SM CLR 28/09 A3007 RMK AO2,M
BAM,2024-06-25 02:35,-116.8743,40.5990,1382.36,91.40,35.60,14.02,250.00,7.00,0.00,29.98,M,10.00,M,CLR,M,M,M,M,M,M,M,M,M,M,M,M,M,M,87.17,KBAM 250235Z AUTO 25007KT 10SM CLR 33/02 A2998 RMK AO1,M
HTH,2024-06-25 02:35,-118.6315,38.5448,1282.89,87.80,39.20,18.09,240.00,11.00,0.00,30.01,M,10.00,19.00,CLR,M,M,M,M,M,M,M,M,M,M,M,M,M,M,84.22,KHTH 250235Z AUTO 24011G19KT 10SM CLR 31/04 A3001 RMK A01,M
10U,2024-06-25 02:35,-116.1876,41.9532,1637.00,84.20,24.80,11.35,260.00,10.00,0.00,30.03,M,10.00,M,CLR,M,M,M,M,M,M,M,M,M,M,M,M,M,M,81.00,K10U 250235Z AUTO 26010KT 10SM CLR 29/M04 A3003 RMK AO2,M
TMT,2024-06-25 02:35,-117.1971,39.4643,1749.34,85.60,35.80,16.97,330.00,10.00,0.00,30.08,M,10.00,M,CLR,M,M,M,M,M,M,M,M,M,M,M,M,M,M,82.38,KTMT 250235Z AUTO 33010KT 10SM CLR 30/02 A3008 RMK AO2 T02980021,M
P68,2024-06-25 02:53,-116.0056,39.6014,1993.00,85.00,29.00,13.16,320.00,11.00,0.00,30.06,1007.70,M,M,M,M,M,M,M,M,M,M,M,M,M,M,M,M,M,81.86,KP68 250253Z AUTO 32011KT 29/M02 A3006 RMK AO1 SLP077 T02941017 53003,M
DRA,2024-06-25 02:53,-116.0278,36.6206,1009.00,99.00,45.00,15.98,240.00,10.00,0.00,29.84,1004.20,10.00,M,CLR,M,M,M,M,M,M,M,M,M,M,M,M,M,M,95.00,KDRA 250253Z AUTO 24010KT 10SM CLR 37/07 A2984 RMK AO2 SLP042 T03720072 55001,M
ELY,2024-06-25 02:53,-114.8453,39.2950,1909.00,80.00,27.00,14.26,290.00,6.00,0.00,30.08,1006.80,10.00,M,CLR,M,M,M,M,M,M,M,M,M,M,M,M,M,M,78.37,KELY 250253Z AUTO 29006KT 10SM CLR 27/M03 A3008 RMK AO2 SLP068 T02671028 53001,M
VGT,2024-06-25 02:53,-115.1933,36.2111,667.00,108.00,44.00,11.76,230.00,9.00,0.00,29.72,1004.40,10.00,M,CLR,M,M,M,M,M,M,M,M,M,M,M,M,M,M,103.33,KVGT 250253Z AUTO 23009KT 10SM CLR 42/07 A2972 RMK AO2 SLP044 T04220067 53001,M
LOL,2024-06-25 02:53,-118.5701,40.0684,1192.43,89.00,36.00,15.36,290.00,12.00,0.00,29.95,1009.20,10.00,22.00,CLR,M,M,M,M,M,M,M,M,M,M,M,M,M,M,85.12,KLOL 250253Z AUTO 29012G22KT 10SM CLR 32/02 A2995 RMK AO2 SLP092 60000 T03170022 53008,M
BVU,2024-06-25 02:55,-114.8611,35.9475,671.00,104.00,51.80,17.74,160.00,13.00,0.00,29.73,M,10.00,M,CLR,M,M,M,M,M,M,M,M,M,M,M,M,M,M,101.69,KBVU 250255Z AUTO 16013KT 10SM CLR 40/11 A2973 RMK AO2,M
CXP,2024-06-25 02:55,-119.7326,39.1923,1431.00,82.40,44.60,26.49,260.00,9.00,0.00,30.08,M,10.00,17.00,CLR,M,M,M,M,M,M,M,M,M,M,M,M,M,M,80.50,KCXP 250255Z AUTO 26009G17KT 10SM CLR 28/07 A3008 RMK AO2,M
RNO,2024-06-25 02:55,-119.7711,39.4839,1341.00,86.00,49.00,27.85,270.00,13.00,0.00,30.03,1010.80,10.00,23.00,FEW,SCT,M,M,10000.00,25000.00,M,M,M,M,M,M,30.00,270.00,2024-06-25 01:58,83.49,KRNO 250255Z 27013G23KT 10SM FEW100 SCT250 30/09 A3003 RMK AO2 PK WND 27030/0158 SLP108 T03000094 52008,M
RTS,2024-06-25 02:55,-119.8764,39.6682,1539.00,78.80,30.20,16.90,260.00,15.00,0.00,30.11,M,10.00,M,CLR,M,M,M,M,M,M,M,M,M,M,M,M,M,M,78.80,KRTS 250255Z AUTO 26015KT 10SM CLR 26/M01 A3011 RMK AO2,M
MEV,2024-06-25 02:55,-119.7500,38.9963,1441.42,80.60,48.20,32.18,230.00,8.00,0.00,30.07,M,10.00,M,CLR,M,M,M,M,M,M,M,M,M,M,M,M,M,M,79.71,KMEV 250255Z AUTO 23008KT 10SM CLR 27/09 A3007 RMK AO2,M
BAM,2024-06-25 02:55,-116.8743,40.5990,1382.36,87.80,37.40,16.86,250.00,5.00,0.00,29.98,M,10.00,M,CLR,M,M,M,M,M,M,M,M,M,M,M,M,M,M,84.16,KBAM 250255Z AUTO 25005KT 10SM CLR 31/03 A2998 RMK AO1,M
HTH,2024-06-25 02:55,-118.6315,38.5448,1282.89,87.80,41.00,19.40,190.00,16.00,0.00,30.02,M,10.00,22.00,CLR,M,M,M,M,M,M,M,M,M,M,M,M,M,M,84.30,KHTH 250255Z AUTO 19016G22KT 10SM CLR 31/05 A3002 RMK A01,M
10U,2024-06-25 02:55,-116.1876,41.9532,1637.00,80.60,21.20,10.97,260.00,7.00,0.00,30.03,M,10.00,13.00,CLR,M,M,M,M,M,M,M,M,M,M,M,M,M,M,78.68,K10U 250255Z AUTO 26007G13KT 10SM CLR 27/M06 A3003 RMK AO2,M
TMT,2024-06-25 02:55,-117.1971,39.4643,1749.34,84.70,35.80,17.47,330.00,7.00,0.00,30.08,M,10.00,M,CLR,M,M,M,M,M,M,M,M,M,M,M,M,M,M,81.71,KTMT 250255Z AUTO 33007KT 10SM CLR 29/02 A3008 RMK AO2 T02930021,M
INS,2024-06-25 02:55,-115.6733,36.5872,955.00,100.60,38.70,11.94,230.00,14.00,0.00,29.82,1004.00,10.00,M,CLR,M,M,M,M,M,M,M,M,M,M,M,M,M,M,95.50,KINS 250255Z AUTO 23014KT 10SM CLR 38/04 A2982 RMK AO2 SLP040 T03810037 53001 $,M
LSV,2024-06-25 02:55,-115.0343,36.2362,570.00,107.00,33.30,7.97,230.00,10.00,0.00,29.67,1001.40,10.00,M,CLR,M,M,M,M,M,M,M,M,M,M,M,M,M,M,100.06,KLSV 250255Z AUTO 23010KT 10SM CLR 42/01 A2967 RMK AO2 SLP014 T04170007 53001 $,M
EKO,2024-06-25 02:56,-115.7860,40.8242,1367.00,86.00,29.00,12.75,270.00,6.00,0.00,30.00,1008.90,10.00,M,CLR,M,M,M,M,M,M,M,M,M,M,M,M,M,M,82.59,KEKO 250256Z AUTO 27006KT 10SM CLR 30/M02 A3000 RMK AO2 SLP089 T03001017 55001,M
WMC,2024-06-25 02:56,-117.8072,40.9019,1315.00,88.00,23.00,9.33,280.00,12.00,0.00,29.96,1008.70,10.00,M,CLR,M,M,M,M,M,M,M,M,M,M,M,M,M,M,83.58,KWMC 250256Z AUTO 28012KT 10SM CLR 31/M05 A2996 RMK AO2 SLP087 T03111050 53002,M
NFL,2024-06-25 02:56,-118.7010,39.4166,1199.00,90.00,42.00,18.81,280.00,15.00,0.00,29.96,1011.70,10.00,24.00,SCT,SCT,BKN,BKN,8000.00,15000.00,18000.00,22000.00,M,M,M,M,30.00,270.00,2024-06-25 02:00,86.22,KNFL 250256Z 28015G24KT 10SM SCT080 SCT150 BKN180 BKN220 32/06 A2996 RMK AO2 PK WND 27030/0200 SLP117 CB DSNT SE T03220056 53011,M
HND,2024-06-25 02:56,-115.1344,35.9729,742.79,104.00,47.00,14.83,220.00,10.00,0.00,29.79,1006.10,10.00,M,CLR,M,M,M,M,M,M,M,M,M,M,M,M,M,M,100.35,KHND 250256Z 22010KT 10SM CLR 40/08 A2979 RMK AO2 SLP061 T04000083 53001,M
TPH,2024-06-25 02:56,-117.0904,38.0505,1654.00,84.00,42.00,22.77,270.00,22.00,0.00,30.08,1009.20,8.00,30.00,CLR,M,M,M,M,M,M,M,M,M,M,M,36.00,250.00,2024-06-25 02:41,81.42,KTPH 250256Z AUTO 27022G30KT 8SM CLR 29/06 A3008 RMK AO2 PK WND 25036/0241 SLP092 T02890056 53015,M
LAS,2024-06-25 02:56,-115.1634,36.0719,663.00,108.00,45.00,12.22,250.00,8.00,0.00,29.74,1003.50,10.00,M,FEW,FEW,SCT,M,12000.00,16000.00,25000.00,M,M,M,M,M,M,M,M,103.63,KLAS 250256Z 25008KT 10SM FEW120 FEW160 SCT250 42/07 A2974 RMK AO2 SLP035 CB DSNT E T04220072 53002,M
BVU,2024-06-25 03:15,-114.8611,35.9475,671.00,102.20,51.80,18.72,160.00,14.00,0.00,29.74,M,10.00,21.00,CLR,M,M,M,M,M,M,M,M,M,M,M,M,M,M,99.80,KBVU 250315Z AUTO 16014G21KT 10SM CLR 39/11 A2974 RMK AO2,M
CXP,2024-06-25 03:15,-119.7326,39.1923,1431.00,80.60,44.60,28.08,M,6.00,0.00,30.08,M,10.00,14.00,CLR,M,M,M,M,M,M,M,M,M,M,M,M,M,M,79.42,KCXP 250315Z AUTO VRB06G14KT 10SM CLR 27/07 A3008 RMK AO2,M
RTS,2024-06-25 03:15,-119.8764,39.6682,1539.00,78.80,30.20,16.90,270.00,14.00,0.00,30.11,M,10.00,M,CLR,M,M,M,M,M,M,M,M,M,M,M,M,M,M,78.80,KRTS 250315Z AUTO 27014KT 10SM CLR 26/M01 A3011 RMK AO2,M
MEV,2024-06-25 03:15,-119.7500,38.9963,1441.42,77.00,46.40,33.85,250.00,5.00,0.00,30.08,M,10.00,13.00,CLR,M,M,M,M,M,M,M,M,M,M,M,M,M,M,77.00,KMEV 250315Z AUTO 25005G13KT 10SM CLR 25/08 A3008 RMK AO2,M
BAM,2024-06-25 03:15,-116.8743,40.5990,1382.36,86.00,37.40,17.85,250.00,5.00,0.00,29.99,M,10.00,M,CLR,M,M,M,M,M,M,M,M,M,M,M,M,M,M,82.73,KBAM 250315Z AUTO 25005KT 10SM CLR 30/03 A2999 RMK AO1,M
HTH,2024-06-25 03:15,-118.6315,38.5448,1282.89,86.00,41.00,20.54,170.00,13.00,0.00,30.01,M,10.00,M,SCT,SCT,M,M,10000.00,12000.00,M,M,M,M,M,M,M,M,M,82.86,KHTH 250315Z AUTO 17013KT 10SM SCT100 SCT120 30/05 A3001 RMK A01,M
10U,2024-06-25 03:15,-116.1876,41.9532,1637.00,77.00,21.20,12.35,260.00,7.00,0.00,30.04,M,10.00,M,CLR,M,M,M,M,M,M,M,M,M,M,M,M,M,M,77.00,K10U 250315Z AUTO 26007KT 10SM CLR 25/M06 A3004 RMK AO2,M
TMT,2024-06-25 03:15,-117.1971,39.4643,1749.34,82.40,36.00,18.97,350.00,7.00,0.00,30.09,M,10.00,M,CLR,M,M,M,M,M,M,M,M,M,M,M,M,M,M,80.09,KTMT 250315Z AUTO 35007KT 10SM CLR 28/02 A3009 RMK AO2 T02800022,M
BVU,2024-06-25 03:35,-114.8611,35.9475,671.00,102.20,51.80,18.72,170.00,14.00,0.00,29.74,M,10.00,M,CLR,M,M,M,M,M,M,M,M,M,M,M,M,M,M,99.80,KBVU 250335Z AUTO 17014KT 10SM CLR 39/11 A2974 RMK AO2,M
CXP,2024-06-25 03:35,-119.7326,39.1923,1431.00,80.60,42.80,26.22,0.00,0.00,0.00,30.09,M,10.00,11.00,CLR,M,M,M,M,M,M,M,M,M,M,M,M,M,M,79.30,KCXP 250335Z AUTO 00000G11KT 10SM CLR 27/06 A3009 RMK AO2,M
RTS,2024-06-25 03:35,-119.8764,39.6682,1539.00,77.00,32.00,19.30,260.00,14.00,0.00,30.11,M,10.00,M,CLR,M,M,M,M,M,M,M,M,M,M,M,M,M,M,77.00,KRTS 250335Z AUTO 26014KT 10SM CLR 25/M00 A3011 RMK AO2,M
MEV,2024-06-25 03:35,-119.7500,38.9963,1441.42,77.00,46.40,33.85,M,3.00,0.00,30.08,M,10.00,M,CLR,M,M,M,M,M,M,M,M,M,M,M,M,M,M,77.00,KMEV 250335Z AUTO VRB03KT 10SM CLR 25/08 A3008 RMK AO2,M
BAM,2024-06-25 03:35,-116.8743,40.5990,1382.36,82.40,37.40,20.04,250.00,6.00,0.00,29.99,M,10.00,M,CLR,M,M,M,M,M,M,M,M,M,M,M,M,M,M,80.14,KBAM 250335Z AUTO 25006KT 10SM CLR 28/03 A2999 RMK AO1,M
HTH,2024-06-25 03:35,-118.6315,38.5448,1282.89,86.00,41.00,20.54,160.00,10.00,0.00,30.00,M,10.00,18.00,FEW,FEW,SCT,M,6500.00,9000.00,11000.00,M,M,M,M,M,M,M,M,82.86,KHTH 250335Z AUTO 16010G18KT 10SM FEW065 FEW090 SCT110 30/05 A3000 RMK A01,M
10U,2024-06-25 03:35,-116.1876,41.9532,1637.00,71.60,19.40,13.71,270.00,8.00,0.00,30.04,M,10.00,M,CLR,M,M,M,M,M,M,M,M,M,M,M,M,M,M,71.60,K10U 250335Z AUTO 27008KT 10SM CLR 22/M07 A3004 RMK AO2,M
TMT,2024-06-25 03:35,-117.1971,39.4643,1749.34,79.50,37.40,22.03,320.00,6.00,0.00,30.10,M,10.00,M,CLR,M,M,M,M,M,M,M,M,M,M,M,M,M,M,79.50,KTMT 250335Z AUTO 32006KT 10SM CLR 26/03 A3010 RMK AO2 T02640030,M
P68,2024-06-25 03:53,-116.0056,39.6014,1993.00,79.00,27.00,14.73,320.00,8.00,0.00,30.08,1008.50,M,M,M,M,M,M,M,M,M,M,M,M,M,M,M,M,M,79.00,KP68 250353Z AUTO 32008KT 26/M03 A3008 RMK AO1 SLP085 T02611028,M
DRA,2024-06-25 03:53,-116.0278,36.6206,1009.00,94.00,44.00,17.93,330.00,8.00,0.00,29.85,1004.70,10.00,M,CLR,M,M,M,M,M,M,M,M,M,M,M,M,M,M,90.04,KDRA 250353Z AUTO 33008KT 10SM CLR 34/07 A2985 RMK AO2 SLP047 T03440067,M
ELY,2024-06-25 03:53,-114.8453,39.2950,1909.00,72.00,29.00,20.20,190.00,7.00,0.00,30.10,1007.60,10.00,M,CLR,M,M,M,M,M,M,M,M,M,M,M,M,M,M,72.00,KELY 250353Z AUTO 19007KT 10SM CLR 22/M02 A3010 RMK AO2 SLP076 T02221017,M
VGT,2024-06-25 03:53,-115.1933,36.2111,667.00,105.00,44.00,12.85,210.00,7.00,0.00,29.74,1005.00,10.00,M,CLR,M,M,M,M,M,M,M,M,M,M,M,M,M,M,100.64,KVGT 250353Z AUTO 21007KT 10SM CLR 41/07 A2974 RMK AO2 SLP050 T04060067,M
LOL,2024-06-25 03:53,-118.5701,40.0684,1192.43,83.00,33.00,16.50,270.00,7.00,0.00,29.97,1010.10,10.00,M,CLR,M,M,M,M,M,M,M,M,M,M,M,M,M,M,80.43,KLOL 250353Z AUTO 27007KT 10SM CLR 28/01 A2997 RMK AO2 SLP101 T02830006,M
BVU,2024-06-25 03:55,-114.8611,35.9475,671.00,100.40,51.80,19.76,160.00,12.00,0.00,29.75,M,10.00,M,CLR,M,M,M,M,M,M,M,M,M,M,M,M,M,M,97.90,KBVU 250355Z AUTO 16012KT 10SM CLR 38/11 A2975 RMK AO2,M
CXP,2024-06-25 03:55,-119.7326,39.1923,1431.00,78.80,42.80,27.81,M,4.00,0.00,30.09,M,10.00,M,CLR,M,M,M,M,M,M,M,M,M,M,M,M,M,M,78.80,KCXP 250355Z AUTO VRB04KT 10SM CLR 26/06 A3009 RMK AO2,M
RNO,2024-06-25 03:55,-119.7711,39.4839,1341.00,82.00,48.00,30.51,280.00,10.00,0.00,30.05,1011.20,10.00,M,FEW,SCT,M,M,10000.00,25000.00,M,M,M,M,M,M,28.00,280.00,2024-06-25 02:57,80.53,KRNO 250355Z 28010KT 10SM FEW100 SCT250 28/09 A3005 RMK AO2 PK WND 28028/0257 SLP112 T02780089,M
RTS,2024-06-25 03:55,-119.8764,39.6682,1539.00,75.20,32.00,20.49,260.00,11.00,0.00,30.12,M,10.00,M,CLR,M,M,M,M,M,M,M,M,M,M,M,M,M,M,75.20,KRTS 250355Z AUTO 26011KT 10SM CLR 24/M00 A3012 RMK AO2,M
MEV,2024-06-25 03:55,-119.7500,38.9963,1441.42,75.20,46.40,35.94,M,4.00,0.00,30.08,M,10.00,M,CLR,M,M,M,M,M,M,M,M,M,M,M,M,M,M,75.20,KMEV 250355Z AUTO VRB04KT 10SM CLR 24/08 A3008 RMK AO2,M
BAM,2024-06-25 03:55,-116.8743,40.5990,1382.36,78.80,37.40,22.54,270.00,5.00,0.00,29.99,M,10.00,M,CLR,M,M,M,M,M,M,M,M,M,M,M,M,M,M,78.80,KBAM 250355Z AUTO 27005KT 10SM CLR 26/03 A2999 RMK AO1,M
HTH,2024-06-25 03:55,-118.6315,38.5448,1282.89,87.80,39.20,18.09,180.00,8.00,0.00,30.00,M,10.00,15.00,FEW,M,M,M,12000.00,M,M,M,M,M,M,M,M,M,M,84.22,KHTH 250355Z AUTO 18008G15KT 10SM FEW120 31/04 A3000 RMK A01,M
10U,2024-06-25 03:55,-116.1876,41.9532,1637.00,69.80,19.40,14.57,270.00,7.00,0.00,30.04,M,10.00,M,CLR,M,M,M,M,M,M,M,M,M,M,M,M,M,M,69.80,K10U 250355Z AUTO 27007KT 10SM CLR 21/M07 A3004 RMK AO2,M
INS,2024-06-25 03:55,-115.6733,36.5872,955.00,99.00,39.60,12.98,200.00,7.00,0.00,29.83,1004.00,10.00,M,CLR,M,M,M,M,M,M,M,M,M,M,M,M,M,M,94.32,KINS 250355Z AUTO 20007KT 10SM CLR 37/04 A2983 RMK AO2 SLP040 T03720042 $,M
TMT,2024-06-25 03:55,-117.1971,39.4643,1749.34,77.00,37.80,24.31,320.00,4.00,0.00,30.10,M,10.00,M,CLR,M,M,M,M,M,M,M,M,M,M,M,M,M,M,77.00,KTMT 250355Z AUTO 32004KT 10SM CLR 25/03 A3010 RMK AO2 T02510032,M
LSV,2024-06-25 03:55,-115.0343,36.2362,570.00,104.00,36.70,9.97,200.00,6.00,0.00,29.68,1001.80,10.00,M,CLR,M,M,M,M,M,M,M,M,M,M,M,M,M,M,98.05,KLSV 250355Z AUTO 20006KT 10SM CLR 40/03 A2968 RMK AO2 SLP018 T04010026 $,M
EKO,2024-06-25 03:56,-115.7860,40.8242,1367.00,74.00,36.00,25.02,220.00,5.00,0.00,30.01,1009.80,10.00,M,CLR,M,M,M,M,M,M,M,M,M,M,M,M,M,M,74.00,KEKO 250356Z AUTO 22005KT 10SM CLR 23/02 A3001 RMK AO2 SLP098 T02330022,M
WMC,2024-06-25 03:56,-117.8072,40.9019,1315.00,77.00,21.00,12.24,250.00,9.00,0.00,29.97,1009.40,10.00,M,CLR,M,M,M,M,M,M,M,M,M,M,M,M,M,M,77.00,KWMC 250356Z AUTO 25009KT 10SM CLR 25/M06 A2997 RMK AO2 SLP094 T02501061,M
NFL,2024-06-25 03:56,-118.7010,39.4166,1199.00,85.00,46.00,25.69,280.00,8.00,0.00,29.98,1012.30,10.00,M,SCT,SCT,SCT,M,8000.00,15000.00,22000.00,M,M,M,M,M,M,M,M,82.42,KNFL 250356Z 28008KT 10SM SCT080 SCT150 SCT220 29/08 A2998 RMK AO2 SLP123 CB DSNT SE T02940078,M
HND,2024-06-25 03:56,-115.1344,35.9729,742.79,102.00,48.00,16.35,210.00,7.00,0.00,29.81,1006.70,10.00,M,CLR,M,M,M,M,M,M,M,M,M,M,M,M,M,M,98.58,KHND 250356Z AUTO 21007KT 10SM CLR 39/09 A2981 RMK AO2 SLP067 T03890089,M
TPH,2024-06-25 03:56,-117.0904,38.0505,1654.00,81.00,44.00,27.09,250.00,13.00,0.00,30.11,1010.10,10.00,26.00,CLR,M,M,M,M,M,M,M,M,M,M,M,37.00,280.00,2024-06-25 03:05,79.61,KTPH 250356Z AUTO 25013G26KT 10SM CLR 27/07 A3011 RMK AO2 PK WND 28037/0305 SLP101 T02720067,M
LAS,2024-06-25 03:56,-115.1634,36.0719,663.00,106.00,46.00,13.46,220.00,7.00,0.00,29.76,1004.10,10.00,M,FEW,FEW,SCT,M,12000.00,16000.00,25000.00,M,M,M,M,M,M,M,M,102.07,KLAS 250356Z 22007KT 10SM FEW120 FEW160 SCT250 41/08 A2976 RMK AO2 SLP041 T04110078,M
BVU,2024-06-25 04:15,-114.8611,35.9475,671.00,100.40,51.80,19.76,140.00,12.00,0.00,29.76,M,10.00,18.00,CLR,M,M,M,M,M,M,M,M,M,M,M,M,M,M,97.90,KBVU 250415Z AUTO 14012G18KT 10SM CLR 38/11 A2976 RMK AO2,M
CXP,2024-06-25 04:15,-119.7326,39.1923,1431.00,78.80,42.80,27.81,330.00,5.00,0.00,30.09,M,10.00,M,CLR,M,M,M,M,M,M,M,M,M,M,M,M,M,M,78.80,KCXP 250415Z AUTO 33005KT 10SM CLR 26/06 A3009 RMK AO2,M
RTS,2024-06-25 04:15,-119.8764,39.6682,1539.00,75.20,35.60,23.66,250.00,12.00,0.00,30.12,M,10.00,19.00,CLR,M,M,M,M,M,M,M,M,M,M,M,M,M,M,75.20,KRTS 250415Z AUTO 25012G19KT 10SM CLR 24/02 A3012 RMK AO2,M
MEV,2024-06-25 04:15,-119.7500,38.9963,1441.42,75.20,46.40,35.94,70.00,4.00,0.00,30.09,M,10.00,M,CLR,M,M,M,M,M,M,M,M,M,M,M,M,M,M,75.20,KMEV 250415Z AUTO 07004KT 10SM CLR 24/08 A3009 RMK AO2,M
BAM,2024-06-25 04:15,-116.8743,40.5990,1382.36,77.00,37.40,23.93,300.00,7.00,0.00,30.00,M,10.00,M,CLR,M,M,M,M,M,M,M,M,M,M,M,M,M,M,77.00,KBAM 250415Z AUTO 30007KT 10SM CLR 25/03 A3000 RMK AO1,M
HTH,2024-06-25 04:15,-118.6315,38.5448,1282.89,86.00,41.00,20.54,150.00,12.00,0.00,30.01,M,10.00,M,CLR,M,M,M,M,M,M,M,M,M,M,M,M,M,M,82.86,KHTH 250415Z AUTO 15012KT 10SM CLR 30/05 A3001 RMK A01,M
10U,2024-06-25 04:15,-116.1876,41.9532,1637.00,64.40,21.20,18.96,240.00,5.00,0.00,30.05,M,10.00,M,CLR,M,M,M,M,M,M,M,M,M,M,M,M,M,M,64.40,K10U 250415Z AUTO 24005KT 10SM CLR 18/M06 A3005 RMK AO2,M
TMT,2024-06-25 04:15,-117.1971,39.4643,1749.34,69.40,35.00,28.11,140.00,3.00,0.00,30.12,M,10.00,M,CLR,M,M,M,M,M,M,M,M,M,M,M,M,M,M,69.40,KTMT 250415Z AUTO 14003KT 10SM CLR 21/02 A3012 RMK AO2 T02080016,M
BVU,2024-06-25 04:35,-114.8611,35.9475,671.00,100.40,51.80,19.76,150.00,9.00,0.00,29.76,M,10.00,16.00,CLR,M,M,M,M,M,M,M,M,M,M,M,M,M,M,97.90,KBVU 250435Z AUTO 15009G16KT 10SM CLR 38/11 A2976 RMK AO2,M
CXP,2024-06-25 04:35,-119.7326,39.1923,1431.00,78.80,42.80,27.81,0.00,0.00,0.00,30.10,M,10.00,M,CLR,M,M,M,M,M,M,M,M,M,M,M,M,M,M,78.80,KCXP 250435Z AUTO 00000KT 10SM CLR 26/06 A3010 RMK AO2,M
RTS,2024-06-25 04:35,-119.8764,39.6682,1539.00,75.20,35.60,23.66,260.00,12.00,0.00,30.12,M,10.00,18.00,CLR,M,M,M,M,M,M,M,M,M,M,M,M,M,M,75.20,KRTS 250435Z AUTO 26012G18KT 10SM CLR 24/02 A3012 RMK AO2,M
MEV,2024-06-25 04:35,-119.7500,38.9963,1441.42,75.20,44.60,33.57,220.00,4.00,0.00,30.09,M,10.00,M,CLR,M,M,M,M,M,M,M,M,M,M,M,M,M,M,75.20,KMEV 250435Z AUTO 22004KT 10SM CLR 24/07 A3009 RMK AO2,M
BAM,2024-06-25 04:35,-116.8743,40.5990,1382.36,78.80,42.80,27.81,350.00,8.00,0.00,30.00,M,10.00,M,CLR,M,M,M,M,M,M,M,M,M,M,M,M,M,M,78.80,KBAM 250435Z AUTO 35008KT 10SM CLR 26/06 A3000 RMK AO1,M
HTH,2024-06-25 04:35,-118.6315,38.5448,1282.89,82.40,44.60,26.49,140.00,13.00,0.00,30.02,M,10.00,M,CLR,M,M,M,M,M,M,M,M,M,M,M,M,M,M,80.50,KHTH 250435Z AUTO 14013KT 10SM CLR 28/07 A3002 RMK A01,M
10U,2024-06-25 04:35,-116.1876,41.9532,1637.00,62.60,21.20,20.20,160.00,6.00,0.00,30.05,M,10.00,M,CLR,M,M,M,M,M,M,M,M,M,M,M,M,M,M,62.60,K10U 250435Z AUTO 16006KT 10SM CLR 17/M06 A3005 RMK AO2,M
TMT,2024-06-25 04:35,-117.1971,39.4643,1749.34,69.00,34.50,27.93,190.00,4.00,0.00,30.14,M,10.00,M,CLR,M,M,M,M,M,M,M,M,M,M,M,M,M,M,69.00,KTMT 250435Z AUTO 19004KT 10SM CLR 21/01 A3014 RMK AO2 T02060014,M
P68,2024-06-25 04:53,-116.0056,39.6014,1993.00,71.00,31.00,22.67,160.00,3.00,0.00,30.12,1010.40,M,M,M,M,M,M,M,M,M,M,M,M,M,M,M,M,M,71.00,KP68 250453Z AUTO 16003KT 22/M01 A3012 RMK AO1 SLP104 T02171006,M
ELY,2024-06-25 04:53,-114.8453,39.2950,1909.00,71.00,29.00,20.90,170.00,8.00,0.00,30.12,1008.00,10.00,M,CLR,M,M,M,M,M,M,M,M,M,M,M,M,M,M,71.00,KELY 250453Z AUTO 17008KT 10SM CLR 22/M02 A3012 RMK AO2 SLP080 T02171017,M
VGT,2024-06-25 04:53,-115.1933,36.2111,667.00,103.00,46.00,14.71,200.00,6.00,0.00,29.76,1005.70,10.00,M,CLR,M,M,M,M,M,M,M,M,M,M,M,M,M,M,99.14,KVGT 250453Z AUTO 20006KT 10SM CLR 39/08 A2976 RMK AO2 SLP057 T03940078,M
LOL,2024-06-25 04:53,-118.5701,40.0684,1192.43,77.00,34.00,20.91,260.00,10.00,0.00,30.00,1011.20,10.00,M,CLR,M,M,M,M,M,M,M,M,M,M,M,M,M,M,77.00,KLOL 250453Z AUTO 26010KT 10SM CLR 25/01 A3000 RMK AO2 SLP112 T02500011,M
BVU,2024-06-25 04:55,-114.8611,35.9475,671.00,100.40,51.80,19.76,140.00,9.00,0.00,29.77,M,10.00,M,CLR,M,M,M,M,M,M,M,M,M,M,M,M,M,M,97.90,KBVU 250455Z AUTO 14009KT 10SM CLR 38/11 A2977 RMK AO2,M
CXP,2024-06-25 04:55,-119.7326,39.1923,1431.00,78.80,44.60,29.79,M,4.00,0.00,30.10,M,10.00,10.00,CLR,M,M,M,M,M,M,M,M,M,M,M,M,M,M,78.80,KCXP 250455Z AUTO VRB04G10KT 10SM CLR 26/07 A3010 RMK AO2,M
RNO,2024-06-25 04:55,-119.7711,39.4839,1341.00,80.00,47.00,31.37,290.00,14.00,0.00,30.06,1011.40,10.00,M,SCT,M,M,M,25000.00,M,M,M,M,M,M,M,M,M,M,79.28,KRNO 250455Z 29014KT 10SM SCT250 27/08 A3006 RMK AO2 SLP114 T02670083,M
RTS,2024-06-25 04:55,-119.8764,39.6682,1539.00,75.20,37.40,25.40,270.00,13.00,0.00,30.13,M,10.00,20.00,CLR,M,M,M,M,M,M,M,M,M,M,M,M,M,M,75.20,KRTS 250455Z AUTO 27013G20KT 10SM CLR 24/03 A3013 RMK AO2,M
MEV,2024-06-25 04:55,-119.7500,38.9963,1441.42,71.60,50.00,46.43,100.00,5.00,0.00,30.09,M,10.00,M,CLR,M,M,M,M,M,M,M,M,M,M,M,M,M,M,71.60,KMEV 250455Z AUTO 10005KT 10SM CLR 22/10 A3009 RMK AO2,M
BAM,2024-06-25 04:55,-116.8743,40.5990,1382.36,78.80,41.00,25.95,360.00,9.00,0.00,30.01,M,10.00,M,CLR,M,M,M,M,M,M,M,M,M,M,M,M,M,M,78.80,KBAM 250455Z AUTO 36009KT 10SM CLR 26/05 A3001 RMK AO1,M
HTH,2024-06-25 04:55,-118.6315,38.5448,1282.89,82.40,42.80,24.72,140.00,13.00,0.00,30.03,M,10.00,M,CLR,M,M,M,M,M,M,M,M,M,M,M,M,M,M,80.39,KHTH 250455Z AUTO 14013KT 10SM CLR 28/06 A3003 RMK A01,M
10U,2024-06-25 04:55,-116.1876,41.9532,1637.00,59.00,26.60,28.77,150.00,6.00,0.00,30.06,M,10.00,M,CLR,M,M,M,M,M,M,M,M,M,M,M,M,M,M,59.00,K10U 250455Z AUTO 15006KT 10SM CLR 15/M03 A3006 RMK AO2,M
INS,2024-06-25 04:55,-115.6733,36.5872,955.00,95.40,40.30,14.89,250.00,6.00,0.00,29.85,1004.70,10.00,M,CLR,M,M,M,M,M,M,M,M,M,M,M,M,M,M,91.02,KINS 250455Z AUTO 25006KT 10SM CLR 35/05 A2985 RMK AO2 SLP047 T03520046 $,M
TMT,2024-06-25 04:55,-117.1971,39.4643,1749.34,74.00,37.40,26.44,220.00,9.00,0.00,30.16,M,10.00,M,BKN,M,M,M,12000.00,M,M,M,M,M,M,M,M,M,M,74.00,KTMT 250455Z AUTO 22009KT 10SM BKN120 23/03 A3016 RMK AO2 T02330030,M
LSV,2024-06-25 04:55,-115.0343,36.2362,570.00,103.50,41.00,11.97,220.00,3.00,0.00,29.70,1002.40,10.00,M,CLR,M,M,M,M,M,M,M,M,M,M,M,M,M,M,98.53,KLSV 250455Z AUTO 22003KT 10SM CLR 40/05 A2970 RMK AO2 SLP024 T03970049 $,M
EKO,2024-06-25 04:56,-115.7860,40.8242,1367.00,73.00,33.00,22.96,0.00,0.00,0.00,30.03,1010.40,10.00,M,CLR,M,M,M,M,M,M,M,M,M,M,M,M,M,M,73.00,KEKO 250456Z AUTO 00000KT 10SM CLR 23/01 A3003 RMK AO2 SLP104 T02280006,M
WMC,2024-06-25 04:56,-117.8072,40.9019,1315.00,74.00,19.00,12.43,280.00,9.00,0.00,30.00,1010.10,10.00,M,CLR,M,M,M,M,M,M,M,M,M,M,M,M,M,M,74.00,KWMC 250456Z AUTO 28009KT 10SM CLR 23/M07 A3000 RMK AO2 SLP101 T02331072,M
NFL,2024-06-25 04:56,-118.7010,39.4166,1199.00,82.00,47.00,29.39,250.00,7.00,0.00,30.01,1013.30,10.00,M,FEW,SCT,SCT,M,8000.00,18000.00,22000.00,M,M,M,M,M,M,M,M,80.44,KNFL 250456Z 25007KT 10SM FEW080 SCT180 SCT220 28/08 A3001 RMK AO2 SLP133 T02780083,M
HND,2024-06-25 04:56,-115.1344,35.9729,742.79,99.00,49.00,18.58,210.00,8.00,0.00,29.82,1007.30,10.00,M,CLR,M,M,M,M,M,M,M,M,M,M,M,M,M,M,95.75,KHND 250456Z AUTO 21008KT 10SM CLR 37/09 A2982 RMK AO2 SLP073 T03720094,M
TPH,2024-06-25 04:56,-117.0904,38.0505,1654.00,81.00,42.00,25.09,330.00,9.00,0.00,30.12,1010.00,10.00,M,FEW,SCT,BKN,M,5500.00,7000.00,11000.00,M,M,M,M,M,M,M,M,79.48,KTPH 250456Z AUTO 33009KT 10SM FEW055 SCT070 BKN110 27/06 A3012 RMK AO2 SLP100 T02720056,M
LAS,2024-06-25 04:56,-115.1634,36.0719,663.00,104.00,47.00,14.83,220.00,5.00,0.00,29.78,1004.70,10.00,M,FEW,FEW,M,M,12000.00,25000.00,M,M,M,M,M,M,M,M,M,100.35,KLAS 250456Z 22005KT 10SM FEW120 FEW250 40/08 A2978 RMK AO2 SLP047 T04000083,M
10U,2024-06-25 05:10,-116.1876,41.9532,1637.00,60.80,26.60,26.98,160.00,6.00,0.00,30.06,M,10.00,M,CLR,M,M,M,M,M,M,M,M,M,M,M,M,M,M,60.80,K10U 250510Z AUTO 16006KT 10SM CLR 16/M03 A3006 RMK AO2,M
BVU,2024-06-25 05:15,-114.8611,35.9475,671.00,98.60,51.80,20.87,160.00,9.00,0.00,29.78,M,10.00,M,CLR,M,M,M,M,M,M,M,M,M,M,M,M,M,M,96.00,KBVU 250515Z AUTO 16009KT 10SM CLR 37/11 A2978 RMK AO2,M
CXP,2024-06-25 05:15,-119.7326,39.1923,1431.00,77.00,44.60,31.62,M,3.00,0.00,30.11,M,10.00,M,SCT,M,M,M,9000.00,M,M,M,M,M,M,M,M,M,M,77.00,KCXP 250515Z AUTO VRB03KT 10SM SCT090 25/07 A3011 RMK AO2,M
BAM,2024-06-25 05:15,-116.8743,40.5990,1382.36,78.80,35.60,21.00,360.00,8.00,0.00,30.02,M,10.00,M,CLR,M,M,M,M,M,M,M,M,M,M,M,M,M,M,78.80,KBAM 250515Z AUTO 36008KT 10SM CLR 26/02 A3002 RMK AO1,M
HTH,2024-06-25 05:15,-118.6315,38.5448,1282.89,82.40,42.80,24.72,160.00,10.00,0.00,30.03,M,10.00,M,CLR,M,M,M,M,M,M,M,M,M,M,M,M,M,M,80.39,KHTH 250515Z AUTO 16010KT 10SM CLR 28/06 A3003 RMK A01,M
TMT,2024-06-25 05:15,-117.1971,39.4643,1749.34,77.70,40.00,25.88,240.00,10.00,0.00,30.18,M,10.00,M,BKN,M,M,M,11000.00,M,M,M,M,M,M,M,M,M,M,77.70,KTMT 250515Z AUTO 24010KT 10SM BKN110 25/04 A3018 RMK AO2 T02540044,M
BVU,2024-06-25 05:35,-114.8611,35.9475,671.00,98.60,51.80,20.87,160.00,8.00,0.00,29.78,M,10.00,13.00,CLR,M,M,M,M,M,M,M,M,M,M,M,M,M,M,96.00,KBVU 250535Z AUTO 16008G13KT 10SM CLR 37/11 A2978 RMK AO2,M
CXP,2024-06-25 05:35,-119.7326,39.1923,1431.00,78.80,48.20,34.13,250.00,8.00,0.00,30.11,M,10.00,18.00,FEW,M,M,M,9000.00,M,M,M,M,M,M,M,M,M,M,78.80,KCXP 250535Z AUTO 25008G18KT 210V290 10SM FEW090 26/09 A3011 RMK AO2,M
BAM,2024-06-25 05:35,-116.8743,40.5990,1382.36,77.00,33.80,20.74,350.00,10.00,0.00,30.02,M,10.00,M,CLR,M,M,M,M,M,M,M,M,M,M,M,M,M,M,77.00,KBAM 250535Z AUTO 35010KT 10SM CLR 25/01 A3002 RMK AO1,M
HTH,2024-06-25 05:35,-118.6315,38.5448,1282.89,80.60,41.00,24.46,170.00,7.00,0.00,30.04,M,10.00,M,CLR,M,M,M,M,M,M,M,M,M,M,M,M,M,M,79.20,KHTH 250535Z AUTO 17007KT 10SM CLR 27/05 A3004 RMK A01,M
10U,2024-06-25 05:35,-116.1876,41.9532,1637.00,59.00,26.60,28.77,140.00,7.00,0.00,30.06,M,10.00,M,CLR,M,M,M,M,M,M,M,M,M,M,M,M,M,M,59.00,K10U 250535Z AUTO 14007KT 10SM CLR 15/M03 A3006 RMK AO2,M
TMT,2024-06-25 05:35,-117.1971,39.4643,1749.34,75.70,39.00,26.60,250.00,7.00,0.00,30.18,M,10.00,M,SCT,M,M,M,11000.00,M,M,M,M,M,M,M,M,M,M,75.70,KTMT 250535Z AUTO 25007KT 10SM SCT110 24/04 A3018 RMK AO2 T02430038,M
P68,2024-06-25 05:53,-116.0056,39.6014,1993.00,65.00,28.00,24.66,190.00,8.00,0.00,30.13,1011.20,M,M,M,M,M,M,M,M,M,M,M,M,M,M,M,M,M,65.00,KP68 250553Z AUTO 19008KT 18/M02 A3013 RMK AO1 SLP112 T01831022 10344 20183 51020,M
DRA,2024-06-25 05:53,-116.0278,36.6206,1009.00,88.00,44.00,21.63,80.00,4.00,0.00,29.90,1006.20,10.00,M,CLR,M,M,M,M,M,M,M,M,M,M,M,M,M,M,84.65,KDRA 250553Z AUTO 08004KT 10SM CLR 31/07 A2990 RMK AO2 SLP062 T03110067 10406 20311 53017,M
ELY,2024-06-25 05:53,-114.8453,39.2950,1909.00,76.00,30.00,18.40,290.00,5.00,0.00,30.13,1007.60,10.00,M,CLR,M,M,M,M,M,M,M,M,M,M,M,M,M,M,76.00,KELY 250553Z AUTO 29005KT 10SM CLR 24/M01 A3013 RMK AO2 SLP076 T02441011 10339 20211 51012,M
VGT,2024-06-25 05:53,-115.1933,36.2111,667.00,102.00,47.00,15.74,210.00,6.00,0.00,29.77,1005.90,10.00,M,CLR,M,M,M,M,M,M,M,M,M,M,M,M,M,M,98.36,KVGT 250553Z AUTO 21006KT 10SM CLR 39/08 A2977 RMK AO2 SLP059 T03890083 10444 20389 51016,M
LOL,2024-06-25 05:53,-118.5701,40.0684,1192.43,77.00,36.00,22.64,290.00,6.00,0.00,30.01,1011.50,10.00,M,CLR,M,M,M,M,M,M,M,M,M,M,M,M,M,M,77.00,KLOL 250553Z AUTO 29006KT 10SM CLR 25/02 A3001 RMK AO2 SLP115 60000 T02500022 10361 20239 51021,M
BVU,2024-06-25 05:55,-114.8611,35.9475,671.00,96.80,50.00,20.62,M,3.00,0.00,29.79,M,10.00,11.00,CLR,M,M,M,M,M,M,M,M,M,M,M,M,M,M,93.71,KBVU 250555Z AUTO VRB03G11KT 10SM CLR 36/10 A2979 RMK AO2,M
CXP,2024-06-25 05:55,-119.7326,39.1923,1431.00,78.80,48.20,34.13,200.00,3.00,0.00,30.11,M,10.00,M,CLR,M,M,M,M,M,M,M,M,M,M,M,M,M,M,78.80,KCXP 250555Z AUTO 20003KT 10SM CLR 26/09 A3011 RMK AO2,M
RNO,2024-06-25 05:55,-119.7711,39.4839,1341.00,79.00,47.00,32.41,0.00,0.00,0.00,30.08,1011.90,10.00,M,FEW,SCT,M,M,8000.00,20000.00,M,M,M,M,M,M,M,M,M,79.00,KRNO 250555Z 00000KT 10SM FEW080 SCT200 26/08 A3008 RMK AO2 SLP119 T02610083 10339 20256 53015,M
BAM,2024-06-25 05:55,-116.8743,40.5990,1382.36,77.00,32.00,19.30,350.00,8.00,0.00,30.02,M,10.00,M,CLR,M,M,M,M,M,M,M,M,M,M,M,M,M,M,77.00,KBAM 250555Z AUTO 35008KT 10SM CLR 25/00 A3002 RMK AO1,M
HTH,2024-06-25 05:55,-118.6315,38.5448,1282.89,M,M,M,M,M,0.00,M,M,M,M,M,M,M,M,M,M,M,M,M,M,M,M,M,M,M,M,KHTH 250555Z AUTO RMK A01,M
10U,2024-06-25 05:55,-116.1876,41.9532,1637.00,59.00,26.60,28.77,170.00,8.00,0.00,30.06,M,10.00,M,CLR,M,M,M,M,M,M,M,M,M,M,M,M,M,M,59.00,K10U 250555Z AUTO 17008KT 10SM CLR 15/M03 A3006 RMK AO2,M
INS,2024-06-25 05:55,-115.6733,36.5872,955.00,91.00,41.50,17.88,230.00,8.00,0.00,29.86,1005.00,10.00,M,CLR,M,M,M,M,M,M,M,M,M,M,M,M,M,M,87.07,KINS 250555Z AUTO 23008KT 10SM CLR 33/05 A2986 RMK AO2 SLP050 T03270053 10411 20327 52014 $,M
TMT,2024-06-25 05:55,-117.1971,39.4643,1749.34,74.00,42.80,32.62,230.00,4.00,0.00,30.17,M,10.00,M,CLR,M,M,M,M,M,M,M,M,M,M,M,M,M,M,74.00,KTMT 250555Z AUTO 23004KT 10SM CLR 23/06 A3017 RMK AO2 T02340060 10337 20198,M
LSV,2024-06-25 05:55,-115.0343,36.2362,570.00,100.60,42.60,13.89,180.00,7.00,0.00,29.72,1003.10,10.00,M,CLR,M,M,M,M,M,M,M,M,M,M,M,M,M,M,96.20,KLSV 250555Z AUTO 18007KT 10SM CLR 38/06 A2972 RMK AO2 SLP031 T03810059 10440 20381 52017 $,M
EKO,2024-06-25 05:56,-115.7860,40.8242,1367.00,71.00,34.00,25.58,340.00,6.00,0.00,30.05,1010.80,10.00,M,CLR,M,M,M,M,M,M,M,M,M,M,M,M,M,M,71.00,KEKO 250556Z AUTO 34006KT 10SM CLR 22/01 A3005 RMK AO2 SLP108 T02170011 10344 20200 52014,M
WMC,2024-06-25 05:56,-117.8072,40.9019,1315.00,75.00,18.00,11.51,260.00,10.00,0.00,30.01,1010.20,10.00,M,CLR,M,M,M,M,M,M,M,M,M,M,M,M,M,M,75.00,KWMC 250556Z AUTO 26010KT 10SM CLR 24/M08 A3001 RMK AO2 SLP102 T02391078 10361 20228 51014,M
NFL,2024-06-25 05:56,-118.7010,39.4166,1199.00,79.00,48.00,33.66,330.00,4.00,0.00,30.03,1013.70,10.00,M,SCT,SCT,M,M,18000.00,22000.00,M,M,M,M,M,M,M,M,M,79.00,KNFL 250556Z 33004KT 10SM SCT180 SCT220 26/09 A3003 RMK AO2 SLP137 T02610089 10372 20261 51021,M
HND,2024-06-25 05:56,-115.1344,35.9729,742.79,96.00,49.00,20.36,200.00,7.00,0.00,29.83,1007.70,10.00,M,CLR,M,M,M,M,M,M,M,M,M,M,M,M,M,M,92.70,KHND 250556Z AUTO 20007KT 10SM CLR 36/09 A2983 RMK AO2 SLP077 T03560094 10428 20356 51015,M
TPH,2024-06-25 05:56,-117.0904,38.0505,1654.00,80.00,43.00,26.94,310.00,10.00,0.00,30.11,1009.50,10.00,M,FEW,M,M,M,9500.00,M,M,M,M,M,M,M,M,M,M,78.97,KTPH 250556Z AUTO 31010KT 10SM FEW095 27/06 A3011 RMK AO2 SLP095 T02670061 10350 20267 50008,M
LAS,2024-06-25 05:56,-115.1634,36.0719,663.00,102.00,48.00,16.35,210.00,3.00,0.00,29.79,1004.80,10.00,M,FEW,M,M,M,25000.00,M,M,M,M,M,M,M,M,M,M,98.58,KLAS 250556Z 21003KT 10SM FEW250 39/09 A2979 RMK AO2 SLP048 T03890089 10444 20389 51014,M
BVU,2024-06-25 06:15,-114.8611,35.9475,671.00,96.80,50.00,20.62,220.00,4.00,0.00,29.79,M,10.00,M,CLR,M,M,M,M,M,M,M,M,M,M,M,M,M,M,93.71,KBVU 250615Z AUTO 22004KT 10SM CLR 36/10 A2979 RMK AO2,M
CXP,2024-06-25 06:15,-119.7326,39.1923,1431.00,77.00,46.40,33.85,220.00,3.00,0.00,30.11,M,10.00,M,CLR,M,M,M,M,M,M,M,M,M,M,M,M,M,M,77.00,KCXP 250615Z AUTO 22003KT 10SM CLR 25/08 A3011 RMK AO2,M
BAM,2024-06-25 06:15,-116.8743,40.5990,1382.36,75.20,32.00,20.49,200.00,4.00,0.00,30.04,M,10.00,M,CLR,M,M,M,M,M,M,M,M,M,M,M,M,M,M,75.20,KBAM 250615Z AUTO 20004KT 10SM CLR 24/00 A3004 RMK AO1,M
HTH,2024-06-25 06:15,-118.6315,38.5448,1282.89,78.80,41.00,25.95,150.00,8.00,0.00,30.04,M,10.00,M,M,M,M,M,M,M,M,M,M,M,M,M,M,M,M,78.80,KHTH 250615Z AUTO 15008KT 10SM 26/05 A3004 RMK A01,M
10U,2024-06-25 06:15,-116.1876,41.9532,1637.00,59.00,26.60,28.77,140.00,5.00,0.00,30.06,M,10.00,M,CLR,M,M,M,M,M,M,M,M,M,M,M,M,M,M,59.00,K10U 250615Z AUTO 14005KT 10SM CLR 15/M03 A3006 RMK AO2,M
TMT,2024-06-25 06:15,-117.1971,39.4643,1749.34,71.80,42.00,34.07,210.00,3.00,0.00,30.16,M,10.00,M,CLR,M,M,M,M,M,M,M,M,M,M,M,M,M,M,71.80,KTMT 250615Z AUTO 21003KT 10SM CLR 22/06 A3016 RMK AO2 T02210055,M
BVU,2024-06-25 06:35,-114.8611,35.9475,671.00,96.80,51.80,22.04,M,6.00,0.00,29.80,M,10.00,M,CLR,M,M,M,M,M,M,M,M,M,M,M,M,M,M,94.12,KBVU 250635Z AUTO VRB06KT 10SM CLR 36/11 A2980 RMK AO2,M
CXP,2024-06-25 06:35,-119.7326,39.1923,1431.00,75.20,46.40,35.94,M,3.00,0.00,30.11,M,10.00,M,CLR,M,M,M,M,M,M,M,M,M,M,M,M,M,M,75.20,KCXP 250635Z AUTO VRB03KT 10SM CLR 24/08 A3011 RMK AO2,M
BAM,2024-06-25 06:35,-116.8743,40.5990,1382.36,73.40,30.20,20.23,150.00,6.00,0.00,30.04,M,10.00,M,CLR,M,M,M,M,M,M,M,M,M,M,M,M,M,M,73.40,KBAM 250635Z AUTO 15006KT 10SM CLR 23/M01 A3004 RMK AO1,M
HTH,2024-06-25 06:35,-118.6315,38.5448,1282.89,77.00,41.00,27.53,230.00,7.00,0.00,30.04,M,10.00,M,M,M,M,M,M,M,M,M,M,M,M,M,M,M,M,77.00,KHTH 250635Z AUTO 23007KT 10SM 25/05 A3004 RMK A01,M
10U,2024-06-25 06:35,-116.1876,41.9532,1637.00,55.40,26.60,32.76,0.00,0.00,0.00,30.07,M,10.00,M,CLR,M,M,M,M,M,M,M,M,M,M,M,M,M,M,55.40,K10U 250635Z AUTO 00000KT 10SM CLR 13/M03 A3007 RMK AO2,M
TMT,2024-06-25 06:35,-117.1971,39.4643,1749.34,71.00,41.50,34.34,0.00,0.00,0.00,30.16,M,10.00,M,CLR,M,M,M,M,M,M,M,M,M,M,M,M,M,M,71.00,KTMT 250635Z AUTO 00000KT 10SM CLR 22/05 A3016 RMK AO2 T02170053,M
P68,2024-06-25 06:53,-116.0056,39.6014,1993.00,61.00,27.00,27.24,210.00,7.00,0.00,30.14,1011.50,M,M,M,M,M,M,M,M,M,M,M,M,M,M,M,M,M,61.00,KP68 250653Z AUTO 21007KT 16/M03 A3014 RMK AO1 SLP115 T01611028,M
DRA,2024-06-25 06:53,-116.0278,36.6206,1009.00,87.00,45.00,23.20,40.00,7.00,0.00,29.90,1006.10,10.00,M,CLR,M,M,M,M,M,M,M,M,M,M,M,M,M,M,83.90,KDRA 250653Z AUTO 04007KT 10SM CLR 31/07 A2990 RMK AO2 SLP061 T03060072,M
ELY,2024-06-25 06:53,-114.8453,39.2950,1909.00,67.00,28.00,23.01,290.00,6.00,0.00,30.14,1008.80,10.00,M,CLR,M,M,M,M,M,M,M,M,M,M,M,M,M,M,67.00,KELY 250653Z AUTO 29006KT 10SM CLR 19/M02 A3014 RMK AO2 SLP088 T01941022,M
VGT,2024-06-25 06:53,-115.1933,36.2111,667.00,98.00,48.00,18.45,140.00,8.00,0.00,29.78,1006.20,10.00,M,CLR,M,M,M,M,M,M,M,M,M,M,M,M,M,M,94.53,KVGT 250653Z AUTO 14008KT 10SM CLR 37/09 A2978 RMK AO2 SLP062 T03670089,M
LOL,2024-06-25 06:53,-118.5701,40.0684,1192.43,69.00,36.00,29.65,110.00,8.00,0.00,30.02,1012.00,10.00,M,CLR,M,M,M,M,M,M,M,M,M,M,M,M,M,M,69.00,KLOL 250653Z AUTO 11008KT 10SM CLR 21/02 A3002 RMK AO2 SLP120 T02060022,M
BVU,2024-06-25 06:55,-114.8611,35.9475,671.00,96.80,51.80,22.04,190.00,11.00,0.00,29.80,M,10.00,M,CLR,M,M,M,M,M,M,M,M,M,M,M,M,M,M,94.12,KBVU 250655Z AUTO 19011KT 10SM CLR 36/11 A2980 RMK AO2,M
CXP,2024-06-25 06:55,-119.7326,39.1923,1431.00,75.20,48.20,38.46,0.00,0.00,0.00,30.11,M,10.00,M,CLR,M,M,M,M,M,M,M,M,M,M,M,M,M,M,75.20,KCXP 250655Z AUTO 00000KT 10SM CLR 24/09 A3011 RMK AO2,M
RNO,2024-06-25 06:55,-119.7711,39.4839,1341.00,78.00,45.00,31.06,0.00,0.00,0.00,30.08,1011.70,10.00,M,FEW,SCT,M,M,8000.00,20000.00,M,M,M,M,M,M,M,M,M,78.00,KRNO 250655Z 00000KT 10SM FEW080 SCT200 26/07 A3008 RMK AO2 SLP117 T02560072,M
BAM,2024-06-25 06:55,-116.8743,40.5990,1382.36,73.40,30.20,20.23,20.00,3.00,0.00,30.04,M,10.00,M,CLR,M,M,M,M,M,M,M,M,M,M,M,M,M,M,73.40,KBAM 250655Z AUTO 02003KT 10SM CLR 23/M01 A3004 RMK AO1,M
HTH,2024-06-25 06:55,-118.6315,38.5448,1282.89,77.00,41.00,27.53,220.00,7.00,0.00,30.04,M,10.00,M,CLR,M,M,M,M,M,M,M,M,M,M,M,M,M,M,77.00,KHTH 250655Z AUTO 22007KT 10SM CLR 25/05 A3004 RMK A01,M
10U,2024-06-25 06:55,-116.1876,41.9532,1637.00,55.40,26.60,32.76,210.00,5.00,0.00,30.07,M,10.00,M,CLR,M,M,M,M,M,M,M,M,M,M,M,M,M,M,55.40,K10U 250655Z AUTO 21005KT 10SM CLR 13/M03 A3007 RMK AO2,M
INS,2024-06-25 06:55,-115.6733,36.5872,955.00,91.40,42.00,18.00,270.00,7.00,0.00,29.88,1005.70,10.00,M,CLR,M,M,M,M,M,M,M,M,M,M,M,M,M,M,87.47,KINS 250655Z AUTO 27007KT 10SM CLR 33/06 A2988 RMK AO2 SLP057 T03300055 $,M
TMT,2024-06-25 06:55,-117.1971,39.4643,1749.34,71.60,41.00,33.00,0.00,0.00,0.00,30.16,M,10.00,M,CLR,M,M,M,M,M,M,M,M,M,M,M,M,M,M,71.60,KTMT 250655Z AUTO 00000KT 10SM CLR 22/05 A3016 RMK AO2 T02200050,M
LSV,2024-06-25 06:55,-115.0343,36.2362,570.00,99.50,45.30,15.92,180.00,10.00,0.00,29.72,1003.10,10.00,M,CLR,M,M,M,M,M,M,M,M,M,M,M,M,M,M,95.55,KLSV 250655Z AUTO 18010KT 10SM CLR 38/07 A2972 RMK AO2 SLP031 T03750074 $,M
EKO,2024-06-25 06:56,-115.7860,40.8242,1367.00,65.00,36.00,34.05,0.00,0.00,0.00,30.06,1011.30,10.00,M,CLR,M,M,M,M,M,M,M,M,M,M,M,M,M,M,65.00,KEKO 250656Z AUTO 00000KT 10SM CLR 18/02 A3006 RMK AO2 SLP113 T01830022,M
WMC,2024-06-25 06:56,-117.8072,40.9019,1315.00,74.00,19.00,12.43,M,3.00,0.00,30.03,1010.90,10.00,M,CLR,M,M,M,M,M,M,M,M,M,M,M,M,M,M,74.00,KWMC 250656Z AUTO VRB03KT 10SM CLR 23/M07 A3003 RMK AO2 SLP109 T02331072,M
NFL,2024-06-25 06:56,-118.7010,39.4166,1199.00,77.00,46.00,33.34,20.00,3.00,0.00,30.03,1013.70,10.00,M,CLR,M,M,M,M,M,M,M,M,M,M,M,M,M,M,77.00,KNFL 250656Z AUTO 02003KT 10SM CLR 25/08 A3003 RMK AO2 SLP137 T02500078,M
HND,2024-06-25 06:56,-115.1344,35.9729,742.79,96.00,52.00,22.76,200.00,7.00,0.00,29.84,1008.00,10.00,M,CLR,M,M,M,M,M,M,M,M,M,M,M,M,M,M,93.34,KHND 250656Z AUTO 20007KT 10SM CLR 36/11 A2984 RMK AO2 SLP080 T03560111 404330306,M
TPH,2024-06-25 06:56,-117.0904,38.0505,1654.00,79.00,42.00,26.79,350.00,10.00,0.00,30.11,1009.30,10.00,M,CLR,M,M,M,M,M,M,M,M,M,M,M,M,M,M,79.00,KTPH 250656Z AUTO 35010KT 10SM CLR 26/06 A3011 RMK AO2 SLP093 T02610056,M
LAS,2024-06-25 06:56,-115.1634,36.0719,663.00,101.00,50.00,18.15,220.00,5.00,0.00,29.80,1005.20,10.00,M,CLR,M,M,M,M,M,M,M,M,M,M,M,M,M,M,98.04,KLAS 250656Z 22005KT 10SM CLR 38/10 A2980 RMK AO2 SLP052 T03830100,M
TMT,2024-06-25 07:15,-117.1971,39.4643,1749.34,66.00,39.40,37.58,0.00,0.00,0.00,30.16,M,10.00,M,CLR,M,M,M,M,M,M,M,M,M,M,M,M,M,M,66.00,KTMT 250715Z AUTO 00000KT 10SM CLR 19/04 A3016 RMK AO2 T01890041,M
BVU,2024-06-25 07:15,-114.8611,35.9475,671.00,96.80,50.00,20.62,210.00,7.00,0.00,29.80,M,10.00,13.00,CLR,M,M,M,M,M,M,M,M,M,M,M,M,M,M,93.71,KBVU 250715Z AUTO 21007G13KT 10SM CLR 36/10 A2980 RMK AO2,M
CXP,2024-06-25 07:15,-119.7326,39.1923,1431.00,73.40,48.20,40.85,0.00,0.00,0.00,30.11,M,10.00,M,CLR,M,M,M,M,M,M,M,M,M,M,M,M,M,M,73.40,KCXP 250715Z AUTO 00000KT 10SM CLR 23/09 A3011 RMK AO2,M
BAM,2024-06-25 07:15,-116.8743,40.5990,1382.36,73.40,30.20,20.23,0.00,0.00,0.00,30.04,M,10.00,M,CLR,M,M,M,M,M,M,M,M,M,M,M,M,M,M,73.40,KBAM 250715Z AUTO 00000KT 10SM CLR 23/M01 A3004 RMK AO1,M
HTH,2024-06-25 07:15,-118.6315,38.5448,1282.89,77.00,41.00,27.53,150.00,7.00,0.00,30.04,M,10.00,M,CLR,M,M,M,M,M,M,M,M,M,M,M,M,M,M,77.00,KHTH 250715Z AUTO 15007KT 10SM CLR 25/05 A3004 RMK A01,M
10U,2024-06-25 07:15,-116.1876,41.9532,1637.00,53.60,26.60,34.98,200.00,8.00,0.00,30.08,M,10.00,M,CLR,M,M,M,M,M,M,M,M,M,M,M,M,M,M,53.60,K10U 250715Z AUTO 20008KT 10SM CLR 12/M03 A3008 RMK AO2,M
10U,2024-06-25 07:30,-116.1876,41.9532,1637.00,59.00,26.60,28.77,200.00,10.00,0.00,30.08,M,10.00,M,CLR,M,M,M,M,M,M,M,M,M,M,M,M,M,M,59.00,K10U 250730Z AUTO 20010KT 10SM CLR 15/M03 A3008 RMK AO2,M
BVU,2024-06-25 07:35,-114.8611,35.9475,671.00,95.00,50.00,21.79,210.00,6.00,0.00,29.80,M,10.00,M,CLR,M,M,M,M,M,M,M,M,M,M,M,M,M,M,91.89,KBVU 250735Z AUTO 21006KT 10SM CLR 35/10 A2980 RMK AO2,M
CXP,2024-06-25 07:35,-119.7326,39.1923,1431.00,75.20,48.20,38.46,0.00,0.00,0.00,30.11,M,10.00,M,CLR,M,M,M,M,M,M,M,M,M,M,M,M,M,M,75.20,KCXP 250735Z AUTO 00000KT 10SM CLR 24/09 A3011 RMK AO2,M
BAM,2024-06-25 07:35,-116.8743,40.5990,1382.36,64.40,32.00,29.63,150.00,4.00,0.00,30.05,M,10.00,M,CLR,M,M,M,M,M,M,M,M,M,M,M,M,M,M,64.40,KBAM 250735Z AUTO 15004KT 10SM CLR 18/00 A3005 RMK AO1,M
HTH,2024-06-25 07:35,-118.6315,38.5448,1282.89,78.80,42.80,27.81,170.00,7.00,0.00,30.04,M,10.00,M,CLR,M,M,M,M,M,M,M,M,M,M,M,M,M,M,78.80,KHTH 250735Z AUTO 17007KT 10SM CLR 26/06 A3004 RMK A01,M
TMT,2024-06-25 07:35,-117.1971,39.4643,1749.34,65.00,38.30,37.27,170.00,4.00,0.00,30.16,M,10.00,M,CLR,M,M,M,M,M,M,M,M,M,M,M,M,M,M,65.00,KTMT 250735Z AUTO 17004KT 10SM CLR 18/04 A3016 RMK AO2 T01840035,M
P68,2024-06-25 07:53,-116.0056,39.6014,1993.00,74.00,29.00,18.88,280.00,10.00,0.00,30.13,1010.10,M,14.00,M,M,M,M,M,M,M,M,M,M,M,M,M,M,M,74.00,KP68 250753Z AUTO 28010G14KT 23/M02 A3013 RMK AO1 SLP101 T02331017 403440100,M
DRA,2024-06-25 07:53,-116.0278,36.6206,1009.00,86.00,44.00,23.05,350.00,5.00,0.00,29.90,1006.10,10.00,M,CLR,M,M,M,M,M,M,M,M,M,M,M,M,M,M,83.03,KDRA 250753Z AUTO 35005KT 10SM CLR 30/07 A2990 RMK AO2 SLP061 T03000067 404110267,M
ELY,2024-06-25 07:53,-114.8453,39.2950,1909.00,60.00,27.00,28.23,170.00,7.00,0.00,30.15,1009.50,10.00,M,CLR,M,M,M,M,M,M,M,M,M,M,M,M,M,M,60.00,KELY 250753Z AUTO 17007KT 10SM CLR 16/M03 A3015 RMK AO2 SLP095 T01561028 403440094,M
VGT,2024-06-25 07:53,-115.1933,36.2111,667.00,96.00,50.00,21.13,350.00,8.00,0.00,29.78,1006.50,10.00,M,CLR,M,M,M,M,M,M,M,M,M,M,M,M,M,M,92.89,KVGT 250753Z AUTO 35008KT 10SM CLR 36/10 A2978 RMK AO2 SLP065 T03560100 404440328,M
LOL,2024-06-25 07:53,-118.5701,40.0684,1192.43,67.00,39.00,35.74,190.00,6.00,0.00,30.02,1012.10,10.00,M,CLR,M,M,M,M,M,M,M,M,M,M,M,M,M,M,67.00,KLOL 250753Z AUTO 19006KT 10SM CLR 19/04 A3002 RMK AO2 SLP121 T01940039 403720111,M
BVU,2024-06-25 07:55,-114.8611,35.9475,671.00,93.20,50.00,23.04,260.00,3.00,0.00,29.80,M,10.00,M,CLR,M,M,M,M,M,M,M,M,M,M,M,M,M,M,90.10,KBVU 250755Z AUTO 26003KT 10SM CLR 34/10 A2980 RMK AO2,M
CXP,2024-06-25 07:55,-119.7326,39.1923,1431.00,71.60,48.20,43.42,0.00,0.00,0.00,30.11,M,10.00,M,CLR,M,M,M,M,M,M,M,M,M,M,M,M,M,M,71.60,KCXP 250755Z AUTO 00000KT 10SM CLR 22/09 A3011 RMK AO2,M
RNO,2024-06-25 07:55,-119.7711,39.4839,1341.00,75.00,46.00,35.64,70.00,4.00,0.00,30.08,1011.70,10.00,M,FEW,M,M,M,10000.00,M,M,M,M,M,M,M,M,M,M,75.00,KRNO 250755Z 07004KT 10SM FEW100 24/08 A3008 RMK AO2 SLP117 T02390078 403560178,M
BAM,2024-06-25 07:55,-116.8743,40.5990,1382.36,62.60,30.20,29.35,130.00,7.00,0.00,30.05,M,10.00,M,CLR,M,M,M,M,M,M,M,M,M,M,M,M,M,M,62.60,KBAM 250755Z AUTO 13007KT 10SM CLR 17/M01 A3005 RMK AO1,M
HTH,2024-06-25 07:55,-118.6315,38.5448,1282.89,77.00,41.00,27.53,170.00,5.00,0.00,30.04,M,10.00,11.00,CLR,M,M,M,M,M,M,M,M,M,M,M,M,M,M,77.00,KHTH 250755Z AUTO 17005G11KT 10SM CLR 25/05 A3004 RMK A01,M
10U,2024-06-25 07:55,-116.1876,41.9532,1637.00,55.40,26.60,32.76,180.00,6.00,0.00,30.07,M,10.00,M,CLR,M,M,M,M,M,M,M,M,M,M,M,M,M,M,55.40,K10U 250755Z AUTO 18006KT 10SM CLR 13/M03 A3007 RMK AO2,M
INS,2024-06-25 07:55,-115.6733,36.5872,955.00,89.00,44.00,20.96,230.00,4.00,0.00,29.88,1005.70,10.00,M,CLR,M,M,M,M,M,M,M,M,M,M,M,M,M,M,85.50,KINS 250755Z AUTO 23004KT 10SM CLR 32/07 A2988 RMK AO2 SLP057 T03160066 404180289 $,M
TMT,2024-06-25 07:55,-117.1971,39.4643,1749.34,63.70,37.60,37.95,190.00,5.00,0.00,30.16,M,10.00,M,CLR,M,M,M,M,M,M,M,M,M,M,M,M,M,M,63.70,KTMT 250755Z AUTO 19005KT 10SM CLR 18/03 A3016 RMK AO2 T01760031 403410042,M
LSV,2024-06-25 07:55,-115.0343,36.2362,570.00,100.00,47.00,16.72,180.00,12.00,0.00,29.72,1003.00,10.00,M,CLR,M,M,M,M,M,M,M,M,M,M,M,M,M,M,96.35,KLSV 250755Z AUTO 18012KT 10SM CLR 38/08 A2972 RMK AO2 SLP030 T03770084 404420325 $,M
EKO,2024-06-25 07:56,-115.7860,40.8242,1367.00,61.00,38.00,42.40,0.00,0.00,0.00,30.07,1012.00,10.00,M,CLR,M,M,M,M,M,M,M,M,M,M,M,M,M,M,61.00,KEKO 250756Z AUTO 00000KT 10SM CLR 16/03 A3007 RMK AO2 SLP120 T01610033 403440139,M
WMC,2024-06-25 07:56,-117.8072,40.9019,1315.00,76.00,22.00,13.20,30.00,6.00,0.00,30.03,1010.50,10.00,M,CLR,M,M,M,M,M,M,M,M,M,M,M,M,M,M,76.00,KWMC 250756Z AUTO 03006KT 10SM CLR 24/M06 A3003 RMK AO2 SLP105 T02441056 403670122,M
NFL,2024-06-25 07:56,-118.7010,39.4166,1199.00,70.00,43.00,37.64,0.00,0.00,0.00,30.03,1013.80,10.00,M,CLR,M,M,M,M,M,M,M,M,M,M,M,M,M,M,70.00,KNFL 250756Z AUTO 00000KT 10SM CLR 21/06 A3003 RMK AO2 SLP138 T02110061 403720156,M
HND,2024-06-25 07:56,-115.1344,35.9729,742.79,94.00,52.00,24.20,200.00,11.00,0.00,29.85,1008.10,10.00,M,CLR,M,M,M,M,M,M,M,M,M,M,M,M,M,M,91.30,KHND 250756Z AUTO 20011KT 10SM CLR 34/11 A2985 RMK AO2 SLP081 T03440111,M
TPH,2024-06-25 07:56,-117.0904,38.0505,1654.00,77.00,43.00,29.74,330.00,10.00,0.00,30.11,1009.30,10.00,M,CLR,M,M,M,M,M,M,M,M,M,M,M,M,M,M,77.00,KTPH 250756Z AUTO 33010KT 10SM CLR 25/06 A3011 RMK AO2 SLP093 T02500061 403560178,M
LAS,2024-06-25 07:56,-115.1634,36.0719,663.00,99.00,50.00,19.28,190.00,5.00,0.00,29.80,1005.40,10.00,M,CLR,M,M,M,M,M,M,M,M,M,M,M,M,M,M,95.97,KLAS 250756Z 19005KT 10SM CLR 37/10 A2980 RMK AO2 SLP054 T03720100 404440328,M
BVU,2024-06-25 08:15,-114.8611,35.9475,671.00,93.20,50.00,23.04,M,3.00,0.00,29.80,M,10.00,M,CLR,M,M,M,M,M,M,M,M,M,M,M,M,M,M,90.10,KBVU 250815Z AUTO VRB03KT 10SM CLR 34/10 A2980 RMK AO2,M
CXP,2024-06-25 08:15,-119.7326,39.1923,1431.00,69.80,48.20,46.16,0.00,0.00,0.00,30.11,M,10.00,M,CLR,M,M,M,M,M,M,M,M,M,M,M,M,M,M,69.80,KCXP 250815Z AUTO 00000KT 10SM CLR 21/09 A3011 RMK AO2,M
BAM,2024-06-25 08:15,-116.8743,40.5990,1382.36,64.40,28.40,25.60,170.00,3.00,0.00,30.05,M,10.00,M,CLR,M,M,M,M,M,M,M,M,M,M,M,M,M,M,64.40,KBAM 250815Z AUTO 17003KT 10SM CLR 18/M02 A3005 RMK AO1,M
HTH,2024-06-25 08:15,-118.6315,38.5448,1282.89,77.00,41.00,27.53,180.00,9.00,0.00,30.04,M,10.00,M,CLR,M,M,M,M,M,M,M,M,M,M,M,M,M,M,77.00,KHTH 250815Z AUTO 18009KT 10SM CLR 25/05 A3004 RMK A01,M
10U,2024-06-25 08:15,-116.1876,41.9532,1637.00,53.60,26.60,34.98,110.00,6.00,0.00,30.08,M,10.00,M,CLR,M,M,M,M,M,M,M,M,M,M,M,M,M,M,53.60,K10U 250815Z AUTO 11006KT 10SM CLR 12/M03 A3008 RMK AO2,M
TMT,2024-06-25 08:15,-117.1971,39.4643,1749.34,61.50,37.00,40.05,210.00,5.00,0.00,30.16,M,10.00,M,CLR,M,M,M,M,M,M,M,M,M,M,M,M,M,M,61.50,KTMT 250815Z AUTO 21005KT 10SM CLR 16/03 A3016 RMK AO2 T01640027,M
BVU,2024-06-25 08:35,-114.8611,35.9475,671.00,91.40,50.00,24.37,0.00,0.00,0.00,29.80,M,10.00,M,CLR,M,M,M,M,M,M,M,M,M,M,M,M,M,M,88.36,KBVU 250835Z AUTO 00000KT 10SM CLR 33/10 A2980 RMK AO2,M
CXP,2024-06-25 08:35,-119.7326,39.1923,1431.00,71.60,48.20,43.42,0.00,0.00,0.00,30.11,M,10.00,M,CLR,M,M,M,M,M,M,M,M,M,M,M,M,M,M,71.60,KCXP 250835Z AUTO 00000KT 10SM CLR 22/09 A3011 RMK AO2,M
RTS,2024-06-25 08:35,-119.8764,39.6682,1539.00,66.20,37.40,34.51,0.00,0.00,0.00,30.13,M,10.00,M,CLR,M,M,M,M,M,M,M,M,M,M,M,M,M,M,66.20,KRTS 250835Z AUTO 00000KT 10SM CLR 19/03 A3013 RMK AO2,M
MEV,2024-06-25 08:35,-119.7500,38.9963,1441.42,62.60,51.80,67.75,0.00,0.00,0.00,30.09,M,10.00,M,CLR,M,M,M,M,M,M,M,M,M,M,M,M,M,M,62.60,KMEV 250835Z AUTO 00000KT 10SM CLR 17/11 A3009 RMK AO2,M
BAM,2024-06-25 08:35,-116.8743,40.5990,1382.36,62.60,28.40,27.27,150.00,3.00,0.00,30.06,M,10.00,M,CLR,M,M,M,M,M,M,M,M,M,M,M,M,M,M,62.60,KBAM 250835Z AUTO 15003KT 10SM CLR 17/M02 A3006 RMK AO1,M
HTH,2024-06-25 08:35,-118.6315,38.5448,1282.89,75.20,41.00,29.23,220.00,5.00,0.00,30.04,M,10.00,M,CLR,M,M,M,M,M,M,M,M,M,M,M,M,M,M,75.20,KHTH 250835Z AUTO 22005KT 10SM CLR 24/05 A3004 RMK A01,M
10U,2024-06-25 08:35,-116.1876,41.9532,1637.00,57.20,28.40,33.05,140.00,5.00,0.00,30.09,M,10.00,M,CLR,M,M,M,M,M,M,M,M,M,M,M,M,M,M,57.20,K10U 250835Z AUTO 14005KT 10SM CLR 14/M02 A3009 RMK AO2,M
TMT,2024-06-25 08:35,-117.1971,39.4643,1749.34,60.00,37.00,42.24,0.00,0.00,0.00,30.17,M,10.00,M,CLR,M,M,M,M,M,M,M,M,M,M,M,M,M,M,60.00,KTMT 250835Z AUTO 00000KT 10SM CLR 16/03 A3017 RMK AO2 T01550028,M
P68,2024-06-25 08:53,-116.0056,39.6014,1993.00,67.00,30.00,24.97,190.00,4.00,0.00,30.14,1010.70,M,M,M,M,M,M,M,M,M,M,M,M,M,M,M,M,M,67.00,KP68 250853Z AUTO 19004KT 19/M01 A3014 RMK AO1 SLP107 T01941011 53002,M
DRA,2024-06-25 08:53,-116.0278,36.6206,1009.00,83.00,44.00,25.39,40.00,5.00,0.00,29.90,1006.10,10.00,M,CLR,M,M,M,M,M,M,M,M,M,M,M,M,M,M,80.86,KDRA 250853Z AUTO 04005KT 10SM CLR 28/07 A2990 RMK AO2 SLP061 T02830067 52000,M
ELY,2024-06-25 08:53,-114.8453,39.2950,1909.00,59.00,27.00,29.25,160.00,8.00,0.00,30.16,1009.80,10.00,M,CLR,M,M,M,M,M,M,M,M,M,M,M,M,M,M,59.00,KELY 250853Z AUTO 16008KT 10SM CLR 15/M03 A3016 RMK AO2 SLP098 T01501028 51009,M
VGT,2024-06-25 08:53,-115.1933,36.2111,667.00,96.00,49.00,20.36,360.00,4.00,0.00,29.79,1006.60,10.00,M,CLR,M,M,M,M,M,M,M,M,M,M,M,M,M,M,92.70,KVGT 250853Z AUTO 36004KT 10SM CLR 36/09 A2979 RMK AO2 SLP066 T03560094 51006,M
LOL,2024-06-25 08:53,-118.5701,40.0684,1192.43,64.00,38.00,38.15,0.00,0.00,0.00,30.03,1012.30,10.00,M,CLR,M,M,M,M,M,M,M,M,M,M,M,M,M,M,64.00,KLOL 250853Z AUTO 00000KT 10SM CLR 18/03 A3003 RMK AO2 SLP123 T01780033 53003,M
BVU,2024-06-25 08:55,-114.8611,35.9475,671.00,93.20,50.00,23.04,M,5.00,0.00,29.80,M,10.00,M,CLR,M,M,M,M,M,M,M,M,M,M,M,M,M,M,90.10,KBVU 250855Z AUTO VRB05KT 10SM CLR 34/10 A2980 RMK AO2,M
CXP,2024-06-25 08:55,-119.7326,39.1923,1431.00,69.80,48.20,46.16,320.00,3.00,0.00,30.10,M,10.00,M,CLR,M,M,M,M,M,M,M,M,M,M,M,M,M,M,69.80,KCXP 250855Z AUTO 32003KT 10SM CLR 21/09 A3010 RMK AO2,M
RNO,2024-06-25 08:55,-119.7711,39.4839,1341.00,74.00,47.00,38.27,290.00,4.00,0.00,30.07,1011.60,10.00,M,FEW,SCT,M,M,10000.00,16000.00,M,M,M,M,M,M,M,M,M,74.00,KRNO 250855Z 29004KT 10SM FEW100 SCT160 23/08 A3007 RMK AO2 SLP116 T02330083 56002,M
RTS,2024-06-25 08:55,-119.8764,39.6682,1539.00,68.00,39.20,34.80,320.00,5.00,0.00,30.12,M,10.00,M,CLR,M,M,M,M,M,M,M,M,M,M,M,M,M,M,68.00,KRTS 250855Z AUTO 32005KT 10SM CLR 20/04 A3012 RMK AO2,M
MEV,2024-06-25 08:55,-119.7500,38.9963,1441.42,64.40,51.80,63.60,0.00,0.00,0.00,30.09,M,10.00,M,CLR,M,M,M,M,M,M,M,M,M,M,M,M,M,M,64.40,KMEV 250855Z AUTO 00000KT 10SM CLR 18/11 A3009 RMK AO2,M
BAM,2024-06-25 08:55,-116.8743,40.5990,1382.36,60.80,30.20,31.28,0.00,0.00,0.00,30.06,M,10.00,M,CLR,M,M,M,M,M,M,M,M,M,M,M,M,M,M,60.80,KBAM 250855Z AUTO 00000KT 10SM CLR 16/M01 A3006 RMK AO1,M
HTH,2024-06-25 08:55,-118.6315,38.5448,1282.89,77.00,41.00,27.53,260.00,5.00,0.00,30.04,M,10.00,M,CLR,M,M,M,M,M,M,M,M,M,M,M,M,M,M,77.00,KHTH 250855Z AUTO 26005KT 10SM CLR 25/05 A3004 RMK A01,M
10U,2024-06-25 08:55,-116.1876,41.9532,1637.00,57.20,26.60,30.69,170.00,4.00,0.00,30.09,M,10.00,M,CLR,M,M,M,M,M,M,M,M,M,M,M,M,M,M,57.20,K10U 250855Z AUTO 17004KT 10SM CLR 14/M03 A3009 RMK AO2,M
INS,2024-06-25 08:55,-115.6733,36.5872,955.00,88.50,43.50,20.89,0.00,0.00,0.00,29.88,1005.60,10.00,M,CLR,M,M,M,M,M,M,M,M,M,M,M,M,M,M,85.03,KINS 250855Z AUTO 00000KT 10SM CLR 31/06 A2988 RMK AO2 SLP056 T03140064 51006 $,M
TMT,2024-06-25 08:55,-117.1971,39.4643,1749.34,58.00,37.00,45.38,0.00,0.00,0.00,30.17,M,10.00,M,CLR,M,M,M,M,M,M,M,M,M,M,M,M,M,M,58.00,KTMT 250855Z AUTO 00000KT 10SM CLR 14/03 A3017 RMK AO2 T01440028,M
LSV,2024-06-25 08:55,-115.0343,36.2362,570.00,97.00,48.00,19.02,180.00,9.00,0.00,29.73,1003.40,10.00,M,CLR,M,M,M,M,M,M,M,M,M,M,M,M,M,M,93.52,KLSV 250855Z AUTO 18009KT 10SM CLR 36/09 A2973 RMK AO2 SLP034 T03610088 50003 $,M
EKO,2024-06-25 08:56,-115.7860,40.8242,1367.00,58.00,37.00,45.38,0.00,0.00,0.00,30.08,1012.50,10.00,M,CLR,M,M,M,M,M,M,M,M,M,M,M,M,M,M,58.00,KEKO 250856Z AUTO 00000KT 10SM CLR 14/03 A3008 RMK AO2 SLP125 T01440028 53010,M
WMC,2024-06-25 08:56,-117.8072,40.9019,1315.00,67.00,25.00,20.32,220.00,6.00,0.00,30.04,1011.20,10.00,M,CLR,M,M,M,M,M,M,M,M,M,M,M,M,M,M,67.00,KWMC 250856Z AUTO 22006KT 10SM CLR 19/M04 A3004 RMK AO2 SLP112 T01941039 51008,M
NFL,2024-06-25 08:56,-118.7010,39.4166,1199.00,68.00,43.00,40.31,300.00,3.00,0.00,30.02,1013.70,10.00,M,CLR,M,M,M,M,M,M,M,M,M,M,M,M,M,M,68.00,KNFL 250856Z AUTO 30003KT 10SM CLR 20/06 A3002 RMK AO2 SLP137 T02000061 58000,M
HND,2024-06-25 08:56,-115.1344,35.9729,742.79,93.00,53.00,25.90,210.00,10.00,0.00,29.85,1008.30,10.00,M,CLR,M,M,M,M,M,M,M,M,M,M,M,M,M,M,90.52,KHND 250856Z AUTO 21010KT 10SM CLR 34/12 A2985 RMK AO2 SLP083 T03390117 51006,M
TPH,2024-06-25 08:56,-117.0904,38.0505,1654.00,76.00,43.00,30.75,340.00,6.00,0.00,30.10,1009.00,10.00,M,CLR,M,M,M,M,M,M,M,M,M,M,M,M,M,M,76.00,KTPH 250856Z AUTO 34006KT 10SM CLR 24/06 A3010 RMK AO2 SLP090 T02440061 58003,M
LAS,2024-06-25 08:56,-115.1634,36.0719,663.00,98.00,50.00,19.88,190.00,9.00,0.00,29.80,1005.50,10.00,16.00,CLR,M,M,M,M,M,M,M,M,M,M,M,M,M,M,94.94,KLAS 250856Z 19009G16KT 10SM CLR 37/10 A2980 RMK AO2 SLP055 T03670100 51006,M
BVU,2024-06-25 09:15,-114.8611,35.9475,671.00,93.20,50.00,23.04,M,3.00,0.00,29.80,M,10.00,M,CLR,M,M,M,M,M,M,M,M,M,M,M,M,M,M,90.10,KBVU 250915Z AUTO VRB03KT 10SM CLR 34/10 A2980 RMK AO2,M
CXP,2024-06-25 09:15,-119.7326,39.1923,1431.00,71.60,48.20,43.42,0.00,0.00,0.00,30.10,M,10.00,M,CLR,M,M,M,M,M,M,M,M,M,M,M,M,M,M,71.60,KCXP 250915Z AUTO 00000KT 10SM CLR 22/09 A3010 RMK AO2,M
RTS,2024-06-25 09:15,-119.8764,39.6682,1539.00,69.80,41.00,35.09,320.00,4.00,0.00,30.12,M,10.00,10.00,CLR,M,M,M,M,M,M,M,M,M,M,M,M,M,M,69.80,KRTS 250915Z AUTO 32004G10KT 10SM CLR 21/05 A3012 RMK AO2,M
MEV,2024-06-25 09:15,-119.7500,38.9963,1441.42,62.60,51.80,67.75,0.00,0.00,0.00,30.09,M,10.00,M,CLR,M,M,M,M,M,M,M,M,M,M,M,M,M,M,62.60,KMEV 250915Z AUTO 00000KT 10SM CLR 17/11 A3009 RMK AO2,M
BAM,2024-06-25 09:15,-116.8743,40.5990,1382.36,60.80,28.40,29.06,0.00,0.00,0.00,30.06,M,10.00,M,CLR,M,M,M,M,M,M,M,M,M,M,M,M,M,M,60.80,KBAM 250915Z AUTO 00000KT 10SM CLR 16/M02 A3006 RMK AO1,M
HTH,2024-06-25 09:15,-118.6315,38.5448,1282.89,71.60,42.80,35.37,0.00,0.00,0.00,30.05,M,10.00,M,CLR,M,M,M,M,M,M,M,M,M,M,M,M,M,M,71.60,KHTH 250915Z AUTO 00000KT 10SM CLR 22/06 A3005 RMK A01,M
10U,2024-06-25 09:15,-116.1876,41.9532,1637.00,59.00,28.40,30.98,170.00,5.00,0.00,30.10,M,10.00,M,CLR,M,M,M,M,M,M,M,M,M,M,M,M,M,M,59.00,K10U 250915Z AUTO 17005KT 10SM CLR 15/M02 A3010 RMK AO2,M
TMT,2024-06-25 09:15,-117.1971,39.4643,1749.34,53.20,35.00,49.90,0.00,0.00,0.00,30.18,M,10.00,M,CLR,M,M,M,M,M,M,M,M,M,M,M,M,M,M,53.20,KTMT 250915Z AUTO 00000KT 10SM CLR 12/02 A3018 RMK AO2 T01180017,M
BVU,2024-06-25 09:35,-114.8611,35.9475,671.00,91.40,50.00,24.37,0.00,0.00,0.00,29.80,M,10.00,M,CLR,M,M,M,M,M,M,M,M,M,M,M,M,M,M,88.36,KBVU 250935Z AUTO 00000KT 10SM CLR 33/10 A2980 RMK AO2,M
CXP,2024-06-25 09:35,-119.7326,39.1923,1431.00,68.00,48.20,49.10,0.00,0.00,0.00,30.10,M,10.00,M,CLR,M,M,M,M,M,M,M,M,M,M,M,M,M,M,68.00,KCXP 250935Z AUTO 00000KT 10SM CLR 20/09 A3010 RMK AO2,M
RTS,2024-06-25 09:35,-119.8764,39.6682,1539.00,66.20,39.20,37.03,300.00,9.00,0.00,30.12,M,10.00,M,CLR,M,M,M,M,M,M,M,M,M,M,M,M,M,M,66.20,KRTS 250935Z AUTO 30009KT 10SM CLR 19/04 A3012 RMK AO2,M
MEV,2024-06-25 09:35,-119.7500,38.9963,1441.42,62.60,51.80,67.75,0.00,0.00,0.00,30.09,M,10.00,M,CLR,M,M,M,M,M,M,M,M,M,M,M,M,M,M,62.60,KMEV 250935Z AUTO 00000KT 10SM CLR 17/11 A3009 RMK AO2,M
BAM,2024-06-25 09:35,-116.8743,40.5990,1382.36,60.80,28.40,29.06,0.00,0.00,0.00,30.07,M,10.00,M,CLR,M,M,M,M,M,M,M,M,M,M,M,M,M,M,60.80,KBAM 250935Z AUTO 00000KT 10SM CLR 16/M02 A3007 RMK AO1,M
HTH,2024-06-25 09:35,-118.6315,38.5448,1282.89,73.40,42.80,33.29,0.00,0.00,0.00,30.05,M,10.00,M,CLR,M,M,M,M,M,M,M,M,M,M,M,M,M,M,73.40,KHTH 250935Z AUTO 00000KT 10SM CLR 23/06 A3005 RMK A01,M
10U,2024-06-25 09:35,-116.1876,41.9532,1637.00,53.60,26.60,34.98,160.00,4.00,0.00,30.10,M,10.00,M,CLR,M,M,M,M,M,M,M,M,M,M,M,M,M,M,53.60,K10U 250935Z AUTO 16004KT 10SM CLR 12/M03 A3010 RMK AO2,M
TMT,2024-06-25 09:35,-117.1971,39.4643,1749.34,54.70,37.00,51.13,0.00,0.00,0.00,30.18,M,10.00,M,CLR,M,M,M,M,M,M,M,M,M,M,M,M,M,M,54.70,KTMT 250935Z AUTO 00000KT 10SM CLR 13/03 A3018 RMK AO2 T01260027,M
P68,2024-06-25 09:53,-116.0056,39.6014,1993.00,63.00,29.00,27.56,280.00,3.00,0.00,30.16,1011.50,M,M,M,M,M,M,M,M,M,M,M,M,M,M,M,M,M,63.00,KP68 250953Z AUTO 28003KT 17/M02 A3016 RMK AO1 SLP115 T01721017,M
DRA,2024-06-25 09:53,-116.0278,36.6206,1009.00,81.00,44.00,27.09,0.00,0.00,0.00,29.91,1006.50,10.00,M,CLR,M,M,M,M,M,M,M,M,M,M,M,M,M,M,79.61,KDRA 250953Z AUTO 00000KT 10SM CLR 27/07 A2991 RMK AO2 SLP065 T02720067,M
ELY,2024-06-25 09:53,-114.8453,39.2950,1909.00,57.00,28.00,32.75,180.00,10.00,0.00,30.16,1010.20,10.00,M,CLR,M,M,M,M,M,M,M,M,M,M,M,M,M,M,57.00,KELY 250953Z AUTO 18010KT 10SM CLR 14/M02 A3016 RMK AO2 SLP102 T01391022,M
VGT,2024-06-25 09:53,-115.1933,36.2111,667.00,93.00,48.00,21.51,350.00,5.00,0.00,29.79,1006.70,10.00,M,CLR,M,M,M,M,M,M,M,M,M,M,M,M,M,M,89.58,KVGT 250953Z AUTO 35005KT 10SM CLR 34/09 A2979 RMK AO2 SLP067 T03390089,M
LOL,2024-06-25 09:53,-118.5701,40.0684,1192.43,64.00,36.00,35.26,60.00,3.00,0.00,30.03,1012.30,10.00,M,CLR,M,M,M,M,M,M,M,M,M,M,M,M,M,M,64.00,KLOL 250953Z AUTO 06003KT 10SM CLR 18/02 A3003 RMK AO2 SLP123 T01780022,M
BVU,2024-06-25 09:55,-114.8611,35.9475,671.00,89.60,51.80,27.56,0.00,0.00,0.00,29.81,M,10.00,M,CLR,M,M,M,M,M,M,M,M,M,M,M,M,M,M,87.00,KBVU 250955Z AUTO 00000KT 10SM CLR 32/11 A2981 RMK AO2,M
CXP,2024-06-25 09:55,-119.7326,39.1923,1431.00,66.20,50.00,55.88,0.00,0.00,0.00,30.10,M,10.00,M,CLR,M,M,M,M,M,M,M,M,M,M,M,M,M,M,66.20,KCXP 250955Z AUTO 00000KT 10SM CLR 19/10 A3010 RMK AO2,M
RNO,2024-06-25 09:55,-119.7711,39.4839,1341.00,72.00,47.00,40.94,160.00,3.00,0.00,30.07,1011.60,10.00,M,SCT,M,M,M,16000.00,M,M,M,M,M,M,M,M,M,M,72.00,KRNO 250955Z 16003KT 10SM SCT160 22/08 A3007 RMK AO2 SLP116 T02220083,M
RTS,2024-06-25 09:55,-119.8764,39.6682,1539.00,66.20,41.00,39.72,310.00,5.00,0.00,30.12,M,10.00,M,CLR,M,M,M,M,M,M,M,M,M,M,M,M,M,M,66.20,KRTS 250955Z AUTO 31005KT 10SM CLR 19/05 A3012 RMK AO2,M
MEV,2024-06-25 09:55,-119.7500,38.9963,1441.42,60.80,50.00,67.54,0.00,0.00,0.00,30.09,M,10.00,M,CLR,M,M,M,M,M,M,M,M,M,M,M,M,M,M,60.80,KMEV 250955Z AUTO 00000KT 10SM CLR 16/10 A3009 RMK AO2,M
BAM,2024-06-25 09:55,-116.8743,40.5990,1382.36,59.00,30.20,33.35,140.00,3.00,0.00,30.07,M,10.00,M,CLR,M,M,M,M,M,M,M,M,M,M,M,M,M,M,59.00,KBAM 250955Z AUTO 14003KT 10SM CLR 15/M01 A3007 RMK AO1,M
HTH,2024-06-25 09:55,-118.6315,38.5448,1282.89,71.60,42.80,35.37,0.00,0.00,0.00,30.05,M,10.00,M,CLR,M,M,M,M,M,M,M,M,M,M,M,M,M,M,71.60,KHTH 250955Z AUTO 00000KT 10SM CLR 22/06 A3005 RMK A01,M
10U,2024-06-25 09:55,-116.1876,41.9532,1637.00,53.60,28.40,37.67,150.00,7.00,0.00,30.10,M,10.00,M,CLR,M,M,M,M,M,M,M,M,M,M,M,M,M,M,53.60,K10U 250955Z AUTO 15007KT 10SM CLR 12/M02 A3010 RMK AO2,M
TMT,2024-06-25 09:55,-117.1971,39.4643,1749.34,55.20,36.00,48.26,0.00,0.00,0.00,30.18,M,10.00,M,CLR,M,M,M,M,M,M,M,M,M,M,M,M,M,M,55.20,KTMT 250955Z AUTO 00000KT 10SM CLR 13/02 A3018 RMK AO2 T01290022,M
INS,2024-06-25 09:55,-115.6733,36.5872,955.00,82.80,42.30,23.94,260.00,4.00,0.00,29.88,1005.90,10.00,M,FEW,M,M,M,21000.00,M,M,M,M,M,M,M,M,M,M,80.62,KINS 250955Z AUTO 26004KT 10SM FEW210 28/06 A2988 RMK AO2 SLP059 T02820057 $,M
LSV,2024-06-25 09:55,-115.0343,36.2362,570.00,94.50,47.00,19.78,220.00,7.00,0.00,29.73,1003.40,10.00,M,CLR,M,M,M,M,M,M,M,M,M,M,M,M,M,M,90.89,KLSV 250955Z AUTO 22007KT 10SM CLR 35/08 A2973 RMK AO2 SLP034 T03470084 $,M
EKO,2024-06-25 09:56,-115.7860,40.8242,1367.00,58.00,35.00,41.92,360.00,3.00,0.00,30.09,1012.60,10.00,M,CLR,M,M,M,M,M,M,M,M,M,M,M,M,M,M,58.00,KEKO 250956Z AUTO 36003KT 10SM CLR 14/02 A3009 RMK AO2 SLP126 T01440017,M
WMC,2024-06-25 09:56,-117.8072,40.9019,1315.00,61.00,27.00,27.24,M,3.00,0.00,30.04,1011.80,10.00,M,CLR,M,M,M,M,M,M,M,M,M,M,M,M,M,M,61.00,KWMC 250956Z AUTO VRB03KT 10SM CLR 16/M03 A3004 RMK AO2 SLP118 T01611028,M
NFL,2024-06-25 09:56,-118.7010,39.4166,1199.00,68.00,43.00,40.31,0.00,0.00,0.00,30.03,1013.70,10.00,M,CLR,M,M,M,M,M,M,M,M,M,M,M,M,M,M,68.00,KNFL 250956Z AUTO 00000KT 10SM CLR 20/06 A3003 RMK AO2 SLP137 T02000061,M
HND,2024-06-25 09:56,-115.1344,35.9729,742.79,90.00,54.00,29.51,210.00,13.00,0.00,29.85,1008.40,10.00,M,CLR,M,M,M,M,M,M,M,M,M,M,M,M,M,M,87.82,KHND 250956Z AUTO 21013KT 10SM CLR 32/12 A2985 RMK AO2 SLP084 T03220122,M
TPH,2024-06-25 09:56,-117.0904,38.0505,1654.00,72.00,42.00,33.84,20.00,6.00,0.00,30.11,1009.60,10.00,M,CLR,M,M,M,M,M,M,M,M,M,M,M,M,M,M,72.00,KTPH 250956Z AUTO 02006KT 10SM CLR 22/06 A3011 RMK AO2 SLP096 T02220056,M
LAS,2024-06-25 09:56,-115.1634,36.0719,663.00,96.00,52.00,22.76,200.00,8.00,0.00,29.81,1005.60,10.00,17.00,CLR,M,M,M,M,M,M,M,M,M,M,M,M,M,M,93.34,KLAS 250956Z 20008G17KT 10SM CLR 36/11 A2981 RMK AO2 SLP056 T03560111,M
BVU,2024-06-25 10:15,-114.8611,35.9475,671.00,89.60,53.60,29.45,0.00,0.00,0.00,29.81,M,10.00,M,CLR,M,M,M,M,M,M,M,M,M,M,M,M,M,M,87.36,KBVU 251015Z AUTO 00000KT 10SM CLR 32/12 A2981 RMK AO2,M
CXP,2024-06-25 10:15,-119.7326,39.1923,1431.00,66.20,50.00,55.88,0.00,0.00,0.00,30.10,M,10.00,M,CLR,M,M,M,M,M,M,M,M,M,M,M,M,M,M,66.20,KCXP 251015Z AUTO 00000KT 10SM CLR 19/10 A3010 RMK AO2,M
RTS,2024-06-25 10:15,-119.8764,39.6682,1539.00,62.60,37.40,39.14,330.00,9.00,0.00,30.12,M,10.00,M,CLR,M,M,M,M,M,M,M,M,M,M,M,M,M,M,62.60,KRTS 251015Z AUTO 33009KT 10SM CLR 17/03 A3012 RMK AO2,M
MEV,2024-06-25 10:15,-119.7500,38.9963,1441.42,60.80,51.80,72.20,0.00,0.00,0.00,30.09,M,10.00,M,CLR,M,M,M,M,M,M,M,M,M,M,M,M,M,M,60.80,KMEV 251015Z AUTO 00000KT 10SM CLR 16/11 A3009 RMK AO2,M
BAM,2024-06-25 10:15,-116.8743,40.5990,1382.36,59.00,28.40,30.98,160.00,4.00,0.00,30.07,M,10.00,M,CLR,M,M,M,M,M,M,M,M,M,M,M,M,M,M,59.00,KBAM 251015Z AUTO 16004KT 10SM CLR 15/M02 A3007 RMK AO1,M
HTH,2024-06-25 10:15,-118.6315,38.5448,1282.89,71.60,42.80,35.37,0.00,0.00,0.00,30.05,M,10.00,M,CLR,M,M,M,M,M,M,M,M,M,M,M,M,M,M,71.60,KHTH 251015Z AUTO 00000KT 10SM CLR 22/06 A3005 RMK A01,M
10U,2024-06-25 10:15,-116.1876,41.9532,1637.00,55.40,28.40,35.28,160.00,5.00,0.00,30.10,M,10.00,M,CLR,M,M,M,M,M,M,M,M,M,M,M,M,M,M,55.40,K10U 251015Z AUTO 16005KT 10SM CLR 13/M02 A3010 RMK AO2,M
TMT,2024-06-25 10:15,-117.1971,39.4643,1749.34,51.80,33.80,50.08,0.00,0.00,0.00,30.18,M,10.00,M,CLR,M,M,M,M,M,M,M,M,M,M,M,M,M,M,51.80,KTMT 251015Z AUTO 00000KT 10SM CLR 11/01 A3018 RMK AO2 T01100010,M
BVU,2024-06-25 10:35,-114.8611,35.9475,671.00,91.40,51.80,26.05,150.00,3.00,0.00,29.81,M,10.00,M,CLR,M,M,M,M,M,M,M,M,M,M,M,M,M,M,88.69,KBVU 251035Z AUTO 15003KT 10SM CLR 33/11 A2981 RMK AO2,M
CXP,2024-06-25 10:35,-119.7326,39.1923,1431.00,66.20,50.00,55.88,0.00,0.00,0.00,30.10,M,10.00,M,CLR,M,M,M,M,M,M,M,M,M,M,M,M,M,M,66.20,KCXP 251035Z AUTO 00000KT 10SM CLR 19/10 A3010 RMK AO2,M
RTS,2024-06-25 10:35,-119.8764,39.6682,1539.00,62.60,35.60,36.45,330.00,8.00,0.00,30.12,M,10.00,M,CLR,M,M,M,M,M,M,M,M,M,M,M,M,M,M,62.60,KRTS 251035Z AUTO 33008KT 10SM CLR 17/02 A3012 RMK AO2,M
MEV,2024-06-25 10:35,-119.7500,38.9963,1441.42,60.80,51.80,72.20,0.00,0.00,0.00,30.08,M,10.00,M,CLR,M,M,M,M,M,M,M,M,M,M,M,M,M,M,60.80,KMEV 251035Z AUTO 00000KT 10SM CLR 16/11 A3008 RMK AO2,M
BAM,2024-06-25 10:35,-116.8743,40.5990,1382.36,60.80,28.40,29.06,180.00,6.00,0.00,30.07,M,10.00,M,CLR,M,M,M,M,M,M,M,M,M,M,M,M,M,M,60.80,KBAM 251035Z AUTO 18006KT 10SM CLR 16/M02 A3007 RMK AO1,M
HTH,2024-06-25 10:35,-118.6315,38.5448,1282.89,71.60,42.80,35.37,170.00,3.00,0.00,30.05,M,10.00,M,CLR,M,M,M,M,M,M,M,M,M,M,M,M,M,M,71.60,KHTH 251035Z AUTO 17003KT 10SM CLR 22/06 A3005 RMK A01,M
10U,2024-06-25 10:35,-116.1876,41.9532,1637.00,51.80,28.40,40.25,140.00,7.00,0.00,30.11,M,10.00,M,FEW,M,M,M,12000.00,M,M,M,M,M,M,M,M,M,M,51.80,K10U 251035Z AUTO 14007KT 10SM FEW120 11/M02 A3011 RMK AO2,M
TMT,2024-06-25 10:35,-117.1971,39.4643,1749.34,57.00,38.00,48.93,220.00,4.00,0.00,30.18,M,10.00,M,CLR,M,M,M,M,M,M,M,M,M,M,M,M,M,M,57.00,KTMT 251035Z AUTO 22004KT 10SM CLR 14/03 A3018 RMK AO2 T01380033,M
P68,2024-06-25 10:53,-116.0056,39.6014,1993.00,56.00,28.00,33.96,120.00,6.00,0.00,30.16,1012.10,M,M,M,M,M,M,M,M,M,M,M,M,M,M,M,M,M,56.00,KP68 251053Z AUTO 12006KT 13/M02 A3016 RMK AO1 SLP121 T01331022,M
DRA,2024-06-25 10:53,-116.0278,36.6206,1009.00,84.00,45.00,25.54,50.00,3.00,0.00,29.91,1006.50,10.00,M,CLR,M,M,M,M,M,M,M,M,M,M,M,M,M,M,81.61,KDRA 251053Z AUTO 05003KT 10SM CLR 29/07 A2991 RMK AO2 SLP065 T02890072,M
ELY,2024-06-25 10:53,-114.8453,39.2950,1909.00,53.00,28.00,37.88,180.00,8.00,0.00,30.16,1010.70,10.00,M,CLR,M,M,M,M,M,M,M,M,M,M,M,M,M,M,53.00,KELY 251053Z AUTO 18008KT 10SM CLR 12/M02 A3016 RMK AO2 SLP107 T01171022,M
VGT,2024-06-25 10:53,-115.1933,36.2111,667.00,92.00,49.00,23.04,60.00,3.00,0.00,29.80,1007.20,10.00,M,CLR,M,M,M,M,M,M,M,M,M,M,M,M,M,M,88.77,KVGT 251053Z AUTO 06003KT 10SM CLR 33/09 A2980 RMK AO2 SLP072 T03330094,M
LOL,2024-06-25 10:53,-118.5701,40.0684,1192.43,59.00,39.00,47.35,60.00,3.00,0.00,30.02,1012.30,10.00,M,CLR,M,M,M,M,M,M,M,M,M,M,M,M,M,M,59.00,KLOL 251053Z AUTO 06003KT 10SM CLR 15/04 A3002 RMK AO2 SLP123 T01500039,M
BVU,2024-06-25 10:55,-114.8611,35.9475,671.00,86.00,57.20,37.62,10.00,4.00,0.00,29.81,M,10.00,M,CLR,M,M,M,M,M,M,M,M,M,M,M,M,M,M,84.97,KBVU 251055Z AUTO 01004KT 10SM CLR 30/14 A2981 RMK AO2,M
CXP,2024-06-25 10:55,-119.7326,39.1923,1431.00,66.20,50.00,55.88,0.00,0.00,0.00,30.10,M,10.00,M,CLR,M,M,M,M,M,M,M,M,M,M,M,M,M,M,66.20,KCXP 251055Z AUTO 00000KT 10SM CLR 19/10 A3010 RMK AO2,M
RNO,2024-06-25 10:55,-119.7711,39.4839,1341.00,72.00,47.00,40.94,0.00,0.00,0.00,30.07,1011.50,10.00,M,SCT,M,M,M,16000.00,M,M,M,M,M,M,M,M,M,M,72.00,KRNO 251055Z 00000KT 10SM SCT160 22/08 A3007 RMK AO2 SLP115 T02220083,M
RTS,2024-06-25 10:55,-119.8764,39.6682,1539.00,60.80,35.60,38.85,340.00,6.00,0.00,30.12,M,10.00,M,CLR,M,M,M,M,M,M,M,M,M,M,M,M,M,M,60.80,KRTS 251055Z AUTO 34006KT 10SM CLR 16/02 A3012 RMK AO2,M
MEV,2024-06-25 10:55,-119.7500,38.9963,1441.42,59.00,50.00,72.01,0.00,0.00,0.00,30.09,M,10.00,M,CLR,M,M,M,M,M,M,M,M,M,M,M,M,M,M,59.00,KMEV 251055Z AUTO 00000KT 10SM CLR 15/10 A3009 RMK AO2,M
BAM,2024-06-25 10:55,-116.8743,40.5990,1382.36,60.80,28.40,29.06,0.00,0.00,0.00,30.07,M,10.00,M,CLR,M,M,M,M,M,M,M,M,M,M,M,M,M,M,60.80,KBAM 251055Z AUTO 00000KT 10SM CLR 16/M02 A3007 RMK AO1,M
HTH,2024-06-25 10:55,-118.6315,38.5448,1282.89,71.60,42.80,35.37,180.00,4.00,0.00,30.05,M,10.00,M,CLR,M,M,M,M,M,M,M,M,M,M,M,M,M,M,71.60,KHTH 251055Z AUTO 18004KT 10SM CLR 22/06 A3005 RMK A01,M
10U,2024-06-25 10:55,-116.1876,41.9532,1637.00,50.00,28.40,43.03,150.00,9.00,0.00,30.11,M,10.00,M,FEW,M,M,M,12000.00,M,M,M,M,M,M,M,M,M,M,50.00,K10U 251055Z AUTO 15009KT 10SM FEW120 10/M02 A3011 RMK AO2,M
INS,2024-06-25 10:55,-115.6733,36.5872,955.00,82.20,42.80,24.89,320.00,5.00,0.00,29.89,1006.10,10.00,M,BKN,OVC,M,M,19000.00,21000.00,M,M,M,M,M,M,M,M,M,80.26,KINS 251055Z AUTO 32005KT 10SM BKN190 OVC210 28/06 A2989 RMK AO2 SLP061 T02790060 $,M
TMT,2024-06-25 10:55,-117.1971,39.4643,1749.34,53.80,40.00,59.42,230.00,6.00,0.00,30.18,M,10.00,M,CLR,M,M,M,M,M,M,M,M,M,M,M,M,M,M,53.80,KTMT 251055Z AUTO 23006KT 10SM CLR 12/04 A3018 RMK AO2 T01210044,M
LSV,2024-06-25 10:55,-115.0343,36.2362,570.00,92.70,49.50,22.97,190.00,9.00,0.00,29.75,1004.10,10.00,M,CLR,M,M,M,M,M,M,M,M,M,M,M,M,M,M,89.53,KLSV 251055Z AUTO 19009KT 10SM CLR 34/10 A2975 RMK AO2 SLP041 T03370097 $,M
EKO,2024-06-25 10:56,-115.7860,40.8242,1367.00,58.00,37.00,45.38,0.00,0.00,0.00,30.09,1012.90,10.00,M,CLR,M,M,M,M,M,M,M,M,M,M,M,M,M,M,58.00,KEKO 251056Z AUTO 00000KT 10SM CLR 14/03 A3009 RMK AO2 SLP129 T01440028,M
WMC,2024-06-25 10:56,-117.8072,40.9019,1315.00,58.00,25.00,27.91,210.00,5.00,0.00,30.04,1012.10,10.00,M,CLR,M,M,M,M,M,M,M,M,M,M,M,M,M,M,58.00,KWMC 251056Z AUTO 21005KT 10SM CLR 14/M04 A3004 RMK AO2 SLP121 T01441039,M
NFL,2024-06-25 10:56,-118.7010,39.4166,1199.00,66.00,43.00,43.20,0.00,0.00,0.00,30.02,1013.60,10.00,M,CLR,M,M,M,M,M,M,M,M,M,M,M,M,M,M,66.00,KNFL 251056Z AUTO 00000KT 10SM CLR 19/06 A3002 RMK AO2 SLP136 T01890061,M
HND,2024-06-25 10:56,-115.1344,35.9729,742.79,90.00,54.00,29.51,190.00,11.00,0.00,29.86,1008.80,10.00,M,CLR,M,M,M,M,M,M,M,M,M,M,M,M,M,M,87.82,KHND 251056Z AUTO 19011KT 10SM CLR 32/12 A2986 RMK AO2 SLP088 T03220122,M
TPH,2024-06-25 10:56,-117.0904,38.0505,1654.00,69.00,41.00,36.06,360.00,8.00,0.00,30.11,1010.00,10.00,M,CLR,M,M,M,M,M,M,M,M,M,M,M,M,M,M,69.00,KTPH 251056Z AUTO 36008KT 10SM CLR 21/05 A3011 RMK AO2 SLP100 T02060050,M
LAS,2024-06-25 10:56,-115.1634,36.0719,663.00,94.00,53.00,25.11,190.00,7.00,0.00,29.81,1005.90,10.00,M,FEW,M,M,M,15000.00,M,M,M,M,M,M,M,M,M,M,91.53,KLAS 251056Z 19007KT 10SM FEW150 34/12 A2981 RMK AO2 SLP059 T03440117,M
BVU,2024-06-25 11:15,-114.8611,35.9475,671.00,86.00,55.40,35.25,350.00,4.00,0.00,29.81,M,10.00,M,CLR,M,M,M,M,M,M,M,M,M,M,M,M,M,M,84.54,KBVU 251115Z AUTO 35004KT 10SM CLR 30/13 A2981 RMK AO2,M
CXP,2024-06-25 11:15,-119.7326,39.1923,1431.00,66.20,50.00,55.88,0.00,0.00,0.00,30.10,M,10.00,M,CLR,M,M,M,M,M,M,M,M,M,M,M,M,M,M,66.20,KCXP 251115Z AUTO 00000KT 10SM CLR 19/10 A3010 RMK AO2,M
RTS,2024-06-25 11:15,-119.8764,39.6682,1539.00,60.80,37.40,41.71,330.00,6.00,0.00,30.12,M,10.00,M,CLR,M,M,M,M,M,M,M,M,M,M,M,M,M,M,60.80,KRTS 251115Z AUTO 33006KT 10SM CLR 16/03 A3012 RMK AO2,M
MEV,2024-06-25 11:15,-119.7500,38.9963,1441.42,59.00,50.00,72.01,0.00,0.00,0.00,30.09,M,10.00,M,CLR,M,M,M,M,M,M,M,M,M,M,M,M,M,M,59.00,KMEV 251115Z AUTO 00000KT 10SM CLR 15/10 A3009 RMK AO2,M
BAM,2024-06-25 11:15,-116.8743,40.5990,1382.36,59.00,28.40,30.98,90.00,6.00,0.00,30.08,M,10.00,M,CLR,M,M,M,M,M,M,M,M,M,M,M,M,M,M,59.00,KBAM 251115Z AUTO 09006KT 10SM CLR 15/M02 A3008 RMK AO1,M
HTH,2024-06-25 11:15,-118.6315,38.5448,1282.89,69.80,42.80,37.61,250.00,4.00,0.00,30.06,M,10.00,M,CLR,M,M,M,M,M,M,M,M,M,M,M,M,M,M,69.80,KHTH 251115Z AUTO 25004KT 10SM CLR 21/06 A3006 RMK A01,M
10U,2024-06-25 11:15,-116.1876,41.9532,1637.00,51.80,30.20,43.32,140.00,7.00,0.00,30.12,M,10.00,M,CLR,M,M,M,M,M,M,M,M,M,M,M,M,M,M,51.80,K10U 251115Z AUTO 14007KT 10SM CLR 11/M01 A3012 RMK AO2,M
TMT,2024-06-25 11:15,-117.1971,39.4643,1749.34,52.50,39.00,59.94,0.00,0.00,0.00,30.18,M,10.00,M,CLR,M,M,M,M,M,M,M,M,M,M,M,M,M,M,52.50,KTMT 251115Z AUTO 00000KT 10SM CLR 11/04 A3018 RMK AO2 T01140039,M
BVU,2024-06-25 11:35,-114.8611,35.9475,671.00,89.60,51.80,27.56,0.00,0.00,0.00,29.82,M,10.00,M,CLR,M,M,M,M,M,M,M,M,M,M,M,M,M,M,87.00,KBVU 251135Z AUTO 00000KT 10SM CLR 32/11 A2982 RMK AO2,M
CXP,2024-06-25 11:35,-119.7326,39.1923,1431.00,66.20,50.00,55.88,0.00,0.00,0.00,30.10,M,10.00,M,CLR,M,M,M,M,M,M,M,M,M,M,M,M,M,M,66.20,KCXP 251135Z AUTO 00000KT 10SM CLR 19/10 A3010 RMK AO2,M
RTS,2024-06-25 11:35,-119.8764,39.6682,1539.00,60.80,37.40,41.71,350.00,7.00,0.00,30.12,M,10.00,M,CLR,M,M,M,M,M,M,M,M,M,M,M,M,M,M,60.80,KRTS 251135Z AUTO 35007KT 10SM CLR 16/03 A3012 RMK AO2,M
MEV,2024-06-25 11:35,-119.7500,38.9963,1441.42,59.00,51.80,76.98,0.00,0.00,0.00,30.09,M,10.00,M,CLR,M,M,M,M,M,M,M,M,M,M,M,M,M,M,59.00,KMEV 251135Z AUTO 00000KT 10SM CLR 15/11 A3009 RMK AO2,M
BAM,2024-06-25 11:35,-116.8743,40.5990,1382.36,59.00,28.40,30.98,100.00,5.00,0.00,30.08,M,10.00,M,CLR,M,M,M,M,M,M,M,M,M,M,M,M,M,M,59.00,KBAM 251135Z AUTO 10005KT 10SM CLR 15/M02 A3008 RMK AO1,M
HTH,2024-06-25 11:35,-118.6315,38.5448,1282.89,69.80,42.80,37.61,240.00,5.00,0.00,30.06,M,10.00,M,CLR,M,M,M,M,M,M,M,M,M,M,M,M,M,M,69.80,KHTH 251135Z AUTO 24005KT 10SM CLR 21/06 A3006 RMK A01,M
10U,2024-06-25 11:35,-116.1876,41.9532,1637.00,48.20,28.40,46.02,160.00,6.00,0.00,30.12,M,10.00,M,CLR,M,M,M,M,M,M,M,M,M,M,M,M,M,M,45.04,K10U 251135Z AUTO 16006KT 10SM CLR 09/M02 A3012 RMK AO2,M
TMT,2024-06-25 11:35,-117.1971,39.4643,1749.34,53.00,38.30,57.26,280.00,3.00,0.00,30.18,M,10.00,M,CLR,M,M,M,M,M,M,M,M,M,M,M,M,M,M,53.00,KTMT 251135Z AUTO 28003KT 10SM CLR 12/04 A3018 RMK AO2 T01170035,M
P68,2024-06-25 11:53,-116.0056,39.6014,1993.00,54.00,28.00,36.52,160.00,5.00,0.00,30.17,1012.60,M,M,M,M,M,M,M,M,M,M,M,M,M,M,M,M,M,54.00,KP68 251153Z AUTO 16005KT 12/M02 A3017 RMK AO1 SLP126 T01221022 10239 20122 51008,M
DRA,2024-06-25 11:53,-116.0278,36.6206,1009.00,82.00,45.00,27.24,80.00,3.00,0.00,29.92,1006.90,10.00,M,CLR,M,M,M,M,M,M,M,M,M,M,M,M,M,M,80.28,KDRA 251153Z AUTO 08003KT 10SM CLR 28/07 A2992 RMK AO2 SLP069 T02780072 10328 20261 53006,M
ELY,2024-06-25 11:53,-114.8453,39.2950,1909.00,53.00,27.00,36.36,180.00,10.00,0.00,30.18,1011.00,10.00,M,CLR,M,M,M,M,M,M,M,M,M,M,M,M,M,M,53.00,KELY 251153Z AUTO 18010KT 10SM CLR 12/M03 A3018 RMK AO2 SLP110 T01171028 10244 20111 53005,M
VGT,2024-06-25 11:53,-115.1933,36.2111,667.00,91.00,51.00,25.61,0.00,0.00,0.00,29.81,1007.60,10.00,M,CLR,M,M,M,M,M,M,M,M,M,M,M,M,M,M,88.16,KVGT 251153Z AUTO 00000KT 10SM CLR 33/11 A2981 RMK AO2 SLP076 T03280106 10389 20322 53009,M
LOL,2024-06-25 11:53,-118.5701,40.0684,1192.43,59.00,35.00,40.45,0.00,0.00,0.00,30.04,1012.60,10.00,M,CLR,M,M,M,M,M,M,M,M,M,M,M,M,M,M,59.00,KLOL 251153Z AUTO 00000KT 10SM CLR 15/02 A3004 RMK AO2 SLP126 T01500017 10267 20133 53003,M
BVU,2024-06-25 11:55,-114.8611,35.9475,671.00,89.60,50.00,25.79,200.00,3.00,0.00,29.82,M,10.00,M,CLR,M,M,M,M,M,M,M,M,M,M,M,M,M,M,86.70,KBVU 251155Z AUTO 20003KT 10SM CLR 32/10 A2982 RMK AO2,M
CXP,2024-06-25 11:55,-119.7326,39.1923,1431.00,64.40,50.00,59.50,0.00,0.00,0.00,30.10,M,10.00,M,CLR,M,M,M,M,M,M,M,M,M,M,M,M,M,M,64.40,KCXP 251155Z AUTO 00000KT 10SM CLR 18/10 A3010 RMK AO2,M
RNO,2024-06-25 11:55,-119.7711,39.4839,1341.00,71.00,49.00,45.66,0.00,0.00,0.00,30.08,1012.10,10.00,M,CLR,M,M,M,M,M,M,M,M,M,M,M,M,M,M,71.00,KRNO 251155Z 00000KT 10SM CLR 22/09 A3008 RMK AO2 SLP121 T02170094 10256 20217 53002,M
RTS,2024-06-25 11:55,-119.8764,39.6682,1539.00,57.20,37.40,47.44,0.00,0.00,0.00,30.13,M,10.00,M,CLR,M,M,M,M,M,M,M,M,M,M,M,M,M,M,57.20,KRTS 251155Z AUTO 00000KT 10SM CLR 14/03 A3013 RMK AO2,M
MEV,2024-06-25 11:55,-119.7500,38.9963,1441.42,59.00,50.00,72.01,0.00,0.00,0.00,30.09,M,10.00,M,CLR,M,M,M,M,M,M,M,M,M,M,M,M,M,M,59.00,KMEV 251155Z AUTO 00000KT 10SM CLR 15/10 A3009 RMK AO2,M
BAM,2024-06-25 11:55,-116.8743,40.5990,1382.36,59.00,28.40,30.98,140.00,6.00,0.00,30.08,M,10.00,M,CLR,M,M,M,M,M,M,M,M,M,M,M,M,M,M,59.00,KBAM 251155Z AUTO 14006KT 10SM CLR 15/M02 A3008 RMK AO1,M
HTH,2024-06-25 11:55,-118.6315,38.5448,1282.89,69.80,42.80,37.61,220.00,4.00,0.00,30.06,M,10.00,M,CLR,M,M,M,M,M,M,M,M,M,M,M,M,M,M,69.80,KHTH 251155Z AUTO 22004KT 10SM CLR 21/06 A3006 RMK A01,M
10U,2024-06-25 11:55,-116.1876,41.9532,1637.00,48.20,30.20,49.53,140.00,7.00,0.00,30.13,M,10.00,M,CLR,M,M,M,M,M,M,M,M,M,M,M,M,M,M,44.53,K10U 251155Z AUTO 14007KT 10SM CLR 09/M01 A3013 RMK AO2,M
INS,2024-06-25 11:55,-115.6733,36.5872,955.00,84.40,43.70,23.99,0.00,0.00,0.00,29.90,1006.40,10.00,M,OVC,M,M,M,19000.00,M,M,M,M,M,M,M,M,M,M,81.81,KINS 251155Z AUTO 00000KT 10SM OVC190 29/07 A2990 RMK AO2 SLP064 T02910065 10346 20267 53006 $,M
TMT,2024-06-25 11:55,-117.1971,39.4643,1749.34,53.20,38.50,57.29,270.00,3.00,0.00,30.18,M,10.00,M,CLR,M,M,M,M,M,M,M,M,M,M,M,M,M,M,53.20,KTMT 251155Z AUTO 27003KT 10SM CLR 12/04 A3018 RMK AO2 T01180036 10230 20099,M
LSV,2024-06-25 11:55,-115.0343,36.2362,570.00,91.00,50.00,24.68,210.00,6.00,0.00,29.77,1004.90,10.00,M,CLR,M,M,M,M,M,M,M,M,M,M,M,M,M,M,87.99,KLSV 251155Z AUTO 21006KT 10SM CLR 33/10 A2977 RMK AO2 SLP049 T03270101 10385 20327 52012 $,M
EKO,2024-06-25 11:56,-115.7860,40.8242,1367.00,62.00,31.00,30.96,0.00,0.00,0.00,30.11,1013.00,10.00,M,CLR,M,M,M,M,M,M,M,M,M,M,M,M,M,M,62.00,KEKO 251156Z AUTO 00000KT 10SM CLR 17/M01 A3011 RMK AO2 SLP130 T01671006 10217 20133 53008,M
WMC,2024-06-25 11:56,-117.8072,40.9019,1315.00,56.00,29.00,35.38,160.00,3.00,0.00,30.06,1012.50,10.00,M,CLR,M,M,M,M,M,M,M,M,M,M,M,M,M,M,56.00,KWMC 251156Z AUTO 16003KT 10SM CLR 13/M02 A3006 RMK AO2 SLP125 T01331017 10261 20128 53006,M
NFL,2024-06-25 11:56,-118.7010,39.4166,1199.00,63.00,43.00,47.97,160.00,5.00,0.00,30.03,1013.90,10.00,M,CLR,M,M,M,M,M,M,M,M,M,M,M,M,M,M,63.00,KNFL 251156Z AUTO 16005KT 10SM CLR 17/06 A3003 RMK AO2 SLP139 T01720061 10261 20172 53002,M
HND,2024-06-25 11:56,-115.1344,35.9729,742.79,91.00,53.00,27.57,180.00,12.00,0.00,29.87,1008.90,10.00,M,CLR,M,M,M,M,M,M,M,M,M,M,M,M,M,M,88.55,KHND 251156Z AUTO 18012KT 10SM CLR 33/12 A2987 RMK AO2 SLP089 T03280117 10367 20322 53005,M
TPH,2024-06-25 11:56,-117.0904,38.0505,1654.00,66.00,41.00,39.99,350.00,10.00,0.00,30.12,1010.80,10.00,M,CLR,M,M,M,M,M,M,M,M,M,M,M,M,M,M,66.00,KTPH 251156Z AUTO 35010KT 10SM CLR 19/05 A3012 RMK AO2 SLP108 T01890050 10267 20189 51007,M
LAS,2024-06-25 11:56,-115.1634,36.0719,663.00,93.00,53.00,25.90,190.00,8.00,0.00,29.83,1006.40,10.00,M,FEW,SCT,M,M,15000.00,20000.00,M,M,M,M,M,M,M,M,M,90.52,KLAS 251156Z 19008KT 10SM FEW150 SCT200 34/12 A2983 RMK AO2 SLP064 T03390117 10389 20339 53007,M
BVU,2024-06-25 12:15,-114.8611,35.9475,671.00,89.60,50.00,25.79,170.00,4.00,0.00,29.83,M,10.00,M,CLR,M,M,M,M,M,M,M,M,M,M,M,M,M,M,86.70,KBVU 251215Z AUTO 17004KT 10SM CLR 32/10 A2983 RMK AO2,M
CXP,2024-06-25 12:15,-119.7326,39.1923,1431.00,64.40,50.00,59.50,0.00,0.00,0.00,30.11,M,10.00,M,CLR,M,M,M,M,M,M,M,M,M,M,M,M,M,M,64.40,KCXP 251215Z AUTO 00000KT 10SM CLR 18/10 A3011 RMK AO2,M
RTS,2024-06-25 12:15,-119.8764,39.6682,1539.00,62.60,39.20,42.00,20.00,6.00,0.00,30.13,M,10.00,M,CLR,M,M,M,M,M,M,M,M,M,M,M,M,M,M,62.60,KRTS 251215Z AUTO 02006KT 10SM CLR 17/04 A3013 RMK AO2,M
MEV,2024-06-25 12:15,-119.7500,38.9963,1441.42,59.00,50.00,72.01,0.00,0.00,0.00,30.09,M,10.00,M,CLR,M,M,M,M,M,M,M,M,M,M,M,M,M,M,59.00,KMEV 251215Z AUTO 00000KT 10SM CLR 15/10 A3009 RMK AO2,M
BAM,2024-06-25 12:15,-116.8743,40.5990,1382.36,57.20,28.40,33.05,200.00,3.00,0.00,30.09,M,10.00,M,CLR,M,M,M,M,M,M,M,M,M,M,M,M,M,M,57.20,KBAM 251215Z AUTO 20003KT 10SM CLR 14/M02 A3009 RMK AO1,M
HTH,2024-06-25 12:15,-118.6315,38.5448,1282.89,69.80,44.60,40.29,200.00,5.00,0.00,30.07,M,10.00,M,CLR,M,M,M,M,M,M,M,M,M,M,M,M,M,M,69.80,KHTH 251215Z AUTO 20005KT 10SM CLR 21/07 A3007 RMK A01,M
10U,2024-06-25 12:15,-116.1876,41.9532,1637.00,48.20,30.20,49.53,140.00,6.00,0.00,30.13,M,10.00,M,CLR,M,M,M,M,M,M,M,M,M,M,M,M,M,M,45.04,K10U 251215Z AUTO 14006KT 10SM CLR 09/M01 A3013 RMK AO2,M
TMT,2024-06-25 12:15,-117.1971,39.4643,1749.34,45.70,33.40,61.92,0.00,0.00,0.00,30.19,M,10.00,M,CLR,M,M,M,M,M,M,M,M,M,M,M,M,M,M,45.70,KTMT 251215Z AUTO 00000KT 10SM CLR 08/01 A3019 RMK AO2 T00760008,M
BVU,2024-06-25 12:35,-114.8611,35.9475,671.00,86.00,55.40,35.25,0.00,0.00,0.00,29.83,M,10.00,M,CLR,M,M,M,M,M,M,M,M,M,M,M,M,M,M,84.54,KBVU 251235Z AUTO 00000KT 10SM CLR 30/13 A2983 RMK AO2,M
CXP,2024-06-25 12:35,-119.7326,39.1923,1431.00,64.40,50.00,59.50,0.00,0.00,0.00,30.11,M,10.00,M,CLR,M,M,M,M,M,M,M,M,M,M,M,M,M,M,64.40,KCXP 251235Z AUTO 00000KT 10SM CLR 18/10 A3011 RMK AO2,M
RTS,2024-06-25 12:35,-119.8764,39.6682,1539.00,60.80,41.00,48.00,0.00,0.00,0.00,30.13,M,10.00,M,CLR,M,M,M,M,M,M,M,M,M,M,M,M,M,M,60.80,KRTS 251235Z AUTO 00000KT 10SM CLR 16/05 A3013 RMK AO2,M
MEV,2024-06-25 12:35,-119.7500,38.9963,1441.42,60.80,51.80,72.20,0.00,0.00,0.00,30.10,M,10.00,M,CLR,M,M,M,M,M,M,M,M,M,M,M,M,M,M,60.80,KMEV 251235Z AUTO 00000KT 10SM CLR 16/11 A3010 RMK AO2,M
BAM,2024-06-25 12:35,-116.8743,40.5990,1382.36,57.20,30.20,35.57,0.00,0.00,0.00,30.09,M,10.00,M,CLR,M,M,M,M,M,M,M,M,M,M,M,M,M,M,57.20,KBAM 251235Z AUTO 00000KT 10SM CLR 14/M01 A3009 RMK AO1,M
HTH,2024-06-25 12:35,-118.6315,38.5448,1282.89,69.80,44.60,40.29,210.00,4.00,0.00,30.07,M,10.00,M,CLR,M,M,M,M,M,M,M,M,M,M,M,M,M,M,69.80,KHTH 251235Z AUTO 21004KT 10SM CLR 21/07 A3007 RMK A01,M
10U,2024-06-25 12:35,-116.1876,41.9532,1637.00,48.20,30.20,49.53,160.00,7.00,0.00,30.14,M,10.00,M,CLR,M,M,M,M,M,M,M,M,M,M,M,M,M,M,44.53,K10U 251235Z AUTO 16007KT 10SM CLR 09/M01 A3014 RMK AO2,M
TMT,2024-06-25 12:35,-117.1971,39.4643,1749.34,45.00,32.00,60.11,170.00,4.00,0.00,30.19,M,10.00,M,CLR,M,M,M,M,M,M,M,M,M,M,M,M,M,M,42.60,KTMT 251235Z AUTO 17004KT 10SM CLR 07/00 A3019 RMK AO2 T00730000,M
DRA,2024-06-25 12:53,-116.0278,36.6206,1009.00,81.00,45.00,28.15,30.00,5.00,0.00,29.93,1007.50,10.00,M,CLR,M,M,M,M,M,M,M,M,M,M,M,M,M,M,79.68,KDRA 251253Z AUTO 03005KT 10SM CLR 27/07 A2993 RMK AO2 SLP075 T02720072,M
ELY,2024-06-25 12:53,-114.8453,39.2950,1909.00,53.00,30.00,41.11,180.00,9.00,0.00,30.19,1011.50,10.00,M,CLR,M,M,M,M,M,M,M,M,M,M,M,M,M,M,53.00,KELY 251253Z AUTO 18009KT 10SM CLR 12/M01 A3019 RMK AO2 SLP115 T01171011,M
P68,2024-06-25 12:53,-116.0056,39.6014,1993.00,57.00,28.00,32.75,170.00,5.00,0.00,30.18,1012.80,M,M,M,M,M,M,M,M,M,M,M,M,M,M,M,M,M,57.00,KP68 251253Z AUTO 17005KT 14/M02 A3018 RMK AO1 SLP128 T01391022,M
VGT,2024-06-25 12:53,-115.1933,36.2111,667.00,88.00,52.00,29.21,350.00,4.00,0.00,29.83,1008.30,10.00,M,CLR,M,M,M,M,M,M,M,M,M,M,M,M,M,M,85.60,KVGT 251253Z AUTO 35004KT 10SM CLR 31/11 A2983 RMK AO2 SLP083 T03110111,M
LOL,2024-06-25 12:53,-118.5701,40.0684,1192.43,58.00,34.00,40.28,0.00,0.00,0.00,30.04,1013.10,10.00,M,CLR,M,M,M,M,M,M,M,M,M,M,M,M,M,M,58.00,KLOL 251253Z AUTO 00000KT 10SM CLR 14/01 A3004 RMK AO2 SLP131 T01440011,M
BVU,2024-06-25 12:55,-114.8611,35.9475,671.00,89.60,51.80,27.56,0.00,0.00,0.00,29.84,M,10.00,M,CLR,M,M,M,M,M,M,M,M,M,M,M,M,M,M,87.00,KBVU 251255Z AUTO 00000KT 10SM CLR 32/11 A2984 RMK AO2,M
CXP,2024-06-25 12:55,-119.7326,39.1923,1431.00,64.40,51.80,63.60,0.00,0.00,0.00,30.11,M,10.00,M,CLR,M,M,M,M,M,M,M,M,M,M,M,M,M,M,64.40,KCXP 251255Z AUTO 00000KT 10SM CLR 18/11 A3011 RMK AO2,M
RNO,2024-06-25 12:55,-119.7711,39.4839,1341.00,69.00,49.00,48.88,0.00,0.00,0.00,30.08,1012.40,10.00,M,FEW,BKN,M,M,8000.00,13000.00,M,M,M,M,M,M,M,M,M,69.00,KRNO 251255Z 00000KT 10SM FEW080 BKN130 21/09 A3008 RMK AO2 SLP124 T02060094,M
RTS,2024-06-25 12:55,-119.8764,39.6682,1539.00,59.00,39.20,47.72,0.00,0.00,0.00,30.13,M,10.00,M,CLR,M,M,M,M,M,M,M,M,M,M,M,M,M,M,59.00,KRTS 251255Z AUTO 00000KT 10SM CLR 15/04 A3013 RMK AO2,M
MEV,2024-06-25 12:55,-119.7500,38.9963,1441.42,59.00,51.80,76.98,0.00,0.00,0.00,30.10,M,10.00,M,CLR,M,M,M,M,M,M,M,M,M,M,M,M,M,M,59.00,KMEV 251255Z AUTO 00000KT 10SM CLR 15/11 A3010 RMK AO2,M
BAM,2024-06-25 12:55,-116.8743,40.5990,1382.36,57.20,30.20,35.57,0.00,0.00,0.00,30.09,M,10.00,M,CLR,M,M,M,M,M,M,M,M,M,M,M,M,M,M,57.20,KBAM 251255Z AUTO 00000KT 10SM CLR 14/M01 A3009 RMK AO1,M
HTH,2024-06-25 12:55,-118.6315,38.5448,1282.89,69.80,46.40,43.13,0.00,0.00,0.00,30.08,M,10.00,M,CLR,M,M,M,M,M,M,M,M,M,M,M,M,M,M,69.80,KHTH 251255Z AUTO 00000KT 10SM CLR 21/08 A3008 RMK A01,M
10U,2024-06-25 12:55,-116.1876,41.9532,1637.00,51.80,32.00,46.59,150.00,6.00,0.00,30.14,M,10.00,M,CLR,M,M,M,M,M,M,M,M,M,M,M,M,M,M,51.80,K10U 251255Z AUTO 15006KT 10SM CLR 11/M00 A3014 RMK AO2,M
INS,2024-06-25 12:55,-115.6733,36.5872,955.00,81.00,43.00,26.08,0.00,0.00,0.00,29.92,1007.30,10.00,M,CLR,M,M,M,M,M,M,M,M,M,M,M,M,M,M,79.54,KINS 251255Z AUTO 00000KT 10SM CLR 27/06 A2992 RMK AO2 SLP073 T02730061 $,M
TMT,2024-06-25 12:55,-117.1971,39.4643,1749.34,49.00,35.60,59.70,0.00,0.00,0.00,30.20,M,10.00,M,CLR,M,M,M,M,M,M,M,M,M,M,M,M,M,M,49.00,KTMT 251255Z AUTO 00000KT 10SM CLR 10/02 A3020 RMK AO2 T00950020,M
LSV,2024-06-25 12:55,-115.0343,36.2362,570.00,89.40,50.00,25.95,70.00,3.00,0.00,29.78,1005.20,10.00,M,CLR,M,M,M,M,M,M,M,M,M,M,M,M,M,M,86.51,KLSV 251255Z AUTO 07003KT 10SM CLR 32/10 A2978 RMK AO2 SLP052 T03190100 $,M
EKO,2024-06-25 12:56,-115.7860,40.8242,1367.00,58.00,36.00,43.62,90.00,6.00,0.00,30.12,1013.80,10.00,M,CLR,M,M,M,M,M,M,M,M,M,M,M,M,M,M,58.00,KEKO 251256Z AUTO 09006KT 10SM CLR 14/02 A3012 RMK AO2 SLP138 T01440022,M
WMC,2024-06-25 12:56,-117.8072,40.9019,1315.00,56.00,30.00,36.85,0.00,0.00,0.00,30.07,1013.20,10.00,M,CLR,M,M,M,M,M,M,M,M,M,M,M,M,M,M,56.00,KWMC 251256Z AUTO 00000KT 10SM CLR 13/M01 A3007 RMK AO2 SLP132 T01331011,M
NFL,2024-06-25 12:56,-118.7010,39.4166,1199.00,64.00,45.00,49.99,180.00,3.00,0.00,30.04,1014.20,10.00,M,CLR,M,M,M,M,M,M,M,M,M,M,M,M,M,M,64.00,KNFL 251256Z AUTO 18003KT 10SM CLR 18/07 A3004 RMK AO2 SLP142 T01780072,M
HND,2024-06-25 12:56,-115.1344,35.9729,742.79,90.00,53.00,28.45,210.00,12.00,0.00,29.88,1009.40,10.00,M,CLR,M,M,M,M,M,M,M,M,M,M,M,M,M,M,87.60,KHND 251256Z AUTO 21012KT 10SM CLR 32/12 A2988 RMK AO2 SLP094 T03220117,M
TPH,2024-06-25 12:56,-117.0904,38.0505,1654.00,68.00,41.00,37.32,340.00,10.00,0.00,30.14,1011.20,10.00,M,CLR,M,M,M,M,M,M,M,M,M,M,M,M,M,M,68.00,KTPH 251256Z AUTO 34010KT 10SM CLR 20/05 A3014 RMK AO2 SLP112 T02000050,M
LAS,2024-06-25 12:56,-115.1634,36.0719,663.00,93.00,53.00,25.90,200.00,4.00,0.00,29.85,1007.00,10.00,M,SCT,M,M,M,19000.00,M,M,M,M,M,M,M,M,M,M,90.52,KLAS 251256Z 20004KT 10SM SCT190 34/12 A2985 RMK AO2 SLP070 T03390117,M
BVU,2024-06-25 13:15,-114.8611,35.9475,671.00,87.80,55.40,33.29,0.00,0.00,0.00,29.84,M,10.00,M,CLR,M,M,M,M,M,M,M,M,M,M,M,M,M,M,86.11,KBVU 251315Z AUTO 00000KT 10SM CLR 31/13 A2984 RMK AO2,M
CXP,2024-06-25 13:15,-119.7326,39.1923,1431.00,64.40,51.80,63.60,110.00,3.00,0.00,30.12,M,10.00,M,CLR,M,M,M,M,M,M,M,M,M,M,M,M,M,M,64.40,KCXP 251315Z AUTO 11003KT 10SM CLR 18/11 A3012 RMK AO2,M
RTS,2024-06-25 13:15,-119.8764,39.6682,1539.00,59.00,39.20,47.72,0.00,0.00,0.00,30.14,M,10.00,M,CLR,M,M,M,M,M,M,M,M,M,M,M,M,M,M,59.00,KRTS 251315Z AUTO 00000KT 10SM CLR 15/04 A3014 RMK AO2,M
MEV,2024-06-25 13:15,-119.7500,38.9963,1441.42,60.80,51.80,72.20,0.00,0.00,0.00,30.11,M,10.00,M,CLR,M,M,M,M,M,M,M,M,M,M,M,M,M,M,60.80,KMEV 251315Z AUTO 00000KT 10SM CLR 16/11 A3011 RMK AO2,M
BAM,2024-06-25 13:15,-116.8743,40.5990,1382.36,60.80,30.20,31.28,0.00,0.00,0.00,30.10,M,10.00,M,CLR,M,M,M,M,M,M,M,M,M,M,M,M,M,M,60.80,KBAM 251315Z AUTO 00000KT 10SM CLR 16/M01 A3010 RMK AO1,M
HTH,2024-06-25 13:15,-118.6315,38.5448,1282.89,71.60,46.40,40.57,0.00,0.00,0.00,30.08,M,10.00,M,CLR,M,M,M,M,M,M,M,M,M,M,M,M,M,M,71.60,KHTH 251315Z AUTO 00000KT 10SM CLR 22/08 A3008 RMK A01,M
10U,2024-06-25 13:15,-116.1876,41.9532,1637.00,55.40,33.80,43.90,130.00,4.00,0.00,30.14,M,10.00,M,CLR,M,M,M,M,M,M,M,M,M,M,M,M,M,M,55.40,K10U 251315Z AUTO 13004KT 10SM CLR 13/01 A3014 RMK AO2,M
TMT,2024-06-25 13:15,-117.1971,39.4643,1749.34,52.00,38.70,60.35,0.00,0.00,0.00,30.20,M,10.00,M,CLR,M,M,M,M,M,M,M,M,M,M,M,M,M,M,52.00,KTMT 251315Z AUTO 00000KT 10SM CLR 11/04 A3020 RMK AO2 T01110037,M
NFL,2024-06-25 13:34,-118.7010,39.4166,1199.00,69.00,46.00,43.67,200.00,3.00,0.00,30.05,M,10.00,M,FEW,BKN,BKN,M,8000.00,12000.00,21000.00,M,M,M,M,M,M,M,M,69.00,KNFL 251334Z 20003KT 10SM FEW080 BKN120 BKN210 21/08 A3005 RMK AO2 T02060078,M
BVU,2024-06-25 13:35,-114.8611,35.9475,671.00,89.60,55.40,31.45,0.00,0.00,0.00,29.84,M,10.00,M,CLR,M,M,M,M,M,M,M,M,M,M,M,M,M,M,87.78,KBVU 251335Z AUTO 00000KT 10SM CLR 32/13 A2984 RMK AO2,M
CXP,2024-06-25 13:35,-119.7326,39.1923,1431.00,66.20,51.80,59.74,0.00,0.00,0.00,30.12,M,10.00,M,CLR,M,M,M,M,M,M,M,M,M,M,M,M,M,M,66.20,KCXP 251335Z AUTO 00000KT 10SM CLR 19/11 A3012 RMK AO2,M
RTS,2024-06-25 13:35,-119.8764,39.6682,1539.00,62.60,41.00,45.04,0.00,0.00,0.00,30.14,M,10.00,M,CLR,M,M,M,M,M,M,M,M,M,M,M,M,M,M,62.60,KRTS 251335Z AUTO 00000KT 10SM CLR 17/05 A3014 RMK AO2,M
MEV,2024-06-25 13:35,-119.7500,38.9963,1441.42,62.60,53.60,72.38,0.00,0.00,0.00,30.11,M,10.00,M,CLR,M,M,M,M,M,M,M,M,M,M,M,M,M,M,62.60,KMEV 251335Z AUTO 00000KT 10SM CLR 17/12 A3011 RMK AO2,M
BAM,2024-06-25 13:35,-116.8743,40.5990,1382.36,62.60,32.00,31.56,0.00,0.00,0.00,30.11,M,10.00,M,CLR,M,M,M,M,M,M,M,M,M,M,M,M,M,M,62.60,KBAM 251335Z AUTO 00000KT 10SM CLR 17/00 A3011 RMK AO1,M
HTH,2024-06-25 13:35,-118.6315,38.5448,1282.89,68.00,44.60,42.85,0.00,0.00,0.00,30.09,M,10.00,M,CLR,M,M,M,M,M,M,M,M,M,M,M,M,M,M,68.00,KHTH 251335Z AUTO 00000KT 10SM CLR 20/07 A3009 RMK A01,M
10U,2024-06-25 13:35,-116.1876,41.9532,1637.00,60.80,33.80,36.16,130.00,5.00,0.00,30.14,M,10.00,M,CLR,M,M,M,M,M,M,M,M,M,M,M,M,M,M,60.80,K10U 251335Z AUTO 13005KT 10SM CLR 16/01 A3014 RMK AO2,M
TMT,2024-06-25 13:35,-117.1971,39.4643,1749.34,54.70,38.70,54.66,0.00,0.00,0.00,30.20,M,10.00,M,CLR,M,M,M,M,M,M,M,M,M,M,M,M,M,M,54.70,KTMT 251335Z AUTO 00000KT 10SM CLR 13/04 A3020 RMK AO2 T01260037,M
P68,2024-06-25 13:53,-116.0056,39.6014,1993.00,64.00,30.00,27.71,0.00,0.00,0.00,30.19,1012.70,M,M,M,M,M,M,M,M,M,M,M,M,M,M,M,M,M,64.00,KP68 251353Z AUTO 00000KT 18/M01 A3019 RMK AO1 SLP127 T01781011,M
DRA,2024-06-25 13:53,-116.0278,36.6206,1009.00,87.00,46.00,24.10,0.00,0.00,0.00,29.95,1007.80,10.00,M,CLR,M,M,M,M,M,M,M,M,M,M,M,M,M,M,83.98,KDRA 251353Z AUTO 00000KT 10SM CLR 31/08 A2995 RMK AO2 SLP078 T03060078,M
ELY,2024-06-25 13:53,-114.8453,39.2950,1909.00,59.00,32.00,35.87,190.00,7.00,0.00,30.20,1011.60,10.00,M,CLR,M,M,M,M,M,M,M,M,M,M,M,M,M,M,59.00,KELY 251353Z AUTO 19007KT 10SM CLR 15/00 A3020 RMK AO2 SLP116 T01500000,M
VGT,2024-06-25 13:53,-115.1933,36.2111,667.00,92.00,54.00,27.72,340.00,5.00,0.00,29.85,1008.80,10.00,M,CLR,M,M,M,M,M,M,M,M,M,M,M,M,M,M,89.76,KVGT 251353Z 34005KT 10SM CLR 33/12 A2985 RMK AO2 SLP088 T03330122,M
LOL,2024-06-25 13:53,-118.5701,40.0684,1192.43,65.00,37.00,35.42,0.00,0.00,0.00,30.06,1013.40,10.00,M,CLR,M,M,M,M,M,M,M,M,M,M,M,M,M,M,65.00,KLOL 251353Z AUTO 00000KT 10SM CLR 18/03 A3006 RMK AO2 SLP134 T01830028,M
BVU,2024-06-25 13:55,-114.8611,35.9475,671.00,91.40,55.40,29.72,0.00,0.00,0.00,29.85,M,10.00,M,CLR,M,M,M,M,M,M,M,M,M,M,M,M,M,M,89.53,KBVU 251355Z AUTO 00000KT 10SM CLR 33/13 A2985 RMK AO2,M
CXP,2024-06-25 13:55,-119.7326,39.1923,1431.00,69.80,51.80,52.77,340.00,3.00,0.00,30.13,M,10.00,M,CLR,M,M,M,M,M,M,M,M,M,M,M,M,M,M,69.80,KCXP 251355Z AUTO 34003KT 10SM CLR 21/11 A3013 RMK AO2,M
RNO,2024-06-25 13:55,-119.7711,39.4839,1341.00,71.00,51.00,49.18,0.00,0.00,0.00,30.10,1012.90,10.00,M,FEW,BKN,BKN,M,8000.00,13000.00,18000.00,M,M,M,M,M,M,M,M,71.00,KRNO 251355Z 00000KT 10SM FEW080 BKN130 BKN180 22/11 A3010 RMK AO2 SLP129 T02170106,M
RTS,2024-06-25 13:55,-119.8764,39.6682,1539.00,66.20,42.80,42.57,0.00,0.00,0.00,30.15,M,10.00,M,CLR,M,M,M,M,M,M,M,M,M,M,M,M,M,M,66.20,KRTS 251355Z AUTO 00000KT 10SM CLR 19/06 A3015 RMK AO2,M
MEV,2024-06-25 13:55,-119.7500,38.9963,1441.42,66.20,53.60,63.82,0.00,0.00,0.00,30.11,M,10.00,M,CLR,M,M,M,M,M,M,M,M,M,M,M,M,M,M,66.20,KMEV 251355Z AUTO 00000KT 10SM CLR 19/12 A3011 RMK AO2,M
BAM,2024-06-25 13:55,-116.8743,40.5990,1382.36,66.20,32.00,27.83,0.00,0.00,0.00,30.11,M,10.00,M,CLR,M,M,M,M,M,M,M,M,M,M,M,M,M,M,66.20,KBAM 251355Z AUTO 00000KT 10SM CLR 19/00 A3011 RMK AO1,M
HTH,2024-06-25 13:55,-118.6315,38.5448,1282.89,73.40,46.40,38.18,0.00,0.00,0.00,30.10,M,10.00,M,CLR,M,M,M,M,M,M,M,M,M,M,M,M,M,M,73.40,KHTH 251355Z AUTO 00000KT 10SM CLR 23/08 A3010 RMK A01,M
10U,2024-06-25 13:55,-116.1876,41.9532,1637.00,64.40,33.80,31.85,130.00,5.00,0.00,30.15,M,10.00,M,CLR,M,M,M,M,M,M,M,M,M,M,M,M,M,M,64.40,K10U 251355Z AUTO 13005KT 10SM CLR 18/01 A3015 RMK AO2,M
TMT,2024-06-25 13:55,-117.1971,39.4643,1749.34,57.60,39.40,50.57,0.00,0.00,0.00,30.21,M,10.00,M,CLR,M,M,M,M,M,M,M,M,M,M,M,M,M,M,57.60,KTMT 251355Z AUTO 00000KT 10SM CLR 14/04 A3021 RMK AO2 T01420041,M
INS,2024-06-25 13:55,-115.6733,36.5872,955.00,86.40,43.00,21.91,320.00,3.00,0.00,29.93,1007.50,10.00,M,FEW,M,M,M,21000.00,M,M,M,M,M,M,M,M,M,M,83.28,KINS 251355Z AUTO 32003KT 10SM FEW210 30/06 A2993 RMK AO2 SLP075 T03020061 $,M
LSV,2024-06-25 13:55,-115.0343,36.2362,570.00,94.30,54.00,25.81,110.00,4.00,0.00,29.80,1005.80,10.00,M,CLR,M,M,M,M,M,M,M,M,M,M,M,M,M,M,92.09,KLSV 251355Z AUTO 11004KT 10SM CLR 35/12 A2980 RMK AO2 SLP058 T03460123 $,M
EKO,2024-06-25 13:56,-115.7860,40.8242,1367.00,63.00,35.00,35.10,100.00,5.00,0.00,30.13,1014.10,10.00,M,SCT,M,M,M,12000.00,M,M,M,M,M,M,M,M,M,M,63.00,KEKO 251356Z AUTO 10005KT 10SM SCT120 17/02 A3013 RMK AO2 SLP141 T01720017,M
WMC,2024-06-25 13:56,-117.8072,40.9019,1315.00,67.00,31.00,26.00,0.00,0.00,0.00,30.08,1012.80,10.00,M,CLR,M,M,M,M,M,M,M,M,M,M,M,M,M,M,67.00,KWMC 251356Z AUTO 00000KT 10SM CLR 19/M01 A3008 RMK AO2 SLP128 T01941006,M
HND,2024-06-25 13:56,-115.1344,35.9729,742.79,93.00,54.00,26.87,200.00,13.00,0.00,29.89,1009.70,10.00,M,CLR,M,M,M,M,M,M,M,M,M,M,M,M,M,M,90.76,KHND 251356Z 20013KT 10SM CLR 34/12 A2989 RMK AO2 SLP097 T03390122,M
TPH,2024-06-25 13:56,-117.0904,38.0505,1654.00,71.00,41.00,33.68,340.00,6.00,T,30.15,1011.80,7.00,M,FEW,BKN,M,M,9000.00,11000.00,M,M,M,M,M,M,M,M,M,71.00,KTPH 251356Z AUTO 34006KT 7SM FEW090 BKN110 22/05 A3015 RMK AO2 RAB19E28 SLP118 P0000 T02170050,M
LAS,2024-06-25 13:56,-115.1634,36.0719,663.00,94.00,50.00,22.48,270.00,4.00,0.00,29.86,1007.70,10.00,M,SCT,M,M,M,19000.00,M,M,M,M,M,M,M,M,M,M,90.89,KLAS 251356Z 27004KT 10SM SCT190 34/10 A2986 RMK AO2 SLP077 T03440100,M
NFL,2024-06-25 13:56,-118.7010,39.4166,1199.00,70.00,46.00,42.20,0.00,0.00,0.00,30.06,1014.60,9.00,M,FEW,BKN,BKN,M,8000.00,12000.00,21000.00,M,M,M,M,M,M,M,M,70.00,KNFL 251356Z 00000KT 9SM FEW080 BKN120 BKN210 21/08 A3006 RMK AO2 SLP146 T02110078,M
BVU,2024-06-25 14:15,-114.8611,35.9475,671.00,93.20,51.80,24.63,180.00,4.00,0.00,29.86,M,10.00,M,CLR,M,M,M,M,M,M,M,M,M,M,M,M,M,M,90.45,KBVU 251415Z AUTO 18004KT 10SM CLR 34/11 A2986 RMK AO2,M
CXP,2024-06-25 14:15,-119.7326,39.1923,1431.00,69.80,51.80,52.77,0.00,0.00,0.00,30.13,M,10.00,M,CLR,M,M,M,M,M,M,M,M,M,M,M,M,M,M,69.80,KCXP 251415Z AUTO 00000KT 10SM CLR 21/11 A3013 RMK AO2,M
RTS,2024-06-25 14:15,-119.8764,39.6682,1539.00,68.00,42.80,40.00,0.00,0.00,0.00,30.15,M,10.00,M,CLR,M,M,M,M,M,M,M,M,M,M,M,M,M,M,68.00,KRTS 251415Z AUTO 00000KT 10SM CLR 20/06 A3015 RMK AO2,M
MEV,2024-06-25 14:15,-119.7500,38.9963,1441.42,66.20,53.60,63.82,0.00,0.00,0.00,30.12,M,10.00,M,CLR,M,M,M,M,M,M,M,M,M,M,M,M,M,M,66.20,KMEV 251415Z AUTO 00000KT 10SM CLR 19/12 A3012 RMK AO2,M
BAM,2024-06-25 14:15,-116.8743,40.5990,1382.36,69.80,32.00,24.59,0.00,0.00,0.00,30.11,M,10.00,M,CLR,M,M,M,M,M,M,M,M,M,M,M,M,M,M,69.80,KBAM 251415Z AUTO 00000KT 10SM CLR 21/00 A3011 RMK AO1,M
HTH,2024-06-25 14:15,-118.6315,38.5448,1282.89,75.20,46.40,35.94,0.00,0.00,0.00,30.10,M,10.00,M,CLR,M,M,M,M,M,M,M,M,M,M,M,M,M,M,75.20,KHTH 251415Z AUTO 00000KT 10SM CLR 24/08 A3010 RMK A01,M
10U,2024-06-25 14:15,-116.1876,41.9532,1637.00,68.00,33.80,28.11,140.00,4.00,0.00,30.15,M,10.00,M,CLR,M,M,M,M,M,M,M,M,M,M,M,M,M,M,68.00,K10U 251415Z AUTO 14004KT 10SM CLR 20/01 A3015 RMK AO2,M
TMT,2024-06-25 14:15,-117.1971,39.4643,1749.34,60.40,39.60,46.11,0.00,0.00,0.00,30.21,M,10.00,M,CLR,M,M,M,M,M,M,M,M,M,M,M,M,M,M,60.40,KTMT 251415Z AUTO 00000KT 10SM CLR 16/04 A3021 RMK AO2 T01580042,M
BVU,2024-06-25 14:35,-114.8611,35.9475,671.00,95.00,51.80,23.30,160.00,6.00,0.00,29.86,M,10.00,M,CLR,M,M,M,M,M,M,M,M,M,M,M,M,M,M,92.26,KBVU 251435Z AUTO 16006KT 10SM CLR 35/11 A2986 RMK AO2,M
CXP,2024-06-25 14:35,-119.7326,39.1923,1431.00,69.80,51.80,52.77,0.00,0.00,0.00,30.13,M,10.00,M,CLR,M,M,M,M,M,M,M,M,M,M,M,M,M,M,69.80,KCXP 251435Z AUTO 00000KT 10SM CLR 21/11 A3013 RMK AO2,M
RTS,2024-06-25 14:35,-119.8764,39.6682,1539.00,68.00,42.80,40.00,0.00,0.00,0.00,30.15,M,10.00,M,CLR,M,M,M,M,M,M,M,M,M,M,M,M,M,M,68.00,KRTS 251435Z AUTO 00000KT 10SM CLR 20/06 A3015 RMK AO2,M
MEV,2024-06-25 14:35,-119.7500,38.9963,1441.42,66.20,53.60,63.82,0.00,0.00,0.00,30.12,M,10.00,M,CLR,M,M,M,M,M,M,M,M,M,M,M,M,M,M,66.20,KMEV 251435Z AUTO 00000KT 10SM CLR 19/12 A3012 RMK AO2,M
BAM,2024-06-25 14:35,-116.8743,40.5990,1382.36,73.40,32.00,21.76,0.00,0.00,0.00,30.12,M,10.00,M,CLR,M,M,M,M,M,M,M,M,M,M,M,M,M,M,73.40,KBAM 251435Z AUTO 00000KT 10SM CLR 23/00 A3012 RMK AO1,M
HTH,2024-06-25 14:35,-118.6315,38.5448,1282.89,78.80,46.40,31.90,0.00,0.00,0.00,30.10,M,10.00,M,CLR,M,M,M,M,M,M,M,M,M,M,M,M,M,M,78.80,KHTH 251435Z AUTO 00000KT 10SM CLR 26/08 A3010 RMK A01,M
10U,2024-06-25 14:35,-116.1876,41.9532,1637.00,69.80,33.80,26.43,130.00,4.00,0.00,30.15,M,10.00,M,CLR,M,M,M,M,M,M,M,M,M,M,M,M,M,M,69.80,K10U 251435Z AUTO 13004KT 10SM CLR 21/01 A3015 RMK AO2,M
TMT,2024-06-25 14:35,-117.1971,39.4643,1749.34,64.20,40.50,41.76,0.00,0.00,0.00,30.21,M,10.00,M,CLR,M,M,M,M,M,M,M,M,M,M,M,M,M,M,64.20,KTMT 251435Z AUTO 00000KT 10SM CLR 18/05 A3021 RMK AO2 T01790047,M
P68,2024-06-25 14:53,-116.0056,39.6014,1993.00,75.00,28.00,17.53,0.00,0.00,0.00,30.20,1012.40,M,M,M,M,M,M,M,M,M,M,M,M,M,M,M,M,M,75.00,KP68 251453Z AUTO 00000KT 24/M02 A3020 RMK AO1 SLP124 T02391022 51008,M
DRA,2024-06-25 14:53,-116.0278,36.6206,1009.00,91.00,49.00,23.77,M,6.00,0.00,29.96,1008.20,10.00,M,CLR,M,M,M,M,M,M,M,M,M,M,M,M,M,M,87.83,KDRA 251453Z AUTO VRB06KT 10SM CLR 33/09 A2996 RMK AO2 SLP082 T03280094 51013,M
ELY,2024-06-25 14:53,-114.8453,39.2950,1909.00,71.00,34.00,25.58,170.00,7.00,0.00,30.21,1011.30,10.00,M,CLR,M,M,M,M,M,M,M,M,M,M,M,M,M,M,71.00,KELY 251453Z AUTO 17007KT 10SM CLR 22/01 A3021 RMK AO2 SLP113 T02170011 51008,M
VGT,2024-06-25 14:53,-115.1933,36.2111,667.00,95.00,54.00,25.26,0.00,0.00,0.00,29.86,1009.30,10.00,M,CLR,M,M,M,M,M,M,M,M,M,M,M,M,M,M,92.82,KVGT 251453Z 00000KT 10SM CLR 35/12 A2986 RMK AO2 SLP093 T03500122 51016,M
LOL,2024-06-25 14:53,-118.5701,40.0684,1192.43,73.00,39.00,29.12,160.00,3.00,0.00,30.07,1013.40,10.00,M,CLR,M,M,M,M,M,M,M,M,M,M,M,M,M,M,73.00,KLOL 251453Z AUTO 16003KT 10SM CLR 23/04 A3007 RMK AO2 SLP134 T02280039 51009,M
BVU,2024-06-25 14:55,-114.8611,35.9475,671.00,96.80,55.40,25.15,160.00,11.00,0.00,29.87,M,10.00,M,CLR,M,M,M,M,M,M,M,M,M,M,M,M,M,M,95.14,KBVU 251455Z AUTO 16011KT 10SM CLR 36/13 A2987 RMK AO2,M
CXP,2024-06-25 14:55,-119.7326,39.1923,1431.00,71.60,53.60,53.03,0.00,0.00,0.00,30.14,M,10.00,M,CLR,M,M,M,M,M,M,M,M,M,M,M,M,M,M,71.60,KCXP 251455Z AUTO 00000KT 10SM CLR 22/12 A3014 RMK AO2,M
RNO,2024-06-25 14:55,-119.7711,39.4839,1341.00,73.00,52.00,47.69,310.00,3.00,0.00,30.11,1013.40,10.00,M,FEW,BKN,BKN,M,8000.00,11000.00,16000.00,M,M,M,M,M,M,M,M,73.00,KRNO 251455Z 31003KT 10SM FEW080 BKN110 BKN160 23/11 A3011 RMK AO2 SLP134 VIRGA T02280111 53010,M
RTS,2024-06-25 14:55,-119.8764,39.6682,1539.00,69.80,44.60,40.29,0.00,0.00,0.00,30.16,M,10.00,M,CLR,M,M,M,M,M,M,M,M,M,M,M,M,M,M,69.80,KRTS 251455Z AUTO 00000KT 10SM CLR 21/07 A3016 RMK AO2,M
MEV,2024-06-25 14:55,-119.7500,38.9963,1441.42,68.00,53.60,59.97,0.00,0.00,0.00,30.13,M,10.00,M,FEW,M,M,M,12000.00,M,M,M,M,M,M,M,M,M,M,68.00,KMEV 251455Z AUTO 00000KT 10SM FEW120 20/12 A3013 RMK AO2,M
BAM,2024-06-25 14:55,-116.8743,40.5990,1382.36,73.40,32.00,21.76,0.00,0.00,0.00,30.12,M,10.00,M,CLR,M,M,M,M,M,M,M,M,M,M,M,M,M,M,73.40,KBAM 251455Z AUTO 00000KT 10SM CLR 23/00 A3012 RMK AO1,M
HTH,2024-06-25 14:55,-118.6315,38.5448,1282.89,78.80,44.60,29.79,0.00,0.00,0.00,30.10,M,10.00,M,CLR,M,M,M,M,M,M,M,M,M,M,M,M,M,M,78.80,KHTH 251455Z AUTO 00000KT 10SM CLR 26/07 A3010 RMK A01,M
10U,2024-06-25 14:55,-116.1876,41.9532,1637.00,71.60,33.80,24.86,0.00,0.00,0.00,30.16,M,10.00,M,CLR,M,M,M,M,M,M,M,M,M,M,M,M,M,M,71.60,K10U 251455Z AUTO 00000KT 10SM CLR 22/01 A3016 RMK AO2,M
INS,2024-06-25 14:55,-115.6733,36.5872,955.00,90.30,42.40,18.92,0.00,0.00,0.00,29.94,1007.80,10.00,M,BKN,M,M,M,21000.00,M,M,M,M,M,M,M,M,M,M,86.51,KINS 251455Z AUTO 00000KT 10SM BKN210 32/06 A2994 RMK AO2 SLP078 T03240058 52012 $,M
TMT,2024-06-25 14:55,-117.1971,39.4643,1749.34,66.00,41.00,39.99,0.00,0.00,0.00,30.22,M,10.00,M,CLR,M,M,M,M,M,M,M,M,M,M,M,M,M,M,66.00,KTMT 251455Z AUTO 00000KT 10SM CLR 19/05 A3022 RMK AO2 T01890049,M
LSV,2024-06-25 14:55,-115.0343,36.2362,570.00,96.40,50.00,20.87,150.00,6.00,0.00,29.81,1006.10,10.00,M,CLR,M,M,M,M,M,M,M,M,M,M,M,M,M,M,93.30,KLSV 251455Z AUTO 15006KT 10SM CLR 36/10 A2981 RMK AO2 SLP061 T03580100 52016 $,M
EKO,2024-06-25 14:56,-115.7860,40.8242,1367.00,71.00,32.00,23.60,0.00,0.00,0.00,30.14,1014.00,10.00,M,CLR,M,M,M,M,M,M,M,M,M,M,M,M,M,M,71.00,KEKO 251456Z AUTO 00000KT 10SM CLR 22/00 A3014 RMK AO2 SLP140 T02170000 51009,M
WMC,2024-06-25 14:56,-117.8072,40.9019,1315.00,75.00,29.00,18.26,0.00,0.00,0.00,30.10,1013.30,10.00,M,CLR,M,M,M,M,M,M,M,M,M,M,M,M,M,M,75.00,KWMC 251456Z AUTO 00000KT 10SM CLR 24/M02 A3010 RMK AO2 SLP133 T02391017 51012,M
NFL,2024-06-25 14:56,-118.7010,39.4166,1199.00,76.00,44.00,31.95,0.00,0.00,0.00,30.07,1014.90,10.00,M,SCT,BKN,BKN,M,7000.00,12000.00,20000.00,M,M,M,M,M,M,M,M,76.00,KNFL 251456Z 00000KT 10SM SCT070 BKN120 BKN200 24/07 A3007 RMK AO2 SLP149 CB DSNT SW T02440067 52010,M
HND,2024-06-25 14:56,-115.1344,35.9729,742.79,96.00,54.00,24.49,210.00,8.00,0.00,29.91,1010.40,10.00,14.00,CLR,M,M,M,M,M,M,M,M,M,M,M,M,M,M,93.86,KHND 251456Z 21008G14KT 10SM CLR 36/12 A2991 RMK AO2 SLP104 T03560122 53014,M
TPH,2024-06-25 14:56,-117.0904,38.0505,1654.00,75.00,41.00,29.43,320.00,4.00,0.00,30.16,1012.20,10.00,M,SCT,M,M,M,11000.00,M,M,M,M,M,M,M,M,M,M,75.00,KTPH 251456Z AUTO 32004KT 10SM SCT110 24/05 A3016 RMK AO2 SLP122 60000 T02390050 51012,M
LAS,2024-06-25 14:56,-115.1634,36.0719,663.00,96.00,52.00,22.76,0.00,0.00,0.00,29.88,1008.20,10.00,M,SCT,M,M,M,19000.00,M,M,M,M,M,M,M,M,M,M,93.34,KLAS 251456Z 00000KT 10SM SCT190 36/11 A2988 RMK AO2 SLP082 T03560111 51017,M
10U,2024-06-25 15:10,-116.1876,41.9532,1637.00,73.40,32.00,21.76,M,3.00,0.00,30.16,M,10.00,M,CLR,M,M,M,M,M,M,M,M,M,M,M,M,M,M,73.40,K10U 251510Z AUTO VRB03KT 10SM CLR 23/M00 A3016 RMK AO2,M
BVU,2024-06-25 15:15,-114.8611,35.9475,671.00,96.80,55.40,25.15,170.00,13.00,0.00,29.87,M,10.00,M,CLR,M,M,M,M,M,M,M,M,M,M,M,M,M,M,95.14,KBVU 251515Z AUTO 17013KT 10SM CLR 36/13 A2987 RMK AO2,M
CXP,2024-06-25 15:15,-119.7326,39.1923,1431.00,71.60,51.80,49.64,0.00,0.00,0.00,30.14,M,10.00,M,CLR,M,M,M,M,M,M,M,M,M,M,M,M,M,M,71.60,KCXP 251515Z AUTO 00000KT 10SM CLR 22/11 A3014 RMK AO2,M
RTS,2024-06-25 15:15,-119.8764,39.6682,1539.00,69.80,42.80,37.61,0.00,0.00,0.00,30.17,M,10.00,M,CLR,M,M,M,M,M,M,M,M,M,M,M,M,M,M,69.80,KRTS 251515Z AUTO 00000KT 10SM CLR 21/06 A3017 RMK AO2,M
MEV,2024-06-25 15:15,-119.7500,38.9963,1441.42,69.80,53.60,56.38,0.00,0.00,0.00,30.14,M,10.00,M,CLR,M,M,M,M,M,M,M,M,M,M,M,M,M,M,69.80,KMEV 251515Z AUTO 00000KT 10SM CLR 21/12 A3014 RMK AO2,M
BAM,2024-06-25 15:15,-116.8743,40.5990,1382.36,77.00,33.80,20.74,40.00,3.00,0.00,30.12,M,10.00,M,CLR,M,M,M,M,M,M,M,M,M,M,M,M,M,M,77.00,KBAM 251515Z AUTO 04003KT 10SM CLR 25/01 A3012 RMK AO1,M
HTH,2024-06-25 15:15,-118.6315,38.5448,1282.89,80.60,44.60,28.08,0.00,0.00,0.00,30.10,M,10.00,M,CLR,M,M,M,M,M,M,M,M,M,M,M,M,M,M,79.42,KHTH 251515Z AUTO 00000KT 10SM CLR 27/07 A3010 RMK A01,M
TMT,2024-06-25 15:15,-117.1971,39.4643,1749.34,71.00,41.40,34.20,0.00,0.00,0.00,30.22,M,10.00,M,CLR,M,M,M,M,M,M,M,M,M,M,M,M,M,M,71.00,KTMT 251515Z AUTO 00000KT 10SM CLR 22/05 A3022 RMK AO2 T02160052,M
BVU,2024-06-25 15:35,-114.8611,35.9475,671.00,98.60,55.40,23.81,160.00,14.00,0.00,29.87,M,10.00,M,CLR,M,M,M,M,M,M,M,M,M,M,M,M,M,M,97.09,KBVU 251535Z AUTO 16014KT 10SM CLR 37/13 A2987 RMK AO2,M
CXP,2024-06-25 15:35,-119.7326,39.1923,1431.00,71.60,53.60,53.03,0.00,0.00,0.00,30.15,M,10.00,M,FEW,M,M,M,12000.00,M,M,M,M,M,M,M,M,M,M,71.60,KCXP 251535Z AUTO 00000KT 10SM FEW120 22/12 A3015 RMK AO2,M
RTS,2024-06-25 15:35,-119.8764,39.6682,1539.00,69.80,44.60,40.29,0.00,0.00,0.00,30.16,M,10.00,M,CLR,M,M,M,M,M,M,M,M,M,M,M,M,M,M,69.80,KRTS 251535Z AUTO 00000KT 10SM CLR 21/07 A3016 RMK AO2,M
MEV,2024-06-25 15:35,-119.7500,38.9963,1441.42,71.60,51.80,49.64,0.00,0.00,0.00,30.14,M,10.00,M,FEW,M,M,M,11000.00,M,M,M,M,M,M,M,M,M,M,71.60,KMEV 251535Z AUTO 00000KT 10SM FEW110 22/11 A3014 RMK AO2,M
BAM,2024-06-25 15:35,-116.8743,40.5990,1382.36,78.80,32.00,18.18,0.00,0.00,0.00,30.12,M,10.00,M,CLR,M,M,M,M,M,M,M,M,M,M,M,M,M,M,78.80,KBAM 251535Z AUTO 00000KT 10SM CLR 26/00 A3012 RMK AO1,M
HTH,2024-06-25 15:35,-118.6315,38.5448,1282.89,80.60,44.60,28.08,340.00,4.00,0.00,30.10,M,10.00,M,CLR,M,M,M,M,M,M,M,M,M,M,M,M,M,M,79.42,KHTH 251535Z AUTO 34004KT 10SM CLR 27/07 A3010 RMK A01,M
10U,2024-06-25 15:35,-116.1876,41.9532,1637.00,75.20,30.20,19.05,0.00,0.00,0.00,30.16,M,10.00,M,CLR,M,M,M,M,M,M,M,M,M,M,M,M,M,M,75.20,K10U 251535Z AUTO 00000KT 10SM CLR 24/M01 A3016 RMK AO2,M
TMT,2024-06-25 15:35,-117.1971,39.4643,1749.34,74.30,41.50,30.72,0.00,0.00,0.00,30.22,M,10.00,M,CLR,M,M,M,M,M,M,M,M,M,M,M,M,M,M,74.30,KTMT 251535Z AUTO 00000KT 10SM CLR 24/05 A3022 RMK AO2 T02350053,M
P68,2024-06-25 15:53,-116.0056,39.6014,1993.00,79.00,25.00,13.56,50.00,3.00,0.00,30.20,1012.80,M,M,M,M,M,M,M,M,M,M,M,M,M,M,M,M,M,79.00,KP68 251553Z AUTO 05003KT 26/M04 A3020 RMK AO1 SLP128 T02611039,M
DRA,2024-06-25 15:53,-116.0278,36.6206,1009.00,91.00,50.00,24.68,210.00,8.00,0.00,29.97,1008.70,10.00,M,CLR,M,M,M,M,M,M,M,M,M,M,M,M,M,M,87.99,KDRA 251553Z AUTO 21008KT 10SM CLR 33/10 A2997 RMK AO2 SLP087 T03280100,M
ELY,2024-06-25 15:53,-114.8453,39.2950,1909.00,78.00,30.00,17.22,0.00,0.00,0.00,30.21,1011.50,10.00,M,CLR,M,M,M,M,M,M,M,M,M,M,M,M,M,M,78.00,KELY 251553Z AUTO 00000KT 10SM CLR 26/M01 A3021 RMK AO2 SLP115 T02561011,M
VGT,2024-06-25 15:53,-115.1933,36.2111,667.00,97.00,55.00,24.63,170.00,3.00,0.00,29.87,1009.70,10.00,M,CLR,M,M,M,M,M,M,M,M,M,M,M,M,M,M,95.23,KVGT 251553Z 17003KT 10SM CLR 36/13 A2987 RMK AO2 SLP097 T03610128,M
LOL,2024-06-25 15:53,-118.5701,40.0684,1192.43,80.00,36.00,20.51,90.00,3.00,0.00,30.07,1013.60,10.00,M,CLR,M,M,M,M,M,M,M,M,M,M,M,M,M,M,78.66,KLOL 251553Z AUTO 09003KT 10SM CLR 27/02 A3007 RMK AO2 SLP136 T02670022,M
BVU,2024-06-25 15:55,-114.8611,35.9475,671.00,98.60,55.40,23.81,140.00,13.00,0.00,29.88,M,10.00,M,CLR,M,M,M,M,M,M,M,M,M,M,M,M,M,M,97.09,KBVU 251555Z AUTO 14013KT 10SM CLR 37/13 A2988 RMK AO2,M
CXP,2024-06-25 15:55,-119.7326,39.1923,1431.00,73.40,53.60,49.90,0.00,0.00,0.00,30.15,M,10.00,M,CLR,M,M,M,M,M,M,M,M,M,M,M,M,M,M,73.40,KCXP 251555Z AUTO 00000KT 10SM CLR 23/12 A3015 RMK AO2,M
RNO,2024-06-25 15:55,-119.7711,39.4839,1341.00,73.00,52.00,47.69,220.00,3.00,0.00,30.13,1014.10,10.00,M,FEW,BKN,BKN,M,7500.00,11000.00,16000.00,M,M,M,M,M,M,M,M,73.00,KRNO 251555Z 22003KT 10SM FEW075 BKN110 BKN160 23/11 A3013 RMK AO2 SLP141 VIRGA T02280111,M
RTS,2024-06-25 15:55,-119.8764,39.6682,1539.00,69.80,46.40,43.13,0.00,0.00,0.00,30.17,M,10.00,M,FEW,M,M,M,12000.00,M,M,M,M,M,M,M,M,M,M,69.80,KRTS 251555Z AUTO 00000KT 10SM FEW120 21/08 A3017 RMK AO2,M
MEV,2024-06-25 15:55,-119.7500,38.9963,1441.42,71.60,55.40,56.63,0.00,0.00,0.00,30.13,M,10.00,M,FEW,M,M,M,11000.00,M,M,M,M,M,M,M,M,M,M,71.60,KMEV 251555Z AUTO 00000KT 10SM FEW110 22/13 A3013 RMK AO2,M
BAM,2024-06-25 15:55,-116.8743,40.5990,1382.36,80.60,33.80,18.42,0.00,0.00,0.00,30.12,M,10.00,M,CLR,M,M,M,M,M,M,M,M,M,M,M,M,M,M,78.88,KBAM 251555Z AUTO 00000KT 10SM CLR 27/01 A3012 RMK AO1,M
HTH,2024-06-25 15:55,-118.6315,38.5448,1282.89,82.40,44.60,26.49,340.00,4.00,0.00,30.10,M,10.00,M,CLR,M,M,M,M,M,M,M,M,M,M,M,M,M,M,80.50,KHTH 251555Z AUTO 34004KT 10SM CLR 28/07 A3010 RMK A01,M
INS,2024-06-25 15:55,-115.6733,36.5872,955.00,94.30,44.20,17.90,280.00,3.00,0.00,29.94,1007.70,10.00,M,SCT,BKN,M,M,20000.00,22000.00,M,M,M,M,M,M,M,M,M,90.34,KINS 251555Z AUTO 28003KT 10SM SCT200 BKN220 35/07 A2994 RMK AO2 SLP077 T03460068 $,M
TMT,2024-06-25 15:55,-117.1971,39.4643,1749.34,75.40,44.60,33.35,270.00,3.00,0.00,30.22,M,10.00,M,CLR,M,M,M,M,M,M,M,M,M,M,M,M,M,M,75.40,KTMT 251555Z AUTO 27003KT 10SM CLR 24/07 A3022 RMK AO2 T02410070,M
LSV,2024-06-25 15:55,-115.0343,36.2362,570.00,100.00,50.00,18.71,170.00,5.00,0.00,29.82,1006.50,10.00,M,CLR,M,M,M,M,M,M,M,M,M,M,M,M,M,M,97.00,KLSV 251555Z AUTO 17005KT 10SM CLR 38/10 A2982 RMK AO2 SLP065 T03770101 $,M
10U,2024-06-25 15:55,-116.1876,41.9532,1637.00,78.80,28.40,15.71,220.00,6.00,0.00,30.16,M,10.00,12.00,CLR,M,M,M,M,M,M,M,M,M,M,M,M,M,M,78.80,K10U 251555Z AUTO 22006G12KT 10SM CLR 26/M02 A3016 RMK AO2,M
EKO,2024-06-25 15:56,-115.7860,40.8242,1367.00,78.00,34.00,20.23,280.00,3.00,0.00,30.14,1014.40,10.00,M,CLR,M,M,M,M,M,M,M,M,M,M,M,M,M,M,78.00,KEKO 251556Z AUTO 28003KT 10SM CLR 26/01 A3014 RMK AO2 SLP144 T02560011,M
WMC,2024-06-25 15:56,-117.8072,40.9019,1315.00,81.00,28.00,14.38,210.00,3.00,0.00,30.09,1013.60,10.00,M,CLR,M,M,M,M,M,M,M,M,M,M,M,M,M,M,78.98,KWMC 251556Z AUTO 21003KT 10SM CLR 27/M02 A3009 RMK AO2 SLP136 T02721022,M
NFL,2024-06-25 15:56,-118.7010,39.4166,1199.00,81.00,43.00,26.08,M,3.00,0.00,30.08,1015.30,10.00,M,SCT,BKN,BKN,M,7000.00,12000.00,20000.00,M,M,M,M,M,M,M,M,79.54,KNFL 251556Z COR VRB03KT 10SM SCT070 BKN120 BKN200 27/06 A3008 RMK AO2 SLP153 CB DSNT SW T02720061,M
HND,2024-06-25 15:56,-115.1344,35.9729,742.79,99.00,54.00,22.35,240.00,8.00,0.00,29.92,1010.60,10.00,M,CLR,M,M,M,M,M,M,M,M,M,M,M,M,M,M,97.06,KHND 251556Z 24008KT 10SM CLR 37/12 A2992 RMK AO2 SLP106 T03720122,M
TPH,2024-06-25 15:56,-117.0904,38.0505,1654.00,81.00,41.00,24.14,30.00,11.00,0.00,30.16,1011.90,10.00,M,CLR,M,M,M,M,M,M,M,M,M,M,M,M,M,M,79.43,KTPH 251556Z AUTO 03011KT 10SM CLR 27/05 A3016 RMK AO2 SLP119 T02720050,M
LAS,2024-06-25 15:56,-115.1634,36.0719,663.00,100.00,53.00,20.90,M,3.00,0.00,29.89,1008.40,10.00,M,FEW,FEW,M,M,12000.00,19000.00,M,M,M,M,M,M,M,M,M,97.82,KLAS 251556Z VRB03KT 10SM FEW120 FEW190 38/12 A2989 RMK AO2 SLP084 T03780117,M
BVU,2024-06-25 16:15,-114.8611,35.9475,671.00,98.60,55.40,23.81,150.00,13.00,0.00,29.87,M,10.00,M,CLR,M,M,M,M,M,M,M,M,M,M,M,M,M,M,97.09,KBVU 251615Z AUTO 15013KT 10SM CLR 37/13 A2987 RMK AO2,M
CXP,2024-06-25 16:15,-119.7326,39.1923,1431.00,75.20,51.80,43.97,0.00,0.00,0.00,30.15,M,10.00,M,CLR,M,M,M,M,M,M,M,M,M,M,M,M,M,M,75.20,KCXP 251615Z AUTO 00000KT 10SM CLR 24/11 A3015 RMK AO2,M
RTS,2024-06-25 16:15,-119.8764,39.6682,1539.00,71.60,44.60,37.89,0.00,0.00,0.00,30.18,M,10.00,M,FEW,SCT,M,M,7000.00,12000.00,M,M,M,M,M,M,M,M,M,71.60,KRTS 251615Z AUTO 00000KT 10SM FEW070 SCT120 22/07 A3018 RMK AO2,M
MEV,2024-06-25 16:15,-119.7500,38.9963,1441.42,73.40,55.40,53.29,0.00,0.00,0.00,30.14,M,10.00,M,FEW,M,M,M,12000.00,M,M,M,M,M,M,M,M,M,M,73.40,KMEV 251615Z AUTO 00000KT 10SM FEW120 23/13 A3014 RMK AO2,M
BAM,2024-06-25 16:15,-116.8743,40.5990,1382.36,82.40,35.60,18.67,340.00,4.00,0.00,30.13,M,10.00,M,CLR,M,M,M,M,M,M,M,M,M,M,M,M,M,M,80.08,KBAM 251615Z AUTO 34004KT 10SM CLR 28/02 A3013 RMK AO1,M
HTH,2024-06-25 16:15,-118.6315,38.5448,1282.89,82.40,44.60,26.49,0.00,0.00,0.00,30.10,M,10.00,M,CLR,M,M,M,M,M,M,M,M,M,M,M,M,M,M,80.50,KHTH 251615Z AUTO 00000KT 10SM CLR 28/07 A3010 RMK A01,M
10U,2024-06-25 16:15,-116.1876,41.9532,1637.00,78.80,28.40,15.71,M,6.00,0.00,30.16,M,10.00,M,CLR,M,M,M,M,M,M,M,M,M,M,M,M,M,M,78.80,K10U 251615Z AUTO VRB06KT 10SM CLR 26/M02 A3016 RMK AO2,M
TMT,2024-06-25 16:15,-117.1971,39.4643,1749.34,77.00,41.70,28.29,350.00,3.00,0.00,30.22,M,10.00,M,CLR,M,M,M,M,M,M,M,M,M,M,M,M,M,M,77.00,KTMT 251615Z AUTO 35003KT 10SM CLR 25/05 A3022 RMK AO2 T02490054,M
BVU,2024-06-25 16:35,-114.8611,35.9475,671.00,100.40,55.40,22.54,160.00,14.00,0.00,29.87,M,10.00,M,CLR,M,M,M,M,M,M,M,M,M,M,M,M,M,M,99.06,KBVU 251635Z AUTO 16014KT 10SM CLR 38/13 A2987 RMK AO2,M
CXP,2024-06-25 16:35,-119.7326,39.1923,1431.00,77.00,53.60,44.25,0.00,0.00,0.00,30.15,M,10.00,M,CLR,M,M,M,M,M,M,M,M,M,M,M,M,M,M,77.00,KCXP 251635Z AUTO 00000KT 10SM CLR 25/12 A3015 RMK AO2,M
RTS,2024-06-25 16:35,-119.8764,39.6682,1539.00,71.60,46.40,40.57,290.00,5.00,0.00,30.17,M,10.00,M,FEW,FEW,M,M,7000.00,12000.00,M,M,M,M,M,M,M,M,M,71.60,KRTS 251635Z AUTO 29005KT 10SM FEW070 FEW120 22/08 A3017 RMK AO2,M
MEV,2024-06-25 16:35,-119.7500,38.9963,1441.42,75.20,53.60,46.98,0.00,0.00,0.00,30.13,M,10.00,M,CLR,M,M,M,M,M,M,M,M,M,M,M,M,M,M,75.20,KMEV 251635Z AUTO 00000KT 10SM CLR 24/12 A3013 RMK AO2,M
BAM,2024-06-25 16:35,-116.8743,40.5990,1382.36,84.20,35.60,17.61,250.00,4.00,0.00,30.12,M,10.00,M,CLR,M,M,M,M,M,M,M,M,M,M,M,M,M,M,81.34,KBAM 251635Z AUTO 25004KT 10SM CLR 29/02 A3012 RMK AO1,M
HTH,2024-06-25 16:35,-118.6315,38.5448,1282.89,84.20,44.60,24.99,0.00,0.00,0.00,30.09,M,10.00,M,CLR,M,M,M,M,M,M,M,M,M,M,M,M,M,M,81.73,KHTH 251635Z AUTO 00000KT 10SM CLR 29/07 A3009 RMK A01,M
10U,2024-06-25 16:35,-116.1876,41.9532,1637.00,80.60,28.40,14.81,250.00,7.00,0.00,30.16,M,10.00,M,CLR,M,M,M,M,M,M,M,M,M,M,M,M,M,M,78.72,K10U 251635Z AUTO 25007KT 210V280 10SM CLR 27/M02 A3016 RMK AO2,M
TMT,2024-06-25 16:35,-117.1971,39.4643,1749.34,78.00,41.00,26.64,0.00,0.00,0.00,30.21,M,10.00,M,CLR,M,M,M,M,M,M,M,M,M,M,M,M,M,M,78.00,KTMT 251635Z AUTO 00000KT 10SM CLR 26/05 A3021 RMK AO2 T02560050,M
P68,2024-06-25 16:53,-116.0056,39.6014,1993.00,81.00,28.00,14.38,M,5.00,0.00,30.19,1013.00,M,M,M,M,M,M,M,M,M,M,M,M,M,M,M,M,M,78.98,KP68 251653Z AUTO VRB05KT 27/M02 A3019 RMK AO1 SLP130 T02721022,M
DRA,2024-06-25 16:53,-116.0278,36.6206,1009.00,96.00,50.00,21.13,240.00,8.00,0.00,29.97,1008.50,10.00,16.00,CLR,M,M,M,M,M,M,M,M,M,M,M,M,M,M,92.89,KDRA 251653Z AUTO 24008G16KT 10SM CLR 36/10 A2997 RMK AO2 SLP085 T03560100,M
ELY,2024-06-25 16:53,-114.8453,39.2950,1909.00,84.00,32.00,15.35,M,6.00,0.00,30.20,1010.70,10.00,M,CLR,M,M,M,M,M,M,M,M,M,M,M,M,M,M,81.13,KELY 251653Z AUTO VRB06KT 10SM CLR 29/00 A3020 RMK AO2 SLP107 T02890000,M
VGT,2024-06-25 16:53,-115.1933,36.2111,667.00,101.00,53.00,20.28,130.00,8.00,0.00,29.87,1009.50,10.00,M,CLR,M,M,M,M,M,M,M,M,M,M,M,M,M,M,98.89,KVGT 251653Z 13008KT 100V160 10SM CLR 38/12 A2987 RMK AO2 SLP095 T03830117,M
LOL,2024-06-25 16:53,-118.5701,40.0684,1192.43,83.00,33.00,16.50,0.00,0.00,0.00,30.07,1013.80,10.00,M,CLR,M,M,M,M,M,M,M,M,M,M,M,M,M,M,80.43,KLOL 251653Z AUTO 00000KT 10SM CLR 28/01 A3007 RMK AO2 SLP138 T02830006,M
BVU,2024-06-25 16:55,-114.8611,35.9475,671.00,100.40,55.40,22.54,160.00,11.00,0.00,29.87,M,10.00,M,CLR,M,M,M,M,M,M,M,M,M,M,M,M,M,M,99.06,KBVU 251655Z AUTO 16011KT 10SM CLR 38/13 A2987 RMK AO2,M
CXP,2024-06-25 16:55,-119.7326,39.1923,1431.00,78.80,53.60,41.69,0.00,0.00,0.00,30.15,M,10.00,M,CLR,M,M,M,M,M,M,M,M,M,M,M,M,M,M,78.80,KCXP 251655Z AUTO 00000KT 10SM CLR 26/12 A3015 RMK AO2,M
RNO,2024-06-25 16:55,-119.7711,39.4839,1341.00,78.00,51.00,38.90,160.00,3.00,T,30.12,1014.00,10.00,M,BKN,BKN,M,M,11000.00,16000.00,M,M,M,M,M,M,M,M,M,78.00,KRNO 251655Z 16003KT 10SM BKN110 BKN160 26/11 A3012 RMK AO2 RAB1559E08 SLP140 P0000 T02560106,M
RTS,2024-06-25 16:55,-119.8764,39.6682,1539.00,73.40,46.40,38.18,0.00,0.00,0.00,30.17,M,10.00,M,SCT,M,M,M,12000.00,M,M,M,M,M,M,M,M,M,M,73.40,KRTS 251655Z AUTO 00000KT 10SM SCT120 23/08 A3017 RMK AO2,M
MEV,2024-06-25 16:55,-119.7500,38.9963,1441.42,77.00,53.60,44.25,0.00,0.00,0.00,30.13,M,10.00,M,CLR,M,M,M,M,M,M,M,M,M,M,M,M,M,M,77.00,KMEV 251655Z AUTO 00000KT 10SM CLR 25/12 A3013 RMK AO2,M
BAM,2024-06-25 16:55,-116.8743,40.5990,1382.36,86.00,35.60,16.63,230.00,6.00,0.00,30.12,M,10.00,M,CLR,M,M,M,M,M,M,M,M,M,M,M,M,M,M,82.69,KBAM 251655Z AUTO 23006KT 10SM CLR 30/02 A3012 RMK AO1,M
HTH,2024-06-25 16:55,-118.6315,38.5448,1282.89,84.20,44.60,24.99,0.00,0.00,0.00,30.09,M,10.00,M,CLR,M,M,M,M,M,M,M,M,M,M,M,M,M,M,81.73,KHTH 251655Z AUTO 00000KT 10SM CLR 29/07 A3009 RMK A01,M
10U,2024-06-25 16:55,-116.1876,41.9532,1637.00,82.40,30.20,15.03,M,5.00,0.00,30.15,M,10.00,12.00,CLR,M,M,M,M,M,M,M,M,M,M,M,M,M,M,79.97,K10U 251655Z AUTO VRB05G12KT 10SM CLR 28/M01 A3015 RMK AO2,M
TMT,2024-06-25 16:55,-117.1971,39.4643,1749.34,79.70,41.70,25.88,220.00,4.00,0.00,30.21,M,10.00,M,CLR,M,M,M,M,M,M,M,M,M,M,M,M,M,M,79.70,KTMT 251655Z AUTO 22004KT 10SM CLR 27/05 A3021 RMK AO2 T02650054,M
INS,2024-06-25 16:55,-115.6733,36.5872,955.00,97.30,43.50,15.89,340.00,5.00,0.00,29.94,1007.70,10.00,M,FEW,M,M,M,19000.00,M,M,M,M,M,M,M,M,M,M,93.14,KINS 251655Z AUTO 34005KT 10SM FEW190 36/06 A2994 RMK AO2 SLP077 T03630064 $,M
LSV,2024-06-25 16:55,-115.0343,36.2362,570.00,102.40,49.30,16.96,150.00,7.00,0.00,29.81,1006.10,10.00,M,CLR,M,M,M,M,M,M,M,M,M,M,M,M,M,M,99.30,KLSV 251655Z AUTO 15007KT 10SM CLR 39/10 A2981 RMK AO2 SLP061 T03910096 $,M
EKO,2024-06-25 16:56,-115.7860,40.8242,1367.00,85.00,31.00,14.28,210.00,8.00,0.00,30.14,1013.80,10.00,M,CLR,M,M,M,M,M,M,M,M,M,M,M,M,M,M,81.87,KEKO 251656Z AUTO 21008KT 10SM CLR 29/M01 A3014 RMK AO2 SLP138 T02941006,M
WMC,2024-06-25 16:56,-117.8072,40.9019,1315.00,85.00,26.00,11.63,M,4.00,0.00,30.09,1013.20,10.00,M,CLR,M,M,M,M,M,M,M,M,M,M,M,M,M,M,81.64,KWMC 251656Z AUTO VRB04KT 10SM CLR 29/M03 A3009 RMK AO2 SLP132 T02941033,M
NFL,2024-06-25 16:56,-118.7010,39.4166,1199.00,87.00,42.00,20.68,250.00,4.00,0.00,30.07,1015.10,10.00,M,SCT,BKN,BKN,M,7000.00,12000.00,20000.00,M,M,M,M,M,M,M,M,83.70,KNFL 251656Z 25004KT 10SM SCT070 BKN120 BKN200 31/06 A3007 RMK AO2 SLP151 CB DSNT SW T03060056,M
HND,2024-06-25 16:56,-115.1344,35.9729,742.79,103.00,55.00,20.55,190.00,10.00,0.00,29.91,1010.30,10.00,M,CLR,M,M,M,M,M,M,M,M,M,M,M,M,M,M,101.76,KHND 251656Z 19010KT 10SM CLR 39/13 A2991 RMK AO2 SLP103 T03940128,M
TPH,2024-06-25 16:56,-117.0904,38.0505,1654.00,86.00,42.00,21.35,320.00,5.00,0.00,30.15,1010.90,10.00,M,CLR,M,M,M,M,M,M,M,M,M,M,M,M,M,M,82.91,KTPH 251656Z AUTO 32005KT 10SM CLR 30/06 A3015 RMK AO2 SLP109 T03000056,M
LAS,2024-06-25 16:56,-115.1634,36.0719,663.00,102.00,52.00,18.97,0.00,0.00,0.00,29.88,1008.20,10.00,M,FEW,FEW,M,M,12000.00,19000.00,M,M,M,M,M,M,M,M,M,99.65,KLAS 251656Z 00000KT 10SM FEW120 FEW190 39/11 A2988 RMK AO2 SLP082 T03890111,M
BVU,2024-06-25 17:15,-114.8611,35.9475,671.00,102.20,55.40,21.36,160.00,10.00,0.00,29.86,M,10.00,M,CLR,M,M,M,M,M,M,M,M,M,M,M,M,M,M,101.04,KBVU 251715Z AUTO 16010KT 10SM CLR 39/13 A2986 RMK AO2,M
CXP,2024-06-25 17:15,-119.7326,39.1923,1431.00,80.60,51.80,36.79,0.00,0.00,0.00,30.15,M,10.00,M,CLR,M,M,M,M,M,M,M,M,M,M,M,M,M,M,80.08,KCXP 251715Z AUTO 00000KT 10SM CLR 27/11 A3015 RMK AO2,M
RTS,2024-06-25 17:15,-119.8764,39.6682,1539.00,75.20,42.80,31.34,200.00,11.00,0.00,30.17,M,10.00,M,BKN,M,M,M,11000.00,M,M,M,M,M,M,M,M,M,M,75.20,KRTS 251715Z AUTO 20011KT 10SM BKN110 24/06 A3017 RMK AO2,M
MEV,2024-06-25 17:15,-119.7500,38.9963,1441.42,77.00,55.40,47.25,0.00,0.00,0.00,30.13,M,10.00,M,CLR,M,M,M,M,M,M,M,M,M,M,M,M,M,M,77.00,KMEV 251715Z AUTO 00000KT 10SM CLR 25/13 A3013 RMK AO2,M
BAM,2024-06-25 17:15,-116.8743,40.5990,1382.36,86.00,35.60,16.63,30.00,3.00,0.00,30.11,M,10.00,M,CLR,M,M,M,M,M,M,M,M,M,M,M,M,M,M,82.69,KBAM 251715Z AUTO 03003KT 10SM CLR 30/02 A3011 RMK AO1,M
HTH,2024-06-25 17:15,-118.6315,38.5448,1282.89,86.00,44.60,23.59,M,6.00,0.00,30.08,M,10.00,M,CLR,M,M,M,M,M,M,M,M,M,M,M,M,M,M,83.07,KHTH 251715Z AUTO VRB06KT 10SM CLR 30/07 A3008 RMK A01,M
10U,2024-06-25 17:15,-116.1876,41.9532,1637.00,82.40,28.40,13.96,180.00,11.00,0.00,30.15,M,10.00,M,CLR,M,M,M,M,M,M,M,M,M,M,M,M,M,M,79.94,K10U 251715Z AUTO 18011KT 10SM CLR 28/M02 A3015 RMK AO2,M
TMT,2024-06-25 17:15,-117.1971,39.4643,1749.34,80.60,43.50,26.93,140.00,3.00,0.00,30.21,M,10.00,M,CLR,M,M,M,M,M,M,M,M,M,M,M,M,M,M,79.35,KTMT 251715Z AUTO 14003KT 10SM CLR 27/06 A3021 RMK AO2 T02700064,M
BVU,2024-06-25 17:35,-114.8611,35.9475,671.00,102.20,55.40,21.36,150.00,13.00,0.00,29.86,M,10.00,20.00,CLR,M,M,M,M,M,M,M,M,M,M,M,M,M,M,101.04,KBVU 251735Z AUTO 15013G20KT 10SM CLR 39/13 A2986 RMK AO2,M
CXP,2024-06-25 17:35,-119.7326,39.1923,1431.00,80.60,51.80,36.79,0.00,0.00,0.00,30.14,M,10.00,M,CLR,M,M,M,M,M,M,M,M,M,M,M,M,M,M,80.08,KCXP 251735Z AUTO 00000KT 10SM CLR 27/11 A3014 RMK AO2,M
RTS,2024-06-25 17:35,-119.8764,39.6682,1539.00,77.00,42.80,29.51,200.00,7.00,0.00,30.17,M,10.00,M,BKN,M,M,M,11000.00,M,M,M,M,M,M,M,M,M,M,77.00,KRTS 251735Z AUTO 20007KT 10SM BKN110 25/06 A3017 RMK AO2,M
MEV,2024-06-25 17:35,-119.7500,38.9963,1441.42,78.80,53.60,41.69,0.00,0.00,0.00,30.13,M,9.00,M,CLR,M,M,M,M,M,M,M,M,M,M,M,M,M,M,78.80,KMEV 251735Z AUTO 00000KT 9SM CLR 26/12 A3013 RMK AO2,M
BAM,2024-06-25 17:35,-116.8743,40.5990,1382.36,87.80,37.40,16.86,310.00,3.00,0.00,30.11,M,10.00,M,CLR,M,M,M,M,M,M,M,M,M,M,M,M,M,M,84.16,KBAM 251735Z AUTO 31003KT 10SM CLR 31/03 A3011 RMK AO1,M
HTH,2024-06-25 17:35,-118.6315,38.5448,1282.89,87.80,44.60,22.27,350.00,7.00,0.00,30.08,M,10.00,M,CLR,M,M,M,M,M,M,M,M,M,M,M,M,M,M,84.53,KHTH 251735Z AUTO 35007KT 10SM CLR 31/07 A3008 RMK A01,M
10U,2024-06-25 17:35,-116.1876,41.9532,1637.00,82.40,26.60,12.97,220.00,11.00,0.00,30.15,M,10.00,M,CLR,M,M,M,M,M,M,M,M,M,M,M,M,M,M,79.92,K10U 251735Z AUTO 22011KT 10SM CLR 28/M03 A3015 RMK AO2,M
TMT,2024-06-25 17:35,-117.1971,39.4643,1749.34,81.50,44.40,27.06,270.00,4.00,0.00,30.20,M,10.00,M,CLR,M,M,M,M,M,M,M,M,M,M,M,M,M,M,79.93,KTMT 251735Z AUTO 27004KT 10SM CLR 28/07 A3020 RMK AO2 T02750069,M
P68,2024-06-25 17:53,-116.0056,39.6014,1993.00,84.00,31.00,14.74,90.00,7.00,0.00,30.19,1012.90,M,M,M,M,M,M,M,M,M,M,M,M,M,M,M,M,M,81.12,KP68 251753Z AUTO 09007KT 050V140 29/M01 A3019 RMK AO1 SLP129 T02891006 10294 20122 58003,M
DRA,2024-06-25 17:53,-116.0278,36.6206,1009.00,98.00,50.00,19.88,240.00,10.00,0.00,29.96,1008.50,10.00,18.00,CLR,M,M,M,M,M,M,M,M,M,M,M,M,M,M,94.94,KDRA 251753Z AUTO 24010G18KT 10SM CLR 37/10 A2996 RMK AO2 SLP085 T03670100 10367 20267 50001,M
ELY,2024-06-25 17:53,-114.8453,39.2950,1909.00,88.00,32.00,13.51,M,4.00,0.00,30.20,1009.80,10.00,M,CLR,M,M,M,M,M,M,M,M,M,M,M,M,M,M,84.24,KELY 251753Z AUTO VRB04KT 10SM CLR 31/00 A3020 RMK AO2 SLP098 T03110000 10311 20111 58002,M
VGT,2024-06-25 17:53,-115.1933,36.2111,667.00,104.00,53.00,18.54,M,4.00,0.00,29.86,1009.00,10.00,M,CLR,M,M,M,M,M,M,M,M,M,M,M,M,M,M,102.10,KVGT 251753Z VRB04KT 10SM CLR 40/12 A2986 RMK AO2 SLP090 T04000117 10400 20311 58003,M
LOL,2024-06-25 17:53,-118.5701,40.0684,1192.43,86.00,40.00,19.76,0.00,0.00,0.00,30.08,1013.60,10.00,M,CLR,M,M,M,M,M,M,M,M,M,M,M,M,M,M,82.82,KLOL 251753Z AUTO 00000KT 10SM CLR 30/04 A3008 RMK AO2 SLP136 T03000044 10300 20128 51003,M
BVU,2024-06-25 17:55,-114.8611,35.9475,671.00,102.20,55.40,21.36,160.00,14.00,0.00,29.86,M,10.00,M,CLR,M,M,M,M,M,M,M,M,M,M,M,M,M,M,101.04,KBVU 251755Z AUTO 16014KT 10SM CLR 39/13 A2986 RMK AO2,M
CXP,2024-06-25 17:55,-119.7326,39.1923,1431.00,82.40,50.00,32.46,0.00,0.00,0.00,30.14,M,10.00,M,CLR,M,M,M,M,M,M,M,M,M,M,M,M,M,M,80.99,KCXP 251755Z AUTO 00000KT 10SM CLR 28/10 A3014 RMK AO2,M
RNO,2024-06-25 17:55,-119.7711,39.4839,1341.00,82.00,52.00,35.41,310.00,4.00,0.00,30.12,1013.40,10.00,M,FEW,BKN,BKN,M,9000.00,14000.00,19000.00,M,M,M,M,M,M,M,M,80.97,KRNO 251755Z 31004KT 10SM FEW090 BKN140 BKN190 28/11 A3012 RMK AO2 SLP134 60000 T02780111 10278 20206 50001,M
RTS,2024-06-25 17:55,-119.8764,39.6682,1539.00,77.00,42.80,29.51,170.00,8.00,0.00,30.17,M,10.00,M,SCT,M,M,M,11000.00,M,M,M,M,M,M,M,M,M,M,77.00,KRTS 251755Z AUTO 17008KT 10SM SCT110 25/06 A3017 RMK AO2,M
MEV,2024-06-25 17:55,-119.7500,38.9963,1441.42,80.60,53.60,39.30,310.00,4.00,0.00,30.12,M,10.00,M,CLR,M,M,M,M,M,M,M,M,M,M,M,M,M,M,80.29,KMEV 251755Z AUTO 31004KT 10SM CLR 27/12 A3012 RMK AO2,M
BAM,2024-06-25 17:55,-116.8743,40.5990,1382.36,87.80,37.40,16.86,200.00,5.00,0.00,30.11,M,10.00,M,CLR,M,M,M,M,M,M,M,M,M,M,M,M,M,M,84.16,KBAM 251755Z AUTO 20005KT 10SM CLR 31/03 A3011 RMK AO1,M
HTH,2024-06-25 17:55,-118.6315,38.5448,1282.89,86.00,44.60,23.59,0.00,0.00,0.00,30.08,M,10.00,10.00,CLR,M,M,M,M,M,M,M,M,M,M,M,M,M,M,83.07,KHTH 251755Z AUTO 00000G10KT 10SM CLR 30/07 A3008 RMK A01,M
10U,2024-06-25 17:55,-116.1876,41.9532,1637.00,82.40,24.80,12.03,190.00,8.00,0.00,30.15,M,10.00,14.00,CLR,M,M,M,M,M,M,M,M,M,M,M,M,M,M,79.79,K10U 251755Z AUTO 19008G14KT 10SM CLR 28/M04 A3015 RMK AO2,M
TMT,2024-06-25 17:55,-117.1971,39.4643,1749.34,83.50,45.00,25.95,0.00,0.00,0.00,30.20,M,10.00,M,CLR,M,M,M,M,M,M,M,M,M,M,M,M,M,M,81.26,KTMT 251755Z AUTO 00000KT 10SM CLR 29/07 A3020 RMK AO2 T02860072 10286 20068,M
INS,2024-06-25 17:55,-115.6733,36.5872,955.00,99.00,43.00,14.80,120.00,4.00,0.00,29.94,1007.80,10.00,M,CLR,M,M,M,M,M,M,M,M,M,M,M,M,M,M,94.72,KINS 251755Z AUTO 12004KT 10SM CLR 37/06 A2994 RMK AO2 SLP078 T03720062 10373 20264 58001 $,M
LSV,2024-06-25 17:55,-115.0343,36.2362,570.00,105.30,48.20,14.93,190.00,5.00,0.00,29.80,1005.80,10.00,M,CLR,M,M,M,M,M,M,M,M,M,M,M,M,M,M,101.95,KLSV 251755Z AUTO 19005KT 10SM CLR 41/09 A2980 RMK AO2 SLP058 T04070090 10407 20314 58004 $,M
EKO,2024-06-25 17:56,-115.7860,40.8242,1367.00,88.00,39.00,17.83,200.00,9.00,0.00,30.13,1013.50,10.00,M,CLR,M,M,M,M,M,M,M,M,M,M,M,M,M,M,84.38,KEKO 251756Z AUTO 20009KT 10SM CLR 31/04 A3013 RMK AO2 SLP135 T03110039 10311 20139 58003,M
WMC,2024-06-25 17:56,-117.8072,40.9019,1315.00,90.00,33.00,13.20,M,M,0.00,30.09,1013.10,10.00,M,CLR,M,M,M,M,M,M,M,M,M,M,M,M,M,M,85.92,KWMC 251756Z AUTO 10SM CLR 32/01 A3009 RMK AO2 SLP131 T03220006 10322 20117 55001,M
NFL,2024-06-25 17:56,-118.7010,39.4166,1199.00,87.00,46.00,24.10,360.00,8.00,0.00,30.07,1015.00,10.00,M,SCT,BKN,BKN,M,7000.00,11000.00,20000.00,M,M,M,M,M,M,M,M,83.98,KNFL 251756Z 36008KT 10SM SCT070 BKN110 BKN200 31/08 A3007 RMK AO2 SLP150 CB DSNT NW-N T03060078 10322 20172 50000,M
HND,2024-06-25 17:56,-115.1344,35.9729,742.79,105.00,57.00,20.82,250.00,12.00,0.00,29.90,1010.00,10.00,15.00,CLR,M,M,M,M,M,M,M,M,M,M,M,M,M,M,104.82,KHND 251756Z 25012G15KT 10SM CLR 41/14 A2990 RMK AO2 SLP100 T04060139 10406 20317 58003,M
TPH,2024-06-25 17:56,-117.0904,38.0505,1654.00,88.00,41.00,19.28,M,3.00,0.00,30.16,1011.20,10.00,M,CLR,M,M,M,M,M,M,M,M,M,M,M,M,M,M,84.46,KTPH 251756Z AUTO VRB03KT 10SM CLR 31/05 A3016 RMK AO2 SLP112 60000 T03110050 10317 20189 55002,M
LAS,2024-06-25 17:56,-115.1634,36.0719,663.00,106.00,54.00,18.13,180.00,6.00,0.00,29.87,1007.80,10.00,M,FEW,FEW,M,M,12000.00,22000.00,M,M,M,M,M,M,M,M,M,104.60,KLAS 251756Z 18006KT 10SM FEW120 FEW220 41/12 A2987 RMK AO2 SLP078 T04110122 10417 20333 58002,M
BVU,2024-06-25 18:15,-114.8611,35.9475,671.00,104.00,55.40,20.24,160.00,15.00,0.00,29.86,M,10.00,M,CLR,M,M,M,M,M,M,M,M,M,M,M,M,M,M,103.01,KBVU 251815Z AUTO 16015KT 10SM CLR 40/13 A2986 RMK AO2,M
CXP,2024-06-25 18:15,-119.7326,39.1923,1431.00,84.20,50.00,30.62,M,5.00,0.00,30.13,M,10.00,M,CLR,M,M,M,M,M,M,M,M,M,M,M,M,M,M,82.24,KCXP 251815Z AUTO VRB05KT 10SM CLR 29/10 A3013 RMK AO2,M
RTS,2024-06-25 18:15,-119.8764,39.6682,1539.00,78.80,44.60,29.79,160.00,10.00,0.00,30.16,M,10.00,16.00,SCT,M,M,M,11000.00,M,M,M,M,M,M,M,M,M,M,78.80,KRTS 251815Z AUTO 16010G16KT 10SM SCT110 26/07 A3016 RMK AO2,M
MEV,2024-06-25 18:15,-119.7500,38.9963,1441.42,80.60,53.60,39.30,M,4.00,0.00,30.12,M,9.00,M,CLR,M,M,M,M,M,M,M,M,M,M,M,M,M,M,80.29,KMEV 251815Z AUTO VRB04KT 9SM CLR 27/12 A3012 RMK AO2,M
BAM,2024-06-25 18:15,-116.8743,40.5990,1382.36,89.60,41.00,18.33,270.00,5.00,0.00,30.11,M,10.00,8.00,CLR,M,M,M,M,M,M,M,M,M,M,M,M,M,M,85.82,KBAM 251815Z AUTO 27005G08KT 10SM CLR 32/05 A3011 RMK AO1,M
HTH,2024-06-25 18:15,-118.6315,38.5448,1282.89,87.80,44.60,22.27,310.00,5.00,0.00,30.08,M,10.00,M,CLR,M,M,M,M,M,M,M,M,M,M,M,M,M,M,84.53,KHTH 251815Z AUTO 31005KT 10SM CLR 31/07 A3008 RMK A01,M
TMT,2024-06-25 18:15,-117.1971,39.4643,1749.34,83.30,44.40,25.53,270.00,3.00,0.00,30.20,M,10.00,M,CLR,M,M,M,M,M,M,M,M,M,M,M,M,M,M,81.09,KTMT 251815Z AUTO 27003KT 10SM CLR 29/07 A3020 RMK AO2 T02850069,M
10U,2024-06-25 18:15,-116.1876,41.9532,1637.00,84.20,24.80,11.35,220.00,8.00,0.00,30.15,M,10.00,17.00,CLR,M,M,M,M,M,M,M,M,M,M,M,M,M,M,81.00,K10U 251815Z AUTO 22008G17KT 190V250 10SM CLR 29/M04 A3015 RMK AO2,M
BVU,2024-06-25 18:35,-114.8611,35.9475,671.00,104.00,55.40,20.24,170.00,13.00,0.00,29.86,M,10.00,19.00,CLR,M,M,M,M,M,M,M,M,M,M,M,M,M,M,103.01,KBVU 251835Z AUTO 17013G19KT 10SM CLR 40/13 A2986 RMK AO2,M
CXP,2024-06-25 18:35,-119.7326,39.1923,1431.00,84.20,50.00,30.62,170.00,6.00,0.00,30.13,M,10.00,M,CLR,M,M,M,M,M,M,M,M,M,M,M,M,M,M,82.24,KCXP 251835Z AUTO 17006KT 10SM CLR 29/10 A3013 RMK AO2,M
RTS,2024-06-25 18:35,-119.8764,39.6682,1539.00,78.80,44.60,29.79,190.00,6.00,0.00,30.16,M,10.00,12.00,FEW,M,M,M,11000.00,M,M,M,M,M,M,M,M,M,M,78.80,KRTS 251835Z AUTO 19006G12KT 10SM FEW110 26/07 A3016 RMK AO2,M
MEV,2024-06-25 18:35,-119.7500,38.9963,1441.42,82.40,50.00,32.46,60.00,8.00,0.00,30.11,M,10.00,M,CLR,M,M,M,M,M,M,M,M,M,M,M,M,M,M,80.99,KMEV 251835Z AUTO 06008KT 10SM CLR 28/10 A3011 RMK AO2,M
BAM,2024-06-25 18:35,-116.8743,40.5990,1382.36,91.40,41.00,17.32,290.00,7.00,0.00,30.11,M,10.00,20.00,CLR,M,M,M,M,M,M,M,M,M,M,M,M,M,M,87.40,KBAM 251835Z AUTO 29007G20KT 10SM CLR 33/05 A3011 RMK AO1,M
HTH,2024-06-25 18:35,-118.6315,38.5448,1282.89,89.60,44.60,21.04,50.00,4.00,0.00,30.08,M,10.00,M,CLR,M,M,M,M,M,M,M,M,M,M,M,M,M,M,86.07,KHTH 251835Z AUTO 05004KT 10SM CLR 32/07 A3008 RMK A01,M
10U,2024-06-25 18:35,-116.1876,41.9532,1637.00,84.20,24.80,11.35,230.00,7.00,0.00,30.15,M,10.00,17.00,CLR,M,M,M,M,M,M,M,M,M,M,M,M,M,M,81.00,K10U 251835Z AUTO 23007G17KT 10SM CLR 29/M04 A3015 RMK AO2,M
TMT,2024-06-25 18:35,-117.1971,39.4643,1749.34,82.80,44.40,25.95,250.00,4.00,0.00,30.20,M,10.00,M,SCT,M,M,M,11000.00,M,M,M,M,M,M,M,M,M,M,80.75,KTMT 251835Z AUTO 25004KT 10SM SCT110 28/07 A3020 RMK AO2 T02820069,M
P68,2024-06-25 18:53,-116.0056,39.6014,1993.00,88.00,33.00,14.06,240.00,5.00,0.00,30.18,1012.60,M,M,M,M,M,M,M,M,M,M,M,M,M,M,M,M,M,84.25,KP68 251853Z AUTO 24005KT 31/01 A3018 RMK AO1 SLP126 T03110006,M
DRA,2024-06-25 18:53,-116.0278,36.6206,1009.00,100.00,50.00,18.71,240.00,11.00,0.00,29.96,1008.20,10.00,17.00,CLR,M,M,M,M,M,M,M,M,M,M,M,M,M,M,97.00,KDRA 251853Z AUTO 24011G17KT 10SM CLR 38/10 A2996 RMK AO2 SLP082 T03780100,M
ELY,2024-06-25 18:53,-114.8453,39.2950,1909.00,87.00,33.00,14.52,M,M,0.00,30.20,1010.70,10.00,M,CLR,M,M,M,M,M,M,M,M,M,M,M,M,M,M,83.44,KELY 251853Z AUTO 10SM CLR 31/01 A3020 RMK AO2 SLP107 T03060006,M
VGT,2024-06-25 18:53,-115.1933,36.2111,667.00,108.00,54.00,17.09,M,6.00,0.00,29.85,1008.70,10.00,M,CLR,M,M,M,M,M,M,M,M,M,M,M,M,M,M,106.72,KVGT 251853Z VRB06KT 10SM CLR 42/12 A2985 RMK AO2 SLP087 T04220122,M
LOL,2024-06-25 18:53,-118.5701,40.0684,1192.43,86.00,44.00,23.05,0.00,0.00,0.00,30.07,1013.80,10.00,M,CLR,M,M,M,M,M,M,M,M,M,M,M,M,M,M,83.03,KLOL 251853Z AUTO 00000KT 10SM CLR 30/07 A3007 RMK AO2 SLP138 T03000067,M
BVU,2024-06-25 18:55,-114.8611,35.9475,671.00,104.00,55.40,20.24,160.00,14.00,0.00,29.86,M,10.00,M,CLR,M,M,M,M,M,M,M,M,M,M,M,M,M,M,103.01,KBVU 251855Z AUTO 16014KT 10SM CLR 40/13 A2986 RMK AO2,M
CXP,2024-06-25 18:55,-119.7326,39.1923,1431.00,84.20,50.00,30.62,0.00,0.00,0.00,30.13,M,10.00,M,CLR,M,M,M,M,M,M,M,M,M,M,M,M,M,M,82.24,KCXP 251855Z AUTO 00000KT 10SM CLR 29/10 A3013 RMK AO2,M
RNO,2024-06-25 18:55,-119.7711,39.4839,1341.00,84.00,53.00,34.43,M,3.00,0.00,30.10,1012.80,10.00,M,BKN,BKN,M,M,14000.00,19000.00,M,M,M,M,M,M,M,M,M,82.51,KRNO 251855Z VRB03KT 10SM BKN140 BKN190 29/12 A3010 RMK AO2 SLP128 T02890117,M
RTS,2024-06-25 18:55,-119.8764,39.6682,1539.00,80.60,44.60,28.08,180.00,9.00,0.00,30.15,M,10.00,M,SCT,M,M,M,10000.00,M,M,M,M,M,M,M,M,M,M,79.42,KRTS 251855Z AUTO 18009KT 10SM SCT100 27/07 A3015 RMK AO2,M
MEV,2024-06-25 18:55,-119.7500,38.9963,1441.42,84.20,51.80,32.73,70.00,5.00,0.00,30.11,M,10.00,M,CLR,M,M,M,M,M,M,M,M,M,M,M,M,M,M,82.48,KMEV 251855Z AUTO 07005KT 10SM CLR 29/11 A3011 RMK AO2,M
BAM,2024-06-25 18:55,-116.8743,40.5990,1382.36,91.40,41.00,17.32,260.00,13.00,0.00,30.11,M,10.00,18.00,CLR,M,M,M,M,M,M,M,M,M,M,M,M,M,M,87.40,KBAM 251855Z AUTO 26013G18KT 10SM CLR 33/05 A3011 RMK AO1,M
HTH,2024-06-25 18:55,-118.6315,38.5448,1282.89,89.60,44.60,21.04,0.00,0.00,0.00,30.07,M,10.00,10.00,CLR,M,M,M,M,M,M,M,M,M,M,M,M,M,M,86.07,KHTH 251855Z AUTO 00000G10KT 10SM CLR 32/07 A3007 RMK A01,M
10U,2024-06-25 18:55,-116.1876,41.9532,1637.00,86.00,26.60,11.55,220.00,12.00,0.00,30.15,M,10.00,17.00,CLR,M,M,M,M,M,M,M,M,M,M,M,M,M,M,82.39,K10U 251855Z AUTO 22012G17KT 10SM CLR 30/M03 A3015 RMK AO2,M
INS,2024-06-25 18:55,-115.6733,36.5872,955.00,102.40,42.00,12.86,30.00,4.00,0.00,29.93,1007.30,10.00,M,CLR,M,M,M,M,M,M,M,M,M,M,M,M,M,M,97.80,KINS 251855Z AUTO 03004KT 10SM CLR 39/06 A2993 RMK AO2 SLP073 T03910056 $,M
TMT,2024-06-25 18:55,-117.1971,39.4643,1749.34,84.60,44.20,24.30,290.00,5.00,0.00,30.19,M,10.00,M,CLR,M,M,M,M,M,M,M,M,M,M,M,M,M,M,81.99,KTMT 251855Z AUTO 29005KT 10SM CLR 29/07 A3019 RMK AO2 T02920068,M
LSV,2024-06-25 18:55,-115.0343,36.2362,570.00,107.00,47.70,13.93,180.00,3.00,0.00,29.80,1005.70,10.00,M,CLR,M,M,M,M,M,M,M,M,M,M,M,M,M,M,103.49,KLSV 251855Z AUTO 18003KT 10SM CLR 42/09 A2980 RMK AO2 SLP057 T04170087 $,M
EKO,2024-06-25 18:56,-115.7860,40.8242,1367.00,90.00,43.00,19.55,190.00,6.00,0.00,30.13,1013.60,10.00,16.00,CLR,M,M,M,M,M,M,M,M,M,M,M,M,M,M,86.29,KEKO 251856Z AUTO 19006G16KT 10SM CLR 32/06 A3013 RMK AO2 SLP136 T03220061,M
WMC,2024-06-25 18:56,-117.8072,40.9019,1315.00,88.00,33.00,14.06,280.00,14.00,0.00,30.11,1013.90,10.00,19.00,CLR,M,M,M,M,M,M,M,M,M,M,M,M,M,M,84.25,KWMC 251856Z AUTO 28014G19KT 10SM CLR 31/01 A3011 RMK AO2 SLP139 T03110006,M
NFL,2024-06-25 18:56,-118.7010,39.4166,1199.00,91.00,49.00,23.77,360.00,6.00,0.00,30.06,1014.90,10.00,M,SCT,BKN,BKN,M,8000.00,11000.00,20000.00,M,M,M,M,M,M,M,M,87.83,KNFL 251856Z COR 36006KT 10SM SCT080 BKN110 BKN200 33/09 A3006 RMK AO2 SLP149 T03280094,M
HND,2024-06-25 18:56,-115.1344,35.9729,742.79,105.00,58.00,21.58,180.00,9.00,0.00,29.90,1009.90,10.00,M,FEW,M,M,M,11000.00,M,M,M,M,M,M,M,M,M,M,105.30,KHND 251856Z 18009KT 160V230 10SM FEW110 41/14 A2990 RMK AO2 SLP099 T04060144,M
TPH,2024-06-25 18:56,-117.0904,38.0505,1654.00,89.00,42.00,19.41,290.00,5.00,0.00,30.15,1011.10,10.00,17.00,CLR,M,M,M,M,M,M,M,M,M,M,M,M,M,M,85.36,KTPH 251856Z AUTO 29005G17KT 10SM CLR 32/06 A3015 RMK AO2 SLP111 T03170056,M
LAS,2024-06-25 18:56,-115.1634,36.0719,663.00,107.00,54.00,17.60,220.00,8.00,0.00,29.86,1007.50,10.00,M,FEW,FEW,M,M,12000.00,22000.00,M,M,M,M,M,M,M,M,M,105.66,KLAS 251856Z 22008KT 10SM FEW120 FEW220 42/12 A2986 RMK AO2 SLP075 T04170122,M
BVU,2024-06-25 19:15,-114.8611,35.9475,671.00,105.80,55.40,19.19,160.00,15.00,0.00,29.85,M,10.00,20.00,CLR,M,M,M,M,M,M,M,M,M,M,M,M,M,M,104.97,KBVU 251915Z AUTO 16015G20KT 10SM CLR 41/13 A2985 RMK AO2,M
CXP,2024-06-25 19:15,-119.7326,39.1923,1431.00,84.20,50.00,30.62,0.00,0.00,0.00,30.12,M,10.00,M,CLR,M,M,M,M,M,M,M,M,M,M,M,M,M,M,82.24,KCXP 251915Z AUTO 00000KT 10SM CLR 29/10 A3012 RMK AO2,M
RTS,2024-06-25 19:15,-119.8764,39.6682,1539.00,80.60,46.40,30.07,160.00,6.00,0.00,30.15,M,10.00,M,FEW,M,M,M,10000.00,M,M,M,M,M,M,M,M,M,M,79.56,KRTS 251915Z AUTO 16006KT 10SM FEW100 27/08 A3015 RMK AO2,M
MEV,2024-06-25 19:15,-119.7500,38.9963,1441.42,86.00,51.80,30.90,50.00,6.00,0.00,30.10,M,10.00,M,CLR,M,M,M,M,M,M,M,M,M,M,M,M,M,M,83.87,KMEV 251915Z AUTO 05006KT 10SM CLR 30/11 A3010 RMK AO2,M
BAM,2024-06-25 19:15,-116.8743,40.5990,1382.36,95.00,42.80,16.60,250.00,9.00,0.00,30.11,M,10.00,18.00,CLR,M,M,M,M,M,M,M,M,M,M,M,M,M,M,90.86,KBAM 251915Z AUTO 25009G18KT 10SM CLR 35/06 A3011 RMK AO1,M
HTH,2024-06-25 19:15,-118.6315,38.5448,1282.89,91.40,44.60,19.89,310.00,7.00,0.00,30.06,M,10.00,15.00,CLR,M,M,M,M,M,M,M,M,M,M,M,M,M,M,87.68,KHTH 251915Z AUTO 31007G15KT 10SM CLR 33/07 A3006 RMK A01,M
10U,2024-06-25 19:15,-116.1876,41.9532,1637.00,87.80,28.40,11.74,210.00,9.00,0.00,30.14,M,10.00,M,CLR,M,M,M,M,M,M,M,M,M,M,M,M,M,M,83.84,K10U 251915Z AUTO 21009KT 10SM CLR 31/M02 A3014 RMK AO2,M
TMT,2024-06-25 19:15,-117.1971,39.4643,1749.34,84.40,44.80,25.02,240.00,5.00,0.00,30.19,M,10.00,M,CLR,M,M,M,M,M,M,M,M,M,M,M,M,M,M,81.89,KTMT 251915Z AUTO 24005KT 10SM CLR 29/07 A3019 RMK AO2 T02910071,M
BVU,2024-06-25 19:35,-114.8611,35.9475,671.00,105.80,55.40,19.19,160.00,14.00,0.00,29.85,M,10.00,23.00,CLR,M,M,M,M,M,M,M,M,M,M,M,M,M,M,104.97,KBVU 251935Z AUTO 16014G23KT 10SM CLR 41/13 A2985 RMK AO2,M
CXP,2024-06-25 19:35,-119.7326,39.1923,1431.00,84.20,50.00,30.62,0.00,0.00,0.00,30.12,M,10.00,M,CLR,M,M,M,M,M,M,M,M,M,M,M,M,M,M,82.24,KCXP 251935Z AUTO 00000KT 10SM CLR 29/10 A3012 RMK AO2,M
RTS,2024-06-25 19:35,-119.8764,39.6682,1539.00,80.60,46.40,30.07,180.00,5.00,0.00,30.15,M,10.00,M,CLR,M,M,M,M,M,M,M,M,M,M,M,M,M,M,79.56,KRTS 251935Z AUTO 18005KT 10SM CLR 27/08 A3015 RMK AO2,M
MEV,2024-06-25 19:35,-119.7500,38.9963,1441.42,86.00,50.00,28.90,50.00,5.00,0.00,30.10,M,10.00,M,CLR,M,M,M,M,M,M,M,M,M,M,M,M,M,M,83.62,KMEV 251935Z AUTO 05005KT 10SM CLR 30/10 A3010 RMK AO2,M
BAM,2024-06-25 19:35,-116.8743,40.5990,1382.36,93.20,42.80,17.55,230.00,10.00,0.00,30.10,M,10.00,M,CLR,M,M,M,M,M,M,M,M,M,M,M,M,M,M,89.17,KBAM 251935Z AUTO 23010KT 10SM CLR 34/06 A3010 RMK AO1,M
HTH,2024-06-25 19:35,-118.6315,38.5448,1282.89,91.40,46.40,21.29,330.00,9.00,0.00,30.06,M,10.00,M,CLR,M,M,M,M,M,M,M,M,M,M,M,M,M,M,87.86,KHTH 251935Z AUTO 33009KT 300V360 10SM CLR 33/08 A3006 RMK A01,M
10U,2024-06-25 19:35,-116.1876,41.9532,1637.00,87.80,26.60,10.91,230.00,12.00,0.00,30.14,M,10.00,21.00,CLR,M,M,M,M,M,M,M,M,M,M,M,M,M,M,83.69,K10U 251935Z AUTO 23012G21KT 200V280 10SM CLR 31/M03 A3014 RMK AO2,M
TMT,2024-06-25 19:35,-117.1971,39.4643,1749.34,87.00,45.50,23.64,280.00,3.00,0.00,30.18,M,10.00,M,CLR,M,M,M,M,M,M,M,M,M,M,M,M,M,M,83.94,KTMT 251935Z AUTO 28003KT 10SM CLR 31/08 A3018 RMK AO2 T03060075,M
P68,2024-06-25 19:53,-116.0056,39.6014,1993.00,87.00,35.00,15.72,110.00,6.00,0.00,30.16,1011.10,M,M,M,M,M,M,M,M,M,M,M,M,M,M,M,M,M,83.47,KP68 251953Z AUTO 11006KT 31/02 A3016 RMK AO1 SLP111 T03060017,M
DRA,2024-06-25 19:53,-116.0278,36.6206,1009.00,103.00,49.00,16.47,220.00,14.00,0.00,29.94,1007.50,10.00,21.00,CLR,M,M,M,M,M,M,M,M,M,M,M,M,M,M,99.84,KDRA 251953Z AUTO 22014G21KT 10SM CLR 39/09 A2994 RMK AO2 SLP075 T03940094,M
ELY,2024-06-25 19:53,-114.8453,39.2950,1909.00,90.00,34.00,13.74,M,M,0.00,30.19,1010.70,10.00,M,SCT,M,M,M,12000.00,M,M,M,M,M,M,M,M,M,M,85.93,KELY 251953Z AUTO 10SM SCT120 32/01 A3019 RMK AO2 SLP107 T03220011,M
VGT,2024-06-25 19:53,-115.1933,36.2111,667.00,108.00,53.00,16.48,180.00,9.00,0.00,29.83,1008.10,10.00,14.00,CLR,M,M,M,M,M,M,M,M,M,M,M,M,M,M,106.30,KVGT 251953Z 18009G14KT 10SM CLR 42/12 A2983 RMK AO2 LTG DSNT S SLP081 T04220117,M
LOL,2024-06-25 19:53,-118.5701,40.0684,1192.43,88.00,46.00,23.34,140.00,10.00,T,30.05,1013.00,10.00,14.00,FEW,M,M,M,9000.00,M,M,M,-RA,M,M,M,M,M,M,84.81,KLOL 251953Z AUTO 14010G14KT 10SM -RA FEW090 31/08 A3005 RMK AO2 RAB50 SLP130 P0000 T03110078,M
BVU,2024-06-25 19:55,-114.8611,35.9475,671.00,105.80,53.60,17.97,130.00,10.00,0.00,29.83,M,10.00,19.00,CLR,M,M,M,M,M,M,M,M,M,M,M,M,M,M,104.23,KBVU 251955Z AUTO 13010G19KT 10SM CLR 41/12 A2983 RMK AO2,M
CXP,2024-06-25 19:55,-119.7326,39.1923,1431.00,86.00,50.00,28.90,0.00,0.00,0.00,30.11,M,10.00,M,CLR,M,M,M,M,M,M,M,M,M,M,M,M,M,M,83.62,KCXP 251955Z AUTO 00000KT 10SM CLR 30/10 A3011 RMK AO2,M
RNO,2024-06-25 19:55,-119.7711,39.4839,1341.00,86.00,53.00,32.29,350.00,3.00,0.00,30.08,1012.20,10.00,M,FEW,BKN,BKN,M,9500.00,14000.00,19000.00,M,M,M,M,M,M,M,M,84.07,KRNO 251955Z 35003KT 10SM FEW095 BKN140 BKN190 30/12 A3008 RMK AO2 SLP122 T03000117,M
RTS,2024-06-25 19:55,-119.8764,39.6682,1539.00,82.40,46.40,28.36,130.00,5.00,0.00,30.14,M,10.00,M,FEW,M,M,M,11000.00,M,M,M,M,M,M,M,M,M,M,80.64,KRTS 251955Z AUTO 13005KT 10SM FEW110 28/08 A3014 RMK AO2,M
MEV,2024-06-25 19:55,-119.7500,38.9963,1441.42,87.80,51.80,29.18,60.00,7.00,0.00,30.09,M,10.00,M,CLR,M,M,M,M,M,M,M,M,M,M,M,M,M,M,85.39,KMEV 251955Z AUTO 06007KT 030V100 10SM CLR 31/11 A3009 RMK AO2,M
BAM,2024-06-25 19:55,-116.8743,40.5990,1382.36,93.20,42.80,17.55,250.00,11.00,0.00,30.10,M,10.00,15.00,SCT,M,M,M,11000.00,M,M,M,M,M,M,M,M,M,M,89.17,KBAM 251955Z AUTO 25011G15KT 10SM SCT110 34/06 A3010 RMK AO1,M
HTH,2024-06-25 19:55,-118.6315,38.5448,1282.89,91.40,46.40,21.29,M,5.00,0.00,30.05,M,10.00,11.00,CLR,M,M,M,M,M,M,M,M,M,M,M,M,M,M,87.86,KHTH 251955Z AUTO VRB05G11KT 10SM CLR 33/08 A3005 RMK A01,M
10U,2024-06-25 19:55,-116.1876,41.9532,1637.00,89.60,28.40,11.09,250.00,17.00,0.00,30.14,M,10.00,23.00,CLR,M,M,M,M,M,M,M,M,M,M,M,M,M,M,85.17,K10U 251955Z AUTO 25017G23KT 10SM CLR 32/M02 A3014 RMK AO2,M
TMT,2024-06-25 19:55,-117.1971,39.4643,1749.34,88.00,45.00,22.47,290.00,6.00,0.00,30.18,M,10.00,M,CLR,M,M,M,M,M,M,M,M,M,M,M,M,M,M,84.72,KTMT 251955Z AUTO 29006KT 10SM CLR 31/07 A3018 RMK AO2 T03120073,M
INS,2024-06-25 19:55,-115.6733,36.5872,955.00,104.00,41.00,11.79,320.00,4.00,0.00,29.91,1006.60,10.00,M,CLR,M,M,M,M,M,M,M,M,M,M,M,M,M,M,98.97,KINS 251955Z AUTO 32004KT 10SM CLR 40/05 A2991 RMK AO2 SLP066 T03990051 $,M
LSV,2024-06-25 19:55,-115.0343,36.2362,570.00,107.60,48.20,13.95,110.00,5.00,0.00,29.77,1004.70,10.00,M,CLR,M,M,M,M,M,M,M,M,M,M,M,M,M,M,104.23,KLSV 251955Z AUTO 11005KT 10SM CLR 42/09 A2977 RMK AO2 SLP047 T04200090 $,M
EKO,2024-06-25 19:56,-115.7860,40.8242,1367.00,92.00,45.00,19.82,210.00,15.00,0.00,30.12,1013.40,10.00,22.00,CLR,M,M,M,M,M,M,M,M,M,M,M,M,M,M,88.27,KEKO 251956Z AUTO 21015G22KT 10SM CLR 33/07 A3012 RMK AO2 SLP134 T03330072,M
WMC,2024-06-25 19:56,-117.8072,40.9019,1315.00,91.00,37.00,15.00,280.00,9.00,0.00,30.10,1013.10,10.00,18.00,CLR,M,M,M,M,M,M,M,M,M,M,M,M,M,M,86.86,KWMC 251956Z AUTO 28009G18KT 10SM CLR 33/03 A3010 RMK AO2 SLP131 T03280028,M
NFL,2024-06-25 19:56,-118.7010,39.4166,1199.00,91.00,49.00,23.77,280.00,6.00,0.00,30.04,1014.30,10.00,M,SCT,BKN,BKN,M,8000.00,11000.00,18000.00,M,M,M,M,M,M,M,M,87.83,KNFL 251956Z 28006KT 10SM SCT080 BKN110 BKN180 33/09 A3004 RMK AO2 SLP143 CB DSNT SW T03280094,M
HND,2024-06-25 19:56,-115.1344,35.9729,742.79,105.00,58.00,21.58,M,6.00,0.00,29.88,1009.40,10.00,17.00,CLR,M,M,M,M,M,M,M,M,M,M,M,M,M,M,105.30,KHND 251956Z VRB06G17KT 10SM CLR 41/14 A2988 RMK AO2 LTG DSNT S SLP094 T04060144,M
TPH,2024-06-25 19:56,-117.0904,38.0505,1654.00,89.00,42.00,19.41,M,M,0.00,30.14,1011.00,10.00,M,CLR,M,M,M,M,M,M,M,M,M,M,M,M,M,M,85.36,KTPH 251956Z AUTO 10SM CLR 32/06 A3014 RMK AO2 SLP110 T03170056,M
LAS,2024-06-25 19:56,-115.1634,36.0719,663.00,108.00,55.00,17.73,150.00,8.00,0.00,29.84,1006.70,10.00,M,FEW,FEW,M,M,12000.00,22000.00,M,M,M,M,M,M,M,M,M,107.16,KLAS 251956Z 15008KT 10SM FEW120 FEW220 42/13 A2984 RMK AO2 LTG DSNT S SLP067 CB DSNT E AND S T04220128,M
BVU,2024-06-25 20:15,-114.8611,35.9475,671.00,107.60,53.60,17.04,130.00,16.00,0.00,29.83,M,10.00,M,CLR,M,M,M,M,M,M,M,M,M,M,M,M,M,M,106.13,KBVU 252015Z AUTO 13016KT 10SM CLR 42/12 A2983 RMK AO2,M
CXP,2024-06-25 20:15,-119.7326,39.1923,1431.00,87.80,48.20,25.52,0.00,0.00,0.00,30.10,M,10.00,M,CLR,M,M,M,M,M,M,M,M,M,M,M,M,M,M,84.87,KCXP 252015Z AUTO 00000KT 10SM CLR 31/09 A3010 RMK AO2,M
HND,2024-06-25 20:15,-115.1344,35.9729,742.79,104.00,57.20,21.60,150.00,11.00,0.00,29.88,M,10.00,M,FEW,M,M,M,12000.00,M,M,M,VCTS,M,M,M,M,M,M,103.79,KHND 252015Z 15011KT 10SM VCTS FEW120 40/14 A2988 RMK AO2 LTG DSNT S AND SW TSB09,M
RTS,2024-06-25 20:15,-119.8764,39.6682,1539.00,82.40,46.40,28.36,M,7.00,0.00,30.14,M,10.00,M,CLR,M,M,M,M,M,M,M,M,M,M,M,M,M,M,80.64,KRTS 252015Z AUTO VRB07KT 10SM CLR 28/08 A3014 RMK AO2,M
MEV,2024-06-25 20:15,-119.7500,38.9963,1441.42,87.80,50.00,27.29,M,4.00,0.00,30.08,M,4.00,M,FEW,FEW,M,M,9000.00,12000.00,M,M,HZ,M,M,M,M,M,M,85.11,KMEV 252015Z AUTO VRB04KT 4SM HZ FEW090 FEW120 31/10 A3008 RMK AO2,M
BAM,2024-06-25 20:15,-116.8743,40.5990,1382.36,91.40,42.80,18.56,260.00,4.00,0.00,30.09,M,10.00,M,BKN,M,M,M,11000.00,M,M,M,M,M,M,M,M,M,M,87.52,KBAM 252015Z AUTO 26004KT 10SM BKN110 33/06 A3009 RMK AO1,M
HTH,2024-06-25 20:15,-118.6315,38.5448,1282.89,89.60,48.20,24.11,340.00,5.00,0.00,30.04,M,9.00,M,CLR,M,M,M,M,M,M,M,M,M,M,M,M,M,M,86.44,KHTH 252015Z AUTO 34005KT 9SM CLR 32/09 A3004 RMK A01,M
10U,2024-06-25 20:15,-116.1876,41.9532,1637.00,87.80,30.20,12.64,230.00,18.00,0.00,30.14,M,10.00,25.00,CLR,M,M,M,M,M,M,M,M,M,M,M,M,M,M,84.01,K10U 252015Z AUTO 23018G25KT 10SM CLR 31/M01 A3014 RMK AO2,M
TMT,2024-06-25 20:15,-117.1971,39.4643,1749.34,86.70,44.60,23.07,320.00,4.00,0.00,30.16,M,10.00,M,CLR,M,M,M,M,M,M,M,M,M,M,M,M,M,M,83.63,KTMT 252015Z AUTO 32004KT 10SM CLR 30/07 A3016 RMK AO2 T03040070,M
BVU,2024-06-25 20:35,-114.8611,35.9475,671.00,104.00,53.60,18.95,130.00,11.00,0.00,29.82,M,10.00,20.00,CLR,M,M,M,M,M,M,M,M,M,M,M,M,M,M,102.31,KBVU 252035Z AUTO 13011G20KT 110V170 10SM CLR 40/12 A2982 RMK AO2,M
CXP,2024-06-25 20:35,-119.7326,39.1923,1431.00,87.80,48.20,25.52,M,5.00,0.00,30.09,M,10.00,M,CLR,M,M,M,M,M,M,M,M,M,M,M,M,M,M,84.87,KCXP 252035Z AUTO VRB05KT 10SM CLR 31/09 A3009 RMK AO2,M
RTS,2024-06-25 20:35,-119.8764,39.6682,1539.00,84.20,46.40,26.76,M,6.00,0.00,30.13,M,10.00,12.00,CLR,M,M,M,M,M,M,M,M,M,M,M,M,M,M,81.87,KRTS 252035Z AUTO VRB06G12KT 10SM CLR 29/08 A3013 RMK AO2,M
MEV,2024-06-25 20:35,-119.7500,38.9963,1441.42,89.60,50.00,25.79,290.00,6.00,0.00,30.07,M,9.00,M,CLR,M,M,M,M,M,M,M,M,M,M,M,M,M,M,86.70,KMEV 252035Z AUTO 29006KT 9SM CLR 32/10 A3007 RMK AO2,M
BAM,2024-06-25 20:35,-116.8743,40.5990,1382.36,91.40,42.80,18.56,330.00,9.00,0.00,30.09,M,10.00,M,BKN,M,M,M,11000.00,M,M,M,M,M,M,M,M,M,M,87.52,KBAM 252035Z AUTO 33009KT 10SM BKN110 33/06 A3009 RMK AO1,M
HTH,2024-06-25 20:35,-118.6315,38.5448,1282.89,87.80,55.40,33.29,260.00,10.00,0.00,30.05,M,9.00,M,FEW,FEW,BKN,M,2900.00,4900.00,11000.00,M,M,M,M,M,M,M,M,86.11,KHTH 252035Z AUTO 26010KT 9SM FEW029 FEW049 BKN110 31/13 A3005 RMK A01,M
10U,2024-06-25 20:35,-116.1876,41.9532,1637.00,89.60,28.40,11.09,250.00,12.00,0.00,30.14,M,10.00,25.00,CLR,M,M,M,M,M,M,M,M,M,M,M,M,M,M,85.17,K10U 252035Z AUTO 25012G25KT 210V270 10SM CLR 32/M02 A3014 RMK AO2,M
TMT,2024-06-25 20:35,-117.1971,39.4643,1749.34,87.80,44.80,22.44,0.00,0.00,0.00,30.16,M,10.00,M,SCT,M,M,M,11000.00,M,M,M,M,M,M,M,M,M,M,84.54,KTMT 252035Z AUTO 00000KT 10SM SCT110 31/07 A3016 RMK AO2 T03100071,M
P68,2024-06-25 20:53,-116.0056,39.6014,1993.00,88.00,36.00,15.85,M,6.00,0.00,30.14,1010.80,M,M,M,M,M,M,M,M,M,M,M,M,M,M,M,M,M,84.29,KP68 252053Z AUTO VRB06KT 31/02 A3014 RMK AO1 SLP108 T03110022 58013,M
DRA,2024-06-25 20:53,-116.0278,36.6206,1009.00,104.00,50.00,16.59,200.00,9.00,0.00,29.92,1006.80,10.00,20.00,CLR,M,M,M,M,M,M,M,M,M,M,M,27.00,230.00,2024-06-25 19:56,101.14,KDRA 252053Z AUTO 20009G20KT 10SM CLR 40/10 A2992 RMK AO2 PK WND 23027/1956 SLP068 T04000100 58015,M
ELY,2024-06-25 20:53,-114.8453,39.2950,1909.00,90.00,35.00,14.30,250.00,11.00,0.00,30.17,1010.30,10.00,23.00,SCT,M,M,M,12000.00,M,M,M,M,M,M,M,M,M,M,85.95,KELY 252053Z AUTO 25011G23KT 10SM SCT120 32/02 A3017 RMK AO2 SLP103 T03220017 58007,M
VGT,2024-06-25 20:53,-115.1933,36.2111,667.00,110.00,55.00,16.72,120.00,9.00,0.00,29.80,1007.20,10.00,M,CLR,M,M,M,M,M,M,M,M,M,M,M,M,M,M,109.26,KVGT 252053Z 12009KT 10SM CLR 43/13 A2980 RMK AO2 LTG DSNT S SLP072 T04330128 58017,M
LOL,2024-06-25 20:53,-118.5701,40.0684,1192.43,90.00,47.00,22.76,120.00,7.00,T,30.03,1012.60,10.00,M,CLR,M,M,M,M,M,M,M,M,M,M,M,M,M,M,86.66,KLOL 252053Z AUTO 12007KT 10SM CLR 32/08 A3003 RMK AO2 RAE00 SLP126 P0000 60000 T03220083 58014,M
BVU,2024-06-25 20:55,-114.8611,35.9475,671.00,105.80,53.60,17.97,150.00,13.00,0.00,29.81,M,10.00,M,CLR,M,M,M,M,M,M,M,M,M,M,M,M,M,M,104.23,KBVU 252055Z AUTO 15013KT 10SM CLR 41/12 A2981 RMK AO2 LTG DSNT SW AND W,M
CXP,2024-06-25 20:55,-119.7326,39.1923,1431.00,89.60,48.20,24.11,0.00,0.00,0.00,30.08,M,10.00,M,CLR,M,M,M,M,M,M,M,M,M,M,M,M,M,M,86.44,KCXP 252055Z AUTO 00000KT 10SM CLR 32/09 A3008 RMK AO2,M
RNO,2024-06-25 20:55,-119.7711,39.4839,1341.00,93.00,56.00,28.90,M,3.00,0.00,30.05,1010.90,10.00,M,SCT,BKN,M,M,9500.00,14000.00,M,M,M,M,M,M,M,M,M,91.32,KRNO 252055Z VRB03KT 10SM SCT095 BKN140 34/13 A3005 RMK AO2 SLP109 T03390133 58019,M
RTS,2024-06-25 20:55,-119.8764,39.6682,1539.00,84.20,46.40,26.76,120.00,7.00,0.00,30.12,M,10.00,M,CLR,M,M,M,M,M,M,M,M,M,M,M,M,M,M,81.87,KRTS 252055Z AUTO 12007KT 10SM CLR 29/08 A3012 RMK AO2,M
MEV,2024-06-25 20:55,-119.7500,38.9963,1441.42,89.60,50.00,25.79,M,4.00,0.00,30.07,M,10.00,M,CLR,M,M,M,M,M,M,M,M,M,M,M,M,M,M,86.70,KMEV 252055Z AUTO VRB04KT 10SM CLR 32/10 A3007 RMK AO2,M
BAM,2024-06-25 20:55,-116.8743,40.5990,1382.36,91.40,41.00,17.32,340.00,9.00,0.00,30.08,M,10.00,M,SCT,M,M,M,11000.00,M,M,M,M,M,M,M,M,M,M,87.40,KBAM 252055Z AUTO 34009KT 10SM SCT110 33/05 A3008 RMK AO1,M
HTH,2024-06-25 20:55,-118.6315,38.5448,1282.89,80.60,64.40,57.84,280.00,14.00,0.03,30.05,M,7.00,M,FEW,SCT,BKN,M,4500.00,8500.00,11000.00,M,M,M,M,M,M,M,M,82.27,KHTH 252055Z AUTO 28014KT 7SM FEW045 SCT085 BKN110 27/18 A3005 RMK A01 P0003,M
10U,2024-06-25 20:55,-116.1876,41.9532,1637.00,89.60,28.40,11.09,230.00,13.00,0.00,30.13,M,10.00,23.00,CLR,M,M,M,M,M,M,M,M,M,M,M,M,M,M,85.17,K10U 252055Z AUTO 23013G23KT 10SM CLR 32/M02 A3013 RMK AO2,M
TMT,2024-06-25 20:55,-117.1971,39.4643,1749.34,88.00,45.00,22.47,40.00,5.00,0.00,30.15,M,10.00,M,SCT,M,M,M,11000.00,M,M,M,M,M,M,M,M,M,M,84.72,KTMT 252055Z AUTO 04005KT 10SM SCT110 31/07 A3015 RMK AO2 T03110073,M
INS,2024-06-25 20:55,-115.6733,36.5872,955.00,103.50,43.00,12.93,250.00,6.00,0.00,29.89,1005.90,10.00,M,BKN,OVC,M,M,12000.00,14000.00,M,M,M,M,M,M,M,M,M,99.03,KINS 252055Z AUTO 25006KT 10SM BKN120 OVC140 40/06 A2989 RMK AO2 SLP059 T03970061 57014 $,M
LSV,2024-06-25 20:55,-115.0343,36.2362,570.00,108.00,48.40,13.89,190.00,6.00,0.00,29.75,1004.10,10.00,M,CLR,M,M,M,M,M,M,M,M,M,M,M,M,M,M,104.68,KLSV 252055Z AUTO 19006KT 10SM CLR 42/09 A2975 RMK AO2 SLP041 T04220091 58016 $,M
EKO,2024-06-25 20:56,-115.7860,40.8242,1367.00,93.00,42.00,17.13,310.00,11.00,0.00,30.10,1013.10,10.00,22.00,FEW,M,M,M,11000.00,M,M,M,M,M,M,M,M,M,M,88.92,KEKO 252056Z AUTO 31011G22KT 10SM FEW110 34/06 A3010 RMK AO2 SLP131 T03390056 58008,M
WMC,2024-06-25 20:56,-117.8072,40.9019,1315.00,89.00,39.00,17.28,270.00,6.00,0.00,30.07,1013.00,10.00,15.00,CLR,M,M,M,M,M,M,M,M,M,M,M,M,M,M,85.21,KWMC 252056Z AUTO 27006G15KT 10SM CLR 32/04 A3007 RMK AO2 SLP130 T03170039 58005,M
NFL,2024-06-25 20:56,-118.7010,39.4166,1199.00,93.00,49.00,22.34,M,M,0.00,30.02,1013.50,10.00,M,BKN,BKN,BKN,M,8000.00,11000.00,18000.00,M,M,M,M,M,M,M,M,89.73,KNFL 252056Z 10SM BKN080 BKN110 BKN180 34/09 A3002 RMK AO2 SLP135 CB DSNT S-SW T03390094 58015,M
HND,2024-06-25 20:56,-115.1344,35.9729,742.79,97.00,60.00,29.49,160.00,21.00,0.00,29.87,1009.30,9.00,27.00,CLR,M,M,M,M,M,M,M,VCTS,M,M,M,27.00,160.00,2024-06-25 20:56,97.17,KHND 252056Z 16021G27KT 9SM VCTS CLR 36/16 A2987 RMK AO2 PK WND 16027/2056 LTG DSNT S TSB09 SLP093 T03610156 58009,M
TPH,2024-06-25 20:56,-117.0904,38.0505,1654.00,91.00,42.00,18.23,M,3.00,0.00,30.12,1009.80,10.00,M,CLR,M,M,M,M,M,M,M,M,M,M,M,M,M,M,87.11,KTPH 252056Z AUTO VRB03KT 10SM CLR 33/06 A3012 RMK AO2 SLP098 T03280056 58011,M
LAS,2024-06-25 20:56,-115.1634,36.0719,663.00,109.00,55.00,17.22,160.00,16.00,0.00,29.82,1006.10,10.00,26.00,SCT,SCT,M,M,12000.00,22000.00,M,M,M,M,M,M,29.00,170.00,2024-06-25 20:37,108.21,KLAS 252056Z 16016G26KT 10SM SCT120 SCT220 43/13 A2982 RMK AO2 PK WND 17029/2037 SLP061 OCNL LTGCG DSNT S CB DSNT S T04280128 58016,M
LAS,2024-06-25 21:03,-115.1634,36.0719,663.00,107.00,56.00,18.93,160.00,16.00,0.00,29.82,M,10.00,28.00,SCT,SCT,M,M,12000.00,22000.00,M,M,TS,M,M,M,28.00,170.00,2024-06-25 21:02,106.54,KLAS 252103Z 16016G28KT 10SM TS SCT120CB SCT220 42/13 A2982 RMK AO2 PK WND 17028/2102 TSB03 OCNL LTGICCG SE-S TS SE-S MOV N VCSH SE-S T04170133,M
BVU,2024-06-25 21:15,-114.8611,35.9475,671.00,105.80,51.80,16.82,200.00,12.00,0.00,29.81,M,10.00,24.00,FEW,M,M,M,11000.00,M,M,M,M,M,M,M,M,M,M,103.57,KBVU 252115Z AUTO 20012G24KT 10SM FEW110 41/11 A2981 RMK AO2 LTG DSNT SW AND W,M
CXP,2024-06-25 21:15,-119.7326,39.1923,1431.00,91.40,48.20,22.78,M,6.00,0.00,30.08,M,10.00,16.00,SCT,M,M,M,8500.00,M,M,M,M,M,M,M,M,M,M,88.09,KCXP 252115Z AUTO VRB06G16KT 10SM SCT085 33/09 A3008 RMK AO2,M
RTS,2024-06-25 21:15,-119.8764,39.6682,1539.00,86.00,46.40,25.26,110.00,7.00,0.00,30.11,M,10.00,M,CLR,M,M,M,M,M,M,M,M,M,M,M,M,M,M,83.22,KRTS 252115Z AUTO 11007KT 10SM CLR 30/08 A3011 RMK AO2,M
MEV,2024-06-25 21:15,-119.7500,38.9963,1441.42,89.60,50.00,25.79,270.00,4.00,0.00,30.06,M,10.00,M,CLR,M,M,M,M,M,M,M,M,M,M,M,M,M,M,86.70,KMEV 252115Z AUTO 27004KT 10SM CLR 32/10 A3006 RMK AO2,M
BAM,2024-06-25 21:15,-116.8743,40.5990,1382.36,93.20,41.00,16.37,340.00,15.00,0.00,30.08,M,10.00,M,SCT,M,M,M,12000.00,M,M,M,M,M,M,M,M,M,M,89.03,KBAM 252115Z AUTO 34015KT 10SM SCT120 34/05 A3008 RMK AO1,M
HTH,2024-06-25 21:15,-118.6315,38.5448,1282.89,77.00,62.60,61.13,270.00,15.00,0.00,30.04,M,9.00,M,FEW,FEW,SCT,M,5500.00,7000.00,11000.00,M,M,M,M,M,M,M,M,77.00,KHTH 252115Z AUTO 27015KT 9SM FEW055 FEW070 SCT110 25/17 A3004 RMK A01,M
10U,2024-06-25 21:15,-116.1876,41.9532,1637.00,87.80,24.80,10.12,250.00,11.00,0.00,30.14,M,10.00,22.00,CLR,M,M,M,M,M,M,M,M,M,M,M,M,M,M,83.56,K10U 252115Z AUTO 25011G22KT 10SM CLR 31/M04 A3014 RMK AO2,M
TMT,2024-06-25 21:15,-117.1971,39.4643,1749.34,87.80,45.00,22.62,310.00,4.00,0.00,30.15,M,10.00,M,SCT,M,M,M,11000.00,M,M,M,M,M,M,M,M,M,M,84.56,KTMT 252115Z AUTO 31004KT 10SM SCT110 31/07 A3015 RMK AO2 T03100073,M
VGT,2024-06-25 21:23,-115.1933,36.2111,667.00,108.00,57.00,19.06,160.00,16.00,T,29.80,M,10.00,M,FEW,M,M,M,11000.00,M,M,M,-RA,M,M,M,M,M,M,108.12,KVGT 252123Z 16016KT 10SM -RA FEW110 42/14 A2980 RMK AO2 WSHFT 2103 LTG DSNT S RAB22 P0000 T04220139,M
LSV,2024-06-25 21:24,-115.0343,36.2362,570.00,107.60,48.20,13.95,190.00,17.00,0.00,29.75,1004.10,10.00,M,CLR,M,M,M,M,M,M,M,M,M,M,M,M,M,M,104.23,KLSV 252124Z AUTO 19017KT 10SM CLR 42/09 A2975 RMK AO2 WSHFT 13 SLP041 $,M
BVU,2024-06-25 21:35,-114.8611,35.9475,671.00,104.00,51.80,17.74,270.00,13.00,0.00,29.81,M,10.00,M,FEW,M,M,M,11000.00,M,M,M,M,M,M,M,M,M,M,101.69,KBVU 252135Z AUTO 27013KT 10SM FEW110 40/11 A2981 RMK AO2,M
CXP,2024-06-25 21:35,-119.7326,39.1923,1431.00,91.40,48.20,22.78,M,6.00,0.00,30.08,M,10.00,15.00,SCT,M,M,M,8500.00,M,M,M,M,M,M,M,M,M,M,88.09,KCXP 252135Z AUTO VRB06G15KT 10SM SCT085 33/09 A3008 RMK AO2,M
RTS,2024-06-25 21:35,-119.8764,39.6682,1539.00,86.00,46.40,25.26,0.00,0.00,0.00,30.11,M,10.00,M,SCT,SCT,M,M,9000.00,11000.00,M,M,M,M,M,M,M,M,M,83.22,KRTS 252135Z AUTO 00000KT 10SM SCT090 SCT110 30/08 A3011 RMK AO2,M
MEV,2024-06-25 21:35,-119.7500,38.9963,1441.42,89.60,50.00,25.79,310.00,5.00,0.00,30.05,M,10.00,M,CLR,M,M,M,M,M,M,M,M,M,M,M,M,M,M,86.70,KMEV 252135Z AUTO 31005KT 10SM CLR 32/10 A3005 RMK AO2,M
BAM,2024-06-25 21:35,-116.8743,40.5990,1382.36,93.20,41.00,16.37,330.00,14.00,0.00,30.08,M,10.00,18.00,CLR,M,M,M,M,M,M,M,M,M,M,M,M,M,M,89.03,KBAM 252135Z AUTO 33014G18KT 10SM CLR 34/05 A3008 RMK AO1,M
HTH,2024-06-25 21:35,-118.6315,38.5448,1282.89,77.00,64.40,65.12,260.00,13.00,0.00,30.03,M,7.00,M,M,M,M,M,M,M,M,M,M,M,M,M,M,M,M,77.00,KHTH 252135Z AUTO 26013KT 7SM 25/18 A3003 RMK A01,M
10U,2024-06-25 21:35,-116.1876,41.9532,1637.00,87.80,30.20,12.64,270.00,16.00,0.00,30.14,M,10.00,22.00,CLR,M,M,M,M,M,M,M,M,M,M,M,M,M,M,84.01,K10U 252135Z AUTO 27016G22KT 10SM CLR 31/M01 A3014 RMK AO2,M
TMT,2024-06-25 21:35,-117.1971,39.4643,1749.34,87.60,45.70,23.37,340.00,6.00,0.00,30.13,M,10.00,M,SCT,M,M,M,11000.00,M,M,M,M,M,M,M,M,M,M,84.45,KTMT 252135Z AUTO 34006KT 10SM SCT110 31/08 A3013 RMK AO2 T03090076,M
P68,2024-06-25 21:53,-116.0056,39.6014,1993.00,89.00,36.00,15.36,130.00,6.00,0.00,30.12,1010.50,M,M,M,M,M,M,M,M,M,M,M,M,M,M,M,M,M,85.12,KP68 252153Z AUTO 13006KT 32/02 A3012 RMK AO1 SLP105 T03170022,M
DRA,2024-06-25 21:53,-116.0278,36.6206,1009.00,105.00,50.00,16.11,190.00,13.00,0.00,29.89,1006.10,10.00,25.00,CLR,M,M,M,M,M,M,M,M,M,M,M,27.00,230.00,2024-06-25 21:16,102.16,KDRA 252153Z AUTO 19013G25KT 10SM CLR 41/10 A2989 RMK AO2 PK WND 23027/2116 SLP061 T04060100,M
ELY,2024-06-25 21:53,-114.8453,39.2950,1909.00,89.00,35.00,14.76,M,M,0.00,30.15,1010.00,10.00,M,FEW,M,M,M,12000.00,M,M,M,M,M,M,M,M,M,M,85.10,KELY 252153Z AUTO 10SM FEW120 32/02 A3015 RMK AO2 SLP100 T03170017,M
VGT,2024-06-25 21:53,-115.1933,36.2111,667.00,107.00,54.00,17.60,170.00,21.00,T,29.78,1006.70,10.00,28.00,CLR,M,M,M,M,M,M,M,M,M,M,M,28.00,170.00,2024-06-25 21:51,105.66,KVGT 252153Z 17021G28KT 10SM CLR 42/12 A2978 RMK AO2 PK WND 17028/2151 WSHFT 2103 LTG DSNT S AND NW RAB22E31 SLP067 P0000 T04170122,M
LOL,2024-06-25 21:53,-118.5701,40.0684,1192.43,91.00,47.00,22.05,80.00,7.00,0.00,30.00,1011.60,10.00,M,CLR,M,M,M,M,M,M,M,M,M,M,M,M,M,M,87.57,KLOL 252153Z AUTO 08007KT 10SM CLR 33/08 A3000 RMK AO2 SLP116 T03280083,M
BVU,2024-06-25 21:55,-114.8611,35.9475,671.00,104.00,51.80,17.74,270.00,12.00,0.00,29.80,M,10.00,M,CLR,M,M,M,M,M,M,M,M,M,M,M,M,M,M,101.69,KBVU 252155Z AUTO 27012KT 10SM CLR 40/11 A2980 RMK AO2,M
CXP,2024-06-25 21:55,-119.7326,39.1923,1431.00,91.40,48.20,22.78,270.00,12.00,0.00,30.06,M,10.00,M,CLR,M,M,M,M,M,M,M,M,M,M,M,M,M,M,88.09,KCXP 252155Z AUTO 27012KT 10SM CLR 33/09 A3006 RMK AO2 LTG DSNT E AND SE,M
RNO,2024-06-25 21:55,-119.7711,39.4839,1341.00,93.00,56.00,28.90,M,4.00,0.00,30.04,1010.40,10.00,M,BKN,BKN,M,M,9500.00,14000.00,M,M,M,M,M,M,M,M,M,91.32,KRNO 252155Z VRB04KT 10SM BKN095 BKN140 34/13 A3004 RMK AO2 SLP104 T03390133,M
RTS,2024-06-25 21:55,-119.8764,39.6682,1539.00,86.00,46.40,25.26,300.00,10.00,0.00,30.11,M,10.00,17.00,BKN,BKN,M,M,9000.00,11000.00,M,M,M,M,M,M,M,M,M,83.22,KRTS 252155Z AUTO 30010G17KT 270V330 10SM BKN090 BKN110 30/08 A3011 RMK AO2,M
MEV,2024-06-25 21:55,-119.7500,38.9963,1441.42,91.40,50.00,24.37,270.00,10.00,0.00,30.05,M,10.00,M,CLR,M,M,M,M,M,M,M,M,M,M,M,M,M,M,88.36,KMEV 252155Z AUTO 27010KT 10SM CLR 33/10 A3005 RMK AO2 LTG DSNT NE-SE,M
BAM,2024-06-25 21:55,-116.8743,40.5990,1382.36,95.00,41.00,15.49,350.00,11.00,0.00,30.07,M,10.00,M,SCT,M,M,M,11000.00,M,M,M,M,M,M,M,M,M,M,90.70,KBAM 252155Z AUTO 35011KT 10SM SCT110 35/05 A3007 RMK AO1,M
HTH,2024-06-25 21:55,-118.6315,38.5448,1282.89,78.80,55.40,44.52,250.00,11.00,0.03,30.04,M,9.00,M,FEW,SCT,BKN,M,3700.00,7000.00,9000.00,M,M,M,M,M,M,M,M,78.80,KHTH 252155Z AUTO 25011KT 9SM FEW037 SCT070 BKN090 26/13 A3004 RMK A01 P0003,M
10U,2024-06-25 21:55,-116.1876,41.9532,1637.00,86.00,26.60,11.55,240.00,15.00,0.00,30.14,M,10.00,M,CLR,M,M,M,M,M,M,M,M,M,M,M,M,M,M,82.39,K10U 252155Z AUTO 24015KT 10SM CLR 30/M03 A3014 RMK AO2,M
TMT,2024-06-25 21:55,-117.1971,39.4643,1749.34,87.80,45.50,23.05,340.00,6.00,0.00,30.13,M,10.00,M,BKN,M,M,M,11000.00,M,M,M,M,M,M,M,M,M,M,84.60,KTMT 252155Z AUTO 34006KT 10SM BKN110 31/08 A3013 RMK AO2 T03100075,M
INS,2024-06-25 21:55,-115.6733,36.5872,955.00,104.50,45.70,13.91,110.00,10.00,0.00,29.87,1005.50,10.00,M,SCT,M,M,M,11000.00,M,M,M,M,M,M,M,M,M,M,100.54,KINS 252155Z AUTO 11010KT 10SM SCT110 40/08 A2987 RMK AO2 LTG DSNT SE SLP055 T04030076 $,M
LSV,2024-06-25 21:55,-115.0343,36.2362,570.00,107.80,48.20,13.87,180.00,19.00,0.00,29.74,1003.80,10.00,M,CLR,M,M,M,M,M,M,M,M,M,M,M,M,M,M,104.42,KLSV 252155Z AUTO 18019KT 10SM CLR 42/09 A2974 RMK AO2 SLP038 T04210090 $,M
EKO,2024-06-25 21:56,-115.7860,40.8242,1367.00,91.00,41.00,17.54,260.00,16.00,0.00,30.09,1012.70,10.00,23.00,SCT,M,M,M,11000.00,M,M,M,M,M,M,M,M,M,M,87.04,KEKO 252156Z AUTO 26016G23KT 10SM SCT110 33/05 A3009 RMK AO2 SLP127 T03280050,M
WMC,2024-06-25 21:56,-117.8072,40.9019,1315.00,93.00,44.00,18.49,330.00,10.00,0.00,30.06,1012.60,10.00,20.00,CLR,M,M,M,M,M,M,M,M,M,M,M,M,M,M,89.10,KWMC 252156Z AUTO 33010G20KT 10SM CLR 34/07 A3006 RMK AO2 SLP126 T03390067,M
NFL,2024-06-25 21:56,-118.7010,39.4166,1199.00,90.00,50.00,25.46,10.00,3.00,T,30.00,1013.00,10.00,M,BKN,BKN,BKN,M,6000.00,11000.00,18000.00,M,-RA,M,M,M,M,M,M,87.06,KNFL 252156Z 01003KT 10SM -RA BKN060 BKN110 BKN180 32/10 A3000 RMK AO2 RAB54 SLP130 OCNL LTGICCG DSNT SE-S-W CB DSNT SE-S-W P0000 T03220100,M
HND,2024-06-25 21:56,-115.1344,35.9729,742.79,100.00,59.00,25.98,140.00,15.00,T,29.86,1009.00,10.00,21.00,CLR,M,M,M,M,M,M,M,VCTS,M,M,M,34.00,160.00,2024-06-25 21:21,100.11,KHND 252156Z 14015G21KT 10SM VCTS CLR 38/15 A2986 RMK AO2 PK WND 16034/2121 RAB07E37 SLP090 P0000 T03780150,M
TPH,2024-06-25 21:56,-117.0904,38.0505,1654.00,93.00,42.00,17.13,M,5.00,0.00,30.08,1008.90,10.00,M,CLR,M,M,M,M,M,M,M,M,M,M,M,M,M,M,88.92,KTPH 252156Z AUTO VRB05KT 10SM CLR 34/06 A3008 RMK AO2 SLP089 T03390056,M
LAS,2024-06-25 21:56,-115.1634,36.0719,663.00,104.00,54.00,19.23,160.00,16.00,0.00,29.81,1006.00,10.00,24.00,SCT,SCT,SCT,M,12000.00,18000.00,22000.00,M,TS,M,M,M,28.00,170.00,2024-06-25 21:02,102.46,KLAS 252156Z 16016G24KT 10SM TS SCT120CB SCT180 SCT220 40/12 A2981 RMK AO2 PK WND 17028/2102 TSB03 SLP060 OCNL LTGICCG E-S TS E-S MOV N VCSH E-S CB DSNT NE-SE T04000122,M
BVU,2024-06-25 22:15,-114.8611,35.9475,671.00,102.20,53.60,20.00,270.00,11.00,0.00,29.80,M,10.00,17.00,CLR,M,M,M,M,M,M,M,M,M,M,M,M,M,M,100.38,KBVU 252215Z AUTO 27011G17KT 10SM CLR 39/12 A2980 RMK AO2,M
CXP,2024-06-25 22:15,-119.7326,39.1923,1431.00,91.40,48.20,22.78,290.00,10.00,0.00,30.07,M,10.00,17.00,CLR,M,M,M,M,M,M,M,M,M,M,M,M,M,M,88.09,KCXP 252215Z AUTO 29010G17KT 10SM CLR 33/09 A3007 RMK AO2,M
RTS,2024-06-25 22:15,-119.8764,39.6682,1539.00,87.80,48.20,25.52,310.00,14.00,0.00,30.11,M,10.00,19.00,FEW,FEW,M,M,8500.00,10000.00,M,M,M,M,M,M,M,M,M,84.87,KRTS 252215Z AUTO 31014G19KT 10SM FEW085 FEW100 31/09 A3011 RMK AO2,M
MEV,2024-06-25 22:15,-119.7500,38.9963,1441.42,89.60,50.00,25.79,290.00,12.00,0.00,30.05,M,10.00,M,CLR,M,M,M,M,M,M,M,M,M,M,M,M,M,M,86.70,KMEV 252215Z AUTO 29012KT 10SM CLR 32/10 A3005 RMK AO2,M
BAM,2024-06-25 22:15,-116.8743,40.5990,1382.36,95.00,42.80,16.60,340.00,13.00,0.00,30.06,M,10.00,17.00,SCT,M,M,M,12000.00,M,M,M,M,M,M,M,M,M,M,90.86,KBAM 252215Z AUTO 34013G17KT 10SM SCT120 35/06 A3006 RMK AO1,M
HTH,2024-06-25 22:15,-118.6315,38.5448,1282.89,80.60,60.80,50.95,240.00,6.00,0.00,30.03,M,10.00,M,FEW,FEW,SCT,M,4900.00,7000.00,9000.00,M,M,M,M,M,M,M,M,81.46,KHTH 252215Z AUTO 24006KT 10SM FEW049 FEW070 SCT090 27/16 A3003 RMK A01,M
10U,2024-06-25 22:15,-116.1876,41.9532,1637.00,84.20,30.20,14.18,220.00,18.00,0.00,30.14,M,10.00,25.00,CLR,M,M,M,M,M,M,M,M,M,M,M,M,M,M,81.26,K10U 252215Z AUTO 22018G25KT 10SM CLR 29/M01 A3014 RMK AO2,M
TMT,2024-06-25 22:15,-117.1971,39.4643,1749.34,85.30,47.30,26.72,340.00,16.00,0.00,30.12,M,10.00,21.00,OVC,M,M,M,10000.00,M,M,M,M,M,M,M,M,M,M,82.76,KTMT 252215Z AUTO 34016G21KT 10SM OVC100 30/09 A3012 RMK AO2 T02960085,M
NFL,2024-06-25 22:16,-118.7010,39.4166,1199.00,92.00,49.00,23.04,360.00,5.00,T,30.00,M,10.00,M,BKN,BKN,BKN,M,6000.00,11000.00,18000.00,M,M,M,M,M,M,M,M,88.77,KNFL 252216Z 36005KT 10SM BKN060CB BKN110 BKN180 33/09 A3000 RMK AO2 RAE03 OCNL LTGICCG VC SE-S-W TS SE-S-W MOV NE P0000 T03330094,M
BVU,2024-06-25 22:35,-114.8611,35.9475,671.00,102.20,51.80,18.72,260.00,10.00,0.00,29.79,M,10.00,19.00,CLR,M,M,M,M,M,M,M,M,M,M,M,M,M,M,99.80,KBVU 252235Z AUTO 26010G19KT 10SM CLR 39/11 A2979 RMK AO2 LTG DSNT SW AND W,M
CXP,2024-06-25 22:35,-119.7326,39.1923,1431.00,91.40,50.00,24.37,270.00,11.00,0.00,30.07,M,10.00,M,CLR,M,M,M,M,M,M,M,M,M,M,M,M,M,M,88.36,KCXP 252235Z AUTO 27011KT 10SM CLR 33/10 A3007 RMK AO2,M
RTS,2024-06-25 22:35,-119.8764,39.6682,1539.00,86.00,48.20,27.03,300.00,10.00,0.00,30.11,M,10.00,M,FEW,M,M,M,10000.00,M,M,M,M,M,M,M,M,M,M,83.40,KRTS 252235Z AUTO 30010KT 10SM FEW100 30/09 A3011 RMK AO2,M
MEV,2024-06-25 22:35,-119.7500,38.9963,1441.42,89.60,50.00,25.79,270.00,11.00,0.00,30.05,M,10.00,18.00,CLR,M,M,M,M,M,M,M,M,M,M,M,M,M,M,86.70,KMEV 252235Z AUTO 27011G18KT 10SM CLR 32/10 A3005 RMK AO2,M
BAM,2024-06-25 22:35,-116.8743,40.5990,1382.36,93.20,42.80,17.55,350.00,11.00,0.00,30.06,M,10.00,18.00,CLR,M,M,M,M,M,M,M,M,M,M,M,M,M,M,89.17,KBAM 252235Z AUTO 35011G18KT 10SM CLR 34/06 A3006 RMK AO1,M
HTH,2024-06-25 22:35,-118.6315,38.5448,1282.89,82.40,59.00,45.07,340.00,9.00,0.00,30.04,M,10.00,15.00,FEW,M,M,M,12000.00,M,M,M,M,M,M,M,M,M,M,82.46,KHTH 252235Z AUTO 34009G15KT 10SM FEW120 28/15 A3004 RMK A01,M
10U,2024-06-25 22:35,-116.1876,41.9532,1637.00,86.00,32.00,14.40,260.00,17.00,0.00,30.14,M,10.00,M,SCT,M,M,M,11000.00,M,M,M,M,M,M,M,M,M,M,82.64,K10U 252235Z AUTO 26017KT 10SM SCT110 30/M00 A3014 RMK AO2,M
TMT,2024-06-25 22:35,-117.1971,39.4643,1749.34,77.00,55.00,46.57,340.00,7.00,0.00,30.15,M,7.00,M,SCT,BKN,OVC,M,5000.00,7000.00,10000.00,M,+RA,M,M,M,M,M,M,77.00,KTMT 252235Z AUTO 34007KT 7SM +RA SCT050 BKN070 OVC100 25/13 A3015 RMK AO2 T02500128,M
HND,2024-06-25 22:47,-115.1344,35.9729,742.79,105.80,57.20,20.48,140.00,12.00,0.00,29.83,M,10.00,17.00,CLR,M,M,M,M,M,M,M,M,M,M,M,M,M,M,105.80,KHND 252247Z 14012G17KT 10SM CLR 41/14 A2983 RMK AO2 TSE41,M
P68,2024-06-25 22:53,-116.0056,39.6014,1993.00,85.00,41.00,21.21,30.00,7.00,0.00,30.13,1011.40,M,16.00,M,M,M,M,M,M,M,M,M,M,M,M,28.00,320.00,2024-06-25 22:26,82.10,KP68 252253Z AUTO 03007G16KT 29/05 A3013 RMK AO1 PK WND 32028/2226 SLP114 T02940050,M
DRA,2024-06-25 22:53,-116.0278,36.6206,1009.00,105.00,50.00,16.11,220.00,9.00,0.00,29.87,1005.10,10.00,21.00,FEW,M,M,M,12000.00,M,M,M,M,M,M,M,M,M,M,102.16,KDRA 252253Z AUTO 22009G21KT 10SM FEW120 41/10 A2987 RMK AO2 SLP051 T04060100,M
ELY,2024-06-25 22:53,-114.8453,39.2950,1909.00,90.00,35.00,14.30,0.00,0.00,0.00,30.13,1009.40,10.00,M,FEW,M,M,M,12000.00,M,M,M,M,M,M,M,M,M,M,85.95,KELY 252253Z AUTO 00000KT 10SM FEW120 32/02 A3013 RMK AO2 SLP094 T03220017,M
VGT,2024-06-25 22:53,-115.1933,36.2111,667.00,107.00,54.00,17.60,170.00,15.00,0.00,29.78,1006.40,10.00,M,CLR,M,M,M,M,M,M,M,M,M,M,M,M,M,M,105.66,KVGT 252253Z 17015KT 10SM CLR 42/12 A2978 RMK AO2 LTG DSNT NW SLP064 T04170122,M
LOL,2024-06-25 22:53,-118.5701,40.0684,1192.43,90.00,47.00,22.76,110.00,9.00,0.00,29.98,1011.20,10.00,M,CLR,M,M,M,M,M,M,M,M,M,M,M,M,M,M,86.66,KLOL 252253Z AUTO 11009KT 10SM CLR 32/08 A2998 RMK AO2 LTG DSNT SE AND SW SLP112 T03220083,M
BVU,2024-06-25 22:55,-114.8611,35.9475,671.00,102.20,50.00,17.51,250.00,8.00,0.00,29.78,M,10.00,M,CLR,M,M,M,M,M,M,M,M,M,M,M,M,M,M,99.28,KBVU 252255Z AUTO 25008KT 10SM CLR 39/10 A2978 RMK AO2,M
CXP,2024-06-25 22:55,-119.7326,39.1923,1431.00,91.40,50.00,24.37,300.00,12.00,0.00,30.07,M,10.00,17.00,CLR,M,M,M,M,M,M,M,M,M,M,M,M,M,M,88.36,KCXP 252255Z AUTO 30012G17KT 10SM CLR 33/10 A3007 RMK AO2,M
RNO,2024-06-25 22:55,-119.7711,39.4839,1341.00,94.00,57.00,29.05,330.00,12.00,0.00,30.03,1010.00,10.00,18.00,BKN,BKN,M,M,10000.00,15000.00,M,M,M,M,M,M,M,M,M,92.68,KRNO 252255Z 33012G18KT 10SM BKN100 BKN150 34/14 A3003 RMK AO2 SLP100 T03440139,M
RTS,2024-06-25 22:55,-119.8764,39.6682,1539.00,86.00,48.20,27.03,320.00,15.00,0.00,30.10,M,10.00,M,SCT,SCT,M,M,8000.00,9500.00,M,M,M,M,M,M,M,M,M,83.40,KRTS 252255Z AUTO 32015KT 10SM SCT080 SCT095 30/09 A3010 RMK AO2,M
MEV,2024-06-25 22:55,-119.7500,38.9963,1441.42,91.40,51.80,26.05,270.00,12.00,0.00,30.04,M,10.00,18.00,CLR,M,M,M,M,M,M,M,M,M,M,M,M,M,M,88.69,KMEV 252255Z AUTO 27012G18KT 240V300 10SM CLR 33/11 A3004 RMK AO2,M
BAM,2024-06-25 22:55,-116.8743,40.5990,1382.36,93.20,42.80,17.55,360.00,10.00,0.00,30.05,M,10.00,M,CLR,M,M,M,M,M,M,M,M,M,M,M,M,M,M,89.17,KBAM 252255Z AUTO 36010KT 10SM CLR 34/06 A3005 RMK AO1,M
HTH,2024-06-25 22:55,-118.6315,38.5448,1282.89,84.20,60.80,45.34,310.00,10.00,0.00,30.03,M,10.00,M,FEW,M,M,M,12000.00,M,M,M,M,M,M,M,M,M,M,84.43,KHTH 252255Z AUTO 31010KT 10SM FEW120 29/16 A3003 RMK A01,M
10U,2024-06-25 22:55,-116.1876,41.9532,1637.00,84.20,32.00,15.25,240.00,13.00,0.00,30.15,M,10.00,19.00,SCT,M,M,M,11000.00,M,M,M,M,M,M,M,M,M,M,81.28,K10U 252255Z AUTO 24013G19KT 10SM SCT110 29/00 A3015 RMK AO2,M
TMT,2024-06-25 22:55,-117.1971,39.4643,1749.34,65.00,54.70,69.27,150.00,9.00,0.00,30.19,M,2.00,30.00,SCT,BKN,OVC,M,3600.00,4900.00,7000.00,M,+RA,M,M,M,M,M,M,65.00,KTMT 252255Z AUTO 15009G30KT 2SM +RA SCT036 BKN049 OVC070 18/13 A3019 RMK AO2 VIS 1 1/4V4 T01840126,M
INS,2024-06-25 22:55,-115.6733,36.5872,955.00,103.30,48.40,15.96,90.00,26.00,0.00,29.86,1005.20,9.00,30.00,FEW,M,M,M,13000.00,M,M,M,M,M,M,M,M,M,M,99.99,KINS 252255Z AUTO 09026G30KT 9SM FEW130 40/09 A2986 RMK AO2 SLP052 T03960091 $,M
LSV,2024-06-25 22:55,-115.0343,36.2362,570.00,109.60,45.50,11.89,190.00,14.00,0.00,29.72,1003.20,10.00,M,CLR,M,M,M,M,M,M,M,M,M,M,M,M,M,M,105.24,KLSV 252255Z AUTO 19014KT 10SM CLR 43/08 A2972 RMK AO2 SLP032 T04310075 $,M
EKO,2024-06-25 22:56,-115.7860,40.8242,1367.00,92.00,41.00,17.00,M,6.00,0.00,30.07,1012.20,10.00,17.00,CLR,M,M,M,M,M,M,M,M,M,M,M,26.00,280.00,2024-06-25 22:16,87.94,KEKO 252256Z AUTO VRB06G17KT 10SM CLR 33/05 A3007 RMK AO2 PK WND 28026/2216 SLP122 T03330050,M
WMC,2024-06-25 22:56,-117.8072,40.9019,1315.00,90.00,44.00,20.31,300.00,6.00,0.00,30.04,1012.20,10.00,M,CLR,M,M,M,M,M,M,M,M,M,M,M,M,M,M,86.37,KWMC 252256Z AUTO 30006KT 10SM CLR 32/07 A3004 RMK AO2 SLP122 T03220067,M
HND,2024-06-25 22:56,-115.1344,35.9729,742.79,106.00,60.00,22.51,170.00,14.00,0.00,29.83,1007.60,10.00,21.00,CLR,M,M,M,M,M,M,M,M,M,M,M,M,M,M,107.51,KHND 252256Z 17014G21KT 10SM CLR 41/16 A2983 RMK AO2 TSE41 SLP076 T04110156,M
TPH,2024-06-25 22:56,-117.0904,38.0505,1654.00,93.00,42.00,17.13,130.00,6.00,0.00,30.06,1008.30,10.00,M,CLR,M,M,M,M,M,M,M,M,M,M,M,M,M,M,88.92,KTPH 252256Z AUTO 13006KT 10SM CLR 34/06 A3006 RMK AO2 SLP083 T03390056,M
LAS,2024-06-25 22:56,-115.1634,36.0719,663.00,109.00,54.00,16.60,130.00,7.00,0.00,29.79,1005.10,10.00,17.00,SCT,SCT,SCT,M,12000.00,18000.00,22000.00,M,TS,M,M,M,27.00,140.00,2024-06-25 22:24,107.76,KLAS 252256Z 13007G17KT 10SM TS SCT120CB SCT180 SCT220 43/12 A2979 RMK AO2 PK WND 14027/2224 SLP051 OCNL LTGICCG E TS E MOV N VCSH NE-SE CB DSNT NE-SE T04280122,M
NFL,2024-06-25 22:56,-118.7010,39.4166,1199.00,82.00,53.00,36.74,140.00,20.00,T,30.04,1014.10,4.00,31.00,BKN,BKN,BKN,M,6000.00,11000.00,18000.00,M,HZ,M,M,M,31.00,120.00,2024-06-25 22:51,81.10,KNFL 252256Z 14020G31KT 4SM HZ BKN060CB BKN110 BKN180 28/12 A3004 RMK AO2 PK WND 12031/2251 RAE03 SLP141 OCNL LTGICCG VC SE-S-W TS SE-S-W MOV NE P0000 T02780117,M
NFL,2024-06-25 22:59,-118.7010,39.4166,1199.00,82.00,54.00,38.11,140.00,17.00,0.00,30.04,M,5.00,31.00,BKN,BKN,BKN,M,6000.00,11000.00,18000.00,M,BLDU,M,M,M,M,M,M,81.24,KNFL 252259Z 14017G31KT 5SM BLDU BKN060 BKN110 BKN180 28/12 A3004 RMK AO2 OCNL LTGICCG DSNT E & SW-NW CB DSNT E & SW-NW T02780122,M
LOL,2024-06-25 23:04,-118.5701,40.0684,1192.43,90.00,47.00,22.76,130.00,8.00,0.00,29.99,M,10.00,M,CLR,M,M,M,M,M,M,M,VCTS,M,M,M,M,M,M,86.66,KLOL 252304Z AUTO 13008KT 10SM VCTS CLR 32/08 A2999 RMK AO2 LTG DSNT SW AND W T03220083,M
LAS,2024-06-25 23:09,-115.1634,36.0719,663.00,111.00,54.00,15.66,160.00,7.00,0.00,29.78,M,10.00,M,SCT,SCT,SCT,M,12000.00,18000.00,22000.00,M,M,M,M,M,M,M,M,109.82,KLAS 252309Z 16007KT 10SM SCT120 SCT180 SCT220 44/12 A2978 RMK AO2 TSE08 TS DSIPTD CB DSNT NE-SE AND SW-NW T04390122,M
BVU,2024-06-25 23:15,-114.8611,35.9475,671.00,105.80,51.80,16.82,260.00,11.00,0.00,29.78,M,10.00,M,CLR,M,M,M,M,M,M,M,M,M,M,M,M,M,M,103.57,KBVU 252315Z AUTO 26011KT 10SM CLR 41/11 A2978 RMK AO2,M
CXP,2024-06-25 23:15,-119.7326,39.1923,1431.00,91.40,50.00,24.37,290.00,13.00,0.00,30.07,M,10.00,18.00,CLR,M,M,M,M,M,M,M,M,M,M,M,M,M,M,88.36,KCXP 252315Z AUTO 29013G18KT 10SM CLR 33/10 A3007 RMK AO2,M
RTS,2024-06-25 23:15,-119.8764,39.6682,1539.00,86.00,50.00,28.90,320.00,9.00,0.00,30.10,M,10.00,17.00,FEW,FEW,M,M,8000.00,9000.00,M,M,M,M,M,M,M,M,M,83.62,KRTS 252315Z AUTO 32009G17KT 10SM FEW080 FEW090 30/10 A3010 RMK AO2,M
MEV,2024-06-25 23:15,-119.7500,38.9963,1441.42,91.40,51.80,26.05,290.00,14.00,0.00,30.04,M,10.00,M,CLR,M,M,M,M,M,M,M,M,M,M,M,M,M,M,88.69,KMEV 252315Z AUTO 29014KT 10SM CLR 33/11 A3004 RMK AO2,M
BAM,2024-06-25 23:15,-116.8743,40.5990,1382.36,93.20,42.80,17.55,360.00,9.00,0.00,30.04,M,10.00,M,CLR,M,M,M,M,M,M,M,M,M,M,M,M,M,M,89.17,KBAM 252315Z AUTO 36009KT 10SM CLR 34/06 A3004 RMK AO1,M
HTH,2024-06-25 23:15,-118.6315,38.5448,1282.89,80.60,60.80,50.95,330.00,9.00,0.00,30.02,M,10.00,M,CLR,M,M,M,M,M,M,M,M,M,M,M,M,M,M,81.46,KHTH 252315Z AUTO 33009KT 10SM CLR 27/16 A3002 RMK A01,M
10U,2024-06-25 23:15,-116.1876,41.9532,1637.00,84.20,35.60,17.61,280.00,11.00,0.00,30.12,M,10.00,M,FEW,M,M,M,11000.00,M,M,M,M,M,M,M,M,M,M,81.34,K10U 252315Z AUTO 28011KT 10SM FEW110 29/02 A3012 RMK AO2,M
TMT,2024-06-25 23:15,-117.1971,39.4643,1749.34,66.00,57.60,74.31,80.00,5.00,0.00,30.17,M,7.00,M,SCT,BKN,OVC,M,3700.00,5000.00,9000.00,M,-RA,M,M,M,M,M,M,66.00,KTMT 252315Z AUTO 08005KT 7SM -RA SCT037 BKN050 OVC090 19/14 A3017 RMK AO2 T01880142,M
LOL,2024-06-25 23:19,-118.5701,40.0684,1192.43,88.00,48.00,25.17,190.00,16.00,T,30.02,M,10.00,23.00,BKN,M,M,M,11000.00,M,M,M,-RA,M,M,M,M,M,M,85.02,KLOL 252319Z AUTO 19016G23KT 10SM -RA BKN110 31/09 A3002 RMK AO2 LTG DSNT S-W RAB19 PRESRR P0000 T03110089,M
LOL,2024-06-25 23:29,-118.5701,40.0684,1192.43,80.00,53.00,39.21,280.00,20.00,T,30.04,M,8.00,36.00,FEW,OVC,M,M,9000.00,11000.00,M,M,VCTS -RA,M,M,M,36.00,240.00,2024-06-25 23:21,79.87,KLOL 252329Z AUTO 28020G36KT 8SM VCTS -RA FEW090 OVC110 27/12 A3004 RMK AO2 PK WND 24036/2321 WSHFT 2315 LTG DSNT ALQDS RAB19 PRESRR P0000 T02670117,M
BVU,2024-06-25 23:35,-114.8611,35.9475,671.00,104.00,51.80,17.74,240.00,8.00,0.00,29.77,M,10.00,M,CLR,M,M,M,M,M,M,M,M,M,M,M,M,M,M,101.69,KBVU 252335Z AUTO 24008KT 10SM CLR 40/11 A2977 RMK AO2,M
CXP,2024-06-25 23:35,-119.7326,39.1923,1431.00,87.80,50.00,27.29,260.00,13.00,0.00,30.07,M,10.00,19.00,CLR,M,M,M,M,M,M,M,M,M,M,M,M,M,M,85.11,KCXP 252335Z AUTO 26013G19KT 230V290 10SM CLR 31/10 A3007 RMK AO2,M
RTS,2024-06-25 23:35,-119.8764,39.6682,1539.00,86.00,50.00,28.90,270.00,8.00,0.00,30.10,M,10.00,16.00,CLR,M,M,M,M,M,M,M,M,M,M,M,M,M,M,83.62,KRTS 252335Z AUTO 27008G16KT 10SM CLR 30/10 A3010 RMK AO2,M
MEV,2024-06-25 23:35,-119.7500,38.9963,1441.42,89.60,51.80,27.56,290.00,17.00,0.00,30.04,M,3.00,22.00,CLR,M,M,M,M,M,M,M,-RA HZ,M,M,M,M,M,M,87.00,KMEV 252335Z AUTO 29017G22KT 3SM -RA HZ CLR 32/11 A3004 RMK AO2,M
BAM,2024-06-25 23:35,-116.8743,40.5990,1382.36,93.20,42.80,17.55,340.00,8.00,0.00,30.04,M,10.00,M,CLR,M,M,M,M,M,M,M,M,M,M,M,M,M,M,89.17,KBAM 252335Z AUTO 34008KT 10SM CLR 34/06 A3004 RMK AO1,M
HTH,2024-06-25 23:35,-118.6315,38.5448,1282.89,82.40,59.00,45.07,330.00,9.00,0.00,30.01,M,10.00,M,CLR,M,M,M,M,M,M,M,M,M,M,M,M,M,M,82.46,KHTH 252335Z AUTO 33009KT 10SM CLR 28/15 A3001 RMK A01,M
10U,2024-06-25 23:35,-116.1876,41.9532,1637.00,86.00,37.40,17.85,M,6.00,0.00,30.11,M,10.00,15.00,CLR,M,M,M,M,M,M,M,M,M,M,M,M,M,M,82.73,K10U 252335Z AUTO VRB06G15KT 10SM CLR 30/03 A3011 RMK AO2,M
TMT,2024-06-25 23:35,-117.1971,39.4643,1749.34,68.70,62.00,79.19,350.00,8.00,0.00,30.18,M,10.00,M,SCT,SCT,SCT,M,5000.00,6000.00,12000.00,M,M,M,M,M,M,M,M,68.70,KTMT 252335Z AUTO 35008KT 10SM SCT050 SCT060 SCT120 20/17 A3018 RMK AO2 T02040166,M
LSV,2024-06-25 23:37,-115.0343,36.2362,570.00,109.40,46.40,12.37,170.00,13.00,0.00,29.71,1002.80,10.00,19.00,CLR,M,M,M,M,M,M,M,M,M,M,M,M,M,M,105.36,KLSV 252337Z AUTO 17013G19KT 10SM CLR 43/08 A2971 RMK AO2 WSHFT 34 SLP028 $,M
RNO,2024-06-25 23:50,-119.7711,39.4839,1341.00,89.60,55.40,31.45,20.00,10.00,0.00,30.03,M,10.00,M,BKN,BKN,M,M,10000.00,15000.00,M,M,TS,M,M,M,M,M,M,87.78,KRNO 252350Z 02010KT 10SM TS BKN100CB BKN150 32/13 A3003 RMK AO2 TSB48 OCNL LTGICCG NE TS NE MOV NE,M
P68,2024-06-25 23:53,-116.0056,39.6014,1993.00,83.00,42.00,23.51,170.00,25.00,0.00,30.14,1012.20,M,37.00,M,M,M,M,M,M,M,M,M,M,M,M,37.00,190.00,2024-06-25 23:53,80.74,KP68 252353Z AUTO 17025G37KT 28/06 A3014 RMK AO1 PK WND 19037/2353 WSHFT 2339 SLP122 T02830056 10322 20267 55001,M
DRA,2024-06-25 23:53,-116.0278,36.6206,1009.00,105.00,50.00,16.11,230.00,13.00,0.00,29.85,1004.50,10.00,23.00,CLR,M,M,M,M,M,M,M,M,M,M,M,26.00,200.00,2024-06-25 23:00,102.16,KDRA 252353Z AUTO 23013G23KT 10SM CLR 41/10 A2985 RMK AO2 PK WND 20026/2300 SLP045 T04060100 10417 20361 56020,M
ELY,2024-06-25 23:53,-114.8453,39.2950,1909.00,90.00,35.00,14.30,190.00,6.00,0.00,30.11,1008.90,10.00,M,CLR,M,M,M,M,M,M,M,M,M,M,M,M,M,M,85.95,KELY 252353Z AUTO 19006KT 10SM CLR 32/02 A3011 RMK AO2 SLP089 T03220017 10350 20306 56017,M
VGT,2024-06-25 23:53,-115.1933,36.2111,667.00,108.00,54.00,17.09,130.00,6.00,0.00,29.75,1005.60,10.00,M,CLR,M,M,M,M,M,M,M,M,M,M,M,M,M,M,106.72,KVGT 252353Z 13006KT 10SM CLR 42/12 A2975 RMK AO2 LTG DSNT NW SLP056 60000 T04220122 10439 20400 58016,M
LOL,2024-06-25 23:53,-118.5701,40.0684,1192.43,73.00,59.00,61.50,260.00,8.00,0.01,30.09,1015.90,7.00,M,OVC,M,M,M,10000.00,M,M,M,-TSRA,M,M,M,36.00,240.00,2024-06-25 23:21,73.00,KLOL 252353Z AUTO 26008KT 7SM -TSRA OVC100 23/15 A3009 RMK AO2 PK WND 24036/2321 WSHFT 2315 LTG DSNT ALQDS RAB19 TSB41 PRESRR SLP159 P0001 60001 T02280150 10344 20228 53017,M
BVU,2024-06-25 23:55,-114.8611,35.9475,671.00,104.00,51.80,17.74,240.00,11.00,0.00,29.77,M,10.00,M,CLR,M,M,M,M,M,M,M,M,M,M,M,M,M,M,101.69,KBVU 252355Z AUTO 24011KT 10SM CLR 40/11 A2977 RMK AO2,M
CXP,2024-06-25 23:55,-119.7326,39.1923,1431.00,87.80,50.00,27.29,260.00,13.00,0.00,30.06,M,10.00,19.00,CLR,M,M,M,M,M,M,M,M,M,M,M,M,M,M,85.11,KCXP 252355Z AUTO 26013G19KT 10SM CLR 31/10 A3006 RMK AO2,M
RNO,2024-06-25 23:55,-119.7711,39.4839,1341.00,90.00,56.00,31.74,40.00,10.00,0.00,30.03,1010.30,10.00,M,BKN,BKN,M,M,10000.00,15000.00,M,M,TS,M,M,M,M,M,M,88.32,KRNO 252355Z 04010KT 10SM TS BKN100CB BKN150 32/13 A3003 RMK AO2 TSB48 SLP103 OCNL LTGICCG NE TS NE MOV NE T03220133 10350 20272 56003,M
RTS,2024-06-25 23:55,-119.8764,39.6682,1539.00,86.00,50.00,28.90,290.00,13.00,0.00,30.10,M,10.00,18.00,CLR,M,M,M,M,M,M,M,M,M,M,M,M,M,M,83.62,KRTS 252355Z AUTO 29013G18KT 10SM CLR 30/10 A3010 RMK AO2,M
MEV,2024-06-25 23:55,-119.7500,38.9963,1441.42,89.60,51.80,27.56,290.00,15.00,0.00,30.04,M,10.00,21.00,CLR,M,M,M,M,M,M,M,M,M,M,M,M,M,M,87.00,KMEV 252355Z AUTO 29015G21KT 10SM CLR 32/11 A3004 RMK AO2,M
BAM,2024-06-25 23:55,-116.8743,40.5990,1382.36,93.20,42.80,17.55,330.00,10.00,0.00,30.04,M,10.00,M,CLR,M,M,M,M,M,M,M,M,M,M,M,M,M,M,89.17,KBAM 252355Z AUTO 33010KT 10SM CLR 34/06 A3004 RMK AO1,M
HTH,2024-06-25 23:55,-118.6315,38.5448,1282.89,82.40,59.00,45.07,330.00,10.00,0.00,30.01,M,10.00,M,FEW,M,M,M,11000.00,M,M,M,M,M,M,M,M,M,M,82.46,KHTH 252355Z AUTO 33010KT 10SM FEW110 28/15 A3001 RMK A01,M
10U,2024-06-25 23:55,-116.1876,41.9532,1637.00,84.20,35.60,17.61,330.00,4.00,0.00,30.12,M,10.00,10.00,CLR,M,M,M,M,M,M,M,M,M,M,M,M,M,M,81.34,K10U 252355Z AUTO 33004G10KT 10SM CLR 29/02 A3012 RMK AO2,M
TMT,2024-06-25 23:55,-117.1971,39.4643,1749.34,71.40,62.80,74.29,50.00,4.00,0.00,30.16,M,10.00,M,CLR,M,M,M,M,M,M,M,M,M,M,M,M,M,M,71.40,KTMT 252355Z AUTO 05004KT 10SM CLR 22/17 A3016 RMK AO2 T02190171 10320 20182,M
INS,2024-06-25 23:55,-115.6733,36.5872,955.00,100.20,50.50,18.94,120.00,21.00,0.00,29.84,1004.50,10.00,26.00,BKN,BKN,M,M,13000.00,19000.00,M,M,M,M,M,M,29.00,90.00,2024-06-25 22:56,97.34,KINS 252355Z AUTO 12021G26KT 10SM BKN130 BKN190 38/10 A2984 RMK AO2 PK WND 09029/2256 SLP045 T03790103 10407 20365 57016 $,M
LSV,2024-06-25 23:55,-115.0343,36.2362,570.00,109.60,47.70,12.91,160.00,12.00,0.00,29.70,1002.50,10.00,M,CLR,M,M,M,M,M,M,M,M,M,M,M,M,M,M,105.99,KLSV 252355Z AUTO 16012KT 10SM CLR 43/09 A2970 RMK AO2 SLP025 T04310087 10438 20406 57017 $,M
EKO,2024-06-25 23:56,-115.7860,40.8242,1367.00,92.00,38.00,15.12,330.00,11.00,0.00,30.05,1011.10,10.00,18.00,CLR,M,M,M,M,M,M,M,M,M,M,M,M,M,M,87.78,KEKO 252356Z AUTO 33011G18KT 10SM CLR 33/03 A3005 RMK AO2 SLP111 T03330033 10344 20306 58015,M
WMC,2024-06-25 23:56,-117.8072,40.9019,1315.00,92.00,45.00,19.82,310.00,6.00,0.00,30.02,1011.60,10.00,M,CLR,M,M,M,M,M,M,M,M,M,M,M,M,M,M,88.27,KWMC 252356Z AUTO 31006KT 10SM CLR 33/07 A3002 RMK AO2 SLP116 T03330072 10344 20300 58017,M
NFL,2024-06-25 23:56,-118.7010,39.4166,1199.00,76.00,64.00,66.38,M,4.00,T,30.00,1013.00,7.00,M,BKN,BKN,BKN,M,6000.00,11000.00,18000.00,M,-RA,M,M,M,M,M,M,76.00,KNFL 252356Z VRB04KT 7SM -RA BKN060 BKN110 BKN180 24/18 A3000 RMK AO2 RAB13E30B47 SLP130 OCNL LTGICCG VC SW TS SW MOV NE P0000 60000 T02440178 10350 20244 58005,M
HND,2024-06-25 23:56,-115.1344,35.9729,742.79,106.00,58.00,20.95,160.00,14.00,0.00,29.81,1007.00,10.00,M,CLR,M,M,M,M,M,M,M,M,M,M,M,M,M,M,106.42,KHND 252356Z 16014KT 10SM CLR 41/14 A2981 RMK AO2 SLP070 60000 T04110144 10422 20306 58020,M
TPH,2024-06-25 23:56,-117.0904,38.0505,1654.00,94.00,40.00,15.37,200.00,8.00,0.00,30.03,1007.80,10.00,M,FEW,M,M,M,11000.00,M,M,M,M,M,M,M,M,M,M,89.70,KTPH 252356Z AUTO 20008KT 10SM FEW110 34/04 A3003 RMK AO2 SLP078 T03440044 10356 20306 56024,M
LAS,2024-06-25 23:56,-115.1634,36.0719,663.00,110.00,54.00,16.12,150.00,9.00,0.00,29.76,1004.20,10.00,16.00,FEW,FEW,SCT,M,12000.00,18000.00,22000.00,M,M,M,M,M,M,M,M,108.79,KLAS 252356Z 15009G16KT 10SM FEW120 FEW180 SCT220 43/12 A2976 RMK AO2 TSE08 SLP042 CB DSNT N AND NE-SE T04330122 10439 20394 $,M
P68,2024-06-25 23:57,-116.0056,39.6014,1993.00,82.00,43.00,25.24,200.00,20.00,0.00,30.15,M,M,37.00,M,M,M,M,M,M,M,M,M,M,M,M,28.00,190.00,2024-06-25 23:54,80.15,KP68 252357Z AUTO 20020G37KT 28/06 A3015 RMK AO1 PK WND 19028/2354 WSHFT 2340 T02780061,M
