station,valid,lon,lat,elevation,tmpf,dwpf,relh,drct,sknt,p01i,alti,mslp,vsby,gust,skyc1,skyc2,skyc3,skyc4,skyl1,skyl2,skyl3,skyl4,wxcodes,ice_accretion_1hr,ice_accretion_3hr,ice_accretion_6hr,peak_wind_gust,peak_wind_drct,peak_wind_time,feel,metar,snowdepth
05U,2024-08-30 00:10,-116.0051,39.6042,1811.23,82.40,24.80,12.03,20.00,12.00,0.00,30.26,M,10.00,17.00,CLR,M,M,M,M,M,M,M,M,M,M,M,M,M,M,79.79,K05U 300010Z AUTO 02012G17KT 10SM CLR 28/M04 A3026 RMK A01,M
BVU,2024-08-30 00:15,-114.8611,35.9475,671.00,100.40,37.40,11.41,120.00,3.00,0.00,29.90,M,10.00,18.00,CLR,M,M,M,M,M,M,M,M,M,M,M,M,M,M,95.08,KBVU 300015Z AUTO 12003G18KT 10SM CLR 38/03 A2990 RMK AO2,M
CXP,2024-08-30 00:15,-119.7326,39.1923,1431.00,89.60,26.60,10.30,70.00,13.00,0.00,30.15,M,10.00,M,CLR,M,M,M,M,M,M,M,M,M,M,M,M,M,M,85.02,KCXP 300015Z AUTO 07013KT 10SM CLR 32/M03 A3015 RMK AO2,M
RTS,2024-08-30 00:15,-119.8764,39.6682,1539.00,86.00,23.00,9.94,50.00,9.00,0.00,30.18,M,10.00,M,CLR,M,M,M,M,M,M,M,M,M,M,M,M,M,M,82.14,KRTS 300015Z AUTO 05009KT 10SM CLR 30/M05 A3018 RMK AO2,M
MEV,2024-08-30 00:15,-119.7500,38.9963,1441.42,89.60,21.20,8.22,340.00,10.00,0.00,30.12,M,10.00,17.00,CLR,M,M,M,M,M,M,M,M,M,M,M,M,M,M,84.64,KMEV 300015Z AUTO 34010G17KT 10SM CLR 32/M06 A3012 RMK AO2,M
BAM,2024-08-30 00:15,-116.8743,40.5990,1382.36,86.00,23.00,9.94,340.00,7.00,0.00,30.19,M,10.00,M,CLR,M,M,M,M,M,M,M,M,M,M,M,M,M,M,82.14,KBAM 300015Z AUTO 34007KT 10SM CLR 30/M05 A3019 RMK AO1,M
HTH,2024-08-30 00:15,-118.6315,38.5448,1282.89,91.40,23.00,8.38,320.00,13.00,0.00,30.09,M,10.00,18.00,CLR,M,M,M,M,M,M,M,M,M,M,M,M,M,M,86.08,KHTH 300015Z AUTO 32013G18KT 10SM CLR 33/M05 A3009 RMK A01,M
TMT,2024-08-30 00:15,-117.1971,39.4643,1749.34,84.20,27.00,12.44,350.00,13.00,0.00,30.24,M,10.00,16.00,CLR,M,M,M,M,M,M,M,M,M,M,M,M,M,M,81.16,KTMT 300015Z AUTO 35013G16KT 10SM CLR 29/M03 A3024 RMK AO2 T02901028,M
10U,2024-08-30 00:15,-116.1876,41.9532,1637.00,78.80,12.20,7.88,320.00,8.00,0.00,30.26,M,10.00,M,CLR,M,M,M,M,M,M,M,M,M,M,M,M,M,M,78.80,K10U 300015Z AUTO 32008KT 10SM CLR 26/M11 A3026 RMK AO2,M
05U,2024-08-30 00:25,-116.0051,39.6042,1811.23,82.40,24.80,12.03,30.00,10.00,0.00,30.25,M,10.00,M,CLR,M,M,M,M,M,M,M,M,M,M,M,M,M,M,79.79,K05U 300025Z AUTO 03010KT 10SM CLR 28/M04 A3025 RMK A01,M
BVU,2024-08-30 00:35,-114.8611,35.9475,671.00,100.40,37.40,11.41,240.00,11.00,0.00,29.90,M,10.00,M,CLR,M,M,M,M,M,M,M,M,M,M,M,M,M,M,95.08,KBVU 300035Z AUTO 24011KT 10SM CLR 38/03 A2990 RMK AO2,M
CXP,2024-08-30 00:35,-119.7326,39.1923,1431.00,87.80,26.60,10.91,80.00,11.00,0.00,30.15,M,10.00,18.00,CLR,M,M,M,M,M,M,M,M,M,M,M,M,M,M,83.69,KCXP 300035Z AUTO 08011G18KT 10SM CLR 31/M03 A3015 RMK AO2,M
RTS,2024-08-30 00:35,-119.8764,39.6682,1539.00,86.00,23.00,9.94,0.00,0.00,0.00,30.18,M,10.00,M,CLR,M,M,M,M,M,M,M,M,M,M,M,M,M,M,82.14,KRTS 300035Z AUTO 00000KT 10SM CLR 30/M05 A3018 RMK AO2,M
MEV,2024-08-30 00:35,-119.7500,38.9963,1441.42,89.60,21.20,8.22,360.00,11.00,0.00,30.12,M,10.00,17.00,CLR,M,M,M,M,M,M,M,M,M,M,M,M,M,M,84.64,KMEV 300035Z AUTO 36011G17KT 10SM CLR 32/M06 A3012 RMK AO2,M
BAM,2024-08-30 00:35,-116.8743,40.5990,1382.36,86.00,23.00,9.94,340.00,8.00,0.00,30.19,M,10.00,M,CLR,M,M,M,M,M,M,M,M,M,M,M,M,M,M,82.14,KBAM 300035Z AUTO 34008KT 10SM CLR 30/M05 A3019 RMK AO1,M
HTH,2024-08-30 00:35,-118.6315,38.5448,1282.89,91.40,23.00,8.38,320.00,14.00,0.00,30.09,M,10.00,M,CLR,M,M,M,M,M,M,M,M,M,M,M,M,M,M,86.08,KHTH 300035Z AUTO 32014KT 10SM CLR 33/M05 A3009 RMK A01,M
TMT,2024-08-30 00:35,-117.1971,39.4643,1749.34,83.70,27.00,12.64,350.00,12.00,0.00,30.24,M,10.00,16.00,CLR,M,M,M,M,M,M,M,M,M,M,M,M,M,M,80.82,KTMT 300035Z AUTO 35012G16KT 10SM CLR 29/M03 A3024 RMK AO2 T02871028,M
10U,2024-08-30 00:35,-116.1876,41.9532,1637.00,77.00,12.20,8.36,320.00,7.00,0.00,30.26,M,10.00,13.00,CLR,M,M,M,M,M,M,M,M,M,M,M,M,M,M,77.00,K10U 300035Z AUTO 32007G13KT 10SM CLR 25/M11 A3026 RMK AO2,M
05U,2024-08-30 00:50,-116.0051,39.6042,1811.23,82.40,26.60,12.97,10.00,11.00,0.00,30.25,M,10.00,M,CLR,M,M,M,M,M,M,M,M,M,M,M,M,M,M,79.92,K05U 300050Z AUTO 01011KT 10SM CLR 28/M03 A3025 RMK A01,M
P68,2024-08-30 00:53,-116.0056,39.6014,1993.00,83.00,28.00,13.47,10.00,10.00,0.00,30.23,1016.50,M,M,M,M,M,M,M,M,M,M,M,M,M,M,M,M,M,80.37,KP68 300053Z AUTO 01010KT 28/M02 A3023 RMK AO1 SLP165 T02831022,M
DRA,2024-08-30 00:53,-116.0278,36.6206,1009.00,97.00,31.00,9.80,350.00,8.00,0.00,30.00,1010.90,10.00,M,CLR,M,M,M,M,M,M,M,M,M,M,M,M,M,M,91.22,KDRA 300053Z AUTO 35008KT 10SM CLR 36/M01 A3000 RMK AO2 SLP109 T03611006,M
ELY,2024-08-30 00:53,-114.8453,39.2950,1909.00,84.00,21.00,9.74,330.00,9.00,0.00,30.24,1015.20,10.00,17.00,CLR,M,M,M,M,M,M,M,M,M,M,M,M,M,M,80.63,KELY 300053Z AUTO 33009G17KT 10SM CLR 29/M06 A3024 RMK AO2 SLP152 T02891061,M
VGT,2024-08-30 00:53,-115.1933,36.2111,667.00,102.00,38.00,11.14,190.00,9.00,0.00,29.89,1010.80,10.00,M,CLR,M,M,M,M,M,M,M,M,M,M,M,M,M,M,96.57,KVGT 300053Z 19009KT 10SM CLR 39/03 A2989 RMK AO2 SLP108 T03890033,M
LOL,2024-08-30 00:53,-118.5701,40.0684,1192.43,89.00,28.00,11.12,70.00,8.00,0.00,30.10,1015.40,10.00,M,CLR,M,M,M,M,M,M,M,M,M,M,M,M,M,M,84.69,KLOL 300053Z AUTO 07008KT 10SM CLR 32/M02 A3010 RMK AO2 SLP154 T03171022,M
BVU,2024-08-30 00:55,-114.8611,35.9475,671.00,100.40,37.40,11.41,0.00,0.00,0.00,29.90,M,10.00,M,CLR,M,M,M,M,M,M,M,M,M,M,M,M,M,M,95.08,KBVU 300055Z AUTO 00000KT 10SM CLR 38/03 A2990 RMK AO2,M
RNO,2024-08-30 00:55,-119.7711,39.4839,1341.00,90.00,50.00,25.46,80.00,5.00,0.00,30.11,1014.10,10.00,M,FEW,M,M,M,12000.00,M,M,M,M,M,M,M,M,M,M,87.06,KRNO 300055Z 08005KT 10SM FEW120 32/10 A3011 RMK AO2 SLP141 T03220100,M
CXP,2024-08-30 00:55,-119.7326,39.1923,1431.00,87.80,26.60,10.91,70.00,11.00,0.00,30.15,M,10.00,17.00,CLR,M,M,M,M,M,M,M,M,M,M,M,M,M,M,83.69,KCXP 300055Z AUTO 07011G17KT 10SM CLR 31/M03 A3015 RMK AO2,M
RTS,2024-08-30 00:55,-119.8764,39.6682,1539.00,86.00,23.00,9.94,60.00,8.00,0.00,30.18,M,10.00,M,CLR,M,M,M,M,M,M,M,M,M,M,M,M,M,M,82.14,KRTS 300055Z AUTO 06008KT 10SM CLR 30/M05 A3018 RMK AO2,M
MEV,2024-08-30 00:55,-119.7500,38.9963,1441.42,89.60,21.20,8.22,20.00,8.00,0.00,30.12,M,10.00,16.00,CLR,M,M,M,M,M,M,M,M,M,M,M,M,M,M,84.64,KMEV 300055Z AUTO 02008G16KT 10SM CLR 32/M06 A3012 RMK AO2,M
BAM,2024-08-30 00:55,-116.8743,40.5990,1382.36,84.20,23.00,10.53,330.00,7.00,0.00,30.19,M,10.00,M,CLR,M,M,M,M,M,M,M,M,M,M,M,M,M,M,80.88,KBAM 300055Z AUTO 33007KT 10SM CLR 29/M05 A3019 RMK AO1,M
HTH,2024-08-30 00:55,-118.6315,38.5448,1282.89,91.40,23.00,8.38,320.00,14.00,0.00,30.09,M,10.00,19.00,CLR,M,M,M,M,M,M,M,M,M,M,M,M,M,M,86.08,KHTH 300055Z AUTO 32014G19KT 10SM CLR 33/M05 A3009 RMK A01,M
TMT,2024-08-30 00:55,-117.1971,39.4643,1749.34,82.80,26.80,12.91,340.00,11.00,0.00,30.24,M,10.00,M,CLR,M,M,M,M,M,M,M,M,M,M,M,M,M,M,80.20,KTMT 300055Z AUTO 34011KT 10SM CLR 28/M03 A3024 RMK AO2 T02821029,M
10U,2024-08-30 00:55,-116.1876,41.9532,1637.00,77.00,14.00,9.05,340.00,9.00,0.00,30.26,M,10.00,M,CLR,M,M,M,M,M,M,M,M,M,M,M,M,M,M,77.00,K10U 300055Z AUTO 34009KT 10SM CLR 25/M10 A3026 RMK AO2,M
INS,2024-08-30 00:55,-115.6733,36.5872,955.00,97.70,19.60,5.97,240.00,8.00,0.00,29.97,1009.20,10.00,M,CLR,M,M,M,M,M,M,M,M,M,M,M,M,M,M,90.75,KINS 300055Z AUTO 24008KT 10SM CLR 37/M07 A2997 RMK AO2 SLP092 T03651069,M
LSV,2024-08-30 00:55,-115.0343,36.2362,570.00,103.00,30.20,7.92,110.00,6.00,0.00,29.84,1007.40,10.00,M,CLR,M,M,M,M,M,M,M,M,M,M,M,M,M,M,96.18,KLSV 300055Z AUTO 11006KT 10SM CLR 39/M01 A2984 RMK AO2 SLP074 T03941010 $,M
EKO,2024-08-30 00:56,-115.7860,40.8242,1367.00,83.00,12.00,6.81,310.00,3.00,0.00,30.20,1018.60,10.00,M,CLR,M,M,M,M,M,M,M,M,M,M,M,M,M,M,79.53,KEKO 300056Z AUTO 31003KT 10SM CLR 28/M11 A3020 RMK AO2 SLP186 T02831111,M
HND,2024-08-30 00:56,-115.1344,35.9729,742.79,100.00,41.00,13.30,210.00,8.00,0.00,29.95,1012.40,10.00,M,CLR,M,M,M,M,M,M,M,M,M,M,M,M,M,M,95.42,KHND 300056Z 21008KT 10SM CLR 38/05 A2995 RMK AO2 SLP124 T03780050,M
TPH,2024-08-30 00:56,-117.0904,38.0505,1654.00,88.00,20.00,8.21,230.00,4.00,0.00,30.16,1014.00,10.00,M,CLR,M,M,M,M,M,M,M,M,M,M,M,M,M,M,83.41,KTPH 300056Z AUTO 23004KT 10SM CLR 31/M07 A3016 RMK AO2 SLP140 T03111067,M
LAS,2024-08-30 00:56,-115.1634,36.0719,663.00,98.00,43.00,15.26,150.00,7.00,0.00,29.91,1009.90,10.00,M,FEW,FEW,M,M,12000.00,18000.00,M,M,M,M,M,M,M,M,M,93.75,KLAS 300056Z 15007KT 10SM FEW120 FEW180 37/06 A2991 RMK AO2 SLP099 T03670061 $,M
NFL,2024-08-30 00:57,-118.7010,39.4166,1199.00,92.00,31.00,11.44,40.00,9.00,0.00,30.09,1015.70,10.00,M,FEW,M,M,M,8000.00,M,M,M,M,M,M,M,M,M,M,87.26,KNFL 300057Z 04009KT 10SM FEW080 33/M01 A3009 RMK AO2 SLP157 T03331006,M
LAS,2024-08-30 00:59,-115.1634,36.0719,663.00,98.00,43.00,15.26,M,5.00,0.00,29.91,M,10.00,M,FEW,FEW,SCT,M,1000.00,12000.00,18000.00,M,M,M,M,M,M,M,M,93.75,KLAS 300059Z VRB05KT 10SM FEW010 FEW120 SCT180 37/06 A2991 RMK AO2 FU FEW010 FU E-SE T03670061 $,M
05U,2024-08-30 01:10,-116.0051,39.6042,1811.23,80.60,26.60,13.75,20.00,9.00,0.00,30.26,M,10.00,16.00,CLR,M,M,M,M,M,M,M,M,M,M,M,M,M,M,78.68,K05U 300110Z AUTO 02009G16KT 10SM CLR 27/M03 A3026 RMK A01,M
BVU,2024-08-30 01:15,-114.8611,35.9475,671.00,100.40,35.60,10.63,200.00,9.00,0.00,29.89,M,10.00,M,CLR,M,M,M,M,M,M,M,M,M,M,M,M,M,M,94.76,KBVU 300115Z AUTO 20009KT 10SM CLR 38/02 A2989 RMK AO2,M
CXP,2024-08-30 01:15,-119.7326,39.1923,1431.00,87.80,26.60,10.91,50.00,13.00,0.00,30.15,M,10.00,M,CLR,M,M,M,M,M,M,M,M,M,M,M,M,M,M,83.69,KCXP 300115Z AUTO 05013KT 10SM CLR 31/M03 A3015 RMK AO2,M
RTS,2024-08-30 01:15,-119.8764,39.6682,1539.00,86.00,21.20,9.21,50.00,7.00,0.00,30.18,M,10.00,M,CLR,M,M,M,M,M,M,M,M,M,M,M,M,M,M,82.04,KRTS 300115Z AUTO 05007KT 10SM CLR 30/M06 A3018 RMK AO2,M
MEV,2024-08-30 01:15,-119.7500,38.9963,1441.42,89.60,21.20,8.22,10.00,7.00,0.00,30.12,M,10.00,13.00,CLR,M,M,M,M,M,M,M,M,M,M,M,M,M,M,84.64,KMEV 300115Z AUTO 01007G13KT 10SM CLR 32/M06 A3012 RMK AO2,M
BAM,2024-08-30 01:15,-116.8743,40.5990,1382.36,84.20,24.80,11.35,340.00,6.00,0.00,30.19,M,10.00,M,CLR,M,M,M,M,M,M,M,M,M,M,M,M,M,M,81.00,KBAM 300115Z AUTO 34006KT 10SM CLR 29/M04 A3019 RMK AO1,M
HTH,2024-08-30 01:15,-118.6315,38.5448,1282.89,89.60,24.80,9.56,320.00,15.00,0.00,30.09,M,10.00,M,CLR,M,M,M,M,M,M,M,M,M,M,M,M,M,M,84.88,KHTH 300115Z AUTO 32015KT 10SM CLR 32/M04 A3009 RMK A01,M
TMT,2024-08-30 01:15,-117.1971,39.4643,1749.34,82.00,26.20,12.92,340.00,8.00,0.00,30.24,M,10.00,M,CLR,M,M,M,M,M,M,M,M,M,M,M,M,M,M,79.63,KTMT 300115Z AUTO 34008KT 10SM CLR 28/M03 A3024 RMK AO2 T02781032,M
10U,2024-08-30 01:15,-116.1876,41.9532,1637.00,77.00,12.20,8.36,340.00,7.00,0.00,30.26,M,10.00,M,CLR,M,M,M,M,M,M,M,M,M,M,M,M,M,M,77.00,K10U 300115Z AUTO 34007KT 10SM CLR 25/M11 A3026 RMK AO2,M
05U,2024-08-30 01:30,-116.0051,39.6042,1811.23,78.80,28.40,15.71,20.00,8.00,0.00,30.26,M,10.00,M,CLR,M,M,M,M,M,M,M,M,M,M,M,M,M,M,78.80,K05U 300130Z AUTO 02008KT 10SM CLR 26/M02 A3026 RMK A01,M
BVU,2024-08-30 01:35,-114.8611,35.9475,671.00,100.40,35.60,10.63,170.00,8.00,0.00,29.89,M,10.00,M,CLR,M,M,M,M,M,M,M,M,M,M,M,M,M,M,94.76,KBVU 300135Z AUTO 17008KT 10SM CLR 38/02 A2989 RMK AO2,M
CXP,2024-08-30 01:35,-119.7326,39.1923,1431.00,86.00,26.60,11.55,70.00,12.00,0.00,30.15,M,10.00,M,CLR,M,M,M,M,M,M,M,M,M,M,M,M,M,M,82.39,KCXP 300135Z AUTO 07012KT 10SM CLR 30/M03 A3015 RMK AO2,M
RTS,2024-08-30 01:35,-119.8764,39.6682,1539.00,84.20,23.00,10.53,60.00,9.00,0.00,30.18,M,10.00,M,CLR,M,M,M,M,M,M,M,M,M,M,M,M,M,M,80.88,KRTS 300135Z AUTO 06009KT 10SM CLR 29/M05 A3018 RMK AO2,M
MEV,2024-08-30 01:35,-119.7500,38.9963,1441.42,87.80,21.20,8.70,30.00,7.00,0.00,30.12,M,10.00,M,CLR,M,M,M,M,M,M,M,M,M,M,M,M,M,M,83.33,KMEV 300135Z AUTO 03007KT 10SM CLR 31/M06 A3012 RMK AO2,M
BAM,2024-08-30 01:35,-116.8743,40.5990,1382.36,82.40,26.60,12.97,330.00,6.00,0.00,30.19,M,10.00,M,CLR,M,M,M,M,M,M,M,M,M,M,M,M,M,M,79.92,KBAM 300135Z AUTO 33006KT 10SM CLR 28/M03 A3019 RMK AO1,M
HTH,2024-08-30 01:35,-118.6315,38.5448,1282.89,89.60,24.80,9.56,310.00,13.00,0.00,30.09,M,10.00,M,CLR,M,M,M,M,M,M,M,M,M,M,M,M,M,M,84.88,KHTH 300135Z AUTO 31013KT 10SM CLR 32/M04 A3009 RMK A01,M
TMT,2024-08-30 01:35,-117.1971,39.4643,1749.34,80.80,26.40,13.55,350.00,9.00,0.00,30.24,M,10.00,M,CLR,M,M,M,M,M,M,M,M,M,M,M,M,M,M,78.81,KTMT 300135Z AUTO 35009KT 10SM CLR 27/M03 A3024 RMK AO2 T02711031,M
10U,2024-08-30 01:35,-116.1876,41.9532,1637.00,75.20,19.40,12.14,10.00,7.00,0.00,30.26,M,10.00,M,CLR,M,M,M,M,M,M,M,M,M,M,M,M,M,M,75.20,K10U 300135Z AUTO 01007KT 10SM CLR 24/M07 A3026 RMK AO2,M
05U,2024-08-30 01:50,-116.0051,39.6042,1811.23,77.00,28.40,16.67,10.00,9.00,0.00,30.26,M,10.00,M,CLR,M,M,M,M,M,M,M,M,M,M,M,M,M,M,77.00,K05U 300150Z AUTO 01009KT 10SM CLR 25/M02 A3026 RMK A01,M
P68,2024-08-30 01:53,-116.0056,39.6014,1993.00,76.00,30.00,18.40,20.00,9.00,0.00,30.24,1017.60,M,M,M,M,M,M,M,M,M,M,M,M,M,M,M,M,M,76.00,KP68 300153Z AUTO 02009KT 24/M01 A3024 RMK AO1 SLP176 T02441011,M
DRA,2024-08-30 01:53,-116.0278,36.6206,1009.00,94.00,30.00,10.32,240.00,6.00,0.00,30.00,1011.00,10.00,M,CLR,M,M,M,M,M,M,M,M,M,M,M,M,M,M,88.68,KDRA 300153Z AUTO 24006KT 10SM CLR 34/M01 A3000 RMK AO2 SLP110 T03441011,M
ELY,2024-08-30 01:53,-114.8453,39.2950,1909.00,78.00,22.00,12.36,10.00,11.00,0.00,30.24,1015.80,10.00,M,CLR,M,M,M,M,M,M,M,M,M,M,M,M,M,M,78.00,KELY 300153Z AUTO 01011KT 10SM CLR 26/M06 A3024 RMK AO2 SLP158 T02561056,M
VGT,2024-08-30 01:53,-115.1933,36.2111,667.00,101.00,39.00,11.94,170.00,4.00,0.00,29.89,1010.90,10.00,M,CLR,M,M,M,M,M,M,M,M,M,M,M,M,M,M,95.90,KVGT 300153Z 17004KT 10SM CLR 38/04 A2989 RMK AO2 SLP109 T03830039,M
LOL,2024-08-30 01:53,-118.5701,40.0684,1192.43,87.00,26.00,10.91,40.00,9.00,0.00,30.10,1015.40,10.00,M,CLR,M,M,M,M,M,M,M,M,M,M,M,M,M,M,83.06,KLOL 300153Z AUTO 04009KT 10SM CLR 31/M03 A3010 RMK AO2 SLP154 T03061033,M
BVU,2024-08-30 01:55,-114.8611,35.9475,671.00,98.60,35.60,11.23,190.00,7.00,0.00,29.90,M,10.00,M,CLR,M,M,M,M,M,M,M,M,M,M,M,M,M,M,93.23,KBVU 300155Z AUTO 19007KT 10SM CLR 37/02 A2990 RMK AO2,M
RNO,2024-08-30 01:55,-119.7711,39.4839,1341.00,88.00,48.00,25.17,80.00,7.00,0.00,30.12,1014.40,10.00,M,FEW,M,M,M,12000.00,M,M,M,M,M,M,M,M,M,M,85.02,KRNO 300155Z 08007KT 10SM FEW120 31/09 A3012 RMK AO2 SLP144 T03110089,M
CXP,2024-08-30 01:55,-119.7326,39.1923,1431.00,86.00,26.60,11.55,60.00,9.00,0.00,30.15,M,10.00,16.00,CLR,M,M,M,M,M,M,M,M,M,M,M,M,M,M,82.39,KCXP 300155Z AUTO 06009G16KT 10SM CLR 30/M03 A3015 RMK AO2,M
RTS,2024-08-30 01:55,-119.8764,39.6682,1539.00,84.20,23.00,10.53,40.00,9.00,0.00,30.18,M,10.00,M,CLR,M,M,M,M,M,M,M,M,M,M,M,M,M,M,80.88,KRTS 300155Z AUTO 04009KT 10SM CLR 29/M05 A3018 RMK AO2,M
MEV,2024-08-30 01:55,-119.7500,38.9963,1441.42,84.20,28.40,13.18,30.00,6.00,0.00,30.13,M,10.00,M,CLR,M,M,M,M,M,M,M,M,M,M,M,M,M,M,81.25,KMEV 300155Z AUTO 03006KT 10SM CLR 29/M02 A3013 RMK AO2,M
BAM,2024-08-30 01:55,-116.8743,40.5990,1382.36,82.40,26.60,12.97,330.00,4.00,0.00,30.19,M,10.00,M,CLR,M,M,M,M,M,M,M,M,M,M,M,M,M,M,79.92,KBAM 300155Z AUTO 33004KT 10SM CLR 28/M03 A3019 RMK AO1,M
HTH,2024-08-30 01:55,-118.6315,38.5448,1282.89,87.80,24.80,10.12,310.00,11.00,0.00,30.09,M,10.00,M,CLR,M,M,M,M,M,M,M,M,M,M,M,M,M,M,83.56,KHTH 300155Z AUTO 31011KT 10SM CLR 31/M04 A3009 RMK A01,M
TMT,2024-08-30 01:55,-117.1971,39.4643,1749.34,78.60,27.50,15.24,10.00,6.00,0.00,30.24,M,10.00,M,CLR,M,M,M,M,M,M,M,M,M,M,M,M,M,M,78.60,KTMT 300155Z AUTO 01006KT 10SM CLR 26/M02 A3024 RMK AO2 T02591025,M
10U,2024-08-30 01:55,-116.1876,41.9532,1637.00,71.60,19.40,13.71,50.00,7.00,0.00,30.26,M,10.00,M,CLR,M,M,M,M,M,M,M,M,M,M,M,M,M,M,71.60,K10U 300155Z AUTO 05007KT 10SM CLR 22/M07 A3026 RMK AO2,M
INS,2024-08-30 01:55,-115.6733,36.5872,955.00,95.50,24.80,7.96,250.00,8.00,0.00,29.97,1009.70,10.00,M,CLR,M,M,M,M,M,M,M,M,M,M,M,M,M,M,89.32,KINS 300155Z AUTO 25008KT 10SM CLR 35/M04 A2997 RMK AO2 SLP097 T03531040,M
LSV,2024-08-30 01:55,-115.0343,36.2362,570.00,101.00,36.70,10.91,140.00,9.00,0.00,29.84,1007.50,10.00,M,CLR,M,M,M,M,M,M,M,M,M,M,M,M,M,M,95.46,KLSV 300155Z AUTO 14009KT 10SM CLR 38/03 A2984 RMK AO2 SLP075 T03830026 $,M
EKO,2024-08-30 01:56,-115.7860,40.8242,1367.00,76.00,23.00,13.77,210.00,4.00,0.00,30.20,1019.20,10.00,M,CLR,M,M,M,M,M,M,M,M,M,M,M,M,M,M,76.00,KEKO 300156Z AUTO 21004KT 10SM CLR 24/M05 A3020 RMK AO2 SLP192 T02441050,M
HND,2024-08-30 01:56,-115.1344,35.9729,742.79,98.00,41.00,14.13,240.00,5.00,0.00,29.95,1012.40,10.00,M,CLR,M,M,M,M,M,M,M,M,M,M,M,M,M,M,93.52,KHND 300156Z 24005KT 10SM CLR 37/05 A2995 RMK AO2 SLP124 T03670050,M
TPH,2024-08-30 01:56,-117.0904,38.0505,1654.00,86.00,20.00,8.75,180.00,4.00,0.00,30.16,1013.60,10.00,M,CLR,M,M,M,M,M,M,M,M,M,M,M,M,M,M,81.97,KTPH 300156Z AUTO 18004KT 10SM CLR 30/M07 A3016 RMK AO2 SLP136 T03001067,M
LAS,2024-08-30 01:56,-115.1634,36.0719,663.00,98.00,44.00,15.86,190.00,8.00,0.00,29.91,1010.00,10.00,M,FEW,FEW,SCT,M,1000.00,12000.00,18000.00,M,M,M,M,M,M,M,M,93.88,KLAS 300156Z 19008KT 10SM FEW010 FEW120 SCT180 37/06 A2991 RMK AO2 SLP100 FU FEW010 T03670067 $,M
NFL,2024-08-30 01:57,-118.7010,39.4166,1199.00,88.00,35.00,15.23,30.00,7.00,0.00,30.08,1015.40,10.00,M,FEW,M,M,M,8000.00,M,M,M,M,M,M,M,M,M,M,84.28,KNFL 300157Z 03007KT 10SM FEW080 31/02 A3008 RMK AO2 SLP154 T03110017,M
05U,2024-08-30 02:10,-116.0051,39.6042,1811.23,73.40,28.40,18.80,20.00,6.00,0.00,30.27,M,10.00,M,CLR,M,M,M,M,M,M,M,M,M,M,M,M,M,M,73.40,K05U 300210Z AUTO 02006KT 10SM CLR 23/M02 A3027 RMK A01,M
BVU,2024-08-30 02:15,-114.8611,35.9475,671.00,98.60,39.20,12.94,160.00,8.00,0.00,29.90,M,10.00,M,CLR,M,M,M,M,M,M,M,M,M,M,M,M,M,M,93.89,KBVU 300215Z AUTO 16008KT 10SM CLR 37/04 A2990 RMK AO2,M
CXP,2024-08-30 02:15,-119.7326,39.1923,1431.00,84.20,26.60,12.23,60.00,10.00,0.00,30.15,M,10.00,M,CLR,M,M,M,M,M,M,M,M,M,M,M,M,M,M,81.13,KCXP 300215Z AUTO 06010KT 10SM CLR 29/M03 A3015 RMK AO2,M
RTS,2024-08-30 02:15,-119.8764,39.6682,1539.00,82.40,23.00,11.16,50.00,8.00,0.00,30.18,M,10.00,M,CLR,M,M,M,M,M,M,M,M,M,M,M,M,M,M,79.67,KRTS 300215Z AUTO 05008KT 10SM CLR 28/M05 A3018 RMK AO2,M
MEV,2024-08-30 02:15,-119.7500,38.9963,1441.42,77.00,35.60,22.28,50.00,5.00,0.00,30.13,M,10.00,M,CLR,M,M,M,M,M,M,M,M,M,M,M,M,M,M,77.00,KMEV 300215Z AUTO 05005KT 10SM CLR 25/02 A3013 RMK AO2,M
BAM,2024-08-30 02:15,-116.8743,40.5990,1382.36,78.80,28.40,15.71,0.00,0.00,0.00,30.19,M,10.00,M,CLR,M,M,M,M,M,M,M,M,M,M,M,M,M,M,78.80,KBAM 300215Z AUTO 00000KT 10SM CLR 26/M02 A3019 RMK AO1,M
HTH,2024-08-30 02:15,-118.6315,38.5448,1282.89,86.00,24.80,10.72,320.00,10.00,0.00,30.09,M,10.00,M,CLR,M,M,M,M,M,M,M,M,M,M,M,M,M,M,82.26,KHTH 300215Z AUTO 32010KT 10SM CLR 30/M04 A3009 RMK A01,M
TMT,2024-08-30 02:15,-117.1971,39.4643,1749.34,74.70,27.50,17.34,20.00,6.00,0.00,30.24,M,10.00,M,CLR,M,M,M,M,M,M,M,M,M,M,M,M,M,M,74.70,KTMT 300215Z AUTO 02006KT 10SM CLR 24/M02 A3024 RMK AO2 T02371025,M
10U,2024-08-30 02:15,-116.1876,41.9532,1637.00,68.00,19.40,15.50,40.00,6.00,0.00,30.26,M,10.00,M,CLR,M,M,M,M,M,M,M,M,M,M,M,M,M,M,68.00,K10U 300215Z AUTO 04006KT 10SM CLR 20/M07 A3026 RMK AO2,M
05U,2024-08-30 02:30,-116.0051,39.6042,1811.23,68.00,30.20,24.32,0.00,0.00,0.00,30.27,M,10.00,M,CLR,M,M,M,M,M,M,M,M,M,M,M,M,M,M,68.00,K05U 300230Z AUTO 00000KT 10SM CLR 20/M01 A3027 RMK A01,M
BVU,2024-08-30 02:35,-114.8611,35.9475,671.00,96.80,41.00,14.66,160.00,7.00,0.00,29.91,M,10.00,M,CLR,M,M,M,M,M,M,M,M,M,M,M,M,M,M,92.39,KBVU 300235Z AUTO 16007KT 10SM CLR 36/05 A2991 RMK AO2,M
BAM,2024-08-30 02:35,-116.8743,40.5990,1382.36,77.00,28.40,16.67,0.00,0.00,0.00,30.19,M,10.00,M,CLR,M,M,M,M,M,M,M,M,M,M,M,M,M,M,77.00,KBAM 300235Z AUTO 00000KT 10SM CLR 25/M02 A3019 RMK AO1,M
CXP,2024-08-30 02:35,-119.7326,39.1923,1431.00,82.40,26.60,12.97,60.00,10.00,0.00,30.15,M,10.00,M,CLR,M,M,M,M,M,M,M,M,M,M,M,M,M,M,79.92,KCXP 300235Z AUTO 06010KT 10SM CLR 28/M03 A3015 RMK AO2,M
RTS,2024-08-30 02:35,-119.8764,39.6682,1539.00,80.60,21.20,10.97,50.00,10.00,0.00,30.18,M,10.00,M,CLR,M,M,M,M,M,M,M,M,M,M,M,M,M,M,78.68,KRTS 300235Z AUTO 05010KT 10SM CLR 27/M06 A3018 RMK AO2,M
MEV,2024-08-30 02:35,-119.7500,38.9963,1441.42,77.00,30.20,17.94,M,4.00,0.00,30.14,M,10.00,M,CLR,M,M,M,M,M,M,M,M,M,M,M,M,M,M,77.00,KMEV 300235Z AUTO VRB04KT 10SM CLR 25/M01 A3014 RMK AO2,M
HTH,2024-08-30 02:35,-118.6315,38.5448,1282.89,86.00,24.80,10.72,320.00,11.00,0.00,30.09,M,10.00,17.00,CLR,M,M,M,M,M,M,M,M,M,M,M,M,M,M,82.26,KHTH 300235Z AUTO 32011G17KT 10SM CLR 30/M04 A3009 RMK A01,M
TMT,2024-08-30 02:35,-117.1971,39.4643,1749.34,72.50,25.30,17.05,10.00,7.00,0.00,30.24,M,10.00,M,CLR,M,M,M,M,M,M,M,M,M,M,M,M,M,M,72.50,KTMT 300235Z AUTO 01007KT 10SM CLR 23/M04 A3024 RMK AO2 T02251037,M
10U,2024-08-30 02:35,-116.1876,41.9532,1637.00,64.40,17.60,16.26,50.00,7.00,0.00,30.26,M,10.00,M,CLR,M,M,M,M,M,M,M,M,M,M,M,M,M,M,64.40,K10U 300235Z AUTO 05007KT 10SM CLR 18/M08 A3026 RMK AO2,M
05U,2024-08-30 02:50,-116.0051,39.6042,1811.23,64.40,30.20,27.55,0.00,0.00,0.00,30.28,M,10.00,M,CLR,M,M,M,M,M,M,M,M,M,M,M,M,M,M,64.40,K05U 300250Z AUTO 00000KT 10SM CLR 18/M01 A3028 RMK A01,M
P68,2024-08-30 02:53,-116.0056,39.6014,1993.00,64.00,31.00,28.86,10.00,7.00,0.00,30.26,1018.10,M,M,M,M,M,M,M,M,M,M,M,M,M,M,M,M,M,64.00,KP68 300253Z AUTO 01007KT 18/M01 A3026 RMK AO1 SLP181 T01781006 53008,M
DRA,2024-08-30 02:53,-116.0278,36.6206,1009.00,88.00,29.00,11.96,280.00,3.00,0.00,30.01,1011.30,10.00,M,CLR,M,M,M,M,M,M,M,M,M,M,M,M,M,M,84.04,KDRA 300253Z AUTO 28003KT 10SM CLR 31/M02 A3001 RMK AO2 SLP113 T03111017 53002,M
ELY,2024-08-30 02:53,-114.8453,39.2950,1909.00,68.00,20.00,15.90,310.00,5.00,0.00,30.26,1016.40,10.00,M,CLR,M,M,M,M,M,M,M,M,M,M,M,M,M,M,68.00,KELY 300253Z AUTO 31005KT 10SM CLR 20/M07 A3026 RMK AO2 SLP164 T02001067 53007,M
VGT,2024-08-30 02:53,-115.1933,36.2111,667.00,99.00,40.00,13.18,190.00,7.00,0.00,29.91,1011.20,10.00,M,CLR,M,M,M,M,M,M,M,M,M,M,M,M,M,M,94.36,KVGT 300253Z AUTO 19007KT 10SM CLR 37/04 A2991 RMK AO2 SLP112 T03720044 53005,M
LOL,2024-08-30 02:53,-118.5701,40.0684,1192.43,79.00,27.00,14.73,30.00,10.00,0.00,30.10,1015.80,10.00,M,CLR,M,M,M,M,M,M,M,M,M,M,M,M,M,M,79.00,KLOL 300253Z AUTO 03010KT 10SM CLR 26/M03 A3010 RMK AO2 SLP158 T02611028 55001,M
BVU,2024-08-30 02:55,-114.8611,35.9475,671.00,96.80,41.00,14.66,150.00,8.00,0.00,29.91,M,10.00,M,CLR,M,M,M,M,M,M,M,M,M,M,M,M,M,M,92.39,KBVU 300255Z AUTO 15008KT 10SM CLR 36/05 A2991 RMK AO2,M
INS,2024-08-30 02:55,-115.6733,36.5872,955.00,89.60,23.00,8.87,240.00,8.00,0.00,29.99,1010.10,10.00,M,CLR,M,M,M,M,M,M,M,M,M,M,M,M,M,M,84.75,KINS 300255Z AUTO 24008KT 10SM CLR 32/M05 A2999 RMK AO2 SLP101 T03201049 53002,M
RNO,2024-08-30 02:55,-119.7711,39.4839,1341.00,84.00,45.00,25.54,80.00,6.00,0.00,30.13,1014.80,10.00,M,CLR,M,M,M,M,M,M,M,M,M,M,M,M,M,M,81.61,KRNO 300255Z 08006KT 10SM CLR 29/07 A3013 RMK AO2 SLP148 T02890072 53002,M
BAM,2024-08-30 02:55,-116.8743,40.5990,1382.36,73.40,28.40,18.80,0.00,0.00,0.00,30.19,M,10.00,M,CLR,M,M,M,M,M,M,M,M,M,M,M,M,M,M,73.40,KBAM 300255Z AUTO 00000KT 10SM CLR 23/M02 A3019 RMK AO1,M
CXP,2024-08-30 02:55,-119.7326,39.1923,1431.00,82.40,26.60,12.97,50.00,11.00,0.00,30.16,M,10.00,M,CLR,M,M,M,M,M,M,M,M,M,M,M,M,M,M,79.92,KCXP 300255Z AUTO 05011KT 10SM CLR 28/M03 A3016 RMK AO2,M
RTS,2024-08-30 02:55,-119.8764,39.6682,1539.00,78.80,21.20,11.64,50.00,8.00,0.00,30.19,M,10.00,M,CLR,M,M,M,M,M,M,M,M,M,M,M,M,M,M,78.80,KRTS 300255Z AUTO 05008KT 10SM CLR 26/M06 A3019 RMK AO2,M
MEV,2024-08-30 02:55,-119.7500,38.9963,1441.42,77.00,28.40,16.67,320.00,7.00,0.00,30.15,M,10.00,M,CLR,M,M,M,M,M,M,M,M,M,M,M,M,M,M,77.00,KMEV 300255Z AUTO 32007KT 10SM CLR 25/M02 A3015 RMK AO2,M
HTH,2024-08-30 02:55,-118.6315,38.5448,1282.89,84.20,26.60,12.23,320.00,11.00,0.00,30.10,M,10.00,M,CLR,M,M,M,M,M,M,M,M,M,M,M,M,M,M,81.13,KHTH 300255Z AUTO 32011KT 10SM CLR 29/M03 A3010 RMK A01,M
TMT,2024-08-30 02:55,-117.1971,39.4643,1749.34,68.40,26.60,20.69,360.00,5.00,0.00,30.25,M,10.00,M,CLR,M,M,M,M,M,M,M,M,M,M,M,M,M,M,68.40,KTMT 300255Z AUTO 36005KT 10SM CLR 20/M03 A3025 RMK AO2 T02021030,M
10U,2024-08-30 02:55,-116.1876,41.9532,1637.00,60.80,19.40,19.94,120.00,3.00,0.00,30.27,M,10.00,M,CLR,M,M,M,M,M,M,M,M,M,M,M,M,M,M,60.80,K10U 300255Z AUTO 12003KT 10SM CLR 16/M07 A3027 RMK AO2,M
LSV,2024-08-30 02:55,-115.0343,36.2362,570.00,98.40,37.00,11.94,140.00,6.00,0.00,29.86,1008.10,10.00,M,CLR,M,M,M,M,M,M,M,M,M,M,M,M,M,M,93.30,KLSV 300255Z AUTO 14006KT 10SM CLR 37/03 A2986 RMK AO2 SLP081 T03690028 53004 $,M
EKO,2024-08-30 02:56,-115.7860,40.8242,1367.00,69.00,18.00,14.11,M,4.00,0.00,30.21,1019.20,10.00,M,CLR,M,M,M,M,M,M,M,M,M,M,M,M,M,M,69.00,KEKO 300256Z AUTO VRB04KT 10SM CLR 21/M08 A3021 RMK AO2 SLP192 T02061078 53003,M
HND,2024-08-30 02:56,-115.1344,35.9729,742.79,96.00,40.00,14.45,220.00,5.00,0.00,29.96,1012.80,10.00,M,CLR,M,M,M,M,M,M,M,M,M,M,M,M,M,M,91.55,KHND 300256Z 22005KT 10SM CLR 36/04 A2996 RMK AO2 SLP128 T03560044 53004,M
TPH,2024-08-30 02:56,-117.0904,38.0505,1654.00,77.00,17.00,10.32,250.00,5.00,0.00,30.17,1014.00,10.00,M,CLR,M,M,M,M,M,M,M,M,M,M,M,M,M,M,77.00,KTPH 300256Z AUTO 25005KT 10SM CLR 25/M08 A3017 RMK AO2 SLP140 T02501083 55002,M
LAS,2024-08-30 02:56,-115.1634,36.0719,663.00,98.00,44.00,15.86,220.00,4.00,0.00,29.93,1010.30,10.00,M,FEW,FEW,M,M,12000.00,18000.00,M,M,M,M,M,M,M,M,M,93.88,KLAS 300256Z 22004KT 10SM FEW120 FEW180 37/07 A2993 RMK AO2 SLP103 T03670067 $,M
NFL,2024-08-30 02:57,-118.7010,39.4166,1199.00,78.00,35.00,21.05,10.00,5.00,0.00,30.08,1015.40,10.00,M,CLR,M,M,M,M,M,M,M,M,M,M,M,M,M,M,78.00,KNFL 300257Z 01005KT 10SM CLR 26/02 A3008 RMK AO2 SLP154 T02560017 55004,M
05U,2024-08-30 03:10,-116.0051,39.6042,1811.23,62.60,26.60,25.32,0.00,0.00,0.00,30.28,M,10.00,M,CLR,M,M,M,M,M,M,M,M,M,M,M,M,M,M,62.60,K05U 300310Z AUTO 00000KT 10SM CLR 17/M03 A3028 RMK A01,M
BVU,2024-08-30 03:15,-114.8611,35.9475,671.00,95.00,41.00,15.49,150.00,7.00,0.00,29.92,M,10.00,M,CLR,M,M,M,M,M,M,M,M,M,M,M,M,M,M,90.70,KBVU 300315Z AUTO 15007KT 10SM CLR 35/05 A2992 RMK AO2,M
BAM,2024-08-30 03:15,-116.8743,40.5990,1382.36,69.80,30.20,22.86,300.00,5.00,0.00,30.20,M,10.00,M,CLR,M,M,M,M,M,M,M,M,M,M,M,M,M,M,69.80,KBAM 300315Z AUTO 30005KT 10SM CLR 21/M01 A3020 RMK AO1,M
CXP,2024-08-30 03:15,-119.7326,39.1923,1431.00,82.40,26.60,12.97,50.00,8.00,0.00,30.17,M,10.00,M,CLR,M,M,M,M,M,M,M,M,M,M,M,M,M,M,79.92,KCXP 300315Z AUTO 05008KT 10SM CLR 28/M03 A3017 RMK AO2,M
RTS,2024-08-30 03:15,-119.8764,39.6682,1539.00,75.20,23.00,14.15,M,5.00,0.00,30.20,M,10.00,M,CLR,M,M,M,M,M,M,M,M,M,M,M,M,M,M,75.20,KRTS 300315Z AUTO VRB05KT 10SM CLR 24/M05 A3020 RMK AO2,M
MEV,2024-08-30 03:15,-119.7500,38.9963,1441.42,75.20,28.40,17.70,330.00,7.00,0.00,30.15,M,10.00,M,CLR,M,M,M,M,M,M,M,M,M,M,M,M,M,M,75.20,KMEV 300315Z AUTO 33007KT 10SM CLR 24/M02 A3015 RMK AO2,M
HTH,2024-08-30 03:15,-118.6315,38.5448,1282.89,82.40,30.20,15.03,320.00,12.00,0.00,30.11,M,10.00,M,CLR,M,M,M,M,M,M,M,M,M,M,M,M,M,M,79.97,KHTH 300315Z AUTO 32012KT 10SM CLR 28/M01 A3011 RMK A01,M
TMT,2024-08-30 03:15,-117.1971,39.4643,1749.34,59.70,26.60,28.06,0.00,0.00,0.00,30.26,M,10.00,M,CLR,M,M,M,M,M,M,M,M,M,M,M,M,M,M,59.70,KTMT 300315Z AUTO 00000KT 10SM CLR 15/M03 A3026 RMK AO2 T01541030,M
10U,2024-08-30 03:15,-116.1876,41.9532,1637.00,57.20,19.40,22.68,160.00,3.00,0.00,30.27,M,10.00,M,CLR,M,M,M,M,M,M,M,M,M,M,M,M,M,M,57.20,K10U 300315Z AUTO 16003KT 10SM CLR 14/M07 A3027 RMK AO2,M
05U,2024-08-30 03:30,-116.0051,39.6042,1811.23,64.40,24.80,22.06,0.00,0.00,0.00,30.29,M,10.00,M,CLR,M,M,M,M,M,M,M,M,M,M,M,M,M,M,64.40,K05U 300330Z AUTO 00000KT 10SM CLR 18/M04 A3029 RMK A01,M
BVU,2024-08-30 03:35,-114.8611,35.9475,671.00,95.00,41.00,15.49,150.00,6.00,0.00,29.92,M,10.00,M,CLR,M,M,M,M,M,M,M,M,M,M,M,M,M,M,90.70,KBVU 300335Z AUTO 15006KT 10SM CLR 35/05 A2992 RMK AO2,M
CXP,2024-08-30 03:35,-119.7326,39.1923,1431.00,82.40,26.60,12.97,50.00,7.00,0.00,30.18,M,10.00,M,CLR,M,M,M,M,M,M,M,M,M,M,M,M,M,M,79.92,KCXP 300335Z AUTO 05007KT 10SM CLR 28/M03 A3018 RMK AO2,M
RTS,2024-08-30 03:35,-119.8764,39.6682,1539.00,77.00,23.00,13.32,0.00,0.00,0.00,30.21,M,10.00,M,CLR,M,M,M,M,M,M,M,M,M,M,M,M,M,M,77.00,KRTS 300335Z AUTO 00000KT 10SM CLR 25/M05 A3021 RMK AO2,M
MEV,2024-08-30 03:35,-119.7500,38.9963,1441.42,75.20,28.40,17.70,330.00,4.00,0.00,30.16,M,10.00,M,CLR,M,M,M,M,M,M,M,M,M,M,M,M,M,M,75.20,KMEV 300335Z AUTO 33004KT 10SM CLR 24/M02 A3016 RMK AO2,M
BAM,2024-08-30 03:35,-116.8743,40.5990,1382.36,66.20,26.60,22.33,0.00,0.00,0.00,30.20,M,10.00,M,CLR,M,M,M,M,M,M,M,M,M,M,M,M,M,M,66.20,KBAM 300335Z AUTO 00000KT 10SM CLR 19/M03 A3020 RMK AO1,M
HTH,2024-08-30 03:35,-118.6315,38.5448,1282.89,82.40,30.20,15.03,320.00,11.00,0.00,30.12,M,10.00,M,CLR,M,M,M,M,M,M,M,M,M,M,M,M,M,M,79.97,KHTH 300335Z AUTO 32011KT 10SM CLR 28/M01 A3012 RMK A01,M
TMT,2024-08-30 03:35,-117.1971,39.4643,1749.34,59.00,26.00,28.07,0.00,0.00,0.00,30.27,M,10.00,M,CLR,M,M,M,M,M,M,M,M,M,M,M,M,M,M,59.00,KTMT 300335Z AUTO 00000KT 10SM CLR 15/M03 A3027 RMK AO2 T01511033,M
10U,2024-08-30 03:35,-116.1876,41.9532,1637.00,53.60,17.60,23.93,240.00,4.00,0.00,30.28,M,10.00,M,CLR,M,M,M,M,M,M,M,M,M,M,M,M,M,M,53.60,K10U 300335Z AUTO 24004KT 10SM CLR 12/M08 A3028 RMK AO2,M
05U,2024-08-30 03:50,-116.0051,39.6042,1811.23,57.20,30.20,35.57,0.00,0.00,0.00,30.30,M,10.00,M,CLR,M,M,M,M,M,M,M,M,M,M,M,M,M,M,57.20,K05U 300350Z AUTO 00000KT 10SM CLR 14/M01 A3030 RMK A01,M
10U,2024-08-30 03:50,-116.1876,41.9532,1637.00,51.80,17.60,25.56,0.00,0.00,0.00,30.28,M,10.00,M,CLR,M,M,M,M,M,M,M,M,M,M,M,M,M,M,51.80,K10U 300350Z AUTO 00000KT 10SM CLR 11/M08 A3028 RMK AO2,M
CXP,2024-08-30 03:50,-119.7326,39.1923,1431.00,80.60,26.60,13.75,30.00,5.00,0.00,30.18,M,10.00,10.00,CLR,M,M,M,M,M,M,M,M,M,M,M,M,M,M,78.68,KCXP 300350Z AUTO 03005G10KT 10SM CLR 27/M03 A3018 RMK AO2,M
P68,2024-08-30 03:53,-116.0056,39.6014,1993.00,58.00,31.00,35.70,130.00,6.00,0.00,30.28,1019.00,M,M,M,M,M,M,M,M,M,M,M,M,M,M,M,M,M,58.00,KP68 300353Z AUTO 13006KT 14/M01 A3028 RMK AO1 SLP190 T01441006,M
DRA,2024-08-30 03:53,-116.0278,36.6206,1009.00,83.00,28.00,13.47,30.00,4.00,0.00,30.03,1011.70,10.00,M,CLR,M,M,M,M,M,M,M,M,M,M,M,M,M,M,80.37,KDRA 300353Z AUTO 03004KT 10SM CLR 28/M02 A3003 RMK AO2 SLP117 T02831022,M
ELY,2024-08-30 03:53,-114.8453,39.2950,1909.00,67.00,15.00,13.27,10.00,11.00,0.00,30.29,1016.40,10.00,M,CLR,M,M,M,M,M,M,M,M,M,M,M,M,M,M,67.00,KELY 300353Z AUTO 01011KT 10SM CLR 19/M09 A3029 RMK AO2 SLP164 T01941094,M
VGT,2024-08-30 03:53,-115.1933,36.2111,667.00,97.00,40.00,14.01,220.00,7.00,0.00,29.93,1011.90,10.00,M,CLR,M,M,M,M,M,M,M,M,M,M,M,M,M,M,92.49,KVGT 300353Z AUTO 22007KT 10SM CLR 36/04 A2993 RMK AO2 SLP119 T03610044,M
LOL,2024-08-30 03:53,-118.5701,40.0684,1192.43,74.00,25.00,16.01,40.00,8.00,0.00,30.12,1016.40,10.00,M,CLR,M,M,M,M,M,M,M,M,M,M,M,M,M,M,74.00,KLOL 300353Z AUTO 04008KT 10SM CLR 23/M04 A3012 RMK AO2 SLP164 T02331039,M
BVU,2024-08-30 03:55,-114.8611,35.9475,671.00,95.00,39.20,14.44,150.00,7.00,0.00,29.93,M,10.00,M,CLR,M,M,M,M,M,M,M,M,M,M,M,M,M,M,90.57,KBVU 300355Z AUTO 15007KT 10SM CLR 35/04 A2993 RMK AO2,M
INS,2024-08-30 03:55,-115.6733,36.5872,955.00,90.50,28.80,10.96,200.00,9.00,0.00,30.01,1010.30,10.00,M,CLR,M,M,M,M,M,M,M,M,M,M,M,M,M,M,85.88,KINS 300355Z AUTO 20009KT 10SM CLR 33/M02 A3001 RMK AO2 SLP103 T03251018,M
RNO,2024-08-30 03:55,-119.7711,39.4839,1341.00,81.00,43.00,26.08,270.00,7.00,0.00,30.15,1015.50,10.00,M,CLR,M,M,M,M,M,M,M,M,M,M,M,M,M,M,79.54,KRNO 300355Z 27007KT 10SM CLR 27/06 A3015 RMK AO2 SLP155 T02720061,M
LSV,2024-08-30 03:55,-115.0343,36.2362,570.00,96.40,35.40,11.91,150.00,3.00,0.00,29.87,1008.40,10.00,M,CLR,M,M,M,M,M,M,M,M,M,M,M,M,M,M,91.36,KLSV 300355Z AUTO 15003KT 10SM CLR 36/02 A2987 RMK AO2 SLP084 T03580019 $,M
RTS,2024-08-30 03:55,-119.8764,39.6682,1539.00,73.40,26.60,17.46,240.00,3.00,0.00,30.21,M,10.00,M,CLR,M,M,M,M,M,M,M,M,M,M,M,M,M,M,73.40,KRTS 300355Z AUTO 24003KT 10SM CLR 23/M03 A3021 RMK AO2,M
MEV,2024-08-30 03:55,-119.7500,38.9963,1441.42,68.00,30.20,24.32,0.00,0.00,0.00,30.17,M,10.00,M,CLR,M,M,M,M,M,M,M,M,M,M,M,M,M,M,68.00,KMEV 300355Z AUTO 00000KT 10SM CLR 20/M01 A3017 RMK AO2,M
BAM,2024-08-30 03:55,-116.8743,40.5990,1382.36,62.60,24.80,23.50,0.00,0.00,0.00,30.21,M,10.00,M,CLR,M,M,M,M,M,M,M,M,M,M,M,M,M,M,62.60,KBAM 300355Z AUTO 00000KT 10SM CLR 17/M04 A3021 RMK AO1,M
HTH,2024-08-30 03:55,-118.6315,38.5448,1282.89,82.40,28.40,13.96,M,M,0.00,30.12,M,10.00,M,CLR,M,M,M,M,M,M,M,M,M,M,M,M,M,M,79.94,KHTH 300355Z AUTO 10SM CLR 28/M02 A3012 RMK A01,M
TMT,2024-08-30 03:55,-117.1971,39.4643,1749.34,58.60,26.60,29.19,0.00,0.00,0.00,30.27,M,10.00,M,CLR,M,M,M,M,M,M,M,M,M,M,M,M,M,M,58.60,KTMT 300355Z AUTO 00000KT 10SM CLR 15/M03 A3027 RMK AO2 T01481030,M
EKO,2024-08-30 03:56,-115.7860,40.8242,1367.00,61.00,18.00,18.64,0.00,0.00,0.00,30.23,1020.10,10.00,M,CLR,M,M,M,M,M,M,M,M,M,M,M,M,M,M,61.00,KEKO 300356Z AUTO 00000KT 10SM CLR 16/M08 A3023 RMK AO2 SLP201 T01611078,M
HND,2024-08-30 03:56,-115.1344,35.9729,742.79,92.00,39.00,15.73,180.00,5.00,0.00,29.98,1013.50,10.00,M,CLR,M,M,M,M,M,M,M,M,M,M,M,M,M,M,87.83,KHND 300356Z AUTO 18005KT 10SM CLR 33/04 A2998 RMK AO2 SLP135 T03330039,M
TPH,2024-08-30 03:56,-117.0904,38.0505,1654.00,71.00,17.00,12.62,170.00,6.00,0.00,30.18,1014.40,10.00,M,CLR,M,M,M,M,M,M,M,M,M,M,M,M,M,M,71.00,KTPH 300356Z AUTO 17006KT 10SM CLR 22/M08 A3018 RMK AO2 SLP144 T02171083,M
LAS,2024-08-30 03:56,-115.1634,36.0719,663.00,97.00,43.00,15.73,220.00,4.00,0.00,29.95,1010.90,10.00,M,FEW,FEW,M,M,12000.00,18000.00,M,M,M,M,M,M,M,M,M,92.79,KLAS 300356Z 22004KT 10SM FEW120 FEW180 36/06 A2995 RMK AO2 SLP109 T03610061 $,M
NFL,2024-08-30 03:57,-118.7010,39.4166,1199.00,70.00,34.00,26.46,0.00,0.00,0.00,30.10,1015.90,10.00,M,CLR,M,M,M,M,M,M,M,M,M,M,M,M,M,M,70.00,KNFL 300357Z 00000KT 10SM CLR 21/01 A3010 RMK AO2 SLP159 T02110011,M
RTS,2024-08-30 04:10,-119.8764,39.6682,1539.00,71.60,24.80,17.22,0.00,0.00,0.00,30.22,M,10.00,M,CLR,M,M,M,M,M,M,M,M,M,M,M,M,M,M,71.60,KRTS 300410Z AUTO 00000KT 10SM CLR 22/M04 A3022 RMK AO2,M
05U,2024-08-30 04:10,-116.0051,39.6042,1811.23,59.00,28.40,30.98,0.00,0.00,0.00,30.31,M,10.00,M,CLR,M,M,M,M,M,M,M,M,M,M,M,M,M,M,59.00,K05U 300410Z AUTO 00000KT 10SM CLR 15/M02 A3031 RMK A01,M
BVU,2024-08-30 04:15,-114.8611,35.9475,671.00,93.20,39.20,15.27,150.00,5.00,0.00,29.93,M,10.00,M,CLR,M,M,M,M,M,M,M,M,M,M,M,M,M,M,88.92,KBVU 300415Z AUTO 15005KT 10SM CLR 34/04 A2993 RMK AO2,M
CXP,2024-08-30 04:15,-119.7326,39.1923,1431.00,77.00,26.60,15.48,0.00,0.00,0.00,30.19,M,10.00,M,CLR,M,M,M,M,M,M,M,M,M,M,M,M,M,M,77.00,KCXP 300415Z AUTO 00000KT 10SM CLR 25/M03 A3019 RMK AO2,M
MEV,2024-08-30 04:15,-119.7500,38.9963,1441.42,62.60,39.20,42.00,50.00,3.00,0.00,30.17,M,10.00,M,CLR,M,M,M,M,M,M,M,M,M,M,M,M,M,M,62.60,KMEV 300415Z AUTO 05003KT 10SM CLR 17/04 A3017 RMK AO2,M
BAM,2024-08-30 04:15,-116.8743,40.5990,1382.36,64.40,24.80,22.06,0.00,0.00,0.00,30.22,M,10.00,M,CLR,M,M,M,M,M,M,M,M,M,M,M,M,M,M,64.40,KBAM 300415Z AUTO 00000KT 10SM CLR 18/M04 A3022 RMK AO1,M
HTH,2024-08-30 04:15,-118.6315,38.5448,1282.89,80.60,28.40,14.81,320.00,10.00,0.00,30.13,M,M,M,M,M,M,M,M,M,M,M,M,M,M,M,M,M,M,78.72,KHTH 300415Z AUTO 32010KT 27/M02 A3013 RMK A01,M
TMT,2024-08-30 04:15,-117.1971,39.4643,1749.34,56.50,25.70,30.33,0.00,0.00,0.00,30.28,M,10.00,M,CLR,M,M,M,M,M,M,M,M,M,M,M,M,M,M,56.50,KTMT 300415Z AUTO 00000KT 10SM CLR 14/M03 A3028 RMK AO2 T01361035,M
10U,2024-08-30 04:15,-116.1876,41.9532,1637.00,53.60,19.40,25.85,0.00,0.00,0.00,30.29,M,10.00,M,CLR,M,M,M,M,M,M,M,M,M,M,M,M,M,M,53.60,K10U 300415Z AUTO 00000KT 10SM CLR 12/M07 A3029 RMK AO2,M
05U,2024-08-30 04:30,-116.0051,39.6042,1811.23,57.20,28.40,33.05,0.00,0.00,0.00,30.31,M,10.00,M,CLR,M,M,M,M,M,M,M,M,M,M,M,M,M,M,57.20,K05U 300430Z AUTO 00000KT 10SM CLR 14/M02 A3031 RMK A01,M
BVU,2024-08-30 04:35,-114.8611,35.9475,671.00,91.40,39.20,16.15,290.00,4.00,0.00,29.93,M,10.00,M,CLR,M,M,M,M,M,M,M,M,M,M,M,M,M,M,87.30,KBVU 300435Z AUTO 29004KT 10SM CLR 33/04 A2993 RMK AO2,M
CXP,2024-08-30 04:35,-119.7326,39.1923,1431.00,75.20,28.40,17.70,0.00,0.00,0.00,30.19,M,10.00,M,CLR,M,M,M,M,M,M,M,M,M,M,M,M,M,M,75.20,KCXP 300435Z AUTO 00000KT 10SM CLR 24/M02 A3019 RMK AO2,M
RTS,2024-08-30 04:35,-119.8764,39.6682,1539.00,69.80,24.80,18.30,320.00,3.00,0.00,30.22,M,10.00,M,CLR,M,M,M,M,M,M,M,M,M,M,M,M,M,M,69.80,KRTS 300435Z AUTO 32003KT 10SM CLR 21/M04 A3022 RMK AO2,M
MEV,2024-08-30 04:35,-119.7500,38.9963,1441.42,60.80,39.20,44.76,0.00,0.00,0.00,30.18,M,10.00,M,CLR,M,M,M,M,M,M,M,M,M,M,M,M,M,M,60.80,KMEV 300435Z AUTO 00000KT 10SM CLR 16/04 A3018 RMK AO2,M
BAM,2024-08-30 04:35,-116.8743,40.5990,1382.36,55.40,23.00,28.20,120.00,6.00,0.00,30.22,M,10.00,M,CLR,M,M,M,M,M,M,M,M,M,M,M,M,M,M,55.40,KBAM 300435Z AUTO 12006KT 10SM CLR 13/M05 A3022 RMK AO1,M
HTH,2024-08-30 04:35,-118.6315,38.5448,1282.89,80.60,28.40,14.81,340.00,7.00,0.00,30.13,M,10.00,12.00,M,M,M,M,M,M,M,M,M,M,M,M,M,M,M,78.72,KHTH 300435Z AUTO 34007G12KT 10SM 27/M02 A3013 RMK A01,M
TMT,2024-08-30 04:35,-117.1971,39.4643,1749.34,56.70,25.50,29.86,0.00,0.00,0.00,30.28,M,10.00,M,CLR,M,M,M,M,M,M,M,M,M,M,M,M,M,M,56.70,KTMT 300435Z AUTO 00000KT 10SM CLR 14/M04 A3028 RMK AO2 T01371036,M
10U,2024-08-30 04:35,-116.1876,41.9532,1637.00,51.80,17.60,25.56,0.00,0.00,0.00,30.29,M,10.00,M,FEW,M,M,M,300.00,M,M,M,M,M,M,M,M,M,M,51.80,K10U 300435Z AUTO 00000KT 10SM FEW003 11/M08 A3029 RMK AO2,M
05U,2024-08-30 04:50,-116.0051,39.6042,1811.23,53.60,24.80,32.46,0.00,0.00,0.00,30.31,M,10.00,M,CLR,M,M,M,M,M,M,M,M,M,M,M,M,M,M,53.60,K05U 300450Z AUTO 00000KT 10SM CLR 12/M04 A3031 RMK A01,M
P68,2024-08-30 04:53,-116.0056,39.6014,1993.00,54.00,25.00,32.26,170.00,5.00,0.00,30.29,1019.30,M,M,M,M,M,M,M,M,M,M,M,M,M,M,M,M,M,54.00,KP68 300453Z AUTO 17005KT 12/M04 A3029 RMK AO1 SLP193 T01221039,M
DRA,2024-08-30 04:53,-116.0278,36.6206,1009.00,82.00,30.00,15.10,90.00,4.00,0.00,30.04,1011.90,10.00,M,CLR,M,M,M,M,M,M,M,M,M,M,M,M,M,M,79.69,KDRA 300453Z AUTO 09004KT 10SM CLR 28/M01 A3004 RMK AO2 SLP119 T02781011,M
ELY,2024-08-30 04:53,-114.8453,39.2950,1909.00,64.00,15.00,14.73,20.00,8.00,0.00,30.31,1017.00,10.00,M,CLR,M,M,M,M,M,M,M,M,M,M,M,M,M,M,64.00,KELY 300453Z AUTO 02008KT 10SM CLR 18/M09 A3031 RMK AO2 SLP170 T01781094,M
VGT,2024-08-30 04:53,-115.1933,36.2111,667.00,95.00,41.00,15.49,280.00,5.00,0.00,29.94,1012.20,10.00,M,CLR,M,M,M,M,M,M,M,M,M,M,M,M,M,M,90.70,KVGT 300453Z AUTO 28005KT 10SM CLR 35/05 A2994 RMK AO2 SLP122 T03500050,M
LOL,2024-08-30 04:53,-118.5701,40.0684,1192.43,71.00,22.00,15.62,40.00,9.00,0.00,30.13,1016.50,10.00,M,CLR,M,M,M,M,M,M,M,M,M,M,M,M,M,M,71.00,KLOL 300453Z AUTO 04009KT 10SM CLR 22/M06 A3013 RMK AO2 SLP165 T02171056,M
BVU,2024-08-30 04:55,-114.8611,35.9475,671.00,91.40,39.20,16.15,0.00,0.00,0.00,29.94,M,10.00,M,CLR,M,M,M,M,M,M,M,M,M,M,M,M,M,M,87.30,KBVU 300455Z AUTO 00000KT 10SM CLR 33/04 A2994 RMK AO2,M
RNO,2024-08-30 04:55,-119.7711,39.4839,1341.00,76.00,39.00,26.34,290.00,4.00,0.00,30.16,1016.10,10.00,M,CLR,M,M,M,M,M,M,M,M,M,M,M,M,M,M,76.00,KRNO 300455Z 29004KT 10SM CLR 24/04 A3016 RMK AO2 SLP161 T02440039,M
CXP,2024-08-30 04:55,-119.7326,39.1923,1431.00,71.60,30.20,21.50,0.00,0.00,0.00,30.20,M,10.00,M,CLR,M,M,M,M,M,M,M,M,M,M,M,M,M,M,71.60,KCXP 300455Z AUTO 00000KT 10SM CLR 22/M01 A3020 RMK AO2,M
LSV,2024-08-30 04:55,-115.0343,36.2362,570.00,96.00,37.00,12.85,190.00,7.00,0.00,29.88,1008.60,10.00,M,CLR,M,M,M,M,M,M,M,M,M,M,M,M,M,M,91.31,KLSV 300455Z AUTO 19007KT 10SM CLR 36/03 A2988 RMK AO2 SLP086 T03550028 $,M
RTS,2024-08-30 04:55,-119.8764,39.6682,1539.00,71.60,23.00,15.97,0.00,0.00,0.00,30.22,M,10.00,M,CLR,M,M,M,M,M,M,M,M,M,M,M,M,M,M,71.60,KRTS 300455Z AUTO 00000KT 10SM CLR 22/M05 A3022 RMK AO2,M
MEV,2024-08-30 04:55,-119.7500,38.9963,1441.42,59.00,37.40,44.47,0.00,0.00,0.00,30.18,M,10.00,M,CLR,M,M,M,M,M,M,M,M,M,M,M,M,M,M,59.00,KMEV 300455Z AUTO 00000KT 10SM CLR 15/03 A3018 RMK AO2,M
BAM,2024-08-30 04:55,-116.8743,40.5990,1382.36,53.60,23.00,30.11,140.00,3.00,0.00,30.22,M,10.00,M,CLR,M,M,M,M,M,M,M,M,M,M,M,M,M,M,53.60,KBAM 300455Z AUTO 14003KT 10SM CLR 12/M05 A3022 RMK AO1,M
HTH,2024-08-30 04:55,-118.6315,38.5448,1282.89,77.00,39.20,25.67,350.00,7.00,0.00,30.13,M,10.00,M,CLR,M,M,M,M,M,M,M,M,M,M,M,M,M,M,77.00,KHTH 300455Z AUTO 35007KT 10SM CLR 25/04 A3013 RMK A01,M
TMT,2024-08-30 04:55,-117.1971,39.4643,1749.34,53.00,24.80,33.19,0.00,0.00,0.00,30.28,M,10.00,M,CLR,M,M,M,M,M,M,M,M,M,M,M,M,M,M,53.00,KTMT 300455Z AUTO 00000KT 10SM CLR 12/M04 A3028 RMK AO2 T01161040,M
10U,2024-08-30 04:55,-116.1876,41.9532,1637.00,50.00,17.60,27.33,0.00,0.00,0.00,30.29,M,10.00,M,CLR,M,M,M,M,M,M,M,M,M,M,M,M,M,M,50.00,K10U 300455Z AUTO 00000KT 10SM CLR 10/M08 A3029 RMK AO2,M
INS,2024-08-30 04:55,-115.6733,36.5872,955.00,85.60,29.00,12.91,250.00,5.00,0.00,30.02,1010.60,10.00,M,CLR,M,M,M,M,M,M,M,M,M,M,M,M,M,M,82.31,KINS 300455Z AUTO 25005KT 10SM CLR 30/M02 A3002 RMK AO2 SLP106 T02981016,M
EKO,2024-08-30 04:56,-115.7860,40.8242,1367.00,60.00,14.00,16.24,80.00,4.00,0.00,30.24,1020.10,10.00,M,CLR,M,M,M,M,M,M,M,M,M,M,M,M,M,M,60.00,KEKO 300456Z AUTO 08004KT 10SM CLR 16/M10 A3024 RMK AO2 SLP201 T01561100,M
HND,2024-08-30 04:56,-115.1344,35.9729,742.79,90.00,40.00,17.41,190.00,7.00,0.00,29.99,1013.70,10.00,M,CLR,M,M,M,M,M,M,M,M,M,M,M,M,M,M,86.11,KHND 300456Z AUTO 19007KT 10SM CLR 32/04 A2999 RMK AO2 SLP137 T03220044,M
TPH,2024-08-30 04:56,-117.0904,38.0505,1654.00,71.00,21.00,14.98,210.00,4.00,0.00,30.21,1014.70,10.00,M,CLR,M,M,M,M,M,M,M,M,M,M,M,M,M,M,71.00,KTPH 300456Z AUTO 21004KT 10SM CLR 22/M06 A3021 RMK AO2 SLP147 T02171061,M
LAS,2024-08-30 04:56,-115.1634,36.0719,663.00,97.00,43.00,15.73,220.00,7.00,0.00,29.95,1011.00,10.00,M,FEW,FEW,M,M,12000.00,18000.00,M,M,M,M,M,M,M,M,M,92.79,KLAS 300456Z 22007KT 10SM FEW120 FEW180 36/06 A2995 RMK AO2 SLP110 T03610061 $,M
NFL,2024-08-30 04:57,-118.7010,39.4166,1199.00,68.00,32.00,26.15,330.00,6.00,0.00,30.11,1016.20,10.00,M,CLR,M,M,M,M,M,M,M,M,M,M,M,M,M,M,68.00,KNFL 300457Z 33006KT 10SM CLR 20/00 A3011 RMK AO2 SLP162 T02000000,M
05U,2024-08-30 05:10,-116.0051,39.6042,1811.23,51.80,24.80,34.69,0.00,0.00,0.00,30.31,M,10.00,M,CLR,M,M,M,M,M,M,M,M,M,M,M,M,M,M,51.80,K05U 300510Z AUTO 00000KT 10SM CLR 11/M04 A3031 RMK A01,M
BVU,2024-08-30 05:15,-114.8611,35.9475,671.00,89.60,42.80,19.64,0.00,0.00,0.00,29.94,M,10.00,M,CLR,M,M,M,M,M,M,M,M,M,M,M,M,M,M,85.93,KBVU 300515Z AUTO 00000KT 10SM CLR 32/06 A2994 RMK AO2,M
CXP,2024-08-30 05:15,-119.7326,39.1923,1431.00,69.80,28.40,21.24,0.00,0.00,0.00,30.20,M,10.00,M,CLR,M,M,M,M,M,M,M,M,M,M,M,M,M,M,69.80,KCXP 300515Z AUTO 00000KT 10SM CLR 21/M02 A3020 RMK AO2,M
RTS,2024-08-30 05:15,-119.8764,39.6682,1539.00,64.40,23.00,20.46,0.00,0.00,0.00,30.23,M,10.00,M,CLR,M,M,M,M,M,M,M,M,M,M,M,M,M,M,64.40,KRTS 300515Z AUTO 00000KT 10SM CLR 18/M05 A3023 RMK AO2,M
MEV,2024-08-30 05:15,-119.7500,38.9963,1441.42,57.20,37.40,47.44,70.00,3.00,0.00,30.19,M,10.00,M,CLR,M,M,M,M,M,M,M,M,M,M,M,M,M,M,57.20,KMEV 300515Z AUTO 07003KT 10SM CLR 14/03 A3019 RMK AO2,M
BAM,2024-08-30 05:15,-116.8743,40.5990,1382.36,53.60,23.00,30.11,130.00,3.00,0.00,30.22,M,10.00,M,CLR,M,M,M,M,M,M,M,M,M,M,M,M,M,M,53.60,KBAM 300515Z AUTO 13003KT 10SM CLR 12/M05 A3022 RMK AO1,M
HTH,2024-08-30 05:15,-118.6315,38.5448,1282.89,75.20,35.60,23.66,350.00,7.00,0.00,30.14,M,10.00,M,CLR,M,M,M,M,M,M,M,M,M,M,M,M,M,M,75.20,KHTH 300515Z AUTO 35007KT 10SM CLR 24/02 A3014 RMK A01,M
TMT,2024-08-30 05:15,-117.1971,39.4643,1749.34,45.70,23.40,41.10,0.00,0.00,0.00,30.29,M,10.00,M,CLR,M,M,M,M,M,M,M,M,M,M,M,M,M,M,45.70,KTMT 300515Z AUTO 00000KT 10SM CLR 08/M05 A3029 RMK AO2 T00761048,M
10U,2024-08-30 05:15,-116.1876,41.9532,1637.00,48.20,17.60,29.23,250.00,5.00,0.00,30.29,M,10.00,M,FEW,M,M,M,300.00,M,M,M,M,M,M,M,M,M,M,45.63,K10U 300515Z AUTO 25005KT 10SM FEW003 09/M08 A3029 RMK AO2,M
05U,2024-08-30 05:30,-116.0051,39.6042,1811.23,51.80,23.00,32.17,0.00,0.00,0.00,30.32,M,10.00,M,CLR,M,M,M,M,M,M,M,M,M,M,M,M,M,M,51.80,K05U 300530Z AUTO 00000KT 10SM CLR 11/M05 A3032 RMK A01,M
BVU,2024-08-30 05:35,-114.8611,35.9475,671.00,86.00,46.40,25.26,0.00,0.00,0.00,29.94,M,10.00,M,CLR,M,M,M,M,M,M,M,M,M,M,M,M,M,M,83.22,KBVU 300535Z AUTO 00000KT 10SM CLR 30/08 A2994 RMK AO2,M
CXP,2024-08-30 05:35,-119.7326,39.1923,1431.00,69.80,28.40,21.24,0.00,0.00,0.00,30.21,M,10.00,M,CLR,M,M,M,M,M,M,M,M,M,M,M,M,M,M,69.80,KCXP 300535Z AUTO 00000KT 10SM CLR 21/M02 A3021 RMK AO2,M
RTS,2024-08-30 05:35,-119.8764,39.6682,1539.00,60.80,21.20,21.53,330.00,3.00,0.00,30.23,M,10.00,M,CLR,M,M,M,M,M,M,M,M,M,M,M,M,M,M,60.80,KRTS 300535Z AUTO 33003KT 10SM CLR 16/M06 A3023 RMK AO2,M
MEV,2024-08-30 05:35,-119.7500,38.9963,1441.42,55.40,37.40,50.64,150.00,6.00,0.00,30.19,M,10.00,M,FEW,FEW,M,M,5000.00,5500.00,M,M,M,M,M,M,M,M,M,55.40,KMEV 300535Z AUTO 15006KT 10SM FEW050 FEW055 13/03 A3019 RMK AO2,M
BAM,2024-08-30 05:35,-116.8743,40.5990,1382.36,55.40,21.20,26.13,160.00,3.00,0.00,30.22,M,10.00,M,CLR,M,M,M,M,M,M,M,M,M,M,M,M,M,M,55.40,KBAM 300535Z AUTO 16003KT 10SM CLR 13/M06 A3022 RMK AO1,M
HTH,2024-08-30 05:35,-118.6315,38.5448,1282.89,77.00,30.20,17.94,350.00,8.00,0.00,30.15,M,10.00,M,M,M,M,M,M,M,M,M,M,M,M,M,M,M,M,77.00,KHTH 300535Z AUTO 35008KT 10SM 25/M01 A3015 RMK A01,M
TMT,2024-08-30 05:35,-117.1971,39.4643,1749.34,46.00,24.40,42.37,0.00,0.00,0.00,30.29,M,10.00,M,CLR,M,M,M,M,M,M,M,M,M,M,M,M,M,M,46.00,KTMT 300535Z AUTO 00000KT 10SM CLR 08/M04 A3029 RMK AO2 T00781042,M
10U,2024-08-30 05:35,-116.1876,41.9532,1637.00,50.00,17.60,27.33,290.00,6.00,0.00,30.29,M,10.00,M,FEW,M,M,M,300.00,M,M,M,M,M,M,M,M,M,M,50.00,K10U 300535Z AUTO 29006KT 10SM FEW003 10/M08 A3029 RMK AO2,M
05U,2024-08-30 05:50,-116.0051,39.6042,1811.23,51.80,24.80,34.69,0.00,0.00,0.00,30.32,M,10.00,M,CLR,M,M,M,M,M,M,M,M,M,M,M,M,M,M,51.80,K05U 300550Z AUTO 00000KT 10SM CLR 11/M04 A3032 RMK A01,M
P68,2024-08-30 05:53,-116.0056,39.6014,1993.00,53.00,26.00,34.88,0.00,0.00,0.00,30.29,1018.80,M,M,M,M,M,M,M,M,M,M,M,M,M,M,M,M,M,53.00,KP68 300553Z AUTO 00000KT 12/M03 A3029 RMK AO1 SLP188 T01171033 10294 20094 51011,M
DRA,2024-08-30 05:53,-116.0278,36.6206,1009.00,79.00,31.00,17.35,50.00,4.00,0.00,30.04,1011.80,10.00,M,CLR,M,M,M,M,M,M,M,M,M,M,M,M,M,M,79.00,KDRA 300553Z AUTO 05004KT 10SM CLR 26/M01 A3004 RMK AO2 SLP118 T02611006 10367 20261 51009,M
ELY,2024-08-30 05:53,-114.8453,39.2950,1909.00,58.00,13.00,16.69,350.00,4.00,0.00,30.32,1017.40,10.00,M,CLR,M,M,M,M,M,M,M,M,M,M,M,M,M,M,58.00,KELY 300553Z AUTO 35004KT 10SM CLR 14/M11 A3032 RMK AO2 SLP174 T01441106 10300 20144 51017,M
VGT,2024-08-30 05:53,-115.1933,36.2111,667.00,92.00,41.00,17.00,360.00,4.00,0.00,29.94,1012.40,10.00,M,CLR,M,M,M,M,M,M,M,M,M,M,M,M,M,M,87.94,KVGT 300553Z AUTO 36004KT 10SM CLR 33/05 A2994 RMK AO2 SLP124 T03330050 10400 20333 51011,M
LOL,2024-08-30 05:53,-118.5701,40.0684,1192.43,67.00,22.00,17.92,0.00,0.00,0.00,30.13,1016.70,10.00,M,CLR,M,M,M,M,M,M,M,M,M,M,M,M,M,M,67.00,KLOL 300553Z AUTO 00000KT 10SM CLR 19/M06 A3013 RMK AO2 SLP167 T01941056 10328 20150 51009,M
BVU,2024-08-30 05:55,-114.8611,35.9475,671.00,84.20,44.60,24.99,0.00,0.00,0.00,29.94,M,10.00,M,CLR,M,M,M,M,M,M,M,M,M,M,M,M,M,M,81.73,KBVU 300555Z AUTO 00000KT 10SM CLR 29/07 A2994 RMK AO2,M
RNO,2024-08-30 05:55,-119.7711,39.4839,1341.00,73.00,38.00,28.00,270.00,3.00,0.00,30.18,1016.10,10.00,M,CLR,M,M,M,M,M,M,M,M,M,M,M,M,M,M,73.00,KRNO 300555Z 27003KT 10SM CLR 23/03 A3018 RMK AO2 SLP161 T02280033 10328 20228 51015,M
BAM,2024-08-30 05:55,-116.8743,40.5990,1382.36,53.60,19.40,25.85,140.00,6.00,0.00,30.23,M,10.00,M,CLR,M,M,M,M,M,M,M,M,M,M,M,M,M,M,53.60,KBAM 300555Z AUTO 14006KT 10SM CLR 12/M07 A3023 RMK AO1,M
CXP,2024-08-30 05:55,-119.7326,39.1923,1431.00,64.40,32.00,29.63,0.00,0.00,0.00,30.21,M,10.00,M,CLR,M,M,M,M,M,M,M,M,M,M,M,M,M,M,64.40,KCXP 300555Z AUTO 00000KT 10SM CLR 18/M00 A3021 RMK AO2,M
RTS,2024-08-30 05:55,-119.8764,39.6682,1539.00,60.80,23.00,23.23,320.00,6.00,0.00,30.23,M,10.00,M,CLR,M,M,M,M,M,M,M,M,M,M,M,M,M,M,60.80,KRTS 300555Z AUTO 32006KT 10SM CLR 16/M05 A3023 RMK AO2,M
MEV,2024-08-30 05:55,-119.7500,38.9963,1441.42,57.20,33.80,41.13,140.00,7.00,0.00,30.20,M,10.00,M,FEW,FEW,M,M,5000.00,5500.00,M,M,M,M,M,M,M,M,M,57.20,KMEV 300555Z AUTO 14007KT 10SM FEW050 FEW055 14/01 A3020 RMK AO2,M
HTH,2024-08-30 05:55,-118.6315,38.5448,1282.89,77.00,32.00,19.30,350.00,8.00,0.00,30.15,M,10.00,M,CLR,M,M,M,M,M,M,M,M,M,M,M,M,M,M,77.00,KHTH 300555Z AUTO 35008KT 10SM CLR 25/M00 A3015 RMK A01,M
TMT,2024-08-30 05:55,-117.1971,39.4643,1749.34,44.20,24.00,44.62,160.00,4.00,0.00,30.29,M,10.00,M,CLR,M,M,M,M,M,M,M,M,M,M,M,M,M,M,41.67,KTMT 300555Z AUTO 16004KT 10SM CLR 07/M04 A3029 RMK AO2 T00681044 10293 20067,M
10U,2024-08-30 05:55,-116.1876,41.9532,1637.00,48.20,15.80,27.04,310.00,5.00,0.00,30.29,M,10.00,M,SCT,M,M,M,300.00,M,M,M,M,M,M,M,M,M,M,45.63,K10U 300555Z AUTO 31005KT 10SM SCT003 09/M09 A3029 RMK AO2,M
INS,2024-08-30 05:55,-115.6733,36.5872,955.00,83.30,30.70,14.90,240.00,6.00,0.00,30.02,1010.60,10.00,M,CLR,M,M,M,M,M,M,M,M,M,M,M,M,M,M,80.61,KINS 300555Z AUTO 24006KT 10SM CLR 29/M01 A3002 RMK AO2 SLP106 T02851007 10371 20281 52011,M
LSV,2024-08-30 05:55,-115.0343,36.2362,570.00,92.00,36.00,13.98,190.00,9.00,0.00,29.89,1008.90,10.00,M,CLR,M,M,M,M,M,M,M,M,M,M,M,M,M,M,87.71,KLSV 300555Z AUTO 19009KT 10SM CLR 33/02 A2989 RMK AO2 SLP089 T03340022 10401 20334 51010 $,M
EKO,2024-08-30 05:56,-115.7860,40.8242,1367.00,58.00,10.00,14.61,80.00,4.00,0.00,30.26,1020.20,10.00,M,CLR,M,M,M,M,M,M,M,M,M,M,M,M,M,M,58.00,KEKO 300556Z AUTO 08004KT 10SM CLR 14/M12 A3026 RMK AO2 SLP202 T01441122 10294 20139 51015,M
HND,2024-08-30 05:56,-115.1344,35.9729,742.79,89.00,39.00,17.28,210.00,9.00,0.00,29.99,1013.70,10.00,M,CLR,M,M,M,M,M,M,M,M,M,M,M,M,M,M,85.21,KHND 300556Z AUTO 21009KT 10SM CLR 32/04 A2999 RMK AO2 SLP137 T03170039 10389 20317 51010,M
TPH,2024-08-30 05:56,-117.0904,38.0505,1654.00,69.00,21.00,16.03,100.00,6.00,0.00,30.22,1015.30,10.00,M,CLR,M,M,M,M,M,M,M,M,M,M,M,M,M,M,69.00,KTPH 300556Z AUTO 10006KT 10SM CLR 21/M06 A3022 RMK AO2 SLP153 T02061061 10328 20206 51016,M
LAS,2024-08-30 05:56,-115.1634,36.0719,663.00,95.00,42.00,16.10,180.00,3.00,0.00,29.96,1011.10,10.00,M,FEW,FEW,M,M,12000.00,18000.00,M,M,M,M,M,M,M,M,M,90.79,KLAS 300556Z 18003KT 10SM FEW120 FEW180 35/05 A2996 RMK AO2 SLP111 T03500056 51010 $,M
NFL,2024-08-30 05:57,-118.7010,39.4166,1199.00,67.00,32.00,27.07,0.00,0.00,0.00,30.12,1016.70,10.00,M,CLR,M,M,M,M,M,M,M,M,M,M,M,M,M,M,67.00,KNFL 300557Z 00000KT 10SM CLR 19/00 A3012 RMK AO2 SLP167 T01940000 10339 20178 51013,M
05U,2024-08-30 06:10,-116.0051,39.6042,1811.23,51.80,21.20,29.82,0.00,0.00,0.00,30.32,M,10.00,M,CLR,M,M,M,M,M,M,M,M,M,M,M,M,M,M,51.80,K05U 300610Z AUTO 00000KT 10SM CLR 11/M06 A3032 RMK A01,M
HTH,2024-08-30 06:10,-118.6315,38.5448,1282.89,75.20,30.20,19.05,340.00,7.00,0.00,30.15,M,10.00,M,CLR,M,M,M,M,M,M,M,M,M,M,M,M,M,M,75.20,KHTH 300610Z AUTO 34007KT 10SM CLR 24/M01 A3015 RMK A01,M
BVU,2024-08-30 06:15,-114.8611,35.9475,671.00,84.20,44.60,24.99,310.00,4.00,0.00,29.95,M,10.00,M,CLR,M,M,M,M,M,M,M,M,M,M,M,M,M,M,81.73,KBVU 300615Z AUTO 31004KT 10SM CLR 29/07 A2995 RMK AO2,M
CXP,2024-08-30 06:15,-119.7326,39.1923,1431.00,64.40,30.20,27.55,0.00,0.00,0.00,30.21,M,10.00,M,CLR,M,M,M,M,M,M,M,M,M,M,M,M,M,M,64.40,KCXP 300615Z AUTO 00000KT 10SM CLR 18/M01 A3021 RMK AO2,M
RTS,2024-08-30 06:15,-119.8764,39.6682,1539.00,59.00,23.00,24.76,340.00,5.00,0.00,30.23,M,10.00,M,CLR,M,M,M,M,M,M,M,M,M,M,M,M,M,M,59.00,KRTS 300615Z AUTO 34005KT 10SM CLR 15/M05 A3023 RMK AO2,M
MEV,2024-08-30 06:15,-119.7500,38.9963,1441.42,55.40,32.00,40.84,120.00,8.00,0.00,30.20,M,10.00,M,FEW,M,M,M,5000.00,M,M,M,M,M,M,M,M,M,M,55.40,KMEV 300615Z AUTO 12008KT 10SM FEW050 13/M00 A3020 RMK AO2,M
BAM,2024-08-30 06:15,-116.8743,40.5990,1382.36,55.40,21.20,26.13,140.00,6.00,0.00,30.23,M,10.00,M,CLR,M,M,M,M,M,M,M,M,M,M,M,M,M,M,55.40,KBAM 300615Z AUTO 14006KT 10SM CLR 13/M06 A3023 RMK AO1,M
TMT,2024-08-30 06:15,-117.1971,39.4643,1749.34,47.50,25.50,41.91,210.00,4.00,0.00,30.29,M,10.00,M,CLR,M,M,M,M,M,M,M,M,M,M,M,M,M,M,45.52,KTMT 300615Z AUTO 21004KT 10SM CLR 09/M04 A3029 RMK AO2 T00861036,M
10U,2024-08-30 06:15,-116.1876,41.9532,1637.00,46.40,15.80,28.93,0.00,0.00,0.00,30.30,M,10.00,M,BKN,M,M,M,300.00,M,M,M,M,M,M,M,M,M,M,46.40,K10U 300615Z AUTO 00000KT 10SM BKN003 08/M09 A3030 RMK AO2,M
05U,2024-08-30 06:30,-116.0051,39.6042,1811.23,50.00,23.00,34.39,0.00,0.00,0.00,30.32,M,10.00,M,CLR,M,M,M,M,M,M,M,M,M,M,M,M,M,M,50.00,K05U 300630Z AUTO 00000KT 10SM CLR 10/M05 A3032 RMK A01,M
BVU,2024-08-30 06:35,-114.8611,35.9475,671.00,86.00,39.20,19.15,320.00,4.00,0.00,29.95,M,10.00,M,CLR,M,M,M,M,M,M,M,M,M,M,M,M,M,M,82.79,KBVU 300635Z AUTO 32004KT 10SM CLR 30/04 A2995 RMK AO2,M
CXP,2024-08-30 06:35,-119.7326,39.1923,1431.00,66.20,30.20,25.88,0.00,0.00,0.00,30.22,M,10.00,M,CLR,M,M,M,M,M,M,M,M,M,M,M,M,M,M,66.20,KCXP 300635Z AUTO 00000KT 10SM CLR 19/M01 A3022 RMK AO2,M
RTS,2024-08-30 06:35,-119.8764,39.6682,1539.00,57.20,21.20,24.49,350.00,4.00,0.00,30.23,M,10.00,M,CLR,M,M,M,M,M,M,M,M,M,M,M,M,M,M,57.20,KRTS 300635Z AUTO 35004KT 10SM CLR 14/M06 A3023 RMK AO2,M
MEV,2024-08-30 06:35,-119.7500,38.9963,1441.42,55.40,32.00,40.84,110.00,7.00,0.00,30.21,M,10.00,M,CLR,M,M,M,M,M,M,M,M,M,M,M,M,M,M,55.40,KMEV 300635Z AUTO 11007KT 10SM CLR 13/M00 A3021 RMK AO2,M
BAM,2024-08-30 06:35,-116.8743,40.5990,1382.36,51.80,19.40,27.62,140.00,5.00,0.00,30.23,M,10.00,M,CLR,M,M,M,M,M,M,M,M,M,M,M,M,M,M,51.80,KBAM 300635Z AUTO 14005KT 10SM CLR 11/M07 A3023 RMK AO1,M
HTH,2024-08-30 06:35,-118.6315,38.5448,1282.89,75.20,32.00,20.49,0.00,0.00,0.00,30.15,M,10.00,M,CLR,M,M,M,M,M,M,M,M,M,M,M,M,M,M,75.20,KHTH 300635Z AUTO 00000KT 10SM CLR 24/M00 A3015 RMK A01,M
TMT,2024-08-30 06:35,-117.1971,39.4643,1749.34,47.30,28.00,46.82,250.00,5.00,0.00,30.30,M,10.00,M,CLR,M,M,M,M,M,M,M,M,M,M,M,M,M,M,44.57,KTMT 300635Z AUTO 25005KT 10SM CLR 09/M02 A3030 RMK AO2 T00851023,M
10U,2024-08-30 06:35,-116.1876,41.9532,1637.00,50.00,17.60,27.33,M,4.00,0.00,30.29,M,10.00,M,FEW,M,M,M,300.00,M,M,M,M,M,M,M,M,M,M,50.00,K10U 300635Z AUTO VRB04KT 10SM FEW003 10/M08 A3029 RMK AO2,M
05U,2024-08-30 06:50,-116.0051,39.6042,1811.23,50.00,21.20,31.87,0.00,0.00,0.00,30.32,M,10.00,M,CLR,M,M,M,M,M,M,M,M,M,M,M,M,M,M,50.00,K05U 300650Z AUTO 00000KT 10SM CLR 10/M06 A3032 RMK A01,M
P68,2024-08-30 06:53,-116.0056,39.6014,1993.00,51.00,23.00,33.13,180.00,4.00,0.00,30.30,1019.00,M,M,M,M,M,M,M,M,M,M,M,M,M,M,M,M,M,51.00,KP68 300653Z AUTO 18004KT 11/M05 A3030 RMK AO1 SLP190 T01061050,M
DRA,2024-08-30 06:53,-116.0278,36.6206,1009.00,76.00,31.00,19.16,60.00,6.00,0.00,30.05,1012.00,10.00,M,CLR,M,M,M,M,M,M,M,M,M,M,M,M,M,M,76.00,KDRA 300653Z AUTO 06006KT 10SM CLR 24/M01 A3005 RMK AO2 SLP120 T02441006,M
ELY,2024-08-30 06:53,-114.8453,39.2950,1909.00,54.00,13.00,19.30,180.00,3.00,0.00,30.34,1017.80,10.00,M,CLR,M,M,M,M,M,M,M,M,M,M,M,M,M,M,54.00,KELY 300653Z AUTO 18003KT 10SM CLR 12/M11 A3034 RMK AO2 SLP178 T01221106,M
VGT,2024-08-30 06:53,-115.1933,36.2111,667.00,89.00,41.00,18.68,0.00,0.00,0.00,29.95,1012.70,10.00,M,CLR,M,M,M,M,M,M,M,M,M,M,M,M,M,M,85.30,KVGT 300653Z AUTO 00000KT 10SM CLR 32/05 A2995 RMK AO2 SLP127 T03170050,M
LOL,2024-08-30 06:53,-118.5701,40.0684,1192.43,60.00,23.00,23.90,10.00,3.00,0.00,30.14,1017.30,10.00,M,CLR,M,M,M,M,M,M,M,M,M,M,M,M,M,M,60.00,KLOL 300653Z AUTO 01003KT 10SM CLR 16/M05 A3014 RMK AO2 SLP173 T01561050,M
BVU,2024-08-30 06:55,-114.8611,35.9475,671.00,84.20,41.00,21.76,330.00,4.00,0.00,29.95,M,10.00,M,CLR,M,M,M,M,M,M,M,M,M,M,M,M,M,M,81.52,KBVU 300655Z AUTO 33004KT 10SM CLR 29/05 A2995 RMK AO2,M
RNO,2024-08-30 06:55,-119.7711,39.4839,1341.00,70.00,36.00,28.65,270.00,3.00,0.00,30.19,1016.60,10.00,M,CLR,M,M,M,M,M,M,M,M,M,M,M,M,M,M,70.00,KRNO 300655Z 27003KT 10SM CLR 21/02 A3019 RMK AO2 SLP166 T02110022,M
CXP,2024-08-30 06:55,-119.7326,39.1923,1431.00,64.40,28.40,25.60,0.00,0.00,0.00,30.22,M,10.00,M,CLR,M,M,M,M,M,M,M,M,M,M,M,M,M,M,64.40,KCXP 300655Z AUTO 00000KT 10SM CLR 18/M02 A3022 RMK AO2,M
RTS,2024-08-30 06:55,-119.8764,39.6682,1539.00,59.00,23.00,24.76,0.00,0.00,0.00,30.24,M,10.00,M,CLR,M,M,M,M,M,M,M,M,M,M,M,M,M,M,59.00,KRTS 300655Z AUTO 00000KT 10SM CLR 15/M05 A3024 RMK AO2,M
MEV,2024-08-30 06:55,-119.7500,38.9963,1441.42,55.40,32.00,40.84,0.00,0.00,0.00,30.21,M,10.00,M,FEW,FEW,M,M,5000.00,5500.00,M,M,M,M,M,M,M,M,M,55.40,KMEV 300655Z AUTO 00000KT 10SM FEW050 FEW055 13/00 A3021 RMK AO2,M
BAM,2024-08-30 06:55,-116.8743,40.5990,1382.36,50.00,21.20,31.87,0.00,0.00,0.00,30.23,M,10.00,M,CLR,M,M,M,M,M,M,M,M,M,M,M,M,M,M,50.00,KBAM 300655Z AUTO 00000KT 10SM CLR 10/M06 A3023 RMK AO1,M
HTH,2024-08-30 06:55,-118.6315,38.5448,1282.89,71.60,33.80,24.86,160.00,4.00,0.00,30.16,M,10.00,M,CLR,M,M,M,M,M,M,M,M,M,M,M,M,M,M,71.60,KHTH 300655Z AUTO 16004KT 10SM CLR 22/01 A3016 RMK A01,M
TMT,2024-08-30 06:55,-117.1971,39.4643,1749.34,47.70,30.00,50.05,250.00,4.00,0.00,30.30,M,10.00,M,CLR,M,M,M,M,M,M,M,M,M,M,M,M,M,M,45.75,KTMT 300655Z AUTO 25004KT 10SM CLR 09/M01 A3030 RMK AO2 T00871011,M
10U,2024-08-30 06:55,-116.1876,41.9532,1637.00,48.20,19.40,31.57,340.00,4.00,0.00,30.29,M,10.00,M,FEW,M,M,M,300.00,M,M,M,M,M,M,M,M,M,M,46.34,K10U 300655Z AUTO 34004KT 10SM FEW003 09/M07 A3029 RMK AO2,M
INS,2024-08-30 06:55,-115.6733,36.5872,955.00,81.70,31.00,15.88,140.00,4.00,0.00,30.03,1010.80,10.00,M,CLR,M,M,M,M,M,M,M,M,M,M,M,M,M,M,79.50,KINS 300655Z AUTO 14004KT 10SM CLR 28/M00 A3003 RMK AO2 SLP108 T02761005,M
LSV,2024-08-30 06:55,-115.0343,36.2362,570.00,91.40,37.20,14.93,0.00,0.00,0.00,29.90,1009.20,10.00,M,CLR,M,M,M,M,M,M,M,M,M,M,M,M,M,M,87.22,KLSV 300655Z AUTO 00000KT 10SM CLR 33/03 A2990 RMK AO2 SLP092 T03300029 $,M
EKO,2024-08-30 06:56,-115.7860,40.8242,1367.00,46.00,18.00,32.30,0.00,0.00,0.00,30.26,1021.20,10.00,M,CLR,M,M,M,M,M,M,M,M,M,M,M,M,M,M,46.00,KEKO 300656Z AUTO 00000KT 10SM CLR 08/M08 A3026 RMK AO2 SLP212 T00781078,M
HND,2024-08-30 06:56,-115.1344,35.9729,742.79,84.00,38.00,19.49,200.00,7.00,0.00,30.00,1014.20,10.00,M,CLR,M,M,M,M,M,M,M,M,M,M,M,M,M,M,81.26,KHND 300656Z AUTO 20007KT 10SM CLR 29/03 A3000 RMK AO2 SLP142 T02890033 403940256,M
TPH,2024-08-30 06:56,-117.0904,38.0505,1654.00,64.00,18.00,16.77,340.00,5.00,0.00,30.23,1015.80,10.00,M,CLR,M,M,M,M,M,M,M,M,M,M,M,M,M,M,64.00,KTPH 300656Z AUTO 34005KT 10SM CLR 18/M08 A3023 RMK AO2 SLP158 T01781078,M
LAS,2024-08-30 06:56,-115.1634,36.0719,663.00,92.00,41.00,17.00,190.00,4.00,0.00,29.97,1011.40,10.00,M,CLR,M,M,M,M,M,M,M,M,M,M,M,M,M,M,87.94,KLAS 300656Z 19004KT 10SM CLR 33/05 A2997 RMK AO2 SLP114 T03330050 $,M
NFL,2024-08-30 06:57,-118.7010,39.4166,1199.00,64.00,25.00,22.56,130.00,3.00,0.00,30.13,1016.90,10.00,M,CLR,M,M,M,M,M,M,M,M,M,M,M,M,M,M,64.00,KNFL 300657Z AUTO 13003KT 10SM CLR 18/M04 A3013 RMK AO2 SLP169 T01781039,M
05U,2024-08-30 07:10,-116.0051,39.6042,1811.23,48.20,21.20,34.09,0.00,0.00,0.00,30.32,M,10.00,M,CLR,M,M,M,M,M,M,M,M,M,M,M,M,M,M,48.20,K05U 300710Z AUTO 00000KT 10SM CLR 09/M06 A3032 RMK A01,M
BVU,2024-08-30 07:15,-114.8611,35.9475,671.00,84.20,41.00,21.76,310.00,4.00,0.00,29.95,M,10.00,M,CLR,M,M,M,M,M,M,M,M,M,M,M,M,M,M,81.52,KBVU 300715Z AUTO 31004KT 10SM CLR 29/05 A2995 RMK AO2,M
CXP,2024-08-30 07:15,-119.7326,39.1923,1431.00,64.40,28.40,25.60,0.00,0.00,0.00,30.22,M,10.00,M,CLR,M,M,M,M,M,M,M,M,M,M,M,M,M,M,64.40,KCXP 300715Z AUTO 00000KT 10SM CLR 18/M02 A3022 RMK AO2,M
RTS,2024-08-30 07:15,-119.8764,39.6682,1539.00,59.00,24.80,26.70,0.00,0.00,0.00,30.24,M,10.00,M,CLR,M,M,M,M,M,M,M,M,M,M,M,M,M,M,59.00,KRTS 300715Z AUTO 00000KT 10SM CLR 15/M04 A3024 RMK AO2,M
MEV,2024-08-30 07:15,-119.7500,38.9963,1441.42,55.40,33.80,43.90,0.00,0.00,0.00,30.21,M,10.00,M,FEW,FEW,M,M,4900.00,5500.00,M,M,M,M,M,M,M,M,M,55.40,KMEV 300715Z AUTO 00000KT 10SM FEW049 FEW055 13/01 A3021 RMK AO2,M
BAM,2024-08-30 07:15,-116.8743,40.5990,1382.36,46.40,21.20,36.48,60.00,4.00,0.00,30.23,M,10.00,M,CLR,M,M,M,M,M,M,M,M,M,M,M,M,M,M,44.24,KBAM 300715Z AUTO 06004KT 10SM CLR 08/M06 A3023 RMK AO1,M
HTH,2024-08-30 07:15,-118.6315,38.5448,1282.89,69.80,33.80,26.43,180.00,6.00,0.00,30.16,M,10.00,M,CLR,M,M,M,M,M,M,M,M,M,M,M,M,M,M,69.80,KHTH 300715Z AUTO 18006KT 10SM CLR 21/01 A3016 RMK A01,M
TMT,2024-08-30 07:15,-117.1971,39.4643,1749.34,47.00,30.40,52.23,220.00,5.00,0.00,30.30,M,10.00,M,CLR,M,M,M,M,M,M,M,M,M,M,M,M,M,M,44.21,KTMT 300715Z AUTO 22005KT 10SM CLR 08/M01 A3030 RMK AO2 T00831009,M
10U,2024-08-30 07:15,-116.1876,41.9532,1637.00,48.20,19.40,31.57,0.00,0.00,0.00,30.30,M,10.00,M,FEW,M,M,M,300.00,M,M,M,M,M,M,M,M,M,M,48.20,K10U 300715Z AUTO 00000KT 10SM FEW003 09/M07 A3030 RMK AO2,M
05U,2024-08-30 07:30,-116.0051,39.6042,1811.23,50.00,19.40,29.52,0.00,0.00,0.00,30.32,M,10.00,M,CLR,M,M,M,M,M,M,M,M,M,M,M,M,M,M,50.00,K05U 300730Z AUTO 00000KT 10SM CLR 10/M07 A3032 RMK A01,M
BVU,2024-08-30 07:35,-114.8611,35.9475,671.00,84.20,39.20,20.29,0.00,0.00,0.00,29.95,M,10.00,M,CLR,M,M,M,M,M,M,M,M,M,M,M,M,M,M,81.44,KBVU 300735Z AUTO 00000KT 10SM CLR 29/04 A2995 RMK AO2,M
CXP,2024-08-30 07:35,-119.7326,39.1923,1431.00,60.80,30.20,31.28,0.00,0.00,0.00,30.23,M,10.00,M,CLR,M,M,M,M,M,M,M,M,M,M,M,M,M,M,60.80,KCXP 300735Z AUTO 00000KT 10SM CLR 16/M01 A3023 RMK AO2,M
RTS,2024-08-30 07:35,-119.8764,39.6682,1539.00,55.40,23.00,28.20,330.00,3.00,0.00,30.24,M,10.00,M,CLR,M,M,M,M,M,M,M,M,M,M,M,M,M,M,55.40,KRTS 300735Z AUTO 33003KT 10SM CLR 13/M05 A3024 RMK AO2,M
MEV,2024-08-30 07:35,-119.7500,38.9963,1441.42,51.80,33.80,50.08,0.00,0.00,0.00,30.21,M,10.00,M,FEW,M,M,M,5500.00,M,M,M,M,M,M,M,M,M,M,51.80,KMEV 300735Z AUTO 00000KT 10SM FEW055 11/01 A3021 RMK AO2,M
BAM,2024-08-30 07:35,-116.8743,40.5990,1382.36,50.00,19.40,29.52,30.00,5.00,0.00,30.23,M,10.00,M,CLR,M,M,M,M,M,M,M,M,M,M,M,M,M,M,50.00,KBAM 300735Z AUTO 03005KT 10SM CLR 10/M07 A3023 RMK AO1,M
HTH,2024-08-30 07:35,-118.6315,38.5448,1282.89,69.80,33.80,26.43,190.00,6.00,0.00,30.17,M,7.00,M,CLR,M,M,M,M,M,M,M,M,M,M,M,M,M,M,69.80,KHTH 300735Z AUTO 19006KT 7SM CLR 21/01 A3017 RMK A01,M
TMT,2024-08-30 07:35,-117.1971,39.4643,1749.34,43.30,28.00,54.51,210.00,5.00,0.00,30.30,M,10.00,M,CLR,M,M,M,M,M,M,M,M,M,M,M,M,M,M,39.82,KTMT 300735Z AUTO 21005KT 10SM CLR 06/M02 A3030 RMK AO2 T00631022,M
10U,2024-08-30 07:35,-116.1876,41.9532,1637.00,42.80,15.80,33.18,310.00,3.00,0.00,30.30,M,10.00,M,SCT,M,M,M,300.00,M,M,M,M,M,M,M,M,M,M,41.03,K10U 300735Z AUTO 31003KT 10SM SCT003 06/M09 A3030 RMK AO2,M
05U,2024-08-30 07:50,-116.0051,39.6042,1811.23,46.40,21.20,36.48,0.00,0.00,0.00,30.32,M,10.00,M,CLR,M,M,M,M,M,M,M,M,M,M,M,M,M,M,46.40,K05U 300750Z AUTO 00000KT 10SM CLR 08/M06 A3032 RMK A01,M
P68,2024-08-30 07:53,-116.0056,39.6014,1993.00,47.00,25.00,41.83,0.00,0.00,0.00,30.30,1019.00,M,M,M,M,M,M,M,M,M,M,M,M,M,M,M,M,M,47.00,KP68 300753Z AUTO 00000KT 08/M04 A3030 RMK AO1 SLP190 T00831039 403000039,M
DRA,2024-08-30 07:53,-116.0278,36.6206,1009.00,75.00,31.00,19.81,0.00,0.00,0.00,30.05,1012.10,10.00,M,CLR,M,M,M,M,M,M,M,M,M,M,M,M,M,M,75.00,KDRA 300753Z AUTO 00000KT 10SM CLR 24/M01 A3005 RMK AO2 SLP121 T02391006 403720161,M
ELY,2024-08-30 07:53,-114.8453,39.2950,1909.00,46.00,16.00,29.63,220.00,3.00,0.00,30.34,1018.60,10.00,M,CLR,M,M,M,M,M,M,M,M,M,M,M,M,M,M,44.69,KELY 300753Z AUTO 22003KT 10SM CLR 08/M09 A3034 RMK AO2 SLP186 T00781089 403060044,M
VGT,2024-08-30 07:53,-115.1933,36.2111,667.00,87.00,41.00,19.90,40.00,5.00,0.00,29.96,1012.80,10.00,M,CLR,M,M,M,M,M,M,M,M,M,M,M,M,M,M,83.65,KVGT 300753Z AUTO 04005KT 10SM CLR 31/05 A2996 RMK AO2 SLP128 T03060050 404060250,M
LOL,2024-08-30 07:53,-118.5701,40.0684,1192.43,49.00,28.00,43.93,180.00,3.00,0.00,30.15,1018.10,10.00,M,CLR,M,M,M,M,M,M,M,M,M,M,M,M,M,M,48.12,KLOL 300753Z AUTO 18003KT 10SM CLR 09/M02 A3015 RMK AO2 SLP181 T00941022 403280094,M
BVU,2024-08-30 07:55,-114.8611,35.9475,671.00,82.40,42.80,24.72,0.00,0.00,0.00,29.95,M,10.00,M,CLR,M,M,M,M,M,M,M,M,M,M,M,M,M,M,80.39,KBVU 300755Z AUTO 00000KT 10SM CLR 28/06 A2995 RMK AO2,M
INS,2024-08-30 07:55,-115.6733,36.5872,955.00,77.70,29.50,17.04,0.00,0.00,0.00,30.04,1011.30,10.00,M,CLR,M,M,M,M,M,M,M,M,M,M,M,M,M,M,77.70,KINS 300755Z AUTO 00000KT 10SM CLR 25/M01 A3004 RMK AO2 SLP113 T02541014 403740180,M
RNO,2024-08-30 07:55,-119.7711,39.4839,1341.00,68.00,36.00,30.69,320.00,3.00,0.00,30.20,1016.80,10.00,M,CLR,M,M,M,M,M,M,M,M,M,M,M,M,M,M,68.00,KRNO 300755Z 32003KT 10SM CLR 20/02 A3020 RMK AO2 SLP168 T02000022 403390150,M
BAM,2024-08-30 07:55,-116.8743,40.5990,1382.36,53.60,17.60,23.93,10.00,7.00,0.00,30.23,M,10.00,M,CLR,M,M,M,M,M,M,M,M,M,M,M,M,M,M,53.60,KBAM 300755Z AUTO 01007KT 10SM CLR 12/M08 A3023 RMK AO1,M
CXP,2024-08-30 07:55,-119.7326,39.1923,1431.00,60.80,30.20,31.28,0.00,0.00,0.00,30.23,M,10.00,M,CLR,M,M,M,M,M,M,M,M,M,M,M,M,M,M,60.80,KCXP 300755Z AUTO 00000KT 10SM CLR 16/M01 A3023 RMK AO2,M
RTS,2024-08-30 07:55,-119.8764,39.6682,1539.00,59.00,24.80,26.70,350.00,7.00,0.00,30.24,M,10.00,M,CLR,M,M,M,M,M,M,M,M,M,M,M,M,M,M,59.00,KRTS 300755Z AUTO 35007KT 10SM CLR 15/M04 A3024 RMK AO2,M
MEV,2024-08-30 07:55,-119.7500,38.9963,1441.42,51.80,35.60,53.81,0.00,0.00,0.00,30.21,M,10.00,M,FEW,FEW,SCT,M,5500.00,6500.00,10000.00,M,M,M,M,M,M,M,M,51.80,KMEV 300755Z AUTO 00000KT 10SM FEW055 FEW065 SCT100 11/02 A3021 RMK AO2,M
HTH,2024-08-30 07:55,-118.6315,38.5448,1282.89,71.60,30.20,21.50,240.00,4.00,0.00,30.17,M,10.00,M,CLR,M,M,M,M,M,M,M,M,M,M,M,M,M,M,71.60,KHTH 300755Z AUTO 24004KT 10SM CLR 22/M01 A3017 RMK A01,M
TMT,2024-08-30 07:55,-117.1971,39.4643,1749.34,45.70,28.40,50.57,230.00,7.00,0.00,30.30,M,10.00,M,CLR,M,M,M,M,M,M,M,M,M,M,M,M,M,M,41.48,KTMT 300755Z AUTO 23007KT 10SM CLR 08/M02 A3030 RMK AO2 T00761020 403020007,M
10U,2024-08-30 07:55,-116.1876,41.9532,1637.00,41.00,15.80,35.57,0.00,0.00,0.00,30.30,M,10.00,M,SCT,M,M,M,300.00,M,M,M,M,M,M,M,M,M,M,41.00,K10U 300755Z AUTO 00000KT 10SM SCT003 05/M09 A3030 RMK AO2,M
LSV,2024-08-30 07:55,-115.0343,36.2362,570.00,86.50,38.00,17.99,0.00,0.00,0.00,29.90,1009.30,10.00,M,CLR,M,M,M,M,M,M,M,M,M,M,M,M,M,M,83.14,KLSV 300755Z AUTO 00000KT 10SM CLR 30/03 A2990 RMK AO2 SLP093 T03030033 404060244 $,M
EKO,2024-08-30 07:56,-115.7860,40.8242,1367.00,46.00,14.00,27.15,280.00,3.00,0.00,30.26,1021.10,10.00,M,CLR,M,M,M,M,M,M,M,M,M,M,M,M,M,M,44.69,KEKO 300756Z AUTO 28003KT 10SM CLR 08/M10 A3026 RMK AO2 SLP211 T00781100 402940022,M
HND,2024-08-30 07:56,-115.1344,35.9729,742.79,84.00,37.00,18.74,200.00,10.00,0.00,30.00,1014.10,10.00,M,CLR,M,M,M,M,M,M,M,M,M,M,M,M,M,M,81.23,KHND 300756Z AUTO 20010KT 10SM CLR 29/03 A3000 RMK AO2 SLP141 T02890028,M
TPH,2024-08-30 07:56,-117.0904,38.0505,1654.00,63.00,20.00,18.93,360.00,9.00,0.00,30.24,1015.90,10.00,M,CLR,M,M,M,M,M,M,M,M,M,M,M,M,M,M,63.00,KTPH 300756Z AUTO 36009KT 10SM CLR 17/M07 A3024 RMK AO2 SLP159 T01721067 403280128,M
LAS,2024-08-30 07:56,-115.1634,36.0719,663.00,87.00,40.00,19.14,210.00,3.00,0.00,29.97,1011.50,10.00,M,CLR,M,M,M,M,M,M,M,M,M,M,M,M,M,M,83.60,KLAS 300756Z 21003KT 10SM CLR 30/04 A2997 RMK AO2 SLP115 T03060044 403780267 $,M
NFL,2024-08-30 07:57,-118.7010,39.4166,1199.00,60.00,32.00,34.61,240.00,3.00,0.00,30.15,1017.40,10.00,M,CLR,M,M,M,M,M,M,M,M,M,M,M,M,M,M,60.00,KNFL 300757Z AUTO 24003KT 10SM CLR 16/00 A3015 RMK AO2 SLP174 T01560000 403390117,M
05U,2024-08-30 08:10,-116.0051,39.6042,1811.23,48.20,24.80,39.66,0.00,0.00,0.00,30.32,M,10.00,M,CLR,M,M,M,M,M,M,M,M,M,M,M,M,M,M,48.20,K05U 300810Z AUTO 00000KT 10SM CLR 09/M04 A3032 RMK A01,M
BVU,2024-08-30 08:15,-114.8611,35.9475,671.00,82.40,41.00,23.07,0.00,0.00,0.00,29.95,M,10.00,M,CLR,M,M,M,M,M,M,M,M,M,M,M,M,M,M,80.29,KBVU 300815Z AUTO 00000KT 10SM CLR 28/05 A2995 RMK AO2,M
CXP,2024-08-30 08:15,-119.7326,39.1923,1431.00,59.00,30.20,33.35,0.00,0.00,0.00,30.23,M,10.00,M,CLR,M,M,M,M,M,M,M,M,M,M,M,M,M,M,59.00,KCXP 300815Z AUTO 00000KT 10SM CLR 15/M01 A3023 RMK AO2,M
RTS,2024-08-30 08:15,-119.8764,39.6682,1539.00,59.00,23.00,24.76,340.00,4.00,0.00,30.24,M,10.00,M,CLR,M,M,M,M,M,M,M,M,M,M,M,M,M,M,59.00,KRTS 300815Z AUTO 34004KT 10SM CLR 15/M05 A3024 RMK AO2,M
MEV,2024-08-30 08:15,-119.7500,38.9963,1441.42,50.00,33.80,53.54,50.00,3.00,0.00,30.22,M,10.00,M,CLR,M,M,M,M,M,M,M,M,M,M,M,M,M,M,50.00,KMEV 300815Z AUTO 05003KT 10SM CLR 10/01 A3022 RMK AO2,M
BAM,2024-08-30 08:15,-116.8743,40.5990,1382.36,55.40,19.40,24.21,340.00,7.00,0.00,30.23,M,10.00,M,CLR,M,M,M,M,M,M,M,M,M,M,M,M,M,M,55.40,KBAM 300815Z AUTO 34007KT 10SM CLR 13/M07 A3023 RMK AO1,M
TMT,2024-08-30 08:15,-117.1971,39.4643,1749.34,46.80,28.20,48.11,0.00,0.00,0.00,30.30,M,10.00,M,CLR,M,M,M,M,M,M,M,M,M,M,M,M,M,M,46.80,KTMT 300815Z AUTO 00000KT 10SM CLR 08/M02 A3030 RMK AO2 T00821021,M
10U,2024-08-30 08:15,-116.1876,41.9532,1637.00,42.80,17.60,35.87,0.00,0.00,0.00,30.30,M,10.00,M,SCT,M,M,M,300.00,M,M,M,M,M,M,M,M,M,M,42.80,K10U 300815Z AUTO 00000KT 10SM SCT003 06/M08 A3030 RMK AO2,M
HTH,2024-08-30 08:15,-118.6315,38.5448,1282.89,68.00,28.40,22.59,220.00,6.00,0.00,30.16,M,10.00,M,CLR,M,M,M,M,M,M,M,M,M,M,M,M,M,M,68.00,KHTH 300815Z AUTO 22006KT 10SM CLR 20/M02 A3016 RMK A01,M
05U,2024-08-30 08:30,-116.0051,39.6042,1811.23,48.20,23.00,36.78,0.00,0.00,0.00,30.32,M,10.00,M,CLR,M,M,M,M,M,M,M,M,M,M,M,M,M,M,48.20,K05U 300830Z AUTO 00000KT 10SM CLR 09/M05 A3032 RMK A01,M
BVU,2024-08-30 08:35,-114.8611,35.9475,671.00,80.60,42.80,26.22,320.00,3.00,0.00,29.95,M,10.00,M,CLR,M,M,M,M,M,M,M,M,M,M,M,M,M,M,79.30,KBVU 300835Z AUTO 32003KT 10SM CLR 27/06 A2995 RMK AO2,M
BAM,2024-08-30 08:35,-116.8743,40.5990,1382.36,51.80,21.20,29.82,350.00,7.00,0.00,30.23,M,10.00,M,CLR,M,M,M,M,M,M,M,M,M,M,M,M,M,M,51.80,KBAM 300835Z AUTO 35007KT 10SM CLR 11/M06 A3023 RMK AO1,M
CXP,2024-08-30 08:35,-119.7326,39.1923,1431.00,59.00,28.40,30.98,0.00,0.00,0.00,30.23,M,10.00,M,CLR,M,M,M,M,M,M,M,M,M,M,M,M,M,M,59.00,KCXP 300835Z AUTO 00000KT 10SM CLR 15/M02 A3023 RMK AO2,M
RTS,2024-08-30 08:35,-119.8764,39.6682,1539.00,57.20,23.00,26.42,340.00,4.00,0.00,30.24,M,10.00,M,CLR,M,M,M,M,M,M,M,M,M,M,M,M,M,M,57.20,KRTS 300835Z AUTO 34004KT 10SM CLR 14/M05 A3024 RMK AO2,M
MEV,2024-08-30 08:35,-119.7500,38.9963,1441.42,50.00,32.00,49.81,0.00,0.00,0.00,30.22,M,10.00,M,FEW,FEW,M,M,5000.00,5500.00,M,M,M,M,M,M,M,M,M,50.00,KMEV 300835Z AUTO 00000KT 10SM FEW050 FEW055 10/00 A3022 RMK AO2,M
HTH,2024-08-30 08:35,-118.6315,38.5448,1282.89,69.80,28.40,21.24,280.00,3.00,0.00,30.16,M,10.00,M,CLR,M,M,M,M,M,M,M,M,M,M,M,M,M,M,69.80,KHTH 300835Z AUTO 28003KT 10SM CLR 21/M02 A3016 RMK A01,M
TMT,2024-08-30 08:35,-117.1971,39.4643,1749.34,42.30,26.00,52.15,0.00,0.00,0.00,30.30,M,10.00,M,CLR,M,M,M,M,M,M,M,M,M,M,M,M,M,M,42.30,KTMT 300835Z AUTO 00000KT 10SM CLR 06/M03 A3030 RMK AO2 T00571033,M
10U,2024-08-30 08:35,-116.1876,41.9532,1637.00,39.20,15.80,38.15,0.00,0.00,0.00,30.30,M,10.00,M,BKN,M,M,M,200.00,M,M,M,M,M,M,M,M,M,M,39.20,K10U 300835Z AUTO 00000KT 10SM BKN002 04/M09 A3030 RMK AO2,M
05U,2024-08-30 08:50,-116.0051,39.6042,1811.23,50.00,21.20,31.87,0.00,0.00,0.00,30.32,M,10.00,M,CLR,M,M,M,M,M,M,M,M,M,M,M,M,M,M,50.00,K05U 300850Z AUTO 00000KT 10SM CLR 10/M06 A3032 RMK A01,M
P68,2024-08-30 08:53,-116.0056,39.6014,1993.00,50.00,20.00,30.29,190.00,5.00,0.00,30.29,1018.20,M,M,M,M,M,M,M,M,M,M,M,M,M,M,M,M,M,50.00,KP68 300853Z AUTO 19005KT 10/M07 A3029 RMK AO1 SLP182 T01001067 58000,M
DRA,2024-08-30 08:53,-116.0278,36.6206,1009.00,71.00,30.00,21.77,90.00,3.00,0.00,30.05,1012.30,10.00,M,CLR,M,M,M,M,M,M,M,M,M,M,M,M,M,M,71.00,KDRA 300853Z AUTO 09003KT 10SM CLR 22/M01 A3005 RMK AO2 SLP123 T02171011 51002,M
ELY,2024-08-30 08:53,-114.8453,39.2950,1909.00,46.00,17.00,30.94,170.00,9.00,0.00,30.34,1018.30,10.00,M,CLR,M,M,M,M,M,M,M,M,M,M,M,M,M,M,40.92,KELY 300853Z AUTO 17009KT 10SM CLR 08/M08 A3034 RMK AO2 SLP183 T00781083 50005,M
VGT,2024-08-30 08:53,-115.1933,36.2111,667.00,84.00,39.00,20.27,310.00,4.00,0.00,29.96,1012.90,10.00,M,CLR,M,M,M,M,M,M,M,M,M,M,M,M,M,M,81.29,KVGT 300853Z AUTO 31004KT 10SM CLR 29/04 A2996 RMK AO2 SLP129 T02890039 51004,M
LOL,2024-08-30 08:53,-118.5701,40.0684,1192.43,57.00,24.00,27.75,360.00,8.00,0.00,30.16,1017.70,10.00,M,CLR,M,M,M,M,M,M,M,M,M,M,M,M,M,M,57.00,KLOL 300853Z AUTO 36008KT 10SM CLR 14/M04 A3016 RMK AO2 SLP177 T01391044 51007,M
BVU,2024-08-30 08:55,-114.8611,35.9475,671.00,80.60,41.00,24.46,330.00,3.00,0.00,29.95,M,10.00,M,CLR,M,M,M,M,M,M,M,M,M,M,M,M,M,M,79.20,KBVU 300855Z AUTO 33003KT 10SM CLR 27/05 A2995 RMK AO2,M
INS,2024-08-30 08:55,-115.6733,36.5872,955.00,74.70,28.40,18.00,0.00,0.00,0.00,30.04,1011.40,10.00,M,CLR,M,M,M,M,M,M,M,M,M,M,M,M,M,M,74.70,KINS 300855Z AUTO 00000KT 10SM CLR 24/M02 A3004 RMK AO2 SLP114 T02371020 51006,M
RNO,2024-08-30 08:55,-119.7711,39.4839,1341.00,66.00,37.00,34.21,290.00,3.00,0.00,30.20,1016.80,10.00,M,CLR,M,M,M,M,M,M,M,M,M,M,M,M,M,M,66.00,KRNO 300855Z 29003KT 10SM CLR 19/03 A3020 RMK AO2 SLP168 T01890028 51006 $,M
CXP,2024-08-30 08:55,-119.7326,39.1923,1431.00,57.20,28.40,33.05,0.00,0.00,0.00,30.23,M,10.00,M,CLR,M,M,M,M,M,M,M,M,M,M,M,M,M,M,57.20,KCXP 300855Z AUTO 00000KT 10SM CLR 14/M02 A3023 RMK AO2,M
RTS,2024-08-30 08:55,-119.8764,39.6682,1539.00,59.00,23.00,24.76,0.00,0.00,0.00,30.24,M,10.00,M,CLR,M,M,M,M,M,M,M,M,M,M,M,M,M,M,59.00,KRTS 300855Z AUTO 00000KT 10SM CLR 15/M05 A3024 RMK AO2,M
MEV,2024-08-30 08:55,-119.7500,38.9963,1441.42,50.00,35.60,57.52,0.00,0.00,0.00,30.22,M,10.00,M,FEW,FEW,M,M,5000.00,8500.00,M,M,M,M,M,M,M,M,M,50.00,KMEV 300855Z AUTO 00000KT 10SM FEW050 FEW085 10/02 A3022 RMK AO2,M
BAM,2024-08-30 08:55,-116.8743,40.5990,1382.36,50.00,19.40,29.52,0.00,0.00,0.00,30.23,M,10.00,M,CLR,M,M,M,M,M,M,M,M,M,M,M,M,M,M,50.00,KBAM 300855Z AUTO 00000KT 10SM CLR 10/M07 A3023 RMK AO1,M
HTH,2024-08-30 08:55,-118.6315,38.5448,1282.89,66.20,28.40,24.04,0.00,0.00,0.00,30.17,M,10.00,M,CLR,M,M,M,M,M,M,M,M,M,M,M,M,M,M,66.20,KHTH 300855Z AUTO 00000KT 10SM CLR 19/M02 A3017 RMK A01,M
TMT,2024-08-30 08:55,-117.1971,39.4643,1749.34,42.00,30.00,62.18,240.00,5.00,0.00,30.30,M,10.00,M,CLR,M,M,M,M,M,M,M,M,M,M,M,M,M,M,38.27,KTMT 300855Z AUTO 24005KT 10SM CLR 06/M01 A3030 RMK AO2 T00551012,M
10U,2024-08-30 08:55,-116.1876,41.9532,1637.00,37.40,15.80,40.93,0.00,0.00,0.00,30.30,M,10.00,M,SCT,BKN,M,M,200.00,3000.00,M,M,M,M,M,M,M,M,M,37.40,K10U 300855Z AUTO 00000KT 10SM SCT002 BKN030 03/M09 A3030 RMK AO2,M
LSV,2024-08-30 08:55,-115.0343,36.2362,570.00,82.20,37.00,19.86,0.00,0.00,0.00,29.91,1009.70,10.00,M,CLR,M,M,M,M,M,M,M,M,M,M,M,M,M,M,79.99,KLSV 300855Z AUTO 00000KT 10SM CLR 28/03 A2991 RMK AO2 SLP097 T02790028 51006 $,M
EKO,2024-08-30 08:56,-115.7860,40.8242,1367.00,42.00,18.00,37.64,0.00,0.00,0.00,30.26,1021.30,10.00,M,CLR,M,M,M,M,M,M,M,M,M,M,M,M,M,M,42.00,KEKO 300856Z AUTO 00000KT 10SM CLR 06/M08 A3026 RMK AO2 SLP213 T00561078 51003,M
HND,2024-08-30 08:56,-115.1344,35.9729,742.79,84.00,38.00,19.49,210.00,11.00,0.00,30.00,1014.10,10.00,M,CLR,M,M,M,M,M,M,M,M,M,M,M,M,M,M,81.26,KHND 300856Z AUTO 21011KT 10SM CLR 29/03 A3000 RMK AO2 SLP141 T02890033 51003,M
TPH,2024-08-30 08:56,-117.0904,38.0505,1654.00,61.00,20.00,20.31,340.00,7.00,0.00,30.24,1016.20,10.00,M,CLR,M,M,M,M,M,M,M,M,M,M,M,M,M,M,61.00,KTPH 300856Z AUTO 34007KT 10SM CLR 16/M07 A3024 RMK AO2 SLP162 T01611067 51005,M
LAS,2024-08-30 08:56,-115.1634,36.0719,663.00,85.00,39.00,19.62,200.00,5.00,0.00,29.97,1011.60,10.00,M,CLR,M,M,M,M,M,M,M,M,M,M,M,M,M,M,82.02,KLAS 300856Z 20005KT 10SM CLR 29/04 A2997 RMK AO2 SLP116 T02940039 50003 $,M
NFL,2024-08-30 08:57,-118.7010,39.4166,1199.00,54.00,32.00,42.98,0.00,0.00,0.00,30.15,1017.30,10.00,M,CLR,M,M,M,M,M,M,M,M,M,M,M,M,M,M,54.00,KNFL 300857Z AUTO 00000KT 10SM CLR 12/00 A3015 RMK AO2 SLP173 T01220000 50006,M
05U,2024-08-30 09:10,-116.0051,39.6042,1811.23,46.40,19.40,33.79,0.00,0.00,0.00,30.32,M,10.00,M,CLR,M,M,M,M,M,M,M,M,M,M,M,M,M,M,46.40,K05U 300910Z AUTO 00000KT 10SM CLR 08/M07 A3032 RMK A01,M
BVU,2024-08-30 09:15,-114.8611,35.9475,671.00,80.60,42.80,26.22,0.00,0.00,0.00,29.95,M,10.00,M,CLR,M,M,M,M,M,M,M,M,M,M,M,M,M,M,79.30,KBVU 300915Z AUTO 00000KT 10SM CLR 27/06 A2995 RMK AO2,M
BAM,2024-08-30 09:15,-116.8743,40.5990,1382.36,48.20,19.40,31.57,0.00,0.00,0.00,30.23,M,10.00,M,CLR,M,M,M,M,M,M,M,M,M,M,M,M,M,M,48.20,KBAM 300915Z AUTO 00000KT 10SM CLR 09/M07 A3023 RMK AO1,M
CXP,2024-08-30 09:15,-119.7326,39.1923,1431.00,55.40,30.20,37.97,0.00,0.00,0.00,30.23,M,10.00,M,CLR,M,M,M,M,M,M,M,M,M,M,M,M,M,M,55.40,KCXP 300915Z AUTO 00000KT 10SM CLR 13/M01 A3023 RMK AO2,M
RTS,2024-08-30 09:15,-119.8764,39.6682,1539.00,55.40,23.00,28.20,350.00,4.00,0.00,30.24,M,10.00,M,CLR,M,M,M,M,M,M,M,M,M,M,M,M,M,M,55.40,KRTS 300915Z AUTO 35004KT 10SM CLR 13/M05 A3024 RMK AO2,M
MEV,2024-08-30 09:15,-119.7500,38.9963,1441.42,48.20,33.80,57.26,130.00,3.00,0.00,30.22,M,10.00,M,FEW,FEW,M,M,4600.00,5500.00,M,M,M,M,M,M,M,M,M,47.21,KMEV 300915Z AUTO 13003KT 10SM FEW046 FEW055 09/01 A3022 RMK AO2,M
HTH,2024-08-30 09:15,-118.6315,38.5448,1282.89,66.20,30.20,25.88,220.00,4.00,0.00,30.17,M,10.00,M,CLR,M,M,M,M,M,M,M,M,M,M,M,M,M,M,66.20,KHTH 300915Z AUTO 22004KT 10SM CLR 19/M01 A3017 RMK A01,M
TMT,2024-08-30 09:15,-117.1971,39.4643,1749.34,42.00,28.60,58.73,250.00,5.00,0.00,30.30,M,10.00,M,CLR,M,M,M,M,M,M,M,M,M,M,M,M,M,M,38.27,KTMT 300915Z AUTO 25005KT 10SM CLR 06/M02 A3030 RMK AO2 T00561019,M
10U,2024-08-30 09:15,-116.1876,41.9532,1637.00,39.20,17.60,41.24,330.00,4.00,0.00,30.30,M,10.00,M,FEW,M,M,M,2900.00,M,M,M,M,M,M,M,M,M,M,35.83,K10U 300915Z AUTO 33004KT 10SM FEW029 04/M08 A3030 RMK AO2,M
05U,2024-08-30 09:30,-116.0051,39.6042,1811.23,44.60,19.40,36.18,0.00,0.00,0.00,30.32,M,10.00,M,CLR,M,M,M,M,M,M,M,M,M,M,M,M,M,M,44.60,K05U 300930Z AUTO 00000KT 10SM CLR 07/M07 A3032 RMK A01,M
BVU,2024-08-30 09:35,-114.8611,35.9475,671.00,80.60,42.80,26.22,330.00,3.00,0.00,29.95,M,10.00,M,CLR,M,M,M,M,M,M,M,M,M,M,M,M,M,M,79.30,KBVU 300935Z AUTO 33003KT 10SM CLR 27/06 A2995 RMK AO2,M
CXP,2024-08-30 09:35,-119.7326,39.1923,1431.00,55.40,30.20,37.97,0.00,0.00,0.00,30.24,M,10.00,M,CLR,M,M,M,M,M,M,M,M,M,M,M,M,M,M,55.40,KCXP 300935Z AUTO 00000KT 10SM CLR 13/M01 A3024 RMK AO2,M
RTS,2024-08-30 09:35,-119.8764,39.6682,1539.00,59.00,30.20,33.35,0.00,0.00,0.00,30.24,M,10.00,M,CLR,M,M,M,M,M,M,M,M,M,M,M,M,M,M,59.00,KRTS 300935Z AUTO 00000KT 10SM CLR 15/M01 A3024 RMK AO2,M
MEV,2024-08-30 09:35,-119.7500,38.9963,1441.42,46.40,32.00,57.00,110.00,6.00,0.00,30.22,M,10.00,M,FEW,SCT,SCT,M,4000.00,5000.00,6000.00,M,M,M,M,M,M,M,M,42.87,KMEV 300935Z AUTO 11006KT 10SM FEW040 SCT050 SCT060 08/M00 A3022 RMK AO2,M
BAM,2024-08-30 09:35,-116.8743,40.5990,1382.36,44.60,21.20,39.06,250.00,3.00,0.00,30.24,M,10.00,M,CLR,M,M,M,M,M,M,M,M,M,M,M,M,M,M,43.09,KBAM 300935Z AUTO 25003KT 10SM CLR 07/M06 A3024 RMK AO1,M
HTH,2024-08-30 09:35,-118.6315,38.5448,1282.89,68.00,28.40,22.59,240.00,8.00,0.00,30.17,M,10.00,M,CLR,M,M,M,M,M,M,M,M,M,M,M,M,M,M,68.00,KHTH 300935Z AUTO 24008KT 10SM CLR 20/M02 A3017 RMK A01,M
TMT,2024-08-30 09:35,-117.1971,39.4643,1749.34,39.00,26.60,60.76,0.00,0.00,0.00,30.31,M,10.00,M,CLR,M,M,M,M,M,M,M,M,M,M,M,M,M,M,39.00,KTMT 300935Z AUTO 00000KT 10SM CLR 04/M03 A3031 RMK AO2 T00391030,M
10U,2024-08-30 09:35,-116.1876,41.9532,1637.00,46.40,19.40,33.79,50.00,3.00,0.00,30.30,M,8.00,M,CLR,M,M,M,M,M,M,M,M,M,M,M,M,M,M,45.15,K10U 300935Z AUTO 05003KT 8SM CLR 08/M07 A3030 RMK AO2,M
05U,2024-08-30 09:50,-116.0051,39.6042,1811.23,46.40,21.20,36.48,0.00,0.00,0.00,30.32,M,10.00,M,CLR,M,M,M,M,M,M,M,M,M,M,M,M,M,M,46.40,K05U 300950Z AUTO 00000KT 10SM CLR 08/M06 A3032 RMK A01,M
P68,2024-08-30 09:53,-116.0056,39.6014,1993.00,47.00,24.00,40.12,180.00,4.00,0.00,30.30,1018.60,M,M,M,M,M,M,M,M,M,M,M,M,M,M,M,M,M,44.94,KP68 300953Z AUTO 18004KT 08/M04 A3030 RMK AO1 SLP186 T00831044,M
DRA,2024-08-30 09:53,-116.0278,36.6206,1009.00,72.00,30.00,21.04,80.00,3.00,0.00,30.05,1012.30,10.00,M,CLR,M,M,M,M,M,M,M,M,M,M,M,M,M,M,72.00,KDRA 300953Z AUTO 08003KT 10SM CLR 22/M01 A3005 RMK AO2 SLP123 T02221011,M
ELY,2024-08-30 09:53,-114.8453,39.2950,1909.00,42.00,15.00,33.05,180.00,4.00,0.00,30.34,1019.00,10.00,M,CLR,M,M,M,M,M,M,M,M,M,M,M,M,M,M,39.10,KELY 300953Z AUTO 18004KT 10SM CLR 06/M09 A3034 RMK AO2 SLP190 T00561094,M
VGT,2024-08-30 09:53,-115.1933,36.2111,667.00,85.00,44.00,23.80,240.00,3.00,0.00,29.96,1013.00,10.00,M,CLR,M,M,M,M,M,M,M,M,M,M,M,M,M,M,82.27,KVGT 300953Z AUTO 24003KT 10SM CLR 29/07 A2996 RMK AO2 SLP130 T02940067,M
LOL,2024-08-30 09:53,-118.5701,40.0684,1192.43,48.00,25.00,40.29,0.00,0.00,0.00,30.17,1018.60,10.00,M,CLR,M,M,M,M,M,M,M,M,M,M,M,M,M,M,48.00,KLOL 300953Z AUTO 00000KT 10SM CLR 09/M04 A3017 RMK AO2 SLP186 T00891039,M
BVU,2024-08-30 09:55,-114.8611,35.9475,671.00,80.60,39.20,22.81,360.00,5.00,0.00,29.95,M,10.00,M,CLR,M,M,M,M,M,M,M,M,M,M,M,M,M,M,79.10,KBVU 300955Z AUTO 36005KT 10SM CLR 27/04 A2995 RMK AO2,M
INS,2024-08-30 09:55,-115.6733,36.5872,955.00,73.60,27.50,18.00,0.00,0.00,0.00,30.04,1011.40,10.00,M,CLR,M,M,M,M,M,M,M,M,M,M,M,M,M,M,73.60,KINS 300955Z AUTO 00000KT 10SM CLR 23/M02 A3004 RMK AO2 SLP114 T02311025,M
RNO,2024-08-30 09:55,-119.7711,39.4839,1341.00,64.00,37.00,36.68,0.00,0.00,0.00,30.21,1017.20,10.00,M,CLR,M,M,M,M,M,M,M,M,M,M,M,M,M,M,64.00,KRNO 300955Z 00000KT 10SM CLR 18/03 A3021 RMK AO2 SLP172 T01780028 $,M
CXP,2024-08-30 09:55,-119.7326,39.1923,1431.00,55.40,32.00,40.84,0.00,0.00,0.00,30.24,M,10.00,M,CLR,M,M,M,M,M,M,M,M,M,M,M,M,M,M,55.40,KCXP 300955Z AUTO 00000KT 10SM CLR 13/00 A3024 RMK AO2,M
RTS,2024-08-30 09:55,-119.8764,39.6682,1539.00,51.80,24.80,34.69,0.00,0.00,0.00,30.25,M,10.00,M,CLR,M,M,M,M,M,M,M,M,M,M,M,M,M,M,51.80,KRTS 300955Z AUTO 00000KT 10SM CLR 11/M04 A3025 RMK AO2,M
MEV,2024-08-30 09:55,-119.7500,38.9963,1441.42,48.20,33.80,57.26,120.00,4.00,0.00,30.23,M,10.00,M,FEW,FEW,SCT,M,3800.00,4600.00,5500.00,M,M,M,M,M,M,M,M,46.34,KMEV 300955Z AUTO 12004KT 10SM FEW038 FEW046 SCT055 09/01 A3023 RMK AO2,M
BAM,2024-08-30 09:55,-116.8743,40.5990,1382.36,44.60,21.20,39.06,280.00,4.00,0.00,30.24,M,10.00,M,CLR,M,M,M,M,M,M,M,M,M,M,M,M,M,M,42.13,KBAM 300955Z AUTO 28004KT 10SM CLR 07/M06 A3024 RMK AO1,M
HTH,2024-08-30 09:55,-118.6315,38.5448,1282.89,68.00,28.40,22.59,240.00,8.00,0.00,30.18,M,10.00,M,CLR,M,M,M,M,M,M,M,M,M,M,M,M,M,M,68.00,KHTH 300955Z AUTO 24008KT 10SM CLR 20/M02 A3018 RMK A01,M
TMT,2024-08-30 09:55,-117.1971,39.4643,1749.34,39.40,28.00,63.37,230.00,3.00,0.00,30.31,M,10.00,M,CLR,M,M,M,M,M,M,M,M,M,M,M,M,M,M,37.15,KTMT 300955Z AUTO 23003KT 10SM CLR 04/M02 A3031 RMK AO2 T00411023,M
10U,2024-08-30 09:55,-116.1876,41.9532,1637.00,42.80,17.60,35.87,120.00,5.00,0.00,30.30,M,8.00,M,CLR,M,M,M,M,M,M,M,M,M,M,M,M,M,M,39.22,K10U 300955Z AUTO 12005KT 8SM CLR 06/M08 A3030 RMK AO2,M
LSV,2024-08-30 09:55,-115.0343,36.2362,570.00,83.00,35.00,17.88,0.00,0.00,0.00,29.91,1009.70,10.00,M,CLR,M,M,M,M,M,M,M,M,M,M,M,M,M,M,80.47,KLSV 300955Z AUTO 00000KT 10SM CLR 28/02 A2991 RMK AO2 SLP097 T02830017 $,M
EKO,2024-08-30 09:56,-115.7860,40.8242,1367.00,42.00,16.00,34.52,0.00,0.00,0.00,30.27,1021.30,10.00,M,CLR,M,M,M,M,M,M,M,M,M,M,M,M,M,M,42.00,KEKO 300956Z AUTO 00000KT 10SM CLR 06/M09 A3027 RMK AO2 SLP213 T00561089,M
HND,2024-08-30 09:56,-115.1344,35.9729,742.79,84.00,38.00,19.49,190.00,10.00,0.00,30.00,1014.20,10.00,M,CLR,M,M,M,M,M,M,M,M,M,M,M,M,M,M,81.26,KHND 300956Z AUTO 19010KT 10SM CLR 29/03 A3000 RMK AO2 SLP142 T02890033,M
TPH,2024-08-30 09:56,-117.0904,38.0505,1654.00,57.00,19.00,22.46,340.00,7.00,0.00,30.24,1016.50,10.00,M,CLR,M,M,M,M,M,M,M,M,M,M,M,M,M,M,57.00,KTPH 300956Z AUTO 34007KT 10SM CLR 14/M07 A3024 RMK AO2 SLP165 T01391072,M
LAS,2024-08-30 09:56,-115.1634,36.0719,663.00,85.00,39.00,19.62,290.00,3.00,0.00,29.97,1011.90,10.00,M,CLR,M,M,M,M,M,M,M,M,M,M,M,M,M,M,82.02,KLAS 300956Z 29003KT 10SM CLR 29/04 A2997 RMK AO2 SLP119 T02940039 $,M
NFL,2024-08-30 09:57,-118.7010,39.4166,1199.00,54.00,33.00,44.74,210.00,4.00,0.00,30.16,1017.90,10.00,M,CLR,M,M,M,M,M,M,M,M,M,M,M,M,M,M,54.00,KNFL 300957Z AUTO 21004KT 10SM CLR 12/01 A3016 RMK AO2 SLP179 T01220006,M
05U,2024-08-30 10:10,-116.0051,39.6042,1811.23,42.80,24.80,48.67,0.00,0.00,0.00,30.33,M,10.00,M,CLR,M,M,M,M,M,M,M,M,M,M,M,M,M,M,42.80,K05U 301010Z AUTO 00000KT 10SM CLR 06/M04 A3033 RMK A01,M
BVU,2024-08-30 10:15,-114.8611,35.9475,671.00,80.60,41.00,24.46,0.00,0.00,0.00,29.95,M,10.00,M,CLR,M,M,M,M,M,M,M,M,M,M,M,M,M,M,79.20,KBVU 301015Z AUTO 00000KT 10SM CLR 27/05 A2995 RMK AO2,M
CXP,2024-08-30 10:15,-119.7326,39.1923,1431.00,53.60,32.00,43.61,0.00,0.00,0.00,30.24,M,10.00,M,CLR,M,M,M,M,M,M,M,M,M,M,M,M,M,M,53.60,KCXP 301015Z AUTO 00000KT 10SM CLR 12/M00 A3024 RMK AO2,M
RTS,2024-08-30 10:15,-119.8764,39.6682,1539.00,51.80,23.00,32.17,0.00,0.00,0.00,30.25,M,10.00,M,CLR,M,M,M,M,M,M,M,M,M,M,M,M,M,M,51.80,KRTS 301015Z AUTO 00000KT 10SM CLR 11/M05 A3025 RMK AO2,M
MEV,2024-08-30 10:15,-119.7500,38.9963,1441.42,50.00,32.00,49.81,0.00,0.00,0.00,30.22,M,10.00,M,FEW,FEW,M,M,3700.00,4600.00,M,M,M,M,M,M,M,M,M,50.00,KMEV 301015Z AUTO 00000KT 10SM FEW037 FEW046 10/00 A3022 RMK AO2,M
BAM,2024-08-30 10:15,-116.8743,40.5990,1382.36,42.80,19.40,38.75,0.00,0.00,0.00,30.24,M,10.00,M,CLR,M,M,M,M,M,M,M,M,M,M,M,M,M,M,42.80,KBAM 301015Z AUTO 00000KT 10SM CLR 06/M07 A3024 RMK AO1,M
HTH,2024-08-30 10:15,-118.6315,38.5448,1282.89,66.20,30.20,25.88,0.00,0.00,0.00,30.18,M,10.00,M,CLR,M,M,M,M,M,M,M,M,M,M,M,M,M,M,66.20,KHTH 301015Z AUTO 00000KT 10SM CLR 19/M01 A3018 RMK A01,M
TMT,2024-08-30 10:15,-117.1971,39.4643,1749.34,36.00,25.70,65.87,0.00,0.00,0.00,30.31,M,10.00,M,CLR,M,M,M,M,M,M,M,M,M,M,M,M,M,M,36.00,KTMT 301015Z AUTO 00000KT 10SM CLR 02/M03 A3031 RMK AO2 T00221035,M
10U,2024-08-30 10:15,-116.1876,41.9532,1637.00,39.20,17.60,41.24,10.00,3.00,0.00,30.30,M,10.00,M,FEW,M,M,M,200.00,M,M,M,M,M,M,M,M,M,M,36.92,K10U 301015Z AUTO 01003KT 10SM FEW002 04/M08 A3030 RMK AO2,M
05U,2024-08-30 10:30,-116.0051,39.6042,1811.23,44.60,21.20,39.06,0.00,0.00,0.00,30.32,M,10.00,M,CLR,M,M,M,M,M,M,M,M,M,M,M,M,M,M,44.60,K05U 301030Z AUTO 00000KT 10SM CLR 07/M06 A3032 RMK A01,M
BVU,2024-08-30 10:35,-114.8611,35.9475,671.00,78.80,42.80,27.81,0.00,0.00,0.00,29.96,M,10.00,M,CLR,M,M,M,M,M,M,M,M,M,M,M,M,M,M,78.80,KBVU 301035Z AUTO 00000KT 10SM CLR 26/06 A2996 RMK AO2,M
CXP,2024-08-30 10:35,-119.7326,39.1923,1431.00,55.40,30.20,37.97,0.00,0.00,0.00,30.24,M,10.00,M,CLR,M,M,M,M,M,M,M,M,M,M,M,M,M,M,55.40,KCXP 301035Z AUTO 00000KT 10SM CLR 13/M01 A3024 RMK AO2,M
RTS,2024-08-30 10:35,-119.8764,39.6682,1539.00,51.80,24.80,34.69,0.00,0.00,0.00,30.25,M,10.00,M,CLR,M,M,M,M,M,M,M,M,M,M,M,M,M,M,51.80,KRTS 301035Z AUTO 00000KT 10SM CLR 11/M04 A3025 RMK AO2,M
MEV,2024-08-30 10:35,-119.7500,38.9963,1441.42,48.20,30.20,49.53,0.00,0.00,0.00,30.22,M,10.00,M,FEW,SCT,M,M,4200.00,5000.00,M,M,M,M,M,M,M,M,M,48.20,KMEV 301035Z AUTO 00000KT 10SM FEW042 SCT050 09/M01 A3022 RMK AO2,M
BAM,2024-08-30 10:35,-116.8743,40.5990,1382.36,42.80,19.40,38.75,250.00,3.00,0.00,30.25,M,10.00,M,CLR,M,M,M,M,M,M,M,M,M,M,M,M,M,M,41.03,KBAM 301035Z AUTO 25003KT 10SM CLR 06/M07 A3025 RMK AO1,M
HTH,2024-08-30 10:35,-118.6315,38.5448,1282.89,62.60,28.40,27.27,0.00,0.00,0.00,30.18,M,10.00,M,CLR,M,M,M,M,M,M,M,M,M,M,M,M,M,M,62.60,KHTH 301035Z AUTO 00000KT 10SM CLR 17/M02 A3018 RMK A01,M
TMT,2024-08-30 10:35,-117.1971,39.4643,1749.34,36.70,26.00,64.87,0.00,0.00,0.00,30.31,M,10.00,M,CLR,M,M,M,M,M,M,M,M,M,M,M,M,M,M,36.70,KTMT 301035Z AUTO 00000KT 10SM CLR 03/M03 A3031 RMK AO2 T00261034,M
10U,2024-08-30 10:35,-116.1876,41.9532,1637.00,35.60,17.60,47.51,0.00,0.00,0.00,30.30,M,9.00,M,BKN,M,M,M,200.00,M,M,M,M,M,M,M,M,M,M,35.60,K10U 301035Z AUTO 00000KT 9SM BKN002 02/M08 A3030 RMK AO2,M
05U,2024-08-30 10:50,-116.0051,39.6042,1811.23,44.60,21.20,39.06,0.00,0.00,0.00,30.33,M,10.00,M,CLR,M,M,M,M,M,M,M,M,M,M,M,M,M,M,44.60,K05U 301050Z AUTO 00000KT 10SM CLR 07/M06 A3033 RMK A01,M
P68,2024-08-30 10:53,-116.0056,39.6014,1993.00,45.00,22.00,39.79,170.00,6.00,0.00,30.30,1018.90,M,M,M,M,M,M,M,M,M,M,M,M,M,M,M,M,M,41.19,KP68 301053Z AUTO 17006KT 07/M06 A3030 RMK AO1 SLP189 T00721056,M
DRA,2024-08-30 10:53,-116.0278,36.6206,1009.00,72.00,30.00,21.04,0.00,0.00,0.00,30.06,1012.70,10.00,M,CLR,M,M,M,M,M,M,M,M,M,M,M,M,M,M,72.00,KDRA 301053Z AUTO 00000KT 10SM CLR 22/M01 A3006 RMK AO2 SLP127 T02221011,M
ELY,2024-08-30 10:53,-114.8453,39.2950,1909.00,41.00,16.00,35.88,180.00,8.00,0.00,30.35,1019.00,10.00,M,CLR,M,M,M,M,M,M,M,M,M,M,M,M,M,M,35.20,KELY 301053Z AUTO 18008KT 10SM CLR 05/M09 A3035 RMK AO2 SLP190 T00501089,M
VGT,2024-08-30 10:53,-115.1933,36.2111,667.00,82.00,40.00,22.48,320.00,6.00,0.00,29.97,1013.30,10.00,M,CLR,M,M,M,M,M,M,M,M,M,M,M,M,M,M,79.99,KVGT 301053Z AUTO 32006KT 10SM CLR 28/04 A2997 RMK AO2 SLP133 T02780044,M
LOL,2024-08-30 10:53,-118.5701,40.0684,1192.43,52.00,20.00,28.13,0.00,0.00,0.00,30.18,1018.60,10.00,M,CLR,M,M,M,M,M,M,M,M,M,M,M,M,M,M,52.00,KLOL 301053Z AUTO 00000KT 10SM CLR 11/M07 A3018 RMK AO2 SLP186 T01111067,M
BVU,2024-08-30 10:55,-114.8611,35.9475,671.00,78.80,44.60,29.79,0.00,0.00,0.00,29.96,M,10.00,M,CLR,M,M,M,M,M,M,M,M,M,M,M,M,M,M,78.80,KBVU 301055Z AUTO 00000KT 10SM CLR 26/07 A2996 RMK AO2,M
RNO,2024-08-30 10:55,-119.7711,39.4839,1341.00,60.00,39.00,45.69,0.00,0.00,0.00,30.22,1017.50,10.00,M,CLR,M,M,M,M,M,M,M,M,M,M,M,M,M,M,60.00,KRNO 301055Z 00000KT 10SM CLR 16/04 A3022 RMK AO2 SLP175 T01560039 $,M
CXP,2024-08-30 10:55,-119.7326,39.1923,1431.00,51.80,33.80,50.08,0.00,0.00,0.00,30.24,M,10.00,M,CLR,M,M,M,M,M,M,M,M,M,M,M,M,M,M,51.80,KCXP 301055Z AUTO 00000KT 10SM CLR 11/01 A3024 RMK AO2,M
INS,2024-08-30 10:55,-115.6733,36.5872,955.00,69.60,26.80,20.02,0.00,0.00,0.00,30.05,1011.90,10.00,M,CLR,M,M,M,M,M,M,M,M,M,M,M,M,M,M,69.60,KINS 301055Z AUTO 00000KT 10SM CLR 21/M03 A3005 RMK AO2 SLP119 T02091029,M
RTS,2024-08-30 10:55,-119.8764,39.6682,1539.00,53.60,26.60,34.98,330.00,3.00,0.00,30.25,M,10.00,M,CLR,M,M,M,M,M,M,M,M,M,M,M,M,M,M,53.60,KRTS 301055Z AUTO 33003KT 10SM CLR 12/M03 A3025 RMK AO2,M
MEV,2024-08-30 10:55,-119.7500,38.9963,1441.42,44.60,33.80,65.61,0.00,0.00,0.00,30.23,M,10.00,M,FEW,FEW,FEW,M,4100.00,4600.00,5500.00,M,M,M,M,M,M,M,M,44.60,KMEV 301055Z AUTO 00000KT 10SM FEW041 FEW046 FEW055 07/01 A3023 RMK AO2,M
BAM,2024-08-30 10:55,-116.8743,40.5990,1382.36,39.20,19.40,44.55,0.00,0.00,0.00,30.25,M,10.00,M,CLR,M,M,M,M,M,M,M,M,M,M,M,M,M,M,39.20,KBAM 301055Z AUTO 00000KT 10SM CLR 04/M07 A3025 RMK AO1,M
HTH,2024-08-30 10:55,-118.6315,38.5448,1282.89,64.40,30.20,27.55,210.00,4.00,0.00,30.18,M,10.00,M,CLR,M,M,M,M,M,M,M,M,M,M,M,M,M,M,64.40,KHTH 301055Z AUTO 21004KT 10SM CLR 18/M01 A3018 RMK A01,M
TMT,2024-08-30 10:55,-117.1971,39.4643,1749.34,39.40,26.80,60.32,230.00,3.00,0.00,30.31,M,10.00,M,CLR,M,M,M,M,M,M,M,M,M,M,M,M,M,M,37.15,KTMT 301055Z AUTO 23003KT 10SM CLR 04/M03 A3031 RMK AO2 T00411029,M
10U,2024-08-30 10:55,-116.1876,41.9532,1637.00,35.60,19.40,51.33,30.00,3.00,0.00,30.30,M,9.00,M,OVC,M,M,M,200.00,M,M,M,M,M,M,M,M,M,M,32.80,K10U 301055Z AUTO 03003KT 9SM OVC002 02/M07 A3030 RMK AO2,M
LSV,2024-08-30 10:55,-115.0343,36.2362,570.00,80.60,34.50,18.95,40.00,3.00,0.00,29.92,1010.10,10.00,M,CLR,M,M,M,M,M,M,M,M,M,M,M,M,M,M,78.90,KLSV 301055Z AUTO 04003KT 10SM CLR 27/01 A2992 RMK AO2 SLP101 T02700014 $,M
EKO,2024-08-30 10:56,-115.7860,40.8242,1367.00,41.00,19.00,40.83,0.00,0.00,0.00,30.27,1021.20,10.00,M,CLR,M,M,M,M,M,M,M,M,M,M,M,M,M,M,41.00,KEKO 301056Z AUTO 00000KT 10SM CLR 05/M07 A3027 RMK AO2 SLP212 T00501072,M
HND,2024-08-30 10:56,-115.1344,35.9729,742.79,81.00,38.00,21.48,210.00,5.00,0.00,30.01,1014.50,10.00,M,CLR,M,M,M,M,M,M,M,M,M,M,M,M,M,M,79.28,KHND 301056Z AUTO 21005KT 10SM CLR 27/03 A3001 RMK AO2 SLP145 T02720033,M
TPH,2024-08-30 10:56,-117.0904,38.0505,1654.00,61.00,21.00,21.19,350.00,10.00,0.00,30.24,1016.10,10.00,M,CLR,M,M,M,M,M,M,M,M,M,M,M,M,M,M,61.00,KTPH 301056Z AUTO 35010KT 10SM CLR 16/M06 A3024 RMK AO2 SLP161 T01611061,M
LAS,2024-08-30 10:56,-115.1634,36.0719,663.00,83.00,41.00,22.62,270.00,4.00,0.00,29.98,1012.10,10.00,M,CLR,M,M,M,M,M,M,M,M,M,M,M,M,M,M,80.69,KLAS 301056Z 27004KT 10SM CLR 28/05 A2998 RMK AO2 SLP121 T02830050 $,M
NFL,2024-08-30 10:57,-118.7010,39.4166,1199.00,53.00,35.00,50.27,180.00,3.00,0.00,30.17,1018.10,10.00,M,CLR,M,M,M,M,M,M,M,M,M,M,M,M,M,M,53.00,KNFL 301057Z AUTO 18003KT 10SM CLR 12/02 A3017 RMK AO2 SLP181 T01170017,M
05U,2024-08-30 11:10,-116.0051,39.6042,1811.23,42.80,17.60,35.87,0.00,0.00,0.00,30.33,M,10.00,M,CLR,M,M,M,M,M,M,M,M,M,M,M,M,M,M,42.80,K05U 301110Z AUTO 00000KT 10SM CLR 06/M08 A3033 RMK A01,M
BVU,2024-08-30 11:15,-114.8611,35.9475,671.00,77.00,42.80,29.51,0.00,0.00,0.00,29.96,M,10.00,M,CLR,M,M,M,M,M,M,M,M,M,M,M,M,M,M,77.00,KBVU 301115Z AUTO 00000KT 10SM CLR 25/06 A2996 RMK AO2,M
CXP,2024-08-30 11:15,-119.7326,39.1923,1431.00,53.60,33.80,46.88,0.00,0.00,0.00,30.24,M,10.00,M,CLR,M,M,M,M,M,M,M,M,M,M,M,M,M,M,53.60,KCXP 301115Z AUTO 00000KT 10SM CLR 12/01 A3024 RMK AO2,M
RTS,2024-08-30 11:15,-119.8764,39.6682,1539.00,55.40,24.80,30.40,0.00,0.00,0.00,30.26,M,10.00,M,CLR,M,M,M,M,M,M,M,M,M,M,M,M,M,M,55.40,KRTS 301115Z AUTO 00000KT 10SM CLR 13/M04 A3026 RMK AO2,M
MEV,2024-08-30 11:15,-119.7500,38.9963,1441.42,44.60,33.80,65.61,90.00,4.00,0.00,30.23,M,10.00,M,FEW,FEW,FEW,M,3100.00,3900.00,4400.00,M,M,M,M,M,M,M,M,42.13,KMEV 301115Z AUTO 09004KT 10SM FEW031 FEW039 FEW044 07/01 A3023 RMK AO2,M
BAM,2024-08-30 11:15,-116.8743,40.5990,1382.36,35.60,17.60,47.51,0.00,0.00,0.00,30.26,M,10.00,M,CLR,M,M,M,M,M,M,M,M,M,M,M,M,M,M,35.60,KBAM 301115Z AUTO 00000KT 10SM CLR 02/M08 A3026 RMK AO1,M
HTH,2024-08-30 11:15,-118.6315,38.5448,1282.89,64.40,30.20,27.55,240.00,7.00,0.00,30.18,M,10.00,M,CLR,M,M,M,M,M,M,M,M,M,M,M,M,M,M,64.40,KHTH 301115Z AUTO 24007KT 10SM CLR 18/M01 A3018 RMK A01,M
TMT,2024-08-30 11:15,-117.1971,39.4643,1749.34,36.30,25.70,65.09,0.00,0.00,0.00,30.31,M,10.00,M,CLR,M,M,M,M,M,M,M,M,M,M,M,M,M,M,36.30,KTMT 301115Z AUTO 00000KT 10SM CLR 02/M03 A3031 RMK AO2 T00241035,M
10U,2024-08-30 11:15,-116.1876,41.9532,1637.00,33.80,17.60,51.04,0.00,0.00,0.00,30.30,M,9.00,M,OVC,M,M,M,200.00,M,M,M,M,M,M,M,M,M,M,33.80,K10U 301115Z AUTO 00000KT 9SM OVC002 01/M08 A3030 RMK AO2,M
05U,2024-08-30 11:30,-116.0051,39.6042,1811.23,41.00,19.40,41.54,0.00,0.00,0.00,30.33,M,10.00,M,CLR,M,M,M,M,M,M,M,M,M,M,M,M,M,M,41.00,K05U 301130Z AUTO 00000KT 10SM CLR 05/M07 A3033 RMK A01,M
BVU,2024-08-30 11:35,-114.8611,35.9475,671.00,78.80,42.80,27.81,80.00,3.00,0.00,29.97,M,10.00,M,CLR,M,M,M,M,M,M,M,M,M,M,M,M,M,M,78.80,KBVU 301135Z AUTO 08003KT 10SM CLR 26/06 A2997 RMK AO2,M
CXP,2024-08-30 11:35,-119.7326,39.1923,1431.00,53.60,32.00,43.61,0.00,0.00,0.00,30.24,M,10.00,M,CLR,M,M,M,M,M,M,M,M,M,M,M,M,M,M,53.60,KCXP 301135Z AUTO 00000KT 10SM CLR 12/M00 A3024 RMK AO2,M
RTS,2024-08-30 11:35,-119.8764,39.6682,1539.00,48.20,23.00,36.78,340.00,5.00,0.00,30.26,M,10.00,M,CLR,M,M,M,M,M,M,M,M,M,M,M,M,M,M,45.63,KRTS 301135Z AUTO 34005KT 10SM CLR 09/M05 A3026 RMK AO2,M
MEV,2024-08-30 11:35,-119.7500,38.9963,1441.42,44.60,33.80,65.61,0.00,0.00,0.00,30.23,M,10.00,M,FEW,SCT,SCT,M,3200.00,3900.00,6500.00,M,M,M,M,M,M,M,M,44.60,KMEV 301135Z AUTO 00000KT 10SM FEW032 SCT039 SCT065 07/01 A3023 RMK AO2,M
BAM,2024-08-30 11:35,-116.8743,40.5990,1382.36,35.60,17.60,47.51,150.00,4.00,0.00,30.25,M,10.00,M,CLR,M,M,M,M,M,M,M,M,M,M,M,M,M,M,31.62,KBAM 301135Z AUTO 15004KT 10SM CLR 02/M08 A3025 RMK AO1,M
HTH,2024-08-30 11:35,-118.6315,38.5448,1282.89,64.40,28.40,25.60,230.00,6.00,0.00,30.19,M,10.00,M,CLR,M,M,M,M,M,M,M,M,M,M,M,M,M,M,64.40,KHTH 301135Z AUTO 23006KT 10SM CLR 18/M02 A3019 RMK A01,M
TMT,2024-08-30 11:35,-117.1971,39.4643,1749.34,34.50,24.60,66.79,200.00,3.00,0.00,30.32,M,10.00,M,CLR,M,M,M,M,M,M,M,M,M,M,M,M,M,M,31.55,KTMT 301135Z AUTO 20003KT 10SM CLR 01/M04 A3032 RMK AO2 T00141041,M
10U,2024-08-30 11:35,-116.1876,41.9532,1637.00,32.00,15.80,50.75,0.00,0.00,0.00,30.30,M,9.00,M,OVC,M,M,M,200.00,M,M,M,M,M,M,M,M,M,M,32.00,K10U 301135Z AUTO 00000KT 9SM OVC002 00/M09 A3030 RMK AO2,M
05U,2024-08-30 11:50,-116.0051,39.6042,1811.23,39.20,19.40,44.55,0.00,0.00,0.00,30.33,M,10.00,M,CLR,M,M,M,M,M,M,M,M,M,M,M,M,M,M,39.20,K05U 301150Z AUTO 00000KT 10SM CLR 04/M07 A3033 RMK A01,M
P68,2024-08-30 11:53,-116.0056,39.6014,1993.00,40.00,20.00,44.30,170.00,3.00,0.00,30.31,1019.90,M,M,M,M,M,M,M,M,M,M,M,M,M,M,M,M,M,37.83,KP68 301153Z AUTO 17003KT 04/M07 A3031 RMK AO1 SLP199 T00441067 10122 20039 53005,M
DRA,2024-08-30 11:53,-116.0278,36.6206,1009.00,73.00,29.00,19.53,30.00,4.00,0.00,30.07,1013.00,10.00,M,CLR,M,M,M,M,M,M,M,M,M,M,M,M,M,M,73.00,KDRA 301153Z AUTO 03004KT 10SM CLR 23/M02 A3007 RMK AO2 SLP130 T02281017 10256 20211 53008,M
ELY,2024-08-30 11:53,-114.8453,39.2950,1909.00,41.00,17.00,37.47,180.00,9.00,0.00,30.36,1019.20,10.00,M,CLR,M,M,M,M,M,M,M,M,M,M,M,M,M,M,34.70,KELY 301153Z AUTO 18009KT 10SM CLR 05/M08 A3036 RMK AO2 SLP192 T00501083 10144 20033 51005,M
VGT,2024-08-30 11:53,-115.1933,36.2111,667.00,82.00,41.00,23.37,290.00,5.00,0.00,29.98,1013.70,10.00,M,CLR,M,M,M,M,M,M,M,M,M,M,M,M,M,M,80.04,KVGT 301153Z AUTO 29005KT 10SM CLR 28/05 A2998 RMK AO2 SLP137 T02780050 10333 20272 53007,M
LOL,2024-08-30 11:53,-118.5701,40.0684,1192.43,46.00,25.00,43.44,160.00,4.00,0.00,30.19,1019.10,10.00,M,CLR,M,M,M,M,M,M,M,M,M,M,M,M,M,M,43.77,KLOL 301153Z AUTO 16004KT 10SM CLR 08/M04 A3019 RMK AO2 SLP191 T00781039 10194 20061 51009,M
BVU,2024-08-30 11:55,-114.8611,35.9475,671.00,77.00,46.40,33.85,40.00,3.00,0.00,29.97,M,10.00,M,CLR,M,M,M,M,M,M,M,M,M,M,M,M,M,M,77.00,KBVU 301155Z AUTO 04003KT 10SM CLR 25/08 A2997 RMK AO2,M
INS,2024-08-30 11:55,-115.6733,36.5872,955.00,70.00,27.00,19.92,0.00,0.00,0.00,30.07,1012.60,10.00,M,CLR,M,M,M,M,M,M,M,M,M,M,M,M,M,M,70.00,KINS 301155Z AUTO 00000KT 10SM CLR 21/M03 A3007 RMK AO2 SLP126 T02111027 10294 20207 53008,M
RNO,2024-08-30 11:55,-119.7711,39.4839,1341.00,58.00,40.00,51.03,0.00,0.00,0.00,30.22,1017.80,10.00,M,CLR,M,M,M,M,M,M,M,M,M,M,M,M,M,M,58.00,KRNO 301155Z 00000KT 10SM CLR 14/04 A3022 RMK AO2 SLP178 T01440044 10228 20144 51007 $,M
BAM,2024-08-30 11:55,-116.8743,40.5990,1382.36,37.40,17.60,44.25,170.00,4.00,0.00,30.25,M,10.00,M,CLR,M,M,M,M,M,M,M,M,M,M,M,M,M,M,33.73,KBAM 301155Z AUTO 17004KT 10SM CLR 03/M08 A3025 RMK AO1,M
CXP,2024-08-30 11:55,-119.7326,39.1923,1431.00,51.80,32.00,46.59,0.00,0.00,0.00,30.24,M,10.00,M,CLR,M,M,M,M,M,M,M,M,M,M,M,M,M,M,51.80,KCXP 301155Z AUTO 00000KT 10SM CLR 11/00 A3024 RMK AO2,M
RTS,2024-08-30 11:55,-119.8764,39.6682,1539.00,48.20,24.80,39.66,330.00,5.00,0.00,30.26,M,10.00,M,CLR,M,M,M,M,M,M,M,M,M,M,M,M,M,M,45.63,KRTS 301155Z AUTO 33005KT 10SM CLR 09/M04 A3026 RMK AO2,M
MEV,2024-08-30 11:55,-119.7500,38.9963,1441.42,44.60,30.20,56.74,110.00,4.00,0.00,30.24,M,10.00,M,FEW,FEW,FEW,M,3000.00,3900.00,5500.00,M,M,M,M,M,M,M,M,42.13,KMEV 301155Z AUTO 11004KT 10SM FEW030 FEW039 FEW055 07/M01 A3024 RMK AO2,M
HTH,2024-08-30 11:55,-118.6315,38.5448,1282.89,62.60,28.40,27.27,240.00,4.00,0.00,30.19,M,10.00,M,CLR,M,M,M,M,M,M,M,M,M,M,M,M,M,M,62.60,KHTH 301155Z AUTO 24004KT 10SM CLR 17/M02 A3019 RMK A01,M
TMT,2024-08-30 11:55,-117.1971,39.4643,1749.34,34.70,24.30,65.43,0.00,0.00,0.00,30.32,M,10.00,M,CLR,M,M,M,M,M,M,M,M,M,M,M,M,M,M,34.70,KTMT 301155Z AUTO 00000KT 10SM CLR 02/M04 A3032 RMK AO2 T00151043 10099 20014,M
10U,2024-08-30 11:55,-116.1876,41.9532,1637.00,33.80,15.80,47.22,0.00,0.00,0.00,30.30,M,7.00,M,BKN,M,M,M,200.00,M,M,M,M,M,M,M,M,M,M,33.80,K10U 301155Z AUTO 00000KT 7SM BKN002 01/M09 A3030 RMK AO2,M
LSV,2024-08-30 11:55,-115.0343,36.2362,570.00,77.70,34.70,21.01,40.00,3.00,0.00,29.93,1010.50,10.00,M,CLR,M,M,M,M,M,M,M,M,M,M,M,M,M,M,77.70,KLSV 301155Z AUTO 04003KT 10SM CLR 25/02 A2993 RMK AO2 SLP105 T02540015 10333 20252 52008 $,M
EKO,2024-08-30 11:56,-115.7860,40.8242,1367.00,40.00,17.00,38.95,0.00,0.00,0.00,30.28,1021.70,10.00,M,CLR,M,M,M,M,M,M,M,M,M,M,M,M,M,M,40.00,KEKO 301156Z AUTO 00000KT 10SM CLR 04/M08 A3028 RMK AO2 SLP217 T00441083 10150 20044 53005,M
HND,2024-08-30 11:56,-115.1344,35.9729,742.79,80.00,38.00,22.19,200.00,8.00,0.00,30.02,1014.90,10.00,M,CLR,M,M,M,M,M,M,M,M,M,M,M,M,M,M,78.74,KHND 301156Z AUTO 20008KT 10SM CLR 27/03 A3002 RMK AO2 SLP149 T02670033 10311 20267 53006,M
TPH,2024-08-30 11:56,-117.0904,38.0505,1654.00,60.00,21.00,21.96,340.00,8.00,0.00,30.25,1016.30,10.00,M,CLR,M,M,M,M,M,M,M,M,M,M,M,M,M,M,60.00,KTPH 301156Z AUTO 34008KT 10SM CLR 16/M06 A3025 RMK AO2 SLP163 T01561061 10206 20139 53003,M
LAS,2024-08-30 11:56,-115.1634,36.0719,663.00,81.00,43.00,26.08,200.00,3.00,0.00,30.00,1012.80,10.00,M,CLR,M,M,M,M,M,M,M,M,M,M,M,M,M,M,79.54,KLAS 301156Z 20003KT 10SM CLR 27/06 A3000 RMK AO2 SLP128 T02720061 53009 $,M
NFL,2024-08-30 11:57,-118.7010,39.4166,1199.00,51.00,30.00,44.26,190.00,5.00,0.00,30.18,1018.30,10.00,M,CLR,M,M,M,M,M,M,M,M,M,M,M,M,M,M,51.00,KNFL 301157Z AUTO 19005KT 10SM CLR 11/M01 A3018 RMK AO2 SLP183 T01061011 10200 20100 51010,M
05U,2024-08-30 12:10,-116.0051,39.6042,1811.23,41.00,21.20,44.85,0.00,0.00,0.00,30.34,M,10.00,M,CLR,M,M,M,M,M,M,M,M,M,M,M,M,M,M,41.00,K05U 301210Z AUTO 00000KT 10SM CLR 05/M06 A3034 RMK A01,M
BVU,2024-08-30 12:15,-114.8611,35.9475,671.00,77.00,44.60,31.62,0.00,0.00,0.00,29.98,M,10.00,M,CLR,M,M,M,M,M,M,M,M,M,M,M,M,M,M,77.00,KBVU 301215Z AUTO 00000KT 10SM CLR 25/07 A2998 RMK AO2,M
CXP,2024-08-30 12:15,-119.7326,39.1923,1431.00,50.00,33.80,53.54,0.00,0.00,0.00,30.25,M,10.00,M,CLR,M,M,M,M,M,M,M,M,M,M,M,M,M,M,50.00,KCXP 301215Z AUTO 00000KT 10SM CLR 10/01 A3025 RMK AO2,M
RTS,2024-08-30 12:15,-119.8764,39.6682,1539.00,50.00,23.00,34.39,0.00,0.00,0.00,30.26,M,10.00,M,CLR,M,M,M,M,M,M,M,M,M,M,M,M,M,M,50.00,KRTS 301215Z AUTO 00000KT 10SM CLR 10/M05 A3026 RMK AO2,M
MEV,2024-08-30 12:15,-119.7500,38.9963,1441.42,44.60,32.00,61.03,50.00,4.00,0.00,30.24,M,10.00,M,CLR,M,M,M,M,M,M,M,M,M,M,M,M,M,M,42.13,KMEV 301215Z AUTO 05004KT 10SM CLR 07/00 A3024 RMK AO2,M
BAM,2024-08-30 12:15,-116.8743,40.5990,1382.36,37.40,17.60,44.25,180.00,5.00,0.00,30.26,M,10.00,M,CLR,M,M,M,M,M,M,M,M,M,M,M,M,M,M,32.81,KBAM 301215Z AUTO 18005KT 10SM CLR 03/M08 A3026 RMK AO1,M
HTH,2024-08-30 12:15,-118.6315,38.5448,1282.89,62.60,28.40,27.27,270.00,3.00,0.00,30.20,M,10.00,M,CLR,M,M,M,M,M,M,M,M,M,M,M,M,M,M,62.60,KHTH 301215Z AUTO 27003KT 10SM CLR 17/M02 A3020 RMK A01,M
TMT,2024-08-30 12:15,-117.1971,39.4643,1749.34,38.00,26.00,61.64,0.00,0.00,0.00,30.33,M,10.00,M,CLR,M,M,M,M,M,M,M,M,M,M,M,M,M,M,38.00,KTMT 301215Z AUTO 00000KT 10SM CLR 03/M03 A3033 RMK AO2 T00331034,M
10U,2024-08-30 12:15,-116.1876,41.9532,1637.00,30.20,15.80,54.59,180.00,4.00,0.00,30.31,M,8.00,M,FEW,M,M,M,300.00,M,M,M,M,M,M,M,M,M,M,25.32,K10U 301215Z AUTO 18004KT 8SM FEW003 M01/M09 A3031 RMK AO2,M
05U,2024-08-30 12:30,-116.0051,39.6042,1811.23,41.00,19.40,41.54,0.00,0.00,0.00,30.34,M,10.00,M,CLR,M,M,M,M,M,M,M,M,M,M,M,M,M,M,41.00,K05U 301230Z AUTO 00000KT 10SM CLR 05/M07 A3034 RMK A01,M
BVU,2024-08-30 12:35,-114.8611,35.9475,671.00,75.20,44.60,33.57,10.00,3.00,0.00,29.99,M,10.00,M,CLR,M,M,M,M,M,M,M,M,M,M,M,M,M,M,75.20,KBVU 301235Z AUTO 01003KT 10SM CLR 24/07 A2999 RMK AO2,M
CXP,2024-08-30 12:35,-119.7326,39.1923,1431.00,51.80,32.00,46.59,0.00,0.00,0.00,30.26,M,10.00,M,CLR,M,M,M,M,M,M,M,M,M,M,M,M,M,M,51.80,KCXP 301235Z AUTO 00000KT 10SM CLR 11/00 A3026 RMK AO2,M
RTS,2024-08-30 12:35,-119.8764,39.6682,1539.00,51.80,24.80,34.69,330.00,3.00,0.00,30.27,M,10.00,M,CLR,M,M,M,M,M,M,M,M,M,M,M,M,M,M,51.80,KRTS 301235Z AUTO 33003KT 10SM CLR 11/M04 A3027 RMK AO2,M
MEV,2024-08-30 12:35,-119.7500,38.9963,1441.42,42.80,32.00,65.38,130.00,3.00,0.00,30.24,M,10.00,M,FEW,FEW,M,M,4700.00,6000.00,M,M,M,M,M,M,M,M,M,41.03,KMEV 301235Z AUTO 13003KT 10SM FEW047 FEW060 06/M00 A3024 RMK AO2,M
BAM,2024-08-30 12:35,-116.8743,40.5990,1382.36,37.40,19.40,47.80,0.00,0.00,0.00,30.26,M,10.00,M,CLR,M,M,M,M,M,M,M,M,M,M,M,M,M,M,37.40,KBAM 301235Z AUTO 00000KT 10SM CLR 03/M07 A3026 RMK AO1,M
HTH,2024-08-30 12:35,-118.6315,38.5448,1282.89,62.60,28.40,27.27,220.00,4.00,0.00,30.21,M,10.00,M,CLR,M,M,M,M,M,M,M,M,M,M,M,M,M,M,62.60,KHTH 301235Z AUTO 22004KT 10SM CLR 17/M02 A3021 RMK A01,M
TMT,2024-08-30 12:35,-117.1971,39.4643,1749.34,35.60,24.30,63.13,0.00,0.00,0.00,30.33,M,10.00,M,CLR,M,M,M,M,M,M,M,M,M,M,M,M,M,M,35.60,KTMT 301235Z AUTO 00000KT 10SM CLR 02/M04 A3033 RMK AO2 T00201043,M
10U,2024-08-30 12:35,-116.1876,41.9532,1637.00,33.80,15.80,47.22,140.00,8.00,0.00,30.31,M,10.00,M,CLR,M,M,M,M,M,M,M,M,M,M,M,M,M,M,26.33,K10U 301235Z AUTO 14008KT 10SM CLR 01/M09 A3031 RMK AO2,M
05U,2024-08-30 12:50,-116.0051,39.6042,1811.23,39.20,19.40,44.55,0.00,0.00,0.00,30.35,M,10.00,M,CLR,M,M,M,M,M,M,M,M,M,M,M,M,M,M,39.20,K05U 301250Z AUTO 00000KT 10SM CLR 04/M07 A3035 RMK A01,M
P68,2024-08-30 12:53,-116.0056,39.6014,1993.00,40.00,20.00,44.30,200.00,8.00,0.00,30.33,1020.40,M,M,M,M,M,M,M,M,M,M,M,M,M,M,M,M,M,33.97,KP68 301253Z AUTO 20008KT 04/M07 A3033 RMK AO1 SLP204 T00441067,M
DRA,2024-08-30 12:53,-116.0278,36.6206,1009.00,69.00,30.00,23.30,80.00,6.00,0.00,30.09,1013.90,10.00,M,CLR,M,M,M,M,M,M,M,M,M,M,M,M,M,M,69.00,KDRA 301253Z AUTO 08006KT 10SM CLR 21/M01 A3009 RMK AO2 SLP139 T02061011,M
ELY,2024-08-30 12:53,-114.8453,39.2950,1909.00,40.00,16.00,37.30,180.00,9.00,0.00,30.37,1020.10,10.00,M,CLR,M,M,M,M,M,M,M,M,M,M,M,M,M,M,33.46,KELY 301253Z AUTO 18009KT 10SM CLR 04/M09 A3037 RMK AO2 SLP201 T00441089,M
VGT,2024-08-30 12:53,-115.1933,36.2111,667.00,83.00,40.00,21.76,280.00,6.00,0.00,30.00,1014.60,10.00,M,CLR,M,M,M,M,M,M,M,M,M,M,M,M,M,M,80.64,KVGT 301253Z AUTO 28006KT 10SM CLR 28/04 A3000 RMK AO2 SLP146 T02830044,M
LOL,2024-08-30 12:53,-118.5701,40.0684,1192.43,45.00,24.00,43.28,310.00,4.00,0.00,30.20,1019.70,10.00,M,CLR,M,M,M,M,M,M,M,M,M,M,M,M,M,M,42.60,KLOL 301253Z AUTO 31004KT 10SM CLR 07/M04 A3020 RMK AO2 SLP197 T00721044,M
INS,2024-08-30 12:55,-115.6733,36.5872,955.00,66.60,26.60,22.02,0.00,0.00,0.00,30.09,1013.60,10.00,M,CLR,M,M,M,M,M,M,M,M,M,M,M,M,M,M,66.60,KINS 301255Z AUTO 00000KT 10SM CLR 19/M03 A3009 RMK AO2 SLP136 T01921030,M
BVU,2024-08-30 12:55,-114.8611,35.9475,671.00,75.20,46.40,35.94,0.00,0.00,0.00,30.00,M,10.00,M,CLR,M,M,M,M,M,M,M,M,M,M,M,M,M,M,75.20,KBVU 301255Z AUTO 00000KT 10SM CLR 24/08 A3000 RMK AO2,M
RNO,2024-08-30 12:55,-119.7711,39.4839,1341.00,59.00,37.00,43.78,0.00,0.00,0.00,30.23,1018.30,10.00,M,CLR,M,M,M,M,M,M,M,M,M,M,M,M,M,M,59.00,KRNO 301255Z 00000KT 10SM CLR 15/03 A3023 RMK AO2 SLP183 T01500028 $,M
LSV,2024-08-30 12:55,-115.0343,36.2362,570.00,81.50,33.80,17.89,0.00,0.00,0.00,29.96,1011.40,10.00,M,CLR,M,M,M,M,M,M,M,M,M,M,M,M,M,M,79.44,KLSV 301255Z AUTO 00000KT 10SM CLR 28/01 A2996 RMK AO2 SLP114 T02750010 $,M
BAM,2024-08-30 12:55,-116.8743,40.5990,1382.36,37.40,19.40,47.80,0.00,0.00,0.00,30.27,M,10.00,M,CLR,M,M,M,M,M,M,M,M,M,M,M,M,M,M,37.40,KBAM 301255Z AUTO 00000KT 10SM CLR 03/M07 A3027 RMK AO1,M
CXP,2024-08-30 12:55,-119.7326,39.1923,1431.00,57.20,30.20,35.57,230.00,3.00,0.00,30.27,M,10.00,M,CLR,M,M,M,M,M,M,M,M,M,M,M,M,M,M,57.20,KCXP 301255Z AUTO 23003KT 10SM CLR 14/M01 A3027 RMK AO2,M
RTS,2024-08-30 12:55,-119.8764,39.6682,1539.00,51.80,24.80,34.69,0.00,0.00,0.00,30.27,M,10.00,M,CLR,M,M,M,M,M,M,M,M,M,M,M,M,M,M,51.80,KRTS 301255Z AUTO 00000KT 10SM CLR 11/M04 A3027 RMK AO2,M
MEV,2024-08-30 12:55,-119.7500,38.9963,1441.42,44.60,30.20,56.74,0.00,0.00,0.00,30.26,M,10.00,M,CLR,M,M,M,M,M,M,M,M,M,M,M,M,M,M,44.60,KMEV 301255Z AUTO 00000KT 10SM CLR 07/M01 A3026 RMK AO2,M
HTH,2024-08-30 12:55,-118.6315,38.5448,1282.89,62.60,28.40,27.27,0.00,0.00,0.00,30.21,M,10.00,M,CLR,M,M,M,M,M,M,M,M,M,M,M,M,M,M,62.60,KHTH 301255Z AUTO 00000KT 10SM CLR 17/M02 A3021 RMK A01,M
TMT,2024-08-30 12:55,-117.1971,39.4643,1749.34,34.30,23.40,64.03,0.00,0.00,0.00,30.34,M,10.00,M,CLR,M,M,M,M,M,M,M,M,M,M,M,M,M,M,34.30,KTMT 301255Z AUTO 00000KT 10SM CLR 01/M05 A3034 RMK AO2 T00131048,M
10U,2024-08-30 12:55,-116.1876,41.9532,1637.00,35.60,15.80,43.95,120.00,5.00,0.00,30.31,M,10.00,M,CLR,M,M,M,M,M,M,M,M,M,M,M,M,M,M,30.67,K10U 301255Z AUTO 12005KT 10SM CLR 02/M09 A3031 RMK AO2,M
EKO,2024-08-30 12:56,-115.7860,40.8242,1367.00,41.00,21.00,44.47,60.00,3.00,0.00,30.31,1022.60,8.00,M,CLR,M,M,M,M,M,M,M,M,M,M,M,M,M,M,38.98,KEKO 301256Z AUTO 06003KT 8SM CLR 05/M06 A3031 RMK AO2 SLP226 T00501061,M
HND,2024-08-30 12:56,-115.1344,35.9729,742.79,80.00,39.00,23.08,190.00,8.00,0.00,30.05,1015.80,10.00,M,CLR,M,M,M,M,M,M,M,M,M,M,M,M,M,M,78.78,KHND 301256Z AUTO 19008KT 10SM CLR 27/04 A3005 RMK AO2 SLP158 T02670039,M
TPH,2024-08-30 12:56,-117.0904,38.0505,1654.00,57.00,21.00,24.45,350.00,7.00,0.00,30.27,1017.60,10.00,M,CLR,M,M,M,M,M,M,M,M,M,M,M,M,M,M,57.00,KTPH 301256Z AUTO 35007KT 10SM CLR 14/M06 A3027 RMK AO2 SLP176 T01391061,M
LAS,2024-08-30 12:56,-115.1634,36.0719,663.00,80.00,42.00,25.93,0.00,0.00,0.00,30.02,1013.60,10.00,M,FEW,M,M,M,16000.00,M,M,M,M,M,M,M,M,M,M,78.92,KLAS 301256Z 00000KT 10SM FEW160 27/06 A3002 RMK AO2 SLP136 T02670056 $,M
NFL,2024-08-30 12:57,-118.7010,39.4166,1199.00,52.00,35.00,52.15,210.00,3.00,0.00,30.19,1018.60,10.00,M,CLR,M,M,M,M,M,M,M,M,M,M,M,M,M,M,52.00,KNFL 301257Z AUTO 21003KT 10SM CLR 11/02 A3019 RMK AO2 SLP186 T01110017,M
05U,2024-08-30 13:10,-116.0051,39.6042,1811.23,41.00,17.60,38.45,0.00,0.00,0.00,30.36,M,10.00,M,CLR,M,M,M,M,M,M,M,M,M,M,M,M,M,M,41.00,K05U 301310Z AUTO 00000KT 10SM CLR 05/M08 A3036 RMK A01,M
BVU,2024-08-30 13:15,-114.8611,35.9475,671.00,75.20,46.40,35.94,0.00,0.00,0.00,30.01,M,10.00,M,CLR,M,M,M,M,M,M,M,M,M,M,M,M,M,M,75.20,KBVU 301315Z AUTO 00000KT 10SM CLR 24/08 A3001 RMK AO2,M
CXP,2024-08-30 13:15,-119.7326,39.1923,1431.00,53.60,30.20,40.54,0.00,0.00,0.00,30.27,M,10.00,M,CLR,M,M,M,M,M,M,M,M,M,M,M,M,M,M,53.60,KCXP 301315Z AUTO 00000KT 10SM CLR 12/M01 A3027 RMK AO2,M
RTS,2024-08-30 13:15,-119.8764,39.6682,1539.00,48.20,24.80,39.66,360.00,5.00,0.00,30.27,M,10.00,M,CLR,M,M,M,M,M,M,M,M,M,M,M,M,M,M,45.63,KRTS 301315Z AUTO 36005KT 10SM CLR 09/M04 A3027 RMK AO2,M
MEV,2024-08-30 13:15,-119.7500,38.9963,1441.42,42.80,32.00,65.38,0.00,0.00,0.00,30.26,M,10.00,M,CLR,M,M,M,M,M,M,M,M,M,M,M,M,M,M,42.80,KMEV 301315Z AUTO 00000KT 10SM CLR 06/00 A3026 RMK AO2,M
BAM,2024-08-30 13:15,-116.8743,40.5990,1382.36,37.40,17.60,44.25,0.00,0.00,0.00,30.28,M,10.00,M,CLR,M,M,M,M,M,M,M,M,M,M,M,M,M,M,37.40,KBAM 301315Z AUTO 00000KT 10SM CLR 03/M08 A3028 RMK AO1,M
HTH,2024-08-30 13:15,-118.6315,38.5448,1282.89,62.60,28.40,27.27,250.00,4.00,0.00,30.22,M,10.00,M,CLR,M,M,M,M,M,M,M,M,M,M,M,M,M,M,62.60,KHTH 301315Z AUTO 25004KT 10SM CLR 17/M02 A3022 RMK A01,M
TMT,2024-08-30 13:15,-117.1971,39.4643,1749.34,33.80,23.70,66.14,0.00,0.00,0.00,30.34,M,10.00,M,CLR,M,M,M,M,M,M,M,M,M,M,M,M,M,M,33.80,KTMT 301315Z AUTO 00000KT 10SM CLR 01/M05 A3034 RMK AO2 T00101046,M
10U,2024-08-30 13:15,-116.1876,41.9532,1637.00,33.80,15.80,47.22,0.00,0.00,0.00,30.32,M,10.00,M,CLR,M,M,M,M,M,M,M,M,M,M,M,M,M,M,33.80,K10U 301315Z AUTO 00000KT 10SM CLR 01/M09 A3032 RMK AO2,M
05U,2024-08-30 13:30,-116.0051,39.6042,1811.23,41.00,17.60,38.45,0.00,0.00,0.00,30.36,M,10.00,M,CLR,M,M,M,M,M,M,M,M,M,M,M,M,M,M,41.00,K05U 301330Z AUTO 00000KT 10SM CLR 05/M08 A3036 RMK A01,M
HTH,2024-08-30 13:30,-118.6315,38.5448,1282.89,60.80,28.40,29.06,0.00,0.00,0.00,30.22,M,10.00,M,CLR,M,M,M,M,M,M,M,M,M,M,M,M,M,M,60.80,KHTH 301330Z AUTO 00000KT 10SM CLR 16/M02 A3022 RMK A01,M
BVU,2024-08-30 13:35,-114.8611,35.9475,671.00,77.00,42.80,29.51,350.00,4.00,0.00,30.01,M,10.00,M,CLR,M,M,M,M,M,M,M,M,M,M,M,M,M,M,77.00,KBVU 301335Z AUTO 35004KT 10SM CLR 25/06 A3001 RMK AO2,M
CXP,2024-08-30 13:35,-119.7326,39.1923,1431.00,51.80,32.00,46.59,0.00,0.00,0.00,30.28,M,10.00,M,CLR,M,M,M,M,M,M,M,M,M,M,M,M,M,M,51.80,KCXP 301335Z AUTO 00000KT 10SM CLR 11/M00 A3028 RMK AO2,M
RTS,2024-08-30 13:35,-119.8764,39.6682,1539.00,50.00,24.80,37.08,350.00,5.00,0.00,30.28,M,10.00,M,CLR,M,M,M,M,M,M,M,M,M,M,M,M,M,M,50.00,KRTS 301335Z AUTO 35005KT 10SM CLR 10/M04 A3028 RMK AO2,M
MEV,2024-08-30 13:35,-119.7500,38.9963,1441.42,44.60,32.00,61.03,0.00,0.00,0.00,30.27,M,10.00,M,CLR,M,M,M,M,M,M,M,M,M,M,M,M,M,M,44.60,KMEV 301335Z AUTO 00000KT 10SM CLR 07/M00 A3027 RMK AO2,M
BAM,2024-08-30 13:35,-116.8743,40.5990,1382.36,35.60,17.60,47.51,0.00,0.00,0.00,30.28,M,10.00,M,CLR,M,M,M,M,M,M,M,M,M,M,M,M,M,M,35.60,KBAM 301335Z AUTO 00000KT 10SM CLR 02/M08 A3028 RMK AO1,M
TMT,2024-08-30 13:35,-117.1971,39.4643,1749.34,31.60,23.00,70.17,0.00,0.00,0.00,30.34,M,10.00,M,CLR,M,M,M,M,M,M,M,M,M,M,M,M,M,M,31.60,KTMT 301335Z AUTO 00000KT 10SM CLR 00/M05 A3034 RMK AO2 T10021051,M
10U,2024-08-30 13:35,-116.1876,41.9532,1637.00,33.80,15.80,47.22,120.00,3.00,0.00,30.33,M,9.00,M,FEW,M,M,M,300.00,M,M,M,M,M,M,M,M,M,M,30.75,K10U 301335Z AUTO 12003KT 9SM FEW003 01/M09 A3033 RMK AO2,M
NFL,2024-08-30 13:45,-118.7010,39.4166,1199.00,51.00,34.00,52.00,0.00,0.00,0.00,30.20,M,10.00,M,CLR,M,M,M,M,M,M,M,M,M,M,M,M,M,M,51.00,KNFL 301345Z 00000KT 10SM CLR 11/01 A3020 RMK AO2 T01060011,M
05U,2024-08-30 13:50,-116.0051,39.6042,1811.23,44.60,17.60,33.49,0.00,0.00,0.00,30.37,M,10.00,M,CLR,M,M,M,M,M,M,M,M,M,M,M,M,M,M,44.60,K05U 301350Z AUTO 00000KT 10SM CLR 07/M08 A3037 RMK A01,M
P68,2024-08-30 13:53,-116.0056,39.6014,1993.00,45.00,19.00,35.02,190.00,3.00,0.00,30.34,1021.20,M,M,M,M,M,M,M,M,M,M,M,M,M,M,M,M,M,43.55,KP68 301353Z AUTO 19003KT 07/M07 A3034 RMK AO1 SLP212 T00721072,M
DRA,2024-08-30 13:53,-116.0278,36.6206,1009.00,72.00,30.00,21.04,0.00,0.00,0.00,30.11,1014.50,10.00,M,CLR,M,M,M,M,M,M,M,M,M,M,M,M,M,M,72.00,KDRA 301353Z AUTO 00000KT 10SM CLR 22/M01 A3011 RMK AO2 SLP145 T02221011,M
ELY,2024-08-30 13:53,-114.8453,39.2950,1909.00,42.00,16.00,34.52,180.00,10.00,0.00,30.39,1021.20,10.00,M,CLR,M,M,M,M,M,M,M,M,M,M,M,M,M,M,35.51,KELY 301353Z AUTO 18010KT 10SM CLR 06/M09 A3039 RMK AO2 SLP212 T00561089,M
VGT,2024-08-30 13:53,-115.1933,36.2111,667.00,83.00,40.00,21.76,0.00,0.00,0.00,30.03,1015.50,10.00,M,CLR,M,M,M,M,M,M,M,M,M,M,M,M,M,M,80.64,KVGT 301353Z 00000KT 10SM CLR 28/04 A3003 RMK AO2 SLP155 T02830044,M
LOL,2024-08-30 13:53,-118.5701,40.0684,1192.43,43.00,27.00,52.91,240.00,4.00,0.00,30.22,1020.70,10.00,M,CLR,M,M,M,M,M,M,M,M,M,M,M,M,M,M,40.27,KLOL 301353Z AUTO 24004KT 10SM CLR 06/M03 A3022 RMK AO2 SLP207 T00611028,M
BVU,2024-08-30 13:55,-114.8611,35.9475,671.00,78.80,44.60,29.79,350.00,3.00,0.00,30.02,M,10.00,M,CLR,M,M,M,M,M,M,M,M,M,M,M,M,M,M,78.80,KBVU 301355Z AUTO 35003KT 10SM CLR 26/07 A3002 RMK AO2,M
RNO,2024-08-30 13:55,-119.7711,39.4839,1341.00,56.00,38.00,50.73,180.00,5.00,0.00,30.25,1019.40,10.00,M,CLR,M,M,M,M,M,M,M,M,M,M,M,M,M,M,56.00,KRNO 301355Z 18005KT 10SM CLR 13/03 A3025 RMK AO2 SLP194 T01330033 $,M
BAM,2024-08-30 13:55,-116.8743,40.5990,1382.36,37.40,17.60,44.25,120.00,5.00,0.00,30.29,M,10.00,M,CLR,M,M,M,M,M,M,M,M,M,M,M,M,M,M,32.81,KBAM 301355Z AUTO 12005KT 10SM CLR 03/M08 A3029 RMK AO1,M
CXP,2024-08-30 13:55,-119.7326,39.1923,1431.00,51.80,33.80,50.08,0.00,0.00,0.00,30.29,M,10.00,M,CLR,M,M,M,M,M,M,M,M,M,M,M,M,M,M,51.80,KCXP 301355Z AUTO 00000KT 10SM CLR 11/01 A3029 RMK AO2,M
RTS,2024-08-30 13:55,-119.8764,39.6682,1539.00,46.40,24.80,42.44,350.00,5.00,0.00,30.28,M,10.00,M,CLR,M,M,M,M,M,M,M,M,M,M,M,M,M,M,43.50,KRTS 301355Z AUTO 35005KT 10SM CLR 08/M04 A3028 RMK AO2,M
MEV,2024-08-30 13:55,-119.7500,38.9963,1441.42,44.60,30.20,56.74,0.00,0.00,0.00,30.27,M,10.00,M,CLR,M,M,M,M,M,M,M,M,M,M,M,M,M,M,44.60,KMEV 301355Z AUTO 00000KT 10SM CLR 07/M01 A3027 RMK AO2,M
HTH,2024-08-30 13:55,-118.6315,38.5448,1282.89,59.00,28.40,30.98,140.00,4.00,0.00,30.23,M,10.00,M,CLR,M,M,M,M,M,M,M,M,M,M,M,M,M,M,59.00,KHTH 301355Z AUTO 14004KT 10SM CLR 15/M02 A3023 RMK A01,M
TMT,2024-08-30 13:55,-117.1971,39.4643,1749.34,35.60,26.00,67.76,0.00,0.00,0.00,30.35,M,10.00,M,CLR,M,M,M,M,M,M,M,M,M,M,M,M,M,M,35.60,KTMT 301355Z AUTO 00000KT 10SM CLR 02/M03 A3035 RMK AO2 T00201034,M
10U,2024-08-30 13:55,-116.1876,41.9532,1637.00,35.60,15.80,43.95,0.00,0.00,0.00,30.34,M,9.00,M,CLR,M,M,M,M,M,M,M,M,M,M,M,M,M,M,35.60,K10U 301355Z AUTO 00000KT 9SM CLR 02/M09 A3034 RMK AO2,M
INS,2024-08-30 13:55,-115.6733,36.5872,955.00,68.50,27.00,20.97,0.00,0.00,0.00,30.10,1013.90,10.00,M,CLR,M,M,M,M,M,M,M,M,M,M,M,M,M,M,68.50,KINS 301355Z AUTO 00000KT 10SM CLR 20/M03 A3010 RMK AO2 SLP139 T02031028,M
LSV,2024-08-30 13:55,-115.0343,36.2362,570.00,80.80,34.70,18.97,30.00,6.00,0.00,29.99,1012.50,10.00,M,CLR,M,M,M,M,M,M,M,M,M,M,M,M,M,M,79.03,KLSV 301355Z AUTO 03006KT 10SM CLR 27/02 A2999 RMK AO2 SLP125 T02710015 $,M
EKO,2024-08-30 13:56,-115.7860,40.8242,1367.00,44.00,20.00,37.97,60.00,4.00,0.00,30.33,1023.70,6.00,M,CLR,M,M,M,M,M,M,M,HZ,M,M,M,M,M,M,41.43,KEKO 301356Z AUTO 06004KT 6SM HZ CLR 07/M07 A3033 RMK AO2 SLP237 T00671067,M
HND,2024-08-30 13:56,-115.1344,35.9729,742.79,79.00,38.00,22.93,190.00,4.00,0.00,30.07,1016.80,10.00,M,CLR,M,M,M,M,M,M,M,M,M,M,M,M,M,M,79.00,KHND 301356Z 19004KT 10SM CLR 26/03 A3007 RMK AO2 SLP168 T02610033,M
TPH,2024-08-30 13:56,-117.0904,38.0505,1654.00,57.00,21.00,24.45,330.00,5.00,0.00,30.29,1018.40,10.00,M,CLR,M,M,M,M,M,M,M,M,M,M,M,M,M,M,57.00,KTPH 301356Z AUTO 33005KT 10SM CLR 14/M06 A3029 RMK AO2 SLP184 T01391061,M
LAS,2024-08-30 13:56,-115.1634,36.0719,663.00,80.00,42.00,25.93,270.00,4.00,0.00,30.04,1014.50,10.00,M,FEW,M,M,M,16000.00,M,M,M,M,M,M,M,M,M,M,78.92,KLAS 301356Z 27004KT 10SM FEW160 27/05 A3004 RMK AO2 SLP145 T02670056 $,M
NFL,2024-08-30 13:57,-118.7010,39.4166,1199.00,51.00,32.00,47.99,0.00,0.00,0.00,30.21,1019.20,10.00,M,CLR,M,M,M,M,M,M,M,M,M,M,M,M,M,M,51.00,KNFL 301357Z 00000KT 10SM CLR 11/00 A3021 RMK AO2 SLP192 T01060000,M
05U,2024-08-30 14:00,-116.0051,39.6042,1811.23,44.60,19.40,36.18,0.00,0.00,0.00,30.37,M,10.00,M,CLR,M,M,M,M,M,M,M,M,M,M,M,M,M,M,44.60,K05U 301400Z AUTO 00000KT 10SM CLR 07/M07 A3037 RMK A01,M
CXP,2024-08-30 14:05,-119.7326,39.1923,1431.00,51.80,33.80,50.08,0.00,0.00,0.00,30.29,M,10.00,M,CLR,M,M,M,M,M,M,M,M,M,M,M,M,M,M,51.80,KCXP 301405Z AUTO 00000KT 10SM CLR 11/01 A3029 RMK AO2,M
RTS,2024-08-30 14:05,-119.8764,39.6682,1539.00,50.00,24.80,37.08,10.00,4.00,0.00,30.28,M,10.00,M,CLR,M,M,M,M,M,M,M,M,M,M,M,M,M,M,50.00,KRTS 301405Z AUTO 01004KT 10SM CLR 10/M04 A3028 RMK AO2,M
MEV,2024-08-30 14:05,-119.7500,38.9963,1441.42,44.60,32.00,61.03,0.00,0.00,0.00,30.27,M,10.00,M,CLR,M,M,M,M,M,M,M,M,M,M,M,M,M,M,44.60,KMEV 301405Z AUTO 00000KT 10SM CLR 07/00 A3027 RMK AO2,M
HTH,2024-08-30 14:05,-118.6315,38.5448,1282.89,60.80,30.20,31.28,140.00,5.00,0.00,30.24,M,10.00,M,CLR,M,M,M,M,M,M,M,M,M,M,M,M,M,M,60.80,KHTH 301405Z AUTO 14005KT 10SM CLR 16/M01 A3024 RMK A01,M
10U,2024-08-30 14:05,-116.1876,41.9532,1637.00,41.00,17.60,38.45,0.00,0.00,0.00,30.34,M,9.00,M,CLR,M,M,M,M,M,M,M,M,M,M,M,M,M,M,41.00,K10U 301405Z AUTO 00000KT 9SM CLR 05/M08 A3034 RMK AO2,M
BVU,2024-08-30 14:15,-114.8611,35.9475,671.00,82.40,42.80,24.72,0.00,0.00,0.00,30.03,M,10.00,M,CLR,M,M,M,M,M,M,M,M,M,M,M,M,M,M,80.39,KBVU 301415Z AUTO 00000KT 10SM CLR 28/06 A3003 RMK AO2,M
BAM,2024-08-30 14:15,-116.8743,40.5990,1382.36,44.60,19.40,36.18,0.00,0.00,0.00,30.30,M,10.00,M,CLR,M,M,M,M,M,M,M,M,M,M,M,M,M,M,44.60,KBAM 301415Z AUTO 00000KT 10SM CLR 07/M07 A3030 RMK AO1,M
TMT,2024-08-30 14:15,-117.1971,39.4643,1749.34,41.00,28.00,59.55,0.00,0.00,0.00,30.36,M,10.00,M,CLR,M,M,M,M,M,M,M,M,M,M,M,M,M,M,41.00,KTMT 301415Z AUTO 00000KT 10SM CLR 05/M02 A3036 RMK AO2 T00501023,M
BVU,2024-08-30 14:35,-114.8611,35.9475,671.00,84.20,42.80,23.33,0.00,0.00,0.00,30.03,M,10.00,M,CLR,M,M,M,M,M,M,M,M,M,M,M,M,M,M,81.61,KBVU 301435Z AUTO 00000KT 10SM CLR 29/06 A3003 RMK AO2,M
BAM,2024-08-30 14:35,-116.8743,40.5990,1382.36,46.40,19.40,33.79,0.00,0.00,0.00,30.31,M,10.00,M,CLR,M,M,M,M,M,M,M,M,M,M,M,M,M,M,46.40,KBAM 301435Z AUTO 00000KT 10SM CLR 08/M07 A3031 RMK AO1,M
TMT,2024-08-30 14:35,-117.1971,39.4643,1749.34,45.00,29.00,53.22,0.00,0.00,0.00,30.36,M,10.00,M,CLR,M,M,M,M,M,M,M,M,M,M,M,M,M,M,45.00,KTMT 301435Z AUTO 00000KT 10SM CLR 07/M02 A3036 RMK AO2 T00721016,M
P68,2024-08-30 14:53,-116.0056,39.6014,1993.00,57.00,20.00,23.44,0.00,0.00,0.00,30.35,1021.60,M,M,M,M,M,M,M,M,M,M,M,M,M,M,M,M,M,57.00,KP68 301453Z AUTO 00000KT 14/M07 A3035 RMK AO1 SLP216 T01391067 51012,M
DRA,2024-08-30 14:53,-116.0278,36.6206,1009.00,77.00,29.00,17.08,200.00,3.00,0.00,30.13,1015.20,10.00,M,CLR,M,M,M,M,M,M,M,M,M,M,M,M,M,M,77.00,KDRA 301453Z AUTO 20003KT 10SM CLR 25/M02 A3013 RMK AO2 SLP152 T02501017 52017,M
ELY,2024-08-30 14:53,-114.8453,39.2950,1909.00,52.00,20.00,28.13,190.00,5.00,0.00,30.40,1021.60,10.00,M,CLR,M,M,M,M,M,M,M,M,M,M,M,M,M,M,52.00,KELY 301453Z AUTO 19005KT 10SM CLR 11/M07 A3040 RMK AO2 SLP216 T01111067 51012,M
VGT,2024-08-30 14:53,-115.1933,36.2111,667.00,87.00,38.00,17.70,0.00,0.00,0.00,30.05,1016.20,10.00,M,CLR,M,M,M,M,M,M,M,M,M,M,M,M,M,M,83.53,KVGT 301453Z 00000KT 10SM CLR 31/03 A3005 RMK AO2 SLP162 T03060033 51023,M
LOL,2024-08-30 14:53,-118.5701,40.0684,1192.43,61.00,20.00,20.31,100.00,3.00,0.00,30.24,1020.60,10.00,M,CLR,M,M,M,M,M,M,M,M,M,M,M,M,M,M,61.00,KLOL 301453Z AUTO 10003KT 10SM CLR 16/M07 A3024 RMK AO2 SLP206 T01611067 52015,M
BVU,2024-08-30 14:55,-114.8611,35.9475,671.00,86.00,37.40,17.85,240.00,3.00,0.00,30.04,M,10.00,M,CLR,M,M,M,M,M,M,M,M,M,M,M,M,M,M,82.73,KBVU 301455Z AUTO 24003KT 10SM CLR 30/03 A3004 RMK AO2,M
RNO,2024-08-30 14:55,-119.7711,39.4839,1341.00,61.00,39.00,44.10,0.00,0.00,0.00,30.27,1019.90,10.00,M,CLR,M,M,M,M,M,M,M,M,M,M,M,M,M,M,61.00,KRNO 301455Z 00000KT 10SM CLR 16/04 A3027 RMK AO2 SLP199 T01610039 53015 $,M
INS,2024-08-30 14:55,-115.6733,36.5872,955.00,73.80,29.00,19.01,0.00,0.00,0.00,30.12,1014.60,10.00,M,CLR,M,M,M,M,M,M,M,M,M,M,M,M,M,M,73.80,KINS 301455Z AUTO 00000KT 10SM CLR 23/M02 A3012 RMK AO2 SLP146 T02321017 52017,M
LSV,2024-08-30 14:55,-115.0343,36.2362,570.00,85.00,32.00,14.86,0.00,0.00,0.00,30.01,1013.20,10.00,M,FEW,M,M,M,16000.00,M,M,M,M,M,M,M,M,M,M,81.87,KLSV 301455Z AUTO 00000KT 10SM FEW160 30/00 A3001 RMK AO2 SLP132 T02950001 52023 $,M
BAM,2024-08-30 14:55,-116.8743,40.5990,1382.36,50.00,21.20,31.87,0.00,0.00,0.00,30.31,M,10.00,M,CLR,M,M,M,M,M,M,M,M,M,M,M,M,M,M,50.00,KBAM 301455Z AUTO 00000KT 10SM CLR 10/M06 A3031 RMK AO1,M
TMT,2024-08-30 14:55,-117.1971,39.4643,1749.34,49.60,29.00,44.76,0.00,0.00,0.00,30.37,M,10.00,M,CLR,M,M,M,M,M,M,M,M,M,M,M,M,M,M,49.60,KTMT 301455Z AUTO 00000KT 10SM CLR 10/M02 A3037 RMK AO2 T00981017,M
EKO,2024-08-30 14:56,-115.7860,40.8242,1367.00,50.00,18.00,27.80,80.00,4.00,0.00,30.34,1024.10,6.00,M,CLR,M,M,M,M,M,M,M,HZ,M,M,M,M,M,M,50.00,KEKO 301456Z AUTO 08004KT 6SM HZ CLR 10/M08 A3034 RMK AO2 SLP241 T01001078 51017,M
HND,2024-08-30 14:56,-115.1344,35.9729,742.79,85.00,39.00,19.62,190.00,5.00,0.00,30.09,1017.30,10.00,M,CLR,M,M,M,M,M,M,M,M,M,M,M,M,M,M,82.02,KHND 301456Z 19005KT 10SM CLR 29/04 A3009 RMK AO2 SLP173 T02940039 51022,M
TPH,2024-08-30 14:56,-117.0904,38.0505,1654.00,66.00,23.00,19.35,350.00,8.00,0.00,30.31,1019.10,10.00,M,CLR,M,M,M,M,M,M,M,M,M,M,M,M,M,M,66.00,KTPH 301456Z AUTO 35008KT 10SM CLR 19/M05 A3031 RMK AO2 SLP191 T01891050 51017,M
LAS,2024-08-30 14:56,-115.1634,36.0719,663.00,83.00,44.00,25.39,320.00,4.00,0.00,30.06,1015.00,10.00,M,FEW,M,M,M,15000.00,M,M,M,M,M,M,M,M,M,M,80.86,KLAS 301456Z 32004KT 10SM FEW150 28/06 A3006 RMK AO2 SLP150 T02830067 $,M
NFL,2024-08-30 14:57,-118.7010,39.4166,1199.00,61.00,35.00,37.66,210.00,3.00,0.00,30.23,1020.00,10.00,M,CLR,M,M,M,M,M,M,M,M,M,M,M,M,M,M,61.00,KNFL 301457Z 21003KT 10SM CLR 16/02 A3023 RMK AO2 SLP200 T01610017 53017,M
05U,2024-08-30 15:10,-116.0051,39.6042,1811.23,59.00,21.20,22.95,0.00,0.00,0.00,30.38,M,10.00,M,CLR,M,M,M,M,M,M,M,M,M,M,M,M,M,M,59.00,K05U 301510Z AUTO 00000KT 10SM CLR 15/M06 A3038 RMK A01,M
BVU,2024-08-30 15:15,-114.8611,35.9475,671.00,84.20,37.40,18.91,0.00,0.00,0.00,30.04,M,10.00,M,CLR,M,M,M,M,M,M,M,M,M,M,M,M,M,M,81.38,KBVU 301515Z AUTO 00000KT 10SM CLR 29/03 A3004 RMK AO2,M
CXP,2024-08-30 15:15,-119.7326,39.1923,1431.00,59.00,35.60,41.42,0.00,0.00,0.00,30.31,M,10.00,M,CLR,M,M,M,M,M,M,M,M,M,M,M,M,M,M,59.00,KCXP 301515Z AUTO 00000KT 10SM CLR 15/02 A3031 RMK AO2,M
RTS,2024-08-30 15:15,-119.8764,39.6682,1539.00,60.80,28.40,29.06,0.00,0.00,0.00,30.31,M,10.00,M,CLR,M,M,M,M,M,M,M,M,M,M,M,M,M,M,60.80,KRTS 301515Z AUTO 00000KT 10SM CLR 16/M02 A3031 RMK AO2,M
MEV,2024-08-30 15:15,-119.7500,38.9963,1441.42,59.00,35.60,41.42,0.00,0.00,0.00,30.29,M,6.00,M,CLR,M,M,M,M,M,M,M,HZ,M,M,M,M,M,M,59.00,KMEV 301515Z AUTO 00000KT 6SM HZ CLR 15/02 A3029 RMK AO2,M
BAM,2024-08-30 15:15,-116.8743,40.5990,1382.36,53.60,21.20,27.91,0.00,0.00,0.00,30.32,M,10.00,M,CLR,M,M,M,M,M,M,M,M,M,M,M,M,M,M,53.60,KBAM 301515Z AUTO 00000KT 10SM CLR 12/M06 A3032 RMK AO1,M
TMT,2024-08-30 15:15,-117.1971,39.4643,1749.34,51.60,29.00,41.56,0.00,0.00,0.00,30.37,M,10.00,M,CLR,M,M,M,M,M,M,M,M,M,M,M,M,M,M,51.60,KTMT 301515Z AUTO 00000KT 10SM CLR 11/M02 A3037 RMK AO2 T01091016,M
CXP,2024-08-30 15:30,-119.7326,39.1923,1431.00,60.80,33.80,36.16,0.00,0.00,0.00,30.31,M,10.00,M,CLR,M,M,M,M,M,M,M,M,M,M,M,M,M,M,60.80,KCXP 301530Z AUTO 00000KT 10SM CLR 16/01 A3031 RMK AO2,M
05U,2024-08-30 15:30,-116.0051,39.6042,1811.23,62.60,17.60,17.32,0.00,0.00,0.00,30.38,M,10.00,M,CLR,M,M,M,M,M,M,M,M,M,M,M,M,M,M,62.60,K05U 301530Z AUTO 00000KT 10SM CLR 17/M08 A3038 RMK A01,M
BVU,2024-08-30 15:35,-114.8611,35.9475,671.00,84.20,37.40,18.91,0.00,0.00,0.00,30.05,M,10.00,M,CLR,M,M,M,M,M,M,M,M,M,M,M,M,M,M,81.38,KBVU 301535Z AUTO 00000KT 10SM CLR 29/03 A3005 RMK AO2,M
RTS,2024-08-30 15:35,-119.8764,39.6682,1539.00,64.40,30.20,27.55,0.00,0.00,0.00,30.31,M,10.00,M,CLR,M,M,M,M,M,M,M,M,M,M,M,M,M,M,64.40,KRTS 301535Z AUTO 00000KT 10SM CLR 18/M01 A3031 RMK AO2,M
MEV,2024-08-30 15:35,-119.7500,38.9963,1441.42,62.60,32.00,31.56,0.00,0.00,0.00,30.29,M,10.00,M,CLR,M,M,M,M,M,M,M,M,M,M,M,M,M,M,62.60,KMEV 301535Z AUTO 00000KT 10SM CLR 17/00 A3029 RMK AO2,M
BAM,2024-08-30 15:35,-116.8743,40.5990,1382.36,55.40,21.20,26.13,0.00,0.00,0.00,30.31,M,10.00,M,CLR,M,M,M,M,M,M,M,M,M,M,M,M,M,M,55.40,KBAM 301535Z AUTO 00000KT 10SM CLR 13/M06 A3031 RMK AO1,M
HTH,2024-08-30 15:35,-118.6315,38.5448,1282.89,69.80,32.00,24.59,0.00,0.00,0.00,30.26,M,10.00,M,CLR,M,M,M,M,M,M,M,M,M,M,M,M,M,M,69.80,KHTH 301535Z AUTO 00000KT 10SM CLR 21/00 A3026 RMK A01,M
TMT,2024-08-30 15:35,-117.1971,39.4643,1749.34,55.40,29.00,36.16,0.00,0.00,0.00,30.37,M,10.00,M,CLR,M,M,M,M,M,M,M,M,M,M,M,M,M,M,55.40,KTMT 301535Z AUTO 00000KT 10SM CLR 13/M02 A3037 RMK AO2 T01301017,M
10U,2024-08-30 15:35,-116.1876,41.9532,1637.00,53.60,21.20,27.91,30.00,3.00,0.00,30.35,M,7.00,M,CLR,M,M,M,M,M,M,M,M,M,M,M,M,M,M,53.60,K10U 301535Z AUTO 03003KT 7SM CLR 12/M06 A3035 RMK AO2,M
05U,2024-08-30 15:50,-116.0051,39.6042,1811.23,64.40,15.80,15.04,0.00,0.00,0.00,30.39,M,10.00,M,CLR,M,M,M,M,M,M,M,M,M,M,M,M,M,M,64.40,K05U 301550Z AUTO 00000KT 10SM CLR 18/M09 A3039 RMK A01,M
HTH,2024-08-30 15:50,-118.6315,38.5448,1282.89,71.60,32.00,23.13,330.00,3.00,0.00,30.26,M,10.00,M,CLR,M,M,M,M,M,M,M,M,M,M,M,M,M,M,71.60,KHTH 301550Z AUTO 33003KT 10SM CLR 22/M00 A3026 RMK A01,M
P68,2024-08-30 15:53,-116.0056,39.6014,1993.00,65.00,17.00,15.51,20.00,6.00,0.00,30.36,1021.50,M,M,M,M,M,M,M,M,M,M,M,M,M,M,M,M,M,65.00,KP68 301553Z AUTO 02006KT 18/M08 A3036 RMK AO1 SLP215 T01831083,M
DRA,2024-08-30 15:53,-116.0278,36.6206,1009.00,85.00,30.00,13.71,0.00,0.00,0.00,30.13,1015.20,10.00,M,CLR,M,M,M,M,M,M,M,M,M,M,M,M,M,M,81.86,KDRA 301553Z AUTO 00000KT 10SM CLR 29/M01 A3013 RMK AO2 SLP152 T02941011,M
ELY,2024-08-30 15:53,-114.8453,39.2950,1909.00,62.00,19.00,18.79,0.00,0.00,0.00,30.40,1020.30,10.00,M,CLR,M,M,M,M,M,M,M,M,M,M,M,M,M,M,62.00,KELY 301553Z AUTO 00000KT 10SM CLR 17/M07 A3040 RMK AO2 SLP203 T01671072,M
VGT,2024-08-30 15:53,-115.1933,36.2111,667.00,91.00,37.00,15.00,30.00,3.00,0.00,30.06,1016.30,10.00,M,CLR,M,M,M,M,M,M,M,M,M,M,M,M,M,M,86.86,KVGT 301553Z 03003KT 10SM CLR 33/03 A3006 RMK AO2 SLP163 T03280028,M
LOL,2024-08-30 15:53,-118.5701,40.0684,1192.43,70.00,17.00,13.06,60.00,8.00,0.00,30.24,1020.60,10.00,M,CLR,M,M,M,M,M,M,M,M,M,M,M,M,M,M,70.00,KLOL 301553Z AUTO 06008KT 10SM CLR 21/M08 A3024 RMK AO2 SLP206 T02111083,M
BVU,2024-08-30 15:55,-114.8611,35.9475,671.00,86.00,35.60,16.63,0.00,0.00,0.00,30.05,M,10.00,M,CLR,M,M,M,M,M,M,M,M,M,M,M,M,M,M,82.69,KBVU 301555Z AUTO 00000KT 10SM CLR 30/02 A3005 RMK AO2,M
INS,2024-08-30 15:55,-115.6733,36.5872,955.00,81.00,29.00,14.98,0.00,0.00,0.00,30.12,1014.10,10.00,M,CLR,M,M,M,M,M,M,M,M,M,M,M,M,M,M,79.00,KINS 301555Z AUTO 00000KT 10SM CLR 27/M02 A3012 RMK AO2 SLP141 T02731016,M
RNO,2024-08-30 15:55,-119.7711,39.4839,1341.00,67.00,40.00,37.16,0.00,0.00,0.00,30.27,1019.90,10.00,M,CLR,M,M,M,M,M,M,M,M,M,M,M,M,M,M,67.00,KRNO 301555Z 00000KT 10SM CLR 19/04 A3027 RMK AO2 SLP199 T01940044 $,M
BAM,2024-08-30 15:55,-116.8743,40.5990,1382.36,60.80,21.20,21.53,50.00,3.00,0.00,30.31,M,10.00,M,CLR,M,M,M,M,M,M,M,M,M,M,M,M,M,M,60.80,KBAM 301555Z AUTO 05003KT 10SM CLR 16/M06 A3031 RMK AO1,M
CXP,2024-08-30 15:55,-119.7326,39.1923,1431.00,66.20,32.00,27.83,0.00,0.00,0.00,30.31,M,10.00,M,CLR,M,M,M,M,M,M,M,M,M,M,M,M,M,M,66.20,KCXP 301555Z AUTO 00000KT 10SM CLR 19/00 A3031 RMK AO2,M
RTS,2024-08-30 15:55,-119.8764,39.6682,1539.00,66.20,28.40,24.04,0.00,0.00,0.00,30.31,M,10.00,M,CLR,M,M,M,M,M,M,M,M,M,M,M,M,M,M,66.20,KRTS 301555Z AUTO 00000KT 10SM CLR 19/M02 A3031 RMK AO2,M
MEV,2024-08-30 15:55,-119.7500,38.9963,1441.42,64.40,32.00,29.63,0.00,0.00,0.00,30.29,M,10.00,M,CLR,M,M,M,M,M,M,M,M,M,M,M,M,M,M,64.40,KMEV 301555Z AUTO 00000KT 10SM CLR 18/00 A3029 RMK AO2,M
TMT,2024-08-30 15:55,-117.1971,39.4643,1749.34,58.50,29.00,32.33,0.00,0.00,0.00,30.37,M,10.00,M,CLR,M,M,M,M,M,M,M,M,M,M,M,M,M,M,58.50,KTMT 301555Z AUTO 00000KT 10SM CLR 15/M02 A3037 RMK AO2 T01471016,M
10U,2024-08-30 15:55,-116.1876,41.9532,1637.00,57.20,23.00,26.42,10.00,5.00,0.00,30.35,M,8.00,M,CLR,M,M,M,M,M,M,M,M,M,M,M,M,M,M,57.20,K10U 301555Z AUTO 01005KT 8SM CLR 14/M05 A3035 RMK AO2,M
LSV,2024-08-30 15:55,-115.0343,36.2362,570.00,89.60,32.00,12.84,0.00,0.00,0.00,30.01,1013.10,10.00,M,CLR,M,M,M,M,M,M,M,M,M,M,M,M,M,M,85.54,KLSV 301555Z AUTO 00000KT 10SM CLR 32/00 A3001 RMK AO2 SLP131 T03200001 $,M
EKO,2024-08-30 15:56,-115.7860,40.8242,1367.00,59.00,21.00,22.76,M,3.00,0.00,30.34,1024.10,8.00,M,CLR,M,M,M,M,M,M,M,M,M,M,M,M,M,M,59.00,KEKO 301556Z AUTO VRB03KT 8SM CLR 15/M06 A3034 RMK AO2 SLP241 T01501061,M
HND,2024-08-30 15:56,-115.1344,35.9729,742.79,89.00,40.00,17.96,M,4.00,0.00,30.10,1017.60,10.00,M,CLR,M,M,M,M,M,M,M,M,M,M,M,M,M,M,85.26,KHND 301556Z VRB04KT 10SM CLR 32/04 A3010 RMK AO2 SLP176 T03170044,M
TPH,2024-08-30 15:56,-117.0904,38.0505,1654.00,73.00,24.00,15.88,0.00,0.00,0.00,30.32,1019.40,10.00,M,CLR,M,M,M,M,M,M,M,M,M,M,M,M,M,M,73.00,KTPH 301556Z AUTO 00000KT 10SM CLR 23/M04 A3032 RMK AO2 SLP194 T02281044,M
LAS,2024-08-30 15:56,-115.1634,36.0719,663.00,86.00,42.00,21.35,30.00,3.00,0.00,30.07,M,10.00,M,FEW,FEW,M,M,12000.00,16000.00,M,M,M,M,M,M,M,M,M,82.91,KLAS 301556Z 03003KT 10SM FEW120 FEW160 30/06 A3007 RMK AO2 SLPNO T03000056 $,M
NFL,2024-08-30 15:57,-118.7010,39.4166,1199.00,70.00,26.00,19.11,0.00,0.00,0.00,30.24,1020.10,10.00,M,CLR,M,M,M,M,M,M,M,M,M,M,M,M,M,M,70.00,KNFL 301557Z 00000KT 10SM CLR 21/M03 A3024 RMK AO2 SLP201 T02111033,M
05U,2024-08-30 16:10,-116.0051,39.6042,1811.23,64.40,17.60,16.26,0.00,0.00,0.00,30.39,M,10.00,M,CLR,M,M,M,M,M,M,M,M,M,M,M,M,M,M,64.40,K05U 301610Z AUTO 00000KT 10SM CLR 18/M08 A3039 RMK A01,M
BVU,2024-08-30 16:15,-114.8611,35.9475,671.00,87.80,35.60,15.70,0.00,0.00,0.00,30.06,M,10.00,M,CLR,M,M,M,M,M,M,M,M,M,M,M,M,M,M,84.12,KBVU 301615Z AUTO 00000KT 10SM CLR 31/02 A3006 RMK AO2,M
CXP,2024-08-30 16:15,-119.7326,39.1923,1431.00,68.00,32.00,26.15,0.00,0.00,0.00,30.30,M,10.00,M,CLR,M,M,M,M,M,M,M,M,M,M,M,M,M,M,68.00,KCXP 301615Z AUTO 00000KT 10SM CLR 20/M00 A3030 RMK AO2,M
RTS,2024-08-30 16:15,-119.8764,39.6682,1539.00,69.80,26.60,19.72,0.00,0.00,0.00,30.31,M,10.00,M,CLR,M,M,M,M,M,M,M,M,M,M,M,M,M,M,69.80,KRTS 301615Z AUTO 00000KT 10SM CLR 21/M03 A3031 RMK AO2,M
MEV,2024-08-30 16:15,-119.7500,38.9963,1441.42,68.00,32.00,26.15,0.00,0.00,0.00,30.29,M,10.00,M,CLR,M,M,M,M,M,M,M,M,M,M,M,M,M,M,68.00,KMEV 301615Z AUTO 00000KT 10SM CLR 20/M00 A3029 RMK AO2,M
BAM,2024-08-30 16:15,-116.8743,40.5990,1382.36,62.60,26.60,25.32,30.00,3.00,0.00,30.31,M,10.00,M,CLR,M,M,M,M,M,M,M,M,M,M,M,M,M,M,62.60,KBAM 301615Z AUTO 03003KT 10SM CLR 17/M03 A3031 RMK AO1,M
HTH,2024-08-30 16:15,-118.6315,38.5448,1282.89,71.60,32.00,23.13,0.00,0.00,0.00,30.27,M,10.00,M,CLR,M,M,M,M,M,M,M,M,M,M,M,M,M,M,71.60,KHTH 301615Z AUTO 00000KT 10SM CLR 22/M00 A3027 RMK A01,M
TMT,2024-08-30 16:15,-117.1971,39.4643,1749.34,62.40,29.50,28.72,0.00,0.00,0.00,30.36,M,10.00,M,CLR,M,M,M,M,M,M,M,M,M,M,M,M,M,M,62.40,KTMT 301615Z AUTO 00000KT 10SM CLR 17/M01 A3036 RMK AO2 T01691014,M
10U,2024-08-30 16:15,-116.1876,41.9532,1637.00,59.00,23.00,24.76,340.00,3.00,0.00,30.35,M,9.00,M,CLR,M,M,M,M,M,M,M,M,M,M,M,M,M,M,59.00,K10U 301615Z AUTO 34003KT 9SM CLR 15/M05 A3035 RMK AO2,M
05U,2024-08-30 16:30,-116.0051,39.6042,1811.23,66.20,15.80,14.13,0.00,0.00,0.00,30.39,M,10.00,M,CLR,M,M,M,M,M,M,M,M,M,M,M,M,M,M,66.20,K05U 301630Z AUTO 00000KT 10SM CLR 19/M09 A3039 RMK A01,M
BVU,2024-08-30 16:35,-114.8611,35.9475,671.00,91.40,35.60,14.02,0.00,0.00,0.00,30.06,M,10.00,M,CLR,M,M,M,M,M,M,M,M,M,M,M,M,M,M,87.17,KBVU 301635Z AUTO 00000KT 10SM CLR 33/02 A3006 RMK AO2,M
CXP,2024-08-30 16:35,-119.7326,39.1923,1431.00,71.60,32.00,23.13,0.00,0.00,0.00,30.30,M,10.00,M,CLR,M,M,M,M,M,M,M,M,M,M,M,M,M,M,71.60,KCXP 301635Z AUTO 00000KT 10SM CLR 22/M00 A3030 RMK AO2,M
RTS,2024-08-30 16:35,-119.8764,39.6682,1539.00,73.40,24.80,16.20,0.00,0.00,0.00,30.31,M,10.00,M,CLR,M,M,M,M,M,M,M,M,M,M,M,M,M,M,73.40,KRTS 301635Z AUTO 00000KT 10SM CLR 23/M04 A3031 RMK AO2,M
MEV,2024-08-30 16:35,-119.7500,38.9963,1441.42,69.80,33.80,26.43,0.00,0.00,0.00,30.29,M,10.00,M,CLR,M,M,M,M,M,M,M,M,M,M,M,M,M,M,69.80,KMEV 301635Z AUTO 00000KT 10SM CLR 21/01 A3029 RMK AO2,M
BAM,2024-08-30 16:35,-116.8743,40.5990,1382.36,68.00,28.40,22.59,50.00,3.00,0.00,30.31,M,10.00,M,CLR,M,M,M,M,M,M,M,M,M,M,M,M,M,M,68.00,KBAM 301635Z AUTO 05003KT 10SM CLR 20/M02 A3031 RMK AO1,M
HTH,2024-08-30 16:35,-118.6315,38.5448,1282.89,73.40,30.20,20.23,0.00,0.00,0.00,30.27,M,10.00,M,CLR,M,M,M,M,M,M,M,M,M,M,M,M,M,M,73.40,KHTH 301635Z AUTO 00000KT 10SM CLR 23/M01 A3027 RMK A01,M
TMT,2024-08-30 16:35,-117.1971,39.4643,1749.34,66.20,29.30,24.95,0.00,0.00,0.00,30.36,M,10.00,M,CLR,M,M,M,M,M,M,M,M,M,M,M,M,M,M,66.20,KTMT 301635Z AUTO 00000KT 10SM CLR 19/M01 A3036 RMK AO2 T01901015,M
10U,2024-08-30 16:35,-116.1876,41.9532,1637.00,62.60,23.00,21.79,0.00,0.00,0.00,30.35,M,9.00,M,CLR,M,M,M,M,M,M,M,M,M,M,M,M,M,M,62.60,K10U 301635Z AUTO 00000KT 9SM CLR 17/M05 A3035 RMK AO2,M
05U,2024-08-30 16:50,-116.0051,39.6042,1811.23,68.00,17.60,14.35,0.00,0.00,0.00,30.39,M,10.00,M,CLR,M,M,M,M,M,M,M,M,M,M,M,M,M,M,68.00,K05U 301650Z AUTO 00000KT 10SM CLR 20/M08 A3039 RMK A01,M
P68,2024-08-30 16:53,-116.0056,39.6014,1993.00,71.00,17.00,12.62,M,3.00,0.00,30.36,1021.30,M,M,M,M,M,M,M,M,M,M,M,M,M,M,M,M,M,71.00,KP68 301653Z AUTO VRB03KT 22/M08 A3036 RMK AO1 SLP213 T02171083,M
DRA,2024-08-30 16:53,-116.0278,36.6206,1009.00,92.00,32.00,11.91,260.00,4.00,0.00,30.14,1014.90,10.00,M,CLR,M,M,M,M,M,M,M,M,M,M,M,M,M,M,87.38,KDRA 301653Z AUTO 26004KT 10SM CLR 33/00 A3014 RMK AO2 SLP149 T03330000,M
ELY,2024-08-30 16:53,-114.8453,39.2950,1909.00,70.00,17.00,13.06,50.00,4.00,0.00,30.39,1019.70,10.00,M,CLR,M,M,M,M,M,M,M,M,M,M,M,M,M,M,70.00,KELY 301653Z AUTO 05004KT 10SM CLR 21/M08 A3039 RMK AO2 SLP197 T02111083,M
VGT,2024-08-30 16:53,-115.1933,36.2111,667.00,94.00,39.00,14.78,0.00,0.00,0.00,30.07,1016.60,10.00,M,CLR,M,M,M,M,M,M,M,M,M,M,M,M,M,M,89.64,KVGT 301653Z 00000KT 10SM CLR 34/04 A3007 RMK AO2 SLP166 T03440039,M
LOL,2024-08-30 16:53,-118.5701,40.0684,1192.43,74.00,26.00,16.69,90.00,6.00,0.00,30.24,1020.50,10.00,M,CLR,M,M,M,M,M,M,M,M,M,M,M,M,M,M,74.00,KLOL 301653Z AUTO 09006KT 10SM CLR 23/M03 A3024 RMK AO2 SLP205 T02331033 $,M
BVU,2024-08-30 16:55,-114.8611,35.9475,671.00,93.20,35.60,13.25,0.00,0.00,0.00,30.06,M,10.00,M,CLR,M,M,M,M,M,M,M,M,M,M,M,M,M,M,88.76,KBVU 301655Z AUTO 00000KT 10SM CLR 34/02 A3006 RMK AO2,M
INS,2024-08-30 16:55,-115.6733,36.5872,955.00,89.00,27.70,10.99,0.00,0.00,0.00,30.13,1014.40,10.00,M,CLR,M,M,M,M,M,M,M,M,M,M,M,M,M,M,84.66,KINS 301655Z AUTO 00000KT 10SM CLR 32/M02 A3013 RMK AO2 SLP144 T03171024,M
RNO,2024-08-30 16:55,-119.7711,39.4839,1341.00,73.00,39.00,29.12,0.00,0.00,0.00,30.27,1019.40,10.00,M,CLR,M,M,M,M,M,M,M,M,M,M,M,M,M,M,73.00,KRNO 301655Z 00000KT 10SM CLR 23/04 A3027 RMK AO2 SLP194 T02280039 $,M
CXP,2024-08-30 16:55,-119.7326,39.1923,1431.00,71.60,32.00,23.13,0.00,0.00,0.00,30.30,M,10.00,M,CLR,M,M,M,M,M,M,M,M,M,M,M,M,M,M,71.60,KCXP 301655Z AUTO 00000KT 10SM CLR 22/00 A3030 RMK AO2,M
RTS,2024-08-30 16:55,-119.8764,39.6682,1539.00,77.00,23.00,13.32,120.00,4.00,0.00,30.31,M,10.00,M,CLR,M,M,M,M,M,M,M,M,M,M,M,M,M,M,77.00,KRTS 301655Z AUTO 12004KT 10SM CLR 25/M05 A3031 RMK AO2,M
MEV,2024-08-30 16:55,-119.7500,38.9963,1441.42,71.60,35.60,26.71,0.00,0.00,0.00,30.29,M,10.00,M,CLR,M,M,M,M,M,M,M,M,M,M,M,M,M,M,71.60,KMEV 301655Z AUTO 00000KT 10SM CLR 22/02 A3029 RMK AO2,M
BAM,2024-08-30 16:55,-116.8743,40.5990,1382.36,69.80,28.40,21.24,40.00,5.00,0.00,30.31,M,10.00,M,CLR,M,M,M,M,M,M,M,M,M,M,M,M,M,M,69.80,KBAM 301655Z AUTO 04005KT 10SM CLR 21/M02 A3031 RMK AO1,M
HTH,2024-08-30 16:55,-118.6315,38.5448,1282.89,75.20,28.40,17.70,M,3.00,0.00,30.27,M,10.00,M,CLR,M,M,M,M,M,M,M,M,M,M,M,M,M,M,75.20,KHTH 301655Z AUTO VRB03KT 10SM CLR 24/M02 A3027 RMK A01,M
TMT,2024-08-30 16:55,-117.1971,39.4643,1749.34,69.00,28.20,21.65,0.00,0.00,0.00,30.36,M,10.00,M,CLR,M,M,M,M,M,M,M,M,M,M,M,M,M,M,69.00,KTMT 301655Z AUTO 00000KT 10SM CLR 21/M02 A3036 RMK AO2 T02051021,M
10U,2024-08-30 16:55,-116.1876,41.9532,1637.00,66.20,23.00,19.22,0.00,0.00,0.00,30.35,M,10.00,M,CLR,M,M,M,M,M,M,M,M,M,M,M,M,M,M,66.20,K10U 301655Z AUTO 00000KT 10SM CLR 19/M05 A3035 RMK AO2,M
LSV,2024-08-30 16:55,-115.0343,36.2362,570.00,96.40,31.00,9.99,50.00,7.00,0.00,30.02,1013.30,10.00,M,FEW,FEW,SCT,M,13000.00,15000.00,20000.00,M,M,M,M,M,M,M,M,90.72,KLSV 301655Z AUTO 05007KT 10SM FEW130 FEW150 SCT200 36/M01 A3002 RMK AO2 SLP133 T03581006 $,M
EKO,2024-08-30 16:56,-115.7860,40.8242,1367.00,67.00,20.00,16.46,0.00,0.00,0.00,30.34,1023.10,9.00,M,CLR,M,M,M,M,M,M,M,M,M,M,M,M,M,M,67.00,KEKO 301656Z AUTO 00000KT 9SM CLR 19/M07 A3034 RMK AO2 SLP231 T01941067,M
HND,2024-08-30 16:56,-115.1344,35.9729,742.79,93.00,41.00,16.48,M,4.00,0.00,30.11,1017.90,10.00,M,CLR,M,M,M,M,M,M,M,M,M,M,M,M,M,M,88.85,KHND 301656Z VRB04KT 10SM CLR 34/05 A3011 RMK AO2 SLP179 T03390050,M
TPH,2024-08-30 16:56,-117.0904,38.0505,1654.00,78.00,24.00,13.44,M,3.00,0.00,30.32,1018.90,10.00,M,CLR,M,M,M,M,M,M,M,M,M,M,M,M,M,M,78.00,KTPH 301656Z AUTO VRB03KT 10SM CLR 26/M04 A3032 RMK AO2 SLP189 T02561044,M
LAS,2024-08-30 16:56,-115.1634,36.0719,663.00,90.00,42.00,18.81,100.00,4.00,0.00,30.08,1015.50,10.00,M,FEW,FEW,M,M,12000.00,16000.00,M,M,M,M,M,M,M,M,M,86.22,KLAS 301656Z 10004KT 10SM FEW120 FEW160 32/05 A3008 RMK AO2 SLP155 T03220056 $,M
NFL,2024-08-30 16:57,-118.7010,39.4166,1199.00,75.00,23.00,14.24,320.00,4.00,0.00,30.24,1020.30,10.00,M,CLR,M,M,M,M,M,M,M,M,M,M,M,M,M,M,75.00,KNFL 301657Z 32004KT 10SM CLR 24/M05 A3024 RMK AO2 SLP203 T02391050,M
05U,2024-08-30 17:10,-116.0051,39.6042,1811.23,69.80,17.60,13.49,0.00,0.00,0.00,30.39,M,10.00,M,CLR,M,M,M,M,M,M,M,M,M,M,M,M,M,M,69.80,K05U 301710Z AUTO 00000KT 10SM CLR 21/M08 A3039 RMK A01,M
BVU,2024-08-30 17:15,-114.8611,35.9475,671.00,95.00,35.60,12.53,0.00,0.00,0.00,30.05,M,10.00,M,CLR,M,M,M,M,M,M,M,M,M,M,M,M,M,M,90.25,KBVU 301715Z AUTO 00000KT 10SM CLR 35/02 A3005 RMK AO2,M
CXP,2024-08-30 17:15,-119.7326,39.1923,1431.00,73.40,32.00,21.76,M,3.00,0.00,30.30,M,10.00,M,CLR,M,M,M,M,M,M,M,M,M,M,M,M,M,M,73.40,KCXP 301715Z AUTO VRB03KT 10SM CLR 23/00 A3030 RMK AO2,M
RTS,2024-08-30 17:15,-119.8764,39.6682,1539.00,77.00,21.20,12.35,110.00,5.00,0.00,30.31,M,10.00,M,CLR,M,M,M,M,M,M,M,M,M,M,M,M,M,M,77.00,KRTS 301715Z AUTO 11005KT 10SM CLR 25/M06 A3031 RMK AO2,M
MEV,2024-08-30 17:15,-119.7500,38.9963,1441.42,73.40,37.40,26.98,240.00,3.00,0.00,30.28,M,10.00,M,CLR,M,M,M,M,M,M,M,M,M,M,M,M,M,M,73.40,KMEV 301715Z AUTO 24003KT 10SM CLR 23/03 A3028 RMK AO2,M
BAM,2024-08-30 17:15,-116.8743,40.5990,1382.36,71.60,28.40,19.98,50.00,5.00,0.00,30.31,M,10.00,M,CLR,M,M,M,M,M,M,M,M,M,M,M,M,M,M,71.60,KBAM 301715Z AUTO 05005KT 10SM CLR 22/M02 A3031 RMK AO1,M
HTH,2024-08-30 17:15,-118.6315,38.5448,1282.89,77.00,26.60,15.48,330.00,5.00,0.00,30.27,M,10.00,M,CLR,M,M,M,M,M,M,M,M,M,M,M,M,M,M,77.00,KHTH 301715Z AUTO 33005KT 10SM CLR 25/M03 A3027 RMK A01,M
TMT,2024-08-30 17:15,-117.1971,39.4643,1749.34,71.00,27.70,19.81,0.00,0.00,0.00,30.36,M,10.00,M,CLR,M,M,M,M,M,M,M,M,M,M,M,M,M,M,71.00,KTMT 301715Z AUTO 00000KT 10SM CLR 22/M02 A3036 RMK AO2 T02171024,M
10U,2024-08-30 17:15,-116.1876,41.9532,1637.00,69.80,23.00,16.98,0.00,0.00,0.00,30.34,M,10.00,M,CLR,M,M,M,M,M,M,M,M,M,M,M,M,M,M,69.80,K10U 301715Z AUTO 00000KT 10SM CLR 21/M05 A3034 RMK AO2,M
CXP,2024-08-30 17:30,-119.7326,39.1923,1431.00,75.20,32.00,20.49,0.00,0.00,0.00,30.29,M,10.00,M,CLR,M,M,M,M,M,M,M,M,M,M,M,M,M,M,75.20,KCXP 301730Z AUTO 00000KT 10SM CLR 24/M00 A3029 RMK AO2,M
05U,2024-08-30 17:30,-116.0051,39.6042,1811.23,71.60,17.60,12.69,0.00,0.00,0.00,30.38,M,10.00,M,CLR,M,M,M,M,M,M,M,M,M,M,M,M,M,M,71.60,K05U 301730Z AUTO 00000KT 10SM CLR 22/M08 A3038 RMK A01,M
BVU,2024-08-30 17:35,-114.8611,35.9475,671.00,96.80,35.60,11.86,0.00,0.00,0.00,30.05,M,10.00,M,CLR,M,M,M,M,M,M,M,M,M,M,M,M,M,M,91.72,KBVU 301735Z AUTO 00000KT 10SM CLR 36/02 A3005 RMK AO2,M
RTS,2024-08-30 17:35,-119.8764,39.6682,1539.00,78.80,19.40,10.78,M,5.00,0.00,30.30,M,10.00,M,CLR,M,M,M,M,M,M,M,M,M,M,M,M,M,M,78.80,KRTS 301735Z AUTO VRB05KT 10SM CLR 26/M07 A3030 RMK AO2,M
MEV,2024-08-30 17:35,-119.7500,38.9963,1441.42,75.20,35.60,23.66,0.00,0.00,0.00,30.28,M,10.00,M,CLR,M,M,M,M,M,M,M,M,M,M,M,M,M,M,75.20,KMEV 301735Z AUTO 00000KT 10SM CLR 24/02 A3028 RMK AO2,M
BAM,2024-08-30 17:35,-116.8743,40.5990,1382.36,75.20,24.80,15.25,40.00,5.00,0.00,30.31,M,10.00,M,CLR,M,M,M,M,M,M,M,M,M,M,M,M,M,M,75.20,KBAM 301735Z AUTO 04005KT 10SM CLR 24/M04 A3031 RMK AO1,M
HTH,2024-08-30 17:35,-118.6315,38.5448,1282.89,78.80,23.00,12.55,320.00,6.00,0.00,30.26,M,10.00,M,CLR,M,M,M,M,M,M,M,M,M,M,M,M,M,M,78.80,KHTH 301735Z AUTO 32006KT 10SM CLR 26/M05 A3026 RMK A01,M
TMT,2024-08-30 17:35,-117.1971,39.4643,1749.34,73.00,27.50,18.36,360.00,3.00,0.00,30.35,M,10.00,M,CLR,M,M,M,M,M,M,M,M,M,M,M,M,M,M,73.00,KTMT 301735Z AUTO 36003KT 10SM CLR 23/M02 A3035 RMK AO2 T02281025,M
10U,2024-08-30 17:35,-116.1876,41.9532,1637.00,71.60,21.20,14.80,0.00,0.00,0.00,30.34,M,10.00,M,CLR,M,M,M,M,M,M,M,M,M,M,M,M,M,M,71.60,K10U 301735Z AUTO 00000KT 10SM CLR 22/M06 A3034 RMK AO2,M
05U,2024-08-30 17:50,-116.0051,39.6042,1811.23,73.40,19.40,12.90,0.00,0.00,0.00,30.37,M,10.00,M,CLR,M,M,M,M,M,M,M,M,M,M,M,M,M,M,73.40,K05U 301750Z AUTO 00000KT 10SM CLR 23/M07 A3037 RMK A01,M
P68,2024-08-30 17:53,-116.0056,39.6014,1993.00,76.00,19.00,11.62,0.00,0.00,0.00,30.34,1020.30,M,M,M,M,M,M,M,M,M,M,M,M,M,M,M,M,M,76.00,KP68 301753Z AUTO 00000KT 24/M07 A3034 RMK AO1 SLP203 T02441072 10244 20039 58003,M
DRA,2024-08-30 17:53,-116.0278,36.6206,1009.00,95.00,33.00,11.30,270.00,6.00,0.00,30.13,1014.90,10.00,M,CLR,M,M,M,M,M,M,M,M,M,M,M,M,M,M,89.85,KDRA 301753Z AUTO 27006KT 10SM CLR 35/01 A3013 RMK AO2 SLP149 T03500006 10350 20200 50002,M
ELY,2024-08-30 17:53,-114.8453,39.2950,1909.00,76.00,19.00,11.62,360.00,3.00,0.00,30.38,1019.30,10.00,M,CLR,M,M,M,M,M,M,M,M,M,M,M,M,M,M,76.00,KELY 301753Z AUTO 36003KT 10SM CLR 24/M07 A3038 RMK AO2 SLP193 T02441072 10244 20039 58006,M
VGT,2024-08-30 17:53,-115.1933,36.2111,667.00,97.00,37.00,12.46,110.00,4.00,0.00,30.06,1016.50,10.00,M,CLR,M,M,M,M,M,M,M,M,M,M,M,M,M,M,92.13,KVGT 301753Z 11004KT 10SM CLR 36/03 A3006 RMK AO2 SLP165 T03610028 10361 20267 50004,M
LOL,2024-08-30 17:53,-118.5701,40.0684,1192.43,81.00,25.00,12.70,70.00,7.00,0.00,30.23,1020.00,10.00,M,CLR,M,M,M,M,M,M,M,M,M,M,M,M,M,M,78.89,KLOL 301753Z AUTO 07007KT 10SM CLR 27/M04 A3023 RMK AO2 SLP200 T02721039 10272 20039 58001 $,M
BVU,2024-08-30 17:55,-114.8611,35.9475,671.00,96.80,35.60,11.86,0.00,0.00,0.00,30.05,M,10.00,M,CLR,M,M,M,M,M,M,M,M,M,M,M,M,M,M,91.72,KBVU 301755Z AUTO 00000KT 10SM CLR 36/02 A3005 RMK AO2,M
RNO,2024-08-30 17:55,-119.7711,39.4839,1341.00,78.00,42.00,27.69,0.00,0.00,0.00,30.25,1018.80,10.00,M,CLR,M,M,M,M,M,M,M,M,M,M,M,M,M,M,78.00,KRNO 301755Z 00000KT 10SM CLR 26/06 A3025 RMK AO2 SLP188 T02560056 10256 20128 58005 $,M
LSV,2024-08-30 17:55,-115.0343,36.2362,570.00,98.00,29.50,8.95,0.00,0.00,0.00,30.01,1013.00,10.00,M,CLR,M,M,M,M,M,M,M,M,M,M,M,M,M,M,91.87,KLSV 301755Z AUTO 00000KT 10SM CLR 37/M01 A3001 RMK AO2 SLP130 T03671014 10369 20249 50001 $,M
BAM,2024-08-30 17:55,-116.8743,40.5990,1382.36,77.00,26.60,15.48,350.00,5.00,0.00,30.30,M,10.00,M,CLR,M,M,M,M,M,M,M,M,M,M,M,M,M,M,77.00,KBAM 301755Z AUTO 35005KT 10SM CLR 25/M03 A3030 RMK AO1,M
CXP,2024-08-30 17:55,-119.7326,39.1923,1431.00,78.80,28.40,15.71,0.00,0.00,0.00,30.29,M,10.00,M,CLR,M,M,M,M,M,M,M,M,M,M,M,M,M,M,78.80,KCXP 301755Z AUTO 00000KT 10SM CLR 26/M02 A3029 RMK AO2,M
RTS,2024-08-30 17:55,-119.8764,39.6682,1539.00,80.60,17.60,9.40,M,4.00,0.00,30.30,M,10.00,M,CLR,M,M,M,M,M,M,M,M,M,M,M,M,M,M,78.45,KRTS 301755Z AUTO VRB04KT 10SM CLR 27/M08 A3030 RMK AO2,M
MEV,2024-08-30 17:55,-119.7500,38.9963,1441.42,78.80,35.60,21.00,M,3.00,0.00,30.27,M,10.00,M,CLR,M,M,M,M,M,M,M,M,M,M,M,M,M,M,78.80,KMEV 301755Z AUTO VRB03KT 10SM CLR 26/02 A3027 RMK AO2,M
HTH,2024-08-30 17:55,-118.6315,38.5448,1282.89,78.80,21.20,11.64,320.00,6.00,0.00,30.26,M,10.00,M,CLR,M,M,M,M,M,M,M,M,M,M,M,M,M,M,78.80,KHTH 301755Z AUTO 32006KT 10SM CLR 26/M06 A3026 RMK A01,M
TMT,2024-08-30 17:55,-117.1971,39.4643,1749.34,75.00,27.00,16.82,0.00,0.00,0.00,30.35,M,10.00,M,CLR,M,M,M,M,M,M,M,M,M,M,M,M,M,M,75.00,KTMT 301755Z AUTO 00000KT 10SM CLR 24/M03 A3035 RMK AO2 T02381028 10238 21003,M
10U,2024-08-30 17:55,-116.1876,41.9532,1637.00,73.40,21.20,13.93,0.00,0.00,0.00,30.34,M,10.00,M,CLR,M,M,M,M,M,M,M,M,M,M,M,M,M,M,73.40,K10U 301755Z AUTO 00000KT 10SM CLR 23/M06 A3034 RMK AO2,M
INS,2024-08-30 17:55,-115.6733,36.5872,955.00,93.40,26.00,8.92,0.00,0.00,0.00,30.12,1014.00,10.00,M,CLR,M,M,M,M,M,M,M,M,M,M,M,M,M,M,87.82,KINS 301755Z AUTO 00000KT 10SM CLR 34/M03 A3012 RMK AO2 SLP140 T03411033 10343 20187 58001,M
EKO,2024-08-30 17:56,-115.7860,40.8242,1367.00,74.00,18.00,11.91,0.00,0.00,0.00,30.32,1022.30,10.00,M,CLR,M,M,M,M,M,M,M,M,M,M,M,M,M,M,74.00,KEKO 301756Z AUTO 00000KT 10SM CLR 23/M08 A3032 RMK AO2 SLP223 T02331078 10233 20039 58006,M
HND,2024-08-30 17:56,-115.1344,35.9729,742.79,94.00,40.00,15.37,M,3.00,0.00,30.11,1017.70,10.00,M,CLR,M,M,M,M,M,M,M,M,M,M,M,M,M,M,89.70,KHND 301756Z VRB03KT 10SM CLR 34/04 A3011 RMK AO2 SLP177 T03440044 10350 20256 50004,M
TPH,2024-08-30 17:56,-117.0904,38.0505,1654.00,82.00,25.00,12.29,190.00,5.00,0.00,30.32,1018.40,10.00,M,CLR,M,M,M,M,M,M,M,M,M,M,M,M,M,M,79.54,KTPH 301756Z AUTO 19005KT 10SM CLR 28/M04 A3032 RMK AO2 SLP184 T02781039 10278 20128 50001,M
LAS,2024-08-30 17:56,-115.1634,36.0719,663.00,92.00,40.00,16.35,60.00,5.00,0.00,30.08,1015.20,10.00,M,FEW,FEW,M,M,12000.00,16000.00,M,M,M,M,M,M,M,M,M,87.88,KLAS 301756Z 06005KT 10SM FEW120 FEW160 33/05 A3008 RMK AO2 SLP152 T03330044 10333 20267 50004 $,M
NFL,2024-08-30 17:57,-118.7010,39.4166,1199.00,79.00,23.00,12.47,0.00,0.00,0.00,30.23,1020.00,10.00,M,CLR,M,M,M,M,M,M,M,M,M,M,M,M,M,M,79.00,KNFL 301757Z 00000KT 10SM CLR 26/M05 A3023 RMK AO2 SLP200 T02611050 10261 20100 50000,M
05U,2024-08-30 18:10,-116.0051,39.6042,1811.23,77.00,19.40,11.44,0.00,0.00,0.00,30.37,M,10.00,M,CLR,M,M,M,M,M,M,M,M,M,M,M,M,M,M,77.00,K05U 301810Z AUTO 00000KT 10SM CLR 25/M07 A3037 RMK A01,M
BVU,2024-08-30 18:15,-114.8611,35.9475,671.00,96.80,35.60,11.86,0.00,0.00,0.00,30.05,M,10.00,M,CLR,M,M,M,M,M,M,M,M,M,M,M,M,M,M,91.72,KBVU 301815Z AUTO 00000KT 10SM CLR 36/02 A3005 RMK AO2,M
CXP,2024-08-30 18:15,-119.7326,39.1923,1431.00,82.40,24.80,12.03,M,4.00,0.00,30.28,M,10.00,M,CLR,M,M,M,M,M,M,M,M,M,M,M,M,M,M,79.79,KCXP 301815Z AUTO VRB04KT 10SM CLR 28/M04 A3028 RMK AO2,M
RTS,2024-08-30 18:15,-119.8764,39.6682,1539.00,80.60,14.00,8.04,M,6.00,0.00,30.30,M,10.00,M,CLR,M,M,M,M,M,M,M,M,M,M,M,M,M,M,78.25,KRTS 301815Z AUTO VRB06KT 10SM CLR 27/M10 A3030 RMK AO2,M
MEV,2024-08-30 18:15,-119.7500,38.9963,1441.42,78.80,33.80,19.55,0.00,0.00,0.00,30.27,M,10.00,M,CLR,M,M,M,M,M,M,M,M,M,M,M,M,M,M,78.80,KMEV 301815Z AUTO 00000KT 10SM CLR 26/01 A3027 RMK AO2,M
BAM,2024-08-30 18:15,-116.8743,40.5990,1382.36,78.80,23.00,12.55,20.00,3.00,0.00,30.30,M,10.00,M,CLR,M,M,M,M,M,M,M,M,M,M,M,M,M,M,78.80,KBAM 301815Z AUTO 02003KT 10SM CLR 26/M05 A3030 RMK AO1,M
HTH,2024-08-30 18:15,-118.6315,38.5448,1282.89,80.60,17.60,9.40,320.00,6.00,0.00,30.25,M,10.00,M,CLR,M,M,M,M,M,M,M,M,M,M,M,M,M,M,78.45,KHTH 301815Z AUTO 32006KT 10SM CLR 27/M08 A3025 RMK A01,M
TMT,2024-08-30 18:15,-117.1971,39.4643,1749.34,77.40,26.60,15.28,0.00,0.00,0.00,30.34,M,10.00,M,CLR,M,M,M,M,M,M,M,M,M,M,M,M,M,M,77.40,KTMT 301815Z AUTO 00000KT 10SM CLR 25/M03 A3034 RMK AO2 T02521030,M
10U,2024-08-30 18:15,-116.1876,41.9532,1637.00,75.20,17.60,11.24,M,3.00,0.00,30.33,M,10.00,M,CLR,M,M,M,M,M,M,M,M,M,M,M,M,M,M,75.20,K10U 301815Z AUTO VRB03KT 10SM CLR 24/M08 A3033 RMK AO2,M
05U,2024-08-30 18:30,-116.0051,39.6042,1811.23,77.00,21.20,12.35,0.00,0.00,0.00,30.36,M,10.00,M,CLR,M,M,M,M,M,M,M,M,M,M,M,M,M,M,77.00,K05U 301830Z AUTO 00000KT 10SM CLR 25/M06 A3036 RMK A01,M
BVU,2024-08-30 18:35,-114.8611,35.9475,671.00,98.60,35.60,11.23,70.00,6.00,0.00,30.04,M,10.00,M,CLR,M,M,M,M,M,M,M,M,M,M,M,M,M,M,93.23,KBVU 301835Z AUTO 07006KT 10SM CLR 37/02 A3004 RMK AO2,M
CXP,2024-08-30 18:35,-119.7326,39.1923,1431.00,82.40,19.40,9.58,0.00,0.00,0.00,30.28,M,10.00,M,CLR,M,M,M,M,M,M,M,M,M,M,M,M,M,M,79.45,KCXP 301835Z AUTO 00000KT 10SM CLR 28/M07 A3028 RMK AO2,M
RTS,2024-08-30 18:35,-119.8764,39.6682,1539.00,82.40,14.00,7.58,M,6.00,0.00,30.29,M,10.00,M,CLR,M,M,M,M,M,M,M,M,M,M,M,M,M,M,79.20,KRTS 301835Z AUTO VRB06KT 10SM CLR 28/M10 A3029 RMK AO2,M
MEV,2024-08-30 18:35,-119.7500,38.9963,1441.42,82.40,30.20,15.03,M,3.00,0.00,30.26,M,10.00,M,CLR,M,M,M,M,M,M,M,M,M,M,M,M,M,M,79.97,KMEV 301835Z AUTO VRB03KT 10SM CLR 28/M01 A3026 RMK AO2,M
BAM,2024-08-30 18:35,-116.8743,40.5990,1382.36,78.80,21.20,11.64,350.00,4.00,0.00,30.29,M,10.00,M,CLR,M,M,M,M,M,M,M,M,M,M,M,M,M,M,78.80,KBAM 301835Z AUTO 35004KT 10SM CLR 26/M06 A3029 RMK AO1,M
HTH,2024-08-30 18:35,-118.6315,38.5448,1282.89,82.40,17.60,8.87,320.00,7.00,0.00,30.25,M,10.00,12.00,CLR,M,M,M,M,M,M,M,M,M,M,M,M,M,M,79.36,KHTH 301835Z AUTO 32007G12KT 10SM CLR 28/M08 A3025 RMK A01,M
TMT,2024-08-30 18:35,-117.1971,39.4643,1749.34,78.80,26.00,14.23,0.00,0.00,0.00,30.34,M,10.00,M,CLR,M,M,M,M,M,M,M,M,M,M,M,M,M,M,78.80,KTMT 301835Z AUTO 00000KT 10SM CLR 26/M03 A3034 RMK AO2 T02601034,M
10U,2024-08-30 18:35,-116.1876,41.9532,1637.00,77.00,15.80,9.79,0.00,0.00,0.00,30.33,M,10.00,M,CLR,M,M,M,M,M,M,M,M,M,M,M,M,M,M,77.00,K10U 301835Z AUTO 00000KT 10SM CLR 25/M09 A3033 RMK AO2,M
05U,2024-08-30 18:50,-116.0051,39.6042,1811.23,78.80,19.40,10.78,0.00,0.00,0.00,30.36,M,10.00,M,CLR,M,M,M,M,M,M,M,M,M,M,M,M,M,M,78.80,K05U 301850Z AUTO 00000KT 10SM CLR 26/M07 A3036 RMK A01,M
P68,2024-08-30 18:53,-116.0056,39.6014,1993.00,81.00,20.00,10.29,M,4.00,0.00,30.32,1019.40,M,M,M,M,M,M,M,M,M,M,M,M,M,M,M,M,M,78.57,KP68 301853Z AUTO VRB04KT 27/M07 A3032 RMK AO1 SLP194 T02721067,M
DRA,2024-08-30 18:53,-116.0278,36.6206,1009.00,98.00,36.00,11.62,210.00,10.00,0.00,30.12,1014.60,10.00,M,CLR,M,M,M,M,M,M,M,M,M,M,M,M,M,M,92.79,KDRA 301853Z AUTO 21010KT 10SM CLR 37/02 A3012 RMK AO2 SLP146 T03670022,M
ELY,2024-08-30 18:53,-114.8453,39.2950,1909.00,82.00,23.00,11.31,M,5.00,0.00,30.35,1018.10,10.00,M,CLR,M,M,M,M,M,M,M,M,M,M,M,M,M,M,79.40,KELY 301853Z AUTO VRB05KT 10SM CLR 28/M05 A3035 RMK AO2 SLP181 T02781050,M
VGT,2024-08-30 18:53,-115.1933,36.2111,667.00,100.00,38.00,11.83,M,3.00,0.00,30.04,1015.90,10.00,M,CLR,M,M,M,M,M,M,M,M,M,M,M,M,M,M,94.85,KVGT 301853Z VRB03KT 10SM CLR 38/03 A3004 RMK AO2 SLP159 T03780033,M
LOL,2024-08-30 18:53,-118.5701,40.0684,1192.43,85.00,23.00,10.26,M,M,0.00,30.21,1019.50,10.00,M,CLR,M,M,M,M,M,M,M,M,M,M,M,M,M,M,81.44,KLOL 301853Z AUTO 10SM CLR 29/M05 A3021 RMK AO2 SLP195 T02941050 $,M
BVU,2024-08-30 18:55,-114.8611,35.9475,671.00,98.60,35.60,11.23,20.00,5.00,0.00,30.03,M,10.00,M,CLR,M,M,M,M,M,M,M,M,M,M,M,M,M,M,93.23,KBVU 301855Z AUTO 02005KT 10SM CLR 37/02 A3003 RMK AO2,M
RNO,2024-08-30 18:55,-119.7711,39.4839,1341.00,85.00,48.00,27.70,M,3.00,0.00,30.23,1017.80,10.00,M,FEW,M,M,M,10000.00,M,M,M,M,M,M,M,M,M,M,82.61,KRNO 301855Z VRB03KT 10SM FEW100 29/09 A3023 RMK AO2 SLP178 T02940089 $,M
CXP,2024-08-30 18:55,-119.7326,39.1923,1431.00,86.00,17.60,7.90,M,4.00,0.00,30.27,M,10.00,M,CLR,M,M,M,M,M,M,M,M,M,M,M,M,M,M,81.85,KCXP 301855Z AUTO VRB04KT 10SM CLR 30/M08 A3027 RMK AO2,M
RTS,2024-08-30 18:55,-119.8764,39.6682,1539.00,82.40,14.00,7.58,M,6.00,0.00,30.29,M,10.00,M,CLR,M,M,M,M,M,M,M,M,M,M,M,M,M,M,79.20,KRTS 301855Z AUTO VRB06KT 10SM CLR 28/M10 A3029 RMK AO2,M
MEV,2024-08-30 18:55,-119.7500,38.9963,1441.42,82.40,30.20,15.03,0.00,0.00,0.00,30.26,M,9.00,M,CLR,M,M,M,M,M,M,M,M,M,M,M,M,M,M,79.97,KMEV 301855Z AUTO 00000KT 9SM CLR 28/M01 A3026 RMK AO2,M
BAM,2024-08-30 18:55,-116.8743,40.5990,1382.36,80.60,23.00,11.83,0.00,0.00,0.00,30.28,M,10.00,M,CLR,M,M,M,M,M,M,M,M,M,M,M,M,M,M,78.80,KBAM 301855Z AUTO 00000KT 10SM CLR 27/M05 A3028 RMK AO1,M
HTH,2024-08-30 18:55,-118.6315,38.5448,1282.89,82.40,17.60,8.87,340.00,7.00,0.00,30.24,M,10.00,M,CLR,M,M,M,M,M,M,M,M,M,M,M,M,M,M,79.36,KHTH 301855Z AUTO 34007KT 10SM CLR 28/M08 A3024 RMK A01,M
TMT,2024-08-30 18:55,-117.1971,39.4643,1749.34,81.00,23.00,11.68,340.00,4.00,0.00,30.33,M,10.00,M,CLR,M,M,M,M,M,M,M,M,M,M,M,M,M,M,78.75,KTMT 301855Z AUTO 34004KT 10SM CLR 27/M05 A3033 RMK AO2 T02731049,M
10U,2024-08-30 18:55,-116.1876,41.9532,1637.00,80.60,14.00,8.04,0.00,0.00,0.00,30.32,M,10.00,M,CLR,M,M,M,M,M,M,M,M,M,M,M,M,M,M,78.25,K10U 301855Z AUTO 00000KT 10SM CLR 27/M10 A3032 RMK AO2,M
INS,2024-08-30 18:55,-115.6733,36.5872,955.00,95.40,24.80,7.98,0.00,0.00,0.00,30.11,1013.70,10.00,M,SCT,M,M,M,15000.00,M,M,M,M,M,M,M,M,M,M,89.24,KINS 301855Z AUTO 00000KT 10SM SCT150 35/M04 A3011 RMK AO2 SLP137 T03521040,M
LSV,2024-08-30 18:55,-115.0343,36.2362,570.00,100.00,31.00,8.95,0.00,0.00,0.00,29.99,1012.30,10.00,M,CLR,M,M,M,M,M,M,M,M,M,M,M,M,M,M,93.74,KLSV 301855Z AUTO 00000KT 10SM CLR 38/M01 A2999 RMK AO2 SLP123 T03771006 $,M
EKO,2024-08-30 18:56,-115.7860,40.8242,1367.00,79.00,17.00,9.66,310.00,4.00,0.00,30.30,1022.00,10.00,M,CLR,M,M,M,M,M,M,M,M,M,M,M,M,M,M,79.00,KEKO 301856Z AUTO 31004KT 10SM CLR 26/M08 A3030 RMK AO2 SLP220 T02611083,M
HND,2024-08-30 18:56,-115.1344,35.9729,742.79,98.00,41.00,14.13,0.00,0.00,0.00,30.09,1017.20,10.00,M,CLR,M,M,M,M,M,M,M,M,M,M,M,M,M,M,93.52,KHND 301856Z 00000KT 10SM CLR 37/05 A3009 RMK AO2 SLP172 T03670050,M
TPH,2024-08-30 18:56,-117.0904,38.0505,1654.00,85.00,28.00,12.63,M,5.00,0.00,30.30,1018.10,10.00,M,CLR,M,M,M,M,M,M,M,M,M,M,M,M,M,M,81.80,KTPH 301856Z AUTO VRB05KT 10SM CLR 29/M02 A3030 RMK AO2 SLP181 T02941022,M
LAS,2024-08-30 18:56,-115.1634,36.0719,663.00,94.00,41.00,15.97,0.00,0.00,0.00,30.06,1014.80,10.00,M,FEW,FEW,M,M,12000.00,16000.00,M,M,M,M,M,M,M,M,M,89.77,KLAS 301856Z 00000KT 10SM FEW120 FEW160 34/05 A3006 RMK AO2 SLP148 T03440050 $,M
NFL,2024-08-30 18:57,-118.7010,39.4166,1199.00,83.00,22.00,10.49,0.00,0.00,0.00,30.22,1019.50,10.00,M,CLR,M,M,M,M,M,M,M,M,M,M,M,M,M,M,80.00,KNFL 301857Z 00000KT 10SM CLR 28/M06 A3022 RMK AO2 SLP195 T02831056,M
05U,2024-08-30 19:10,-116.0051,39.6042,1811.23,80.60,21.20,10.97,0.00,0.00,0.00,30.35,M,10.00,M,CLR,M,M,M,M,M,M,M,M,M,M,M,M,M,M,78.68,K05U 301910Z AUTO 00000KT 10SM CLR 27/M06 A3035 RMK A01,M
BVU,2024-08-30 19:15,-114.8611,35.9475,671.00,100.40,35.60,10.63,310.00,5.00,0.00,30.02,M,10.00,M,CLR,M,M,M,M,M,M,M,M,M,M,M,M,M,M,94.76,KBVU 301915Z AUTO 31005KT 10SM CLR 38/02 A3002 RMK AO2,M
CXP,2024-08-30 19:15,-119.7326,39.1923,1431.00,86.00,17.60,7.90,140.00,4.00,0.00,30.26,M,10.00,M,CLR,M,M,M,M,M,M,M,M,M,M,M,M,M,M,81.85,KCXP 301915Z AUTO 14004KT 10SM CLR 30/M08 A3026 RMK AO2,M
RTS,2024-08-30 19:15,-119.8764,39.6682,1539.00,84.20,15.80,7.74,100.00,9.00,0.00,30.28,M,10.00,M,CLR,M,M,M,M,M,M,M,M,M,M,M,M,M,M,80.51,KRTS 301915Z AUTO 10009KT 10SM CLR 29/M09 A3028 RMK AO2,M
MEV,2024-08-30 19:15,-119.7500,38.9963,1441.42,84.20,30.20,14.18,0.00,0.00,0.00,30.25,M,9.00,M,CLR,M,M,M,M,M,M,M,M,M,M,M,M,M,M,81.26,KMEV 301915Z AUTO 00000KT 9SM CLR 29/M01 A3025 RMK AO2,M
BAM,2024-08-30 19:15,-116.8743,40.5990,1382.36,82.40,23.00,11.16,10.00,3.00,0.00,30.28,M,10.00,M,CLR,M,M,M,M,M,M,M,M,M,M,M,M,M,M,79.67,KBAM 301915Z AUTO 01003KT 10SM CLR 28/M05 A3028 RMK AO1,M
HTH,2024-08-30 19:15,-118.6315,38.5448,1282.89,84.20,17.60,8.37,330.00,5.00,0.00,30.23,M,10.00,11.00,CLR,M,M,M,M,M,M,M,M,M,M,M,M,M,M,80.59,KHTH 301915Z AUTO 33005G11KT 10SM CLR 29/M08 A3023 RMK A01,M
TMT,2024-08-30 19:15,-117.1971,39.4643,1749.34,82.20,23.00,11.23,350.00,3.00,0.00,30.33,M,10.00,M,CLR,M,M,M,M,M,M,M,M,M,M,M,M,M,M,79.53,KTMT 301915Z AUTO 35003KT 10SM CLR 28/M05 A3033 RMK AO2 T02791050,M
10U,2024-08-30 19:15,-116.1876,41.9532,1637.00,80.60,14.00,8.04,270.00,5.00,0.00,30.31,M,10.00,M,CLR,M,M,M,M,M,M,M,M,M,M,M,M,M,M,78.25,K10U 301915Z AUTO 27005KT 10SM CLR 27/M10 A3031 RMK AO2,M
05U,2024-08-30 19:30,-116.0051,39.6042,1811.23,82.40,21.20,10.34,0.00,0.00,0.00,30.34,M,10.00,M,CLR,M,M,M,M,M,M,M,M,M,M,M,M,M,M,79.55,K05U 301930Z AUTO 00000KT 10SM CLR 28/M06 A3034 RMK A01,M
HTH,2024-08-30 19:30,-118.6315,38.5448,1282.89,84.20,17.60,8.37,340.00,6.00,0.00,30.23,M,10.00,M,CLR,M,M,M,M,M,M,M,M,M,M,M,M,M,M,80.59,KHTH 301930Z AUTO 34006KT 10SM CLR 29/M08 A3023 RMK A01,M
BVU,2024-08-30 19:35,-114.8611,35.9475,671.00,100.40,35.60,10.63,220.00,5.00,0.00,30.02,M,10.00,M,CLR,M,M,M,M,M,M,M,M,M,M,M,M,M,M,94.76,KBVU 301935Z AUTO 22005KT 10SM CLR 38/02 A3002 RMK AO2,M
CXP,2024-08-30 19:35,-119.7326,39.1923,1431.00,86.00,19.40,8.53,M,3.00,0.00,30.26,M,10.00,10.00,CLR,M,M,M,M,M,M,M,M,M,M,M,M,M,M,81.94,KCXP 301935Z AUTO VRB03G10KT 10SM CLR 30/M07 A3026 RMK AO2,M
RTS,2024-08-30 19:35,-119.8764,39.6682,1539.00,86.00,14.00,6.75,100.00,7.00,0.00,30.28,M,10.00,13.00,CLR,M,M,M,M,M,M,M,M,M,M,M,M,M,M,81.71,KRTS 301935Z AUTO 10007G13KT 10SM CLR 30/M10 A3028 RMK AO2,M
MEV,2024-08-30 19:35,-119.7500,38.9963,1441.42,84.20,26.60,12.23,0.00,0.00,0.00,30.24,M,6.00,M,CLR,M,M,M,M,M,M,M,HZ,M,M,M,M,M,M,81.13,KMEV 301935Z AUTO 00000KT 6SM HZ CLR 29/M03 A3024 RMK AO2,M
BAM,2024-08-30 19:35,-116.8743,40.5990,1382.36,82.40,19.40,9.58,360.00,3.00,0.00,30.27,M,10.00,M,CLR,M,M,M,M,M,M,M,M,M,M,M,M,M,M,79.45,KBAM 301935Z AUTO 36003KT 10SM CLR 28/M07 A3027 RMK AO1,M
TMT,2024-08-30 19:35,-117.1971,39.4643,1749.34,82.20,22.00,10.77,350.00,5.00,0.00,30.32,M,10.00,M,CLR,M,M,M,M,M,M,M,M,M,M,M,M,M,M,79.47,KTMT 301935Z AUTO 35005KT 10SM CLR 28/M05 A3032 RMK AO2 T02791055,M
10U,2024-08-30 19:35,-116.1876,41.9532,1637.00,82.40,14.00,7.58,0.00,0.00,0.00,30.31,M,10.00,M,CLR,M,M,M,M,M,M,M,M,M,M,M,M,M,M,79.20,K10U 301935Z AUTO 00000KT 10SM CLR 28/M10 A3031 RMK AO2,M
05U,2024-08-30 19:50,-116.0051,39.6042,1811.23,82.40,21.20,10.34,0.00,0.00,0.00,30.33,M,10.00,M,CLR,M,M,M,M,M,M,M,M,M,M,M,M,M,M,79.55,K05U 301950Z AUTO 00000KT 10SM CLR 28/M06 A3033 RMK A01,M
P68,2024-08-30 19:53,-116.0056,39.6014,1993.00,85.00,22.00,9.84,M,6.00,0.00,30.30,1018.60,M,M,M,M,M,M,M,M,M,M,M,M,M,M,M,M,M,81.38,KP68 301953Z AUTO VRB06KT 29/M06 A3030 RMK AO1 SLP186 T02941056,M
DRA,2024-08-30 19:53,-116.0278,36.6206,1009.00,98.00,37.00,12.08,250.00,10.00,0.00,30.11,1014.00,10.00,19.00,CLR,M,M,M,M,M,M,M,M,M,M,M,M,M,M,92.97,KDRA 301953Z AUTO 25010G19KT 10SM CLR 37/03 A3011 RMK AO2 SLP140 T03670028,M
ELY,2024-08-30 19:53,-114.8453,39.2950,1909.00,86.00,24.00,10.37,80.00,4.00,0.00,30.33,1017.70,10.00,M,CLR,M,M,M,M,M,M,M,M,M,M,M,M,M,M,82.21,KELY 301953Z AUTO 08004KT 10SM CLR 30/M04 A3033 RMK AO2 SLP177 T03001044,M
VGT,2024-08-30 19:53,-115.1933,36.2111,667.00,101.00,40.00,12.41,0.00,0.00,0.00,30.02,1015.10,10.00,M,CLR,M,M,M,M,M,M,M,M,M,M,M,M,M,M,96.12,KVGT 301953Z 00000KT 10SM CLR 38/04 A3002 RMK AO2 SLP151 T03830044,M
LOL,2024-08-30 19:53,-118.5701,40.0684,1192.43,87.00,22.00,9.23,0.00,0.00,0.00,30.19,1019.40,10.00,M,CLR,M,M,M,M,M,M,M,M,M,M,M,M,M,M,82.80,KLOL 301953Z AUTO 00000KT 10SM CLR 31/M06 A3019 RMK AO2 SLP194 T03061056 $,M
BVU,2024-08-30 19:55,-114.8611,35.9475,671.00,102.20,35.60,10.07,0.00,0.00,0.00,30.01,M,10.00,M,CLR,M,M,M,M,M,M,M,M,M,M,M,M,M,M,96.30,KBVU 301955Z AUTO 00000KT 10SM CLR 39/02 A3001 RMK AO2,M
INS,2024-08-30 19:55,-115.6733,36.5872,955.00,97.00,26.00,7.99,0.00,0.00,0.00,30.09,1013.00,10.00,M,CLR,M,M,M,M,M,M,M,M,M,M,M,M,M,M,90.67,KINS 301955Z AUTO 00000KT 10SM CLR 36/M03 A3009 RMK AO2 SLP130 T03611034,M
RNO,2024-08-30 19:55,-119.7711,39.4839,1341.00,89.00,52.00,28.30,M,3.00,0.00,30.21,1017.10,10.00,M,FEW,M,M,M,10000.00,M,M,M,M,M,M,M,M,M,M,86.49,KRNO 301955Z VRB03KT 10SM FEW100 32/11 A3021 RMK AO2 SLP171 T03170111 $,M
CXP,2024-08-30 19:55,-119.7326,39.1923,1431.00,87.80,17.60,7.46,M,3.00,0.00,30.25,M,10.00,M,CLR,M,M,M,M,M,M,M,M,M,M,M,M,M,M,83.14,KCXP 301955Z AUTO VRB03KT 10SM CLR 31/M08 A3025 RMK AO2,M
RTS,2024-08-30 19:55,-119.8764,39.6682,1539.00,86.00,12.20,6.24,90.00,8.00,0.00,30.27,M,10.00,M,CLR,M,M,M,M,M,M,M,M,M,M,M,M,M,M,81.64,KRTS 301955Z AUTO 09008KT 10SM CLR 30/M11 A3027 RMK AO2,M
MEV,2024-08-30 19:55,-119.7500,38.9963,1441.42,86.00,24.80,10.72,M,6.00,0.00,30.23,M,7.00,M,CLR,M,M,M,M,M,M,M,M,M,M,M,M,M,M,82.26,KMEV 301955Z AUTO VRB06KT 7SM CLR 30/M04 A3023 RMK AO2,M
BAM,2024-08-30 19:55,-116.8743,40.5990,1382.36,82.40,17.60,8.87,0.00,0.00,0.00,30.27,M,10.00,M,CLR,M,M,M,M,M,M,M,M,M,M,M,M,M,M,79.36,KBAM 301955Z AUTO 00000KT 10SM CLR 28/M08 A3027 RMK AO1,M
HTH,2024-08-30 19:55,-118.6315,38.5448,1282.89,86.00,17.60,7.90,320.00,7.00,0.00,30.22,M,10.00,M,CLR,M,M,M,M,M,M,M,M,M,M,M,M,M,M,81.85,KHTH 301955Z AUTO 32007KT 300V010 10SM CLR 30/M08 A3022 RMK A01,M
TMT,2024-08-30 19:55,-117.1971,39.4643,1749.34,83.50,19.00,9.09,0.00,0.00,0.00,30.31,M,10.00,M,CLR,M,M,M,M,M,M,M,M,M,M,M,M,M,M,80.18,KTMT 301955Z AUTO 00000KT 10SM CLR 29/M07 A3031 RMK AO2 T02861073,M
10U,2024-08-30 19:55,-116.1876,41.9532,1637.00,82.40,14.00,7.58,260.00,10.00,0.00,30.30,M,10.00,M,CLR,M,M,M,M,M,M,M,M,M,M,M,M,M,M,79.20,K10U 301955Z AUTO 26010KT 220V280 10SM CLR 28/M10 A3030 RMK AO2,M
LSV,2024-08-30 19:55,-115.0343,36.2362,570.00,102.00,29.50,7.93,0.00,0.00,0.00,29.97,1011.70,10.00,M,CLR,M,M,M,M,M,M,M,M,M,M,M,M,M,M,95.24,KLSV 301955Z AUTO 00000KT 10SM CLR 39/M01 A2997 RMK AO2 SLP117 T03881014 $,M
EKO,2024-08-30 19:56,-115.7860,40.8242,1367.00,84.00,14.00,7.20,270.00,6.00,0.00,30.28,1021.00,10.00,M,CLR,M,M,M,M,M,M,M,M,M,M,M,M,M,M,80.30,KEKO 301956Z AUTO 27006KT 10SM CLR 29/M10 A3028 RMK AO2 SLP210 T02891100,M
HND,2024-08-30 19:56,-115.1344,35.9729,742.79,102.00,41.00,12.52,M,3.00,0.00,30.07,1016.30,10.00,M,CLR,M,M,M,M,M,M,M,M,M,M,M,M,M,M,97.21,KHND 301956Z VRB03KT 10SM CLR 39/05 A3007 RMK AO2 SLP163 T03890050,M
TPH,2024-08-30 19:56,-117.0904,38.0505,1654.00,89.00,27.00,10.67,M,5.00,0.00,30.29,1017.40,10.00,M,CLR,M,M,M,M,M,M,M,M,M,M,M,M,M,M,84.60,KTPH 301956Z AUTO VRB05KT 10SM CLR 32/M03 A3029 RMK AO2 SLP174 T03171028,M
LAS,2024-08-30 19:56,-115.1634,36.0719,663.00,99.00,41.00,13.70,M,3.00,0.00,30.04,1014.10,10.00,M,FEW,FEW,M,M,12000.00,16000.00,M,M,M,M,M,M,M,M,M,94.47,KLAS 301956Z VRB03KT 10SM FEW120 FEW160 37/05 A3004 RMK AO2 SLP141 T03720050 $,M
NFL,2024-08-30 19:57,-118.7010,39.4166,1199.00,87.00,25.00,10.47,270.00,7.00,0.00,30.20,1018.90,10.00,M,FEW,M,M,M,8000.00,M,M,M,M,M,M,M,M,M,M,82.99,KNFL 301957Z 27007KT 10SM FEW080 31/M04 A3020 RMK AO2 SLP189 T03061039,M
05U,2024-08-30 20:10,-116.0051,39.6042,1811.23,84.20,21.20,9.76,0.00,0.00,0.00,30.33,M,10.00,M,CLR,M,M,M,M,M,M,M,M,M,M,M,M,M,M,80.77,K05U 302010Z AUTO 00000KT 10SM CLR 29/M06 A3033 RMK A01,M
BVU,2024-08-30 20:15,-114.8611,35.9475,671.00,102.20,33.80,9.37,M,6.00,0.00,30.01,M,10.00,M,CLR,M,M,M,M,M,M,M,M,M,M,M,M,M,M,96.01,KBVU 302015Z AUTO VRB06KT 10SM CLR 39/01 A3001 RMK AO2,M
CXP,2024-08-30 20:15,-119.7326,39.1923,1431.00,87.80,17.60,7.46,M,5.00,0.00,30.25,M,10.00,M,CLR,M,M,M,M,M,M,M,M,M,M,M,M,M,M,83.14,KCXP 302015Z AUTO VRB05KT 10SM CLR 31/M08 A3025 RMK AO2,M
RTS,2024-08-30 20:15,-119.8764,39.6682,1539.00,86.00,10.40,5.76,140.00,7.00,0.00,30.27,M,10.00,15.00,CLR,M,M,M,M,M,M,M,M,M,M,M,M,M,M,81.58,KRTS 302015Z AUTO 14007G15KT 110V180 10SM CLR 30/M12 A3027 RMK AO2,M
MEV,2024-08-30 20:15,-119.7500,38.9963,1441.42,86.00,24.80,10.72,270.00,5.00,0.00,30.23,M,6.00,M,CLR,M,M,M,M,M,M,M,HZ,M,M,M,M,M,M,82.26,KMEV 302015Z AUTO 27005KT 6SM HZ CLR 30/M04 A3023 RMK AO2,M
BAM,2024-08-30 20:15,-116.8743,40.5990,1382.36,86.00,17.60,7.90,0.00,0.00,0.00,30.27,M,10.00,M,CLR,M,M,M,M,M,M,M,M,M,M,M,M,M,M,81.85,KBAM 302015Z AUTO 00000KT 10SM CLR 30/M08 A3027 RMK AO1,M
HTH,2024-08-30 20:15,-118.6315,38.5448,1282.89,87.80,17.60,7.46,330.00,8.00,0.00,30.21,M,10.00,M,CLR,M,M,M,M,M,M,M,M,M,M,M,M,M,M,83.14,KHTH 302015Z AUTO 33008KT 300V020 10SM CLR 31/M08 A3021 RMK A01,M
TMT,2024-08-30 20:15,-117.1971,39.4643,1749.34,85.60,24.00,10.50,50.00,5.00,0.00,30.31,M,10.00,M,CLR,M,M,M,M,M,M,M,M,M,M,M,M,M,M,81.92,KTMT 302015Z AUTO 05005KT 10SM CLR 30/M04 A3031 RMK AO2 T02981045,M
10U,2024-08-30 20:15,-116.1876,41.9532,1637.00,84.20,12.20,6.61,M,4.00,0.00,30.30,M,10.00,M,CLR,M,M,M,M,M,M,M,M,M,M,M,M,M,M,80.37,K10U 302015Z AUTO VRB04KT 10SM CLR 29/M11 A3030 RMK AO2,M
05U,2024-08-30 20:30,-116.0051,39.6042,1811.23,86.00,21.20,9.21,0.00,0.00,0.00,30.32,M,10.00,M,CLR,M,M,M,M,M,M,M,M,M,M,M,M,M,M,82.04,K05U 302030Z AUTO 00000KT 10SM CLR 30/M06 A3032 RMK A01,M
BVU,2024-08-30 20:35,-114.8611,35.9475,671.00,102.20,35.60,10.07,120.00,7.00,0.00,30.00,M,10.00,M,CLR,M,M,M,M,M,M,M,M,M,M,M,M,M,M,96.30,KBVU 302035Z AUTO 12007KT 10SM CLR 39/02 A3000 RMK AO2,M
CXP,2024-08-30 20:35,-119.7326,39.1923,1431.00,89.60,15.80,6.52,100.00,6.00,0.00,30.24,M,10.00,13.00,CLR,M,M,M,M,M,M,M,M,M,M,M,M,M,M,84.37,KCXP 302035Z AUTO 10006G13KT 10SM CLR 32/M09 A3024 RMK AO2,M
RTS,2024-08-30 20:35,-119.8764,39.6682,1539.00,87.80,10.40,5.44,140.00,8.00,0.00,30.26,M,10.00,15.00,CLR,M,M,M,M,M,M,M,M,M,M,M,M,M,M,82.88,KRTS 302035Z AUTO 14008G15KT 10SM CLR 31/M12 A3026 RMK AO2,M
MEV,2024-08-30 20:35,-119.7500,38.9963,1441.42,89.60,23.00,8.87,M,5.00,0.00,30.22,M,10.00,M,CLR,M,M,M,M,M,M,M,M,M,M,M,M,M,M,84.75,KMEV 302035Z AUTO VRB05KT 10SM CLR 32/M05 A3022 RMK AO2,M
BAM,2024-08-30 20:35,-116.8743,40.5990,1382.36,86.00,14.00,6.75,0.00,0.00,0.00,30.26,M,10.00,M,CLR,M,M,M,M,M,M,M,M,M,M,M,M,M,M,81.71,KBAM 302035Z AUTO 00000KT 10SM CLR 30/M10 A3026 RMK AO1,M
HTH,2024-08-30 20:35,-118.6315,38.5448,1282.89,89.60,19.40,7.61,340.00,5.00,0.00,30.20,M,10.00,11.00,CLR,M,M,M,M,M,M,M,M,M,M,M,M,M,M,84.54,KHTH 302035Z AUTO 34005G11KT 10SM CLR 32/M07 A3020 RMK A01,M
TMT,2024-08-30 20:35,-117.1971,39.4643,1749.34,86.00,25.00,10.81,0.00,0.00,0.00,30.30,M,10.00,M,CLR,M,M,M,M,M,M,M,M,M,M,M,M,M,M,82.27,KTMT 302035Z AUTO 00000KT 10SM CLR 30/M04 A3030 RMK AO2 T03001039,M
10U,2024-08-30 20:35,-116.1876,41.9532,1637.00,84.20,14.00,7.16,350.00,7.00,0.00,30.30,M,10.00,M,CLR,M,M,M,M,M,M,M,M,M,M,M,M,M,M,80.44,K10U 302035Z AUTO 35007KT 10SM CLR 29/M10 A3030 RMK AO2,M
05U,2024-08-30 20:50,-116.0051,39.6042,1811.23,86.00,21.20,9.21,10.00,9.00,0.00,30.31,M,10.00,M,CLR,M,M,M,M,M,M,M,M,M,M,M,M,M,M,82.04,K05U 302050Z AUTO 01009KT 10SM CLR 30/M06 A3031 RMK A01,M
P68,2024-08-30 20:53,-116.0056,39.6014,1993.00,88.00,22.00,8.94,40.00,6.00,0.00,30.28,1017.30,M,15.00,M,M,M,M,M,M,M,M,M,M,M,M,M,M,M,83.52,KP68 302053Z AUTO 04006G15KT 31/M06 A3028 RMK AO1 SLP173 T03111056 57017,M
DRA,2024-08-30 20:53,-116.0278,36.6206,1009.00,99.00,37.00,11.72,M,4.00,0.00,30.09,1013.80,10.00,18.00,CLR,M,M,M,M,M,M,M,M,M,M,M,M,M,M,93.81,KDRA 302053Z AUTO VRB04G18KT 10SM CLR 37/03 A3009 RMK AO2 SLP138 T03720028 58013,M
ELY,2024-08-30 20:53,-114.8453,39.2950,1909.00,86.00,23.00,9.94,250.00,7.00,0.00,30.31,1017.10,10.00,M,CLR,M,M,M,M,M,M,M,M,M,M,M,M,M,M,82.14,KELY 302053Z AUTO 25007KT 220V280 10SM CLR 30/M05 A3031 RMK AO2 SLP171 T03001050 56019,M
VGT,2024-08-30 20:53,-115.1933,36.2111,667.00,104.00,40.00,11.35,0.00,0.00,0.00,30.00,1014.40,10.00,M,CLR,M,M,M,M,M,M,M,M,M,M,M,M,M,M,98.73,KVGT 302053Z 00000KT 10SM CLR 40/04 A3000 RMK AO2 SLP144 T04000044 58019,M
LOL,2024-08-30 20:53,-118.5701,40.0684,1192.43,89.00,20.00,7.96,M,3.00,0.00,30.18,1018.30,10.00,M,CLR,M,M,M,M,M,M,M,M,M,M,M,M,M,M,84.13,KLOL 302053Z AUTO VRB03KT 10SM CLR 32/M07 A3018 RMK AO2 SLP183 T03171067 56017 $,M
BVU,2024-08-30 20:55,-114.8611,35.9475,671.00,102.20,35.60,10.07,50.00,7.00,0.00,29.99,M,10.00,14.00,CLR,M,M,M,M,M,M,M,M,M,M,M,M,M,M,96.30,KBVU 302055Z AUTO 05007G14KT 010V090 10SM CLR 39/02 A2999 RMK AO2,M
RNO,2024-08-30 20:55,-119.7711,39.4839,1341.00,92.00,54.00,27.72,170.00,5.00,0.00,30.20,1016.40,10.00,M,FEW,M,M,M,10000.00,M,M,M,M,M,M,M,M,M,M,89.76,KRNO 302055Z 17005KT 10SM FEW100 33/12 A3020 RMK AO2 SLP164 T03330122 56017 $,M
LSV,2024-08-30 20:55,-115.0343,36.2362,570.00,103.30,30.60,7.97,0.00,0.00,0.00,29.96,1011.40,10.00,M,FEW,M,M,M,20000.00,M,M,M,M,M,M,M,M,M,M,96.49,KLSV 302055Z AUTO 00000KT 10SM FEW200 40/M01 A2996 RMK AO2 SLP114 T03961008 57017 $,M
CXP,2024-08-30 20:55,-119.7326,39.1923,1431.00,89.60,15.80,6.52,70.00,6.00,0.00,30.23,M,9.00,14.00,CLR,M,M,M,M,M,M,M,M,M,M,M,M,M,M,84.37,KCXP 302055Z AUTO 07006G14KT 9SM CLR 32/M09 A3023 RMK AO2,M
RTS,2024-08-30 20:55,-119.8764,39.6682,1539.00,89.60,10.40,5.14,120.00,8.00,0.00,30.26,M,10.00,13.00,CLR,M,M,M,M,M,M,M,M,M,M,M,M,M,M,84.17,KRTS 302055Z AUTO 12008G13KT 10SM CLR 32/M12 A3026 RMK AO2,M
MEV,2024-08-30 20:55,-119.7500,38.9963,1441.42,89.60,21.20,8.22,M,4.00,0.00,30.21,M,10.00,M,CLR,M,M,M,M,M,M,M,M,M,M,M,M,M,M,84.64,KMEV 302055Z AUTO VRB04KT 10SM CLR 32/M06 A3021 RMK AO2,M
BAM,2024-08-30 20:55,-116.8743,40.5990,1382.36,86.00,17.60,7.90,0.00,0.00,0.00,30.25,M,10.00,M,CLR,M,M,M,M,M,M,M,M,M,M,M,M,M,M,81.85,KBAM 302055Z AUTO 00000KT 10SM CLR 30/M08 A3025 RMK AO1,M
HTH,2024-08-30 20:55,-118.6315,38.5448,1282.89,89.60,17.60,7.05,340.00,7.00,0.00,30.19,M,10.00,M,CLR,M,M,M,M,M,M,M,M,M,M,M,M,M,M,84.45,KHTH 302055Z AUTO 34007KT 10SM CLR 32/M08 A3019 RMK A01,M
TMT,2024-08-30 20:55,-117.1971,39.4643,1749.34,86.70,26.00,11.02,250.00,7.00,0.00,30.29,M,10.00,M,CLR,M,M,M,M,M,M,M,M,M,M,M,M,M,M,82.85,KTMT 302055Z AUTO 25007KT 10SM CLR 30/M03 A3029 RMK AO2 T03041034,M
10U,2024-08-30 20:55,-116.1876,41.9532,1637.00,84.20,10.40,6.10,310.00,3.00,0.00,30.29,M,10.00,13.00,CLR,M,M,M,M,M,M,M,M,M,M,M,M,M,M,80.31,K10U 302055Z AUTO 31003G13KT 10SM CLR 29/M12 A3029 RMK AO2,M
INS,2024-08-30 20:55,-115.6733,36.5872,955.00,98.20,26.80,7.96,10.00,3.00,0.00,30.07,1012.40,10.00,M,CLR,M,M,M,M,M,M,M,M,M,M,M,M,M,M,91.75,KINS 302055Z AUTO 01003KT 10SM CLR 37/M03 A3007 RMK AO2 SLP124 T03681029 57016,M
EKO,2024-08-30 20:56,-115.7860,40.8242,1367.00,86.00,13.00,6.46,M,M,0.00,30.26,1020.50,10.00,M,CLR,M,M,M,M,M,M,M,M,M,M,M,M,M,M,81.67,KEKO 302056Z AUTO 10SM CLR 30/M11 A3026 RMK AO2 SLP205 T03001106 56017,M
HND,2024-08-30 20:56,-115.1344,35.9729,742.79,101.00,40.00,12.41,260.00,6.00,0.00,30.04,1015.50,10.00,M,CLR,M,M,M,M,M,M,M,M,M,M,M,M,M,M,96.12,KHND 302056Z 26006KT 10SM CLR 38/04 A3004 RMK AO2 SLP155 T03830044 58020,M
TPH,2024-08-30 20:56,-117.0904,38.0505,1654.00,88.00,24.00,9.73,M,M,0.00,30.27,1016.90,10.00,M,CLR,M,M,M,M,M,M,M,M,M,M,M,28.00,220.00,2024-08-30 20:41,83.65,KTPH 302056Z AUTO 10SM CLR 31/M04 A3027 RMK AO2 PK WND 22028/2041 SLP169 T03111044 58014,M
LAS,2024-08-30 20:56,-115.1634,36.0719,663.00,96.00,42.00,15.61,70.00,7.00,0.00,30.01,1013.30,10.00,M,FEW,FEW,M,M,12000.00,16000.00,M,M,M,M,M,M,M,M,M,91.73,KLAS 302056Z 07007KT 10SM FEW120 FEW160 35/06 A3001 RMK AO2 SLP133 VIRGA DSNT E-SE T03560056 58019 $,M
NFL,2024-08-30 20:57,-118.7010,39.4166,1199.00,89.00,22.00,8.66,M,3.00,0.00,30.18,1018.30,10.00,M,FEW,M,M,M,8000.00,M,M,M,M,M,M,M,M,M,M,84.25,KNFL 302057Z VRB03KT 10SM FEW080 32/M06 A3018 RMK AO2 SLP183 T03171056 58017,M
05U,2024-08-30 21:10,-116.0051,39.6042,1811.23,86.00,21.20,9.21,0.00,0.00,0.00,30.31,M,10.00,10.00,CLR,M,M,M,M,M,M,M,M,M,M,M,M,M,M,82.04,K05U 302110Z AUTO 00000G10KT 10SM CLR 30/M06 A3031 RMK A01,M
BVU,2024-08-30 21:15,-114.8611,35.9475,671.00,102.20,35.60,10.07,M,5.00,0.00,29.99,M,10.00,12.00,CLR,M,M,M,M,M,M,M,M,M,M,M,M,M,M,96.30,KBVU 302115Z AUTO VRB05G12KT 10SM CLR 39/02 A2999 RMK AO2,M
BAM,2024-08-30 21:15,-116.8743,40.5990,1382.36,87.80,17.60,7.46,10.00,4.00,0.00,30.24,M,10.00,M,CLR,M,M,M,M,M,M,M,M,M,M,M,M,M,M,83.14,KBAM 302115Z AUTO 01004KT 10SM CLR 31/M08 A3024 RMK AO1,M
CXP,2024-08-30 21:15,-119.7326,39.1923,1431.00,89.60,15.80,6.52,80.00,8.00,0.00,30.22,M,10.00,15.00,CLR,M,M,M,M,M,M,M,M,M,M,M,M,M,M,84.37,KCXP 302115Z AUTO 08008G15KT 050V110 10SM CLR 32/M09 A3022 RMK AO2,M
RTS,2024-08-30 21:15,-119.8764,39.6682,1539.00,87.80,12.20,5.89,140.00,8.00,0.00,30.25,M,10.00,14.00,CLR,M,M,M,M,M,M,M,M,M,M,M,M,M,M,82.93,KRTS 302115Z AUTO 14008G14KT 10SM CLR 31/M11 A3025 RMK AO2,M
MEV,2024-08-30 21:15,-119.7500,38.9963,1441.42,89.60,19.40,7.61,0.00,0.00,0.00,30.20,M,6.00,M,CLR,M,M,M,M,M,M,M,HZ,M,M,M,M,M,M,84.54,KMEV 302115Z AUTO 00000KT 6SM HZ CLR 32/M07 A3020 RMK AO2,M
HTH,2024-08-30 21:15,-118.6315,38.5448,1282.89,91.40,19.40,7.19,330.00,7.00,0.00,30.18,M,10.00,12.00,CLR,M,M,M,M,M,M,M,M,M,M,M,M,M,M,85.86,KHTH 302115Z AUTO 33007G12KT 10SM CLR 33/M07 A3018 RMK A01,M
TMT,2024-08-30 21:15,-117.1971,39.4643,1749.34,86.50,24.60,10.46,60.00,3.00,0.00,30.29,M,10.00,8.00,CLR,M,M,M,M,M,M,M,M,M,M,M,M,M,M,82.60,KTMT 302115Z AUTO 06003G08KT 10SM CLR 30/M04 A3029 RMK AO2 T03031041,M
10U,2024-08-30 21:15,-116.1876,41.9532,1637.00,86.00,12.20,6.24,M,5.00,0.00,30.28,M,10.00,11.00,CLR,M,M,M,M,M,M,M,M,M,M,M,M,M,M,81.64,K10U 302115Z AUTO VRB05G11KT 10SM CLR 30/M11 A3028 RMK AO2,M
05U,2024-08-30 21:30,-116.0051,39.6042,1811.23,87.80,23.00,9.39,330.00,7.00,0.00,30.30,M,10.00,13.00,CLR,M,M,M,M,M,M,M,M,M,M,M,M,M,M,83.43,K05U 302130Z AUTO 33007G13KT 10SM CLR 31/M05 A3030 RMK A01,M
BVU,2024-08-30 21:35,-114.8611,35.9475,671.00,102.20,35.60,10.07,M,6.00,0.00,29.98,M,10.00,13.00,CLR,M,M,M,M,M,M,M,M,M,M,M,M,M,M,96.30,KBVU 302135Z AUTO VRB06G13KT 10SM CLR 39/02 A2998 RMK AO2,M
CXP,2024-08-30 21:35,-119.7326,39.1923,1431.00,91.40,17.60,6.66,90.00,8.00,0.00,30.21,M,10.00,14.00,CLR,M,M,M,M,M,M,M,M,M,M,M,M,M,M,85.76,KCXP 302135Z AUTO 09008G14KT 10SM CLR 33/M08 A3021 RMK AO2,M
RTS,2024-08-30 21:35,-119.8764,39.6682,1539.00,89.60,12.20,5.57,160.00,11.00,0.00,30.24,M,10.00,18.00,CLR,M,M,M,M,M,M,M,M,M,M,M,M,M,M,84.23,KRTS 302135Z AUTO 16011G18KT 10SM CLR 32/M11 A3024 RMK AO2,M
MEV,2024-08-30 21:35,-119.7500,38.9963,1441.42,91.40,21.20,7.77,360.00,7.00,0.00,30.19,M,9.00,M,CLR,M,M,M,M,M,M,M,M,M,M,M,M,M,M,85.96,KMEV 302135Z AUTO 36007KT 330V080 9SM CLR 33/M06 A3019 RMK AO2,M
BAM,2024-08-30 21:35,-116.8743,40.5990,1382.36,87.80,17.60,7.46,30.00,4.00,0.00,30.24,M,10.00,M,CLR,M,M,M,M,M,M,M,M,M,M,M,M,M,M,83.14,KBAM 302135Z AUTO 03004KT 10SM CLR 31/M08 A3024 RMK AO1,M
HTH,2024-08-30 21:35,-118.6315,38.5448,1282.89,91.40,19.40,7.19,320.00,6.00,0.00,30.17,M,10.00,M,CLR,M,M,M,M,M,M,M,M,M,M,M,M,M,M,85.86,KHTH 302135Z AUTO 32006KT 10SM CLR 33/M07 A3017 RMK A01,M
TMT,2024-08-30 21:35,-117.1971,39.4643,1749.34,86.00,24.40,10.54,330.00,5.00,0.00,30.28,M,10.00,M,CLR,M,M,M,M,M,M,M,M,M,M,M,M,M,M,82.23,KTMT 302135Z AUTO 33005KT 10SM CLR 30/M04 A3028 RMK AO2 T03001042,M
10U,2024-08-30 21:35,-116.1876,41.9532,1637.00,84.20,12.20,6.61,30.00,6.00,0.00,30.28,M,10.00,M,CLR,M,M,M,M,M,M,M,M,M,M,M,M,M,M,80.37,K10U 302135Z AUTO 03006KT 10SM CLR 29/M11 A3028 RMK AO2,M
05U,2024-08-30 21:50,-116.0051,39.6042,1811.23,86.00,23.00,9.94,0.00,0.00,0.00,30.29,M,10.00,M,CLR,M,M,M,M,M,M,M,M,M,M,M,M,M,M,82.14,K05U 302150Z AUTO 00000KT 10SM CLR 30/M05 A3029 RMK A01,M
P68,2024-08-30 21:53,-116.0056,39.6014,1993.00,89.00,23.00,9.04,M,M,0.00,30.26,1016.80,M,M,M,M,M,M,M,M,M,M,M,M,M,M,M,M,M,84.31,KP68 302153Z AUTO 32/M05 A3026 RMK AO1 SLP168 T03171050,M
DRA,2024-08-30 21:53,-116.0278,36.6206,1009.00,97.00,36.00,11.98,110.00,7.00,0.00,30.07,1013.10,10.00,M,CLR,M,M,M,M,M,M,M,M,M,M,M,M,M,M,91.96,KDRA 302153Z AUTO 11007KT 070V140 10SM CLR 36/02 A3007 RMK AO2 SLP131 T03610022,M
ELY,2024-08-30 21:53,-114.8453,39.2950,1909.00,86.00,23.00,9.94,M,3.00,0.00,30.29,1016.90,10.00,M,CLR,M,M,M,M,M,M,M,M,M,M,M,M,M,M,82.14,KELY 302153Z AUTO VRB03KT 10SM CLR 30/M05 A3029 RMK AO2 SLP169 T03001050,M
VGT,2024-08-30 21:53,-115.1933,36.2111,667.00,105.00,39.00,10.59,M,4.00,0.00,29.97,1013.50,10.00,M,CLR,M,M,M,M,M,M,M,M,M,M,M,M,M,M,99.39,KVGT 302153Z VRB04KT 10SM CLR 41/04 A2997 RMK AO2 SLP135 T04060039,M
LOL,2024-08-30 21:53,-118.5701,40.0684,1192.43,91.00,23.00,8.49,150.00,6.00,0.00,30.16,1017.90,10.00,M,CLR,M,M,M,M,M,M,M,M,M,M,M,M,M,M,85.79,KLOL 302153Z AUTO 15006KT 10SM CLR 33/M05 A3016 RMK AO2 SLP179 T03281050 $,M
INS,2024-08-30 21:55,-115.6733,36.5872,955.00,99.30,33.00,9.91,190.00,15.00,0.00,30.05,1011.70,10.00,22.00,FEW,M,M,M,13000.00,M,M,M,M,M,M,M,M,M,M,93.42,KINS 302155Z AUTO 19015G22KT 10SM FEW130 37/01 A3005 RMK AO2 SLP117 T03740006,M
BVU,2024-08-30 21:55,-114.8611,35.9475,671.00,102.20,35.60,10.07,100.00,10.00,0.00,29.97,M,10.00,M,CLR,M,M,M,M,M,M,M,M,M,M,M,M,M,M,96.30,KBVU 302155Z AUTO 10010KT 10SM CLR 39/02 A2997 RMK AO2,M
CXP,2024-08-30 21:55,-119.7326,39.1923,1431.00,91.40,17.60,6.66,80.00,11.00,0.00,30.21,M,10.00,16.00,CLR,M,M,M,M,M,M,M,M,M,M,M,M,M,M,85.76,KCXP 302155Z AUTO 08011G16KT 10SM CLR 33/M08 A3021 RMK AO2,M
RNO,2024-08-30 21:55,-119.7711,39.4839,1341.00,93.00,56.00,28.90,100.00,8.00,0.00,30.17,1015.70,10.00,M,FEW,M,M,M,9000.00,M,M,M,M,M,M,M,M,M,M,91.32,KRNO 302155Z 10008KT 10SM FEW090 34/13 A3017 RMK AO2 SLP157 T03390133 $,M
RTS,2024-08-30 21:55,-119.8764,39.6682,1539.00,89.60,12.20,5.57,150.00,8.00,0.00,30.24,M,10.00,15.00,CLR,M,M,M,M,M,M,M,M,M,M,M,M,M,M,84.23,KRTS 302155Z AUTO 15008G15KT 10SM CLR 32/M11 A3024 RMK AO2,M
MEV,2024-08-30 21:55,-119.7500,38.9963,1441.42,93.20,19.40,6.80,330.00,9.00,0.00,30.18,M,10.00,15.00,CLR,M,M,M,M,M,M,M,M,M,M,M,M,M,M,87.18,KMEV 302155Z AUTO 33009G15KT 10SM CLR 34/M07 A3018 RMK AO2,M
BAM,2024-08-30 21:55,-116.8743,40.5990,1382.36,87.80,17.60,7.46,70.00,3.00,0.00,30.23,M,10.00,M,CLR,M,M,M,M,M,M,M,M,M,M,M,M,M,M,83.14,KBAM 302155Z AUTO 07003KT 10SM CLR 31/M08 A3023 RMK AO1,M
HTH,2024-08-30 21:55,-118.6315,38.5448,1282.89,91.40,19.40,7.19,340.00,10.00,0.00,30.16,M,10.00,M,CLR,M,M,M,M,M,M,M,M,M,M,M,M,M,M,85.86,KHTH 302155Z AUTO 34010KT 10SM CLR 33/M07 A3016 RMK A01,M
TMT,2024-08-30 21:55,-117.1971,39.4643,1749.34,87.40,26.80,11.14,340.00,6.00,0.00,30.28,M,10.00,M,CLR,M,M,M,M,M,M,M,M,M,M,M,M,M,M,83.41,KTMT 302155Z AUTO 34006KT 10SM CLR 31/M03 A3028 RMK AO2 T03081029,M
10U,2024-08-30 21:55,-116.1876,41.9532,1637.00,86.00,12.20,6.24,0.00,0.00,0.00,30.28,M,10.00,10.00,CLR,M,M,M,M,M,M,M,M,M,M,M,M,M,M,81.64,K10U 302155Z AUTO 00000G10KT 10SM CLR 30/M11 A3028 RMK AO2,M
LSV,2024-08-30 21:55,-115.0343,36.2362,570.00,105.00,28.60,6.99,140.00,6.00,0.00,29.93,1010.30,10.00,M,FEW,M,M,M,18000.00,M,M,M,M,M,M,M,M,M,M,97.68,KLSV 302155Z AUTO 14006KT 10SM FEW180 41/M02 A2993 RMK AO2 SLP103 T04061019 $,M
EKO,2024-08-30 21:56,-115.7860,40.8242,1367.00,88.00,16.00,6.92,210.00,7.00,0.00,30.24,1019.70,10.00,M,CLR,M,M,M,M,M,M,M,M,M,M,M,M,M,M,83.22,KEKO 302156Z AUTO 21007KT 10SM CLR 31/M09 A3024 RMK AO2 SLP197 T03111089,M
HND,2024-08-30 21:56,-115.1344,35.9729,742.79,101.00,42.00,13.41,110.00,8.00,0.00,30.03,1014.90,10.00,M,CLR,M,M,M,M,M,M,M,M,M,M,M,M,M,M,96.50,KHND 302156Z 11008KT 10SM CLR 38/06 A3003 RMK AO2 SLP149 T03830056,M
TPH,2024-08-30 21:56,-117.0904,38.0505,1654.00,90.00,25.00,9.52,180.00,8.00,0.00,30.24,1016.20,10.00,20.00,CLR,M,M,M,M,M,M,M,M,M,M,M,M,M,M,85.19,KTPH 302156Z AUTO 18008G20KT 10SM CLR 32/M04 A3024 RMK AO2 SLP162 T03221039,M
LAS,2024-08-30 21:56,-115.1634,36.0719,663.00,101.00,43.00,13.94,M,5.00,0.00,29.99,1012.50,10.00,16.00,SCT,BKN,M,M,12000.00,16000.00,M,M,M,M,M,M,M,M,M,96.64,KLAS 302156Z VRB05G16KT 10SM SCT120 BKN160 38/06 A2999 RMK AO2 SLP125 VIRGA DSNT ALQDS T03830061 $,M
NFL,2024-08-30 21:57,-118.7010,39.4166,1199.00,92.00,20.00,7.24,M,5.00,0.00,30.16,1017.60,10.00,M,FEW,M,M,M,8000.00,M,M,M,M,M,M,M,M,M,M,86.33,KNFL 302157Z VRB05KT 10SM FEW080 33/M07 A3016 RMK AO2 SLP176 T03331067,M
05U,2024-08-30 22:10,-116.0051,39.6042,1811.23,86.00,23.00,9.94,0.00,0.00,0.00,30.29,M,10.00,M,CLR,M,M,M,M,M,M,M,M,M,M,M,M,M,M,82.14,K05U 302210Z AUTO 00000KT 10SM CLR 30/M05 A3029 RMK A01,M
LAS,2024-08-30 22:11,-115.1634,36.0719,663.00,101.00,43.00,13.94,110.00,8.00,0.00,29.99,M,10.00,M,SCT,BKN,M,M,12000.00,16000.00,M,M,M,M,M,M,M,M,M,96.64,KLAS 302211Z 11008KT 080V140 10SM SCT120 BKN160 38/06 A2999 RMK AO2 VIRGA DSNT ALQDS T03830061 $,M
BVU,2024-08-30 22:15,-114.8611,35.9475,671.00,100.40,37.40,11.41,120.00,7.00,0.00,29.97,M,10.00,19.00,CLR,M,M,M,M,M,M,M,M,M,M,M,M,M,M,95.08,KBVU 302215Z AUTO 12007G19KT 10SM CLR 38/03 A2997 RMK AO2,M
CXP,2024-08-30 22:15,-119.7326,39.1923,1431.00,91.40,15.80,6.16,70.00,9.00,0.00,30.20,M,10.00,16.00,CLR,M,M,M,M,M,M,M,M,M,M,M,M,M,M,85.68,KCXP 302215Z AUTO 07009G16KT 10SM CLR 33/M09 A3020 RMK AO2,M
RTS,2024-08-30 22:15,-119.8764,39.6682,1539.00,89.60,12.20,5.57,120.00,9.00,0.00,30.23,M,10.00,16.00,CLR,M,M,M,M,M,M,M,M,M,M,M,M,M,M,84.23,KRTS 302215Z AUTO 12009G16KT 10SM CLR 32/M11 A3023 RMK AO2,M
MEV,2024-08-30 22:15,-119.7500,38.9963,1441.42,91.40,17.60,6.66,360.00,7.00,0.00,30.17,M,10.00,15.00,CLR,M,M,M,M,M,M,M,M,M,M,M,M,M,M,85.76,KMEV 302215Z AUTO 36007G15KT 10SM CLR 33/M08 A3017 RMK AO2,M
BAM,2024-08-30 22:15,-116.8743,40.5990,1382.36,87.80,15.80,6.90,340.00,3.00,0.00,30.23,M,10.00,M,CLR,M,M,M,M,M,M,M,M,M,M,M,M,M,M,83.07,KBAM 302215Z AUTO 34003KT 10SM CLR 31/M09 A3023 RMK AO1,M
HTH,2024-08-30 22:15,-118.6315,38.5448,1282.89,91.40,19.40,7.19,310.00,7.00,0.00,30.15,M,10.00,14.00,CLR,M,M,M,M,M,M,M,M,M,M,M,M,M,M,85.86,KHTH 302215Z AUTO 31007G14KT 10SM CLR 33/M07 A3015 RMK A01,M
TMT,2024-08-30 22:15,-117.1971,39.4643,1749.34,88.00,26.80,10.93,220.00,6.00,0.00,30.27,M,10.00,M,CLR,M,M,M,M,M,M,M,M,M,M,M,M,M,M,83.85,KTMT 302215Z AUTO 22006KT 10SM CLR 31/M03 A3027 RMK AO2 T03121029,M
10U,2024-08-30 22:15,-116.1876,41.9532,1637.00,86.00,14.00,6.75,360.00,9.00,0.00,30.27,M,10.00,M,CLR,M,M,M,M,M,M,M,M,M,M,M,M,M,M,81.71,K10U 302215Z AUTO 36009KT 10SM CLR 30/M10 A3027 RMK AO2,M
05U,2024-08-30 22:30,-116.0051,39.6042,1811.23,87.80,23.00,9.39,M,4.00,0.00,30.28,M,10.00,11.00,CLR,M,M,M,M,M,M,M,M,M,M,M,M,M,M,83.43,K05U 302230Z AUTO VRB04G11KT 10SM CLR 31/M05 A3028 RMK A01,M
BVU,2024-08-30 22:35,-114.8611,35.9475,671.00,100.40,37.40,11.41,160.00,10.00,0.00,29.97,M,10.00,M,CLR,M,M,M,M,M,M,M,M,M,M,M,M,M,M,95.08,KBVU 302235Z AUTO 16010KT 10SM CLR 38/03 A2997 RMK AO2,M
CXP,2024-08-30 22:35,-119.7326,39.1923,1431.00,91.40,15.80,6.16,60.00,11.00,0.00,30.19,M,10.00,17.00,CLR,M,M,M,M,M,M,M,M,M,M,M,M,M,M,85.68,KCXP 302235Z AUTO 06011G17KT 10SM CLR 33/M09 A3019 RMK AO2,M
RTS,2024-08-30 22:35,-119.8764,39.6682,1539.00,89.60,12.20,5.57,60.00,6.00,0.00,30.23,M,10.00,14.00,CLR,M,M,M,M,M,M,M,M,M,M,M,M,M,M,84.23,KRTS 302235Z AUTO 06006G14KT 10SM CLR 32/M11 A3023 RMK AO2,M
MEV,2024-08-30 22:35,-119.7500,38.9963,1441.42,93.20,17.60,6.30,330.00,11.00,0.00,30.17,M,10.00,M,CLR,M,M,M,M,M,M,M,M,M,M,M,M,M,M,87.08,KMEV 302235Z AUTO 33011KT 10SM CLR 34/M08 A3017 RMK AO2,M
BAM,2024-08-30 22:35,-116.8743,40.5990,1382.36,87.80,15.80,6.90,350.00,5.00,0.00,30.21,M,10.00,M,CLR,M,M,M,M,M,M,M,M,M,M,M,M,M,M,83.07,KBAM 302235Z AUTO 35005KT 10SM CLR 31/M09 A3021 RMK AO1,M
HTH,2024-08-30 22:35,-118.6315,38.5448,1282.89,93.20,19.40,6.80,320.00,10.00,0.00,30.14,M,10.00,M,CLR,M,M,M,M,M,M,M,M,M,M,M,M,M,M,87.18,KHTH 302235Z AUTO 32010KT 10SM CLR 34/M07 A3014 RMK A01,M
TMT,2024-08-30 22:35,-117.1971,39.4643,1749.34,87.80,23.70,9.67,340.00,6.00,0.00,30.26,M,10.00,M,CLR,M,M,M,M,M,M,M,M,M,M,M,M,M,M,83.48,KTMT 302235Z AUTO 34006KT 10SM CLR 31/M05 A3026 RMK AO2 T03101046,M
10U,2024-08-30 22:35,-116.1876,41.9532,1637.00,86.00,15.80,7.31,30.00,7.00,0.00,30.27,M,10.00,12.00,CLR,M,M,M,M,M,M,M,M,M,M,M,M,M,M,81.78,K10U 302235Z AUTO 03007G12KT 10SM CLR 30/M09 A3027 RMK AO2,M
05U,2024-08-30 22:50,-116.0051,39.6042,1811.23,87.80,21.20,8.70,240.00,6.00,0.00,30.28,M,10.00,12.00,CLR,M,M,M,M,M,M,M,M,M,M,M,M,M,M,83.33,K05U 302250Z AUTO 24006G12KT 10SM CLR 31/M06 A3028 RMK A01,M
P68,2024-08-30 22:53,-116.0056,39.6014,1993.00,88.00,21.00,8.57,M,5.00,0.00,30.25,1016.50,M,14.00,M,M,M,M,M,M,M,M,M,M,M,M,M,M,M,83.46,KP68 302253Z AUTO VRB05G14KT 31/M06 A3025 RMK AO1 SLP165 T03111061,M
DRA,2024-08-30 22:53,-116.0278,36.6206,1009.00,99.00,37.00,11.72,210.00,5.00,0.00,30.06,1012.40,10.00,M,CLR,M,M,M,M,M,M,M,M,M,M,M,M,M,M,93.81,KDRA 302253Z AUTO 21005KT 10SM CLR 37/03 A3006 RMK AO2 SLP124 T03720028,M
ELY,2024-08-30 22:53,-114.8453,39.2950,1909.00,87.00,23.00,9.63,M,6.00,0.00,30.27,1016.20,10.00,15.00,CLR,M,M,M,M,M,M,M,M,M,M,M,M,M,M,82.86,KELY 302253Z AUTO VRB06G15KT 10SM CLR 31/M05 A3027 RMK AO2 SLP162 T03061050,M
VGT,2024-08-30 22:53,-115.1933,36.2111,667.00,105.00,39.00,10.59,110.00,8.00,0.00,29.96,1012.90,10.00,16.00,CLR,M,M,M,M,M,M,M,M,M,M,M,M,M,M,99.39,KVGT 302253Z 11008G16KT 10SM CLR 41/04 A2996 RMK AO2 SLP129 T04060039,M
LOL,2024-08-30 22:53,-118.5701,40.0684,1192.43,92.00,21.00,7.56,M,4.00,0.00,30.13,1016.80,10.00,M,CLR,M,M,M,M,M,M,M,M,M,M,M,M,M,M,86.40,KLOL 302253Z AUTO VRB04KT 10SM CLR 33/M06 A3013 RMK AO2 SLP168 T03331061 $,M
BVU,2024-08-30 22:55,-114.8611,35.9475,671.00,102.20,35.60,10.07,110.00,8.00,0.00,29.96,M,10.00,M,CLR,M,M,M,M,M,M,M,M,M,M,M,M,M,M,96.30,KBVU 302255Z AUTO 11008KT 10SM CLR 39/02 A2996 RMK AO2,M
CXP,2024-08-30 22:55,-119.7326,39.1923,1431.00,91.40,17.60,6.66,60.00,10.00,0.00,30.19,M,10.00,17.00,CLR,M,M,M,M,M,M,M,M,M,M,M,M,M,M,85.76,KCXP 302255Z AUTO 06010G17KT 030V090 10SM CLR 33/M08 A3019 RMK AO2,M
RNO,2024-08-30 22:55,-119.7711,39.4839,1341.00,94.00,56.00,28.01,110.00,6.00,0.00,30.16,1015.40,10.00,15.00,FEW,M,M,M,10000.00,M,M,M,M,M,M,M,M,M,M,92.36,KRNO 302255Z COR 11006G15KT 10SM FEW100 34/13 A3016 RMK AO2 SLP154 T03440133 $,M
RTS,2024-08-30 22:55,-119.8764,39.6682,1539.00,89.60,12.20,5.57,140.00,8.00,0.00,30.22,M,10.00,14.00,CLR,M,M,M,M,M,M,M,M,M,M,M,M,M,M,84.23,KRTS 302255Z AUTO 14008G14KT 10SM CLR 32/M11 A3022 RMK AO2,M
MEV,2024-08-30 22:55,-119.7500,38.9963,1441.42,93.20,17.60,6.30,40.00,7.00,0.00,30.16,M,10.00,16.00,CLR,M,M,M,M,M,M,M,M,M,M,M,M,M,M,87.08,KMEV 302255Z AUTO 04007G16KT 10SM CLR 34/M08 A3016 RMK AO2,M
BAM,2024-08-30 22:55,-116.8743,40.5990,1382.36,89.60,14.00,6.03,340.00,5.00,0.00,30.21,M,10.00,M,CLR,M,M,M,M,M,M,M,M,M,M,M,M,M,M,84.30,KBAM 302255Z AUTO 34005KT 10SM CLR 32/M10 A3021 RMK AO1,M
HTH,2024-08-30 22:55,-118.6315,38.5448,1282.89,93.20,19.40,6.80,330.00,8.00,0.00,30.13,M,10.00,M,CLR,M,M,M,M,M,M,M,M,M,M,M,M,M,M,87.18,KHTH 302255Z AUTO 33008KT 10SM CLR 34/M07 A3013 RMK A01,M
TMT,2024-08-30 22:55,-117.1971,39.4643,1749.34,88.00,23.70,9.60,30.00,8.00,0.00,30.25,M,10.00,15.00,CLR,M,M,M,M,M,M,M,M,M,M,M,M,M,M,83.63,KTMT 302255Z AUTO 03008G15KT 10SM CLR 31/M05 A3025 RMK AO2 T03121046,M
10U,2024-08-30 22:55,-116.1876,41.9532,1637.00,86.00,15.80,7.31,360.00,9.00,0.00,30.27,M,10.00,M,CLR,M,M,M,M,M,M,M,M,M,M,M,M,M,M,81.78,K10U 302255Z AUTO 36009KT 300V040 10SM CLR 30/M09 A3027 RMK AO2,M
INS,2024-08-30 22:55,-115.6733,36.5872,955.00,98.40,30.00,9.02,200.00,10.00,0.00,30.04,1011.60,10.00,M,CLR,M,M,M,M,M,M,M,M,M,M,M,M,M,M,92.27,KINS 302255Z AUTO 20010KT 10SM CLR 37/M01 A3004 RMK AO2 SLP116 T03691012,M
LSV,2024-08-30 22:55,-115.0343,36.2362,570.00,104.50,28.20,6.98,160.00,4.00,0.00,29.91,1009.70,10.00,M,CLR,M,M,M,M,M,M,M,M,M,M,M,M,M,M,97.20,KLSV 302255Z AUTO 16004KT 10SM CLR 40/M02 A2991 RMK AO2 SLP097 T04031021 $,M
EKO,2024-08-30 22:56,-115.7860,40.8242,1367.00,88.00,4.00,4.04,290.00,5.00,0.00,30.23,1019.10,10.00,M,CLR,M,M,M,M,M,M,M,M,M,M,M,M,M,M,82.86,KEKO 302256Z AUTO 29005KT 10SM CLR 31/M16 A3023 RMK AO2 SLP191 T03111156,M
HND,2024-08-30 22:56,-115.1344,35.9729,742.79,97.00,42.00,15.14,190.00,23.00,0.00,30.02,1014.80,10.00,32.00,FEW,M,M,M,6000.00,M,M,M,M,M,M,M,47.00,150.00,2024-08-30 22:42,92.68,KHND 302256Z 19023G32KT 10SM FEW060 36/06 A3002 RMK AO2 PK WND 15047/2242 SLP148 T03610056,M
TPH,2024-08-30 22:56,-117.0904,38.0505,1654.00,90.00,27.00,10.34,210.00,10.00,0.00,30.23,1015.40,10.00,20.00,CLR,M,M,M,M,M,M,M,M,M,M,M,M,M,M,85.35,KTPH 302256Z AUTO 21010G20KT 10SM CLR 32/M03 A3023 RMK AO2 SLP154 T03221028,M
LAS,2024-08-30 22:56,-115.1634,36.0719,663.00,101.00,42.00,13.41,160.00,12.00,0.00,29.98,1011.90,10.00,24.00,FEW,SCT,SCT,M,12000.00,16000.00,22000.00,M,M,M,M,M,M,M,M,96.50,KLAS 302256Z 16012G24KT 10SM FEW120 SCT160 SCT220 38/06 A2998 RMK AO2 SLP119 VIRGA DSNT N AND E AND W T03830056 $,M
NFL,2024-08-30 22:57,-118.7010,39.4166,1199.00,94.00,20.00,6.81,M,5.00,0.00,30.13,1017.00,10.00,M,FEW,M,M,M,8000.00,M,M,M,M,M,M,M,M,M,M,87.81,KNFL 302257Z VRB05KT 10SM FEW080 34/M07 A3013 RMK AO2 SLP170 T03441067,M
05U,2024-08-30 23:10,-116.0051,39.6042,1811.23,87.80,21.20,8.70,0.00,0.00,0.00,30.27,M,10.00,M,CLR,M,M,M,M,M,M,M,M,M,M,M,M,M,M,83.33,K05U 302310Z AUTO 00000KT 10SM CLR 31/M06 A3027 RMK A01,M
BVU,2024-08-30 23:15,-114.8611,35.9475,671.00,102.20,35.60,10.07,0.00,0.00,0.00,29.96,M,10.00,M,CLR,M,M,M,M,M,M,M,M,M,M,M,M,M,M,96.30,KBVU 302315Z AUTO 00000KT 10SM CLR 39/02 A2996 RMK AO2,M
CXP,2024-08-30 23:15,-119.7326,39.1923,1431.00,91.40,17.60,6.66,60.00,12.00,0.00,30.18,M,10.00,M,CLR,M,M,M,M,M,M,M,M,M,M,M,M,M,M,85.76,KCXP 302315Z AUTO 06012KT 10SM CLR 33/M08 A3018 RMK AO2,M
RTS,2024-08-30 23:15,-119.8764,39.6682,1539.00,89.60,12.20,5.57,120.00,10.00,0.00,30.22,M,10.00,M,CLR,M,M,M,M,M,M,M,M,M,M,M,M,M,M,84.23,KRTS 302315Z AUTO 12010KT 10SM CLR 32/M11 A3022 RMK AO2,M
MEV,2024-08-30 23:15,-119.7500,38.9963,1441.42,93.20,17.60,6.30,330.00,10.00,0.00,30.16,M,10.00,M,CLR,M,M,M,M,M,M,M,M,M,M,M,M,M,M,87.08,KMEV 302315Z AUTO 33010KT 10SM CLR 34/M08 A3016 RMK AO2,M
BAM,2024-08-30 23:15,-116.8743,40.5990,1382.36,89.60,14.00,6.03,340.00,5.00,0.00,30.21,M,10.00,M,CLR,M,M,M,M,M,M,M,M,M,M,M,M,M,M,84.30,KBAM 302315Z AUTO 34005KT 10SM CLR 32/M10 A3021 RMK AO1,M
HTH,2024-08-30 23:15,-118.6315,38.5448,1282.89,93.20,19.40,6.80,330.00,9.00,0.00,30.12,M,10.00,M,CLR,M,M,M,M,M,M,M,M,M,M,M,M,M,M,87.18,KHTH 302315Z AUTO 33009KT 10SM CLR 34/M07 A3012 RMK A01,M
TMT,2024-08-30 23:15,-117.1971,39.4643,1749.34,87.40,22.60,9.35,350.00,6.00,0.00,30.25,M,10.00,M,CLR,M,M,M,M,M,M,M,M,M,M,M,M,M,M,83.12,KTMT 302315Z AUTO 35006KT 10SM CLR 31/M05 A3025 RMK AO2 T03081052,M
10U,2024-08-30 23:15,-116.1876,41.9532,1637.00,86.00,15.80,7.31,330.00,9.00,0.00,30.26,M,9.00,M,CLR,M,M,M,M,M,M,M,M,M,M,M,M,M,M,81.78,K10U 302315Z AUTO 33009KT 9SM CLR 30/M09 A3026 RMK AO2,M
05U,2024-08-30 23:30,-116.0051,39.6042,1811.23,87.80,21.20,8.70,M,4.00,0.00,30.27,M,10.00,12.00,CLR,M,M,M,M,M,M,M,M,M,M,M,M,M,M,83.33,K05U 302330Z AUTO VRB04G12KT 10SM CLR 31/M06 A3027 RMK A01,M
LAS,2024-08-30 23:34,-115.1634,36.0719,663.00,101.00,42.00,13.41,170.00,7.00,0.00,29.98,M,10.00,M,FEW,SCT,SCT,M,12000.00,16000.00,22000.00,M,M,M,M,M,M,M,M,96.50,KLAS 302334Z 17007KT 10SM FEW120 SCT160 SCT220 38/06 A2998 RMK AO2 VIRGA DSNT N AND E AND W T03830056 $,M
BVU,2024-08-30 23:35,-114.8611,35.9475,671.00,102.20,35.60,10.07,M,6.00,0.00,29.95,M,10.00,M,CLR,M,M,M,M,M,M,M,M,M,M,M,M,M,M,96.30,KBVU 302335Z AUTO VRB06KT 10SM CLR 39/02 A2995 RMK AO2,M
CXP,2024-08-30 23:35,-119.7326,39.1923,1431.00,91.40,17.60,6.66,80.00,9.00,0.00,30.18,M,10.00,15.00,CLR,M,M,M,M,M,M,M,M,M,M,M,M,M,M,85.76,KCXP 302335Z AUTO 08009G15KT 10SM CLR 33/M08 A3018 RMK AO2,M
RTS,2024-08-30 23:35,-119.8764,39.6682,1539.00,89.60,14.00,6.03,M,5.00,0.00,30.21,M,10.00,10.00,CLR,M,M,M,M,M,M,M,M,M,M,M,M,M,M,84.30,KRTS 302335Z AUTO VRB05G10KT 10SM CLR 32/M10 A3021 RMK AO2,M
MEV,2024-08-30 23:35,-119.7500,38.9963,1441.42,93.20,17.60,6.30,290.00,7.00,0.00,30.15,M,10.00,M,CLR,M,M,M,M,M,M,M,M,M,M,M,M,M,M,87.08,KMEV 302335Z AUTO 29007KT 250V310 10SM CLR 34/M08 A3015 RMK AO2,M
BAM,2024-08-30 23:35,-116.8743,40.5990,1382.36,89.60,14.00,6.03,340.00,7.00,0.00,30.20,M,10.00,M,CLR,M,M,M,M,M,M,M,M,M,M,M,M,M,M,84.30,KBAM 302335Z AUTO 34007KT 10SM CLR 32/M10 A3020 RMK AO1,M
HTH,2024-08-30 23:35,-118.6315,38.5448,1282.89,93.20,19.40,6.80,320.00,9.00,0.00,30.12,M,10.00,M,CLR,M,M,M,M,M,M,M,M,M,M,M,M,M,M,87.18,KHTH 302335Z AUTO 32009KT 10SM CLR 34/M07 A3012 RMK A01,M
TMT,2024-08-30 23:35,-117.1971,39.4643,1749.34,87.80,24.80,10.12,10.00,6.00,0.00,30.25,M,10.00,10.00,CLR,M,M,M,M,M,M,M,M,M,M,M,M,M,M,83.56,KTMT 302335Z AUTO 01006G10KT 10SM CLR 31/M04 A3025 RMK AO2 T03101040,M
10U,2024-08-30 23:35,-116.1876,41.9532,1637.00,86.00,15.80,7.31,350.00,7.00,0.00,30.26,M,9.00,M,CLR,M,M,M,M,M,M,M,M,M,M,M,M,M,M,81.78,K10U 302335Z AUTO 35007KT 310V030 9SM CLR 30/M09 A3026 RMK AO2,M
LSV,2024-08-30 23:43,-115.0343,36.2362,570.00,105.80,28.40,6.77,170.00,14.00,0.00,29.90,1009.40,10.00,M,CLR,M,M,M,M,M,M,M,M,M,M,M,M,M,M,98.33,KLSV 302343Z AUTO 17014KT 10SM CLR 41/M02 A2990 RMK AO2 WSHFT 38 SLP094 $,M
05U,2024-08-30 23:50,-116.0051,39.6042,1811.23,87.80,21.20,8.70,20.00,12.00,0.00,30.26,M,10.00,M,CLR,M,M,M,M,M,M,M,M,M,M,M,M,M,M,83.33,K05U 302350Z AUTO 02012KT 10SM CLR 31/M06 A3026 RMK A01,M
P68,2024-08-30 23:53,-116.0056,39.6014,1993.00,88.00,22.00,8.94,20.00,13.00,0.00,30.23,1016.70,M,M,M,M,M,M,M,M,M,M,M,M,M,M,M,M,M,83.52,KP68 302353Z AUTO 02013KT 31/M06 A3023 RMK AO1 WSHFT 2335 SLP167 T03111056 10322 20244 56008,M
DRA,2024-08-30 23:53,-116.0278,36.6206,1009.00,96.00,37.00,12.85,220.00,9.00,0.00,30.05,1012.20,10.00,M,CLR,M,M,M,M,M,M,M,M,M,M,M,M,M,M,91.31,KDRA 302353Z AUTO 22009KT 10SM CLR 36/03 A3005 RMK AO2 SLP122 T03560028 10389 20350 56014,M
ELY,2024-08-30 23:53,-114.8453,39.2950,1909.00,86.00,22.00,9.53,M,4.00,0.00,30.26,1015.80,10.00,M,CLR,M,M,M,M,M,M,M,M,M,M,M,M,M,M,82.08,KELY 302353Z AUTO VRB04KT 10SM CLR 30/M06 A3026 RMK AO2 SLP158 T03001056 10317 20239 56014,M
VGT,2024-08-30 23:53,-115.1933,36.2111,667.00,103.00,40.00,11.69,180.00,12.00,0.00,29.95,1012.90,10.00,21.00,CLR,M,M,M,M,M,M,M,M,M,M,M,26.00,150.00,2024-08-30 23:16,97.86,KVGT 302353Z 18012G21KT 10SM CLR 39/04 A2995 RMK AO2 PK WND 15026/2316 SLP129 T03940044 10411 20361 56015,M
LOL,2024-08-30 23:53,-118.5701,40.0684,1192.43,93.00,22.00,7.64,130.00,6.00,0.00,30.12,1016.50,10.00,M,CLR,M,M,M,M,M,M,M,M,M,M,M,M,M,M,87.20,KLOL 302353Z AUTO 13006KT 10SM CLR 34/M06 A3012 RMK AO2 SLP165 T03391056 10344 20272 56018,M
BVU,2024-08-30 23:55,-114.8611,35.9475,671.00,102.20,35.60,10.07,0.00,0.00,0.00,29.95,M,10.00,13.00,CLR,M,M,M,M,M,M,M,M,M,M,M,M,M,M,96.30,KBVU 302355Z AUTO 00000G13KT 10SM CLR 39/02 A2995 RMK AO2,M
RNO,2024-08-30 23:55,-119.7711,39.4839,1341.00,93.00,56.00,28.90,0.00,0.00,0.00,30.14,1014.80,10.00,M,FEW,M,M,M,10000.00,M,M,M,M,M,M,M,M,M,M,91.32,KRNO 302355Z COR 00000KT 10SM FEW100 34/13 A3014 RMK AO2 SLP148 T03390133 10350 20256 56017 $,M
BAM,2024-08-30 23:55,-116.8743,40.5990,1382.36,89.60,10.40,5.14,330.00,7.00,0.00,30.20,M,10.00,M,CLR,M,M,M,M,M,M,M,M,M,M,M,M,M,M,84.17,KBAM 302355Z AUTO 33007KT 10SM CLR 32/M12 A3020 RMK AO1,M
CXP,2024-08-30 23:55,-119.7326,39.1923,1431.00,91.40,19.40,7.19,70.00,10.00,0.00,30.17,M,10.00,M,CLR,M,M,M,M,M,M,M,M,M,M,M,M,M,M,85.86,KCXP 302355Z AUTO 07010KT 10SM CLR 33/M07 A3017 RMK AO2,M
RTS,2024-08-30 23:55,-119.8764,39.6682,1539.00,89.60,14.00,6.03,140.00,7.00,0.00,30.21,M,10.00,M,CLR,M,M,M,M,M,M,M,M,M,M,M,M,M,M,84.30,KRTS 302355Z AUTO 14007KT 10SM CLR 32/M10 A3021 RMK AO2,M
MEV,2024-08-30 23:55,-119.7500,38.9963,1441.42,93.20,17.60,6.30,310.00,10.00,0.00,30.15,M,10.00,18.00,CLR,M,M,M,M,M,M,M,M,M,M,M,M,M,M,87.08,KMEV 302355Z AUTO 31010G18KT 10SM CLR 34/M08 A3015 RMK AO2,M
HTH,2024-08-30 23:55,-118.6315,38.5448,1282.89,93.20,19.40,6.80,330.00,7.00,0.00,30.11,M,10.00,M,CLR,M,M,M,M,M,M,M,M,M,M,M,M,M,M,87.18,KHTH 302355Z AUTO 33007KT 10SM CLR 34/M07 A3011 RMK A01,M
TMT,2024-08-30 23:55,-117.1971,39.4643,1749.34,87.30,23.40,9.70,350.00,12.00,0.00,30.25,M,10.00,16.00,CLR,M,M,M,M,M,M,M,M,M,M,M,M,M,M,83.10,KTMT 302355Z AUTO 35012G16KT 10SM CLR 31/M05 A3025 RMK AO2 T03071048 10315 20238,M
10U,2024-08-30 23:55,-116.1876,41.9532,1637.00,84.20,14.00,7.16,330.00,6.00,0.00,30.26,M,10.00,M,CLR,M,M,M,M,M,M,M,M,M,M,M,M,M,M,80.44,K10U 302355Z AUTO 33006KT 10SM CLR 29/M10 A3026 RMK AO2,M
INS,2024-08-30 23:55,-115.6733,36.5872,955.00,98.00,29.50,8.95,130.00,3.00,0.00,30.03,1011.30,10.00,M,BKN,OVC,M,M,13000.00,15000.00,M,M,M,M,M,M,M,M,M,91.87,KINS 302355Z AUTO 13003KT 10SM BKN130 OVC150 37/M01 A3003 RMK AO2 SLP113 T03671014 10382 20342 57010,M
LSV,2024-08-30 23:55,-115.0343,36.2362,570.00,104.50,31.50,7.98,190.00,18.00,0.00,29.89,1009.10,10.00,M,CLR,M,M,M,M,M,M,M,M,M,M,M,M,M,M,97.63,KLSV 302355Z AUTO 19018KT 10SM CLR 40/M00 A2989 RMK AO2 SLP091 T04031003 10407 20367 57020 $,M
EKO,2024-08-30 23:56,-115.7860,40.8242,1367.00,88.00,8.00,4.85,M,6.00,0.00,30.21,1018.80,10.00,M,CLR,M,M,M,M,M,M,M,M,M,M,M,M,M,M,82.95,KEKO 302356Z AUTO VRB06KT 10SM CLR 31/M13 A3021 RMK AO2 SLP188 T03111133 10317 20233 56014,M
HND,2024-08-30 23:56,-115.1344,35.9729,742.79,99.00,41.00,13.70,120.00,5.00,0.00,30.01,1014.50,10.00,M,CLR,M,M,M,M,M,M,M,M,M,M,M,35.00,210.00,2024-08-30 22:57,94.47,KHND 302356Z 12005KT 10SM CLR 37/05 A3001 RMK AO2 PK WND 21035/2257 SLP145 T03720050 10394 20344 56011,M
TPH,2024-08-30 23:56,-117.0904,38.0505,1654.00,89.00,26.00,10.24,100.00,4.00,0.00,30.22,1015.20,10.00,M,CLR,M,M,M,M,M,M,M,M,M,M,M,M,M,M,84.52,KTPH 302356Z AUTO 10004KT 10SM CLR 32/M03 A3022 RMK AO2 SLP152 T03171033 10333 20278 56015,M
LAS,2024-08-30 23:56,-115.1634,36.0719,663.00,96.00,42.00,15.61,M,3.00,0.00,29.97,1012.00,10.00,M,FEW,SCT,SCT,M,12000.00,16000.00,22000.00,M,M,M,M,M,M,M,M,91.73,KLAS 302356Z VRB03KT 10SM FEW120 SCT160 SCT220 36/05 A2997 RMK AO2 SLP120 T03560056 10383 20333 56013 $,M
NFL,2024-08-30 23:57,-118.7010,39.4166,1199.00,94.00,21.00,7.10,50.00,7.00,0.00,30.12,1016.40,10.00,M,FEW,M,M,M,8000.00,M,M,M,M,M,M,M,M,M,M,87.87,KNFL 302357Z 05007KT 10SM FEW080 34/M06 A3012 RMK AO2 SLP164 T03441061 10350 20261 56019,M
