station,valid,lon,lat,elevation,tmpf,dwpf,relh,drct,sknt,p01i,alti,mslp,vsby,gust,skyc1,skyc2,skyc3,skyc4,skyl1,skyl2,skyl3,skyl4,wxcodes,ice_accretion_1hr,ice_accretion_3hr,ice_accretion_6hr,peak_wind_gust,peak_wind_drct,peak_wind_time,feel,metar,snowdepth
TPH,2023-08-21 00:04,-117.0904,38.0505,1654.00,57.00,56.00,96.45,20.00,11.00,T,30.02,M,1.75,M,OVC,M,M,M,3800.00,M,M,M,RA BR,M,M,M,M,M,M,57.00,KTPH 210004Z AUTO 02011KT 1 3/4SM RA BR OVC038 14/13 A3002 RMK AO2 P0000 T01390133 $,M
INS,2023-08-21 00:05,-115.6733,36.5872,955.00,71.60,64.40,78.04,40.00,8.00,0.00,29.82,1005.90,10.00,M,BKN,BKN,OVC,M,2200.00,3000.00,7000.00,M,M,M,M,M,M,M,M,71.60,KINS 210005Z AUTO 04008KT 10SM BKN022 BKN030 OVC070 22/18 A2982 RMK AO2 SLP059 $,M
LSV,2023-08-21 00:05,-115.0343,36.2362,570.00,78.80,66.20,65.33,50.00,11.00,0.00,29.72,1004.60,10.00,M,FEW,M,M,M,19000.00,M,M,M,-RA,M,M,M,M,M,M,78.80,KLSV 210005Z AUTO 05011KT 10SM -RA FEW190 26/19 A2972 RMK AO2 RAB05 SLP046 $,M
TPH,2023-08-21 00:08,-117.0904,38.0505,1654.00,58.00,56.00,93.04,10.00,11.00,T,30.02,M,3.00,M,OVC,M,M,M,3800.00,M,M,M,-RA BR,M,M,M,M,M,M,58.00,KTPH 210008Z AUTO 01011KT 3SM -RA BR OVC038 14/13 A3002 RMK AO2 P0000 T01440133 $,M
LSV,2023-08-21 00:10,-115.0343,36.2362,570.00,78.80,66.20,65.33,40.00,12.00,0.00,29.72,1004.60,10.00,M,FEW,FEW,M,M,9000.00,19000.00,M,M,M,M,M,M,M,M,M,78.80,KLSV 210010Z AUTO 04012KT 10SM FEW090 FEW190 26/19 A2972 RMK AO2 RAB05E10 SLP046 $,M
EKO,2023-08-21 00:14,-115.7860,40.8242,1367.00,62.00,60.00,93.15,50.00,5.00,T,30.03,M,10.00,M,FEW,BKN,OVC,M,800.00,5500.00,8000.00,M,M,M,M,M,M,M,M,62.00,KEKO 210014Z AUTO 05005KT 10SM FEW008 BKN055 OVC080 17/16 A3003 RMK AO2 RAE07 P0000 T01670156,M
BVU,2023-08-21 00:15,-114.8611,35.9475,671.00,75.20,66.20,73.61,M,M,0.00,29.76,M,9.00,M,FEW,SCT,BKN,M,2700.00,7500.00,9500.00,M,M,M,M,M,M,M,M,75.20,KBVU 210015Z AUTO 8/12500008KT 9SM FEW027 SCT075 BKN095 24/19 A2976 RMK AO2,M
CXP,2023-08-21 00:15,-119.7326,39.1923,1431.00,66.20,53.60,63.82,70.00,13.00,0.00,29.96,M,10.00,M,SCT,M,M,M,5500.00,M,M,M,M,M,M,M,M,M,M,66.20,KCXP 210015Z AUTO 07013KT 10SM SCT055 19/12 A2996 RMK AO2,M
RTS,2023-08-21 00:15,-119.8764,39.6682,1539.00,66.20,50.00,55.88,110.00,11.00,0.00,29.98,M,10.00,19.00,BKN,M,M,M,4700.00,M,M,M,M,M,M,M,M,M,M,66.20,KRTS 210015Z AUTO 11011G19KT 10SM BKN047 19/10 A2998 RMK AO2,M
05U,2023-08-21 00:15,-116.0051,39.6042,1811.23,57.20,57.20,100.00,M,M,0.00,30.08,M,6.00,M,M,M,M,M,M,M,M,M,BR,M,M,M,M,M,M,57.20,K05U 210015Z AUTO 6SM BR 14/14 A3008 RMK A01,M
MEV,2023-08-21 00:15,-119.7500,38.9963,1441.42,68.00,51.80,56.13,0.00,0.00,0.00,29.95,M,10.00,M,BKN,OVC,M,M,5000.00,5500.00,M,M,M,M,M,M,M,M,M,68.00,KMEV 210015Z AUTO 00000KT 10SM BKN050 OVC055 20/11 A2995 RMK AO2,M
HTH,2023-08-21 00:15,-118.6315,38.5448,1282.89,66.20,59.00,77.60,100.00,3.00,0.00,29.97,M,10.00,M,FEW,BKN,M,M,6500.00,9000.00,M,M,M,M,M,M,M,M,M,66.20,KHTH 210015Z AUTO 10003KT 10SM FEW065 BKN090 19/15 A2997 RMK A01,M
BAM,2023-08-21 00:15,-116.8743,40.5990,1382.36,68.00,60.80,77.75,20.00,4.00,0.00,30.03,M,10.00,M,SCT,BKN,OVC,M,3400.00,4800.00,9000.00,M,M,M,M,M,M,M,M,68.00,KBAM 210015Z AUTO 02004KT 10SM SCT034 BKN048 OVC090 20/16 A3003 RMK AO1,M
TMT,2023-08-21 00:15,-117.1971,39.4643,1749.34,58.60,53.00,81.62,160.00,3.00,0.00,30.09,M,M,M,SCT,OVC,M,M,7000.00,8000.00,M,M,M,M,M,M,M,M,M,58.60,KTMT 210015Z AUTO 16003KT SCT070 OVC080 15/12 A3009 RMK AO2 T01480116 PWINO,M
LSV,2023-08-21 00:28,-115.0343,36.2362,570.00,77.00,66.20,69.33,40.00,12.00,0.00,29.73,1004.90,10.00,20.00,SCT,M,M,M,8000.00,M,M,M,M,M,M,M,M,M,M,77.00,KLSV 210028Z AUTO 04012G20KT 10SM SCT080 25/19 A2973 RMK AO2 WSHFT 18 RAB05E10 SLP049 $,M
INS,2023-08-21 00:30,-115.6733,36.5872,955.00,73.40,64.40,73.44,60.00,7.00,0.00,29.81,1005.60,10.00,M,SCT,OVC,M,M,2600.00,6000.00,M,M,M,M,M,M,M,M,M,73.40,KINS 210030Z AUTO 06007KT 10SM SCT026 OVC060 23/18 A2981 RMK AO2 SLP056 $,M
05U,2023-08-21 00:30,-116.0051,39.6042,1811.23,59.00,57.20,93.74,M,M,0.00,30.08,M,1.25,M,M,M,M,M,M,M,M,M,BR,M,M,M,M,M,M,59.00,K05U 210030Z AUTO 1 1/4SM BR 15/14 A3008 RMK A01,M
INS,2023-08-21 00:34,-115.6733,36.5872,955.00,73.40,62.60,68.94,60.00,7.00,0.00,29.80,1005.20,10.00,M,SCT,BKN,OVC,M,2600.00,5500.00,7000.00,M,-RA,M,M,M,M,M,M,73.40,KINS 210034Z AUTO 06007KT 10SM -RA SCT026 BKN055 OVC070 23/17 A2980 RMK AO2 RAB34 SLP052 $,M
BVU,2023-08-21 00:35,-114.8611,35.9475,671.00,77.00,66.20,69.33,20.00,8.00,0.00,29.75,M,10.00,M,FEW,FEW,M,M,7500.00,10000.00,M,M,M,M,M,M,M,M,M,77.00,KBVU 210035Z AUTO 02008KT 10SM FEW075 FEW100 25/19 A2975 RMK AO2,M
CXP,2023-08-21 00:35,-119.7326,39.1923,1431.00,66.20,53.60,63.82,60.00,11.00,0.00,29.96,M,10.00,M,BKN,BKN,M,M,4900.00,5500.00,M,M,M,M,M,M,M,M,M,66.20,KCXP 210035Z AUTO 06011KT 10SM BKN049 BKN055 19/12 A2996 RMK AO2,M
RTS,2023-08-21 00:35,-119.8764,39.6682,1539.00,66.20,50.00,55.88,110.00,12.00,0.00,29.98,M,10.00,M,SCT,BKN,M,M,4300.00,4900.00,M,M,M,M,M,M,M,M,M,66.20,KRTS 210035Z AUTO 11012KT 10SM SCT043 BKN049 19/10 A2998 RMK AO2,M
MEV,2023-08-21 00:35,-119.7500,38.9963,1441.42,68.00,53.60,59.97,0.00,0.00,0.00,29.95,M,10.00,M,SCT,BKN,M,M,5000.00,5500.00,M,M,M,M,M,M,M,M,M,68.00,KMEV 210035Z AUTO 00000KT 10SM SCT050 BKN055 20/12 A2995 RMK AO2,M
BAM,2023-08-21 00:35,-116.8743,40.5990,1382.36,68.00,62.60,82.86,40.00,4.00,0.00,30.01,M,10.00,M,SCT,BKN,OVC,M,3500.00,4800.00,9000.00,M,M,M,M,M,M,M,M,68.00,KBAM 210035Z AUTO 04004KT 10SM SCT035 BKN048 OVC090 20/17 A3001 RMK AO1,M
HTH,2023-08-21 00:35,-118.6315,38.5448,1282.89,66.20,59.00,77.60,150.00,3.00,0.00,29.98,M,7.00,M,FEW,SCT,BKN,M,4500.00,6000.00,7000.00,M,M,M,M,M,M,M,M,66.20,KHTH 210035Z AUTO 15003KT 7SM FEW045 SCT060 BKN070 19/15 A2998 RMK A01,M
TMT,2023-08-21 00:35,-117.1971,39.4643,1749.34,57.20,55.00,92.34,0.00,0.00,0.05,30.07,M,M,M,M,M,M,M,M,M,M,M,M,M,M,M,M,M,M,57.20,KTMT 210035Z AUTO 00000KT 14/13 A3007 RMK AO2 P0005 T01400127 PWINO,M
EKO,2023-08-21 00:36,-115.7860,40.8242,1367.00,63.00,60.00,89.93,90.00,3.00,T,30.04,M,10.00,M,BKN,BKN,OVC,M,2500.00,5500.00,8000.00,M,M,M,M,M,M,M,M,63.00,KEKO 210036Z AUTO 09003KT 10SM BKN025 BKN055 OVC080 17/16 A3004 RMK AO2 RAE07 P0000 T01720156,M
HND,2023-08-21 00:49,-115.1344,35.9729,742.79,M,M,M,340.00,5.00,0.00,29.79,M,10.00,M,SCT,BKN,M,M,2500.00,8000.00,M,M,M,M,M,M,M,M,M,M,KHND 210049Z 34005KT 10SM SCT025 BKN080 A2979,M
P68,2023-08-21 00:53,-116.0056,39.6014,1993.00,58.00,57.00,96.46,350.00,8.00,0.09,30.05,1011.80,M,M,M,M,M,M,M,M,M,M,M,M,M,M,M,M,M,58.00,KP68 210053Z AUTO 35008KT 14/14 A3005 RMK AO1 SLP118 P0009 T01440139,M
DRA,2023-08-21 00:53,-116.0278,36.6206,1009.00,74.00,65.00,73.50,80.00,5.00,0.00,29.78,1004.50,10.00,M,SCT,BKN,M,M,8500.00,11000.00,M,M,M,M,M,M,M,M,M,74.00,KDRA 210053Z AUTO 08005KT 10SM SCT085 BKN110 23/18 A2978 RMK AO2 SLP045 T02330183 $,M
ELY,2023-08-21 00:53,-114.8453,39.2950,1909.00,60.00,57.00,89.80,190.00,11.00,0.04,30.11,1012.00,10.00,M,FEW,FEW,OVC,M,4000.00,7500.00,10000.00,M,-RA,M,M,M,M,M,M,60.00,KELY 210053Z AUTO 19011KT 10SM -RA FEW040 FEW075 OVC100 16/14 A3011 RMK AO2 SLP120 P0004 T01560139,M
VGT,2023-08-21 00:53,-115.1933,36.2111,667.00,78.00,66.00,66.61,200.00,9.00,T,29.75,1007.10,10.00,M,FEW,SCT,M,M,6500.00,8000.00,M,M,M,M,M,M,M,M,M,78.00,KVGT 210053Z 20009KT 10SM FEW065 SCT080 26/19 A2975 RMK AO2 RAB2357E22 SLP071 P0000 T02560189,M
LOL,2023-08-21 00:53,-118.5701,40.0684,1192.43,70.00,55.00,58.94,0.00,0.00,T,29.94,1010.90,10.00,M,BKN,M,M,M,3800.00,M,M,M,M,M,M,M,M,M,M,70.00,KLOL 210053Z AUTO 00000KT 10SM BKN038 21/13 A2994 RMK AO2 RAB27E40 SLP109 P0000 T02110128,M
EKO,2023-08-21 00:54,-115.7860,40.8242,1367.00,62.60,60.80,93.83,0.00,0.00,M,30.03,M,8.00,M,SCT,BKN,OVC,M,2500.00,5000.00,6000.00,M,-RA,M,M,M,M,M,M,62.60,SPECI KEKO 210054Z 00000KT 8SM -RA SCT025 BKN050 OVC060 17/16 A3003 RMK AO2 RAE07B49 P0001 FIBI,M
INS,2023-08-21 00:54,-115.6733,36.5872,955.00,73.40,64.40,73.44,110.00,4.00,0.00,29.80,1005.20,10.00,M,FEW,FEW,OVC,M,2500.00,4100.00,6000.00,M,M,M,M,M,M,M,M,73.40,KINS 210054Z AUTO 11004KT 10SM FEW025 FEW041 OVC060 23/18 A2980 RMK AO2 RAB34E45DZB45E54 SLP052 $,M
BVU,2023-08-21 00:55,-114.8611,35.9475,671.00,77.00,66.20,69.33,20.00,8.00,0.00,29.75,M,10.00,M,FEW,M,M,M,9000.00,M,M,M,M,M,M,M,M,M,M,77.00,KBVU 210055Z AUTO 02008KT 10SM FEW090 25/19 A2975 RMK AO2,M
CXP,2023-08-21 00:55,-119.7326,39.1923,1431.00,66.20,53.60,63.82,60.00,11.00,0.00,29.96,M,10.00,M,SCT,SCT,M,M,4900.00,8500.00,M,M,M,M,M,M,M,M,M,66.20,KCXP 210055Z AUTO 06011KT 10SM SCT049 SCT085 19/12 A2996 RMK AO2,M
RNO,2023-08-21 00:55,-119.7711,39.4839,1341.00,69.00,53.00,56.69,110.00,11.00,0.00,29.93,1008.80,10.00,M,BKN,OVC,M,M,4800.00,11000.00,M,M,M,M,M,M,M,M,M,69.00,KRNO 210055Z 11011KT 10SM BKN048 OVC110 21/12 A2993 RMK AO2 SLP088 VIRGA T02060117,M
RTS,2023-08-21 00:55,-119.8764,39.6682,1539.00,64.40,50.00,59.50,110.00,14.00,0.00,29.97,M,10.00,M,BKN,M,M,M,4400.00,M,M,M,M,M,M,M,M,M,M,64.40,KRTS 210055Z AUTO 11014KT 10SM BKN044 18/10 A2997 RMK AO2,M
05U,2023-08-21 00:55,-116.0051,39.6042,1811.23,59.00,57.20,93.74,M,M,0.09,30.08,M,6.00,M,M,M,M,M,M,M,M,M,BR,M,M,M,M,M,M,59.00,K05U 210055Z AUTO 6SM BR 15/14 A3008 RMK A01 P0009,M
MEV,2023-08-21 00:55,-119.7500,38.9963,1441.42,66.20,51.80,59.74,0.00,0.00,0.00,29.95,M,10.00,M,FEW,SCT,M,M,4800.00,5500.00,M,M,M,M,M,M,M,M,M,66.20,KMEV 210055Z AUTO 00000KT 10SM FEW048 SCT055 19/11 A2995 RMK AO2,M
HTH,2023-08-21 00:55,-118.6315,38.5448,1282.89,66.20,59.00,77.60,60.00,3.00,0.01,29.98,M,5.00,M,FEW,FEW,SCT,M,6000.00,7000.00,9000.00,M,HZ,M,M,M,M,M,M,66.20,KHTH 210055Z AUTO 06003KT 5SM HZ FEW060 FEW070 SCT090 19/15 A2998 RMK A01 P0001,M
BAM,2023-08-21 00:55,-116.8743,40.5990,1382.36,68.00,60.80,77.75,70.00,6.00,0.00,30.01,M,10.00,M,SCT,SCT,SCT,M,3300.00,4300.00,5000.00,M,M,M,M,M,M,M,M,68.00,KBAM 210055Z AUTO 07006KT 10SM SCT033 SCT043 SCT050 20/16 A3001 RMK AO1,M
TMT,2023-08-21 00:55,-117.1971,39.4643,1749.34,57.20,52.70,84.89,0.00,0.00,0.06,30.05,M,M,M,M,M,M,M,M,M,M,M,M,M,M,M,M,M,M,57.20,KTMT 210055Z AUTO 00000KT 14/12 A3005 RMK AO2 P0006 T01400115 PWINO,M
INS,2023-08-21 00:55,-115.6733,36.5872,955.00,73.00,64.00,73.40,110.00,5.00,T,29.80,1005.20,10.00,M,FEW,FEW,OVC,M,2500.00,4100.00,5500.00,M,M,M,M,M,M,M,M,73.00,KINS 210055Z AUTO 11005KT 10SM FEW025 FEW041 OVC055 23/18 A2980 RMK AO2 RAB34E45DZB45E54 SLP052 P0000 T02270178 $,M
LSV,2023-08-21 00:55,-115.0343,36.2362,570.00,77.00,67.30,72.02,30.00,21.00,T,29.69,1003.50,10.00,M,OVC,FEW,M,M,9000.00,19000.00,M,M,M,M,M,M,M,M,M,77.00,KLSV 210055Z COR AUTO 03021KT 10SM OVC090 25/20 A2969 RMK AO2 RAB05E10 PRESFR SLP035 P0000 T02500196 $ COR 0057,M
EKO,2023-08-21 00:56,-115.7860,40.8242,1367.00,63.00,60.00,89.93,0.00,0.00,0.01,30.04,1013.30,8.00,M,SCT,OVC,M,M,2500.00,5000.00,M,M,-RA,M,M,M,M,M,M,63.00,KEKO 210056Z AUTO 00000KT 8SM -RA SCT025 OVC050 17/16 A3004 RMK AO2 RAE07B49 SLP133 P0001 T01720156,M
WMC,2023-08-21 00:56,-117.8072,40.9019,1315.00,70.00,52.00,52.80,170.00,9.00,T,29.96,1010.80,10.00,M,FEW,FEW,BKN,M,5000.00,7500.00,12000.00,M,M,M,M,M,M,M,M,70.00,KWMC 210056Z AUTO 17009KT 10SM FEW050 FEW075 BKN120 21/11 A2996 RMK AO2 RAB24E38 SLP108 P0000 T02110111,M
NFL,2023-08-21 00:56,-118.7010,39.4166,1199.00,67.00,56.00,67.75,130.00,8.00,0.00,29.92,1010.60,10.00,M,BKN,M,M,M,11000.00,M,M,M,M,M,M,M,M,M,M,67.00,KNFL 210056Z AUTO 13008KT 10SM BKN110 19/13 A2992 RMK AO2 SLP106 T01940133,M
HND,2023-08-21 00:56,-115.1344,35.9729,742.79,M,M,M,M,M,0.00,M,M,M,M,M,M,M,M,M,M,M,M,M,M,M,M,M,M,M,M,KHND 210056Z AUTO RMK AO2 SLPNO PWINO FZRANO $,M
TPH,2023-08-21 00:56,-117.0904,38.0505,1654.00,58.00,56.00,93.04,350.00,11.00,T,30.00,1011.20,10.00,M,BKN,OVC,M,M,3900.00,5000.00,M,M,M,M,M,M,M,M,M,58.00,KTPH 210056Z AUTO 35011KT 10SM BKN039 OVC050 14/13 A3000 RMK AO2 RAE43 SLP112 P0000 T01440133 $,M
LAS,2023-08-21 00:56,-115.1634,36.0719,663.00,76.00,66.00,71.18,240.00,3.00,0.01,29.76,1005.70,10.00,M,FEW,BKN,OVC,M,3500.00,8000.00,13000.00,M,M,M,M,M,M,M,M,76.00,KLAS 210056Z 24003KT 10SM FEW035 BKN080 OVC130 24/19 A2976 RMK AO2 RAB2357E14 SLP057 SH DSNT SW-NW P0001 T02440189,M
05U,2023-08-21 01:10,-116.0051,39.6042,1811.23,59.00,57.20,93.74,M,M,0.00,30.08,M,7.00,M,M,M,M,M,M,M,M,M,M,M,M,M,M,M,M,59.00,K05U 210110Z AUTO 7SM 15/14 A3008 RMK A01,M
BVU,2023-08-21 01:15,-114.8611,35.9475,671.00,77.00,66.20,69.33,20.00,6.00,0.00,29.74,M,10.00,M,FEW,FEW,M,M,9000.00,11000.00,M,M,M,M,M,M,M,M,M,77.00,KBVU 210115Z AUTO 02006KT 10SM FEW090 FEW110 25/19 A2974 RMK AO2,M
CXP,2023-08-21 01:15,-119.7326,39.1923,1431.00,66.20,53.60,63.82,70.00,9.00,0.00,29.96,M,10.00,M,SCT,M,M,M,9000.00,M,M,M,M,M,M,M,M,M,M,66.20,KCXP 210115Z AUTO 07009KT 10SM SCT090 19/12 A2996 RMK AO2,M
RTS,2023-08-21 01:15,-119.8764,39.6682,1539.00,64.40,51.80,63.60,110.00,12.00,0.00,29.97,M,10.00,M,BKN,M,M,M,4400.00,M,M,M,M,M,M,M,M,M,M,64.40,KRTS 210115Z AUTO 11012KT 10SM BKN044 18/11 A2997 RMK AO2,M
MEV,2023-08-21 01:15,-119.7500,38.9963,1441.42,66.20,53.60,63.82,0.00,0.00,0.00,29.95,M,10.00,M,CLR,M,M,M,M,M,M,M,M,M,M,M,M,M,M,66.20,KMEV 210115Z AUTO 00000KT 10SM CLR 19/12 A2995 RMK AO2,M
HTH,2023-08-21 01:15,-118.6315,38.5448,1282.89,66.20,59.00,77.60,50.00,5.00,0.00,29.95,M,10.00,M,FEW,M,M,M,9000.00,M,M,M,M,M,M,M,M,M,M,66.20,KHTH 210115Z AUTO 05005KT 10SM FEW090 19/15 A2995 RMK A01,M
BAM,2023-08-21 01:15,-116.8743,40.5990,1382.36,68.00,60.80,77.75,70.00,4.00,0.00,30.01,M,10.00,M,BKN,M,M,M,11000.00,M,M,M,M,M,M,M,M,M,M,68.00,KBAM 210115Z AUTO 07004KT 10SM BKN110 20/16 A3001 RMK AO1,M
TMT,2023-08-21 01:15,-117.1971,39.4643,1749.34,57.40,53.20,85.84,0.00,0.00,0.00,30.08,M,M,M,BKN,OVC,M,M,3400.00,8000.00,M,M,M,M,M,M,M,M,M,57.40,KTMT 210115Z AUTO 00000KT BKN034 OVC080 14/12 A3008 RMK AO2 T01410118 PWINO,M
EKO,2023-08-21 01:30,-115.7860,40.8242,1367.00,62.00,60.00,93.15,240.00,3.00,0.03,30.03,M,1.75,M,FEW,SCT,OVC,M,2800.00,4700.00,5500.00,M,RA BR,M,M,M,M,M,M,62.00,KEKO 210130Z AUTO 24003KT 1 3/4SM RA BR FEW028 SCT047 OVC055 17/16 A3003 RMK AO2 P0003 T01670156,M
BVU,2023-08-21 01:35,-114.8611,35.9475,671.00,77.00,66.20,69.33,40.00,7.00,0.00,29.73,M,10.00,M,SCT,SCT,BKN,M,7000.00,10000.00,12000.00,M,M,M,M,M,M,M,M,77.00,KBVU 210135Z AUTO 04007KT 10SM SCT070 SCT100 BKN120 25/19 A2973 RMK AO2,M
CXP,2023-08-21 01:35,-119.7326,39.1923,1431.00,66.20,53.60,63.82,70.00,10.00,0.00,29.96,M,10.00,M,SCT,M,M,M,8500.00,M,M,M,M,M,M,M,M,M,M,66.20,KCXP 210135Z AUTO 07010KT 10SM SCT085 19/12 A2996 RMK AO2,M
RTS,2023-08-21 01:35,-119.8764,39.6682,1539.00,64.40,51.80,63.60,100.00,14.00,0.00,29.96,M,10.00,M,BKN,BKN,M,M,4400.00,9500.00,M,M,M,M,M,M,M,M,M,64.40,KRTS 210135Z AUTO 10014KT 10SM BKN044 BKN095 18/11 A2996 RMK AO2,M
05U,2023-08-21 01:35,-116.0051,39.6042,1811.23,57.20,57.20,100.00,M,M,0.00,30.08,M,10.00,M,M,M,M,M,M,M,M,M,M,M,M,M,M,M,M,57.20,K05U 210135Z AUTO 10SM 14/14 A3008 RMK A01,M
MEV,2023-08-21 01:35,-119.7500,38.9963,1441.42,64.40,59.00,82.62,160.00,4.00,0.00,29.94,M,10.00,M,FEW,M,M,M,8500.00,M,M,M,M,M,M,M,M,M,M,64.40,KMEV 210135Z AUTO 16004KT 10SM FEW085 18/15 A2994 RMK AO2,M
HTH,2023-08-21 01:35,-118.6315,38.5448,1282.89,66.20,59.00,77.60,0.00,0.00,0.00,29.94,M,10.00,M,CLR,M,M,M,M,M,M,M,M,M,M,M,M,M,M,66.20,KHTH 210135Z AUTO 00000KT 10SM CLR 19/15 A2994 RMK A01,M
BAM,2023-08-21 01:35,-116.8743,40.5990,1382.36,68.00,60.80,77.75,60.00,7.00,0.00,30.00,M,10.00,M,OVC,M,M,M,10000.00,M,M,M,M,M,M,M,M,M,M,68.00,KBAM 210135Z AUTO 06007KT 10SM OVC100 20/16 A3000 RMK AO1,M
TMT,2023-08-21 01:35,-117.1971,39.4643,1749.34,56.50,51.40,82.99,0.00,0.00,0.04,30.05,M,M,M,BKN,BKN,OVC,M,3200.00,3800.00,7000.00,M,M,M,M,M,M,M,M,56.50,KTMT 210135Z AUTO 00000KT BKN032 BKN038 OVC070 14/11 A3005 RMK AO2 P0004 T01360108 PWINO,M
EKO,2023-08-21 01:38,-115.7860,40.8242,1367.00,62.00,60.00,93.15,0.00,0.00,0.06,30.03,M,3.00,M,FEW,OVC,M,M,3000.00,5500.00,M,M,-RA BR,M,M,M,M,M,M,62.00,KEKO 210138Z AUTO 00000KT 3SM -RA BR FEW030 OVC055 17/16 A3003 RMK AO2 P0006 T01670156,M
TPH,2023-08-21 01:40,-117.0904,38.0505,1654.00,57.00,57.00,100.00,20.00,11.00,0.08,29.99,M,1.75,M,SCT,OVC,M,M,2200.00,3400.00,M,M,+RA BR,M,M,M,M,M,M,57.00,KTPH 210140Z AUTO 02011KT 1 3/4SM +RA BR SCT022 OVC034 14/14 A2999 RMK AO2 RAB03 P0008 T01390139 $,M
05U,2023-08-21 01:50,-116.0051,39.6042,1811.23,59.00,57.20,93.74,M,M,0.00,30.07,M,10.00,M,M,M,M,M,M,M,M,M,M,M,M,M,M,M,M,59.00,K05U 210150Z AUTO 10SM 15/14 A3007 RMK A01,M
TPH,2023-08-21 01:52,-117.0904,38.0505,1654.00,57.20,57.20,100.00,10.00,12.00,0.13,29.96,M,3.00,M,BKN,BKN,OVC,M,3400.00,4400.00,6000.00,M,-RA BR,M,M,M,M,M,M,57.20,KTPH 210152Z AUTO 01012KT 3SM -RA BR BKN034 BKN044 OVC060 14/14 A2996 RMK AO2 RAB03 P0013 $,M
P68,2023-08-21 01:53,-116.0056,39.6014,1993.00,58.00,57.00,96.46,10.00,7.00,0.01,30.05,1011.70,M,M,M,M,M,M,M,M,M,M,M,M,M,M,M,M,M,58.00,KP68 210153Z AUTO 01007KT 14/14 A3005 RMK AO1 SLP117 P0001 T01440139,M
DRA,2023-08-21 01:53,-116.0278,36.6206,1009.00,73.00,65.00,76.01,110.00,7.00,T,29.74,1003.30,10.00,M,FEW,BKN,M,M,8000.00,11000.00,M,M,-RA,M,M,M,M,M,M,73.00,KDRA 210153Z AUTO 11007KT 10SM -RA FEW080 BKN110 23/18 A2974 RMK AO2 RAB04E21B53 SLP033 P0000 T02280183 $,M
ELY,2023-08-21 01:53,-114.8453,39.2950,1909.00,60.00,57.00,89.80,190.00,9.00,0.01,30.09,1011.10,10.00,M,BKN,M,M,M,9500.00,M,M,M,M,M,M,M,M,M,M,60.00,KELY 210153Z AUTO 19009KT 10SM BKN095 16/14 A3009 RMK AO2 RAE42 SLP111 P0001 T01560139,M
VGT,2023-08-21 01:53,-115.1933,36.2111,667.00,78.00,66.00,66.61,150.00,8.00,0.00,29.73,1006.40,10.00,M,FEW,BKN,BKN,M,8000.00,10000.00,12000.00,M,M,M,M,M,M,M,M,78.00,KVGT 210153Z 15008KT 10SM FEW080 BKN100 BKN120 26/19 A2973 RMK AO2 SLP064 T02560189,M
LOL,2023-08-21 01:53,-118.5701,40.0684,1192.43,70.00,55.00,58.94,0.00,0.00,0.00,29.92,1010.50,10.00,M,FEW,BKN,M,M,3800.00,11000.00,M,M,M,M,M,M,M,M,M,70.00,KLOL 210153Z AUTO 00000KT 10SM FEW038 BKN110 21/13 A2992 RMK AO2 SLP105 T02110128,M
HND,2023-08-21 01:53,-115.1344,35.9729,742.79,M,M,M,10.00,6.00,0.00,29.78,M,10.00,M,SCT,BKN,M,M,2500.00,7000.00,M,M,M,M,M,M,M,M,M,M,KHND 210153Z 01006KT 10SM SCT025 BKN070 A2978,M
BVU,2023-08-21 01:55,-114.8611,35.9475,671.00,77.00,66.20,69.33,60.00,6.00,0.00,29.74,M,10.00,M,SCT,BKN,BKN,M,7000.00,9000.00,11000.00,M,M,M,M,M,M,M,M,77.00,KBVU 210155Z AUTO 06006KT 10SM SCT070 BKN090 BKN110 25/19 A2974 RMK AO2,M
CXP,2023-08-21 01:55,-119.7326,39.1923,1431.00,66.20,53.60,63.82,70.00,12.00,0.00,29.96,M,10.00,M,FEW,SCT,M,M,6000.00,8500.00,M,M,M,M,M,M,M,M,M,66.20,KCXP 210155Z AUTO 07012KT 10SM FEW060 SCT085 19/12 A2996 RMK AO2,M
INS,2023-08-21 01:55,-115.6733,36.5872,955.00,73.20,63.00,70.39,40.00,11.00,0.00,29.77,1004.20,10.00,M,BKN,OVC,M,M,6500.00,9000.00,M,M,M,M,M,M,M,M,M,73.20,KINS 210155Z AUTO 04011KT 10SM BKN065 OVC090 23/17 A2977 RMK AO2 SLP042 T02290173 $,M
RNO,2023-08-21 01:55,-119.7711,39.4839,1341.00,69.00,53.00,56.69,110.00,14.00,0.00,29.91,1008.60,10.00,18.00,SCT,OVC,M,M,4500.00,11000.00,M,M,M,M,M,M,M,M,M,69.00,KRNO 210155Z 11014G18KT 10SM SCT045 OVC110 21/12 A2991 RMK AO2 SLP086 T02060117,M
LSV,2023-08-21 01:55,-115.0343,36.2362,570.00,77.70,66.00,67.27,20.00,17.00,0.00,29.68,1003.20,10.00,M,BKN,M,M,M,9000.00,M,M,M,M,M,M,M,M,M,M,77.70,KLSV 210155Z 02017KT 10SM BKN090 25/19 A2968 RMK AO2A SLP032 T02540188 $,M
RTS,2023-08-21 01:55,-119.8764,39.6682,1539.00,64.40,51.80,63.60,110.00,13.00,0.00,29.96,M,10.00,20.00,FEW,FEW,SCT,M,4400.00,8000.00,10000.00,M,M,M,M,M,M,M,M,64.40,KRTS 210155Z AUTO 11013G20KT 10SM FEW044 FEW080 SCT100 18/11 A2996 RMK AO2,M
MEV,2023-08-21 01:55,-119.7500,38.9963,1441.42,64.40,59.00,82.62,0.00,0.00,0.00,29.94,M,10.00,M,FEW,FEW,M,M,6500.00,9000.00,M,M,-RA,M,M,M,M,M,M,64.40,KMEV 210155Z AUTO 00000KT 10SM -RA FEW065 FEW090 18/15 A2994 RMK AO2,M
HTH,2023-08-21 01:55,-118.6315,38.5448,1282.89,66.20,59.00,77.60,310.00,3.00,0.00,29.94,M,10.00,M,FEW,BKN,M,M,5000.00,10000.00,M,M,M,M,M,M,M,M,M,66.20,KHTH 210155Z AUTO 31003KT 10SM FEW050 BKN100 19/15 A2994 RMK A01,M
BAM,2023-08-21 01:55,-116.8743,40.5990,1382.36,64.40,60.80,88.09,60.00,8.00,0.00,29.99,M,10.00,M,SCT,SCT,SCT,M,2600.00,4200.00,9500.00,M,M,M,M,M,M,M,M,64.40,KBAM 210155Z AUTO 06008KT 10SM SCT026 SCT042 SCT095 18/16 A2999 RMK AO1,M
TMT,2023-08-21 01:55,-117.1971,39.4643,1749.34,55.60,53.60,92.97,0.00,0.00,0.04,30.05,M,M,M,M,M,M,M,M,M,M,M,M,M,M,M,M,M,M,55.60,KTMT 210155Z AUTO 00000KT 13/12 A3005 RMK AO2 P0004 T01310120 PWINO,M
EKO,2023-08-21 01:56,-115.7860,40.8242,1367.00,62.00,61.00,96.52,220.00,3.00,0.07,30.03,1013.20,5.00,M,BKN,BKN,OVC,M,1900.00,3100.00,5500.00,M,-RA BR,M,M,M,M,M,M,62.00,KEKO 210156Z AUTO 22003KT 5SM -RA BR BKN019 BKN031 OVC055 17/16 A3003 RMK AO2 SLP132 P0007 T01670161,M
WMC,2023-08-21 01:56,-117.8072,40.9019,1315.00,68.00,55.00,63.12,150.00,9.00,0.00,29.96,1010.90,10.00,M,SCT,M,M,M,12000.00,M,M,M,M,M,M,M,M,M,M,68.00,KWMC 210156Z AUTO 15009KT 10SM SCT120 20/13 A2996 RMK AO2 SLP109 T02000128,M
NFL,2023-08-21 01:56,-118.7010,39.4166,1199.00,67.00,58.00,72.82,90.00,3.00,0.00,29.91,1010.10,10.00,M,FEW,BKN,M,M,3200.00,12000.00,M,M,M,M,M,M,M,M,M,67.00,KNFL 210156Z AUTO 09003KT 10SM FEW032 BKN120 19/14 A2991 RMK AO2 PRESFR SLP101 T01940144,M
HND,2023-08-21 01:56,-115.1344,35.9729,742.79,M,M,M,M,M,0.00,M,M,M,M,M,M,M,M,M,M,M,M,M,M,M,M,M,M,M,M,KHND 210156Z AUTO RMK AO2 LTG DSNT S SLPNO PWINO FZRANO $,M
TPH,2023-08-21 01:56,-117.0904,38.0505,1654.00,57.00,57.00,100.00,10.00,12.00,0.13,29.96,1009.90,6.00,M,BKN,BKN,OVC,M,3600.00,4600.00,6000.00,M,-RA BR,M,M,M,M,M,M,57.00,KTPH 210156Z AUTO 01012KT 6SM -RA BR BKN036 BKN046 OVC060 14/14 A2996 RMK AO2 RAB03 SLP099 P0013 T01390139 $,M
LAS,2023-08-21 01:56,-115.1634,36.0719,663.00,76.00,65.00,68.74,150.00,4.00,0.00,29.76,1005.90,10.00,M,FEW,BKN,BKN,M,3000.00,6500.00,11000.00,M,M,M,M,M,M,M,M,76.00,KLAS 210156Z 15004KT 10SM FEW030 BKN065 BKN110 24/18 A2976 RMK AO2 SLP059 SH DSNT SW T02440183,M
INS,2023-08-21 02:06,-115.6733,36.5872,955.00,73.40,64.40,73.44,50.00,8.00,0.00,29.77,1004.20,10.00,M,BKN,OVC,M,M,6500.00,8500.00,M,M,-RA,M,M,M,M,M,M,73.40,KINS 210206Z AUTO 05008KT 10SM -RA BKN065 OVC085 23/18 A2977 RMK AO2 RAB06 SLP042 $,M
RTS,2023-08-21 02:15,-119.8764,39.6682,1539.00,64.40,51.80,63.60,110.00,14.00,0.00,29.96,M,10.00,M,CLR,M,M,M,M,M,M,M,M,M,M,M,M,M,M,64.40,KRTS 210215Z AUTO 11014KT 10SM CLR 18/11 A2996 RMK AO2,M
BVU,2023-08-21 02:15,-114.8611,35.9475,671.00,77.00,66.20,69.33,120.00,5.00,0.00,29.75,M,10.00,M,FEW,SCT,BKN,M,6500.00,8000.00,9500.00,M,M,M,M,M,M,M,M,77.00,KBVU 210215Z AUTO 12005KT 10SM FEW065 SCT080 BKN095 25/19 A2975 RMK AO2,M
CXP,2023-08-21 02:15,-119.7326,39.1923,1431.00,66.20,53.60,63.82,50.00,12.00,0.00,29.95,M,10.00,M,SCT,M,M,M,12000.00,M,M,M,M,M,M,M,M,M,M,66.20,KCXP 210215Z AUTO 05012KT 10SM SCT120 19/12 A2995 RMK AO2,M
05U,2023-08-21 02:15,-116.0051,39.6042,1811.23,59.00,57.20,93.74,M,M,0.00,30.07,M,10.00,M,M,M,M,M,M,M,M,M,M,M,M,M,M,M,M,59.00,K05U 210215Z AUTO 10SM 15/14 A3007 RMK A01,M
MEV,2023-08-21 02:15,-119.7500,38.9963,1441.42,64.40,55.40,72.56,300.00,5.00,0.00,29.93,M,10.00,M,FEW,M,M,M,12000.00,M,M,M,M,M,M,M,M,M,M,64.40,KMEV 210215Z AUTO 30005KT 10SM FEW120 18/13 A2993 RMK AO2,M
BAM,2023-08-21 02:15,-116.8743,40.5990,1382.36,64.40,60.80,88.09,60.00,9.00,0.00,29.99,M,10.00,M,SCT,SCT,BKN,M,2400.00,4400.00,10000.00,M,M,M,M,M,M,M,M,64.40,KBAM 210215Z AUTO 06009KT 10SM SCT024 SCT044 BKN100 18/16 A2999 RMK AO1,M
HTH,2023-08-21 02:15,-118.6315,38.5448,1282.89,64.40,59.00,82.62,330.00,4.00,0.00,29.92,M,10.00,M,OVC,M,M,M,10000.00,M,M,M,M,M,M,M,M,M,M,64.40,KHTH 210215Z AUTO 33004KT 10SM OVC100 18/15 A2992 RMK A01,M
TMT,2023-08-21 02:15,-117.1971,39.4643,1749.34,55.80,53.40,91.62,0.00,0.00,0.00,30.03,M,M,M,M,M,M,M,M,M,M,M,M,M,M,M,M,M,M,55.80,KTMT 210215Z AUTO 00000KT 13/12 A3003 RMK AO2 T01320119 PWINO,M
INS,2023-08-21 02:19,-115.6733,36.5872,955.00,71.60,64.40,78.04,80.00,6.00,0.00,29.77,1004.30,10.00,M,FEW,SCT,BKN,OVC,700.00,6000.00,7000.00,10000.00,M,M,M,M,M,M,M,71.60,KINS 210219Z AUTO 08006KT 10SM FEW007 SCT060 BKN070 OVC100 22/18 A2977 RMK AO2 RAB06E19 SLP043 $,M
INS,2023-08-21 02:23,-115.6733,36.5872,955.00,71.60,66.20,83.09,40.00,7.00,0.00,29.76,1004.00,10.00,M,FEW,FEW,BKN,BKN,700.00,3700.00,6000.00,7500.00,-DZ,M,M,M,M,M,M,71.60,KINS 210223Z AUTO 04007KT 10SM -DZ FEW007 FEW037 BKN060 BKN075 OVC100 22/19 A2976 RMK AO2 RAB06E19DZB23 SLP040 $,M
BVU,2023-08-21 02:35,-114.8611,35.9475,671.00,75.20,68.00,78.34,130.00,5.00,0.00,29.76,M,10.00,M,FEW,SCT,BKN,M,6500.00,7500.00,8500.00,M,M,M,M,M,M,M,M,75.20,KBVU 210235Z AUTO 13005KT 10SM FEW065 SCT075 BKN085 24/20 A2976 RMK AO2,M
CXP,2023-08-21 02:35,-119.7326,39.1923,1431.00,66.20,53.60,63.82,50.00,9.00,0.00,29.94,M,10.00,M,SCT,BKN,M,M,10000.00,12000.00,M,M,M,M,M,M,M,M,M,66.20,KCXP 210235Z AUTO 05009KT 10SM SCT100 BKN120 19/12 A2994 RMK AO2,M
RTS,2023-08-21 02:35,-119.8764,39.6682,1539.00,64.40,51.80,63.60,110.00,12.00,0.00,29.96,M,10.00,M,CLR,M,M,M,M,M,M,M,M,M,M,M,M,M,M,64.40,KRTS 210235Z AUTO 11012KT 10SM CLR 18/11 A2996 RMK AO2,M
05U,2023-08-21 02:35,-116.0051,39.6042,1811.23,59.00,57.20,93.74,M,M,0.00,30.06,M,10.00,M,M,M,M,M,M,M,M,M,M,M,M,M,M,M,M,59.00,K05U 210235Z AUTO 10SM 15/14 A3006 RMK A01,M
MEV,2023-08-21 02:35,-119.7500,38.9963,1441.42,62.60,57.20,82.50,310.00,4.00,0.00,29.93,M,10.00,M,SCT,SCT,M,M,9500.00,12000.00,M,M,M,M,M,M,M,M,M,62.60,KMEV 210235Z AUTO 31004KT 10SM SCT095 SCT120 17/14 A2993 RMK AO2,M
BAM,2023-08-21 02:35,-116.8743,40.5990,1382.36,62.60,60.80,93.83,50.00,9.00,0.00,30.00,M,10.00,M,SCT,OVC,M,M,5000.00,10000.00,M,M,M,M,M,M,M,M,M,62.60,KBAM 210235Z AUTO 05009KT 10SM SCT050 OVC100 17/16 A3000 RMK AO1,M
HTH,2023-08-21 02:35,-118.6315,38.5448,1282.89,64.40,59.00,82.62,310.00,4.00,0.00,29.92,M,10.00,M,OVC,M,M,M,9500.00,M,M,M,M,M,M,M,M,M,M,64.40,KHTH 210235Z AUTO 31004KT 10SM OVC095 18/15 A2992 RMK A01,M
TMT,2023-08-21 02:35,-117.1971,39.4643,1749.34,55.80,54.30,94.69,0.00,0.00,0.00,30.04,M,M,M,M,M,M,M,M,M,M,M,M,M,M,M,M,M,M,55.80,KTMT 210235Z AUTO 00000KT 13/12 A3004 RMK AO2 T01320124 PWINO,M
TPH,2023-08-21 02:44,-117.0904,38.0505,1654.00,58.00,58.00,100.00,10.00,11.00,T,29.95,M,10.00,M,BKN,OVC,M,M,2400.00,3000.00,M,M,M,M,M,M,M,M,M,58.00,KTPH 210244Z AUTO 01011KT 10SM BKN024 OVC030 14/14 A2995 RMK AO2 RAE38 P0000 T01440144 $,M
05U,2023-08-21 02:50,-116.0051,39.6042,1811.23,59.00,57.20,93.74,M,M,0.00,30.06,M,10.00,M,M,M,M,M,M,M,M,M,M,M,M,M,M,M,M,59.00,K05U 210250Z AUTO 10SM 15/14 A3006 RMK A01,M
P68,2023-08-21 02:53,-116.0056,39.6014,1993.00,58.00,58.00,100.00,30.00,5.00,0.00,30.03,1011.10,M,M,M,M,M,M,M,M,M,M,M,M,M,M,M,M,M,58.00,KP68 210253Z AUTO 03005KT 14/14 A3003 RMK AO1 SLP111 60010 T01440144,M
DRA,2023-08-21 02:53,-116.0278,36.6206,1009.00,71.00,65.00,81.34,130.00,9.00,0.06,29.76,1003.80,8.00,18.00,FEW,BKN,OVC,M,7000.00,9000.00,11000.00,M,RA,M,M,M,28.00,80.00,2023-08-21 02:23,71.00,KDRA 210253Z AUTO 13009G18KT 8SM RA FEW070 BKN090 OVC110 22/18 A2976 RMK AO2 PK WND 08028/0223 SLP038 P0006 60006 T02170183 55017 $,M
ELY,2023-08-21 02:53,-114.8453,39.2950,1909.00,59.00,57.00,93.07,210.00,8.00,T,30.07,1010.30,10.00,M,FEW,FEW,M,M,6000.00,7500.00,M,M,-RA,M,M,M,M,M,M,59.00,KELY 210253Z AUTO 21008KT 10SM -RA FEW060 FEW075 15/14 A3007 RMK AO2 RAB26 SLP103 P0000 60005 T01500139 58015,M
VGT,2023-08-21 02:53,-115.1933,36.2111,667.00,76.00,67.00,73.69,190.00,16.00,0.04,29.76,1007.50,6.00,M,FEW,BKN,OVC,M,4100.00,8000.00,10000.00,M,-RA,M,M,M,M,M,M,76.00,KVGT 210253Z 19016KT 6SM -RA FEW041 BKN080 OVC100 24/19 A2976 RMK AO2 RAB07 SLP075 P0004 60004 T02440194 55003,M
LOL,2023-08-21 02:53,-118.5701,40.0684,1192.43,67.00,58.00,72.82,0.00,0.00,T,29.91,1010.20,10.00,M,FEW,SCT,OVC,M,4500.00,7000.00,9000.00,M,-RA,M,M,M,M,M,M,67.00,KLOL 210253Z AUTO 00000KT 10SM -RA FEW045 SCT070 OVC090 19/14 A2991 RMK AO2 RAB00 SLP102 P0000 60000 T01940144 58008,M
BVU,2023-08-21 02:55,-114.8611,35.9475,671.00,75.20,68.00,78.34,0.00,0.00,0.00,29.77,M,10.00,M,SCT,BKN,BKN,M,5500.00,7000.00,8500.00,M,M,M,M,M,M,M,M,75.20,KBVU 210255Z AUTO 00000KT 10SM SCT055 BKN070 BKN085 24/20 A2977 RMK AO2,M
CXP,2023-08-21 02:55,-119.7326,39.1923,1431.00,64.40,55.40,72.56,50.00,10.00,0.00,29.95,M,10.00,M,FEW,BKN,OVC,M,5500.00,7500.00,10000.00,M,M,M,M,M,M,M,M,64.40,KCXP 210255Z AUTO 05010KT 10SM FEW055 BKN075 OVC100 18/13 A2995 RMK AO2,M
INS,2023-08-21 02:55,-115.6733,36.5872,955.00,71.20,64.80,80.22,50.00,7.00,0.02,29.75,1003.60,10.00,M,BKN,OVC,M,M,6500.00,10000.00,M,M,-RA,M,M,M,M,M,M,71.20,KINS 210255Z AUTO 05007KT 10SM -RA BKN065 OVC100 22/18 A2975 RMK AO2 RAB06E19DZB23E25RAB25E46DZB46E48RAB48 SLP036 P0002 60002 T02180182 57021 $,M
RNO,2023-08-21 02:55,-119.7711,39.4839,1341.00,68.00,54.00,60.86,90.00,5.00,0.00,29.91,1008.30,10.00,M,FEW,SCT,OVC,M,4500.00,9000.00,11000.00,M,M,M,M,M,M,M,M,68.00,KRNO 210255Z 09005KT 10SM FEW045 SCT090 OVC110 20/12 A2991 RMK AO2 SLP083 VIRGA T02000122 58007,M
RTS,2023-08-21 02:55,-119.8764,39.6682,1539.00,62.60,53.60,72.38,80.00,8.00,0.00,29.96,M,10.00,M,FEW,BKN,M,M,7500.00,9000.00,M,M,M,M,M,M,M,M,M,62.60,KRTS 210255Z AUTO 08008KT 10SM FEW075 BKN090 17/12 A2996 RMK AO2,M
MEV,2023-08-21 02:55,-119.7500,38.9963,1441.42,62.60,57.20,82.50,320.00,5.00,0.00,29.93,M,10.00,M,BKN,BKN,OVC,M,6000.00,8000.00,9000.00,M,M,M,M,M,M,M,M,62.60,KMEV 210255Z AUTO 32005KT 10SM BKN060 BKN080 OVC090 17/14 A2993 RMK AO2,M
BAM,2023-08-21 02:55,-116.8743,40.5990,1382.36,62.60,60.80,93.83,70.00,7.00,0.00,30.00,M,10.00,M,OVC,M,M,M,10000.00,M,M,M,M,M,M,M,M,M,M,62.60,KBAM 210255Z AUTO 07007KT 10SM OVC100 17/16 A3000 RMK AO1,M
HTH,2023-08-21 02:55,-118.6315,38.5448,1282.89,64.40,59.00,82.62,290.00,4.00,0.00,29.92,M,10.00,M,FEW,FEW,OVC,M,6500.00,8000.00,9500.00,M,M,M,M,M,M,M,M,64.40,KHTH 210255Z AUTO 29004KT 10SM FEW065 FEW080 OVC095 18/15 A2992 RMK A01,M
LSV,2023-08-21 02:55,-115.0343,36.2362,570.00,77.00,65.30,67.20,60.00,17.00,0.00,29.72,1004.60,10.00,25.00,FEW,BKN,BKN,BKN,6500.00,8500.00,10000.00,16000.00,M,M,M,M,M,M,M,77.00,KLSV 210255Z AUTO 06017G25KT 10SM FEW065 BKN085 BKN100 BKN160 25/19 A2972 RMK AO2 SLP046 60000 T02510185 55005 $,M
TMT,2023-08-21 02:55,-117.1971,39.4643,1749.34,55.40,54.50,96.78,0.00,0.00,0.05,30.04,M,M,M,M,M,M,M,M,M,M,M,M,M,M,M,M,M,M,55.40,KTMT 210255Z AUTO 00000KT 13/13 A3004 RMK AO2 P0005 60015 T01300125 PWINO,M
EKO,2023-08-21 02:56,-115.7860,40.8242,1367.00,61.00,60.00,96.51,220.00,5.00,0.01,30.03,1013.10,10.00,M,BKN,BKN,OVC,M,2900.00,4700.00,9500.00,M,M,M,M,M,M,M,M,61.00,KEKO 210256Z AUTO 22005KT 10SM BKN029 BKN047 OVC095 16/16 A3003 RMK AO2 RAE37 SLP131 P0001 60009 T01610156 58001,M
WMC,2023-08-21 02:56,-117.8072,40.9019,1315.00,67.00,55.00,65.33,170.00,8.00,0.00,29.96,1010.90,10.00,M,FEW,BKN,M,M,9000.00,11000.00,M,M,M,M,M,M,M,M,M,67.00,KWMC 210256Z AUTO 17008KT 10SM FEW090 BKN110 19/13 A2996 RMK AO2 SLP109 60000 T01940128 55006,M
NFL,2023-08-21 02:56,-118.7010,39.4166,1199.00,66.00,58.00,75.39,160.00,3.00,0.00,29.90,1010.00,10.00,M,BKN,M,M,M,12000.00,M,M,M,M,M,M,M,M,M,M,66.00,KNFL 210256Z AUTO 16003KT 10SM BKN120 19/14 A2990 RMK AO2 SLP100 T01890144 58007,M
HND,2023-08-21 02:56,-115.1344,35.9729,742.79,M,M,M,M,M,0.00,M,M,M,M,M,M,M,M,M,M,M,M,M,M,M,M,M,M,M,M,KHND 210256Z AUTO RMK AO2 SLPNO 6//// PWINO FZRANO $,M
TPH,2023-08-21 02:56,-117.0904,38.0505,1654.00,58.00,58.00,100.00,10.00,10.00,0.00,29.94,1009.30,4.00,M,BKN,BKN,OVC,M,2300.00,3400.00,5500.00,M,+RA BR,M,M,M,M,M,M,58.00,KTPH 210256Z AUTO 01010KT 4SM +RA BR BKN023 BKN034 OVC055 14/14 A2994 RMK AO2 RAE38B46 SLP093 6//// T01440144 56021 PNO $,M
LAS,2023-08-21 02:56,-115.1634,36.0719,663.00,74.00,68.00,81.55,90.00,6.00,0.05,29.77,1006.10,10.00,M,FEW,SCT,BKN,M,2000.00,2500.00,5500.00,M,M,M,M,M,M,M,M,74.00,KLAS 210256Z 09006KT 10SM FEW020 SCT025 BKN055 23/20 A2977 RMK AO2 RAB00E56 SLP061 VIS LWR NW-NE P0005 60006 T02330200 55005,M
EKO,2023-08-21 03:03,-115.7860,40.8242,1367.00,61.00,60.00,96.51,240.00,4.00,0.00,30.03,M,10.00,M,SCT,SCT,OVC,M,2900.00,4700.00,9500.00,M,M,M,M,M,M,M,M,61.00,KEKO 210303Z AUTO 24004KT 10SM SCT029 SCT047 OVC095 16/16 A3003 RMK AO2 T01610156,M
LSV,2023-08-21 03:05,-115.0343,36.2362,570.00,77.00,66.20,69.33,40.00,19.00,0.00,29.72,1004.60,10.00,23.00,BKN,BKN,M,M,6500.00,8500.00,M,M,-RA,M,M,M,M,M,M,77.00,KLSV 210305Z AUTO 04019G23KT 10SM -RA BKN065 BKN085 25/19 A2972 RMK AO2 RAB05 SLP046 $,M
LSV,2023-08-21 03:14,-115.0343,36.2362,570.00,77.00,66.20,69.33,70.00,10.00,0.00,29.74,1005.30,10.00,23.00,BKN,BKN,M,M,6000.00,8500.00,M,M,M,M,M,M,M,M,M,77.00,KLSV 210314Z AUTO 07010G23KT 10SM BKN060 BKN085 25/19 A2974 RMK AO2 RAB05E14 PRESRR SLP053 $,M
BVU,2023-08-21 03:15,-114.8611,35.9475,671.00,75.20,68.00,78.34,180.00,5.00,0.00,29.79,M,10.00,M,FEW,SCT,BKN,M,4400.00,5500.00,7500.00,M,M,M,M,M,M,M,M,75.20,KBVU 210315Z AUTO 18005KT 10SM FEW044 SCT055 BKN075 24/20 A2979 RMK AO2,M
CXP,2023-08-21 03:15,-119.7326,39.1923,1431.00,64.40,55.40,72.56,40.00,7.00,0.00,29.94,M,10.00,M,BKN,OVC,M,M,6000.00,7500.00,M,M,M,M,M,M,M,M,M,64.40,KCXP 210315Z AUTO 04007KT 10SM BKN060 OVC075 18/13 A2994 RMK AO2,M
RTS,2023-08-21 03:15,-119.8764,39.6682,1539.00,62.60,53.60,72.38,80.00,8.00,0.00,29.95,M,10.00,13.00,FEW,BKN,OVC,M,5000.00,7500.00,9000.00,M,M,M,M,M,M,M,M,62.60,KRTS 210315Z AUTO 08008G13KT 10SM FEW050 BKN075 OVC090 17/12 A2995 RMK AO2,M
05U,2023-08-21 03:15,-116.0051,39.6042,1811.23,59.00,57.20,93.74,M,M,0.00,30.05,M,10.00,M,M,M,M,M,M,M,M,M,M,M,M,M,M,M,M,59.00,K05U 210315Z AUTO 10SM 15/14 A3005 RMK A01,M
MEV,2023-08-21 03:15,-119.7500,38.9963,1441.42,62.60,57.20,82.50,330.00,6.00,0.00,29.92,M,10.00,M,OVC,M,M,M,6000.00,M,M,M,-RA,M,M,M,M,M,M,62.60,KMEV 210315Z AUTO 33006KT 10SM -RA OVC060 17/14 A2992 RMK AO2,M
BAM,2023-08-21 03:15,-116.8743,40.5990,1382.36,62.60,60.80,93.83,60.00,6.00,0.00,30.01,M,7.00,M,SCT,SCT,OVC,M,6500.00,7500.00,9000.00,M,M,M,M,M,M,M,M,62.60,KBAM 210315Z AUTO 06006KT 7SM SCT065 SCT075 OVC090 17/16 A3001 RMK AO1,M
HTH,2023-08-21 03:15,-118.6315,38.5448,1282.89,64.40,59.00,82.62,0.00,0.00,0.00,29.92,M,10.00,M,FEW,SCT,BKN,M,5500.00,6500.00,7500.00,M,M,M,M,M,M,M,M,64.40,KHTH 210315Z AUTO 00000KT 10SM FEW055 SCT065 BKN075 18/15 A2992 RMK A01,M
TMT,2023-08-21 03:15,-117.1971,39.4643,1749.34,55.40,54.50,96.78,330.00,5.00,0.02,30.03,M,M,M,M,M,M,M,M,M,M,M,M,M,M,M,M,M,M,55.40,KTMT 210315Z AUTO 33005KT 13/13 A3003 RMK AO2 P0002 T01300125 PWINO,M
TPH,2023-08-21 03:23,-117.0904,38.0505,1654.00,59.00,58.00,96.48,350.00,11.00,0.00,29.93,M,6.00,M,SCT,BKN,OVC,M,3000.00,5500.00,8000.00,M,RA BR,M,M,M,M,M,M,59.00,KTPH 210323Z AUTO 35011KT 6SM RA BR SCT030 BKN055 OVC080 15/14 A2993 RMK AO2 T01500144 PNO $,M
05U,2023-08-21 03:30,-116.0051,39.6042,1811.23,59.00,57.20,93.74,M,M,0.00,30.05,M,10.00,M,M,M,M,M,M,M,M,M,M,M,M,M,M,M,M,59.00,K05U 210330Z AUTO 10SM 15/14 A3005 RMK A01,M
BVU,2023-08-21 03:35,-114.8611,35.9475,671.00,73.40,69.80,88.51,240.00,8.00,0.00,29.81,M,10.00,M,BKN,BKN,OVC,M,3800.00,4400.00,7500.00,M,M,M,M,M,M,M,M,73.40,KBVU 210335Z AUTO 24008KT 10SM BKN038 BKN044 OVC075 23/21 A2981 RMK AO2,M
CXP,2023-08-21 03:35,-119.7326,39.1923,1431.00,64.40,55.40,72.56,90.00,3.00,0.00,29.94,M,10.00,M,OVC,M,M,M,7000.00,M,M,M,-RA,M,M,M,M,M,M,64.40,KCXP 210335Z AUTO 09003KT 10SM -RA OVC070 18/13 A2994 RMK AO2,M
RTS,2023-08-21 03:35,-119.8764,39.6682,1539.00,62.60,53.60,72.38,70.00,7.00,0.00,29.95,M,10.00,M,FEW,BKN,OVC,M,4800.00,6000.00,7500.00,M,M,M,M,M,M,M,M,62.60,KRTS 210335Z AUTO 07007KT 10SM FEW048 BKN060 OVC075 17/12 A2995 RMK AO2,M
MEV,2023-08-21 03:35,-119.7500,38.9963,1441.42,62.60,57.20,82.50,320.00,5.00,0.00,29.93,M,10.00,M,BKN,OVC,M,M,6000.00,7000.00,M,M,-RA,M,M,M,M,M,M,62.60,KMEV 210335Z AUTO 32005KT 10SM -RA BKN060 OVC070 17/14 A2993 RMK AO2,M
HTH,2023-08-21 03:35,-118.6315,38.5448,1282.89,64.40,62.60,93.88,100.00,4.00,0.00,29.93,M,10.00,M,SCT,OVC,M,M,5500.00,7000.00,M,M,M,M,M,M,M,M,M,64.40,KHTH 210335Z AUTO 10004KT 10SM SCT055 OVC070 18/17 A2993 RMK A01,M
BAM,2023-08-21 03:35,-116.8743,40.5990,1382.36,62.60,60.80,93.83,70.00,8.00,0.00,30.01,M,7.00,M,SCT,OVC,M,M,6500.00,10000.00,M,M,M,M,M,M,M,M,M,62.60,KBAM 210335Z AUTO 07008KT 7SM SCT065 OVC100 17/16 A3001 RMK AO1,M
TMT,2023-08-21 03:35,-117.1971,39.4643,1749.34,55.40,55.00,98.56,330.00,6.00,0.03,30.02,M,M,M,M,M,M,M,M,M,M,M,M,M,M,M,M,M,M,55.40,KTMT 210335Z AUTO 33006KT 13/13 A3002 RMK AO2 P0003 T01300127 PWINO,M
LSV,2023-08-21 03:36,-115.0343,36.2362,570.00,75.20,68.00,78.34,80.00,11.00,0.00,29.75,1005.60,10.00,M,FEW,SCT,BKN,M,5000.00,6000.00,10000.00,M,M,M,M,M,M,M,M,75.20,KLSV 210336Z AUTO 08011KT 10SM FEW050 SCT060 BKN100 24/20 A2975 RMK AO2 WSHFT 32 RAB05E14 SLP056 $,M
VGT,2023-08-21 03:42,-115.1933,36.2111,667.00,73.00,68.00,84.34,190.00,6.00,0.17,29.80,M,2.50,M,SCT,BKN,OVC,M,3400.00,4600.00,5500.00,M,+RA,M,M,M,M,M,M,73.00,KVGT 210342Z 19006KT 2 1/2SM +RA SCT034 BKN046 OVC055 23/20 A2980 RMK AO2 VIS 2V3 RAE11B28 PRESRR P0017 T02280200,M
P68,2023-08-21 03:53,-116.0056,39.6014,1993.00,57.00,57.00,100.00,350.00,6.00,0.00,30.03,1010.90,M,M,M,M,M,M,M,M,M,M,M,M,M,M,M,M,M,57.00,KP68 210353Z AUTO 35006KT 14/14 A3003 RMK AO1 SLP109 T01390139,M
DRA,2023-08-21 03:53,-116.0278,36.6206,1009.00,69.00,67.00,93.35,230.00,4.00,0.08,29.79,1005.10,10.00,M,FEW,BKN,OVC,M,3800.00,9000.00,11000.00,M,-RA,M,M,M,M,M,M,69.00,KDRA 210353Z AUTO 23004KT 10SM -RA FEW038 BKN090 OVC110 21/19 A2979 RMK AO2 SLP051 P0008 T02060194 $,M
ELY,2023-08-21 03:53,-114.8453,39.2950,1909.00,60.00,56.00,86.61,160.00,4.00,T,30.07,1010.20,10.00,M,SCT,BKN,M,M,10000.00,12000.00,M,M,M,M,M,M,M,M,M,60.00,KELY 210353Z AUTO 16004KT 10SM SCT100 BKN120 16/13 A3007 RMK AO2 RAE0254B20E36 SLP102 P0000 T01560133,M
VGT,2023-08-21 03:53,-115.1933,36.2111,667.00,72.00,69.00,90.28,210.00,7.00,0.26,29.81,1009.40,2.50,M,BKN,BKN,OVC,M,3500.00,4300.00,5000.00,M,RA BR,M,M,M,M,M,M,72.00,KVGT 210353Z 21007KT 2 1/2SM RA BR BKN035 BKN043 OVC050 22/21 A2981 RMK AO2 RAE11B28 SLP094 P0026 T02220206,M
LOL,2023-08-21 03:53,-118.5701,40.0684,1192.43,65.00,59.00,80.90,130.00,3.00,0.01,29.93,1010.90,10.00,M,FEW,FEW,OVC,M,6500.00,8000.00,10000.00,M,-RA,M,M,M,M,M,M,65.00,KLOL 210353Z AUTO 13003KT 10SM -RA FEW065 FEW080 OVC100 18/15 A2993 RMK AO2 RAE0259B42 PRESRR SLP109 P0001 T01830150,M
BVU,2023-08-21 03:55,-114.8611,35.9475,671.00,71.60,69.80,94.06,M,5.00,0.00,29.81,M,8.00,M,FEW,SCT,BKN,M,1200.00,3000.00,3700.00,M,M,M,M,M,M,M,M,71.60,KBVU 210355Z AUTO VRB05KT 8SM FEW012 SCT030 BKN037 22/21 A2981 RMK AO2,M
CXP,2023-08-21 03:55,-119.7326,39.1923,1431.00,64.40,57.20,77.45,0.00,0.00,0.00,29.94,M,10.00,M,OVC,M,M,M,6500.00,M,M,M,-RA,M,M,M,M,M,M,64.40,KCXP 210355Z AUTO 00000KT 10SM -RA OVC065 18/14 A2994 RMK AO2,M
INS,2023-08-21 03:55,-115.6733,36.5872,955.00,71.20,64.80,80.22,110.00,16.00,0.06,29.80,1005.20,8.00,25.00,SCT,BKN,M,M,4900.00,6000.00,M,M,-RA,M,M,M,M,M,M,71.20,KINS 210355Z AUTO 11016G25KT 8SM -RA SCT049 BKN060 22/18 A2980 RMK AO2 SLP052 P0006 T02180182 $,M
RNO,2023-08-21 03:55,-119.7711,39.4839,1341.00,67.00,55.00,65.33,80.00,6.00,0.00,29.90,1008.20,10.00,M,BKN,OVC,M,M,7000.00,10000.00,M,M,M,M,M,M,M,M,M,67.00,KRNO 210355Z 08006KT 10SM BKN070 OVC100 19/13 A2990 RMK AO2 SLP082 T01940128,M
RTS,2023-08-21 03:55,-119.8764,39.6682,1539.00,62.60,53.60,72.38,90.00,8.00,0.00,29.94,M,10.00,M,FEW,BKN,OVC,M,4800.00,6000.00,11000.00,M,M,M,M,M,M,M,M,62.60,KRTS 210355Z AUTO 09008KT 10SM FEW048 BKN060 OVC110 17/12 A2994 RMK AO2,M
05U,2023-08-21 03:55,-116.0051,39.6042,1811.23,57.20,57.20,100.00,M,M,0.00,30.05,M,10.00,M,M,M,M,M,M,M,M,M,M,M,M,M,M,M,M,57.20,K05U 210355Z AUTO 10SM 14/14 A3005 RMK A01,M
MEV,2023-08-21 03:55,-119.7500,38.9963,1441.42,60.80,57.20,87.92,310.00,4.00,0.00,29.93,M,8.00,M,FEW,BKN,OVC,M,5000.00,6000.00,7000.00,M,-RA,M,M,M,M,M,M,60.80,KMEV 210355Z AUTO 31004KT 8SM -RA FEW050 BKN060 OVC070 16/14 A2993 RMK AO2,M
BAM,2023-08-21 03:55,-116.8743,40.5990,1382.36,62.60,60.80,93.83,60.00,10.00,0.00,30.00,M,7.00,M,SCT,BKN,OVC,M,5500.00,7000.00,9000.00,M,M,M,M,M,M,M,M,62.60,KBAM 210355Z AUTO 06010KT 7SM SCT055 BKN070 OVC090 17/16 A3000 RMK AO1,M
HTH,2023-08-21 03:55,-118.6315,38.5448,1282.89,64.40,62.60,93.88,60.00,3.00,0.00,29.92,M,10.00,M,FEW,SCT,OVC,M,3800.00,6500.00,7500.00,M,M,M,M,M,M,M,M,64.40,KHTH 210355Z AUTO 06003KT 10SM FEW038 SCT065 OVC075 18/17 A2992 RMK A01,M
LSV,2023-08-21 03:55,-115.0343,36.2362,570.00,75.40,67.30,75.96,180.00,12.00,0.01,29.78,1006.60,9.00,M,FEW,SCT,SCT,BKN,3100.00,4700.00,6000.00,10000.00,M,M,M,M,M,M,M,75.40,KLSV 210355Z AUTO 18012KT 9SM FEW031 SCT047 SCT060 BKN100 24/20 A2978 RMK AO2 RAB05E14 PRESRR SLP066 P0001 T02410196 $,M
TMT,2023-08-21 03:55,-117.1971,39.4643,1749.34,55.60,55.00,97.84,320.00,3.00,0.04,30.02,M,M,M,M,M,M,M,M,M,M,M,M,M,M,M,M,M,M,55.60,KTMT 210355Z AUTO 32003KT 13/13 A3002 RMK AO2 P0004 T01310128 PWINO,M
EKO,2023-08-21 03:56,-115.7860,40.8242,1367.00,61.00,59.00,93.12,0.00,0.00,0.00,30.01,1012.50,10.00,M,BKN,M,M,M,11000.00,M,M,M,M,M,M,M,M,M,M,61.00,KEKO 210356Z AUTO 00000KT 10SM BKN110 16/15 A3001 RMK AO2 SLP125 T01610150,M
WMC,2023-08-21 03:56,-117.8072,40.9019,1315.00,66.00,55.00,67.64,40.00,5.00,T,29.95,1010.40,10.00,M,FEW,M,M,M,11000.00,M,M,M,M,M,M,M,M,M,M,66.00,KWMC 210356Z AUTO 04005KT 10SM FEW110 19/13 A2995 RMK AO2 RAB0259E11 SLP104 P0000 T01890128,M
NFL,2023-08-21 03:56,-118.7010,39.4166,1199.00,64.00,60.00,86.83,80.00,5.00,0.01,29.91,1010.30,9.00,M,OVC,M,M,M,9500.00,M,M,M,-RA,M,M,M,M,M,M,64.00,KNFL 210356Z AUTO 08005KT 9SM -RA OVC095 18/16 A2991 RMK AO2 RAB30 SLP103 P0001 T01780156,M
HND,2023-08-21 03:56,-115.1344,35.9729,742.79,M,M,M,M,M,0.00,M,M,M,M,M,M,M,M,M,M,M,M,M,M,M,M,M,M,M,M,KHND 210356Z AUTO RMK AO2 SLPNO PWINO FZRANO $,M
TPH,2023-08-21 03:56,-117.0904,38.0505,1654.00,59.00,58.00,96.48,350.00,11.00,0.00,29.90,1007.80,9.00,M,FEW,BKN,OVC,M,4300.00,5500.00,7500.00,M,-RA,M,M,M,M,M,M,59.00,KTPH 210356Z AUTO 35011KT 9SM -RA FEW043 BKN055 OVC075 15/14 A2990 RMK AO2 SLP078 T01500144 PNO $,M
LAS,2023-08-21 03:56,-115.1634,36.0719,663.00,71.00,70.00,96.65,280.00,3.00,0.10,29.80,1007.40,10.00,M,FEW,SCT,BKN,M,1500.00,2500.00,4000.00,M,M,M,M,M,M,M,M,71.00,KLAS 210356Z 28003KT 10SM FEW015 SCT025 BKN040 22/21 A2980 RMK AO2 RAB15E56 SLP074 VIS LWR NW-N P0010 T02170211,M
LSV,2023-08-21 03:57,-115.0343,36.2362,570.00,75.20,64.40,69.14,180.00,12.00,0.00,29.79,1007.00,9.00,M,FEW,SCT,SCT,BKN,3100.00,4700.00,6000.00,10000.00,-DZ,M,M,M,M,M,M,75.20,KLSV 210357Z AUTO 18012KT 9SM -DZ FEW031 SCT047 SCT060 BKN100 24/18 A2979 RMK AO2 DZB57 SLP070 $,M
LSV,2023-08-21 04:01,-115.0343,36.2362,570.00,75.20,64.40,69.14,170.00,11.00,0.00,29.79,1007.00,8.00,M,FEW,FEW,SCT,BKN,2000.00,3000.00,4700.00,6000.00,M,M,M,M,M,M,M,75.20,KLSV 210401Z AUTO 17011KT 8SM FEW020 FEW030 SCT047 BKN060 24/18 A2979 RMK AO2 DZB0357E01 SLP070 $,M
VGT,2023-08-21 04:03,-115.1933,36.2111,667.00,72.00,69.00,90.28,210.00,4.00,0.01,29.81,M,6.00,M,BKN,OVC,M,M,3400.00,4400.00,M,M,-RA BR,M,M,M,M,M,M,72.00,KVGT 210403Z AUTO 21004KT 6SM -RA BR BKN034 OVC044 22/21 A2981 RMK AO2 P0001 T02220206,M
05U,2023-08-21 04:10,-116.0051,39.6042,1811.23,57.20,57.20,100.00,M,M,0.00,30.05,M,10.00,M,M,M,M,M,M,M,M,M,M,M,M,M,M,M,M,57.20,K05U 210410Z AUTO 10SM 14/14 A3005 RMK A01,M
INS,2023-08-21 04:14,-115.6733,36.5872,955.00,69.80,66.20,88.34,100.00,19.00,0.00,29.79,1005.00,10.00,25.00,BKN,BKN,OVC,M,5500.00,14000.00,20000.00,M,M,M,M,M,M,M,M,69.80,KINS 210414Z AUTO 10019G25KT 10SM BKN055 BKN140 OVC200 21/19 A2979 RMK AO2 RAE0359DZB0359E01RAB01E14 SLP050 $,M
BVU,2023-08-21 04:15,-114.8611,35.9475,671.00,73.40,68.00,83.21,160.00,6.00,0.00,29.81,M,9.00,M,BKN,BKN,OVC,M,2800.00,6000.00,7000.00,M,M,M,M,M,M,M,M,73.40,KBVU 210415Z AUTO 16006KT 9SM BKN028 BKN060 OVC070 23/20 A2981 RMK AO2,M
CXP,2023-08-21 04:15,-119.7326,39.1923,1431.00,62.60,59.00,88.00,0.00,0.00,0.00,29.94,M,10.00,M,BKN,OVC,M,M,6500.00,8500.00,M,M,-RA,M,M,M,M,M,M,62.60,KCXP 210415Z AUTO 00000KT 10SM -RA BKN065 OVC085 17/15 A2994 RMK AO2,M
RTS,2023-08-21 04:15,-119.8764,39.6682,1539.00,62.60,53.60,72.38,120.00,8.00,0.00,29.95,M,10.00,M,SCT,BKN,OVC,M,6000.00,7000.00,11000.00,M,M,M,M,M,M,M,M,62.60,KRTS 210415Z AUTO 12008KT 10SM SCT060 BKN070 OVC110 17/12 A2995 RMK AO2,M
MEV,2023-08-21 04:15,-119.7500,38.9963,1441.42,60.80,57.20,87.92,310.00,3.00,0.00,29.93,M,9.00,M,BKN,OVC,M,M,5500.00,6500.00,M,M,-RA,M,M,M,M,M,M,60.80,KMEV 210415Z AUTO 31003KT 9SM -RA BKN055 OVC065 16/14 A2993 RMK AO2,M
BAM,2023-08-21 04:15,-116.8743,40.5990,1382.36,62.60,59.00,88.00,60.00,6.00,0.00,29.99,M,10.00,M,BKN,OVC,M,M,7000.00,10000.00,M,M,M,M,M,M,M,M,M,62.60,KBAM 210415Z AUTO 06006KT 10SM BKN070 OVC100 17/15 A2999 RMK AO1,M
HTH,2023-08-21 04:15,-118.6315,38.5448,1282.89,62.60,62.60,100.00,350.00,5.00,0.00,29.91,M,M,M,M,M,M,M,M,M,M,M,M,M,M,M,M,M,M,62.60,KHTH 210415Z AUTO 35005KT 17/17 A2991 RMK A01,M
TMT,2023-08-21 04:15,-117.1971,39.4643,1749.34,55.80,55.40,98.56,0.00,0.00,0.03,30.03,M,M,M,M,M,M,M,M,M,M,M,M,M,M,M,M,M,M,55.80,KTMT 210415Z AUTO 00000KT 13/13 A3003 RMK AO2 P0003 T01320130 PWINO,M
LSV,2023-08-21 04:18,-115.0343,36.2362,570.00,71.60,62.60,73.27,0.00,0.00,0.00,29.78,1006.70,10.00,M,FEW,M,M,M,9500.00,M,M,M,-DZ,M,M,M,M,M,M,71.60,KLSV 210418Z AUTO 00000KT 10SM -DZ FEW095 22/17 A2978 RMK AO2 DZB0357E01DZB18 SLP067 $,M
LSV,2023-08-21 04:26,-115.0343,36.2362,570.00,71.60,62.60,73.27,250.00,3.00,0.00,29.78,1006.70,10.00,M,FEW,M,M,M,9500.00,M,M,M,M,M,M,M,M,M,M,71.60,KLSV 210426Z AUTO 25003KT 10SM FEW095 22/17 A2978 RMK AO2 DZB0357E01DZB18E25RAB25E26 SLP067 $,M
05U,2023-08-21 04:30,-116.0051,39.6042,1811.23,57.20,57.20,100.00,M,M,0.00,30.05,M,10.00,M,M,M,M,M,M,M,M,M,M,M,M,M,M,M,M,57.20,K05U 210430Z AUTO 10SM 14/14 A3005 RMK A01,M
BVU,2023-08-21 04:35,-114.8611,35.9475,671.00,73.40,69.80,88.51,150.00,11.00,0.00,29.81,M,10.00,M,SCT,SCT,BKN,M,3200.00,5000.00,7000.00,M,M,M,M,M,M,M,M,73.40,KBVU 210435Z AUTO 15011KT 10SM SCT032 SCT050 BKN070 23/21 A2981 RMK AO2,M
CXP,2023-08-21 04:35,-119.7326,39.1923,1431.00,62.60,59.00,88.00,90.00,4.00,0.00,29.95,M,4.00,M,SCT,BKN,OVC,M,5500.00,6500.00,7500.00,M,-RA BR,M,M,M,M,M,M,62.60,KCXP 210435Z AUTO 09004KT 4SM -RA BR SCT055 BKN065 OVC075 17/15 A2995 RMK AO2,M
RTS,2023-08-21 04:35,-119.8764,39.6682,1539.00,62.60,53.60,72.38,90.00,9.00,0.00,29.95,M,10.00,M,BKN,OVC,M,M,6000.00,7000.00,M,M,-DZ,M,M,M,M,M,M,62.60,KRTS 210435Z AUTO 09009KT 10SM -DZ BKN060 OVC070 17/12 A2995 RMK AO2,M
MEV,2023-08-21 04:35,-119.7500,38.9963,1441.42,60.80,57.20,87.92,0.00,0.00,0.00,29.93,M,5.00,M,FEW,SCT,OVC,M,5000.00,6500.00,7500.00,M,-RA BR,M,M,M,M,M,M,60.80,KMEV 210435Z AUTO 00000KT 5SM -RA BR FEW050 SCT065 OVC075 16/14 A2993 RMK AO2,M
BAM,2023-08-21 04:35,-116.8743,40.5990,1382.36,62.60,59.00,88.00,50.00,4.00,0.00,29.97,M,10.00,M,BKN,BKN,BKN,M,8000.00,10000.00,12000.00,M,M,M,M,M,M,M,M,62.60,KBAM 210435Z AUTO 05004KT 10SM BKN080 BKN100 BKN120 17/15 A2997 RMK AO1,M
HTH,2023-08-21 04:35,-118.6315,38.5448,1282.89,62.60,62.60,100.00,310.00,5.00,0.00,29.90,M,10.00,M,M,M,M,M,M,M,M,M,M,M,M,M,M,M,M,62.60,KHTH 210435Z AUTO 31005KT 10SM 17/17 A2990 RMK A01,M
TMT,2023-08-21 04:35,-117.1971,39.4643,1749.34,55.80,55.40,98.56,340.00,5.00,0.05,30.00,M,M,M,M,M,M,M,M,M,M,M,M,M,M,M,M,M,M,55.80,KTMT 210435Z AUTO 34005KT 13/13 A3000 RMK AO2 P0005 T01320130 PWINO,M
INS,2023-08-21 04:37,-115.6733,36.5872,955.00,69.80,66.20,88.34,110.00,26.00,0.00,29.79,1005.00,10.00,32.00,FEW,SCT,BKN,OVC,4100.00,4800.00,14000.00,21000.00,-DZ,M,M,M,M,M,M,69.80,KINS 210437Z AUTO 11026G32KT 10SM -DZ FEW041 SCT048 BKN140 OVC210 21/19 A2979 RMK AO2 RAE0359DZB0359E01RAB01E14DZB37 SLP050 $,M
05U,2023-08-21 04:50,-116.0051,39.6042,1811.23,57.20,57.20,100.00,M,M,0.00,30.03,M,10.00,M,M,M,M,M,M,M,M,M,M,M,M,M,M,M,M,57.20,K05U 210450Z AUTO 10SM 14/14 A3003 RMK A01,M
P68,2023-08-21 04:53,-116.0056,39.6014,1993.00,57.00,57.00,100.00,360.00,6.00,0.00,30.00,1010.10,M,M,M,M,M,M,M,M,M,M,M,M,M,M,M,M,M,57.00,KP68 210453Z AUTO 36006KT 14/14 A3000 RMK AO1 SLP101 T01390139,M
DRA,2023-08-21 04:53,-116.0278,36.6206,1009.00,71.00,66.00,84.22,90.00,12.00,0.04,29.77,1004.10,10.00,M,BKN,OVC,M,M,6500.00,7500.00,M,M,M,M,M,M,M,M,M,71.00,KDRA 210453Z AUTO 09012KT 10SM BKN065 OVC075 22/19 A2977 RMK AO2 RAE50 SLP041 P0004 T02170189 $,M
ELY,2023-08-21 04:53,-114.8453,39.2950,1909.00,60.00,56.00,86.61,260.00,6.00,T,30.07,1010.10,10.00,M,FEW,M,M,M,9000.00,M,M,M,M,M,M,M,M,M,M,60.00,KELY 210453Z AUTO 26006KT 10SM FEW090 16/13 A3007 RMK AO2 RAB32E43 SLP101 P0000 T01560133,M
VGT,2023-08-21 04:53,-115.1933,36.2111,667.00,73.00,69.00,87.29,40.00,7.00,0.01,29.81,1009.30,10.00,M,FEW,SCT,BKN,M,5000.00,7000.00,9500.00,M,M,M,M,M,M,M,M,73.00,KVGT 210453Z AUTO 04007KT 10SM FEW050 SCT070 BKN095 23/21 A2981 RMK AO2 RAE10 SLP093 P0001 T02280206,M
LOL,2023-08-21 04:53,-118.5701,40.0684,1192.43,64.00,60.00,86.83,0.00,0.00,0.03,29.90,1010.10,9.00,M,OVC,M,M,M,10000.00,M,M,M,-RA,M,M,M,M,M,M,64.00,KLOL 210453Z AUTO 00000KT 9SM -RA OVC100 18/16 A2990 RMK AO2 SLP101 P0003 T01780156,M
BVU,2023-08-21 04:55,-114.8611,35.9475,671.00,75.20,69.80,83.32,150.00,15.00,0.00,29.84,M,4.00,22.00,FEW,SCT,BKN,M,500.00,3500.00,8000.00,M,-RA,M,M,M,M,M,M,75.20,KBVU 210455Z AUTO 15015G22KT 4SM -RA FEW005 SCT035 BKN080 24/21 A2984 RMK AO2,M
CXP,2023-08-21 04:55,-119.7326,39.1923,1431.00,60.80,59.00,93.79,60.00,5.00,0.02,29.95,M,6.00,M,FEW,SCT,BKN,M,4900.00,5500.00,6500.00,M,-RA BR,M,M,M,M,M,M,60.80,KCXP 210455Z AUTO 06005KT 6SM -RA BR FEW049 SCT055 BKN065 16/15 A2995 RMK AO2 P0002,M
INS,2023-08-21 04:55,-115.6733,36.5872,955.00,68.00,68.00,100.00,120.00,20.00,0.06,29.79,1005.00,5.00,31.00,FEW,FEW,BKN,OVC,4000.00,4900.00,6500.00,22000.00,-RA,M,M,M,37.00,90.00,2023-08-21 04:25,68.00,KINS 210455Z AUTO 12020G31KT 5SM -RA FEW040 FEW049 BKN065 OVC220 20/20 A2979 RMK AO2 PK WND 09037/25 RAE0359DZB0359E01RAB01E14DZB37E42RAB42 SLP050 P0006 T02010199 $,M
RNO,2023-08-21 04:55,-119.7711,39.4839,1341.00,64.00,58.00,80.83,90.00,7.00,T,29.92,1008.70,10.00,M,FEW,OVC,M,M,4800.00,8000.00,M,M,RA,M,M,M,M,M,M,64.00,KRNO 210455Z 09007KT 10SM RA FEW048 OVC080 18/14 A2992 RMK AO2 RAB06 SLP087 P0000 T01780144,M
RTS,2023-08-21 04:55,-119.8764,39.6682,1539.00,60.80,55.40,82.37,80.00,9.00,0.00,29.96,M,8.00,M,FEW,BKN,OVC,M,3500.00,6000.00,7500.00,M,-RA,M,M,M,M,M,M,60.80,KRTS 210455Z AUTO 08009KT 8SM -RA FEW035 BKN060 OVC075 16/13 A2996 RMK AO2,M
MEV,2023-08-21 04:55,-119.7500,38.9963,1441.42,60.80,59.00,93.79,0.00,0.00,0.00,29.93,M,5.00,M,FEW,OVC,M,M,6500.00,7500.00,M,M,-RA BR,M,M,M,M,M,M,60.80,KMEV 210455Z AUTO 00000KT 5SM -RA BR FEW065 OVC075 16/15 A2993 RMK AO2,M
HTH,2023-08-21 04:55,-118.6315,38.5448,1282.89,62.60,62.60,100.00,330.00,7.00,0.01,29.87,M,8.00,M,SCT,OVC,M,M,4500.00,5000.00,M,M,M,M,M,M,M,M,M,62.60,KHTH 210455Z AUTO 33007KT 8SM SCT045 OVC050 17/17 A2987 RMK A01 P0001,M
LSV,2023-08-21 04:55,-115.0343,36.2362,570.00,72.30,72.00,98.99,70.00,8.00,0.02,29.77,1006.40,10.00,M,FEW,M,M,M,3200.00,M,M,M,M,M,M,M,M,M,M,72.30,KLSV 210455Z AUTO 07008KT 10SM FEW032 22/22 A2977 RMK AO2 DZB0357E01DZB18E25RAB25E26 SLP064 P0002 T02240222 $,M
BAM,2023-08-21 04:55,-116.8743,40.5990,1382.36,62.60,60.80,93.83,40.00,8.00,0.00,29.96,M,10.00,M,BKN,OVC,M,M,7500.00,9500.00,M,M,M,M,M,M,M,M,M,62.60,KBAM 210455Z AUTO 04008KT 10SM BKN075 OVC095 17/16 A2996 RMK AO1,M
TMT,2023-08-21 04:55,-117.1971,39.4643,1749.34,56.30,56.00,98.92,10.00,6.00,0.07,29.98,M,M,M,M,M,M,M,M,M,M,M,M,M,M,M,M,M,M,56.30,KTMT 210455Z AUTO 01006KT 14/13 A2998 RMK AO2 P0007 T01350133 PWINO,M
EKO,2023-08-21 04:56,-115.7860,40.8242,1367.00,61.00,59.00,93.12,0.00,0.00,T,30.01,1012.20,10.00,M,SCT,BKN,M,M,6500.00,9500.00,M,M,-RA,M,M,M,M,M,M,61.00,KEKO 210456Z AUTO 00000KT 10SM -RA SCT065 BKN095 16/15 A3001 RMK AO2 RAB56 SLP122 P0000 T01610150,M
WMC,2023-08-21 04:56,-117.8072,40.9019,1315.00,63.00,57.00,80.76,0.00,0.00,0.01,29.95,1010.70,10.00,M,FEW,BKN,OVC,M,8000.00,10000.00,12000.00,M,-RA,M,M,M,M,M,M,63.00,KWMC 210456Z AUTO 00000KT 10SM -RA FEW080 BKN100 OVC120 17/14 A2995 RMK AO2 RAB33 SLP107 P0001 T01720139,M
HND,2023-08-21 04:56,-115.1344,35.9729,742.79,M,M,M,M,M,0.00,M,M,M,M,M,M,M,M,M,M,M,M,M,M,M,M,M,M,M,M,KHND 210456Z AUTO RMK AO2 SLPNO PWINO FZRANO $,M
TPH,2023-08-21 04:56,-117.0904,38.0505,1654.00,60.00,59.00,96.49,310.00,3.00,0.00,29.88,1006.80,3.00,M,FEW,BKN,OVC,M,2600.00,3400.00,4800.00,M,+RA BR,M,M,M,M,M,M,60.00,KTPH 210456Z AUTO 31003KT 3SM +RA BR FEW026 BKN034 OVC048 16/15 A2988 RMK AO2 SLP068 T01560150 PNO $,M
LAS,2023-08-21 04:56,-115.1634,36.0719,663.00,74.00,69.00,84.40,80.00,9.00,0.00,29.81,1007.40,10.00,M,BKN,OVC,M,M,4300.00,4900.00,M,M,M,M,M,M,M,M,M,74.00,KLAS 210456Z 08009KT 10SM BKN043 OVC049 23/21 A2981 RMK AO2 SLP074 T02330206,M
NFL,2023-08-21 04:56,-118.7010,39.4166,1199.00,64.00,61.00,89.97,20.00,5.00,0.02,29.90,1009.80,10.00,M,FEW,SCT,OVC,M,5500.00,7000.00,10000.00,M,-RA,M,M,M,M,M,M,64.00,KNFL 210456Z AUTO 02005KT 10SM -RA FEW055 SCT070 OVC100 18/16 A2990 RMK AO2 SLP098 P0002 T01780161,M
INS,2023-08-21 05:05,-115.6733,36.5872,955.00,68.00,68.00,100.00,110.00,23.00,0.00,29.79,1005.00,8.00,30.00,OVC,M,M,M,6500.00,M,M,M,M,M,M,M,M,M,M,68.00,KINS 210505Z AUTO 11023G30KT 8SM OVC065 20/20 A2979 RMK AO2 RAE01DZB01E05 SLP050 $,M
INS,2023-08-21 05:06,-115.6733,36.5872,955.00,68.00,68.00,100.00,110.00,23.00,0.00,29.79,1005.00,8.00,30.00,CLR,M,M,M,M,M,M,M,-DZ,M,M,M,M,M,M,68.00,KINS 210506Z AUTO 11023G30KT 8SM -DZ CLR 20/20 A2979 RMK AO2 RAE01DZB01E05DZB06 SLP050 $,M
05U,2023-08-21 05:10,-116.0051,39.6042,1811.23,59.00,57.20,93.74,M,M,0.00,30.02,M,8.00,M,M,M,M,M,M,M,M,M,M,M,M,M,M,M,M,59.00,K05U 210510Z AUTO 8SM 15/14 A3002 RMK A01,M
LSV,2023-08-21 05:12,-115.0343,36.2362,570.00,75.20,75.20,100.00,60.00,9.00,0.00,29.79,1007.00,10.00,M,FEW,M,M,M,3200.00,M,M,M,-DZ,M,M,M,M,M,M,75.20,KLSV 210512Z AUTO 06009KT 10SM -DZ FEW032 24/24 A2979 RMK AO2 DZB12 PRESRR SLP070 $,M
BVU,2023-08-21 05:15,-114.8611,35.9475,671.00,73.40,68.00,83.21,150.00,22.00,0.00,29.84,M,9.00,27.00,FEW,SCT,BKN,M,500.00,2900.00,5000.00,M,M,M,M,M,M,M,M,73.40,KBVU 210515Z AUTO 15022G27KT 9SM FEW005 SCT029 BKN050 23/20 A2984 RMK AO2,M
CXP,2023-08-21 05:15,-119.7326,39.1923,1431.00,60.80,57.20,87.92,50.00,9.00,0.00,29.93,M,5.00,17.00,FEW,BKN,OVC,M,5000.00,6000.00,7500.00,M,-RA BR,M,M,M,M,M,M,60.80,KCXP 210515Z AUTO 05009G17KT 5SM -RA BR FEW050 BKN060 OVC075 16/14 A2993 RMK AO2,M
RTS,2023-08-21 05:15,-119.8764,39.6682,1539.00,59.00,55.40,87.83,90.00,7.00,0.00,29.96,M,6.00,M,SCT,BKN,OVC,M,2900.00,3700.00,7000.00,M,-RA,M,M,M,M,M,M,59.00,KRTS 210515Z AUTO 09007KT 6SM -RA SCT029 BKN037 OVC070 15/13 A2996 RMK AO2,M
TPH,2023-08-21 05:15,-117.0904,38.0505,1654.00,61.00,60.00,96.51,150.00,6.00,0.00,29.88,M,5.00,M,BKN,OVC,M,M,2700.00,3600.00,M,M,RA BR,M,M,M,M,M,M,61.00,KTPH 210515Z AUTO 15006KT 5SM RA BR BKN027 OVC036 16/16 A2988 RMK AO2 T01610156 PNO $,M
MEV,2023-08-21 05:15,-119.7500,38.9963,1441.42,60.80,59.00,93.79,350.00,3.00,0.00,29.91,M,4.00,M,FEW,SCT,BKN,M,3400.00,4400.00,6000.00,M,-RA BR,M,M,M,M,M,M,60.80,KMEV 210515Z AUTO 35003KT 4SM -RA BR FEW034 SCT044 BKN060 16/15 A2991 RMK AO2,M
HTH,2023-08-21 05:15,-118.6315,38.5448,1282.89,62.60,62.60,100.00,0.00,0.00,0.00,29.88,M,6.00,M,BKN,OVC,M,M,3700.00,4700.00,M,M,BR,M,M,M,M,M,M,62.60,KHTH 210515Z AUTO 00000KT 6SM BR BKN037 OVC047 17/17 A2988 RMK A01,M
BAM,2023-08-21 05:15,-116.8743,40.5990,1382.36,62.60,60.80,93.83,70.00,10.00,0.00,29.96,M,7.00,M,SCT,SCT,BKN,M,3400.00,7000.00,9500.00,M,M,M,M,M,M,M,M,62.60,KBAM 210515Z AUTO 07010KT 7SM SCT034 SCT070 BKN095 17/16 A2996 RMK AO1,M
TMT,2023-08-21 05:15,-117.1971,39.4643,1749.34,56.30,56.00,98.92,10.00,7.00,0.02,29.97,M,M,M,M,M,M,M,M,M,M,M,M,M,M,M,M,M,M,56.30,KTMT 210515Z AUTO 01007KT 14/13 A2997 RMK AO2 P0002 T01350133 PWINO,M
INS,2023-08-21 05:18,-115.6733,36.5872,955.00,68.00,68.00,100.00,120.00,23.00,0.00,29.79,1005.00,5.00,32.00,FEW,M,M,M,4200.00,M,M,M,BR,M,M,M,M,M,M,68.00,KINS 210518Z AUTO 12023G32KT 5SM BR FEW042 20/20 A2979 RMK AO2 RAE01DZB01E05DZB06E07RAB07E09DZB09E12RAB12E18 SLP050 $,M
INS,2023-08-21 05:19,-115.6733,36.5872,955.00,68.00,68.00,100.00,120.00,22.00,0.00,29.79,1005.00,5.00,32.00,FEW,M,M,M,4200.00,M,M,M,-RA BR,M,M,M,M,M,M,68.00,KINS 210519Z AUTO 12022G32KT 5SM -RA BR FEW042 20/20 A2979 RMK AO2 RAE01DZB01E05DZB06E07RAB07E09DZB09E12RAB12E18RAB19 SLP050 $,M
LSV,2023-08-21 05:20,-115.0343,36.2362,570.00,75.20,75.20,100.00,90.00,14.00,0.00,29.79,1007.00,10.00,18.00,CLR,M,M,M,M,M,M,M,M,M,M,M,M,M,M,75.20,KLSV 210520Z AUTO 09014G18KT 10SM CLR 24/24 A2979 RMK AO2 DZB12E18RAB18E20 SLP070 $,M
TPH,2023-08-21 05:22,-117.0904,38.0505,1654.00,60.00,60.00,100.00,140.00,6.00,0.00,29.88,M,5.00,M,FEW,BKN,OVC,M,900.00,2900.00,4700.00,M,RA BR,M,M,M,M,M,M,60.00,KTPH 210522Z AUTO 14006KT 5SM RA BR FEW009 BKN029 OVC047 16/16 A2988 RMK AO2 T01560156 PNO $,M
LSV,2023-08-21 05:23,-115.0343,36.2362,570.00,75.20,75.20,100.00,100.00,8.00,0.00,29.79,1007.00,10.00,18.00,CLR,M,M,M,M,M,M,M,-RA,M,M,M,M,M,M,75.20,KLSV 210523Z AUTO 10008G18KT 10SM -RA CLR 24/24 A2979 RMK AO2 DZB12E18RAB18E20RAB23 SLP070 $,M
LSV,2023-08-21 05:26,-115.0343,36.2362,570.00,75.20,75.20,100.00,100.00,9.00,0.00,29.79,1007.00,10.00,18.00,CLR,M,M,M,M,M,M,M,M,M,M,M,M,M,M,75.20,KLSV 210526Z AUTO 10009G18KT 10SM CLR 24/24 A2979 RMK AO2 DZB12E18RAB18E20RAB23E26 SLP070 $,M
TPH,2023-08-21 05:32,-117.0904,38.0505,1654.00,61.00,60.00,96.51,130.00,10.00,0.00,29.88,M,5.00,M,FEW,SCT,OVC,M,2400.00,3000.00,4900.00,M,RA BR,M,M,M,M,M,M,61.00,KTPH 210532Z AUTO 13010KT 5SM RA BR FEW024 SCT030 OVC049 16/16 A2988 RMK AO2 T01610156 PNO $,M
BVU,2023-08-21 05:35,-114.8611,35.9475,671.00,73.40,69.80,88.51,140.00,20.00,0.00,29.84,M,3.00,26.00,FEW,SCT,BKN,M,300.00,3100.00,4700.00,M,HZ,M,M,M,M,M,M,73.40,KBVU 210535Z AUTO 14020G26KT 3SM HZ FEW003 SCT031 BKN047 23/21 A2984 RMK AO2,M
CXP,2023-08-21 05:35,-119.7326,39.1923,1431.00,60.80,57.20,87.92,50.00,10.00,0.00,29.92,M,6.00,M,FEW,OVC,M,M,5000.00,6000.00,M,M,-RA BR,M,M,M,M,M,M,60.80,KCXP 210535Z AUTO 05010KT 6SM -RA BR FEW050 OVC060 16/14 A2992 RMK AO2,M
RTS,2023-08-21 05:35,-119.8764,39.6682,1539.00,59.00,57.20,93.74,110.00,7.00,0.00,29.95,M,6.00,M,SCT,BKN,OVC,M,3000.00,3900.00,6000.00,M,-DZ,M,M,M,M,M,M,59.00,KRTS 210535Z AUTO 11007KT 6SM -DZ SCT030 BKN039 OVC060 15/14 A2995 RMK AO2,M
05U,2023-08-21 05:35,-116.0051,39.6042,1811.23,59.00,57.20,93.74,M,M,0.00,30.02,M,5.00,M,M,M,M,M,M,M,M,M,BR,M,M,M,M,M,M,59.00,K05U 210535Z AUTO 5SM BR 15/14 A3002 RMK A01,M
MEV,2023-08-21 05:35,-119.7500,38.9963,1441.42,60.80,59.00,93.79,320.00,5.00,0.00,29.91,M,5.00,M,FEW,SCT,OVC,M,3500.00,5500.00,7000.00,M,-RA BR,M,M,M,M,M,M,60.80,KMEV 210535Z AUTO 32005KT 5SM -RA BR FEW035 SCT055 OVC070 16/15 A2991 RMK AO2,M
HTH,2023-08-21 05:35,-118.6315,38.5448,1282.89,62.60,62.60,100.00,0.00,0.00,0.00,29.85,M,4.00,M,SCT,OVC,M,M,3600.00,4600.00,M,M,BR,M,M,M,M,M,M,62.60,KHTH 210535Z AUTO 00000KT 4SM BR SCT036 OVC046 17/17 A2985 RMK A01,M
BAM,2023-08-21 05:35,-116.8743,40.5990,1382.36,62.60,60.80,93.83,30.00,6.00,0.00,29.97,M,10.00,M,SCT,SCT,M,M,6000.00,7000.00,M,M,M,M,M,M,M,M,M,62.60,KBAM 210535Z AUTO 03006KT 10SM SCT060 SCT070 17/16 A2997 RMK AO1,M
TMT,2023-08-21 05:35,-117.1971,39.4643,1749.34,56.50,56.30,99.28,20.00,12.00,0.04,30.00,M,M,M,M,M,M,M,M,M,M,M,M,M,M,M,M,M,M,56.50,KTMT 210535Z AUTO 02012KT 14/14 A3000 RMK AO2 P0004 T01360135 PWINO,M
DRA,2023-08-21 05:40,-116.0278,36.6206,1009.00,70.00,66.00,87.14,160.00,9.00,T,29.78,M,10.00,M,FEW,BKN,OVC,M,4600.00,6000.00,9000.00,M,-RA,M,M,M,M,M,M,70.00,KDRA 210540Z AUTO 16009KT 10SM -RA FEW046 BKN060 OVC090 21/19 A2978 RMK AO2 WSHFT 0523 RAB0458 P0000 T02110189 $,M
05U,2023-08-21 05:50,-116.0051,39.6042,1811.23,59.00,57.20,93.74,M,M,0.00,30.01,M,2.50,M,M,M,M,M,M,M,M,M,BR,M,M,M,M,M,M,59.00,K05U 210550Z AUTO 2 1/2SM BR 15/14 A3001 RMK A01 VIS 1 3/4V4,M
P68,2023-08-21 05:53,-116.0056,39.6014,1993.00,58.00,58.00,100.00,30.00,6.00,0.01,29.98,1009.20,M,M,M,M,M,M,M,M,M,M,M,M,M,M,M,M,M,58.00,KP68 210553Z AUTO 03006KT 14/14 A2998 RMK AO1 SLP092 P0001 60011 T01440144 10144 20139 58014,M
DRA,2023-08-21 05:53,-116.0278,36.6206,1009.00,69.00,66.00,90.17,170.00,12.00,0.01,29.79,1004.60,8.00,M,SCT,OVC,M,M,4600.00,6000.00,M,M,-RA,M,M,M,M,M,M,69.00,KDRA 210553Z AUTO 17012KT 8SM -RA SCT046 OVC060 21/19 A2979 RMK AO2 WSHFT 0523 RAB0458 SLP046 P0001 60019 T02060189 10239 20200 51009 $,M
ELY,2023-08-21 05:53,-114.8453,39.2950,1909.00,62.00,56.00,80.68,170.00,7.00,T,30.06,1009.60,9.00,M,FEW,SCT,BKN,M,5500.00,7000.00,9500.00,M,-RA,M,M,M,M,M,M,62.00,KELY 210553Z AUTO 17007KT 9SM -RA FEW055 SCT070 BKN095 17/13 A3006 RMK AO2 RAB43 SLP096 P0000 60005 T01670133 10167 20150 58001,M
VGT,2023-08-21 05:53,-115.1933,36.2111,667.00,74.00,69.00,84.40,130.00,16.00,T,29.82,1009.70,10.00,25.00,BKN,BKN,OVC,M,3600.00,4500.00,6000.00,M,-RA,M,M,M,M,M,M,74.00,KVGT 210553Z AUTO 13016G25KT 10SM -RA BKN036 BKN045 OVC060 23/21 A2982 RMK AO2 RAB51 SLP097 P0000 60031 T02330206 10261 20222 51020,M
LOL,2023-08-21 05:53,-118.5701,40.0684,1192.43,64.00,62.00,93.21,0.00,0.00,T,29.88,1009.00,10.00,M,BKN,OVC,M,M,4400.00,11000.00,M,M,M,M,M,M,M,M,M,64.00,KLOL 210553Z AUTO 00000KT 10SM BKN044 OVC110 18/17 A2988 RMK AO2 RAE35 SLP090 P0000 60004 T01780167 10211 20172 58009,M
BVU,2023-08-21 05:55,-114.8611,35.9475,671.00,73.40,69.80,88.51,150.00,16.00,0.00,29.85,M,2.50,28.00,FEW,BKN,OVC,M,300.00,2100.00,11000.00,M,BR,M,M,M,M,M,M,73.40,KBVU 210555Z AUTO 15016G28KT 2 1/2SM BR FEW003 BKN021 OVC110 23/21 A2985 RMK AO2,M
CXP,2023-08-21 05:55,-119.7326,39.1923,1431.00,60.80,59.00,93.79,40.00,7.00,0.05,29.92,M,6.00,M,FEW,OVC,M,M,5000.00,6000.00,M,M,-RA BR,M,M,M,M,M,M,60.80,KCXP 210555Z AUTO 04007KT 6SM -RA BR FEW050 OVC060 16/15 A2992 RMK AO2 P0005,M
INS,2023-08-21 05:55,-115.6733,36.5872,955.00,68.70,68.40,98.97,120.00,20.00,0.06,29.78,1004.70,6.00,29.00,BKN,OVC,M,M,6000.00,16000.00,M,M,-RA BR,M,M,M,37.00,90.00,2023-08-21 05:27,68.70,KINS 210555Z AUTO 12020G29KT 6SM -RA BR BKN060 OVC160 20/20 A2978 RMK AO2 PK WND 09037/27 RAE01DZB01E05DZB06E07RAB07E09DZB09E12RAB12E18RAB19 SLP047 P0006 60020 T02040202 10229 20201 50006 $,M
RNO,2023-08-21 05:55,-119.7711,39.4839,1341.00,63.00,59.00,86.77,90.00,8.00,0.06,29.90,1008.00,8.00,M,SCT,OVC,M,M,4500.00,7000.00,M,M,RA,M,M,M,M,M,M,63.00,KRNO 210555Z 09008KT 8SM RA SCT045 OVC070 17/15 A2990 RMK AO2 SLP080 P0006 60006 T01720150 10217 20172 58003,M
RTS,2023-08-21 05:55,-119.8764,39.6682,1539.00,59.00,57.20,93.74,90.00,5.00,0.03,29.94,M,8.00,M,FEW,SCT,BKN,M,3100.00,4000.00,6000.00,M,-RA,M,M,M,M,M,M,59.00,KRTS 210555Z AUTO 09005KT 8SM -RA FEW031 SCT040 BKN060 15/14 A2994 RMK AO2 P0003,M
MEV,2023-08-21 05:55,-119.7500,38.9963,1441.42,59.00,59.00,100.00,320.00,4.00,0.00,29.90,M,6.00,M,FEW,FEW,OVC,M,4600.00,5500.00,6500.00,M,-RA BR,M,M,M,M,M,M,59.00,KMEV 210555Z AUTO 32004KT 6SM -RA BR FEW046 FEW055 OVC065 15/15 A2990 RMK AO2,M
BAM,2023-08-21 05:55,-116.8743,40.5990,1382.36,62.60,60.80,93.83,10.00,6.00,0.00,29.95,M,10.00,M,SCT,SCT,SCT,M,6000.00,7000.00,12000.00,M,M,M,M,M,M,M,M,62.60,KBAM 210555Z AUTO 01006KT 10SM SCT060 SCT070 SCT120 17/16 A2995 RMK AO1,M
HTH,2023-08-21 05:55,-118.6315,38.5448,1282.89,60.80,60.80,100.00,280.00,6.00,0.08,29.85,M,4.00,M,FEW,SCT,BKN,M,1400.00,2800.00,4400.00,M,BR,M,M,M,M,M,M,60.80,KHTH 210555Z AUTO 28006KT 4SM BR FEW014 SCT028 BKN044 16/16 A2985 RMK A01 P0008,M
TMT,2023-08-21 05:55,-117.1971,39.4643,1749.34,56.70,56.30,98.56,30.00,11.00,0.06,29.94,M,M,M,M,M,M,M,M,M,M,M,M,M,M,M,M,M,M,56.70,KTMT 210555Z AUTO 03011KT 14/14 A2994 RMK AO2 P0006 60033 T01370135 10150 20130 PWINO,M
LSV,2023-08-21 05:55,-115.0343,36.2362,570.00,76.50,75.20,95.76,130.00,14.00,0.01,29.81,1007.50,10.00,24.00,FEW,M,M,M,3000.00,M,M,M,M,M,M,M,M,M,M,76.50,KLSV 210555Z AUTO 13014G24KT 10SM FEW030 25/24 A2981 RMK AO2 DZB12E18RAB18E20RAB23E26 SLP075 P0001 60004 T02470240 10258 20216 50029 $,M
EKO,2023-08-21 05:56,-115.7860,40.8242,1367.00,60.00,59.00,96.49,90.00,3.00,0.02,29.98,1011.40,10.00,M,FEW,SCT,BKN,M,3100.00,9000.00,11000.00,M,-RA,M,M,M,M,M,M,60.00,KEKO 210556Z AUTO 09003KT 10SM -RA FEW031 SCT090 BKN110 16/15 A2998 RMK AO2 RAE19B55 SLP114 P0002 60011 T01560150 10172 20156 58015,M
WMC,2023-08-21 05:56,-117.8072,40.9019,1315.00,63.00,59.00,86.77,0.00,0.00,T,29.93,1009.90,10.00,M,FEW,BKN,OVC,M,8000.00,9500.00,11000.00,M,-RA,M,M,M,M,M,M,63.00,KWMC 210556Z AUTO 00000KT 10SM -RA FEW080 BKN095 OVC110 17/15 A2993 RMK AO2 RAE15B47 SLP099 P0000 60001 T01720150 10222 20172 58008,M
HND,2023-08-21 05:56,-115.1344,35.9729,742.79,M,M,M,M,M,0.00,M,M,M,M,M,M,M,M,M,M,M,M,M,M,M,M,M,M,M,M,KHND 210556Z AUTO RMK AO2 SLPNO 6//// PWINO FZRANO $,M
TPH,2023-08-21 05:56,-117.0904,38.0505,1654.00,60.00,60.00,100.00,130.00,12.00,0.00,29.86,1005.90,6.00,M,FEW,BKN,OVC,M,3300.00,4700.00,5500.00,M,RA BR,M,M,M,M,M,M,60.00,KTPH 210556Z AUTO 13012KT 6SM RA BR FEW033 BKN047 OVC055 16/16 A2986 RMK AO2 SLP059 6//// T01560156 10161 20139 56024 PNO $,M
LAS,2023-08-21 05:56,-115.1634,36.0719,663.00,75.00,67.00,76.19,140.00,10.00,0.00,29.84,1008.50,9.00,23.00,BKN,OVC,M,M,3900.00,4800.00,M,M,M,M,M,M,30.00,170.00,2023-08-21 05:37,75.00,KLAS 210556Z 14010G23KT 9SM BKN039 OVC048 24/19 A2984 RMK AO2 PK WND 17030/0537 SLP085 VIS LWR W-N SHRA OBSCURES MTNS DSNT W-N 60016 T02390194 10244 20217 51022,M
INS,2023-08-21 06:09,-115.6733,36.5872,955.00,69.80,69.80,100.00,110.00,30.00,0.00,29.79,1004.90,5.00,37.00,FEW,SCT,SCT,M,500.00,1200.00,3100.00,M,BR,M,M,M,M,M,M,69.80,KINS 210609Z AUTO 11030G37KT 5SM BR FEW005 SCT012 SCT031 21/21 A2979 RMK AO2 RAE09 SLP049 $,M
INS,2023-08-21 06:10,-115.6733,36.5872,955.00,69.80,69.80,100.00,110.00,29.00,0.00,29.79,1004.90,5.00,37.00,FEW,SCT,M,M,500.00,1200.00,M,M,-RA BR,M,M,M,M,M,M,69.80,KINS 210610Z AUTO 11029G37KT 5SM -RA BR FEW005 SCT012 21/21 A2979 RMK AO2 RAE09RAB10 SLP049 $,M
BVU,2023-08-21 06:15,-114.8611,35.9475,671.00,71.60,68.00,88.43,160.00,14.00,0.00,29.86,M,9.00,19.00,SCT,BKN,BKN,M,1800.00,3500.00,5500.00,M,M,M,M,M,M,M,M,71.60,KBVU 210615Z AUTO 16014G19KT 9SM SCT018 BKN035 BKN055 22/20 A2986 RMK AO2,M
CXP,2023-08-21 06:15,-119.7326,39.1923,1431.00,60.80,59.00,93.79,20.00,5.00,0.00,29.91,M,4.00,M,SCT,OVC,M,M,4300.00,6000.00,M,M,-RA BR,M,M,M,M,M,M,60.80,KCXP 210615Z AUTO 02005KT 4SM -RA BR SCT043 OVC060 16/15 A2991 RMK AO2,M
RTS,2023-08-21 06:15,-119.8764,39.6682,1539.00,59.00,57.20,93.74,100.00,6.00,0.00,29.94,M,9.00,M,FEW,SCT,BKN,M,3300.00,4100.00,6500.00,M,-RA,M,M,M,M,M,M,59.00,KRTS 210615Z AUTO 10006KT 9SM -RA FEW033 SCT041 BKN065 15/14 A2994 RMK AO2,M
05U,2023-08-21 06:15,-116.0051,39.6042,1811.23,59.00,57.20,93.74,M,M,0.00,30.00,M,6.00,M,M,M,M,M,M,M,M,M,BR,M,M,M,M,M,M,59.00,K05U 210615Z AUTO 6SM BR 15/14 A3000 RMK A01,M
MEV,2023-08-21 06:15,-119.7500,38.9963,1441.42,59.00,59.00,100.00,300.00,5.00,0.00,29.89,M,4.00,M,FEW,SCT,OVC,M,2100.00,4700.00,6000.00,M,-RA BR,M,M,M,M,M,M,59.00,KMEV 210615Z AUTO 30005KT 4SM -RA BR FEW021 SCT047 OVC060 15/15 A2989 RMK AO2,M
HTH,2023-08-21 06:15,-118.6315,38.5448,1282.89,60.80,60.80,100.00,330.00,7.00,0.00,29.84,M,3.00,M,SCT,BKN,OVC,M,1200.00,3100.00,3800.00,M,BR,M,M,M,M,M,M,60.80,KHTH 210615Z AUTO 33007KT 3SM BR SCT012 BKN031 OVC038 16/16 A2984 RMK A01,M
BAM,2023-08-21 06:15,-116.8743,40.5990,1382.36,60.80,60.80,100.00,30.00,4.00,0.00,29.95,M,10.00,M,BKN,BKN,M,M,9000.00,11000.00,M,M,M,M,M,M,M,M,M,60.80,KBAM 210615Z AUTO 03004KT 10SM BKN090 BKN110 16/16 A2995 RMK AO1,M
TMT,2023-08-21 06:15,-117.1971,39.4643,1749.34,56.70,56.30,98.56,30.00,9.00,0.03,29.94,M,M,M,BKN,BKN,OVC,M,500.00,1600.00,5000.00,M,M,M,M,M,M,M,M,56.70,KTMT 210615Z AUTO 03009KT BKN005 BKN016 OVC050 14/14 A2994 RMK AO2 P0003 T01370135 PWINO,M
TPH,2023-08-21 06:26,-117.0904,38.0505,1654.00,61.00,61.00,100.00,130.00,14.00,0.00,29.86,M,7.00,M,BKN,BKN,OVC,M,2200.00,3300.00,4600.00,M,RA,M,M,M,M,M,M,61.00,KTPH 210626Z AUTO 13014KT 7SM RA BKN022 BKN033 OVC046 16/16 A2986 RMK AO2 T01610161 PNO $,M
05U,2023-08-21 06:30,-116.0051,39.6042,1811.23,59.00,57.20,93.74,M,M,0.00,30.01,M,9.00,M,M,M,M,M,M,M,M,M,M,M,M,M,M,M,M,59.00,K05U 210630Z AUTO 9SM 15/14 A3001 RMK A01,M
HTH,2023-08-21 06:30,-118.6315,38.5448,1282.89,60.80,60.80,100.00,330.00,13.00,0.00,29.83,M,3.00,M,SCT,BKN,OVC,M,700.00,1200.00,3500.00,M,BR,M,M,M,M,M,M,60.80,KHTH 210630Z AUTO 33013KT 3SM BR SCT007 BKN012 OVC035 16/16 A2983 RMK A01,M
TPH,2023-08-21 06:33,-117.0904,38.0505,1654.00,61.00,61.00,100.00,120.00,14.00,0.00,29.86,M,7.00,M,SCT,BKN,OVC,M,2200.00,3200.00,5000.00,M,RA,M,M,M,M,M,M,61.00,KTPH 210633Z AUTO 12014KT 7SM RA SCT022 BKN032 OVC050 16/16 A2986 RMK AO2 T01610161 PNO $,M
BVU,2023-08-21 06:35,-114.8611,35.9475,671.00,73.40,66.20,78.19,170.00,21.00,0.00,29.86,M,10.00,29.00,FEW,SCT,BKN,M,2300.00,4600.00,5500.00,M,M,M,M,M,M,M,M,73.40,KBVU 210635Z AUTO 17021G29KT 10SM FEW023 SCT046 BKN055 23/19 A2986 RMK AO2,M
CXP,2023-08-21 06:35,-119.7326,39.1923,1431.00,60.80,59.00,93.79,360.00,5.00,0.00,29.90,M,6.00,M,SCT,BKN,OVC,M,1400.00,4200.00,6500.00,M,-RA BR,M,M,M,M,M,M,60.80,KCXP 210635Z AUTO 36005KT 6SM -RA BR SCT014 BKN042 OVC065 16/15 A2990 RMK AO2,M
RTS,2023-08-21 06:35,-119.8764,39.6682,1539.00,59.00,57.20,93.74,100.00,3.00,0.00,29.93,M,9.00,M,FEW,SCT,BKN,M,3300.00,3900.00,6500.00,M,-RA,M,M,M,M,M,M,59.00,KRTS 210635Z AUTO 10003KT 9SM -RA FEW033 SCT039 BKN065 15/14 A2993 RMK AO2,M
MEV,2023-08-21 06:35,-119.7500,38.9963,1441.42,59.00,59.00,100.00,300.00,5.00,0.00,29.88,M,4.00,M,SCT,BKN,OVC,M,2600.00,4800.00,6000.00,M,-RA BR,M,M,M,M,M,M,59.00,KMEV 210635Z AUTO 30005KT 4SM -RA BR SCT026 BKN048 OVC060 15/15 A2988 RMK AO2,M
BAM,2023-08-21 06:35,-116.8743,40.5990,1382.36,62.60,59.00,88.00,30.00,5.00,0.00,29.93,M,10.00,M,SCT,SCT,OVC,M,7000.00,8500.00,10000.00,M,M,M,M,M,M,M,M,62.60,KBAM 210635Z AUTO 03005KT 10SM SCT070 SCT085 OVC100 17/15 A2993 RMK AO1,M
TMT,2023-08-21 06:35,-117.1971,39.4643,1749.34,57.00,56.50,98.21,30.00,10.00,0.09,29.94,M,M,M,M,M,M,M,M,M,M,M,M,M,M,M,M,M,M,57.00,KTMT 210635Z AUTO 03010KT 14/14 A2994 RMK AO2 P0009 T01380136 PWINO,M
P68,2023-08-21 06:53,-116.0056,39.6014,1993.00,58.00,57.00,96.46,M,4.00,0.00,29.97,1008.90,M,M,M,M,M,M,M,M,M,M,M,M,M,M,M,M,M,58.00,KP68 210653Z AUTO VRB04KT 14/14 A2997 RMK AO1 SLP089 T01440139,M
DRA,2023-08-21 06:53,-116.0278,36.6206,1009.00,70.00,66.00,87.14,130.00,7.00,0.05,29.80,1005.10,9.00,M,OVC,M,M,M,6000.00,M,M,M,-RA,M,M,M,28.00,130.00,2023-08-21 05:58,70.00,KDRA 210653Z AUTO 13007KT 9SM -RA OVC060 21/19 A2980 RMK AO2 PK WND 13028/0558 SLP051 P0005 T02110189 $,M
ELY,2023-08-21 06:53,-114.8453,39.2950,1909.00,61.00,56.00,83.59,180.00,14.00,0.01,30.05,1009.20,10.00,M,FEW,FEW,BKN,M,3900.00,7000.00,10000.00,M,M,M,M,M,M,M,M,61.00,KELY 210653Z AUTO 18014KT 10SM FEW039 FEW070 BKN100 16/13 A3005 RMK AO2 RAE10 SLP092 P0001 T01610133,M
VGT,2023-08-21 06:53,-115.1933,36.2111,667.00,73.00,67.00,81.48,160.00,19.00,T,29.86,1010.90,10.00,M,SCT,OVC,M,M,3900.00,4900.00,M,M,M,M,M,M,39.00,150.00,2023-08-21 05:58,73.00,KVGT 210653Z AUTO 16019KT 10SM SCT039 OVC049 23/19 A2986 RMK AO2 PK WND 15039/0558 RAE01 SLP109 P0000 T02280194,M
LOL,2023-08-21 06:53,-118.5701,40.0684,1192.43,64.00,59.00,83.78,360.00,5.00,0.01,29.82,1006.80,10.00,M,FEW,OVC,M,M,8000.00,10000.00,M,M,-RA,M,M,M,M,M,M,64.00,KLOL 210653Z AUTO 36005KT 10SM -RA FEW080 OVC100 18/15 A2982 RMK AO2 RAB07 SLP068 P0001 T01780150,M
BVU,2023-08-21 06:55,-114.8611,35.9475,671.00,73.40,66.20,78.19,170.00,18.00,0.00,29.87,M,10.00,23.00,FEW,BKN,BKN,M,2700.00,4500.00,5500.00,M,M,M,M,M,M,M,M,73.40,KBVU 210655Z AUTO 17018G23KT 10SM FEW027 BKN045 BKN055 23/19 A2987 RMK AO2,M
CXP,2023-08-21 06:55,-119.7326,39.1923,1431.00,60.80,57.20,87.92,330.00,4.00,0.04,29.89,M,9.00,M,FEW,SCT,OVC,M,1400.00,3400.00,6500.00,M,-RA,M,M,M,M,M,M,60.80,KCXP 210655Z AUTO 33004KT 9SM -RA FEW014 SCT034 OVC065 16/14 A2989 RMK AO2 P0004,M
INS,2023-08-21 06:55,-115.6733,36.5872,955.00,68.50,68.00,98.30,110.00,24.00,0.28,29.80,1005.20,7.00,36.00,OVC,M,M,M,6000.00,M,M,M,-RA BR,M,M,M,42.00,90.00,2023-08-21 06:16,68.50,KINS 210655Z AUTO 11024G36KT 7SM -RA BR OVC060 20/20 A2980 RMK AO2 PK WND 09042/16 RAE09RAB10E29DZB29E38RAB38 SLP052 P0028 T02030201 $,M
RNO,2023-08-21 06:55,-119.7711,39.4839,1341.00,63.00,59.00,86.77,290.00,4.00,0.07,29.87,1007.20,8.00,M,FEW,OVC,M,M,3500.00,7000.00,M,M,-RA,M,M,M,M,M,M,63.00,KRNO 210655Z 29004KT 8SM -RA FEW035 OVC070 17/15 A2987 RMK AO2 SLP072 P0007 T01720150,M
RTS,2023-08-21 06:55,-119.8764,39.6682,1539.00,59.00,57.20,93.74,320.00,4.00,0.05,29.92,M,7.00,M,SCT,BKN,OVC,M,3600.00,4700.00,8500.00,M,-RA,M,M,M,M,M,M,59.00,KRTS 210655Z AUTO 32004KT 7SM -RA SCT036 BKN047 OVC085 15/14 A2992 RMK AO2 P0005,M
05U,2023-08-21 06:55,-116.0051,39.6042,1811.23,57.20,57.20,100.00,M,M,0.00,30.00,M,9.00,M,M,M,M,M,M,M,M,M,M,M,M,M,M,M,M,57.20,K05U 210655Z AUTO 9SM 14/14 A3000 RMK A01,M
MEV,2023-08-21 06:55,-119.7500,38.9963,1441.42,59.00,59.00,100.00,320.00,5.00,0.00,29.88,M,5.00,M,FEW,SCT,BKN,M,2800.00,4000.00,6000.00,M,-RA BR,M,M,M,M,M,M,59.00,KMEV 210655Z AUTO 32005KT 5SM -RA BR FEW028 SCT040 BKN060 15/15 A2988 RMK AO2,M
BAM,2023-08-21 06:55,-116.8743,40.5990,1382.36,60.80,59.00,93.79,360.00,6.00,0.00,29.93,M,10.00,M,SCT,OVC,M,M,7000.00,10000.00,M,M,M,M,M,M,M,M,M,60.80,KBAM 210655Z AUTO 36006KT 10SM SCT070 OVC100 16/15 A2993 RMK AO1,M
HTH,2023-08-21 06:55,-118.6315,38.5448,1282.89,59.00,59.00,100.00,350.00,9.00,0.12,29.83,M,3.00,14.00,FEW,BKN,OVC,M,600.00,2500.00,3000.00,M,BR,M,M,M,M,M,M,59.00,KHTH 210655Z AUTO 35009G14KT 3SM BR FEW006 BKN025 OVC030 15/15 A2983 RMK A01 P0012,M
LSV,2023-08-21 06:55,-115.0343,36.2362,570.00,76.50,68.70,76.84,140.00,25.00,0.00,29.83,1008.20,10.00,39.00,FEW,SCT,SCT,M,3200.00,7500.00,15000.00,M,M,M,M,M,39.00,140.00,2023-08-21 06:44,76.50,KLSV 210655Z AUTO 14025G39KT 10SM FEW032 SCT075 SCT150 25/20 A2983 RMK AO2 PK WND 14039/44 SLP082 T02470204 $,M
TMT,2023-08-21 06:55,-117.1971,39.4643,1749.34,56.70,56.30,98.56,10.00,8.00,0.13,29.94,M,M,M,BKN,BKN,OVC,M,500.00,2300.00,4800.00,M,M,M,M,M,M,M,M,56.70,KTMT 210655Z AUTO 01008KT BKN005 BKN023 OVC048 14/14 A2994 RMK AO2 P0013 T01370135 PWINO,M
EKO,2023-08-21 06:56,-115.7860,40.8242,1367.00,63.00,60.00,89.93,70.00,4.00,0.01,29.98,1010.70,10.00,M,BKN,OVC,M,M,7000.00,9000.00,M,M,M,M,M,M,M,M,M,63.00,KEKO 210656Z AUTO 07004KT 10SM BKN070 OVC090 17/16 A2998 RMK AO2 RAE22 SLP107 P0001 T01720156,M
WMC,2023-08-21 06:56,-117.8072,40.9019,1315.00,63.00,59.00,86.77,70.00,3.00,0.02,29.91,1008.70,10.00,M,OVC,M,M,M,9500.00,M,M,M,-RA,M,M,M,M,M,M,63.00,KWMC 210656Z AUTO 07003KT 10SM -RA OVC095 17/15 A2991 RMK AO2 RAE21B44 SLP087 P0002 T01720150,M
NFL,2023-08-21 06:56,-118.7010,39.4166,1199.00,62.00,60.00,93.15,330.00,8.00,0.06,29.80,1007.00,5.00,M,FEW,BKN,OVC,M,3500.00,6000.00,9500.00,M,RA BR,M,M,M,M,M,M,62.00,KNFL 210656Z AUTO 33008KT 5SM RA BR FEW035 BKN060 OVC095 17/16 A2980 RMK AO2 SLP070 P0006 T01670156,M
HND,2023-08-21 06:56,-115.1344,35.9729,742.79,M,M,M,M,M,0.00,M,M,M,M,M,M,M,M,M,M,M,M,M,M,M,M,M,M,M,M,KHND 210656Z AUTO RMK AO2 SLPNO PWINO FZRANO $,M
TPH,2023-08-21 06:56,-117.0904,38.0505,1654.00,62.00,61.00,96.52,130.00,16.00,0.00,29.85,1005.70,6.00,24.00,FEW,BKN,OVC,M,1700.00,5000.00,7500.00,M,RA BR,M,M,M,M,M,M,62.00,KTPH 210656Z AUTO 13016G24KT 6SM RA BR FEW017 BKN050 OVC075 17/16 A2985 RMK AO2 SLP057 T01670161 PNO $,M
LAS,2023-08-21 06:56,-115.1634,36.0719,663.00,74.00,66.00,76.10,160.00,14.00,0.00,29.86,1009.30,9.00,27.00,FEW,BKN,OVC,M,2500.00,3400.00,4700.00,M,M,M,M,M,27.00,180.00,2023-08-21 06:51,74.00,KLAS 210656Z 16014G27KT 9SM FEW025 BKN034 OVC047 23/19 A2986 RMK AO2 PK WND 18027/0651 SLP093 VIS LWR NW-NE VCSH MTNS OBSCURED DSNT W-N-NE T02330189,M
BVU,2023-08-21 07:15,-114.8611,35.9475,671.00,73.40,66.20,78.19,160.00,16.00,0.00,29.88,M,10.00,22.00,FEW,SCT,OVC,M,2900.00,4100.00,4900.00,M,M,M,M,M,M,M,M,73.40,KBVU 210715Z AUTO 16016G22KT 10SM FEW029 SCT041 OVC049 23/19 A2988 RMK AO2,M
CXP,2023-08-21 07:15,-119.7326,39.1923,1431.00,59.00,55.40,87.83,0.00,0.00,0.00,29.89,M,6.00,M,SCT,BKN,OVC,M,2000.00,3100.00,7000.00,M,-RA BR,M,M,M,M,M,M,59.00,KCXP 210715Z AUTO 00000KT 6SM -RA BR SCT020 BKN031 OVC070 15/13 A2989 RMK AO2,M
RTS,2023-08-21 07:15,-119.8764,39.6682,1539.00,59.00,59.00,100.00,310.00,3.00,0.00,29.92,M,7.00,M,FEW,SCT,BKN,M,3700.00,4400.00,6500.00,M,-DZ,M,M,M,M,M,M,59.00,KRTS 210715Z AUTO 31003KT 7SM -DZ FEW037 SCT044 BKN065 15/15 A2992 RMK AO2,M
05U,2023-08-21 07:15,-116.0051,39.6042,1811.23,60.80,57.20,87.92,M,M,0.00,29.99,M,10.00,M,M,M,M,M,M,M,M,M,M,M,M,M,M,M,M,60.80,K05U 210715Z AUTO 10SM 16/14 A2999 RMK A01,M
MEV,2023-08-21 07:15,-119.7500,38.9963,1441.42,59.00,59.00,100.00,360.00,5.00,0.00,29.87,M,6.00,M,SCT,BKN,OVC,M,3300.00,4700.00,6000.00,M,-RA BR,M,M,M,M,M,M,59.00,KMEV 210715Z AUTO 36005KT 6SM -RA BR SCT033 BKN047 OVC060 15/15 A2987 RMK AO2,M
BAM,2023-08-21 07:15,-116.8743,40.5990,1382.36,60.80,59.00,93.79,350.00,8.00,0.00,29.93,M,10.00,M,SCT,BKN,OVC,M,3100.00,7000.00,9000.00,M,M,M,M,M,M,M,M,60.80,KBAM 210715Z AUTO 35008KT 10SM SCT031 BKN070 OVC090 16/15 A2993 RMK AO1,M
HTH,2023-08-21 07:15,-118.6315,38.5448,1282.89,59.00,59.00,100.00,350.00,9.00,0.00,29.83,M,4.00,M,OVC,M,M,M,2800.00,M,M,M,BR,M,M,M,M,M,M,59.00,KHTH 210715Z AUTO 35009KT 4SM BR OVC028 15/15 A2983 RMK A01,M
TMT,2023-08-21 07:15,-117.1971,39.4643,1749.34,57.40,56.50,96.80,30.00,7.00,0.01,29.89,M,M,M,M,M,M,M,M,M,M,M,M,M,M,M,M,M,M,57.40,KTMT 210715Z AUTO 03007KT 14/14 A2989 RMK AO2 P0001 T01410136 PWINO,M
05U,2023-08-21 07:30,-116.0051,39.6042,1811.23,62.60,57.20,82.50,M,M,0.00,29.98,M,10.00,M,M,M,M,M,M,M,M,M,M,M,M,M,M,M,M,62.60,K05U 210730Z AUTO 10SM 17/14 A2998 RMK A01,M
BVU,2023-08-21 07:35,-114.8611,35.9475,671.00,73.40,66.20,78.19,170.00,18.00,0.00,29.89,M,10.00,23.00,FEW,SCT,BKN,M,3000.00,4100.00,5000.00,M,M,M,M,M,M,M,M,73.40,KBVU 210735Z AUTO 17018G23KT 10SM FEW030 SCT041 BKN050 23/19 A2989 RMK AO2,M
CXP,2023-08-21 07:35,-119.7326,39.1923,1431.00,59.00,55.40,87.83,0.00,0.00,0.00,29.88,M,8.00,M,SCT,BKN,OVC,M,2100.00,3200.00,10000.00,M,-RA,M,M,M,M,M,M,59.00,KCXP 210735Z AUTO 00000KT 8SM -RA SCT021 BKN032 OVC100 15/13 A2988 RMK AO2,M
RTS,2023-08-21 07:35,-119.8764,39.6682,1539.00,57.20,57.20,100.00,320.00,5.00,0.00,29.90,M,6.00,M,SCT,BKN,OVC,M,3800.00,6500.00,8500.00,M,-RA,M,M,M,M,M,M,57.20,KRTS 210735Z AUTO 32005KT 6SM -RA SCT038 BKN065 OVC085 14/14 A2990 RMK AO2,M
MEV,2023-08-21 07:35,-119.7500,38.9963,1441.42,59.00,59.00,100.00,360.00,7.00,0.00,29.86,M,6.00,M,M,M,M,M,M,M,M,M,-RA BR,M,M,M,M,M,M,59.00,KMEV 210735Z AUTO 36007KT 6SM -RA BR 15/15 A2986 RMK AO2,M
BAM,2023-08-21 07:35,-116.8743,40.5990,1382.36,60.80,60.80,100.00,350.00,7.00,0.00,29.92,M,7.00,M,SCT,BKN,OVC,M,2900.00,4800.00,6000.00,M,M,M,M,M,M,M,M,60.80,KBAM 210735Z AUTO 35007KT 7SM SCT029 BKN048 OVC060 16/16 A2992 RMK AO1,M
HTH,2023-08-21 07:35,-118.6315,38.5448,1282.89,59.00,59.00,100.00,360.00,5.00,0.00,29.83,M,2.00,M,FEW,BKN,OVC,M,500.00,2800.00,3600.00,M,BR,M,M,M,M,M,M,59.00,KHTH 210735Z AUTO 36005KT 2SM BR FEW005 BKN028 OVC036 15/15 A2983 RMK A01,M
TMT,2023-08-21 07:35,-117.1971,39.4643,1749.34,58.00,57.00,96.46,60.00,8.00,0.04,29.90,M,M,M,M,M,M,M,M,M,M,M,M,M,M,M,M,M,M,58.00,KTMT 210735Z AUTO 06008KT 15/14 A2990 RMK AO2 P0004 T01450139 PWINO,M
NFL,2023-08-21 07:40,-118.7010,39.4166,1199.00,62.00,60.00,93.15,360.00,9.00,0.09,29.79,M,4.00,M,FEW,OVC,M,M,900.00,3100.00,M,M,RA BR,M,M,M,M,M,M,62.00,KNFL 210740Z AUTO 36009KT 4SM RA BR FEW009 OVC031 17/16 A2979 RMK AO2 P0009 T01670156,M
TPH,2023-08-21 07:49,-117.0904,38.0505,1654.00,62.00,61.00,96.52,140.00,20.00,0.00,29.84,M,2.00,38.00,FEW,FEW,OVC,M,1200.00,2100.00,3400.00,M,+RA BR,M,M,M,38.00,130.00,2023-08-21 07:40,62.00,KTPH 210749Z AUTO 14020G38KT 2SM +RA BR FEW012 FEW021 OVC034 17/16 A2984 RMK AO2 PK WND 13038/0740 T01670161 PNO $,M
P68,2023-08-21 07:53,-116.0056,39.6014,1993.00,64.00,55.00,72.52,150.00,16.00,0.00,29.95,1007.30,M,22.00,M,M,M,M,M,M,M,M,M,M,M,M,30.00,160.00,2023-08-21 07:33,64.00,KP68 210753Z AUTO 15016G22KT 18/13 A2995 RMK AO1 PK WND 16030/0733 SLP073 T01780128 401780128,M
DRA,2023-08-21 07:53,-116.0278,36.6206,1009.00,69.00,66.00,90.17,180.00,3.00,0.07,29.84,1006.30,7.00,M,FEW,BKN,OVC,M,2900.00,4700.00,5500.00,M,-RA,M,M,M,M,M,M,69.00,KDRA 210753Z AUTO 18003KT 7SM -RA FEW029 BKN047 OVC055 21/19 A2984 RMK AO2 SLP063 P0007 T02060189 402390172 $,M
ELY,2023-08-21 07:53,-114.8453,39.2950,1909.00,61.00,56.00,83.59,190.00,15.00,0.01,30.05,1009.40,10.00,M,FEW,SCT,BKN,M,4900.00,7500.00,10000.00,M,M,M,M,M,26.00,180.00,2023-08-21 07:27,61.00,KELY 210753Z AUTO 19015KT 10SM FEW049 SCT075 BKN100 16/13 A3005 RMK AO2 PK WND 18026/0727 RAB0658E53 SLP094 P0001 T01610133 401670133,M
VGT,2023-08-21 07:53,-115.1933,36.2111,667.00,74.00,67.00,78.78,140.00,16.00,0.01,29.86,1011.00,8.00,M,SCT,BKN,OVC,M,3000.00,3700.00,10000.00,M,-RA,M,M,M,37.00,160.00,2023-08-21 07:43,74.00,KVGT 210753Z AUTO 14016KT 8SM -RA SCT030 BKN037 OVC100 23/19 A2986 RMK AO2 PK WND 16037/0743 RAB0659E27B52 SLP110 P0001 T02330194 402610206,M
LOL,2023-08-21 07:53,-118.5701,40.0684,1192.43,62.00,60.00,93.15,20.00,3.00,0.05,29.79,1005.90,5.00,M,OVC,M,M,M,7000.00,M,M,M,RA BR,M,M,M,M,M,M,62.00,KLOL 210753Z AUTO 02003KT 5SM RA BR OVC070 17/16 A2979 RMK AO2 SLP059 P0005 T01670156 402280144,M
TPH,2023-08-21 07:53,-117.0904,38.0505,1654.00,62.60,62.60,100.00,160.00,21.00,0.00,29.85,M,1.75,36.00,FEW,SCT,OVC,M,800.00,1500.00,3400.00,M,+RA BR,M,M,M,38.00,130.00,2023-08-21 07:40,62.60,KTPH 210753Z AUTO 16021G36KT 1 3/4SM +RA BR FEW008 SCT015 OVC034 17/17 A2985 RMK AO2 PK WND 13038/0740 PNO $,M
BVU,2023-08-21 07:55,-114.8611,35.9475,671.00,73.40,66.20,78.19,160.00,15.00,0.00,29.89,M,10.00,26.00,FEW,BKN,OVC,M,2500.00,4100.00,9000.00,M,M,M,M,M,M,M,M,73.40,KBVU 210755Z AUTO 16015G26KT 10SM FEW025 BKN041 OVC090 23/19 A2989 RMK AO2,M
CXP,2023-08-21 07:55,-119.7326,39.1923,1431.00,59.00,57.20,93.74,0.00,0.00,0.05,29.87,M,6.00,M,FEW,BKN,OVC,M,2300.00,4300.00,10000.00,M,-RA BR,M,M,M,M,M,M,59.00,KCXP 210755Z AUTO 00000KT 6SM -RA BR FEW023 BKN043 OVC100 15/14 A2987 RMK AO2 P0005,M
INS,2023-08-21 07:55,-115.6733,36.5872,955.00,67.60,67.30,98.97,120.00,25.00,0.04,29.83,1006.20,10.00,34.00,BKN,OVC,M,M,5500.00,9500.00,M,M,-RA,M,M,M,41.00,90.00,2023-08-21 07:46,67.60,KINS 210755Z AUTO 12025G34KT 10SM -RA BKN055 OVC095 20/20 A2983 RMK AO2 PK WND 09041/46 RAE22DZB22E23RAB23E43DZB43E50RAB50 SLP062 P0004 T01980196 402330179 $,M
RNO,2023-08-21 07:55,-119.7711,39.4839,1341.00,62.00,59.00,89.89,10.00,4.00,0.04,29.85,1006.30,10.00,M,FEW,BKN,OVC,M,2100.00,7000.00,10000.00,M,-RA,M,M,M,M,M,M,62.00,KRNO 210755Z 01004KT 10SM -RA FEW021 BKN070 OVC100 17/15 A2985 RMK AO2 SLP063 P0004 T01670150 402170161,M
RTS,2023-08-21 07:55,-119.8764,39.6682,1539.00,57.20,57.20,100.00,310.00,6.00,0.04,29.89,M,7.00,M,FEW,SCT,OVC,M,3900.00,7000.00,9000.00,M,-RA,M,M,M,M,M,M,57.20,KRTS 210755Z AUTO 31006KT 7SM -RA FEW039 SCT070 OVC090 14/14 A2989 RMK AO2 P0004,M
05U,2023-08-21 07:55,-116.0051,39.6042,1811.23,62.60,55.40,77.29,M,M,0.00,29.97,M,10.00,M,M,M,M,M,M,M,M,M,M,M,M,M,M,M,M,62.60,K05U 210755Z AUTO 10SM 17/13 A2997 RMK A01,M
MEV,2023-08-21 07:55,-119.7500,38.9963,1441.42,59.00,57.20,93.74,350.00,6.00,0.00,29.86,M,5.00,M,FEW,SCT,BKN,M,3600.00,4800.00,5500.00,M,-RA BR,M,M,M,M,M,M,59.00,KMEV 210755Z AUTO 35006KT 5SM -RA BR FEW036 SCT048 BKN055 15/14 A2986 RMK AO2,M
BAM,2023-08-21 07:55,-116.8743,40.5990,1382.36,60.80,60.80,100.00,320.00,6.00,0.00,29.91,M,7.00,M,SCT,BKN,OVC,M,3200.00,4800.00,6500.00,M,M,M,M,M,M,M,M,60.80,KBAM 210755Z AUTO 32006KT 7SM SCT032 BKN048 OVC065 16/16 A2991 RMK AO1,M
HTH,2023-08-21 07:55,-118.6315,38.5448,1282.89,59.00,59.00,100.00,0.00,0.00,0.12,29.83,M,3.00,M,FEW,SCT,BKN,M,500.00,1000.00,2800.00,M,BR,M,M,M,M,M,M,59.00,KHTH 210755Z AUTO 00000KT 3SM BR FEW005 SCT010 BKN028 15/15 A2983 RMK A01 P0012,M
TMT,2023-08-21 07:55,-117.1971,39.4643,1749.34,58.30,57.40,96.82,60.00,12.00,0.06,29.93,M,M,M,M,M,M,M,M,M,M,M,M,M,M,M,M,M,M,58.30,KTMT 210755Z AUTO 06012KT 15/14 A2993 RMK AO2 P0006 T01460141 401620116 PWINO,M
LSV,2023-08-21 07:55,-115.0343,36.2362,570.00,75.40,69.00,80.53,130.00,24.00,0.00,29.84,1008.60,10.00,36.00,BKN,M,M,M,5500.00,M,M,M,M,M,M,M,36.00,120.00,2023-08-21 07:49,75.40,KLSV 210755Z AUTO 13024G36KT 10SM BKN055 24/21 A2984 RMK AO2 PK WND 12036/49 SLP086 T02410206 402580199 $,M
EKO,2023-08-21 07:56,-115.7860,40.8242,1367.00,63.00,60.00,89.93,70.00,6.00,0.00,29.94,1009.30,10.00,M,FEW,SCT,M,M,7000.00,8500.00,M,M,M,M,M,M,M,M,M,63.00,KEKO 210756Z AUTO 07006KT 10SM FEW070 SCT085 17/16 A2994 RMK AO2 SLP093 T01720156 402060144,M
WMC,2023-08-21 07:56,-117.8072,40.9019,1315.00,62.00,59.00,89.89,50.00,16.00,0.02,29.85,1006.80,10.00,24.00,BKN,OVC,M,M,8000.00,9500.00,M,M,-RA,M,M,M,26.00,50.00,2023-08-21 07:39,62.00,KWMC 210756Z AUTO 05016G24KT 10SM -RA BKN080 OVC095 17/15 A2985 RMK AO2 PK WND 05026/0739 SLP068 P0002 T01670150 402440150,M
NFL,2023-08-21 07:56,-118.7010,39.4166,1199.00,62.00,60.00,93.15,350.00,7.00,0.14,29.80,1007.00,3.00,M,BKN,OVC,M,M,800.00,3100.00,M,M,RA BR,M,M,M,M,M,M,62.00,KNFL 210756Z AUTO 35007KT 3SM RA BR BKN008 OVC031 17/16 A2980 RMK AO2 CIG 005V011 SLP070 P0014 T01670156 402170150,M
HND,2023-08-21 07:56,-115.1344,35.9729,742.79,M,M,M,M,M,0.00,M,M,M,M,M,M,M,M,M,M,M,M,M,M,M,M,M,M,M,M,KHND 210756Z AUTO RMK AO2 SLPNO PWINO FZRANO $,M
TPH,2023-08-21 07:56,-117.0904,38.0505,1654.00,62.00,62.00,100.00,170.00,21.00,0.00,29.86,1005.80,1.50,31.00,SCT,BKN,OVC,M,600.00,1500.00,3600.00,M,+RA BR,M,M,M,38.00,130.00,2023-08-21 07:40,62.00,KTPH 210756Z AUTO 17021G31KT 1 1/2SM +RA BR SCT006 BKN015 OVC036 17/17 A2986 RMK AO2 PK WND 13038/0740 PRESRR SLP058 T01670167 401670139 PNO $,M
LAS,2023-08-21 07:56,-115.1634,36.0719,663.00,74.00,66.00,76.10,150.00,13.00,0.00,29.87,1009.70,10.00,29.00,SCT,BKN,OVC,M,3200.00,9000.00,11000.00,M,M,M,M,M,31.00,140.00,2023-08-21 07:33,74.00,KLAS 210756Z 15013G29KT 10SM SCT032 BKN090 OVC110 23/19 A2987 RMK AO2 PK WND 14031/0733 SLP097 VIS LWR N-NE VCSH MTNS OBSCURED DSNT NW-NE T02330189 402440194,M
TPH,2023-08-21 08:08,-117.0904,38.0505,1654.00,62.00,62.00,100.00,160.00,19.00,0.00,29.86,M,3.00,30.00,SCT,SCT,OVC,M,600.00,1200.00,1900.00,M,RA BR,M,M,M,30.00,160.00,2023-08-21 08:00,62.00,KTPH 210808Z AUTO 16019G30KT 3SM RA BR SCT006 SCT012 OVC019 17/17 A2986 RMK AO2 PK WND 16030/0800 T01670167 PNO $,M
05U,2023-08-21 08:10,-116.0051,39.6042,1811.23,64.40,55.40,72.56,M,M,0.00,29.96,M,10.00,M,M,M,M,M,M,M,M,M,M,M,M,M,M,M,M,64.40,K05U 210810Z AUTO 10SM 18/13 A2996 RMK A01,M
BVU,2023-08-21 08:15,-114.8611,35.9475,671.00,73.40,66.20,78.19,160.00,20.00,0.00,29.90,M,10.00,27.00,BKN,BKN,OVC,M,2500.00,4400.00,7000.00,M,M,M,M,M,M,M,M,73.40,KBVU 210815Z AUTO 16020G27KT 10SM BKN025 BKN044 OVC070 23/19 A2990 RMK AO2,M
CXP,2023-08-21 08:15,-119.7326,39.1923,1431.00,59.00,57.20,93.74,0.00,0.00,0.00,29.87,M,6.00,M,FEW,BKN,OVC,M,2700.00,4400.00,7500.00,M,-RA BR,M,M,M,M,M,M,59.00,KCXP 210815Z AUTO 00000KT 6SM -RA BR FEW027 BKN044 OVC075 15/14 A2987 RMK AO2,M
RTS,2023-08-21 08:15,-119.8764,39.6682,1539.00,57.20,57.20,100.00,320.00,5.00,0.00,29.88,M,8.00,M,FEW,SCT,OVC,M,3900.00,5000.00,9000.00,M,-RA,M,M,M,M,M,M,57.20,KRTS 210815Z AUTO 32005KT 8SM -RA FEW039 SCT050 OVC090 14/14 A2988 RMK AO2,M
MEV,2023-08-21 08:15,-119.7500,38.9963,1441.42,59.00,57.20,93.74,340.00,5.00,0.00,29.86,M,8.00,M,SCT,BKN,OVC,M,3800.00,4700.00,7500.00,M,-RA,M,M,M,M,M,M,59.00,KMEV 210815Z AUTO 34005KT 8SM -RA SCT038 BKN047 OVC075 15/14 A2986 RMK AO2,M
HTH,2023-08-21 08:15,-118.6315,38.5448,1282.89,60.80,60.80,100.00,320.00,5.00,0.00,29.82,M,4.00,M,BKN,BKN,OVC,M,600.00,1000.00,4000.00,M,BR,M,M,M,M,M,M,60.80,KHTH 210815Z AUTO 32005KT 4SM BR BKN006 BKN010 OVC040 16/16 A2982 RMK A01,M
BAM,2023-08-21 08:15,-116.8743,40.5990,1382.36,60.80,60.80,100.00,330.00,7.00,0.00,29.89,M,10.00,M,SCT,SCT,BKN,M,3300.00,5500.00,10000.00,M,M,M,M,M,M,M,M,60.80,KBAM 210815Z AUTO 33007KT 10SM SCT033 SCT055 BKN100 16/16 A2989 RMK AO1,M
TMT,2023-08-21 08:15,-117.1971,39.4643,1749.34,58.50,57.40,96.12,40.00,11.00,0.02,29.86,M,M,M,M,M,M,M,M,M,M,M,M,M,M,M,M,M,M,58.50,KTMT 210815Z AUTO 04011KT 15/14 A2986 RMK AO2 P0002 T01470141 PWINO,M
TPH,2023-08-21 08:19,-117.0904,38.0505,1654.00,62.00,61.00,96.52,180.00,21.00,0.00,29.87,M,8.00,33.00,SCT,OVC,M,M,600.00,1300.00,M,M,-RA,M,M,M,33.00,180.00,2023-08-21 08:19,62.00,KTPH 210819Z AUTO 18021G33KT 8SM -RA SCT006 OVC013 17/16 A2987 RMK AO2 PK WND 18033/0819 T01670161 PNO $,M
BVU,2023-08-21 08:35,-114.8611,35.9475,671.00,73.40,66.20,78.19,170.00,19.00,0.00,29.91,M,10.00,M,BKN,BKN,OVC,M,2500.00,4900.00,6000.00,M,M,M,M,M,M,M,M,73.40,KBVU 210835Z AUTO 17019KT 10SM BKN025 BKN049 OVC060 23/19 A2991 RMK AO2,M
CXP,2023-08-21 08:35,-119.7326,39.1923,1431.00,59.00,55.40,87.83,0.00,0.00,0.00,29.87,M,9.00,M,FEW,SCT,BKN,M,4300.00,5000.00,6000.00,M,-RA,M,M,M,M,M,M,59.00,KCXP 210835Z AUTO 00000KT 9SM -RA FEW043 SCT050 BKN060 15/13 A2987 RMK AO2,M
RTS,2023-08-21 08:35,-119.8764,39.6682,1539.00,57.20,57.20,100.00,0.00,0.00,0.00,29.89,M,6.00,M,SCT,BKN,OVC,M,1600.00,3500.00,9000.00,M,-RA,M,M,M,M,M,M,57.20,KRTS 210835Z AUTO 00000KT 6SM -RA SCT016 BKN035 OVC090 14/14 A2989 RMK AO2,M
05U,2023-08-21 08:35,-116.0051,39.6042,1811.23,64.40,55.40,72.56,M,M,0.00,29.94,M,10.00,M,M,M,M,M,M,M,M,M,M,M,M,M,M,M,M,64.40,K05U 210835Z AUTO 10SM 18/13 A2994 RMK A01,M
MEV,2023-08-21 08:35,-119.7500,38.9963,1441.42,59.00,57.20,93.74,330.00,5.00,0.00,29.86,M,6.00,M,BKN,OVC,M,M,3800.00,4400.00,M,M,-RA BR,M,M,M,M,M,M,59.00,KMEV 210835Z AUTO 33005KT 6SM -RA BR BKN038 OVC044 15/14 A2986 RMK AO2,M
BAM,2023-08-21 08:35,-116.8743,40.5990,1382.36,60.80,60.80,100.00,340.00,7.00,0.00,29.88,M,10.00,M,SCT,M,M,M,10000.00,M,M,M,M,M,M,M,M,M,M,60.80,KBAM 210835Z AUTO 34007KT 10SM SCT100 16/16 A2988 RMK AO1,M
HTH,2023-08-21 08:35,-118.6315,38.5448,1282.89,60.80,60.80,100.00,280.00,5.00,0.00,29.81,M,5.00,M,SCT,BKN,OVC,M,500.00,1100.00,3700.00,M,BR,M,M,M,M,M,M,60.80,KHTH 210835Z AUTO 28005KT 5SM BR SCT005 BKN011 OVC037 16/16 A2981 RMK A01,M
TMT,2023-08-21 08:35,-117.1971,39.4643,1749.34,59.00,57.70,95.44,50.00,10.00,0.03,29.89,M,M,M,M,M,M,M,M,M,M,M,M,M,M,M,M,M,M,59.00,KTMT 210835Z AUTO 05010KT 15/14 A2989 RMK AO2 P0003 T01500143 PWINO,M
INS,2023-08-21 08:36,-115.6733,36.5872,955.00,68.00,66.20,93.97,120.00,22.00,0.00,29.85,1006.80,7.00,30.00,FEW,OVC,M,M,7000.00,8000.00,M,M,M,M,M,M,M,M,M,68.00,KINS 210836Z AUTO 12022G30KT 7SM FEW070 OVC080 20/19 A2985 RMK AO2 RAE36 SLP068 $,M
INS,2023-08-21 08:38,-115.6733,36.5872,955.00,68.00,66.20,93.97,120.00,25.00,0.00,29.85,1006.80,7.00,30.00,FEW,OVC,M,M,7000.00,8000.00,M,M,-RA BR,M,M,M,M,M,M,68.00,KINS 210838Z AUTO 12025G30KT 7SM -RA BR FEW070 OVC080 20/19 A2985 RMK AO2 RAE36RAB38 SLP068 $,M
05U,2023-08-21 08:50,-116.0051,39.6042,1811.23,66.20,53.60,63.82,M,M,0.00,29.94,M,10.00,M,M,M,M,M,M,M,M,M,M,M,M,M,M,M,M,66.20,K05U 210850Z AUTO 10SM 19/12 A2994 RMK A01,M
TPH,2023-08-21 08:51,-117.0904,38.0505,1654.00,62.60,60.80,93.83,170.00,23.00,0.00,29.87,M,8.00,37.00,SCT,BKN,OVC,M,1400.00,2000.00,4600.00,M,-RA,M,M,M,38.00,170.00,2023-08-21 08:41,62.60,KTPH 210851Z AUTO 17023G37KT 8SM -RA SCT014 BKN020 OVC046 17/16 A2987 RMK AO2 PK WND 17038/0841 PNO $,M
P68,2023-08-21 08:53,-116.0056,39.6014,1993.00,66.00,54.00,65.21,150.00,23.00,0.00,29.91,1005.70,M,36.00,M,M,M,M,M,M,M,M,M,M,M,M,36.00,130.00,2023-08-21 08:51,66.00,KP68 210853Z AUTO 15023G36KT 19/12 A2991 RMK AO1 PK WND 13036/0851 SLP057 T01890122 58021,M
DRA,2023-08-21 08:53,-116.0278,36.6206,1009.00,70.00,64.00,81.27,160.00,8.00,0.01,29.87,1007.20,10.00,24.00,SCT,SCT,OVC,M,4200.00,6000.00,8000.00,M,M,M,M,M,28.00,180.00,2023-08-21 08:31,70.00,KDRA 210853Z AUTO 16008G24KT 10SM SCT042 SCT060 OVC080 21/18 A2987 RMK AO2 PK WND 18028/0831 RAE05 SLP072 P0001 60013 T02110178 53025 $,M
ELY,2023-08-21 08:53,-114.8453,39.2950,1909.00,62.00,56.00,80.68,190.00,17.00,T,30.03,1008.50,10.00,25.00,SCT,BKN,OVC,M,4600.00,5500.00,10000.00,M,-RA,M,M,M,27.00,200.00,2023-08-21 08:26,62.00,KELY 210853Z AUTO 19017G25KT 10SM -RA SCT046 BKN055 OVC100 17/13 A3003 RMK AO2 PK WND 20027/0826 RAB52 SLP085 P0000 60002 T01670133 56008,M
VGT,2023-08-21 08:53,-115.1933,36.2111,667.00,75.00,66.00,73.59,150.00,19.00,T,29.88,1011.40,10.00,32.00,FEW,BKN,OVC,M,3100.00,4300.00,8000.00,M,-RA,M,M,M,35.00,160.00,2023-08-21 08:29,75.00,KVGT 210853Z AUTO 15019G32KT 10SM -RA FEW031 BKN043 OVC080 24/19 A2988 RMK AO2 PK WND 16035/0829 SLP114 P0000 60001 T02390189 51017,M
LOL,2023-08-21 08:53,-118.5701,40.0684,1192.43,61.00,60.00,96.51,350.00,6.00,0.09,29.77,1005.10,4.00,M,FEW,BKN,OVC,M,4300.00,5500.00,6500.00,M,+RA BR,M,M,M,M,M,M,61.00,KLOL 210853Z AUTO 35006KT 4SM +RA BR FEW043 BKN055 OVC065 16/16 A2977 RMK AO2 SLP051 P0009 60015 T01610156 56032,M
BVU,2023-08-21 08:55,-114.8611,35.9475,671.00,73.40,66.20,78.19,160.00,17.00,0.00,29.91,M,10.00,27.00,FEW,BKN,OVC,M,2600.00,4200.00,5500.00,M,M,M,M,M,M,M,M,73.40,KBVU 210855Z AUTO 16017G27KT 10SM FEW026 BKN042 OVC055 23/19 A2991 RMK AO2,M
CXP,2023-08-21 08:55,-119.7326,39.1923,1431.00,59.00,57.20,93.74,0.00,0.00,0.02,29.86,M,9.00,M,BKN,BKN,OVC,M,4300.00,5000.00,6000.00,M,-RA,M,M,M,M,M,M,59.00,KCXP 210855Z AUTO 00000KT 9SM -RA BKN043 BKN050 OVC060 15/14 A2986 RMK AO2 P0002,M
INS,2023-08-21 08:55,-115.6733,36.5872,955.00,67.00,66.70,98.97,120.00,19.00,0.08,29.85,1006.90,8.00,28.00,FEW,SCT,M,M,800.00,6500.00,M,M,-RA,M,M,M,36.00,90.00,2023-08-21 07:56,67.00,KINS 210855Z AUTO 12019G28KT 8SM -RA FEW008 SCT065 20/19 A2985 RMK AO2 PK WND 09036/0756 RAE36RAB38 SLP069 P0008 60040 T01950193 52022 $,M
RNO,2023-08-21 08:55,-119.7711,39.4839,1341.00,61.00,58.00,89.84,20.00,3.00,0.03,29.84,1006.20,10.00,M,FEW,BKN,OVC,M,2000.00,5000.00,9000.00,M,-RA,M,M,M,M,M,M,61.00,KRNO 210855Z 02003KT 10SM -RA FEW020 BKN050 OVC090 16/14 A2984 RMK AO2 SLP062 P0003 60014 T01610144 56015,M
RTS,2023-08-21 08:55,-119.8764,39.6682,1539.00,57.20,55.40,93.69,320.00,4.00,0.04,29.89,M,7.00,M,FEW,SCT,BKN,M,1600.00,2500.00,3600.00,M,-RA,M,M,M,M,M,M,57.20,KRTS 210855Z AUTO 32004KT 7SM -RA FEW016 SCT025 BKN036 14/13 A2989 RMK AO2 P0004,M
MEV,2023-08-21 08:55,-119.7500,38.9963,1441.42,59.00,57.20,93.74,350.00,6.00,0.00,29.85,M,9.00,M,BKN,BKN,OVC,M,3700.00,4400.00,5000.00,M,-RA,M,M,M,M,M,M,59.00,KMEV 210855Z AUTO 35006KT 9SM -RA BKN037 BKN044 OVC050 15/14 A2985 RMK AO2,M
HTH,2023-08-21 08:55,-118.6315,38.5448,1282.89,60.80,60.80,100.00,250.00,4.00,0.07,29.81,M,5.00,M,OVC,M,M,M,600.00,M,M,M,BR,M,M,M,M,M,M,60.80,KHTH 210855Z AUTO 25004KT 5SM BR OVC006 16/16 A2981 RMK A01 P0007,M
BAM,2023-08-21 08:55,-116.8743,40.5990,1382.36,60.80,60.80,100.00,340.00,8.00,0.00,29.87,M,10.00,M,SCT,SCT,M,M,9000.00,12000.00,M,M,M,M,M,M,M,M,M,60.80,KBAM 210855Z AUTO 34008KT 10SM SCT090 SCT120 16/16 A2987 RMK AO1,M
TMT,2023-08-21 08:55,-117.1971,39.4643,1749.34,60.30,58.00,92.11,0.00,0.00,0.04,29.84,M,M,M,M,M,M,M,M,M,M,M,M,M,M,M,M,M,M,60.30,KTMT 210855Z AUTO 00000KT 16/14 A2984 RMK AO2 P0004 60023 T01570144 PWINO,M
LSV,2023-08-21 08:55,-115.0343,36.2362,570.00,74.70,68.00,79.66,120.00,21.00,0.00,29.86,1009.30,10.00,34.00,FEW,SCT,BKN,M,3900.00,4800.00,12000.00,M,M,M,M,M,36.00,130.00,2023-08-21 08:29,74.70,KLSV 210855Z AUTO 12021G34KT 10SM FEW039 SCT048 BKN120 24/20 A2986 RMK AO2 PK WND 13036/29 SLP093 T02370200 52017 $,M
EKO,2023-08-21 08:56,-115.7860,40.8242,1367.00,64.00,59.00,83.78,70.00,6.00,0.00,29.92,1008.40,10.00,M,FEW,M,M,M,7000.00,M,M,M,M,M,M,M,M,M,M,64.00,KEKO 210856Z AUTO 07006KT 10SM FEW070 18/15 A2992 RMK AO2 SLP084 60001 T01780150 58018,M
WMC,2023-08-21 08:56,-117.8072,40.9019,1315.00,62.00,58.00,86.72,40.00,14.00,0.04,29.83,1006.10,7.00,23.00,FEW,BKN,OVC,M,4900.00,6000.00,7000.00,M,-RA,M,M,M,26.00,60.00,2023-08-21 08:14,62.00,KWMC 210856Z AUTO 04014G23KT 7SM -RA FEW049 BKN060 OVC070 17/14 A2983 RMK AO2 PK WND 06026/0814 SLP061 P0004 60008 T01670144 56029,M
HND,2023-08-21 08:56,-115.1344,35.9729,742.79,M,M,M,M,M,0.00,M,M,M,M,M,M,M,M,M,M,M,M,M,M,M,M,M,M,M,M,KHND 210856Z AUTO RMK AO2 SLPNO 6//// PWINO FZRANO $,M
TPH,2023-08-21 08:56,-117.0904,38.0505,1654.00,62.00,60.00,93.15,170.00,25.00,0.00,29.87,1006.20,8.00,38.00,BKN,BKN,OVC,M,1400.00,2000.00,4600.00,M,-RA,M,M,M,38.00,170.00,2023-08-21 08:52,62.00,KTPH 210856Z AUTO 17025G38KT 8SM -RA BKN014 BKN020 OVC046 17/16 A2987 RMK AO2 PK WND 17038/0852 SLP062 6//// T01670156 51005 PNO $,M
LAS,2023-08-21 08:56,-115.1634,36.0719,663.00,73.00,65.00,76.01,170.00,12.00,T,29.89,1010.10,9.00,23.00,FEW,BKN,BKN,M,7500.00,9500.00,11000.00,M,M,M,M,M,33.00,140.00,2023-08-21 08:08,73.00,KLAS 210856Z 17012G23KT 9SM FEW075 BKN095 BKN110 23/18 A2989 RMK AO2 PK WND 14033/0808 RAB26E55 SLP101 VIS LWR NW P0000 60000 T02280183 51015,M
NFL,2023-08-21 08:56,-118.7010,39.4166,1199.00,62.00,60.00,93.15,330.00,9.00,0.14,29.77,1006.10,3.00,M,SCT,BKN,OVC,M,700.00,1400.00,2000.00,M,RA BR,M,M,M,M,M,M,62.00,KNFL 210856Z AUTO 33009KT 3SM RA BR SCT007 BKN014 OVC020 17/16 A2977 RMK AO2 SLP061 P0014 60034 T01670156 58009,M
LSV,2023-08-21 09:01,-115.0343,36.2362,570.00,75.20,68.00,78.34,120.00,15.00,0.00,29.87,1009.60,10.00,30.00,FEW,FEW,BKN,BKN,3000.00,3700.00,4600.00,12000.00,M,M,M,M,M,M,M,75.20,KLSV 210901Z AUTO 12015G30KT 10SM FEW030 FEW037 BKN046 BKN120 24/20 A2987 RMK AO2 SLP096 $,M
NFL,2023-08-21 09:07,-118.7010,39.4166,1199.00,61.00,60.00,96.51,310.00,10.00,0.03,29.78,M,3.00,16.00,SCT,OVC,M,M,600.00,1800.00,M,M,RA BR,M,M,M,M,M,M,61.00,KNFL 210907Z AUTO 31010G16KT 3SM RA BR SCT006 OVC018 16/16 A2978 RMK AO2 P0003 T01610156,M
BVU,2023-08-21 09:15,-114.8611,35.9475,671.00,73.40,64.40,73.44,170.00,19.00,0.00,29.92,M,10.00,26.00,FEW,SCT,BKN,M,2800.00,3800.00,4500.00,M,M,M,M,M,M,M,M,73.40,KBVU 210915Z AUTO 17019G26KT 10SM FEW028 SCT038 BKN045 23/18 A2992 RMK AO2,M
CXP,2023-08-21 09:15,-119.7326,39.1923,1431.00,59.00,57.20,93.74,300.00,6.00,0.00,29.86,M,10.00,M,SCT,SCT,OVC,M,4200.00,5000.00,8000.00,M,-RA,M,M,M,M,M,M,59.00,KCXP 210915Z AUTO 30006KT 10SM -RA SCT042 SCT050 OVC080 15/14 A2986 RMK AO2,M
RTS,2023-08-21 09:15,-119.8764,39.6682,1539.00,57.20,57.20,100.00,300.00,5.00,0.00,29.88,M,5.00,M,FEW,SCT,BKN,M,2400.00,3700.00,6000.00,M,-RA,M,M,M,M,M,M,57.20,KRTS 210915Z AUTO 30005KT 5SM -RA FEW024 SCT037 BKN060 14/14 A2988 RMK AO2,M
05U,2023-08-21 09:15,-116.0051,39.6042,1811.23,66.20,53.60,63.82,M,M,0.00,29.93,M,10.00,M,M,M,M,M,M,M,M,M,M,M,M,M,M,M,M,66.20,K05U 210915Z AUTO 10SM 19/12 A2993 RMK A01,M
MEV,2023-08-21 09:15,-119.7500,38.9963,1441.42,59.00,57.20,93.74,320.00,5.00,0.00,29.85,M,10.00,M,SCT,BKN,OVC,M,4200.00,5000.00,7000.00,M,-RA,M,M,M,M,M,M,59.00,KMEV 210915Z AUTO 32005KT 10SM -RA SCT042 BKN050 OVC070 15/14 A2985 RMK AO2,M
BAM,2023-08-21 09:15,-116.8743,40.5990,1382.36,60.80,60.80,100.00,340.00,7.00,0.00,29.86,M,10.00,M,SCT,SCT,M,M,9000.00,12000.00,M,M,M,M,M,M,M,M,M,60.80,KBAM 210915Z AUTO 34007KT 10SM SCT090 SCT120 16/16 A2986 RMK AO1,M
HTH,2023-08-21 09:15,-118.6315,38.5448,1282.89,60.80,60.80,100.00,270.00,4.00,0.00,29.81,M,5.00,M,BKN,OVC,M,M,600.00,900.00,M,M,BR,M,M,M,M,M,M,60.80,KHTH 210915Z AUTO 27004KT 5SM BR BKN006 OVC009 16/16 A2981 RMK A01,M
TMT,2023-08-21 09:15,-117.1971,39.4643,1749.34,60.40,58.00,91.78,60.00,6.00,0.01,29.82,M,M,M,M,M,M,M,M,M,M,M,M,M,M,M,M,M,M,60.40,KTMT 210915Z AUTO 06006KT 16/15 A2982 RMK AO2 P0001 T01580145 PWINO,M
NFL,2023-08-21 09:30,-118.7010,39.4166,1199.00,61.00,60.00,96.51,320.00,11.00,0.08,29.77,M,3.00,M,FEW,BKN,OVC,M,600.00,1400.00,2000.00,M,RA BR,M,M,M,M,M,M,61.00,KNFL 210930Z AUTO 32011KT 3SM RA BR FEW006 BKN014 OVC020 16/16 A2977 RMK AO2 P0008 T01610156,M
LSV,2023-08-21 09:31,-115.0343,36.2362,570.00,73.40,68.00,83.21,130.00,17.00,0.00,29.88,1009.90,9.00,23.00,BKN,M,M,M,3600.00,M,M,M,-RA,M,M,M,M,M,M,73.40,KLSV 210931Z AUTO 13017G23KT 9SM -RA BKN036 23/20 A2988 RMK AO2 RAB31 SLP099 $,M
BVU,2023-08-21 09:35,-114.8611,35.9475,671.00,73.40,64.40,73.44,180.00,16.00,0.00,29.93,M,10.00,23.00,SCT,BKN,OVC,M,2800.00,3700.00,7500.00,M,M,M,M,M,M,M,M,73.40,KBVU 210935Z AUTO 18016G23KT 10SM SCT028 BKN037 OVC075 23/18 A2993 RMK AO2,M
CXP,2023-08-21 09:35,-119.7326,39.1923,1431.00,59.00,55.40,87.83,0.00,0.00,0.00,29.86,M,10.00,M,BKN,BKN,OVC,M,4200.00,5500.00,8000.00,M,-RA,M,M,M,M,M,M,59.00,KCXP 210935Z AUTO 00000KT 10SM -RA BKN042 BKN055 OVC080 15/13 A2986 RMK AO2,M
RTS,2023-08-21 09:35,-119.8764,39.6682,1539.00,57.20,55.40,93.69,300.00,5.00,0.00,29.88,M,7.00,M,SCT,BKN,OVC,M,3400.00,4500.00,10000.00,M,-RA,M,M,M,M,M,M,57.20,KRTS 210935Z AUTO 30005KT 7SM -RA SCT034 BKN045 OVC100 14/13 A2988 RMK AO2,M
05U,2023-08-21 09:35,-116.0051,39.6042,1811.23,66.20,55.40,68.15,M,M,0.00,29.94,M,10.00,M,M,M,M,M,M,M,M,M,M,M,M,M,M,M,M,66.20,K05U 210935Z AUTO 10SM 19/13 A2994 RMK A01,M
MEV,2023-08-21 09:35,-119.7500,38.9963,1441.42,59.00,57.20,93.74,0.00,0.00,0.00,29.86,M,8.00,M,FEW,SCT,BKN,M,4500.00,5000.00,6500.00,M,-RA,M,M,M,M,M,M,59.00,KMEV 210935Z AUTO 00000KT 8SM -RA FEW045 SCT050 BKN065 15/14 A2986 RMK AO2,M
HTH,2023-08-21 09:35,-118.6315,38.5448,1282.89,60.80,60.80,100.00,270.00,3.00,0.00,29.82,M,6.00,M,BKN,OVC,M,M,800.00,1200.00,M,M,BR,M,M,M,M,M,M,60.80,KHTH 210935Z AUTO 27003KT 6SM BR BKN008 OVC012 16/16 A2982 RMK A01,M
BAM,2023-08-21 09:35,-116.8743,40.5990,1382.36,60.80,60.80,100.00,330.00,9.00,0.00,29.84,M,10.00,M,SCT,SCT,SCT,M,500.00,1100.00,12000.00,M,M,M,M,M,M,M,M,60.80,KBAM 210935Z AUTO 33009KT 10SM SCT005 SCT011 SCT120 16/16 A2984 RMK AO1,M
TMT,2023-08-21 09:35,-117.1971,39.4643,1749.34,62.00,57.40,84.87,120.00,4.00,0.01,29.83,M,M,M,OVC,M,M,M,4700.00,M,M,M,M,M,M,M,M,M,M,62.00,KTMT 210935Z AUTO 12004KT OVC047 17/14 A2983 RMK AO2 P0001 T01660141 PWINO,M
NFL,2023-08-21 09:42,-118.7010,39.4166,1199.00,61.00,60.00,96.51,320.00,10.00,0.10,29.77,M,4.00,M,FEW,SCT,OVC,M,700.00,1400.00,2000.00,M,RA BR,M,M,M,M,M,M,61.00,KNFL 210942Z AUTO 32010KT 4SM RA BR FEW007 SCT014 OVC020 16/16 A2977 RMK AO2 P0010 T01610156,M
LSV,2023-08-21 09:46,-115.0343,36.2362,570.00,73.40,69.80,88.51,120.00,13.00,0.00,29.89,1010.30,10.00,M,BKN,BKN,M,M,3400.00,4400.00,M,M,M,M,M,M,M,M,M,73.40,KLSV 210946Z AUTO 12013KT 10SM BKN034 BKN044 23/21 A2989 RMK AO2 RAB31E46 SLP103 $,M
05U,2023-08-21 09:50,-116.0051,39.6042,1811.23,66.20,55.40,68.15,M,M,0.00,29.94,M,10.00,M,M,M,M,M,M,M,M,M,M,M,M,M,M,M,M,66.20,K05U 210950Z AUTO 10SM 19/13 A2994 RMK A01,M
HTH,2023-08-21 09:50,-118.6315,38.5448,1282.89,60.80,60.80,100.00,240.00,3.00,0.00,29.83,M,4.00,M,BKN,OVC,M,M,900.00,1200.00,M,M,BR,M,M,M,M,M,M,60.80,KHTH 210950Z AUTO 24003KT 4SM BR BKN009 OVC012 16/16 A2983 RMK A01,M
P68,2023-08-21 09:53,-116.0056,39.6014,1993.00,66.00,54.00,65.21,160.00,21.00,0.00,29.91,1006.10,M,34.00,M,M,M,M,M,M,M,M,M,M,M,M,42.00,150.00,2023-08-21 09:12,66.00,KP68 210953Z AUTO 16021G34KT 19/12 A2991 RMK AO1 PK WND 15042/0912 SLP061 T01890122,M
DRA,2023-08-21 09:53,-116.0278,36.6206,1009.00,70.00,62.00,75.75,210.00,13.00,0.00,29.89,1008.10,10.00,22.00,SCT,BKN,OVC,M,3900.00,7000.00,11000.00,M,M,M,M,M,27.00,180.00,2023-08-21 09:23,70.00,KDRA 210953Z AUTO 21013G22KT 10SM SCT039 BKN070 OVC110 21/17 A2989 RMK AO2 PK WND 18027/0923 SLP081 T02110167 $,M
ELY,2023-08-21 09:53,-114.8453,39.2950,1909.00,63.00,53.00,69.82,160.00,21.00,T,30.04,1008.50,10.00,36.00,CLR,M,M,M,M,M,M,M,M,M,M,M,38.00,170.00,2023-08-21 09:42,63.00,KELY 210953Z AUTO 16021G36KT 10SM CLR 17/12 A3004 RMK AO2 PK WND 17038/0942 RAE02 SLP085 P0000 T01720117,M
VGT,2023-08-21 09:53,-115.1933,36.2111,667.00,74.00,65.00,73.50,150.00,19.00,T,29.90,1012.30,10.00,25.00,FEW,OVC,M,M,2700.00,3400.00,M,M,M,M,M,M,32.00,150.00,2023-08-21 09:36,74.00,KVGT 210953Z AUTO 15019G25KT 10SM FEW027 OVC034 23/18 A2990 RMK AO2 PK WND 15032/0936 RAE37 SLP123 P0000 T02330183,M
LOL,2023-08-21 09:53,-118.5701,40.0684,1192.43,61.00,60.00,96.51,0.00,0.00,0.05,29.77,1005.00,8.00,M,OVC,M,M,M,3500.00,M,M,M,-RA,M,M,M,M,M,M,61.00,KLOL 210953Z AUTO 00000KT 8SM -RA OVC035 16/16 A2977 RMK AO2 SLP050 P0005 T01610156,M
BVU,2023-08-21 09:55,-114.8611,35.9475,671.00,71.60,64.40,78.04,170.00,10.00,0.00,29.94,M,10.00,19.00,SCT,BKN,OVC,M,2900.00,3600.00,7000.00,M,M,M,M,M,M,M,M,71.60,KBVU 210955Z AUTO 17010G19KT 10SM SCT029 BKN036 OVC070 22/18 A2994 RMK AO2,M
CXP,2023-08-21 09:55,-119.7326,39.1923,1431.00,59.00,55.40,87.83,0.00,0.00,0.01,29.87,M,10.00,M,BKN,OVC,M,M,4200.00,5000.00,M,M,-RA,M,M,M,M,M,M,59.00,KCXP 210955Z AUTO 00000KT 10SM -RA BKN042 OVC050 15/13 A2987 RMK AO2 P0001,M
INS,2023-08-21 09:55,-115.6733,36.5872,955.00,66.70,66.40,98.97,110.00,16.00,0.07,29.89,1008.30,7.00,24.00,FEW,OVC,M,M,5500.00,7500.00,M,M,-RA,M,M,M,31.00,90.00,2023-08-21 09:01,66.70,KINS 210955Z AUTO 11016G24KT 7SM -RA FEW055 OVC075 19/19 A2989 RMK AO2 PK WND 09031/01 SLP083 P0007 T01930191 $,M
RNO,2023-08-21 09:55,-119.7711,39.4839,1341.00,61.00,57.00,86.67,280.00,5.00,0.03,29.84,1006.00,10.00,M,SCT,BKN,OVC,M,2500.00,4000.00,7000.00,M,-RA,M,M,M,M,M,M,61.00,KRNO 210955Z 28005KT 10SM -RA SCT025 BKN040 OVC070 16/14 A2984 RMK AO2 SLP060 P0003 T01610139,M
RTS,2023-08-21 09:55,-119.8764,39.6682,1539.00,57.20,55.40,93.69,300.00,5.00,0.02,29.89,M,8.00,M,FEW,BKN,OVC,M,3200.00,3700.00,10000.00,M,-RA,M,M,M,M,M,M,57.20,KRTS 210955Z AUTO 30005KT 8SM -RA FEW032 BKN037 OVC100 14/13 A2989 RMK AO2 P0002,M
MEV,2023-08-21 09:55,-119.7500,38.9963,1441.42,57.20,57.20,100.00,0.00,0.00,0.00,29.86,M,8.00,M,FEW,BKN,OVC,M,4100.00,7000.00,7500.00,M,-RA,M,M,M,M,M,M,57.20,KMEV 210955Z AUTO 00000KT 8SM -RA FEW041 BKN070 OVC075 14/14 A2986 RMK AO2,M
BAM,2023-08-21 09:55,-116.8743,40.5990,1382.36,60.80,60.80,100.00,350.00,7.00,0.00,29.84,M,10.00,M,CLR,M,M,M,M,M,M,M,M,M,M,M,M,M,M,60.80,KBAM 210955Z AUTO 35007KT 10SM CLR 16/16 A2984 RMK AO1,M
TMT,2023-08-21 09:55,-117.1971,39.4643,1749.34,61.00,58.00,89.84,0.00,0.00,0.02,29.85,M,M,M,M,M,M,M,M,M,M,M,M,M,M,M,M,M,M,61.00,KTMT 210955Z AUTO 00000KT 16/14 A2985 RMK AO2 P0002 T01610144 PWINO,M
LSV,2023-08-21 09:55,-115.0343,36.2362,570.00,73.00,71.40,94.73,120.00,14.00,T,29.89,1010.30,10.00,M,BKN,M,M,M,3800.00,M,M,M,M,M,M,M,29.00,110.00,2023-08-21 09:06,73.00,KLSV 210955Z AUTO 12014KT 10SM BKN038 23/22 A2989 RMK AO2 PK WND 11029/06 RAB31E46 SLP103 P0000 T02280219 $,M
EKO,2023-08-21 09:56,-115.7860,40.8242,1367.00,63.00,59.00,86.77,80.00,7.00,0.00,29.91,1008.20,10.00,M,SCT,M,M,M,8000.00,M,M,M,M,M,M,M,M,M,M,63.00,KEKO 210956Z AUTO 08007KT 10SM SCT080 17/15 A2991 RMK AO2 SLP082 T01720150,M
WMC,2023-08-21 09:56,-117.8072,40.9019,1315.00,61.00,58.00,89.84,30.00,17.00,0.03,29.79,1004.70,10.00,29.00,SCT,BKN,OVC,M,6000.00,7500.00,11000.00,M,-RA,M,M,M,29.00,40.00,2023-08-21 09:48,61.00,KWMC 210956Z AUTO 03017G29KT 10SM -RA SCT060 BKN075 OVC110 16/14 A2979 RMK AO2 PK WND 04029/0948 SLP047 P0003 T01610144,M
NFL,2023-08-21 09:56,-118.7010,39.4166,1199.00,61.00,59.00,93.12,330.00,8.00,0.13,29.77,1006.00,4.00,M,SCT,OVC,M,M,800.00,2100.00,M,M,RA BR,M,M,M,M,M,M,61.00,KNFL 210956Z AUTO 33008KT 4SM RA BR SCT008 OVC021 16/15 A2977 RMK AO2 SLP060 P0013 T01610150,M
HND,2023-08-21 09:56,-115.1344,35.9729,742.79,M,M,M,M,M,0.00,M,M,M,M,M,M,M,M,M,M,M,M,M,M,M,M,M,M,M,M,KHND 210956Z AUTO RMK AO2 SLPNO PWINO FZRANO $,M
LAS,2023-08-21 09:56,-115.1634,36.0719,663.00,73.00,65.00,76.01,170.00,11.00,0.00,29.91,1011.00,10.00,21.00,BKN,OVC,M,M,4000.00,5000.00,M,M,M,M,M,M,26.00,160.00,2023-08-21 09:15,73.00,KLAS 210956Z 17011G21KT 10SM BKN040 OVC050 23/18 A2991 RMK AO2 PK WND 16026/0915 SLP110 SHRA DSNT NE AND W MTNS OBSCURED DSNT W-N T02280183,M
NFL,2023-08-21 10:04,-118.7010,39.4166,1199.00,61.00,59.00,93.12,330.00,8.00,T,29.77,M,5.00,M,SCT,BKN,OVC,M,600.00,1100.00,2100.00,M,-RA BR,M,M,M,M,M,M,61.00,KNFL 211004Z AUTO 33008KT 5SM -RA BR SCT006 BKN011 OVC021 16/15 A2977 RMK AO2 P0000 T01610150,M
BVU,2023-08-21 10:15,-114.8611,35.9475,671.00,71.60,64.40,78.04,160.00,13.00,0.00,29.94,M,10.00,18.00,FEW,BKN,OVC,M,2600.00,3400.00,7000.00,M,M,M,M,M,M,M,M,71.60,KBVU 211015Z AUTO 16013G18KT 10SM FEW026 BKN034 OVC070 22/18 A2994 RMK AO2,M
CXP,2023-08-21 10:15,-119.7326,39.1923,1431.00,59.00,55.40,87.83,0.00,0.00,0.00,29.87,M,9.00,M,SCT,BKN,OVC,M,3600.00,4400.00,6000.00,M,-RA,M,M,M,M,M,M,59.00,KCXP 211015Z AUTO 00000KT 9SM -RA SCT036 BKN044 OVC060 15/13 A2987 RMK AO2,M
RTS,2023-08-21 10:15,-119.8764,39.6682,1539.00,57.20,55.40,93.69,290.00,6.00,0.00,29.89,M,8.00,M,BKN,BKN,OVC,M,3000.00,3800.00,7000.00,M,-DZ,M,M,M,M,M,M,57.20,KRTS 211015Z AUTO 29006KT 8SM -DZ BKN030 BKN038 OVC070 14/13 A2989 RMK AO2,M
05U,2023-08-21 10:15,-116.0051,39.6042,1811.23,66.20,53.60,63.82,M,M,0.00,29.95,M,10.00,M,M,M,M,M,M,M,M,M,M,M,M,M,M,M,M,66.20,K05U 211015Z AUTO 10SM 19/12 A2995 RMK A01,M
MEV,2023-08-21 10:15,-119.7500,38.9963,1441.42,57.20,57.20,100.00,0.00,0.00,0.00,29.87,M,10.00,M,FEW,FEW,OVC,M,3900.00,5000.00,7500.00,M,-RA,M,M,M,M,M,M,57.20,KMEV 211015Z AUTO 00000KT 10SM -RA FEW039 FEW050 OVC075 14/14 A2987 RMK AO2,M
HTH,2023-08-21 10:15,-118.6315,38.5448,1282.89,60.80,60.80,100.00,200.00,4.00,0.00,29.84,M,5.00,M,SCT,SCT,OVC,M,900.00,1200.00,2300.00,M,BR,M,M,M,M,M,M,60.80,KHTH 211015Z AUTO 20004KT 5SM BR SCT009 SCT012 OVC023 16/16 A2984 RMK A01,M
BAM,2023-08-21 10:15,-116.8743,40.5990,1382.36,60.80,59.00,93.79,340.00,7.00,0.00,29.84,M,10.00,M,CLR,M,M,M,M,M,M,M,M,M,M,M,M,M,M,60.80,KBAM 211015Z AUTO 34007KT 10SM CLR 16/15 A2984 RMK AO1,M
TMT,2023-08-21 10:15,-117.1971,39.4643,1749.34,60.40,58.00,91.78,260.00,5.00,0.01,29.85,M,M,M,M,M,M,M,M,M,M,M,M,M,M,M,M,M,M,60.40,KTMT 211015Z AUTO 26005KT 16/15 A2985 RMK AO2 P0001 T01580145 PWINO,M
05U,2023-08-21 10:30,-116.0051,39.6042,1811.23,64.40,55.40,72.56,M,M,0.00,29.96,M,10.00,M,M,M,M,M,M,M,M,M,M,M,M,M,M,M,M,64.40,K05U 211030Z AUTO 10SM 18/13 A2996 RMK A01,M
BVU,2023-08-21 10:35,-114.8611,35.9475,671.00,71.60,64.40,78.04,150.00,12.00,0.00,29.95,M,10.00,M,FEW,SCT,OVC,M,3100.00,3600.00,6000.00,M,M,M,M,M,M,M,M,71.60,KBVU 211035Z AUTO 15012KT 10SM FEW031 SCT036 OVC060 22/18 A2995 RMK AO2,M
CXP,2023-08-21 10:35,-119.7326,39.1923,1431.00,59.00,55.40,87.83,0.00,0.00,0.00,29.88,M,7.00,M,OVC,M,M,M,3700.00,M,M,M,-RA,M,M,M,M,M,M,59.00,KCXP 211035Z AUTO 00000KT 7SM -RA OVC037 15/13 A2988 RMK AO2,M
RTS,2023-08-21 10:35,-119.8764,39.6682,1539.00,55.40,53.60,93.65,290.00,7.00,0.00,29.89,M,10.00,M,FEW,SCT,OVC,M,3300.00,6000.00,7500.00,M,-DZ,M,M,M,M,M,M,55.40,KRTS 211035Z AUTO 29007KT 10SM -DZ FEW033 SCT060 OVC075 13/12 A2989 RMK AO2,M
MEV,2023-08-21 10:35,-119.7500,38.9963,1441.42,57.20,55.40,93.69,0.00,0.00,0.00,29.87,M,9.00,M,FEW,SCT,BKN,M,3900.00,4600.00,6500.00,M,-RA,M,M,M,M,M,M,57.20,KMEV 211035Z AUTO 00000KT 9SM -RA FEW039 SCT046 BKN065 14/13 A2987 RMK AO2,M
BAM,2023-08-21 10:35,-116.8743,40.5990,1382.36,60.80,59.00,93.79,350.00,7.00,0.00,29.83,M,10.00,M,BKN,M,M,M,12000.00,M,M,M,M,M,M,M,M,M,M,60.80,KBAM 211035Z AUTO 35007KT 10SM BKN120 16/15 A2983 RMK AO1,M
HTH,2023-08-21 10:35,-118.6315,38.5448,1282.89,60.80,60.80,100.00,90.00,4.00,0.00,29.84,M,6.00,M,FEW,OVC,M,M,2300.00,4700.00,M,M,BR,M,M,M,M,M,M,60.80,KHTH 211035Z AUTO 09004KT 6SM BR FEW023 OVC047 16/16 A2984 RMK A01,M
TMT,2023-08-21 10:35,-117.1971,39.4643,1749.34,60.00,58.50,94.78,0.00,0.00,0.01,29.86,M,M,M,M,M,M,M,M,M,M,M,M,M,M,M,M,M,M,60.00,KTMT 211035Z AUTO 00000KT 16/15 A2986 RMK AO2 P0001 T01550147 PWINO,M
LOL,2023-08-21 10:43,-118.5701,40.0684,1192.43,60.00,60.00,100.00,220.00,5.00,0.02,29.77,M,8.00,M,SCT,OVC,M,M,1200.00,2900.00,M,M,-RA,M,M,M,M,M,M,60.00,KLOL 211043Z AUTO 22005KT 8SM -RA SCT012 OVC029 16/16 A2977 RMK AO2 P0002 T01560156,M
INS,2023-08-21 10:48,-115.6733,36.5872,955.00,66.20,66.20,100.00,110.00,20.00,0.00,29.90,1008.70,10.00,M,FEW,OVC,M,M,1700.00,8500.00,M,M,M,M,M,M,M,M,M,66.20,KINS 211048Z AUTO 11020KT 10SM FEW017 OVC085 19/19 A2990 RMK AO2 RAE15DZB15E48 SLP087 $,M
INS,2023-08-21 10:50,-115.6733,36.5872,955.00,66.20,66.20,100.00,110.00,19.00,0.00,29.90,1008.70,10.00,M,FEW,OVC,M,M,1600.00,8500.00,M,M,-RA,M,M,M,M,M,M,66.20,KINS 211050Z AUTO 11019KT 10SM -RA FEW016 OVC085 19/19 A2990 RMK AO2 RAE15DZB15E48RAB50 SLP087 $,M
LOL,2023-08-21 10:51,-118.5701,40.0684,1192.43,60.80,60.80,100.00,240.00,3.00,0.02,29.76,M,7.00,M,BKN,OVC,M,M,1200.00,2900.00,M,M,-RA,M,M,M,M,M,M,60.80,KLOL 211051Z AUTO 24003KT 7SM -RA BKN012 OVC029 16/16 A2976 RMK AO2 P0002,M
P68,2023-08-21 10:53,-116.0056,39.6014,1993.00,62.00,57.00,83.65,170.00,23.00,0.00,29.92,1006.70,M,32.00,M,M,M,M,M,M,M,M,M,M,M,M,42.00,180.00,2023-08-21 10:21,62.00,KP68 211053Z AUTO 17023G32KT 17/14 A2992 RMK AO1 PK WND 18042/1021 SLP067 T01670139,M
DRA,2023-08-21 10:53,-116.0278,36.6206,1009.00,68.00,62.00,81.12,200.00,19.00,T,29.92,1009.10,10.00,27.00,FEW,BKN,OVC,M,3300.00,4000.00,6000.00,M,M,M,M,M,29.00,190.00,2023-08-21 10:19,68.00,KDRA 211053Z AUTO 20019G27KT 10SM FEW033 BKN040 OVC060 20/17 A2992 RMK AO2 PK WND 19029/1019 RAB25E38 SLP091 P0000 T02000167 $,M
ELY,2023-08-21 10:53,-114.8453,39.2950,1909.00,62.00,52.00,69.71,160.00,25.00,0.00,30.03,1008.30,10.00,36.00,FEW,FEW,M,M,5000.00,6500.00,M,M,M,M,M,M,36.00,170.00,2023-08-21 10:49,62.00,KELY 211053Z AUTO 16025G36KT 10SM FEW050 FEW065 17/11 A3003 RMK AO2 PK WND 17036/1049 SLP083 T01670111,M
VGT,2023-08-21 10:53,-115.1933,36.2111,667.00,73.00,64.00,73.40,150.00,17.00,0.00,29.92,1012.90,10.00,M,FEW,BKN,M,M,3500.00,9000.00,M,M,M,M,M,M,34.00,170.00,2023-08-21 10:25,73.00,KVGT 211053Z AUTO 15017KT 10SM FEW035 BKN090 23/18 A2992 RMK AO2 PK WND 17034/1025 SLP129 T02280178,M
LOL,2023-08-21 10:53,-118.5701,40.0684,1192.43,60.00,60.00,100.00,0.00,0.00,0.02,29.76,1004.80,6.00,M,BKN,OVC,M,M,1200.00,2900.00,M,M,-RA BR,M,M,M,M,M,M,60.00,KLOL 211053Z AUTO 00000KT 6SM -RA BR BKN012 OVC029 16/16 A2976 RMK AO2 SLP048 P0002 T01560156,M
BVU,2023-08-21 10:55,-114.8611,35.9475,671.00,71.60,64.40,78.04,170.00,15.00,0.00,29.95,M,10.00,M,FEW,BKN,OVC,M,3500.00,6000.00,7500.00,M,M,M,M,M,M,M,M,71.60,KBVU 211055Z AUTO 17015KT 10SM FEW035 BKN060 OVC075 22/18 A2995 RMK AO2,M
CXP,2023-08-21 10:55,-119.7326,39.1923,1431.00,59.00,55.40,87.83,0.00,0.00,0.02,29.88,M,8.00,M,BKN,OVC,M,M,3800.00,4700.00,M,M,-RA,M,M,M,M,M,M,59.00,KCXP 211055Z AUTO 00000KT 8SM -RA BKN038 OVC047 15/13 A2988 RMK AO2 P0002,M
INS,2023-08-21 10:55,-115.6733,36.5872,955.00,66.40,66.00,98.62,110.00,18.00,0.03,29.91,1009.00,10.00,24.00,FEW,OVC,M,M,1700.00,9000.00,M,M,-RA,M,M,M,28.00,80.00,2023-08-21 10:46,66.40,KINS 211055Z AUTO 11018G24KT 10SM -RA FEW017 OVC090 19/19 A2991 RMK AO2 PK WND 08028/46 RAE15DZB15E48RAB50 SLP090 P0003 T01910189 $,M
RNO,2023-08-21 10:55,-119.7711,39.4839,1341.00,60.00,55.00,83.53,260.00,5.00,0.03,29.85,1006.30,10.00,M,SCT,BKN,OVC,M,4000.00,7500.00,10000.00,M,-RA,M,M,M,M,M,M,60.00,KRNO 211055Z 26005KT 10SM -RA SCT040 BKN075 OVC100 16/13 A2985 RMK AO2 SLP063 P0003 T01560128,M
RTS,2023-08-21 10:55,-119.8764,39.6682,1539.00,57.20,55.40,93.69,300.00,5.00,0.01,29.89,M,9.00,M,SCT,BKN,OVC,M,2900.00,6000.00,9500.00,M,-RA,M,M,M,M,M,M,57.20,KRTS 211055Z AUTO 30005KT 9SM -RA SCT029 BKN060 OVC095 14/13 A2989 RMK AO2 P0001,M
05U,2023-08-21 10:55,-116.0051,39.6042,1811.23,62.60,57.20,82.50,M,M,0.00,29.95,M,7.00,M,M,M,M,M,M,M,M,M,M,M,M,M,M,M,M,62.60,K05U 211055Z AUTO 7SM 17/14 A2995 RMK A01,M
MEV,2023-08-21 10:55,-119.7500,38.9963,1441.42,57.20,57.20,100.00,0.00,0.00,0.00,29.88,M,10.00,M,OVC,M,M,M,4300.00,M,M,M,-RA,M,M,M,M,M,M,57.20,KMEV 211055Z AUTO 00000KT 10SM -RA OVC043 14/14 A2988 RMK AO2,M
BAM,2023-08-21 10:55,-116.8743,40.5990,1382.36,60.80,59.00,93.79,360.00,6.00,0.00,29.82,M,10.00,M,SCT,SCT,OVC,M,6500.00,8500.00,11000.00,M,M,M,M,M,M,M,M,60.80,KBAM 211055Z AUTO 36006KT 10SM SCT065 SCT085 OVC110 16/15 A2982 RMK AO1,M
HTH,2023-08-21 10:55,-118.6315,38.5448,1282.89,60.80,60.80,100.00,120.00,4.00,0.01,29.84,M,10.00,M,OVC,M,M,M,4800.00,M,M,M,M,M,M,M,M,M,M,60.80,KHTH 211055Z AUTO 12004KT 10SM OVC048 16/16 A2984 RMK A01 P0001,M
TMT,2023-08-21 10:55,-117.1971,39.4643,1749.34,59.40,59.00,98.58,0.00,0.00,0.02,29.87,M,M,M,M,M,M,M,M,M,M,M,M,M,M,M,M,M,M,59.40,KTMT 211055Z AUTO 00000KT 15/15 A2987 RMK AO2 P0002 T01520149 PWINO,M
LSV,2023-08-21 10:55,-115.0343,36.2362,570.00,73.00,71.00,93.45,150.00,5.00,0.00,29.91,1011.00,10.00,M,BKN,OVC,M,M,3600.00,7500.00,M,M,M,M,M,M,M,M,M,73.00,KLSV 211055Z AUTO 15005KT 10SM BKN036 OVC075 23/22 A2991 RMK AO2 SLP110 T02270217 $,M
EKO,2023-08-21 10:56,-115.7860,40.8242,1367.00,63.00,59.00,86.77,0.00,0.00,0.00,29.90,1008.20,10.00,M,CLR,M,M,M,M,M,M,M,M,M,M,M,M,M,M,63.00,KEKO 211056Z AUTO 00000KT 10SM CLR 17/15 A2990 RMK AO2 SLP082 T01720150,M
WMC,2023-08-21 10:56,-117.8072,40.9019,1315.00,61.00,59.00,93.12,40.00,13.00,0.01,29.78,1004.30,10.00,27.00,FEW,BKN,OVC,M,6500.00,8000.00,11000.00,M,-RA,M,M,M,29.00,40.00,2023-08-21 10:39,61.00,KWMC 211056Z AUTO 04013G27KT 10SM -RA FEW065 BKN080 OVC110 16/15 A2978 RMK AO2 PK WND 04029/1039 SLP043 P0001 T01610150,M
NFL,2023-08-21 10:56,-118.7010,39.4166,1199.00,61.00,60.00,96.51,280.00,7.00,0.04,29.79,1006.70,4.00,M,FEW,BKN,OVC,M,500.00,1600.00,2200.00,M,-RA BR,M,M,M,M,M,M,61.00,KNFL 211056Z AUTO 28007KT 4SM -RA BR FEW005 BKN016 OVC022 16/16 A2979 RMK AO2 SLP067 P0004 T01610156,M
HND,2023-08-21 10:56,-115.1344,35.9729,742.79,M,M,M,M,M,0.00,M,M,M,M,M,M,M,M,M,M,M,M,M,M,M,M,M,M,M,M,KHND 211056Z AUTO RMK AO2 SLPNO PWINO FZRANO $,M
LAS,2023-08-21 10:56,-115.1634,36.0719,663.00,72.00,64.00,75.92,160.00,9.00,0.00,29.93,1011.60,10.00,17.00,BKN,OVC,M,M,3900.00,4900.00,M,M,M,M,M,M,M,M,M,72.00,KLAS 211056Z 16009G17KT 10SM BKN039 OVC049 22/18 A2993 RMK AO2 SLP116 OVC V BKN MTNS OBSCURED DSNT NW T02220178,M
05U,2023-08-21 11:10,-116.0051,39.6042,1811.23,60.80,57.20,87.92,M,M,0.00,29.96,M,5.00,M,M,M,M,M,M,M,M,M,HZ,M,M,M,M,M,M,60.80,K05U 211110Z AUTO 5SM HZ 16/14 A2996 RMK A01,M
INS,2023-08-21 11:13,-115.6733,36.5872,955.00,66.20,66.20,100.00,110.00,19.00,0.00,29.91,1009.00,10.00,26.00,OVC,M,M,M,9000.00,M,M,M,M,M,M,M,M,M,M,66.20,KINS 211113Z AUTO 11019G26KT 10SM OVC090 19/19 A2991 RMK AO2 RAE09DZB09E13 SLP090 $,M
WMC,2023-08-21 11:14,-117.8072,40.9019,1315.00,61.00,59.00,93.12,40.00,18.00,0.01,29.79,M,10.00,25.00,FEW,BKN,OVC,M,600.00,6000.00,8000.00,M,-RA,M,M,M,29.00,50.00,2023-08-21 10:58,61.00,KWMC 211114Z AUTO 04018G25KT 10SM -RA FEW006 BKN060 OVC080 16/15 A2979 RMK AO2 PK WND 05029/1058 P0001 T01610150,M
BVU,2023-08-21 11:15,-114.8611,35.9475,671.00,71.60,64.40,78.04,170.00,9.00,0.00,29.96,M,10.00,M,SCT,BKN,OVC,M,3100.00,3600.00,7500.00,M,M,M,M,M,M,M,M,71.60,KBVU 211115Z AUTO 17009KT 10SM SCT031 BKN036 OVC075 22/18 A2996 RMK AO2,M
CXP,2023-08-21 11:15,-119.7326,39.1923,1431.00,59.00,55.40,87.83,280.00,5.00,0.00,29.89,M,9.00,M,OVC,M,M,M,4400.00,M,M,M,-RA,M,M,M,M,M,M,59.00,KCXP 211115Z AUTO 28005KT 9SM -RA OVC044 15/13 A2989 RMK AO2,M
RTS,2023-08-21 11:15,-119.8764,39.6682,1539.00,57.20,55.40,93.69,300.00,6.00,0.00,29.89,M,10.00,M,FEW,SCT,BKN,M,3200.00,6000.00,7500.00,M,-DZ,M,M,M,M,M,M,57.20,KRTS 211115Z AUTO 30006KT 10SM -DZ FEW032 SCT060 BKN075 14/13 A2989 RMK AO2,M
MEV,2023-08-21 11:15,-119.7500,38.9963,1441.42,57.20,57.20,100.00,180.00,3.00,0.00,29.89,M,8.00,M,FEW,OVC,M,M,1400.00,4300.00,M,M,-RA,M,M,M,M,M,M,57.20,KMEV 211115Z AUTO 18003KT 8SM -RA FEW014 OVC043 14/14 A2989 RMK AO2,M
HTH,2023-08-21 11:15,-118.6315,38.5448,1282.89,60.80,60.80,100.00,130.00,4.00,0.00,29.84,M,10.00,M,OVC,M,M,M,5000.00,M,M,M,M,M,M,M,M,M,M,60.80,KHTH 211115Z AUTO 13004KT 10SM OVC050 16/16 A2984 RMK A01,M
BAM,2023-08-21 11:15,-116.8743,40.5990,1382.36,60.80,59.00,93.79,360.00,4.00,0.00,29.82,M,10.00,M,SCT,SCT,OVC,M,6500.00,7000.00,11000.00,M,M,M,M,M,M,M,M,60.80,KBAM 211115Z AUTO 36004KT 10SM SCT065 SCT070 OVC110 16/15 A2982 RMK AO1,M
TMT,2023-08-21 11:15,-117.1971,39.4643,1749.34,59.00,58.50,98.23,80.00,4.00,0.00,29.87,M,M,M,M,M,M,M,M,M,M,M,M,M,M,M,M,M,M,59.00,KTMT 211115Z AUTO 08004KT 15/15 A2987 RMK AO2 T01500147 PWINO,M
LOL,2023-08-21 11:19,-118.5701,40.0684,1192.43,60.00,60.00,100.00,260.00,3.00,0.01,29.76,M,10.00,M,FEW,OVC,M,M,1200.00,2700.00,M,M,-RA,M,M,M,M,M,M,60.00,KLOL 211119Z AUTO 26003KT 10SM -RA FEW012 OVC027 16/16 A2976 RMK AO2 P0001 T01560156,M
INS,2023-08-21 11:29,-115.6733,36.5872,955.00,66.20,66.20,100.00,110.00,19.00,0.00,29.91,1009.00,10.00,28.00,FEW,SCT,OVC,M,3200.00,3900.00,9500.00,M,-RA,M,M,M,M,M,M,66.20,KINS 211129Z AUTO 11019G28KT 10SM -RA FEW032 SCT039 OVC095 19/19 A2991 RMK AO2 RAE09DZB09E13RAB29 SLP090 $,M
LOL,2023-08-21 11:33,-118.5701,40.0684,1192.43,60.00,60.00,100.00,230.00,4.00,0.01,29.77,M,8.00,M,BKN,OVC,M,M,1000.00,2600.00,M,M,-RA,M,M,M,M,M,M,60.00,KLOL 211133Z AUTO 23004KT 8SM -RA BKN010 OVC026 16/16 A2977 RMK AO2 P0001 T01560156,M
BVU,2023-08-21 11:35,-114.8611,35.9475,671.00,71.60,64.40,78.04,160.00,7.00,0.00,29.96,M,10.00,M,OVC,M,M,M,3200.00,M,M,M,M,M,M,M,M,M,M,71.60,KBVU 211135Z AUTO 16007KT 10SM OVC032 22/18 A2996 RMK AO2,M
CXP,2023-08-21 11:35,-119.7326,39.1923,1431.00,59.00,57.20,93.74,200.00,5.00,0.00,29.89,M,10.00,M,OVC,M,M,M,4200.00,M,M,M,-RA,M,M,M,M,M,M,59.00,KCXP 211135Z AUTO 20005KT 10SM -RA OVC042 15/14 A2989 RMK AO2,M
RTS,2023-08-21 11:35,-119.8764,39.6682,1539.00,57.20,55.40,93.69,280.00,7.00,0.00,29.89,M,10.00,M,FEW,BKN,OVC,M,6500.00,7500.00,11000.00,M,M,M,M,M,M,M,M,57.20,KRTS 211135Z AUTO 28007KT 10SM FEW065 BKN075 OVC110 14/13 A2989 RMK AO2,M
05U,2023-08-21 11:35,-116.0051,39.6042,1811.23,60.80,57.20,87.92,M,M,0.00,29.95,M,7.00,M,M,M,M,M,M,M,M,M,M,M,M,M,M,M,M,60.80,K05U 211135Z AUTO 7SM 16/14 A2995 RMK A01,M
MEV,2023-08-21 11:35,-119.7500,38.9963,1441.42,57.20,57.20,100.00,170.00,3.00,0.00,29.89,M,9.00,M,FEW,OVC,M,M,1300.00,4400.00,M,M,-RA,M,M,M,M,M,M,57.20,KMEV 211135Z AUTO 17003KT 9SM -RA FEW013 OVC044 14/14 A2989 RMK AO2,M
BAM,2023-08-21 11:35,-116.8743,40.5990,1382.36,62.60,59.00,88.00,0.00,0.00,0.00,29.82,M,10.00,M,BKN,OVC,M,M,6000.00,10000.00,M,M,M,M,M,M,M,M,M,62.60,KBAM 211135Z AUTO 00000KT 10SM BKN060 OVC100 17/15 A2982 RMK AO1,M
HTH,2023-08-21 11:35,-118.6315,38.5448,1282.89,60.80,60.80,100.00,80.00,4.00,0.00,29.85,M,10.00,M,FEW,FEW,OVC,M,900.00,1500.00,6000.00,M,M,M,M,M,M,M,M,60.80,KHTH 211135Z AUTO 08004KT 10SM FEW009 FEW015 OVC060 16/16 A2985 RMK A01,M
TMT,2023-08-21 11:35,-117.1971,39.4643,1749.34,59.00,58.50,98.23,70.00,4.00,0.00,29.87,M,M,M,M,M,M,M,M,M,M,M,M,M,M,M,M,M,M,59.00,KTMT 211135Z AUTO 07004KT 15/15 A2987 RMK AO2 T01500147 PWINO,M
INS,2023-08-21 11:39,-115.6733,36.5872,955.00,66.20,66.20,100.00,120.00,16.00,0.00,29.92,1009.30,10.00,25.00,FEW,SCT,BKN,OVC,2900.00,5000.00,7500.00,9500.00,M,M,M,M,M,M,M,66.20,KINS 211139Z AUTO 12016G25KT 10SM FEW029 SCT050 BKN075 OVC095 19/19 A2992 RMK AO2 RAE09DZB09E13RAB29E39 SLP093 $,M
INS,2023-08-21 11:47,-115.6733,36.5872,955.00,66.20,66.20,100.00,120.00,19.00,0.00,29.93,1009.70,10.00,26.00,BKN,BKN,BKN,OVC,5000.00,6000.00,7500.00,10000.00,-RA,M,M,M,M,M,M,66.20,KINS 211147Z AUTO 12019G26KT 10SM -RA BKN050 BKN060 BKN075 OVC100 19/19 A2993 RMK AO2 RAE09DZB09E13RAB29E39RAB47 SLP097 $,M
05U,2023-08-21 11:50,-116.0051,39.6042,1811.23,60.80,57.20,87.92,M,M,0.00,29.97,M,3.00,M,M,M,M,M,M,M,M,M,BR,M,M,M,M,M,M,60.80,K05U 211150Z AUTO 3SM BR 16/14 A2997 RMK A01,M
P68,2023-08-21 11:53,-116.0056,39.6014,1993.00,64.00,62.00,93.21,160.00,26.00,0.01,29.94,1011.90,M,37.00,M,M,M,M,M,M,M,M,M,M,M,M,43.00,150.00,2023-08-21 11:04,64.00,KP68 211153Z AUTO 16026G37KT 16/14 A2994 RMK AO1 PK WND 15043/1104 SLP075 P0002 60002 70088 T01560139 10194 20144 NO CARRIER RING CONNECT 1200 LAXMTRNSI ALL TTAA00 KNSI 211153 METAR KNSI 211153Z AUTO 20009KT 2SM -RA BR BKN003 OVC015 18/17 A2990 RMK AO2 S,M
DRA,2023-08-21 11:53,-116.0278,36.6206,1009.00,66.00,62.00,86.93,220.00,21.00,T,29.94,1009.90,10.00,30.00,OVC,M,M,M,3800.00,M,M,M,-RA,M,M,M,31.00,200.00,2023-08-21 10:57,66.00,KDRA 211153Z AUTO 22021G30KT 10SM -RA OVC038 19/17 A2994 RMK AO2 PK WND 20031/1057 RAB18 SLP099 P0000 60013 70068 T01890167 10222 20189 51021 $,M
ELY,2023-08-21 11:53,-114.8453,39.2950,1909.00,63.00,50.00,62.49,160.00,28.00,0.00,30.03,1008.00,4.00,42.00,FEW,M,M,M,5500.00,M,M,M,HZ,M,M,M,46.00,160.00,2023-08-21 11:42,63.00,KELY 211153Z AUTO 16028G42KT 4SM HZ FEW055 17/10 A3003 RMK AO2 PK WND 16046/1142 SLP080 60002 70074 T01720100 10172 20156 58002,M
VGT,2023-08-21 11:53,-115.1933,36.2111,667.00,73.00,64.00,73.40,140.00,15.00,0.00,29.94,1013.50,10.00,M,FEW,BKN,BKN,M,3400.00,6000.00,9000.00,M,M,M,M,M,M,M,M,73.00,KVGT 211153Z AUTO 14015KT 10SM FEW034 BKN060 BKN090 23/18 A2994 RMK AO2 SLP135 60001 70042 T02280178 10250 20228 51019,M
LOL,2023-08-21 11:53,-118.5701,40.0684,1192.43,60.00,59.00,96.49,120.00,3.00,0.01,29.77,1005.10,10.00,M,BKN,BKN,OVC,M,1000.00,1600.00,2400.00,M,-RA,M,M,M,M,M,M,60.00,KLOL 211153Z AUTO 12003KT 10SM -RA BKN010 BKN016 OVC024 16/15 A2977 RMK AO2 SLP051 P0001 60023 70028 T01560150 10178 20156 53001,M
BVU,2023-08-21 11:55,-114.8611,35.9475,671.00,71.60,64.40,78.04,150.00,10.00,0.00,29.97,M,10.00,M,BKN,OVC,M,M,3000.00,3700.00,M,M,M,M,M,M,M,M,M,71.60,KBVU 211155Z AUTO 15010KT 10SM BKN030 OVC037 22/18 A2997 RMK AO2,M
CXP,2023-08-21 11:55,-119.7326,39.1923,1431.00,59.00,57.20,93.74,200.00,5.00,0.01,29.90,M,10.00,M,SCT,BKN,OVC,M,1300.00,3900.00,4800.00,M,M,M,M,M,M,M,M,59.00,KCXP 211155Z AUTO 20005KT 10SM SCT013 BKN039 OVC048 15/14 A2990 RMK AO2 P0001,M
INS,2023-08-21 11:55,-115.6733,36.5872,955.00,66.20,66.00,99.31,120.00,19.00,0.01,29.93,1009.70,10.00,26.00,BKN,OVC,M,M,5500.00,7000.00,M,M,-RA,M,M,M,31.00,80.00,2023-08-21 11:21,66.20,KINS 211155Z AUTO 12019G26KT 10SM -RA BKN055 OVC070 19/19 A2993 RMK AO2 PK WND 08031/21 RAE09DZB09E13RAB29E39RAB47 SLP097 P0001 60051 70088 T01900188 10207 20190 52023 $,M
RNO,2023-08-21 11:55,-119.7711,39.4839,1341.00,60.00,57.00,89.80,190.00,4.00,0.01,29.86,1006.40,10.00,M,FEW,BKN,OVC,M,1300.00,6500.00,11000.00,M,M,M,M,M,M,M,M,60.00,KRNO 211155Z 19004KT 10SM FEW013 BKN065 OVC110 16/14 A2986 RMK AO2 RAE39 SLP064 P0001 60021 70027 T01560139 10172 20156 53003,M
RTS,2023-08-21 11:55,-119.8764,39.6682,1539.00,57.20,55.40,93.69,300.00,7.00,0.00,29.89,M,10.00,M,SCT,BKN,OVC,M,3900.00,7500.00,11000.00,M,M,M,M,M,M,M,M,57.20,KRTS 211155Z AUTO 30007KT 10SM SCT039 BKN075 OVC110 14/13 A2989 RMK AO2,M
MEV,2023-08-21 11:55,-119.7500,38.9963,1441.42,57.20,57.20,100.00,140.00,5.00,0.00,29.89,M,10.00,M,FEW,OVC,M,M,3400.00,4500.00,M,M,-RA,M,M,M,M,M,M,57.20,KMEV 211155Z AUTO 14005KT 10SM -RA FEW034 OVC045 14/14 A2989 RMK AO2,M
BAM,2023-08-21 11:55,-116.8743,40.5990,1382.36,64.40,59.00,82.62,180.00,6.00,0.00,29.83,M,10.00,M,BKN,OVC,M,M,4900.00,8500.00,M,M,M,M,M,M,M,M,M,64.40,KBAM 211155Z AUTO 18006KT 10SM BKN049 OVC085 18/15 A2983 RMK AO1,M
HTH,2023-08-21 11:55,-118.6315,38.5448,1282.89,60.80,60.80,100.00,60.00,5.00,0.00,29.85,M,10.00,M,OVC,M,M,M,6000.00,M,M,M,M,M,M,M,M,M,M,60.80,KHTH 211155Z AUTO 06005KT 10SM OVC060 16/16 A2985 RMK A01,M
TMT,2023-08-21 11:55,-117.1971,39.4643,1749.34,59.00,58.30,97.52,170.00,4.00,0.00,29.88,M,M,M,BKN,BKN,OVC,M,5500.00,7000.00,10000.00,M,M,M,M,M,M,M,M,59.00,KTMT 211155Z AUTO 17004KT BKN055 BKN070 OVC100 15/15 A2988 RMK AO2 60028 70091 T01500146 10167 20137 PWINO,M
LSV,2023-08-21 11:55,-115.0343,36.2362,570.00,72.70,72.30,98.66,210.00,3.00,0.00,29.92,1011.30,10.00,M,OVC,M,M,M,3200.00,M,M,M,M,M,M,M,M,M,M,72.70,KLSV 211155Z AUTO 21003KT 10SM OVC032 23/22 A2992 RMK AO2 SLP113 60000 70012 T02260224 10251 20226 52021 $,M
INS,2023-08-21 11:56,-115.6733,36.5872,955.00,66.20,66.20,100.00,110.00,19.00,0.00,29.93,1009.70,10.00,25.00,BKN,OVC,M,M,5000.00,7000.00,M,M,M,M,M,M,M,M,M,66.20,KINS 211156Z AUTO 11019G25KT 10SM BKN050 OVC070 19/19 A2993 RMK AO2 RAE56 SLP097 $,M
EKO,2023-08-21 11:56,-115.7860,40.8242,1367.00,65.00,58.00,78.06,M,M,0.00,29.91,1008.20,10.00,M,OVC,M,M,M,7000.00,M,M,M,M,M,M,M,M,M,M,65.00,KEKO 211156Z AUTO 10SM OVC070 18/14 A2991 RMK AO2 SLP082 60001 70041 T01830144 10183 20156 55003,M
WMC,2023-08-21 11:56,-117.8072,40.9019,1315.00,62.00,59.00,89.89,60.00,10.00,0.03,29.78,1004.40,10.00,M,SCT,BKN,OVC,M,5500.00,7500.00,9000.00,M,-RA,M,M,M,29.00,50.00,2023-08-21 10:58,62.00,KWMC 211156Z AUTO 06010KT 10SM -RA SCT055 BKN075 OVC090 17/15 A2978 RMK AO2 PK WND 05029/1058 SLP044 P0003 60015 70020 T01670150 10178 20161 55015,M
HND,2023-08-21 11:56,-115.1344,35.9729,742.79,M,M,M,M,M,0.00,M,M,M,M,M,M,M,M,M,M,M,M,M,M,M,M,M,M,M,M,KHND 211156Z AUTO RMK AO2 SLPNO 6//// 7//// PWINO FZRANO $,M
LAS,2023-08-21 11:56,-115.1634,36.0719,663.00,72.00,63.00,73.31,170.00,9.00,0.00,29.95,1012.30,10.00,19.00,BKN,BKN,OVC,M,4000.00,5000.00,8000.00,M,M,M,M,M,M,M,M,72.00,KLAS 211156Z 17009G19KT 10SM BKN040 BKN050 OVC080 22/17 A2995 RMK AO2 SLP123 60000 70025 T02220172 10239 20222 51020,M
NFL,2023-08-21 12:06,-118.7010,39.4166,1199.00,61.00,59.00,93.12,270.00,11.00,0.01,29.81,M,4.00,M,SCT,BKN,OVC,M,500.00,1000.00,2600.00,M,-RA BR,M,M,M,M,M,M,61.00,KNFL 211206Z AUTO 27011KT 4SM -RA BR SCT005 BKN010 OVC026 16/15 A2981 RMK AO2 P0001 T01610150,M
BVU,2023-08-21 12:15,-114.8611,35.9475,671.00,69.80,64.40,82.98,150.00,10.00,0.00,29.98,M,10.00,M,BKN,BKN,OVC,M,3000.00,3400.00,4000.00,M,M,M,M,M,M,M,M,69.80,KBVU 211215Z AUTO 15010KT 10SM BKN030 BKN034 OVC040 21/18 A2998 RMK AO2,M
CXP,2023-08-21 12:15,-119.7326,39.1923,1431.00,59.00,57.20,93.74,180.00,4.00,0.00,29.91,M,10.00,M,SCT,BKN,OVC,M,800.00,3900.00,7500.00,M,M,M,M,M,M,M,M,59.00,KCXP 211215Z AUTO 18004KT 10SM SCT008 BKN039 OVC075 15/14 A2991 RMK AO2,M
RTS,2023-08-21 12:15,-119.8764,39.6682,1539.00,57.20,55.40,93.69,290.00,7.00,0.00,29.90,M,10.00,M,SCT,BKN,OVC,M,2700.00,3900.00,7500.00,M,M,M,M,M,M,M,M,57.20,KRTS 211215Z AUTO 29007KT 10SM SCT027 BKN039 OVC075 14/13 A2990 RMK AO2,M
MEV,2023-08-21 12:15,-119.7500,38.9963,1441.42,57.20,57.20,100.00,0.00,0.00,0.00,29.90,M,10.00,M,FEW,OVC,M,M,3300.00,4500.00,M,M,-RA,M,M,M,M,M,M,57.20,KMEV 211215Z AUTO 00000KT 10SM -RA FEW033 OVC045 14/14 A2990 RMK AO2,M
BAM,2023-08-21 12:15,-116.8743,40.5990,1382.36,68.00,60.80,77.75,180.00,8.00,0.00,29.83,M,10.00,M,OVC,M,M,M,4900.00,M,M,M,M,M,M,M,M,M,M,68.00,KBAM 211215Z AUTO 18008KT 10SM OVC049 20/16 A2983 RMK AO1,M
HTH,2023-08-21 12:15,-118.6315,38.5448,1282.89,60.80,60.80,100.00,20.00,4.00,0.00,29.87,M,10.00,M,BKN,BKN,M,M,6000.00,7000.00,M,M,M,M,M,M,M,M,M,60.80,KHTH 211215Z AUTO 02004KT 10SM BKN060 BKN070 16/16 A2987 RMK A01,M
TMT,2023-08-21 12:15,-117.1971,39.4643,1749.34,60.80,57.70,89.51,100.00,3.00,0.00,29.89,M,M,M,M,M,M,M,M,M,M,M,M,M,M,M,M,M,M,60.80,KTMT 211215Z AUTO 10003KT 16/14 A2989 RMK AO2 T01600143 PWINO,M
INS,2023-08-21 12:26,-115.6733,36.5872,955.00,66.20,66.20,100.00,120.00,16.00,0.00,29.94,1010.00,10.00,24.00,FEW,FEW,OVC,M,1100.00,2300.00,3900.00,M,-DZ,M,M,M,M,M,M,66.20,KINS 211226Z AUTO 12016G24KT 10SM -DZ FEW011 FEW023 OVC039 19/19 A2994 RMK AO2 RAE1156DZB26 SLP100 $,M
BVU,2023-08-21 12:35,-114.8611,35.9475,671.00,69.80,66.20,88.34,150.00,14.00,0.00,29.98,M,10.00,M,SCT,BKN,OVC,M,2900.00,3400.00,4500.00,M,M,M,M,M,M,M,M,69.80,KBVU 211235Z AUTO 15014KT 10SM SCT029 BKN034 OVC045 21/19 A2998 RMK AO2,M
CXP,2023-08-21 12:35,-119.7326,39.1923,1431.00,59.00,57.20,93.74,0.00,0.00,0.00,29.92,M,9.00,M,OVC,M,M,M,400.00,M,M,M,-RA,M,M,M,M,M,M,59.00,KCXP 211235Z AUTO 00000KT 9SM -RA OVC004 15/14 A2992 RMK AO2,M
INS,2023-08-21 12:35,-115.6733,36.5872,955.00,66.20,66.20,100.00,120.00,16.00,0.00,29.94,1010.00,10.00,23.00,SCT,BKN,M,M,1200.00,3900.00,M,M,M,M,M,M,M,M,M,66.20,KINS 211235Z AUTO 12016G23KT 10SM SCT012 BKN039 19/19 A2994 RMK AO2 RAE1156DZB26E35 SLP100 $,M
RTS,2023-08-21 12:35,-119.8764,39.6682,1539.00,57.20,55.40,93.69,290.00,6.00,0.00,29.91,M,10.00,M,BKN,OVC,M,M,2700.00,6500.00,M,M,M,M,M,M,M,M,M,57.20,KRTS 211235Z AUTO 29006KT 10SM BKN027 OVC065 14/13 A2991 RMK AO2,M
05U,2023-08-21 12:35,-116.0051,39.6042,1811.23,60.80,57.20,87.92,M,M,0.00,29.98,M,7.00,M,M,M,M,M,M,M,M,M,M,M,M,M,M,M,M,60.80,K05U 211235Z AUTO 7SM 16/14 A2998 RMK A01,M
MEV,2023-08-21 12:35,-119.7500,38.9963,1441.42,57.20,57.20,100.00,0.00,0.00,0.00,29.90,M,6.00,M,FEW,BKN,OVC,M,3800.00,4600.00,7000.00,M,-RA BR,M,M,M,M,M,M,57.20,KMEV 211235Z AUTO 00000KT 6SM -RA BR FEW038 BKN046 OVC070 14/14 A2990 RMK AO2,M
BAM,2023-08-21 12:35,-116.8743,40.5990,1382.36,68.00,60.80,77.75,160.00,16.00,0.00,29.83,M,10.00,21.00,SCT,OVC,M,M,4500.00,7000.00,M,M,M,M,M,M,M,M,M,68.00,KBAM 211235Z AUTO 16016G21KT 10SM SCT045 OVC070 20/16 A2983 RMK AO1,M
HTH,2023-08-21 12:35,-118.6315,38.5448,1282.89,60.80,60.80,100.00,0.00,0.00,0.00,29.89,M,10.00,M,BKN,BKN,M,M,6000.00,7000.00,M,M,M,M,M,M,M,M,M,60.80,KHTH 211235Z AUTO 00000KT 10SM BKN060 BKN070 16/16 A2989 RMK A01,M
TMT,2023-08-21 12:35,-117.1971,39.4643,1749.34,61.30,57.40,87.00,210.00,6.00,0.01,29.90,M,M,M,BKN,OVC,M,M,4700.00,6500.00,M,M,M,M,M,M,M,M,M,61.30,KTMT 211235Z AUTO 21006KT BKN047 OVC065 16/14 A2990 RMK AO2 P0001 T01630141 PWINO,M
LOL,2023-08-21 12:36,-118.5701,40.0684,1192.43,60.00,60.00,100.00,200.00,8.00,0.04,29.79,M,6.00,M,SCT,OVC,M,M,1000.00,1900.00,M,M,-RA BR,M,M,M,M,M,M,60.00,KLOL 211236Z AUTO 20008KT 6SM -RA BR SCT010 OVC019 16/16 A2979 RMK AO2 P0004 T01560156,M
05U,2023-08-21 12:50,-116.0051,39.6042,1811.23,60.80,57.20,87.92,M,M,0.00,30.00,M,9.00,M,M,M,M,M,M,M,M,M,M,M,M,M,M,M,M,60.80,K05U 211250Z AUTO 9SM 16/14 A3000 RMK A01,M
P68,2023-08-21 12:53,-116.0056,39.6014,1993.00,61.00,M,M,150.00,18.00,0.05,29.98,1008.50,M,31.00,M,M,M,M,M,M,M,M,M,M,M,M,37.00,160.00,2023-08-21 11:54,M,KP68 211253Z AUTO 15018G31KT 16/ A2998 RMK AO1 PK WND 16037/1154 SLP085 P0005 T0161 $,M
DRA,2023-08-21 12:53,-116.0278,36.6206,1009.00,65.00,63.00,93.24,230.00,11.00,0.02,29.97,1010.90,10.00,M,BKN,OVC,M,M,3500.00,4700.00,M,M,-RA,M,M,M,26.00,220.00,2023-08-21 11:57,65.00,KDRA 211253Z AUTO 23011KT 10SM -RA BKN035 OVC047 18/17 A2997 RMK AO2 PK WND 22026/1157 SLP109 P0002 T01830172 $,M
ELY,2023-08-21 12:53,-114.8453,39.2950,1909.00,62.00,51.00,67.18,170.00,29.00,0.00,30.06,1009.50,10.00,43.00,OVC,M,M,M,5000.00,M,M,M,M,M,M,M,47.00,150.00,2023-08-21 12:04,62.00,KELY 211253Z AUTO 17029G43KT 10SM OVC050 17/11 A3006 RMK AO2 PK WND 15047/1204 SLP095 T01670106,M
VGT,2023-08-21 12:53,-115.1933,36.2111,667.00,73.00,63.00,70.87,150.00,15.00,T,29.96,1014.40,10.00,M,BKN,OVC,M,M,3600.00,7000.00,M,M,M,M,M,M,M,M,M,73.00,KVGT 211253Z 15015KT 10SM BKN036 OVC070 23/17 A2996 RMK AO2 RAB25E34 SLP144 P0000 T02280172,M
LOL,2023-08-21 12:53,-118.5701,40.0684,1192.43,60.00,60.00,100.00,190.00,7.00,0.04,29.80,1006.10,7.00,M,OVC,M,M,M,2000.00,M,M,M,-RA,M,M,M,M,M,M,60.00,KLOL 211253Z AUTO 19007KT 7SM -RA OVC020 16/16 A2980 RMK AO2 SLP061 P0004 T01560156,M
BVU,2023-08-21 12:55,-114.8611,35.9475,671.00,69.80,66.20,88.34,140.00,13.00,0.00,30.00,M,10.00,M,SCT,BKN,OVC,M,2700.00,3400.00,4100.00,M,M,M,M,M,M,M,M,69.80,KBVU 211255Z AUTO 14013KT 10SM SCT027 BKN034 OVC041 21/19 A3000 RMK AO2,M
CXP,2023-08-21 12:55,-119.7326,39.1923,1431.00,59.00,57.20,93.74,0.00,0.00,0.01,29.92,M,10.00,M,OVC,M,M,M,500.00,M,M,M,-RA,M,M,M,M,M,M,59.00,KCXP 211255Z AUTO 00000KT 10SM -RA OVC005 15/14 A2992 RMK AO2 P0001,M
INS,2023-08-21 12:55,-115.6733,36.5872,955.00,66.00,65.70,98.96,110.00,20.00,T,29.95,1010.40,10.00,28.00,FEW,SCT,SCT,OVC,1200.00,3100.00,3800.00,5000.00,M,M,M,M,30.00,90.00,2023-08-21 12:51,66.00,KINS 211255Z AUTO 11020G28KT 10SM FEW012 SCT031 SCT038 OVC050 19/19 A2995 RMK AO2 PK WND 09030/51 RAE1156DZB26E35 SLP104 P0000 T01890187 $,M
RNO,2023-08-21 12:55,-119.7711,39.4839,1341.00,60.00,57.00,89.80,190.00,3.00,T,29.88,1007.60,10.00,M,FEW,BKN,OVC,M,1000.00,4000.00,7500.00,M,M,M,M,M,M,M,M,60.00,KRNO 211255Z 19003KT 10SM FEW010 BKN040 OVC075 16/14 A2988 RMK AO2 RAB16E33 SLP076 P0000 T01560139,M
RTS,2023-08-21 12:55,-119.8764,39.6682,1539.00,57.20,55.40,93.69,280.00,7.00,0.00,29.92,M,10.00,M,OVC,M,M,M,2600.00,M,M,M,M,M,M,M,M,M,M,57.20,KRTS 211255Z AUTO 28007KT 10SM OVC026 14/13 A2992 RMK AO2,M
MEV,2023-08-21 12:55,-119.7500,38.9963,1441.42,57.20,57.20,100.00,0.00,0.00,0.00,29.91,M,10.00,M,FEW,SCT,BKN,M,3900.00,4800.00,6000.00,M,M,M,M,M,M,M,M,57.20,KMEV 211255Z AUTO 00000KT 10SM FEW039 SCT048 BKN060 14/14 A2991 RMK AO2,M
HTH,2023-08-21 12:55,-118.6315,38.5448,1282.89,60.80,60.80,100.00,0.00,0.00,0.00,29.90,M,10.00,M,BKN,BKN,OVC,M,6500.00,7500.00,8500.00,M,M,M,M,M,M,M,M,60.80,KHTH 211255Z AUTO 00000KT 10SM BKN065 BKN075 OVC085 16/16 A2990 RMK A01,M
LSV,2023-08-21 12:55,-115.0343,36.2362,570.00,72.70,72.30,98.66,90.00,4.00,0.00,29.94,1012.00,10.00,M,BKN,M,M,M,3300.00,M,M,M,M,M,M,M,M,M,M,72.70,KLSV 211255Z AUTO 09004KT 10SM BKN033 23/22 A2994 RMK AO2 SLP120 T02260224 $,M
BAM,2023-08-21 12:55,-116.8743,40.5990,1382.36,68.00,60.80,77.75,160.00,17.00,0.00,29.83,M,10.00,22.00,OVC,M,M,M,7000.00,M,M,M,M,M,M,M,M,M,M,68.00,KBAM 211255Z AUTO 16017G22KT 10SM OVC070 20/16 A2983 RMK AO1,M
TMT,2023-08-21 12:55,-117.1971,39.4643,1749.34,61.50,57.20,85.76,200.00,11.00,0.01,29.91,M,M,M,SCT,OVC,M,M,4500.00,6000.00,M,M,M,M,M,M,M,M,M,61.50,KTMT 211255Z AUTO 20011KT SCT045 OVC060 16/14 A2991 RMK AO2 P0001 T01640140 PWINO,M
EKO,2023-08-21 12:56,-115.7860,40.8242,1367.00,69.00,53.00,56.69,160.00,15.00,0.00,29.91,1008.10,10.00,24.00,FEW,BKN,OVC,M,6000.00,10000.00,11000.00,M,M,M,M,M,30.00,160.00,2023-08-21 12:20,69.00,KEKO 211256Z AUTO 16015G24KT 10SM FEW060 BKN100 OVC110 21/12 A2991 RMK AO2 PK WND 16030/1220 SLP081 T02060117,M
WMC,2023-08-21 12:56,-117.8072,40.9019,1315.00,61.00,59.00,93.12,120.00,6.00,0.06,29.79,1004.80,5.00,M,OVC,M,M,M,6500.00,M,M,M,-RA BR,M,M,M,M,M,M,61.00,KWMC 211256Z AUTO 12006KT 5SM -RA BR OVC065 16/15 A2979 RMK AO2 SLP048 P0006 T01610150,M
NFL,2023-08-21 12:56,-118.7010,39.4166,1199.00,61.00,60.00,96.51,220.00,9.00,0.01,29.85,1008.50,6.00,M,SCT,OVC,M,M,600.00,1300.00,M,M,BR,M,M,M,M,M,M,61.00,KNFL 211256Z AUTO 22009KT 6SM BR SCT006 OVC013 16/16 A2985 RMK AO2 RAE19 SLP085 P0001 T01610156,M
HND,2023-08-21 12:56,-115.1344,35.9729,742.79,M,M,M,M,M,0.00,M,M,M,M,M,M,M,M,M,M,M,M,M,M,M,M,M,M,M,M,KHND 211256Z AUTO RMK AO2 SLPNO PWINO FZRANO $,M
LAS,2023-08-21 12:56,-115.1634,36.0719,663.00,72.00,63.00,73.31,180.00,11.00,0.00,29.97,1013.00,10.00,20.00,FEW,SCT,BKN,M,2500.00,4000.00,7000.00,M,M,M,M,M,M,M,M,72.00,KLAS 211256Z 18011G20KT 10SM FEW025 SCT040 BKN070 22/17 A2997 RMK AO2 SLP130 VCSH S T02220172,M
HTH,2023-08-21 13:10,-118.6315,38.5448,1282.89,60.80,60.80,100.00,0.00,0.00,0.00,29.91,M,10.00,M,BKN,OVC,M,M,6500.00,7500.00,M,M,M,M,M,M,M,M,M,60.80,KHTH 211310Z AUTO 00000KT 10SM BKN065 OVC075 16/16 A2991 RMK A01,M
BVU,2023-08-21 13:15,-114.8611,35.9475,671.00,69.80,66.20,88.34,140.00,13.00,0.00,30.01,M,10.00,M,FEW,BKN,OVC,M,2600.00,3400.00,4200.00,M,M,M,M,M,M,M,M,69.80,KBVU 211315Z AUTO 14013KT 10SM FEW026 BKN034 OVC042 21/19 A3001 RMK AO2,M
CXP,2023-08-21 13:15,-119.7326,39.1923,1431.00,57.20,57.20,100.00,0.00,0.00,0.00,29.94,M,10.00,M,BKN,OVC,M,M,600.00,1100.00,M,M,UP,M,M,M,M,M,M,57.20,KCXP 211315Z AUTO 00000KT 10SM UP BKN006 OVC011 14/14 A2994 RMK AO2,M
RTS,2023-08-21 13:15,-119.8764,39.6682,1539.00,57.20,53.60,87.74,290.00,7.00,0.00,29.93,M,10.00,M,OVC,M,M,M,2700.00,M,M,M,M,M,M,M,M,M,M,57.20,KRTS 211315Z AUTO 29007KT 10SM OVC027 14/12 A2993 RMK AO2,M
05U,2023-08-21 13:15,-116.0051,39.6042,1811.23,60.80,57.20,87.92,M,M,0.00,30.01,M,10.00,M,M,M,M,M,M,M,M,M,M,M,M,M,M,M,M,60.80,K05U 211315Z AUTO 10SM 16/14 A3001 RMK A01,M
MEV,2023-08-21 13:15,-119.7500,38.9963,1441.42,57.20,57.20,100.00,110.00,4.00,0.00,29.93,M,10.00,M,BKN,BKN,OVC,M,4600.00,5500.00,7500.00,M,M,M,M,M,M,M,M,57.20,KMEV 211315Z AUTO 11004KT 10SM BKN046 BKN055 OVC075 14/14 A2993 RMK AO2,M
BAM,2023-08-21 13:15,-116.8743,40.5990,1382.36,68.00,60.80,77.75,150.00,14.00,0.00,29.84,M,10.00,M,BKN,BKN,OVC,M,6000.00,8000.00,9000.00,M,M,M,M,M,M,M,M,68.00,KBAM 211315Z AUTO 15014KT 10SM BKN060 BKN080 OVC090 20/16 A2984 RMK AO1,M
TMT,2023-08-21 13:15,-117.1971,39.4643,1749.34,60.40,57.70,90.80,220.00,8.00,0.00,29.93,M,M,M,M,M,M,M,M,M,M,M,M,M,M,M,M,M,M,60.40,KTMT 211315Z AUTO 22008KT 16/14 A2993 RMK AO2 T01580143 PWINO,M
INS,2023-08-21 13:25,-115.6733,36.5872,955.00,66.20,66.20,100.00,110.00,18.00,0.00,29.97,1011.10,10.00,24.00,OVC,M,M,M,3400.00,M,M,M,-DZ,M,M,M,M,M,M,66.20,KINS 211325Z AUTO 11018G24KT 10SM -DZ OVC034 19/19 A2997 RMK AO2 DZB25 SLP111 $,M
05U,2023-08-21 13:30,-116.0051,39.6042,1811.23,60.80,57.20,87.92,M,M,0.00,30.01,M,9.00,M,M,M,M,M,M,M,M,M,M,M,M,M,M,M,M,60.80,K05U 211330Z AUTO 9SM 16/14 A3001 RMK A01,M
BVU,2023-08-21 13:35,-114.8611,35.9475,671.00,69.80,66.20,88.34,140.00,9.00,0.00,30.01,M,10.00,15.00,FEW,OVC,M,M,2900.00,3500.00,M,M,M,M,M,M,M,M,M,69.80,KBVU 211335Z AUTO 14009G15KT 10SM FEW029 OVC035 21/19 A3001 RMK AO2,M
CXP,2023-08-21 13:35,-119.7326,39.1923,1431.00,57.20,57.20,100.00,M,3.00,0.00,29.95,M,9.00,M,SCT,BKN,OVC,M,700.00,3900.00,6000.00,M,UP,M,M,M,M,M,M,57.20,KCXP 211335Z AUTO VRB03KT 9SM UP SCT007 BKN039 OVC060 14/14 A2995 RMK AO2,M
RTS,2023-08-21 13:35,-119.8764,39.6682,1539.00,57.20,53.60,87.74,310.00,6.00,0.00,29.94,M,10.00,M,OVC,M,M,M,2800.00,M,M,M,M,M,M,M,M,M,M,57.20,KRTS 211335Z AUTO 31006KT 10SM OVC028 14/12 A2994 RMK AO2,M
MEV,2023-08-21 13:35,-119.7500,38.9963,1441.42,57.20,57.20,100.00,0.00,0.00,0.00,29.94,M,10.00,M,BKN,BKN,OVC,M,4900.00,6000.00,7000.00,M,M,M,M,M,M,M,M,57.20,KMEV 211335Z AUTO 00000KT 10SM BKN049 BKN060 OVC070 14/14 A2994 RMK AO2,M
BAM,2023-08-21 13:35,-116.8743,40.5990,1382.36,69.80,60.80,73.09,150.00,9.00,0.00,29.84,M,10.00,20.00,SCT,BKN,BKN,M,7000.00,9000.00,11000.00,M,M,M,M,M,M,M,M,69.80,KBAM 211335Z AUTO 15009G20KT 10SM SCT070 BKN090 BKN110 21/16 A2984 RMK AO1,M
HTH,2023-08-21 13:35,-118.6315,38.5448,1282.89,60.80,60.80,100.00,0.00,0.00,0.00,29.93,M,10.00,M,BKN,BKN,OVC,M,7000.00,7500.00,9000.00,M,M,M,M,M,M,M,M,60.80,KHTH 211335Z AUTO 00000KT 10SM BKN070 BKN075 OVC090 16/16 A2993 RMK A01,M
TMT,2023-08-21 13:35,-117.1971,39.4643,1749.34,60.00,58.30,94.10,250.00,5.00,0.00,29.94,M,M,M,M,M,M,M,M,M,M,M,M,M,M,M,M,M,M,60.00,KTMT 211335Z AUTO 25005KT 16/15 A2994 RMK AO2 T01550146 PWINO,M
INS,2023-08-21 13:40,-115.6733,36.5872,955.00,66.20,66.20,100.00,120.00,17.00,0.00,29.97,1011.10,9.00,23.00,BKN,OVC,M,M,900.00,3500.00,M,M,-DZ,M,M,M,M,M,M,66.20,KINS 211340Z AUTO 12017G23KT 9SM -DZ BKN009 OVC035 19/19 A2997 RMK AO2 DZB25 BKN V FEW SLP111 $,M
INS,2023-08-21 13:45,-115.6733,36.5872,955.00,66.20,66.20,100.00,120.00,17.00,0.00,29.98,1011.40,9.00,22.00,SCT,BKN,OVC,M,900.00,1400.00,3500.00,M,-DZ,M,M,M,M,M,M,66.20,KINS 211345Z AUTO 12017G22KT 9SM -DZ SCT009 BKN014 OVC035 19/19 A2998 RMK AO2 DZB25E45 SLP114 $,M
INS,2023-08-21 13:46,-115.6733,36.5872,955.00,66.20,66.20,100.00,120.00,17.00,0.00,29.98,1011.40,9.00,22.00,SCT,BKN,OVC,M,900.00,1400.00,3500.00,M,M,M,M,M,M,M,M,66.20,KINS 211346Z AUTO 12017G22KT 9SM SCT009 BKN014 OVC035 19/19 A2998 RMK AO2 DZB25E45 SLP114 $,M
P68,2023-08-21 13:53,-116.0056,39.6014,1993.00,61.00,57.00,86.67,160.00,20.00,0.00,30.00,1009.20,M,32.00,M,M,M,M,M,M,M,M,M,M,M,M,36.00,150.00,2023-08-21 13:27,61.00,KP68 211353Z AUTO 16020G32KT 16/14 A3000 RMK AO1 PK WND 15036/1327 SLP092 T01610139 $,M
DRA,2023-08-21 13:53,-116.0278,36.6206,1009.00,64.00,63.00,96.55,220.00,12.00,0.11,30.00,1012.20,2.00,M,BKN,BKN,OVC,M,3800.00,5500.00,7000.00,M,RA BR,M,M,M,M,M,M,64.00,KDRA 211353Z AUTO 22012KT 2SM RA BR BKN038 BKN055 OVC070 18/17 A3000 RMK AO2 SLP122 P0011 T01780172 $,M
ELY,2023-08-21 13:53,-114.8453,39.2950,1909.00,61.00,52.00,72.22,170.00,25.00,0.00,30.10,1010.80,10.00,39.00,BKN,BKN,M,M,4000.00,4700.00,M,M,M,M,M,M,46.00,190.00,2023-08-21 13:17,61.00,KELY 211353Z AUTO 17025G39KT 10SM BKN040 BKN047 16/11 A3010 RMK AO2 PK WND 19046/1317 SLP108 T01610111,M
VGT,2023-08-21 13:53,-115.1933,36.2111,667.00,73.00,64.00,73.40,130.00,16.00,0.00,29.99,1015.10,10.00,24.00,BKN,BKN,OVC,M,3300.00,4400.00,5500.00,M,M,M,M,M,M,M,M,73.00,KVGT 211353Z 13016G24KT 10SM BKN033 BKN044 OVC055 23/18 A2999 RMK AO2 SLP151 T02280178,M
LOL,2023-08-21 13:53,-118.5701,40.0684,1192.43,60.00,60.00,100.00,220.00,7.00,0.03,29.84,1007.60,3.00,M,SCT,OVC,M,M,2000.00,2800.00,M,M,-RA BR,M,M,M,M,M,M,60.00,KLOL 211353Z AUTO 22007KT 3SM -RA BR SCT020 OVC028 16/16 A2984 RMK AO2 SLP076 P0003 T01560156,M
INS,2023-08-21 13:54,-115.6733,36.5872,955.00,66.20,66.20,100.00,120.00,15.00,0.00,29.98,1011.40,10.00,24.00,SCT,BKN,BKN,OVC,900.00,1400.00,2100.00,3000.00,-DZ,M,M,M,M,M,M,66.20,KINS 211354Z AUTO 12015G24KT 10SM -DZ SCT009 BKN014 BKN021 OVC030 19/19 A2998 RMK AO2 DZB25E45DZB54 SLP114 $,M
LSV,2023-08-21 13:54,-115.0343,36.2362,570.00,71.60,71.60,100.00,90.00,10.00,0.00,29.97,1013.00,10.00,M,SCT,BKN,OVC,M,3700.00,5000.00,6000.00,M,M,M,M,M,M,M,M,71.60,KLSV 211354Z AUTO 09010KT 10SM SCT037 BKN050 OVC060 22/22 A2997 RMK AO2 SLP130 $,M
BVU,2023-08-21 13:55,-114.8611,35.9475,671.00,69.80,64.40,82.98,160.00,10.00,0.00,30.02,M,10.00,M,FEW,SCT,OVC,M,1800.00,2800.00,3600.00,M,M,M,M,M,M,M,M,69.80,KBVU 211355Z AUTO 16010KT 10SM FEW018 SCT028 OVC036 21/18 A3002 RMK AO2,M
CXP,2023-08-21 13:55,-119.7326,39.1923,1431.00,59.00,57.20,93.74,330.00,3.00,0.00,29.96,M,9.00,M,BKN,BKN,OVC,M,3800.00,4700.00,6000.00,M,M,M,M,M,M,M,M,59.00,KCXP 211355Z AUTO 33003KT 9SM BKN038 BKN047 OVC060 15/14 A2996 RMK AO2,M
INS,2023-08-21 13:55,-115.6733,36.5872,955.00,66.00,65.70,98.96,130.00,15.00,T,29.97,1011.10,10.00,24.00,SCT,BKN,BKN,OVC,900.00,1400.00,2100.00,3000.00,-DZ,M,M,M,30.00,90.00,2023-08-21 13:00,66.00,KINS 211355Z AUTO 13015G24KT 10SM -DZ SCT009 BKN014 BKN021 OVC030 19/19 A2997 RMK AO2 PK WND 09030/00 DZB25E45DZB54 SLP111 P0000 T01890187 $,M
RNO,2023-08-21 13:55,-119.7711,39.4839,1341.00,61.00,57.00,86.67,0.00,0.00,0.00,29.92,1008.90,10.00,M,FEW,BKN,OVC,M,2000.00,3500.00,6000.00,M,M,M,M,M,M,M,M,61.00,KRNO 211355Z 00000KT 10SM FEW020 BKN035 OVC060 16/14 A2992 RMK AO2 SLP089 MTN TOPS OBSCD DSNT SW THRU NW T01610139,M
RTS,2023-08-21 13:55,-119.8764,39.6682,1539.00,57.20,53.60,87.74,290.00,5.00,0.00,29.96,M,10.00,M,BKN,OVC,M,M,3100.00,3700.00,M,M,M,M,M,M,M,M,M,57.20,KRTS 211355Z AUTO 29005KT 10SM BKN031 OVC037 14/12 A2996 RMK AO2,M
05U,2023-08-21 13:55,-116.0051,39.6042,1811.23,60.80,57.20,87.92,M,M,0.00,30.03,M,10.00,M,M,M,M,M,M,M,M,M,M,M,M,M,M,M,M,60.80,K05U 211355Z AUTO 10SM 16/14 A3003 RMK A01,M
MEV,2023-08-21 13:55,-119.7500,38.9963,1441.42,59.00,55.40,87.83,0.00,0.00,0.00,29.95,M,10.00,M,FEW,SCT,BKN,M,4300.00,5000.00,7000.00,M,M,M,M,M,M,M,M,59.00,KMEV 211355Z AUTO 00000KT 10SM FEW043 SCT050 BKN070 15/13 A2995 RMK AO2,M
HTH,2023-08-21 13:55,-118.6315,38.5448,1282.89,60.80,60.80,100.00,0.00,0.00,0.00,29.94,M,10.00,M,SCT,BKN,OVC,M,1300.00,7500.00,9500.00,M,M,M,M,M,M,M,M,60.80,KHTH 211355Z AUTO 00000KT 10SM SCT013 BKN075 OVC095 16/16 A2994 RMK A01,M
LSV,2023-08-21 13:55,-115.0343,36.2362,570.00,72.00,71.80,99.32,90.00,10.00,0.00,29.97,1013.00,10.00,M,SCT,BKN,OVC,M,3700.00,4700.00,5500.00,M,M,M,M,M,M,M,M,72.00,KLSV 211355Z AUTO 09010KT 10SM SCT037 BKN047 OVC055 22/22 A2997 RMK AO2 SLP130 T02230221 $,M
BAM,2023-08-21 13:55,-116.8743,40.5990,1382.36,69.80,59.00,68.55,150.00,12.00,0.00,29.84,M,10.00,26.00,BKN,OVC,M,M,7000.00,8000.00,M,M,M,M,M,M,M,M,M,69.80,KBAM 211355Z AUTO 15012G26KT 10SM BKN070 OVC080 21/15 A2984 RMK AO1,M
TMT,2023-08-21 13:55,-117.1971,39.4643,1749.34,58.30,56.30,93.05,240.00,15.00,0.01,29.96,M,M,20.00,M,M,M,M,M,M,M,M,M,M,M,M,M,M,M,58.30,KTMT 211355Z AUTO 24015G20KT 15/14 A2996 RMK AO2 P0001 T01460135 PWINO,M
EKO,2023-08-21 13:56,-115.7860,40.8242,1367.00,68.00,54.00,60.86,190.00,13.00,0.00,29.95,1009.50,10.00,26.00,BKN,BKN,M,M,10000.00,12000.00,M,M,M,M,M,M,31.00,180.00,2023-08-21 13:29,68.00,KEKO 211356Z AUTO 19013G26KT 10SM BKN100 BKN120 20/12 A2995 RMK AO2 PK WND 18031/1329 SLP095 T02000122,M
WMC,2023-08-21 13:56,-117.8072,40.9019,1315.00,61.00,60.00,96.51,120.00,6.00,0.09,29.82,1005.70,7.00,M,FEW,FEW,BKN,M,5500.00,8000.00,11000.00,M,-RA,M,M,M,M,M,M,61.00,KWMC 211356Z AUTO 12006KT 7SM -RA FEW055 FEW080 BKN110 16/16 A2982 RMK AO2 SLP057 P0009 T01610156,M
NFL,2023-08-21 13:56,-118.7010,39.4166,1199.00,61.00,59.00,93.12,220.00,6.00,T,29.90,1009.80,10.00,M,SCT,BKN,OVC,M,2000.00,5500.00,8000.00,M,M,M,M,M,M,M,M,61.00,KNFL 211356Z 22006KT 10SM SCT020 BKN055 OVC080 16/15 A2990 RMK AO2 RAB30E39 SLP098 P0000 T01610150,M
HND,2023-08-21 13:56,-115.1344,35.9729,742.79,M,M,M,M,M,0.00,M,M,M,M,M,M,M,M,M,M,M,M,M,M,M,M,M,M,M,M,KHND 211356Z RMK AO2 SLPNO $,M
LAS,2023-08-21 13:56,-115.1634,36.0719,663.00,72.00,62.00,70.77,150.00,11.00,0.00,29.99,1013.60,10.00,23.00,FEW,BKN,M,M,2500.00,4900.00,M,M,M,M,M,M,M,M,M,72.00,KLAS 211356Z 15011G23KT 10SM FEW025 BKN049 22/17 A2999 RMK AO2 SLP136 VCSH SE AND SW T02220167,M
LSV,2023-08-21 13:56,-115.0343,36.2362,570.00,71.60,71.60,100.00,100.00,10.00,0.00,29.97,1013.00,10.00,M,SCT,BKN,OVC,M,3700.00,5000.00,6000.00,M,M,M,M,M,M,M,M,71.60,KLSV 211356Z AUTO 10010KT 10SM SCT037 BKN050 OVC060 22/22 A2997 RMK AO2 SLP130 $,M
LSV,2023-08-21 14:00,-115.0343,36.2362,570.00,71.60,71.60,100.00,100.00,11.00,0.00,29.97,1013.00,10.00,M,SCT,BKN,OVC,M,3700.00,4700.00,5500.00,M,M,M,M,M,M,M,M,71.60,KLSV 211400Z AUTO 10011KT 10SM SCT037 BKN047 OVC055 22/22 A2997 RMK AO2 SLP130 $,M
DRA,2023-08-21 14:01,-116.0278,36.6206,1009.00,64.00,63.00,96.55,230.00,10.00,0.03,30.01,M,1.50,M,FEW,OVC,M,M,1800.00,3400.00,M,M,+RA BR,M,M,M,M,M,M,64.00,KDRA 211401Z AUTO 23010KT 1 1/2SM +RA BR FEW018 OVC034 18/17 A3001 RMK AO2 P0003 T01780172 $,M
LSV,2023-08-21 14:01,-115.0343,36.2362,570.00,71.60,71.60,100.00,110.00,11.00,0.00,29.97,1013.00,10.00,M,SCT,SCT,OVC,M,3400.00,4200.00,5000.00,M,M,M,M,M,M,M,M,71.60,KLSV 211401Z AUTO 11011KT 10SM SCT034 SCT042 OVC050 22/22 A2997 RMK AO2 SLP130 $,M
LSV,2023-08-21 14:02,-115.0343,36.2362,570.00,71.60,71.60,100.00,100.00,11.00,0.00,29.97,1013.00,10.00,M,SCT,BKN,OVC,M,3400.00,4200.00,5000.00,M,M,M,M,M,M,M,M,71.60,KLSV 211402Z AUTO 10011KT 10SM SCT034 BKN042 OVC050 22/22 A2997 RMK AO2 SLP130 $,M
INS,2023-08-21 14:04,-115.6733,36.5872,955.00,66.20,66.20,100.00,120.00,17.00,0.00,29.98,1011.40,10.00,24.00,FEW,BKN,BKN,BKN,900.00,1500.00,2600.00,3300.00,M,M,M,M,M,M,M,66.20,KINS 211404Z AUTO 12017G24KT 10SM FEW009 BKN015 BKN026 BKN033 OVC049 19/19 A2998 RMK AO2 DZE04 SLP114 $,M
DRA,2023-08-21 14:09,-116.0278,36.6206,1009.00,64.00,63.00,96.55,240.00,11.00,0.08,30.01,M,3.00,M,FEW,SCT,OVC,M,1700.00,2400.00,3100.00,M,-RA BR,M,M,M,M,M,M,64.00,KDRA 211409Z AUTO 24011KT 3SM -RA BR FEW017 SCT024 OVC031 18/17 A3001 RMK AO2 P0008 T01780172 $,M
INS,2023-08-21 14:09,-115.6733,36.5872,955.00,66.20,66.20,100.00,110.00,20.00,0.00,29.99,1011.80,8.00,25.00,SCT,SCT,BKN,BKN,1200.00,1700.00,2400.00,2900.00,-RA,M,M,M,M,M,M,66.20,KINS 211409Z AUTO 11020G25KT 8SM -RA SCT012 SCT017 BKN024 BKN029 BKN037 OVC049 19/19 A2999 RMK AO2 DZE04RAB09 SLP118 $,M
05U,2023-08-21 14:10,-116.0051,39.6042,1811.23,60.80,57.20,87.92,M,M,0.00,30.04,M,6.00,M,M,M,M,M,M,M,M,M,HZ,M,M,M,M,M,M,60.80,K05U 211410Z AUTO 6SM HZ 16/14 A3004 RMK A01,M
INS,2023-08-21 14:14,-115.6733,36.5872,955.00,66.20,66.20,100.00,110.00,16.00,0.00,29.99,1011.80,8.00,25.00,FEW,SCT,SCT,BKN,1000.00,1600.00,2600.00,3200.00,-RA,M,M,M,M,M,M,66.20,KINS 211414Z AUTO 11016G25KT 8SM -RA FEW010 SCT016 SCT026 BKN032 OVC055 19/19 A2999 RMK AO2 DZE04RAB09 SLP118 $,M
DRA,2023-08-21 14:14,-116.0278,36.6206,1009.00,64.00,63.00,96.55,230.00,10.00,0.08,30.01,M,6.00,M,FEW,SCT,OVC,M,1100.00,1800.00,2700.00,M,-RA BR,M,M,M,M,M,M,64.00,KDRA 211414Z AUTO 23010KT 6SM -RA BR FEW011 SCT018 OVC027 18/17 A3001 RMK AO2 P0008 T01780172 $,M
BVU,2023-08-21 14:15,-114.8611,35.9475,671.00,69.80,66.20,88.34,160.00,10.00,0.00,30.03,M,10.00,M,FEW,SCT,BKN,M,1700.00,2900.00,3500.00,M,M,M,M,M,M,M,M,69.80,KBVU 211415Z AUTO 16010KT 10SM FEW017 SCT029 BKN035 21/19 A3003 RMK AO2,M
CXP,2023-08-21 14:15,-119.7326,39.1923,1431.00,59.00,55.40,87.83,0.00,0.00,0.00,29.97,M,10.00,M,FEW,BKN,OVC,M,3900.00,5500.00,6000.00,M,M,M,M,M,M,M,M,59.00,KCXP 211415Z AUTO 00000KT 10SM FEW039 BKN055 OVC060 15/13 A2997 RMK AO2,M
LOL,2023-08-21 14:15,-118.5701,40.0684,1192.43,60.00,60.00,100.00,210.00,9.00,T,29.86,M,7.00,M,FEW,BKN,OVC,M,1200.00,3200.00,4600.00,M,M,M,M,M,M,M,M,60.00,KLOL 211415Z AUTO 21009KT 7SM FEW012 BKN032 OVC046 16/16 A2986 RMK AO2 RAE15 P0000 T01560156,M
RTS,2023-08-21 14:15,-119.8764,39.6682,1539.00,57.20,53.60,87.74,280.00,6.00,0.00,29.98,M,10.00,M,BKN,OVC,M,M,3400.00,4200.00,M,M,M,M,M,M,M,M,M,57.20,KRTS 211415Z AUTO 28006KT 10SM BKN034 OVC042 14/12 A2998 RMK AO2,M
MEV,2023-08-21 14:15,-119.7500,38.9963,1441.42,59.00,57.20,93.74,0.00,0.00,0.00,29.96,M,10.00,M,FEW,BKN,BKN,M,4300.00,6500.00,7500.00,M,M,M,M,M,M,M,M,59.00,KMEV 211415Z AUTO 00000KT 10SM FEW043 BKN065 BKN075 15/14 A2996 RMK AO2,M
BAM,2023-08-21 14:15,-116.8743,40.5990,1382.36,69.80,59.00,68.55,160.00,19.00,0.00,29.85,M,10.00,25.00,OVC,M,M,M,6000.00,M,M,M,M,M,M,M,M,M,M,69.80,KBAM 211415Z AUTO 16019G25KT 10SM OVC060 21/15 A2985 RMK AO1,M
HTH,2023-08-21 14:15,-118.6315,38.5448,1282.89,60.80,60.80,100.00,340.00,4.00,0.00,29.95,M,10.00,M,FEW,BKN,M,M,1300.00,9500.00,M,M,M,M,M,M,M,M,M,60.80,KHTH 211415Z AUTO 34004KT 10SM FEW013 BKN095 16/16 A2995 RMK A01,M
TMT,2023-08-21 14:15,-117.1971,39.4643,1749.34,57.20,56.00,95.76,240.00,13.00,0.00,29.99,M,M,18.00,M,M,M,M,M,M,M,M,M,M,M,M,M,M,M,57.20,KTMT 211415Z AUTO 24013G18KT 14/13 A2999 RMK AO2 T01400133 PWINO,M
INS,2023-08-21 14:23,-115.6733,36.5872,955.00,66.20,66.20,100.00,130.00,17.00,0.00,29.99,1011.80,10.00,22.00,SCT,BKN,BKN,BKN,900.00,3200.00,5000.00,6500.00,M,M,M,M,M,M,M,66.20,KINS 211423Z AUTO 13017G22KT 10SM SCT009 BKN032 BKN050 BKN065 19/19 A2999 RMK AO2 DZE04RAB09E20DZB20E21RAB21E23 SLP118 $,M
DRA,2023-08-21 14:28,-116.0278,36.6206,1009.00,64.00,64.00,100.00,230.00,9.00,0.09,30.02,M,4.00,M,FEW,BKN,OVC,M,400.00,1800.00,2700.00,M,-RA BR,M,M,M,M,M,M,64.00,KDRA 211428Z AUTO 23009KT 4SM -RA BR FEW004 BKN018 OVC027 18/18 A3002 RMK AO2 P0009 T01780178 $,M
INS,2023-08-21 14:28,-115.6733,36.5872,955.00,66.20,66.20,100.00,130.00,16.00,0.00,30.00,1012.10,8.00,22.00,FEW,SCT,SCT,BKN,500.00,1100.00,3200.00,5000.00,-RA,M,M,M,M,M,M,66.20,KINS 211428Z AUTO 13016G22KT 8SM -RA FEW005 SCT011 SCT032 BKN050 OVC060 19/19 A3000 RMK AO2 DZE04RAB09E20DZB20E21RAB21E23RAB28 SLP121 $,M
05U,2023-08-21 14:30,-116.0051,39.6042,1811.23,60.80,57.20,87.92,M,M,0.00,30.05,M,1.75,M,M,M,M,M,M,M,M,M,BR,M,M,M,M,M,M,60.80,K05U 211430Z AUTO 1 3/4SM BR 16/14 A3005 RMK A01,M
BVU,2023-08-21 14:35,-114.8611,35.9475,671.00,69.80,64.40,82.98,160.00,11.00,0.00,30.04,M,10.00,M,FEW,BKN,OVC,M,2800.00,3500.00,5500.00,M,M,M,M,M,M,M,M,69.80,KBVU 211435Z AUTO 16011KT 10SM FEW028 BKN035 OVC055 21/18 A3004 RMK AO2,M
CXP,2023-08-21 14:35,-119.7326,39.1923,1431.00,59.00,55.40,87.83,330.00,4.00,0.00,29.98,M,10.00,M,FEW,SCT,BKN,M,4600.00,5500.00,6500.00,M,M,M,M,M,M,M,M,59.00,KCXP 211435Z AUTO 33004KT 10SM FEW046 SCT055 BKN065 15/13 A2998 RMK AO2,M
RTS,2023-08-21 14:35,-119.8764,39.6682,1539.00,57.20,53.60,87.74,300.00,6.00,0.00,29.98,M,10.00,M,FEW,SCT,OVC,M,3800.00,4400.00,6000.00,M,M,M,M,M,M,M,M,57.20,KRTS 211435Z AUTO 30006KT 10SM FEW038 SCT044 OVC060 14/12 A2998 RMK AO2,M
MEV,2023-08-21 14:35,-119.7500,38.9963,1441.42,59.00,57.20,93.74,0.00,0.00,0.00,29.97,M,10.00,M,FEW,SCT,BKN,M,4400.00,6000.00,7000.00,M,UP,M,M,M,M,M,M,59.00,KMEV 211435Z AUTO 00000KT 10SM UP FEW044 SCT060 BKN070 15/14 A2997 RMK AO2,M
BAM,2023-08-21 14:35,-116.8743,40.5990,1382.36,68.00,60.80,77.75,240.00,6.00,0.00,29.88,M,7.00,19.00,SCT,OVC,M,M,4900.00,6000.00,M,M,M,M,M,M,M,M,M,68.00,KBAM 211435Z AUTO 24006G19KT 7SM SCT049 OVC060 20/16 A2988 RMK AO1,M
HTH,2023-08-21 14:35,-118.6315,38.5448,1282.89,60.80,60.80,100.00,0.00,0.00,0.00,29.96,M,10.00,M,FEW,M,M,M,10000.00,M,M,M,M,M,M,M,M,M,M,60.80,KHTH 211435Z AUTO 00000KT 10SM FEW100 16/16 A2996 RMK A01,M
LSV,2023-08-21 14:35,-115.0343,36.2362,570.00,71.60,71.60,100.00,130.00,9.00,0.00,29.99,1013.70,10.00,M,FEW,SCT,SCT,OVC,2900.00,4100.00,4800.00,6000.00,M,M,M,M,M,M,M,71.60,KLSV 211435Z AUTO 13009KT 10SM FEW029 SCT041 SCT048 OVC060 22/22 A2999 RMK AO2 SLP137 $,M
TMT,2023-08-21 14:35,-117.1971,39.4643,1749.34,57.40,55.80,94.38,240.00,13.00,0.00,30.00,M,M,18.00,M,M,M,M,M,M,M,M,M,M,M,M,M,M,M,57.40,KTMT 211435Z AUTO 24013G18KT 14/13 A3000 RMK AO2 T01410132 PWINO,M
INS,2023-08-21 14:38,-115.6733,36.5872,955.00,66.20,66.20,100.00,120.00,11.00,0.00,30.00,1012.30,6.00,20.00,FEW,SCT,BKN,BKN,600.00,900.00,2500.00,5000.00,-RA,M,M,M,M,M,M,66.20,KINS 211438Z AUTO 12011G20KT 6SM -RA FEW006 SCT009 BKN025 BKN050 OVC060 19/19 A3000 RMK AO2 DZE04RAB09E20DZB20E21RAB21E23RAB28E38DZB38 SLP123 $,M
LOL,2023-08-21 14:48,-118.5701,40.0684,1192.43,60.80,60.80,100.00,210.00,14.00,0.01,29.88,M,8.00,M,FEW,BKN,OVC,M,800.00,5000.00,7000.00,M,M,M,M,M,M,M,M,60.80,KLOL 211448Z AUTO 21014KT 8SM FEW008 BKN050 OVC070 16/16 A2988 RMK AO2 RAE15B22E48 P0001,M
CXP,2023-08-21 14:50,-119.7326,39.1923,1431.00,59.00,55.40,87.83,0.00,0.00,0.00,29.99,M,10.00,M,SCT,BKN,OVC,M,4400.00,5500.00,7000.00,M,M,M,M,M,M,M,M,59.00,KCXP 211450Z AUTO 00000KT 10SM SCT044 BKN055 OVC070 15/13 A2999 RMK AO2,M
INS,2023-08-21 14:53,-115.6733,36.5872,955.00,66.20,66.20,100.00,110.00,10.00,0.00,30.02,1013.00,1.88,M,SCT,BKN,OVC,M,500.00,1100.00,2500.00,M,RA BR,M,M,M,M,M,M,66.20,KINS 211453Z AUTO 11010KT 1 7/8SM RA BR SCT005 BKN011 OVC025 19/19 A3002 RMK AO2 VIS 1 7/8V10 DZE04RAB09E20DZB20E21RAB21E23RAB28E38DZB38E47RAB47 BKN V SCT PRESRR SLP130 $,M
P68,2023-08-21 14:53,-116.0056,39.6014,1993.00,61.00,57.00,86.67,160.00,18.00,0.01,30.03,1010.60,M,33.00,M,M,M,M,M,M,M,M,M,M,M,M,33.00,150.00,2023-08-21 14:47,61.00,KP68 211453Z AUTO 16018G33KT 16/14 A3003 RMK AO1 PK WND 15033/1447 SLP106 P0001 60006 T01610139 53026 $,M
DRA,2023-08-21 14:53,-116.0278,36.6206,1009.00,64.00,64.00,100.00,230.00,12.00,0.11,30.03,1013.30,6.00,M,FEW,BKN,OVC,M,400.00,1800.00,5000.00,M,-RA BR,M,M,M,M,M,M,64.00,KDRA 211453Z AUTO 23012KT 6SM -RA BR FEW004 BKN018 OVC050 18/18 A3003 RMK AO2 SLP133 P0011 60024 T01780178 51029 $,M
ELY,2023-08-21 14:53,-114.8453,39.2950,1909.00,61.00,53.00,74.93,180.00,24.00,0.00,30.12,1011.80,10.00,34.00,BKN,M,M,M,5500.00,M,M,M,M,M,M,M,37.00,170.00,2023-08-21 14:30,61.00,KELY 211453Z AUTO 18024G34KT 10SM BKN055 16/12 A3012 RMK AO2 PK WND 17037/1430 SLP118 T01610117 51026,M
VGT,2023-08-21 14:53,-115.1933,36.2111,667.00,73.00,63.00,70.87,140.00,14.00,T,30.01,1016.10,10.00,M,BKN,OVC,M,M,4200.00,5000.00,M,M,M,M,M,M,M,M,M,73.00,KVGT 211453Z 14014KT 10SM BKN042 OVC050 23/17 A3001 RMK AO2 RAB05E16 SLP161 P0000 60000 T02280172 51024,M
LOL,2023-08-21 14:53,-118.5701,40.0684,1192.43,61.00,61.00,100.00,200.00,12.00,0.01,29.89,1009.50,10.00,M,FEW,BKN,OVC,M,800.00,3700.00,7000.00,M,M,M,M,M,M,M,M,61.00,KLOL 211453Z AUTO 20012KT 10SM FEW008 BKN037 OVC070 16/16 A2989 RMK AO2 RAE15B22E48 SLP095 P0001 60008 T01610161 51027,M
BVU,2023-08-21 14:55,-114.8611,35.9475,671.00,69.80,64.40,82.98,160.00,10.00,0.00,30.04,M,10.00,M,FEW,SCT,OVC,M,2700.00,3900.00,6000.00,M,M,M,M,M,M,M,M,69.80,KBVU 211455Z AUTO 16010KT 10SM FEW027 SCT039 OVC060 21/18 A3004 RMK AO2,M
INS,2023-08-21 14:55,-115.6733,36.5872,955.00,66.40,66.00,98.62,110.00,12.00,0.08,30.02,1013.00,1.12,M,BKN,OVC,M,M,400.00,2500.00,M,M,RA BR,M,M,M,29.00,90.00,2023-08-21 13:55,66.40,KINS 211455Z AUTO 11012KT 1 1/8SM RA BR BKN004 OVC025 19/19 A3002 RMK AO2 PK WND 09029/1355 VIS 1 1/8V10 DZE04RAB09E20DZB20E21RAB21E23RAB28E38DZB38E47RAB47 SLP130 P0008 60008 T01910189 52027 $,M
RNO,2023-08-21 14:55,-119.7711,39.4839,1341.00,62.00,57.00,83.65,110.00,4.00,0.00,29.96,1010.10,10.00,M,FEW,BKN,OVC,M,2000.00,8000.00,13000.00,M,M,M,M,M,M,M,M,62.00,KRNO 211455Z 11004KT 10SM FEW020 BKN080 OVC130 17/14 A2996 RMK AO2 SLP101 60000 T01670139 53030,M
RTS,2023-08-21 14:55,-119.8764,39.6682,1539.00,57.20,53.60,87.74,300.00,6.00,0.00,29.99,M,10.00,M,FEW,OVC,M,M,3100.00,6500.00,M,M,M,M,M,M,M,M,M,57.20,KRTS 211455Z AUTO 30006KT 10SM FEW031 OVC065 14/12 A2999 RMK AO2,M
05U,2023-08-21 14:55,-116.0051,39.6042,1811.23,62.60,57.20,82.50,M,M,0.02,30.06,M,3.00,M,M,M,M,M,M,M,M,M,HZ,M,M,M,M,M,M,62.60,K05U 211455Z AUTO 3SM HZ 17/14 A3006 RMK A01 P0002,M
MEV,2023-08-21 14:55,-119.7500,38.9963,1441.42,59.00,57.20,93.74,0.00,0.00,0.00,29.98,M,10.00,M,FEW,SCT,SCT,M,4500.00,5500.00,6500.00,M,M,M,M,M,M,M,M,59.00,KMEV 211455Z AUTO 00000KT 10SM FEW045 SCT055 SCT065 15/14 A2998 RMK AO2,M
BAM,2023-08-21 14:55,-116.8743,40.5990,1382.36,68.00,60.80,77.75,180.00,7.00,0.00,29.90,M,10.00,M,BKN,OVC,M,M,4600.00,6000.00,M,M,M,M,M,M,M,M,M,68.00,KBAM 211455Z AUTO 18007KT 10SM BKN046 OVC060 20/16 A2990 RMK AO1,M
HTH,2023-08-21 14:55,-118.6315,38.5448,1282.89,62.60,60.80,93.83,240.00,4.00,0.00,29.97,M,10.00,M,CLR,M,M,M,M,M,M,M,M,M,M,M,M,M,M,62.60,KHTH 211455Z AUTO 24004KT 10SM CLR 17/16 A2997 RMK A01,M
LSV,2023-08-21 14:55,-115.0343,36.2362,570.00,71.80,71.40,98.65,100.00,12.00,0.00,29.99,1013.70,10.00,M,BKN,M,M,M,6000.00,M,M,M,M,M,M,M,M,M,M,71.80,KLSV 211455Z AUTO 10012KT 10SM BKN060 22/22 A2999 RMK AO2 SLP137 T02210219 52022 $,M
TMT,2023-08-21 14:55,-117.1971,39.4643,1749.34,57.70,56.30,95.07,230.00,9.00,0.01,30.02,M,M,M,BKN,OVC,M,M,3500.00,4000.00,M,M,M,M,M,M,M,M,M,57.70,KTMT 211455Z AUTO 23009KT BKN035 OVC040 14/14 A3002 RMK AO2 P0001 60003 T01430135 PWINO,M
EKO,2023-08-21 14:56,-115.7860,40.8242,1367.00,68.00,57.00,67.86,170.00,13.00,0.00,29.96,1009.80,10.00,20.00,SCT,M,M,M,11000.00,M,M,M,M,M,M,M,32.00,190.00,2023-08-21 14:00,68.00,KEKO 211456Z AUTO 17013G20KT 10SM SCT110 20/14 A2996 RMK AO2 PK WND 19032/1400 SLP098 T02000139 53015,M
WMC,2023-08-21 14:56,-117.8072,40.9019,1315.00,63.00,61.00,93.18,200.00,13.00,T,29.85,1006.80,10.00,M,FEW,BKN,BKN,M,4700.00,5500.00,11000.00,M,M,M,M,M,M,M,M,63.00,KWMC 211456Z AUTO 20013KT 10SM FEW047 BKN055 BKN110 17/16 A2985 RMK AO2 RAE1357 SLP068 P0000 60015 T01720161 53019,M
HND,2023-08-21 14:56,-115.1344,35.9729,742.79,M,M,M,M,M,0.00,M,M,M,M,M,M,M,M,M,M,M,M,M,M,M,M,M,M,M,M,KHND 211456Z RMK AO2 SLPNO 6//// $,M
LAS,2023-08-21 14:56,-115.1634,36.0719,663.00,73.00,62.00,68.42,170.00,8.00,0.00,30.01,1014.30,10.00,17.00,SCT,BKN,BKN,M,5500.00,7000.00,8500.00,M,M,M,M,M,M,M,M,73.00,KLAS 211456Z 17008G17KT 10SM SCT055 BKN070 BKN085 23/17 A3001 RMK AO2 SLP143 T02280167 51019,M
NFL,2023-08-21 14:56,-118.7010,39.4166,1199.00,62.00,59.00,89.89,210.00,5.00,0.00,29.94,1011.00,10.00,M,SCT,BKN,OVC,M,2000.00,3300.00,6000.00,M,M,M,M,M,M,M,M,62.00,KNFL 211456Z 21005KT 10SM SCT020 BKN033 OVC060 17/15 A2994 RMK AO2 SLP110 60001 T01670150 51038,M
INS,2023-08-21 15:00,-115.6733,36.5872,955.00,66.20,66.20,100.00,110.00,14.00,0.00,30.02,1013.00,0.62,M,BKN,BKN,OVC,M,200.00,600.00,2500.00,M,+RA BR,M,M,M,M,M,M,66.20,KINS 211500Z AUTO 11014KT 5/8SM R08/2600V4500FT +RA BR BKN002 BKN006 OVC025 19/19 A3002 RMK AO2 VIS 1/2V5 SLP130 $,M
INS,2023-08-21 15:10,-115.6733,36.5872,955.00,66.20,66.20,100.00,110.00,16.00,0.00,30.02,1013.00,1.88,M,BKN,BKN,OVC,M,200.00,600.00,2700.00,M,-RA BR,M,M,M,M,M,M,66.20,KINS 211510Z AUTO 11016KT 1 7/8SM -RA BR BKN002 BKN006 OVC027 19/19 A3002 RMK AO2 VIS 5/8V1 7/8 SLP130 $,M
05U,2023-08-21 15:10,-116.0051,39.6042,1811.23,62.60,59.00,88.00,M,M,0.00,30.07,M,4.00,M,M,M,M,M,M,M,M,M,HZ,M,M,M,M,M,M,62.60,K05U 211510Z AUTO 4SM HZ 17/15 A3007 RMK A01,M
BVU,2023-08-21 15:15,-114.8611,35.9475,671.00,71.60,64.40,78.04,160.00,11.00,0.00,30.05,M,10.00,M,FEW,OVC,M,M,4200.00,6000.00,M,M,M,M,M,M,M,M,M,71.60,KBVU 211515Z AUTO 16011KT 10SM FEW042 OVC060 22/18 A3005 RMK AO2,M
CXP,2023-08-21 15:15,-119.7326,39.1923,1431.00,60.80,55.40,82.37,0.00,0.00,0.00,30.00,M,10.00,M,BKN,BKN,OVC,M,4300.00,5500.00,8000.00,M,-RA,M,M,M,M,M,M,60.80,KCXP 211515Z AUTO 00000KT 10SM -RA BKN043 BKN055 OVC080 16/13 A3000 RMK AO2,M
INS,2023-08-21 15:15,-115.6733,36.5872,955.00,66.20,66.20,100.00,110.00,14.00,0.00,30.02,1013.00,4.00,M,BKN,BKN,BKN,BKN,200.00,600.00,1000.00,1600.00,-RA BR,M,M,M,M,M,M,66.20,KINS 211515Z AUTO 11014KT 4SM -RA BR BKN002 BKN006 BKN010 BKN016 OVC028 19/19 A3002 RMK AO2 SLP130 $,M
RTS,2023-08-21 15:15,-119.8764,39.6682,1539.00,59.00,53.60,82.25,260.00,6.00,0.00,30.00,M,10.00,M,SCT,BKN,M,M,6500.00,7500.00,M,M,M,M,M,M,M,M,M,59.00,KRTS 211515Z AUTO 26006KT 10SM SCT065 BKN075 15/12 A3000 RMK AO2,M
MEV,2023-08-21 15:15,-119.7500,38.9963,1441.42,59.00,57.20,93.74,290.00,3.00,0.00,29.99,M,6.00,M,FEW,FEW,M,M,5000.00,6000.00,M,M,-RA BR,M,M,M,M,M,M,59.00,KMEV 211515Z AUTO 29003KT 6SM -RA BR FEW050 FEW060 15/14 A2999 RMK AO2,M
HTH,2023-08-21 15:15,-118.6315,38.5448,1282.89,62.60,60.80,93.83,0.00,0.00,0.00,29.98,M,10.00,M,CLR,M,M,M,M,M,M,M,M,M,M,M,M,M,M,62.60,KHTH 211515Z AUTO 00000KT 10SM CLR 17/16 A2998 RMK A01,M
BAM,2023-08-21 15:15,-116.8743,40.5990,1382.36,68.00,60.80,77.75,230.00,16.00,0.00,29.91,M,10.00,23.00,SCT,OVC,M,M,4400.00,5000.00,M,M,M,M,M,M,M,M,M,68.00,KBAM 211515Z AUTO 23016G23KT 10SM SCT044 OVC050 20/16 A2991 RMK AO1,M
TMT,2023-08-21 15:15,-117.1971,39.4643,1749.34,58.30,56.50,93.72,230.00,14.00,0.00,30.03,M,M,M,M,M,M,M,M,M,M,M,M,M,M,M,M,M,M,58.30,KTMT 211515Z AUTO 23014KT 15/14 A3003 RMK AO2 T01460136 PWINO,M
DRA,2023-08-21 15:17,-116.0278,36.6206,1009.00,65.00,64.00,96.57,230.00,11.00,T,30.04,M,8.00,M,SCT,BKN,OVC,M,1500.00,3000.00,11000.00,M,-RA,M,M,M,M,M,M,65.00,KDRA 211517Z AUTO 23011KT 8SM -RA SCT015 BKN030 OVC110 18/18 A3004 RMK AO2 P0000 T01830178 $,M
INS,2023-08-21 15:20,-115.6733,36.5872,955.00,66.20,66.20,100.00,100.00,13.00,0.00,30.02,1013.00,9.00,M,SCT,SCT,BKN,BKN,200.00,1000.00,1700.00,2300.00,-RA,M,M,M,M,M,M,66.20,KINS 211520Z AUTO 10013KT 9SM -RA SCT002 SCT010 BKN017 BKN023 BKN028 OVC075 19/19 A3002 RMK AO2 SLP130 $,M
INS,2023-08-21 15:25,-115.6733,36.5872,955.00,66.20,66.20,100.00,120.00,13.00,0.00,30.03,1013.30,10.00,19.00,SCT,SCT,SCT,OVC,200.00,1700.00,2800.00,7000.00,-RA,M,M,M,M,M,M,66.20,KINS 211525Z AUTO 12013G19KT 10SM -RA SCT002 SCT017 SCT028 OVC070 19/19 A3003 RMK AO2 SLP133 $,M
LOL,2023-08-21 15:30,-118.5701,40.0684,1192.43,62.00,61.00,96.52,230.00,11.00,0.00,29.92,M,10.00,M,BKN,OVC,M,M,2500.00,3800.00,M,M,M,M,M,M,M,M,M,62.00,KLOL 211530Z AUTO 23011KT 10SM BKN025 OVC038 17/16 A2992 RMK AO2 T01670161,M
WMC,2023-08-21 15:31,-117.8072,40.9019,1315.00,63.00,61.00,93.18,200.00,12.00,0.01,29.88,M,4.00,20.00,BKN,BKN,OVC,M,2500.00,2900.00,4600.00,M,-RA BR,M,M,M,M,M,M,63.00,KWMC 211531Z AUTO 20012G20KT 4SM -RA BR BKN025 BKN029 OVC046 17/16 A2988 RMK AO2 RAB23 P0001 T01720161,M
BVU,2023-08-21 15:35,-114.8611,35.9475,671.00,71.60,62.60,73.27,150.00,13.00,0.00,30.06,M,10.00,M,BKN,OVC,M,M,3900.00,6500.00,M,M,M,M,M,M,M,M,M,71.60,KBVU 211535Z AUTO 15013KT 10SM BKN039 OVC065 22/17 A3006 RMK AO2,M
CXP,2023-08-21 15:35,-119.7326,39.1923,1431.00,60.80,53.60,77.14,0.00,0.00,0.00,30.01,M,10.00,M,FEW,BKN,BKN,M,4200.00,5000.00,6000.00,M,-RA,M,M,M,M,M,M,60.80,KCXP 211535Z AUTO 00000KT 10SM -RA FEW042 BKN050 BKN060 16/12 A3001 RMK AO2,M
RTS,2023-08-21 15:35,-119.8764,39.6682,1539.00,59.00,53.60,82.25,280.00,5.00,0.00,30.01,M,9.00,M,SCT,M,M,M,7000.00,M,M,M,-RA,M,M,M,M,M,M,59.00,KRTS 211535Z AUTO 28005KT 9SM -RA SCT070 15/12 A3001 RMK AO2,M
05U,2023-08-21 15:35,-116.0051,39.6042,1811.23,62.60,57.20,82.50,M,M,0.00,30.08,M,9.00,M,M,M,M,M,M,M,M,M,M,M,M,M,M,M,M,62.60,K05U 211535Z AUTO 9SM 17/14 A3008 RMK A01,M
MEV,2023-08-21 15:35,-119.7500,38.9963,1441.42,59.00,57.20,93.74,30.00,4.00,0.00,29.99,M,10.00,M,SCT,SCT,M,M,5000.00,7000.00,M,M,-RA,M,M,M,M,M,M,59.00,KMEV 211535Z AUTO 03004KT 10SM -RA SCT050 SCT070 15/14 A2999 RMK AO2,M
BAM,2023-08-21 15:35,-116.8743,40.5990,1382.36,64.40,62.60,93.88,220.00,20.00,0.00,29.93,M,7.00,26.00,SCT,OVC,M,M,3900.00,4800.00,M,M,M,M,M,M,M,M,M,64.40,KBAM 211535Z AUTO 22020G26KT 7SM SCT039 OVC048 18/17 A2993 RMK AO1,M
HTH,2023-08-21 15:35,-118.6315,38.5448,1282.89,62.60,59.00,88.00,0.00,0.00,0.00,29.99,M,10.00,M,FEW,M,M,M,1300.00,M,M,M,M,M,M,M,M,M,M,62.60,KHTH 211535Z AUTO 00000KT 10SM FEW013 17/15 A2999 RMK A01,M
TMT,2023-08-21 15:35,-117.1971,39.4643,1749.34,58.00,56.70,95.42,240.00,13.00,0.02,30.05,M,M,M,BKN,OVC,M,M,3500.00,4600.00,M,M,M,M,M,M,M,M,M,58.00,KTMT 211535Z AUTO 24013KT BKN035 OVC046 15/14 A3005 RMK AO2 P0002 T01450137 PWINO,M
LSV,2023-08-21 15:43,-115.0343,36.2362,570.00,73.40,69.80,88.51,90.00,7.00,0.00,30.02,1014.70,10.00,M,BKN,OVC,M,M,3400.00,6000.00,M,M,M,M,M,M,M,M,M,73.40,KLSV 211543Z AUTO 09007KT 10SM BKN034 OVC060 23/21 A3002 RMK AO2 SLP147 $,M
05U,2023-08-21 15:50,-116.0051,39.6042,1811.23,64.40,57.20,77.45,M,M,0.00,30.08,M,10.00,M,M,M,M,M,M,M,M,M,M,M,M,M,M,M,M,64.40,K05U 211550Z AUTO 10SM 18/14 A3008 RMK A01,M
P68,2023-08-21 15:53,-116.0056,39.6014,1993.00,64.00,58.00,80.83,170.00,19.00,0.01,30.05,1010.90,M,26.00,M,M,M,M,M,M,M,M,M,M,M,M,33.00,180.00,2023-08-21 15:13,64.00,KP68 211553Z AUTO 17019G26KT 18/14 A3005 RMK AO1 PK WND 18033/1513 SLP109 P0001 T01780144 $,M
DRA,2023-08-21 15:53,-116.0278,36.6206,1009.00,65.00,63.00,93.24,230.00,16.00,T,30.04,1013.80,10.00,M,FEW,SCT,OVC,M,1500.00,3500.00,9500.00,M,-RA,M,M,M,M,M,M,65.00,KDRA 211553Z AUTO 23016KT 10SM -RA FEW015 SCT035 OVC095 18/17 A3004 RMK AO2 SLP138 P0000 T01830172 $,M
ELY,2023-08-21 15:53,-114.8453,39.2950,1909.00,65.00,53.00,65.09,180.00,28.00,0.00,30.14,1011.70,10.00,37.00,SCT,M,M,M,6000.00,M,M,M,M,M,M,M,41.00,180.00,2023-08-21 14:58,65.00,KELY 211553Z AUTO 18028G37KT 10SM SCT060 18/12 A3014 RMK AO2 PK WND 18041/1458 SLP117 T01830117,M
VGT,2023-08-21 15:53,-115.1933,36.2111,667.00,73.00,62.00,68.42,110.00,14.00,0.00,30.04,1017.20,10.00,M,FEW,BKN,OVC,M,3000.00,3700.00,5500.00,M,M,M,M,M,M,M,M,73.00,KVGT 211553Z 11014KT 10SM FEW030 BKN037 OVC055 23/17 A3004 RMK AO2 SLP172 T02280167,M
LOL,2023-08-21 15:53,-118.5701,40.0684,1192.43,62.00,61.00,96.52,210.00,9.00,0.00,29.94,1011.10,10.00,M,BKN,OVC,M,M,1900.00,2600.00,M,M,M,M,M,M,M,M,M,62.00,KLOL 211553Z AUTO 21009KT 10SM BKN019 OVC026 17/16 A2994 RMK AO2 SLP111 T01670161,M
BVU,2023-08-21 15:55,-114.8611,35.9475,671.00,71.60,62.60,73.27,160.00,12.00,0.00,30.07,M,10.00,M,BKN,OVC,M,M,3000.00,3700.00,M,M,M,M,M,M,M,M,M,71.60,KBVU 211555Z AUTO 16012KT 10SM BKN030 OVC037 22/17 A3007 RMK AO2,M
CXP,2023-08-21 15:55,-119.7326,39.1923,1431.00,60.80,55.40,82.37,0.00,0.00,0.00,30.01,M,10.00,M,FEW,FEW,SCT,M,5000.00,6500.00,7500.00,M,M,M,M,M,M,M,M,60.80,KCXP 211555Z AUTO 00000KT 10SM FEW050 FEW065 SCT075 16/13 A3001 RMK AO2,M
INS,2023-08-21 15:55,-115.6733,36.5872,955.00,66.20,66.00,99.31,110.00,19.00,0.20,30.04,1013.60,8.00,22.00,FEW,SCT,OVC,M,500.00,3100.00,7000.00,M,-RA BR,M,M,M,27.00,90.00,2023-08-21 15:39,66.20,KINS 211555Z AUTO 11019G22KT 8SM -RA BR FEW005 SCT031 OVC070 19/19 A3004 RMK AO2 PK WND 09027/39 RAE37DZB37E38RAB38 SLP136 P0020 T01900188 $,M
RNO,2023-08-21 15:55,-119.7711,39.4839,1341.00,63.00,57.00,80.76,0.00,0.00,T,29.98,1010.90,10.00,M,FEW,BKN,OVC,M,2500.00,9000.00,14000.00,M,-RA,M,M,M,M,M,M,63.00,KRNO 211555Z 00000KT 10SM -RA FEW025 BKN090 OVC140 17/14 A2998 RMK AO2 RAB18 SLP109 P0000 T01720139,M
RTS,2023-08-21 15:55,-119.8764,39.6682,1539.00,59.00,53.60,82.25,290.00,4.00,0.00,30.02,M,10.00,M,BKN,M,M,M,7000.00,M,M,M,M,M,M,M,M,M,M,59.00,KRTS 211555Z AUTO 29004KT 10SM BKN070 15/12 A3002 RMK AO2,M
MEV,2023-08-21 15:55,-119.7500,38.9963,1441.42,60.80,57.20,87.92,0.00,0.00,0.00,30.00,M,7.00,M,FEW,SCT,M,M,5000.00,7500.00,M,M,-RA,M,M,M,M,M,M,60.80,KMEV 211555Z AUTO 00000KT 7SM -RA FEW050 SCT075 16/14 A3000 RMK AO2,M
BAM,2023-08-21 15:55,-116.8743,40.5990,1382.36,64.40,60.80,88.09,220.00,17.00,0.00,29.95,M,7.00,23.00,BKN,OVC,M,M,4000.00,4700.00,M,M,M,M,M,M,M,M,M,64.40,KBAM 211555Z AUTO 22017G23KT 7SM BKN040 OVC047 18/16 A2995 RMK AO1,M
HTH,2023-08-21 15:55,-118.6315,38.5448,1282.89,64.40,59.00,82.62,240.00,4.00,0.00,29.99,M,10.00,M,SCT,M,M,M,1400.00,M,M,M,M,M,M,M,M,M,M,64.40,KHTH 211555Z AUTO 24004KT 10SM SCT014 18/15 A2999 RMK A01,M
LSV,2023-08-21 15:55,-115.0343,36.2362,570.00,72.70,68.50,86.67,110.00,10.00,0.00,30.02,1014.70,10.00,18.00,BKN,BKN,OVC,M,3200.00,4100.00,6500.00,M,M,M,M,M,M,M,M,72.70,KLSV 211555Z AUTO 11010G18KT 10SM BKN032 BKN041 OVC065 23/20 A3002 RMK AO2 SLP147 T02260203 $,M
TMT,2023-08-21 15:55,-117.1971,39.4643,1749.34,58.30,57.00,95.43,230.00,10.00,0.04,30.06,M,M,M,M,M,M,M,M,M,M,M,M,M,M,M,M,M,M,58.30,KTMT 211555Z AUTO 23010KT 15/14 A3006 RMK AO2 P0004 T01460139 PWINO,M
EKO,2023-08-21 15:56,-115.7860,40.8242,1367.00,72.00,58.00,61.37,180.00,15.00,0.00,29.98,1010.10,10.00,33.00,FEW,M,M,M,7000.00,M,M,M,M,M,M,M,33.00,190.00,2023-08-21 15:33,72.00,KEKO 211556Z AUTO 18015G33KT 10SM FEW070 22/14 A2998 RMK AO2 PK WND 19033/1533 SLP101 T02220144,M
WMC,2023-08-21 15:56,-117.8072,40.9019,1315.00,64.00,62.00,93.21,200.00,14.00,0.02,29.89,1008.40,10.00,22.00,SCT,BKN,OVC,M,2500.00,3800.00,6000.00,M,M,M,M,M,M,M,M,64.00,KWMC 211556Z AUTO 20014G22KT 10SM SCT025 BKN038 OVC060 18/17 A2989 RMK AO2 RAB23E36 SLP084 P0002 T01780167,M
NFL,2023-08-21 15:56,-118.7010,39.4166,1199.00,62.00,60.00,93.15,240.00,5.00,0.01,29.97,1012.10,5.00,M,FEW,BKN,OVC,M,1500.00,3000.00,5000.00,M,-RA BR,M,M,M,M,M,M,62.00,KNFL 211556Z 24005KT 5SM -RA BR FEW015 BKN030 OVC050 17/16 A2997 RMK AO2 RAB38 SLP121 WR// P0001 T01670156,M
HND,2023-08-21 15:56,-115.1344,35.9729,742.79,M,M,M,M,M,0.00,M,M,M,M,M,M,M,M,M,M,M,M,M,M,M,M,M,M,M,M,KHND 211556Z RMK AO2 SLPNO $,M
LAS,2023-08-21 15:56,-115.1634,36.0719,663.00,73.00,61.00,66.04,180.00,11.00,0.00,30.04,1015.50,10.00,21.00,FEW,SCT,BKN,M,4000.00,5500.00,7000.00,M,M,M,M,M,M,M,M,73.00,KLAS 211556Z 18011G21KT 10SM FEW040 SCT055 BKN070 23/16 A3004 RMK AO2 SLP155 T02280161,M
LSV,2023-08-21 16:00,-115.0343,36.2362,570.00,73.40,68.00,83.21,100.00,11.00,0.00,30.02,1014.80,10.00,M,BKN,BKN,OVC,M,2900.00,3600.00,4500.00,M,M,M,M,M,M,M,M,73.40,KLSV 211600Z AUTO 10011KT 10SM BKN029 BKN036 OVC045 23/20 A3002 RMK AO2 CIG 029V036 BKN029 V SCT SLP148 $,M
LSV,2023-08-21 16:01,-115.0343,36.2362,570.00,73.40,68.00,83.21,100.00,10.00,0.00,30.03,1015.20,10.00,M,BKN,OVC,M,M,3200.00,4500.00,M,M,M,M,M,M,M,M,M,73.40,KLSV 211601Z AUTO 10010KT 10SM BKN032 OVC045 23/20 A3003 RMK AO2 SLP152 $,M
INS,2023-08-21 16:06,-115.6733,36.5872,955.00,66.20,66.20,100.00,110.00,17.00,0.00,30.04,1013.60,10.00,24.00,FEW,SCT,SCT,BKN,700.00,1300.00,2400.00,3400.00,M,M,M,M,M,M,M,66.20,KINS 211606Z AUTO 11017G24KT 10SM FEW007 SCT013 SCT024 BKN034 19/19 A3004 RMK AO2 RAE1556DZB1556E1557RAB1557E00DZB00E05RAB05E06 SLP136 $,M
LSV,2023-08-21 16:07,-115.0343,36.2362,570.00,73.40,68.00,83.21,130.00,6.00,0.00,30.03,1015.20,10.00,M,BKN,OVC,M,M,2900.00,3600.00,M,M,M,M,M,M,M,M,M,73.40,KLSV 211607Z AUTO 13006KT 10SM BKN029 OVC036 23/20 A3003 RMK AO2 SLP152 $,M
LSV,2023-08-21 16:08,-115.0343,36.2362,570.00,73.40,68.00,83.21,130.00,6.00,0.00,30.03,1015.20,10.00,M,OVC,M,M,M,3200.00,M,M,M,M,M,M,M,M,M,M,73.40,KLSV 211608Z AUTO 13006KT 10SM OVC032 23/20 A3003 RMK AO2 SLP152 $,M
05U,2023-08-21 16:10,-116.0051,39.6042,1811.23,64.40,57.20,77.45,M,M,0.00,30.09,M,10.00,M,M,M,M,M,M,M,M,M,M,M,M,M,M,M,M,64.40,K05U 211610Z AUTO 10SM 18/14 A3009 RMK A01,M
BVU,2023-08-21 16:15,-114.8611,35.9475,671.00,71.60,62.60,73.27,200.00,6.00,0.00,30.07,M,10.00,M,BKN,OVC,M,M,2600.00,3100.00,M,M,M,M,M,M,M,M,M,71.60,KBVU 211615Z AUTO 20006KT 10SM BKN026 OVC031 22/17 A3007 RMK AO2,M
CXP,2023-08-21 16:15,-119.7326,39.1923,1431.00,60.80,55.40,82.37,0.00,0.00,0.00,30.02,M,10.00,M,FEW,SCT,BKN,M,7000.00,7500.00,9000.00,M,M,M,M,M,M,M,M,60.80,KCXP 211615Z AUTO 00000KT 10SM FEW070 SCT075 BKN090 16/13 A3002 RMK AO2,M
RTS,2023-08-21 16:15,-119.8764,39.6682,1539.00,59.00,53.60,82.25,300.00,4.00,0.00,30.02,M,10.00,M,OVC,M,M,M,7000.00,M,M,M,-DZ,M,M,M,M,M,M,59.00,KRTS 211615Z AUTO 30004KT 10SM -DZ OVC070 15/12 A3002 RMK AO2,M
MEV,2023-08-21 16:15,-119.7500,38.9963,1441.42,60.80,57.20,87.92,0.00,0.00,0.00,30.01,M,10.00,M,FEW,BKN,M,M,6500.00,8000.00,M,M,M,M,M,M,M,M,M,60.80,KMEV 211615Z AUTO 00000KT 10SM FEW065 BKN080 16/14 A3001 RMK AO2,M
HTH,2023-08-21 16:15,-118.6315,38.5448,1282.89,66.20,57.20,72.74,0.00,0.00,0.00,30.00,M,10.00,M,FEW,FEW,M,M,1500.00,10000.00,M,M,M,M,M,M,M,M,M,66.20,KHTH 211615Z AUTO 00000KT 10SM FEW015 FEW100 19/14 A3000 RMK A01,M
BAM,2023-08-21 16:15,-116.8743,40.5990,1382.36,64.40,62.60,93.88,220.00,14.00,0.00,29.96,M,10.00,20.00,SCT,OVC,M,M,4200.00,4900.00,M,M,M,M,M,M,M,M,M,64.40,KBAM 211615Z AUTO 22014G20KT 10SM SCT042 OVC049 18/17 A2996 RMK AO1,M
TMT,2023-08-21 16:15,-117.1971,39.4643,1749.34,59.00,57.40,94.42,220.00,8.00,0.01,30.07,M,M,M,M,M,M,M,M,M,M,M,M,M,M,M,M,M,M,59.00,KTMT 211615Z AUTO 22008KT 15/14 A3007 RMK AO2 P0001 T01500141 PWINO,M
INS,2023-08-21 16:16,-115.6733,36.5872,955.00,66.20,66.20,100.00,110.00,17.00,0.00,30.05,1014.00,10.00,23.00,FEW,FEW,BKN,BKN,700.00,1300.00,2500.00,3500.00,M,M,M,M,M,M,M,66.20,KINS 211616Z AUTO 11017G23KT 10SM FEW007 FEW013 BKN025 BKN035 19/19 A3005 RMK AO2 RAE1556DZB1556E1557RAB1557E00DZB00E05RAB05E06 BKN025 V SCT SLP140 $,M
05U,2023-08-21 16:30,-116.0051,39.6042,1811.23,66.20,57.20,72.74,M,M,0.00,30.08,M,10.00,M,M,M,M,M,M,M,M,M,M,M,M,M,M,M,M,66.20,K05U 211630Z AUTO 10SM 19/14 A3008 RMK A01,M
BVU,2023-08-21 16:35,-114.8611,35.9475,671.00,71.60,62.60,73.27,150.00,9.00,0.00,30.08,M,10.00,M,BKN,BKN,OVC,M,2400.00,2900.00,3800.00,M,M,M,M,M,M,M,M,71.60,KBVU 211635Z AUTO 15009KT 10SM BKN024 BKN029 OVC038 22/17 A3008 RMK AO2,M
CXP,2023-08-21 16:35,-119.7326,39.1923,1431.00,60.80,55.40,82.37,0.00,0.00,0.00,30.03,M,10.00,M,FEW,OVC,M,M,6500.00,8000.00,M,M,M,M,M,M,M,M,M,60.80,KCXP 211635Z AUTO 00000KT 10SM FEW065 OVC080 16/13 A3003 RMK AO2,M
WMC,2023-08-21 16:35,-117.8072,40.9019,1315.00,62.00,59.00,89.89,230.00,12.00,0.00,29.92,M,10.00,21.00,FEW,BKN,OVC,M,1800.00,2400.00,2900.00,M,M,M,M,M,M,M,M,62.00,KWMC 211635Z AUTO 23012G21KT 10SM FEW018 BKN024 OVC029 17/15 A2992 RMK AO2 T01670150,M
RTS,2023-08-21 16:35,-119.8764,39.6682,1539.00,60.80,53.60,77.14,290.00,6.00,0.00,30.03,M,10.00,M,OVC,M,M,M,7000.00,M,M,M,M,M,M,M,M,M,M,60.80,KRTS 211635Z AUTO 29006KT 10SM OVC070 16/12 A3003 RMK AO2,M
MEV,2023-08-21 16:35,-119.7500,38.9963,1441.42,60.80,57.20,87.92,0.00,0.00,0.00,30.01,M,10.00,M,BKN,OVC,M,M,6000.00,8000.00,M,M,M,M,M,M,M,M,M,60.80,KMEV 211635Z AUTO 00000KT 10SM BKN060 OVC080 16/14 A3001 RMK AO2,M
BAM,2023-08-21 16:35,-116.8743,40.5990,1382.36,66.20,60.80,82.74,210.00,10.00,0.00,29.97,M,10.00,M,BKN,OVC,M,M,4900.00,6000.00,M,M,M,M,M,M,M,M,M,66.20,KBAM 211635Z AUTO 21010KT 10SM BKN049 OVC060 19/16 A2997 RMK AO1,M
HTH,2023-08-21 16:35,-118.6315,38.5448,1282.89,66.20,57.20,72.74,0.00,0.00,0.00,30.01,M,10.00,M,BKN,M,M,M,9000.00,M,M,M,M,M,M,M,M,M,M,66.20,KHTH 211635Z AUTO 00000KT 10SM BKN090 19/14 A3001 RMK A01,M
TMT,2023-08-21 16:35,-117.1971,39.4643,1749.34,60.00,58.00,93.10,210.00,10.00,0.02,30.08,M,M,M,M,M,M,M,M,M,M,M,M,M,M,M,M,M,M,60.00,KTMT 211635Z AUTO 21010KT 16/14 A3008 RMK AO2 P0002 T01550144 PWINO,M
INS,2023-08-21 16:36,-115.6733,36.5872,955.00,68.00,66.20,93.97,110.00,19.00,0.00,30.05,1014.00,10.00,25.00,FEW,FEW,SCT,OVC,1400.00,1900.00,2500.00,3600.00,M,M,M,M,M,M,M,68.00,KINS 211636Z AUTO 11019G25KT 10SM FEW014 FEW019 SCT025 OVC036 20/19 A3005 RMK AO2 RAE1556DZB1556E1557RAB1557E00DZB00E05RAB05E06 SLP140 $,M
LOL,2023-08-21 16:37,-118.5701,40.0684,1192.43,64.00,61.00,89.97,200.00,11.00,0.00,29.96,M,10.00,M,SCT,OVC,M,M,3000.00,3600.00,M,M,M,M,M,M,M,M,M,64.00,KLOL 211637Z AUTO 20011KT 10SM SCT030 OVC036 18/16 A2996 RMK AO2 T01780161,M
LSV,2023-08-21 16:44,-115.0343,36.2362,570.00,73.40,64.40,73.44,90.00,5.00,0.00,30.04,1015.50,10.00,M,SCT,OVC,M,M,3600.00,6000.00,M,M,M,M,M,M,M,M,M,73.40,KLSV 211644Z AUTO 09005KT 10SM SCT036 OVC060 23/18 A3004 RMK AO2 SLP155 $,M
DRA,2023-08-21 16:53,-116.0278,36.6206,1009.00,66.00,62.00,86.93,240.00,16.00,T,30.07,1014.40,10.00,24.00,BKN,OVC,M,M,3800.00,4500.00,M,M,M,M,M,M,M,M,M,66.00,KDRA 211653Z AUTO 24016G24KT 10SM BKN038 OVC045 19/17 A3007 RMK AO2 RAE12 SLP144 P0000 T01890167,M
ELY,2023-08-21 16:53,-114.8453,39.2950,1909.00,66.00,53.00,62.87,170.00,25.00,0.00,30.16,1012.60,10.00,40.00,FEW,BKN,BKN,M,6000.00,7500.00,9500.00,M,M,M,M,M,40.00,180.00,2023-08-21 16:49,66.00,KELY 211653Z AUTO 17025G40KT 10SM FEW060 BKN075 BKN095 19/12 A3016 RMK AO2 PK WND 18040/1649 SLP126 T01890117,M
VGT,2023-08-21 16:53,-115.1933,36.2111,667.00,73.00,62.00,68.42,100.00,9.00,0.00,30.06,1018.00,10.00,M,OVC,M,M,M,3300.00,M,M,M,M,M,M,M,M,M,M,73.00,KVGT 211653Z 10009KT 10SM OVC033 23/17 A3006 RMK AO2 SLP180 T02280167,M
LOL,2023-08-21 16:53,-118.5701,40.0684,1192.43,64.00,62.00,93.21,200.00,14.00,0.00,29.96,1012.10,10.00,M,FEW,BKN,OVC,M,2900.00,4700.00,8500.00,M,M,M,M,M,M,M,M,64.00,KLOL 211653Z AUTO 20014KT 10SM FEW029 BKN047 OVC085 18/17 A2996 RMK AO2 SLP121 T01780167,M
BVU,2023-08-21 16:55,-114.8611,35.9475,671.00,73.40,64.40,73.44,160.00,9.00,0.00,30.08,M,10.00,M,FEW,BKN,OVC,M,2400.00,3300.00,4100.00,M,M,M,M,M,M,M,M,73.40,KBVU 211655Z AUTO 16009KT 10SM FEW024 BKN033 OVC041 23/18 A3008 RMK AO2,M
CXP,2023-08-21 16:55,-119.7326,39.1923,1431.00,62.60,57.20,82.50,0.00,0.00,0.00,30.04,M,10.00,M,FEW,BKN,OVC,M,5000.00,7000.00,8500.00,M,M,M,M,M,M,M,M,62.60,KCXP 211655Z AUTO 00000KT 10SM FEW050 BKN070 OVC085 17/14 A3004 RMK AO2,M
INS,2023-08-21 16:55,-115.6733,36.5872,955.00,68.00,66.70,95.61,110.00,21.00,0.01,30.06,1014.30,10.00,27.00,FEW,OVC,M,M,2600.00,3800.00,M,M,M,M,M,M,29.00,80.00,2023-08-21 16:23,68.00,KINS 211655Z AUTO 11021G27KT 10SM FEW026 OVC038 20/19 A3006 RMK AO2 PK WND 08029/23 RAE1556DZB1556E1557RAB1557E00DZB00E05RAB05E06 SLP143 P0001 T02010193 $,M
RNO,2023-08-21 16:55,-119.7711,39.4839,1341.00,64.00,56.00,75.20,0.00,0.00,T,30.00,1011.90,10.00,M,FEW,BKN,OVC,M,3000.00,7000.00,12000.00,M,M,M,M,M,M,M,M,64.00,KRNO 211655Z 00000KT 10SM FEW030 BKN070 OVC120 18/13 A3000 RMK AO2 RAE1556B18E42 SLP119 P0000 T01780133,M
RTS,2023-08-21 16:55,-119.8764,39.6682,1539.00,60.80,53.60,77.14,290.00,4.00,0.00,30.04,M,10.00,M,BKN,OVC,M,M,5500.00,7000.00,M,M,M,M,M,M,M,M,M,60.80,KRTS 211655Z AUTO 29004KT 10SM BKN055 OVC070 16/12 A3004 RMK AO2,M
05U,2023-08-21 16:55,-116.0051,39.6042,1811.23,68.00,55.40,64.04,M,M,0.00,30.10,M,10.00,M,M,M,M,M,M,M,M,M,M,M,M,M,M,M,M,68.00,K05U 211655Z AUTO 10SM 20/13 A3010 RMK A01,M
MEV,2023-08-21 16:55,-119.7500,38.9963,1441.42,60.80,57.20,87.92,0.00,0.00,0.00,30.02,M,8.00,M,OVC,M,M,M,5500.00,M,M,M,M,M,M,M,M,M,M,60.80,KMEV 211655Z AUTO 00000KT 8SM OVC055 16/14 A3002 RMK AO2,M
BAM,2023-08-21 16:55,-116.8743,40.5990,1382.36,68.00,60.80,77.75,210.00,14.00,0.00,29.98,M,10.00,M,BKN,OVC,M,M,6000.00,9000.00,M,M,M,M,M,M,M,M,M,68.00,KBAM 211655Z AUTO 21014KT 10SM BKN060 OVC090 20/16 A2998 RMK AO1,M
HTH,2023-08-21 16:55,-118.6315,38.5448,1282.89,66.20,57.20,72.74,300.00,3.00,0.00,30.02,M,10.00,M,FEW,M,M,M,9000.00,M,M,M,M,M,M,M,M,M,M,66.20,KHTH 211655Z AUTO 30003KT 10SM FEW090 19/14 A3002 RMK A01,M
TMT,2023-08-21 16:55,-117.1971,39.4643,1749.34,61.00,58.00,89.84,240.00,9.00,0.02,30.09,M,M,M,M,M,M,M,M,M,M,M,M,M,M,M,M,M,M,61.00,KTMT 211655Z AUTO 24009KT 16/15 A3009 RMK AO2 P0002 T01620145 PWINO,M
LSV,2023-08-21 16:55,-115.0343,36.2362,570.00,73.00,64.00,73.40,80.00,5.00,0.00,30.05,1015.90,10.00,M,SCT,BKN,M,M,3700.00,6000.00,M,M,M,M,M,M,M,M,M,73.00,KLSV 211655Z AUTO 08005KT 10SM SCT037 BKN060 23/18 A3005 RMK AO2 SLP159 T02270178 $,M
EKO,2023-08-21 16:56,-115.7860,40.8242,1367.00,74.00,58.00,57.37,190.00,19.00,0.00,30.00,1010.80,10.00,32.00,FEW,BKN,BKN,M,6000.00,7500.00,9000.00,M,M,M,M,M,40.00,170.00,2023-08-21 16:23,74.00,KEKO 211656Z AUTO 19019G32KT 10SM FEW060 BKN075 BKN090 23/14 A3000 RMK AO2 PK WND 17040/1623 SLP108 T02330144,M
WMC,2023-08-21 16:56,-117.8072,40.9019,1315.00,63.00,59.00,86.77,250.00,7.00,T,29.94,1010.20,10.00,M,SCT,OVC,M,M,2300.00,3400.00,M,M,M,M,M,M,M,M,M,63.00,KWMC 211656Z AUTO 25007KT 10SM SCT023 OVC034 17/15 A2994 RMK AO2 RAB43E48 SLP102 P0000 T01720150,M
NFL,2023-08-21 16:56,-118.7010,39.4166,1199.00,64.00,58.00,80.83,0.00,0.00,T,30.00,1012.80,10.00,M,FEW,BKN,OVC,M,1500.00,4000.00,7000.00,M,M,M,M,M,M,M,M,64.00,KNFL 211656Z 00000KT 10SM FEW015 BKN040 OVC070 18/14 A3000 RMK AO2 RAE05B33E52 SLP128 WR// P0000 T01780144,M
HND,2023-08-21 16:56,-115.1344,35.9729,742.79,M,M,M,M,M,0.00,M,M,M,M,M,M,M,M,M,M,M,M,M,M,M,M,M,M,M,M,KHND 211656Z AUTO RMK AO2 SLPNO PWINO FZRANO $,M
LAS,2023-08-21 16:56,-115.1634,36.0719,663.00,76.00,61.00,59.72,180.00,13.00,0.00,30.05,1015.70,10.00,22.00,FEW,FEW,SCT,BKN,4000.00,5500.00,7000.00,15000.00,M,M,M,M,26.00,170.00,2023-08-21 16:17,76.00,KLAS 211656Z 18013G22KT 10SM FEW040 FEW055 SCT070 BKN150 24/16 A3005 RMK AO2 PK WND 17026/1617 SLP157 T02440161,M
LSV,2023-08-21 17:03,-115.0343,36.2362,570.00,73.40,64.40,73.44,80.00,3.00,0.00,30.05,1015.90,10.00,M,BKN,OVC,M,M,4000.00,6000.00,M,M,M,M,M,M,M,M,M,73.40,KLSV 211703Z AUTO 08003KT 10SM BKN040 OVC060 23/18 A3005 RMK AO2 SLP159 $,M
05U,2023-08-21 17:10,-116.0051,39.6042,1811.23,68.00,55.40,64.04,M,M,0.00,30.11,M,10.00,M,M,M,M,M,M,M,M,M,M,M,M,M,M,M,M,68.00,K05U 211710Z AUTO 10SM 20/13 A3011 RMK A01,M
BVU,2023-08-21 17:15,-114.8611,35.9475,671.00,75.20,64.40,69.14,160.00,10.00,0.00,30.08,M,10.00,M,BKN,OVC,M,M,3600.00,4300.00,M,M,M,M,M,M,M,M,M,75.20,KBVU 211715Z AUTO 16010KT 10SM BKN036 OVC043 24/18 A3008 RMK AO2,M
CXP,2023-08-21 17:15,-119.7326,39.1923,1431.00,62.60,57.20,82.50,0.00,0.00,0.00,30.04,M,10.00,M,BKN,OVC,M,M,7000.00,8000.00,M,M,M,M,M,M,M,M,M,62.60,KCXP 211715Z AUTO 00000KT 10SM BKN070 OVC080 17/14 A3004 RMK AO2,M
RTS,2023-08-21 17:15,-119.8764,39.6682,1539.00,60.80,53.60,77.14,290.00,5.00,0.00,30.05,M,10.00,M,FEW,SCT,BKN,M,3000.00,3600.00,4400.00,M,M,M,M,M,M,M,M,60.80,KRTS 211715Z AUTO 29005KT 10SM FEW030 SCT036 BKN044 16/12 A3005 RMK AO2,M
MEV,2023-08-21 17:15,-119.7500,38.9963,1441.42,62.60,57.20,82.50,0.00,0.00,0.00,30.03,M,10.00,M,OVC,M,M,M,5500.00,M,M,M,M,M,M,M,M,M,M,62.60,KMEV 211715Z AUTO 00000KT 10SM OVC055 17/14 A3003 RMK AO2,M
BAM,2023-08-21 17:15,-116.8743,40.5990,1382.36,69.80,59.00,68.55,200.00,21.00,0.00,29.99,M,10.00,25.00,SCT,BKN,M,M,7000.00,9000.00,M,M,M,M,M,M,M,M,M,69.80,KBAM 211715Z AUTO 20021G25KT 10SM SCT070 BKN090 21/15 A2999 RMK AO1,M
HTH,2023-08-21 17:15,-118.6315,38.5448,1282.89,68.00,57.20,68.35,310.00,3.00,0.00,30.02,M,10.00,M,CLR,M,M,M,M,M,M,M,M,M,M,M,M,M,M,68.00,KHTH 211715Z AUTO 31003KT 10SM CLR 20/14 A3002 RMK A01,M
TMT,2023-08-21 17:15,-117.1971,39.4643,1749.34,61.70,58.00,87.64,240.00,8.00,0.00,30.10,M,M,M,BKN,BKN,OVC,M,2300.00,2900.00,6000.00,M,M,M,M,M,M,M,M,61.70,KTMT 211715Z AUTO 24008KT BKN023 BKN029 OVC060 17/14 A3010 RMK AO2 T01650144 PWINO,M
BVU,2023-08-21 17:35,-114.8611,35.9475,671.00,75.20,64.40,69.14,160.00,9.00,0.00,30.08,M,10.00,M,OVC,M,M,M,3900.00,M,M,M,M,M,M,M,M,M,M,75.20,KBVU 211735Z AUTO 16009KT 10SM OVC039 24/18 A3008 RMK AO2,M
CXP,2023-08-21 17:35,-119.7326,39.1923,1431.00,64.40,55.40,72.56,290.00,3.00,0.00,30.05,M,10.00,M,SCT,BKN,OVC,M,7000.00,8000.00,9000.00,M,M,M,M,M,M,M,M,64.40,KCXP 211735Z AUTO 29003KT 10SM SCT070 BKN080 OVC090 18/13 A3005 RMK AO2,M
RTS,2023-08-21 17:35,-119.8764,39.6682,1539.00,60.80,53.60,77.14,270.00,7.00,0.00,30.06,M,10.00,16.00,SCT,BKN,OVC,M,3000.00,3900.00,4500.00,M,M,M,M,M,M,M,M,60.80,KRTS 211735Z AUTO 27007G16KT 10SM SCT030 BKN039 OVC045 16/12 A3006 RMK AO2,M
05U,2023-08-21 17:35,-116.0051,39.6042,1811.23,68.00,55.40,64.04,M,M,0.00,30.12,M,10.00,M,M,M,M,M,M,M,M,M,M,M,M,M,M,M,M,68.00,K05U 211735Z AUTO 10SM 20/13 A3012 RMK A01,M
MEV,2023-08-21 17:35,-119.7500,38.9963,1441.42,62.60,57.20,82.50,60.00,3.00,0.00,30.04,M,10.00,M,SCT,OVC,M,M,5000.00,5500.00,M,M,M,M,M,M,M,M,M,62.60,KMEV 211735Z AUTO 06003KT 10SM SCT050 OVC055 17/14 A3004 RMK AO2,M
BAM,2023-08-21 17:35,-116.8743,40.5990,1382.36,69.80,59.00,68.55,200.00,16.00,0.00,30.00,M,10.00,23.00,SCT,OVC,M,M,5000.00,8000.00,M,M,M,M,M,M,M,M,M,69.80,KBAM 211735Z AUTO 20016G23KT 10SM SCT050 OVC080 21/15 A3000 RMK AO1,M
HTH,2023-08-21 17:35,-118.6315,38.5448,1282.89,69.80,57.20,64.26,290.00,4.00,0.00,30.03,M,10.00,M,CLR,M,M,M,M,M,M,M,M,M,M,M,M,M,M,69.80,KHTH 211735Z AUTO 29004KT 10SM CLR 21/14 A3003 RMK A01,M
LSV,2023-08-21 17:35,-115.0343,36.2362,570.00,73.40,62.60,68.94,130.00,3.00,0.00,30.05,1015.80,10.00,M,SCT,BKN,M,M,4000.00,6000.00,M,M,M,M,M,M,M,M,M,73.40,KLSV 211735Z AUTO 13003KT 10SM SCT040 BKN060 23/17 A3005 RMK AO2 SLP158 $,M
TMT,2023-08-21 17:35,-117.1971,39.4643,1749.34,62.20,58.00,86.11,230.00,5.00,0.00,30.10,M,M,M,M,M,M,M,M,M,M,M,M,M,M,M,M,M,M,62.20,KTMT 211735Z AUTO 23005KT 17/14 A3010 RMK AO2 T01680144 PWINO,M
LSV,2023-08-21 17:37,-115.0343,36.2362,570.00,75.20,62.60,64.91,120.00,5.00,0.00,30.05,1015.80,10.00,M,SCT,BKN,BKN,M,4000.00,6500.00,8000.00,M,M,M,M,M,M,M,M,75.20,KLSV 211737Z AUTO 12005KT 10SM SCT040 BKN065 BKN080 24/17 A3005 RMK AO2 SLP158 $,M
05U,2023-08-21 17:50,-116.0051,39.6042,1811.23,69.80,53.60,56.38,M,M,0.00,30.12,M,10.00,M,M,M,M,M,M,M,M,M,M,M,M,M,M,M,M,69.80,K05U 211750Z AUTO 10SM 21/12 A3012 RMK A01,M
P68,2023-08-21 17:53,-116.0056,39.6014,1993.00,69.00,54.00,58.80,180.00,18.00,0.00,30.09,1011.80,M,30.00,M,M,M,M,M,M,M,M,M,M,M,M,35.00,190.00,2023-08-21 16:55,69.00,KP68 211753Z AUTO 18018G30KT 21/12 A3009 RMK AO1 PK WND 19035/1655 SLP118 60007 T02060122 10206 20156 53017,M
DRA,2023-08-21 17:53,-116.0278,36.6206,1009.00,67.00,63.00,86.98,230.00,16.00,T,30.09,1015.30,10.00,21.00,BKN,OVC,M,M,3000.00,3800.00,M,M,M,M,M,M,26.00,230.00,2023-08-21 17:09,67.00,KDRA 211753Z AUTO 23016G21KT 10SM BKN030 OVC038 19/17 A3009 RMK AO2 PK WND 23026/1709 RAB26E35 SLP153 P0000 60024 T01940172 10194 20178 53018,M
ELY,2023-08-21 17:53,-114.8453,39.2950,1909.00,67.00,55.00,65.33,170.00,22.00,0.00,30.18,1012.70,10.00,37.00,FEW,SCT,BKN,M,3800.00,4600.00,7000.00,M,M,M,M,M,41.00,180.00,2023-08-21 17:00,67.00,KELY 211753Z AUTO 17022G37KT 10SM FEW038 SCT046 BKN070 19/13 A3018 RMK AO2 PK WND 18041/1700 SLP127 T01940128 10200 20161 51017,M
VGT,2023-08-21 17:53,-115.1933,36.2111,667.00,75.00,62.00,63.97,100.00,11.00,0.00,30.07,1018.20,10.00,M,SCT,BKN,OVC,M,4000.00,5500.00,7000.00,M,M,M,M,M,M,M,M,75.00,KVGT 211753Z 10011KT 10SM SCT040 BKN055 OVC070 24/17 A3007 RMK AO2 SLP182 60000 T02390167 10239 20222 51019,M
LOL,2023-08-21 17:53,-118.5701,40.0684,1192.43,64.00,60.00,86.83,200.00,13.00,T,30.00,1013.40,10.00,M,OVC,M,M,M,6500.00,M,M,M,M,M,M,M,M,M,M,64.00,KLOL 211753Z AUTO 20013KT 10SM OVC065 18/16 A3000 RMK AO2 RAB22E32 SLP134 P0000 60008 T01780156 10178 20156 51035,M
BVU,2023-08-21 17:55,-114.8611,35.9475,671.00,77.00,64.40,65.12,190.00,6.00,0.00,30.08,M,10.00,14.00,SCT,BKN,BKN,M,3600.00,4100.00,8000.00,M,M,M,M,M,M,M,M,77.00,KBVU 211755Z AUTO 19006G14KT 10SM SCT036 BKN041 BKN080 25/18 A3008 RMK AO2,M
CXP,2023-08-21 17:55,-119.7326,39.1923,1431.00,66.20,55.40,68.15,0.00,0.00,0.00,30.06,M,10.00,M,BKN,BKN,OVC,M,6000.00,7500.00,9000.00,M,M,M,M,M,M,M,M,66.20,KCXP 211755Z AUTO 00000KT 10SM BKN060 BKN075 OVC090 19/13 A3006 RMK AO2,M
INS,2023-08-21 17:55,-115.6733,36.5872,955.00,70.70,62.40,75.01,120.00,14.00,0.00,30.07,1014.50,10.00,20.00,SCT,OVC,M,M,2500.00,5000.00,M,M,M,M,M,M,31.00,90.00,2023-08-21 17:09,70.70,KINS 211755Z AUTO 12014G20KT 10SM SCT025 OVC050 22/17 A3007 RMK AO2 PK WND 09031/09 SLP145 60029 T02150169 10215 20187 52016 $,M
RNO,2023-08-21 17:55,-119.7711,39.4839,1341.00,66.00,55.00,67.64,0.00,0.00,T,30.03,1012.70,10.00,M,SCT,BKN,BKN,M,5500.00,9000.00,14000.00,M,M,M,M,M,M,M,M,66.00,KRNO 211755Z 00000KT 10SM SCT055 BKN090 BKN140 19/13 A3003 RMK AO2 RAB08E35 SLP127 P0000 60000 T01890128 10189 20156 53022,M
RTS,2023-08-21 17:55,-119.8764,39.6682,1539.00,60.80,51.80,72.20,250.00,9.00,0.00,30.07,M,10.00,M,SCT,BKN,OVC,M,3200.00,4300.00,5500.00,M,M,M,M,M,M,M,M,60.80,KRTS 211755Z AUTO 25009KT 10SM SCT032 BKN043 OVC055 16/11 A3007 RMK AO2,M
MEV,2023-08-21 17:55,-119.7500,38.9963,1441.42,64.40,57.20,77.45,0.00,0.00,0.00,30.05,M,10.00,M,BKN,BKN,OVC,M,5500.00,7000.00,10000.00,M,M,M,M,M,M,M,M,64.40,KMEV 211755Z AUTO 00000KT 10SM BKN055 BKN070 OVC100 18/14 A3005 RMK AO2,M
BAM,2023-08-21 17:55,-116.8743,40.5990,1382.36,71.60,60.80,68.75,210.00,18.00,0.00,30.02,M,10.00,24.00,SCT,BKN,OVC,M,4800.00,5000.00,8000.00,M,M,M,M,M,M,M,M,71.60,KBAM 211755Z AUTO 21018G24KT 10SM SCT048 BKN050 OVC080 22/16 A3002 RMK AO1,M
HTH,2023-08-21 17:55,-118.6315,38.5448,1282.89,69.80,55.40,60.21,M,4.00,0.00,30.03,M,10.00,M,CLR,M,M,M,M,M,M,M,M,M,M,M,M,M,M,69.80,KHTH 211755Z AUTO VRB04KT 10SM CLR 21/13 A3003 RMK A01,M
LSV,2023-08-21 17:55,-115.0343,36.2362,570.00,76.00,62.00,61.87,120.00,4.00,0.00,30.05,1015.70,10.00,M,FEW,SCT,M,M,3900.00,8000.00,M,M,M,M,M,M,M,M,M,76.00,KLSV 211755Z AUTO 12004KT 10SM FEW039 SCT080 25/17 A3005 RMK AO2 SLP157 T02450167 10245 20220 50017 $,M
TMT,2023-08-21 17:55,-117.1971,39.4643,1749.34,63.00,58.00,83.72,230.00,7.00,0.00,30.11,M,M,M,SCT,SCT,OVC,M,2500.00,3500.00,6000.00,M,M,M,M,M,M,M,M,63.00,KTMT 211755Z AUTO 23007KT SCT025 SCT035 OVC060 17/14 A3011 RMK AO2 60009 T01730144 10173 20140 PWINO,M
EKO,2023-08-21 17:56,-115.7860,40.8242,1367.00,73.00,57.00,57.23,180.00,22.00,0.00,30.03,1011.80,10.00,33.00,FEW,SCT,BKN,M,6000.00,8000.00,9000.00,M,M,M,M,M,34.00,170.00,2023-08-21 17:20,73.00,KEKO 211756Z AUTO 18022G33KT 10SM FEW060 SCT080 BKN090 23/14 A3003 RMK AO2 PK WND 17034/1720 SLP118 T02280139 10239 20183 53019,M
WMC,2023-08-21 17:56,-117.8072,40.9019,1315.00,65.00,58.00,78.06,M,M,0.00,29.98,1011.50,10.00,M,FEW,OVC,M,M,2300.00,3800.00,M,M,M,M,M,M,M,M,M,65.00,KWMC 211756Z AUTO 10SM FEW023 OVC038 18/14 A2998 RMK AO2 SLP115 60017 T01830144 10183 20161 51025,M
NFL,2023-08-21 17:56,-118.7010,39.4166,1199.00,66.00,59.00,78.14,160.00,7.00,T,30.02,1013.50,10.00,M,FEW,SCT,BKN,OVC,1500.00,3000.00,7000.00,12000.00,M,M,M,M,M,M,M,66.00,KNFL 211756Z COR 16007KT 10SM FEW015 SCT030 BKN070 OVC120 19/15 A3002 RMK AO2 RAB1657E51 SLP135 P0000 60002 T01890150 10194 20161 51025,M
HND,2023-08-21 17:56,-115.1344,35.9729,742.79,M,M,M,M,M,0.00,M,M,M,M,M,M,M,M,M,M,M,M,M,M,M,M,M,M,M,M,KHND 211756Z AUTO RMK AO2 SLPNO 6//// PWINO FZRANO $,M
LAS,2023-08-21 17:56,-115.1634,36.0719,663.00,79.00,61.00,54.08,180.00,7.00,0.00,30.08,1016.40,10.00,18.00,FEW,SCT,SCT,M,4500.00,7000.00,15000.00,M,M,M,M,M,M,M,M,79.00,KLAS 211756Z 18007G18KT 130V210 10SM FEW045 SCT070 SCT150 26/16 A3008 RMK AO2 SLP164 T02610161 10261 20217 51021,M
BVU,2023-08-21 18:15,-114.8611,35.9475,671.00,77.00,62.60,61.13,190.00,8.00,0.00,30.07,M,10.00,M,FEW,M,M,M,8000.00,M,M,M,M,M,M,M,M,M,M,77.00,KBVU 211815Z AUTO 19008KT 10SM FEW080 25/17 A3007 RMK AO2,M
CXP,2023-08-21 18:15,-119.7326,39.1923,1431.00,66.20,53.60,63.82,M,5.00,0.00,30.07,M,10.00,12.00,OVC,M,M,M,6000.00,M,M,M,M,M,M,M,M,M,M,66.20,KCXP 211815Z AUTO VRB05G12KT 10SM OVC060 19/12 A3007 RMK AO2,M
RTS,2023-08-21 18:15,-119.8764,39.6682,1539.00,62.60,51.80,67.75,240.00,14.00,0.00,30.08,M,10.00,M,SCT,BKN,OVC,M,3300.00,4300.00,4800.00,M,M,M,M,M,M,M,M,62.60,KRTS 211815Z AUTO 24014KT 10SM SCT033 BKN043 OVC048 17/11 A3008 RMK AO2,M
05U,2023-08-21 18:15,-116.0051,39.6042,1811.23,69.80,55.40,60.21,M,M,0.00,30.13,M,10.00,M,M,M,M,M,M,M,M,M,M,M,M,M,M,M,M,69.80,K05U 211815Z AUTO 10SM 21/13 A3013 RMK A01,M
MEV,2023-08-21 18:15,-119.7500,38.9963,1441.42,66.20,53.60,63.82,40.00,4.00,0.00,30.05,M,10.00,M,BKN,OVC,M,M,5500.00,6500.00,M,M,M,M,M,M,M,M,M,66.20,KMEV 211815Z AUTO 04004KT 10SM BKN055 OVC065 19/12 A3005 RMK AO2,M
BAM,2023-08-21 18:15,-116.8743,40.5990,1382.36,69.80,59.00,68.55,210.00,18.00,0.00,30.02,M,10.00,24.00,OVC,M,M,M,6000.00,M,M,M,M,M,M,M,M,M,M,69.80,KBAM 211815Z AUTO 21018G24KT 10SM OVC060 21/15 A3002 RMK AO1,M
HTH,2023-08-21 18:15,-118.6315,38.5448,1282.89,69.80,55.40,60.21,0.00,0.00,0.00,30.03,M,10.00,M,CLR,M,M,M,M,M,M,M,M,M,M,M,M,M,M,69.80,KHTH 211815Z AUTO 00000KT 10SM CLR 21/13 A3003 RMK A01,M
TMT,2023-08-21 18:15,-117.1971,39.4643,1749.34,64.20,55.00,72.02,220.00,6.00,0.00,30.11,M,M,M,SCT,BKN,OVC,M,3700.00,4600.00,6000.00,M,M,M,M,M,M,M,M,64.20,KTMT 211815Z AUTO 22006KT SCT037 BKN046 OVC060 18/13 A3011 RMK AO2 T01790127 PWINO,M
BVU,2023-08-21 18:35,-114.8611,35.9475,671.00,77.00,62.60,61.13,M,5.00,0.00,30.07,M,10.00,11.00,SCT,BKN,M,M,3600.00,4400.00,M,M,M,M,M,M,M,M,M,77.00,KBVU 211835Z AUTO VRB05G11KT 10SM SCT036 BKN044 25/17 A3007 RMK AO2,M
CXP,2023-08-21 18:35,-119.7326,39.1923,1431.00,68.00,51.80,56.13,M,6.00,0.00,30.07,M,10.00,M,OVC,M,M,M,6000.00,M,M,M,M,M,M,M,M,M,M,68.00,KCXP 211835Z AUTO VRB06KT 10SM OVC060 20/11 A3007 RMK AO2,M
RTS,2023-08-21 18:35,-119.8764,39.6682,1539.00,62.60,51.80,67.75,260.00,14.00,0.00,30.09,M,10.00,M,SCT,OVC,M,M,4400.00,6000.00,M,M,-DZ,M,M,M,M,M,M,62.60,KRTS 211835Z AUTO 26014KT 10SM -DZ SCT044 OVC060 17/11 A3009 RMK AO2,M
05U,2023-08-21 18:35,-116.0051,39.6042,1811.23,69.80,53.60,56.38,M,M,0.00,30.13,M,10.00,M,M,M,M,M,M,M,M,M,M,M,M,M,M,M,M,69.80,K05U 211835Z AUTO 10SM 21/12 A3013 RMK A01,M
MEV,2023-08-21 18:35,-119.7500,38.9963,1441.42,66.20,51.80,59.74,10.00,4.00,0.00,30.06,M,10.00,M,BKN,OVC,M,M,5000.00,6000.00,M,M,M,M,M,M,M,M,M,66.20,KMEV 211835Z AUTO 01004KT 10SM BKN050 OVC060 19/11 A3006 RMK AO2,M
BAM,2023-08-21 18:35,-116.8743,40.5990,1382.36,69.80,59.00,68.55,230.00,18.00,0.00,30.03,M,10.00,25.00,BKN,OVC,M,M,6000.00,7500.00,M,M,M,M,M,M,M,M,M,69.80,KBAM 211835Z AUTO 23018G25KT 10SM BKN060 OVC075 21/15 A3003 RMK AO1,M
HTH,2023-08-21 18:35,-118.6315,38.5448,1282.89,71.60,55.40,56.63,M,4.00,0.00,30.03,M,10.00,M,CLR,M,M,M,M,M,M,M,M,M,M,M,M,M,M,71.60,KHTH 211835Z AUTO VRB04KT 10SM CLR 22/13 A3003 RMK A01,M
TMT,2023-08-21 18:35,-117.1971,39.4643,1749.34,65.70,55.00,68.35,200.00,11.00,0.00,30.12,M,M,M,SCT,SCT,OVC,M,3900.00,4800.00,6000.00,M,M,M,M,M,M,M,M,65.70,KTMT 211835Z AUTO 20011KT SCT039 SCT048 OVC060 19/13 A3012 RMK AO2 T01870128 PWINO,M
05U,2023-08-21 18:50,-116.0051,39.6042,1811.23,69.80,53.60,56.38,M,M,0.00,30.14,M,10.00,M,M,M,M,M,M,M,M,M,M,M,M,M,M,M,M,69.80,K05U 211850Z AUTO 10SM 21/12 A3014 RMK A01,M
P68,2023-08-21 18:53,-116.0056,39.6014,1993.00,69.00,54.00,58.80,170.00,22.00,0.00,30.11,1012.30,M,30.00,M,M,M,M,M,M,M,M,M,M,M,M,30.00,170.00,2023-08-21 18:52,69.00,KP68 211853Z AUTO 17022G30KT 21/12 A3011 RMK AO1 PK WND 17030/1852 SLP123 T02060122,M
DRA,2023-08-21 18:53,-116.0278,36.6206,1009.00,69.00,63.00,81.19,220.00,16.00,0.00,30.09,1015.20,10.00,23.00,FEW,BKN,OVC,M,2900.00,3400.00,7500.00,M,M,M,M,M,27.00,220.00,2023-08-21 18:32,69.00,KDRA 211853Z AUTO 22016G23KT 10SM FEW029 BKN034 OVC075 21/17 A3009 RMK AO2 PK WND 22027/1832 SLP152 T02060172,M
ELY,2023-08-21 18:53,-114.8453,39.2950,1909.00,62.00,56.00,80.68,170.00,23.00,T,30.19,1013.80,6.00,37.00,FEW,BKN,OVC,M,3200.00,6000.00,7500.00,M,-RA,M,M,M,38.00,170.00,2023-08-21 18:43,62.00,KELY 211853Z AUTO 17023G37KT 6SM -RA FEW032 BKN060 OVC075 17/13 A3019 RMK AO2 PK WND 17038/1843 RAB28 SLP138 P0000 T01670133,M
VGT,2023-08-21 18:53,-115.1933,36.2111,667.00,78.00,63.00,59.98,90.00,12.00,0.00,30.06,1017.50,10.00,M,FEW,SCT,M,M,7000.00,8000.00,M,M,M,M,M,M,M,M,M,78.00,KVGT 211853Z 09012KT 10SM FEW070 SCT080 26/17 A3006 RMK AO2 SLP175 T02560172,M
LOL,2023-08-21 18:53,-118.5701,40.0684,1192.43,67.00,61.00,81.05,200.00,9.00,T,30.02,1013.50,10.00,M,SCT,OVC,M,M,6500.00,9000.00,M,M,M,M,M,M,M,M,M,67.00,KLOL 211853Z AUTO 20009KT 10SM SCT065 OVC090 19/16 A3002 RMK AO2 RAB10E31 SLP135 P0000 T01940161,M
BVU,2023-08-21 18:55,-114.8611,35.9475,671.00,78.80,62.60,57.60,170.00,11.00,0.00,30.06,M,10.00,M,BKN,OVC,M,M,3700.00,4300.00,M,M,M,M,M,M,M,M,M,78.80,KBVU 211855Z AUTO 17011KT 10SM BKN037 OVC043 26/17 A3006 RMK AO2,M
CXP,2023-08-21 18:55,-119.7326,39.1923,1431.00,68.00,50.00,52.51,230.00,7.00,0.00,30.07,M,10.00,13.00,FEW,BKN,OVC,M,5500.00,6500.00,7500.00,M,M,M,M,M,M,M,M,68.00,KCXP 211855Z AUTO 23007G13KT 200V260 10SM FEW055 BKN065 OVC075 20/10 A3007 RMK AO2,M
INS,2023-08-21 18:55,-115.6733,36.5872,955.00,74.00,61.00,63.85,110.00,13.00,0.00,30.07,1014.30,10.00,M,CLR,M,M,M,M,M,M,M,M,M,M,M,28.00,90.00,2023-08-21 18:01,74.00,KINS 211855Z AUTO 11013KT 10SM CLR 23/16 A3007 RMK AO2 PK WND 09028/01 SLP143 T02340162 $,M
RNO,2023-08-21 18:55,-119.7711,39.4839,1341.00,69.00,55.00,60.99,60.00,5.00,0.00,30.04,1012.90,10.00,M,FEW,BKN,BKN,M,4000.00,6500.00,12000.00,M,M,M,M,M,M,M,M,69.00,KRNO 211855Z 06005KT 10SM FEW040 BKN065 BKN120 21/13 A3004 RMK AO2 SLP129 T02060128,M
RTS,2023-08-21 18:55,-119.8764,39.6682,1539.00,62.60,50.00,63.38,240.00,14.00,0.00,30.09,M,10.00,M,FEW,BKN,OVC,M,4900.00,6000.00,7500.00,M,M,M,M,M,M,M,M,62.60,KRTS 211855Z AUTO 24014KT 10SM FEW049 BKN060 OVC075 17/10 A3009 RMK AO2,M
MEV,2023-08-21 18:55,-119.7500,38.9963,1441.42,66.20,53.60,63.82,250.00,6.00,0.00,30.07,M,10.00,M,OVC,M,M,M,5000.00,M,M,M,M,M,M,M,M,M,M,66.20,KMEV 211855Z AUTO 25006KT 10SM OVC050 19/12 A3007 RMK AO2,M
BAM,2023-08-21 18:55,-116.8743,40.5990,1382.36,69.80,60.80,73.09,240.00,13.00,0.00,30.04,M,10.00,19.00,BKN,BKN,OVC,M,2600.00,3700.00,7500.00,M,M,M,M,M,M,M,M,69.80,KBAM 211855Z AUTO 24013G19KT 10SM BKN026 BKN037 OVC075 21/16 A3004 RMK AO1,M
HTH,2023-08-21 18:55,-118.6315,38.5448,1282.89,73.40,53.60,49.90,0.00,0.00,0.00,30.03,M,10.00,M,CLR,M,M,M,M,M,M,M,M,M,M,M,M,M,M,73.40,KHTH 211855Z AUTO 00000KT 10SM CLR 23/12 A3003 RMK A01,M
LSV,2023-08-21 18:55,-115.0343,36.2362,570.00,83.70,63.50,50.68,0.00,0.00,0.00,30.04,1015.10,10.00,M,FEW,M,M,M,4000.00,M,M,M,M,M,M,M,M,M,M,84.89,KLSV 211855Z AUTO 00000KT 10SM FEW040 29/18 A3004 RMK AO2 SLP151 T02870175 $,M
TMT,2023-08-21 18:55,-117.1971,39.4643,1749.34,67.60,55.00,63.99,220.00,11.00,0.00,30.12,M,M,18.00,SCT,BKN,OVC,M,3900.00,4800.00,6000.00,M,M,M,M,M,M,M,M,67.60,KTMT 211855Z AUTO 22011G18KT SCT039 BKN048 OVC060 20/13 A3012 RMK AO2 T01980128 PWINO,M
EKO,2023-08-21 18:56,-115.7860,40.8242,1367.00,75.00,58.00,55.48,170.00,21.00,0.00,30.03,1011.40,10.00,39.00,SCT,M,M,M,9000.00,M,M,M,M,M,M,M,39.00,170.00,2023-08-21 18:53,75.00,KEKO 211856Z AUTO 17021G39KT 10SM SCT090 24/14 A3003 RMK AO2 PK WND 17039/1853 SLP114 T02390144,M
WMC,2023-08-21 18:56,-117.8072,40.9019,1315.00,M,M,M,M,M,0.00,30.00,M,M,M,M,M,M,M,M,M,M,M,M,M,M,M,M,M,M,M,KWMC 211856Z AUTO A3000 RMK AO2 SLPNO PWINO FZRANO $,M
NFL,2023-08-21 18:56,-118.7010,39.4166,1199.00,70.00,59.00,68.09,200.00,4.00,0.00,30.03,1013.80,10.00,M,SCT,BKN,BKN,BKN,3000.00,8000.00,15000.00,20000.00,M,M,M,M,M,M,M,70.00,KNFL 211856Z 20004KT 10SM SCT030 BKN080 BKN150 BKN200 21/15 A3003 RMK AO2 SLP138 T02110150,M
HND,2023-08-21 18:56,-115.1344,35.9729,742.79,80.00,62.00,54.22,160.00,12.00,0.00,30.09,M,10.00,M,CLR,M,M,M,M,M,M,M,M,M,M,M,M,M,M,81.21,KHND 211856Z AUTO 16012KT 10SM CLR 27/17 A3009 RMK AO2 SLPNO T02670167,M
LAS,2023-08-21 18:56,-115.1634,36.0719,663.00,81.00,61.00,50.65,130.00,8.00,0.00,30.06,1015.90,10.00,17.00,SCT,SCT,M,M,7000.00,15000.00,M,M,M,M,M,M,M,M,M,81.81,KLAS 211856Z 13008G17KT 10SM SCT070 SCT150 27/16 A3006 RMK AO2 SLP159 T02720161,M
LAS,2023-08-21 19:05,-115.1634,36.0719,663.00,81.00,61.00,50.65,170.00,9.00,0.00,30.06,M,10.00,M,CLR,M,M,M,M,M,M,M,M,M,M,M,M,M,M,81.81,KLAS 211905Z 17009KT 10SM CLR 27/16 A3006 RMK AO2 T02720161,M
BVU,2023-08-21 19:15,-114.8611,35.9475,671.00,80.60,62.60,54.30,160.00,9.00,0.00,30.07,M,10.00,M,BKN,BKN,BKN,M,3700.00,4200.00,7000.00,M,M,M,M,M,M,M,M,81.84,KBVU 211915Z AUTO 16009KT 10SM BKN037 BKN042 BKN070 27/17 A3007 RMK AO2,M
CXP,2023-08-21 19:15,-119.7326,39.1923,1431.00,68.00,50.00,52.51,210.00,9.00,0.00,30.08,M,10.00,19.00,FEW,BKN,OVC,M,6000.00,7000.00,7500.00,M,M,M,M,M,M,M,M,68.00,KCXP 211915Z AUTO 21009G19KT 10SM FEW060 BKN070 OVC075 20/10 A3008 RMK AO2,M
RTS,2023-08-21 19:15,-119.8764,39.6682,1539.00,66.20,50.00,55.88,250.00,15.00,0.00,30.09,M,10.00,21.00,SCT,BKN,OVC,M,6000.00,7500.00,9000.00,M,M,M,M,M,M,M,M,66.20,KRTS 211915Z AUTO 25015G21KT 10SM SCT060 BKN075 OVC090 19/10 A3009 RMK AO2,M
05U,2023-08-21 19:15,-116.0051,39.6042,1811.23,64.40,59.00,82.62,M,M,0.00,30.16,M,4.00,M,M,M,M,M,M,M,M,M,HZ,M,M,M,M,M,M,64.40,K05U 211915Z AUTO 4SM HZ 18/15 A3016 RMK A01,M
MEV,2023-08-21 19:15,-119.7500,38.9963,1441.42,66.20,51.80,59.74,260.00,11.00,0.00,30.07,M,10.00,M,OVC,M,M,M,5000.00,M,M,M,M,M,M,M,M,M,M,66.20,KMEV 211915Z AUTO 26011KT 10SM OVC050 19/11 A3007 RMK AO2,M
BAM,2023-08-21 19:15,-116.8743,40.5990,1382.36,69.80,59.00,68.55,250.00,14.00,0.00,30.04,M,10.00,17.00,OVC,M,M,M,2800.00,M,M,M,M,M,M,M,M,M,M,69.80,KBAM 211915Z AUTO 25014G17KT 10SM OVC028 21/15 A3004 RMK AO1,M
HTH,2023-08-21 19:15,-118.6315,38.5448,1282.89,75.20,53.60,46.98,0.00,0.00,0.00,30.03,M,10.00,M,CLR,M,M,M,M,M,M,M,M,M,M,M,M,M,M,75.20,KHTH 211915Z AUTO 00000KT 10SM CLR 24/12 A3003 RMK A01,M
TMT,2023-08-21 19:15,-117.1971,39.4643,1749.34,67.50,53.60,61.02,220.00,14.00,0.00,30.12,M,M,17.00,SCT,BKN,BKN,M,3900.00,4800.00,6500.00,M,M,M,M,M,M,M,M,67.50,KTMT 211915Z AUTO 22014G17KT SCT039 BKN048 BKN065 20/12 A3012 RMK AO2 T01970120 PWINO,M
05U,2023-08-21 19:30,-116.0051,39.6042,1811.23,64.40,59.00,82.62,M,M,0.00,30.17,M,8.00,M,M,M,M,M,M,M,M,M,M,M,M,M,M,M,M,64.40,K05U 211930Z AUTO 8SM 18/15 A3017 RMK A01,M
BVU,2023-08-21 19:35,-114.8611,35.9475,671.00,80.60,62.60,54.30,290.00,8.00,0.00,30.06,M,10.00,M,SCT,SCT,M,M,3800.00,7000.00,M,M,M,M,M,M,M,M,M,81.84,KBVU 211935Z AUTO 29008KT 10SM SCT038 SCT070 27/17 A3006 RMK AO2,M
CXP,2023-08-21 19:35,-119.7326,39.1923,1431.00,68.00,50.00,52.51,210.00,7.00,0.00,30.09,M,10.00,14.00,FEW,BKN,OVC,M,6000.00,7000.00,8000.00,M,M,M,M,M,M,M,M,68.00,KCXP 211935Z AUTO 21007G14KT 170V240 10SM FEW060 BKN070 OVC080 20/10 A3009 RMK AO2,M
RTS,2023-08-21 19:35,-119.8764,39.6682,1539.00,66.20,50.00,55.88,240.00,14.00,0.00,30.10,M,10.00,20.00,FEW,BKN,OVC,M,4000.00,5500.00,9000.00,M,M,M,M,M,M,M,M,66.20,KRTS 211935Z AUTO 24014G20KT 10SM FEW040 BKN055 OVC090 19/10 A3010 RMK AO2,M
MEV,2023-08-21 19:35,-119.7500,38.9963,1441.42,66.20,51.80,59.74,250.00,9.00,0.00,30.08,M,10.00,M,BKN,OVC,M,M,5500.00,6500.00,M,M,M,M,M,M,M,M,M,66.20,KMEV 211935Z AUTO 25009KT 10SM BKN055 OVC065 19/11 A3008 RMK AO2,M
BAM,2023-08-21 19:35,-116.8743,40.5990,1382.36,69.80,59.00,68.55,240.00,15.00,0.00,30.06,M,10.00,22.00,BKN,OVC,M,M,2800.00,3500.00,M,M,M,M,M,M,M,M,M,69.80,KBAM 211935Z AUTO 24015G22KT 10SM BKN028 OVC035 21/15 A3006 RMK AO1,M
HTH,2023-08-21 19:35,-118.6315,38.5448,1282.89,75.20,53.60,46.98,0.00,0.00,0.00,30.03,M,10.00,M,CLR,M,M,M,M,M,M,M,M,M,M,M,M,M,M,75.20,KHTH 211935Z AUTO 00000KT 10SM CLR 24/12 A3003 RMK A01,M
TMT,2023-08-21 19:35,-117.1971,39.4643,1749.34,67.60,54.00,61.70,220.00,10.00,0.00,30.12,M,M,M,SCT,BKN,OVC,M,3900.00,6500.00,8000.00,M,M,M,M,M,M,M,M,67.60,KTMT 211935Z AUTO 22010KT SCT039 BKN065 OVC080 20/12 A3012 RMK AO2 T01980123 PWINO,M
P68,2023-08-21 19:53,-116.0056,39.6014,1993.00,66.00,57.00,72.72,180.00,16.00,0.00,30.15,1013.60,M,M,M,M,M,M,M,M,M,M,M,M,M,M,29.00,170.00,2023-08-21 19:02,66.00,KP68 211953Z AUTO 18016KT 19/14 A3015 RMK AO1 PK WND 17029/1902 SLP136 T01890139,M
DRA,2023-08-21 19:53,-116.0278,36.6206,1009.00,73.00,63.00,70.87,230.00,19.00,0.00,30.09,1014.90,10.00,27.00,CLR,M,M,M,M,M,M,M,M,M,M,M,28.00,240.00,2023-08-21 19:39,73.00,KDRA 211953Z AUTO 23019G27KT 10SM CLR 23/17 A3009 RMK AO2 PK WND 24028/1939 SLP149 T02280172,M
ELY,2023-08-21 19:53,-114.8453,39.2950,1909.00,64.00,53.00,67.41,170.00,24.00,T,30.20,1013.90,10.00,37.00,SCT,OVC,M,M,4700.00,6000.00,M,M,M,M,M,M,41.00,180.00,2023-08-21 19:31,64.00,KELY 211953Z AUTO 17024G37KT 10SM SCT047 OVC060 18/12 A3020 RMK AO2 PK WND 18041/1931 RAE07 SLP139 P0000 T01780117,M
LOL,2023-08-21 19:53,-118.5701,40.0684,1192.43,70.00,60.00,70.56,200.00,9.00,0.00,30.02,1013.70,10.00,M,SCT,OVC,M,M,7000.00,9500.00,M,M,M,M,M,M,M,M,M,70.00,KLOL 211953Z AUTO 20009KT 10SM SCT070 OVC095 21/16 A3002 RMK AO2 SLP137 T02110156,M
BVU,2023-08-21 19:55,-114.8611,35.9475,671.00,80.60,60.80,50.95,M,4.00,0.00,30.06,M,10.00,M,FEW,SCT,M,M,4100.00,6500.00,M,M,M,M,M,M,M,M,M,81.46,KBVU 211955Z AUTO VRB04KT 10SM FEW041 SCT065 27/16 A3006 RMK AO2,M
CXP,2023-08-21 19:55,-119.7326,39.1923,1431.00,66.20,50.00,55.88,M,6.00,0.00,30.10,M,10.00,16.00,BKN,OVC,M,M,6000.00,7500.00,M,M,M,M,M,M,M,M,M,66.20,KCXP 211955Z AUTO VRB06G16KT 190V250 10SM BKN060 OVC075 19/10 A3010 RMK AO2,M
INS,2023-08-21 19:55,-115.6733,36.5872,955.00,75.60,60.30,59.04,120.00,17.00,0.00,30.06,1014.00,10.00,M,SCT,BKN,M,M,6000.00,8000.00,M,M,M,M,M,M,27.00,90.00,2023-08-21 19:12,75.60,KINS 211955Z AUTO 12017KT 10SM SCT060 BKN080 24/16 A3006 RMK AO2 PK WND 09027/12 SLP140 T02420157 $,M
RNO,2023-08-21 19:55,-119.7711,39.4839,1341.00,71.00,53.00,52.95,M,3.00,0.00,30.05,1013.20,10.00,M,FEW,BKN,BKN,M,5500.00,8000.00,12000.00,M,M,M,M,M,M,M,M,71.00,KRNO 211955Z VRB03KT 10SM FEW055 BKN080 BKN120 22/12 A3005 RMK AO2 SLP132 T02170117,M
RTS,2023-08-21 19:55,-119.8764,39.6682,1539.00,64.40,50.00,59.50,240.00,10.00,0.00,30.10,M,10.00,M,FEW,SCT,BKN,M,4000.00,6000.00,7000.00,M,M,M,M,M,M,M,M,64.40,KRTS 211955Z AUTO 24010KT 10SM FEW040 SCT060 BKN070 18/10 A3010 RMK AO2,M
05U,2023-08-21 19:55,-116.0051,39.6042,1811.23,68.00,57.20,68.35,M,M,0.01,30.18,M,10.00,M,M,M,M,M,M,M,M,M,M,M,M,M,M,M,M,68.00,K05U 211955Z AUTO 10SM 20/14 A3018 RMK A01 P0001,M
MEV,2023-08-21 19:55,-119.7500,38.9963,1441.42,66.20,51.80,59.74,280.00,7.00,0.00,30.09,M,10.00,M,FEW,SCT,OVC,M,4900.00,6000.00,7000.00,M,M,M,M,M,M,M,M,66.20,KMEV 211955Z AUTO 28007KT 10SM FEW049 SCT060 OVC070 19/11 A3009 RMK AO2,M
HTH,2023-08-21 19:55,-118.6315,38.5448,1282.89,75.20,53.60,46.98,M,6.00,0.00,30.03,M,10.00,M,BKN,BKN,M,M,5000.00,6500.00,M,M,M,M,M,M,M,M,M,75.20,KHTH 211955Z AUTO VRB06KT 10SM BKN050 BKN065 24/12 A3003 RMK A01,M
LSV,2023-08-21 19:55,-115.0343,36.2362,570.00,84.20,63.00,49.00,330.00,3.00,0.00,30.02,1014.40,10.00,M,FEW,SCT,M,M,4800.00,18000.00,M,M,M,M,M,M,M,M,M,85.17,KLSV 211955Z AUTO 33003KT 10SM FEW048 SCT180 29/17 A3002 RMK AO2 SLP144 T02900172 $,M
BAM,2023-08-21 19:55,-116.8743,40.5990,1382.36,71.60,60.80,68.75,250.00,12.00,0.00,30.06,M,10.00,M,SCT,SCT,BKN,M,3000.00,3700.00,4500.00,M,M,M,M,M,M,M,M,71.60,KBAM 211955Z AUTO 25012KT 10SM SCT030 SCT037 BKN045 22/16 A3006 RMK AO1,M
TMT,2023-08-21 19:55,-117.1971,39.4643,1749.34,69.80,53.40,55.97,240.00,16.00,0.00,30.12,M,M,23.00,SCT,BKN,OVC,M,5000.00,6000.00,8000.00,M,M,M,M,M,M,M,M,69.80,KTMT 211955Z AUTO 24016G23KT SCT050 BKN060 OVC080 21/12 A3012 RMK AO2 T02100119 PWINO,M
EKO,2023-08-21 19:56,-115.7860,40.8242,1367.00,74.00,57.00,55.34,190.00,20.00,0.00,30.05,1012.10,10.00,32.00,SCT,M,M,M,8500.00,M,M,M,M,M,M,M,39.00,160.00,2023-08-21 19:07,74.00,KEKO 211956Z AUTO 19020G32KT 10SM SCT085 23/14 A3005 RMK AO2 PK WND 16039/1907 SLP121 T02330139,M
WMC,2023-08-21 19:56,-117.8072,40.9019,1315.00,M,M,M,M,M,0.00,30.03,M,M,M,M,M,M,M,M,M,M,M,M,M,M,M,M,M,M,M,KWMC 211956Z AUTO A3003 RMK AO2 SLPNO PWINO FZRANO $,M
NFL,2023-08-21 19:56,-118.7010,39.4166,1199.00,74.00,57.00,55.34,M,4.00,0.00,30.03,1013.80,10.00,M,SCT,SCT,BKN,BKN,3000.00,6000.00,11000.00,18000.00,M,M,M,M,M,M,M,74.00,KNFL 211956Z VRB04KT 10SM SCT030 SCT060 BKN110 BKN180 23/14 A3003 RMK AO2 SLP138 T02330139,M
HND,2023-08-21 19:56,-115.1344,35.9729,742.79,82.00,61.00,49.03,140.00,10.00,0.00,30.09,M,10.00,M,CLR,M,M,M,M,M,M,M,M,M,M,M,M,M,M,82.62,KHND 211956Z AUTO 14010KT 10SM CLR 28/16 A3009 RMK AO2 SLPNO T02780161,M
LAS,2023-08-21 19:56,-115.1634,36.0719,663.00,83.00,60.00,45.81,M,3.00,0.00,30.05,1015.50,10.00,M,FEW,SCT,SCT,M,7000.00,11000.00,15000.00,M,M,M,M,M,M,M,M,83.19,KLAS 211956Z VRB03KT 10SM FEW070 SCT110 SCT150 28/16 A3005 RMK AO2 SLP155 T02830156,M
05U,2023-08-21 20:10,-116.0051,39.6042,1811.23,68.00,55.40,64.04,M,M,0.00,30.18,M,10.00,M,M,M,M,M,M,M,M,M,M,M,M,M,M,M,M,68.00,K05U 212010Z AUTO 10SM 20/13 A3018 RMK A01,M
BVU,2023-08-21 20:15,-114.8611,35.9475,671.00,82.40,60.80,48.05,180.00,10.00,0.00,30.05,M,10.00,16.00,FEW,M,M,M,6500.00,M,M,M,M,M,M,M,M,M,M,82.90,KBVU 212015Z AUTO 18010G16KT 10SM FEW065 28/16 A3005 RMK AO2,M
CXP,2023-08-21 20:15,-119.7326,39.1923,1431.00,66.20,50.00,55.88,220.00,8.00,0.00,30.11,M,10.00,13.00,BKN,OVC,M,M,6000.00,7000.00,M,M,M,M,M,M,M,M,M,66.20,KCXP 212015Z AUTO 22008G13KT 10SM BKN060 OVC070 19/10 A3011 RMK AO2,M
RTS,2023-08-21 20:15,-119.8764,39.6682,1539.00,66.20,50.00,55.88,250.00,14.00,0.00,30.11,M,10.00,20.00,FEW,BKN,BKN,M,5000.00,8000.00,10000.00,M,M,M,M,M,M,M,M,66.20,KRTS 212015Z AUTO 25014G20KT 10SM FEW050 BKN080 BKN100 19/10 A3011 RMK AO2,M
MEV,2023-08-21 20:15,-119.7500,38.9963,1441.42,68.00,50.00,52.51,300.00,6.00,0.00,30.09,M,10.00,M,SCT,OVC,M,M,7500.00,9000.00,M,M,M,M,M,M,M,M,M,68.00,KMEV 212015Z AUTO 30006KT 10SM SCT075 OVC090 20/10 A3009 RMK AO2,M
BAM,2023-08-21 20:15,-116.8743,40.5990,1382.36,73.40,59.00,60.67,250.00,10.00,0.00,30.07,M,10.00,16.00,SCT,SCT,SCT,M,4200.00,4900.00,6000.00,M,M,M,M,M,M,M,M,73.40,KBAM 212015Z AUTO 25010G16KT 10SM SCT042 SCT049 SCT060 23/15 A3007 RMK AO1,M
HTH,2023-08-21 20:15,-118.6315,38.5448,1282.89,77.00,53.60,44.25,290.00,9.00,0.00,30.03,M,10.00,15.00,BKN,BKN,BKN,M,5500.00,7000.00,8000.00,M,M,M,M,M,M,M,M,77.00,KHTH 212015Z AUTO 29009G15KT 10SM BKN055 BKN070 BKN080 25/12 A3003 RMK A01,M
10U,2023-08-21 20:15,-116.1876,41.9532,1637.00,73.40,55.40,53.29,190.00,20.00,0.00,30.04,M,10.00,32.00,FEW,BKN,OVC,M,4100.00,7000.00,8000.00,M,M,M,M,M,M,M,M,73.40,K10U 212015Z AUTO 19020G32KT 10SM FEW041 BKN070 OVC080 23/13 A3004 RMK AO2,M
TMT,2023-08-21 20:15,-117.1971,39.4643,1749.34,71.00,55.60,58.22,250.00,6.00,0.00,30.12,M,M,M,SCT,M,M,M,6000.00,M,M,M,M,M,M,M,M,M,M,71.00,KTMT 212015Z AUTO 25006KT SCT060 22/13 A3012 RMK AO2 T02160131 PWINO,M
LAS,2023-08-21 20:16,-115.1634,36.0719,663.00,84.00,59.00,42.80,130.00,10.00,0.00,30.05,M,10.00,16.00,FEW,SCT,SCT,M,7000.00,11000.00,15000.00,M,M,M,M,M,M,M,M,83.75,KLAS 212016Z 13010G16KT 100V200 10SM FEW070 SCT110 SCT150 29/15 A3005 RMK AO2 T02890150,M
EKO,2023-08-21 20:18,-115.7860,40.8242,1367.00,70.00,59.00,68.09,260.00,16.00,0.00,30.05,M,10.00,33.00,FEW,SCT,BKN,M,3500.00,4300.00,5500.00,M,M,M,M,M,33.00,250.00,2023-08-21 20:09,70.00,KEKO 212018Z AUTO 26016G33KT 10SM FEW035 SCT043 BKN055 21/15 A3005 RMK AO2 PK WND 25033/2009 WSHFT 1958 T02110150,M
LAS,2023-08-21 20:23,-115.1634,36.0719,663.00,84.00,59.00,42.80,200.00,6.00,0.00,30.05,M,10.00,16.00,FEW,SCT,SCT,M,7000.00,11000.00,15000.00,M,M,M,M,M,M,M,M,83.75,KLAS 212023Z 20006G16KT 10SM FEW070 SCT110 SCT150 29/15 A3005 RMK AO2 T02890150,M
BVU,2023-08-21 20:35,-114.8611,35.9475,671.00,84.20,60.80,45.34,170.00,10.00,0.00,30.05,M,10.00,M,FEW,M,M,M,5500.00,M,M,M,M,M,M,M,M,M,M,84.43,KBVU 212035Z AUTO 17010KT 10SM FEW055 29/16 A3005 RMK AO2,M
CXP,2023-08-21 20:35,-119.7326,39.1923,1431.00,68.00,50.00,52.51,240.00,6.00,0.00,30.10,M,10.00,11.00,FEW,SCT,OVC,M,6000.00,7000.00,8000.00,M,M,M,M,M,M,M,M,68.00,KCXP 212035Z AUTO 24006G11KT 10SM FEW060 SCT070 OVC080 20/10 A3010 RMK AO2,M
RTS,2023-08-21 20:35,-119.8764,39.6682,1539.00,66.20,50.00,55.88,240.00,15.00,0.00,30.11,M,10.00,M,BKN,OVC,M,M,7000.00,8500.00,M,M,M,M,M,M,M,M,M,66.20,KRTS 212035Z AUTO 24015KT 10SM BKN070 OVC085 19/10 A3011 RMK AO2,M
05U,2023-08-21 20:35,-116.0051,39.6042,1811.23,69.80,55.40,60.21,M,M,0.00,30.18,M,10.00,M,M,M,M,M,M,M,M,M,M,M,M,M,M,M,M,69.80,K05U 212035Z AUTO 10SM 21/13 A3018 RMK A01,M
MEV,2023-08-21 20:35,-119.7500,38.9963,1441.42,69.80,51.80,52.77,M,3.00,0.00,30.08,M,10.00,M,BKN,M,M,M,9500.00,M,M,M,M,M,M,M,M,M,M,69.80,KMEV 212035Z AUTO VRB03KT 10SM BKN095 21/11 A3008 RMK AO2,M
HTH,2023-08-21 20:35,-118.6315,38.5448,1282.89,78.80,51.80,39.02,150.00,11.00,0.00,30.03,M,10.00,M,SCT,SCT,SCT,M,6000.00,8000.00,9500.00,M,M,M,M,M,M,M,M,78.80,KHTH 212035Z AUTO 15011KT 10SM SCT060 SCT080 SCT095 26/11 A3003 RMK A01,M
10U,2023-08-21 20:35,-116.1876,41.9532,1637.00,73.40,53.60,49.90,200.00,19.00,0.00,30.06,M,10.00,29.00,BKN,BKN,OVC,M,4200.00,5000.00,7500.00,M,M,M,M,M,M,M,M,73.40,K10U 212035Z AUTO 20019G29KT 10SM BKN042 BKN050 OVC075 23/12 A3006 RMK AO2,M
BAM,2023-08-21 20:35,-116.8743,40.5990,1382.36,75.20,59.00,57.12,230.00,10.00,0.00,30.07,M,10.00,16.00,SCT,SCT,SCT,M,3300.00,4000.00,5500.00,M,M,M,M,M,M,M,M,75.20,KBAM 212035Z AUTO 23010G16KT 10SM SCT033 SCT040 SCT055 24/15 A3007 RMK AO1,M
TMT,2023-08-21 20:35,-117.1971,39.4643,1749.34,70.70,54.00,55.48,190.00,7.00,0.00,30.13,M,M,M,CLR,M,M,M,M,M,M,M,M,M,M,M,M,M,M,70.70,KTMT 212035Z AUTO 19007KT CLR 22/12 A3013 RMK AO2 T02150122 PWINO,M
ELY,2023-08-21 20:39,-114.8453,39.2950,1909.00,59.00,55.00,86.56,190.00,21.00,T,30.23,M,1.75,34.00,FEW,BKN,OVC,M,2700.00,3500.00,4800.00,M,+RA BR,M,M,M,38.00,170.00,2023-08-21 19:59,59.00,KELY 212039Z AUTO 19021G34KT 1 3/4SM +RA BR FEW027 BKN035 OVC048 15/13 A3023 RMK AO2 PK WND 17038/1959 RAB14 P0000 T01500128,M
ELY,2023-08-21 20:48,-114.8453,39.2950,1909.00,57.20,55.40,93.69,200.00,19.00,0.05,30.23,M,1.25,34.00,BKN,OVC,M,M,3400.00,4600.00,M,M,+RA BR,M,M,M,38.00,170.00,2023-08-21 19:59,57.20,KELY 212048Z AUTO 20019G34KT 1 1/4SM +RA BR BKN034 OVC046 14/13 A3023 RMK AO2 PK WND 17038/1959 RAB14 P0005 $,M
05U,2023-08-21 20:50,-116.0051,39.6042,1811.23,69.80,55.40,60.21,M,M,0.00,30.18,M,10.00,M,M,M,M,M,M,M,M,M,M,M,M,M,M,M,M,69.80,K05U 212050Z AUTO 10SM 21/13 A3018 RMK A01,M
P68,2023-08-21 20:53,-116.0056,39.6014,1993.00,69.00,55.00,60.99,150.00,18.00,0.00,30.15,1012.90,M,23.00,M,M,M,M,M,M,M,M,M,M,M,M,29.00,180.00,2023-08-21 20:34,69.00,KP68 212053Z AUTO 15018G23KT 21/13 A3015 RMK AO1 PK WND 18029/2034 SLP129 T02060128 50016,M
DRA,2023-08-21 20:53,-116.0278,36.6206,1009.00,75.00,64.00,68.64,220.00,15.00,0.00,30.09,1014.70,10.00,24.00,CLR,M,M,M,M,M,M,M,M,M,M,M,29.00,230.00,2023-08-21 19:54,75.00,KDRA 212053Z AUTO 22015G24KT 10SM CLR 24/18 A3009 RMK AO2 PK WND 23029/1954 SLP147 T02390178 58001,M
ELY,2023-08-21 20:53,-114.8453,39.2950,1909.00,59.00,55.00,86.56,200.00,17.00,0.08,30.24,1015.70,1.50,30.00,BKN,OVC,M,M,3600.00,4400.00,M,M,RA BR,M,M,M,38.00,170.00,2023-08-21 19:59,59.00,KELY 212053Z AUTO 20017G30KT 1 1/2SM RA BR BKN036 OVC044 15/13 A3024 RMK AO2 PK WND 17038/1959 RAB14 SLP157 P0008 60008 T01500128 51014 $,M
LOL,2023-08-21 20:53,-118.5701,40.0684,1192.43,70.00,59.00,68.09,210.00,8.00,0.00,30.04,1014.10,10.00,M,FEW,OVC,M,M,4600.00,6500.00,M,M,M,M,M,M,M,M,M,70.00,KLOL 212053Z AUTO 21008KT 10SM FEW046 OVC065 21/15 A3004 RMK AO2 SLP141 60000 T02110150 51010,M
BVU,2023-08-21 20:55,-114.8611,35.9475,671.00,84.20,57.20,39.86,160.00,15.00,0.00,30.04,M,10.00,M,CLR,M,M,M,M,M,M,M,M,M,M,M,M,M,M,83.47,KBVU 212055Z AUTO 16015KT 10SM CLR 29/14 A3004 RMK AO2,M
CXP,2023-08-21 20:55,-119.7326,39.1923,1431.00,69.80,48.20,46.16,290.00,9.00,0.00,30.10,M,10.00,18.00,OVC,M,M,M,9500.00,M,M,M,M,M,M,M,M,M,M,69.80,KCXP 212055Z AUTO 29009G18KT 10SM OVC095 21/09 A3010 RMK AO2,M
INS,2023-08-21 20:55,-115.6733,36.5872,955.00,77.00,60.60,56.96,110.00,19.00,0.00,30.06,1014.00,10.00,24.00,FEW,FEW,SCT,M,5000.00,8000.00,10000.00,M,M,M,M,M,27.00,80.00,2023-08-21 20:45,77.00,KINS 212055Z AUTO 11019G24KT 10SM FEW050 FEW080 SCT100 25/16 A3006 RMK AO2 PK WND 08027/45 SLP140 T02500159 56003 $,M
RNO,2023-08-21 20:55,-119.7711,39.4839,1341.00,72.00,51.00,47.54,M,6.00,0.00,30.06,1013.60,10.00,M,FEW,BKN,BKN,M,4500.00,7500.00,15000.00,M,M,M,M,M,M,M,M,72.00,KRNO 212055Z VRB06KT 10SM FEW045 BKN075 BKN150 22/11 A3006 RMK AO2 SLP136 T02220106 53010,M
RTS,2023-08-21 20:55,-119.8764,39.6682,1539.00,64.40,48.20,55.63,220.00,17.00,0.00,30.12,M,10.00,M,OVC,M,M,M,7000.00,M,M,M,M,M,M,M,M,M,M,64.40,KRTS 212055Z AUTO 22017KT 10SM OVC070 18/09 A3012 RMK AO2,M
MEV,2023-08-21 20:55,-119.7500,38.9963,1441.42,71.60,50.00,46.43,320.00,5.00,0.00,30.08,M,10.00,16.00,SCT,M,M,M,10000.00,M,M,M,M,M,M,M,M,M,M,71.60,KMEV 212055Z AUTO 32005G16KT 10SM SCT100 22/10 A3008 RMK AO2,M
HTH,2023-08-21 20:55,-118.6315,38.5448,1282.89,80.60,50.00,34.41,170.00,12.00,0.00,30.03,M,10.00,M,FEW,FEW,M,M,6000.00,7500.00,M,M,M,M,M,M,M,M,M,79.88,KHTH 212055Z AUTO 17012KT 10SM FEW060 FEW075 27/10 A3003 RMK A01,M
LSV,2023-08-21 20:55,-115.0343,36.2362,570.00,86.70,61.50,42.90,140.00,7.00,0.00,30.00,1013.70,10.00,M,CLR,M,M,M,M,M,M,M,M,M,M,M,M,M,M,86.96,KLSV 212055Z AUTO 14007KT 10SM CLR 30/16 A3000 RMK AO2 SLP137 T03040164 57015 $,M
BAM,2023-08-21 20:55,-116.8743,40.5990,1382.36,73.40,59.00,60.67,220.00,10.00,0.00,30.08,M,10.00,M,SCT,BKN,BKN,M,3500.00,5000.00,9500.00,M,M,M,M,M,M,M,M,73.40,KBAM 212055Z AUTO 22010KT 10SM SCT035 BKN050 BKN095 23/15 A3008 RMK AO1,M
TMT,2023-08-21 20:55,-117.1971,39.4643,1749.34,71.00,53.40,53.73,210.00,11.00,0.00,30.13,M,M,M,CLR,M,M,M,M,M,M,M,M,M,M,M,M,M,M,71.00,KTMT 212055Z AUTO 21011KT CLR 22/12 A3013 RMK AO2 T02170119 PWINO,M
10U,2023-08-21 20:55,-116.1876,41.9532,1637.00,71.60,57.20,60.44,230.00,16.00,0.00,30.07,M,10.00,26.00,SCT,BKN,OVC,M,4000.00,4600.00,6500.00,M,M,M,M,M,M,M,M,71.60,K10U 212055Z AUTO 23016G26KT 10SM SCT040 BKN046 OVC065 22/14 A3007 RMK AO2,M
EKO,2023-08-21 20:56,-115.7860,40.8242,1367.00,63.00,61.00,93.18,0.00,0.00,0.03,30.09,1014.70,4.00,M,SCT,OVC,M,M,4700.00,6000.00,M,M,-RA BR,M,M,M,33.00,250.00,2023-08-21 20:09,63.00,KEKO 212056Z AUTO 00000KT 4SM -RA BR SCT047 OVC060 17/16 A3009 RMK AO2 PK WND 25033/2009 WSHFT 1958 RAB28 SLP147 P0003 60003 T01720161 53020,M
WMC,2023-08-21 20:56,-117.8072,40.9019,1315.00,M,M,M,M,M,0.00,30.04,M,M,M,M,M,M,M,M,M,M,M,M,M,M,M,M,M,M,M,KWMC 212056Z AUTO A3004 RMK AO2 SLPNO 51020 PWINO FZRANO $,M
NFL,2023-08-21 20:56,-118.7010,39.4166,1199.00,77.00,56.00,48.29,M,4.00,0.00,30.03,1013.70,10.00,M,SCT,SCT,BKN,BKN,4000.00,7000.00,11000.00,18000.00,M,M,M,M,M,M,M,77.00,KNFL 212056Z VRB04KT 10SM SCT040 SCT070 BKN110 BKN180 25/13 A3003 RMK AO2 SLP137 CB DSNT E AND SW T02500133 50002,M
HND,2023-08-21 20:56,-115.1344,35.9729,742.79,85.00,60.00,42.95,210.00,10.00,0.00,30.07,M,10.00,20.00,CLR,M,M,M,M,M,M,M,M,M,M,M,M,M,M,84.89,KHND 212056Z 21010G20KT 10SM CLR 29/16 A3007 RMK AO2 SLPNO 6//// T02940156,M
LAS,2023-08-21 20:56,-115.1634,36.0719,663.00,84.00,58.00,41.29,160.00,9.00,0.00,30.04,1015.00,10.00,M,FEW,SCT,SCT,M,7000.00,11000.00,20000.00,M,M,M,M,M,M,M,M,83.50,KLAS 212056Z 16009KT 10SM FEW070 SCT110 SCT200 29/14 A3004 RMK AO2 SLP150 T02890144 58012,M
ELY,2023-08-21 21:14,-114.8453,39.2950,1909.00,58.00,55.00,89.72,190.00,17.00,0.09,30.24,M,1.25,28.00,BKN,OVC,M,M,3800.00,4800.00,M,M,+RA BR,M,M,M,33.00,190.00,2023-08-21 20:59,58.00,KELY 212114Z AUTO 19017G28KT 1 1/4SM +RA BR BKN038 OVC048 14/13 A3024 RMK AO2 PK WND 19033/2059 P0009 T01440128,M
BVU,2023-08-21 21:15,-114.8611,35.9475,671.00,86.00,59.00,40.14,160.00,11.00,0.00,30.03,M,10.00,18.00,FEW,M,M,M,6000.00,M,M,M,M,M,M,M,M,M,M,85.47,KBVU 212115Z AUTO 16011G18KT 10SM FEW060 30/15 A3003 RMK AO2,M
CXP,2023-08-21 21:15,-119.7326,39.1923,1431.00,69.80,50.00,49.37,290.00,7.00,0.00,30.09,M,10.00,13.00,FEW,M,M,M,10000.00,M,M,M,M,M,M,M,M,M,M,69.80,KCXP 212115Z AUTO 29007G13KT 10SM FEW100 21/10 A3009 RMK AO2,M
RTS,2023-08-21 21:15,-119.8764,39.6682,1539.00,64.40,48.20,55.63,220.00,11.00,0.00,30.12,M,10.00,19.00,FEW,OVC,M,M,6000.00,7000.00,M,M,M,M,M,M,M,M,M,64.40,KRTS 212115Z AUTO 22011G19KT 10SM FEW060 OVC070 18/09 A3012 RMK AO2,M
05U,2023-08-21 21:15,-116.0051,39.6042,1811.23,69.80,55.40,60.21,M,M,0.00,30.18,M,10.00,M,M,M,M,M,M,M,M,M,M,M,M,M,M,M,M,69.80,K05U 212115Z AUTO 10SM 21/13 A3018 RMK A01,M
MEV,2023-08-21 21:15,-119.7500,38.9963,1441.42,71.60,50.00,46.43,M,4.00,0.00,30.08,M,10.00,13.00,FEW,M,M,M,10000.00,M,M,M,M,M,M,M,M,M,M,71.60,KMEV 212115Z AUTO VRB04G13KT 10SM FEW100 22/10 A3008 RMK AO2,M
BAM,2023-08-21 21:15,-116.8743,40.5990,1382.36,73.40,59.00,60.67,240.00,11.00,0.00,30.07,M,10.00,M,SCT,SCT,BKN,M,3700.00,4600.00,6000.00,M,M,M,M,M,M,M,M,73.40,KBAM 212115Z AUTO 24011KT 10SM SCT037 SCT046 BKN060 23/15 A3007 RMK AO1,M
HTH,2023-08-21 21:15,-118.6315,38.5448,1282.89,78.80,48.20,34.13,150.00,14.00,0.00,30.03,M,10.00,20.00,FEW,M,M,M,11000.00,M,M,M,M,M,M,M,M,M,M,78.80,KHTH 212115Z AUTO 15014G20KT 10SM FEW110 26/09 A3003 RMK A01,M
10U,2023-08-21 21:15,-116.1876,41.9532,1637.00,71.60,55.40,56.63,240.00,16.00,0.00,30.08,M,10.00,25.00,FEW,SCT,BKN,M,2900.00,4000.00,8500.00,M,M,M,M,M,M,M,M,71.60,K10U 212115Z AUTO 24016G25KT 10SM FEW029 SCT040 BKN085 22/13 A3008 RMK AO2,M
TMT,2023-08-21 21:15,-117.1971,39.4643,1749.34,72.00,53.00,51.18,210.00,10.00,0.00,30.13,M,M,M,CLR,M,M,M,M,M,M,M,M,M,M,M,M,M,M,72.00,KTMT 212115Z AUTO 21010KT CLR 22/12 A3013 RMK AO2 T02230117 PWINO,M
ELY,2023-08-21 21:18,-114.8453,39.2950,1909.00,58.00,56.00,93.04,190.00,13.00,0.12,30.24,M,2.00,23.00,BKN,OVC,M,M,3600.00,5000.00,M,M,-RA BR,M,M,M,33.00,190.00,2023-08-21 20:59,58.00,KELY 212118Z AUTO 19013G23KT 2SM -RA BR BKN036 OVC050 14/13 A3024 RMK AO2 PK WND 19033/2059 P0012 T01440133,M
ELY,2023-08-21 21:29,-114.8453,39.2950,1909.00,58.00,55.00,89.72,190.00,17.00,0.13,30.24,M,3.00,26.00,OVC,M,M,M,3600.00,M,M,M,-RA BR,M,M,M,33.00,190.00,2023-08-21 20:59,58.00,KELY 212129Z AUTO 19017G26KT 3SM -RA BR OVC036 14/13 A3024 RMK AO2 PK WND 19033/2059 P0013 T01440128,M
05U,2023-08-21 21:30,-116.0051,39.6042,1811.23,69.80,55.40,60.21,M,M,0.00,30.19,M,10.00,M,M,M,M,M,M,M,M,M,M,M,M,M,M,M,M,69.80,K05U 212130Z AUTO 10SM 21/13 A3019 RMK A01,M
ELY,2023-08-21 21:34,-114.8453,39.2950,1909.00,58.00,54.00,86.51,200.00,20.00,0.14,30.24,M,1.75,32.00,BKN,OVC,M,M,3600.00,4200.00,M,M,+RA BR,M,M,M,33.00,190.00,2023-08-21 20:59,58.00,KELY 212134Z AUTO 20020G32KT 1 3/4SM +RA BR BKN036 OVC042 14/12 A3024 RMK AO2 PK WND 19033/2059 P0014 T01440122,M
BVU,2023-08-21 21:35,-114.8611,35.9475,671.00,86.00,57.20,37.62,160.00,14.00,0.00,30.03,M,10.00,M,CLR,M,M,M,M,M,M,M,M,M,M,M,M,M,M,84.97,KBVU 212135Z AUTO 16014KT 10SM CLR 30/14 A3003 RMK AO2,M
CXP,2023-08-21 21:35,-119.7326,39.1923,1431.00,69.80,50.00,49.37,M,4.00,0.00,30.09,M,10.00,10.00,FEW,FEW,M,M,5000.00,5500.00,M,M,M,M,M,M,M,M,M,69.80,KCXP 212135Z AUTO VRB04G10KT 10SM FEW050 FEW055 21/10 A3009 RMK AO2,M
RNO,2023-08-21 21:35,-119.7711,39.4839,1341.00,75.00,50.00,41.41,290.00,10.00,0.00,30.05,M,10.00,25.00,SCT,BKN,M,M,7500.00,11000.00,M,M,M,M,M,M,M,M,M,75.00,KRNO 212135Z 29010G25KT 10SM SCT075 BKN110 24/10 A3005 RMK AO2 WSHFT 2118 T02390100,M
RTS,2023-08-21 21:35,-119.8764,39.6682,1539.00,64.40,48.20,55.63,M,6.00,0.00,30.12,M,10.00,13.00,FEW,OVC,M,M,6000.00,7000.00,M,M,M,M,M,M,M,M,M,64.40,KRTS 212135Z AUTO VRB06G13KT 10SM FEW060 OVC070 18/09 A3012 RMK AO2,M
MEV,2023-08-21 21:35,-119.7500,38.9963,1441.42,71.60,48.20,43.42,M,5.00,0.00,30.07,M,10.00,12.00,CLR,M,M,M,M,M,M,M,M,M,M,M,M,M,M,71.60,KMEV 212135Z AUTO VRB05G12KT 10SM CLR 22/09 A3007 RMK AO2,M
BAM,2023-08-21 21:35,-116.8743,40.5990,1382.36,75.20,59.00,57.12,230.00,6.00,0.00,30.07,M,10.00,M,SCT,SCT,SCT,M,4600.00,5000.00,6000.00,M,M,M,M,M,M,M,M,75.20,KBAM 212135Z AUTO 23006KT 10SM SCT046 SCT050 SCT060 24/15 A3007 RMK AO1,M
HTH,2023-08-21 21:35,-118.6315,38.5448,1282.89,78.80,46.40,31.90,160.00,13.00,0.00,30.02,M,10.00,19.00,FEW,FEW,M,M,10000.00,12000.00,M,M,M,M,M,M,M,M,M,78.80,KHTH 212135Z AUTO 16013G19KT 10SM FEW100 FEW120 26/08 A3002 RMK A01,M
10U,2023-08-21 21:35,-116.1876,41.9532,1637.00,75.20,55.40,50.17,230.00,16.00,0.00,30.08,M,10.00,24.00,FEW,SCT,BKN,M,3600.00,4300.00,7000.00,M,M,M,M,M,M,M,M,75.20,K10U 212135Z AUTO 23016G24KT 10SM FEW036 SCT043 BKN070 24/13 A3008 RMK AO2,M
TMT,2023-08-21 21:35,-117.1971,39.4643,1749.34,74.00,51.40,45.10,200.00,9.00,0.00,30.13,M,M,16.00,CLR,M,M,M,M,M,M,M,M,M,M,M,M,M,M,74.00,KTMT 212135Z AUTO 20009G16KT CLR 23/11 A3013 RMK AO2 T02330108 PWINO,M
ELY,2023-08-21 21:46,-114.8453,39.2950,1909.00,59.00,55.00,86.56,230.00,11.00,0.20,30.23,M,3.00,26.00,SCT,OVC,M,M,3300.00,4200.00,M,M,-RA BR,M,M,M,33.00,190.00,2023-08-21 20:59,59.00,KELY 212146Z AUTO 23011G26KT 3SM -RA BR SCT033 OVC042 15/13 A3023 RMK AO2 PK WND 19033/2059 P0020 T01500128,M
05U,2023-08-21 21:50,-116.0051,39.6042,1811.23,68.00,55.40,64.04,M,M,0.00,30.20,M,10.00,M,M,M,M,M,M,M,M,M,M,M,M,M,M,M,M,68.00,K05U 212150Z AUTO 10SM 20/13 A3020 RMK A01,M
P68,2023-08-21 21:53,-116.0056,39.6014,1993.00,65.00,55.00,70.03,160.00,15.00,0.00,30.17,1013.90,M,M,M,M,M,M,M,M,M,M,M,M,M,M,26.00,170.00,2023-08-21 20:55,65.00,KP68 212153Z AUTO 16015KT 18/13 A3017 RMK AO1 PK WND 17026/2055 SLP139 T01830128,M
DRA,2023-08-21 21:53,-116.0278,36.6206,1009.00,76.00,63.00,64.09,220.00,15.00,0.00,30.07,1014.30,10.00,M,CLR,M,M,M,M,M,M,M,M,M,M,M,M,M,M,76.00,KDRA 212153Z AUTO 22015KT 10SM CLR 24/17 A3007 RMK AO2 SLP143 T02440172,M
ELY,2023-08-21 21:53,-114.8453,39.2950,1909.00,59.00,56.00,89.76,240.00,11.00,0.20,30.23,1015.50,8.00,M,SCT,BKN,OVC,M,3700.00,4500.00,5500.00,M,-RA,M,M,M,33.00,190.00,2023-08-21 20:59,59.00,KELY 212153Z AUTO 24011KT 8SM -RA SCT037 BKN045 OVC055 15/13 A3023 RMK AO2 PK WND 19033/2059 SLP155 P0020 T01500133,M
LOL,2023-08-21 21:53,-118.5701,40.0684,1192.43,71.00,56.00,59.07,280.00,3.00,0.00,30.03,1013.90,10.00,M,FEW,SCT,BKN,M,4300.00,6000.00,9000.00,M,M,M,M,M,M,M,M,71.00,KLOL 212153Z AUTO 28003KT 10SM FEW043 SCT060 BKN090 22/13 A3003 RMK AO2 SLP139 T02170133,M
BVU,2023-08-21 21:55,-114.8611,35.9475,671.00,86.00,57.20,37.62,170.00,13.00,0.00,30.02,M,10.00,19.00,FEW,M,M,M,6000.00,M,M,M,M,M,M,M,M,M,M,84.97,KBVU 212155Z AUTO 17013G19KT 10SM FEW060 30/14 A3002 RMK AO2,M
CXP,2023-08-21 21:55,-119.7326,39.1923,1431.00,73.40,50.00,43.69,M,5.00,0.00,30.08,M,10.00,M,FEW,M,M,M,5000.00,M,M,M,M,M,M,M,M,M,M,73.40,KCXP 212155Z AUTO VRB05KT 10SM FEW050 23/10 A3008 RMK AO2,M
INS,2023-08-21 21:55,-115.6733,36.5872,955.00,78.00,60.00,53.94,120.00,15.00,0.00,30.05,1013.50,10.00,20.00,FEW,M,M,M,10000.00,M,M,M,M,M,M,M,27.00,90.00,2023-08-21 21:04,78.00,KINS 212155Z AUTO 12015G20KT 10SM FEW100 26/16 A3005 RMK AO2 PK WND 09027/04 SLP135 T02550155 $,M
RNO,2023-08-21 21:55,-119.7711,39.4839,1341.00,74.00,49.00,41.26,310.00,7.00,0.00,30.04,1012.70,10.00,M,SCT,SCT,M,M,7500.00,11000.00,M,M,M,M,M,M,M,M,M,74.00,KRNO 212155Z 31007KT 10SM SCT075 SCT110 23/09 A3004 RMK AO2 WSHFT 2118 SLP127 T02330094,M
RTS,2023-08-21 21:55,-119.8764,39.6682,1539.00,64.40,48.20,55.63,350.00,5.00,0.00,30.11,M,10.00,M,OVC,M,M,M,7000.00,M,M,M,M,M,M,M,M,M,M,64.40,KRTS 212155Z AUTO 35005KT 10SM OVC070 18/09 A3011 RMK AO2,M
MEV,2023-08-21 21:55,-119.7500,38.9963,1441.42,73.40,50.00,43.69,300.00,9.00,0.00,30.06,M,10.00,14.00,CLR,M,M,M,M,M,M,M,M,M,M,M,M,M,M,73.40,KMEV 212155Z AUTO 30009G14KT 10SM CLR 23/10 A3006 RMK AO2,M
BAM,2023-08-21 21:55,-116.8743,40.5990,1382.36,77.00,57.20,50.43,240.00,6.00,0.00,30.06,M,10.00,M,SCT,SCT,BKN,M,4200.00,5000.00,5500.00,M,M,M,M,M,M,M,M,77.00,KBAM 212155Z AUTO 24006KT 10SM SCT042 SCT050 BKN055 25/14 A3006 RMK AO1,M
HTH,2023-08-21 21:55,-118.6315,38.5448,1282.89,78.80,44.60,29.79,140.00,11.00,0.00,30.01,M,10.00,17.00,CLR,M,M,M,M,M,M,M,M,M,M,M,M,M,M,78.80,KHTH 212155Z AUTO 14011G17KT 10SM CLR 26/07 A3001 RMK A01,M
TMT,2023-08-21 21:55,-117.1971,39.4643,1749.34,73.00,50.40,44.95,210.00,10.00,0.00,30.12,M,M,M,SCT,SCT,M,M,6000.00,7000.00,M,M,M,M,M,M,M,M,M,73.00,KTMT 212155Z AUTO 21010KT SCT060 SCT070 23/10 A3012 RMK AO2 LTG DSNT W T02270102 PWINO,M
10U,2023-08-21 21:55,-116.1876,41.9532,1637.00,71.60,55.40,56.63,230.00,15.00,0.00,30.09,M,10.00,24.00,SCT,BKN,OVC,M,3700.00,4900.00,10000.00,M,M,M,M,M,M,M,M,71.60,K10U 212155Z AUTO 23015G24KT 10SM SCT037 BKN049 OVC100 22/13 A3009 RMK AO2,M
LSV,2023-08-21 21:55,-115.0343,36.2362,570.00,87.80,59.00,37.90,170.00,7.00,0.00,29.99,1013.40,10.00,M,CLR,M,M,M,M,M,M,M,M,M,M,M,M,M,M,87.12,KLSV 212155Z AUTO 17007KT 10SM CLR 31/15 A2999 RMK AO2 SLP134 T03100150 $,M
EKO,2023-08-21 21:56,-115.7860,40.8242,1367.00,67.00,60.00,78.22,0.00,0.00,0.04,30.09,1014.40,10.00,M,BKN,BKN,OVC,M,4600.00,6000.00,7500.00,M,M,M,M,M,M,M,M,67.00,KEKO 212156Z AUTO 00000KT 10SM BKN046 BKN060 OVC075 19/16 A3009 RMK AO2 RAE25 SLP144 P0004 T01940156,M
WMC,2023-08-21 21:56,-117.8072,40.9019,1315.00,M,M,M,M,M,0.00,30.05,M,M,M,M,M,M,M,M,M,M,M,M,M,M,M,M,M,M,M,KWMC 212156Z AUTO A3005 RMK AO2 SLPNO PWINO FZRANO $,M
NFL,2023-08-21 21:56,-118.7010,39.4166,1199.00,73.00,56.00,55.20,290.00,19.00,0.00,30.03,1013.80,10.00,23.00,SCT,BKN,BKN,BKN,3000.00,5000.00,12000.00,25000.00,M,M,M,M,M,M,M,73.00,KNFL 212156Z 29019G23KT 10SM SCT030 BKN050 BKN120 BKN250 23/13 A3003 RMK AO2 SLP138 CB DSNT E AND SW T02280133,M
HND,2023-08-21 21:56,-115.1344,35.9729,742.79,85.00,58.00,39.98,160.00,9.00,0.00,30.06,M,10.00,20.00,SCT,M,M,M,5500.00,M,M,M,M,M,M,M,M,M,M,84.32,KHND 212156Z 16009G20KT 10SM SCT055 29/14 A3006 RMK AO2 SLPNO T02940144,M
LAS,2023-08-21 21:56,-115.1634,36.0719,663.00,86.00,58.00,38.72,180.00,8.00,0.00,30.02,1014.40,10.00,M,FEW,SCT,SCT,M,6000.00,11000.00,20000.00,M,M,M,M,M,M,M,M,85.18,KLAS 212156Z 18008KT 10SM FEW060 SCT110 SCT200 30/14 A3002 RMK AO2 SLP144 T03000144,M
BVU,2023-08-21 22:15,-114.8611,35.9475,671.00,86.00,57.20,37.62,150.00,11.00,0.00,30.01,M,10.00,19.00,FEW,M,M,M,6000.00,M,M,M,M,M,M,M,M,M,M,84.97,KBVU 212215Z AUTO 15011G19KT 10SM FEW060 30/14 A3001 RMK AO2,M
CXP,2023-08-21 22:15,-119.7326,39.1923,1431.00,73.40,46.40,38.18,220.00,8.00,0.00,30.07,M,10.00,M,CLR,M,M,M,M,M,M,M,M,M,M,M,M,M,M,73.40,KCXP 212215Z AUTO 22008KT 10SM CLR 23/08 A3007 RMK AO2,M
RTS,2023-08-21 22:15,-119.8764,39.6682,1539.00,66.20,46.40,48.83,270.00,14.00,0.00,30.10,M,10.00,21.00,BKN,BKN,M,M,7500.00,9000.00,M,M,M,M,M,M,M,M,M,66.20,KRTS 212215Z AUTO 27014G21KT 10SM BKN075 BKN090 19/08 A3010 RMK AO2,M
05U,2023-08-21 22:15,-116.0051,39.6042,1811.23,66.20,57.20,72.74,M,M,0.00,30.20,M,9.00,M,M,M,M,M,M,M,M,M,M,M,M,M,M,M,M,66.20,K05U 212215Z AUTO 9SM 19/14 A3020 RMK A01,M
MEV,2023-08-21 22:15,-119.7500,38.9963,1441.42,73.40,50.00,43.69,250.00,11.00,0.00,30.06,M,10.00,M,CLR,M,M,M,M,M,M,M,M,M,M,M,M,M,M,73.40,KMEV 212215Z AUTO 25011KT 10SM CLR 23/10 A3006 RMK AO2,M
BAM,2023-08-21 22:15,-116.8743,40.5990,1382.36,75.20,55.40,50.17,230.00,12.00,0.00,30.06,M,10.00,15.00,SCT,BKN,BKN,M,4700.00,5000.00,7000.00,M,M,M,M,M,M,M,M,75.20,KBAM 212215Z AUTO 23012G15KT 10SM SCT047 BKN050 BKN070 24/13 A3006 RMK AO1,M
HTH,2023-08-21 22:15,-118.6315,38.5448,1282.89,80.60,46.40,30.07,150.00,9.00,0.00,30.00,M,10.00,17.00,SCT,SCT,M,M,8500.00,12000.00,M,M,M,M,M,M,M,M,M,79.56,KHTH 212215Z AUTO 15009G17KT 10SM SCT085 SCT120 27/08 A3000 RMK A01,M
10U,2023-08-21 22:15,-116.1876,41.9532,1637.00,71.60,55.40,56.63,220.00,14.00,0.00,30.09,M,10.00,20.00,FEW,SCT,BKN,M,3500.00,4900.00,9500.00,M,M,M,M,M,M,M,M,71.60,K10U 212215Z AUTO 22014G20KT 10SM FEW035 SCT049 BKN095 22/13 A3009 RMK AO2,M
TMT,2023-08-21 22:15,-117.1971,39.4643,1749.34,75.00,50.00,41.41,210.00,12.00,0.00,30.12,M,M,19.00,BKN,BKN,M,M,6000.00,7500.00,M,M,M,M,M,M,M,M,M,75.00,KTMT 212215Z AUTO 21012G19KT BKN060 BKN075 24/10 A3012 RMK AO2 T02380100 PWINO,M
BVU,2023-08-21 22:35,-114.8611,35.9475,671.00,87.80,53.60,31.17,190.00,14.00,0.00,30.01,M,10.00,M,CLR,M,M,M,M,M,M,M,M,M,M,M,M,M,M,85.72,KBVU 212235Z AUTO 19014KT 10SM CLR 31/12 A3001 RMK AO2,M
CXP,2023-08-21 22:35,-119.7326,39.1923,1431.00,71.60,48.20,43.42,260.00,7.00,0.00,30.07,M,10.00,19.00,CLR,M,M,M,M,M,M,M,M,M,M,M,M,M,M,71.60,KCXP 212235Z AUTO 26007G19KT 230V290 10SM CLR 22/09 A3007 RMK AO2,M
RTS,2023-08-21 22:35,-119.8764,39.6682,1539.00,69.80,46.40,43.13,260.00,15.00,0.00,30.10,M,10.00,23.00,FEW,M,M,M,8000.00,M,M,M,M,M,M,M,M,M,M,69.80,KRTS 212235Z AUTO 26015G23KT 10SM FEW080 21/08 A3010 RMK AO2,M
05U,2023-08-21 22:35,-116.0051,39.6042,1811.23,64.40,57.20,77.45,M,M,0.00,30.20,M,10.00,M,M,M,M,M,M,M,M,M,M,M,M,M,M,M,M,64.40,K05U 212235Z AUTO 10SM 18/14 A3020 RMK A01,M
MEV,2023-08-21 22:35,-119.7500,38.9963,1441.42,71.60,48.20,43.42,220.00,10.00,0.00,30.06,M,10.00,M,CLR,M,M,M,M,M,M,M,M,M,M,M,M,M,M,71.60,KMEV 212235Z AUTO 22010KT 10SM CLR 22/09 A3006 RMK AO2,M
HTH,2023-08-21 22:35,-118.6315,38.5448,1282.89,78.80,46.40,31.90,150.00,12.00,0.00,30.00,M,10.00,17.00,FEW,SCT,M,M,8500.00,12000.00,M,M,M,M,M,M,M,M,M,78.80,KHTH 212235Z AUTO 15012G17KT 10SM FEW085 SCT120 26/08 A3000 RMK A01,M
10U,2023-08-21 22:35,-116.1876,41.9532,1637.00,73.40,55.40,53.29,220.00,13.00,0.00,30.09,M,10.00,22.00,FEW,SCT,SCT,M,3400.00,4000.00,4500.00,M,M,M,M,M,M,M,M,73.40,K10U 212235Z AUTO 22013G22KT 10SM FEW034 SCT040 SCT045 23/13 A3009 RMK AO2,M
BAM,2023-08-21 22:35,-116.8743,40.5990,1382.36,77.00,55.40,47.25,230.00,11.00,0.00,30.07,M,10.00,15.00,SCT,SCT,BKN,M,4800.00,6500.00,8000.00,M,M,M,M,M,M,M,M,77.00,KBAM 212235Z AUTO 23011G15KT 10SM SCT048 SCT065 BKN080 25/13 A3007 RMK AO1,M
TMT,2023-08-21 22:35,-117.1971,39.4643,1749.34,73.40,50.00,43.69,220.00,11.00,0.00,30.13,M,M,M,SCT,SCT,M,M,6000.00,12000.00,M,M,M,M,M,M,M,M,M,73.40,KTMT 212235Z AUTO 22011KT SCT060 SCT120 23/10 A3013 RMK AO2 T02300101 PWINO,M
P68,2023-08-21 22:53,-116.0056,39.6014,1993.00,66.00,56.00,70.14,140.00,16.00,0.00,30.17,1014.70,M,21.00,M,M,M,M,M,M,M,M,M,M,M,M,M,M,M,66.00,KP68 212253Z AUTO 14016G21KT 19/13 A3017 RMK AO1 SLP147 T01890133,M
DRA,2023-08-21 22:53,-116.0278,36.6206,1009.00,77.00,63.00,62.00,230.00,8.00,0.00,30.08,1014.50,10.00,M,CLR,M,M,M,M,M,M,M,M,M,M,M,M,M,M,77.00,KDRA 212253Z AUTO 23008KT 10SM CLR 25/17 A3008 RMK AO2 SLP145 T02500172,M
ELY,2023-08-21 22:53,-114.8453,39.2950,1909.00,67.00,55.00,65.33,190.00,16.00,T,30.22,1014.30,10.00,25.00,FEW,SCT,M,M,6500.00,8000.00,M,M,M,M,M,M,M,M,M,67.00,KELY 212253Z AUTO 19016G25KT 10SM FEW065 SCT080 19/13 A3022 RMK AO2 RAE00B16E27 SLP143 P0000 T01940128,M
LOL,2023-08-21 22:53,-118.5701,40.0684,1192.43,74.00,57.00,55.34,260.00,7.00,0.00,30.03,1013.80,10.00,M,FEW,SCT,BKN,M,4500.00,6500.00,10000.00,M,M,M,M,M,M,M,M,74.00,KLOL 212253Z AUTO 26007KT 10SM FEW045 SCT065 BKN100 23/14 A3003 RMK AO2 LTG DSNT S SLP138 T02330139,M
BVU,2023-08-21 22:55,-114.8611,35.9475,671.00,87.80,53.60,31.17,200.00,13.00,0.00,30.00,M,10.00,M,CLR,M,M,M,M,M,M,M,M,M,M,M,M,M,M,85.72,KBVU 212255Z AUTO 20013KT 10SM CLR 31/12 A3000 RMK AO2,M
CXP,2023-08-21 22:55,-119.7326,39.1923,1431.00,73.40,44.60,35.66,220.00,8.00,0.00,30.07,M,10.00,16.00,CLR,M,M,M,M,M,M,M,M,M,M,M,M,M,M,73.40,KCXP 212255Z AUTO 22008G16KT 10SM CLR 23/07 A3007 RMK AO2,M
INS,2023-08-21 22:55,-115.6733,36.5872,955.00,79.50,58.00,47.80,120.00,12.00,0.00,30.05,1013.50,10.00,M,SCT,SCT,M,M,8000.00,10000.00,M,M,M,M,M,M,M,M,M,79.50,KINS 212255Z AUTO 12012KT 10SM SCT080 SCT100 26/15 A3005 RMK AO2 SLP135 T02640145 $,M
RNO,2023-08-21 22:55,-119.7711,39.4839,1341.00,75.00,48.00,38.43,M,3.00,0.00,30.03,1012.20,10.00,M,FEW,FEW,M,M,7000.00,15000.00,M,M,M,M,M,M,M,M,M,75.00,KRNO 212255Z VRB03KT 10SM FEW070 FEW150 24/09 A3003 RMK AO2 SLP122 T02390089,M
RTS,2023-08-21 22:55,-119.8764,39.6682,1539.00,69.80,46.40,43.13,240.00,11.00,0.00,30.09,M,10.00,19.00,CLR,M,M,M,M,M,M,M,M,M,M,M,M,M,M,69.80,KRTS 212255Z AUTO 24011G19KT 10SM CLR 21/08 A3009 RMK AO2,M
05U,2023-08-21 22:55,-116.0051,39.6042,1811.23,66.20,55.40,68.15,M,M,0.00,30.20,M,10.00,M,M,M,M,M,M,M,M,M,M,M,M,M,M,M,M,66.20,K05U 212255Z AUTO 10SM 19/13 A3020 RMK A01,M
MEV,2023-08-21 22:55,-119.7500,38.9963,1441.42,71.60,46.40,40.57,240.00,7.00,0.00,30.05,M,10.00,M,CLR,M,M,M,M,M,M,M,M,M,M,M,M,M,M,71.60,KMEV 212255Z AUTO 24007KT 10SM CLR 22/08 A3005 RMK AO2,M
HTH,2023-08-21 22:55,-118.6315,38.5448,1282.89,78.80,44.60,29.79,160.00,12.00,0.00,30.00,M,10.00,M,FEW,M,M,M,12000.00,M,M,M,M,M,M,M,M,M,M,78.80,KHTH 212255Z AUTO 16012KT 10SM FEW120 26/07 A3000 RMK A01,M
LSV,2023-08-21 22:55,-115.0343,36.2362,570.00,88.30,58.00,35.99,140.00,12.00,0.00,29.97,1012.70,10.00,18.00,CLR,M,M,M,M,M,M,M,M,M,M,M,M,M,M,87.28,KLSV 212255Z AUTO 14012G18KT 10SM CLR 31/14 A2997 RMK AO2 SLP127 T03130144 $,M
BAM,2023-08-21 22:55,-116.8743,40.5990,1382.36,77.00,55.40,47.25,230.00,10.00,0.00,30.07,M,10.00,M,SCT,M,M,M,6500.00,M,M,M,M,M,M,M,M,M,M,77.00,KBAM 212255Z AUTO 23010KT 10SM SCT065 25/13 A3007 RMK AO1,M
TMT,2023-08-21 22:55,-117.1971,39.4643,1749.34,72.00,51.40,48.25,220.00,9.00,0.00,30.13,M,M,15.00,SCT,SCT,BKN,M,6000.00,10000.00,12000.00,M,M,M,M,M,M,M,M,72.00,KTMT 212255Z AUTO 22009G15KT SCT060 SCT100 BKN120 22/11 A3013 RMK AO2 LTG DSNT W T02220108 PWINO,M
10U,2023-08-21 22:55,-116.1876,41.9532,1637.00,71.60,55.40,56.63,220.00,14.00,0.00,30.09,M,10.00,M,FEW,BKN,BKN,M,3800.00,4600.00,5500.00,M,M,M,M,M,M,M,M,71.60,K10U 212255Z AUTO 22014KT 10SM FEW038 BKN046 BKN055 22/13 A3009 RMK AO2,M
EKO,2023-08-21 22:56,-115.7860,40.8242,1367.00,69.00,62.00,78.38,10.00,6.00,0.01,30.08,1014.00,10.00,M,FEW,FEW,M,M,9000.00,11000.00,M,M,M,M,M,M,M,M,M,69.00,KEKO 212256Z AUTO 01006KT 10SM FEW090 FEW110 21/17 A3008 RMK AO2 RAB22E34 SLP140 P0001 T02060167,M
WMC,2023-08-21 22:56,-117.8072,40.9019,1315.00,M,M,M,M,M,0.00,30.04,M,M,M,M,M,M,M,M,M,M,M,M,M,M,M,M,M,M,M,KWMC 212256Z AUTO A3004 RMK AO2 SLPNO PWINO FZRANO $,M
NFL,2023-08-21 22:56,-118.7010,39.4166,1199.00,68.00,56.00,65.45,10.00,6.00,0.01,30.03,1013.70,10.00,M,SCT,BKN,OVC,M,3000.00,5000.00,7000.00,M,M,M,M,M,M,M,M,68.00,KNFL 212256Z 01006KT 10SM SCT030 BKN050 OVC070 20/13 A3003 RMK AO2 RAB02E23 SLP137 CB DSNT NE AND SE-S WR// P0001 T02000133,M
HND,2023-08-21 22:56,-115.1344,35.9729,742.79,86.00,54.00,33.50,130.00,15.00,0.00,30.04,M,10.00,25.00,SCT,M,M,M,5500.00,M,M,M,M,M,M,M,M,M,M,84.26,KHND 212256Z 13015G25KT 10SM SCT055 30/12 A3004 RMK AO2 SLPNO T03000122,M
LAS,2023-08-21 22:56,-115.1634,36.0719,663.00,87.00,54.00,32.45,180.00,11.00,0.00,30.01,1013.80,10.00,18.00,FEW,FEW,SCT,M,6000.00,11000.00,20000.00,M,M,M,M,M,M,M,M,85.10,KLAS 212256Z 18011G18KT 10SM FEW060 FEW110 SCT200 31/12 A3001 RMK AO2 SLP138 T03060122,M
BVU,2023-08-21 23:15,-114.8611,35.9475,671.00,87.80,55.40,33.29,190.00,14.00,0.00,30.00,M,10.00,M,CLR,M,M,M,M,M,M,M,M,M,M,M,M,M,M,86.11,KBVU 212315Z AUTO 19014KT 10SM CLR 31/13 A3000 RMK AO2,M
CXP,2023-08-21 23:15,-119.7326,39.1923,1431.00,73.40,44.60,35.66,M,6.00,0.00,30.06,M,10.00,13.00,CLR,M,M,M,M,M,M,M,M,M,M,M,M,M,M,73.40,KCXP 212315Z AUTO VRB06G13KT 10SM CLR 23/07 A3006 RMK AO2 LTG DSNT E AND SE,M
RTS,2023-08-21 23:15,-119.8764,39.6682,1539.00,69.80,46.40,43.13,270.00,12.00,0.00,30.09,M,10.00,21.00,CLR,M,M,M,M,M,M,M,M,M,M,M,M,M,M,69.80,KRTS 212315Z AUTO 27012G21KT 10SM CLR 21/08 A3009 RMK AO2,M
05U,2023-08-21 23:15,-116.0051,39.6042,1811.23,66.20,55.40,68.15,M,M,0.00,30.21,M,10.00,M,M,M,M,M,M,M,M,M,M,M,M,M,M,M,M,66.20,K05U 212315Z AUTO 10SM 19/13 A3021 RMK A01,M
MEV,2023-08-21 23:15,-119.7500,38.9963,1441.42,71.60,48.20,43.42,300.00,3.00,0.00,30.05,M,10.00,10.00,CLR,M,M,M,M,M,M,M,M,M,M,M,M,M,M,71.60,KMEV 212315Z AUTO 30003G10KT 10SM CLR 22/09 A3005 RMK AO2 LTG DSNT E AND SE,M
BAM,2023-08-21 23:15,-116.8743,40.5990,1382.36,77.00,53.60,44.25,220.00,11.00,0.00,30.07,M,10.00,15.00,SCT,M,M,M,8000.00,M,M,M,M,M,M,M,M,M,M,77.00,KBAM 212315Z AUTO 22011G15KT 10SM SCT080 25/12 A3007 RMK AO1,M
HTH,2023-08-21 23:15,-118.6315,38.5448,1282.89,78.80,48.20,34.13,170.00,14.00,0.00,30.00,M,10.00,M,BKN,M,M,M,12000.00,M,M,M,M,M,M,M,M,M,M,78.80,KHTH 212315Z AUTO 17014KT 10SM BKN120 26/09 A3000 RMK A01,M
10U,2023-08-21 23:15,-116.1876,41.9532,1637.00,71.60,55.40,56.63,220.00,15.00,0.00,30.08,M,10.00,M,SCT,BKN,BKN,M,4200.00,5000.00,6000.00,M,M,M,M,M,M,M,M,71.60,K10U 212315Z AUTO 22015KT 10SM SCT042 BKN050 BKN060 22/13 A3008 RMK AO2,M
TMT,2023-08-21 23:15,-117.1971,39.4643,1749.34,75.00,51.30,43.46,220.00,13.00,0.00,30.12,M,M,18.00,SCT,BKN,M,M,6000.00,10000.00,M,M,M,M,M,M,M,M,M,75.00,KTMT 212315Z AUTO 22013G18KT SCT060 BKN100 24/11 A3012 RMK AO2 LTG DSNT W T02380107 PWINO,M
BVU,2023-08-21 23:35,-114.8611,35.9475,671.00,87.80,55.40,33.29,220.00,10.00,0.00,29.99,M,10.00,18.00,CLR,M,M,M,M,M,M,M,M,M,M,M,M,M,M,86.11,KBVU 212335Z AUTO 22010G18KT 10SM CLR 31/13 A2999 RMK AO2,M
CXP,2023-08-21 23:35,-119.7326,39.1923,1431.00,75.20,44.60,33.57,M,5.00,0.00,30.06,M,10.00,13.00,CLR,M,M,M,M,M,M,M,M,M,M,M,M,M,M,75.20,KCXP 212335Z AUTO VRB05G13KT 10SM CLR 24/07 A3006 RMK AO2,M
RTS,2023-08-21 23:35,-119.8764,39.6682,1539.00,69.80,46.40,43.13,260.00,11.00,0.00,30.08,M,10.00,19.00,CLR,M,M,M,M,M,M,M,M,M,M,M,M,M,M,69.80,KRTS 212335Z AUTO 26011G19KT 10SM CLR 21/08 A3008 RMK AO2,M
05U,2023-08-21 23:35,-116.0051,39.6042,1811.23,62.60,55.40,77.29,M,M,0.00,30.21,M,8.00,M,M,M,M,M,M,M,M,M,M,M,M,M,M,M,M,62.60,K05U 212335Z AUTO 8SM 17/13 A3021 RMK A01,M
MEV,2023-08-21 23:35,-119.7500,38.9963,1441.42,73.40,46.40,38.18,M,3.00,0.00,30.05,M,10.00,M,CLR,M,M,M,M,M,M,M,M,M,M,M,M,M,M,73.40,KMEV 212335Z AUTO VRB03KT 10SM CLR 23/08 A3005 RMK AO2,M
HTH,2023-08-21 23:35,-118.6315,38.5448,1282.89,78.80,46.40,31.90,160.00,12.00,0.00,30.00,M,10.00,17.00,BKN,M,M,M,12000.00,M,M,M,M,M,M,M,M,M,M,78.80,KHTH 212335Z AUTO 16012G17KT 10SM BKN120 26/08 A3000 RMK A01,M
BAM,2023-08-21 23:35,-116.8743,40.5990,1382.36,77.00,53.60,44.25,250.00,10.00,0.00,30.07,M,10.00,M,SCT,M,M,M,8000.00,M,M,M,M,M,M,M,M,M,M,77.00,KBAM 212335Z AUTO 25010KT 10SM SCT080 25/12 A3007 RMK AO1,M
TMT,2023-08-21 23:35,-117.1971,39.4643,1749.34,73.00,50.00,44.29,210.00,11.00,0.00,30.12,M,M,17.00,SCT,M,M,M,10000.00,M,M,M,M,M,M,M,M,M,M,73.00,KTMT 212335Z AUTO 21011G17KT SCT100 23/10 A3012 RMK AO2 T02270101 PWINO,M
EKO,2023-08-21 23:38,-115.7860,40.8242,1367.00,73.00,57.00,57.23,180.00,13.00,0.00,30.07,M,10.00,28.00,FEW,M,M,M,5500.00,M,M,M,VCTS,M,M,M,28.00,180.00,2023-08-21 23:34,73.00,KEKO 212338Z AUTO 18013G28KT 10SM VCTS FEW055 23/14 A3007 RMK AO2 PK WND 18028/2334 LTG DSNT N AND NW T02280139,M
P68,2023-08-21 23:53,-116.0056,39.6014,1993.00,64.00,55.00,72.52,160.00,13.00,0.00,30.18,1015.30,M,22.00,M,M,M,M,M,M,M,M,M,M,M,M,28.00,140.00,2023-08-21 23:06,64.00,KP68 212353Z AUTO 16013G22KT 18/13 A3018 RMK AO1 PK WND 14028/2306 SLP153 T01780128 10206 20172 51008,M
DRA,2023-08-21 23:53,-116.0278,36.6206,1009.00,77.00,62.00,59.85,190.00,5.00,0.00,30.06,1014.00,10.00,M,FEW,M,M,M,8000.00,M,M,M,M,M,M,M,M,M,M,77.00,KDRA 212353Z AUTO 19005KT 10SM FEW080 25/17 A3006 RMK AO2 SLP140 T02500167 10261 20194 58007,M
ELY,2023-08-21 23:53,-114.8453,39.2950,1909.00,68.00,53.00,58.67,200.00,11.00,0.00,30.23,1014.30,10.00,21.00,BKN,OVC,M,M,6000.00,7500.00,M,M,M,M,M,M,26.00,170.00,2023-08-21 23:26,68.00,KELY 212353Z AUTO 20011G21KT 10SM BKN060 OVC075 20/12 A3023 RMK AO2 PK WND 17026/2326 SLP143 60028 T02000117 10206 20144 55002,M
LOL,2023-08-21 23:53,-118.5701,40.0684,1192.43,74.00,55.00,51.47,310.00,4.00,0.00,30.01,1013.10,10.00,M,OVC,M,M,M,10000.00,M,M,M,M,M,M,M,M,M,M,74.00,KLOL 212353Z AUTO 31004KT 10SM OVC100 23/13 A3001 RMK AO2 LTG DSNT SE SLP131 60000 T02330128 10239 20178 58008,M
BVU,2023-08-21 23:55,-114.8611,35.9475,671.00,87.80,55.40,33.29,230.00,9.00,0.00,29.99,M,10.00,17.00,FEW,M,M,M,8000.00,M,M,M,M,M,M,M,M,M,M,86.11,KBVU 212355Z AUTO 23009G17KT 10SM FEW080 31/13 A2999 RMK AO2,M
CXP,2023-08-21 23:55,-119.7326,39.1923,1431.00,73.40,46.40,38.18,M,5.00,0.00,30.06,M,10.00,M,FEW,M,M,M,7000.00,M,M,M,M,M,M,M,M,M,M,73.40,KCXP 212355Z AUTO VRB05KT 10SM FEW070 23/08 A3006 RMK AO2,M
INS,2023-08-21 23:55,-115.6733,36.5872,955.00,79.00,56.50,46.03,120.00,10.00,0.00,30.03,1012.80,10.00,M,BKN,M,M,M,8500.00,M,M,M,M,M,M,M,M,M,M,79.00,KINS 212355Z AUTO 12010KT 10SM BKN085 26/14 A3003 RMK AO2 SLP128 T02610136 10264 20213 57009 $,M
RNO,2023-08-21 23:55,-119.7711,39.4839,1341.00,76.00,48.00,37.17,30.00,7.00,0.00,30.02,1011.90,10.00,M,FEW,SCT,M,M,7000.00,15000.00,M,M,M,M,M,M,M,M,M,76.00,KRNO 212355Z 03007KT 330V060 10SM FEW070 SCT150 24/09 A3002 RMK AO2 LTG DSNT SE SLP119 CB DSNT SE T02440089 10250 20189 56013,M
RTS,2023-08-21 23:55,-119.8764,39.6682,1539.00,71.60,44.60,37.89,250.00,14.00,0.00,30.08,M,10.00,M,CLR,M,M,M,M,M,M,M,M,M,M,M,M,M,M,71.60,KRTS 212355Z AUTO 25014KT 10SM CLR 22/07 A3008 RMK AO2,M
05U,2023-08-21 23:55,-116.0051,39.6042,1811.23,64.40,55.40,72.56,M,M,0.00,30.20,M,10.00,M,M,M,M,M,M,M,M,M,M,M,M,M,M,M,M,64.40,K05U 212355Z AUTO 10SM 18/13 A3020 RMK A01,M
MEV,2023-08-21 23:55,-119.7500,38.9963,1441.42,73.40,44.60,35.66,130.00,6.00,0.00,30.05,M,10.00,M,FEW,M,M,M,9000.00,M,M,M,M,M,M,M,M,M,M,73.40,KMEV 212355Z AUTO 13006KT 10SM FEW090 23/07 A3005 RMK AO2,M
BAM,2023-08-21 23:55,-116.8743,40.5990,1382.36,77.00,53.60,44.25,250.00,10.00,0.00,30.07,M,10.00,M,SCT,SCT,M,M,8000.00,11000.00,M,M,M,M,M,M,M,M,M,77.00,KBAM 212355Z AUTO 25010KT 10SM SCT080 SCT110 25/12 A3007 RMK AO1,M
HTH,2023-08-21 23:55,-118.6315,38.5448,1282.89,80.60,48.20,32.18,160.00,14.00,0.00,29.99,M,10.00,M,BKN,M,M,M,12000.00,M,M,M,M,M,M,M,M,M,M,79.71,KHTH 212355Z AUTO 16014KT 10SM BKN120 27/09 A2999 RMK A01,M
LSV,2023-08-21 23:55,-115.0343,36.2362,570.00,88.00,56.00,33.81,170.00,12.00,0.00,29.95,1012.00,10.00,M,CLR,M,M,M,M,M,M,M,M,M,M,M,M,M,M,86.44,KLSV 212355Z AUTO 17012KT 10SM CLR 31/13 A2995 RMK AO2 SLP120 T03120134 10315 20248 57018 $,M
TMT,2023-08-21 23:55,-117.1971,39.4643,1749.34,73.60,51.00,45.04,200.00,10.00,0.00,30.12,M,M,M,SCT,SCT,M,M,9000.00,12000.00,M,M,M,M,M,M,M,M,M,73.60,KTMT 212355Z AUTO 20010KT SCT090 SCT120 23/11 A3012 RMK AO2 T02310105 10239 20173 PWINO,M
10U,2023-08-21 23:55,-116.1876,41.9532,1637.00,75.20,53.60,46.98,220.00,14.00,0.00,30.08,M,10.00,22.00,FEW,FEW,SCT,M,4100.00,5500.00,7500.00,M,M,M,M,M,M,M,M,75.20,K10U 212355Z AUTO 22014G22KT 10SM FEW041 FEW055 SCT075 24/12 A3008 RMK AO2,M
EKO,2023-08-21 23:56,-115.7860,40.8242,1367.00,73.00,56.00,55.20,170.00,19.00,0.00,30.08,1013.20,10.00,28.00,CLR,M,M,M,M,M,M,M,VCTS,M,M,M,28.00,180.00,2023-08-21 23:34,73.00,KEKO 212356Z AUTO 17019G28KT 10SM VCTS CLR 23/13 A3008 RMK AO2 PK WND 18028/2334 LTG DSNT N AND NW SLP132 60008 T02280133 10250 20172 58005,M
WMC,2023-08-21 23:56,-117.8072,40.9019,1315.00,M,M,M,M,M,0.00,30.04,M,M,M,M,M,M,M,M,M,M,M,M,M,M,M,M,M,M,M,KWMC 212356Z AUTO A3004 RMK AO2 SLPNO 50000 PWINO FZRANO $,M
NFL,2023-08-21 23:56,-118.7010,39.4166,1199.00,70.00,60.00,70.56,20.00,7.00,0.01,30.01,1013.20,10.00,M,SCT,BKN,BKN,BKN,3000.00,5000.00,12000.00,25000.00,M,M,M,M,M,M,M,70.00,KNFL 212356Z 02007KT 10SM SCT030 BKN050 BKN120 BKN250 21/16 A3001 RMK AO2 RAB08E36 SLP132 CB DSNT NE AND S-SW WR// P0001 60002 T02110156 10261 20189 58005,M
HND,2023-08-21 23:56,-115.1344,35.9729,742.79,87.00,51.00,29.06,160.00,12.00,0.00,30.03,M,10.00,M,SCT,M,M,M,6000.00,M,M,M,M,M,M,M,M,M,M,84.58,KHND 212356Z 16012KT 10SM SCT060 31/11 A3003 RMK AO2 SLPNO 6//// T03060106 10306 20256 58013,M
LAS,2023-08-21 23:56,-115.1634,36.0719,663.00,87.00,52.00,30.15,M,5.00,0.00,29.99,1013.30,10.00,M,FEW,FEW,SCT,M,6000.00,11000.00,20000.00,M,M,M,M,M,M,M,M,84.73,KLAS 212356Z VRB05KT 10SM FEW060 FEW110 SCT200 31/11 A2999 RMK AO2 SLP133 T03060111 10306 20256 57015,M
