station,valid,lon,lat,elevation,tmpf,dwpf,relh,drct,sknt,p01i,alti,mslp,vsby,gust,skyc1,skyc2,skyc3,skyc4,skyl1,skyl2,skyl3,skyl4,wxcodes,ice_accretion_1hr,ice_accretion_3hr,ice_accretion_6hr,peak_wind_gust,peak_wind_drct,peak_wind_time,feel,metar,snowdepth
INS,2021-12-24 00:04,-115.6733,36.5872,955.00,46.40,42.80,87.19,110.00,5.00,0.00,29.79,1007.90,10.00,M,SCT,SCT,M,M,5000.00,6000.00,M,M,-RA,M,M,M,M,M,M,43.50,KINS 240004Z AUTO 11005KT 10SM -RA SCT050 SCT060 08/06 A2979 RMK AO2 SLP079 VISNO RWY08 $,M
TPH,2021-12-24 00:05,-117.0904,38.0505,1654.00,36.00,36.00,100.00,50.00,3.00,0.00,29.70,M,0.75,M,OVC,M,M,M,200.00,M,M,M,BR,M,M,M,M,M,M,33.26,KTPH 240005Z AUTO 05003KT 3/4SM BR OVC002 02/02 A2970 RMK AO2 T00220022,M
EKO,2021-12-24 00:07,-115.7860,40.8242,1367.00,35.00,33.00,92.32,210.00,4.00,T,29.64,M,10.00,M,FEW,OVC,M,M,1700.00,3800.00,M,M,UP,M,M,M,M,M,M,31.04,KEKO 240007Z AUTO 21004KT 10SM UP FEW017 OVC038 02/01 A2964 RMK AO2 RAE06UPB06 P0000 T00170006,M
LSV,2021-12-24 00:08,-115.0343,36.2362,570.00,53.60,44.60,71.45,80.00,4.00,0.00,29.83,1009.80,10.00,M,SCT,BKN,M,M,4700.00,5500.00,M,M,-RA,M,M,M,M,M,M,53.60,KLSV 240008Z AUTO 08004KT 10SM -RA SCT047 BKN055 12/07 A2983 RMK AO2 SLP098 $,M
05U,2021-12-24 00:10,-116.0051,39.6042,1811.23,33.80,32.00,93.03,70.00,5.00,0.00,29.72,M,0.25,M,OVC,M,M,M,200.00,M,M,M,FG,M,M,M,M,M,M,28.53,K05U 240010Z AUTO 07005KT 1/4SM FG OVC002 01/00 A2972 RMK A01,M
LSV,2021-12-24 00:12,-115.0343,36.2362,570.00,53.60,46.40,76.50,70.00,4.00,0.00,29.83,1009.70,10.00,M,BKN,BKN,M,M,4900.00,6000.00,M,M,-RA,M,M,M,M,M,M,53.60,KLSV 240012Z AUTO 07004KT 10SM -RA BKN049 BKN060 12/08 A2983 RMK AO2 SLP097 $,M
TPH,2021-12-24 00:12,-117.0904,38.0505,1654.00,37.00,37.00,100.00,0.00,0.00,0.00,29.71,M,2.00,M,OVC,M,M,M,200.00,M,M,M,BR,M,M,M,M,M,M,37.00,KTPH 240012Z AUTO 00000KT 2SM BR OVC002 03/03 A2971 RMK AO2 T00280028,M
LSV,2021-12-24 00:14,-115.0343,36.2362,570.00,53.60,46.40,76.50,70.00,5.00,0.00,29.83,1009.70,10.00,M,SCT,BKN,M,M,4900.00,6000.00,M,M,-RA,M,M,M,M,M,M,53.60,KLSV 240014Z AUTO 07005KT 10SM -RA SCT049 BKN060 12/08 A2983 RMK AO2 SLP097 $,M
INS,2021-12-24 00:14,-115.6733,36.5872,955.00,46.40,42.80,87.19,90.00,9.00,0.00,29.78,1007.60,10.00,M,SCT,BKN,M,M,5000.00,6500.00,M,M,-RA,M,M,M,M,M,M,41.42,KINS 240014Z AUTO 09009KT 10SM -RA SCT050 BKN065 08/06 A2978 RMK AO2 SLP076 VISNO RWY08 $,M
RTS,2021-12-24 00:15,-119.8764,39.6682,1539.00,32.00,32.00,100.00,80.00,5.00,0.00,29.66,M,9.00,M,FEW,SCT,BKN,M,2900.00,3800.00,4600.00,M,M,M,M,M,M,M,M,26.40,KRTS 240015Z AUTO 08005KT 9SM FEW029 SCT038 BKN046 00/00 A2966 RMK AO2,M
CXP,2021-12-24 00:15,-119.7326,39.1923,1431.00,33.80,33.80,100.00,340.00,3.00,0.00,29.71,M,2.00,M,BKN,BKN,M,M,700.00,1200.00,M,M,-SN,M,M,M,M,M,M,30.75,KCXP 240015Z AUTO 34003KT 2SM -SN BKN007 BKN012 01/01 A2971 RMK AO2,M
BVU,2021-12-24 00:15,-114.8611,35.9475,671.00,55.40,39.20,54.34,210.00,7.00,0.00,29.85,M,10.00,M,BKN,OVC,M,M,5000.00,6000.00,M,M,M,M,M,M,M,M,M,55.40,KBVU 240015Z AUTO 21007KT 10SM BKN050 OVC060 13/04 A2985 RMK AO2,M
HTH,2021-12-24 00:15,-118.6315,38.5448,1282.89,37.40,35.60,93.14,170.00,3.00,0.00,29.73,M,9.00,M,FEW,SCT,BKN,M,1900.00,2700.00,3600.00,M,M,M,M,M,M,M,M,34.86,KHTH 240015Z AUTO 17003KT 9SM FEW019 SCT027 BKN036 03/02 A2973 RMK A01,M
TMT,2021-12-24 00:15,-117.1971,39.4643,1749.34,32.00,32.00,100.00,170.00,3.00,0.02,29.74,M,0.75,M,OVC,M,M,M,700.00,M,M,M,-SN,M,M,M,M,M,M,28.69,KTMT 240015Z AUTO 17003KT 3/4SM -SN OVC007 00/00 A2974 RMK AO2 P0002 T00000000,M
LSV,2021-12-24 00:15,-115.0343,36.2362,570.00,53.60,46.40,76.50,60.00,5.00,0.00,29.83,1009.70,10.00,M,BKN,BKN,M,M,4900.00,6000.00,M,M,-RA,M,M,M,M,M,M,53.60,KLSV 240015Z AUTO 06005KT 10SM -RA BKN049 BKN060 12/08 A2983 RMK AO2 SLP097 $,M
MEV,2021-12-24 00:15,-119.7500,38.9963,1441.42,33.80,33.80,100.00,170.00,6.00,0.00,29.69,M,6.00,M,SCT,BKN,OVC,M,1400.00,2500.00,3100.00,M,UP BR,M,M,M,M,M,M,27.70,KMEV 240015Z AUTO 17006KT 6SM UP BR SCT014 BKN025 OVC031 01/01 A2969 RMK AO2,M
BAM,2021-12-24 00:15,-116.8743,40.5990,1382.36,39.20,33.80,80.79,210.00,18.00,0.00,29.63,M,10.00,23.00,SCT,SCT,OVC,M,3400.00,4600.00,11000.00,M,M,M,M,M,M,M,M,29.23,KBAM 240015Z AUTO 21018G23KT 10SM SCT034 SCT046 OVC110 04/01 A2963 RMK AO1,M
INS,2021-12-24 00:16,-115.6733,36.5872,955.00,46.40,42.80,87.19,100.00,11.00,0.00,29.78,1007.60,10.00,M,FEW,BKN,M,M,5000.00,6500.00,M,M,M,M,M,M,M,M,M,40.66,KINS 240016Z AUTO 10011KT 10SM FEW050 BKN065 08/06 A2978 RMK AO2 RAE16RAB16 SLP076 VISNO RWY08 $,M
TPH,2021-12-24 00:19,-117.0904,38.0505,1654.00,37.00,37.00,100.00,0.00,0.00,0.00,29.71,M,4.00,M,OVC,M,M,M,200.00,M,M,M,BR,M,M,M,M,M,M,37.00,KTPH 240019Z AUTO 00000KT 4SM BR OVC002 03/03 A2971 RMK AO2 T00280028,M
INS,2021-12-24 00:21,-115.6733,36.5872,955.00,46.40,42.80,87.19,100.00,12.00,0.00,29.78,1007.60,10.00,M,FEW,SCT,M,M,5000.00,6500.00,M,M,M,M,M,M,M,M,M,40.33,KINS 240021Z AUTO 10012KT 10SM FEW050 SCT065 08/06 A2978 RMK AO2 RAE16RAB16E16 SLP076 VISNO RWY08 $,M
LSV,2021-12-24 00:22,-115.0343,36.2362,570.00,51.80,48.20,87.47,40.00,6.00,0.00,29.83,1009.80,10.00,M,SCT,BKN,M,M,4800.00,6000.00,M,M,-RA,M,M,M,M,M,M,51.80,KLSV 240022Z AUTO 04006KT 10SM -RA SCT048 BKN060 11/09 A2983 RMK AO2 SLP098 $,M
CXP,2021-12-24 00:30,-119.7326,39.1923,1431.00,33.80,33.80,100.00,350.00,4.00,0.00,29.70,M,2.00,M,BKN,BKN,M,M,600.00,1100.00,M,M,-SN,M,M,M,M,M,M,29.52,KCXP 240030Z AUTO 35004KT 2SM -SN BKN006 BKN011 01/01 A2970 RMK AO2,M
05U,2021-12-24 00:35,-116.0051,39.6042,1811.23,33.80,32.00,93.03,0.00,0.00,0.00,29.73,M,0.25,M,OVC,M,M,M,200.00,M,M,M,FG,M,M,M,M,M,M,33.80,K05U 240035Z AUTO 00000KT 1/4SM FG OVC002 01/00 A2973 RMK A01,M
MEV,2021-12-24 00:35,-119.7500,38.9963,1441.42,33.80,33.80,100.00,150.00,3.00,0.00,29.69,M,7.00,M,SCT,SCT,OVC,M,1300.00,1900.00,2600.00,M,UP,M,M,M,M,M,M,30.75,KMEV 240035Z AUTO 15003KT 7SM UP SCT013 SCT019 OVC026 01/01 A2969 RMK AO2,M
BAM,2021-12-24 00:35,-116.8743,40.5990,1382.36,39.20,33.80,80.79,230.00,15.00,0.00,29.64,M,10.00,M,OVC,M,M,M,11000.00,M,M,M,M,M,M,M,M,M,M,30.11,KBAM 240035Z AUTO 23015KT 10SM OVC110 04/01 A2964 RMK AO1,M
HTH,2021-12-24 00:35,-118.6315,38.5448,1282.89,37.40,35.60,93.14,150.00,7.00,0.00,29.73,M,10.00,M,BKN,BKN,OVC,M,1700.00,2700.00,6000.00,M,M,M,M,M,M,M,M,31.36,KHTH 240035Z AUTO 15007KT 10SM BKN017 BKN027 OVC060 03/02 A2973 RMK A01,M
TMT,2021-12-24 00:35,-117.1971,39.4643,1749.34,32.00,32.00,100.00,220.00,6.00,0.03,29.74,M,1.25,M,OVC,M,M,M,1200.00,M,M,M,-SN,M,M,M,M,M,M,25.53,KTMT 240035Z AUTO 22006KT 1 1/4SM -SN OVC012 00/00 A2974 RMK AO2 P0003 T00000000,M
RTS,2021-12-24 00:35,-119.8764,39.6682,1539.00,33.80,32.00,93.03,90.00,5.00,0.00,29.66,M,10.00,M,BKN,BKN,BKN,M,4100.00,4600.00,5000.00,M,M,M,M,M,M,M,M,28.53,KRTS 240035Z AUTO 09005KT 10SM BKN041 BKN046 BKN050 01/00 A2966 RMK AO2,M
LSV,2021-12-24 00:39,-115.0343,36.2362,570.00,51.80,50.00,93.55,40.00,5.00,0.00,29.81,1009.10,10.00,M,FEW,M,M,M,4900.00,M,M,M,M,M,M,M,M,M,M,51.80,KLSV 240039Z AUTO 04005KT 10SM FEW049 11/10 A2981 RMK AO2 RAE39 PRESFR SLP091 $,M
05U,2021-12-24 00:50,-116.0051,39.6042,1811.23,33.80,32.00,93.03,0.00,0.00,0.00,29.74,M,0.75,M,OVC,M,M,M,200.00,M,M,M,BR,M,M,M,M,M,M,33.80,K05U 240050Z AUTO 00000KT 3/4SM BR OVC002 01/00 A2974 RMK A01,M
VGT,2021-12-24 00:53,-115.1933,36.2111,667.00,52.00,44.00,74.35,70.00,11.00,0.01,29.80,1010.60,10.00,M,BKN,OVC,M,M,5000.00,7000.00,M,M,-RA,M,M,M,M,M,M,52.00,KVGT 240053Z 07011KT 10SM -RA BKN050 OVC070 11/07 A2980 RMK AO2 SLP106 P0001 T01110067,M
DRA,2021-12-24 00:53,-116.0278,36.6206,1009.00,52.00,43.00,71.28,200.00,21.00,T,29.74,1005.70,10.00,32.00,FEW,OVC,M,M,4000.00,7000.00,M,M,-RA,M,M,M,38.00,210.00,2021-12-24 00:01,52.00,KDRA 240053Z AUTO 20021G32KT 10SM -RA FEW040 OVC070 11/06 A2974 RMK AO2 PK WND 21038/0001 SLP057 P0000 T01110061,M
LOL,2021-12-24 00:53,-118.5701,40.0684,1192.43,39.00,36.00,88.87,190.00,6.00,0.00,29.67,1005.80,10.00,M,BKN,OVC,M,M,1900.00,2400.00,M,M,M,M,M,M,M,M,M,33.96,KLOL 240053Z AUTO 19006KT 10SM BKN019 OVC024 04/02 A2967 RMK AO2 SLP058 T00390022,M
ELY,2021-12-24 00:53,-114.8453,39.2950,1909.00,36.00,33.00,89.09,190.00,13.00,T,29.65,1002.40,10.00,M,FEW,BKN,OVC,M,2000.00,2700.00,3200.00,M,M,M,M,M,28.00,180.00,2021-12-24 00:15,26.69,KELY 240053Z AUTO 19013KT 10SM FEW020 BKN027 OVC032 02/01 A2965 RMK AO2 PK WND 18028/0015 RAE53 SLP024 P0000 T00220006 $,M
EKO,2021-12-24 00:54,-115.7860,40.8242,1367.00,37.40,32.00,80.65,230.00,7.97,M,29.63,M,10.00,M,BKN,OVC,M,M,2598.00,3599.00,M,M,M,M,M,M,M,M,M,30.78,SPECI KEKO 240054Z 23008KT 10SM BKN026 OVC036 03/00 A2963 RMK AO2 RAE06UPB06E09B34E45 P0000 FIBI,M
BAM,2021-12-24 00:55,-116.8743,40.5990,1382.36,39.20,32.00,75.16,220.00,16.00,0.00,29.64,M,10.00,M,OVC,M,M,M,10000.00,M,M,M,M,M,M,M,M,M,M,29.80,KBAM 240055Z AUTO 22016KT 10SM OVC100 04/00 A2964 RMK AO1,M
HTH,2021-12-24 00:55,-118.6315,38.5448,1282.89,37.40,35.60,93.14,0.00,0.00,0.00,29.73,M,10.00,M,SCT,BKN,OVC,M,1700.00,3600.00,4800.00,M,M,M,M,M,M,M,M,37.40,KHTH 240055Z AUTO 00000KT 10SM SCT017 BKN036 OVC048 03/02 A2973 RMK A01,M
TMT,2021-12-24 00:55,-117.1971,39.4643,1749.34,32.00,32.00,100.00,210.00,3.00,0.05,29.74,M,1.75,M,OVC,M,M,M,1200.00,M,M,M,-SN,M,M,M,M,M,M,28.69,KTMT 240055Z AUTO 21003KT 1 3/4SM -SN OVC012 00/00 A2974 RMK AO2 P0005 T00000000,M
RNO,2021-12-24 00:55,-119.7711,39.4839,1341.00,36.00,33.00,89.09,M,3.00,0.00,29.65,1003.10,10.00,M,FEW,FEW,SCT,BKN,200.00,2800.00,5000.00,13000.00,M,M,M,M,M,M,M,33.26,KRNO 240055Z VRB03KT 10SM FEW002 FEW028 SCT050 BKN130 02/01 A2965 RMK AO2 SLP031 MTN TOPS OBSCD S THRU W T00220006,M
CXP,2021-12-24 00:55,-119.7326,39.1923,1431.00,33.80,33.80,100.00,M,4.00,0.00,29.69,M,2.50,M,FEW,BKN,BKN,M,400.00,1200.00,3400.00,M,-RA,M,M,M,M,M,M,29.52,KCXP 240055Z AUTO VRB04KT 2 1/2SM -RA FEW004 BKN012 BKN034 01/01 A2969 RMK AO2,M
RTS,2021-12-24 00:55,-119.8764,39.6682,1539.00,33.80,32.00,93.03,100.00,4.00,0.00,29.65,M,10.00,M,SCT,BKN,BKN,M,3800.00,4500.00,5000.00,M,M,M,M,M,M,M,M,29.52,KRTS 240055Z AUTO 10004KT 10SM SCT038 BKN045 BKN050 01/00 A2965 RMK AO2,M
BVU,2021-12-24 00:55,-114.8611,35.9475,671.00,53.60,42.80,66.70,160.00,5.00,0.00,29.84,M,10.00,M,FEW,BKN,OVC,M,4700.00,6000.00,7500.00,M,M,M,M,M,M,M,M,53.60,KBVU 240055Z AUTO 16005KT 10SM FEW047 BKN060 OVC075 12/06 A2984 RMK AO2,M
MEV,2021-12-24 00:55,-119.7500,38.9963,1441.42,35.60,33.80,93.08,70.00,5.00,0.03,29.67,M,10.00,M,BKN,OVC,M,M,2100.00,2700.00,M,M,UP,M,M,M,M,M,M,30.67,KMEV 240055Z AUTO 07005KT 10SM UP BKN021 OVC027 02/01 A2967 RMK AO2 P0003,M
EKO,2021-12-24 00:56,-115.7860,40.8242,1367.00,37.00,32.00,81.93,230.00,8.00,T,29.63,1004.60,10.00,M,BKN,OVC,M,M,2600.00,3600.00,M,M,M,M,M,M,M,M,M,30.27,KEKO 240056Z AUTO 23008KT 10SM BKN026 OVC036 03/00 A2963 RMK AO2 RAE06UPB06E09B34E45 SLP046 P0000 T00280000,M
NFL,2021-12-24 00:56,-118.7010,39.4166,1199.00,39.00,36.00,88.87,150.00,11.00,T,29.67,1002.90,10.00,M,SCT,BKN,OVC,M,3000.00,5000.00,7000.00,M,M,M,M,M,M,M,M,31.31,KNFL 240056Z 15011KT 10SM SCT030 BKN050 OVC070 04/02 A2967 RMK AO2 RAB03E15 SLP029 P0000 T00390022,M
LAS,2021-12-24 00:56,-115.1634,36.0719,663.00,56.00,47.00,71.69,180.00,7.00,0.01,29.81,1008.90,10.00,M,FEW,SCT,OVC,M,4800.00,5500.00,7000.00,M,M,M,M,M,M,M,M,55.90,KLAS 240056Z 18007KT 10SM FEW048 SCT055 OVC070 13/08 A2981 RMK AO2 RAE35 SLP089 P0001 T01330083,M
TPH,2021-12-24 00:56,-117.0904,38.0505,1654.00,38.00,38.00,100.00,210.00,5.00,0.00,29.70,1005.40,6.00,M,OVC,M,M,M,200.00,M,M,M,BR,M,M,M,M,M,M,33.40,KTPH 240056Z AUTO 21005KT 6SM BR OVC002 03/03 A2970 RMK AO2 SLP054 T00330033,M
HND,2021-12-24 00:56,-115.1344,35.9729,742.79,53.00,47.00,79.40,180.00,12.00,0.01,29.83,1011.70,10.00,M,SCT,OVC,M,M,9000.00,11000.00,M,M,-RA,M,M,M,M,M,M,53.10,KHND 240056Z 18012KT 10SM -RA SCT090 OVC110 12/08 A2983 RMK AO2 SLP117 P0001 T01170083,M
WMC,2021-12-24 00:56,-117.8072,40.9019,1315.00,38.00,33.00,82.66,170.00,10.00,0.00,29.61,1002.90,10.00,M,BKN,OVC,M,M,3600.00,5000.00,M,M,M,M,M,M,M,M,M,30.37,KWMC 240056Z AUTO 17010KT 10SM BKN036 OVC050 03/01 A2961 RMK AO2 SLP029 T00330006,M
LSV,2021-12-24 00:58,-115.0343,36.2362,570.00,52.20,49.60,90.82,20.00,7.00,T,29.80,1008.80,10.00,M,CLR,M,M,M,M,M,M,M,M,M,M,M,M,M,M,52.20,KLSV 240058Z AUTO 02007KT 10SM CLR 11/10 A2980 RMK AO2 RAE39 SLP088 P0000 T01120098 $,M
INS,2021-12-24 00:58,-115.6733,36.5872,955.00,46.40,44.40,92.69,120.00,9.00,0.01,29.77,1007.50,10.00,M,SCT,M,M,M,6500.00,M,M,M,M,M,M,M,M,M,M,41.42,KINS 240058Z AUTO 12009KT 10SM SCT065 08/07 A2977 RMK AO2 RAE16RAB16E16 SLP075 P0001 T00800069 VISNO RWY08 $,M
CXP,2021-12-24 01:10,-119.7326,39.1923,1431.00,33.80,33.80,100.00,0.00,0.00,0.00,29.69,M,5.00,M,BKN,BKN,BKN,M,1000.00,3200.00,4000.00,M,-RA,M,M,M,M,M,M,33.80,KCXP 240110Z AUTO 00000KT 5SM -RA BKN010 BKN032 BKN040 01/01 A2969 RMK AO2,M
BVU,2021-12-24 01:15,-114.8611,35.9475,671.00,53.60,44.60,71.45,140.00,5.00,0.00,29.84,M,10.00,M,FEW,BKN,OVC,M,4100.00,7000.00,8500.00,M,M,M,M,M,M,M,M,53.60,KBVU 240115Z AUTO 14005KT 10SM FEW041 BKN070 OVC085 12/07 A2984 RMK AO2,M
MEV,2021-12-24 01:15,-119.7500,38.9963,1441.42,35.60,33.80,93.08,100.00,6.00,0.00,29.67,M,10.00,M,FEW,SCT,BKN,M,2100.00,2800.00,4300.00,M,UP,M,M,M,M,M,M,29.87,KMEV 240115Z AUTO 10006KT 10SM UP FEW021 SCT028 BKN043 02/01 A2967 RMK AO2,M
BAM,2021-12-24 01:15,-116.8743,40.5990,1382.36,37.40,32.00,80.65,240.00,16.00,0.00,29.65,M,10.00,20.00,OVC,M,M,M,10000.00,M,M,M,M,M,M,M,M,M,M,27.46,KBAM 240115Z AUTO 24016G20KT 10SM OVC100 03/00 A2965 RMK AO1,M
HTH,2021-12-24 01:15,-118.6315,38.5448,1282.89,37.40,35.60,93.14,40.00,5.00,0.00,29.73,M,10.00,M,SCT,BKN,OVC,M,3700.00,4200.00,4800.00,M,M,M,M,M,M,M,M,32.81,KHTH 240115Z AUTO 04005KT 10SM SCT037 BKN042 OVC048 03/02 A2973 RMK A01,M
TMT,2021-12-24 01:15,-117.1971,39.4643,1749.34,32.00,32.00,100.00,190.00,3.00,0.01,29.72,M,1.50,M,OVC,M,M,M,1200.00,M,M,M,-SN,M,M,M,M,M,M,28.69,KTMT 240115Z AUTO 19003KT 1 1/2SM -SN OVC012 00/00 A2972 RMK AO2 P0001 T00000000,M
05U,2021-12-24 01:15,-116.0051,39.6042,1811.23,32.00,32.00,100.00,0.00,0.00,0.00,29.73,M,0.50,M,OVC,M,M,M,200.00,M,M,M,BR,M,M,M,M,M,M,32.00,K05U 240115Z AUTO 00000KT 1/2SM BR OVC002 00/00 A2973 RMK A01,M
RTS,2021-12-24 01:15,-119.8764,39.6682,1539.00,33.80,32.00,93.03,M,3.00,0.00,29.64,M,10.00,M,FEW,SCT,SCT,M,3800.00,6500.00,7500.00,M,M,M,M,M,M,M,M,30.75,KRTS 240115Z AUTO VRB03KT 10SM FEW038 SCT065 SCT075 01/M00 A2964 RMK AO2,M
LOL,2021-12-24 01:35,-118.5701,40.0684,1192.43,38.00,36.00,92.78,220.00,5.00,0.00,29.64,M,10.00,M,SCT,BKN,M,M,1700.00,3300.00,M,M,M,M,M,M,M,M,M,33.40,KLOL 240135Z AUTO 22005KT 10SM SCT017 BKN033 03/02 A2964 RMK AO2 T00330022,M
CXP,2021-12-24 01:35,-119.7326,39.1923,1431.00,35.60,35.60,100.00,0.00,0.00,0.00,29.68,M,9.00,M,BKN,BKN,OVC,M,700.00,1000.00,2800.00,M,M,M,M,M,M,M,M,35.60,KCXP 240135Z AUTO 00000KT 9SM BKN007 BKN010 OVC028 02/02 A2968 RMK AO2,M
BVU,2021-12-24 01:35,-114.8611,35.9475,671.00,53.60,46.40,76.50,80.00,3.00,0.00,29.83,M,10.00,M,FEW,OVC,M,M,7000.00,8500.00,M,M,M,M,M,M,M,M,M,53.60,KBVU 240135Z AUTO 08003KT 10SM FEW070 OVC085 12/08 A2983 RMK AO2,M
MEV,2021-12-24 01:35,-119.7500,38.9963,1441.42,37.40,33.80,86.69,130.00,4.00,0.00,29.67,M,10.00,M,SCT,BKN,OVC,M,3500.00,4400.00,5000.00,M,M,M,M,M,M,M,M,33.73,KMEV 240135Z AUTO 13004KT 10SM SCT035 BKN044 OVC050 03/01 A2967 RMK AO2,M
BAM,2021-12-24 01:35,-116.8743,40.5990,1382.36,37.40,33.80,86.69,230.00,15.00,0.00,29.64,M,10.00,M,OVC,M,M,M,10000.00,M,M,M,M,M,M,M,M,M,M,27.78,KBAM 240135Z AUTO 23015KT 10SM OVC100 03/01 A2964 RMK AO1,M
HTH,2021-12-24 01:35,-118.6315,38.5448,1282.89,35.60,35.60,100.00,50.00,7.00,0.00,29.73,M,10.00,M,FEW,SCT,BKN,M,2400.00,2800.00,3300.00,M,M,M,M,M,M,M,M,29.17,KHTH 240135Z AUTO 05007KT 10SM FEW024 SCT028 BKN033 02/02 A2973 RMK A01,M
TMT,2021-12-24 01:35,-117.1971,39.4643,1749.34,32.00,32.00,100.00,0.00,0.00,0.01,29.70,M,10.00,M,SCT,BKN,OVC,M,1200.00,2600.00,4300.00,M,-SN,M,M,M,M,M,M,32.00,KTMT 240135Z AUTO 00000KT 10SM -SN SCT012 BKN026 OVC043 00/00 A2970 RMK AO2 P0001 T00000000,M
05U,2021-12-24 01:35,-116.0051,39.6042,1811.23,32.00,32.00,100.00,0.00,0.00,0.00,29.73,M,0.50,M,OVC,M,M,M,200.00,M,M,M,BR,M,M,M,M,M,M,32.00,K05U 240135Z AUTO 00000KT 1/2SM BR OVC002 00/00 A2973 RMK A01,M
RTS,2021-12-24 01:35,-119.8764,39.6682,1539.00,32.00,30.20,92.97,340.00,5.00,0.00,29.64,M,10.00,M,FEW,SCT,BKN,M,3000.00,4200.00,4800.00,M,M,M,M,M,M,M,M,26.40,KRTS 240135Z AUTO 34005KT 10SM FEW030 SCT042 BKN048 00/M01 A2964 RMK AO2,M
EKO,2021-12-24 01:36,-115.7860,40.8242,1367.00,36.00,32.00,85.23,220.00,7.00,0.00,29.64,M,10.00,M,BKN,OVC,M,M,3000.00,3900.00,M,M,M,M,M,M,M,M,M,29.65,KEKO 240136Z AUTO 22007KT 10SM BKN030 OVC039 02/00 A2964 RMK AO2 T00220000,M
TPH,2021-12-24 01:43,-117.0904,38.0505,1654.00,34.00,33.00,96.46,300.00,9.00,0.02,29.71,M,6.00,M,SCT,BKN,OVC,M,400.00,1300.00,1900.00,M,-RA BR,M,M,M,M,M,M,26.00,KTPH 240143Z AUTO 30009KT 6SM -RA BR SCT004 BKN013 OVC019 01/01 A2971 RMK AO2 WSHFT 0127 RAB05 P0002 T00110006,M
EKO,2021-12-24 01:46,-115.7860,40.8242,1367.00,36.00,32.00,85.23,220.00,5.00,0.00,29.63,M,10.00,M,BKN,OVC,M,M,2900.00,4100.00,M,M,M,M,M,M,M,M,M,31.15,KEKO 240146Z AUTO 22005KT 10SM BKN029 OVC041 02/00 A2963 RMK AO2 T00220000,M
05U,2021-12-24 01:50,-116.0051,39.6042,1811.23,32.00,32.00,100.00,0.00,0.00,0.00,29.72,M,0.75,M,OVC,M,M,M,200.00,M,M,M,BR,M,M,M,M,M,M,32.00,K05U 240150Z AUTO 00000KT 3/4SM BR OVC002 00/00 A2972 RMK A01,M
DRA,2021-12-24 01:53,-116.0278,36.6206,1009.00,53.00,43.00,68.46,200.00,21.00,T,29.72,1004.70,10.00,39.00,FEW,SCT,M,M,3400.00,12000.00,M,M,M,M,M,M,41.00,230.00,2021-12-24 01:12,53.10,KDRA 240153Z AUTO 20021G39KT 10SM FEW034 SCT120 12/06 A2972 RMK AO2 PK WND 23041/0112 RAE02 SLP047 P0000 T01170061,M
VGT,2021-12-24 01:53,-115.1933,36.2111,667.00,54.00,46.00,74.26,100.00,8.00,T,29.80,1010.60,10.00,M,BKN,OVC,M,M,4900.00,10000.00,M,M,M,M,M,M,M,M,M,54.00,KVGT 240153Z 10008KT 10SM BKN049 OVC100 12/08 A2980 RMK AO2 RAE0058 SLP106 P0000 T01220078,M
ELY,2021-12-24 01:53,-114.8453,39.2950,1909.00,36.00,34.00,92.35,180.00,12.00,0.01,29.65,1002.40,9.00,M,FEW,BKN,OVC,M,1300.00,2600.00,3000.00,M,-RA,M,M,M,M,M,M,27.09,KELY 240153Z AUTO 18012KT 9SM -RA FEW013 BKN026 OVC030 02/01 A2965 RMK AO2 RAB11 SLP024 P0001 T00220011 $,M
LOL,2021-12-24 01:53,-118.5701,40.0684,1192.43,38.00,36.00,92.78,210.00,6.00,0.00,29.64,1004.70,10.00,M,CLR,M,M,M,M,M,M,M,M,M,M,M,M,M,M,32.64,KLOL 240153Z AUTO 21006KT 10SM CLR 03/02 A2964 RMK AO2 SLP047 T00330022,M
EKO,2021-12-24 01:54,-115.7860,40.8242,1367.00,37.40,32.00,80.65,M,2.92,M,29.62,M,10.00,M,SCT,BKN,OVC,M,3100.00,4901.00,7001.00,M,M,M,M,M,M,M,M,34.97,SPECI KEKO 240154Z VRB03KT 10SM SCT031 BKN049 OVC070 03/00 A2962 RMK AO2 FIBI,M
TMT,2021-12-24 01:55,-117.1971,39.4643,1749.34,32.00,32.00,100.00,0.00,0.00,0.01,29.70,M,10.00,M,BKN,OVC,M,M,3700.00,4300.00,M,M,M,M,M,M,M,M,M,32.00,KTMT 240155Z AUTO 00000KT 10SM BKN037 OVC043 00/00 A2970 RMK AO2 P0001 T00000000,M
CXP,2021-12-24 01:55,-119.7326,39.1923,1431.00,35.60,35.60,100.00,350.00,4.00,0.00,29.68,M,10.00,M,BKN,OVC,M,M,700.00,2800.00,M,M,M,M,M,M,M,M,M,31.62,KCXP 240155Z AUTO 35004KT 10SM BKN007 OVC028 02/02 A2968 RMK AO2,M
HTH,2021-12-24 01:55,-118.6315,38.5448,1282.89,35.60,35.60,100.00,100.00,4.00,0.00,29.73,M,8.00,M,SCT,OVC,M,M,2300.00,2800.00,M,M,M,M,M,M,M,M,M,31.62,KHTH 240155Z AUTO 10004KT 8SM SCT023 OVC028 02/02 A2973 RMK A01,M
BAM,2021-12-24 01:55,-116.8743,40.5990,1382.36,37.40,33.80,86.69,240.00,18.00,0.00,29.63,M,10.00,22.00,OVC,M,M,M,10000.00,M,M,M,M,M,M,M,M,M,M,26.86,KBAM 240155Z AUTO 24018G22KT 10SM OVC100 03/01 A2963 RMK AO1,M
BVU,2021-12-24 01:55,-114.8611,35.9475,671.00,55.40,44.60,66.91,210.00,6.00,0.00,29.83,M,10.00,M,SCT,OVC,M,M,7500.00,9000.00,M,M,M,M,M,M,M,M,M,55.40,KBVU 240155Z AUTO 21006KT 10SM SCT075 OVC090 13/07 A2983 RMK AO2,M
RNO,2021-12-24 01:55,-119.7711,39.4839,1341.00,39.00,32.00,75.75,180.00,8.00,0.00,29.63,1002.70,10.00,M,FEW,FEW,SCT,M,3000.00,6000.00,16000.00,M,M,M,M,M,M,M,M,32.74,KRNO 240155Z 18008KT 10SM FEW030 FEW060 SCT160 04/00 A2963 RMK AO2 SLP027 T00390000,M
RTS,2021-12-24 01:55,-119.8764,39.6682,1539.00,35.60,32.00,86.59,230.00,9.00,0.00,29.64,M,10.00,M,FEW,SCT,BKN,M,3200.00,4100.00,4900.00,M,M,M,M,M,M,M,M,27.99,KRTS 240155Z AUTO 23009KT 10SM FEW032 SCT041 BKN049 02/M00 A2964 RMK AO2,M
MEV,2021-12-24 01:55,-119.7500,38.9963,1441.42,35.60,33.80,93.08,0.00,0.00,0.00,29.67,M,10.00,M,FEW,SCT,OVC,M,3600.00,4300.00,5500.00,M,M,M,M,M,M,M,M,35.60,KMEV 240155Z AUTO 00000KT 10SM FEW036 SCT043 OVC055 02/01 A2967 RMK AO2,M
TPH,2021-12-24 01:56,-117.0904,38.0505,1654.00,35.00,34.00,95.71,330.00,9.00,0.03,29.72,1006.20,8.00,M,FEW,SCT,OVC,M,500.00,1300.00,2100.00,M,-RA,M,M,M,M,M,M,27.37,KTPH 240156Z AUTO 33009KT 8SM -RA FEW005 SCT013 OVC021 02/01 A2972 RMK AO2 WSHFT 0127 RAB05 SLP062 P0003 T00170011,M
HND,2021-12-24 01:56,-115.1344,35.9729,742.79,53.00,47.00,79.40,200.00,15.00,T,29.83,1011.50,10.00,M,BKN,BKN,M,M,8500.00,11000.00,M,M,-RA,M,M,M,M,M,M,53.10,KHND 240156Z 20015KT 10SM -RA BKN085 BKN110 12/08 A2983 RMK AO2 RAE12B51 SLP115 P0000 T01170083,M
WMC,2021-12-24 01:56,-117.8072,40.9019,1315.00,37.00,33.00,85.64,160.00,11.00,0.00,29.62,1003.30,10.00,M,OVC,M,M,M,3700.00,M,M,M,M,M,M,M,M,M,M,28.79,KWMC 240156Z AUTO 16011KT 10SM OVC037 03/01 A2962 RMK AO2 SLP033 T00280006,M
LAS,2021-12-24 01:56,-115.1634,36.0719,663.00,55.00,47.00,74.08,190.00,12.00,0.00,29.80,1008.60,10.00,22.00,FEW,BKN,OVC,M,5000.00,9000.00,11000.00,M,M,M,M,M,M,M,M,55.00,KLAS 240156Z 19012G22KT 10SM FEW050 BKN090 OVC110 13/08 A2980 RMK AO2 SLP086 T01280083,M
NFL,2021-12-24 01:56,-118.7010,39.4166,1199.00,39.00,35.00,85.76,170.00,14.00,0.00,29.66,1002.80,10.00,M,SCT,BKN,OVC,M,3000.00,5000.00,7000.00,M,M,M,M,M,M,M,M,30.19,KNFL 240156Z 17014KT 10SM SCT030 BKN050 OVC070 04/02 A2966 RMK AO2 SLP028 T00390017,M
EKO,2021-12-24 01:56,-115.7860,40.8242,1367.00,36.00,30.90,81.53,0.00,0.00,0.00,29.62,1003.80,10.00,M,FEW,BKN,OVC,M,3100.00,4900.00,7000.00,M,M,M,M,M,M,M,M,36.00,KEKO 240156Z AUTO 00000KT 10SM FEW031 BKN049 OVC070 02/M01 A2962 RMK AO2 SLP038 T00221006,M
LSV,2021-12-24 01:58,-115.0343,36.2362,570.00,56.30,49.50,77.90,200.00,9.00,0.00,29.79,1008.30,10.00,M,SCT,M,M,M,6000.00,M,M,M,M,M,M,M,M,M,M,56.30,KLSV 240158Z AUTO 20009KT 10SM SCT060 14/10 A2979 RMK AO2 SLP083 T01350097 $,M
INS,2021-12-24 01:58,-115.6733,36.5872,955.00,46.80,44.60,92.00,100.00,10.00,0.00,29.74,1006.40,10.00,M,CLR,M,M,M,M,M,M,M,M,M,M,M,M,M,M,41.53,KINS 240158Z AUTO 10010KT 10SM CLR 08/07 A2974 RMK AO2 SLP064 T00820070 VISNO RWY08 $,M
05U,2021-12-24 02:10,-116.0051,39.6042,1811.23,32.00,32.00,100.00,0.00,0.00,0.00,29.72,M,1.25,M,OVC,M,M,M,200.00,M,M,M,BR,M,M,M,M,M,M,32.00,K05U 240210Z AUTO 00000KT 1 1/4SM BR OVC002 00/00 A2972 RMK A01,M
MEV,2021-12-24 02:15,-119.7500,38.9963,1441.42,35.60,32.00,86.59,130.00,8.00,0.00,29.66,M,10.00,M,FEW,SCT,OVC,M,2700.00,4800.00,5500.00,M,M,M,M,M,M,M,M,28.55,KMEV 240215Z AUTO 13008KT 10SM FEW027 SCT048 OVC055 02/00 A2966 RMK AO2,M
TMT,2021-12-24 02:15,-117.1971,39.4643,1749.34,32.20,32.20,100.00,0.00,0.00,0.00,29.71,M,10.00,M,SCT,BKN,OVC,M,2300.00,3000.00,3800.00,M,M,M,M,M,M,M,M,32.20,KTMT 240215Z AUTO 00000KT 10SM SCT023 BKN030 OVC038 00/00 A2971 RMK AO2 T00010001,M
RTS,2021-12-24 02:15,-119.8764,39.6682,1539.00,37.40,28.40,69.67,240.00,12.00,0.00,29.63,M,10.00,25.00,FEW,SCT,SCT,M,3300.00,4100.00,5000.00,M,M,M,M,M,M,M,M,28.87,KRTS 240215Z AUTO 24012G25KT 10SM FEW033 SCT041 SCT050 03/M02 A2963 RMK AO2,M
BVU,2021-12-24 02:15,-114.8611,35.9475,671.00,53.60,46.40,76.50,200.00,5.00,0.00,29.83,M,10.00,11.00,FEW,SCT,OVC,M,4800.00,5500.00,7000.00,M,M,M,M,M,M,M,M,53.60,KBVU 240215Z AUTO 20005G11KT 10SM FEW048 SCT055 OVC070 12/08 A2983 RMK AO2,M
HTH,2021-12-24 02:15,-118.6315,38.5448,1282.89,35.60,35.60,100.00,180.00,4.00,0.00,29.73,M,10.00,M,SCT,BKN,OVC,M,2300.00,2800.00,4900.00,M,M,M,M,M,M,M,M,31.62,KHTH 240215Z AUTO 18004KT 10SM SCT023 BKN028 OVC049 02/02 A2973 RMK A01,M
BAM,2021-12-24 02:15,-116.8743,40.5990,1382.36,37.40,33.80,86.69,230.00,21.00,0.00,29.60,M,10.00,26.00,OVC,M,M,M,11000.00,M,M,M,M,M,M,M,M,M,M,26.06,KBAM 240215Z AUTO 23021G26KT 10SM OVC110 03/01 A2960 RMK AO1,M
CXP,2021-12-24 02:15,-119.7326,39.1923,1431.00,35.60,33.80,93.08,0.00,0.00,0.00,29.68,M,10.00,M,BKN,BKN,OVC,M,800.00,2900.00,4600.00,M,M,M,M,M,M,M,M,35.60,KCXP 240215Z AUTO 00000KT 10SM BKN008 BKN029 OVC046 02/01 A2968 RMK AO2,M
ELY,2021-12-24 02:20,-114.8453,39.2950,1909.00,35.00,33.00,92.32,360.00,11.00,0.01,29.68,M,7.00,17.00,FEW,BKN,OVC,M,700.00,1300.00,2400.00,M,-RA,M,M,M,M,M,M,26.38,KELY 240220Z AUTO 36011G17KT 7SM -RA FEW007 BKN013 OVC024 02/01 A2968 RMK AO2 PRESRR P0001 T00170006 $,M
LOL,2021-12-24 02:25,-118.5701,40.0684,1192.43,39.00,36.00,88.87,M,3.00,0.00,29.66,M,10.00,M,BKN,M,M,M,800.00,M,M,M,M,M,M,M,M,M,M,36.69,KLOL 240225Z AUTO VRB03KT 10SM BKN008 04/02 A2966 RMK AO2 CIG 007V010 T00390022,M
ELY,2021-12-24 02:30,-114.8453,39.2950,1909.00,32.00,32.00,100.00,360.00,7.00,0.03,29.68,M,1.75,M,SCT,BKN,OVC,M,600.00,1200.00,2200.00,M,-SN BR,M,M,M,M,M,M,24.78,KELY 240230Z AUTO 36007KT 1 3/4SM -SN BR SCT006 BKN012 OVC022 00/00 A2968 RMK AO2 RAE22SNB22 P0003 T00000000 $,M
MEV,2021-12-24 02:35,-119.7500,38.9963,1441.42,37.40,32.00,80.65,190.00,7.00,0.00,29.66,M,10.00,14.00,FEW,SCT,OVC,M,2800.00,3800.00,5000.00,M,M,M,M,M,M,M,M,31.36,KMEV 240235Z AUTO 19007G14KT 10SM FEW028 SCT038 OVC050 03/M00 A2966 RMK AO2,M
RTS,2021-12-24 02:35,-119.8764,39.6682,1539.00,35.60,30.20,80.51,270.00,6.00,0.00,29.63,M,10.00,M,SCT,M,M,M,3700.00,M,M,M,M,M,M,M,M,M,M,29.87,KRTS 240235Z AUTO 27006KT 10SM SCT037 02/M01 A2963 RMK AO2,M
CXP,2021-12-24 02:35,-119.7326,39.1923,1431.00,35.60,33.80,93.08,50.00,3.00,0.00,29.67,M,10.00,M,FEW,SCT,BKN,M,900.00,2600.00,3600.00,M,M,M,M,M,M,M,M,32.80,KCXP 240235Z AUTO 05003KT 10SM FEW009 SCT026 BKN036 02/01 A2967 RMK AO2,M
BVU,2021-12-24 02:35,-114.8611,35.9475,671.00,55.40,44.60,66.91,210.00,9.00,0.00,29.81,M,10.00,M,SCT,BKN,OVC,M,5500.00,7500.00,11000.00,M,M,M,M,M,M,M,M,55.40,KBVU 240235Z AUTO 21009KT 10SM SCT055 BKN075 OVC110 13/07 A2981 RMK AO2,M
ELY,2021-12-24 02:35,-114.8453,39.2950,1909.00,32.00,32.00,100.00,360.00,6.00,0.00,29.69,M,1.25,M,BKN,OVC,M,M,600.00,1200.00,M,M,-SN BR,M,M,M,M,M,M,25.53,KELY 240235Z AUTO 36006KT 1 1/4SM -SN BR BKN006 OVC012 00/00 A2969,M
HTH,2021-12-24 02:35,-118.6315,38.5448,1282.89,35.60,35.60,100.00,190.00,4.00,0.00,29.72,M,10.00,M,SCT,BKN,OVC,M,2300.00,3200.00,6000.00,M,M,M,M,M,M,M,M,31.62,KHTH 240235Z AUTO 19004KT 10SM SCT023 BKN032 OVC060 02/02 A2972 RMK A01,M
TMT,2021-12-24 02:35,-117.1971,39.4643,1749.34,32.50,32.40,99.60,210.00,5.00,0.00,29.71,M,10.00,M,SCT,SCT,OVC,M,2500.00,3200.00,6000.00,M,-RA,M,M,M,M,M,M,26.99,KTMT 240235Z AUTO 21005KT 10SM -RA SCT025 SCT032 OVC060 00/00 A2971 RMK AO2 T00030002,M
BAM,2021-12-24 02:35,-116.8743,40.5990,1382.36,37.40,33.80,86.69,250.00,17.00,0.00,29.61,M,10.00,23.00,SCT,M,M,M,12000.00,M,M,M,M,M,M,M,M,M,M,27.15,KBAM 240235Z AUTO 25017G23KT 10SM SCT120 03/01 A2961 RMK AO1,M
05U,2021-12-24 02:35,-116.0051,39.6042,1811.23,32.00,32.00,100.00,0.00,0.00,0.00,29.71,M,3.00,M,BKN,OVC,M,M,200.00,2800.00,M,M,BR,M,M,M,M,M,M,32.00,K05U 240235Z AUTO 00000KT 3SM BR BKN002 OVC028 00/00 A2971 RMK A01,M
TPH,2021-12-24 02:38,-117.0904,38.0505,1654.00,37.00,34.00,88.78,360.00,7.00,0.02,29.71,M,10.00,M,OVC,M,M,M,3000.00,M,M,M,-RA,M,M,M,M,M,M,30.87,KTPH 240238Z AUTO 36007KT 10SM -RA OVC030 03/01 A2971 RMK AO2 P0002 T00280011,M
TPH,2021-12-24 02:48,-117.0904,38.0505,1654.00,36.00,34.00,92.35,10.00,7.00,0.03,29.72,M,6.00,M,OVC,M,M,M,2600.00,M,M,M,-RA BR,M,M,M,M,M,M,29.65,KTPH 240248Z AUTO 01007KT 6SM -RA BR OVC026 02/01 A2972 RMK AO2 P0003 T00220011,M
LOL,2021-12-24 02:51,-118.5701,40.0684,1192.43,39.20,35.60,86.79,200.00,11.00,0.00,29.64,M,10.00,M,SCT,BKN,BKN,M,800.00,2200.00,9500.00,M,M,M,M,M,M,M,M,31.57,KLOL 240251Z AUTO 20011KT 10SM SCT008 BKN022 BKN095 04/02 A2964 RMK AO2,M
ELY,2021-12-24 02:53,-114.8453,39.2950,1909.00,32.00,32.00,100.00,330.00,8.00,0.09,29.70,1004.50,1.00,M,VV ,M,M,M,600.00,M,M,M,-SN BR,M,M,M,M,M,M,24.11,KELY 240253Z AUTO 33008KT 1SM -SN BR VV006 00/00 A2970 RMK AO2 RAE22SNB22 SLP045 P0009 60010 T00000000 53010 $,M
LOL,2021-12-24 02:53,-118.5701,40.0684,1192.43,39.00,36.00,88.87,200.00,10.00,0.00,29.64,1004.70,10.00,M,FEW,BKN,BKN,M,800.00,2200.00,9500.00,M,M,M,M,M,M,M,M,31.75,KLOL 240253Z AUTO 20010KT 10SM FEW008 BKN022 BKN095 04/02 A2964 RMK AO2 SLP047 T00390022 56008,M
VGT,2021-12-24 02:53,-115.1933,36.2111,667.00,56.00,47.00,71.69,150.00,14.00,T,29.76,1009.20,10.00,21.00,SCT,BKN,M,M,5000.00,11000.00,M,M,M,M,M,M,M,M,M,55.90,KVGT 240253Z 15014G21KT 10SM SCT050 BKN110 13/08 A2976 RMK AO2 RAB0159E16 SLP092 P0000 60001 T01330083 58020,M
DRA,2021-12-24 02:53,-116.0278,36.6206,1009.00,53.00,44.00,71.40,190.00,26.00,0.02,29.72,1004.90,10.00,40.00,BKN,BKN,OVC,M,3600.00,6000.00,7000.00,M,M,M,M,M,40.00,190.00,2021-12-24 02:52,53.10,KDRA 240253Z AUTO 19026G40KT 10SM BKN036 BKN060 OVC070 12/07 A2972 RMK AO2 PK WND 19040/0252 RAB34E51 SLP049 P0002 60002 T01170067 55012,M
BVU,2021-12-24 02:55,-114.8611,35.9475,671.00,53.60,44.60,71.45,220.00,7.00,0.00,29.80,M,10.00,M,FEW,SCT,OVC,M,7000.00,7500.00,11000.00,M,M,M,M,M,M,M,M,53.60,KBVU 240255Z AUTO 22007KT 10SM FEW070 SCT075 OVC110 12/07 A2980 RMK AO2,M
BAM,2021-12-24 02:55,-116.8743,40.5990,1382.36,37.40,33.80,86.69,250.00,15.00,0.00,29.61,M,10.00,21.00,SCT,M,M,M,12000.00,M,M,M,M,M,M,M,M,M,M,27.78,KBAM 240255Z AUTO 25015G21KT 10SM SCT120 03/01 A2961 RMK AO1,M
HTH,2021-12-24 02:55,-118.6315,38.5448,1282.89,35.60,35.60,100.00,150.00,6.00,0.00,29.72,M,10.00,M,FEW,BKN,OVC,M,2600.00,6000.00,12000.00,M,M,M,M,M,M,M,M,29.87,KHTH 240255Z AUTO 15006KT 10SM FEW026 BKN060 OVC120 02/02 A2972 RMK A01,M
TMT,2021-12-24 02:55,-117.1971,39.4643,1749.34,32.40,32.20,99.20,200.00,7.00,0.00,29.70,M,10.00,M,SCT,BKN,OVC,M,2300.00,3700.00,6000.00,M,-DZ,M,M,M,M,M,M,25.27,KTMT 240255Z AUTO 20007KT 10SM -DZ SCT023 BKN037 OVC060 00/00 A2970 RMK AO2 60006 T00020001,M
MEV,2021-12-24 02:55,-119.7500,38.9963,1441.42,37.40,32.00,80.65,150.00,12.00,0.00,29.66,M,10.00,M,BKN,OVC,M,M,4800.00,5500.00,M,M,M,M,M,M,M,M,M,28.87,KMEV 240255Z AUTO 15012KT 10SM BKN048 OVC055 03/00 A2966 RMK AO2,M
RNO,2021-12-24 02:55,-119.7711,39.4839,1341.00,41.00,30.00,64.63,140.00,8.00,0.00,29.61,1001.70,10.00,20.00,FEW,FEW,M,M,6000.00,16000.00,M,M,M,M,M,M,M,M,M,35.20,KRNO 240255Z 14008G20KT 10SM FEW060 FEW160 05/M01 A2961 RMK AO2 SLP017 T00501011 58014,M
CXP,2021-12-24 02:55,-119.7326,39.1923,1431.00,35.60,35.60,100.00,0.00,0.00,0.00,29.66,M,10.00,M,SCT,BKN,OVC,M,4000.00,4600.00,5500.00,M,M,M,M,M,M,M,M,35.60,KCXP 240255Z AUTO 00000KT 10SM SCT040 BKN046 OVC055 02/02 A2966 RMK AO2,M
RTS,2021-12-24 02:55,-119.8764,39.6682,1539.00,37.40,30.20,74.98,270.00,9.00,0.00,29.62,M,10.00,17.00,FEW,SCT,M,M,2300.00,3600.00,M,M,M,M,M,M,M,M,M,30.23,KRTS 240255Z AUTO 27009G17KT 10SM FEW023 SCT036 03/M01 A2962 RMK AO2,M
05U,2021-12-24 02:55,-116.0051,39.6042,1811.23,32.00,32.00,100.00,0.00,0.00,0.09,29.71,M,7.00,M,FEW,SCT,BKN,M,200.00,2200.00,2700.00,M,M,M,M,M,M,M,M,32.00,K05U 240255Z AUTO 00000KT 7SM FEW002 SCT022 BKN027 00/00 A2971 RMK A01 P0009,M
EKO,2021-12-24 02:56,-115.7860,40.8242,1367.00,36.00,30.90,81.53,160.00,6.00,0.00,29.58,1002.10,10.00,M,BKN,BKN,OVC,M,3300.00,7500.00,11000.00,M,M,M,M,M,M,M,M,30.35,KEKO 240256Z AUTO 16006KT 10SM BKN033 BKN075 OVC110 02/M01 A2958 RMK AO2 PRESFR SLP021 60000 T00221006 58015,M
LAS,2021-12-24 02:56,-115.1634,36.0719,663.00,54.00,47.00,76.83,190.00,7.00,0.00,29.77,1007.60,10.00,16.00,FEW,SCT,OVC,M,5000.00,8500.00,11000.00,M,M,M,M,M,M,M,M,54.00,KLAS 240256Z 19007G16KT 10SM FEW050 SCT085 OVC110 12/08 A2977 RMK AO2 SLP076 60001 T01220083 58021,M
HND,2021-12-24 02:56,-115.1344,35.9729,742.79,54.00,48.00,80.07,190.00,12.00,T,29.79,1010.40,10.00,M,FEW,SCT,OVC,M,4100.00,4800.00,11000.00,M,-RA,M,M,M,M,M,M,54.00,KHND 240256Z 19012KT 10SM -RA FEW041 SCT048 OVC110 12/09 A2979 RMK AO2 SLP104 P0000 60001 T01220089 58018,M
TPH,2021-12-24 02:56,-117.0904,38.0505,1654.00,36.00,34.00,92.35,10.00,7.00,0.04,29.71,1006.00,5.00,M,OVC,M,M,M,2400.00,M,M,M,RA BR,M,M,M,M,M,M,29.65,KTPH 240256Z AUTO 01007KT 5SM RA BR OVC024 02/01 A2971 RMK AO2 SLP060 P0004 60007 T00220011 53004,M
WMC,2021-12-24 02:56,-117.8072,40.9019,1315.00,37.00,33.00,85.64,190.00,13.00,0.00,29.60,1002.40,10.00,21.00,OVC,M,M,M,3600.00,M,M,M,M,M,M,M,M,M,M,27.97,KWMC 240256Z AUTO 19013G21KT 10SM OVC036 03/01 A2960 RMK AO2 SLP024 T00280006 56006,M
NFL,2021-12-24 02:56,-118.7010,39.4166,1199.00,37.00,34.00,88.78,180.00,10.00,0.00,29.65,1002.30,10.00,M,SCT,BKN,OVC,M,3000.00,5000.00,7000.00,M,M,M,M,M,M,M,M,29.24,KNFL 240256Z 18010KT 10SM SCT030 BKN050 OVC070 03/01 A2965 RMK SLP023 60000 T00280011 56017,M
LSV,2021-12-24 02:58,-115.0343,36.2362,570.00,57.00,49.50,75.95,190.00,7.00,0.00,29.77,1007.70,10.00,M,FEW,SCT,M,M,6000.00,8000.00,M,M,M,M,M,M,M,M,M,57.00,KLSV 240258Z AUTO 19007KT 10SM FEW060 SCT080 14/10 A2977 RMK AO2 SLP077 60000 T01390097 57019 $,M
INS,2021-12-24 02:58,-115.6733,36.5872,955.00,48.20,44.20,85.96,110.00,12.00,0.00,29.73,1005.90,10.00,M,FEW,M,M,M,8000.00,M,M,M,M,M,M,M,M,M,M,42.62,KINS 240258Z AUTO 11012KT 10SM FEW080 09/07 A2973 RMK AO2 SLP059 60001 T00900068 57019 VISNO RWY08 $,M
LOL,2021-12-24 03:04,-118.5701,40.0684,1192.43,38.00,35.00,89.53,210.00,9.00,0.00,29.64,M,10.00,M,FEW,BKN,M,M,2200.00,9500.00,M,M,M,M,M,M,M,M,M,30.85,KLOL 240304Z AUTO 21009KT 10SM FEW022 BKN095 03/02 A2964 RMK AO2 T00330017,M
ELY,2021-12-24 03:07,-114.8453,39.2950,1909.00,32.00,32.00,100.00,20.00,7.00,0.04,29.70,M,0.50,M,VV ,M,M,M,800.00,M,M,M,SN FG,M,M,M,M,M,M,24.78,KELY 240307Z AUTO 02007KT 1/2SM SN FG VV008 00/00 A2970 RMK AO2 P0004 T00000000 $,M
INS,2021-12-24 03:08,-115.6733,36.5872,955.00,48.20,44.60,87.28,120.00,12.00,0.00,29.74,1006.20,10.00,M,FEW,BKN,M,M,4400.00,8000.00,M,M,M,M,M,M,M,M,M,42.62,KINS 240308Z AUTO 12012KT 10SM FEW044 BKN080 09/07 A2974 RMK AO2 SLP062 VISNO RWY08 $,M
05U,2021-12-24 03:15,-116.0051,39.6042,1811.23,33.80,33.80,100.00,0.00,0.00,0.00,29.71,M,3.00,M,BKN,OVC,M,M,300.00,2200.00,M,M,BR,M,M,M,M,M,M,33.80,K05U 240315Z AUTO 00000KT 3SM BR BKN003 OVC022 01/01 A2971 RMK A01,M
CXP,2021-12-24 03:15,-119.7326,39.1923,1431.00,35.60,33.80,93.08,10.00,4.00,0.00,29.66,M,10.00,M,BKN,OVC,M,M,4400.00,5500.00,M,M,M,M,M,M,M,M,M,31.62,KCXP 240315Z AUTO 01004KT 10SM BKN044 OVC055 02/01 A2966 RMK AO2,M
BVU,2021-12-24 03:15,-114.8611,35.9475,671.00,53.60,44.60,71.45,200.00,9.00,0.00,29.80,M,10.00,M,SCT,SCT,OVC,M,5000.00,8500.00,11000.00,M,M,M,M,M,M,M,M,53.60,KBVU 240315Z AUTO 20009KT 10SM SCT050 SCT085 OVC110 12/07 A2980 RMK AO2,M
TMT,2021-12-24 03:15,-117.1971,39.4643,1749.34,33.00,32.20,97.22,180.00,7.00,0.00,29.68,M,10.00,M,SCT,SCT,BKN,M,2300.00,3000.00,8000.00,M,M,M,M,M,M,M,M,25.88,KTMT 240315Z AUTO 18007KT 10SM SCT023 SCT030 BKN080 01/00 A2968 RMK AO2 T00050001,M
MEV,2021-12-24 03:15,-119.7500,38.9963,1441.42,39.20,32.00,75.16,0.00,0.00,0.00,29.65,M,10.00,M,FEW,BKN,OVC,M,3700.00,4600.00,5500.00,M,M,M,M,M,M,M,M,39.20,KMEV 240315Z AUTO 00000KT 10SM FEW037 BKN046 OVC055 04/00 A2965 RMK AO2,M
BAM,2021-12-24 03:15,-116.8743,40.5990,1382.36,37.40,33.80,86.69,240.00,17.00,0.00,29.63,M,10.00,22.00,SCT,M,M,M,12000.00,M,M,M,M,M,M,M,M,M,M,27.15,KBAM 240315Z AUTO 24017G22KT 10SM SCT120 03/01 A2963 RMK AO1,M
RTS,2021-12-24 03:15,-119.8764,39.6682,1539.00,35.60,30.20,80.51,260.00,5.00,0.00,29.63,M,10.00,11.00,FEW,M,M,M,3400.00,M,M,M,M,M,M,M,M,M,M,30.67,KRTS 240315Z AUTO 26005G11KT 10SM FEW034 02/M01 A2963 RMK AO2,M
HTH,2021-12-24 03:15,-118.6315,38.5448,1282.89,35.60,35.60,100.00,160.00,5.00,0.00,29.71,M,10.00,M,FEW,SCT,M,M,8000.00,11000.00,M,M,M,M,M,M,M,M,M,30.67,KHTH 240315Z AUTO 16005KT 10SM FEW080 SCT110 02/02 A2971 RMK A01,M
05U,2021-12-24 03:30,-116.0051,39.6042,1811.23,32.00,32.00,100.00,0.00,0.00,0.00,29.71,M,6.00,M,SCT,BKN,OVC,M,300.00,2300.00,6000.00,M,BR,M,M,M,M,M,M,32.00,K05U 240330Z AUTO 00000KT 6SM BR SCT003 BKN023 OVC060 00/00 A2971 RMK A01,M
LOL,2021-12-24 03:31,-118.5701,40.0684,1192.43,38.00,35.00,89.53,260.00,7.00,0.00,29.65,M,10.00,M,BKN,M,M,M,1900.00,M,M,M,M,M,M,M,M,M,M,31.97,KLOL 240331Z AUTO 26007KT 10SM BKN019 03/02 A2965 RMK AO2 T00330017,M
BVU,2021-12-24 03:35,-114.8611,35.9475,671.00,55.40,44.60,66.91,190.00,10.00,0.00,29.79,M,10.00,M,FEW,BKN,OVC,M,5000.00,7000.00,8500.00,M,M,M,M,M,M,M,M,55.40,KBVU 240335Z AUTO 19010KT 10SM FEW050 BKN070 OVC085 13/07 A2979 RMK AO2,M
CXP,2021-12-24 03:35,-119.7326,39.1923,1431.00,37.40,33.80,86.69,0.00,0.00,0.00,29.65,M,10.00,M,SCT,BKN,OVC,M,4400.00,5000.00,6000.00,M,M,M,M,M,M,M,M,37.40,KCXP 240335Z AUTO 00000KT 10SM SCT044 BKN050 OVC060 03/01 A2965 RMK AO2,M
RTS,2021-12-24 03:35,-119.8764,39.6682,1539.00,35.60,30.20,80.51,290.00,8.00,0.00,29.63,M,10.00,13.00,CLR,M,M,M,M,M,M,M,M,M,M,M,M,M,M,28.55,KRTS 240335Z AUTO 29008G13KT 10SM CLR 02/M01 A2963 RMK AO2,M
MEV,2021-12-24 03:35,-119.7500,38.9963,1441.42,39.20,30.20,69.88,0.00,0.00,0.00,29.65,M,10.00,M,BKN,OVC,M,M,4200.00,4900.00,M,M,M,M,M,M,M,M,M,39.20,KMEV 240335Z AUTO 00000KT 10SM BKN042 OVC049 04/M01 A2965 RMK AO2,M
BAM,2021-12-24 03:35,-116.8743,40.5990,1382.36,37.40,33.80,86.69,250.00,15.00,0.00,29.63,M,10.00,M,SCT,M,M,M,12000.00,M,M,M,M,M,M,M,M,M,M,27.78,KBAM 240335Z AUTO 25015KT 10SM SCT120 03/01 A2963 RMK AO1,M
HTH,2021-12-24 03:35,-118.6315,38.5448,1282.89,33.80,33.80,100.00,90.00,5.00,0.00,29.70,M,10.00,M,FEW,M,M,M,12000.00,M,M,M,M,M,M,M,M,M,M,28.53,KHTH 240335Z AUTO 09005KT 10SM FEW120 01/01 A2970 RMK A01,M
TMT,2021-12-24 03:35,-117.1971,39.4643,1749.34,33.30,32.00,94.91,200.00,7.00,0.00,29.68,M,10.00,M,BKN,BKN,BKN,M,8000.00,9000.00,11000.00,M,M,M,M,M,M,M,M,26.36,KTMT 240335Z AUTO 20007KT 10SM BKN080 BKN090 BKN110 01/00 A2968 RMK AO2 T00070000,M
05U,2021-12-24 03:50,-116.0051,39.6042,1811.23,32.00,32.00,100.00,0.00,0.00,0.00,29.69,M,5.00,M,FEW,SCT,BKN,M,300.00,1900.00,2500.00,M,BR,M,M,M,M,M,M,32.00,K05U 240350Z AUTO 00000KT 5SM BR FEW003 SCT019 BKN025 00/00 A2969 RMK A01,M
DRA,2021-12-24 03:53,-116.0278,36.6206,1009.00,53.00,44.00,71.40,200.00,13.00,0.00,29.73,1005.00,10.00,27.00,BKN,OVC,M,M,3000.00,3700.00,M,M,M,M,M,M,37.00,210.00,2021-12-24 02:56,53.10,KDRA 240353Z AUTO 20013G27KT 10SM BKN030 OVC037 12/07 A2973 RMK AO2 PK WND 21037/0256 SLP050 T01170067,M
VGT,2021-12-24 03:53,-115.1933,36.2111,667.00,55.00,47.00,74.08,130.00,12.00,0.00,29.75,1008.90,10.00,M,SCT,M,M,M,5500.00,M,M,M,M,M,M,M,M,M,M,55.00,KVGT 240353Z 13012KT 10SM SCT055 13/08 A2975 RMK AO2 SLP089 T01280083,M
LOL,2021-12-24 03:53,-118.5701,40.0684,1192.43,37.00,34.00,88.78,220.00,12.00,0.00,29.64,1004.80,10.00,M,SCT,M,M,M,1800.00,M,M,M,M,M,M,M,M,M,M,28.37,KLOL 240353Z AUTO 22012KT 10SM SCT018 03/01 A2964 RMK AO2 WSHFT 0333 SLP048 T00280011,M
ELY,2021-12-24 03:53,-114.8453,39.2950,1909.00,32.00,32.00,100.00,70.00,3.00,0.16,29.69,1003.80,0.50,M,VV ,M,M,M,700.00,M,M,M,SN FG,M,M,M,M,M,M,28.69,KELY 240353Z AUTO 07003KT 1/2SM SN FG VV007 00/00 A2969 RMK AO2 SLP038 P0016 T00000000 $,M
BAM,2021-12-24 03:55,-116.8743,40.5990,1382.36,37.40,33.80,86.69,240.00,17.00,0.00,29.63,M,10.00,M,CLR,M,M,M,M,M,M,M,M,M,M,M,M,M,M,27.15,KBAM 240355Z AUTO 24017KT 10SM CLR 03/01 A2963 RMK AO1,M
TMT,2021-12-24 03:55,-117.1971,39.4643,1749.34,33.00,31.80,94.90,200.00,8.00,0.00,29.68,M,10.00,M,SCT,BKN,M,M,8500.00,12000.00,M,M,M,M,M,M,M,M,M,25.47,KTMT 240355Z AUTO 20008KT 10SM SCT085 BKN120 01/00 A2968 RMK AO2 T00061001,M
RTS,2021-12-24 03:55,-119.8764,39.6682,1539.00,35.60,30.20,80.51,240.00,8.00,0.00,29.63,M,10.00,13.00,CLR,M,M,M,M,M,M,M,M,M,M,M,M,M,M,28.55,KRTS 240355Z AUTO 24008G13KT 10SM CLR 02/M01 A2963 RMK AO2,M
HTH,2021-12-24 03:55,-118.6315,38.5448,1282.89,33.80,33.80,100.00,0.00,0.00,0.00,29.70,M,10.00,M,FEW,M,M,M,12000.00,M,M,M,M,M,M,M,M,M,M,33.80,KHTH 240355Z AUTO 00000KT 10SM FEW120 01/01 A2970 RMK A01,M
MEV,2021-12-24 03:55,-119.7500,38.9963,1441.42,39.20,32.00,75.16,120.00,5.00,0.00,29.64,M,10.00,M,BKN,OVC,M,M,4400.00,5000.00,M,M,M,M,M,M,M,M,M,34.95,KMEV 240355Z AUTO 12005KT 10SM BKN044 OVC050 04/M00 A2964 RMK AO2,M
RNO,2021-12-24 03:55,-119.7711,39.4839,1341.00,39.00,30.90,72.45,230.00,6.00,0.00,29.61,1002.00,10.00,M,SCT,M,M,M,5000.00,M,M,M,M,M,M,M,M,M,M,33.96,KRNO 240355Z 23006KT 10SM SCT050 04/M01 A2961 RMK AO2 SLP020 T00391006,M
CXP,2021-12-24 03:55,-119.7326,39.1923,1431.00,37.40,32.00,80.65,0.00,0.00,0.00,29.65,M,10.00,M,BKN,BKN,M,M,4700.00,5500.00,M,M,M,M,M,M,M,M,M,37.40,KCXP 240355Z AUTO 00000KT 10SM BKN047 BKN055 03/M00 A2965 RMK AO2,M
BVU,2021-12-24 03:55,-114.8611,35.9475,671.00,55.40,44.60,66.91,180.00,8.00,0.00,29.78,M,10.00,M,FEW,OVC,M,M,5500.00,7000.00,M,M,M,M,M,M,M,M,M,55.40,KBVU 240355Z AUTO 18008KT 10SM FEW055 OVC070 13/07 A2978 RMK AO2,M
LAS,2021-12-24 03:56,-115.1634,36.0719,663.00,56.00,47.00,71.69,200.00,12.00,0.00,29.76,1007.10,10.00,26.00,FEW,SCT,OVC,M,5000.00,8500.00,11000.00,M,M,M,M,M,26.00,190.00,2021-12-24 03:49,55.90,KLAS 240356Z 20012G26KT 10SM FEW050 SCT085 OVC110 13/08 A2976 RMK AO2 PK WND 19026/0349 SLP071 T01330083,M
WMC,2021-12-24 03:56,-117.8072,40.9019,1315.00,37.00,32.00,81.93,150.00,12.00,0.00,29.60,1002.40,10.00,M,SCT,OVC,M,M,3400.00,8000.00,M,M,M,M,M,M,M,M,M,28.37,KWMC 240356Z AUTO 15012KT 10SM SCT034 OVC080 03/00 A2960 RMK AO2 SLP024 T00280000,M
HND,2021-12-24 03:56,-115.1344,35.9729,742.79,54.00,47.00,76.83,190.00,7.00,T,29.79,1010.10,10.00,M,FEW,SCT,BKN,M,5500.00,8500.00,11000.00,M,M,M,M,M,M,M,M,54.00,KHND 240356Z 19007KT 10SM FEW055 SCT085 BKN110 12/08 A2979 RMK AO2 RAE43 SLP101 P0000 T01220083,M
EKO,2021-12-24 03:56,-115.7860,40.8242,1367.00,36.00,30.90,81.53,0.00,0.00,0.00,29.62,1003.10,10.00,M,FEW,BKN,OVC,M,3800.00,4700.00,5500.00,M,M,M,M,M,M,M,M,36.00,KEKO 240356Z AUTO 00000KT 10SM FEW038 BKN047 OVC055 02/M01 A2962 RMK AO2 SLP031 T00221006,M
TPH,2021-12-24 03:56,-117.0904,38.0505,1654.00,35.00,34.00,95.71,300.00,4.00,0.05,29.71,1006.10,10.00,M,OVC,M,M,M,2900.00,M,M,M,-RA,M,M,M,M,M,M,31.04,KTPH 240356Z AUTO 30004KT 10SM -RA OVC029 02/01 A2971 RMK AO2 SLP061 P0005 T00170011,M
NFL,2021-12-24 03:56,-118.7010,39.4166,1199.00,36.00,33.00,89.09,170.00,9.00,0.00,29.64,1002.20,10.00,M,FEW,SCT,SCT,M,3000.00,5000.00,7000.00,M,M,M,M,M,M,M,M,28.49,KNFL 240356Z 17009KT 10SM FEW030 SCT050 SCT070 02/01 A2964 RMK AO2 SLP022 T00220006,M
INS,2021-12-24 03:58,-115.6733,36.5872,955.00,48.60,44.20,84.68,120.00,11.00,0.00,29.73,1005.90,10.00,M,SCT,SCT,BKN,BKN,4700.00,5500.00,9000.00,12000.00,M,M,M,M,M,M,M,43.44,KINS 240358Z AUTO 12011KT 10SM SCT047 SCT055 BKN090 BKN120 09/07 A2973 RMK AO2 SLP059 T00920068 VISNO RWY08 $,M
LSV,2021-12-24 03:58,-115.0343,36.2362,570.00,57.00,49.80,76.81,200.00,9.00,0.00,29.75,1006.90,10.00,M,BKN,BKN,M,M,6000.00,7500.00,M,M,M,M,M,M,M,M,M,57.00,KLSV 240358Z AUTO 20009KT 10SM BKN060 BKN075 14/10 A2975 RMK AO2 SLP069 T01390099 $,M
DRA,2021-12-24 04:02,-116.0278,36.6206,1009.00,53.00,44.00,71.40,210.00,17.00,0.00,29.73,M,10.00,29.00,BKN,OVC,M,M,2900.00,3600.00,M,M,M,M,M,M,29.00,200.00,2021-12-24 03:59,53.10,KDRA 240402Z AUTO 21017G29KT 10SM BKN029 OVC036 12/07 A2973 RMK AO2 PK WND 20029/0359 T01170067,M
BVU,2021-12-24 04:15,-114.8611,35.9475,671.00,55.40,46.40,71.64,180.00,9.00,0.00,29.78,M,10.00,M,SCT,BKN,OVC,M,4800.00,7500.00,11000.00,M,M,M,M,M,M,M,M,55.40,KBVU 240415Z AUTO 18009KT 10SM SCT048 BKN075 OVC110 13/08 A2978 RMK AO2,M
CXP,2021-12-24 04:15,-119.7326,39.1923,1431.00,39.20,30.20,69.88,M,5.00,0.00,29.65,M,10.00,M,FEW,SCT,SCT,M,4700.00,5500.00,6500.00,M,M,M,M,M,M,M,M,34.95,KCXP 240415Z AUTO VRB05KT 10SM FEW047 SCT055 SCT065 04/M01 A2965 RMK AO2,M
RTS,2021-12-24 04:15,-119.8764,39.6682,1539.00,35.60,30.20,80.51,280.00,7.00,0.00,29.63,M,10.00,15.00,CLR,M,M,M,M,M,M,M,M,M,M,M,M,M,M,29.17,KRTS 240415Z AUTO 28007G15KT 10SM CLR 02/M01 A2963 RMK AO2,M
05U,2021-12-24 04:15,-116.0051,39.6042,1811.23,32.00,32.00,100.00,0.00,0.00,0.00,29.68,M,10.00,M,SCT,BKN,OVC,M,300.00,6500.00,7500.00,M,M,M,M,M,M,M,M,32.00,K05U 240415Z AUTO 00000KT 10SM SCT003 BKN065 OVC075 M00/M00 A2968 RMK A01,M
MEV,2021-12-24 04:15,-119.7500,38.9963,1441.42,37.40,32.00,80.65,130.00,4.00,0.00,29.64,M,10.00,M,OVC,M,M,M,4500.00,M,M,M,M,M,M,M,M,M,M,33.73,KMEV 240415Z AUTO 13004KT 10SM OVC045 03/M00 A2964 RMK AO2,M
TMT,2021-12-24 04:15,-117.1971,39.4643,1749.34,33.00,32.00,95.67,220.00,8.00,0.00,29.68,M,10.00,M,BKN,M,M,M,11000.00,M,M,M,M,M,M,M,M,M,M,25.47,KTMT 240415Z AUTO 22008KT 10SM BKN110 01/00 A2968 RMK AO2 T00060000,M
BAM,2021-12-24 04:15,-116.8743,40.5990,1382.36,37.40,33.80,86.69,240.00,14.00,0.00,29.63,M,10.00,M,CLR,M,M,M,M,M,M,M,M,M,M,M,M,M,M,28.12,KBAM 240415Z AUTO 24014KT 10SM CLR 03/01 A2963 RMK AO1,M
HTH,2021-12-24 04:15,-118.6315,38.5448,1282.89,33.80,33.80,100.00,250.00,6.00,0.00,29.68,M,10.00,M,FEW,M,M,M,4300.00,M,M,M,M,M,M,M,M,M,M,27.70,KHTH 240415Z AUTO 25006KT 10SM FEW043 01/01 A2968 RMK A01,M
HTH,2021-12-24 04:35,-118.6315,38.5448,1282.89,33.80,33.80,100.00,320.00,5.00,0.00,29.67,M,10.00,M,FEW,FEW,M,M,4300.00,12000.00,M,M,M,M,M,M,M,M,M,28.53,KHTH 240435Z AUTO 32005KT 10SM FEW043 FEW120 01/01 A2967 RMK A01,M
BVU,2021-12-24 04:35,-114.8611,35.9475,671.00,55.40,44.60,66.91,170.00,11.00,0.00,29.77,M,10.00,M,FEW,BKN,OVC,M,4700.00,5500.00,10000.00,M,M,M,M,M,M,M,M,55.40,KBVU 240435Z AUTO 17011KT 10SM FEW047 BKN055 OVC100 13/07 A2977 RMK AO2,M
CXP,2021-12-24 04:35,-119.7326,39.1923,1431.00,39.20,30.20,69.88,160.00,6.00,0.00,29.64,M,10.00,12.00,CLR,M,M,M,M,M,M,M,M,M,M,M,M,M,M,34.20,KCXP 240435Z AUTO 16006G12KT 10SM CLR 04/M01 A2964 RMK AO2,M
RTS,2021-12-24 04:35,-119.8764,39.6682,1539.00,35.60,30.20,80.51,250.00,11.00,0.00,29.62,M,10.00,M,CLR,M,M,M,M,M,M,M,M,M,M,M,M,M,M,27.02,KRTS 240435Z AUTO 25011KT 10SM CLR 02/M01 A2962 RMK AO2,M
05U,2021-12-24 04:35,-116.0051,39.6042,1811.23,32.00,32.00,100.00,0.00,0.00,0.00,29.68,M,10.00,M,BKN,OVC,M,M,7000.00,7500.00,M,M,M,M,M,M,M,M,M,32.00,K05U 240435Z AUTO 00000KT 10SM BKN070 OVC075 M00/M00 A2968 RMK A01,M
MEV,2021-12-24 04:35,-119.7500,38.9963,1441.42,37.40,32.00,80.65,210.00,5.00,0.00,29.64,M,10.00,M,OVC,M,M,M,4700.00,M,M,M,M,M,M,M,M,M,M,32.81,KMEV 240435Z AUTO 21005KT 10SM OVC047 03/00 A2964 RMK AO2,M
BAM,2021-12-24 04:35,-116.8743,40.5990,1382.36,37.40,33.80,86.69,240.00,12.00,0.00,29.62,M,10.00,M,CLR,M,M,M,M,M,M,M,M,M,M,M,M,M,M,28.87,KBAM 240435Z AUTO 24012KT 10SM CLR 03/01 A2962 RMK AO1,M
TMT,2021-12-24 04:35,-117.1971,39.4643,1749.34,33.40,32.00,94.53,210.00,10.00,0.00,29.67,M,10.00,M,OVC,M,M,M,11000.00,M,M,M,M,M,M,M,M,M,M,24.72,KTMT 240435Z AUTO 21010KT 10SM OVC110 01/00 A2967 RMK AO2 T00080000,M
ELY,2021-12-24 04:43,-114.8453,39.2950,1909.00,32.00,32.00,100.00,210.00,5.00,0.09,29.68,M,1.00,M,VV ,M,M,M,1000.00,M,M,M,-SN BR,M,M,M,M,M,M,26.40,KELY 240443Z AUTO 21005KT 1SM -SN BR VV010 00/00 A2968 RMK AO2 P0009 T00000000 $,M
VGT,2021-12-24 04:53,-115.1933,36.2111,667.00,54.00,47.00,76.83,100.00,7.00,0.00,29.74,1008.50,10.00,M,BKN,BKN,M,M,5500.00,7000.00,M,M,M,M,M,M,M,M,M,54.00,KVGT 240453Z AUTO 10007KT 10SM BKN055 BKN070 12/08 A2974 RMK AO2 SLP085 T01220083,M
LOL,2021-12-24 04:53,-118.5701,40.0684,1192.43,34.00,32.00,92.29,210.00,10.00,0.00,29.64,1004.60,10.00,M,CLR,M,M,M,M,M,M,M,M,M,M,M,M,M,M,25.48,KLOL 240453Z AUTO 21010KT 10SM CLR 01/00 A2964 RMK AO2 SLP046 T00110000,M
ELY,2021-12-24 04:53,-114.8453,39.2950,1909.00,32.00,32.00,100.00,210.00,5.00,0.10,29.68,1003.60,0.75,M,VV ,M,M,M,1000.00,M,M,M,-SN BR,M,M,M,M,M,M,26.40,KELY 240453Z AUTO 21005KT 3/4SM -SN BR VV010 00/00 A2968 RMK AO2 SLP036 P0010 T00000000 $,M
DRA,2021-12-24 04:53,-116.0278,36.6206,1009.00,53.00,43.00,68.46,210.00,22.00,0.00,29.72,1004.80,10.00,32.00,OVC,M,M,M,2800.00,M,M,M,M,M,M,M,43.00,200.00,2021-12-24 04:26,53.10,KDRA 240453Z AUTO 21022G32KT 10SM OVC028 12/06 A2972 RMK AO2 PK WND 20043/0426 SLP048 T01170061,M
TMT,2021-12-24 04:55,-117.1971,39.4643,1749.34,33.00,32.00,95.67,200.00,10.00,0.00,29.67,M,10.00,M,OVC,M,M,M,11000.00,M,M,M,M,M,M,M,M,M,M,24.35,KTMT 240455Z AUTO 20010KT 10SM OVC110 01/00 A2967 RMK AO2 T00060000,M
HTH,2021-12-24 04:55,-118.6315,38.5448,1282.89,33.80,33.80,100.00,0.00,0.00,0.00,29.67,M,10.00,M,SCT,M,M,M,12000.00,M,M,M,M,M,M,M,M,M,M,33.80,KHTH 240455Z AUTO 00000KT 10SM SCT120 01/01 A2967 RMK A01,M
BAM,2021-12-24 04:55,-116.8743,40.5990,1382.36,35.60,33.80,93.08,220.00,12.00,0.00,29.61,M,10.00,M,CLR,M,M,M,M,M,M,M,M,M,M,M,M,M,M,26.58,KBAM 240455Z AUTO 22012KT 10SM CLR 02/01 A2961 RMK AO1,M
MEV,2021-12-24 04:55,-119.7500,38.9963,1441.42,37.40,32.00,80.65,210.00,4.00,0.00,29.64,M,10.00,10.00,OVC,M,M,M,4800.00,M,M,M,M,M,M,M,M,M,M,33.73,KMEV 240455Z AUTO 21004G10KT 10SM OVC048 03/M00 A2964 RMK AO2,M
05U,2021-12-24 04:55,-116.0051,39.6042,1811.23,32.00,32.00,100.00,0.00,0.00,0.03,29.68,M,10.00,M,BKN,OVC,M,M,7000.00,8000.00,M,M,M,M,M,M,M,M,M,32.00,K05U 240455Z AUTO 00000KT 10SM BKN070 OVC080 M00/M00 A2968 RMK A01 P0003,M
BVU,2021-12-24 04:55,-114.8611,35.9475,671.00,57.20,44.60,62.69,180.00,13.00,0.00,29.77,M,10.00,M,BKN,BKN,OVC,M,5500.00,7500.00,11000.00,M,M,M,M,M,M,M,M,57.20,KBVU 240455Z AUTO 18013KT 10SM BKN055 BKN075 OVC110 14/07 A2977 RMK AO2,M
CXP,2021-12-24 04:55,-119.7326,39.1923,1431.00,39.20,30.20,69.88,0.00,0.00,0.00,29.64,M,10.00,M,CLR,M,M,M,M,M,M,M,M,M,M,M,M,M,M,39.20,KCXP 240455Z AUTO 00000KT 10SM CLR 04/M01 A2964 RMK AO2,M
RNO,2021-12-24 04:55,-119.7711,39.4839,1341.00,36.00,30.00,78.60,50.00,6.00,0.00,29.62,1002.60,10.00,M,FEW,M,M,M,4800.00,M,M,M,M,M,M,M,M,M,M,30.35,KRNO 240455Z 05006KT 10SM FEW048 02/M01 A2962 RMK AO2 SLP026 T00221011,M
RTS,2021-12-24 04:55,-119.8764,39.6682,1539.00,35.60,30.20,80.51,280.00,9.00,0.00,29.63,M,10.00,15.00,FEW,FEW,FEW,M,2100.00,3600.00,7500.00,M,M,M,M,M,M,M,M,27.99,KRTS 240455Z AUTO 28009G15KT 10SM FEW021 FEW036 FEW075 02/M01 A2963 RMK AO2,M
LAS,2021-12-24 04:56,-115.1634,36.0719,663.00,55.00,47.00,74.08,190.00,6.00,0.00,29.75,1006.60,10.00,M,FEW,SCT,OVC,M,5000.00,8500.00,11000.00,M,M,M,M,M,M,M,M,55.00,KLAS 240456Z 19006KT 10SM FEW050 SCT085 OVC110 13/08 A2975 RMK AO2 SLP066 T01280083,M
TPH,2021-12-24 04:56,-117.0904,38.0505,1654.00,34.00,34.00,100.00,0.00,0.00,0.05,29.70,1005.80,2.50,M,OVC,M,M,M,2500.00,M,M,M,-RA BR,M,M,M,M,M,M,34.00,KTPH 240456Z AUTO 00000KT 2 1/2SM -RA BR OVC025 01/01 A2970 RMK AO2 SLP058 P0005 T00110011,M
HND,2021-12-24 04:56,-115.1344,35.9729,742.79,54.00,46.00,74.26,170.00,5.00,0.00,29.77,1009.50,10.00,M,BKN,M,M,M,12000.00,M,M,M,M,M,M,M,M,M,M,54.00,KHND 240456Z AUTO 17005KT 10SM BKN120 12/08 A2977 RMK AO2 SLP095 T01220078,M
NFL,2021-12-24 04:56,-118.7010,39.4166,1199.00,36.00,32.00,85.23,180.00,7.00,0.00,29.64,1002.20,10.00,M,FEW,SCT,SCT,M,3000.00,5000.00,7000.00,M,M,M,M,M,M,M,M,29.65,KNFL 240456Z 18007KT 10SM FEW030 SCT050 SCT070 02/00 A2964 RMK AO2 SLP022 T00220000,M
WMC,2021-12-24 04:56,-117.8072,40.9019,1315.00,37.00,32.00,81.93,160.00,12.00,0.00,29.60,1002.10,10.00,M,BKN,BKN,OVC,M,3100.00,5000.00,8000.00,M,M,M,M,M,M,M,M,28.37,KWMC 240456Z AUTO 16012KT 10SM BKN031 BKN050 OVC080 03/00 A2960 RMK AO2 SLP021 T00280000,M
EKO,2021-12-24 04:56,-115.7860,40.8242,1367.00,36.00,30.90,81.53,250.00,8.00,T,29.60,1002.30,10.00,M,OVC,M,M,M,6000.00,M,M,M,M,M,M,M,M,M,M,29.04,KEKO 240456Z AUTO 25008KT 10SM OVC060 02/M01 A2960 RMK AO2 UPB27E34RAB35E36SNB25E27B34E35 SLP023 P0000 T00221006,M
LSV,2021-12-24 04:58,-115.0343,36.2362,570.00,57.00,49.00,74.83,220.00,6.00,0.00,29.75,1006.90,10.00,M,OVC,M,M,M,5000.00,M,M,M,M,M,M,M,M,M,M,57.00,KLSV 240458Z AUTO 22006KT 10SM OVC050 14/10 A2975 RMK AO2 SLP069 T01390095 $,M
INS,2021-12-24 04:58,-115.6733,36.5872,955.00,49.30,45.50,86.68,100.00,12.00,0.00,29.73,1005.40,10.00,M,SCT,BKN,OVC,M,4100.00,5500.00,8000.00,M,M,M,M,M,M,M,M,44.02,KINS 240458Z AUTO 10012KT 10SM SCT041 BKN055 OVC080 10/08 A2973 RMK AO2 SLP054 T00960075 VISNO RWY08 $,M
ELY,2021-12-24 05:00,-114.8453,39.2950,1909.00,32.00,32.00,100.00,210.00,5.00,T,29.68,M,1.00,M,VV ,M,M,M,1100.00,M,M,M,-SN BR,M,M,M,M,M,M,26.40,KELY 240500Z AUTO 21005KT 1SM -SN BR VV011 00/00 A2968 RMK AO2 P0000 T00000000 $,M
TMT,2021-12-24 05:15,-117.1971,39.4643,1749.34,33.00,32.00,96.44,220.00,8.00,0.00,29.66,M,10.00,M,BKN,M,M,M,12000.00,M,M,M,M,M,M,M,M,M,M,25.22,KTMT 240515Z AUTO 22008KT 10SM BKN120 01/00 A2966 RMK AO2 T00050000,M
05U,2021-12-24 05:15,-116.0051,39.6042,1811.23,32.00,30.20,92.97,0.00,0.00,0.00,29.67,M,10.00,M,SCT,BKN,OVC,M,8000.00,8500.00,11000.00,M,M,M,M,M,M,M,M,32.00,K05U 240515Z AUTO 00000KT 10SM SCT080 BKN085 OVC110 M00/M01 A2967 RMK A01,M
MEV,2021-12-24 05:15,-119.7500,38.9963,1441.42,37.40,30.20,74.98,180.00,6.00,0.00,29.63,M,10.00,M,BKN,BKN,M,M,5000.00,6000.00,M,M,M,M,M,M,M,M,M,32.03,KMEV 240515Z AUTO 18006KT 10SM BKN050 BKN060 03/M01 A2963 RMK AO2,M
RTS,2021-12-24 05:15,-119.8764,39.6682,1539.00,35.60,30.20,80.51,250.00,7.00,0.00,29.64,M,10.00,M,SCT,SCT,BKN,M,5000.00,6500.00,11000.00,M,M,M,M,M,M,M,M,29.17,KRTS 240515Z AUTO 25007KT 10SM SCT050 SCT065 BKN110 02/M01 A2964 RMK AO2,M
BAM,2021-12-24 05:15,-116.8743,40.5990,1382.36,35.60,33.80,93.08,260.00,5.00,0.00,29.63,M,10.00,M,CLR,M,M,M,M,M,M,M,M,M,M,M,M,M,M,30.67,KBAM 240515Z AUTO 26005KT 10SM CLR 02/01 A2963 RMK AO1,M
HTH,2021-12-24 05:15,-118.6315,38.5448,1282.89,33.80,33.80,100.00,0.00,0.00,0.00,29.67,M,10.00,M,CLR,M,M,M,M,M,M,M,M,M,M,M,M,M,M,33.80,KHTH 240515Z AUTO 00000KT 10SM CLR 01/01 A2967 RMK A01,M
BVU,2021-12-24 05:15,-114.8611,35.9475,671.00,57.20,44.60,62.69,190.00,11.00,0.00,29.77,M,10.00,M,BKN,OVC,M,M,5500.00,11000.00,M,M,M,M,M,M,M,M,M,57.20,KBVU 240515Z AUTO 19011KT 10SM BKN055 OVC110 14/07 A2977 RMK AO2,M
CXP,2021-12-24 05:15,-119.7326,39.1923,1431.00,39.20,30.20,69.88,M,3.00,0.00,29.64,M,10.00,M,CLR,M,M,M,M,M,M,M,M,M,M,M,M,M,M,36.92,KCXP 240515Z AUTO VRB03KT 10SM CLR 04/M01 A2964 RMK AO2,M
DRA,2021-12-24 05:26,-116.0278,36.6206,1009.00,52.00,43.00,71.28,190.00,22.00,0.00,29.72,M,10.00,34.00,OVC,M,M,M,3000.00,M,M,M,M,M,M,M,41.00,180.00,2021-12-24 05:07,52.00,KDRA 240526Z AUTO 19022G34KT 10SM OVC030 11/06 A2972 RMK AO2 PK WND 18041/0507 T01110061,M
HTH,2021-12-24 05:35,-118.6315,38.5448,1282.89,33.80,33.80,100.00,0.00,0.00,0.00,29.65,M,10.00,M,CLR,M,M,M,M,M,M,M,M,M,M,M,M,M,M,33.80,KHTH 240535Z AUTO 00000KT 10SM CLR 01/01 A2965 RMK A01,M
DRA,2021-12-24 05:35,-116.0278,36.6206,1009.00,51.00,44.00,76.86,180.00,24.00,T,29.72,M,10.00,36.00,OVC,M,M,M,2800.00,M,M,M,-RA,M,M,M,41.00,180.00,2021-12-24 05:07,51.10,KDRA 240535Z AUTO 18024G36KT 10SM -RA OVC028 11/07 A2972 RMK AO2 PK WND 18041/0507 RAB32 P0000 T01060067,M
BAM,2021-12-24 05:35,-116.8743,40.5990,1382.36,35.60,35.60,100.00,350.00,9.00,0.00,29.63,M,10.00,M,CLR,M,M,M,M,M,M,M,M,M,M,M,M,M,M,27.99,KBAM 240535Z AUTO 35009KT 10SM CLR 02/02 A2963 RMK AO1,M
MEV,2021-12-24 05:35,-119.7500,38.9963,1441.42,35.60,30.20,80.51,0.00,0.00,0.00,29.63,M,10.00,M,BKN,BKN,M,M,5000.00,5500.00,M,M,M,M,M,M,M,M,M,35.60,KMEV 240535Z AUTO 00000KT 10SM BKN050 BKN055 02/M01 A2963 RMK AO2,M
BVU,2021-12-24 05:35,-114.8611,35.9475,671.00,57.20,44.60,62.69,200.00,15.00,0.00,29.77,M,10.00,M,SCT,BKN,OVC,M,4400.00,5500.00,10000.00,M,M,M,M,M,M,M,M,57.20,KBVU 240535Z AUTO 20015KT 10SM SCT044 BKN055 OVC100 14/07 A2977 RMK AO2,M
CXP,2021-12-24 05:35,-119.7326,39.1923,1431.00,39.20,30.20,69.88,M,4.00,0.00,29.64,M,10.00,M,SCT,SCT,M,M,4400.00,5000.00,M,M,M,M,M,M,M,M,M,35.83,KCXP 240535Z AUTO VRB04KT 10SM SCT044 SCT050 04/M01 A2964 RMK AO2,M
RTS,2021-12-24 05:35,-119.8764,39.6682,1539.00,35.60,32.00,86.59,240.00,13.00,0.00,29.64,M,8.00,18.00,FEW,SCT,BKN,M,800.00,2100.00,4600.00,M,-RA,M,M,M,M,M,M,26.18,KRTS 240535Z AUTO 24013G18KT 8SM -RA FEW008 SCT021 BKN046 02/M00 A2964 RMK AO2,M
05U,2021-12-24 05:35,-116.0051,39.6042,1811.23,32.00,30.20,92.97,0.00,0.00,0.00,29.66,M,10.00,M,FEW,BKN,OVC,M,6500.00,7500.00,9000.00,M,M,M,M,M,M,M,M,32.00,K05U 240535Z AUTO 00000KT 10SM FEW065 BKN075 OVC090 M00/M01 A2966 RMK A01,M
TMT,2021-12-24 05:35,-117.1971,39.4643,1749.34,32.00,31.50,98.00,220.00,6.00,0.00,29.65,M,10.00,M,BKN,M,M,M,12000.00,M,M,M,M,M,M,M,M,M,M,25.53,KTMT 240535Z AUTO 22006KT 10SM BKN120 00/00 A2965 RMK AO2 T00001003,M
TPH,2021-12-24 05:40,-117.0904,38.0505,1654.00,34.00,34.00,100.00,250.00,3.00,0.01,29.70,M,1.50,M,OVC,M,M,M,1500.00,M,M,M,BR,M,M,M,M,M,M,30.97,KTPH 240540Z AUTO 25003KT 1 1/2SM BR OVC015 01/01 A2970 RMK AO2 RAE16UPB16E20 P0001 T00110011,M
DRA,2021-12-24 05:45,-116.0278,36.6206,1009.00,51.00,43.00,73.69,190.00,22.00,T,29.72,M,10.00,39.00,BKN,BKN,OVC,M,3000.00,3400.00,7000.00,M,-RA,M,M,M,41.00,180.00,2021-12-24 05:07,51.10,KDRA 240545Z AUTO 19022G39KT 10SM -RA BKN030 BKN034 OVC070 11/06 A2972 RMK AO2 PK WND 18041/0507 RAB32 P0000 T01060061,M
ELY,2021-12-24 05:49,-114.8453,39.2950,1909.00,32.00,32.00,100.00,200.00,4.00,0.06,29.67,M,0.50,M,VV ,M,M,M,1100.00,M,M,M,SN FG,M,M,M,M,M,M,27.42,KELY 240549Z AUTO 20004KT 1/2SM SN FG VV011 00/00 A2967 RMK AO2 P0006 $,M
DRA,2021-12-24 05:53,-116.0278,36.6206,1009.00,52.00,43.00,71.28,200.00,20.00,T,29.72,1004.20,10.00,32.00,SCT,BKN,OVC,M,2800.00,3400.00,7000.00,M,M,M,M,M,41.00,180.00,2021-12-24 05:07,52.00,KDRA 240553Z AUTO 20020G32KT 10SM SCT028 BKN034 OVC070 11/06 A2972 RMK AO2 PK WND 18041/0507 RAB32E50 SLP042 P0000 60002 T01110061 10122 20106 51000,M
LOL,2021-12-24 05:53,-118.5701,40.0684,1192.43,33.00,32.00,95.67,210.00,7.00,0.00,29.62,1004.40,10.00,M,FEW,M,M,M,7000.00,M,M,M,M,M,M,M,M,M,M,26.12,KLOL 240553Z AUTO 21007KT 10SM FEW070 01/00 A2962 RMK AO2 SLP044 T00060000 10044 20006 58006,M
ELY,2021-12-24 05:53,-114.8453,39.2950,1909.00,32.00,32.00,100.00,190.00,4.00,0.07,29.67,1003.40,0.50,M,VV ,M,M,M,900.00,M,M,M,SN FG,M,M,M,M,M,M,27.42,KELY 240553Z AUTO 19004KT 1/2SM SN FG VV009 00/00 A2967 RMK AO2 SLP034 P0007 60043 T00000000 10028 20000 55003 $,M
VGT,2021-12-24 05:53,-115.1933,36.2111,667.00,55.00,47.00,74.08,140.00,10.00,T,29.74,1008.30,10.00,M,FEW,SCT,SCT,M,5000.00,10000.00,12000.00,M,M,M,M,M,M,M,M,55.00,KVGT 240553Z AUTO 14010KT 10SM FEW050 SCT100 SCT120 13/08 A2974 RMK AO2 RAB26E47 SLP083 P0000 60001 T01280083 10133 20111 56007,M
MEV,2021-12-24 05:55,-119.7500,38.9963,1441.42,37.40,30.20,74.98,0.00,0.00,0.00,29.63,M,10.00,M,FEW,BKN,M,M,4400.00,5000.00,M,M,M,M,M,M,M,M,M,37.40,KMEV 240555Z AUTO 00000KT 10SM FEW044 BKN050 03/M01 A2963 RMK AO2,M
HTH,2021-12-24 05:55,-118.6315,38.5448,1282.89,33.80,33.80,100.00,M,6.00,0.00,29.65,M,10.00,M,CLR,M,M,M,M,M,M,M,M,M,M,M,M,M,M,27.70,KHTH 240555Z AUTO VRB06KT 10SM CLR 01/01 A2965 RMK A01,M
05U,2021-12-24 05:55,-116.0051,39.6042,1811.23,30.20,30.20,100.00,0.00,0.00,0.03,29.66,M,10.00,M,FEW,BKN,OVC,M,5500.00,7000.00,9000.00,M,M,M,M,M,M,M,M,30.20,K05U 240555Z AUTO 00000KT 10SM FEW055 BKN070 OVC090 M01/M01 A2966 RMK A01 P0003,M
RTS,2021-12-24 05:55,-119.8764,39.6682,1539.00,33.80,32.00,93.03,290.00,5.00,0.01,29.64,M,9.00,M,FEW,SCT,BKN,M,800.00,2100.00,7000.00,M,-DZ,M,M,M,M,M,M,28.53,KRTS 240555Z AUTO 29005KT 9SM -DZ FEW008 SCT021 BKN070 01/00 A2964 RMK AO2 P0001,M
TMT,2021-12-24 05:55,-117.1971,39.4643,1749.34,32.00,31.10,96.43,230.00,6.00,0.00,29.65,M,10.00,M,SCT,M,M,M,12000.00,M,M,M,M,M,M,M,M,M,M,25.53,KTMT 240555Z AUTO 23006KT 10SM SCT120 00/00 A2965 RMK AO2 60006 T00001005 10009 20000,M
CXP,2021-12-24 05:55,-119.7326,39.1923,1431.00,39.20,30.20,69.88,320.00,5.00,0.00,29.65,M,10.00,M,OVC,M,M,M,4700.00,M,M,M,M,M,M,M,M,M,M,34.95,KCXP 240555Z AUTO 32005KT 10SM OVC047 04/M01 A2965 RMK AO2,M
BVU,2021-12-24 05:55,-114.8611,35.9475,671.00,57.20,46.40,67.12,190.00,14.00,0.00,29.77,M,10.00,20.00,FEW,SCT,BKN,M,3800.00,4800.00,7000.00,M,M,M,M,M,M,M,M,57.20,KBVU 240555Z AUTO 19014G20KT 10SM FEW038 SCT048 BKN070 14/08 A2977 RMK AO2,M
RNO,2021-12-24 05:55,-119.7711,39.4839,1341.00,36.00,30.90,81.53,M,M,0.00,29.63,1003.10,10.00,M,SCT,BKN,M,M,4100.00,6500.00,M,M,M,M,M,M,M,M,M,M,KRNO 240555Z 10SM SCT041 BKN065 02/M01 A2963 RMK AO2 SLP031 T00221006 10050 20011 53007,M
BAM,2021-12-24 05:55,-116.8743,40.5990,1382.36,37.40,32.00,80.65,320.00,7.00,0.00,29.61,M,10.00,M,CLR,M,M,M,M,M,M,M,M,M,M,M,M,M,M,31.36,KBAM 240555Z AUTO 32007KT 10SM CLR 03/00 A2961 RMK AO1,M
EKO,2021-12-24 05:56,-115.7860,40.8242,1367.00,35.00,30.90,84.49,180.00,3.00,T,29.59,1002.00,10.00,M,BKN,BKN,OVC,M,5500.00,6500.00,8000.00,M,M,M,M,M,M,M,M,32.23,KEKO 240556Z AUTO 18003KT 10SM BKN055 BKN065 OVC080 02/M01 A2959 RMK AO2 SNB32E41 SLP020 P0000 60000 T00171006 10028 20017 50005,M
TPH,2021-12-24 05:56,-117.0904,38.0505,1654.00,34.00,34.00,100.00,0.00,0.00,0.01,29.69,1005.40,1.25,M,BKN,OVC,M,M,1700.00,2200.00,M,M,-RA BR,M,M,M,M,M,M,34.00,KTPH 240556Z AUTO 00000KT 1 1/4SM -RA BR BKN017 OVC022 01/01 A2969 RMK AO2 RAE16B48UPB16E20B41E48 SLP054 P0001 60018 T00110011 10033 20011 58006,M
LAS,2021-12-24 05:56,-115.1634,36.0719,663.00,57.00,46.00,66.59,200.00,10.00,0.00,29.74,1006.50,10.00,18.00,FEW,SCT,BKN,M,3000.00,7000.00,12000.00,M,M,M,M,M,M,M,M,57.00,KLAS 240556Z 20010G18KT 10SM FEW030 SCT070 BKN120 14/08 A2974 RMK AO2 SLP065 VCSH 60001 T01390078 10144 20122 56007,M
WMC,2021-12-24 05:56,-117.8072,40.9019,1315.00,37.00,33.00,85.64,170.00,9.00,0.00,29.58,1001.70,10.00,M,FEW,BKN,OVC,M,4000.00,7500.00,9000.00,M,M,M,M,M,M,M,M,29.73,KWMC 240556Z AUTO 17009KT 10SM FEW040 BKN075 OVC090 03/01 A2958 RMK AO2 SLP017 T00280006 10039 20022 58007,M
HND,2021-12-24 05:56,-115.1344,35.9729,742.79,55.00,47.00,74.08,200.00,16.00,T,29.77,1009.30,10.00,M,FEW,BKN,OVC,M,3500.00,8000.00,12000.00,M,-RA,M,M,M,M,M,M,55.00,KHND 240556Z AUTO 20016KT 10SM -RA FEW035 BKN080 OVC120 13/08 A2977 RMK AO2 RAB27 SLP093 P0000 60001 T01280083 10133 20117 56007,M
NFL,2021-12-24 05:56,-118.7010,39.4166,1199.00,35.00,32.00,88.33,180.00,8.00,0.00,29.63,1001.70,10.00,M,FEW,SCT,SCT,M,3000.00,5000.00,7000.00,M,M,M,M,M,M,M,M,27.93,KNFL 240556Z 18008KT 10SM FEW030 SCT050 SCT070 02/00 A2963 RMK AO2 SLP017 60000 T00170000 10044 20017 58006,M
LSV,2021-12-24 05:58,-115.0343,36.2362,570.00,54.70,53.00,94.32,330.00,4.00,0.00,29.75,1006.90,10.00,M,OVC,M,M,M,5000.00,M,M,M,M,M,M,M,M,M,M,54.70,KLSV 240558Z AUTO 33004KT 10SM OVC050 13/12 A2975 RMK AO2 SLP069 60000 T01260117 10143 20110 56007 $,M
INS,2021-12-24 05:58,-115.6733,36.5872,955.00,49.30,46.20,89.01,80.00,9.00,0.00,29.73,1005.20,10.00,M,OVC,M,M,M,7500.00,M,M,M,M,M,M,M,M,M,M,45.03,KINS 240558Z AUTO 08009KT 10SM OVC075 10/08 A2973 RMK AO2 SLP052 60001 T00960079 10098 20079 55000 VISNO RWY08 $,M
LSV,2021-12-24 05:59,-115.0343,36.2362,570.00,55.40,53.60,93.65,320.00,4.00,0.00,29.75,1006.90,10.00,M,OVC,M,M,M,4800.00,M,M,M,M,M,M,M,M,M,M,55.40,KLSV 240559Z AUTO 32004KT 10SM OVC048 13/12 A2975 RMK AO2 SLP069 $,M
LSV,2021-12-24 06:12,-115.0343,36.2362,570.00,55.40,53.60,93.65,0.00,0.00,0.00,29.75,1006.90,10.00,M,SCT,BKN,BKN,M,4800.00,8500.00,11000.00,M,M,M,M,M,M,M,M,55.40,KLSV 240612Z AUTO 00000KT 10SM SCT048 BKN085 BKN110 13/12 A2975 RMK AO2 SLP069 $,M
MEV,2021-12-24 06:15,-119.7500,38.9963,1441.42,35.60,30.20,80.51,0.00,0.00,0.00,29.64,M,10.00,M,SCT,BKN,BKN,M,4800.00,5500.00,6500.00,M,M,M,M,M,M,M,M,35.60,KMEV 240615Z AUTO 00000KT 10SM SCT048 BKN055 BKN065 02/M01 A2964 RMK AO2,M
BVU,2021-12-24 06:15,-114.8611,35.9475,671.00,57.20,46.40,67.12,M,M,0.00,29.78,M,10.00,M,FEW,SCT,BKN,M,3100.00,5500.00,7000.00,M,M,M,M,M,M,M,M,57.20,KBVU 240615Z AUTO 13.20833313KT 10SM FEW031 SCT055 BKN070 14/08 A2978 RMK AO2,M
TMT,2021-12-24 06:15,-117.1971,39.4643,1749.34,32.00,31.10,96.43,210.00,6.00,0.00,29.65,M,10.00,M,CLR,M,M,M,M,M,M,M,M,M,M,M,M,M,M,25.53,KTMT 240615Z AUTO 21006KT 10SM CLR 00/00 A2965 RMK AO2 T00001005,M
HTH,2021-12-24 06:15,-118.6315,38.5448,1282.89,33.80,33.80,100.00,0.00,0.00,0.00,29.65,M,10.00,M,FEW,FEW,FEW,M,6500.00,8500.00,12000.00,M,M,M,M,M,M,M,M,33.80,KHTH 240615Z AUTO 00000KT 10SM FEW065 FEW085 FEW120 01/01 A2965 RMK A01,M
BAM,2021-12-24 06:15,-116.8743,40.5990,1382.36,35.60,32.00,86.59,310.00,4.00,0.00,29.61,M,10.00,M,CLR,M,M,M,M,M,M,M,M,M,M,M,M,M,M,31.62,KBAM 240615Z AUTO 31004KT 10SM CLR 02/00 A2961 RMK AO1,M
05U,2021-12-24 06:15,-116.0051,39.6042,1811.23,30.20,28.40,92.92,0.00,0.00,0.00,29.66,M,10.00,M,SCT,BKN,OVC,M,3600.00,7500.00,9000.00,M,M,M,M,M,M,M,M,30.20,K05U 240615Z AUTO 00000KT 10SM SCT036 BKN075 OVC090 M01/M02 A2966 RMK A01,M
RTS,2021-12-24 06:15,-119.8764,39.6682,1539.00,33.80,32.00,93.03,0.00,0.00,0.00,29.65,M,9.00,M,SCT,BKN,BKN,M,2100.00,3500.00,4800.00,M,-DZ,M,M,M,M,M,M,33.80,KRTS 240615Z AUTO 00000KT 9SM -DZ SCT021 BKN035 BKN048 01/00 A2965 RMK AO2,M
CXP,2021-12-24 06:15,-119.7326,39.1923,1431.00,37.40,30.20,74.98,240.00,5.00,0.00,29.65,M,10.00,M,FEW,SCT,OVC,M,3300.00,4100.00,4900.00,M,M,M,M,M,M,M,M,32.81,KCXP 240615Z AUTO 24005KT 10SM FEW033 SCT041 OVC049 03/M01 A2965 RMK AO2,M
DRA,2021-12-24 06:22,-116.0278,36.6206,1009.00,52.00,43.00,71.28,200.00,16.00,0.00,29.72,M,10.00,32.00,BKN,BKN,OVC,M,2800.00,3800.00,7000.00,M,M,M,M,M,33.00,210.00,2021-12-24 06:08,52.00,KDRA 240622Z AUTO 20016G32KT 10SM BKN028 BKN038 OVC070 11/06 A2972 RMK AO2 PK WND 21033/0608 T01110061,M
RTS,2021-12-24 06:35,-119.8764,39.6682,1539.00,33.80,32.00,93.03,110.00,3.00,0.00,29.65,M,7.00,M,FEW,SCT,BKN,M,900.00,2100.00,2600.00,M,-DZ,M,M,M,M,M,M,30.75,KRTS 240635Z AUTO 11003KT 7SM -DZ FEW009 SCT021 BKN026 01/00 A2965 RMK AO2,M
TMT,2021-12-24 06:35,-117.1971,39.4643,1749.34,32.00,30.90,95.65,210.00,4.00,0.00,29.65,M,10.00,M,CLR,M,M,M,M,M,M,M,M,M,M,M,M,M,M,27.42,KTMT 240635Z AUTO 21004KT 10SM CLR 00/M01 A2965 RMK AO2 T00001006,M
BVU,2021-12-24 06:35,-114.8611,35.9475,671.00,57.20,46.40,67.12,190.00,13.00,0.00,29.78,M,10.00,22.00,BKN,OVC,M,M,5000.00,5500.00,M,M,M,M,M,M,M,M,M,57.20,KBVU 240635Z AUTO 19013G22KT 10SM BKN050 OVC055 14/08 A2978 RMK AO2,M
TPH,2021-12-24 06:35,-117.0904,38.0505,1654.00,33.00,33.00,100.00,0.00,0.00,0.02,29.69,M,2.00,M,OVC,M,M,M,1800.00,M,M,M,-RA BR,M,M,M,M,M,M,33.10,KTPH 240635Z AUTO 00000KT 2SM -RA BR OVC018 01/01 A2969 RMK AO2 P0002 T00060006,M
BAM,2021-12-24 06:35,-116.8743,40.5990,1382.36,35.60,32.00,86.59,300.00,3.00,0.00,29.61,M,10.00,M,CLR,M,M,M,M,M,M,M,M,M,M,M,M,M,M,32.80,KBAM 240635Z AUTO 30003KT 10SM CLR 02/00 A2961 RMK AO1,M
HTH,2021-12-24 06:35,-118.6315,38.5448,1282.89,33.80,33.80,100.00,0.00,0.00,0.00,29.65,M,10.00,M,FEW,SCT,M,M,6500.00,8500.00,M,M,M,M,M,M,M,M,M,33.80,KHTH 240635Z AUTO 00000KT 10SM FEW065 SCT085 01/01 A2965 RMK A01,M
MEV,2021-12-24 06:35,-119.7500,38.9963,1441.42,35.60,30.20,80.51,30.00,4.00,0.00,29.65,M,10.00,M,SCT,BKN,OVC,M,2600.00,3000.00,5500.00,M,M,M,M,M,M,M,M,31.62,KMEV 240635Z AUTO 03004KT 10SM SCT026 BKN030 OVC055 02/M01 A2965 RMK AO2,M
05U,2021-12-24 06:35,-116.0051,39.6042,1811.23,30.20,28.40,92.92,0.00,0.00,0.00,29.66,M,10.00,M,FEW,SCT,BKN,M,3100.00,5000.00,6000.00,M,M,M,M,M,M,M,M,30.20,K05U 240635Z AUTO 00000KT 10SM FEW031 SCT050 BKN060 M01/M02 A2966 RMK A01,M
CXP,2021-12-24 06:35,-119.7326,39.1923,1431.00,37.40,30.20,74.98,M,3.00,0.00,29.66,M,10.00,M,SCT,BKN,BKN,M,3100.00,4300.00,5000.00,M,-UP,M,M,M,M,M,M,34.86,KCXP 240635Z AUTO VRB03KT 10SM -UP SCT031 BKN043 BKN050 03/M01 A2966 RMK AO2,M
INS,2021-12-24 06:38,-115.6733,36.5872,955.00,51.80,42.80,71.26,0.00,0.00,0.00,29.71,1004.50,10.00,M,FEW,FEW,SCT,BKN,4200.00,5000.00,7500.00,10000.00,M,M,M,M,M,M,M,51.80,KINS 240638Z AUTO 00000KT 10SM FEW042 FEW050 SCT075 BKN100 11/06 A2971 RMK AO2 SLP045 VISNO RWY08 $,M
RNO,2021-12-24 06:41,-119.7711,39.4839,1341.00,37.00,33.00,85.64,290.00,8.00,0.01,29.64,M,8.00,M,BKN,OVC,M,M,2200.00,3500.00,M,M,-RA,M,M,M,M,M,M,30.27,KRNO 240641Z 29008KT 8SM -RA BKN022 OVC035 03/01 A2964 RMK AO2 RAB06 P0001 T00280006,M
TPH,2021-12-24 06:42,-117.0904,38.0505,1654.00,33.00,33.00,100.00,0.00,0.00,0.02,29.69,M,1.75,M,OVC,M,M,M,1400.00,M,M,M,-RA BR,M,M,M,M,M,M,33.10,KTPH 240642Z AUTO 00000KT 1 3/4SM -RA BR OVC014 01/01 A2969 RMK AO2 P0002 T00060006,M
DRA,2021-12-24 06:53,-116.0278,36.6206,1009.00,51.00,44.00,76.86,190.00,13.00,0.00,29.71,1003.70,10.00,29.00,OVC,M,M,M,2400.00,M,M,M,M,M,M,M,33.00,210.00,2021-12-24 06:08,51.10,KDRA 240653Z AUTO 19013G29KT 10SM OVC024 11/07 A2971 RMK AO2 PK WND 21033/0608 SLP037 T01060067,M
LOL,2021-12-24 06:53,-118.5701,40.0684,1192.43,34.00,32.00,92.29,0.00,0.00,0.00,29.62,1003.90,10.00,M,FEW,M,M,M,5500.00,M,M,M,M,M,M,M,M,M,M,34.00,KLOL 240653Z AUTO 00000KT 10SM FEW055 01/00 A2962 RMK AO2 SLP039 T00110000,M
VGT,2021-12-24 06:53,-115.1933,36.2111,667.00,56.00,46.00,69.30,190.00,15.00,0.00,29.73,1007.80,10.00,M,FEW,BKN,M,M,4400.00,10000.00,M,M,M,M,M,M,M,M,M,55.90,KVGT 240653Z AUTO 19015KT 10SM FEW044 BKN100 13/08 A2973 RMK AO2 SLP078 T01330078,M
ELY,2021-12-24 06:53,-114.8453,39.2950,1909.00,32.00,32.00,100.00,160.00,3.00,0.11,29.66,1002.90,0.75,M,VV ,M,M,M,800.00,M,M,M,-SN BR,M,M,M,M,M,M,28.69,KELY 240653Z AUTO 16003KT 3/4SM -SN BR VV008 00/00 A2966 RMK AO2 SLP029 P0011 T00000000 $,M
MEV,2021-12-24 06:55,-119.7500,38.9963,1441.42,35.60,32.00,86.59,0.00,0.00,0.00,29.65,M,10.00,M,FEW,SCT,BKN,M,2500.00,2900.00,3700.00,M,M,M,M,M,M,M,M,35.60,KMEV 240655Z AUTO 00000KT 10SM FEW025 SCT029 BKN037 02/M00 A2965 RMK AO2,M
RTS,2021-12-24 06:55,-119.8764,39.6682,1539.00,33.80,32.00,93.03,M,M,0.00,29.64,M,6.00,M,BKN,BKN,BKN,M,800.00,1500.00,2200.00,M,-RA,M,M,M,M,M,M,M,KRTS 240655Z AUTO 6SM -RA BKN008 BKN015 BKN022 01/00 A2964 RMK AO2,M
BVU,2021-12-24 06:55,-114.8611,35.9475,671.00,57.20,46.40,67.12,180.00,16.00,0.00,29.79,M,10.00,M,BKN,OVC,M,M,4700.00,5500.00,M,M,M,M,M,M,M,M,M,57.20,KBVU 240655Z AUTO 18016KT 10SM BKN047 OVC055 14/08 A2979 RMK AO2,M
CXP,2021-12-24 06:55,-119.7326,39.1923,1431.00,37.40,32.00,80.65,0.00,0.00,0.00,29.66,M,10.00,M,FEW,BKN,BKN,M,2000.00,3600.00,5500.00,M,M,M,M,M,M,M,M,37.40,KCXP 240655Z AUTO 00000KT 10SM FEW020 BKN036 BKN055 03/00 A2966 RMK AO2,M
05U,2021-12-24 06:55,-116.0051,39.6042,1811.23,30.20,28.40,92.92,0.00,0.00,0.02,29.66,M,10.00,M,FEW,BKN,OVC,M,5000.00,7500.00,9500.00,M,M,M,M,M,M,M,M,30.20,K05U 240655Z AUTO 00000KT 10SM FEW050 BKN075 OVC095 M01/M02 A2966 RMK A01 P0002,M
TMT,2021-12-24 06:55,-117.1971,39.4643,1749.34,31.80,30.70,95.65,210.00,6.00,0.00,29.65,M,10.00,M,SCT,M,M,M,12000.00,M,M,M,M,M,M,M,M,M,M,25.29,KTMT 240655Z AUTO 21006KT 10SM SCT120 00/M01 A2965 RMK AO2 T10011007,M
BAM,2021-12-24 06:55,-116.8743,40.5990,1382.36,33.80,33.80,100.00,350.00,5.00,0.00,29.60,M,10.00,M,CLR,M,M,M,M,M,M,M,M,M,M,M,M,M,M,28.53,KBAM 240655Z AUTO 35005KT 10SM CLR 01/01 A2960 RMK AO1,M
HTH,2021-12-24 06:55,-118.6315,38.5448,1282.89,33.80,33.80,100.00,90.00,5.00,0.00,29.66,M,10.00,M,BKN,BKN,BKN,M,6500.00,8000.00,9000.00,M,M,M,M,M,M,M,M,28.53,KHTH 240655Z AUTO 09005KT 10SM BKN065 BKN080 BKN090 01/01 A2966 RMK A01,M
RNO,2021-12-24 06:55,-119.7711,39.4839,1341.00,37.00,33.00,85.64,290.00,11.00,0.01,29.64,1003.60,10.00,18.00,BKN,OVC,M,M,2900.00,5000.00,M,M,-RA,M,M,M,M,M,M,28.79,KRNO 240655Z 29011G18KT 10SM -RA BKN029 OVC050 03/01 A2964 RMK AO2 RAB06 SLP036 P0001 T00280006,M
LAS,2021-12-24 06:56,-115.1634,36.0719,663.00,56.00,46.00,69.30,200.00,13.00,T,29.75,1006.80,10.00,27.00,FEW,FEW,OVC,M,3000.00,5500.00,10000.00,M,M,M,M,M,27.00,190.00,2021-12-24 06:52,55.90,KLAS 240656Z 20013G27KT 10SM FEW030 FEW055 OVC100 13/08 A2975 RMK AO2 PK WND 19027/0652 RAB27E35 SLP068 VCSH P0000 T01330078,M
TPH,2021-12-24 06:56,-117.0904,38.0505,1654.00,33.00,33.00,100.00,0.00,0.00,0.02,29.69,1005.30,1.50,M,OVC,M,M,M,1400.00,M,M,M,-RA BR,M,M,M,M,M,M,33.10,KTPH 240656Z AUTO 00000KT 1 1/2SM -RA BR OVC014 01/01 A2969 RMK AO2 SLP053 P0002 T00060006,M
EKO,2021-12-24 06:56,-115.7860,40.8242,1367.00,36.00,30.00,78.60,200.00,5.00,0.00,29.59,1001.80,10.00,M,BKN,M,M,M,6500.00,M,M,M,M,M,M,M,M,M,M,31.15,KEKO 240656Z AUTO 20005KT 10SM BKN065 02/M01 A2959 RMK AO2 SLP018 T00221011,M
HND,2021-12-24 06:56,-115.1344,35.9729,742.79,54.00,47.00,76.83,200.00,14.00,T,29.78,1009.50,10.00,M,FEW,BKN,OVC,M,4400.00,7500.00,11000.00,M,-RA,M,M,M,M,M,M,54.00,KHND 240656Z AUTO 20014KT 10SM -RA FEW044 BKN075 OVC110 12/08 A2978 RMK AO2 SLP095 P0000 T01220083 401670072,M
NFL,2021-12-24 06:56,-118.7010,39.4166,1199.00,36.00,32.00,85.23,180.00,7.00,0.00,29.62,1001.60,10.00,M,CLR,M,M,M,M,M,M,M,M,M,M,M,M,M,M,29.65,KNFL 240656Z AUTO 18007KT 10SM CLR 02/00 A2962 RMK AO2 SLP016 T00220000,M
WMC,2021-12-24 06:56,-117.8072,40.9019,1315.00,38.00,32.00,79.08,160.00,11.00,T,29.57,1001.30,10.00,M,OVC,M,M,M,6500.00,M,M,M,M,M,M,M,M,M,M,29.92,KWMC 240656Z AUTO 16011KT 10SM OVC065 03/00 A2957 RMK AO2 UPB09E19 SLP013 P0000 T00330000,M
RNO,2021-12-24 06:57,-119.7711,39.4839,1341.00,37.00,33.00,85.64,280.00,11.00,T,29.64,M,10.00,18.00,BKN,OVC,M,M,3200.00,5000.00,M,M,-RA,M,M,M,M,M,M,28.79,KRNO 240657Z 28011G18KT 10SM -RA BKN032 OVC050 03/01 A2964 RMK AO2 P0000 T00280006,M
INS,2021-12-24 06:58,-115.6733,36.5872,955.00,50.70,43.20,75.37,180.00,7.00,0.00,29.73,1005.20,10.00,M,FEW,SCT,M,M,7500.00,10000.00,M,M,M,M,M,M,M,M,M,50.70,KINS 240658Z AUTO 18007KT 10SM FEW075 SCT100 10/06 A2973 RMK AO2 PRESRR SLP052 T01040062 VISNO RWY08 $,M
LSV,2021-12-24 06:58,-115.0343,36.2362,570.00,57.20,50.40,77.97,190.00,13.00,0.00,29.75,1006.70,10.00,M,FEW,BKN,M,M,5500.00,7500.00,M,M,M,M,M,M,M,M,M,57.20,KLSV 240658Z AUTO 19013KT 10SM FEW055 BKN075 14/10 A2975 RMK AO2 SLP067 T01400102 $,M
INS,2021-12-24 07:03,-115.6733,36.5872,955.00,51.80,42.80,71.26,230.00,7.00,0.00,29.72,1004.60,10.00,15.00,BKN,M,M,M,9500.00,M,M,M,M,M,M,M,M,M,M,51.80,KINS 240703Z AUTO 23007G15KT 10SM BKN095 11/06 A2972 RMK AO2 SLP046 VISNO RWY08 $,M
TPH,2021-12-24 07:08,-117.0904,38.0505,1654.00,33.00,33.00,100.00,0.00,0.00,0.01,29.70,M,2.00,M,OVC,M,M,M,1600.00,M,M,M,-RA BR,M,M,M,M,M,M,33.10,KTPH 240708Z AUTO 00000KT 2SM -RA BR OVC016 01/01 A2970 RMK AO2 P0001 T00060006,M
05U,2021-12-24 07:15,-116.0051,39.6042,1811.23,28.40,28.40,100.00,0.00,0.00,0.00,29.65,M,10.00,M,FEW,BKN,OVC,M,7000.00,8000.00,9500.00,M,M,M,M,M,M,M,M,28.40,K05U 240715Z AUTO 00000KT 10SM FEW070 BKN080 OVC095 M02/M02 A2965 RMK A01,M
CXP,2021-12-24 07:15,-119.7326,39.1923,1431.00,35.60,32.00,86.59,50.00,3.00,0.00,29.65,M,10.00,M,SCT,BKN,OVC,M,4100.00,6000.00,7500.00,M,M,M,M,M,M,M,M,32.80,KCXP 240715Z AUTO 05003KT 10SM SCT041 BKN060 OVC075 02/M00 A2965 RMK AO2 LTG DSNT S,M
BVU,2021-12-24 07:15,-114.8611,35.9475,671.00,55.40,46.40,71.64,190.00,13.00,0.00,29.79,M,10.00,18.00,FEW,BKN,OVC,M,2800.00,4300.00,4800.00,M,M,M,M,M,M,M,M,55.40,KBVU 240715Z AUTO 19013G18KT 10SM FEW028 BKN043 OVC048 13/08 A2979 RMK AO2,M
RTS,2021-12-24 07:15,-119.8764,39.6682,1539.00,33.80,32.00,93.03,M,M,0.00,29.64,M,9.00,M,SCT,BKN,OVC,M,800.00,2800.00,4800.00,M,-DZ,M,M,M,M,M,M,M,KRTS 240715Z AUTO 9SM -DZ SCT008 BKN028 OVC048 01/00 A2964 RMK AO2,M
BAM,2021-12-24 07:15,-116.8743,40.5990,1382.36,33.80,33.80,100.00,0.00,0.00,0.00,29.60,M,10.00,M,SCT,SCT,M,M,10000.00,12000.00,M,M,M,M,M,M,M,M,M,33.80,KBAM 240715Z AUTO 00000KT 10SM SCT100 SCT120 01/01 A2960 RMK AO1,M
HTH,2021-12-24 07:15,-118.6315,38.5448,1282.89,33.80,33.80,100.00,M,3.00,0.00,29.67,M,10.00,M,OVC,M,M,M,7000.00,M,M,M,M,M,M,M,M,M,M,30.75,KHTH 240715Z AUTO VRB03KT 10SM OVC070 01/01 A2967 RMK A01,M
MEV,2021-12-24 07:15,-119.7500,38.9963,1441.42,33.80,32.00,93.03,40.00,6.00,0.00,29.64,M,10.00,M,FEW,SCT,BKN,M,1900.00,2800.00,3700.00,M,M,M,M,M,M,M,M,27.70,KMEV 240715Z AUTO 04006KT 10SM FEW019 SCT028 BKN037 01/M00 A2964 RMK AO2 LTG DSNT S,M
TMT,2021-12-24 07:15,-117.1971,39.4643,1749.34,32.00,30.70,94.88,210.00,4.00,0.00,29.65,M,10.00,M,CLR,M,M,M,M,M,M,M,M,M,M,M,M,M,M,27.42,KTMT 240715Z AUTO 21004KT 10SM CLR 00/M01 A2965 RMK AO2 LTG DSNT SW T00001007,M
ELY,2021-12-24 07:17,-114.8453,39.2950,1909.00,32.00,32.00,100.00,190.00,5.00,0.03,29.66,M,1.00,M,VV ,M,M,M,900.00,M,M,M,-SN BR,M,M,M,M,M,M,26.40,KELY 240717Z AUTO 19005KT 1SM -SN BR VV009 00/00 A2966 RMK AO2 P0003 T00000000 $,M
INS,2021-12-24 07:28,-115.6733,36.5872,955.00,51.80,41.00,66.48,170.00,14.00,0.00,29.71,1004.30,10.00,20.00,FEW,OVC,M,M,6000.00,8500.00,M,M,M,M,M,M,M,M,M,51.80,KINS 240728Z AUTO 17014G20KT 10SM FEW060 OVC085 11/05 A2971 RMK AO2 WSHFT 26 SLP043 VISNO RWY08 $,M
TMT,2021-12-24 07:35,-117.1971,39.4643,1749.34,31.60,30.00,93.72,200.00,8.00,0.00,29.64,M,10.00,M,SCT,M,M,M,11000.00,M,M,M,M,M,M,M,M,M,M,23.62,KTMT 240735Z AUTO 20008KT 10SM SCT110 00/M01 A2964 RMK AO2 T10021011,M
RTS,2021-12-24 07:35,-119.8764,39.6682,1539.00,33.80,32.00,93.03,110.00,5.00,0.00,29.63,M,10.00,M,FEW,BKN,OVC,M,1900.00,2800.00,4700.00,M,M,M,M,M,M,M,M,28.53,KRTS 240735Z AUTO 11005KT 10SM FEW019 BKN028 OVC047 01/00 A2963 RMK AO2,M
BAM,2021-12-24 07:35,-116.8743,40.5990,1382.36,35.60,32.00,86.59,240.00,5.00,0.00,29.59,M,10.00,M,CLR,M,M,M,M,M,M,M,M,M,M,M,M,M,M,30.67,KBAM 240735Z AUTO 24005KT 10SM CLR 02/00 A2959 RMK AO1,M
CXP,2021-12-24 07:35,-119.7326,39.1923,1431.00,35.60,32.00,86.59,0.00,0.00,0.00,29.65,M,10.00,M,FEW,SCT,BKN,M,4100.00,4900.00,6500.00,M,M,M,M,M,M,M,M,35.60,KCXP 240735Z AUTO 00000KT 10SM FEW041 SCT049 BKN065 02/M00 A2965 RMK AO2,M
BVU,2021-12-24 07:35,-114.8611,35.9475,671.00,55.40,48.20,76.66,170.00,15.00,0.00,29.78,M,10.00,M,SCT,BKN,OVC,M,3300.00,4400.00,8000.00,M,M,M,M,M,M,M,M,55.40,KBVU 240735Z AUTO 17015KT 10SM SCT033 BKN044 OVC080 13/09 A2978 RMK AO2,M
HTH,2021-12-24 07:35,-118.6315,38.5448,1282.89,33.80,33.80,100.00,250.00,4.00,0.00,29.67,M,10.00,M,OVC,M,M,M,7000.00,M,M,M,M,M,M,M,M,M,M,29.52,KHTH 240735Z AUTO 25004KT 10SM OVC070 01/01 A2967 RMK A01,M
MEV,2021-12-24 07:35,-119.7500,38.9963,1441.42,33.80,30.20,86.49,100.00,8.00,0.00,29.64,M,10.00,M,SCT,BKN,OVC,M,2900.00,3800.00,5500.00,M,M,M,M,M,M,M,M,26.33,KMEV 240735Z AUTO 10008KT 10SM SCT029 BKN038 OVC055 01/M01 A2964 RMK AO2,M
05U,2021-12-24 07:35,-116.0051,39.6042,1811.23,28.40,26.60,92.86,0.00,0.00,0.00,29.65,M,10.00,M,FEW,SCT,OVC,M,6500.00,7500.00,9500.00,M,M,M,M,M,M,M,M,28.40,K05U 240735Z AUTO 00000KT 10SM FEW065 SCT075 OVC095 M02/M03 A2965 RMK A01,M
TPH,2021-12-24 07:37,-117.0904,38.0505,1654.00,33.00,33.00,100.00,0.00,0.00,0.01,29.69,M,3.00,M,OVC,M,M,M,1500.00,M,M,M,BR,M,M,M,M,M,M,33.10,KTPH 240737Z AUTO 00000KT 3SM BR OVC015 01/01 A2969 RMK AO2 RAE11 P0001 T00060006,M
ELY,2021-12-24 07:38,-114.8453,39.2950,1909.00,32.00,32.00,100.00,190.00,6.00,0.06,29.66,M,1.50,M,OVC,M,M,M,1000.00,M,M,M,-SN BR,M,M,M,M,M,M,25.53,KELY 240738Z AUTO 19006KT 1 1/2SM -SN BR OVC010 00/00 A2966 RMK AO2 P0006 T00000000 $,M
INS,2021-12-24 07:40,-115.6733,36.5872,955.00,51.80,41.00,66.48,210.00,15.00,0.00,29.70,1003.90,10.00,19.00,FEW,OVC,M,M,6000.00,9500.00,M,M,M,M,M,M,M,M,M,51.80,KINS 240740Z AUTO 21015G19KT 10SM FEW060 OVC095 11/05 A2970 RMK AO2 WSHFT 37 SLP039 VISNO RWY08 $,M
INS,2021-12-24 07:41,-115.6733,36.5872,955.00,53.60,41.00,62.23,160.00,14.00,0.00,29.71,1004.10,10.00,19.00,FEW,OVC,M,M,6000.00,9500.00,M,M,M,M,M,M,M,M,M,53.60,KINS 240741Z AUTO 16014G19KT 10SM FEW060 OVC095 12/05 A2971 RMK AO2 WSHFT 40 SLP041 VISNO RWY08 $,M
INS,2021-12-24 07:42,-115.6733,36.5872,955.00,53.60,41.00,62.23,110.00,13.00,0.00,29.71,1004.10,10.00,19.00,FEW,OVC,M,M,6000.00,9500.00,M,M,M,M,M,M,M,M,M,53.60,KINS 240742Z AUTO 11013G19KT 10SM FEW060 OVC095 12/05 A2971 RMK AO2 WSHFT 41 SLP041 VISNO RWY08 $,M
ELY,2021-12-24 07:46,-114.8453,39.2950,1909.00,32.00,32.00,100.00,170.00,5.00,0.07,29.65,M,1.00,M,VV ,M,M,M,1100.00,M,M,M,-SN BR,M,M,M,M,M,M,26.40,KELY 240746Z AUTO 17005KT 1SM -SN BR VV011 00/00 A2965 RMK AO2 P0007 T00000000 $,M
VGT,2021-12-24 07:53,-115.1933,36.2111,667.00,58.00,45.00,62.07,200.00,17.00,0.00,29.70,1006.70,10.00,29.00,CLR,M,M,M,M,M,M,M,M,M,M,M,29.00,200.00,2021-12-24 07:50,57.90,KVGT 240753Z AUTO 20017G29KT 10SM CLR 14/07 A2970 RMK AO2 PK WND 20029/0750 SLP067 T01440072 401440083,M
ELY,2021-12-24 07:53,-114.8453,39.2950,1909.00,32.00,32.00,100.00,190.00,4.00,0.07,29.65,1002.50,1.25,M,OVC,M,M,M,1800.00,M,M,M,-SN BR,M,M,M,M,M,M,27.42,KELY 240753Z AUTO 19004KT 1 1/4SM -SN BR OVC018 00/00 A2965 RMK AO2 SLP025 P0007 T00000000 400500000 $,M
DRA,2021-12-24 07:53,-116.0278,36.6206,1009.00,52.00,43.00,71.28,210.00,20.00,0.00,29.70,1003.40,10.00,35.00,BKN,OVC,M,M,2800.00,3400.00,M,M,M,M,M,M,35.00,200.00,2021-12-24 07:49,52.00,KDRA 240753Z AUTO 21020G35KT 10SM BKN028 OVC034 11/06 A2970 RMK AO2 PK WND 20035/0749 SLP034 T01110061 401330039,M
CXP,2021-12-24 07:55,-119.7326,39.1923,1431.00,37.40,32.00,80.65,340.00,4.00,0.00,29.64,M,10.00,M,SCT,BKN,OVC,M,3700.00,4300.00,5500.00,M,M,M,M,M,M,M,M,33.73,KCXP 240755Z AUTO 34004KT 10SM SCT037 BKN043 OVC055 03/M00 A2964 RMK AO2,M
RTS,2021-12-24 07:55,-119.8764,39.6682,1539.00,33.80,32.00,93.03,0.00,0.00,0.01,29.63,M,10.00,M,FEW,SCT,BKN,M,2100.00,2800.00,3900.00,M,M,M,M,M,M,M,M,33.80,KRTS 240755Z AUTO 00000KT 10SM FEW021 SCT028 BKN039 01/M00 A2963 RMK AO2 P0001,M
RNO,2021-12-24 07:55,-119.7711,39.4839,1341.00,36.00,33.00,89.09,M,4.00,0.04,29.63,1003.50,10.00,M,SCT,SCT,BKN,M,4000.00,5500.00,8000.00,M,M,M,M,M,M,M,M,32.09,KRNO 240755Z VRB04KT 10SM SCT040 SCT055 BKN080 02/01 A2963 RMK AO2 RAE38 SLP035 P0004 T00220006 400670006,M
BVU,2021-12-24 07:55,-114.8611,35.9475,671.00,55.40,48.20,76.66,170.00,16.00,0.00,29.77,M,10.00,M,SCT,BKN,OVC,M,3900.00,4800.00,12000.00,M,M,M,M,M,M,M,M,55.40,KBVU 240755Z AUTO 17016KT 10SM SCT039 BKN048 OVC120 13/09 A2977 RMK AO2,M
TMT,2021-12-24 07:55,-117.1971,39.4643,1749.34,32.00,30.20,92.97,200.00,5.00,0.00,29.65,M,10.00,M,BKN,M,M,M,11000.00,M,M,M,M,M,M,M,M,M,M,26.40,KTMT 240755Z AUTO 20005KT 10SM BKN110 00/M01 A2965 RMK AO2 T00001010 400511050,M
HTH,2021-12-24 07:55,-118.6315,38.5448,1282.89,33.80,33.80,100.00,130.00,7.00,0.00,29.67,M,10.00,M,SCT,BKN,OVC,M,5500.00,6500.00,7000.00,M,M,M,M,M,M,M,M,26.97,KHTH 240755Z AUTO 13007KT 10SM SCT055 BKN065 OVC070 01/01 A2967 RMK A01,M
BAM,2021-12-24 07:55,-116.8743,40.5990,1382.36,35.60,32.00,86.59,220.00,8.00,0.00,29.59,M,10.00,M,CLR,M,M,M,M,M,M,M,M,M,M,M,M,M,M,28.55,KBAM 240755Z AUTO 22008KT 10SM CLR 02/00 A2959 RMK AO1,M
MEV,2021-12-24 07:55,-119.7500,38.9963,1441.42,33.80,30.20,86.49,100.00,6.00,0.00,29.64,M,10.00,M,FEW,SCT,BKN,M,3400.00,4200.00,5000.00,M,M,M,M,M,M,M,M,27.70,KMEV 240755Z AUTO 10006KT 10SM FEW034 SCT042 BKN050 01/M01 A2964 RMK AO2,M
05U,2021-12-24 07:55,-116.0051,39.6042,1811.23,28.40,28.40,100.00,0.00,0.00,0.01,29.65,M,10.00,M,FEW,BKN,OVC,M,7000.00,7500.00,9000.00,M,M,M,M,M,M,M,M,28.40,K05U 240755Z AUTO 00000KT 10SM FEW070 BKN075 OVC090 M02/M02 A2965 RMK A01 P0001,M
TPH,2021-12-24 07:56,-117.0904,38.0505,1654.00,33.00,33.00,100.00,0.00,0.00,0.01,29.68,1005.10,4.00,M,OVC,M,M,M,1300.00,M,M,M,BR,M,M,M,M,M,M,33.10,KTPH 240756Z AUTO 00000KT 4SM BR OVC013 01/01 A2968 RMK AO2 RAE11 SLP051 P0001 T00060006 400331067,M
NFL,2021-12-24 07:56,-118.7010,39.4166,1199.00,35.00,32.00,88.33,170.00,6.00,0.00,29.63,1001.80,10.00,M,CLR,M,M,M,M,M,M,M,M,M,M,M,M,M,M,29.26,KNFL 240756Z AUTO 17006KT 10SM CLR 02/00 A2963 RMK AO2 SLP018 T00170000 400671011,M
WMC,2021-12-24 07:56,-117.8072,40.9019,1315.00,38.00,32.00,79.08,150.00,6.00,0.00,29.57,1001.10,10.00,M,SCT,OVC,M,M,4700.00,6000.00,M,M,M,M,M,M,M,M,M,32.64,KWMC 240756Z AUTO 15006KT 10SM SCT047 OVC060 03/00 A2957 RMK AO2 SLP011 T00330000 400391006,M
LAS,2021-12-24 07:56,-115.1634,36.0719,663.00,56.00,46.00,69.30,200.00,14.00,0.00,29.72,1005.60,10.00,21.00,FEW,FEW,BKN,M,3500.00,5500.00,12000.00,M,M,M,M,M,27.00,200.00,2021-12-24 07:19,55.90,KLAS 240756Z 20014G21KT 10SM FEW035 FEW055 BKN120 13/08 A2972 RMK AO2 PK WND 20027/0719 SLP056 MTNS OBSCURED DSNT W-NW T01330078 401440083,M
EKO,2021-12-24 07:56,-115.7860,40.8242,1367.00,36.00,28.90,75.15,200.00,4.00,0.00,29.58,1001.70,10.00,M,FEW,BKN,M,M,6000.00,10000.00,M,M,M,M,M,M,M,M,M,32.09,KEKO 240756Z AUTO 20004KT 10SM FEW060 BKN100 02/M02 A2958 RMK AO2 SLP017 T00221017 400561072,M
HND,2021-12-24 07:56,-115.1344,35.9729,742.79,54.00,47.00,76.83,200.00,20.00,T,29.74,1007.70,10.00,M,FEW,BKN,M,M,3800.00,11000.00,M,M,-RA,M,M,M,M,M,M,54.00,KHND 240756Z AUTO 20020KT 10SM -RA FEW038 BKN110 12/08 A2974 RMK AO2 SLP077 P0000 T01220083,M
LSV,2021-12-24 07:58,-115.0343,36.2362,570.00,57.20,49.30,74.85,180.00,14.00,0.00,29.71,1005.20,10.00,M,SCT,M,M,M,6000.00,M,M,M,M,M,M,M,M,M,M,57.20,KLSV 240758Z AUTO 18014KT 10SM SCT060 14/10 A2971 RMK AO2 SLP052 T01400096 401500075 $,M
ELY,2021-12-24 07:58,-114.8453,39.2950,1909.00,32.00,32.00,100.00,210.00,3.00,T,29.64,M,2.00,M,OVC,M,M,M,2500.00,M,M,M,-SN BR,M,M,M,M,M,M,28.69,KELY 240758Z AUTO 21003KT 2SM -SN BR OVC025 00/00 A2964 RMK AO2 P0000 T00000000 $,M
INS,2021-12-24 07:58,-115.6733,36.5872,955.00,50.20,43.20,76.78,70.00,5.00,0.00,29.70,1003.90,10.00,M,BKN,M,M,M,10000.00,M,M,M,M,M,M,M,M,M,M,50.20,KINS 240758Z AUTO 07005KT 10SM BKN100 10/06 A2970 RMK AO2 SLP039 T01010062 401170018 VISNO RWY08 $,M
MEV,2021-12-24 08:15,-119.7500,38.9963,1441.42,35.60,32.00,86.59,160.00,7.00,0.00,29.64,M,10.00,12.00,FEW,SCT,BKN,M,2700.00,3400.00,4200.00,M,UP,M,M,M,M,M,M,29.17,KMEV 240815Z AUTO 16007G12KT 10SM UP FEW027 SCT034 BKN042 02/M00 A2964 RMK AO2,M
RTS,2021-12-24 08:15,-119.8764,39.6682,1539.00,33.80,32.00,93.03,10.00,3.00,0.00,29.63,M,10.00,M,FEW,SCT,BKN,M,2700.00,3200.00,3700.00,M,-RA,M,M,M,M,M,M,30.75,KRTS 240815Z AUTO 01003KT 10SM -RA FEW027 SCT032 BKN037 01/M00 A2963 RMK AO2,M
05U,2021-12-24 08:15,-116.0051,39.6042,1811.23,28.40,28.40,100.00,0.00,0.00,0.00,29.65,M,10.00,M,BKN,OVC,M,M,7500.00,9000.00,M,M,M,M,M,M,M,M,M,28.40,K05U 240815Z AUTO 00000KT 10SM BKN075 OVC090 M02/M02 A2965 RMK A01,M
CXP,2021-12-24 08:15,-119.7326,39.1923,1431.00,35.60,32.00,86.59,0.00,0.00,0.00,29.64,M,10.00,M,FEW,SCT,BKN,M,2900.00,3700.00,4500.00,M,M,M,M,M,M,M,M,35.60,KCXP 240815Z AUTO 00000KT 10SM FEW029 SCT037 BKN045 02/00 A2964 RMK AO2,M
BAM,2021-12-24 08:15,-116.8743,40.5990,1382.36,35.60,32.00,86.59,230.00,10.00,0.00,29.58,M,10.00,M,CLR,M,M,M,M,M,M,M,M,M,M,M,M,M,M,27.48,KBAM 240815Z AUTO 23010KT 10SM CLR 02/00 A2958 RMK AO1,M
TMT,2021-12-24 08:15,-117.1971,39.4643,1749.34,31.10,29.80,94.86,210.00,5.00,0.00,29.65,M,10.00,M,OVC,M,M,M,11000.00,M,M,M,M,M,M,M,M,M,M,25.33,KTMT 240815Z AUTO 21005KT 10SM OVC110 00/M01 A2965 RMK AO2 T10051012,M
HTH,2021-12-24 08:15,-118.6315,38.5448,1282.89,35.60,33.80,93.08,150.00,10.00,0.00,29.66,M,10.00,M,SCT,SCT,M,M,5500.00,6500.00,M,M,M,M,M,M,M,M,M,27.48,KHTH 240815Z AUTO 15010KT 10SM SCT055 SCT065 02/01 A2966 RMK A01,M
BVU,2021-12-24 08:15,-114.8611,35.9475,671.00,55.40,46.40,71.64,170.00,17.00,0.00,29.77,M,10.00,22.00,SCT,BKN,OVC,M,4100.00,6500.00,12000.00,M,M,M,M,M,M,M,M,55.40,KBVU 240815Z AUTO 17017G22KT 10SM SCT041 BKN065 OVC120 13/08 A2977 RMK AO2,M
ELY,2021-12-24 08:18,-114.8453,39.2950,1909.00,32.00,32.00,100.00,220.00,5.00,0.01,29.64,M,3.00,M,OVC,M,M,M,3300.00,M,M,M,-SN BR,M,M,M,M,M,M,26.40,KELY 240818Z AUTO 22005KT 3SM -SN BR OVC033 00/00 A2964 RMK AO2 P0001 T00000000 $,M
CXP,2021-12-24 08:35,-119.7326,39.1923,1431.00,35.60,32.00,86.59,0.00,0.00,0.00,29.64,M,10.00,M,BKN,BKN,OVC,M,3800.00,4800.00,6000.00,M,M,M,M,M,M,M,M,35.60,KCXP 240835Z AUTO 00000KT 10SM BKN038 BKN048 OVC060 02/00 A2964 RMK AO2,M
BVU,2021-12-24 08:35,-114.8611,35.9475,671.00,55.40,48.20,76.66,160.00,17.00,0.00,29.75,M,10.00,M,BKN,BKN,OVC,M,4300.00,4900.00,12000.00,M,M,M,M,M,M,M,M,55.40,KBVU 240835Z AUTO 16017KT 10SM BKN043 BKN049 OVC120 13/09 A2975 RMK AO2,M
RTS,2021-12-24 08:35,-119.8764,39.6682,1539.00,33.80,32.00,93.03,0.00,0.00,0.00,29.62,M,7.00,M,SCT,BKN,OVC,M,1100.00,3500.00,6500.00,M,-RA,M,M,M,M,M,M,33.80,KRTS 240835Z AUTO 00000KT 7SM -RA SCT011 BKN035 OVC065 01/00 A2962 RMK AO2,M
05U,2021-12-24 08:35,-116.0051,39.6042,1811.23,28.40,26.60,92.86,0.00,0.00,0.00,29.65,M,10.00,M,OVC,M,M,M,7000.00,M,M,M,M,M,M,M,M,M,M,28.40,K05U 240835Z AUTO 00000KT 10SM OVC070 M02/M03 A2965 RMK A01,M
MEV,2021-12-24 08:35,-119.7500,38.9963,1441.42,35.60,32.00,86.59,170.00,6.00,0.00,29.63,M,10.00,M,SCT,BKN,OVC,M,2200.00,3400.00,6000.00,M,M,M,M,M,M,M,M,29.87,KMEV 240835Z AUTO 17006KT 10SM SCT022 BKN034 OVC060 02/M00 A2963 RMK AO2,M
BAM,2021-12-24 08:35,-116.8743,40.5990,1382.36,35.60,32.00,86.59,240.00,12.00,0.00,29.59,M,10.00,M,CLR,M,M,M,M,M,M,M,M,M,M,M,M,M,M,26.58,KBAM 240835Z AUTO 24012KT 10SM CLR 02/00 A2959 RMK AO1,M
TMT,2021-12-24 08:35,-117.1971,39.4643,1749.34,31.10,29.30,92.94,210.00,8.00,0.00,29.65,M,10.00,M,OVC,M,M,M,10000.00,M,M,M,M,M,M,M,M,M,M,23.00,KTMT 240835Z AUTO 21008KT 10SM OVC100 00/M01 A2965 RMK AO2 T10051015,M
HTH,2021-12-24 08:35,-118.6315,38.5448,1282.89,41.00,30.20,65.16,170.00,13.00,0.00,29.64,M,10.00,M,CLR,M,M,M,M,M,M,M,M,M,M,M,M,M,M,33.10,KHTH 240835Z AUTO 17013KT 10SM CLR 05/M01 A2964 RMK A01,M
INS,2021-12-24 08:38,-115.6733,36.5872,955.00,55.40,41.00,58.27,200.00,14.00,0.00,29.70,1003.70,10.00,27.00,BKN,BKN,M,M,9500.00,11000.00,M,M,M,M,M,M,M,M,M,55.40,KINS 240838Z AUTO 20014G27KT 10SM BKN095 BKN110 13/05 A2970 RMK AO2 SLP037 VISNO RWY08 $,M
INS,2021-12-24 08:43,-115.6733,36.5872,955.00,55.40,41.00,58.27,190.00,12.00,0.00,29.69,1003.40,10.00,M,SCT,BKN,M,M,9500.00,11000.00,M,M,M,M,M,M,M,M,M,55.40,KINS 240843Z AUTO 19012KT 10SM SCT095 BKN110 13/05 A2969 RMK AO2 SLP034 VISNO RWY08 $,M
LOL,2021-12-24 08:53,-118.5701,40.0684,1192.43,34.00,32.00,92.29,180.00,5.00,0.00,29.61,1003.40,10.00,M,FEW,SCT,M,M,9500.00,12000.00,M,M,M,M,M,M,M,M,M,28.77,KLOL 240853Z AUTO 18005KT 10SM FEW095 SCT120 01/00 A2961 RMK AO2 SLP034 T00110000 $,M
VGT,2021-12-24 08:53,-115.1933,36.2111,667.00,57.00,46.00,66.59,200.00,16.00,T,29.70,1006.80,10.00,21.00,BKN,OVC,M,M,5500.00,7500.00,M,M,-RA,M,M,M,27.00,190.00,2021-12-24 08:40,57.00,KVGT 240853Z AUTO 20016G21KT 10SM -RA BKN055 OVC075 14/08 A2970 RMK AO2 PK WND 19027/0840 RAB48 SLP068 P0000 60000 T01390078 55012,M
DRA,2021-12-24 08:53,-116.0278,36.6206,1009.00,51.00,43.00,73.69,220.00,16.00,0.00,29.69,1003.00,10.00,32.00,OVC,M,M,M,2500.00,M,M,M,M,M,M,M,32.00,230.00,2021-12-24 08:46,51.10,KDRA 240853Z AUTO 22016G32KT 10SM OVC025 11/06 A2969 RMK AO2 PK WND 23032/0846 SLP030 T01060061 56011,M
ELY,2021-12-24 08:53,-114.8453,39.2950,1909.00,32.00,32.00,100.00,230.00,4.00,0.01,29.65,1001.80,6.00,M,OVC,M,M,M,3400.00,M,M,M,-SN BR,M,M,M,M,M,M,27.42,KELY 240853Z AUTO 23004KT 6SM -SN BR OVC034 00/00 A2965 RMK AO2 SLP018 P0001 60019 T00000000 56007 $,M
MEV,2021-12-24 08:55,-119.7500,38.9963,1441.42,35.60,32.00,86.59,210.00,4.00,0.00,29.63,M,10.00,M,SCT,BKN,OVC,M,2100.00,3200.00,5000.00,M,UP,M,M,M,M,M,M,31.62,KMEV 240855Z AUTO 21004KT 10SM UP SCT021 BKN032 OVC050 02/00 A2963 RMK AO2,M
RNO,2021-12-24 08:55,-119.7711,39.4839,1341.00,36.00,33.00,89.09,0.00,0.00,T,29.61,1002.80,10.00,M,SCT,BKN,BKN,M,4000.00,6500.00,8000.00,M,M,M,M,M,M,M,M,36.00,KRNO 240855Z 00000KT 10SM SCT040 BKN065 BKN080 02/01 A2961 RMK AO2 RAB26E43 SLP028 P0000 60005 T00220006 58005,M
05U,2021-12-24 08:55,-116.0051,39.6042,1811.23,28.40,28.40,100.00,0.00,0.00,0.01,29.64,M,10.00,M,OVC,M,M,M,7500.00,M,M,M,M,M,M,M,M,M,M,28.40,K05U 240855Z AUTO 00000KT 10SM OVC075 M02/M02 A2964 RMK A01 P0001,M
RTS,2021-12-24 08:55,-119.8764,39.6682,1539.00,33.80,32.00,93.03,90.00,4.00,0.00,29.62,M,10.00,M,SCT,BKN,OVC,M,1800.00,3200.00,4800.00,M,M,M,M,M,M,M,M,29.52,KRTS 240855Z AUTO 09004KT 10SM SCT018 BKN032 OVC048 01/M00 A2962 RMK AO2,M
CXP,2021-12-24 08:55,-119.7326,39.1923,1431.00,35.60,33.80,93.08,0.00,0.00,0.00,29.63,M,10.00,M,FEW,BKN,OVC,M,3600.00,4600.00,7500.00,M,M,M,M,M,M,M,M,35.60,KCXP 240855Z AUTO 00000KT 10SM FEW036 BKN046 OVC075 02/01 A2963 RMK AO2,M
BAM,2021-12-24 08:55,-116.8743,40.5990,1382.36,35.60,32.00,86.59,250.00,10.00,0.00,29.58,M,10.00,M,CLR,M,M,M,M,M,M,M,M,M,M,M,M,M,M,27.48,KBAM 240855Z AUTO 25010KT 10SM CLR 02/00 A2958 RMK AO1,M
TMT,2021-12-24 08:55,-117.1971,39.4643,1749.34,30.90,28.60,91.06,230.00,9.00,0.00,29.64,M,10.00,M,BKN,M,M,M,10000.00,M,M,M,M,M,M,M,M,M,M,22.15,KTMT 240855Z AUTO 23009KT 10SM BKN100 M01/M02 A2964 RMK AO2 T10061019,M
HTH,2021-12-24 08:55,-118.6315,38.5448,1282.89,41.00,30.20,65.16,240.00,7.00,0.00,29.63,M,10.00,13.00,CLR,M,M,M,M,M,M,M,M,M,M,M,M,M,M,35.75,KHTH 240855Z AUTO 24007G13KT 180V280 10SM CLR 05/M01 A2963 RMK A01,M
BVU,2021-12-24 08:55,-114.8611,35.9475,671.00,53.60,50.00,87.56,150.00,12.00,0.00,29.74,M,10.00,19.00,SCT,OVC,M,M,3600.00,4400.00,M,M,M,M,M,M,M,M,M,53.60,KBVU 240855Z AUTO 15012G19KT 10SM SCT036 OVC044 12/10 A2974 RMK AO2,M
HND,2021-12-24 08:56,-115.1344,35.9729,742.79,54.00,46.00,74.26,210.00,17.00,T,29.73,1007.80,10.00,22.00,FEW,BKN,OVC,M,4000.00,5500.00,7000.00,M,-RA,M,M,M,29.00,200.00,2021-12-24 08:15,54.00,KHND 240856Z AUTO 21017G22KT 10SM -RA FEW040 BKN055 OVC070 12/08 A2973 RMK AO2 PK WND 20029/0815 SLP078 P0000 60000 T01220078 58013,M
LAS,2021-12-24 08:56,-115.1634,36.0719,663.00,55.00,46.00,71.60,200.00,13.00,T,29.71,1005.40,10.00,21.00,FEW,SCT,OVC,M,3800.00,5000.00,11000.00,M,M,M,M,M,M,M,M,55.00,KLAS 240856Z 20013G21KT 10SM FEW038 SCT050 OVC110 13/08 A2971 RMK AO2 RAB48E56 SLP054 MTNS OBSCURED DSNT W-NW P0000 60000 T01280078 58010,M
TPH,2021-12-24 08:56,-117.0904,38.0505,1654.00,33.00,33.00,100.00,10.00,6.00,T,29.67,1004.60,7.00,M,BKN,OVC,M,M,1000.00,1900.00,M,M,-RA,M,M,M,M,M,M,26.86,KTPH 240856Z AUTO 01006KT 7SM -RA BKN010 OVC019 01/01 A2967 RMK AO2 RAB42 SLP046 P0000 60003 T00060006 58007,M
NFL,2021-12-24 08:56,-118.7010,39.4166,1199.00,35.00,32.00,88.33,160.00,9.00,0.00,29.62,1001.40,10.00,M,CLR,M,M,M,M,M,M,M,M,M,M,M,M,M,M,27.37,KNFL 240856Z AUTO 16009KT 10SM CLR 02/00 A2962 RMK AO2 SLP014 T00170000 58003,M
EKO,2021-12-24 08:56,-115.7860,40.8242,1367.00,33.00,28.90,84.36,240.00,4.00,0.00,29.57,1001.90,10.00,M,OVC,M,M,M,5500.00,M,M,M,M,M,M,M,M,M,M,28.70,KEKO 240856Z AUTO 24004KT 10SM OVC055 01/M02 A2957 RMK AO2 SLP019 T00061017 58008,M
WMC,2021-12-24 08:56,-117.8072,40.9019,1315.00,37.00,30.90,78.37,180.00,7.00,0.00,29.56,1001.10,10.00,M,SCT,BKN,M,M,3800.00,5500.00,M,M,M,M,M,M,M,M,M,30.87,KWMC 240856Z AUTO 18007KT 10SM SCT038 BKN055 03/M01 A2956 RMK AO2 SLP011 60000 T00281006 56005,M
INS,2021-12-24 08:58,-115.6733,36.5872,955.00,54.30,40.30,59.03,220.00,13.00,0.00,29.68,1003.20,10.00,M,FEW,M,M,M,9500.00,M,M,M,M,M,M,M,27.00,230.00,2021-12-24 08:30,54.30,KINS 240858Z AUTO 22013KT 10SM FEW095 12/05 A2968 RMK AO2 PK WND 23027/30 SLP032 T01240046 57015 VISNO RWY08 $,M
LSV,2021-12-24 08:58,-115.0343,36.2362,570.00,57.00,48.40,72.89,200.00,17.00,0.00,29.70,1004.90,10.00,M,SCT,M,M,M,6000.00,M,M,M,M,M,M,M,M,M,M,57.00,KLSV 240858Z AUTO 20017KT 10SM SCT060 14/09 A2970 RMK AO2 SLP049 T01390091 58017 $,M
ELY,2021-12-24 08:58,-114.8453,39.2950,1909.00,32.00,32.00,100.00,230.00,4.00,T,29.65,M,2.00,M,OVC,M,M,M,2800.00,M,M,M,-SN BR,M,M,M,M,M,M,27.42,KELY 240858Z AUTO 23004KT 2SM -SN BR OVC028 00/00 A2965 RMK AO2 P0000 T00000000 $,M
ELY,2021-12-24 09:02,-114.8453,39.2950,1909.00,32.00,32.00,100.00,240.00,3.00,0.01,29.64,M,1.25,M,OVC,M,M,M,2400.00,M,M,M,-SN BR,M,M,M,M,M,M,28.69,KELY 240902Z AUTO 24003KT 1 1/4SM -SN BR OVC024 00/00 A2964 RMK AO2 P0001 T00000000 $,M
BAM,2021-12-24 09:15,-116.8743,40.5990,1382.36,35.60,32.00,86.59,250.00,11.00,0.00,29.59,M,10.00,M,SCT,M,M,M,6000.00,M,M,M,M,M,M,M,M,M,M,27.02,KBAM 240915Z AUTO 25011KT 10SM SCT060 02/00 A2959 RMK AO1,M
TMT,2021-12-24 09:15,-117.1971,39.4643,1749.34,30.90,28.40,90.31,240.00,8.00,0.00,29.64,M,10.00,M,SCT,M,M,M,10000.00,M,M,M,M,M,M,M,M,M,M,22.76,KTMT 240915Z AUTO 24008KT 10SM SCT100 M01/M02 A2964 RMK AO2 T10061020,M
MEV,2021-12-24 09:15,-119.7500,38.9963,1441.42,35.60,32.00,86.59,240.00,14.00,0.00,29.62,M,7.00,20.00,SCT,BKN,OVC,M,1300.00,2700.00,3900.00,M,-RA,M,M,M,M,M,M,25.80,KMEV 240915Z AUTO 24014G20KT 7SM -RA SCT013 BKN027 OVC039 02/00 A2962 RMK AO2,M
HTH,2021-12-24 09:15,-118.6315,38.5448,1282.89,37.40,30.20,74.98,250.00,5.00,0.00,29.64,M,10.00,12.00,CLR,M,M,M,M,M,M,M,M,M,M,M,M,M,M,32.81,KHTH 240915Z AUTO 25005G12KT 10SM CLR 03/M01 A2964 RMK A01,M
BVU,2021-12-24 09:15,-114.8611,35.9475,671.00,53.60,50.00,87.56,150.00,16.00,0.00,29.75,M,10.00,23.00,BKN,OVC,M,M,4000.00,4500.00,M,M,M,M,M,M,M,M,M,53.60,KBVU 240915Z AUTO 15016G23KT 10SM BKN040 OVC045 12/10 A2975 RMK AO2,M
CXP,2021-12-24 09:15,-119.7326,39.1923,1431.00,35.60,33.80,93.08,0.00,0.00,0.00,29.63,M,10.00,M,FEW,SCT,BKN,M,3000.00,3500.00,4100.00,M,M,M,M,M,M,M,M,35.60,KCXP 240915Z AUTO 00000KT 10SM FEW030 SCT035 BKN041 02/01 A2963 RMK AO2,M
RTS,2021-12-24 09:15,-119.8764,39.6682,1539.00,33.80,32.00,93.03,0.00,0.00,0.00,29.62,M,10.00,M,FEW,SCT,BKN,M,1200.00,1900.00,2800.00,M,-DZ,M,M,M,M,M,M,33.80,KRTS 240915Z AUTO 00000KT 10SM -DZ FEW012 SCT019 BKN028 01/M00 A2962 RMK AO2,M
05U,2021-12-24 09:15,-116.0051,39.6042,1811.23,26.60,26.60,100.00,0.00,0.00,0.00,29.65,M,10.00,M,OVC,M,M,M,7000.00,M,M,M,M,M,M,M,M,M,M,26.60,K05U 240915Z AUTO 00000KT 10SM OVC070 M03/M03 A2965 RMK A01,M
ELY,2021-12-24 09:19,-114.8453,39.2950,1909.00,32.00,32.00,100.00,0.00,0.00,0.00,29.65,M,1.50,M,BKN,OVC,M,M,1800.00,2500.00,M,M,-SN BR,M,M,M,M,M,M,32.00,KELY 240919Z AUTO 00000KT 1 1/2SM -SN BR BKN018 OVC025 00/00 A2965,M
ELY,2021-12-24 09:30,-114.8453,39.2950,1909.00,32.00,32.00,100.00,320.00,3.00,0.03,29.64,M,3.00,M,OVC,M,M,M,2000.00,M,M,M,-SN BR,M,M,M,M,M,M,28.69,KELY 240930Z AUTO 32003KT 3SM -SN BR OVC020 00/00 A2964 RMK AO2 P0003 T00000000 $,M
BVU,2021-12-24 09:35,-114.8611,35.9475,671.00,53.60,50.00,87.56,140.00,10.00,0.00,29.75,M,10.00,M,FEW,BKN,OVC,M,3500.00,4100.00,4800.00,M,M,M,M,M,M,M,M,53.60,KBVU 240935Z AUTO 14010KT 10SM FEW035 BKN041 OVC048 12/10 A2975 RMK AO2,M
CXP,2021-12-24 09:35,-119.7326,39.1923,1431.00,37.40,32.00,80.65,0.00,0.00,0.00,29.63,M,10.00,M,BKN,OVC,M,M,3400.00,4000.00,M,M,M,M,M,M,M,M,M,37.40,KCXP 240935Z AUTO 00000KT 10SM BKN034 OVC040 03/00 A2963 RMK AO2,M
TMT,2021-12-24 09:35,-117.1971,39.4643,1749.34,29.80,27.50,91.01,210.00,7.00,0.00,29.64,M,10.00,M,CLR,M,M,M,M,M,M,M,M,M,M,M,M,M,M,22.10,KTMT 240935Z AUTO 21007KT 10SM CLR M01/M02 A2964 RMK AO2 T10121025,M
RTS,2021-12-24 09:35,-119.8764,39.6682,1539.00,33.80,32.00,93.03,0.00,0.00,0.00,29.61,M,10.00,M,SCT,BKN,BKN,M,1600.00,2400.00,2900.00,M,-DZ,M,M,M,M,M,M,33.80,KRTS 240935Z AUTO 00000KT 10SM -DZ SCT016 BKN024 BKN029 01/M00 A2961 RMK AO2,M
05U,2021-12-24 09:35,-116.0051,39.6042,1811.23,26.60,26.60,100.00,0.00,0.00,0.00,29.65,M,10.00,M,OVC,M,M,M,7000.00,M,M,M,M,M,M,M,M,M,M,26.60,K05U 240935Z AUTO 00000KT 10SM OVC070 M03/M03 A2965 RMK A01,M
MEV,2021-12-24 09:35,-119.7500,38.9963,1441.42,37.40,32.00,80.65,210.00,19.00,0.00,29.62,M,9.00,25.00,FEW,BKN,OVC,M,1300.00,2300.00,7000.00,M,UP,M,M,M,M,M,M,26.58,KMEV 240935Z AUTO 21019G25KT 9SM UP FEW013 BKN023 OVC070 03/00 A2962 RMK AO2,M
BAM,2021-12-24 09:35,-116.8743,40.5990,1382.36,37.40,32.00,80.65,250.00,12.00,0.00,29.59,M,10.00,M,SCT,SCT,SCT,M,4800.00,6000.00,12000.00,M,M,M,M,M,M,M,M,28.87,KBAM 240935Z AUTO 25012KT 10SM SCT048 SCT060 SCT120 03/00 A2959 RMK AO1,M
HTH,2021-12-24 09:35,-118.6315,38.5448,1282.89,35.60,32.00,86.59,130.00,5.00,0.00,29.64,M,10.00,13.00,CLR,M,M,M,M,M,M,M,M,M,M,M,M,M,M,30.67,KHTH 240935Z AUTO 13005G13KT 10SM CLR 02/M00 A2964 RMK A01,M
TPH,2021-12-24 09:38,-117.0904,38.0505,1654.00,33.00,33.00,100.00,330.00,4.00,T,29.67,M,6.00,M,OVC,M,M,M,800.00,M,M,M,BR,M,M,M,M,M,M,28.70,KTPH 240938Z AUTO 33004KT 6SM BR OVC008 01/01 A2967 RMK AO2 RAE26 P0000 T00060006,M
ELY,2021-12-24 09:41,-114.8453,39.2950,1909.00,32.00,32.00,100.00,360.00,3.00,0.03,29.64,M,1.75,M,OVC,M,M,M,2000.00,M,M,M,-SN BR,M,M,M,M,M,M,28.69,KELY 240941Z AUTO 36003KT 1 3/4SM -SN BR OVC020 00/00 A2964 RMK AO2 P0003 T00000000 $,M
LOL,2021-12-24 09:53,-118.5701,40.0684,1192.43,34.00,32.00,92.29,180.00,8.00,0.00,29.60,1002.90,10.00,M,CLR,M,M,M,M,M,M,M,M,M,M,M,M,M,M,26.58,KLOL 240953Z AUTO 18008KT 10SM CLR 01/00 A2960 RMK AO2 SLP029 T00110000 $,M
DRA,2021-12-24 09:53,-116.0278,36.6206,1009.00,51.00,42.00,71.19,200.00,15.00,0.00,29.67,1002.60,10.00,26.00,OVC,M,M,M,2700.00,M,M,M,M,M,M,M,29.00,200.00,2021-12-24 09:05,51.10,KDRA 240953Z AUTO 20015G26KT 10SM OVC027 11/06 A2967 RMK AO2 PK WND 20029/0905 SLP026 T01060056,M
ELY,2021-12-24 09:53,-114.8453,39.2950,1909.00,32.00,32.00,100.00,0.00,0.00,0.04,29.64,1001.70,1.25,M,OVC,M,M,M,1800.00,M,M,M,-SN BR,M,M,M,M,M,M,32.00,KELY 240953Z AUTO 00000KT 1 1/4SM -SN BR OVC018 00/00 A2964 RMK AO2 SLP017 P0004 T00000000 $,M
VGT,2021-12-24 09:53,-115.1933,36.2111,667.00,57.00,45.00,64.12,210.00,23.00,T,29.68,1006.30,10.00,30.00,SCT,SCT,BKN,M,4900.00,7000.00,11000.00,M,M,M,M,M,30.00,200.00,2021-12-24 09:52,57.00,KVGT 240953Z AUTO 21023G30KT 10SM SCT049 SCT070 BKN110 14/07 A2968 RMK AO2 PK WND 20030/0952 RAE0857B41E53 SLP063 P0000 T01390072,M
BAM,2021-12-24 09:55,-116.8743,40.5990,1382.36,37.40,32.00,80.65,260.00,10.00,0.00,29.59,M,10.00,M,BKN,BKN,M,M,6000.00,11000.00,M,M,M,M,M,M,M,M,M,29.74,KBAM 240955Z AUTO 26010KT 10SM BKN060 BKN110 03/00 A2959 RMK AO1,M
BVU,2021-12-24 09:55,-114.8611,35.9475,671.00,53.60,50.00,87.56,150.00,11.00,0.00,29.74,M,10.00,M,BKN,OVC,M,M,4100.00,4800.00,M,M,M,M,M,M,M,M,M,53.60,KBVU 240955Z AUTO 15011KT 10SM BKN041 OVC048 12/10 A2974 RMK AO2,M
CXP,2021-12-24 09:55,-119.7326,39.1923,1431.00,37.40,32.00,80.65,0.00,0.00,0.00,29.63,M,10.00,M,FEW,SCT,BKN,M,2600.00,3200.00,3800.00,M,M,M,M,M,M,M,M,37.40,KCXP 240955Z AUTO 00000KT 10SM FEW026 SCT032 BKN038 03/M00 A2963 RMK AO2,M
RNO,2021-12-24 09:55,-119.7711,39.4839,1341.00,35.00,33.00,92.32,60.00,3.00,T,29.61,1002.70,10.00,M,FEW,BKN,BKN,M,3400.00,5500.00,8000.00,M,M,M,M,M,M,M,M,32.23,KRNO 240955Z 06003KT 10SM FEW034 BKN055 BKN080 02/01 A2961 RMK AO2 RAB29E42 SLP027 P0000 T00170006,M
TMT,2021-12-24 09:55,-117.1971,39.4643,1749.34,30.40,27.90,90.29,220.00,7.00,0.00,29.64,M,10.00,M,SCT,SCT,SCT,M,7000.00,8500.00,12000.00,M,M,M,M,M,M,M,M,22.83,KTMT 240955Z AUTO 22007KT 10SM SCT070 SCT085 SCT120 M01/M02 A2964 RMK AO2 T10091023,M
HTH,2021-12-24 09:55,-118.6315,38.5448,1282.89,35.60,30.20,80.51,240.00,5.00,0.00,29.64,M,10.00,M,CLR,M,M,M,M,M,M,M,M,M,M,M,M,M,M,30.67,KHTH 240955Z AUTO 24005KT 10SM CLR 02/M01 A2964 RMK A01,M
MEV,2021-12-24 09:55,-119.7500,38.9963,1441.42,37.40,32.00,80.65,240.00,6.00,0.00,29.63,M,7.00,12.00,BKN,BKN,OVC,M,1000.00,2200.00,5000.00,M,-RA,M,M,M,M,M,M,32.03,KMEV 240955Z AUTO 24006G12KT 7SM -RA BKN010 BKN022 OVC050 03/00 A2963 RMK AO2,M
05U,2021-12-24 09:55,-116.0051,39.6042,1811.23,28.40,28.40,100.00,0.00,0.00,0.00,29.64,M,10.00,M,SCT,BKN,OVC,M,5000.00,6000.00,7500.00,M,M,M,M,M,M,M,M,28.40,K05U 240955Z AUTO 00000KT 10SM SCT050 BKN060 OVC075 M02/M02 A2964 RMK A01,M
RTS,2021-12-24 09:55,-119.8764,39.6682,1539.00,35.60,32.00,86.59,0.00,0.00,0.00,29.61,M,10.00,M,FEW,BKN,BKN,M,1500.00,2100.00,2600.00,M,-DZ,M,M,M,M,M,M,35.60,KRTS 240955Z AUTO 00000KT 10SM -DZ FEW015 BKN021 BKN026 02/M00 A2961 RMK AO2,M
HND,2021-12-24 09:56,-115.1344,35.9729,742.79,54.00,46.00,74.26,220.00,11.00,T,29.73,1007.80,10.00,M,SCT,M,M,M,4900.00,M,M,M,M,M,M,M,M,M,M,54.00,KHND 240956Z AUTO 22011KT 10SM SCT049 12/08 A2973 RMK AO2 RAE16 SLP078 P0000 T01220078,M
TPH,2021-12-24 09:56,-117.0904,38.0505,1654.00,34.00,34.00,100.00,0.00,0.00,T,29.67,1004.50,9.00,M,BKN,OVC,M,M,900.00,1400.00,M,M,M,M,M,M,M,M,M,34.00,KTPH 240956Z AUTO 00000KT 9SM BKN009 OVC014 01/01 A2967 RMK AO2 RAE26 SLP045 P0000 T00110011,M
NFL,2021-12-24 09:56,-118.7010,39.4166,1199.00,36.00,32.00,85.23,160.00,7.00,0.00,29.61,1001.20,10.00,M,FEW,M,M,M,11000.00,M,M,M,M,M,M,M,M,M,M,29.65,KNFL 240956Z AUTO 16007KT 10SM FEW110 02/00 A2961 RMK AO2 SLP012 T00220000,M
WMC,2021-12-24 09:56,-117.8072,40.9019,1315.00,36.00,30.90,81.53,210.00,3.00,0.00,29.56,1001.10,10.00,M,BKN,BKN,OVC,M,5500.00,8000.00,10000.00,M,M,M,M,M,M,M,M,33.26,KWMC 240956Z AUTO 21003KT 10SM BKN055 BKN080 OVC100 02/M01 A2956 RMK AO2 SLP011 T00221006,M
EKO,2021-12-24 09:56,-115.7860,40.8242,1367.00,36.00,28.90,75.15,220.00,6.00,0.00,29.57,1001.70,10.00,M,OVC,M,M,M,5000.00,M,M,M,M,M,M,M,M,M,M,30.35,KEKO 240956Z AUTO 22006KT 10SM OVC050 02/M02 A2957 RMK AO2 SLP017 T00221017,M
LAS,2021-12-24 09:56,-115.1634,36.0719,663.00,55.00,46.00,71.60,210.00,9.00,0.00,29.71,1005.20,10.00,17.00,FEW,BKN,OVC,M,6000.00,7500.00,9500.00,M,M,M,M,M,M,M,M,55.00,KLAS 240956Z 21009G17KT 10SM FEW060 BKN075 OVC095 13/08 A2971 RMK AO2 SLP052 SH OBSCURE MTNS DSNT SW-NW T01280078,M
LSV,2021-12-24 09:58,-115.0343,36.2362,570.00,57.20,47.50,69.97,190.00,19.00,0.00,29.68,1004.20,10.00,M,CLR,M,M,M,M,M,M,M,M,M,M,M,28.00,170.00,2021-12-24 09:43,57.20,KLSV 240958Z AUTO 19019KT 10SM CLR 14/09 A2968 RMK AO2 PK WND 17028/43 SLP042 T01400086 $,M
INS,2021-12-24 09:58,-115.6733,36.5872,955.00,53.20,39.20,58.88,250.00,13.00,0.00,29.67,1002.90,10.00,20.00,BKN,OVC,M,M,10000.00,11000.00,M,M,M,M,M,M,M,M,M,53.20,KINS 240958Z AUTO 25013G20KT 10SM BKN100 OVC110 12/04 A2967 RMK AO2 SLP029 T01180040 VISNO RWY08 $,M
INS,2021-12-24 10:03,-115.6733,36.5872,955.00,53.60,39.20,58.02,220.00,12.00,0.00,29.67,1002.90,10.00,M,BKN,OVC,M,M,9000.00,11000.00,M,M,M,M,M,M,M,M,M,53.60,KINS 241003Z AUTO 22012KT 10SM BKN090 OVC110 12/04 A2967 RMK AO2 SLP029 VISNO RWY08 $,M
CXP,2021-12-24 10:15,-119.7326,39.1923,1431.00,37.40,32.00,80.65,0.00,0.00,0.00,29.62,M,8.00,M,FEW,SCT,BKN,M,1100.00,3100.00,5500.00,M,-UP,M,M,M,M,M,M,37.40,KCXP 241015Z AUTO 00000KT 8SM -UP FEW011 SCT031 BKN055 03/00 A2962 RMK AO2,M
RTS,2021-12-24 10:15,-119.8764,39.6682,1539.00,33.80,32.00,93.03,130.00,5.00,0.00,29.59,M,10.00,M,SCT,SCT,BKN,M,2300.00,3000.00,3800.00,M,M,M,M,M,M,M,M,28.53,KRTS 241015Z AUTO 13005KT 10SM SCT023 SCT030 BKN038 01/M00 A2959 RMK AO2,M
05U,2021-12-24 10:15,-116.0051,39.6042,1811.23,28.40,28.40,100.00,0.00,0.00,0.00,29.63,M,10.00,M,FEW,SCT,BKN,M,5500.00,6500.00,7500.00,M,M,M,M,M,M,M,M,28.40,K05U 241015Z AUTO 00000KT 10SM FEW055 SCT065 BKN075 M02/M02 A2963 RMK A01,M
MEV,2021-12-24 10:15,-119.7500,38.9963,1441.42,35.60,33.80,93.08,200.00,7.00,0.00,29.62,M,9.00,M,SCT,BKN,OVC,M,1100.00,2400.00,3200.00,M,UP,M,M,M,M,M,M,29.17,KMEV 241015Z AUTO 20007KT 9SM UP SCT011 BKN024 OVC032 02/01 A2962 RMK AO2,M
BAM,2021-12-24 10:15,-116.8743,40.5990,1382.36,37.40,32.00,80.65,260.00,9.00,0.00,29.59,M,10.00,M,SCT,BKN,OVC,M,4100.00,6500.00,7000.00,M,M,M,M,M,M,M,M,30.23,KBAM 241015Z AUTO 26009KT 10SM SCT041 BKN065 OVC070 03/00 A2959 RMK AO1,M
HTH,2021-12-24 10:15,-118.6315,38.5448,1282.89,33.80,30.20,86.49,0.00,0.00,0.00,29.63,M,10.00,M,CLR,M,M,M,M,M,M,M,M,M,M,M,M,M,M,33.80,KHTH 241015Z AUTO 00000KT 10SM CLR 01/M01 A2963 RMK A01,M
TMT,2021-12-24 10:15,-117.1971,39.4643,1749.34,30.00,28.20,92.91,230.00,6.00,0.00,29.64,M,10.00,M,SCT,SCT,M,M,7000.00,12000.00,M,M,M,M,M,M,M,M,M,23.12,KTMT 241015Z AUTO 23006KT 10SM SCT070 SCT120 M01/M02 A2964 RMK AO2 T10111021,M
BVU,2021-12-24 10:15,-114.8611,35.9475,671.00,53.60,48.20,81.87,140.00,7.00,0.00,29.73,M,10.00,M,SCT,OVC,M,M,3700.00,4600.00,M,M,M,M,M,M,M,M,M,53.60,KBVU 241015Z AUTO 14007KT 10SM SCT037 OVC046 12/09 A2973 RMK AO2,M
ELY,2021-12-24 10:18,-114.8453,39.2950,1909.00,32.00,32.00,100.00,0.00,0.00,0.01,29.63,M,2.00,M,OVC,M,M,M,2000.00,M,M,M,-SN BR,M,M,M,M,M,M,32.00,KELY 241018Z AUTO 00000KT 2SM -SN BR OVC020 00/00 A2963 RMK AO2 P0001 T00000000 $,M
INS,2021-12-24 10:28,-115.6733,36.5872,955.00,53.60,39.20,58.02,230.00,13.00,0.00,29.65,1002.20,10.00,M,SCT,BKN,M,M,8500.00,11000.00,M,M,M,M,M,M,M,M,M,53.60,KINS 241028Z AUTO 23013KT 10SM SCT085 BKN110 12/04 A2965 RMK AO2 SLP022 VISNO RWY08 $,M
ELY,2021-12-24 10:29,-114.8453,39.2950,1909.00,32.00,32.00,100.00,0.00,0.00,0.00,29.62,M,1.50,M,OVC,M,M,M,2000.00,M,M,M,-SN BR,M,M,M,M,M,M,32.00,KELY 241029Z AUTO 00000KT 1 1/2SM -SN BR OVC020 00/00 A2962,M
DRA,2021-12-24 10:33,-116.0278,36.6206,1009.00,51.00,42.00,71.19,200.00,16.00,0.00,29.65,M,10.00,26.00,OVC,M,M,M,3000.00,M,M,M,M,M,M,M,29.00,190.00,2021-12-24 10:15,51.10,KDRA 241033Z AUTO 20016G26KT 10SM OVC030 11/06 A2965 RMK AO2 PK WND 19029/1015 T01060056,M
MEV,2021-12-24 10:35,-119.7500,38.9963,1441.42,37.40,32.00,80.65,170.00,9.00,0.00,29.61,M,9.00,15.00,FEW,SCT,BKN,M,1000.00,2100.00,2900.00,M,UP,M,M,M,M,M,M,30.23,KMEV 241035Z AUTO 17009G15KT 150V210 9SM UP FEW010 SCT021 BKN029 03/00 A2961 RMK AO2,M
BAM,2021-12-24 10:35,-116.8743,40.5990,1382.36,35.60,32.00,86.59,270.00,10.00,0.00,29.59,M,10.00,M,SCT,BKN,OVC,M,4000.00,5000.00,6500.00,M,M,M,M,M,M,M,M,27.48,KBAM 241035Z AUTO 27010KT 10SM SCT040 BKN050 OVC065 02/00 A2959 RMK AO1,M
HTH,2021-12-24 10:35,-118.6315,38.5448,1282.89,37.40,30.20,74.98,100.00,8.00,0.00,29.63,M,10.00,M,FEW,FEW,M,M,9500.00,12000.00,M,M,M,M,M,M,M,M,M,30.76,KHTH 241035Z AUTO 10008KT 10SM FEW095 FEW120 03/M01 A2963 RMK A01,M
TMT,2021-12-24 10:35,-117.1971,39.4643,1749.34,29.80,28.40,94.44,230.00,7.00,0.00,29.62,M,10.00,M,SCT,BKN,M,M,7000.00,11000.00,M,M,M,M,M,M,M,M,M,22.10,KTMT 241035Z AUTO 23007KT 10SM SCT070 BKN110 M01/M02 A2962 RMK AO2 T10121020,M
RTS,2021-12-24 10:35,-119.8764,39.6682,1539.00,33.80,32.00,93.03,150.00,8.00,0.00,29.59,M,10.00,M,FEW,BKN,OVC,M,2200.00,3400.00,8500.00,M,M,M,M,M,M,M,M,26.33,KRTS 241035Z AUTO 15008KT 10SM FEW022 BKN034 OVC085 01/M00 A2959 RMK AO2,M
BVU,2021-12-24 10:35,-114.8611,35.9475,671.00,53.60,48.20,81.87,140.00,5.00,0.00,29.73,M,10.00,M,BKN,OVC,M,M,3600.00,4600.00,M,M,M,M,M,M,M,M,M,53.60,KBVU 241035Z AUTO 14005KT 10SM BKN036 OVC046 12/09 A2973 RMK AO2,M
CXP,2021-12-24 10:35,-119.7326,39.1923,1431.00,37.40,32.00,80.65,0.00,0.00,0.00,29.62,M,6.00,M,FEW,SCT,M,M,1100.00,2700.00,M,M,-RA,M,M,M,M,M,M,37.40,KCXP 241035Z AUTO 00000KT 6SM -RA FEW011 SCT027 03/00 A2962 RMK AO2,M
05U,2021-12-24 10:35,-116.0051,39.6042,1811.23,26.60,24.80,92.80,0.00,0.00,0.00,29.63,M,10.00,M,FEW,SCT,BKN,M,4600.00,7500.00,9000.00,M,M,M,M,M,M,M,M,26.60,K05U 241035Z AUTO 00000KT 10SM FEW046 SCT075 BKN090 M03/M04 A2963 RMK A01,M
ELY,2021-12-24 10:43,-114.8453,39.2950,1909.00,32.00,32.00,100.00,M,M,0.02,29.62,M,2.00,M,OVC,M,M,M,2200.00,M,M,M,-SN BR,M,M,M,M,M,M,M,KELY 241043Z AUTO 2SM -SN BR OVC022 00/00 A2962 RMK AO2 P0002 T00000000 $,M
ELY,2021-12-24 10:51,-114.8453,39.2950,1909.00,30.20,30.20,100.00,M,M,0.03,29.62,M,1.75,M,OVC,M,M,M,2000.00,M,M,M,-SN BR,M,M,M,M,M,M,M,KELY 241051Z AUTO 1 3/4SM -SN BR OVC020 M01/M01 A2962 RMK AO2 P0003 $,M
VGT,2021-12-24 10:53,-115.1933,36.2111,667.00,57.00,46.00,66.59,210.00,14.00,T,29.66,1005.60,10.00,M,BKN,OVC,M,M,5000.00,7500.00,M,M,-RA,M,M,M,26.00,210.00,2021-12-24 09:55,57.00,KVGT 241053Z AUTO 21014KT 10SM -RA BKN050 OVC075 14/08 A2966 RMK AO2 PK WND 21026/0955 RAB46 SLP056 P0000 T01390078,M
LOL,2021-12-24 10:53,-118.5701,40.0684,1192.43,33.00,30.90,91.51,180.00,5.00,0.00,29.58,1002.60,10.00,M,CLR,M,M,M,M,M,M,M,M,M,M,M,M,M,M,27.70,KLOL 241053Z AUTO 18005KT 10SM CLR 01/M01 A2958 RMK AO2 SLP026 T00061006 $,M
ELY,2021-12-24 10:53,-114.8453,39.2950,1909.00,30.90,30.90,100.00,M,M,0.03,29.62,1001.90,1.50,M,OVC,M,M,M,2000.00,M,M,M,-SN BR,M,M,M,M,M,M,M,KELY 241053Z AUTO 1 1/2SM -SN BR OVC020 M01/M01 A2962 RMK AO2 SLP019 P0003 T10061006 $,M
DRA,2021-12-24 10:53,-116.0278,36.6206,1009.00,51.00,41.00,68.23,200.00,18.00,0.00,29.65,1001.90,10.00,29.00,BKN,OVC,M,M,3100.00,10000.00,M,M,M,M,M,M,29.00,200.00,2021-12-24 10:51,51.10,KDRA 241053Z AUTO 20018G29KT 10SM BKN031 OVC100 11/05 A2965 RMK AO2 PK WND 20029/1051 SLP019 T01060050,M
TMT,2021-12-24 10:55,-117.1971,39.4643,1749.34,30.20,27.90,91.03,240.00,7.00,0.00,29.62,M,10.00,M,SCT,M,M,M,11000.00,M,M,M,M,M,M,M,M,M,M,22.59,KTMT 241055Z AUTO 24007KT 10SM SCT110 M01/M02 A2962 RMK AO2 T10101023,M
BVU,2021-12-24 10:55,-114.8611,35.9475,671.00,55.40,48.20,76.66,180.00,4.00,0.00,29.72,M,10.00,10.00,FEW,FEW,OVC,M,2200.00,3000.00,3600.00,M,M,M,M,M,M,M,M,55.40,KBVU 241055Z AUTO 18004G10KT 10SM FEW022 FEW030 OVC036 13/09 A2972 RMK AO2,M
CXP,2021-12-24 10:55,-119.7326,39.1923,1431.00,37.40,32.00,80.65,M,4.00,0.00,29.61,M,10.00,M,FEW,FEW,BKN,M,1100.00,2400.00,2800.00,M,M,M,M,M,M,M,M,33.73,KCXP 241055Z AUTO VRB04KT 10SM FEW011 FEW024 BKN028 03/00 A2961 RMK AO2,M
RTS,2021-12-24 10:55,-119.8764,39.6682,1539.00,33.80,32.00,93.03,140.00,10.00,0.00,29.58,M,10.00,M,SCT,BKN,OVC,M,3300.00,4300.00,5000.00,M,M,M,M,M,M,M,M,25.23,KRTS 241055Z AUTO 14010KT 10SM SCT033 BKN043 OVC050 01/M00 A2958 RMK AO2,M
05U,2021-12-24 10:55,-116.0051,39.6042,1811.23,24.80,24.80,100.00,0.00,0.00,0.00,29.62,M,10.00,M,FEW,BKN,OVC,M,5000.00,7500.00,9000.00,M,M,M,M,M,M,M,M,24.80,K05U 241055Z AUTO 00000KT 10SM FEW050 BKN075 OVC090 M04/M04 A2962 RMK A01,M
MEV,2021-12-24 10:55,-119.7500,38.9963,1441.42,35.60,33.80,93.08,140.00,8.00,0.00,29.61,M,9.00,M,FEW,BKN,OVC,M,1600.00,3100.00,4300.00,M,UP,M,M,M,M,M,M,28.55,KMEV 241055Z AUTO 14008KT 9SM UP FEW016 BKN031 OVC043 02/01 A2961 RMK AO2,M
BAM,2021-12-24 10:55,-116.8743,40.5990,1382.36,37.40,32.00,80.65,250.00,9.00,0.00,29.59,M,10.00,M,SCT,BKN,OVC,M,3800.00,6000.00,7500.00,M,M,M,M,M,M,M,M,30.23,KBAM 241055Z AUTO 25009KT 10SM SCT038 BKN060 OVC075 03/00 A2959 RMK AO1,M
HTH,2021-12-24 10:55,-118.6315,38.5448,1282.89,35.60,30.20,80.51,230.00,4.00,0.00,29.62,M,10.00,10.00,FEW,SCT,BKN,M,6000.00,7500.00,9000.00,M,M,M,M,M,M,M,M,31.62,KHTH 241055Z AUTO 23004G10KT 10SM FEW060 SCT075 BKN090 02/M01 A2962 RMK A01,M
RNO,2021-12-24 10:55,-119.7711,39.4839,1341.00,35.00,34.00,95.71,320.00,3.00,T,29.59,1001.90,10.00,M,SCT,BKN,BKN,M,2000.00,5500.00,8000.00,M,-RA,M,M,M,M,M,M,32.23,KRNO 241055Z 32003KT 10SM -RA SCT020 BKN055 BKN080 02/01 A2959 RMK AO2 RAB24 SLP019 P0000 T00170011,M
HND,2021-12-24 10:56,-115.1344,35.9729,742.79,55.00,45.00,68.93,230.00,10.00,0.00,29.70,1006.90,10.00,M,FEW,BKN,M,M,4900.00,6000.00,M,M,M,M,M,M,M,M,M,55.00,KHND 241056Z AUTO 23010KT 10SM FEW049 BKN060 13/07 A2970 RMK AO2 SLP069 T01280072,M
TPH,2021-12-24 10:56,-117.0904,38.0505,1654.00,34.00,34.00,100.00,340.00,6.00,0.01,29.66,1004.40,10.00,M,OVC,M,M,M,900.00,M,M,M,UP,M,M,M,M,M,M,27.94,KTPH 241056Z AUTO 34006KT 10SM UP OVC009 01/01 A2966 RMK AO2 RAB12E55UPB55 SLP044 P0001 T00110011,M
WMC,2021-12-24 10:56,-117.8072,40.9019,1315.00,37.00,30.90,78.37,170.00,10.00,0.00,29.54,1000.40,10.00,M,BKN,OVC,M,M,3500.00,4600.00,M,M,M,M,M,M,M,M,M,29.24,KWMC 241056Z AUTO 17010KT 10SM BKN035 OVC046 03/M01 A2954 RMK AO2 SLP004 T00281006,M
NFL,2021-12-24 10:56,-118.7010,39.4166,1199.00,36.00,32.00,85.23,170.00,4.00,0.00,29.59,1000.50,10.00,M,FEW,M,M,M,11000.00,M,M,M,M,M,M,M,M,M,M,32.09,KNFL 241056Z AUTO 17004KT 10SM FEW110 02/00 A2959 RMK AO2 SLP005 T00220000,M
EKO,2021-12-24 10:56,-115.7860,40.8242,1367.00,37.00,28.90,72.24,240.00,10.00,0.00,29.55,1001.10,10.00,M,OVC,M,M,M,4800.00,M,M,M,M,M,M,M,M,M,M,29.24,KEKO 241056Z AUTO 24010KT 10SM OVC048 03/M02 A2955 RMK AO2 SLP011 T00281017,M
LAS,2021-12-24 10:56,-115.1634,36.0719,663.00,56.00,45.00,66.72,210.00,6.00,T,29.68,1004.30,10.00,18.00,BKN,OVC,M,M,6000.00,7500.00,M,M,M,M,M,M,M,M,M,55.90,KLAS 241056Z 21006G18KT 10SM BKN060 OVC075 13/07 A2968 RMK AO2 RAB42E52 SLP043 SHRA OBSCURES MTNS DSNT SW-NW P0000 T01330072,M
INS,2021-12-24 10:58,-115.6733,36.5872,955.00,53.60,39.20,58.02,230.00,10.00,0.00,29.64,1001.80,10.00,21.00,FEW,BKN,M,M,6000.00,10000.00,M,M,M,M,M,M,M,M,M,53.60,KINS 241058Z AUTO 23010G21KT 10SM FEW060 BKN100 12/04 A2964 RMK AO2 SLP018 T01200040 VISNO RWY08 $,M
LSV,2021-12-24 10:58,-115.0343,36.2362,570.00,56.00,49.30,77.88,180.00,17.00,0.00,29.66,1003.70,10.00,M,CLR,M,M,M,M,M,M,M,M,M,M,M,M,M,M,56.10,KLSV 241058Z AUTO 18017KT 10SM CLR 13/10 A2966 RMK AO2 SLP037 T01340096 $,M
INS,2021-12-24 11:03,-115.6733,36.5872,955.00,53.60,39.20,58.02,230.00,11.00,0.00,29.64,1001.80,10.00,M,FEW,BKN,M,M,6000.00,9500.00,M,M,M,M,M,M,M,M,M,53.60,KINS 241103Z AUTO 23011KT 10SM FEW060 BKN095 12/04 A2964 RMK AO2 SLP018 VISNO RWY08 $,M
ELY,2021-12-24 11:10,-114.8453,39.2950,1909.00,30.90,30.90,100.00,M,M,T,29.61,M,2.00,M,BKN,BKN,OVC,M,2000.00,7500.00,11000.00,M,-SN BR,M,M,M,M,M,M,M,KELY 241110Z AUTO 2SM -SN BR BKN020 BKN075 OVC110 M01/M01 A2961 RMK AO2 P0000 T10061006 $,M
CXP,2021-12-24 11:10,-119.7326,39.1923,1431.00,37.40,33.80,86.69,0.00,0.00,0.00,29.61,M,10.00,M,SCT,BKN,OVC,M,2700.00,3200.00,6500.00,M,M,M,M,M,M,M,M,37.40,KCXP 241110Z AUTO 00000KT 10SM SCT027 BKN032 OVC065 03/01 A2961 RMK AO2,M
05U,2021-12-24 11:10,-116.0051,39.6042,1811.23,24.80,23.00,92.74,0.00,0.00,0.00,29.62,M,10.00,M,FEW,BKN,OVC,M,5500.00,7500.00,9500.00,M,M,M,M,M,M,M,M,24.80,K05U 241110Z AUTO 00000KT 10SM FEW055 BKN075 OVC095 M04/M05 A2962 RMK A01,M
ELY,2021-12-24 11:13,-114.8453,39.2950,1909.00,30.90,30.90,100.00,M,M,T,29.62,M,1.25,M,SCT,BKN,OVC,M,1800.00,7500.00,12000.00,M,BR,M,M,M,M,M,M,M,KELY 241113Z AUTO 1 1/4SM BR SCT018 BKN075 OVC120 M01/M01 A2962 RMK AO2 SNE13 P0000 T10061006 $,M
RTS,2021-12-24 11:15,-119.8764,39.6682,1539.00,33.80,32.00,93.03,150.00,5.00,0.00,29.58,M,10.00,12.00,FEW,SCT,BKN,M,1800.00,3100.00,4200.00,M,M,M,M,M,M,M,M,28.53,KRTS 241115Z AUTO 15005G12KT 10SM FEW018 SCT031 BKN042 01/00 A2958 RMK AO2,M
TMT,2021-12-24 11:15,-117.1971,39.4643,1749.34,27.90,26.10,92.84,250.00,7.00,0.00,29.62,M,10.00,M,SCT,M,M,M,11000.00,M,M,M,M,M,M,M,M,M,M,19.78,KTMT 241115Z AUTO 25007KT 10SM SCT110 M02/M03 A2962 RMK AO2 T10231033,M
HTH,2021-12-24 11:15,-118.6315,38.5448,1282.89,33.80,32.00,93.03,210.00,8.00,0.00,29.62,M,10.00,M,FEW,SCT,BKN,M,4500.00,8000.00,9500.00,M,M,M,M,M,M,M,M,26.33,KHTH 241115Z AUTO 21008KT 10SM FEW045 SCT080 BKN095 01/M00 A2962 RMK A01,M
BAM,2021-12-24 11:15,-116.8743,40.5990,1382.36,35.60,32.00,86.59,240.00,8.00,0.00,29.58,M,10.00,M,BKN,OVC,M,M,5000.00,7500.00,M,M,M,M,M,M,M,M,M,28.55,KBAM 241115Z AUTO 24008KT 10SM BKN050 OVC075 02/00 A2958 RMK AO1,M
MEV,2021-12-24 11:15,-119.7500,38.9963,1441.42,37.40,32.00,80.65,160.00,6.00,0.00,29.60,M,10.00,M,FEW,SCT,BKN,M,1300.00,2900.00,3500.00,M,UP,M,M,M,M,M,M,32.03,KMEV 241115Z AUTO 16006KT 10SM UP FEW013 SCT029 BKN035 03/00 A2960 RMK AO2,M
BVU,2021-12-24 11:15,-114.8611,35.9475,671.00,53.60,48.20,81.87,160.00,7.00,0.00,29.71,M,10.00,12.00,FEW,FEW,OVC,M,2100.00,2800.00,3600.00,M,M,M,M,M,M,M,M,53.60,KBVU 241115Z AUTO 16007G12KT 10SM FEW021 FEW028 OVC036 12/09 A2971 RMK AO2,M
DRA,2021-12-24 11:17,-116.0278,36.6206,1009.00,52.00,41.00,66.00,200.00,17.00,0.00,29.64,M,10.00,28.00,BKN,BKN,OVC,M,2900.00,4000.00,10000.00,M,M,M,M,M,28.00,210.00,2021-12-24 11:14,52.00,KDRA 241117Z AUTO 20017G28KT 10SM BKN029 BKN040 OVC100 11/05 A2964 RMK AO2 PK WND 21028/1114 T01110050,M
ELY,2021-12-24 11:19,-114.8453,39.2950,1909.00,30.90,30.90,100.00,M,M,T,29.62,M,1.50,M,FEW,BKN,OVC,M,200.00,7500.00,11000.00,M,BR,T,M,M,M,M,M,M,KELY 241119Z AUTO 1 1/2SM BR FEW002 BKN075 OVC110 M01/M01 A2962 RMK AO2 SNE13 P0000 I1000 T10061006 $,M
DRA,2021-12-24 11:23,-116.0278,36.6206,1009.00,52.00,41.00,66.00,200.00,15.00,0.00,29.64,M,10.00,31.00,BKN,OVC,M,M,3200.00,4000.00,M,M,M,M,M,M,31.00,210.00,2021-12-24 11:20,52.00,KDRA 241123Z AUTO 20015G31KT 10SM BKN032 OVC040 11/05 A2964 RMK AO2 PK WND 21031/1120 T01110050,M
ELY,2021-12-24 11:23,-114.8453,39.2950,1909.00,30.00,30.00,100.00,M,M,T,29.61,M,3.00,M,FEW,BKN,OVC,M,200.00,8000.00,11000.00,M,BR,0.02,M,M,M,M,M,M,KELY 241123Z AUTO 3SM BR FEW002 BKN080 OVC110 M01/M01 A2961 RMK AO2 SNE13 P0000 I1002 T10111011 $,M
ELY,2021-12-24 11:33,-114.8453,39.2950,1909.00,28.40,28.40,100.00,M,M,0.00,29.60,M,2.50,M,FEW,BKN,BKN,M,300.00,7500.00,11000.00,M,BR,M,M,M,M,M,M,M,KELY 241133Z AUTO 2 1/2SM BR FEW003 BKN075 BKN110 M02/M02 A2960,M
05U,2021-12-24 11:35,-116.0051,39.6042,1811.23,21.20,19.40,92.63,0.00,0.00,0.00,29.62,M,10.00,M,FEW,SCT,M,M,9000.00,11000.00,M,M,M,M,M,M,M,M,M,21.20,K05U 241135Z AUTO 00000KT 10SM FEW090 SCT110 M06/M07 A2962 RMK A01,M
BAM,2021-12-24 11:35,-116.8743,40.5990,1382.36,35.60,32.00,86.59,230.00,7.00,0.00,29.57,M,10.00,M,BKN,OVC,M,M,4800.00,7500.00,M,M,M,M,M,M,M,M,M,29.17,KBAM 241135Z AUTO 23007KT 10SM BKN048 OVC075 02/00 A2957 RMK AO1,M
HTH,2021-12-24 11:35,-118.6315,38.5448,1282.89,37.40,30.20,74.98,270.00,6.00,0.00,29.62,M,10.00,14.00,FEW,SCT,BKN,M,5500.00,7000.00,8000.00,M,M,M,M,M,M,M,M,32.03,KHTH 241135Z AUTO 27006G14KT 10SM FEW055 SCT070 BKN080 03/M01 A2962 RMK A01,M
TMT,2021-12-24 11:35,-117.1971,39.4643,1749.34,27.30,25.50,92.82,250.00,9.00,0.00,29.61,M,10.00,M,SCT,M,M,M,10000.00,M,M,M,M,M,M,M,M,M,M,17.67,KTMT 241135Z AUTO 25009KT 10SM SCT100 M03/M04 A2961 RMK AO2 T10261036,M
MEV,2021-12-24 11:35,-119.7500,38.9963,1441.42,35.60,33.80,93.08,180.00,3.00,0.00,29.59,M,10.00,M,FEW,SCT,BKN,M,1500.00,2700.00,3500.00,M,UP,M,M,M,M,M,M,32.80,KMEV 241135Z AUTO 18003KT 10SM UP FEW015 SCT027 BKN035 02/01 A2959 RMK AO2,M
BVU,2021-12-24 11:35,-114.8611,35.9475,671.00,53.60,48.20,81.87,170.00,12.00,0.00,29.70,M,10.00,M,OVC,M,M,M,3700.00,M,M,M,M,M,M,M,M,M,M,53.60,KBVU 241135Z AUTO 17012KT 10SM OVC037 12/09 A2970 RMK AO2,M
CXP,2021-12-24 11:35,-119.7326,39.1923,1431.00,37.40,33.80,86.69,0.00,0.00,0.00,29.60,M,10.00,M,BKN,OVC,M,M,3100.00,3800.00,M,M,M,M,M,M,M,M,M,37.40,KCXP 241135Z AUTO 00000KT 10SM BKN031 OVC038 03/01 A2960 RMK AO2,M
RTS,2021-12-24 11:35,-119.8764,39.6682,1539.00,35.60,30.20,80.51,250.00,4.00,0.00,29.57,M,10.00,M,FEW,SCT,BKN,M,1900.00,3600.00,4400.00,M,M,M,M,M,M,M,M,31.62,KRTS 241135Z AUTO 25004KT 10SM FEW019 SCT036 BKN044 02/M01 A2957 RMK AO2,M
EKO,2021-12-24 11:44,-115.7860,40.8242,1367.00,35.00,30.00,81.46,250.00,13.00,T,29.55,M,10.00,M,OVC,M,M,M,2800.00,M,M,M,UP,M,M,M,M,M,M,25.54,KEKO 241144Z AUTO 25013KT 10SM UP OVC028 02/M01 A2955 RMK AO2 UPB34SNB33E34B38E42 P0000 T00171011,M
CXP,2021-12-24 11:50,-119.7326,39.1923,1431.00,35.60,32.00,86.59,0.00,0.00,0.00,29.58,M,10.00,M,OVC,M,M,M,3400.00,M,M,M,M,M,M,M,M,M,M,35.60,KCXP 241150Z AUTO 00000KT 10SM OVC034 02/00 A2958 RMK AO2,M
ELY,2021-12-24 11:51,-114.8453,39.2950,1909.00,26.60,26.60,100.00,M,M,T,29.60,M,1.25,M,FEW,FEW,SCT,M,100.00,7500.00,11000.00,M,BR,0.05,M,M,M,M,M,M,KELY 241151Z AUTO 1 1/4SM BR FEW001 FEW075 SCT110 M03/M03 A2960 RMK AO2 SNE13 P0000 I1005 $,M
ELY,2021-12-24 11:52,-114.8453,39.2950,1909.00,26.10,26.10,100.00,M,M,T,29.60,1001.60,1.50,M,FEW,FEW,SCT,M,100.00,7500.00,11000.00,M,BR,0.05,M,0.05,M,M,M,M,KELY 241152Z AUTO 1 1/2SM BR FEW001 FEW075 SCT110 M03/M03 A2960 RMK AO2 SNE13 SLP016 P0000 60026 70069 I1005 I6005 T10331033 10000 21033 58010 $,M
DRA,2021-12-24 11:53,-116.0278,36.6206,1009.00,51.00,42.00,71.19,200.00,15.00,0.00,29.63,1001.20,10.00,25.00,OVC,M,M,M,3700.00,M,M,M,M,M,M,M,31.00,210.00,2021-12-24 11:20,51.10,KDRA 241153Z AUTO 20015G25KT 10SM OVC037 11/06 A2963 RMK AO2 PK WND 21031/1120 SLP012 70005 T01060056 10111 20100 56017,M
LOL,2021-12-24 11:53,-118.5701,40.0684,1192.43,34.00,30.90,88.27,180.00,6.00,0.00,29.57,1001.90,10.00,M,SCT,OVC,M,M,6000.00,8500.00,M,M,M,M,M,M,M,M,M,27.94,KLOL 241153Z AUTO 18006KT 10SM SCT060 OVC085 01/M01 A2957 RMK AO2 SLP019 7//// T00111006 10022 20000 58011 $,M
VGT,2021-12-24 11:53,-115.1933,36.2111,667.00,56.00,46.00,69.30,190.00,13.00,T,29.64,1004.90,10.00,M,FEW,BKN,OVC,M,5000.00,6000.00,7000.00,M,-RA,M,M,M,M,M,M,55.90,KVGT 241153Z AUTO 19013KT 10SM -RA FEW050 BKN060 OVC070 13/08 A2964 RMK AO2 SLP049 P0000 60000 70004 T01330078 10144 20128 58018,M
BAM,2021-12-24 11:55,-116.8743,40.5990,1382.36,35.60,32.00,86.59,250.00,10.00,0.00,29.56,M,10.00,M,SCT,BKN,OVC,M,4600.00,5500.00,8500.00,M,M,M,M,M,M,M,M,27.48,KBAM 241155Z AUTO 25010KT 10SM SCT046 BKN055 OVC085 02/00 A2956 RMK AO1,M
RNO,2021-12-24 11:55,-119.7711,39.4839,1341.00,37.00,34.00,88.78,0.00,0.00,T,29.57,1000.90,9.00,M,OVC,M,M,M,2900.00,M,M,M,-RA,M,M,M,M,M,M,37.00,KRNO 241155Z 00000KT 9SM -RA OVC029 03/01 A2957 RMK AO2 RAE12B41 SLP009 P0000 60005 70138 T00280011 10033 20017 58014,M
05U,2021-12-24 11:55,-116.0051,39.6042,1811.23,21.20,19.40,92.63,0.00,0.00,0.00,29.61,M,10.00,M,FEW,M,M,M,10000.00,M,M,M,M,M,M,M,M,M,M,21.20,K05U 241155Z AUTO 00000KT 10SM FEW100 M06/M07 A2961 RMK A01,M
BVU,2021-12-24 11:55,-114.8611,35.9475,671.00,53.60,50.00,87.56,170.00,10.00,0.00,29.69,M,10.00,15.00,OVC,M,M,M,3900.00,M,M,M,M,M,M,M,M,M,M,53.60,KBVU 241155Z AUTO 17010G15KT 10SM OVC039 12/10 A2969 RMK AO2,M
TMT,2021-12-24 11:55,-117.1971,39.4643,1749.34,27.50,25.30,91.30,240.00,9.00,0.00,29.61,M,10.00,M,SCT,M,M,M,9000.00,M,M,M,M,M,M,M,M,M,M,17.92,KTMT 241155Z AUTO 24009KT 10SM SCT090 M02/M04 A2961 RMK AO2 70033 T10251037 10000 21026,M
MEV,2021-12-24 11:55,-119.7500,38.9963,1441.42,35.60,32.00,86.59,180.00,5.00,0.00,29.58,M,10.00,M,FEW,SCT,BKN,M,2100.00,2900.00,3900.00,M,UP,M,M,M,M,M,M,30.67,KMEV 241155Z AUTO 18005KT 10SM UP FEW021 SCT029 BKN039 02/00 A2958 RMK AO2,M
HTH,2021-12-24 11:55,-118.6315,38.5448,1282.89,35.60,30.20,80.51,30.00,4.00,0.00,29.61,M,10.00,M,FEW,SCT,BKN,M,7000.00,8000.00,9000.00,M,M,M,M,M,M,M,M,31.62,KHTH 241155Z AUTO 03004KT 10SM FEW070 SCT080 BKN090 02/M01 A2961 RMK A01,M
RTS,2021-12-24 11:55,-119.8764,39.6682,1539.00,33.80,32.00,93.03,120.00,6.00,0.00,29.57,M,10.00,M,FEW,SCT,BKN,M,2300.00,3900.00,4500.00,M,M,M,M,M,M,M,M,27.70,KRTS 241155Z AUTO 12006KT 10SM FEW023 SCT039 BKN045 01/M00 A2957 RMK AO2,M
HND,2021-12-24 11:56,-115.1344,35.9729,742.79,52.00,47.00,82.68,200.00,11.00,T,29.69,1006.50,9.00,M,SCT,BKN,OVC,M,3300.00,4900.00,6500.00,M,-RA,M,M,M,M,M,M,52.00,KHND 241156Z AUTO 20011KT 9SM -RA SCT033 BKN049 OVC065 11/08 A2969 RMK AO2 RAB30 SLP065 P0000 60000 70002 T01110083 10128 20111 58013,M
NFL,2021-12-24 11:56,-118.7010,39.4166,1199.00,36.00,30.90,81.53,190.00,9.00,0.00,29.57,1000.00,10.00,M,CLR,M,M,M,M,M,M,M,M,M,M,M,M,M,M,28.49,KNFL 241156Z AUTO 19009KT 10SM CLR 02/M01 A2957 RMK AO2 SLP000 70057 T00221006 10028 20006 58014,M
TPH,2021-12-24 11:56,-117.0904,38.0505,1654.00,34.00,34.00,100.00,0.00,0.00,T,29.65,1003.60,10.00,M,OVC,M,M,M,700.00,M,M,M,M,M,M,M,M,M,M,34.00,KTPH 241156Z AUTO 00000KT 10SM OVC007 01/01 A2965 RMK AO2 UPE1057RAB1057E1058 CIG 005V008 SLP036 P0000 60004 70022 T00110011 10011 20006 58006,M
LAS,2021-12-24 11:56,-115.1634,36.0719,663.00,56.00,45.00,66.72,200.00,8.00,0.00,29.66,1003.80,10.00,19.00,FEW,FEW,OVC,M,3000.00,4900.00,6000.00,M,M,M,M,M,M,M,M,55.90,KLAS 241156Z 20008G19KT 10SM FEW030 FEW049 OVC060 13/07 A2966 RMK AO2 SLP038 SHSN OBSCURES MTNS DSNT SW-NW 60000 70010 T01330072 10139 20128 58015,M
EKO,2021-12-24 11:56,-115.7860,40.8242,1367.00,35.00,30.90,84.49,250.00,13.00,T,29.54,1000.70,9.00,M,BKN,OVC,M,M,3000.00,6500.00,M,M,-SN,M,M,M,M,M,M,25.54,KEKO 241156Z AUTO 25013KT 9SM -SN BKN030 OVC065 02/M01 A2954 RMK AO2 UPB34E45SNB33E34B38E42B45 SLP007 P0000 60000 70019 T00171006 10028 20006 58008,M
WMC,2021-12-24 11:56,-117.8072,40.9019,1315.00,37.00,30.90,78.37,170.00,10.00,0.00,29.52,999.60,10.00,M,FEW,SCT,OVC,M,3600.00,8000.00,10000.00,M,M,M,M,M,M,M,M,29.24,KWMC 241156Z AUTO 17010KT 10SM FEW036 SCT080 OVC100 03/M01 A2952 RMK AO2 SLP996 60000 70015 T00281006 10033 20022 58013,M
LSV,2021-12-24 11:58,-115.0343,36.2362,570.00,56.50,49.60,77.63,180.00,19.00,0.00,29.63,1002.60,10.00,M,FEW,M,M,M,6000.00,M,M,M,M,M,M,M,M,M,M,56.50,KLSV 241158Z AUTO 18019KT 10SM FEW060 14/10 A2963 RMK AO2 SLP026 70002 T01360098 10142 20124 57021 $,M
INS,2021-12-24 11:58,-115.6733,36.5872,955.00,51.40,39.20,62.92,250.00,4.00,0.00,29.63,1001.70,10.00,M,OVC,M,M,M,8500.00,M,M,M,M,M,M,M,M,M,M,51.40,KINS 241158Z AUTO 25004KT 10SM OVC085 11/04 A2963 RMK AO2 SLP017 70007 T01080040 10128 20092 57016 VISNO RWY08 $,M
ELY,2021-12-24 12:01,-114.8453,39.2950,1909.00,25.00,25.00,100.00,M,M,0.00,29.60,M,3.00,M,FEW,FEW,M,M,100.00,12000.00,M,M,BR,M,M,M,M,M,M,M,KELY 241201Z AUTO 3SM BR FEW001 FEW120 M04/M04 A2960 RMK AO2 T10391039 $,M
TPH,2021-12-24 12:06,-117.0904,38.0505,1654.00,34.00,33.00,96.46,50.00,3.00,0.00,29.65,M,10.00,M,OVC,M,M,M,500.00,M,M,M,M,M,M,M,M,M,M,30.97,KTPH 241206Z AUTO 05003KT 10SM OVC005 01/01 A2965 RMK AO2 T00110006,M
BAM,2021-12-24 12:15,-116.8743,40.5990,1382.36,35.60,32.00,86.59,240.00,7.00,0.00,29.56,M,10.00,M,BKN,OVC,M,M,6000.00,8000.00,M,M,M,M,M,M,M,M,M,29.17,KBAM 241215Z AUTO 24007KT 10SM BKN060 OVC080 02/00 A2956 RMK AO1,M
HTH,2021-12-24 12:15,-118.6315,38.5448,1282.89,37.40,30.20,74.98,M,3.00,0.00,29.61,M,10.00,M,FEW,SCT,SCT,M,7500.00,9000.00,11000.00,M,M,M,M,M,M,M,M,34.86,KHTH 241215Z AUTO VRB03KT 10SM FEW075 SCT090 SCT110 03/M01 A2961 RMK A01,M
TMT,2021-12-24 12:15,-117.1971,39.4643,1749.34,28.20,25.70,90.20,230.00,9.00,0.00,29.60,M,10.00,M,SCT,M,M,M,12000.00,M,M,M,M,M,M,M,M,M,M,18.79,KTMT 241215Z AUTO 23009KT 10SM SCT120 M02/M03 A2960 RMK AO2 T10211035,M
CXP,2021-12-24 12:15,-119.7326,39.1923,1431.00,37.40,32.00,80.65,M,4.00,0.00,29.58,M,10.00,M,FEW,BKN,OVC,M,2800.00,3600.00,4500.00,M,M,M,M,M,M,M,M,33.73,KCXP 241215Z AUTO VRB04KT 10SM FEW028 BKN036 OVC045 03/00 A2958 RMK AO2,M
RTS,2021-12-24 12:15,-119.8764,39.6682,1539.00,37.40,30.20,74.98,260.00,8.00,0.00,29.56,M,10.00,M,FEW,SCT,OVC,M,3100.00,3900.00,4600.00,M,M,M,M,M,M,M,M,30.76,KRTS 241215Z AUTO 26008KT 10SM FEW031 SCT039 OVC046 03/M01 A2956 RMK AO2,M
05U,2021-12-24 12:15,-116.0051,39.6042,1811.23,19.40,17.60,92.57,0.00,0.00,0.00,29.61,M,10.00,M,FEW,M,M,M,10000.00,M,M,M,M,M,M,M,M,M,M,19.40,K05U 241215Z AUTO 00000KT 10SM FEW100 M07/M08 A2961 RMK A01,M
MEV,2021-12-24 12:15,-119.7500,38.9963,1441.42,33.80,32.00,93.03,0.00,0.00,0.00,29.57,M,10.00,M,FEW,BKN,OVC,M,2900.00,5500.00,6500.00,M,M,M,M,M,M,M,M,33.80,KMEV 241215Z AUTO 00000KT 10SM FEW029 BKN055 OVC065 01/00 A2957 RMK AO2,M
BVU,2021-12-24 12:15,-114.8611,35.9475,671.00,53.60,50.00,87.56,160.00,12.00,0.00,29.68,M,9.00,20.00,OVC,M,M,M,4000.00,M,M,M,M,M,M,M,M,M,M,53.60,KBVU 241215Z AUTO 16012G20KT 9SM OVC040 12/10 A2968 RMK AO2,M
HTH,2021-12-24 12:35,-118.6315,38.5448,1282.89,37.40,30.20,74.98,M,3.00,0.00,29.60,M,10.00,M,FEW,FEW,SCT,M,4500.00,5000.00,7000.00,M,M,M,M,M,M,M,M,34.86,KHTH 241235Z AUTO VRB03KT 10SM FEW045 FEW050 SCT070 03/M01 A2960 RMK A01,M
TMT,2021-12-24 12:35,-117.1971,39.4643,1749.34,31.10,27.50,86.33,230.00,10.00,0.00,29.59,M,10.00,M,SCT,BKN,M,M,10000.00,12000.00,M,M,M,M,M,M,M,M,M,21.84,KTMT 241235Z AUTO 23010KT 10SM SCT100 BKN120 00/M02 A2959 RMK AO2 T10051025,M
MEV,2021-12-24 12:35,-119.7500,38.9963,1441.42,35.60,32.00,86.59,0.00,0.00,0.00,29.56,M,10.00,M,FEW,SCT,BKN,M,3400.00,4000.00,4800.00,M,M,M,M,M,M,M,M,35.60,KMEV 241235Z AUTO 00000KT 10SM FEW034 SCT040 BKN048 02/00 A2956 RMK AO2,M
05U,2021-12-24 12:35,-116.0051,39.6042,1811.23,17.60,15.80,92.50,0.00,0.00,0.00,29.60,M,9.00,M,CLR,M,M,M,M,M,M,M,M,M,M,M,M,M,M,17.60,K05U 241235Z AUTO 00000KT 9SM CLR M08/M09 A2960 RMK A01,M
CXP,2021-12-24 12:35,-119.7326,39.1923,1431.00,37.40,32.00,80.65,0.00,0.00,0.00,29.57,M,8.00,M,BKN,BKN,OVC,M,2900.00,3700.00,4400.00,M,-UP,M,M,M,M,M,M,37.40,KCXP 241235Z AUTO 00000KT 8SM -UP BKN029 BKN037 OVC044 03/00 A2957 RMK AO2,M
RTS,2021-12-24 12:35,-119.8764,39.6682,1539.00,37.40,30.20,74.98,260.00,7.00,0.00,29.55,M,10.00,13.00,FEW,SCT,BKN,M,3300.00,4200.00,4800.00,M,M,M,M,M,M,M,M,31.36,KRTS 241235Z AUTO 26007G13KT 10SM FEW033 SCT042 BKN048 03/M01 A2955 RMK AO2,M
BVU,2021-12-24 12:35,-114.8611,35.9475,671.00,51.80,50.00,93.55,160.00,13.00,0.00,29.70,M,5.00,M,FEW,SCT,OVC,M,3000.00,3800.00,4600.00,M,-RA,M,M,M,M,M,M,51.80,KBVU 241235Z AUTO 16013KT 5SM -RA FEW030 SCT038 OVC046 11/10 A2970 RMK AO2,M
BAM,2021-12-24 12:35,-116.8743,40.5990,1382.36,35.60,32.00,86.59,240.00,6.00,0.00,29.55,M,10.00,M,OVC,M,M,M,6000.00,M,M,M,M,M,M,M,M,M,M,29.87,KBAM 241235Z AUTO 24006KT 10SM OVC060 02/00 A2955 RMK AO1,M
TPH,2021-12-24 12:44,-117.0904,38.0505,1654.00,34.00,34.00,100.00,130.00,5.00,0.00,29.64,M,10.00,M,OVC,M,M,M,400.00,M,M,M,M,M,M,M,M,M,M,28.77,KTPH 241244Z AUTO 13005KT 10SM OVC004 01/01 A2964 RMK AO2 T00110011,M
VGT,2021-12-24 12:53,-115.1933,36.2111,667.00,54.00,47.00,76.83,180.00,16.00,T,29.64,1004.80,10.00,M,FEW,BKN,OVC,M,6000.00,7500.00,9000.00,M,-RA,M,M,M,26.00,190.00,2021-12-24 12:34,54.00,KVGT 241253Z AUTO 18016KT 10SM -RA FEW060 BKN075 OVC090 12/08 A2964 RMK AO2 PK WND 19026/1234 SLP048 P0000 T01220083,M
ELY,2021-12-24 12:53,-114.8453,39.2950,1909.00,30.00,28.90,95.61,M,M,0.00,29.59,1001.20,10.00,M,OVC,M,M,M,8500.00,M,M,M,M,M,M,M,M,M,M,M,KELY 241253Z AUTO 10SM OVC085 M01/M02 A2959 RMK AO2 SLP012 T10111017 $,M
DRA,2021-12-24 12:53,-116.0278,36.6206,1009.00,50.00,42.00,74.15,200.00,17.00,0.00,29.65,1001.90,10.00,26.00,SCT,OVC,M,M,3500.00,10000.00,M,M,M,M,M,M,29.00,190.00,2021-12-24 12:04,50.00,KDRA 241253Z AUTO 20017G26KT 10SM SCT035 OVC100 10/06 A2965 RMK AO2 PK WND 19029/1204 SLP019 T01000056,M
LOL,2021-12-24 12:53,-118.5701,40.0684,1192.43,33.00,30.90,91.51,190.00,6.00,0.00,29.55,1001.30,10.00,M,SCT,BKN,OVC,M,7000.00,8000.00,11000.00,M,M,M,M,M,M,M,M,26.86,KLOL 241253Z AUTO 19006KT 10SM SCT070 BKN080 OVC110 01/M01 A2955 RMK AO2 SLP013 T00061006 $,M
RNO,2021-12-24 12:55,-119.7711,39.4839,1341.00,36.00,34.00,92.35,330.00,4.00,0.05,29.56,1000.70,7.00,M,FEW,OVC,M,M,1600.00,2500.00,M,M,-RA,M,M,M,M,M,M,32.09,KRNO 241255Z 33004KT 7SM -RA FEW016 OVC025 02/01 A2956 RMK AO2 SLP007 P0005 T00220011,M
TMT,2021-12-24 12:55,-117.1971,39.4643,1749.34,31.50,28.00,86.71,240.00,8.00,0.00,29.58,M,10.00,M,SCT,BKN,M,M,10000.00,12000.00,M,M,M,M,M,M,M,M,M,23.50,KTMT 241255Z AUTO 24008KT 10SM SCT100 BKN120 00/M02 A2958 RMK AO2 T10031022,M
HTH,2021-12-24 12:55,-118.6315,38.5448,1282.89,33.80,30.20,86.49,200.00,5.00,0.00,29.59,M,10.00,M,FEW,FEW,SCT,M,5000.00,5500.00,10000.00,M,M,M,M,M,M,M,M,28.53,KHTH 241255Z AUTO 20005KT 10SM FEW050 FEW055 SCT100 01/M01 A2959 RMK A01,M
MEV,2021-12-24 12:55,-119.7500,38.9963,1441.42,35.60,32.00,86.59,340.00,4.00,0.00,29.56,M,10.00,M,SCT,BKN,OVC,M,3300.00,3800.00,4700.00,M,M,M,M,M,M,M,M,31.62,KMEV 241255Z AUTO 34004KT 10SM SCT033 BKN038 OVC047 02/00 A2956 RMK AO2,M
BAM,2021-12-24 12:55,-116.8743,40.5990,1382.36,35.60,32.00,86.59,250.00,6.00,0.00,29.55,M,10.00,M,BKN,OVC,M,M,6000.00,7500.00,M,M,M,M,M,M,M,M,M,29.87,KBAM 241255Z AUTO 25006KT 10SM BKN060 OVC075 02/00 A2955 RMK AO1,M
05U,2021-12-24 12:55,-116.0051,39.6042,1811.23,17.60,15.80,92.50,0.00,0.00,0.00,29.60,M,10.00,M,SCT,M,M,M,10000.00,M,M,M,M,M,M,M,M,M,M,17.60,K05U 241255Z AUTO 00000KT 10SM SCT100 M08/M09 A2960 RMK A01,M
RTS,2021-12-24 12:55,-119.8764,39.6682,1539.00,35.60,30.20,80.51,260.00,7.00,0.00,29.55,M,10.00,M,FEW,BKN,OVC,M,2700.00,4000.00,6500.00,M,M,M,M,M,M,M,M,29.17,KRTS 241255Z AUTO 26007KT 10SM FEW027 BKN040 OVC065 02/M01 A2955 RMK AO2,M
CXP,2021-12-24 12:55,-119.7326,39.1923,1431.00,35.60,33.80,93.08,340.00,4.00,0.00,29.57,M,10.00,M,OVC,M,M,M,3000.00,M,M,M,M,M,M,M,M,M,M,31.62,KCXP 241255Z AUTO 34004KT 10SM OVC030 02/01 A2957 RMK AO2,M
BVU,2021-12-24 12:55,-114.8611,35.9475,671.00,51.80,50.00,93.55,190.00,6.00,0.00,29.70,M,6.00,M,FEW,SCT,BKN,M,3400.00,4200.00,4800.00,M,-RA,M,M,M,M,M,M,51.80,KBVU 241255Z AUTO 19006KT 6SM -RA FEW034 SCT042 BKN048 11/10 A2970 RMK AO2,M
HND,2021-12-24 12:56,-115.1344,35.9729,742.79,51.00,47.00,85.48,190.00,16.00,0.04,29.68,1006.30,10.00,M,FEW,BKN,OVC,M,4000.00,7500.00,9500.00,M,-RA,M,M,M,M,M,M,51.10,KHND 241256Z AUTO 19016KT 10SM -RA FEW040 BKN075 OVC095 11/08 A2968 RMK AO2 SLP063 P0004 T01060083,M
LAS,2021-12-24 12:56,-115.1634,36.0719,663.00,54.00,47.00,76.83,190.00,8.00,T,29.69,1004.80,10.00,15.00,FEW,BKN,OVC,M,3300.00,6000.00,7000.00,M,-RA,M,M,M,M,M,M,54.00,KLAS 241256Z 19008G15KT 10SM -RA FEW033 BKN060 OVC070 12/08 A2969 RMK AO2 RAB51 PRESRR SLP048 MTNS OBSCURED DSNT SW-NW P0000 T01220083,M
WMC,2021-12-24 12:56,-117.8072,40.9019,1315.00,37.00,30.90,78.37,190.00,6.00,0.00,29.50,998.80,10.00,M,OVC,M,M,M,6500.00,M,M,M,M,M,M,M,M,M,M,31.55,KWMC 241256Z AUTO 19006KT 10SM OVC065 03/M01 A2950 RMK AO2 SLP988 T00281006,M
NFL,2021-12-24 12:56,-118.7010,39.4166,1199.00,36.00,30.90,81.53,170.00,3.00,0.00,29.56,999.70,10.00,M,FEW,M,M,M,12000.00,M,M,M,M,M,M,M,M,M,M,33.26,KNFL 241256Z AUTO 17003KT 10SM FEW120 02/M01 A2956 RMK AO2 SLP997 T00221006,M
EKO,2021-12-24 12:56,-115.7860,40.8242,1367.00,35.00,30.90,84.49,240.00,7.00,T,29.52,999.80,10.00,M,FEW,BKN,OVC,M,4100.00,4800.00,6000.00,M,M,M,M,M,M,M,M,28.56,KEKO 241256Z AUTO 24007KT 10SM FEW041 BKN048 OVC060 02/M01 A2952 RMK AO2 UPB00E02SNE00 SLP998 P0000 T00171006,M
TPH,2021-12-24 12:56,-117.0904,38.0505,1654.00,33.00,33.00,100.00,40.00,3.00,0.00,29.63,1003.10,6.00,M,OVC,M,M,M,400.00,M,M,M,BR,M,M,M,M,M,M,29.95,KTPH 241256Z AUTO 04003KT 6SM BR OVC004 01/01 A2963 RMK AO2 SLP031 T00060006,M
LSV,2021-12-24 12:58,-115.0343,36.2362,570.00,54.70,54.70,100.00,200.00,19.00,0.00,29.64,1003.10,10.00,M,FEW,M,M,M,10000.00,M,M,M,M,M,M,M,M,M,M,54.70,KLSV 241258Z AUTO 20019KT 10SM FEW100 13/13 A2964 RMK AO2 SLP031 T01260126 $,M
INS,2021-12-24 12:58,-115.6733,36.5872,955.00,50.40,41.40,71.11,110.00,11.00,0.00,29.64,1002.10,10.00,15.00,OVC,M,M,M,7500.00,M,M,M,M,M,M,M,M,M,M,50.40,KINS 241258Z AUTO 11011G15KT 10SM OVC075 10/05 A2964 RMK AO2 SLP021 T01020052 VISNO RWY08 $,M
INS,2021-12-24 13:00,-115.6733,36.5872,955.00,50.00,42.80,76.18,80.00,14.00,0.00,29.64,1002.10,10.00,M,OVC,M,M,M,7500.00,M,M,M,M,M,M,M,M,M,M,50.00,KINS 241300Z AUTO 08014KT 10SM OVC075 10/06 A2964 RMK AO2 WSHFT 1257 SLP021 VISNO RWY08 $,M
RTS,2021-12-24 13:15,-119.8764,39.6682,1539.00,35.60,32.00,86.59,270.00,6.00,0.00,29.56,M,10.00,M,SCT,OVC,M,M,3200.00,3900.00,M,M,M,M,M,M,M,M,M,29.87,KRTS 241315Z AUTO 27006KT 10SM SCT032 OVC039 02/M00 A2956 RMK AO2,M
CXP,2021-12-24 13:15,-119.7326,39.1923,1431.00,37.40,33.80,86.69,320.00,6.00,0.00,29.57,M,9.00,M,BKN,BKN,BKN,M,3000.00,3500.00,4300.00,M,-UP,M,M,M,M,M,M,32.03,KCXP 241315Z AUTO 32006KT 9SM -UP BKN030 BKN035 BKN043 03/01 A2957 RMK AO2,M
05U,2021-12-24 13:15,-116.0051,39.6042,1811.23,15.80,12.20,85.40,0.00,0.00,0.00,29.60,M,10.00,M,CLR,M,M,M,M,M,M,M,M,M,M,M,M,M,M,15.80,K05U 241315Z AUTO 00000KT 10SM CLR M09/M11 A2960 RMK A01,M
MEV,2021-12-24 13:15,-119.7500,38.9963,1441.42,35.60,32.00,86.59,0.00,0.00,0.00,29.55,M,10.00,M,SCT,SCT,OVC,M,3200.00,4000.00,4800.00,M,M,M,M,M,M,M,M,35.60,KMEV 241315Z AUTO 00000KT 10SM SCT032 SCT040 OVC048 02/00 A2955 RMK AO2,M
BAM,2021-12-24 13:15,-116.8743,40.5990,1382.36,35.60,32.00,86.59,230.00,7.00,0.00,29.54,M,10.00,M,SCT,BKN,OVC,M,4200.00,4800.00,6000.00,M,M,M,M,M,M,M,M,29.17,KBAM 241315Z AUTO 23007KT 10SM SCT042 BKN048 OVC060 02/00 A2954 RMK AO1,M
HTH,2021-12-24 13:15,-118.6315,38.5448,1282.89,35.60,30.20,80.51,190.00,6.00,0.00,29.59,M,10.00,M,FEW,SCT,SCT,M,6000.00,7000.00,10000.00,M,M,M,M,M,M,M,M,29.87,KHTH 241315Z AUTO 19006KT 10SM FEW060 SCT070 SCT100 02/M01 A2959 RMK A01,M
TMT,2021-12-24 13:15,-117.1971,39.4643,1749.34,31.80,28.40,87.09,230.00,10.00,0.00,29.58,M,10.00,M,BKN,OVC,M,M,10000.00,12000.00,M,M,M,M,M,M,M,M,M,22.72,KTMT 241315Z AUTO 23010KT 10SM BKN100 OVC120 00/M02 A2958 RMK AO2 T10011020,M
BVU,2021-12-24 13:15,-114.8611,35.9475,671.00,51.80,50.00,93.55,190.00,6.00,0.00,29.70,M,8.00,M,SCT,BKN,OVC,M,2400.00,2900.00,5500.00,M,-DZ,M,M,M,M,M,M,51.80,KBVU 241315Z AUTO 19006KT 8SM -DZ SCT024 BKN029 OVC055 11/10 A2970 RMK AO2,M
CXP,2021-12-24 13:35,-119.7326,39.1923,1431.00,37.40,32.00,80.65,M,3.00,0.00,29.58,M,5.00,M,FEW,SCT,BKN,M,900.00,2900.00,3300.00,M,-RA,M,M,M,M,M,M,34.86,KCXP 241335Z AUTO VRB03KT 5SM -RA FEW009 SCT029 BKN033 03/00 A2958 RMK AO2,M
TMT,2021-12-24 13:35,-117.1971,39.4643,1749.34,31.80,28.60,87.80,230.00,9.00,0.00,29.58,M,10.00,M,BKN,M,M,M,10000.00,M,M,M,M,M,M,M,M,M,M,23.27,KTMT 241335Z AUTO 23009KT 10SM BKN100 00/M02 A2958 RMK AO2 T10011019,M
HTH,2021-12-24 13:35,-118.6315,38.5448,1282.89,37.40,28.40,69.67,150.00,10.00,0.00,29.59,M,10.00,15.00,FEW,FEW,BKN,M,6000.00,7000.00,11000.00,M,M,M,M,M,M,M,M,29.74,KHTH 241335Z AUTO 15010G15KT 10SM FEW060 FEW070 BKN110 03/M02 A2959 RMK A01,M
BAM,2021-12-24 13:35,-116.8743,40.5990,1382.36,37.40,32.00,80.65,230.00,9.00,0.00,29.53,M,10.00,M,SCT,OVC,M,M,4300.00,5000.00,M,M,M,M,M,M,M,M,M,30.23,KBAM 241335Z AUTO 23009KT 10SM SCT043 OVC050 03/00 A2953 RMK AO1,M
MEV,2021-12-24 13:35,-119.7500,38.9963,1441.42,37.40,32.00,80.65,0.00,0.00,0.00,29.56,M,10.00,M,FEW,BKN,OVC,M,3300.00,4400.00,5000.00,M,M,M,M,M,M,M,M,37.40,KMEV 241335Z AUTO 00000KT 10SM FEW033 BKN044 OVC050 03/00 A2956 RMK AO2,M
RNO,2021-12-24 13:35,-119.7711,39.4839,1341.00,36.00,33.00,89.09,30.00,4.00,0.01,29.56,M,10.00,M,SCT,BKN,BKN,M,3300.00,4800.00,6500.00,M,-RA,M,M,M,M,M,M,32.09,KRNO 241335Z 03004KT 10SM -RA SCT033 BKN048 BKN065 02/01 A2956 RMK AO2 P0001 T00220006,M
05U,2021-12-24 13:35,-116.0051,39.6042,1811.23,12.20,10.40,92.32,0.00,0.00,0.00,29.60,M,10.00,M,FEW,M,M,M,12000.00,M,M,M,M,M,M,M,M,M,M,12.20,K05U 241335Z AUTO 00000KT 10SM FEW120 M11/M12 A2960 RMK A01,M
RTS,2021-12-24 13:35,-119.8764,39.6682,1539.00,33.80,32.00,93.03,300.00,5.00,0.00,29.55,M,10.00,M,FEW,BKN,OVC,M,2000.00,2800.00,3900.00,M,M,M,M,M,M,M,M,28.53,KRTS 241335Z AUTO 30005KT 10SM FEW020 BKN028 OVC039 01/M00 A2955 RMK AO2,M
BVU,2021-12-24 13:35,-114.8611,35.9475,671.00,51.80,50.00,93.55,170.00,5.00,0.00,29.70,M,8.00,M,FEW,BKN,OVC,M,2200.00,2600.00,4500.00,M,-DZ,M,M,M,M,M,M,51.80,KBVU 241335Z AUTO 17005KT 8SM -DZ FEW022 BKN026 OVC045 11/10 A2970 RMK AO2,M
WMC,2021-12-24 13:38,-117.8072,40.9019,1315.00,36.00,32.00,85.23,180.00,9.00,0.01,29.51,M,10.00,M,FEW,OVC,M,M,2100.00,2600.00,M,M,-RA,M,M,M,M,M,M,28.49,KWMC 241338Z AUTO 18009KT 10SM -RA FEW021 OVC026 02/00 A2951 RMK AO2 UPB16E21RAB21 P0001 T00220000,M
INS,2021-12-24 13:48,-115.6733,36.5872,955.00,48.20,44.60,87.28,120.00,9.00,0.00,29.66,1002.80,10.00,M,BKN,OVC,M,M,7500.00,9000.00,M,M,-RA,M,M,M,M,M,M,43.66,KINS 241348Z AUTO 12009KT 10SM -RA BKN075 OVC090 09/07 A2966 RMK AO2 RAB48 SLP028 VISNO RWY08 $,M
ELY,2021-12-24 13:53,-114.8453,39.2950,1909.00,28.90,27.00,92.49,M,M,0.00,29.59,1001.00,10.00,M,BKN,M,M,M,7000.00,M,M,M,M,M,M,M,M,M,M,M,KELY 241353Z AUTO 10SM BKN070 M02/M03 A2959 RMK AO2 SLP010 T10171028 $,M
LOL,2021-12-24 13:53,-118.5701,40.0684,1192.43,34.00,30.90,88.27,200.00,8.00,0.00,29.54,1001.10,10.00,M,BKN,OVC,M,M,7000.00,8500.00,M,M,M,M,M,M,M,M,M,26.58,KLOL 241353Z AUTO 20008KT 10SM BKN070 OVC085 01/M01 A2954 RMK AO2 SLP011 T00111006 $,M
DRA,2021-12-24 13:53,-116.0278,36.6206,1009.00,50.00,40.00,68.10,210.00,11.00,0.00,29.65,1001.80,10.00,M,SCT,BKN,M,M,3700.00,11000.00,M,M,M,M,M,M,M,M,M,50.00,KDRA 241353Z AUTO 21011KT 10SM SCT037 BKN110 10/04 A2965 RMK AO2 SLP018 T01000044,M
VGT,2021-12-24 13:53,-115.1933,36.2111,667.00,56.00,44.00,64.47,220.00,12.00,T,29.64,1004.80,10.00,M,FEW,SCT,M,M,9500.00,12000.00,M,M,M,M,M,M,M,M,M,55.90,KVGT 241353Z AUTO 22012KT 10SM FEW095 SCT120 13/07 A2964 RMK AO2 RAE05 SLP048 P0000 T01330067,M
RTS,2021-12-24 13:55,-119.8764,39.6682,1539.00,35.60,32.00,86.59,300.00,5.00,0.00,29.55,M,10.00,M,FEW,SCT,BKN,M,2200.00,2800.00,3300.00,M,M,M,M,M,M,M,M,30.67,KRTS 241355Z AUTO 30005KT 10SM FEW022 SCT028 BKN033 02/M00 A2955 RMK AO2,M
HTH,2021-12-24 13:55,-118.6315,38.5448,1282.89,37.40,28.40,69.67,120.00,10.00,0.00,29.58,M,10.00,M,OVC,M,M,M,11000.00,M,M,M,M,M,M,M,M,M,M,29.74,KHTH 241355Z AUTO 12010KT 10SM OVC110 03/M02 A2958 RMK A01,M
BAM,2021-12-24 13:55,-116.8743,40.5990,1382.36,37.40,32.00,80.65,260.00,6.00,0.00,29.53,M,10.00,M,OVC,M,M,M,4800.00,M,M,M,M,M,M,M,M,M,M,32.03,KBAM 241355Z AUTO 26006KT 10SM OVC048 03/00 A2953 RMK AO1,M
MEV,2021-12-24 13:55,-119.7500,38.9963,1441.42,37.40,32.00,80.65,0.00,0.00,0.00,29.56,M,10.00,M,FEW,SCT,BKN,M,3300.00,4000.00,4500.00,M,M,M,M,M,M,M,M,37.40,KMEV 241355Z AUTO 00000KT 10SM FEW033 SCT040 BKN045 03/M00 A2956 RMK AO2,M
05U,2021-12-24 13:55,-116.0051,39.6042,1811.23,12.20,10.40,92.32,0.00,0.00,0.00,29.60,M,10.00,M,FEW,SCT,SCT,M,4200.00,8000.00,12000.00,M,M,M,M,M,M,M,M,12.20,K05U 241355Z AUTO 00000KT 10SM FEW042 SCT080 SCT120 M11/M12 A2960 RMK A01,M
TMT,2021-12-24 13:55,-117.1971,39.4643,1749.34,32.00,28.20,85.68,230.00,12.00,0.00,29.58,M,10.00,M,SCT,M,M,M,10000.00,M,M,M,M,M,M,M,M,M,M,22.00,KTMT 241355Z AUTO 23012KT 10SM SCT100 00/M02 A2958 RMK AO2 T00001021,M
BVU,2021-12-24 13:55,-114.8611,35.9475,671.00,51.80,50.00,93.55,150.00,6.00,0.00,29.70,M,10.00,M,FEW,BKN,OVC,M,2500.00,5000.00,6500.00,M,M,M,M,M,M,M,M,51.80,KBVU 241355Z AUTO 15006KT 10SM FEW025 BKN050 OVC065 11/10 A2970 RMK AO2,M
CXP,2021-12-24 13:55,-119.7326,39.1923,1431.00,35.60,33.80,93.08,M,3.00,0.00,29.58,M,5.00,M,SCT,SCT,M,M,1100.00,1800.00,M,M,-RA,M,M,M,M,M,M,32.80,KCXP 241355Z AUTO VRB03KT 5SM -RA SCT011 SCT018 02/01 A2958 RMK AO2,M
RNO,2021-12-24 13:55,-119.7711,39.4839,1341.00,36.00,34.00,92.35,50.00,3.00,0.01,29.56,1000.40,10.00,M,SCT,BKN,OVC,M,3300.00,4800.00,6500.00,M,-RA,M,M,M,M,M,M,33.26,KRNO 241355Z 05003KT 10SM -RA SCT033 BKN048 OVC065 02/01 A2956 RMK AO2 RAE37B53 SLP004 P0001 T00220011,M
WMC,2021-12-24 13:56,-117.8072,40.9019,1315.00,36.00,33.00,89.09,160.00,9.00,0.01,29.51,999.30,10.00,M,BKN,OVC,M,M,2100.00,2600.00,M,M,-RA,M,M,M,M,M,M,28.49,KWMC 241356Z AUTO 16009KT 10SM -RA BKN021 OVC026 02/01 A2951 RMK AO2 UPB16E21RAB21 SLP993 P0001 T00220006,M
NFL,2021-12-24 13:56,-118.7010,39.4166,1199.00,36.00,30.90,81.53,180.00,5.00,0.00,29.56,999.60,10.00,M,OVC,M,M,M,7500.00,M,M,M,M,M,M,M,M,M,M,31.15,KNFL 241356Z AUTO 18005KT 10SM OVC075 02/M01 A2956 RMK AO2 SLP996 T00221006,M
LAS,2021-12-24 13:56,-115.1634,36.0719,663.00,53.00,44.00,71.40,210.00,8.00,T,29.66,1003.50,10.00,19.00,FEW,SCT,BKN,M,3500.00,6500.00,9000.00,M,M,M,M,M,M,M,M,53.10,KLAS 241356Z 21008G19KT 10SM FEW035 SCT065 BKN090 12/07 A2966 RMK AO2 RAE08 SLP035 P0000 T01170067,M
HND,2021-12-24 13:56,-115.1344,35.9729,742.79,52.00,45.00,76.94,210.00,14.00,T,29.68,1006.30,10.00,19.00,FEW,OVC,M,M,8000.00,10000.00,M,M,M,M,M,M,M,M,M,52.00,KHND 241356Z AUTO 21014G19KT 10SM FEW080 OVC100 11/07 A2968 RMK AO2 RAE29 SLP063 P0000 T01110072,M
TPH,2021-12-24 13:56,-117.0904,38.0505,1654.00,34.00,34.00,100.00,160.00,3.00,0.00,29.63,1003.40,10.00,M,OVC,M,M,M,500.00,M,M,M,M,M,M,M,M,M,M,30.97,KTPH 241356Z AUTO 16003KT 10SM OVC005 01/01 A2963 RMK AO2 CIG 003V006 SLP034 T00110011,M
EKO,2021-12-24 13:56,-115.7860,40.8242,1367.00,36.00,28.90,75.15,230.00,8.00,0.00,29.51,999.50,10.00,M,OVC,M,M,M,3800.00,M,M,M,M,M,M,M,M,M,M,29.04,KEKO 241356Z AUTO 23008KT 10SM OVC038 02/M02 A2951 RMK AO2 SLP995 T00221017,M
LSV,2021-12-24 13:58,-115.0343,36.2362,570.00,55.00,55.00,100.00,190.00,11.00,0.00,29.65,1003.30,10.00,M,OVC,M,M,M,9500.00,M,M,M,M,M,M,M,M,M,M,54.90,KLSV 241358Z AUTO 19011KT 10SM OVC095 13/13 A2965 RMK AO2 SLP033 T01270127 $,M
INS,2021-12-24 13:58,-115.6733,36.5872,955.00,47.80,45.00,89.96,150.00,11.00,T,29.65,1002.40,10.00,M,SCT,BKN,M,M,7500.00,9000.00,M,M,-RA,M,M,M,M,M,M,42.43,KINS 241358Z AUTO 15011KT 10SM -RA SCT075 BKN090 09/07 A2965 RMK AO2 RAB48 SLP024 P0000 T00880072 VISNO RWY08 $,M
INS,2021-12-24 14:00,-115.6733,36.5872,955.00,48.20,46.40,93.45,130.00,8.00,0.00,29.65,1002.40,10.00,M,FEW,BKN,M,M,7500.00,9500.00,M,M,M,M,M,M,M,M,M,44.07,KINS 241400Z AUTO 13008KT 10SM FEW075 BKN095 09/08 A2965 RMK AO2 RAE00RAB00 SLP024 VISNO RWY08 $,M
MEV,2021-12-24 14:15,-119.7500,38.9963,1441.42,39.20,32.00,75.16,170.00,5.00,0.00,29.56,M,10.00,M,FEW,BKN,OVC,M,2800.00,3500.00,4300.00,M,M,M,M,M,M,M,M,34.95,KMEV 241415Z AUTO 17005KT 10SM FEW028 BKN035 OVC043 04/00 A2956 RMK AO2,M
BAM,2021-12-24 14:15,-116.8743,40.5990,1382.36,35.60,32.00,86.59,270.00,7.00,0.00,29.53,M,10.00,M,OVC,M,M,M,4600.00,M,M,M,M,M,M,M,M,M,M,29.17,KBAM 241415Z AUTO 27007KT 10SM OVC046 02/00 A2953 RMK AO1,M
CXP,2021-12-24 14:15,-119.7326,39.1923,1431.00,35.60,33.80,93.08,M,4.00,0.00,29.57,M,4.00,16.00,SCT,SCT,M,M,1100.00,1800.00,M,M,-RA,M,M,M,M,M,M,31.62,KCXP 241415Z AUTO VRB04G16KT 4SM -RA SCT011 SCT018 02/01 A2957 RMK AO2,M
HTH,2021-12-24 14:15,-118.6315,38.5448,1282.89,35.60,28.40,74.80,130.00,10.00,0.00,29.58,M,10.00,M,FEW,FEW,SCT,M,5500.00,6500.00,9500.00,M,M,M,M,M,M,M,M,27.48,KHTH 241415Z AUTO 13010KT 10SM FEW055 FEW065 SCT095 02/M02 A2958 RMK A01,M
05U,2021-12-24 14:15,-116.0051,39.6042,1811.23,14.00,10.40,85.28,0.00,0.00,0.00,29.59,M,7.00,M,FEW,SCT,BKN,M,4200.00,6500.00,7000.00,M,M,M,M,M,M,M,M,14.00,K05U 241415Z AUTO 00000KT 7SM FEW042 SCT065 BKN070 M10/M12 A2959 RMK A01,M
BVU,2021-12-24 14:15,-114.8611,35.9475,671.00,51.80,50.00,93.55,200.00,6.00,0.00,29.70,M,10.00,M,FEW,BKN,OVC,M,4100.00,5500.00,6500.00,M,M,M,M,M,M,M,M,51.80,KBVU 241415Z AUTO 20006KT 10SM FEW041 BKN055 OVC065 11/10 A2970 RMK AO2,M
TMT,2021-12-24 14:15,-117.1971,39.4643,1749.34,32.00,28.00,84.98,240.00,10.00,0.00,29.58,M,10.00,M,BKN,M,M,M,10000.00,M,M,M,M,M,M,M,M,M,M,22.97,KTMT 241415Z AUTO 24010KT 10SM BKN100 00/M02 A2958 RMK AO2 T00001022,M
RTS,2021-12-24 14:15,-119.8764,39.6682,1539.00,33.80,32.00,93.03,320.00,5.00,0.00,29.56,M,10.00,M,BKN,BKN,OVC,M,2400.00,4000.00,4700.00,M,-DZ,M,M,M,M,M,M,28.53,KRTS 241415Z AUTO 32005KT 10SM -DZ BKN024 BKN040 OVC047 01/M00 A2956 RMK AO2,M
EKO,2021-12-24 14:27,-115.7860,40.8242,1367.00,36.00,30.00,78.60,250.00,12.00,T,29.51,M,9.00,M,OVC,M,M,M,2600.00,M,M,M,-SN,M,M,M,M,M,M,27.09,KEKO 241427Z AUTO 25012KT 9SM -SN OVC026 02/M01 A2951 RMK AO2 SNB08 P0000 T00221011,M
INS,2021-12-24 14:30,-115.6733,36.5872,955.00,48.20,46.40,93.45,140.00,7.00,0.00,29.65,1002.40,10.00,M,SCT,M,M,M,9000.00,M,M,M,M,M,M,M,M,M,M,44.53,KINS 241430Z AUTO 14007KT 10SM SCT090 09/08 A2965 RMK AO2 RAE00RAB00E00 SLP024 VISNO RWY08 $,M
05U,2021-12-24 14:30,-116.0051,39.6042,1811.23,12.20,10.40,92.32,0.00,0.00,0.00,29.59,M,8.00,M,SCT,BKN,M,M,6000.00,7000.00,M,M,M,M,M,M,M,M,M,12.20,K05U 241430Z AUTO 00000KT 8SM SCT060 BKN070 M11/M12 A2959 RMK A01,M
RTS,2021-12-24 14:35,-119.8764,39.6682,1539.00,33.80,32.00,93.03,270.00,5.00,0.00,29.56,M,7.00,M,SCT,M,M,M,2400.00,M,M,M,-RA,M,M,M,M,M,M,28.53,KRTS 241435Z AUTO 27005KT 7SM -RA SCT024 01/00 A2956 RMK AO2,M
TMT,2021-12-24 14:35,-117.1971,39.4643,1749.34,31.30,27.90,87.06,220.00,7.00,0.00,29.58,M,10.00,M,OVC,M,M,M,10000.00,M,M,M,M,M,M,M,M,M,M,23.93,KTMT 241435Z AUTO 22007KT 10SM OVC100 00/M02 A2958 RMK AO2 T10041023,M
HTH,2021-12-24 14:35,-118.6315,38.5448,1282.89,35.60,30.20,80.51,150.00,8.00,0.00,29.59,M,10.00,M,FEW,FEW,BKN,M,5500.00,6500.00,12000.00,M,M,M,M,M,M,M,M,28.55,KHTH 241435Z AUTO 15008KT 10SM FEW055 FEW065 BKN120 02/M01 A2959 RMK A01,M
MEV,2021-12-24 14:35,-119.7500,38.9963,1441.42,39.20,33.80,80.79,230.00,4.00,0.00,29.57,M,10.00,M,FEW,FEW,OVC,M,1400.00,2400.00,3300.00,M,-RA,M,M,M,M,M,M,35.83,KMEV 241435Z AUTO 23004KT 10SM -RA FEW014 FEW024 OVC033 04/01 A2957 RMK AO2,M
BAM,2021-12-24 14:35,-116.8743,40.5990,1382.36,37.40,32.00,80.65,250.00,8.00,0.00,29.52,M,10.00,M,SCT,BKN,OVC,M,3400.00,4600.00,5000.00,M,M,M,M,M,M,M,M,30.76,KBAM 241435Z AUTO 25008KT 10SM SCT034 BKN046 OVC050 03/00 A2952 RMK AO1,M
BVU,2021-12-24 14:35,-114.8611,35.9475,671.00,51.80,48.20,87.47,190.00,7.00,0.00,29.70,M,10.00,M,FEW,SCT,BKN,M,2900.00,4700.00,5500.00,M,M,M,M,M,M,M,M,51.80,KBVU 241435Z AUTO 19007KT 10SM FEW029 SCT047 BKN055 11/09 A2970 RMK AO2,M
CXP,2021-12-24 14:35,-119.7326,39.1923,1431.00,35.60,33.80,93.08,0.00,0.00,0.00,29.58,M,6.00,M,FEW,FEW,BKN,M,1000.00,1400.00,2800.00,M,-RA,M,M,M,M,M,M,35.60,KCXP 241435Z AUTO 00000KT 6SM -RA FEW010 FEW014 BKN028 02/01 A2958 RMK AO2,M
DRA,2021-12-24 14:53,-116.0278,36.6206,1009.00,50.00,39.00,65.75,210.00,17.00,0.00,29.65,1001.80,10.00,26.00,BKN,M,M,M,10000.00,M,M,M,M,M,M,M,26.00,200.00,2021-12-24 14:47,50.00,KDRA 241453Z AUTO 21017G26KT 10SM BKN100 10/04 A2965 RMK AO2 PK WND 20026/1447 SLP018 T01000039 51005,M
VGT,2021-12-24 14:53,-115.1933,36.2111,667.00,54.00,44.00,69.09,210.00,6.00,0.00,29.68,1006.00,10.00,M,FEW,FEW,BKN,M,4100.00,7000.00,10000.00,M,M,M,M,M,M,M,M,54.00,KVGT 241453Z 21006KT 10SM FEW041 FEW070 BKN100 12/07 A2968 RMK AO2 SLP060 60000 T01220067 53010,M
LOL,2021-12-24 14:53,-118.5701,40.0684,1192.43,34.00,30.90,88.27,170.00,6.00,0.00,29.54,1000.90,10.00,M,OVC,M,M,M,6500.00,M,M,M,M,M,M,M,M,M,M,27.94,KLOL 241453Z AUTO 17006KT 10SM OVC065 01/M01 A2954 RMK AO2 SLP009 T00111006 56009 $,M
ELY,2021-12-24 14:53,-114.8453,39.2950,1909.00,28.00,27.00,95.97,M,M,0.00,29.58,1001.80,10.00,M,CLR,M,M,M,M,M,M,M,M,M,M,M,M,M,M,M,KELY 241453Z AUTO 10SM CLR M02/M03 A2958 RMK AO2 SLP018 T10221028 56004 $,M
TMT,2021-12-24 14:55,-117.1971,39.4643,1749.34,30.60,27.50,88.10,230.00,8.00,0.00,29.58,M,10.00,M,OVC,M,M,M,9000.00,M,M,M,M,M,M,M,M,M,M,22.39,KTMT 241455Z AUTO 23008KT 10SM OVC090 M01/M02 A2958 RMK AO2 T10081025,M
CXP,2021-12-24 14:55,-119.7326,39.1923,1431.00,35.60,33.80,93.08,0.00,0.00,0.00,29.59,M,6.00,M,FEW,FEW,SCT,M,1000.00,1500.00,2700.00,M,BR,M,M,M,M,M,M,35.60,KCXP 241455Z AUTO 00000KT 6SM BR FEW010 FEW015 SCT027 02/01 A2959 RMK AO2,M
HTH,2021-12-24 14:55,-118.6315,38.5448,1282.89,35.60,30.20,80.51,170.00,3.00,0.00,29.59,M,10.00,M,BKN,M,M,M,11000.00,M,M,M,M,M,M,M,M,M,M,32.80,KHTH 241455Z AUTO 17003KT 10SM BKN110 02/M01 A2959 RMK A01,M
BAM,2021-12-24 14:55,-116.8743,40.5990,1382.36,37.40,32.00,80.65,240.00,12.00,0.00,29.52,M,10.00,M,SCT,SCT,OVC,M,4300.00,4800.00,5000.00,M,M,M,M,M,M,M,M,28.87,KBAM 241455Z AUTO 24012KT 10SM SCT043 SCT048 OVC050 03/00 A2952 RMK AO1,M
05U,2021-12-24 14:55,-116.0051,39.6042,1811.23,15.80,14.00,92.44,0.00,0.00,0.00,29.59,M,3.00,M,FEW,SCT,BKN,M,4800.00,6000.00,7000.00,M,BR,M,M,M,M,M,M,15.80,K05U 241455Z AUTO 00000KT 3SM BR FEW048 SCT060 BKN070 M09/M10 A2959 RMK A01,M
MEV,2021-12-24 14:55,-119.7500,38.9963,1441.42,37.40,33.80,86.69,210.00,5.00,0.00,29.57,M,6.00,M,SCT,BKN,OVC,M,1300.00,2500.00,3400.00,M,-RA BR,M,M,M,M,M,M,32.81,KMEV 241455Z AUTO 21005KT 6SM -RA BR SCT013 BKN025 OVC034 03/01 A2957 RMK AO2,M
BVU,2021-12-24 14:55,-114.8611,35.9475,671.00,51.80,48.20,87.47,170.00,4.00,0.00,29.70,M,10.00,M,BKN,BKN,OVC,M,2900.00,4300.00,5500.00,M,M,M,M,M,M,M,M,51.80,KBVU 241455Z AUTO 17004KT 10SM BKN029 BKN043 OVC055 11/09 A2970 RMK AO2,M
RNO,2021-12-24 14:55,-119.7711,39.4839,1341.00,37.00,34.00,88.78,M,4.00,0.02,29.55,1000.00,10.00,M,BKN,OVC,M,M,3300.00,6500.00,M,M,-RA,M,M,M,M,M,M,33.26,KRNO 241455Z VRB04KT 10SM -RA BKN033 OVC065 03/01 A2955 RMK AO2 SLP000 P0002 60008 T00280011 56005,M
RTS,2021-12-24 14:55,-119.8764,39.6682,1539.00,33.80,32.00,93.03,0.00,0.00,0.00,29.55,M,7.00,M,FEW,SCT,M,M,2100.00,4200.00,M,M,-RA,M,M,M,M,M,M,33.80,KRTS 241455Z AUTO 00000KT 7SM -RA FEW021 SCT042 01/00 A2955 RMK AO2,M
WMC,2021-12-24 14:56,-117.8072,40.9019,1315.00,34.00,33.00,96.46,200.00,6.00,0.02,29.51,999.40,10.00,M,SCT,OVC,M,M,1500.00,2000.00,M,M,-RA,M,M,M,M,M,M,27.94,KWMC 241456Z AUTO 20006KT 10SM -RA SCT015 OVC020 01/01 A2951 RMK AO2 UPB09E13 SLP994 P0002 60003 T00110006 56004,M
TPH,2021-12-24 14:56,-117.0904,38.0505,1654.00,34.00,34.00,100.00,0.00,0.00,0.00,29.64,1003.50,10.00,M,BKN,BKN,OVC,M,500.00,800.00,1400.00,M,M,M,M,M,M,M,M,34.00,KTPH 241456Z AUTO 00000KT 10SM BKN005 BKN008 OVC014 01/01 A2964 RMK AO2 CIG 002V006 SLP035 T00110011 55003,M
EKO,2021-12-24 14:56,-115.7860,40.8242,1367.00,35.00,30.90,84.49,270.00,10.00,0.01,29.50,999.30,9.00,M,OVC,M,M,M,2300.00,M,M,M,M,M,M,M,M,M,M,26.86,KEKO 241456Z AUTO 27010KT 9SM OVC023 02/M01 A2950 RMK AO2 SNB08E52 SLP993 P0001 60001 T00171006 56010,M
HND,2021-12-24 14:56,-115.1344,35.9729,742.79,51.00,46.00,82.62,200.00,14.00,T,29.70,1006.70,10.00,M,FEW,OVC,M,M,4000.00,8500.00,M,M,-RA,M,M,M,M,M,M,51.10,KHND 241456Z 20014KT 10SM -RA FEW040 OVC085 11/08 A2970 RMK AO2 RAB27 SLP067 P0000 60004 T01060078 53002,M
LAS,2021-12-24 14:56,-115.1634,36.0719,663.00,53.00,45.00,73.89,220.00,7.00,T,29.67,1004.00,10.00,M,FEW,BKN,BKN,M,2500.00,5000.00,10000.00,M,M,M,M,M,M,M,M,53.10,KLAS 241456Z 22007KT 10SM FEW025 BKN050 BKN100 12/07 A2967 RMK AO2 RAB30E55 SLP040 P0000 60000 T01170072 51003,M
NFL,2021-12-24 14:56,-118.7010,39.4166,1199.00,36.00,30.90,81.53,190.00,7.00,0.00,29.57,1000.00,10.00,M,BKN,OVC,M,M,6000.00,7500.00,M,M,M,M,M,M,M,M,M,29.65,KNFL 241456Z AUTO 19007KT 10SM BKN060 OVC075 02/M01 A2957 RMK AO2 SLP000 T00221006 55000,M
LSV,2021-12-24 14:58,-115.0343,36.2362,570.00,53.80,50.50,88.55,190.00,9.00,0.00,29.67,1004.00,10.00,M,SCT,BKN,M,M,7500.00,9500.00,M,M,M,M,M,M,M,M,M,53.80,KLSV 241458Z AUTO 19009KT 10SM SCT075 BKN095 12/10 A2967 RMK AO2 SLP040 T01210103 52014 $,M
INS,2021-12-24 14:58,-115.6733,36.5872,955.00,47.00,46.80,99.62,90.00,10.00,T,29.66,1002.80,10.00,M,FEW,FEW,M,M,8500.00,10000.00,M,M,M,M,M,M,M,M,M,41.65,KINS 241458Z AUTO 09010KT 10SM FEW085 FEW100 08/08 A2966 RMK AO2 RAE00RAB00E00 SLP028 P0000 60000 T00830082 52008 VISNO RWY08 $,M
TPH,2021-12-24 15:04,-117.0904,38.0505,1654.00,34.00,34.00,100.00,0.00,0.00,0.00,29.64,M,10.00,M,BKN,OVC,M,M,300.00,800.00,M,M,M,M,M,M,M,M,M,34.00,KTPH 241504Z AUTO 00000KT 10SM BKN003 OVC008 01/01 A2964 RMK AO2 T00110011,M
CXP,2021-12-24 15:15,-119.7326,39.1923,1431.00,35.60,33.80,93.08,140.00,4.00,0.00,29.58,M,4.00,M,SCT,SCT,M,M,1100.00,2600.00,M,M,-RA,M,M,M,M,M,M,31.62,KCXP 241515Z AUTO 14004KT 4SM -RA SCT011 SCT026 02/01 A2958 RMK AO2,M
BAM,2021-12-24 15:15,-116.8743,40.5990,1382.36,37.40,32.00,80.65,230.00,15.00,0.00,29.52,M,10.00,18.00,BKN,OVC,M,M,4600.00,6000.00,M,M,M,M,M,M,M,M,M,27.78,KBAM 241515Z AUTO 23015G18KT 10SM BKN046 OVC060 03/00 A2952 RMK AO1,M
RTS,2021-12-24 15:15,-119.8764,39.6682,1539.00,33.80,32.00,93.03,0.00,0.00,0.00,29.56,M,9.00,M,FEW,SCT,BKN,M,1900.00,2800.00,3700.00,M,M,M,M,M,M,M,M,33.80,KRTS 241515Z AUTO 00000KT 9SM FEW019 SCT028 BKN037 01/00 A2956 RMK AO2,M
05U,2021-12-24 15:15,-116.0051,39.6042,1811.23,17.60,15.80,92.50,0.00,0.00,0.00,29.59,M,6.00,M,CLR,M,M,M,M,M,M,M,BR,M,M,M,M,M,M,17.60,K05U 241515Z AUTO 00000KT 6SM BR CLR M08/M09 A2959 RMK A01,M
HTH,2021-12-24 15:15,-118.6315,38.5448,1282.89,35.60,30.20,80.51,0.00,0.00,0.00,29.58,M,10.00,M,BKN,M,M,M,11000.00,M,M,M,M,M,M,M,M,M,M,35.60,KHTH 241515Z AUTO 00000KT 10SM BKN110 02/M01 A2958 RMK A01,M
MEV,2021-12-24 15:15,-119.7500,38.9963,1441.42,37.40,33.80,86.69,20.00,3.00,0.00,29.57,M,3.00,M,FEW,BKN,OVC,M,300.00,1100.00,2500.00,M,-RA BR,M,M,M,M,M,M,34.86,KMEV 241515Z AUTO 02003KT 3SM -RA BR FEW003 BKN011 OVC025 03/01 A2957 RMK AO2,M
BVU,2021-12-24 15:15,-114.8611,35.9475,671.00,53.60,48.20,81.87,M,3.00,0.00,29.72,M,10.00,M,FEW,BKN,OVC,M,1200.00,2600.00,5500.00,M,M,M,M,M,M,M,M,53.60,KBVU 241515Z AUTO VRB03KT 10SM FEW012 BKN026 OVC055 12/09 A2972 RMK AO2,M
TMT,2021-12-24 15:15,-117.1971,39.4643,1749.34,30.90,27.50,87.04,230.00,10.00,0.00,29.58,M,10.00,M,BKN,OVC,M,M,7000.00,9000.00,M,M,M,M,M,M,M,M,M,21.59,KTMT 241515Z AUTO 23010KT 10SM BKN070 OVC090 M01/M02 A2958 RMK AO2 T10061025,M
INS,2021-12-24 15:18,-115.6733,36.5872,955.00,50.00,42.80,76.18,30.00,7.00,0.00,29.66,1002.50,10.00,M,BKN,M,M,M,9500.00,M,M,M,M,M,M,M,M,M,M,50.00,KINS 241518Z AUTO 03007KT 10SM BKN095 10/06 A2966 RMK AO2 SLP025 VISNO RWY08 $,M
TPH,2021-12-24 15:21,-117.0904,38.0505,1654.00,34.00,34.00,100.00,0.00,0.00,0.00,29.63,M,6.00,M,SCT,OVC,M,M,300.00,1000.00,M,M,BR,M,M,M,M,M,M,34.00,KTPH 241521Z AUTO 00000KT 6SM BR SCT003 OVC010 01/01 A2963 RMK AO2 CIG 007V012 T00110011,M
INS,2021-12-24 15:23,-115.6733,36.5872,955.00,48.20,44.60,87.28,60.00,7.00,0.00,29.66,1002.80,10.00,M,SCT,M,M,M,9500.00,M,M,M,M,M,M,M,M,M,M,44.53,KINS 241523Z AUTO 06007KT 10SM SCT095 09/07 A2966 RMK AO2 SLP028 VISNO RWY08 $,M
05U,2021-12-24 15:30,-116.0051,39.6042,1811.23,21.20,19.40,92.63,0.00,0.00,0.00,29.58,M,10.00,M,FEW,M,M,M,11000.00,M,M,M,M,M,M,M,M,M,M,21.20,K05U 241530Z AUTO 00000KT 10SM FEW110 M06/M07 A2958 RMK A01,M
MEV,2021-12-24 15:35,-119.7500,38.9963,1441.42,37.40,33.80,86.69,110.00,5.00,0.00,29.57,M,2.50,M,FEW,SCT,OVC,M,300.00,1200.00,2600.00,M,UP BR,M,M,M,M,M,M,32.81,KMEV 241535Z AUTO 11005KT 2 1/2SM UP BR FEW003 SCT012 OVC026 03/01 A2957 RMK AO2 VIS 2V3,M
HTH,2021-12-24 15:35,-118.6315,38.5448,1282.89,37.40,30.20,74.98,170.00,10.00,0.00,29.59,M,10.00,M,BKN,M,M,M,11000.00,M,M,M,M,M,M,M,M,M,M,29.74,KHTH 241535Z AUTO 17010KT 10SM BKN110 03/M01 A2959 RMK A01,M
BAM,2021-12-24 15:35,-116.8743,40.5990,1382.36,37.40,32.00,80.65,220.00,16.00,0.00,29.52,M,10.00,23.00,SCT,BKN,OVC,M,2900.00,3800.00,4400.00,M,M,M,M,M,M,M,M,27.46,KBAM 241535Z AUTO 22016G23KT 10SM SCT029 BKN038 OVC044 03/00 A2952 RMK AO1,M
BVU,2021-12-24 15:35,-114.8611,35.9475,671.00,51.80,50.00,93.55,180.00,8.00,0.00,29.72,M,10.00,M,FEW,SCT,BKN,M,1200.00,2500.00,3400.00,M,M,M,M,M,M,M,M,51.80,KBVU 241535Z AUTO 18008KT 10SM FEW012 SCT025 BKN034 11/10 A2972 RMK AO2,M
CXP,2021-12-24 15:35,-119.7326,39.1923,1431.00,35.60,33.80,93.08,190.00,3.00,0.00,29.58,M,3.00,M,SCT,SCT,M,M,1200.00,1700.00,M,M,-RA,M,M,M,M,M,M,32.80,KCXP 241535Z AUTO 19003KT 3SM -RA SCT012 SCT017 02/01 A2958 RMK AO2,M
RTS,2021-12-24 15:35,-119.8764,39.6682,1539.00,33.80,32.00,93.03,120.00,3.00,0.00,29.56,M,9.00,M,SCT,BKN,BKN,M,2400.00,2900.00,3500.00,M,-DZ,M,M,M,M,M,M,30.75,KRTS 241535Z AUTO 12003KT 9SM -DZ SCT024 BKN029 BKN035 01/00 A2956 RMK AO2,M
TPH,2021-12-24 15:35,-117.0904,38.0505,1654.00,34.00,34.00,100.00,0.00,0.00,0.00,29.63,M,10.00,M,SCT,OVC,M,M,200.00,800.00,M,M,M,M,M,M,M,M,M,34.00,KTPH 241535Z AUTO 00000KT 10SM SCT002 OVC008 01/01 A2963 RMK AO2 CIG 006V012 T00110011,M
TMT,2021-12-24 15:35,-117.1971,39.4643,1749.34,32.00,27.70,83.94,220.00,11.00,0.00,29.58,M,10.00,M,SCT,BKN,OVC,M,4900.00,7000.00,7500.00,M,M,M,M,M,M,M,M,22.47,KTMT 241535Z AUTO 22011KT 10SM SCT049 BKN070 OVC075 00/M02 A2958 RMK AO2 T00001024,M
EKO,2021-12-24 15:42,-115.7860,40.8242,1367.00,35.00,30.90,84.49,230.00,5.00,0.00,29.50,M,10.00,M,OVC,M,M,M,3000.00,M,M,M,M,M,M,M,M,M,M,30.08,KEKO 241542Z AUTO 23005KT 10SM OVC030 02/M01 A2950 RMK AO2 T00171006,M
TPH,2021-12-24 15:44,-117.0904,38.0505,1654.00,35.00,34.00,95.71,100.00,4.00,0.00,29.63,M,9.00,M,BKN,OVC,M,M,500.00,800.00,M,M,M,M,M,M,M,M,M,31.04,KTPH 241544Z AUTO 10004KT 9SM BKN005 OVC008 02/01 A2963 RMK AO2 CIG 003V007 T00170011,M
WMC,2021-12-24 15:51,-117.8072,40.9019,1315.00,33.80,32.00,93.03,230.00,5.00,0.03,29.51,M,2.00,M,SCT,OVC,M,M,500.00,1400.00,M,M,-SN BR,M,M,M,M,M,M,28.53,KWMC 241551Z AUTO 23005KT 2SM -SN BR SCT005 OVC014 01/00 A2951 RMK AO2 RAE34SNB34 P0003,M
ELY,2021-12-24 15:53,-114.8453,39.2950,1909.00,26.10,25.00,95.53,M,M,0.00,29.59,1002.20,10.00,M,FEW,M,M,M,2400.00,M,M,M,M,M,M,M,M,M,M,M,KELY 241553Z AUTO 10SM FEW024 M03/M04 A2959 RMK AO2 SLP022 T10331039 $,M
LOL,2021-12-24 15:53,-118.5701,40.0684,1192.43,36.00,32.00,85.23,220.00,5.00,0.00,29.55,1001.10,10.00,M,OVC,M,M,M,6000.00,M,M,M,M,M,M,M,M,M,M,31.15,KLOL 241553Z AUTO 22005KT 10SM OVC060 02/00 A2955 RMK AO2 SLP011 T00220000 $,M
VGT,2021-12-24 15:53,-115.1933,36.2111,667.00,54.00,45.00,71.50,190.00,6.00,T,29.68,1006.20,10.00,M,FEW,FEW,SCT,M,5500.00,7000.00,11000.00,M,M,M,M,M,M,M,M,54.00,KVGT 241553Z 19006KT 10SM FEW055 FEW070 SCT110 12/07 A2968 RMK AO2 RAB03E12 SLP062 P0000 T01220072,M
DRA,2021-12-24 15:53,-116.0278,36.6206,1009.00,51.00,39.00,63.12,210.00,16.00,0.00,29.66,1002.20,10.00,28.00,FEW,SCT,OVC,M,3200.00,8500.00,10000.00,M,M,M,M,M,28.00,190.00,2021-12-24 15:48,51.10,KDRA 241553Z AUTO 21016G28KT 10SM FEW032 SCT085 OVC100 11/04 A2966 RMK AO2 PK WND 19028/1548 SLP022 T01060039,M
TPH,2021-12-24 15:54,-117.0904,38.0505,1654.00,35.60,35.60,100.00,0.00,0.00,0.00,29.63,M,10.00,M,OVC,M,M,M,400.00,M,M,M,M,M,M,M,M,M,M,35.60,KTPH 241554Z AUTO 00000KT 10SM OVC004 02/02 A2963 RMK AO2,M
RTS,2021-12-24 15:55,-119.8764,39.6682,1539.00,33.80,32.00,93.03,0.00,0.00,0.00,29.56,M,10.00,M,SCT,SCT,SCT,M,2400.00,3000.00,3800.00,M,M,M,M,M,M,M,M,33.80,KRTS 241555Z AUTO 00000KT 10SM SCT024 SCT030 SCT038 01/00 A2956 RMK AO2,M
BAM,2021-12-24 15:55,-116.8743,40.5990,1382.36,37.40,33.80,86.69,230.00,16.00,0.00,29.52,M,10.00,21.00,SCT,OVC,M,M,2900.00,3900.00,M,M,M,M,M,M,M,M,M,27.46,KBAM 241555Z AUTO 23016G21KT 10SM SCT029 OVC039 03/01 A2952 RMK AO1,M
BVU,2021-12-24 15:55,-114.8611,35.9475,671.00,53.60,50.00,87.56,150.00,5.00,0.00,29.71,M,10.00,11.00,FEW,BKN,OVC,M,2000.00,3300.00,4100.00,M,M,M,M,M,M,M,M,53.60,KBVU 241555Z AUTO 15005G11KT 10SM FEW020 BKN033 OVC041 12/10 A2971 RMK AO2,M
CXP,2021-12-24 15:55,-119.7326,39.1923,1431.00,35.60,33.80,93.08,0.00,0.00,0.00,29.59,M,4.00,M,FEW,FEW,M,M,900.00,1400.00,M,M,-RA,M,M,M,M,M,M,35.60,KCXP 241555Z AUTO 00000KT 4SM -RA FEW009 FEW014 02/01 A2959 RMK AO2,M
TMT,2021-12-24 15:55,-117.1971,39.4643,1749.34,32.20,28.20,84.99,230.00,10.00,0.00,29.58,M,10.00,M,SCT,BKN,OVC,M,4300.00,4800.00,6500.00,M,M,M,M,M,M,M,M,23.22,KTMT 241555Z AUTO 23010KT 10SM SCT043 BKN048 OVC065 00/M02 A2958 RMK AO2 T00011021,M
MEV,2021-12-24 15:55,-119.7500,38.9963,1441.42,37.40,33.80,86.69,150.00,8.00,0.01,29.58,M,4.00,M,SCT,OVC,M,M,1300.00,2600.00,M,M,-RA BR,M,M,M,M,M,M,30.76,KMEV 241555Z AUTO 15008KT 4SM -RA BR SCT013 OVC026 03/01 A2958 RMK AO2 P0001,M
05U,2021-12-24 15:55,-116.0051,39.6042,1811.23,23.00,21.20,92.69,0.00,0.00,0.00,29.58,M,10.00,M,SCT,M,M,M,10000.00,M,M,M,M,M,M,M,M,M,M,23.00,K05U 241555Z AUTO 00000KT 10SM SCT100 M05/M06 A2958 RMK A01,M
HTH,2021-12-24 15:55,-118.6315,38.5448,1282.89,39.20,28.40,64.93,150.00,8.00,0.00,29.59,M,10.00,M,SCT,M,M,M,12000.00,M,M,M,M,M,M,M,M,M,M,32.98,KHTH 241555Z AUTO 15008KT 10SM SCT120 04/M02 A2959 RMK A01,M
RNO,2021-12-24 15:55,-119.7711,39.4839,1341.00,36.00,35.00,96.49,130.00,4.00,0.01,29.56,1000.40,6.00,M,SCT,OVC,M,M,2100.00,3500.00,M,M,-RA BR,M,M,M,M,M,M,32.09,KRNO 241555Z 13004KT 6SM -RA BR SCT021 OVC035 02/02 A2956 RMK AO2 SLP004 P0001 T00220017,M
TPH,2021-12-24 15:56,-117.0904,38.0505,1654.00,35.00,35.00,100.00,140.00,3.00,0.00,29.63,1003.40,10.00,M,OVC,M,M,M,400.00,M,M,M,M,M,M,M,M,M,M,32.23,KTPH 241556Z AUTO 14003KT 10SM OVC004 02/02 A2963 RMK AO2 SLP034 T00170017,M
HND,2021-12-24 15:56,-115.1344,35.9729,742.79,51.00,47.00,85.48,200.00,16.00,0.04,29.72,1007.40,6.00,M,FEW,OVC,M,M,3100.00,5500.00,M,M,RA BR,M,M,M,M,M,M,51.10,KHND 241556Z 20016KT 6SM RA BR FEW031 OVC055 11/08 A2972 RMK AO2 SLP074 P0004 T01060083,M
WMC,2021-12-24 15:56,-117.8072,40.9019,1315.00,34.00,32.00,92.29,240.00,7.00,0.04,29.51,999.60,1.50,M,BKN,OVC,M,M,500.00,1400.00,M,M,-SN BR,M,M,M,M,M,M,27.22,KWMC 241556Z AUTO 24007KT 1 1/2SM -SN BR BKN005 OVC014 01/00 A2951 RMK AO2 RAE34SNB34 SLP996 P0004 T00110000,M
NFL,2021-12-24 15:56,-118.7010,39.4166,1199.00,37.00,30.90,78.37,180.00,8.00,0.00,29.57,999.90,10.00,M,OVC,M,M,M,5000.00,M,M,M,M,M,M,M,M,M,M,30.27,KNFL 241556Z AUTO 18008KT 10SM OVC050 03/M01 A2957 RMK AO2 SLP999 T00281006,M
LAS,2021-12-24 15:56,-115.1634,36.0719,663.00,53.00,46.00,76.75,190.00,8.00,0.03,29.69,1004.60,10.00,M,FEW,BKN,OVC,M,2500.00,4700.00,9500.00,M,-RA,M,M,M,M,M,M,53.10,KLAS 241556Z 19008KT 10SM -RA FEW025 BKN047 OVC095 12/08 A2969 RMK AO2 RAB14 SLP046 P0003 T01170078,M
EKO,2021-12-24 15:56,-115.7860,40.8242,1367.00,35.00,30.90,84.49,230.00,5.00,0.00,29.50,999.00,10.00,M,OVC,M,M,M,3400.00,M,M,M,M,M,M,M,M,M,M,30.08,KEKO 241556Z AUTO 23005KT 10SM OVC034 02/M01 A2950 RMK AO2 SLP990 T00171006,M
LSV,2021-12-24 15:58,-115.0343,36.2362,570.00,55.00,50.00,83.20,190.00,16.00,0.00,29.68,1004.30,10.00,M,SCT,BKN,M,M,7000.00,9500.00,M,M,M,M,M,M,M,M,M,55.00,KLSV 241558Z AUTO 19016KT 10SM SCT070 BKN095 13/10 A2968 RMK AO2 SLP043 T01280100 $,M
INS,2021-12-24 15:58,-115.6733,36.5872,955.00,47.50,44.40,88.92,290.00,6.00,0.00,29.68,1003.40,10.00,M,SCT,M,M,M,9500.00,M,M,M,M,M,M,M,M,M,M,44.20,KINS 241558Z AUTO 29006KT 10SM SCT095 09/07 A2968 RMK AO2 SLP034 T00860069 VISNO RWY08 $,M
WMC,2021-12-24 16:04,-117.8072,40.9019,1315.00,33.00,32.00,95.67,260.00,5.00,0.01,29.52,M,1.25,M,BKN,OVC,M,M,500.00,1200.00,M,M,-SN BR,M,M,M,M,M,M,27.70,KWMC 241604Z AUTO 26005KT 1 1/4SM -SN BR BKN005 OVC012 01/00 A2952 RMK AO2 P0001 T00060000,M
LSV,2021-12-24 16:12,-115.0343,36.2362,570.00,55.40,50.00,81.99,180.00,13.00,0.00,29.69,1004.70,10.00,M,FEW,SCT,M,M,6500.00,9000.00,M,M,-RA,M,M,M,M,M,M,55.40,KLSV 241612Z AUTO 18013KT 10SM -RA FEW065 SCT090 13/10 A2969 RMK AO2 RAB12 SLP047 $,M
RTS,2021-12-24 16:15,-119.8764,39.6682,1539.00,33.80,32.00,93.03,60.00,4.00,0.00,29.57,M,10.00,M,FEW,BKN,BKN,M,2400.00,3100.00,4200.00,M,M,M,M,M,M,M,M,29.52,KRTS 241615Z AUTO 06004KT 10SM FEW024 BKN031 BKN042 01/00 A2957 RMK AO2,M
05U,2021-12-24 16:15,-116.0051,39.6042,1811.23,23.00,21.20,92.69,0.00,0.00,0.00,29.59,M,10.00,M,FEW,M,M,M,10000.00,M,M,M,M,M,M,M,M,M,M,23.00,K05U 241615Z AUTO 00000KT 10SM FEW100 M05/M06 A2959 RMK A01,M
MEV,2021-12-24 16:15,-119.7500,38.9963,1441.42,37.40,33.80,86.69,140.00,10.00,0.00,29.58,M,4.00,M,SCT,SCT,BKN,M,1000.00,1400.00,2000.00,M,-RA BR,M,M,M,M,M,M,29.74,KMEV 241615Z AUTO 14010KT 4SM -RA BR SCT010 SCT014 BKN020 03/01 A2958 RMK AO2,M
BAM,2021-12-24 16:15,-116.8743,40.5990,1382.36,37.40,33.80,86.69,230.00,16.00,0.00,29.51,M,10.00,M,SCT,BKN,BKN,M,2500.00,3400.00,4100.00,M,M,M,M,M,M,M,M,27.46,KBAM 241615Z AUTO 23016KT 10SM SCT025 BKN034 BKN041 03/01 A2951 RMK AO1,M
HTH,2021-12-24 16:15,-118.6315,38.5448,1282.89,37.40,30.20,74.98,210.00,9.00,0.00,29.60,M,10.00,22.00,CLR,M,M,M,M,M,M,M,M,M,M,M,M,M,M,30.23,KHTH 241615Z AUTO 21009G22KT 10SM CLR 03/M01 A2960 RMK A01,M
TMT,2021-12-24 16:15,-117.1971,39.4643,1749.34,32.20,29.10,88.18,240.00,9.00,0.00,29.59,M,10.00,M,BKN,OVC,M,M,4100.00,4900.00,M,M,M,M,M,M,M,M,M,23.76,KTMT 241615Z AUTO 24009KT 10SM BKN041 OVC049 00/M02 A2959 RMK AO2 T00011016,M
TPH,2021-12-24 16:15,-117.0904,38.0505,1654.00,35.00,35.00,100.00,0.00,0.00,0.00,29.64,M,1.50,M,OVC,M,M,M,400.00,M,M,M,BR,M,M,M,M,M,M,35.10,KTPH 241615Z AUTO 00000KT 1 1/2SM BR OVC004 02/02 A2964 RMK AO2 T00170017,M
BVU,2021-12-24 16:15,-114.8611,35.9475,671.00,55.40,50.00,81.99,0.00,0.00,0.00,29.72,M,10.00,M,FEW,SCT,BKN,M,3300.00,4300.00,5500.00,M,M,M,M,M,M,M,M,55.40,KBVU 241615Z AUTO 00000KT 10SM FEW033 SCT043 BKN055 13/10 A2972 RMK AO2,M
CXP,2021-12-24 16:15,-119.7326,39.1923,1431.00,35.60,33.80,93.08,0.00,0.00,0.00,29.60,M,2.50,M,FEW,M,M,M,1100.00,M,M,M,-RA,M,M,M,M,M,M,35.60,KCXP 241615Z AUTO 00000KT 2 1/2SM -RA FEW011 02/01 A2960 RMK AO2,M
WMC,2021-12-24 16:15,-117.8072,40.9019,1315.00,34.00,32.00,92.29,180.00,5.00,0.03,29.51,M,0.75,M,SCT,OVC,M,M,500.00,1200.00,M,M,-SN BR,M,M,M,M,M,M,28.77,KWMC 241615Z AUTO 18005KT 3/4SM -SN BR SCT005 OVC012 01/00 A2951 RMK AO2 P0003 T00110000,M
LSV,2021-12-24 16:21,-115.0343,36.2362,570.00,55.40,51.80,87.65,180.00,12.00,0.00,29.69,1004.60,10.00,M,FEW,FEW,SCT,M,6000.00,8000.00,10000.00,M,M,M,M,M,M,M,M,55.40,KLSV 241621Z AUTO 18012KT 10SM FEW060 FEW080 SCT100 13/11 A2969 RMK AO2 RAB12E21 SLP046 $,M
WMC,2021-12-24 16:23,-117.8072,40.9019,1315.00,34.00,32.00,92.29,290.00,9.00,0.04,29.53,M,1.25,M,SCT,OVC,M,M,500.00,1200.00,M,M,-SN BR,M,M,M,M,M,M,26.00,KWMC 241623Z AUTO 29009KT 1 1/4SM -SN BR SCT005 OVC012 01/00 A2953 RMK AO2 P0004 T00110000,M
TPH,2021-12-24 16:25,-117.0904,38.0505,1654.00,35.00,35.00,100.00,0.00,0.00,0.00,29.65,M,0.50,M,BKN,BKN,OVC,M,400.00,1700.00,2600.00,M,FG,M,M,M,M,M,M,35.10,KTPH 241625Z AUTO 00000KT 1/2SM FG BKN004 BKN017 OVC026 02/02 A2965 RMK AO2 T00170017,M
LSV,2021-12-24 16:30,-115.0343,36.2362,570.00,55.40,51.80,87.65,180.00,13.00,0.00,29.70,1004.90,10.00,M,SCT,SCT,M,M,6500.00,8000.00,M,M,-RA,M,M,M,M,M,M,55.40,KLSV 241630Z AUTO 18013KT 10SM -RA SCT065 SCT080 13/11 A2970 RMK AO2 RAB12E21RAB30 SLP049 $,M
EKO,2021-12-24 16:31,-115.7860,40.8242,1367.00,36.00,30.00,78.60,230.00,10.00,T,29.50,M,9.00,M,OVC,M,M,M,2500.00,M,M,M,-SN,M,M,M,M,M,M,27.98,KEKO 241631Z AUTO 23010KT 9SM -SN OVC025 02/M01 A2950 RMK AO2 SNB27 P0000 T00221011,M
BAM,2021-12-24 16:35,-116.8743,40.5990,1382.36,37.40,33.80,86.69,230.00,18.00,0.00,29.51,M,10.00,23.00,SCT,SCT,BKN,M,2200.00,3600.00,4200.00,M,M,M,M,M,M,M,M,26.86,KBAM 241635Z AUTO 23018G23KT 10SM SCT022 SCT036 BKN042 03/01 A2951 RMK AO1,M
MEV,2021-12-24 16:35,-119.7500,38.9963,1441.42,35.60,33.80,93.08,160.00,8.00,0.00,29.60,M,2.50,14.00,FEW,FEW,M,M,1900.00,2700.00,M,M,-RA BR,M,M,M,M,M,M,28.55,KMEV 241635Z AUTO 16008G14KT 2 1/2SM -RA BR FEW019 FEW027 02/01 A2960 RMK AO2 VIS 1 3/4V4,M
BVU,2021-12-24 16:35,-114.8611,35.9475,671.00,53.60,50.00,87.56,280.00,6.00,0.00,29.75,M,3.00,M,BKN,BKN,OVC,M,3600.00,4400.00,7000.00,M,-RA,M,M,M,M,M,M,53.60,KBVU 241635Z AUTO 28006KT 3SM -RA BKN036 BKN044 OVC070 12/10 A2975 RMK AO2,M
TPH,2021-12-24 16:35,-117.0904,38.0505,1654.00,35.00,35.00,100.00,0.00,0.00,0.00,29.65,M,0.50,M,FEW,BKN,OVC,M,400.00,800.00,2700.00,M,FG,M,M,M,M,M,M,35.10,KTPH 241635Z AUTO 00000KT 1/2SM FG FEW004 BKN008 OVC027 02/02 A2965 RMK AO2 T00170017,M
HTH,2021-12-24 16:35,-118.6315,38.5448,1282.89,41.00,28.40,60.54,160.00,13.00,0.00,29.60,M,10.00,M,CLR,M,M,M,M,M,M,M,M,M,M,M,M,M,M,33.10,KHTH 241635Z AUTO 16013KT 10SM CLR 05/M02 A2960 RMK A01,M
05U,2021-12-24 16:35,-116.0051,39.6042,1811.23,24.80,24.80,100.00,0.00,0.00,0.00,29.59,M,10.00,M,CLR,M,M,M,M,M,M,M,M,M,M,M,M,M,M,24.80,K05U 241635Z AUTO 00000KT 10SM CLR M04/M04 A2959 RMK A01,M
CXP,2021-12-24 16:35,-119.7326,39.1923,1431.00,35.60,33.80,93.08,0.00,0.00,0.00,29.60,M,4.00,M,FEW,FEW,M,M,900.00,1400.00,M,M,-RA,M,M,M,M,M,M,35.60,KCXP 241635Z AUTO 00000KT 4SM -RA FEW009 FEW014 02/01 A2960 RMK AO2,M
TMT,2021-12-24 16:35,-117.1971,39.4643,1749.34,33.00,29.80,88.22,240.00,10.00,0.00,29.59,M,10.00,M,SCT,BKN,OVC,M,3700.00,4900.00,6500.00,M,M,M,M,M,M,M,M,24.10,KTMT 241635Z AUTO 24010KT 10SM SCT037 BKN049 OVC065 01/M01 A2959 RMK AO2 T00051012,M
RTS,2021-12-24 16:35,-119.8764,39.6682,1539.00,33.80,33.80,100.00,50.00,3.00,0.00,29.57,M,10.00,M,SCT,BKN,OVC,M,2600.00,3200.00,7000.00,M,M,M,M,M,M,M,M,30.75,KRTS 241635Z AUTO 05003KT 10SM SCT026 BKN032 OVC070 01/01 A2957 RMK AO2,M
TPH,2021-12-24 16:38,-117.0904,38.0505,1654.00,35.00,35.00,100.00,130.00,3.00,0.00,29.65,M,0.50,M,SCT,BKN,OVC,M,400.00,1700.00,2700.00,M,FG,M,M,M,M,M,M,32.23,KTPH 241638Z AUTO 13003KT 1/2SM FG SCT004 BKN017 OVC027 02/02 A2965 RMK AO2 T00170017,M
ELY,2021-12-24 16:39,-114.8453,39.2950,1909.00,30.90,28.90,92.18,M,M,0.00,29.60,M,10.00,M,BKN,M,M,M,2300.00,M,M,M,M,0.01,M,M,M,M,M,M,KELY 241639Z AUTO 10SM BKN023 M01/M02 A2960 RMK AO2 I1001 T10061017 $,M
TPH,2021-12-24 16:45,-117.0904,38.0505,1654.00,35.00,35.00,100.00,180.00,4.00,0.00,29.65,M,0.75,M,FEW,BKN,OVC,M,100.00,1000.00,2700.00,M,BR,M,M,M,M,M,M,31.04,KTPH 241645Z AUTO 18004KT 3/4SM BR FEW001 BKN010 OVC027 02/02 A2965 RMK AO2 T00170017,M
WMC,2021-12-24 16:46,-117.8072,40.9019,1315.00,33.00,32.00,95.67,200.00,4.00,0.08,29.52,M,2.00,M,SCT,BKN,OVC,M,700.00,1200.00,1900.00,M,-SN BR,M,M,M,M,M,M,28.70,KWMC 241646Z AUTO 20004KT 2SM -SN BR SCT007 BKN012 OVC019 01/00 A2952 RMK AO2 P0008 T00060000,M
TPH,2021-12-24 16:49,-117.0904,38.0505,1654.00,35.00,35.00,100.00,160.00,3.00,0.00,29.65,M,2.50,M,SCT,BKN,OVC,M,100.00,700.00,2700.00,M,BR,M,M,M,M,M,M,32.23,KTPH 241649Z AUTO 16003KT 2 1/2SM BR SCT001 BKN007 OVC027 02/02 A2965 RMK AO2 T00170017,M
ELY,2021-12-24 16:49,-114.8453,39.2950,1909.00,32.00,28.40,86.39,M,M,0.00,29.60,M,10.00,M,SCT,M,M,M,2200.00,M,M,M,M,0.01,M,M,M,M,M,M,KELY 241649Z AUTO 10SM SCT022 00/M02 A2960 RMK AO2 I1001 $,M
05U,2021-12-24 16:50,-116.0051,39.6042,1811.23,28.40,26.60,92.86,0.00,0.00,0.00,29.60,M,10.00,M,CLR,M,M,M,M,M,M,M,M,M,M,M,M,M,M,28.40,K05U 241650Z AUTO 00000KT 10SM CLR M02/M03 A2960 RMK A01,M
LSV,2021-12-24 16:50,-115.0343,36.2362,570.00,55.40,53.60,93.65,190.00,13.00,0.00,29.70,1004.90,10.00,M,FEW,M,M,M,6000.00,M,M,M,M,M,M,M,M,M,M,55.40,KLSV 241650Z AUTO 19013KT 10SM FEW060 13/12 A2970 RMK AO2 RAB12E21RAB30E50 SLP049 $,M
VGT,2021-12-24 16:53,-115.1933,36.2111,667.00,56.00,46.00,69.30,150.00,3.00,0.01,29.71,1007.30,10.00,M,FEW,BKN,BKN,M,3900.00,5000.00,7000.00,M,M,M,M,M,M,M,M,55.90,KVGT 241653Z 15003KT 10SM FEW039 BKN050 BKN070 13/08 A2971 RMK AO2 RAB06E38 SLP073 P0001 T01330078,M
DRA,2021-12-24 16:53,-116.0278,36.6206,1009.00,53.00,37.00,54.21,220.00,18.00,0.00,29.66,1002.20,10.00,24.00,FEW,M,M,M,11000.00,M,M,M,M,M,M,M,31.00,190.00,2021-12-24 16:22,53.10,KDRA 241653Z AUTO 22018G24KT 10SM FEW110 12/03 A2966 RMK AO2 PK WND 19031/1622 SLP022 T01170028,M
LOL,2021-12-24 16:53,-118.5701,40.0684,1192.43,36.00,32.00,85.23,240.00,5.00,0.00,29.56,1002.10,10.00,M,BKN,OVC,M,M,5000.00,5500.00,M,M,M,M,M,M,M,M,M,31.15,KLOL 241653Z AUTO 24005KT 10SM BKN050 OVC055 02/00 A2956 RMK AO2 SLP021 T00220000 $,M
ELY,2021-12-24 16:53,-114.8453,39.2950,1909.00,33.00,28.90,84.36,M,M,0.00,29.60,1001.30,10.00,M,SCT,M,M,M,2200.00,M,M,M,M,0.01,M,M,M,M,M,M,KELY 241653Z AUTO 10SM SCT022 01/M02 A2960 RMK AO2 SLP013 I1001 T00061017 $,M
WMC,2021-12-24 16:54,-117.8072,40.9019,1315.00,33.80,32.00,93.03,230.00,4.00,0.08,29.53,M,8.00,M,SCT,OVC,M,M,700.00,1200.00,M,M,-SN,M,M,M,M,M,M,29.52,KWMC 241654Z AUTO 23004KT 8SM -SN SCT007 OVC012 01/00 A2953 RMK AO2 P0008,M
RNO,2021-12-24 16:55,-119.7711,39.4839,1341.00,37.00,35.00,92.76,180.00,4.00,0.02,29.58,1001.20,10.00,M,FEW,BKN,OVC,M,1200.00,3700.00,7000.00,M,M,M,M,M,M,M,M,33.26,KRNO 241655Z 18004KT 10SM FEW012 BKN037 OVC070 03/02 A2958 RMK AO2 RAE46 SLP012 P0002 T00280017,M
HTH,2021-12-24 16:55,-118.6315,38.5448,1282.89,41.00,28.40,60.54,M,4.00,0.00,29.61,M,10.00,12.00,CLR,M,M,M,M,M,M,M,M,M,M,M,M,M,M,37.93,KHTH 241655Z AUTO VRB04G12KT 10SM CLR 05/M02 A2961 RMK A01,M
TMT,2021-12-24 16:55,-117.1971,39.4643,1749.34,33.00,29.30,85.75,220.00,11.00,0.00,29.59,M,10.00,M,SCT,BKN,OVC,M,3800.00,5000.00,6500.00,M,M,M,M,M,M,M,M,23.86,KTMT 241655Z AUTO 22011KT 10SM SCT038 BKN050 OVC065 01/M01 A2959 RMK AO2 T00061015,M
MEV,2021-12-24 16:55,-119.7500,38.9963,1441.42,37.40,33.80,86.69,140.00,10.00,0.01,29.59,M,8.00,M,BKN,BKN,BKN,M,1800.00,2300.00,2700.00,M,UP,M,M,M,M,M,M,29.74,KMEV 241655Z AUTO 14010KT 8SM UP BKN018 BKN023 BKN027 03/01 A2959 RMK AO2 P0001,M
CXP,2021-12-24 16:55,-119.7326,39.1923,1431.00,35.60,33.80,93.08,30.00,6.00,0.00,29.60,M,5.00,M,SCT,SCT,BKN,M,800.00,1200.00,2100.00,M,BR,M,M,M,M,M,M,29.87,KCXP 241655Z AUTO 03006KT 5SM BR SCT008 SCT012 BKN021 02/01 A2960 RMK AO2,M
BAM,2021-12-24 16:55,-116.8743,40.5990,1382.36,37.40,33.80,86.69,220.00,15.00,0.00,29.53,M,10.00,M,BKN,OVC,M,M,3800.00,4500.00,M,M,M,M,M,M,M,M,M,27.78,KBAM 241655Z AUTO 22015KT 10SM BKN038 OVC045 03/01 A2953 RMK AO1,M
BVU,2021-12-24 16:55,-114.8611,35.9475,671.00,51.80,50.00,93.55,230.00,9.00,0.00,29.75,M,5.00,M,FEW,BKN,OVC,M,2700.00,3500.00,5500.00,M,-RA,M,M,M,M,M,M,51.80,KBVU 241655Z AUTO 23009KT 5SM -RA FEW027 BKN035 OVC055 11/10 A2975 RMK AO2,M
RTS,2021-12-24 16:55,-119.8764,39.6682,1539.00,33.80,33.80,100.00,0.00,0.00,0.00,29.58,M,10.00,M,FEW,SCT,BKN,M,2400.00,3100.00,3800.00,M,M,M,M,M,M,M,M,33.80,KRTS 241655Z AUTO 00000KT 10SM FEW024 SCT031 BKN038 01/01 A2958 RMK AO2,M
NFL,2021-12-24 16:56,-118.7010,39.4166,1199.00,37.00,32.00,81.93,160.00,12.00,0.00,29.57,1000.10,10.00,M,FEW,SCT,OVC,M,4700.00,6000.00,10000.00,M,M,M,M,M,M,M,M,28.37,KNFL 241656Z AUTO 16012KT 10SM FEW047 SCT060 OVC100 03/00 A2957 RMK AO2 SLP001 T00280000,M
HND,2021-12-24 16:56,-115.1344,35.9729,742.79,53.00,44.00,71.40,220.00,16.00,0.02,29.74,1008.10,10.00,M,FEW,BKN,M,M,3800.00,11000.00,M,M,M,M,M,M,M,M,M,53.10,KHND 241656Z 22016KT 10SM FEW038 BKN110 12/07 A2974 RMK AO2 RAE45 SLP081 P0002 T01170067,M
WMC,2021-12-24 16:56,-117.8072,40.9019,1315.00,34.00,32.00,92.29,0.00,0.00,0.08,29.52,999.90,8.00,M,SCT,OVC,M,M,700.00,1200.00,M,M,-SN,M,M,M,M,M,M,34.00,KWMC 241656Z AUTO 00000KT 8SM -SN SCT007 OVC012 01/00 A2952 RMK AO2 SLP999 P0008 T00110000,M
LAS,2021-12-24 16:56,-115.1634,36.0719,663.00,54.00,45.00,71.50,200.00,10.00,T,29.72,1005.60,10.00,16.00,FEW,SCT,BKN,BKN,3000.00,5500.00,8000.00,20000.00,M,M,M,M,M,M,M,54.00,KLAS 241656Z 20010G16KT 10SM FEW030 SCT055 BKN080 BKN200 12/07 A2972 RMK AO2 RAE39 SLP056 VIRGA DSNT NE-SE P0000 T01220072,M
EKO,2021-12-24 16:56,-115.7860,40.8242,1367.00,36.00,30.90,81.53,220.00,12.00,T,29.51,999.50,10.00,19.00,SCT,OVC,M,M,1800.00,2300.00,M,M,M,M,M,M,M,M,M,27.09,KEKO 241656Z AUTO 22012G19KT 10SM SCT018 OVC023 02/M01 A2951 RMK AO2 SNB27E40 SLP995 P0000 T00221006,M
TPH,2021-12-24 16:56,-117.0904,38.0505,1654.00,36.00,36.00,100.00,150.00,3.00,0.00,29.65,1004.00,8.00,M,FEW,BKN,BKN,M,100.00,1600.00,2300.00,M,M,M,M,M,M,M,M,33.26,KTPH 241656Z AUTO 15003KT 8SM FEW001 BKN016 BKN023 02/02 A2965 RMK AO2 SLP040 T00220022,M
INS,2021-12-24 16:58,-115.6733,36.5872,955.00,49.00,44.00,83.42,160.00,5.00,0.00,29.69,1003.80,10.00,M,SCT,M,M,M,10000.00,M,M,M,M,M,M,M,M,M,M,46.47,KINS 241658Z AUTO 16005KT 10SM SCT100 09/07 A2969 RMK AO2 SLP038 T00940067 VISNO RWY08 $,M
LSV,2021-12-24 16:58,-115.0343,36.2362,570.00,55.00,55.00,100.00,190.00,13.00,0.01,29.71,1005.40,10.00,M,FEW,FEW,M,M,5500.00,12000.00,M,M,M,M,M,M,M,M,M,54.90,KLSV 241658Z AUTO 19013KT 10SM FEW055 FEW120 13/13 A2971 RMK AO2 RAB12E21RAB30E50 SLP054 P0001 T01270127 $,M
ELY,2021-12-24 17:01,-114.8453,39.2950,1909.00,32.00,30.00,92.22,M,M,0.00,29.61,M,10.00,M,FEW,BKN,M,M,2200.00,2800.00,M,M,M,M,M,M,M,M,M,M,KELY 241701Z AUTO 10SM FEW022 BKN028 00/M01 A2961 RMK AO2 T00001011 $,M
WMC,2021-12-24 17:05,-117.8072,40.9019,1315.00,34.00,32.00,92.29,210.00,3.00,T,29.53,M,9.00,M,BKN,BKN,OVC,M,700.00,1400.00,2500.00,M,UP,M,M,M,M,M,M,30.97,KWMC 241705Z AUTO 21003KT 9SM UP BKN007 BKN014 OVC025 01/00 A2953 RMK AO2 UPB02SNE02 P0000 T00110000,M
WMC,2021-12-24 17:13,-117.8072,40.9019,1315.00,35.00,32.00,88.33,260.00,3.00,T,29.53,M,10.00,M,FEW,BKN,OVC,M,700.00,1200.00,2400.00,M,M,M,M,M,M,M,M,32.23,KWMC 241713Z AUTO 26003KT 10SM FEW007 BKN012 OVC024 02/00 A2953 RMK AO2 UPB02E11SNE02 P0000 T00170000,M
BVU,2021-12-24 17:15,-114.8611,35.9475,671.00,53.60,48.20,81.87,220.00,14.00,0.00,29.75,M,10.00,M,FEW,SCT,BKN,M,3200.00,5000.00,7500.00,M,M,M,M,M,M,M,M,53.60,KBVU 241715Z AUTO 22014KT 10SM FEW032 SCT050 BKN075 12/09 A2975 RMK AO2,M
CXP,2021-12-24 17:15,-119.7326,39.1923,1431.00,35.60,33.80,93.08,0.00,0.00,0.00,29.61,M,5.00,M,BKN,BKN,BKN,M,800.00,1100.00,2300.00,M,BR,M,M,M,M,M,M,35.60,KCXP 241715Z AUTO 00000KT 5SM BR BKN008 BKN011 BKN023 02/01 A2961 RMK AO2,M
RTS,2021-12-24 17:15,-119.8764,39.6682,1539.00,35.60,32.00,86.59,0.00,0.00,0.00,29.58,M,10.00,M,FEW,SCT,BKN,M,2100.00,2800.00,3600.00,M,-DZ,M,M,M,M,M,M,35.60,KRTS 241715Z AUTO 00000KT 10SM -DZ FEW021 SCT028 BKN036 02/00 A2958 RMK AO2,M
05U,2021-12-24 17:15,-116.0051,39.6042,1811.23,28.40,26.60,92.86,0.00,0.00,0.00,29.61,M,10.00,M,CLR,M,M,M,M,M,M,M,M,M,M,M,M,M,M,28.40,K05U 241715Z AUTO 00000KT 10SM CLR M02/M03 A2961 RMK A01,M
MEV,2021-12-24 17:15,-119.7500,38.9963,1441.42,37.40,33.80,86.69,160.00,8.00,0.00,29.61,M,9.00,M,FEW,OVC,M,M,1900.00,2600.00,M,M,-RA,M,M,M,M,M,M,30.76,KMEV 241715Z AUTO 16008KT 9SM -RA FEW019 OVC026 03/01 A2961 RMK AO2,M
BAM,2021-12-24 17:15,-116.8743,40.5990,1382.36,37.40,33.80,86.69,220.00,15.00,0.00,29.54,M,10.00,22.00,BKN,BKN,OVC,M,2900.00,3800.00,4500.00,M,M,M,M,M,M,M,M,27.78,KBAM 241715Z AUTO 22015G22KT 10SM BKN029 BKN038 OVC045 03/01 A2954 RMK AO1,M
HTH,2021-12-24 17:15,-118.6315,38.5448,1282.89,39.20,30.20,69.88,60.00,8.00,0.00,29.62,M,10.00,16.00,CLR,M,M,M,M,M,M,M,M,M,M,M,M,M,M,32.98,KHTH 241715Z AUTO 06008G16KT 10SM CLR 04/M01 A2962 RMK A01,M
TMT,2021-12-24 17:15,-117.1971,39.4643,1749.34,33.40,29.80,86.47,240.00,11.00,0.00,29.61,M,10.00,M,SCT,BKN,OVC,M,3800.00,4600.00,5000.00,M,M,M,M,M,M,M,M,24.24,KTMT 241715Z AUTO 24011KT 10SM SCT038 BKN046 OVC050 01/M01 A2961 RMK AO2 T00081012,M
WMC,2021-12-24 17:28,-117.8072,40.9019,1315.00,35.00,32.00,88.33,M,3.00,T,29.53,M,10.00,M,FEW,FEW,OVC,M,700.00,1200.00,2200.00,M,M,M,M,M,M,M,M,32.23,KWMC 241728Z AUTO VRB03KT 10SM FEW007 FEW012 OVC022 02/00 A2953 RMK AO2 UPB02E11SNE02 P0000 T00170000,M
BAM,2021-12-24 17:35,-116.8743,40.5990,1382.36,37.40,33.80,86.69,220.00,17.00,0.00,29.55,M,5.00,22.00,BKN,OVC,M,M,2500.00,3200.00,M,M,M,M,M,M,M,M,M,27.15,KBAM 241735Z AUTO 22017G22KT 5SM BKN025 OVC032 03/01 A2955 RMK AO1,M
05U,2021-12-24 17:35,-116.0051,39.6042,1811.23,30.20,26.60,86.28,0.00,0.00,0.00,29.61,M,10.00,M,CLR,M,M,M,M,M,M,M,M,M,M,M,M,M,M,30.20,K05U 241735Z AUTO 00000KT 10SM CLR M01/M03 A2961 RMK A01,M
MEV,2021-12-24 17:35,-119.7500,38.9963,1441.42,39.20,33.80,80.79,170.00,9.00,0.00,29.61,M,10.00,15.00,SCT,BKN,M,M,2700.00,3500.00,M,M,M,M,M,M,M,M,M,32.47,KMEV 241735Z AUTO 17009G15KT 10SM SCT027 BKN035 04/01 A2961 RMK AO2,M
HTH,2021-12-24 17:35,-118.6315,38.5448,1282.89,41.00,32.00,70.08,200.00,6.00,0.00,29.62,M,10.00,M,FEW,M,M,M,10000.00,M,M,M,M,M,M,M,M,M,M,36.37,KHTH 241735Z AUTO 20006KT 10SM FEW100 05/00 A2962 RMK A01,M
TMT,2021-12-24 17:35,-117.1971,39.4643,1749.34,33.40,30.70,89.69,230.00,12.00,0.00,29.63,M,2.00,17.00,BKN,BKN,OVC,M,1200.00,1900.00,3400.00,M,-SN,M,M,M,M,M,M,23.78,KTMT 241735Z AUTO 23012G17KT 2SM -SN BKN012 BKN019 OVC034 01/M01 A2963 RMK AO2 T00081007,M
RTS,2021-12-24 17:35,-119.8764,39.6682,1539.00,37.40,30.20,74.98,230.00,9.00,0.00,29.58,M,10.00,M,FEW,SCT,SCT,M,2900.00,4200.00,4900.00,M,M,M,M,M,M,M,M,30.23,KRTS 241735Z AUTO 23009KT 10SM FEW029 SCT042 SCT049 03/M01 A2958 RMK AO2,M
CXP,2021-12-24 17:35,-119.7326,39.1923,1431.00,35.60,33.80,93.08,0.00,0.00,0.00,29.62,M,5.00,M,SCT,BKN,BKN,M,900.00,1800.00,2400.00,M,BR,M,M,M,M,M,M,35.60,KCXP 241735Z AUTO 00000KT 5SM BR SCT009 BKN018 BKN024 02/01 A2962 RMK AO2,M
BVU,2021-12-24 17:35,-114.8611,35.9475,671.00,55.40,48.20,76.66,210.00,14.00,0.00,29.75,M,10.00,M,BKN,BKN,M,M,9000.00,11000.00,M,M,M,M,M,M,M,M,M,55.40,KBVU 241735Z AUTO 21014KT 10SM BKN090 BKN110 13/09 A2975 RMK AO2,M
ELY,2021-12-24 17:37,-114.8453,39.2950,1909.00,34.00,30.90,88.27,200.00,11.00,0.00,29.61,M,10.00,M,SCT,BKN,M,M,2900.00,11000.00,M,M,M,M,M,M,M,M,M,24.99,KELY 241737Z AUTO 20011KT 10SM SCT029 BKN110 01/M01 A2961 RMK AO2 T00111006 $,M
ELY,2021-12-24 17:40,-114.8453,39.2950,1909.00,35.00,30.00,81.46,200.00,12.00,0.00,29.61,M,10.00,M,FEW,BKN,BKN,M,200.00,2900.00,11000.00,M,M,M,M,M,M,M,M,25.95,KELY 241740Z AUTO 20012KT 10SM FEW002 BKN029 BKN110 02/M01 A2961 RMK AO2 T00171011 $,M
ELY,2021-12-24 17:50,-114.8453,39.2950,1909.00,35.60,30.20,80.51,190.00,12.00,0.00,29.61,M,10.00,19.00,FEW,SCT,BKN,M,200.00,2900.00,11000.00,M,M,M,M,M,M,M,M,26.58,KELY 241750Z AUTO 19012G19KT 10SM FEW002 SCT029 BKN110 02/M01 A2961 RMK AO2 $,M
LOL,2021-12-24 17:53,-118.5701,40.0684,1192.43,37.00,35.00,92.76,160.00,6.00,T,29.57,1002.30,10.00,M,FEW,BKN,OVC,M,3300.00,4400.00,6000.00,M,M,M,M,M,M,M,M,31.55,KLOL 241753Z AUTO 16006KT 10SM FEW033 BKN044 OVC060 03/02 A2957 RMK AO2 RAB06E49 SLP023 P0000 60000 T00280017 10033 20006 52009 $,M
DRA,2021-12-24 17:53,-116.0278,36.6206,1009.00,54.00,36.00,50.42,210.00,19.00,0.00,29.67,1002.40,10.00,33.00,CLR,M,M,M,M,M,M,M,M,M,M,M,33.00,200.00,2021-12-24 17:45,54.00,KDRA 241753Z AUTO 21019G33KT 10SM CLR 12/02 A2967 RMK AO2 PK WND 20033/1745 SLP024 T01220022 10128 20094 51006,M
VGT,2021-12-24 17:53,-115.1933,36.2111,667.00,59.00,45.00,59.67,0.00,0.00,0.00,29.71,1007.00,10.00,M,CLR,M,M,M,M,M,M,M,M,M,M,M,M,M,M,59.00,KVGT 241753Z 00000KT 10SM CLR 15/07 A2971 RMK AO2 SLP070 60001 T01500072 10150 20122 50009,M
ELY,2021-12-24 17:53,-114.8453,39.2950,1909.00,35.00,30.00,81.46,180.00,13.00,0.00,29.61,1001.60,10.00,M,FEW,SCT,BKN,M,200.00,9000.00,11000.00,M,M,M,M,0.01,M,M,M,25.54,KELY 241753Z AUTO 18013KT 10SM FEW002 SCT090 BKN110 02/M01 A2961 RMK AO2 SLP016 I6001 T00171011 10017 21044 53004 $,M
05U,2021-12-24 17:55,-116.0051,39.6042,1811.23,32.00,28.40,86.39,0.00,0.00,0.00,29.61,M,10.00,M,CLR,M,M,M,M,M,M,M,M,M,M,M,M,M,M,32.00,K05U 241755Z AUTO 00000KT 10SM CLR M00/M02 A2961 RMK A01,M
MEV,2021-12-24 17:55,-119.7500,38.9963,1441.42,39.20,35.60,86.79,180.00,7.00,0.01,29.62,M,10.00,M,FEW,SCT,SCT,M,3400.00,4400.00,6000.00,M,M,M,M,M,M,M,M,33.56,KMEV 241755Z AUTO 18007KT 10SM FEW034 SCT044 SCT060 04/02 A2962 RMK AO2 P0001,M
BVU,2021-12-24 17:55,-114.8611,35.9475,671.00,55.40,44.60,66.91,210.00,14.00,0.00,29.75,M,10.00,M,FEW,FEW,M,M,9500.00,11000.00,M,M,M,M,M,M,M,M,M,55.40,KBVU 241755Z AUTO 21014KT 10SM FEW095 FEW110 13/07 A2975 RMK AO2,M
BAM,2021-12-24 17:55,-116.8743,40.5990,1382.36,37.40,33.80,86.69,230.00,11.00,0.00,29.56,M,7.00,16.00,SCT,BKN,OVC,M,1800.00,2700.00,3400.00,M,M,M,M,M,M,M,M,29.29,KBAM 241755Z AUTO 23011G16KT 7SM SCT018 BKN027 OVC034 03/01 A2956 RMK AO1,M
HTH,2021-12-24 17:55,-118.6315,38.5448,1282.89,42.80,32.00,65.38,M,5.00,0.00,29.64,M,10.00,M,CLR,M,M,M,M,M,M,M,M,M,M,M,M,M,M,39.22,KHTH 241755Z AUTO VRB05KT 10SM CLR 06/M00 A2964 RMK A01,M
RTS,2021-12-24 17:55,-119.8764,39.6682,1539.00,39.20,30.20,69.88,250.00,8.00,0.00,29.59,M,10.00,15.00,FEW,SCT,BKN,M,4100.00,4900.00,5500.00,M,M,M,M,M,M,M,M,32.98,KRTS 241755Z AUTO 25008G15KT 10SM FEW041 SCT049 BKN055 04/M01 A2959 RMK AO2,M
RNO,2021-12-24 17:55,-119.7711,39.4839,1341.00,40.00,34.00,79.25,20.00,7.00,T,29.57,1000.70,10.00,M,FEW,BKN,M,M,1000.00,4200.00,M,M,M,M,M,M,M,M,M,34.41,KRNO 241755Z 02007KT 10SM FEW010 BKN042 04/01 A2957 RMK AO2 RAB12E24B41E52 SLP007 MTN TOPS OBSCD SW THRU NW P0000 60011 T00440011 10050 20017 50005,M
TMT,2021-12-24 17:55,-117.1971,39.4643,1749.34,33.00,31.60,94.90,250.00,7.00,0.00,29.62,M,4.00,M,SCT,BKN,OVC,M,1200.00,2000.00,2800.00,M,-SN,M,M,M,M,M,M,25.88,KTMT 241755Z AUTO 25007KT 4SM -SN SCT012 BKN020 OVC028 01/00 A2962 RMK AO2 T00051002 10010 21025,M
CXP,2021-12-24 17:55,-119.7326,39.1923,1431.00,37.40,35.60,93.14,200.00,7.00,0.00,29.62,M,10.00,12.00,FEW,SCT,BKN,M,1700.00,3100.00,4300.00,M,M,M,M,M,M,M,M,31.36,KCXP 241755Z AUTO 20007G12KT 10SM FEW017 SCT031 BKN043 03/02 A2962 RMK AO2,M
LAS,2021-12-24 17:56,-115.1634,36.0719,663.00,58.00,42.00,55.55,230.00,9.00,0.00,29.72,1005.50,10.00,M,FEW,SCT,SCT,SCT,3000.00,5500.00,8000.00,20000.00,M,M,M,M,28.00,260.00,2021-12-24 17:28,57.90,KLAS 241756Z 23009KT 10SM FEW030 SCT055 SCT080 SCT200 14/06 A2972 RMK AO2 PK WND 26028/1728 SLP055 60003 T01440056 10144 20111 51016,M
TPH,2021-12-24 17:56,-117.0904,38.0505,1654.00,37.00,36.00,96.13,170.00,6.00,0.00,29.67,1004.40,10.00,M,OVC,M,M,M,2100.00,M,M,M,M,M,M,M,M,M,M,31.55,KTPH 241756Z AUTO 17006KT 10SM OVC021 03/02 A2967 RMK AO2 SLP044 T00280022 10028 20006 53010,M
WMC,2021-12-24 17:56,-117.8072,40.9019,1315.00,37.00,33.00,85.64,260.00,3.00,T,29.53,1000.00,10.00,M,SCT,BKN,OVC,M,2000.00,2400.00,6000.00,M,M,M,M,M,M,M,M,34.40,KWMC 241756Z AUTO 26003KT 10SM SCT020 BKN024 OVC060 03/01 A2953 RMK AO2 UPB02E11B41E51RAB40E52SNE02 SLP000 P0000 60015 T00280006 10033 20006 51005,M
NFL,2021-12-24 17:56,-118.7010,39.4166,1199.00,42.00,35.00,76.04,170.00,11.00,0.00,29.59,1000.50,10.00,M,SCT,M,M,M,9000.00,M,M,M,M,M,M,M,M,M,M,35.23,KNFL 241756Z AUTO 17011KT 10SM SCT090 06/02 A2959 RMK AO2 SLP005 T00560017 10056 20017 53005,M
EKO,2021-12-24 17:56,-115.7860,40.8242,1367.00,36.00,30.90,81.53,220.00,10.00,T,29.52,999.90,10.00,M,BKN,OVC,M,M,1800.00,2200.00,M,M,UP,M,M,M,M,M,M,27.98,KEKO 241756Z AUTO 22010KT 10SM UP BKN018 OVC022 02/M01 A2952 RMK AO2 UPB18E23B45SNB23E33 SLP999 P0000 60001 T00221006 10028 20011 53005,M
HND,2021-12-24 17:56,-115.1344,35.9729,742.79,56.00,43.00,61.81,210.00,19.00,0.00,29.74,1008.10,10.00,M,CLR,M,M,M,M,M,M,M,M,M,M,M,M,M,M,55.90,KHND 241756Z 21019KT 10SM CLR 13/06 A2974 RMK AO2 SLP081 60010 T01330061 10133 20106 51015,M
LSV,2021-12-24 17:58,-115.0343,36.2362,570.00,58.30,50.00,73.84,170.00,7.00,0.00,29.70,1004.90,10.00,M,CLR,M,M,M,M,M,M,M,M,M,M,M,M,M,M,58.30,KLSV 241758Z AUTO 17007KT 10SM CLR 15/10 A2970 RMK AO2 SLP049 60001 T01460100 10146 20121 50010 $,M
INS,2021-12-24 17:58,-115.6733,36.5872,955.00,51.60,45.30,78.98,110.00,12.00,0.00,29.68,1003.20,10.00,M,CLR,M,M,M,M,M,M,M,M,M,M,M,M,M,M,51.60,KINS 241758Z AUTO 11012KT 10SM CLR 11/07 A2968 RMK AO2 SLP032 60000 T01090074 10122 20081 50007 VISNO RWY08 $,M
WMC,2021-12-24 18:14,-117.8072,40.9019,1315.00,39.00,35.00,85.76,230.00,3.00,0.00,29.53,M,10.00,M,FEW,SCT,BKN,M,2200.00,3000.00,6500.00,M,M,M,M,M,M,M,M,36.69,KWMC 241814Z AUTO 23003KT 10SM FEW022 SCT030 BKN065 04/02 A2953 RMK AO2 T00390017,M
TMT,2021-12-24 18:15,-117.1971,39.4643,1749.34,33.30,31.60,93.39,250.00,9.00,0.00,29.62,M,3.00,M,BKN,OVC,M,M,2300.00,3000.00,M,M,-SN,M,M,M,M,M,M,25.13,KTMT 241815Z AUTO 25009KT 3SM -SN BKN023 OVC030 01/00 A2962 RMK AO2 T00071002,M
BAM,2021-12-24 18:15,-116.8743,40.5990,1382.36,37.40,33.80,86.69,230.00,14.00,0.00,29.55,M,10.00,M,SCT,BKN,OVC,M,2200.00,2900.00,3300.00,M,M,M,M,M,M,M,M,28.12,KBAM 241815Z AUTO 23014KT 10SM SCT022 BKN029 OVC033 03/01 A2955 RMK AO1,M
05U,2021-12-24 18:15,-116.0051,39.6042,1811.23,32.00,28.40,86.39,0.00,0.00,0.00,29.60,M,10.00,M,CLR,M,M,M,M,M,M,M,M,M,M,M,M,M,M,32.00,K05U 241815Z AUTO 00000KT 10SM CLR 00/M02 A2960 RMK A01,M
RTS,2021-12-24 18:15,-119.8764,39.6682,1539.00,39.20,28.40,64.93,230.00,14.00,0.00,29.59,M,10.00,M,BKN,BKN,M,M,4100.00,5000.00,M,M,M,M,M,M,M,M,M,30.44,KRTS 241815Z AUTO 23014KT 10SM BKN041 BKN050 04/M02 A2959 RMK AO2,M
CXP,2021-12-24 18:15,-119.7326,39.1923,1431.00,39.20,33.80,80.79,220.00,9.00,0.00,29.61,M,10.00,16.00,SCT,SCT,M,M,4200.00,5000.00,M,M,M,M,M,M,M,M,M,32.47,KCXP 241815Z AUTO 22009G16KT 190V250 10SM SCT042 SCT050 04/01 A2961 RMK AO2,M
MEV,2021-12-24 18:15,-119.7500,38.9963,1441.42,41.00,33.80,75.33,M,5.00,0.00,29.62,M,10.00,10.00,FEW,FEW,FEW,M,2500.00,3000.00,3600.00,M,M,M,M,M,M,M,M,37.08,KMEV 241815Z AUTO VRB05G10KT 10SM FEW025 FEW030 FEW036 05/01 A2962 RMK AO2,M
BVU,2021-12-24 18:15,-114.8611,35.9475,671.00,57.20,44.60,62.69,200.00,15.00,0.00,29.75,M,10.00,21.00,CLR,M,M,M,M,M,M,M,M,M,M,M,M,M,M,57.20,KBVU 241815Z AUTO 20015G21KT 10SM CLR 14/07 A2975 RMK AO2,M
HTH,2021-12-24 18:15,-118.6315,38.5448,1282.89,44.60,30.20,56.74,210.00,14.00,0.00,29.64,M,10.00,M,FEW,M,M,M,5000.00,M,M,M,M,M,M,M,M,M,M,37.40,KHTH 241815Z AUTO 21014KT 10SM FEW050 07/M01 A2964 RMK A01,M
EKO,2021-12-24 18:22,-115.7860,40.8242,1367.00,35.00,32.00,88.33,220.00,14.00,T,29.52,M,9.00,M,SCT,OVC,M,M,900.00,1500.00,M,M,-SN,M,M,M,M,M,M,25.16,KEKO 241822Z AUTO 22014KT 9SM -SN SCT009 OVC015 02/00 A2952 RMK AO2 UPE21SNB21 P0000 T00170000,M
EKO,2021-12-24 18:33,-115.7860,40.8242,1367.00,35.00,32.00,88.33,230.00,9.00,0.01,29.52,M,7.00,M,BKN,OVC,M,M,1100.00,1700.00,M,M,-SN,M,M,M,M,M,M,27.37,KEKO 241833Z AUTO 23009KT 7SM -SN BKN011 OVC017 02/00 A2952 RMK AO2 UPE21SNB21 P0001 T00170000,M
TMT,2021-12-24 18:35,-117.1971,39.4643,1749.34,34.00,31.10,88.99,250.00,6.00,0.00,29.62,M,10.00,M,SCT,BKN,OVC,M,2300.00,3000.00,6500.00,M,M,M,M,M,M,M,M,27.94,KTMT 241835Z AUTO 25006KT 10SM SCT023 BKN030 OVC065 01/00 A2962 RMK AO2 T00111005,M
BVU,2021-12-24 18:35,-114.8611,35.9475,671.00,59.00,42.80,54.86,220.00,17.00,0.00,29.73,M,10.00,M,CLR,M,M,M,M,M,M,M,M,M,M,M,M,M,M,59.00,KBVU 241835Z AUTO 22017KT 10SM CLR 15/06 A2973 RMK AO2,M
CXP,2021-12-24 18:35,-119.7326,39.1923,1431.00,41.00,33.80,75.33,200.00,8.00,0.00,29.61,M,10.00,M,FEW,FEW,SCT,M,3500.00,4100.00,5000.00,M,M,M,M,M,M,M,M,35.20,KCXP 241835Z AUTO 20008KT 10SM FEW035 FEW041 SCT050 05/01 A2961 RMK AO2,M
05U,2021-12-24 18:35,-116.0051,39.6042,1811.23,33.80,30.20,86.49,0.00,0.00,0.00,29.60,M,10.00,M,CLR,M,M,M,M,M,M,M,M,M,M,M,M,M,M,33.80,K05U 241835Z AUTO 00000KT 10SM CLR 01/M01 A2960 RMK A01,M
MEV,2021-12-24 18:35,-119.7500,38.9963,1441.42,41.00,32.00,70.08,270.00,16.00,0.00,29.61,M,10.00,22.00,FEW,FEW,M,M,2500.00,3700.00,M,M,M,M,M,M,M,M,M,32.15,KMEV 241835Z AUTO 27016G22KT 10SM FEW025 FEW037 05/00 A2961 RMK AO2,M
BAM,2021-12-24 18:35,-116.8743,40.5990,1382.36,37.40,33.80,86.69,230.00,16.00,0.00,29.56,M,10.00,22.00,SCT,OVC,M,M,2400.00,3000.00,M,M,M,M,M,M,M,M,M,27.46,KBAM 241835Z AUTO 23016G22KT 10SM SCT024 OVC030 03/01 A2956 RMK AO1,M
RTS,2021-12-24 18:35,-119.8764,39.6682,1539.00,39.20,28.40,64.93,260.00,15.00,0.00,29.59,M,10.00,M,SCT,BKN,OVC,M,3100.00,3900.00,6000.00,M,M,M,M,M,M,M,M,30.11,KRTS 241835Z AUTO 26015KT 10SM SCT031 BKN039 OVC060 04/M02 A2959 RMK AO2,M
HTH,2021-12-24 18:35,-118.6315,38.5448,1282.89,46.40,30.20,53.00,200.00,16.00,0.00,29.64,M,10.00,M,FEW,FEW,FEW,M,5000.00,6500.00,8000.00,M,M,M,M,M,M,M,M,39.19,KHTH 241835Z AUTO 20016KT 10SM FEW050 FEW065 FEW080 08/M01 A2964 RMK A01,M
LOL,2021-12-24 18:53,-118.5701,40.0684,1192.43,40.00,35.00,82.80,180.00,4.00,0.00,29.58,1002.20,10.00,M,FEW,BKN,OVC,M,1600.00,3300.00,4700.00,M,M,M,M,M,M,M,M,36.65,KLOL 241853Z AUTO 18004KT 10SM FEW016 BKN033 OVC047 04/02 A2958 RMK AO2 SLP022 T00440017 $,M
VGT,2021-12-24 18:53,-115.1933,36.2111,667.00,61.00,38.00,42.24,230.00,15.00,0.00,29.68,1005.90,10.00,M,CLR,M,M,M,M,M,M,M,M,M,M,M,26.00,230.00,2021-12-24 18:34,61.00,KVGT 241853Z 23015KT 10SM CLR 16/03 A2968 RMK AO2 PK WND 23026/1834 SLP059 T01610033,M
P68,2021-12-24 18:53,-116.0056,39.6014,1993.00,32.00,28.00,84.98,10.00,6.00,0.00,29.58,1001.20,M,M,M,M,M,M,M,M,M,M,M,M,M,M,M,M,M,25.53,KP68 241853Z AUTO 01006KT 00/M02 A2958 RMK AO1 SLP012 T00001022,M
ELY,2021-12-24 18:53,-114.8453,39.2950,1909.00,36.00,30.90,81.53,180.00,11.00,0.00,29.60,1001.00,10.00,24.00,CLR,M,M,M,M,M,M,M,M,M,M,M,M,M,M,27.52,KELY 241853Z AUTO 18011G24KT 10SM CLR 02/M01 A2960 RMK AO2 SLP010 T00221006 $,M
DRA,2021-12-24 18:53,-116.0278,36.6206,1009.00,56.00,35.00,45.40,210.00,21.00,0.00,29.68,1002.50,10.00,28.00,CLR,M,M,M,M,M,M,M,M,M,M,M,32.00,210.00,2021-12-24 18:10,55.90,KDRA 241853Z AUTO 21021G28KT 10SM CLR 13/02 A2968 RMK AO2 PK WND 21032/1810 SLP025 T01330017,M
EKO,2021-12-24 18:54,-115.7860,40.8242,1367.00,35.60,30.20,80.51,230.00,14.97,M,29.52,M,10.00,20.99,SCT,OVC,M,M,1099.00,1899.00,M,M,-SN,M,M,M,M,M,M,25.46,SPECI KEKO 241854Z 23015G21KT 10SM -SN SCT011 OVC019 02/M01 A2952 RMK AO2 UPE21B40E50SNB21E40B50 P0001 FIBI,M
BAM,2021-12-24 18:55,-116.8743,40.5990,1382.36,35.60,35.60,100.00,230.00,16.00,0.00,29.56,M,4.00,22.00,BKN,BKN,OVC,M,1200.00,1800.00,2600.00,M,M,M,M,M,M,M,M,25.11,KBAM 241855Z AUTO 23016G22KT 4SM BKN012 BKN018 OVC026 02/02 A2956 RMK AO1,M
TMT,2021-12-24 18:55,-117.1971,39.4643,1749.34,34.30,31.50,89.37,240.00,8.00,0.00,29.62,M,10.00,M,SCT,SCT,OVC,M,3100.00,4100.00,6000.00,M,M,M,M,M,M,M,M,26.95,KTMT 241855Z AUTO 24008KT 10SM SCT031 SCT041 OVC060 01/00 A2962 RMK AO2 T00131003,M
HTH,2021-12-24 18:55,-118.6315,38.5448,1282.89,46.40,32.00,57.00,190.00,12.00,0.00,29.64,M,10.00,M,SCT,SCT,M,M,6000.00,8000.00,M,M,M,M,M,M,M,M,M,40.33,KHTH 241855Z AUTO 19012KT 10SM SCT060 SCT080 08/00 A2964 RMK A01,M
MEV,2021-12-24 18:55,-119.7500,38.9963,1441.42,44.60,32.00,61.03,240.00,10.00,0.01,29.61,M,10.00,15.00,FEW,M,M,M,5000.00,M,M,M,M,M,M,M,M,M,M,38.77,KMEV 241855Z AUTO 24010G15KT 210V270 10SM FEW050 07/M00 A2961 RMK AO2 P0001,M
05U,2021-12-24 18:55,-116.0051,39.6042,1811.23,33.80,28.40,80.36,0.00,0.00,0.03,29.60,M,10.00,M,CLR,M,M,M,M,M,M,M,M,M,M,M,M,M,M,33.80,K05U 241855Z AUTO 00000KT 10SM CLR 01/M02 A2960 RMK A01 P0003,M
RTS,2021-12-24 18:55,-119.8764,39.6682,1539.00,39.20,30.20,69.88,270.00,13.00,0.00,29.59,M,10.00,25.00,SCT,SCT,BKN,M,2800.00,3200.00,3800.00,M,M,M,M,M,M,M,M,30.79,KRTS 241855Z AUTO 27013G25KT 10SM SCT028 SCT032 BKN038 04/M01 A2959 RMK AO2,M
RNO,2021-12-24 18:55,-119.7711,39.4839,1341.00,46.00,30.90,55.36,260.00,11.00,0.00,29.57,1000.10,10.00,24.00,SCT,M,M,M,4200.00,M,M,M,M,M,M,M,M,M,M,40.16,KRNO 241855Z 26011G24KT 230V300 10SM SCT042 08/M01 A2957 RMK AO2 SLP001 MTN TOPS OBSCD SW THRU NW T00781006,M
CXP,2021-12-24 18:55,-119.7326,39.1923,1431.00,44.60,30.20,56.74,250.00,12.00,0.00,29.62,M,10.00,27.00,FEW,FEW,FEW,M,2500.00,3300.00,4300.00,M,M,M,M,M,M,M,M,38.04,KCXP 241855Z AUTO 25012G27KT 10SM FEW025 FEW033 FEW043 07/M01 A2962 RMK AO2,M
BVU,2021-12-24 18:55,-114.8611,35.9475,671.00,59.00,42.80,54.86,210.00,11.00,0.00,29.73,M,10.00,17.00,CLR,M,M,M,M,M,M,M,M,M,M,M,M,M,M,59.00,KBVU 241855Z AUTO 21011G17KT 10SM CLR 15/06 A2973 RMK AO2,M
WMC,2021-12-24 18:56,-117.8072,40.9019,1315.00,39.00,33.00,79.17,230.00,12.00,T,29.53,999.60,10.00,M,FEW,FEW,BKN,M,3800.00,6500.00,8000.00,M,M,M,M,M,M,M,M,30.91,KWMC 241856Z AUTO 23012KT 10SM FEW038 FEW065 BKN080 04/01 A2953 RMK AO2 RAB34E45 SLP996 P0000 T00390006,M
INS,2021-12-24 18:56,-115.6733,36.5872,955.00,57.20,33.80,41.13,250.00,12.00,0.00,29.67,1002.50,10.00,16.00,CLR,M,M,M,M,M,M,M,M,M,M,M,M,M,M,57.20,KINS 241856Z AUTO 25012G16KT 10SM CLR 14/01 A2967 RMK AO2 WSHFT 50 SLP025 VISNO RWY08 $,M
EKO,2021-12-24 18:56,-115.7860,40.8242,1367.00,35.00,30.90,84.49,230.00,16.00,0.01,29.52,999.90,9.00,M,SCT,OVC,M,M,1100.00,1900.00,M,M,-SN,M,M,M,M,M,M,24.46,KEKO 241856Z AUTO 23016KT 9SM -SN SCT011 OVC019 02/M01 A2952 RMK AO2 UPE21B40E50SNB21E40B50 SLP999 P0001 T00171006,M
TPH,2021-12-24 18:56,-117.0904,38.0505,1654.00,39.00,35.00,85.76,190.00,10.00,0.00,29.67,1004.40,10.00,M,BKN,M,M,M,2100.00,M,M,M,M,M,M,M,M,M,M,31.75,KTPH 241856Z AUTO 19010KT 10SM BKN021 04/02 A2967 RMK AO2 SLP044 T00390017,M
HND,2021-12-24 18:56,-115.1344,35.9729,742.79,58.00,42.00,55.55,210.00,12.00,0.00,29.73,1007.60,10.00,M,CLR,M,M,M,M,M,M,M,M,M,M,M,M,M,M,57.90,KHND 241856Z 21012KT 10SM CLR 14/06 A2973 RMK AO2 SLP076 T01440056,M
NFL,2021-12-24 18:56,-118.7010,39.4166,1199.00,44.00,34.00,67.41,180.00,17.00,0.00,29.58,1000.40,10.00,M,SCT,M,M,M,7500.00,M,M,M,M,M,M,M,M,M,M,35.93,KNFL 241856Z AUTO 18017KT 10SM SCT075 07/01 A2958 RMK AO2 SLP004 T00670011,M
LAS,2021-12-24 18:56,-115.1634,36.0719,663.00,59.00,39.00,47.35,200.00,14.00,0.00,29.68,1004.20,10.00,25.00,FEW,FEW,SCT,M,5000.00,8000.00,10000.00,M,M,M,M,M,26.00,210.00,2021-12-24 18:30,59.00,KLAS 241856Z 20014G25KT 10SM FEW050 FEW080 SCT100 15/04 A2968 RMK AO2 PK WND 21026/1830 SLP042 T01500039,M
LSV,2021-12-24 18:58,-115.0343,36.2362,570.00,61.30,41.50,48.08,220.00,15.00,0.00,29.68,1004.10,10.00,M,CLR,M,M,M,M,M,M,M,M,M,M,M,M,M,M,61.30,KLSV 241858Z AUTO 22015KT 10SM CLR 16/05 A2968 RMK AO2 SLP041 T01630053 $,M
INS,2021-12-24 18:58,-115.6733,36.5872,955.00,57.70,33.00,38.97,240.00,13.00,0.00,29.67,1002.50,10.00,16.00,CLR,M,M,M,M,M,M,M,M,M,M,M,M,M,M,57.70,KINS 241858Z AUTO 24013G16KT 10SM CLR 14/01 A2967 RMK AO2 SLP025 T01430005 VISNO RWY08 $,M
05U,2021-12-24 19:10,-116.0051,39.6042,1811.23,33.80,28.40,80.36,0.00,0.00,0.00,29.60,M,10.00,M,SCT,SCT,M,M,3800.00,4600.00,M,M,M,M,M,M,M,M,M,33.80,K05U 241910Z AUTO 00000KT 10SM SCT038 SCT046 01/M02 A2960 RMK A01,M
RTS,2021-12-24 19:15,-119.8764,39.6682,1539.00,39.20,28.40,64.93,250.00,14.00,0.00,29.59,M,10.00,23.00,FEW,FEW,SCT,M,2700.00,3200.00,4700.00,M,M,M,M,M,M,M,M,30.44,KRTS 241915Z AUTO 25014G23KT 10SM FEW027 FEW032 SCT047 04/M02 A2959 RMK AO2,M
MEV,2021-12-24 19:15,-119.7500,38.9963,1441.42,44.60,30.20,56.74,270.00,13.00,0.00,29.61,M,9.00,31.00,FEW,SCT,SCT,M,4100.00,4900.00,6000.00,M,M,M,M,M,M,M,M,37.71,KMEV 241915Z AUTO 27013G31KT 210V290 9SM FEW041 SCT049 SCT060 07/M01 A2961 RMK AO2,M
HTH,2021-12-24 19:15,-118.6315,38.5448,1282.89,46.40,32.00,57.00,170.00,10.00,0.00,29.63,M,10.00,M,BKN,OVC,M,M,6000.00,7000.00,M,M,M,M,M,M,M,M,M,41.03,KHTH 241915Z AUTO 17010KT 10SM BKN060 OVC070 08/M00 A2963 RMK A01,M
BAM,2021-12-24 19:15,-116.8743,40.5990,1382.36,35.60,35.60,100.00,250.00,12.00,0.00,29.56,M,5.00,18.00,BKN,OVC,M,M,1500.00,2200.00,M,M,M,M,M,M,M,M,M,26.58,KBAM 241915Z AUTO 25012G18KT 5SM BKN015 OVC022 02/02 A2956 RMK AO1,M
TMT,2021-12-24 19:15,-117.1971,39.4643,1749.34,34.30,31.30,88.65,220.00,7.00,0.00,29.62,M,10.00,M,SCT,BKN,OVC,M,3600.00,4800.00,5000.00,M,M,M,M,M,M,M,M,27.58,KTMT 241915Z AUTO 22007KT 10SM SCT036 BKN048 OVC050 01/00 A2962 RMK AO2 T00131004,M
CXP,2021-12-24 19:15,-119.7326,39.1923,1431.00,44.60,30.20,56.74,250.00,16.00,0.00,29.62,M,10.00,23.00,CLR,M,M,M,M,M,M,M,M,M,M,M,M,M,M,36.84,KCXP 241915Z AUTO 25016G23KT 210V290 10SM CLR 07/M01 A2962 RMK AO2,M
BVU,2021-12-24 19:15,-114.8611,35.9475,671.00,60.80,42.80,51.45,210.00,16.00,0.00,29.72,M,10.00,M,CLR,M,M,M,M,M,M,M,M,M,M,M,M,M,M,60.80,KBVU 241915Z AUTO 21016KT 10SM CLR 16/06 A2972 RMK AO2,M
EKO,2021-12-24 19:21,-115.7860,40.8242,1367.00,35.00,32.00,88.33,210.00,8.00,0.01,29.51,M,6.00,M,FEW,OVC,M,M,800.00,1400.00,M,M,-SN BR,M,M,M,M,M,M,27.93,KEKO 241921Z AUTO 21008KT 6SM -SN BR FEW008 OVC014 02/00 A2951 RMK AO2 P0001 T00170000,M
05U,2021-12-24 19:30,-116.0051,39.6042,1811.23,35.60,30.20,80.51,0.00,0.00,0.00,29.59,M,10.00,M,BKN,SCT,M,M,3900.00,4700.00,M,M,M,M,M,M,M,M,M,35.60,K05U 241930Z AUTO 00000KT 10SM BKN039 SCT047 02/M01 A2959 RMK A01,M
EKO,2021-12-24 19:31,-115.7860,40.8242,1367.00,36.00,33.00,89.09,220.00,9.00,0.02,29.50,M,9.00,M,FEW,BKN,OVC,M,800.00,1600.00,2200.00,M,M,M,M,M,M,M,M,28.49,KEKO 241931Z AUTO 22009KT 9SM FEW008 BKN016 OVC022 02/01 A2950 RMK AO2 UPB28E31SNE28 P0002 T00220006,M
HTH,2021-12-24 19:35,-118.6315,38.5448,1282.89,48.20,32.00,53.27,160.00,12.00,0.00,29.62,M,10.00,M,BKN,BKN,M,M,6000.00,7500.00,M,M,M,M,M,M,M,M,M,42.62,KHTH 241935Z AUTO 16012KT 10SM BKN060 BKN075 09/00 A2962 RMK A01,M
TMT,2021-12-24 19:35,-117.1971,39.4643,1749.34,35.00,30.90,85.16,220.00,13.00,0.00,29.61,M,10.00,21.00,SCT,BKN,OVC,M,3000.00,3700.00,5000.00,M,-SN,M,M,M,M,M,M,25.28,KTMT 241935Z AUTO 22013G21KT 10SM -SN SCT030 BKN037 OVC050 02/M01 A2961 RMK AO2 T00161006,M
BVU,2021-12-24 19:35,-114.8611,35.9475,671.00,60.80,41.00,48.00,180.00,13.00,0.00,29.72,M,10.00,19.00,CLR,M,M,M,M,M,M,M,M,M,M,M,M,M,M,60.80,KBVU 241935Z AUTO 18013G19KT 10SM CLR 16/05 A2972 RMK AO2,M
CXP,2021-12-24 19:35,-119.7326,39.1923,1431.00,42.80,30.20,60.79,230.00,9.00,0.00,29.62,M,9.00,24.00,FEW,M,M,M,5000.00,M,M,M,M,M,M,M,M,M,M,36.94,KCXP 241935Z AUTO 23009G24KT 9SM FEW050 06/M01 A2962 RMK AO2,M
RTS,2021-12-24 19:35,-119.8764,39.6682,1539.00,39.20,26.60,60.29,260.00,16.00,0.00,29.58,M,10.00,M,SCT,BKN,M,M,4200.00,4800.00,M,M,M,M,M,M,M,M,M,29.80,KRTS 241935Z AUTO 26016KT 10SM SCT042 BKN048 04/M03 A2958 RMK AO2,M
MEV,2021-12-24 19:35,-119.7500,38.9963,1441.42,44.60,30.20,56.74,250.00,23.00,0.00,29.60,M,10.00,34.00,FEW,M,M,M,4600.00,M,M,M,M,M,M,M,M,M,M,35.25,KMEV 241935Z AUTO 25023G34KT 10SM FEW046 07/M01 A2960 RMK AO2,M
BAM,2021-12-24 19:35,-116.8743,40.5990,1382.36,35.60,35.60,100.00,250.00,12.00,0.00,29.55,M,7.00,16.00,BKN,OVC,M,M,800.00,1800.00,M,M,M,M,M,M,M,M,M,26.58,KBAM 241935Z AUTO 25012G16KT 7SM BKN008 OVC018 02/02 A2955 RMK AO1,M
EKO,2021-12-24 19:41,-115.7860,40.8242,1367.00,35.00,32.00,88.33,240.00,9.00,0.02,29.50,M,10.00,M,FEW,OVC,M,M,800.00,1400.00,M,M,M,M,M,M,M,M,M,27.37,KEKO 241941Z AUTO 24009KT 10SM FEW008 OVC014 02/00 A2950 RMK AO2 UPB28E31SNE28 P0002 T00170000,M
VGT,2021-12-24 19:53,-115.1933,36.2111,667.00,62.00,37.00,39.21,220.00,9.00,0.00,29.66,1005.10,10.00,M,FEW,M,M,M,6500.00,M,M,M,M,M,M,M,M,M,M,62.10,KVGT 241953Z 22009KT 10SM FEW065 17/03 A2966 RMK AO2 SLP051 T01670028,M
ELY,2021-12-24 19:53,-114.8453,39.2950,1909.00,38.00,30.00,72.93,180.00,16.00,0.00,29.58,1000.30,10.00,28.00,CLR,M,M,M,M,M,M,M,M,M,M,M,29.00,190.00,2021-12-24 19:32,28.11,KELY 241953Z AUTO 18016G28KT 10SM CLR 03/M01 A2958 RMK AO2 PK WND 19029/1932 SLP003 T00331011,M
P68,2021-12-24 19:53,-116.0056,39.6014,1993.00,37.00,30.00,75.56,0.00,0.00,0.00,29.56,999.90,M,M,M,M,M,M,M,M,M,M,M,M,M,M,M,M,M,37.00,KP68 241953Z AUTO 00000KT 03/M01 A2956 RMK AO1 SLP999 T00281011,M
LOL,2021-12-24 19:53,-118.5701,40.0684,1192.43,42.00,35.00,76.04,200.00,14.00,T,29.54,M,10.00,M,FEW,M,M,M,7000.00,M,M,M,M,M,M,M,M,M,M,34.18,KLOL 241953Z AUTO 20014KT 10SM FEW070 06/02 A2954 RMK AO2 RAB1855E36 SLPNO P0000 T00560017 $,M
DRA,2021-12-24 19:53,-116.0278,36.6206,1009.00,57.00,37.00,47.04,190.00,14.00,0.00,29.67,1002.10,10.00,29.00,SCT,M,M,M,4600.00,M,M,M,M,M,M,M,37.00,200.00,2021-12-24 19:08,57.00,KDRA 241953Z AUTO 19014G29KT 10SM SCT046 14/03 A2967 RMK AO2 PK WND 20037/1908 SLP021 T01390028,M
CXP,2021-12-24 19:55,-119.7326,39.1923,1431.00,44.60,32.00,61.03,230.00,11.00,0.00,29.62,M,10.00,23.00,FEW,FEW,FEW,M,2100.00,2700.00,4700.00,M,M,M,M,M,M,M,M,38.39,KCXP 241955Z AUTO 23011G23KT 210V270 10SM FEW021 FEW027 FEW047 07/M00 A2962 RMK AO2,M
BVU,2021-12-24 19:55,-114.8611,35.9475,671.00,60.80,41.00,48.00,200.00,17.00,0.00,29.71,M,10.00,23.00,SCT,M,M,M,6000.00,M,M,M,M,M,M,M,M,M,M,60.80,KBVU 241955Z AUTO 20017G23KT 10SM SCT060 16/05 A2971 RMK AO2,M
RNO,2021-12-24 19:55,-119.7711,39.4839,1341.00,47.00,28.90,49.32,250.00,16.00,0.00,29.55,999.60,10.00,32.00,SCT,M,M,M,4200.00,M,M,M,M,M,M,M,37.00,250.00,2021-12-24 19:40,39.84,KRNO 241955Z 25016G32KT 10SM SCT042 08/M02 A2955 RMK AO2 PK WND 25037/1940 SLP996 MTN TOPS OBSCD SW THRU NW T00831017,M
RTS,2021-12-24 19:55,-119.8764,39.6682,1539.00,39.20,28.40,64.93,260.00,15.00,0.00,29.59,M,10.00,26.00,FEW,SCT,M,M,3500.00,4400.00,M,M,M,M,M,M,M,M,M,30.11,KRTS 241955Z AUTO 26015G26KT 10SM FEW035 SCT044 04/M02 A2959 RMK AO2,M
05U,2021-12-24 19:55,-116.0051,39.6042,1811.23,37.40,30.20,74.98,0.00,0.00,0.05,29.58,M,10.00,M,SCT,M,M,M,6000.00,M,M,M,M,M,M,M,M,M,M,37.40,K05U 241955Z AUTO 00000KT 10SM SCT060 03/M01 A2958 RMK A01 P0005,M
MEV,2021-12-24 19:55,-119.7500,38.9963,1441.42,44.60,30.20,56.74,250.00,20.00,0.01,29.61,M,10.00,29.00,CLR,M,M,M,M,M,M,M,M,M,M,M,M,M,M,35.87,KMEV 241955Z AUTO 25020G29KT 10SM CLR 07/M01 A2961 RMK AO2 P0001,M
BAM,2021-12-24 19:55,-116.8743,40.5990,1382.36,33.80,33.80,100.00,230.00,14.00,0.00,29.55,M,1.25,M,OVC,M,M,M,800.00,M,M,M,M,M,M,M,M,M,M,23.48,KBAM 241955Z AUTO 23014KT 1 1/4SM OVC008 01/01 A2955 RMK AO1,M
HTH,2021-12-24 19:55,-118.6315,38.5448,1282.89,48.20,30.20,49.53,170.00,15.00,0.00,29.62,M,10.00,M,SCT,SCT,M,M,6000.00,8000.00,M,M,M,M,M,M,M,M,M,41.78,KHTH 241955Z AUTO 17015KT 10SM SCT060 SCT080 09/M01 A2962 RMK A01,M
TMT,2021-12-24 19:55,-117.1971,39.4643,1749.34,34.70,31.60,88.31,230.00,14.00,0.00,29.60,M,10.00,M,SCT,BKN,OVC,M,2400.00,3000.00,6000.00,M,-SN,M,M,M,M,M,M,24.64,KTMT 241955Z AUTO 23014KT 10SM -SN SCT024 BKN030 OVC060 02/00 A2960 RMK AO2 T00151002,M
LAS,2021-12-24 19:56,-115.1634,36.0719,663.00,61.00,38.00,42.24,200.00,9.00,0.00,29.68,1004.00,10.00,21.00,FEW,M,M,M,8500.00,M,M,M,M,M,M,M,26.00,200.00,2021-12-24 19:33,61.00,KLAS 241956Z 20009G21KT 10SM FEW085 16/03 A2968 RMK AO2 PK WND 20026/1933 SLP040 T01610033,M
NFL,2021-12-24 19:56,-118.7010,39.4166,1199.00,47.00,34.00,60.61,210.00,17.00,0.00,29.57,1000.10,10.00,M,BKN,M,M,M,5500.00,M,M,M,M,M,M,M,M,M,M,39.59,KNFL 241956Z AUTO 21017KT 10SM BKN055 08/01 A2957 RMK AO2 SLP001 T00830011,M
EKO,2021-12-24 19:56,-115.7860,40.8242,1367.00,34.00,30.90,88.27,230.00,17.00,0.02,29.50,999.20,2.50,24.00,BKN,OVC,M,M,1000.00,1400.00,M,M,-SN BR,M,M,M,M,M,M,22.70,KEKO 241956Z AUTO 23017G24KT 2 1/2SM -SN BR BKN010 OVC014 01/M01 A2950 RMK AO2 UPB28E31SNE28B48 SLP992 P0002 T00111006,M
WMC,2021-12-24 19:56,-117.8072,40.9019,1315.00,41.00,32.00,70.08,190.00,13.00,T,29.50,998.40,10.00,21.00,FEW,M,M,M,7000.00,M,M,M,M,M,M,M,27.00,240.00,2021-12-24 19:29,33.10,KWMC 241956Z AUTO 19013G21KT 10SM FEW070 05/00 A2950 RMK AO2 PK WND 24027/1929 RAB05E18 SLP984 P0000 T00500000,M
HND,2021-12-24 19:56,-115.1344,35.9729,742.79,60.00,40.00,47.15,220.00,16.00,0.00,29.70,1006.60,10.00,24.00,BKN,M,M,M,5000.00,M,M,M,M,M,M,M,26.00,220.00,2021-12-24 19:15,60.10,KHND 241956Z 22016G24KT 10SM BKN050 16/04 A2970 RMK AO2 PK WND 22026/1915 SLP066 T01560044,M
TPH,2021-12-24 19:56,-117.0904,38.0505,1654.00,41.00,35.00,79.34,190.00,10.00,0.00,29.66,1003.70,10.00,M,FEW,SCT,BKN,M,2300.00,2800.00,12000.00,M,M,M,M,M,M,M,M,34.25,KTPH 241956Z AUTO 19010KT 10SM FEW023 SCT028 BKN120 05/02 A2966 RMK AO2 SLP037 T00500017,M
LSV,2021-12-24 19:58,-115.0343,36.2362,570.00,62.60,38.50,40.86,210.00,19.00,0.00,29.65,1003.00,10.00,26.00,CLR,M,M,M,M,M,M,M,M,M,M,M,26.00,210.00,2021-12-24 19:10,62.60,KLSV 241958Z AUTO 21019G26KT 10SM CLR 17/04 A2965 RMK AO2 PK WND 21026/10 SLP030 T01700036 $,M
INS,2021-12-24 19:58,-115.6733,36.5872,955.00,59.00,29.80,32.81,220.00,17.00,0.00,29.65,1001.60,10.00,22.00,CLR,M,M,M,M,M,M,M,M,M,M,M,26.00,250.00,2021-12-24 19:20,59.00,KINS 241958Z AUTO 22017G22KT 10SM CLR 15/M01 A2965 RMK AO2 PK WND 25026/20 SLP016 T01501012 VISNO RWY08 $,M
EKO,2021-12-24 20:04,-115.7860,40.8242,1367.00,34.00,30.90,88.27,230.00,12.00,0.01,29.50,M,1.75,24.00,BKN,OVC,M,M,1000.00,1500.00,M,M,-SN BR,M,M,M,M,M,M,24.55,KEKO 242004Z AUTO 23012G24KT 1 3/4SM -SN BR BKN010 OVC015 01/M01 A2950 RMK AO2 P0001 T00111006,M
EKO,2021-12-24 20:07,-115.7860,40.8242,1367.00,34.00,30.90,88.27,230.00,12.00,0.02,29.49,M,2.00,22.00,FEW,OVC,M,M,600.00,1000.00,M,M,-SN BR,M,M,M,M,M,M,24.55,KEKO 242007Z AUTO 23012G22KT 2SM -SN BR FEW006 OVC010 01/M01 A2949 RMK AO2 P0002 T00111006,M
TPH,2021-12-24 20:10,-117.0904,38.0505,1654.00,42.00,36.00,78.80,200.00,14.00,0.00,29.66,M,10.00,18.00,SCT,BKN,OVC,M,2100.00,2700.00,11000.00,M,M,M,M,M,M,M,M,34.18,KTPH 242010Z AUTO 20014G18KT 10SM SCT021 BKN027 OVC110 06/02 A2966 RMK AO2 T00560022,M
CXP,2021-12-24 20:10,-119.7326,39.1923,1431.00,44.60,30.20,56.74,240.00,16.00,0.00,29.62,M,10.00,26.00,FEW,FEW,SCT,M,2000.00,2600.00,4500.00,M,M,M,M,M,M,M,M,36.84,KCXP 242010Z AUTO 24016G26KT 220V280 10SM FEW020 FEW026 SCT045 07/M01 A2962 RMK AO2,M
05U,2021-12-24 20:15,-116.0051,39.6042,1811.23,37.40,30.20,74.98,260.00,7.00,0.00,29.58,M,10.00,M,SCT,M,M,M,5500.00,M,M,M,M,M,M,M,M,M,M,31.36,K05U 242015Z AUTO 26007KT 230V340 10SM SCT055 03/M01 A2958 RMK A01,M
BVU,2021-12-24 20:15,-114.8611,35.9475,671.00,62.60,41.00,45.04,220.00,15.00,0.00,29.71,M,10.00,22.00,BKN,M,M,M,6000.00,M,M,M,M,M,M,M,M,M,M,62.60,KBVU 242015Z AUTO 22015G22KT 10SM BKN060 17/05 A2971 RMK AO2,M
TMT,2021-12-24 20:15,-117.1971,39.4643,1749.34,35.20,30.90,84.15,230.00,12.00,0.00,29.60,M,10.00,M,SCT,SCT,OVC,M,2100.00,3100.00,6000.00,M,M,M,M,M,M,M,M,26.07,KTMT 242015Z AUTO 23012KT 10SM SCT021 SCT031 OVC060 02/M01 A2960 RMK AO2 T00181006,M
HTH,2021-12-24 20:15,-118.6315,38.5448,1282.89,50.00,32.00,49.81,150.00,11.00,0.00,29.61,M,10.00,17.00,FEW,M,M,M,6000.00,M,M,M,M,M,M,M,M,M,M,50.00,KHTH 242015Z AUTO 15011G17KT 10SM FEW060 10/M00 A2961 RMK A01,M
RTS,2021-12-24 20:15,-119.8764,39.6682,1539.00,39.20,26.60,60.29,260.00,12.00,0.00,29.59,M,10.00,26.00,FEW,SCT,M,M,3700.00,4400.00,M,M,M,M,M,M,M,M,M,31.17,KRTS 242015Z AUTO 26012G26KT 10SM FEW037 SCT044 04/M03 A2959 RMK AO2,M
BAM,2021-12-24 20:15,-116.8743,40.5990,1382.36,33.80,33.80,100.00,260.00,12.00,0.00,29.54,M,1.25,M,OVC,M,M,M,1000.00,M,M,M,M,M,M,M,M,M,M,24.29,KBAM 242015Z AUTO 26012KT 1 1/4SM OVC010 01/01 A2954 RMK AO1,M
MEV,2021-12-24 20:15,-119.7500,38.9963,1441.42,42.80,33.80,70.28,230.00,17.00,0.00,29.62,M,10.00,25.00,FEW,M,M,M,5000.00,M,M,M,M,M,M,M,M,M,M,34.22,KMEV 242015Z AUTO 23017G25KT 10SM FEW050 06/01 A2962 RMK AO2,M
EKO,2021-12-24 20:18,-115.7860,40.8242,1367.00,34.00,32.00,92.29,230.00,9.00,0.02,29.49,M,7.00,M,OVC,M,M,M,1000.00,M,M,M,-SN,M,M,M,M,M,M,26.00,KEKO 242018Z AUTO 23009KT 7SM -SN OVC010 01/00 A2949 RMK AO2 P0002 T00110000,M
EKO,2021-12-24 20:30,-115.7860,40.8242,1367.00,34.00,32.00,92.29,220.00,8.00,0.02,29.50,M,5.00,M,SCT,OVC,M,M,700.00,1000.00,M,M,-SN BR,M,M,M,M,M,M,26.58,KEKO 242030Z AUTO 22008KT 5SM -SN BR SCT007 OVC010 01/00 A2950 RMK AO2 P0002 T00110000,M
CXP,2021-12-24 20:30,-119.7326,39.1923,1431.00,42.80,30.20,60.79,230.00,15.00,0.00,29.62,M,10.00,24.00,FEW,SCT,M,M,3300.00,4100.00,M,M,M,M,M,M,M,M,M,34.78,KCXP 242030Z AUTO 23015G24KT 200V260 10SM FEW033 SCT041 06/M01 A2962 RMK AO2,M
05U,2021-12-24 20:30,-116.0051,39.6042,1811.23,37.40,30.20,74.98,230.00,13.00,0.00,29.58,M,9.00,M,FEW,FEW,M,M,4800.00,5500.00,M,M,M,M,M,M,M,M,M,28.49,K05U 242030Z AUTO 23013KT 9SM FEW048 FEW055 03/M01 A2958 RMK A01,M
HTH,2021-12-24 20:35,-118.6315,38.5448,1282.89,51.80,28.40,40.25,250.00,13.00,0.00,29.61,M,10.00,23.00,CLR,M,M,M,M,M,M,M,M,M,M,M,M,M,M,51.80,KHTH 242035Z AUTO 25013G23KT 10SM CLR 11/M02 A2961 RMK A01,M
BVU,2021-12-24 20:35,-114.8611,35.9475,671.00,62.60,39.20,42.00,230.00,17.00,0.00,29.71,M,10.00,M,BKN,BKN,M,M,6000.00,7000.00,M,M,M,M,M,M,M,M,M,62.60,KBVU 242035Z AUTO 23017KT 10SM BKN060 BKN070 17/04 A2971 RMK AO2,M
TMT,2021-12-24 20:35,-117.1971,39.4643,1749.34,35.00,31.10,85.18,250.00,10.00,0.00,29.60,M,10.00,M,SCT,BKN,OVC,M,3300.00,4200.00,6000.00,M,M,M,M,M,M,M,M,26.86,KTMT 242035Z AUTO 25010KT 10SM SCT033 BKN042 OVC060 02/00 A2960 RMK AO2 T00171005,M
RTS,2021-12-24 20:35,-119.8764,39.6682,1539.00,39.20,26.60,60.29,250.00,15.00,0.00,29.59,M,10.00,26.00,FEW,FEW,M,M,4300.00,5000.00,M,M,M,M,M,M,M,M,M,30.11,KRTS 242035Z AUTO 25015G26KT 10SM FEW043 FEW050 04/M03 A2959 RMK AO2,M
MEV,2021-12-24 20:35,-119.7500,38.9963,1441.42,42.80,32.00,65.38,230.00,11.00,0.00,29.63,M,10.00,19.00,FEW,FEW,SCT,M,2500.00,3800.00,5500.00,M,-RA,M,M,M,M,M,M,36.11,KMEV 242035Z AUTO 23011G19KT 10SM -RA FEW025 FEW038 SCT055 06/00 A2963 RMK AO2,M
BAM,2021-12-24 20:35,-116.8743,40.5990,1382.36,35.60,35.60,100.00,270.00,13.00,0.00,29.54,M,4.00,M,OVC,M,M,M,1200.00,M,M,M,M,M,M,M,M,M,M,26.18,KBAM 242035Z AUTO 27013KT 4SM OVC012 02/02 A2954 RMK AO1,M
EKO,2021-12-24 20:43,-115.7860,40.8242,1367.00,34.00,32.00,92.29,220.00,8.00,0.03,29.50,M,4.00,M,BKN,OVC,M,M,700.00,1100.00,M,M,-SN BR,M,M,M,M,M,M,26.58,KEKO 242043Z AUTO 22008KT 4SM -SN BR BKN007 OVC011 01/00 A2950 RMK AO2 P0003 T00110000,M
EKO,2021-12-24 20:49,-115.7860,40.8242,1367.00,34.00,32.00,92.29,240.00,10.00,0.04,29.50,M,1.75,M,OVC,M,M,M,700.00,M,M,M,-SN BR,M,M,M,M,M,M,25.48,KEKO 242049Z AUTO 24010KT 1 3/4SM -SN BR OVC007 01/00 A2950 RMK AO2 VIS 1V3 P0004 T00110000,M
TPH,2021-12-24 20:52,-117.0904,38.0505,1654.00,42.80,33.80,70.28,210.00,10.00,0.00,29.65,M,10.00,M,SCT,BKN,M,M,2700.00,3700.00,M,M,M,M,M,M,M,M,M,36.51,KTPH 242052Z AUTO 21010KT 10SM SCT027 BKN037 06/01 A2965 RMK AO2,M
DRA,2021-12-24 20:53,-116.0278,36.6206,1009.00,55.00,37.00,50.58,200.00,16.00,0.00,29.66,1002.00,10.00,26.00,BKN,M,M,M,4600.00,M,M,M,M,M,M,M,34.00,180.00,2021-12-24 20:27,55.00,KDRA 242053Z AUTO 20016G26KT 10SM BKN046 13/03 A2966 RMK AO2 PK WND 18034/2027 SLP020 T01280028 58004,M
LOL,2021-12-24 20:53,-118.5701,40.0684,1192.43,46.00,36.00,67.90,210.00,13.00,0.00,29.52,999.80,10.00,M,FEW,BKN,OVC,M,3300.00,4700.00,7000.00,M,M,M,M,M,M,M,M,39.50,KLOL 242053Z AUTO 21013KT 10SM FEW033 BKN047 OVC070 08/02 A2952 RMK AO2 SLP998 60000 T00780022 58015 $,M
ELY,2021-12-24 20:53,-114.8453,39.2950,1909.00,37.00,30.00,75.56,220.00,21.00,0.00,29.57,999.90,10.00,31.00,FEW,SCT,BKN,M,5500.00,8000.00,10000.00,M,M,M,M,M,35.00,220.00,2021-12-24 20:06,25.52,KELY 242053Z AUTO 22021G31KT 10SM FEW055 SCT080 BKN100 03/M01 A2957 RMK AO2 PK WND 22035/2006 SLP999 T00281011 56011,M
VGT,2021-12-24 20:53,-115.1933,36.2111,667.00,61.00,36.00,39.19,220.00,14.00,0.00,29.66,1005.00,10.00,M,CLR,M,M,M,M,M,M,M,M,M,M,M,27.00,220.00,2021-12-24 20:34,61.00,KVGT 242053Z 22014KT 10SM CLR 16/02 A2966 RMK AO2 PK WND 22027/2034 SLP050 T01610022 56016,M
P68,2021-12-24 20:53,-116.0056,39.6014,1993.00,39.00,30.90,72.45,270.00,8.00,0.00,29.55,999.80,M,M,M,M,M,M,M,M,M,M,M,M,M,M,M,M,M,32.74,KP68 242053Z AUTO 27008KT 04/M01 A2955 RMK AO1 SLP998 T00391006 56009,M
RTS,2021-12-24 20:55,-119.8764,39.6682,1539.00,39.20,26.60,60.29,250.00,17.00,0.00,29.59,M,10.00,26.00,CLR,M,M,M,M,M,M,M,M,M,M,M,M,M,M,29.51,KRTS 242055Z AUTO 25017G26KT 10SM CLR 04/M03 A2959 RMK AO2,M
05U,2021-12-24 20:55,-116.0051,39.6042,1811.23,41.00,32.00,70.08,270.00,6.00,0.06,29.57,M,10.00,M,FEW,SCT,BKN,M,4200.00,5000.00,6000.00,M,M,M,M,M,M,M,M,36.37,K05U 242055Z AUTO 27006KT 10SM FEW042 SCT050 BKN060 05/M00 A2957 RMK A01 P0006,M
MEV,2021-12-24 20:55,-119.7500,38.9963,1441.42,42.80,32.00,65.38,240.00,12.00,0.01,29.63,M,10.00,18.00,FEW,SCT,BKN,M,1500.00,2900.00,3700.00,M,-RA,M,M,M,M,M,M,35.75,KMEV 242055Z AUTO 24012G18KT 10SM -RA FEW015 SCT029 BKN037 06/M00 A2963 RMK AO2 P0001,M
BAM,2021-12-24 20:55,-116.8743,40.5990,1382.36,35.60,35.60,100.00,250.00,12.00,0.00,29.53,M,2.50,M,OVC,M,M,M,1000.00,M,M,M,M,M,M,M,M,M,M,26.58,KBAM 242055Z AUTO 25012KT 2 1/2SM OVC010 02/02 A2953 RMK AO1,M
HTH,2021-12-24 20:55,-118.6315,38.5448,1282.89,51.80,30.20,43.32,210.00,15.00,0.00,29.60,M,10.00,M,CLR,M,M,M,M,M,M,M,M,M,M,M,M,M,M,51.80,KHTH 242055Z AUTO 21015KT 10SM CLR 11/M01 A2960 RMK A01,M
BVU,2021-12-24 20:55,-114.8611,35.9475,671.00,60.80,39.20,44.76,240.00,14.00,0.00,29.71,M,10.00,M,OVC,M,M,M,6000.00,M,M,M,M,M,M,M,M,M,M,60.80,KBVU 242055Z AUTO 24014KT 10SM OVC060 16/04 A2971 RMK AO2,M
TMT,2021-12-24 20:55,-117.1971,39.4643,1749.34,35.60,31.80,85.90,240.00,9.00,0.00,29.59,M,10.00,M,SCT,BKN,OVC,M,2700.00,4300.00,5500.00,M,M,M,M,M,M,M,M,27.99,KTMT 242055Z AUTO 24009KT 10SM SCT027 BKN043 OVC055 02/00 A2959 RMK AO2 T00201001,M
RNO,2021-12-24 20:55,-119.7711,39.4839,1341.00,46.00,25.00,43.44,250.00,20.00,0.00,29.56,1000.00,10.00,32.00,SCT,M,M,M,4200.00,M,M,M,M,M,M,M,33.00,240.00,2021-12-24 20:29,37.73,KRNO 242055Z 25020G32KT 10SM SCT042 08/M04 A2956 RMK AO2 PK WND 24033/2029 SLP000 MTN TOPS OBSCD SW THRU NW T00781039 55002,M
CXP,2021-12-24 20:55,-119.7326,39.1923,1431.00,44.60,28.40,52.72,240.00,14.00,0.00,29.62,M,10.00,25.00,FEW,FEW,FEW,M,2200.00,3300.00,4100.00,M,M,M,M,M,M,M,M,37.40,KCXP 242055Z AUTO 24014G25KT 10SM FEW022 FEW033 FEW041 07/M02 A2962 RMK AO2,M
TPH,2021-12-24 20:56,-117.0904,38.0505,1654.00,43.00,35.00,73.45,250.00,8.00,0.00,29.66,1003.40,10.00,M,BKN,BKN,M,M,2700.00,3800.00,M,M,M,M,M,M,M,M,M,37.66,KTPH 242056Z AUTO 25008KT 190V280 10SM BKN027 BKN038 06/02 A2966 RMK AO2 SLP034 T00610017 55004,M
LAS,2021-12-24 20:56,-115.1634,36.0719,663.00,61.00,38.00,42.24,210.00,11.00,0.00,29.68,1003.90,10.00,26.00,FEW,M,M,M,7000.00,M,M,M,M,M,M,M,27.00,190.00,2021-12-24 20:16,61.00,KLAS 242056Z 21011G26KT 10SM FEW070 16/03 A2968 RMK AO2 PK WND 19027/2016 SLP039 T01610033 56014,M
WMC,2021-12-24 20:56,-117.8072,40.9019,1315.00,42.00,30.90,64.24,220.00,11.00,0.01,29.48,997.80,10.00,M,FEW,BKN,OVC,M,3900.00,5000.00,9000.00,M,M,M,M,M,M,M,M,35.23,KWMC 242056Z AUTO 22011KT 10SM FEW039 BKN050 OVC090 06/M01 A2948 RMK AO2 RAB42E54 SLP978 P0001 60001 T00561006 58015,M
NFL,2021-12-24 20:56,-118.7010,39.4166,1199.00,50.00,35.00,56.39,200.00,11.00,0.00,29.56,999.80,10.00,19.00,FEW,BKN,OVC,M,4400.00,6000.00,7000.00,M,M,M,M,M,M,M,M,50.00,KNFL 242056Z AUTO 20011G19KT 170V230 10SM FEW044 BKN060 OVC070 10/02 A2956 RMK AO2 SLP998 T01000017 58007,M
HND,2021-12-24 20:56,-115.1344,35.9729,742.79,60.00,42.00,51.35,200.00,17.00,0.00,29.70,1006.60,10.00,21.00,SCT,M,M,M,5500.00,M,M,M,M,M,M,M,M,M,M,60.10,KHND 242056Z 20017G21KT 10SM SCT055 16/06 A2970 RMK AO2 SLP066 T01560056 56013,M
EKO,2021-12-24 20:56,-115.7860,40.8242,1367.00,34.00,30.90,88.27,260.00,12.00,0.05,29.50,999.50,1.25,M,OVC,M,M,M,700.00,M,M,M,-SN BR,M,M,M,M,M,M,24.55,KEKO 242056Z AUTO 26012KT 1 1/4SM -SN BR OVC007 01/M01 A2950 RMK AO2 SLP995 P0005 60008 T00111006 57007,M
INS,2021-12-24 20:58,-115.6733,36.5872,955.00,59.40,29.50,31.95,250.00,15.00,0.00,29.65,1001.40,10.00,M,CLR,M,M,M,M,M,M,M,M,M,M,M,27.00,220.00,2021-12-24 20:05,59.40,KINS 242058Z AUTO 25015KT 10SM CLR 15/M01 A2965 RMK AO2 PK WND 22027/05 SLP014 T01521014 55010 VISNO RWY08 $,M
LSV,2021-12-24 20:58,-115.0343,36.2362,570.00,63.30,37.20,37.89,180.00,18.00,0.00,29.65,1003.10,10.00,M,CLR,M,M,M,M,M,M,M,M,M,M,M,26.00,200.00,2021-12-24 20:21,63.30,KLSV 242058Z AUTO 18018KT 10SM CLR 17/03 A2965 RMK AO2 PK WND 20026/21 SLP031 T01740029 56017 $,M
EKO,2021-12-24 21:10,-115.7860,40.8242,1367.00,34.00,30.90,88.27,250.00,21.00,0.02,29.49,M,0.50,33.00,VV ,M,M,M,800.00,M,M,M,SN FG,M,M,M,33.00,250.00,2021-12-24 21:09,21.52,KEKO 242110Z AUTO 25021G33KT 1/2SM SN FG VV008 01/M01 A2949 RMK AO2 PK WND 25033/2109 P0002 T00111006,M
RTS,2021-12-24 21:15,-119.8764,39.6682,1539.00,39.20,24.80,55.95,230.00,19.00,0.00,29.60,M,10.00,26.00,FEW,M,M,M,5000.00,M,M,M,M,M,M,M,M,M,M,28.96,KRTS 242115Z AUTO 23019G26KT 10SM FEW050 04/M04 A2960 RMK AO2,M
BVU,2021-12-24 21:15,-114.8611,35.9475,671.00,60.80,39.20,44.76,220.00,16.00,0.00,29.71,M,10.00,M,BKN,BKN,BKN,M,6000.00,7000.00,8000.00,M,M,M,M,M,M,M,M,60.80,KBVU 242115Z AUTO 22016KT 10SM BKN060 BKN070 BKN080 16/04 A2971 RMK AO2,M
CXP,2021-12-24 21:15,-119.7326,39.1923,1431.00,42.80,26.60,52.45,240.00,16.00,0.00,29.63,M,10.00,27.00,FEW,M,M,M,4800.00,M,M,M,M,M,M,M,M,M,M,34.50,KCXP 242115Z AUTO 24016G27KT 10SM FEW048 06/M03 A2963 RMK AO2,M
05U,2021-12-24 21:15,-116.0051,39.6042,1811.23,39.20,32.00,75.16,0.00,0.00,0.00,29.57,M,10.00,M,SCT,BKN,M,M,4400.00,5000.00,M,M,M,M,M,M,M,M,M,39.20,K05U 242115Z AUTO 00000KT 10SM SCT044 BKN050 04/M00 A2957 RMK A01,M
MEV,2021-12-24 21:15,-119.7500,38.9963,1441.42,44.60,26.60,48.96,260.00,20.00,0.00,29.62,M,10.00,25.00,FEW,FEW,SCT,M,2300.00,3000.00,6000.00,M,M,M,M,M,M,M,M,35.87,KMEV 242115Z AUTO 26020G25KT 10SM FEW023 FEW030 SCT060 07/M03 A2962 RMK AO2,M
BAM,2021-12-24 21:15,-116.8743,40.5990,1382.36,33.80,33.80,100.00,250.00,11.00,0.00,29.53,M,1.50,M,BKN,OVC,M,M,1000.00,1600.00,M,M,M,M,M,M,M,M,M,24.74,KBAM 242115Z AUTO 25011KT 1 1/2SM BKN010 OVC016 01/01 A2953 RMK AO1,M
HTH,2021-12-24 21:15,-118.6315,38.5448,1282.89,51.80,28.40,40.25,220.00,12.00,0.00,29.60,M,10.00,M,CLR,M,M,M,M,M,M,M,M,M,M,M,M,M,M,51.80,KHTH 242115Z AUTO 22012KT 10SM CLR 11/M02 A2960 RMK A01,M
TMT,2021-12-24 21:15,-117.1971,39.4643,1749.34,36.30,31.30,81.88,220.00,7.00,0.00,29.59,M,10.00,M,SCT,BKN,M,M,5500.00,6500.00,M,M,M,M,M,M,M,M,M,30.02,KTMT 242115Z AUTO 22007KT 10SM SCT055 BKN065 02/00 A2959 RMK AO2 T00241004,M
EKO,2021-12-24 21:27,-115.7860,40.8242,1367.00,34.00,30.90,88.27,230.00,14.00,0.04,29.49,M,1.00,26.00,VV ,M,M,M,1000.00,M,M,M,-SN BR,M,M,M,36.00,240.00,2021-12-24 21:13,23.74,KEKO 242127Z AUTO 23014G26KT 1SM -SN BR VV010 01/M01 A2949 RMK AO2 PK WND 24036/2113 P0004 T00111006,M
TPH,2021-12-24 21:30,-117.0904,38.0505,1654.00,44.00,34.00,67.41,230.00,7.00,0.00,29.66,M,10.00,M,SCT,M,M,M,2500.00,M,M,M,M,M,M,M,M,M,M,39.53,KTPH 242130Z AUTO 23007KT 10SM SCT025 07/01 A2966 RMK AO2 T00670011,M
05U,2021-12-24 21:35,-116.0051,39.6042,1811.23,39.20,32.00,75.16,0.00,0.00,0.00,29.58,M,10.00,M,BKN,BKN,OVC,M,4000.00,4500.00,5000.00,M,M,M,M,M,M,M,M,39.20,K05U 242135Z AUTO 00000KT 10SM BKN040 BKN045 OVC050 04/00 A2958 RMK A01,M
MEV,2021-12-24 21:35,-119.7500,38.9963,1441.42,42.80,26.60,52.45,250.00,14.00,0.00,29.64,M,10.00,23.00,FEW,FEW,SCT,M,3400.00,4300.00,6000.00,M,M,M,M,M,M,M,M,35.08,KMEV 242135Z AUTO 25014G23KT 10SM FEW034 FEW043 SCT060 06/M03 A2964 RMK AO2,M
BVU,2021-12-24 21:35,-114.8611,35.9475,671.00,60.80,39.20,44.76,210.00,15.00,0.00,29.70,M,10.00,22.00,FEW,FEW,FEW,M,6000.00,7000.00,8000.00,M,M,M,M,M,M,M,M,60.80,KBVU 242135Z AUTO 21015G22KT 10SM FEW060 FEW070 FEW080 16/04 A2970 RMK AO2,M
CXP,2021-12-24 21:35,-119.7326,39.1923,1431.00,44.60,24.80,45.44,260.00,13.00,0.00,29.63,M,10.00,28.00,FEW,FEW,M,M,2700.00,4800.00,M,M,M,M,M,M,M,M,M,37.71,KCXP 242135Z AUTO 26013G28KT 10SM FEW027 FEW048 07/M04 A2963 RMK AO2,M
RTS,2021-12-24 21:35,-119.8764,39.6682,1539.00,39.20,23.00,51.89,250.00,27.00,0.00,29.60,M,10.00,33.00,FEW,FEW,M,M,5000.00,6000.00,M,M,M,M,M,M,M,M,M,27.16,KRTS 242135Z AUTO 25027G33KT 10SM FEW050 FEW060 04/M05 A2960 RMK AO2,M
TMT,2021-12-24 21:35,-117.1971,39.4643,1749.34,37.60,31.80,79.38,230.00,6.00,0.00,29.59,M,10.00,M,SCT,BKN,M,M,5000.00,6500.00,M,M,M,M,M,M,M,M,M,32.27,KTMT 242135Z AUTO 23006KT 10SM SCT050 BKN065 03/00 A2959 RMK AO2 T00311001,M
BAM,2021-12-24 21:35,-116.8743,40.5990,1382.36,35.60,35.60,100.00,250.00,9.00,0.00,29.53,M,10.00,M,SCT,SCT,OVC,M,1000.00,1700.00,2800.00,M,M,M,M,M,M,M,M,27.99,KBAM 242135Z AUTO 25009KT 10SM SCT010 SCT017 OVC028 02/02 A2953 RMK AO1,M
HTH,2021-12-24 21:35,-118.6315,38.5448,1282.89,51.80,26.60,37.38,240.00,9.00,0.00,29.61,M,10.00,23.00,CLR,M,M,M,M,M,M,M,M,M,M,M,M,M,M,51.80,KHTH 242135Z AUTO 24009G23KT 10SM CLR 11/M03 A2961 RMK A01,M
EKO,2021-12-24 21:46,-115.7860,40.8242,1367.00,33.00,30.90,91.51,230.00,10.00,0.05,29.50,M,0.75,M,VV ,M,M,M,1200.00,M,M,M,-SN BR,M,M,M,36.00,240.00,2021-12-24 21:13,24.35,KEKO 242146Z AUTO 23010KT 3/4SM -SN BR VV012 01/M01 A2950 RMK AO2 PK WND 24036/2113 P0005 T00061006,M
LOL,2021-12-24 21:53,-118.5701,40.0684,1192.43,48.00,28.90,47.32,250.00,30.00,0.00,29.53,999.80,10.00,38.00,CLR,M,M,M,M,M,M,M,M,M,M,M,38.00,240.00,2021-12-24 21:51,38.70,KLOL 242153Z AUTO 25030G38KT 10SM CLR 09/M02 A2953 RMK AO2 PK WND 24038/2151 SLP998 T00891017 $,M
ELY,2021-12-24 21:53,-114.8453,39.2950,1909.00,36.00,28.90,75.15,200.00,18.00,T,29.59,1000.80,2.50,29.00,BKN,BKN,BKN,M,3100.00,5500.00,7000.00,M,-SN,M,M,M,30.00,220.00,2021-12-24 21:07,25.01,KELY 242153Z AUTO 20018G29KT 2 1/2SM -SN BKN031 BKN055 BKN070 02/M02 A2959 RMK AO2 PK WND 22030/2107 UPB21E44SNB44 SLP008 P0000 T00221017,M
VGT,2021-12-24 21:53,-115.1933,36.2111,667.00,63.00,36.00,36.52,210.00,22.00,0.00,29.62,1003.90,10.00,29.00,CLR,M,M,M,M,M,M,M,M,M,M,M,29.00,210.00,2021-12-24 21:53,63.00,KVGT 242153Z 21022G29KT 10SM CLR 17/02 A2962 RMK AO2 PK WND 21029/2153 SLP039 T01720022,M
DRA,2021-12-24 21:53,-116.0278,36.6206,1009.00,55.00,36.00,48.62,180.00,19.00,0.00,29.67,1002.30,10.00,31.00,OVC,M,M,M,4400.00,M,M,M,M,M,M,M,35.00,200.00,2021-12-24 21:16,55.00,KDRA 242153Z AUTO 18019G31KT 10SM OVC044 13/02 A2967 RMK AO2 PK WND 20035/2116 SLP023 T01280022,M
RTS,2021-12-24 21:55,-119.8764,39.6682,1539.00,39.20,24.80,55.95,230.00,17.00,0.00,29.61,M,10.00,30.00,FEW,FEW,M,M,5000.00,6000.00,M,M,M,M,M,M,M,M,M,29.51,KRTS 242155Z AUTO 23017G30KT 10SM FEW050 FEW060 04/M04 A2961 RMK AO2,M
RNO,2021-12-24 21:55,-119.7711,39.4839,1341.00,45.00,21.00,38.14,250.00,17.00,0.00,29.60,1001.70,10.00,30.00,SCT,M,M,M,4500.00,M,M,M,M,M,M,M,30.00,260.00,2021-12-24 21:52,37.11,KRNO 242155Z 25017G30KT 10SM SCT045 07/M06 A2960 RMK AO2 PK WND 26030/2152 SLP017 MTN TOPS OBSCD SW T00721061,M
CXP,2021-12-24 21:55,-119.7326,39.1923,1431.00,42.80,21.20,41.84,240.00,16.00,0.00,29.65,M,10.00,26.00,CLR,M,M,M,M,M,M,M,M,M,M,M,M,M,M,34.50,KCXP 242155Z AUTO 24016G26KT 10SM CLR 06/M06 A2965 RMK AO2,M
BAM,2021-12-24 21:55,-116.8743,40.5990,1382.36,37.40,37.40,100.00,260.00,6.00,0.00,29.52,M,10.00,M,SCT,BKN,OVC,M,2400.00,4800.00,6000.00,M,M,M,M,M,M,M,M,32.03,KBAM 242155Z AUTO 26006KT 10SM SCT024 BKN048 OVC060 03/03 A2952 RMK AO1,M
HTH,2021-12-24 21:55,-118.6315,38.5448,1282.89,51.80,24.80,34.69,M,6.00,0.00,29.61,M,10.00,M,CLR,M,M,M,M,M,M,M,M,M,M,M,M,M,M,51.80,KHTH 242155Z AUTO VRB06KT 210V280 10SM CLR 11/M04 A2961 RMK A01,M
BVU,2021-12-24 21:55,-114.8611,35.9475,671.00,59.00,39.20,47.72,210.00,20.00,0.00,29.70,M,10.00,M,CLR,M,M,M,M,M,M,M,M,M,M,M,M,M,M,59.00,KBVU 242155Z AUTO 21020KT 10SM CLR 15/04 A2970 RMK AO2,M
MEV,2021-12-24 21:55,-119.7500,38.9963,1441.42,42.80,23.00,45.14,230.00,22.00,0.00,29.66,M,10.00,28.00,FEW,FEW,FEW,M,3200.00,4300.00,4900.00,M,M,M,M,M,M,M,M,33.04,KMEV 242155Z AUTO 23022G28KT 10SM FEW032 FEW043 FEW049 06/M05 A2966 RMK AO2,M
TMT,2021-12-24 21:55,-117.1971,39.4643,1749.34,38.00,30.90,75.05,210.00,12.00,0.00,29.58,M,10.00,M,SCT,SCT,M,M,5500.00,6500.00,M,M,M,M,M,M,M,M,M,29.77,KTMT 242155Z AUTO 21012KT 10SM SCT055 SCT065 03/M01 A2958 RMK AO2 T00341006,M
05U,2021-12-24 21:55,-116.0051,39.6042,1811.23,37.40,30.20,74.98,280.00,9.00,0.01,29.60,M,5.00,17.00,FEW,SCT,BKN,M,300.00,3100.00,3900.00,M,HZ,M,M,M,M,M,M,30.23,K05U 242155Z AUTO 28009G17KT 5SM HZ FEW003 SCT031 BKN039 03/M01 A2960 RMK A01 P0001,M
HND,2021-12-24 21:56,-115.1344,35.9729,742.79,59.00,41.00,51.18,200.00,19.00,0.00,29.71,1006.80,10.00,M,CLR,M,M,M,M,M,M,M,M,M,M,M,M,M,M,59.00,KHND 242156Z 20019KT 10SM CLR 15/05 A2971 RMK AO2 SLP068 T01500050,M
WMC,2021-12-24 21:56,-117.8072,40.9019,1315.00,41.00,32.00,70.08,230.00,15.00,T,29.47,997.60,10.00,29.00,SCT,BKN,BKN,M,4600.00,6000.00,8000.00,M,-RA,M,M,M,29.00,230.00,2021-12-24 21:51,32.45,KWMC 242156Z AUTO 23015G29KT 10SM -RA SCT046 BKN060 BKN080 05/00 A2947 RMK AO2 PK WND 23029/2151 RAB00E14B38 SLP976 P0000 T00500000,M
EKO,2021-12-24 21:56,-115.7860,40.8242,1367.00,33.00,32.00,95.67,230.00,8.00,0.06,29.49,999.10,1.00,M,VV ,M,M,M,1000.00,M,M,M,-SN BR,M,M,M,36.00,240.00,2021-12-24 21:13,25.47,KEKO 242156Z AUTO 23008KT 1SM -SN BR VV010 01/00 A2949 RMK AO2 PK WND 24036/2113 SLP991 P0006 T00060000,M
NFL,2021-12-24 21:56,-118.7010,39.4166,1199.00,52.00,30.90,44.24,230.00,19.00,0.00,29.56,999.70,10.00,27.00,SCT,M,M,M,6500.00,M,M,M,M,M,M,M,31.00,220.00,2021-12-24 21:30,52.00,KNFL 242156Z AUTO 23019G27KT 10SM SCT065 11/M01 A2956 RMK AO2 PK WND 22031/2130 SLP997 T01111006,M
LAS,2021-12-24 21:56,-115.1634,36.0719,663.00,61.00,37.00,40.77,190.00,16.00,0.00,29.69,1004.50,10.00,27.00,FEW,M,M,M,7000.00,M,M,M,M,M,M,M,27.00,200.00,2021-12-24 21:55,61.00,KLAS 242156Z 19016G27KT 10SM FEW070 16/03 A2969 RMK AO2 PK WND 20027/2155 SLP045 T01610028,M
TPH,2021-12-24 21:56,-117.0904,38.0505,1654.00,45.00,34.00,65.13,260.00,8.00,0.00,29.66,1003.40,10.00,M,FEW,M,M,M,2900.00,M,M,M,M,M,M,M,M,M,M,40.13,KTPH 242156Z AUTO 26008KT 10SM FEW029 07/01 A2966 RMK AO2 SLP034 T00720011,M
INS,2021-12-24 21:58,-115.6733,36.5872,955.00,59.40,27.90,29.92,230.00,19.00,0.00,29.64,1001.20,10.00,27.00,CLR,M,M,M,M,M,M,M,M,M,M,M,30.00,230.00,2021-12-24 21:56,59.40,KINS 242158Z AUTO 23019G27KT 10SM CLR 15/M02 A2964 RMK AO2 PK WND 23030/56 SLP012 T01521023 VISNO RWY08 $,M
LSV,2021-12-24 21:58,-115.0343,36.2362,570.00,63.50,37.40,37.92,190.00,23.00,0.00,29.63,1002.30,10.00,M,CLR,M,M,M,M,M,M,M,M,M,M,M,29.00,190.00,2021-12-24 21:30,63.50,KLSV 242158Z AUTO 19023KT 10SM CLR 18/03 A2963 RMK AO2 PK WND 19029/30 SLP023 T01750030 $,M
ELY,2021-12-24 22:00,-114.8453,39.2950,1909.00,36.00,28.90,75.15,200.00,18.00,T,29.59,M,5.00,28.00,BKN,BKN,OVC,M,3300.00,5000.00,6500.00,M,-SN,M,M,M,28.00,200.00,2021-12-24 21:58,25.01,KELY 242200Z AUTO 20018G28KT 5SM -SN BKN033 BKN050 OVC065 02/M02 A2959 RMK AO2 PK WND 20028/2158 P0000 T00221017,M
EKO,2021-12-24 22:03,-115.7860,40.8242,1367.00,33.00,32.00,95.67,220.00,7.00,0.01,29.50,M,1.50,M,OVC,M,M,M,900.00,M,M,M,-SN BR,M,M,M,M,M,M,26.12,KEKO 242203Z AUTO 22007KT 1 1/2SM -SN BR OVC009 01/00 A2950 RMK AO2 P0001 T00060000,M
05U,2021-12-24 22:10,-116.0051,39.6042,1811.23,35.60,32.00,86.59,250.00,6.00,0.00,29.59,M,7.00,12.00,FEW,SCT,BKN,M,300.00,3700.00,7500.00,M,M,M,M,M,M,M,M,29.87,K05U 242210Z AUTO 25006G12KT 7SM FEW003 SCT037 BKN075 02/M00 A2959 RMK A01,M
BAM,2021-12-24 22:15,-116.8743,40.5990,1382.36,37.40,37.40,100.00,280.00,6.00,0.00,29.52,M,10.00,M,SCT,BKN,OVC,M,3300.00,4800.00,6000.00,M,M,M,M,M,M,M,M,32.03,KBAM 242215Z AUTO 28006KT 10SM SCT033 BKN048 OVC060 03/03 A2952 RMK AO1,M
TMT,2021-12-24 22:15,-117.1971,39.4643,1749.34,39.00,29.80,69.29,240.00,15.00,0.00,29.59,M,10.00,24.00,CLR,M,M,M,M,M,M,M,M,M,M,M,M,M,M,29.85,KTMT 242215Z AUTO 24015G24KT 10SM CLR 04/M01 A2959 RMK AO2 T00391012,M
HTH,2021-12-24 22:15,-118.6315,38.5448,1282.89,51.80,26.60,37.38,240.00,13.00,0.00,29.61,M,10.00,20.00,CLR,M,M,M,M,M,M,M,M,M,M,M,M,M,M,51.80,KHTH 242215Z AUTO 24013G20KT 10SM CLR 11/M03 A2961 RMK A01,M
BVU,2021-12-24 22:15,-114.8611,35.9475,671.00,59.00,39.20,47.72,220.00,22.00,0.00,29.71,M,10.00,M,CLR,M,M,M,M,M,M,M,M,M,M,M,M,M,M,59.00,KBVU 242215Z AUTO 22022KT 10SM CLR 15/04 A2971 RMK AO2,M
CXP,2021-12-24 22:15,-119.7326,39.1923,1431.00,41.00,21.20,44.85,250.00,13.00,0.00,29.66,M,10.00,26.00,FEW,M,M,M,5000.00,M,M,M,M,M,M,M,M,M,M,33.10,KCXP 242215Z AUTO 25013G26KT 10SM FEW050 05/M06 A2966 RMK AO2,M
RTS,2021-12-24 22:15,-119.8764,39.6682,1539.00,39.20,23.00,51.89,240.00,18.00,0.00,29.62,M,10.00,29.00,BKN,BKN,M,M,5500.00,6500.00,M,M,M,M,M,M,M,M,M,29.23,KRTS 242215Z AUTO 24018G29KT 10SM BKN055 BKN065 04/M05 A2962 RMK AO2,M
MEV,2021-12-24 22:15,-119.7500,38.9963,1441.42,42.80,21.20,41.84,250.00,15.00,0.00,29.66,M,10.00,25.00,CLR,M,M,M,M,M,M,M,M,M,M,M,M,M,M,34.78,KMEV 242215Z AUTO 25015G25KT 10SM CLR 06/M06 A2966 RMK AO2,M
EKO,2021-12-24 22:21,-115.7860,40.8242,1367.00,35.00,32.00,88.68,250.00,18.08,M,29.50,M,4.00,24.10,SCT,BKN,OVC,M,600.00,1299.00,2299.00,M,-SN BR,M,M,M,M,M,M,23.67,SPECI KEKO 242221Z 25018G24KT 4SM -SN BR SCT006 BKN013 OVC023 02/00 A2950 RMK AO2 P0002 T00170000,M
EKO,2021-12-24 22:33,-115.7860,40.8242,1367.00,35.00,32.00,88.33,240.00,15.00,0.03,29.50,M,10.00,M,FEW,BKN,OVC,M,600.00,1900.00,3200.00,M,M,M,M,M,M,M,M,24.80,KEKO 242233Z AUTO 24015KT 10SM FEW006 BKN019 OVC032 02/00 A2950 RMK AO2 SNE25 P0003 T00170000,M
CXP,2021-12-24 22:35,-119.7326,39.1923,1431.00,41.00,21.20,44.85,250.00,11.00,0.00,29.67,M,10.00,21.00,FEW,M,M,M,5000.00,M,M,M,M,M,M,M,M,M,M,33.84,KCXP 242235Z AUTO 25011G21KT 10SM FEW050 05/M06 A2967 RMK AO2,M
BVU,2021-12-24 22:35,-114.8611,35.9475,671.00,60.80,39.20,44.76,230.00,16.00,0.00,29.73,M,10.00,26.00,CLR,M,M,M,M,M,M,M,M,M,M,M,M,M,M,60.80,KBVU 242235Z AUTO 23016G26KT 10SM CLR 16/04 A2973 RMK AO2,M
05U,2021-12-24 22:35,-116.0051,39.6042,1811.23,37.40,32.00,80.65,260.00,4.00,0.00,29.60,M,10.00,M,SCT,BKN,OVC,M,4100.00,5500.00,7500.00,M,M,M,M,M,M,M,M,33.73,K05U 242235Z AUTO 26004KT 10SM SCT041 BKN055 OVC075 03/00 A2960 RMK A01,M
MEV,2021-12-24 22:35,-119.7500,38.9963,1441.42,42.80,21.20,41.84,250.00,18.00,0.00,29.68,M,10.00,28.00,CLR,M,M,M,M,M,M,M,M,M,M,M,M,M,M,33.97,KMEV 242235Z AUTO 25018G28KT 10SM CLR 06/M06 A2968 RMK AO2,M
HTH,2021-12-24 22:35,-118.6315,38.5448,1282.89,51.80,24.80,34.69,240.00,16.00,0.00,29.62,M,10.00,M,CLR,M,M,M,M,M,M,M,M,M,M,M,M,M,M,51.80,KHTH 242235Z AUTO 24016KT 10SM CLR 11/M04 A2962 RMK A01,M
TMT,2021-12-24 22:35,-117.1971,39.4643,1749.34,38.50,30.00,71.23,240.00,12.00,0.00,29.59,M,10.00,20.00,CLR,M,M,M,M,M,M,M,M,M,M,M,M,M,M,30.27,KTMT 242235Z AUTO 24012G20KT 10SM CLR 04/M01 A2959 RMK AO2 T00361011,M
RTS,2021-12-24 22:35,-119.8764,39.6682,1539.00,37.40,23.00,55.68,230.00,16.00,0.00,29.63,M,10.00,29.00,SCT,SCT,M,M,5500.00,6500.00,M,M,M,M,M,M,M,M,M,27.46,KRTS 242235Z AUTO 23016G29KT 10SM SCT055 SCT065 03/M05 A2963 RMK AO2,M
BAM,2021-12-24 22:35,-116.8743,40.5990,1382.36,39.20,37.40,93.19,250.00,7.00,0.00,29.52,M,10.00,M,SCT,BKN,OVC,M,4000.00,5000.00,8000.00,M,M,M,M,M,M,M,M,33.56,KBAM 242235Z AUTO 25007KT 10SM SCT040 BKN050 OVC080 04/03 A2952 RMK AO1,M
CXP,2021-12-24 22:50,-119.7326,39.1923,1431.00,42.80,17.60,35.87,230.00,13.00,0.00,29.67,M,10.00,20.00,CLR,M,M,M,M,M,M,M,M,M,M,M,M,M,M,35.40,KCXP 242250Z AUTO 23013G20KT 180V260 10SM CLR 06/M08 A2967 RMK AO2,M
P68,2021-12-24 22:53,-116.0056,39.6014,1993.00,38.00,30.90,75.64,260.00,3.00,0.00,29.57,1001.00,M,M,M,M,M,M,M,M,M,M,M,M,M,M,M,M,M,35.43,KP68 242253Z AUTO 26003KT 03/M01 A2957 RMK AO1 SLP010 T00331006,M
DRA,2021-12-24 22:53,-116.0278,36.6206,1009.00,56.00,35.00,45.40,210.00,18.00,0.00,29.69,1002.90,10.00,29.00,SCT,M,M,M,5000.00,M,M,M,M,M,M,M,29.00,220.00,2021-12-24 22:51,55.90,KDRA 242253Z AUTO 21018G29KT 10SM SCT050 13/02 A2969 RMK AO2 PK WND 22029/2251 SLP029 T01330017,M
VGT,2021-12-24 22:53,-115.1933,36.2111,667.00,63.00,36.00,36.52,210.00,25.00,0.00,29.63,1004.20,10.00,36.00,CLR,M,M,M,M,M,M,M,M,M,M,M,36.00,190.00,2021-12-24 22:47,63.00,KVGT 242253Z 21025G36KT 10SM CLR 17/02 A2963 RMK AO2 PK WND 19036/2247 SLP042 T01720022,M
ELY,2021-12-24 22:53,-114.8453,39.2950,1909.00,37.00,28.90,72.24,210.00,17.00,T,29.60,1001.10,9.00,26.00,FEW,SCT,M,M,3800.00,4800.00,M,M,M,M,M,M,30.00,200.00,2021-12-24 22:07,26.63,KELY 242253Z AUTO 21017G26KT 9SM FEW038 SCT048 03/M02 A2960 RMK AO2 PK WND 20030/2207 UPB11E12SNE11B12E16B40E52 SLP011 P0000 T00281017,M
LOL,2021-12-24 22:53,-118.5701,40.0684,1192.43,46.00,27.00,47.20,250.00,21.00,0.00,29.56,1001.20,10.00,35.00,CLR,M,M,M,M,M,M,M,M,M,M,M,38.00,250.00,2021-12-24 22:28,37.53,KLOL 242253Z AUTO 25021G35KT 10SM CLR 08/M03 A2956 RMK AO2 PK WND 25038/2228 SLP012 T00781028 $,M
BVU,2021-12-24 22:55,-114.8611,35.9475,671.00,60.80,39.20,44.76,230.00,13.00,0.00,29.74,M,10.00,M,FEW,BKN,M,M,6000.00,10000.00,M,M,M,M,M,M,M,M,M,60.80,KBVU 242255Z AUTO 23013KT 10SM FEW060 BKN100 16/04 A2974 RMK AO2,M
RTS,2021-12-24 22:55,-119.8764,39.6682,1539.00,37.40,23.00,55.68,230.00,17.00,0.00,29.63,M,10.00,24.00,CLR,M,M,M,M,M,M,M,M,M,M,M,M,M,M,27.15,KRTS 242255Z AUTO 23017G24KT 10SM CLR 03/M05 A2963 RMK AO2,M
05U,2021-12-24 22:55,-116.0051,39.6042,1811.23,39.20,32.00,75.16,240.00,4.00,0.00,29.60,M,10.00,M,FEW,BKN,BKN,M,4100.00,5500.00,6000.00,M,M,M,M,M,M,M,M,35.83,K05U 242255Z AUTO 24004KT 10SM FEW041 BKN055 BKN060 04/M00 A2960 RMK A01,M
RNO,2021-12-24 22:55,-119.7711,39.4839,1341.00,44.00,19.00,36.25,260.00,12.00,0.00,29.62,1002.10,10.00,24.00,SCT,M,M,M,5000.00,M,M,M,M,M,M,M,29.00,250.00,2021-12-24 22:11,37.40,KRNO 242255Z 26012G24KT 10SM SCT050 07/M07 A2962 RMK AO2 PK WND 25029/2211 SLP021 MTN TOPS OBSCD SW T00671072,M
MEV,2021-12-24 22:55,-119.7500,38.9963,1441.42,42.80,17.60,35.87,240.00,14.00,0.01,29.68,M,10.00,21.00,CLR,M,M,M,M,M,M,M,M,M,M,M,M,M,M,35.08,KMEV 242255Z AUTO 24014G21KT 10SM CLR 06/M08 A2968 RMK AO2 P0001,M
HTH,2021-12-24 22:55,-118.6315,38.5448,1282.89,51.80,24.80,34.69,250.00,21.00,0.00,29.63,M,10.00,28.00,CLR,M,M,M,M,M,M,M,M,M,M,M,M,M,M,51.80,KHTH 242255Z AUTO 25021G28KT 10SM CLR 11/M04 A2963 RMK A01,M
BAM,2021-12-24 22:55,-116.8743,40.5990,1382.36,39.20,33.80,80.79,230.00,12.00,0.00,29.52,M,10.00,M,SCT,BKN,OVC,M,1900.00,4900.00,7000.00,M,M,M,M,M,M,M,M,31.17,KBAM 242255Z AUTO 23012KT 10SM SCT019 BKN049 OVC070 04/01 A2952 RMK AO1,M
TMT,2021-12-24 22:55,-117.1971,39.4643,1749.34,38.00,30.60,74.73,250.00,13.00,0.00,29.60,M,10.00,17.00,CLR,M,M,M,M,M,M,M,M,M,M,M,M,M,M,29.13,KTMT 242255Z AUTO 25013G17KT 10SM CLR 03/M01 A2960 RMK AO2 LTG DSNT NE T00331008,M
TPH,2021-12-24 22:56,-117.0904,38.0505,1654.00,43.00,35.00,73.45,230.00,10.00,0.00,29.66,1003.40,10.00,M,CLR,M,M,M,M,M,M,M,M,M,M,M,M,M,M,36.76,KTPH 242256Z AUTO 23010KT 10SM CLR 06/02 A2966 RMK AO2 SLP034 T00610017,M
LAS,2021-12-24 22:56,-115.1634,36.0719,663.00,61.00,39.00,44.10,170.00,12.00,0.00,29.71,1005.00,10.00,19.00,FEW,M,M,M,6000.00,M,M,M,M,M,M,M,M,M,M,61.00,KLAS 242256Z 17012G19KT 10SM FEW060 16/04 A2971 RMK AO2 SLP050 T01610039,M
HND,2021-12-24 22:56,-115.1344,35.9729,742.79,59.00,39.00,47.35,200.00,20.00,0.00,29.73,1007.50,10.00,24.00,CLR,M,M,M,M,M,M,M,M,M,M,M,M,M,M,59.00,KHND 242256Z 20020G24KT 10SM CLR 15/04 A2973 RMK AO2 SLP075 T01500039,M
NFL,2021-12-24 22:56,-118.7010,39.4166,1199.00,50.00,26.10,39.14,250.00,26.00,0.00,29.61,1001.10,10.00,34.00,FEW,M,M,M,6000.00,M,M,M,M,M,M,M,34.00,250.00,2021-12-24 22:56,50.00,KNFL 242256Z AUTO 25026G34KT 10SM FEW060 10/M03 A2961 RMK AO2 PK WND 25034/2256 SLP011 T01001033,M
EKO,2021-12-24 22:56,-115.7860,40.8242,1367.00,36.00,32.00,85.23,230.00,7.00,0.03,29.49,998.70,10.00,M,BKN,BKN,BKN,M,2500.00,6500.00,8500.00,M,M,M,M,M,M,M,M,29.65,KEKO 242256Z AUTO 23007KT 10SM BKN025 BKN065 BKN085 02/00 A2949 RMK AO2 SNE25 SLP987 P0003 T00220000,M
WMC,2021-12-24 22:56,-117.8072,40.9019,1315.00,42.00,26.10,52.78,230.00,17.00,T,29.49,998.00,10.00,30.00,BKN,M,M,M,8500.00,M,M,M,M,M,M,M,40.00,230.00,2021-12-24 22:16,33.31,KWMC 242256Z AUTO 23017G30KT 10SM BKN085 06/M03 A2949 RMK AO2 PK WND 23040/2216 RAE02 SLP980 P0000 T00561033,M
INS,2021-12-24 22:58,-115.6733,36.5872,955.00,58.60,28.00,30.92,260.00,13.00,0.00,29.66,1001.90,10.00,M,CLR,M,M,M,M,M,M,M,M,M,M,M,27.00,230.00,2021-12-24 22:18,58.60,KINS 242258Z AUTO 26013KT 10SM CLR 15/M02 A2966 RMK AO2 PK WND 23027/18 SLP019 T01481022 VISNO RWY08 $,M
LSV,2021-12-24 22:58,-115.0343,36.2362,570.00,62.60,38.00,39.91,200.00,21.00,0.00,29.66,1003.40,10.00,26.00,CLR,M,M,M,M,M,M,M,M,M,M,M,29.00,200.00,2021-12-24 22:00,62.60,KLSV 242258Z AUTO 20021G26KT 10SM CLR 17/03 A2966 RMK AO2 PK WND 20029/00 SLP034 T01700033 $,M
EKO,2021-12-24 23:03,-115.7860,40.8242,1367.00,36.00,33.00,89.09,240.00,7.00,0.00,29.49,M,10.00,M,SCT,SCT,BKN,M,2700.00,5500.00,7500.00,M,M,M,M,M,M,M,M,29.65,KEKO 242303Z AUTO 24007KT 10SM SCT027 SCT055 BKN075 02/01 A2949 RMK AO2 T00220006,M
05U,2021-12-24 23:10,-116.0051,39.6042,1811.23,39.20,32.00,75.16,0.00,0.00,0.00,29.60,M,10.00,M,FEW,BKN,M,M,5000.00,5500.00,M,M,M,M,M,M,M,M,M,39.20,K05U 242310Z AUTO 00000KT 10SM FEW050 BKN055 04/M00 A2960 RMK A01,M
CXP,2021-12-24 23:15,-119.7326,39.1923,1431.00,41.00,17.60,38.45,230.00,10.00,0.00,29.67,M,10.00,20.00,CLR,M,M,M,M,M,M,M,M,M,M,M,M,M,M,34.25,KCXP 242315Z AUTO 23010G20KT 10SM CLR 05/M08 A2967 RMK AO2,M
RTS,2021-12-24 23:15,-119.8764,39.6682,1539.00,35.60,21.20,55.41,230.00,22.00,0.00,29.64,M,10.00,28.00,CLR,M,M,M,M,M,M,M,M,M,M,M,M,M,M,23.40,KRTS 242315Z AUTO 23022G28KT 10SM CLR 02/M06 A2964 RMK AO2,M
BAM,2021-12-24 23:15,-116.8743,40.5990,1382.36,39.20,33.80,80.79,240.00,13.00,0.00,29.52,M,10.00,18.00,SCT,BKN,OVC,M,2300.00,4700.00,6000.00,M,M,M,M,M,M,M,M,30.79,KBAM 242315Z AUTO 24013G18KT 10SM SCT023 BKN047 OVC060 04/01 A2952 RMK AO1,M
MEV,2021-12-24 23:15,-119.7500,38.9963,1441.42,41.00,14.00,32.88,220.00,16.00,0.00,29.68,M,10.00,M,CLR,M,M,M,M,M,M,M,M,M,M,M,M,M,M,32.15,KMEV 242315Z AUTO 22016KT 10SM CLR 05/M10 A2968 RMK AO2,M
TMT,2021-12-24 23:15,-117.1971,39.4643,1749.34,38.50,29.10,68.67,240.00,14.00,0.00,29.62,M,10.00,22.00,CLR,M,M,M,M,M,M,M,M,M,M,M,M,M,M,29.54,KTMT 242315Z AUTO 24014G22KT 10SM CLR 04/M02 A2962 RMK AO2 T00361016,M
HTH,2021-12-24 23:15,-118.6315,38.5448,1282.89,50.00,23.00,34.39,240.00,21.00,0.00,29.64,M,10.00,27.00,CLR,M,M,M,M,M,M,M,M,M,M,M,M,M,M,50.00,KHTH 242315Z AUTO 24021G27KT 10SM CLR 10/M05 A2964 RMK A01,M
BVU,2021-12-24 23:15,-114.8611,35.9475,671.00,60.80,39.20,44.76,230.00,19.00,0.00,29.73,M,10.00,M,FEW,SCT,M,M,6000.00,10000.00,M,M,M,M,M,M,M,M,M,60.80,KBVU 242315Z AUTO 23019KT 10SM FEW060 SCT100 16/04 A2973 RMK AO2,M
05U,2021-12-24 23:30,-116.0051,39.6042,1811.23,39.20,32.00,75.16,0.00,0.00,0.00,29.60,M,10.00,M,SCT,SCT,M,M,5500.00,6500.00,M,M,M,M,M,M,M,M,M,39.20,K05U 242330Z AUTO 00000KT 10SM SCT055 SCT065 04/M00 A2960 RMK A01,M
MEV,2021-12-24 23:35,-119.7500,38.9963,1441.42,41.00,15.80,35.57,240.00,10.00,0.00,29.69,M,10.00,20.00,CLR,M,M,M,M,M,M,M,M,M,M,M,M,M,M,34.25,KMEV 242335Z AUTO 24010G20KT 10SM CLR 05/M09 A2969 RMK AO2,M
HTH,2021-12-24 23:35,-118.6315,38.5448,1282.89,50.00,23.00,34.39,250.00,13.00,0.00,29.66,M,10.00,21.00,CLR,M,M,M,M,M,M,M,M,M,M,M,M,M,M,50.00,KHTH 242335Z AUTO 25013G21KT 10SM CLR 10/M05 A2966 RMK A01,M
BVU,2021-12-24 23:35,-114.8611,35.9475,671.00,59.00,39.20,47.72,220.00,18.00,0.00,29.73,M,10.00,24.00,CLR,M,M,M,M,M,M,M,M,M,M,M,M,M,M,59.00,KBVU 242335Z AUTO 22018G24KT 10SM CLR 15/04 A2973 RMK AO2,M
CXP,2021-12-24 23:35,-119.7326,39.1923,1431.00,41.00,17.60,38.45,220.00,10.00,0.00,29.68,M,10.00,20.00,CLR,M,M,M,M,M,M,M,M,M,M,M,M,M,M,34.25,KCXP 242335Z AUTO 22010G20KT 10SM CLR 05/M08 A2968 RMK AO2,M
RTS,2021-12-24 23:35,-119.8764,39.6682,1539.00,35.60,21.20,55.41,240.00,18.00,0.00,29.65,M,10.00,23.00,CLR,M,M,M,M,M,M,M,M,M,M,M,M,M,M,24.49,KRTS 242335Z AUTO 24018G23KT 10SM CLR 02/M06 A2965 RMK AO2,M
INS,2021-12-24 23:45,-115.6733,36.5872,955.00,57.20,30.20,35.57,260.00,8.00,0.00,29.70,1003.30,10.00,M,CLR,M,M,M,M,M,M,M,M,M,M,M,M,M,M,57.20,KINS 242345Z AUTO 26008KT 10SM CLR 14/M01 A2970 RMK AO2 SLP033 53013 VISNO RWY08 $,M
05U,2021-12-24 23:50,-116.0051,39.6042,1811.23,M,M,M,0.00,0.00,0.00,29.61,M,M,M,M,M,M,M,M,M,M,M,M,M,M,M,M,M,M,M,K05U 242350Z AUTO 00000KT A2961 RMK A01,M
P68,2021-12-24 23:53,-116.0056,39.6014,1993.00,39.00,30.90,72.45,20.00,3.00,0.00,29.59,1001.70,M,M,M,M,M,M,M,M,M,M,M,M,M,M,M,M,M,36.69,KP68 242353Z AUTO 02003KT 04/M01 A2959 RMK AO1 SLP017 6//// T00391006 10039 21006 $,M
ELY,2021-12-24 23:53,-114.8453,39.2950,1909.00,37.00,28.90,72.24,210.00,17.00,0.00,29.61,1002.20,10.00,28.00,BKN,M,M,M,7000.00,M,M,M,M,M,M,M,28.00,210.00,2021-12-24 23:48,26.63,KELY 242353Z AUTO 21017G28KT 10SM BKN070 03/M02 A2961 RMK AO2 PK WND 21028/2348 SLP022 60000 T00281017 10033 20017 51011,M
DRA,2021-12-24 23:53,-116.0278,36.6206,1009.00,53.00,37.00,54.21,220.00,17.00,0.00,29.71,1003.90,10.00,28.00,FEW,M,M,M,5000.00,M,M,M,M,M,M,M,39.00,220.00,2021-12-24 23:18,53.10,KDRA 242353Z AUTO 22017G28KT 10SM FEW050 12/03 A2971 RMK AO2 PK WND 22039/2318 SLP039 T01170028 10144 20117 53016,M
LOL,2021-12-24 23:53,-118.5701,40.0684,1192.43,44.00,23.00,42.95,250.00,22.00,0.00,29.59,1002.30,10.00,33.00,CLR,M,M,M,M,M,M,M,M,M,M,M,36.00,240.00,2021-12-24 23:14,34.78,KLOL 242353Z AUTO 25022G33KT 10SM CLR 07/M05 A2959 RMK AO2 PK WND 24036/2314 SLP023 60000 T00671050 10089 20022 53020 $,M
VGT,2021-12-24 23:53,-115.1933,36.2111,667.00,60.00,36.00,40.46,210.00,19.00,0.00,29.69,1006.20,10.00,27.00,CLR,M,M,M,M,M,M,M,M,M,M,M,40.00,200.00,2021-12-24 22:56,60.10,KVGT 242353Z AUTO 21019G27KT 10SM CLR 16/02 A2969 RMK AO2 PK WND 20040/2256 SLP062 T01560022 10172 20144 53010,M
RNO,2021-12-24 23:55,-119.7711,39.4839,1341.00,40.00,18.00,40.82,260.00,18.00,0.00,29.65,1003.50,10.00,28.00,FEW,M,M,M,4200.00,M,M,M,M,M,M,M,28.00,260.00,2021-12-24 23:46,30.15,KRNO 242355Z 26018G28KT 10SM FEW042 04/M08 A2965 RMK AO2 PK WND 26028/2346 SLP035 CLDS TPG MTNS DSNT SW T00441078 10094 20044 51027,M
BVU,2021-12-24 23:55,-114.8611,35.9475,671.00,59.00,39.20,47.72,210.00,15.00,0.00,29.75,M,10.00,20.00,CLR,M,M,M,M,M,M,M,M,M,M,M,M,M,M,59.00,KBVU 242355Z AUTO 21015G20KT 10SM CLR 15/04 A2975 RMK AO2,M
CXP,2021-12-24 23:55,-119.7326,39.1923,1431.00,39.20,17.60,41.24,250.00,8.00,0.00,29.69,M,10.00,19.00,CLR,M,M,M,M,M,M,M,M,M,M,M,M,M,M,32.98,KCXP 242355Z AUTO 25008G19KT 10SM CLR 04/M08 A2969 RMK AO2,M
RTS,2021-12-24 23:55,-119.8764,39.6682,1539.00,33.80,21.20,59.53,240.00,16.00,0.00,29.66,M,10.00,M,CLR,M,M,M,M,M,M,M,M,M,M,M,M,M,M,22.76,KRTS 242355Z AUTO 24016KT 10SM CLR 01/M06 A2966 RMK AO2,M
MEV,2021-12-24 23:55,-119.7500,38.9963,1441.42,39.20,14.00,35.26,230.00,15.00,0.00,29.71,M,10.00,27.00,CLR,M,M,M,M,M,M,M,M,M,M,M,M,M,M,30.11,KMEV 242355Z AUTO 23015G27KT 10SM CLR 04/M10 A2971 RMK AO2,M
BAM,2021-12-24 23:55,-116.8743,40.5990,1382.36,37.40,33.80,86.69,230.00,14.00,0.00,29.53,M,10.00,M,SCT,SCT,SCT,M,5000.00,7000.00,8000.00,M,M,M,M,M,M,M,M,28.12,KBAM 242355Z AUTO 23014KT 10SM SCT050 SCT070 SCT080 03/01 A2953 RMK AO1,M
HTH,2021-12-24 23:55,-118.6315,38.5448,1282.89,48.20,23.00,36.78,260.00,14.00,0.00,29.68,M,10.00,28.00,CLR,M,M,M,M,M,M,M,M,M,M,M,M,M,M,42.04,KHTH 242355Z AUTO 26014G28KT 10SM CLR 09/M05 A2968 RMK A01,M
TMT,2021-12-24 23:55,-117.1971,39.4643,1749.34,36.00,29.70,77.65,250.00,10.00,0.00,29.64,M,10.00,16.00,SCT,SCT,SCT,M,6000.00,7000.00,9000.00,M,M,M,M,M,M,M,M,27.98,KTMT 242355Z AUTO 25010G16KT 10SM SCT060 SCT070 SCT090 02/M01 A2964 RMK AO2 T00221013 10040 20006,M
EKO,2021-12-24 23:56,-115.7860,40.8242,1367.00,37.00,30.00,75.56,240.00,16.00,T,29.50,999.20,10.00,30.00,BKN,OVC,M,M,3800.00,6000.00,M,M,UP,M,M,M,30.00,240.00,2021-12-24 23:42,26.94,KEKO 242356Z AUTO 24016G30KT 10SM UP BKN038 OVC060 03/M01 A2950 RMK AO2 PK WND 24030/2342 UPB54SNB53E54 SLP992 P0000 60017 T00281011 10033 20006 53001,M
WMC,2021-12-24 23:56,-117.8072,40.9019,1315.00,41.00,25.00,52.61,230.00,16.00,0.00,29.52,999.20,10.00,24.00,SCT,M,M,M,7000.00,M,M,M,M,M,M,M,37.00,230.00,2021-12-24 23:12,32.15,KWMC 242356Z AUTO 23016G24KT 10SM SCT070 05/M04 A2952 RMK AO2 PK WND 23037/2312 SLP992 60001 T00501039 10067 20028 53010,M
TPH,2021-12-24 23:56,-117.0904,38.0505,1654.00,43.00,35.00,73.45,230.00,8.00,0.00,29.68,1004.20,10.00,M,FEW,M,M,M,2600.00,M,M,M,M,M,M,M,M,M,M,37.66,KTPH 242356Z AUTO 23008KT 10SM FEW026 06/02 A2968 RMK AO2 SLP042 T00610017 10072 20028 53007,M
HND,2021-12-24 23:56,-115.1344,35.9729,742.79,56.00,40.00,54.83,220.00,15.00,0.00,29.76,1008.70,10.00,M,CLR,M,M,M,M,M,M,M,M,M,M,M,M,M,M,55.90,KHND 242356Z 22015KT 10SM CLR 13/04 A2976 RMK AO2 SLP087 T01330044 10156 20133 53017,M
NFL,2021-12-24 23:56,-118.7010,39.4166,1199.00,46.00,21.00,36.72,230.00,14.00,0.00,29.63,1001.80,10.00,M,CLR,M,M,M,M,M,M,M,M,M,M,M,30.00,250.00,2021-12-24 22:57,39.21,KNFL 242356Z AUTO 23014KT 10SM CLR 08/M06 A2963 RMK AO2 PK WND 25030/2257 SLP018 T00781061 10111 20056 53021,M
LAS,2021-12-24 23:56,-115.1634,36.0719,663.00,59.00,38.00,45.36,220.00,16.00,0.00,29.69,1004.20,10.00,22.00,FEW,FEW,M,M,6000.00,9000.00,M,M,M,M,M,M,M,M,M,59.00,KLAS 242356Z 22016G22KT 10SM FEW060 FEW090 15/03 A2969 RMK AO2 PRESFR SLP042 T01500033 10167 20144 50003,M
INS,2021-12-24 23:58,-115.6733,36.5872,955.00,56.00,30.70,38.05,240.00,14.00,0.00,29.70,1003.50,10.00,21.00,CLR,M,M,M,M,M,M,M,M,M,M,M,M,M,M,55.90,KINS 242358Z AUTO 24014G21KT 10SM CLR 13/M01 A2970 RMK AO2 SLP035 T01331007 10156 20109 53015 VISNO RWY08 $,M
LSV,2021-12-24 23:58,-115.0343,36.2362,570.00,60.30,38.80,44.85,200.00,24.00,0.00,29.68,1004.10,10.00,31.00,CLR,M,M,M,M,M,M,M,M,M,M,M,34.00,180.00,2021-12-24 23:12,60.30,KLSV 242358Z AUTO 20024G31KT 10SM CLR 16/04 A2968 RMK AO2 PK WND 18034/12 SLP041 T01570038 10177 20147 53010 $,M
