station,valid,lon,lat,elevation,tmpf,dwpf,relh,drct,sknt,p01i,alti,mslp,vsby,gust,skyc1,skyc2,skyc3,skyc4,skyl1,skyl2,skyl3,skyl4,wxcodes,ice_accretion_1hr,ice_accretion_3hr,ice_accretion_6hr,peak_wind_gust,peak_wind_drct,peak_wind_time,feel,metar,snowdepth
05U,2024-09-22 00:10,-116.0051,39.6042,1811.23,71.60,28.40,19.98,10.00,11.00,0.00,30.11,M,10.00,M,CLR,M,M,M,M,M,M,M,M,M,M,M,M,M,M,71.60,K05U 220010Z AUTO 01011KT 10SM CLR 22/M02 A3011 RMK A01,M
BVU,2024-09-22 00:15,-114.8611,35.9475,671.00,89.60,35.60,14.83,120.00,5.00,0.00,29.81,M,10.00,M,CLR,M,M,M,M,M,M,M,M,M,M,M,M,M,M,85.62,KBVU 220015Z AUTO 12005KT 10SM CLR 32/02 A2981 RMK AO2,M
CXP,2024-09-22 00:15,-119.7326,39.1923,1431.00,77.00,30.20,17.94,50.00,11.00,0.00,30.06,M,10.00,M,CLR,M,M,M,M,M,M,M,M,M,M,M,M,M,M,77.00,KCXP 220015Z AUTO 05011KT 10SM CLR 25/M01 A3006 RMK AO2,M
RTS,2024-09-22 00:15,-119.8764,39.6682,1539.00,73.40,24.80,16.20,70.00,11.00,0.00,30.09,M,10.00,M,CLR,M,M,M,M,M,M,M,M,M,M,M,M,M,M,73.40,KRTS 220015Z AUTO 07011KT 10SM CLR 23/M04 A3009 RMK AO2,M
MEV,2024-09-22 00:15,-119.7500,38.9963,1441.42,78.80,33.80,19.55,360.00,11.00,0.00,30.04,M,10.00,18.00,CLR,M,M,M,M,M,M,M,M,M,M,M,M,M,M,78.80,KMEV 220015Z AUTO 36011G18KT 10SM CLR 26/01 A3004 RMK AO2,M
BAM,2024-09-22 00:15,-116.8743,40.5990,1382.36,77.00,28.40,16.67,340.00,8.00,0.00,30.08,M,10.00,M,CLR,M,M,M,M,M,M,M,M,M,M,M,M,M,M,77.00,KBAM 220015Z AUTO 34008KT 10SM CLR 25/M02 A3008 RMK AO1,M
HTH,2024-09-22 00:15,-118.6315,38.5448,1282.89,78.80,33.80,19.55,320.00,14.00,0.00,30.03,M,10.00,M,CLR,M,M,M,M,M,M,M,M,M,M,M,M,M,M,78.80,KHTH 220015Z AUTO 32014KT 10SM CLR 26/01 A3003 RMK A01,M
TMT,2024-09-22 00:15,-117.1971,39.4643,1749.34,69.80,35.00,27.73,350.00,6.00,0.00,30.13,M,10.00,M,CLR,M,M,M,M,M,M,M,M,M,M,M,M,M,M,69.80,KTMT 220015Z AUTO 35006KT 10SM CLR 21/02 A3013 RMK AO2 T02100016,M
10U,2024-09-22 00:15,-116.1876,41.9532,1637.00,68.00,23.00,18.06,350.00,8.00,0.00,30.12,M,10.00,M,CLR,M,M,M,M,M,M,M,M,M,M,M,M,M,M,68.00,K10U 220015Z AUTO 35008KT 10SM CLR 20/M05 A3012 RMK AO2,M
05U,2024-09-22 00:30,-116.0051,39.6042,1811.23,69.80,28.40,21.24,10.00,10.00,0.00,30.12,M,10.00,M,CLR,M,M,M,M,M,M,M,M,M,M,M,M,M,M,69.80,K05U 220030Z AUTO 01010KT 10SM CLR 21/M02 A3012 RMK A01,M
BVU,2024-09-22 00:35,-114.8611,35.9475,671.00,89.60,35.60,14.83,170.00,3.00,0.00,29.82,M,10.00,M,CLR,M,M,M,M,M,M,M,M,M,M,M,M,M,M,85.62,KBVU 220035Z AUTO 17003KT 10SM CLR 32/02 A2982 RMK AO2,M
CXP,2024-09-22 00:35,-119.7326,39.1923,1431.00,77.00,30.20,17.94,70.00,11.00,0.00,30.07,M,10.00,M,CLR,M,M,M,M,M,M,M,M,M,M,M,M,M,M,77.00,KCXP 220035Z AUTO 07011KT 10SM CLR 25/M01 A3007 RMK AO2,M
RTS,2024-09-22 00:35,-119.8764,39.6682,1539.00,73.40,26.60,17.46,60.00,11.00,0.00,30.10,M,10.00,M,CLR,M,M,M,M,M,M,M,M,M,M,M,M,M,M,73.40,KRTS 220035Z AUTO 06011KT 10SM CLR 23/M03 A3010 RMK AO2,M
MEV,2024-09-22 00:35,-119.7500,38.9963,1441.42,77.00,32.00,19.30,350.00,7.00,0.00,30.04,M,10.00,14.00,CLR,M,M,M,M,M,M,M,M,M,M,M,M,M,M,77.00,KMEV 220035Z AUTO 35007G14KT 10SM CLR 25/00 A3004 RMK AO2,M
BAM,2024-09-22 00:35,-116.8743,40.5990,1382.36,75.20,28.40,17.70,330.00,8.00,0.00,30.08,M,10.00,M,CLR,M,M,M,M,M,M,M,M,M,M,M,M,M,M,75.20,KBAM 220035Z AUTO 33008KT 10SM CLR 24/M02 A3008 RMK AO1,M
HTH,2024-09-22 00:35,-118.6315,38.5448,1282.89,77.00,33.80,20.74,320.00,13.00,0.00,30.03,M,10.00,M,CLR,M,M,M,M,M,M,M,M,M,M,M,M,M,M,77.00,KHTH 220035Z AUTO 32013KT 10SM CLR 25/01 A3003 RMK A01,M
TMT,2024-09-22 00:35,-117.1971,39.4643,1749.34,69.40,34.70,27.77,360.00,6.00,0.00,30.13,M,10.00,M,CLR,M,M,M,M,M,M,M,M,M,M,M,M,M,M,69.40,KTMT 220035Z AUTO 36006KT 10SM CLR 21/02 A3013 RMK AO2 T02080015,M
10U,2024-09-22 00:35,-116.1876,41.9532,1637.00,68.00,23.00,18.06,10.00,9.00,0.00,30.13,M,10.00,M,CLR,M,M,M,M,M,M,M,M,M,M,M,M,M,M,68.00,K10U 220035Z AUTO 01009KT 10SM CLR 20/M05 A3013 RMK AO2,M
05U,2024-09-22 00:50,-116.0051,39.6042,1811.23,69.80,28.40,21.24,10.00,6.00,0.00,30.12,M,10.00,15.00,CLR,M,M,M,M,M,M,M,M,M,M,M,M,M,M,69.80,K05U 220050Z AUTO 01006G15KT 10SM CLR 21/M02 A3012 RMK A01,M
P68,2024-09-22 00:53,-116.0056,39.6014,1993.00,70.00,29.00,21.62,10.00,11.00,0.00,30.10,1013.80,M,M,M,M,M,M,M,M,M,M,M,M,M,M,M,M,M,70.00,KP68 220053Z AUTO 01011KT 21/M02 A3010 RMK AO1 SLP138 T02111017,M
DRA,2024-09-22 00:53,-116.0278,36.6206,1009.00,88.00,36.00,15.85,270.00,9.00,0.00,29.89,1007.90,10.00,M,CLR,M,M,M,M,M,M,M,M,M,M,M,M,M,M,84.29,KDRA 220053Z AUTO 27009KT 10SM CLR 31/02 A2989 RMK AO2 SLP079 T03110022,M
ELY,2024-09-22 00:53,-114.8453,39.2950,1909.00,71.00,31.00,22.67,10.00,10.00,0.00,30.08,1012.30,10.00,M,SCT,M,M,M,10000.00,M,M,M,M,M,M,M,M,M,M,71.00,KELY 220053Z AUTO 01010KT 10SM SCT100 22/M01 A3008 RMK AO2 SLP123 T02171006,M
VGT,2024-09-22 00:53,-115.1933,36.2111,667.00,91.00,39.00,16.23,210.00,10.00,0.00,29.81,1008.60,10.00,M,CLR,M,M,M,M,M,M,M,M,M,M,M,M,M,M,86.94,KVGT 220053Z 21010KT 10SM CLR 33/04 A2981 RMK AO2 SLP086 T03280039,M
LOL,2024-09-22 00:53,-118.5701,40.0684,1192.43,76.00,27.00,16.27,50.00,11.00,0.00,30.03,1013.90,10.00,M,CLR,M,M,M,M,M,M,M,M,M,M,M,M,M,M,76.00,KLOL 220053Z AUTO 05011KT 10SM CLR 24/M03 A3003 RMK AO2 SLP139 T02441028,M
HTH,2024-09-22 00:55,-118.6315,38.5448,1282.89,M,M,M,320.00,13.00,0.00,30.03,M,M,M,M,M,M,M,M,M,M,M,M,M,M,M,M,M,M,M,KHTH 220055Z AUTO 32013KT A3003 RMK A01,M
BVU,2024-09-22 00:55,-114.8611,35.9475,671.00,89.60,35.60,14.83,190.00,8.00,0.00,29.81,M,10.00,M,CLR,M,M,M,M,M,M,M,M,M,M,M,M,M,M,85.62,KBVU 220055Z AUTO 19008KT 10SM CLR 32/02 A2981 RMK AO2,M
RNO,2024-09-22 00:55,-119.7711,39.4839,1341.00,78.00,30.00,17.22,10.00,9.00,0.00,30.04,1013.20,10.00,M,FEW,M,M,M,9000.00,M,M,M,M,M,M,M,M,M,M,78.00,KRNO 220055Z 01009KT 10SM FEW090 26/M01 A3004 RMK AO2 SLP132 T02561011,M
CXP,2024-09-22 00:55,-119.7326,39.1923,1431.00,75.20,30.20,19.05,70.00,11.00,0.00,30.07,M,10.00,M,CLR,M,M,M,M,M,M,M,M,M,M,M,M,M,M,75.20,KCXP 220055Z AUTO 07011KT 10SM CLR 24/M01 A3007 RMK AO2,M
RTS,2024-09-22 00:55,-119.8764,39.6682,1539.00,71.60,26.60,18.55,60.00,10.00,0.00,30.10,M,10.00,M,CLR,M,M,M,M,M,M,M,M,M,M,M,M,M,M,71.60,KRTS 220055Z AUTO 06010KT 10SM CLR 22/M03 A3010 RMK AO2,M
MEV,2024-09-22 00:55,-119.7500,38.9963,1441.42,77.00,32.00,19.30,20.00,9.00,0.00,30.05,M,10.00,M,CLR,M,M,M,M,M,M,M,M,M,M,M,M,M,M,77.00,KMEV 220055Z AUTO 02009KT 10SM CLR 25/M00 A3005 RMK AO2,M
BAM,2024-09-22 00:55,-116.8743,40.5990,1382.36,75.20,26.60,16.43,330.00,9.00,0.00,30.08,M,10.00,M,CLR,M,M,M,M,M,M,M,M,M,M,M,M,M,M,75.20,KBAM 220055Z AUTO 33009KT 10SM CLR 24/M03 A3008 RMK AO1,M
TMT,2024-09-22 00:55,-117.1971,39.4643,1749.34,69.00,34.70,28.16,340.00,9.00,0.00,30.13,M,10.00,M,CLR,M,M,M,M,M,M,M,M,M,M,M,M,M,M,69.00,KTMT 220055Z AUTO 34009KT 10SM CLR 21/02 A3013 RMK AO2 T02050015,M
10U,2024-09-22 00:55,-116.1876,41.9532,1637.00,68.00,24.80,19.47,10.00,8.00,0.00,30.13,M,10.00,M,CLR,M,M,M,M,M,M,M,M,M,M,M,M,M,M,68.00,K10U 220055Z AUTO 01008KT 10SM CLR 20/M04 A3013 RMK AO2,M
INS,2024-09-22 00:55,-115.6733,36.5872,955.00,87.30,28.40,11.93,180.00,5.00,0.00,29.86,1006.80,10.00,M,CLR,M,M,M,M,M,M,M,M,M,M,M,M,M,M,83.47,KINS 220055Z AUTO 18005KT 10SM CLR 31/M02 A2986 RMK AO2 SLP068 T03071020,M
LSV,2024-09-22 00:55,-115.0343,36.2362,570.00,91.00,33.30,12.95,180.00,9.00,0.00,29.76,1005.30,10.00,M,CLR,M,M,M,M,M,M,M,M,M,M,M,M,M,M,86.77,KLSV 220055Z AUTO 18009KT 10SM CLR 33/01 A2976 RMK AO2 SLP053 T03280007 $,M
EKO,2024-09-22 00:56,-115.7860,40.8242,1367.00,74.00,24.00,15.36,260.00,12.00,0.00,30.05,1014.30,10.00,M,CLR,M,M,M,M,M,M,M,M,M,M,M,M,M,M,74.00,KEKO 220056Z AUTO 26012KT 10SM CLR 23/M04 A3005 RMK AO2 SLP143 T02331044,M
WMC,2024-09-22 00:56,-117.8072,40.9019,1315.00,74.00,26.00,16.69,340.00,6.00,0.00,30.07,1015.60,10.00,M,CLR,M,M,M,M,M,M,M,M,M,M,M,M,M,M,74.00,KWMC 220056Z AUTO 34006KT 10SM CLR 23/M03 A3007 RMK AO2 SLP156 T02331033,M
HND,2024-09-22 00:56,-115.1344,35.9729,742.79,88.00,40.00,18.54,220.00,9.00,0.00,29.86,1010.30,10.00,M,CLR,M,M,M,M,M,M,M,M,M,M,M,M,M,M,84.42,KHND 220056Z 22009KT 10SM CLR 31/04 A2986 RMK AO2 SLP103 T03110044,M
TPH,2024-09-22 00:56,-117.0904,38.0505,1654.00,76.00,34.00,21.62,300.00,16.00,0.00,30.04,1011.50,10.00,24.00,CLR,M,M,M,M,M,M,M,M,M,M,M,M,M,M,76.00,KTPH 220056Z AUTO 30016G24KT 10SM CLR 24/01 A3004 RMK AO2 SLP115 T02440011,M
LAS,2024-09-22 00:56,-115.1634,36.0719,663.00,89.00,39.00,17.28,180.00,6.00,0.00,29.82,1007.70,10.00,M,FEW,M,M,M,12000.00,M,M,M,M,M,M,M,M,M,M,85.21,KLAS 220056Z 18006KT 10SM FEW120 32/04 A2982 RMK AO2 SLP077 T03170039 $,M
NFL,2024-09-22 00:57,-118.7010,39.4166,1199.00,79.00,31.00,17.35,40.00,7.00,0.00,30.02,1013.60,10.00,M,CLR,M,M,M,M,M,M,M,M,M,M,M,M,M,M,79.00,KNFL 220057Z AUTO 04007KT 10SM CLR 26/M01 A3002 RMK AO2 SLP136 T02611006,M
05U,2024-09-22 01:10,-116.0051,39.6042,1811.23,68.00,28.40,22.59,20.00,9.00,0.00,30.13,M,10.00,M,CLR,M,M,M,M,M,M,M,M,M,M,M,M,M,M,68.00,K05U 220110Z AUTO 02009KT 10SM CLR 20/M02 A3013 RMK A01,M
BVU,2024-09-22 01:15,-114.8611,35.9475,671.00,87.80,35.60,15.70,160.00,8.00,0.00,29.82,M,10.00,M,CLR,M,M,M,M,M,M,M,M,M,M,M,M,M,M,84.12,KBVU 220115Z AUTO 16008KT 10SM CLR 31/02 A2982 RMK AO2,M
CXP,2024-09-22 01:15,-119.7326,39.1923,1431.00,75.20,30.20,19.05,80.00,9.00,0.00,30.07,M,10.00,M,CLR,M,M,M,M,M,M,M,M,M,M,M,M,M,M,75.20,KCXP 220115Z AUTO 08009KT 10SM CLR 24/M01 A3007 RMK AO2,M
RTS,2024-09-22 01:15,-119.8764,39.6682,1539.00,71.60,26.60,18.55,50.00,9.00,0.00,30.10,M,10.00,M,CLR,M,M,M,M,M,M,M,M,M,M,M,M,M,M,71.60,KRTS 220115Z AUTO 05009KT 10SM CLR 22/M03 A3010 RMK AO2,M
MEV,2024-09-22 01:15,-119.7500,38.9963,1441.42,75.20,30.20,19.05,10.00,8.00,0.00,30.05,M,10.00,14.00,CLR,M,M,M,M,M,M,M,M,M,M,M,M,M,M,75.20,KMEV 220115Z AUTO 01008G14KT 10SM CLR 24/M01 A3005 RMK AO2,M
BAM,2024-09-22 01:15,-116.8743,40.5990,1382.36,73.40,28.40,18.80,340.00,7.00,0.00,30.08,M,10.00,M,CLR,M,M,M,M,M,M,M,M,M,M,M,M,M,M,73.40,KBAM 220115Z AUTO 34007KT 10SM CLR 23/M02 A3008 RMK AO1,M
HTH,2024-09-22 01:15,-118.6315,38.5448,1282.89,75.20,35.60,23.66,310.00,9.00,0.00,30.03,M,10.00,M,M,M,M,M,M,M,M,M,M,M,M,M,M,M,M,75.20,KHTH 220115Z AUTO 31009KT 10SM 24/02 A3003 RMK A01,M
TMT,2024-09-22 01:15,-117.1971,39.4643,1749.34,67.00,35.00,30.53,350.00,6.00,0.00,30.13,M,10.00,M,CLR,M,M,M,M,M,M,M,M,M,M,M,M,M,M,67.00,KTMT 220115Z AUTO 35006KT 10SM CLR 20/02 A3013 RMK AO2 T01950017,M
10U,2024-09-22 01:15,-116.1876,41.9532,1637.00,64.40,24.80,22.06,10.00,7.00,0.00,30.13,M,10.00,M,CLR,M,M,M,M,M,M,M,M,M,M,M,M,M,M,64.40,K10U 220115Z AUTO 01007KT 10SM CLR 18/M04 A3013 RMK AO2,M
05U,2024-09-22 01:30,-116.0051,39.6042,1811.23,64.40,30.20,27.55,0.00,0.00,0.00,30.13,M,10.00,M,CLR,M,M,M,M,M,M,M,M,M,M,M,M,M,M,64.40,K05U 220130Z AUTO 00000KT 10SM CLR 18/M01 A3013 RMK A01,M
BVU,2024-09-22 01:35,-114.8611,35.9475,671.00,86.00,37.40,17.85,160.00,9.00,0.00,29.82,M,10.00,M,CLR,M,M,M,M,M,M,M,M,M,M,M,M,M,M,82.73,KBVU 220135Z AUTO 16009KT 10SM CLR 30/03 A2982 RMK AO2,M
CXP,2024-09-22 01:35,-119.7326,39.1923,1431.00,73.40,30.20,20.23,60.00,8.00,0.00,30.08,M,10.00,M,CLR,M,M,M,M,M,M,M,M,M,M,M,M,M,M,73.40,KCXP 220135Z AUTO 06008KT 10SM CLR 23/M01 A3008 RMK AO2,M
RTS,2024-09-22 01:35,-119.8764,39.6682,1539.00,69.80,26.60,19.72,60.00,8.00,0.00,30.11,M,10.00,M,CLR,M,M,M,M,M,M,M,M,M,M,M,M,M,M,69.80,KRTS 220135Z AUTO 06008KT 10SM CLR 21/M03 A3011 RMK AO2,M
MEV,2024-09-22 01:35,-119.7500,38.9963,1441.42,73.40,32.00,21.76,30.00,6.00,0.00,30.06,M,10.00,M,CLR,M,M,M,M,M,M,M,M,M,M,M,M,M,M,73.40,KMEV 220135Z AUTO 03006KT 10SM CLR 23/M00 A3006 RMK AO2,M
BAM,2024-09-22 01:35,-116.8743,40.5990,1382.36,71.60,28.40,19.98,330.00,8.00,0.00,30.08,M,10.00,M,CLR,M,M,M,M,M,M,M,M,M,M,M,M,M,M,71.60,KBAM 220135Z AUTO 33008KT 10SM CLR 22/M02 A3008 RMK AO1,M
HTH,2024-09-22 01:35,-118.6315,38.5448,1282.89,73.40,35.60,25.13,330.00,7.00,0.00,30.04,M,10.00,M,CLR,M,M,M,M,M,M,M,M,M,M,M,M,M,M,73.40,KHTH 220135Z AUTO 33007KT 10SM CLR 23/02 A3004 RMK A01,M
TMT,2024-09-22 01:35,-117.1971,39.4643,1749.34,64.80,35.00,32.95,340.00,7.00,0.00,30.14,M,10.00,M,CLR,M,M,M,M,M,M,M,M,M,M,M,M,M,M,64.80,KTMT 220135Z AUTO 34007KT 10SM CLR 18/02 A3014 RMK AO2 T01820017,M
10U,2024-09-22 01:35,-116.1876,41.9532,1637.00,62.60,24.80,23.50,40.00,8.00,0.00,30.14,M,10.00,M,CLR,M,M,M,M,M,M,M,M,M,M,M,M,M,M,62.60,K10U 220135Z AUTO 04008KT 10SM CLR 17/M04 A3014 RMK AO2,M
05U,2024-09-22 01:50,-116.0051,39.6042,1811.23,59.00,30.20,33.35,0.00,0.00,0.00,30.14,M,10.00,M,CLR,M,M,M,M,M,M,M,M,M,M,M,M,M,M,59.00,K05U 220150Z AUTO 00000KT 10SM CLR 15/M01 A3014 RMK A01,M
P68,2024-09-22 01:53,-116.0056,39.6014,1993.00,59.00,31.00,34.45,360.00,7.00,0.00,30.12,1015.50,M,M,M,M,M,M,M,M,M,M,M,M,M,M,M,M,M,59.00,KP68 220153Z AUTO 36007KT 15/M01 A3012 RMK AO1 SLP155 T01501006,M
DRA,2024-09-22 01:53,-116.0278,36.6206,1009.00,82.00,35.00,18.47,270.00,6.00,0.00,29.89,1008.40,10.00,M,CLR,M,M,M,M,M,M,M,M,M,M,M,M,M,M,79.80,KDRA 220153Z AUTO 27006KT 10SM CLR 28/02 A2989 RMK AO2 SLP084 T02780017,M
ELY,2024-09-22 01:53,-114.8453,39.2950,1909.00,66.00,30.00,25.85,310.00,7.00,0.00,30.08,1013.10,10.00,M,FEW,M,M,M,9500.00,M,M,M,M,M,M,M,M,M,M,66.00,KELY 220153Z AUTO 31007KT 10SM FEW095 19/M01 A3008 RMK AO2 SLP131 T01891011,M
VGT,2024-09-22 01:53,-115.1933,36.2111,667.00,89.00,40.00,17.96,170.00,11.00,0.00,29.81,1008.80,10.00,M,CLR,M,M,M,M,M,M,M,M,M,M,M,M,M,M,85.26,KVGT 220153Z 17011KT 10SM CLR 32/04 A2981 RMK AO2 SLP088 T03170044,M
LOL,2024-09-22 01:53,-118.5701,40.0684,1192.43,70.00,28.00,20.75,40.00,9.00,0.00,30.03,1014.60,10.00,M,CLR,M,M,M,M,M,M,M,M,M,M,M,M,M,M,70.00,KLOL 220153Z AUTO 04009KT 10SM CLR 21/M02 A3003 RMK AO2 SLP146 T02111022,M
BVU,2024-09-22 01:55,-114.8611,35.9475,671.00,86.00,39.20,19.15,160.00,8.00,0.00,29.82,M,10.00,M,CLR,M,M,M,M,M,M,M,M,M,M,M,M,M,M,82.79,KBVU 220155Z AUTO 16008KT 10SM CLR 30/04 A2982 RMK AO2,M
RNO,2024-09-22 01:55,-119.7711,39.4839,1341.00,74.00,29.00,18.88,20.00,7.00,0.00,30.06,1014.20,10.00,M,FEW,M,M,M,9000.00,M,M,M,M,M,M,M,M,M,M,74.00,KRNO 220155Z 02007KT 10SM FEW090 23/M02 A3006 RMK AO2 SLP142 T02331017,M
CXP,2024-09-22 01:55,-119.7326,39.1923,1431.00,71.60,30.20,21.50,60.00,9.00,0.00,30.08,M,10.00,M,CLR,M,M,M,M,M,M,M,M,M,M,M,M,M,M,71.60,KCXP 220155Z AUTO 06009KT 10SM CLR 22/M01 A3008 RMK AO2,M
RTS,2024-09-22 01:55,-119.8764,39.6682,1539.00,68.00,28.40,22.59,50.00,6.00,0.00,30.11,M,10.00,M,CLR,M,M,M,M,M,M,M,M,M,M,M,M,M,M,68.00,KRTS 220155Z AUTO 05006KT 10SM CLR 20/M02 A3011 RMK AO2,M
MEV,2024-09-22 01:55,-119.7500,38.9963,1441.42,69.80,33.80,26.43,10.00,3.00,0.00,30.07,M,10.00,M,CLR,M,M,M,M,M,M,M,M,M,M,M,M,M,M,69.80,KMEV 220155Z AUTO 01003KT 10SM CLR 21/01 A3007 RMK AO2,M
BAM,2024-09-22 01:55,-116.8743,40.5990,1382.36,69.80,26.60,19.72,330.00,9.00,0.00,30.08,M,10.00,M,CLR,M,M,M,M,M,M,M,M,M,M,M,M,M,M,69.80,KBAM 220155Z AUTO 33009KT 10SM CLR 21/M03 A3008 RMK AO1,M
HTH,2024-09-22 01:55,-118.6315,38.5448,1282.89,71.60,35.60,26.71,310.00,7.00,0.00,30.04,M,10.00,M,CLR,M,M,M,M,M,M,M,M,M,M,M,M,M,M,71.60,KHTH 220155Z AUTO 31007KT 10SM CLR 22/02 A3004 RMK A01,M
TMT,2024-09-22 01:55,-117.1971,39.4643,1749.34,61.50,35.40,37.60,340.00,6.00,0.00,30.14,M,10.00,M,CLR,M,M,M,M,M,M,M,M,M,M,M,M,M,M,61.50,KTMT 220155Z AUTO 34006KT 10SM CLR 16/02 A3014 RMK AO2 T01640019,M
10U,2024-09-22 01:55,-116.1876,41.9532,1637.00,57.20,24.80,28.48,50.00,5.00,0.00,30.14,M,10.00,M,CLR,M,M,M,M,M,M,M,M,M,M,M,M,M,M,57.20,K10U 220155Z AUTO 05005KT 10SM CLR 14/M04 A3014 RMK AO2,M
INS,2024-09-22 01:55,-115.6733,36.5872,955.00,83.00,29.00,14.04,270.00,11.00,0.00,29.87,1007.60,10.00,M,CLR,M,M,M,M,M,M,M,M,M,M,M,M,M,M,80.37,KINS 220155Z AUTO 27011KT 10SM CLR 28/M02 A2987 RMK AO2 SLP076 T02841017,M
LSV,2024-09-22 01:55,-115.0343,36.2362,570.00,89.20,33.80,13.98,200.00,7.00,0.00,29.76,1005.40,10.00,M,CLR,M,M,M,M,M,M,M,M,M,M,M,M,M,M,85.25,KLSV 220155Z AUTO 20007KT 10SM CLR 32/01 A2976 RMK AO2 SLP054 T03180010 $,M
EKO,2024-09-22 01:56,-115.7860,40.8242,1367.00,69.00,26.00,19.77,320.00,7.00,0.00,30.07,1015.10,10.00,M,CLR,M,M,M,M,M,M,M,M,M,M,M,M,M,M,69.00,KEKO 220156Z AUTO 32007KT 10SM CLR 21/M03 A3007 RMK AO2 SLP151 T02061033,M
WMC,2024-09-22 01:56,-117.8072,40.9019,1315.00,65.00,28.00,24.66,340.00,6.00,0.00,30.08,1016.60,10.00,M,CLR,M,M,M,M,M,M,M,M,M,M,M,M,M,M,65.00,KWMC 220156Z AUTO 34006KT 10SM CLR 18/M02 A3008 RMK AO2 SLP166 T01831022,M
HND,2024-09-22 01:56,-115.1344,35.9729,742.79,86.00,40.00,19.76,210.00,10.00,0.00,29.87,1010.50,10.00,M,CLR,M,M,M,M,M,M,M,M,M,M,M,M,M,M,82.82,KHND 220156Z 21010KT 10SM CLR 30/04 A2987 RMK AO2 SLP105 T03000044,M
TPH,2024-09-22 01:56,-117.0904,38.0505,1654.00,73.00,34.00,23.90,310.00,15.00,0.00,30.06,1012.40,10.00,21.00,CLR,M,M,M,M,M,M,M,M,M,M,M,M,M,M,73.00,KTPH 220156Z AUTO 31015G21KT 10SM CLR 23/01 A3006 RMK AO2 SLP124 T02280011,M
LAS,2024-09-22 01:56,-115.1634,36.0719,663.00,88.00,39.00,17.83,190.00,9.00,0.00,29.83,1007.80,10.00,M,FEW,M,M,M,12000.00,M,M,M,M,M,M,M,M,M,M,84.38,KLAS 220156Z 19009KT 10SM FEW120 31/04 A2983 RMK AO2 SLP078 T03110039 $,M
05U,2024-09-22 02:10,-116.0051,39.6042,1811.23,55.40,30.20,37.97,0.00,0.00,0.00,30.14,M,10.00,M,CLR,M,M,M,M,M,M,M,M,M,M,M,M,M,M,55.40,K05U 220210Z AUTO 00000KT 10SM CLR 13/M01 A3014 RMK A01,M
BVU,2024-09-22 02:15,-114.8611,35.9475,671.00,84.20,39.20,20.29,160.00,8.00,0.00,29.83,M,10.00,M,CLR,M,M,M,M,M,M,M,M,M,M,M,M,M,M,81.44,KBVU 220215Z AUTO 16008KT 10SM CLR 29/04 A2983 RMK AO2,M
CXP,2024-09-22 02:15,-119.7326,39.1923,1431.00,71.60,30.20,21.50,50.00,9.00,0.00,30.09,M,10.00,M,CLR,M,M,M,M,M,M,M,M,M,M,M,M,M,M,71.60,KCXP 220215Z AUTO 05009KT 10SM CLR 22/M01 A3009 RMK AO2,M
RTS,2024-09-22 02:15,-119.8764,39.6682,1539.00,66.20,28.40,24.04,40.00,7.00,0.00,30.11,M,10.00,M,CLR,M,M,M,M,M,M,M,M,M,M,M,M,M,M,66.20,KRTS 220215Z AUTO 04007KT 10SM CLR 19/M02 A3011 RMK AO2,M
MEV,2024-09-22 02:15,-119.7500,38.9963,1441.42,66.20,33.80,29.92,320.00,8.00,0.00,30.07,M,10.00,M,CLR,M,M,M,M,M,M,M,M,M,M,M,M,M,M,66.20,KMEV 220215Z AUTO 32008KT 10SM CLR 19/01 A3007 RMK AO2,M
BAM,2024-09-22 02:15,-116.8743,40.5990,1382.36,68.00,24.80,19.47,330.00,8.00,0.00,30.09,M,10.00,M,CLR,M,M,M,M,M,M,M,M,M,M,M,M,M,M,68.00,KBAM 220215Z AUTO 33008KT 10SM CLR 20/M04 A3009 RMK AO1,M
HTH,2024-09-22 02:15,-118.6315,38.5448,1282.89,71.60,35.60,26.71,320.00,6.00,0.00,30.05,M,10.00,M,CLR,M,M,M,M,M,M,M,M,M,M,M,M,M,M,71.60,KHTH 220215Z AUTO 32006KT 10SM CLR 22/02 A3005 RMK A01,M
TMT,2024-09-22 02:15,-117.1971,39.4643,1749.34,57.00,36.30,45.76,330.00,6.00,0.00,30.14,M,10.00,M,CLR,M,M,M,M,M,M,M,M,M,M,M,M,M,M,57.00,KTMT 220215Z AUTO 33006KT 10SM CLR 14/02 A3014 RMK AO2 T01390024,M
10U,2024-09-22 02:15,-116.1876,41.9532,1637.00,55.40,26.60,32.76,10.00,3.00,0.00,30.14,M,10.00,M,CLR,M,M,M,M,M,M,M,M,M,M,M,M,M,M,55.40,K10U 220215Z AUTO 01003KT 10SM CLR 13/M03 A3014 RMK AO2,M
05U,2024-09-22 02:30,-116.0051,39.6042,1811.23,53.60,26.60,34.98,0.00,0.00,0.00,30.15,M,10.00,M,CLR,M,M,M,M,M,M,M,M,M,M,M,M,M,M,53.60,K05U 220230Z AUTO 00000KT 10SM CLR 12/M03 A3015 RMK A01,M
BVU,2024-09-22 02:35,-114.8611,35.9475,671.00,84.20,39.20,20.29,160.00,9.00,0.00,29.83,M,10.00,M,CLR,M,M,M,M,M,M,M,M,M,M,M,M,M,M,81.44,KBVU 220235Z AUTO 16009KT 10SM CLR 29/04 A2983 RMK AO2,M
CXP,2024-09-22 02:35,-119.7326,39.1923,1431.00,71.60,30.20,21.50,50.00,8.00,0.00,30.09,M,10.00,M,CLR,M,M,M,M,M,M,M,M,M,M,M,M,M,M,71.60,KCXP 220235Z AUTO 05008KT 10SM CLR 22/M01 A3009 RMK AO2,M
RTS,2024-09-22 02:35,-119.8764,39.6682,1539.00,64.40,28.40,25.60,30.00,5.00,0.00,30.11,M,10.00,M,CLR,M,M,M,M,M,M,M,M,M,M,M,M,M,M,64.40,KRTS 220235Z AUTO 03005KT 10SM CLR 18/M02 A3011 RMK AO2,M
MEV,2024-09-22 02:35,-119.7500,38.9963,1441.42,66.20,33.80,29.92,320.00,4.00,0.00,30.08,M,10.00,M,CLR,M,M,M,M,M,M,M,M,M,M,M,M,M,M,66.20,KMEV 220235Z AUTO 32004KT 10SM CLR 19/01 A3008 RMK AO2,M
BAM,2024-09-22 02:35,-116.8743,40.5990,1382.36,64.40,24.80,22.06,330.00,8.00,0.00,30.09,M,10.00,M,CLR,M,M,M,M,M,M,M,M,M,M,M,M,M,M,64.40,KBAM 220235Z AUTO 33008KT 10SM CLR 18/M04 A3009 RMK AO1,M
HTH,2024-09-22 02:35,-118.6315,38.5448,1282.89,69.80,35.60,28.39,310.00,6.00,0.00,30.05,M,10.00,M,CLR,M,M,M,M,M,M,M,M,M,M,M,M,M,M,69.80,KHTH 220235Z AUTO 31006KT 10SM CLR 21/02 A3005 RMK A01,M
TMT,2024-09-22 02:35,-117.1971,39.4643,1749.34,55.40,36.50,48.87,320.00,4.00,0.00,30.15,M,10.00,M,CLR,M,M,M,M,M,M,M,M,M,M,M,M,M,M,55.40,KTMT 220235Z AUTO 32004KT 10SM CLR 13/03 A3015 RMK AO2 T01300025,M
10U,2024-09-22 02:35,-116.1876,41.9532,1637.00,51.80,24.80,34.69,270.00,4.00,0.00,30.15,M,10.00,M,CLR,M,M,M,M,M,M,M,M,M,M,M,M,M,M,51.80,K10U 220235Z AUTO 27004KT 10SM CLR 11/M04 A3015 RMK AO2,M
05U,2024-09-22 02:50,-116.0051,39.6042,1811.23,53.60,26.60,34.98,0.00,0.00,0.00,30.16,M,10.00,M,CLR,M,M,M,M,M,M,M,M,M,M,M,M,M,M,53.60,K05U 220250Z AUTO 00000KT 10SM CLR 12/M03 A3016 RMK A01,M
P68,2024-09-22 02:53,-116.0056,39.6014,1993.00,51.00,30.00,44.26,60.00,5.00,0.00,30.13,1016.00,M,M,M,M,M,M,M,M,M,M,M,M,M,M,M,M,M,51.00,KP68 220253Z AUTO 06005KT 11/M01 A3013 RMK AO1 SLP160 T01061011 53016,M
DRA,2024-09-22 02:53,-116.0278,36.6206,1009.00,80.00,37.00,21.34,220.00,5.00,0.00,29.91,1008.80,10.00,M,CLR,M,M,M,M,M,M,M,M,M,M,M,M,M,M,78.70,KDRA 220253Z AUTO 22005KT 10SM CLR 27/03 A2991 RMK AO2 SLP088 T02670028 53010,M
ELY,2024-09-22 02:53,-114.8453,39.2950,1909.00,59.00,26.00,28.07,300.00,6.00,0.00,30.11,1013.50,10.00,M,FEW,M,M,M,9000.00,M,M,M,M,M,M,M,M,M,M,59.00,KELY 220253Z AUTO 30006KT 10SM FEW090 15/M03 A3011 RMK AO2 SLP135 T01501033 53013,M
VGT,2024-09-22 02:53,-115.1933,36.2111,667.00,86.00,40.00,19.76,160.00,8.00,0.00,29.82,1009.20,10.00,M,CLR,M,M,M,M,M,M,M,M,M,M,M,M,M,M,82.82,KVGT 220253Z 16008KT 10SM CLR 30/04 A2982 RMK AO2 SLP092 T03000044 53005,M
LOL,2024-09-22 02:53,-118.5701,40.0684,1192.43,65.00,29.00,25.69,30.00,6.00,0.00,30.05,1015.10,10.00,M,CLR,M,M,M,M,M,M,M,M,M,M,M,M,M,M,65.00,KLOL 220253Z AUTO 03006KT 10SM CLR 18/M02 A3005 RMK AO2 SLP151 T01831017 53008,M
BVU,2024-09-22 02:55,-114.8611,35.9475,671.00,82.40,39.20,21.51,160.00,8.00,0.00,29.84,M,10.00,M,CLR,M,M,M,M,M,M,M,M,M,M,M,M,M,M,80.21,KBVU 220255Z AUTO 16008KT 10SM CLR 28/04 A2984 RMK AO2,M
RNO,2024-09-22 02:55,-119.7711,39.4839,1341.00,70.00,30.00,22.52,350.00,4.00,0.00,30.07,1014.50,10.00,M,CLR,M,M,M,M,M,M,M,M,M,M,M,M,M,M,70.00,KRNO 220255Z 35004KT 10SM CLR 21/M01 A3007 RMK AO2 SLP145 T02111011 53012,M
CXP,2024-09-22 02:55,-119.7326,39.1923,1431.00,69.80,30.20,22.86,40.00,5.00,0.00,30.10,M,10.00,M,CLR,M,M,M,M,M,M,M,M,M,M,M,M,M,M,69.80,KCXP 220255Z AUTO 04005KT 10SM CLR 21/M01 A3010 RMK AO2,M
RTS,2024-09-22 02:55,-119.8764,39.6682,1539.00,59.00,28.40,30.98,270.00,4.00,0.00,30.12,M,10.00,M,CLR,M,M,M,M,M,M,M,M,M,M,M,M,M,M,59.00,KRTS 220255Z AUTO 27004KT 10SM CLR 15/M02 A3012 RMK AO2,M
MEV,2024-09-22 02:55,-119.7500,38.9963,1441.42,64.40,33.80,31.85,0.00,0.00,0.00,30.08,M,10.00,M,CLR,M,M,M,M,M,M,M,M,M,M,M,M,M,M,64.40,KMEV 220255Z AUTO 00000KT 10SM CLR 18/01 A3008 RMK AO2,M
BAM,2024-09-22 02:55,-116.8743,40.5990,1382.36,64.40,24.80,22.06,330.00,9.00,0.00,30.09,M,10.00,M,CLR,M,M,M,M,M,M,M,M,M,M,M,M,M,M,64.40,KBAM 220255Z AUTO 33009KT 10SM CLR 18/M04 A3009 RMK AO1,M
HTH,2024-09-22 02:55,-118.6315,38.5448,1282.89,69.80,35.60,28.39,320.00,8.00,0.00,30.06,M,10.00,M,CLR,M,M,M,M,M,M,M,M,M,M,M,M,M,M,69.80,KHTH 220255Z AUTO 32008KT 10SM CLR 21/02 A3006 RMK A01,M
TMT,2024-09-22 02:55,-117.1971,39.4643,1749.34,53.60,38.00,55.36,0.00,0.00,0.00,30.16,M,10.00,M,CLR,M,M,M,M,M,M,M,M,M,M,M,M,M,M,53.60,KTMT 220255Z AUTO 00000KT 10SM CLR 12/03 A3016 RMK AO2 T01200033,M
10U,2024-09-22 02:55,-116.1876,41.9532,1637.00,48.20,26.60,42.73,0.00,0.00,0.00,30.16,M,10.00,M,CLR,M,M,M,M,M,M,M,M,M,M,M,M,M,M,48.20,K10U 220255Z AUTO 00000KT 10SM CLR 09/M03 A3016 RMK AO2,M
INS,2024-09-22 02:55,-115.6733,36.5872,955.00,80.80,32.00,17.03,260.00,9.00,0.00,29.89,1008.00,10.00,M,CLR,M,M,M,M,M,M,M,M,M,M,M,M,M,M,78.95,KINS 220255Z AUTO 26009KT 10SM CLR 27/M00 A2989 RMK AO2 SLP080 T02711001 53008,M
LSV,2024-09-22 02:55,-115.0343,36.2362,570.00,86.00,34.50,15.91,160.00,5.00,0.00,29.78,1006.10,10.00,M,CLR,M,M,M,M,M,M,M,M,M,M,M,M,M,M,82.67,KLSV 220255Z AUTO 16005KT 10SM CLR 30/01 A2978 RMK AO2 SLP061 T03000014 53007 $,M
EKO,2024-09-22 02:56,-115.7860,40.8242,1367.00,63.00,28.00,26.45,0.00,0.00,0.00,30.09,1015.90,10.00,M,CLR,M,M,M,M,M,M,M,M,M,M,M,M,M,M,63.00,KEKO 220256Z AUTO 00000KT 10SM CLR 17/M02 A3009 RMK AO2 SLP159 T01721022 53014,M
WMC,2024-09-22 02:56,-117.8072,40.9019,1315.00,61.00,27.00,27.24,M,3.00,0.00,30.09,1016.60,10.00,M,CLR,M,M,M,M,M,M,M,M,M,M,M,M,M,M,61.00,KWMC 220256Z AUTO VRB03KT 10SM CLR 16/M03 A3009 RMK AO2 SLP166 T01611028 53007,M
HND,2024-09-22 02:56,-115.1344,35.9729,742.79,83.00,40.00,21.76,190.00,8.00,0.00,29.88,1011.20,10.00,M,CLR,M,M,M,M,M,M,M,M,M,M,M,M,M,M,80.64,KHND 220256Z 19008KT 10SM CLR 28/04 A2988 RMK AO2 SLP112 T02830044 53007,M
TPH,2024-09-22 02:56,-117.0904,38.0505,1654.00,71.00,33.00,24.57,320.00,15.00,0.00,30.07,1012.40,10.00,M,CLR,M,M,M,M,M,M,M,M,M,M,M,M,M,M,71.00,KTPH 220256Z AUTO 32015KT 10SM CLR 22/01 A3007 RMK AO2 SLP124 T02170006 53010,M
LAS,2024-09-22 02:56,-115.1634,36.0719,663.00,86.00,39.00,19.01,200.00,6.00,0.00,29.84,1008.20,10.00,M,FEW,M,M,M,12000.00,M,M,M,M,M,M,M,M,M,M,82.78,KLAS 220256Z 20006KT 10SM FEW120 30/04 A2984 RMK AO2 SLP082 T03000039 53005 $,M
RTS,2024-09-22 03:05,-119.8764,39.6682,1539.00,60.80,28.40,29.06,260.00,6.00,0.00,30.12,M,10.00,M,CLR,M,M,M,M,M,M,M,M,M,M,M,M,M,M,60.80,KRTS 220305Z AUTO 26006KT 10SM CLR 16/M02 A3012 RMK AO2,M
MEV,2024-09-22 03:05,-119.7500,38.9963,1441.42,62.60,33.80,33.93,0.00,0.00,0.00,30.09,M,10.00,M,CLR,M,M,M,M,M,M,M,M,M,M,M,M,M,M,62.60,KMEV 220305Z AUTO 00000KT 10SM CLR 17/01 A3009 RMK AO2,M
05U,2024-09-22 03:10,-116.0051,39.6042,1811.23,51.80,26.60,37.38,0.00,0.00,0.00,30.16,M,10.00,M,CLR,M,M,M,M,M,M,M,M,M,M,M,M,M,M,51.80,K05U 220310Z AUTO 00000KT 10SM CLR 11/M03 A3016 RMK A01,M
BVU,2024-09-22 03:15,-114.8611,35.9475,671.00,82.40,39.20,21.51,180.00,5.00,0.00,29.85,M,10.00,M,CLR,M,M,M,M,M,M,M,M,M,M,M,M,M,M,80.21,KBVU 220315Z AUTO 18005KT 10SM CLR 28/04 A2985 RMK AO2,M
CXP,2024-09-22 03:15,-119.7326,39.1923,1431.00,69.80,30.20,22.86,50.00,5.00,0.00,30.11,M,10.00,M,CLR,M,M,M,M,M,M,M,M,M,M,M,M,M,M,69.80,KCXP 220315Z AUTO 05005KT 10SM CLR 21/M01 A3011 RMK AO2,M
BAM,2024-09-22 03:15,-116.8743,40.5990,1382.36,59.00,26.60,28.77,330.00,5.00,0.00,30.10,M,10.00,M,CLR,M,M,M,M,M,M,M,M,M,M,M,M,M,M,59.00,KBAM 220315Z AUTO 33005KT 10SM CLR 15/M03 A3010 RMK AO1,M
HTH,2024-09-22 03:15,-118.6315,38.5448,1282.89,69.80,35.60,28.39,320.00,9.00,0.00,30.06,M,10.00,M,CLR,M,M,M,M,M,M,M,M,M,M,M,M,M,M,69.80,KHTH 220315Z AUTO 32009KT 10SM CLR 21/02 A3006 RMK A01,M
TMT,2024-09-22 03:15,-117.1971,39.4643,1749.34,50.40,36.50,58.72,0.00,0.00,0.00,30.16,M,10.00,M,CLR,M,M,M,M,M,M,M,M,M,M,M,M,M,M,50.40,KTMT 220315Z AUTO 00000KT 10SM CLR 10/03 A3016 RMK AO2 T01020025,M
10U,2024-09-22 03:15,-116.1876,41.9532,1637.00,48.20,24.80,39.66,320.00,5.00,0.00,30.16,M,10.00,M,CLR,M,M,M,M,M,M,M,M,M,M,M,M,M,M,45.63,K10U 220315Z AUTO 32005KT 10SM CLR 09/M04 A3016 RMK AO2,M
05U,2024-09-22 03:30,-116.0051,39.6042,1811.23,48.20,28.40,46.02,0.00,0.00,0.00,30.17,M,10.00,M,CLR,M,M,M,M,M,M,M,M,M,M,M,M,M,M,48.20,K05U 220330Z AUTO 00000KT 10SM CLR 09/M02 A3017 RMK A01,M
BVU,2024-09-22 03:35,-114.8611,35.9475,671.00,78.80,41.00,25.95,0.00,0.00,0.00,29.86,M,10.00,M,CLR,M,M,M,M,M,M,M,M,M,M,M,M,M,M,78.80,KBVU 220335Z AUTO 00000KT 10SM CLR 26/05 A2986 RMK AO2,M
CXP,2024-09-22 03:35,-119.7326,39.1923,1431.00,64.40,33.80,31.85,0.00,0.00,0.00,30.11,M,10.00,M,CLR,M,M,M,M,M,M,M,M,M,M,M,M,M,M,64.40,KCXP 220335Z AUTO 00000KT 10SM CLR 18/01 A3011 RMK AO2,M
RTS,2024-09-22 03:35,-119.8764,39.6682,1539.00,60.80,28.40,29.06,0.00,0.00,0.00,30.13,M,10.00,M,CLR,M,M,M,M,M,M,M,M,M,M,M,M,M,M,60.80,KRTS 220335Z AUTO 00000KT 10SM CLR 16/M02 A3013 RMK AO2,M
MEV,2024-09-22 03:35,-119.7500,38.9963,1441.42,53.60,37.40,54.07,0.00,0.00,0.00,30.10,M,10.00,M,CLR,M,M,M,M,M,M,M,M,M,M,M,M,M,M,53.60,KMEV 220335Z AUTO 00000KT 10SM CLR 12/03 A3010 RMK AO2,M
BAM,2024-09-22 03:35,-116.8743,40.5990,1382.36,59.00,26.60,28.77,320.00,5.00,0.00,30.11,M,10.00,M,CLR,M,M,M,M,M,M,M,M,M,M,M,M,M,M,59.00,KBAM 220335Z AUTO 32005KT 10SM CLR 15/M03 A3011 RMK AO1,M
HTH,2024-09-22 03:35,-118.6315,38.5448,1282.89,69.80,37.40,30.49,330.00,7.00,0.00,30.07,M,10.00,M,CLR,M,M,M,M,M,M,M,M,M,M,M,M,M,M,69.80,KHTH 220335Z AUTO 33007KT 10SM CLR 21/03 A3007 RMK A01,M
TMT,2024-09-22 03:35,-117.1971,39.4643,1749.34,49.30,36.30,60.70,0.00,0.00,0.00,30.16,M,10.00,M,CLR,M,M,M,M,M,M,M,M,M,M,M,M,M,M,49.30,KTMT 220335Z AUTO 00000KT 10SM CLR 10/02 A3016 RMK AO2 T00960024,M
10U,2024-09-22 03:35,-116.1876,41.9532,1637.00,48.20,24.80,39.66,320.00,6.00,0.00,30.16,M,10.00,M,CLR,M,M,M,M,M,M,M,M,M,M,M,M,M,M,45.04,K10U 220335Z AUTO 32006KT 10SM CLR 09/M04 A3016 RMK AO2,M
05U,2024-09-22 03:50,-116.0051,39.6042,1811.23,51.80,24.80,34.69,0.00,0.00,0.00,30.18,M,10.00,M,CLR,M,M,M,M,M,M,M,M,M,M,M,M,M,M,51.80,K05U 220350Z AUTO 00000KT 10SM CLR 11/M04 A3018 RMK A01,M
P68,2024-09-22 03:53,-116.0056,39.6014,1993.00,53.00,26.00,34.88,10.00,5.00,0.00,30.15,1015.40,M,M,M,M,M,M,M,M,M,M,M,M,M,M,M,M,M,53.00,KP68 220353Z AUTO 01005KT 12/M03 A3015 RMK AO1 SLP154 T01171033,M
DRA,2024-09-22 03:53,-116.0278,36.6206,1009.00,78.00,38.00,23.70,320.00,5.00,0.00,29.93,1009.50,10.00,M,CLR,M,M,M,M,M,M,M,M,M,M,M,M,M,M,78.00,KDRA 220353Z AUTO 32005KT 10SM CLR 26/03 A2993 RMK AO2 SLP095 T02560033,M
ELY,2024-09-22 03:53,-114.8453,39.2950,1909.00,59.00,27.00,29.25,330.00,8.00,0.00,30.14,1013.50,10.00,M,CLR,M,M,M,M,M,M,M,M,M,M,M,M,M,M,59.00,KELY 220353Z AUTO 33008KT 10SM CLR 15/M03 A3014 RMK AO2 SLP135 T01501028,M
VGT,2024-09-22 03:53,-115.1933,36.2111,667.00,85.00,39.00,19.62,210.00,7.00,0.00,29.84,1009.90,10.00,M,CLR,M,M,M,M,M,M,M,M,M,M,M,M,M,M,82.02,KVGT 220353Z AUTO 21007KT 10SM CLR 29/04 A2984 RMK AO2 SLP099 T02940039,M
LOL,2024-09-22 03:53,-118.5701,40.0684,1192.43,59.00,28.00,30.48,0.00,0.00,0.00,30.07,1015.80,10.00,M,CLR,M,M,M,M,M,M,M,M,M,M,M,M,M,M,59.00,KLOL 220353Z AUTO 00000KT 10SM CLR 15/M02 A3007 RMK AO2 SLP158 T01501022 $,M
BVU,2024-09-22 03:55,-114.8611,35.9475,671.00,78.80,41.00,25.95,0.00,0.00,0.00,29.87,M,10.00,M,CLR,M,M,M,M,M,M,M,M,M,M,M,M,M,M,78.80,KBVU 220355Z AUTO 00000KT 10SM CLR 26/05 A2987 RMK AO2,M
RNO,2024-09-22 03:55,-119.7711,39.4839,1341.00,68.00,31.00,25.12,290.00,4.00,0.00,30.10,1015.30,10.00,M,CLR,M,M,M,M,M,M,M,M,M,M,M,M,M,M,68.00,KRNO 220355Z 29004KT 10SM CLR 20/M01 A3010 RMK AO2 SLP153 T02001006,M
CXP,2024-09-22 03:55,-119.7326,39.1923,1431.00,62.60,32.00,31.56,0.00,0.00,0.00,30.12,M,10.00,M,CLR,M,M,M,M,M,M,M,M,M,M,M,M,M,M,62.60,KCXP 220355Z AUTO 00000KT 10SM CLR 17/00 A3012 RMK AO2,M
RTS,2024-09-22 03:55,-119.8764,39.6682,1539.00,59.00,30.20,33.35,0.00,0.00,0.00,30.14,M,10.00,M,CLR,M,M,M,M,M,M,M,M,M,M,M,M,M,M,59.00,KRTS 220355Z AUTO 00000KT 10SM CLR 15/M01 A3014 RMK AO2,M
MEV,2024-09-22 03:55,-119.7500,38.9963,1441.42,53.60,37.40,54.07,0.00,0.00,0.00,30.11,M,10.00,M,CLR,M,M,M,M,M,M,M,M,M,M,M,M,M,M,53.60,KMEV 220355Z AUTO 00000KT 10SM CLR 12/03 A3011 RMK AO2,M
BAM,2024-09-22 03:55,-116.8743,40.5990,1382.36,59.00,24.80,26.70,130.00,3.00,0.00,30.12,M,10.00,M,CLR,M,M,M,M,M,M,M,M,M,M,M,M,M,M,59.00,KBAM 220355Z AUTO 13003KT 10SM CLR 15/M04 A3012 RMK AO1,M
HTH,2024-09-22 03:55,-118.6315,38.5448,1282.89,64.40,46.40,51.98,20.00,3.00,0.00,30.08,M,10.00,M,CLR,M,M,M,M,M,M,M,M,M,M,M,M,M,M,64.40,KHTH 220355Z AUTO 02003KT 10SM CLR 18/08 A3008 RMK A01,M
TMT,2024-09-22 03:55,-117.1971,39.4643,1749.34,44.60,35.00,68.82,190.00,3.00,0.00,30.17,M,10.00,M,CLR,M,M,M,M,M,M,M,M,M,M,M,M,M,M,43.09,KTMT 220355Z AUTO 19003KT 10SM CLR 07/02 A3017 RMK AO2 T00700016,M
10U,2024-09-22 03:55,-116.1876,41.9532,1637.00,46.40,26.60,45.73,40.00,4.00,0.00,30.17,M,10.00,M,CLR,M,M,M,M,M,M,M,M,M,M,M,M,M,M,44.24,K10U 220355Z AUTO 04004KT 10SM CLR 08/M03 A3017 RMK AO2,M
INS,2024-09-22 03:55,-115.6733,36.5872,955.00,76.50,32.40,19.94,280.00,8.00,0.00,29.91,1008.50,10.00,M,CLR,M,M,M,M,M,M,M,M,M,M,M,M,M,M,76.50,KINS 220355Z AUTO 28008KT 10SM CLR 25/00 A2991 RMK AO2 SLP085 T02470002,M
LSV,2024-09-22 03:55,-115.0343,36.2362,570.00,86.00,36.00,16.89,150.00,9.00,0.00,29.80,1006.60,10.00,M,CLR,M,M,M,M,M,M,M,M,M,M,M,M,M,M,82.70,KLSV 220355Z AUTO 15009KT 10SM CLR 30/02 A2980 RMK AO2 SLP066 T03010023 $,M
EKO,2024-09-22 03:56,-115.7860,40.8242,1367.00,63.00,27.00,25.38,100.00,3.00,0.00,30.11,1016.30,10.00,M,CLR,M,M,M,M,M,M,M,M,M,M,M,M,M,M,63.00,KEKO 220356Z AUTO 10003KT 10SM CLR 17/M03 A3011 RMK AO2 SLP163 T01721028,M
WMC,2024-09-22 03:56,-117.8072,40.9019,1315.00,55.00,29.00,36.69,320.00,7.00,0.00,30.11,1016.90,10.00,M,CLR,M,M,M,M,M,M,M,M,M,M,M,M,M,M,55.00,KWMC 220356Z AUTO 32007KT 10SM CLR 13/M02 A3011 RMK AO2 SLP169 T01281017,M
HND,2024-09-22 03:56,-115.1344,35.9729,742.79,81.00,40.00,23.22,190.00,9.00,0.00,29.90,1011.70,10.00,M,CLR,M,M,M,M,M,M,M,M,M,M,M,M,M,M,79.38,KHND 220356Z AUTO 19009KT 10SM CLR 27/04 A2990 RMK AO2 SLP117 T02720044,M
TPH,2024-09-22 03:56,-117.0904,38.0505,1654.00,69.00,34.00,27.38,320.00,12.00,0.00,30.09,1012.10,10.00,M,CLR,M,M,M,M,M,M,M,M,M,M,M,M,M,M,69.00,KTPH 220356Z AUTO 32012KT 10SM CLR 21/01 A3009 RMK AO2 SLP121 T02060011,M
LAS,2024-09-22 03:56,-115.1634,36.0719,663.00,85.00,38.00,18.87,200.00,8.00,0.00,29.86,1009.00,10.00,M,FEW,M,M,M,12000.00,M,M,M,M,M,M,M,M,M,M,81.99,KLAS 220356Z 20008KT 10SM FEW120 29/03 A2986 RMK AO2 SLP090 T02940033 $,M
NFL,2024-09-22 03:57,-118.7010,39.4166,1199.00,62.00,35.00,36.35,30.00,8.00,0.00,30.05,1014.50,10.00,M,CLR,M,M,M,M,M,M,M,M,M,M,M,M,M,M,62.00,KNFL 220357Z AUTO 03008KT 10SM CLR 17/02 A3005 RMK AO2 SLP145 T01670017,M
05U,2024-09-22 04:10,-116.0051,39.6042,1811.23,46.40,24.80,42.44,0.00,0.00,0.00,30.19,M,10.00,M,CLR,M,M,M,M,M,M,M,M,M,M,M,M,M,M,46.40,K05U 220410Z AUTO 00000KT 10SM CLR 08/M04 A3019 RMK A01,M
BVU,2024-09-22 04:15,-114.8611,35.9475,671.00,80.60,41.00,24.46,M,4.00,0.00,29.87,M,10.00,M,CLR,M,M,M,M,M,M,M,M,M,M,M,M,M,M,79.20,KBVU 220415Z AUTO VRB04KT 10SM CLR 27/05 A2987 RMK AO2,M
CXP,2024-09-22 04:15,-119.7326,39.1923,1431.00,62.60,33.80,33.93,0.00,0.00,0.00,30.13,M,10.00,M,CLR,M,M,M,M,M,M,M,M,M,M,M,M,M,M,62.60,KCXP 220415Z AUTO 00000KT 10SM CLR 17/01 A3013 RMK AO2,M
RTS,2024-09-22 04:15,-119.8764,39.6682,1539.00,57.20,30.20,35.57,0.00,0.00,0.00,30.15,M,10.00,M,CLR,M,M,M,M,M,M,M,M,M,M,M,M,M,M,57.20,KRTS 220415Z AUTO 00000KT 10SM CLR 14/M01 A3015 RMK AO2,M
MEV,2024-09-22 04:15,-119.7500,38.9963,1441.42,51.80,39.20,61.99,0.00,0.00,0.00,30.12,M,10.00,M,CLR,M,M,M,M,M,M,M,M,M,M,M,M,M,M,51.80,KMEV 220415Z AUTO 00000KT 10SM CLR 11/04 A3012 RMK AO2,M
BAM,2024-09-22 04:15,-116.8743,40.5990,1382.36,53.60,24.80,32.46,0.00,0.00,0.00,30.13,M,10.00,M,CLR,M,M,M,M,M,M,M,M,M,M,M,M,M,M,53.60,KBAM 220415Z AUTO 00000KT 10SM CLR 12/M04 A3013 RMK AO1,M
HTH,2024-09-22 04:15,-118.6315,38.5448,1282.89,66.20,46.40,48.83,360.00,4.00,0.00,30.09,M,10.00,M,CLR,M,M,M,M,M,M,M,M,M,M,M,M,M,M,66.20,KHTH 220415Z AUTO 36004KT 10SM CLR 19/08 A3009 RMK A01,M
TMT,2024-09-22 04:15,-117.1971,39.4643,1749.34,46.00,35.80,67.36,210.00,4.00,0.00,30.18,M,10.00,M,CLR,M,M,M,M,M,M,M,M,M,M,M,M,M,M,43.77,KTMT 220415Z AUTO 21004KT 10SM CLR 08/02 A3018 RMK AO2 T00780021,M
10U,2024-09-22 04:15,-116.1876,41.9532,1637.00,42.80,26.60,52.45,0.00,0.00,0.00,30.17,M,10.00,M,CLR,M,M,M,M,M,M,M,M,M,M,M,M,M,M,42.80,K10U 220415Z AUTO 00000KT 10SM CLR 06/M03 A3017 RMK AO2,M
05U,2024-09-22 04:30,-116.0051,39.6042,1811.23,42.80,26.60,52.45,0.00,0.00,0.00,30.19,M,10.00,M,CLR,M,M,M,M,M,M,M,M,M,M,M,M,M,M,42.80,K05U 220430Z AUTO 00000KT 10SM CLR 06/M03 A3019 RMK A01,M
BVU,2024-09-22 04:35,-114.8611,35.9475,671.00,80.60,41.00,24.46,0.00,0.00,0.00,29.88,M,10.00,M,CLR,M,M,M,M,M,M,M,M,M,M,M,M,M,M,79.20,KBVU 220435Z AUTO 00000KT 10SM CLR 27/05 A2988 RMK AO2,M
CXP,2024-09-22 04:35,-119.7326,39.1923,1431.00,60.80,35.60,38.85,0.00,0.00,0.00,30.13,M,10.00,M,CLR,M,M,M,M,M,M,M,M,M,M,M,M,M,M,60.80,KCXP 220435Z AUTO 00000KT 10SM CLR 16/02 A3013 RMK AO2,M
RTS,2024-09-22 04:35,-119.8764,39.6682,1539.00,55.40,32.00,40.84,330.00,4.00,0.00,30.15,M,10.00,M,CLR,M,M,M,M,M,M,M,M,M,M,M,M,M,M,55.40,KRTS 220435Z AUTO 33004KT 10SM CLR 13/M00 A3015 RMK AO2,M
MEV,2024-09-22 04:35,-119.7500,38.9963,1441.42,51.80,39.20,61.99,90.00,3.00,0.00,30.12,M,10.00,M,FEW,M,M,M,7000.00,M,M,M,M,M,M,M,M,M,M,51.80,KMEV 220435Z AUTO 09003KT 10SM FEW070 11/04 A3012 RMK AO2,M
BAM,2024-09-22 04:35,-116.8743,40.5990,1382.36,55.40,23.00,28.20,0.00,0.00,0.00,30.13,M,10.00,M,CLR,M,M,M,M,M,M,M,M,M,M,M,M,M,M,55.40,KBAM 220435Z AUTO 00000KT 10SM CLR 13/M05 A3013 RMK AO1,M
HTH,2024-09-22 04:35,-118.6315,38.5448,1282.89,66.20,42.80,42.57,320.00,4.00,0.00,30.09,M,10.00,M,CLR,M,M,M,M,M,M,M,M,M,M,M,M,M,M,66.20,KHTH 220435Z AUTO 32004KT 10SM CLR 19/06 A3009 RMK A01,M
TMT,2024-09-22 04:35,-117.1971,39.4643,1749.34,45.70,35.20,66.53,210.00,4.00,0.00,30.18,M,10.00,M,CLR,M,M,M,M,M,M,M,M,M,M,M,M,M,M,43.42,KTMT 220435Z AUTO 21004KT 10SM CLR 08/02 A3018 RMK AO2 T00760018,M
10U,2024-09-22 04:35,-116.1876,41.9532,1637.00,44.60,28.40,52.72,0.00,0.00,0.00,30.18,M,10.00,M,CLR,M,M,M,M,M,M,M,M,M,M,M,M,M,M,44.60,K10U 220435Z AUTO 00000KT 10SM CLR 07/M02 A3018 RMK AO2,M
05U,2024-09-22 04:50,-116.0051,39.6042,1811.23,44.60,23.00,42.14,0.00,0.00,0.00,30.19,M,10.00,M,CLR,M,M,M,M,M,M,M,M,M,M,M,M,M,M,44.60,K05U 220450Z AUTO 00000KT 10SM CLR 07/M05 A3019 RMK A01,M
P68,2024-09-22 04:53,-116.0056,39.6014,1993.00,45.00,25.00,45.12,180.00,6.00,0.00,30.17,1016.70,M,M,M,M,M,M,M,M,M,M,M,M,M,M,M,M,M,41.19,KP68 220453Z AUTO 18006KT 07/M04 A3017 RMK AO1 SLP167 T00721039,M
DRA,2024-09-22 04:53,-116.0278,36.6206,1009.00,78.00,38.00,23.70,310.00,4.00,0.00,29.95,1009.50,10.00,M,CLR,M,M,M,M,M,M,M,M,M,M,M,M,M,M,78.00,KDRA 220453Z AUTO 31004KT 10SM CLR 26/03 A2995 RMK AO2 SLP095 T02560033,M
ELY,2024-09-22 04:53,-114.8453,39.2950,1909.00,54.00,26.00,33.63,350.00,3.00,0.00,30.16,1013.90,10.00,M,CLR,M,M,M,M,M,M,M,M,M,M,M,M,M,M,54.00,KELY 220453Z AUTO 35003KT 10SM CLR 12/M03 A3016 RMK AO2 SLP139 T01221033,M
VGT,2024-09-22 04:53,-115.1933,36.2111,667.00,82.00,41.00,23.37,40.00,6.00,0.00,29.86,1010.40,10.00,M,CLR,M,M,M,M,M,M,M,M,M,M,M,M,M,M,80.04,KVGT 220453Z AUTO 04006KT 10SM CLR 28/05 A2986 RMK AO2 SLP104 T02780050,M
LOL,2024-09-22 04:53,-118.5701,40.0684,1192.43,58.00,M,M,0.00,0.00,0.00,30.08,1016.00,10.00,M,CLR,M,M,M,M,M,M,M,M,M,M,M,M,M,M,M,KLOL 220453Z AUTO 00000KT 10SM CLR 14/ A3008 RMK AO2 SLP160 T0144 $,M
BVU,2024-09-22 04:55,-114.8611,35.9475,671.00,78.80,41.00,25.95,0.00,0.00,0.00,29.88,M,10.00,M,CLR,M,M,M,M,M,M,M,M,M,M,M,M,M,M,78.80,KBVU 220455Z AUTO 00000KT 10SM CLR 26/05 A2988 RMK AO2,M
RNO,2024-09-22 04:55,-119.7711,39.4839,1341.00,65.00,32.00,29.02,280.00,4.00,0.00,30.12,1016.00,10.00,M,CLR,M,M,M,M,M,M,M,M,M,M,M,M,M,M,65.00,KRNO 220455Z 28004KT 10SM CLR 18/00 A3012 RMK AO2 SLP160 T01830000,M
CXP,2024-09-22 04:55,-119.7326,39.1923,1431.00,60.80,35.60,38.85,0.00,0.00,0.00,30.14,M,10.00,M,CLR,M,M,M,M,M,M,M,M,M,M,M,M,M,M,60.80,KCXP 220455Z AUTO 00000KT 10SM CLR 16/02 A3014 RMK AO2,M
RTS,2024-09-22 04:55,-119.8764,39.6682,1539.00,55.40,32.00,40.84,0.00,0.00,0.00,30.16,M,10.00,M,CLR,M,M,M,M,M,M,M,M,M,M,M,M,M,M,55.40,KRTS 220455Z AUTO 00000KT 10SM CLR 13/M00 A3016 RMK AO2,M
MEV,2024-09-22 04:55,-119.7500,38.9963,1441.42,50.00,37.40,61.76,70.00,4.00,0.00,30.12,M,10.00,M,FEW,SCT,M,M,5500.00,7000.00,M,M,M,M,M,M,M,M,M,50.00,KMEV 220455Z AUTO 07004KT 10SM FEW055 SCT070 10/03 A3012 RMK AO2,M
BAM,2024-09-22 04:55,-116.8743,40.5990,1382.36,55.40,24.80,30.40,350.00,3.00,0.00,30.13,M,10.00,M,CLR,M,M,M,M,M,M,M,M,M,M,M,M,M,M,55.40,KBAM 220455Z AUTO 35003KT 10SM CLR 13/M04 A3013 RMK AO1,M
HTH,2024-09-22 04:55,-118.6315,38.5448,1282.89,66.20,46.40,48.83,270.00,3.00,0.00,30.09,M,10.00,M,CLR,M,M,M,M,M,M,M,M,M,M,M,M,M,M,66.20,KHTH 220455Z AUTO 27003KT 10SM CLR 19/08 A3009 RMK A01,M
TMT,2024-09-22 04:55,-117.1971,39.4643,1749.34,46.00,36.00,67.90,230.00,3.00,0.00,30.18,M,10.00,M,CLR,M,M,M,M,M,M,M,M,M,M,M,M,M,M,44.69,KTMT 220455Z AUTO 23003KT 10SM CLR 08/02 A3018 RMK AO2 T00780022,M
10U,2024-09-22 04:55,-116.1876,41.9532,1637.00,44.60,28.40,52.72,350.00,5.00,0.00,30.19,M,10.00,M,CLR,M,M,M,M,M,M,M,M,M,M,M,M,M,M,41.36,K10U 220455Z AUTO 35005KT 10SM CLR 07/M02 A3019 RMK AO2,M
INS,2024-09-22 04:55,-115.6733,36.5872,955.00,73.60,31.30,21.01,0.00,0.00,0.00,29.93,1009.20,10.00,M,CLR,M,M,M,M,M,M,M,M,M,M,M,M,M,M,73.60,KINS 220455Z AUTO 00000KT 10SM CLR 23/M00 A2993 RMK AO2 SLP092 T02311004,M
LSV,2024-09-22 04:55,-115.0343,36.2362,570.00,84.60,37.80,18.97,140.00,5.00,0.00,29.82,1007.30,10.00,M,CLR,M,M,M,M,M,M,M,M,M,M,M,M,M,M,81.68,KLSV 220455Z AUTO 14005KT 10SM CLR 29/03 A2982 RMK AO2 SLP073 T02920032 $,M
EKO,2024-09-22 04:56,-115.7860,40.8242,1367.00,59.00,26.00,28.07,90.00,3.00,0.00,30.14,1017.00,10.00,M,CLR,M,M,M,M,M,M,M,M,M,M,M,M,M,M,59.00,KEKO 220456Z AUTO 09003KT 10SM CLR 15/M03 A3014 RMK AO2 SLP170 T01501033,M
WMC,2024-09-22 04:56,-117.8072,40.9019,1315.00,55.00,30.00,38.21,330.00,3.00,0.00,30.11,1017.00,10.00,M,CLR,M,M,M,M,M,M,M,M,M,M,M,M,M,M,55.00,KWMC 220456Z AUTO 33003KT 10SM CLR 13/M01 A3011 RMK AO2 SLP170 T01281011,M
HND,2024-09-22 04:56,-115.1344,35.9729,742.79,80.00,40.00,23.99,210.00,7.00,0.00,29.91,1012.00,10.00,M,CLR,M,M,M,M,M,M,M,M,M,M,M,M,M,M,78.83,KHND 220456Z AUTO 21007KT 10SM CLR 27/04 A2991 RMK AO2 SLP120 T02670044,M
TPH,2024-09-22 04:56,-117.0904,38.0505,1654.00,64.00,35.00,33.89,340.00,8.00,0.00,30.11,1012.80,10.00,M,CLR,M,M,M,M,M,M,M,M,M,M,M,M,M,M,64.00,KTPH 220456Z AUTO 34008KT 10SM CLR 18/02 A3011 RMK AO2 SLP128 T01780017,M
LAS,2024-09-22 04:56,-115.1634,36.0719,663.00,83.00,37.00,19.35,200.00,6.00,0.00,29.87,1009.30,10.00,M,FEW,M,M,M,12000.00,M,M,M,M,M,M,M,M,M,M,80.53,KLAS 220456Z 20006KT 10SM FEW120 28/03 A2987 RMK AO2 SLP093 T02830028 $,M
NFL,2024-09-22 04:57,-118.7010,39.4166,1199.00,57.00,36.00,45.22,350.00,7.00,0.00,30.06,1014.90,10.00,M,CLR,M,M,M,M,M,M,M,M,M,M,M,M,M,M,57.00,KNFL 220457Z AUTO 35007KT 10SM CLR 14/02 A3006 RMK AO2 SLP149 T01390022,M
05U,2024-09-22 05:10,-116.0051,39.6042,1811.23,44.60,23.00,42.14,0.00,0.00,0.00,30.19,M,10.00,M,CLR,M,M,M,M,M,M,M,M,M,M,M,M,M,M,44.60,K05U 220510Z AUTO 00000KT 10SM CLR 07/M05 A3019 RMK A01,M
BVU,2024-09-22 05:15,-114.8611,35.9475,671.00,78.80,42.80,27.81,0.00,0.00,0.00,29.89,M,10.00,M,CLR,M,M,M,M,M,M,M,M,M,M,M,M,M,M,78.80,KBVU 220515Z AUTO 00000KT 10SM CLR 26/06 A2989 RMK AO2,M
CXP,2024-09-22 05:15,-119.7326,39.1923,1431.00,60.80,33.80,36.16,0.00,0.00,0.00,30.15,M,10.00,M,CLR,M,M,M,M,M,M,M,M,M,M,M,M,M,M,60.80,KCXP 220515Z AUTO 00000KT 10SM CLR 16/01 A3015 RMK AO2,M
RTS,2024-09-22 05:15,-119.8764,39.6682,1539.00,53.60,30.20,40.54,0.00,0.00,0.00,30.16,M,10.00,M,CLR,M,M,M,M,M,M,M,M,M,M,M,M,M,M,53.60,KRTS 220515Z AUTO 00000KT 10SM CLR 12/M01 A3016 RMK AO2,M
MEV,2024-09-22 05:15,-119.7500,38.9963,1441.42,48.20,39.20,70.88,170.00,3.00,0.00,30.13,M,10.00,M,FEW,FEW,M,M,5500.00,7000.00,M,M,M,M,M,M,M,M,M,47.21,KMEV 220515Z AUTO 17003KT 10SM FEW055 FEW070 09/04 A3013 RMK AO2,M
BAM,2024-09-22 05:15,-116.8743,40.5990,1382.36,55.40,26.60,32.76,360.00,4.00,0.00,30.14,M,10.00,M,CLR,M,M,M,M,M,M,M,M,M,M,M,M,M,M,55.40,KBAM 220515Z AUTO 36004KT 10SM CLR 13/M03 A3014 RMK AO1,M
HTH,2024-09-22 05:15,-118.6315,38.5448,1282.89,62.60,48.20,59.26,230.00,6.00,0.00,30.09,M,10.00,M,CLR,M,M,M,M,M,M,M,M,M,M,M,M,M,M,62.60,KHTH 220515Z AUTO 23006KT 10SM CLR 17/09 A3009 RMK A01,M
TMT,2024-09-22 05:15,-117.1971,39.4643,1749.34,46.60,35.60,65.33,240.00,4.00,0.00,30.18,M,10.00,M,CLR,M,M,M,M,M,M,M,M,M,M,M,M,M,M,44.47,KTMT 220515Z AUTO 24004KT 10SM CLR 08/02 A3018 RMK AO2 T00810020,M
10U,2024-09-22 05:15,-116.1876,41.9532,1637.00,46.40,28.40,49.24,0.00,0.00,0.00,30.19,M,10.00,M,CLR,M,M,M,M,M,M,M,M,M,M,M,M,M,M,46.40,K10U 220515Z AUTO 00000KT 10SM CLR 08/M02 A3019 RMK AO2,M
05U,2024-09-22 05:30,-116.0051,39.6042,1811.23,41.00,24.80,52.17,0.00,0.00,0.00,30.20,M,10.00,M,CLR,M,M,M,M,M,M,M,M,M,M,M,M,M,M,41.00,K05U 220530Z AUTO 00000KT 10SM CLR 05/M04 A3020 RMK A01,M
BVU,2024-09-22 05:35,-114.8611,35.9475,671.00,78.80,42.80,27.81,160.00,5.00,0.00,29.89,M,10.00,M,CLR,M,M,M,M,M,M,M,M,M,M,M,M,M,M,78.80,KBVU 220535Z AUTO 16005KT 10SM CLR 26/06 A2989 RMK AO2,M
CXP,2024-09-22 05:35,-119.7326,39.1923,1431.00,57.20,35.60,44.19,0.00,0.00,0.00,30.15,M,10.00,M,CLR,M,M,M,M,M,M,M,M,M,M,M,M,M,M,57.20,KCXP 220535Z AUTO 00000KT 10SM CLR 14/02 A3015 RMK AO2,M
RTS,2024-09-22 05:35,-119.8764,39.6682,1539.00,53.60,30.20,40.54,340.00,3.00,0.00,30.16,M,10.00,M,CLR,M,M,M,M,M,M,M,M,M,M,M,M,M,M,53.60,KRTS 220535Z AUTO 34003KT 10SM CLR 12/M01 A3016 RMK AO2,M
MEV,2024-09-22 05:35,-119.7500,38.9963,1441.42,50.00,37.40,61.76,140.00,5.00,0.00,30.13,M,10.00,M,FEW,FEW,SCT,M,4900.00,6500.00,7000.00,M,M,M,M,M,M,M,M,50.00,KMEV 220535Z AUTO 14005KT 10SM FEW049 FEW065 SCT070 10/03 A3013 RMK AO2,M
BAM,2024-09-22 05:35,-116.8743,40.5990,1382.36,50.00,24.80,37.08,10.00,4.00,0.00,30.15,M,10.00,M,CLR,M,M,M,M,M,M,M,M,M,M,M,M,M,M,50.00,KBAM 220535Z AUTO 01004KT 10SM CLR 10/M04 A3015 RMK AO1,M
HTH,2024-09-22 05:35,-118.6315,38.5448,1282.89,62.60,41.00,45.04,220.00,4.00,0.00,30.10,M,10.00,M,CLR,M,M,M,M,M,M,M,M,M,M,M,M,M,M,62.60,KHTH 220535Z AUTO 22004KT 10SM CLR 17/05 A3010 RMK A01,M
TMT,2024-09-22 05:35,-117.1971,39.4643,1749.34,42.00,35.00,76.03,210.00,4.00,0.00,30.19,M,10.00,M,CLR,M,M,M,M,M,M,M,M,M,M,M,M,M,M,39.10,KTMT 220535Z AUTO 21004KT 10SM CLR 06/02 A3019 RMK AO2 T00550017,M
10U,2024-09-22 05:35,-116.1876,41.9532,1637.00,46.40,28.40,49.24,0.00,0.00,0.00,30.19,M,10.00,M,CLR,M,M,M,M,M,M,M,M,M,M,M,M,M,M,46.40,K10U 220535Z AUTO 00000KT 10SM CLR 08/M02 A3019 RMK AO2,M
05U,2024-09-22 05:50,-116.0051,39.6042,1811.23,42.80,23.00,45.14,0.00,0.00,0.00,30.20,M,10.00,M,CLR,M,M,M,M,M,M,M,M,M,M,M,M,M,M,42.80,K05U 220550Z AUTO 00000KT 10SM CLR 06/M05 A3020 RMK A01,M
P68,2024-09-22 05:53,-116.0056,39.6014,1993.00,44.00,24.00,44.96,180.00,6.00,0.00,30.18,1016.60,M,M,M,M,M,M,M,M,M,M,M,M,M,M,M,M,M,39.98,KP68 220553Z AUTO 18006KT 07/M04 A3018 RMK AO1 SLP166 T00671044 10228 20050 51012,M
DRA,2024-09-22 05:53,-116.0278,36.6206,1009.00,73.00,37.00,26.92,340.00,8.00,0.00,29.95,1009.70,10.00,M,CLR,M,M,M,M,M,M,M,M,M,M,M,M,M,M,73.00,KDRA 220553Z AUTO 34008KT 10SM CLR 23/03 A2995 RMK AO2 SLP097 T02280028 10317 20228 51013,M
ELY,2024-09-22 05:53,-114.8453,39.2950,1909.00,45.00,25.00,45.12,170.00,8.00,0.00,30.18,1015.00,10.00,M,CLR,M,M,M,M,M,M,M,M,M,M,M,M,M,M,40.13,KELY 220553Z AUTO 17008KT 10SM CLR 07/M04 A3018 RMK AO2 SLP150 T00721039 10228 20072 51018,M
VGT,2024-09-22 05:53,-115.1933,36.2111,667.00,80.00,41.00,24.94,360.00,6.00,0.00,29.88,1010.90,10.00,M,CLR,M,M,M,M,M,M,M,M,M,M,M,M,M,M,78.87,KVGT 220553Z AUTO 36006KT 10SM CLR 27/05 A2988 RMK AO2 SLP109 T02670050 10333 20267 51018,M
LOL,2024-09-22 05:53,-118.5701,40.0684,1192.43,51.00,M,M,110.00,3.00,0.00,30.09,1016.50,10.00,M,CLR,M,M,M,M,M,M,M,M,M,M,M,M,M,M,M,KLOL 220553Z AUTO 11003KT 10SM CLR 11/ A3009 RMK AO2 SLP165 T0106 10256 20094 51012 $,M
BVU,2024-09-22 05:55,-114.8611,35.9475,671.00,75.20,46.40,35.94,0.00,0.00,0.00,29.89,M,10.00,M,CLR,M,M,M,M,M,M,M,M,M,M,M,M,M,M,75.20,KBVU 220555Z AUTO 00000KT 10SM CLR 24/08 A2989 RMK AO2,M
RNO,2024-09-22 05:55,-119.7711,39.4839,1341.00,63.00,32.00,31.12,270.00,3.00,0.00,30.13,1015.80,10.00,M,CLR,M,M,M,M,M,M,M,M,M,M,M,M,M,M,63.00,KRNO 220555Z 27003KT 10SM CLR 17/00 A3013 RMK AO2 SLP158 T01720000 10267 20172 51016,M
CXP,2024-09-22 05:55,-119.7326,39.1923,1431.00,57.20,35.60,44.19,0.00,0.00,0.00,30.15,M,10.00,M,CLR,M,M,M,M,M,M,M,M,M,M,M,M,M,M,57.20,KCXP 220555Z AUTO 00000KT 10SM CLR 14/02 A3015 RMK AO2,M
INS,2024-09-22 05:55,-115.6733,36.5872,955.00,73.80,31.50,21.04,110.00,3.00,0.00,29.94,1009.30,10.00,M,CLR,M,M,M,M,M,M,M,M,M,M,M,M,M,M,73.80,KINS 220555Z AUTO 11003KT 10SM CLR 23/M00 A2994 RMK AO2 SLP093 T02321003 10313 20231 52017,M
RTS,2024-09-22 05:55,-119.8764,39.6682,1539.00,50.00,32.00,49.81,350.00,7.00,0.00,30.16,M,10.00,M,CLR,M,M,M,M,M,M,M,M,M,M,M,M,M,M,50.00,KRTS 220555Z AUTO 35007KT 10SM CLR 10/00 A3016 RMK AO2,M
MEV,2024-09-22 05:55,-119.7500,38.9963,1441.42,48.20,35.60,61.52,150.00,7.00,0.00,30.13,M,10.00,M,FEW,FEW,SCT,M,4600.00,5500.00,7000.00,M,M,M,M,M,M,M,M,44.53,KMEV 220555Z AUTO 15007KT 10SM FEW046 FEW055 SCT070 09/02 A3013 RMK AO2,M
BAM,2024-09-22 05:55,-116.8743,40.5990,1382.36,51.80,24.80,34.69,10.00,5.00,0.00,30.15,M,10.00,M,CLR,M,M,M,M,M,M,M,M,M,M,M,M,M,M,51.80,KBAM 220555Z AUTO 01005KT 10SM CLR 11/M04 A3015 RMK AO1,M
HTH,2024-09-22 05:55,-118.6315,38.5448,1282.89,59.00,44.60,58.77,170.00,4.00,0.00,30.10,M,10.00,M,CLR,M,M,M,M,M,M,M,M,M,M,M,M,M,M,59.00,KHTH 220555Z AUTO 17004KT 10SM CLR 15/07 A3010 RMK A01,M
TMT,2024-09-22 05:55,-117.1971,39.4643,1749.34,44.60,37.80,76.87,220.00,6.00,0.00,30.19,M,10.00,M,CLR,M,M,M,M,M,M,M,M,M,M,M,M,M,M,40.71,KTMT 220555Z AUTO 22006KT 10SM CLR 07/03 A3019 RMK AO2 T00700032 10213 20054,M
10U,2024-09-22 05:55,-116.1876,41.9532,1637.00,44.60,26.60,48.96,0.00,0.00,0.00,30.19,M,10.00,M,CLR,M,M,M,M,M,M,M,M,M,M,M,M,M,M,44.60,K10U 220555Z AUTO 00000KT 10SM CLR 07/M03 A3019 RMK AO2,M
LSV,2024-09-22 05:55,-115.0343,36.2362,570.00,80.00,41.00,24.94,70.00,4.00,0.00,29.83,1007.70,10.00,M,CLR,M,M,M,M,M,M,M,M,M,M,M,M,M,M,78.87,KLSV 220555Z AUTO 07004KT 10SM CLR 27/05 A2983 RMK AO2 SLP077 T02670050 10330 20267 52016 $,M
EKO,2024-09-22 05:56,-115.7860,40.8242,1367.00,55.00,27.00,33.79,100.00,4.00,0.00,30.15,1017.20,10.00,M,CLR,M,M,M,M,M,M,M,M,M,M,M,M,M,M,55.00,KEKO 220556Z AUTO 10004KT 10SM CLR 13/M03 A3015 RMK AO2 SLP172 T01281028 10250 20122 51018,M
WMC,2024-09-22 05:56,-117.8072,40.9019,1315.00,52.00,28.00,39.30,300.00,5.00,0.00,30.12,1016.90,10.00,M,CLR,M,M,M,M,M,M,M,M,M,M,M,M,M,M,52.00,KWMC 220556Z AUTO 30005KT 10SM CLR 11/M02 A3012 RMK AO2 SLP169 T01111022 10244 20106 51008,M
HND,2024-09-22 05:56,-115.1344,35.9729,742.79,78.00,40.00,25.62,200.00,9.00,0.00,29.92,1012.30,10.00,M,CLR,M,M,M,M,M,M,M,M,M,M,M,M,M,M,78.00,KHND 220556Z AUTO 20009KT 10SM CLR 26/04 A2992 RMK AO2 SLP123 T02560044 10322 20256 51013,M
TPH,2024-09-22 05:56,-117.0904,38.0505,1654.00,64.00,32.00,30.05,340.00,9.00,0.00,30.12,1012.90,10.00,M,CLR,M,M,M,M,M,M,M,M,M,M,M,M,M,M,64.00,KTPH 220556Z AUTO 34009KT 10SM CLR 18/00 A3012 RMK AO2 SLP129 T01780000 10261 20178 51014,M
LAS,2024-09-22 05:56,-115.1634,36.0719,663.00,80.00,38.00,22.19,210.00,6.00,0.00,29.89,1009.70,10.00,M,CLR,M,M,M,M,M,M,M,M,M,M,M,M,M,M,78.74,KLAS 220556Z 21006KT 10SM CLR 27/03 A2989 RMK AO2 SLP097 T02670033 10322 20267 51014 $,M
NFL,2024-09-22 05:57,-118.7010,39.4166,1199.00,56.00,34.00,43.30,0.00,0.00,0.00,30.07,1015.20,10.00,M,CLR,M,M,M,M,M,M,M,M,M,M,M,M,M,M,56.00,KNFL 220557Z AUTO 00000KT 10SM CLR 13/01 A3007 RMK AO2 SLP152 T01330011 10272 20128 51013,M
05U,2024-09-22 06:10,-116.0051,39.6042,1811.23,42.80,23.00,45.14,0.00,0.00,0.00,30.20,M,10.00,M,CLR,M,M,M,M,M,M,M,M,M,M,M,M,M,M,42.80,K05U 220610Z AUTO 00000KT 10SM CLR 06/M05 A3020 RMK A01,M
BVU,2024-09-22 06:15,-114.8611,35.9475,671.00,73.40,46.40,38.18,10.00,5.00,0.00,29.89,M,10.00,M,CLR,M,M,M,M,M,M,M,M,M,M,M,M,M,M,73.40,KBVU 220615Z AUTO 01005KT 10SM CLR 23/08 A2989 RMK AO2,M
CXP,2024-09-22 06:15,-119.7326,39.1923,1431.00,57.20,35.60,44.19,0.00,0.00,0.00,30.15,M,10.00,M,CLR,M,M,M,M,M,M,M,M,M,M,M,M,M,M,57.20,KCXP 220615Z AUTO 00000KT 10SM CLR 14/02 A3015 RMK AO2,M
RTS,2024-09-22 06:15,-119.8764,39.6682,1539.00,51.80,30.20,43.32,10.00,3.00,0.00,30.16,M,10.00,M,CLR,M,M,M,M,M,M,M,M,M,M,M,M,M,M,51.80,KRTS 220615Z AUTO 01003KT 10SM CLR 11/M01 A3016 RMK AO2,M
MEV,2024-09-22 06:15,-119.7500,38.9963,1441.42,48.20,35.60,61.52,180.00,5.00,0.00,30.13,M,10.00,M,FEW,FEW,FEW,M,4400.00,5000.00,7000.00,M,M,M,M,M,M,M,M,45.63,KMEV 220615Z AUTO 18005KT 10SM FEW044 FEW050 FEW070 09/02 A3013 RMK AO2,M
BAM,2024-09-22 06:15,-116.8743,40.5990,1382.36,50.00,24.80,37.08,10.00,6.00,0.00,30.15,M,10.00,M,CLR,M,M,M,M,M,M,M,M,M,M,M,M,M,M,50.00,KBAM 220615Z AUTO 01006KT 10SM CLR 10/M04 A3015 RMK AO1,M
HTH,2024-09-22 06:15,-118.6315,38.5448,1282.89,60.80,41.00,48.00,0.00,0.00,0.00,30.10,M,10.00,M,CLR,M,M,M,M,M,M,M,M,M,M,M,M,M,M,60.80,KHTH 220615Z AUTO 00000KT 10SM CLR 16/05 A3010 RMK A01,M
TMT,2024-09-22 06:15,-117.1971,39.4643,1749.34,44.00,37.80,78.65,220.00,4.00,0.00,30.19,M,10.00,M,CLR,M,M,M,M,M,M,M,M,M,M,M,M,M,M,41.43,KTMT 220615Z AUTO 22004KT 10SM CLR 07/03 A3019 RMK AO2 T00670032,M
10U,2024-09-22 06:15,-116.1876,41.9532,1637.00,41.00,28.40,60.54,0.00,0.00,0.00,30.19,M,10.00,M,CLR,M,M,M,M,M,M,M,M,M,M,M,M,M,M,41.00,K10U 220615Z AUTO 00000KT 10SM CLR 05/M02 A3019 RMK AO2,M
05U,2024-09-22 06:30,-116.0051,39.6042,1811.23,42.80,23.00,45.14,0.00,0.00,0.00,30.21,M,10.00,M,CLR,M,M,M,M,M,M,M,M,M,M,M,M,M,M,42.80,K05U 220630Z AUTO 00000KT 10SM CLR 06/M05 A3021 RMK A01,M
BVU,2024-09-22 06:35,-114.8611,35.9475,671.00,71.60,44.60,37.89,340.00,7.00,0.00,29.90,M,10.00,M,CLR,M,M,M,M,M,M,M,M,M,M,M,M,M,M,71.60,KBVU 220635Z AUTO 34007KT 10SM CLR 22/07 A2990 RMK AO2,M
CXP,2024-09-22 06:35,-119.7326,39.1923,1431.00,57.20,33.80,41.13,20.00,4.00,0.00,30.15,M,10.00,M,CLR,M,M,M,M,M,M,M,M,M,M,M,M,M,M,57.20,KCXP 220635Z AUTO 02004KT 10SM CLR 14/01 A3015 RMK AO2,M
RTS,2024-09-22 06:35,-119.8764,39.6682,1539.00,50.00,28.40,43.03,0.00,0.00,0.00,30.16,M,10.00,M,CLR,M,M,M,M,M,M,M,M,M,M,M,M,M,M,50.00,KRTS 220635Z AUTO 00000KT 10SM CLR 10/M02 A3016 RMK AO2,M
MEV,2024-09-22 06:35,-119.7500,38.9963,1441.42,48.20,35.60,61.52,130.00,5.00,0.00,30.14,M,10.00,M,FEW,SCT,SCT,M,3900.00,4700.00,5500.00,M,M,M,M,M,M,M,M,45.63,KMEV 220635Z AUTO 13005KT 10SM FEW039 SCT047 SCT055 09/02 A3014 RMK AO2,M
BAM,2024-09-22 06:35,-116.8743,40.5990,1382.36,51.80,23.00,32.17,10.00,6.00,0.00,30.15,M,10.00,M,CLR,M,M,M,M,M,M,M,M,M,M,M,M,M,M,51.80,KBAM 220635Z AUTO 01006KT 10SM CLR 11/M05 A3015 RMK AO1,M
HTH,2024-09-22 06:35,-118.6315,38.5448,1282.89,60.80,39.20,44.76,250.00,3.00,0.00,30.10,M,10.00,M,CLR,M,M,M,M,M,M,M,M,M,M,M,M,M,M,60.80,KHTH 220635Z AUTO 25003KT 10SM CLR 16/04 A3010 RMK A01,M
TMT,2024-09-22 06:35,-117.1971,39.4643,1749.34,38.30,34.00,84.36,190.00,4.00,0.00,30.20,M,10.00,M,CLR,M,M,M,M,M,M,M,M,M,M,M,M,M,M,34.78,KTMT 220635Z AUTO 19004KT 10SM CLR 04/01 A3020 RMK AO2 T00350012,M
10U,2024-09-22 06:35,-116.1876,41.9532,1637.00,39.20,28.40,64.93,M,4.00,0.00,30.19,M,10.00,M,CLR,M,M,M,M,M,M,M,M,M,M,M,M,M,M,35.83,K10U 220635Z AUTO VRB04KT 10SM CLR 04/M02 A3019 RMK AO2,M
05U,2024-09-22 06:50,-116.0051,39.6042,1811.23,39.20,21.20,48.10,0.00,0.00,0.00,30.21,M,10.00,M,CLR,M,M,M,M,M,M,M,M,M,M,M,M,M,M,39.20,K05U 220650Z AUTO 00000KT 10SM CLR 04/M06 A3021 RMK A01,M
P68,2024-09-22 06:53,-116.0056,39.6014,1993.00,39.00,23.00,52.30,0.00,0.00,0.00,30.19,1017.20,M,M,M,M,M,M,M,M,M,M,M,M,M,M,M,M,M,39.00,KP68 220653Z AUTO 00000KT 04/M05 A3019 RMK AO1 SLP172 T00391050,M
DRA,2024-09-22 06:53,-116.0278,36.6206,1009.00,72.00,37.00,27.85,360.00,5.00,0.00,29.96,1010.00,10.00,M,CLR,M,M,M,M,M,M,M,M,M,M,M,M,M,M,72.00,KDRA 220653Z AUTO 36005KT 10SM CLR 22/03 A2996 RMK AO2 SLP100 T02220028,M
ELY,2024-09-22 06:53,-114.8453,39.2950,1909.00,42.00,24.00,48.55,170.00,6.00,0.00,30.18,1014.90,10.00,M,CLR,M,M,M,M,M,M,M,M,M,M,M,M,M,M,37.57,KELY 220653Z AUTO 17006KT 10SM CLR 06/M04 A3018 RMK AO2 SLP149 T00561044,M
VGT,2024-09-22 06:53,-115.1933,36.2111,667.00,78.00,45.00,31.06,360.00,6.00,0.00,29.89,1011.30,10.00,M,CLR,M,M,M,M,M,M,M,M,M,M,M,M,M,M,78.00,KVGT 220653Z AUTO 36006KT 10SM CLR 26/07 A2989 RMK AO2 SLP113 T02560072,M
LOL,2024-09-22 06:53,-118.5701,40.0684,1192.43,49.00,M,M,0.00,0.00,0.00,30.10,1016.80,10.00,M,CLR,M,M,M,M,M,M,M,M,M,M,M,M,M,M,M,KLOL 220653Z AUTO 00000KT 10SM CLR 09/ A3010 RMK AO2 SLP168 T0094 $,M
BVU,2024-09-22 06:55,-114.8611,35.9475,671.00,71.60,46.40,40.57,10.00,4.00,0.00,29.89,M,10.00,M,CLR,M,M,M,M,M,M,M,M,M,M,M,M,M,M,71.60,KBVU 220655Z AUTO 01004KT 10SM CLR 22/08 A2989 RMK AO2,M
RNO,2024-09-22 06:55,-119.7711,39.4839,1341.00,60.00,32.00,34.61,0.00,0.00,0.00,30.14,1016.10,10.00,M,CLR,M,M,M,M,M,M,M,M,M,M,M,M,M,M,60.00,KRNO 220655Z 00000KT 10SM CLR 16/00 A3014 RMK AO2 SLP161 T01560000,M
CXP,2024-09-22 06:55,-119.7326,39.1923,1431.00,57.20,33.80,41.13,0.00,0.00,0.00,30.16,M,10.00,M,CLR,M,M,M,M,M,M,M,M,M,M,M,M,M,M,57.20,KCXP 220655Z AUTO 00000KT 10SM CLR 14/01 A3016 RMK AO2,M
RTS,2024-09-22 06:55,-119.8764,39.6682,1539.00,48.20,28.40,46.02,320.00,4.00,0.00,30.16,M,10.00,M,CLR,M,M,M,M,M,M,M,M,M,M,M,M,M,M,46.34,KRTS 220655Z AUTO 32004KT 10SM CLR 09/M02 A3016 RMK AO2,M
MEV,2024-09-22 06:55,-119.7500,38.9963,1441.42,50.00,35.60,57.52,90.00,4.00,0.00,30.14,M,10.00,M,FEW,FEW,SCT,M,3900.00,4600.00,5500.00,M,M,M,M,M,M,M,M,50.00,KMEV 220655Z AUTO 09004KT 10SM FEW039 FEW046 SCT055 10/02 A3014 RMK AO2,M
BAM,2024-09-22 06:55,-116.8743,40.5990,1382.36,46.40,23.00,39.36,0.00,0.00,0.00,30.16,M,10.00,M,CLR,M,M,M,M,M,M,M,M,M,M,M,M,M,M,46.40,KBAM 220655Z AUTO 00000KT 10SM CLR 08/M05 A3016 RMK AO1,M
HTH,2024-09-22 06:55,-118.6315,38.5448,1282.89,59.00,41.00,51.18,0.00,0.00,0.00,30.10,M,10.00,M,CLR,M,M,M,M,M,M,M,M,M,M,M,M,M,M,59.00,KHTH 220655Z AUTO 00000KT 10SM CLR 15/05 A3010 RMK A01,M
TMT,2024-09-22 06:55,-117.1971,39.4643,1749.34,38.50,33.80,83.03,170.00,3.00,0.00,30.20,M,10.00,M,CLR,M,M,M,M,M,M,M,M,M,M,M,M,M,M,36.12,KTMT 220655Z AUTO 17003KT 10SM CLR 04/01 A3020 RMK AO2 T00360010,M
10U,2024-09-22 06:55,-116.1876,41.9532,1637.00,37.40,26.60,64.70,0.00,0.00,0.00,30.20,M,10.00,M,CLR,M,M,M,M,M,M,M,M,M,M,M,M,M,M,37.40,K10U 220655Z AUTO 00000KT 10SM CLR 03/M03 A3020 RMK AO2,M
INS,2024-09-22 06:55,-115.6733,36.5872,955.00,69.80,30.40,23.05,0.00,0.00,0.00,29.95,1009.70,10.00,M,CLR,M,M,M,M,M,M,M,M,M,M,M,M,M,M,69.80,KINS 220655Z AUTO 00000KT 10SM CLR 21/M01 A2995 RMK AO2 SLP097 T02101009,M
LSV,2024-09-22 06:55,-115.0343,36.2362,570.00,78.60,43.70,28.98,90.00,5.00,0.00,29.84,1008.00,10.00,M,CLR,M,M,M,M,M,M,M,M,M,M,M,M,M,M,78.60,KLSV 220655Z AUTO 09005KT 10SM CLR 26/07 A2984 RMK AO2 SLP080 T02590065 $,M
EKO,2024-09-22 06:56,-115.7860,40.8242,1367.00,51.00,26.00,37.55,50.00,3.00,0.00,30.15,1017.50,10.00,M,CLR,M,M,M,M,M,M,M,M,M,M,M,M,M,M,51.00,KEKO 220656Z AUTO 05003KT 10SM CLR 11/M03 A3015 RMK AO2 SLP175 T01061033,M
WMC,2024-09-22 06:56,-117.8072,40.9019,1315.00,47.00,28.00,47.36,310.00,5.00,0.00,30.12,1017.10,10.00,M,CLR,M,M,M,M,M,M,M,M,M,M,M,M,M,M,44.21,KWMC 220656Z AUTO 31005KT 10SM CLR 08/M02 A3012 RMK AO2 SLP171 T00831022,M
HND,2024-09-22 06:56,-115.1344,35.9729,742.79,74.00,40.00,29.28,200.00,7.00,0.00,29.93,1012.50,10.00,M,CLR,M,M,M,M,M,M,M,M,M,M,M,M,M,M,74.00,KHND 220656Z AUTO 20007KT 10SM CLR 23/04 A2993 RMK AO2 SLP125 T02330044 403220178,M
TPH,2024-09-22 06:56,-117.0904,38.0505,1654.00,62.00,31.00,30.96,350.00,11.00,0.00,30.12,1013.20,10.00,M,CLR,M,M,M,M,M,M,M,M,M,M,M,M,M,M,62.00,KTPH 220656Z AUTO 35011KT 10SM CLR 17/M01 A3012 RMK AO2 SLP132 T01671006,M
LAS,2024-09-22 06:56,-115.1634,36.0719,663.00,80.00,39.00,23.08,M,3.00,0.00,29.90,1010.00,10.00,M,CLR,M,M,M,M,M,M,M,M,M,M,M,M,M,M,78.78,KLAS 220656Z VRB03KT 10SM CLR 27/04 A2990 RMK AO2 SLP100 T02670039 $,M
NFL,2024-09-22 06:57,-118.7010,39.4166,1199.00,51.00,37.00,58.58,220.00,4.00,0.00,30.09,1015.70,10.00,M,CLR,M,M,M,M,M,M,M,M,M,M,M,M,M,M,51.00,KNFL 220657Z AUTO 22004KT 10SM CLR 11/03 A3009 RMK AO2 SLP157 T01060028,M
05U,2024-09-22 07:10,-116.0051,39.6042,1811.23,39.20,24.80,55.95,0.00,0.00,0.00,30.21,M,10.00,M,CLR,M,M,M,M,M,M,M,M,M,M,M,M,M,M,39.20,K05U 220710Z AUTO 00000KT 10SM CLR 04/M04 A3021 RMK A01,M
BVU,2024-09-22 07:15,-114.8611,35.9475,671.00,71.60,46.40,40.57,350.00,4.00,0.00,29.90,M,10.00,M,CLR,M,M,M,M,M,M,M,M,M,M,M,M,M,M,71.60,KBVU 220715Z AUTO 35004KT 10SM CLR 22/08 A2990 RMK AO2,M
CXP,2024-09-22 07:15,-119.7326,39.1923,1431.00,53.60,35.60,50.36,0.00,0.00,0.00,30.16,M,10.00,M,CLR,M,M,M,M,M,M,M,M,M,M,M,M,M,M,53.60,KCXP 220715Z AUTO 00000KT 10SM CLR 12/02 A3016 RMK AO2,M
RTS,2024-09-22 07:15,-119.8764,39.6682,1539.00,48.20,28.40,46.02,0.00,0.00,0.00,30.16,M,10.00,M,CLR,M,M,M,M,M,M,M,M,M,M,M,M,M,M,48.20,KRTS 220715Z AUTO 00000KT 10SM CLR 09/M02 A3016 RMK AO2,M
MEV,2024-09-22 07:15,-119.7500,38.9963,1441.42,50.00,33.80,53.54,90.00,3.00,0.00,30.15,M,10.00,M,FEW,FEW,SCT,M,3600.00,4100.00,4800.00,M,M,M,M,M,M,M,M,50.00,KMEV 220715Z AUTO 09003KT 10SM FEW036 FEW041 SCT048 10/01 A3015 RMK AO2,M
BAM,2024-09-22 07:15,-116.8743,40.5990,1382.36,44.60,21.20,39.06,0.00,0.00,0.00,30.16,M,10.00,M,CLR,M,M,M,M,M,M,M,M,M,M,M,M,M,M,44.60,KBAM 220715Z AUTO 00000KT 10SM CLR 07/M06 A3016 RMK AO1,M
HTH,2024-09-22 07:15,-118.6315,38.5448,1282.89,57.20,41.00,54.60,180.00,3.00,0.00,30.11,M,10.00,M,CLR,M,M,M,M,M,M,M,M,M,M,M,M,M,M,57.20,KHTH 220715Z AUTO 18003KT 10SM CLR 14/05 A3011 RMK A01,M
TMT,2024-09-22 07:15,-117.1971,39.4643,1749.34,40.00,34.00,78.94,260.00,4.00,0.00,30.20,M,10.00,M,CLR,M,M,M,M,M,M,M,M,M,M,M,M,M,M,36.76,KTMT 220715Z AUTO 26004KT 10SM CLR 04/01 A3020 RMK AO2 T00440012,M
10U,2024-09-22 07:15,-116.1876,41.9532,1637.00,35.60,26.60,69.46,0.00,0.00,0.00,30.20,M,10.00,M,CLR,M,M,M,M,M,M,M,M,M,M,M,M,M,M,35.60,K10U 220715Z AUTO 00000KT 10SM CLR 02/M03 A3020 RMK AO2,M
05U,2024-09-22 07:30,-116.0051,39.6042,1811.23,39.20,23.00,51.89,0.00,0.00,0.00,30.21,M,10.00,M,CLR,M,M,M,M,M,M,M,M,M,M,M,M,M,M,39.20,K05U 220730Z AUTO 00000KT 10SM CLR 04/M05 A3021 RMK A01,M
BVU,2024-09-22 07:35,-114.8611,35.9475,671.00,73.40,44.60,35.66,0.00,0.00,0.00,29.90,M,10.00,M,CLR,M,M,M,M,M,M,M,M,M,M,M,M,M,M,73.40,KBVU 220735Z AUTO 00000KT 10SM CLR 23/07 A2990 RMK AO2,M
CXP,2024-09-22 07:35,-119.7326,39.1923,1431.00,53.60,35.60,50.36,0.00,0.00,0.00,30.16,M,10.00,M,CLR,M,M,M,M,M,M,M,M,M,M,M,M,M,M,53.60,KCXP 220735Z AUTO 00000KT 10SM CLR 12/02 A3016 RMK AO2,M
RTS,2024-09-22 07:35,-119.8764,39.6682,1539.00,46.40,32.00,57.00,360.00,6.00,0.00,30.17,M,10.00,M,CLR,M,M,M,M,M,M,M,M,M,M,M,M,M,M,42.87,KRTS 220735Z AUTO 36006KT 10SM CLR 08/M00 A3017 RMK AO2,M
MEV,2024-09-22 07:35,-119.7500,38.9963,1441.42,46.40,35.60,65.83,0.00,0.00,0.00,30.15,M,10.00,M,FEW,SCT,M,M,4600.00,5500.00,M,M,M,M,M,M,M,M,M,46.40,KMEV 220735Z AUTO 00000KT 10SM FEW046 SCT055 08/02 A3015 RMK AO2,M
BAM,2024-09-22 07:35,-116.8743,40.5990,1382.36,42.80,19.40,38.75,120.00,5.00,0.00,30.16,M,10.00,M,CLR,M,M,M,M,M,M,M,M,M,M,M,M,M,M,39.22,KBAM 220735Z AUTO 12005KT 10SM CLR 06/M07 A3016 RMK AO1,M
HTH,2024-09-22 07:35,-118.6315,38.5448,1282.89,59.00,41.00,51.18,210.00,4.00,0.00,30.11,M,10.00,M,CLR,M,M,M,M,M,M,M,M,M,M,M,M,M,M,59.00,KHTH 220735Z AUTO 21004KT 10SM CLR 15/05 A3011 RMK A01,M
TMT,2024-09-22 07:35,-117.1971,39.4643,1749.34,39.20,36.00,88.18,290.00,3.00,0.00,30.21,M,10.00,M,CLR,M,M,M,M,M,M,M,M,M,M,M,M,M,M,36.92,KTMT 220735Z AUTO 29003KT 10SM CLR 04/02 A3021 RMK AO2 T00400023,M
10U,2024-09-22 07:35,-116.1876,41.9532,1637.00,37.40,26.60,64.70,0.00,0.00,0.00,30.19,M,10.00,M,CLR,M,M,M,M,M,M,M,M,M,M,M,M,M,M,37.40,K10U 220735Z AUTO 00000KT 10SM CLR 03/M03 A3019 RMK AO2,M
05U,2024-09-22 07:50,-116.0051,39.6042,1811.23,39.20,23.00,51.89,0.00,0.00,0.00,30.22,M,10.00,M,CLR,M,M,M,M,M,M,M,M,M,M,M,M,M,M,39.20,K05U 220750Z AUTO 00000KT 10SM CLR 04/M05 A3022 RMK A01,M
P68,2024-09-22 07:53,-116.0056,39.6014,1993.00,38.00,23.00,54.39,200.00,3.00,0.00,30.19,1017.40,M,M,M,M,M,M,M,M,M,M,M,M,M,M,M,M,M,35.55,KP68 220753Z AUTO 20003KT 03/M05 A3019 RMK AO1 SLP174 T00331050 402440033,M
DRA,2024-09-22 07:53,-116.0278,36.6206,1009.00,70.00,36.00,28.65,10.00,3.00,0.00,29.97,1010.30,10.00,M,CLR,M,M,M,M,M,M,M,M,M,M,M,M,M,M,70.00,KDRA 220753Z AUTO 01003KT 10SM CLR 21/02 A2997 RMK AO2 SLP103 T02110022 403220122,M
ELY,2024-09-22 07:53,-114.8453,39.2950,1909.00,43.00,25.00,48.70,170.00,7.00,0.00,30.20,1015.10,10.00,M,CLR,M,M,M,M,M,M,M,M,M,M,M,M,M,M,38.19,KELY 220753Z AUTO 17007KT 10SM CLR 06/M04 A3020 RMK AO2 SLP151 T00611039 402440017,M
VGT,2024-09-22 07:53,-115.1933,36.2111,667.00,76.00,47.00,35.80,10.00,6.00,0.00,29.90,1011.70,10.00,M,CLR,M,M,M,M,M,M,M,M,M,M,M,M,M,M,76.00,KVGT 220753Z AUTO 01006KT 10SM CLR 24/08 A2990 RMK AO2 SLP117 T02440083 403330206,M
LOL,2024-09-22 07:53,-118.5701,40.0684,1192.43,58.00,M,M,30.00,10.00,0.00,30.10,1016.30,10.00,M,CLR,M,M,M,M,M,M,M,M,M,M,M,M,M,M,M,KLOL 220753Z AUTO 03010KT 10SM CLR 14/ A3010 RMK AO2 SLP163 T0144 402670089 $,M
BVU,2024-09-22 07:55,-114.8611,35.9475,671.00,77.00,42.80,29.51,0.00,0.00,0.00,29.90,M,10.00,M,CLR,M,M,M,M,M,M,M,M,M,M,M,M,M,M,77.00,KBVU 220755Z AUTO 00000KT 10SM CLR 25/06 A2990 RMK AO2,M
RNO,2024-09-22 07:55,-119.7711,39.4839,1341.00,57.00,32.00,38.54,290.00,4.00,0.00,30.14,1016.30,10.00,M,CLR,M,M,M,M,M,M,M,M,M,M,M,M,M,M,57.00,KRNO 220755Z 29004KT 10SM CLR 14/00 A3014 RMK AO2 SLP163 T01390000 402670094,M
CXP,2024-09-22 07:55,-119.7326,39.1923,1431.00,53.60,35.60,50.36,0.00,0.00,0.00,30.16,M,10.00,M,CLR,M,M,M,M,M,M,M,M,M,M,M,M,M,M,53.60,KCXP 220755Z AUTO 00000KT 10SM CLR 12/02 A3016 RMK AO2,M
RTS,2024-09-22 07:55,-119.8764,39.6682,1539.00,46.40,30.20,53.00,0.00,0.00,0.00,30.17,M,10.00,M,CLR,M,M,M,M,M,M,M,M,M,M,M,M,M,M,46.40,KRTS 220755Z AUTO 00000KT 10SM CLR 08/M01 A3017 RMK AO2,M
MEV,2024-09-22 07:55,-119.7500,38.9963,1441.42,44.60,35.60,70.48,120.00,6.00,0.00,30.15,M,10.00,M,FEW,SCT,M,M,4400.00,5500.00,M,M,M,M,M,M,M,M,M,40.71,KMEV 220755Z AUTO 12006KT 10SM FEW044 SCT055 07/02 A3015 RMK AO2,M
BAM,2024-09-22 07:55,-116.8743,40.5990,1382.36,41.00,19.40,41.54,100.00,3.00,0.00,30.16,M,10.00,M,CLR,M,M,M,M,M,M,M,M,M,M,M,M,M,M,38.98,KBAM 220755Z AUTO 10003KT 10SM CLR 05/M07 A3016 RMK AO1,M
HTH,2024-09-22 07:55,-118.6315,38.5448,1282.89,60.80,39.20,44.76,230.00,5.00,0.00,30.12,M,10.00,M,CLR,M,M,M,M,M,M,M,M,M,M,M,M,M,M,60.80,KHTH 220755Z AUTO 23005KT 10SM CLR 16/04 A3012 RMK A01,M
TMT,2024-09-22 07:55,-117.1971,39.4643,1749.34,38.00,35.00,88.83,0.00,0.00,0.00,30.21,M,10.00,M,CLR,M,M,M,M,M,M,M,M,M,M,M,M,M,M,38.00,KTMT 220755Z AUTO 00000KT 10SM CLR 03/02 A3021 RMK AO2 T00340017 402241001,M
10U,2024-09-22 07:55,-116.1876,41.9532,1637.00,35.60,26.60,69.46,120.00,4.00,0.00,30.20,M,10.00,M,CLR,M,M,M,M,M,M,M,M,M,M,M,M,M,M,31.62,K10U 220755Z AUTO 12004KT 10SM CLR 02/M03 A3020 RMK AO2,M
INS,2024-09-22 07:55,-115.6733,36.5872,955.00,66.00,29.00,24.81,0.00,0.00,0.00,29.96,1010.00,10.00,M,CLR,M,M,M,M,M,M,M,M,M,M,M,M,M,M,66.00,KINS 220755Z AUTO 00000KT 10SM CLR 19/M02 A2996 RMK AO2 SLP100 T01891016 403130137,M
LSV,2024-09-22 07:55,-115.0343,36.2362,570.00,78.60,43.70,28.98,90.00,4.00,0.00,29.85,1008.20,10.00,M,CLR,M,M,M,M,M,M,M,M,M,M,M,M,M,M,78.60,KLSV 220755Z AUTO 09004KT 10SM CLR 26/07 A2985 RMK AO2 SLP082 T02590065 403300197 $,M
EKO,2024-09-22 07:56,-115.7860,40.8242,1367.00,45.00,30.00,55.43,0.00,0.00,0.00,30.16,1017.90,10.00,M,CLR,M,M,M,M,M,M,M,M,M,M,M,M,M,M,45.00,KEKO 220756Z AUTO 00000KT 10SM CLR 07/M01 A3016 RMK AO2 SLP179 T00721011 402610044,M
WMC,2024-09-22 07:56,-117.8072,40.9019,1315.00,41.00,31.00,67.30,M,3.00,0.00,30.14,1017.90,10.00,M,CLR,M,M,M,M,M,M,M,M,M,M,M,M,M,M,38.98,KWMC 220756Z AUTO VRB03KT 10SM CLR 05/M01 A3014 RMK AO2 SLP179 T00501006 402560033,M
HND,2024-09-22 07:56,-115.1344,35.9729,742.79,75.00,41.00,29.43,220.00,9.00,0.00,29.94,1012.80,10.00,M,CLR,M,M,M,M,M,M,M,M,M,M,M,M,M,M,75.00,KHND 220756Z AUTO 22009KT 10SM CLR 24/05 A2994 RMK AO2 SLP128 T02390050,M
TPH,2024-09-22 07:56,-117.0904,38.0505,1654.00,58.00,30.00,34.28,350.00,12.00,0.00,30.14,1014.00,10.00,M,CLR,M,M,M,M,M,M,M,M,M,M,M,M,M,M,58.00,KTPH 220756Z AUTO 35012KT 10SM CLR 14/M01 A3014 RMK AO2 SLP140 T01441011 402670100,M
LAS,2024-09-22 07:56,-115.1634,36.0719,663.00,78.00,42.00,27.69,250.00,3.00,0.00,29.91,1010.30,10.00,M,CLR,M,M,M,M,M,M,M,M,M,M,M,M,M,M,78.00,KLAS 220756Z 25003KT 10SM CLR 26/06 A2991 RMK AO2 SLP103 T02560056 403280200 $,M
NFL,2024-09-22 07:57,-118.7010,39.4166,1199.00,51.00,36.00,56.31,240.00,6.00,0.00,30.10,1015.90,10.00,M,CLR,M,M,M,M,M,M,M,M,M,M,M,M,M,M,51.00,KNFL 220757Z AUTO 24006KT 10SM CLR 11/02 A3010 RMK AO2 SLP159 T01060022 402780078,M
05U,2024-09-22 08:10,-116.0051,39.6042,1811.23,37.40,21.20,51.61,0.00,0.00,0.00,30.22,M,10.00,M,CLR,M,M,M,M,M,M,M,M,M,M,M,M,M,M,37.40,K05U 220810Z AUTO 00000KT 10SM CLR 03/M06 A3022 RMK A01,M
BVU,2024-09-22 08:15,-114.8611,35.9475,671.00,73.40,44.60,35.66,0.00,0.00,0.00,29.90,M,10.00,M,CLR,M,M,M,M,M,M,M,M,M,M,M,M,M,M,73.40,KBVU 220815Z AUTO 00000KT 10SM CLR 23/07 A2990 RMK AO2,M
CXP,2024-09-22 08:15,-119.7326,39.1923,1431.00,50.00,35.60,57.52,0.00,0.00,0.00,30.17,M,10.00,M,CLR,M,M,M,M,M,M,M,M,M,M,M,M,M,M,50.00,KCXP 220815Z AUTO 00000KT 10SM CLR 10/02 A3017 RMK AO2,M
RTS,2024-09-22 08:15,-119.8764,39.6682,1539.00,48.20,28.40,46.02,330.00,4.00,0.00,30.17,M,10.00,M,CLR,M,M,M,M,M,M,M,M,M,M,M,M,M,M,46.34,KRTS 220815Z AUTO 33004KT 10SM CLR 09/M02 A3017 RMK AO2,M
MEV,2024-09-22 08:15,-119.7500,38.9963,1441.42,44.60,35.60,70.48,0.00,0.00,0.00,30.15,M,10.00,M,FEW,FEW,M,M,5000.00,6000.00,M,M,M,M,M,M,M,M,M,44.60,KMEV 220815Z AUTO 00000KT 10SM FEW050 FEW060 07/02 A3015 RMK AO2,M
BAM,2024-09-22 08:15,-116.8743,40.5990,1382.36,41.00,19.40,41.54,0.00,0.00,0.00,30.16,M,10.00,M,CLR,M,M,M,M,M,M,M,M,M,M,M,M,M,M,41.00,KBAM 220815Z AUTO 00000KT 10SM CLR 05/M07 A3016 RMK AO1,M
HTH,2024-09-22 08:15,-118.6315,38.5448,1282.89,59.00,39.20,47.72,260.00,5.00,0.00,30.12,M,10.00,M,CLR,M,M,M,M,M,M,M,M,M,M,M,M,M,M,59.00,KHTH 220815Z AUTO 26005KT 10SM CLR 15/04 A3012 RMK A01,M
TMT,2024-09-22 08:15,-117.1971,39.4643,1749.34,37.20,34.30,89.14,210.00,3.00,0.00,30.21,M,10.00,M,CLR,M,M,M,M,M,M,M,M,M,M,M,M,M,M,34.63,KTMT 220815Z AUTO 21003KT 10SM CLR 03/01 A3021 RMK AO2 T00290013,M
10U,2024-09-22 08:15,-116.1876,41.9532,1637.00,35.60,28.40,74.80,120.00,7.00,0.00,30.20,M,10.00,M,CLR,M,M,M,M,M,M,M,M,M,M,M,M,M,M,29.17,K10U 220815Z AUTO 12007KT 10SM CLR 02/M02 A3020 RMK AO2,M
05U,2024-09-22 08:30,-116.0051,39.6042,1811.23,37.40,21.20,51.61,0.00,0.00,0.00,30.22,M,10.00,M,CLR,M,M,M,M,M,M,M,M,M,M,M,M,M,M,37.40,K05U 220830Z AUTO 00000KT 10SM CLR 03/M06 A3022 RMK A01,M
BVU,2024-09-22 08:35,-114.8611,35.9475,671.00,73.40,46.40,38.18,0.00,0.00,0.00,29.90,M,10.00,M,CLR,M,M,M,M,M,M,M,M,M,M,M,M,M,M,73.40,KBVU 220835Z AUTO 00000KT 10SM CLR 23/08 A2990 RMK AO2,M
CXP,2024-09-22 08:35,-119.7326,39.1923,1431.00,50.00,35.60,57.52,0.00,0.00,0.00,30.17,M,10.00,M,CLR,M,M,M,M,M,M,M,M,M,M,M,M,M,M,50.00,KCXP 220835Z AUTO 00000KT 10SM CLR 10/02 A3017 RMK AO2,M
RTS,2024-09-22 08:35,-119.8764,39.6682,1539.00,44.60,28.40,52.72,0.00,0.00,0.00,30.17,M,10.00,M,CLR,M,M,M,M,M,M,M,M,M,M,M,M,M,M,44.60,KRTS 220835Z AUTO 00000KT 10SM CLR 07/M02 A3017 RMK AO2,M
MEV,2024-09-22 08:35,-119.7500,38.9963,1441.42,46.40,35.60,65.83,0.00,0.00,0.00,30.15,M,10.00,M,FEW,SCT,M,M,5000.00,5500.00,M,M,M,M,M,M,M,M,M,46.40,KMEV 220835Z AUTO 00000KT 10SM FEW050 SCT055 08/02 A3015 RMK AO2,M
BAM,2024-09-22 08:35,-116.8743,40.5990,1382.36,44.60,19.40,36.18,0.00,0.00,0.00,30.17,M,10.00,M,CLR,M,M,M,M,M,M,M,M,M,M,M,M,M,M,44.60,KBAM 220835Z AUTO 00000KT 10SM CLR 07/M07 A3017 RMK AO1,M
HTH,2024-09-22 08:35,-118.6315,38.5448,1282.89,59.00,41.00,51.18,220.00,5.00,0.00,30.12,M,10.00,M,CLR,M,M,M,M,M,M,M,M,M,M,M,M,M,M,59.00,KHTH 220835Z AUTO 22005KT 10SM CLR 15/05 A3012 RMK A01,M
TMT,2024-09-22 08:35,-117.1971,39.4643,1749.34,34.00,32.00,92.29,160.00,5.00,0.00,30.22,M,10.00,M,CLR,M,M,M,M,M,M,M,M,M,M,M,M,M,M,28.77,KTMT 220835Z AUTO 16005KT 10SM CLR 01/00 A3022 RMK AO2 T00120000,M
10U,2024-09-22 08:35,-116.1876,41.9532,1637.00,37.40,28.40,69.67,130.00,6.00,0.00,30.20,M,10.00,M,CLR,M,M,M,M,M,M,M,M,M,M,M,M,M,M,32.03,K10U 220835Z AUTO 13006KT 10SM CLR 03/M02 A3020 RMK AO2,M
05U,2024-09-22 08:50,-116.0051,39.6042,1811.23,39.20,21.20,48.10,0.00,0.00,0.00,30.22,M,10.00,M,CLR,M,M,M,M,M,M,M,M,M,M,M,M,M,M,39.20,K05U 220850Z AUTO 00000KT 10SM CLR 04/M06 A3022 RMK A01,M
P68,2024-09-22 08:53,-116.0056,39.6014,1993.00,40.00,22.00,48.22,200.00,6.00,0.00,30.19,1016.70,M,M,M,M,M,M,M,M,M,M,M,M,M,M,M,M,M,35.17,KP68 220853Z AUTO 20006KT 04/M06 A3019 RMK AO1 SLP167 T00441056 51004,M
DRA,2024-09-22 08:53,-116.0278,36.6206,1009.00,64.00,34.00,32.56,0.00,0.00,0.00,29.97,1010.40,10.00,M,CLR,M,M,M,M,M,M,M,M,M,M,M,M,M,M,64.00,KDRA 220853Z AUTO 00000KT 10SM CLR 18/01 A2997 RMK AO2 SLP104 T01780011 51006,M
ELY,2024-09-22 08:53,-114.8453,39.2950,1909.00,40.00,24.00,52.45,170.00,10.00,0.00,30.20,1015.40,10.00,M,CLR,M,M,M,M,M,M,M,M,M,M,M,M,M,M,33.00,KELY 220853Z AUTO 17010KT 10SM CLR 04/M04 A3020 RMK AO2 SLP154 T00441044 51006,M
VGT,2024-09-22 08:53,-115.1933,36.2111,667.00,74.00,47.00,38.27,360.00,5.00,0.00,29.90,1011.90,10.00,M,CLR,M,M,M,M,M,M,M,M,M,M,M,M,M,M,74.00,KVGT 220853Z AUTO 36005KT 10SM CLR 23/08 A2990 RMK AO2 SLP119 T02330083 51009,M
LOL,2024-09-22 08:53,-118.5701,40.0684,1192.43,53.00,M,M,20.00,7.00,0.00,30.11,1016.90,10.00,M,CLR,M,M,M,M,M,M,M,M,M,M,M,M,M,M,M,KLOL 220853Z AUTO 02007KT 10SM CLR 12/ A3011 RMK AO2 SLP169 T0117 52007 $,M
BVU,2024-09-22 08:55,-114.8611,35.9475,671.00,69.80,48.20,46.16,30.00,3.00,0.00,29.90,M,10.00,M,CLR,M,M,M,M,M,M,M,M,M,M,M,M,M,M,69.80,KBVU 220855Z AUTO 03003KT 10SM CLR 21/09 A2990 RMK AO2,M
RNO,2024-09-22 08:55,-119.7711,39.4839,1341.00,56.00,32.00,39.96,280.00,3.00,0.00,30.15,1016.50,10.00,M,CLR,M,M,M,M,M,M,M,M,M,M,M,M,M,M,56.00,KRNO 220855Z 28003KT 10SM CLR 13/00 A3015 RMK AO2 SLP165 T01330000 51007,M
CXP,2024-09-22 08:55,-119.7326,39.1923,1431.00,50.00,33.80,53.54,330.00,4.00,0.00,30.17,M,10.00,M,CLR,M,M,M,M,M,M,M,M,M,M,M,M,M,M,50.00,KCXP 220855Z AUTO 33004KT 10SM CLR 10/01 A3017 RMK AO2,M
RTS,2024-09-22 08:55,-119.8764,39.6682,1539.00,46.40,32.00,57.00,0.00,0.00,0.00,30.18,M,10.00,M,CLR,M,M,M,M,M,M,M,M,M,M,M,M,M,M,46.40,KRTS 220855Z AUTO 00000KT 10SM CLR 08/M00 A3018 RMK AO2,M
MEV,2024-09-22 08:55,-119.7500,38.9963,1441.42,44.60,35.60,70.48,60.00,3.00,0.00,30.16,M,10.00,M,SCT,M,M,M,5000.00,M,M,M,M,M,M,M,M,M,M,43.09,KMEV 220855Z AUTO 06003KT 10SM SCT050 07/02 A3016 RMK AO2,M
BAM,2024-09-22 08:55,-116.8743,40.5990,1382.36,44.60,21.20,39.06,0.00,0.00,0.00,30.17,M,10.00,M,CLR,M,M,M,M,M,M,M,M,M,M,M,M,M,M,44.60,KBAM 220855Z AUTO 00000KT 10SM CLR 07/M06 A3017 RMK AO1,M
HTH,2024-09-22 08:55,-118.6315,38.5448,1282.89,57.20,37.40,47.44,230.00,5.00,0.00,30.12,M,10.00,M,CLR,M,M,M,M,M,M,M,M,M,M,M,M,M,M,57.20,KHTH 220855Z AUTO 23005KT 10SM CLR 14/03 A3012 RMK A01,M
TMT,2024-09-22 08:55,-117.1971,39.4643,1749.34,34.30,32.00,91.19,150.00,3.00,0.00,30.22,M,10.00,M,CLR,M,M,M,M,M,M,M,M,M,M,M,M,M,M,31.32,KTMT 220855Z AUTO 15003KT 10SM CLR 01/00 A3022 RMK AO2 T00130000,M
10U,2024-09-22 08:55,-116.1876,41.9532,1637.00,35.60,26.60,69.46,50.00,3.00,0.00,30.21,M,10.00,M,CLR,M,M,M,M,M,M,M,M,M,M,M,M,M,M,32.80,K10U 220855Z AUTO 05003KT 10SM CLR 02/M03 A3021 RMK AO2,M
INS,2024-09-22 08:55,-115.6733,36.5872,955.00,67.00,31.00,26.00,0.00,0.00,0.00,29.96,1010.00,10.00,M,CLR,M,M,M,M,M,M,M,M,M,M,M,M,M,M,67.00,KINS 220855Z AUTO 00000KT 10SM CLR 19/M01 A2996 RMK AO2 SLP100 T01941006 52005,M
LSV,2024-09-22 08:55,-115.0343,36.2362,570.00,74.50,45.00,34.89,30.00,5.00,0.00,29.86,1008.50,10.00,M,SCT,M,M,M,14000.00,M,M,M,M,M,M,M,M,M,M,74.50,KLSV 220855Z AUTO 03005KT 10SM SCT140 24/07 A2986 RMK AO2 SLP085 T02360072 52009 $,M
EKO,2024-09-22 08:56,-115.7860,40.8242,1367.00,42.00,30.00,62.18,0.00,0.00,0.00,30.17,1018.60,10.00,M,CLR,M,M,M,M,M,M,M,M,M,M,M,M,M,M,42.00,KEKO 220856Z AUTO 00000KT 10SM CLR 06/M01 A3017 RMK AO2 SLP186 T00561011 53007,M
WMC,2024-09-22 08:56,-117.8072,40.9019,1315.00,40.00,31.00,69.97,0.00,0.00,0.00,30.15,1018.20,10.00,M,CLR,M,M,M,M,M,M,M,M,M,M,M,M,M,M,40.00,KWMC 220856Z AUTO 00000KT 10SM CLR 04/M01 A3015 RMK AO2 SLP182 T00441006 53008,M
HND,2024-09-22 08:56,-115.1344,35.9729,742.79,74.00,41.00,30.43,230.00,7.00,0.00,29.94,1013.00,10.00,M,CLR,M,M,M,M,M,M,M,M,M,M,M,M,M,M,74.00,KHND 220856Z AUTO 23007KT 10SM CLR 23/05 A2994 RMK AO2 SLP130 T02330050 51007,M
TPH,2024-09-22 08:56,-117.0904,38.0505,1654.00,58.00,29.00,32.91,360.00,11.00,0.00,30.14,1014.10,10.00,M,CLR,M,M,M,M,M,M,M,M,M,M,M,M,M,M,58.00,KTPH 220856Z AUTO 36011KT 10SM CLR 14/M02 A3014 RMK AO2 SLP141 T01441017 51007,M
LAS,2024-09-22 08:56,-115.1634,36.0719,663.00,76.00,44.00,31.95,250.00,5.00,0.00,29.91,1010.40,10.00,M,CLR,M,M,M,M,M,M,M,M,M,M,M,M,M,M,76.00,KLAS 220856Z 25005KT 10SM CLR 24/07 A2991 RMK AO2 SLP104 T02440067 51009 $,M
05U,2024-09-22 09:10,-116.0051,39.6042,1811.23,37.40,23.00,55.68,0.00,0.00,0.00,30.21,M,10.00,M,CLR,M,M,M,M,M,M,M,M,M,M,M,M,M,M,37.40,K05U 220910Z AUTO 00000KT 10SM CLR 03/M05 A3021 RMK A01,M
BVU,2024-09-22 09:15,-114.8611,35.9475,671.00,68.00,46.40,45.88,0.00,0.00,0.00,29.90,M,10.00,M,CLR,M,M,M,M,M,M,M,M,M,M,M,M,M,M,68.00,KBVU 220915Z AUTO 00000KT 10SM CLR 20/08 A2990 RMK AO2,M
CXP,2024-09-22 09:15,-119.7326,39.1923,1431.00,50.00,35.60,57.52,0.00,0.00,0.00,30.17,M,10.00,M,CLR,M,M,M,M,M,M,M,M,M,M,M,M,M,M,50.00,KCXP 220915Z AUTO 00000KT 10SM CLR 10/02 A3017 RMK AO2,M
RTS,2024-09-22 09:15,-119.8764,39.6682,1539.00,50.00,32.00,49.81,0.00,0.00,0.00,30.18,M,10.00,M,CLR,M,M,M,M,M,M,M,M,M,M,M,M,M,M,50.00,KRTS 220915Z AUTO 00000KT 10SM CLR 10/M00 A3018 RMK AO2,M
MEV,2024-09-22 09:15,-119.7500,38.9963,1441.42,42.80,35.60,75.50,50.00,4.00,0.00,30.16,M,10.00,M,SCT,SCT,M,M,5000.00,5500.00,M,M,M,M,M,M,M,M,M,40.03,KMEV 220915Z AUTO 05004KT 10SM SCT050 SCT055 06/02 A3016 RMK AO2,M
BAM,2024-09-22 09:15,-116.8743,40.5990,1382.36,44.60,19.40,36.18,130.00,3.00,0.00,30.17,M,10.00,M,CLR,M,M,M,M,M,M,M,M,M,M,M,M,M,M,43.09,KBAM 220915Z AUTO 13003KT 10SM CLR 07/M07 A3017 RMK AO1,M
HTH,2024-09-22 09:15,-118.6315,38.5448,1282.89,57.20,35.60,44.19,230.00,4.00,0.00,30.12,M,10.00,M,CLR,M,M,M,M,M,M,M,M,M,M,M,M,M,M,57.20,KHTH 220915Z AUTO 23004KT 10SM CLR 14/02 A3012 RMK A01,M
TMT,2024-09-22 09:15,-117.1971,39.4643,1749.34,35.80,32.40,87.30,0.00,0.00,0.00,30.22,M,10.00,M,CLR,M,M,M,M,M,M,M,M,M,M,M,M,M,M,35.80,KTMT 220915Z AUTO 00000KT 10SM CLR 02/00 A3022 RMK AO2 T00210002,M
10U,2024-09-22 09:15,-116.1876,41.9532,1637.00,33.80,26.60,74.63,0.00,0.00,0.00,30.21,M,10.00,M,CLR,M,M,M,M,M,M,M,M,M,M,M,M,M,M,33.80,K10U 220915Z AUTO 00000KT 10SM CLR 01/M03 A3021 RMK AO2,M
05U,2024-09-22 09:30,-116.0051,39.6042,1811.23,37.40,23.00,55.68,0.00,0.00,0.00,30.22,M,10.00,M,CLR,M,M,M,M,M,M,M,M,M,M,M,M,M,M,37.40,K05U 220930Z AUTO 00000KT 10SM CLR 03/M05 A3022 RMK A01,M
BVU,2024-09-22 09:35,-114.8611,35.9475,671.00,69.80,46.40,43.13,0.00,0.00,0.00,29.90,M,10.00,M,CLR,M,M,M,M,M,M,M,M,M,M,M,M,M,M,69.80,KBVU 220935Z AUTO 00000KT 10SM CLR 21/08 A2990 RMK AO2,M
CXP,2024-09-22 09:35,-119.7326,39.1923,1431.00,50.00,35.60,57.52,0.00,0.00,0.00,30.17,M,10.00,M,CLR,M,M,M,M,M,M,M,M,M,M,M,M,M,M,50.00,KCXP 220935Z AUTO 00000KT 10SM CLR 10/02 A3017 RMK AO2,M
RTS,2024-09-22 09:35,-119.8764,39.6682,1539.00,42.80,28.40,56.48,0.00,0.00,0.00,30.18,M,10.00,M,CLR,M,M,M,M,M,M,M,M,M,M,M,M,M,M,42.80,KRTS 220935Z AUTO 00000KT 10SM CLR 06/M02 A3018 RMK AO2,M
MEV,2024-09-22 09:35,-119.7500,38.9963,1441.42,41.00,35.60,80.93,0.00,0.00,0.00,30.16,M,10.00,M,SCT,BKN,M,M,4900.00,5500.00,M,M,M,M,M,M,M,M,M,41.00,KMEV 220935Z AUTO 00000KT 10SM SCT049 BKN055 05/02 A3016 RMK AO2,M
BAM,2024-09-22 09:35,-116.8743,40.5990,1382.36,39.20,19.40,44.55,0.00,0.00,0.00,30.17,M,10.00,M,CLR,M,M,M,M,M,M,M,M,M,M,M,M,M,M,39.20,KBAM 220935Z AUTO 00000KT 10SM CLR 04/M07 A3017 RMK AO1,M
HTH,2024-09-22 09:35,-118.6315,38.5448,1282.89,57.20,37.40,47.44,230.00,3.00,0.00,30.13,M,10.00,M,CLR,M,M,M,M,M,M,M,M,M,M,M,M,M,M,57.20,KHTH 220935Z AUTO 23003KT 10SM CLR 14/03 A3013 RMK A01,M
TMT,2024-09-22 09:35,-117.1971,39.4643,1749.34,35.60,32.40,88.00,0.00,0.00,0.00,30.21,M,10.00,M,CLR,M,M,M,M,M,M,M,M,M,M,M,M,M,M,35.60,KTMT 220935Z AUTO 00000KT 10SM CLR 02/00 A3021 RMK AO2 T00200002,M
10U,2024-09-22 09:35,-116.1876,41.9532,1637.00,33.80,26.60,74.63,0.00,0.00,0.00,30.21,M,10.00,M,CLR,M,M,M,M,M,M,M,M,M,M,M,M,M,M,33.80,K10U 220935Z AUTO 00000KT 10SM CLR 01/M03 A3021 RMK AO2,M
05U,2024-09-22 09:50,-116.0051,39.6042,1811.23,39.20,21.20,48.10,0.00,0.00,0.00,30.21,M,10.00,M,CLR,M,M,M,M,M,M,M,M,M,M,M,M,M,M,39.20,K05U 220950Z AUTO 00000KT 10SM CLR 04/M06 A3021 RMK A01,M
P68,2024-09-22 09:53,-116.0056,39.6014,1993.00,39.00,22.00,50.14,180.00,7.00,0.00,30.19,1016.60,M,M,M,M,M,M,M,M,M,M,M,M,M,M,M,M,M,33.31,KP68 220953Z AUTO 18007KT 04/M06 A3019 RMK AO1 SLP166 T00391056,M
DRA,2024-09-22 09:53,-116.0278,36.6206,1009.00,65.00,35.00,32.72,60.00,4.00,0.00,29.98,1010.50,10.00,M,CLR,M,M,M,M,M,M,M,M,M,M,M,M,M,M,65.00,KDRA 220953Z AUTO 06004KT 10SM CLR 18/02 A2998 RMK AO2 SLP105 T01830017,M
ELY,2024-09-22 09:53,-114.8453,39.2950,1909.00,37.00,24.00,58.99,180.00,9.00,0.00,30.20,1015.70,10.00,M,CLR,M,M,M,M,M,M,M,M,M,M,M,M,M,M,29.73,KELY 220953Z AUTO 18009KT 10SM CLR 03/M04 A3020 RMK AO2 SLP157 T00281044,M
VGT,2024-09-22 09:53,-115.1933,36.2111,667.00,73.00,44.00,35.32,330.00,6.00,0.00,29.91,1012.00,10.00,M,CLR,M,M,M,M,M,M,M,M,M,M,M,M,M,M,73.00,KVGT 220953Z AUTO 33006KT 10SM CLR 23/07 A2991 RMK AO2 SLP120 T02280067,M
LOL,2024-09-22 09:53,-118.5701,40.0684,1192.43,48.00,M,M,300.00,3.00,0.00,30.12,1017.40,10.00,M,CLR,M,M,M,M,M,M,M,M,M,M,M,M,M,M,M,KLOL 220953Z AUTO 30003KT 10SM CLR 09/ A3012 RMK AO2 SLP174 T0089 $,M
BVU,2024-09-22 09:55,-114.8611,35.9475,671.00,69.80,46.40,43.13,80.00,3.00,0.00,29.90,M,10.00,M,CLR,M,M,M,M,M,M,M,M,M,M,M,M,M,M,69.80,KBVU 220955Z AUTO 08003KT 10SM CLR 21/08 A2990 RMK AO2,M
RNO,2024-09-22 09:55,-119.7711,39.4839,1341.00,54.00,32.00,42.98,290.00,4.00,0.00,30.15,1016.60,10.00,M,CLR,M,M,M,M,M,M,M,M,M,M,M,M,M,M,54.00,KRNO 220955Z 29004KT 10SM CLR 12/00 A3015 RMK AO2 SLP166 T01220000,M
CXP,2024-09-22 09:55,-119.7326,39.1923,1431.00,46.40,35.60,65.83,0.00,0.00,0.00,30.17,M,10.00,M,CLR,M,M,M,M,M,M,M,M,M,M,M,M,M,M,46.40,KCXP 220955Z AUTO 00000KT 10SM CLR 08/02 A3017 RMK AO2,M
RTS,2024-09-22 09:55,-119.8764,39.6682,1539.00,42.80,26.60,52.45,0.00,0.00,0.00,30.18,M,10.00,M,CLR,M,M,M,M,M,M,M,M,M,M,M,M,M,M,42.80,KRTS 220955Z AUTO 00000KT 10SM CLR 06/M03 A3018 RMK AO2,M
MEV,2024-09-22 09:55,-119.7500,38.9963,1441.42,42.80,35.60,75.50,0.00,0.00,0.00,30.16,M,10.00,M,SCT,M,M,M,5000.00,M,M,M,M,M,M,M,M,M,M,42.80,KMEV 220955Z AUTO 00000KT 10SM SCT050 06/02 A3016 RMK AO2,M
BAM,2024-09-22 09:55,-116.8743,40.5990,1382.36,37.40,19.40,47.80,0.00,0.00,0.00,30.17,M,10.00,M,CLR,M,M,M,M,M,M,M,M,M,M,M,M,M,M,37.40,KBAM 220955Z AUTO 00000KT 10SM CLR 03/M07 A3017 RMK AO1,M
HTH,2024-09-22 09:55,-118.6315,38.5448,1282.89,55.40,37.40,50.64,230.00,4.00,0.00,30.13,M,10.00,M,CLR,M,M,M,M,M,M,M,M,M,M,M,M,M,M,55.40,KHTH 220955Z AUTO 23004KT 10SM CLR 13/03 A3013 RMK A01,M
TMT,2024-09-22 09:55,-117.1971,39.4643,1749.34,33.40,31.60,93.02,0.00,0.00,0.00,30.22,M,10.00,M,CLR,M,M,M,M,M,M,M,M,M,M,M,M,M,M,33.40,KTMT 220955Z AUTO 00000KT 10SM CLR 01/00 A3022 RMK AO2 T00081002,M
10U,2024-09-22 09:55,-116.1876,41.9532,1637.00,32.00,26.60,80.22,0.00,0.00,0.00,30.21,M,10.00,M,CLR,M,M,M,M,M,M,M,M,M,M,M,M,M,M,32.00,K10U 220955Z AUTO 00000KT 10SM CLR 00/M03 A3021 RMK AO2,M
INS,2024-09-22 09:55,-115.6733,36.5872,955.00,66.40,30.40,25.91,160.00,3.00,0.00,29.97,1010.10,10.00,M,CLR,M,M,M,M,M,M,M,M,M,M,M,M,M,M,66.40,KINS 220955Z AUTO 16003KT 10SM CLR 19/M01 A2997 RMK AO2 SLP101 T01911009,M
LSV,2024-09-22 09:55,-115.0343,36.2362,570.00,75.40,45.00,33.86,40.00,9.00,0.00,29.86,1008.50,10.00,M,CLR,M,M,M,M,M,M,M,M,M,M,M,M,M,M,75.40,KLSV 220955Z AUTO 04009KT 10SM CLR 24/07 A2986 RMK AO2 SLP085 T02410072 $,M
EKO,2024-09-22 09:56,-115.7860,40.8242,1367.00,42.00,29.00,59.69,0.00,0.00,0.00,30.17,1018.30,10.00,M,CLR,M,M,M,M,M,M,M,M,M,M,M,M,M,M,42.00,KEKO 220956Z AUTO 00000KT 10SM CLR 06/M02 A3017 RMK AO2 SLP183 T00561017,M
WMC,2024-09-22 09:56,-117.8072,40.9019,1315.00,37.00,31.00,78.69,0.00,0.00,0.00,30.15,1018.60,10.00,M,CLR,M,M,M,M,M,M,M,M,M,M,M,M,M,M,37.00,KWMC 220956Z AUTO 00000KT 10SM CLR 03/M01 A3015 RMK AO2 SLP186 T00281006,M
HND,2024-09-22 09:56,-115.1344,35.9729,742.79,71.00,40.00,32.40,190.00,3.00,0.00,29.95,1013.20,10.00,M,CLR,M,M,M,M,M,M,M,M,M,M,M,M,M,M,71.00,KHND 220956Z AUTO 19003KT 10SM CLR 22/04 A2995 RMK AO2 SLP132 T02170044,M
TPH,2024-09-22 09:56,-117.0904,38.0505,1654.00,58.00,29.00,32.91,340.00,7.00,0.00,30.15,1014.40,10.00,M,CLR,M,M,M,M,M,M,M,M,M,M,M,M,M,M,58.00,KTPH 220956Z AUTO 34007KT 10SM CLR 14/M02 A3015 RMK AO2 SLP144 T01441017 $,M
LAS,2024-09-22 09:56,-115.1634,36.0719,663.00,74.00,44.00,34.15,280.00,6.00,0.00,29.91,1010.60,10.00,M,CLR,M,M,M,M,M,M,M,M,M,M,M,M,M,M,74.00,KLAS 220956Z 28006KT 10SM CLR 23/07 A2991 RMK AO2 SLP106 T02330067 $,M
NFL,2024-09-22 09:57,-118.7010,39.4166,1199.00,49.00,34.00,56.02,0.00,0.00,0.00,30.12,1016.40,10.00,M,CLR,M,M,M,M,M,M,M,M,M,M,M,M,M,M,49.00,KNFL 220957Z AUTO 00000KT 10SM CLR 09/01 A3012 RMK AO2 SLP164 T00940011,M
05U,2024-09-22 10:10,-116.0051,39.6042,1811.23,37.40,23.00,55.68,0.00,0.00,0.00,30.21,M,10.00,M,CLR,M,M,M,M,M,M,M,M,M,M,M,M,M,M,37.40,K05U 221010Z AUTO 00000KT 10SM CLR 03/M05 A3021 RMK A01,M
BVU,2024-09-22 10:15,-114.8611,35.9475,671.00,69.80,44.60,40.29,0.00,0.00,0.00,29.90,M,10.00,M,CLR,M,M,M,M,M,M,M,M,M,M,M,M,M,M,69.80,KBVU 221015Z AUTO 00000KT 10SM CLR 21/07 A2990 RMK AO2,M
CXP,2024-09-22 10:15,-119.7326,39.1923,1431.00,46.40,35.60,65.83,0.00,0.00,0.00,30.17,M,10.00,M,CLR,M,M,M,M,M,M,M,M,M,M,M,M,M,M,46.40,KCXP 221015Z AUTO 00000KT 10SM CLR 08/02 A3017 RMK AO2,M
RTS,2024-09-22 10:15,-119.8764,39.6682,1539.00,42.80,32.00,65.38,350.00,4.00,0.00,30.18,M,10.00,M,CLR,M,M,M,M,M,M,M,M,M,M,M,M,M,M,40.03,KRTS 221015Z AUTO 35004KT 10SM CLR 06/M00 A3018 RMK AO2,M
MEV,2024-09-22 10:15,-119.7500,38.9963,1441.42,39.20,33.80,80.79,0.00,0.00,0.00,30.16,M,10.00,M,FEW,SCT,SCT,M,4400.00,5000.00,6000.00,M,M,M,M,M,M,M,M,39.20,KMEV 221015Z AUTO 00000KT 10SM FEW044 SCT050 SCT060 04/01 A3016 RMK AO2,M
BAM,2024-09-22 10:15,-116.8743,40.5990,1382.36,37.40,17.60,44.25,210.00,4.00,0.00,30.17,M,10.00,M,CLR,M,M,M,M,M,M,M,M,M,M,M,M,M,M,33.73,KBAM 221015Z AUTO 21004KT 10SM CLR 03/M08 A3017 RMK AO1,M
HTH,2024-09-22 10:15,-118.6315,38.5448,1282.89,57.20,35.60,44.19,230.00,3.00,0.00,30.13,M,10.00,M,CLR,M,M,M,M,M,M,M,M,M,M,M,M,M,M,57.20,KHTH 221015Z AUTO 23003KT 10SM CLR 14/02 A3013 RMK A01,M
TMT,2024-09-22 10:15,-117.1971,39.4643,1749.34,36.00,34.00,92.35,260.00,4.00,0.00,30.21,M,10.00,M,CLR,M,M,M,M,M,M,M,M,M,M,M,M,M,M,32.09,KTMT 221015Z AUTO 26004KT 10SM CLR 02/01 A3021 RMK AO2 T00220011,M
10U,2024-09-22 10:15,-116.1876,41.9532,1637.00,32.00,24.80,74.44,0.00,0.00,0.00,30.21,M,10.00,M,CLR,M,M,M,M,M,M,M,M,M,M,M,M,M,M,32.00,K10U 221015Z AUTO 00000KT 10SM CLR M00/M04 A3021 RMK AO2,M
05U,2024-09-22 10:30,-116.0051,39.6042,1811.23,37.40,23.00,55.68,0.00,0.00,0.00,30.21,M,10.00,M,CLR,M,M,M,M,M,M,M,M,M,M,M,M,M,M,37.40,K05U 221030Z AUTO 00000KT 10SM CLR 03/M05 A3021 RMK A01,M
BVU,2024-09-22 10:35,-114.8611,35.9475,671.00,68.00,48.20,49.10,40.00,5.00,0.00,29.90,M,10.00,M,CLR,M,M,M,M,M,M,M,M,M,M,M,M,M,M,68.00,KBVU 221035Z AUTO 04005KT 10SM CLR 20/09 A2990 RMK AO2,M
CXP,2024-09-22 10:35,-119.7326,39.1923,1431.00,46.40,37.40,70.68,0.00,0.00,0.00,30.18,M,10.00,M,CLR,M,M,M,M,M,M,M,M,M,M,M,M,M,M,46.40,KCXP 221035Z AUTO 00000KT 10SM CLR 08/03 A3018 RMK AO2,M
RTS,2024-09-22 10:35,-119.8764,39.6682,1539.00,48.20,35.60,61.52,0.00,0.00,0.00,30.18,M,10.00,M,CLR,M,M,M,M,M,M,M,M,M,M,M,M,M,M,48.20,KRTS 221035Z AUTO 00000KT 10SM CLR 09/02 A3018 RMK AO2,M
MEV,2024-09-22 10:35,-119.7500,38.9963,1441.42,41.00,33.80,75.33,0.00,0.00,0.00,30.16,M,10.00,M,SCT,BKN,M,M,4800.00,6000.00,M,M,M,M,M,M,M,M,M,41.00,KMEV 221035Z AUTO 00000KT 10SM SCT048 BKN060 05/01 A3016 RMK AO2,M
BAM,2024-09-22 10:35,-116.8743,40.5990,1382.36,37.40,19.40,47.80,0.00,0.00,0.00,30.17,M,10.00,M,CLR,M,M,M,M,M,M,M,M,M,M,M,M,M,M,37.40,KBAM 221035Z AUTO 00000KT 10SM CLR 03/M07 A3017 RMK AO1,M
HTH,2024-09-22 10:35,-118.6315,38.5448,1282.89,57.20,35.60,44.19,0.00,0.00,0.00,30.13,M,10.00,M,CLR,M,M,M,M,M,M,M,M,M,M,M,M,M,M,57.20,KHTH 221035Z AUTO 00000KT 10SM CLR 14/02 A3013 RMK A01,M
10U,2024-09-22 10:35,-116.1876,41.9532,1637.00,30.20,24.80,80.07,0.00,0.00,0.00,30.20,M,10.00,M,CLR,M,M,M,M,M,M,M,M,M,M,M,M,M,M,30.20,K10U 221035Z AUTO 00000KT 10SM CLR M01/M04 A3020 RMK AO2,M
TMT,2024-09-22 10:35,-117.1971,39.4643,1749.34,35.60,33.80,93.08,260.00,5.00,0.00,30.21,M,10.00,M,CLR,M,M,M,M,M,M,M,M,M,M,M,M,M,M,30.67,KTMT 221035Z AUTO 26005KT 10SM CLR 02/01 A3021 RMK AO2 T00200010,M
05U,2024-09-22 10:50,-116.0051,39.6042,1811.23,39.20,21.20,48.10,0.00,0.00,0.00,30.21,M,10.00,M,CLR,M,M,M,M,M,M,M,M,M,M,M,M,M,M,39.20,K05U 221050Z AUTO 00000KT 10SM CLR 04/M06 A3021 RMK A01,M
P68,2024-09-22 10:53,-116.0056,39.6014,1993.00,38.00,22.00,52.14,180.00,6.00,0.00,30.19,1016.90,M,M,M,M,M,M,M,M,M,M,M,M,M,M,M,M,M,32.76,KP68 221053Z AUTO 18006KT 03/M06 A3019 RMK AO1 SLP169 T00331056,M
DRA,2024-09-22 10:53,-116.0278,36.6206,1009.00,63.00,35.00,35.10,0.00,0.00,0.00,29.98,1010.70,10.00,M,CLR,M,M,M,M,M,M,M,M,M,M,M,M,M,M,63.00,KDRA 221053Z AUTO 00000KT 10SM CLR 17/02 A2998 RMK AO2 SLP107 T01720017,M
ELY,2024-09-22 10:53,-114.8453,39.2950,1909.00,38.00,23.00,54.39,190.00,9.00,0.00,30.20,1015.50,10.00,M,CLR,M,M,M,M,M,M,M,M,M,M,M,M,M,M,30.97,KELY 221053Z AUTO 19009KT 10SM CLR 03/M05 A3020 RMK AO2 SLP155 T00331050,M
VGT,2024-09-22 10:53,-115.1933,36.2111,667.00,72.00,44.00,36.54,310.00,5.00,0.00,29.91,1012.30,10.00,M,CLR,M,M,M,M,M,M,M,M,M,M,M,M,M,M,72.00,KVGT 221053Z AUTO 31005KT 10SM CLR 22/07 A2991 RMK AO2 SLP123 T02220067,M
LOL,2024-09-22 10:53,-118.5701,40.0684,1192.43,52.00,M,M,300.00,3.00,0.00,30.12,1017.20,10.00,M,CLR,M,M,M,M,M,M,M,M,M,M,M,M,M,M,M,KLOL 221053Z AUTO 30003KT 10SM CLR 11/ A3012 RMK AO2 SLP172 T0111 $,M
BVU,2024-09-22 10:55,-114.8611,35.9475,671.00,69.80,46.40,43.13,40.00,7.00,0.00,29.91,M,10.00,M,CLR,M,M,M,M,M,M,M,M,M,M,M,M,M,M,69.80,KBVU 221055Z AUTO 04007KT 10SM CLR 21/08 A2991 RMK AO2,M
RNO,2024-09-22 10:55,-119.7711,39.4839,1341.00,50.00,36.00,58.44,0.00,0.00,0.00,30.15,1016.80,10.00,M,CLR,M,M,M,M,M,M,M,M,M,M,M,M,M,M,50.00,KRNO 221055Z 00000KT 10SM CLR 10/02 A3015 RMK AO2 SLP168 T01000022,M
CXP,2024-09-22 10:55,-119.7326,39.1923,1431.00,46.40,37.40,70.68,0.00,0.00,0.00,30.18,M,10.00,M,CLR,M,M,M,M,M,M,M,M,M,M,M,M,M,M,46.40,KCXP 221055Z AUTO 00000KT 10SM CLR 08/03 A3018 RMK AO2,M
RTS,2024-09-22 10:55,-119.8764,39.6682,1539.00,44.60,33.80,65.61,0.00,0.00,0.00,30.18,M,10.00,M,CLR,M,M,M,M,M,M,M,M,M,M,M,M,M,M,44.60,KRTS 221055Z AUTO 00000KT 10SM CLR 07/01 A3018 RMK AO2,M
MEV,2024-09-22 10:55,-119.7500,38.9963,1441.42,39.20,33.80,80.79,70.00,3.00,0.00,30.16,M,10.00,M,SCT,BKN,M,M,5000.00,6000.00,M,M,M,M,M,M,M,M,M,36.92,KMEV 221055Z AUTO 07003KT 10SM SCT050 BKN060 04/01 A3016 RMK AO2,M
BAM,2024-09-22 10:55,-116.8743,40.5990,1382.36,33.80,14.00,43.65,0.00,0.00,0.00,30.17,M,10.00,M,CLR,M,M,M,M,M,M,M,M,M,M,M,M,M,M,33.80,KBAM 221055Z AUTO 00000KT 10SM CLR 01/M10 A3017 RMK AO1,M
HTH,2024-09-22 10:55,-118.6315,38.5448,1282.89,55.40,35.60,47.16,260.00,3.00,0.00,30.13,M,10.00,M,CLR,M,M,M,M,M,M,M,M,M,M,M,M,M,M,55.40,KHTH 221055Z AUTO 26003KT 10SM CLR 13/02 A3013 RMK A01,M
TMT,2024-09-22 10:55,-117.1971,39.4643,1749.34,31.50,30.00,94.10,0.00,0.00,0.00,30.21,M,10.00,M,CLR,M,M,M,M,M,M,M,M,M,M,M,M,M,M,31.50,KTMT 221055Z AUTO 00000KT 10SM CLR 00/M01 A3021 RMK AO2 T10031012,M
10U,2024-09-22 10:55,-116.1876,41.9532,1637.00,32.00,26.60,80.22,0.00,0.00,0.00,30.20,M,10.00,M,CLR,M,M,M,M,M,M,M,M,M,M,M,M,M,M,32.00,K10U 221055Z AUTO 00000KT 10SM CLR 00/M03 A3020 RMK AO2,M
INS,2024-09-22 10:55,-115.6733,36.5872,955.00,60.60,28.20,29.03,270.00,9.00,0.00,29.97,1010.60,10.00,M,CLR,M,M,M,M,M,M,M,M,M,M,M,M,M,M,60.60,KINS 221055Z AUTO 27009KT 10SM CLR 16/M02 A2997 RMK AO2 SLP106 T01591021,M
LSV,2024-09-22 10:55,-115.0343,36.2362,570.00,71.60,43.00,35.64,50.00,8.00,0.00,29.87,1009.00,10.00,M,CLR,M,M,M,M,M,M,M,M,M,M,M,M,M,M,71.60,KLSV 221055Z AUTO 05008KT 10SM CLR 22/06 A2987 RMK AO2 SLP090 T02200062 $,M
EKO,2024-09-22 10:56,-115.7860,40.8242,1367.00,43.00,28.00,55.14,70.00,3.00,0.00,30.17,1018.00,10.00,M,CLR,M,M,M,M,M,M,M,M,M,M,M,M,M,M,41.26,KEKO 221056Z AUTO 07003KT 10SM CLR 06/M02 A3017 RMK AO2 SLP180 T00611022,M
WMC,2024-09-22 10:56,-117.8072,40.9019,1315.00,36.00,30.00,78.60,0.00,0.00,0.00,30.15,1018.70,10.00,M,CLR,M,M,M,M,M,M,M,M,M,M,M,M,M,M,36.00,KWMC 221056Z AUTO 00000KT 10SM CLR 02/M01 A3015 RMK AO2 SLP187 T00221011,M
HND,2024-09-22 10:56,-115.1344,35.9729,742.79,68.00,40.00,35.90,180.00,5.00,0.00,29.95,1013.50,10.00,M,CLR,M,M,M,M,M,M,M,M,M,M,M,M,M,M,68.00,KHND 221056Z AUTO 18005KT 10SM CLR 20/04 A2995 RMK AO2 SLP135 T02000044,M
TPH,2024-09-22 10:56,-117.0904,38.0505,1654.00,53.00,28.00,37.88,340.00,8.00,0.00,30.15,1014.80,10.00,M,CLR,M,M,M,M,M,M,M,M,M,M,M,M,M,M,53.00,KTPH 221056Z AUTO 34008KT 10SM CLR 12/M02 A3015 RMK AO2 SLP148 T01171022 $,M
LAS,2024-09-22 10:56,-115.1634,36.0719,663.00,73.00,46.00,38.11,290.00,4.00,0.00,29.92,1010.80,10.00,M,CLR,M,M,M,M,M,M,M,M,M,M,M,M,M,M,73.00,KLAS 221056Z 29004KT 10SM CLR 23/08 A2992 RMK AO2 SLP108 T02280078 $,M
05U,2024-09-22 11:10,-116.0051,39.6042,1811.23,39.20,23.00,51.89,0.00,0.00,0.00,30.22,M,10.00,M,CLR,M,M,M,M,M,M,M,M,M,M,M,M,M,M,39.20,K05U 221110Z AUTO 00000KT 10SM CLR 04/M05 A3022 RMK A01,M
BVU,2024-09-22 11:15,-114.8611,35.9475,671.00,69.80,46.40,43.13,30.00,7.00,0.00,29.91,M,10.00,M,CLR,M,M,M,M,M,M,M,M,M,M,M,M,M,M,69.80,KBVU 221115Z AUTO 03007KT 10SM CLR 21/08 A2991 RMK AO2,M
CXP,2024-09-22 11:15,-119.7326,39.1923,1431.00,46.40,35.60,65.83,0.00,0.00,0.00,30.18,M,10.00,M,CLR,M,M,M,M,M,M,M,M,M,M,M,M,M,M,46.40,KCXP 221115Z AUTO 00000KT 10SM CLR 08/02 A3018 RMK AO2,M
RTS,2024-09-22 11:15,-119.8764,39.6682,1539.00,42.80,30.20,60.79,0.00,0.00,0.00,30.19,M,10.00,M,CLR,M,M,M,M,M,M,M,M,M,M,M,M,M,M,42.80,KRTS 221115Z AUTO 00000KT 10SM CLR 06/M01 A3019 RMK AO2,M
MEV,2024-09-22 11:15,-119.7500,38.9963,1441.42,39.20,33.80,80.79,0.00,0.00,0.00,30.16,M,10.00,M,FEW,SCT,M,M,5000.00,5500.00,M,M,M,M,M,M,M,M,M,39.20,KMEV 221115Z AUTO 00000KT 10SM FEW050 SCT055 04/01 A3016 RMK AO2,M
BAM,2024-09-22 11:15,-116.8743,40.5990,1382.36,33.80,17.60,51.04,230.00,3.00,0.00,30.17,M,10.00,M,CLR,M,M,M,M,M,M,M,M,M,M,M,M,M,M,30.75,KBAM 221115Z AUTO 23003KT 10SM CLR 01/M08 A3017 RMK AO1,M
HTH,2024-09-22 11:15,-118.6315,38.5448,1282.89,55.40,35.60,47.16,240.00,3.00,0.00,30.13,M,10.00,M,CLR,M,M,M,M,M,M,M,M,M,M,M,M,M,M,55.40,KHTH 221115Z AUTO 24003KT 10SM CLR 13/02 A3013 RMK A01,M
TMT,2024-09-22 11:15,-117.1971,39.4643,1749.34,32.00,30.00,92.22,0.00,0.00,0.00,30.21,M,10.00,M,CLR,M,M,M,M,M,M,M,M,M,M,M,M,M,M,32.00,KTMT 221115Z AUTO 00000KT 10SM CLR 00/M01 A3021 RMK AO2 T10011012,M
10U,2024-09-22 11:15,-116.1876,41.9532,1637.00,32.00,24.80,74.44,0.00,0.00,0.00,30.20,M,10.00,M,CLR,M,M,M,M,M,M,M,M,M,M,M,M,M,M,32.00,K10U 221115Z AUTO 00000KT 10SM CLR M00/M04 A3020 RMK AO2,M
05U,2024-09-22 11:30,-116.0051,39.6042,1811.23,39.20,21.20,48.10,0.00,0.00,0.00,30.22,M,10.00,M,CLR,M,M,M,M,M,M,M,M,M,M,M,M,M,M,39.20,K05U 221130Z AUTO 00000KT 10SM CLR 04/M06 A3022 RMK A01,M
BVU,2024-09-22 11:35,-114.8611,35.9475,671.00,71.60,44.60,37.89,30.00,7.00,0.00,29.91,M,10.00,M,CLR,M,M,M,M,M,M,M,M,M,M,M,M,M,M,71.60,KBVU 221135Z AUTO 03007KT 10SM CLR 22/07 A2991 RMK AO2,M
CXP,2024-09-22 11:35,-119.7326,39.1923,1431.00,46.40,35.60,65.83,0.00,0.00,0.00,30.18,M,10.00,M,CLR,M,M,M,M,M,M,M,M,M,M,M,M,M,M,46.40,KCXP 221135Z AUTO 00000KT 10SM CLR 08/02 A3018 RMK AO2,M
RTS,2024-09-22 11:35,-119.8764,39.6682,1539.00,41.00,26.60,56.22,0.00,0.00,0.00,30.19,M,10.00,M,CLR,M,M,M,M,M,M,M,M,M,M,M,M,M,M,41.00,KRTS 221135Z AUTO 00000KT 10SM CLR 05/M03 A3019 RMK AO2,M
MEV,2024-09-22 11:35,-119.7500,38.9963,1441.42,37.40,33.80,86.69,100.00,5.00,0.00,30.16,M,10.00,M,FEW,M,M,M,5500.00,M,M,M,M,M,M,M,M,M,M,32.81,KMEV 221135Z AUTO 10005KT 10SM FEW055 03/01 A3016 RMK AO2,M
BAM,2024-09-22 11:35,-116.8743,40.5990,1382.36,35.60,19.40,51.33,0.00,0.00,0.00,30.18,M,10.00,M,CLR,M,M,M,M,M,M,M,M,M,M,M,M,M,M,35.60,KBAM 221135Z AUTO 00000KT 10SM CLR 02/M07 A3018 RMK AO1,M
HTH,2024-09-22 11:35,-118.6315,38.5448,1282.89,55.40,37.40,50.64,M,4.00,0.00,30.14,M,10.00,M,CLR,M,M,M,M,M,M,M,M,M,M,M,M,M,M,55.40,KHTH 221135Z AUTO VRB04KT 10SM CLR 13/03 A3014 RMK A01,M
TMT,2024-09-22 11:35,-117.1971,39.4643,1749.34,30.20,28.40,92.92,0.00,0.00,0.00,30.22,M,10.00,M,CLR,M,M,M,M,M,M,M,M,M,M,M,M,M,M,30.20,KTMT 221135Z AUTO 00000KT 10SM CLR M01/M02 A3022 RMK AO2 T10101020,M
10U,2024-09-22 11:35,-116.1876,41.9532,1637.00,33.80,26.60,74.63,170.00,6.00,0.00,30.20,M,10.00,M,CLR,M,M,M,M,M,M,M,M,M,M,M,M,M,M,27.70,K10U 221135Z AUTO 17006KT 10SM CLR 01/M03 A3020 RMK AO2,M
05U,2024-09-22 11:50,-116.0051,39.6042,1811.23,37.40,21.20,51.61,0.00,0.00,0.00,30.22,M,10.00,M,CLR,M,M,M,M,M,M,M,M,M,M,M,M,M,M,37.40,K05U 221150Z AUTO 00000KT 10SM CLR 03/M06 A3022 RMK A01,M
P68,2024-09-22 11:53,-116.0056,39.6014,1993.00,38.00,21.00,49.98,190.00,5.00,0.00,30.19,1017.10,M,M,M,M,M,M,M,M,M,M,M,M,M,M,M,M,M,33.52,KP68 221153Z AUTO 19005KT 03/M06 A3019 RMK AO1 SLP171 T00331061 10072 20017 53001,M
DRA,2024-09-22 11:53,-116.0278,36.6206,1009.00,60.00,34.00,37.50,0.00,0.00,0.00,29.98,1011.00,10.00,M,CLR,M,M,M,M,M,M,M,M,M,M,M,M,M,M,60.00,KDRA 221153Z AUTO 00000KT 10SM CLR 16/01 A2998 RMK AO2 SLP110 T01560011 10233 20156 53004,M
ELY,2024-09-22 11:53,-114.8453,39.2950,1909.00,37.00,23.00,56.57,180.00,9.00,0.00,30.21,1016.40,10.00,M,CLR,M,M,M,M,M,M,M,M,M,M,M,M,M,M,29.73,KELY 221153Z AUTO 18009KT 10SM CLR 03/M05 A3021 RMK AO2 SLP164 T00281050 10078 20028 53003,M
VGT,2024-09-22 11:53,-115.1933,36.2111,667.00,70.00,43.00,37.64,340.00,4.00,0.00,29.92,1012.50,10.00,M,CLR,M,M,M,M,M,M,M,M,M,M,M,M,M,M,70.00,KVGT 221153Z AUTO 34004KT 10SM CLR 21/06 A2992 RMK AO2 SLP125 T02110061 10267 20211 53005,M
LOL,2024-09-22 11:53,-118.5701,40.0684,1192.43,42.00,M,M,150.00,3.00,0.00,30.13,1018.10,10.00,M,CLR,M,M,M,M,M,M,M,M,M,M,M,M,M,M,M,KLOL 221153Z AUTO 15003KT 10SM CLR 06/ A3013 RMK AO2 SLP181 T0056 10144 20050 51005 $,M
BVU,2024-09-22 11:55,-114.8611,35.9475,671.00,69.80,46.40,43.13,30.00,7.00,0.00,29.91,M,10.00,M,CLR,M,M,M,M,M,M,M,M,M,M,M,M,M,M,69.80,KBVU 221155Z AUTO 03007KT 10SM CLR 21/08 A2991 RMK AO2,M
RNO,2024-09-22 11:55,-119.7711,39.4839,1341.00,51.00,32.00,47.99,0.00,0.00,0.00,30.16,1017.20,10.00,M,CLR,M,M,M,M,M,M,M,M,M,M,M,M,M,M,51.00,KRNO 221155Z 00000KT 10SM CLR 11/00 A3016 RMK AO2 SLP172 T01060000 10172 20100 53004,M
CXP,2024-09-22 11:55,-119.7326,39.1923,1431.00,44.60,35.60,70.48,0.00,0.00,0.00,30.18,M,10.00,M,CLR,M,M,M,M,M,M,M,M,M,M,M,M,M,M,44.60,KCXP 221155Z AUTO 00000KT 10SM CLR 07/02 A3018 RMK AO2,M
RTS,2024-09-22 11:55,-119.8764,39.6682,1539.00,41.00,26.60,56.22,0.00,0.00,0.00,30.19,M,10.00,M,CLR,M,M,M,M,M,M,M,M,M,M,M,M,M,M,41.00,KRTS 221155Z AUTO 00000KT 10SM CLR 05/M03 A3019 RMK AO2,M
MEV,2024-09-22 11:55,-119.7500,38.9963,1441.42,39.20,33.80,80.79,0.00,0.00,0.00,30.17,M,10.00,M,FEW,FEW,M,M,4800.00,5500.00,M,M,M,M,M,M,M,M,M,39.20,KMEV 221155Z AUTO 00000KT 10SM FEW048 FEW055 04/01 A3017 RMK AO2,M
BAM,2024-09-22 11:55,-116.8743,40.5990,1382.36,35.60,17.60,47.51,0.00,0.00,0.00,30.18,M,10.00,M,CLR,M,M,M,M,M,M,M,M,M,M,M,M,M,M,35.60,KBAM 221155Z AUTO 00000KT 10SM CLR 02/M08 A3018 RMK AO1,M
HTH,2024-09-22 11:55,-118.6315,38.5448,1282.89,53.60,37.40,54.07,0.00,0.00,0.00,30.14,M,10.00,M,CLR,M,M,M,M,M,M,M,M,M,M,M,M,M,M,53.60,KHTH 221155Z AUTO 00000KT 10SM CLR 12/03 A3014 RMK A01,M
TMT,2024-09-22 11:55,-117.1971,39.4643,1749.34,31.00,29.00,92.19,0.00,0.00,0.00,30.22,M,10.00,M,CLR,M,M,M,M,M,M,M,M,M,M,M,M,M,M,31.00,KTMT 221155Z AUTO 00000KT 10SM CLR M01/M02 A3022 RMK AO2 T10061016 10071 21010,M
10U,2024-09-22 11:55,-116.1876,41.9532,1637.00,32.00,26.60,80.22,130.00,5.00,0.00,30.20,M,10.00,M,CLR,M,M,M,M,M,M,M,M,M,M,M,M,M,M,26.40,K10U 221155Z AUTO 13005KT 10SM CLR 00/M03 A3020 RMK AO2,M
INS,2024-09-22 11:55,-115.6733,36.5872,955.00,62.80,30.00,28.90,0.00,0.00,0.00,29.98,1010.70,10.00,M,CLR,M,M,M,M,M,M,M,M,M,M,M,M,M,M,62.80,KINS 221155Z AUTO 00000KT 10SM CLR 17/M01 A2998 RMK AO2 SLP107 T01711011 10233 20158 50004,M
LSV,2024-09-22 11:55,-115.0343,36.2362,570.00,69.30,42.60,37.96,80.00,5.00,0.00,29.87,1009.00,10.00,M,CLR,M,M,M,M,M,M,M,M,M,M,M,M,M,M,69.30,KLSV 221155Z AUTO 08005KT 10SM CLR 21/06 A2987 RMK AO2 SLP090 T02070059 10270 20207 52005 $,M
EKO,2024-09-22 11:56,-115.7860,40.8242,1367.00,42.00,29.00,59.69,70.00,4.00,0.00,30.18,1018.70,10.00,M,CLR,M,M,M,M,M,M,M,M,M,M,M,M,M,M,39.10,KEKO 221156Z AUTO 07004KT 10SM CLR 06/M02 A3018 RMK AO2 SLP187 T00561017 10128 20050 53004,M
WMC,2024-09-22 11:56,-117.8072,40.9019,1315.00,35.00,30.00,81.78,150.00,6.00,0.00,30.16,1018.80,10.00,M,CLR,M,M,M,M,M,M,M,M,M,M,M,M,M,M,29.14,KWMC 221156Z AUTO 15006KT 10SM CLR 02/M01 A3016 RMK AO2 SLP188 T00171011 10111 20011 51003,M
HND,2024-09-22 11:56,-115.1344,35.9729,742.79,67.00,41.00,38.63,200.00,6.00,0.00,29.96,1013.70,10.00,M,CLR,M,M,M,M,M,M,M,M,M,M,M,M,M,M,67.00,KHND 221156Z AUTO 20006KT 10SM CLR 19/05 A2996 RMK AO2 SLP137 T01940050 10250 20189 52005,M
TPH,2024-09-22 11:56,-117.0904,38.0505,1654.00,52.00,28.00,39.30,360.00,9.00,0.00,30.15,1015.10,10.00,M,CLR,M,M,M,M,M,M,M,M,M,M,M,M,M,M,52.00,KTPH 221156Z AUTO 36009KT 10SM CLR 11/M02 A3015 RMK AO2 SLP151 T01111022 10178 20106 51002 $,M
LAS,2024-09-22 11:56,-115.1634,36.0719,663.00,71.00,42.00,35.01,220.00,4.00,0.00,29.93,1011.10,10.00,M,FEW,M,M,M,15000.00,M,M,M,M,M,M,M,M,M,M,71.00,KLAS 221156Z 22004KT 10SM FEW150 22/06 A2993 RMK AO2 SLP111 T02170056 10267 20217 53005 $,M
NFL,2024-09-22 11:57,-118.7010,39.4166,1199.00,46.00,36.00,67.90,210.00,3.00,0.00,30.13,1016.80,10.00,M,CLR,M,M,M,M,M,M,M,M,M,M,M,M,M,M,44.69,KNFL 221157Z AUTO 21003KT 10SM CLR 08/02 A3013 RMK AO2 SLP168 T00780022 10139 20072 51006,M
05U,2024-09-22 12:10,-116.0051,39.6042,1811.23,37.40,21.20,51.61,0.00,0.00,0.00,30.22,M,10.00,M,CLR,M,M,M,M,M,M,M,M,M,M,M,M,M,M,37.40,K05U 221210Z AUTO 00000KT 10SM CLR 03/M06 A3022 RMK A01,M
BVU,2024-09-22 12:15,-114.8611,35.9475,671.00,68.00,46.40,45.88,40.00,6.00,0.00,29.91,M,10.00,M,CLR,M,M,M,M,M,M,M,M,M,M,M,M,M,M,68.00,KBVU 221215Z AUTO 04006KT 10SM CLR 20/08 A2991 RMK AO2,M
CXP,2024-09-22 12:15,-119.7326,39.1923,1431.00,44.60,37.40,75.68,0.00,0.00,0.00,30.18,M,10.00,M,CLR,M,M,M,M,M,M,M,M,M,M,M,M,M,M,44.60,KCXP 221215Z AUTO 00000KT 10SM CLR 07/03 A3018 RMK AO2,M
RTS,2024-09-22 12:15,-119.8764,39.6682,1539.00,41.00,28.40,60.54,350.00,3.00,0.00,30.19,M,10.00,M,CLR,M,M,M,M,M,M,M,M,M,M,M,M,M,M,38.98,KRTS 221215Z AUTO 35003KT 10SM CLR 05/M02 A3019 RMK AO2,M
MEV,2024-09-22 12:15,-119.7500,38.9963,1441.42,37.40,33.80,86.69,120.00,3.00,0.00,30.17,M,10.00,M,FEW,M,M,M,4600.00,M,M,M,M,M,M,M,M,M,M,34.86,KMEV 221215Z AUTO 12003KT 10SM FEW046 03/01 A3017 RMK AO2,M
BAM,2024-09-22 12:15,-116.8743,40.5990,1382.36,33.80,14.00,43.65,0.00,0.00,0.00,30.18,M,10.00,M,CLR,M,M,M,M,M,M,M,M,M,M,M,M,M,M,33.80,KBAM 221215Z AUTO 00000KT 10SM CLR 01/M10 A3018 RMK AO1,M
HTH,2024-09-22 12:15,-118.6315,38.5448,1282.89,53.60,37.40,54.07,240.00,6.00,0.00,30.14,M,10.00,M,CLR,M,M,M,M,M,M,M,M,M,M,M,M,M,M,53.60,KHTH 221215Z AUTO 24006KT 10SM CLR 12/03 A3014 RMK A01,M
TMT,2024-09-22 12:15,-117.1971,39.4643,1749.34,30.40,28.20,91.41,0.00,0.00,0.00,30.22,M,10.00,M,CLR,M,M,M,M,M,M,M,M,M,M,M,M,M,M,30.40,KTMT 221215Z AUTO 00000KT 10SM CLR M01/M02 A3022 RMK AO2 T10091021,M
10U,2024-09-22 12:15,-116.1876,41.9532,1637.00,32.00,26.60,80.22,0.00,0.00,0.00,30.20,M,10.00,M,CLR,M,M,M,M,M,M,M,M,M,M,M,M,M,M,32.00,K10U 221215Z AUTO 00000KT 10SM CLR 00/M03 A3020 RMK AO2,M
05U,2024-09-22 12:30,-116.0051,39.6042,1811.23,35.60,19.40,51.33,0.00,0.00,0.00,30.22,M,10.00,M,CLR,M,M,M,M,M,M,M,M,M,M,M,M,M,M,35.60,K05U 221230Z AUTO 00000KT 10SM CLR 02/M07 A3022 RMK A01,M
BVU,2024-09-22 12:35,-114.8611,35.9475,671.00,68.00,46.40,45.88,40.00,7.00,0.00,29.92,M,10.00,M,CLR,M,M,M,M,M,M,M,M,M,M,M,M,M,M,68.00,KBVU 221235Z AUTO 04007KT 10SM CLR 20/08 A2992 RMK AO2,M
CXP,2024-09-22 12:35,-119.7326,39.1923,1431.00,44.60,35.60,70.48,0.00,0.00,0.00,30.19,M,10.00,M,CLR,M,M,M,M,M,M,M,M,M,M,M,M,M,M,44.60,KCXP 221235Z AUTO 00000KT 10SM CLR 07/02 A3019 RMK AO2,M
RTS,2024-09-22 12:35,-119.8764,39.6682,1539.00,42.80,30.20,60.79,0.00,0.00,0.00,30.19,M,10.00,M,CLR,M,M,M,M,M,M,M,M,M,M,M,M,M,M,42.80,KRTS 221235Z AUTO 00000KT 10SM CLR 06/M01 A3019 RMK AO2,M
MEV,2024-09-22 12:35,-119.7500,38.9963,1441.42,41.00,33.80,75.33,0.00,0.00,0.00,30.17,M,10.00,M,FEW,M,M,M,4600.00,M,M,M,M,M,M,M,M,M,M,41.00,KMEV 221235Z AUTO 00000KT 10SM FEW046 05/01 A3017 RMK AO2,M
BAM,2024-09-22 12:35,-116.8743,40.5990,1382.36,33.80,17.60,51.04,0.00,0.00,0.00,30.19,M,10.00,M,CLR,M,M,M,M,M,M,M,M,M,M,M,M,M,M,33.80,KBAM 221235Z AUTO 00000KT 10SM CLR 01/M08 A3019 RMK AO1,M
HTH,2024-09-22 12:35,-118.6315,38.5448,1282.89,53.60,37.40,54.07,220.00,6.00,0.00,30.15,M,10.00,M,CLR,M,M,M,M,M,M,M,M,M,M,M,M,M,M,53.60,KHTH 221235Z AUTO 22006KT 10SM CLR 12/03 A3015 RMK A01,M
TMT,2024-09-22 12:35,-117.1971,39.4643,1749.34,32.00,30.00,92.22,0.00,0.00,0.00,30.22,M,10.00,M,CLR,M,M,M,M,M,M,M,M,M,M,M,M,M,M,32.00,KTMT 221235Z AUTO 00000KT 10SM CLR 00/M01 A3022 RMK AO2 T00001012,M
10U,2024-09-22 12:35,-116.1876,41.9532,1637.00,32.00,26.60,80.22,150.00,4.00,0.00,30.20,M,10.00,M,CLR,M,M,M,M,M,M,M,M,M,M,M,M,M,M,27.42,K10U 221235Z AUTO 15004KT 10SM CLR M00/M03 A3020 RMK AO2,M
05U,2024-09-22 12:50,-116.0051,39.6042,1811.23,35.60,21.20,55.41,0.00,0.00,0.00,30.22,M,10.00,M,CLR,M,M,M,M,M,M,M,M,M,M,M,M,M,M,35.60,K05U 221250Z AUTO 00000KT 10SM CLR 02/M06 A3022 RMK A01,M
P68,2024-09-22 12:53,-116.0056,39.6014,1993.00,35.00,22.00,58.70,150.00,6.00,0.00,30.20,1017.90,M,M,M,M,M,M,M,M,M,M,M,M,M,M,M,M,M,29.14,KP68 221253Z AUTO 15006KT 02/M06 A3020 RMK AO1 SLP179 T00171056,M
DRA,2024-09-22 12:53,-116.0278,36.6206,1009.00,61.00,35.00,37.66,0.00,0.00,0.00,29.99,1011.30,10.00,M,CLR,M,M,M,M,M,M,M,M,M,M,M,M,M,M,61.00,KDRA 221253Z AUTO 00000KT 10SM CLR 16/02 A2999 RMK AO2 SLP113 T01610017,M
ELY,2024-09-22 12:53,-114.8453,39.2950,1909.00,32.00,21.00,63.45,170.00,8.00,0.00,30.22,1017.60,10.00,M,CLR,M,M,M,M,M,M,M,M,M,M,M,M,M,M,24.11,KELY 221253Z AUTO 17008KT 10SM CLR 00/M06 A3022 RMK AO2 SLP176 T00001061,M
VGT,2024-09-22 12:53,-115.1933,36.2111,667.00,70.00,41.00,34.85,300.00,4.00,0.00,29.93,1012.90,10.00,M,CLR,M,M,M,M,M,M,M,M,M,M,M,M,M,M,70.00,KVGT 221253Z 30004KT 10SM CLR 21/05 A2993 RMK AO2 SLP129 T02110050,M
LOL,2024-09-22 12:53,-118.5701,40.0684,1192.43,38.00,M,M,0.00,0.00,0.00,30.13,1018.70,10.00,M,CLR,M,M,M,M,M,M,M,M,M,M,M,M,M,M,M,KLOL 221253Z AUTO 00000KT 10SM CLR 03/ A3013 RMK AO2 SLP187 T0033 $,M
BVU,2024-09-22 12:55,-114.8611,35.9475,671.00,68.00,46.40,45.88,40.00,6.00,0.00,29.93,M,10.00,M,CLR,M,M,M,M,M,M,M,M,M,M,M,M,M,M,68.00,KBVU 221255Z AUTO 04006KT 10SM CLR 20/08 A2993 RMK AO2,M
RNO,2024-09-22 12:55,-119.7711,39.4839,1341.00,47.00,36.00,65.38,180.00,3.00,0.00,30.17,1017.70,10.00,M,CLR,M,M,M,M,M,M,M,M,M,M,M,M,M,M,45.84,KRNO 221255Z 18003KT 10SM CLR 08/02 A3017 RMK AO2 SLP177 T00830022,M
CXP,2024-09-22 12:55,-119.7326,39.1923,1431.00,42.80,35.60,75.50,0.00,0.00,0.00,30.19,M,10.00,M,CLR,M,M,M,M,M,M,M,M,M,M,M,M,M,M,42.80,KCXP 221255Z AUTO 00000KT 10SM CLR 06/02 A3019 RMK AO2,M
RTS,2024-09-22 12:55,-119.8764,39.6682,1539.00,42.80,28.40,56.48,0.00,0.00,0.00,30.19,M,10.00,M,CLR,M,M,M,M,M,M,M,M,M,M,M,M,M,M,42.80,KRTS 221255Z AUTO 00000KT 10SM CLR 06/M02 A3019 RMK AO2,M
MEV,2024-09-22 12:55,-119.7500,38.9963,1441.42,35.60,32.00,86.59,0.00,0.00,0.00,30.18,M,10.00,M,FEW,M,M,M,4900.00,M,M,M,M,M,M,M,M,M,M,35.60,KMEV 221255Z AUTO 00000KT 10SM FEW049 02/M00 A3018 RMK AO2,M
BAM,2024-09-22 12:55,-116.8743,40.5990,1382.36,33.80,15.80,47.22,0.00,0.00,0.00,30.19,M,10.00,M,CLR,M,M,M,M,M,M,M,M,M,M,M,M,M,M,33.80,KBAM 221255Z AUTO 00000KT 10SM CLR 01/M09 A3019 RMK AO1,M
HTH,2024-09-22 12:55,-118.6315,38.5448,1282.89,51.80,37.40,57.77,0.00,0.00,0.00,30.15,M,10.00,M,CLR,M,M,M,M,M,M,M,M,M,M,M,M,M,M,51.80,KHTH 221255Z AUTO 00000KT 10SM CLR 11/03 A3015 RMK A01,M
TMT,2024-09-22 12:55,-117.1971,39.4643,1749.34,31.60,30.00,93.72,0.00,0.00,0.00,30.22,M,10.00,M,CLR,M,M,M,M,M,M,M,M,M,M,M,M,M,M,31.60,KTMT 221255Z AUTO 00000KT 10SM CLR 00/M01 A3022 RMK AO2 T10021011,M
10U,2024-09-22 12:55,-116.1876,41.9532,1637.00,33.80,26.60,74.63,190.00,6.00,0.00,30.20,M,10.00,M,CLR,M,M,M,M,M,M,M,M,M,M,M,M,M,M,27.70,K10U 221255Z AUTO 19006KT 10SM CLR 01/M03 A3020 RMK AO2,M
INS,2024-09-22 12:55,-115.6733,36.5872,955.00,63.50,31.50,29.97,290.00,4.00,0.00,29.99,1011.00,10.00,M,CLR,M,M,M,M,M,M,M,M,M,M,M,M,M,M,63.50,KINS 221255Z AUTO 29004KT 10SM CLR 18/M00 A2999 RMK AO2 SLP110 T01751003,M
LSV,2024-09-22 12:55,-115.0343,36.2362,570.00,69.00,42.40,38.06,0.00,0.00,0.00,29.89,1009.70,10.00,M,CLR,M,M,M,M,M,M,M,M,M,M,M,M,M,M,69.00,KLSV 221255Z AUTO 00000KT 10SM CLR 21/06 A2989 RMK AO2 SLP097 T02060058 $,M
EKO,2024-09-22 12:56,-115.7860,40.8242,1367.00,40.00,25.00,54.69,70.00,4.00,0.00,30.19,1019.50,10.00,M,CLR,M,M,M,M,M,M,M,M,M,M,M,M,M,M,36.76,KEKO 221256Z AUTO 07004KT 10SM CLR 04/M04 A3019 RMK AO2 SLP195 T00441039,M
WMC,2024-09-22 12:56,-117.8072,40.9019,1315.00,34.00,29.00,81.71,150.00,6.00,0.00,30.16,1019.40,10.00,M,CLR,M,M,M,M,M,M,M,M,M,M,M,M,M,M,27.94,KWMC 221256Z AUTO 15006KT 10SM CLR 01/M02 A3016 RMK AO2 SLP194 T00111017,M
HND,2024-09-22 12:56,-115.1344,35.9729,742.79,65.00,42.00,43.04,190.00,5.00,0.00,29.97,1014.20,10.00,M,CLR,M,M,M,M,M,M,M,M,M,M,M,M,M,M,65.00,KHND 221256Z 19005KT 10SM CLR 18/06 A2997 RMK AO2 SLP142 T01830056,M
TPH,2024-09-22 12:56,-117.0904,38.0505,1654.00,51.00,28.00,40.78,350.00,11.00,0.00,30.16,1015.50,10.00,M,CLR,M,M,M,M,M,M,M,M,M,M,M,M,M,M,51.00,KTPH 221256Z AUTO 35011KT 10SM CLR 11/M02 A3016 RMK AO2 SLP155 T01061022 $,M
LAS,2024-09-22 12:56,-115.1634,36.0719,663.00,72.00,43.00,35.16,240.00,3.00,0.00,29.94,1011.50,10.00,M,CLR,M,M,M,M,M,M,M,M,M,M,M,M,M,M,72.00,KLAS 221256Z 24003KT 10SM CLR 22/06 A2994 RMK AO2 SLP115 T02220061 $,M
NFL,2024-09-22 12:57,-118.7010,39.4166,1199.00,43.00,35.00,73.16,200.00,5.00,0.00,30.13,1017.00,10.00,M,CLR,M,M,M,M,M,M,M,M,M,M,M,M,M,M,39.46,KNFL 221257Z AUTO 20005KT 10SM CLR 06/02 A3013 RMK AO2 SLP170 T00610017,M
05U,2024-09-22 13:10,-116.0051,39.6042,1811.23,33.80,19.40,55.14,0.00,0.00,0.00,30.23,M,10.00,M,CLR,M,M,M,M,M,M,M,M,M,M,M,M,M,M,33.80,K05U 221310Z AUTO 00000KT 10SM CLR 01/M07 A3023 RMK A01,M
BVU,2024-09-22 13:15,-114.8611,35.9475,671.00,66.20,44.60,45.60,20.00,5.00,0.00,29.93,M,10.00,M,CLR,M,M,M,M,M,M,M,M,M,M,M,M,M,M,66.20,KBVU 221315Z AUTO 02005KT 10SM CLR 19/07 A2993 RMK AO2,M
CXP,2024-09-22 13:15,-119.7326,39.1923,1431.00,42.80,37.40,81.07,0.00,0.00,0.00,30.20,M,10.00,M,CLR,M,M,M,M,M,M,M,M,M,M,M,M,M,M,42.80,KCXP 221315Z AUTO 00000KT 10SM CLR 06/03 A3020 RMK AO2,M
RTS,2024-09-22 13:15,-119.8764,39.6682,1539.00,41.00,28.40,60.54,0.00,0.00,0.00,30.20,M,10.00,M,CLR,M,M,M,M,M,M,M,M,M,M,M,M,M,M,41.00,KRTS 221315Z AUTO 00000KT 10SM CLR 05/M02 A3020 RMK AO2,M
MEV,2024-09-22 13:15,-119.7500,38.9963,1441.42,37.40,33.80,86.69,30.00,3.00,0.00,30.18,M,10.00,M,SCT,M,M,M,5000.00,M,M,M,M,M,M,M,M,M,M,34.86,KMEV 221315Z AUTO 03003KT 10SM SCT050 03/01 A3018 RMK AO2,M
BAM,2024-09-22 13:15,-116.8743,40.5990,1382.36,35.60,17.60,47.51,0.00,0.00,0.00,30.19,M,10.00,M,CLR,M,M,M,M,M,M,M,M,M,M,M,M,M,M,35.60,KBAM 221315Z AUTO 00000KT 10SM CLR 02/M08 A3019 RMK AO1,M
HTH,2024-09-22 13:15,-118.6315,38.5448,1282.89,53.60,37.40,54.07,0.00,0.00,0.00,30.15,M,10.00,M,CLR,M,M,M,M,M,M,M,M,M,M,M,M,M,M,53.60,KHTH 221315Z AUTO 00000KT 10SM CLR 12/03 A3015 RMK A01,M
TMT,2024-09-22 13:15,-117.1971,39.4643,1749.34,29.50,27.00,90.25,0.00,0.00,0.00,30.24,M,10.00,M,CLR,M,M,M,M,M,M,M,M,M,M,M,M,M,M,29.50,KTMT 221315Z AUTO 00000KT 10SM CLR M01/M03 A3024 RMK AO2 T10141028,M
10U,2024-09-22 13:15,-116.1876,41.9532,1637.00,33.80,26.60,74.63,140.00,5.00,0.00,30.21,M,10.00,M,CLR,M,M,M,M,M,M,M,M,M,M,M,M,M,M,28.53,K10U 221315Z AUTO 14005KT 10SM CLR 01/M03 A3021 RMK AO2,M
05U,2024-09-22 13:30,-116.0051,39.6042,1811.23,37.40,21.20,51.61,0.00,0.00,0.00,30.24,M,10.00,M,CLR,M,M,M,M,M,M,M,M,M,M,M,M,M,M,37.40,K05U 221330Z AUTO 00000KT 10SM CLR 03/M06 A3024 RMK A01,M
BVU,2024-09-22 13:35,-114.8611,35.9475,671.00,68.00,44.60,42.85,40.00,4.00,0.00,29.94,M,10.00,M,CLR,M,M,M,M,M,M,M,M,M,M,M,M,M,M,68.00,KBVU 221335Z AUTO 04004KT 10SM CLR 20/07 A2994 RMK AO2,M
CXP,2024-09-22 13:35,-119.7326,39.1923,1431.00,44.60,35.60,70.48,0.00,0.00,0.00,30.20,M,10.00,M,CLR,M,M,M,M,M,M,M,M,M,M,M,M,M,M,44.60,KCXP 221335Z AUTO 00000KT 10SM CLR 07/02 A3020 RMK AO2,M
RTS,2024-09-22 13:35,-119.8764,39.6682,1539.00,42.80,30.20,60.79,0.00,0.00,0.00,30.20,M,10.00,M,CLR,M,M,M,M,M,M,M,M,M,M,M,M,M,M,42.80,KRTS 221335Z AUTO 00000KT 10SM CLR 06/M01 A3020 RMK AO2,M
MEV,2024-09-22 13:35,-119.7500,38.9963,1441.42,35.60,30.20,80.51,0.00,0.00,0.00,30.19,M,10.00,M,FEW,M,M,M,5000.00,M,M,M,M,M,M,M,M,M,M,35.60,KMEV 221335Z AUTO 00000KT 10SM FEW050 02/M01 A3019 RMK AO2,M
BAM,2024-09-22 13:35,-116.8743,40.5990,1382.36,35.60,17.60,47.51,170.00,3.00,0.00,30.19,M,10.00,M,CLR,M,M,M,M,M,M,M,M,M,M,M,M,M,M,32.80,KBAM 221335Z AUTO 17003KT 10SM CLR 02/M08 A3019 RMK AO1,M
HTH,2024-09-22 13:35,-118.6315,38.5448,1282.89,51.80,39.20,61.99,0.00,0.00,0.00,30.16,M,10.00,M,CLR,M,M,M,M,M,M,M,M,M,M,M,M,M,M,51.80,KHTH 221335Z AUTO 00000KT 10SM CLR 11/04 A3016 RMK A01,M
TMT,2024-09-22 13:35,-117.1971,39.4643,1749.34,30.00,28.80,95.22,0.00,0.00,0.00,30.24,M,10.00,M,CLR,M,M,M,M,M,M,M,M,M,M,M,M,M,M,30.00,KTMT 221335Z AUTO 00000KT 10SM CLR M01/M02 A3024 RMK AO2 T10111018,M
10U,2024-09-22 13:35,-116.1876,41.9532,1637.00,35.60,26.60,69.46,140.00,5.00,0.00,30.21,M,10.00,M,CLR,M,M,M,M,M,M,M,M,M,M,M,M,M,M,30.67,K10U 221335Z AUTO 14005KT 10SM CLR 02/M03 A3021 RMK AO2,M
05U,2024-09-22 13:50,-116.0051,39.6042,1811.23,33.80,21.20,59.53,0.00,0.00,0.00,30.24,M,10.00,M,CLR,M,M,M,M,M,M,M,M,M,M,M,M,M,M,33.80,K05U 221350Z AUTO 00000KT 10SM CLR 01/M06 A3024 RMK A01,M
P68,2024-09-22 13:53,-116.0056,39.6014,1993.00,35.00,22.00,58.70,210.00,7.00,0.00,30.21,1019.80,M,M,M,M,M,M,M,M,M,M,M,M,M,M,M,M,M,28.44,KP68 221353Z AUTO 21007KT 02/M06 A3021 RMK AO1 SLP198 T00171056,M
DRA,2024-09-22 13:53,-116.0278,36.6206,1009.00,61.00,35.00,37.66,0.00,0.00,0.00,30.02,1012.40,10.00,M,CLR,M,M,M,M,M,M,M,M,M,M,M,M,M,M,61.00,KDRA 221353Z AUTO 00000KT 10SM CLR 16/02 A3002 RMK AO2 SLP124 T01610017,M
ELY,2024-09-22 13:53,-114.8453,39.2950,1909.00,35.00,22.00,58.70,190.00,5.00,0.00,30.23,1018.20,10.00,M,CLR,M,M,M,M,M,M,M,M,M,M,M,M,M,M,29.96,KELY 221353Z AUTO 19005KT 10SM CLR 02/M06 A3023 RMK AO2 SLP182 T00171056,M
VGT,2024-09-22 13:53,-115.1933,36.2111,667.00,70.00,41.00,34.85,300.00,5.00,0.00,29.96,1013.90,10.00,M,CLR,M,M,M,M,M,M,M,M,M,M,M,M,M,M,70.00,KVGT 221353Z 30005KT 10SM CLR 21/05 A2996 RMK AO2 SLP139 T02110050,M
LOL,2024-09-22 13:53,-118.5701,40.0684,1192.43,39.00,M,M,140.00,4.00,0.00,30.15,1019.50,10.00,M,CLR,M,M,M,M,M,M,M,M,M,M,M,M,M,M,M,KLOL 221353Z AUTO 14004KT 10SM CLR 04/ A3015 RMK AO2 SLP195 T0039 $,M
BVU,2024-09-22 13:55,-114.8611,35.9475,671.00,69.80,44.60,40.29,40.00,5.00,0.00,29.95,M,10.00,M,CLR,M,M,M,M,M,M,M,M,M,M,M,M,M,M,69.80,KBVU 221355Z AUTO 04005KT 10SM CLR 21/07 A2995 RMK AO2,M
RNO,2024-09-22 13:55,-119.7711,39.4839,1341.00,47.00,36.00,65.38,0.00,0.00,0.00,30.18,1018.40,10.00,M,CLR,M,M,M,M,M,M,M,M,M,M,M,M,M,M,47.00,KRNO 221355Z 00000KT 10SM CLR 08/02 A3018 RMK AO2 SLP184 T00830022,M
CXP,2024-09-22 13:55,-119.7326,39.1923,1431.00,44.60,35.60,70.48,0.00,0.00,0.00,30.21,M,10.00,M,CLR,M,M,M,M,M,M,M,M,M,M,M,M,M,M,44.60,KCXP 221355Z AUTO 00000KT 10SM CLR 07/02 A3021 RMK AO2,M
LSV,2024-09-22 13:55,-115.0343,36.2362,570.00,M,M,M,50.00,8.00,0.00,29.91,M,10.00,M,M,M,M,M,M,M,M,M,M,M,M,M,M,M,M,M,KLSV 221355Z AUTO 05008KT 10SM M M A2991 RMK AO2 SLPNO ALSTG ESTMD $,M
RTS,2024-09-22 13:55,-119.8764,39.6682,1539.00,42.80,28.40,56.48,0.00,0.00,0.00,30.21,M,10.00,M,CLR,M,M,M,M,M,M,M,M,M,M,M,M,M,M,42.80,KRTS 221355Z AUTO 00000KT 10SM CLR 06/M02 A3021 RMK AO2,M
MEV,2024-09-22 13:55,-119.7500,38.9963,1441.42,35.60,32.00,86.59,0.00,0.00,0.00,30.19,M,10.00,M,CLR,M,M,M,M,M,M,M,M,M,M,M,M,M,M,35.60,KMEV 221355Z AUTO 00000KT 10SM CLR 02/M00 A3019 RMK AO2,M
BAM,2024-09-22 13:55,-116.8743,40.5990,1382.36,33.80,17.60,51.04,0.00,0.00,0.00,30.20,M,10.00,M,CLR,M,M,M,M,M,M,M,M,M,M,M,M,M,M,33.80,KBAM 221355Z AUTO 00000KT 10SM CLR 01/M08 A3020 RMK AO1,M
HTH,2024-09-22 13:55,-118.6315,38.5448,1282.89,51.80,39.20,61.99,0.00,0.00,0.00,30.16,M,10.00,M,CLR,M,M,M,M,M,M,M,M,M,M,M,M,M,M,51.80,KHTH 221355Z AUTO 00000KT 10SM CLR 11/04 A3016 RMK A01,M
TMT,2024-09-22 13:55,-117.1971,39.4643,1749.34,27.50,26.40,95.56,140.00,3.00,0.00,30.24,M,10.00,M,CLR,M,M,M,M,M,M,M,M,M,M,M,M,M,M,23.54,KTMT 221355Z AUTO 14003KT 10SM CLR M02/M03 A3024 RMK AO2 T10251031,M
10U,2024-09-22 13:55,-116.1876,41.9532,1637.00,35.60,26.60,69.46,140.00,3.00,0.00,30.22,M,10.00,M,CLR,M,M,M,M,M,M,M,M,M,M,M,M,M,M,32.80,K10U 221355Z AUTO 14003KT 10SM CLR 02/M03 A3022 RMK AO2,M
INS,2024-09-22 13:55,-115.6733,36.5872,955.00,57.70,28.80,33.00,0.00,0.00,0.00,30.01,1012.40,10.00,M,CLR,M,M,M,M,M,M,M,M,M,M,M,M,M,M,57.70,KINS 221355Z AUTO 00000KT 10SM CLR 14/M02 A3001 RMK AO2 SLP124 T01431018,M
EKO,2024-09-22 13:56,-115.7860,40.8242,1367.00,36.00,28.00,72.43,0.00,0.00,0.00,30.21,1020.80,10.00,M,CLR,M,M,M,M,M,M,M,M,M,M,M,M,M,M,36.00,KEKO 221356Z AUTO 00000KT 10SM CLR 02/M02 A3021 RMK AO2 SLP208 T00221022,M
WMC,2024-09-22 13:56,-117.8072,40.9019,1315.00,36.00,30.00,78.60,140.00,4.00,0.00,30.17,1020.10,10.00,M,CLR,M,M,M,M,M,M,M,M,M,M,M,M,M,M,32.09,KWMC 221356Z AUTO 14004KT 10SM CLR 02/M01 A3017 RMK AO2 SLP201 T00221011,M
HND,2024-09-22 13:56,-115.1344,35.9729,742.79,65.00,41.00,41.41,180.00,5.00,0.00,29.99,1015.10,10.00,M,CLR,M,M,M,M,M,M,M,M,M,M,M,M,M,M,65.00,KHND 221356Z 18005KT 10SM CLR 18/05 A2999 RMK AO2 SLP151 T01830050,M
TPH,2024-09-22 13:56,-117.0904,38.0505,1654.00,50.00,28.00,42.33,340.00,5.00,0.00,30.17,1016.50,10.00,M,CLR,M,M,M,M,M,M,M,M,M,M,M,M,M,M,50.00,KTPH 221356Z AUTO 34005KT 10SM CLR 10/M02 A3017 RMK AO2 SLP165 T01001022 $,M
LAS,2024-09-22 13:56,-115.1634,36.0719,663.00,70.00,41.00,34.85,240.00,4.00,0.00,29.97,1012.60,10.00,M,FEW,M,M,M,25000.00,M,M,M,M,M,M,M,M,M,M,70.00,KLAS 221356Z 24004KT 10SM FEW250 21/05 A2997 RMK AO2 SLP126 T02110050 $,M
NFL,2024-09-22 13:57,-118.7010,39.4166,1199.00,46.00,35.00,65.26,170.00,3.00,0.00,30.14,1017.30,10.00,M,CLR,M,M,M,M,M,M,M,M,M,M,M,M,M,M,44.69,KNFL 221357Z AUTO 17003KT 10SM CLR 08/02 A3014 RMK AO2 SLP173 T00780017,M
05U,2024-09-22 14:10,-116.0051,39.6042,1811.23,37.40,23.00,55.68,0.00,0.00,0.00,30.25,M,10.00,M,CLR,M,M,M,M,M,M,M,M,M,M,M,M,M,M,37.40,K05U 221410Z AUTO 00000KT 10SM CLR 03/M05 A3025 RMK A01,M
BVU,2024-09-22 14:15,-114.8611,35.9475,671.00,69.80,44.60,40.29,0.00,0.00,0.00,29.96,M,10.00,M,CLR,M,M,M,M,M,M,M,M,M,M,M,M,M,M,69.80,KBVU 221415Z AUTO 00000KT 10SM CLR 21/07 A2996 RMK AO2,M
CXP,2024-09-22 14:15,-119.7326,39.1923,1431.00,44.60,35.60,70.48,0.00,0.00,0.00,30.21,M,10.00,M,CLR,M,M,M,M,M,M,M,M,M,M,M,M,M,M,44.60,KCXP 221415Z AUTO 00000KT 10SM CLR 07/02 A3021 RMK AO2,M
RTS,2024-09-22 14:15,-119.8764,39.6682,1539.00,42.80,30.20,60.79,0.00,0.00,0.00,30.21,M,10.00,M,CLR,M,M,M,M,M,M,M,M,M,M,M,M,M,M,42.80,KRTS 221415Z AUTO 00000KT 10SM CLR 06/M01 A3021 RMK AO2,M
MEV,2024-09-22 14:15,-119.7500,38.9963,1441.42,37.40,32.00,80.65,0.00,0.00,0.00,30.20,M,10.00,M,CLR,M,M,M,M,M,M,M,M,M,M,M,M,M,M,37.40,KMEV 221415Z AUTO 00000KT 10SM CLR 03/00 A3020 RMK AO2,M
BAM,2024-09-22 14:15,-116.8743,40.5990,1382.36,32.00,15.80,50.75,0.00,0.00,0.00,30.20,M,10.00,M,CLR,M,M,M,M,M,M,M,M,M,M,M,M,M,M,32.00,KBAM 221415Z AUTO 00000KT 10SM CLR 00/M09 A3020 RMK AO1,M
HTH,2024-09-22 14:15,-118.6315,38.5448,1282.89,50.00,39.20,66.27,0.00,0.00,0.00,30.17,M,10.00,M,CLR,M,M,M,M,M,M,M,M,M,M,M,M,M,M,50.00,KHTH 221415Z AUTO 00000KT 10SM CLR 10/04 A3017 RMK A01,M
TMT,2024-09-22 14:15,-117.1971,39.4643,1749.34,32.00,31.50,98.00,0.00,0.00,0.00,30.25,M,10.00,M,CLR,M,M,M,M,M,M,M,M,M,M,M,M,M,M,32.00,KTMT 221415Z AUTO 00000KT 10SM CLR 00/00 A3025 RMK AO2 T00011003,M
10U,2024-09-22 14:15,-116.1876,41.9532,1637.00,37.40,28.40,69.67,130.00,4.00,0.00,30.23,M,10.00,M,CLR,M,M,M,M,M,M,M,M,M,M,M,M,M,M,33.73,K10U 221415Z AUTO 13004KT 10SM CLR 03/M02 A3023 RMK AO2,M
05U,2024-09-22 14:30,-116.0051,39.6042,1811.23,42.80,23.00,45.14,0.00,0.00,0.00,30.25,M,10.00,M,CLR,M,M,M,M,M,M,M,M,M,M,M,M,M,M,42.80,K05U 221430Z AUTO 00000KT 10SM CLR 06/M05 A3025 RMK A01,M
BVU,2024-09-22 14:35,-114.8611,35.9475,671.00,71.60,44.60,37.89,0.00,0.00,0.00,29.96,M,10.00,M,CLR,M,M,M,M,M,M,M,M,M,M,M,M,M,M,71.60,KBVU 221435Z AUTO 00000KT 10SM CLR 22/07 A2996 RMK AO2,M
CXP,2024-09-22 14:35,-119.7326,39.1923,1431.00,44.60,37.40,75.68,0.00,0.00,0.00,30.22,M,10.00,M,CLR,M,M,M,M,M,M,M,M,M,M,M,M,M,M,44.60,KCXP 221435Z AUTO 00000KT 10SM CLR 07/03 A3022 RMK AO2,M
RTS,2024-09-22 14:35,-119.8764,39.6682,1539.00,41.00,33.80,75.33,0.00,0.00,0.00,30.21,M,10.00,M,CLR,M,M,M,M,M,M,M,M,M,M,M,M,M,M,41.00,KRTS 221435Z AUTO 00000KT 10SM CLR 05/01 A3021 RMK AO2,M
MEV,2024-09-22 14:35,-119.7500,38.9963,1441.42,39.20,35.60,86.79,100.00,4.00,0.00,30.20,M,10.00,M,CLR,M,M,M,M,M,M,M,M,M,M,M,M,M,M,35.83,KMEV 221435Z AUTO 10004KT 10SM CLR 04/02 A3020 RMK AO2,M
BAM,2024-09-22 14:35,-116.8743,40.5990,1382.36,35.60,19.40,51.33,0.00,0.00,0.00,30.20,M,10.00,M,CLR,M,M,M,M,M,M,M,M,M,M,M,M,M,M,35.60,KBAM 221435Z AUTO 00000KT 10SM CLR 02/M07 A3020 RMK AO1,M
HTH,2024-09-22 14:35,-118.6315,38.5448,1282.89,55.40,37.40,50.64,220.00,4.00,0.00,30.18,M,10.00,M,CLR,M,M,M,M,M,M,M,M,M,M,M,M,M,M,55.40,KHTH 221435Z AUTO 22004KT 10SM CLR 13/03 A3018 RMK A01,M
TMT,2024-09-22 14:35,-117.1971,39.4643,1749.34,35.40,33.00,90.87,0.00,0.00,0.00,30.25,M,10.00,M,CLR,M,M,M,M,M,M,M,M,M,M,M,M,M,M,35.40,KTMT 221435Z AUTO 00000KT 10SM CLR 02/01 A3025 RMK AO2 T00190005,M
10U,2024-09-22 14:35,-116.1876,41.9532,1637.00,35.60,26.60,69.46,0.00,0.00,0.00,30.23,M,10.00,M,CLR,M,M,M,M,M,M,M,M,M,M,M,M,M,M,35.60,K10U 221435Z AUTO 00000KT 10SM CLR 02/M03 A3023 RMK AO2,M
05U,2024-09-22 14:50,-116.0051,39.6042,1811.23,46.40,23.00,39.36,0.00,0.00,0.00,30.25,M,10.00,M,CLR,M,M,M,M,M,M,M,M,M,M,M,M,M,M,46.40,K05U 221450Z AUTO 00000KT 10SM CLR 08/M05 A3025 RMK A01,M
P68,2024-09-22 14:53,-116.0056,39.6014,1993.00,48.00,24.00,38.64,210.00,5.00,0.00,30.23,1019.50,M,M,M,M,M,M,M,M,M,M,M,M,M,M,M,M,M,45.40,KP68 221453Z AUTO 21005KT 09/M04 A3023 RMK AO1 SLP195 T00891044 53009,M
DRA,2024-09-22 14:53,-116.0278,36.6206,1009.00,67.00,36.00,31.76,0.00,0.00,0.00,30.03,1012.70,10.00,M,CLR,M,M,M,M,M,M,M,M,M,M,M,M,M,M,67.00,KDRA 221453Z AUTO 00000KT 10SM CLR 19/02 A3003 RMK AO2 SLP127 T01940022 53014,M
ELY,2024-09-22 14:53,-114.8453,39.2950,1909.00,44.00,25.00,46.88,180.00,8.00,0.00,30.25,1018.50,10.00,M,CLR,M,M,M,M,M,M,M,M,M,M,M,M,M,M,38.90,KELY 221453Z AUTO 18008KT 10SM CLR 07/M04 A3025 RMK AO2 SLP185 T00671039 53010,M
VGT,2024-09-22 14:53,-115.1933,36.2111,667.00,75.00,43.00,31.79,310.00,4.00,0.00,29.98,1014.50,10.00,M,CLR,M,M,M,M,M,M,M,M,M,M,M,M,M,M,75.00,KVGT 221453Z 31004KT 10SM CLR 24/06 A2998 RMK AO2 SLP145 T02390061 53019,M
LOL,2024-09-22 14:53,-118.5701,40.0684,1192.43,46.00,M,M,260.00,3.00,0.00,30.16,1019.90,10.00,M,CLR,M,M,M,M,M,M,M,M,M,M,M,M,M,M,M,KLOL 221453Z AUTO 26003KT 10SM CLR 08/ A3016 RMK AO2 SLP199 T0078 53012 $,M
BVU,2024-09-22 14:55,-114.8611,35.9475,671.00,69.80,42.80,37.61,0.00,0.00,0.00,29.97,M,10.00,M,CLR,M,M,M,M,M,M,M,M,M,M,M,M,M,M,69.80,KBVU 221455Z AUTO 00000KT 10SM CLR 21/06 A2997 RMK AO2,M
RNO,2024-09-22 14:55,-119.7711,39.4839,1341.00,50.00,36.00,58.44,0.00,0.00,0.00,30.20,1019.10,10.00,M,CLR,M,M,M,M,M,M,M,M,M,M,M,M,M,M,50.00,KRNO 221455Z 00000KT 10SM CLR 10/02 A3020 RMK AO2 SLP191 T01000022 53010,M
CXP,2024-09-22 14:55,-119.7326,39.1923,1431.00,48.20,35.60,61.52,0.00,0.00,0.00,30.22,M,10.00,M,CLR,M,M,M,M,M,M,M,M,M,M,M,M,M,M,48.20,KCXP 221455Z AUTO 00000KT 10SM CLR 09/02 A3022 RMK AO2,M
RTS,2024-09-22 14:55,-119.8764,39.6682,1539.00,46.40,30.20,53.00,0.00,0.00,0.00,30.22,M,10.00,M,CLR,M,M,M,M,M,M,M,M,M,M,M,M,M,M,46.40,KRTS 221455Z AUTO 00000KT 10SM CLR 08/M01 A3022 RMK AO2,M
MEV,2024-09-22 14:55,-119.7500,38.9963,1441.42,44.60,37.40,75.68,0.00,0.00,0.00,30.21,M,10.00,M,CLR,M,M,M,M,M,M,M,M,M,M,M,M,M,M,44.60,KMEV 221455Z AUTO 00000KT 10SM CLR 07/03 A3021 RMK AO2,M
BAM,2024-09-22 14:55,-116.8743,40.5990,1382.36,41.00,21.20,44.85,0.00,0.00,0.00,30.21,M,10.00,M,CLR,M,M,M,M,M,M,M,M,M,M,M,M,M,M,41.00,KBAM 221455Z AUTO 00000KT 10SM CLR 05/M06 A3021 RMK AO1,M
HTH,2024-09-22 14:55,-118.6315,38.5448,1282.89,57.20,37.40,47.44,0.00,0.00,0.00,30.18,M,10.00,M,CLR,M,M,M,M,M,M,M,M,M,M,M,M,M,M,57.20,KHTH 221455Z AUTO 00000KT 10SM CLR 14/03 A3018 RMK A01,M
TMT,2024-09-22 14:55,-117.1971,39.4643,1749.34,39.60,35.80,86.13,0.00,0.00,0.00,30.25,M,10.00,M,CLR,M,M,M,M,M,M,M,M,M,M,M,M,M,M,39.60,KTMT 221455Z AUTO 00000KT 10SM CLR 04/02 A3025 RMK AO2 T00420021,M
10U,2024-09-22 14:55,-116.1876,41.9532,1637.00,37.40,28.40,69.67,0.00,0.00,0.00,30.24,M,10.00,M,CLR,M,M,M,M,M,M,M,M,M,M,M,M,M,M,37.40,K10U 221455Z AUTO 00000KT 10SM CLR 03/M02 A3024 RMK AO2,M
INS,2024-09-22 14:55,-115.6733,36.5872,955.00,65.00,31.00,27.87,0.00,0.00,0.00,30.03,1012.60,10.00,M,CLR,M,M,M,M,M,M,M,M,M,M,M,M,M,M,65.00,KINS 221455Z AUTO 00000KT 10SM CLR 18/M00 A3003 RMK AO2 SLP126 T01831005 52017,M
LSV,2024-09-22 14:55,-115.0343,36.2362,570.00,71.20,42.00,34.77,160.00,3.00,0.00,29.93,1011.20,10.00,M,CLR,M,M,M,M,M,M,M,M,M,M,M,M,M,M,71.20,KLSV 221455Z AUTO 16003KT 10SM CLR 22/06 A2993 RMK AO2 SLP112 T02180056 52018 $,M
EKO,2024-09-22 14:56,-115.7860,40.8242,1367.00,44.00,27.00,50.93,70.00,3.00,0.00,30.22,1020.90,10.00,M,CLR,M,M,M,M,M,M,M,M,M,M,M,M,M,M,42.41,KEKO 221456Z AUTO 07003KT 10SM CLR 07/M03 A3022 RMK AO2 SLP209 T00671028 51010,M
WMC,2024-09-22 14:56,-117.8072,40.9019,1315.00,43.00,33.00,67.54,0.00,0.00,T,30.19,1020.50,10.00,M,CLR,M,M,M,M,M,M,M,M,M,M,M,M,M,M,43.00,KWMC 221456Z AUTO 00000KT 10SM CLR 06/01 A3019 RMK AO2 RAB31E48 SLP205 P0000 60000 T00610006 53010,M
HND,2024-09-22 14:56,-115.1344,35.9729,742.79,71.00,44.00,37.80,170.00,4.00,0.00,30.01,1015.60,10.00,M,CLR,M,M,M,M,M,M,M,M,M,M,M,M,M,M,71.00,KHND 221456Z 17004KT 10SM CLR 22/07 A3001 RMK AO2 SLP156 T02170067 53018,M
TPH,2024-09-22 14:56,-117.0904,38.0505,1654.00,57.00,28.00,32.75,350.00,9.00,0.00,30.19,1016.60,10.00,M,CLR,M,M,M,M,M,M,M,M,M,M,M,M,M,M,57.00,KTPH 221456Z AUTO 35009KT 10SM CLR 14/M02 A3019 RMK AO2 SLP166 T01391022 53012 $,M
LAS,2024-09-22 14:56,-115.1634,36.0719,663.00,74.00,42.00,31.63,290.00,5.00,0.00,29.99,1013.20,10.00,M,FEW,M,M,M,25000.00,M,M,M,M,M,M,M,M,M,M,74.00,KLAS 221456Z 29005KT 10SM FEW250 23/06 A2999 RMK AO2 SLP132 T02330056 53019 $,M
NFL,2024-09-22 14:57,-118.7010,39.4166,1199.00,52.00,36.00,54.26,180.00,3.00,0.00,30.16,1017.90,10.00,M,CLR,M,M,M,M,M,M,M,M,M,M,M,M,M,M,52.00,KNFL 221457Z AUTO 18003KT 10SM CLR 11/02 A3016 RMK AO2 SLP179 T01110022 53011,M
05U,2024-09-22 15:10,-116.0051,39.6042,1811.23,50.00,23.00,34.39,0.00,0.00,0.00,30.26,M,10.00,M,CLR,M,M,M,M,M,M,M,M,M,M,M,M,M,M,50.00,K05U 221510Z AUTO 00000KT 10SM CLR 10/M05 A3026 RMK A01,M
BVU,2024-09-22 15:15,-114.8611,35.9475,671.00,71.60,42.80,35.37,0.00,0.00,0.00,29.97,M,10.00,M,CLR,M,M,M,M,M,M,M,M,M,M,M,M,M,M,71.60,KBVU 221515Z AUTO 00000KT 10SM CLR 22/06 A2997 RMK AO2,M
CXP,2024-09-22 15:15,-119.7326,39.1923,1431.00,51.80,35.60,53.81,0.00,0.00,0.00,30.22,M,10.00,M,CLR,M,M,M,M,M,M,M,M,M,M,M,M,M,M,51.80,KCXP 221515Z AUTO 00000KT 10SM CLR 11/02 A3022 RMK AO2,M
RTS,2024-09-22 15:15,-119.8764,39.6682,1539.00,48.20,28.40,46.02,0.00,0.00,0.00,30.22,M,10.00,M,CLR,M,M,M,M,M,M,M,M,M,M,M,M,M,M,48.20,KRTS 221515Z AUTO 00000KT 10SM CLR 09/M02 A3022 RMK AO2,M
MEV,2024-09-22 15:15,-119.7500,38.9963,1441.42,48.20,37.40,66.05,260.00,4.00,0.00,30.21,M,9.00,M,CLR,M,M,M,M,M,M,M,M,M,M,M,M,M,M,46.34,KMEV 221515Z AUTO 26004KT 9SM CLR 09/03 A3021 RMK AO2,M
BAM,2024-09-22 15:15,-116.8743,40.5990,1382.36,46.40,23.00,39.36,0.00,0.00,0.00,30.21,M,10.00,M,CLR,M,M,M,M,M,M,M,M,M,M,M,M,M,M,46.40,KBAM 221515Z AUTO 00000KT 10SM CLR 08/M05 A3021 RMK AO1,M
HTH,2024-09-22 15:15,-118.6315,38.5448,1282.89,59.00,39.20,47.72,0.00,0.00,0.00,30.19,M,10.00,M,CLR,M,M,M,M,M,M,M,M,M,M,M,M,M,M,59.00,KHTH 221515Z AUTO 00000KT 10SM CLR 15/04 A3019 RMK A01,M
TMT,2024-09-22 15:15,-117.1971,39.4643,1749.34,42.40,37.00,81.04,0.00,0.00,0.00,30.25,M,10.00,M,CLR,M,M,M,M,M,M,M,M,M,M,M,M,M,M,42.40,KTMT 221515Z AUTO 00000KT 10SM CLR 06/03 A3025 RMK AO2 T00580027,M
10U,2024-09-22 15:15,-116.1876,41.9532,1637.00,41.00,30.20,65.16,0.00,0.00,0.00,30.25,M,10.00,M,CLR,M,M,M,M,M,M,M,M,M,M,M,M,M,M,41.00,K10U 221515Z AUTO 00000KT 10SM CLR 05/M01 A3025 RMK AO2,M
05U,2024-09-22 15:30,-116.0051,39.6042,1811.23,51.80,23.00,32.17,0.00,0.00,0.00,30.26,M,10.00,M,CLR,M,M,M,M,M,M,M,M,M,M,M,M,M,M,51.80,K05U 221530Z AUTO 00000KT 10SM CLR 11/M05 A3026 RMK A01,M
BVU,2024-09-22 15:35,-114.8611,35.9475,671.00,75.20,42.80,31.34,200.00,4.00,0.00,29.97,M,10.00,M,CLR,M,M,M,M,M,M,M,M,M,M,M,M,M,M,75.20,KBVU 221535Z AUTO 20004KT 10SM CLR 24/06 A2997 RMK AO2,M
CXP,2024-09-22 15:35,-119.7326,39.1923,1431.00,53.60,35.60,50.36,0.00,0.00,0.00,30.22,M,10.00,M,CLR,M,M,M,M,M,M,M,M,M,M,M,M,M,M,53.60,KCXP 221535Z AUTO 00000KT 10SM CLR 12/02 A3022 RMK AO2,M
RTS,2024-09-22 15:35,-119.8764,39.6682,1539.00,51.80,28.40,40.25,0.00,0.00,0.00,30.22,M,10.00,M,CLR,M,M,M,M,M,M,M,M,M,M,M,M,M,M,51.80,KRTS 221535Z AUTO 00000KT 10SM CLR 11/M02 A3022 RMK AO2,M
MEV,2024-09-22 15:35,-119.7500,38.9963,1441.42,48.20,37.40,66.05,0.00,0.00,0.00,30.21,M,10.00,M,CLR,M,M,M,M,M,M,M,M,M,M,M,M,M,M,48.20,KMEV 221535Z AUTO 00000KT 10SM CLR 09/03 A3021 RMK AO2,M
BAM,2024-09-22 15:35,-116.8743,40.5990,1382.36,48.20,23.00,36.78,0.00,0.00,0.00,30.21,M,10.00,M,CLR,M,M,M,M,M,M,M,M,M,M,M,M,M,M,48.20,KBAM 221535Z AUTO 00000KT 10SM CLR 09/M05 A3021 RMK AO1,M
HTH,2024-09-22 15:35,-118.6315,38.5448,1282.89,60.80,37.40,41.71,0.00,0.00,0.00,30.19,M,10.00,M,CLR,M,M,M,M,M,M,M,M,M,M,M,M,M,M,60.80,KHTH 221535Z AUTO 00000KT 10SM CLR 16/03 A3019 RMK A01,M
TMT,2024-09-22 15:35,-117.1971,39.4643,1749.34,46.00,37.60,72.32,0.00,0.00,0.00,30.25,M,10.00,M,CLR,M,M,M,M,M,M,M,M,M,M,M,M,M,M,46.00,KTMT 221535Z AUTO 00000KT 10SM CLR 08/03 A3025 RMK AO2 T00770031,M
10U,2024-09-22 15:35,-116.1876,41.9532,1637.00,42.80,30.20,60.79,0.00,0.00,0.00,30.24,M,10.00,M,CLR,M,M,M,M,M,M,M,M,M,M,M,M,M,M,42.80,K10U 221535Z AUTO 00000KT 10SM CLR 06/M01 A3024 RMK AO2,M
05U,2024-09-22 15:50,-116.0051,39.6042,1811.23,55.40,23.00,28.20,0.00,0.00,0.00,30.26,M,10.00,M,CLR,M,M,M,M,M,M,M,M,M,M,M,M,M,M,55.40,K05U 221550Z AUTO 00000KT 10SM CLR 13/M05 A3026 RMK A01,M
P68,2024-09-22 15:53,-116.0056,39.6014,1993.00,55.00,25.00,31.11,0.00,0.00,0.00,30.23,1018.90,M,M,M,M,M,M,M,M,M,M,M,M,M,M,M,M,M,55.00,KP68 221553Z AUTO 00000KT 13/M04 A3023 RMK AO1 SLP189 T01281039,M
DRA,2024-09-22 15:53,-116.0278,36.6206,1009.00,78.00,33.00,19.43,30.00,11.00,0.00,30.04,1012.50,10.00,M,CLR,M,M,M,M,M,M,M,M,M,M,M,M,M,M,78.00,KDRA 221553Z AUTO 03011KT 10SM CLR 26/01 A3004 RMK AO2 SLP125 T02560006,M
ELY,2024-09-22 15:53,-114.8453,39.2950,1909.00,54.00,27.00,35.05,0.00,0.00,0.00,30.25,1017.00,10.00,M,CLR,M,M,M,M,M,M,M,M,M,M,M,M,M,M,54.00,KELY 221553Z AUTO 00000KT 10SM CLR 12/M03 A3025 RMK AO2 SLP170 T01221028,M
VGT,2024-09-22 15:53,-115.1933,36.2111,667.00,80.00,42.00,25.93,350.00,5.00,0.00,29.99,1014.60,10.00,M,CLR,M,M,M,M,M,M,M,M,M,M,M,M,M,M,78.92,KVGT 221553Z 35005KT 10SM CLR 27/06 A2999 RMK AO2 SLP146 T02670056,M
LOL,2024-09-22 15:53,-118.5701,40.0684,1192.43,56.00,M,M,0.00,0.00,0.00,30.17,1020.00,10.00,M,CLR,M,M,M,M,M,M,M,M,M,M,M,M,M,M,M,KLOL 221553Z AUTO 00000KT 10SM CLR 13/ A3017 RMK AO2 SLP200 T0133 $,M
BVU,2024-09-22 15:55,-114.8611,35.9475,671.00,75.20,41.00,29.23,160.00,3.00,0.00,29.98,M,10.00,M,CLR,M,M,M,M,M,M,M,M,M,M,M,M,M,M,75.20,KBVU 221555Z AUTO 16003KT 10SM CLR 24/05 A2998 RMK AO2,M
RNO,2024-09-22 15:55,-119.7711,39.4839,1341.00,55.00,34.00,44.90,0.00,0.00,0.00,30.21,1019.20,10.00,M,CLR,M,M,M,M,M,M,M,M,M,M,M,M,M,M,55.00,KRNO 221555Z 00000KT 10SM CLR 13/01 A3021 RMK AO2 SLP192 T01280011,M
CXP,2024-09-22 15:55,-119.7326,39.1923,1431.00,55.40,33.80,43.90,0.00,0.00,0.00,30.22,M,10.00,M,CLR,M,M,M,M,M,M,M,M,M,M,M,M,M,M,55.40,KCXP 221555Z AUTO 00000KT 10SM CLR 13/01 A3022 RMK AO2,M
RTS,2024-09-22 15:55,-119.8764,39.6682,1539.00,53.60,28.40,37.67,0.00,0.00,0.00,30.23,M,10.00,M,CLR,M,M,M,M,M,M,M,M,M,M,M,M,M,M,53.60,KRTS 221555Z AUTO 00000KT 10SM CLR 12/M02 A3023 RMK AO2,M
MEV,2024-09-22 15:55,-119.7500,38.9963,1441.42,53.60,37.40,54.07,0.00,0.00,0.00,30.21,M,10.00,M,CLR,M,M,M,M,M,M,M,M,M,M,M,M,M,M,53.60,KMEV 221555Z AUTO 00000KT 10SM CLR 12/03 A3021 RMK AO2,M
BAM,2024-09-22 15:55,-116.8743,40.5990,1382.36,51.80,23.00,32.17,0.00,0.00,0.00,30.21,M,10.00,M,CLR,M,M,M,M,M,M,M,M,M,M,M,M,M,M,51.80,KBAM 221555Z AUTO 00000KT 10SM CLR 11/M05 A3021 RMK AO1,M
HTH,2024-09-22 15:55,-118.6315,38.5448,1282.89,62.60,37.40,39.14,0.00,0.00,0.00,30.19,M,10.00,M,CLR,M,M,M,M,M,M,M,M,M,M,M,M,M,M,62.60,KHTH 221555Z AUTO 00000KT 10SM CLR 17/03 A3019 RMK A01,M
TMT,2024-09-22 15:55,-117.1971,39.4643,1749.34,48.70,38.30,67.16,0.00,0.00,0.00,30.25,M,10.00,M,CLR,M,M,M,M,M,M,M,M,M,M,M,M,M,M,48.70,KTMT 221555Z AUTO 00000KT 10SM CLR 09/04 A3025 RMK AO2 T00930035,M
10U,2024-09-22 15:55,-116.1876,41.9532,1637.00,46.40,30.20,53.00,0.00,0.00,0.00,30.24,M,10.00,M,CLR,M,M,M,M,M,M,M,M,M,M,M,M,M,M,46.40,K10U 221555Z AUTO 00000KT 10SM CLR 08/M01 A3024 RMK AO2,M
INS,2024-09-22 15:55,-115.6733,36.5872,955.00,69.80,32.40,24.99,0.00,0.00,0.00,30.04,1013.00,10.00,M,CLR,M,M,M,M,M,M,M,M,M,M,M,M,M,M,69.80,KINS 221555Z AUTO 00000KT 10SM CLR 21/00 A3004 RMK AO2 SLP130 T02100002,M
LSV,2024-09-22 15:55,-115.0343,36.2362,570.00,76.00,42.30,29.93,0.00,0.00,0.00,29.95,1011.80,10.00,M,CLR,M,M,M,M,M,M,M,M,M,M,M,M,M,M,76.00,KLSV 221555Z AUTO 00000KT 10SM CLR 24/06 A2995 RMK AO2 SLP118 T02440057 $,M
EKO,2024-09-22 15:56,-115.7860,40.8242,1367.00,51.00,27.00,39.14,80.00,4.00,0.00,30.22,1020.50,10.00,M,CLR,M,M,M,M,M,M,M,M,M,M,M,M,M,M,51.00,KEKO 221556Z AUTO 08004KT 10SM CLR 11/M03 A3022 RMK AO2 SLP205 T01061028,M
WMC,2024-09-22 15:56,-117.8072,40.9019,1315.00,54.00,30.00,39.63,0.00,0.00,0.00,30.19,1020.20,10.00,M,CLR,M,M,M,M,M,M,M,M,M,M,M,M,M,M,54.00,KWMC 221556Z AUTO 00000KT 10SM CLR 12/M01 A3019 RMK AO2 SLP202 T01221011,M
HND,2024-09-22 15:56,-115.1344,35.9729,742.79,77.00,43.00,29.74,0.00,0.00,0.00,30.02,1015.80,10.00,M,CLR,M,M,M,M,M,M,M,M,M,M,M,M,M,M,77.00,KHND 221556Z 00000KT 10SM CLR 25/06 A3002 RMK AO2 SLP158 T02500061,M
TPH,2024-09-22 15:56,-117.0904,38.0505,1654.00,65.00,28.00,24.66,10.00,6.00,0.00,30.20,1016.10,10.00,M,CLR,M,M,M,M,M,M,M,M,M,M,M,M,M,M,65.00,KTPH 221556Z AUTO 01006KT 10SM CLR 18/M02 A3020 RMK AO2 SLP161 T01831022 $,M
LAS,2024-09-22 15:56,-115.1634,36.0719,663.00,78.00,44.00,29.90,0.00,0.00,0.00,30.00,1013.30,10.00,M,FEW,M,M,M,12000.00,M,M,M,M,M,M,M,M,M,M,78.00,KLAS 221556Z 00000KT 10SM FEW120 26/07 A3000 RMK AO2 SLP133 T02560067 $,M
05U,2024-09-22 16:10,-116.0051,39.6042,1811.23,57.20,23.00,26.42,0.00,0.00,0.00,30.26,M,10.00,M,CLR,M,M,M,M,M,M,M,M,M,M,M,M,M,M,57.20,K05U 221610Z AUTO 00000KT 10SM CLR 14/M05 A3026 RMK A01,M
BVU,2024-09-22 16:15,-114.8611,35.9475,671.00,77.00,41.00,27.53,0.00,0.00,0.00,29.98,M,10.00,M,CLR,M,M,M,M,M,M,M,M,M,M,M,M,M,M,77.00,KBVU 221615Z AUTO 00000KT 10SM CLR 25/05 A2998 RMK AO2,M
CXP,2024-09-22 16:15,-119.7326,39.1923,1431.00,57.20,33.80,41.13,220.00,3.00,0.00,30.22,M,10.00,M,CLR,M,M,M,M,M,M,M,M,M,M,M,M,M,M,57.20,KCXP 221615Z AUTO 22003KT 10SM CLR 14/01 A3022 RMK AO2,M
RTS,2024-09-22 16:15,-119.8764,39.6682,1539.00,57.20,28.40,33.05,0.00,0.00,0.00,30.22,M,10.00,M,CLR,M,M,M,M,M,M,M,M,M,M,M,M,M,M,57.20,KRTS 221615Z AUTO 00000KT 10SM CLR 14/M02 A3022 RMK AO2,M
MEV,2024-09-22 16:15,-119.7500,38.9963,1441.42,55.40,35.60,47.16,0.00,0.00,0.00,30.21,M,10.00,M,CLR,M,M,M,M,M,M,M,M,M,M,M,M,M,M,55.40,KMEV 221615Z AUTO 00000KT 10SM CLR 13/02 A3021 RMK AO2,M
BAM,2024-09-22 16:15,-116.8743,40.5990,1382.36,53.60,24.80,32.46,0.00,0.00,0.00,30.22,M,10.00,M,CLR,M,M,M,M,M,M,M,M,M,M,M,M,M,M,53.60,KBAM 221615Z AUTO 00000KT 10SM CLR 12/M04 A3022 RMK AO1,M
HTH,2024-09-22 16:15,-118.6315,38.5448,1282.89,62.60,37.40,39.14,0.00,0.00,0.00,30.19,M,10.00,M,CLR,M,M,M,M,M,M,M,M,M,M,M,M,M,M,62.60,KHTH 221615Z AUTO 00000KT 10SM CLR 17/03 A3019 RMK A01,M
TMT,2024-09-22 16:15,-117.1971,39.4643,1749.34,50.00,39.60,67.31,0.00,0.00,0.00,30.25,M,10.00,M,CLR,M,M,M,M,M,M,M,M,M,M,M,M,M,M,50.00,KTMT 221615Z AUTO 00000KT 10SM CLR 10/04 A3025 RMK AO2 T01010042,M
10U,2024-09-22 16:15,-116.1876,41.9532,1637.00,50.00,30.20,46.31,M,3.00,0.00,30.24,M,10.00,M,CLR,M,M,M,M,M,M,M,M,M,M,M,M,M,M,50.00,K10U 221615Z AUTO VRB03KT 10SM CLR 10/M01 A3024 RMK AO2,M
HTH,2024-09-22 16:25,-118.6315,38.5448,1282.89,62.60,35.60,36.45,0.00,0.00,0.00,30.19,M,10.00,M,CLR,M,M,M,M,M,M,M,M,M,M,M,M,M,M,62.60,KHTH 221625Z AUTO 00000KT 10SM CLR 17/02 A3019 RMK A01,M
05U,2024-09-22 16:30,-116.0051,39.6042,1811.23,59.00,23.00,24.76,0.00,0.00,0.00,30.26,M,10.00,M,CLR,M,M,M,M,M,M,M,M,M,M,M,M,M,M,59.00,K05U 221630Z AUTO 00000KT 10SM CLR 15/M05 A3026 RMK A01,M
BVU,2024-09-22 16:35,-114.8611,35.9475,671.00,78.80,42.80,27.81,0.00,0.00,0.00,29.98,M,10.00,M,CLR,M,M,M,M,M,M,M,M,M,M,M,M,M,M,78.80,KBVU 221635Z AUTO 00000KT 10SM CLR 26/06 A2998 RMK AO2,M
CXP,2024-09-22 16:35,-119.7326,39.1923,1431.00,59.00,35.60,41.42,0.00,0.00,0.00,30.22,M,10.00,M,CLR,M,M,M,M,M,M,M,M,M,M,M,M,M,M,59.00,KCXP 221635Z AUTO 00000KT 10SM CLR 15/02 A3022 RMK AO2,M
RTS,2024-09-22 16:35,-119.8764,39.6682,1539.00,60.80,32.00,33.64,0.00,0.00,0.00,30.22,M,10.00,M,CLR,M,M,M,M,M,M,M,M,M,M,M,M,M,M,60.80,KRTS 221635Z AUTO 00000KT 10SM CLR 16/M00 A3022 RMK AO2,M
MEV,2024-09-22 16:35,-119.7500,38.9963,1441.42,57.20,37.40,47.44,0.00,0.00,0.00,30.21,M,10.00,M,CLR,M,M,M,M,M,M,M,M,M,M,M,M,M,M,57.20,KMEV 221635Z AUTO 00000KT 10SM CLR 14/03 A3021 RMK AO2,M
BAM,2024-09-22 16:35,-116.8743,40.5990,1382.36,57.20,26.60,30.69,0.00,0.00,0.00,30.22,M,10.00,M,CLR,M,M,M,M,M,M,M,M,M,M,M,M,M,M,57.20,KBAM 221635Z AUTO 00000KT 10SM CLR 14/M03 A3022 RMK AO1,M
TMT,2024-09-22 16:35,-117.1971,39.4643,1749.34,52.70,41.00,64.32,0.00,0.00,0.00,30.25,M,10.00,M,CLR,M,M,M,M,M,M,M,M,M,M,M,M,M,M,52.70,KTMT 221635Z AUTO 00000KT 10SM CLR 12/05 A3025 RMK AO2 T01150050,M
10U,2024-09-22 16:35,-116.1876,41.9532,1637.00,53.60,30.20,40.54,50.00,5.00,0.00,30.24,M,10.00,M,CLR,M,M,M,M,M,M,M,M,M,M,M,M,M,M,53.60,K10U 221635Z AUTO 05005KT 10SM CLR 12/M01 A3024 RMK AO2,M
05U,2024-09-22 16:50,-116.0051,39.6042,1811.23,60.80,23.00,23.23,0.00,0.00,0.00,30.26,M,10.00,M,CLR,M,M,M,M,M,M,M,M,M,M,M,M,M,M,60.80,K05U 221650Z AUTO 00000KT 10SM CLR 16/M05 A3026 RMK A01,M
P68,2024-09-22 16:53,-116.0056,39.6014,1993.00,60.00,24.00,24.92,220.00,3.00,0.00,30.23,1019.10,M,M,M,M,M,M,M,M,M,M,M,M,M,M,M,M,M,60.00,KP68 221653Z AUTO 22003KT 16/M04 A3023 RMK AO1 SLP191 T01561044,M
DRA,2024-09-22 16:53,-116.0278,36.6206,1009.00,82.00,34.00,17.74,20.00,8.00,0.00,30.04,1012.50,10.00,M,CLR,M,M,M,M,M,M,M,M,M,M,M,M,M,M,79.77,KDRA 221653Z AUTO 02008KT 10SM CLR 28/01 A3004 RMK AO2 SLP125 T02780011,M
ELY,2024-09-22 16:53,-114.8453,39.2950,1909.00,61.00,27.00,27.24,10.00,3.00,0.00,30.24,1016.70,10.00,M,CLR,M,M,M,M,M,M,M,M,M,M,M,M,M,M,61.00,KELY 221653Z AUTO 01003KT 10SM CLR 16/M03 A3024 RMK AO2 SLP167 T01611028,M
VGT,2024-09-22 16:53,-115.1933,36.2111,667.00,82.00,45.00,27.24,100.00,3.00,0.00,29.99,1014.80,10.00,M,CLR,M,M,M,M,M,M,M,M,M,M,M,M,M,M,80.28,KVGT 221653Z 10003KT 10SM CLR 28/07 A2999 RMK AO2 SLP148 T02780072,M
LOL,2024-09-22 16:53,-118.5701,40.0684,1192.43,64.00,M,M,120.00,4.00,0.00,30.18,1019.60,10.00,M,CLR,M,M,M,M,M,M,M,M,M,M,M,M,M,M,M,KLOL 221653Z AUTO 12004KT 10SM CLR 18/ A3018 RMK AO2 SLP196 T0178 $,M
BVU,2024-09-22 16:55,-114.8611,35.9475,671.00,80.60,42.80,26.22,0.00,0.00,0.00,29.98,M,10.00,M,CLR,M,M,M,M,M,M,M,M,M,M,M,M,M,M,79.30,KBVU 221655Z AUTO 00000KT 10SM CLR 27/06 A2998 RMK AO2,M
RNO,2024-09-22 16:55,-119.7711,39.4839,1341.00,61.00,35.00,37.66,0.00,0.00,0.00,30.20,1018.80,10.00,M,CLR,M,M,M,M,M,M,M,M,M,M,M,M,M,M,61.00,KRNO 221655Z 00000KT 10SM CLR 16/02 A3020 RMK AO2 SLP188 T01610017,M
CXP,2024-09-22 16:55,-119.7326,39.1923,1431.00,60.80,35.60,38.85,0.00,0.00,0.00,30.22,M,10.00,M,CLR,M,M,M,M,M,M,M,M,M,M,M,M,M,M,60.80,KCXP 221655Z AUTO 00000KT 10SM CLR 16/02 A3022 RMK AO2,M
RTS,2024-09-22 16:55,-119.8764,39.6682,1539.00,62.60,30.20,29.35,100.00,3.00,0.00,30.22,M,10.00,M,CLR,M,M,M,M,M,M,M,M,M,M,M,M,M,M,62.60,KRTS 221655Z AUTO 10003KT 10SM CLR 17/M01 A3022 RMK AO2,M
MEV,2024-09-22 16:55,-119.7500,38.9963,1441.42,60.80,37.40,41.71,0.00,0.00,0.00,30.21,M,10.00,M,CLR,M,M,M,M,M,M,M,M,M,M,M,M,M,M,60.80,KMEV 221655Z AUTO 00000KT 10SM CLR 16/03 A3021 RMK AO2,M
BAM,2024-09-22 16:55,-116.8743,40.5990,1382.36,59.00,28.40,30.98,0.00,0.00,0.00,30.22,M,10.00,M,CLR,M,M,M,M,M,M,M,M,M,M,M,M,M,M,59.00,KBAM 221655Z AUTO 00000KT 10SM CLR 15/M02 A3022 RMK AO1,M
HTH,2024-09-22 16:55,-118.6315,38.5448,1282.89,M,M,M,M,M,0.00,M,M,10.00,M,CLR,M,M,M,M,M,M,M,M,M,M,M,M,M,M,M,KHTH 221655Z AUTO 10SM CLR RMK A01,M
TMT,2024-09-22 16:55,-117.1971,39.4643,1749.34,55.60,39.00,53.52,0.00,0.00,0.00,30.25,M,10.00,M,CLR,M,M,M,M,M,M,M,M,M,M,M,M,M,M,55.60,KTMT 221655Z AUTO 00000KT 10SM CLR 13/04 A3025 RMK AO2 T01310039,M
10U,2024-09-22 16:55,-116.1876,41.9532,1637.00,55.40,26.60,32.76,0.00,0.00,0.00,30.23,M,10.00,M,CLR,M,M,M,M,M,M,M,M,M,M,M,M,M,M,55.40,K10U 221655Z AUTO 00000KT 10SM CLR 13/M03 A3023 RMK AO2,M
INS,2024-09-22 16:55,-115.6733,36.5872,955.00,76.30,32.00,19.75,0.00,0.00,0.00,30.04,1012.80,10.00,M,CLR,M,M,M,M,M,M,M,M,M,M,M,M,M,M,76.30,KINS 221655Z AUTO 00000KT 10SM CLR 25/00 A3004 RMK AO2 SLP128 T02460001,M
LSV,2024-09-22 16:55,-115.0343,36.2362,570.00,82.00,42.60,24.86,0.00,0.00,0.00,29.94,1011.10,10.00,M,CLR,M,M,M,M,M,M,M,M,M,M,M,M,M,M,80.12,KLSV 221655Z AUTO 00000KT 10SM CLR 28/06 A2994 RMK AO2 SLP111 T02770059 $,M
EKO,2024-09-22 16:56,-115.7860,40.8242,1367.00,57.00,26.00,30.16,0.00,0.00,0.00,30.22,1020.20,10.00,M,CLR,M,M,M,M,M,M,M,M,M,M,M,M,M,M,57.00,KEKO 221656Z AUTO 00000KT 10SM CLR 14/M03 A3022 RMK AO2 SLP202 T01391033,M
WMC,2024-09-22 16:56,-117.8072,40.9019,1315.00,62.00,31.00,30.96,50.00,4.00,0.00,30.19,1019.70,10.00,M,CLR,M,M,M,M,M,M,M,M,M,M,M,M,M,M,62.00,KWMC 221656Z AUTO 05004KT 10SM CLR 17/M01 A3019 RMK AO2 SLP197 T01671006,M
HND,2024-09-22 16:56,-115.1344,35.9729,742.79,80.00,44.00,27.99,280.00,3.00,0.00,30.03,1015.90,10.00,M,CLR,M,M,M,M,M,M,M,M,M,M,M,M,M,M,79.06,KHND 221656Z 28003KT 10SM CLR 27/07 A3003 RMK AO2 SLP159 T02670067,M
TPH,2024-09-22 16:56,-117.0904,38.0505,1654.00,69.00,28.00,21.48,0.00,0.00,0.00,30.20,1016.30,10.00,M,CLR,M,M,M,M,M,M,M,M,M,M,M,M,M,M,69.00,KTPH 221656Z AUTO 00000KT 10SM CLR 21/M02 A3020 RMK AO2 SLP163 T02061022 $,M
LAS,2024-09-22 16:56,-115.1634,36.0719,663.00,81.00,44.00,27.09,0.00,0.00,0.00,30.00,1013.50,10.00,M,FEW,M,M,M,12000.00,M,M,M,M,M,M,M,M,M,M,79.61,KLAS 221656Z 00000KT 10SM FEW120 27/07 A3000 RMK AO2 SLP135 T02720067 $,M
NFL,2024-09-22 16:57,-118.7010,39.4166,1199.00,65.00,31.00,27.87,0.00,0.00,0.00,30.18,1018.30,10.00,M,CLR,M,M,M,M,M,M,M,M,M,M,M,M,M,M,65.00,KNFL 221657Z AUTO 00000KT 10SM CLR 18/M01 A3018 RMK AO2 SLP183 T01831006,M
05U,2024-09-22 17:10,-116.0051,39.6042,1811.23,60.80,23.00,23.23,0.00,0.00,0.00,30.26,M,10.00,M,CLR,M,M,M,M,M,M,M,M,M,M,M,M,M,M,60.80,K05U 221710Z AUTO 00000KT 10SM CLR 16/M05 A3026 RMK A01,M
BVU,2024-09-22 17:15,-114.8611,35.9475,671.00,82.40,42.80,24.72,150.00,4.00,0.00,29.98,M,10.00,M,CLR,M,M,M,M,M,M,M,M,M,M,M,M,M,M,80.39,KBVU 221715Z AUTO 15004KT 10SM CLR 28/06 A2998 RMK AO2,M
CXP,2024-09-22 17:15,-119.7326,39.1923,1431.00,62.60,33.80,33.93,0.00,0.00,0.00,30.22,M,10.00,M,CLR,M,M,M,M,M,M,M,M,M,M,M,M,M,M,62.60,KCXP 221715Z AUTO 00000KT 10SM CLR 17/01 A3022 RMK AO2,M
RTS,2024-09-22 17:15,-119.8764,39.6682,1539.00,64.40,26.60,23.77,0.00,0.00,0.00,30.22,M,10.00,M,CLR,M,M,M,M,M,M,M,M,M,M,M,M,M,M,64.40,KRTS 221715Z AUTO 00000KT 10SM CLR 18/M03 A3022 RMK AO2,M
MEV,2024-09-22 17:15,-119.7500,38.9963,1441.42,62.60,35.60,36.45,0.00,0.00,0.00,30.21,M,10.00,M,CLR,M,M,M,M,M,M,M,M,M,M,M,M,M,M,62.60,KMEV 221715Z AUTO 00000KT 10SM CLR 17/02 A3021 RMK AO2,M
BAM,2024-09-22 17:15,-116.8743,40.5990,1382.36,62.60,26.60,25.32,0.00,0.00,0.00,30.22,M,10.00,M,CLR,M,M,M,M,M,M,M,M,M,M,M,M,M,M,62.60,KBAM 221715Z AUTO 00000KT 10SM CLR 17/M03 A3022 RMK AO1,M
HTH,2024-09-22 17:15,-118.6315,38.5448,1282.89,66.20,33.80,29.92,330.00,5.00,0.00,30.20,M,10.00,M,M,M,M,M,M,M,M,M,M,M,M,M,M,M,M,66.20,KHTH 221715Z AUTO 33005KT 10SM 19/01 A3020 RMK A01,M
TMT,2024-09-22 17:15,-117.1971,39.4643,1749.34,59.00,36.00,42.08,0.00,0.00,0.00,30.25,M,10.00,M,CLR,M,M,M,M,M,M,M,M,M,M,M,M,M,M,59.00,KTMT 221715Z AUTO 00000KT 10SM CLR 15/02 A3025 RMK AO2 T01500023,M
10U,2024-09-22 17:15,-116.1876,41.9532,1637.00,59.00,26.60,28.77,0.00,0.00,0.00,30.23,M,10.00,M,CLR,M,M,M,M,M,M,M,M,M,M,M,M,M,M,59.00,K10U 221715Z AUTO 00000KT 10SM CLR 15/M03 A3023 RMK AO2,M
05U,2024-09-22 17:30,-116.0051,39.6042,1811.23,62.60,23.00,21.79,0.00,0.00,0.00,30.26,M,10.00,M,CLR,M,M,M,M,M,M,M,M,M,M,M,M,M,M,62.60,K05U 221730Z AUTO 00000KT 10SM CLR 17/M05 A3026 RMK A01,M
BVU,2024-09-22 17:35,-114.8611,35.9475,671.00,82.40,42.80,24.72,0.00,0.00,0.00,29.98,M,10.00,M,CLR,M,M,M,M,M,M,M,M,M,M,M,M,M,M,80.39,KBVU 221735Z AUTO 00000KT 10SM CLR 28/06 A2998 RMK AO2,M
CXP,2024-09-22 17:35,-119.7326,39.1923,1431.00,64.40,33.80,31.85,0.00,0.00,0.00,30.22,M,10.00,M,CLR,M,M,M,M,M,M,M,M,M,M,M,M,M,M,64.40,KCXP 221735Z AUTO 00000KT 10SM CLR 18/01 A3022 RMK AO2,M
RTS,2024-09-22 17:35,-119.8764,39.6682,1539.00,66.20,28.40,24.04,100.00,6.00,0.00,30.22,M,10.00,M,CLR,M,M,M,M,M,M,M,M,M,M,M,M,M,M,66.20,KRTS 221735Z AUTO 10006KT 10SM CLR 19/M02 A3022 RMK AO2,M
MEV,2024-09-22 17:35,-119.7500,38.9963,1441.42,64.40,35.60,34.22,0.00,0.00,0.00,30.20,M,10.00,M,CLR,M,M,M,M,M,M,M,M,M,M,M,M,M,M,64.40,KMEV 221735Z AUTO 00000KT 10SM CLR 18/02 A3020 RMK AO2,M
BAM,2024-09-22 17:35,-116.8743,40.5990,1382.36,64.40,26.60,23.77,0.00,0.00,0.00,30.22,M,10.00,M,CLR,M,M,M,M,M,M,M,M,M,M,M,M,M,M,64.40,KBAM 221735Z AUTO 00000KT 10SM CLR 18/M03 A3022 RMK AO1,M
HTH,2024-09-22 17:35,-118.6315,38.5448,1282.89,66.20,32.00,27.83,360.00,7.00,0.00,30.20,M,10.00,M,CLR,M,M,M,M,M,M,M,M,M,M,M,M,M,M,66.20,KHTH 221735Z AUTO 36007KT 10SM CLR 19/00 A3020 RMK A01,M
TMT,2024-09-22 17:35,-117.1971,39.4643,1749.34,61.00,33.00,34.77,0.00,0.00,0.00,30.25,M,10.00,M,CLR,M,M,M,M,M,M,M,M,M,M,M,M,M,M,61.00,KTMT 221735Z AUTO 00000KT 10SM CLR 16/01 A3025 RMK AO2 T01610005,M
10U,2024-09-22 17:35,-116.1876,41.9532,1637.00,59.00,26.60,28.77,M,4.00,0.00,30.23,M,10.00,M,CLR,M,M,M,M,M,M,M,M,M,M,M,M,M,M,59.00,K10U 221735Z AUTO VRB04KT 10SM CLR 15/M03 A3023 RMK AO2,M
RTS,2024-09-22 17:45,-119.8764,39.6682,1539.00,66.20,28.40,24.04,100.00,5.00,0.00,30.22,M,10.00,M,CLR,M,M,M,M,M,M,M,M,M,M,M,M,M,M,66.20,KRTS 221745Z AUTO 10005KT 10SM CLR 19/M02 A3022 RMK AO2,M
MEV,2024-09-22 17:45,-119.7500,38.9963,1441.42,64.40,35.60,34.22,0.00,0.00,0.00,30.20,M,10.00,M,CLR,M,M,M,M,M,M,M,M,M,M,M,M,M,M,64.40,KMEV 221745Z AUTO 00000KT 10SM CLR 18/02 A3020 RMK AO2,M
05U,2024-09-22 17:50,-116.0051,39.6042,1811.23,64.40,23.00,20.46,0.00,0.00,0.00,30.25,M,10.00,M,CLR,M,M,M,M,M,M,M,M,M,M,M,M,M,M,64.40,K05U 221750Z AUTO 00000KT 10SM CLR 18/M05 A3025 RMK A01,M
P68,2024-09-22 17:53,-116.0056,39.6014,1993.00,66.00,25.00,21.04,M,3.00,0.00,30.22,1018.30,M,M,M,M,M,M,M,M,M,M,M,M,M,M,M,M,M,66.00,KP68 221753Z AUTO VRB03KT 19/M04 A3022 RMK AO1 SLP183 T01891039 10194 20006 58001,M
DRA,2024-09-22 17:53,-116.0278,36.6206,1009.00,86.00,34.00,15.60,M,3.00,0.00,30.03,1012.30,10.00,M,CLR,M,M,M,M,M,M,M,M,M,M,M,M,M,M,82.66,KDRA 221753Z AUTO VRB03KT 10SM CLR 30/01 A3003 RMK AO2 SLP123 T03000011 10300 20156 50001,M
ELY,2024-09-22 17:53,-114.8453,39.2950,1909.00,65.00,28.00,24.66,360.00,4.00,0.00,30.23,1017.00,10.00,M,CLR,M,M,M,M,M,M,M,M,M,M,M,M,M,M,65.00,KELY 221753Z AUTO 36004KT 10SM CLR 18/M02 A3023 RMK AO2 SLP170 T01831022 10189 20000 58005,M
VGT,2024-09-22 17:53,-115.1933,36.2111,667.00,84.00,44.00,24.58,120.00,4.00,0.00,29.99,1014.70,10.00,M,CLR,M,M,M,M,M,M,M,M,M,M,M,M,M,M,81.54,KVGT 221753Z 12004KT 10SM CLR 29/07 A2999 RMK AO2 SLP147 T02890067 10294 20206 50003,M
LOL,2024-09-22 17:53,-118.5701,40.0684,1192.43,69.00,M,M,70.00,6.00,0.00,30.17,1019.60,10.00,M,CLR,M,M,M,M,M,M,M,M,M,M,M,M,M,M,M,KLOL 221753Z AUTO 07006KT 10SM CLR 21/ A3017 RMK AO2 SLP196 T0206 10206 20022 50002 $,M
BVU,2024-09-22 17:55,-114.8611,35.9475,671.00,84.20,42.80,23.33,0.00,0.00,0.00,29.97,M,10.00,M,CLR,M,M,M,M,M,M,M,M,M,M,M,M,M,M,81.61,KBVU 221755Z AUTO 00000KT 10SM CLR 29/06 A2997 RMK AO2,M
RNO,2024-09-22 17:55,-119.7711,39.4839,1341.00,66.00,32.00,28.03,110.00,3.00,0.00,30.19,1018.20,10.00,M,CLR,M,M,M,M,M,M,M,M,M,M,M,M,M,M,66.00,KRNO 221755Z 11003KT 10SM CLR 19/00 A3019 RMK AO2 SLP182 T01890000 10189 20083 58002,M
BAM,2024-09-22 17:55,-116.8743,40.5990,1382.36,64.40,26.60,23.77,0.00,0.00,0.00,30.21,M,10.00,M,CLR,M,M,M,M,M,M,M,M,M,M,M,M,M,M,64.40,KBAM 221755Z AUTO 00000KT 10SM CLR 18/M03 A3021 RMK AO1,M
CXP,2024-09-22 17:55,-119.7326,39.1923,1431.00,66.20,33.80,29.92,0.00,0.00,0.00,30.21,M,10.00,M,CLR,M,M,M,M,M,M,M,M,M,M,M,M,M,M,66.20,KCXP 221755Z AUTO 00000KT 10SM CLR 19/01 A3021 RMK AO2,M
HTH,2024-09-22 17:55,-118.6315,38.5448,1282.89,68.00,30.20,24.32,360.00,6.00,0.00,30.20,M,10.00,M,CLR,M,M,M,M,M,M,M,M,M,M,M,M,M,M,68.00,KHTH 221755Z AUTO 36006KT 10SM CLR 20/M01 A3020 RMK A01,M
TMT,2024-09-22 17:55,-117.1971,39.4643,1749.34,63.00,33.00,32.40,0.00,0.00,0.00,30.25,M,10.00,M,CLR,M,M,M,M,M,M,M,M,M,M,M,M,M,M,63.00,KTMT 221755Z AUTO 00000KT 10SM CLR 17/01 A3025 RMK AO2 T01730006 10173 21025,M
10U,2024-09-22 17:55,-116.1876,41.9532,1637.00,62.60,26.60,25.32,360.00,5.00,0.00,30.23,M,10.00,M,CLR,M,M,M,M,M,M,M,M,M,M,M,M,M,M,62.60,K10U 221755Z AUTO 36005KT 10SM CLR 17/M03 A3023 RMK AO2,M
INS,2024-09-22 17:55,-115.6733,36.5872,955.00,80.80,30.40,15.96,0.00,0.00,0.00,30.03,1012.20,10.00,M,CLR,M,M,M,M,M,M,M,M,M,M,M,M,M,M,78.90,KINS 221755Z AUTO 00000KT 10SM CLR 27/M01 A3003 RMK AO2 SLP122 T02711009 10271 20139 58001,M
LSV,2024-09-22 17:55,-115.0343,36.2362,570.00,84.70,41.70,22.00,230.00,4.00,0.00,29.94,1011.30,10.00,M,CLR,M,M,M,M,M,M,M,M,M,M,M,M,M,M,81.91,KLSV 221755Z AUTO 23004KT 10SM CLR 29/05 A2994 RMK AO2 SLP113 T02930054 10293 20203 50001 $,M
EKO,2024-09-22 17:56,-115.7860,40.8242,1367.00,65.00,27.00,23.67,0.00,0.00,0.00,30.21,1019.40,10.00,M,CLR,M,M,M,M,M,M,M,M,M,M,M,M,M,M,65.00,KEKO 221756Z AUTO 00000KT 10SM CLR 18/M03 A3021 RMK AO2 SLP194 T01831028 10183 20011 58004,M
WMC,2024-09-22 17:56,-117.8072,40.9019,1315.00,67.00,24.00,19.49,80.00,4.00,T,30.18,1019.20,10.00,M,CLR,M,M,M,M,M,M,M,M,M,M,M,M,M,M,67.00,KWMC 221756Z AUTO 08004KT 10SM CLR 19/M04 A3018 RMK AO2 RAB23E34 SLP192 P0000 60000 T01941044 10194 20011 58001,M
HND,2024-09-22 17:56,-115.1344,35.9729,742.79,84.00,44.00,24.58,0.00,0.00,0.00,30.02,1015.60,10.00,M,CLR,M,M,M,M,M,M,M,M,M,M,M,M,M,M,81.54,KHND 221756Z 00000KT 10SM CLR 29/07 A3002 RMK AO2 SLP156 T02890067 10289 20183 50002,M
TPH,2024-09-22 17:56,-117.0904,38.0505,1654.00,74.00,31.00,20.48,280.00,11.00,0.00,30.19,1015.40,10.00,15.00,CLR,M,M,M,M,M,M,M,M,M,M,M,M,M,M,74.00,KTPH 221756Z AUTO 28011G15KT 10SM CLR 23/M01 A3019 RMK AO2 SLP154 T02331006 10239 20089 58001 $,M
LAS,2024-09-22 17:56,-115.1634,36.0719,663.00,82.00,44.00,26.23,70.00,4.00,0.00,30.00,1013.40,10.00,M,FEW,M,M,M,12000.00,M,M,M,M,M,M,M,M,M,M,80.21,KLAS 221756Z 07004KT 10SM FEW120 28/07 A3000 RMK AO2 SLP134 T02780067 10283 20211 50003 $,M
NFL,2024-09-22 17:57,-118.7010,39.4166,1199.00,69.00,30.00,23.30,0.00,0.00,0.00,30.17,1018.20,10.00,M,CLR,M,M,M,M,M,M,M,M,M,M,M,M,M,M,69.00,KNFL 221757Z AUTO 00000KT 10SM CLR 21/M01 A3017 RMK AO2 SLP182 T02061011 10206 20056 50003,M
05U,2024-09-22 18:10,-116.0051,39.6042,1811.23,66.20,23.00,19.22,0.00,0.00,0.00,30.25,M,10.00,M,CLR,M,M,M,M,M,M,M,M,M,M,M,M,M,M,66.20,K05U 221810Z AUTO 00000KT 10SM CLR 19/M05 A3025 RMK A01,M
BVU,2024-09-22 18:15,-114.8611,35.9475,671.00,84.20,42.80,23.33,0.00,0.00,0.00,29.97,M,10.00,M,CLR,M,M,M,M,M,M,M,M,M,M,M,M,M,M,81.61,KBVU 221815Z AUTO 00000KT 10SM CLR 29/06 A2997 RMK AO2,M
CXP,2024-09-22 18:15,-119.7326,39.1923,1431.00,68.00,32.00,26.15,0.00,0.00,0.00,30.21,M,9.00,M,CLR,M,M,M,M,M,M,M,M,M,M,M,M,M,M,68.00,KCXP 221815Z AUTO 00000KT 9SM CLR 20/M00 A3021 RMK AO2,M
RTS,2024-09-22 18:15,-119.8764,39.6682,1539.00,68.00,26.60,20.98,M,5.00,0.00,30.22,M,10.00,M,CLR,M,M,M,M,M,M,M,M,M,M,M,M,M,M,68.00,KRTS 221815Z AUTO VRB05KT 10SM CLR 20/M03 A3022 RMK AO2,M
MEV,2024-09-22 18:15,-119.7500,38.9963,1441.42,68.00,35.60,30.20,M,3.00,0.00,30.19,M,10.00,M,CLR,M,M,M,M,M,M,M,M,M,M,M,M,M,M,68.00,KMEV 221815Z AUTO VRB03KT 10SM CLR 20/02 A3019 RMK AO2,M
BAM,2024-09-22 18:15,-116.8743,40.5990,1382.36,68.00,26.60,20.98,0.00,0.00,0.00,30.20,M,10.00,M,CLR,M,M,M,M,M,M,M,M,M,M,M,M,M,M,68.00,KBAM 221815Z AUTO 00000KT 10SM CLR 20/M03 A3020 RMK AO1,M
HTH,2024-09-22 18:15,-118.6315,38.5448,1282.89,69.80,30.20,22.86,340.00,6.00,0.00,30.19,M,10.00,M,CLR,M,M,M,M,M,M,M,M,M,M,M,M,M,M,69.80,KHTH 221815Z AUTO 34006KT 10SM CLR 21/M01 A3019 RMK A01,M
TMT,2024-09-22 18:15,-117.1971,39.4643,1749.34,65.30,32.00,28.72,0.00,0.00,0.00,30.24,M,10.00,M,CLR,M,M,M,M,M,M,M,M,M,M,M,M,M,M,65.30,KTMT 221815Z AUTO 00000KT 10SM CLR 19/00 A3024 RMK AO2 T01851001,M
10U,2024-09-22 18:15,-116.1876,41.9532,1637.00,62.60,26.60,25.32,M,6.00,0.00,30.22,M,10.00,M,CLR,M,M,M,M,M,M,M,M,M,M,M,M,M,M,62.60,K10U 221815Z AUTO VRB06KT 10SM CLR 17/M03 A3022 RMK AO2,M
05U,2024-09-22 18:30,-116.0051,39.6042,1811.23,66.20,23.00,19.22,0.00,0.00,0.00,30.24,M,10.00,M,CLR,M,M,M,M,M,M,M,M,M,M,M,M,M,M,66.20,K05U 221830Z AUTO 00000KT 10SM CLR 19/M05 A3024 RMK A01,M
BVU,2024-09-22 18:35,-114.8611,35.9475,671.00,86.00,42.80,22.02,100.00,5.00,0.00,29.96,M,10.00,M,CLR,M,M,M,M,M,M,M,M,M,M,M,M,M,M,82.95,KBVU 221835Z AUTO 10005KT 10SM CLR 30/06 A2996 RMK AO2,M
CXP,2024-09-22 18:35,-119.7326,39.1923,1431.00,69.80,28.40,21.24,0.00,0.00,0.00,30.20,M,10.00,M,CLR,M,M,M,M,M,M,M,M,M,M,M,M,M,M,69.80,KCXP 221835Z AUTO 00000KT 10SM CLR 21/M02 A3020 RMK AO2,M
RTS,2024-09-22 18:35,-119.8764,39.6682,1539.00,69.80,24.80,18.30,130.00,5.00,0.00,30.21,M,10.00,M,CLR,M,M,M,M,M,M,M,M,M,M,M,M,M,M,69.80,KRTS 221835Z AUTO 13005KT 10SM CLR 21/M04 A3021 RMK AO2,M
MEV,2024-09-22 18:35,-119.7500,38.9963,1441.42,69.80,33.80,26.43,310.00,4.00,0.00,30.19,M,10.00,M,CLR,M,M,M,M,M,M,M,M,M,M,M,M,M,M,69.80,KMEV 221835Z AUTO 31004KT 10SM CLR 21/01 A3019 RMK AO2,M
BAM,2024-09-22 18:35,-116.8743,40.5990,1382.36,69.80,26.60,19.72,0.00,0.00,0.00,30.20,M,10.00,M,CLR,M,M,M,M,M,M,M,M,M,M,M,M,M,M,69.80,KBAM 221835Z AUTO 00000KT 10SM CLR 21/M03 A3020 RMK AO1,M
HTH,2024-09-22 18:35,-118.6315,38.5448,1282.89,69.80,28.40,21.24,350.00,7.00,0.00,30.18,M,10.00,M,CLR,M,M,M,M,M,M,M,M,M,M,M,M,M,M,69.80,KHTH 221835Z AUTO 35007KT 310V020 10SM CLR 21/M02 A3018 RMK A01,M
TMT,2024-09-22 18:35,-117.1971,39.4643,1749.34,67.00,30.60,25.58,0.00,0.00,0.00,30.24,M,10.00,M,CLR,M,M,M,M,M,M,M,M,M,M,M,M,M,M,67.00,KTMT 221835Z AUTO 00000KT 10SM CLR 19/M01 A3024 RMK AO2 T01941008,M
10U,2024-09-22 18:35,-116.1876,41.9532,1637.00,64.40,26.60,23.77,M,3.00,0.00,30.22,M,10.00,M,CLR,M,M,M,M,M,M,M,M,M,M,M,M,M,M,64.40,K10U 221835Z AUTO VRB03KT 10SM CLR 18/M03 A3022 RMK AO2,M
05U,2024-09-22 18:50,-116.0051,39.6042,1811.23,68.00,23.00,18.06,0.00,0.00,0.00,30.24,M,10.00,M,CLR,M,M,M,M,M,M,M,M,M,M,M,M,M,M,68.00,K05U 221850Z AUTO 00000KT 10SM CLR 20/M05 A3024 RMK A01,M
P68,2024-09-22 18:53,-116.0056,39.6014,1993.00,69.00,25.00,18.97,10.00,6.00,0.00,30.21,1017.90,M,M,M,M,M,M,M,M,M,M,M,M,M,M,M,M,M,69.00,KP68 221853Z AUTO 01006KT 21/M04 A3021 RMK AO1 SLP179 T02061039,M
DRA,2024-09-22 18:53,-116.0278,36.6206,1009.00,89.00,34.00,14.18,M,4.00,0.00,30.02,1011.80,10.00,M,CLR,M,M,M,M,M,M,M,M,M,M,M,M,M,M,85.09,KDRA 221853Z AUTO VRB04KT 10SM CLR 32/01 A3002 RMK AO2 SLP118 T03170011,M
ELY,2024-09-22 18:53,-114.8453,39.2950,1909.00,71.00,30.00,21.77,90.00,6.00,0.00,30.21,1015.70,10.00,M,CLR,M,M,M,M,M,M,M,M,M,M,M,M,M,M,71.00,KELY 221853Z AUTO 09006KT 10SM CLR 22/M01 A3021 RMK AO2 SLP157 T02171011,M
VGT,2024-09-22 18:53,-115.1933,36.2111,667.00,87.00,44.00,22.33,0.00,0.00,0.00,29.97,1014.00,10.00,M,CLR,M,M,M,M,M,M,M,M,M,M,M,M,M,M,83.82,KVGT 221853Z 00000KT 10SM CLR 31/07 A2997 RMK AO2 SLP140 T03060067,M
LOL,2024-09-22 18:53,-118.5701,40.0684,1192.43,70.00,M,M,M,3.00,0.00,30.16,1019.10,10.00,M,CLR,M,M,M,M,M,M,M,M,M,M,M,M,M,M,M,KLOL 221853Z AUTO VRB03KT 10SM CLR 21/ A3016 RMK AO2 SLP191 T0211 $,M
BVU,2024-09-22 18:55,-114.8611,35.9475,671.00,86.00,41.00,20.54,0.00,0.00,0.00,29.95,M,10.00,M,CLR,M,M,M,M,M,M,M,M,M,M,M,M,M,M,82.86,KBVU 221855Z AUTO 00000KT 10SM CLR 30/05 A2995 RMK AO2,M
RNO,2024-09-22 18:55,-119.7711,39.4839,1341.00,72.00,29.00,20.20,M,3.00,0.00,30.17,1017.30,10.00,M,CLR,M,M,M,M,M,M,M,M,M,M,M,M,M,M,72.00,KRNO 221855Z VRB03KT 10SM CLR 22/M02 A3017 RMK AO2 SLP173 T02221017,M
CXP,2024-09-22 18:55,-119.7326,39.1923,1431.00,71.60,28.40,19.98,0.00,0.00,0.00,30.19,M,10.00,M,CLR,M,M,M,M,M,M,M,M,M,M,M,M,M,M,71.60,KCXP 221855Z AUTO 00000KT 10SM CLR 22/M02 A3019 RMK AO2,M
RTS,2024-09-22 18:55,-119.8764,39.6682,1539.00,69.80,24.80,18.30,150.00,7.00,0.00,30.21,M,10.00,M,CLR,M,M,M,M,M,M,M,M,M,M,M,M,M,M,69.80,KRTS 221855Z AUTO 15007KT 10SM CLR 21/M04 A3021 RMK AO2,M
MEV,2024-09-22 18:55,-119.7500,38.9963,1441.42,71.60,33.80,24.86,0.00,0.00,0.00,30.18,M,10.00,M,CLR,M,M,M,M,M,M,M,M,M,M,M,M,M,M,71.60,KMEV 221855Z AUTO 00000KT 10SM CLR 22/01 A3018 RMK AO2,M
BAM,2024-09-22 18:55,-116.8743,40.5990,1382.36,71.60,26.60,18.55,140.00,3.00,0.00,30.19,M,10.00,M,CLR,M,M,M,M,M,M,M,M,M,M,M,M,M,M,71.60,KBAM 221855Z AUTO 14003KT 10SM CLR 22/M03 A3019 RMK AO1,M
HTH,2024-09-22 18:55,-118.6315,38.5448,1282.89,71.60,28.40,19.98,M,4.00,0.00,30.17,M,10.00,10.00,CLR,M,M,M,M,M,M,M,M,M,M,M,M,M,M,71.60,KHTH 221855Z AUTO VRB04G10KT 10SM CLR 22/M02 A3017 RMK A01,M
TMT,2024-09-22 18:55,-117.1971,39.4643,1749.34,67.60,30.40,24.85,350.00,3.00,0.00,30.24,M,10.00,M,CLR,M,M,M,M,M,M,M,M,M,M,M,M,M,M,67.60,KTMT 221855Z AUTO 35003KT 10SM CLR 20/M01 A3024 RMK AO2 T01981009,M
10U,2024-09-22 18:55,-116.1876,41.9532,1637.00,66.20,28.40,24.04,320.00,4.00,0.00,30.21,M,10.00,M,CLR,M,M,M,M,M,M,M,M,M,M,M,M,M,M,66.20,K10U 221855Z AUTO 32004KT 10SM CLR 19/M02 A3021 RMK AO2,M
INS,2024-09-22 18:55,-115.6733,36.5872,955.00,84.60,28.20,12.90,0.00,0.00,0.00,30.01,1011.50,10.00,M,CLR,M,M,M,M,M,M,M,M,M,M,M,M,M,M,81.54,KINS 221855Z AUTO 00000KT 10SM CLR 29/M02 A3001 RMK AO2 SLP115 T02921021,M
LSV,2024-09-22 18:55,-115.0343,36.2362,570.00,87.60,40.30,19.00,200.00,7.00,0.00,29.92,1010.60,10.00,M,FEW,M,M,M,17000.00,M,M,M,M,M,M,M,M,M,M,84.10,KLSV 221855Z AUTO 20007KT 10SM FEW170 31/05 A2992 RMK AO2 SLP106 T03090046 $,M
EKO,2024-09-22 18:56,-115.7860,40.8242,1367.00,70.00,28.00,20.75,200.00,5.00,0.00,30.18,1018.50,10.00,M,CLR,M,M,M,M,M,M,M,M,M,M,M,M,M,M,70.00,KEKO 221856Z AUTO 20005KT 10SM CLR 21/M02 A3018 RMK AO2 SLP185 T02111022,M
WMC,2024-09-22 18:56,-117.8072,40.9019,1315.00,72.00,23.00,15.75,M,4.00,0.00,30.17,1018.70,10.00,M,CLR,M,M,M,M,M,M,M,M,M,M,M,M,M,M,72.00,KWMC 221856Z AUTO VRB04KT 10SM CLR 22/M05 A3017 RMK AO2 SLP187 T02221050,M
HND,2024-09-22 18:56,-115.1344,35.9729,742.79,86.00,44.00,23.05,270.00,3.00,0.00,30.00,1015.00,10.00,M,CLR,M,M,M,M,M,M,M,M,M,M,M,M,M,M,83.03,KHND 221856Z 27003KT 10SM CLR 30/07 A3000 RMK AO2 SLP150 T03000067,M
TPH,2024-09-22 18:56,-117.0904,38.0505,1654.00,75.00,31.00,19.81,270.00,7.00,0.00,30.18,1015.10,10.00,15.00,CLR,M,M,M,M,M,M,M,M,M,M,M,M,M,M,75.00,KTPH 221856Z AUTO 27007G15KT 10SM CLR 24/M01 A3018 RMK AO2 SLP151 T02391006 $,M
LAS,2024-09-22 18:56,-115.1634,36.0719,663.00,85.00,42.00,22.05,60.00,4.00,0.00,29.98,1012.70,10.00,M,FEW,M,M,M,12000.00,M,M,M,M,M,M,M,M,M,M,82.15,KLAS 221856Z 06004KT 10SM FEW120 29/06 A2998 RMK AO2 SLP127 T02940056 $,M
NFL,2024-09-22 18:57,-118.7010,39.4166,1199.00,73.00,28.00,18.74,0.00,0.00,0.00,30.16,1017.60,10.00,M,CLR,M,M,M,M,M,M,M,M,M,M,M,M,M,M,73.00,KNFL 221857Z AUTO 00000KT 10SM CLR 23/M02 A3016 RMK AO2 SLP176 T02281022,M
05U,2024-09-22 19:10,-116.0051,39.6042,1811.23,68.00,23.00,18.06,0.00,0.00,0.00,30.23,M,10.00,M,CLR,M,M,M,M,M,M,M,M,M,M,M,M,M,M,68.00,K05U 221910Z AUTO 00000KT 10SM CLR 20/M05 A3023 RMK A01,M
BVU,2024-09-22 19:15,-114.8611,35.9475,671.00,87.80,41.00,19.40,0.00,0.00,0.00,29.94,M,10.00,M,CLR,M,M,M,M,M,M,M,M,M,M,M,M,M,M,84.30,KBVU 221915Z AUTO 00000KT 10SM CLR 31/05 A2994 RMK AO2,M
CXP,2024-09-22 19:15,-119.7326,39.1923,1431.00,71.60,30.20,21.50,0.00,0.00,0.00,30.18,M,10.00,M,CLR,M,M,M,M,M,M,M,M,M,M,M,M,M,M,71.60,KCXP 221915Z AUTO 00000KT 10SM CLR 22/M01 A3018 RMK AO2,M
RTS,2024-09-22 19:15,-119.8764,39.6682,1539.00,71.60,23.00,15.97,130.00,6.00,0.00,30.20,M,10.00,M,CLR,M,M,M,M,M,M,M,M,M,M,M,M,M,M,71.60,KRTS 221915Z AUTO 13006KT 10SM CLR 22/M05 A3020 RMK AO2,M
MEV,2024-09-22 19:15,-119.7500,38.9963,1441.42,71.60,32.00,23.13,M,4.00,0.00,30.17,M,10.00,M,CLR,M,M,M,M,M,M,M,M,M,M,M,M,M,M,71.60,KMEV 221915Z AUTO VRB04KT 10SM CLR 22/M00 A3017 RMK AO2,M
BAM,2024-09-22 19:15,-116.8743,40.5990,1382.36,71.60,24.80,17.22,320.00,3.00,0.00,30.19,M,10.00,M,CLR,M,M,M,M,M,M,M,M,M,M,M,M,M,M,71.60,KBAM 221915Z AUTO 32003KT 10SM CLR 22/M04 A3019 RMK AO1,M
HTH,2024-09-22 19:15,-118.6315,38.5448,1282.89,71.60,26.60,18.55,330.00,7.00,0.00,30.16,M,10.00,M,CLR,M,M,M,M,M,M,M,M,M,M,M,M,M,M,71.60,KHTH 221915Z AUTO 33007KT 10SM CLR 22/M03 A3016 RMK A01,M
TMT,2024-09-22 19:15,-117.1971,39.4643,1749.34,68.40,29.70,23.50,10.00,3.00,0.00,30.22,M,10.00,M,CLR,M,M,M,M,M,M,M,M,M,M,M,M,M,M,68.40,KTMT 221915Z AUTO 01003KT 10SM CLR 20/M01 A3022 RMK AO2 T02021013,M
10U,2024-09-22 19:15,-116.1876,41.9532,1637.00,68.00,28.40,22.59,0.00,0.00,0.00,30.21,M,10.00,M,CLR,M,M,M,M,M,M,M,M,M,M,M,M,M,M,68.00,K10U 221915Z AUTO 00000KT 10SM CLR 20/M02 A3021 RMK AO2,M
05U,2024-09-22 19:30,-116.0051,39.6042,1811.23,68.00,23.00,18.06,0.00,0.00,0.00,30.22,M,10.00,M,CLR,M,M,M,M,M,M,M,M,M,M,M,M,M,M,68.00,K05U 221930Z AUTO 00000KT 10SM CLR 20/M05 A3022 RMK A01,M
BVU,2024-09-22 19:35,-114.8611,35.9475,671.00,87.80,41.00,19.40,0.00,0.00,0.00,29.94,M,10.00,M,CLR,M,M,M,M,M,M,M,M,M,M,M,M,M,M,84.30,KBVU 221935Z AUTO 00000KT 10SM CLR 31/05 A2994 RMK AO2,M
CXP,2024-09-22 19:35,-119.7326,39.1923,1431.00,73.40,28.40,18.80,70.00,6.00,0.00,30.18,M,10.00,M,CLR,M,M,M,M,M,M,M,M,M,M,M,M,M,M,73.40,KCXP 221935Z AUTO 07006KT 10SM CLR 23/M02 A3018 RMK AO2,M
RTS,2024-09-22 19:35,-119.8764,39.6682,1539.00,71.60,23.00,15.97,100.00,5.00,0.00,30.20,M,10.00,M,CLR,M,M,M,M,M,M,M,M,M,M,M,M,M,M,71.60,KRTS 221935Z AUTO 10005KT 10SM CLR 22/M05 A3020 RMK AO2,M
MEV,2024-09-22 19:35,-119.7500,38.9963,1441.42,73.40,30.20,20.23,M,5.00,0.00,30.16,M,10.00,M,CLR,M,M,M,M,M,M,M,M,M,M,M,M,M,M,73.40,KMEV 221935Z AUTO VRB05KT 10SM CLR 23/M01 A3016 RMK AO2,M
BAM,2024-09-22 19:35,-116.8743,40.5990,1382.36,73.40,24.80,16.20,60.00,3.00,0.00,30.17,M,10.00,M,CLR,M,M,M,M,M,M,M,M,M,M,M,M,M,M,73.40,KBAM 221935Z AUTO 06003KT 10SM CLR 23/M04 A3017 RMK AO1,M
HTH,2024-09-22 19:35,-118.6315,38.5448,1282.89,73.40,26.60,17.46,360.00,7.00,0.00,30.16,M,10.00,M,CLR,M,M,M,M,M,M,M,M,M,M,M,M,M,M,73.40,KHTH 221935Z AUTO 36007KT 10SM CLR 23/M03 A3016 RMK A01,M
TMT,2024-09-22 19:35,-117.1971,39.4643,1749.34,69.60,29.00,21.92,0.00,0.00,0.00,30.22,M,10.00,M,CLR,M,M,M,M,M,M,M,M,M,M,M,M,M,M,69.60,KTMT 221935Z AUTO 00000KT 10SM CLR 21/M02 A3022 RMK AO2 T02091016,M
10U,2024-09-22 19:35,-116.1876,41.9532,1637.00,68.00,28.40,22.59,0.00,0.00,0.00,30.20,M,10.00,M,CLR,M,M,M,M,M,M,M,M,M,M,M,M,M,M,68.00,K10U 221935Z AUTO 00000KT 10SM CLR 20/M02 A3020 RMK AO2,M
05U,2024-09-22 19:50,-116.0051,39.6042,1811.23,69.80,23.00,16.98,0.00,0.00,0.00,30.22,M,10.00,M,CLR,M,M,M,M,M,M,M,M,M,M,M,M,M,M,69.80,K05U 221950Z AUTO 00000KT 10SM CLR 21/M05 A3022 RMK A01,M
P68,2024-09-22 19:53,-116.0056,39.6014,1993.00,72.00,23.00,15.75,M,4.00,0.00,30.19,1017.00,M,M,M,M,M,M,M,M,M,M,M,M,M,M,M,M,M,72.00,KP68 221953Z AUTO VRB04KT 22/M05 A3019 RMK AO1 SLP170 T02221050,M
DRA,2024-09-22 19:53,-116.0278,36.6206,1009.00,89.00,33.00,13.62,M,3.00,0.00,30.00,1011.10,10.00,M,CLR,M,M,M,M,M,M,M,M,M,M,M,M,M,M,85.08,KDRA 221953Z AUTO VRB03KT 10SM CLR 32/01 A3000 RMK AO2 SLP111 T03170006,M
ELY,2024-09-22 19:53,-114.8453,39.2950,1909.00,73.00,30.00,20.34,M,4.00,0.00,30.18,1014.50,10.00,M,CLR,M,M,M,M,M,M,M,M,M,M,M,M,M,M,73.00,KELY 221953Z AUTO VRB04KT 10SM CLR 23/M01 A3018 RMK AO2 SLP145 T02281011,M
VGT,2024-09-22 19:53,-115.1933,36.2111,667.00,88.00,43.00,20.82,280.00,3.00,0.00,29.94,1013.20,10.00,M,CLR,M,M,M,M,M,M,M,M,M,M,M,M,M,M,84.58,KVGT 221953Z 28003KT 10SM CLR 31/06 A2994 RMK AO2 SLP132 T03110061,M
LOL,2024-09-22 19:53,-118.5701,40.0684,1192.43,74.00,M,M,M,3.00,0.00,30.14,1017.70,10.00,M,CLR,M,M,M,M,M,M,M,M,M,M,M,M,M,M,M,KLOL 221953Z AUTO VRB03KT 10SM CLR 23/ A3014 RMK AO2 SLP177 T0233 $,M
BVU,2024-09-22 19:55,-114.8611,35.9475,671.00,87.80,41.00,19.40,100.00,3.00,0.00,29.93,M,10.00,M,CLR,M,M,M,M,M,M,M,M,M,M,M,M,M,M,84.30,KBVU 221955Z AUTO 10003KT 10SM CLR 31/05 A2993 RMK AO2,M
RNO,2024-09-22 19:55,-119.7711,39.4839,1341.00,75.00,28.00,17.53,0.00,0.00,0.00,30.15,1016.60,10.00,M,FEW,M,M,M,8000.00,M,M,M,M,M,M,M,M,M,M,75.00,KRNO 221955Z 00000KT 10SM FEW080 24/M02 A3015 RMK AO2 SLP166 T02391022,M
CXP,2024-09-22 19:55,-119.7326,39.1923,1431.00,73.40,28.40,18.80,M,5.00,0.00,30.17,M,10.00,M,CLR,M,M,M,M,M,M,M,M,M,M,M,M,M,M,73.40,KCXP 221955Z AUTO VRB05KT 10SM CLR 23/M02 A3017 RMK AO2,M
RTS,2024-09-22 19:55,-119.8764,39.6682,1539.00,73.40,24.80,16.20,110.00,5.00,0.00,30.19,M,10.00,M,CLR,M,M,M,M,M,M,M,M,M,M,M,M,M,M,73.40,KRTS 221955Z AUTO 11005KT 10SM CLR 23/M04 A3019 RMK AO2,M
MEV,2024-09-22 19:55,-119.7500,38.9963,1441.42,73.40,30.20,20.23,330.00,5.00,0.00,30.15,M,8.00,M,CLR,M,M,M,M,M,M,M,M,M,M,M,M,M,M,73.40,KMEV 221955Z AUTO 33005KT 8SM CLR 23/M01 A3015 RMK AO2,M
BAM,2024-09-22 19:55,-116.8743,40.5990,1382.36,73.40,24.80,16.20,200.00,3.00,0.00,30.17,M,10.00,M,CLR,M,M,M,M,M,M,M,M,M,M,M,M,M,M,73.40,KBAM 221955Z AUTO 20003KT 10SM CLR 23/M04 A3017 RMK AO1,M
HTH,2024-09-22 19:55,-118.6315,38.5448,1282.89,73.40,26.60,17.46,330.00,7.00,0.00,30.15,M,10.00,M,CLR,M,M,M,M,M,M,M,M,M,M,M,M,M,M,73.40,KHTH 221955Z AUTO 33007KT 290V360 10SM CLR 23/M03 A3015 RMK A01,M
TMT,2024-09-22 19:55,-117.1971,39.4643,1749.34,70.50,30.00,22.14,330.00,4.00,0.00,30.21,M,10.00,M,CLR,M,M,M,M,M,M,M,M,M,M,M,M,M,M,70.50,KTMT 221955Z AUTO 33004KT 10SM CLR 21/M01 A3021 RMK AO2 T02141011,M
10U,2024-09-22 19:55,-116.1876,41.9532,1637.00,69.80,28.40,21.24,0.00,0.00,0.00,30.19,M,10.00,M,CLR,M,M,M,M,M,M,M,M,M,M,M,M,M,M,69.80,K10U 221955Z AUTO 00000KT 10SM CLR 21/M02 A3019 RMK AO2,M
INS,2024-09-22 19:55,-115.6733,36.5872,955.00,87.00,28.20,11.95,0.00,0.00,0.00,29.99,1010.80,10.00,M,CLR,M,M,M,M,M,M,M,M,M,M,M,M,M,M,83.24,KINS 221955Z AUTO 00000KT 10SM CLR 31/M02 A2999 RMK AO2 SLP108 T03051021,M
LSV,2024-09-22 19:55,-115.0343,36.2362,570.00,90.70,38.30,15.94,250.00,6.00,0.00,29.89,1009.40,10.00,M,FEW,M,M,M,21000.00,M,M,M,M,M,M,M,M,M,M,86.65,KLSV 221955Z AUTO 25006KT 10SM FEW210 33/04 A2989 RMK AO2 SLP094 T03260035 $,M
EKO,2024-09-22 19:56,-115.7860,40.8242,1367.00,73.00,24.00,15.88,220.00,7.00,0.00,30.16,1017.90,10.00,M,CLR,M,M,M,M,M,M,M,M,M,M,M,M,M,M,73.00,KEKO 221956Z AUTO 22007KT 10SM CLR 23/M04 A3016 RMK AO2 SLP179 T02281044,M
WMC,2024-09-22 19:56,-117.8072,40.9019,1315.00,75.00,24.00,14.85,270.00,5.00,0.00,30.16,1018.50,10.00,M,CLR,M,M,M,M,M,M,M,M,M,M,M,M,M,M,75.00,KWMC 221956Z AUTO 27005KT 10SM CLR 24/M04 A3016 RMK AO2 SLP185 T02391044,M
HND,2024-09-22 19:56,-115.1344,35.9729,742.79,87.00,43.00,21.49,60.00,5.00,0.00,29.98,1014.10,10.00,M,CLR,M,M,M,M,M,M,M,M,M,M,M,M,M,M,83.76,KHND 221956Z 06005KT 10SM CLR 31/06 A2998 RMK AO2 SLP141 T03060061,M
TPH,2024-09-22 19:56,-117.0904,38.0505,1654.00,77.00,28.00,16.40,280.00,8.00,0.00,30.16,1014.60,10.00,16.00,CLR,M,M,M,M,M,M,M,M,M,M,M,M,M,M,77.00,KTPH 221956Z AUTO 28008G16KT 10SM CLR 25/M02 A3016 RMK AO2 SLP146 T02501022 $,M
LAS,2024-09-22 19:56,-115.1634,36.0719,663.00,86.00,42.00,21.35,0.00,0.00,0.00,29.95,1011.80,10.00,M,FEW,M,M,M,12000.00,M,M,M,M,M,M,M,M,M,M,82.91,KLAS 221956Z 00000KT 10SM FEW120 30/06 A2995 RMK AO2 SLP118 T03000056 $,M
05U,2024-09-22 20:10,-116.0051,39.6042,1811.23,71.60,21.20,14.80,0.00,0.00,0.00,30.21,M,10.00,10.00,CLR,M,M,M,M,M,M,M,M,M,M,M,M,M,M,71.60,K05U 222010Z AUTO 00000G10KT 10SM CLR 22/M06 A3021 RMK A01,M
CXP,2024-09-22 20:15,-119.7326,39.1923,1431.00,75.20,28.40,17.70,70.00,6.00,0.00,30.16,M,10.00,M,CLR,M,M,M,M,M,M,M,M,M,M,M,M,M,M,75.20,KCXP 222015Z AUTO 07006KT 10SM CLR 24/M02 A3016 RMK AO2,M
RTS,2024-09-22 20:15,-119.8764,39.6682,1539.00,73.40,24.80,16.20,M,5.00,0.00,30.18,M,10.00,M,CLR,M,M,M,M,M,M,M,M,M,M,M,M,M,M,73.40,KRTS 222015Z AUTO VRB05KT 10SM CLR 23/M04 A3018 RMK AO2,M
MEV,2024-09-22 20:15,-119.7500,38.9963,1441.42,75.20,32.00,20.49,M,5.00,0.00,30.14,M,10.00,M,CLR,M,M,M,M,M,M,M,M,M,M,M,M,M,M,75.20,KMEV 222015Z AUTO VRB05KT 10SM CLR 24/M00 A3014 RMK AO2,M
BAM,2024-09-22 20:15,-116.8743,40.5990,1382.36,75.20,24.80,15.25,290.00,4.00,0.00,30.16,M,10.00,M,CLR,M,M,M,M,M,M,M,M,M,M,M,M,M,M,75.20,KBAM 222015Z AUTO 29004KT 10SM CLR 24/M04 A3016 RMK AO1,M
HTH,2024-09-22 20:15,-118.6315,38.5448,1282.89,75.20,26.60,16.43,M,4.00,0.00,30.14,M,10.00,10.00,CLR,M,M,M,M,M,M,M,M,M,M,M,M,M,M,75.20,KHTH 222015Z AUTO VRB04G10KT 10SM CLR 24/M03 A3014 RMK A01,M
TMT,2024-09-22 20:15,-117.1971,39.4643,1749.34,71.00,30.60,22.30,240.00,3.00,0.00,30.20,M,10.00,M,CLR,M,M,M,M,M,M,M,M,M,M,M,M,M,M,71.00,KTMT 222015Z AUTO 24003KT 10SM CLR 22/M01 A3020 RMK AO2 T02161008,M
10U,2024-09-22 20:15,-116.1876,41.9532,1637.00,71.60,28.40,19.98,M,5.00,0.00,30.19,M,10.00,M,CLR,M,M,M,M,M,M,M,M,M,M,M,M,M,M,71.60,K10U 222015Z AUTO VRB05KT 10SM CLR 22/M02 A3019 RMK AO2,M
05U,2024-09-22 20:30,-116.0051,39.6042,1811.23,71.60,23.00,15.97,0.00,0.00,0.00,30.20,M,10.00,M,CLR,M,M,M,M,M,M,M,M,M,M,M,M,M,M,71.60,K05U 222030Z AUTO 00000KT 10SM CLR 22/M05 A3020 RMK A01,M
BVU,2024-09-22 20:35,-114.8611,35.9475,671.00,89.60,41.00,18.33,M,3.00,0.00,29.91,M,10.00,M,CLR,M,M,M,M,M,M,M,M,M,M,M,M,M,M,85.82,KBVU 222035Z AUTO VRB03KT 10SM CLR 32/05 A2991 RMK AO2,M
CXP,2024-09-22 20:35,-119.7326,39.1923,1431.00,77.00,28.40,16.67,M,4.00,0.00,30.15,M,10.00,M,CLR,M,M,M,M,M,M,M,M,M,M,M,M,M,M,77.00,KCXP 222035Z AUTO VRB04KT 10SM CLR 25/M02 A3015 RMK AO2,M
RTS,2024-09-22 20:35,-119.8764,39.6682,1539.00,73.40,24.80,16.20,140.00,5.00,0.00,30.17,M,10.00,M,CLR,M,M,M,M,M,M,M,M,M,M,M,M,M,M,73.40,KRTS 222035Z AUTO 14005KT 10SM CLR 23/M04 A3017 RMK AO2,M
MEV,2024-09-22 20:35,-119.7500,38.9963,1441.42,77.00,30.20,17.94,300.00,5.00,0.00,30.13,M,10.00,M,CLR,M,M,M,M,M,M,M,M,M,M,M,M,M,M,77.00,KMEV 222035Z AUTO 30005KT 10SM CLR 25/M01 A3013 RMK AO2,M
BAM,2024-09-22 20:35,-116.8743,40.5990,1382.36,77.00,24.80,14.37,290.00,4.00,0.00,30.16,M,10.00,M,CLR,M,M,M,M,M,M,M,M,M,M,M,M,M,M,77.00,KBAM 222035Z AUTO 29004KT 10SM CLR 25/M04 A3016 RMK AO1,M
HTH,2024-09-22 20:35,-118.6315,38.5448,1282.89,75.20,24.80,15.25,310.00,6.00,0.00,30.13,M,10.00,M,CLR,M,M,M,M,M,M,M,M,M,M,M,M,M,M,75.20,KHTH 222035Z AUTO 31006KT 10SM CLR 24/M04 A3013 RMK A01,M
TMT,2024-09-22 20:35,-117.1971,39.4643,1749.34,71.60,31.00,22.21,0.00,0.00,0.00,30.19,M,10.00,M,CLR,M,M,M,M,M,M,M,M,M,M,M,M,M,M,71.60,KTMT 222035Z AUTO 00000KT 10SM CLR 22/00 A3019 RMK AO2 T02201005,M
10U,2024-09-22 20:35,-116.1876,41.9532,1637.00,69.80,28.40,21.24,0.00,0.00,0.00,30.18,M,10.00,M,CLR,M,M,M,M,M,M,M,M,M,M,M,M,M,M,69.80,K10U 222035Z AUTO 00000KT 10SM CLR 21/M02 A3018 RMK AO2,M
05U,2024-09-22 20:50,-116.0051,39.6042,1811.23,73.40,21.20,13.93,0.00,0.00,0.00,30.19,M,10.00,10.00,CLR,M,M,M,M,M,M,M,M,M,M,M,M,M,M,73.40,K05U 222050Z AUTO 00000G10KT 10SM CLR 23/M06 A3019 RMK A01,M
P68,2024-09-22 20:53,-116.0056,39.6014,1993.00,74.00,23.00,14.73,30.00,3.00,0.00,30.16,1015.70,M,M,M,M,M,M,M,M,M,M,M,M,M,M,M,M,M,74.00,KP68 222053Z AUTO 03003KT 23/M05 A3016 RMK AO1 SLP157 T02331050 58017,M
DRA,2024-09-22 20:53,-116.0278,36.6206,1009.00,91.00,34.00,13.32,130.00,3.00,0.00,29.97,1010.20,10.00,M,CLR,M,M,M,M,M,M,M,M,M,M,M,M,M,M,86.79,KDRA 222053Z AUTO 13003KT 10SM CLR 33/01 A2997 RMK AO2 SLP102 T03280011 58020,M
ELY,2024-09-22 20:53,-114.8453,39.2950,1909.00,76.00,31.00,19.16,M,M,0.00,30.15,1013.60,10.00,M,CLR,M,M,M,M,M,M,M,M,M,M,M,M,M,M,76.00,KELY 222053Z AUTO 10SM CLR 24/M01 A3015 RMK AO2 SLP136 T02441006 58021,M
VGT,2024-09-22 20:53,-115.1933,36.2111,667.00,91.00,42.00,18.23,110.00,6.00,0.00,29.91,1011.90,10.00,M,CLR,M,M,M,M,M,M,M,M,M,M,M,M,M,M,87.11,KVGT 222053Z 11006KT 10SM CLR 33/06 A2991 RMK AO2 SLP119 T03280056 58025,M
LOL,2024-09-22 20:53,-118.5701,40.0684,1192.43,76.00,M,M,M,M,0.00,30.11,1016.90,10.00,M,CLR,M,M,M,M,M,M,M,M,M,M,M,M,M,M,M,KLOL 222053Z AUTO 10SM CLR 24/ A3011 RMK AO2 SLP169 T0244 58018 $,M
BVU,2024-09-22 20:55,-114.8611,35.9475,671.00,89.60,41.00,18.33,M,5.00,0.00,29.90,M,10.00,M,CLR,M,M,M,M,M,M,M,M,M,M,M,M,M,M,85.82,KBVU 222055Z AUTO VRB05KT 10SM CLR 32/05 A2990 RMK AO2,M
RNO,2024-09-22 20:55,-119.7711,39.4839,1341.00,78.00,26.00,14.61,M,3.00,0.00,30.12,1015.50,10.00,M,FEW,M,M,M,8000.00,M,M,M,M,M,M,M,M,M,M,78.00,KRNO 222055Z VRB03KT 10SM FEW080 26/M03 A3012 RMK AO2 SLP155 T02561033 58021,M
BAM,2024-09-22 20:55,-116.8743,40.5990,1382.36,77.00,24.80,14.37,310.00,3.00,0.00,30.15,M,10.00,M,CLR,M,M,M,M,M,M,M,M,M,M,M,M,M,M,77.00,KBAM 222055Z AUTO 31003KT 10SM CLR 25/M04 A3015 RMK AO1,M
CXP,2024-09-22 20:55,-119.7326,39.1923,1431.00,77.00,26.60,15.48,0.00,0.00,0.00,30.14,M,10.00,M,CLR,M,M,M,M,M,M,M,M,M,M,M,M,M,M,77.00,KCXP 222055Z AUTO 00000KT 10SM CLR 25/M03 A3014 RMK AO2,M
RTS,2024-09-22 20:55,-119.8764,39.6682,1539.00,73.40,23.00,15.03,60.00,4.00,0.00,30.16,M,10.00,10.00,CLR,M,M,M,M,M,M,M,M,M,M,M,M,M,M,73.40,KRTS 222055Z AUTO 06004G10KT 10SM CLR 23/M05 A3016 RMK AO2,M
MEV,2024-09-22 20:55,-119.7500,38.9963,1441.42,77.00,30.20,17.94,10.00,7.00,0.00,30.12,M,10.00,M,CLR,M,M,M,M,M,M,M,M,M,M,M,M,M,M,77.00,KMEV 222055Z AUTO 01007KT 10SM CLR 25/M01 A3012 RMK AO2,M
HTH,2024-09-22 20:55,-118.6315,38.5448,1282.89,75.20,24.80,15.25,M,6.00,0.00,30.11,M,10.00,M,CLR,M,M,M,M,M,M,M,M,M,M,M,M,M,M,75.20,KHTH 222055Z AUTO VRB06KT 10SM CLR 24/M04 A3011 RMK A01,M
TMT,2024-09-22 20:55,-117.1971,39.4643,1749.34,72.00,29.50,20.62,350.00,6.00,0.00,30.19,M,10.00,M,CLR,M,M,M,M,M,M,M,M,M,M,M,M,M,M,72.00,KTMT 222055Z AUTO 35006KT 10SM CLR 22/M01 A3019 RMK AO2 T02221014,M
10U,2024-09-22 20:55,-116.1876,41.9532,1637.00,71.60,28.40,19.98,0.00,0.00,0.00,30.17,M,10.00,M,CLR,M,M,M,M,M,M,M,M,M,M,M,M,M,M,71.60,K10U 222055Z AUTO 00000KT 10SM CLR 22/M02 A3017 RMK AO2,M
INS,2024-09-22 20:55,-115.6733,36.5872,955.00,88.50,27.30,10.98,0.00,0.00,0.00,29.96,1009.80,10.00,M,CLR,M,M,M,M,M,M,M,M,M,M,M,M,M,M,84.26,KINS 222055Z AUTO 00000KT 10SM CLR 31/M03 A2996 RMK AO2 SLP098 T03141026 57022,M
LSV,2024-09-22 20:55,-115.0343,36.2362,570.00,92.00,37.60,14.89,310.00,4.00,0.00,29.86,1008.50,10.00,M,CLR,M,M,M,M,M,M,M,M,M,M,M,M,M,M,87.77,KLSV 222055Z AUTO 31004KT 10SM CLR 33/03 A2986 RMK AO2 SLP085 T03330031 57026 $,M
EKO,2024-09-22 20:56,-115.7860,40.8242,1367.00,75.00,22.00,13.65,250.00,9.00,0.00,30.14,1017.10,10.00,M,CLR,M,M,M,M,M,M,M,M,M,M,M,M,M,M,75.00,KEKO 222056Z AUTO 25009KT 10SM CLR 24/M06 A3014 RMK AO2 SLP171 T02391056 58020,M
WMC,2024-09-22 20:56,-117.8072,40.9019,1315.00,78.00,24.00,13.44,M,M,0.00,30.13,1017.50,10.00,M,CLR,M,M,M,M,M,M,M,M,M,M,M,M,M,M,78.00,KWMC 222056Z AUTO 10SM CLR 26/M04 A3013 RMK AO2 SLP175 T02561044 58016,M
HND,2024-09-22 20:56,-115.1344,35.9729,742.79,89.00,42.00,19.41,0.00,0.00,0.00,29.95,1013.00,7.00,M,CLR,M,M,M,M,M,M,M,M,M,M,M,M,M,M,85.36,KHND 222056Z 00000KT 7SM CLR 32/06 A2995 RMK AO2 SLP130 T03170056 58024,M
TPH,2024-09-22 20:56,-117.0904,38.0505,1654.00,78.00,25.00,14.01,270.00,7.00,0.00,30.13,1013.80,10.00,18.00,CLR,M,M,M,M,M,M,M,M,M,M,M,M,M,M,78.00,KTPH 222056Z AUTO 27007G18KT 10SM CLR 26/M04 A3013 RMK AO2 SLP138 T02561039 58016 $,M
LAS,2024-09-22 20:56,-115.1634,36.0719,663.00,89.00,41.00,18.68,0.00,0.00,0.00,29.92,1010.60,10.00,M,FEW,M,M,M,12000.00,M,M,M,M,M,M,M,M,M,M,85.30,KLAS 222056Z 00000KT 10SM FEW120 32/05 A2992 RMK AO2 SLP106 T03170050 58025 $,M
NFL,2024-09-22 20:57,-118.7010,39.4166,1199.00,78.00,29.00,16.53,350.00,6.00,0.00,30.11,1016.40,10.00,M,CLR,M,M,M,M,M,M,M,M,M,M,M,M,M,M,78.00,KNFL 222057Z AUTO 35006KT 10SM CLR 26/M02 A3011 RMK AO2 SLP164 T02561017 58018,M
05U,2024-09-22 21:10,-116.0051,39.6042,1811.23,71.60,21.20,14.80,0.00,0.00,0.00,30.18,M,10.00,10.00,CLR,M,M,M,M,M,M,M,M,M,M,M,M,M,M,71.60,K05U 222110Z AUTO 00000G10KT 10SM CLR 22/M06 A3018 RMK A01,M
BVU,2024-09-22 21:15,-114.8611,35.9475,671.00,91.40,39.20,16.15,M,4.00,0.00,29.88,M,10.00,10.00,CLR,M,M,M,M,M,M,M,M,M,M,M,M,M,M,87.30,KBVU 222115Z AUTO VRB04G10KT 10SM CLR 33/04 A2988 RMK AO2,M
CXP,2024-09-22 21:15,-119.7326,39.1923,1431.00,78.80,26.60,14.59,60.00,8.00,0.00,30.13,M,10.00,M,CLR,M,M,M,M,M,M,M,M,M,M,M,M,M,M,78.80,KCXP 222115Z AUTO 06008KT 10SM CLR 26/M03 A3013 RMK AO2,M
RTS,2024-09-22 21:15,-119.8764,39.6682,1539.00,75.20,23.00,14.15,M,4.00,0.00,30.15,M,10.00,M,CLR,M,M,M,M,M,M,M,M,M,M,M,M,M,M,75.20,KRTS 222115Z AUTO VRB04KT 10SM CLR 24/M05 A3015 RMK AO2,M
MEV,2024-09-22 21:15,-119.7500,38.9963,1441.42,77.00,30.20,17.94,M,4.00,0.00,30.11,M,10.00,M,CLR,M,M,M,M,M,M,M,M,M,M,M,M,M,M,77.00,KMEV 222115Z AUTO VRB04KT 10SM CLR 25/M01 A3011 RMK AO2,M
BAM,2024-09-22 21:15,-116.8743,40.5990,1382.36,77.00,26.60,15.48,0.00,0.00,0.00,30.14,M,10.00,M,CLR,M,M,M,M,M,M,M,M,M,M,M,M,M,M,77.00,KBAM 222115Z AUTO 00000KT 10SM CLR 25/M03 A3014 RMK AO1,M
HTH,2024-09-22 21:15,-118.6315,38.5448,1282.89,77.00,26.60,15.48,320.00,7.00,0.00,30.10,M,10.00,M,CLR,M,M,M,M,M,M,M,M,M,M,M,M,M,M,77.00,KHTH 222115Z AUTO 32007KT 10SM CLR 25/M03 A3010 RMK A01,M
TMT,2024-09-22 21:15,-117.1971,39.4643,1749.34,71.80,28.20,19.68,260.00,6.00,0.00,30.18,M,10.00,M,CLR,M,M,M,M,M,M,M,M,M,M,M,M,M,M,71.80,KTMT 222115Z AUTO 26006KT 10SM CLR 22/M02 A3018 RMK AO2 T02211021,M
10U,2024-09-22 21:15,-116.1876,41.9532,1637.00,71.60,28.40,19.98,M,5.00,0.00,30.17,M,10.00,M,CLR,M,M,M,M,M,M,M,M,M,M,M,M,M,M,71.60,K10U 222115Z AUTO VRB05KT 10SM CLR 22/M02 A3017 RMK AO2,M
05U,2024-09-22 21:30,-116.0051,39.6042,1811.23,73.40,21.20,13.93,20.00,7.00,0.00,30.18,M,10.00,M,CLR,M,M,M,M,M,M,M,M,M,M,M,M,M,M,73.40,K05U 222130Z AUTO 02007KT 10SM CLR 23/M06 A3018 RMK A01,M
BVU,2024-09-22 21:35,-114.8611,35.9475,671.00,91.40,39.20,16.15,M,5.00,0.00,29.88,M,10.00,M,CLR,M,M,M,M,M,M,M,M,M,M,M,M,M,M,87.30,KBVU 222135Z AUTO VRB05KT 10SM CLR 33/04 A2988 RMK AO2,M
CXP,2024-09-22 21:35,-119.7326,39.1923,1431.00,78.80,26.60,14.59,70.00,6.00,0.00,30.12,M,10.00,M,CLR,M,M,M,M,M,M,M,M,M,M,M,M,M,M,78.80,KCXP 222135Z AUTO 07006KT 10SM CLR 26/M03 A3012 RMK AO2,M
RTS,2024-09-22 21:35,-119.8764,39.6682,1539.00,75.20,21.20,13.11,40.00,6.00,0.00,30.14,M,10.00,M,CLR,M,M,M,M,M,M,M,M,M,M,M,M,M,M,75.20,KRTS 222135Z AUTO 04006KT 10SM CLR 24/M06 A3014 RMK AO2,M
MEV,2024-09-22 21:35,-119.7500,38.9963,1441.42,78.80,30.20,16.90,340.00,8.00,0.00,30.10,M,10.00,M,CLR,M,M,M,M,M,M,M,M,M,M,M,M,M,M,78.80,KMEV 222135Z AUTO 34008KT 10SM CLR 26/M01 A3010 RMK AO2,M
BAM,2024-09-22 21:35,-116.8743,40.5990,1382.36,77.00,26.60,15.48,320.00,5.00,0.00,30.13,M,10.00,M,CLR,M,M,M,M,M,M,M,M,M,M,M,M,M,M,77.00,KBAM 222135Z AUTO 32005KT 10SM CLR 25/M03 A3013 RMK AO1,M
HTH,2024-09-22 21:35,-118.6315,38.5448,1282.89,77.00,26.60,15.48,330.00,10.00,0.00,30.09,M,10.00,15.00,CLR,M,M,M,M,M,M,M,M,M,M,M,M,M,M,77.00,KHTH 222135Z AUTO 33010G15KT 10SM CLR 25/M03 A3009 RMK A01,M
TMT,2024-09-22 21:35,-117.1971,39.4643,1749.34,73.20,27.50,18.24,0.00,0.00,0.00,30.18,M,10.00,M,CLR,M,M,M,M,M,M,M,M,M,M,M,M,M,M,73.20,KTMT 222135Z AUTO 00000KT 10SM CLR 23/M02 A3018 RMK AO2 T02291025,M
10U,2024-09-22 21:35,-116.1876,41.9532,1637.00,73.40,26.60,17.46,0.00,0.00,0.00,30.16,M,10.00,M,CLR,M,M,M,M,M,M,M,M,M,M,M,M,M,M,73.40,K10U 222135Z AUTO 00000KT 10SM CLR 23/M03 A3016 RMK AO2,M
05U,2024-09-22 21:50,-116.0051,39.6042,1811.23,73.40,19.40,12.90,0.00,0.00,0.00,30.17,M,10.00,10.00,CLR,M,M,M,M,M,M,M,M,M,M,M,M,M,M,73.40,K05U 222150Z AUTO 00000G10KT 10SM CLR 23/M07 A3017 RMK A01,M
P68,2024-09-22 21:53,-116.0056,39.6014,1993.00,76.00,21.00,12.66,M,5.00,0.00,30.14,1014.90,M,M,M,M,M,M,M,M,M,M,M,M,M,M,M,M,M,76.00,KP68 222153Z AUTO VRB05KT 24/M06 A3014 RMK AO1 SLP149 T02441061,M
DRA,2024-09-22 21:53,-116.0278,36.6206,1009.00,92.00,34.00,12.91,240.00,8.00,0.00,29.94,1009.20,10.00,M,CLR,M,M,M,M,M,M,M,M,M,M,M,M,M,M,87.64,KDRA 222153Z AUTO 24008KT 10SM CLR 33/01 A2994 RMK AO2 SLP092 T03330011,M
ELY,2024-09-22 21:53,-114.8453,39.2950,1909.00,76.00,27.00,16.27,0.00,0.00,0.00,30.13,1013.10,10.00,M,CLR,M,M,M,M,M,M,M,M,M,M,M,M,M,M,76.00,KELY 222153Z AUTO 00000KT 10SM CLR 24/M03 A3013 RMK AO2 SLP131 T02441028,M
VGT,2024-09-22 21:53,-115.1933,36.2111,667.00,93.00,40.00,15.85,0.00,0.00,0.00,29.88,1010.90,10.00,M,CLR,M,M,M,M,M,M,M,M,M,M,M,M,M,M,88.78,KVGT 222153Z 00000KT 10SM CLR 34/04 A2988 RMK AO2 SLP109 T03390044,M
LOL,2024-09-22 21:53,-118.5701,40.0684,1192.43,77.00,M,M,140.00,6.00,0.00,30.08,1016.30,10.00,M,CLR,M,M,M,M,M,M,M,M,M,M,M,M,M,M,M,KLOL 222153Z AUTO 14006KT 10SM CLR 25/ A3008 RMK AO2 SLP163 T0250 $,M
BVU,2024-09-22 21:55,-114.8611,35.9475,671.00,91.40,39.20,16.15,M,6.00,0.00,29.87,M,10.00,M,CLR,M,M,M,M,M,M,M,M,M,M,M,M,M,M,87.30,KBVU 222155Z AUTO VRB06KT 10SM CLR 33/04 A2987 RMK AO2,M
RNO,2024-09-22 21:55,-119.7711,39.4839,1341.00,79.00,25.00,13.56,M,3.00,0.00,30.09,1014.30,10.00,M,FEW,M,M,M,8000.00,M,M,M,M,M,M,M,M,M,M,79.00,KRNO 222155Z VRB03KT 10SM FEW080 26/M04 A3009 RMK AO2 SLP143 T02611039,M
CXP,2024-09-22 21:55,-119.7326,39.1923,1431.00,78.80,26.60,14.59,70.00,10.00,0.00,30.11,M,10.00,M,CLR,M,M,M,M,M,M,M,M,M,M,M,M,M,M,78.80,KCXP 222155Z AUTO 07010KT 10SM CLR 26/M03 A3011 RMK AO2,M
RTS,2024-09-22 21:55,-119.8764,39.6682,1539.00,77.00,21.20,12.35,80.00,8.00,0.00,30.14,M,10.00,M,CLR,M,M,M,M,M,M,M,M,M,M,M,M,M,M,77.00,KRTS 222155Z AUTO 08008KT 10SM CLR 25/M06 A3014 RMK AO2,M
MEV,2024-09-22 21:55,-119.7500,38.9963,1441.42,78.80,30.20,16.90,340.00,7.00,0.00,30.09,M,10.00,M,CLR,M,M,M,M,M,M,M,M,M,M,M,M,M,M,78.80,KMEV 222155Z AUTO 34007KT 10SM CLR 26/M01 A3009 RMK AO2,M
BAM,2024-09-22 21:55,-116.8743,40.5990,1382.36,78.80,26.60,14.59,350.00,8.00,0.00,30.13,M,10.00,M,CLR,M,M,M,M,M,M,M,M,M,M,M,M,M,M,78.80,KBAM 222155Z AUTO 35008KT 10SM CLR 26/M03 A3013 RMK AO1,M
HTH,2024-09-22 21:55,-118.6315,38.5448,1282.89,77.00,24.80,14.37,330.00,10.00,0.00,30.09,M,10.00,M,CLR,M,M,M,M,M,M,M,M,M,M,M,M,M,M,77.00,KHTH 222155Z AUTO 33010KT 10SM CLR 25/M04 A3009 RMK A01,M
TMT,2024-09-22 21:55,-117.1971,39.4643,1749.34,73.40,28.00,18.49,350.00,4.00,0.00,30.17,M,10.00,M,CLR,M,M,M,M,M,M,M,M,M,M,M,M,M,M,73.40,KTMT 222155Z AUTO 35004KT 10SM CLR 23/M02 A3017 RMK AO2 T02301023,M
10U,2024-09-22 21:55,-116.1876,41.9532,1637.00,71.60,26.60,18.55,0.00,0.00,0.00,30.15,M,10.00,M,CLR,M,M,M,M,M,M,M,M,M,M,M,M,M,M,71.60,K10U 222155Z AUTO 00000KT 10SM CLR 22/M03 A3015 RMK AO2,M
INS,2024-09-22 21:55,-115.6733,36.5872,955.00,89.60,26.00,10.05,0.00,0.00,0.00,29.93,1008.50,10.00,M,CLR,M,M,M,M,M,M,M,M,M,M,M,M,M,M,84.97,KINS 222155Z AUTO 00000KT 10SM CLR 32/M03 A2993 RMK AO2 SLP085 T03201034,M
LSV,2024-09-22 21:55,-115.0343,36.2362,570.00,93.20,35.00,12.94,0.00,0.00,0.00,29.83,1007.40,10.00,M,CLR,M,M,M,M,M,M,M,M,M,M,M,M,M,M,88.72,KLSV 222155Z AUTO 00000KT 10SM CLR 34/02 A2983 RMK AO2 SLP074 T03400017 $,M
EKO,2024-09-22 21:56,-115.7860,40.8242,1367.00,76.00,19.00,11.62,M,5.00,0.00,30.12,1016.40,10.00,14.00,CLR,M,M,M,M,M,M,M,M,M,M,M,M,M,M,76.00,KEKO 222156Z AUTO VRB05G14KT 10SM CLR 24/M07 A3012 RMK AO2 SLP164 T02441072,M
WMC,2024-09-22 21:56,-117.8072,40.9019,1315.00,79.00,19.00,10.53,10.00,4.00,0.00,30.11,1017.00,10.00,M,CLR,M,M,M,M,M,M,M,M,M,M,M,M,M,M,79.00,KWMC 222156Z AUTO 01004KT 10SM CLR 26/M07 A3011 RMK AO2 SLP170 T02611072,M
HND,2024-09-22 21:56,-115.1344,35.9729,742.79,91.00,41.00,17.54,20.00,5.00,0.00,29.92,1012.10,10.00,M,CLR,M,M,M,M,M,M,M,M,M,M,M,M,M,M,87.04,KHND 222156Z 02005KT 10SM CLR 33/05 A2992 RMK AO2 SLP121 T03280050,M
TPH,2024-09-22 21:56,-117.0904,38.0505,1654.00,79.00,24.00,13.01,M,5.00,0.00,30.11,1012.80,10.00,M,CLR,M,M,M,M,M,M,M,M,M,M,M,M,M,M,79.00,KTPH 222156Z AUTO VRB05KT 10SM CLR 26/M04 A3011 RMK AO2 SLP128 T02611044 $,M
LAS,2024-09-22 21:56,-115.1634,36.0719,663.00,90.00,39.00,16.74,0.00,0.00,0.00,29.89,1009.70,10.00,M,FEW,M,M,M,12000.00,M,M,M,M,M,M,M,M,M,M,86.07,KLAS 222156Z 00000KT 10SM FEW120 32/04 A2989 RMK AO2 SLP097 T03220039 $,M
NFL,2024-09-22 21:57,-118.7010,39.4166,1199.00,79.00,28.00,15.35,50.00,3.00,0.00,30.08,1015.50,10.00,M,CLR,M,M,M,M,M,M,M,M,M,M,M,M,M,M,79.00,KNFL 222157Z AUTO 05003KT 10SM CLR 26/M02 A3008 RMK AO2 SLP155 T02611022,M
05U,2024-09-22 22:10,-116.0051,39.6042,1811.23,73.40,19.40,12.90,0.00,0.00,0.00,30.17,M,10.00,10.00,CLR,M,M,M,M,M,M,M,M,M,M,M,M,M,M,73.40,K05U 222210Z AUTO 00000G10KT 10SM CLR 23/M07 A3017 RMK A01,M
BVU,2024-09-22 22:15,-114.8611,35.9475,671.00,91.40,37.40,15.05,0.00,0.00,0.00,29.86,M,10.00,M,CLR,M,M,M,M,M,M,M,M,M,M,M,M,M,M,87.23,KBVU 222215Z AUTO 00000KT 10SM CLR 33/03 A2986 RMK AO2,M
CXP,2024-09-22 22:15,-119.7326,39.1923,1431.00,78.80,26.60,14.59,80.00,7.00,0.00,30.10,M,10.00,14.00,CLR,M,M,M,M,M,M,M,M,M,M,M,M,M,M,78.80,KCXP 222215Z AUTO 08007G14KT 10SM CLR 26/M03 A3010 RMK AO2,M
RTS,2024-09-22 22:15,-119.8764,39.6682,1539.00,77.00,21.20,12.35,70.00,8.00,0.00,30.14,M,10.00,M,CLR,M,M,M,M,M,M,M,M,M,M,M,M,M,M,77.00,KRTS 222215Z AUTO 07008KT 10SM CLR 25/M06 A3014 RMK AO2,M
MEV,2024-09-22 22:15,-119.7500,38.9963,1441.42,80.60,28.40,14.81,290.00,8.00,0.00,30.09,M,9.00,M,CLR,M,M,M,M,M,M,M,M,M,M,M,M,M,M,78.72,KMEV 222215Z AUTO 29008KT 9SM CLR 27/M02 A3009 RMK AO2,M
BAM,2024-09-22 22:15,-116.8743,40.5990,1382.36,78.80,26.60,14.59,320.00,5.00,0.00,30.12,M,10.00,M,CLR,M,M,M,M,M,M,M,M,M,M,M,M,M,M,78.80,KBAM 222215Z AUTO 32005KT 10SM CLR 26/M03 A3012 RMK AO1,M
HTH,2024-09-22 22:15,-118.6315,38.5448,1282.89,78.80,26.60,14.59,310.00,10.00,0.00,30.09,M,10.00,M,CLR,M,M,M,M,M,M,M,M,M,M,M,M,M,M,78.80,KHTH 222215Z AUTO 31010KT 10SM CLR 26/M03 A3009 RMK A01,M
TMT,2024-09-22 22:15,-117.1971,39.4643,1749.34,73.40,28.60,18.95,360.00,6.00,0.00,30.17,M,10.00,M,CLR,M,M,M,M,M,M,M,M,M,M,M,M,M,M,73.40,KTMT 222215Z AUTO 36006KT 10SM CLR 23/M02 A3017 RMK AO2 T02301019,M
10U,2024-09-22 22:15,-116.1876,41.9532,1637.00,73.40,24.80,16.20,250.00,6.00,0.00,30.15,M,10.00,M,CLR,M,M,M,M,M,M,M,M,M,M,M,M,M,M,73.40,K10U 222215Z AUTO 25006KT 10SM CLR 23/M04 A3015 RMK AO2,M
05U,2024-09-22 22:30,-116.0051,39.6042,1811.23,75.20,19.40,12.14,0.00,0.00,0.00,30.16,M,10.00,12.00,CLR,M,M,M,M,M,M,M,M,M,M,M,M,M,M,75.20,K05U 222230Z AUTO 00000G12KT 10SM CLR 24/M07 A3016 RMK A01,M
BVU,2024-09-22 22:35,-114.8611,35.9475,671.00,93.20,35.60,13.25,50.00,5.00,0.00,29.86,M,10.00,12.00,CLR,M,M,M,M,M,M,M,M,M,M,M,M,M,M,88.76,KBVU 222235Z AUTO 05005G12KT 10SM CLR 34/02 A2986 RMK AO2,M
CXP,2024-09-22 22:35,-119.7326,39.1923,1431.00,80.60,26.60,13.75,70.00,10.00,0.00,30.10,M,10.00,16.00,CLR,M,M,M,M,M,M,M,M,M,M,M,M,M,M,78.68,KCXP 222235Z AUTO 07010G16KT 10SM CLR 27/M03 A3010 RMK AO2,M
RTS,2024-09-22 22:35,-119.8764,39.6682,1539.00,77.00,19.40,11.44,90.00,6.00,0.00,30.13,M,10.00,M,CLR,M,M,M,M,M,M,M,M,M,M,M,M,M,M,77.00,KRTS 222235Z AUTO 09006KT 10SM CLR 25/M07 A3013 RMK AO2,M
MEV,2024-09-22 22:35,-119.7500,38.9963,1441.42,80.60,28.40,14.81,320.00,8.00,0.00,30.08,M,10.00,M,CLR,M,M,M,M,M,M,M,M,M,M,M,M,M,M,78.72,KMEV 222235Z AUTO 32008KT 10SM CLR 27/M02 A3008 RMK AO2,M
BAM,2024-09-22 22:35,-116.8743,40.5990,1382.36,78.80,26.60,14.59,350.00,5.00,0.00,30.12,M,10.00,M,CLR,M,M,M,M,M,M,M,M,M,M,M,M,M,M,78.80,KBAM 222235Z AUTO 35005KT 10SM CLR 26/M03 A3012 RMK AO1,M
HTH,2024-09-22 22:35,-118.6315,38.5448,1282.89,78.80,24.80,13.54,310.00,12.00,0.00,30.08,M,10.00,M,CLR,M,M,M,M,M,M,M,M,M,M,M,M,M,M,78.80,KHTH 222235Z AUTO 31012KT 10SM CLR 26/M04 A3008 RMK A01,M
TMT,2024-09-22 22:35,-117.1971,39.4643,1749.34,74.00,30.00,19.67,350.00,4.00,0.00,30.16,M,10.00,M,CLR,M,M,M,M,M,M,M,M,M,M,M,M,M,M,74.00,KTMT 222235Z AUTO 35004KT 10SM CLR 23/M01 A3016 RMK AO2 T02331012,M
10U,2024-09-22 22:35,-116.1876,41.9532,1637.00,73.40,23.00,15.03,160.00,3.00,0.00,30.15,M,10.00,M,CLR,M,M,M,M,M,M,M,M,M,M,M,M,M,M,73.40,K10U 222235Z AUTO 16003KT 10SM CLR 23/M05 A3015 RMK AO2,M
05U,2024-09-22 22:50,-116.0051,39.6042,1811.23,75.20,19.40,12.14,0.00,0.00,0.00,30.16,M,10.00,M,CLR,M,M,M,M,M,M,M,M,M,M,M,M,M,M,75.20,K05U 222250Z AUTO 00000KT 10SM CLR 24/M07 A3016 RMK A01,M
P68,2024-09-22 22:53,-116.0056,39.6014,1993.00,76.00,21.00,12.66,20.00,8.00,0.00,30.13,1014.60,M,M,M,M,M,M,M,M,M,M,M,M,M,M,M,M,M,76.00,KP68 222253Z AUTO 02008KT 24/M06 A3013 RMK AO1 SLP146 T02441061,M
DRA,2024-09-22 22:53,-116.0278,36.6206,1009.00,93.00,34.00,12.51,270.00,7.00,0.00,29.93,1008.90,10.00,M,CLR,M,M,M,M,M,M,M,M,M,M,M,M,M,M,88.42,KDRA 222253Z AUTO 27007KT 10SM CLR 34/01 A2993 RMK AO2 SLP089 T03390011,M
ELY,2024-09-22 22:53,-114.8453,39.2950,1909.00,77.00,26.00,15.10,70.00,4.00,0.00,30.13,1012.60,10.00,M,CLR,M,M,M,M,M,M,M,M,M,M,M,M,M,M,77.00,KELY 222253Z AUTO 07004KT 10SM CLR 25/M03 A3013 RMK AO2 SLP126 T02501033,M
VGT,2024-09-22 22:53,-115.1933,36.2111,667.00,95.00,39.00,14.33,M,3.00,0.00,29.86,1010.10,10.00,M,CLR,M,M,M,M,M,M,M,M,M,M,M,M,M,M,90.55,KVGT 222253Z VRB03KT 10SM CLR 35/04 A2986 RMK AO2 SLP101 T03500039,M
LOL,2024-09-22 22:53,-118.5701,40.0684,1192.43,79.00,M,M,100.00,6.00,0.00,30.07,1015.30,10.00,M,CLR,M,M,M,M,M,M,M,M,M,M,M,M,M,M,M,KLOL 222253Z AUTO 10006KT 10SM CLR 26/ A3007 RMK AO2 SLP153 T0261 $,M
BVU,2024-09-22 22:55,-114.8611,35.9475,671.00,93.20,37.40,14.23,M,4.00,0.00,29.85,M,10.00,M,CLR,M,M,M,M,M,M,M,M,M,M,M,M,M,M,88.83,KBVU 222255Z AUTO VRB04KT 10SM CLR 34/03 A2985 RMK AO2,M
RNO,2024-09-22 22:55,-119.7711,39.4839,1341.00,81.00,26.00,13.24,0.00,0.00,0.00,30.07,1013.90,10.00,M,FEW,M,M,M,8000.00,M,M,M,M,M,M,M,M,M,M,78.94,KRNO 222255Z 00000KT 10SM FEW080 27/M03 A3007 RMK AO2 SLP139 T02721033,M
CXP,2024-09-22 22:55,-119.7326,39.1923,1431.00,80.60,26.60,13.75,70.00,12.00,0.00,30.09,M,10.00,M,CLR,M,M,M,M,M,M,M,M,M,M,M,M,M,M,78.68,KCXP 222255Z AUTO 07012KT 10SM CLR 27/M03 A3009 RMK AO2,M
RTS,2024-09-22 22:55,-119.8764,39.6682,1539.00,77.00,19.40,11.44,90.00,6.00,0.00,30.13,M,10.00,M,CLR,M,M,M,M,M,M,M,M,M,M,M,M,M,M,77.00,KRTS 222255Z AUTO 09006KT 10SM CLR 25/M07 A3013 RMK AO2,M
MEV,2024-09-22 22:55,-119.7500,38.9963,1441.42,80.60,28.40,14.81,330.00,7.00,0.00,30.07,M,10.00,M,CLR,M,M,M,M,M,M,M,M,M,M,M,M,M,M,78.72,KMEV 222255Z AUTO 33007KT 10SM CLR 27/M02 A3007 RMK AO2,M
BAM,2024-09-22 22:55,-116.8743,40.5990,1382.36,78.80,24.80,13.54,320.00,5.00,0.00,30.11,M,10.00,M,CLR,M,M,M,M,M,M,M,M,M,M,M,M,M,M,78.80,KBAM 222255Z AUTO 32005KT 10SM CLR 26/M04 A3011 RMK AO1,M
HTH,2024-09-22 22:55,-118.6315,38.5448,1282.89,78.80,26.60,14.59,320.00,12.00,0.00,30.07,M,10.00,M,CLR,M,M,M,M,M,M,M,M,M,M,M,M,M,M,78.80,KHTH 222255Z AUTO 32012KT 10SM CLR 26/M03 A3007 RMK A01,M
TMT,2024-09-22 22:55,-117.1971,39.4643,1749.34,74.50,30.40,19.66,350.00,7.00,0.00,30.16,M,10.00,M,CLR,M,M,M,M,M,M,M,M,M,M,M,M,M,M,74.50,KTMT 222255Z AUTO 35007KT 10SM CLR 24/M01 A3016 RMK AO2 T02361009,M
10U,2024-09-22 22:55,-116.1876,41.9532,1637.00,73.40,24.80,16.20,M,5.00,0.00,30.14,M,10.00,M,CLR,M,M,M,M,M,M,M,M,M,M,M,M,M,M,73.40,K10U 222255Z AUTO VRB05KT 10SM CLR 23/M04 A3014 RMK AO2,M
INS,2024-09-22 22:55,-115.6733,36.5872,955.00,90.50,26.40,9.93,110.00,3.00,0.00,29.91,1008.30,10.00,M,CLR,M,M,M,M,M,M,M,M,M,M,M,M,M,M,85.67,KINS 222255Z AUTO 11003KT 10SM CLR 33/M03 A2991 RMK AO2 SLP083 T03251031,M
LSV,2024-09-22 22:55,-115.0343,36.2362,570.00,94.00,33.60,11.94,200.00,4.00,0.00,29.81,1006.80,10.00,M,CLR,M,M,M,M,M,M,M,M,M,M,M,M,M,M,89.15,KLSV 222255Z AUTO 20004KT 10SM CLR 34/01 A2981 RMK AO2 SLP068 T03440009 $,M
EKO,2024-09-22 22:56,-115.7860,40.8242,1367.00,77.00,21.00,12.24,260.00,5.00,0.00,30.10,1015.80,10.00,M,CLR,M,M,M,M,M,M,M,M,M,M,M,M,M,M,77.00,KEKO 222256Z AUTO 26005KT 10SM CLR 25/M06 A3010 RMK AO2 SLP158 T02501061,M
WMC,2024-09-22 22:56,-117.8072,40.9019,1315.00,80.00,20.00,10.63,300.00,5.00,0.00,30.10,1016.50,10.00,M,CLR,M,M,M,M,M,M,M,M,M,M,M,M,M,M,78.00,KWMC 222256Z AUTO 30005KT 10SM CLR 27/M07 A3010 RMK AO2 SLP165 T02671067,M
HND,2024-09-22 22:56,-115.1344,35.9729,742.79,92.00,40.00,16.35,10.00,4.00,0.00,29.90,1011.50,10.00,M,CLR,M,M,M,M,M,M,M,M,M,M,M,M,M,M,87.88,KHND 222256Z 01004KT 10SM CLR 33/04 A2990 RMK AO2 SLP115 T03330044,M
TPH,2024-09-22 22:56,-117.0904,38.0505,1654.00,80.00,21.00,11.09,300.00,7.00,0.00,30.10,1013.00,10.00,M,CLR,M,M,M,M,M,M,M,M,M,M,M,M,M,M,78.06,KTPH 222256Z AUTO 30007KT 260V350 10SM CLR 27/M06 A3010 RMK AO2 SLP130 T02671061 $,M
LAS,2024-09-22 22:56,-115.1634,36.0719,663.00,93.00,38.00,14.66,30.00,3.00,0.00,29.87,1009.00,10.00,M,FEW,M,M,M,12000.00,M,M,M,M,M,M,M,M,M,M,88.68,KLAS 222256Z 03003KT 10SM FEW120 34/03 A2987 RMK AO2 SLP090 T03390033 $,M
NFL,2024-09-22 22:57,-118.7010,39.4166,1199.00,81.00,27.00,13.80,50.00,8.00,0.00,30.07,1014.90,10.00,M,CLR,M,M,M,M,M,M,M,M,M,M,M,M,M,M,78.96,KNFL 222257Z AUTO 05008KT 10SM CLR 27/M03 A3007 RMK AO2 SLP149 T02721028,M
05U,2024-09-22 23:10,-116.0051,39.6042,1811.23,75.20,19.40,12.14,0.00,0.00,0.00,30.16,M,10.00,11.00,CLR,M,M,M,M,M,M,M,M,M,M,M,M,M,M,75.20,K05U 222310Z AUTO 00000G11KT 10SM CLR 24/M07 A3016 RMK A01,M
BVU,2024-09-22 23:15,-114.8611,35.9475,671.00,93.20,35.60,13.25,30.00,5.00,0.00,29.85,M,10.00,M,CLR,M,M,M,M,M,M,M,M,M,M,M,M,M,M,88.76,KBVU 222315Z AUTO 03005KT 10SM CLR 34/02 A2985 RMK AO2,M
CXP,2024-09-22 23:15,-119.7326,39.1923,1431.00,80.60,26.60,13.75,70.00,14.00,0.00,30.09,M,10.00,M,CLR,M,M,M,M,M,M,M,M,M,M,M,M,M,M,78.68,KCXP 222315Z AUTO 07014KT 10SM CLR 27/M03 A3009 RMK AO2,M
RTS,2024-09-22 23:15,-119.8764,39.6682,1539.00,77.00,17.60,10.59,M,5.00,0.00,30.12,M,10.00,M,CLR,M,M,M,M,M,M,M,M,M,M,M,M,M,M,77.00,KRTS 222315Z AUTO VRB05KT 10SM CLR 25/M08 A3012 RMK AO2,M
MEV,2024-09-22 23:15,-119.7500,38.9963,1441.42,80.60,28.40,14.81,310.00,8.00,0.00,30.07,M,10.00,M,CLR,M,M,M,M,M,M,M,M,M,M,M,M,M,M,78.72,KMEV 222315Z AUTO 31008KT 10SM CLR 27/M02 A3007 RMK AO2,M
BAM,2024-09-22 23:15,-116.8743,40.5990,1382.36,78.80,23.00,12.55,320.00,5.00,0.00,30.11,M,10.00,M,CLR,M,M,M,M,M,M,M,M,M,M,M,M,M,M,78.80,KBAM 222315Z AUTO 32005KT 10SM CLR 26/M05 A3011 RMK AO1,M
HTH,2024-09-22 23:15,-118.6315,38.5448,1282.89,78.80,26.60,14.59,310.00,12.00,0.00,30.07,M,10.00,M,CLR,M,M,M,M,M,M,M,M,M,M,M,M,M,M,78.80,KHTH 222315Z AUTO 31012KT 10SM CLR 26/M03 A3007 RMK A01,M
TMT,2024-09-22 23:15,-117.1971,39.4643,1749.34,73.60,30.00,19.93,340.00,7.00,0.00,30.16,M,10.00,M,CLR,M,M,M,M,M,M,M,M,M,M,M,M,M,M,73.60,KTMT 222315Z AUTO 34007KT 10SM CLR 23/M01 A3016 RMK AO2 T02311011,M
10U,2024-09-22 23:15,-116.1876,41.9532,1637.00,73.40,23.00,15.03,310.00,3.00,0.00,30.14,M,10.00,M,CLR,M,M,M,M,M,M,M,M,M,M,M,M,M,M,73.40,K10U 222315Z AUTO 31003KT 10SM CLR 23/M05 A3014 RMK AO2,M
05U,2024-09-22 23:30,-116.0051,39.6042,1811.23,75.20,19.40,12.14,30.00,4.00,0.00,30.16,M,10.00,13.00,CLR,M,M,M,M,M,M,M,M,M,M,M,M,M,M,75.20,K05U 222330Z AUTO 03004G13KT 10SM CLR 24/M07 A3016 RMK A01,M
BVU,2024-09-22 23:35,-114.8611,35.9475,671.00,93.20,35.60,13.25,30.00,4.00,0.00,29.84,M,10.00,M,CLR,M,M,M,M,M,M,M,M,M,M,M,M,M,M,88.76,KBVU 222335Z AUTO 03004KT 10SM CLR 34/02 A2984 RMK AO2,M
CXP,2024-09-22 23:35,-119.7326,39.1923,1431.00,80.60,26.60,13.75,80.00,14.00,0.00,30.09,M,10.00,M,CLR,M,M,M,M,M,M,M,M,M,M,M,M,M,M,78.68,KCXP 222335Z AUTO 08014KT 10SM CLR 27/M03 A3009 RMK AO2,M
RTS,2024-09-22 23:35,-119.8764,39.6682,1539.00,77.00,19.40,11.44,130.00,6.00,0.00,30.12,M,10.00,M,CLR,M,M,M,M,M,M,M,M,M,M,M,M,M,M,77.00,KRTS 222335Z AUTO 13006KT 10SM CLR 25/M07 A3012 RMK AO2,M
MEV,2024-09-22 23:35,-119.7500,38.9963,1441.42,80.60,28.40,14.81,330.00,9.00,0.00,30.07,M,10.00,M,CLR,M,M,M,M,M,M,M,M,M,M,M,M,M,M,78.72,KMEV 222335Z AUTO 33009KT 10SM CLR 27/M02 A3007 RMK AO2,M
BAM,2024-09-22 23:35,-116.8743,40.5990,1382.36,78.80,23.00,12.55,350.00,4.00,0.00,30.10,M,10.00,M,CLR,M,M,M,M,M,M,M,M,M,M,M,M,M,M,78.80,KBAM 222335Z AUTO 35004KT 10SM CLR 26/M05 A3010 RMK AO1,M
HTH,2024-09-22 23:35,-118.6315,38.5448,1282.89,78.80,26.60,14.59,320.00,14.00,0.00,30.06,M,10.00,M,CLR,M,M,M,M,M,M,M,M,M,M,M,M,M,M,78.80,KHTH 222335Z AUTO 32014KT 10SM CLR 26/M03 A3006 RMK A01,M
TMT,2024-09-22 23:35,-117.1971,39.4643,1749.34,73.80,30.60,20.29,340.00,7.00,0.00,30.16,M,10.00,M,CLR,M,M,M,M,M,M,M,M,M,M,M,M,M,M,73.80,KTMT 222335Z AUTO 34007KT 10SM CLR 23/M01 A3016 RMK AO2 T02321008,M
10U,2024-09-22 23:35,-116.1876,41.9532,1637.00,73.40,26.60,17.46,M,5.00,0.00,30.14,M,10.00,M,CLR,M,M,M,M,M,M,M,M,M,M,M,M,M,M,73.40,K10U 222335Z AUTO VRB05KT 10SM CLR 23/M03 A3014 RMK AO2,M
05U,2024-09-22 23:50,-116.0051,39.6042,1811.23,75.20,19.40,12.14,0.00,0.00,0.00,30.16,M,10.00,14.00,CLR,M,M,M,M,M,M,M,M,M,M,M,M,M,M,75.20,K05U 222350Z AUTO 00000G14KT 10SM CLR 24/M07 A3016 RMK A01,M
P68,2024-09-22 23:53,-116.0056,39.6014,1993.00,76.00,21.00,12.66,20.00,9.00,0.00,30.13,1014.50,M,M,M,M,M,M,M,M,M,M,M,M,M,M,M,M,M,76.00,KP68 222353Z AUTO 02009KT 24/M06 A3013 RMK AO1 SLP145 T02441061 10250 20189 56010,M
DRA,2024-09-22 23:53,-116.0278,36.6206,1009.00,91.00,34.00,13.32,200.00,9.00,0.00,29.92,1008.70,10.00,M,CLR,M,M,M,M,M,M,M,M,M,M,M,M,M,M,86.79,KDRA 222353Z AUTO 20009KT 10SM CLR 33/01 A2992 RMK AO2 SLP087 T03280011 10344 20300 56015,M
ELY,2024-09-22 23:53,-114.8453,39.2950,1909.00,76.00,28.00,16.95,20.00,11.00,0.00,30.12,1012.70,10.00,17.00,CLR,M,M,M,M,M,M,M,M,M,M,M,M,M,M,76.00,KELY 222353Z AUTO 02011G17KT 10SM CLR 24/M02 A3012 RMK AO2 SLP127 T02441022 10256 20183 56009,M
VGT,2024-09-22 23:53,-115.1933,36.2111,667.00,94.00,38.00,14.21,200.00,4.00,0.00,29.84,1009.80,10.00,M,CLR,M,M,M,M,M,M,M,M,M,M,M,M,M,M,89.58,KVGT 222353Z 20004KT 10SM CLR 34/03 A2984 RMK AO2 SLP098 T03440033 10356 20289 56020,M
LOL,2024-09-22 23:53,-118.5701,40.0684,1192.43,79.00,M,M,50.00,4.00,0.00,30.06,1015.60,10.00,M,CLR,M,M,M,M,M,M,M,M,M,M,M,M,M,M,M,KLOL 222353Z AUTO 05004KT 10SM CLR 26/ A3006 RMK AO2 SLP156 T0261 10267 20206 56015 $,M
BVU,2024-09-22 23:55,-114.8611,35.9475,671.00,93.20,35.60,13.25,40.00,4.00,0.00,29.84,M,10.00,M,CLR,M,M,M,M,M,M,M,M,M,M,M,M,M,M,88.76,KBVU 222355Z AUTO 04004KT 10SM CLR 34/02 A2984 RMK AO2,M
RNO,2024-09-22 23:55,-119.7711,39.4839,1341.00,81.00,26.00,13.24,M,4.00,0.00,30.06,1013.60,10.00,M,FEW,M,M,M,8000.00,M,M,M,M,M,M,M,M,M,M,78.94,KRNO 222355Z VRB04KT 10SM FEW080 27/M03 A3006 RMK AO2 SLP136 T02721033 10278 20189 56017,M
CXP,2024-09-22 23:55,-119.7326,39.1923,1431.00,78.80,26.60,14.59,60.00,12.00,0.00,30.09,M,10.00,M,CLR,M,M,M,M,M,M,M,M,M,M,M,M,M,M,78.80,KCXP 222355Z AUTO 06012KT 10SM CLR 26/M03 A3009 RMK AO2,M
LSV,2024-09-22 23:55,-115.0343,36.2362,570.00,94.00,31.50,10.97,0.00,0.00,0.00,29.80,1006.60,10.00,M,CLR,M,M,M,M,M,M,M,M,M,M,M,M,M,M,88.86,KLSV 222355Z AUTO 00000KT 10SM CLR 34/M00 A2980 RMK AO2 SLP066 T03441003 10346 20293 57019 $,M
RTS,2024-09-22 23:55,-119.8764,39.6682,1539.00,77.00,19.40,11.44,70.00,9.00,0.00,30.12,M,10.00,M,CLR,M,M,M,M,M,M,M,M,M,M,M,M,M,M,77.00,KRTS 222355Z AUTO 07009KT 10SM CLR 25/M07 A3012 RMK AO2,M
MEV,2024-09-22 23:55,-119.7500,38.9963,1441.42,80.60,26.60,13.75,320.00,8.00,0.00,30.07,M,10.00,M,CLR,M,M,M,M,M,M,M,M,M,M,M,M,M,M,78.68,KMEV 222355Z AUTO 32008KT 10SM CLR 27/M03 A3007 RMK AO2,M
BAM,2024-09-22 23:55,-116.8743,40.5990,1382.36,78.80,23.00,12.55,340.00,8.00,0.00,30.11,M,10.00,M,CLR,M,M,M,M,M,M,M,M,M,M,M,M,M,M,78.80,KBAM 222355Z AUTO 34008KT 10SM CLR 26/M05 A3011 RMK AO1,M
HTH,2024-09-22 23:55,-118.6315,38.5448,1282.89,78.80,26.60,14.59,320.00,11.00,0.00,30.07,M,10.00,M,CLR,M,M,M,M,M,M,M,M,M,M,M,M,M,M,78.80,KHTH 222355Z AUTO 32011KT 10SM CLR 26/M03 A3007 RMK A01,M
TMT,2024-09-22 23:55,-117.1971,39.4643,1749.34,73.20,29.70,19.96,350.00,4.00,0.00,30.16,M,10.00,M,CLR,M,M,M,M,M,M,M,M,M,M,M,M,M,M,73.20,KTMT 222355Z AUTO 35004KT 10SM CLR 23/M01 A3016 RMK AO2 T02291013 10236 20175,M
10U,2024-09-22 23:55,-116.1876,41.9532,1637.00,73.40,26.60,17.46,330.00,9.00,0.00,30.14,M,10.00,M,CLR,M,M,M,M,M,M,M,M,M,M,M,M,M,M,73.40,K10U 222355Z AUTO 33009KT 10SM CLR 23/M03 A3014 RMK AO2,M
INS,2024-09-22 23:55,-115.6733,36.5872,955.00,90.50,21.20,7.99,0.00,0.00,0.00,29.90,1007.70,10.00,M,CLR,M,M,M,M,M,M,M,M,M,M,M,M,M,M,85.30,KINS 222355Z AUTO 00000KT 10SM CLR 33/M06 A2990 RMK AO2 SLP077 T03251060 10330 20272 57018,M
EKO,2024-09-22 23:56,-115.7860,40.8242,1367.00,76.00,22.00,13.20,240.00,9.00,0.00,30.10,1015.80,10.00,M,CLR,M,M,M,M,M,M,M,M,M,M,M,M,M,M,76.00,KEKO 222356Z AUTO 24009KT 10SM CLR 24/M06 A3010 RMK AO2 SLP158 T02441056 10256 20178 56012,M
WMC,2024-09-22 23:56,-117.8072,40.9019,1315.00,78.00,19.00,10.88,0.00,0.00,0.00,30.09,1016.50,10.00,M,CLR,M,M,M,M,M,M,M,M,M,M,M,M,M,M,78.00,KWMC 222356Z AUTO 00000KT 10SM CLR 26/M07 A3009 RMK AO2 SLP165 T02561072 10267 20194 56012,M
HND,2024-09-22 23:56,-115.1344,35.9729,742.79,92.00,39.00,15.73,60.00,6.00,0.00,29.89,1011.10,10.00,M,CLR,M,M,M,M,M,M,M,M,M,M,M,M,M,M,87.83,KHND 222356Z 06006KT 10SM CLR 33/04 A2989 RMK AO2 SLP111 T03330039 10344 20289 56019,M
TPH,2024-09-22 23:56,-117.0904,38.0505,1654.00,79.00,22.00,11.96,320.00,11.00,0.00,30.10,1012.90,10.00,M,CLR,M,M,M,M,M,M,M,M,M,M,M,M,M,M,79.00,KTPH 222356Z AUTO 32011KT 10SM CLR 26/M06 A3010 RMK AO2 SLP129 T02611056 10272 20233 56011 $,M
LAS,2024-09-22 23:56,-115.1634,36.0719,663.00,94.00,37.00,13.66,50.00,5.00,0.00,29.86,1008.50,10.00,M,FEW,M,M,M,12000.00,M,M,M,M,M,M,M,M,M,M,89.53,KLAS 222356Z 05005KT 10SM FEW120 34/03 A2986 RMK AO2 SLP085 T03440028 10344 20283 56019 $,M
NFL,2024-09-22 23:57,-118.7010,39.4166,1199.00,81.00,26.00,13.24,360.00,5.00,0.00,30.05,1014.50,10.00,M,CLR,M,M,M,M,M,M,M,M,M,M,M,M,M,M,78.94,KNFL 222357Z AUTO 36005KT 10SM CLR 27/M03 A3005 RMK AO2 SLP145 T02721033 10278 20206 56019,M
