station,valid,lon,lat,elevation,tmpf,dwpf,relh,drct,sknt,p01i,alti,mslp,vsby,gust,skyc1,skyc2,skyc3,skyc4,skyl1,skyl2,skyl3,skyl4,wxcodes,ice_accretion_1hr,ice_accretion_3hr,ice_accretion_6hr,peak_wind_gust,peak_wind_drct,peak_wind_time,feel,metar,snowdepth
RTS,2022-06-22 00:15,-119.8764,39.6682,1539.00,80.60,14.00,8.04,110.00,9.00,0.00,30.20,M,10.00,16.00,CLR,M,M,M,M,M,M,M,M,M,M,M,M,M,M,78.25,KRTS 220015Z AUTO 11009G16KT 10SM CLR 27/M10 A3020 RMK AO2,M
CXP,2022-06-22 00:15,-119.7326,39.1923,1431.00,84.20,15.80,7.74,60.00,9.00,0.00,30.16,M,10.00,19.00,CLR,M,M,M,M,M,M,M,M,M,M,M,M,M,M,80.51,KCXP 220015Z AUTO 06009G19KT 10SM CLR 29/M09 A3016 RMK AO2,M
BVU,2022-06-22 00:15,-114.8611,35.9475,671.00,98.60,10.40,3.89,330.00,7.00,0.00,29.92,M,10.00,M,CLR,M,M,M,M,M,M,M,M,M,M,M,M,M,M,91.03,KBVU 220015Z AUTO 33007KT 10SM CLR 37/M12 A2992 RMK AO2,M
05U,2022-06-22 00:15,-116.0051,39.6042,1811.23,82.40,12.20,7.01,110.00,3.00,0.00,30.23,M,10.00,12.00,CLR,M,M,M,M,M,M,M,M,M,M,M,M,M,M,79.13,K05U 220015Z AUTO 11003G12KT 10SM CLR 28/M11 A3023 RMK A01,M
HTH,2022-06-22 00:15,-118.6315,38.5448,1282.89,86.00,14.00,6.75,330.00,13.00,0.00,30.10,M,10.00,M,CLR,M,M,M,M,M,M,M,M,M,M,M,M,M,M,81.71,KHTH 220015Z AUTO 33013KT 10SM CLR 30/M10 A3010 RMK A01,M
TMT,2022-06-22 00:15,-117.1971,39.4643,1749.34,81.30,19.90,10.14,350.00,4.00,0.00,30.20,M,10.00,21.00,CLR,M,M,M,M,M,M,M,M,M,M,M,M,M,M,78.76,KTMT 220015Z AUTO 35004G21KT 10SM CLR 27/M07 A3020 RMK AO2 T02741067,M
BAM,2022-06-22 00:15,-116.8743,40.5990,1382.36,86.00,23.00,9.94,20.00,4.00,0.00,30.17,M,10.00,M,CLR,M,M,M,M,M,M,M,M,M,M,M,M,M,M,82.14,KBAM 220015Z AUTO 02004KT 10SM CLR 30/M05 A3017 RMK AO1,M
MEV,2022-06-22 00:15,-119.7500,38.9963,1441.42,82.40,17.60,8.87,320.00,7.00,0.00,30.13,M,10.00,12.00,CLR,M,M,M,M,M,M,M,M,M,M,M,M,M,M,79.36,KMEV 220015Z AUTO 32007G12KT 10SM CLR 28/M08 A3013 RMK AO2,M
05U,2022-06-22 00:30,-116.0051,39.6042,1811.23,82.40,12.20,7.01,50.00,9.00,0.00,30.22,M,10.00,M,CLR,M,M,M,M,M,M,M,M,M,M,M,M,M,M,79.13,K05U 220030Z AUTO 05009KT 10SM CLR 28/M11 A3022 RMK A01,M
CXP,2022-06-22 00:35,-119.7326,39.1923,1431.00,84.20,15.80,7.74,40.00,12.00,0.00,30.15,M,10.00,18.00,CLR,M,M,M,M,M,M,M,M,M,M,M,M,M,M,80.51,KCXP 220035Z AUTO 04012G18KT 10SM CLR 29/M09 A3015 RMK AO2,M
RTS,2022-06-22 00:35,-119.8764,39.6682,1539.00,80.60,14.00,8.04,M,5.00,0.00,30.19,M,10.00,12.00,CLR,M,M,M,M,M,M,M,M,M,M,M,M,M,M,78.25,KRTS 220035Z AUTO VRB05G12KT 10SM CLR 27/M10 A3019 RMK AO2,M
BVU,2022-06-22 00:35,-114.8611,35.9475,671.00,98.60,10.40,3.89,M,4.00,0.00,29.92,M,10.00,M,CLR,M,M,M,M,M,M,M,M,M,M,M,M,M,M,91.03,KBVU 220035Z AUTO VRB04KT 10SM CLR 37/M12 A2992 RMK AO2,M
MEV,2022-06-22 00:35,-119.7500,38.9963,1441.42,84.20,15.80,7.74,330.00,9.00,0.00,30.13,M,10.00,M,CLR,M,M,M,M,M,M,M,M,M,M,M,M,M,M,80.51,KMEV 220035Z AUTO 33009KT 10SM CLR 29/M09 A3013 RMK AO2,M
BAM,2022-06-22 00:35,-116.8743,40.5990,1382.36,86.00,23.00,9.94,360.00,6.00,0.00,30.17,M,10.00,M,CLR,M,M,M,M,M,M,M,M,M,M,M,M,M,M,82.14,KBAM 220035Z AUTO 36006KT 10SM CLR 30/M05 A3017 RMK AO1,M
HTH,2022-06-22 00:35,-118.6315,38.5448,1282.89,86.00,14.00,6.75,320.00,12.00,0.00,30.10,M,10.00,M,CLR,M,M,M,M,M,M,M,M,M,M,M,M,M,M,81.71,KHTH 220035Z AUTO 32012KT 10SM CLR 30/M10 A3010 RMK A01,M
P68,2022-06-22 00:53,-116.0056,39.6014,1993.00,81.00,10.90,6.92,M,M,0.00,30.19,1016.10,M,M,M,M,M,M,M,M,M,M,M,M,M,M,M,M,M,78.15,KP68 220053Z AUTO 27/M12 A3019 RMK AO1 SLP161 T02721117,M
ELY,2022-06-22 00:53,-114.8453,39.2950,1909.00,79.00,14.00,8.48,50.00,4.00,0.00,30.22,1016.00,10.00,M,CLR,M,M,M,M,M,M,M,M,M,M,M,M,M,M,79.00,KELY 220053Z AUTO 05004KT 10SM CLR 26/M10 A3022 RMK AO2 SLP160 T02611100,M
DRA,2022-06-22 00:53,-116.0278,36.6206,1009.00,95.00,-6.00,2.03,210.00,9.00,0.00,29.99,1010.40,10.00,M,CLR,M,M,M,M,M,M,M,M,M,M,M,M,M,M,87.62,KDRA 220053Z AUTO 21009KT 10SM CLR 35/M21 A2999 RMK AO2 SLP104 T03501211,M
VGT,2022-06-22 00:53,-115.1933,36.2111,667.00,99.00,21.00,6.09,130.00,7.00,0.00,29.90,1011.60,10.00,M,CLR,M,M,M,M,M,M,M,M,M,M,M,M,M,M,91.93,KVGT 220053Z 13007KT 10SM CLR 37/M06 A2990 RMK AO2 SLP116 T03721061,M
LOL,2022-06-22 00:53,-118.5701,40.0684,1192.43,86.00,21.90,9.49,100.00,7.00,0.00,30.10,1016.10,10.00,M,CLR,M,M,M,M,M,M,M,M,M,M,M,M,M,M,82.08,KLOL 220053Z AUTO 10007KT 10SM CLR 30/M06 A3010 RMK AO2 SLP161 T03001056,M
RTS,2022-06-22 00:55,-119.8764,39.6682,1539.00,80.60,14.00,8.04,120.00,9.00,0.00,30.19,M,10.00,M,CLR,M,M,M,M,M,M,M,M,M,M,M,M,M,M,78.25,KRTS 220055Z AUTO 12009KT 10SM CLR 27/M10 A3019 RMK AO2,M
RNO,2022-06-22 00:55,-119.7711,39.4839,1341.00,85.00,19.00,8.69,110.00,8.00,0.00,30.13,1015.60,10.00,18.00,FEW,M,M,M,10000.00,M,M,M,M,M,M,M,M,M,M,81.14,KRNO 220055Z 11008G18KT 10SM FEW100 29/M07 A3013 RMK AO2 SLP156 T02941072,M
BAM,2022-06-22 00:55,-116.8743,40.5990,1382.36,86.00,23.00,9.94,350.00,6.00,0.00,30.16,M,10.00,M,CLR,M,M,M,M,M,M,M,M,M,M,M,M,M,M,82.14,KBAM 220055Z AUTO 35006KT 10SM CLR 30/M05 A3016 RMK AO1,M
05U,2022-06-22 00:55,-116.0051,39.6042,1811.23,82.40,10.40,6.47,60.00,7.00,0.00,30.22,M,10.00,M,CLR,M,M,M,M,M,M,M,M,M,M,M,M,M,M,79.07,K05U 220055Z AUTO 06007KT 10SM CLR 28/M12 A3022 RMK A01,M
CXP,2022-06-22 00:55,-119.7326,39.1923,1431.00,82.40,15.80,8.20,70.00,10.00,0.00,30.15,M,10.00,M,CLR,M,M,M,M,M,M,M,M,M,M,M,M,M,M,79.28,KCXP 220055Z AUTO 07010KT 10SM CLR 28/M09 A3015 RMK AO2,M
HTH,2022-06-22 00:55,-118.6315,38.5448,1282.89,86.00,14.00,6.75,330.00,11.00,0.00,30.09,M,10.00,17.00,CLR,M,M,M,M,M,M,M,M,M,M,M,M,M,M,81.71,KHTH 220055Z AUTO 33011G17KT 10SM CLR 30/M10 A3009 RMK A01,M
TMT,2022-06-22 00:55,-117.1971,39.4643,1749.34,81.00,19.80,10.17,330.00,8.00,0.00,30.19,M,10.00,M,CLR,M,M,M,M,M,M,M,M,M,M,M,M,M,M,78.62,KTMT 220055Z AUTO 33008KT 10SM CLR 27/M07 A3019 RMK AO2 T02731068,M
BVU,2022-06-22 00:55,-114.8611,35.9475,671.00,96.80,10.40,4.11,40.00,8.00,0.00,29.91,M,10.00,M,CLR,M,M,M,M,M,M,M,M,M,M,M,M,M,M,89.54,KBVU 220055Z AUTO 04008KT 10SM CLR 36/M12 A2991 RMK AO2,M
MEV,2022-06-22 00:55,-119.7500,38.9963,1441.42,84.20,15.80,7.74,350.00,12.00,0.00,30.12,M,10.00,M,CLR,M,M,M,M,M,M,M,M,M,M,M,M,M,M,80.51,KMEV 220055Z AUTO 35012KT 10SM CLR 29/M09 A3012 RMK AO2,M
HND,2022-06-22 00:56,-115.1344,35.9729,742.79,97.00,19.00,5.95,70.00,10.00,0.00,29.95,1012.80,10.00,M,CLR,M,M,M,M,M,M,M,M,M,M,M,M,M,M,90.13,KHND 220056Z AUTO 07010KT 10SM CLR 36/M07 A2995 RMK AO2 SLP128 T03611072,M
WMC,2022-06-22 00:56,-117.8072,40.9019,1315.00,86.00,23.00,9.94,M,5.00,0.00,30.15,1016.80,10.00,M,CLR,M,M,M,M,M,M,M,M,M,M,M,M,M,M,82.14,KWMC 220056Z AUTO VRB05KT 10SM CLR 30/M05 A3015 RMK AO2 SLP168 T03001050,M
NFL,2022-06-22 00:56,-118.7010,39.4166,1199.00,88.00,17.10,7.25,10.00,8.00,0.00,30.09,1015.80,10.00,M,FEW,M,M,M,10000.00,M,M,M,M,M,M,M,M,M,M,83.27,KNFL 220056Z 01008KT 10SM FEW100 31/M08 A3009 RMK AO2 SLP158 T03111083,M
TPH,2022-06-22 00:56,-117.0904,38.0505,1654.00,84.00,8.10,5.54,200.00,9.00,0.00,30.15,1014.50,10.00,M,CLR,M,M,M,M,M,M,M,M,M,M,M,M,M,M,80.10,KTPH 220056Z AUTO 20009KT 10SM CLR 29/M13 A3015 RMK AO2 SLP145 T02891133,M
LAS,2022-06-22 00:56,-115.1634,36.0719,663.00,98.00,18.00,5.51,90.00,7.00,0.00,29.91,1010.20,10.00,M,FEW,M,M,M,12000.00,M,M,M,M,M,M,M,M,M,M,90.98,KLAS 220056Z 09007KT 10SM FEW120 37/M08 A2991 RMK AO2 SLP102 T03671078,M
EKO,2022-06-22 00:56,-115.7860,40.8242,1367.00,82.00,19.00,9.54,0.00,0.00,0.00,30.18,1018.10,10.00,M,CLR,M,M,M,M,M,M,M,M,M,M,M,M,M,M,79.17,KEKO 220056Z AUTO 00000KT 10SM CLR 28/M07 A3018 RMK AO2 SLP181 T02781072,M
LSV,2022-06-22 00:58,-115.0343,36.2362,570.00,98.80,16.20,4.99,40.00,3.00,0.00,29.88,1009.50,10.00,M,CLR,M,M,M,M,M,M,M,M,M,M,M,M,M,M,91.46,KLSV 220058Z AUTO 04003KT 10SM CLR 37/M09 A2988 RMK AO2 SLP095 T03711088 $,M
INS,2022-06-22 00:58,-115.6733,36.5872,955.00,93.20,1.00,2.99,330.00,4.00,0.00,29.98,1010.90,10.00,M,CLR,M,M,M,M,M,M,M,M,M,M,M,M,M,M,86.50,KINS 220058Z AUTO 33004KT 10SM CLR 34/M17 A2998 RMK AO2 SLP109 T03401172 $,M
BVU,2022-06-22 01:15,-114.8611,35.9475,671.00,98.60,12.20,4.21,40.00,9.00,0.00,29.91,M,10.00,M,CLR,M,M,M,M,M,M,M,M,M,M,M,M,M,M,91.10,KBVU 220115Z AUTO 04009KT 10SM CLR 37/M11 A2991 RMK AO2,M
CXP,2022-06-22 01:15,-119.7326,39.1923,1431.00,82.40,15.80,8.20,50.00,11.00,0.00,30.15,M,10.00,19.00,CLR,M,M,M,M,M,M,M,M,M,M,M,M,M,M,79.28,KCXP 220115Z AUTO 05011G19KT 10SM CLR 28/M09 A3015 RMK AO2,M
RTS,2022-06-22 01:15,-119.8764,39.6682,1539.00,80.60,12.20,7.43,140.00,12.00,0.00,30.18,M,10.00,M,CLR,M,M,M,M,M,M,M,M,M,M,M,M,M,M,78.16,KRTS 220115Z AUTO 14012KT 10SM CLR 27/M11 A3018 RMK AO2,M
05U,2022-06-22 01:15,-116.0051,39.6042,1811.23,82.40,12.20,7.01,40.00,8.00,0.00,30.22,M,10.00,M,CLR,M,M,M,M,M,M,M,M,M,M,M,M,M,M,79.13,K05U 220115Z AUTO 04008KT 10SM CLR 28/M11 A3022 RMK A01,M
MEV,2022-06-22 01:15,-119.7500,38.9963,1441.42,82.40,15.80,8.20,310.00,10.00,0.00,30.12,M,10.00,18.00,CLR,M,M,M,M,M,M,M,M,M,M,M,M,M,M,79.28,KMEV 220115Z AUTO 31010G18KT 10SM CLR 28/M09 A3012 RMK AO2,M
BAM,2022-06-22 01:15,-116.8743,40.5990,1382.36,86.00,23.00,9.94,10.00,4.00,0.00,30.16,M,10.00,M,CLR,M,M,M,M,M,M,M,M,M,M,M,M,M,M,82.14,KBAM 220115Z AUTO 01004KT 10SM CLR 30/M05 A3016 RMK AO1,M
HTH,2022-06-22 01:15,-118.6315,38.5448,1282.89,86.00,14.00,6.75,320.00,13.00,0.00,30.09,M,10.00,M,CLR,M,M,M,M,M,M,M,M,M,M,M,M,M,M,81.71,KHTH 220115Z AUTO 32013KT 10SM CLR 30/M10 A3009 RMK A01,M
TMT,2022-06-22 01:15,-117.1971,39.4643,1749.34,80.60,19.90,10.38,350.00,11.00,0.00,30.19,M,10.00,15.00,CLR,M,M,M,M,M,M,M,M,M,M,M,M,M,M,78.59,KTMT 220115Z AUTO 35011G15KT 10SM CLR 27/M07 A3019 RMK AO2 T02701067,M
CXP,2022-06-22 01:30,-119.7326,39.1923,1431.00,82.40,15.80,8.20,60.00,10.00,0.00,30.15,M,10.00,M,CLR,M,M,M,M,M,M,M,M,M,M,M,M,M,M,79.28,KCXP 220130Z AUTO 06010KT 10SM CLR 28/M09 A3015 RMK AO2,M
BVU,2022-06-22 01:35,-114.8611,35.9475,671.00,96.80,10.40,4.11,40.00,5.00,0.00,29.92,M,10.00,11.00,CLR,M,M,M,M,M,M,M,M,M,M,M,M,M,M,89.54,KBVU 220135Z AUTO 04005G11KT 10SM CLR 36/M12 A2992 RMK AO2,M
RTS,2022-06-22 01:35,-119.8764,39.6682,1539.00,80.60,12.20,7.43,100.00,7.00,0.00,30.19,M,10.00,14.00,CLR,M,M,M,M,M,M,M,M,M,M,M,M,M,M,78.16,KRTS 220135Z AUTO 10007G14KT 10SM CLR 27/M11 A3019 RMK AO2,M
05U,2022-06-22 01:35,-116.0051,39.6042,1811.23,80.60,14.00,8.04,360.00,10.00,0.00,30.22,M,10.00,M,CLR,M,M,M,M,M,M,M,M,M,M,M,M,M,M,78.25,K05U 220135Z AUTO 36010KT 10SM CLR 27/M10 A3022 RMK A01,M
BAM,2022-06-22 01:35,-116.8743,40.5990,1382.36,84.20,23.00,10.53,30.00,6.00,0.00,30.16,M,10.00,M,CLR,M,M,M,M,M,M,M,M,M,M,M,M,M,M,80.88,KBAM 220135Z AUTO 03006KT 10SM CLR 29/M05 A3016 RMK AO1,M
HTH,2022-06-22 01:35,-118.6315,38.5448,1282.89,84.20,12.20,6.61,310.00,12.00,0.00,30.09,M,10.00,M,CLR,M,M,M,M,M,M,M,M,M,M,M,M,M,M,80.37,KHTH 220135Z AUTO 31012KT 10SM CLR 29/M11 A3009 RMK A01,M
TMT,2022-06-22 01:35,-117.1971,39.4643,1749.34,80.20,20.70,10.88,20.00,12.00,0.00,30.19,M,10.00,16.00,CLR,M,M,M,M,M,M,M,M,M,M,M,M,M,M,78.24,KTMT 220135Z AUTO 02012G16KT 10SM CLR 27/M06 A3019 RMK AO2 T02681063,M
MEV,2022-06-22 01:35,-119.7500,38.9963,1441.42,82.40,15.80,8.20,310.00,7.00,0.00,30.12,M,10.00,M,CLR,M,M,M,M,M,M,M,M,M,M,M,M,M,M,79.28,KMEV 220135Z AUTO 31007KT 10SM CLR 28/M09 A3012 RMK AO2,M
CXP,2022-06-22 01:50,-119.7326,39.1923,1431.00,82.40,14.00,7.58,60.00,10.00,0.00,30.15,M,10.00,M,CLR,M,M,M,M,M,M,M,M,M,M,M,M,M,M,79.20,KCXP 220150Z AUTO 06010KT 10SM CLR 28/M10 A3015 RMK AO2,M
ELY,2022-06-22 01:53,-114.8453,39.2950,1909.00,79.00,12.90,8.08,M,M,0.00,30.23,1014.80,10.00,M,CLR,M,M,M,M,M,M,M,M,M,M,M,M,M,M,79.00,KELY 220153Z AUTO 10SM CLR 26/M11 A3023 RMK AO2 SLP148 T02611106,M
DRA,2022-06-22 01:53,-116.0278,36.6206,1009.00,93.00,-3.00,2.50,M,M,0.00,29.99,1010.40,10.00,M,CLR,M,M,M,M,M,M,M,M,M,M,M,M,M,M,86.29,KDRA 220153Z AUTO 10SM CLR 34/M19 A2999 RMK AO2 SLP104 T03391194,M
LOL,2022-06-22 01:53,-118.5701,40.0684,1192.43,86.00,21.90,9.49,10.00,4.00,0.00,30.09,1015.30,10.00,M,CLR,M,M,M,M,M,M,M,M,M,M,M,M,M,M,82.08,KLOL 220153Z AUTO 01004KT 10SM CLR 30/M06 A3009 RMK AO2 SLP153 T03001056,M
P68,2022-06-22 01:53,-116.0056,39.6014,1993.00,79.00,15.10,8.89,360.00,12.00,0.00,30.20,1015.40,M,19.00,M,M,M,M,M,M,M,M,M,M,M,M,M,M,M,79.00,KP68 220153Z AUTO 36012G19KT 26/M09 A3020 RMK AO1 SLP154 T02611094,M
VGT,2022-06-22 01:53,-115.1933,36.2111,667.00,98.00,19.90,5.98,80.00,8.00,0.00,29.91,1011.60,10.00,M,CLR,M,M,M,M,M,M,M,M,M,M,M,M,M,M,91.10,KVGT 220153Z 08008KT 10SM CLR 37/M07 A2991 RMK AO2 SLP116 T03671067,M
RNO,2022-06-22 01:55,-119.7711,39.4839,1341.00,83.00,19.00,9.27,90.00,4.00,0.00,30.13,1015.30,10.00,M,FEW,M,M,M,10000.00,M,M,M,M,M,M,M,M,M,M,79.77,KRNO 220155Z 09004KT 10SM FEW100 28/M07 A3013 RMK AO2 SLP153 T02831072,M
BVU,2022-06-22 01:55,-114.8611,35.9475,671.00,96.80,12.20,4.45,30.00,9.00,0.00,29.92,M,10.00,M,CLR,M,M,M,M,M,M,M,M,M,M,M,M,M,M,89.61,KBVU 220155Z AUTO 03009KT 10SM CLR 36/M11 A2992 RMK AO2,M
RTS,2022-06-22 01:55,-119.8764,39.6682,1539.00,80.60,12.20,7.43,130.00,6.00,0.00,30.19,M,10.00,12.00,CLR,M,M,M,M,M,M,M,M,M,M,M,M,M,M,78.16,KRTS 220155Z AUTO 13006G12KT 10SM CLR 27/M11 A3019 RMK AO2,M
05U,2022-06-22 01:55,-116.0051,39.6042,1811.23,78.80,14.00,8.53,350.00,13.00,0.00,30.22,M,10.00,M,CLR,M,M,M,M,M,M,M,M,M,M,M,M,M,M,78.80,K05U 220155Z AUTO 35013KT 10SM CLR 26/M10 A3022 RMK A01,M
MEV,2022-06-22 01:55,-119.7500,38.9963,1441.42,82.40,14.00,7.58,110.00,8.00,0.00,30.12,M,10.00,18.00,CLR,M,M,M,M,M,M,M,M,M,M,M,M,M,M,79.20,KMEV 220155Z AUTO 11008G18KT 070V180 10SM CLR 28/M10 A3012 RMK AO2,M
BAM,2022-06-22 01:55,-116.8743,40.5990,1382.36,84.20,21.20,9.76,340.00,6.00,0.00,30.16,M,10.00,M,CLR,M,M,M,M,M,M,M,M,M,M,M,M,M,M,80.77,KBAM 220155Z AUTO 34006KT 10SM CLR 29/M06 A3016 RMK AO1,M
TMT,2022-06-22 01:55,-117.1971,39.4643,1749.34,79.70,21.20,11.30,20.00,14.00,0.00,30.19,M,10.00,M,CLR,M,M,M,M,M,M,M,M,M,M,M,M,M,M,79.70,KTMT 220155Z AUTO 02014KT 10SM CLR 27/M06 A3019 RMK AO2 T02651060,M
HTH,2022-06-22 01:55,-118.6315,38.5448,1282.89,84.20,14.00,7.16,320.00,12.00,0.00,30.09,M,10.00,M,CLR,M,M,M,M,M,M,M,M,M,M,M,M,M,M,80.44,KHTH 220155Z AUTO 32012KT 10SM CLR 29/M10 A3009 RMK A01,M
TPH,2022-06-22 01:56,-117.0904,38.0505,1654.00,83.00,9.00,5.98,180.00,4.00,0.00,30.15,1014.20,10.00,M,CLR,M,M,M,M,M,M,M,M,M,M,M,M,M,M,79.36,KTPH 220156Z AUTO 18004KT 10SM CLR 28/M13 A3015 RMK AO2 SLP142 T02831128,M
LAS,2022-06-22 01:56,-115.1634,36.0719,663.00,97.00,18.00,5.70,100.00,6.00,0.00,29.92,1010.30,10.00,M,FEW,M,M,M,12000.00,M,M,M,M,M,M,M,M,M,M,90.07,KLAS 220156Z 10006KT 10SM FEW120 36/M08 A2992 RMK AO2 SLP103 T03611078,M
WMC,2022-06-22 01:56,-117.8072,40.9019,1315.00,84.00,24.10,11.10,340.00,5.00,0.00,30.15,1016.50,10.00,M,CLR,M,M,M,M,M,M,M,M,M,M,M,M,M,M,80.82,KWMC 220156Z AUTO 34005KT 10SM CLR 29/M04 A3015 RMK AO2 SLP165 T02891044,M
NFL,2022-06-22 01:56,-118.7010,39.4166,1199.00,87.00,17.10,7.46,330.00,9.00,0.00,30.09,1015.50,10.00,M,FEW,M,M,M,10000.00,M,M,M,M,M,M,M,M,M,M,82.62,KNFL 220156Z 33009KT 10SM FEW100 31/M08 A3009 RMK AO2 SLP155 T03061083,M
EKO,2022-06-22 01:56,-115.7860,40.8242,1367.00,82.00,18.00,9.14,70.00,3.00,0.00,30.18,1017.60,10.00,M,CLR,M,M,M,M,M,M,M,M,M,M,M,M,M,M,79.12,KEKO 220156Z AUTO 07003KT 10SM CLR 28/M08 A3018 RMK AO2 SLP176 T02781078,M
HND,2022-06-22 01:56,-115.1344,35.9729,742.79,96.00,19.90,6.35,70.00,7.00,0.00,29.95,1012.90,10.00,M,CLR,M,M,M,M,M,M,M,M,M,M,M,M,M,M,89.44,KHND 220156Z AUTO 07007KT 10SM CLR 36/M07 A2995 RMK AO2 SLP129 T03561067,M
INS,2022-06-22 01:58,-115.6733,36.5872,955.00,93.00,0.90,2.99,320.00,4.00,0.00,29.99,1010.90,10.00,M,CLR,M,M,M,M,M,M,M,M,M,M,M,M,M,M,86.36,KINS 220158Z AUTO 32004KT 10SM CLR 34/M17 A2999 RMK AO2 SLP109 T03391173 $,M
LSV,2022-06-22 01:58,-115.0343,36.2362,570.00,97.70,15.40,4.98,100.00,3.00,0.00,29.88,1009.40,10.00,M,CLR,M,M,M,M,M,M,M,M,M,M,M,M,M,M,90.51,KLSV 220158Z AUTO 10003KT 10SM CLR 37/M09 A2988 RMK AO2 SLP094 T03651092 $,M
CXP,2022-06-22 02:15,-119.7326,39.1923,1431.00,82.40,14.00,7.58,30.00,9.00,0.00,30.15,M,10.00,17.00,CLR,M,M,M,M,M,M,M,M,M,M,M,M,M,M,79.20,KCXP 220215Z AUTO 03009G17KT 10SM CLR 28/M10 A3015 RMK AO2,M
BVU,2022-06-22 02:15,-114.8611,35.9475,671.00,96.80,14.00,4.82,40.00,8.00,0.00,29.92,M,10.00,M,CLR,M,M,M,M,M,M,M,M,M,M,M,M,M,M,89.69,KBVU 220215Z AUTO 04008KT 10SM CLR 36/M10 A2992 RMK AO2,M
RTS,2022-06-22 02:15,-119.8764,39.6682,1539.00,78.80,12.20,7.88,100.00,6.00,0.00,30.19,M,10.00,M,CLR,M,M,M,M,M,M,M,M,M,M,M,M,M,M,78.80,KRTS 220215Z AUTO 10006KT 10SM CLR 26/M11 A3019 RMK AO2,M
05U,2022-06-22 02:15,-116.0051,39.6042,1811.23,77.00,19.40,11.44,360.00,8.00,0.00,30.23,M,10.00,M,CLR,M,M,M,M,M,M,M,M,M,M,M,M,M,M,77.00,K05U 220215Z AUTO 36008KT 10SM CLR 25/M07 A3023 RMK A01,M
MEV,2022-06-22 02:15,-119.7500,38.9963,1441.42,82.40,15.80,8.20,350.00,13.00,0.00,30.12,M,10.00,M,CLR,M,M,M,M,M,M,M,M,M,M,M,M,M,M,79.28,KMEV 220215Z AUTO 35013KT 10SM CLR 28/M09 A3012 RMK AO2,M
BAM,2022-06-22 02:15,-116.8743,40.5990,1382.36,82.40,21.20,10.34,350.00,7.00,0.00,30.16,M,10.00,M,CLR,M,M,M,M,M,M,M,M,M,M,M,M,M,M,79.55,KBAM 220215Z AUTO 35007KT 10SM CLR 28/M06 A3016 RMK AO1,M
HTH,2022-06-22 02:15,-118.6315,38.5448,1282.89,84.20,14.00,7.16,330.00,11.00,0.00,30.09,M,10.00,M,CLR,M,M,M,M,M,M,M,M,M,M,M,M,M,M,80.44,KHTH 220215Z AUTO 33011KT 10SM CLR 29/M10 A3009 RMK A01,M
TMT,2022-06-22 02:15,-117.1971,39.4643,1749.34,78.80,20.80,11.44,20.00,10.00,0.00,30.19,M,10.00,16.00,CLR,M,M,M,M,M,M,M,M,M,M,M,M,M,M,78.80,KTMT 220215Z AUTO 02010G16KT 10SM CLR 26/M06 A3019 RMK AO2 T02601062,M
CXP,2022-06-22 02:30,-119.7326,39.1923,1431.00,80.60,15.80,8.70,40.00,7.00,0.00,30.15,M,10.00,M,CLR,M,M,M,M,M,M,M,M,M,M,M,M,M,M,78.35,KCXP 220230Z AUTO 04007KT 10SM CLR 27/M09 A3015 RMK AO2,M
TMT,2022-06-22 02:35,-117.1971,39.4643,1749.34,77.20,20.80,12.06,10.00,12.00,0.00,30.20,M,10.00,16.00,CLR,M,M,M,M,M,M,M,M,M,M,M,M,M,M,77.20,KTMT 220235Z AUTO 01012G16KT 10SM CLR 25/M06 A3020 RMK AO2 T02511062,M
BVU,2022-06-22 02:35,-114.8611,35.9475,671.00,95.00,15.80,5.51,40.00,6.00,0.00,29.92,M,10.00,M,CLR,M,M,M,M,M,M,M,M,M,M,M,M,M,M,88.29,KBVU 220235Z AUTO 04006KT 10SM CLR 35/M09 A2992 RMK AO2,M
RTS,2022-06-22 02:35,-119.8764,39.6682,1539.00,78.80,10.40,7.28,120.00,4.00,0.00,30.19,M,10.00,M,CLR,M,M,M,M,M,M,M,M,M,M,M,M,M,M,78.80,KRTS 220235Z AUTO 12004KT 10SM CLR 26/M12 A3019 RMK AO2,M
05U,2022-06-22 02:35,-116.0051,39.6042,1811.23,75.20,21.20,13.11,360.00,8.00,0.00,30.23,M,10.00,M,CLR,M,M,M,M,M,M,M,M,M,M,M,M,M,M,75.20,K05U 220235Z AUTO 36008KT 10SM CLR 24/M06 A3023 RMK A01,M
MEV,2022-06-22 02:35,-119.7500,38.9963,1441.42,80.60,21.20,10.97,60.00,6.00,0.00,30.13,M,10.00,M,CLR,M,M,M,M,M,M,M,M,M,M,M,M,M,M,78.68,KMEV 220235Z AUTO 06006KT 10SM CLR 27/M06 A3013 RMK AO2,M
BAM,2022-06-22 02:35,-116.8743,40.5990,1382.36,82.40,21.20,10.34,350.00,5.00,0.00,30.16,M,10.00,M,CLR,M,M,M,M,M,M,M,M,M,M,M,M,M,M,79.55,KBAM 220235Z AUTO 35005KT 10SM CLR 28/M06 A3016 RMK AO1,M
HTH,2022-06-22 02:35,-118.6315,38.5448,1282.89,82.40,15.80,8.20,320.00,11.00,0.00,30.09,M,10.00,M,CLR,M,M,M,M,M,M,M,M,M,M,M,M,M,M,79.28,KHTH 220235Z AUTO 32011KT 10SM CLR 28/M09 A3009 RMK A01,M
P68,2022-06-22 02:53,-116.0056,39.6014,1993.00,71.00,21.90,15.51,360.00,8.00,0.00,30.21,1016.30,M,M,M,M,M,M,M,M,M,M,M,M,M,M,M,M,M,71.10,KP68 220253Z AUTO 36008KT 22/M06 A3021 RMK AO1 SLP163 T02171056 53001,M
LOL,2022-06-22 02:53,-118.5701,40.0684,1192.43,83.00,21.00,10.09,30.00,5.00,0.00,30.10,1015.40,10.00,M,CLR,M,M,M,M,M,M,M,M,M,M,M,M,M,M,79.88,KLOL 220253Z AUTO 03005KT 10SM CLR 28/M06 A3010 RMK AO2 SLP154 T02831061 55006,M
ELY,2022-06-22 02:53,-114.8453,39.2950,1909.00,74.00,18.00,11.95,M,4.00,0.00,30.24,1014.70,10.00,M,CLR,M,M,M,M,M,M,M,M,M,M,M,M,M,M,73.90,KELY 220253Z AUTO VRB04KT 10SM CLR 23/M08 A3024 RMK AO2 SLP147 T02331078 53001,M
DRA,2022-06-22 02:53,-116.0278,36.6206,1009.00,89.00,-0.90,3.11,0.00,0.00,0.00,30.00,1010.80,10.00,M,CLR,M,M,M,M,M,M,M,M,M,M,M,M,M,M,83.56,KDRA 220253Z AUTO 00000KT 10SM CLR 32/M18 A3000 RMK AO2 SLP108 T03171183 53001,M
VGT,2022-06-22 02:53,-115.1933,36.2111,667.00,95.00,19.90,6.57,90.00,5.00,0.00,29.92,1011.70,10.00,M,CLR,M,M,M,M,M,M,M,M,M,M,M,M,M,M,88.53,KVGT 220253Z 09005KT 10SM CLR 35/M07 A2992 RMK AO2 SLP117 T03501067 55001,M
BVU,2022-06-22 02:55,-114.8611,35.9475,671.00,93.20,17.60,6.30,50.00,5.00,0.00,29.92,M,10.00,M,CLR,M,M,M,M,M,M,M,M,M,M,M,M,M,M,87.08,KBVU 220255Z AUTO 05005KT 10SM CLR 34/M08 A2992 RMK AO2,M
RNO,2022-06-22 02:55,-119.7711,39.4839,1341.00,82.00,19.90,9.92,80.00,5.00,0.00,30.13,1015.20,10.00,M,CLR,M,M,M,M,M,M,M,M,M,M,M,M,M,M,79.22,KRNO 220255Z 08005KT 10SM CLR 28/M07 A3013 RMK AO2 SLP152 T02781067 55003,M
RTS,2022-06-22 02:55,-119.8764,39.6682,1539.00,77.00,12.20,8.36,60.00,6.00,0.00,30.19,M,10.00,M,CLR,M,M,M,M,M,M,M,M,M,M,M,M,M,M,77.00,KRTS 220255Z AUTO 06006KT 10SM CLR 25/M11 A3019 RMK AO2,M
05U,2022-06-22 02:55,-116.0051,39.6042,1811.23,69.80,21.20,15.73,10.00,7.00,0.00,30.23,M,10.00,M,CLR,M,M,M,M,M,M,M,M,M,M,M,M,M,M,69.80,K05U 220255Z AUTO 01007KT 10SM CLR 21/M06 A3023 RMK A01,M
MEV,2022-06-22 02:55,-119.7500,38.9963,1441.42,77.00,24.80,14.37,70.00,4.00,0.00,30.14,M,10.00,M,CLR,M,M,M,M,M,M,M,M,M,M,M,M,M,M,77.00,KMEV 220255Z AUTO 07004KT 10SM CLR 25/M04 A3014 RMK AO2,M
BAM,2022-06-22 02:55,-116.8743,40.5990,1382.36,80.60,23.00,11.83,350.00,7.00,0.00,30.16,M,10.00,M,CLR,M,M,M,M,M,M,M,M,M,M,M,M,M,M,78.80,KBAM 220255Z AUTO 35007KT 10SM CLR 27/M05 A3016 RMK AO1,M
HTH,2022-06-22 02:55,-118.6315,38.5448,1282.89,82.40,17.60,8.87,320.00,8.00,0.00,30.10,M,10.00,M,CLR,M,M,M,M,M,M,M,M,M,M,M,M,M,M,79.36,KHTH 220255Z AUTO 32008KT 10SM CLR 28/M08 A3010 RMK A01,M
TMT,2022-06-22 02:55,-117.1971,39.4643,1749.34,75.40,20.30,12.54,10.00,12.00,0.00,30.20,M,10.00,M,CLR,M,M,M,M,M,M,M,M,M,M,M,M,M,M,75.40,KTMT 220255Z AUTO 01012KT 10SM CLR 24/M06 A3020 RMK AO2 T02411065,M
CXP,2022-06-22 02:55,-119.7326,39.1923,1431.00,80.60,15.80,8.70,30.00,8.00,0.00,30.16,M,10.00,M,CLR,M,M,M,M,M,M,M,M,M,M,M,M,M,M,78.35,KCXP 220255Z AUTO 03008KT 10SM CLR 27/M09 A3016 RMK AO2,M
WMC,2022-06-22 02:56,-117.8072,40.9019,1315.00,80.00,24.10,12.60,350.00,5.00,0.00,30.15,1016.60,10.00,M,CLR,M,M,M,M,M,M,M,M,M,M,M,M,M,M,78.37,KWMC 220256Z AUTO 35005KT 10SM CLR 27/M04 A3015 RMK AO2 SLP166 T02671044 55002,M
NFL,2022-06-22 02:56,-118.7010,39.4166,1199.00,83.00,19.00,9.27,330.00,6.00,0.00,30.09,1015.70,10.00,M,FEW,M,M,M,10000.00,M,M,M,M,M,M,M,M,M,M,79.77,KNFL 220256Z 33006KT 10SM FEW100 28/M07 A3009 RMK AO2 SLP157 T02831072 55006,M
HND,2022-06-22 02:56,-115.1344,35.9729,742.79,94.00,19.90,6.80,110.00,6.00,0.00,29.96,1012.90,10.00,M,CLR,M,M,M,M,M,M,M,M,M,M,M,M,M,M,87.73,KHND 220256Z AUTO 11006KT 10SM CLR 34/M07 A2996 RMK AO2 SLP129 T03441067 55001,M
LAS,2022-06-22 02:56,-115.1634,36.0719,663.00,95.00,18.00,6.06,100.00,8.00,0.00,29.92,1010.50,10.00,M,FEW,FEW,M,M,12000.00,20000.00,M,M,M,M,M,M,M,M,M,88.41,KLAS 220256Z 10008KT 10SM FEW120 FEW200 35/M08 A2992 RMK AO2 SLP105 T03501078 55002,M
EKO,2022-06-22 02:56,-115.7860,40.8242,1367.00,79.00,18.00,10.08,0.00,0.00,0.00,30.19,1017.10,10.00,M,CLR,M,M,M,M,M,M,M,M,M,M,M,M,M,M,79.00,KEKO 220256Z AUTO 00000KT 10SM CLR 26/M08 A3019 RMK AO2 SLP171 T02611078 55001,M
TPH,2022-06-22 02:56,-117.0904,38.0505,1654.00,80.00,7.00,5.98,200.00,8.00,0.00,30.16,1013.80,10.00,M,CLR,M,M,M,M,M,M,M,M,M,M,M,M,M,M,77.47,KTPH 220256Z AUTO 20008KT 10SM CLR 27/M14 A3016 RMK AO2 SLP138 T02671139 55002,M
INS,2022-06-22 02:58,-115.6733,36.5872,955.00,90.50,5.40,3.99,0.00,0.00,0.00,29.99,1010.80,10.00,M,CLR,M,M,M,M,M,M,M,M,M,M,M,M,M,M,84.69,KINS 220258Z AUTO 00000KT 10SM CLR 33/M15 A2999 RMK AO2 SLP108 T03251148 55001 $,M
LSV,2022-06-22 02:58,-115.0343,36.2362,570.00,94.60,17.40,5.98,120.00,6.00,0.00,29.89,1009.60,10.00,M,CLR,M,M,M,M,M,M,M,M,M,M,M,M,M,M,88.09,KLSV 220258Z AUTO 12006KT 10SM CLR 35/M08 A2989 RMK AO2 SLP096 T03481081 55002 $,M
MEV,2022-06-22 03:15,-119.7500,38.9963,1441.42,69.80,28.40,21.24,70.00,7.00,0.00,30.14,M,10.00,M,CLR,M,M,M,M,M,M,M,M,M,M,M,M,M,M,69.80,KMEV 220315Z AUTO 07007KT 10SM CLR 21/M02 A3014 RMK AO2,M
HTH,2022-06-22 03:15,-118.6315,38.5448,1282.89,78.80,15.80,9.23,320.00,6.00,0.00,30.10,M,9.00,M,CLR,M,M,M,M,M,M,M,M,M,M,M,M,M,M,78.80,KHTH 220315Z AUTO 32006KT 9SM CLR 26/M09 A3010 RMK A01,M
BVU,2022-06-22 03:15,-114.8611,35.9475,671.00,91.40,21.20,7.77,50.00,6.00,0.00,29.93,M,10.00,M,CLR,M,M,M,M,M,M,M,M,M,M,M,M,M,M,85.96,KBVU 220315Z AUTO 05006KT 10SM CLR 33/M06 A2993 RMK AO2,M
CXP,2022-06-22 03:15,-119.7326,39.1923,1431.00,78.80,15.80,9.23,40.00,7.00,0.00,30.16,M,10.00,M,CLR,M,M,M,M,M,M,M,M,M,M,M,M,M,M,78.80,KCXP 220315Z AUTO 04007KT 10SM CLR 26/M09 A3016 RMK AO2,M
RTS,2022-06-22 03:15,-119.8764,39.6682,1539.00,75.20,12.20,8.88,60.00,5.00,0.00,30.19,M,10.00,M,CLR,M,M,M,M,M,M,M,M,M,M,M,M,M,M,75.20,KRTS 220315Z AUTO 06005KT 10SM CLR 24/M11 A3019 RMK AO2,M
05U,2022-06-22 03:15,-116.0051,39.6042,1811.23,69.80,19.40,14.57,20.00,8.00,0.00,30.24,M,10.00,M,CLR,M,M,M,M,M,M,M,M,M,M,M,M,M,M,69.80,K05U 220315Z AUTO 02008KT 10SM CLR 21/M07 A3024 RMK A01,M
TMT,2022-06-22 03:15,-117.1971,39.4643,1749.34,73.00,20.30,13.63,10.00,8.00,0.00,30.21,M,10.00,M,CLR,M,M,M,M,M,M,M,M,M,M,M,M,M,M,72.90,KTMT 220315Z AUTO 01008KT 10SM CLR 23/M06 A3021 RMK AO2 T02271065,M
BAM,2022-06-22 03:15,-116.8743,40.5990,1382.36,78.80,23.00,12.55,340.00,6.00,0.00,30.16,M,10.00,M,CLR,M,M,M,M,M,M,M,M,M,M,M,M,M,M,78.80,KBAM 220315Z AUTO 34006KT 10SM CLR 26/M05 A3016 RMK AO1,M
BVU,2022-06-22 03:35,-114.8611,35.9475,671.00,89.60,26.60,10.30,50.00,6.00,0.00,29.93,M,10.00,M,CLR,M,M,M,M,M,M,M,M,M,M,M,M,M,M,85.02,KBVU 220335Z AUTO 05006KT 10SM CLR 32/M03 A2993 RMK AO2,M
CXP,2022-06-22 03:35,-119.7326,39.1923,1431.00,77.00,15.80,9.79,30.00,8.00,0.00,30.16,M,10.00,M,CLR,M,M,M,M,M,M,M,M,M,M,M,M,M,M,77.00,KCXP 220335Z AUTO 03008KT 10SM CLR 25/M09 A3016 RMK AO2,M
RTS,2022-06-22 03:35,-119.8764,39.6682,1539.00,71.60,12.20,10.02,40.00,7.00,0.00,30.19,M,10.00,M,CLR,M,M,M,M,M,M,M,M,M,M,M,M,M,M,71.60,KRTS 220335Z AUTO 04007KT 10SM CLR 22/M11 A3019 RMK AO2,M
05U,2022-06-22 03:35,-116.0051,39.6042,1811.23,64.40,21.20,18.96,20.00,4.00,0.00,30.24,M,10.00,M,CLR,M,M,M,M,M,M,M,M,M,M,M,M,M,M,64.40,K05U 220335Z AUTO 02004KT 10SM CLR 18/M06 A3024 RMK A01,M
MEV,2022-06-22 03:35,-119.7500,38.9963,1441.42,66.20,32.00,27.83,50.00,6.00,0.00,30.14,M,10.00,M,CLR,M,M,M,M,M,M,M,M,M,M,M,M,M,M,66.20,KMEV 220335Z AUTO 05006KT 10SM CLR 19/M00 A3014 RMK AO2,M
BAM,2022-06-22 03:35,-116.8743,40.5990,1382.36,75.20,23.00,14.15,340.00,9.00,0.00,30.16,M,10.00,M,CLR,M,M,M,M,M,M,M,M,M,M,M,M,M,M,75.20,KBAM 220335Z AUTO 34009KT 10SM CLR 24/M05 A3016 RMK AO1,M
HTH,2022-06-22 03:35,-118.6315,38.5448,1282.89,78.80,15.80,9.23,330.00,9.00,0.00,30.10,M,10.00,M,CLR,M,M,M,M,M,M,M,M,M,M,M,M,M,M,78.80,KHTH 220335Z AUTO 33009KT 10SM CLR 26/M09 A3010 RMK A01,M
TMT,2022-06-22 03:35,-117.1971,39.4643,1749.34,70.20,20.30,14.94,20.00,7.00,0.00,30.21,M,10.00,M,CLR,M,M,M,M,M,M,M,M,M,M,M,M,M,M,70.20,KTMT 220335Z AUTO 02007KT 10SM CLR 21/M06 A3021 RMK AO2 T02121065,M
LOL,2022-06-22 03:53,-118.5701,40.0684,1192.43,74.00,24.10,15.47,20.00,7.00,0.00,30.10,1015.60,10.00,M,CLR,M,M,M,M,M,M,M,M,M,M,M,M,M,M,73.90,KLOL 220353Z AUTO 02007KT 10SM CLR 23/M04 A3010 RMK AO2 SLP156 T02331044,M
P68,2022-06-22 03:53,-116.0056,39.6014,1993.00,62.00,27.00,26.20,0.00,0.00,0.00,30.23,1017.20,M,M,M,M,M,M,M,M,M,M,M,M,M,M,M,M,M,62.10,KP68 220353Z AUTO 00000KT 17/M03 A3023 RMK AO1 SLP172 T01671028,M
VGT,2022-06-22 03:53,-115.1933,36.2111,667.00,93.00,21.00,7.33,140.00,6.00,0.00,29.92,1012.00,10.00,M,CLR,M,M,M,M,M,M,M,M,M,M,M,M,M,M,87.13,KVGT 220353Z 14006KT 10SM CLR 34/M06 A2992 RMK AO2 SLP120 T03391061,M
ELY,2022-06-22 03:53,-114.8453,39.2950,1909.00,68.00,19.00,15.24,340.00,9.00,0.00,30.25,1015.30,10.00,17.00,CLR,M,M,M,M,M,M,M,M,M,M,M,M,M,M,68.00,KELY 220353Z AUTO 34009G17KT 310V010 10SM CLR 20/M07 A3025 RMK AO2 SLP153 T02001072,M
DRA,2022-06-22 03:53,-116.0278,36.6206,1009.00,80.00,-0.90,4.15,30.00,5.00,0.00,30.01,1011.50,10.00,M,CLR,M,M,M,M,M,M,M,M,M,M,M,M,M,M,77.23,KDRA 220353Z AUTO 03005KT 10SM CLR 27/M18 A3001 RMK AO2 SLP115 T02671183,M
BVU,2022-06-22 03:55,-114.8611,35.9475,671.00,87.80,26.60,10.91,30.00,7.00,0.00,29.93,M,10.00,M,CLR,M,M,M,M,M,M,M,M,M,M,M,M,M,M,83.69,KBVU 220355Z AUTO 03007KT 10SM CLR 31/M03 A2993 RMK AO2,M
RNO,2022-06-22 03:55,-119.7711,39.4839,1341.00,79.00,19.00,10.53,100.00,3.00,0.00,30.14,1015.30,10.00,M,CLR,M,M,M,M,M,M,M,M,M,M,M,M,M,M,79.00,KRNO 220355Z 10003KT 10SM CLR 26/M07 A3014 RMK AO2 SLP153 T02611072,M
05U,2022-06-22 03:55,-116.0051,39.6042,1811.23,60.80,26.60,26.98,0.00,0.00,0.00,30.25,M,10.00,M,CLR,M,M,M,M,M,M,M,M,M,M,M,M,M,M,60.80,K05U 220355Z AUTO 00000KT 10SM CLR 16/M03 A3025 RMK A01,M
MEV,2022-06-22 03:55,-119.7500,38.9963,1441.42,66.20,24.80,20.72,320.00,7.00,0.00,30.14,M,10.00,M,CLR,M,M,M,M,M,M,M,M,M,M,M,M,M,M,66.20,KMEV 220355Z AUTO 32007KT 10SM CLR 19/M04 A3014 RMK AO2,M
BAM,2022-06-22 03:55,-116.8743,40.5990,1382.36,73.40,23.00,15.03,350.00,9.00,0.00,30.16,M,10.00,M,CLR,M,M,M,M,M,M,M,M,M,M,M,M,M,M,73.40,KBAM 220355Z AUTO 35009KT 10SM CLR 23/M05 A3016 RMK AO1,M
HTH,2022-06-22 03:55,-118.6315,38.5448,1282.89,77.00,24.80,14.37,320.00,10.00,0.00,30.11,M,10.00,M,M,M,M,M,M,M,M,M,M,M,M,M,M,M,M,77.00,KHTH 220355Z AUTO 32010KT 10SM 25/M04 A3011 RMK A01,M
TMT,2022-06-22 03:55,-117.1971,39.4643,1749.34,67.30,19.80,16.15,30.00,7.00,0.00,30.21,M,10.00,M,CLR,M,M,M,M,M,M,M,M,M,M,M,M,M,M,67.30,KTMT 220355Z AUTO 03007KT 10SM CLR 20/M07 A3021 RMK AO2 T01961068,M
CXP,2022-06-22 03:55,-119.7326,39.1923,1431.00,77.00,15.80,9.79,30.00,8.00,0.00,30.16,M,10.00,M,CLR,M,M,M,M,M,M,M,M,M,M,M,M,M,M,77.00,KCXP 220355Z AUTO 03008KT 10SM CLR 25/M09 A3016 RMK AO2,M
RTS,2022-06-22 03:55,-119.8764,39.6682,1539.00,71.60,14.00,10.85,50.00,8.00,0.00,30.20,M,10.00,M,CLR,M,M,M,M,M,M,M,M,M,M,M,M,M,M,71.60,KRTS 220355Z AUTO 05008KT 10SM CLR 22/M10 A3020 RMK AO2,M
HND,2022-06-22 03:56,-115.1344,35.9729,742.79,91.00,21.00,7.80,120.00,4.00,0.00,29.97,1013.30,10.00,M,CLR,M,M,M,M,M,M,M,M,M,M,M,M,M,M,85.66,KHND 220356Z AUTO 12004KT 10SM CLR 33/M06 A2997 RMK AO2 SLP133 T03281061,M
WMC,2022-06-22 03:56,-117.8072,40.9019,1315.00,71.00,24.10,17.01,30.00,5.00,0.00,30.16,1017.00,10.00,M,CLR,M,M,M,M,M,M,M,M,M,M,M,M,M,M,71.10,KWMC 220356Z AUTO 03005KT 10SM CLR 22/M04 A3016 RMK AO2 SLP170 T02171044,M
TPH,2022-06-22 03:56,-117.0904,38.0505,1654.00,70.00,5.00,7.66,270.00,5.00,0.00,30.17,1014.60,10.00,M,CLR,M,M,M,M,M,M,M,M,M,M,M,M,M,M,70.00,KTPH 220356Z AUTO 27005KT 10SM CLR 21/M15 A3017 RMK AO2 SLP146 T02111150,M
LAS,2022-06-22 03:56,-115.1634,36.0719,663.00,93.00,21.00,7.33,110.00,3.00,0.00,29.93,1010.70,10.00,M,FEW,FEW,M,M,12000.00,20000.00,M,M,M,M,M,M,M,M,M,87.13,KLAS 220356Z 11003KT 10SM FEW120 FEW200 34/M06 A2993 RMK AO2 SLP107 T03391061,M
EKO,2022-06-22 03:56,-115.7860,40.8242,1367.00,70.00,19.90,14.79,350.00,3.00,0.00,30.19,1017.40,10.00,M,CLR,M,M,M,M,M,M,M,M,M,M,M,M,M,M,70.00,KEKO 220356Z AUTO 35003KT 10SM CLR 21/M07 A3019 RMK AO2 SLP174 T02111067,M
NFL,2022-06-22 03:56,-118.7010,39.4166,1199.00,74.00,23.00,14.77,350.00,7.00,0.00,30.09,1015.70,10.00,M,FEW,M,M,M,10000.00,M,M,M,M,M,M,M,M,M,M,73.90,KNFL 220356Z 35007KT 10SM FEW100 23/M05 A3009 RMK AO2 SLP157 T02331050,M
INS,2022-06-22 03:58,-115.6733,36.5872,955.00,85.00,6.60,5.00,170.00,5.00,0.00,30.00,1011.10,10.00,M,CLR,M,M,M,M,M,M,M,M,M,M,M,M,M,M,80.84,KINS 220358Z AUTO 17005KT 10SM CLR 30/M14 A3000 RMK AO2 SLP111 T02951141 $,M
LSV,2022-06-22 03:58,-115.0343,36.2362,570.00,92.50,18.30,6.63,0.00,0.00,0.00,29.89,1007.90,10.00,M,CLR,M,M,M,M,M,M,M,M,M,M,M,M,M,M,86.61,KLSV 220358Z 00000KT 10SM CLR 34/M08 A2989 RMK AO2A SLP079 WND DATA ESTMD T03361076 $,M
TMT,2022-06-22 04:15,-117.1971,39.4643,1749.34,63.00,19.90,18.85,30.00,11.00,0.00,30.22,M,10.00,M,CLR,M,M,M,M,M,M,M,M,M,M,M,M,M,M,63.00,KTMT 220415Z AUTO 03011KT 10SM CLR 17/M07 A3022 RMK AO2 T01721067,M
MEV,2022-06-22 04:15,-119.7500,38.9963,1441.42,66.20,23.00,19.22,0.00,0.00,0.00,30.15,M,10.00,M,CLR,M,M,M,M,M,M,M,M,M,M,M,M,M,M,66.20,KMEV 220415Z AUTO 00000KT 10SM CLR 19/M05 A3015 RMK AO2,M
BVU,2022-06-22 04:15,-114.8611,35.9475,671.00,87.80,26.60,10.91,60.00,6.00,0.00,29.94,M,10.00,M,CLR,M,M,M,M,M,M,M,M,M,M,M,M,M,M,83.69,KBVU 220415Z AUTO 06006KT 10SM CLR 31/M03 A2994 RMK AO2,M
HTH,2022-06-22 04:15,-118.6315,38.5448,1282.89,77.00,26.60,15.48,320.00,10.00,0.00,30.11,M,10.00,M,CLR,M,M,M,M,M,M,M,M,M,M,M,M,M,M,77.00,KHTH 220415Z AUTO 32010KT 10SM CLR 25/M03 A3011 RMK A01,M
RTS,2022-06-22 04:15,-119.8764,39.6682,1539.00,69.80,14.00,11.54,50.00,7.00,0.00,30.20,M,10.00,M,CLR,M,M,M,M,M,M,M,M,M,M,M,M,M,M,69.80,KRTS 220415Z AUTO 05007KT 10SM CLR 21/M10 A3020 RMK AO2,M
BAM,2022-06-22 04:15,-116.8743,40.5990,1382.36,71.60,21.20,14.80,350.00,8.00,0.00,30.17,M,10.00,M,CLR,M,M,M,M,M,M,M,M,M,M,M,M,M,M,71.60,KBAM 220415Z AUTO 35008KT 10SM CLR 22/M06 A3017 RMK AO1,M
05U,2022-06-22 04:15,-116.0051,39.6042,1811.23,62.60,21.20,20.20,0.00,0.00,0.00,30.26,M,10.00,M,CLR,M,M,M,M,M,M,M,M,M,M,M,M,M,M,62.60,K05U 220415Z AUTO 00000KT 10SM CLR 17/M06 A3026 RMK A01,M
CXP,2022-06-22 04:15,-119.7326,39.1923,1431.00,77.00,15.80,9.79,30.00,10.00,0.00,30.17,M,10.00,M,CLR,M,M,M,M,M,M,M,M,M,M,M,M,M,M,77.00,KCXP 220415Z AUTO 03010KT 10SM CLR 25/M09 A3017 RMK AO2,M
BAM,2022-06-22 04:35,-116.8743,40.5990,1382.36,69.80,21.20,15.73,340.00,7.00,0.00,30.17,M,10.00,M,CLR,M,M,M,M,M,M,M,M,M,M,M,M,M,M,69.80,KBAM 220435Z AUTO 34007KT 10SM CLR 21/M06 A3017 RMK AO1,M
HTH,2022-06-22 04:35,-118.6315,38.5448,1282.89,75.20,23.00,14.15,320.00,10.00,0.00,30.12,M,10.00,M,CLR,M,M,M,M,M,M,M,M,M,M,M,M,M,M,75.20,KHTH 220435Z AUTO 32010KT 10SM CLR 24/M05 A3012 RMK A01,M
TMT,2022-06-22 04:35,-117.1971,39.4643,1749.34,60.00,19.40,20.44,50.00,5.00,0.00,30.22,M,10.00,M,CLR,M,M,M,M,M,M,M,M,M,M,M,M,M,M,60.10,KTMT 220435Z AUTO 05005KT 10SM CLR 16/M07 A3022 RMK AO2 T01561070,M
BVU,2022-06-22 04:35,-114.8611,35.9475,671.00,86.00,26.60,11.55,50.00,7.00,0.00,29.95,M,10.00,M,CLR,M,M,M,M,M,M,M,M,M,M,M,M,M,M,82.39,KBVU 220435Z AUTO 05007KT 10SM CLR 30/M03 A2995 RMK AO2,M
CXP,2022-06-22 04:35,-119.7326,39.1923,1431.00,75.20,15.80,10.40,30.00,7.00,0.00,30.17,M,10.00,M,CLR,M,M,M,M,M,M,M,M,M,M,M,M,M,M,75.20,KCXP 220435Z AUTO 03007KT 10SM CLR 24/M09 A3017 RMK AO2,M
RTS,2022-06-22 04:35,-119.8764,39.6682,1539.00,64.40,17.60,16.26,260.00,6.00,0.00,30.21,M,10.00,M,CLR,M,M,M,M,M,M,M,M,M,M,M,M,M,M,64.40,KRTS 220435Z AUTO 26006KT 10SM CLR 18/M08 A3021 RMK AO2,M
05U,2022-06-22 04:35,-116.0051,39.6042,1811.23,60.80,15.80,17.07,0.00,0.00,0.00,30.27,M,10.00,M,CLR,M,M,M,M,M,M,M,M,M,M,M,M,M,M,60.80,K05U 220435Z AUTO 00000KT 10SM CLR 16/M09 A3027 RMK A01,M
MEV,2022-06-22 04:35,-119.7500,38.9963,1441.42,66.20,21.20,17.81,330.00,6.00,0.00,30.15,M,10.00,M,CLR,M,M,M,M,M,M,M,M,M,M,M,M,M,M,66.20,KMEV 220435Z AUTO 33006KT 10SM CLR 19/M06 A3015 RMK AO2,M
ELY,2022-06-22 04:53,-114.8453,39.2950,1909.00,63.00,21.00,19.75,60.00,4.00,0.00,30.28,1016.60,10.00,M,CLR,M,M,M,M,M,M,M,M,M,M,M,M,M,M,63.00,KELY 220453Z AUTO 06004KT 10SM CLR 17/M06 A3028 RMK AO2 SLP166 T01721061,M
DRA,2022-06-22 04:53,-116.0278,36.6206,1009.00,76.00,1.90,5.44,110.00,4.00,0.00,30.03,1012.00,10.00,M,CLR,M,M,M,M,M,M,M,M,M,M,M,M,M,M,75.90,KDRA 220453Z AUTO 11004KT 10SM CLR 24/M17 A3003 RMK AO2 SLP120 T02441167,M
VGT,2022-06-22 04:53,-115.1933,36.2111,667.00,92.00,21.00,7.58,0.00,0.00,0.00,29.94,1012.50,10.00,M,CLR,M,M,M,M,M,M,M,M,M,M,M,M,M,M,86.32,KVGT 220453Z AUTO 00000KT 10SM CLR 33/M06 A2994 RMK AO2 SLP125 T03331061,M
LOL,2022-06-22 04:53,-118.5701,40.0684,1192.43,70.00,21.90,16.10,30.00,9.00,0.00,30.12,1016.20,10.00,M,CLR,M,M,M,M,M,M,M,M,M,M,M,M,M,M,70.00,KLOL 220453Z AUTO 03009KT 10SM CLR 21/M06 A3012 RMK AO2 SLP162 T02111056,M
P68,2022-06-22 04:53,-116.0056,39.6014,1993.00,60.00,17.10,18.52,180.00,5.00,0.00,30.25,1017.40,M,M,M,M,M,M,M,M,M,M,M,M,M,M,M,M,M,60.10,KP68 220453Z AUTO 18005KT 16/M08 A3025 RMK AO1 SLP174 T01561083,M
TMT,2022-06-22 04:55,-117.1971,39.4643,1749.34,60.00,19.40,20.44,60.00,4.00,0.00,30.24,M,10.00,M,CLR,M,M,M,M,M,M,M,M,M,M,M,M,M,M,60.10,KTMT 220455Z AUTO 06004KT 10SM CLR 16/M07 A3024 RMK AO2 T01561070,M
HTH,2022-06-22 04:55,-118.6315,38.5448,1282.89,75.20,21.20,13.11,310.00,8.00,0.00,30.13,M,10.00,M,CLR,M,M,M,M,M,M,M,M,M,M,M,M,M,M,75.20,KHTH 220455Z AUTO 31008KT 10SM CLR 24/M06 A3013 RMK A01,M
BVU,2022-06-22 04:55,-114.8611,35.9475,671.00,86.00,28.40,12.44,60.00,6.00,0.00,29.95,M,10.00,M,CLR,M,M,M,M,M,M,M,M,M,M,M,M,M,M,82.54,KBVU 220455Z AUTO 06006KT 10SM CLR 30/M02 A2995 RMK AO2,M
CXP,2022-06-22 04:55,-119.7326,39.1923,1431.00,73.40,19.40,12.90,0.00,0.00,0.00,30.18,M,10.00,M,CLR,M,M,M,M,M,M,M,M,M,M,M,M,M,M,73.40,KCXP 220455Z AUTO 00000KT 10SM CLR 23/M07 A3018 RMK AO2,M
RNO,2022-06-22 04:55,-119.7711,39.4839,1341.00,74.00,24.10,15.47,300.00,3.00,0.00,30.16,1015.90,10.00,M,CLR,M,M,M,M,M,M,M,M,M,M,M,M,M,M,73.90,KRNO 220455Z 30003KT 10SM CLR 23/M04 A3016 RMK AO2 SLP159 T02331044,M
RTS,2022-06-22 04:55,-119.8764,39.6682,1539.00,62.60,17.60,17.32,260.00,4.00,0.00,30.22,M,10.00,M,CLR,M,M,M,M,M,M,M,M,M,M,M,M,M,M,62.60,KRTS 220455Z AUTO 26004KT 10SM CLR 17/M08 A3022 RMK AO2,M
05U,2022-06-22 04:55,-116.0051,39.6042,1811.23,59.00,15.80,18.20,0.00,0.00,0.00,30.27,M,10.00,M,CLR,M,M,M,M,M,M,M,M,M,M,M,M,M,M,59.00,K05U 220455Z AUTO 00000KT 10SM CLR 15/M09 A3027 RMK A01,M
MEV,2022-06-22 04:55,-119.7500,38.9963,1441.42,64.40,23.00,20.46,0.00,0.00,0.00,30.16,M,10.00,M,CLR,M,M,M,M,M,M,M,M,M,M,M,M,M,M,64.40,KMEV 220455Z AUTO 00000KT 10SM CLR 18/M05 A3016 RMK AO2,M
BAM,2022-06-22 04:55,-116.8743,40.5990,1382.36,68.00,21.20,16.74,320.00,7.00,0.00,30.18,M,10.00,M,CLR,M,M,M,M,M,M,M,M,M,M,M,M,M,M,68.00,KBAM 220455Z AUTO 32007KT 10SM CLR 20/M06 A3018 RMK AO1,M
NFL,2022-06-22 04:56,-118.7010,39.4166,1199.00,69.00,18.00,14.06,360.00,6.00,0.00,30.10,1016.10,10.00,M,CLR,M,M,M,M,M,M,M,M,M,M,M,M,M,M,69.10,KNFL 220456Z 36006KT 10SM CLR 21/M08 A3010 RMK AO2 SLP161 T02061078,M
EKO,2022-06-22 04:56,-115.7860,40.8242,1367.00,66.00,21.00,17.78,30.00,4.00,0.00,30.21,1018.20,10.00,M,CLR,M,M,M,M,M,M,M,M,M,M,M,M,M,M,66.00,KEKO 220456Z AUTO 03004KT 10SM CLR 19/M06 A3021 RMK AO2 SLP182 T01891061,M
WMC,2022-06-22 04:56,-117.8072,40.9019,1315.00,57.00,21.90,25.40,0.00,0.00,0.00,30.17,1018.20,10.00,M,CLR,M,M,M,M,M,M,M,M,M,M,M,M,M,M,57.00,KWMC 220456Z AUTO 00000KT 10SM CLR 14/M06 A3017 RMK AO2 SLP182 T01391056,M
HND,2022-06-22 04:56,-115.1344,35.9729,742.79,89.00,23.00,9.01,170.00,5.00,0.00,29.98,1013.80,10.00,M,CLR,M,M,M,M,M,M,M,M,M,M,M,M,M,M,84.38,KHND 220456Z AUTO 17005KT 10SM CLR 32/M05 A2998 RMK AO2 SLP138 T03171050,M
TPH,2022-06-22 04:56,-117.0904,38.0505,1654.00,67.00,5.00,8.52,230.00,3.00,0.00,30.19,1015.50,10.00,M,CLR,M,M,M,M,M,M,M,M,M,M,M,M,M,M,66.90,KTPH 220456Z AUTO 23003KT 10SM CLR 19/M15 A3019 RMK AO2 SLP155 T01941150,M
LAS,2022-06-22 04:56,-115.1634,36.0719,663.00,91.00,21.00,7.80,0.00,0.00,0.00,29.95,1011.20,10.00,M,FEW,FEW,M,M,12000.00,20000.00,M,M,M,M,M,M,M,M,M,85.66,KLAS 220456Z 00000KT 10SM FEW120 FEW200 33/M06 A2995 RMK AO2 SLP112 T03281061,M
INS,2022-06-22 04:58,-115.6733,36.5872,955.00,80.20,3.20,5.01,270.00,4.00,0.00,30.02,1011.80,10.00,M,CLR,M,M,M,M,M,M,M,M,M,M,M,M,M,M,77.44,KINS 220458Z AUTO 27004KT 10SM CLR 27/M16 A3002 RMK AO2 SLP118 T02681160 $,M
LSV,2022-06-22 04:58,-115.0343,36.2362,570.00,87.80,16.90,7.24,340.00,3.00,0.00,29.94,1009.00,10.00,M,FEW,M,M,M,22000.00,M,M,M,M,M,M,M,M,M,M,83.11,KLSV 220458Z 34003KT 10SM FEW220 31/M08 A2994 RMK AO2A SLP090 WND DATA ESTMD T03101084 $,M
BAM,2022-06-22 05:15,-116.8743,40.5990,1382.36,68.00,19.40,15.50,330.00,8.00,0.00,30.18,M,10.00,M,CLR,M,M,M,M,M,M,M,M,M,M,M,M,M,M,68.00,KBAM 220515Z AUTO 33008KT 10SM CLR 20/M07 A3018 RMK AO1,M
HTH,2022-06-22 05:15,-118.6315,38.5448,1282.89,75.20,21.20,13.11,320.00,4.00,0.00,30.13,M,10.00,M,CLR,M,M,M,M,M,M,M,M,M,M,M,M,M,M,75.20,KHTH 220515Z AUTO 32004KT 10SM CLR 24/M06 A3013 RMK A01,M
TMT,2022-06-22 05:15,-117.1971,39.4643,1749.34,58.50,19.00,21.28,0.00,0.00,0.00,30.24,M,10.00,M,CLR,M,M,M,M,M,M,M,M,M,M,M,M,M,M,58.50,KTMT 220515Z AUTO 00000KT 10SM CLR 15/M07 A3024 RMK AO2 T01471072,M
05U,2022-06-22 05:15,-116.0051,39.6042,1811.23,57.20,17.60,20.99,0.00,0.00,0.00,30.28,M,10.00,M,CLR,M,M,M,M,M,M,M,M,M,M,M,M,M,M,57.20,K05U 220515Z AUTO 00000KT 10SM CLR 14/M08 A3028 RMK A01,M
MEV,2022-06-22 05:15,-119.7500,38.9963,1441.42,53.60,24.80,32.46,0.00,0.00,0.00,30.17,M,10.00,M,CLR,M,M,M,M,M,M,M,M,M,M,M,M,M,M,53.60,KMEV 220515Z AUTO 00000KT 10SM CLR 12/M04 A3017 RMK AO2,M
RTS,2022-06-22 05:15,-119.8764,39.6682,1539.00,64.40,21.20,18.96,250.00,5.00,0.00,30.22,M,10.00,M,CLR,M,M,M,M,M,M,M,M,M,M,M,M,M,M,64.40,KRTS 220515Z AUTO 25005KT 10SM CLR 18/M06 A3022 RMK AO2,M
CXP,2022-06-22 05:15,-119.7326,39.1923,1431.00,68.00,21.20,16.74,190.00,3.00,0.00,30.18,M,10.00,M,CLR,M,M,M,M,M,M,M,M,M,M,M,M,M,M,68.00,KCXP 220515Z AUTO 19003KT 10SM CLR 20/M06 A3018 RMK AO2,M
BVU,2022-06-22 05:15,-114.8611,35.9475,671.00,86.00,28.40,12.44,70.00,5.00,0.00,29.95,M,10.00,M,CLR,M,M,M,M,M,M,M,M,M,M,M,M,M,M,82.54,KBVU 220515Z AUTO 07005KT 10SM CLR 30/M02 A2995 RMK AO2,M
BAM,2022-06-22 05:35,-116.8743,40.5990,1382.36,68.00,19.40,15.50,320.00,7.00,0.00,30.19,M,10.00,M,CLR,M,M,M,M,M,M,M,M,M,M,M,M,M,M,68.00,KBAM 220535Z AUTO 32007KT 10SM CLR 20/M07 A3019 RMK AO1,M
HTH,2022-06-22 05:35,-118.6315,38.5448,1282.89,73.40,24.80,16.20,330.00,5.00,0.00,30.14,M,10.00,M,CLR,M,M,M,M,M,M,M,M,M,M,M,M,M,M,73.40,KHTH 220535Z AUTO 33005KT 10SM CLR 23/M04 A3014 RMK A01,M
TMT,2022-06-22 05:35,-117.1971,39.4643,1749.34,54.70,17.80,23.18,0.00,0.00,0.00,30.24,M,10.00,M,CLR,M,M,M,M,M,M,M,M,M,M,M,M,M,M,54.70,KTMT 220535Z AUTO 00000KT 10SM CLR 13/M08 A3024 RMK AO2 T01261079,M
BVU,2022-06-22 05:35,-114.8611,35.9475,671.00,87.80,24.80,10.12,100.00,4.00,0.00,29.95,M,10.00,M,CLR,M,M,M,M,M,M,M,M,M,M,M,M,M,M,83.56,KBVU 220535Z AUTO 10004KT 10SM CLR 31/M04 A2995 RMK AO2,M
CXP,2022-06-22 05:35,-119.7326,39.1923,1431.00,68.00,19.40,15.50,0.00,0.00,0.00,30.19,M,10.00,M,CLR,M,M,M,M,M,M,M,M,M,M,M,M,M,M,68.00,KCXP 220535Z AUTO 00000KT 10SM CLR 20/M07 A3019 RMK AO2,M
RTS,2022-06-22 05:35,-119.8764,39.6682,1539.00,60.80,21.20,21.53,240.00,3.00,0.00,30.22,M,10.00,M,CLR,M,M,M,M,M,M,M,M,M,M,M,M,M,M,60.80,KRTS 220535Z AUTO 24003KT 10SM CLR 16/M06 A3022 RMK AO2,M
05U,2022-06-22 05:35,-116.0051,39.6042,1811.23,53.60,17.60,23.93,0.00,0.00,0.00,30.28,M,10.00,M,CLR,M,M,M,M,M,M,M,M,M,M,M,M,M,M,53.60,K05U 220535Z AUTO 00000KT 10SM CLR 12/M08 A3028 RMK A01,M
MEV,2022-06-22 05:35,-119.7500,38.9963,1441.42,51.80,32.00,46.59,210.00,3.00,0.00,30.17,M,10.00,M,CLR,M,M,M,M,M,M,M,M,M,M,M,M,M,M,51.80,KMEV 220535Z AUTO 21003KT 10SM CLR 11/M00 A3017 RMK AO2,M
ELY,2022-06-22 05:53,-114.8453,39.2950,1909.00,61.00,21.00,21.19,0.00,0.00,0.00,30.30,1016.90,10.00,M,CLR,M,M,M,M,M,M,M,M,M,M,M,M,M,M,61.00,KELY 220553Z AUTO 00000KT 10SM CLR 16/M06 A3030 RMK AO2 SLP169 T01611061 10272 20156 52017,M
P68,2022-06-22 05:53,-116.0056,39.6014,1993.00,52.00,17.10,24.83,180.00,4.00,0.00,30.26,1018.20,M,M,M,M,M,M,M,M,M,M,M,M,M,M,M,M,M,52.00,KP68 220553Z AUTO 18004KT 11/M08 A3026 RMK AO1 SLP182 T01111083 10278 20100 51014,M
DRA,2022-06-22 05:53,-116.0278,36.6206,1009.00,74.00,1.90,5.81,90.00,4.00,0.00,30.03,1012.10,10.00,M,CLR,M,M,M,M,M,M,M,M,M,M,M,M,M,M,73.90,KDRA 220553Z AUTO 09004KT 10SM CLR 23/M17 A3003 RMK AO2 SLP121 T02331167 10356 20233 51009,M
VGT,2022-06-22 05:53,-115.1933,36.2111,667.00,87.00,26.10,10.92,330.00,5.00,0.00,29.95,1012.80,10.00,M,CLR,M,M,M,M,M,M,M,M,M,M,M,M,M,M,83.14,KVGT 220553Z AUTO 33005KT 10SM CLR 31/M03 A2995 RMK AO2 SLP128 T03061033 10378 20306 51010,M
LOL,2022-06-22 05:53,-118.5701,40.0684,1192.43,60.00,19.90,20.88,60.00,5.00,0.00,30.13,1016.90,10.00,M,CLR,M,M,M,M,M,M,M,M,M,M,M,M,M,M,60.10,KLOL 220553Z AUTO 06005KT 10SM CLR 16/M07 A3013 RMK AO2 SLP169 T01561067 10306 20156 53009,M
BVU,2022-06-22 05:55,-114.8611,35.9475,671.00,86.00,28.40,12.44,0.00,0.00,0.00,29.96,M,10.00,M,CLR,M,M,M,M,M,M,M,M,M,M,M,M,M,M,82.54,KBVU 220555Z AUTO 00000KT 10SM CLR 30/M02 A2996 RMK AO2,M
TMT,2022-06-22 05:55,-117.1971,39.4643,1749.34,57.00,18.50,21.98,10.00,4.00,0.00,30.24,M,10.00,M,CLR,M,M,M,M,M,M,M,M,M,M,M,M,M,M,57.00,KTMT 220555Z AUTO 01004KT 10SM CLR 14/M07 A3024 RMK AO2 T01391075 10280 20125,M
CXP,2022-06-22 05:55,-119.7326,39.1923,1431.00,64.40,21.20,18.96,0.00,0.00,0.00,30.19,M,10.00,M,CLR,M,M,M,M,M,M,M,M,M,M,M,M,M,M,64.40,KCXP 220555Z AUTO 00000KT 10SM CLR 18/M06 A3019 RMK AO2,M
RNO,2022-06-22 05:55,-119.7711,39.4839,1341.00,70.00,25.00,18.33,300.00,4.00,0.00,30.17,1016.20,10.00,M,CLR,M,M,M,M,M,M,M,M,M,M,M,M,M,M,70.00,KRNO 220555Z 30004KT 10SM CLR 21/M04 A3017 RMK AO2 SLP162 T02111039 10300 20211 53011,M
RTS,2022-06-22 05:55,-119.8764,39.6682,1539.00,60.80,19.40,19.94,300.00,4.00,0.00,30.22,M,10.00,M,CLR,M,M,M,M,M,M,M,M,M,M,M,M,M,M,60.80,KRTS 220555Z AUTO 30004KT 10SM CLR 16/M07 A3022 RMK AO2,M
05U,2022-06-22 05:55,-116.0051,39.6042,1811.23,51.80,15.80,23.65,0.00,0.00,0.00,30.28,M,10.00,M,CLR,M,M,M,M,M,M,M,M,M,M,M,M,M,M,51.80,K05U 220555Z AUTO 00000KT 10SM CLR 11/M09 A3028 RMK A01,M
MEV,2022-06-22 05:55,-119.7500,38.9963,1441.42,51.80,32.00,46.59,190.00,4.00,0.00,30.18,M,10.00,M,CLR,M,M,M,M,M,M,M,M,M,M,M,M,M,M,51.80,KMEV 220555Z AUTO 19004KT 10SM CLR 11/00 A3018 RMK AO2,M
BAM,2022-06-22 05:55,-116.8743,40.5990,1382.36,68.00,21.20,16.74,100.00,3.00,0.00,30.19,M,10.00,M,CLR,M,M,M,M,M,M,M,M,M,M,M,M,M,M,68.00,KBAM 220555Z AUTO 10003KT 10SM CLR 20/M06 A3019 RMK AO1,M
HTH,2022-06-22 05:55,-118.6315,38.5448,1282.89,73.40,24.80,16.20,310.00,7.00,0.00,30.14,M,10.00,M,CLR,M,M,M,M,M,M,M,M,M,M,M,M,M,M,73.40,KHTH 220555Z AUTO 31007KT 10SM CLR 23/M04 A3014 RMK A01,M
NFL,2022-06-22 05:56,-118.7010,39.4166,1199.00,65.00,21.00,18.48,30.00,6.00,0.00,30.12,1016.40,10.00,M,CLR,M,M,M,M,M,M,M,M,M,M,M,M,M,M,64.90,KNFL 220556Z 03006KT 10SM CLR 18/M06 A3012 RMK AO2 SLP164 T01831061 10311 20183 53007,M
HND,2022-06-22 05:56,-115.1344,35.9729,742.79,86.00,21.00,9.13,260.00,4.00,0.00,29.99,1014.00,10.00,M,CLR,M,M,M,M,M,M,M,M,M,M,M,M,M,M,82.02,KHND 220556Z AUTO 26004KT 10SM CLR 30/M06 A2999 RMK AO2 SLP140 T03001061 10367 20294 51010,M
TPH,2022-06-22 05:56,-117.0904,38.0505,1654.00,62.00,3.00,9.19,70.00,5.00,0.00,30.21,1016.20,10.00,M,CLR,M,M,M,M,M,M,M,M,M,M,M,M,M,M,62.10,KTPH 220556Z AUTO 07005KT 10SM CLR 17/M16 A3021 RMK AO2 SLP162 T01671161 10294 20167 53015,M
LAS,2022-06-22 05:56,-115.1634,36.0719,663.00,89.00,24.10,9.43,260.00,6.00,0.00,29.95,1011.10,10.00,M,FEW,FEW,M,M,12000.00,20000.00,M,M,M,M,M,M,M,M,M,84.46,KLAS 220556Z 26006KT 10SM FEW120 FEW200 32/M04 A2995 RMK AO2 SLP111 T03171044 10367 20317 50007,M
WMC,2022-06-22 05:56,-117.8072,40.9019,1315.00,69.00,26.10,19.79,50.00,10.00,0.00,30.18,1017.50,10.00,M,CLR,M,M,M,M,M,M,M,M,M,M,M,M,M,M,69.10,KWMC 220556Z AUTO 05010KT 10SM CLR 21/M03 A3018 RMK AO2 SLP175 T02061033 10300 20133 53008,M
EKO,2022-06-22 05:56,-115.7860,40.8242,1367.00,67.00,27.00,22.15,40.00,11.00,0.00,30.23,1018.10,10.00,M,CLR,M,M,M,M,M,M,M,M,M,M,M,M,M,M,66.90,KEKO 220556Z AUTO 04011KT 10SM CLR 19/M03 A3023 RMK AO2 SLP181 T01941028 10294 20178 53012,M
INS,2022-06-22 05:58,-115.6733,36.5872,955.00,75.70,4.00,6.01,260.00,5.00,0.00,30.03,1012.30,10.00,M,CLR,M,M,M,M,M,M,M,M,M,M,M,M,M,M,75.70,KINS 220558Z AUTO 26005KT 10SM CLR 24/M16 A3003 RMK AO2 SLP123 T02431156 10348 20238 52013 $,M
LSV,2022-06-22 05:58,-115.0343,36.2362,570.00,87.60,18.00,7.64,330.00,1.00,0.00,29.94,1008.80,10.00,M,FEW,M,M,M,22000.00,M,M,M,M,M,M,M,M,M,M,83.02,KLSV 220558Z 33001KT 10SM FEW220 31/M08 A2994 RMK AO2A SLP088 WND DATA ESTMD T03091078 10385 20305 520009 $,M
05U,2022-06-22 06:10,-116.0051,39.6042,1811.23,51.80,17.60,25.56,0.00,0.00,0.00,30.28,M,10.00,M,CLR,M,M,M,M,M,M,M,M,M,M,M,M,M,M,51.80,K05U 220610Z AUTO 00000KT 10SM CLR 11/M08 A3028 RMK A01,M
HTH,2022-06-22 06:15,-118.6315,38.5448,1282.89,73.40,23.00,15.03,310.00,4.00,0.00,30.14,M,10.00,M,CLR,M,M,M,M,M,M,M,M,M,M,M,M,M,M,73.40,KHTH 220615Z AUTO 31004KT 10SM CLR 23/M05 A3014 RMK A01,M
MEV,2022-06-22 06:15,-119.7500,38.9963,1441.42,50.00,32.00,49.81,160.00,4.00,0.00,30.18,M,10.00,M,CLR,M,M,M,M,M,M,M,M,M,M,M,M,M,M,50.00,KMEV 220615Z AUTO 16004KT 10SM CLR 10/M00 A3018 RMK AO2,M
TMT,2022-06-22 06:15,-117.1971,39.4643,1749.34,52.30,17.40,24.88,330.00,3.00,0.00,30.24,M,10.00,M,CLR,M,M,M,M,M,M,M,M,M,M,M,M,M,M,52.30,KTMT 220615Z AUTO 33003KT 10SM CLR 11/M08 A3024 RMK AO2 T01131081,M
BAM,2022-06-22 06:15,-116.8743,40.5990,1382.36,68.00,21.20,16.74,30.00,3.00,0.00,30.19,M,10.00,M,CLR,M,M,M,M,M,M,M,M,M,M,M,M,M,M,68.00,KBAM 220615Z AUTO 03003KT 10SM CLR 20/M06 A3019 RMK AO1,M
CXP,2022-06-22 06:15,-119.7326,39.1923,1431.00,64.40,21.20,18.96,0.00,0.00,0.00,30.19,M,10.00,M,CLR,M,M,M,M,M,M,M,M,M,M,M,M,M,M,64.40,KCXP 220615Z AUTO 00000KT 10SM CLR 18/M06 A3019 RMK AO2,M
BVU,2022-06-22 06:15,-114.8611,35.9475,671.00,82.40,30.20,15.03,0.00,0.00,0.00,29.96,M,10.00,M,CLR,M,M,M,M,M,M,M,M,M,M,M,M,M,M,79.97,KBVU 220615Z AUTO 00000KT 10SM CLR 28/M01 A2996 RMK AO2,M
RTS,2022-06-22 06:15,-119.8764,39.6682,1539.00,60.80,17.60,18.46,0.00,0.00,0.00,30.22,M,10.00,M,CLR,M,M,M,M,M,M,M,M,M,M,M,M,M,M,60.80,KRTS 220615Z AUTO 00000KT 10SM CLR 16/M08 A3022 RMK AO2,M
TMT,2022-06-22 06:35,-117.1971,39.4643,1749.34,53.20,18.00,24.70,0.00,0.00,0.00,30.25,M,10.00,M,CLR,M,M,M,M,M,M,M,M,M,M,M,M,M,M,53.20,KTMT 220635Z AUTO 00000KT 10SM CLR 12/M08 A3025 RMK AO2 T01181078,M
HTH,2022-06-22 06:35,-118.6315,38.5448,1282.89,71.60,23.00,15.97,300.00,6.00,0.00,30.14,M,10.00,M,CLR,M,M,M,M,M,M,M,M,M,M,M,M,M,M,71.60,KHTH 220635Z AUTO 30006KT 10SM CLR 22/M05 A3014 RMK A01,M
BVU,2022-06-22 06:35,-114.8611,35.9475,671.00,82.40,30.20,15.03,0.00,0.00,0.00,29.96,M,10.00,M,CLR,M,M,M,M,M,M,M,M,M,M,M,M,M,M,79.97,KBVU 220635Z AUTO 00000KT 10SM CLR 28/M01 A2996 RMK AO2,M
RTS,2022-06-22 06:35,-119.8764,39.6682,1539.00,59.00,17.60,19.68,340.00,3.00,0.00,30.22,M,10.00,M,CLR,M,M,M,M,M,M,M,M,M,M,M,M,M,M,59.00,KRTS 220635Z AUTO 34003KT 10SM CLR 15/M08 A3022 RMK AO2,M
CXP,2022-06-22 06:35,-119.7326,39.1923,1431.00,60.80,21.20,21.53,0.00,0.00,0.00,30.19,M,10.00,M,CLR,M,M,M,M,M,M,M,M,M,M,M,M,M,M,60.80,KCXP 220635Z AUTO 00000KT 10SM CLR 16/M06 A3019 RMK AO2,M
05U,2022-06-22 06:35,-116.0051,39.6042,1811.23,50.00,17.60,27.33,0.00,0.00,0.00,30.28,M,10.00,M,CLR,M,M,M,M,M,M,M,M,M,M,M,M,M,M,50.00,K05U 220635Z AUTO 00000KT 10SM CLR 10/M08 A3028 RMK A01,M
MEV,2022-06-22 06:35,-119.7500,38.9963,1441.42,50.00,32.00,49.81,150.00,5.00,0.00,30.18,M,10.00,M,CLR,M,M,M,M,M,M,M,M,M,M,M,M,M,M,50.00,KMEV 220635Z AUTO 15005KT 10SM CLR 10/M00 A3018 RMK AO2,M
BAM,2022-06-22 06:35,-116.8743,40.5990,1382.36,64.40,21.20,18.96,20.00,4.00,0.00,30.20,M,10.00,M,CLR,M,M,M,M,M,M,M,M,M,M,M,M,M,M,64.40,KBAM 220635Z AUTO 02004KT 10SM CLR 18/M06 A3020 RMK AO1,M
VGT,2022-06-22 06:53,-115.1933,36.2111,667.00,84.00,28.00,13.04,290.00,4.00,0.00,29.95,1012.90,10.00,M,CLR,M,M,M,M,M,M,M,M,M,M,M,M,M,M,81.10,KVGT 220653Z AUTO 29004KT 10SM CLR 29/M02 A2995 RMK AO2 SLP129 T02891022,M
DRA,2022-06-22 06:53,-116.0278,36.6206,1009.00,76.00,6.00,6.60,90.00,5.00,0.00,30.03,1011.70,10.00,M,CLR,M,M,M,M,M,M,M,M,M,M,M,M,M,M,75.90,KDRA 220653Z AUTO 09005KT 10SM CLR 24/M14 A3003 RMK AO2 SLP117 T02441144,M
LOL,2022-06-22 06:53,-118.5701,40.0684,1192.43,56.00,21.90,26.43,80.00,6.00,0.00,30.13,1017.20,10.00,M,CLR,M,M,M,M,M,M,M,M,M,M,M,M,M,M,55.90,KLOL 220653Z AUTO 08006KT 10SM CLR 13/M06 A3013 RMK AO2 SLP172 T01331056,M
P68,2022-06-22 06:53,-116.0056,39.6014,1993.00,50.00,17.10,26.74,160.00,3.00,0.00,30.26,1017.70,M,M,M,M,M,M,M,M,M,M,M,M,M,M,M,M,M,50.00,KP68 220653Z AUTO 16003KT 10/M08 A3026 RMK AO1 SLP177 T01001083,M
ELY,2022-06-22 06:53,-114.8453,39.2950,1909.00,58.00,21.00,23.67,0.00,0.00,0.00,30.31,1017.20,10.00,M,CLR,M,M,M,M,M,M,M,M,M,M,M,M,M,M,57.90,KELY 220653Z AUTO 00000KT 10SM CLR 14/M06 A3031 RMK AO2 SLP172 T01441061,M
05U,2022-06-22 06:55,-116.0051,39.6042,1811.23,48.20,15.80,27.04,0.00,0.00,0.00,30.28,M,10.00,M,CLR,M,M,M,M,M,M,M,M,M,M,M,M,M,M,48.20,K05U 220655Z AUTO 00000KT 10SM CLR 09/M09 A3028 RMK A01,M
RTS,2022-06-22 06:55,-119.8764,39.6682,1539.00,59.00,19.40,21.26,0.00,0.00,0.00,30.22,M,10.00,M,CLR,M,M,M,M,M,M,M,M,M,M,M,M,M,M,59.00,KRTS 220655Z AUTO 00000KT 10SM CLR 15/M07 A3022 RMK AO2,M
MEV,2022-06-22 06:55,-119.7500,38.9963,1441.42,48.20,28.40,46.02,160.00,5.00,0.00,30.18,M,10.00,M,CLR,M,M,M,M,M,M,M,M,M,M,M,M,M,M,45.63,KMEV 220655Z AUTO 16005KT 10SM CLR 09/M02 A3018 RMK AO2,M
BVU,2022-06-22 06:55,-114.8611,35.9475,671.00,82.40,33.80,17.38,0.00,0.00,0.00,29.96,M,10.00,M,CLR,M,M,M,M,M,M,M,M,M,M,M,M,M,M,80.03,KBVU 220655Z AUTO 00000KT 10SM CLR 28/01 A2996 RMK AO2,M
CXP,2022-06-22 06:55,-119.7326,39.1923,1431.00,62.60,19.40,18.71,0.00,0.00,0.00,30.19,M,10.00,M,CLR,M,M,M,M,M,M,M,M,M,M,M,M,M,M,62.60,KCXP 220655Z AUTO 00000KT 10SM CLR 17/M07 A3019 RMK AO2,M
RNO,2022-06-22 06:55,-119.7711,39.4839,1341.00,67.00,25.00,20.39,0.00,0.00,0.00,30.17,1016.60,10.00,M,CLR,M,M,M,M,M,M,M,M,M,M,M,M,M,M,66.90,KRNO 220655Z 00000KT 10SM CLR 19/M04 A3017 RMK AO2 SLP166 T01941039,M
HTH,2022-06-22 06:55,-118.6315,38.5448,1282.89,71.60,21.20,14.80,M,4.00,0.00,30.14,M,10.00,M,CLR,M,M,M,M,M,M,M,M,M,M,M,M,M,M,71.60,KHTH 220655Z AUTO VRB04KT 10SM CLR 22/M06 A3014 RMK A01,M
TMT,2022-06-22 06:55,-117.1971,39.4643,1749.34,55.00,18.50,23.63,300.00,5.00,0.00,30.25,M,10.00,M,CLR,M,M,M,M,M,M,M,M,M,M,M,M,M,M,55.00,KTMT 220655Z AUTO 30005KT 10SM CLR 13/M07 A3025 RMK AO2 T01281075,M
BAM,2022-06-22 06:55,-116.8743,40.5990,1382.36,59.00,21.20,22.95,30.00,5.00,0.00,30.20,M,10.00,M,CLR,M,M,M,M,M,M,M,M,M,M,M,M,M,M,59.00,KBAM 220655Z AUTO 03005KT 10SM CLR 15/M06 A3020 RMK AO1,M
NFL,2022-06-22 06:56,-118.7010,39.4166,1199.00,62.00,23.00,22.18,350.00,7.00,0.00,30.11,1016.40,10.00,M,CLR,M,M,M,M,M,M,M,M,M,M,M,M,M,M,62.10,KNFL 220656Z 35007KT 10SM CLR 17/M05 A3011 RMK AO2 SLP164 T01671050,M
EKO,2022-06-22 06:56,-115.7860,40.8242,1367.00,64.00,30.00,27.71,60.00,10.00,0.00,30.23,1018.60,10.00,M,CLR,M,M,M,M,M,M,M,M,M,M,M,M,M,M,64.00,KEKO 220656Z AUTO 06010KT 10SM CLR 18/M01 A3023 RMK AO2 SLP186 T01781011,M
WMC,2022-06-22 06:56,-117.8072,40.9019,1315.00,69.00,30.90,24.09,50.00,14.00,0.00,30.18,1017.20,10.00,M,CLR,M,M,M,M,M,M,M,M,M,M,M,M,M,M,69.10,KWMC 220656Z AUTO 05014KT 10SM CLR 21/M01 A3018 RMK AO2 SLP172 T02061006,M
HND,2022-06-22 06:56,-115.1344,35.9729,742.79,83.00,24.10,11.50,170.00,8.00,0.00,29.99,1014.10,10.00,M,CLR,M,M,M,M,M,M,M,M,M,M,M,M,M,M,80.07,KHND 220656Z AUTO 17008KT 10SM CLR 28/M04 A2999 RMK AO2 SLP141 T02831044 403670178,M
TPH,2022-06-22 06:56,-117.0904,38.0505,1654.00,58.00,3.00,10.67,360.00,5.00,0.00,30.21,1016.50,10.00,M,CLR,M,M,M,M,M,M,M,M,M,M,M,M,M,M,57.90,KTPH 220656Z AUTO 36005KT 10SM CLR 14/M16 A3021 RMK AO2 SLP165 T01441161,M
LAS,2022-06-22 06:56,-115.1634,36.0719,663.00,86.00,25.00,10.81,260.00,5.00,0.00,29.95,1011.40,10.00,M,BKN,BKN,M,M,16000.00,22000.00,M,M,M,M,M,M,M,M,M,82.27,KLAS 220656Z 26005KT 10SM BKN160 BKN220 30/M04 A2995 RMK AO2 SLP114 T03001039,M
LSV,2022-06-22 06:58,-115.0343,36.2362,570.00,85.00,17.80,8.20,0.00,0.00,0.00,29.95,1009.10,10.00,M,FEW,M,M,M,22000.00,M,M,M,M,M,M,M,M,M,M,81.23,KLSV 220658Z 00000KT 10SM FEW220 30/M08 A2995 RMK AO2A SLP091 WND DATA ESTMD T02951079 $,M
INS,2022-06-22 06:58,-115.6733,36.5872,955.00,73.20,5.40,7.00,0.00,0.00,0.00,30.03,1012.10,10.00,M,CLR,M,M,M,M,M,M,M,M,M,M,M,M,M,M,73.20,KINS 220658Z AUTO 00000KT 10SM CLR 23/M15 A3003 RMK AO2 SLP121 T02291148 $,M
RTS,2022-06-22 07:15,-119.8764,39.6682,1539.00,57.20,19.40,22.68,310.00,5.00,0.00,30.22,M,10.00,M,CLR,M,M,M,M,M,M,M,M,M,M,M,M,M,M,57.20,KRTS 220715Z AUTO 31005KT 10SM CLR 14/M07 A3022 RMK AO2,M
TMT,2022-06-22 07:15,-117.1971,39.4643,1749.34,55.00,18.30,23.43,350.00,5.00,0.00,30.25,M,10.00,M,CLR,M,M,M,M,M,M,M,M,M,M,M,M,M,M,55.00,KTMT 220715Z AUTO 35005KT 10SM CLR 13/M08 A3025 RMK AO2 T01281076,M
BVU,2022-06-22 07:15,-114.8611,35.9475,671.00,82.40,35.60,18.67,0.00,0.00,0.00,29.95,M,10.00,M,CLR,M,M,M,M,M,M,M,M,M,M,M,M,M,M,80.08,KBVU 220715Z AUTO 00000KT 10SM CLR 28/02 A2995 RMK AO2,M
BAM,2022-06-22 07:15,-116.8743,40.5990,1382.36,57.20,21.20,24.49,20.00,6.00,0.00,30.20,M,10.00,M,CLR,M,M,M,M,M,M,M,M,M,M,M,M,M,M,57.20,KBAM 220715Z AUTO 02006KT 10SM CLR 14/M06 A3020 RMK AO1,M
HTH,2022-06-22 07:15,-118.6315,38.5448,1282.89,69.80,21.20,15.73,250.00,5.00,0.00,30.14,M,10.00,M,CLR,M,M,M,M,M,M,M,M,M,M,M,M,M,M,69.80,KHTH 220715Z AUTO 25005KT 10SM CLR 21/M06 A3014 RMK A01,M
MEV,2022-06-22 07:15,-119.7500,38.9963,1441.42,50.00,32.00,49.81,110.00,5.00,0.00,30.19,M,10.00,M,CLR,M,M,M,M,M,M,M,M,M,M,M,M,M,M,50.00,KMEV 220715Z AUTO 11005KT 10SM CLR 10/M00 A3019 RMK AO2,M
CXP,2022-06-22 07:15,-119.7326,39.1923,1431.00,60.80,21.20,21.53,0.00,0.00,0.00,30.19,M,10.00,M,CLR,M,M,M,M,M,M,M,M,M,M,M,M,M,M,60.80,KCXP 220715Z AUTO 00000KT 10SM CLR 16/M06 A3019 RMK AO2,M
05U,2022-06-22 07:15,-116.0051,39.6042,1811.23,46.40,17.60,31.28,0.00,0.00,0.00,30.28,M,10.00,M,CLR,M,M,M,M,M,M,M,M,M,M,M,M,M,M,46.40,K05U 220715Z AUTO 00000KT 10SM CLR 08/M08 A3028 RMK A01,M
CXP,2022-06-22 07:35,-119.7326,39.1923,1431.00,59.00,23.00,24.76,0.00,0.00,0.00,30.20,M,10.00,M,CLR,M,M,M,M,M,M,M,M,M,M,M,M,M,M,59.00,KCXP 220735Z AUTO 00000KT 10SM CLR 15/M05 A3020 RMK AO2,M
RTS,2022-06-22 07:35,-119.8764,39.6682,1539.00,55.40,19.40,24.21,0.00,0.00,0.00,30.22,M,10.00,M,CLR,M,M,M,M,M,M,M,M,M,M,M,M,M,M,55.40,KRTS 220735Z AUTO 00000KT 10SM CLR 13/M07 A3022 RMK AO2,M
05U,2022-06-22 07:35,-116.0051,39.6042,1811.23,44.60,15.80,30.98,0.00,0.00,0.00,30.28,M,10.00,M,CLR,M,M,M,M,M,M,M,M,M,M,M,M,M,M,44.60,K05U 220735Z AUTO 00000KT 10SM CLR 07/M09 A3028 RMK A01,M
MEV,2022-06-22 07:35,-119.7500,38.9963,1441.42,50.00,28.40,43.03,90.00,5.00,0.00,30.19,M,10.00,M,CLR,M,M,M,M,M,M,M,M,M,M,M,M,M,M,50.00,KMEV 220735Z AUTO 09005KT 10SM CLR 10/M02 A3019 RMK AO2,M
HTH,2022-06-22 07:35,-118.6315,38.5448,1282.89,68.00,21.20,16.74,120.00,3.00,0.00,30.14,M,10.00,M,CLR,M,M,M,M,M,M,M,M,M,M,M,M,M,M,68.00,KHTH 220735Z AUTO 12003KT 10SM CLR 20/M06 A3014 RMK A01,M
TMT,2022-06-22 07:35,-117.1971,39.4643,1749.34,49.50,18.70,29.19,210.00,8.00,0.00,30.25,M,10.00,M,CLR,M,M,M,M,M,M,M,M,M,M,M,M,M,M,45.67,KTMT 220735Z AUTO 21008KT 10SM CLR 10/M07 A3025 RMK AO2 T00971074,M
BVU,2022-06-22 07:35,-114.8611,35.9475,671.00,84.20,23.00,10.53,0.00,0.00,0.00,29.96,M,10.00,M,CLR,M,M,M,M,M,M,M,M,M,M,M,M,M,M,80.88,KBVU 220735Z AUTO 00000KT 10SM CLR 29/M05 A2996 RMK AO2,M
BAM,2022-06-22 07:35,-116.8743,40.5990,1382.36,55.40,19.40,24.21,50.00,6.00,0.00,30.21,M,10.00,M,CLR,M,M,M,M,M,M,M,M,M,M,M,M,M,M,55.40,KBAM 220735Z AUTO 05006KT 10SM CLR 13/M07 A3021 RMK AO1,M
VGT,2022-06-22 07:53,-115.1933,36.2111,667.00,83.00,27.00,12.97,330.00,3.00,0.00,29.95,1012.80,10.00,M,CLR,M,M,M,M,M,M,M,M,M,M,M,M,M,M,80.28,KVGT 220753Z AUTO 33003KT 10SM CLR 28/M03 A2995 RMK AO2 SLP128 T02831028 403780211,M
P68,2022-06-22 07:53,-116.0056,39.6014,1993.00,45.00,17.10,32.28,0.00,0.00,0.00,30.26,1018.40,M,M,M,M,M,M,M,M,M,M,M,M,M,M,M,M,M,45.00,KP68 220753Z AUTO 00000KT 07/M08 A3026 RMK AO1 SLP184 T00721083 402780000,M
LOL,2022-06-22 07:53,-118.5701,40.0684,1192.43,64.00,21.00,19.07,80.00,3.00,0.00,30.13,1016.60,10.00,M,CLR,M,M,M,M,M,M,M,M,M,M,M,M,M,M,64.00,KLOL 220753Z AUTO 08003KT 10SM CLR 18/M06 A3013 RMK AO2 SLP166 T01781061 403110044,M
ELY,2022-06-22 07:53,-114.8453,39.2950,1909.00,54.00,19.00,25.04,110.00,7.00,0.00,30.31,1017.30,10.00,M,CLR,M,M,M,M,M,M,M,M,M,M,M,M,M,M,54.00,KELY 220753Z AUTO 11007KT 10SM CLR 12/M07 A3031 RMK AO2 SLP173 T01221072 402720011,M
DRA,2022-06-22 07:53,-116.0278,36.6206,1009.00,75.00,7.00,7.08,90.00,5.00,0.00,30.03,1011.60,10.00,M,CLR,M,M,M,M,M,M,M,M,M,M,M,M,M,M,75.00,KDRA 220753Z AUTO 09005KT 10SM CLR 24/M14 A3003 RMK AO2 SLP116 T02391139 403560172,M
RTS,2022-06-22 07:55,-119.8764,39.6682,1539.00,57.20,19.40,22.68,0.00,0.00,0.00,30.22,M,10.00,M,CLR,M,M,M,M,M,M,M,M,M,M,M,M,M,M,57.20,KRTS 220755Z AUTO 00000KT 10SM CLR 14/M07 A3022 RMK AO2,M
CXP,2022-06-22 07:55,-119.7326,39.1923,1431.00,59.00,23.00,24.76,100.00,3.00,0.00,30.20,M,10.00,M,CLR,M,M,M,M,M,M,M,M,M,M,M,M,M,M,59.00,KCXP 220755Z AUTO 10003KT 10SM CLR 15/M05 A3020 RMK AO2,M
BVU,2022-06-22 07:55,-114.8611,35.9475,671.00,80.60,33.80,18.42,0.00,0.00,0.00,29.96,M,10.00,M,CLR,M,M,M,M,M,M,M,M,M,M,M,M,M,M,78.88,KBVU 220755Z AUTO 00000KT 10SM CLR 27/01 A2996 RMK AO2,M
05U,2022-06-22 07:55,-116.0051,39.6042,1811.23,46.40,15.80,28.93,0.00,0.00,0.00,30.28,M,10.00,M,CLR,M,M,M,M,M,M,M,M,M,M,M,M,M,M,46.40,K05U 220755Z AUTO 00000KT 10SM CLR 08/M09 A3028 RMK A01,M
MEV,2022-06-22 07:55,-119.7500,38.9963,1441.42,46.40,32.00,57.00,0.00,0.00,0.00,30.19,M,10.00,M,CLR,M,M,M,M,M,M,M,M,M,M,M,M,M,M,46.40,KMEV 220755Z AUTO 00000KT 10SM CLR 08/M00 A3019 RMK AO2,M
RNO,2022-06-22 07:55,-119.7711,39.4839,1341.00,65.00,26.10,22.88,250.00,4.00,0.00,30.18,1016.70,10.00,M,CLR,M,M,M,M,M,M,M,M,M,M,M,M,M,M,64.90,KRNO 220755Z 25004KT 10SM CLR 18/M03 A3018 RMK AO2 SLP167 T01831033 403000106,M
TMT,2022-06-22 07:55,-117.1971,39.4643,1749.34,47.00,17.10,29.81,200.00,7.00,0.00,30.25,M,10.00,M,CLR,M,M,M,M,M,M,M,M,M,M,M,M,M,M,43.18,KTMT 220755Z AUTO 20007KT 10SM CLR 08/M08 A3025 RMK AO2 T00841083 402811030,M
BAM,2022-06-22 07:55,-116.8743,40.5990,1382.36,55.40,23.00,28.20,40.00,7.00,0.00,30.20,M,10.00,M,CLR,M,M,M,M,M,M,M,M,M,M,M,M,M,M,55.40,KBAM 220755Z AUTO 04007KT 10SM CLR 13/M05 A3020 RMK AO1,M
HTH,2022-06-22 07:55,-118.6315,38.5448,1282.89,68.00,21.20,16.74,140.00,3.00,0.00,30.14,M,10.00,M,CLR,M,M,M,M,M,M,M,M,M,M,M,M,M,M,68.00,KHTH 220755Z AUTO 14003KT 10SM CLR 20/M06 A3014 RMK A01,M
HND,2022-06-22 07:56,-115.1344,35.9729,742.79,81.00,26.10,13.29,200.00,4.00,0.00,29.99,1014.10,10.00,M,CLR,M,M,M,M,M,M,M,M,M,M,M,M,M,M,78.94,KHND 220756Z AUTO 20004KT 10SM CLR 27/M03 A2999 RMK AO2 SLP141 T02721033,M
EKO,2022-06-22 07:56,-115.7860,40.8242,1367.00,63.00,28.90,27.44,70.00,10.00,0.00,30.23,1018.40,10.00,M,CLR,M,M,M,M,M,M,M,M,M,M,M,M,M,M,63.00,KEKO 220756Z AUTO 07010KT 10SM CLR 17/M02 A3023 RMK AO2 SLP184 T01721017 402940039,M
WMC,2022-06-22 07:56,-117.8072,40.9019,1315.00,68.00,30.90,25.02,50.00,14.00,0.00,30.18,1017.30,10.00,24.00,CLR,M,M,M,M,M,M,M,M,M,M,M,M,M,M,68.00,KWMC 220756Z AUTO 05014G24KT 10SM CLR 20/M01 A3018 RMK AO2 SLP173 T02001006 403060106,M
TPH,2022-06-22 07:56,-117.0904,38.0505,1654.00,56.00,3.00,11.47,340.00,5.00,0.00,30.21,1016.40,10.00,M,CLR,M,M,M,M,M,M,M,M,M,M,M,M,M,M,55.90,KTPH 220756Z AUTO 34005KT 10SM CLR 13/M16 A3021 RMK AO2 SLP164 T01331161 402940106,M
LAS,2022-06-22 07:56,-115.1634,36.0719,663.00,83.00,19.00,9.27,210.00,5.00,0.00,29.95,1011.50,10.00,M,BKN,BKN,M,M,17000.00,22000.00,M,M,M,M,M,M,M,M,M,79.77,KLAS 220756Z 21005KT 10SM BKN170 BKN220 28/M07 A2995 RMK AO2 SLP115 T02831072 403720217,M
NFL,2022-06-22 07:56,-118.7010,39.4166,1199.00,59.00,23.00,24.76,180.00,6.00,0.00,30.12,1016.50,10.00,M,CLR,M,M,M,M,M,M,M,M,M,M,M,M,M,M,59.00,KNFL 220756Z AUTO 18006KT 10SM CLR 15/M05 A3012 RMK AO2 SLP165 T01501050 403110067,M
INS,2022-06-22 07:58,-115.6733,36.5872,955.00,71.60,7.20,8.01,0.00,0.00,0.00,30.03,1012.10,10.00,M,CLR,M,M,M,M,M,M,M,M,M,M,M,M,M,M,71.60,KINS 220758Z AUTO 00000KT 10SM CLR 22/M14 A3003 RMK AO2 SLP121 T02201138 403480143 $,M
LSV,2022-06-22 07:58,-115.0343,36.2362,570.00,84.20,17.60,8.37,300.00,3.00,0.00,29.93,M,10.00,M,CLR,M,M,M,M,M,M,M,M,M,M,M,M,M,M,80.59,KLSV 220758Z 30003KT 10SM CLR 29/M08 A2993 RMK AO2A SLPNO WND DATA ESTMD ALSTG ESTMD 403950203 $,M
HTH,2022-06-22 08:15,-118.6315,38.5448,1282.89,64.40,23.00,20.46,160.00,5.00,0.00,30.14,M,10.00,M,CLR,M,M,M,M,M,M,M,M,M,M,M,M,M,M,64.40,KHTH 220815Z AUTO 16005KT 10SM CLR 18/M05 A3014 RMK A01,M
TMT,2022-06-22 08:15,-117.1971,39.4643,1749.34,41.40,15.30,34.27,220.00,4.00,0.00,30.25,M,10.00,M,CLR,M,M,M,M,M,M,M,M,M,M,M,M,M,M,38.40,KTMT 220815Z AUTO 22004KT 10SM CLR 05/M09 A3025 RMK AO2 T00521093,M
BAM,2022-06-22 08:15,-116.8743,40.5990,1382.36,59.00,26.60,28.77,110.00,5.00,0.00,30.20,M,10.00,M,CLR,M,M,M,M,M,M,M,M,M,M,M,M,M,M,59.00,KBAM 220815Z AUTO 11005KT 10SM CLR 15/M03 A3020 RMK AO1,M
MEV,2022-06-22 08:15,-119.7500,38.9963,1441.42,46.40,32.00,57.00,0.00,0.00,0.00,30.20,M,10.00,M,CLR,M,M,M,M,M,M,M,M,M,M,M,M,M,M,46.40,KMEV 220815Z AUTO 00000KT 10SM CLR 08/M00 A3020 RMK AO2,M
05U,2022-06-22 08:15,-116.0051,39.6042,1811.23,46.40,17.60,31.28,0.00,0.00,0.00,30.28,M,10.00,M,CLR,M,M,M,M,M,M,M,M,M,M,M,M,M,M,46.40,K05U 220815Z AUTO 00000KT 10SM CLR 08/M08 A3028 RMK A01,M
RTS,2022-06-22 08:15,-119.8764,39.6682,1539.00,53.60,19.40,25.85,360.00,3.00,0.00,30.22,M,10.00,M,CLR,M,M,M,M,M,M,M,M,M,M,M,M,M,M,53.60,KRTS 220815Z AUTO 36003KT 10SM CLR 12/M07 A3022 RMK AO2,M
CXP,2022-06-22 08:15,-119.7326,39.1923,1431.00,57.20,21.20,24.49,0.00,0.00,0.00,30.21,M,10.00,M,CLR,M,M,M,M,M,M,M,M,M,M,M,M,M,M,57.20,KCXP 220815Z AUTO 00000KT 10SM CLR 14/M06 A3021 RMK AO2,M
BVU,2022-06-22 08:15,-114.8611,35.9475,671.00,82.40,33.80,17.38,0.00,0.00,0.00,29.96,M,10.00,M,CLR,M,M,M,M,M,M,M,M,M,M,M,M,M,M,80.03,KBVU 220815Z AUTO 00000KT 10SM CLR 28/01 A2996 RMK AO2,M
CXP,2022-06-22 08:30,-119.7326,39.1923,1431.00,55.40,21.20,26.13,0.00,0.00,0.00,30.21,M,10.00,M,CLR,M,M,M,M,M,M,M,M,M,M,M,M,M,M,55.40,KCXP 220830Z AUTO 00000KT 10SM CLR 13/M06 A3021 RMK AO2,M
MEV,2022-06-22 08:35,-119.7500,38.9963,1441.42,44.60,26.60,48.96,0.00,0.00,0.00,30.20,M,10.00,M,CLR,M,M,M,M,M,M,M,M,M,M,M,M,M,M,44.60,KMEV 220835Z AUTO 00000KT 10SM CLR 07/M03 A3020 RMK AO2,M
TMT,2022-06-22 08:35,-117.1971,39.4643,1749.34,41.40,16.30,35.79,0.00,0.00,0.00,30.26,M,10.00,M,CLR,M,M,M,M,M,M,M,M,M,M,M,M,M,M,41.40,KTMT 220835Z AUTO 00000KT 10SM CLR 05/M09 A3026 RMK AO2 T00521087,M
BAM,2022-06-22 08:35,-116.8743,40.5990,1382.36,60.80,30.20,31.28,340.00,5.00,0.00,30.21,M,10.00,M,CLR,M,M,M,M,M,M,M,M,M,M,M,M,M,M,60.80,KBAM 220835Z AUTO 34005KT 10SM CLR 16/M01 A3021 RMK AO1,M
HTH,2022-06-22 08:35,-118.6315,38.5448,1282.89,66.20,19.40,16.50,190.00,5.00,0.00,30.14,M,10.00,M,CLR,M,M,M,M,M,M,M,M,M,M,M,M,M,M,66.20,KHTH 220835Z AUTO 19005KT 10SM CLR 19/M07 A3014 RMK A01,M
BVU,2022-06-22 08:35,-114.8611,35.9475,671.00,82.40,28.40,13.96,0.00,0.00,0.00,29.96,M,10.00,M,CLR,M,M,M,M,M,M,M,M,M,M,M,M,M,M,79.94,KBVU 220835Z AUTO 00000KT 10SM CLR 28/M02 A2996 RMK AO2,M
05U,2022-06-22 08:35,-116.0051,39.6042,1811.23,44.60,15.80,30.98,0.00,0.00,0.00,30.28,M,10.00,M,CLR,M,M,M,M,M,M,M,M,M,M,M,M,M,M,44.60,K05U 220835Z AUTO 00000KT 10SM CLR 07/M09 A3028 RMK A01,M
RTS,2022-06-22 08:35,-119.8764,39.6682,1539.00,55.40,19.40,24.21,320.00,4.00,0.00,30.22,M,10.00,M,CLR,M,M,M,M,M,M,M,M,M,M,M,M,M,M,55.40,KRTS 220835Z AUTO 32004KT 10SM CLR 13/M07 A3022 RMK AO2,M
VGT,2022-06-22 08:53,-115.1933,36.2111,667.00,82.00,27.00,13.36,350.00,4.00,0.00,29.95,1012.70,10.00,M,CLR,M,M,M,M,M,M,M,M,M,M,M,M,M,M,79.64,KVGT 220853Z AUTO 35004KT 10SM CLR 28/M03 A2995 RMK AO2 SLP127 T02781028 50000,M
DRA,2022-06-22 08:53,-116.0278,36.6206,1009.00,69.00,6.00,8.30,70.00,5.00,0.00,30.03,1011.90,10.00,M,CLR,M,M,M,M,M,M,M,M,M,M,M,M,M,M,69.10,KDRA 220853Z AUTO 07005KT 10SM CLR 21/M14 A3003 RMK AO2 SLP119 T02061144 57001,M
P68,2022-06-22 08:53,-116.0056,39.6014,1993.00,48.00,19.90,32.50,100.00,4.00,0.00,30.26,1017.70,M,M,M,M,M,M,M,M,M,M,M,M,M,M,M,M,M,46.10,KP68 220853Z AUTO 10004KT 09/M07 A3026 RMK AO1 SLP177 T00891067 58000,M
ELY,2022-06-22 08:53,-114.8453,39.2950,1909.00,48.00,19.00,31.27,180.00,9.00,0.00,30.32,1018.00,10.00,M,CLR,M,M,M,M,M,M,M,M,M,M,M,M,M,M,43.41,KELY 220853Z AUTO 18009KT 10SM CLR 09/M07 A3032 RMK AO2 SLP180 T00891072 51005,M
LOL,2022-06-22 08:53,-118.5701,40.0684,1192.43,66.00,21.90,18.47,40.00,12.00,0.00,30.13,1016.20,10.00,M,CLR,M,M,M,M,M,M,M,M,M,M,M,M,M,M,66.00,KLOL 220853Z AUTO 04012KT 10SM CLR 19/M06 A3013 RMK AO2 SLP162 T01891056 50000,M
05U,2022-06-22 08:55,-116.0051,39.6042,1811.23,44.60,17.60,33.49,0.00,0.00,0.00,30.28,M,10.00,M,CLR,M,M,M,M,M,M,M,M,M,M,M,M,M,M,44.60,K05U 220855Z AUTO 00000KT 10SM CLR 07/M08 A3028 RMK A01,M
BVU,2022-06-22 08:55,-114.8611,35.9475,671.00,84.20,21.20,9.76,310.00,4.00,0.00,29.96,M,10.00,M,CLR,M,M,M,M,M,M,M,M,M,M,M,M,M,M,80.77,KBVU 220855Z AUTO 31004KT 10SM CLR 29/M06 A2996 RMK AO2,M
CXP,2022-06-22 08:55,-119.7326,39.1923,1431.00,57.20,21.20,24.49,0.00,0.00,0.00,30.21,M,10.00,M,CLR,M,M,M,M,M,M,M,M,M,M,M,M,M,M,57.20,KCXP 220855Z AUTO 00000KT 10SM CLR 14/M06 A3021 RMK AO2,M
RNO,2022-06-22 08:55,-119.7711,39.4839,1341.00,63.00,26.10,24.46,290.00,4.00,0.00,30.18,1016.70,10.00,M,CLR,M,M,M,M,M,M,M,M,M,M,M,M,M,M,63.00,KRNO 220855Z 29004KT 10SM CLR 17/M03 A3018 RMK AO2 SLP167 T01721033 51004,M
RTS,2022-06-22 08:55,-119.8764,39.6682,1539.00,50.00,17.60,27.33,330.00,5.00,0.00,30.23,M,10.00,M,CLR,M,M,M,M,M,M,M,M,M,M,M,M,M,M,50.00,KRTS 220855Z AUTO 33005KT 10SM CLR 10/M08 A3023 RMK AO2,M
MEV,2022-06-22 08:55,-119.7500,38.9963,1441.42,44.60,28.40,52.72,0.00,0.00,0.00,30.21,M,10.00,M,CLR,M,M,M,M,M,M,M,M,M,M,M,M,M,M,44.60,KMEV 220855Z AUTO 00000KT 10SM CLR 07/M02 A3021 RMK AO2,M
BAM,2022-06-22 08:55,-116.8743,40.5990,1382.36,62.60,28.40,27.27,350.00,8.00,0.00,30.21,M,10.00,M,CLR,M,M,M,M,M,M,M,M,M,M,M,M,M,M,62.60,KBAM 220855Z AUTO 35008KT 10SM CLR 17/M02 A3021 RMK AO1,M
TMT,2022-06-22 08:55,-117.1971,39.4643,1749.34,41.40,15.80,35.02,220.00,9.00,0.00,30.26,M,10.00,M,CLR,M,M,M,M,M,M,M,M,M,M,M,M,M,M,35.20,KTMT 220855Z AUTO 22009KT 10SM CLR 05/M09 A3026 RMK AO2 T00521090,M
HTH,2022-06-22 08:55,-118.6315,38.5448,1282.89,64.40,19.40,17.56,230.00,6.00,0.00,30.14,M,10.00,M,CLR,M,M,M,M,M,M,M,M,M,M,M,M,M,M,64.40,KHTH 220855Z AUTO 23006KT 10SM CLR 18/M07 A3014 RMK A01,M
EKO,2022-06-22 08:56,-115.7860,40.8242,1367.00,56.00,28.00,34.08,240.00,4.00,0.00,30.24,1018.80,10.00,M,CLR,M,M,M,M,M,M,M,M,M,M,M,M,M,M,55.90,KEKO 220856Z AUTO 24004KT 10SM CLR 13/M02 A3024 RMK AO2 SLP188 T01331022 51003,M
TPH,2022-06-22 08:56,-117.0904,38.0505,1654.00,56.00,4.00,11.95,360.00,11.00,0.00,30.21,1016.20,10.00,M,CLR,M,M,M,M,M,M,M,M,M,M,M,M,M,M,55.90,KTPH 220856Z AUTO 36011KT 10SM CLR 13/M16 A3021 RMK AO2 SLP162 T01331156 55001,M
NFL,2022-06-22 08:56,-118.7010,39.4166,1199.00,57.00,28.90,33.98,210.00,5.00,0.00,30.12,1016.60,10.00,M,CLR,M,M,M,M,M,M,M,M,M,M,M,M,M,M,57.00,KNFL 220856Z AUTO 21005KT 10SM CLR 14/M02 A3012 RMK AO2 SLP166 T01391017 53002,M
HND,2022-06-22 08:56,-115.1344,35.9729,742.79,84.00,28.00,13.04,210.00,6.00,0.00,29.99,1013.90,10.00,M,CLR,M,M,M,M,M,M,M,M,M,M,M,M,M,M,81.10,KHND 220856Z AUTO 21006KT 10SM CLR 29/M02 A2999 RMK AO2 SLP139 T02891022 50001,M
LAS,2022-06-22 08:56,-115.1634,36.0719,663.00,83.00,19.90,9.63,180.00,6.00,0.00,29.96,1011.50,10.00,M,BKN,BKN,M,M,18000.00,22000.00,M,M,M,M,M,M,M,M,M,79.82,KLAS 220856Z 18006KT 10SM BKN180 BKN220 28/M07 A2996 RMK AO2 SLP115 T02831067 51004,M
WMC,2022-06-22 08:56,-117.8072,40.9019,1315.00,64.00,32.00,30.05,30.00,6.00,0.00,30.20,1017.90,10.00,M,CLR,M,M,M,M,M,M,M,M,M,M,M,M,M,M,64.00,KWMC 220856Z AUTO 03006KT 10SM CLR 18/00 A3020 RMK AO2 SLP179 T01780000 53006,M
INS,2022-06-22 08:58,-115.6733,36.5872,955.00,68.50,4.80,7.99,0.00,0.00,0.00,30.03,1012.10,10.00,M,CLR,M,M,M,M,M,M,M,M,M,M,M,M,M,M,68.50,KINS 220858Z AUTO 00000KT 10SM CLR 20/M15 A3003 RMK AO2 SLP121 T02031151 56001 $,M
LSV,2022-06-22 08:58,-115.0343,36.2362,570.00,80.60,19.40,10.16,200.00,5.00,0.00,29.92,M,10.00,M,CLR,M,M,M,M,M,M,M,M,M,M,M,M,M,M,78.56,KLSV 220858Z 20005KT 10SM CLR 27/M07 A2992 RMK AO2A SLPNO WND DATA ESTMD ALSTG ESTMD $,M
TMT,2022-06-22 09:15,-117.1971,39.4643,1749.34,45.70,15.80,29.71,200.00,9.00,0.00,30.27,M,10.00,M,CLR,M,M,M,M,M,M,M,M,M,M,M,M,M,M,40.55,KTMT 220915Z AUTO 20009KT 10SM CLR 08/M09 A3027 RMK AO2 T00761090,M
BAM,2022-06-22 09:15,-116.8743,40.5990,1382.36,62.60,30.20,29.35,350.00,9.00,0.00,30.21,M,10.00,M,CLR,M,M,M,M,M,M,M,M,M,M,M,M,M,M,62.60,KBAM 220915Z AUTO 35009KT 10SM CLR 17/M01 A3021 RMK AO1,M
HTH,2022-06-22 09:15,-118.6315,38.5448,1282.89,62.60,17.60,17.32,220.00,6.00,0.00,30.15,M,10.00,M,CLR,M,M,M,M,M,M,M,M,M,M,M,M,M,M,62.60,KHTH 220915Z AUTO 22006KT 10SM CLR 17/M08 A3015 RMK A01,M
05U,2022-06-22 09:15,-116.0051,39.6042,1811.23,41.00,17.60,38.45,0.00,0.00,0.00,30.28,M,10.00,M,CLR,M,M,M,M,M,M,M,M,M,M,M,M,M,M,41.00,K05U 220915Z AUTO 00000KT 10SM CLR 05/M08 A3028 RMK A01,M
RTS,2022-06-22 09:15,-119.8764,39.6682,1539.00,48.20,17.60,29.23,340.00,5.00,0.00,30.23,M,10.00,M,CLR,M,M,M,M,M,M,M,M,M,M,M,M,M,M,45.63,KRTS 220915Z AUTO 34005KT 10SM CLR 09/M08 A3023 RMK AO2,M
MEV,2022-06-22 09:15,-119.7500,38.9963,1441.42,41.00,30.20,65.16,0.00,0.00,0.00,30.21,M,10.00,M,CLR,M,M,M,M,M,M,M,M,M,M,M,M,M,M,41.00,KMEV 220915Z AUTO 00000KT 10SM CLR 05/M01 A3021 RMK AO2,M
CXP,2022-06-22 09:15,-119.7326,39.1923,1431.00,53.60,21.20,27.91,60.00,3.00,0.00,30.22,M,10.00,M,CLR,M,M,M,M,M,M,M,M,M,M,M,M,M,M,53.60,KCXP 220915Z AUTO 06003KT 10SM CLR 12/M06 A3022 RMK AO2,M
BVU,2022-06-22 09:15,-114.8611,35.9475,671.00,84.20,24.80,11.35,0.00,0.00,0.00,29.96,M,10.00,M,CLR,M,M,M,M,M,M,M,M,M,M,M,M,M,M,81.00,KBVU 220915Z AUTO 00000KT 10SM CLR 29/M04 A2996 RMK AO2,M
BAM,2022-06-22 09:35,-116.8743,40.5990,1382.36,60.80,30.20,31.28,350.00,7.00,0.00,30.21,M,10.00,M,CLR,M,M,M,M,M,M,M,M,M,M,M,M,M,M,60.80,KBAM 220935Z AUTO 35007KT 10SM CLR 16/M01 A3021 RMK AO1,M
BVU,2022-06-22 09:35,-114.8611,35.9475,671.00,86.00,23.00,9.94,0.00,0.00,0.00,29.96,M,10.00,M,FEW,M,M,M,12000.00,M,M,M,M,M,M,M,M,M,M,82.14,KBVU 220935Z AUTO 00000KT 10SM FEW120 30/M05 A2996 RMK AO2,M
CXP,2022-06-22 09:35,-119.7326,39.1923,1431.00,51.80,23.00,32.17,0.00,0.00,0.00,30.22,M,10.00,M,CLR,M,M,M,M,M,M,M,M,M,M,M,M,M,M,51.80,KCXP 220935Z AUTO 00000KT 10SM CLR 11/M05 A3022 RMK AO2,M
RTS,2022-06-22 09:35,-119.8764,39.6682,1539.00,46.40,17.60,31.28,350.00,5.00,0.00,30.23,M,10.00,M,CLR,M,M,M,M,M,M,M,M,M,M,M,M,M,M,43.50,KRTS 220935Z AUTO 35005KT 10SM CLR 08/M08 A3023 RMK AO2,M
05U,2022-06-22 09:35,-116.0051,39.6042,1811.23,42.80,15.80,33.18,0.00,0.00,0.00,30.28,M,10.00,M,CLR,M,M,M,M,M,M,M,M,M,M,M,M,M,M,42.80,K05U 220935Z AUTO 00000KT 10SM CLR 06/M09 A3028 RMK A01,M
MEV,2022-06-22 09:35,-119.7500,38.9963,1441.42,42.80,33.80,70.28,90.00,4.00,0.00,30.21,M,10.00,M,CLR,M,M,M,M,M,M,M,M,M,M,M,M,M,M,40.03,KMEV 220935Z AUTO 09004KT 10SM CLR 06/01 A3021 RMK AO2,M
TMT,2022-06-22 09:35,-117.1971,39.4643,1749.34,44.00,15.40,31.03,0.00,0.00,0.00,30.27,M,10.00,M,CLR,M,M,M,M,M,M,M,M,M,M,M,M,M,M,44.10,KTMT 220935Z AUTO 00000KT 10SM CLR 07/M09 A3027 RMK AO2 T00671092,M
HTH,2022-06-22 09:35,-118.6315,38.5448,1282.89,64.40,17.60,16.26,220.00,6.00,0.00,30.15,M,10.00,M,CLR,M,M,M,M,M,M,M,M,M,M,M,M,M,M,64.40,KHTH 220935Z AUTO 22006KT 10SM CLR 18/M08 A3015 RMK A01,M
VGT,2022-06-22 09:53,-115.1933,36.2111,667.00,82.00,24.10,11.84,320.00,5.00,0.00,29.96,1013.10,10.00,M,CLR,M,M,M,M,M,M,M,M,M,M,M,M,M,M,79.47,KVGT 220953Z AUTO 32005KT 10SM CLR 28/M04 A2996 RMK AO2 SLP131 T02781044,M
LOL,2022-06-22 09:53,-118.5701,40.0684,1192.43,61.00,26.10,26.25,20.00,6.00,0.00,30.13,1016.60,10.00,M,CLR,M,M,M,M,M,M,M,M,M,M,M,M,M,M,61.00,KLOL 220953Z AUTO 02006KT 10SM CLR 16/M03 A3013 RMK AO2 SLP166 T01611033,M
DRA,2022-06-22 09:53,-116.0278,36.6206,1009.00,67.00,6.00,8.96,0.00,0.00,0.00,30.03,1011.90,10.00,M,CLR,M,M,M,M,M,M,M,M,M,M,M,M,M,M,66.90,KDRA 220953Z AUTO 00000KT 10SM CLR 19/M14 A3003 RMK AO2 SLP119 T01941144,M
P68,2022-06-22 09:53,-116.0056,39.6014,1993.00,44.00,19.00,36.25,200.00,6.00,0.00,30.26,1018.20,M,M,M,M,M,M,M,M,M,M,M,M,M,M,M,M,M,40.10,KP68 220953Z AUTO 20006KT 07/M07 A3026 RMK AO1 SLP182 T00671072,M
ELY,2022-06-22 09:53,-114.8453,39.2950,1909.00,41.00,18.00,39.12,180.00,9.00,0.00,30.32,1018.70,10.00,M,CLR,M,M,M,M,M,M,M,M,M,M,M,M,M,M,34.70,KELY 220953Z AUTO 18009KT 10SM CLR 05/M08 A3032 RMK AO2 SLP187 T00501078,M
BAM,2022-06-22 09:55,-116.8743,40.5990,1382.36,59.00,30.20,33.35,340.00,8.00,0.00,30.21,M,10.00,M,CLR,M,M,M,M,M,M,M,M,M,M,M,M,M,M,59.00,KBAM 220955Z AUTO 34008KT 10SM CLR 15/M01 A3021 RMK AO1,M
HTH,2022-06-22 09:55,-118.6315,38.5448,1282.89,64.40,19.40,17.56,220.00,6.00,0.00,30.15,M,10.00,M,CLR,M,M,M,M,M,M,M,M,M,M,M,M,M,M,64.40,KHTH 220955Z AUTO 22006KT 10SM CLR 18/M07 A3015 RMK A01,M
BVU,2022-06-22 09:55,-114.8611,35.9475,671.00,84.20,30.20,14.18,360.00,4.00,0.00,29.96,M,10.00,M,FEW,M,M,M,12000.00,M,M,M,M,M,M,M,M,M,M,81.26,KBVU 220955Z AUTO 36004KT 10SM FEW120 29/M01 A2996 RMK AO2,M
RTS,2022-06-22 09:55,-119.8764,39.6682,1539.00,50.00,19.40,29.52,340.00,7.00,0.00,30.23,M,10.00,M,CLR,M,M,M,M,M,M,M,M,M,M,M,M,M,M,50.00,KRTS 220955Z AUTO 34007KT 10SM CLR 10/M07 A3023 RMK AO2,M
TMT,2022-06-22 09:55,-117.1971,39.4643,1749.34,39.20,16.00,38.48,0.00,0.00,0.00,30.27,M,10.00,M,CLR,M,M,M,M,M,M,M,M,M,M,M,M,M,M,39.20,KTMT 220955Z AUTO 00000KT 10SM CLR 04/M09 A3027 RMK AO2 T00401089,M
RNO,2022-06-22 09:55,-119.7711,39.4839,1341.00,61.00,28.00,28.38,0.00,0.00,0.00,30.18,1017.10,10.00,M,CLR,M,M,M,M,M,M,M,M,M,M,M,M,M,M,61.00,KRNO 220955Z 00000KT 10SM CLR 16/M02 A3018 RMK AO2 SLP171 T01611022,M
CXP,2022-06-22 09:55,-119.7326,39.1923,1431.00,51.80,23.00,32.17,0.00,0.00,0.00,30.22,M,10.00,M,CLR,M,M,M,M,M,M,M,M,M,M,M,M,M,M,51.80,KCXP 220955Z AUTO 00000KT 10SM CLR 11/M05 A3022 RMK AO2,M
05U,2022-06-22 09:55,-116.0051,39.6042,1811.23,44.60,17.60,33.49,0.00,0.00,0.00,30.28,M,10.00,M,CLR,M,M,M,M,M,M,M,M,M,M,M,M,M,M,44.60,K05U 220955Z AUTO 00000KT 10SM CLR 07/M08 A3028 RMK A01,M
MEV,2022-06-22 09:55,-119.7500,38.9963,1441.42,42.80,32.00,65.38,110.00,6.00,0.00,30.21,M,10.00,M,CLR,M,M,M,M,M,M,M,M,M,M,M,M,M,M,38.54,KMEV 220955Z AUTO 11006KT 10SM CLR 06/00 A3021 RMK AO2,M
HND,2022-06-22 09:56,-115.1344,35.9729,742.79,83.00,28.00,13.52,220.00,6.00,0.00,30.00,1014.20,10.00,M,CLR,M,M,M,M,M,M,M,M,M,M,M,M,M,M,80.29,KHND 220956Z AUTO 22006KT 10SM CLR 28/M02 A3000 RMK AO2 SLP142 T02831022,M
TPH,2022-06-22 09:56,-117.0904,38.0505,1654.00,55.00,5.00,12.99,10.00,12.00,0.00,30.21,1016.00,10.00,M,CLR,M,M,M,M,M,M,M,M,M,M,M,M,M,M,55.00,KTPH 220956Z AUTO 01012KT 10SM CLR 13/M15 A3021 RMK AO2 SLP160 T01281150,M
LAS,2022-06-22 09:56,-115.1634,36.0719,663.00,83.00,23.00,10.98,220.00,3.00,0.00,29.96,1011.60,10.00,M,SCT,BKN,BKN,M,15000.00,18000.00,22000.00,M,M,M,M,M,M,M,M,80.00,KLAS 220956Z 22003KT 10SM SCT150 BKN180 BKN220 28/M05 A2996 RMK AO2 SLP116 T02831050,M
NFL,2022-06-22 09:56,-118.7010,39.4166,1199.00,55.00,28.00,35.21,250.00,5.00,0.00,30.13,1016.90,10.00,M,CLR,M,M,M,M,M,M,M,M,M,M,M,M,M,M,55.00,KNFL 220956Z AUTO 25005KT 10SM CLR 13/M02 A3013 RMK AO2 SLP169 T01281022,M
WMC,2022-06-22 09:56,-117.8072,40.9019,1315.00,61.00,30.90,31.95,350.00,4.00,0.00,30.20,1017.90,10.00,M,CLR,M,M,M,M,M,M,M,M,M,M,M,M,M,M,61.00,KWMC 220956Z AUTO 35004KT 10SM CLR 16/M01 A3020 RMK AO2 SLP179 T01611006,M
EKO,2022-06-22 09:56,-115.7860,40.8242,1367.00,48.00,30.00,49.49,200.00,3.00,0.00,30.24,1019.70,10.00,M,CLR,M,M,M,M,M,M,M,M,M,M,M,M,M,M,46.98,KEKO 220956Z AUTO 20003KT 10SM CLR 09/M01 A3024 RMK AO2 SLP197 T00891011,M
LSV,2022-06-22 09:58,-115.0343,36.2362,570.00,77.00,19.40,11.44,40.00,3.00,0.00,29.93,M,10.00,M,CLR,M,M,M,M,M,M,M,M,M,M,M,M,M,M,77.00,KLSV 220958Z 04003KT 10SM CLR 25/M07 A2993 RMK AO2A SLPNO WND DATA ESTMD ALSTG ESTMD $,M
INS,2022-06-22 09:58,-115.6733,36.5872,955.00,67.30,12.90,11.98,0.00,0.00,0.00,30.03,1012.10,10.00,M,BKN,M,M,M,14000.00,M,M,M,M,M,M,M,M,M,M,67.30,KINS 220958Z AUTO 00000KT 10SM BKN140 20/M11 A3003 RMK AO2 SLP121 T01961106 $,M
MEV,2022-06-22 10:15,-119.7500,38.9963,1441.42,41.00,32.00,70.08,110.00,5.00,0.00,30.21,M,10.00,M,CLR,M,M,M,M,M,M,M,M,M,M,M,M,M,M,37.08,KMEV 221015Z AUTO 11005KT 10SM CLR 05/M00 A3021 RMK AO2,M
05U,2022-06-22 10:15,-116.0051,39.6042,1811.23,42.80,15.80,33.18,0.00,0.00,0.00,30.29,M,10.00,M,CLR,M,M,M,M,M,M,M,M,M,M,M,M,M,M,42.80,K05U 221015Z AUTO 00000KT 10SM CLR 06/M09 A3029 RMK A01,M
RTS,2022-06-22 10:15,-119.8764,39.6682,1539.00,44.60,19.40,36.18,340.00,4.00,0.00,30.23,M,10.00,M,CLR,M,M,M,M,M,M,M,M,M,M,M,M,M,M,42.13,KRTS 221015Z AUTO 34004KT 10SM CLR 07/M07 A3023 RMK AO2,M
BVU,2022-06-22 10:15,-114.8611,35.9475,671.00,82.40,37.40,20.04,0.00,0.00,0.00,29.96,M,10.00,M,CLR,M,M,M,M,M,M,M,M,M,M,M,M,M,M,80.14,KBVU 221015Z AUTO 00000KT 10SM CLR 28/03 A2996 RMK AO2,M
CXP,2022-06-22 10:15,-119.7326,39.1923,1431.00,51.80,21.20,29.82,310.00,3.00,0.00,30.22,M,10.00,M,CLR,M,M,M,M,M,M,M,M,M,M,M,M,M,M,51.80,KCXP 221015Z AUTO 31003KT 10SM CLR 11/M06 A3022 RMK AO2,M
HTH,2022-06-22 10:15,-118.6315,38.5448,1282.89,62.60,19.40,18.71,240.00,6.00,0.00,30.15,M,10.00,M,CLR,M,M,M,M,M,M,M,M,M,M,M,M,M,M,62.60,KHTH 221015Z AUTO 24006KT 10SM CLR 17/M07 A3015 RMK A01,M
TMT,2022-06-22 10:15,-117.1971,39.4643,1749.34,39.20,15.10,37.00,0.00,0.00,0.00,30.27,M,10.00,M,CLR,M,M,M,M,M,M,M,M,M,M,M,M,M,M,39.20,KTMT 221015Z AUTO 00000KT 10SM CLR 04/M09 A3027 RMK AO2 T00401094,M
BAM,2022-06-22 10:15,-116.8743,40.5990,1382.36,55.40,30.20,37.97,340.00,8.00,0.00,30.22,M,10.00,M,CLR,M,M,M,M,M,M,M,M,M,M,M,M,M,M,55.40,KBAM 221015Z AUTO 34008KT 10SM CLR 13/M01 A3022 RMK AO1,M
CXP,2022-06-22 10:35,-119.7326,39.1923,1431.00,51.80,21.20,29.82,0.00,0.00,0.00,30.22,M,10.00,M,CLR,M,M,M,M,M,M,M,M,M,M,M,M,M,M,51.80,KCXP 221035Z AUTO 00000KT 10SM CLR 11/M06 A3022 RMK AO2,M
BVU,2022-06-22 10:35,-114.8611,35.9475,671.00,86.00,32.00,14.40,0.00,0.00,0.00,29.95,M,10.00,M,BKN,BKN,BKN,M,7000.00,9000.00,12000.00,M,M,M,M,M,M,M,M,82.64,KBVU 221035Z AUTO 00000KT 10SM BKN070 BKN090 BKN120 30/M00 A2995 RMK AO2,M
RTS,2022-06-22 10:35,-119.8764,39.6682,1539.00,46.40,19.40,33.79,340.00,5.00,0.00,30.23,M,10.00,M,CLR,M,M,M,M,M,M,M,M,M,M,M,M,M,M,43.50,KRTS 221035Z AUTO 34005KT 10SM CLR 08/M07 A3023 RMK AO2,M
05U,2022-06-22 10:35,-116.0051,39.6042,1811.23,42.80,15.80,33.18,0.00,0.00,0.00,30.30,M,10.00,M,CLR,M,M,M,M,M,M,M,M,M,M,M,M,M,M,42.80,K05U 221035Z AUTO 00000KT 10SM CLR 06/M09 A3030 RMK A01,M
MEV,2022-06-22 10:35,-119.7500,38.9963,1441.42,42.80,30.20,60.79,200.00,4.00,0.00,30.21,M,10.00,M,CLR,M,M,M,M,M,M,M,M,M,M,M,M,M,M,40.03,KMEV 221035Z AUTO 20004KT 10SM CLR 06/M01 A3021 RMK AO2,M
TMT,2022-06-22 10:35,-117.1971,39.4643,1749.34,33.60,11.80,39.93,0.00,0.00,0.00,30.27,M,10.00,M,CLR,M,M,M,M,M,M,M,M,M,M,M,M,M,M,33.60,KTMT 221035Z AUTO 00000KT 10SM CLR 01/M11 A3027 RMK AO2 T00091112,M
BAM,2022-06-22 10:35,-116.8743,40.5990,1382.36,55.40,30.20,37.97,320.00,8.00,0.00,30.22,M,10.00,M,CLR,M,M,M,M,M,M,M,M,M,M,M,M,M,M,55.40,KBAM 221035Z AUTO 32008KT 10SM CLR 13/M01 A3022 RMK AO1,M
HTH,2022-06-22 10:35,-118.6315,38.5448,1282.89,60.80,17.60,18.46,0.00,0.00,0.00,30.15,M,10.00,M,CLR,M,M,M,M,M,M,M,M,M,M,M,M,M,M,60.80,KHTH 221035Z AUTO 00000KT 10SM CLR 16/M08 A3015 RMK A01,M
CXP,2022-06-22 10:50,-119.7326,39.1923,1431.00,51.80,23.00,32.17,0.00,0.00,0.00,30.22,M,10.00,M,CLR,M,M,M,M,M,M,M,M,M,M,M,M,M,M,51.80,KCXP 221050Z AUTO 00000KT 10SM CLR 11/M05 A3022 RMK AO2,M
VGT,2022-06-22 10:53,-115.1933,36.2111,667.00,81.00,27.00,13.80,300.00,6.00,0.00,29.96,1013.20,10.00,M,CLR,M,M,M,M,M,M,M,M,M,M,M,M,M,M,78.96,KVGT 221053Z AUTO 30006KT 10SM CLR 27/M03 A2996 RMK AO2 SLP132 T02721028,M
ELY,2022-06-22 10:53,-114.8453,39.2950,1909.00,42.00,15.10,33.07,190.00,9.00,0.00,30.32,1018.50,10.00,M,CLR,M,M,M,M,M,M,M,M,M,M,M,M,M,M,36.07,KELY 221053Z AUTO 19009KT 10SM CLR 06/M09 A3032 RMK AO2 SLP185 T00561094,M
P68,2022-06-22 10:53,-116.0056,39.6014,1993.00,46.00,19.00,33.72,190.00,5.00,0.00,30.27,1018.10,M,M,M,M,M,M,M,M,M,M,M,M,M,M,M,M,M,43.02,KP68 221053Z AUTO 19005KT 08/M07 A3027 RMK AO1 SLP181 T00781072,M
DRA,2022-06-22 10:53,-116.0278,36.6206,1009.00,68.00,6.00,8.62,0.00,0.00,0.00,30.03,1012.00,10.00,M,CLR,M,M,M,M,M,M,M,M,M,M,M,M,M,M,68.00,KDRA 221053Z AUTO 00000KT 10SM CLR 20/M14 A3003 RMK AO2 SLP120 T02001144,M
LOL,2022-06-22 10:53,-118.5701,40.0684,1192.43,60.00,28.90,30.41,330.00,4.00,0.00,30.13,1016.70,10.00,M,CLR,M,M,M,M,M,M,M,M,M,M,M,M,M,M,60.10,KLOL 221053Z AUTO 33004KT 10SM CLR 16/M02 A3013 RMK AO2 SLP167 T01561017,M
RNO,2022-06-22 10:55,-119.7711,39.4839,1341.00,60.00,28.00,29.31,270.00,7.00,0.00,30.18,1016.90,10.00,M,CLR,M,M,M,M,M,M,M,M,M,M,M,M,M,M,60.10,KRNO 221055Z 27007KT 10SM CLR 16/M02 A3018 RMK AO2 SLP169 T01561022,M
RTS,2022-06-22 10:55,-119.8764,39.6682,1539.00,46.40,19.40,33.79,320.00,7.00,0.00,30.22,M,10.00,M,CLR,M,M,M,M,M,M,M,M,M,M,M,M,M,M,42.33,KRTS 221055Z AUTO 32007KT 10SM CLR 08/M07 A3022 RMK AO2,M
BVU,2022-06-22 10:55,-114.8611,35.9475,671.00,82.40,42.80,24.72,20.00,4.00,0.00,29.95,M,10.00,M,FEW,SCT,BKN,M,7000.00,9000.00,12000.00,M,M,M,M,M,M,M,M,80.39,KBVU 221055Z AUTO 02004KT 10SM FEW070 SCT090 BKN120 28/06 A2995 RMK AO2,M
MEV,2022-06-22 10:55,-119.7500,38.9963,1441.42,42.80,28.40,56.48,0.00,0.00,0.00,30.21,M,10.00,M,CLR,M,M,M,M,M,M,M,M,M,M,M,M,M,M,42.80,KMEV 221055Z AUTO 00000KT 10SM CLR 06/M02 A3021 RMK AO2,M
05U,2022-06-22 10:55,-116.0051,39.6042,1811.23,44.60,17.60,33.49,200.00,3.00,0.00,30.29,M,10.00,M,CLR,M,M,M,M,M,M,M,M,M,M,M,M,M,M,43.09,K05U 221055Z AUTO 20003KT 10SM CLR 07/M08 A3029 RMK A01,M
TMT,2022-06-22 10:55,-117.1971,39.4643,1749.34,31.10,10.80,42.24,0.00,0.00,0.00,30.27,M,10.00,M,CLR,M,M,M,M,M,M,M,M,M,M,M,M,M,M,31.10,KTMT 221055Z AUTO 00000KT 10SM CLR 00/M12 A3027 RMK AO2 T10051118,M
BAM,2022-06-22 10:55,-116.8743,40.5990,1382.36,53.60,32.00,43.61,360.00,6.00,0.00,30.22,M,10.00,M,CLR,M,M,M,M,M,M,M,M,M,M,M,M,M,M,53.60,KBAM 221055Z AUTO 36006KT 10SM CLR 12/00 A3022 RMK AO1,M
HTH,2022-06-22 10:55,-118.6315,38.5448,1282.89,62.60,19.40,18.71,0.00,0.00,0.00,30.15,M,10.00,M,CLR,M,M,M,M,M,M,M,M,M,M,M,M,M,M,62.60,KHTH 221055Z AUTO 00000KT 10SM CLR 17/M07 A3015 RMK A01,M
HND,2022-06-22 10:56,-115.1344,35.9729,742.79,87.00,38.00,17.58,220.00,8.00,0.00,30.00,1013.90,10.00,M,FEW,SCT,BKN,M,7000.00,10000.00,12000.00,M,M,M,M,M,M,M,M,83.61,KHND 221056Z AUTO 22008KT 10SM FEW070 SCT100 BKN120 31/03 A3000 RMK AO2 SLP139 T03060033,M
WMC,2022-06-22 10:56,-117.8072,40.9019,1315.00,57.00,30.90,36.86,310.00,4.00,0.00,30.20,1018.00,10.00,M,CLR,M,M,M,M,M,M,M,M,M,M,M,M,M,M,57.00,KWMC 221056Z AUTO 31004KT 10SM CLR 14/M01 A3020 RMK AO2 SLP180 T01391006,M
NFL,2022-06-22 10:56,-118.7010,39.4166,1199.00,54.00,25.00,32.26,200.00,3.00,0.00,30.13,1016.90,10.00,M,CLR,M,M,M,M,M,M,M,M,M,M,M,M,M,M,54.00,KNFL 221056Z AUTO 20003KT 10SM CLR 12/M04 A3013 RMK AO2 SLP169 T01221039,M
LAS,2022-06-22 10:56,-115.1634,36.0719,663.00,85.00,27.00,12.16,200.00,8.00,0.00,29.96,1011.30,10.00,M,SCT,BKN,OVC,M,14000.00,18000.00,22000.00,M,M,M,M,M,M,M,M,81.65,KLAS 221056Z 20008KT 160V230 10SM SCT140 BKN180 OVC220 29/M03 A2996 RMK AO2 SLP113 T02941028,M
TPH,2022-06-22 10:56,-117.0904,38.0505,1654.00,55.00,6.00,13.66,360.00,10.00,0.00,30.21,1016.20,10.00,M,CLR,M,M,M,M,M,M,M,M,M,M,M,M,M,M,55.00,KTPH 221056Z AUTO 36010KT 10SM CLR 13/M14 A3021 RMK AO2 SLP162 T01281144,M
EKO,2022-06-22 10:56,-115.7860,40.8242,1367.00,47.00,26.10,43.95,250.00,4.00,0.00,30.24,1019.50,10.00,M,CLR,M,M,M,M,M,M,M,M,M,M,M,M,M,M,44.82,KEKO 221056Z AUTO 25004KT 10SM CLR 08/M03 A3024 RMK AO2 SLP195 T00831033,M
LSV,2022-06-22 10:58,-115.0343,36.2362,570.00,77.00,15.80,9.79,0.00,0.00,0.00,29.93,M,10.00,M,CLR,M,M,M,M,M,M,M,M,M,M,M,M,M,M,77.00,KLSV 221058Z 00000KT 10SM CLR 25/M09 A2993 RMK AO2A SLPNO WND DATA ESTMD $,M
INS,2022-06-22 10:58,-115.6733,36.5872,955.00,65.00,4.80,8.98,0.00,0.00,0.00,30.03,1012.30,10.00,M,FEW,M,M,M,14000.00,M,M,M,M,M,M,M,M,M,M,65.10,KINS 221058Z AUTO 00000KT 10SM FEW140 18/M15 A3003 RMK AO2 SLP123 T01841151 $,M
MEV,2022-06-22 11:15,-119.7500,38.9963,1441.42,41.00,26.60,56.22,0.00,0.00,0.00,30.21,M,10.00,M,CLR,M,M,M,M,M,M,M,M,M,M,M,M,M,M,41.00,KMEV 221115Z AUTO 00000KT 10SM CLR 05/M03 A3021 RMK AO2,M
BAM,2022-06-22 11:15,-116.8743,40.5990,1382.36,53.60,30.20,40.54,350.00,7.00,0.00,30.22,M,10.00,M,CLR,M,M,M,M,M,M,M,M,M,M,M,M,M,M,53.60,KBAM 221115Z AUTO 35007KT 10SM CLR 12/M01 A3022 RMK AO1,M
TMT,2022-06-22 11:15,-117.1971,39.4643,1749.34,31.80,10.90,41.25,0.00,0.00,0.00,30.27,M,10.00,M,CLR,M,M,M,M,M,M,M,M,M,M,M,M,M,M,31.80,KTMT 221115Z AUTO 00000KT 10SM CLR 00/M12 A3027 RMK AO2 T10011117,M
BVU,2022-06-22 11:15,-114.8611,35.9475,671.00,84.20,33.80,16.39,70.00,8.00,0.00,29.96,M,10.00,M,FEW,M,M,M,11000.00,M,M,M,M,M,M,M,M,M,M,81.30,KBVU 221115Z AUTO 07008KT 10SM FEW110 29/01 A2996 RMK AO2,M
RTS,2022-06-22 11:15,-119.8764,39.6682,1539.00,44.60,19.40,36.18,340.00,6.00,0.00,30.23,M,10.00,M,CLR,M,M,M,M,M,M,M,M,M,M,M,M,M,M,40.71,KRTS 221115Z AUTO 34006KT 10SM CLR 07/M07 A3023 RMK AO2,M
05U,2022-06-22 11:15,-116.0051,39.6042,1811.23,44.60,15.80,30.98,0.00,0.00,0.00,30.30,M,10.00,M,CLR,M,M,M,M,M,M,M,M,M,M,M,M,M,M,44.60,K05U 221115Z AUTO 00000KT 10SM CLR 07/M09 A3030 RMK A01,M
CXP,2022-06-22 11:15,-119.7326,39.1923,1431.00,48.20,26.60,42.73,0.00,0.00,0.00,30.22,M,10.00,M,CLR,M,M,M,M,M,M,M,M,M,M,M,M,M,M,48.20,KCXP 221115Z AUTO 00000KT 10SM CLR 09/M03 A3022 RMK AO2,M
HTH,2022-06-22 11:15,-118.6315,38.5448,1282.89,60.80,19.40,19.94,210.00,6.00,0.00,30.15,M,10.00,M,CLR,M,M,M,M,M,M,M,M,M,M,M,M,M,M,60.80,KHTH 221115Z AUTO 21006KT 10SM CLR 16/M07 A3015 RMK A01,M
CXP,2022-06-22 11:30,-119.7326,39.1923,1431.00,48.20,24.80,39.66,0.00,0.00,0.00,30.22,M,10.00,M,CLR,M,M,M,M,M,M,M,M,M,M,M,M,M,M,48.20,KCXP 221130Z AUTO 00000KT 10SM CLR 09/M04 A3022 RMK AO2,M
MEV,2022-06-22 11:35,-119.7500,38.9963,1441.42,42.80,24.80,48.67,0.00,0.00,0.00,30.21,M,10.00,M,CLR,M,M,M,M,M,M,M,M,M,M,M,M,M,M,42.80,KMEV 221135Z AUTO 00000KT 10SM CLR 06/M04 A3021 RMK AO2,M
BAM,2022-06-22 11:35,-116.8743,40.5990,1382.36,51.80,30.20,43.32,40.00,3.00,0.00,30.22,M,10.00,M,CLR,M,M,M,M,M,M,M,M,M,M,M,M,M,M,51.80,KBAM 221135Z AUTO 04003KT 10SM CLR 11/M01 A3022 RMK AO1,M
HTH,2022-06-22 11:35,-118.6315,38.5448,1282.89,60.80,19.40,19.94,230.00,5.00,0.00,30.15,M,10.00,M,CLR,M,M,M,M,M,M,M,M,M,M,M,M,M,M,60.80,KHTH 221135Z AUTO 23005KT 10SM CLR 16/M07 A3015 RMK A01,M
TMT,2022-06-22 11:35,-117.1971,39.4643,1749.34,32.70,11.50,40.85,0.00,0.00,0.00,30.27,M,10.00,M,CLR,M,M,M,M,M,M,M,M,M,M,M,M,M,M,32.70,KTMT 221135Z AUTO 00000KT 10SM CLR 00/M11 A3027 RMK AO2 LTG DSNT S AND SW T00041114,M
BVU,2022-06-22 11:35,-114.8611,35.9475,671.00,84.20,39.20,20.29,50.00,8.00,0.00,29.96,M,10.00,M,FEW,M,M,M,11000.00,M,M,M,M,M,M,M,M,M,M,81.44,KBVU 221135Z AUTO 05008KT 10SM FEW110 29/04 A2996 RMK AO2 LTG DSNT W,M
RTS,2022-06-22 11:35,-119.8764,39.6682,1539.00,48.20,21.20,34.09,0.00,0.00,0.00,30.23,M,10.00,M,CLR,M,M,M,M,M,M,M,M,M,M,M,M,M,M,48.20,KRTS 221135Z AUTO 00000KT 10SM CLR 09/M06 A3023 RMK AO2,M
05U,2022-06-22 11:35,-116.0051,39.6042,1811.23,39.20,17.60,41.24,0.00,0.00,0.00,30.30,M,10.00,M,CLR,M,M,M,M,M,M,M,M,M,M,M,M,M,M,39.20,K05U 221135Z AUTO 00000KT 10SM CLR 04/M08 A3030 RMK A01,M
CXP,2022-06-22 11:50,-119.7326,39.1923,1431.00,48.20,24.80,39.66,0.00,0.00,0.00,30.22,M,10.00,M,CLR,M,M,M,M,M,M,M,M,M,M,M,M,M,M,48.20,KCXP 221150Z AUTO 00000KT 10SM CLR 09/M04 A3022 RMK AO2,M
05U,2022-06-22 11:50,-116.0051,39.6042,1811.23,39.20,15.80,38.15,0.00,0.00,0.00,30.30,M,10.00,M,CLR,M,M,M,M,M,M,M,M,M,M,M,M,M,M,39.20,K05U 221150Z AUTO 00000KT 10SM CLR 04/M09 A3030 RMK A01,M
P68,2022-06-22 11:53,-116.0056,39.6014,1993.00,41.00,18.00,39.12,0.00,0.00,0.00,30.28,1019.00,M,M,M,M,M,M,M,M,M,M,M,M,M,M,M,M,M,41.00,KP68 221153Z AUTO 00000KT 05/M08 A3028 RMK AO1 SLP190 T00501078 10117 20039 51006,M
ELY,2022-06-22 11:53,-114.8453,39.2950,1909.00,39.00,14.00,35.54,190.00,11.00,0.00,30.33,1019.10,10.00,M,CLR,M,M,M,M,M,M,M,M,M,M,M,M,M,M,31.31,KELY 221153Z AUTO 19011KT 10SM CLR 04/M10 A3033 RMK AO2 SLP191 T00391100 10156 20033 53003,M
LOL,2022-06-22 11:53,-118.5701,40.0684,1192.43,57.00,26.10,30.28,320.00,7.00,0.00,30.14,1017.00,10.00,M,CLR,M,M,M,M,M,M,M,M,M,M,M,M,M,M,57.00,KLOL 221153Z AUTO 32007KT 10SM CLR 14/M03 A3014 RMK AO2 SLP170 T01391033 10200 20122 53004,M
VGT,2022-06-22 11:53,-115.1933,36.2111,667.00,91.00,39.00,16.23,190.00,18.00,0.00,29.97,1013.30,10.00,25.00,FEW,BKN,BKN,M,7500.00,9500.00,11000.00,M,M,M,M,M,33.00,170.00,2022-06-22 11:38,86.94,KVGT 221153Z AUTO 19018G25KT 10SM FEW075 BKN095 BKN110 33/04 A2997 RMK AO2 PK WND 17033/1138 WSHFT 1135 SLP133 T03280039 10333 20267 53008,M
DRA,2022-06-22 11:53,-116.0278,36.6206,1009.00,71.00,6.00,7.75,50.00,9.00,0.00,30.03,1011.80,10.00,M,CLR,M,M,M,M,M,M,M,M,M,M,M,M,M,M,71.10,KDRA 221153Z AUTO 05009KT 10SM CLR 22/M14 A3003 RMK AO2 SLP118 T02171144 10250 20194 53002,M
MEV,2022-06-22 11:55,-119.7500,38.9963,1441.42,39.20,28.40,64.93,80.00,3.00,0.00,30.21,M,10.00,M,CLR,M,M,M,M,M,M,M,M,M,M,M,M,M,M,36.92,KMEV 221155Z AUTO 08003KT 10SM CLR 04/M02 A3021 RMK AO2,M
BAM,2022-06-22 11:55,-116.8743,40.5990,1382.36,50.00,30.20,46.31,40.00,3.00,0.00,30.22,M,10.00,M,CLR,M,M,M,M,M,M,M,M,M,M,M,M,M,M,50.00,KBAM 221155Z AUTO 04003KT 10SM CLR 10/M01 A3022 RMK AO1,M
HTH,2022-06-22 11:55,-118.6315,38.5448,1282.89,60.80,19.40,19.94,250.00,5.00,0.00,30.15,M,10.00,M,CLR,M,M,M,M,M,M,M,M,M,M,M,M,M,M,60.80,KHTH 221155Z AUTO 25005KT 10SM CLR 16/M07 A3015 RMK A01,M
RTS,2022-06-22 11:55,-119.8764,39.6682,1539.00,48.20,26.60,42.73,0.00,0.00,0.00,30.23,M,10.00,M,CLR,M,M,M,M,M,M,M,M,M,M,M,M,M,M,48.20,KRTS 221155Z AUTO 00000KT 10SM CLR 09/M03 A3023 RMK AO2,M
RNO,2022-06-22 11:55,-119.7711,39.4839,1341.00,56.00,30.90,38.36,0.00,0.00,0.00,30.19,1017.40,10.00,M,CLR,M,M,M,M,M,M,M,M,M,M,M,M,M,M,55.90,KRNO 221155Z 00000KT 10SM CLR 13/M01 A3019 RMK AO2 SLP174 T01331006 10222 20133 53004,M
BVU,2022-06-22 11:55,-114.8611,35.9475,671.00,84.20,33.80,16.39,40.00,8.00,0.00,29.98,M,10.00,14.00,FEW,M,M,M,12000.00,M,M,M,M,M,M,M,M,M,M,81.30,KBVU 221155Z AUTO 04008G14KT 10SM FEW120 29/01 A2998 RMK AO2,M
TMT,2022-06-22 11:55,-117.1971,39.4643,1749.34,32.70,11.80,41.40,0.00,0.00,0.00,30.27,M,10.00,M,CLR,M,M,M,M,M,M,M,M,M,M,M,M,M,M,32.70,KTMT 221155Z AUTO 00000KT 10SM CLR 00/M11 A3027 RMK AO2 LTG DSNT S T00041112 10135 21009,M
LAS,2022-06-22 11:56,-115.1634,36.0719,663.00,92.00,37.00,14.58,M,6.00,T,29.96,1011.40,10.00,M,FEW,BKN,OVC,M,6000.00,10000.00,12000.00,M,M,M,M,M,M,M,M,87.65,KLAS 221156Z VRB06KT 10SM FEW060 BKN100 OVC120 33/03 A2996 RMK AO2 RAB37E45 SLP114 VCSH P0000 60000 T03330028 10333 20278 53001,M
EKO,2022-06-22 11:56,-115.7860,40.8242,1367.00,45.00,27.00,49.02,0.00,0.00,0.00,30.24,1020.10,10.00,M,CLR,M,M,M,M,M,M,M,M,M,M,M,M,M,M,45.00,KEKO 221156Z AUTO 00000KT 10SM CLR 07/M03 A3024 RMK AO2 SLP201 T00721028 10194 20067 52003,M
WMC,2022-06-22 11:56,-117.8072,40.9019,1315.00,52.00,30.90,44.24,0.00,0.00,0.00,30.19,1018.20,10.00,M,CLR,M,M,M,M,M,M,M,M,M,M,M,M,M,M,52.00,KWMC 221156Z AUTO 00000KT 10SM CLR 11/M01 A3019 RMK AO2 SLP182 T01111006 10217 20111 58003,M
NFL,2022-06-22 11:56,-118.7010,39.4166,1199.00,48.00,24.10,38.80,160.00,4.00,0.00,30.14,1017.10,10.00,M,CLR,M,M,M,M,M,M,M,M,M,M,M,M,M,M,46.10,KNFL 221156Z AUTO 16004KT 10SM CLR 09/M04 A3014 RMK AO2 SLP171 T00891044 10183 20083 51004,M
TPH,2022-06-22 11:56,-117.0904,38.0505,1654.00,54.00,6.00,14.17,10.00,11.00,0.00,30.21,1016.20,10.00,M,CLR,M,M,M,M,M,M,M,M,M,M,M,M,M,M,54.00,KTPH 221156Z AUTO 01011KT 10SM CLR 12/M14 A3021 RMK AO2 SLP162 T01221144 10167 20122 55000,M
HND,2022-06-22 11:56,-115.1344,35.9729,742.79,88.00,42.00,20.11,230.00,11.00,0.00,30.01,1014.30,10.00,14.00,FEW,BKN,M,M,9000.00,12000.00,M,M,M,M,M,M,27.00,160.00,2022-06-22 11:01,84.52,KHND 221156Z AUTO 23011G14KT 10SM FEW090 BKN120 31/06 A3001 RMK AO2 PK WND 16027/1101 SLP143 T03110056 10328 20267 53006,M
LSV,2022-06-22 11:58,-115.0343,36.2362,570.00,79.30,18.00,9.98,110.00,4.00,0.00,29.96,1011.90,10.00,M,CLR,M,M,M,M,M,M,M,M,M,M,M,M,M,M,79.30,KLSV 221158Z 11004KT 10SM CLR 26/M08 A2996 RMK AO2A SLP119 T02631078 10289 20257 $,M
INS,2022-06-22 11:58,-115.6733,36.5872,955.00,66.70,6.00,9.02,0.00,0.00,0.00,30.04,1012.50,10.00,M,SCT,M,M,M,15000.00,M,M,M,M,M,M,M,M,M,M,66.70,KINS 221158Z AUTO 00000KT 10SM SCT150 19/M14 A3004 RMK AO2 SLP125 T01931144 10255 20179 50003 $,M
CXP,2022-06-22 12:10,-119.7326,39.1923,1431.00,48.20,26.60,42.73,0.00,0.00,0.00,30.22,M,10.00,M,CLR,M,M,M,M,M,M,M,M,M,M,M,M,M,M,48.20,KCXP 221210Z AUTO 00000KT 10SM CLR 09/M03 A3022 RMK AO2,M
HND,2022-06-22 12:13,-115.1344,35.9729,742.79,86.00,42.80,22.02,170.00,13.00,0.00,30.02,M,10.00,M,BKN,M,M,M,12000.00,M,M,M,M,M,M,M,M,M,M,82.95,KHND 221213Z AUTO 17013KT 10SM BKN120 30/06 A3002 RMK AO2 WSHFT 1153,M
BVU,2022-06-22 12:15,-114.8611,35.9475,671.00,82.40,35.60,18.67,30.00,6.00,0.00,29.98,M,10.00,M,FEW,M,M,M,12000.00,M,M,M,M,M,M,M,M,M,M,80.08,KBVU 221215Z AUTO 03006KT 10SM FEW120 28/02 A2998 RMK AO2,M
HTH,2022-06-22 12:15,-118.6315,38.5448,1282.89,59.00,19.40,21.26,220.00,4.00,0.00,30.16,M,10.00,M,CLR,M,M,M,M,M,M,M,M,M,M,M,M,M,M,59.00,KHTH 221215Z AUTO 22004KT 10SM CLR 15/M07 A3016 RMK A01,M
05U,2022-06-22 12:15,-116.0051,39.6042,1811.23,39.20,17.60,41.24,0.00,0.00,0.00,30.30,M,10.00,M,CLR,M,M,M,M,M,M,M,M,M,M,M,M,M,M,39.20,K05U 221215Z AUTO 00000KT 10SM CLR 04/M08 A3030 RMK A01,M
RTS,2022-06-22 12:15,-119.8764,39.6682,1539.00,48.20,23.00,36.78,340.00,4.00,0.00,30.23,M,10.00,M,CLR,M,M,M,M,M,M,M,M,M,M,M,M,M,M,46.34,KRTS 221215Z AUTO 34004KT 10SM CLR 09/M05 A3023 RMK AO2,M
TMT,2022-06-22 12:15,-117.1971,39.4643,1749.34,28.80,8.10,41.10,0.00,0.00,0.00,30.27,M,10.00,M,CLR,M,M,M,M,M,M,M,M,M,M,M,M,M,M,28.80,KTMT 221215Z AUTO 00000KT 10SM CLR M02/M13 A3027 RMK AO2 T10181133,M
MEV,2022-06-22 12:15,-119.7500,38.9963,1441.42,39.20,28.40,64.93,0.00,0.00,0.00,30.21,M,10.00,M,CLR,M,M,M,M,M,M,M,M,M,M,M,M,M,M,39.20,KMEV 221215Z AUTO 00000KT 10SM CLR 04/M02 A3021 RMK AO2,M
BAM,2022-06-22 12:15,-116.8743,40.5990,1382.36,46.40,30.20,53.00,40.00,4.00,0.00,30.23,M,10.00,M,CLR,M,M,M,M,M,M,M,M,M,M,M,M,M,M,44.24,KBAM 221215Z AUTO 04004KT 10SM CLR 08/M01 A3023 RMK AO1,M
CXP,2022-06-22 12:30,-119.7326,39.1923,1431.00,50.00,26.60,39.95,0.00,0.00,0.00,30.23,M,10.00,M,CLR,M,M,M,M,M,M,M,M,M,M,M,M,M,M,50.00,KCXP 221230Z AUTO 00000KT 10SM CLR 10/M03 A3023 RMK AO2,M
HTH,2022-06-22 12:35,-118.6315,38.5448,1282.89,59.00,19.40,21.26,250.00,5.00,0.00,30.17,M,10.00,M,CLR,M,M,M,M,M,M,M,M,M,M,M,M,M,M,59.00,KHTH 221235Z AUTO 25005KT 10SM CLR 15/M07 A3017 RMK A01,M
MEV,2022-06-22 12:35,-119.7500,38.9963,1441.42,37.40,28.40,69.67,0.00,0.00,0.00,30.21,M,10.00,M,CLR,M,M,M,M,M,M,M,M,M,M,M,M,M,M,37.40,KMEV 221235Z AUTO 00000KT 10SM CLR 03/M02 A3021 RMK AO2,M
BVU,2022-06-22 12:35,-114.8611,35.9475,671.00,82.40,33.80,17.38,230.00,5.00,0.00,30.00,M,10.00,M,CLR,M,M,M,M,M,M,M,M,M,M,M,M,M,M,80.03,KBVU 221235Z AUTO 23005KT 10SM CLR 28/01 A3000 RMK AO2,M
TMT,2022-06-22 12:35,-117.1971,39.4643,1749.34,28.80,7.00,39.11,0.00,0.00,0.00,30.28,M,10.00,M,CLR,M,M,M,M,M,M,M,M,M,M,M,M,M,M,28.80,KTMT 221235Z AUTO 00000KT 10SM CLR M02/M14 A3028 RMK AO2 LTG DSNT S T10181139,M
05U,2022-06-22 12:35,-116.0051,39.6042,1811.23,41.00,17.60,38.45,0.00,0.00,0.00,30.31,M,10.00,M,CLR,M,M,M,M,M,M,M,M,M,M,M,M,M,M,41.00,K05U 221235Z AUTO 00000KT 10SM CLR 05/M08 A3031 RMK A01,M
BAM,2022-06-22 12:35,-116.8743,40.5990,1382.36,46.40,30.20,53.00,30.00,4.00,0.00,30.23,M,10.00,M,CLR,M,M,M,M,M,M,M,M,M,M,M,M,M,M,44.24,KBAM 221235Z AUTO 03004KT 10SM CLR 08/M01 A3023 RMK AO1,M
RTS,2022-06-22 12:35,-119.8764,39.6682,1539.00,44.60,19.40,36.18,300.00,4.00,0.00,30.24,M,10.00,M,CLR,M,M,M,M,M,M,M,M,M,M,M,M,M,M,42.13,KRTS 221235Z AUTO 30004KT 10SM CLR 07/M07 A3024 RMK AO2,M
CXP,2022-06-22 12:50,-119.7326,39.1923,1431.00,48.20,26.60,42.73,0.00,0.00,0.00,30.23,M,10.00,M,CLR,M,M,M,M,M,M,M,M,M,M,M,M,M,M,48.20,KCXP 221250Z AUTO 00000KT 10SM CLR 09/M03 A3023 RMK AO2,M
P68,2022-06-22 12:53,-116.0056,39.6014,1993.00,44.00,19.00,36.25,200.00,7.00,0.00,30.28,1018.70,M,M,M,M,M,M,M,M,M,M,M,M,M,M,M,M,M,39.53,KP68 221253Z AUTO 20007KT 07/M07 A3028 RMK AO1 SLP187 T00671072,M
LOL,2022-06-22 12:53,-118.5701,40.0684,1192.43,61.00,30.00,30.80,340.00,7.00,0.00,30.15,1017.10,10.00,M,CLR,M,M,M,M,M,M,M,M,M,M,M,M,M,M,61.00,KLOL 221253Z AUTO 34007KT 10SM CLR 16/M01 A3015 RMK AO2 SLP171 T01611011,M
DRA,2022-06-22 12:53,-116.0278,36.6206,1009.00,70.00,5.00,7.66,M,4.00,0.00,30.05,1012.50,10.00,M,CLR,M,M,M,M,M,M,M,M,M,M,M,M,M,M,70.00,KDRA 221253Z AUTO VRB04KT 10SM CLR 21/M15 A3005 RMK AO2 SLP125 T02111150,M
VGT,2022-06-22 12:53,-115.1933,36.2111,667.00,89.00,38.00,16.50,210.00,14.00,0.00,29.99,1013.90,10.00,M,CLR,M,M,M,M,M,M,M,M,M,M,M,M,M,M,85.26,KVGT 221253Z AUTO 21014KT 10SM CLR 32/03 A2999 RMK AO2 SLP139 T03170033,M
ELY,2022-06-22 12:53,-114.8453,39.2950,1909.00,39.00,16.00,38.78,190.00,9.00,0.00,30.34,1019.90,10.00,M,CLR,M,M,M,M,M,M,M,M,M,M,M,M,M,M,32.22,KELY 221253Z AUTO 19009KT 10SM CLR 04/M09 A3034 RMK AO2 SLP199 T00391089,M
BVU,2022-06-22 12:55,-114.8611,35.9475,671.00,84.20,33.80,16.39,0.00,0.00,0.00,29.99,M,10.00,M,CLR,M,M,M,M,M,M,M,M,M,M,M,M,M,M,81.30,KBVU 221255Z AUTO 00000KT 10SM CLR 29/01 A2999 RMK AO2 LTG DSNT SW AND W,M
RTS,2022-06-22 12:55,-119.8764,39.6682,1539.00,48.20,21.20,34.09,330.00,3.00,0.00,30.24,M,10.00,M,CLR,M,M,M,M,M,M,M,M,M,M,M,M,M,M,47.21,KRTS 221255Z AUTO 33003KT 10SM CLR 09/M06 A3024 RMK AO2,M
05U,2022-06-22 12:55,-116.0051,39.6042,1811.23,42.80,17.60,35.87,0.00,0.00,0.00,30.31,M,10.00,M,CLR,M,M,M,M,M,M,M,M,M,M,M,M,M,M,42.80,K05U 221255Z AUTO 00000KT 10SM CLR 06/M08 A3031 RMK A01,M
MEV,2022-06-22 12:55,-119.7500,38.9963,1441.42,37.40,30.20,74.98,60.00,4.00,0.00,30.22,M,10.00,M,CLR,M,M,M,M,M,M,M,M,M,M,M,M,M,M,33.73,KMEV 221255Z AUTO 06004KT 10SM CLR 03/M01 A3022 RMK AO2,M
BAM,2022-06-22 12:55,-116.8743,40.5990,1382.36,48.20,30.20,49.53,30.00,3.00,0.00,30.23,M,10.00,M,CLR,M,M,M,M,M,M,M,M,M,M,M,M,M,M,47.21,KBAM 221255Z AUTO 03003KT 10SM CLR 09/M01 A3023 RMK AO1,M
HTH,2022-06-22 12:55,-118.6315,38.5448,1282.89,59.00,19.40,21.26,280.00,4.00,0.00,30.17,M,10.00,M,CLR,M,M,M,M,M,M,M,M,M,M,M,M,M,M,59.00,KHTH 221255Z AUTO 28004KT 10SM CLR 15/M07 A3017 RMK A01,M
TMT,2022-06-22 12:55,-117.1971,39.4643,1749.34,30.70,9.50,40.51,140.00,3.00,0.00,30.28,M,10.00,M,CLR,M,M,M,M,M,M,M,M,M,M,M,M,M,M,27.20,KTMT 221255Z AUTO 14003KT 10SM CLR M01/M12 A3028 RMK AO2 T10071125,M
RNO,2022-06-22 12:55,-119.7711,39.4839,1341.00,53.00,33.00,46.42,0.00,0.00,0.00,30.20,1018.10,10.00,M,CLR,M,M,M,M,M,M,M,M,M,M,M,M,M,M,53.10,KRNO 221255Z 00000KT 10SM CLR 12/01 A3020 RMK AO2 SLP181 T01170006,M
HND,2022-06-22 12:56,-115.1344,35.9729,742.79,85.00,44.00,23.97,230.00,6.00,0.00,30.03,1015.20,10.00,M,FEW,BKN,M,M,10000.00,12000.00,M,M,M,M,M,M,M,M,M,82.20,KHND 221256Z AUTO 23006KT 10SM FEW100 BKN120 29/07 A3003 RMK AO2 WSHFT 1153 SLP152 T02940067,M
TPH,2022-06-22 12:56,-117.0904,38.0505,1654.00,56.00,6.00,13.22,360.00,11.00,0.00,30.22,1016.40,10.00,M,CLR,M,M,M,M,M,M,M,M,M,M,M,M,M,M,55.90,KTPH 221256Z AUTO 36011KT 10SM CLR 13/M14 A3022 RMK AO2 SLP164 T01331144,M
LAS,2022-06-22 12:56,-115.1634,36.0719,663.00,87.00,42.00,20.70,200.00,8.00,0.00,29.99,1012.60,10.00,16.00,FEW,SCT,BKN,M,10000.00,12000.00,15000.00,M,M,M,M,M,M,M,M,83.79,KLAS 221256Z 20008G16KT 10SM FEW100 SCT120 BKN150 31/06 A2999 RMK AO2 SLP126 VIRGA DSNT N-NE AND SW-W T03060056,M
NFL,2022-06-22 12:56,-118.7010,39.4166,1199.00,48.00,21.90,35.38,210.00,5.00,0.00,30.15,1017.60,10.00,M,CLR,M,M,M,M,M,M,M,M,M,M,M,M,M,M,45.40,KNFL 221256Z AUTO 21005KT 10SM CLR 09/M06 A3015 RMK AO2 SLP176 T00891056,M
WMC,2022-06-22 12:56,-117.8072,40.9019,1315.00,52.00,30.90,44.24,220.00,3.00,0.00,30.20,1018.50,10.00,M,CLR,M,M,M,M,M,M,M,M,M,M,M,M,M,M,52.00,KWMC 221256Z AUTO 22003KT 10SM CLR 11/M01 A3020 RMK AO2 SLP185 T01111006,M
EKO,2022-06-22 12:56,-115.7860,40.8242,1367.00,46.00,26.10,45.47,0.00,0.00,0.00,30.26,1020.60,10.00,M,CLR,M,M,M,M,M,M,M,M,M,M,M,M,M,M,46.00,KEKO 221256Z AUTO 00000KT 10SM CLR 08/M03 A3026 RMK AO2 SLP206 T00781033,M
INS,2022-06-22 12:58,-115.6733,36.5872,955.00,69.00,12.20,10.99,130.00,5.00,0.00,30.06,1013.00,10.00,M,CLR,M,M,M,M,M,M,M,M,M,M,M,M,M,M,68.90,KINS 221258Z AUTO 13005KT 10SM CLR 21/M11 A3006 RMK AO2 SLP130 T02051110 $,M
LSV,2022-06-22 12:58,-115.0343,36.2362,570.00,81.50,19.60,9.95,260.00,3.00,0.00,29.97,1012.20,10.00,M,OVC,M,M,M,13000.00,M,M,M,M,M,M,M,M,M,M,78.87,KLSV 221258Z AUTO 26003KT 10SM OVC130 28/M07 A2997 RMK AO2 SLP122 T02751069 $,M
BAM,2022-06-22 13:15,-116.8743,40.5990,1382.36,50.00,30.20,46.31,10.00,3.00,0.00,30.23,M,10.00,M,CLR,M,M,M,M,M,M,M,M,M,M,M,M,M,M,50.00,KBAM 221315Z AUTO 01003KT 10SM CLR 10/M01 A3023 RMK AO1,M
HTH,2022-06-22 13:15,-118.6315,38.5448,1282.89,60.80,19.40,19.94,0.00,0.00,0.00,30.18,M,10.00,M,CLR,M,M,M,M,M,M,M,M,M,M,M,M,M,M,60.80,KHTH 221315Z AUTO 00000KT 10SM CLR 16/M07 A3018 RMK A01,M
BVU,2022-06-22 13:15,-114.8611,35.9475,671.00,84.20,33.80,16.39,350.00,4.00,0.00,30.00,M,10.00,M,CLR,M,M,M,M,M,M,M,M,M,M,M,M,M,M,81.30,KBVU 221315Z AUTO 35004KT 10SM CLR 29/01 A3000 RMK AO2,M
CXP,2022-06-22 13:15,-119.7326,39.1923,1431.00,46.40,30.20,53.00,0.00,0.00,0.00,30.23,M,10.00,M,CLR,M,M,M,M,M,M,M,M,M,M,M,M,M,M,46.40,KCXP 221315Z AUTO 00000KT 10SM CLR 08/M01 A3023 RMK AO2,M
RTS,2022-06-22 13:15,-119.8764,39.6682,1539.00,46.40,19.40,33.79,320.00,3.00,0.00,30.24,M,10.00,M,CLR,M,M,M,M,M,M,M,M,M,M,M,M,M,M,45.15,KRTS 221315Z AUTO 32003KT 10SM CLR 08/M07 A3024 RMK AO2,M
05U,2022-06-22 13:15,-116.0051,39.6042,1811.23,50.00,21.20,31.87,0.00,0.00,0.00,30.31,M,10.00,M,CLR,M,M,M,M,M,M,M,M,M,M,M,M,M,M,50.00,K05U 221315Z AUTO 00000KT 10SM CLR 10/M06 A3031 RMK A01,M
MEV,2022-06-22 13:15,-119.7500,38.9963,1441.42,39.20,30.20,69.88,120.00,4.00,0.00,30.22,M,10.00,M,CLR,M,M,M,M,M,M,M,M,M,M,M,M,M,M,35.83,KMEV 221315Z AUTO 12004KT 10SM CLR 04/M01 A3022 RMK AO2,M
TMT,2022-06-22 13:15,-117.1971,39.4643,1749.34,35.80,12.60,37.90,0.00,0.00,0.00,30.28,M,10.00,M,CLR,M,M,M,M,M,M,M,M,M,M,M,M,M,M,35.80,KTMT 221315Z AUTO 00000KT 10SM CLR 02/M11 A3028 RMK AO2 T00211108,M
CXP,2022-06-22 13:35,-119.7326,39.1923,1431.00,51.80,30.20,43.32,0.00,0.00,0.00,30.24,M,10.00,M,CLR,M,M,M,M,M,M,M,M,M,M,M,M,M,M,51.80,KCXP 221335Z AUTO 00000KT 10SM CLR 11/M01 A3024 RMK AO2,M
BAM,2022-06-22 13:35,-116.8743,40.5990,1382.36,51.80,30.20,43.32,0.00,0.00,0.00,30.23,M,10.00,M,CLR,M,M,M,M,M,M,M,M,M,M,M,M,M,M,51.80,KBAM 221335Z AUTO 00000KT 10SM CLR 11/M01 A3023 RMK AO1,M
HTH,2022-06-22 13:35,-118.6315,38.5448,1282.89,60.80,19.40,19.94,0.00,0.00,0.00,30.18,M,10.00,M,CLR,M,M,M,M,M,M,M,M,M,M,M,M,M,M,60.80,KHTH 221335Z AUTO 00000KT 10SM CLR 16/M07 A3018 RMK A01,M
RTS,2022-06-22 13:35,-119.8764,39.6682,1539.00,51.80,23.00,32.17,350.00,3.00,0.00,30.24,M,10.00,M,CLR,M,M,M,M,M,M,M,M,M,M,M,M,M,M,51.80,KRTS 221335Z AUTO 35003KT 10SM CLR 11/M05 A3024 RMK AO2,M
05U,2022-06-22 13:35,-116.0051,39.6042,1811.23,53.60,19.40,25.85,0.00,0.00,0.00,30.31,M,10.00,M,CLR,M,M,M,M,M,M,M,M,M,M,M,M,M,M,53.60,K05U 221335Z AUTO 00000KT 10SM CLR 12/M07 A3031 RMK A01,M
BVU,2022-06-22 13:35,-114.8611,35.9475,671.00,84.20,37.40,18.91,360.00,6.00,0.00,30.00,M,10.00,M,CLR,M,M,M,M,M,M,M,M,M,M,M,M,M,M,81.38,KBVU 221335Z AUTO 36006KT 10SM CLR 29/03 A3000 RMK AO2,M
TMT,2022-06-22 13:35,-117.1971,39.4643,1749.34,38.80,15.60,38.41,0.00,0.00,0.00,30.28,M,10.00,M,CLR,M,M,M,M,M,M,M,M,M,M,M,M,M,M,38.80,KTMT 221335Z AUTO 00000KT 10SM CLR 04/M09 A3028 RMK AO2 LTG DSNT S T00381091,M
MEV,2022-06-22 13:35,-119.7500,38.9963,1441.42,46.40,28.40,49.24,0.00,0.00,0.00,30.23,M,10.00,M,CLR,M,M,M,M,M,M,M,M,M,M,M,M,M,M,46.40,KMEV 221335Z AUTO 00000KT 10SM CLR 08/M02 A3023 RMK AO2,M
CXP,2022-06-22 13:50,-119.7326,39.1923,1431.00,53.60,30.20,40.54,0.00,0.00,0.00,30.24,M,10.00,M,CLR,M,M,M,M,M,M,M,M,M,M,M,M,M,M,53.60,KCXP 221350Z AUTO 00000KT 10SM CLR 12/M01 A3024 RMK AO2,M
ELY,2022-06-22 13:53,-114.8453,39.2950,1909.00,49.00,19.00,30.24,190.00,5.00,0.00,30.34,1018.70,10.00,M,CLR,M,M,M,M,M,M,M,M,M,M,M,M,M,M,46.47,KELY 221353Z AUTO 19005KT 10SM CLR 09/M07 A3034 RMK AO2 SLP187 T00941072,M
P68,2022-06-22 13:53,-116.0056,39.6014,1993.00,56.00,21.90,26.43,0.00,0.00,0.00,30.28,1017.60,M,M,M,M,M,M,M,M,M,M,M,M,M,M,M,M,M,55.90,KP68 221353Z AUTO 00000KT 13/M06 A3028 RMK AO1 SLP176 T01331056,M
LOL,2022-06-22 13:53,-118.5701,40.0684,1192.43,65.00,33.00,30.44,40.00,10.00,0.00,30.15,1016.80,10.00,M,CLR,M,M,M,M,M,M,M,M,M,M,M,M,M,M,64.90,KLOL 221353Z AUTO 04010KT 10SM CLR 18/01 A3015 RMK AO2 SLP168 T01830006,M
VGT,2022-06-22 13:53,-115.1933,36.2111,667.00,89.00,42.00,19.42,250.00,4.00,0.00,29.99,1014.10,10.00,M,CLR,M,M,M,M,M,M,M,M,M,M,M,M,M,M,85.45,KVGT 221353Z 25004KT 10SM CLR 32/06 A2999 RMK AO2 SLP141 T03170056,M
DRA,2022-06-22 13:53,-116.0278,36.6206,1009.00,72.00,6.00,7.52,60.00,3.00,0.00,30.07,1013.30,10.00,M,CLR,M,M,M,M,M,M,M,M,M,M,M,M,M,M,72.00,KDRA 221353Z AUTO 06003KT 10SM CLR 22/M14 A3007 RMK AO2 SLP133 T02221144,M
TMT,2022-06-22 13:55,-117.1971,39.4643,1749.34,43.30,16.30,33.27,0.00,0.00,0.00,30.28,M,10.00,M,CLR,M,M,M,M,M,M,M,M,M,M,M,M,M,M,43.30,KTMT 221355Z AUTO 00000KT 10SM CLR 06/M09 A3028 RMK AO2 LTG DSNT S T00631087,M
RTS,2022-06-22 13:55,-119.8764,39.6682,1539.00,53.60,23.00,30.11,0.00,0.00,0.00,30.24,M,10.00,M,CLR,M,M,M,M,M,M,M,M,M,M,M,M,M,M,53.60,KRTS 221355Z AUTO 00000KT 10SM CLR 12/M05 A3024 RMK AO2,M
RNO,2022-06-22 13:55,-119.7711,39.4839,1341.00,57.00,32.00,38.54,0.00,0.00,0.00,30.21,1018.10,10.00,M,FEW,M,M,M,20000.00,M,M,M,M,M,M,M,M,M,M,57.00,KRNO 221355Z 00000KT 10SM FEW200 14/00 A3021 RMK AO2 SLP181 T01390000,M
05U,2022-06-22 13:55,-116.0051,39.6042,1811.23,57.20,21.20,24.49,0.00,0.00,0.00,30.31,M,10.00,M,CLR,M,M,M,M,M,M,M,M,M,M,M,M,M,M,57.20,K05U 221355Z AUTO 00000KT 10SM CLR 14/M06 A3031 RMK A01,M
BAM,2022-06-22 13:55,-116.8743,40.5990,1382.36,55.40,32.00,40.84,10.00,3.00,0.00,30.23,M,10.00,M,CLR,M,M,M,M,M,M,M,M,M,M,M,M,M,M,55.40,KBAM 221355Z AUTO 01003KT 10SM CLR 13/00 A3023 RMK AO1,M
BVU,2022-06-22 13:55,-114.8611,35.9475,671.00,84.20,37.40,18.91,10.00,4.00,0.00,30.00,M,10.00,M,CLR,M,M,M,M,M,M,M,M,M,M,M,M,M,M,81.38,KBVU 221355Z AUTO 01004KT 10SM CLR 29/03 A3000 RMK AO2,M
MEV,2022-06-22 13:55,-119.7500,38.9963,1441.42,50.00,30.20,46.31,0.00,0.00,0.00,30.23,M,10.00,M,CLR,M,M,M,M,M,M,M,M,M,M,M,M,M,M,50.00,KMEV 221355Z AUTO 00000KT 10SM CLR 10/M01 A3023 RMK AO2,M
HTH,2022-06-22 13:55,-118.6315,38.5448,1282.89,60.80,21.20,21.53,260.00,5.00,0.00,30.18,M,10.00,M,CLR,M,M,M,M,M,M,M,M,M,M,M,M,M,M,60.80,KHTH 221355Z AUTO 26005KT 10SM CLR 16/M06 A3018 RMK A01,M
WMC,2022-06-22 13:56,-117.8072,40.9019,1315.00,61.00,32.00,33.40,0.00,0.00,0.00,30.20,1018.10,10.00,M,CLR,M,M,M,M,M,M,M,M,M,M,M,M,M,M,61.00,KWMC 221356Z AUTO 00000KT 10SM CLR 16/00 A3020 RMK AO2 SLP181 T01610000,M
NFL,2022-06-22 13:56,-118.7010,39.4166,1199.00,56.00,24.10,29.00,0.00,0.00,0.00,30.16,1017.90,10.00,M,CLR,M,M,M,M,M,M,M,M,M,M,M,M,M,M,55.90,KNFL 221356Z AUTO 00000KT 10SM CLR 13/M04 A3016 RMK AO2 SLP179 T01331044,M
EKO,2022-06-22 13:56,-115.7860,40.8242,1367.00,53.00,28.90,39.16,0.00,0.00,0.00,30.27,1020.20,10.00,M,CLR,M,M,M,M,M,M,M,M,M,M,M,M,M,M,53.10,KEKO 221356Z AUTO 00000KT 10SM CLR 12/M02 A3027 RMK AO2 SLP202 T01171017,M
HND,2022-06-22 13:56,-115.1344,35.9729,742.79,86.00,44.00,23.14,200.00,8.00,0.00,30.04,1015.60,10.00,M,CLR,M,M,M,M,M,M,M,M,M,M,M,M,M,M,83.04,KHND 221356Z 20008KT 10SM CLR 30/07 A3004 RMK AO2 SLP156 T03000067,M
LAS,2022-06-22 13:56,-115.1634,36.0719,663.00,87.00,44.00,22.34,270.00,9.00,0.00,29.99,1012.60,10.00,M,FEW,SCT,BKN,M,10000.00,12000.00,15000.00,M,M,M,M,M,M,M,M,83.91,KLAS 221356Z 27009KT 10SM FEW100 SCT120 BKN150 31/07 A2999 RMK AO2 SLP126 VIRGA DSNT W T03060067,M
TPH,2022-06-22 13:56,-117.0904,38.0505,1654.00,64.00,8.10,10.85,20.00,9.00,0.00,30.23,1015.90,10.00,M,CLR,M,M,M,M,M,M,M,M,M,M,M,M,M,M,64.00,KTPH 221356Z AUTO 02009KT 10SM CLR 18/M13 A3023 RMK AO2 SLP159 T01781133,M
LSV,2022-06-22 13:58,-115.0343,36.2362,570.00,83.00,18.30,8.99,40.00,7.00,0.00,29.98,1012.60,10.00,M,BKN,M,M,M,15000.00,M,M,M,M,M,M,M,M,M,M,79.73,KLSV 221358Z AUTO 04007KT 10SM BKN150 28/M08 A2998 RMK AO2 SLP126 T02831076 $,M
INS,2022-06-22 13:58,-115.6733,36.5872,955.00,66.60,8.20,9.95,330.00,4.00,0.00,30.08,1014.00,10.00,M,BKN,OVC,M,M,14000.00,16000.00,M,M,M,M,M,M,M,M,M,66.60,KINS 221358Z AUTO 33004KT 10SM BKN140 OVC160 19/M13 A3008 RMK AO2 SLP140 T01921132 $,M
BVU,2022-06-22 14:15,-114.8611,35.9475,671.00,86.00,41.00,20.54,10.00,5.00,0.00,30.00,M,10.00,M,CLR,M,M,M,M,M,M,M,M,M,M,M,M,M,M,82.86,KBVU 221415Z AUTO 01005KT 10SM CLR 30/05 A3000 RMK AO2,M
MEV,2022-06-22 14:15,-119.7500,38.9963,1441.42,51.80,30.20,43.32,0.00,0.00,0.00,30.23,M,10.00,M,CLR,M,M,M,M,M,M,M,M,M,M,M,M,M,M,51.80,KMEV 221415Z AUTO 00000KT 10SM CLR 11/M01 A3023 RMK AO2,M
TMT,2022-06-22 14:15,-117.1971,39.4643,1749.34,46.80,17.10,30.15,0.00,0.00,0.00,30.28,M,10.00,M,CLR,M,M,M,M,M,M,M,M,M,M,M,M,M,M,46.80,KTMT 221415Z AUTO 00000KT 10SM CLR 08/M08 A3028 RMK AO2 LTG DSNT SE T00821083,M
CXP,2022-06-22 14:15,-119.7326,39.1923,1431.00,57.20,28.40,33.05,0.00,0.00,0.00,30.25,M,10.00,M,CLR,M,M,M,M,M,M,M,M,M,M,M,M,M,M,57.20,KCXP 221415Z AUTO 00000KT 10SM CLR 14/M02 A3025 RMK AO2,M
RTS,2022-06-22 14:15,-119.8764,39.6682,1539.00,57.20,23.00,26.42,0.00,0.00,0.00,30.24,M,10.00,M,CLR,M,M,M,M,M,M,M,M,M,M,M,M,M,M,57.20,KRTS 221415Z AUTO 00000KT 10SM CLR 14/M05 A3024 RMK AO2,M
BAM,2022-06-22 14:15,-116.8743,40.5990,1382.36,59.00,32.00,35.87,350.00,3.00,0.00,30.23,M,10.00,M,CLR,M,M,M,M,M,M,M,M,M,M,M,M,M,M,59.00,KBAM 221415Z AUTO 35003KT 10SM CLR 15/00 A3023 RMK AO1,M
HTH,2022-06-22 14:15,-118.6315,38.5448,1282.89,62.60,21.20,20.20,260.00,5.00,0.00,30.19,M,10.00,M,CLR,M,M,M,M,M,M,M,M,M,M,M,M,M,M,62.60,KHTH 221415Z AUTO 26005KT 10SM CLR 17/M06 A3019 RMK A01,M
05U,2022-06-22 14:15,-116.0051,39.6042,1811.23,62.60,21.20,20.20,0.00,0.00,0.00,30.31,M,10.00,M,CLR,M,M,M,M,M,M,M,M,M,M,M,M,M,M,62.60,K05U 221415Z AUTO 00000KT 10SM CLR 17/M06 A3031 RMK A01,M
TMT,2022-06-22 14:35,-117.1971,39.4643,1749.34,51.00,18.90,27.74,0.00,0.00,0.00,30.29,M,10.00,M,CLR,M,M,M,M,M,M,M,M,M,M,M,M,M,M,51.10,KTMT 221435Z AUTO 00000KT 10SM CLR 11/M07 A3029 RMK AO2 T01061073,M
HTH,2022-06-22 14:35,-118.6315,38.5448,1282.89,64.40,21.20,18.96,270.00,4.00,0.00,30.20,M,10.00,M,CLR,M,M,M,M,M,M,M,M,M,M,M,M,M,M,64.40,KHTH 221435Z AUTO 27004KT 10SM CLR 18/M06 A3020 RMK A01,M
BAM,2022-06-22 14:35,-116.8743,40.5990,1382.36,62.60,32.00,31.56,350.00,5.00,0.00,30.23,M,10.00,M,CLR,M,M,M,M,M,M,M,M,M,M,M,M,M,M,62.60,KBAM 221435Z AUTO 35005KT 10SM CLR 17/00 A3023 RMK AO1,M
MEV,2022-06-22 14:35,-119.7500,38.9963,1441.42,55.40,30.20,37.97,0.00,0.00,0.00,30.24,M,10.00,M,CLR,M,M,M,M,M,M,M,M,M,M,M,M,M,M,55.40,KMEV 221435Z AUTO 00000KT 10SM CLR 13/M01 A3024 RMK AO2,M
05U,2022-06-22 14:35,-116.0051,39.6042,1811.23,66.20,21.20,17.81,0.00,0.00,0.00,30.31,M,10.00,M,CLR,M,M,M,M,M,M,M,M,M,M,M,M,M,M,66.20,K05U 221435Z AUTO 00000KT 10SM CLR 19/M06 A3031 RMK A01,M
RTS,2022-06-22 14:35,-119.8764,39.6682,1539.00,59.00,23.00,24.76,0.00,0.00,0.00,30.25,M,10.00,M,CLR,M,M,M,M,M,M,M,M,M,M,M,M,M,M,59.00,KRTS 221435Z AUTO 00000KT 10SM CLR 15/M05 A3025 RMK AO2,M
CXP,2022-06-22 14:35,-119.7326,39.1923,1431.00,59.00,26.60,28.77,0.00,0.00,0.00,30.25,M,10.00,M,CLR,M,M,M,M,M,M,M,M,M,M,M,M,M,M,59.00,KCXP 221435Z AUTO 00000KT 10SM CLR 15/M03 A3025 RMK AO2,M
BVU,2022-06-22 14:35,-114.8611,35.9475,671.00,86.00,39.20,19.15,0.00,0.00,0.00,30.01,M,10.00,M,CLR,M,M,M,M,M,M,M,M,M,M,M,M,M,M,82.79,KBVU 221435Z AUTO 00000KT 10SM CLR 30/04 A3001 RMK AO2,M
NFL,2022-06-22 14:47,-118.7010,39.4166,1199.00,64.00,27.00,24.51,170.00,4.00,0.00,30.17,M,10.00,M,SCT,M,M,M,24000.00,M,M,M,M,M,M,M,M,M,M,64.00,KNFL 221447Z 17004KT 10SM SCT240 18/M03 A3017 RMK AO2 T01781028,M
LOL,2022-06-22 14:53,-118.5701,40.0684,1192.43,69.00,34.00,27.29,20.00,7.00,0.00,30.17,1017.50,10.00,M,CLR,M,M,M,M,M,M,M,M,M,M,M,M,M,M,69.10,KLOL 221453Z AUTO 02007KT 10SM CLR 21/01 A3017 RMK AO2 SLP175 T02060011 53007,M
P68,2022-06-22 14:53,-116.0056,39.6014,1993.00,66.00,21.90,18.47,0.00,0.00,0.00,30.28,1017.20,M,M,M,M,M,M,M,M,M,M,M,M,M,M,M,M,M,66.00,KP68 221453Z AUTO 00000KT 19/M06 A3028 RMK AO1 SLP172 T01891056 50000,M
DRA,2022-06-22 14:53,-116.0278,36.6206,1009.00,74.00,6.00,7.05,260.00,3.00,0.00,30.10,1014.40,10.00,M,FEW,M,M,M,10000.00,M,M,M,M,M,M,M,M,M,M,73.90,KDRA 221453Z AUTO 26003KT 10SM FEW100 23/M14 A3010 RMK AO2 SLP144 T02331144 53021,M
ELY,2022-06-22 14:53,-114.8453,39.2950,1909.00,58.00,21.90,24.59,0.00,0.00,0.00,30.34,1018.20,10.00,M,CLR,M,M,M,M,M,M,M,M,M,M,M,M,M,M,57.90,KELY 221453Z AUTO 00000KT 10SM CLR 14/M06 A3034 RMK AO2 SLP182 T01441056 50004,M
VGT,2022-06-22 14:53,-115.1933,36.2111,667.00,88.00,34.00,14.64,90.00,5.00,0.00,30.01,1014.60,10.00,M,CLR,M,M,M,M,M,M,M,M,M,M,M,M,M,M,84.26,KVGT 221453Z 09005KT 10SM CLR 31/01 A3001 RMK AO2 SLP146 T03110011 53010,M
BVU,2022-06-22 14:55,-114.8611,35.9475,671.00,87.80,39.20,18.09,0.00,0.00,0.00,30.01,M,10.00,M,CLR,M,M,M,M,M,M,M,M,M,M,M,M,M,M,84.22,KBVU 221455Z AUTO 00000KT 10SM CLR 31/04 A3001 RMK AO2,M
BAM,2022-06-22 14:55,-116.8743,40.5990,1382.36,62.60,32.00,31.56,350.00,3.00,0.00,30.23,M,10.00,M,CLR,M,M,M,M,M,M,M,M,M,M,M,M,M,M,62.60,KBAM 221455Z AUTO 35003KT 10SM CLR 17/00 A3023 RMK AO1,M
05U,2022-06-22 14:55,-116.0051,39.6042,1811.23,68.00,21.20,16.74,0.00,0.00,0.00,30.31,M,10.00,M,CLR,M,M,M,M,M,M,M,M,M,M,M,M,M,M,68.00,K05U 221455Z AUTO 00000KT 10SM CLR 20/M06 A3031 RMK A01,M
RNO,2022-06-22 14:55,-119.7711,39.4839,1341.00,64.00,30.00,27.71,0.00,0.00,0.00,30.22,1018.00,10.00,M,CLR,M,M,M,M,M,M,M,M,M,M,M,M,M,M,64.00,KRNO 221455Z 00000KT 10SM CLR 18/M01 A3022 RMK AO2 SLP180 T01781011 51007,M
RTS,2022-06-22 14:55,-119.8764,39.6682,1539.00,60.80,24.80,25.04,0.00,0.00,0.00,30.25,M,10.00,M,CLR,M,M,M,M,M,M,M,M,M,M,M,M,M,M,60.80,KRTS 221455Z AUTO 00000KT 10SM CLR 16/M04 A3025 RMK AO2,M
MEV,2022-06-22 14:55,-119.7500,38.9963,1441.42,57.20,30.20,35.57,0.00,0.00,0.00,30.24,M,10.00,M,CLR,M,M,M,M,M,M,M,M,M,M,M,M,M,M,57.20,KMEV 221455Z AUTO 00000KT 10SM CLR 14/M01 A3024 RMK AO2 LTG DSNT SE AND S,M
TMT,2022-06-22 14:55,-117.1971,39.4643,1749.34,54.70,19.80,25.26,0.00,0.00,0.00,30.28,M,10.00,M,CLR,M,M,M,M,M,M,M,M,M,M,M,M,M,M,54.70,KTMT 221455Z AUTO 00000KT 10SM CLR 13/M07 A3028 RMK AO2 LTG DSNT S T01261068,M
HTH,2022-06-22 14:55,-118.6315,38.5448,1282.89,66.20,21.20,17.81,0.00,0.00,0.00,30.20,M,10.00,M,CLR,M,M,M,M,M,M,M,M,M,M,M,M,M,M,66.20,KHTH 221455Z AUTO 00000KT 10SM CLR 19/M06 A3020 RMK A01,M
CXP,2022-06-22 14:55,-119.7326,39.1923,1431.00,60.80,26.60,26.98,0.00,0.00,0.00,30.25,M,10.00,M,CLR,M,M,M,M,M,M,M,M,M,M,M,M,M,M,60.80,KCXP 221455Z AUTO 00000KT 10SM CLR 16/M03 A3025 RMK AO2 LTG DSNT SE AND S,M
NFL,2022-06-22 14:56,-118.7010,39.4166,1199.00,65.00,27.00,23.75,160.00,4.00,0.00,30.18,1018.30,10.00,M,SCT,M,M,M,24000.00,M,M,M,M,M,M,M,M,M,M,64.90,KNFL 221456Z 16004KT 10SM SCT240 18/M03 A3018 RMK AO2 SLP183 T01831028 51012,M
EKO,2022-06-22 14:56,-115.7860,40.8242,1367.00,62.00,28.00,27.30,0.00,0.00,0.00,30.27,1019.50,10.00,M,CLR,M,M,M,M,M,M,M,M,M,M,M,M,M,M,62.10,KEKO 221456Z AUTO 00000KT 10SM CLR 17/M02 A3027 RMK AO2 SLP195 T01671022 50005,M
TPH,2022-06-22 14:56,-117.0904,38.0505,1654.00,72.00,9.00,8.57,10.00,10.00,0.00,30.23,1015.40,10.00,M,CLR,M,M,M,M,M,M,M,M,M,M,M,M,M,M,72.00,KTPH 221456Z AUTO 01010KT 10SM CLR 22/M13 A3023 RMK AO2 SLP154 T02221128 50005,M
LAS,2022-06-22 14:56,-115.1634,36.0719,663.00,89.00,44.00,20.97,M,5.00,0.00,30.02,1013.40,10.00,M,FEW,SCT,OVC,M,10000.00,12000.00,15000.00,M,M,M,M,M,M,M,M,85.59,KLAS 221456Z VRB05KT 10SM FEW100 SCT120 OVC150 32/07 A3002 RMK AO2 SLP134 T03170067 51018,M
HND,2022-06-22 14:56,-115.1344,35.9729,742.79,88.00,44.00,21.72,200.00,9.00,0.00,30.05,1015.80,10.00,M,CLR,M,M,M,M,M,M,M,M,M,M,M,M,M,M,84.65,KHND 221456Z 20009KT 10SM CLR 31/07 A3005 RMK AO2 SLP158 T03110067 51013,M
WMC,2022-06-22 14:56,-117.8072,40.9019,1315.00,64.00,33.00,31.41,0.00,0.00,0.00,30.20,1018.20,10.00,M,CLR,M,M,M,M,M,M,M,M,M,M,M,M,M,M,64.00,KWMC 221456Z AUTO 00000KT 10SM CLR 18/01 A3020 RMK AO2 SLP182 T01780006 50003,M
INS,2022-06-22 14:58,-115.6733,36.5872,955.00,69.60,2.70,6.98,350.00,8.00,0.00,30.08,1013.90,10.00,M,BKN,OVC,M,M,11000.00,13000.00,M,M,M,M,M,M,M,M,M,69.60,KINS 221458Z AUTO 35008KT 10SM BKN110 OVC130 21/M16 A3008 RMK AO2 SLP139 T02091163 52014 $,M
LSV,2022-06-22 14:58,-115.0343,36.2362,570.00,85.50,14.40,6.98,80.00,5.00,0.00,29.98,1012.60,10.00,M,FEW,M,M,M,16000.00,M,M,M,M,M,M,M,M,M,M,81.37,KLSV 221458Z AUTO 08005KT 10SM FEW160 30/M10 A2998 RMK AO2 SLP126 T02971098 52005 $,M
CXP,2022-06-22 15:10,-119.7326,39.1923,1431.00,62.60,23.00,21.79,0.00,0.00,0.00,30.25,M,10.00,M,CLR,M,M,M,M,M,M,M,M,M,M,M,M,M,M,62.60,KCXP 221510Z AUTO 00000KT 10SM CLR 17/M05 A3025 RMK AO2,M
MEV,2022-06-22 15:15,-119.7500,38.9963,1441.42,60.80,28.40,29.06,0.00,0.00,0.00,30.24,M,10.00,M,CLR,M,M,M,M,M,M,M,M,M,M,M,M,M,M,60.80,KMEV 221515Z AUTO 00000KT 10SM CLR 16/M02 A3024 RMK AO2,M
TMT,2022-06-22 15:15,-117.1971,39.4643,1749.34,57.20,21.20,24.49,0.00,0.00,0.00,30.28,M,10.00,M,CLR,M,M,M,M,M,M,M,M,M,M,M,M,M,M,57.20,KTMT 221515Z AUTO 00000KT 10SM CLR 14/M06 A3028 RMK AO2 T01401060,M
BAM,2022-06-22 15:15,-116.8743,40.5990,1382.36,64.40,32.00,29.63,10.00,6.00,0.00,30.23,M,10.00,M,CLR,M,M,M,M,M,M,M,M,M,M,M,M,M,M,64.40,KBAM 221515Z AUTO 01006KT 10SM CLR 18/00 A3023 RMK AO1,M
BVU,2022-06-22 15:15,-114.8611,35.9475,671.00,87.80,37.40,16.86,150.00,4.00,0.00,30.02,M,10.00,M,CLR,M,M,M,M,M,M,M,M,M,M,M,M,M,M,84.16,KBVU 221515Z AUTO 15004KT 10SM CLR 31/03 A3002 RMK AO2,M
05U,2022-06-22 15:15,-116.0051,39.6042,1811.23,69.80,24.80,18.30,0.00,0.00,0.00,30.31,M,10.00,M,CLR,M,M,M,M,M,M,M,M,M,M,M,M,M,M,69.80,K05U 221515Z AUTO 00000KT 10SM CLR 21/M04 A3031 RMK A01,M
CXP,2022-06-22 15:15,-119.7326,39.1923,1431.00,62.60,24.80,23.50,0.00,0.00,0.00,30.25,M,10.00,M,CLR,M,M,M,M,M,M,M,M,M,M,M,M,M,M,62.60,KCXP 221515Z AUTO 00000KT 10SM CLR 17/M04 A3025 RMK AO2,M
HTH,2022-06-22 15:15,-118.6315,38.5448,1282.89,66.20,21.20,17.81,0.00,0.00,0.00,30.21,M,10.00,M,CLR,M,M,M,M,M,M,M,M,M,M,M,M,M,M,66.20,KHTH 221515Z AUTO 00000KT 10SM CLR 19/M06 A3021 RMK A01,M
RTS,2022-06-22 15:15,-119.8764,39.6682,1539.00,64.40,24.80,22.06,0.00,0.00,0.00,30.25,M,10.00,M,CLR,M,M,M,M,M,M,M,M,M,M,M,M,M,M,64.40,KRTS 221515Z AUTO 00000KT 10SM CLR 18/M04 A3025 RMK AO2,M
HTH,2022-06-22 15:35,-118.6315,38.5448,1282.89,68.00,23.00,18.06,0.00,0.00,0.00,30.21,M,10.00,M,CLR,M,M,M,M,M,M,M,M,M,M,M,M,M,M,68.00,KHTH 221535Z AUTO 00000KT 10SM CLR 20/M05 A3021 RMK A01,M
BAM,2022-06-22 15:35,-116.8743,40.5990,1382.36,66.20,32.00,27.83,10.00,6.00,0.00,30.23,M,10.00,M,CLR,M,M,M,M,M,M,M,M,M,M,M,M,M,M,66.20,KBAM 221535Z AUTO 01006KT 10SM CLR 19/00 A3023 RMK AO1,M
MEV,2022-06-22 15:35,-119.7500,38.9963,1441.42,64.40,28.40,25.60,M,3.00,0.00,30.23,M,10.00,M,CLR,M,M,M,M,M,M,M,M,M,M,M,M,M,M,64.40,KMEV 221535Z AUTO VRB03KT 10SM CLR 18/M02 A3023 RMK AO2 LTG DSNT S,M
05U,2022-06-22 15:35,-116.0051,39.6042,1811.23,71.60,26.60,18.55,0.00,0.00,0.00,30.30,M,10.00,M,CLR,M,M,M,M,M,M,M,M,M,M,M,M,M,M,71.60,K05U 221535Z AUTO 00000KT 10SM CLR 22/M03 A3030 RMK A01,M
RTS,2022-06-22 15:35,-119.8764,39.6682,1539.00,68.00,24.80,19.47,0.00,0.00,0.00,30.25,M,10.00,M,CLR,M,M,M,M,M,M,M,M,M,M,M,M,M,M,68.00,KRTS 221535Z AUTO 00000KT 10SM CLR 20/M04 A3025 RMK AO2,M
TMT,2022-06-22 15:35,-117.1971,39.4643,1749.34,60.00,21.60,22.45,0.00,0.00,0.00,30.28,M,10.00,M,CLR,M,M,M,M,M,M,M,M,M,M,M,M,M,M,60.10,KTMT 221535Z AUTO 00000KT 10SM CLR 16/M06 A3028 RMK AO2 LTG DSNT S T01561058,M
BVU,2022-06-22 15:35,-114.8611,35.9475,671.00,89.60,35.60,14.83,130.00,5.00,0.00,30.03,M,10.00,M,CLR,M,M,M,M,M,M,M,M,M,M,M,M,M,M,85.62,KBVU 221535Z AUTO 13005KT 10SM CLR 32/02 A3003 RMK AO2 LTG DSNT W,M
LOL,2022-06-22 15:53,-118.5701,40.0684,1192.43,72.00,30.90,21.82,M,3.00,0.00,30.17,1018.00,10.00,M,CLR,M,M,M,M,M,M,M,M,M,M,M,M,M,M,72.00,KLOL 221553Z AUTO VRB03KT 10SM CLR 22/M01 A3017 RMK AO2 SLP180 T02221006,M
P68,2022-06-22 15:53,-116.0056,39.6014,1993.00,71.00,25.00,17.66,20.00,5.00,0.00,30.27,1017.40,M,M,M,M,M,M,M,M,M,M,M,M,M,M,M,M,M,71.10,KP68 221553Z AUTO 02005KT 22/M04 A3027 RMK AO1 SLP174 T02171039,M
DRA,2022-06-22 15:53,-116.0278,36.6206,1009.00,75.00,10.00,8.11,350.00,8.00,T,30.10,1014.90,10.00,M,SCT,BKN,M,M,9000.00,11000.00,M,M,M,M,M,M,M,M,M,75.00,KDRA 221553Z AUTO 35008KT 10SM SCT090 BKN110 24/M12 A3010 RMK AO2 RAB40E48 SLP149 P0000 T02391122,M
VGT,2022-06-22 15:53,-115.1933,36.2111,667.00,92.00,39.00,15.77,0.00,0.00,0.00,30.01,1014.70,10.00,M,CLR,M,M,M,M,M,M,M,M,M,M,M,M,M,M,87.74,KVGT 221553Z 00000KT 10SM CLR 33/04 A3001 RMK AO2 SLP147 T03330039,M
ELY,2022-06-22 15:53,-114.8453,39.2950,1909.00,66.00,21.00,17.78,M,M,0.00,30.33,1017.50,10.00,M,CLR,M,M,M,M,M,M,M,M,M,M,M,M,M,M,66.00,KELY 221553Z AUTO 10SM CLR 19/M06 A3033 RMK AO2 SLP175 T01891061,M
RTS,2022-06-22 15:55,-119.8764,39.6682,1539.00,69.80,26.60,19.72,130.00,3.00,0.00,30.25,M,10.00,M,CLR,M,M,M,M,M,M,M,M,M,M,M,M,M,M,69.80,KRTS 221555Z AUTO 13003KT 10SM CLR 21/M03 A3025 RMK AO2,M
05U,2022-06-22 15:55,-116.0051,39.6042,1811.23,73.40,24.80,16.20,0.00,0.00,0.00,30.30,M,10.00,M,CLR,M,M,M,M,M,M,M,M,M,M,M,M,M,M,73.40,K05U 221555Z AUTO 00000KT 10SM CLR 23/M04 A3030 RMK A01,M
MEV,2022-06-22 15:55,-119.7500,38.9963,1441.42,64.40,30.20,27.55,0.00,0.00,0.00,30.22,M,10.00,M,CLR,M,M,M,M,M,M,M,M,M,M,M,M,M,M,64.40,KMEV 221555Z AUTO 00000KT 10SM CLR 18/M01 A3022 RMK AO2,M
BAM,2022-06-22 15:55,-116.8743,40.5990,1382.36,69.80,32.00,24.59,30.00,8.00,0.00,30.23,M,10.00,M,CLR,M,M,M,M,M,M,M,M,M,M,M,M,M,M,69.80,KBAM 221555Z AUTO 03008KT 10SM CLR 21/00 A3023 RMK AO1,M
TMT,2022-06-22 15:55,-117.1971,39.4643,1749.34,63.30,22.30,20.65,0.00,0.00,0.00,30.28,M,10.00,M,CLR,M,M,M,M,M,M,M,M,M,M,M,M,M,M,63.30,KTMT 221555Z AUTO 00000KT 10SM CLR 17/M05 A3028 RMK AO2 T01741054,M
HTH,2022-06-22 15:55,-118.6315,38.5448,1282.89,69.80,24.80,18.30,0.00,0.00,0.00,30.20,M,10.00,M,CLR,M,M,M,M,M,M,M,M,M,M,M,M,M,M,69.80,KHTH 221555Z AUTO 00000KT 10SM CLR 21/M04 A3020 RMK A01,M
BVU,2022-06-22 15:55,-114.8611,35.9475,671.00,89.60,39.20,17.09,150.00,4.00,0.00,30.03,M,10.00,M,CLR,M,M,M,M,M,M,M,M,M,M,M,M,M,M,85.73,KBVU 221555Z AUTO 15004KT 10SM CLR 32/04 A3003 RMK AO2,M
RNO,2022-06-22 15:55,-119.7711,39.4839,1341.00,67.00,30.00,25.05,160.00,3.00,0.00,30.21,1017.70,10.00,M,SCT,M,M,M,25000.00,M,M,M,M,M,M,M,M,M,M,66.90,KRNO 221555Z 16003KT 10SM SCT250 19/M01 A3021 RMK AO2 SLP177 T01941011,M
TPH,2022-06-22 15:56,-117.0904,38.0505,1654.00,75.00,9.00,7.75,170.00,7.00,0.00,30.23,1016.00,10.00,M,FEW,M,M,M,12000.00,M,M,M,M,M,M,M,M,M,M,75.00,KTPH 221556Z AUTO 17007KT 10SM FEW120 24/M13 A3023 RMK AO2 SLP160 T02391128,M
WMC,2022-06-22 15:56,-117.8072,40.9019,1315.00,72.00,33.00,23.85,60.00,9.00,0.00,30.20,1018.00,10.00,M,CLR,M,M,M,M,M,M,M,M,M,M,M,M,M,M,72.00,KWMC 221556Z AUTO 06009KT 10SM CLR 22/01 A3020 RMK AO2 SLP180 T02220006,M
HND,2022-06-22 15:56,-115.1344,35.9729,742.79,87.00,46.00,24.02,140.00,4.00,0.00,30.06,1016.40,10.00,M,CLR,M,M,M,M,M,M,M,M,M,M,M,M,M,M,84.07,KHND 221556Z 14004KT 10SM CLR 31/08 A3006 RMK AO2 SLP164 T03060078,M
LAS,2022-06-22 15:56,-115.1634,36.0719,663.00,90.00,44.00,20.39,180.00,7.00,0.00,30.02,1013.50,10.00,M,FEW,SCT,BKN,M,10000.00,12000.00,15000.00,M,M,M,M,M,M,M,M,86.38,KLAS 221556Z 18007KT 10SM FEW100 SCT120 BKN150 32/07 A3002 RMK AO2 SLP135 VIRGA DSNT S T03220067,M
EKO,2022-06-22 15:56,-115.7860,40.8242,1367.00,69.00,28.00,21.40,20.00,5.00,0.00,30.25,1019.30,10.00,M,CLR,M,M,M,M,M,M,M,M,M,M,M,M,M,M,69.10,KEKO 221556Z AUTO 02005KT 10SM CLR 21/M02 A3025 RMK AO2 SLP193 T02061022,M
NFL,2022-06-22 15:56,-118.7010,39.4166,1199.00,71.00,28.00,19.99,0.00,0.00,0.00,30.17,1018.20,10.00,M,BKN,M,M,M,22000.00,M,M,M,M,M,M,M,M,M,M,71.10,KNFL 221556Z 00000KT 10SM BKN220 22/M02 A3017 RMK AO2 SLP182 T02171022,M
INS,2022-06-22 15:58,-115.6733,36.5872,955.00,76.50,10.80,7.99,210.00,3.00,0.00,30.09,1014.20,10.00,M,OVC,M,M,M,11000.00,M,M,M,M,M,M,M,M,M,M,76.50,KINS 221558Z AUTO 21003KT 10SM OVC110 25/M12 A3009 RMK AO2 SLP142 T02471118 $,M
LSV,2022-06-22 15:58,-115.0343,36.2362,570.00,89.80,30.40,11.96,190.00,5.00,0.00,29.99,M,10.00,M,FEW,M,M,M,18000.00,M,M,M,M,M,M,M,M,M,M,85.52,KLSV 221558Z AUTO 19005KT 10SM FEW180 32/M01 A2999 RMK AO2 SLPNO T03211009 $,M
05U,2022-06-22 16:15,-116.0051,39.6042,1811.23,75.20,24.80,15.25,0.00,0.00,0.00,30.29,M,10.00,M,CLR,M,M,M,M,M,M,M,M,M,M,M,M,M,M,75.20,K05U 221615Z AUTO 00000KT 10SM CLR 24/M04 A3029 RMK A01,M
RTS,2022-06-22 16:15,-119.8764,39.6682,1539.00,69.80,23.00,16.98,0.00,0.00,0.00,30.24,M,10.00,M,CLR,M,M,M,M,M,M,M,M,M,M,M,M,M,M,69.80,KRTS 221615Z AUTO 00000KT 10SM CLR 21/M05 A3024 RMK AO2,M
CXP,2022-06-22 16:15,-119.7326,39.1923,1431.00,69.80,24.80,18.30,0.00,0.00,0.00,30.23,M,10.00,M,CLR,M,M,M,M,M,M,M,M,M,M,M,M,M,M,69.80,KCXP 221615Z AUTO 00000KT 10SM CLR 21/M04 A3023 RMK AO2,M
MEV,2022-06-22 16:15,-119.7500,38.9963,1441.42,66.20,32.00,27.83,0.00,0.00,0.00,30.22,M,10.00,M,CLR,M,M,M,M,M,M,M,M,M,M,M,M,M,M,66.20,KMEV 221615Z AUTO 00000KT 10SM CLR 19/00 A3022 RMK AO2,M
HTH,2022-06-22 16:15,-118.6315,38.5448,1282.89,69.80,23.00,16.98,330.00,4.00,0.00,30.20,M,10.00,M,CLR,M,M,M,M,M,M,M,M,M,M,M,M,M,M,69.80,KHTH 221615Z AUTO 33004KT 10SM CLR 21/M05 A3020 RMK A01,M
TMT,2022-06-22 16:15,-117.1971,39.4643,1749.34,66.60,24.40,20.10,240.00,3.00,0.00,30.28,M,10.00,M,CLR,M,M,M,M,M,M,M,M,M,M,M,M,M,M,66.60,KTMT 221615Z AUTO 24003KT 10SM CLR 19/M04 A3028 RMK AO2 T01921042,M
BAM,2022-06-22 16:15,-116.8743,40.5990,1382.36,73.40,32.00,21.76,40.00,8.00,0.00,30.21,M,10.00,M,CLR,M,M,M,M,M,M,M,M,M,M,M,M,M,M,73.40,KBAM 221615Z AUTO 04008KT 10SM CLR 23/00 A3021 RMK AO1,M
BVU,2022-06-22 16:15,-114.8611,35.9475,671.00,91.40,41.00,17.32,140.00,5.00,0.00,30.03,M,10.00,M,CLR,M,M,M,M,M,M,M,M,M,M,M,M,M,M,87.40,KBVU 221615Z AUTO 14005KT 10SM CLR 33/05 A3003 RMK AO2,M
TMT,2022-06-22 16:35,-117.1971,39.4643,1749.34,68.50,23.20,17.90,0.00,0.00,0.00,30.27,M,10.00,M,CLR,M,M,M,M,M,M,M,M,M,M,M,M,M,M,68.50,KTMT 221635Z AUTO 00000KT 10SM CLR 20/M05 A3027 RMK AO2 T02031049,M
MEV,2022-06-22 16:35,-119.7500,38.9963,1441.42,69.80,30.20,22.86,210.00,4.00,0.00,30.22,M,10.00,M,CLR,M,M,M,M,M,M,M,M,M,M,M,M,M,M,69.80,KMEV 221635Z AUTO 21004KT 10SM CLR 21/M01 A3022 RMK AO2,M
HTH,2022-06-22 16:35,-118.6315,38.5448,1282.89,73.40,23.00,15.03,M,5.00,0.00,30.19,M,10.00,M,CLR,M,M,M,M,M,M,M,M,M,M,M,M,M,M,73.40,KHTH 221635Z AUTO VRB05KT 10SM CLR 23/M05 A3019 RMK A01,M
BAM,2022-06-22 16:35,-116.8743,40.5990,1382.36,75.20,32.00,20.49,40.00,7.00,0.00,30.21,M,10.00,M,CLR,M,M,M,M,M,M,M,M,M,M,M,M,M,M,75.20,KBAM 221635Z AUTO 04007KT 10SM CLR 24/00 A3021 RMK AO1,M
RTS,2022-06-22 16:35,-119.8764,39.6682,1539.00,73.40,23.00,15.03,0.00,0.00,0.00,30.23,M,10.00,M,CLR,M,M,M,M,M,M,M,M,M,M,M,M,M,M,73.40,KRTS 221635Z AUTO 00000KT 10SM CLR 23/M05 A3023 RMK AO2,M
05U,2022-06-22 16:35,-116.0051,39.6042,1811.23,75.20,24.80,15.25,0.00,0.00,0.00,30.29,M,10.00,M,CLR,M,M,M,M,M,M,M,M,M,M,M,M,M,M,75.20,K05U 221635Z AUTO 00000KT 10SM CLR 24/M04 A3029 RMK A01,M
CXP,2022-06-22 16:35,-119.7326,39.1923,1431.00,71.60,26.60,18.55,0.00,0.00,0.00,30.23,M,10.00,M,CLR,M,M,M,M,M,M,M,M,M,M,M,M,M,M,71.60,KCXP 221635Z AUTO 00000KT 10SM CLR 22/M03 A3023 RMK AO2,M
BVU,2022-06-22 16:35,-114.8611,35.9475,671.00,89.60,42.80,19.64,170.00,12.00,0.00,30.03,M,10.00,M,CLR,M,M,M,M,M,M,M,M,M,M,M,M,M,M,85.93,KBVU 221635Z AUTO 17012KT 10SM CLR 32/06 A3003 RMK AO2,M
VGT,2022-06-22 16:53,-115.1933,36.2111,667.00,93.00,41.00,16.48,M,3.00,0.00,30.01,1014.80,10.00,M,CLR,M,M,M,M,M,M,M,M,M,M,M,M,M,M,88.85,KVGT 221653Z VRB03KT 10SM CLR 34/05 A3001 RMK AO2 SLP148 T03390050,M
P68,2022-06-22 16:53,-116.0056,39.6014,1993.00,76.00,24.10,14.47,20.00,6.00,0.00,30.26,1016.70,M,M,M,M,M,M,M,M,M,M,M,M,M,M,M,M,M,75.90,KP68 221653Z AUTO 02006KT 24/M04 A3026 RMK AO1 SLP167 T02441044,M
ELY,2022-06-22 16:53,-114.8453,39.2950,1909.00,71.00,19.90,14.24,280.00,3.00,0.00,30.31,1016.90,10.00,M,CLR,M,M,M,M,M,M,M,M,M,M,M,M,M,M,71.10,KELY 221653Z AUTO 28003KT 10SM CLR 22/M07 A3031 RMK AO2 SLP169 T02171067,M
DRA,2022-06-22 16:53,-116.0278,36.6206,1009.00,78.00,48.00,34.67,60.00,7.00,T,30.11,1015.30,10.00,M,FEW,SCT,OVC,M,6000.00,7000.00,11000.00,M,-RA,M,M,M,M,M,M,78.10,KDRA 221653Z AUTO 06007KT 10SM -RA FEW060 SCT070 OVC110 26/09 A3011 RMK AO2 RAB53 SLP153 P0000 T02560089,M
LOL,2022-06-22 16:53,-118.5701,40.0684,1192.43,77.00,33.00,20.17,10.00,4.00,0.00,30.16,1017.30,10.00,M,CLR,M,M,M,M,M,M,M,M,M,M,M,M,M,M,77.00,KLOL 221653Z AUTO 01004KT 10SM CLR 25/01 A3016 RMK AO2 SLP173 T02500006,M
HTH,2022-06-22 16:55,-118.6315,38.5448,1282.89,73.40,23.00,15.03,320.00,6.00,0.00,30.19,M,10.00,M,CLR,M,M,M,M,M,M,M,M,M,M,M,M,M,M,73.40,KHTH 221655Z AUTO 32006KT 10SM CLR 23/M05 A3019 RMK A01,M
TMT,2022-06-22 16:55,-117.1971,39.4643,1749.34,70.70,23.00,16.46,320.00,3.00,0.00,30.26,M,10.00,M,CLR,M,M,M,M,M,M,M,M,M,M,M,M,M,M,70.70,KTMT 221655Z AUTO 32003KT 10SM CLR 22/M05 A3026 RMK AO2 T02151050,M
RTS,2022-06-22 16:55,-119.8764,39.6682,1539.00,75.20,23.00,14.15,M,5.00,0.00,30.23,M,10.00,M,CLR,M,M,M,M,M,M,M,M,M,M,M,M,M,M,75.20,KRTS 221655Z AUTO VRB05KT 10SM CLR 24/M05 A3023 RMK AO2,M
RNO,2022-06-22 16:55,-119.7711,39.4839,1341.00,74.00,30.00,19.73,0.00,0.00,0.00,30.19,1017.00,10.00,M,SCT,M,M,M,25000.00,M,M,M,M,M,M,M,M,M,M,73.90,KRNO 221655Z 00000KT 10SM SCT250 23/M01 A3019 RMK AO2 SLP170 T02331011,M
CXP,2022-06-22 16:55,-119.7326,39.1923,1431.00,73.40,24.80,16.20,0.00,0.00,0.00,30.22,M,10.00,M,CLR,M,M,M,M,M,M,M,M,M,M,M,M,M,M,73.40,KCXP 221655Z AUTO 00000KT 10SM CLR 23/M04 A3022 RMK AO2 LTG DSNT S,M
05U,2022-06-22 16:55,-116.0051,39.6042,1811.23,77.00,23.00,13.32,20.00,5.00,0.00,30.29,M,10.00,M,CLR,M,M,M,M,M,M,M,M,M,M,M,M,M,M,77.00,K05U 221655Z AUTO 02005KT 10SM CLR 25/M05 A3029 RMK A01,M
MEV,2022-06-22 16:55,-119.7500,38.9963,1441.42,69.80,30.20,22.86,M,3.00,0.00,30.21,M,10.00,M,CLR,M,M,M,M,M,M,M,M,M,M,M,M,M,M,69.80,KMEV 221655Z AUTO VRB03KT 10SM CLR 21/M01 A3021 RMK AO2 LTG DSNT S,M
BAM,2022-06-22 16:55,-116.8743,40.5990,1382.36,77.00,32.00,19.30,50.00,6.00,0.00,30.20,M,10.00,M,CLR,M,M,M,M,M,M,M,M,M,M,M,M,M,M,77.00,KBAM 221655Z AUTO 05006KT 10SM CLR 25/00 A3020 RMK AO1,M
BVU,2022-06-22 16:55,-114.8611,35.9475,671.00,91.40,42.80,18.56,210.00,10.00,0.00,30.04,M,10.00,16.00,CLR,M,M,M,M,M,M,M,M,M,M,M,M,M,M,87.52,KBVU 221655Z AUTO 21010G16KT 10SM CLR 33/06 A3004 RMK AO2 LTG DSNT SW AND W,M
HND,2022-06-22 16:56,-115.1344,35.9729,742.79,89.00,46.00,22.54,200.00,15.00,0.00,30.06,1016.30,10.00,M,CLR,M,M,M,M,M,M,M,M,M,M,M,M,M,M,85.76,KHND 221656Z 20015KT 10SM CLR 32/08 A3006 RMK AO2 SLP163 T03170078,M
WMC,2022-06-22 16:56,-117.8072,40.9019,1315.00,78.00,33.00,19.45,60.00,10.00,0.00,30.18,1017.90,10.00,M,CLR,M,M,M,M,M,M,M,M,M,M,M,M,M,M,78.10,KWMC 221656Z AUTO 06010KT 10SM CLR 26/01 A3018 RMK AO2 SLP179 T02560006,M
LAS,2022-06-22 16:56,-115.1634,36.0719,663.00,90.00,44.00,20.39,180.00,9.00,0.00,30.03,1013.80,10.00,M,SCT,OVC,M,M,12000.00,15000.00,M,M,M,M,M,M,M,M,M,86.38,KLAS 221656Z 18009KT 10SM SCT120 OVC150 32/07 A3003 RMK AO2 SLP138 VIRGA DSNT S T03220067,M
TPH,2022-06-22 16:56,-117.0904,38.0505,1654.00,74.00,9.00,8.04,190.00,11.00,0.00,30.25,1017.20,10.00,M,CLR,M,M,M,M,M,M,M,M,M,M,M,M,M,M,73.90,KTPH 221656Z AUTO 19011KT 10SM CLR 23/M13 A3025 RMK AO2 SLP172 T02331128,M
EKO,2022-06-22 16:56,-115.7860,40.8242,1367.00,76.00,27.00,16.32,M,M,0.00,30.23,1018.40,10.00,M,CLR,M,M,M,M,M,M,M,M,M,M,M,M,M,M,75.90,KEKO 221656Z AUTO 10SM CLR 24/M03 A3023 RMK AO2 SLP184 T02441028,M
NFL,2022-06-22 16:56,-118.7010,39.4166,1199.00,77.00,28.00,16.40,0.00,0.00,0.00,30.17,1018.00,10.00,M,FEW,BKN,M,M,18000.00,22000.00,M,M,M,M,M,M,M,M,M,77.00,KNFL 221656Z 00000KT 10SM FEW180 BKN220 25/M02 A3017 RMK AO2 SLP180 T02501022,M
LSV,2022-06-22 16:58,-115.0343,36.2362,570.00,91.20,43.20,18.97,160.00,6.00,0.00,29.99,M,10.00,M,FEW,FEW,M,M,13000.00,20000.00,M,M,M,M,M,M,M,M,M,87.37,KLSV 221658Z AUTO 16006KT 10SM FEW130 FEW200 33/06 A2999 RMK AO2 SLPNO T03290062 $,M
INS,2022-06-22 16:58,-115.6733,36.5872,955.00,78.30,9.10,6.98,270.00,6.00,0.00,30.10,1014.50,10.00,M,OVC,M,M,M,11000.00,M,M,M,M,M,M,M,M,M,M,78.30,KINS 221658Z AUTO 27006KT 10SM OVC110 26/M13 A3010 RMK AO2 SLP145 T02571127 $,M
TMT,2022-06-22 17:15,-117.1971,39.4643,1749.34,73.40,23.70,15.47,320.00,4.00,0.00,30.25,M,10.00,M,CLR,M,M,M,M,M,M,M,M,M,M,M,M,M,M,73.40,KTMT 221715Z AUTO 32004KT 10SM CLR 23/M05 A3025 RMK AO2 T02301046,M
BAM,2022-06-22 17:15,-116.8743,40.5990,1382.36,78.80,32.00,18.18,10.00,8.00,0.00,30.20,M,10.00,M,CLR,M,M,M,M,M,M,M,M,M,M,M,M,M,M,78.80,KBAM 221715Z AUTO 01008KT 350V050 10SM CLR 26/00 A3020 RMK AO1,M
05U,2022-06-22 17:15,-116.0051,39.6042,1811.23,78.80,21.20,11.64,M,5.00,0.00,30.28,M,10.00,M,CLR,M,M,M,M,M,M,M,M,M,M,M,M,M,M,78.80,K05U 221715Z AUTO VRB05KT 10SM CLR 26/M06 A3028 RMK A01,M
MEV,2022-06-22 17:15,-119.7500,38.9963,1441.42,71.60,30.20,21.50,0.00,0.00,0.00,30.21,M,10.00,M,CLR,M,M,M,M,M,M,M,M,M,M,M,M,M,M,71.60,KMEV 221715Z AUTO 00000KT 10SM CLR 22/M01 A3021 RMK AO2,M
RTS,2022-06-22 17:15,-119.8764,39.6682,1539.00,75.20,19.40,12.14,160.00,4.00,0.00,30.23,M,10.00,M,CLR,M,M,M,M,M,M,M,M,M,M,M,M,M,M,75.20,KRTS 221715Z AUTO 16004KT 10SM CLR 24/M07 A3023 RMK AO2,M
BVU,2022-06-22 17:15,-114.8611,35.9475,671.00,91.40,44.60,19.89,200.00,11.00,0.00,30.04,M,10.00,17.00,CLR,M,M,M,M,M,M,M,M,M,M,M,M,M,M,87.68,KBVU 221715Z AUTO 20011G17KT 10SM CLR 33/07 A3004 RMK AO2,M
CXP,2022-06-22 17:15,-119.7326,39.1923,1431.00,75.20,26.60,16.43,0.00,0.00,0.00,30.21,M,10.00,M,CLR,M,M,M,M,M,M,M,M,M,M,M,M,M,M,75.20,KCXP 221715Z AUTO 00000KT 10SM CLR 24/M03 A3021 RMK AO2,M
HTH,2022-06-22 17:15,-118.6315,38.5448,1282.89,75.20,21.20,13.11,0.00,0.00,0.00,30.20,M,10.00,M,CLR,M,M,M,M,M,M,M,M,M,M,M,M,M,M,75.20,KHTH 221715Z AUTO 00000KT 10SM CLR 24/M06 A3020 RMK A01,M
05U,2022-06-22 17:30,-116.0051,39.6042,1811.23,80.60,21.20,10.97,320.00,7.00,0.00,30.27,M,10.00,M,CLR,M,M,M,M,M,M,M,M,M,M,M,M,M,M,78.68,K05U 221730Z AUTO 32007KT 10SM CLR 27/M06 A3027 RMK A01,M
MEV,2022-06-22 17:35,-119.7500,38.9963,1441.42,75.20,28.40,17.70,0.00,0.00,0.00,30.20,M,10.00,M,CLR,M,M,M,M,M,M,M,M,M,M,M,M,M,M,75.20,KMEV 221735Z AUTO 00000KT 10SM CLR 24/M02 A3020 RMK AO2,M
BVU,2022-06-22 17:35,-114.8611,35.9475,671.00,91.40,41.00,17.32,250.00,4.00,0.00,30.04,M,10.00,17.00,CLR,M,M,M,M,M,M,M,M,M,M,M,M,M,M,87.40,KBVU 221735Z AUTO 25004G17KT 10SM CLR 33/05 A3004 RMK AO2,M
CXP,2022-06-22 17:35,-119.7326,39.1923,1431.00,77.00,24.80,14.37,0.00,0.00,0.00,30.21,M,10.00,M,CLR,M,M,M,M,M,M,M,M,M,M,M,M,M,M,77.00,KCXP 221735Z AUTO 00000KT 10SM CLR 25/M04 A3021 RMK AO2,M
RTS,2022-06-22 17:35,-119.8764,39.6682,1539.00,75.20,24.80,15.25,M,5.00,0.00,30.22,M,10.00,M,CLR,M,M,M,M,M,M,M,M,M,M,M,M,M,M,75.20,KRTS 221735Z AUTO VRB05KT 10SM CLR 24/M04 A3022 RMK AO2,M
BAM,2022-06-22 17:35,-116.8743,40.5990,1382.36,80.60,30.20,15.94,30.00,5.00,0.00,30.19,M,10.00,M,CLR,M,M,M,M,M,M,M,M,M,M,M,M,M,M,78.77,KBAM 221735Z AUTO 03005KT 10SM CLR 27/M01 A3019 RMK AO1,M
HTH,2022-06-22 17:35,-118.6315,38.5448,1282.89,75.20,21.20,13.11,0.00,0.00,0.00,30.19,M,10.00,M,CLR,M,M,M,M,M,M,M,M,M,M,M,M,M,M,75.20,KHTH 221735Z AUTO 00000KT 10SM CLR 24/M06 A3019 RMK A01,M
TMT,2022-06-22 17:35,-117.1971,39.4643,1749.34,75.00,20.80,12.98,0.00,0.00,0.00,30.25,M,10.00,M,CLR,M,M,M,M,M,M,M,M,M,M,M,M,M,M,75.00,KTMT 221735Z AUTO 00000KT 10SM CLR 24/M06 A3025 RMK AO2 T02391062,M
VGT,2022-06-22 17:53,-115.1933,36.2111,667.00,92.00,44.00,19.21,190.00,11.00,0.00,30.02,1015.40,10.00,M,BKN,M,M,M,10000.00,M,M,M,M,M,M,M,M,M,M,88.09,KVGT 221753Z 19011KT 10SM BKN100 33/07 A3002 RMK AO2 SLP154 T03330067 10339 20311 53006,M
LOL,2022-06-22 17:53,-118.5701,40.0684,1192.43,80.00,30.90,16.67,M,3.00,0.00,30.14,1017.20,10.00,M,CLR,M,M,M,M,M,M,M,M,M,M,M,M,M,M,78.59,KLOL 221753Z AUTO VRB03KT 10SM CLR 27/M01 A3014 RMK AO2 SLP172 T02671006 10272 20139 58008,M
DRA,2022-06-22 17:53,-116.0278,36.6206,1009.00,77.00,50.00,38.74,210.00,3.00,T,30.12,1015.60,10.00,M,OVC,M,M,M,10000.00,M,M,M,M,M,M,M,M,M,M,77.00,KDRA 221753Z AUTO 21003KT 10SM OVC100 25/10 A3012 RMK AO2 RAE37 SLP156 P0000 60000 T02500100 10256 20200 53005,M
ELY,2022-06-22 17:53,-114.8453,39.2950,1909.00,74.00,19.90,12.96,310.00,3.00,0.00,30.29,1016.00,10.00,M,CLR,M,M,M,M,M,M,M,M,M,M,M,M,M,M,73.90,KELY 221753Z AUTO 31003KT 10SM CLR 23/M07 A3029 RMK AO2 SLP160 T02331067 10239 20028 58014,M
P68,2022-06-22 17:53,-116.0056,39.6014,1993.00,82.00,19.00,9.54,340.00,9.00,0.00,30.23,1016.00,M,14.00,M,M,M,M,M,M,M,M,M,M,M,M,M,M,M,79.17,KP68 221753Z AUTO 34009G14KT 300V010 28/M07 A3023 RMK AO1 SLP160 T02781072 10278 20039 58013,M
05U,2022-06-22 17:55,-116.0051,39.6042,1811.23,84.20,15.80,7.74,10.00,7.00,0.00,30.27,M,10.00,13.00,CLR,M,M,M,M,M,M,M,M,M,M,M,M,M,M,80.51,K05U 221755Z AUTO 01007G13KT 10SM CLR 29/M09 A3027 RMK A01,M
RTS,2022-06-22 17:55,-119.8764,39.6682,1539.00,77.00,23.00,13.32,0.00,0.00,0.00,30.22,M,10.00,M,CLR,M,M,M,M,M,M,M,M,M,M,M,M,M,M,77.00,KRTS 221755Z AUTO 00000KT 10SM CLR 25/M05 A3022 RMK AO2,M
HTH,2022-06-22 17:55,-118.6315,38.5448,1282.89,77.00,21.20,12.35,M,4.00,0.00,30.19,M,10.00,M,CLR,M,M,M,M,M,M,M,M,M,M,M,M,M,M,77.00,KHTH 221755Z AUTO VRB04KT 10SM CLR 25/M06 A3019 RMK A01,M
RNO,2022-06-22 17:55,-119.7711,39.4839,1341.00,81.00,27.00,13.80,M,3.00,0.00,30.17,1015.90,10.00,M,FEW,BKN,M,M,9000.00,23000.00,M,M,M,M,M,M,M,M,M,78.96,KRNO 221755Z VRB03KT 10SM FEW090 BKN230 27/M03 A3017 RMK AO2 SLP159 T02721028 10272 20117 58014,M
BVU,2022-06-22 17:55,-114.8611,35.9475,671.00,91.40,39.20,16.15,150.00,8.00,0.00,30.04,M,10.00,17.00,CLR,M,M,M,M,M,M,M,M,M,M,M,M,M,M,87.30,KBVU 221755Z AUTO 15008G17KT 10SM CLR 33/04 A3004 RMK AO2 LTG DSNT SW AND W,M
CXP,2022-06-22 17:55,-119.7326,39.1923,1431.00,77.00,24.80,14.37,M,4.00,0.00,30.20,M,10.00,M,CLR,M,M,M,M,M,M,M,M,M,M,M,M,M,M,77.00,KCXP 221755Z AUTO VRB04KT 10SM CLR 25/M04 A3020 RMK AO2,M
BAM,2022-06-22 17:55,-116.8743,40.5990,1382.36,80.60,28.40,14.81,50.00,5.00,0.00,30.18,M,10.00,M,CLR,M,M,M,M,M,M,M,M,M,M,M,M,M,M,78.72,KBAM 221755Z AUTO 05005KT 10SM CLR 27/M02 A3018 RMK AO1,M
TMT,2022-06-22 17:55,-117.1971,39.4643,1749.34,77.00,18.70,11.10,0.00,0.00,0.00,30.24,M,10.00,M,CLR,M,M,M,M,M,M,M,M,M,M,M,M,M,M,77.00,KTMT 221755Z AUTO 00000KT 10SM CLR 25/M07 A3024 RMK AO2 T02501074 10250 21022,M
MEV,2022-06-22 17:55,-119.7500,38.9963,1441.42,77.00,30.20,17.94,M,3.00,0.00,30.20,M,10.00,M,CLR,M,M,M,M,M,M,M,M,M,M,M,M,M,M,77.00,KMEV 221755Z AUTO VRB03KT 10SM CLR 25/M01 A3020 RMK AO2,M
NFL,2022-06-22 17:56,-118.7010,39.4166,1199.00,78.00,28.00,15.81,0.00,0.00,0.00,30.15,1017.40,10.00,M,SCT,BKN,M,M,17000.00,22000.00,M,M,M,M,M,M,M,M,M,78.10,KNFL 221756Z 00000KT 10SM SCT170 BKN220 26/M02 A3015 RMK AO2 SLP174 T02561022 10261 20083 58008,M
WMC,2022-06-22 17:56,-117.8072,40.9019,1315.00,82.00,33.00,17.12,M,4.00,0.00,30.16,1016.10,10.00,M,CLR,M,M,M,M,M,M,M,M,M,M,M,M,M,M,79.75,KWMC 221756Z AUTO VRB04KT 10SM CLR 28/01 A3016 RMK AO2 SLP161 T02780006 10283 20106 58013,M
EKO,2022-06-22 17:56,-115.7860,40.8242,1367.00,81.00,25.00,12.70,M,4.00,0.00,30.21,1017.10,10.00,M,CLR,M,M,M,M,M,M,M,M,M,M,M,M,M,M,78.89,KEKO 221756Z AUTO VRB04KT 10SM CLR 27/M04 A3021 RMK AO2 SLP171 T02721039 10278 20072 58017,M
HND,2022-06-22 17:56,-115.1344,35.9729,742.79,90.00,46.00,21.91,200.00,17.00,0.00,30.07,1016.60,10.00,M,FEW,M,M,M,11000.00,M,M,M,M,M,M,M,M,M,M,86.55,KHND 221756Z 20017KT 10SM FEW110 32/08 A3007 RMK AO2 SLP166 T03220078 10322 20289 51005,M
TPH,2022-06-22 17:56,-117.0904,38.0505,1654.00,79.00,18.00,10.08,190.00,16.00,0.00,30.24,1016.80,10.00,21.00,CLR,M,M,M,M,M,M,M,M,M,M,M,M,M,M,79.00,KTPH 221756Z AUTO 19016G21KT 10SM CLR 26/M08 A3024 RMK AO2 SLP168 T02611078 10261 20122 50004,M
LAS,2022-06-22 17:56,-115.1634,36.0719,663.00,90.00,45.00,21.10,170.00,5.00,0.00,30.04,1014.10,10.00,M,FEW,BKN,OVC,M,9000.00,11000.00,15000.00,M,M,M,M,M,M,M,M,86.45,KLAS 221756Z 17005KT 10SM FEW090 BKN110 OVC150 32/07 A3004 RMK AO2 SLP141 VIRGA DSNT S T03220072 10333 20306 53006,M
LSV,2022-06-22 17:58,-115.0343,36.2362,570.00,96.00,44.00,16.97,170.00,8.00,0.00,30.00,M,10.00,M,FEW,SCT,M,M,14000.00,19000.00,M,M,M,M,M,M,M,M,M,91.86,KLSV 221758Z AUTO 17008KT 10SM FEW140 SCT190 36/07 A3000 RMK AO2 SLPNO T03550067 10355 20262 52006 $,M
INS,2022-06-22 17:58,-115.6733,36.5872,955.00,85.00,35.40,16.98,320.00,9.00,0.00,30.09,1014.20,10.00,M,BKN,BKN,OVC,M,10000.00,13000.00,18000.00,M,M,M,M,M,M,M,M,82.00,KINS 221758Z AUTO 32009KT 10SM BKN100 BKN130 OVC180 30/02 A3009 RMK AO2 SLP142 T02950019 10296 20189 50004 $,M
INS,2022-06-22 18:05,-115.6733,36.5872,955.00,84.20,37.40,18.91,250.00,10.00,0.00,30.10,1014.50,10.00,M,FEW,BKN,OVC,M,3600.00,10000.00,13000.00,M,-DZ,M,M,M,M,M,M,81.38,KINS 221805Z AUTO 25010KT 10SM -DZ FEW036 BKN100 OVC130 29/03 A3010 RMK AO2 DZB05 SLP145 $,M
BAM,2022-06-22 18:15,-116.8743,40.5990,1382.36,82.40,28.40,13.96,350.00,5.00,0.00,30.17,M,10.00,M,CLR,M,M,M,M,M,M,M,M,M,M,M,M,M,M,79.94,KBAM 221815Z AUTO 35005KT 10SM CLR 28/M02 A3017 RMK AO1,M
BVU,2022-06-22 18:15,-114.8611,35.9475,671.00,89.60,41.00,18.33,20.00,7.00,0.00,30.04,M,10.00,17.00,FEW,M,M,M,12000.00,M,M,M,M,M,M,M,M,M,M,85.82,KBVU 221815Z AUTO 02007G17KT 330V040 10SM FEW120 32/05 A3004 RMK AO2,M
CXP,2022-06-22 18:15,-119.7326,39.1923,1431.00,80.60,23.00,11.83,0.00,0.00,0.00,30.20,M,10.00,M,CLR,M,M,M,M,M,M,M,M,M,M,M,M,M,M,78.80,KCXP 221815Z AUTO 00000KT 10SM CLR 27/M05 A3020 RMK AO2,M
RTS,2022-06-22 18:15,-119.8764,39.6682,1539.00,78.80,21.20,11.64,70.00,3.00,0.00,30.21,M,10.00,M,CLR,M,M,M,M,M,M,M,M,M,M,M,M,M,M,78.80,KRTS 221815Z AUTO 07003KT 10SM CLR 26/M06 A3021 RMK AO2,M
05U,2022-06-22 18:15,-116.0051,39.6042,1811.23,84.20,17.60,8.37,100.00,7.00,0.00,30.26,M,10.00,13.00,CLR,M,M,M,M,M,M,M,M,M,M,M,M,M,M,80.59,K05U 221815Z AUTO 10007G13KT 10SM CLR 29/M08 A3026 RMK A01,M
MEV,2022-06-22 18:15,-119.7500,38.9963,1441.42,77.00,28.40,16.67,0.00,0.00,0.00,30.20,M,10.00,M,CLR,M,M,M,M,M,M,M,M,M,M,M,M,M,M,77.00,KMEV 221815Z AUTO 00000KT 10SM CLR 25/M02 A3020 RMK AO2,M
HTH,2022-06-22 18:15,-118.6315,38.5448,1282.89,77.00,21.20,12.35,M,4.00,0.00,30.18,M,10.00,M,CLR,M,M,M,M,M,M,M,M,M,M,M,M,M,M,77.00,KHTH 221815Z AUTO VRB04KT 10SM CLR 25/M06 A3018 RMK A01,M
TMT,2022-06-22 18:15,-117.1971,39.4643,1749.34,79.30,19.80,10.78,0.00,0.00,0.00,30.23,M,10.00,M,CLR,M,M,M,M,M,M,M,M,M,M,M,M,M,M,79.30,KTMT 221815Z AUTO 00000KT 10SM CLR 26/M07 A3023 RMK AO2 T02631068,M
INS,2022-06-22 18:21,-115.6733,36.5872,955.00,82.40,42.80,24.72,260.00,17.00,0.00,30.09,1014.20,10.00,M,FEW,FEW,SCT,BKN,3600.00,6000.00,8000.00,11000.00,M,M,M,M,M,M,M,80.39,KINS 221821Z AUTO 26017KT 10SM FEW036 FEW060 SCT080 BKN110 28/06 A3009 RMK AO2 DZB05E07RAB07E21 SLP142 $,M
CXP,2022-06-22 18:35,-119.7326,39.1923,1431.00,80.60,24.80,12.76,0.00,0.00,0.00,30.19,M,10.00,M,CLR,M,M,M,M,M,M,M,M,M,M,M,M,M,M,78.94,KCXP 221835Z AUTO 00000KT 10SM CLR 27/M04 A3019 RMK AO2,M
HTH,2022-06-22 18:35,-118.6315,38.5448,1282.89,78.80,21.20,11.64,M,3.00,0.00,30.17,M,10.00,M,CLR,M,M,M,M,M,M,M,M,M,M,M,M,M,M,78.80,KHTH 221835Z AUTO VRB03KT 10SM CLR 26/M06 A3017 RMK A01,M
TMT,2022-06-22 18:35,-117.1971,39.4643,1749.34,81.70,19.60,9.89,320.00,8.00,0.00,30.22,M,10.00,M,CLR,M,M,M,M,M,M,M,M,M,M,M,M,M,M,79.00,KTMT 221835Z AUTO 32008KT 10SM CLR 28/M07 A3022 RMK AO2 T02761069,M
MEV,2022-06-22 18:35,-119.7500,38.9963,1441.42,77.00,26.60,15.48,M,3.00,0.00,30.19,M,10.00,M,CLR,M,M,M,M,M,M,M,M,M,M,M,M,M,M,77.00,KMEV 221835Z AUTO VRB03KT 10SM CLR 25/M03 A3019 RMK AO2,M
05U,2022-06-22 18:35,-116.0051,39.6042,1811.23,84.20,12.20,6.61,140.00,7.00,0.00,30.25,M,10.00,M,CLR,M,M,M,M,M,M,M,M,M,M,M,M,M,M,80.37,K05U 221835Z AUTO 14007KT 10SM CLR 29/M11 A3025 RMK A01,M
RTS,2022-06-22 18:35,-119.8764,39.6682,1539.00,78.80,21.20,11.64,M,4.00,0.00,30.21,M,10.00,12.00,CLR,M,M,M,M,M,M,M,-DZ,M,M,M,M,M,M,78.80,KRTS 221835Z AUTO VRB04G12KT 10SM -DZ CLR 26/M06 A3021 RMK AO2,M
BAM,2022-06-22 18:35,-116.8743,40.5990,1382.36,84.20,28.40,13.18,0.00,0.00,0.00,30.16,M,10.00,M,CLR,M,M,M,M,M,M,M,M,M,M,M,M,M,M,81.25,KBAM 221835Z AUTO 00000KT 10SM CLR 29/M02 A3016 RMK AO1,M
BVU,2022-06-22 18:35,-114.8611,35.9475,671.00,91.40,41.00,17.32,360.00,8.00,0.00,30.03,M,10.00,M,FEW,M,M,M,11000.00,M,M,M,M,M,M,M,M,M,M,87.40,KBVU 221835Z AUTO 36008KT 10SM FEW110 33/05 A3003 RMK AO2,M
ELY,2022-06-22 18:53,-114.8453,39.2950,1909.00,80.00,12.90,7.79,M,M,0.00,30.26,1014.70,10.00,M,CLR,M,M,M,M,M,M,M,M,M,M,M,M,M,M,77.72,KELY 221853Z AUTO 10SM CLR 27/M11 A3026 RMK AO2 SLP147 T02671106,M
DRA,2022-06-22 18:53,-116.0278,36.6206,1009.00,81.00,48.00,31.52,240.00,10.00,0.00,30.15,1016.20,10.00,M,FEW,BKN,OVC,M,7000.00,9500.00,11000.00,M,M,M,M,M,M,M,M,79.92,KDRA 221853Z AUTO 24010KT 10SM FEW070 BKN095 OVC110 27/09 A3015 RMK AO2 SLP162 T02720089,M
VGT,2022-06-22 18:53,-115.1933,36.2111,667.00,90.00,47.00,22.67,240.00,7.00,T,30.04,1016.20,10.00,M,SCT,OVC,M,M,9000.00,11000.00,M,M,M,M,M,M,M,M,M,86.65,KVGT 221853Z 24007KT 10SM SCT090 OVC110 32/08 A3004 RMK AO2 RAB26E42 SLP162 P0000 T03220083,M
LOL,2022-06-22 18:53,-118.5701,40.0684,1192.43,84.00,28.00,13.04,M,3.00,0.00,30.12,1016.60,10.00,M,CLR,M,M,M,M,M,M,M,M,M,M,M,M,M,M,81.10,KLOL 221853Z AUTO VRB03KT 10SM CLR 29/M02 A3012 RMK AO2 SLP166 T02891022,M
P68,2022-06-22 18:53,-116.0056,39.6014,1993.00,80.00,15.10,8.58,130.00,9.00,0.00,30.22,1016.00,M,M,M,M,M,M,M,M,M,M,M,M,M,M,M,M,M,77.82,KP68 221853Z AUTO 13009KT 27/M09 A3022 RMK AO1 SLP160 T02671094,M
HTH,2022-06-22 18:55,-118.6315,38.5448,1282.89,78.80,19.40,10.78,360.00,7.00,0.00,30.16,M,10.00,M,CLR,M,M,M,M,M,M,M,M,M,M,M,M,M,M,78.80,KHTH 221855Z AUTO 36007KT 10SM CLR 26/M07 A3016 RMK A01,M
BAM,2022-06-22 18:55,-116.8743,40.5990,1382.36,86.00,26.60,11.55,0.00,0.00,0.00,30.16,M,10.00,M,CLR,M,M,M,M,M,M,M,M,M,M,M,M,M,M,82.39,KBAM 221855Z AUTO 00000KT 10SM CLR 30/M03 A3016 RMK AO1,M
TMT,2022-06-22 18:55,-117.1971,39.4643,1749.34,81.00,18.30,9.54,280.00,7.00,0.00,30.22,M,10.00,M,CLR,M,M,M,M,M,M,M,M,M,M,M,M,M,M,78.54,KTMT 221855Z AUTO 28007KT 10SM CLR 27/M08 A3022 RMK AO2 T02731076,M
MEV,2022-06-22 18:55,-119.7500,38.9963,1441.42,77.00,24.80,14.37,270.00,4.00,0.00,30.18,M,10.00,M,CLR,M,M,M,M,M,M,M,M,M,M,M,M,M,M,77.00,KMEV 221855Z AUTO 27004KT 10SM CLR 25/M04 A3018 RMK AO2,M
05U,2022-06-22 18:55,-116.0051,39.6042,1811.23,82.40,12.20,7.01,160.00,9.00,0.00,30.25,M,10.00,M,CLR,M,M,M,M,M,M,M,M,M,M,M,M,M,M,79.13,K05U 221855Z AUTO 16009KT 10SM CLR 28/M11 A3025 RMK A01,M
RTS,2022-06-22 18:55,-119.8764,39.6682,1539.00,80.60,19.40,10.16,90.00,7.00,0.00,30.20,M,10.00,M,CLR,M,M,M,M,M,M,M,-DZ,M,M,M,M,M,M,78.56,KRTS 221855Z AUTO 09007KT 060V120 10SM -DZ CLR 27/M07 A3020 RMK AO2,M
BVU,2022-06-22 18:55,-114.8611,35.9475,671.00,89.60,41.00,18.33,150.00,7.00,0.00,30.04,M,10.00,M,FEW,M,M,M,11000.00,M,M,M,M,M,M,M,M,M,M,85.82,KBVU 221855Z AUTO 15007KT 10SM FEW110 32/05 A3004 RMK AO2,M
CXP,2022-06-22 18:55,-119.7326,39.1923,1431.00,82.40,23.00,11.16,0.00,0.00,0.00,30.18,M,10.00,M,CLR,M,M,M,M,M,M,M,M,M,M,M,M,M,M,79.67,KCXP 221855Z AUTO 00000KT 10SM CLR 28/M05 A3018 RMK AO2,M
RNO,2022-06-22 18:55,-119.7711,39.4839,1341.00,86.00,28.00,12.23,M,4.00,0.00,30.15,1015.20,10.00,M,FEW,BKN,M,M,9000.00,23000.00,M,M,M,M,M,M,M,M,M,82.50,KRNO 221855Z VRB04KT 10SM FEW090 BKN230 30/M02 A3015 RMK AO2 SLP152 T03001022,M
LAS,2022-06-22 18:56,-115.1634,36.0719,663.00,89.00,44.00,20.97,0.00,0.00,T,30.04,1014.40,10.00,M,FEW,BKN,M,M,8000.00,11000.00,M,M,-RA,M,M,M,M,M,M,85.59,KLAS 221856Z 00000KT 10SM -RA FEW080 BKN110 32/07 A3004 RMK AO2 RAB54 SLP144 P0000 T03170067,M
WMC,2022-06-22 18:56,-117.8072,40.9019,1315.00,85.00,30.90,14.26,0.00,0.00,0.00,30.14,1015.50,10.00,M,CLR,M,M,M,M,M,M,M,M,M,M,M,M,M,M,81.79,KWMC 221856Z AUTO 00000KT 10SM CLR 29/M01 A3014 RMK AO2 SLP155 T02941006,M
NFL,2022-06-22 18:56,-118.7010,39.4166,1199.00,82.00,26.10,12.87,0.00,0.00,0.00,30.13,1016.80,10.00,M,FEW,SCT,SCT,M,7000.00,17000.00,22000.00,M,M,M,M,M,M,M,M,79.62,KNFL 221856Z 00000KT 10SM FEW070 SCT170 SCT220 28/M03 A3013 RMK AO2 SLP168 T02781033,M
HND,2022-06-22 18:56,-115.1344,35.9729,742.79,88.00,45.00,22.47,0.00,0.00,0.00,30.07,1016.90,10.00,M,BKN,M,M,M,11000.00,M,M,M,M,M,M,M,M,M,M,84.72,KHND 221856Z 00000KT 10SM BKN110 31/07 A3007 RMK AO2 SLP169 T03110072,M
TPH,2022-06-22 18:56,-117.0904,38.0505,1654.00,77.00,12.00,8.29,200.00,18.00,0.00,30.25,1018.00,10.00,M,FEW,M,M,M,12000.00,M,M,M,M,M,M,M,28.00,200.00,2022-06-22 18:46,77.00,KTPH 221856Z AUTO 20018KT 10SM FEW120 25/M11 A3025 RMK AO2 PK WND 20028/1846 SLP180 T02501111,M
EKO,2022-06-22 18:56,-115.7860,40.8242,1367.00,84.00,25.00,11.52,0.00,0.00,0.00,30.18,1016.10,10.00,M,CLR,M,M,M,M,M,M,M,M,M,M,M,M,M,M,80.88,KEKO 221856Z AUTO 00000KT 10SM CLR 29/M04 A3018 RMK AO2 SLP161 T02891039,M
INS,2022-06-22 18:58,-115.6733,36.5872,955.00,84.00,43.30,23.93,270.00,22.00,T,30.09,1014.40,10.00,M,BKN,OVC,M,M,11000.00,13000.00,M,M,M,M,M,M,26.00,260.00,2022-06-22 18:53,81.50,KINS 221858Z AUTO 27022KT 10SM BKN110 OVC130 29/06 A3009 RMK AO2 PK WND 26026/53 DZB05E07RAB07E21 SLP144 P0000 T02890063 $,M
LSV,2022-06-22 18:58,-115.0343,36.2362,570.00,94.30,44.20,17.90,260.00,11.00,0.00,30.00,M,10.00,27.00,SCT,M,M,M,11000.00,M,M,M,M,M,M,M,27.00,220.00,2022-06-22 18:51,90.34,KLSV 221858Z AUTO 26011G27KT 10SM SCT110 35/07 A3000 RMK AO2 PK WND 22027/51 SLPNO T03460068 $,M
BVU,2022-06-22 19:15,-114.8611,35.9475,671.00,91.40,37.40,15.05,150.00,6.00,0.00,30.04,M,10.00,M,FEW,M,M,M,12000.00,M,M,M,M,M,M,M,M,M,M,87.23,KBVU 221915Z AUTO 15006KT 10SM FEW120 33/03 A3004 RMK AO2 LTG DSNT SW,M
HTH,2022-06-22 19:15,-118.6315,38.5448,1282.89,80.60,19.40,10.16,0.00,0.00,0.00,30.16,M,10.00,M,CLR,M,M,M,M,M,M,M,M,M,M,M,M,M,M,78.56,KHTH 221915Z AUTO 00000KT 10SM CLR 27/M07 A3016 RMK A01,M
BAM,2022-06-22 19:15,-116.8743,40.5990,1382.36,87.80,28.40,11.74,30.00,3.00,0.00,30.15,M,10.00,M,CLR,M,M,M,M,M,M,M,M,M,M,M,M,M,M,83.84,KBAM 221915Z AUTO 03003KT 10SM CLR 31/M02 A3015 RMK AO1,M
TMT,2022-06-22 19:15,-117.1971,39.4643,1749.34,81.30,18.70,9.64,270.00,3.00,0.00,30.21,M,10.00,M,M,M,M,M,M,M,M,M,M,M,M,M,M,M,M,78.69,KTMT 221915Z AUTO 27003KT 10SM 27/M07 A3021 RMK AO2 LTG DSNT S T02741074,M
MEV,2022-06-22 19:15,-119.7500,38.9963,1441.42,78.80,23.00,12.55,M,5.00,0.00,30.18,M,10.00,M,CLR,M,M,M,M,M,M,M,M,M,M,M,M,M,M,78.80,KMEV 221915Z AUTO VRB05KT 10SM CLR 26/M05 A3018 RMK AO2,M
05U,2022-06-22 19:15,-116.0051,39.6042,1811.23,86.00,14.00,6.75,150.00,10.00,0.00,30.24,M,10.00,16.00,CLR,M,M,M,M,M,M,M,M,M,M,M,M,M,M,81.71,K05U 221915Z AUTO 15010G16KT 10SM CLR 30/M10 A3024 RMK A01,M
RTS,2022-06-22 19:15,-119.8764,39.6682,1539.00,80.60,19.40,10.16,0.00,0.00,0.00,30.20,M,10.00,M,CLR,M,M,M,M,M,M,M,M,M,M,M,M,M,M,78.56,KRTS 221915Z AUTO 00000KT 10SM CLR 27/M07 A3020 RMK AO2,M
CXP,2022-06-22 19:15,-119.7326,39.1923,1431.00,80.60,21.20,10.97,0.00,0.00,0.00,30.18,M,10.00,M,CLR,M,M,M,M,M,M,M,M,M,M,M,M,M,M,78.68,KCXP 221915Z AUTO 00000KT 10SM CLR 27/M06 A3018 RMK AO2,M
HTH,2022-06-22 19:35,-118.6315,38.5448,1282.89,82.40,19.40,9.58,0.00,0.00,0.00,30.15,M,10.00,M,CLR,M,M,M,M,M,M,M,M,M,M,M,M,M,M,79.45,KHTH 221935Z AUTO 00000KT 10SM CLR 28/M07 A3015 RMK A01,M
MEV,2022-06-22 19:35,-119.7500,38.9963,1441.42,80.60,23.00,11.83,0.00,0.00,0.00,30.17,M,10.00,M,CLR,M,M,M,M,M,M,M,M,M,M,M,M,M,M,78.80,KMEV 221935Z AUTO 00000KT 10SM CLR 27/M05 A3017 RMK AO2,M
BVU,2022-06-22 19:35,-114.8611,35.9475,671.00,89.60,39.20,17.09,M,4.00,0.00,30.03,M,10.00,11.00,FEW,SCT,BKN,M,3800.00,7500.00,12000.00,M,M,M,M,M,M,M,M,85.73,KBVU 221935Z AUTO VRB04G11KT 10SM FEW038 SCT075 BKN120 32/04 A3003 RMK AO2,M
CXP,2022-06-22 19:35,-119.7326,39.1923,1431.00,82.40,23.00,11.16,M,4.00,0.00,30.17,M,10.00,M,CLR,M,M,M,M,M,M,M,M,M,M,M,M,M,M,79.67,KCXP 221935Z AUTO VRB04KT 10SM CLR 28/M05 A3017 RMK AO2,M
RTS,2022-06-22 19:35,-119.8764,39.6682,1539.00,82.40,17.60,8.87,110.00,5.00,0.00,30.19,M,10.00,12.00,CLR,M,M,M,M,M,M,M,M,M,M,M,M,M,M,79.36,KRTS 221935Z AUTO 11005G12KT 10SM CLR 28/M08 A3019 RMK AO2,M
05U,2022-06-22 19:35,-116.0051,39.6042,1811.23,84.20,14.00,7.16,90.00,9.00,0.00,30.24,M,10.00,15.00,CLR,M,M,M,M,M,M,M,M,M,M,M,M,M,M,80.44,K05U 221935Z AUTO 09009G15KT 070V130 10SM CLR 29/M10 A3024 RMK A01,M
BAM,2022-06-22 19:35,-116.8743,40.5990,1382.36,87.80,26.60,10.91,290.00,4.00,0.00,30.14,M,10.00,M,CLR,M,M,M,M,M,M,M,M,M,M,M,M,M,M,83.69,KBAM 221935Z AUTO 29004KT 10SM CLR 31/M03 A3014 RMK AO1,M
TMT,2022-06-22 19:35,-117.1971,39.4643,1749.34,81.70,19.40,9.80,270.00,4.00,0.00,30.21,M,10.00,M,CLR,M,M,M,M,M,M,M,M,M,M,M,M,M,M,78.99,KTMT 221935Z AUTO 27004KT 10SM CLR 28/M07 A3021 RMK AO2 LTG DSNT S T02761070,M
LOL,2022-06-22 19:53,-118.5701,40.0684,1192.43,89.00,26.10,10.25,110.00,6.00,0.00,30.09,1014.70,10.00,M,CLR,M,M,M,M,M,M,M,M,M,M,M,M,M,M,84.60,KLOL 221953Z AUTO 11006KT 10SM CLR 32/M03 A3009 RMK AO2 SLP147 T03171033,M
ELY,2022-06-22 19:53,-114.8453,39.2950,1909.00,81.00,17.10,9.08,160.00,9.00,0.00,30.24,1014.10,10.00,15.00,CLR,M,M,M,M,M,M,M,M,M,M,M,M,M,M,78.42,KELY 221953Z AUTO 16009G15KT 10SM CLR 27/M08 A3024 RMK AO2 SLP141 T02721083,M
P68,2022-06-22 19:53,-116.0056,39.6014,1993.00,81.00,12.90,7.56,M,5.00,0.00,30.20,1015.80,M,16.00,M,M,M,M,M,M,M,M,M,M,M,M,M,M,M,78.23,KP68 221953Z AUTO VRB05G16KT 27/M11 A3020 RMK AO1 SLP158 T02721106,M
DRA,2022-06-22 19:53,-116.0278,36.6206,1009.00,79.00,47.00,32.29,280.00,6.00,0.00,30.12,1015.50,10.00,M,BKN,M,M,M,11000.00,M,M,M,M,M,M,M,M,M,M,79.00,KDRA 221953Z AUTO 28006KT 10SM BKN110 26/08 A3012 RMK AO2 SLP155 T02610083,M
VGT,2022-06-22 19:53,-115.1933,36.2111,667.00,90.00,45.00,21.10,360.00,11.00,0.00,30.03,1015.80,10.00,M,OVC,M,M,M,11000.00,M,M,M,M,M,M,M,M,M,M,86.45,KVGT 221953Z 36011KT 10SM OVC110 32/07 A3003 RMK AO2 SLP158 T03220072,M
05U,2022-06-22 19:55,-116.0051,39.6042,1811.23,84.20,12.20,6.61,140.00,9.00,0.00,30.23,M,10.00,15.00,CLR,M,M,M,M,M,M,M,M,M,M,M,M,M,M,80.37,K05U 221955Z AUTO 14009G15KT 110V170 10SM CLR 29/M11 A3023 RMK A01,M
HTH,2022-06-22 19:55,-118.6315,38.5448,1282.89,82.40,19.40,9.58,0.00,0.00,0.00,30.14,M,10.00,M,CLR,M,M,M,M,M,M,M,M,M,M,M,M,M,M,79.45,KHTH 221955Z AUTO 00000KT 10SM CLR 28/M07 A3014 RMK A01,M
BAM,2022-06-22 19:55,-116.8743,40.5990,1382.36,89.60,24.80,9.56,330.00,4.00,0.00,30.13,M,10.00,M,CLR,M,M,M,M,M,M,M,M,M,M,M,M,M,M,84.88,KBAM 221955Z AUTO 33004KT 10SM CLR 32/M04 A3013 RMK AO1,M
TMT,2022-06-22 19:55,-117.1971,39.4643,1749.34,81.30,18.50,9.55,70.00,4.00,0.00,30.20,M,10.00,M,CLR,M,M,M,M,M,M,M,M,M,M,M,M,M,M,78.68,KTMT 221955Z AUTO 07004KT 10SM CLR 27/M07 A3020 RMK AO2 LTG DSNT S T02741075,M
MEV,2022-06-22 19:55,-119.7500,38.9963,1441.42,82.40,24.80,12.03,220.00,5.00,0.00,30.17,M,10.00,10.00,CLR,M,M,M,M,M,M,M,M,M,M,M,M,M,M,79.79,KMEV 221955Z AUTO 22005G10KT 10SM CLR 28/M04 A3017 RMK AO2,M
CXP,2022-06-22 19:55,-119.7326,39.1923,1431.00,84.20,21.20,9.76,0.00,0.00,0.00,30.17,M,10.00,M,CLR,M,M,M,M,M,M,M,M,M,M,M,M,M,M,80.77,KCXP 221955Z AUTO 00000KT 10SM CLR 29/M06 A3017 RMK AO2,M
RTS,2022-06-22 19:55,-119.8764,39.6682,1539.00,82.40,19.40,9.58,0.00,0.00,0.00,30.18,M,10.00,M,CLR,M,M,M,M,M,M,M,M,M,M,M,M,M,M,79.45,KRTS 221955Z AUTO 00000KT 10SM CLR 28/M07 A3018 RMK AO2,M
BVU,2022-06-22 19:55,-114.8611,35.9475,671.00,89.60,39.20,17.09,0.00,0.00,0.00,30.02,M,10.00,M,FEW,FEW,SCT,M,5500.00,7000.00,9000.00,M,M,M,M,M,M,M,M,85.73,KBVU 221955Z AUTO 00000KT 10SM FEW055 FEW070 SCT090 32/04 A3002 RMK AO2,M
RNO,2022-06-22 19:55,-119.7711,39.4839,1341.00,87.00,26.10,10.92,0.00,0.00,0.00,30.13,1014.50,10.00,M,FEW,BKN,M,M,10000.00,23000.00,M,M,M,M,M,M,M,M,M,83.14,KRNO 221955Z 00000KT 10SM FEW100 BKN230 31/M03 A3013 RMK AO2 SLP145 T03061033,M
LAS,2022-06-22 19:56,-115.1634,36.0719,663.00,90.00,45.00,21.10,350.00,8.00,T,30.03,1014.10,10.00,M,FEW,BKN,BKN,M,8000.00,11000.00,15000.00,M,M,M,M,M,M,M,M,86.45,KLAS 221956Z 35008KT 10SM FEW080 BKN110 BKN150 32/07 A3003 RMK AO2 RAE05 SLP141 P0000 T03220072,M
EKO,2022-06-22 19:56,-115.7860,40.8242,1367.00,86.00,19.90,8.72,0.00,0.00,0.00,30.16,1015.10,10.00,M,CLR,M,M,M,M,M,M,M,M,M,M,M,M,M,M,81.97,KEKO 221956Z AUTO 00000KT 10SM CLR 30/M07 A3016 RMK AO2 SLP151 T03001067,M
WMC,2022-06-22 19:56,-117.8072,40.9019,1315.00,88.00,28.90,11.91,50.00,7.00,0.00,30.12,1014.40,10.00,M,CLR,M,M,M,M,M,M,M,M,M,M,M,M,M,M,84.03,KWMC 221956Z AUTO 05007KT 10SM CLR 31/M02 A3012 RMK AO2 SLP144 T03111017,M
NFL,2022-06-22 19:56,-118.7010,39.4166,1199.00,86.00,27.00,11.74,M,3.00,0.00,30.11,1016.10,10.00,M,FEW,SCT,BKN,M,8000.00,17000.00,22000.00,M,M,M,M,M,M,M,M,82.42,KNFL 221956Z VRB03KT 10SM FEW080 SCT170 BKN220 30/M03 A3011 RMK AO2 SLP161 T03001028,M
TPH,2022-06-22 19:56,-117.0904,38.0505,1654.00,75.00,28.00,17.53,200.00,21.00,0.00,30.27,1018.90,10.00,33.00,CLR,M,M,M,M,M,M,M,M,M,M,M,33.00,200.00,2022-06-22 19:50,75.00,KTPH 221956Z AUTO 20021G33KT 10SM CLR 24/M02 A3027 RMK AO2 PK WND 20033/1950 SLP189 T02391022,M
HND,2022-06-22 19:56,-115.1344,35.9729,742.79,91.00,44.00,19.76,70.00,7.00,0.00,30.06,1016.40,10.00,M,CLR,M,M,M,M,M,M,M,M,M,M,M,M,M,M,87.27,KHND 221956Z 07007KT 10SM CLR 33/07 A3006 RMK AO2 SLP164 T03280067,M
LSV,2022-06-22 19:58,-115.0343,36.2362,570.00,93.40,42.00,16.98,230.00,5.00,0.00,30.00,M,10.00,M,BKN,M,M,M,12000.00,M,M,M,M,M,M,M,M,M,M,89.30,KLSV 221958Z AUTO 23005KT 10SM BKN120 34/06 A3000 RMK AO2 SLPNO T03410056 $,M
INS,2022-06-22 19:58,-115.6733,36.5872,955.00,82.80,44.40,25.95,300.00,9.00,0.00,30.10,1014.90,10.00,M,BKN,OVC,M,M,11000.00,15000.00,M,M,M,M,M,M,M,M,M,80.75,KINS 221958Z AUTO 30009KT 10SM BKN110 OVC150 28/07 A3010 RMK AO2 SLP149 T02820069 $,M
05U,2022-06-22 20:15,-116.0051,39.6042,1811.23,86.00,14.00,6.75,170.00,5.00,0.00,30.23,M,10.00,13.00,CLR,M,M,M,M,M,M,M,M,M,M,M,M,M,M,81.71,K05U 222015Z AUTO 17005G13KT 10SM CLR 30/M10 A3023 RMK A01,M
HTH,2022-06-22 20:15,-118.6315,38.5448,1282.89,84.20,19.40,9.04,0.00,0.00,0.00,30.14,M,10.00,M,CLR,M,M,M,M,M,M,M,M,M,M,M,M,M,M,80.68,KHTH 222015Z AUTO 00000KT 10SM CLR 29/M07 A3014 RMK A01,M
BAM,2022-06-22 20:15,-116.8743,40.5990,1382.36,89.60,23.00,8.87,290.00,8.00,0.00,30.12,M,10.00,M,CLR,M,M,M,M,M,M,M,M,M,M,M,M,M,M,84.75,KBAM 222015Z AUTO 29008KT 10SM CLR 32/M05 A3012 RMK AO1,M
TMT,2022-06-22 20:15,-117.1971,39.4643,1749.34,83.50,20.10,9.53,310.00,8.00,0.00,30.19,M,10.00,M,CLR,M,M,M,M,M,M,M,M,M,M,M,M,M,M,80.23,KTMT 222015Z AUTO 31008KT 10SM CLR 29/M07 A3019 RMK AO2 LTG DSNT S T02861066,M
MEV,2022-06-22 20:15,-119.7500,38.9963,1441.42,82.40,23.00,11.16,M,6.00,0.00,30.16,M,10.00,12.00,CLR,M,M,M,M,M,M,M,M,M,M,M,M,M,M,79.67,KMEV 222015Z AUTO VRB06G12KT 10SM CLR 28/M05 A3016 RMK AO2,M
BVU,2022-06-22 20:15,-114.8611,35.9475,671.00,91.40,39.20,16.15,170.00,5.00,0.00,30.01,M,10.00,M,FEW,M,M,M,12000.00,M,M,M,M,M,M,M,M,M,M,87.30,KBVU 222015Z AUTO 17005KT 10SM FEW120 33/04 A3001 RMK AO2,M
CXP,2022-06-22 20:15,-119.7326,39.1923,1431.00,84.20,19.40,9.04,0.00,0.00,0.00,30.16,M,2.00,M,CLR,M,M,M,M,M,M,M,-RA HZ,M,M,M,M,M,M,80.68,KCXP 222015Z AUTO 00000KT 2SM -RA HZ CLR 29/M07 A3016 RMK AO2 VIS 1/4V5,M
RTS,2022-06-22 20:15,-119.8764,39.6682,1539.00,82.40,17.60,8.87,0.00,0.00,0.00,30.18,M,10.00,11.00,CLR,M,M,M,M,M,M,M,M,M,M,M,M,M,M,79.36,KRTS 222015Z AUTO 00000G11KT 10SM CLR 28/M08 A3018 RMK AO2,M
MEV,2022-06-22 20:35,-119.7500,38.9963,1441.42,84.20,24.80,11.35,270.00,8.00,0.00,30.15,M,10.00,M,CLR,M,M,M,M,M,M,M,M,M,M,M,M,M,M,81.00,KMEV 222035Z AUTO 27008KT 230V290 10SM CLR 29/M04 A3015 RMK AO2,M
05U,2022-06-22 20:35,-116.0051,39.6042,1811.23,87.80,14.00,6.38,210.00,9.00,0.00,30.22,M,10.00,16.00,CLR,M,M,M,M,M,M,M,M,M,M,M,M,M,M,83.00,K05U 222035Z AUTO 21009G16KT 10SM CLR 31/M10 A3022 RMK A01,M
RTS,2022-06-22 20:35,-119.8764,39.6682,1539.00,82.40,15.80,8.20,M,5.00,0.00,30.17,M,10.00,10.00,CLR,M,M,M,M,M,M,M,M,M,M,M,M,M,M,79.28,KRTS 222035Z AUTO VRB05G10KT 10SM CLR 28/M09 A3017 RMK AO2,M
BVU,2022-06-22 20:35,-114.8611,35.9475,671.00,91.40,39.20,16.15,160.00,5.00,0.00,30.00,M,10.00,M,SCT,M,M,M,12000.00,M,M,M,M,M,M,M,M,M,M,87.30,KBVU 222035Z AUTO 16005KT 10SM SCT120 33/04 A3000 RMK AO2,M
CXP,2022-06-22 20:35,-119.7326,39.1923,1431.00,84.20,19.40,9.04,0.00,0.00,0.00,30.15,M,0.25,M,VV ,M,M,M,200.00,M,M,M,-RA HZ,M,M,M,M,M,M,80.68,KCXP 222035Z AUTO 00000KT 1/4SM -RA HZ VV002 29/M07 A3015 RMK AO2,M
HTH,2022-06-22 20:35,-118.6315,38.5448,1282.89,84.20,17.60,8.37,0.00,0.00,0.00,30.13,M,10.00,M,CLR,M,M,M,M,M,M,M,M,M,M,M,M,M,M,80.59,KHTH 222035Z AUTO 00000KT 10SM CLR 29/M08 A3013 RMK A01,M
BAM,2022-06-22 20:35,-116.8743,40.5990,1382.36,91.40,23.00,8.38,340.00,5.00,0.00,30.11,M,10.00,M,CLR,M,M,M,M,M,M,M,M,M,M,M,M,M,M,86.08,KBAM 222035Z AUTO 34005KT 10SM CLR 33/M05 A3011 RMK AO1,M
TMT,2022-06-22 20:35,-117.1971,39.4643,1749.34,84.20,19.40,9.04,310.00,8.00,0.00,30.19,M,10.00,M,CLR,M,M,M,M,M,M,M,M,M,M,M,M,M,M,80.68,KTMT 222035Z AUTO 31008KT 10SM CLR 29/M07 A3019 RMK AO2 T02901070,M
VGT,2022-06-22 20:53,-115.1933,36.2111,667.00,94.00,45.00,18.68,330.00,11.00,0.00,29.99,1014.60,10.00,M,CLR,M,M,M,M,M,M,M,M,M,M,M,M,M,M,90.05,KVGT 222053Z 33011KT 10SM CLR 34/07 A2999 RMK AO2 SLP146 60000 T03440072 58009,M
ELY,2022-06-22 20:53,-114.8453,39.2950,1909.00,83.00,18.00,8.88,M,M,0.00,30.22,1013.90,10.00,M,CLR,M,M,M,M,M,M,M,M,M,M,M,M,M,M,79.72,KELY 222053Z AUTO 10SM CLR 28/M08 A3022 RMK AO2 SLP139 T02831078 56020,M
P68,2022-06-22 20:53,-116.0056,39.6014,1993.00,82.00,15.10,8.06,M,5.00,0.00,30.19,1014.90,M,19.00,M,M,M,M,M,M,M,M,M,M,M,M,M,M,M,78.98,KP68 222053Z AUTO VRB05G19KT 28/M09 A3019 RMK AO1 SLP149 T02781094 58013,M
DRA,2022-06-22 20:53,-116.0278,36.6206,1009.00,78.00,48.00,34.67,210.00,3.00,T,30.12,1015.70,10.00,M,FEW,FEW,BKN,M,8000.00,9000.00,11000.00,M,-RA,M,M,M,M,M,M,78.10,KDRA 222053Z AUTO 21003KT 10SM -RA FEW080 FEW090 BKN110 26/09 A3012 RMK AO2 RAB45 SLP157 P0000 60000 T02560089 58001,M
LOL,2022-06-22 20:53,-118.5701,40.0684,1192.43,89.00,21.90,8.60,M,3.00,0.00,30.07,1013.70,10.00,M,CLR,M,M,M,M,M,M,M,M,M,M,M,M,M,M,84.31,KLOL 222053Z AUTO VRB03KT 10SM CLR 32/M06 A3007 RMK AO2 SLP137 T03171056 58022,M
HTH,2022-06-22 20:55,-118.6315,38.5448,1282.89,84.20,17.60,8.37,320.00,6.00,0.00,30.11,M,10.00,M,CLR,M,M,M,M,M,M,M,M,M,M,M,M,M,M,80.59,KHTH 222055Z AUTO 32006KT 10SM CLR 29/M08 A3011 RMK A01,M
RTS,2022-06-22 20:55,-119.8764,39.6682,1539.00,84.20,14.00,7.16,M,5.00,0.00,30.17,M,10.00,M,CLR,M,M,M,M,M,M,M,M,M,M,M,M,M,M,80.44,KRTS 222055Z AUTO VRB05KT 10SM CLR 29/M10 A3017 RMK AO2,M
BAM,2022-06-22 20:55,-116.8743,40.5990,1382.36,91.40,23.00,8.38,230.00,4.00,0.00,30.10,M,10.00,M,CLR,M,M,M,M,M,M,M,M,M,M,M,M,M,M,86.08,KBAM 222055Z AUTO 23004KT 10SM CLR 33/M05 A3010 RMK AO1,M
TMT,2022-06-22 20:55,-117.1971,39.4643,1749.34,83.00,18.90,9.17,250.00,7.00,0.00,30.18,M,10.00,M,CLR,M,M,M,M,M,M,M,M,M,M,M,M,M,M,79.90,KTMT 222055Z AUTO 25007KT 250V320 10SM CLR 28/M07 A3018 RMK AO2 6//// T02841073,M
MEV,2022-06-22 20:55,-119.7500,38.9963,1441.42,84.20,24.80,11.35,270.00,6.00,0.00,30.14,M,10.00,11.00,CLR,M,M,M,M,M,M,M,M,M,M,M,M,M,M,81.00,KMEV 222055Z AUTO 27006G11KT 10SM CLR 29/M04 A3014 RMK AO2,M
05U,2022-06-22 20:55,-116.0051,39.6042,1811.23,84.20,14.00,7.16,M,6.00,0.00,30.22,M,10.00,12.00,CLR,M,M,M,M,M,M,M,M,M,M,M,M,M,M,80.44,K05U 222055Z AUTO VRB06G12KT 10SM CLR 29/M10 A3022 RMK A01,M
RNO,2022-06-22 20:55,-119.7711,39.4839,1341.00,88.00,23.00,9.33,M,5.00,0.00,30.11,1013.80,10.00,M,FEW,BKN,M,M,10000.00,24000.00,M,M,M,M,M,M,M,M,M,83.58,KRNO 222055Z VRB05KT 10SM FEW100 BKN240 31/M05 A3011 RMK AO2 SLP138 T03111050 58018,M
BVU,2022-06-22 20:55,-114.8611,35.9475,671.00,93.20,41.00,16.37,140.00,7.00,0.00,29.99,M,10.00,M,FEW,M,M,M,12000.00,M,M,M,M,M,M,M,M,M,M,89.03,KBVU 222055Z AUTO 14007KT 10SM FEW120 34/05 A2999 RMK AO2,M
CXP,2022-06-22 20:55,-119.7326,39.1923,1431.00,84.20,17.60,8.37,M,6.00,0.00,30.15,M,0.25,M,VV ,M,M,M,0.00,M,M,M,UP HZ,M,M,M,M,M,M,80.59,KCXP 222055Z AUTO VRB06KT M1/4SM UP HZ VV000 29/M08 A3015 RMK AO2,M
TPH,2022-06-22 20:56,-117.0904,38.0505,1654.00,72.00,35.00,25.83,210.00,19.00,0.00,30.26,1018.90,10.00,30.00,BKN,M,M,M,11000.00,M,M,M,M,M,M,M,35.00,210.00,2022-06-22 20:45,72.00,KTPH 222056Z AUTO 21019G30KT 10SM BKN110 22/02 A3026 RMK AO2 PK WND 21035/2045 SLP189 T02220017 50004,M
EKO,2022-06-22 20:56,-115.7860,40.8242,1367.00,87.00,19.90,8.42,M,4.00,0.00,30.14,1014.90,10.00,M,CLR,M,M,M,M,M,M,M,M,M,M,M,M,M,M,82.75,KEKO 222056Z AUTO VRB04KT 10SM CLR 31/M07 A3014 RMK AO2 SLP149 T03061067 56021,M
WMC,2022-06-22 20:56,-117.8072,40.9019,1315.00,91.00,26.10,9.66,M,M,0.00,30.09,1013.50,10.00,M,CLR,M,M,M,M,M,M,M,M,M,M,M,M,M,M,86.02,KWMC 222056Z AUTO 10SM CLR 33/M03 A3009 RMK AO2 SLP135 T03281033 58020,M
NFL,2022-06-22 20:56,-118.7010,39.4166,1199.00,87.00,21.90,9.16,260.00,7.00,0.00,30.09,1015.50,10.00,M,SCT,SCT,BKN,BKN,8000.00,12000.00,17000.00,22000.00,M,M,M,M,M,M,M,82.86,KNFL 222056Z 26007KT 10SM SCT080 SCT120 BKN170 BKN220 31/M06 A3009 RMK AO2 SLP155 T03061056 56019,M
LAS,2022-06-22 20:56,-115.1634,36.0719,663.00,91.00,44.00,19.76,330.00,8.00,0.00,30.00,1013.10,10.00,M,FEW,BKN,BKN,M,8000.00,11000.00,15000.00,M,M,M,M,M,M,M,M,87.27,KLAS 222056Z 33008KT 10SM FEW080 BKN110 BKN150 33/07 A3000 RMK AO2 SLP131 60000 T03280067 58012,M
HND,2022-06-22 20:56,-115.1344,35.9729,742.79,91.00,44.00,19.76,40.00,4.00,0.00,30.03,1015.20,10.00,M,FEW,M,M,M,12000.00,M,M,M,M,M,M,M,M,M,M,87.27,KHND 222056Z 04004KT 10SM FEW120 33/07 A3003 RMK AO2 SLP152 T03280067 58013,M
INS,2022-06-22 20:58,-115.6733,36.5872,955.00,83.70,43.00,23.89,60.00,4.00,0.00,30.10,1014.90,10.00,M,BKN,OVC,M,M,10000.00,13000.00,M,M,M,M,M,M,M,M,M,81.27,KINS 222058Z AUTO 06004KT 10SM BKN100 OVC130 29/06 A3010 RMK AO2 SLP149 60000 T02870061 53000 $,M
LSV,2022-06-22 20:58,-115.0343,36.2362,570.00,94.50,42.80,16.86,300.00,7.00,0.00,29.96,M,10.00,M,FEW,FEW,M,M,12000.00,17000.00,M,M,M,M,M,M,M,M,M,90.39,KLSV 222058Z AUTO 30007KT 10SM FEW120 FEW170 35/06 A2996 RMK AO2 SLPNO T03470060 58010 $,M
05U,2022-06-22 21:15,-116.0051,39.6042,1811.23,84.20,14.00,7.16,190.00,6.00,0.00,30.21,M,10.00,14.00,CLR,M,M,M,M,M,M,M,M,M,M,M,M,M,M,80.44,K05U 222115Z AUTO 19006G14KT 10SM CLR 29/M10 A3021 RMK A01,M
BAM,2022-06-22 21:15,-116.8743,40.5990,1382.36,91.40,21.20,7.77,360.00,4.00,0.00,30.09,M,10.00,M,CLR,M,M,M,M,M,M,M,M,M,M,M,M,M,M,85.96,KBAM 222115Z AUTO 36004KT 10SM CLR 33/M06 A3009 RMK AO1,M
HTH,2022-06-22 21:15,-118.6315,38.5448,1282.89,86.00,17.60,7.90,M,3.00,0.00,30.11,M,10.00,M,CLR,M,M,M,M,M,M,M,M,M,M,M,M,M,M,81.85,KHTH 222115Z AUTO VRB03KT 10SM CLR 30/M08 A3011 RMK A01,M
TMT,2022-06-22 21:15,-117.1971,39.4643,1749.34,84.70,19.60,8.97,280.00,10.00,0.00,30.18,M,10.00,M,CLR,M,M,M,M,M,M,M,M,M,M,M,M,M,M,81.03,KTMT 222115Z AUTO 28010KT 10SM CLR 29/M07 A3018 RMK AO2 T02931069,M
RTS,2022-06-22 21:15,-119.8764,39.6682,1539.00,84.20,14.00,7.16,M,6.00,0.00,30.16,M,10.00,M,CLR,M,M,M,M,M,M,M,M,M,M,M,M,M,M,80.44,KRTS 222115Z AUTO VRB06KT 10SM CLR 29/M10 A3016 RMK AO2,M
MEV,2022-06-22 21:15,-119.7500,38.9963,1441.42,84.20,24.80,11.35,M,6.00,0.00,30.13,M,10.00,M,CLR,M,M,M,M,M,M,M,M,M,M,M,M,M,M,81.00,KMEV 222115Z AUTO VRB06KT 10SM CLR 29/M04 A3013 RMK AO2,M
CXP,2022-06-22 21:15,-119.7326,39.1923,1431.00,87.80,17.60,7.46,170.00,6.00,0.00,30.13,M,0.50,M,VV ,M,M,M,500.00,M,M,M,UP HZ,M,M,M,M,M,M,83.14,KCXP 222115Z AUTO 17006KT 1/2SM UP HZ VV005 31/M08 A3013 RMK AO2 VIS 1/4V5,M
BVU,2022-06-22 21:15,-114.8611,35.9475,671.00,93.20,41.00,16.37,M,5.00,0.00,29.99,M,10.00,13.00,CLR,M,M,M,M,M,M,M,M,M,M,M,M,M,M,89.03,KBVU 222115Z AUTO VRB05G13KT 10SM CLR 34/05 A2999 RMK AO2,M
RTS,2022-06-22 21:30,-119.8764,39.6682,1539.00,84.20,14.00,7.16,0.00,0.00,0.00,30.15,M,10.00,12.00,CLR,M,M,M,M,M,M,M,M,M,M,M,M,M,M,80.44,KRTS 222130Z AUTO 00000G12KT 10SM CLR 29/M10 A3015 RMK AO2,M
BVU,2022-06-22 21:35,-114.8611,35.9475,671.00,93.20,41.00,16.37,130.00,15.00,0.00,29.99,M,10.00,20.00,SCT,M,M,M,12000.00,M,M,M,M,M,M,M,M,M,M,89.03,KBVU 222135Z AUTO 13015G20KT 10SM SCT120 34/05 A2999 RMK AO2,M
CXP,2022-06-22 21:35,-119.7326,39.1923,1431.00,87.80,17.60,7.46,0.00,0.00,0.00,30.12,M,2.50,M,CLR,M,M,M,M,M,M,M,UP HZ,M,M,M,M,M,M,83.14,KCXP 222135Z AUTO 00000KT 2 1/2SM UP HZ CLR 31/M08 A3012 RMK AO2 VIS 1V5,M
05U,2022-06-22 21:35,-116.0051,39.6042,1811.23,86.00,14.00,6.75,180.00,14.00,0.00,30.20,M,10.00,M,CLR,M,M,M,M,M,M,M,M,M,M,M,M,M,M,81.71,K05U 222135Z AUTO 18014KT 10SM CLR 30/M10 A3020 RMK A01,M
MEV,2022-06-22 21:35,-119.7500,38.9963,1441.42,84.20,24.80,11.35,260.00,7.00,0.00,30.12,M,10.00,M,CLR,M,M,M,M,M,M,M,M,M,M,M,M,M,M,81.00,KMEV 222135Z AUTO 26007KT 10SM CLR 29/M04 A3012 RMK AO2,M
TMT,2022-06-22 21:35,-117.1971,39.4643,1749.34,84.20,19.00,8.89,240.00,3.00,0.00,30.17,M,10.00,M,CLR,M,M,M,M,M,M,M,M,M,M,M,M,M,M,80.66,KTMT 222135Z AUTO 24003KT 10SM CLR 29/M07 A3017 RMK AO2 T02901072,M
BAM,2022-06-22 21:35,-116.8743,40.5990,1382.36,91.40,21.20,7.77,330.00,7.00,0.00,30.08,M,10.00,14.00,CLR,M,M,M,M,M,M,M,M,M,M,M,M,M,M,85.96,KBAM 222135Z AUTO 33007G14KT 10SM CLR 33/M06 A3008 RMK AO1,M
HTH,2022-06-22 21:35,-118.6315,38.5448,1282.89,87.80,15.80,6.90,170.00,16.00,0.00,30.10,M,10.00,21.00,CLR,M,M,M,M,M,M,M,M,M,M,M,M,M,M,83.07,KHTH 222135Z AUTO 17016G21KT 10SM CLR 31/M09 A3010 RMK A01,M
CXP,2022-06-22 21:50,-119.7326,39.1923,1431.00,86.00,17.60,7.90,M,5.00,0.00,30.12,M,10.00,M,CLR,M,M,M,M,M,M,M,M,M,M,M,M,M,M,81.85,KCXP 222150Z AUTO VRB05KT 10SM CLR 30/M08 A3012 RMK AO2,M
ELY,2022-06-22 21:53,-114.8453,39.2950,1909.00,83.00,18.00,8.88,M,M,0.00,30.20,1014.10,10.00,M,CLR,M,M,M,M,M,M,M,M,M,M,M,M,M,M,79.72,KELY 222153Z AUTO 10SM CLR 28/M08 A3020 RMK AO2 SLP141 T02831078,M
LOL,2022-06-22 21:53,-118.5701,40.0684,1192.43,89.00,16.00,6.68,M,3.00,0.00,30.04,1013.30,10.00,M,CLR,M,M,M,M,M,M,M,M,M,M,M,M,M,M,84.01,KLOL 222153Z AUTO VRB03KT 10SM CLR 32/M09 A3004 RMK AO2 SLP133 T03171089,M
VGT,2022-06-22 21:53,-115.1933,36.2111,667.00,93.00,44.00,18.56,320.00,6.00,0.00,29.98,1014.10,10.00,M,FEW,SCT,M,M,3100.00,12000.00,M,M,M,M,M,M,M,M,M,89.11,KVGT 222153Z 32006KT 10SM FEW031 SCT120 34/07 A2998 RMK AO2 SLP141 T03390067,M
DRA,2022-06-22 21:53,-116.0278,36.6206,1009.00,82.00,46.00,28.30,310.00,7.00,T,30.11,1015.30,10.00,16.00,SCT,M,M,M,11000.00,M,M,M,M,M,M,M,M,M,M,80.36,KDRA 222153Z AUTO 31007G16KT 10SM SCT110 28/08 A3011 RMK AO2 RAE05 SLP153 P0000 T02780078,M
P68,2022-06-22 21:53,-116.0056,39.6014,1993.00,83.00,12.90,7.11,0.00,0.00,0.00,30.17,1014.40,M,M,M,M,M,M,M,M,M,M,M,M,M,M,M,M,M,79.50,KP68 222153Z AUTO 00000KT 28/M11 A3017 RMK AO1 SLP144 T02831106,M
HTH,2022-06-22 21:55,-118.6315,38.5448,1282.89,87.80,19.40,8.06,180.00,18.00,0.00,30.10,M,10.00,26.00,CLR,M,M,M,M,M,M,M,M,M,M,M,M,M,M,83.23,KHTH 222155Z AUTO 18018G26KT 10SM CLR 31/M07 A3010 RMK A01,M
RNO,2022-06-22 21:55,-119.7711,39.4839,1341.00,89.00,21.00,8.28,10.00,6.00,0.00,30.08,1013.00,10.00,M,SCT,BKN,M,M,11000.00,24000.00,M,M,M,M,M,M,M,M,M,84.26,KRNO 222155Z 01006KT 10SM SCT110 BKN240 32/M06 A3008 RMK AO2 SLP130 T03171061,M
RTS,2022-06-22 21:55,-119.8764,39.6682,1539.00,84.20,12.20,6.61,130.00,4.00,0.00,30.14,M,10.00,11.00,CLR,M,M,M,M,M,M,M,M,M,M,M,M,M,M,80.37,KRTS 222155Z AUTO 13004G11KT 10SM CLR 29/M11 A3014 RMK AO2,M
BVU,2022-06-22 21:55,-114.8611,35.9475,671.00,93.20,42.80,17.55,70.00,8.00,0.00,29.98,M,10.00,20.00,FEW,M,M,M,12000.00,M,M,M,M,M,M,M,M,M,M,89.17,KBVU 222155Z AUTO 07008G20KT 10SM FEW120 34/06 A2998 RMK AO2,M
05U,2022-06-22 21:55,-116.0051,39.6042,1811.23,86.00,14.00,6.75,0.00,0.00,0.00,30.19,M,10.00,11.00,CLR,M,M,M,M,M,M,M,M,M,M,M,M,M,M,81.71,K05U 222155Z AUTO 00000G11KT 10SM CLR 30/M10 A3019 RMK A01,M
MEV,2022-06-22 21:55,-119.7500,38.9963,1441.42,86.00,24.80,10.72,240.00,6.00,0.00,30.11,M,10.00,M,CLR,M,M,M,M,M,M,M,M,M,M,M,M,M,M,82.26,KMEV 222155Z AUTO 24006KT 10SM CLR 30/M04 A3011 RMK AO2,M
TMT,2022-06-22 21:55,-117.1971,39.4643,1749.34,84.00,19.90,9.29,250.00,7.00,0.00,30.17,M,10.00,16.00,CLR,M,M,M,M,M,M,M,M,M,M,M,M,M,M,80.57,KTMT 222155Z AUTO 25007G16KT 10SM CLR 29/M07 A3017 RMK AO2 T02891067,M
BAM,2022-06-22 21:55,-116.8743,40.5990,1382.36,91.40,21.20,7.77,0.00,0.00,0.00,30.08,M,10.00,M,CLR,M,M,M,M,M,M,M,M,M,M,M,M,M,M,85.96,KBAM 222155Z AUTO 00000KT 10SM CLR 33/M06 A3008 RMK AO1,M
LAS,2022-06-22 21:56,-115.1634,36.0719,663.00,93.00,44.00,18.56,340.00,9.00,0.00,29.98,1012.50,10.00,M,FEW,BKN,BKN,M,8000.00,11000.00,15000.00,M,M,M,M,M,M,M,M,89.11,KLAS 222156Z 34009KT 10SM FEW080 BKN110 BKN150 34/07 A2998 RMK AO2 SLP125 T03390067,M
NFL,2022-06-22 21:56,-118.7010,39.4166,1199.00,90.00,19.90,7.68,M,4.00,0.00,30.06,1014.70,10.00,M,SCT,SCT,BKN,BKN,8000.00,12000.00,17000.00,22000.00,M,M,M,M,M,M,M,84.86,KNFL 222156Z VRB04KT 10SM SCT080 SCT120 BKN170 BKN220 32/M07 A3006 RMK AO2 SLP147 T03221067,M
TPH,2022-06-22 21:56,-117.0904,38.0505,1654.00,70.00,39.00,32.24,150.00,13.00,T,30.29,1020.20,10.00,22.00,OVC,M,M,M,9500.00,M,M,M,M,M,M,M,43.00,180.00,2022-06-22 21:08,70.00,KTPH 222156Z AUTO 15013G22KT 10SM OVC095 21/04 A3029 RMK AO2 PK WND 18043/2108 RAB17E21 SLP202 P0000 T02110039,M
EKO,2022-06-22 21:56,-115.7860,40.8242,1367.00,89.00,21.90,8.60,170.00,7.00,0.00,30.12,1014.50,10.00,M,CLR,M,M,M,M,M,M,M,M,M,M,M,M,M,M,84.31,KEKO 222156Z AUTO 17007KT 10SM CLR 32/M06 A3012 RMK AO2 SLP145 T03171056,M
WMC,2022-06-22 21:56,-117.8072,40.9019,1315.00,91.00,19.00,7.16,160.00,6.00,0.00,30.06,1012.80,10.00,M,CLR,M,M,M,M,M,M,M,M,M,M,M,M,M,M,85.54,KWMC 222156Z AUTO 16006KT 10SM CLR 33/M07 A3006 RMK AO2 SLP128 T03281072,M
HND,2022-06-22 21:56,-115.1344,35.9729,742.79,93.00,44.00,18.56,200.00,8.00,0.00,30.01,1014.50,10.00,M,BKN,M,M,M,12000.00,M,M,M,M,M,M,M,M,M,M,89.11,KHND 222156Z 20008KT 10SM BKN120 34/07 A3001 RMK AO2 SLP145 T03390067,M
LSV,2022-06-22 21:58,-115.0343,36.2362,570.00,95.00,41.70,15.91,170.00,7.00,0.00,29.95,M,10.00,M,BKN,M,M,M,13000.00,M,M,M,M,M,M,M,M,M,M,90.76,KLSV 222158Z AUTO 17007KT 10SM BKN130 35/05 A2995 RMK AO2 SLPNO T03500054 $,M
INS,2022-06-22 21:58,-115.6733,36.5872,955.00,84.40,41.40,21.96,240.00,3.00,0.00,30.07,1014.00,10.00,M,BKN,OVC,M,M,11000.00,13000.00,M,M,M,M,M,M,M,M,M,81.68,KINS 222158Z AUTO 24003KT 10SM BKN110 OVC130 29/05 A3007 RMK AO2 SLP140 T02910052 $,M
CXP,2022-06-22 22:15,-119.7326,39.1923,1431.00,87.80,15.80,6.90,M,3.00,0.00,30.11,M,10.00,16.00,CLR,M,M,M,M,M,M,M,M,M,M,M,M,M,M,83.07,KCXP 222215Z AUTO VRB03G16KT 10SM CLR 31/M09 A3011 RMK AO2,M
BVU,2022-06-22 22:15,-114.8611,35.9475,671.00,93.20,42.80,17.55,60.00,7.00,0.00,29.97,M,10.00,13.00,BKN,M,M,M,11000.00,M,M,M,M,M,M,M,M,M,M,89.17,KBVU 222215Z AUTO 06007G13KT 10SM BKN110 34/06 A2997 RMK AO2,M
RTS,2022-06-22 22:15,-119.8764,39.6682,1539.00,84.20,12.20,6.61,M,3.00,0.00,30.14,M,10.00,11.00,CLR,M,M,M,M,M,M,M,M,M,M,M,M,M,M,80.37,KRTS 222215Z AUTO VRB03G11KT 10SM CLR 29/M11 A3014 RMK AO2,M
05U,2022-06-22 22:15,-116.0051,39.6042,1811.23,86.00,14.00,6.75,0.00,0.00,0.00,30.19,M,10.00,11.00,CLR,M,M,M,M,M,M,M,M,M,M,M,M,M,M,81.71,K05U 222215Z AUTO 00000G11KT 10SM CLR 30/M10 A3019 RMK A01,M
MEV,2022-06-22 22:15,-119.7500,38.9963,1441.42,86.00,19.40,8.53,240.00,8.00,0.00,30.10,M,10.00,M,CLR,M,M,M,M,M,M,M,M,M,M,M,M,M,M,81.94,KMEV 222215Z AUTO 24008KT 10SM CLR 30/M07 A3010 RMK AO2,M
BAM,2022-06-22 22:15,-116.8743,40.5990,1382.36,93.20,21.20,7.34,320.00,7.00,0.00,30.07,M,10.00,M,CLR,M,M,M,M,M,M,M,M,M,M,M,M,M,M,87.29,KBAM 222215Z AUTO 32007KT 10SM CLR 34/M06 A3007 RMK AO1,M
HTH,2022-06-22 22:15,-118.6315,38.5448,1282.89,86.00,19.40,8.53,180.00,12.00,0.00,30.09,M,10.00,18.00,CLR,M,M,M,M,M,M,M,M,M,M,M,M,M,M,81.94,KHTH 222215Z AUTO 18012G18KT 10SM CLR 30/M07 A3009 RMK A01,M
TMT,2022-06-22 22:15,-117.1971,39.4643,1749.34,83.50,19.60,9.33,270.00,3.00,0.00,30.16,M,10.00,M,CLR,M,M,M,M,M,M,M,M,M,M,M,M,M,M,80.21,KTMT 222215Z AUTO 27003KT 10SM CLR 29/M07 A3016 RMK AO2 T02861069,M
RTS,2022-06-22 22:30,-119.8764,39.6682,1539.00,86.00,12.20,6.24,M,5.00,0.00,30.13,M,10.00,M,CLR,M,M,M,M,M,M,M,M,M,M,M,M,M,M,81.64,KRTS 222230Z AUTO VRB05KT 10SM CLR 30/M11 A3013 RMK AO2,M
CXP,2022-06-22 22:30,-119.7326,39.1923,1431.00,87.80,15.80,6.90,290.00,8.00,0.00,30.10,M,10.00,M,CLR,M,M,M,M,M,M,M,M,M,M,M,M,M,M,83.07,KCXP 222230Z AUTO 29008KT 10SM CLR 31/M09 A3010 RMK AO2,M
BAM,2022-06-22 22:35,-116.8743,40.5990,1382.36,91.40,21.20,7.77,220.00,4.00,0.00,30.06,M,10.00,M,CLR,M,M,M,M,M,M,M,M,M,M,M,M,M,M,85.96,KBAM 222235Z AUTO 22004KT 10SM CLR 33/M06 A3006 RMK AO1,M
05U,2022-06-22 22:35,-116.0051,39.6042,1811.23,87.80,14.00,6.38,170.00,8.00,0.00,30.19,M,10.00,16.00,CLR,M,M,M,M,M,M,M,M,M,M,M,M,M,M,83.00,K05U 222235Z AUTO 17008G16KT 130V190 10SM CLR 31/M10 A3019 RMK A01,M
MEV,2022-06-22 22:35,-119.7500,38.9963,1441.42,86.00,21.20,9.21,M,5.00,0.00,30.09,M,10.00,11.00,CLR,M,M,M,M,M,M,M,M,M,M,M,M,M,M,82.04,KMEV 222235Z AUTO VRB05G11KT 10SM CLR 30/M06 A3009 RMK AO2,M
HTH,2022-06-22 22:35,-118.6315,38.5448,1282.89,87.80,19.40,8.06,140.00,9.00,0.00,30.09,M,10.00,18.00,CLR,M,M,M,M,M,M,M,M,M,M,M,M,M,M,83.23,KHTH 222235Z AUTO 14009G18KT 10SM CLR 31/M07 A3009 RMK A01,M
TMT,2022-06-22 22:35,-117.1971,39.4643,1749.34,84.00,20.70,9.62,220.00,16.00,0.00,30.16,M,10.00,20.00,CLR,M,M,M,M,M,M,M,M,M,M,M,M,M,M,80.61,KTMT 222235Z AUTO 22016G20KT 10SM CLR 29/M06 A3016 RMK AO2 LTG DSNT S T02891063,M
BVU,2022-06-22 22:35,-114.8611,35.9475,671.00,93.20,41.00,16.37,80.00,7.00,0.00,29.97,M,10.00,12.00,BKN,M,M,M,11000.00,M,M,M,M,M,M,M,M,M,M,89.03,KBVU 222235Z AUTO 08007G12KT 10SM BKN110 34/05 A2997 RMK AO2,M
VGT,2022-06-22 22:53,-115.1933,36.2111,667.00,94.00,43.00,17.31,320.00,5.00,0.00,29.95,1013.20,10.00,M,CLR,M,M,M,M,M,M,M,M,M,M,M,M,M,M,89.84,KVGT 222253Z 32005KT 10SM CLR 34/06 A2995 RMK AO2 LTG DSNT SW SLP132 T03440061,M
ELY,2022-06-22 22:53,-114.8453,39.2950,1909.00,82.00,19.00,9.54,M,M,0.00,30.18,1013.40,10.00,M,CLR,M,M,M,M,M,M,M,M,M,M,M,M,M,M,79.17,KELY 222253Z AUTO 10SM CLR 28/M07 A3018 RMK AO2 SLP134 T02781072,M
DRA,2022-06-22 22:53,-116.0278,36.6206,1009.00,83.00,46.00,27.48,280.00,19.00,0.00,30.11,1015.40,10.00,26.00,BKN,M,M,M,10000.00,M,M,M,M,M,M,M,26.00,270.00,2022-06-22 22:53,80.94,KDRA 222253Z AUTO 28019G26KT 10SM BKN100 28/08 A3011 RMK AO2 PK WND 27026/2253 SLP154 T02830078,M
LOL,2022-06-22 22:53,-118.5701,40.0684,1192.43,93.00,16.00,5.91,M,6.00,0.00,30.02,1012.10,10.00,M,CLR,M,M,M,M,M,M,M,M,M,M,M,M,M,M,86.85,KLOL 222253Z AUTO VRB06KT 10SM CLR 34/M09 A3002 RMK AO2 SLP121 T03391089,M
P68,2022-06-22 22:53,-116.0056,39.6014,1993.00,83.00,12.90,7.11,180.00,9.00,0.00,30.15,1013.60,M,17.00,M,M,M,M,M,M,M,M,M,M,M,M,M,M,M,79.50,KP68 222253Z AUTO 18009G17KT 28/M11 A3015 RMK AO1 SLP136 T02831106,M
TMT,2022-06-22 22:55,-117.1971,39.4643,1749.34,82.40,20.10,9.87,230.00,3.00,0.00,30.16,M,10.00,15.00,CLR,M,M,M,M,M,M,M,M,M,M,M,M,M,M,79.49,KTMT 222255Z AUTO 23003G15KT 10SM CLR 28/M07 A3016 RMK AO2 T02801066,M
BVU,2022-06-22 22:55,-114.8611,35.9475,671.00,91.40,41.00,17.32,50.00,12.00,0.00,29.95,M,10.00,M,BKN,M,M,M,12000.00,M,M,M,M,M,M,M,M,M,M,87.40,KBVU 222255Z AUTO 05012KT 10SM BKN120 33/05 A2995 RMK AO2,M
CXP,2022-06-22 22:55,-119.7326,39.1923,1431.00,87.80,15.80,6.90,M,5.00,0.00,30.09,M,10.00,10.00,CLR,M,M,M,M,M,M,M,M,M,M,M,M,M,M,83.07,KCXP 222255Z AUTO VRB05G10KT 10SM CLR 31/M09 A3009 RMK AO2,M
RNO,2022-06-22 22:55,-119.7711,39.4839,1341.00,90.00,21.00,8.05,20.00,9.00,0.00,30.05,1012.00,10.00,M,FEW,BKN,M,M,11000.00,25000.00,M,M,M,M,M,M,M,M,M,84.92,KRNO 222255Z 02009KT 10SM FEW110 BKN250 32/M06 A3005 RMK AO2 SLP120 T03221061,M
RTS,2022-06-22 22:55,-119.8764,39.6682,1539.00,84.20,12.20,6.61,240.00,4.00,0.00,30.12,M,10.00,10.00,CLR,M,M,M,M,M,M,M,M,M,M,M,M,M,M,80.37,KRTS 222255Z AUTO 24004G10KT 10SM CLR 29/M11 A3012 RMK AO2,M
05U,2022-06-22 22:55,-116.0051,39.6042,1811.23,84.20,14.00,7.16,180.00,5.00,0.00,30.18,M,10.00,15.00,CLR,M,M,M,M,M,M,M,M,M,M,M,M,M,M,80.44,K05U 222255Z AUTO 18005G15KT 10SM CLR 29/M10 A3018 RMK A01,M
MEV,2022-06-22 22:55,-119.7500,38.9963,1441.42,87.80,23.00,9.39,M,6.00,0.00,30.08,M,10.00,M,CLR,M,M,M,M,M,M,M,M,M,M,M,M,M,M,83.43,KMEV 222255Z AUTO VRB06KT 10SM CLR 31/M05 A3008 RMK AO2,M
BAM,2022-06-22 22:55,-116.8743,40.5990,1382.36,91.40,21.20,7.77,240.00,3.00,0.00,30.05,M,10.00,M,CLR,M,M,M,M,M,M,M,M,M,M,M,M,M,M,85.96,KBAM 222255Z AUTO 24003KT 10SM CLR 33/M06 A3005 RMK AO1,M
HTH,2022-06-22 22:55,-118.6315,38.5448,1282.89,87.80,19.40,8.06,180.00,13.00,0.00,30.08,M,10.00,20.00,CLR,M,M,M,M,M,M,M,M,M,M,M,M,M,M,83.23,KHTH 222255Z AUTO 18013G20KT 10SM CLR 31/M07 A3008 RMK A01,M
WMC,2022-06-22 22:56,-117.8072,40.9019,1315.00,93.00,23.00,7.97,M,5.00,0.00,30.04,1012.20,10.00,M,CLR,M,M,M,M,M,M,M,M,M,M,M,M,M,M,87.27,KWMC 222256Z AUTO VRB05KT 10SM CLR 34/M05 A3004 RMK AO2 SLP122 T03391050,M
NFL,2022-06-22 22:56,-118.7010,39.4166,1199.00,90.00,14.00,5.95,M,5.00,0.00,30.03,1013.80,10.00,M,FEW,SCT,BKN,BKN,8000.00,12000.00,18000.00,25000.00,M,M,M,M,M,M,M,84.59,KNFL 222256Z VRB05KT 10SM FEW080 SCT120 BKN180 BKN250 32/M10 A3003 RMK AO2 SLP138 T03221100,M
HND,2022-06-22 22:56,-115.1344,35.9729,742.79,93.00,45.00,19.21,100.00,10.00,0.00,29.99,1013.70,10.00,M,OVC,M,M,M,11000.00,M,M,M,M,M,M,M,M,M,M,89.20,KHND 222256Z 10010KT 10SM OVC110 34/07 A2999 RMK AO2 LTG DSNT SW SLP137 T03390072,M
TPH,2022-06-22 22:56,-117.0904,38.0505,1654.00,63.00,51.00,65.09,M,5.00,T,30.27,1020.50,8.00,M,SCT,OVC,M,M,6000.00,7500.00,M,M,-RA,M,M,M,26.00,190.00,2022-06-22 22:11,63.00,KTPH 222256Z AUTO VRB05KT 8SM -RA SCT060 OVC075 17/11 A3027 RMK AO2 PK WND 19026/2211 RAB28 SLP205 P0000 T01720106,M
LAS,2022-06-22 22:56,-115.1634,36.0719,663.00,93.00,44.00,18.56,20.00,8.00,0.00,29.96,1011.50,10.00,22.00,FEW,BKN,BKN,BKN,8000.00,11000.00,15000.00,22000.00,M,M,M,M,M,M,M,89.11,KLAS 222256Z 02008G22KT 350V050 10SM FEW080 BKN110 BKN150 BKN220 34/07 A2996 RMK AO2 LTG DSNT SW SLP115 VCSH T03390067,M
EKO,2022-06-22 22:56,-115.7860,40.8242,1367.00,86.00,21.00,9.13,190.00,9.00,0.00,30.09,1014.10,10.00,M,CLR,M,M,M,M,M,M,M,M,M,M,M,M,M,M,82.02,KEKO 222256Z AUTO 19009KT 10SM CLR 30/M06 A3009 RMK AO2 SLP141 T03001061,M
LSV,2022-06-22 22:58,-115.0343,36.2362,570.00,95.00,41.70,15.91,90.00,10.00,0.00,29.92,M,10.00,14.00,M,M,M,M,M,M,M,M,M,M,M,M,M,M,M,90.76,KLSV 222258Z AUTO 09010G14KT 10SM M 35/05 A2992 RMK AO2 SLPNO T03500054 $,M
INS,2022-06-22 22:58,-115.6733,36.5872,955.00,86.00,41.50,20.94,340.00,11.00,0.00,30.05,1013.30,10.00,16.00,BKN,OVC,M,M,10000.00,15000.00,M,M,M,M,M,M,M,M,M,82.88,KINS 222258Z AUTO 34011G16KT 10SM BKN100 OVC150 30/05 A3005 RMK AO2 SLP133 T03000053 $,M
LSV,2022-06-22 23:04,-115.0343,36.2362,570.00,95.00,41.00,15.49,120.00,15.00,0.00,29.92,M,10.00,18.00,BKN,BKN,M,M,15000.00,25000.00,M,M,M,M,M,M,M,M,M,90.70,KLSV 222304Z COR AUTO 12015G18KT 10SM BKN150 BKN250 35/05 A2992 RMK AO2 WSHFT 01 SLPNO $ COR 2306,M
05U,2022-06-22 23:10,-116.0051,39.6042,1811.23,84.20,14.00,7.16,M,4.00,0.00,30.17,M,10.00,M,CLR,M,M,M,M,M,M,M,M,M,M,M,M,M,M,80.44,K05U 222310Z AUTO VRB04KT 10SM CLR 29/M10 A3017 RMK A01,M
RTS,2022-06-22 23:15,-119.8764,39.6682,1539.00,86.00,14.00,6.75,80.00,8.00,0.00,30.11,M,10.00,M,CLR,M,M,M,M,M,M,M,M,M,M,M,M,M,M,81.71,KRTS 222315Z AUTO 08008KT 060V120 10SM CLR 30/M10 A3011 RMK AO2,M
TMT,2022-06-22 23:15,-117.1971,39.4643,1749.34,82.20,20.10,9.94,220.00,14.00,0.00,30.16,M,10.00,23.00,CLR,M,M,M,M,M,M,M,M,M,M,M,M,M,M,79.36,KTMT 222315Z AUTO 22014G23KT 10SM CLR 28/M07 A3016 RMK AO2 T02791066,M
HTH,2022-06-22 23:15,-118.6315,38.5448,1282.89,86.00,19.40,8.53,190.00,10.00,0.00,30.08,M,10.00,16.00,CLR,M,M,M,M,M,M,M,M,M,M,M,M,M,M,81.94,KHTH 222315Z AUTO 19010G16KT 140V200 10SM CLR 30/M07 A3008 RMK A01,M
BAM,2022-06-22 23:15,-116.8743,40.5990,1382.36,91.40,19.40,7.19,280.00,6.00,0.00,30.05,M,10.00,M,CLR,M,M,M,M,M,M,M,M,M,M,M,M,M,M,85.86,KBAM 222315Z AUTO 28006KT 10SM CLR 33/M07 A3005 RMK AO1,M
MEV,2022-06-22 23:15,-119.7500,38.9963,1441.42,84.20,19.40,9.04,280.00,6.00,0.00,30.07,M,10.00,M,CLR,M,M,M,M,M,M,M,M,M,M,M,M,M,M,80.68,KMEV 222315Z AUTO 28006KT 10SM CLR 29/M07 A3007 RMK AO2,M
CXP,2022-06-22 23:15,-119.7326,39.1923,1431.00,87.80,15.80,6.90,M,4.00,0.00,30.08,M,10.00,14.00,CLR,M,M,M,M,M,M,M,M,M,M,M,M,M,M,83.07,KCXP 222315Z AUTO VRB04G14KT 10SM CLR 31/M09 A3008 RMK AO2,M
BVU,2022-06-22 23:15,-114.8611,35.9475,671.00,91.40,39.20,16.15,120.00,9.00,0.00,29.95,M,10.00,M,OVC,M,M,M,12000.00,M,M,M,M,M,M,M,M,M,M,87.30,KBVU 222315Z AUTO 12009KT 10SM OVC120 33/04 A2995 RMK AO2,M
BVU,2022-06-22 23:35,-114.8611,35.9475,671.00,93.20,39.20,15.27,100.00,8.00,0.00,29.95,M,10.00,M,BKN,M,M,M,12000.00,M,M,M,M,M,M,M,M,M,M,88.92,KBVU 222335Z AUTO 10008KT 10SM BKN120 34/04 A2995 RMK AO2,M
05U,2022-06-22 23:35,-116.0051,39.6042,1811.23,84.20,14.00,7.16,240.00,5.00,0.00,30.17,M,10.00,11.00,CLR,M,M,M,M,M,M,M,M,M,M,M,M,M,M,80.44,K05U 222335Z AUTO 24005G11KT 10SM CLR 29/M10 A3017 RMK A01,M
MEV,2022-06-22 23:35,-119.7500,38.9963,1441.42,84.20,24.80,11.35,240.00,7.00,0.00,30.07,M,10.00,M,CLR,M,M,M,M,M,M,M,M,M,M,M,M,M,M,81.00,KMEV 222335Z AUTO 24007KT 10SM CLR 29/M04 A3007 RMK AO2,M
TMT,2022-06-22 23:35,-117.1971,39.4643,1749.34,81.30,21.90,11.04,200.00,21.00,0.00,30.16,M,10.00,26.00,CLR,M,M,M,M,M,M,M,M,M,M,M,M,M,M,78.88,KTMT 222335Z AUTO 20021G26KT 10SM CLR 27/M06 A3016 RMK AO2 LTG DSNT S T02741056,M
BAM,2022-06-22 23:35,-116.8743,40.5990,1382.36,89.60,19.40,7.61,0.00,0.00,0.00,30.04,M,10.00,M,CLR,M,M,M,M,M,M,M,M,M,M,M,M,M,M,84.54,KBAM 222335Z AUTO 00000KT 10SM CLR 32/M07 A3004 RMK AO1,M
HTH,2022-06-22 23:35,-118.6315,38.5448,1282.89,86.00,26.60,11.55,170.00,23.00,0.00,30.08,M,9.00,30.00,CLR,M,M,M,M,M,M,M,M,M,M,M,M,M,M,82.39,KHTH 222335Z AUTO 17023G30KT 9SM CLR 30/M03 A3008 RMK A01,M
CXP,2022-06-22 23:35,-119.7326,39.1923,1431.00,86.00,15.80,7.31,70.00,6.00,0.00,30.07,M,10.00,M,CLR,M,M,M,M,M,M,M,M,M,M,M,M,M,M,81.78,KCXP 222335Z AUTO 07006KT 10SM CLR 30/M09 A3007 RMK AO2,M
RTS,2022-06-22 23:35,-119.8764,39.6682,1539.00,86.00,14.00,6.75,60.00,9.00,0.00,30.10,M,10.00,M,CLR,M,M,M,M,M,M,M,M,M,M,M,M,M,M,81.71,KRTS 222335Z AUTO 06009KT 10SM CLR 30/M10 A3010 RMK AO2,M
ELY,2022-06-22 23:53,-114.8453,39.2950,1909.00,82.00,19.90,9.92,170.00,12.00,0.00,30.17,1013.40,10.00,17.00,CLR,M,M,M,M,M,M,M,M,M,M,M,M,M,M,79.22,KELY 222353Z AUTO 17012G17KT 10SM CLR 28/M07 A3017 RMK AO2 SLP134 T02781067 10289 20233 56013,M
DRA,2022-06-22 23:53,-116.0278,36.6206,1009.00,79.00,48.00,33.66,310.00,22.00,0.00,30.11,1015.20,10.00,28.00,CLR,M,M,M,M,M,M,M,M,M,M,M,33.00,280.00,2022-06-22 23:07,79.00,KDRA 222353Z AUTO 31022G28KT 10SM CLR 26/09 A3011 RMK AO2 PK WND 28033/2307 SLP152 60000 T02610089 10289 20250 57003,M
VGT,2022-06-22 23:53,-115.1933,36.2111,667.00,93.00,43.00,17.80,300.00,6.00,0.00,29.95,1012.80,10.00,M,FEW,M,M,M,12000.00,M,M,M,M,M,M,M,M,M,M,89.00,KVGT 222353Z 30006KT 10SM FEW120 34/06 A2995 RMK AO2 SLP128 60000 T03390061 10350 20317 56013,M
LOL,2022-06-22 23:53,-118.5701,40.0684,1192.43,90.00,15.10,6.24,190.00,9.00,0.00,30.00,1011.80,10.00,M,CLR,M,M,M,M,M,M,M,M,M,M,M,M,M,M,84.63,KLOL 222353Z AUTO 19009KT 10SM CLR 32/M09 A3000 RMK AO2 SLP118 T03221094 10344 20272 56021,M
P68,2022-06-22 23:53,-116.0056,39.6014,1993.00,83.00,14.00,7.46,250.00,6.00,0.00,30.14,1013.70,M,M,M,M,M,M,M,M,M,M,M,M,M,M,M,M,M,79.54,KP68 222353Z AUTO 25006KT 28/M10 A3014 RMK AO1 SLP137 T02831100 10294 20261 56015,M
MEV,2022-06-22 23:55,-119.7500,38.9963,1441.42,84.20,37.40,18.91,260.00,13.00,0.00,30.06,M,10.00,18.00,CLR,M,M,M,M,M,M,M,M,M,M,M,M,M,M,81.38,KMEV 222355Z AUTO 26013G18KT 10SM CLR 29/03 A3006 RMK AO2,M
05U,2022-06-22 23:55,-116.0051,39.6042,1811.23,84.20,14.00,7.16,M,6.00,0.00,30.16,M,10.00,M,CLR,M,M,M,M,M,M,M,M,M,M,M,M,M,M,80.44,K05U 222355Z AUTO VRB06KT 10SM CLR 29/M10 A3016 RMK A01,M
BVU,2022-06-22 23:55,-114.8611,35.9475,671.00,95.00,39.20,14.44,120.00,8.00,0.00,29.94,M,10.00,M,FEW,M,M,M,12000.00,M,M,M,M,M,M,M,M,M,M,90.57,KBVU 222355Z AUTO 12008KT 10SM FEW120 35/04 A2994 RMK AO2,M
CXP,2022-06-22 23:55,-119.7326,39.1923,1431.00,86.00,14.00,6.75,80.00,5.00,0.00,30.07,M,10.00,11.00,CLR,M,M,M,M,M,M,M,M,M,M,M,M,M,M,81.71,KCXP 222355Z AUTO 08005G11KT 10SM CLR 30/M10 A3007 RMK AO2,M
RNO,2022-06-22 23:55,-119.7711,39.4839,1341.00,91.00,21.90,8.10,M,6.00,0.00,30.03,1011.50,10.00,M,FEW,BKN,M,M,12000.00,25000.00,M,M,M,M,M,M,M,M,M,85.71,KRNO 222355Z VRB06KT 10SM FEW120 BKN250 33/M06 A3003 RMK AO2 SLP115 T03281056 10333 20272 56022,M
RTS,2022-06-22 23:55,-119.8764,39.6682,1539.00,84.20,12.20,6.61,70.00,6.00,0.00,30.10,M,10.00,M,CLR,M,M,M,M,M,M,M,M,M,M,M,M,M,M,80.37,KRTS 222355Z AUTO 07006KT 10SM CLR 29/M11 A3010 RMK AO2,M
TMT,2022-06-22 23:55,-117.1971,39.4643,1749.34,81.00,23.50,11.93,210.00,21.00,0.00,30.17,M,10.00,28.00,CLR,M,M,M,M,M,M,M,M,M,M,M,M,M,M,78.79,KTMT 222355Z AUTO 21021G28KT 10SM CLR 27/M05 A3017 RMK AO2 6//// T02721047,M
HTH,2022-06-22 23:55,-118.6315,38.5448,1282.89,84.20,26.60,12.23,160.00,20.00,0.00,30.09,M,10.00,26.00,CLR,M,M,M,M,M,M,M,M,M,M,M,M,M,M,81.13,KHTH 222355Z AUTO 16020G26KT 10SM CLR 29/M03 A3009 RMK A01,M
BAM,2022-06-22 23:55,-116.8743,40.5990,1382.36,91.40,19.40,7.19,310.00,7.00,0.00,30.04,M,10.00,M,CLR,M,M,M,M,M,M,M,M,M,M,M,M,M,M,85.86,KBAM 222355Z AUTO 31007KT 10SM CLR 33/M07 A3004 RMK AO1,M
HND,2022-06-22 23:56,-115.1344,35.9729,742.79,91.00,45.00,20.45,60.00,6.00,0.00,29.98,1013.30,10.00,M,OVC,M,M,M,11000.00,M,M,M,M,M,M,M,M,M,M,87.35,KHND 222356Z 06006KT 10SM OVC110 33/07 A2998 RMK AO2 SLP133 T03280072 10350 20311 56016,M
NFL,2022-06-22 23:56,-118.7010,39.4166,1199.00,90.00,15.10,6.24,220.00,5.00,0.00,30.01,1013.20,10.00,M,FEW,SCT,BKN,BKN,8000.00,12000.00,18000.00,25000.00,M,M,M,M,M,M,M,84.63,KNFL 222356Z 22005KT 10SM FEW080 SCT120 BKN180 BKN250 32/M09 A3001 RMK AO2 SLP132 T03221094 10333 20256 56023,M
EKO,2022-06-22 23:56,-115.7860,40.8242,1367.00,87.00,18.00,7.76,0.00,0.00,0.00,30.08,1013.80,10.00,M,CLR,M,M,M,M,M,M,M,M,M,M,M,M,M,M,82.66,KEKO 222356Z AUTO 00000KT 10SM CLR 31/M08 A3008 RMK AO2 SLP138 T03061078 10317 20272 56017,M
TPH,2022-06-22 23:56,-117.0904,38.0505,1654.00,65.00,48.00,54.26,210.00,12.00,T,30.26,1019.80,10.00,M,FEW,FEW,BKN,M,7500.00,8500.00,11000.00,M,M,M,M,M,M,M,M,64.90,KTPH 222356Z AUTO 21012KT 10SM FEW075 FEW085 BKN110 18/09 A3026 RMK AO2 RAE10 SLP198 P0000 60000 T01830089 10261 20172 50001,M
LAS,2022-06-22 23:56,-115.1634,36.0719,663.00,93.00,43.00,17.80,50.00,9.00,0.00,29.95,1011.00,10.00,M,FEW,BKN,BKN,BKN,8000.00,11000.00,15000.00,22000.00,M,M,M,M,M,M,M,89.00,KLAS 222356Z 05009KT 10SM FEW080 BKN110 BKN150 BKN220 34/06 A2995 RMK AO2 SLP110 SH OV MTNS SE-SW-NW CB DSNT SE-SW-NW 60000 T03390061 10344 20317 56016,M
WMC,2022-06-22 23:56,-117.8072,40.9019,1315.00,92.00,21.00,7.58,300.00,12.00,0.00,30.02,1012.00,10.00,16.00,CLR,M,M,M,M,M,M,M,M,M,M,M,M,M,M,86.32,KWMC 222356Z AUTO 30012G16KT 10SM CLR 33/M06 A3002 RMK AO2 SLP120 T03331061 10350 20272 56020,M
INS,2022-06-22 23:58,-115.6733,36.5872,955.00,81.50,45.00,27.80,270.00,24.00,0.00,30.07,1014.00,10.00,30.00,FEW,OVC,M,M,11000.00,16000.00,M,M,M,M,M,M,31.00,250.00,2022-06-22 23:47,79.98,KINS 222358Z AUTO 27024G30KT 10SM FEW110 OVC160 28/07 A3007 RMK AO2 PK WND 25031/47 SLP140 60000 T02750073 10302 20275 55009 $,M
LSV,2022-06-22 23:58,-115.0343,36.2362,570.00,94.50,42.80,16.86,120.00,8.00,0.00,29.92,1010.60,10.00,M,BKN,BKN,M,M,15000.00,19000.00,M,M,M,M,M,M,M,M,M,90.39,KLSV 222358Z AUTO 12008KT 10SM BKN150 BKN190 35/06 A2992 RMK AO2 SLP106 T03470060 10357 20339 57015 $,M
