station,valid,lon,lat,elevation,tmpf,dwpf,relh,drct,sknt,p01i,alti,mslp,vsby,gust,skyc1,skyc2,skyc3,skyc4,skyl1,skyl2,skyl3,skyl4,wxcodes,ice_accretion_1hr,ice_accretion_3hr,ice_accretion_6hr,peak_wind_gust,peak_wind_drct,peak_wind_time,feel,metar,snowdepth
ELY,2022-06-29 00:05,-114.8453,39.2950,1909.00,88.00,35.00,15.29,220.00,19.00,0.00,30.20,M,2.50,34.00,FEW,M,M,M,200.00,M,M,M,HZ,M,M,M,34.00,210.00,2022-06-29 00:00,84.28,KELY 290005Z AUTO 22019G34KT 2 1/2SM HZ FEW002 31/02 A3020 RMK AO2 PK WND 21034/0000 VIS 3/4V5 T03110017,M
ELY,2022-06-29 00:12,-114.8453,39.2950,1909.00,88.00,35.00,15.29,210.00,21.00,0.00,30.20,M,4.00,30.00,FEW,M,M,M,200.00,M,M,M,HZ,M,M,M,34.00,210.00,2022-06-29 00:00,84.28,KELY 290012Z AUTO 21021G30KT 4SM HZ FEW002 31/02 A3020 RMK AO2 PK WND 21034/0000 T03110017,M
BVU,2022-06-29 00:15,-114.8611,35.9475,671.00,105.80,41.00,11.18,250.00,10.00,0.00,29.89,M,10.00,16.00,CLR,M,M,M,M,M,M,M,M,M,M,M,M,M,M,100.56,KBVU 290015Z AUTO 25010G16KT 10SM CLR 41/05 A2989 RMK AO2,M
RTS,2022-06-29 00:15,-119.8764,39.6682,1539.00,86.00,24.80,10.72,230.00,17.00,0.00,30.19,M,10.00,24.00,CLR,M,M,M,M,M,M,M,M,M,M,M,M,M,M,82.26,KRTS 290015Z AUTO 23017G24KT 10SM CLR 30/M04 A3019 RMK AO2,M
MEV,2022-06-29 00:15,-119.7500,38.9963,1441.42,87.80,32.00,13.59,270.00,21.00,0.00,30.14,M,10.00,M,CLR,M,M,M,M,M,M,M,M,M,M,M,M,M,M,84.08,KMEV 290015Z AUTO 27021KT 10SM CLR 31/M00 A3014 RMK AO2,M
BAM,2022-06-29 00:15,-116.8743,40.5990,1382.36,M,M,M,270.00,17.00,0.00,30.07,M,10.00,25.00,CLR,M,M,M,M,M,M,M,M,M,M,M,M,M,M,M,KBAM 290015Z AUTO 27017G25KT 10SM CLR A3007 RMK AO1,M
HTH,2022-06-29 00:15,-118.6315,38.5448,1282.89,98.60,24.80,7.24,210.00,9.00,0.00,30.01,M,10.00,14.00,CLR,M,M,M,M,M,M,M,M,M,M,M,M,M,M,91.90,KHTH 290015Z AUTO 21009G14KT 10SM CLR 37/M04 A3001 RMK A01,M
TMT,2022-06-29 00:15,-117.1971,39.4643,1749.34,M,M,M,260.00,12.00,0.00,30.15,M,10.00,21.00,CLR,M,M,M,M,M,M,M,M,M,M,M,M,M,M,M,KTMT 290015Z AUTO 26012G21KT 10SM CLR A3015 RMK AO2,M
BVU,2022-06-29 00:35,-114.8611,35.9475,671.00,105.80,39.20,10.43,250.00,11.00,0.00,29.88,M,10.00,M,CLR,M,M,M,M,M,M,M,M,M,M,M,M,M,M,100.14,KBVU 290035Z AUTO 25011KT 10SM CLR 41/04 A2988 RMK AO2,M
MEV,2022-06-29 00:35,-119.7500,38.9963,1441.42,87.80,32.00,13.59,270.00,11.00,0.00,30.14,M,10.00,21.00,CLR,M,M,M,M,M,M,M,M,M,M,M,M,M,M,84.08,KMEV 290035Z AUTO 27011G21KT 10SM CLR 31/M00 A3014 RMK AO2,M
BAM,2022-06-29 00:35,-116.8743,40.5990,1382.36,M,M,M,270.00,20.00,0.00,30.06,M,10.00,24.00,CLR,M,M,M,M,M,M,M,M,M,M,M,M,M,M,M,KBAM 290035Z AUTO 27020G24KT 10SM CLR A3006 RMK AO1,M
HTH,2022-06-29 00:35,-118.6315,38.5448,1282.89,98.60,24.80,7.24,M,4.00,0.00,30.01,M,10.00,15.00,CLR,M,M,M,M,M,M,M,M,M,M,M,M,M,M,91.90,KHTH 290035Z AUTO VRB04G15KT 10SM CLR 37/M04 A3001 RMK A01,M
RTS,2022-06-29 00:35,-119.8764,39.6682,1539.00,84.20,24.80,11.35,230.00,14.00,0.00,30.18,M,10.00,21.00,CLR,M,M,M,M,M,M,M,M,M,M,M,M,M,M,81.00,KRTS 290035Z AUTO 23014G21KT 10SM CLR 29/M04 A3018 RMK AO2,M
TMT,2022-06-29 00:35,-117.1971,39.4643,1749.34,91.00,31.80,12.23,280.00,14.00,0.00,30.15,M,10.00,23.00,CLR,M,M,M,M,M,M,M,M,M,M,M,M,M,M,86.51,KTMT 290035Z AUTO 28014G23KT 10SM CLR 33/00 A3015 RMK AO2 T03271001,M
P68,2022-06-29 00:53,-116.0056,39.6014,1993.00,92.00,24.10,8.64,240.00,14.00,0.00,30.12,1010.90,M,24.00,M,M,M,M,M,M,M,M,M,M,M,M,M,M,M,86.53,KP68 290053Z AUTO 24014G24KT 33/M04 A3012 RMK AO1 SLP109 T03331044,M
ELY,2022-06-29 00:53,-114.8453,39.2950,1909.00,87.00,34.00,15.06,190.00,22.00,0.00,30.18,1010.70,10.00,30.00,CLR,M,M,M,M,M,M,M,M,M,M,M,34.00,210.00,2022-06-29 00:00,83.53,KELY 290053Z AUTO 19022G30KT 10SM CLR 31/01 A3018 RMK AO2 PK WND 21034/0000 SLP107 T03060011,M
VGT,2022-06-29 00:53,-115.1933,36.2111,667.00,106.00,45.00,12.96,170.00,12.00,0.00,29.86,1009.50,10.00,M,CLR,M,M,M,M,M,M,M,M,M,M,M,M,M,M,101.83,KVGT 290053Z 17012KT 10SM CLR 41/07 A2986 RMK AO2 SLP095 T04110072,M
LOL,2022-06-29 00:53,-118.5701,40.0684,1192.43,95.00,26.10,8.53,270.00,20.00,0.00,30.00,1012.30,10.00,29.00,CLR,M,M,M,M,M,M,M,M,M,M,M,33.00,280.00,2022-06-29 00:28,89.03,KLOL 290053Z AUTO 27020G29KT 10SM CLR 35/M03 A3000 RMK AO2 PK WND 28033/0028 SLP123 T03501033,M
DRA,2022-06-29 00:53,-116.0278,36.6206,1009.00,103.00,35.00,9.67,240.00,15.00,0.00,29.95,1008.10,10.00,22.00,CLR,M,M,M,M,M,M,M,M,M,M,M,26.00,260.00,2022-06-29 00:35,96.82,KDRA 290053Z AUTO 24015G22KT 10SM CLR 39/02 A2995 RMK AO2 PK WND 26026/0035 SLP081 T03940017,M
BVU,2022-06-29 00:55,-114.8611,35.9475,671.00,104.00,41.00,11.79,250.00,10.00,0.00,29.87,M,10.00,M,CLR,M,M,M,M,M,M,M,M,M,M,M,M,M,M,98.97,KBVU 290055Z AUTO 25010KT 10SM CLR 40/05 A2987 RMK AO2,M
RNO,2022-06-29 00:55,-119.7711,39.4839,1341.00,88.00,36.00,15.85,260.00,9.00,0.00,30.11,1014.10,10.00,17.00,CLR,M,M,M,M,M,M,M,M,M,M,M,M,M,M,84.29,KRNO 290055Z 26009G17KT 10SM CLR 31/02 A3011 RMK AO2 SLP141 T03110022,M
RTS,2022-06-29 00:55,-119.8764,39.6682,1539.00,84.20,28.40,13.18,230.00,14.00,0.00,30.18,M,10.00,21.00,CLR,M,M,M,M,M,M,M,M,M,M,M,M,M,M,81.25,KRTS 290055Z AUTO 23014G21KT 10SM CLR 29/M02 A3018 RMK AO2,M
MEV,2022-06-29 00:55,-119.7500,38.9963,1441.42,86.00,33.80,15.48,270.00,17.00,0.00,30.14,M,10.00,M,CLR,M,M,M,M,M,M,M,M,M,M,M,M,M,M,82.66,KMEV 290055Z AUTO 27017KT 10SM CLR 30/01 A3014 RMK AO2,M
BAM,2022-06-29 00:55,-116.8743,40.5990,1382.36,M,M,M,270.00,14.00,0.00,30.05,M,10.00,25.00,CLR,M,M,M,M,M,M,M,M,M,M,M,M,M,M,M,KBAM 290055Z AUTO 27014G25KT 10SM CLR A3005 RMK AO1,M
HTH,2022-06-29 00:55,-118.6315,38.5448,1282.89,96.80,26.60,8.24,230.00,17.00,0.00,30.00,M,10.00,24.00,CLR,M,M,M,M,M,M,M,M,M,M,M,M,M,M,90.57,KHTH 290055Z AUTO 23017G24KT 10SM CLR 36/M03 A3000 RMK A01,M
TMT,2022-06-29 00:55,-117.1971,39.4643,1749.34,88.50,32.00,13.30,260.00,13.00,0.00,30.14,M,10.00,23.00,CLR,M,M,M,M,M,M,M,M,M,M,M,M,M,M,84.65,KTMT 290055Z AUTO 26013G23KT 10SM CLR 31/00 A3014 RMK AO2 T03140000,M
EKO,2022-06-29 00:56,-115.7860,40.8242,1367.00,93.00,24.10,8.35,280.00,16.00,0.00,30.06,1011.00,10.00,25.00,CLR,M,M,M,M,M,M,M,M,M,M,M,30.00,290.00,2022-06-29 00:13,87.36,KEKO 290056Z AUTO 28016G25KT 10SM CLR 34/M04 A3006 RMK AO2 PK WND 29030/0013 SLP110 T03391044,M
WMC,2022-06-29 00:56,-117.8072,40.9019,1315.00,95.00,23.00,7.49,270.00,20.00,0.00,30.03,1011.40,10.00,27.00,CLR,M,M,M,M,M,M,M,M,M,M,M,38.00,240.00,2022-06-29 00:03,88.76,KWMC 290056Z AUTO 27020G27KT 10SM CLR 35/M05 A3003 RMK AO2 PK WND 24038/0003 SLP114 T03501050,M
NFL,2022-06-29 00:56,-118.7010,39.4166,1199.00,95.00,28.90,9.57,280.00,18.00,0.00,30.01,1013.10,10.00,27.00,FEW,FEW,M,M,8000.00,12000.00,M,M,M,M,M,M,28.00,280.00,2022-06-29 00:41,89.32,KNFL 290056Z 28018G27KT 10SM FEW080 FEW120 35/M02 A3001 RMK PK WND 28028/0041 SLP131 BLDU DSNT NE-E T03501017,M
HND,2022-06-29 00:56,-115.1344,35.9729,742.79,103.00,47.00,15.27,210.00,4.00,0.00,29.92,1010.90,10.00,M,CLR,M,M,M,M,M,M,M,M,M,M,M,M,M,M,99.23,KHND 290056Z AUTO 21004KT 10SM CLR 39/08 A2992 RMK AO2 SLP109 T03940083,M
LAS,2022-06-29 00:56,-115.1634,36.0719,663.00,105.00,44.00,12.86,200.00,5.00,0.00,29.87,1008.30,10.00,M,SCT,SCT,M,M,12000.00,25000.00,M,M,M,M,M,M,M,M,M,100.75,KLAS 290056Z 20005KT 10SM SCT120 SCT250 41/07 A2987 RMK AO2 SLP083 CB DSNT NE-SE T04060067,M
INS,2022-06-29 00:58,-115.6733,36.5872,955.00,99.70,35.80,10.95,90.00,7.00,0.00,29.93,1008.00,10.00,M,SCT,M,M,M,16000.00,M,M,M,M,M,M,M,M,M,M,94.19,KINS 290058Z AUTO 09007KT 10SM SCT160 38/02 A2993 RMK AO2 SLP080 T03760021 $,M
LSV,2022-06-29 00:58,-115.0343,36.2362,570.00,106.70,43.30,11.90,200.00,12.00,0.00,29.83,1007.20,10.00,M,M,M,M,M,M,M,M,M,M,M,M,M,M,M,M,101.96,KLSV 290058Z AUTO 20012KT 10SM M 42/06 A2983 RMK AO2 SLP072 T04150063 $,M
LAS,2022-06-29 01:12,-115.1634,36.0719,663.00,105.00,44.00,12.86,190.00,6.00,0.00,29.87,M,10.00,M,SCT,SCT,M,M,12000.00,22000.00,M,M,M,M,M,M,M,M,M,100.75,KLAS 290112Z 19006KT 10SM SCT120 SCT220 41/07 A2987 RMK AO2 CB DSNT NE-SE T04060067 $,M
BVU,2022-06-29 01:15,-114.8611,35.9475,671.00,104.00,41.00,11.79,260.00,9.00,0.00,29.87,M,10.00,M,CLR,M,M,M,M,M,M,M,M,M,M,M,M,M,M,98.97,KBVU 290115Z AUTO 26009KT 10SM CLR 40/05 A2987 RMK AO2,M
RTS,2022-06-29 01:15,-119.8764,39.6682,1539.00,82.40,28.40,13.96,230.00,14.00,0.00,30.18,M,10.00,22.00,CLR,M,M,M,M,M,M,M,M,M,M,M,M,M,M,79.94,KRTS 290115Z AUTO 23014G22KT 10SM CLR 28/M02 A3018 RMK AO2,M
MEV,2022-06-29 01:15,-119.7500,38.9963,1441.42,84.20,32.00,15.25,260.00,13.00,0.00,30.14,M,10.00,23.00,CLR,M,M,M,M,M,M,M,M,M,M,M,M,M,M,81.28,KMEV 290115Z AUTO 26013G23KT 10SM CLR 29/00 A3014 RMK AO2,M
BAM,2022-06-29 01:15,-116.8743,40.5990,1382.36,M,M,M,270.00,19.00,0.00,30.04,M,10.00,24.00,CLR,M,M,M,M,M,M,M,M,M,M,M,M,M,M,M,KBAM 290115Z AUTO 27019G24KT 10SM CLR A3004 RMK AO1,M
HTH,2022-06-29 01:15,-118.6315,38.5448,1282.89,96.80,26.60,8.24,260.00,19.00,0.00,30.00,M,10.00,M,CLR,M,M,M,M,M,M,M,M,M,M,M,M,M,M,90.57,KHTH 290115Z AUTO 26019KT 10SM CLR 36/M03 A3000 RMK A01,M
TMT,2022-06-29 01:15,-117.1971,39.4643,1749.34,87.80,32.00,13.59,270.00,12.00,0.00,30.15,M,10.00,18.00,CLR,M,M,M,M,M,M,M,M,M,M,M,M,M,M,84.08,KTMT 290115Z AUTO 27012G18KT 10SM CLR 31/00 A3015 RMK AO2 T03100000,M
BVU,2022-06-29 01:35,-114.8611,35.9475,671.00,104.00,41.00,11.79,250.00,7.00,0.00,29.87,M,10.00,M,CLR,M,M,M,M,M,M,M,M,M,M,M,M,M,M,98.97,KBVU 290135Z AUTO 25007KT 10SM CLR 40/05 A2987 RMK AO2,M
RTS,2022-06-29 01:35,-119.8764,39.6682,1539.00,82.40,30.20,15.03,260.00,17.00,0.00,30.18,M,10.00,22.00,CLR,M,M,M,M,M,M,M,M,M,M,M,M,M,M,79.97,KRTS 290135Z AUTO 26017G22KT 10SM CLR 28/M01 A3018 RMK AO2,M
MEV,2022-06-29 01:35,-119.7500,38.9963,1441.42,84.20,32.00,15.25,270.00,14.00,0.00,30.14,M,10.00,22.00,CLR,M,M,M,M,M,M,M,M,M,M,M,M,M,M,81.28,KMEV 290135Z AUTO 27014G22KT 10SM CLR 29/00 A3014 RMK AO2,M
BAM,2022-06-29 01:35,-116.8743,40.5990,1382.36,M,M,M,270.00,11.00,0.00,30.04,M,10.00,20.00,CLR,M,M,M,M,M,M,M,M,M,M,M,M,M,M,M,KBAM 290135Z AUTO 27011G20KT 10SM CLR A3004 RMK AO1,M
HTH,2022-06-29 01:35,-118.6315,38.5448,1282.89,95.00,28.40,9.38,250.00,17.00,0.00,30.00,M,10.00,26.00,CLR,M,M,M,M,M,M,M,M,M,M,M,M,M,M,89.27,KHTH 290135Z AUTO 25017G26KT 10SM CLR 35/M02 A3000 RMK A01,M
TMT,2022-06-29 01:35,-117.1971,39.4643,1749.34,87.80,31.80,13.49,280.00,10.00,0.00,30.15,M,10.00,M,SCT,M,M,M,11000.00,M,M,M,M,M,M,M,M,M,M,84.08,KTMT 290135Z AUTO 28010KT 10SM SCT110 31/00 A3015 RMK AO2 T03101001,M
P68,2022-06-29 01:53,-116.0056,39.6014,1993.00,91.00,21.90,8.10,280.00,11.00,0.00,30.11,1009.90,M,20.00,M,M,M,M,M,M,M,M,M,M,M,M,M,M,M,85.71,KP68 290153Z AUTO 28011G20KT 33/M06 A3011 RMK AO1 SLP099 T03281056,M
DRA,2022-06-29 01:53,-116.0278,36.6206,1009.00,101.00,37.00,11.07,230.00,12.00,0.00,29.94,1008.00,10.00,23.00,CLR,M,M,M,M,M,M,M,M,M,M,M,M,M,M,95.43,KDRA 290153Z AUTO 23012G23KT 10SM CLR 38/03 A2994 RMK AO2 SLP080 T03830028,M
LOL,2022-06-29 01:53,-118.5701,40.0684,1192.43,92.00,28.90,10.54,270.00,21.00,0.00,30.02,1012.10,10.00,29.00,CLR,M,M,M,M,M,M,M,M,M,M,M,30.00,270.00,2022-06-29 01:30,86.95,KLOL 290153Z AUTO 27021G29KT 10SM CLR 33/M02 A3002 RMK AO2 PK WND 27030/0130 SLP121 T03331017,M
ELY,2022-06-29 01:53,-114.8453,39.2950,1909.00,85.00,34.00,16.16,210.00,13.00,0.00,30.19,1010.20,10.00,M,CLR,M,M,M,M,M,M,M,M,M,M,M,30.00,190.00,2022-06-29 00:55,81.82,KELY 290153Z AUTO 21013KT 10SM CLR 29/01 A3019 RMK AO2 PK WND 19030/0055 SLP102 T02940011,M
VGT,2022-06-29 01:53,-115.1933,36.2111,667.00,106.00,44.00,12.52,200.00,8.00,0.00,29.86,1009.20,10.00,M,CLR,M,M,M,M,M,M,M,M,M,M,M,M,M,M,101.56,KVGT 290153Z 20008KT 10SM CLR 41/07 A2986 RMK AO2 SLP092 T04110067,M
BVU,2022-06-29 01:55,-114.8611,35.9475,671.00,104.00,42.80,12.64,230.00,7.00,0.00,29.87,M,10.00,M,CLR,M,M,M,M,M,M,M,M,M,M,M,M,M,M,99.42,KBVU 290155Z AUTO 23007KT 10SM CLR 40/06 A2987 RMK AO2,M
RNO,2022-06-29 01:55,-119.7711,39.4839,1341.00,86.00,36.00,16.89,280.00,13.00,0.00,30.12,1014.00,10.00,M,CLR,M,M,M,M,M,M,M,M,M,M,M,M,M,M,82.70,KRNO 290155Z 28013KT 10SM CLR 30/02 A3012 RMK AO2 SLP140 T03000022,M
RTS,2022-06-29 01:55,-119.8764,39.6682,1539.00,80.60,28.40,14.81,280.00,16.00,0.00,30.18,M,10.00,M,CLR,M,M,M,M,M,M,M,M,M,M,M,M,M,M,78.72,KRTS 290155Z AUTO 28016KT 10SM CLR 27/M02 A3018 RMK AO2,M
MEV,2022-06-29 01:55,-119.7500,38.9963,1441.42,82.40,32.00,16.17,280.00,14.00,0.00,30.14,M,10.00,23.00,CLR,M,M,M,M,M,M,M,M,M,M,M,M,M,M,80.00,KMEV 290155Z AUTO 28014G23KT 10SM CLR 28/00 A3014 RMK AO2,M
BAM,2022-06-29 01:55,-116.8743,40.5990,1382.36,M,M,M,270.00,12.00,0.00,30.04,M,10.00,19.00,CLR,M,M,M,M,M,M,M,M,M,M,M,M,M,M,M,KBAM 290155Z AUTO 27012G19KT 10SM CLR A3004 RMK AO1,M
HTH,2022-06-29 01:55,-118.6315,38.5448,1282.89,95.00,28.40,9.38,250.00,16.00,0.00,30.01,M,10.00,23.00,CLR,M,M,M,M,M,M,M,M,M,M,M,M,M,M,89.27,KHTH 290155Z AUTO 25016G23KT 10SM CLR 35/M02 A3001 RMK A01,M
TMT,2022-06-29 01:55,-117.1971,39.4643,1749.34,88.70,32.00,13.21,260.00,11.00,0.00,30.15,M,10.00,M,SCT,SCT,M,M,100.00,11000.00,M,M,M,M,M,M,M,M,M,84.82,KTMT 290155Z AUTO 26011KT 10SM SCT001 SCT110 32/00 A3015 RMK AO2 LTG DSNT E T03150000,M
EKO,2022-06-29 01:56,-115.7860,40.8242,1367.00,91.00,23.00,8.49,280.00,16.00,0.00,30.06,1011.00,10.00,M,CLR,M,M,M,M,M,M,M,M,M,M,M,27.00,290.00,2022-06-29 01:36,85.79,KEKO 290156Z AUTO 28016KT 10SM CLR 33/M05 A3006 RMK AO2 PK WND 29027/0136 SLP110 T03281050,M
WMC,2022-06-29 01:56,-117.8072,40.9019,1315.00,91.00,26.10,9.66,270.00,17.00,0.00,30.03,1011.60,10.00,31.00,CLR,M,M,M,M,M,M,M,M,M,M,M,31.00,260.00,2022-06-29 01:56,86.02,KWMC 290156Z AUTO 27017G31KT 10SM CLR 33/M03 A3003 RMK AO2 PK WND 26031/0156 SLP116 T03281033,M
NFL,2022-06-29 01:56,-118.7010,39.4166,1199.00,91.00,30.00,11.33,280.00,20.00,0.00,30.02,1013.50,10.00,29.00,FEW,M,M,M,8000.00,M,M,M,M,M,M,M,30.00,270.00,2022-06-29 01:16,86.38,KNFL 290156Z 28020G29KT 10SM FEW080 33/M01 A3002 RMK AO2 PK WND 27030/0116 SLP135 BLDU DSNT NE T03281011,M
HND,2022-06-29 01:56,-115.1344,35.9729,742.79,103.00,48.00,15.91,210.00,5.00,0.00,29.92,1010.90,10.00,M,CLR,M,M,M,M,M,M,M,M,M,M,M,M,M,M,99.49,KHND 290156Z AUTO 21005KT 10SM CLR 39/09 A2992 RMK AO2 SLP109 T03940089,M
LAS,2022-06-29 01:56,-115.1634,36.0719,663.00,104.00,46.00,14.28,190.00,6.00,0.00,29.87,1008.20,10.00,M,BKN,BKN,M,M,12000.00,22000.00,M,M,M,M,M,M,M,M,M,100.12,KLAS 290156Z 19006KT 10SM BKN120 BKN220 40/08 A2987 RMK AO2 SLP082 CB DSNT NE-SE T04000078 $,M
INS,2022-06-29 01:58,-115.6733,36.5872,955.00,99.00,35.20,10.92,110.00,3.00,0.00,29.93,1007.90,10.00,M,BKN,M,M,M,14000.00,M,M,M,M,M,M,M,M,M,M,93.50,KINS 290158Z AUTO 11003KT 10SM BKN140 37/02 A2993 RMK AO2 SLP079 T03720018 $,M
LSV,2022-06-29 01:58,-115.0343,36.2362,570.00,107.00,41.20,10.91,200.00,10.00,0.00,29.82,1006.70,10.00,M,SCT,M,M,M,19000.00,M,M,M,M,M,M,M,M,M,M,101.58,KLSV 290158Z AUTO 20010KT 10SM SCT190 42/05 A2982 RMK AO2 SLP067 T04160051 $,M
WMC,2022-06-29 02:06,-117.8072,40.9019,1315.00,89.00,28.90,11.50,280.00,17.00,0.00,30.04,M,2.50,26.00,BKN,M,M,M,2600.00,M,M,M,HZ,M,M,M,26.00,280.00,2022-06-29 01:58,84.84,KWMC 290206Z AUTO 28017G26KT 2 1/2SM HZ BKN026 32/M02 A3004 RMK AO2 PK WND 28026/0158 T03171017,M
BVU,2022-06-29 02:15,-114.8611,35.9475,671.00,102.20,42.80,13.34,230.00,4.00,0.00,29.87,M,10.00,M,CLR,M,M,M,M,M,M,M,M,M,M,M,M,M,M,97.76,KBVU 290215Z AUTO 23004KT 10SM CLR 39/06 A2987 RMK AO2,M
RTS,2022-06-29 02:15,-119.8764,39.6682,1539.00,80.60,28.40,14.81,280.00,12.00,0.00,30.19,M,10.00,20.00,CLR,M,M,M,M,M,M,M,M,M,M,M,M,M,M,78.72,KRTS 290215Z AUTO 28012G20KT 10SM CLR 27/M02 A3019 RMK AO2,M
MEV,2022-06-29 02:15,-119.7500,38.9963,1441.42,82.40,33.80,17.38,260.00,13.00,0.00,30.15,M,10.00,19.00,CLR,M,M,M,M,M,M,M,M,M,M,M,M,M,M,80.03,KMEV 290215Z AUTO 26013G19KT 10SM CLR 28/01 A3015 RMK AO2,M
BAM,2022-06-29 02:15,-116.8743,40.5990,1382.36,M,M,M,270.00,11.00,0.00,30.03,M,10.00,19.00,CLR,M,M,M,M,M,M,M,M,M,M,M,M,M,M,M,KBAM 290215Z AUTO 27011G19KT 10SM CLR A3003 RMK AO1,M
HTH,2022-06-29 02:15,-118.6315,38.5448,1282.89,93.20,28.40,9.91,260.00,16.00,0.00,30.01,M,10.00,M,CLR,M,M,M,M,M,M,M,M,M,M,M,M,M,M,87.89,KHTH 290215Z AUTO 26016KT 10SM CLR 34/M02 A3001 RMK A01,M
TMT,2022-06-29 02:15,-117.1971,39.4643,1749.34,86.20,32.00,14.30,270.00,9.00,0.00,30.16,M,10.00,27.00,SCT,M,M,M,11000.00,M,M,M,M,M,M,M,M,M,M,82.80,KTMT 290215Z AUTO 27009G27KT 10SM SCT110 30/00 A3016 RMK AO2 T03010000,M
WMC,2022-06-29 02:33,-117.8072,40.9019,1315.00,88.00,28.00,11.48,280.00,16.00,0.00,30.04,M,3.00,25.00,OVC,M,M,M,2700.00,M,M,M,HZ,M,M,M,27.00,270.00,2022-06-29 02:12,83.95,KWMC 290233Z AUTO 28016G25KT 3SM HZ OVC027 31/M02 A3004 RMK AO2 PK WND 27027/0212 T03111022,M
BVU,2022-06-29 02:35,-114.8611,35.9475,671.00,102.20,42.80,13.34,160.00,4.00,0.00,29.88,M,10.00,M,CLR,M,M,M,M,M,M,M,M,M,M,M,M,M,M,97.76,KBVU 290235Z AUTO 16004KT 10SM CLR 39/06 A2988 RMK AO2,M
RTS,2022-06-29 02:35,-119.8764,39.6682,1539.00,78.80,28.40,15.71,260.00,14.00,0.00,30.19,M,10.00,M,CLR,M,M,M,M,M,M,M,M,M,M,M,M,M,M,78.80,KRTS 290235Z AUTO 26014KT 10SM CLR 26/M02 A3019 RMK AO2,M
MEV,2022-06-29 02:35,-119.7500,38.9963,1441.42,80.60,32.00,17.14,260.00,16.00,0.00,30.15,M,10.00,M,CLR,M,M,M,M,M,M,M,M,M,M,M,M,M,M,78.82,KMEV 290235Z AUTO 26016KT 10SM CLR 27/00 A3015 RMK AO2,M
BAM,2022-06-29 02:35,-116.8743,40.5990,1382.36,M,M,M,280.00,10.00,0.00,30.04,M,10.00,14.00,CLR,M,M,M,M,M,M,M,M,M,M,M,M,M,M,M,KBAM 290235Z AUTO 28010G14KT 10SM CLR A3004 RMK AO1,M
HTH,2022-06-29 02:35,-118.6315,38.5448,1282.89,91.40,28.40,10.48,250.00,20.00,0.00,30.01,M,10.00,25.00,CLR,M,M,M,M,M,M,M,M,M,M,M,M,M,M,86.53,KHTH 290235Z AUTO 25020G25KT 10SM CLR 33/M02 A3001 RMK A01,M
TMT,2022-06-29 02:35,-117.1971,39.4643,1749.34,85.50,30.00,13.49,300.00,15.00,0.00,30.15,M,10.00,19.00,SCT,M,M,M,11000.00,M,M,M,M,M,M,M,M,M,M,82.25,KTMT 290235Z AUTO 30015G19KT 10SM SCT110 30/M01 A3015 RMK AO2 T02971011,M
INS,2022-06-29 02:39,-115.6733,36.5872,955.00,98.60,35.60,11.23,210.00,11.00,0.00,29.93,1007.70,10.00,M,OVC,M,M,M,13000.00,M,M,M,M,M,M,M,M,M,M,93.23,KINS 290239Z AUTO 21011KT 10SM OVC130 37/02 A2993 RMK AO2 WSHFT 25 SLP077 $,M
P68,2022-06-29 02:53,-116.0056,39.6014,1993.00,84.00,23.00,10.60,320.00,9.00,0.00,30.13,1010.20,M,M,M,M,M,M,M,M,M,M,M,M,M,M,M,M,M,80.75,KP68 290253Z AUTO 32009KT 29/M05 A3013 RMK AO1 SLP102 T02891050 55001,M
ELY,2022-06-29 02:53,-114.8453,39.2950,1909.00,80.00,36.00,20.44,240.00,17.00,0.00,30.21,1010.80,10.00,23.00,CLR,M,M,M,M,M,M,M,M,M,M,M,M,M,M,78.77,KELY 290253Z AUTO 24017G23KT 10SM CLR 27/02 A3021 RMK AO2 SLP108 T02670022 53004,M
DRA,2022-06-29 02:53,-116.0278,36.6206,1009.00,98.00,36.00,11.58,220.00,13.00,0.00,29.95,1008.00,10.00,M,CLR,M,M,M,M,M,M,M,M,M,M,M,M,M,M,92.87,KDRA 290253Z AUTO 22013KT 10SM CLR 37/02 A2995 RMK AO2 SLP080 T03670022 55005,M
VGT,2022-06-29 02:53,-115.1933,36.2111,667.00,105.00,46.00,13.82,200.00,6.00,0.00,29.86,1009.30,10.00,M,CLR,M,M,M,M,M,M,M,M,M,M,M,M,M,M,101.20,KVGT 290253Z 20006KT 10SM CLR 41/08 A2986 RMK AO2 SLP093 T04060078 55007,M
LOL,2022-06-29 02:53,-118.5701,40.0684,1192.43,88.00,33.00,14.12,290.00,14.00,0.00,30.03,1012.30,10.00,M,CLR,M,M,M,M,M,M,M,M,M,M,M,27.00,270.00,2022-06-29 01:56,84.25,KLOL 290253Z AUTO 29014KT 10SM CLR 31/01 A3003 RMK AO2 PK WND 27027/0156 SLP123 T03110006 53007,M
BVU,2022-06-29 02:55,-114.8611,35.9475,671.00,100.40,44.60,15.08,130.00,5.00,0.00,29.88,M,10.00,M,CLR,M,M,M,M,M,M,M,M,M,M,M,M,M,M,96.31,KBVU 290255Z AUTO 13005KT 10SM CLR 38/07 A2988 RMK AO2,M
RTS,2022-06-29 02:55,-119.8764,39.6682,1539.00,78.80,26.60,14.59,250.00,12.00,0.00,30.19,M,10.00,17.00,CLR,M,M,M,M,M,M,M,M,M,M,M,M,M,M,78.80,KRTS 290255Z AUTO 25012G17KT 10SM CLR 26/M03 A3019 RMK AO2,M
MEV,2022-06-29 02:55,-119.7500,38.9963,1441.42,78.80,32.00,18.18,270.00,10.00,0.00,30.15,M,10.00,17.00,CLR,M,M,M,M,M,M,M,M,M,M,M,M,M,M,78.80,KMEV 290255Z AUTO 27010G17KT 10SM CLR 26/M00 A3015 RMK AO2,M
BAM,2022-06-29 02:55,-116.8743,40.5990,1382.36,M,M,M,300.00,13.00,0.00,30.04,M,10.00,19.00,CLR,M,M,M,M,M,M,M,M,M,M,M,M,M,M,M,KBAM 290255Z AUTO 30013G19KT 10SM CLR A3004 RMK AO1,M
HTH,2022-06-29 02:55,-118.6315,38.5448,1282.89,91.40,28.40,10.48,260.00,22.00,0.00,30.01,M,10.00,M,CLR,M,M,M,M,M,M,M,M,M,M,M,M,M,M,86.53,KHTH 290255Z AUTO 26022KT 10SM CLR 33/M02 A3001 RMK A01,M
TMT,2022-06-29 02:55,-117.1971,39.4643,1749.34,83.80,29.70,14.07,320.00,13.00,0.00,30.16,M,10.00,20.00,CLR,M,M,M,M,M,M,M,M,M,M,M,M,M,M,80.96,KTMT 290255Z AUTO 32013G20KT 10SM CLR 29/M01 A3016 RMK AO2 T02881013,M
RNO,2022-06-29 02:55,-119.7711,39.4839,1341.00,83.00,35.00,18.01,280.00,13.00,0.00,30.13,1014.50,10.00,23.00,CLR,M,M,M,M,M,M,M,M,M,M,M,M,M,M,80.41,KRNO 290255Z 28013G23KT 10SM CLR 28/02 A3013 RMK AO2 SLP145 T02830017 53003,M
EKO,2022-06-29 02:56,-115.7860,40.8242,1367.00,87.00,21.90,9.16,280.00,11.00,0.00,30.07,1010.90,10.00,M,CLR,M,M,M,M,M,M,M,M,M,M,M,M,M,M,82.86,KEKO 290256Z AUTO 28011KT 10SM CLR 31/M06 A3007 RMK AO2 SLP109 T03061056 55005,M
WMC,2022-06-29 02:56,-117.8072,40.9019,1315.00,86.00,27.00,11.74,280.00,16.00,0.00,30.05,1011.90,3.00,24.00,OVC,M,M,M,2900.00,M,M,M,HZ,M,M,M,27.00,270.00,2022-06-29 02:12,82.42,KWMC 290256Z AUTO 28016G24KT 3SM HZ OVC029 30/M03 A3005 RMK AO2 PK WND 27027/0212 SLP119 T03001028 53003,M
LSV,2022-06-29 02:56,-115.0343,36.2362,570.00,104.00,46.40,14.50,200.00,8.00,0.00,29.82,1006.60,10.00,M,BKN,M,M,M,17000.00,M,M,M,M,M,M,M,M,M,M,100.21,KLSV 290256Z 20008KT 10SM BKN170 40/08 A2982 RMK 55007 SLP066 WND DATA ESTMD ALSTG/SLP ESTMD $,M
NFL,2022-06-29 02:56,-118.7010,39.4166,1199.00,87.00,32.00,13.90,300.00,11.00,0.00,30.04,1014.20,10.00,M,FEW,M,M,M,9000.00,M,M,M,M,M,M,M,27.00,270.00,2022-06-29 02:00,83.51,KNFL 290256Z 30011KT 10SM FEW090 31/00 A3004 RMK AO2 PK WND 27027/0200 SLP142 BLDU DSNT NE T03060000 53008,M
LAS,2022-06-29 02:56,-115.1634,36.0719,663.00,103.00,46.00,14.76,190.00,6.00,0.00,29.87,1008.30,10.00,M,BKN,BKN,M,M,12000.00,22000.00,M,M,M,M,M,M,M,M,M,99.04,KLAS 290256Z 19006KT 10SM BKN120 BKN220 39/08 A2987 RMK AO2 SLP083 CB DSNT NE-SE T03940078 $,M
HND,2022-06-29 02:56,-115.1344,35.9729,742.79,100.00,51.00,19.49,190.00,15.00,0.00,29.92,1010.90,10.00,25.00,CLR,M,M,M,M,M,M,M,M,M,M,M,28.00,180.00,2022-06-29 02:44,97.28,KHND 290256Z AUTO 19015G25KT 10SM CLR 38/11 A2992 RMK AO2 PK WND 18028/0244 SLP109 T03780106 55010,M
INS,2022-06-29 02:58,-115.6733,36.5872,955.00,98.20,34.70,10.97,220.00,12.00,0.00,29.94,1008.10,10.00,M,BKN,BKN,M,M,13000.00,16000.00,M,M,M,M,M,M,M,M,M,92.75,KINS 290258Z AUTO 22012KT 10SM BKN130 BKN160 37/02 A2994 RMK AO2 SLP081 T03680015 55006 $,M
HND,2022-06-29 03:08,-115.1344,35.9729,742.79,96.80,53.60,23.55,190.00,21.00,0.00,29.92,M,10.00,32.00,SCT,M,M,M,11000.00,M,M,M,VCTS,M,M,M,32.00,190.00,2022-06-29 03:05,94.59,KHND 290308Z AUTO 19021G32KT 10SM VCTS SCT110 36/12 A2992 RMK AO2 PK WND 19032/0305 TSB02,M
WMC,2022-06-29 03:12,-117.8072,40.9019,1315.00,85.00,26.10,11.72,290.00,14.00,0.00,30.05,M,2.50,22.00,OVC,M,M,M,2700.00,M,M,M,HZ,M,M,M,M,M,M,81.58,KWMC 290312Z AUTO 29014G22KT 2 1/2SM HZ OVC027 29/M03 A3005 RMK AO2 T02941033,M
BVU,2022-06-29 03:15,-114.8611,35.9475,671.00,100.40,44.60,15.08,220.00,6.00,0.00,29.88,M,10.00,12.00,CLR,M,M,M,M,M,M,M,M,M,M,M,M,M,M,96.31,KBVU 290315Z AUTO 22006G12KT 10SM CLR 38/07 A2988 RMK AO2,M
RTS,2022-06-29 03:15,-119.8764,39.6682,1539.00,77.00,28.40,16.67,240.00,11.00,0.00,30.20,M,10.00,M,CLR,M,M,M,M,M,M,M,M,M,M,M,M,M,M,77.00,KRTS 290315Z AUTO 24011KT 10SM CLR 25/M02 A3020 RMK AO2,M
MEV,2022-06-29 03:15,-119.7500,38.9963,1441.42,77.00,32.00,19.30,260.00,11.00,0.00,30.16,M,10.00,M,CLR,M,M,M,M,M,M,M,M,M,M,M,M,M,M,77.00,KMEV 290315Z AUTO 26011KT 10SM CLR 25/00 A3016 RMK AO2,M
BAM,2022-06-29 03:15,-116.8743,40.5990,1382.36,M,M,M,310.00,15.00,0.00,30.05,M,10.00,20.00,CLR,M,M,M,M,M,M,M,M,M,M,M,M,M,M,M,KBAM 290315Z AUTO 31015G20KT 10SM CLR A3005 RMK AO1,M
HTH,2022-06-29 03:15,-118.6315,38.5448,1282.89,89.60,28.40,11.09,250.00,18.00,0.00,30.02,M,10.00,31.00,CLR,M,M,M,M,M,M,M,M,M,M,M,M,M,M,85.17,KHTH 290315Z AUTO 25018G31KT 10SM CLR 32/M02 A3002 RMK A01,M
TMT,2022-06-29 03:15,-117.1971,39.4643,1749.34,82.40,29.70,14.73,310.00,14.00,0.00,30.17,M,5.00,21.00,CLR,M,M,M,M,M,M,M,HZ,M,M,M,M,M,M,79.96,KTMT 290315Z AUTO 31014G21KT 5SM HZ CLR 28/M01 A3017 RMK AO2 T02801013,M
WMC,2022-06-29 03:19,-117.8072,40.9019,1315.00,85.00,25.00,11.19,280.00,12.00,0.00,30.06,M,4.00,21.00,BKN,M,M,M,2900.00,M,M,M,HZ,M,M,M,M,M,M,81.50,KWMC 290319Z AUTO 28012G21KT 4SM HZ BKN029 29/M04 A3006 RMK AO2 T02941039,M
HND,2022-06-29 03:28,-115.1344,35.9729,742.79,96.80,53.60,23.55,200.00,35.00,T,29.91,M,8.00,44.00,FEW,BKN,OVC,M,4900.00,8000.00,11000.00,M,-RA,M,M,M,44.00,200.00,2022-06-29 03:28,94.59,KHND 290328Z AUTO 20035G44KT 8SM -RA FEW049 BKN080 OVC110 36/12 A2991 RMK AO2 PK WND 20044/0328 TSB02E22RAB27 P0000,M
BVU,2022-06-29 03:35,-114.8611,35.9475,671.00,98.60,44.60,15.93,240.00,11.00,0.00,29.89,M,10.00,17.00,CLR,M,M,M,M,M,M,M,M,M,M,M,M,M,M,94.55,KBVU 290335Z AUTO 24011G17KT 10SM CLR 37/07 A2989 RMK AO2,M
RTS,2022-06-29 03:35,-119.8764,39.6682,1539.00,73.40,30.20,20.23,260.00,8.00,0.00,30.20,M,10.00,M,CLR,M,M,M,M,M,M,M,M,M,M,M,M,M,M,73.40,KRTS 290335Z AUTO 26008KT 10SM CLR 23/M01 A3020 RMK AO2,M
MEV,2022-06-29 03:35,-119.7500,38.9963,1441.42,77.00,32.00,19.30,270.00,13.00,0.00,30.16,M,10.00,19.00,CLR,M,M,M,M,M,M,M,M,M,M,M,M,M,M,77.00,KMEV 290335Z AUTO 27013G19KT 10SM CLR 25/M00 A3016 RMK AO2,M
BAM,2022-06-29 03:35,-116.8743,40.5990,1382.36,M,M,M,290.00,11.00,0.00,30.06,M,10.00,M,CLR,M,M,M,M,M,M,M,M,M,M,M,M,M,M,M,KBAM 290335Z AUTO 29011KT 10SM CLR A3006 RMK AO1,M
HTH,2022-06-29 03:35,-118.6315,38.5448,1282.89,89.60,28.40,11.09,260.00,22.00,0.00,30.02,M,10.00,31.00,CLR,M,M,M,M,M,M,M,M,M,M,M,M,M,M,85.17,KHTH 290335Z AUTO 26022G31KT 10SM CLR 32/M02 A3002 RMK A01,M
TMT,2022-06-29 03:35,-117.1971,39.4643,1749.34,81.00,30.60,15.99,310.00,9.00,0.00,30.18,M,4.00,18.00,CLR,M,M,M,M,M,M,M,HZ,M,M,M,M,M,M,79.03,KTMT 290335Z AUTO 31009G18KT 4SM HZ CLR 27/M01 A3018 RMK AO2 T02721008,M
WMC,2022-06-29 03:36,-117.8072,40.9019,1315.00,83.00,25.00,11.94,280.00,12.00,0.00,30.06,M,4.00,20.00,FEW,M,M,M,3100.00,M,M,M,HZ,M,M,M,M,M,M,80.13,KWMC 290336Z AUTO 28012G20KT 4SM HZ FEW031 28/M04 A3006 RMK AO2 T02831039,M
HND,2022-06-29 03:44,-115.1344,35.9729,742.79,87.80,55.40,33.29,300.00,27.00,0.01,29.95,M,6.00,41.00,FEW,BKN,OVC,M,1400.00,7000.00,10000.00,M,RA,M,M,M,47.00,200.00,2022-06-29 03:32,86.11,KHND 290344Z AUTO 30027G41KT 270V340 6SM RA FEW014 BKN070 OVC100 31/13 A2995 RMK AO2 PK WND 20047/0332 WSHFT 0324 TSB02E22RAB27 P0001,M
HND,2022-06-29 03:51,-115.1344,35.9729,742.79,89.60,55.40,31.45,330.00,19.00,0.01,29.94,M,9.00,33.00,FEW,SCT,BKN,M,6000.00,8000.00,10000.00,M,-RA,M,M,M,47.00,200.00,2022-06-29 03:32,87.78,KHND 290351Z AUTO 33019G33KT 9SM -RA FEW060 SCT080 BKN100 32/13 A2994 RMK AO2 PK WND 20047/0332 WSHFT 0331 TSB02E22RAB27 P0001,M
P68,2022-06-29 03:53,-116.0056,39.6014,1993.00,80.00,25.00,13.08,150.00,5.00,0.00,30.18,1011.70,M,M,M,M,M,M,M,M,M,M,M,M,M,M,M,M,M,78.42,KP68 290353Z AUTO 15005KT 27/M04 A3018 RMK AO1 SLP117 T02671039,M
DRA,2022-06-29 03:53,-116.0278,36.6206,1009.00,96.00,34.00,11.37,200.00,11.00,0.00,29.96,1008.40,10.00,M,CLR,M,M,M,M,M,M,M,M,M,M,M,M,M,M,90.89,KDRA 290353Z AUTO 20011KT 10SM CLR 36/01 A2996 RMK AO2 SLP084 T03560011,M
ELY,2022-06-29 03:53,-114.8453,39.2950,1909.00,74.00,36.00,25.11,170.00,6.00,0.00,30.20,1010.80,10.00,M,CLR,M,M,M,M,M,M,M,M,M,M,M,M,M,M,73.90,KELY 290353Z AUTO 17006KT 10SM CLR 23/02 A3020 RMK AO2 SLP108 T02330022,M
VGT,2022-06-29 03:53,-115.1933,36.2111,667.00,101.00,48.00,16.90,180.00,12.00,0.00,29.87,1009.80,10.00,21.00,CLR,M,M,M,M,M,M,M,M,M,M,M,M,M,M,97.46,KVGT 290353Z 18012G21KT 10SM CLR 38/09 A2987 RMK AO2 SLP098 T03830089,M
LOL,2022-06-29 03:53,-118.5701,40.0684,1192.43,83.00,32.00,15.91,280.00,12.00,0.00,30.05,1013.00,10.00,M,CLR,M,M,M,M,M,M,M,M,M,M,M,M,M,M,80.34,KLOL 290353Z AUTO 28012KT 10SM CLR 28/00 A3005 RMK AO2 SLP130 T02830000,M
BVU,2022-06-29 03:55,-114.8611,35.9475,671.00,98.60,44.60,15.93,280.00,7.00,0.00,29.90,M,10.00,13.00,CLR,M,M,M,M,M,M,M,M,M,M,M,M,M,M,94.55,KBVU 290355Z AUTO 28007G13KT 10SM CLR 37/07 A2990 RMK AO2,M
RTS,2022-06-29 03:55,-119.8764,39.6682,1539.00,73.40,32.00,21.76,240.00,7.00,0.00,30.20,M,10.00,M,CLR,M,M,M,M,M,M,M,M,M,M,M,M,M,M,73.40,KRTS 290355Z AUTO 24007KT 10SM CLR 23/M00 A3020 RMK AO2,M
MEV,2022-06-29 03:55,-119.7500,38.9963,1441.42,75.20,30.20,19.05,260.00,13.00,0.00,30.16,M,10.00,M,CLR,M,M,M,M,M,M,M,M,M,M,M,M,M,M,75.20,KMEV 290355Z AUTO 26013KT 10SM CLR 24/M01 A3016 RMK AO2,M
BAM,2022-06-29 03:55,-116.8743,40.5990,1382.36,M,M,M,310.00,15.00,0.00,30.07,M,10.00,20.00,CLR,M,M,M,M,M,M,M,M,M,M,M,M,M,M,M,KBAM 290355Z AUTO 31015G20KT 10SM CLR A3007 RMK AO1,M
HTH,2022-06-29 03:55,-118.6315,38.5448,1282.89,87.80,28.40,11.74,260.00,24.00,0.00,30.02,M,10.00,30.00,CLR,M,M,M,M,M,M,M,M,M,M,M,M,M,M,83.84,KHTH 290355Z AUTO 26024G30KT 10SM CLR 31/M02 A3002 RMK A01,M
TMT,2022-06-29 03:55,-117.1971,39.4643,1749.34,79.00,30.70,17.14,310.00,7.00,0.00,30.19,M,4.00,M,CLR,M,M,M,M,M,M,M,HZ,M,M,M,M,M,M,79.00,KTMT 290355Z AUTO 31007KT 4SM HZ CLR 26/M01 A3019 RMK AO2 T02611007,M
RNO,2022-06-29 03:55,-119.7711,39.4839,1341.00,80.00,35.00,19.72,280.00,8.00,0.00,30.14,1014.70,10.00,M,FEW,M,M,M,10000.00,M,M,M,M,M,M,M,M,M,M,78.74,KRNO 290355Z 28008KT 10SM FEW100 27/02 A3014 RMK AO2 SLP147 T02670017,M
EKO,2022-06-29 03:56,-115.7860,40.8242,1367.00,79.00,21.90,11.91,0.00,0.00,0.00,30.08,1011.50,10.00,M,CLR,M,M,M,M,M,M,M,M,M,M,M,M,M,M,79.00,KEKO 290356Z AUTO 00000KT 10SM CLR 26/M06 A3008 RMK AO2 SLP115 T02611056,M
WMC,2022-06-29 03:56,-117.8072,40.9019,1315.00,82.00,25.00,12.29,270.00,10.00,0.00,30.07,1012.40,8.00,M,CLR,M,M,M,M,M,M,M,M,M,M,M,M,M,M,79.54,KWMC 290356Z AUTO 27010KT 8SM CLR 28/M04 A3007 RMK AO2 SLP124 T02781039,M
HND,2022-06-29 03:56,-115.1344,35.9729,742.79,94.00,52.00,24.28,10.00,9.00,0.01,29.96,1012.40,10.00,33.00,FEW,SCT,BKN,M,5500.00,9500.00,11000.00,M,-RA,M,M,M,47.00,200.00,2022-06-29 03:32,91.19,KHND 290356Z AUTO 01009G33KT 330V040 10SM -RA FEW055 SCT095 BKN110 34/11 A2996 RMK AO2 PK WND 20047/0332 WSHFT 0331 TSB02E22RAB27 SLP124 P0001 T03440111,M
NFL,2022-06-29 03:56,-118.7010,39.4166,1199.00,83.00,32.00,15.91,310.00,6.00,0.00,30.07,1015.10,10.00,M,FEW,M,M,M,10000.00,M,M,M,M,M,M,M,M,M,M,80.34,KNFL 290356Z 31006KT 10SM FEW100 28/00 A3007 RMK AO2 SLP151 T02830000,M
LSV,2022-06-29 03:56,-115.0343,36.2362,570.00,100.40,46.40,16.15,190.00,17.00,0.00,29.88,1008.70,10.00,M,BKN,M,M,M,17000.00,M,M,M,M,M,M,M,M,M,M,96.63,KLSV 290356Z 19017KT 10SM BKN170 38/08 A2988 RMK SLP087 WND DATA ESTMD ASLTG/SLP ESTMD $,M
LAS,2022-06-29 03:56,-115.1634,36.0719,663.00,97.00,49.00,19.67,160.00,15.00,0.00,29.88,1008.50,10.00,40.00,BKN,BKN,M,M,12000.00,22000.00,M,M,M,M,M,M,40.00,200.00,2022-06-29 03:47,93.69,KLAS 290356Z 16015G40KT 10SM BKN120CB BKN220 36/09 A2988 RMK AO2 PK WND 20040/0347 SLP085 CB S AND DSNT NE-SE T03610094 $,M
INS,2022-06-29 03:58,-115.6733,36.5872,955.00,96.00,35.00,11.95,250.00,9.00,0.00,29.95,1008.30,10.00,M,BKN,M,M,M,16000.00,M,M,M,M,M,M,M,M,M,M,90.90,KINS 290358Z AUTO 25009KT 10SM BKN160 36/02 A2995 RMK AO2 SLP083 T03550017 $,M
BVU,2022-06-29 04:15,-114.8611,35.9475,671.00,98.60,44.60,15.93,250.00,8.00,0.00,29.91,M,10.00,M,CLR,M,M,M,M,M,M,M,M,M,M,M,M,M,M,94.55,KBVU 290415Z AUTO 25008KT 10SM CLR 37/07 A2991 RMK AO2,M
RTS,2022-06-29 04:15,-119.8764,39.6682,1539.00,71.60,32.00,23.13,220.00,5.00,0.00,30.20,M,10.00,M,CLR,M,M,M,M,M,M,M,M,M,M,M,M,M,M,71.60,KRTS 290415Z AUTO 22005KT 10SM CLR 22/00 A3020 RMK AO2,M
MEV,2022-06-29 04:15,-119.7500,38.9963,1441.42,71.60,33.80,24.86,0.00,0.00,0.00,30.17,M,10.00,M,CLR,M,M,M,M,M,M,M,M,M,M,M,M,M,M,71.60,KMEV 290415Z AUTO 00000KT 10SM CLR 22/01 A3017 RMK AO2,M
BAM,2022-06-29 04:15,-116.8743,40.5990,1382.36,M,M,M,310.00,9.00,0.00,30.08,M,10.00,M,CLR,M,M,M,M,M,M,M,M,M,M,M,M,M,M,M,KBAM 290415Z AUTO 31009KT 10SM CLR A3008 RMK AO1,M
HTH,2022-06-29 04:15,-118.6315,38.5448,1282.89,87.80,28.40,11.74,250.00,17.00,0.00,30.04,M,10.00,28.00,CLR,M,M,M,M,M,M,M,M,M,M,M,M,M,M,83.84,KHTH 290415Z AUTO 25017G28KT 10SM CLR 31/M02 A3004 RMK A01,M
TMT,2022-06-29 04:15,-117.1971,39.4643,1749.34,76.30,30.90,18.89,0.00,0.00,0.00,30.21,M,4.00,M,CLR,M,M,M,M,M,M,M,HZ,M,M,M,M,M,M,76.30,KTMT 290415Z AUTO 00000KT 4SM HZ CLR 25/M01 A3021 RMK AO2 T02461006,M
HND,2022-06-29 04:27,-115.1344,35.9729,742.79,98.60,50.00,19.52,300.00,6.00,T,29.95,M,10.00,22.00,FEW,M,M,M,9500.00,M,M,M,M,M,M,M,32.00,320.00,2022-06-29 04:14,95.56,KHND 290427Z AUTO 30006G22KT 10SM FEW095 37/10 A2995 RMK AO2 PK WND 32032/0414 WSHFT 0407 RAE20 P0000,M
BVU,2022-06-29 04:35,-114.8611,35.9475,671.00,96.80,44.60,16.83,230.00,7.00,0.00,29.92,M,10.00,M,CLR,M,M,M,M,M,M,M,M,M,M,M,M,M,M,92.79,KBVU 290435Z AUTO 23007KT 10SM CLR 36/07 A2992 RMK AO2,M
RTS,2022-06-29 04:35,-119.8764,39.6682,1539.00,71.60,33.80,24.86,240.00,6.00,0.00,30.21,M,10.00,M,CLR,M,M,M,M,M,M,M,M,M,M,M,M,M,M,71.60,KRTS 290435Z AUTO 24006KT 10SM CLR 22/01 A3021 RMK AO2,M
MEV,2022-06-29 04:35,-119.7500,38.9963,1441.42,73.40,30.20,20.23,M,3.00,0.00,30.18,M,10.00,M,CLR,M,M,M,M,M,M,M,M,M,M,M,M,M,M,73.40,KMEV 290435Z AUTO VRB03KT 10SM CLR 23/M01 A3018 RMK AO2,M
BAM,2022-06-29 04:35,-116.8743,40.5990,1382.36,M,M,M,350.00,5.00,0.00,30.09,M,5.00,M,CLR,M,M,M,M,M,M,M,M,M,M,M,M,M,M,M,KBAM 290435Z AUTO 35005KT 5SM CLR A3009 RMK AO1,M
HTH,2022-06-29 04:35,-118.6315,38.5448,1282.89,86.00,28.40,12.44,250.00,12.00,0.00,30.05,M,10.00,25.00,CLR,M,M,M,M,M,M,M,M,M,M,M,M,M,M,82.54,KHTH 290435Z AUTO 25012G25KT 10SM CLR 30/M02 A3005 RMK A01,M
TMT,2022-06-29 04:35,-117.1971,39.4643,1749.34,74.80,30.70,19.70,0.00,0.00,0.00,30.22,M,4.00,M,CLR,M,M,M,M,M,M,M,HZ,M,M,M,M,M,M,74.80,KTMT 290435Z AUTO 00000KT 4SM HZ CLR 24/M01 A3022 RMK AO2 T02381007,M
P68,2022-06-29 04:53,-116.0056,39.6014,1993.00,75.00,23.00,14.24,300.00,7.00,0.00,30.19,1012.40,M,M,M,M,M,M,M,M,M,M,M,M,M,M,M,M,M,75.00,KP68 290453Z AUTO 30007KT 24/M05 A3019 RMK AO1 SLP124 T02391050,M
ELY,2022-06-29 04:53,-114.8453,39.2950,1909.00,70.00,36.00,28.65,200.00,9.00,0.00,30.22,1011.60,10.00,M,CLR,M,M,M,M,M,M,M,M,M,M,M,M,M,M,70.00,KELY 290453Z AUTO 20009KT 10SM CLR 21/02 A3022 RMK AO2 SLP116 T02110022,M
DRA,2022-06-29 04:53,-116.0278,36.6206,1009.00,95.00,37.00,13.25,180.00,11.00,0.00,29.98,1009.00,10.00,M,CLR,M,M,M,M,M,M,M,M,M,M,M,M,M,M,90.44,KDRA 290453Z AUTO 18011KT 10SM CLR 35/03 A2998 RMK AO2 SLP090 T03500028,M
VGT,2022-06-29 04:53,-115.1933,36.2111,667.00,101.00,48.00,16.90,190.00,15.00,0.00,29.90,1010.50,10.00,21.00,CLR,M,M,M,M,M,M,M,M,M,M,M,M,M,M,97.46,KVGT 290453Z AUTO 19015G21KT 10SM CLR 38/09 A2990 RMK AO2 SLP105 T03830089,M
LOL,2022-06-29 04:53,-118.5701,40.0684,1192.43,74.00,28.90,18.87,140.00,3.00,0.00,30.09,1014.20,10.00,M,CLR,M,M,M,M,M,M,M,M,M,M,M,M,M,M,73.90,KLOL 290453Z AUTO 14003KT 10SM CLR 23/M02 A3009 RMK AO2 SLP142 T02331017,M
BVU,2022-06-29 04:55,-114.8611,35.9475,671.00,96.80,44.60,16.83,240.00,8.00,0.00,29.92,M,10.00,M,CLR,M,M,M,M,M,M,M,M,M,M,M,M,M,M,92.79,KBVU 290455Z AUTO 24008KT 10SM CLR 36/07 A2992 RMK AO2,M
RNO,2022-06-29 04:55,-119.7711,39.4839,1341.00,78.00,36.00,21.83,300.00,11.00,0.00,30.15,1014.50,10.00,M,CLR,M,M,M,M,M,M,M,M,M,M,M,M,M,M,78.10,KRNO 290455Z 30011KT 10SM CLR 26/02 A3015 RMK AO2 SLP145 T02560022,M
RTS,2022-06-29 04:55,-119.8764,39.6682,1539.00,69.80,33.80,26.43,240.00,7.00,0.00,30.21,M,10.00,M,CLR,M,M,M,M,M,M,M,M,M,M,M,M,M,M,69.80,KRTS 290455Z AUTO 24007KT 10SM CLR 21/01 A3021 RMK AO2,M
MEV,2022-06-29 04:55,-119.7500,38.9963,1441.42,73.40,30.20,20.23,160.00,9.00,0.00,30.19,M,10.00,M,CLR,M,M,M,M,M,M,M,M,M,M,M,M,M,M,73.40,KMEV 290455Z AUTO 16009KT 10SM CLR 23/M01 A3019 RMK AO2,M
BAM,2022-06-29 04:55,-116.8743,40.5990,1382.36,M,M,M,350.00,8.00,0.00,30.10,M,4.00,M,CLR,M,M,M,M,M,M,M,M,M,M,M,M,M,M,M,KBAM 290455Z AUTO 35008KT 4SM CLR A3010 RMK AO1,M
HTH,2022-06-29 04:55,-118.6315,38.5448,1282.89,86.00,30.20,13.38,270.00,15.00,0.00,30.07,M,10.00,23.00,CLR,M,M,M,M,M,M,M,M,M,M,M,M,M,M,82.64,KHTH 290455Z AUTO 27015G23KT 10SM CLR 30/M01 A3007 RMK A01,M
TMT,2022-06-29 04:55,-117.1971,39.4643,1749.34,68.40,29.80,23.60,100.00,3.00,0.00,30.22,M,4.00,M,CLR,M,M,M,M,M,M,M,HZ,M,M,M,M,M,M,68.40,KTMT 290455Z AUTO 10003KT 4SM HZ CLR 20/M01 A3022 RMK AO2 T02021012,M
EKO,2022-06-29 04:56,-115.7860,40.8242,1367.00,75.00,19.90,12.49,210.00,3.00,0.00,30.12,1013.00,10.00,M,CLR,M,M,M,M,M,M,M,M,M,M,M,M,M,M,75.00,KEKO 290456Z AUTO 21003KT 10SM CLR 24/M07 A3012 RMK AO2 SLP130 T02391067,M
WMC,2022-06-29 04:56,-117.8072,40.9019,1315.00,72.00,27.00,18.61,270.00,5.00,0.00,30.10,1013.60,8.00,M,CLR,M,M,M,M,M,M,M,M,M,M,M,M,M,M,72.00,KWMC 290456Z AUTO 27005KT 8SM CLR 22/M03 A3010 RMK AO2 SLP136 T02221028,M
LSV,2022-06-29 04:56,-115.0343,36.2362,570.00,100.40,48.20,17.28,200.00,13.00,0.00,29.89,1008.90,10.00,M,SCT,BKN,M,M,14000.00,18000.00,M,M,M,M,M,M,M,M,M,97.00,KLSV 290456Z 20013KT 10SM SCT140 BKN180 38/09 A2989 RMK SLP089 WND DATA ESTMD ALSTG/SLP ESTMD $,M
HND,2022-06-29 04:56,-115.1344,35.9729,742.79,87.00,64.00,46.26,210.00,7.00,T,29.97,1012.80,10.00,M,CLR,M,M,M,M,M,M,M,M,M,M,M,32.00,320.00,2022-06-29 04:14,88.42,KHND 290456Z AUTO 21007KT 10SM CLR 31/18 A2997 RMK AO2 PK WND 32032/0414 WSHFT 0407 RAE20 SLP128 P0000 T03060178,M
LAS,2022-06-29 04:56,-115.1634,36.0719,663.00,101.00,45.00,15.09,90.00,5.00,T,29.92,1009.80,10.00,M,SCT,BKN,M,M,11000.00,14000.00,M,M,M,M,M,M,37.00,180.00,2022-06-29 04:02,96.87,KLAS 290456Z 09005KT 10SM SCT110 BKN140 38/07 A2992 RMK AO2 PK WND 18037/0402 RAB10E20 SLP098 P0000 T03830072 $,M
NFL,2022-06-29 04:56,-118.7010,39.4166,1199.00,79.00,30.00,16.66,300.00,7.00,0.00,30.11,1016.10,10.00,M,FEW,M,M,M,10000.00,M,M,M,M,M,M,M,M,M,M,79.00,KNFL 290456Z 30007KT 10SM FEW100 26/M01 A3011 RMK AO2 SLP161 T02611011,M
INS,2022-06-29 04:58,-115.6733,36.5872,955.00,95.00,38.30,13.94,210.00,11.00,0.00,29.96,1008.50,10.00,15.00,FEW,M,M,M,14000.00,M,M,M,M,M,M,M,M,M,M,90.51,KINS 290458Z AUTO 21011G15KT 10SM FEW140 35/04 A2996 RMK AO2 SLP085 T03500035 $,M
BVU,2022-06-29 05:15,-114.8611,35.9475,671.00,95.00,44.60,17.78,220.00,5.00,0.00,29.93,M,10.00,M,CLR,M,M,M,M,M,M,M,M,M,M,M,M,M,M,91.06,KBVU 290515Z AUTO 22005KT 10SM CLR 35/07 A2993 RMK AO2,M
RTS,2022-06-29 05:15,-119.8764,39.6682,1539.00,69.80,32.00,24.59,230.00,8.00,0.00,30.22,M,10.00,M,CLR,M,M,M,M,M,M,M,M,M,M,M,M,M,M,69.80,KRTS 290515Z AUTO 23008KT 10SM CLR 21/M00 A3022 RMK AO2,M
MEV,2022-06-29 05:15,-119.7500,38.9963,1441.42,71.60,30.20,21.50,0.00,0.00,0.00,30.19,M,10.00,12.00,CLR,M,M,M,M,M,M,M,M,M,M,M,M,M,M,71.60,KMEV 290515Z AUTO 00000G12KT 10SM CLR 22/M01 A3019 RMK AO2,M
BAM,2022-06-29 05:15,-116.8743,40.5990,1382.36,M,M,M,340.00,6.00,0.00,30.11,M,3.00,M,CLR,M,M,M,M,M,M,M,M,M,M,M,M,M,M,M,KBAM 290515Z AUTO 34006KT 3SM CLR A3011 RMK AO1,M
HTH,2022-06-29 05:15,-118.6315,38.5448,1282.89,86.00,30.20,13.38,70.00,13.00,0.00,30.08,M,10.00,21.00,CLR,M,M,M,M,M,M,M,M,M,M,M,M,M,M,82.64,KHTH 290515Z AUTO 07013G21KT 10SM CLR 30/M01 A3008 RMK A01,M
TMT,2022-06-29 05:15,-117.1971,39.4643,1749.34,74.70,30.40,19.53,0.00,0.00,0.00,30.24,M,7.00,M,CLR,M,M,M,M,M,M,M,M,M,M,M,M,M,M,74.70,KTMT 290515Z AUTO 00000KT 7SM CLR 24/M01 A3024 RMK AO2 T02371009,M
BVU,2022-06-29 05:35,-114.8611,35.9475,671.00,93.20,44.60,18.80,0.00,0.00,0.00,29.93,M,10.00,M,CLR,M,M,M,M,M,M,M,M,M,M,M,M,M,M,89.34,KBVU 290535Z AUTO 00000KT 10SM CLR 34/07 A2993 RMK AO2,M
RTS,2022-06-29 05:35,-119.8764,39.6682,1539.00,69.80,28.40,21.24,260.00,10.00,0.00,30.22,M,10.00,M,CLR,M,M,M,M,M,M,M,M,M,M,M,M,M,M,69.80,KRTS 290535Z AUTO 26010KT 10SM CLR 21/M02 A3022 RMK AO2,M
MEV,2022-06-29 05:35,-119.7500,38.9963,1441.42,69.80,30.20,22.86,0.00,0.00,0.00,30.20,M,10.00,M,CLR,M,M,M,M,M,M,M,M,M,M,M,M,M,M,69.80,KMEV 290535Z AUTO 00000KT 10SM CLR 21/M01 A3020 RMK AO2,M
BAM,2022-06-29 05:35,-116.8743,40.5990,1382.36,M,M,M,0.00,0.00,0.00,30.12,M,3.00,M,CLR,M,M,M,M,M,M,M,M,M,M,M,M,M,M,M,KBAM 290535Z AUTO 00000KT 3SM CLR A3012 RMK AO1,M
HTH,2022-06-29 05:35,-118.6315,38.5448,1282.89,86.00,32.00,14.40,50.00,22.00,0.00,30.08,M,10.00,M,CLR,M,M,M,M,M,M,M,M,M,M,M,M,M,M,82.64,KHTH 290535Z AUTO 05022KT 10SM CLR 30/M00 A3008 RMK A01,M
TMT,2022-06-29 05:35,-117.1971,39.4643,1749.34,74.00,30.60,20.09,260.00,3.00,0.00,30.24,M,10.00,M,CLR,M,M,M,M,M,M,M,M,M,M,M,M,M,M,74.10,KTMT 290535Z AUTO 26003KT 10SM CLR 23/M01 A3024 RMK AO2 T02341008,M
P68,2022-06-29 05:53,-116.0056,39.6014,1993.00,78.00,23.00,12.85,290.00,5.00,0.00,30.21,1012.60,M,M,M,M,M,M,M,M,M,M,M,M,M,M,M,M,M,78.10,KP68 290553Z AUTO 29005KT 26/M05 A3021 RMK AO1 SLP126 T02561050 10344 20233 51022,M
ELY,2022-06-29 05:53,-114.8453,39.2950,1909.00,78.00,36.00,21.83,290.00,15.00,0.00,30.23,1010.80,10.00,21.00,FEW,M,M,M,12000.00,M,M,M,M,M,M,M,M,M,M,78.10,KELY 290553Z AUTO 29015G21KT 10SM FEW120 26/02 A3023 RMK AO2 SLP108 T02560022 10317 20211 53004,M
LOL,2022-06-29 05:53,-118.5701,40.0684,1192.43,68.00,30.00,24.12,230.00,6.00,0.00,30.11,1014.80,10.00,M,CLR,M,M,M,M,M,M,M,M,M,M,M,M,M,M,68.00,KLOL 290553Z AUTO 23006KT 10SM CLR 20/M01 A3011 RMK AO2 SLP148 T02001011 10361 20200 51021,M
DRA,2022-06-29 05:53,-116.0278,36.6206,1009.00,94.00,38.00,14.20,190.00,15.00,0.00,29.98,1008.90,10.00,21.00,CLR,M,M,M,M,M,M,M,M,M,M,M,M,M,M,89.48,KDRA 290553Z AUTO 19015G21KT 10SM CLR 34/03 A2998 RMK AO2 SLP089 T03440033 10406 20344 51009,M
VGT,2022-06-29 05:53,-115.1933,36.2111,667.00,101.00,47.00,16.21,210.00,9.00,T,29.90,1010.70,10.00,M,FEW,BKN,BKN,M,5500.00,7500.00,9500.00,M,M,M,M,M,38.00,160.00,2022-06-29 05:11,97.23,KVGT 290553Z AUTO 21009KT 10SM FEW055 BKN075 BKN095 38/08 A2990 RMK AO2 PK WND 16038/0511 RAB03E14 SLP107 P0000 60000 T03830083 10422 20378 51014,M
RNO,2022-06-29 05:55,-119.7711,39.4839,1341.00,75.00,34.00,22.35,280.00,4.00,0.00,30.16,1015.00,10.00,M,CLR,M,M,M,M,M,M,M,M,M,M,M,M,M,M,75.00,KRNO 290555Z 28004KT 10SM CLR 24/01 A3016 RMK AO2 SLP150 T02390011 10328 20239 53009,M
RTS,2022-06-29 05:55,-119.8764,39.6682,1539.00,66.20,28.40,24.04,260.00,9.00,0.00,30.21,M,10.00,M,CLR,M,M,M,M,M,M,M,M,M,M,M,M,M,M,66.20,KRTS 290555Z AUTO 26009KT 10SM CLR 19/M02 A3021 RMK AO2,M
MEV,2022-06-29 05:55,-119.7500,38.9963,1441.42,60.80,35.60,38.85,0.00,0.00,0.00,30.20,M,10.00,M,CLR,M,M,M,M,M,M,M,M,M,M,M,M,M,M,60.80,KMEV 290555Z AUTO 00000KT 10SM CLR 16/02 A3020 RMK AO2,M
BAM,2022-06-29 05:55,-116.8743,40.5990,1382.36,M,M,M,290.00,3.00,0.00,30.12,M,5.00,M,CLR,M,M,M,M,M,M,M,M,M,M,M,M,M,M,M,KBAM 290555Z AUTO 29003KT 5SM CLR A3012 RMK AO1,M
HTH,2022-06-29 05:55,-118.6315,38.5448,1282.89,84.20,32.00,15.25,50.00,16.00,0.00,30.10,M,10.00,M,CLR,M,M,M,M,M,M,M,M,M,M,M,M,M,M,81.28,KHTH 290555Z AUTO 05016KT 10SM CLR 29/M00 A3010 RMK A01,M
BVU,2022-06-29 05:55,-114.8611,35.9475,671.00,89.60,46.40,22.53,310.00,5.00,0.00,29.93,M,10.00,M,CLR,M,M,M,M,M,M,M,M,M,M,M,M,M,M,86.24,KBVU 290555Z AUTO 31005KT 10SM CLR 32/08 A2993 RMK AO2,M
TMT,2022-06-29 05:55,-117.1971,39.4643,1749.34,63.70,28.20,26.02,180.00,5.00,0.00,30.24,M,7.00,M,CLR,M,M,M,M,M,M,M,M,M,M,M,M,M,M,63.70,KTMT 290555Z AUTO 18005KT 7SM CLR 18/M02 A3024 RMK AO2 T01761021 10330 20176,M
EKO,2022-06-29 05:56,-115.7860,40.8242,1367.00,73.00,21.90,14.54,200.00,3.00,0.00,30.14,1013.80,10.00,M,FEW,M,M,M,4400.00,M,M,M,M,M,M,M,M,M,M,73.00,KEKO 290556Z AUTO 20003KT 10SM FEW044 23/M06 A3014 RMK AO2 SLP138 T02281056 10350 20217 53022,M
WMC,2022-06-29 05:56,-117.8072,40.9019,1315.00,75.00,26.10,16.21,0.00,0.00,0.00,30.12,1014.00,10.00,M,CLR,M,M,M,M,M,M,M,M,M,M,M,M,M,M,75.00,KWMC 290556Z AUTO 00000KT 10SM CLR 24/M03 A3012 RMK AO2 SLP140 T02391033 10356 20211 51020,M
LSV,2022-06-29 05:56,-115.0343,36.2362,570.00,98.60,46.40,17.05,210.00,6.00,0.00,29.90,1009.20,10.00,M,FEW,BKN,M,M,14000.00,18000.00,M,M,M,M,M,M,M,M,M,94.84,KLSV 290556Z 21006KT 10SM FEW140 BKN180 37/08 A2990 RMK SLP092 5//// WND DATA ESTMD ALSTG/SLP ESTMD $,M
NFL,2022-06-29 05:56,-118.7010,39.4166,1199.00,75.00,30.90,19.73,280.00,4.00,0.00,30.12,1016.50,10.00,M,FEW,M,M,M,10000.00,M,M,M,M,M,M,M,M,M,M,75.00,KNFL 290556Z 28004KT 10SM FEW100 24/M01 A3012 RMK AO2 SLP165 T02391006 10361 20239 51023,M
HND,2022-06-29 05:56,-115.1344,35.9729,742.79,85.00,62.00,46.42,200.00,11.00,0.00,29.97,1012.90,10.00,M,CLR,M,M,M,M,M,M,M,M,M,M,M,M,M,M,85.49,KHND 290556Z AUTO 20011KT 10SM CLR 29/17 A2997 RMK AO2 SLP129 60001 T02940167 10394 20289 51009,M
LAS,2022-06-29 05:56,-115.1634,36.0719,663.00,94.00,53.00,25.28,190.00,5.00,0.00,29.92,1009.90,10.00,M,FEW,SCT,M,M,15000.00,19000.00,M,M,M,M,M,M,M,M,M,91.45,KLAS 290556Z 19005KT 10SM FEW150 SCT190 34/12 A2992 RMK AO2 SLP099 VCSH NE AND NW 60000 T03440117 10411 20344 51016 $,M
INS,2022-06-29 05:58,-115.6733,36.5872,955.00,91.00,37.00,14.94,20.00,7.00,0.00,29.97,1008.80,10.00,M,CLR,M,M,M,M,M,M,M,M,M,M,M,M,M,M,86.86,KINS 290558Z AUTO 02007KT 10SM CLR 33/03 A2997 RMK AO2 SLP088 T03280027 10384 20327 52011 $,M
BVU,2022-06-29 06:15,-114.8611,35.9475,671.00,91.40,46.40,21.29,310.00,4.00,0.00,29.93,M,10.00,M,CLR,M,M,M,M,M,M,M,M,M,M,M,M,M,M,87.86,KBVU 290615Z AUTO 31004KT 10SM CLR 33/08 A2993 RMK AO2,M
RTS,2022-06-29 06:15,-119.8764,39.6682,1539.00,66.20,26.60,22.33,270.00,10.00,0.00,30.21,M,10.00,M,CLR,M,M,M,M,M,M,M,M,M,M,M,M,M,M,66.20,KRTS 290615Z AUTO 27010KT 10SM CLR 19/M03 A3021 RMK AO2,M
MEV,2022-06-29 06:15,-119.7500,38.9963,1441.42,57.20,39.20,50.91,90.00,4.00,0.00,30.20,M,10.00,M,CLR,M,M,M,M,M,M,M,M,M,M,M,M,M,M,57.20,KMEV 290615Z AUTO 09004KT 10SM CLR 14/04 A3020 RMK AO2,M
BAM,2022-06-29 06:15,-116.8743,40.5990,1382.36,M,M,M,0.00,0.00,0.00,30.13,M,5.00,M,CLR,M,M,M,M,M,M,M,M,M,M,M,M,M,M,M,KBAM 290615Z AUTO 00000KT 5SM CLR A3013 RMK AO1,M
HTH,2022-06-29 06:15,-118.6315,38.5448,1282.89,82.40,30.20,15.03,60.00,10.00,0.00,30.11,M,10.00,16.00,CLR,M,M,M,M,M,M,M,M,M,M,M,M,M,M,79.97,KHTH 290615Z AUTO 06010G16KT 10SM CLR 28/M01 A3011 RMK A01,M
TMT,2022-06-29 06:15,-117.1971,39.4643,1749.34,69.80,30.20,22.86,260.00,3.00,0.00,30.25,M,10.00,M,CLR,M,M,M,M,M,M,M,M,M,M,M,M,M,M,69.80,KTMT 290615Z AUTO 26003KT 10SM CLR 21/M01 A3025 RMK AO2 T02101010,M
BAM,2022-06-29 06:35,-116.8743,40.5990,1382.36,M,M,M,0.00,0.00,0.00,30.13,M,5.00,M,CLR,M,M,M,M,M,M,M,M,M,M,M,M,M,M,M,KBAM 290635Z AUTO 00000KT 5SM CLR A3013 RMK AO1,M
BVU,2022-06-29 06:35,-114.8611,35.9475,671.00,89.60,50.00,25.79,0.00,0.00,0.00,29.93,M,10.00,M,CLR,M,M,M,M,M,M,M,M,M,M,M,M,M,M,86.70,KBVU 290635Z AUTO 00000KT 10SM CLR 32/10 A2993 RMK AO2,M
RTS,2022-06-29 06:35,-119.8764,39.6682,1539.00,62.60,26.60,25.32,290.00,8.00,0.00,30.21,M,10.00,M,CLR,M,M,M,M,M,M,M,M,M,M,M,M,M,M,62.60,KRTS 290635Z AUTO 29008KT 10SM CLR 17/M03 A3021 RMK AO2,M
MEV,2022-06-29 06:35,-119.7500,38.9963,1441.42,53.60,41.00,62.23,0.00,0.00,0.00,30.20,M,10.00,M,CLR,M,M,M,M,M,M,M,M,M,M,M,M,M,M,53.60,KMEV 290635Z AUTO 00000KT 10SM CLR 12/05 A3020 RMK AO2,M
HTH,2022-06-29 06:35,-118.6315,38.5448,1282.89,80.60,30.20,15.94,40.00,8.00,0.00,30.12,M,10.00,M,CLR,M,M,M,M,M,M,M,M,M,M,M,M,M,M,78.77,KHTH 290635Z AUTO 04008KT 10SM CLR 27/M01 A3012 RMK A01,M
TMT,2022-06-29 06:35,-117.1971,39.4643,1749.34,61.00,27.10,27.35,200.00,4.00,0.00,30.25,M,10.00,M,CLR,M,M,M,M,M,M,M,M,M,M,M,M,M,M,61.00,KTMT 290635Z AUTO 20004KT 10SM CLR 16/M03 A3025 RMK AO2 T01611027,M
P68,2022-06-29 06:53,-116.0056,39.6014,1993.00,75.00,24.10,14.91,260.00,8.00,0.00,30.22,1013.00,M,M,M,M,M,M,M,M,M,M,M,M,M,M,M,M,M,75.00,KP68 290653Z AUTO 26008KT 24/M04 A3022 RMK AO1 SLP130 T02391044,M
VGT,2022-06-29 06:53,-115.1933,36.2111,667.00,97.00,48.00,19.02,210.00,6.00,0.00,29.90,1010.70,10.00,M,CLR,M,M,M,M,M,M,M,M,M,M,M,M,M,M,93.52,KVGT 290653Z AUTO 21006KT 10SM CLR 36/09 A2990 RMK AO2 SLP107 T03610089,M
LOL,2022-06-29 06:53,-118.5701,40.0684,1192.43,65.00,30.00,26.85,0.00,0.00,0.00,30.11,1015.20,10.00,M,CLR,M,M,M,M,M,M,M,M,M,M,M,M,M,M,64.90,KLOL 290653Z AUTO 00000KT 10SM CLR 18/M01 A3011 RMK AO2 SLP152 T01831011,M
ELY,2022-06-29 06:53,-114.8453,39.2950,1909.00,74.00,40.00,29.26,260.00,8.00,T,30.23,1011.00,10.00,M,FEW,M,M,M,11000.00,M,M,M,M,M,M,M,M,M,M,73.90,KELY 290653Z AUTO 26008KT 10SM FEW110 23/04 A3023 RMK AO2 RAB30E47 SLP110 P0000 T02330044,M
DRA,2022-06-29 06:53,-116.0278,36.6206,1009.00,92.00,38.00,15.11,210.00,14.00,0.00,29.99,1009.10,10.00,22.00,CLR,M,M,M,M,M,M,M,M,M,M,M,26.00,210.00,2022-06-29 06:07,87.69,KDRA 290653Z AUTO 21014G22KT 10SM CLR 33/03 A2999 RMK AO2 PK WND 21026/0607 SLP091 T03330033,M
BVU,2022-06-29 06:55,-114.8611,35.9475,671.00,89.60,48.20,24.11,0.00,0.00,0.00,29.93,M,10.00,M,CLR,M,M,M,M,M,M,M,M,M,M,M,M,M,M,86.44,KBVU 290655Z AUTO 00000KT 10SM CLR 32/09 A2993 RMK AO2,M
RNO,2022-06-29 06:55,-119.7711,39.4839,1341.00,74.00,34.00,23.19,310.00,3.00,0.00,30.16,1014.60,10.00,M,CLR,M,M,M,M,M,M,M,M,M,M,M,M,M,M,73.90,KRNO 290655Z 31003KT 10SM CLR 23/01 A3016 RMK AO2 SLP146 T02330011,M
RTS,2022-06-29 06:55,-119.8764,39.6682,1539.00,62.60,28.40,27.27,300.00,11.00,0.00,30.21,M,10.00,M,CLR,M,M,M,M,M,M,M,M,M,M,M,M,M,M,62.60,KRTS 290655Z AUTO 30011KT 10SM CLR 17/M02 A3021 RMK AO2,M
MEV,2022-06-29 06:55,-119.7500,38.9963,1441.42,53.60,41.00,62.23,130.00,3.00,0.00,30.19,M,10.00,M,CLR,M,M,M,M,M,M,M,M,M,M,M,M,M,M,53.60,KMEV 290655Z AUTO 13003KT 10SM CLR 12/05 A3019 RMK AO2,M
BAM,2022-06-29 06:55,-116.8743,40.5990,1382.36,M,M,M,260.00,3.00,0.00,30.13,M,5.00,M,CLR,M,M,M,M,M,M,M,M,M,M,M,M,M,M,M,KBAM 290655Z AUTO 26003KT 5SM CLR A3013 RMK AO1,M
HTH,2022-06-29 06:55,-118.6315,38.5448,1282.89,78.80,30.20,16.90,230.00,7.00,0.00,30.13,M,10.00,M,CLR,M,M,M,M,M,M,M,M,M,M,M,M,M,M,78.80,KHTH 290655Z AUTO 23007KT 10SM CLR 26/M01 A3013 RMK A01,M
TMT,2022-06-29 06:55,-117.1971,39.4643,1749.34,58.80,26.60,28.98,210.00,6.00,0.00,30.25,M,10.00,M,CLR,M,M,M,M,M,M,M,M,M,M,M,M,M,M,58.80,KTMT 290655Z AUTO 21006KT 10SM CLR 15/M03 A3025 RMK AO2 T01491030,M
EKO,2022-06-29 06:56,-115.7860,40.8242,1367.00,71.00,27.00,19.18,200.00,3.00,0.00,30.15,1014.00,10.00,M,CLR,M,M,M,M,M,M,M,M,M,M,M,M,M,M,71.10,KEKO 290656Z AUTO 20003KT 10SM CLR 22/M03 A3015 RMK AO2 SLP140 T02171028,M
WMC,2022-06-29 06:56,-117.8072,40.9019,1315.00,72.00,25.00,17.13,200.00,5.00,0.00,30.12,1014.10,10.00,M,CLR,M,M,M,M,M,M,M,M,M,M,M,M,M,M,72.00,KWMC 290656Z AUTO 20005KT 10SM CLR 22/M04 A3012 RMK AO2 SLP141 T02221039,M
NFL,2022-06-29 06:56,-118.7010,39.4166,1199.00,74.00,30.90,20.47,270.00,4.00,0.00,30.12,1016.60,10.00,M,FEW,M,M,M,11000.00,M,M,M,M,M,M,M,M,M,M,73.90,KNFL 290656Z 27004KT 10SM FEW110 23/M01 A3012 RMK AO2 SLP166 T02331006,M
LSV,2022-06-29 06:56,-115.0343,36.2362,570.00,96.80,50.00,20.62,170.00,11.00,0.00,29.87,1008.20,10.00,M,SCT,BKN,M,M,14000.00,18000.00,M,M,M,M,M,M,M,M,M,93.71,KLSV 290656Z 17011KT 10SM SCT140 BKN180 36/10 A2987 RMK SLP082 WND DATA ESTMD ALSTG/SLP ESTMD $,M
HND,2022-06-29 06:56,-115.1344,35.9729,742.79,86.00,56.00,35.90,190.00,9.00,0.00,29.97,1012.70,10.00,M,CLR,M,M,M,M,M,M,M,M,M,M,M,M,M,M,84.66,KHND 290656Z AUTO 19009KT 10SM CLR 30/13 A2997 RMK AO2 SLP127 T03000133 404170289,M
LAS,2022-06-29 06:56,-115.1634,36.0719,663.00,95.00,47.00,19.40,210.00,6.00,0.00,29.92,1009.70,10.00,M,FEW,SCT,M,M,15000.00,20000.00,M,M,M,M,M,M,M,M,M,91.36,KLAS 290656Z 21006KT 10SM FEW150 SCT200 35/08 A2992 RMK AO2 SLP097 T03500083 $,M
INS,2022-06-29 06:58,-115.6733,36.5872,955.00,88.30,39.40,17.94,100.00,4.00,0.00,29.98,1009.30,10.00,M,CLR,M,M,M,M,M,M,M,M,M,M,M,M,M,M,84.64,KINS 290658Z AUTO 10004KT 10SM CLR 31/04 A2998 RMK AO2 SLP093 T03130041 $,M
BVU,2022-06-29 07:15,-114.8611,35.9475,671.00,89.60,50.00,25.79,0.00,0.00,0.00,29.93,M,10.00,M,CLR,M,M,M,M,M,M,M,M,M,M,M,M,M,M,86.70,KBVU 290715Z AUTO 00000KT 10SM CLR 32/10 A2993 RMK AO2,M
RTS,2022-06-29 07:15,-119.8764,39.6682,1539.00,62.60,26.60,25.32,0.00,0.00,0.00,30.21,M,10.00,11.00,CLR,M,M,M,M,M,M,M,M,M,M,M,M,M,M,62.60,KRTS 290715Z AUTO 00000G11KT 10SM CLR 17/M03 A3021 RMK AO2,M
MEV,2022-06-29 07:15,-119.7500,38.9963,1441.42,51.80,39.20,61.99,0.00,0.00,0.00,30.19,M,10.00,M,CLR,M,M,M,M,M,M,M,M,M,M,M,M,M,M,51.80,KMEV 290715Z AUTO 00000KT 10SM CLR 11/04 A3019 RMK AO2,M
BAM,2022-06-29 07:15,-116.8743,40.5990,1382.36,M,M,M,290.00,3.00,0.00,30.14,M,7.00,M,CLR,M,M,M,M,M,M,M,M,M,M,M,M,M,M,M,KBAM 290715Z AUTO 29003KT 7SM CLR A3014 RMK AO1,M
HTH,2022-06-29 07:15,-118.6315,38.5448,1282.89,78.80,32.00,18.18,220.00,7.00,0.00,30.13,M,10.00,M,CLR,M,M,M,M,M,M,M,M,M,M,M,M,M,M,78.80,KHTH 290715Z AUTO 22007KT 10SM CLR 26/M00 A3013 RMK A01,M
TMT,2022-06-29 07:15,-117.1971,39.4643,1749.34,62.20,29.70,29.16,180.00,6.00,0.00,30.25,M,10.00,M,CLR,M,M,M,M,M,M,M,M,M,M,M,M,M,M,62.20,KTMT 290715Z AUTO 18006KT 10SM CLR 17/M01 A3025 RMK AO2 T01681013,M
BVU,2022-06-29 07:35,-114.8611,35.9475,671.00,91.40,44.60,19.89,0.00,0.00,0.00,29.93,M,10.00,M,CLR,M,M,M,M,M,M,M,M,M,M,M,M,M,M,87.68,KBVU 290735Z AUTO 00000KT 10SM CLR 33/07 A2993 RMK AO2,M
RTS,2022-06-29 07:35,-119.8764,39.6682,1539.00,64.40,26.60,23.77,30.00,3.00,0.00,30.21,M,10.00,M,CLR,M,M,M,M,M,M,M,M,M,M,M,M,M,M,64.40,KRTS 290735Z AUTO 03003KT 10SM CLR 18/M03 A3021 RMK AO2,M
MEV,2022-06-29 07:35,-119.7500,38.9963,1441.42,51.80,39.20,61.99,130.00,5.00,0.00,30.19,M,10.00,M,CLR,M,M,M,M,M,M,M,M,M,M,M,M,M,M,51.80,KMEV 290735Z AUTO 13005KT 10SM CLR 11/04 A3019 RMK AO2,M
BAM,2022-06-29 07:35,-116.8743,40.5990,1382.36,M,M,M,0.00,0.00,0.00,30.14,M,7.00,M,CLR,M,M,M,M,M,M,M,M,M,M,M,M,M,M,M,KBAM 290735Z AUTO 00000KT 7SM CLR A3014 RMK AO1,M
HTH,2022-06-29 07:35,-118.6315,38.5448,1282.89,78.80,32.00,18.18,0.00,0.00,0.00,30.13,M,10.00,M,CLR,M,M,M,M,M,M,M,M,M,M,M,M,M,M,78.80,KHTH 290735Z AUTO 00000KT 10SM CLR 26/M00 A3013 RMK A01,M
TMT,2022-06-29 07:35,-117.1971,39.4643,1749.34,66.40,30.70,26.22,230.00,4.00,0.00,30.25,M,10.00,M,SCT,M,M,M,12000.00,M,M,M,M,M,M,M,M,M,M,66.40,KTMT 290735Z AUTO 23004KT 10SM SCT120 19/M01 A3025 RMK AO2 T01911007,M
ELY,2022-06-29 07:53,-114.8453,39.2950,1909.00,70.00,37.00,29.81,140.00,3.00,T,30.22,1011.20,10.00,M,FEW,M,M,M,5000.00,M,M,M,M,M,M,M,M,M,M,70.00,KELY 290753Z AUTO 14003KT 10SM FEW050 21/03 A3022 RMK AO2 RAB27E36 SLP112 P0000 T02110028 403330150,M
DRA,2022-06-29 07:53,-116.0278,36.6206,1009.00,91.00,36.00,14.42,200.00,13.00,0.00,29.99,1009.10,10.00,21.00,CLR,M,M,M,M,M,M,M,M,M,M,M,M,M,M,86.83,KDRA 290753Z AUTO 20013G21KT 10SM CLR 33/02 A2999 RMK AO2 SLP091 T03280022 404170256,M
LOL,2022-06-29 07:53,-118.5701,40.0684,1192.43,60.00,28.00,29.31,90.00,3.00,0.00,30.12,1015.50,10.00,M,CLR,M,M,M,M,M,M,M,M,M,M,M,M,M,M,60.10,KLOL 290753Z AUTO 09003KT 10SM CLR 16/M02 A3012 RMK AO2 SLP155 T01561022 403780089,M
VGT,2022-06-29 07:53,-115.1933,36.2111,667.00,97.00,42.00,15.20,220.00,8.00,0.00,29.90,1010.60,10.00,M,CLR,M,M,M,M,M,M,M,M,M,M,M,M,M,M,92.69,KVGT 290753Z AUTO 22008KT 10SM CLR 36/06 A2990 RMK AO2 SLP106 T03610056 404280289,M
P68,2022-06-29 07:53,-116.0056,39.6014,1993.00,69.00,32.00,25.18,70.00,7.00,0.00,30.22,1013.30,M,M,M,M,M,M,M,M,M,M,M,M,M,M,M,M,M,69.10,KP68 290753Z AUTO 07007KT 21/00 A3022 RMK AO1 SLP133 T02060000 403440122,M
BVU,2022-06-29 07:55,-114.8611,35.9475,671.00,89.60,48.20,24.11,0.00,0.00,0.00,29.93,M,10.00,M,CLR,M,M,M,M,M,M,M,M,M,M,M,M,M,M,86.44,KBVU 290755Z AUTO 00000KT 10SM CLR 32/09 A2993 RMK AO2,M
RTS,2022-06-29 07:55,-119.8764,39.6682,1539.00,64.40,26.60,23.77,350.00,3.00,0.00,30.20,M,10.00,M,CLR,M,M,M,M,M,M,M,M,M,M,M,M,M,M,64.40,KRTS 290755Z AUTO 35003KT 10SM CLR 18/M03 A3020 RMK AO2,M
MEV,2022-06-29 07:55,-119.7500,38.9963,1441.42,53.60,39.20,58.02,100.00,3.00,0.00,30.19,M,10.00,M,CLR,M,M,M,M,M,M,M,M,M,M,M,M,M,M,53.60,KMEV 290755Z AUTO 10003KT 10SM CLR 12/04 A3019 RMK AO2,M
BAM,2022-06-29 07:55,-116.8743,40.5990,1382.36,M,M,M,230.00,4.00,0.00,30.14,M,7.00,M,CLR,M,M,M,M,M,M,M,M,M,M,M,M,M,M,M,KBAM 290755Z AUTO 23004KT 7SM CLR A3014 RMK AO1,M
HTH,2022-06-29 07:55,-118.6315,38.5448,1282.89,78.80,32.00,18.18,220.00,3.00,0.00,30.13,M,M,M,M,M,M,M,M,M,M,M,M,M,M,M,M,M,M,78.80,KHTH 290755Z AUTO 22003KT 26/M00 A3013 RMK A01,M
TMT,2022-06-29 07:55,-117.1971,39.4643,1749.34,63.70,31.60,29.88,0.00,0.00,0.00,30.25,M,10.00,M,BKN,M,M,M,12000.00,M,M,M,M,M,M,M,M,M,M,63.70,KTMT 290755Z AUTO 00000KT 10SM BKN120 18/00 A3025 RMK AO2 T01761002,M
RNO,2022-06-29 07:55,-119.7711,39.4839,1341.00,71.00,34.00,25.49,0.00,0.00,0.00,30.15,1014.50,10.00,M,FEW,M,M,M,10000.00,M,M,M,M,M,M,M,M,M,M,71.10,KRNO 290755Z 00000KT 10SM FEW100 22/01 A3015 RMK AO2 SLP145 T02170011 403440150,M
EKO,2022-06-29 07:56,-115.7860,40.8242,1367.00,69.00,26.10,19.79,250.00,6.00,0.00,30.15,1014.20,9.00,M,CLR,M,M,M,M,M,M,M,M,M,M,M,M,M,M,69.10,KEKO 290756Z AUTO 25006KT 9SM CLR 21/M03 A3015 RMK AO2 SLP142 T02061033 403560161,M
NFL,2022-06-29 07:56,-118.7010,39.4166,1199.00,65.00,28.90,25.68,0.00,0.00,0.00,30.11,1016.40,10.00,M,CLR,M,M,M,M,M,M,M,M,M,M,M,M,M,M,64.90,KNFL 290756Z AUTO 00000KT 10SM CLR 18/M02 A3011 RMK AO2 SLP164 T01831017 403830122,M
HND,2022-06-29 07:56,-115.1344,35.9729,742.79,85.00,52.00,32.24,180.00,9.00,0.00,29.97,1012.80,10.00,M,CLR,M,M,M,M,M,M,M,M,M,M,M,M,M,M,83.03,KHND 290756Z AUTO 18009KT 10SM CLR 29/11 A2997 RMK AO2 SLP128 T02940111,M
LAS,2022-06-29 07:56,-115.1634,36.0719,663.00,94.00,43.00,17.31,210.00,6.00,0.00,29.92,1009.80,10.00,M,FEW,M,M,M,20000.00,M,M,M,M,M,M,M,M,M,M,89.84,KLAS 290756Z 21006KT 10SM FEW200 34/06 A2992 RMK AO2 SLP098 T03440061 404220306 $,M
WMC,2022-06-29 07:56,-117.8072,40.9019,1315.00,65.00,27.00,23.75,280.00,9.00,0.00,30.12,1014.40,10.00,M,CLR,M,M,M,M,M,M,M,M,M,M,M,M,M,M,64.90,KWMC 290756Z AUTO 28009KT 10SM CLR 18/M03 A3012 RMK AO2 SLP144 T01831028 403670128,M
INS,2022-06-29 07:58,-115.6733,36.5872,955.00,88.70,38.30,16.97,300.00,6.00,0.00,29.98,1009.10,10.00,M,CLR,M,M,M,M,M,M,M,M,M,M,M,M,M,M,84.94,KINS 290758Z AUTO 30006KT 10SM CLR 32/04 A2998 RMK AO2 SLP091 T03150035 403930232 $,M
LSV,2022-06-29 07:58,-115.0343,36.2362,570.00,95.00,48.20,20.38,180.00,10.00,0.00,29.90,1006.40,10.00,M,SCT,M,M,M,16000.00,M,M,M,M,M,M,M,M,M,M,91.56,KLSV 290758Z 18010KT 10SM SCT160 35/09 A2990 RMK AO2A SLP064 WND DATA ESTMD ALSTG/SLP ESTMD $,M
BVU,2022-06-29 08:15,-114.8611,35.9475,671.00,87.80,48.20,25.52,0.00,0.00,0.00,29.93,M,10.00,M,CLR,M,M,M,M,M,M,M,M,M,M,M,M,M,M,84.87,KBVU 290815Z AUTO 00000KT 10SM CLR 31/09 A2993 RMK AO2,M
RTS,2022-06-29 08:15,-119.8764,39.6682,1539.00,60.80,26.60,26.98,340.00,7.00,0.00,30.20,M,10.00,M,CLR,M,M,M,M,M,M,M,M,M,M,M,M,M,M,60.80,KRTS 290815Z AUTO 34007KT 10SM CLR 16/M03 A3020 RMK AO2,M
MEV,2022-06-29 08:15,-119.7500,38.9963,1441.42,55.40,37.40,50.64,0.00,0.00,0.00,30.19,M,10.00,M,CLR,M,M,M,M,M,M,M,M,M,M,M,M,M,M,55.40,KMEV 290815Z AUTO 00000KT 10SM CLR 13/03 A3019 RMK AO2,M
BAM,2022-06-29 08:15,-116.8743,40.5990,1382.36,M,M,M,150.00,3.00,0.00,30.14,M,10.00,M,CLR,M,M,M,M,M,M,M,M,M,M,M,M,M,M,M,KBAM 290815Z AUTO 15003KT 10SM CLR A3014 RMK AO1,M
HTH,2022-06-29 08:15,-118.6315,38.5448,1282.89,78.80,32.00,18.18,0.00,0.00,0.00,30.13,M,10.00,M,M,M,M,M,M,M,M,M,M,M,M,M,M,M,M,78.80,KHTH 290815Z AUTO 00000KT 10SM 26/M00 A3013 RMK A01,M
TMT,2022-06-29 08:15,-117.1971,39.4643,1749.34,60.60,30.90,32.41,0.00,0.00,0.00,30.25,M,10.00,M,OVC,M,M,M,12000.00,M,M,M,M,M,M,M,M,M,M,60.60,KTMT 290815Z AUTO 00000KT 10SM OVC120 16/M01 A3025 RMK AO2 T01591006,M
BVU,2022-06-29 08:35,-114.8611,35.9475,671.00,87.80,48.20,25.52,0.00,0.00,0.00,29.93,M,10.00,M,CLR,M,M,M,M,M,M,M,M,M,M,M,M,M,M,84.87,KBVU 290835Z AUTO 00000KT 10SM CLR 31/09 A2993 RMK AO2,M
RTS,2022-06-29 08:35,-119.8764,39.6682,1539.00,60.80,26.60,26.98,340.00,4.00,0.00,30.20,M,10.00,M,CLR,M,M,M,M,M,M,M,M,M,M,M,M,M,M,60.80,KRTS 290835Z AUTO 34004KT 10SM CLR 16/M03 A3020 RMK AO2,M
MEV,2022-06-29 08:35,-119.7500,38.9963,1441.42,53.60,35.60,50.36,0.00,0.00,0.00,30.18,M,10.00,M,CLR,M,M,M,M,M,M,M,M,M,M,M,M,M,M,53.60,KMEV 290835Z AUTO 00000KT 10SM CLR 12/02 A3018 RMK AO2,M
BAM,2022-06-29 08:35,-116.8743,40.5990,1382.36,M,M,M,0.00,0.00,0.00,30.15,M,10.00,M,CLR,M,M,M,M,M,M,M,M,M,M,M,M,M,M,M,KBAM 290835Z AUTO 00000KT 10SM CLR A3015 RMK AO1,M
HTH,2022-06-29 08:35,-118.6315,38.5448,1282.89,77.00,30.20,17.94,280.00,5.00,0.00,30.13,M,10.00,M,M,M,M,M,M,M,M,M,M,M,M,M,M,M,M,77.00,KHTH 290835Z AUTO 28005KT 10SM 25/M01 A3013 RMK A01,M
TMT,2022-06-29 08:35,-117.1971,39.4643,1749.34,60.00,30.20,32.06,190.00,5.00,0.00,30.25,M,10.00,M,BKN,M,M,M,12000.00,M,M,M,M,M,M,M,M,M,M,60.10,KTMT 290835Z AUTO 19005KT 10SM BKN120 16/M01 A3025 RMK AO2 LTG DSNT SE T01561010,M
P68,2022-06-29 08:53,-116.0056,39.6014,1993.00,67.00,30.00,25.05,320.00,3.00,0.00,30.22,1013.80,M,M,M,M,M,M,M,M,M,M,M,M,M,M,M,M,M,66.90,KP68 290853Z AUTO 32003KT 19/M01 A3022 RMK AO1 SLP138 T01941011 51004,M
ELY,2022-06-29 08:53,-114.8453,39.2950,1909.00,66.00,36.00,32.88,180.00,6.00,0.00,30.23,1011.70,10.00,M,CLR,M,M,M,M,M,M,M,M,M,M,M,M,M,M,66.00,KELY 290853Z AUTO 18006KT 10SM CLR 19/02 A3023 RMK AO2 SLP117 60000 T01890022 51001,M
DRA,2022-06-29 08:53,-116.0278,36.6206,1009.00,91.00,36.00,14.42,200.00,15.00,0.00,29.99,1009.10,10.00,M,CLR,M,M,M,M,M,M,M,M,M,M,M,26.00,200.00,2022-06-29 08:41,86.83,KDRA 290853Z AUTO 20015KT 10SM CLR 33/02 A2999 RMK AO2 PK WND 20026/0841 SLP091 T03280022 50002,M
VGT,2022-06-29 08:53,-115.1933,36.2111,667.00,98.00,41.00,14.08,240.00,9.00,0.00,29.90,1010.50,10.00,M,CLR,M,M,M,M,M,M,M,M,M,M,M,M,M,M,93.62,KVGT 290853Z AUTO 24009KT 10SM CLR 37/05 A2990 RMK AO2 SLP105 T03670050 58001,M
LOL,2022-06-29 08:53,-118.5701,40.0684,1192.43,57.00,28.00,32.75,10.00,5.00,0.00,30.11,1015.50,10.00,M,CLR,M,M,M,M,M,M,M,M,M,M,M,M,M,M,57.00,KLOL 290853Z AUTO 01005KT 10SM CLR 14/M02 A3011 RMK AO2 SLP155 T01391022 50003,M
BVU,2022-06-29 08:55,-114.8611,35.9475,671.00,84.20,51.80,32.73,0.00,0.00,0.00,29.93,M,10.00,M,CLR,M,M,M,M,M,M,M,M,M,M,M,M,M,M,82.48,KBVU 290855Z AUTO 00000KT 10SM CLR 29/11 A2993 RMK AO2,M
RTS,2022-06-29 08:55,-119.8764,39.6682,1539.00,62.60,24.80,23.50,340.00,6.00,0.00,30.20,M,10.00,M,CLR,M,M,M,M,M,M,M,M,M,M,M,M,M,M,62.60,KRTS 290855Z AUTO 34006KT 10SM CLR 17/M04 A3020 RMK AO2,M
MEV,2022-06-29 08:55,-119.7500,38.9963,1441.42,51.80,37.40,57.77,100.00,5.00,0.00,30.18,M,10.00,M,CLR,M,M,M,M,M,M,M,M,M,M,M,M,M,M,51.80,KMEV 290855Z AUTO 10005KT 10SM CLR 11/03 A3018 RMK AO2,M
BAM,2022-06-29 08:55,-116.8743,40.5990,1382.36,M,M,M,150.00,3.00,0.00,30.15,M,10.00,M,CLR,M,M,M,M,M,M,M,M,M,M,M,M,M,M,M,KBAM 290855Z AUTO 15003KT 10SM CLR A3015 RMK AO1,M
HTH,2022-06-29 08:55,-118.6315,38.5448,1282.89,75.20,30.20,19.05,M,4.00,0.00,30.13,M,10.00,M,CLR,M,M,M,M,M,M,M,M,M,M,M,M,M,M,75.20,KHTH 290855Z AUTO VRB04KT 10SM CLR 24/M01 A3013 RMK A01,M
TMT,2022-06-29 08:55,-117.1971,39.4643,1749.34,59.20,30.90,34.06,0.00,0.00,0.00,30.25,M,10.00,M,BKN,M,M,M,12000.00,M,M,M,M,M,M,M,M,M,M,59.20,KTMT 290855Z AUTO 00000KT 10SM BKN120 15/M01 A3025 RMK AO2 T01511006,M
RNO,2022-06-29 08:55,-119.7711,39.4839,1341.00,68.00,35.00,29.61,280.00,4.00,0.00,30.15,1014.50,10.00,M,FEW,M,M,M,10000.00,M,M,M,M,M,M,M,M,M,M,68.00,KRNO 290855Z 28004KT 10SM FEW100 20/02 A3015 RMK AO2 SLP145 T02000017 58004,M
EKO,2022-06-29 08:56,-115.7860,40.8242,1367.00,71.00,26.10,18.48,230.00,9.00,0.00,30.15,1014.00,10.00,M,CLR,M,M,M,M,M,M,M,M,M,M,M,M,M,M,71.10,KEKO 290856Z AUTO 23009KT 10SM CLR 22/M03 A3015 RMK AO2 SLP140 T02171033 51004,M
WMC,2022-06-29 08:56,-117.8072,40.9019,1315.00,61.00,27.00,27.24,280.00,9.00,0.00,30.12,1014.70,10.00,M,CLR,M,M,M,M,M,M,M,M,M,M,M,M,M,M,61.00,KWMC 290856Z AUTO 28009KT 10SM CLR 16/M03 A3012 RMK AO2 SLP147 T01611028 51001,M
NFL,2022-06-29 08:56,-118.7010,39.4166,1199.00,69.00,34.00,27.29,230.00,5.00,0.00,30.11,1016.30,10.00,M,CLR,M,M,M,M,M,M,M,M,M,M,M,M,M,M,69.10,KNFL 290856Z AUTO 23005KT 10SM CLR 21/01 A3011 RMK AO2 SLP163 T02060011 58002,M
HND,2022-06-29 08:56,-115.1344,35.9729,742.79,87.00,47.00,24.85,200.00,12.00,0.00,29.97,1012.60,10.00,M,CLR,M,M,M,M,M,M,M,M,M,M,M,M,M,M,84.15,KHND 290856Z AUTO 20012KT 10SM CLR 31/08 A2997 RMK AO2 SLP126 T03060083 57002,M
LAS,2022-06-29 08:56,-115.1634,36.0719,663.00,92.00,44.00,19.21,180.00,6.00,0.00,29.92,1009.70,10.00,M,FEW,M,M,M,20000.00,M,M,M,M,M,M,M,M,M,M,88.09,KLAS 290856Z 18006KT 10SM FEW200 33/07 A2992 RMK AO2 SLP097 T03330067 56000 $,M
LSV,2022-06-29 08:58,-115.0343,36.2362,570.00,95.00,46.40,19.04,170.00,8.00,0.00,29.90,1006.30,10.00,M,SCT,M,M,M,16000.00,M,M,M,M,M,M,M,M,M,M,91.29,KLSV 290858Z 17008KT 10SM SCT160 35/08 A2990 RMK AO2A SLP063 WND DATA ESTMD ALSTG/SLP ESTMD $,M
INS,2022-06-29 08:58,-115.6733,36.5872,955.00,87.80,37.60,16.99,70.00,4.00,0.00,29.99,1009.60,10.00,M,CLR,M,M,M,M,M,M,M,M,M,M,M,M,M,M,84.17,KINS 290858Z AUTO 07004KT 10SM CLR 31/03 A2999 RMK AO2 SLP096 T03100031 50005 $,M
BVU,2022-06-29 09:15,-114.8611,35.9475,671.00,87.80,46.40,23.85,0.00,0.00,0.00,29.94,M,10.00,M,CLR,M,M,M,M,M,M,M,M,M,M,M,M,M,M,84.68,KBVU 290915Z AUTO 00000KT 10SM CLR 31/08 A2994 RMK AO2,M
RTS,2022-06-29 09:15,-119.8764,39.6682,1539.00,60.80,24.80,25.04,50.00,3.00,0.00,30.20,M,10.00,M,CLR,M,M,M,M,M,M,M,M,M,M,M,M,M,M,60.80,KRTS 290915Z AUTO 05003KT 10SM CLR 16/M04 A3020 RMK AO2,M
MEV,2022-06-29 09:15,-119.7500,38.9963,1441.42,51.80,37.40,57.77,0.00,0.00,0.00,30.18,M,10.00,M,CLR,M,M,M,M,M,M,M,M,M,M,M,M,M,M,51.80,KMEV 290915Z AUTO 00000KT 10SM CLR 11/03 A3018 RMK AO2,M
BAM,2022-06-29 09:15,-116.8743,40.5990,1382.36,M,M,M,0.00,0.00,0.00,30.15,M,10.00,M,CLR,M,M,M,M,M,M,M,M,M,M,M,M,M,M,M,KBAM 290915Z AUTO 00000KT 10SM CLR A3015 RMK AO1,M
HTH,2022-06-29 09:15,-118.6315,38.5448,1282.89,75.20,30.20,19.05,60.00,5.00,0.00,30.14,M,10.00,M,FEW,M,M,M,12000.00,M,M,M,M,M,M,M,M,M,M,75.20,KHTH 290915Z AUTO 06005KT 10SM FEW120 24/M01 A3014 RMK A01,M
TMT,2022-06-29 09:15,-117.1971,39.4643,1749.34,60.30,30.40,32.10,0.00,0.00,0.00,30.24,M,10.00,M,SCT,M,M,M,12000.00,M,M,M,M,M,M,M,M,M,M,60.30,KTMT 290915Z AUTO 00000KT 10SM SCT120 16/M01 A3024 RMK AO2 T01571009,M
BVU,2022-06-29 09:35,-114.8611,35.9475,671.00,86.00,48.20,27.03,0.00,0.00,0.00,29.94,M,10.00,M,CLR,M,M,M,M,M,M,M,M,M,M,M,M,M,M,83.40,KBVU 290935Z AUTO 00000KT 10SM CLR 30/09 A2994 RMK AO2,M
RTS,2022-06-29 09:35,-119.8764,39.6682,1539.00,60.80,24.80,25.04,360.00,5.00,0.00,30.20,M,10.00,M,CLR,M,M,M,M,M,M,M,M,M,M,M,M,M,M,60.80,KRTS 290935Z AUTO 36005KT 10SM CLR 16/M04 A3020 RMK AO2,M
MEV,2022-06-29 09:35,-119.7500,38.9963,1441.42,51.80,39.20,61.99,0.00,0.00,0.00,30.17,M,10.00,M,CLR,M,M,M,M,M,M,M,M,M,M,M,M,M,M,51.80,KMEV 290935Z AUTO 00000KT 10SM CLR 11/04 A3017 RMK AO2,M
BAM,2022-06-29 09:35,-116.8743,40.5990,1382.36,M,M,M,180.00,5.00,0.00,30.15,M,10.00,M,CLR,M,M,M,M,M,M,M,M,M,M,M,M,M,M,M,KBAM 290935Z AUTO 18005KT 10SM CLR A3015 RMK AO1,M
HTH,2022-06-29 09:35,-118.6315,38.5448,1282.89,75.20,32.00,20.49,0.00,0.00,0.00,30.14,M,10.00,M,FEW,M,M,M,12000.00,M,M,M,M,M,M,M,M,M,M,75.20,KHTH 290935Z AUTO 00000KT 10SM FEW120 24/M00 A3014 RMK A01,M
TMT,2022-06-29 09:35,-117.1971,39.4643,1749.34,56.50,29.30,35.17,0.00,0.00,0.00,30.24,M,10.00,M,SCT,SCT,SCT,M,8000.00,10000.00,12000.00,M,M,M,M,M,M,M,M,56.50,KTMT 290935Z AUTO 00000KT 10SM SCT080 SCT100 SCT120 14/M01 A3024 RMK AO2 T01361015,M
P68,2022-06-29 09:53,-116.0056,39.6014,1993.00,66.00,30.90,26.81,140.00,6.00,0.00,30.23,1014.00,M,M,M,M,M,M,M,M,M,M,M,M,M,M,M,M,M,66.00,KP68 290953Z AUTO 14006KT 19/M01 A3023 RMK AO1 SLP140 T01891006,M
DRA,2022-06-29 09:53,-116.0278,36.6206,1009.00,90.00,37.00,15.48,200.00,7.00,0.00,30.00,1009.30,10.00,M,CLR,M,M,M,M,M,M,M,M,M,M,M,M,M,M,86.00,KDRA 290953Z AUTO 20007KT 10SM CLR 32/03 A3000 RMK AO2 SLP093 T03220028,M
LOL,2022-06-29 09:53,-118.5701,40.0684,1192.43,59.00,28.00,30.48,0.00,0.00,0.00,30.11,1015.40,10.00,M,CLR,M,M,M,M,M,M,M,M,M,M,M,M,M,M,59.00,KLOL 290953Z AUTO 00000KT 10SM CLR 15/M02 A3011 RMK AO2 SLP154 T01501022,M
VGT,2022-06-29 09:53,-115.1933,36.2111,667.00,93.00,42.00,17.19,170.00,5.00,0.00,29.91,1010.80,10.00,M,CLR,M,M,M,M,M,M,M,M,M,M,M,M,M,M,88.93,KVGT 290953Z AUTO 17005KT 10SM CLR 34/06 A2991 RMK AO2 SLP108 T03390056,M
ELY,2022-06-29 09:53,-114.8453,39.2950,1909.00,58.00,35.00,42.24,M,M,0.00,30.23,1012.40,10.00,M,CLR,M,M,M,M,M,M,M,M,M,M,M,M,M,M,57.90,KELY 290953Z AUTO 10SM CLR 14/02 A3023 RMK AO2 SLP124 T01440017,M
BVU,2022-06-29 09:55,-114.8611,35.9475,671.00,84.20,50.00,30.62,0.00,0.00,0.00,29.94,M,10.00,M,CLR,M,M,M,M,M,M,M,M,M,M,M,M,M,M,82.24,KBVU 290955Z AUTO 00000KT 10SM CLR 29/10 A2994 RMK AO2,M
RNO,2022-06-29 09:55,-119.7711,39.4839,1341.00,66.00,34.00,30.37,340.00,3.00,0.00,30.14,1014.20,10.00,M,FEW,M,M,M,18000.00,M,M,M,M,M,M,M,M,M,M,66.00,KRNO 290955Z 34003KT 10SM FEW180 19/01 A3014 RMK AO2 SLP142 T01890011,M
RTS,2022-06-29 09:55,-119.8764,39.6682,1539.00,55.40,24.80,30.40,0.00,0.00,0.00,30.19,M,10.00,M,CLR,M,M,M,M,M,M,M,M,M,M,M,M,M,M,55.40,KRTS 290955Z AUTO 00000KT 10SM CLR 13/M04 A3019 RMK AO2,M
MEV,2022-06-29 09:55,-119.7500,38.9963,1441.42,53.60,39.20,58.02,0.00,0.00,0.00,30.17,M,10.00,M,CLR,M,M,M,M,M,M,M,M,M,M,M,M,M,M,53.60,KMEV 290955Z AUTO 00000KT 10SM CLR 12/04 A3017 RMK AO2,M
BAM,2022-06-29 09:55,-116.8743,40.5990,1382.36,M,M,M,140.00,3.00,0.00,30.15,M,10.00,M,CLR,M,M,M,M,M,M,M,M,M,M,M,M,M,M,M,KBAM 290955Z AUTO 14003KT 10SM CLR A3015 RMK AO1,M
HTH,2022-06-29 09:55,-118.6315,38.5448,1282.89,73.40,35.60,25.13,300.00,6.00,0.00,30.13,M,10.00,M,CLR,M,M,M,M,M,M,M,M,M,M,M,M,M,M,73.40,KHTH 290955Z AUTO 30006KT 10SM CLR 23/02 A3013 RMK A01,M
TMT,2022-06-29 09:55,-117.1971,39.4643,1749.34,57.00,30.40,36.12,0.00,0.00,0.00,30.25,M,10.00,M,SCT,SCT,M,M,10000.00,12000.00,M,M,M,M,M,M,M,M,M,57.00,KTMT 290955Z AUTO 00000KT 10SM SCT100 SCT120 14/M01 A3025 RMK AO2 T01391009,M
EKO,2022-06-29 09:56,-115.7860,40.8242,1367.00,64.00,30.00,27.71,240.00,4.00,0.00,30.16,1014.50,10.00,M,FEW,M,M,M,11000.00,M,M,M,M,M,M,M,M,M,M,64.00,KEKO 290956Z AUTO 24004KT 10SM FEW110 18/M01 A3016 RMK AO2 SLP145 T01781011,M
WMC,2022-06-29 09:56,-117.8072,40.9019,1315.00,63.00,27.00,25.38,250.00,9.00,0.00,30.12,1014.50,10.00,M,CLR,M,M,M,M,M,M,M,M,M,M,M,M,M,M,63.00,KWMC 290956Z AUTO 25009KT 10SM CLR 17/M03 A3012 RMK AO2 SLP145 T01721028,M
NFL,2022-06-29 09:56,-118.7010,39.4166,1199.00,63.00,32.00,31.12,0.00,0.00,0.00,30.11,1016.30,10.00,M,CLR,M,M,M,M,M,M,M,M,M,M,M,M,M,M,63.00,KNFL 290956Z AUTO 00000KT 10SM CLR 17/00 A3011 RMK AO2 SLP163 T01720000,M
HND,2022-06-29 09:56,-115.1344,35.9729,742.79,87.00,45.00,23.12,200.00,13.00,0.00,29.97,1012.90,10.00,M,CLR,M,M,M,M,M,M,M,M,M,M,M,M,M,M,83.98,KHND 290956Z AUTO 20013KT 10SM CLR 31/07 A2997 RMK AO2 SLP129 T03060072,M
LAS,2022-06-29 09:56,-115.1634,36.0719,663.00,90.00,42.00,18.88,190.00,6.00,0.00,29.93,1010.00,10.00,M,FEW,M,M,M,20000.00,M,M,M,M,M,M,M,M,M,M,86.23,KLAS 290956Z 19006KT 10SM FEW200 32/06 A2993 RMK AO2 SLP100 T03220056 $,M
LSV,2022-06-29 09:58,-115.0343,36.2362,570.00,93.20,44.60,18.80,180.00,11.00,0.00,29.91,1006.60,10.00,M,SCT,M,M,M,16000.00,M,M,M,M,M,M,M,M,M,M,89.34,KLSV 290958Z 18011KT 10SM SCT160 34/07 A2991 RMK AO2A SLP066 WND DATA ESTMD ALSTG/SLP ESTMD $,M
INS,2022-06-29 09:58,-115.6733,36.5872,955.00,87.00,37.00,16.90,90.00,3.00,0.00,29.99,1009.50,10.00,M,FEW,M,M,M,13000.00,M,M,M,M,M,M,M,M,M,M,83.58,KINS 290958Z AUTO 09003KT 10SM FEW130 31/03 A2999 RMK AO2 SLP095 T03060027 $,M
BVU,2022-06-29 10:15,-114.8611,35.9475,671.00,82.40,48.20,30.35,0.00,0.00,0.00,29.94,M,10.00,M,CLR,M,M,M,M,M,M,M,M,M,M,M,M,M,M,80.80,KBVU 291015Z AUTO 00000KT 10SM CLR 28/09 A2994 RMK AO2,M
RTS,2022-06-29 10:15,-119.8764,39.6682,1539.00,57.20,26.60,30.69,360.00,7.00,0.00,30.19,M,10.00,M,CLR,M,M,M,M,M,M,M,M,M,M,M,M,M,M,57.20,KRTS 291015Z AUTO 36007KT 10SM CLR 14/M03 A3019 RMK AO2,M
MEV,2022-06-29 10:15,-119.7500,38.9963,1441.42,51.80,39.20,61.99,0.00,0.00,0.00,30.17,M,10.00,M,CLR,M,M,M,M,M,M,M,M,M,M,M,M,M,M,51.80,KMEV 291015Z AUTO 00000KT 10SM CLR 11/04 A3017 RMK AO2,M
BAM,2022-06-29 10:15,-116.8743,40.5990,1382.36,M,M,M,150.00,3.00,0.00,30.15,M,10.00,M,CLR,M,M,M,M,M,M,M,M,M,M,M,M,M,M,M,KBAM 291015Z AUTO 15003KT 10SM CLR A3015 RMK AO1,M
HTH,2022-06-29 10:15,-118.6315,38.5448,1282.89,71.60,35.60,26.71,0.00,0.00,0.00,30.14,M,10.00,M,CLR,M,M,M,M,M,M,M,M,M,M,M,M,M,M,71.60,KHTH 291015Z AUTO 00000KT 10SM CLR 22/02 A3014 RMK A01,M
TMT,2022-06-29 10:15,-117.1971,39.4643,1749.34,53.60,30.60,41.21,0.00,0.00,0.00,30.25,M,10.00,M,CLR,M,M,M,M,M,M,M,M,M,M,M,M,M,M,53.60,KTMT 291015Z AUTO 00000KT 10SM CLR 12/M01 A3025 RMK AO2 T01201008,M
BVU,2022-06-29 10:35,-114.8611,35.9475,671.00,86.00,48.20,27.03,0.00,0.00,0.00,29.94,M,10.00,M,CLR,M,M,M,M,M,M,M,M,M,M,M,M,M,M,83.40,KBVU 291035Z AUTO 00000KT 10SM CLR 30/09 A2994 RMK AO2,M
RTS,2022-06-29 10:35,-119.8764,39.6682,1539.00,57.20,26.60,30.69,0.00,0.00,0.00,30.19,M,10.00,M,CLR,M,M,M,M,M,M,M,M,M,M,M,M,M,M,57.20,KRTS 291035Z AUTO 00000KT 10SM CLR 14/M03 A3019 RMK AO2,M
MEV,2022-06-29 10:35,-119.7500,38.9963,1441.42,50.00,39.20,66.27,100.00,6.00,0.00,30.16,M,10.00,M,CLR,M,M,M,M,M,M,M,M,M,M,M,M,M,M,50.00,KMEV 291035Z AUTO 10006KT 10SM CLR 10/04 A3016 RMK AO2,M
BAM,2022-06-29 10:35,-116.8743,40.5990,1382.36,M,M,M,160.00,4.00,0.00,30.16,M,10.00,M,CLR,M,M,M,M,M,M,M,M,M,M,M,M,M,M,M,KBAM 291035Z AUTO 16004KT 10SM CLR A3016 RMK AO1,M
HTH,2022-06-29 10:35,-118.6315,38.5448,1282.89,71.60,32.00,23.13,150.00,3.00,0.00,30.13,M,10.00,M,CLR,M,M,M,M,M,M,M,M,M,M,M,M,M,M,71.60,KHTH 291035Z AUTO 15003KT 10SM CLR 22/00 A3013 RMK A01,M
TMT,2022-06-29 10:35,-117.1971,39.4643,1749.34,53.20,31.50,43.37,160.00,4.00,0.00,30.25,M,10.00,M,CLR,M,M,M,M,M,M,M,M,M,M,M,M,M,M,53.20,KTMT 291035Z AUTO 16004KT 10SM CLR 12/00 A3025 RMK AO2 T01181003,M
P68,2022-06-29 10:53,-116.0056,39.6014,1993.00,61.00,28.90,29.45,0.00,0.00,0.00,30.22,1014.00,M,M,M,M,M,M,M,M,M,M,M,M,M,M,M,M,M,61.00,KP68 291053Z AUTO 00000KT 16/M02 A3022 RMK AO1 SLP140 T01611017,M
ELY,2022-06-29 10:53,-114.8453,39.2950,1909.00,61.00,36.00,39.19,190.00,9.00,0.00,30.24,1012.80,10.00,M,FEW,M,M,M,10000.00,M,M,M,M,M,M,M,M,M,M,61.00,KELY 291053Z AUTO 19009KT 10SM FEW100 16/02 A3024 RMK AO2 SLP128 T01610022,M
DRA,2022-06-29 10:53,-116.0278,36.6206,1009.00,89.00,39.00,17.22,210.00,12.00,0.00,30.00,1009.30,10.00,M,CLR,M,M,M,M,M,M,M,M,M,M,M,M,M,M,85.30,KDRA 291053Z AUTO 21012KT 10SM CLR 32/04 A3000 RMK AO2 SLP093 T03170039,M
LOL,2022-06-29 10:53,-118.5701,40.0684,1192.43,57.00,27.00,31.43,320.00,4.00,0.00,30.11,1015.20,10.00,M,CLR,M,M,M,M,M,M,M,M,M,M,M,M,M,M,57.00,KLOL 291053Z AUTO 32004KT 10SM CLR 14/M03 A3011 RMK AO2 SLP152 T01391028,M
VGT,2022-06-29 10:53,-115.1933,36.2111,667.00,93.00,42.00,17.19,180.00,10.00,0.00,29.91,1010.90,10.00,M,CLR,M,M,M,M,M,M,M,M,M,M,M,M,M,M,88.93,KVGT 291053Z AUTO 18010KT 10SM CLR 34/06 A2991 RMK AO2 SLP109 T03390056,M
RTS,2022-06-29 10:55,-119.8764,39.6682,1539.00,60.80,26.60,26.98,0.00,0.00,0.00,30.19,M,10.00,M,CLR,M,M,M,M,M,M,M,M,M,M,M,M,M,M,60.80,KRTS 291055Z AUTO 00000KT 10SM CLR 16/M03 A3019 RMK AO2,M
MEV,2022-06-29 10:55,-119.7500,38.9963,1441.42,50.00,39.20,66.27,110.00,9.00,0.00,30.16,M,10.00,M,CLR,M,M,M,M,M,M,M,M,M,M,M,M,M,M,50.00,KMEV 291055Z AUTO 11009KT 10SM CLR 10/04 A3016 RMK AO2,M
BAM,2022-06-29 10:55,-116.8743,40.5990,1382.36,M,M,M,210.00,5.00,0.00,30.15,M,10.00,M,CLR,M,M,M,M,M,M,M,M,M,M,M,M,M,M,M,KBAM 291055Z AUTO 21005KT 10SM CLR A3015 RMK AO1,M
HTH,2022-06-29 10:55,-118.6315,38.5448,1282.89,68.00,30.20,24.32,120.00,6.00,0.00,30.14,M,10.00,M,CLR,M,M,M,M,M,M,M,M,M,M,M,M,M,M,68.00,KHTH 291055Z AUTO 12006KT 10SM CLR 20/M01 A3014 RMK A01,M
TMT,2022-06-29 10:55,-117.1971,39.4643,1749.34,53.20,31.10,42.67,290.00,3.00,0.00,30.24,M,10.00,M,SCT,BKN,M,M,9000.00,12000.00,M,M,M,M,M,M,M,M,M,53.20,KTMT 291055Z AUTO 29003KT 10SM SCT090 BKN120 12/00 A3024 RMK AO2 T01181005,M
RNO,2022-06-29 10:55,-119.7711,39.4839,1341.00,64.00,35.00,34.02,60.00,3.00,0.00,30.13,1014.40,10.00,M,FEW,M,M,M,18000.00,M,M,M,M,M,M,M,M,M,M,64.00,KRNO 291055Z 06003KT 10SM FEW180 18/02 A3013 RMK AO2 SLP144 T01780017,M
WMC,2022-06-29 10:56,-117.8072,40.9019,1315.00,57.00,28.90,33.98,0.00,0.00,0.00,30.13,1015.10,10.00,M,CLR,M,M,M,M,M,M,M,M,M,M,M,M,M,M,57.00,KWMC 291056Z AUTO 00000KT 10SM CLR 14/M02 A3013 RMK AO2 SLP151 T01391017,M
NFL,2022-06-29 10:56,-118.7010,39.4166,1199.00,65.00,32.00,29.12,0.00,0.00,0.00,30.11,1016.20,10.00,M,CLR,M,M,M,M,M,M,M,M,M,M,M,M,M,M,64.90,KNFL 291056Z AUTO 00000KT 10SM CLR 18/00 A3011 RMK AO2 SLP162 T01830000,M
HND,2022-06-29 10:56,-115.1344,35.9729,742.79,85.00,45.00,24.81,200.00,12.00,0.00,29.97,1012.90,10.00,M,CLR,M,M,M,M,M,M,M,M,M,M,M,M,M,M,82.27,KHND 291056Z AUTO 20012KT 10SM CLR 29/07 A2997 RMK AO2 SLP129 T02940072,M
LAS,2022-06-29 10:56,-115.1634,36.0719,663.00,89.00,41.00,18.62,190.00,7.00,0.00,29.93,1010.10,10.00,M,SCT,BKN,M,M,15000.00,20000.00,M,M,M,M,M,M,M,M,M,85.39,KLAS 291056Z 19007KT 10SM SCT150 BKN200 32/05 A2993 RMK AO2 SLP101 T03170050 $,M
EKO,2022-06-29 10:56,-115.7860,40.8242,1367.00,60.00,33.00,36.05,0.00,0.00,0.00,30.17,1015.20,10.00,M,CLR,M,M,M,M,M,M,M,M,M,M,M,M,M,M,60.10,KEKO 291056Z AUTO 00000KT 10SM CLR 16/01 A3017 RMK AO2 SLP152 T01560006,M
INS,2022-06-29 10:58,-115.6733,36.5872,955.00,82.00,37.00,19.99,70.00,5.00,0.00,29.99,1009.80,10.00,M,SCT,BKN,M,M,14000.00,17000.00,M,M,M,M,M,M,M,M,M,79.86,KINS 291058Z AUTO 07005KT 10SM SCT140 BKN170 28/03 A2999 RMK AO2 SLP098 T02780028 $,M
LSV,2022-06-29 10:58,-115.0343,36.2362,570.00,91.40,42.80,18.56,180.00,12.00,0.00,29.92,1006.90,10.00,M,FEW,M,M,M,15000.00,M,M,M,M,M,M,M,M,M,M,87.52,KLSV 291058Z 18012KT 10SM FEW150 33/06 A2992 RMK AO2A SLP069 WND DATA ESTMD ALSTG/SLP ESTMD $,M
RTS,2022-06-29 11:15,-119.8764,39.6682,1539.00,55.40,26.60,32.76,340.00,4.00,0.00,30.19,M,10.00,M,CLR,M,M,M,M,M,M,M,M,M,M,M,M,M,M,55.40,KRTS 291115Z AUTO 34004KT 10SM CLR 13/M03 A3019 RMK AO2,M
MEV,2022-06-29 11:15,-119.7500,38.9963,1441.42,50.00,39.20,66.27,110.00,7.00,0.00,30.16,M,10.00,M,CLR,M,M,M,M,M,M,M,M,M,M,M,M,M,M,50.00,KMEV 291115Z AUTO 11007KT 10SM CLR 10/04 A3016 RMK AO2,M
BAM,2022-06-29 11:15,-116.8743,40.5990,1382.36,M,M,M,180.00,3.00,0.00,30.16,M,10.00,M,CLR,M,M,M,M,M,M,M,M,M,M,M,M,M,M,M,KBAM 291115Z AUTO 18003KT 10SM CLR A3016 RMK AO1,M
HTH,2022-06-29 11:15,-118.6315,38.5448,1282.89,69.80,30.20,22.86,0.00,0.00,0.00,30.14,M,10.00,M,CLR,M,M,M,M,M,M,M,M,M,M,M,M,M,M,69.80,KHTH 291115Z AUTO 00000KT 10SM CLR 21/M01 A3014 RMK A01,M
TMT,2022-06-29 11:15,-117.1971,39.4643,1749.34,51.30,31.30,46.14,0.00,0.00,0.00,30.24,M,10.00,M,BKN,M,M,M,12000.00,M,M,M,M,M,M,M,M,M,M,51.30,KTMT 291115Z AUTO 00000KT 10SM BKN120 11/00 A3024 RMK AO2 T01071004,M
RTS,2022-06-29 11:35,-119.8764,39.6682,1539.00,57.20,26.60,30.69,0.00,0.00,0.00,30.18,M,10.00,M,CLR,M,M,M,M,M,M,M,M,M,M,M,M,M,M,57.20,KRTS 291135Z AUTO 00000KT 10SM CLR 14/M03 A3018 RMK AO2,M
MEV,2022-06-29 11:35,-119.7500,38.9963,1441.42,53.60,39.20,58.02,110.00,8.00,0.00,30.16,M,10.00,M,CLR,M,M,M,M,M,M,M,M,M,M,M,M,M,M,53.60,KMEV 291135Z AUTO 11008KT 10SM CLR 12/04 A3016 RMK AO2,M
BAM,2022-06-29 11:35,-116.8743,40.5990,1382.36,M,M,M,180.00,6.00,0.00,30.16,M,10.00,M,CLR,M,M,M,M,M,M,M,M,M,M,M,M,M,M,M,KBAM 291135Z AUTO 18006KT 10SM CLR A3016 RMK AO1,M
HTH,2022-06-29 11:35,-118.6315,38.5448,1282.89,69.80,33.80,26.43,0.00,0.00,0.00,30.14,M,10.00,M,CLR,M,M,M,M,M,M,M,M,M,M,M,M,M,M,69.80,KHTH 291135Z AUTO 00000KT 10SM CLR 21/01 A3014 RMK A01,M
TMT,2022-06-29 11:35,-117.1971,39.4643,1749.34,52.00,31.50,45.33,230.00,4.00,0.00,30.24,M,10.00,M,SCT,M,M,M,12000.00,M,M,M,M,M,M,M,M,M,M,52.00,KTMT 291135Z AUTO 23004KT 10SM SCT120 11/00 A3024 RMK AO2 T01111003,M
P68,2022-06-29 11:53,-116.0056,39.6014,1993.00,58.00,30.00,34.41,130.00,8.00,0.00,30.22,1014.20,M,M,M,M,M,M,M,M,M,M,M,M,M,M,M,M,M,57.90,KP68 291153Z AUTO 13008KT 14/M01 A3022 RMK AO1 SLP142 T01441011 10256 20139 58000,M
DRA,2022-06-29 11:53,-116.0278,36.6206,1009.00,90.00,39.00,16.74,200.00,14.00,0.00,29.99,1009.30,10.00,22.00,CLR,M,M,M,M,M,M,M,M,M,M,M,M,M,M,86.07,KDRA 291153Z AUTO 20014G22KT 10SM CLR 32/04 A2999 RMK AO2 SLP093 T03220039 10344 20311 50001,M
LOL,2022-06-29 11:53,-118.5701,40.0684,1192.43,54.00,27.00,35.05,70.00,3.00,0.00,30.11,1015.40,10.00,M,CLR,M,M,M,M,M,M,M,M,M,M,M,M,M,M,54.00,KLOL 291153Z AUTO 07003KT 10SM CLR 12/M03 A3011 RMK AO2 SLP154 7//// T01221028 10200 20117 58002,M
ELY,2022-06-29 11:53,-114.8453,39.2950,1909.00,57.00,35.00,43.63,M,3.00,0.00,30.24,1013.20,10.00,M,FEW,M,M,M,12000.00,M,M,M,M,M,M,M,M,M,M,57.00,KELY 291153Z AUTO VRB03KT 10SM FEW120 14/02 A3024 RMK AO2 SLP132 60000 T01390017 10256 20139 53004,M
VGT,2022-06-29 11:53,-115.1933,36.2111,667.00,91.00,42.00,18.30,200.00,5.00,0.00,29.93,1011.50,10.00,M,CLR,M,M,M,M,M,M,M,M,M,M,M,M,M,M,87.11,KVGT 291153Z AUTO 20005KT 10SM CLR 33/06 A2993 RMK AO2 SLP115 T03280056 10383 20328 53008,M
RTS,2022-06-29 11:55,-119.8764,39.6682,1539.00,55.40,26.60,32.76,M,5.00,0.00,30.19,M,10.00,M,CLR,M,M,M,M,M,M,M,M,M,M,M,M,M,M,55.40,KRTS 291155Z AUTO VRB05KT 10SM CLR 13/M03 A3019 RMK AO2,M
MEV,2022-06-29 11:55,-119.7500,38.9963,1441.42,60.80,37.40,41.71,140.00,9.00,0.00,30.15,M,10.00,M,CLR,M,M,M,M,M,M,M,M,M,M,M,M,M,M,60.80,KMEV 291155Z AUTO 14009KT 10SM CLR 16/03 A3015 RMK AO2,M
BAM,2022-06-29 11:55,-116.8743,40.5990,1382.36,M,M,M,160.00,5.00,0.00,30.15,M,10.00,M,CLR,M,M,M,M,M,M,M,M,M,M,M,M,M,M,M,KBAM 291155Z AUTO 16005KT 10SM CLR A3015 RMK AO1,M
HTH,2022-06-29 11:55,-118.6315,38.5448,1282.89,68.00,33.80,28.11,170.00,4.00,0.00,30.14,M,10.00,M,CLR,M,M,M,M,M,M,M,M,M,M,M,M,M,M,68.00,KHTH 291155Z AUTO 17004KT 10SM CLR 20/01 A3014 RMK A01,M
TMT,2022-06-29 11:55,-117.1971,39.4643,1749.34,57.00,30.70,36.57,50.00,3.00,0.00,30.22,M,10.00,M,SCT,BKN,M,M,10000.00,12000.00,M,M,M,M,M,M,M,M,M,57.00,KTMT 291155Z AUTO 05003KT 10SM SCT100 BKN120 14/M01 A3022 RMK AO2 T01391007 10210 20106,M
RNO,2022-06-29 11:55,-119.7711,39.4839,1341.00,63.00,35.00,35.24,0.00,0.00,0.00,30.14,1014.70,10.00,M,FEW,M,M,M,18000.00,M,M,M,M,M,M,M,M,M,M,63.00,KRNO 291155Z 00000KT 10SM FEW180 17/02 A3014 RMK AO2 SLP147 T01720017 10239 20167 55003,M
EKO,2022-06-29 11:56,-115.7860,40.8242,1367.00,60.00,27.00,28.13,0.00,0.00,0.00,30.17,1015.10,10.00,M,CLR,M,M,M,M,M,M,M,M,M,M,M,M,M,M,60.10,KEKO 291156Z AUTO 00000KT 10SM CLR 16/M03 A3017 RMK AO2 SLP151 T01561028 10233 20150 51005,M
WMC,2022-06-29 11:56,-117.8072,40.9019,1315.00,59.00,30.00,33.08,60.00,3.00,0.00,30.14,1015.10,8.00,M,CLR,M,M,M,M,M,M,M,M,M,M,M,M,M,M,59.00,KWMC 291156Z AUTO 06003KT 8SM CLR 15/M01 A3014 RMK AO2 SLP151 T01501011 10250 20133 53004,M
NFL,2022-06-29 11:56,-118.7010,39.4166,1199.00,61.00,33.00,34.91,160.00,5.00,0.00,30.11,1016.10,10.00,M,CLR,M,M,M,M,M,M,M,M,M,M,M,M,M,M,61.00,KNFL 291156Z AUTO 16005KT 10SM CLR 16/01 A3011 RMK AO2 SLP161 T01610006 10244 20144 58002,M
LAS,2022-06-29 11:56,-115.1634,36.0719,663.00,90.00,40.00,17.34,190.00,6.00,0.00,29.94,1010.40,10.00,M,SCT,SCT,M,M,13000.00,20000.00,M,M,M,M,M,M,M,M,M,86.11,KLAS 291156Z 19006KT 10SM SCT130 SCT200 32/04 A2994 RMK AO2 SLP104 ACC ALQDS T03220044 10356 20317 53004 $,M
HND,2022-06-29 11:56,-115.1344,35.9729,742.79,83.00,44.00,25.57,210.00,9.00,0.00,29.98,1013.40,10.00,M,CLR,M,M,M,M,M,M,M,M,M,M,M,M,M,M,80.80,KHND 291156Z AUTO 21009KT 10SM CLR 28/07 A2998 RMK AO2 SLP134 70001 T02830067 10317 20283 53005,M
INS,2022-06-29 11:58,-115.6733,36.5872,955.00,85.00,39.60,20.02,340.00,3.00,0.00,30.00,1010.00,10.00,M,BKN,M,M,M,12000.00,M,M,M,M,M,M,M,M,M,M,82.12,KINS 291158Z AUTO 34003KT 10SM BKN120 30/04 A3000 RMK AO2 SLP100 T02950042 10333 20275 53004 $,M
LSV,2022-06-29 11:58,-115.0343,36.2362,570.00,91.40,41.00,17.32,190.00,9.00,0.00,29.92,1007.20,10.00,M,FEW,M,M,M,15000.00,M,M,M,M,M,M,M,M,M,M,87.40,KLSV 291158Z 19009KT 10SM FEW150 33/05 A2992 RMK AO2A SLP072 WND DATA ESTMD ALSTG/SLP ESTMD $,M
RTS,2022-06-29 12:15,-119.8764,39.6682,1539.00,57.20,26.60,30.69,M,6.00,0.00,30.18,M,10.00,M,CLR,M,M,M,M,M,M,M,M,M,M,M,M,M,M,57.20,KRTS 291215Z AUTO VRB06KT 10SM CLR 14/M03 A3018 RMK AO2,M
MEV,2022-06-29 12:15,-119.7500,38.9963,1441.42,53.60,37.40,54.07,0.00,0.00,0.00,30.15,M,10.00,M,CLR,M,M,M,M,M,M,M,M,M,M,M,M,M,M,53.60,KMEV 291215Z AUTO 00000KT 10SM CLR 12/03 A3015 RMK AO2,M
BAM,2022-06-29 12:15,-116.8743,40.5990,1382.36,M,M,M,190.00,6.00,0.00,30.16,M,10.00,M,CLR,M,M,M,M,M,M,M,M,M,M,M,M,M,M,M,KBAM 291215Z AUTO 19006KT 10SM CLR A3016 RMK AO1,M
HTH,2022-06-29 12:15,-118.6315,38.5448,1282.89,68.00,32.00,26.15,180.00,4.00,0.00,30.14,M,10.00,M,CLR,M,M,M,M,M,M,M,M,M,M,M,M,M,M,68.00,KHTH 291215Z AUTO 18004KT 10SM CLR 20/00 A3014 RMK A01,M
P68,2022-06-29 12:53,-116.0056,39.6014,1993.00,55.00,28.90,36.54,0.00,0.00,0.00,30.24,1014.80,M,M,M,M,M,M,M,M,M,M,M,M,M,M,M,M,M,55.00,KP68 291253Z AUTO 00000KT 13/M02 A3024 RMK AO1 SLP148 T01281017,M
ELY,2022-06-29 12:53,-114.8453,39.2950,1909.00,65.00,36.00,34.17,210.00,8.00,0.00,30.25,1012.70,10.00,M,SCT,M,M,M,11000.00,M,M,M,M,M,M,M,M,M,M,64.90,KELY 291253Z AUTO 21008KT 10SM SCT110 18/02 A3025 RMK AO2 SLP127 T01830022,M
DRA,2022-06-29 12:53,-116.0278,36.6206,1009.00,89.00,39.00,17.22,200.00,13.00,0.00,30.01,1009.90,10.00,M,CLR,M,M,M,M,M,M,M,M,M,M,M,M,M,M,85.30,KDRA 291253Z AUTO 20013KT 10SM CLR 32/04 A3001 RMK AO2 SLP099 T03170039,M
VGT,2022-06-29 12:53,-115.1933,36.2111,667.00,88.00,46.00,23.34,0.00,0.00,0.00,29.94,1012.20,10.00,M,CLR,M,M,M,M,M,M,M,M,M,M,M,M,M,M,84.81,KVGT 291253Z 00000KT 10SM CLR 31/08 A2994 RMK AO2 SLP122 T03110078,M
LOL,2022-06-29 12:53,-118.5701,40.0684,1192.43,50.00,28.00,42.33,0.00,0.00,0.00,30.12,1016.20,10.00,M,CLR,M,M,M,M,M,M,M,M,M,M,M,M,M,M,50.00,KLOL 291253Z AUTO 00000KT 10SM CLR 10/M02 A3012 RMK AO2 SLP162 T01001022,M
BVU,2022-06-29 12:55,-114.8611,35.9475,671.00,87.80,50.00,27.29,110.00,5.00,0.00,29.97,M,10.00,M,CLR,M,M,M,M,M,M,M,M,M,M,M,M,M,M,85.11,KBVU 291255Z AUTO 11005KT 10SM CLR 31/10 A2997 RMK AO2,M
RNO,2022-06-29 12:55,-119.7711,39.4839,1341.00,61.00,36.00,39.19,0.00,0.00,0.00,30.15,1015.30,10.00,M,FEW,M,M,M,18000.00,M,M,M,M,M,M,M,M,M,M,61.00,KRNO 291255Z 00000KT 10SM FEW180 16/02 A3015 RMK AO2 SLP153 T01610022,M
RTS,2022-06-29 12:55,-119.8764,39.6682,1539.00,59.00,28.40,30.98,M,3.00,0.00,30.19,M,10.00,M,CLR,M,M,M,M,M,M,M,M,M,M,M,M,M,M,59.00,KRTS 291255Z AUTO VRB03KT 10SM CLR 15/M02 A3019 RMK AO2,M
MEV,2022-06-29 12:55,-119.7500,38.9963,1441.42,53.60,37.40,54.07,0.00,0.00,0.00,30.16,M,10.00,M,CLR,M,M,M,M,M,M,M,M,M,M,M,M,M,M,53.60,KMEV 291255Z AUTO 00000KT 10SM CLR 12/03 A3016 RMK AO2,M
BAM,2022-06-29 12:55,-116.8743,40.5990,1382.36,M,M,M,0.00,0.00,0.00,30.17,M,10.00,M,CLR,M,M,M,M,M,M,M,M,M,M,M,M,M,M,M,KBAM 291255Z AUTO 00000KT 10SM CLR A3017 RMK AO1,M
HTH,2022-06-29 12:55,-118.6315,38.5448,1282.89,66.20,32.00,27.83,200.00,3.00,0.00,30.15,M,10.00,M,CLR,M,M,M,M,M,M,M,M,M,M,M,M,M,M,66.20,KHTH 291255Z AUTO 20003KT 10SM CLR 19/00 A3015 RMK A01,M
TMT,2022-06-29 12:55,-117.1971,39.4643,1749.34,50.70,31.10,46.79,0.00,0.00,0.00,30.25,M,10.00,M,CLR,M,M,M,M,M,M,M,M,M,M,M,M,M,M,50.70,KTMT 291255Z AUTO 00000KT 10SM CLR 10/00 A3025 RMK AO2 T01041005,M
EKO,2022-06-29 12:56,-115.7860,40.8242,1367.00,59.00,28.90,31.63,0.00,0.00,0.00,30.19,1016.10,10.00,M,CLR,M,M,M,M,M,M,M,M,M,M,M,M,M,M,59.00,KEKO 291256Z AUTO 00000KT 10SM CLR 15/M02 A3019 RMK AO2 SLP161 T01501017,M
WMC,2022-06-29 12:56,-117.8072,40.9019,1315.00,50.00,26.10,39.14,0.00,0.00,0.00,30.15,1016.30,9.00,M,CLR,M,M,M,M,M,M,M,M,M,M,M,M,M,M,50.00,KWMC 291256Z AUTO 00000KT 9SM CLR 10/M03 A3015 RMK AO2 SLP163 T01001033,M
HND,2022-06-29 12:56,-115.1344,35.9729,742.79,84.00,43.00,23.66,210.00,12.00,0.00,29.99,1013.70,10.00,M,CLR,M,M,M,M,M,M,M,M,M,M,M,M,M,M,81.48,KHND 291256Z 21012KT 10SM CLR 29/06 A2999 RMK AO2 SLP137 T02890061,M
LAS,2022-06-29 12:56,-115.1634,36.0719,663.00,89.00,39.00,17.22,190.00,5.00,0.00,29.95,1010.90,10.00,M,FEW,BKN,M,M,13000.00,17000.00,M,M,M,M,M,M,M,M,M,85.30,KLAS 291256Z 19005KT 10SM FEW130 BKN170 32/04 A2995 RMK AO2 SLP109 ACC OHD AND ALQDS T03170039 $,M
NFL,2022-06-29 12:56,-118.7010,39.4166,1199.00,61.00,35.00,37.81,0.00,0.00,0.00,30.11,1016.40,10.00,M,CLR,M,M,M,M,M,M,M,M,M,M,M,M,M,M,61.00,KNFL 291256Z AUTO 00000KT 10SM CLR 16/02 A3011 RMK AO2 SLP164 T01610017,M
INS,2022-06-29 12:58,-115.6733,36.5872,955.00,80.20,36.70,20.95,0.00,0.00,0.00,30.01,1010.60,10.00,M,BKN,BKN,M,M,12000.00,16000.00,M,M,M,M,M,M,M,M,M,78.90,KINS 291258Z AUTO 00000KT 10SM BKN120 BKN160 27/03 A3001 RMK AO2 SLP106 T02680026 $,M
LSV,2022-06-29 12:58,-115.0343,36.2362,570.00,89.00,41.40,18.91,0.00,0.00,0.00,29.92,1010.10,10.00,M,FEW,M,M,M,15000.00,M,M,M,M,M,M,M,M,M,M,85.41,KLSV 291258Z 00000KT 10SM FEW150 32/05 A2992 RMK AO2A SLP101 T03170052 $,M
BVU,2022-06-29 13:15,-114.8611,35.9475,671.00,86.00,51.80,30.90,0.00,0.00,0.00,29.97,M,10.00,M,CLR,M,M,M,M,M,M,M,M,M,M,M,M,M,M,83.87,KBVU 291315Z AUTO 00000KT 10SM CLR 30/11 A2997 RMK AO2,M
RTS,2022-06-29 13:15,-119.8764,39.6682,1539.00,57.20,28.40,33.05,0.00,0.00,0.00,30.19,M,10.00,M,CLR,M,M,M,M,M,M,M,M,M,M,M,M,M,M,57.20,KRTS 291315Z AUTO 00000KT 10SM CLR 14/M02 A3019 RMK AO2,M
MEV,2022-06-29 13:15,-119.7500,38.9963,1441.42,51.80,37.40,57.77,320.00,3.00,0.00,30.17,M,10.00,M,CLR,M,M,M,M,M,M,M,M,M,M,M,M,M,M,51.80,KMEV 291315Z AUTO 32003KT 10SM CLR 11/03 A3017 RMK AO2,M
BAM,2022-06-29 13:15,-116.8743,40.5990,1382.36,M,M,M,200.00,5.00,0.00,30.17,M,10.00,M,CLR,M,M,M,M,M,M,M,M,M,M,M,M,M,M,M,KBAM 291315Z AUTO 20005KT 10SM CLR A3017 RMK AO1,M
HTH,2022-06-29 13:15,-118.6315,38.5448,1282.89,68.00,32.00,26.15,0.00,0.00,0.00,30.15,M,10.00,M,CLR,M,M,M,M,M,M,M,M,M,M,M,M,M,M,68.00,KHTH 291315Z AUTO 00000KT 10SM CLR 20/00 A3015 RMK A01,M
TMT,2022-06-29 13:15,-117.1971,39.4643,1749.34,50.00,32.00,49.81,0.00,0.00,0.00,30.25,M,10.00,M,CLR,M,M,M,M,M,M,M,M,M,M,M,M,M,M,50.00,KTMT 291315Z AUTO 00000KT 10SM CLR 10/00 A3025 RMK AO2 T01000000,M
BVU,2022-06-29 13:35,-114.8611,35.9475,671.00,87.80,51.80,29.18,40.00,4.00,0.00,29.97,M,10.00,M,CLR,M,M,M,M,M,M,M,M,M,M,M,M,M,M,85.39,KBVU 291335Z AUTO 04004KT 10SM CLR 31/11 A2997 RMK AO2,M
RTS,2022-06-29 13:35,-119.8764,39.6682,1539.00,60.80,30.20,31.28,20.00,5.00,0.00,30.20,M,10.00,M,CLR,M,M,M,M,M,M,M,M,M,M,M,M,M,M,60.80,KRTS 291335Z AUTO 02005KT 10SM CLR 16/M01 A3020 RMK AO2,M
MEV,2022-06-29 13:35,-119.7500,38.9963,1441.42,57.20,37.40,47.44,0.00,0.00,0.00,30.17,M,10.00,M,CLR,M,M,M,M,M,M,M,M,M,M,M,M,M,M,57.20,KMEV 291335Z AUTO 00000KT 10SM CLR 14/03 A3017 RMK AO2,M
BAM,2022-06-29 13:35,-116.8743,40.5990,1382.36,M,M,M,180.00,4.00,0.00,30.17,M,10.00,M,CLR,M,M,M,M,M,M,M,M,M,M,M,M,M,M,M,KBAM 291335Z AUTO 18004KT 10SM CLR A3017 RMK AO1,M
HTH,2022-06-29 13:35,-118.6315,38.5448,1282.89,68.00,32.00,26.15,0.00,0.00,0.00,30.15,M,10.00,M,CLR,M,M,M,M,M,M,M,M,M,M,M,M,M,M,68.00,KHTH 291335Z AUTO 00000KT 10SM CLR 20/00 A3015 RMK A01,M
TMT,2022-06-29 13:35,-117.1971,39.4643,1749.34,53.80,33.00,44.89,0.00,0.00,0.00,30.26,M,10.00,M,CLR,M,M,M,M,M,M,M,M,M,M,M,M,M,M,53.80,KTMT 291335Z AUTO 00000KT 10SM CLR 12/01 A3026 RMK AO2 T01210005,M
P68,2022-06-29 13:53,-116.0056,39.6014,1993.00,65.00,30.90,27.85,160.00,3.00,0.00,30.24,1014.30,M,M,M,M,M,M,M,M,M,M,M,M,M,M,M,M,M,64.90,KP68 291353Z AUTO 16003KT 18/M01 A3024 RMK AO1 SLP143 T01831006,M
DRA,2022-06-29 13:53,-116.0278,36.6206,1009.00,89.00,39.00,17.22,190.00,10.00,0.00,30.02,1010.50,10.00,M,CLR,M,M,M,M,M,M,M,M,M,M,M,M,M,M,85.30,KDRA 291353Z AUTO 19010KT 10SM CLR 32/04 A3002 RMK AO2 SLP105 T03170039,M
VGT,2022-06-29 13:53,-115.1933,36.2111,667.00,89.00,45.00,21.70,0.00,0.00,0.00,29.96,1012.70,10.00,M,CLR,M,M,M,M,M,M,M,M,M,M,M,M,M,M,85.66,KVGT 291353Z 00000KT 10SM CLR 32/07 A2996 RMK AO2 SLP127 T03170072,M
LOL,2022-06-29 13:53,-118.5701,40.0684,1192.43,58.00,28.90,32.90,0.00,0.00,0.00,30.13,1016.20,10.00,M,CLR,M,M,M,M,M,M,M,M,M,M,M,M,M,M,57.90,KLOL 291353Z AUTO 00000KT 10SM CLR 14/M02 A3013 RMK AO2 SLP162 T01441017,M
ELY,2022-06-29 13:53,-114.8453,39.2950,1909.00,67.00,38.00,34.35,120.00,4.00,T,30.26,1013.00,10.00,M,SCT,M,M,M,11000.00,M,M,M,-RA,M,M,M,M,M,M,66.90,KELY 291353Z AUTO 12004KT 10SM -RA SCT110 19/03 A3026 RMK AO2 RAB52 SLP130 P0000 T01940033,M
BVU,2022-06-29 13:55,-114.8611,35.9475,671.00,87.80,51.80,29.18,0.00,0.00,0.00,29.98,M,10.00,M,CLR,M,M,M,M,M,M,M,M,M,M,M,M,M,M,85.39,KBVU 291355Z AUTO 00000KT 10SM CLR 31/11 A2998 RMK AO2,M
RNO,2022-06-29 13:55,-119.7711,39.4839,1341.00,65.00,36.00,34.17,160.00,3.00,0.00,30.16,1015.60,10.00,M,CLR,M,M,M,M,M,M,M,M,M,M,M,M,M,M,64.90,KRNO 291355Z 16003KT 10SM CLR 18/02 A3016 RMK AO2 SLP156 T01830022,M
RTS,2022-06-29 13:55,-119.8764,39.6682,1539.00,64.40,30.20,27.55,10.00,3.00,0.00,30.20,M,10.00,M,CLR,M,M,M,M,M,M,M,M,M,M,M,M,M,M,64.40,KRTS 291355Z AUTO 01003KT 10SM CLR 18/M01 A3020 RMK AO2,M
MEV,2022-06-29 13:55,-119.7500,38.9963,1441.42,59.00,39.20,47.72,0.00,0.00,0.00,30.17,M,10.00,M,CLR,M,M,M,M,M,M,M,M,M,M,M,M,M,M,59.00,KMEV 291355Z AUTO 00000KT 10SM CLR 15/04 A3017 RMK AO2,M
BAM,2022-06-29 13:55,-116.8743,40.5990,1382.36,M,M,M,200.00,5.00,0.00,30.17,M,10.00,M,CLR,M,M,M,M,M,M,M,M,M,M,M,M,M,M,M,KBAM 291355Z AUTO 20005KT 10SM CLR A3017 RMK AO1,M
HTH,2022-06-29 13:55,-118.6315,38.5448,1282.89,71.60,33.80,24.86,0.00,0.00,0.00,30.15,M,9.00,M,CLR,M,M,M,M,M,M,M,M,M,M,M,M,M,M,71.60,KHTH 291355Z AUTO 00000KT 9SM CLR 22/01 A3015 RMK A01,M
TMT,2022-06-29 13:55,-117.1971,39.4643,1749.34,56.70,33.00,40.40,0.00,0.00,0.00,30.26,M,10.00,M,CLR,M,M,M,M,M,M,M,M,M,M,M,M,M,M,56.70,KTMT 291355Z AUTO 00000KT 10SM CLR 14/01 A3026 RMK AO2 T01370005,M
EKO,2022-06-29 13:56,-115.7860,40.8242,1367.00,65.00,28.00,24.75,300.00,3.00,0.00,30.18,1015.70,10.00,M,CLR,M,M,M,M,M,M,M,M,M,M,M,M,M,M,64.90,KEKO 291356Z AUTO 30003KT 10SM CLR 18/M02 A3018 RMK AO2 SLP157 T01831022,M
NFL,2022-06-29 13:56,-118.7010,39.4166,1199.00,67.00,36.00,31.87,0.00,0.00,0.00,30.12,1016.60,10.00,M,CLR,M,M,M,M,M,M,M,M,M,M,M,M,M,M,66.90,KNFL 291356Z AUTO 00000KT 10SM CLR 19/02 A3012 RMK AO2 SLP166 T01940022,M
HND,2022-06-29 13:56,-115.1344,35.9729,742.79,83.00,43.00,24.51,200.00,7.00,0.00,30.01,1014.40,10.00,M,CLR,M,M,M,M,M,M,M,M,M,M,M,M,M,M,80.73,KHND 291356Z 20007KT 10SM CLR 28/06 A3001 RMK AO2 SLP144 T02830061,M
LAS,2022-06-29 13:56,-115.1634,36.0719,663.00,90.00,39.00,16.74,180.00,7.00,0.00,29.97,1011.50,10.00,M,SCT,SCT,M,M,13000.00,17000.00,M,M,M,M,M,M,M,M,M,86.07,KLAS 291356Z 18007KT 10SM SCT130 SCT170 32/04 A2997 RMK AO2 SLP115 ACC DSNT NW-N T03220039 $,M
WMC,2022-06-29 13:56,-117.8072,40.9019,1315.00,65.00,28.90,25.68,240.00,3.00,0.00,30.16,1015.90,10.00,M,CLR,M,M,M,M,M,M,M,M,M,M,M,M,M,M,64.90,KWMC 291356Z AUTO 24003KT 10SM CLR 18/M02 A3016 RMK AO2 SLP159 T01831017,M
INS,2022-06-29 13:58,-115.6733,36.5872,955.00,85.50,38.50,18.94,60.00,3.00,0.00,30.02,1010.70,10.00,M,OVC,M,M,M,13000.00,M,M,M,M,M,M,M,M,M,M,82.38,KINS 291358Z AUTO 06003KT 10SM OVC130 30/04 A3002 RMK AO2 SLP107 T02970036 $,M
LSV,2022-06-29 13:58,-115.0343,36.2362,570.00,90.70,45.30,20.88,30.00,6.00,0.00,29.94,1010.80,10.00,M,CLR,M,M,M,M,M,M,M,M,M,M,M,M,M,M,87.11,KLSV 291358Z AUTO 03006KT 10SM CLR 33/07 A2994 RMK AO2 SLP108 T03260074 $,M
BVU,2022-06-29 14:15,-114.8611,35.9475,671.00,89.60,48.20,24.11,0.00,0.00,0.00,29.99,M,10.00,M,CLR,M,M,M,M,M,M,M,M,M,M,M,M,M,M,86.44,KBVU 291415Z AUTO 00000KT 10SM CLR 32/09 A2999 RMK AO2,M
RTS,2022-06-29 14:15,-119.8764,39.6682,1539.00,62.60,32.00,31.56,0.00,0.00,0.00,30.20,M,10.00,M,CLR,M,M,M,M,M,M,M,M,M,M,M,M,M,M,62.60,KRTS 291415Z AUTO 00000KT 10SM CLR 17/00 A3020 RMK AO2,M
MEV,2022-06-29 14:15,-119.7500,38.9963,1441.42,64.40,37.40,36.74,320.00,3.00,0.00,30.17,M,10.00,M,CLR,M,M,M,M,M,M,M,M,M,M,M,M,M,M,64.40,KMEV 291415Z AUTO 32003KT 10SM CLR 18/03 A3017 RMK AO2,M
TMT,2022-06-29 14:15,-117.1971,39.4643,1749.34,61.30,33.80,35.52,0.00,0.00,0.00,30.26,M,10.00,M,SCT,SCT,M,M,200.00,10000.00,M,M,M,M,M,M,M,M,M,61.30,KTMT 291415Z AUTO 00000KT 10SM SCT002 SCT100 16/01 A3026 RMK AO2 T01630010,M
BAM,2022-06-29 14:15,-116.8743,40.5990,1382.36,M,M,M,0.00,0.00,0.00,30.17,M,10.00,M,CLR,M,M,M,M,M,M,M,M,M,M,M,M,M,M,M,KBAM 291415Z AUTO 00000KT 10SM CLR A3017 RMK AO1,M
HTH,2022-06-29 14:15,-118.6315,38.5448,1282.89,73.40,33.80,23.39,0.00,0.00,0.00,30.15,M,10.00,M,CLR,M,M,M,M,M,M,M,M,M,M,M,M,M,M,73.40,KHTH 291415Z AUTO 00000KT 10SM CLR 23/01 A3015 RMK A01,M
BVU,2022-06-29 14:35,-114.8611,35.9475,671.00,91.40,42.80,18.56,0.00,0.00,0.00,29.99,M,10.00,M,CLR,M,M,M,M,M,M,M,M,M,M,M,M,M,M,87.52,KBVU 291435Z AUTO 00000KT 10SM CLR 33/06 A2999 RMK AO2,M
RTS,2022-06-29 14:35,-119.8764,39.6682,1539.00,64.40,32.00,29.63,0.00,0.00,0.00,30.20,M,10.00,M,CLR,M,M,M,M,M,M,M,M,M,M,M,M,M,M,64.40,KRTS 291435Z AUTO 00000KT 10SM CLR 18/M00 A3020 RMK AO2,M
MEV,2022-06-29 14:35,-119.7500,38.9963,1441.42,68.00,39.20,34.80,0.00,0.00,0.00,30.17,M,10.00,M,CLR,M,M,M,M,M,M,M,M,M,M,M,M,M,M,68.00,KMEV 291435Z AUTO 00000KT 10SM CLR 20/04 A3017 RMK AO2,M
BAM,2022-06-29 14:35,-116.8743,40.5990,1382.36,M,M,M,0.00,0.00,0.00,30.17,M,10.00,M,CLR,M,M,M,M,M,M,M,M,M,M,M,M,M,M,M,KBAM 291435Z AUTO 00000KT 10SM CLR A3017 RMK AO1,M
HTH,2022-06-29 14:35,-118.6315,38.5448,1282.89,75.20,33.80,22.02,0.00,0.00,0.00,30.15,M,9.00,M,CLR,M,M,M,M,M,M,M,M,M,M,M,M,M,M,75.20,KHTH 291435Z AUTO 00000KT 9SM CLR 24/01 A3015 RMK A01,M
TMT,2022-06-29 14:35,-117.1971,39.4643,1749.34,64.80,34.20,31.92,0.00,0.00,0.00,30.26,M,10.00,M,CLR,M,M,M,M,M,M,M,M,M,M,M,M,M,M,64.80,KTMT 291435Z AUTO 00000KT 10SM CLR 18/01 A3026 RMK AO2 T01820012,M
NFL,2022-06-29 14:47,-118.7010,39.4166,1199.00,73.00,36.00,25.88,0.00,0.00,0.00,30.12,M,10.00,M,FEW,M,M,M,10000.00,M,M,M,M,M,M,M,M,M,M,73.00,KNFL 291447Z 00000KT 10SM FEW100 23/02 A3012 RMK AO2 T02280022,M
P68,2022-06-29 14:53,-116.0056,39.6014,1993.00,73.00,26.10,17.33,0.00,0.00,0.00,30.24,1014.10,M,M,M,M,M,M,M,M,M,M,M,M,M,M,M,M,M,73.00,KP68 291453Z AUTO 00000KT 23/M03 A3024 RMK AO1 SLP141 T02281033 50004,M
DRA,2022-06-29 14:53,-116.0278,36.6206,1009.00,93.00,37.00,14.09,220.00,11.00,0.00,30.03,1010.70,10.00,M,CLR,M,M,M,M,M,M,M,M,M,M,M,M,M,M,88.63,KDRA 291453Z AUTO 22011KT 10SM CLR 34/03 A3003 RMK AO2 SLP107 T03390028 51012,M
LOL,2022-06-29 14:53,-118.5701,40.0684,1192.43,70.00,30.90,23.36,0.00,0.00,0.00,30.13,1015.80,10.00,M,CLR,M,M,M,M,M,M,M,M,M,M,M,M,M,M,70.00,KLOL 291453Z AUTO 00000KT 10SM CLR 21/M01 A3013 RMK AO2 SLP158 T02111006 51007,M
ELY,2022-06-29 14:53,-114.8453,39.2950,1909.00,70.00,38.00,30.88,240.00,4.00,T,30.26,1013.30,10.00,M,FEW,M,M,M,10000.00,M,M,M,M,M,M,M,M,M,M,70.00,KELY 291453Z AUTO 24004KT 10SM FEW100 21/03 A3026 RMK AO2 RAE02 SLP133 P0000 60000 T02110033 53004,M
VGT,2022-06-29 14:53,-115.1933,36.2111,667.00,93.00,42.00,17.19,90.00,4.00,0.00,29.97,1013.10,10.00,M,CLR,M,M,M,M,M,M,M,M,M,M,M,M,M,M,88.93,KVGT 291453Z 09004KT 10SM CLR 34/06 A2997 RMK AO2 SLP131 T03390056 51015,M
BVU,2022-06-29 14:55,-114.8611,35.9475,671.00,93.20,41.00,16.37,0.00,0.00,0.00,29.99,M,10.00,M,CLR,M,M,M,M,M,M,M,M,M,M,M,M,M,M,89.03,KBVU 291455Z AUTO 00000KT 10SM CLR 34/05 A2999 RMK AO2,M
RNO,2022-06-29 14:55,-119.7711,39.4839,1341.00,69.00,36.00,29.55,0.00,0.00,0.00,30.16,1015.60,10.00,M,CLR,M,M,M,M,M,M,M,M,M,M,M,M,M,M,69.10,KRNO 291455Z 00000KT 10SM CLR 21/02 A3016 RMK AO2 SLP156 T02060022 51007,M
RTS,2022-06-29 14:55,-119.8764,39.6682,1539.00,68.00,32.00,26.15,0.00,0.00,0.00,30.20,M,10.00,M,CLR,M,M,M,M,M,M,M,M,M,M,M,M,M,M,68.00,KRTS 291455Z AUTO 00000KT 10SM CLR 20/M00 A3020 RMK AO2,M
MEV,2022-06-29 14:55,-119.7500,38.9963,1441.42,71.60,35.60,26.71,350.00,3.00,0.00,30.17,M,10.00,M,CLR,M,M,M,M,M,M,M,M,M,M,M,M,M,M,71.60,KMEV 291455Z AUTO 35003KT 10SM CLR 22/02 A3017 RMK AO2,M
BAM,2022-06-29 14:55,-116.8743,40.5990,1382.36,M,M,M,0.00,0.00,0.00,30.18,M,10.00,M,CLR,M,M,M,M,M,M,M,M,M,M,M,M,M,M,M,KBAM 291455Z AUTO 00000KT 10SM CLR A3018 RMK AO1,M
HTH,2022-06-29 14:55,-118.6315,38.5448,1282.89,77.00,32.00,19.30,0.00,0.00,0.00,30.15,M,10.00,M,CLR,M,M,M,M,M,M,M,M,M,M,M,M,M,M,77.00,KHTH 291455Z AUTO 00000KT 10SM CLR 25/00 A3015 RMK A01,M
TMT,2022-06-29 14:55,-117.1971,39.4643,1749.34,68.00,34.50,28.91,0.00,0.00,0.00,30.26,M,10.00,M,CLR,M,M,M,M,M,M,M,M,M,M,M,M,M,M,68.00,KTMT 291455Z AUTO 00000KT 10SM CLR 20/01 A3026 RMK AO2 T02000014,M
WMC,2022-06-29 14:56,-117.8072,40.9019,1315.00,73.00,28.90,19.45,310.00,8.00,0.00,30.15,1015.50,10.00,M,CLR,M,M,M,M,M,M,M,M,M,M,M,M,M,M,73.00,KWMC 291456Z AUTO 31008KT 10SM CLR 23/M02 A3015 RMK AO2 SLP155 T02281017 50005,M
HND,2022-06-29 14:56,-115.1344,35.9729,742.79,92.00,43.00,18.42,210.00,7.00,0.00,30.02,1014.60,10.00,M,CLR,M,M,M,M,M,M,M,M,M,M,M,M,M,M,87.99,KHND 291456Z 21007KT 10SM CLR 33/06 A3002 RMK AO2 SLP146 T03330061 51013,M
LAS,2022-06-29 14:56,-115.1634,36.0719,663.00,93.00,38.00,14.60,180.00,11.00,0.00,29.97,1011.60,10.00,M,FEW,FEW,M,M,13000.00,17000.00,M,M,M,M,M,M,M,M,M,88.67,KLAS 291456Z 18011KT 10SM FEW130 FEW170 34/03 A2997 RMK AO2 SLP116 ACC DSNT NW-N T03390033 51012 $,M
EKO,2022-06-29 14:56,-115.7860,40.8242,1367.00,71.00,33.00,24.59,200.00,3.00,0.00,30.19,1015.80,10.00,M,CLR,M,M,M,M,M,M,M,M,M,M,M,M,M,M,71.10,KEKO 291456Z AUTO 20003KT 10SM CLR 22/01 A3019 RMK AO2 SLP158 T02170006 51006,M
NFL,2022-06-29 14:56,-118.7010,39.4166,1199.00,74.00,35.00,24.23,0.00,0.00,0.00,30.12,1016.70,10.00,M,FEW,M,M,M,10000.00,M,M,M,M,M,M,M,M,M,M,73.90,KNFL 291456Z 00000KT 10SM FEW100 23/02 A3012 RMK AO2 SLP167 T02330017 51005,M
LSV,2022-06-29 14:58,-115.0343,36.2362,570.00,95.20,52.70,23.93,0.00,0.00,0.00,29.95,M,10.00,M,CLR,M,M,M,M,M,M,M,M,M,M,M,M,M,M,92.68,KLSV 291458Z AUTO 00000KT 10SM CLR 35/12 A2995 RMK AO2 SLPNO T03510115 $,M
INS,2022-06-29 14:58,-115.6733,36.5872,955.00,89.00,38.50,16.89,120.00,7.00,0.00,30.03,1011.00,10.00,M,FEW,M,M,M,15000.00,M,M,M,M,M,M,M,M,M,M,85.28,KINS 291458Z AUTO 12007KT 10SM FEW150 32/04 A3003 RMK AO2 SLP110 T03170036 52008 $,M
BVU,2022-06-29 15:15,-114.8611,35.9475,671.00,93.20,41.00,16.37,0.00,0.00,0.00,29.99,M,10.00,M,CLR,M,M,M,M,M,M,M,M,M,M,M,M,M,M,89.03,KBVU 291515Z AUTO 00000KT 10SM CLR 34/05 A2999 RMK AO2,M
RTS,2022-06-29 15:15,-119.8764,39.6682,1539.00,69.80,32.00,24.59,0.00,0.00,0.00,30.20,M,10.00,M,CLR,M,M,M,M,M,M,M,M,M,M,M,M,M,M,69.80,KRTS 291515Z AUTO 00000KT 10SM CLR 21/M00 A3020 RMK AO2,M
MEV,2022-06-29 15:15,-119.7500,38.9963,1441.42,73.40,33.80,23.39,0.00,0.00,0.00,30.17,M,10.00,M,CLR,M,M,M,M,M,M,M,M,M,M,M,M,M,M,73.40,KMEV 291515Z AUTO 00000KT 10SM CLR 23/01 A3017 RMK AO2,M
BAM,2022-06-29 15:15,-116.8743,40.5990,1382.36,M,M,M,0.00,0.00,0.00,30.17,M,10.00,M,SCT,M,M,M,12000.00,M,M,M,M,M,M,M,M,M,M,M,KBAM 291515Z AUTO 00000KT 10SM SCT120 A3017 RMK AO1,M
HTH,2022-06-29 15:15,-118.6315,38.5448,1282.89,77.00,32.00,19.30,0.00,0.00,0.00,30.15,M,10.00,M,CLR,M,M,M,M,M,M,M,M,M,M,M,M,M,M,77.00,KHTH 291515Z AUTO 00000KT 10SM CLR 25/M00 A3015 RMK A01,M
TMT,2022-06-29 15:15,-117.1971,39.4643,1749.34,70.30,34.00,26.19,0.00,0.00,0.00,30.25,M,10.00,M,CLR,M,M,M,M,M,M,M,M,M,M,M,M,M,M,70.30,KTMT 291515Z AUTO 00000KT 10SM CLR 21/01 A3025 RMK AO2 T02130011,M
BVU,2022-06-29 15:35,-114.8611,35.9475,671.00,95.00,41.00,15.49,M,3.00,0.00,29.99,M,10.00,M,CLR,M,M,M,M,M,M,M,M,M,M,M,M,M,M,90.70,KBVU 291535Z AUTO VRB03KT 10SM CLR 35/05 A2999 RMK AO2,M
RTS,2022-06-29 15:35,-119.8764,39.6682,1539.00,71.60,32.00,23.13,0.00,0.00,0.00,30.20,M,10.00,M,CLR,M,M,M,M,M,M,M,M,M,M,M,M,M,M,71.60,KRTS 291535Z AUTO 00000KT 10SM CLR 22/M00 A3020 RMK AO2,M
MEV,2022-06-29 15:35,-119.7500,38.9963,1441.42,77.00,33.80,20.74,0.00,0.00,0.00,30.17,M,10.00,M,CLR,M,M,M,M,M,M,M,M,M,M,M,M,M,M,77.00,KMEV 291535Z AUTO 00000KT 10SM CLR 25/01 A3017 RMK AO2,M
BAM,2022-06-29 15:35,-116.8743,40.5990,1382.36,M,M,M,0.00,0.00,0.00,30.18,M,10.00,M,SCT,M,M,M,12000.00,M,M,M,M,M,M,M,M,M,M,M,KBAM 291535Z AUTO 00000KT 10SM SCT120 A3018 RMK AO1,M
HTH,2022-06-29 15:35,-118.6315,38.5448,1282.89,78.80,30.20,16.90,0.00,0.00,0.00,30.15,M,10.00,M,CLR,M,M,M,M,M,M,M,M,M,M,M,M,M,M,78.80,KHTH 291535Z AUTO 00000KT 10SM CLR 26/M01 A3015 RMK A01,M
TMT,2022-06-29 15:35,-117.1971,39.4643,1749.34,71.80,33.00,24.01,0.00,0.00,0.00,30.25,M,10.00,M,CLR,M,M,M,M,M,M,M,M,M,M,M,M,M,M,71.80,KTMT 291535Z AUTO 00000KT 10SM CLR 22/01 A3025 RMK AO2 T02210006,M
P68,2022-06-29 15:53,-116.0056,39.6014,1993.00,78.00,27.00,15.17,360.00,5.00,0.00,30.24,1014.00,M,M,M,M,M,M,M,M,M,M,M,M,M,M,M,M,M,78.10,KP68 291553Z AUTO 36005KT 26/M03 A3024 RMK AO1 SLP140 T02561028,M
ELY,2022-06-29 15:53,-114.8453,39.2950,1909.00,72.00,41.00,32.56,230.00,5.00,T,30.27,1013.90,10.00,M,SCT,M,M,M,11000.00,M,M,M,M,M,M,M,M,M,M,72.00,KELY 291553Z AUTO 23005KT 10SM SCT110 22/05 A3027 RMK AO2 RAB42E51 SLP139 P0000 T02220050,M
DRA,2022-06-29 15:53,-116.0278,36.6206,1009.00,95.00,37.00,13.25,190.00,14.00,0.00,30.04,1010.90,10.00,M,CLR,M,M,M,M,M,M,M,M,M,M,M,M,M,M,90.44,KDRA 291553Z AUTO 19014KT 10SM CLR 35/03 A3004 RMK AO2 SLP109 T03500028,M
LOL,2022-06-29 15:53,-118.5701,40.0684,1192.43,78.00,30.90,17.80,0.00,0.00,0.00,30.12,1015.40,10.00,M,CLR,M,M,M,M,M,M,M,M,M,M,M,M,M,M,78.10,KLOL 291553Z AUTO 00000KT 10SM CLR 26/M01 A3012 RMK AO2 SLP154 T02561006,M
VGT,2022-06-29 15:53,-115.1933,36.2111,667.00,97.00,40.00,13.96,M,3.00,0.00,29.97,1013.10,10.00,M,CLR,M,M,M,M,M,M,M,M,M,M,M,M,M,M,92.48,KVGT 291553Z VRB03KT 10SM CLR 36/04 A2997 RMK AO2 SLP131 T03610044,M
BVU,2022-06-29 15:55,-114.8611,35.9475,671.00,95.00,42.80,16.60,130.00,5.00,0.00,29.99,M,10.00,M,CLR,M,M,M,M,M,M,M,M,M,M,M,M,M,M,90.86,KBVU 291555Z AUTO 13005KT 10SM CLR 35/06 A2999 RMK AO2,M
RTS,2022-06-29 15:55,-119.8764,39.6682,1539.00,73.40,30.20,20.23,270.00,3.00,0.00,30.21,M,10.00,M,CLR,M,M,M,M,M,M,M,M,M,M,M,M,M,M,73.40,KRTS 291555Z AUTO 27003KT 10SM CLR 23/M01 A3021 RMK AO2,M
MEV,2022-06-29 15:55,-119.7500,38.9963,1441.42,77.00,33.80,20.74,0.00,0.00,0.00,30.17,M,10.00,M,CLR,M,M,M,M,M,M,M,M,M,M,M,M,M,M,77.00,KMEV 291555Z AUTO 00000KT 10SM CLR 25/01 A3017 RMK AO2,M
BAM,2022-06-29 15:55,-116.8743,40.5990,1382.36,M,M,M,0.00,0.00,0.00,30.18,M,10.00,M,BKN,M,M,M,12000.00,M,M,M,M,M,M,M,M,M,M,M,KBAM 291555Z AUTO 00000KT 10SM BKN120 A3018 RMK AO1,M
HTH,2022-06-29 15:55,-118.6315,38.5448,1282.89,78.80,30.20,16.90,0.00,0.00,0.00,30.15,M,10.00,M,CLR,M,M,M,M,M,M,M,M,M,M,M,M,M,M,78.80,KHTH 291555Z AUTO 00000KT 10SM CLR 26/M01 A3015 RMK A01,M
TMT,2022-06-29 15:55,-117.1971,39.4643,1749.34,73.60,30.60,20.43,0.00,0.00,0.00,30.25,M,10.00,M,CLR,M,M,M,M,M,M,M,M,M,M,M,M,M,M,73.60,KTMT 291555Z AUTO 00000KT 10SM CLR 23/M01 A3025 RMK AO2 T02311008,M
RNO,2022-06-29 15:55,-119.7711,39.4839,1341.00,74.00,38.00,27.06,30.00,3.00,0.00,30.16,1015.40,10.00,M,CLR,M,M,M,M,M,M,M,M,M,M,M,M,M,M,73.90,KRNO 291555Z 03003KT 10SM CLR 23/03 A3016 RMK AO2 SLP154 T02330033,M
EKO,2022-06-29 15:56,-115.7860,40.8242,1367.00,78.00,28.90,16.41,210.00,7.00,0.00,30.19,1015.80,10.00,M,CLR,M,M,M,M,M,M,M,M,M,M,M,M,M,M,78.10,KEKO 291556Z AUTO 21007KT 10SM CLR 26/M02 A3019 RMK AO2 SLP158 T02561017,M
WMC,2022-06-29 15:56,-117.8072,40.9019,1315.00,77.00,28.00,16.40,320.00,6.00,0.00,30.15,1015.50,10.00,M,CLR,M,M,M,M,M,M,M,M,M,M,M,M,M,M,77.00,KWMC 291556Z AUTO 32006KT 10SM CLR 25/M02 A3015 RMK AO2 SLP155 T02501022,M
NFL,2022-06-29 15:56,-118.7010,39.4166,1199.00,81.00,32.00,16.92,30.00,4.00,0.00,30.12,1016.70,10.00,M,FEW,M,M,M,10000.00,M,M,M,M,M,M,M,M,M,M,79.07,KNFL 291556Z 03004KT 10SM FEW100 27/00 A3012 RMK AO2 SLP167 T02720000,M
HND,2022-06-29 15:56,-115.1344,35.9729,742.79,96.00,41.00,14.97,200.00,11.00,0.00,30.03,1014.70,10.00,M,CLR,M,M,M,M,M,M,M,M,M,M,M,M,M,M,91.73,KHND 291556Z 20011KT 10SM CLR 36/05 A3003 RMK AO2 SLP147 T03560050,M
LAS,2022-06-29 15:56,-115.1634,36.0719,663.00,97.00,37.00,12.46,170.00,10.00,0.00,29.98,1011.90,10.00,17.00,FEW,FEW,M,M,13000.00,17000.00,M,M,M,M,M,M,M,M,M,92.13,KLAS 291556Z 17010G17KT 10SM FEW130 FEW170 36/03 A2998 RMK AO2 SLP119 ACC DSNT NW-N T03610028,M
INS,2022-06-29 15:58,-115.6733,36.5872,955.00,94.00,37.40,13.92,80.00,9.00,0.00,30.03,1010.90,10.00,M,CLR,M,M,M,M,M,M,M,M,M,M,M,M,M,M,89.46,KINS 291558Z AUTO 08009KT 10SM CLR 34/03 A3003 RMK AO2 SLP109 T03440030 $,M
LSV,2022-06-29 15:58,-115.0343,36.2362,570.00,103.80,45.00,13.88,0.00,0.00,0.00,29.95,M,10.00,M,CLR,M,M,M,M,M,M,M,M,M,M,M,M,M,M,99.73,KLSV 291558Z AUTO 00000KT 10SM CLR 40/07 A2995 RMK AO2 SLPNO T03990073 $,M
BVU,2022-06-29 16:15,-114.8611,35.9475,671.00,98.60,41.00,13.87,M,5.00,0.00,29.98,M,10.00,M,CLR,M,M,M,M,M,M,M,M,M,M,M,M,M,M,94.09,KBVU 291615Z AUTO VRB05KT 10SM CLR 37/05 A2998 RMK AO2,M
RTS,2022-06-29 16:15,-119.8764,39.6682,1539.00,75.20,28.40,17.70,0.00,0.00,0.00,30.20,M,10.00,M,CLR,M,M,M,M,M,M,M,M,M,M,M,M,M,M,75.20,KRTS 291615Z AUTO 00000KT 10SM CLR 24/M02 A3020 RMK AO2,M
MEV,2022-06-29 16:15,-119.7500,38.9963,1441.42,78.80,32.00,18.18,0.00,0.00,0.00,30.16,M,10.00,M,CLR,M,M,M,M,M,M,M,M,M,M,M,M,M,M,78.80,KMEV 291615Z AUTO 00000KT 10SM CLR 26/00 A3016 RMK AO2,M
BAM,2022-06-29 16:15,-116.8743,40.5990,1382.36,M,M,M,0.00,0.00,0.00,30.18,M,10.00,M,SCT,M,M,M,12000.00,M,M,M,M,M,M,M,M,M,M,M,KBAM 291615Z AUTO 00000KT 10SM SCT120 A3018 RMK AO1,M
HTH,2022-06-29 16:15,-118.6315,38.5448,1282.89,80.60,30.20,15.94,0.00,0.00,0.00,30.15,M,10.00,M,CLR,M,M,M,M,M,M,M,M,M,M,M,M,M,M,78.77,KHTH 291615Z AUTO 00000KT 10SM CLR 27/M01 A3015 RMK A01,M
TMT,2022-06-29 16:15,-117.1971,39.4643,1749.34,75.40,30.40,19.08,0.00,0.00,0.00,30.25,M,10.00,M,CLR,M,M,M,M,M,M,M,M,M,M,M,M,M,M,75.40,KTMT 291615Z AUTO 00000KT 10SM CLR 24/M01 A3025 RMK AO2 T02411009,M
BVU,2022-06-29 16:35,-114.8611,35.9475,671.00,100.40,42.80,14.08,170.00,7.00,0.00,29.98,M,10.00,13.00,CLR,M,M,M,M,M,M,M,M,M,M,M,M,M,M,96.04,KBVU 291635Z AUTO 17007G13KT 10SM CLR 38/06 A2998 RMK AO2,M
RTS,2022-06-29 16:35,-119.8764,39.6682,1539.00,77.00,28.40,16.67,0.00,0.00,0.00,30.20,M,10.00,M,CLR,M,M,M,M,M,M,M,M,M,M,M,M,M,M,77.00,KRTS 291635Z AUTO 00000KT 10SM CLR 25/M02 A3020 RMK AO2,M
MEV,2022-06-29 16:35,-119.7500,38.9963,1441.42,80.60,32.00,17.14,M,4.00,0.00,30.16,M,10.00,M,CLR,M,M,M,M,M,M,M,M,M,M,M,M,M,M,78.82,KMEV 291635Z AUTO VRB04KT 10SM CLR 27/00 A3016 RMK AO2,M
BAM,2022-06-29 16:35,-116.8743,40.5990,1382.36,M,M,M,350.00,3.00,0.00,30.17,M,10.00,M,CLR,M,M,M,M,M,M,M,M,M,M,M,M,M,M,M,KBAM 291635Z AUTO 35003KT 10SM CLR A3017 RMK AO1,M
HTH,2022-06-29 16:35,-118.6315,38.5448,1282.89,82.40,30.20,15.03,0.00,0.00,0.00,30.14,M,10.00,M,CLR,M,M,M,M,M,M,M,M,M,M,M,M,M,M,79.97,KHTH 291635Z AUTO 00000KT 10SM CLR 28/M01 A3014 RMK A01,M
TMT,2022-06-29 16:35,-117.1971,39.4643,1749.34,77.20,30.40,17.97,70.00,3.00,0.00,30.24,M,10.00,M,CLR,M,M,M,M,M,M,M,M,M,M,M,M,M,M,77.20,KTMT 291635Z AUTO 07003KT 10SM CLR 25/M01 A3024 RMK AO2 T02511009,M
ELY,2022-06-29 16:53,-114.8453,39.2950,1909.00,80.00,39.00,23.00,170.00,7.00,T,30.25,1012.90,10.00,18.00,FEW,M,M,M,11000.00,M,M,M,M,M,M,M,M,M,M,78.89,KELY 291653Z AUTO 17007G18KT 10SM FEW110 27/04 A3025 RMK AO2 RAB1558E08 SLP129 P0000 T02670039,M
DRA,2022-06-29 16:53,-116.0278,36.6206,1009.00,97.00,37.00,12.46,200.00,18.00,0.00,30.04,1010.90,10.00,23.00,CLR,M,M,M,M,M,M,M,M,M,M,M,M,M,M,92.13,KDRA 291653Z AUTO 20018G23KT 10SM CLR 36/03 A3004 RMK AO2 SLP109 T03610028,M
LOL,2022-06-29 16:53,-118.5701,40.0684,1192.43,83.00,28.90,14.02,0.00,0.00,0.00,30.11,1015.30,10.00,M,CLR,M,M,M,M,M,M,M,M,M,M,M,M,M,M,80.30,KLOL 291653Z AUTO 00000KT 10SM CLR 28/M02 A3011 RMK AO2 SLP153 T02831017,M
VGT,2022-06-29 16:53,-115.1933,36.2111,667.00,102.00,40.00,12.00,140.00,10.00,0.00,29.96,1012.60,10.00,M,CLR,M,M,M,M,M,M,M,M,M,M,M,M,M,M,96.96,KVGT 291653Z 14010KT 10SM CLR 39/04 A2996 RMK AO2 SLP126 T03890044,M
BVU,2022-06-29 16:55,-114.8611,35.9475,671.00,100.40,42.80,14.08,150.00,12.00,0.00,29.98,M,10.00,M,CLR,M,M,M,M,M,M,M,M,M,M,M,M,M,M,96.04,KBVU 291655Z AUTO 15012KT 10SM CLR 38/06 A2998 RMK AO2,M
RNO,2022-06-29 16:55,-119.7711,39.4839,1341.00,81.00,34.00,18.33,120.00,6.00,0.00,30.14,1014.40,10.00,M,CLR,M,M,M,M,M,M,M,M,M,M,M,M,M,M,79.13,KRNO 291655Z 12006KT 10SM CLR 27/01 A3014 RMK AO2 SLP144 T02720011,M
RTS,2022-06-29 16:55,-119.8764,39.6682,1539.00,75.20,26.60,16.43,0.00,0.00,0.00,30.19,M,10.00,M,CLR,M,M,M,M,M,M,M,M,M,M,M,M,M,M,75.20,KRTS 291655Z AUTO 00000KT 10SM CLR 24/M03 A3019 RMK AO2,M
MEV,2022-06-29 16:55,-119.7500,38.9963,1441.42,82.40,32.00,16.17,M,5.00,0.00,30.16,M,10.00,M,CLR,M,M,M,M,M,M,M,M,M,M,M,M,M,M,80.00,KMEV 291655Z AUTO VRB05KT 10SM CLR 28/00 A3016 RMK AO2,M
BAM,2022-06-29 16:55,-116.8743,40.5990,1382.36,M,M,M,350.00,5.00,0.00,30.17,M,10.00,M,CLR,M,M,M,M,M,M,M,M,M,M,M,M,M,M,M,KBAM 291655Z AUTO 35005KT 10SM CLR A3017 RMK AO1,M
HTH,2022-06-29 16:55,-118.6315,38.5448,1282.89,82.40,30.20,15.03,0.00,0.00,0.00,30.13,M,10.00,M,CLR,M,M,M,M,M,M,M,M,M,M,M,M,M,M,79.97,KHTH 291655Z AUTO 00000KT 10SM CLR 28/M01 A3013 RMK A01,M
TMT,2022-06-29 16:55,-117.1971,39.4643,1749.34,77.40,30.20,17.70,0.00,0.00,0.00,30.24,M,10.00,M,CLR,M,M,M,M,M,M,M,M,M,M,M,M,M,M,77.40,KTMT 291655Z AUTO 00000KT 10SM CLR 25/M01 A3024 RMK AO2 T02521010,M
EKO,2022-06-29 16:56,-115.7860,40.8242,1367.00,82.00,26.10,12.87,240.00,8.00,0.00,30.18,1015.40,10.00,14.00,CLR,M,M,M,M,M,M,M,M,M,M,M,M,M,M,79.62,KEKO 291656Z AUTO 24008G14KT 10SM CLR 28/M03 A3018 RMK AO2 SLP154 T02781033,M
WMC,2022-06-29 16:56,-117.8072,40.9019,1315.00,81.00,30.00,15.60,0.00,0.00,0.00,30.15,1015.60,10.00,M,CLR,M,M,M,M,M,M,M,M,M,M,M,M,M,M,79.02,KWMC 291656Z AUTO 00000KT 10SM CLR 27/M01 A3015 RMK AO2 SLP156 T02721011,M
NFL,2022-06-29 16:56,-118.7010,39.4166,1199.00,84.00,34.00,16.63,0.00,0.00,0.00,30.11,1016.30,10.00,M,FEW,M,M,M,10000.00,M,M,M,M,M,M,M,M,M,M,81.16,KNFL 291656Z 00000KT 10SM FEW100 29/01 A3011 RMK AO2 SLP163 T02890011,M
HND,2022-06-29 16:56,-115.1344,35.9729,742.79,99.00,41.00,13.70,180.00,8.00,0.00,30.02,1014.60,10.00,M,CLR,M,M,M,M,M,M,M,M,M,M,M,M,M,M,94.47,KHND 291656Z 18008KT 10SM CLR 37/05 A3002 RMK AO2 SLP146 T03720050,M
LAS,2022-06-29 16:56,-115.1634,36.0719,663.00,100.00,40.00,12.74,160.00,10.00,0.00,29.98,1011.60,10.00,17.00,FEW,M,M,M,13000.00,M,M,M,M,M,M,M,M,M,M,95.23,KLAS 291656Z 16010G17KT 10SM FEW130 38/04 A2998 RMK AO2 SLP116 T03780044,M
LSV,2022-06-29 16:58,-115.0343,36.2362,570.00,104.00,41.40,11.98,190.00,11.00,0.00,29.94,M,10.00,17.00,CLR,M,M,M,M,M,M,M,M,M,M,M,M,M,M,99.06,KLSV 291658Z AUTO 19011G17KT 10SM CLR 40/05 A2994 RMK AO2 SLPNO T04000052 $,M
INS,2022-06-29 16:58,-115.6733,36.5872,955.00,97.20,38.00,12.93,220.00,9.00,0.00,30.02,1010.40,10.00,17.00,CLR,M,M,M,M,M,M,M,M,M,M,M,M,M,M,92.50,KINS 291658Z AUTO 22009G17KT 10SM CLR 36/03 A3002 RMK AO2 SLP104 T03620034 $,M
BVU,2022-06-29 17:15,-114.8611,35.9475,671.00,100.40,46.40,16.15,140.00,13.00,0.00,29.98,M,10.00,18.00,CLR,M,M,M,M,M,M,M,M,M,M,M,M,M,M,96.63,KBVU 291715Z AUTO 14013G18KT 10SM CLR 38/08 A2998 RMK AO2,M
RTS,2022-06-29 17:15,-119.8764,39.6682,1539.00,77.00,26.60,15.48,0.00,0.00,0.00,30.19,M,10.00,10.00,CLR,M,M,M,M,M,M,M,M,M,M,M,M,M,M,77.00,KRTS 291715Z AUTO 00000G10KT 10SM CLR 25/M03 A3019 RMK AO2,M
MEV,2022-06-29 17:15,-119.7500,38.9963,1441.42,82.40,33.80,17.38,M,4.00,0.00,30.16,M,9.00,M,CLR,M,M,M,M,M,M,M,M,M,M,M,M,M,M,80.03,KMEV 291715Z AUTO VRB04KT 9SM CLR 28/01 A3016 RMK AO2,M
BAM,2022-06-29 17:15,-116.8743,40.5990,1382.36,M,M,M,0.00,0.00,0.00,30.17,M,10.00,M,SCT,M,M,M,12000.00,M,M,M,M,M,M,M,M,M,M,M,KBAM 291715Z AUTO 00000KT 10SM SCT120 A3017 RMK AO1,M
HTH,2022-06-29 17:15,-118.6315,38.5448,1282.89,84.20,28.40,13.18,10.00,5.00,0.00,30.12,M,10.00,M,CLR,M,M,M,M,M,M,M,M,M,M,M,M,M,M,81.25,KHTH 291715Z AUTO 01005KT 10SM CLR 29/M02 A3012 RMK A01,M
TMT,2022-06-29 17:15,-117.1971,39.4643,1749.34,78.80,31.50,17.82,330.00,3.00,0.00,30.24,M,10.00,M,CLR,M,M,M,M,M,M,M,M,M,M,M,M,M,M,78.80,KTMT 291715Z AUTO 33003KT 10SM CLR 26/00 A3024 RMK AO2 T02601003,M
BVU,2022-06-29 17:35,-114.8611,35.9475,671.00,102.20,46.40,15.30,140.00,18.00,0.00,29.97,M,10.00,26.00,CLR,M,M,M,M,M,M,M,M,M,M,M,M,M,M,98.43,KBVU 291735Z AUTO 14018G26KT 10SM CLR 39/08 A2997 RMK AO2,M
RTS,2022-06-29 17:35,-119.8764,39.6682,1539.00,77.00,26.60,15.48,M,4.00,0.00,30.19,M,10.00,10.00,CLR,M,M,M,M,M,M,M,M,M,M,M,M,M,M,77.00,KRTS 291735Z AUTO VRB04G10KT 10SM CLR 25/M03 A3019 RMK AO2,M
MEV,2022-06-29 17:35,-119.7500,38.9963,1441.42,84.20,30.20,14.18,0.00,0.00,0.00,30.16,M,10.00,M,CLR,M,M,M,M,M,M,M,M,M,M,M,M,M,M,81.26,KMEV 291735Z AUTO 00000KT 10SM CLR 29/M01 A3016 RMK AO2,M
BAM,2022-06-29 17:35,-116.8743,40.5990,1382.36,M,M,M,0.00,0.00,0.00,30.16,M,10.00,M,CLR,M,M,M,M,M,M,M,M,M,M,M,M,M,M,M,KBAM 291735Z AUTO 00000KT 10SM CLR A3016 RMK AO1,M
HTH,2022-06-29 17:35,-118.6315,38.5448,1282.89,84.20,28.40,13.18,0.00,0.00,0.00,30.12,M,10.00,M,CLR,M,M,M,M,M,M,M,M,M,M,M,M,M,M,81.25,KHTH 291735Z AUTO 00000KT 10SM CLR 29/M02 A3012 RMK A01,M
TMT,2022-06-29 17:35,-117.1971,39.4643,1749.34,80.20,32.20,17.51,330.00,5.00,0.00,30.24,M,10.00,M,CLR,M,M,M,M,M,M,M,M,M,M,M,M,M,M,78.74,KTMT 291735Z AUTO 33005KT 10SM CLR 27/00 A3024 RMK AO2 T02680001,M
ELY,2022-06-29 17:40,-114.8453,39.2950,1909.00,82.00,38.00,20.71,210.00,8.00,0.00,30.24,M,10.00,20.00,BKN,M,M,M,11000.00,M,M,M,M,M,M,M,M,M,M,79.90,KELY 291740Z AUTO 21008G20KT 10SM BKN110 28/03 A3024 RMK AO2 WSHFT 1720 T02780033,M
VGT,2022-06-29 17:42,-115.1933,36.2111,667.00,104.00,48.00,15.40,190.00,12.00,0.00,29.95,M,10.00,23.00,CLR,M,M,M,M,M,M,M,M,M,M,M,29.00,170.00,2022-06-29 17:24,100.60,KVGT 291742Z 19012G23KT 10SM CLR 40/09 A2995 RMK AO2 PK WND 17029/1724 WSHFT 1722 T04000089,M
INS,2022-06-29 17:48,-115.6733,36.5872,955.00,98.60,37.40,12.05,210.00,11.00,0.00,30.01,1010.20,10.00,17.00,CLR,M,M,M,M,M,M,M,M,M,M,M,M,M,M,93.54,KINS 291748Z AUTO 21011G17KT 10SM CLR 37/03 A3001 RMK AO2 WSHFT 45 SLP102 $,M
ELY,2022-06-29 17:53,-114.8453,39.2950,1909.00,83.00,36.00,18.66,210.00,16.00,0.00,30.24,1011.50,10.00,22.00,BKN,M,M,M,11000.00,M,M,M,M,M,M,M,M,M,M,80.43,KELY 291753Z AUTO 21016G22KT 10SM BKN110 28/02 A3024 RMK AO2 WSHFT 1720 SLP115 60000 T02830022 10294 20128 58005,M
LOL,2022-06-29 17:53,-118.5701,40.0684,1192.43,87.00,28.90,12.26,180.00,8.00,0.00,30.10,1015.00,10.00,M,CLR,M,M,M,M,M,M,M,M,M,M,M,M,M,M,83.37,KLOL 291753Z AUTO 18008KT 10SM CLR 31/M02 A3010 RMK AO2 SLP150 T03061017 10306 20094 58007,M
DRA,2022-06-29 17:53,-116.0278,36.6206,1009.00,100.00,38.00,11.78,200.00,11.00,0.00,30.04,1010.70,10.00,25.00,CLR,M,M,M,M,M,M,M,M,M,M,M,33.00,190.00,2022-06-29 17:04,94.83,KDRA 291753Z AUTO 20011G25KT 10SM CLR 38/03 A3004 RMK AO2 PK WND 19033/1704 SLP107 T03780033 10378 20306 50001,M
VGT,2022-06-29 17:53,-115.1933,36.2111,667.00,105.00,49.00,15.42,190.00,16.00,0.00,29.95,1012.30,10.00,24.00,CLR,M,M,M,M,M,M,M,M,M,M,M,29.00,170.00,2022-06-29 17:24,101.94,KVGT 291753Z 19016G24KT 10SM CLR 41/09 A2995 RMK AO2 PK WND 17029/1724 WSHFT 1722 SLP123 T04060094 10406 20306 58006,M
BVU,2022-06-29 17:55,-114.8611,35.9475,671.00,102.20,46.40,15.30,160.00,15.00,0.00,29.97,M,10.00,M,CLR,M,M,M,M,M,M,M,M,M,M,M,M,M,M,98.43,KBVU 291755Z AUTO 16015KT 10SM CLR 39/08 A2997 RMK AO2,M
INS,2022-06-29 17:55,-115.6733,36.5872,955.00,98.60,37.40,12.05,200.00,13.00,0.00,30.00,1009.80,10.00,20.00,FEW,M,M,M,12000.00,M,M,M,M,M,M,M,M,M,M,93.54,KINS 291755Z AUTO 20013G20KT 10SM FEW120 37/03 A3000 RMK AO2 WSHFT 53 SLP098 $,M
RTS,2022-06-29 17:55,-119.8764,39.6682,1539.00,80.60,26.60,13.75,230.00,8.00,0.00,30.19,M,10.00,17.00,CLR,M,M,M,M,M,M,M,M,M,M,M,M,M,M,78.68,KRTS 291755Z AUTO 23008G17KT 210V270 10SM CLR 27/M03 A3019 RMK AO2,M
MEV,2022-06-29 17:55,-119.7500,38.9963,1441.42,84.20,32.00,15.25,M,5.00,0.00,30.16,M,10.00,M,CLR,M,M,M,M,M,M,M,M,M,M,M,M,M,M,81.28,KMEV 291755Z AUTO VRB05KT 10SM CLR 29/M00 A3016 RMK AO2,M
BAM,2022-06-29 17:55,-116.8743,40.5990,1382.36,M,M,M,0.00,0.00,0.00,30.16,M,10.00,M,CLR,M,M,M,M,M,M,M,M,M,M,M,M,M,M,M,KBAM 291755Z AUTO 00000KT 10SM CLR A3016 RMK AO1,M
HTH,2022-06-29 17:55,-118.6315,38.5448,1282.89,84.20,28.40,13.18,0.00,0.00,0.00,30.11,M,10.00,M,CLR,M,M,M,M,M,M,M,M,M,M,M,M,M,M,81.25,KHTH 291755Z AUTO 00000KT 10SM CLR 29/M02 A3011 RMK A01,M
TMT,2022-06-29 17:55,-117.1971,39.4643,1749.34,80.20,32.00,17.37,0.00,0.00,0.00,30.23,M,10.00,M,CLR,M,M,M,M,M,M,M,M,M,M,M,M,M,M,78.74,KTMT 291755Z AUTO 00000KT 10SM CLR 27/00 A3023 RMK AO2 T02680000 10269 20097,M
RNO,2022-06-29 17:55,-119.7711,39.4839,1341.00,87.00,32.00,13.90,260.00,7.00,0.00,30.13,1013.90,10.00,M,CLR,M,M,M,M,M,M,M,M,M,M,M,M,M,M,83.51,KRNO 291755Z 26007KT 230V290 10SM CLR 31/00 A3013 RMK AO2 SLP139 T03060000 10306 20156 58009,M
EKO,2022-06-29 17:56,-115.7860,40.8242,1367.00,84.00,28.00,13.04,220.00,7.00,0.00,30.18,1015.30,10.00,M,CLR,M,M,M,M,M,M,M,M,M,M,M,M,M,M,81.10,KEKO 291756Z AUTO 22007KT 10SM CLR 29/M02 A3018 RMK AO2 SLP153 T02891022 10289 20144 58004,M
NFL,2022-06-29 17:56,-118.7010,39.4166,1199.00,86.00,30.00,13.28,140.00,6.00,0.00,30.10,1016.10,10.00,M,FEW,M,M,M,9000.00,M,M,M,M,M,M,M,M,M,M,82.64,KNFL 291756Z 14006KT 10SM FEW090 30/M01 A3010 RMK AO2 SLP161 T03001011 10306 20156 58006,M
HND,2022-06-29 17:56,-115.1344,35.9729,742.79,102.00,47.00,15.69,230.00,15.00,0.00,30.01,1014.00,10.00,19.00,CLR,M,M,M,M,M,M,M,M,M,M,M,M,M,M,98.33,KHND 291756Z 23015G19KT 10SM CLR 39/08 A3001 RMK AO2 SLP140 T03890083 10389 20278 58006,M
LAS,2022-06-29 17:56,-115.1634,36.0719,663.00,103.00,47.00,15.27,210.00,12.00,0.00,29.97,1011.60,10.00,22.00,FEW,M,M,M,13000.00,M,M,M,M,M,M,M,M,M,M,99.23,KLAS 291756Z 21012G22KT 170V250 10SM FEW130 39/08 A2997 RMK AO2 SLP116 T03940083 10394 20311 50000,M
WMC,2022-06-29 17:56,-117.8072,40.9019,1315.00,85.00,28.90,13.15,M,5.00,0.00,30.14,1014.90,10.00,15.00,CLR,M,M,M,M,M,M,M,M,M,M,M,M,M,M,81.78,KWMC 291756Z AUTO VRB05G15KT 10SM CLR 29/M02 A3014 RMK AO2 SLP149 T02941017 10294 20094 58005,M
INS,2022-06-29 17:58,-115.6733,36.5872,955.00,99.00,35.20,10.92,190.00,9.00,0.00,30.00,1009.80,10.00,20.00,FEW,M,M,M,12000.00,M,M,M,M,M,M,M,M,M,M,93.50,KINS 291758Z AUTO 19009G20KT 10SM FEW120 37/02 A3000 RMK AO2 SLP098 T03720018 10372 20262 58008 $,M
LSV,2022-06-29 17:58,-115.0343,36.2362,570.00,106.30,45.00,12.89,180.00,11.00,0.00,29.93,M,10.00,18.00,CLR,M,M,M,M,M,M,M,M,M,M,M,M,M,M,102.13,KLSV 291758Z AUTO 18011G18KT 10SM CLR 41/07 A2993 RMK AO2 SLPNO T04130073 10413 20317 58007 $,M
INS,2022-06-29 18:01,-115.6733,36.5872,955.00,98.60,37.40,12.05,150.00,11.00,0.00,30.00,1009.80,10.00,20.00,FEW,M,M,M,12000.00,M,M,M,M,M,M,M,M,M,M,93.54,KINS 291801Z AUTO 15011G20KT 10SM FEW120 37/03 A3000 RMK AO2 WSHFT 1759 SLP098 $,M
BVU,2022-06-29 18:15,-114.8611,35.9475,671.00,104.00,46.40,14.50,140.00,17.00,0.00,29.96,M,10.00,22.00,CLR,M,M,M,M,M,M,M,M,M,M,M,M,M,M,100.21,KBVU 291815Z AUTO 14017G22KT 10SM CLR 40/08 A2996 RMK AO2,M
RTS,2022-06-29 18:15,-119.8764,39.6682,1539.00,82.40,26.60,12.97,240.00,16.00,0.00,30.18,M,10.00,M,CLR,M,M,M,M,M,M,M,M,M,M,M,M,M,M,79.92,KRTS 291815Z AUTO 24016KT 10SM CLR 28/M03 A3018 RMK AO2,M
MEV,2022-06-29 18:15,-119.7500,38.9963,1441.42,86.00,30.20,13.38,240.00,8.00,0.00,30.15,M,10.00,15.00,CLR,M,M,M,M,M,M,M,M,M,M,M,M,M,M,82.64,KMEV 291815Z AUTO 24008G15KT 10SM CLR 30/M01 A3015 RMK AO2,M
BAM,2022-06-29 18:15,-116.8743,40.5990,1382.36,M,M,M,190.00,6.00,0.00,30.16,M,10.00,M,SCT,M,M,M,12000.00,M,M,M,M,M,M,M,M,M,M,M,KBAM 291815Z AUTO 19006KT 10SM SCT120 A3016 RMK AO1,M
HTH,2022-06-29 18:15,-118.6315,38.5448,1282.89,86.00,30.20,13.38,M,6.00,0.00,30.11,M,9.00,M,CLR,M,M,M,M,M,M,M,M,M,M,M,M,M,M,82.64,KHTH 291815Z AUTO VRB06KT 320V040 9SM CLR 30/M01 A3011 RMK A01,M
TMT,2022-06-29 18:15,-117.1971,39.4643,1749.34,81.00,32.50,17.21,310.00,5.00,0.00,30.22,M,10.00,M,CLR,M,M,M,M,M,M,M,M,M,M,M,M,M,M,79.15,KTMT 291815Z AUTO 31005KT 10SM CLR 27/00 A3022 RMK AO2 T02730003,M
BVU,2022-06-29 18:35,-114.8611,35.9475,671.00,104.00,46.40,14.50,150.00,17.00,0.00,29.95,M,10.00,24.00,CLR,M,M,M,M,M,M,M,M,M,M,M,M,M,M,100.21,KBVU 291835Z AUTO 15017G24KT 10SM CLR 40/08 A2995 RMK AO2,M
RTS,2022-06-29 18:35,-119.8764,39.6682,1539.00,82.40,26.60,12.97,220.00,14.00,0.00,30.18,M,10.00,22.00,CLR,M,M,M,M,M,M,M,M,M,M,M,M,M,M,79.92,KRTS 291835Z AUTO 22014G22KT 10SM CLR 28/M03 A3018 RMK AO2,M
MEV,2022-06-29 18:35,-119.7500,38.9963,1441.42,86.00,30.20,13.38,230.00,11.00,0.00,30.15,M,10.00,20.00,CLR,M,M,M,M,M,M,M,M,M,M,M,M,M,M,82.64,KMEV 291835Z AUTO 23011G20KT 10SM CLR 30/M01 A3015 RMK AO2,M
BAM,2022-06-29 18:35,-116.8743,40.5990,1382.36,M,M,M,240.00,3.00,0.00,30.15,M,10.00,M,SCT,M,M,M,12000.00,M,M,M,M,M,M,M,M,M,M,M,KBAM 291835Z AUTO 24003KT 10SM SCT120 A3015 RMK AO1,M
HTH,2022-06-29 18:35,-118.6315,38.5448,1282.89,87.80,32.00,13.59,M,6.00,0.00,30.10,M,10.00,11.00,CLR,M,M,M,M,M,M,M,M,M,M,M,M,M,M,84.08,KHTH 291835Z AUTO VRB06G11KT 10SM CLR 31/M00 A3010 RMK A01,M
TMT,2022-06-29 18:35,-117.1971,39.4643,1749.34,83.30,33.40,16.61,320.00,4.00,0.00,30.22,M,10.00,M,CLR,M,M,M,M,M,M,M,M,M,M,M,M,M,M,80.65,KTMT 291835Z AUTO 32004KT 10SM CLR 29/01 A3022 RMK AO2 T02850008,M
DRA,2022-06-29 18:53,-116.0278,36.6206,1009.00,100.00,39.00,12.30,200.00,23.00,0.00,30.02,1010.10,10.00,32.00,CLR,M,M,M,M,M,M,M,M,M,M,M,36.00,170.00,2022-06-29 18:39,95.05,KDRA 291853Z AUTO 20023G32KT 10SM CLR 38/04 A3002 RMK AO2 PK WND 17036/1839 SLP101 T03780039,M
ELY,2022-06-29 18:53,-114.8453,39.2950,1909.00,85.00,36.00,17.50,210.00,21.00,0.00,30.22,1011.00,5.00,30.00,CLR,M,M,M,M,M,M,M,HZ,M,M,M,31.00,210.00,2022-06-29 18:37,81.86,KELY 291853Z AUTO 21021G30KT 5SM HZ CLR 29/02 A3022 RMK AO2 PK WND 21031/1837 SLP110 T02940022,M
VGT,2022-06-29 18:53,-115.1933,36.2111,667.00,105.00,46.00,13.82,200.00,14.00,0.00,29.94,1011.90,10.00,29.00,CLR,M,M,M,M,M,M,M,M,M,M,M,34.00,200.00,2022-06-29 18:41,101.20,KVGT 291853Z 20014G29KT 10SM CLR 41/08 A2994 RMK AO2 PK WND 20034/1841 SLP119 T04060078,M
LOL,2022-06-29 18:53,-118.5701,40.0684,1192.43,89.00,28.00,11.09,230.00,8.00,0.00,30.09,1014.70,10.00,M,CLR,M,M,M,M,M,M,M,M,M,M,M,M,M,M,84.76,KLOL 291853Z AUTO 23008KT 10SM CLR 32/M02 A3009 RMK AO2 SLP147 T03171022,M
LSV,2022-06-29 18:53,-115.0343,36.2362,570.00,107.60,42.80,11.37,190.00,10.00,0.00,29.92,M,10.00,19.00,CLR,M,M,M,M,M,M,M,M,M,M,M,M,M,M,102.63,KLSV 291853Z AUTO 19010G19KT 10SM CLR 42/06 A2992 RMK AO2 WSHFT 41 SLPNO $,M
BVU,2022-06-29 18:55,-114.8611,35.9475,671.00,104.00,46.40,14.50,160.00,24.00,0.00,29.94,M,10.00,30.00,CLR,M,M,M,M,M,M,M,M,M,M,M,M,M,M,100.21,KBVU 291855Z AUTO 16024G30KT 10SM CLR 40/08 A2994 RMK AO2,M
RTS,2022-06-29 18:55,-119.8764,39.6682,1539.00,82.40,26.60,12.97,250.00,14.00,0.00,30.19,M,10.00,M,CLR,M,M,M,M,M,M,M,M,M,M,M,M,M,M,79.92,KRTS 291855Z AUTO 25014KT 10SM CLR 28/M03 A3019 RMK AO2,M
MEV,2022-06-29 18:55,-119.7500,38.9963,1441.42,87.80,30.20,12.64,230.00,19.00,0.00,30.15,M,10.00,27.00,CLR,M,M,M,M,M,M,M,M,M,M,M,M,M,M,84.01,KMEV 291855Z AUTO 23019G27KT 10SM CLR 31/M01 A3015 RMK AO2,M
BAM,2022-06-29 18:55,-116.8743,40.5990,1382.36,M,M,M,200.00,7.00,0.00,30.14,M,10.00,16.00,SCT,M,M,M,12000.00,M,M,M,M,M,M,M,M,M,M,M,KBAM 291855Z AUTO 20007G16KT 10SM SCT120 A3014 RMK AO1,M
HTH,2022-06-29 18:55,-118.6315,38.5448,1282.89,87.80,30.20,12.64,350.00,9.00,0.00,30.09,M,10.00,15.00,CLR,M,M,M,M,M,M,M,M,M,M,M,M,M,M,84.01,KHTH 291855Z AUTO 35009G15KT 10SM CLR 31/M01 A3009 RMK A01,M
TMT,2022-06-29 18:55,-117.1971,39.4643,1749.34,M,M,M,190.00,5.00,0.00,30.21,M,10.00,M,CLR,M,M,M,M,M,M,M,M,M,M,M,M,M,M,M,KTMT 291855Z AUTO 19005KT 10SM CLR A3021 RMK AO2,M
RNO,2022-06-29 18:55,-119.7711,39.4839,1341.00,89.00,33.00,13.64,170.00,21.00,0.00,30.12,1013.40,10.00,27.00,CLR,M,M,M,M,M,M,M,M,M,M,M,27.00,180.00,2022-06-29 18:51,85.16,KRNO 291855Z 17021G27KT 10SM CLR 32/01 A3012 RMK AO2 PK WND 18027/1851 SLP134 T03170006,M
EKO,2022-06-29 18:56,-115.7860,40.8242,1367.00,86.00,27.00,11.74,260.00,12.00,0.00,30.16,1014.80,10.00,21.00,FEW,M,M,M,11000.00,M,M,M,M,M,M,M,M,M,M,82.42,KEKO 291856Z AUTO 26012G21KT 220V290 10SM FEW110 30/M03 A3016 RMK AO2 SLP148 T03001028,M
WMC,2022-06-29 18:56,-117.8072,40.9019,1315.00,88.00,28.00,11.48,220.00,15.00,0.00,30.12,1014.30,10.00,26.00,CLR,M,M,M,M,M,M,M,M,M,M,M,26.00,210.00,2022-06-29 18:55,83.95,KWMC 291856Z AUTO 22015G26KT 10SM CLR 31/M02 A3012 RMK AO2 PK WND 21026/1855 SLP143 T03111022,M
NFL,2022-06-29 18:56,-118.7010,39.4166,1199.00,89.00,28.00,11.09,M,3.00,0.00,30.09,1015.50,10.00,M,SCT,M,M,M,9000.00,M,M,M,M,M,M,M,M,M,M,84.76,KNFL 291856Z COR VRB03KT 10SM SCT090 32/M02 A3009 RMK AO2 SLP155 T03171022,M
HND,2022-06-29 18:56,-115.1344,35.9729,742.79,103.00,48.00,15.91,230.00,17.00,0.00,29.99,1013.30,10.00,24.00,CLR,M,M,M,M,M,M,M,M,M,M,M,M,M,M,99.49,KHND 291856Z 23017G24KT 10SM CLR 39/09 A2999 RMK AO2 SLP133 T03940089,M
LAS,2022-06-29 18:56,-115.1634,36.0719,663.00,104.00,45.00,13.75,230.00,15.00,0.00,29.95,1010.80,10.00,29.00,FEW,M,M,M,13000.00,M,M,M,M,M,M,M,29.00,210.00,2022-06-29 18:48,99.90,KLAS 291856Z 23015G29KT 10SM FEW130 40/07 A2995 RMK AO2 PK WND 21029/1848 SLP108 T04000072,M
INS,2022-06-29 18:58,-115.6733,36.5872,955.00,99.00,33.00,9.96,260.00,11.00,0.00,29.99,1009.60,10.00,18.00,FEW,M,M,M,13000.00,M,M,M,M,M,M,M,M,M,M,93.15,KINS 291858Z AUTO 26011G18KT 10SM FEW130 37/01 A2999 RMK AO2 SLP096 T03720005 $,M
LSV,2022-06-29 18:58,-115.0343,36.2362,570.00,107.60,44.00,11.95,140.00,4.00,0.00,29.91,M,10.00,M,CLR,M,M,M,M,M,M,M,M,M,M,M,M,M,M,103.00,KLSV 291858Z AUTO 14004KT 10SM CLR 42/07 A2991 RMK AO2 SLPNO T04200067 $,M
INS,2022-06-29 19:00,-115.6733,36.5872,955.00,100.40,30.20,8.56,220.00,12.00,0.00,29.98,1009.10,10.00,19.00,FEW,M,M,M,13000.00,M,M,M,M,M,M,M,M,M,M,93.98,KINS 291900Z AUTO 22012G19KT 10SM FEW130 38/M01 A2998 RMK AO2 WSHFT 1854 SLP091 $,M
BVU,2022-06-29 19:15,-114.8611,35.9475,671.00,104.00,44.60,13.54,160.00,20.00,0.00,29.94,M,10.00,M,CLR,M,M,M,M,M,M,M,M,M,M,M,M,M,M,99.82,KBVU 291915Z AUTO 16020KT 10SM CLR 40/07 A2994 RMK AO2,M
RTS,2022-06-29 19:15,-119.8764,39.6682,1539.00,84.20,26.60,12.23,220.00,17.00,0.00,30.18,M,10.00,M,CLR,M,M,M,M,M,M,M,M,M,M,M,M,M,M,81.13,KRTS 291915Z AUTO 22017KT 10SM CLR 29/M03 A3018 RMK AO2,M
MEV,2022-06-29 19:15,-119.7500,38.9963,1441.42,87.80,28.40,11.74,230.00,18.00,0.00,30.15,M,10.00,27.00,CLR,M,M,M,M,M,M,M,M,M,M,M,M,M,M,83.84,KMEV 291915Z AUTO 23018G27KT 10SM CLR 31/M02 A3015 RMK AO2,M
BAM,2022-06-29 19:15,-116.8743,40.5990,1382.36,M,M,M,240.00,11.00,0.00,30.14,M,10.00,17.00,SCT,M,M,M,12000.00,M,M,M,M,M,M,M,M,M,M,M,KBAM 291915Z AUTO 24011G17KT 10SM SCT120 A3014 RMK AO1,M
HTH,2022-06-29 19:15,-118.6315,38.5448,1282.89,89.60,30.20,11.94,330.00,9.00,0.00,30.08,M,10.00,14.00,CLR,M,M,M,M,M,M,M,M,M,M,M,M,M,M,85.34,KHTH 291915Z AUTO 33009G14KT 10SM CLR 32/M01 A3008 RMK A01,M
TMT,2022-06-29 19:15,-117.1971,39.4643,1749.34,85.00,33.00,15.46,250.00,4.00,0.00,30.21,M,10.00,M,CLR,M,M,M,M,M,M,M,M,M,M,M,M,M,M,81.81,KTMT 291915Z AUTO 25004KT 10SM CLR 29/01 A3021 RMK AO2 T02940005,M
INS,2022-06-29 19:18,-115.6733,36.5872,955.00,100.40,32.00,9.21,230.00,19.00,0.00,29.98,1009.10,10.00,22.00,CLR,M,M,M,M,M,M,M,M,M,M,M,M,M,M,94.21,KINS 291918Z AUTO 23019G22KT 10SM CLR 38/M00 A2998 RMK AO2 WSHFT 15 SLP091 $,M
LSV,2022-06-29 19:34,-115.0343,36.2362,570.00,109.40,42.80,10.78,220.00,17.00,0.00,29.89,M,10.00,23.00,FEW,M,M,M,16000.00,M,M,M,M,M,M,M,M,M,M,104.25,KLSV 291934Z AUTO 22017G23KT 10SM FEW160 43/06 A2989 RMK AO2 WSHFT 31 SLPNO $,M
BVU,2022-06-29 19:35,-114.8611,35.9475,671.00,105.80,44.60,12.84,150.00,17.00,0.00,29.93,M,10.00,26.00,CLR,M,M,M,M,M,M,M,M,M,M,M,M,M,M,101.53,KBVU 291935Z AUTO 15017G26KT 10SM CLR 41/07 A2993 RMK AO2,M
RTS,2022-06-29 19:35,-119.8764,39.6682,1539.00,84.20,24.80,11.35,260.00,21.00,0.00,30.18,M,10.00,M,CLR,M,M,M,M,M,M,M,M,M,M,M,M,M,M,81.00,KRTS 291935Z AUTO 26021KT 10SM CLR 29/M04 A3018 RMK AO2,M
MEV,2022-06-29 19:35,-119.7500,38.9963,1441.42,87.80,28.40,11.74,210.00,13.00,0.00,30.14,M,10.00,22.00,CLR,M,M,M,M,M,M,M,M,M,M,M,M,M,M,83.84,KMEV 291935Z AUTO 21013G22KT 190V270 10SM CLR 31/M02 A3014 RMK AO2,M
BAM,2022-06-29 19:35,-116.8743,40.5990,1382.36,M,M,M,260.00,15.00,0.00,30.13,M,10.00,21.00,CLR,M,M,M,M,M,M,M,M,M,M,M,M,M,M,M,KBAM 291935Z AUTO 26015G21KT 10SM CLR A3013 RMK AO1,M
HTH,2022-06-29 19:35,-118.6315,38.5448,1282.89,89.60,30.20,11.94,350.00,9.00,0.00,30.07,M,10.00,M,CLR,M,M,M,M,M,M,M,M,M,M,M,M,M,M,85.34,KHTH 291935Z AUTO 35009KT 330V030 10SM CLR 32/M01 A3007 RMK A01,M
TMT,2022-06-29 19:35,-117.1971,39.4643,1749.34,87.30,34.20,15.09,230.00,9.00,0.00,30.20,M,10.00,M,CLR,M,M,M,M,M,M,M,M,M,M,M,M,M,M,83.70,KTMT 291935Z AUTO 23009KT 10SM CLR 31/01 A3020 RMK AO2 T03070012,M
VGT,2022-06-29 19:53,-115.1933,36.2111,667.00,106.00,45.00,12.96,210.00,13.00,0.00,29.92,1011.10,10.00,22.00,CLR,M,M,M,M,M,M,M,M,M,M,M,27.00,220.00,2022-06-29 18:55,101.83,KVGT 291953Z 21013G22KT 10SM CLR 41/07 A2992 RMK AO2 PK WND 22027/1855 SLP111 T04110072,M
LOL,2022-06-29 19:53,-118.5701,40.0684,1192.43,90.00,28.00,10.78,190.00,11.00,0.00,30.07,1014.20,10.00,18.00,CLR,M,M,M,M,M,M,M,M,M,M,M,M,M,M,85.43,KLOL 291953Z AUTO 19011G18KT 160V220 10SM CLR 32/M02 A3007 RMK AO2 SLP142 T03221022,M
ELY,2022-06-29 19:53,-114.8453,39.2950,1909.00,84.00,38.00,19.41,210.00,9.00,0.00,30.20,1010.80,10.00,27.00,SCT,M,M,M,10000.00,M,M,M,M,M,M,M,31.00,230.00,2022-06-29 19:08,81.25,KELY 291953Z AUTO 21009G27KT 10SM SCT100 29/03 A3020 RMK AO2 PK WND 23031/1908 SLP108 T02890033,M
DRA,2022-06-29 19:53,-116.0278,36.6206,1009.00,101.00,38.00,11.47,220.00,24.00,0.00,30.00,1009.60,10.00,34.00,CLR,M,M,M,M,M,M,M,M,M,M,M,39.00,220.00,2022-06-29 19:09,95.60,KDRA 291953Z AUTO 22024G34KT 10SM CLR 38/03 A3000 RMK AO2 PK WND 22039/1909 SLP096 T03830033 $,M
BVU,2022-06-29 19:55,-114.8611,35.9475,671.00,105.80,44.60,12.84,190.00,15.00,0.00,29.92,M,10.00,26.00,FEW,M,M,M,12000.00,M,M,M,M,M,M,M,M,M,M,101.53,KBVU 291955Z AUTO 19015G26KT 10SM FEW120 41/07 A2992 RMK AO2,M
RNO,2022-06-29 19:55,-119.7711,39.4839,1341.00,91.00,34.00,13.32,180.00,15.00,0.00,30.11,1013.30,10.00,28.00,FEW,M,M,M,8000.00,M,M,M,M,M,M,M,29.00,170.00,2022-06-29 19:14,86.79,KRNO 291955Z 18015G28KT 10SM FEW080 33/01 A3011 RMK AO2 PK WND 17029/1914 SLP133 T03280011,M
RTS,2022-06-29 19:55,-119.8764,39.6682,1539.00,84.20,24.80,11.35,260.00,18.00,0.00,30.18,M,10.00,25.00,CLR,M,M,M,M,M,M,M,M,M,M,M,M,M,M,81.00,KRTS 291955Z AUTO 26018G25KT 10SM CLR 29/M04 A3018 RMK AO2,M
MEV,2022-06-29 19:55,-119.7500,38.9963,1441.42,89.60,28.40,11.09,250.00,14.00,0.00,30.14,M,10.00,20.00,CLR,M,M,M,M,M,M,M,M,M,M,M,M,M,M,85.17,KMEV 291955Z AUTO 25014G20KT 10SM CLR 32/M02 A3014 RMK AO2,M
BAM,2022-06-29 19:55,-116.8743,40.5990,1382.36,M,M,M,250.00,4.00,0.00,30.13,M,10.00,8.00,CLR,M,M,M,M,M,M,M,M,M,M,M,M,M,M,M,KBAM 291955Z AUTO 25004G08KT 10SM CLR A3013 RMK AO1,M
HTH,2022-06-29 19:55,-118.6315,38.5448,1282.89,91.40,28.40,10.48,350.00,9.00,0.00,30.06,M,10.00,M,CLR,M,M,M,M,M,M,M,M,M,M,M,M,M,M,86.53,KHTH 291955Z AUTO 35009KT 10SM CLR 33/M02 A3006 RMK A01,M
TMT,2022-06-29 19:55,-117.1971,39.4643,1749.34,87.40,33.80,14.80,240.00,6.00,0.00,30.19,M,10.00,16.00,CLR,M,M,M,M,M,M,M,M,M,M,M,M,M,M,83.77,KTMT 291955Z AUTO 24006G16KT 10SM CLR 31/01 A3019 RMK AO2 T03080010,M
EKO,2022-06-29 19:56,-115.7860,40.8242,1367.00,89.00,28.90,11.50,240.00,11.00,0.00,30.15,1014.10,10.00,21.00,FEW,M,M,M,12000.00,M,M,M,M,M,M,M,M,M,M,84.84,KEKO 291956Z AUTO 24011G21KT 10SM FEW120 32/M02 A3015 RMK AO2 SLP141 T03171017,M
NFL,2022-06-29 19:56,-118.7010,39.4166,1199.00,92.00,27.00,9.75,M,5.00,0.00,30.07,1014.90,10.00,M,CLR,M,M,M,M,M,M,M,M,M,M,M,M,M,M,86.77,KNFL 291956Z VRB05KT 10SM CLR 33/M03 A3007 RMK AO2 SLP149 T03331028,M
LAS,2022-06-29 19:56,-115.1634,36.0719,663.00,104.00,48.00,15.40,210.00,9.00,0.00,29.92,1009.90,10.00,23.00,FEW,M,M,M,13000.00,M,M,M,M,M,M,M,30.00,180.00,2022-06-29 19:07,100.60,KLAS 291956Z 21009G23KT 180V240 10SM FEW130 40/09 A2992 RMK AO2 PK WND 18030/1907 SLP099 CB DSNT E T04000089,M
HND,2022-06-29 19:56,-115.1344,35.9729,742.79,104.00,49.00,15.93,210.00,13.00,0.00,29.96,1012.40,10.00,23.00,CLR,M,M,M,M,M,M,M,M,M,M,M,28.00,200.00,2022-06-29 19:26,100.83,KHND 291956Z 21013G23KT 10SM CLR 40/09 A2996 RMK AO2 PK WND 20028/1926 SLP124 T04000094,M
WMC,2022-06-29 19:56,-117.8072,40.9019,1315.00,89.00,27.00,10.64,220.00,11.00,0.00,30.10,1014.20,10.00,20.00,CLR,M,M,M,M,M,M,M,M,M,M,M,28.00,250.00,2022-06-29 19:30,84.68,KWMC 291956Z AUTO 22011G20KT 10SM CLR 32/M03 A3010 RMK AO2 PK WND 25028/1930 SLP142 T03171028,M
INS,2022-06-29 19:58,-115.6733,36.5872,955.00,101.00,28.90,7.95,240.00,15.00,0.00,29.96,1008.50,10.00,22.00,CLR,M,M,M,M,M,M,M,M,M,M,M,M,M,M,94.41,KINS 291958Z AUTO 24015G22KT 10SM CLR 38/M02 A2996 RMK AO2 SLP085 T03841017 $,M
LSV,2022-06-29 19:58,-115.0343,36.2362,570.00,110.00,43.70,10.94,220.00,11.00,0.00,29.88,M,10.00,25.00,FEW,FEW,SCT,M,15000.00,17000.00,20000.00,M,M,M,M,M,M,M,M,105.15,KLSV 291958Z AUTO 22011G25KT 10SM FEW150 FEW170 SCT200 43/07 A2988 RMK AO2 SLPNO T04340065 $,M
INS,2022-06-29 20:05,-115.6733,36.5872,955.00,102.20,32.00,8.72,260.00,16.00,0.00,29.96,1008.50,10.00,22.00,CLR,M,M,M,M,M,M,M,M,M,M,M,M,M,M,95.74,KINS 292005Z AUTO 26016G22KT 10SM CLR 39/00 A2996 RMK AO2 WSHFT 01 SLP085 $,M
BVU,2022-06-29 20:15,-114.8611,35.9475,671.00,105.80,42.80,11.98,200.00,15.00,0.00,29.91,M,10.00,25.00,FEW,M,M,M,12000.00,M,M,M,M,M,M,M,M,M,M,101.02,KBVU 292015Z AUTO 20015G25KT 10SM FEW120 41/06 A2991 RMK AO2,M
RTS,2022-06-29 20:15,-119.8764,39.6682,1539.00,84.20,24.80,11.35,260.00,17.00,0.00,30.18,M,10.00,29.00,CLR,M,M,M,M,M,M,M,M,M,M,M,M,M,M,81.00,KRTS 292015Z AUTO 26017G29KT 10SM CLR 29/M04 A3018 RMK AO2,M
05U,2022-06-29 20:15,-116.0051,39.6042,1811.23,89.60,30.20,11.94,0.00,0.00,0.00,30.18,M,9.00,M,M,M,M,M,M,M,M,M,M,M,M,M,M,M,M,85.34,K05U 292015Z AUTO 00000KT 9SM 32/M01 A3018 RMK A01,M
MEV,2022-06-29 20:15,-119.7500,38.9963,1441.42,89.60,28.40,11.09,240.00,17.00,0.00,30.14,M,10.00,22.00,CLR,M,M,M,M,M,M,M,M,M,M,M,M,M,M,85.17,KMEV 292015Z AUTO 24017G22KT 10SM CLR 32/M02 A3014 RMK AO2,M
BAM,2022-06-29 20:15,-116.8743,40.5990,1382.36,M,M,M,230.00,12.00,0.00,30.12,M,10.00,22.00,CLR,M,M,M,M,M,M,M,M,M,M,M,M,M,M,M,KBAM 292015Z AUTO 23012G22KT 200V280 10SM CLR A3012 RMK AO1,M
HTH,2022-06-29 20:15,-118.6315,38.5448,1282.89,91.40,28.40,10.48,10.00,9.00,0.00,30.06,M,9.00,15.00,CLR,M,M,M,M,M,M,M,M,M,M,M,M,M,M,86.53,KHTH 292015Z AUTO 01009G15KT 9SM CLR 33/M02 A3006 RMK A01,M
TMT,2022-06-29 20:15,-117.1971,39.4643,1749.34,M,M,M,210.00,8.00,0.00,30.17,M,10.00,M,CLR,M,M,M,M,M,M,M,M,M,M,M,M,M,M,M,KTMT 292015Z AUTO 21008KT 150V260 10SM CLR A3017 RMK AO2,M
LOL,2022-06-29 20:21,-118.5701,40.0684,1192.43,91.00,28.00,10.44,M,5.00,0.00,30.06,M,10.00,M,CLR,M,M,M,M,M,M,M,M,M,M,M,M,M,M,86.19,KLOL 292021Z AUTO VRB05KT 10SM CLR 33/M02 A3006 RMK AO2 WSHFT 2001 T03281022,M
RNO,2022-06-29 20:27,-119.7711,39.4839,1341.00,89.00,32.00,13.05,260.00,16.00,0.00,30.11,M,10.00,33.00,FEW,M,M,M,10000.00,M,M,M,SQ,M,M,M,33.00,200.00,2022-06-29 20:24,85.15,KRNO 292027Z 26016G33KT 10SM SQ FEW100 32/00 A3011 RMK AO2 PK WND 20033/2024 T03170000,M
LSV,2022-06-29 20:30,-115.0343,36.2362,570.00,109.40,44.60,11.55,210.00,12.00,0.00,29.86,M,10.00,17.00,FEW,SCT,M,M,13000.00,19000.00,M,M,M,M,M,M,M,M,M,104.78,KLSV 292030Z AUTO 21012G17KT 10SM FEW130 SCT190 43/07 A2986 RMK AO2 WSHFT 28 SLPNO $,M
BVU,2022-06-29 20:35,-114.8611,35.9475,671.00,107.60,42.80,11.37,160.00,15.00,0.00,29.91,M,10.00,29.00,CLR,M,M,M,M,M,M,M,M,M,M,M,M,M,M,102.63,KBVU 292035Z AUTO 16015G29KT 10SM CLR 42/06 A2991 RMK AO2,M
RTS,2022-06-29 20:35,-119.8764,39.6682,1539.00,84.20,23.00,10.53,230.00,19.00,0.00,30.17,M,10.00,26.00,CLR,M,M,M,M,M,M,M,M,M,M,M,M,M,M,80.88,KRTS 292035Z AUTO 23019G26KT 10SM CLR 29/M05 A3017 RMK AO2,M
05U,2022-06-29 20:35,-116.0051,39.6042,1811.23,89.60,30.20,11.94,0.00,0.00,0.00,30.17,M,9.00,M,CLR,M,M,M,M,M,M,M,M,M,M,M,M,M,M,85.34,K05U 292035Z AUTO 00000KT 9SM CLR 32/M01 A3017 RMK A01,M
MEV,2022-06-29 20:35,-119.7500,38.9963,1441.42,89.60,28.40,11.09,250.00,15.00,0.00,30.13,M,10.00,29.00,CLR,M,M,M,M,M,M,M,M,M,M,M,M,M,M,85.17,KMEV 292035Z AUTO 25015G29KT 10SM CLR 32/M02 A3013 RMK AO2,M
BAM,2022-06-29 20:35,-116.8743,40.5990,1382.36,M,M,M,280.00,15.00,0.00,30.11,M,10.00,22.00,CLR,M,M,M,M,M,M,M,M,M,M,M,M,M,M,M,KBAM 292035Z AUTO 28015G22KT 10SM CLR A3011 RMK AO1,M
HTH,2022-06-29 20:35,-118.6315,38.5448,1282.89,91.40,28.40,10.48,M,6.00,0.00,30.05,M,10.00,16.00,CLR,M,M,M,M,M,M,M,M,M,M,M,M,M,M,86.53,KHTH 292035Z AUTO VRB06G16KT 10SM CLR 33/M02 A3005 RMK A01,M
TMT,2022-06-29 20:35,-117.1971,39.4643,1749.34,M,M,M,130.00,7.00,0.00,30.16,M,10.00,M,SCT,M,M,M,12000.00,M,M,M,M,M,M,M,M,M,M,M,KTMT 292035Z AUTO 13007KT 10SM SCT120 A3016 RMK AO2,M
05U,2022-06-29 20:50,-116.0051,39.6042,1811.23,87.80,30.20,12.64,M,4.00,0.00,30.17,M,9.00,M,CLR,M,M,M,M,M,M,M,M,M,M,M,M,M,M,84.01,K05U 292050Z AUTO VRB04KT 9SM CLR 31/M01 A3017 RMK A01,M
P68,2022-06-29 20:53,-116.0056,39.6014,1993.00,88.00,30.90,12.92,M,M,0.00,30.14,1010.00,M,M,M,M,M,M,M,M,M,M,M,M,M,M,M,M,M,84.22,KP68 292053Z AUTO 31/M01 A3014 RMK AO1 SLP100 6//// T03111006,M
DRA,2022-06-29 20:53,-116.0278,36.6206,1009.00,101.00,34.00,9.83,190.00,22.00,0.00,29.98,1008.90,10.00,37.00,CLR,M,M,M,M,M,M,M,M,M,M,M,41.00,230.00,2022-06-29 20:08,94.93,KDRA 292053Z AUTO 19022G37KT 10SM CLR 38/01 A2998 RMK AO2 PK WND 23041/2008 SLP089 T03830011 56017 $,M
LOL,2022-06-29 20:53,-118.5701,40.0684,1192.43,92.00,28.00,10.15,220.00,6.00,0.00,30.05,1013.40,10.00,M,CLR,M,M,M,M,M,M,M,M,M,M,M,M,M,M,86.87,KLOL 292053Z AUTO 22006KT 10SM CLR 33/M02 A3005 RMK AO2 WSHFT 2001 SLP134 T03331022 58018,M
ELY,2022-06-29 20:53,-114.8453,39.2950,1909.00,90.00,35.00,14.36,220.00,18.00,0.00,30.17,1009.60,8.00,29.00,FEW,M,M,M,11000.00,M,M,M,M,M,M,M,35.00,210.00,2022-06-29 20:01,85.95,KELY 292053Z AUTO 22018G29KT 8SM FEW110 32/02 A3017 RMK AO2 PK WND 21035/2001 SLP096 T03220017 58020,M
VGT,2022-06-29 20:53,-115.1933,36.2111,667.00,108.00,44.00,11.81,210.00,21.00,0.00,29.88,1009.90,10.00,27.00,CLR,M,M,M,M,M,M,M,M,M,M,M,27.00,210.00,2022-06-29 20:44,103.36,KVGT 292053Z 21021G27KT 10SM CLR 42/07 A2988 RMK AO2 PK WND 21027/2044 SLP099 T04220067 58022,M
BVU,2022-06-29 20:55,-114.8611,35.9475,671.00,105.80,41.00,11.18,180.00,18.00,0.00,29.89,M,10.00,30.00,CLR,M,M,M,M,M,M,M,M,M,M,M,M,M,M,100.56,KBVU 292055Z AUTO 18018G30KT 10SM CLR 41/05 A2989 RMK AO2,M
MEV,2022-06-29 20:55,-119.7500,38.9963,1441.42,89.60,28.40,11.09,240.00,15.00,0.00,30.13,M,10.00,24.00,CLR,M,M,M,M,M,M,M,M,M,M,M,M,M,M,85.17,KMEV 292055Z AUTO 24015G24KT 10SM CLR 32/M02 A3013 RMK AO2,M
BAM,2022-06-29 20:55,-116.8743,40.5990,1382.36,M,M,M,240.00,9.00,0.00,30.09,M,10.00,17.00,SCT,M,M,M,12000.00,M,M,M,M,M,M,M,M,M,M,M,KBAM 292055Z AUTO 24009G17KT 10SM SCT120 A3009 RMK AO1,M
HTH,2022-06-29 20:55,-118.6315,38.5448,1282.89,93.20,28.40,9.91,330.00,11.00,0.00,30.04,M,10.00,M,CLR,M,M,M,M,M,M,M,M,M,M,M,M,M,M,87.89,KHTH 292055Z AUTO 33011KT 10SM CLR 34/M02 A3004 RMK A01,M
TMT,2022-06-29 20:55,-117.1971,39.4643,1749.34,85.00,32.00,14.82,280.00,4.00,0.00,30.16,M,10.00,M,SCT,M,M,M,12000.00,M,M,M,M,M,M,M,M,M,M,81.95,KTMT 292055Z AUTO 28004KT 10SM SCT120 30/00 A3016 RMK AO2 T02950000,M
RTS,2022-06-29 20:55,-119.8764,39.6682,1539.00,84.20,24.80,11.35,240.00,17.00,0.00,30.17,M,10.00,25.00,CLR,M,M,M,M,M,M,M,M,M,M,M,M,M,M,81.00,KRTS 292055Z AUTO 24017G25KT 10SM CLR 29/M04 A3017 RMK AO2,M
RNO,2022-06-29 20:55,-119.7711,39.4839,1341.00,89.00,33.00,13.64,170.00,18.00,0.00,30.10,1013.20,10.00,23.00,FEW,M,M,M,10000.00,M,M,M,M,M,M,M,33.00,200.00,2022-06-29 20:24,85.16,KRNO 292055Z 17018G23KT 10SM FEW100 32/01 A3010 RMK AO2 PK WND 20033/2024 WSHFT 2040 SLP132 T03170006 56009,M
EKO,2022-06-29 20:56,-115.7860,40.8242,1367.00,88.00,30.00,12.46,240.00,8.00,0.00,30.12,1013.10,10.00,M,CLR,M,M,M,M,M,M,M,M,M,M,M,29.00,250.00,2022-06-29 20:00,84.13,KEKO 292056Z AUTO 24008KT 10SM CLR 31/M01 A3012 RMK AO2 PK WND 25029/2000 SLP131 T03111011 58017,M
WMC,2022-06-29 20:56,-117.8072,40.9019,1315.00,91.00,26.10,9.66,260.00,13.00,0.00,30.07,1013.20,10.00,26.00,CLR,M,M,M,M,M,M,M,M,M,M,M,27.00,290.00,2022-06-29 20:44,86.02,KWMC 292056Z AUTO 26013G26KT 230V310 10SM CLR 33/M03 A3007 RMK AO2 PK WND 29027/2044 SLP132 T03281033 58019,M
NFL,2022-06-29 20:56,-118.7010,39.4166,1199.00,93.00,30.00,10.65,330.00,11.00,0.00,30.04,1014.30,10.00,M,SCT,M,M,M,9000.00,M,M,M,M,M,M,M,M,M,M,87.91,KNFL 292056Z 33011KT 10SM SCT090 34/M01 A3004 RMK AO2 SLP143 T03391011 58018,M
LAS,2022-06-29 20:56,-115.1634,36.0719,663.00,106.00,43.00,12.01,230.00,9.00,0.00,29.90,1009.10,10.00,22.00,FEW,M,M,M,13000.00,M,M,M,M,M,M,M,28.00,170.00,2022-06-29 20:36,101.25,KLAS 292056Z 23009G22KT 10SM FEW130 41/06 A2990 RMK AO2 PK WND 17028/2036 SLP091 CB DSNT E T04110061 58023,M
HND,2022-06-29 20:56,-115.1344,35.9729,742.79,105.00,44.00,12.86,240.00,18.00,0.00,29.94,1011.60,10.00,25.00,CLR,M,M,M,M,M,M,M,M,M,M,M,29.00,200.00,2022-06-29 20:24,100.75,KHND 292056Z 24018G25KT 10SM CLR 41/07 A2994 RMK AO2 PK WND 20029/2024 SLP116 T04060067 58022,M
INS,2022-06-29 20:58,-115.6733,36.5872,955.00,102.00,29.70,7.99,220.00,19.00,0.00,29.94,1007.80,10.00,26.00,CLR,M,M,M,M,M,M,M,M,M,M,M,32.00,210.00,2022-06-29 20:46,95.27,KINS 292058Z AUTO 22019G26KT 10SM CLR 39/M01 A2994 RMK AO2 PK WND 21032/46 SLP078 T03891013 57019 $,M
LSV,2022-06-29 20:58,-115.0343,36.2362,570.00,108.70,44.80,11.88,200.00,15.00,0.00,29.85,1007.50,10.00,26.00,SCT,SCT,SCT,BKN,12000.00,14000.00,17000.00,20000.00,M,M,M,M,26.00,200.00,2022-06-29 20:54,104.20,KLSV 292058Z AUTO 20015G26KT 10SM SCT120 SCT140 SCT170 BKN200 43/07 A2985 RMK AO2 PK WND 20026/54 SLP075 T04260071 57025 $,M
LSV,2022-06-29 21:05,-115.0343,36.2362,570.00,109.40,42.80,10.78,220.00,14.00,0.00,29.84,M,10.00,26.00,FEW,FEW,SCT,SCT,12000.00,14000.00,17000.00,19000.00,M,M,M,M,M,M,M,104.25,KLSV 292105Z AUTO 22014G26KT 10SM FEW120 FEW140 SCT170 SCT190 43/06 A2984 RMK AO2 WSHFT 02 SLPNO $,M
INS,2022-06-29 21:10,-115.6733,36.5872,955.00,102.20,30.20,8.11,260.00,20.00,0.00,29.93,1007.40,10.00,29.00,CLR,M,M,M,M,M,M,M,M,M,M,M,M,M,M,95.50,KINS 292110Z AUTO 26020G29KT 10SM CLR 39/M01 A2993 RMK AO2 WSHFT 2055 SLP074 $,M
INS,2022-06-29 21:13,-115.6733,36.5872,955.00,102.20,30.20,8.11,220.00,15.00,0.00,29.93,1007.40,10.00,26.00,CLR,M,M,M,M,M,M,M,M,M,M,M,M,M,M,95.50,KINS 292113Z AUTO 22015G26KT 10SM CLR 39/M01 A2993 RMK AO2 WSHFT 11 SLP074 $,M
BVU,2022-06-29 21:15,-114.8611,35.9475,671.00,107.60,41.00,10.60,190.00,15.00,0.00,29.89,M,10.00,27.00,CLR,M,M,M,M,M,M,M,M,M,M,M,M,M,M,102.16,KBVU 292115Z AUTO 19015G27KT 10SM CLR 42/05 A2989 RMK AO2,M
RTS,2022-06-29 21:15,-119.8764,39.6682,1539.00,84.20,24.80,11.35,250.00,20.00,0.00,30.17,M,10.00,27.00,CLR,M,M,M,M,M,M,M,M,M,M,M,M,M,M,81.00,KRTS 292115Z AUTO 25020G27KT 10SM CLR 29/M04 A3017 RMK AO2,M
05U,2022-06-29 21:15,-116.0051,39.6042,1811.23,91.40,28.40,10.48,M,4.00,0.00,30.15,M,10.00,M,CLR,M,M,M,M,M,M,M,M,M,M,M,M,M,M,86.53,K05U 292115Z AUTO VRB04KT 10SM CLR 33/M02 A3015 RMK A01,M
MEV,2022-06-29 21:15,-119.7500,38.9963,1441.42,89.60,30.20,11.94,230.00,17.00,0.00,30.12,M,10.00,22.00,CLR,M,M,M,M,M,M,M,M,M,M,M,M,M,M,85.34,KMEV 292115Z AUTO 23017G22KT 10SM CLR 32/M01 A3012 RMK AO2,M
BAM,2022-06-29 21:15,-116.8743,40.5990,1382.36,M,M,M,250.00,11.00,0.00,30.09,M,10.00,21.00,CLR,M,M,M,M,M,M,M,M,M,M,M,M,M,M,M,KBAM 292115Z AUTO 25011G21KT 10SM CLR A3009 RMK AO1,M
HTH,2022-06-29 21:15,-118.6315,38.5448,1282.89,93.20,28.40,9.91,350.00,11.00,0.00,30.03,M,10.00,M,CLR,M,M,M,M,M,M,M,M,M,M,M,M,M,M,87.89,KHTH 292115Z AUTO 35011KT 10SM CLR 34/M02 A3003 RMK A01,M
TMT,2022-06-29 21:15,-117.1971,39.4643,1749.34,90.00,31.60,12.48,290.00,14.00,0.00,30.15,M,10.00,21.00,CLR,M,M,M,M,M,M,M,M,M,M,M,M,M,M,85.80,KTMT 292115Z AUTO 29014G21KT 10SM CLR 32/00 A3015 RMK AO2 T03221002,M
INS,2022-06-29 21:16,-115.6733,36.5872,955.00,102.20,30.20,8.11,250.00,13.00,0.00,29.93,1007.40,10.00,26.00,CLR,M,M,M,M,M,M,M,M,M,M,M,M,M,M,95.50,KINS 292116Z AUTO 25013G26KT 10SM CLR 39/M01 A2993 RMK AO2 WSHFT 14 SLP074 $,M
INS,2022-06-29 21:18,-115.6733,36.5872,955.00,102.20,30.20,8.11,210.00,16.00,0.00,29.93,1007.40,10.00,22.00,CLR,M,M,M,M,M,M,M,M,M,M,M,M,M,M,95.50,KINS 292118Z AUTO 21016G22KT 10SM CLR 39/M01 A2993 RMK AO2 WSHFT 16 SLP074 $,M
LSV,2022-06-29 21:29,-115.0343,36.2362,570.00,111.20,39.20,8.90,240.00,17.00,0.00,29.83,M,10.00,27.00,SCT,BKN,BKN,M,13000.00,19000.00,21000.00,M,M,M,M,M,M,M,M,104.98,KLSV 292129Z AUTO 24017G27KT 10SM SCT130 BKN190 BKN210 44/04 A2983 RMK AO2 WSHFT 22 SLPNO $,M
BVU,2022-06-29 21:35,-114.8611,35.9475,671.00,107.60,41.00,10.60,190.00,18.00,0.00,29.88,M,10.00,M,CLR,M,M,M,M,M,M,M,M,M,M,M,M,M,M,102.16,KBVU 292135Z AUTO 19018KT 10SM CLR 42/05 A2988 RMK AO2,M
RTS,2022-06-29 21:35,-119.8764,39.6682,1539.00,86.00,23.00,9.94,240.00,20.00,0.00,30.16,M,10.00,30.00,CLR,M,M,M,M,M,M,M,M,M,M,M,M,M,M,82.14,KRTS 292135Z AUTO 24020G30KT 10SM CLR 30/M05 A3016 RMK AO2,M
05U,2022-06-29 21:35,-116.0051,39.6042,1811.23,91.40,30.20,11.28,260.00,5.00,0.00,30.15,M,7.00,25.00,CLR,M,M,M,M,M,M,M,M,M,M,M,M,M,M,86.71,K05U 292135Z AUTO 26005G25KT 7SM CLR 33/M01 A3015 RMK A01,M
MEV,2022-06-29 21:35,-119.7500,38.9963,1441.42,89.60,28.40,11.09,250.00,13.00,0.00,30.12,M,10.00,25.00,CLR,M,M,M,M,M,M,M,M,M,M,M,M,M,M,85.17,KMEV 292135Z AUTO 25013G25KT 10SM CLR 32/M02 A3012 RMK AO2,M
BAM,2022-06-29 21:35,-116.8743,40.5990,1382.36,M,M,M,270.00,17.00,0.00,30.08,M,10.00,20.00,CLR,M,M,M,M,M,M,M,M,M,M,M,M,M,M,M,KBAM 292135Z AUTO 27017G20KT 10SM CLR A3008 RMK AO1,M
HTH,2022-06-29 21:35,-118.6315,38.5448,1282.89,95.00,28.40,9.38,320.00,10.00,0.00,30.02,M,10.00,16.00,M,M,M,M,M,M,M,M,M,M,M,M,M,M,M,89.27,KHTH 292135Z AUTO 32010G16KT 10SM 35/M02 A3002 RMK A01,M
TMT,2022-06-29 21:35,-117.1971,39.4643,1749.34,89.00,31.80,12.94,270.00,12.00,0.00,30.15,M,10.00,18.00,CLR,M,M,M,M,M,M,M,M,M,M,M,M,M,M,85.14,KTMT 292135Z AUTO 27012G18KT 10SM CLR 32/00 A3015 RMK AO2 T03171001,M
INS,2022-06-29 21:41,-115.6733,36.5872,955.00,102.20,30.20,8.11,250.00,19.00,0.00,29.92,1007.10,10.00,23.00,CLR,M,M,M,M,M,M,M,M,M,M,M,M,M,M,95.50,KINS 292141Z AUTO 25019G23KT 10SM CLR 39/M01 A2992 RMK AO2 WSHFT 31 SLP071 $,M
LSV,2022-06-29 21:46,-115.0343,36.2362,570.00,111.20,39.20,8.90,210.00,15.00,0.00,29.83,M,10.00,26.00,FEW,SCT,M,M,13000.00,16000.00,M,M,M,M,M,M,M,M,M,104.98,KLSV 292146Z AUTO 21015G26KT 10SM FEW130 SCT160 44/04 A2983 RMK AO2 WSHFT 36 SLPNO $,M
P68,2022-06-29 21:53,-116.0056,39.6014,1993.00,90.00,28.90,11.18,190.00,9.00,0.00,30.11,1008.80,M,17.00,M,M,M,M,M,M,M,M,M,M,M,M,M,M,M,85.52,KP68 292153Z AUTO 19009G17KT 32/M02 A3011 RMK AO1 SLP088 T03221017,M
ELY,2022-06-29 21:53,-114.8453,39.2950,1909.00,89.00,30.90,12.48,230.00,15.00,0.00,30.14,1009.50,10.00,28.00,SCT,M,M,M,12000.00,M,M,M,M,M,M,M,35.00,210.00,2022-06-29 20:58,85.04,KELY 292153Z AUTO 23015G28KT 10SM SCT120 32/M01 A3014 RMK AO2 PK WND 21035/2058 SLP095 T03171006,M
LOL,2022-06-29 21:53,-118.5701,40.0684,1192.43,93.00,28.00,9.81,210.00,8.00,0.00,30.02,1012.20,10.00,M,CLR,M,M,M,M,M,M,M,M,M,M,M,M,M,M,87.70,KLOL 292153Z AUTO 21008KT 160V240 10SM CLR 34/M02 A3002 RMK AO2 SLP122 T03391022,M
DRA,2022-06-29 21:53,-116.0278,36.6206,1009.00,102.00,33.00,9.17,210.00,16.00,0.00,29.96,1008.10,10.00,35.00,CLR,M,M,M,M,M,M,M,M,M,M,M,38.00,230.00,2022-06-29 21:15,95.73,KDRA 292153Z AUTO 21016G35KT 10SM CLR 39/01 A2996 RMK AO2 PK WND 23038/2115 SLP081 T03890006 $,M
VGT,2022-06-29 21:53,-115.1933,36.2111,667.00,108.00,40.00,10.04,220.00,16.00,0.00,29.87,1009.50,10.00,26.00,CLR,M,M,M,M,M,M,M,M,M,M,M,29.00,220.00,2022-06-29 21:07,102.25,KVGT 292153Z 22016G26KT 10SM CLR 42/04 A2987 RMK AO2 PK WND 22029/2107 SLP095 T04220044,M
BVU,2022-06-29 21:55,-114.8611,35.9475,671.00,105.80,42.80,11.98,200.00,17.00,0.00,29.87,M,10.00,29.00,CLR,M,M,M,M,M,M,M,M,M,M,M,M,M,M,101.02,KBVU 292155Z AUTO 20017G29KT 10SM CLR 41/06 A2987 RMK AO2,M
RTS,2022-06-29 21:55,-119.8764,39.6682,1539.00,86.00,24.80,10.72,250.00,17.00,0.00,30.16,M,10.00,27.00,CLR,M,M,M,M,M,M,M,M,M,M,M,M,M,M,82.26,KRTS 292155Z AUTO 25017G27KT 10SM CLR 30/M04 A3016 RMK AO2,M
05U,2022-06-29 21:55,-116.0051,39.6042,1811.23,93.20,28.40,9.91,250.00,8.00,0.00,30.14,M,10.00,M,CLR,M,M,M,M,M,M,M,M,M,M,M,M,M,M,87.89,K05U 292155Z AUTO 25008KT 10SM CLR 34/M02 A3014 RMK A01,M
MEV,2022-06-29 21:55,-119.7500,38.9963,1441.42,89.60,28.40,11.09,230.00,19.00,0.00,30.12,M,10.00,25.00,CLR,M,M,M,M,M,M,M,M,M,M,M,M,M,M,85.17,KMEV 292155Z AUTO 23019G25KT 10SM CLR 32/M02 A3012 RMK AO2,M
BAM,2022-06-29 21:55,-116.8743,40.5990,1382.36,M,M,M,220.00,10.00,0.00,30.07,M,10.00,22.00,CLR,M,M,M,M,M,M,M,M,M,M,M,M,M,M,M,KBAM 292155Z AUTO 22010G22KT 10SM CLR A3007 RMK AO1,M
HTH,2022-06-29 21:55,-118.6315,38.5448,1282.89,93.20,28.40,9.91,10.00,8.00,0.00,30.02,M,10.00,M,M,M,M,M,M,M,M,M,M,M,M,M,M,M,M,87.89,KHTH 292155Z AUTO 01008KT 10SM 34/M02 A3002 RMK A01,M
TMT,2022-06-29 21:55,-117.1971,39.4643,1749.34,88.00,30.70,12.82,310.00,11.00,0.00,30.14,M,10.00,21.00,CLR,M,M,M,M,M,M,M,M,M,M,M,M,M,M,84.20,KTMT 292155Z AUTO 31011G21KT 10SM CLR 31/M01 A3014 RMK AO2 T03111007,M
RNO,2022-06-29 21:55,-119.7711,39.4839,1341.00,90.00,33.00,13.26,260.00,7.00,0.00,30.09,1012.80,10.00,18.00,FEW,M,M,M,12000.00,M,M,M,M,M,M,M,30.00,190.00,2022-06-29 20:56,85.92,KRNO 292155Z 26007G18KT 230V300 10SM FEW120 32/01 A3009 RMK AO2 PK WND 19030/2056 WSHFT 2042 SLP128 T03220006,M
EKO,2022-06-29 21:56,-115.7860,40.8242,1367.00,90.00,28.90,11.18,250.00,16.00,0.00,30.10,1012.60,10.00,23.00,CLR,M,M,M,M,M,M,M,M,M,M,M,28.00,260.00,2022-06-29 21:04,85.52,KEKO 292156Z AUTO 25016G23KT 10SM CLR 32/M02 A3010 RMK AO2 PK WND 26028/2104 SLP126 T03221017,M
WMC,2022-06-29 21:56,-117.8072,40.9019,1315.00,91.00,26.10,9.66,310.00,6.00,0.00,30.06,1012.60,10.00,M,CLR,M,M,M,M,M,M,M,M,M,M,M,27.00,250.00,2022-06-29 21:34,86.02,KWMC 292156Z AUTO 31006KT 10SM CLR 33/M03 A3006 RMK AO2 PK WND 25027/2134 SLP126 T03281033,M
NFL,2022-06-29 21:56,-118.7010,39.4166,1199.00,96.00,27.00,8.56,M,3.00,0.00,30.02,1013.40,10.00,M,SCT,M,M,M,9000.00,M,M,M,M,M,M,M,M,M,M,90.03,KNFL 292156Z VRB03KT 10SM SCT090 36/M03 A3002 RMK AO2 SLP134 T03561028,M
HND,2022-06-29 21:56,-115.1344,35.9729,742.79,106.00,42.00,11.60,210.00,14.00,0.00,29.92,1010.90,10.00,20.00,CLR,M,M,M,M,M,M,M,M,M,M,M,26.00,230.00,2022-06-29 21:13,101.01,KHND 292156Z 21014G20KT 10SM CLR 41/06 A2992 RMK AO2 PK WND 23026/2113 SLP109 T04110056,M
LAS,2022-06-29 21:56,-115.1634,36.0719,663.00,106.00,40.00,10.65,220.00,11.00,0.00,29.89,1008.60,10.00,24.00,FEW,FEW,M,M,13000.00,18000.00,M,M,M,M,M,M,32.00,250.00,2022-06-29 21:26,100.47,KLAS 292156Z 22011G24KT 10SM FEW130 FEW180 41/04 A2989 RMK AO2 PK WND 25032/2126 SLP086 T04110044,M
INS,2022-06-29 21:58,-115.6733,36.5872,955.00,101.70,29.30,7.93,210.00,16.00,0.00,29.92,1007.10,10.00,23.00,CLR,M,M,M,M,M,M,M,M,M,M,M,30.00,220.00,2022-06-29 21:28,94.97,KINS 292158Z AUTO 21016G23KT 10SM CLR 39/M01 A2992 RMK AO2 PK WND 22030/28 SLP071 T03871015 $,M
LSV,2022-06-29 21:58,-115.0343,36.2362,570.00,110.80,36.00,7.94,220.00,11.00,0.00,29.83,1006.80,10.00,29.00,FEW,M,M,M,14000.00,M,M,M,M,M,M,M,30.00,240.00,2022-06-29 21:31,103.92,KLSV 292158Z AUTO 22011G29KT 10SM FEW140 44/02 A2983 RMK AO2 PK WND 24030/31 SLP068 T04380022 $,M
ELY,2022-06-29 22:14,-114.8453,39.2950,1909.00,87.80,33.80,14.61,170.00,12.00,0.00,30.14,M,10.00,29.00,FEW,M,M,M,12000.00,M,M,M,M,M,M,M,M,M,M,84.10,KELY 292214Z AUTO 17012G29KT 10SM FEW120 31/01 A3014,M
BVU,2022-06-29 22:15,-114.8611,35.9475,671.00,107.60,39.20,9.89,230.00,19.00,0.00,29.86,M,10.00,M,CLR,M,M,M,M,M,M,M,M,M,M,M,M,M,M,101.73,KBVU 292215Z AUTO 23019KT 10SM CLR 42/04 A2986 RMK AO2,M
RTS,2022-06-29 22:15,-119.8764,39.6682,1539.00,84.20,24.80,11.35,250.00,20.00,0.00,30.16,M,10.00,26.00,CLR,M,M,M,M,M,M,M,M,M,M,M,M,M,M,81.00,KRTS 292215Z AUTO 25020G26KT 10SM CLR 29/M04 A3016 RMK AO2,M
05U,2022-06-29 22:15,-116.0051,39.6042,1811.23,89.60,28.40,11.09,280.00,6.00,0.00,30.13,M,10.00,13.00,CLR,M,M,M,M,M,M,M,M,M,M,M,M,M,M,85.17,K05U 292215Z AUTO 28006G13KT 10SM CLR 32/M02 A3013 RMK A01,M
MEV,2022-06-29 22:15,-119.7500,38.9963,1441.42,89.60,24.80,9.56,220.00,16.00,0.00,30.11,M,10.00,21.00,CLR,M,M,M,M,M,M,M,M,M,M,M,M,M,M,84.88,KMEV 292215Z AUTO 22016G21KT 10SM CLR 32/M04 A3011 RMK AO2,M
BAM,2022-06-29 22:15,-116.8743,40.5990,1382.36,M,M,M,230.00,14.00,0.00,30.07,M,10.00,24.00,CLR,M,M,M,M,M,M,M,M,M,M,M,M,M,M,M,KBAM 292215Z AUTO 23014G24KT 10SM CLR A3007 RMK AO1,M
HTH,2022-06-29 22:15,-118.6315,38.5448,1282.89,95.00,26.60,8.71,320.00,15.00,0.00,30.01,M,10.00,M,CLR,M,M,M,M,M,M,M,M,M,M,M,M,M,M,89.08,KHTH 292215Z AUTO 32015KT 10SM CLR 35/M03 A3001 RMK A01,M
TMT,2022-06-29 22:15,-117.1971,39.4643,1749.34,91.40,32.40,12.33,260.00,14.00,0.00,30.13,M,10.00,21.00,CLR,M,M,M,M,M,M,M,M,M,M,M,M,M,M,86.96,KTMT 292215Z AUTO 26014G21KT 10SM CLR 33/00 A3013 RMK AO2 T03300002,M
INS,2022-06-29 22:23,-115.6733,36.5872,955.00,102.20,30.20,8.11,250.00,18.00,0.00,29.91,1006.70,10.00,22.00,CLR,M,M,M,M,M,M,M,M,M,M,M,M,M,M,95.50,KINS 292223Z AUTO 25018G22KT 10SM CLR 39/M01 A2991 RMK AO2 WSHFT 17 SLP067 $,M
INS,2022-06-29 22:30,-115.6733,36.5872,955.00,102.20,30.20,8.11,230.00,18.00,0.00,29.91,1006.70,10.00,26.00,CLR,M,M,M,M,M,M,M,M,M,M,M,M,M,M,95.50,KINS 292230Z AUTO 23018G26KT 10SM CLR 39/M01 A2991 RMK AO2 WSHFT 28 SLP067 $,M
BVU,2022-06-29 22:35,-114.8611,35.9475,671.00,107.60,39.20,9.89,230.00,22.00,0.00,29.85,M,10.00,29.00,CLR,M,M,M,M,M,M,M,M,M,M,M,M,M,M,101.73,KBVU 292235Z AUTO 23022G29KT 10SM CLR 42/04 A2985 RMK AO2,M
RTS,2022-06-29 22:35,-119.8764,39.6682,1539.00,84.20,24.80,11.35,250.00,21.00,0.00,30.16,M,10.00,27.00,CLR,M,M,M,M,M,M,M,M,M,M,M,M,M,M,81.00,KRTS 292235Z AUTO 25021G27KT 10SM CLR 29/M04 A3016 RMK AO2,M
05U,2022-06-29 22:35,-116.0051,39.6042,1811.23,89.60,28.40,11.09,240.00,11.00,0.00,30.12,M,10.00,17.00,CLR,M,M,M,M,M,M,M,M,M,M,M,M,M,M,85.17,K05U 292235Z AUTO 24011G17KT 10SM CLR 32/M02 A3012 RMK A01,M
MEV,2022-06-29 22:35,-119.7500,38.9963,1441.42,89.60,26.60,10.30,230.00,12.00,0.00,30.11,M,10.00,19.00,CLR,M,M,M,M,M,M,M,M,M,M,M,M,M,M,85.02,KMEV 292235Z AUTO 23012G19KT 10SM CLR 32/M03 A3011 RMK AO2,M
BAM,2022-06-29 22:35,-116.8743,40.5990,1382.36,M,M,M,250.00,8.00,0.00,30.06,M,10.00,22.00,CLR,M,M,M,M,M,M,M,M,M,M,M,M,M,M,M,KBAM 292235Z AUTO 25008G22KT 10SM CLR A3006 RMK AO1,M
HTH,2022-06-29 22:35,-118.6315,38.5448,1282.89,93.20,26.60,9.21,320.00,13.00,0.00,30.01,M,10.00,M,CLR,M,M,M,M,M,M,M,M,M,M,M,M,M,M,87.72,KHTH 292235Z AUTO 32013KT 10SM CLR 34/M03 A3001 RMK A01,M
TMT,2022-06-29 22:35,-117.1971,39.4643,1749.34,90.00,31.60,12.44,290.00,7.00,0.00,30.13,M,10.00,19.00,CLR,M,M,M,M,M,M,M,M,M,M,M,M,M,M,85.87,KTMT 292235Z AUTO 29007G19KT 10SM CLR 32/00 A3013 RMK AO2 T03231002,M
P68,2022-06-29 22:53,-116.0056,39.6014,1993.00,89.00,28.00,11.09,270.00,7.00,0.00,30.09,1008.40,M,16.00,M,M,M,M,M,M,M,M,M,M,M,M,M,M,M,84.76,KP68 292253Z AUTO 27007G16KT 32/M02 A3009 RMK AO1 SLP084 T03171022,M
ELY,2022-06-29 22:53,-114.8453,39.2950,1909.00,91.00,28.00,10.44,200.00,22.00,0.00,30.12,1008.40,10.00,30.00,CLR,M,M,M,M,M,M,M,M,M,M,M,31.00,220.00,2022-06-29 22:30,86.19,KELY 292253Z AUTO 20022G30KT 10SM CLR 33/M02 A3012 RMK AO2 PK WND 22031/2230 WSHFT 2154 SLP084 T03281022,M
LOL,2022-06-29 22:53,-118.5701,40.0684,1192.43,96.00,25.00,7.88,290.00,13.00,0.00,29.99,1011.30,10.00,23.00,CLR,M,M,M,M,M,M,M,M,M,M,M,M,M,M,89.84,KLOL 292253Z AUTO 29013G23KT 10SM CLR 36/M04 A2999 RMK AO2 WSHFT 2239 SLP113 T03561039,M
DRA,2022-06-29 22:53,-116.0278,36.6206,1009.00,102.00,33.00,9.17,200.00,24.00,0.00,29.92,1006.90,10.00,34.00,CLR,M,M,M,M,M,M,M,M,M,M,M,36.00,210.00,2022-06-29 22:42,95.73,KDRA 292253Z AUTO 20024G34KT 10SM CLR 39/01 A2992 RMK AO2 PK WND 21036/2242 SLP069 T03890006 $,M
VGT,2022-06-29 22:53,-115.1933,36.2111,667.00,107.00,40.00,10.31,230.00,13.00,0.00,29.85,1008.80,10.00,24.00,CLR,M,M,M,M,M,M,M,M,M,M,M,27.00,210.00,2022-06-29 22:08,101.45,KVGT 292253Z 23013G24KT 10SM CLR 42/04 A2985 RMK AO2 PK WND 21027/2208 SLP088 T04170044,M
BVU,2022-06-29 22:55,-114.8611,35.9475,671.00,105.80,35.60,9.05,240.00,11.00,0.00,29.85,M,10.00,27.00,CLR,M,M,M,M,M,M,M,M,M,M,M,M,M,M,99.42,KBVU 292255Z AUTO 24011G27KT 10SM CLR 41/02 A2985 RMK AO2,M
RNO,2022-06-29 22:55,-119.7711,39.4839,1341.00,90.00,36.00,14.88,210.00,9.00,0.00,30.08,1012.50,10.00,20.00,FEW,M,M,M,12000.00,M,M,M,M,M,M,M,M,M,M,85.97,KRNO 292255Z 21009G20KT 10SM FEW120 32/02 A3008 RMK AO2 SLP125 T03220022,M
RTS,2022-06-29 22:55,-119.8764,39.6682,1539.00,84.20,26.60,12.23,250.00,20.00,0.00,30.15,M,10.00,26.00,CLR,M,M,M,M,M,M,M,M,M,M,M,M,M,M,81.13,KRTS 292255Z AUTO 25020G26KT 10SM CLR 29/M03 A3015 RMK AO2,M
05U,2022-06-29 22:55,-116.0051,39.6042,1811.23,89.60,28.40,11.09,250.00,10.00,0.00,30.12,M,10.00,M,CLR,M,M,M,M,M,M,M,M,M,M,M,M,M,M,85.17,K05U 292255Z AUTO 25010KT 10SM CLR 32/M02 A3012 RMK A01,M
MEV,2022-06-29 22:55,-119.7500,38.9963,1441.42,89.60,28.40,11.09,240.00,9.00,0.00,30.11,M,10.00,27.00,CLR,M,M,M,M,M,M,M,M,M,M,M,M,M,M,85.17,KMEV 292255Z AUTO 24009G27KT 200V290 10SM CLR 32/M02 A3011 RMK AO2,M
BAM,2022-06-29 22:55,-116.8743,40.5990,1382.36,M,M,M,310.00,7.00,0.00,30.05,M,10.00,21.00,CLR,M,M,M,M,M,M,M,M,M,M,M,M,M,M,M,KBAM 292255Z AUTO 31007G21KT 10SM CLR A3005 RMK AO1,M
HTH,2022-06-29 22:55,-118.6315,38.5448,1282.89,95.00,26.60,8.71,330.00,12.00,0.00,30.00,M,10.00,M,CLR,M,M,M,M,M,M,M,M,M,M,M,M,M,M,89.08,KHTH 292255Z AUTO 33012KT 10SM CLR 35/M03 A3000 RMK A01,M
TMT,2022-06-29 22:55,-117.1971,39.4643,1749.34,89.60,31.60,12.64,320.00,5.00,0.00,30.12,M,10.00,16.00,CLR,M,M,M,M,M,M,M,M,M,M,M,M,M,M,85.49,KTMT 292255Z AUTO 32005G16KT 10SM CLR 32/00 A3012 RMK AO2 T03201002,M
EKO,2022-06-29 22:56,-115.7860,40.8242,1367.00,91.00,30.00,11.33,260.00,15.00,0.00,30.07,1011.80,10.00,23.00,CLR,M,M,M,M,M,M,M,M,M,M,M,M,M,M,86.38,KEKO 292256Z AUTO 26015G23KT 10SM CLR 33/M01 A3007 RMK AO2 SLP118 T03281011,M
NFL,2022-06-29 22:56,-118.7010,39.4166,1199.00,97.00,27.00,8.32,270.00,15.00,0.00,30.00,1012.80,10.00,22.00,SCT,M,M,M,9000.00,M,M,M,M,M,M,M,M,M,M,90.77,KNFL 292256Z 27015G22KT 10SM SCT090 36/M03 A3000 RMK AO2 SLP128 T03611028,M
HND,2022-06-29 22:56,-115.1344,35.9729,742.79,104.00,42.00,12.31,250.00,14.00,0.00,29.90,1010.50,10.00,22.00,CLR,M,M,M,M,M,M,M,M,M,M,M,M,M,M,99.24,KHND 292256Z 25014G22KT 10SM CLR 40/06 A2990 RMK AO2 SLP105 T04000056,M
LAS,2022-06-29 22:56,-115.1634,36.0719,663.00,106.00,40.00,10.65,230.00,20.00,0.00,29.87,1007.90,10.00,27.00,FEW,FEW,M,M,13000.00,18000.00,M,M,M,M,M,M,45.00,270.00,2022-06-29 22:08,100.47,KLAS 292256Z 23020G27KT 10SM FEW130 FEW180 41/04 A2987 RMK AO2 PK WND 27045/2208 SLP079 CB DSNT E-SE T04110044,M
WMC,2022-06-29 22:56,-117.8072,40.9019,1315.00,92.00,25.00,8.97,270.00,11.00,0.00,30.04,1012.10,10.00,19.00,CLR,M,M,M,M,M,M,M,M,M,M,M,M,M,M,86.60,KWMC 292256Z AUTO 27011G19KT 10SM CLR 33/M04 A3004 RMK AO2 SLP121 T03331039,M
INS,2022-06-29 22:58,-115.6733,36.5872,955.00,102.00,29.70,7.99,220.00,19.00,0.00,29.90,1006.70,10.00,26.00,CLR,M,M,M,M,M,M,M,M,M,M,M,31.00,210.00,2022-06-29 22:56,95.27,KINS 292258Z AUTO 22019G26KT 10SM CLR 39/M01 A2990 RMK AO2 PK WND 21031/56 SLP067 T03891013 $,M
LSV,2022-06-29 22:58,-115.0343,36.2362,570.00,109.60,35.00,7.94,230.00,21.00,0.00,29.80,M,10.00,25.00,CLR,M,M,M,M,M,M,M,M,M,M,M,33.00,230.00,2022-06-29 22:16,102.65,KLSV 292258Z AUTO 23021G25KT 10SM CLR 43/02 A2980 RMK AO2 PK WND 23033/16 SLPNO T04310017 $,M
LOL,2022-06-29 23:00,-118.5701,40.0684,1192.43,96.00,25.00,7.88,270.00,13.00,0.00,29.99,M,10.00,21.00,CLR,M,M,M,M,M,M,M,M,M,M,M,M,M,M,89.84,KLOL 292300Z AUTO 27013G21KT 10SM CLR 36/M04 A2999 RMK AO2 WSHFT 2240 T03561039,M
BVU,2022-06-29 23:15,-114.8611,35.9475,671.00,107.60,33.80,7.99,240.00,15.00,0.00,29.84,M,10.00,23.00,CLR,M,M,M,M,M,M,M,M,M,M,M,M,M,M,100.66,KBVU 292315Z AUTO 24015G23KT 10SM CLR 42/01 A2984 RMK AO2,M
RTS,2022-06-29 23:15,-119.8764,39.6682,1539.00,84.20,26.60,12.23,240.00,18.00,0.00,30.15,M,10.00,24.00,CLR,M,M,M,M,M,M,M,M,M,M,M,M,M,M,81.13,KRTS 292315Z AUTO 24018G24KT 10SM CLR 29/M03 A3015 RMK AO2,M
05U,2022-06-29 23:15,-116.0051,39.6042,1811.23,89.60,26.60,10.30,220.00,11.00,0.00,30.11,M,10.00,M,CLR,M,M,M,M,M,M,M,M,M,M,M,M,M,M,85.02,K05U 292315Z AUTO 22011KT 10SM CLR 32/M03 A3011 RMK A01,M
MEV,2022-06-29 23:15,-119.7500,38.9963,1441.42,89.60,28.40,11.09,250.00,19.00,0.00,30.10,M,10.00,M,CLR,M,M,M,M,M,M,M,M,M,M,M,M,M,M,85.17,KMEV 292315Z AUTO 25019KT 10SM CLR 32/M02 A3010 RMK AO2,M
BAM,2022-06-29 23:15,-116.8743,40.5990,1382.36,M,M,M,240.00,13.00,0.00,30.04,M,10.00,22.00,CLR,M,M,M,M,M,M,M,M,M,M,M,M,M,M,M,KBAM 292315Z AUTO 24013G22KT 10SM CLR A3004 RMK AO1,M
HTH,2022-06-29 23:15,-118.6315,38.5448,1282.89,93.20,26.60,9.21,330.00,13.00,0.00,29.99,M,10.00,M,CLR,M,M,M,M,M,M,M,M,M,M,M,M,M,M,87.72,KHTH 292315Z AUTO 33013KT 10SM CLR 34/M03 A2999 RMK A01,M
TMT,2022-06-29 23:15,-117.1971,39.4643,1749.34,90.70,32.00,12.41,270.00,12.00,0.00,30.12,M,10.00,23.00,CLR,M,M,M,M,M,M,M,M,M,M,M,M,M,M,86.38,KTMT 292315Z AUTO 27012G23KT 10SM CLR 33/00 A3012 RMK AO2 T03260000,M
LSV,2022-06-29 23:21,-115.0343,36.2362,570.00,109.40,33.80,7.58,210.00,17.00,0.00,29.80,M,10.00,23.00,CLR,M,M,M,M,M,M,M,M,M,M,M,M,M,M,102.24,KLSV 292321Z AUTO 21017G23KT 10SM CLR 43/01 A2980 RMK AO2 WSHFT 15 SLPNO $,M
BVU,2022-06-29 23:35,-114.8611,35.9475,671.00,105.80,33.80,8.42,240.00,19.00,0.00,29.84,M,10.00,27.00,CLR,M,M,M,M,M,M,M,M,M,M,M,M,M,M,99.10,KBVU 292335Z AUTO 24019G27KT 10SM CLR 41/01 A2984 RMK AO2,M
RTS,2022-06-29 23:35,-119.8764,39.6682,1539.00,84.20,26.60,12.23,240.00,14.00,0.00,30.15,M,10.00,27.00,CLR,M,M,M,M,M,M,M,M,M,M,M,M,M,M,81.13,KRTS 292335Z AUTO 24014G27KT 10SM CLR 29/M03 A3015 RMK AO2,M
05U,2022-06-29 23:35,-116.0051,39.6042,1811.23,89.60,26.60,10.30,250.00,10.00,0.00,30.11,M,10.00,17.00,CLR,M,M,M,M,M,M,M,M,M,M,M,M,M,M,85.02,K05U 292335Z AUTO 25010G17KT 10SM CLR 32/M03 A3011 RMK A01,M
MEV,2022-06-29 23:35,-119.7500,38.9963,1441.42,89.60,28.40,11.09,230.00,15.00,0.00,30.10,M,10.00,20.00,CLR,M,M,M,M,M,M,M,M,M,M,M,M,M,M,85.17,KMEV 292335Z AUTO 23015G20KT 10SM CLR 32/M02 A3010 RMK AO2,M
BAM,2022-06-29 23:35,-116.8743,40.5990,1382.36,M,M,M,260.00,10.00,0.00,30.04,M,10.00,25.00,CLR,M,M,M,M,M,M,M,M,M,M,M,M,M,M,M,KBAM 292335Z AUTO 26010G25KT 10SM CLR A3004 RMK AO1,M
HTH,2022-06-29 23:35,-118.6315,38.5448,1282.89,93.20,26.60,9.21,340.00,14.00,0.00,29.99,M,10.00,M,CLR,M,M,M,M,M,M,M,M,M,M,M,M,M,M,87.72,KHTH 292335Z AUTO 34014KT 10SM CLR 34/M03 A2999 RMK A01,M
TMT,2022-06-29 23:35,-117.1971,39.4643,1749.34,90.00,32.00,12.68,270.00,17.00,0.00,30.11,M,10.00,21.00,CLR,M,M,M,M,M,M,M,M,M,M,M,M,M,M,85.84,KTMT 292335Z AUTO 27017G21KT 10SM CLR 32/00 A3011 RMK AO2 T03220000,M
EKO,2022-06-29 23:36,-115.7860,40.8242,1367.00,91.00,28.90,10.84,310.00,11.00,0.00,30.05,M,10.00,21.00,CLR,M,M,M,M,M,M,M,M,M,M,M,M,M,M,86.27,KEKO 292336Z AUTO 31011G21KT 10SM CLR 33/M02 A3005 RMK AO2 WSHFT 2316 T03281017,M
P68,2022-06-29 23:53,-116.0056,39.6014,1993.00,90.00,27.00,10.34,250.00,14.00,0.00,30.08,1008.20,M,22.00,M,M,M,M,M,M,M,M,M,M,M,M,M,M,M,85.35,KP68 292353Z AUTO 25014G22KT 32/M03 A3008 RMK AO1 SLP082 6//// T03221028 10333 20183 56017,M
DRA,2022-06-29 23:53,-116.0278,36.6206,1009.00,102.00,28.90,7.74,210.00,23.00,0.00,29.91,1006.40,10.00,39.00,CLR,M,M,M,M,M,M,M,M,M,M,M,39.00,220.00,2022-06-29 23:46,95.17,KDRA 292353Z AUTO 21023G39KT 10SM CLR 39/M02 A2991 RMK AO2 PK WND 22039/2346 SLP064 T03891017 10394 20372 56022,M
ELY,2022-06-29 23:53,-114.8453,39.2950,1909.00,90.00,26.10,9.96,210.00,20.00,0.00,30.11,1008.30,10.00,30.00,CLR,M,M,M,M,M,M,M,M,M,M,M,36.00,220.00,2022-06-29 23:00,85.27,KELY 292353Z AUTO 21020G30KT 10SM CLR 32/M03 A3011 RMK AO2 PK WND 22036/2300 SLP083 T03221033 10328 20283 56017,M
VGT,2022-06-29 23:53,-115.1933,36.2111,667.00,108.00,39.00,9.70,220.00,13.00,0.00,29.82,1008.00,10.00,23.00,CLR,M,M,M,M,M,M,M,M,M,M,M,M,M,M,102.04,KVGT 292353Z 22013G23KT 10SM CLR 42/04 A2982 RMK AO2 SLP080 T04220039 10428 20400 58020,M
LOL,2022-06-29 23:53,-118.5701,40.0684,1192.43,95.00,26.10,8.53,M,M,0.00,29.98,1011.20,10.00,M,CLR,M,M,M,M,M,M,M,M,M,M,M,M,M,M,89.03,KLOL 292353Z AUTO 10SM CLR 35/M03 A2998 RMK AO2 WSHFT 2240 SLP112 T03501033 10361 20300 56019,M
BVU,2022-06-29 23:55,-114.8611,35.9475,671.00,105.80,33.80,8.42,250.00,19.00,0.00,29.84,M,10.00,26.00,CLR,M,M,M,M,M,M,M,M,M,M,M,M,M,M,99.10,KBVU 292355Z AUTO 25019G26KT 10SM CLR 41/01 A2984 RMK AO2,M
RNO,2022-06-29 23:55,-119.7711,39.4839,1341.00,91.00,30.90,11.76,210.00,12.00,0.00,30.07,1012.30,10.00,22.00,FEW,M,M,M,12000.00,M,M,M,M,M,M,M,M,M,M,86.48,KRNO 292355Z 21012G22KT 10SM FEW120 33/M01 A3007 RMK AO2 SLP123 T03281006 10333 20294 56009,M
RTS,2022-06-29 23:55,-119.8764,39.6682,1539.00,84.20,26.60,12.23,260.00,11.00,0.00,30.14,M,10.00,19.00,CLR,M,M,M,M,M,M,M,M,M,M,M,M,M,M,81.13,KRTS 292355Z AUTO 26011G19KT 10SM CLR 29/M03 A3014 RMK AO2,M
05U,2022-06-29 23:55,-116.0051,39.6042,1811.23,91.40,26.60,9.74,240.00,12.00,0.00,30.10,M,10.00,20.00,CLR,M,M,M,M,M,M,M,M,M,M,M,M,M,M,86.36,K05U 292355Z AUTO 24012G20KT 10SM CLR 33/M03 A3010 RMK A01,M
MEV,2022-06-29 23:55,-119.7500,38.9963,1441.42,87.80,30.20,12.64,230.00,13.00,0.00,30.10,M,10.00,27.00,CLR,M,M,M,M,M,M,M,M,M,M,M,M,M,M,84.01,KMEV 292355Z AUTO 23013G27KT 10SM CLR 31/M01 A3010 RMK AO2,M
BAM,2022-06-29 23:55,-116.8743,40.5990,1382.36,M,M,M,250.00,17.00,0.00,30.04,M,10.00,23.00,CLR,M,M,M,M,M,M,M,M,M,M,M,M,M,M,M,KBAM 292355Z AUTO 25017G23KT 10SM CLR A3004 RMK AO1,M
HTH,2022-06-29 23:55,-118.6315,38.5448,1282.89,93.20,28.40,9.91,350.00,17.00,0.00,29.98,M,10.00,M,CLR,M,M,M,M,M,M,M,M,M,M,M,M,M,M,87.89,KHTH 292355Z AUTO 35017KT 10SM CLR 34/M02 A2998 RMK A01,M
TMT,2022-06-29 23:55,-117.1971,39.4643,1749.34,M,M,M,280.00,10.00,0.00,30.11,M,10.00,17.00,CLR,M,M,M,M,M,M,M,M,M,M,M,M,M,M,M,KTMT 292355Z AUTO 28010G17KT 10SM CLR A3011 RMK AO2,M
EKO,2022-06-29 23:56,-115.7860,40.8242,1367.00,90.00,28.90,11.18,250.00,8.00,0.00,30.05,1011.20,10.00,20.00,CLR,M,M,M,M,M,M,M,M,M,M,M,M,M,M,85.52,KEKO 292356Z AUTO 25008G20KT 210V280 10SM CLR 32/M02 A3005 RMK AO2 WSHFT 2316 SLP112 T03221017 10333 20289 56022,M
WMC,2022-06-29 23:56,-117.8072,40.9019,1315.00,93.00,26.10,9.07,290.00,15.00,0.00,30.02,1011.40,10.00,22.00,CLR,M,M,M,M,M,M,M,M,M,M,M,M,M,M,87.52,KWMC 292356Z AUTO 29015G22KT 10SM CLR 34/M03 A3002 RMK AO2 SLP114 T03391033 10344 20294 58016,M
NFL,2022-06-29 23:56,-118.7010,39.4166,1199.00,95.00,28.90,9.57,300.00,18.00,0.00,29.98,1012.50,10.00,22.00,FEW,M,M,M,9000.00,M,M,M,M,M,M,M,26.00,270.00,2022-06-29 23:41,89.32,KNFL 292356Z 30018G22KT 10SM FEW090 35/M02 A2998 RMK AO2 PK WND 27026/2341 SLP125 BLDU DSNT NE-E T03501017 10361 20300 56018,M
LAS,2022-06-29 23:56,-115.1634,36.0719,663.00,105.00,36.00,9.39,220.00,15.00,0.00,29.84,1007.10,10.00,24.00,FEW,FEW,M,M,13000.00,28000.00,M,M,M,M,M,M,26.00,200.00,2022-06-29 23:33,98.88,KLAS 292356Z 22015G24KT 10SM FEW130 FEW280 41/02 A2984 RMK AO2 PK WND 20026/2333 SLP071 CB DSNT E-SE T04060022 10417 20383 58018,M
HND,2022-06-29 23:56,-115.1344,35.9729,742.79,104.00,40.00,11.30,250.00,14.00,0.00,29.89,1010.00,10.00,22.00,CLR,M,M,M,M,M,M,M,M,M,M,M,M,M,M,98.71,KHND 292356Z 25014G22KT 10SM CLR 40/04 A2989 RMK AO2 SLP100 T04000044 10411 20389 58016,M
INS,2022-06-29 23:58,-115.6733,36.5872,955.00,101.30,25.90,6.98,240.00,12.00,0.00,29.89,1006.20,10.00,18.00,CLR,M,M,M,M,M,M,M,M,M,M,M,31.00,200.00,2022-06-29 23:09,94.26,KINS 292358Z AUTO 24012G18KT 10SM CLR 39/M03 A2989 RMK AO2 PK WND 20031/09 SLP062 T03851034 10392 20362 57016 $,M
