station,valid,lon,lat,elevation,tmpf,dwpf,relh,drct,sknt,p01i,alti,mslp,vsby,gust,skyc1,skyc2,skyc3,skyc4,skyl1,skyl2,skyl3,skyl4,wxcodes,ice_accretion_1hr,ice_accretion_3hr,ice_accretion_6hr,peak_wind_gust,peak_wind_drct,peak_wind_time,feel,metar,snowdepth
ELY,2023-07-31 00:05,-114.8453,39.2950,1909.00,86.00,37.00,17.57,180.00,13.00,0.00,30.19,M,10.00,22.00,CLR,M,M,M,M,M,M,M,VCTS,M,M,M,M,M,M,82.72,KELY 310005Z AUTO 18013G22KT 10SM VCTS CLR 30/03 A3019 RMK AO2 LTG DSNT SE T03000028,M
BVU,2023-07-31 00:15,-114.8611,35.9475,671.00,100.40,51.80,19.76,150.00,14.00,0.00,29.89,M,10.00,19.00,CLR,M,M,M,M,M,M,M,M,M,M,M,M,M,M,97.90,KBVU 310015Z AUTO 15014G19KT 10SM CLR 38/11 A2989 RMK AO2,M
CXP,2023-07-31 00:15,-119.7326,39.1923,1431.00,87.80,30.20,12.64,260.00,11.00,0.00,30.15,M,10.00,19.00,CLR,M,M,M,M,M,M,M,M,M,M,M,M,M,M,84.01,KCXP 310015Z AUTO 26011G19KT 10SM CLR 31/M01 A3015 RMK AO2,M
RTS,2023-07-31 00:15,-119.8764,39.6682,1539.00,87.80,21.20,8.70,200.00,17.00,0.00,30.17,M,10.00,M,CLR,M,M,M,M,M,M,M,M,M,M,M,M,M,M,83.33,KRTS 310015Z AUTO 20017KT 10SM CLR 31/M06 A3017 RMK AO2,M
05U,2023-07-31 00:15,-116.0051,39.6042,1811.23,93.20,33.80,12.34,M,M,0.00,30.16,M,10.00,M,M,M,M,M,M,M,M,M,M,M,M,M,M,M,M,88.55,K05U 310015Z AUTO 10SM 34/01 A3016 RMK A01,M
MEV,2023-07-31 00:15,-119.7500,38.9963,1441.42,89.60,26.60,10.30,240.00,11.00,0.00,30.14,M,10.00,18.00,CLR,M,M,M,M,M,M,M,M,M,M,M,M,M,M,85.02,KMEV 310015Z AUTO 24011G18KT 10SM CLR 32/M03 A3014 RMK AO2,M
HTH,2023-07-31 00:15,-118.6315,38.5448,1282.89,95.00,23.00,7.49,320.00,9.00,0.00,30.05,M,10.00,14.00,CLR,M,M,M,M,M,M,M,M,M,M,M,M,M,M,88.76,KHTH 310015Z AUTO 32009G14KT 10SM CLR 35/M05 A3005 RMK A01,M
TMT,2023-07-31 00:15,-117.1971,39.4643,1749.34,88.00,36.30,16.04,300.00,9.00,0.00,30.16,M,M,M,CLR,M,M,M,M,M,M,M,M,M,M,M,M,M,M,84.30,KTMT 310015Z AUTO 30009KT CLR 31/02 A3016 RMK AO2 T03120024 PWINO,M
10U,2023-07-31 00:15,-116.1876,41.9532,1637.00,91.40,17.60,6.66,M,4.00,0.00,30.15,M,10.00,16.00,CLR,M,M,M,M,M,M,M,M,M,M,M,M,M,M,85.76,K10U 310015Z AUTO VRB04G16KT 10SM CLR 33/M08 A3015 RMK AO2,M
BAM,2023-07-31 00:15,-116.8743,40.5990,1382.36,96.80,30.20,9.55,250.00,3.00,0.00,30.06,M,10.00,14.00,CLR,M,M,M,M,M,M,M,M,M,M,M,M,M,M,90.96,KBAM 310015Z AUTO 25003G14KT 10SM CLR 36/M01 A3006 RMK AO1,M
ELY,2023-07-31 00:20,-114.8453,39.2950,1909.00,87.00,37.00,17.02,160.00,12.00,0.00,30.19,M,10.00,M,CLR,M,M,M,M,M,M,M,M,M,M,M,M,M,M,83.51,KELY 310020Z AUTO 16012KT 10SM CLR 31/03 A3019 RMK AO2 LTG DSNT NE T03060028,M
05U,2023-07-31 00:30,-116.0051,39.6042,1811.23,93.20,33.80,12.34,M,M,0.00,30.16,M,10.00,M,M,M,M,M,M,M,M,M,M,M,M,M,M,M,M,88.55,K05U 310030Z AUTO 10SM 34/01 A3016 RMK A01,M
BVU,2023-07-31 00:35,-114.8611,35.9475,671.00,100.40,51.80,19.76,140.00,13.00,0.00,29.89,M,10.00,M,CLR,M,M,M,M,M,M,M,M,M,M,M,M,M,M,97.90,KBVU 310035Z AUTO 14013KT 10SM CLR 38/11 A2989 RMK AO2,M
CXP,2023-07-31 00:35,-119.7326,39.1923,1431.00,87.80,30.20,12.64,250.00,12.00,0.00,30.15,M,10.00,19.00,CLR,M,M,M,M,M,M,M,M,M,M,M,M,M,M,84.01,KCXP 310035Z AUTO 25012G19KT 220V280 10SM CLR 31/M01 A3015 RMK AO2,M
RTS,2023-07-31 00:35,-119.8764,39.6682,1539.00,86.00,24.80,10.72,250.00,13.00,0.00,30.17,M,10.00,19.00,CLR,M,M,M,M,M,M,M,M,M,M,M,M,M,M,82.26,KRTS 310035Z AUTO 25013G19KT 10SM CLR 30/M04 A3017 RMK AO2,M
MEV,2023-07-31 00:35,-119.7500,38.9963,1441.42,87.80,28.40,11.74,230.00,14.00,0.00,30.14,M,10.00,20.00,CLR,M,M,M,M,M,M,M,M,M,M,M,M,M,M,83.84,KMEV 310035Z AUTO 23014G20KT 10SM CLR 31/M02 A3014 RMK AO2,M
HTH,2023-07-31 00:35,-118.6315,38.5448,1282.89,95.00,23.00,7.49,320.00,9.00,0.00,30.05,M,10.00,14.00,CLR,M,M,M,M,M,M,M,M,M,M,M,M,M,M,88.76,KHTH 310035Z AUTO 32009G14KT 10SM CLR 35/M05 A3005 RMK A01,M
TMT,2023-07-31 00:35,-117.1971,39.4643,1749.34,90.00,35.00,14.30,330.00,8.00,0.00,30.16,M,M,M,CLR,M,M,M,M,M,M,M,M,M,M,M,M,M,M,85.95,KTMT 310035Z AUTO 33008KT CLR 32/02 A3016 RMK AO2 T03230017 PWINO,M
10U,2023-07-31 00:35,-116.1876,41.9532,1637.00,89.60,17.60,7.05,M,4.00,0.00,30.14,M,10.00,11.00,CLR,M,M,M,M,M,M,M,M,M,M,M,M,M,M,84.45,K10U 310035Z AUTO VRB04G11KT 10SM CLR 32/M08 A3014 RMK AO2,M
BAM,2023-07-31 00:35,-116.8743,40.5990,1382.36,96.80,32.00,10.27,340.00,6.00,0.00,30.06,M,10.00,M,CLR,M,M,M,M,M,M,M,M,M,M,M,M,M,M,91.19,KBAM 310035Z AUTO 34006KT 10SM CLR 36/00 A3006 RMK AO1,M
05U,2023-07-31 00:50,-116.0051,39.6042,1811.23,89.60,32.00,12.84,M,M,0.00,30.16,M,10.00,M,M,M,M,M,M,M,M,M,M,M,M,M,M,M,M,85.54,K05U 310050Z AUTO 10SM 32/00 A3016 RMK A01,M
P68,2023-07-31 00:53,-116.0056,39.6014,1993.00,89.00,32.00,13.09,230.00,8.00,0.00,30.13,1011.80,M,M,M,M,M,M,M,M,M,M,M,M,M,M,M,M,M,85.07,KP68 310053Z AUTO 23008KT 32/00 A3013 RMK AO1 SLP118 T03170000,M
DRA,2023-07-31 00:53,-116.0278,36.6206,1009.00,99.00,40.00,13.18,180.00,14.00,0.00,29.96,1008.40,10.00,20.00,CLR,M,M,M,M,M,M,M,M,M,M,M,M,M,M,94.36,KDRA 310053Z AUTO 18014G20KT 10SM CLR 37/04 A2996 RMK AO2 SLP084 T03720044,M
ELY,2023-07-31 00:53,-114.8453,39.2950,1909.00,85.00,42.00,22.05,170.00,27.00,0.00,30.19,1012.20,10.00,39.00,CLR,M,M,M,M,M,M,M,M,M,M,M,39.00,160.00,2023-07-31 00:52,82.15,KELY 310053Z AUTO 17027G39KT 10SM CLR 29/06 A3019 RMK AO2 PK WND 16039/0052 LTG DSNT NE AND E SLP122 T02940056,M
VGT,2023-07-31 00:53,-115.1933,36.2111,667.00,102.00,54.00,20.42,100.00,10.00,0.00,29.87,1010.00,10.00,M,CLR,M,M,M,M,M,M,M,M,M,M,M,M,M,M,100.30,KVGT 310053Z 10010KT 10SM CLR 39/12 A2987 RMK AO2 SLP100 T03890122,M
LOL,2023-07-31 00:53,-118.5701,40.0684,1192.43,94.00,27.00,9.13,110.00,9.00,0.00,30.01,1012.40,10.00,M,CLR,M,M,M,M,M,M,M,M,M,M,M,M,M,M,88.36,KLOL 310053Z AUTO 11009KT 10SM CLR 34/M03 A3001 RMK AO2 SLP124 T03441028,M
BVU,2023-07-31 00:55,-114.8611,35.9475,671.00,98.60,51.80,20.87,130.00,15.00,0.00,29.89,M,10.00,M,CLR,M,M,M,M,M,M,M,M,M,M,M,M,M,M,96.00,KBVU 310055Z AUTO 13015KT 10SM CLR 37/11 A2989 RMK AO2,M
CXP,2023-07-31 00:55,-119.7326,39.1923,1431.00,87.80,30.20,12.64,270.00,12.00,0.00,30.15,M,10.00,22.00,CLR,M,M,M,M,M,M,M,M,M,M,M,M,M,M,84.01,KCXP 310055Z AUTO 27012G22KT 10SM CLR 31/M01 A3015 RMK AO2,M
INS,2023-07-31 00:55,-115.6733,36.5872,955.00,98.00,45.70,16.91,90.00,14.00,0.00,29.94,1008.30,10.00,M,CLR,M,M,M,M,M,M,M,M,M,M,M,M,M,M,94.13,KINS 310055Z AUTO 09014KT 10SM CLR 37/08 A2994 RMK AO2 SLP083 T03670076 $,M
RNO,2023-07-31 00:55,-119.7711,39.4839,1341.00,92.00,28.00,10.12,240.00,11.00,0.00,30.10,1013.20,10.00,M,FEW,SCT,BKN,M,14000.00,18000.00,22000.00,M,M,M,M,M,M,M,M,86.94,KRNO 310055Z 24011KT 10SM FEW140 SCT180 BKN220 33/M02 A3010 RMK AO2 SLP132 ACSL DSNT E THRU SE T03331022,M
LSV,2023-07-31 00:55,-115.0343,36.2362,570.00,99.70,54.00,21.88,100.00,18.00,0.00,29.93,M,10.00,M,CLR,M,M,M,M,M,M,M,M,M,M,M,M,M,M,97.82,KLSV 310055Z 10018KT 10SM CLR 38/12 A2993 RMK AO2A SLPNO T03760122 $,M
RTS,2023-07-31 00:55,-119.8764,39.6682,1539.00,86.00,23.00,9.94,240.00,14.00,0.00,30.17,M,10.00,21.00,CLR,M,M,M,M,M,M,M,M,M,M,M,M,M,M,82.14,KRTS 310055Z AUTO 24014G21KT 10SM CLR 30/M05 A3017 RMK AO2,M
MEV,2023-07-31 00:55,-119.7500,38.9963,1441.42,87.80,26.60,10.91,220.00,15.00,0.00,30.14,M,10.00,M,CLR,M,M,M,M,M,M,M,M,M,M,M,M,M,M,83.69,KMEV 310055Z AUTO 22015KT 10SM CLR 31/M03 A3014 RMK AO2,M
HTH,2023-07-31 00:55,-118.6315,38.5448,1282.89,95.00,24.80,8.08,340.00,10.00,0.00,30.04,M,10.00,M,CLR,M,M,M,M,M,M,M,M,M,M,M,M,M,M,88.91,KHTH 310055Z AUTO 34010KT 10SM CLR 35/M04 A3004 RMK A01,M
TMT,2023-07-31 00:55,-117.1971,39.4643,1749.34,88.70,34.00,14.32,280.00,8.00,0.00,30.16,M,M,16.00,CLR,M,M,M,M,M,M,M,M,M,M,M,M,M,M,84.84,KTMT 310055Z AUTO 28008G16KT CLR 32/01 A3016 RMK AO2 LTG DSNT SE T03150012 PWINO,M
10U,2023-07-31 00:55,-116.1876,41.9532,1637.00,91.40,15.80,6.16,260.00,8.00,0.00,30.14,M,10.00,M,CLR,M,M,M,M,M,M,M,M,M,M,M,M,M,M,85.68,K10U 310055Z AUTO 26008KT 10SM CLR 33/M09 A3014 RMK AO2,M
BAM,2023-07-31 00:55,-116.8743,40.5990,1382.36,95.00,30.20,10.09,350.00,10.00,0.00,30.05,M,10.00,15.00,CLR,M,M,M,M,M,M,M,M,M,M,M,M,M,M,89.48,KBAM 310055Z AUTO 35010G15KT 10SM CLR 35/M01 A3005 RMK AO1,M
EKO,2023-07-31 00:56,-115.7860,40.8242,1367.00,92.00,32.00,11.91,210.00,4.00,0.00,30.09,1012.50,10.00,M,CLR,M,M,M,M,M,M,M,M,M,M,M,M,M,M,87.38,KEKO 310056Z AUTO 21004KT 10SM CLR 33/00 A3009 RMK AO2 SLP125 T03330000,M
WMC,2023-07-31 00:56,-117.8072,40.9019,1315.00,96.00,19.00,6.13,220.00,13.00,0.00,30.04,1012.00,10.00,18.00,FEW,M,M,M,11000.00,M,M,M,M,M,M,M,M,M,M,89.30,KWMC 310056Z AUTO 22013G18KT 10SM FEW110 36/M07 A3004 RMK AO2 SLP120 T03561072,M
NFL,2023-07-31 00:56,-118.7010,39.4166,1199.00,96.00,30.00,9.71,350.00,9.00,0.00,30.03,1013.80,10.00,15.00,CLR,M,M,M,M,M,M,M,M,M,M,M,M,M,M,90.27,KNFL 310056Z AUTO 35009G15KT 10SM CLR 36/M01 A3003 RMK AO2 SLP138 T03561011 $,M
HND,2023-07-31 00:56,-115.1344,35.9729,742.79,103.00,49.00,16.47,180.00,8.00,0.00,29.92,1011.20,10.00,M,CLR,M,M,M,M,M,M,M,M,M,M,M,M,M,M,99.84,KHND 310056Z 18008KT 10SM CLR 39/09 A2992 RMK AO2 SLP112 T03940094,M
TPH,2023-07-31 00:56,-117.0904,38.0505,1654.00,93.00,50.00,23.18,220.00,12.00,0.00,30.10,1010.10,10.00,17.00,CLR,M,M,M,M,M,M,M,M,M,M,M,M,M,M,89.90,KTPH 310056Z AUTO 22012G17KT 10SM CLR 34/10 A3010 RMK AO2 SLP101 T03390100,M
LAS,2023-07-31 00:56,-115.1634,36.0719,663.00,104.00,43.00,12.74,230.00,3.00,0.00,29.87,1008.10,10.00,M,FEW,SCT,BKN,BKN,10000.00,14000.00,20000.00,25000.00,M,M,M,M,M,M,M,99.47,KLAS 310056Z 23003KT 10SM FEW100 SCT140 BKN200 BKN250 40/06 A2987 RMK AO2 SLP081 T04000061,M
TPH,2023-07-31 01:14,-117.0904,38.0505,1654.00,92.00,48.00,22.19,260.00,10.00,0.00,30.10,M,10.00,M,CLR,M,M,M,M,M,M,M,M,M,M,M,M,M,M,88.63,KTPH 310114Z AUTO 26010KT 10SM CLR 33/09 A3010 RMK AO2 WSHFT 0054 T03330089,M
BVU,2023-07-31 01:15,-114.8611,35.9475,671.00,100.40,51.80,19.76,130.00,11.00,0.00,29.89,M,10.00,M,CLR,M,M,M,M,M,M,M,M,M,M,M,M,M,M,97.90,KBVU 310115Z AUTO 13011KT 10SM CLR 38/11 A2989 RMK AO2,M
CXP,2023-07-31 01:15,-119.7326,39.1923,1431.00,86.00,30.20,13.38,260.00,14.00,0.00,30.14,M,10.00,M,CLR,M,M,M,M,M,M,M,M,M,M,M,M,M,M,82.64,KCXP 310115Z AUTO 26014KT 10SM CLR 30/M01 A3014 RMK AO2,M
RTS,2023-07-31 01:15,-119.8764,39.6682,1539.00,86.00,21.20,9.21,240.00,14.00,0.00,30.17,M,10.00,21.00,CLR,M,M,M,M,M,M,M,M,M,M,M,M,M,M,82.04,KRTS 310115Z AUTO 24014G21KT 10SM CLR 30/M06 A3017 RMK AO2,M
05U,2023-07-31 01:15,-116.0051,39.6042,1811.23,91.40,33.80,13.05,M,M,0.00,30.16,M,10.00,M,M,M,M,M,M,M,M,M,M,M,M,M,M,M,M,87.13,K05U 310115Z AUTO 10SM 33/01 A3016 RMK A01,M
MEV,2023-07-31 01:15,-119.7500,38.9963,1441.42,87.80,30.20,12.64,200.00,13.00,0.00,30.14,M,10.00,M,CLR,M,M,M,M,M,M,M,M,M,M,M,M,M,M,84.01,KMEV 310115Z AUTO 20013KT 10SM CLR 31/M01 A3014 RMK AO2,M
HTH,2023-07-31 01:15,-118.6315,38.5448,1282.89,93.20,24.80,8.54,360.00,11.00,0.00,30.04,M,10.00,16.00,CLR,M,M,M,M,M,M,M,M,M,M,M,M,M,M,87.56,KHTH 310115Z AUTO 36011G16KT 10SM CLR 34/M04 A3004 RMK A01,M
TMT,2023-07-31 01:15,-117.1971,39.4643,1749.34,88.70,33.30,13.92,320.00,8.00,0.00,30.16,M,M,15.00,CLR,M,M,M,M,M,M,M,M,M,M,M,M,M,M,84.83,KTMT 310115Z AUTO 32008G15KT CLR 32/01 A3016 RMK AO2 T03150007 PWINO,M
10U,2023-07-31 01:15,-116.1876,41.9532,1637.00,91.40,17.60,6.66,M,6.00,0.00,30.14,M,10.00,M,CLR,M,M,M,M,M,M,M,M,M,M,M,M,M,M,85.76,K10U 310115Z AUTO VRB06KT 10SM CLR 33/M08 A3014 RMK AO2,M
BAM,2023-07-31 01:15,-116.8743,40.5990,1382.36,95.00,32.00,10.85,350.00,9.00,0.00,30.06,M,10.00,M,CLR,M,M,M,M,M,M,M,M,M,M,M,M,M,M,89.71,KBAM 310115Z AUTO 35009KT 10SM CLR 35/00 A3006 RMK AO1,M
05U,2023-07-31 01:30,-116.0051,39.6042,1811.23,91.40,32.00,12.14,M,M,0.00,30.16,M,10.00,M,M,M,M,M,M,M,M,M,M,M,M,M,M,M,M,86.91,K05U 310130Z AUTO 10SM 33/M00 A3016 RMK A01,M
BVU,2023-07-31 01:35,-114.8611,35.9475,671.00,100.40,50.00,18.48,120.00,13.00,0.00,29.90,M,10.00,M,CLR,M,M,M,M,M,M,M,M,M,M,M,M,M,M,97.42,KBVU 310135Z AUTO 12013KT 10SM CLR 38/10 A2990 RMK AO2,M
CXP,2023-07-31 01:35,-119.7326,39.1923,1431.00,86.00,30.20,13.38,260.00,12.00,0.00,30.15,M,10.00,21.00,CLR,M,M,M,M,M,M,M,M,M,M,M,M,M,M,82.64,KCXP 310135Z AUTO 26012G21KT 10SM CLR 30/M01 A3015 RMK AO2,M
RTS,2023-07-31 01:35,-119.8764,39.6682,1539.00,84.20,23.00,10.53,240.00,14.00,0.00,30.17,M,10.00,23.00,CLR,M,M,M,M,M,M,M,M,M,M,M,M,M,M,80.88,KRTS 310135Z AUTO 24014G23KT 10SM CLR 29/M05 A3017 RMK AO2,M
MEV,2023-07-31 01:35,-119.7500,38.9963,1441.42,86.00,32.00,14.40,220.00,10.00,0.00,30.14,M,10.00,M,CLR,M,M,M,M,M,M,M,M,M,M,M,M,M,M,82.64,KMEV 310135Z AUTO 22010KT 10SM CLR 30/00 A3014 RMK AO2,M
HTH,2023-07-31 01:35,-118.6315,38.5448,1282.89,93.20,24.80,8.54,250.00,7.00,0.00,30.05,M,10.00,13.00,CLR,M,M,M,M,M,M,M,M,M,M,M,M,M,M,87.56,KHTH 310135Z AUTO 25007G13KT 190V280 10SM CLR 34/M04 A3005 RMK A01,M
TMT,2023-07-31 01:35,-117.1971,39.4643,1749.34,87.00,32.00,13.94,360.00,12.00,0.00,30.17,M,M,M,CLR,M,M,M,M,M,M,M,M,M,M,M,M,M,M,83.43,KTMT 310135Z AUTO 36012KT CLR 31/00 A3017 RMK AO2 T03050001 PWINO,M
10U,2023-07-31 01:35,-116.1876,41.9532,1637.00,89.60,17.60,7.05,270.00,7.00,0.00,30.14,M,10.00,13.00,CLR,M,M,M,M,M,M,M,M,M,M,M,M,M,M,84.45,K10U 310135Z AUTO 27007G13KT 240V300 10SM CLR 32/M08 A3014 RMK AO2,M
BAM,2023-07-31 01:35,-116.8743,40.5990,1382.36,95.00,32.00,10.85,360.00,3.00,0.00,30.06,M,10.00,M,CLR,M,M,M,M,M,M,M,M,M,M,M,M,M,M,89.71,KBAM 310135Z AUTO 36003KT 10SM CLR 35/00 A3006 RMK AO1,M
P68,2023-07-31 01:53,-116.0056,39.6014,1993.00,89.00,31.00,12.57,240.00,5.00,0.00,30.14,1011.10,M,M,M,M,M,M,M,M,M,M,M,M,M,M,M,M,M,84.98,KP68 310153Z AUTO 24005KT 32/M01 A3014 RMK AO1 SLP111 T03171006,M
DRA,2023-07-31 01:53,-116.0278,36.6206,1009.00,100.00,39.00,12.30,200.00,9.00,0.00,29.96,1008.40,10.00,M,CLR,M,M,M,M,M,M,M,M,M,M,M,M,M,M,95.05,KDRA 310153Z AUTO 20009KT 10SM CLR 38/04 A2996 RMK AO2 SLP084 T03780039,M
ELY,2023-07-31 01:53,-114.8453,39.2950,1909.00,80.00,45.00,29.08,170.00,18.00,T,30.21,1012.60,10.00,28.00,FEW,SCT,SCT,M,5000.00,7000.00,12000.00,M,-RA,M,M,M,37.00,150.00,2023-07-31 01:14,79.13,KELY 310153Z AUTO 17018G28KT 10SM -RA FEW050 SCT070 SCT120 27/07 A3021 RMK AO2 PK WND 15037/0114 RAB45 SLP126 P0000 T02670072,M
VGT,2023-07-31 01:53,-115.1933,36.2111,667.00,100.00,54.00,21.68,110.00,15.00,0.00,29.88,1010.10,10.00,22.00,CLR,M,M,M,M,M,M,M,M,M,M,M,M,M,M,98.14,KVGT 310153Z 11015G22KT 10SM CLR 38/12 A2988 RMK AO2 SLP101 T03780122,M
LOL,2023-07-31 01:53,-118.5701,40.0684,1192.43,94.00,24.00,8.06,240.00,12.00,0.00,30.02,1012.30,10.00,M,CLR,M,M,M,M,M,M,M,M,M,M,M,M,M,M,88.10,KLOL 310153Z AUTO 24012KT 10SM CLR 34/M04 A3002 RMK AO2 SLP123 T03441044,M
10U,2023-07-31 01:55,-116.1876,41.9532,1637.00,87.80,17.60,7.46,280.00,9.00,0.00,30.14,M,10.00,M,CLR,M,M,M,M,M,M,M,M,M,M,M,M,M,M,83.14,K10U 310155Z AUTO 28009KT 10SM CLR 31/M08 A3014 RMK AO2,M
LSV,2023-07-31 01:55,-115.0343,36.2362,570.00,98.60,51.80,20.87,100.00,17.00,0.00,29.93,M,10.00,M,BKN,M,M,M,19000.00,M,M,M,M,M,M,M,M,M,M,96.00,KLSV 310155Z 10017KT 10SM BKN190 37/11 A2993 RMK AO2A ALSTG ESTMD AO2A SLPNO T03700110 $,M
BVU,2023-07-31 01:55,-114.8611,35.9475,671.00,98.60,50.00,19.52,140.00,11.00,0.00,29.90,M,10.00,M,CLR,M,M,M,M,M,M,M,M,M,M,M,M,M,M,95.56,KBVU 310155Z AUTO 14011KT 10SM CLR 37/10 A2990 RMK AO2,M
CXP,2023-07-31 01:55,-119.7326,39.1923,1431.00,84.20,30.20,14.18,260.00,12.00,0.00,30.15,M,10.00,M,CLR,M,M,M,M,M,M,M,M,M,M,M,M,M,M,81.26,KCXP 310155Z AUTO 26012KT 10SM CLR 29/M01 A3015 RMK AO2,M
INS,2023-07-31 01:55,-115.6733,36.5872,955.00,96.00,48.40,19.91,90.00,13.00,0.00,29.95,1008.60,10.00,M,FEW,M,M,M,22000.00,M,M,M,M,M,M,M,M,M,M,92.59,KINS 310155Z AUTO 09013KT 10SM FEW220 36/09 A2995 RMK AO2 SLP086 T03560091 $,M
RNO,2023-07-31 01:55,-119.7711,39.4839,1341.00,90.00,26.00,9.92,230.00,13.00,0.00,30.10,1013.60,10.00,M,FEW,BKN,BKN,M,14000.00,17000.00,22000.00,M,M,M,M,M,M,M,M,85.26,KRNO 310155Z 23013KT 10SM FEW140 BKN170 BKN220 32/M03 A3010 RMK AO2 SLP136 ACSL DSNT E THRU SE T03221033,M
RTS,2023-07-31 01:55,-119.8764,39.6682,1539.00,84.20,23.00,10.53,240.00,13.00,0.00,30.17,M,10.00,20.00,CLR,M,M,M,M,M,M,M,M,M,M,M,M,M,M,80.88,KRTS 310155Z AUTO 24013G20KT 10SM CLR 29/M05 A3017 RMK AO2,M
05U,2023-07-31 01:55,-116.0051,39.6042,1811.23,89.60,32.00,12.84,M,M,0.00,30.16,M,10.00,M,M,M,M,M,M,M,M,M,M,M,M,M,M,M,M,85.54,K05U 310155Z AUTO 10SM 32/M00 A3016 RMK A01,M
MEV,2023-07-31 01:55,-119.7500,38.9963,1441.42,84.20,32.00,15.25,210.00,8.00,0.00,30.14,M,10.00,15.00,CLR,M,M,M,M,M,M,M,M,M,M,M,M,M,M,81.28,KMEV 310155Z AUTO 21008G15KT 10SM CLR 29/00 A3014 RMK AO2,M
HTH,2023-07-31 01:55,-118.6315,38.5448,1282.89,91.40,24.80,9.04,240.00,10.00,0.00,30.05,M,10.00,16.00,CLR,M,M,M,M,M,M,M,M,M,M,M,M,M,M,86.21,KHTH 310155Z AUTO 24010G16KT 10SM CLR 33/M04 A3005 RMK A01,M
TMT,2023-07-31 01:55,-117.1971,39.4643,1749.34,85.00,32.00,14.86,360.00,11.00,0.00,30.18,M,M,M,CLR,M,M,M,M,M,M,M,M,M,M,M,M,M,M,81.87,KTMT 310155Z AUTO 36011KT CLR 30/00 A3018 RMK AO2 T02950001 PWINO,M
BAM,2023-07-31 01:55,-116.8743,40.5990,1382.36,95.00,32.00,10.85,330.00,8.00,0.00,30.06,M,10.00,M,CLR,M,M,M,M,M,M,M,M,M,M,M,M,M,M,89.71,KBAM 310155Z AUTO 33008KT 10SM CLR 35/00 A3006 RMK AO1,M
EKO,2023-07-31 01:56,-115.7860,40.8242,1367.00,92.00,32.00,11.91,290.00,6.00,0.00,30.09,1012.40,10.00,M,CLR,M,M,M,M,M,M,M,M,M,M,M,M,M,M,87.38,KEKO 310156Z AUTO 29006KT 10SM CLR 33/00 A3009 RMK AO2 SLP124 T03330000,M
WMC,2023-07-31 01:56,-117.8072,40.9019,1315.00,92.00,18.00,6.65,260.00,13.00,0.00,30.04,1012.20,10.00,M,CLR,M,M,M,M,M,M,M,M,M,M,M,M,M,M,86.22,KWMC 310156Z AUTO 26013KT 10SM CLR 33/M08 A3004 RMK AO2 SLP122 T03331078,M
NFL,2023-07-31 01:56,-118.7010,39.4166,1199.00,94.00,30.00,10.32,280.00,15.00,0.00,30.03,1014.00,10.00,M,CLR,M,M,M,M,M,M,M,M,M,M,M,M,M,M,88.68,KNFL 310156Z AUTO 28015KT 10SM CLR 34/M01 A3003 RMK AO2 SLP140 T03441011 $,M
HND,2023-07-31 01:56,-115.1344,35.9729,742.79,99.00,52.00,20.77,160.00,12.00,0.00,29.93,1011.50,10.00,M,CLR,M,M,M,M,M,M,M,M,M,M,M,M,M,M,96.47,KHND 310156Z 16012KT 10SM CLR 37/11 A2993 RMK AO2 SLP115 T03720111,M
TPH,2023-07-31 01:56,-117.0904,38.0505,1654.00,93.00,49.00,22.34,230.00,6.00,0.00,30.11,1009.90,10.00,M,CLR,M,M,M,M,M,M,M,M,M,M,M,M,M,M,89.73,KTPH 310156Z AUTO 23006KT 10SM CLR 34/09 A3011 RMK AO2 WSHFT 0054 SLP099 T03390094,M
LAS,2023-07-31 01:56,-115.1634,36.0719,663.00,100.00,51.00,19.42,160.00,7.00,0.00,29.88,1008.40,10.00,M,SCT,BKN,BKN,M,14000.00,20000.00,25000.00,M,M,M,M,M,M,M,M,97.26,KLAS 310156Z 16007KT 10SM SCT140 BKN200 BKN250 38/11 A2988 RMK AO2 SLP084 T03780106,M
05U,2023-07-31 02:10,-116.0051,39.6042,1811.23,89.60,32.00,12.84,M,M,0.00,30.16,M,10.00,M,M,M,M,M,M,M,M,M,M,M,M,M,M,M,M,85.54,K05U 310210Z AUTO 10SM 32/00 A3016 RMK A01,M
BVU,2023-07-31 02:15,-114.8611,35.9475,671.00,98.60,48.20,18.25,120.00,9.00,0.00,29.89,M,10.00,M,CLR,M,M,M,M,M,M,M,M,M,M,M,M,M,M,95.17,KBVU 310215Z AUTO 12009KT 10SM CLR 37/09 A2989 RMK AO2,M
CXP,2023-07-31 02:15,-119.7326,39.1923,1431.00,82.40,30.20,15.03,280.00,10.00,0.00,30.15,M,10.00,M,CLR,M,M,M,M,M,M,M,M,M,M,M,M,M,M,79.97,KCXP 310215Z AUTO 28010KT 10SM CLR 28/M01 A3015 RMK AO2,M
RTS,2023-07-31 02:15,-119.8764,39.6682,1539.00,82.40,23.00,11.16,250.00,14.00,0.00,30.17,M,10.00,M,CLR,M,M,M,M,M,M,M,M,M,M,M,M,M,M,79.67,KRTS 310215Z AUTO 25014KT 10SM CLR 28/M05 A3017 RMK AO2,M
MEV,2023-07-31 02:15,-119.7500,38.9963,1441.42,82.40,32.00,16.17,240.00,9.00,0.00,30.14,M,10.00,M,CLR,M,M,M,M,M,M,M,M,M,M,M,M,M,M,80.00,KMEV 310215Z AUTO 24009KT 10SM CLR 28/M00 A3014 RMK AO2,M
HTH,2023-07-31 02:15,-118.6315,38.5448,1282.89,91.40,26.60,9.74,250.00,5.00,0.00,30.06,M,10.00,12.00,CLR,M,M,M,M,M,M,M,M,M,M,M,M,M,M,86.36,KHTH 310215Z AUTO 25005G12KT 10SM CLR 33/M03 A3006 RMK A01,M
TMT,2023-07-31 02:15,-117.1971,39.4643,1749.34,82.00,31.30,15.92,340.00,7.00,0.00,30.18,M,M,M,CLR,M,M,M,M,M,M,M,M,M,M,M,M,M,M,79.71,KTMT 310215Z AUTO 34007KT CLR 28/00 A3018 RMK AO2 T02781004 PWINO,M
10U,2023-07-31 02:15,-116.1876,41.9532,1637.00,87.80,14.00,6.38,280.00,9.00,0.00,30.14,M,10.00,M,CLR,M,M,M,M,M,M,M,M,M,M,M,M,M,M,83.00,K10U 310215Z AUTO 28009KT 10SM CLR 31/M10 A3014 RMK AO2,M
BAM,2023-07-31 02:15,-116.8743,40.5990,1382.36,91.40,32.00,12.14,340.00,9.00,0.00,30.07,M,10.00,M,CLR,M,M,M,M,M,M,M,M,M,M,M,M,M,M,86.91,KBAM 310215Z AUTO 34009KT 10SM CLR 33/00 A3007 RMK AO1,M
BVU,2023-07-31 02:35,-114.8611,35.9475,671.00,98.60,48.20,18.25,130.00,6.00,0.00,29.89,M,10.00,M,CLR,M,M,M,M,M,M,M,M,M,M,M,M,M,M,95.17,KBVU 310235Z AUTO 13006KT 10SM CLR 37/09 A2989 RMK AO2,M
CXP,2023-07-31 02:35,-119.7326,39.1923,1431.00,82.40,32.00,16.17,280.00,10.00,0.00,30.16,M,10.00,M,CLR,M,M,M,M,M,M,M,M,M,M,M,M,M,M,80.00,KCXP 310235Z AUTO 28010KT 10SM CLR 28/M00 A3016 RMK AO2,M
RTS,2023-07-31 02:35,-119.8764,39.6682,1539.00,82.40,23.00,11.16,260.00,12.00,0.00,30.18,M,10.00,M,CLR,M,M,M,M,M,M,M,M,M,M,M,M,M,M,79.67,KRTS 310235Z AUTO 26012KT 10SM CLR 28/M05 A3018 RMK AO2,M
05U,2023-07-31 02:35,-116.0051,39.6042,1811.23,87.80,32.00,13.59,M,M,0.00,30.17,M,10.00,M,M,M,M,M,M,M,M,M,M,M,M,M,M,M,M,84.08,K05U 310235Z AUTO 10SM 31/M00 A3017 RMK A01,M
MEV,2023-07-31 02:35,-119.7500,38.9963,1441.42,78.80,35.60,21.00,240.00,6.00,0.00,30.15,M,10.00,M,CLR,M,M,M,M,M,M,M,M,M,M,M,M,M,M,78.80,KMEV 310235Z AUTO 24006KT 10SM CLR 26/02 A3015 RMK AO2,M
HTH,2023-07-31 02:35,-118.6315,38.5448,1282.89,89.60,28.40,11.09,0.00,0.00,0.00,30.06,M,10.00,M,CLR,M,M,M,M,M,M,M,M,M,M,M,M,M,M,85.17,KHTH 310235Z AUTO 00000KT 10SM CLR 32/M02 A3006 RMK A01,M
10U,2023-07-31 02:35,-116.1876,41.9532,1637.00,86.00,14.00,6.75,300.00,7.00,0.00,30.14,M,10.00,M,CLR,M,M,M,M,M,M,M,M,M,M,M,M,M,M,81.71,K10U 310235Z AUTO 30007KT 10SM CLR 30/M10 A3014 RMK AO2,M
BAM,2023-07-31 02:35,-116.8743,40.5990,1382.36,89.60,32.00,12.84,330.00,10.00,0.00,30.07,M,10.00,M,CLR,M,M,M,M,M,M,M,M,M,M,M,M,M,M,85.54,KBAM 310235Z AUTO 33010KT 10SM CLR 32/00 A3007 RMK AO1,M
TMT,2023-07-31 02:35,-117.1971,39.4643,1749.34,80.20,32.00,17.37,330.00,7.00,0.00,30.19,M,M,M,CLR,M,M,M,M,M,M,M,M,M,M,M,M,M,M,78.74,KTMT 310235Z AUTO 33007KT CLR 27/00 A3019 RMK AO2 T02681001 PWINO,M
P68,2023-07-31 02:53,-116.0056,39.6014,1993.00,83.00,37.00,19.35,10.00,7.00,0.00,30.15,1011.10,M,M,M,M,M,M,M,M,M,M,M,M,M,M,M,M,M,80.53,KP68 310253Z AUTO 01007KT 28/03 A3015 RMK AO1 SLP111 T02830028 53004,M
DRA,2023-07-31 02:53,-116.0278,36.6206,1009.00,96.00,39.00,13.90,170.00,7.00,0.00,29.96,1008.60,10.00,M,CLR,M,M,M,M,M,M,M,M,M,M,M,M,M,M,91.48,KDRA 310253Z AUTO 17007KT 10SM CLR 36/04 A2996 RMK AO2 SLP086 T03560039 55000,M
ELY,2023-07-31 02:53,-114.8453,39.2950,1909.00,77.00,45.00,32.10,180.00,11.00,T,30.23,1012.20,10.00,20.00,CLR,M,M,M,M,M,M,M,M,M,M,M,32.00,150.00,2023-07-31 02:12,77.00,KELY 310253Z AUTO 18011G20KT 10SM CLR 25/07 A3023 RMK AO2 PK WND 15032/0212 RAE0154 SLP122 P0000 60000 T02500072 53009,M
VGT,2023-07-31 02:53,-115.1933,36.2111,667.00,99.00,53.00,21.54,70.00,8.00,0.00,29.89,1010.30,10.00,M,CLR,M,M,M,M,M,M,M,M,M,M,M,M,M,M,96.76,KVGT 310253Z 07008KT 10SM CLR 37/12 A2989 RMK AO2 SLP103 T03720117 53003,M
LOL,2023-07-31 02:53,-118.5701,40.0684,1192.43,90.00,24.00,9.13,270.00,14.00,0.00,30.03,1012.40,10.00,M,CLR,M,M,M,M,M,M,M,M,M,M,M,M,M,M,85.11,KLOL 310253Z AUTO 27014KT 10SM CLR 32/M04 A3003 RMK AO2 SLP124 T03221044 55002,M
10U,2023-07-31 02:55,-116.1876,41.9532,1637.00,84.20,14.00,7.16,290.00,6.00,0.00,30.15,M,10.00,M,CLR,M,M,M,M,M,M,M,M,M,M,M,M,M,M,80.44,K10U 310255Z AUTO 29006KT 10SM CLR 29/M10 A3015 RMK AO2,M
LSV,2023-07-31 02:55,-115.0343,36.2362,570.00,97.30,52.00,21.87,90.00,8.00,0.00,29.83,M,10.00,M,BKN,M,M,M,19000.00,M,M,M,M,M,M,M,M,M,M,94.69,KLSV 310255Z 09008KT 10SM BKN190 36/11 A2983 RMK AO2A ALSTG ESTMD AO2A SLPNO T03630111 $,M
BVU,2023-07-31 02:55,-114.8611,35.9475,671.00,96.80,48.20,19.28,120.00,4.00,0.00,29.89,M,10.00,M,FEW,M,M,M,5000.00,M,M,M,M,M,M,M,M,M,M,93.36,KBVU 310255Z AUTO 12004KT 10SM FEW050 36/09 A2989 RMK AO2,M
CXP,2023-07-31 02:55,-119.7326,39.1923,1431.00,80.60,32.00,17.14,280.00,9.00,0.00,30.16,M,10.00,M,CLR,M,M,M,M,M,M,M,M,M,M,M,M,M,M,78.82,KCXP 310255Z AUTO 28009KT 10SM CLR 27/M00 A3016 RMK AO2,M
INS,2023-07-31 02:55,-115.6733,36.5872,955.00,93.00,49.60,22.84,80.00,14.00,0.00,29.96,1008.90,10.00,M,SCT,BKN,M,M,20000.00,22000.00,M,M,M,M,M,M,M,M,M,89.83,KINS 310255Z AUTO 08014KT 10SM SCT200 BKN220 34/10 A2996 RMK AO2 SLP089 T03390098 53004 $,M
RNO,2023-07-31 02:55,-119.7711,39.4839,1341.00,87.00,25.00,10.47,230.00,9.00,0.00,30.12,1013.90,10.00,M,SCT,BKN,BKN,M,14000.00,17000.00,22000.00,M,M,M,M,M,M,M,M,82.99,KRNO 310255Z 23009KT 10SM SCT140 BKN170 BKN220 31/M04 A3012 RMK AO2 SLP139 ACSL DSNT E THRU SE T03061039 53005,M
RTS,2023-07-31 02:55,-119.8764,39.6682,1539.00,80.60,23.00,11.83,250.00,9.00,0.00,30.18,M,10.00,M,CLR,M,M,M,M,M,M,M,M,M,M,M,M,M,M,78.80,KRTS 310255Z AUTO 25009KT 10SM CLR 27/M05 A3018 RMK AO2,M
05U,2023-07-31 02:55,-116.0051,39.6042,1811.23,84.20,37.40,18.91,M,M,0.00,30.17,M,10.00,M,M,M,M,M,M,M,M,M,M,M,M,M,M,M,M,81.38,K05U 310255Z AUTO 10SM 29/03 A3017 RMK A01,M
MEV,2023-07-31 02:55,-119.7500,38.9963,1441.42,77.00,32.00,19.30,250.00,6.00,0.00,30.15,M,10.00,M,CLR,M,M,M,M,M,M,M,M,M,M,M,M,M,M,77.00,KMEV 310255Z AUTO 25006KT 10SM CLR 25/00 A3015 RMK AO2,M
HTH,2023-07-31 02:55,-118.6315,38.5448,1282.89,89.60,28.40,11.09,260.00,10.00,0.00,30.07,M,10.00,M,CLR,M,M,M,M,M,M,M,M,M,M,M,M,M,M,85.17,KHTH 310255Z AUTO 26010KT 10SM CLR 32/M02 A3007 RMK A01,M
TMT,2023-07-31 02:55,-117.1971,39.4643,1749.34,77.50,32.00,18.98,320.00,5.00,0.00,30.19,M,M,M,CLR,M,M,M,M,M,M,M,M,M,M,M,M,M,M,77.50,KTMT 310255Z AUTO 32005KT CLR 25/00 A3019 RMK AO2 T02530000 PWINO,M
BAM,2023-07-31 02:55,-116.8743,40.5990,1382.36,87.80,30.20,12.64,330.00,9.00,0.00,30.08,M,10.00,M,CLR,M,M,M,M,M,M,M,M,M,M,M,M,M,M,84.01,KBAM 310255Z AUTO 33009KT 10SM CLR 31/M01 A3008 RMK AO1,M
EKO,2023-07-31 02:56,-115.7860,40.8242,1367.00,86.00,33.00,14.99,320.00,5.00,0.00,30.10,1012.70,10.00,M,CLR,M,M,M,M,M,M,M,M,M,M,M,M,M,M,82.65,KEKO 310256Z AUTO 32005KT 10SM CLR 30/01 A3010 RMK AO2 SLP127 T03000006 53002,M
WMC,2023-07-31 02:56,-117.8072,40.9019,1315.00,88.00,16.00,6.92,230.00,8.00,0.00,30.05,1012.00,10.00,M,CLR,M,M,M,M,M,M,M,M,M,M,M,M,M,M,83.22,KWMC 310256Z AUTO 23008KT 10SM CLR 31/M09 A3005 RMK AO2 SLP120 T03111089 53001,M
NFL,2023-07-31 02:56,-118.7010,39.4166,1199.00,88.00,33.00,14.06,290.00,7.00,0.00,30.06,1014.70,10.00,M,CLR,M,M,M,M,M,M,M,M,M,M,M,M,M,M,84.25,KNFL 310256Z AUTO 29007KT 10SM CLR 31/01 A3006 RMK AO2 SLP147 T03110006 53006 $,M
HND,2023-07-31 02:56,-115.1344,35.9729,742.79,98.00,51.00,20.63,160.00,9.00,0.00,29.93,1011.30,10.00,M,CLR,M,M,M,M,M,M,M,M,M,M,M,M,M,M,95.17,KHND 310256Z 16009KT 10SM CLR 37/11 A2993 RMK AO2 SLP113 T03670106 52001,M
TPH,2023-07-31 02:56,-117.0904,38.0505,1654.00,89.00,47.00,23.49,300.00,6.00,0.00,30.12,1010.20,10.00,M,CLR,M,M,M,M,M,M,M,M,M,M,M,M,M,M,85.77,KTPH 310256Z AUTO 30006KT 10SM CLR 32/08 A3012 RMK AO2 SLP102 T03170083 53003,M
LAS,2023-07-31 02:56,-115.1634,36.0719,663.00,99.00,50.00,19.28,150.00,6.00,0.00,29.88,1008.50,10.00,M,FEW,BKN,BKN,M,14000.00,20000.00,25000.00,M,M,M,M,M,M,M,M,95.97,KLAS 310256Z 15006KT 10SM FEW140 BKN200 BKN250 37/10 A2988 RMK AO2 SLP085 T03720100 53002,M
05U,2023-07-31 03:10,-116.0051,39.6042,1811.23,82.40,35.60,18.67,M,M,0.00,30.18,M,10.00,M,M,M,M,M,M,M,M,M,M,M,M,M,M,M,M,80.08,K05U 310310Z AUTO 10SM 28/02 A3018 RMK A01,M
BVU,2023-07-31 03:15,-114.8611,35.9475,671.00,96.80,48.20,19.28,140.00,5.00,0.00,29.90,M,10.00,M,BKN,M,M,M,4800.00,M,M,M,M,M,M,M,M,M,M,93.36,KBVU 310315Z AUTO 14005KT 10SM BKN048 36/09 A2990 RMK AO2,M
CXP,2023-07-31 03:15,-119.7326,39.1923,1431.00,80.60,32.00,17.14,270.00,6.00,0.00,30.17,M,10.00,M,CLR,M,M,M,M,M,M,M,M,M,M,M,M,M,M,78.82,KCXP 310315Z AUTO 27006KT 10SM CLR 27/M00 A3017 RMK AO2,M
RTS,2023-07-31 03:15,-119.8764,39.6682,1539.00,78.80,23.00,12.55,260.00,11.00,0.00,30.18,M,10.00,M,CLR,M,M,M,M,M,M,M,M,M,M,M,M,M,M,78.80,KRTS 310315Z AUTO 26011KT 10SM CLR 26/M05 A3018 RMK AO2,M
MEV,2023-07-31 03:15,-119.7500,38.9963,1441.42,75.20,32.00,20.49,230.00,8.00,0.00,30.16,M,10.00,M,CLR,M,M,M,M,M,M,M,M,M,M,M,M,M,M,75.20,KMEV 310315Z AUTO 23008KT 10SM CLR 24/00 A3016 RMK AO2,M
HTH,2023-07-31 03:15,-118.6315,38.5448,1282.89,87.80,28.40,11.74,140.00,8.00,0.00,30.07,M,10.00,M,CLR,M,M,M,M,M,M,M,M,M,M,M,M,M,M,83.84,KHTH 310315Z AUTO 14008KT 110V170 10SM CLR 31/M02 A3007 RMK A01,M
TMT,2023-07-31 03:15,-117.1971,39.4643,1749.34,75.70,32.00,20.15,320.00,6.00,0.00,30.20,M,M,M,CLR,M,M,M,M,M,M,M,M,M,M,M,M,M,M,75.70,KTMT 310315Z AUTO 32006KT CLR 24/00 A3020 RMK AO2 T02431001 PWINO,M
10U,2023-07-31 03:15,-116.1876,41.9532,1637.00,78.80,15.80,9.23,290.00,5.00,0.00,30.15,M,10.00,M,CLR,M,M,M,M,M,M,M,M,M,M,M,M,M,M,78.80,K10U 310315Z AUTO 29005KT 10SM CLR 26/M09 A3015 RMK AO2,M
BAM,2023-07-31 03:15,-116.8743,40.5990,1382.36,86.00,32.00,14.40,320.00,6.00,0.00,30.09,M,10.00,M,CLR,M,M,M,M,M,M,M,M,M,M,M,M,M,M,82.64,KBAM 310315Z AUTO 32006KT 10SM CLR 30/00 A3009 RMK AO1,M
BVU,2023-07-31 03:35,-114.8611,35.9475,671.00,93.20,51.80,24.63,0.00,0.00,0.00,29.90,M,10.00,M,SCT,BKN,OVC,M,3400.00,4000.00,5000.00,M,M,M,M,M,M,M,M,90.45,KBVU 310335Z AUTO 00000KT 10SM SCT034 BKN040 OVC050 34/11 A2990 RMK AO2,M
CXP,2023-07-31 03:35,-119.7326,39.1923,1431.00,80.60,26.60,13.75,240.00,6.00,0.00,30.17,M,10.00,M,CLR,M,M,M,M,M,M,M,M,M,M,M,M,M,M,78.68,KCXP 310335Z AUTO 24006KT 10SM CLR 27/M03 A3017 RMK AO2,M
RTS,2023-07-31 03:35,-119.8764,39.6682,1539.00,77.00,23.00,13.32,260.00,9.00,0.00,30.19,M,10.00,M,CLR,M,M,M,M,M,M,M,M,M,M,M,M,M,M,77.00,KRTS 310335Z AUTO 26009KT 10SM CLR 25/M05 A3019 RMK AO2,M
05U,2023-07-31 03:35,-116.0051,39.6042,1811.23,80.60,32.00,17.14,M,M,0.00,30.19,M,10.00,M,M,M,M,M,M,M,M,M,M,M,M,M,M,M,M,78.82,K05U 310335Z AUTO 10SM 27/M00 A3019 RMK A01,M
MEV,2023-07-31 03:35,-119.7500,38.9963,1441.42,73.40,33.80,23.39,200.00,7.00,0.00,30.16,M,10.00,M,CLR,M,M,M,M,M,M,M,M,M,M,M,M,M,M,73.40,KMEV 310335Z AUTO 20007KT 10SM CLR 23/01 A3016 RMK AO2,M
HTH,2023-07-31 03:35,-118.6315,38.5448,1282.89,87.80,28.40,11.74,140.00,4.00,0.00,30.08,M,10.00,M,CLR,M,M,M,M,M,M,M,M,M,M,M,M,M,M,83.84,KHTH 310335Z AUTO 14004KT 10SM CLR 31/M02 A3008 RMK A01,M
TMT,2023-07-31 03:35,-117.1971,39.4643,1749.34,70.50,32.00,24.01,170.00,3.00,0.00,30.21,M,M,M,CLR,M,M,M,M,M,M,M,M,M,M,M,M,M,M,70.50,KTMT 310335Z AUTO 17003KT CLR 21/00 A3021 RMK AO2 T02140000 PWINO,M
10U,2023-07-31 03:35,-116.1876,41.9532,1637.00,75.20,19.40,12.14,0.00,0.00,0.00,30.16,M,10.00,M,CLR,M,M,M,M,M,M,M,M,M,M,M,M,M,M,75.20,K10U 310335Z AUTO 00000KT 10SM CLR 24/M07 A3016 RMK AO2,M
BAM,2023-07-31 03:35,-116.8743,40.5990,1382.36,82.40,28.40,13.96,250.00,4.00,0.00,30.09,M,10.00,M,CLR,M,M,M,M,M,M,M,M,M,M,M,M,M,M,79.94,KBAM 310335Z AUTO 25004KT 10SM CLR 28/M02 A3009 RMK AO1,M
05U,2023-07-31 03:50,-116.0051,39.6042,1811.23,80.60,32.00,17.14,M,M,0.00,30.20,M,10.00,M,M,M,M,M,M,M,M,M,M,M,M,M,M,M,M,78.82,K05U 310350Z AUTO 10SM 27/M00 A3020 RMK A01,M
P68,2023-07-31 03:53,-116.0056,39.6014,1993.00,81.00,31.00,16.25,320.00,10.00,0.00,30.17,1011.70,M,16.00,M,M,M,M,M,M,M,M,M,M,M,M,M,M,M,79.04,KP68 310353Z AUTO 32010G16KT 27/M01 A3017 RMK AO1 SLP117 T02721006,M
DRA,2023-07-31 03:53,-116.0278,36.6206,1009.00,92.00,40.00,16.35,100.00,5.00,0.00,29.97,1008.80,10.00,M,CLR,M,M,M,M,M,M,M,M,M,M,M,M,M,M,87.88,KDRA 310353Z AUTO 10005KT 10SM CLR 33/04 A2997 RMK AO2 SLP088 T03330044,M
ELY,2023-07-31 03:53,-114.8453,39.2950,1909.00,76.00,46.00,34.47,170.00,16.00,0.00,30.22,1011.20,10.00,23.00,CLR,M,M,M,M,M,M,M,M,M,M,M,M,M,M,76.00,KELY 310353Z AUTO 17016G23KT 10SM CLR 24/08 A3022 RMK AO2 SLP112 T02440078,M
VGT,2023-07-31 03:53,-115.1933,36.2111,667.00,97.00,53.00,22.90,60.00,8.00,0.00,29.90,1010.80,10.00,M,CLR,M,M,M,M,M,M,M,M,M,M,M,M,M,M,94.64,KVGT 310353Z AUTO 06008KT 10SM CLR 36/12 A2990 RMK AO2 SLP108 T03610117,M
LOL,2023-07-31 03:53,-118.5701,40.0684,1192.43,85.00,28.00,12.63,270.00,8.00,0.00,30.06,1013.10,10.00,M,CLR,M,M,M,M,M,M,M,M,M,M,M,M,M,M,81.80,KLOL 310353Z AUTO 27008KT 10SM CLR 29/M02 A3006 RMK AO2 SLP131 T02941022,M
10U,2023-07-31 03:55,-116.1876,41.9532,1637.00,69.80,26.60,19.72,140.00,4.00,0.00,30.16,M,10.00,M,CLR,M,M,M,M,M,M,M,M,M,M,M,M,M,M,69.80,K10U 310355Z AUTO 14004KT 10SM CLR 21/M03 A3016 RMK AO2,M
BVU,2023-07-31 03:55,-114.8611,35.9475,671.00,93.20,51.80,24.63,M,3.00,0.00,29.91,M,10.00,M,FEW,SCT,OVC,M,3500.00,4300.00,5000.00,M,M,M,M,M,M,M,M,90.45,KBVU 310355Z AUTO VRB03KT 10SM FEW035 SCT043 OVC050 34/11 A2991 RMK AO2,M
CXP,2023-07-31 03:55,-119.7326,39.1923,1431.00,78.80,26.60,14.59,230.00,6.00,0.00,30.17,M,10.00,11.00,CLR,M,M,M,M,M,M,M,M,M,M,M,M,M,M,78.80,KCXP 310355Z AUTO 23006G11KT 10SM CLR 26/M03 A3017 RMK AO2,M
INS,2023-07-31 03:55,-115.6733,36.5872,955.00,90.00,49.50,24.99,70.00,13.00,0.00,29.97,1009.30,10.00,M,CLR,M,M,M,M,M,M,M,M,M,M,M,M,M,M,86.98,KINS 310355Z AUTO 07013KT 10SM CLR 32/10 A2997 RMK AO2 SLP093 T03230097 $,M
RNO,2023-07-31 03:55,-119.7711,39.4839,1341.00,84.00,26.00,12.01,M,3.00,0.00,30.13,1014.10,10.00,M,SCT,BKN,BKN,M,14000.00,18000.00,22000.00,M,M,M,M,M,M,M,M,80.95,KRNO 310355Z VRB03KT 10SM SCT140 BKN180 BKN220 29/M03 A3013 RMK AO2 SLP141 ACSL E THRU SE AND S T02891033,M
LSV,2023-07-31 03:55,-115.0343,36.2362,570.00,95.00,51.40,22.95,340.00,7.00,0.00,29.85,M,10.00,M,BKN,M,M,M,19000.00,M,M,M,M,M,M,M,M,M,M,92.18,KLSV 310355Z 34007KT 10SM BKN190 35/11 A2985 RMK AO2A ALSTG ESTMD AO2A SLPNO T03510108 $,M
RTS,2023-07-31 03:55,-119.8764,39.6682,1539.00,75.20,23.00,14.15,280.00,9.00,0.00,30.19,M,10.00,M,CLR,M,M,M,M,M,M,M,M,M,M,M,M,M,M,75.20,KRTS 310355Z AUTO 28009KT 10SM CLR 24/M05 A3019 RMK AO2,M
MEV,2023-07-31 03:55,-119.7500,38.9963,1441.42,71.60,33.80,24.86,180.00,6.00,0.00,30.17,M,10.00,M,CLR,M,M,M,M,M,M,M,M,M,M,M,M,M,M,71.60,KMEV 310355Z AUTO 18006KT 10SM CLR 22/01 A3017 RMK AO2,M
HTH,2023-07-31 03:55,-118.6315,38.5448,1282.89,87.80,28.40,11.74,250.00,6.00,0.00,30.08,M,10.00,12.00,CLR,M,M,M,M,M,M,M,M,M,M,M,M,M,M,83.84,KHTH 310355Z AUTO 25006G12KT 10SM CLR 31/M02 A3008 RMK A01,M
TMT,2023-07-31 03:55,-117.1971,39.4643,1749.34,71.80,31.30,22.33,0.00,0.00,0.00,30.21,M,M,M,CLR,M,M,M,M,M,M,M,M,M,M,M,M,M,M,71.80,KTMT 310355Z AUTO 00000KT CLR 22/00 A3021 RMK AO2 T02211004 PWINO,M
BAM,2023-07-31 03:55,-116.8743,40.5990,1382.36,80.60,28.40,14.81,200.00,4.00,0.00,30.09,M,10.00,M,CLR,M,M,M,M,M,M,M,M,M,M,M,M,M,M,78.72,KBAM 310355Z AUTO 20004KT 10SM CLR 27/M02 A3009 RMK AO1,M
EKO,2023-07-31 03:56,-115.7860,40.8242,1367.00,80.00,34.00,18.94,0.00,0.00,0.00,30.11,1013.10,10.00,M,CLR,M,M,M,M,M,M,M,M,M,M,M,M,M,M,78.59,KEKO 310356Z AUTO 00000KT 10SM CLR 27/01 A3011 RMK AO2 SLP131 T02670011,M
WMC,2023-07-31 03:56,-117.8072,40.9019,1315.00,79.00,17.00,9.66,250.00,7.00,0.00,30.06,1012.40,10.00,M,CLR,M,M,M,M,M,M,M,M,M,M,M,M,M,M,79.00,KWMC 310356Z AUTO 25007KT 10SM CLR 26/M08 A3006 RMK AO2 SLP124 T02611083,M
NFL,2023-07-31 03:56,-118.7010,39.4166,1199.00,84.00,34.00,16.63,300.00,6.00,0.00,30.08,1015.20,10.00,M,CLR,M,M,M,M,M,M,M,M,M,M,M,M,M,M,81.16,KNFL 310356Z AUTO 30006KT 10SM CLR 29/01 A3008 RMK AO2 SLP152 T02890011 $,M
HND,2023-07-31 03:56,-115.1344,35.9729,742.79,97.00,52.00,22.07,160.00,11.00,0.00,29.94,1011.60,10.00,M,CLR,M,M,M,M,M,M,M,M,M,M,M,M,M,M,94.38,KHND 310356Z 16011KT 10SM CLR 36/11 A2994 RMK AO2 SLP116 T03610111,M
TPH,2023-07-31 03:56,-117.0904,38.0505,1654.00,87.00,44.00,22.33,310.00,10.00,0.00,30.14,1010.60,10.00,20.00,CLR,M,M,M,M,M,M,M,M,M,M,M,M,M,M,83.82,KTPH 310356Z AUTO 31010G20KT 10SM CLR 31/07 A3014 RMK AO2 SLP106 T03060067,M
LAS,2023-07-31 03:56,-115.1634,36.0719,663.00,97.00,52.00,22.07,90.00,4.00,0.00,29.89,1009.00,10.00,M,BKN,BKN,M,M,20000.00,25000.00,M,M,M,M,M,M,M,M,M,94.38,KLAS 310356Z 09004KT 10SM BKN200 BKN250 36/11 A2989 RMK AO2 SLP090 T03610111,M
BVU,2023-07-31 04:15,-114.8611,35.9475,671.00,95.00,50.00,21.79,120.00,4.00,0.00,29.91,M,10.00,M,OVC,M,M,M,5000.00,M,M,M,M,M,M,M,M,M,M,91.89,KBVU 310415Z AUTO 12004KT 10SM OVC050 35/10 A2991 RMK AO2,M
CXP,2023-07-31 04:15,-119.7326,39.1923,1431.00,78.80,24.80,13.54,230.00,6.00,0.00,30.17,M,10.00,12.00,CLR,M,M,M,M,M,M,M,M,M,M,M,M,M,M,78.80,KCXP 310415Z AUTO 23006G12KT 10SM CLR 26/M04 A3017 RMK AO2,M
RTS,2023-07-31 04:15,-119.8764,39.6682,1539.00,73.40,23.00,15.03,270.00,7.00,0.00,30.19,M,10.00,M,CLR,M,M,M,M,M,M,M,M,M,M,M,M,M,M,73.40,KRTS 310415Z AUTO 27007KT 10SM CLR 23/M05 A3019 RMK AO2,M
05U,2023-07-31 04:15,-116.0051,39.6042,1811.23,80.60,30.20,15.94,M,M,0.00,30.21,M,10.00,M,M,M,M,M,M,M,M,M,M,M,M,M,M,M,M,78.77,K05U 310415Z AUTO 10SM 27/M01 A3021 RMK A01,M
MEV,2023-07-31 04:15,-119.7500,38.9963,1441.42,69.80,35.60,28.39,0.00,0.00,0.00,30.17,M,10.00,M,CLR,M,M,M,M,M,M,M,M,M,M,M,M,M,M,69.80,KMEV 310415Z AUTO 00000KT 10SM CLR 21/02 A3017 RMK AO2,M
HTH,2023-07-31 04:15,-118.6315,38.5448,1282.89,87.80,28.40,11.74,280.00,6.00,0.00,30.08,M,10.00,M,CLR,M,M,M,M,M,M,M,M,M,M,M,M,M,M,83.84,KHTH 310415Z AUTO 28006KT 10SM CLR 31/M02 A3008 RMK A01,M
TMT,2023-07-31 04:15,-117.1971,39.4643,1749.34,67.60,31.00,25.47,170.00,3.00,0.00,30.22,M,M,M,CLR,M,M,M,M,M,M,M,M,M,M,M,M,M,M,67.60,KTMT 310415Z AUTO 17003KT CLR 20/M01 A3022 RMK AO2 T01981006 PWINO,M
10U,2023-07-31 04:15,-116.1876,41.9532,1637.00,69.80,24.80,18.30,120.00,4.00,0.00,30.16,M,10.00,M,CLR,M,M,M,M,M,M,M,M,M,M,M,M,M,M,69.80,K10U 310415Z AUTO 12004KT 10SM CLR 21/M04 A3016 RMK AO2,M
BAM,2023-07-31 04:15,-116.8743,40.5990,1382.36,77.00,26.60,15.48,80.00,5.00,0.00,30.10,M,10.00,M,CLR,M,M,M,M,M,M,M,M,M,M,M,M,M,M,77.00,KBAM 310415Z AUTO 08005KT 10SM CLR 25/M03 A3010 RMK AO1,M
05U,2023-07-31 04:30,-116.0051,39.6042,1811.23,75.20,33.80,22.02,M,M,0.00,30.21,M,10.00,M,M,M,M,M,M,M,M,M,M,M,M,M,M,M,M,75.20,K05U 310430Z AUTO 10SM 24/01 A3021 RMK A01,M
BVU,2023-07-31 04:35,-114.8611,35.9475,671.00,93.20,51.80,24.63,100.00,4.00,0.00,29.91,M,10.00,M,BKN,OVC,M,M,4800.00,5500.00,M,M,M,M,M,M,M,M,M,90.45,KBVU 310435Z AUTO 10004KT 10SM BKN048 OVC055 34/11 A2991 RMK AO2,M
CXP,2023-07-31 04:35,-119.7326,39.1923,1431.00,78.80,24.80,13.54,220.00,3.00,0.00,30.18,M,10.00,M,CLR,M,M,M,M,M,M,M,M,M,M,M,M,M,M,78.80,KCXP 310435Z AUTO 22003KT 10SM CLR 26/M04 A3018 RMK AO2,M
RTS,2023-07-31 04:35,-119.8764,39.6682,1539.00,75.20,23.00,14.15,210.00,6.00,0.00,30.19,M,10.00,M,CLR,M,M,M,M,M,M,M,M,M,M,M,M,M,M,75.20,KRTS 310435Z AUTO 21006KT 10SM CLR 24/M05 A3019 RMK AO2,M
MEV,2023-07-31 04:35,-119.7500,38.9963,1441.42,69.80,33.80,26.43,0.00,0.00,0.00,30.17,M,10.00,M,CLR,M,M,M,M,M,M,M,M,M,M,M,M,M,M,69.80,KMEV 310435Z AUTO 00000KT 10SM CLR 21/01 A3017 RMK AO2,M
HTH,2023-07-31 04:35,-118.6315,38.5448,1282.89,84.20,28.40,13.18,M,4.00,0.00,30.09,M,10.00,M,CLR,M,M,M,M,M,M,M,M,M,M,M,M,M,M,81.25,KHTH 310435Z AUTO VRB04KT 10SM CLR 29/M02 A3009 RMK A01,M
10U,2023-07-31 04:35,-116.1876,41.9532,1637.00,69.80,21.20,15.73,140.00,6.00,0.00,30.16,M,10.00,M,CLR,M,M,M,M,M,M,M,M,M,M,M,M,M,M,69.80,K10U 310435Z AUTO 14006KT 10SM CLR 21/M06 A3016 RMK AO2,M
BAM,2023-07-31 04:35,-116.8743,40.5990,1382.36,77.00,28.40,16.67,110.00,5.00,0.00,30.10,M,10.00,M,CLR,M,M,M,M,M,M,M,M,M,M,M,M,M,M,77.00,KBAM 310435Z AUTO 11005KT 10SM CLR 25/M02 A3010 RMK AO1,M
TMT,2023-07-31 04:35,-117.1971,39.4643,1749.34,66.40,30.70,26.22,160.00,5.00,0.00,30.22,M,M,M,CLR,M,M,M,M,M,M,M,M,M,M,M,M,M,M,66.40,KTMT 310435Z AUTO 16005KT CLR 19/M01 A3022 RMK AO2 T01911007 PWINO,M
P68,2023-07-31 04:53,-116.0056,39.6014,1993.00,72.00,36.00,26.77,110.00,5.00,0.00,30.19,1012.90,M,M,M,M,M,M,M,M,M,M,M,M,M,M,M,M,M,72.00,KP68 310453Z AUTO 11005KT 22/02 A3019 RMK AO1 SLP129 T02220022,M
DRA,2023-07-31 04:53,-116.0278,36.6206,1009.00,90.00,49.00,24.53,110.00,7.00,0.00,29.97,1008.80,10.00,M,CLR,M,M,M,M,M,M,M,M,M,M,M,M,M,M,86.91,KDRA 310453Z AUTO 11007KT 10SM CLR 32/09 A2997 RMK AO2 SLP088 T03220094,M
ELY,2023-07-31 04:53,-114.8453,39.2950,1909.00,74.00,46.00,36.85,170.00,14.00,0.00,30.22,1011.00,10.00,22.00,CLR,M,M,M,M,M,M,M,M,M,M,M,M,M,M,74.00,KELY 310453Z AUTO 17014G22KT 10SM CLR 23/08 A3022 RMK AO2 SLP110 T02330078,M
VGT,2023-07-31 04:53,-115.1933,36.2111,667.00,96.00,52.00,22.76,50.00,6.00,0.00,29.90,1010.90,10.00,M,CLR,M,M,M,M,M,M,M,M,M,M,M,M,M,M,93.34,KVGT 310453Z AUTO 05006KT 10SM CLR 36/11 A2990 RMK AO2 SLP109 T03560111,M
LOL,2023-07-31 04:53,-118.5701,40.0684,1192.43,81.00,29.00,14.98,270.00,10.00,0.00,30.07,1013.40,10.00,M,CLR,M,M,M,M,M,M,M,M,M,M,M,M,M,M,79.00,KLOL 310453Z AUTO 27010KT 10SM CLR 27/M02 A3007 RMK AO2 SLP134 T02721017,M
10U,2023-07-31 04:55,-116.1876,41.9532,1637.00,68.00,21.20,16.74,140.00,6.00,0.00,30.16,M,10.00,M,CLR,M,M,M,M,M,M,M,M,M,M,M,M,M,M,68.00,K10U 310455Z AUTO 14006KT 10SM CLR 20/M06 A3016 RMK AO2,M
LSV,2023-07-31 04:55,-115.0343,36.2362,570.00,95.00,51.80,23.30,351.00,10.00,0.00,29.85,M,10.00,M,BKN,M,M,M,1900.00,M,M,M,M,M,M,M,M,M,M,92.26,KLSV 310455Z 35110KT 10SM BKN19 35/11 A2985 RMK AO2A ALSTG ESTMD AO2A SLPNO RVRNO $,M
BVU,2023-07-31 04:55,-114.8611,35.9475,671.00,95.00,50.00,21.79,60.00,3.00,0.00,29.91,M,10.00,M,OVC,M,M,M,5000.00,M,M,M,M,M,M,M,M,M,M,91.89,KBVU 310455Z AUTO 06003KT 10SM OVC050 35/10 A2991 RMK AO2,M
CXP,2023-07-31 04:55,-119.7326,39.1923,1431.00,77.00,26.60,15.48,0.00,0.00,0.00,30.18,M,10.00,M,CLR,M,M,M,M,M,M,M,M,M,M,M,M,M,M,77.00,KCXP 310455Z AUTO 00000KT 10SM CLR 25/M03 A3018 RMK AO2,M
INS,2023-07-31 04:55,-115.6733,36.5872,955.00,89.20,48.70,24.88,90.00,13.00,0.00,29.96,1008.80,10.00,M,CLR,M,M,M,M,M,M,M,M,M,M,M,M,M,M,86.15,KINS 310455Z AUTO 09013KT 10SM CLR 32/09 A2996 RMK AO2 SLP088 T03180093 $,M
RNO,2023-07-31 04:55,-119.7711,39.4839,1341.00,81.00,28.00,14.38,280.00,5.00,0.00,30.13,1014.10,10.00,M,SCT,BKN,BKN,M,14000.00,18000.00,22000.00,M,M,M,M,M,M,M,M,78.98,KRNO 310455Z 28005KT 10SM SCT140 BKN180 BKN220 27/M02 A3013 RMK AO2 SLP141 ACSL DSNT E THRU SE T02721022,M
RTS,2023-07-31 04:55,-119.8764,39.6682,1539.00,73.40,23.00,15.03,270.00,7.00,0.00,30.19,M,10.00,M,CLR,M,M,M,M,M,M,M,M,M,M,M,M,M,M,73.40,KRTS 310455Z AUTO 27007KT 10SM CLR 23/M05 A3019 RMK AO2,M
05U,2023-07-31 04:55,-116.0051,39.6042,1811.23,71.60,35.60,26.71,M,M,0.00,30.22,M,10.00,M,M,M,M,M,M,M,M,M,M,M,M,M,M,M,M,71.60,K05U 310455Z AUTO 10SM 22/02 A3022 RMK A01,M
MEV,2023-07-31 04:55,-119.7500,38.9963,1441.42,69.80,32.00,24.59,170.00,6.00,0.00,30.17,M,10.00,M,CLR,M,M,M,M,M,M,M,M,M,M,M,M,M,M,69.80,KMEV 310455Z AUTO 17006KT 10SM CLR 21/00 A3017 RMK AO2,M
HTH,2023-07-31 04:55,-118.6315,38.5448,1282.89,86.00,30.20,13.38,70.00,3.00,0.00,30.10,M,10.00,11.00,CLR,M,M,M,M,M,M,M,M,M,M,M,M,M,M,82.64,KHTH 310455Z AUTO 07003G11KT 10SM CLR 30/M01 A3010 RMK A01,M
TMT,2023-07-31 04:55,-117.1971,39.4643,1749.34,64.60,29.30,26.37,190.00,3.00,0.00,30.22,M,M,M,CLR,M,M,M,M,M,M,M,M,M,M,M,M,M,M,64.60,KTMT 310455Z AUTO 19003KT CLR 18/M01 A3022 RMK AO2 T01811015 PWINO,M
BAM,2023-07-31 04:55,-116.8743,40.5990,1382.36,75.20,28.40,17.70,60.00,3.00,0.00,30.11,M,10.00,M,CLR,M,M,M,M,M,M,M,M,M,M,M,M,M,M,75.20,KBAM 310455Z AUTO 06003KT 10SM CLR 24/M02 A3011 RMK AO1,M
EKO,2023-07-31 04:56,-115.7860,40.8242,1367.00,74.00,33.00,22.20,0.00,0.00,0.00,30.12,1013.00,10.00,M,CLR,M,M,M,M,M,M,M,M,M,M,M,M,M,M,74.00,KEKO 310456Z AUTO 00000KT 10SM CLR 23/01 A3012 RMK AO2 SLP130 T02330006,M
WMC,2023-07-31 04:56,-117.8072,40.9019,1315.00,74.00,21.00,13.53,0.00,0.00,0.00,30.07,1012.90,10.00,M,CLR,M,M,M,M,M,M,M,M,M,M,M,M,M,M,74.00,KWMC 310456Z AUTO 00000KT 10SM CLR 23/M06 A3007 RMK AO2 SLP129 T02331061,M
NFL,2023-07-31 04:56,-118.7010,39.4166,1199.00,83.00,31.00,15.23,280.00,10.00,0.00,30.08,1015.50,10.00,M,CLR,M,M,M,M,M,M,M,M,M,M,M,M,M,M,80.40,KNFL 310456Z AUTO 28010KT 10SM CLR 28/M01 A3008 RMK AO2 SLP155 T02831006 $,M
HND,2023-07-31 04:56,-115.1344,35.9729,742.79,96.00,51.00,21.93,150.00,10.00,0.00,29.94,1011.70,10.00,M,CLR,M,M,M,M,M,M,M,M,M,M,M,M,M,M,93.11,KHND 310456Z 15010KT 10SM CLR 36/11 A2994 RMK AO2 SLP117 T03560106,M
TPH,2023-07-31 04:56,-117.0904,38.0505,1654.00,83.00,41.00,22.62,320.00,8.00,0.00,30.16,1011.30,10.00,M,CLR,M,M,M,M,M,M,M,M,M,M,M,M,M,M,80.69,KTPH 310456Z AUTO 32008KT 10SM CLR 28/05 A3016 RMK AO2 SLP113 T02830050,M
LAS,2023-07-31 04:56,-115.1634,36.0719,663.00,96.00,51.00,21.93,80.00,7.00,0.00,29.90,1009.10,10.00,M,BKN,BKN,M,M,20000.00,25000.00,M,M,M,M,M,M,M,M,M,93.11,KLAS 310456Z 08007KT 10SM BKN200 BKN250 36/11 A2990 RMK AO2 SLP091 T03560106,M
05U,2023-07-31 05:10,-116.0051,39.6042,1811.23,71.60,33.80,24.86,M,M,0.00,30.22,M,10.00,M,M,M,M,M,M,M,M,M,M,M,M,M,M,M,M,71.60,K05U 310510Z AUTO 10SM 22/01 A3022 RMK A01,M
BVU,2023-07-31 05:15,-114.8611,35.9475,671.00,91.40,51.80,26.05,0.00,0.00,0.00,29.91,M,10.00,M,OVC,M,M,M,5500.00,M,M,M,M,M,M,M,M,M,M,88.69,KBVU 310515Z AUTO 00000KT 10SM OVC055 33/11 A2991 RMK AO2,M
CXP,2023-07-31 05:15,-119.7326,39.1923,1431.00,75.20,28.40,17.70,0.00,0.00,0.00,30.18,M,10.00,M,CLR,M,M,M,M,M,M,M,M,M,M,M,M,M,M,75.20,KCXP 310515Z AUTO 00000KT 10SM CLR 24/M02 A3018 RMK AO2,M
RTS,2023-07-31 05:15,-119.8764,39.6682,1539.00,69.80,24.80,18.30,300.00,6.00,0.00,30.19,M,10.00,M,CLR,M,M,M,M,M,M,M,M,M,M,M,M,M,M,69.80,KRTS 310515Z AUTO 30006KT 10SM CLR 21/M04 A3019 RMK AO2,M
MEV,2023-07-31 05:15,-119.7500,38.9963,1441.42,71.60,28.40,19.98,170.00,8.00,0.00,30.16,M,10.00,M,CLR,M,M,M,M,M,M,M,M,M,M,M,M,M,M,71.60,KMEV 310515Z AUTO 17008KT 10SM CLR 22/M02 A3016 RMK AO2,M
HTH,2023-07-31 05:15,-118.6315,38.5448,1282.89,86.00,28.40,12.44,70.00,5.00,0.00,30.10,M,10.00,15.00,CLR,M,M,M,M,M,M,M,M,M,M,M,M,M,M,82.54,KHTH 310515Z AUTO 07005G15KT 10SM CLR 30/M02 A3010 RMK A01,M
10U,2023-07-31 05:15,-116.1876,41.9532,1637.00,68.00,23.00,18.06,140.00,5.00,0.00,30.16,M,10.00,M,CLR,M,M,M,M,M,M,M,M,M,M,M,M,M,M,68.00,K10U 310515Z AUTO 14005KT 10SM CLR 20/M05 A3016 RMK AO2,M
BAM,2023-07-31 05:15,-116.8743,40.5990,1382.36,73.40,28.40,18.80,0.00,0.00,0.00,30.11,M,10.00,M,CLR,M,M,M,M,M,M,M,M,M,M,M,M,M,M,73.40,KBAM 310515Z AUTO 00000KT 10SM CLR 23/M02 A3011 RMK AO1,M
TMT,2023-07-31 05:15,-117.1971,39.4643,1749.34,59.50,28.40,30.44,210.00,4.00,0.00,30.22,M,M,M,CLR,M,M,M,M,M,M,M,M,M,M,M,M,M,M,59.50,KTMT 310515Z AUTO 21004KT CLR 15/M02 A3022 RMK AO2 T01531020 PWINO,M
HTH,2023-07-31 05:30,-118.6315,38.5448,1282.89,84.20,28.40,13.18,70.00,4.00,0.00,30.10,M,10.00,M,CLR,M,M,M,M,M,M,M,M,M,M,M,M,M,M,81.25,KHTH 310530Z AUTO 07004KT 10SM CLR 29/M02 A3010 RMK A01,M
BVU,2023-07-31 05:35,-114.8611,35.9475,671.00,87.80,55.40,33.29,60.00,6.00,0.00,29.91,M,10.00,M,BKN,OVC,M,M,5000.00,5500.00,M,M,M,M,M,M,M,M,M,86.11,KBVU 310535Z AUTO 06006KT 10SM BKN050 OVC055 31/13 A2991 RMK AO2,M
CXP,2023-07-31 05:35,-119.7326,39.1923,1431.00,73.40,28.40,18.80,180.00,6.00,0.00,30.18,M,10.00,M,CLR,M,M,M,M,M,M,M,M,M,M,M,M,M,M,73.40,KCXP 310535Z AUTO 18006KT 10SM CLR 23/M02 A3018 RMK AO2,M
RTS,2023-07-31 05:35,-119.8764,39.6682,1539.00,71.60,26.60,18.55,250.00,8.00,0.00,30.20,M,10.00,M,CLR,M,M,M,M,M,M,M,M,M,M,M,M,M,M,71.60,KRTS 310535Z AUTO 25008KT 10SM CLR 22/M03 A3020 RMK AO2,M
05U,2023-07-31 05:35,-116.0051,39.6042,1811.23,69.80,33.80,26.43,M,M,0.00,30.22,M,10.00,M,CLR,M,M,M,M,M,M,M,M,M,M,M,M,M,M,69.80,K05U 310535Z AUTO 10SM CLR 21/01 A3022 RMK A01,M
MEV,2023-07-31 05:35,-119.7500,38.9963,1441.42,71.60,28.40,19.98,180.00,9.00,0.00,30.17,M,10.00,M,CLR,M,M,M,M,M,M,M,M,M,M,M,M,M,M,71.60,KMEV 310535Z AUTO 18009KT 10SM CLR 22/M02 A3017 RMK AO2,M
TMT,2023-07-31 05:35,-117.1971,39.4643,1749.34,60.40,30.00,31.47,190.00,4.00,0.00,30.22,M,M,M,CLR,M,M,M,M,M,M,M,M,M,M,M,M,M,M,60.40,KTMT 310535Z AUTO 19004KT CLR 16/M01 A3022 RMK AO2 T01581011 PWINO,M
10U,2023-07-31 05:35,-116.1876,41.9532,1637.00,64.40,24.80,22.06,160.00,7.00,0.00,30.16,M,10.00,M,CLR,M,M,M,M,M,M,M,M,M,M,M,M,M,M,64.40,K10U 310535Z AUTO 16007KT 10SM CLR 18/M04 A3016 RMK AO2,M
BAM,2023-07-31 05:35,-116.8743,40.5990,1382.36,69.80,28.40,21.24,120.00,4.00,0.00,30.11,M,10.00,M,CLR,M,M,M,M,M,M,M,M,M,M,M,M,M,M,69.80,KBAM 310535Z AUTO 12004KT 10SM CLR 21/M02 A3011 RMK AO1,M
05U,2023-07-31 05:50,-116.0051,39.6042,1811.23,68.00,35.60,30.20,M,M,0.00,30.23,M,10.00,M,CLR,M,M,M,M,M,M,M,M,M,M,M,M,M,M,68.00,K05U 310550Z AUTO 10SM CLR 20/02 A3023 RMK A01,M
P68,2023-07-31 05:53,-116.0056,39.6014,1993.00,66.00,37.00,34.21,190.00,4.00,0.00,30.20,1013.50,M,M,M,M,M,M,M,M,M,M,M,M,M,M,M,M,M,66.00,KP68 310553Z AUTO 19004KT 19/03 A3020 RMK AO1 SLP135 T01890028 10339 20189 51016,M
DRA,2023-07-31 05:53,-116.0278,36.6206,1009.00,88.00,48.00,25.17,M,3.00,0.00,29.98,1008.80,10.00,M,CLR,M,M,M,M,M,M,M,M,M,M,M,M,M,M,85.02,KDRA 310553Z AUTO VRB03KT 10SM CLR 31/09 A2998 RMK AO2 SLP088 T03110089 10383 20306 51004,M
ELY,2023-07-31 05:53,-114.8453,39.2950,1909.00,70.00,46.00,42.20,220.00,10.00,0.00,30.23,1011.50,10.00,M,CLR,M,M,M,M,M,M,M,M,M,M,M,M,M,M,70.00,KELY 310553Z AUTO 22010KT 10SM CLR 21/08 A3023 RMK AO2 SLP115 60000 T02110078 10306 20206 53001,M
VGT,2023-07-31 05:53,-115.1933,36.2111,667.00,96.00,51.00,21.93,60.00,7.00,0.00,29.90,1010.80,10.00,M,CLR,M,M,M,M,M,M,M,M,M,M,M,M,M,M,93.11,KVGT 310553Z AUTO 06007KT 10SM CLR 36/11 A2990 RMK AO2 SLP108 T03560106 10411 20350 51006,M
LOL,2023-07-31 05:53,-118.5701,40.0684,1192.43,78.00,29.00,16.53,250.00,8.00,0.00,30.07,1013.40,10.00,M,CLR,M,M,M,M,M,M,M,M,M,M,M,M,M,M,78.00,KLOL 310553Z AUTO 25008KT 10SM CLR 26/M02 A3007 RMK AO2 SLP134 T02561017 10344 20256 51013,M
LSV,2023-07-31 05:55,-115.0343,36.2362,570.00,95.00,51.80,23.30,13.00,5.00,0.00,29.85,M,10.00,M,BKN,M,M,M,19000.00,M,M,M,M,M,M,M,M,M,M,92.26,KLSV 310555Z 01305KT 10SM BKN190 35/11 A2985 RMK AO2A ALSTG ESTMD AO2A SLPNO 10377 20347 RVRNO $,M
BVU,2023-07-31 05:55,-114.8611,35.9475,671.00,87.80,55.40,33.29,50.00,3.00,0.00,29.91,M,10.00,M,OVC,M,M,M,5000.00,M,M,M,M,M,M,M,M,M,M,86.11,KBVU 310555Z AUTO 05003KT 10SM OVC050 31/13 A2991 RMK AO2,M
CXP,2023-07-31 05:55,-119.7326,39.1923,1431.00,73.40,28.40,18.80,200.00,5.00,0.00,30.18,M,10.00,M,CLR,M,M,M,M,M,M,M,M,M,M,M,M,M,M,73.40,KCXP 310555Z AUTO 20005KT 10SM CLR 23/M02 A3018 RMK AO2,M
INS,2023-07-31 05:55,-115.6733,36.5872,955.00,88.00,46.80,24.06,110.00,8.00,0.00,29.97,1009.00,10.00,M,CLR,M,M,M,M,M,M,M,M,M,M,M,M,M,M,84.89,KINS 310555Z AUTO 11008KT 10SM CLR 31/08 A2997 RMK AO2 SLP090 T03120082 10370 20307 50002 $,M
RNO,2023-07-31 05:55,-119.7711,39.4839,1341.00,79.00,31.00,17.35,290.00,3.00,0.00,30.13,1013.90,10.00,M,FEW,BKN,OVC,M,14000.00,17000.00,21000.00,M,M,M,M,M,M,M,M,79.00,KRNO 310555Z 29003KT 10SM FEW140 BKN170 OVC210 26/M01 A3013 RMK AO2 SLP139 ACSL DSNT E THRU SE T02611006 10344 20261 50003,M
RTS,2023-07-31 05:55,-119.8764,39.6682,1539.00,71.60,28.40,19.98,270.00,10.00,0.00,30.20,M,10.00,M,CLR,M,M,M,M,M,M,M,M,M,M,M,M,M,M,71.60,KRTS 310555Z AUTO 27010KT 10SM CLR 22/M02 A3020 RMK AO2,M
MEV,2023-07-31 05:55,-119.7500,38.9963,1441.42,69.80,30.20,22.86,210.00,5.00,0.00,30.17,M,10.00,M,CLR,M,M,M,M,M,M,M,M,M,M,M,M,M,M,69.80,KMEV 310555Z AUTO 21005KT 10SM CLR 21/M01 A3017 RMK AO2,M
HTH,2023-07-31 05:55,-118.6315,38.5448,1282.89,82.40,30.20,15.03,M,5.00,0.00,30.10,M,10.00,M,CLR,M,M,M,M,M,M,M,M,M,M,M,M,M,M,79.97,KHTH 310555Z AUTO VRB05KT 10SM CLR 28/M01 A3010 RMK A01,M
TMT,2023-07-31 05:55,-117.1971,39.4643,1749.34,59.00,35.40,41.09,240.00,6.00,0.00,30.23,M,M,M,CLR,M,M,M,M,M,M,M,M,M,M,M,M,M,M,59.00,KTMT 310555Z AUTO 24006KT CLR 15/02 A3023 RMK AO2 T01500019 10326 20149 PWINO,M
10U,2023-07-31 05:55,-116.1876,41.9532,1637.00,66.20,23.00,19.22,140.00,7.00,0.00,30.16,M,10.00,M,CLR,M,M,M,M,M,M,M,M,M,M,M,M,M,M,66.20,K10U 310555Z AUTO 14007KT 10SM CLR 19/M05 A3016 RMK AO2,M
BAM,2023-07-31 05:55,-116.8743,40.5990,1382.36,69.80,26.60,19.72,0.00,0.00,0.00,30.11,M,10.00,M,CLR,M,M,M,M,M,M,M,M,M,M,M,M,M,M,69.80,KBAM 310555Z AUTO 00000KT 10SM CLR 21/M03 A3011 RMK AO1,M
EKO,2023-07-31 05:56,-115.7860,40.8242,1367.00,73.00,34.00,23.90,270.00,3.00,0.00,30.13,1013.40,10.00,M,CLR,M,M,M,M,M,M,M,M,M,M,M,M,M,M,73.00,KEKO 310556Z AUTO 27003KT 10SM CLR 23/01 A3013 RMK AO2 SLP134 T02280011 10350 20211 51008,M
WMC,2023-07-31 05:56,-117.8072,40.9019,1315.00,76.00,20.00,12.13,M,4.00,0.00,30.09,1013.10,10.00,M,CLR,M,M,M,M,M,M,M,M,M,M,M,M,M,M,76.00,KWMC 310556Z AUTO VRB04KT 10SM CLR 24/M07 A3009 RMK AO2 SLP131 T02441067 10367 20222 53010,M
NFL,2023-07-31 05:56,-118.7010,39.4166,1199.00,80.00,32.00,17.48,290.00,8.00,0.00,30.08,1015.30,10.00,M,CLR,M,M,M,M,M,M,M,M,M,M,M,M,M,M,78.52,KNFL 310556Z AUTO 29008KT 10SM CLR 27/00 A3008 RMK AO2 SLP153 T02670000 10361 20267 50006 $,M
HND,2023-07-31 05:56,-115.1344,35.9729,742.79,94.00,52.00,24.20,200.00,10.00,0.00,29.95,1011.80,10.00,M,CLR,M,M,M,M,M,M,M,M,M,M,M,M,M,M,91.30,KHND 310556Z 20010KT 10SM CLR 34/11 A2995 RMK AO2 SLP118 T03440111 10394 20344 51006,M
TPH,2023-07-31 05:56,-117.0904,38.0505,1654.00,81.00,39.00,22.33,310.00,12.00,0.00,30.16,1011.20,10.00,21.00,CLR,M,M,M,M,M,M,M,M,M,M,M,M,M,M,79.33,KTPH 310556Z AUTO 31012G21KT 10SM CLR 27/04 A3016 RMK AO2 SLP112 T02720039 10350 20272 50010,M
LAS,2023-07-31 05:56,-115.1634,36.0719,663.00,95.00,51.00,22.62,0.00,0.00,0.00,29.90,1009.10,10.00,M,FEW,BKN,M,M,13000.00,22000.00,M,M,M,M,M,M,M,M,M,92.09,KLAS 310556Z 00000KT 10SM FEW130 BKN220 35/11 A2990 RMK AO2 SLP091 T03500106 10406 20350 51006,M
BVU,2023-07-31 06:15,-114.8611,35.9475,671.00,86.00,57.20,37.62,60.00,4.00,0.00,29.91,M,10.00,M,OVC,M,M,M,5000.00,M,M,M,M,M,M,M,M,M,M,84.97,KBVU 310615Z AUTO 06004KT 10SM OVC050 30/14 A2991 RMK AO2,M
CXP,2023-07-31 06:15,-119.7326,39.1923,1431.00,73.40,28.40,18.80,200.00,5.00,0.00,30.17,M,10.00,M,CLR,M,M,M,M,M,M,M,M,M,M,M,M,M,M,73.40,KCXP 310615Z AUTO 20005KT 10SM CLR 23/M02 A3017 RMK AO2,M
RTS,2023-07-31 06:15,-119.8764,39.6682,1539.00,69.80,30.20,22.86,250.00,10.00,0.00,30.19,M,10.00,M,CLR,M,M,M,M,M,M,M,M,M,M,M,M,M,M,69.80,KRTS 310615Z AUTO 25010KT 10SM CLR 21/M01 A3019 RMK AO2,M
05U,2023-07-31 06:15,-116.0051,39.6042,1811.23,62.60,37.40,39.14,M,M,0.00,30.23,M,10.00,M,CLR,M,M,M,M,M,M,M,M,M,M,M,M,M,M,62.60,K05U 310615Z AUTO 10SM CLR 17/03 A3023 RMK A01,M
MEV,2023-07-31 06:15,-119.7500,38.9963,1441.42,69.80,28.40,21.24,210.00,9.00,0.00,30.16,M,10.00,M,CLR,M,M,M,M,M,M,M,M,M,M,M,M,M,M,69.80,KMEV 310615Z AUTO 21009KT 10SM CLR 21/M02 A3016 RMK AO2,M
HTH,2023-07-31 06:15,-118.6315,38.5448,1282.89,80.60,32.00,17.14,280.00,6.00,0.00,30.10,M,10.00,M,CLR,M,M,M,M,M,M,M,M,M,M,M,M,M,M,78.82,KHTH 310615Z AUTO 28006KT 10SM CLR 27/00 A3010 RMK A01,M
10U,2023-07-31 06:15,-116.1876,41.9532,1637.00,66.20,23.00,19.22,120.00,5.00,0.00,30.16,M,10.00,10.00,CLR,M,M,M,M,M,M,M,M,M,M,M,M,M,M,66.20,K10U 310615Z AUTO 12005G10KT 10SM CLR 19/M05 A3016 RMK AO2,M
BAM,2023-07-31 06:15,-116.8743,40.5990,1382.36,71.60,26.60,18.55,210.00,3.00,0.00,30.11,M,10.00,M,CLR,M,M,M,M,M,M,M,M,M,M,M,M,M,M,71.60,KBAM 310615Z AUTO 21003KT 10SM CLR 22/M03 A3011 RMK AO1,M
TMT,2023-07-31 06:15,-117.1971,39.4643,1749.34,59.00,33.00,37.34,230.00,8.00,0.00,30.24,M,M,M,CLR,M,M,M,M,M,M,M,M,M,M,M,M,M,M,59.00,KTMT 310615Z AUTO 23008KT CLR 15/01 A3024 RMK AO2 T01510005 PWINO,M
05U,2023-07-31 06:30,-116.0051,39.6042,1811.23,62.60,32.00,31.56,M,M,0.00,30.23,M,10.00,M,CLR,M,M,M,M,M,M,M,M,M,M,M,M,M,M,62.60,K05U 310630Z AUTO 10SM CLR 17/M00 A3023 RMK A01,M
BVU,2023-07-31 06:35,-114.8611,35.9475,671.00,87.80,53.60,31.17,100.00,4.00,0.00,29.91,M,10.00,M,OVC,M,M,M,5000.00,M,M,M,M,M,M,M,M,M,M,85.72,KBVU 310635Z AUTO 10004KT 10SM OVC050 31/12 A2991 RMK AO2,M
CXP,2023-07-31 06:35,-119.7326,39.1923,1431.00,71.60,28.40,19.98,190.00,4.00,0.00,30.16,M,10.00,M,CLR,M,M,M,M,M,M,M,M,M,M,M,M,M,M,71.60,KCXP 310635Z AUTO 19004KT 10SM CLR 22/M02 A3016 RMK AO2,M
RTS,2023-07-31 06:35,-119.8764,39.6682,1539.00,69.80,30.20,22.86,300.00,7.00,0.00,30.19,M,10.00,14.00,CLR,M,M,M,M,M,M,M,M,M,M,M,M,M,M,69.80,KRTS 310635Z AUTO 30007G14KT 10SM CLR 21/M01 A3019 RMK AO2,M
MEV,2023-07-31 06:35,-119.7500,38.9963,1441.42,69.80,28.40,21.24,200.00,4.00,0.00,30.16,M,10.00,M,CLR,M,M,M,M,M,M,M,M,M,M,M,M,M,M,69.80,KMEV 310635Z AUTO 20004KT 10SM CLR 21/M02 A3016 RMK AO2,M
HTH,2023-07-31 06:35,-118.6315,38.5448,1282.89,77.00,33.80,20.74,260.00,5.00,0.00,30.10,M,10.00,M,CLR,M,M,M,M,M,M,M,M,M,M,M,M,M,M,77.00,KHTH 310635Z AUTO 26005KT 10SM CLR 25/01 A3010 RMK A01,M
TMT,2023-07-31 06:35,-117.1971,39.4643,1749.34,58.00,32.00,37.18,130.00,3.00,0.00,30.24,M,M,M,CLR,M,M,M,M,M,M,M,M,M,M,M,M,M,M,58.00,KTMT 310635Z AUTO 13003KT CLR 15/00 A3024 RMK AO2 T01450000 PWINO,M
10U,2023-07-31 06:35,-116.1876,41.9532,1637.00,62.60,24.80,23.50,130.00,6.00,0.00,30.15,M,10.00,M,CLR,M,M,M,M,M,M,M,M,M,M,M,M,M,M,62.60,K10U 310635Z AUTO 13006KT 10SM CLR 17/M04 A3015 RMK AO2,M
BAM,2023-07-31 06:35,-116.8743,40.5990,1382.36,69.80,26.60,19.72,220.00,4.00,0.00,30.11,M,10.00,M,CLR,M,M,M,M,M,M,M,M,M,M,M,M,M,M,69.80,KBAM 310635Z AUTO 22004KT 10SM CLR 21/M03 A3011 RMK AO1,M
P68,2023-07-31 06:53,-116.0056,39.6014,1993.00,63.00,32.00,31.12,140.00,3.00,0.00,30.22,1014.00,M,M,M,M,M,M,M,M,M,M,M,M,M,M,M,M,M,63.00,KP68 310653Z AUTO 14003KT 17/00 A3022 RMK AO1 SLP140 T01720000,M
DRA,2023-07-31 06:53,-116.0278,36.6206,1009.00,84.00,44.00,24.58,40.00,3.00,0.00,29.98,1009.10,10.00,M,CLR,M,M,M,M,M,M,M,M,M,M,M,M,M,M,81.54,KDRA 310653Z AUTO 04003KT 10SM CLR 29/07 A2998 RMK AO2 SLP091 T02890067,M
ELY,2023-07-31 06:53,-114.8453,39.2950,1909.00,70.00,47.00,43.82,210.00,13.00,0.00,30.23,1011.50,10.00,M,CLR,M,M,M,M,M,M,M,M,M,M,M,M,M,M,70.00,KELY 310653Z AUTO 21013KT 10SM CLR 21/08 A3023 RMK AO2 SLP115 T02110083,M
VGT,2023-07-31 06:53,-115.1933,36.2111,667.00,94.00,51.00,23.33,330.00,3.00,0.00,29.91,1011.10,10.00,M,CLR,M,M,M,M,M,M,M,M,M,M,M,M,M,M,91.08,KVGT 310653Z AUTO 33003KT 10SM CLR 34/11 A2991 RMK AO2 SLP111 T03440106,M
LOL,2023-07-31 06:53,-118.5701,40.0684,1192.43,68.00,28.00,22.23,100.00,4.00,0.00,30.08,1014.30,10.00,M,CLR,M,M,M,M,M,M,M,M,M,M,M,M,M,M,68.00,KLOL 310653Z AUTO 10004KT 10SM CLR 20/M02 A3008 RMK AO2 SLP143 T02001022,M
10U,2023-07-31 06:55,-116.1876,41.9532,1637.00,60.80,26.60,26.98,130.00,4.00,0.00,30.16,M,10.00,M,CLR,M,M,M,M,M,M,M,M,M,M,M,M,M,M,60.80,K10U 310655Z AUTO 13004KT 10SM CLR 16/M03 A3016 RMK AO2,M
LSV,2023-07-31 06:55,-115.0343,36.2362,570.00,93.20,51.80,24.63,40.00,5.00,0.00,29.86,1006.50,10.00,M,BKN,M,M,M,18000.00,M,M,M,M,M,M,M,M,M,M,90.45,KLSV 310655Z 04005KT 10SM BKN180 34/11 A2986 RMK A02A ALSTG ESTMD SLP065 RVRNO $,M
BVU,2023-07-31 06:55,-114.8611,35.9475,671.00,91.40,51.80,26.05,110.00,3.00,0.00,29.91,M,10.00,M,OVC,M,M,M,5000.00,M,M,M,M,M,M,M,M,M,M,88.69,KBVU 310655Z AUTO 11003KT 10SM OVC050 33/11 A2991 RMK AO2,M
CXP,2023-07-31 06:55,-119.7326,39.1923,1431.00,73.40,28.40,18.80,240.00,3.00,0.00,30.16,M,10.00,M,CLR,M,M,M,M,M,M,M,M,M,M,M,M,M,M,73.40,KCXP 310655Z AUTO 24003KT 10SM CLR 23/M02 A3016 RMK AO2,M
INS,2023-07-31 06:55,-115.6733,36.5872,955.00,88.00,48.00,25.17,100.00,13.00,0.00,29.97,1008.80,10.00,M,CLR,M,M,M,M,M,M,M,M,M,M,M,M,M,M,85.02,KINS 310655Z AUTO 10013KT 10SM CLR 31/09 A2997 RMK AO2 SLP088 T03120088 $,M
RNO,2023-07-31 06:55,-119.7711,39.4839,1341.00,76.00,33.00,20.77,300.00,9.00,0.00,30.13,1013.60,10.00,M,FEW,BKN,BKN,M,10000.00,18000.00,24000.00,M,M,M,M,M,M,M,M,76.00,KRNO 310655Z 30009KT 10SM FEW100 BKN180 BKN240 24/01 A3013 RMK AO2 SLP136 T02440006,M
RTS,2023-07-31 06:55,-119.8764,39.6682,1539.00,68.00,28.40,22.59,40.00,6.00,0.00,30.19,M,10.00,M,CLR,M,M,M,M,M,M,M,M,M,M,M,M,M,M,68.00,KRTS 310655Z AUTO 04006KT 10SM CLR 20/M02 A3019 RMK AO2,M
05U,2023-07-31 06:55,-116.0051,39.6042,1811.23,62.60,32.00,31.56,M,M,0.00,30.24,M,10.00,M,M,M,M,M,M,M,M,M,M,M,M,M,M,M,M,62.60,K05U 310655Z AUTO 10SM 17/M00 A3024 RMK A01,M
MEV,2023-07-31 06:55,-119.7500,38.9963,1441.42,68.00,30.20,24.32,0.00,0.00,0.00,30.15,M,10.00,M,CLR,M,M,M,M,M,M,M,M,M,M,M,M,M,M,68.00,KMEV 310655Z AUTO 00000KT 10SM CLR 20/M01 A3015 RMK AO2,M
HTH,2023-07-31 06:55,-118.6315,38.5448,1282.89,75.20,33.80,22.02,250.00,6.00,0.00,30.10,M,10.00,M,CLR,M,M,M,M,M,M,M,M,M,M,M,M,M,M,75.20,KHTH 310655Z AUTO 25006KT 10SM CLR 24/01 A3010 RMK A01,M
BAM,2023-07-31 06:55,-116.8743,40.5990,1382.36,64.40,24.80,22.06,160.00,5.00,0.00,30.12,M,10.00,M,CLR,M,M,M,M,M,M,M,M,M,M,M,M,M,M,64.40,KBAM 310655Z AUTO 16005KT 10SM CLR 18/M04 A3012 RMK AO1,M
TMT,2023-07-31 06:55,-117.1971,39.4643,1749.34,56.50,32.00,39.24,0.00,0.00,0.00,30.24,M,M,M,CLR,M,M,M,M,M,M,M,M,M,M,M,M,M,M,56.50,KTMT 310655Z AUTO 00000KT CLR 14/00 A3024 RMK AO2 T01360000 PWINO,M
EKO,2023-07-31 06:56,-115.7860,40.8242,1367.00,68.00,36.00,30.69,170.00,5.00,0.00,30.14,1014.00,10.00,M,CLR,M,M,M,M,M,M,M,M,M,M,M,M,M,M,68.00,KEKO 310656Z AUTO 17005KT 10SM CLR 20/02 A3014 RMK AO2 SLP140 T02000022,M
WMC,2023-07-31 06:56,-117.8072,40.9019,1315.00,76.00,25.00,14.97,280.00,9.00,0.00,30.10,1013.10,10.00,M,CLR,M,M,M,M,M,M,M,M,M,M,M,M,M,M,76.00,KWMC 310656Z AUTO 28009KT 10SM CLR 24/M04 A3010 RMK AO2 SLP131 T02441039,M
NFL,2023-07-31 06:56,-118.7010,39.4166,1199.00,73.00,32.00,22.06,350.00,3.00,0.00,30.08,1015.50,10.00,M,CLR,M,M,M,M,M,M,M,M,M,M,M,M,M,M,73.00,KNFL 310656Z AUTO 35003KT 10SM CLR 23/00 A3008 RMK AO2 SLP155 T02280000 $,M
HND,2023-07-31 06:56,-115.1344,35.9729,742.79,93.00,52.00,24.97,230.00,6.00,0.00,29.96,1012.10,10.00,M,CLR,M,M,M,M,M,M,M,M,M,M,M,M,M,M,90.29,KHND 310656Z 23006KT 10SM CLR 34/11 A2996 RMK AO2 SLP121 T03390111 404110289,M
TPH,2023-07-31 06:56,-117.0904,38.0505,1654.00,78.00,36.00,21.90,310.00,12.00,0.00,30.16,1011.50,10.00,M,CLR,M,M,M,M,M,M,M,M,M,M,M,M,M,M,78.00,KTPH 310656Z AUTO 31012KT 10SM CLR 26/02 A3016 RMK AO2 SLP115 T02560022,M
LAS,2023-07-31 06:56,-115.1634,36.0719,663.00,94.00,51.00,23.33,230.00,4.00,0.00,29.91,1009.30,10.00,M,SCT,BKN,M,M,16000.00,22000.00,M,M,M,M,M,M,M,M,M,91.08,KLAS 310656Z 23004KT 10SM SCT160 BKN220 34/11 A2991 RMK AO2 SLP093 T03440106,M
05U,2023-07-31 07:10,-116.0051,39.6042,1811.23,64.40,33.80,31.85,M,M,0.00,30.24,M,10.00,M,M,M,M,M,M,M,M,M,M,M,M,M,M,M,M,64.40,K05U 310710Z AUTO 10SM 18/01 A3024 RMK A01,M
BVU,2023-07-31 07:15,-114.8611,35.9475,671.00,91.40,48.20,22.78,140.00,5.00,0.00,29.91,M,10.00,M,OVC,M,M,M,5500.00,M,M,M,M,M,M,M,M,M,M,88.09,KBVU 310715Z AUTO 14005KT 10SM OVC055 33/09 A2991 RMK AO2,M
CXP,2023-07-31 07:15,-119.7326,39.1923,1431.00,71.60,28.40,19.98,260.00,4.00,0.00,30.16,M,10.00,M,CLR,M,M,M,M,M,M,M,M,M,M,M,M,M,M,71.60,KCXP 310715Z AUTO 26004KT 10SM CLR 22/M02 A3016 RMK AO2,M
RTS,2023-07-31 07:15,-119.8764,39.6682,1539.00,69.80,28.40,21.24,300.00,9.00,0.00,30.19,M,10.00,M,CLR,M,M,M,M,M,M,M,M,M,M,M,M,M,M,69.80,KRTS 310715Z AUTO 30009KT 10SM CLR 21/M02 A3019 RMK AO2,M
MEV,2023-07-31 07:15,-119.7500,38.9963,1441.42,66.20,32.00,27.83,200.00,4.00,0.00,30.15,M,10.00,M,CLR,M,M,M,M,M,M,M,M,M,M,M,M,M,M,66.20,KMEV 310715Z AUTO 20004KT 10SM CLR 19/M00 A3015 RMK AO2,M
HTH,2023-07-31 07:15,-118.6315,38.5448,1282.89,M,M,M,M,M,0.00,30.11,M,M,M,M,M,M,M,M,M,M,M,M,M,M,M,M,M,M,M,KHTH 310715Z AUTO A3011 RMK A01,M
TMT,2023-07-31 07:15,-117.1971,39.4643,1749.34,58.00,33.00,38.70,230.00,4.00,0.00,30.24,M,M,M,CLR,M,M,M,M,M,M,M,M,M,M,M,M,M,M,58.00,KTMT 310715Z AUTO 23004KT CLR 14/01 A3024 RMK AO2 T01440006 PWINO,M
10U,2023-07-31 07:15,-116.1876,41.9532,1637.00,60.80,26.60,26.98,130.00,6.00,0.00,30.16,M,10.00,M,CLR,M,M,M,M,M,M,M,M,M,M,M,M,M,M,60.80,K10U 310715Z AUTO 13006KT 10SM CLR 16/M03 A3016 RMK AO2,M
BAM,2023-07-31 07:15,-116.8743,40.5990,1382.36,64.40,24.80,22.06,0.00,0.00,0.00,30.12,M,10.00,M,CLR,M,M,M,M,M,M,M,M,M,M,M,M,M,M,64.40,KBAM 310715Z AUTO 00000KT 10SM CLR 18/M04 A3012 RMK AO1,M
BVU,2023-07-31 07:35,-114.8611,35.9475,671.00,91.40,48.20,22.78,0.00,0.00,0.00,29.91,M,10.00,M,OVC,M,M,M,5500.00,M,M,M,M,M,M,M,M,M,M,88.09,KBVU 310735Z AUTO 00000KT 10SM OVC055 33/09 A2991 RMK AO2,M
CXP,2023-07-31 07:35,-119.7326,39.1923,1431.00,69.80,28.40,21.24,0.00,0.00,0.00,30.16,M,10.00,M,CLR,M,M,M,M,M,M,M,M,M,M,M,M,M,M,69.80,KCXP 310735Z AUTO 00000KT 10SM CLR 21/M02 A3016 RMK AO2,M
RTS,2023-07-31 07:35,-119.8764,39.6682,1539.00,68.00,28.40,22.59,320.00,4.00,0.00,30.19,M,10.00,M,CLR,M,M,M,M,M,M,M,M,M,M,M,M,M,M,68.00,KRTS 310735Z AUTO 32004KT 10SM CLR 20/M02 A3019 RMK AO2,M
05U,2023-07-31 07:35,-116.0051,39.6042,1811.23,62.60,32.00,31.56,M,M,0.00,30.24,M,10.00,M,M,M,M,M,M,M,M,M,M,M,M,M,M,M,M,62.60,K05U 310735Z AUTO 10SM 17/00 A3024 RMK A01,M
MEV,2023-07-31 07:35,-119.7500,38.9963,1441.42,66.20,32.00,27.83,210.00,7.00,0.00,30.15,M,10.00,M,CLR,M,M,M,M,M,M,M,M,M,M,M,M,M,M,66.20,KMEV 310735Z AUTO 21007KT 10SM CLR 19/00 A3015 RMK AO2,M
HTH,2023-07-31 07:35,-118.6315,38.5448,1282.89,73.40,32.00,21.76,270.00,5.00,0.00,30.10,M,10.00,M,M,M,M,M,M,M,M,M,M,M,M,M,M,M,M,73.40,KHTH 310735Z AUTO 27005KT 10SM 23/00 A3010 RMK A01,M
10U,2023-07-31 07:35,-116.1876,41.9532,1637.00,62.60,26.60,25.32,120.00,8.00,0.00,30.16,M,10.00,M,CLR,M,M,M,M,M,M,M,M,M,M,M,M,M,M,62.60,K10U 310735Z AUTO 12008KT 10SM CLR 17/M03 A3016 RMK AO2,M
BAM,2023-07-31 07:35,-116.8743,40.5990,1382.36,64.40,24.80,22.06,180.00,4.00,0.00,30.12,M,10.00,M,CLR,M,M,M,M,M,M,M,M,M,M,M,M,M,M,64.40,KBAM 310735Z AUTO 18004KT 10SM CLR 18/M04 A3012 RMK AO1,M
TMT,2023-07-31 07:35,-117.1971,39.4643,1749.34,55.60,33.00,42.21,260.00,4.00,0.00,30.24,M,M,M,CLR,M,M,M,M,M,M,M,M,M,M,M,M,M,M,55.60,KTMT 310735Z AUTO 26004KT CLR 13/01 A3024 RMK AO2 T01310006 PWINO,M
05U,2023-07-31 07:50,-116.0051,39.6042,1811.23,59.00,33.80,38.56,M,M,0.00,30.24,M,10.00,M,M,M,M,M,M,M,M,M,M,M,M,M,M,M,M,59.00,K05U 310750Z AUTO 10SM 15/01 A3024 RMK A01,M
P68,2023-07-31 07:53,-116.0056,39.6014,1993.00,60.00,35.00,39.03,150.00,5.00,0.00,30.22,1014.10,M,M,M,M,M,M,M,M,M,M,M,M,M,M,M,M,M,60.00,KP68 310753Z AUTO 15005KT 16/02 A3022 RMK AO1 SLP141 T01560017 403440100,M
DRA,2023-07-31 07:53,-116.0278,36.6206,1009.00,88.00,46.00,23.34,160.00,9.00,0.00,29.99,1009.10,10.00,M,CLR,M,M,M,M,M,M,M,M,M,M,M,M,M,M,84.81,KDRA 310753Z AUTO 16009KT 110V200 10SM CLR 31/08 A2999 RMK AO2 SLP091 T03110078 404110244,M
ELY,2023-07-31 07:53,-114.8453,39.2950,1909.00,70.00,47.00,43.82,210.00,12.00,0.00,30.24,1011.60,10.00,19.00,CLR,M,M,M,M,M,M,M,M,M,M,M,M,M,M,70.00,KELY 310753Z AUTO 21012G19KT 10SM CLR 21/08 A3024 RMK AO2 SLP116 T02110083 403390111,M
VGT,2023-07-31 07:53,-115.1933,36.2111,667.00,92.00,52.00,25.76,360.00,3.00,0.00,29.91,1011.00,10.00,M,CLR,M,M,M,M,M,M,M,M,M,M,M,M,M,M,89.31,KVGT 310753Z AUTO 36003KT 10SM CLR 33/11 A2991 RMK AO2 SLP110 T03330111 404330306,M
LOL,2023-07-31 07:53,-118.5701,40.0684,1192.43,65.00,34.00,31.44,170.00,3.00,0.00,30.09,1014.40,10.00,M,CLR,M,M,M,M,M,M,M,M,M,M,M,M,M,M,65.00,KLOL 310753Z AUTO 17003KT 10SM CLR 18/01 A3009 RMK AO2 SLP144 T01830011 403500094,M
10U,2023-07-31 07:55,-116.1876,41.9532,1637.00,64.40,26.60,23.77,130.00,6.00,0.00,30.16,M,10.00,M,CLR,M,M,M,M,M,M,M,M,M,M,M,M,M,M,64.40,K10U 310755Z AUTO 13006KT 10SM CLR 18/M03 A3016 RMK AO2,M
LSV,2023-07-31 07:55,-115.0343,36.2362,570.00,93.20,51.80,24.63,30.00,10.00,0.00,29.86,1006.70,10.00,M,BKN,M,M,M,18000.00,M,M,M,M,M,M,M,M,M,M,90.45,KLSV 310755Z 03010KT 10SM BKN180 34/11 A2986 RMK A02A SLP067 ALSTG ESTMD 404280314 RVRNO $,M
BVU,2023-07-31 07:55,-114.8611,35.9475,671.00,87.80,53.60,31.17,0.00,0.00,0.00,29.91,M,10.00,M,BKN,M,M,M,5500.00,M,M,M,M,M,M,M,M,M,M,85.72,KBVU 310755Z AUTO 00000KT 10SM BKN055 31/12 A2991 RMK AO2,M
CXP,2023-07-31 07:55,-119.7326,39.1923,1431.00,69.80,28.40,21.24,310.00,4.00,0.00,30.15,M,10.00,M,CLR,M,M,M,M,M,M,M,M,M,M,M,M,M,M,69.80,KCXP 310755Z AUTO 31004KT 10SM CLR 21/M02 A3015 RMK AO2,M
INS,2023-07-31 07:55,-115.6733,36.5872,955.00,87.80,47.50,24.86,90.00,5.00,0.00,29.97,1008.80,10.00,M,BKN,M,M,M,19000.00,M,M,M,M,M,M,M,M,M,M,84.80,KINS 310755Z AUTO 09005KT 10SM BKN190 31/09 A2997 RMK AO2 SLP088 T03100086 403900244 $,M
RNO,2023-07-31 07:55,-119.7711,39.4839,1341.00,74.00,33.00,22.20,40.00,3.00,0.00,30.13,1013.60,10.00,M,FEW,BKN,BKN,M,10000.00,18000.00,24000.00,M,M,M,M,M,M,M,M,74.00,KRNO 310755Z 04003KT 10SM FEW100 BKN180 BKN240 23/01 A3013 RMK AO2 SLP136 T02330006 403610161,M
RTS,2023-07-31 07:55,-119.8764,39.6682,1539.00,64.40,28.40,25.60,320.00,5.00,0.00,30.18,M,10.00,M,CLR,M,M,M,M,M,M,M,M,M,M,M,M,M,M,64.40,KRTS 310755Z AUTO 32005KT 10SM CLR 18/M02 A3018 RMK AO2,M
MEV,2023-07-31 07:55,-119.7500,38.9963,1441.42,66.20,30.20,25.88,240.00,8.00,0.00,30.14,M,10.00,M,CLR,M,M,M,M,M,M,M,M,M,M,M,M,M,M,66.20,KMEV 310755Z AUTO 24008KT 10SM CLR 19/M01 A3014 RMK AO2,M
HTH,2023-07-31 07:55,-118.6315,38.5448,1282.89,73.40,32.00,21.76,110.00,4.00,0.00,30.11,M,10.00,M,CLR,M,M,M,M,M,M,M,M,M,M,M,M,M,M,73.40,KHTH 310755Z AUTO 11004KT 10SM CLR 23/00 A3011 RMK A01,M
BAM,2023-07-31 07:55,-116.8743,40.5990,1382.36,60.80,23.00,23.23,180.00,3.00,0.00,30.12,M,10.00,M,CLR,M,M,M,M,M,M,M,M,M,M,M,M,M,M,60.80,KBAM 310755Z AUTO 18003KT 10SM CLR 16/M05 A3012 RMK AO1,M
TMT,2023-07-31 07:55,-117.1971,39.4643,1749.34,55.60,35.00,45.72,230.00,3.00,0.00,30.24,M,M,M,CLR,M,M,M,M,M,M,M,M,M,M,M,M,M,M,55.60,KTMT 310755Z AUTO 23003KT CLR 13/02 A3024 RMK AO2 T01310016 403310051 PWINO,M
EKO,2023-07-31 07:56,-115.7860,40.8242,1367.00,61.00,39.00,44.10,0.00,0.00,0.00,30.13,1014.10,10.00,M,CLR,M,M,M,M,M,M,M,M,M,M,M,M,M,M,61.00,KEKO 310756Z AUTO 00000KT 10SM CLR 16/04 A3013 RMK AO2 SLP141 T01610039 403500139,M
WMC,2023-07-31 07:56,-117.8072,40.9019,1315.00,73.00,26.00,17.26,40.00,3.00,0.00,30.12,1014.00,10.00,M,CLR,M,M,M,M,M,M,M,M,M,M,M,M,M,M,73.00,KWMC 310756Z AUTO 04003KT 10SM CLR 23/M03 A3012 RMK AO2 SLP140 T02281033 403670128,M
NFL,2023-07-31 07:56,-118.7010,39.4166,1199.00,65.00,32.00,29.02,90.00,3.00,0.00,30.08,1015.40,10.00,M,CLR,M,M,M,M,M,M,M,M,M,M,M,M,M,M,65.00,KNFL 310756Z AUTO 09003KT 10SM CLR 18/00 A3008 RMK AO2 SLP154 T01830000 403610133 $,M
HND,2023-07-31 07:56,-115.1344,35.9729,742.79,89.00,52.00,28.30,180.00,5.00,0.00,29.96,1012.40,10.00,M,CLR,M,M,M,M,M,M,M,M,M,M,M,M,M,M,86.49,KHND 310756Z 18005KT 10SM CLR 32/11 A2996 RMK AO2 SLP124 T03170111,M
TPH,2023-07-31 07:56,-117.0904,38.0505,1654.00,76.00,34.00,21.62,300.00,14.00,0.00,30.16,1011.40,10.00,M,CLR,M,M,M,M,M,M,M,M,M,M,M,M,M,M,76.00,KTPH 310756Z AUTO 30014KT 10SM CLR 24/01 A3016 RMK AO2 SLP114 T02440011 403610183,M
LAS,2023-07-31 07:56,-115.1634,36.0719,663.00,92.00,52.00,25.76,0.00,0.00,0.00,29.91,1009.40,10.00,M,BKN,BKN,M,M,17000.00,22000.00,M,M,M,M,M,M,M,M,M,89.31,KLAS 310756Z 00000KT 10SM BKN170 BKN220 33/11 A2991 RMK AO2 SLP094 T03330111 404110311,M
BVU,2023-07-31 08:15,-114.8611,35.9475,671.00,87.80,53.60,31.17,50.00,4.00,0.00,29.92,M,10.00,M,SCT,M,M,M,5500.00,M,M,M,M,M,M,M,M,M,M,85.72,KBVU 310815Z AUTO 05004KT 10SM SCT055 31/12 A2992 RMK AO2,M
CXP,2023-07-31 08:15,-119.7326,39.1923,1431.00,68.00,28.40,22.59,90.00,5.00,0.00,30.15,M,10.00,M,CLR,M,M,M,M,M,M,M,M,M,M,M,M,M,M,68.00,KCXP 310815Z AUTO 09005KT 10SM CLR 20/M02 A3015 RMK AO2,M
RTS,2023-07-31 08:15,-119.8764,39.6682,1539.00,60.80,28.40,29.06,340.00,6.00,0.00,30.19,M,10.00,M,CLR,M,M,M,M,M,M,M,M,M,M,M,M,M,M,60.80,KRTS 310815Z AUTO 34006KT 10SM CLR 16/M02 A3019 RMK AO2,M
05U,2023-07-31 08:15,-116.0051,39.6042,1811.23,57.20,30.20,35.57,M,M,0.00,30.24,M,10.00,M,M,M,M,M,M,M,M,M,M,M,M,M,M,M,M,57.20,K05U 310815Z AUTO 10SM 14/M01 A3024 RMK A01,M
MEV,2023-07-31 08:15,-119.7500,38.9963,1441.42,64.40,33.80,31.85,200.00,4.00,0.00,30.14,M,10.00,M,CLR,M,M,M,M,M,M,M,M,M,M,M,M,M,M,64.40,KMEV 310815Z AUTO 20004KT 10SM CLR 18/01 A3014 RMK AO2,M
HTH,2023-07-31 08:15,-118.6315,38.5448,1282.89,71.60,32.00,23.13,140.00,5.00,0.00,30.12,M,10.00,M,CLR,M,M,M,M,M,M,M,M,M,M,M,M,M,M,71.60,KHTH 310815Z AUTO 14005KT 10SM CLR 22/M00 A3012 RMK A01,M
10U,2023-07-31 08:15,-116.1876,41.9532,1637.00,64.40,26.60,23.77,150.00,7.00,0.00,30.16,M,10.00,M,CLR,M,M,M,M,M,M,M,M,M,M,M,M,M,M,64.40,K10U 310815Z AUTO 15007KT 10SM CLR 18/M03 A3016 RMK AO2,M
BAM,2023-07-31 08:15,-116.8743,40.5990,1382.36,62.60,24.80,23.50,250.00,3.00,0.00,30.13,M,10.00,M,CLR,M,M,M,M,M,M,M,M,M,M,M,M,M,M,62.60,KBAM 310815Z AUTO 25003KT 10SM CLR 17/M04 A3013 RMK AO1,M
TMT,2023-07-31 08:15,-117.1971,39.4643,1749.34,52.50,32.00,45.41,240.00,4.00,0.00,30.24,M,M,M,CLR,M,M,M,M,M,M,M,M,M,M,M,M,M,M,52.50,KTMT 310815Z AUTO 24004KT CLR 11/00 A3024 RMK AO2 T01140000 PWINO,M
05U,2023-07-31 08:30,-116.0051,39.6042,1811.23,57.20,32.00,38.26,M,M,0.00,30.23,M,10.00,M,M,M,M,M,M,M,M,M,M,M,M,M,M,M,M,57.20,K05U 310830Z AUTO 10SM 14/M00 A3023 RMK A01,M
HTH,2023-07-31 08:30,-118.6315,38.5448,1282.89,71.60,32.00,23.13,140.00,6.00,0.00,30.12,M,10.00,M,CLR,M,M,M,M,M,M,M,M,M,M,M,M,M,M,71.60,KHTH 310830Z AUTO 14006KT 10SM CLR 22/M00 A3012 RMK A01,M
BVU,2023-07-31 08:35,-114.8611,35.9475,671.00,87.80,53.60,31.17,60.00,7.00,0.00,29.92,M,10.00,M,FEW,FEW,M,M,4700.00,5500.00,M,M,M,M,M,M,M,M,M,85.72,KBVU 310835Z AUTO 06007KT 10SM FEW047 FEW055 31/12 A2992 RMK AO2,M
CXP,2023-07-31 08:35,-119.7326,39.1923,1431.00,68.00,26.60,20.98,M,3.00,0.00,30.16,M,10.00,M,CLR,M,M,M,M,M,M,M,M,M,M,M,M,M,M,68.00,KCXP 310835Z AUTO VRB03KT 10SM CLR 20/M03 A3016 RMK AO2,M
RTS,2023-07-31 08:35,-119.8764,39.6682,1539.00,60.80,28.40,29.06,350.00,8.00,0.00,30.19,M,10.00,M,CLR,M,M,M,M,M,M,M,M,M,M,M,M,M,M,60.80,KRTS 310835Z AUTO 35008KT 10SM CLR 16/M02 A3019 RMK AO2,M
MEV,2023-07-31 08:35,-119.7500,38.9963,1441.42,60.80,32.00,33.64,70.00,6.00,0.00,30.14,M,10.00,M,CLR,M,M,M,M,M,M,M,M,M,M,M,M,M,M,60.80,KMEV 310835Z AUTO 07006KT 10SM CLR 16/00 A3014 RMK AO2,M
TMT,2023-07-31 08:35,-117.1971,39.4643,1749.34,55.60,32.00,40.54,220.00,7.00,0.00,30.24,M,M,M,CLR,M,M,M,M,M,M,M,M,M,M,M,M,M,M,55.60,KTMT 310835Z AUTO 22007KT CLR 13/00 A3024 RMK AO2 T01311001 PWINO,M
10U,2023-07-31 08:35,-116.1876,41.9532,1637.00,62.60,26.60,25.32,160.00,6.00,0.00,30.16,M,10.00,M,CLR,M,M,M,M,M,M,M,M,M,M,M,M,M,M,62.60,K10U 310835Z AUTO 16006KT 10SM CLR 17/M03 A3016 RMK AO2,M
BAM,2023-07-31 08:35,-116.8743,40.5990,1382.36,66.20,26.60,22.33,0.00,0.00,0.00,30.13,M,10.00,M,CLR,M,M,M,M,M,M,M,M,M,M,M,M,M,M,66.20,KBAM 310835Z AUTO 00000KT 10SM CLR 19/M03 A3013 RMK AO1,M
P68,2023-07-31 08:53,-116.0056,39.6014,1993.00,58.00,30.00,34.28,200.00,6.00,0.00,30.21,1013.80,M,M,M,M,M,M,M,M,M,M,M,M,M,M,M,M,M,58.00,KP68 310853Z AUTO 20006KT 14/M01 A3021 RMK AO1 SLP138 T01441011 50002,M
DRA,2023-07-31 08:53,-116.0278,36.6206,1009.00,84.00,45.00,25.54,100.00,7.00,0.00,29.98,1009.10,10.00,M,CLR,M,M,M,M,M,M,M,M,M,M,M,M,M,M,81.61,KDRA 310853Z AUTO 10007KT 10SM CLR 29/07 A2998 RMK AO2 SLP091 T02890072 50002,M
ELY,2023-07-31 08:53,-114.8453,39.2950,1909.00,67.00,47.00,48.58,200.00,11.00,0.00,30.24,1011.90,10.00,M,CLR,M,M,M,M,M,M,M,M,M,M,M,M,M,M,67.00,KELY 310853Z AUTO 20011KT 10SM CLR 19/08 A3024 RMK AO2 SLP119 T01940083 50001,M
VGT,2023-07-31 08:53,-115.1933,36.2111,667.00,92.00,53.00,26.72,60.00,5.00,0.00,29.91,1011.10,10.00,M,CLR,M,M,M,M,M,M,M,M,M,M,M,M,M,M,89.53,KVGT 310853Z AUTO 06005KT 10SM CLR 33/12 A2991 RMK AO2 SLP111 T03330117 51003,M
LOL,2023-07-31 08:53,-118.5701,40.0684,1192.43,61.00,35.00,37.66,0.00,0.00,0.00,30.09,1014.60,10.00,M,CLR,M,M,M,M,M,M,M,M,M,M,M,M,M,M,61.00,KLOL 310853Z AUTO 00000KT 10SM CLR 16/02 A3009 RMK AO2 SLP146 T01610017 51005,M
10U,2023-07-31 08:55,-116.1876,41.9532,1637.00,62.60,23.00,21.79,170.00,6.00,0.00,30.15,M,10.00,M,CLR,M,M,M,M,M,M,M,M,M,M,M,M,M,M,62.60,K10U 310855Z AUTO 17006KT 10SM CLR 17/M05 A3015 RMK AO2,M
LSV,2023-07-31 08:55,-115.0343,36.2362,570.00,91.40,51.80,26.05,10.00,7.00,0.00,29.86,1007.20,10.00,M,BKN,M,M,M,18000.00,M,M,M,M,M,M,M,M,M,M,88.69,KLSV 310855Z 01007KT 10SM BKN180 33/11 A2986 RMK AO2A SLP072 ALSTG ESTMD RVRNO $,M
BVU,2023-07-31 08:55,-114.8611,35.9475,671.00,89.60,51.80,27.56,40.00,6.00,0.00,29.92,M,10.00,M,CLR,M,M,M,M,M,M,M,M,M,M,M,M,M,M,87.00,KBVU 310855Z AUTO 04006KT 10SM CLR 32/11 A2992 RMK AO2,M
CXP,2023-07-31 08:55,-119.7326,39.1923,1431.00,69.80,26.60,19.72,M,5.00,0.00,30.16,M,10.00,M,CLR,M,M,M,M,M,M,M,M,M,M,M,M,M,M,69.80,KCXP 310855Z AUTO VRB05KT 10SM CLR 21/M03 A3016 RMK AO2,M
INS,2023-07-31 08:55,-115.6733,36.5872,955.00,83.50,45.00,25.95,190.00,4.00,0.00,29.98,1009.30,10.00,M,OVC,M,M,M,19000.00,M,M,M,M,M,M,M,M,M,M,81.26,KINS 310855Z AUTO 19004KT 10SM OVC190 29/07 A2998 RMK AO2 SLP093 T02860072 53003 $,M
RNO,2023-07-31 08:55,-119.7711,39.4839,1341.00,71.00,32.00,23.60,10.00,5.00,0.00,30.13,1014.00,10.00,M,SCT,BKN,M,M,18000.00,24000.00,M,M,M,M,M,M,M,M,M,71.00,KRNO 310855Z 01005KT 10SM SCT180 BKN240 22/00 A3013 RMK AO2 SLP140 T02170000 53001,M
RTS,2023-07-31 08:55,-119.8764,39.6682,1539.00,60.80,28.40,29.06,350.00,5.00,0.00,30.19,M,10.00,M,CLR,M,M,M,M,M,M,M,M,M,M,M,M,M,M,60.80,KRTS 310855Z AUTO 35005KT 10SM CLR 16/M02 A3019 RMK AO2,M
05U,2023-07-31 08:55,-116.0051,39.6042,1811.23,57.20,30.20,35.57,M,M,0.00,30.23,M,10.00,M,M,M,M,M,M,M,M,M,M,M,M,M,M,M,M,57.20,K05U 310855Z AUTO 10SM 14/M01 A3023 RMK A01,M
MEV,2023-07-31 08:55,-119.7500,38.9963,1441.42,64.40,32.00,29.63,90.00,7.00,0.00,30.14,M,10.00,M,CLR,M,M,M,M,M,M,M,M,M,M,M,M,M,M,64.40,KMEV 310855Z AUTO 09007KT 10SM CLR 18/00 A3014 RMK AO2,M
HTH,2023-07-31 08:55,-118.6315,38.5448,1282.89,73.40,32.00,21.76,0.00,0.00,0.00,30.11,M,10.00,M,CLR,M,M,M,M,M,M,M,M,M,M,M,M,M,M,73.40,KHTH 310855Z AUTO 00000KT 10SM CLR 23/00 A3011 RMK A01,M
TMT,2023-07-31 08:55,-117.1971,39.4643,1749.34,51.00,30.60,45.35,210.00,5.00,0.00,30.24,M,M,M,CLR,M,M,M,M,M,M,M,M,M,M,M,M,M,M,51.00,KTMT 310855Z AUTO 21005KT CLR 11/M01 A3024 RMK AO2 T01061008 PWINO,M
BAM,2023-07-31 08:55,-116.8743,40.5990,1382.36,59.00,23.00,24.76,150.00,3.00,0.00,30.13,M,10.00,M,CLR,M,M,M,M,M,M,M,M,M,M,M,M,M,M,59.00,KBAM 310855Z AUTO 15003KT 10SM CLR 15/M05 A3013 RMK AO1,M
EKO,2023-07-31 08:56,-115.7860,40.8242,1367.00,63.00,36.00,36.52,0.00,0.00,0.00,30.13,1013.90,10.00,M,CLR,M,M,M,M,M,M,M,M,M,M,M,M,M,M,63.00,KEKO 310856Z AUTO 00000KT 10SM CLR 17/02 A3013 RMK AO2 SLP139 T01720022 50002,M
WMC,2023-07-31 08:56,-117.8072,40.9019,1315.00,65.00,30.00,26.76,70.00,4.00,0.00,30.11,1014.10,10.00,M,CLR,M,M,M,M,M,M,M,M,M,M,M,M,M,M,65.00,KWMC 310856Z AUTO 07004KT 10SM CLR 18/M01 A3011 RMK AO2 SLP141 T01831011 50007,M
NFL,2023-07-31 08:56,-118.7010,39.4166,1199.00,70.00,31.00,23.45,200.00,5.00,0.00,30.09,1015.50,10.00,M,CLR,M,M,M,M,M,M,M,M,M,M,M,M,M,M,70.00,KNFL 310856Z AUTO 20005KT 10SM CLR 21/M01 A3009 RMK AO2 SLP155 T02111006 51002 $,M
HND,2023-07-31 08:56,-115.1344,35.9729,742.79,88.00,53.00,30.30,140.00,4.00,0.00,29.97,1012.70,10.00,M,CLR,M,M,M,M,M,M,M,M,M,M,M,M,M,M,85.78,KHND 310856Z 14004KT 10SM CLR 31/12 A2997 RMK AO2 SLP127 T03110117 51006,M
TPH,2023-07-31 08:56,-117.0904,38.0505,1654.00,73.00,32.00,22.06,350.00,4.00,0.00,30.17,1011.70,10.00,M,CLR,M,M,M,M,M,M,M,M,M,M,M,M,M,M,73.00,KTPH 310856Z AUTO 35004KT 10SM CLR 23/00 A3017 RMK AO2 SLP117 T02280000 52005,M
LAS,2023-07-31 08:56,-115.1634,36.0719,663.00,91.00,53.00,27.57,270.00,3.00,0.00,29.92,1009.70,10.00,M,BKN,BKN,M,M,18000.00,22000.00,M,M,M,M,M,M,M,M,M,88.55,KLAS 310856Z 27003KT 10SM BKN180 BKN220 33/12 A2992 RMK AO2 SLP097 T03280117 53005,M
05U,2023-07-31 09:10,-116.0051,39.6042,1811.23,57.20,28.40,33.05,M,M,0.00,30.23,M,10.00,M,M,M,M,M,M,M,M,M,M,M,M,M,M,M,M,57.20,K05U 310910Z AUTO 10SM 14/M02 A3023 RMK A01,M
BVU,2023-07-31 09:15,-114.8611,35.9475,671.00,89.60,53.60,29.45,50.00,6.00,0.00,29.92,M,10.00,M,CLR,M,M,M,M,M,M,M,M,M,M,M,M,M,M,87.36,KBVU 310915Z AUTO 05006KT 10SM CLR 32/12 A2992 RMK AO2,M
CXP,2023-07-31 09:15,-119.7326,39.1923,1431.00,68.00,26.60,20.98,90.00,5.00,0.00,30.16,M,10.00,M,CLR,M,M,M,M,M,M,M,M,M,M,M,M,M,M,68.00,KCXP 310915Z AUTO 09005KT 10SM CLR 20/M03 A3016 RMK AO2,M
RTS,2023-07-31 09:15,-119.8764,39.6682,1539.00,59.00,28.40,30.98,320.00,4.00,0.00,30.19,M,10.00,M,CLR,M,M,M,M,M,M,M,M,M,M,M,M,M,M,59.00,KRTS 310915Z AUTO 32004KT 10SM CLR 15/M02 A3019 RMK AO2,M
MEV,2023-07-31 09:15,-119.7500,38.9963,1441.42,66.20,28.40,24.04,80.00,10.00,0.00,30.14,M,10.00,M,CLR,M,M,M,M,M,M,M,M,M,M,M,M,M,M,66.20,KMEV 310915Z AUTO 08010KT 10SM CLR 19/M02 A3014 RMK AO2,M
HTH,2023-07-31 09:15,-118.6315,38.5448,1282.89,71.60,33.80,24.86,110.00,4.00,0.00,30.12,M,10.00,M,CLR,M,M,M,M,M,M,M,M,M,M,M,M,M,M,71.60,KHTH 310915Z AUTO 11004KT 10SM CLR 22/01 A3012 RMK A01,M
TMT,2023-07-31 09:15,-117.1971,39.4643,1749.34,52.50,31.00,43.61,210.00,4.00,0.00,30.24,M,M,M,CLR,M,M,M,M,M,M,M,M,M,M,M,M,M,M,52.50,KTMT 310915Z AUTO 21004KT CLR 11/00 A3024 RMK AO2 T01141005 PWINO,M
10U,2023-07-31 09:15,-116.1876,41.9532,1637.00,60.80,21.20,21.53,160.00,6.00,0.00,30.15,M,10.00,M,CLR,M,M,M,M,M,M,M,M,M,M,M,M,M,M,60.80,K10U 310915Z AUTO 16006KT 10SM CLR 16/M06 A3015 RMK AO2,M
BAM,2023-07-31 09:15,-116.8743,40.5990,1382.36,62.60,23.00,21.79,170.00,6.00,0.00,30.13,M,10.00,M,CLR,M,M,M,M,M,M,M,M,M,M,M,M,M,M,62.60,KBAM 310915Z AUTO 17006KT 10SM CLR 17/M05 A3013 RMK AO1,M
05U,2023-07-31 09:30,-116.0051,39.6042,1811.23,59.00,28.40,30.98,M,M,0.00,30.23,M,10.00,M,M,M,M,M,M,M,M,M,M,M,M,M,M,M,M,59.00,K05U 310930Z AUTO 10SM 15/M02 A3023 RMK A01,M
BVU,2023-07-31 09:35,-114.8611,35.9475,671.00,87.80,53.60,31.17,40.00,7.00,0.00,29.92,M,10.00,M,CLR,M,M,M,M,M,M,M,M,M,M,M,M,M,M,85.72,KBVU 310935Z AUTO 04007KT 10SM CLR 31/12 A2992 RMK AO2,M
CXP,2023-07-31 09:35,-119.7326,39.1923,1431.00,66.20,26.60,22.33,0.00,0.00,0.00,30.16,M,10.00,M,CLR,M,M,M,M,M,M,M,M,M,M,M,M,M,M,66.20,KCXP 310935Z AUTO 00000KT 10SM CLR 19/M03 A3016 RMK AO2,M
RTS,2023-07-31 09:35,-119.8764,39.6682,1539.00,60.80,30.20,31.28,340.00,4.00,0.00,30.19,M,10.00,M,CLR,M,M,M,M,M,M,M,M,M,M,M,M,M,M,60.80,KRTS 310935Z AUTO 34004KT 10SM CLR 16/M01 A3019 RMK AO2,M
MEV,2023-07-31 09:35,-119.7500,38.9963,1441.42,68.00,26.60,20.98,130.00,8.00,0.00,30.14,M,10.00,M,CLR,M,M,M,M,M,M,M,M,M,M,M,M,M,M,68.00,KMEV 310935Z AUTO 13008KT 10SM CLR 20/M03 A3014 RMK AO2,M
HTH,2023-07-31 09:35,-118.6315,38.5448,1282.89,69.80,32.00,24.59,130.00,4.00,0.00,30.12,M,10.00,M,CLR,M,M,M,M,M,M,M,M,M,M,M,M,M,M,69.80,KHTH 310935Z AUTO 13004KT 10SM CLR 21/M00 A3012 RMK A01,M
TMT,2023-07-31 09:35,-117.1971,39.4643,1749.34,50.70,30.40,45.49,0.00,0.00,0.00,30.24,M,M,M,CLR,M,M,M,M,M,M,M,M,M,M,M,M,M,M,50.70,KTMT 310935Z AUTO 00000KT CLR 10/M01 A3024 RMK AO2 T01041009 PWINO,M
10U,2023-07-31 09:35,-116.1876,41.9532,1637.00,60.80,24.80,25.04,140.00,6.00,0.00,30.15,M,10.00,M,CLR,M,M,M,M,M,M,M,M,M,M,M,M,M,M,60.80,K10U 310935Z AUTO 14006KT 10SM CLR 16/M04 A3015 RMK AO2,M
BAM,2023-07-31 09:35,-116.8743,40.5990,1382.36,60.80,23.00,23.23,180.00,4.00,0.00,30.13,M,10.00,M,CLR,M,M,M,M,M,M,M,M,M,M,M,M,M,M,60.80,KBAM 310935Z AUTO 18004KT 10SM CLR 16/M05 A3013 RMK AO1,M
05U,2023-07-31 09:50,-116.0051,39.6042,1811.23,57.20,30.20,35.57,M,M,0.00,30.24,M,10.00,M,M,M,M,M,M,M,M,M,M,M,M,M,M,M,M,57.20,K05U 310950Z AUTO 10SM 14/M01 A3024 RMK A01,M
P68,2023-07-31 09:53,-116.0056,39.6014,1993.00,85.00,69.00,38.38,310.00,956.00,T,29.88,1013.20,0.75,M,M,M,M,M,M,M,M,M,M,M,M,M,51.00,130.00,2023-07-31 09:03,56.00,KP68 310953Z AUTO NO CARRIER RING CONNECT 1200 LAXMTRNJK ALL TTAA00 KNJK 310956 METAR KNJK 310956Z AUTO 14030G42KT 8SM -RA FEW010 BKN110 29/21 A2988 RMK AO2 PK WND 13051/0903 SLP132 P0000 T02940206 $,M
DRA,2023-07-31 09:53,-116.0278,36.6206,1009.00,85.00,46.00,25.69,50.00,6.00,0.00,29.98,1008.90,10.00,M,CLR,M,M,M,M,M,M,M,M,M,M,M,M,M,M,82.42,KDRA 310953Z AUTO 05006KT 10SM CLR 29/08 A2998 RMK AO2 SLP089 T02940078,M
ELY,2023-07-31 09:53,-114.8453,39.2950,1909.00,67.00,47.00,48.58,200.00,10.00,0.00,30.23,1011.60,10.00,M,CLR,M,M,M,M,M,M,M,M,M,M,M,M,M,M,67.00,KELY 310953Z AUTO 20010KT 10SM CLR 19/08 A3023 RMK AO2 SLP116 T01940083,M
VGT,2023-07-31 09:53,-115.1933,36.2111,667.00,92.00,53.00,26.72,0.00,0.00,0.00,29.91,1011.20,10.00,M,CLR,M,M,M,M,M,M,M,M,M,M,M,M,M,M,89.53,KVGT 310953Z AUTO 00000KT 10SM CLR 33/12 A2991 RMK AO2 SLP112 T03330117,M
LOL,2023-07-31 09:53,-118.5701,40.0684,1192.43,59.00,32.00,35.87,0.00,0.00,0.00,30.09,1014.80,10.00,M,CLR,M,M,M,M,M,M,M,M,M,M,M,M,M,M,59.00,KLOL 310953Z AUTO 00000KT 10SM CLR 15/00 A3009 RMK AO2 SLP148 T01500000,M
10U,2023-07-31 09:55,-116.1876,41.9532,1637.00,57.20,24.80,28.48,140.00,8.00,0.00,30.15,M,10.00,M,CLR,M,M,M,M,M,M,M,M,M,M,M,M,M,M,57.20,K10U 310955Z AUTO 14008KT 10SM CLR 14/M04 A3015 RMK AO2,M
BVU,2023-07-31 09:55,-114.8611,35.9475,671.00,87.80,53.60,31.17,60.00,7.00,0.00,29.92,M,10.00,M,FEW,M,M,M,4700.00,M,M,M,M,M,M,M,M,M,M,85.72,KBVU 310955Z AUTO 06007KT 10SM FEW047 31/12 A2992 RMK AO2,M
CXP,2023-07-31 09:55,-119.7326,39.1923,1431.00,64.40,28.40,25.60,0.00,0.00,0.00,30.16,M,10.00,M,CLR,M,M,M,M,M,M,M,M,M,M,M,M,M,M,64.40,KCXP 310955Z AUTO 00000KT 10SM CLR 18/M02 A3016 RMK AO2,M
INS,2023-07-31 09:55,-115.6733,36.5872,955.00,83.00,46.60,28.02,0.00,0.00,0.00,29.97,1009.30,10.00,M,OVC,M,M,M,18000.00,M,M,M,M,M,M,M,M,M,M,81.05,KINS 310955Z AUTO 00000KT 10SM OVC180 28/08 A2997 RMK AO2 SLP093 T02840081 $,M
RNO,2023-07-31 09:55,-119.7711,39.4839,1341.00,71.00,32.00,23.60,0.00,0.00,0.00,30.14,1014.00,10.00,M,FEW,SCT,M,M,12000.00,24000.00,M,M,M,M,M,M,M,M,M,71.00,KRNO 310955Z 00000KT 10SM FEW120 SCT240 22/00 A3014 RMK AO2 SLP140 T02170000,M
LSV,2023-07-31 09:55,-115.0343,36.2362,570.00,91.40,51.80,26.05,20.00,13.00,0.00,29.86,1007.10,10.00,M,BKN,M,M,M,16000.00,M,M,M,M,M,M,M,M,M,M,88.69,KLSV 310955Z 02013KT 10SM BKN160 33/11 A2986 RMK A02A SLP071 ALSTG ESTMD RVRNO $,M
RTS,2023-07-31 09:55,-119.8764,39.6682,1539.00,57.20,28.40,33.05,80.00,5.00,0.00,30.19,M,10.00,M,CLR,M,M,M,M,M,M,M,M,M,M,M,M,M,M,57.20,KRTS 310955Z AUTO 08005KT 10SM CLR 14/M02 A3019 RMK AO2,M
MEV,2023-07-31 09:55,-119.7500,38.9963,1441.42,66.20,30.20,25.88,100.00,4.00,0.00,30.15,M,10.00,M,CLR,M,M,M,M,M,M,M,M,M,M,M,M,M,M,66.20,KMEV 310955Z AUTO 10004KT 10SM CLR 19/M01 A3015 RMK AO2,M
HTH,2023-07-31 09:55,-118.6315,38.5448,1282.89,73.40,32.00,21.76,0.00,0.00,0.00,30.12,M,10.00,M,CLR,M,M,M,M,M,M,M,M,M,M,M,M,M,M,73.40,KHTH 310955Z AUTO 00000KT 10SM CLR 23/00 A3012 RMK A01,M
TMT,2023-07-31 09:55,-117.1971,39.4643,1749.34,52.00,30.70,43.88,250.00,3.00,0.00,30.24,M,M,M,CLR,M,M,M,M,M,M,M,M,M,M,M,M,M,M,52.00,KTMT 310955Z AUTO 25003KT CLR 11/M01 A3024 RMK AO2 T01121007 PWINO,M
BAM,2023-07-31 09:55,-116.8743,40.5990,1382.36,59.00,23.00,24.76,160.00,5.00,0.00,30.13,M,10.00,M,CLR,M,M,M,M,M,M,M,M,M,M,M,M,M,M,59.00,KBAM 310955Z AUTO 16005KT 10SM CLR 15/M05 A3013 RMK AO1,M
EKO,2023-07-31 09:56,-115.7860,40.8242,1367.00,62.00,35.00,36.35,0.00,0.00,0.00,30.14,1014.20,10.00,M,CLR,M,M,M,M,M,M,M,M,M,M,M,M,M,M,62.00,KEKO 310956Z AUTO 00000KT 10SM CLR 17/02 A3014 RMK AO2 SLP142 T01670017,M
WMC,2023-07-31 09:56,-117.8072,40.9019,1315.00,59.00,24.00,25.82,0.00,0.00,0.00,30.11,1014.40,10.00,M,CLR,M,M,M,M,M,M,M,M,M,M,M,M,M,M,59.00,KWMC 310956Z AUTO 00000KT 10SM CLR 15/M04 A3011 RMK AO2 SLP144 T01501044,M
NFL,2023-07-31 09:56,-118.7010,39.4166,1199.00,66.00,33.00,29.18,240.00,3.00,0.00,30.09,1015.60,10.00,M,CLR,M,M,M,M,M,M,M,M,M,M,M,M,M,M,66.00,KNFL 310956Z AUTO 24003KT 10SM CLR 19/01 A3009 RMK AO2 SLP156 T01890006 $,M
HND,2023-07-31 09:56,-115.1344,35.9729,742.79,88.00,53.00,30.30,0.00,0.00,0.00,29.96,1012.60,10.00,M,CLR,M,M,M,M,M,M,M,M,M,M,M,M,M,M,85.78,KHND 310956Z 00000KT 10SM CLR 31/12 A2996 RMK AO2 SLP126 T03110117,M
TPH,2023-07-31 09:56,-117.0904,38.0505,1654.00,69.00,29.00,22.37,360.00,5.00,0.00,30.17,1012.20,10.00,M,CLR,M,M,M,M,M,M,M,M,M,M,M,M,M,M,69.00,KTPH 310956Z AUTO 36005KT 10SM CLR 21/M02 A3017 RMK AO2 SLP122 T02061017,M
LAS,2023-07-31 09:56,-115.1634,36.0719,663.00,90.00,52.00,27.42,200.00,3.00,0.00,29.91,1009.70,10.00,M,OVC,M,M,M,17000.00,M,M,M,M,M,M,M,M,M,M,87.40,KLAS 310956Z 20003KT 10SM OVC170 32/11 A2991 RMK AO2 SLP097 T03220111,M
05U,2023-07-31 10:10,-116.0051,39.6042,1811.23,57.20,32.00,38.26,M,M,0.00,30.24,M,10.00,M,M,M,M,M,M,M,M,M,M,M,M,M,M,M,M,57.20,K05U 311010Z AUTO 10SM 14/M00 A3024 RMK A01,M
BVU,2023-07-31 10:15,-114.8611,35.9475,671.00,87.80,51.80,29.18,60.00,8.00,0.00,29.91,M,10.00,M,FEW,M,M,M,4700.00,M,M,M,M,M,M,M,M,M,M,85.39,KBVU 311015Z AUTO 06008KT 10SM FEW047 31/11 A2991 RMK AO2,M
CXP,2023-07-31 10:15,-119.7326,39.1923,1431.00,64.40,28.40,25.60,0.00,0.00,0.00,30.17,M,10.00,M,CLR,M,M,M,M,M,M,M,M,M,M,M,M,M,M,64.40,KCXP 311015Z AUTO 00000KT 10SM CLR 18/M02 A3017 RMK AO2,M
RTS,2023-07-31 10:15,-119.8764,39.6682,1539.00,60.80,30.20,31.28,30.00,4.00,0.00,30.19,M,10.00,M,CLR,M,M,M,M,M,M,M,M,M,M,M,M,M,M,60.80,KRTS 311015Z AUTO 03004KT 10SM CLR 16/M01 A3019 RMK AO2,M
MEV,2023-07-31 10:15,-119.7500,38.9963,1441.42,64.40,30.20,27.55,120.00,3.00,0.00,30.15,M,10.00,M,CLR,M,M,M,M,M,M,M,M,M,M,M,M,M,M,64.40,KMEV 311015Z AUTO 12003KT 10SM CLR 18/M01 A3015 RMK AO2,M
HTH,2023-07-31 10:15,-118.6315,38.5448,1282.89,71.60,33.80,24.86,0.00,0.00,0.00,30.12,M,10.00,M,CLR,M,M,M,M,M,M,M,M,M,M,M,M,M,M,71.60,KHTH 311015Z AUTO 00000KT 10SM CLR 22/01 A3012 RMK A01,M
TMT,2023-07-31 10:15,-117.1971,39.4643,1749.34,50.40,35.00,55.33,270.00,5.00,0.00,30.24,M,M,M,CLR,M,M,M,M,M,M,M,M,M,M,M,M,M,M,50.40,KTMT 311015Z AUTO 27005KT CLR 10/02 A3024 RMK AO2 T01020017 PWINO,M
10U,2023-07-31 10:15,-116.1876,41.9532,1637.00,57.20,26.60,30.69,150.00,6.00,0.00,30.15,M,10.00,M,CLR,M,M,M,M,M,M,M,M,M,M,M,M,M,M,57.20,K10U 311015Z AUTO 15006KT 10SM CLR 14/M03 A3015 RMK AO2,M
BAM,2023-07-31 10:15,-116.8743,40.5990,1382.36,60.80,24.80,25.04,180.00,3.00,0.00,30.13,M,10.00,M,CLR,M,M,M,M,M,M,M,M,M,M,M,M,M,M,60.80,KBAM 311015Z AUTO 18003KT 10SM CLR 16/M04 A3013 RMK AO1,M
BVU,2023-07-31 10:35,-114.8611,35.9475,671.00,86.00,53.60,33.01,50.00,6.00,0.00,29.91,M,10.00,M,CLR,M,M,M,M,M,M,M,M,M,M,M,M,M,M,84.18,KBVU 311035Z AUTO 05006KT 10SM CLR 30/12 A2991 RMK AO2,M
CXP,2023-07-31 10:35,-119.7326,39.1923,1431.00,66.20,28.40,24.04,0.00,0.00,0.00,30.17,M,10.00,M,CLR,M,M,M,M,M,M,M,M,M,M,M,M,M,M,66.20,KCXP 311035Z AUTO 00000KT 10SM CLR 19/M02 A3017 RMK AO2,M
RTS,2023-07-31 10:35,-119.8764,39.6682,1539.00,59.00,30.20,33.35,10.00,5.00,0.00,30.20,M,10.00,M,CLR,M,M,M,M,M,M,M,M,M,M,M,M,M,M,59.00,KRTS 311035Z AUTO 01005KT 10SM CLR 15/M01 A3020 RMK AO2,M
05U,2023-07-31 10:35,-116.0051,39.6042,1811.23,55.40,28.40,35.28,M,M,0.00,30.24,M,10.00,M,M,M,M,M,M,M,M,M,M,M,M,M,M,M,M,55.40,K05U 311035Z AUTO 10SM 13/M02 A3024 RMK A01,M
MEV,2023-07-31 10:35,-119.7500,38.9963,1441.42,64.40,30.20,27.55,110.00,4.00,0.00,30.15,M,10.00,M,CLR,M,M,M,M,M,M,M,M,M,M,M,M,M,M,64.40,KMEV 311035Z AUTO 11004KT 10SM CLR 18/M01 A3015 RMK AO2,M
HTH,2023-07-31 10:35,-118.6315,38.5448,1282.89,71.60,35.60,26.71,230.00,3.00,0.00,30.12,M,10.00,M,CLR,M,M,M,M,M,M,M,M,M,M,M,M,M,M,71.60,KHTH 311035Z AUTO 23003KT 10SM CLR 22/02 A3012 RMK A01,M
TMT,2023-07-31 10:35,-117.1971,39.4643,1749.34,51.00,34.00,52.00,240.00,3.00,0.00,30.24,M,M,M,CLR,M,M,M,M,M,M,M,M,M,M,M,M,M,M,51.00,KTMT 311035Z AUTO 24003KT CLR 11/01 A3024 RMK AO2 T01050012 PWINO,M
10U,2023-07-31 10:35,-116.1876,41.9532,1637.00,53.60,19.40,25.85,170.00,4.00,0.00,30.16,M,10.00,M,CLR,M,M,M,M,M,M,M,M,M,M,M,M,M,M,53.60,K10U 311035Z AUTO 17004KT 10SM CLR 12/M07 A3016 RMK AO2,M
BAM,2023-07-31 10:35,-116.8743,40.5990,1382.36,60.80,24.80,25.04,200.00,3.00,0.00,30.13,M,10.00,M,CLR,M,M,M,M,M,M,M,M,M,M,M,M,M,M,60.80,KBAM 311035Z AUTO 20003KT 10SM CLR 16/M04 A3013 RMK AO1,M
05U,2023-07-31 10:50,-116.0051,39.6042,1811.23,53.60,32.00,43.61,M,M,0.00,30.24,M,10.00,M,M,M,M,M,M,M,M,M,M,M,M,M,M,M,M,53.60,K05U 311050Z AUTO 10SM 12/M00 A3024 RMK A01,M
P68,2023-07-31 10:53,-116.0056,39.6014,1993.00,57.00,31.00,37.01,180.00,7.00,0.00,30.22,1014.10,M,M,M,M,M,M,M,M,M,M,M,M,M,M,M,M,M,57.00,KP68 311053Z AUTO 18007KT 14/M01 A3022 RMK AO1 SLP141 T01391006,M
DRA,2023-07-31 10:53,-116.0278,36.6206,1009.00,82.00,46.00,28.30,0.00,0.00,0.00,29.98,1009.00,10.00,M,CLR,M,M,M,M,M,M,M,M,M,M,M,M,M,M,80.36,KDRA 311053Z AUTO 00000KT 10SM CLR 28/08 A2998 RMK AO2 SLP090 T02780078,M
ELY,2023-07-31 10:53,-114.8453,39.2950,1909.00,67.00,47.00,48.58,210.00,9.00,0.00,30.24,1011.70,10.00,M,CLR,M,M,M,M,M,M,M,M,M,M,M,M,M,M,67.00,KELY 311053Z AUTO 21009KT 10SM CLR 19/08 A3024 RMK AO2 SLP117 T01940083,M
VGT,2023-07-31 10:53,-115.1933,36.2111,667.00,92.00,53.00,26.72,30.00,3.00,0.00,29.91,1011.20,10.00,M,CLR,M,M,M,M,M,M,M,M,M,M,M,M,M,M,89.53,KVGT 311053Z AUTO 03003KT 10SM CLR 33/12 A2991 RMK AO2 SLP112 T03330117,M
LOL,2023-07-31 10:53,-118.5701,40.0684,1192.43,54.00,35.00,48.46,M,3.00,0.00,30.09,1015.00,10.00,M,CLR,M,M,M,M,M,M,M,M,M,M,M,M,M,M,54.00,KLOL 311053Z AUTO VRB03KT 10SM CLR 12/02 A3009 RMK AO2 SLP150 T01220017,M
10U,2023-07-31 10:55,-116.1876,41.9532,1637.00,51.80,21.20,29.82,150.00,9.00,0.00,30.17,M,10.00,M,CLR,M,M,M,M,M,M,M,M,M,M,M,M,M,M,51.80,K10U 311055Z AUTO 15009KT 10SM CLR 11/M06 A3017 RMK AO2,M
BVU,2023-07-31 10:55,-114.8611,35.9475,671.00,86.00,53.60,33.01,40.00,7.00,0.00,29.91,M,10.00,M,CLR,M,M,M,M,M,M,M,M,M,M,M,M,M,M,84.18,KBVU 311055Z AUTO 04007KT 10SM CLR 30/12 A2991 RMK AO2,M
CXP,2023-07-31 10:55,-119.7326,39.1923,1431.00,62.60,26.60,25.32,0.00,0.00,0.00,30.17,M,10.00,M,CLR,M,M,M,M,M,M,M,M,M,M,M,M,M,M,62.60,KCXP 311055Z AUTO 00000KT 10SM CLR 17/M03 A3017 RMK AO2,M
INS,2023-07-31 10:55,-115.6733,36.5872,955.00,82.00,45.50,27.77,190.00,3.00,0.00,29.97,1009.30,10.00,M,CLR,M,M,M,M,M,M,M,M,M,M,M,M,M,M,80.32,KINS 311055Z AUTO 19003KT 10SM CLR 28/08 A2997 RMK AO2 SLP093 T02770075 $,M
RNO,2023-07-31 10:55,-119.7711,39.4839,1341.00,66.00,36.00,32.88,0.00,0.00,0.00,30.15,1014.80,10.00,M,FEW,SCT,M,M,12000.00,24000.00,M,M,M,M,M,M,M,M,M,66.00,KRNO 311055Z 00000KT 10SM FEW120 SCT240 19/02 A3015 RMK AO2 SLP148 T01890022,M
LSV,2023-07-31 10:55,-115.0343,36.2362,570.00,89.60,50.00,25.79,20.00,10.00,0.00,29.86,1007.20,10.00,M,BKN,M,M,M,18000.00,M,M,M,M,M,M,M,M,M,M,86.70,KLSV 311055Z 02010KT 10SM BKN180 32/10 A2986 RMK A02A SLP072 ALSTG ESTMD RVRNO $,M
RTS,2023-07-31 10:55,-119.8764,39.6682,1539.00,59.00,30.20,33.35,330.00,6.00,0.00,30.20,M,10.00,M,CLR,M,M,M,M,M,M,M,M,M,M,M,M,M,M,59.00,KRTS 311055Z AUTO 33006KT 10SM CLR 15/M01 A3020 RMK AO2,M
MEV,2023-07-31 10:55,-119.7500,38.9963,1441.42,64.40,33.80,31.85,0.00,0.00,0.00,30.14,M,10.00,M,CLR,M,M,M,M,M,M,M,M,M,M,M,M,M,M,64.40,KMEV 311055Z AUTO 00000KT 10SM CLR 18/01 A3014 RMK AO2,M
HTH,2023-07-31 10:55,-118.6315,38.5448,1282.89,69.80,35.60,28.39,190.00,5.00,0.00,30.12,M,10.00,M,CLR,M,M,M,M,M,M,M,M,M,M,M,M,M,M,69.80,KHTH 311055Z AUTO 19005KT 10SM CLR 21/02 A3012 RMK A01,M
TMT,2023-07-31 10:55,-117.1971,39.4643,1749.34,52.00,31.00,44.42,240.00,3.00,0.00,30.24,M,M,M,CLR,M,M,M,M,M,M,M,M,M,M,M,M,M,M,52.00,KTMT 311055Z AUTO 24003KT CLR 11/00 A3024 RMK AO2 T01111005 PWINO,M
BAM,2023-07-31 10:55,-116.8743,40.5990,1382.36,60.80,24.80,25.04,180.00,5.00,0.00,30.13,M,10.00,M,CLR,M,M,M,M,M,M,M,M,M,M,M,M,M,M,60.80,KBAM 311055Z AUTO 18005KT 10SM CLR 16/M04 A3013 RMK AO1,M
EKO,2023-07-31 10:56,-115.7860,40.8242,1367.00,57.00,38.00,48.93,0.00,0.00,0.00,30.15,1014.80,10.00,M,CLR,M,M,M,M,M,M,M,M,M,M,M,M,M,M,57.00,KEKO 311056Z AUTO 00000KT 10SM CLR 14/03 A3015 RMK AO2 SLP148 T01390033,M
WMC,2023-07-31 10:56,-117.8072,40.9019,1315.00,57.00,29.00,34.12,170.00,4.00,0.00,30.11,1014.50,10.00,M,CLR,M,M,M,M,M,M,M,M,M,M,M,M,M,M,57.00,KWMC 311056Z AUTO 17004KT 10SM CLR 14/M02 A3011 RMK AO2 SLP145 T01391017,M
NFL,2023-07-31 10:56,-118.7010,39.4166,1199.00,66.00,33.00,29.18,0.00,0.00,0.00,30.09,1015.80,10.00,M,CLR,M,M,M,M,M,M,M,M,M,M,M,M,M,M,66.00,KNFL 311056Z AUTO 00000KT 10SM CLR 19/01 A3009 RMK AO2 SLP158 T01890006 $,M
HND,2023-07-31 10:56,-115.1344,35.9729,742.79,87.00,52.00,30.15,190.00,4.00,0.00,29.95,1012.30,10.00,M,CLR,M,M,M,M,M,M,M,M,M,M,M,M,M,M,84.73,KHND 311056Z 19004KT 10SM CLR 31/11 A2995 RMK AO2 SLP123 T03060111,M
TPH,2023-07-31 10:56,-117.0904,38.0505,1654.00,66.00,28.00,23.82,330.00,5.00,0.00,30.17,1012.60,10.00,M,CLR,M,M,M,M,M,M,M,M,M,M,M,M,M,M,66.00,KTPH 311056Z AUTO 33005KT 10SM CLR 19/M02 A3017 RMK AO2 SLP126 T01891022,M
LAS,2023-07-31 10:56,-115.1634,36.0719,663.00,90.00,51.00,26.43,0.00,0.00,0.00,29.91,1009.50,10.00,M,FEW,OVC,M,M,16000.00,19000.00,M,M,M,M,M,M,M,M,M,87.22,KLAS 311056Z 00000KT 10SM FEW160 OVC190 32/11 A2991 RMK AO2 SLP095 T03220106,M
BVU,2023-07-31 11:15,-114.8611,35.9475,671.00,86.00,53.60,33.01,50.00,7.00,0.00,29.92,M,10.00,M,CLR,M,M,M,M,M,M,M,M,M,M,M,M,M,M,84.18,KBVU 311115Z AUTO 05007KT 10SM CLR 30/12 A2992 RMK AO2,M
CXP,2023-07-31 11:15,-119.7326,39.1923,1431.00,62.60,28.40,27.27,0.00,0.00,0.00,30.16,M,10.00,M,CLR,M,M,M,M,M,M,M,M,M,M,M,M,M,M,62.60,KCXP 311115Z AUTO 00000KT 10SM CLR 17/M02 A3016 RMK AO2,M
RTS,2023-07-31 11:15,-119.8764,39.6682,1539.00,57.20,30.20,35.57,350.00,5.00,0.00,30.20,M,10.00,M,CLR,M,M,M,M,M,M,M,M,M,M,M,M,M,M,57.20,KRTS 311115Z AUTO 35005KT 10SM CLR 14/M01 A3020 RMK AO2,M
05U,2023-07-31 11:15,-116.0051,39.6042,1811.23,55.40,28.40,35.28,M,M,0.00,30.24,M,10.00,M,M,M,M,M,M,M,M,M,M,M,M,M,M,M,M,55.40,K05U 311115Z AUTO 10SM 13/M02 A3024 RMK A01,M
MEV,2023-07-31 11:15,-119.7500,38.9963,1441.42,64.40,30.20,27.55,140.00,4.00,0.00,30.14,M,10.00,M,CLR,M,M,M,M,M,M,M,M,M,M,M,M,M,M,64.40,KMEV 311115Z AUTO 14004KT 10SM CLR 18/M01 A3014 RMK AO2,M
HTH,2023-07-31 11:15,-118.6315,38.5448,1282.89,69.80,33.80,26.43,220.00,3.00,0.00,30.12,M,10.00,M,CLR,M,M,M,M,M,M,M,M,M,M,M,M,M,M,69.80,KHTH 311115Z AUTO 22003KT 10SM CLR 21/01 A3012 RMK A01,M
TMT,2023-07-31 11:15,-117.1971,39.4643,1749.34,44.40,31.50,60.27,160.00,3.00,0.00,30.24,M,M,M,CLR,M,M,M,M,M,M,M,M,M,M,M,M,M,M,42.86,KTMT 311115Z AUTO 16003KT CLR 07/00 A3024 RMK AO2 T00691003 PWINO,M
10U,2023-07-31 11:15,-116.1876,41.9532,1637.00,59.00,21.20,22.95,140.00,6.00,0.00,30.17,M,10.00,M,CLR,M,M,M,M,M,M,M,M,M,M,M,M,M,M,59.00,K10U 311115Z AUTO 14006KT 10SM CLR 15/M06 A3017 RMK AO2,M
BAM,2023-07-31 11:15,-116.8743,40.5990,1382.36,59.00,23.00,24.76,170.00,7.00,0.00,30.13,M,10.00,M,CLR,M,M,M,M,M,M,M,M,M,M,M,M,M,M,59.00,KBAM 311115Z AUTO 17007KT 10SM CLR 15/M05 A3013 RMK AO1,M
05U,2023-07-31 11:30,-116.0051,39.6042,1811.23,53.60,30.20,40.54,M,M,0.00,30.24,M,10.00,M,M,M,M,M,M,M,M,M,M,M,M,M,M,M,M,53.60,K05U 311130Z AUTO 10SM 12/M01 A3024 RMK A01,M
BVU,2023-07-31 11:35,-114.8611,35.9475,671.00,86.00,53.60,33.01,50.00,6.00,0.00,29.92,M,10.00,M,BKN,M,M,M,10000.00,M,M,M,M,M,M,M,M,M,M,84.18,KBVU 311135Z AUTO 05006KT 10SM BKN100 30/12 A2992 RMK AO2,M
CXP,2023-07-31 11:35,-119.7326,39.1923,1431.00,62.60,28.40,27.27,0.00,0.00,0.00,30.16,M,10.00,M,CLR,M,M,M,M,M,M,M,M,M,M,M,M,M,M,62.60,KCXP 311135Z AUTO 00000KT 10SM CLR 17/M02 A3016 RMK AO2,M
RTS,2023-07-31 11:35,-119.8764,39.6682,1539.00,55.40,30.20,37.97,350.00,5.00,0.00,30.20,M,10.00,M,CLR,M,M,M,M,M,M,M,M,M,M,M,M,M,M,55.40,KRTS 311135Z AUTO 35005KT 10SM CLR 13/M01 A3020 RMK AO2,M
MEV,2023-07-31 11:35,-119.7500,38.9963,1441.42,64.40,33.80,31.85,100.00,6.00,0.00,30.14,M,10.00,M,CLR,M,M,M,M,M,M,M,M,M,M,M,M,M,M,64.40,KMEV 311135Z AUTO 10006KT 10SM CLR 18/01 A3014 RMK AO2,M
HTH,2023-07-31 11:35,-118.6315,38.5448,1282.89,69.80,35.60,28.39,160.00,5.00,0.00,30.12,M,10.00,M,CLR,M,M,M,M,M,M,M,M,M,M,M,M,M,M,69.80,KHTH 311135Z AUTO 16005KT 10SM CLR 21/02 A3012 RMK A01,M
TMT,2023-07-31 11:35,-117.1971,39.4643,1749.34,45.70,32.00,58.53,0.00,0.00,0.00,30.24,M,M,M,SCT,M,M,M,12000.00,M,M,M,M,M,M,M,M,M,M,45.70,KTMT 311135Z AUTO 00000KT SCT120 08/00 A3024 RMK AO2 T00761001 PWINO,M
10U,2023-07-31 11:35,-116.1876,41.9532,1637.00,55.40,24.80,30.40,120.00,8.00,0.00,30.18,M,10.00,M,CLR,M,M,M,M,M,M,M,M,M,M,M,M,M,M,55.40,K10U 311135Z AUTO 12008KT 10SM CLR 13/M04 A3018 RMK AO2,M
BAM,2023-07-31 11:35,-116.8743,40.5990,1382.36,59.00,24.80,26.70,180.00,6.00,0.00,30.13,M,10.00,M,CLR,M,M,M,M,M,M,M,M,M,M,M,M,M,M,59.00,KBAM 311135Z AUTO 18006KT 10SM CLR 15/M04 A3013 RMK AO1,M
P68,2023-07-31 11:53,-116.0056,39.6014,1993.00,55.00,31.00,39.80,190.00,9.00,0.00,30.22,1014.10,M,M,M,M,M,M,M,M,M,M,M,M,M,M,M,M,M,55.00,KP68 311153Z AUTO 19009KT 13/M01 A3022 RMK AO1 SLP141 T01281006 10194 20106 50001,M
DRA,2023-07-31 11:53,-116.0278,36.6206,1009.00,82.00,48.00,30.51,0.00,0.00,0.00,29.99,1009.40,10.00,M,CLR,M,M,M,M,M,M,M,M,M,M,M,M,M,M,80.53,KDRA 311153Z AUTO 00000KT 10SM CLR 28/09 A2999 RMK AO2 SLP094 T02780089 10311 20267 53001,M
ELY,2023-07-31 11:53,-114.8453,39.2950,1909.00,64.00,45.00,49.99,200.00,10.00,0.00,30.24,1012.50,10.00,M,CLR,M,M,M,M,M,M,M,M,M,M,M,M,M,M,64.00,KELY 311153Z AUTO 20010KT 10SM CLR 18/07 A3024 RMK AO2 SLP125 T01780072 10217 20178 53001,M
VGT,2023-07-31 11:53,-115.1933,36.2111,667.00,91.00,52.00,26.57,0.00,0.00,0.00,29.92,1011.30,10.00,M,CLR,M,M,M,M,M,M,M,M,M,M,M,M,M,M,88.35,KVGT 311153Z AUTO 00000KT 10SM CLR 33/11 A2992 RMK AO2 SLP113 T03280111 10356 20328 53001,M
LOL,2023-07-31 11:53,-118.5701,40.0684,1192.43,55.00,33.00,43.14,0.00,0.00,0.00,30.09,1015.00,10.00,M,CLR,M,M,M,M,M,M,M,M,M,M,M,M,M,M,55.00,KLOL 311153Z AUTO 00000KT 10SM CLR 13/01 A3009 RMK AO2 SLP150 T01280006 10256 20117 51002,M
10U,2023-07-31 11:55,-116.1876,41.9532,1637.00,55.40,24.80,30.40,140.00,4.00,0.00,30.18,M,10.00,M,CLR,M,M,M,M,M,M,M,M,M,M,M,M,M,M,55.40,K10U 311155Z AUTO 14004KT 10SM CLR 13/M04 A3018 RMK AO2,M
BVU,2023-07-31 11:55,-114.8611,35.9475,671.00,84.20,53.60,34.97,50.00,4.00,0.00,29.93,M,10.00,M,BKN,M,M,M,10000.00,M,M,M,M,M,M,M,M,M,M,82.76,KBVU 311155Z AUTO 05004KT 10SM BKN100 29/12 A2993 RMK AO2,M
CXP,2023-07-31 11:55,-119.7326,39.1923,1431.00,62.60,30.20,29.35,0.00,0.00,0.00,30.16,M,10.00,M,CLR,M,M,M,M,M,M,M,M,M,M,M,M,M,M,62.60,KCXP 311155Z AUTO 00000KT 10SM CLR 17/M01 A3016 RMK AO2,M
INS,2023-07-31 11:55,-115.6733,36.5872,955.00,78.00,45.70,31.89,230.00,4.00,0.00,29.98,1009.80,10.00,M,BKN,M,M,M,16000.00,M,M,M,M,M,M,M,M,M,M,78.00,KINS 311155Z AUTO 23004KT 10SM BKN160 26/08 A2998 RMK AO2 SLP098 T02550076 10317 20253 53002 $,M
RNO,2023-07-31 11:55,-119.7711,39.4839,1341.00,66.00,37.00,34.21,0.00,0.00,0.00,30.15,1014.70,10.00,M,SCT,M,M,M,24000.00,M,M,M,M,M,M,M,M,M,M,66.00,KRNO 311155Z 00000KT 10SM SCT240 19/03 A3015 RMK AO2 SLP147 T01890028 10261 20189 50005,M
LSV,2023-07-31 11:55,-115.0343,36.2362,570.00,89.60,51.80,27.56,20.00,10.00,0.00,29.87,M,10.00,M,BKN,M,M,M,18000.00,M,M,M,M,M,M,M,M,M,M,87.00,KLSV 311155Z 02010KT 10SM BKN180 32/11 A2987 RMK SLP 10340 20313 RVRNO $,M
RTS,2023-07-31 11:55,-119.8764,39.6682,1539.00,55.40,30.20,37.97,340.00,6.00,0.00,30.20,M,10.00,M,CLR,M,M,M,M,M,M,M,M,M,M,M,M,M,M,55.40,KRTS 311155Z AUTO 34006KT 10SM CLR 13/M01 A3020 RMK AO2,M
05U,2023-07-31 11:55,-116.0051,39.6042,1811.23,55.40,28.40,35.28,M,M,0.00,30.24,M,10.00,M,M,M,M,M,M,M,M,M,M,M,M,M,M,M,M,55.40,K05U 311155Z AUTO 10SM 13/M02 A3024 RMK A01,M
MEV,2023-07-31 11:55,-119.7500,38.9963,1441.42,64.40,33.80,31.85,70.00,7.00,0.00,30.14,M,10.00,M,CLR,M,M,M,M,M,M,M,M,M,M,M,M,M,M,64.40,KMEV 311155Z AUTO 07007KT 10SM CLR 18/01 A3014 RMK AO2,M
HTH,2023-07-31 11:55,-118.6315,38.5448,1282.89,68.00,35.60,30.20,210.00,4.00,0.00,30.12,M,10.00,M,CLR,M,M,M,M,M,M,M,M,M,M,M,M,M,M,68.00,KHTH 311155Z AUTO 21004KT 10SM CLR 20/02 A3012 RMK A01,M
TMT,2023-07-31 11:55,-117.1971,39.4643,1749.34,45.70,31.00,56.22,280.00,3.00,0.00,30.24,M,M,M,CLR,M,M,M,M,M,M,M,M,M,M,M,M,M,M,44.35,KTMT 311155Z AUTO 28003KT CLR 08/00 A3024 RMK AO2 T00761005 10157 20068 PWINO,M
BAM,2023-07-31 11:55,-116.8743,40.5990,1382.36,55.40,23.00,28.20,200.00,6.00,0.00,30.14,M,10.00,M,CLR,M,M,M,M,M,M,M,M,M,M,M,M,M,M,55.40,KBAM 311155Z AUTO 20006KT 10SM CLR 13/M05 A3014 RMK AO1,M
EKO,2023-07-31 11:56,-115.7860,40.8242,1367.00,58.00,35.00,41.92,90.00,3.00,0.00,30.15,1015.00,10.00,M,CLR,M,M,M,M,M,M,M,M,M,M,M,M,M,M,58.00,KEKO 311156Z AUTO 09003KT 10SM CLR 14/02 A3015 RMK AO2 SLP150 T01440017 10244 20128 51006,M
WMC,2023-07-31 11:56,-117.8072,40.9019,1315.00,57.00,25.00,28.93,150.00,7.00,0.00,30.12,1014.70,10.00,M,CLR,M,M,M,M,M,M,M,M,M,M,M,M,M,M,57.00,KWMC 311156Z AUTO 15007KT 10SM CLR 14/M04 A3012 RMK AO2 SLP147 T01391039 10250 20133 53001,M
NFL,2023-07-31 11:56,-118.7010,39.4166,1199.00,63.00,34.00,33.72,0.00,0.00,0.00,30.09,1015.80,10.00,M,CLR,M,M,M,M,M,M,M,M,M,M,M,M,M,M,63.00,KNFL 311156Z AUTO 00000KT 10SM CLR 17/01 A3009 RMK AO2 SLP158 T01720011 10267 20167 50002 $,M
HND,2023-07-31 11:56,-115.1344,35.9729,742.79,87.00,52.00,30.15,0.00,0.00,0.00,29.96,1012.60,10.00,M,CLR,M,M,M,M,M,M,M,M,M,M,M,M,M,M,84.73,KHND 311156Z 00000KT 10SM CLR 31/11 A2996 RMK AO2 SLP126 T03060111 10344 20300 55001,M
TPH,2023-07-31 11:56,-117.0904,38.0505,1654.00,64.00,27.00,24.51,320.00,6.00,0.00,30.18,1013.10,10.00,M,CLR,M,M,M,M,M,M,M,M,M,M,M,M,M,M,64.00,KTPH 311156Z AUTO 32006KT 10SM CLR 18/M03 A3018 RMK AO2 SLP131 T01781028 10272 20172 53002,M
LAS,2023-07-31 11:56,-115.1634,36.0719,663.00,90.00,53.00,28.45,70.00,4.00,0.00,29.92,1009.80,10.00,M,BKN,OVC,M,M,15000.00,20000.00,M,M,M,M,M,M,M,M,M,87.60,KLAS 311156Z 07004KT 10SM BKN150 OVC200 32/12 A2992 RMK AO2 SLP098 T03220117 10350 20317 53001,M
05U,2023-07-31 12:10,-116.0051,39.6042,1811.23,57.20,28.40,33.05,M,M,0.00,30.24,M,10.00,M,M,M,M,M,M,M,M,M,M,M,M,M,M,M,M,57.20,K05U 311210Z AUTO 10SM 14/M02 A3024 RMK A01,M
BVU,2023-07-31 12:15,-114.8611,35.9475,671.00,86.00,53.60,33.01,0.00,0.00,0.00,29.94,M,10.00,M,FEW,M,M,M,11000.00,M,M,M,M,M,M,M,M,M,M,84.18,KBVU 311215Z AUTO 00000KT 10SM FEW110 30/12 A2994 RMK AO2,M
CXP,2023-07-31 12:15,-119.7326,39.1923,1431.00,60.80,30.20,31.28,0.00,0.00,0.00,30.17,M,10.00,M,CLR,M,M,M,M,M,M,M,M,M,M,M,M,M,M,60.80,KCXP 311215Z AUTO 00000KT 10SM CLR 16/M01 A3017 RMK AO2,M
RTS,2023-07-31 12:15,-119.8764,39.6682,1539.00,53.60,30.20,40.54,350.00,4.00,0.00,30.19,M,10.00,M,CLR,M,M,M,M,M,M,M,M,M,M,M,M,M,M,53.60,KRTS 311215Z AUTO 35004KT 10SM CLR 12/M01 A3019 RMK AO2,M
MEV,2023-07-31 12:15,-119.7500,38.9963,1441.42,64.40,30.20,27.55,340.00,3.00,0.00,30.14,M,10.00,M,CLR,M,M,M,M,M,M,M,M,M,M,M,M,M,M,64.40,KMEV 311215Z AUTO 34003KT 10SM CLR 18/M01 A3014 RMK AO2,M
HTH,2023-07-31 12:15,-118.6315,38.5448,1282.89,66.20,32.00,27.83,0.00,0.00,0.00,30.12,M,10.00,M,CLR,M,M,M,M,M,M,M,M,M,M,M,M,M,M,66.20,KHTH 311215Z AUTO 00000KT 10SM CLR 19/00 A3012 RMK A01,M
TMT,2023-07-31 12:15,-117.1971,39.4643,1749.34,45.00,32.00,60.11,0.00,0.00,0.00,30.24,M,M,M,CLR,M,M,M,M,M,M,M,M,M,M,M,M,M,M,45.00,KTMT 311215Z AUTO 00000KT CLR 07/00 A3024 RMK AO2 T00720000 PWINO,M
10U,2023-07-31 12:15,-116.1876,41.9532,1637.00,51.80,24.80,34.69,0.00,0.00,0.00,30.18,M,10.00,M,CLR,M,M,M,M,M,M,M,M,M,M,M,M,M,M,51.80,K10U 311215Z AUTO 00000KT 10SM CLR 11/M04 A3018 RMK AO2,M
BAM,2023-07-31 12:15,-116.8743,40.5990,1382.36,59.00,24.80,26.70,230.00,5.00,0.00,30.14,M,10.00,M,CLR,M,M,M,M,M,M,M,M,M,M,M,M,M,M,59.00,KBAM 311215Z AUTO 23005KT 10SM CLR 15/M04 A3014 RMK AO1,M
BVU,2023-07-31 12:35,-114.8611,35.9475,671.00,89.60,50.00,25.79,M,4.00,0.00,29.95,M,10.00,M,FEW,M,M,M,12000.00,M,M,M,M,M,M,M,M,M,M,86.70,KBVU 311235Z AUTO VRB04KT 10SM FEW120 32/10 A2995 RMK AO2,M
CXP,2023-07-31 12:35,-119.7326,39.1923,1431.00,60.80,32.00,33.64,0.00,0.00,0.00,30.17,M,10.00,M,CLR,M,M,M,M,M,M,M,M,M,M,M,M,M,M,60.80,KCXP 311235Z AUTO 00000KT 10SM CLR 16/M00 A3017 RMK AO2,M
RTS,2023-07-31 12:35,-119.8764,39.6682,1539.00,57.20,30.20,35.57,100.00,4.00,0.00,30.20,M,10.00,M,CLR,M,M,M,M,M,M,M,M,M,M,M,M,M,M,57.20,KRTS 311235Z AUTO 10004KT 10SM CLR 14/M01 A3020 RMK AO2,M
05U,2023-07-31 12:35,-116.0051,39.6042,1811.23,50.00,32.00,49.81,M,M,0.00,30.25,M,10.00,M,M,M,M,M,M,M,M,M,M,M,M,M,M,M,M,50.00,K05U 311235Z AUTO 10SM 10/M00 A3025 RMK A01,M
MEV,2023-07-31 12:35,-119.7500,38.9963,1441.42,62.60,30.20,29.35,M,5.00,0.00,30.15,M,10.00,M,CLR,M,M,M,M,M,M,M,M,M,M,M,M,M,M,62.60,KMEV 311235Z AUTO VRB05KT 10SM CLR 17/M01 A3015 RMK AO2,M
HTH,2023-07-31 12:35,-118.6315,38.5448,1282.89,66.20,33.80,29.92,220.00,3.00,0.00,30.12,M,10.00,M,CLR,M,M,M,M,M,M,M,M,M,M,M,M,M,M,66.20,KHTH 311235Z AUTO 22003KT 10SM CLR 19/01 A3012 RMK A01,M
TMT,2023-07-31 12:35,-117.1971,39.4643,1749.34,44.00,32.00,62.44,0.00,0.00,0.00,30.24,M,M,M,CLR,M,M,M,M,M,M,M,M,M,M,M,M,M,M,44.00,KTMT 311235Z AUTO 00000KT CLR 07/00 A3024 RMK AO2 T00671001 PWINO,M
10U,2023-07-31 12:35,-116.1876,41.9532,1637.00,55.40,26.60,32.76,130.00,5.00,0.00,30.19,M,10.00,M,CLR,M,M,M,M,M,M,M,M,M,M,M,M,M,M,55.40,K10U 311235Z AUTO 13005KT 10SM CLR 13/M03 A3019 RMK AO2,M
BAM,2023-07-31 12:35,-116.8743,40.5990,1382.36,55.40,24.80,30.40,0.00,0.00,0.00,30.15,M,10.00,M,CLR,M,M,M,M,M,M,M,M,M,M,M,M,M,M,55.40,KBAM 311235Z AUTO 00000KT 10SM CLR 13/M04 A3015 RMK AO1,M
05U,2023-07-31 12:50,-116.0051,39.6042,1811.23,53.60,30.20,40.54,M,M,0.00,30.25,M,10.00,M,M,M,M,M,M,M,M,M,M,M,M,M,M,M,M,53.60,K05U 311250Z AUTO 10SM 12/M01 A3025 RMK A01,M
P68,2023-07-31 12:53,-116.0056,39.6014,1993.00,53.00,30.00,41.11,160.00,3.00,0.00,30.23,1015.20,M,M,M,M,M,M,M,M,M,M,M,M,M,M,M,M,M,53.00,KP68 311253Z AUTO 16003KT 12/M01 A3023 RMK AO1 SLP152 T01171011,M
DRA,2023-07-31 12:53,-116.0278,36.6206,1009.00,78.00,48.00,34.78,360.00,4.00,0.00,29.99,1009.90,10.00,M,CLR,M,M,M,M,M,M,M,M,M,M,M,M,M,M,78.00,KDRA 311253Z AUTO 36004KT 10SM CLR 26/09 A2999 RMK AO2 SLP099 T02560089,M
ELY,2023-07-31 12:53,-114.8453,39.2950,1909.00,58.00,45.00,61.85,80.00,5.00,0.00,30.26,1013.90,10.00,M,CLR,M,M,M,M,M,M,M,M,M,M,M,M,M,M,58.00,KELY 311253Z AUTO 08005KT 10SM CLR 14/07 A3026 RMK AO2 SLP139 T01440072,M
VGT,2023-07-31 12:53,-115.1933,36.2111,667.00,91.00,53.00,27.57,0.00,0.00,0.00,29.94,1012.10,10.00,M,CLR,M,M,M,M,M,M,M,M,M,M,M,M,M,M,88.55,KVGT 311253Z 00000KT 10SM CLR 33/12 A2994 RMK AO2 SLP121 T03280117,M
LOL,2023-07-31 12:53,-118.5701,40.0684,1192.43,55.00,31.00,39.80,0.00,0.00,0.00,30.10,1015.10,10.00,M,CLR,M,M,M,M,M,M,M,M,M,M,M,M,M,M,55.00,KLOL 311253Z AUTO 00000KT 10SM CLR 13/M01 A3010 RMK AO2 SLP151 T01281006,M
LSV,2023-07-31 12:55,-115.0343,36.2362,570.00,89.80,52.30,27.90,10.00,5.00,0.00,29.89,1008.10,10.00,M,BKN,M,M,M,15000.00,M,M,M,M,M,M,M,M,M,M,87.28,KLSV 311255Z 01005KT 10SM BKN150 32/11 A2989 RMK A02A SLP081 T03210113 $,M
BVU,2023-07-31 12:55,-114.8611,35.9475,671.00,87.80,50.00,27.29,200.00,5.00,0.00,29.95,M,10.00,12.00,CLR,M,M,M,M,M,M,M,M,M,M,M,M,M,M,85.11,KBVU 311255Z AUTO 20005G12KT 10SM CLR 31/10 A2995 RMK AO2 LTG DSNT SW,M
CXP,2023-07-31 12:55,-119.7326,39.1923,1431.00,60.80,32.00,33.64,0.00,0.00,0.00,30.17,M,10.00,M,CLR,M,M,M,M,M,M,M,M,M,M,M,M,M,M,60.80,KCXP 311255Z AUTO 00000KT 10SM CLR 16/M00 A3017 RMK AO2,M
INS,2023-07-31 12:55,-115.6733,36.5872,955.00,79.50,46.20,30.94,0.00,0.00,0.00,29.99,1010.10,10.00,M,BKN,M,M,M,16000.00,M,M,M,M,M,M,M,M,M,M,79.50,KINS 311255Z AUTO 00000KT 10SM BKN160 26/08 A2999 RMK AO2 SLP101 T02640079 $,M
RNO,2023-07-31 12:55,-119.7711,39.4839,1341.00,64.00,35.00,33.89,0.00,0.00,0.00,30.15,1015.10,10.00,M,FEW,SCT,BKN,M,10000.00,18000.00,24000.00,M,M,M,M,M,M,M,M,64.00,KRNO 311255Z 00000KT 10SM FEW100 SCT180 BKN240 18/02 A3015 RMK AO2 SLP151 T01780017,M
RTS,2023-07-31 12:55,-119.8764,39.6682,1539.00,55.40,30.20,37.97,0.00,0.00,0.00,30.20,M,10.00,M,CLR,M,M,M,M,M,M,M,M,M,M,M,M,M,M,55.40,KRTS 311255Z AUTO 00000KT 10SM CLR 13/M01 A3020 RMK AO2,M
MEV,2023-07-31 12:55,-119.7500,38.9963,1441.42,60.80,33.80,36.16,340.00,4.00,0.00,30.15,M,10.00,M,CLR,M,M,M,M,M,M,M,M,M,M,M,M,M,M,60.80,KMEV 311255Z AUTO 34004KT 10SM CLR 16/01 A3015 RMK AO2,M
HTH,2023-07-31 12:55,-118.6315,38.5448,1282.89,66.20,33.80,29.92,230.00,4.00,0.00,30.13,M,10.00,M,CLR,M,M,M,M,M,M,M,M,M,M,M,M,M,M,66.20,KHTH 311255Z AUTO 23004KT 10SM CLR 19/01 A3013 RMK A01,M
TMT,2023-07-31 12:55,-117.1971,39.4643,1749.34,38.50,28.80,67.83,130.00,3.00,0.00,30.24,M,M,M,CLR,M,M,M,M,M,M,M,M,M,M,M,M,M,M,36.12,KTMT 311255Z AUTO 13003KT CLR 04/M02 A3024 RMK AO2 T00361018 PWINO,M
10U,2023-07-31 12:55,-116.1876,41.9532,1637.00,53.60,26.60,34.98,120.00,5.00,0.00,30.20,M,10.00,M,CLR,M,M,M,M,M,M,M,M,M,M,M,M,M,M,53.60,K10U 311255Z AUTO 12005KT 10SM CLR 12/M03 A3020 RMK AO2,M
BAM,2023-07-31 12:55,-116.8743,40.5990,1382.36,55.40,24.80,30.40,0.00,0.00,0.00,30.14,M,10.00,M,CLR,M,M,M,M,M,M,M,M,M,M,M,M,M,M,55.40,KBAM 311255Z AUTO 00000KT 10SM CLR 13/M04 A3014 RMK AO1,M
EKO,2023-07-31 12:56,-115.7860,40.8242,1367.00,57.00,33.00,40.12,70.00,7.00,0.00,30.16,1015.30,10.00,M,CLR,M,M,M,M,M,M,M,M,M,M,M,M,M,M,57.00,KEKO 311256Z AUTO 07007KT 10SM CLR 14/01 A3016 RMK AO2 SLP153 T01390006,M
WMC,2023-07-31 12:56,-117.8072,40.9019,1315.00,54.00,25.00,32.26,170.00,3.00,0.00,30.13,1015.10,10.00,M,CLR,M,M,M,M,M,M,M,M,M,M,M,M,M,M,54.00,KWMC 311256Z AUTO 17003KT 10SM CLR 12/M04 A3013 RMK AO2 SLP151 T01221039,M
NFL,2023-07-31 12:56,-118.7010,39.4166,1199.00,62.00,34.00,34.93,220.00,3.00,0.00,30.10,1015.80,10.00,M,CLR,M,M,M,M,M,M,M,M,M,M,M,M,M,M,62.00,KNFL 311256Z AUTO 22003KT 10SM CLR 17/01 A3010 RMK AO2 SLP158 T01670011 $,M
HND,2023-07-31 12:56,-115.1344,35.9729,742.79,89.00,52.00,28.30,160.00,9.00,0.00,29.98,1013.00,10.00,M,FEW,M,M,M,12000.00,M,M,M,M,M,M,M,M,M,M,86.49,KHND 311256Z 16009KT 10SM FEW120 32/11 A2998 RMK AO2 SLP130 T03170111,M
TPH,2023-07-31 12:56,-117.0904,38.0505,1654.00,63.00,27.00,25.38,350.00,7.00,0.00,30.18,1013.30,10.00,M,CLR,M,M,M,M,M,M,M,M,M,M,M,M,M,M,63.00,KTPH 311256Z AUTO 35007KT 10SM CLR 17/M03 A3018 RMK AO2 SLP133 T01721028,M
LAS,2023-07-31 12:56,-115.1634,36.0719,663.00,89.00,54.00,30.45,260.00,3.00,0.00,29.94,1010.40,10.00,M,BKN,OVC,M,M,15000.00,20000.00,M,M,M,M,M,M,M,M,M,86.89,KLAS 311256Z 26003KT 10SM BKN150 OVC200 32/12 A2994 RMK AO2 SLP104 VIRGA N T03170122,M
BVU,2023-07-31 13:15,-114.8611,35.9475,671.00,86.00,50.00,28.90,150.00,8.00,0.00,29.96,M,10.00,M,CLR,M,M,M,M,M,M,M,M,M,M,M,M,M,M,83.62,KBVU 311315Z AUTO 15008KT 110V170 10SM CLR 30/10 A2996 RMK AO2,M
CXP,2023-07-31 13:15,-119.7326,39.1923,1431.00,59.00,30.20,33.35,0.00,0.00,0.00,30.17,M,10.00,M,CLR,M,M,M,M,M,M,M,M,M,M,M,M,M,M,59.00,KCXP 311315Z AUTO 00000KT 10SM CLR 15/M01 A3017 RMK AO2,M
RTS,2023-07-31 13:15,-119.8764,39.6682,1539.00,51.80,28.40,40.25,340.00,5.00,0.00,30.20,M,10.00,M,CLR,M,M,M,M,M,M,M,M,M,M,M,M,M,M,51.80,KRTS 311315Z AUTO 34005KT 10SM CLR 11/M02 A3020 RMK AO2,M
05U,2023-07-31 13:15,-116.0051,39.6042,1811.23,53.60,28.40,37.67,M,M,0.00,30.26,M,10.00,M,M,M,M,M,M,M,M,M,M,M,M,M,M,M,M,53.60,K05U 311315Z AUTO 10SM 12/M02 A3026 RMK A01,M
MEV,2023-07-31 13:15,-119.7500,38.9963,1441.42,59.00,32.00,35.87,40.00,3.00,0.00,30.15,M,10.00,M,CLR,M,M,M,M,M,M,M,M,M,M,M,M,M,M,59.00,KMEV 311315Z AUTO 04003KT 10SM CLR 15/00 A3015 RMK AO2,M
HTH,2023-07-31 13:15,-118.6315,38.5448,1282.89,66.20,33.80,29.92,230.00,3.00,0.00,30.13,M,10.00,M,CLR,M,M,M,M,M,M,M,M,M,M,M,M,M,M,66.20,KHTH 311315Z AUTO 23003KT 10SM CLR 19/01 A3013 RMK A01,M
TMT,2023-07-31 13:15,-117.1971,39.4643,1749.34,43.30,29.50,57.96,0.00,0.00,0.00,30.25,M,M,M,CLR,M,M,M,M,M,M,M,M,M,M,M,M,M,M,43.30,KTMT 311315Z AUTO 00000KT CLR 06/M01 A3025 RMK AO2 T00631014 PWINO,M
10U,2023-07-31 13:15,-116.1876,41.9532,1637.00,53.60,26.60,34.98,130.00,6.00,0.00,30.20,M,10.00,M,CLR,M,M,M,M,M,M,M,M,M,M,M,M,M,M,53.60,K10U 311315Z AUTO 13006KT 10SM CLR 12/M03 A3020 RMK AO2,M
BAM,2023-07-31 13:15,-116.8743,40.5990,1382.36,55.40,24.80,30.40,120.00,5.00,0.00,30.15,M,10.00,M,CLR,M,M,M,M,M,M,M,M,M,M,M,M,M,M,55.40,KBAM 311315Z AUTO 12005KT 10SM CLR 13/M04 A3015 RMK AO1,M
05U,2023-07-31 13:30,-116.0051,39.6042,1811.23,57.20,28.40,33.05,M,M,0.00,30.26,M,10.00,M,M,M,M,M,M,M,M,M,M,M,M,M,M,M,M,57.20,K05U 311330Z AUTO 10SM 14/M02 A3026 RMK A01,M
BVU,2023-07-31 13:35,-114.8611,35.9475,671.00,87.80,59.00,37.90,150.00,14.00,0.00,29.97,M,10.00,M,CLR,M,M,M,M,M,M,M,M,M,M,M,M,M,M,87.12,KBVU 311335Z AUTO 15014KT 10SM CLR 31/15 A2997 RMK AO2,M
CXP,2023-07-31 13:35,-119.7326,39.1923,1431.00,60.80,32.00,33.64,0.00,0.00,0.00,30.17,M,10.00,M,CLR,M,M,M,M,M,M,M,M,M,M,M,M,M,M,60.80,KCXP 311335Z AUTO 00000KT 10SM CLR 16/00 A3017 RMK AO2,M
RTS,2023-07-31 13:35,-119.8764,39.6682,1539.00,53.60,30.20,40.54,10.00,3.00,0.00,30.21,M,10.00,M,CLR,M,M,M,M,M,M,M,M,M,M,M,M,M,M,53.60,KRTS 311335Z AUTO 01003KT 10SM CLR 12/M01 A3021 RMK AO2,M
MEV,2023-07-31 13:35,-119.7500,38.9963,1441.42,62.60,35.60,36.45,0.00,0.00,0.00,30.15,M,10.00,M,CLR,M,M,M,M,M,M,M,M,M,M,M,M,M,M,62.60,KMEV 311335Z AUTO 00000KT 10SM CLR 17/02 A3015 RMK AO2,M
HTH,2023-07-31 13:35,-118.6315,38.5448,1282.89,68.00,35.60,30.20,220.00,4.00,0.00,30.13,M,10.00,M,CLR,M,M,M,M,M,M,M,M,M,M,M,M,M,M,68.00,KHTH 311335Z AUTO 22004KT 10SM CLR 20/02 A3013 RMK A01,M
TMT,2023-07-31 13:35,-117.1971,39.4643,1749.34,46.00,30.00,53.37,0.00,0.00,0.00,30.25,M,M,M,CLR,M,M,M,M,M,M,M,M,M,M,M,M,M,M,46.00,KTMT 311335Z AUTO 00000KT CLR 08/M01 A3025 RMK AO2 T00781012 PWINO,M
10U,2023-07-31 13:35,-116.1876,41.9532,1637.00,53.60,28.40,37.67,140.00,4.00,0.00,30.20,M,10.00,M,CLR,M,M,M,M,M,M,M,M,M,M,M,M,M,M,53.60,K10U 311335Z AUTO 14004KT 10SM CLR 12/M02 A3020 RMK AO2,M
BAM,2023-07-31 13:35,-116.8743,40.5990,1382.36,55.40,26.60,32.76,170.00,3.00,0.00,30.15,M,10.00,M,CLR,M,M,M,M,M,M,M,M,M,M,M,M,M,M,55.40,KBAM 311335Z AUTO 17003KT 10SM CLR 13/M03 A3015 RMK AO1,M
P68,2023-07-31 13:53,-116.0056,39.6014,1993.00,61.00,33.00,34.77,0.00,0.00,0.00,30.24,1014.90,M,M,M,M,M,M,M,M,M,M,M,M,M,M,M,M,M,61.00,KP68 311353Z AUTO 00000KT 16/01 A3024 RMK AO1 SLP149 T01610006,M
DRA,2023-07-31 13:53,-116.0278,36.6206,1009.00,77.00,47.00,34.63,250.00,4.00,0.00,30.01,1010.50,10.00,M,CLR,M,M,M,M,M,M,M,M,M,M,M,M,M,M,77.00,KDRA 311353Z AUTO 25004KT 10SM CLR 25/08 A3001 RMK AO2 SLP105 T02500083,M
ELY,2023-07-31 13:53,-114.8453,39.2950,1909.00,62.00,46.00,55.71,60.00,4.00,0.00,30.26,1014.30,10.00,M,CLR,M,M,M,M,M,M,M,M,M,M,M,M,M,M,62.00,KELY 311353Z AUTO 06004KT 10SM CLR 17/08 A3026 RMK AO2 SLP143 T01670078,M
VGT,2023-07-31 13:53,-115.1933,36.2111,667.00,91.00,53.00,27.57,80.00,5.00,0.00,29.95,1012.70,10.00,M,CLR,M,M,M,M,M,M,M,M,M,M,M,M,M,M,88.55,KVGT 311353Z 08005KT 10SM CLR 33/12 A2995 RMK AO2 SLP127 T03280117,M
LOL,2023-07-31 13:53,-118.5701,40.0684,1192.43,57.00,35.00,43.46,0.00,0.00,0.00,30.11,1015.50,10.00,M,CLR,M,M,M,M,M,M,M,M,M,M,M,M,M,M,57.00,KLOL 311353Z AUTO 00000KT 10SM CLR 14/02 A3011 RMK AO2 SLP155 T01390017,M
10U,2023-07-31 13:55,-116.1876,41.9532,1637.00,60.80,30.20,31.28,0.00,0.00,0.00,30.20,M,10.00,M,CLR,M,M,M,M,M,M,M,M,M,M,M,M,M,M,60.80,K10U 311355Z AUTO 00000KT 10SM CLR 16/M01 A3020 RMK AO2,M
BVU,2023-07-31 13:55,-114.8611,35.9475,671.00,86.00,60.80,42.80,M,M,0.00,29.97,M,7.00,M,CLR,M,M,M,M,M,M,M,M,M,M,M,M,M,M,86.05,KBVU 311355Z AUTO 7SM CLR 30/16 A2997 RMK AO2,M
CXP,2023-07-31 13:55,-119.7326,39.1923,1431.00,60.80,35.60,38.85,0.00,0.00,0.00,30.18,M,10.00,M,CLR,M,M,M,M,M,M,M,M,M,M,M,M,M,M,60.80,KCXP 311355Z AUTO 00000KT 10SM CLR 16/02 A3018 RMK AO2,M
INS,2023-07-31 13:55,-115.6733,36.5872,955.00,78.30,46.00,31.94,0.00,0.00,0.00,30.01,1010.80,10.00,M,OVC,M,M,M,15000.00,M,M,M,M,M,M,M,M,M,M,78.30,KINS 311355Z AUTO 00000KT 10SM OVC150 26/08 A3001 RMK AO2 SLP108 T02570078 $,M
RNO,2023-07-31 13:55,-119.7711,39.4839,1341.00,66.00,34.00,30.37,290.00,4.00,0.00,30.16,1015.50,10.00,M,FEW,SCT,SCT,M,10000.00,18000.00,24000.00,M,M,M,M,M,M,M,M,66.00,KRNO 311355Z 29004KT 10SM FEW100 SCT180 SCT240 19/01 A3016 RMK AO2 SLP155 ACSL DSNT S T01890011,M
RTS,2023-07-31 13:55,-119.8764,39.6682,1539.00,55.40,32.00,40.84,320.00,5.00,0.00,30.21,M,10.00,M,CLR,M,M,M,M,M,M,M,M,M,M,M,M,M,M,55.40,KRTS 311355Z AUTO 32005KT 10SM CLR 13/M00 A3021 RMK AO2,M
05U,2023-07-31 13:55,-116.0051,39.6042,1811.23,62.60,32.00,31.56,M,M,0.00,30.27,M,10.00,M,M,M,M,M,M,M,M,M,M,M,M,M,M,M,M,62.60,K05U 311355Z AUTO 10SM 17/00 A3027 RMK A01,M
MEV,2023-07-31 13:55,-119.7500,38.9963,1441.42,64.40,35.60,34.22,0.00,0.00,0.00,30.15,M,10.00,M,CLR,M,M,M,M,M,M,M,M,M,M,M,M,M,M,64.40,KMEV 311355Z AUTO 00000KT 10SM CLR 18/02 A3015 RMK AO2,M
HTH,2023-07-31 13:55,-118.6315,38.5448,1282.89,68.00,35.60,30.20,200.00,3.00,0.00,30.14,M,10.00,M,CLR,M,M,M,M,M,M,M,M,M,M,M,M,M,M,68.00,KHTH 311355Z AUTO 20003KT 10SM CLR 20/02 A3014 RMK A01,M
TMT,2023-07-31 13:55,-117.1971,39.4643,1749.34,49.00,32.00,51.70,0.00,0.00,0.00,30.25,M,M,M,CLR,M,M,M,M,M,M,M,M,M,M,M,M,M,M,49.00,KTMT 311355Z AUTO 00000KT CLR 09/00 A3025 RMK AO2 T00941001 PWINO,M
LSV,2023-07-31 13:55,-115.0343,36.2362,570.00,90.30,53.80,29.02,50.00,8.00,0.00,29.92,1009.10,10.00,M,CLR,M,M,M,M,M,M,M,M,M,M,M,M,M,M,88.06,KLSV 311355Z COR AUTO 05008KT 10SM CLR 32/12 A2992 RMK AO2 SLP091 ALSTG ESTMD T03240121 $ COR 1408,M
BAM,2023-07-31 13:55,-116.8743,40.5990,1382.36,59.00,26.60,28.77,0.00,0.00,0.00,30.16,M,10.00,M,CLR,M,M,M,M,M,M,M,M,M,M,M,M,M,M,59.00,KBAM 311355Z AUTO 00000KT 10SM CLR 15/M03 A3016 RMK AO1,M
EKO,2023-07-31 13:56,-115.7860,40.8242,1367.00,60.00,32.00,34.61,90.00,5.00,0.00,30.18,1015.90,10.00,M,CLR,M,M,M,M,M,M,M,M,M,M,M,M,M,M,60.00,KEKO 311356Z AUTO 09005KT 10SM CLR 16/00 A3018 RMK AO2 SLP159 T01560000,M
WMC,2023-07-31 13:56,-117.8072,40.9019,1315.00,60.00,26.00,27.08,0.00,0.00,0.00,30.14,1015.50,10.00,M,CLR,M,M,M,M,M,M,M,M,M,M,M,M,M,M,60.00,KWMC 311356Z AUTO 00000KT 10SM CLR 16/M03 A3014 RMK AO2 SLP155 T01561033,M
NFL,2023-07-31 13:56,-118.7010,39.4166,1199.00,65.00,36.00,34.05,0.00,0.00,0.00,30.11,1016.10,10.00,M,SCT,SCT,M,M,15000.00,22000.00,M,M,M,M,M,M,M,M,M,65.00,KNFL 311356Z 00000KT 10SM SCT150 SCT220 18/02 A3011 RMK AO2 SLP161 T01830022 $,M
HND,2023-07-31 13:56,-115.1344,35.9729,742.79,90.00,54.00,29.51,160.00,10.00,0.00,30.00,1013.80,10.00,M,FEW,M,M,M,12000.00,M,M,M,M,M,M,M,M,M,M,87.82,KHND 311356Z 16010KT 10SM FEW120 32/12 A3000 RMK AO2 SLP138 T03220122,M
TPH,2023-07-31 13:56,-117.0904,38.0505,1654.00,68.00,29.00,23.16,320.00,4.00,0.00,30.20,1013.30,10.00,M,CLR,M,M,M,M,M,M,M,M,M,M,M,M,M,M,68.00,KTPH 311356Z AUTO 32004KT 10SM CLR 20/M02 A3020 RMK AO2 SLP133 T02001017,M
LAS,2023-07-31 13:56,-115.1634,36.0719,663.00,91.00,52.00,26.57,90.00,4.00,0.00,29.96,1011.10,10.00,M,FEW,FEW,M,M,12000.00,20000.00,M,M,M,M,M,M,M,M,M,88.35,KLAS 311356Z 09004KT 10SM FEW120 FEW200 33/11 A2996 RMK AO2 SLP111 T03280111,M
05U,2023-07-31 14:10,-116.0051,39.6042,1811.23,66.20,32.00,27.83,M,M,0.00,30.27,M,10.00,M,M,M,M,M,M,M,M,M,M,M,M,M,M,M,M,66.20,K05U 311410Z AUTO 10SM 19/00 A3027 RMK A01,M
BVU,2023-07-31 14:15,-114.8611,35.9475,671.00,86.00,60.80,42.80,120.00,13.00,0.00,29.98,M,7.00,M,CLR,M,M,M,M,M,M,M,M,M,M,M,M,M,M,86.05,KBVU 311415Z AUTO 12013KT 7SM CLR 30/16 A2998 RMK AO2,M
CXP,2023-07-31 14:15,-119.7326,39.1923,1431.00,64.40,32.00,29.63,0.00,0.00,0.00,30.18,M,10.00,M,CLR,M,M,M,M,M,M,M,M,M,M,M,M,M,M,64.40,KCXP 311415Z AUTO 00000KT 10SM CLR 18/00 A3018 RMK AO2,M
RTS,2023-07-31 14:15,-119.8764,39.6682,1539.00,59.00,32.00,35.87,0.00,0.00,0.00,30.21,M,10.00,M,CLR,M,M,M,M,M,M,M,M,M,M,M,M,M,M,59.00,KRTS 311415Z AUTO 00000KT 10SM CLR 15/M00 A3021 RMK AO2,M
MEV,2023-07-31 14:15,-119.7500,38.9963,1441.42,68.00,32.00,26.15,340.00,4.00,0.00,30.16,M,10.00,M,CLR,M,M,M,M,M,M,M,M,M,M,M,M,M,M,68.00,KMEV 311415Z AUTO 34004KT 10SM CLR 20/00 A3016 RMK AO2,M
HTH,2023-07-31 14:15,-118.6315,38.5448,1282.89,73.40,37.40,26.98,0.00,0.00,0.00,30.14,M,10.00,M,CLR,M,M,M,M,M,M,M,M,M,M,M,M,M,M,73.40,KHTH 311415Z AUTO 00000KT 10SM CLR 23/03 A3014 RMK A01,M
TMT,2023-07-31 14:15,-117.1971,39.4643,1749.34,53.00,33.30,46.97,0.00,0.00,0.00,30.26,M,M,M,CLR,M,M,M,M,M,M,M,M,M,M,M,M,M,M,53.00,KTMT 311415Z AUTO 00000KT CLR 12/01 A3026 RMK AO2 T01160007 PWINO,M
10U,2023-07-31 14:15,-116.1876,41.9532,1637.00,66.20,32.00,27.83,150.00,5.00,0.00,30.20,M,10.00,M,CLR,M,M,M,M,M,M,M,M,M,M,M,M,M,M,66.20,K10U 311415Z AUTO 15005KT 10SM CLR 19/M00 A3020 RMK AO2,M
BAM,2023-07-31 14:15,-116.8743,40.5990,1382.36,64.40,28.40,25.60,0.00,0.00,0.00,30.16,M,10.00,M,CLR,M,M,M,M,M,M,M,M,M,M,M,M,M,M,64.40,KBAM 311415Z AUTO 00000KT 10SM CLR 18/M02 A3016 RMK AO1,M
05U,2023-07-31 14:30,-116.0051,39.6042,1811.23,68.00,32.00,26.15,M,M,0.00,30.27,M,10.00,M,M,M,M,M,M,M,M,M,M,M,M,M,M,M,M,68.00,K05U 311430Z AUTO 10SM 20/M00 A3027 RMK A01,M
BVU,2023-07-31 14:35,-114.8611,35.9475,671.00,86.00,60.80,42.80,130.00,8.00,0.00,29.98,M,6.00,15.00,CLR,M,M,M,M,M,M,M,HZ,M,M,M,M,M,M,86.05,KBVU 311435Z AUTO 13008G15KT 6SM HZ CLR 30/16 A2998 RMK AO2,M
CXP,2023-07-31 14:35,-119.7326,39.1923,1431.00,68.00,30.20,24.32,0.00,0.00,0.00,30.18,M,10.00,M,CLR,M,M,M,M,M,M,M,M,M,M,M,M,M,M,68.00,KCXP 311435Z AUTO 00000KT 10SM CLR 20/M01 A3018 RMK AO2,M
RTS,2023-07-31 14:35,-119.8764,39.6682,1539.00,62.60,30.20,29.35,0.00,0.00,0.00,30.21,M,10.00,M,CLR,M,M,M,M,M,M,M,M,M,M,M,M,M,M,62.60,KRTS 311435Z AUTO 00000KT 10SM CLR 17/M01 A3021 RMK AO2,M
MEV,2023-07-31 14:35,-119.7500,38.9963,1441.42,71.60,32.00,23.13,0.00,0.00,0.00,30.16,M,10.00,M,CLR,M,M,M,M,M,M,M,M,M,M,M,M,M,M,71.60,KMEV 311435Z AUTO 00000KT 10SM CLR 22/00 A3016 RMK AO2,M
HTH,2023-07-31 14:35,-118.6315,38.5448,1282.89,75.20,39.20,27.26,0.00,0.00,0.00,30.14,M,10.00,M,CLR,M,M,M,M,M,M,M,M,M,M,M,M,M,M,75.20,KHTH 311435Z AUTO 00000KT 10SM CLR 24/04 A3014 RMK A01,M
10U,2023-07-31 14:35,-116.1876,41.9532,1637.00,68.00,30.20,24.32,160.00,4.00,0.00,30.21,M,10.00,M,CLR,M,M,M,M,M,M,M,M,M,M,M,M,M,M,68.00,K10U 311435Z AUTO 16004KT 10SM CLR 20/M01 A3021 RMK AO2,M
BAM,2023-07-31 14:35,-116.8743,40.5990,1382.36,68.00,28.40,22.59,0.00,0.00,0.00,30.16,M,10.00,M,CLR,M,M,M,M,M,M,M,M,M,M,M,M,M,M,68.00,KBAM 311435Z AUTO 00000KT 10SM CLR 20/M02 A3016 RMK AO1,M
TMT,2023-07-31 14:35,-117.1971,39.4643,1749.34,55.80,33.40,42.58,0.00,0.00,0.00,30.26,M,M,M,CLR,M,M,M,M,M,M,M,M,M,M,M,M,M,M,55.80,KTMT 311435Z AUTO 00000KT CLR 13/01 A3026 RMK AO2 T01320008 PWINO,M
P68,2023-07-31 14:53,-116.0056,39.6014,1993.00,71.00,29.00,20.90,0.00,0.00,0.00,30.24,1014.60,M,M,M,M,M,M,M,M,M,M,M,M,M,M,M,M,M,71.00,KP68 311453Z AUTO 00000KT 22/M02 A3024 RMK AO1 SLP146 T02171017 51008,M
DRA,2023-07-31 14:53,-116.0278,36.6206,1009.00,83.00,48.00,29.54,310.00,5.00,0.00,30.03,1011.00,10.00,M,CLR,M,M,M,M,M,M,M,M,M,M,M,M,M,M,81.18,KDRA 311453Z AUTO 31005KT 10SM CLR 28/09 A3003 RMK AO2 SLP110 T02830089 53014,M
ELY,2023-07-31 14:53,-114.8453,39.2950,1909.00,72.00,47.00,40.94,180.00,11.00,0.00,30.27,1013.80,10.00,M,CLR,M,M,M,M,M,M,M,M,M,M,M,M,M,M,72.00,KELY 311453Z AUTO 18011KT 10SM CLR 22/08 A3027 RMK AO2 SLP138 T02220083 51010,M
VGT,2023-07-31 14:53,-115.1933,36.2111,667.00,92.00,55.00,28.75,60.00,8.00,0.00,29.97,1013.10,10.00,M,CLR,M,M,M,M,M,M,M,M,M,M,M,M,M,M,90.02,KVGT 311453Z 06008KT 10SM CLR 33/13 A2997 RMK AO2 SLP131 T03330128 51016,M
LOL,2023-07-31 14:53,-118.5701,40.0684,1192.43,68.00,37.00,31.92,0.00,0.00,0.00,30.12,1015.50,10.00,M,CLR,M,M,M,M,M,M,M,M,M,M,M,M,M,M,68.00,KLOL 311453Z AUTO 00000KT 10SM CLR 20/03 A3012 RMK AO2 SLP155 T02000028 53008,M
10U,2023-07-31 14:55,-116.1876,41.9532,1637.00,71.60,30.20,21.50,100.00,4.00,0.00,30.21,M,10.00,M,CLR,M,M,M,M,M,M,M,M,M,M,M,M,M,M,71.60,K10U 311455Z AUTO 10004KT 10SM CLR 22/M01 A3021 RMK AO2,M
LSV,2023-07-31 14:55,-115.0343,36.2362,570.00,92.50,58.30,31.89,80.00,9.00,0.00,29.98,M,10.00,M,FEW,M,M,M,19000.00,M,M,M,M,M,M,M,M,M,M,91.56,KLSV 311455Z COR 08009KT 10SM FEW190 34/15 A2998 RMK AO2 SLPNO T03360146 $ COR 1514,M
BVU,2023-07-31 14:55,-114.8611,35.9475,671.00,87.80,60.80,40.41,130.00,10.00,0.00,29.99,M,5.00,M,CLR,M,M,M,M,M,M,M,HZ,M,M,M,M,M,M,87.75,KBVU 311455Z AUTO 13010KT 5SM HZ CLR 31/16 A2999 RMK AO2,M
CXP,2023-07-31 14:55,-119.7326,39.1923,1431.00,69.80,32.00,24.59,0.00,0.00,0.00,30.18,M,10.00,M,CLR,M,M,M,M,M,M,M,M,M,M,M,M,M,M,69.80,KCXP 311455Z AUTO 00000KT 10SM CLR 21/00 A3018 RMK AO2,M
INS,2023-07-31 14:55,-115.6733,36.5872,955.00,86.00,49.30,28.16,110.00,6.00,0.00,30.01,1010.70,10.00,M,BKN,M,M,M,16000.00,M,M,M,M,M,M,M,M,M,M,83.53,KINS 311455Z AUTO 11006KT 10SM BKN160 30/10 A3001 RMK AO2 SLP107 T03010096 52010 $,M
RNO,2023-07-31 14:55,-119.7711,39.4839,1341.00,70.00,35.00,27.54,0.00,0.00,0.00,30.17,1015.50,10.00,M,SCT,M,M,M,18000.00,M,M,M,M,M,M,M,M,M,M,70.00,KRNO 311455Z 00000KT 10SM SCT180 21/02 A3017 RMK AO2 SLP155 T02110017 51006,M
RTS,2023-07-31 14:55,-119.8764,39.6682,1539.00,66.20,32.00,27.83,0.00,0.00,0.00,30.21,M,10.00,M,CLR,M,M,M,M,M,M,M,M,M,M,M,M,M,M,66.20,KRTS 311455Z AUTO 00000KT 10SM CLR 19/M00 A3021 RMK AO2,M
05U,2023-07-31 14:55,-116.0051,39.6042,1811.23,73.40,30.20,20.23,M,M,0.00,30.27,M,10.00,M,M,M,M,M,M,M,M,M,M,M,M,M,M,M,M,73.40,K05U 311455Z AUTO 10SM 23/M01 A3027 RMK A01,M
MEV,2023-07-31 14:55,-119.7500,38.9963,1441.42,73.40,33.80,23.39,340.00,7.00,0.00,30.17,M,10.00,M,CLR,M,M,M,M,M,M,M,M,M,M,M,M,M,M,73.40,KMEV 311455Z AUTO 34007KT 10SM CLR 23/01 A3017 RMK AO2,M
HTH,2023-07-31 14:55,-118.6315,38.5448,1282.89,75.20,42.80,31.34,0.00,0.00,0.00,30.15,M,10.00,M,CLR,M,M,M,M,M,M,M,M,M,M,M,M,M,M,75.20,KHTH 311455Z AUTO 00000KT 10SM CLR 24/06 A3015 RMK A01,M
TMT,2023-07-31 14:55,-117.1971,39.4643,1749.34,58.00,36.30,44.14,230.00,3.00,0.00,30.27,M,M,M,CLR,M,M,M,M,M,M,M,M,M,M,M,M,M,M,58.00,KTMT 311455Z AUTO 23003KT CLR 15/02 A3027 RMK AO2 T01450024 PWINO,M
BAM,2023-07-31 14:55,-116.8743,40.5990,1382.36,71.60,28.40,19.98,0.00,0.00,0.00,30.17,M,10.00,M,CLR,M,M,M,M,M,M,M,M,M,M,M,M,M,M,71.60,KBAM 311455Z AUTO 00000KT 10SM CLR 22/M02 A3017 RMK AO1,M
EKO,2023-07-31 14:56,-115.7860,40.8242,1367.00,68.00,34.00,28.34,60.00,3.00,0.00,30.19,1016.10,10.00,M,CLR,M,M,M,M,M,M,M,M,M,M,M,M,M,M,68.00,KEKO 311456Z AUTO 06003KT 10SM CLR 20/01 A3019 RMK AO2 SLP161 T02000011 53011,M
WMC,2023-07-31 14:56,-117.8072,40.9019,1315.00,70.00,28.00,20.75,160.00,4.00,0.00,30.15,1015.50,10.00,M,CLR,M,M,M,M,M,M,M,M,M,M,M,M,M,M,70.00,KWMC 311456Z AUTO 16004KT 10SM CLR 21/M02 A3015 RMK AO2 SLP155 T02111022 53009,M
NFL,2023-07-31 14:56,-118.7010,39.4166,1199.00,75.00,38.00,26.18,260.00,5.00,0.00,30.12,1016.50,10.00,M,SCT,SCT,M,M,15000.00,22000.00,M,M,M,M,M,M,M,M,M,75.00,KNFL 311456Z COR 26005KT 10SM SCT150 SCT220 24/03 A3012 RMK AO2 SLP165 T02390033 53007 $,M
HND,2023-07-31 14:56,-115.1344,35.9729,742.79,91.00,55.00,29.66,180.00,7.00,0.00,30.02,1014.40,10.00,M,CLR,M,M,M,M,M,M,M,M,M,M,M,M,M,M,89.03,KHND 311456Z 18007KT 10SM CLR 33/13 A3002 RMK AO2 SLP144 T03280128 53017,M
TPH,2023-07-31 14:56,-117.0904,38.0505,1654.00,72.00,31.00,21.91,350.00,4.00,0.00,30.21,1013.70,10.00,M,CLR,M,M,M,M,M,M,M,M,M,M,M,M,M,M,72.00,KTPH 311456Z AUTO 35004KT 10SM CLR 22/M01 A3021 RMK AO2 SLP137 T02221006 53008,M
LAS,2023-07-31 14:56,-115.1634,36.0719,663.00,91.00,54.00,28.60,150.00,5.00,0.00,29.97,1011.70,10.00,M,FEW,SCT,M,M,12000.00,20000.00,M,M,M,M,M,M,M,M,M,88.78,KLAS 311456Z 15005KT 10SM FEW120 SCT200 33/12 A2997 RMK AO2 SLP117 T03280122 51017,M
05U,2023-07-31 15:10,-116.0051,39.6042,1811.23,75.20,30.20,19.05,M,M,0.00,30.27,M,10.00,M,M,M,M,M,M,M,M,M,M,M,M,M,M,M,M,75.20,K05U 311510Z AUTO 10SM 24/M01 A3027 RMK A01,M
BVU,2023-07-31 15:15,-114.8611,35.9475,671.00,87.80,60.80,40.41,150.00,8.00,0.00,29.99,M,4.00,M,CLR,M,M,M,M,M,M,M,HZ,M,M,M,M,M,M,87.75,KBVU 311515Z AUTO 15008KT 4SM HZ CLR 31/16 A2999 RMK AO2,M
CXP,2023-07-31 15:15,-119.7326,39.1923,1431.00,71.60,35.60,26.71,0.00,0.00,0.00,30.19,M,10.00,M,CLR,M,M,M,M,M,M,M,M,M,M,M,M,M,M,71.60,KCXP 311515Z AUTO 00000KT 10SM CLR 22/02 A3019 RMK AO2,M
RTS,2023-07-31 15:15,-119.8764,39.6682,1539.00,66.20,32.00,27.83,0.00,0.00,0.00,30.21,M,10.00,M,CLR,M,M,M,M,M,M,M,M,M,M,M,M,M,M,66.20,KRTS 311515Z AUTO 00000KT 10SM CLR 19/M00 A3021 RMK AO2,M
MEV,2023-07-31 15:15,-119.7500,38.9963,1441.42,75.20,28.40,17.70,350.00,4.00,0.00,30.17,M,10.00,M,CLR,M,M,M,M,M,M,M,M,M,M,M,M,M,M,75.20,KMEV 311515Z AUTO 35004KT 10SM CLR 24/M02 A3017 RMK AO2,M
HTH,2023-07-31 15:15,-118.6315,38.5448,1282.89,77.00,41.00,27.53,0.00,0.00,0.00,30.15,M,10.00,M,CLR,M,M,M,M,M,M,M,M,M,M,M,M,M,M,77.00,KHTH 311515Z AUTO 00000KT 10SM CLR 25/05 A3015 RMK A01,M
TMT,2023-07-31 15:15,-117.1971,39.4643,1749.34,61.30,37.40,40.98,0.00,0.00,0.00,30.27,M,M,M,CLR,M,M,M,M,M,M,M,M,M,M,M,M,M,M,61.30,KTMT 311515Z AUTO 00000KT CLR 16/03 A3027 RMK AO2 T01630030 PWINO,M
10U,2023-07-31 15:15,-116.1876,41.9532,1637.00,75.20,30.20,19.05,130.00,4.00,0.00,30.21,M,10.00,M,CLR,M,M,M,M,M,M,M,M,M,M,M,M,M,M,75.20,K10U 311515Z AUTO 13004KT 10SM CLR 24/M01 A3021 RMK AO2,M
BAM,2023-07-31 15:15,-116.8743,40.5990,1382.36,73.40,32.00,21.76,0.00,0.00,0.00,30.17,M,10.00,M,CLR,M,M,M,M,M,M,M,M,M,M,M,M,M,M,73.40,KBAM 311515Z AUTO 00000KT 10SM CLR 23/00 A3017 RMK AO1,M
BVU,2023-07-31 15:35,-114.8611,35.9475,671.00,89.60,60.80,38.18,130.00,9.00,0.00,29.99,M,4.00,M,CLR,M,M,M,M,M,M,M,HZ,M,M,M,M,M,M,89.54,KBVU 311535Z AUTO 13009KT 4SM HZ CLR 32/16 A2999 RMK AO2,M
CXP,2023-07-31 15:35,-119.7326,39.1923,1431.00,73.40,37.40,26.98,0.00,0.00,0.00,30.19,M,10.00,M,CLR,M,M,M,M,M,M,M,M,M,M,M,M,M,M,73.40,KCXP 311535Z AUTO 00000KT 10SM CLR 23/03 A3019 RMK AO2,M
RTS,2023-07-31 15:35,-119.8764,39.6682,1539.00,69.80,32.00,24.59,0.00,0.00,0.00,30.21,M,10.00,M,CLR,M,M,M,M,M,M,M,M,M,M,M,M,M,M,69.80,KRTS 311535Z AUTO 00000KT 10SM CLR 21/M00 A3021 RMK AO2,M
05U,2023-07-31 15:35,-116.0051,39.6042,1811.23,75.20,30.20,19.05,M,M,0.00,30.28,M,10.00,M,CLR,M,M,M,M,M,M,M,M,M,M,M,M,M,M,75.20,K05U 311535Z AUTO 10SM CLR 24/M01 A3028 RMK A01,M
MEV,2023-07-31 15:35,-119.7500,38.9963,1441.42,77.00,28.40,16.67,0.00,0.00,0.00,30.17,M,10.00,M,CLR,M,M,M,M,M,M,M,M,M,M,M,M,M,M,77.00,KMEV 311535Z AUTO 00000KT 10SM CLR 25/M02 A3017 RMK AO2,M
HTH,2023-07-31 15:35,-118.6315,38.5448,1282.89,78.80,37.40,22.54,0.00,0.00,0.00,30.15,M,10.00,M,CLR,M,M,M,M,M,M,M,M,M,M,M,M,M,M,78.80,KHTH 311535Z AUTO 00000KT 10SM CLR 26/03 A3015 RMK A01,M
TMT,2023-07-31 15:35,-117.1971,39.4643,1749.34,64.60,37.00,35.92,0.00,0.00,0.00,30.27,M,M,M,CLR,M,M,M,M,M,M,M,M,M,M,M,M,M,M,64.60,KTMT 311535Z AUTO 00000KT CLR 18/03 A3027 RMK AO2 T01810028 PWINO,M
10U,2023-07-31 15:35,-116.1876,41.9532,1637.00,77.00,28.40,16.67,M,6.00,0.00,30.21,M,10.00,M,CLR,M,M,M,M,M,M,M,M,M,M,M,M,M,M,77.00,K10U 311535Z AUTO VRB06KT 10SM CLR 25/M02 A3021 RMK AO2,M
BAM,2023-07-31 15:35,-116.8743,40.5990,1382.36,77.00,32.00,19.30,50.00,4.00,0.00,30.17,M,10.00,M,CLR,M,M,M,M,M,M,M,M,M,M,M,M,M,M,77.00,KBAM 311535Z AUTO 05004KT 10SM CLR 25/00 A3017 RMK AO1,M
05U,2023-07-31 15:50,-116.0051,39.6042,1811.23,77.00,28.40,16.67,M,M,0.00,30.27,M,10.00,M,CLR,M,M,M,M,M,M,M,M,M,M,M,M,M,M,77.00,K05U 311550Z AUTO 10SM CLR 25/M02 A3027 RMK A01,M
P68,2023-07-31 15:53,-116.0056,39.6014,1993.00,76.00,28.00,16.95,0.00,0.00,0.00,30.25,1014.40,M,M,M,M,M,M,M,M,M,M,M,M,M,M,M,M,M,76.00,KP68 311553Z AUTO 00000KT 24/M02 A3025 RMK AO1 SLP144 T02441022,M
DRA,2023-07-31 15:53,-116.0278,36.6206,1009.00,90.00,49.00,24.53,0.00,0.00,0.00,30.04,1011.40,10.00,M,CLR,M,M,M,M,M,M,M,M,M,M,M,M,M,M,86.91,KDRA 311553Z AUTO 00000KT 10SM CLR 32/09 A3004 RMK AO2 SLP114 T03220094,M
ELY,2023-07-31 15:53,-114.8453,39.2950,1909.00,75.00,48.00,38.43,220.00,8.00,0.00,30.28,1013.80,10.00,M,CLR,M,M,M,M,M,M,M,M,M,M,M,M,M,M,75.00,KELY 311553Z AUTO 22008KT 10SM CLR 24/09 A3028 RMK AO2 SLP138 T02390089,M
VGT,2023-07-31 15:53,-115.1933,36.2111,667.00,93.00,59.00,32.19,110.00,9.00,0.00,29.99,1013.90,10.00,M,CLR,M,M,M,M,M,M,M,M,M,M,M,M,M,M,92.35,KVGT 311553Z 11009KT 10SM CLR 34/15 A2999 RMK AO2 SLP139 T03390150,M
LOL,2023-07-31 15:53,-118.5701,40.0684,1192.43,74.00,42.00,31.63,100.00,4.00,0.00,30.12,1015.40,10.00,M,CLR,M,M,M,M,M,M,M,M,M,M,M,M,M,M,74.00,KLOL 311553Z AUTO 10004KT 10SM CLR 23/06 A3012 RMK AO2 SLP154 T02330056,M
10U,2023-07-31 15:55,-116.1876,41.9532,1637.00,80.60,26.60,13.75,190.00,6.00,0.00,30.21,M,10.00,M,CLR,M,M,M,M,M,M,M,M,M,M,M,M,M,M,78.68,K10U 311555Z AUTO 19006KT 10SM CLR 27/M03 A3021 RMK AO2,M
LSV,2023-07-31 15:55,-115.0343,36.2362,570.00,93.00,59.40,32.66,90.00,10.00,0.00,29.99,M,10.00,M,CLR,M,M,M,M,M,M,M,M,M,M,M,M,M,M,92.51,KLSV 311555Z 09010KT 10SM CLR 34/15 A2999 RMK AO2A SLPNO T03380152 $,M
BVU,2023-07-31 15:55,-114.8611,35.9475,671.00,89.60,60.80,38.18,140.00,9.00,0.00,29.99,M,4.00,15.00,CLR,M,M,M,M,M,M,M,HZ,M,M,M,M,M,M,89.54,KBVU 311555Z AUTO 14009G15KT 4SM HZ CLR 32/16 A2999 RMK AO2,M
CXP,2023-07-31 15:55,-119.7326,39.1923,1431.00,75.20,33.80,22.02,0.00,0.00,0.00,30.19,M,10.00,M,CLR,M,M,M,M,M,M,M,M,M,M,M,M,M,M,75.20,KCXP 311555Z AUTO 00000KT 10SM CLR 24/01 A3019 RMK AO2,M
INS,2023-07-31 15:55,-115.6733,36.5872,955.00,88.50,49.30,26.01,0.00,0.00,0.00,30.03,1011.30,10.00,M,SCT,SCT,M,M,15000.00,22000.00,M,M,M,M,M,M,M,M,M,85.62,KINS 311555Z AUTO 00000KT 10SM SCT150 SCT220 31/10 A3003 RMK AO2 SLP113 T03140096 $,M
RNO,2023-07-31 15:55,-119.7711,39.4839,1341.00,75.00,35.00,23.26,0.00,0.00,0.00,30.17,1015.40,10.00,M,SCT,M,M,M,23000.00,M,M,M,M,M,M,M,M,M,M,75.00,KRNO 311555Z 00000KT 10SM SCT230 24/02 A3017 RMK AO2 SLP154 T02390017,M
RTS,2023-07-31 15:55,-119.8764,39.6682,1539.00,69.80,28.40,21.24,0.00,0.00,0.00,30.21,M,10.00,M,CLR,M,M,M,M,M,M,M,M,M,M,M,M,M,M,69.80,KRTS 311555Z AUTO 00000KT 10SM CLR 21/M02 A3021 RMK AO2,M
MEV,2023-07-31 15:55,-119.7500,38.9963,1441.42,78.80,26.60,14.59,0.00,0.00,0.00,30.17,M,10.00,M,CLR,M,M,M,M,M,M,M,M,M,M,M,M,M,M,78.80,KMEV 311555Z AUTO 00000KT 10SM CLR 26/M03 A3017 RMK AO2,M
HTH,2023-07-31 15:55,-118.6315,38.5448,1282.89,78.80,33.80,19.55,0.00,0.00,0.00,30.15,M,10.00,M,CLR,M,M,M,M,M,M,M,M,M,M,M,M,M,M,78.80,KHTH 311555Z AUTO 00000KT 10SM CLR 26/01 A3015 RMK A01,M
TMT,2023-07-31 15:55,-117.1971,39.4643,1749.34,68.00,37.40,32.43,0.00,0.00,0.00,30.26,M,M,M,CLR,M,M,M,M,M,M,M,M,M,M,M,M,M,M,68.00,KTMT 311555Z AUTO 00000KT CLR 20/03 A3026 RMK AO2 T02000030 PWINO,M
BAM,2023-07-31 15:55,-116.8743,40.5990,1382.36,80.60,35.60,19.79,20.00,4.00,0.00,30.17,M,10.00,M,CLR,M,M,M,M,M,M,M,M,M,M,M,M,M,M,78.94,KBAM 311555Z AUTO 02004KT 10SM CLR 27/02 A3017 RMK AO1,M
EKO,2023-07-31 15:56,-115.7860,40.8242,1367.00,78.00,34.00,20.23,0.00,0.00,0.00,30.19,1015.80,10.00,M,CLR,M,M,M,M,M,M,M,M,M,M,M,M,M,M,78.00,KEKO 311556Z AUTO 00000KT 10SM CLR 26/01 A3019 RMK AO2 SLP158 T02560011,M
WMC,2023-07-31 15:56,-117.8072,40.9019,1315.00,79.00,27.00,14.73,290.00,6.00,0.00,30.15,1015.50,10.00,M,CLR,M,M,M,M,M,M,M,M,M,M,M,M,M,M,79.00,KWMC 311556Z AUTO 29006KT 10SM CLR 26/M03 A3015 RMK AO2 SLP155 T02611028,M
NFL,2023-07-31 15:56,-118.7010,39.4166,1199.00,79.00,39.00,23.85,0.00,0.00,0.00,30.12,1016.60,10.00,M,SCT,SCT,M,M,15000.00,22000.00,M,M,M,M,M,M,M,M,M,79.00,KNFL 311556Z 00000KT 10SM SCT150 SCT220 26/04 A3012 RMK AO2 SLP166 T02610039 $,M
HND,2023-07-31 15:56,-115.1344,35.9729,742.79,92.00,55.00,28.75,0.00,0.00,0.00,30.02,1014.50,10.00,M,CLR,M,M,M,M,M,M,M,M,M,M,M,M,M,M,90.02,KHND 311556Z 00000KT 10SM CLR 33/13 A3002 RMK AO2 SLP145 T03330128,M
TPH,2023-07-31 15:56,-117.0904,38.0505,1654.00,77.00,35.00,21.76,0.00,0.00,0.00,30.22,1013.80,10.00,M,CLR,M,M,M,M,M,M,M,M,M,M,M,M,M,M,77.00,KTPH 311556Z AUTO 00000KT 10SM CLR 25/02 A3022 RMK AO2 SLP138 T02500017,M
LAS,2023-07-31 15:56,-115.1634,36.0719,663.00,93.00,53.00,25.90,180.00,3.00,0.00,29.98,1012.00,10.00,M,FEW,BKN,M,M,12000.00,20000.00,M,M,M,M,M,M,M,M,M,90.52,KLAS 311556Z 18003KT 10SM FEW120 BKN200 34/12 A2998 RMK AO2 SLP120 T03390117,M
BVU,2023-07-31 16:15,-114.8611,35.9475,671.00,91.40,60.80,36.08,130.00,10.00,0.00,29.99,M,5.00,M,CLR,M,M,M,M,M,M,M,HZ,M,M,M,M,M,M,91.40,KBVU 311615Z AUTO 13010KT 5SM HZ CLR 33/16 A2999 RMK AO2,M
CXP,2023-07-31 16:15,-119.7326,39.1923,1431.00,77.00,32.00,19.30,0.00,0.00,0.00,30.18,M,10.00,M,CLR,M,M,M,M,M,M,M,M,M,M,M,M,M,M,77.00,KCXP 311615Z AUTO 00000KT 10SM CLR 25/M00 A3018 RMK AO2,M
RTS,2023-07-31 16:15,-119.8764,39.6682,1539.00,71.60,28.40,19.98,0.00,0.00,0.00,30.21,M,10.00,M,CLR,M,M,M,M,M,M,M,M,M,M,M,M,M,M,71.60,KRTS 311615Z AUTO 00000KT 10SM CLR 22/M02 A3021 RMK AO2,M
05U,2023-07-31 16:15,-116.0051,39.6042,1811.23,78.80,28.40,15.71,0.00,0.00,0.00,30.28,M,10.00,M,M,M,M,M,M,M,M,M,M,M,M,M,M,M,M,78.80,K05U 311615Z AUTO 00000KT 10SM 26/M02 A3028 RMK A01,M
MEV,2023-07-31 16:15,-119.7500,38.9963,1441.42,80.60,26.60,13.75,0.00,0.00,0.00,30.17,M,9.00,M,CLR,M,M,M,M,M,M,M,M,M,M,M,M,M,M,78.68,KMEV 311615Z AUTO 00000KT 9SM CLR 27/M03 A3017 RMK AO2,M
HTH,2023-07-31 16:15,-118.6315,38.5448,1282.89,80.60,33.80,18.42,10.00,4.00,0.00,30.14,M,10.00,M,CLR,M,M,M,M,M,M,M,M,M,M,M,M,M,M,78.88,KHTH 311615Z AUTO 01004KT 10SM CLR 27/01 A3014 RMK A01,M
TMT,2023-07-31 16:15,-117.1971,39.4643,1749.34,70.30,36.30,28.70,0.00,0.00,0.00,30.26,M,M,M,CLR,M,M,M,M,M,M,M,M,M,M,M,M,M,M,70.30,KTMT 311615Z AUTO 00000KT CLR 21/02 A3026 RMK AO2 T02130024 PWINO,M
10U,2023-07-31 16:15,-116.1876,41.9532,1637.00,80.60,26.60,13.75,M,6.00,0.00,30.21,M,10.00,M,CLR,M,M,M,M,M,M,M,M,M,M,M,M,M,M,78.68,K10U 311615Z AUTO VRB06KT 10SM CLR 27/M03 A3021 RMK AO2,M
BAM,2023-07-31 16:15,-116.8743,40.5990,1382.36,82.40,32.00,16.17,10.00,3.00,0.00,30.17,M,10.00,M,CLR,M,M,M,M,M,M,M,M,M,M,M,M,M,M,80.00,KBAM 311615Z AUTO 01003KT 10SM CLR 28/00 A3017 RMK AO1,M
BVU,2023-07-31 16:35,-114.8611,35.9475,671.00,91.40,60.80,36.08,110.00,9.00,0.00,29.99,M,5.00,14.00,CLR,M,M,M,M,M,M,M,HZ,M,M,M,M,M,M,91.40,KBVU 311635Z AUTO 11009G14KT 5SM HZ CLR 33/16 A2999 RMK AO2,M
CXP,2023-07-31 16:35,-119.7326,39.1923,1431.00,78.80,28.40,15.71,0.00,0.00,0.00,30.18,M,10.00,M,CLR,M,M,M,M,M,M,M,M,M,M,M,M,M,M,78.80,KCXP 311635Z AUTO 00000KT 10SM CLR 26/M02 A3018 RMK AO2,M
RTS,2023-07-31 16:35,-119.8764,39.6682,1539.00,73.40,28.40,18.80,0.00,0.00,0.00,30.21,M,10.00,M,CLR,M,M,M,M,M,M,M,M,M,M,M,M,M,M,73.40,KRTS 311635Z AUTO 00000KT 10SM CLR 23/M02 A3021 RMK AO2,M
05U,2023-07-31 16:35,-116.0051,39.6042,1811.23,80.60,26.60,13.75,M,M,0.00,30.27,M,10.00,M,M,M,M,M,M,M,M,M,M,M,M,M,M,M,M,78.68,K05U 311635Z AUTO 10SM 27/M03 A3027 RMK A01,M
MEV,2023-07-31 16:35,-119.7500,38.9963,1441.42,78.80,28.40,15.71,0.00,0.00,0.00,30.16,M,8.00,M,CLR,M,M,M,M,M,M,M,M,M,M,M,M,M,M,78.80,KMEV 311635Z AUTO 00000KT 8SM CLR 26/M02 A3016 RMK AO2,M
HTH,2023-07-31 16:35,-118.6315,38.5448,1282.89,80.60,33.80,18.42,330.00,4.00,0.00,30.14,M,10.00,M,CLR,M,M,M,M,M,M,M,M,M,M,M,M,M,M,78.88,KHTH 311635Z AUTO 33004KT 10SM CLR 27/01 A3014 RMK A01,M
TMT,2023-07-31 16:35,-117.1971,39.4643,1749.34,72.00,35.40,26.14,0.00,0.00,0.00,30.25,M,M,M,CLR,M,M,M,M,M,M,M,M,M,M,M,M,M,M,72.00,KTMT 311635Z AUTO 00000KT CLR 22/02 A3025 RMK AO2 T02220019 PWINO,M
10U,2023-07-31 16:35,-116.1876,41.9532,1637.00,80.60,24.80,12.76,200.00,7.00,0.00,30.21,M,10.00,M,CLR,M,M,M,M,M,M,M,M,M,M,M,M,M,M,78.94,K10U 311635Z AUTO 20007KT 10SM CLR 27/M04 A3021 RMK AO2,M
BAM,2023-07-31 16:35,-116.8743,40.5990,1382.36,82.40,32.00,16.17,350.00,4.00,0.00,30.16,M,10.00,M,CLR,M,M,M,M,M,M,M,M,M,M,M,M,M,M,80.00,KBAM 311635Z AUTO 35004KT 10SM CLR 28/00 A3016 RMK AO1,M
P68,2023-07-31 16:53,-116.0056,39.6014,1993.00,81.00,25.00,12.70,M,5.00,0.00,30.24,1014.40,M,M,M,M,M,M,M,M,M,M,M,M,M,M,M,M,M,78.89,KP68 311653Z AUTO VRB05KT 27/M04 A3024 RMK AO1 SLP144 T02721039,M
DRA,2023-07-31 16:53,-116.0278,36.6206,1009.00,93.00,42.00,17.13,330.00,4.00,0.00,30.05,1011.40,10.00,M,CLR,M,M,M,M,M,M,M,M,M,M,M,M,M,M,88.92,KDRA 311653Z AUTO 33004KT 10SM CLR 34/06 A3005 RMK AO2 SLP114 T03390056,M
ELY,2023-07-31 16:53,-114.8453,39.2950,1909.00,79.00,46.00,31.21,160.00,6.00,0.00,30.27,1013.20,10.00,M,CLR,M,M,M,M,M,M,M,M,M,M,M,M,M,M,79.00,KELY 311653Z AUTO 16006KT 10SM CLR 26/08 A3027 RMK AO2 SLP132 T02610078,M
VGT,2023-07-31 16:53,-115.1933,36.2111,667.00,94.00,58.00,30.11,90.00,7.00,0.00,29.98,1013.80,10.00,M,CLR,M,M,M,M,M,M,M,M,M,M,M,M,M,M,93.04,KVGT 311653Z 09007KT 10SM CLR 34/14 A2998 RMK AO2 SLP138 T03440144,M
LOL,2023-07-31 16:53,-118.5701,40.0684,1192.43,82.00,37.00,19.99,70.00,6.00,0.00,30.12,1015.00,10.00,M,CLR,M,M,M,M,M,M,M,M,M,M,M,M,M,M,79.86,KLOL 311653Z AUTO 07006KT 10SM CLR 28/03 A3012 RMK AO2 SLP150 T02780028,M
BAM,2023-07-31 16:55,-116.8743,40.5990,1382.36,84.20,33.80,16.39,40.00,3.00,0.00,30.16,M,10.00,M,CLR,M,M,M,M,M,M,M,M,M,M,M,M,M,M,81.30,KBAM 311655Z AUTO 04003KT 10SM CLR 29/01 A3016 RMK AO1,M
10U,2023-07-31 16:55,-116.1876,41.9532,1637.00,84.20,21.20,9.76,210.00,12.00,0.00,30.20,M,10.00,M,CLR,M,M,M,M,M,M,M,M,M,M,M,M,M,M,80.77,K10U 311655Z AUTO 21012KT 10SM CLR 29/M06 A3020 RMK AO2,M
INS,2023-07-31 16:55,-115.6733,36.5872,955.00,90.70,49.00,24.00,110.00,9.00,0.00,30.02,1011.00,10.00,M,SCT,M,M,M,14000.00,M,M,M,M,M,M,M,M,M,M,87.55,KINS 311655Z AUTO 11009KT 10SM SCT140 33/09 A3002 RMK AO2 SLP110 T03260094 $,M
LSV,2023-07-31 16:55,-115.0343,36.2362,570.00,95.00,59.70,31.03,100.00,9.00,0.00,29.98,M,3.00,M,BKN,M,M,M,15000.00,M,M,M,FU,M,M,M,M,M,M,94.81,KLSV 311655Z COR 10009KT 3SM FU BKN150 35/15 A2998 RMK AO2A SLPNO T03510154 $ COR 1706,M
BVU,2023-07-31 16:55,-114.8611,35.9475,671.00,91.40,60.80,36.08,120.00,11.00,0.00,29.99,M,5.00,M,CLR,M,M,M,M,M,M,M,HZ,M,M,M,M,M,M,91.40,KBVU 311655Z AUTO 12011KT 5SM HZ CLR 33/16 A2999 RMK AO2,M
CXP,2023-07-31 16:55,-119.7326,39.1923,1431.00,80.60,26.60,13.75,0.00,0.00,0.00,30.17,M,10.00,M,CLR,M,M,M,M,M,M,M,M,M,M,M,M,M,M,78.68,KCXP 311655Z AUTO 00000KT 10SM CLR 27/M03 A3017 RMK AO2,M
RNO,2023-07-31 16:55,-119.7711,39.4839,1341.00,80.00,34.00,18.94,M,3.00,0.00,30.16,1014.90,10.00,M,SCT,M,M,M,23000.00,M,M,M,M,M,M,M,M,M,M,78.59,KRNO 311655Z VRB03KT 10SM SCT230 27/01 A3016 RMK AO2 SLP149 T02670011,M
RTS,2023-07-31 16:55,-119.8764,39.6682,1539.00,75.20,30.20,19.05,120.00,5.00,0.00,30.21,M,10.00,M,CLR,M,M,M,M,M,M,M,M,M,M,M,M,M,M,75.20,KRTS 311655Z AUTO 12005KT 10SM CLR 24/M01 A3021 RMK AO2,M
05U,2023-07-31 16:55,-116.0051,39.6042,1811.23,82.40,26.60,12.97,M,M,0.00,30.27,M,10.00,M,M,M,M,M,M,M,M,M,M,M,M,M,M,M,M,79.92,K05U 311655Z AUTO 10SM 28/M03 A3027 RMK A01,M
MEV,2023-07-31 16:55,-119.7500,38.9963,1441.42,82.40,28.40,13.96,M,4.00,0.00,30.16,M,9.00,M,CLR,M,M,M,M,M,M,M,M,M,M,M,M,M,M,79.94,KMEV 311655Z AUTO VRB04KT 9SM CLR 28/M02 A3016 RMK AO2,M
HTH,2023-07-31 16:55,-118.6315,38.5448,1282.89,82.40,32.00,16.17,0.00,0.00,0.00,30.13,M,10.00,M,CLR,M,M,M,M,M,M,M,M,M,M,M,M,M,M,80.00,KHTH 311655Z AUTO 00000KT 10SM CLR 28/M00 A3013 RMK A01,M
EKO,2023-07-31 16:56,-115.7860,40.8242,1367.00,83.00,34.00,17.18,240.00,5.00,0.00,30.18,1015.40,10.00,M,CLR,M,M,M,M,M,M,M,M,M,M,M,M,M,M,80.45,KEKO 311656Z AUTO 24005KT 10SM CLR 28/01 A3018 RMK AO2 SLP154 T02830011,M
WMC,2023-07-31 16:56,-117.8072,40.9019,1315.00,84.00,27.00,12.52,290.00,4.00,0.00,30.14,1015.20,10.00,M,CLR,M,M,M,M,M,M,M,M,M,M,M,M,M,M,81.03,KWMC 311656Z AUTO 29004KT 10SM CLR 29/M03 A3014 RMK AO2 SLP152 T02891028,M
NFL,2023-07-31 16:56,-118.7010,39.4166,1199.00,83.00,37.00,19.35,330.00,3.00,0.00,30.11,1016.40,10.00,M,SCT,SCT,M,M,15000.00,20000.00,M,M,M,M,M,M,M,M,M,80.53,KNFL 311656Z 33003KT 10SM SCT150 SCT200 28/03 A3011 RMK AO2 SLP164 T02830028 $,M
HND,2023-07-31 16:56,-115.1344,35.9729,742.79,94.00,54.00,26.05,M,4.00,0.00,30.03,1014.70,10.00,M,CLR,M,M,M,M,M,M,M,M,M,M,M,M,M,M,91.78,KHND 311656Z VRB04KT 10SM CLR 34/12 A3003 RMK AO2 SLP147 T03440122,M
TPH,2023-07-31 16:56,-117.0904,38.0505,1654.00,81.00,38.00,21.48,180.00,3.00,0.00,30.21,1013.50,10.00,M,CLR,M,M,M,M,M,M,M,M,M,M,M,M,M,M,79.28,KTPH 311656Z AUTO 18003KT 10SM CLR 27/03 A3021 RMK AO2 SLP135 T02720033,M
LAS,2023-07-31 16:56,-115.1634,36.0719,663.00,95.00,57.00,28.16,80.00,11.00,0.00,29.99,1012.10,9.00,M,SCT,BKN,M,M,12000.00,20000.00,M,M,DU,M,M,M,M,M,M,93.75,KLAS 311656Z 08011KT 9SM DU SCT120 BKN200 35/14 A2999 RMK AO2 SLP121 T03500139,M
BVU,2023-07-31 17:15,-114.8611,35.9475,671.00,93.20,60.80,34.11,120.00,11.00,0.00,29.99,M,4.00,M,CLR,M,M,M,M,M,M,M,HZ,M,M,M,M,M,M,93.32,KBVU 311715Z AUTO 12011KT 4SM HZ CLR 34/16 A2999 RMK AO2,M
CXP,2023-07-31 17:15,-119.7326,39.1923,1431.00,82.40,28.40,13.96,0.00,0.00,0.00,30.17,M,10.00,M,CLR,M,M,M,M,M,M,M,M,M,M,M,M,M,M,79.94,KCXP 311715Z AUTO 00000KT 10SM CLR 28/M02 A3017 RMK AO2,M
RTS,2023-07-31 17:15,-119.8764,39.6682,1539.00,77.00,26.60,15.48,M,3.00,0.00,30.20,M,10.00,M,CLR,M,M,M,M,M,M,M,M,M,M,M,M,M,M,77.00,KRTS 311715Z AUTO VRB03KT 10SM CLR 25/M03 A3020 RMK AO2,M
05U,2023-07-31 17:15,-116.0051,39.6042,1811.23,84.20,28.40,13.18,M,M,0.00,30.26,M,10.00,M,M,M,M,M,M,M,M,M,M,M,M,M,M,M,M,81.25,K05U 311715Z AUTO 10SM 29/M02 A3026 RMK A01,M
MEV,2023-07-31 17:15,-119.7500,38.9963,1441.42,84.20,30.20,14.18,M,5.00,0.00,30.15,M,10.00,10.00,CLR,M,M,M,M,M,M,M,M,M,M,M,M,M,M,81.26,KMEV 311715Z AUTO VRB05G10KT 10SM CLR 29/M01 A3015 RMK AO2,M
HTH,2023-07-31 17:15,-118.6315,38.5448,1282.89,84.20,32.00,15.25,0.00,0.00,0.00,30.13,M,10.00,M,CLR,M,M,M,M,M,M,M,M,M,M,M,M,M,M,81.28,KHTH 311715Z AUTO 00000KT 10SM CLR 29/M00 A3013 RMK A01,M
TMT,2023-07-31 17:15,-117.1971,39.4643,1749.34,77.00,36.70,23.28,80.00,3.00,0.00,30.24,M,M,M,CLR,M,M,M,M,M,M,M,M,M,M,M,M,M,M,77.00,KTMT 311715Z AUTO 08003KT CLR 25/03 A3024 RMK AO2 T02500026 PWINO,M
10U,2023-07-31 17:15,-116.1876,41.9532,1637.00,84.20,24.80,11.35,220.00,11.00,0.00,30.20,M,10.00,M,CLR,M,M,M,M,M,M,M,M,M,M,M,M,M,M,81.00,K10U 311715Z AUTO 22011KT 180V240 10SM CLR 29/M04 A3020 RMK AO2,M
BAM,2023-07-31 17:15,-116.8743,40.5990,1382.36,86.00,32.00,14.40,0.00,0.00,0.00,30.16,M,10.00,M,CLR,M,M,M,M,M,M,M,M,M,M,M,M,M,M,82.64,KBAM 311715Z AUTO 00000KT 10SM CLR 30/00 A3016 RMK AO1,M
HTH,2023-07-31 17:30,-118.6315,38.5448,1282.89,84.20,30.20,14.18,330.00,6.00,0.00,30.13,M,10.00,M,CLR,M,M,M,M,M,M,M,M,M,M,M,M,M,M,81.26,KHTH 311730Z AUTO 33006KT 10SM CLR 29/M01 A3013 RMK A01,M
BVU,2023-07-31 17:35,-114.8611,35.9475,671.00,93.20,60.80,34.11,130.00,13.00,0.00,29.99,M,4.00,M,CLR,M,M,M,M,M,M,M,HZ,M,M,M,M,M,M,93.32,KBVU 311735Z AUTO 13013KT 4SM HZ CLR 34/16 A2999 RMK AO2,M
CXP,2023-07-31 17:35,-119.7326,39.1923,1431.00,86.00,26.60,11.55,M,5.00,0.00,30.16,M,10.00,M,CLR,M,M,M,M,M,M,M,M,M,M,M,M,M,M,82.39,KCXP 311735Z AUTO VRB05KT 10SM CLR 30/M03 A3016 RMK AO2,M
RTS,2023-07-31 17:35,-119.8764,39.6682,1539.00,77.00,23.00,13.32,0.00,0.00,0.00,30.20,M,10.00,M,CLR,M,M,M,M,M,M,M,M,M,M,M,M,M,M,77.00,KRTS 311735Z AUTO 00000KT 10SM CLR 25/M05 A3020 RMK AO2,M
05U,2023-07-31 17:35,-116.0051,39.6042,1811.23,86.00,24.80,10.72,360.00,4.00,0.00,30.26,M,10.00,M,M,M,M,M,M,M,M,M,M,M,M,M,M,M,M,82.26,K05U 311735Z AUTO 36004KT 10SM 30/M04 A3026 RMK A01,M
MEV,2023-07-31 17:35,-119.7500,38.9963,1441.42,86.00,28.40,12.44,200.00,9.00,0.00,30.15,M,10.00,15.00,CLR,M,M,M,M,M,M,M,M,M,M,M,M,M,M,82.54,KMEV 311735Z AUTO 20009G15KT 10SM CLR 30/M02 A3015 RMK AO2,M
TMT,2023-07-31 17:35,-117.1971,39.4643,1749.34,79.50,36.70,21.43,60.00,3.00,0.00,30.23,M,M,M,CLR,M,M,M,M,M,M,M,M,M,M,M,M,M,M,79.50,KTMT 311735Z AUTO 06003KT CLR 26/03 A3023 RMK AO2 T02640026 PWINO,M
10U,2023-07-31 17:35,-116.1876,41.9532,1637.00,86.00,23.00,9.94,250.00,11.00,0.00,30.19,M,10.00,23.00,CLR,M,M,M,M,M,M,M,M,M,M,M,M,M,M,82.14,K10U 311735Z AUTO 25011G23KT 10SM CLR 30/M05 A3019 RMK AO2,M
BAM,2023-07-31 17:35,-116.8743,40.5990,1382.36,86.00,32.00,14.40,0.00,0.00,0.00,30.15,M,10.00,M,CLR,M,M,M,M,M,M,M,M,M,M,M,M,M,M,82.64,KBAM 311735Z AUTO 00000KT 10SM CLR 30/00 A3015 RMK AO1,M
LOL,2023-07-31 17:53,-118.5701,40.0684,1192.43,86.00,32.00,14.40,0.00,0.00,0.00,30.11,1014.70,10.00,M,CLR,M,M,M,M,M,M,M,M,M,M,M,M,M,M,82.64,KLOL 311753Z AUTO 00000KT 10SM CLR 30/00 A3011 RMK AO2 SLP147 T03000000 10300 20100 58004,M
P68,2023-07-31 17:53,-116.0056,39.6014,1993.00,84.00,23.00,10.60,10.00,6.00,0.00,30.23,1014.40,M,M,M,M,M,M,M,M,M,M,M,M,M,M,M,M,M,80.75,KP68 311753Z AUTO 01006KT 29/M05 A3023 RMK AO1 SLP144 T02891050 10289 20106 58004,M
DRA,2023-07-31 17:53,-116.0278,36.6206,1009.00,95.00,38.00,13.78,230.00,8.00,0.00,30.04,1011.20,10.00,M,CLR,M,M,M,M,M,M,M,M,M,M,M,M,M,M,90.49,KDRA 311753Z AUTO 23008KT 10SM CLR 35/03 A3004 RMK AO2 SLP112 T03500033 10356 20244 50003,M
ELY,2023-07-31 17:53,-114.8453,39.2950,1909.00,83.00,46.00,27.39,100.00,3.00,0.00,30.26,1012.90,10.00,M,CLR,M,M,M,M,M,M,M,M,M,M,M,M,M,M,81.00,KELY 311753Z AUTO 10003KT 10SM CLR 28/08 A3026 RMK AO2 SLP129 T02830078 10289 20144 58004,M
VGT,2023-07-31 17:53,-115.1933,36.2111,667.00,94.00,60.00,32.34,130.00,7.00,0.00,29.98,1013.80,8.00,M,CLR,M,M,M,M,M,M,M,M,M,M,M,M,M,M,93.84,KVGT 311753Z 13007KT 8SM CLR 34/16 A2998 RMK AO2 SLP138 T03440156 10344 20328 50005,M
BVU,2023-07-31 17:55,-114.8611,35.9475,671.00,95.00,59.00,30.26,160.00,12.00,0.00,29.99,M,4.00,18.00,CLR,M,M,M,M,M,M,M,HZ,M,M,M,M,M,M,94.51,KBVU 311755Z AUTO 16012G18KT 4SM HZ CLR 35/15 A2999 RMK AO2,M
CXP,2023-07-31 17:55,-119.7326,39.1923,1431.00,87.80,24.80,10.12,180.00,8.00,0.00,30.16,M,10.00,15.00,CLR,M,M,M,M,M,M,M,M,M,M,M,M,M,M,83.56,KCXP 311755Z AUTO 18008G15KT 130V210 10SM CLR 31/M04 A3016 RMK AO2,M
RNO,2023-07-31 17:55,-119.7711,39.4839,1341.00,83.00,32.00,15.85,70.00,3.00,0.00,30.14,1014.30,10.00,M,SCT,M,M,M,23000.00,M,M,M,M,M,M,M,M,M,M,80.41,KRNO 311755Z 07003KT 10SM SCT230 28/00 A3014 RMK AO2 SLP143 T02830000 10283 20178 58008,M
RTS,2023-07-31 17:55,-119.8764,39.6682,1539.00,78.80,24.80,13.54,M,6.00,0.00,30.20,M,10.00,M,CLR,M,M,M,M,M,M,M,M,M,M,M,M,M,M,78.80,KRTS 311755Z AUTO VRB06KT 10SM CLR 26/M04 A3020 RMK AO2,M
05U,2023-07-31 17:55,-116.0051,39.6042,1811.23,86.00,23.00,9.94,360.00,4.00,0.00,30.26,M,10.00,M,M,M,M,M,M,M,M,M,M,M,M,M,M,M,M,82.14,K05U 311755Z AUTO 36004KT 10SM 30/M05 A3026 RMK A01,M
MEV,2023-07-31 17:55,-119.7500,38.9963,1441.42,86.00,26.60,11.55,200.00,7.00,0.00,30.15,M,10.00,13.00,CLR,M,M,M,M,M,M,M,M,M,M,M,M,M,M,82.39,KMEV 311755Z AUTO 20007G13KT 10SM CLR 30/M03 A3015 RMK AO2,M
HTH,2023-07-31 17:55,-118.6315,38.5448,1282.89,86.00,30.20,13.38,0.00,0.00,0.00,30.12,M,10.00,M,CLR,M,M,M,M,M,M,M,M,M,M,M,M,M,M,82.64,KHTH 311755Z AUTO 00000KT 10SM CLR 30/M01 A3012 RMK A01,M
TMT,2023-07-31 17:55,-117.1971,39.4643,1749.34,82.20,33.00,16.94,0.00,0.00,0.00,30.22,M,M,M,CLR,M,M,M,M,M,M,M,M,M,M,M,M,M,M,79.88,KTMT 311755Z AUTO 00000KT CLR 28/01 A3022 RMK AO2 T02790005 10284 20036 PWINO,M
BAM,2023-07-31 17:55,-116.8743,40.5990,1382.36,87.80,32.00,13.59,0.00,0.00,0.00,30.15,M,10.00,M,CLR,M,M,M,M,M,M,M,M,M,M,M,M,M,M,84.08,KBAM 311755Z AUTO 00000KT 10SM CLR 31/00 A3015 RMK AO1,M
10U,2023-07-31 17:55,-116.1876,41.9532,1637.00,86.00,23.00,9.94,230.00,11.00,0.00,30.19,M,10.00,18.00,CLR,M,M,M,M,M,M,M,M,M,M,M,M,M,M,82.14,K10U 311755Z AUTO 23011G18KT 10SM CLR 30/M05 A3019 RMK AO2,M
INS,2023-07-31 17:55,-115.6733,36.5872,955.00,90.70,52.00,26.82,110.00,11.00,0.00,30.02,1011.00,10.00,M,FEW,BKN,M,M,10000.00,14000.00,M,M,M,M,M,M,M,M,M,88.06,KINS 311755Z AUTO 11011KT 10SM FEW100 BKN140 33/11 A3002 RMK AO2 SLP110 T03260111 10333 20255 50002 $,M
LSV,2023-07-31 17:55,-115.0343,36.2362,570.00,94.00,59.50,31.77,110.00,9.00,0.00,29.94,M,3.00,M,BKN,M,M,M,15000.00,M,M,M,FU,M,M,M,M,M,M,93.63,KLSV 311755Z 11009KT 3SM FU BKN150 34/15 A2994 RMK AO2A SLPNO T03440153 10352 20314,M
NFL,2023-07-31 17:56,-118.7010,39.4166,1199.00,87.00,34.00,15.11,M,3.00,0.00,30.10,1016.10,10.00,M,SCT,SCT,M,M,15000.00,22000.00,M,M,M,M,M,M,M,M,M,83.45,KNFL 311756Z VRB03KT 10SM SCT150 SCT220 31/01 A3010 RMK AO2 SLP161 T03060011 10311 20150 58003 $,M
EKO,2023-07-31 17:56,-115.7860,40.8242,1367.00,86.00,33.00,14.99,190.00,4.00,0.00,30.17,1014.90,10.00,M,CLR,M,M,M,M,M,M,M,M,M,M,M,M,M,M,82.65,KEKO 311756Z AUTO 19004KT 10SM CLR 30/01 A3017 RMK AO2 SLP149 T03000006 10300 20139 58007,M
WMC,2023-07-31 17:56,-117.8072,40.9019,1315.00,87.00,27.00,11.37,30.00,5.00,0.00,30.13,1014.40,10.00,M,CLR,M,M,M,M,M,M,M,M,M,M,M,M,M,M,83.14,KWMC 311756Z AUTO 03005KT 10SM CLR 31/M03 A3013 RMK AO2 SLP144 T03061028 10311 20111 58006,M
HND,2023-07-31 17:56,-115.1344,35.9729,742.79,96.00,52.00,22.76,140.00,6.00,0.00,30.02,1014.60,10.00,M,CLR,M,M,M,M,M,M,M,M,M,M,M,M,M,M,93.34,KHND 311756Z 14006KT 10SM CLR 36/11 A3002 RMK AO2 SLP146 T03560111 10356 20294 50002,M
TPH,2023-07-31 17:56,-117.0904,38.0505,1654.00,85.00,43.00,22.91,M,M,0.00,30.20,1013.00,10.00,M,CLR,M,M,M,M,M,M,M,M,M,M,M,M,M,M,82.21,KTPH 311756Z AUTO 10SM CLR 29/06 A3020 RMK AO2 SLP130 T02940061 10294 20172 58002,M
LAS,2023-07-31 17:56,-115.1634,36.0719,663.00,96.00,56.00,26.34,90.00,10.00,0.00,29.98,1011.90,9.00,M,SCT,BKN,M,M,12000.00,18000.00,M,M,DU,M,M,M,M,M,M,94.48,KLAS 311756Z 09010KT 9SM DU SCT120 BKN180 36/13 A2998 RMK AO2 SLP119 T03560133 10356 20317 50003,M
BVU,2023-07-31 18:15,-114.8611,35.9475,671.00,95.00,59.00,30.26,170.00,8.00,0.00,29.99,M,4.00,15.00,CLR,M,M,M,M,M,M,M,HZ,M,M,M,M,M,M,94.51,KBVU 311815Z AUTO 17008G15KT 4SM HZ CLR 35/15 A2999 RMK AO2,M
CXP,2023-07-31 18:15,-119.7326,39.1923,1431.00,87.80,24.80,10.12,220.00,9.00,0.00,30.16,M,10.00,15.00,CLR,M,M,M,M,M,M,M,M,M,M,M,M,M,M,83.56,KCXP 311815Z AUTO 22009G15KT 10SM CLR 31/M04 A3016 RMK AO2 LTG DSNT SE,M
RTS,2023-07-31 18:15,-119.8764,39.6682,1539.00,78.80,26.60,14.59,0.00,0.00,0.00,30.20,M,10.00,M,CLR,M,M,M,M,M,M,M,M,M,M,M,M,M,M,78.80,KRTS 311815Z AUTO 00000KT 10SM CLR 26/M03 A3020 RMK AO2,M
05U,2023-07-31 18:15,-116.0051,39.6042,1811.23,86.00,24.80,10.72,M,M,0.00,30.25,M,10.00,M,M,M,M,M,M,M,M,M,M,M,M,M,M,M,M,82.26,K05U 311815Z AUTO 10SM 30/M04 A3025 RMK A01,M
MEV,2023-07-31 18:15,-119.7500,38.9963,1441.42,M,M,M,M,M,0.00,30.15,M,M,M,M,M,M,M,M,M,M,M,M,M,M,M,M,M,M,M,KMEV 311815Z AUTO A3015 RMK AO2 PWINO,M
HTH,2023-07-31 18:15,-118.6315,38.5448,1282.89,87.80,28.40,11.74,300.00,6.00,0.00,30.12,M,10.00,M,CLR,M,M,M,M,M,M,M,M,M,M,M,M,M,M,83.84,KHTH 311815Z AUTO 30006KT 10SM CLR 31/M02 A3012 RMK A01,M
TMT,2023-07-31 18:15,-117.1971,39.4643,1749.34,83.30,33.60,16.74,20.00,7.00,0.00,30.22,M,M,M,CLR,M,M,M,M,M,M,M,M,M,M,M,M,M,M,80.65,KTMT 311815Z AUTO 02007KT CLR 29/01 A3022 RMK AO2 LTG DSNT S T02850009 PWINO,M
10U,2023-07-31 18:15,-116.1876,41.9532,1637.00,86.00,23.00,9.94,230.00,8.00,0.00,30.20,M,10.00,19.00,CLR,M,M,M,M,M,M,M,M,M,M,M,M,M,M,82.14,K10U 311815Z AUTO 23008G19KT 10SM CLR 30/M05 A3020 RMK AO2,M
BAM,2023-07-31 18:15,-116.8743,40.5990,1382.36,89.60,32.00,12.84,0.00,0.00,0.00,30.15,M,10.00,M,CLR,M,M,M,M,M,M,M,M,M,M,M,M,M,M,85.54,KBAM 311815Z AUTO 00000KT 10SM CLR 32/00 A3015 RMK AO1,M
BVU,2023-07-31 18:35,-114.8611,35.9475,671.00,95.00,59.00,30.26,170.00,12.00,0.00,29.98,M,5.00,18.00,CLR,M,M,M,M,M,M,M,HZ,M,M,M,M,M,M,94.51,KBVU 311835Z AUTO 17012G18KT 5SM HZ CLR 35/15 A2998 RMK AO2,M
CXP,2023-07-31 18:35,-119.7326,39.1923,1431.00,87.80,24.80,10.12,0.00,0.00,0.00,30.16,M,10.00,11.00,CLR,M,M,M,M,M,M,M,M,M,M,M,M,M,M,83.56,KCXP 311835Z AUTO 00000G11KT 10SM CLR 31/M04 A3016 RMK AO2,M
RTS,2023-07-31 18:35,-119.8764,39.6682,1539.00,80.60,26.60,13.75,170.00,6.00,0.00,30.19,M,10.00,M,CLR,M,M,M,M,M,M,M,M,M,M,M,M,M,M,78.68,KRTS 311835Z AUTO 17006KT 10SM CLR 27/M03 A3019 RMK AO2,M
05U,2023-07-31 18:35,-116.0051,39.6042,1811.23,87.80,28.40,11.74,M,M,0.00,30.25,M,10.00,M,M,M,M,M,M,M,M,M,M,M,M,M,M,M,M,83.84,K05U 311835Z AUTO 10SM 31/M02 A3025 RMK A01,M
MEV,2023-07-31 18:35,-119.7500,38.9963,1441.42,87.80,28.40,11.74,190.00,11.00,0.00,30.14,M,10.00,16.00,M,M,M,M,M,M,M,M,M,M,M,M,M,M,M,83.84,KMEV 311835Z AUTO 19011G16KT 10SM 31/M02 A3014 RMK AO2,M
HTH,2023-07-31 18:35,-118.6315,38.5448,1282.89,87.80,28.40,11.74,360.00,4.00,0.00,30.11,M,10.00,M,CLR,M,M,M,M,M,M,M,M,M,M,M,M,M,M,83.84,KHTH 311835Z AUTO 36004KT 10SM CLR 31/M02 A3011 RMK A01,M
TMT,2023-07-31 18:35,-117.1971,39.4643,1749.34,84.40,33.80,16.29,350.00,4.00,0.00,30.22,M,M,M,CLR,M,M,M,M,M,M,M,M,M,M,M,M,M,M,81.45,KTMT 311835Z AUTO 35004KT CLR 29/01 A3022 RMK AO2 T02910010 PWINO,M
10U,2023-07-31 18:35,-116.1876,41.9532,1637.00,86.00,24.80,10.72,230.00,12.00,0.00,30.19,M,10.00,19.00,CLR,M,M,M,M,M,M,M,M,M,M,M,M,M,M,82.26,K10U 311835Z AUTO 23012G19KT 10SM CLR 30/M04 A3019 RMK AO2,M
BAM,2023-07-31 18:35,-116.8743,40.5990,1382.36,89.60,32.00,12.84,340.00,3.00,0.00,30.14,M,10.00,M,CLR,M,M,M,M,M,M,M,M,M,M,M,M,M,M,85.54,KBAM 311835Z AUTO 34003KT 10SM CLR 32/00 A3014 RMK AO1,M
05U,2023-07-31 18:50,-116.0051,39.6042,1811.23,87.80,28.40,11.74,360.00,3.00,0.00,30.24,M,10.00,M,M,M,M,M,M,M,M,M,M,M,M,M,M,M,M,83.84,K05U 311850Z AUTO 36003KT 10SM 31/M02 A3024 RMK A01,M
P68,2023-07-31 18:53,-116.0056,39.6014,1993.00,86.00,28.00,12.23,0.00,0.00,0.00,30.21,1013.80,M,M,M,M,M,M,M,M,M,M,M,M,M,M,M,M,M,82.50,KP68 311853Z AUTO 00000KT 30/M02 A3021 RMK AO1 SLP138 T03001022,M
DRA,2023-07-31 18:53,-116.0278,36.6206,1009.00,97.00,42.00,15.14,220.00,13.00,0.00,30.03,1011.00,10.00,20.00,CLR,M,M,M,M,M,M,M,M,M,M,M,M,M,M,92.68,KDRA 311853Z AUTO 22013G20KT 10SM CLR 36/06 A3003 RMK AO2 SLP110 T03610056,M
ELY,2023-07-31 18:53,-114.8453,39.2950,1909.00,87.00,45.00,23.20,M,M,0.00,30.24,1012.00,10.00,M,CLR,M,M,M,M,M,M,M,M,M,M,M,M,M,M,83.90,KELY 311853Z AUTO 10SM CLR 31/07 A3024 RMK AO2 SLP120 T03060072,M
VGT,2023-07-31 18:53,-115.1933,36.2111,667.00,96.00,59.00,29.34,130.00,7.00,T,29.98,1013.60,6.00,M,CLR,M,M,M,M,M,M,M,HZ,M,M,M,M,M,M,95.61,KVGT 311853Z 13007KT 6SM HZ CLR 36/15 A2998 RMK AO2 LTG DSNT W RAB04E16 SLP136 P0000 T03560150,M
LOL,2023-07-31 18:53,-118.5701,40.0684,1192.43,89.00,31.00,12.57,170.00,7.00,0.00,30.09,1014.50,10.00,M,CLR,M,M,M,M,M,M,M,M,M,M,M,M,M,M,84.98,KLOL 311853Z AUTO 17007KT 10SM CLR 32/M01 A3009 RMK AO2 SLP145 T03171006,M
BVU,2023-07-31 18:55,-114.8611,35.9475,671.00,96.80,59.00,28.63,180.00,9.00,0.00,29.98,M,5.00,15.00,CLR,M,M,M,M,M,M,M,HZ,M,M,M,M,M,M,96.50,KBVU 311855Z AUTO 18009G15KT 150V210 5SM HZ CLR 36/15 A2998 RMK AO2,M
CXP,2023-07-31 18:55,-119.7326,39.1923,1431.00,89.60,24.80,9.56,180.00,11.00,0.00,30.15,M,10.00,M,CLR,M,M,M,M,M,M,M,M,M,M,M,M,M,M,84.88,KCXP 311855Z AUTO 18011KT 10SM CLR 32/M04 A3015 RMK AO2,M
RNO,2023-07-31 18:55,-119.7711,39.4839,1341.00,87.00,30.00,12.86,0.00,0.00,0.00,30.13,1013.90,10.00,M,SCT,M,M,M,23000.00,M,M,M,M,M,M,M,M,M,M,83.40,KRNO 311855Z 00000KT 10SM SCT230 31/M01 A3013 RMK AO2 SLP139 T03061011,M
RTS,2023-07-31 18:55,-119.8764,39.6682,1539.00,84.20,24.80,11.35,M,4.00,0.00,30.19,M,10.00,M,CLR,M,M,M,M,M,M,M,M,M,M,M,M,M,M,81.00,KRTS 311855Z AUTO VRB04KT 10SM CLR 29/M04 A3019 RMK AO2,M
MEV,2023-07-31 18:55,-119.7500,38.9963,1441.42,87.80,26.60,10.91,180.00,13.00,0.00,30.14,M,10.00,20.00,CLR,M,M,M,M,M,M,M,M,M,M,M,M,M,M,83.69,KMEV 311855Z AUTO 18013G20KT 10SM CLR 31/M03 A3014 RMK AO2,M
HTH,2023-07-31 18:55,-118.6315,38.5448,1282.89,89.60,28.40,11.09,M,5.00,0.00,30.10,M,10.00,11.00,CLR,M,M,M,M,M,M,M,M,M,M,M,M,M,M,85.17,KHTH 311855Z AUTO VRB05G11KT 10SM CLR 32/M02 A3010 RMK A01,M
BAM,2023-07-31 18:55,-116.8743,40.5990,1382.36,91.40,33.80,13.05,20.00,3.00,0.00,30.13,M,10.00,M,CLR,M,M,M,M,M,M,M,M,M,M,M,M,M,M,87.13,KBAM 311855Z AUTO 02003KT 10SM CLR 33/01 A3013 RMK AO1,M
TMT,2023-07-31 18:55,-117.1971,39.4643,1749.34,85.00,33.00,15.47,300.00,3.00,0.00,30.21,M,M,M,CLR,M,M,M,M,M,M,M,M,M,M,M,M,M,M,81.88,KTMT 311855Z AUTO 30003KT CLR 29/01 A3021 RMK AO2 T02940006 PWINO,M
10U,2023-07-31 18:55,-116.1876,41.9532,1637.00,87.80,26.60,10.91,240.00,13.00,0.00,30.19,M,10.00,M,CLR,M,M,M,M,M,M,M,M,M,M,M,M,M,M,83.69,K10U 311855Z AUTO 24013KT 10SM CLR 31/M03 A3019 RMK AO2,M
INS,2023-07-31 18:55,-115.6733,36.5872,955.00,95.00,51.40,22.95,100.00,17.00,0.00,30.01,1010.50,10.00,M,SCT,BKN,BKN,M,15000.00,18000.00,20000.00,M,M,M,M,M,M,M,M,92.18,KINS 311855Z AUTO 10017KT 10SM SCT150 BKN180 BKN200 35/11 A3001 RMK AO2 SLP105 T03510108 $,M
LSV,2023-07-31 18:55,-115.0343,36.2362,570.00,96.80,60.30,29.99,M,4.00,0.00,29.94,M,3.00,M,SCT,BKN,M,M,17000.00,20000.00,M,M,FU,M,M,M,M,M,M,97.09,KLSV 311855Z VRB04KT 3SM FU SCT170 BKN200 36/16 A2994 RMK SLPNO T03600157,M
EKO,2023-07-31 18:56,-115.7860,40.8242,1367.00,91.00,30.00,11.33,M,3.00,0.00,30.16,1014.40,10.00,M,CLR,M,M,M,M,M,M,M,M,M,M,M,M,M,M,86.38,KEKO 311856Z AUTO VRB03KT 10SM CLR 33/M01 A3016 RMK AO2 SLP144 T03281011,M
WMC,2023-07-31 18:56,-117.8072,40.9019,1315.00,92.00,28.00,10.12,260.00,11.00,0.00,30.12,1013.70,10.00,18.00,CLR,M,M,M,M,M,M,M,M,M,M,M,M,M,M,86.94,KWMC 311856Z AUTO 26011G18KT 10SM CLR 33/M02 A3012 RMK AO2 SLP137 T03331022,M
NFL,2023-07-31 18:56,-118.7010,39.4166,1199.00,90.00,32.00,12.68,M,4.00,0.00,30.10,1015.90,10.00,M,SCT,SCT,M,M,15000.00,22000.00,M,M,M,M,M,M,M,M,M,85.84,KNFL 311856Z VRB04KT 10SM SCT150 SCT220 32/00 A3010 RMK AO2 SLP159 T03220000 $,M
HND,2023-07-31 18:56,-115.1344,35.9729,742.79,97.00,56.00,25.55,M,3.00,0.00,30.02,1014.30,6.00,M,CLR,M,M,M,M,M,M,M,HZ,M,M,M,M,M,M,95.56,KHND 311856Z VRB03KT 6SM HZ CLR 36/13 A3002 RMK AO2 LTG DSNT NW SLP143 T03610133,M
TPH,2023-07-31 18:56,-117.0904,38.0505,1654.00,87.00,45.00,23.20,150.00,12.00,0.00,30.19,1012.70,10.00,17.00,CLR,M,M,M,M,M,M,M,M,M,M,M,M,M,M,83.90,KTPH 311856Z AUTO 15012G17KT 10SM CLR 31/07 A3019 RMK AO2 SLP127 T03060072,M
LAS,2023-07-31 18:56,-115.1634,36.0719,663.00,97.00,58.00,27.46,80.00,10.00,0.00,29.97,1011.60,7.00,M,SCT,BKN,M,M,12000.00,18000.00,M,M,FU,M,M,M,M,M,M,96.30,KLAS 311856Z 08010KT 7SM FU SCT120 BKN180 36/14 A2997 RMK AO2 LTG DSNT NW SLP116 T03610144,M
BVU,2023-07-31 19:15,-114.8611,35.9475,671.00,96.80,59.00,28.63,160.00,8.00,0.00,29.98,M,5.00,14.00,CLR,M,M,M,M,M,M,M,HZ,M,M,M,M,M,M,96.50,KBVU 311915Z AUTO 16008G14KT 130V190 5SM HZ CLR 36/15 A2998 RMK AO2 LTG DSNT NE,M
CXP,2023-07-31 19:15,-119.7326,39.1923,1431.00,89.60,26.60,10.30,0.00,0.00,0.00,30.15,M,9.00,13.00,CLR,M,M,M,M,M,M,M,M,M,M,M,M,M,M,85.02,KCXP 311915Z AUTO 00000G13KT 9SM CLR 32/M03 A3015 RMK AO2,M
RTS,2023-07-31 19:15,-119.8764,39.6682,1539.00,84.20,19.40,9.04,240.00,7.00,0.00,30.18,M,10.00,12.00,CLR,M,M,M,M,M,M,M,M,M,M,M,M,M,M,80.68,KRTS 311915Z AUTO 24007G12KT 10SM CLR 29/M07 A3018 RMK AO2,M
05U,2023-07-31 19:15,-116.0051,39.6042,1811.23,89.60,30.20,11.94,M,M,0.00,30.23,M,10.00,M,M,M,M,M,M,M,M,M,M,M,M,M,M,M,M,85.34,K05U 311915Z AUTO 10SM 32/M01 A3023 RMK A01,M
MEV,2023-07-31 19:15,-119.7500,38.9963,1441.42,89.60,26.60,10.30,170.00,12.00,0.00,30.13,M,10.00,21.00,CLR,M,M,M,M,M,M,M,M,M,M,M,M,M,M,85.02,KMEV 311915Z AUTO 17012G21KT 10SM CLR 32/M03 A3013 RMK AO2,M
HTH,2023-07-31 19:15,-118.6315,38.5448,1282.89,89.60,28.40,11.09,M,5.00,0.00,30.10,M,10.00,10.00,CLR,M,M,M,M,M,M,M,M,M,M,M,M,M,M,85.17,KHTH 311915Z AUTO VRB05G10KT 10SM CLR 32/M02 A3010 RMK A01,M
TMT,2023-07-31 19:15,-117.1971,39.4643,1749.34,85.50,33.30,15.41,360.00,3.00,0.00,30.21,M,M,M,CLR,M,M,M,M,M,M,M,M,M,M,M,M,M,M,82.27,KTMT 311915Z AUTO 36003KT CLR 30/01 A3021 RMK AO2 T02970007 PWINO,M
10U,2023-07-31 19:15,-116.1876,41.9532,1637.00,87.80,28.40,11.74,240.00,11.00,0.00,30.18,M,10.00,16.00,CLR,M,M,M,M,M,M,M,M,M,M,M,M,M,M,83.84,K10U 311915Z AUTO 24011G16KT 210V290 10SM CLR 31/M02 A3018 RMK AO2,M
BAM,2023-07-31 19:15,-116.8743,40.5990,1382.36,91.40,33.80,13.05,20.00,8.00,0.00,30.13,M,10.00,M,CLR,M,M,M,M,M,M,M,M,M,M,M,M,M,M,87.13,KBAM 311915Z AUTO 02008KT 10SM CLR 33/01 A3013 RMK AO1,M
05U,2023-07-31 19:30,-116.0051,39.6042,1811.23,89.60,30.20,11.94,M,M,0.00,30.22,M,10.00,M,M,M,M,M,M,M,M,M,M,M,M,M,M,M,M,85.34,K05U 311930Z AUTO 10SM 32/M01 A3022 RMK A01,M
BVU,2023-07-31 19:35,-114.8611,35.9475,671.00,96.80,57.20,26.84,220.00,7.00,0.00,29.97,M,5.00,M,CLR,M,M,M,M,M,M,M,HZ,M,M,M,M,M,M,95.77,KBVU 311935Z AUTO 22007KT 140V270 5SM HZ CLR 36/14 A2997 RMK AO2,M
CXP,2023-07-31 19:35,-119.7326,39.1923,1431.00,91.40,26.60,9.74,160.00,7.00,0.00,30.14,M,10.00,13.00,CLR,M,M,M,M,M,M,M,M,M,M,M,M,M,M,86.36,KCXP 311935Z AUTO 16007G13KT 10SM CLR 33/M03 A3014 RMK AO2,M
RTS,2023-07-31 19:35,-119.8764,39.6682,1539.00,84.20,12.20,6.61,230.00,14.00,0.00,30.18,M,10.00,21.00,CLR,M,M,M,M,M,M,M,M,M,M,M,M,M,M,80.37,KRTS 311935Z AUTO 23014G21KT 10SM CLR 29/M11 A3018 RMK AO2,M
MEV,2023-07-31 19:35,-119.7500,38.9963,1441.42,89.60,28.40,11.09,200.00,9.00,0.00,30.13,M,10.00,18.00,CLR,M,M,M,M,M,M,M,M,M,M,M,M,M,M,85.17,KMEV 311935Z AUTO 20009G18KT 150V220 10SM CLR 32/M02 A3013 RMK AO2,M
HTH,2023-07-31 19:35,-118.6315,38.5448,1282.89,91.40,28.40,10.48,360.00,7.00,0.00,30.09,M,10.00,13.00,CLR,M,M,M,M,M,M,M,M,M,M,M,M,M,M,86.53,KHTH 311935Z AUTO 36007G13KT 10SM CLR 33/M02 A3009 RMK A01,M
TMT,2023-07-31 19:35,-117.1971,39.4643,1749.34,87.00,33.30,14.69,300.00,6.00,0.00,30.20,M,M,M,CLR,M,M,M,M,M,M,M,M,M,M,M,M,M,M,83.44,KTMT 311935Z AUTO 30006KT CLR 31/01 A3020 RMK AO2 LTG DSNT SE T03060007 PWINO,M
10U,2023-07-31 19:35,-116.1876,41.9532,1637.00,89.60,28.40,11.09,240.00,6.00,0.00,30.18,M,10.00,17.00,CLR,M,M,M,M,M,M,M,M,M,M,M,M,M,M,85.17,K10U 311935Z AUTO 24006G17KT 10SM CLR 32/M02 A3018 RMK AO2,M
BAM,2023-07-31 19:35,-116.8743,40.5990,1382.36,91.40,32.00,12.14,310.00,8.00,0.00,30.12,M,10.00,M,CLR,M,M,M,M,M,M,M,M,M,M,M,M,M,M,86.91,KBAM 311935Z AUTO 31008KT 250V350 10SM CLR 33/00 A3012 RMK AO1,M
05U,2023-07-31 19:50,-116.0051,39.6042,1811.23,89.60,32.00,12.84,M,M,0.00,30.21,M,10.00,M,M,M,M,M,M,M,M,M,M,M,M,M,M,M,M,85.54,K05U 311950Z AUTO 10SM 32/M00 A3021 RMK A01,M
P68,2023-07-31 19:53,-116.0056,39.6014,1993.00,90.00,30.00,11.70,360.00,7.00,0.00,30.18,1012.70,M,M,M,M,M,M,M,M,M,M,M,M,M,M,M,M,M,85.63,KP68 311953Z AUTO 36007KT 340V050 32/M01 A3018 RMK AO1 SLP127 T03221011,M
DRA,2023-07-31 19:53,-116.0278,36.6206,1009.00,96.00,44.00,16.86,230.00,20.00,0.00,30.02,1010.60,10.00,34.00,CLR,M,M,M,M,M,M,M,M,M,M,M,34.00,230.00,2023-07-31 19:47,91.95,KDRA 311953Z AUTO 23020G34KT 10SM CLR 36/07 A3002 RMK AO2 PK WND 23034/1947 SLP106 T03560067,M
ELY,2023-07-31 19:53,-114.8453,39.2950,1909.00,89.00,40.00,17.96,250.00,11.00,0.00,30.23,1011.20,10.00,21.00,CLR,M,M,M,M,M,M,M,M,M,M,M,M,M,M,85.26,KELY 311953Z AUTO 25011G21KT 10SM CLR 32/04 A3023 RMK AO2 LTG DSNT SE SLP112 T03170044,M
VGT,2023-07-31 19:53,-115.1933,36.2111,667.00,99.00,57.00,24.92,M,M,0.00,29.96,1012.80,6.00,M,CLR,M,M,M,M,M,M,M,HZ,M,M,M,M,M,M,98.12,KVGT 311953Z 6SM HZ CLR 37/14 A2996 RMK AO2 LTG DSNT N SLP128 T03720139,M
LOL,2023-07-31 19:53,-118.5701,40.0684,1192.43,90.00,30.00,11.70,M,4.00,0.00,30.08,1014.10,10.00,M,CLR,M,M,M,M,M,M,M,M,M,M,M,M,M,M,85.63,KLOL 311953Z AUTO VRB04KT 10SM CLR 32/M01 A3008 RMK AO2 SLP141 T03221011,M
BVU,2023-07-31 19:55,-114.8611,35.9475,671.00,98.60,57.20,25.41,190.00,11.00,0.00,29.96,M,5.00,M,CLR,M,M,M,M,M,M,M,HZ,M,M,M,M,M,M,97.76,KBVU 311955Z AUTO 19011KT 5SM HZ CLR 37/14 A2996 RMK AO2,M
CXP,2023-07-31 19:55,-119.7326,39.1923,1431.00,89.60,26.60,10.30,M,6.00,0.00,30.14,M,10.00,12.00,CLR,M,M,M,M,M,M,M,M,M,M,M,M,M,M,85.02,KCXP 311955Z AUTO VRB06G12KT 10SM CLR 32/M03 A3014 RMK AO2,M
RNO,2023-07-31 19:55,-119.7711,39.4839,1341.00,92.00,27.00,9.71,260.00,6.00,0.00,30.11,1013.00,10.00,M,FEW,M,M,M,23000.00,M,M,M,M,M,M,M,M,M,M,86.85,KRNO 311955Z 26006KT 10SM FEW230 33/M03 A3011 RMK AO2 SLP130 T03331028,M
RTS,2023-07-31 19:55,-119.8764,39.6682,1539.00,86.00,12.20,6.24,220.00,10.00,0.00,30.17,M,10.00,18.00,CLR,M,M,M,M,M,M,M,M,M,M,M,M,M,M,81.64,KRTS 311955Z AUTO 22010G18KT 10SM CLR 30/M11 A3017 RMK AO2,M
MEV,2023-07-31 19:55,-119.7500,38.9963,1441.42,89.60,28.40,11.09,190.00,8.00,0.00,30.13,M,10.00,19.00,CLR,M,M,M,M,M,M,M,M,M,M,M,M,M,M,85.17,KMEV 311955Z AUTO 19008G19KT 160V220 10SM CLR 32/M02 A3013 RMK AO2,M
HTH,2023-07-31 19:55,-118.6315,38.5448,1282.89,91.40,28.40,10.48,350.00,11.00,0.00,30.08,M,10.00,M,CLR,M,M,M,M,M,M,M,M,M,M,M,M,M,M,86.53,KHTH 311955Z AUTO 35011KT 10SM CLR 33/M02 A3008 RMK A01,M
TMT,2023-07-31 19:55,-117.1971,39.4643,1749.34,87.30,34.00,14.97,260.00,6.00,0.00,30.19,M,M,M,CLR,M,M,M,M,M,M,M,M,M,M,M,M,M,M,83.69,KTMT 311955Z AUTO 26006KT CLR 31/01 A3019 RMK AO2 T03070012 PWINO,M
BAM,2023-07-31 19:55,-116.8743,40.5990,1382.36,91.40,33.80,13.05,20.00,8.00,0.00,30.11,M,10.00,14.00,CLR,M,M,M,M,M,M,M,M,M,M,M,M,M,M,87.13,KBAM 311955Z AUTO 02008G14KT 10SM CLR 33/01 A3011 RMK AO1,M
10U,2023-07-31 19:55,-116.1876,41.9532,1637.00,91.40,28.40,10.48,250.00,12.00,0.00,30.17,M,10.00,M,CLR,M,M,M,M,M,M,M,M,M,M,M,M,M,M,86.53,K10U 311955Z AUTO 25012KT 10SM CLR 33/M02 A3017 RMK AO2,M
INS,2023-07-31 19:55,-115.6733,36.5872,955.00,94.00,51.60,23.85,100.00,13.00,0.00,30.00,1010.30,10.00,M,FEW,BKN,M,M,11000.00,13000.00,M,M,M,M,M,M,M,M,M,91.21,KINS 311955Z AUTO 10013KT 10SM FEW110 BKN130 34/11 A3000 RMK AO2 SLP103 T03440109 $,M
LSV,2023-07-31 19:55,-115.0343,36.2362,570.00,102.00,59.50,24.90,10.00,5.00,0.00,29.91,M,3.00,M,SCT,BKN,BKN,M,15000.00,18000.00,21000.00,M,FU,M,M,M,M,M,M,102.64,KLSV 311955Z 01005KT 3SM FU SCT150 BKN180 BKN210 39/15 A2991 RMK AO2A SLPNO T03890153,M
EKO,2023-07-31 19:56,-115.7860,40.8242,1367.00,92.00,31.00,11.44,230.00,4.00,0.00,30.14,1014.20,10.00,M,CLR,M,M,M,M,M,M,M,M,M,M,M,M,M,M,87.26,KEKO 311956Z AUTO 23004KT 10SM CLR 33/M01 A3014 RMK AO2 SLP142 T03331006,M
WMC,2023-07-31 19:56,-117.8072,40.9019,1315.00,94.00,28.00,9.51,260.00,8.00,0.00,30.10,1013.10,10.00,18.00,CLR,M,M,M,M,M,M,M,M,M,M,M,27.00,190.00,2023-07-31 19:04,88.46,KWMC 311956Z AUTO 26008G18KT 10SM CLR 34/M02 A3010 RMK AO2 PK WND 19027/1904 SLP131 T03441022,M
NFL,2023-07-31 19:56,-118.7010,39.4166,1199.00,91.00,33.00,12.79,M,3.00,0.00,30.08,1015.20,10.00,M,SCT,SCT,M,M,15000.00,22000.00,M,M,M,M,M,M,M,M,M,86.73,KNFL 311956Z VRB03KT 10SM SCT150 SCT220 33/01 A3008 RMK AO2 SLP152 T03280006 $,M
HND,2023-07-31 19:56,-115.1344,35.9729,742.79,99.00,57.00,24.92,M,3.00,0.00,30.00,1013.80,6.00,M,CLR,M,M,M,M,M,M,M,HZ,M,M,M,M,M,M,98.12,KHND 311956Z VRB03KT 6SM HZ CLR 37/14 A3000 RMK AO2 SLP138 T03720139,M
TPH,2023-07-31 19:56,-117.0904,38.0505,1654.00,91.00,47.00,22.05,190.00,12.00,0.00,30.17,1011.60,10.00,20.00,CLR,M,M,M,M,M,M,M,M,M,M,M,M,M,M,87.57,KTPH 311956Z AUTO 19012G20KT 10SM CLR 33/08 A3017 RMK AO2 SLP116 T03280083,M
LAS,2023-07-31 19:56,-115.1634,36.0719,663.00,99.00,51.00,20.01,180.00,6.00,0.00,29.96,1011.40,7.00,M,SCT,BKN,M,M,12000.00,18000.00,M,M,FU,M,M,M,M,M,M,96.21,KLAS 311956Z 18006KT 7SM FU SCT120 BKN180 37/11 A2996 RMK AO2 SLP114 T03720106,M
05U,2023-07-31 20:10,-116.0051,39.6042,1811.23,91.40,33.80,13.05,M,M,0.00,30.20,M,10.00,M,M,M,M,M,M,M,M,M,M,M,M,M,M,M,M,87.13,K05U 312010Z AUTO 10SM 33/01 A3020 RMK A01,M
BVU,2023-07-31 20:15,-114.8611,35.9475,671.00,98.60,57.20,25.41,170.00,11.00,0.00,29.95,M,6.00,M,CLR,M,M,M,M,M,M,M,HZ,M,M,M,M,M,M,97.76,KBVU 312015Z AUTO 17011KT 6SM HZ CLR 37/14 A2995 RMK AO2,M
CXP,2023-07-31 20:15,-119.7326,39.1923,1431.00,89.60,26.60,10.30,M,5.00,0.00,30.14,M,10.00,11.00,CLR,M,M,M,M,M,M,M,M,M,M,M,M,M,M,85.02,KCXP 312015Z AUTO VRB05G11KT 10SM CLR 32/M03 A3014 RMK AO2,M
RTS,2023-07-31 20:15,-119.8764,39.6682,1539.00,87.80,17.60,7.46,250.00,12.00,0.00,30.17,M,10.00,20.00,CLR,M,M,M,M,M,M,M,M,M,M,M,M,M,M,83.14,KRTS 312015Z AUTO 25012G20KT 200V280 10SM CLR 31/M08 A3017 RMK AO2,M
MEV,2023-07-31 20:15,-119.7500,38.9963,1441.42,91.40,28.40,10.48,190.00,13.00,0.00,30.12,M,10.00,19.00,CLR,M,M,M,M,M,M,M,M,M,M,M,M,M,M,86.53,KMEV 312015Z AUTO 19013G19KT 10SM CLR 33/M02 A3012 RMK AO2,M
HTH,2023-07-31 20:15,-118.6315,38.5448,1282.89,91.40,28.40,10.48,310.00,9.00,0.00,30.07,M,10.00,M,CLR,M,M,M,M,M,M,M,M,M,M,M,M,M,M,86.53,KHTH 312015Z AUTO 31009KT 10SM CLR 33/M02 A3007 RMK A01,M
TMT,2023-07-31 20:15,-117.1971,39.4643,1749.34,87.30,33.80,14.85,230.00,4.00,0.00,30.18,M,M,M,CLR,M,M,M,M,M,M,M,M,M,M,M,M,M,M,83.69,KTMT 312015Z AUTO 23004KT CLR 31/01 A3018 RMK AO2 T03070010 PWINO,M
10U,2023-07-31 20:15,-116.1876,41.9532,1637.00,89.60,26.60,10.30,230.00,8.00,0.00,30.17,M,10.00,19.00,CLR,M,M,M,M,M,M,M,M,M,M,M,M,M,M,85.02,K10U 312015Z AUTO 23008G19KT 200V270 10SM CLR 32/M03 A3017 RMK AO2,M
BAM,2023-07-31 20:15,-116.8743,40.5990,1382.36,93.20,33.80,12.34,10.00,9.00,0.00,30.11,M,10.00,M,CLR,M,M,M,M,M,M,M,M,M,M,M,M,M,M,88.55,KBAM 312015Z AUTO 01009KT 10SM CLR 34/01 A3011 RMK AO1,M
INS,2023-07-31 20:26,-115.6733,36.5872,955.00,95.00,46.40,19.04,180.00,12.00,0.00,30.00,1010.30,10.00,M,OVC,M,M,M,12000.00,M,M,M,M,M,M,M,M,M,M,91.29,KINS 312026Z AUTO 18012KT 10SM OVC120 35/08 A3000 RMK AO2 WSHFT 24 LTG DSNT NE SLP103 $,M
05U,2023-07-31 20:30,-116.0051,39.6042,1811.23,93.20,32.00,11.48,M,M,0.00,30.19,M,10.00,M,M,M,M,M,M,M,M,M,M,M,M,M,M,M,M,88.31,K05U 312030Z AUTO 10SM 34/00 A3019 RMK A01,M
BVU,2023-07-31 20:35,-114.8611,35.9475,671.00,98.60,57.20,25.41,150.00,10.00,0.00,29.94,M,7.00,17.00,CLR,M,M,M,M,M,M,M,M,M,M,M,M,M,M,97.76,KBVU 312035Z AUTO 15010G17KT 7SM CLR 37/14 A2994 RMK AO2,M
CXP,2023-07-31 20:35,-119.7326,39.1923,1431.00,91.40,28.40,10.48,M,6.00,0.00,30.13,M,10.00,15.00,CLR,M,M,M,M,M,M,M,M,M,M,M,M,M,M,86.53,KCXP 312035Z AUTO VRB06G15KT 10SM CLR 33/M02 A3013 RMK AO2,M
RTS,2023-07-31 20:35,-119.8764,39.6682,1539.00,87.80,19.40,8.06,250.00,14.00,0.00,30.16,M,10.00,20.00,CLR,M,M,M,M,M,M,M,M,M,M,M,M,M,M,83.23,KRTS 312035Z AUTO 25014G20KT 10SM CLR 31/M07 A3016 RMK AO2,M
MEV,2023-07-31 20:35,-119.7500,38.9963,1441.42,89.60,28.40,11.09,200.00,11.00,0.00,30.12,M,10.00,20.00,CLR,M,M,M,M,M,M,M,M,M,M,M,M,M,M,85.17,KMEV 312035Z AUTO 20011G20KT 10SM CLR 32/M02 A3012 RMK AO2,M
HTH,2023-07-31 20:35,-118.6315,38.5448,1282.89,93.20,28.40,9.91,330.00,9.00,0.00,30.06,M,10.00,14.00,CLR,M,M,M,M,M,M,M,M,M,M,M,M,M,M,87.89,KHTH 312035Z AUTO 33009G14KT 10SM CLR 34/M02 A3006 RMK A01,M
10U,2023-07-31 20:35,-116.1876,41.9532,1637.00,91.40,26.60,9.74,220.00,12.00,0.00,30.17,M,10.00,21.00,CLR,M,M,M,M,M,M,M,M,M,M,M,M,M,M,86.36,K10U 312035Z AUTO 22012G21KT 10SM CLR 33/M03 A3017 RMK AO2,M
BAM,2023-07-31 20:35,-116.8743,40.5990,1382.36,93.20,33.80,12.34,10.00,7.00,0.00,30.10,M,10.00,M,CLR,M,M,M,M,M,M,M,M,M,M,M,M,M,M,88.55,KBAM 312035Z AUTO 01007KT 330V030 10SM CLR 34/01 A3010 RMK AO1,M
TMT,2023-07-31 20:35,-117.1971,39.4643,1749.34,88.70,36.00,15.50,240.00,7.00,0.00,30.18,M,M,M,CLR,M,M,M,M,M,M,M,M,M,M,M,M,M,M,84.87,KTMT 312035Z AUTO 24007KT CLR 32/02 A3018 RMK AO2 T03150022 PWINO,M
ELY,2023-07-31 20:38,-114.8453,39.2950,1909.00,89.00,40.00,17.96,230.00,7.00,0.00,30.21,M,10.00,18.00,CLR,M,M,M,M,M,M,M,VCTS,M,M,M,M,M,M,85.26,KELY 312038Z AUTO 23007G18KT 10SM VCTS CLR 32/04 A3021 RMK AO2 LTG DSNT NE T03170044,M
05U,2023-07-31 20:50,-116.0051,39.6042,1811.23,93.20,32.00,11.48,M,M,0.00,30.18,M,10.00,M,M,M,M,M,M,M,M,M,M,M,M,M,M,M,M,88.31,K05U 312050Z AUTO 10SM 34/00 A3018 RMK A01,M
P68,2023-07-31 20:53,-116.0056,39.6014,1993.00,91.00,31.00,11.80,M,5.00,0.00,30.15,1011.70,M,M,M,M,M,M,M,M,M,M,M,M,M,M,M,M,M,86.49,KP68 312053Z AUTO VRB05KT 33/M01 A3015 RMK AO1 SLP117 T03281006 58022,M
DRA,2023-07-31 20:53,-116.0278,36.6206,1009.00,92.00,48.00,22.19,250.00,19.00,0.00,30.02,1010.90,10.00,26.00,CLR,M,M,M,M,M,M,M,M,M,M,M,35.00,230.00,2023-07-31 20:01,88.63,KDRA 312053Z AUTO 25019G26KT 10SM CLR 33/09 A3002 RMK AO2 PK WND 23035/2001 SLP109 T03330089 56006,M
ELY,2023-07-31 20:53,-114.8453,39.2950,1909.00,88.00,42.00,20.03,180.00,5.00,0.00,30.20,1010.80,10.00,M,CLR,M,M,M,M,M,M,M,M,M,M,M,M,M,M,84.52,KELY 312053Z AUTO 18005KT 10SM CLR 31/06 A3020 RMK AO2 LTG DSNT NE SLP108 T03110056 58016,M
VGT,2023-07-31 20:53,-115.1933,36.2111,667.00,100.00,56.00,23.32,150.00,5.00,0.00,29.93,1011.90,9.00,M,CLR,M,M,M,M,M,M,M,M,M,M,M,M,M,M,98.84,KVGT 312053Z 15005KT 9SM CLR 38/13 A2993 RMK AO2 LTG DSNT N AND S SLP119 60000 T03780133 58016,M
LOL,2023-07-31 20:53,-118.5701,40.0684,1192.43,93.00,31.00,11.09,180.00,10.00,0.00,30.05,1013.30,10.00,17.00,CLR,M,M,M,M,M,M,M,M,M,M,M,M,M,M,88.03,KLOL 312053Z AUTO 18010G17KT 130V200 10SM CLR 34/M01 A3005 RMK AO2 SLP133 T03391006 58017,M
BVU,2023-07-31 20:55,-114.8611,35.9475,671.00,100.40,55.40,22.54,140.00,13.00,0.00,29.93,M,9.00,18.00,CLR,M,M,M,M,M,M,M,M,M,M,M,M,M,M,99.06,KBVU 312055Z AUTO 14013G18KT 9SM CLR 38/13 A2993 RMK AO2,M
CXP,2023-07-31 20:55,-119.7326,39.1923,1431.00,91.40,28.40,10.48,270.00,5.00,0.00,30.12,M,10.00,13.00,CLR,M,M,M,M,M,M,M,M,M,M,M,M,M,M,86.53,KCXP 312055Z AUTO 27005G13KT 10SM CLR 33/M02 A3012 RMK AO2,M
INS,2023-07-31 20:55,-115.6733,36.5872,955.00,93.60,45.00,18.86,220.00,8.00,0.00,30.00,1010.50,10.00,M,OVC,M,M,M,13000.00,M,M,M,M,M,M,M,M,M,M,89.77,KINS 312055Z AUTO 22008KT 10SM OVC130 34/07 A3000 RMK AO2 LTG DSNT NE-E SLP105 T03420073 57007 $,M
RNO,2023-07-31 20:55,-119.7711,39.4839,1341.00,93.00,27.00,9.42,210.00,7.00,0.00,30.09,1012.50,10.00,15.00,FEW,M,M,M,23000.00,M,M,M,M,M,M,M,M,M,M,87.60,KRNO 312055Z 21007G15KT 160V230 10SM FEW230 34/M03 A3009 RMK AO2 SLP125 T03391028 58015,M
RTS,2023-07-31 20:55,-119.8764,39.6682,1539.00,87.80,21.20,8.70,230.00,20.00,0.00,30.16,M,10.00,M,CLR,M,M,M,M,M,M,M,M,M,M,M,M,M,M,83.33,KRTS 312055Z AUTO 23020KT 10SM CLR 31/M06 A3016 RMK AO2,M
MEV,2023-07-31 20:55,-119.7500,38.9963,1441.42,91.40,30.20,11.28,190.00,14.00,0.00,30.12,M,10.00,M,CLR,M,M,M,M,M,M,M,M,M,M,M,M,M,M,86.71,KMEV 312055Z AUTO 19014KT 10SM CLR 33/M01 A3012 RMK AO2,M
HTH,2023-07-31 20:55,-118.6315,38.5448,1282.89,93.20,28.40,9.91,330.00,11.00,0.00,30.05,M,10.00,M,CLR,M,M,M,M,M,M,M,M,M,M,M,M,M,M,87.89,KHTH 312055Z AUTO 33011KT 10SM CLR 34/M02 A3005 RMK A01,M
BAM,2023-07-31 20:55,-116.8743,40.5990,1382.36,95.00,32.00,10.85,360.00,5.00,0.00,30.09,M,10.00,M,CLR,M,M,M,M,M,M,M,M,M,M,M,M,M,M,89.71,KBAM 312055Z AUTO 36005KT 10SM CLR 35/00 A3009 RMK AO1,M
TMT,2023-07-31 20:55,-117.1971,39.4643,1749.34,90.00,35.80,14.76,200.00,7.00,0.00,30.17,M,M,M,CLR,M,M,M,M,M,M,M,M,M,M,M,M,M,M,85.97,KTMT 312055Z AUTO 20007KT CLR 32/02 A3017 RMK AO2 T03220021 PWINO,M
10U,2023-07-31 20:55,-116.1876,41.9532,1637.00,91.40,28.40,10.48,230.00,8.00,0.00,30.16,M,10.00,18.00,CLR,M,M,M,M,M,M,M,M,M,M,M,M,M,M,86.53,K10U 312055Z AUTO 23008G18KT 200V270 10SM CLR 33/M02 A3016 RMK AO2,M
LSV,2023-07-31 20:55,-115.0343,36.2362,570.00,103.30,54.30,19.85,210.00,4.00,0.00,29.87,M,3.00,M,SCT,BKN,M,M,17000.00,20000.00,M,M,FU,M,M,M,M,M,M,101.82,KLSV 312055Z 21004KT 3SM FU SCT170 BKN200 40/12 A2987 RMK SLPNO T03960124,M
EKO,2023-07-31 20:56,-115.7860,40.8242,1367.00,94.00,33.00,11.65,M,5.00,0.00,30.12,1013.10,10.00,M,CLR,M,M,M,M,M,M,M,M,M,M,M,M,M,M,89.06,KEKO 312056Z AUTO VRB05KT 10SM CLR 34/01 A3012 RMK AO2 SLP131 T03440006 58017,M
WMC,2023-07-31 20:56,-117.8072,40.9019,1315.00,96.00,29.00,9.32,280.00,9.00,0.00,30.08,1012.80,10.00,M,CLR,M,M,M,M,M,M,M,M,M,M,M,M,M,M,90.16,KWMC 312056Z AUTO 28009KT 250V310 10SM CLR 36/M02 A3008 RMK AO2 SLP128 T03561017 58015,M
NFL,2023-07-31 20:56,-118.7010,39.4166,1199.00,92.00,33.00,12.40,0.00,0.00,0.00,30.05,1014.50,10.00,M,SCT,SCT,M,M,15000.00,22000.00,M,M,M,M,M,M,M,M,M,87.50,KNFL 312056Z 00000KT 10SM SCT150 SCT220 33/01 A3005 RMK AO2 SLP145 ACSL DSNT ALQDS T03330006 58016 $,M
HND,2023-07-31 20:56,-115.1344,35.9729,742.79,100.00,59.00,25.98,70.00,5.00,0.00,29.96,1012.60,6.00,M,CLR,M,M,M,M,M,M,M,HZ,M,M,M,M,M,M,100.11,KHND 312056Z 07005KT 6SM HZ CLR 38/15 A2996 RMK AO2 LTG DSNT S SLP126 T03780150 58019,M
TPH,2023-07-31 20:56,-117.0904,38.0505,1654.00,93.00,49.00,22.34,170.00,12.00,0.00,30.14,1010.70,10.00,16.00,CLR,M,M,M,M,M,M,M,M,M,M,M,M,M,M,89.73,KTPH 312056Z AUTO 17012G16KT 10SM CLR 34/09 A3014 RMK AO2 SLP107 T03390094 58019,M
LAS,2023-07-31 20:56,-115.1634,36.0719,663.00,101.00,54.00,21.04,70.00,7.00,0.00,29.93,1010.00,6.00,M,SCT,BKN,M,M,12000.00,18000.00,M,M,FU,M,M,M,M,M,M,99.22,KLAS 312056Z 07007KT 6SM FU SCT120 BKN180 38/12 A2993 RMK AO2 LTG DSNT S SLP100 T03830122 58018,M
05U,2023-07-31 21:10,-116.0051,39.6042,1811.23,91.40,32.00,12.14,M,M,0.00,30.17,M,10.00,M,M,M,M,M,M,M,M,M,M,M,M,M,M,M,M,86.91,K05U 312110Z AUTO 10SM 33/00 A3017 RMK A01,M
BAM,2023-07-31 21:15,-116.8743,40.5990,1382.36,93.20,32.00,11.48,0.00,0.00,0.00,30.08,M,10.00,M,CLR,M,M,M,M,M,M,M,M,M,M,M,M,M,M,88.31,KBAM 312115Z AUTO 00000KT 10SM CLR 34/00 A3008 RMK AO1,M
TMT,2023-07-31 21:15,-117.1971,39.4643,1749.34,91.20,35.20,13.88,280.00,13.00,0.00,30.16,M,M,M,CLR,M,M,M,M,M,M,M,M,M,M,M,M,M,M,86.99,KTMT 312115Z AUTO 28013KT CLR 33/02 A3016 RMK AO2 LTG DSNT E T03290018 PWINO,M
10U,2023-07-31 21:15,-116.1876,41.9532,1637.00,89.60,28.40,11.09,230.00,9.00,0.00,30.16,M,10.00,16.00,CLR,M,M,M,M,M,M,M,M,M,M,M,M,M,M,85.17,K10U 312115Z AUTO 23009G16KT 10SM CLR 32/M02 A3016 RMK AO2,M
BVU,2023-07-31 21:15,-114.8611,35.9475,671.00,100.40,55.40,22.54,150.00,11.00,0.00,29.92,M,9.00,19.00,CLR,M,M,M,M,M,M,M,M,M,M,M,M,M,M,99.06,KBVU 312115Z AUTO 15011G19KT 9SM CLR 38/13 A2992 RMK AO2 LTG DSNT NE AND SW,M
CXP,2023-07-31 21:15,-119.7326,39.1923,1431.00,91.40,28.40,10.48,220.00,10.00,0.00,30.12,M,10.00,16.00,CLR,M,M,M,M,M,M,M,M,M,M,M,M,M,M,86.53,KCXP 312115Z AUTO 22010G16KT 200V270 10SM CLR 33/M02 A3012 RMK AO2,M
RTS,2023-07-31 21:15,-119.8764,39.6682,1539.00,87.80,23.00,9.39,230.00,18.00,0.00,30.15,M,10.00,M,CLR,M,M,M,M,M,M,M,M,M,M,M,M,M,M,83.43,KRTS 312115Z AUTO 23018KT 10SM CLR 31/M05 A3015 RMK AO2,M
MEV,2023-07-31 21:15,-119.7500,38.9963,1441.42,91.40,32.00,12.14,190.00,14.00,0.00,30.11,M,10.00,M,CLR,M,M,M,M,M,M,M,M,M,M,M,M,M,M,86.91,KMEV 312115Z AUTO 19014KT 10SM CLR 33/M00 A3011 RMK AO2,M
HTH,2023-07-31 21:15,-118.6315,38.5448,1282.89,93.20,30.20,10.67,310.00,9.00,0.00,30.04,M,10.00,M,CLR,M,M,M,M,M,M,M,M,M,M,M,M,M,M,88.09,KHTH 312115Z AUTO 31009KT 10SM CLR 34/M01 A3004 RMK A01,M
HND,2023-07-31 21:17,-115.1344,35.9729,742.79,98.60,57.20,25.41,M,4.00,0.00,29.96,M,7.00,M,CLR,M,M,M,M,M,M,M,VCTS,M,M,M,M,M,M,97.76,KHND 312117Z VRB04KT 7SM VCTS CLR 37/14 A2996 RMK AO2 LTG DSNT S AND SW TSB11,M
BVU,2023-07-31 21:35,-114.8611,35.9475,671.00,100.40,53.60,21.11,M,5.00,0.00,29.91,M,10.00,16.00,CLR,M,M,M,M,M,M,M,M,M,M,M,M,M,M,98.44,KBVU 312135Z AUTO VRB05G16KT 10SM CLR 38/12 A2991 RMK AO2,M
CXP,2023-07-31 21:35,-119.7326,39.1923,1431.00,91.40,28.40,10.48,240.00,10.00,0.00,30.12,M,10.00,M,CLR,M,M,M,M,M,M,M,M,M,M,M,M,M,M,86.53,KCXP 312135Z AUTO 24010KT 210V270 10SM CLR 33/M02 A3012 RMK AO2,M
RTS,2023-07-31 21:35,-119.8764,39.6682,1539.00,87.80,21.20,8.70,240.00,19.00,0.00,30.15,M,10.00,24.00,CLR,M,M,M,M,M,M,M,M,M,M,M,M,M,M,83.33,KRTS 312135Z AUTO 24019G24KT 10SM CLR 31/M06 A3015 RMK AO2,M
05U,2023-07-31 21:35,-116.0051,39.6042,1811.23,95.00,32.00,10.85,M,M,0.00,30.16,M,10.00,M,M,M,M,M,M,M,M,M,M,M,M,M,M,M,M,89.71,K05U 312135Z AUTO 10SM 35/00 A3016 RMK A01,M
MEV,2023-07-31 21:35,-119.7500,38.9963,1441.42,91.40,30.20,11.28,190.00,13.00,0.00,30.11,M,10.00,M,CLR,M,M,M,M,M,M,M,M,M,M,M,M,M,M,86.71,KMEV 312135Z AUTO 19013KT 10SM CLR 33/M01 A3011 RMK AO2,M
HTH,2023-07-31 21:35,-118.6315,38.5448,1282.89,95.00,30.20,10.09,340.00,7.00,0.00,30.04,M,10.00,14.00,CLR,M,M,M,M,M,M,M,M,M,M,M,M,M,M,89.48,KHTH 312135Z AUTO 34007G14KT 10SM CLR 35/M01 A3004 RMK A01,M
BAM,2023-07-31 21:35,-116.8743,40.5990,1382.36,95.00,32.00,10.85,250.00,5.00,0.00,30.08,M,10.00,M,CLR,M,M,M,M,M,M,M,M,M,M,M,M,M,M,89.71,KBAM 312135Z AUTO 25005KT 10SM CLR 35/00 A3008 RMK AO1,M
10U,2023-07-31 21:35,-116.1876,41.9532,1637.00,91.40,28.40,10.48,240.00,7.00,0.00,30.16,M,10.00,16.00,CLR,M,M,M,M,M,M,M,M,M,M,M,M,M,M,86.53,K10U 312135Z AUTO 24007G16KT 10SM CLR 33/M02 A3016 RMK AO2,M
TMT,2023-07-31 21:35,-117.1971,39.4643,1749.34,91.40,35.20,13.80,300.00,8.00,0.00,30.15,M,M,M,CLR,M,M,M,M,M,M,M,M,M,M,M,M,M,M,87.16,KTMT 312135Z AUTO 30008KT CLR 33/02 A3015 RMK AO2 T03300018 PWINO,M
LAS,2023-07-31 21:41,-115.1634,36.0719,663.00,100.00,55.00,22.49,M,5.00,0.00,29.91,M,6.00,M,SCT,BKN,M,M,12000.00,18000.00,M,M,FU,M,M,M,M,M,M,98.48,KLAS 312141Z VRB05KT 6SM FU SCT120 BKN180 38/13 A2991 RMK AO2 LTG DSNT S AND SW T03780128,M
LSV,2023-07-31 21:43,-115.0343,36.2362,570.00,109.40,53.60,16.17,0.00,0.00,0.00,29.86,M,3.00,M,FEW,SCT,SCT,M,15000.00,18000.00,20000.00,M,FU,M,M,M,M,M,M,108.00,KLSV 312143Z 00000KT 3SM FU FEW150 SCT180 SCT200 43/12 A2986 RMK SLPNO TWR VIS 2 1/2SM S-NE,M
HND,2023-07-31 21:46,-115.1344,35.9729,742.79,96.80,55.40,25.15,230.00,19.00,0.00,29.95,M,9.00,25.00,FEW,M,M,M,9500.00,M,M,M,M,M,M,M,M,M,M,95.14,KHND 312146Z 23019G25KT 9SM FEW095 36/13 A2995 RMK AO2 WSHFT 2132 LTG DSNT S TSB11E42,M
P68,2023-07-31 21:53,-116.0056,39.6014,1993.00,91.00,31.00,11.80,M,3.00,0.00,30.12,1010.80,M,M,M,M,M,M,M,M,M,M,M,M,M,M,26.00,210.00,2023-07-31 21:10,86.49,KP68 312153Z AUTO VRB03KT 33/M01 A3012 RMK AO1 PK WND 21026/2110 SLP108 T03281006,M
DRA,2023-07-31 21:53,-116.0278,36.6206,1009.00,90.00,51.00,26.43,200.00,14.00,0.00,30.01,1010.60,10.00,26.00,FEW,SCT,M,M,7500.00,10000.00,M,M,M,M,M,M,30.00,210.00,2023-07-31 21:22,87.22,KDRA 312153Z AUTO 20014G26KT 10SM FEW075 SCT100 32/11 A3001 RMK AO2 PK WND 21030/2122 SLP106 T03220106,M
ELY,2023-07-31 21:53,-114.8453,39.2950,1909.00,91.00,43.00,18.94,280.00,9.00,0.00,30.17,1009.50,10.00,17.00,CLR,M,M,M,M,M,M,M,M,M,M,M,M,M,M,87.18,KELY 312153Z AUTO 28009G17KT 10SM CLR 33/06 A3017 RMK AO2 LTG DSNT SE SLP095 T03280061,M
VGT,2023-07-31 21:53,-115.1933,36.2111,667.00,102.00,55.00,21.17,M,3.00,0.00,29.90,1010.90,10.00,M,CLR,M,M,M,M,M,M,M,M,M,M,M,M,M,M,100.66,KVGT 312153Z AUTO VRB03KT 10SM CLR 39/13 A2990 RMK AO2 LTG DSNT S SLP109 T03890128,M
LOL,2023-07-31 21:53,-118.5701,40.0684,1192.43,94.00,32.00,11.19,190.00,10.00,0.00,30.03,1012.50,10.00,17.00,CLR,M,M,M,M,M,M,M,M,M,M,M,M,M,M,88.93,KLOL 312153Z AUTO 19010G17KT 10SM CLR 34/00 A3003 RMK AO2 SLP125 T03440000,M
BVU,2023-07-31 21:55,-114.8611,35.9475,671.00,100.40,53.60,21.11,150.00,9.00,0.00,29.90,M,10.00,16.00,CLR,M,M,M,M,M,M,M,M,M,M,M,M,M,M,98.44,KBVU 312155Z AUTO 15009G16KT 130V200 10SM CLR 38/12 A2990 RMK AO2,M
CXP,2023-07-31 21:55,-119.7326,39.1923,1431.00,91.40,28.40,10.48,250.00,10.00,0.00,30.12,M,10.00,20.00,CLR,M,M,M,M,M,M,M,M,M,M,M,M,M,M,86.53,KCXP 312155Z AUTO 25010G20KT 10SM CLR 33/M02 A3012 RMK AO2,M
INS,2023-07-31 21:55,-115.6733,36.5872,955.00,88.00,50.00,27.12,170.00,3.00,T,30.00,1010.60,7.00,M,FEW,SCT,BKN,BKN,5000.00,8000.00,10000.00,12000.00,-DZ,M,M,M,M,M,M,85.28,KINS 312155Z AUTO 17003KT 7SM -DZ FEW050 SCT080 BKN100 BKN120 31/10 A3000 RMK AO2 DZB40E43RAB43E53DZB53 SLP106 P0000 T03120100 $,M
RNO,2023-07-31 21:55,-119.7711,39.4839,1341.00,95.00,28.00,9.22,200.00,13.00,0.00,30.08,1011.90,10.00,M,FEW,M,M,M,25000.00,M,M,M,M,M,M,M,M,M,M,89.22,KRNO 312155Z 20013KT 10SM FEW250 35/M02 A3008 RMK AO2 SLP119 T03501022,M
RTS,2023-07-31 21:55,-119.8764,39.6682,1539.00,87.80,23.00,9.39,230.00,14.00,0.00,30.15,M,10.00,22.00,CLR,M,M,M,M,M,M,M,M,M,M,M,M,M,M,83.43,KRTS 312155Z AUTO 23014G22KT 10SM CLR 31/M05 A3015 RMK AO2,M
05U,2023-07-31 21:55,-116.0051,39.6042,1811.23,93.20,32.00,11.48,M,M,0.00,30.15,M,10.00,M,M,M,M,M,M,M,M,M,M,M,M,M,M,M,M,88.31,K05U 312155Z AUTO 10SM 34/00 A3015 RMK A01,M
MEV,2023-07-31 21:55,-119.7500,38.9963,1441.42,91.40,30.20,11.28,170.00,13.00,0.00,30.11,M,10.00,M,CLR,M,M,M,M,M,M,M,M,M,M,M,M,M,M,86.71,KMEV 312155Z AUTO 17013KT 10SM CLR 33/M01 A3011 RMK AO2,M
HTH,2023-07-31 21:55,-118.6315,38.5448,1282.89,95.00,30.20,10.09,M,4.00,0.00,30.03,M,10.00,13.00,CLR,M,M,M,M,M,M,M,M,M,M,M,M,M,M,89.48,KHTH 312155Z AUTO VRB04G13KT 10SM CLR 35/M01 A3003 RMK A01,M
TMT,2023-07-31 21:55,-117.1971,39.4643,1749.34,90.00,35.60,14.65,240.00,7.00,0.00,30.14,M,M,M,CLR,M,M,M,M,M,M,M,M,M,M,M,M,M,M,85.96,KTMT 312155Z AUTO 24007KT CLR 32/02 A3014 RMK AO2 T03230020 PWINO,M
BAM,2023-07-31 21:55,-116.8743,40.5990,1382.36,95.00,32.00,10.85,270.00,3.00,0.00,30.07,M,10.00,M,CLR,M,M,M,M,M,M,M,M,M,M,M,M,M,M,89.71,KBAM 312155Z AUTO 27003KT 10SM CLR 35/00 A3007 RMK AO1,M
10U,2023-07-31 21:55,-116.1876,41.9532,1637.00,91.40,28.40,10.48,210.00,11.00,0.00,30.14,M,10.00,18.00,CLR,M,M,M,M,M,M,M,M,M,M,M,M,M,M,86.53,K10U 312155Z AUTO 21011G18KT 180V240 10SM CLR 33/M02 A3014 RMK AO2,M
LSV,2023-07-31 21:55,-115.0343,36.2362,570.00,109.40,55.00,17.02,250.00,4.00,0.00,29.86,M,3.00,M,SCT,BKN,M,M,18000.00,20000.00,M,M,FU,M,M,M,M,M,M,108.63,KLSV 312155Z 25004KT 3SM FU SCT180 BKN200 43/13 A2986 RMK AO2A SLPNO TWR VIS 2 1/2SM S-NE T04300127,M
EKO,2023-07-31 21:56,-115.7860,40.8242,1367.00,95.00,34.00,11.76,230.00,9.00,0.00,30.09,1012.20,10.00,14.00,CLR,M,M,M,M,M,M,M,M,M,M,M,M,M,M,90.00,KEKO 312156Z AUTO 23009G14KT 10SM CLR 35/01 A3009 RMK AO2 SLP122 T03500011,M
WMC,2023-07-31 21:56,-117.8072,40.9019,1315.00,96.00,29.00,9.32,250.00,12.00,0.00,30.05,1012.30,10.00,19.00,CLR,M,M,M,M,M,M,M,M,M,M,M,M,M,M,90.16,KWMC 312156Z AUTO 25012G19KT 10SM CLR 36/M02 A3005 RMK AO2 SLP123 T03561017,M
NFL,2023-07-31 21:56,-118.7010,39.4166,1199.00,94.00,34.00,12.13,M,4.00,0.00,30.02,1013.70,10.00,M,FEW,SCT,SCT,M,7000.00,15000.00,22000.00,M,M,M,M,M,M,M,M,89.21,KNFL 312156Z VRB04KT 10SM FEW070 SCT150 SCT220 34/01 A3002 RMK AO2 SLP137 ACSL DSNT ALQDS T03440011 $,M
HND,2023-07-31 21:56,-115.1344,35.9729,742.79,96.00,55.00,25.40,240.00,15.00,0.00,29.95,1012.40,10.00,23.00,FEW,M,M,M,9500.00,M,M,M,M,M,M,M,M,M,M,94.16,KHND 312156Z 24015G23KT 10SM FEW095 36/13 A2995 RMK AO2 WSHFT 2132 LTG DSNT S TSB11E42 SLP124 T03560128,M
TPH,2023-07-31 21:56,-117.0904,38.0505,1654.00,95.00,50.00,21.79,210.00,18.00,0.00,30.11,1010.10,10.00,28.00,SCT,M,M,M,12000.00,M,M,M,M,M,M,M,28.00,210.00,2023-07-31 21:54,91.89,KTPH 312156Z AUTO 21018G28KT 10SM SCT120 35/10 A3011 RMK AO2 PK WND 21028/2154 SLP101 T03500100,M
LAS,2023-07-31 21:56,-115.1634,36.0719,663.00,99.00,55.00,23.18,M,3.00,0.00,29.90,1009.40,6.00,M,SCT,BKN,M,M,12000.00,18000.00,M,M,FU,M,M,M,M,M,M,97.39,KLAS 312156Z VRB03KT 6SM FU SCT120 BKN180 37/13 A2990 RMK AO2 LTG DSNT S SLP094 T03720128,M
INS,2023-07-31 21:56,-115.6733,36.5872,955.00,87.80,50.00,27.29,0.00,0.00,0.00,30.00,1010.60,7.00,M,FEW,SCT,BKN,BKN,5000.00,8000.00,10000.00,12000.00,M,M,M,M,M,M,M,85.11,KINS 312156Z AUTO 00000KT 7SM FEW050 SCT080 BKN100 BKN120 31/10 A3000 RMK AO2 DZE56 SLP106 $,M
BVU,2023-07-31 22:15,-114.8611,35.9475,671.00,102.20,55.40,21.36,130.00,7.00,0.00,29.89,M,10.00,13.00,CLR,M,M,M,M,M,M,M,M,M,M,M,M,M,M,101.04,KBVU 312215Z AUTO 13007G13KT 090V170 10SM CLR 39/13 A2989 RMK AO2,M
CXP,2023-07-31 22:15,-119.7326,39.1923,1431.00,91.40,28.40,10.48,260.00,11.00,0.00,30.11,M,10.00,M,CLR,M,M,M,M,M,M,M,M,M,M,M,M,M,M,86.53,KCXP 312215Z AUTO 26011KT 10SM CLR 33/M02 A3011 RMK AO2,M
RTS,2023-07-31 22:15,-119.8764,39.6682,1539.00,89.60,21.20,8.22,250.00,16.00,0.00,30.15,M,10.00,22.00,CLR,M,M,M,M,M,M,M,M,M,M,M,M,M,M,84.64,KRTS 312215Z AUTO 25016G22KT 10SM CLR 32/M06 A3015 RMK AO2,M
LAS,2023-07-31 22:15,-115.1634,36.0719,663.00,97.00,53.00,22.90,220.00,11.00,0.00,29.90,M,9.00,26.00,FEW,BKN,BKN,M,3800.00,12000.00,18000.00,M,TS,M,M,M,26.00,190.00,2023-07-31 22:06,94.64,KLAS 312215Z 22011G26KT 9SM TS FEW038 BKN120CB BKN180 36/12 A2990 RMK AO2 PK WND 19026/2206 LTG DSNT S TSB15 OCNL LTGICCG SE-S TS SE-S MOV NW FU ALQDS T03610117,M
05U,2023-07-31 22:15,-116.0051,39.6042,1811.23,91.40,33.80,13.05,M,M,0.00,30.14,M,10.00,M,M,M,M,M,M,M,M,M,M,M,M,M,M,M,M,87.13,K05U 312215Z AUTO 10SM 33/01 A3014 RMK A01,M
MEV,2023-07-31 22:15,-119.7500,38.9963,1441.42,91.40,30.20,11.28,180.00,15.00,0.00,30.10,M,10.00,M,CLR,M,M,M,M,M,M,M,M,M,M,M,M,M,M,86.71,KMEV 312215Z AUTO 18015KT 10SM CLR 33/M01 A3010 RMK AO2,M
HTH,2023-07-31 22:15,-118.6315,38.5448,1282.89,96.80,30.20,9.55,330.00,10.00,0.00,30.02,M,10.00,M,CLR,M,M,M,M,M,M,M,M,M,M,M,M,M,M,90.96,KHTH 312215Z AUTO 33010KT 10SM CLR 36/M01 A3002 RMK A01,M
TMT,2023-07-31 22:15,-117.1971,39.4643,1749.34,91.60,35.80,14.04,220.00,6.00,0.00,30.14,M,M,M,CLR,M,M,M,M,M,M,M,M,M,M,M,M,M,M,87.35,KTMT 312215Z AUTO 22006KT CLR 33/02 A3014 RMK AO2 T03310021 PWINO,M
10U,2023-07-31 22:15,-116.1876,41.9532,1637.00,87.80,28.40,11.74,M,6.00,0.00,30.13,M,10.00,M,CLR,M,M,M,M,M,M,M,M,M,M,M,M,M,M,83.84,K10U 312215Z AUTO VRB06KT 10SM CLR 31/M02 A3013 RMK AO2,M
BAM,2023-07-31 22:15,-116.8743,40.5990,1382.36,96.80,33.80,11.04,350.00,9.00,0.00,30.06,M,10.00,M,CLR,M,M,M,M,M,M,M,M,M,M,M,M,M,M,91.44,KBAM 312215Z AUTO 35009KT 10SM CLR 36/01 A3006 RMK AO1,M
HND,2023-07-31 22:16,-115.1344,35.9729,742.79,95.00,55.40,26.58,220.00,14.00,T,29.95,M,9.00,21.00,CLR,M,M,M,M,M,M,M,-TSRA,M,M,M,M,M,M,93.22,KHND 312216Z 22014G21KT 9SM -TSRA CLR 35/13 A2995 RMK AO2 LTG DSNT S TSB10RAB16 P0000,M
TPH,2023-07-31 22:26,-117.0904,38.0505,1654.00,94.00,49.00,21.65,230.00,16.00,0.00,30.11,M,10.00,23.00,CLR,M,M,M,M,M,M,M,M,M,M,M,M,M,M,90.71,KTPH 312226Z AUTO 23016G23KT 10SM CLR 34/09 A3011 RMK AO2 WSHFT 2206 T03440094,M
HND,2023-07-31 22:27,-115.1344,35.9729,742.79,89.60,64.40,43.34,220.00,12.00,T,29.95,M,10.00,M,FEW,SCT,M,M,6500.00,9000.00,M,M,VCTS -RA,M,M,M,M,M,M,91.23,KHND 312227Z 22012KT 10SM VCTS -RA FEW065 SCT090 32/18 A2995 RMK AO2 TSB10E25B27RAB16 P0000,M
BVU,2023-07-31 22:35,-114.8611,35.9475,671.00,98.60,57.20,25.41,M,6.00,0.00,29.88,M,10.00,14.00,CLR,M,M,M,M,M,M,M,M,M,M,M,M,M,M,97.76,KBVU 312235Z AUTO VRB06G14KT 10SM CLR 37/14 A2988 RMK AO2,M
CXP,2023-07-31 22:35,-119.7326,39.1923,1431.00,91.40,28.40,10.48,250.00,10.00,0.00,30.11,M,10.00,19.00,CLR,M,M,M,M,M,M,M,M,M,M,M,M,M,M,86.53,KCXP 312235Z AUTO 25010G19KT 10SM CLR 33/M02 A3011 RMK AO2,M
RTS,2023-07-31 22:35,-119.8764,39.6682,1539.00,87.80,21.20,8.70,250.00,15.00,0.00,30.14,M,10.00,23.00,CLR,M,M,M,M,M,M,M,M,M,M,M,M,M,M,83.33,KRTS 312235Z AUTO 25015G23KT 10SM CLR 31/M06 A3014 RMK AO2,M
05U,2023-07-31 22:35,-116.0051,39.6042,1811.23,91.40,33.80,13.05,M,M,0.00,30.14,M,10.00,M,M,M,M,M,M,M,M,M,M,M,M,M,M,M,M,87.13,K05U 312235Z AUTO 10SM 33/01 A3014 RMK A01,M
MEV,2023-07-31 22:35,-119.7500,38.9963,1441.42,91.40,32.00,12.14,200.00,12.00,0.00,30.10,M,10.00,18.00,CLR,M,M,M,M,M,M,M,M,M,M,M,M,M,M,86.91,KMEV 312235Z AUTO 20012G18KT 10SM CLR 33/00 A3010 RMK AO2,M
HTH,2023-07-31 22:35,-118.6315,38.5448,1282.89,96.80,30.20,9.55,310.00,12.00,0.00,30.01,M,10.00,M,CLR,M,M,M,M,M,M,M,M,M,M,M,M,M,M,90.96,KHTH 312235Z AUTO 31012KT 10SM CLR 36/M01 A3001 RMK A01,M
TMT,2023-07-31 22:35,-117.1971,39.4643,1749.34,90.50,34.70,13.91,0.00,0.00,0.00,30.13,M,M,M,CLR,M,M,M,M,M,M,M,M,M,M,M,M,M,M,86.37,KTMT 312235Z AUTO 00000KT CLR 33/02 A3013 RMK AO2 LTG DSNT SE T03250015 PWINO,M
10U,2023-07-31 22:35,-116.1876,41.9532,1637.00,89.60,28.40,11.09,M,5.00,0.00,30.13,M,10.00,M,CLR,M,M,M,M,M,M,M,M,M,M,M,M,M,M,85.17,K10U 312235Z AUTO VRB05KT 10SM CLR 32/M02 A3013 RMK AO2,M
BAM,2023-07-31 22:35,-116.8743,40.5990,1382.36,96.80,33.80,11.04,330.00,5.00,0.00,30.04,M,10.00,M,CLR,M,M,M,M,M,M,M,M,M,M,M,M,M,M,91.44,KBAM 312235Z AUTO 33005KT 10SM CLR 36/01 A3004 RMK AO1,M
P68,2023-07-31 22:53,-116.0056,39.6014,1993.00,90.00,33.00,13.20,220.00,9.00,0.00,30.11,1010.30,M,16.00,M,M,M,M,M,M,M,M,M,M,M,M,M,M,M,85.92,KP68 312253Z AUTO 22009G16KT 32/01 A3011 RMK AO1 SLP103 T03220006,M
DRA,2023-07-31 22:53,-116.0278,36.6206,1009.00,89.00,50.00,26.28,230.00,20.00,T,30.01,1010.70,10.00,28.00,FEW,SCT,M,M,9000.00,11000.00,M,M,M,M,M,M,28.00,230.00,2023-07-31 22:44,86.16,KDRA 312253Z AUTO 23020G28KT 10SM FEW090 SCT110 32/10 A3001 RMK AO2 PK WND 23028/2244 RAB41E51 SLP107 P0000 T03170100,M
ELY,2023-07-31 22:53,-114.8453,39.2950,1909.00,88.00,41.00,19.28,220.00,4.00,0.00,30.15,1009.00,10.00,18.00,FEW,M,M,M,11000.00,M,M,M,M,M,M,M,M,M,M,84.46,KELY 312253Z AUTO 22004G18KT 10SM FEW110 31/05 A3015 RMK AO2 LTG DSNT N-SE SLP090 T03110050,M
VGT,2023-07-31 22:53,-115.1933,36.2111,667.00,100.00,55.00,22.49,200.00,11.00,0.00,29.89,1010.40,10.00,27.00,CLR,M,M,M,M,M,M,M,M,M,M,M,27.00,210.00,2023-07-31 22:50,98.48,KVGT 312253Z 20011G27KT 10SM CLR 38/13 A2989 RMK AO2 PK WND 21027/2250 LTG DSNT SE SLP104 T03780128,M
LOL,2023-07-31 22:53,-118.5701,40.0684,1192.43,95.00,32.00,10.85,180.00,9.00,0.00,30.00,1011.90,10.00,M,CLR,M,M,M,M,M,M,M,M,M,M,M,M,M,M,89.71,KLOL 312253Z AUTO 18009KT 10SM CLR 35/00 A3000 RMK AO2 SLP119 T03500000,M
BVU,2023-07-31 22:55,-114.8611,35.9475,671.00,98.60,55.40,23.81,130.00,7.00,0.00,29.88,M,10.00,M,SCT,M,M,M,10000.00,M,M,M,M,M,M,M,M,M,M,97.09,KBVU 312255Z AUTO 13007KT 10SM SCT100 37/13 A2988 RMK AO2 LTG DSNT W-NE,M
CXP,2023-07-31 22:55,-119.7326,39.1923,1431.00,89.60,28.40,11.09,250.00,8.00,0.00,30.11,M,10.00,17.00,CLR,M,M,M,M,M,M,M,M,M,M,M,M,M,M,85.17,KCXP 312255Z AUTO 25008G17KT 210V280 10SM CLR 32/M02 A3011 RMK AO2,M
INS,2023-07-31 22:55,-115.6733,36.5872,955.00,93.20,47.50,20.98,250.00,5.00,T,29.98,1009.80,10.00,M,FEW,M,M,M,17000.00,M,M,M,M,M,M,M,M,M,M,89.70,KINS 312255Z AUTO 25005KT 10SM FEW170 34/09 A2998 RMK AO2 DZE2156 SLP098 P0000 T03400086 $,M
RNO,2023-07-31 22:55,-119.7711,39.4839,1341.00,96.00,28.00,8.94,200.00,12.00,0.00,30.07,1011.70,10.00,20.00,SCT,M,M,M,25000.00,M,M,M,M,M,M,M,M,M,M,90.05,KRNO 312255Z 20012G20KT 10SM SCT250 36/M02 A3007 RMK AO2 SLP117 T03561022,M
RTS,2023-07-31 22:55,-119.8764,39.6682,1539.00,87.80,21.20,8.70,230.00,10.00,0.00,30.14,M,10.00,22.00,CLR,M,M,M,M,M,M,M,M,M,M,M,M,M,M,83.33,KRTS 312255Z AUTO 23010G22KT 10SM CLR 31/M06 A3014 RMK AO2,M
05U,2023-07-31 22:55,-116.0051,39.6042,1811.23,89.60,33.80,13.80,M,M,0.00,30.13,M,10.00,M,M,M,M,M,M,M,M,M,M,M,M,M,M,M,M,85.59,K05U 312255Z AUTO 10SM 32/01 A3013 RMK A01,M
MEV,2023-07-31 22:55,-119.7500,38.9963,1441.42,91.40,32.00,12.14,210.00,13.00,0.00,30.09,M,10.00,M,CLR,M,M,M,M,M,M,M,M,M,M,M,M,M,M,86.91,KMEV 312255Z AUTO 21013KT 10SM CLR 33/00 A3009 RMK AO2,M
HTH,2023-07-31 22:55,-118.6315,38.5448,1282.89,95.00,32.00,10.85,320.00,13.00,0.00,30.01,M,10.00,18.00,CLR,M,M,M,M,M,M,M,M,M,M,M,M,M,M,89.71,KHTH 312255Z AUTO 32013G18KT 10SM CLR 35/M00 A3001 RMK A01,M
TMT,2023-07-31 22:55,-117.1971,39.4643,1749.34,89.80,34.30,14.00,310.00,9.00,0.00,30.12,M,M,M,CLR,M,M,M,M,M,M,M,M,M,M,M,M,M,M,85.77,KTMT 312255Z AUTO 31009KT CLR 32/01 A3012 RMK AO2 T03210013 PWINO,M
BAM,2023-07-31 22:55,-116.8743,40.5990,1382.36,96.80,33.80,11.04,280.00,3.00,0.00,30.04,M,10.00,M,CLR,M,M,M,M,M,M,M,M,M,M,M,M,M,M,91.44,KBAM 312255Z AUTO 28003KT 10SM CLR 36/01 A3004 RMK AO1,M
10U,2023-07-31 22:55,-116.1876,41.9532,1637.00,93.20,28.40,9.91,250.00,8.00,0.00,30.12,M,10.00,M,CLR,M,M,M,M,M,M,M,M,M,M,M,M,M,M,87.89,K10U 312255Z AUTO 25008KT 220V290 10SM CLR 34/M02 A3012 RMK AO2,M
LSV,2023-07-31 22:55,-115.0343,36.2362,570.00,107.00,54.50,17.92,250.00,6.00,0.00,29.83,M,3.00,M,SCT,M,M,M,16000.00,M,M,M,FU,M,M,M,M,M,M,105.87,KLSV 312255Z 25006KT 3SM FU SCT160 42/13 A2983 RMK AO2A SLPNO T04170125,M
EKO,2023-07-31 22:56,-115.7860,40.8242,1367.00,94.00,33.00,11.65,M,4.00,0.00,30.07,1011.80,10.00,M,CLR,M,M,M,M,M,M,M,M,M,M,M,M,M,M,89.06,KEKO 312256Z AUTO VRB04KT 10SM CLR 34/01 A3007 RMK AO2 SLP118 T03440006,M
WMC,2023-07-31 22:56,-117.8072,40.9019,1315.00,96.00,29.00,9.32,240.00,13.00,0.00,30.03,1011.70,10.00,20.00,CLR,M,M,M,M,M,M,M,M,M,M,M,M,M,M,90.16,KWMC 312256Z AUTO 24013G20KT 10SM CLR 36/M02 A3003 RMK AO2 SLP117 T03561017,M
NFL,2023-07-31 22:56,-118.7010,39.4166,1199.00,97.00,33.00,10.63,280.00,7.00,0.00,30.01,1013.20,10.00,M,FEW,SCT,SCT,M,7000.00,15000.00,22000.00,M,M,M,M,M,M,M,M,91.49,KNFL 312256Z 28007KT 220V330 10SM FEW070 SCT150 SCT220 36/01 A3001 RMK AO2 SLP132 ACSL DSNT ALQDS T03610006 $,M
HND,2023-07-31 22:56,-115.1344,35.9729,742.79,95.00,58.00,29.20,220.00,8.00,T,29.94,1012.10,10.00,M,CLR,M,M,M,M,M,M,M,VCTS,M,M,M,M,M,M,94.11,KHND 312256Z 22008KT 10SM VCTS CLR 35/14 A2994 RMK AO2 LTG DSNT SE TSB10E25B27RAB16E37 SLP121 P0000 T03500144,M
TPH,2023-07-31 22:56,-117.0904,38.0505,1654.00,93.00,49.00,22.34,230.00,9.00,0.00,30.10,1010.20,10.00,18.00,CLR,M,M,M,M,M,M,M,M,M,M,M,M,M,M,89.73,KTPH 312256Z AUTO 23009G18KT 10SM CLR 34/09 A3010 RMK AO2 WSHFT 2206 SLP102 T03390094,M
LAS,2023-07-31 22:56,-115.1634,36.0719,663.00,98.00,52.00,21.41,210.00,9.00,0.00,29.89,1008.90,10.00,17.00,FEW,BKN,BKN,M,3800.00,12000.00,18000.00,M,TS,M,M,M,26.00,190.00,2023-07-31 22:06,95.42,KLAS 312256Z 21009G17KT 10SM TS FEW038 BKN120CB BKN180 37/11 A2989 RMK AO2 PK WND 19026/2206 LTG DSNT SE AND S TSB15 SLP089 OCNL LTGICCG E-S TS E-S MOV NW FU ALQDS T03670111,M
ELY,2023-07-31 23:12,-114.8453,39.2950,1909.00,88.00,42.00,20.03,220.00,14.00,0.00,30.15,M,10.00,19.00,CLR,M,M,M,M,M,M,M,VCTS,M,M,M,M,M,M,84.52,KELY 312312Z AUTO 22014G19KT 10SM VCTS CLR 31/06 A3015 RMK AO2 LTG DSNT ALQDS T03110056,M
BVU,2023-07-31 23:15,-114.8611,35.9475,671.00,98.60,57.20,25.41,90.00,8.00,0.00,29.87,M,10.00,14.00,SCT,M,M,M,10000.00,M,M,M,M,M,M,M,M,M,M,97.76,KBVU 312315Z AUTO 09008G14KT 10SM SCT100 37/14 A2987 RMK AO2 LTG DSNT NE AND SW,M
CXP,2023-07-31 23:15,-119.7326,39.1923,1431.00,91.40,30.20,11.28,250.00,11.00,0.00,30.10,M,10.00,19.00,CLR,M,M,M,M,M,M,M,M,M,M,M,M,M,M,86.71,KCXP 312315Z AUTO 25011G19KT 10SM CLR 33/M01 A3010 RMK AO2,M
RTS,2023-07-31 23:15,-119.8764,39.6682,1539.00,87.80,19.40,8.06,270.00,15.00,0.00,30.14,M,10.00,25.00,CLR,M,M,M,M,M,M,M,M,M,M,M,M,M,M,83.23,KRTS 312315Z AUTO 27015G25KT 10SM CLR 31/M07 A3014 RMK AO2,M
05U,2023-07-31 23:15,-116.0051,39.6042,1811.23,89.60,37.40,15.92,M,M,0.00,30.14,M,10.00,M,M,M,M,M,M,M,M,M,M,M,M,M,M,M,M,85.67,K05U 312315Z AUTO 10SM 32/03 A3014 RMK A01,M
MEV,2023-07-31 23:15,-119.7500,38.9963,1441.42,91.40,32.00,12.14,210.00,8.00,0.00,30.10,M,10.00,16.00,CLR,M,M,M,M,M,M,M,M,M,M,M,M,M,M,86.91,KMEV 312315Z AUTO 21008G16KT 10SM CLR 33/00 A3010 RMK AO2,M
HTH,2023-07-31 23:15,-118.6315,38.5448,1282.89,96.80,32.00,10.27,320.00,14.00,0.00,30.00,M,10.00,M,CLR,M,M,M,M,M,M,M,M,M,M,M,M,M,M,91.19,KHTH 312315Z AUTO 32014KT 10SM CLR 36/M00 A3000 RMK A01,M
TMT,2023-07-31 23:15,-117.1971,39.4643,1749.34,92.50,34.70,13.07,320.00,13.00,0.00,30.12,M,M,18.00,CLR,M,M,M,M,M,M,M,M,M,M,M,M,M,M,88.11,KTMT 312315Z AUTO 32013G18KT CLR 34/02 A3012 RMK AO2 T03360015 PWINO,M
10U,2023-07-31 23:15,-116.1876,41.9532,1637.00,91.40,28.40,10.48,220.00,10.00,0.00,30.12,M,10.00,15.00,CLR,M,M,M,M,M,M,M,M,M,M,M,M,M,M,86.53,K10U 312315Z AUTO 22010G15KT 150V270 10SM CLR 33/M02 A3012 RMK AO2,M
BAM,2023-07-31 23:15,-116.8743,40.5990,1382.36,96.80,33.80,11.04,20.00,8.00,0.00,30.04,M,10.00,M,CLR,M,M,M,M,M,M,M,M,M,M,M,M,M,M,91.44,KBAM 312315Z AUTO 02008KT 10SM CLR 36/01 A3004 RMK AO1,M
HND,2023-07-31 23:16,-115.1344,35.9729,742.79,96.80,57.20,26.84,M,5.00,0.00,29.93,M,10.00,M,CLR,M,M,M,M,M,M,M,M,M,M,M,M,M,M,95.77,KHND 312316Z VRB05KT 10SM CLR 36/14 A2993 RMK AO2 LTG DSNT SE AND S TSE10,M
BVU,2023-07-31 23:35,-114.8611,35.9475,671.00,100.40,57.20,24.06,90.00,9.00,0.00,29.86,M,10.00,M,CLR,M,M,M,M,M,M,M,M,M,M,M,M,M,M,99.77,KBVU 312335Z AUTO 09009KT 10SM CLR 38/14 A2986 RMK AO2,M
CXP,2023-07-31 23:35,-119.7326,39.1923,1431.00,89.60,30.20,11.94,260.00,11.00,0.00,30.11,M,10.00,18.00,CLR,M,M,M,M,M,M,M,M,M,M,M,M,M,M,85.34,KCXP 312335Z AUTO 26011G18KT 10SM CLR 32/M01 A3011 RMK AO2,M
RTS,2023-07-31 23:35,-119.8764,39.6682,1539.00,87.80,19.40,8.06,250.00,13.00,0.00,30.14,M,10.00,22.00,CLR,M,M,M,M,M,M,M,M,M,M,M,M,M,M,83.23,KRTS 312335Z AUTO 25013G22KT 10SM CLR 31/M07 A3014 RMK AO2,M
05U,2023-07-31 23:35,-116.0051,39.6042,1811.23,87.80,37.40,16.86,M,M,0.00,30.14,M,10.00,M,M,M,M,M,M,M,M,M,M,M,M,M,M,M,M,84.16,K05U 312335Z AUTO 10SM 31/03 A3014 RMK A01,M
MEV,2023-07-31 23:35,-119.7500,38.9963,1441.42,89.60,30.20,11.94,M,6.00,0.00,30.10,M,10.00,12.00,CLR,M,M,M,M,M,M,M,M,M,M,M,M,M,M,85.34,KMEV 312335Z AUTO VRB06G12KT 10SM CLR 32/M01 A3010 RMK AO2,M
HTH,2023-07-31 23:35,-118.6315,38.5448,1282.89,95.00,32.00,10.85,310.00,12.00,0.00,30.00,M,10.00,M,CLR,M,M,M,M,M,M,M,M,M,M,M,M,M,M,89.71,KHTH 312335Z AUTO 31012KT 10SM CLR 35/M00 A3000 RMK A01,M
TMT,2023-07-31 23:35,-117.1971,39.4643,1749.34,90.70,33.80,13.34,320.00,12.00,0.00,30.13,M,M,17.00,CLR,M,M,M,M,M,M,M,M,M,M,M,M,M,M,86.53,KTMT 312335Z AUTO 32012G17KT CLR 33/01 A3013 RMK AO2 T03260010 PWINO,M
10U,2023-07-31 23:35,-116.1876,41.9532,1637.00,93.20,28.40,9.91,280.00,10.00,0.00,30.12,M,10.00,18.00,CLR,M,M,M,M,M,M,M,M,M,M,M,M,M,M,87.89,K10U 312335Z AUTO 28010G18KT 10SM CLR 34/M02 A3012 RMK AO2,M
BAM,2023-07-31 23:35,-116.8743,40.5990,1382.36,96.80,33.80,11.04,0.00,0.00,0.00,30.03,M,10.00,M,CLR,M,M,M,M,M,M,M,M,M,M,M,M,M,M,91.44,KBAM 312335Z AUTO 00000KT 10SM CLR 36/01 A3003 RMK AO1,M
LAS,2023-07-31 23:43,-115.1634,36.0719,663.00,100.00,51.00,19.42,220.00,8.00,0.00,29.87,M,10.00,M,FEW,BKN,BKN,M,12000.00,18000.00,22000.00,M,M,M,M,M,M,M,M,97.26,KLAS 312343Z 22008KT 10SM FEW120 BKN180 BKN220 38/11 A2987 RMK AO2 LTG DSNT S TSE43 TS DSIPTD FU ALQDS T03780106,M
P68,2023-07-31 23:53,-116.0056,39.6014,1993.00,86.00,36.00,16.89,230.00,17.00,0.00,30.12,1011.30,M,28.00,M,M,M,M,M,M,M,M,M,M,M,M,30.00,240.00,2023-07-31 23:14,82.70,KP68 312353Z AUTO 23017G28KT 30/02 A3012 RMK AO1 PK WND 24030/2314 SLP113 T03000022 10339 20289 55008,M
DRA,2023-07-31 23:53,-116.0278,36.6206,1009.00,93.00,46.00,19.95,220.00,19.00,0.00,29.99,1009.80,10.00,25.00,CLR,M,M,M,M,M,M,M,M,M,M,M,26.00,230.00,2023-07-31 23:20,89.31,KDRA 312353Z AUTO 22019G25KT 10SM CLR 34/08 A2999 RMK AO2 PK WND 23026/2320 SLP098 60000 T03390078 10378 20306 58009,M
ELY,2023-07-31 23:53,-114.8453,39.2950,1909.00,87.00,42.00,20.68,0.00,0.00,0.00,30.16,1009.80,10.00,M,BKN,M,M,M,11000.00,M,M,M,VCTS,M,M,M,M,M,M,83.70,KELY 312353Z AUTO 00000KT 10SM VCTS BKN110 31/06 A3016 RMK AO2 LTG DSNT NE-S SLP098 T03060056 10333 20278 55011,M
VGT,2023-07-31 23:53,-115.1933,36.2111,667.00,101.00,51.00,18.84,240.00,9.00,0.00,29.86,1009.40,10.00,M,CLR,M,M,M,M,M,M,M,M,M,M,M,M,M,M,98.30,KVGT 312353Z 24009KT 10SM CLR 38/11 A2986 RMK AO2 LTG DSNT SE AND S SLP094 60000 T03830106 10400 20339 57023,M
LOL,2023-07-31 23:53,-118.5701,40.0684,1192.43,94.00,31.00,10.75,200.00,7.00,0.00,29.99,1011.40,10.00,M,CLR,M,M,M,M,M,M,M,M,M,M,M,M,M,M,88.80,KLOL 312353Z AUTO 20007KT 10SM CLR 34/M01 A2999 RMK AO2 SLP114 T03441006 10356 20294 56019,M
BVU,2023-07-31 23:55,-114.8611,35.9475,671.00,98.60,53.60,22.29,320.00,10.00,0.00,29.86,M,10.00,16.00,CLR,M,M,M,M,M,M,M,M,M,M,M,M,M,M,96.51,KBVU 312355Z AUTO 32010G16KT 10SM CLR 37/12 A2986 RMK AO2 LTG DSNT NE AND SW,M
CXP,2023-07-31 23:55,-119.7326,39.1923,1431.00,89.60,30.20,11.94,260.00,12.00,0.00,30.11,M,10.00,18.00,CLR,M,M,M,M,M,M,M,M,M,M,M,M,M,M,85.34,KCXP 312355Z AUTO 26012G18KT 10SM CLR 32/M01 A3011 RMK AO2,M
RNO,2023-07-31 23:55,-119.7711,39.4839,1341.00,93.00,26.00,9.04,260.00,15.00,0.00,30.06,1011.60,10.00,21.00,SCT,M,M,M,25000.00,M,M,M,M,M,M,M,M,M,M,87.51,KRNO 312355Z 26015G21KT 10SM SCT250 34/M03 A3006 RMK AO2 SLP116 T03391033 10356 20283 56009,M
RTS,2023-07-31 23:55,-119.8764,39.6682,1539.00,87.80,19.40,8.06,260.00,18.00,0.00,30.13,M,10.00,M,CLR,M,M,M,M,M,M,M,M,M,M,M,M,M,M,83.23,KRTS 312355Z AUTO 26018KT 10SM CLR 31/M07 A3013 RMK AO2,M
05U,2023-07-31 23:55,-116.0051,39.6042,1811.23,87.80,37.40,16.86,M,M,0.00,30.15,M,10.00,M,M,M,M,M,M,M,M,M,M,M,M,M,M,M,M,84.16,K05U 312355Z AUTO 10SM 31/03 A3015 RMK A01,M
MEV,2023-07-31 23:55,-119.7500,38.9963,1441.42,87.80,32.00,13.59,200.00,15.00,0.00,30.10,M,10.00,M,CLR,M,M,M,M,M,M,M,M,M,M,M,M,M,M,84.08,KMEV 312355Z AUTO 20015KT 10SM CLR 31/00 A3010 RMK AO2,M
HTH,2023-07-31 23:55,-118.6315,38.5448,1282.89,95.00,30.20,10.09,320.00,13.00,0.00,30.00,M,10.00,M,CLR,M,M,M,M,M,M,M,M,M,M,M,M,M,M,89.48,KHTH 312355Z AUTO 32013KT 10SM CLR 35/M01 A3000 RMK A01,M
TMT,2023-07-31 23:55,-117.1971,39.4643,1749.34,89.20,34.00,14.09,340.00,4.00,0.00,30.12,M,M,M,CLR,M,M,M,M,M,M,M,M,M,M,M,M,M,M,85.26,KTMT 312355Z AUTO 34004KT CLR 32/01 A3012 RMK AO2 T03180012 10336 20275 PWINO,M
BAM,2023-07-31 23:55,-116.8743,40.5990,1382.36,98.60,32.00,9.72,250.00,9.00,0.00,30.03,M,10.00,16.00,CLR,M,M,M,M,M,M,M,M,M,M,M,M,M,M,92.69,KBAM 312355Z AUTO 25009G16KT 10SM CLR 37/00 A3003 RMK AO1,M
10U,2023-07-31 23:55,-116.1876,41.9532,1637.00,91.40,28.40,10.48,260.00,7.00,0.00,30.11,M,10.00,14.00,CLR,M,M,M,M,M,M,M,M,M,M,M,M,M,M,86.53,K10U 312355Z AUTO 26007G14KT 10SM CLR 33/M02 A3011 RMK AO2,M
INS,2023-07-31 23:55,-115.6733,36.5872,955.00,95.00,44.60,17.78,280.00,5.00,0.00,29.95,1008.90,10.00,M,CLR,M,M,M,M,M,M,M,M,M,M,M,M,M,M,91.06,KINS 312355Z AUTO 28005KT 10SM CLR 35/07 A2995 RMK AO2 SLP089 60000 T03490070 10351 20304 58014 $,M
LSV,2023-07-31 23:55,-115.0343,36.2362,570.00,100.40,53.20,20.80,160.00,14.00,0.00,29.81,1006.50,6.00,M,BKN,M,M,M,14000.00,M,M,M,FU,M,M,M,M,M,M,98.31,KLSV 312355Z 16014KT 6SM FU BKN140 38/12 A2981 RMK A02A SLP065 T03800118,M
EKO,2023-07-31 23:56,-115.7860,40.8242,1367.00,95.00,34.00,11.76,0.00,0.00,0.00,30.05,1011.10,10.00,M,CLR,M,M,M,M,M,M,M,M,M,M,M,M,M,M,90.00,KEKO 312356Z AUTO 00000KT 10SM CLR 35/01 A3005 RMK AO2 SLP111 T03500011 10350 20300 56019,M
WMC,2023-07-31 23:56,-117.8072,40.9019,1315.00,95.00,29.00,9.61,170.00,6.00,0.00,30.02,1011.30,10.00,M,CLR,M,M,M,M,M,M,M,M,M,M,M,M,M,M,89.34,KWMC 312356Z AUTO 17006KT 10SM CLR 35/M02 A3002 RMK AO2 SLP113 T03501017 10361 20306 56018,M
NFL,2023-07-31 23:56,-118.7010,39.4166,1199.00,96.00,32.00,10.53,M,4.00,0.00,29.99,1012.60,10.00,M,FEW,SCT,SCT,M,7000.00,15000.00,22000.00,M,M,M,M,M,M,M,M,90.53,KNFL 312356Z VRB04KT 10SM FEW070 SCT150 SCT220 36/00 A2999 RMK AO2 SLP126 ACSL DSNT ALQDS T03560000 10361 20306 56019,M
HND,2023-07-31 23:56,-115.1344,35.9729,742.79,99.00,53.00,21.54,M,5.00,0.00,29.92,1011.40,10.00,M,CLR,M,M,M,M,M,M,M,M,M,M,M,M,M,M,96.76,KHND 312356Z VRB05KT 10SM CLR 37/12 A2992 RMK AO2 LTG DSNT SE AND S TSE10 SLP114 60000 T03720117 10383 20322 58013,M
LAS,2023-07-31 23:56,-115.1634,36.0719,663.00,100.00,51.00,19.42,250.00,5.00,0.00,29.87,1008.20,10.00,M,FEW,BKN,BKN,M,12000.00,18000.00,22000.00,M,M,M,M,M,M,M,M,97.26,KLAS 312356Z 25005KT 10SM FEW120 BKN180 BKN220 38/11 A2987 RMK AO2 LTG DSNT SE AND S TSE43 SLP082 TS DSIPTD FU ALQDS T03780106 10389 20350 57018,M
TPH,2023-07-31 23:56,-117.0904,38.0505,1654.00,92.00,46.00,20.58,220.00,16.00,0.00,30.10,1010.30,10.00,28.00,CLR,M,M,M,M,M,M,M,M,M,M,M,28.00,220.00,2023-07-31 23:52,88.38,KTPH 312356Z AUTO 22016G28KT 10SM CLR 33/08 A3010 RMK AO2 PK WND 22028/2352 SLP103 T03330078 10356 20294 56012,M
