station,valid,lon,lat,elevation,tmpf,dwpf,relh,drct,sknt,p01i,alti,mslp,vsby,gust,skyc1,skyc2,skyc3,skyc4,skyl1,skyl2,skyl3,skyl4,wxcodes,ice_accretion_1hr,ice_accretion_3hr,ice_accretion_6hr,peak_wind_gust,peak_wind_drct,peak_wind_time,feel,metar,snowdepth
RTS,2021-10-05 00:15,-119.8764,39.6682,1539.00,75.20,15.80,10.40,230.00,11.00,0.00,30.07,M,10.00,16.00,CLR,M,M,M,M,M,M,M,M,M,M,M,M,M,M,75.20,KRTS 050015Z AUTO 23011G16KT 10SM CLR 24/M09 A3007 RMK AO2,M
BVU,2021-10-05 00:15,-114.8611,35.9475,671.00,86.00,33.80,15.48,20.00,4.00,0.00,29.95,M,10.00,M,CLR,M,M,M,M,M,M,M,M,M,M,M,M,M,M,82.66,KBVU 050015Z AUTO 02004KT 10SM CLR 30/01 A2995 RMK AO2,M
BAM,2021-10-05 00:15,-116.8743,40.5990,1382.36,82.40,19.40,9.58,270.00,6.00,0.00,30.03,M,10.00,M,CLR,M,M,M,M,M,M,M,M,M,M,M,M,M,M,79.45,KBAM 050015Z AUTO 27006KT 10SM CLR 28/M07 A3003 RMK AO1,M
HTH,2021-10-05 00:15,-118.6315,38.5448,1282.89,80.60,21.20,10.97,150.00,13.00,0.00,30.01,M,10.00,M,CLR,M,M,M,M,M,M,M,M,M,M,M,M,M,M,78.68,KHTH 050015Z AUTO 15013KT 10SM CLR 27/M06 A3001 RMK A01,M
TMT,2021-10-05 00:15,-117.1971,39.4643,1749.34,73.40,23.40,15.28,220.00,15.00,0.00,30.13,M,10.00,M,CLR,M,M,M,M,M,M,M,M,M,M,M,M,M,M,73.40,KTMT 050015Z AUTO 22015KT 10SM CLR 23/M05 A3013 RMK AO2 T02301048,M
MEV,2021-10-05 00:15,-119.7500,38.9963,1441.42,75.20,23.00,14.15,290.00,9.00,0.00,30.04,M,9.00,M,CLR,M,M,M,M,M,M,M,M,M,M,M,M,M,M,75.20,KMEV 050015Z AUTO 29009KT 9SM CLR 24/M05 A3004 RMK AO2,M
CXP,2021-10-05 00:15,-119.7326,39.1923,1431.00,77.00,19.40,11.44,300.00,10.00,0.00,30.05,M,10.00,15.00,CLR,M,M,M,M,M,M,M,M,M,M,M,M,M,M,77.00,KCXP 050015Z AUTO 30010G15KT 10SM CLR 25/M07 A3005 RMK AO2,M
MEV,2021-10-05 00:35,-119.7500,38.9963,1441.42,75.20,23.00,14.15,280.00,8.00,0.00,30.04,M,10.00,13.00,CLR,M,M,M,M,M,M,M,M,M,M,M,M,M,M,75.20,KMEV 050035Z AUTO 28008G13KT 10SM CLR 24/M05 A3004 RMK AO2,M
HTH,2021-10-05 00:35,-118.6315,38.5448,1282.89,80.60,19.40,10.16,150.00,11.00,0.00,30.00,M,10.00,M,CLR,M,M,M,M,M,M,M,M,M,M,M,M,M,M,78.56,KHTH 050035Z AUTO 15011KT 10SM CLR 27/M07 A3000 RMK A01,M
CXP,2021-10-05 00:35,-119.7326,39.1923,1431.00,75.20,19.40,12.14,280.00,9.00,0.00,30.05,M,10.00,M,CLR,M,M,M,M,M,M,M,M,M,M,M,M,M,M,75.20,KCXP 050035Z AUTO 28009KT 10SM CLR 24/M07 A3005 RMK AO2,M
RTS,2021-10-05 00:35,-119.8764,39.6682,1539.00,73.40,15.80,11.05,250.00,14.00,0.00,30.07,M,10.00,M,CLR,M,M,M,M,M,M,M,M,M,M,M,M,M,M,73.40,KRTS 050035Z AUTO 25014KT 10SM CLR 23/M09 A3007 RMK AO2,M
BAM,2021-10-05 00:35,-116.8743,40.5990,1382.36,80.60,19.40,10.16,240.00,7.00,0.00,30.03,M,10.00,M,CLR,M,M,M,M,M,M,M,M,M,M,M,M,M,M,78.56,KBAM 050035Z AUTO 24007KT 10SM CLR 27/M07 A3003 RMK AO1,M
BVU,2021-10-05 00:35,-114.8611,35.9475,671.00,84.20,35.60,17.61,20.00,4.00,0.00,29.94,M,10.00,M,CLR,M,M,M,M,M,M,M,M,M,M,M,M,M,M,81.34,KBVU 050035Z AUTO 02004KT 10SM CLR 29/02 A2994 RMK AO2,M
TMT,2021-10-05 00:35,-117.1971,39.4643,1749.34,73.60,22.80,14.80,210.00,10.00,0.00,30.13,M,10.00,M,CLR,M,M,M,M,M,M,M,M,M,M,M,M,M,M,73.60,KTMT 050035Z AUTO 21010KT 10SM CLR 23/M05 A3013 RMK AO2 LTG DSNT S T02311051,M
LOL,2021-10-05 00:53,-118.5701,40.0684,1192.43,76.00,17.10,10.75,170.00,5.00,0.00,29.98,1013.40,7.00,M,CLR,M,M,M,M,M,M,M,M,M,M,M,M,M,M,75.90,KLOL 050053Z AUTO 17005KT 7SM CLR 24/M08 A2998 RMK AO2 SLP134 T02441083,M
VGT,2021-10-05 00:53,-115.1933,36.2111,667.00,87.00,34.00,15.06,110.00,3.00,0.00,29.93,1013.00,10.00,M,CLR,M,M,M,M,M,M,M,M,M,M,M,M,M,M,83.53,KVGT 050053Z 11003KT 10SM CLR 31/01 A2993 RMK AO2 SLP130 T03060011,M
ELY,2021-10-05 00:53,-114.8453,39.2950,1909.00,69.00,18.00,14.06,230.00,12.00,0.00,30.17,1015.10,10.00,M,CLR,M,M,M,M,M,M,M,M,M,M,M,M,M,M,69.10,KELY 050053Z AUTO 23012KT 10SM CLR 21/M08 A3017 RMK AO2 SLP151 T02061078,M
DRA,2021-10-05 00:53,-116.0278,36.6206,1009.00,83.00,23.00,10.98,220.00,10.00,0.00,29.99,1011.50,10.00,M,FEW,M,M,M,11000.00,M,M,M,M,M,M,M,M,M,M,80.00,KDRA 050053Z AUTO 22010KT 10SM FEW110 28/M05 A2999 RMK AO2 SLP115 T02831050,M
P68,2021-10-05 00:53,-116.0056,39.6014,1993.00,70.00,19.00,14.23,160.00,11.00,0.00,30.13,1014.50,M,M,M,M,M,M,M,M,M,M,M,M,M,M,M,M,M,70.00,KP68 050053Z AUTO 16011KT 21/M07 A3013 RMK AO1 SLP145 T02111072,M
MEV,2021-10-05 00:55,-119.7500,38.9963,1441.42,73.40,23.00,15.03,300.00,7.00,0.00,30.04,M,10.00,17.00,CLR,M,M,M,M,M,M,M,M,M,M,M,M,M,M,73.40,KMEV 050055Z AUTO 30007G17KT 10SM CLR 23/M05 A3004 RMK AO2,M
BAM,2021-10-05 00:55,-116.8743,40.5990,1382.36,78.80,19.40,10.78,270.00,6.00,0.00,30.03,M,10.00,M,CLR,M,M,M,M,M,M,M,M,M,M,M,M,M,M,78.80,KBAM 050055Z AUTO 27006KT 10SM CLR 26/M07 A3003 RMK AO1,M
RNO,2021-10-05 00:55,-119.7711,39.4839,1341.00,76.00,21.90,13.19,280.00,12.00,0.00,30.01,1012.50,10.00,20.00,SCT,M,M,M,23000.00,M,M,M,M,M,M,M,M,M,M,75.90,KRNO 050055Z 28012G20KT 10SM SCT230 24/M06 A3001 RMK AO2 SLP125 FU ALF S THRU NW T02441056,M
TMT,2021-10-05 00:55,-117.1971,39.4643,1749.34,72.00,21.70,14.86,190.00,9.00,0.00,30.13,M,10.00,16.00,CLR,M,M,M,M,M,M,M,M,M,M,M,M,M,M,72.10,KTMT 050055Z AUTO 19009G16KT 10SM CLR 22/M06 A3013 RMK AO2 T02231057,M
BVU,2021-10-05 00:55,-114.8611,35.9475,671.00,82.40,35.60,18.67,30.00,8.00,0.00,29.94,M,10.00,M,CLR,M,M,M,M,M,M,M,M,M,M,M,M,M,M,80.08,KBVU 050055Z AUTO 03008KT 10SM CLR 28/02 A2994 RMK AO2,M
HTH,2021-10-05 00:55,-118.6315,38.5448,1282.89,80.60,19.40,10.16,150.00,10.00,0.00,30.00,M,10.00,M,CLR,M,M,M,M,M,M,M,M,M,M,M,M,M,M,78.56,KHTH 050055Z AUTO 15010KT 10SM CLR 27/M07 A3000 RMK A01,M
CXP,2021-10-05 00:55,-119.7326,39.1923,1431.00,75.20,19.40,12.14,310.00,7.00,0.00,30.05,M,10.00,14.00,CLR,M,M,M,M,M,M,M,M,M,M,M,M,M,M,75.20,KCXP 050055Z AUTO 31007G14KT 10SM CLR 24/M07 A3005 RMK AO2,M
RTS,2021-10-05 00:55,-119.8764,39.6682,1539.00,71.60,15.80,11.74,250.00,13.00,0.00,30.07,M,10.00,19.00,CLR,M,M,M,M,M,M,M,M,M,M,M,M,M,M,71.60,KRTS 050055Z AUTO 25013G19KT 10SM CLR 22/M09 A3007 RMK AO2,M
NFL,2021-10-05 00:56,-118.7010,39.4166,1199.00,76.00,21.00,12.70,360.00,5.00,0.00,29.98,1012.30,5.00,M,BKN,M,M,M,7000.00,M,M,M,FU,M,M,M,M,M,M,75.90,KNFL 050056Z 36005KT 5SM FU BKN070 24/M06 A2998 RMK AO2 SLP123 FU BKN070 T02441061,M
WMC,2021-10-05 00:56,-117.8072,40.9019,1315.00,75.00,15.10,10.15,260.00,8.00,0.00,30.00,1014.00,5.00,M,CLR,M,M,M,M,M,M,M,HZ,M,M,M,M,M,M,75.00,KWMC 050056Z AUTO 26008KT 5SM HZ CLR 24/M09 A3000 RMK AO2 SLP140 T02391094,M
TPH,2021-10-05 00:56,-117.0904,38.0505,1654.00,73.00,27.00,17.99,210.00,12.00,0.00,30.11,1014.70,10.00,M,CLR,M,M,M,M,M,M,M,M,M,M,M,M,M,M,73.00,KTPH 050056Z AUTO 21012KT 10SM CLR 23/M03 A3011 RMK AO2 SLP147 T02281028,M
LAS,2021-10-05 00:56,-115.1634,36.0719,663.00,86.00,34.00,15.60,100.00,4.00,0.00,29.95,1011.90,10.00,M,FEW,BKN,M,M,15000.00,20000.00,M,M,M,M,M,M,M,M,M,82.66,KLAS 050056Z 10004KT 10SM FEW150 BKN200 30/01 A2995 RMK AO2 SLP119 T03000011,M
HND,2021-10-05 00:56,-115.1344,35.9729,742.79,84.00,37.00,18.74,40.00,3.00,0.00,29.98,1014.70,10.00,M,CLR,M,M,M,M,M,M,M,M,M,M,M,M,M,M,81.23,KHND 050056Z 04003KT 10SM CLR 29/03 A2998 RMK AO2 SLP147 T02890028,M
EKO,2021-10-05 00:56,-115.7860,40.8242,1367.00,76.00,19.90,12.12,0.00,0.00,0.00,30.06,1014.60,10.00,M,CLR,M,M,M,M,M,M,M,M,M,M,M,M,M,M,75.90,KEKO 050056Z AUTO 00000KT 10SM CLR 24/M07 A3006 RMK AO2 SLP146 T02441067,M
INS,2021-10-05 00:58,-115.6733,36.5872,955.00,81.70,29.50,14.94,120.00,12.00,0.00,29.99,1011.90,10.00,M,CLR,M,M,M,M,M,M,M,M,M,M,M,M,M,M,79.47,KINS 050058Z AUTO 12012KT 10SM CLR 28/M01 A2999 RMK AO2 SLP119 T02761014 $,M
LSV,2021-10-05 00:58,-115.0343,36.2362,570.00,86.70,35.00,15.94,0.00,0.00,0.00,29.92,1011.20,10.00,M,SCT,BKN,M,M,15000.00,20000.00,M,M,M,M,M,M,M,M,M,83.23,KLSV 050058Z 00000KT 10SM SCT150 BKN200 30/02 A2992 RMK AO2A SLP112 T03040017 $,M
CXP,2021-10-05 01:10,-119.7326,39.1923,1431.00,73.40,21.20,13.93,M,6.00,0.00,30.05,M,10.00,M,CLR,M,M,M,M,M,M,M,M,M,M,M,M,M,M,73.40,KCXP 050110Z AUTO VRB06KT 10SM CLR 23/M06 A3005 RMK AO2,M
BVU,2021-10-05 01:15,-114.8611,35.9475,671.00,82.40,35.60,18.67,30.00,7.00,0.00,29.94,M,10.00,M,CLR,M,M,M,M,M,M,M,M,M,M,M,M,M,M,80.08,KBVU 050115Z AUTO 03007KT 10SM CLR 28/02 A2994 RMK AO2,M
HTH,2021-10-05 01:15,-118.6315,38.5448,1282.89,78.80,17.60,9.98,160.00,11.00,0.00,30.00,M,10.00,M,CLR,M,M,M,M,M,M,M,M,M,M,M,M,M,M,78.80,KHTH 050115Z AUTO 16011KT 10SM CLR 26/M08 A3000 RMK A01,M
TMT,2021-10-05 01:15,-117.1971,39.4643,1749.34,69.60,21.60,16.11,220.00,7.00,0.00,30.13,M,10.00,M,CLR,M,M,M,M,M,M,M,M,M,M,M,M,M,M,69.60,KTMT 050115Z AUTO 22007KT 10SM CLR 21/M06 A3013 RMK AO2 T02091058,M
RTS,2021-10-05 01:15,-119.8764,39.6682,1539.00,71.60,17.60,12.69,250.00,16.00,0.00,30.07,M,10.00,M,CLR,M,M,M,M,M,M,M,M,M,M,M,M,M,M,71.60,KRTS 050115Z AUTO 25016KT 10SM CLR 22/M08 A3007 RMK AO2,M
BAM,2021-10-05 01:15,-116.8743,40.5990,1382.36,77.00,17.60,10.59,240.00,4.00,0.00,30.03,M,10.00,M,CLR,M,M,M,M,M,M,M,M,M,M,M,M,M,M,77.00,KBAM 050115Z AUTO 24004KT 10SM CLR 25/M08 A3003 RMK AO1,M
MEV,2021-10-05 01:15,-119.7500,38.9963,1441.42,71.60,23.00,15.97,270.00,5.00,0.00,30.05,M,10.00,M,CLR,M,M,M,M,M,M,M,M,M,M,M,M,M,M,71.60,KMEV 050115Z AUTO 27005KT 10SM CLR 22/M05 A3005 RMK AO2,M
HTH,2021-10-05 01:35,-118.6315,38.5448,1282.89,77.00,19.40,11.44,160.00,9.00,0.00,30.00,M,10.00,M,CLR,M,M,M,M,M,M,M,M,M,M,M,M,M,M,77.00,KHTH 050135Z AUTO 16009KT 10SM CLR 25/M07 A3000 RMK A01,M
CXP,2021-10-05 01:35,-119.7326,39.1923,1431.00,71.60,21.20,14.80,0.00,0.00,0.00,30.06,M,10.00,M,CLR,M,M,M,M,M,M,M,M,M,M,M,M,M,M,71.60,KCXP 050135Z AUTO 00000KT 10SM CLR 22/M06 A3006 RMK AO2,M
RTS,2021-10-05 01:35,-119.8764,39.6682,1539.00,68.00,17.60,14.35,280.00,12.00,0.00,30.08,M,10.00,M,CLR,M,M,M,M,M,M,M,M,M,M,M,M,M,M,68.00,KRTS 050135Z AUTO 28012KT 10SM CLR 20/M08 A3008 RMK AO2,M
MEV,2021-10-05 01:35,-119.7500,38.9963,1441.42,68.00,24.80,19.47,0.00,0.00,0.00,30.06,M,10.00,M,CLR,M,M,M,M,M,M,M,M,M,M,M,M,M,M,68.00,KMEV 050135Z AUTO 00000KT 10SM CLR 20/M04 A3006 RMK AO2,M
TMT,2021-10-05 01:35,-117.1971,39.4643,1749.34,65.30,22.10,19.09,220.00,5.00,0.00,30.13,M,10.00,M,CLR,M,M,M,M,M,M,M,M,M,M,M,M,M,M,65.30,KTMT 050135Z AUTO 22005KT 10SM CLR 19/M05 A3013 RMK AO2 LTG DSNT S T01851055,M
BAM,2021-10-05 01:35,-116.8743,40.5990,1382.36,75.20,17.60,11.24,0.00,0.00,0.00,30.03,M,10.00,M,CLR,M,M,M,M,M,M,M,M,M,M,M,M,M,M,75.20,KBAM 050135Z AUTO 00000KT 10SM CLR 24/M08 A3003 RMK AO1,M
BVU,2021-10-05 01:35,-114.8611,35.9475,671.00,80.60,35.60,19.79,30.00,8.00,0.00,29.94,M,10.00,M,CLR,M,M,M,M,M,M,M,M,M,M,M,M,M,M,78.94,KBVU 050135Z AUTO 03008KT 10SM CLR 27/02 A2994 RMK AO2 LTG DSNT SW,M
DRA,2021-10-05 01:53,-116.0278,36.6206,1009.00,78.00,25.00,13.97,150.00,6.00,0.00,29.99,1011.90,10.00,M,CLR,M,M,M,M,M,M,M,M,M,M,M,M,M,M,78.10,KDRA 050153Z AUTO 15006KT 10SM CLR 26/M04 A2999 RMK AO2 SLP119 T02561039,M
ELY,2021-10-05 01:53,-114.8453,39.2950,1909.00,57.00,16.00,19.73,150.00,7.00,0.00,30.19,1017.20,10.00,M,CLR,M,M,M,M,M,M,M,M,M,M,M,M,M,M,57.00,KELY 050153Z AUTO 15007KT 10SM CLR 14/M09 A3019 RMK AO2 SLP172 T01391089,M
VGT,2021-10-05 01:53,-115.1933,36.2111,667.00,84.00,34.00,16.63,0.00,0.00,0.00,29.93,1013.10,10.00,M,CLR,M,M,M,M,M,M,M,M,M,M,M,M,M,M,81.16,KVGT 050153Z 00000KT 10SM CLR 29/01 A2993 RMK AO2 SLP131 T02890011,M
P68,2021-10-05 01:53,-116.0056,39.6014,1993.00,63.00,19.00,18.14,160.00,9.00,0.00,30.14,1015.80,M,M,M,M,M,M,M,M,M,M,M,M,M,M,M,M,M,63.00,KP68 050153Z AUTO 16009KT 17/M07 A3014 RMK AO1 SLP158 T01721072,M
LOL,2021-10-05 01:53,-118.5701,40.0684,1192.43,67.00,21.00,17.24,0.00,0.00,0.00,29.99,1014.20,7.00,M,CLR,M,M,M,M,M,M,M,M,M,M,M,M,M,M,66.90,KLOL 050153Z AUTO 00000KT 7SM CLR 19/M06 A2999 RMK AO2 SLP142 T01941061,M
BAM,2021-10-05 01:55,-116.8743,40.5990,1382.36,68.00,17.60,14.35,0.00,0.00,0.00,30.03,M,10.00,M,CLR,M,M,M,M,M,M,M,M,M,M,M,M,M,M,68.00,KBAM 050155Z AUTO 00000KT 10SM CLR 20/M08 A3003 RMK AO1,M
BVU,2021-10-05 01:55,-114.8611,35.9475,671.00,80.60,35.60,19.79,20.00,7.00,0.00,29.94,M,10.00,M,CLR,M,M,M,M,M,M,M,M,M,M,M,M,M,M,78.94,KBVU 050155Z AUTO 02007KT 10SM CLR 27/02 A2994 RMK AO2 LTG DSNT SW AND W,M
CXP,2021-10-05 01:55,-119.7326,39.1923,1431.00,71.60,21.20,14.80,0.00,0.00,0.00,30.06,M,10.00,M,CLR,M,M,M,M,M,M,M,M,M,M,M,M,M,M,71.60,KCXP 050155Z AUTO 00000KT 10SM CLR 22/M06 A3006 RMK AO2,M
TMT,2021-10-05 01:55,-117.1971,39.4643,1749.34,63.30,22.10,20.47,230.00,6.00,0.00,30.13,M,10.00,M,CLR,M,M,M,M,M,M,M,M,M,M,M,M,M,M,63.30,KTMT 050155Z AUTO 23006KT 10SM CLR 17/M05 A3013 RMK AO2 LTG DSNT S T01741055,M
RNO,2021-10-05 01:55,-119.7711,39.4839,1341.00,73.00,21.90,14.54,280.00,12.00,0.00,30.03,1013.20,10.00,M,SCT,M,M,M,23000.00,M,M,M,M,M,M,M,M,M,M,73.00,KRNO 050155Z 28012KT 10SM SCT230 23/M06 A3003 RMK AO2 SLP132 FU ALF DSNT SW THRU NW T02281056,M
HTH,2021-10-05 01:55,-118.6315,38.5448,1282.89,75.20,19.40,12.14,160.00,11.00,0.00,30.01,M,10.00,M,CLR,M,M,M,M,M,M,M,M,M,M,M,M,M,M,75.20,KHTH 050155Z AUTO 16011KT 10SM CLR 24/M07 A3001 RMK A01,M
MEV,2021-10-05 01:55,-119.7500,38.9963,1441.42,66.20,23.00,19.22,90.00,6.00,0.00,30.06,M,10.00,M,CLR,M,M,M,M,M,M,M,M,M,M,M,M,M,M,66.20,KMEV 050155Z AUTO 09006KT 10SM CLR 19/M05 A3006 RMK AO2 LTG DSNT S,M
RTS,2021-10-05 01:55,-119.8764,39.6682,1539.00,68.00,17.60,14.35,290.00,10.00,0.00,30.08,M,10.00,M,CLR,M,M,M,M,M,M,M,M,M,M,M,M,M,M,68.00,KRTS 050155Z AUTO 29010KT 10SM CLR 20/M08 A3008 RMK AO2,M
EKO,2021-10-05 01:56,-115.7860,40.8242,1367.00,69.00,17.10,13.52,330.00,4.00,0.00,30.06,1015.80,5.00,M,CLR,M,M,M,M,M,M,M,HZ,M,M,M,M,M,M,69.10,KEKO 050156Z AUTO 33004KT 5SM HZ CLR 21/M08 A3006 RMK AO2 SLP158 T02061083,M
HND,2021-10-05 01:56,-115.1344,35.9729,742.79,81.00,39.00,22.33,0.00,0.00,0.00,29.98,1014.80,10.00,M,CLR,M,M,M,M,M,M,M,M,M,M,M,M,M,M,79.33,KHND 050156Z 00000KT 10SM CLR 27/04 A2998 RMK AO2 SLP148 T02720039,M
TPH,2021-10-05 01:56,-117.0904,38.0505,1654.00,70.00,28.90,21.53,210.00,11.00,0.00,30.12,1015.30,10.00,M,CLR,M,M,M,M,M,M,M,M,M,M,M,M,M,M,70.00,KTPH 050156Z AUTO 21011KT 10SM CLR 21/M02 A3012 RMK AO2 SLP153 T02111017,M
LAS,2021-10-05 01:56,-115.1634,36.0719,663.00,84.00,36.00,18.01,0.00,0.00,0.00,29.95,1012.00,10.00,M,FEW,BKN,M,M,15000.00,20000.00,M,M,M,M,M,M,M,M,M,81.20,KLAS 050156Z 00000KT 10SM FEW150 BKN200 29/02 A2995 RMK AO2 SLP120 T02890022,M
NFL,2021-10-05 01:56,-118.7010,39.4166,1199.00,67.00,21.00,17.24,60.00,7.00,0.00,29.98,1012.40,5.00,M,BKN,M,M,M,6000.00,M,M,M,FU,M,M,M,M,M,M,66.90,KNFL 050156Z 06007KT 5SM FU BKN060 19/M06 A2998 RMK AO2 SLP124 FU BKN060 T01941061,M
WMC,2021-10-05 01:56,-117.8072,40.9019,1315.00,67.00,15.10,13.37,270.00,8.00,0.00,30.01,1014.30,6.00,M,CLR,M,M,M,M,M,M,M,HZ,M,M,M,M,M,M,66.90,KWMC 050156Z AUTO 27008KT 6SM HZ CLR 19/M09 A3001 RMK AO2 SLP143 T01941094,M
INS,2021-10-05 01:58,-115.6733,36.5872,955.00,78.30,29.80,16.91,130.00,9.00,0.00,29.99,1012.10,10.00,M,CLR,M,M,M,M,M,M,M,M,M,M,M,M,M,M,78.30,KINS 050158Z AUTO 13009KT 10SM CLR 26/M01 A2999 RMK AO2 SLP121 T02571012 $,M
LSV,2021-10-05 01:58,-115.0343,36.2362,570.00,82.40,30.20,15.03,40.00,6.00,0.00,29.94,M,10.00,M,SCT,BKN,M,M,15000.00,20000.00,M,M,M,M,M,M,M,M,M,79.97,KLSV 050158Z 04006KT 10SM SCT150 BKN200 28/M01 A2994 RMK AO2A SLPNO RVRNO PA+1855 DA+3699 $,M
CXP,2021-10-05 02:15,-119.7326,39.1923,1431.00,64.40,21.20,18.96,100.00,6.00,0.00,30.07,M,10.00,M,CLR,M,M,M,M,M,M,M,M,M,M,M,M,M,M,64.40,KCXP 050215Z AUTO 10006KT 10SM CLR 18/M06 A3007 RMK AO2 LTG DSNT S,M
MEV,2021-10-05 02:15,-119.7500,38.9963,1441.42,69.80,23.00,16.98,0.00,0.00,0.00,30.06,M,10.00,M,BKN,M,M,M,12000.00,M,M,M,M,M,M,M,M,M,M,69.80,KMEV 050215Z AUTO 00000KT 10SM BKN120 21/M05 A3006 RMK AO2 LTG DSNT S,M
RTS,2021-10-05 02:15,-119.8764,39.6682,1539.00,66.20,17.60,15.27,290.00,7.00,0.00,30.09,M,10.00,M,CLR,M,M,M,M,M,M,M,M,M,M,M,M,M,M,66.20,KRTS 050215Z AUTO 29007KT 10SM CLR 19/M08 A3009 RMK AO2,M
BVU,2021-10-05 02:15,-114.8611,35.9475,671.00,78.80,35.60,21.00,10.00,7.00,0.00,29.94,M,10.00,M,CLR,M,M,M,M,M,M,M,M,M,M,M,M,M,M,78.80,KBVU 050215Z AUTO 01007KT 10SM CLR 26/02 A2994 RMK AO2 LTG DSNT W,M
BAM,2021-10-05 02:15,-116.8743,40.5990,1382.36,64.40,15.80,15.04,190.00,5.00,0.00,30.04,M,10.00,M,CLR,M,M,M,M,M,M,M,M,M,M,M,M,M,M,64.40,KBAM 050215Z AUTO 19005KT 10SM CLR 18/M09 A3004 RMK AO1,M
HTH,2021-10-05 02:15,-118.6315,38.5448,1282.89,73.40,19.40,12.90,180.00,9.00,0.00,30.01,M,10.00,M,CLR,M,M,M,M,M,M,M,M,M,M,M,M,M,M,73.40,KHTH 050215Z AUTO 18009KT 10SM CLR 23/M07 A3001 RMK A01,M
TMT,2021-10-05 02:15,-117.1971,39.4643,1749.34,60.00,21.40,22.26,230.00,8.00,0.00,30.14,M,10.00,M,CLR,M,M,M,M,M,M,M,M,M,M,M,M,M,M,60.10,KTMT 050215Z AUTO 23008KT 10SM CLR 16/M06 A3014 RMK AO2 LTG DSNT SW T01561059,M
HTH,2021-10-05 02:35,-118.6315,38.5448,1282.89,73.40,19.40,12.90,200.00,7.00,0.00,30.01,M,10.00,M,FEW,SCT,M,M,5500.00,6500.00,M,M,M,M,M,M,M,M,M,73.40,KHTH 050235Z AUTO 20007KT 10SM FEW055 SCT065 23/M07 A3001 RMK A01,M
CXP,2021-10-05 02:35,-119.7326,39.1923,1431.00,69.80,21.20,15.73,120.00,5.00,0.00,30.07,M,10.00,M,CLR,M,M,M,M,M,M,M,M,M,M,M,M,M,M,69.80,KCXP 050235Z AUTO 12005KT 10SM CLR 21/M06 A3007 RMK AO2,M
BVU,2021-10-05 02:35,-114.8611,35.9475,671.00,78.80,33.80,19.55,20.00,7.00,0.00,29.94,M,10.00,M,CLR,M,M,M,M,M,M,M,M,M,M,M,M,M,M,78.80,KBVU 050235Z AUTO 02007KT 10SM CLR 26/01 A2994 RMK AO2,M
RTS,2021-10-05 02:35,-119.8764,39.6682,1539.00,64.40,17.60,16.26,300.00,8.00,0.00,30.09,M,10.00,M,CLR,M,M,M,M,M,M,M,M,M,M,M,M,M,M,64.40,KRTS 050235Z AUTO 30008KT 10SM CLR 18/M08 A3009 RMK AO2,M
BAM,2021-10-05 02:35,-116.8743,40.5990,1382.36,69.80,17.60,13.49,0.00,0.00,0.00,30.04,M,10.00,M,CLR,M,M,M,M,M,M,M,M,M,M,M,M,M,M,69.80,KBAM 050235Z AUTO 00000KT 10SM CLR 21/M08 A3004 RMK AO1,M
TMT,2021-10-05 02:35,-117.1971,39.4643,1749.34,57.60,20.30,23.23,220.00,8.00,0.00,30.14,M,10.00,M,CLR,M,M,M,M,M,M,M,M,M,M,M,M,M,M,57.60,KTMT 050235Z AUTO 22008KT 10SM CLR 14/M06 A3014 RMK AO2 T01421065,M
MEV,2021-10-05 02:35,-119.7500,38.9963,1441.42,69.80,23.00,16.98,200.00,6.00,0.00,30.07,M,10.00,M,BKN,M,M,M,12000.00,M,M,M,M,M,M,M,M,M,M,69.80,KMEV 050235Z AUTO 20006KT 10SM BKN120 21/M05 A3007 RMK AO2,M
VGT,2021-10-05 02:53,-115.1933,36.2111,667.00,81.00,37.00,20.65,320.00,5.00,0.00,29.93,1013.10,10.00,M,CLR,M,M,M,M,M,M,M,M,M,M,M,M,M,M,79.24,KVGT 050253Z 32005KT 10SM CLR 27/03 A2993 RMK AO2 SLP131 T02720028 56002,M
P68,2021-10-05 02:53,-116.0056,39.6014,1993.00,57.00,19.00,22.46,0.00,0.00,0.00,30.15,1016.20,M,M,M,M,M,M,M,M,M,M,M,M,M,M,M,M,M,57.00,KP68 050253Z AUTO 00000KT 14/M07 A3015 RMK AO1 SLP162 T01391072 53004,M
DRA,2021-10-05 02:53,-116.0278,36.6206,1009.00,75.00,27.00,16.82,0.00,0.00,0.00,30.00,1012.00,10.00,M,CLR,M,M,M,M,M,M,M,M,M,M,M,M,M,M,75.00,KDRA 050253Z AUTO 00000KT 10SM CLR 24/M03 A3000 RMK AO2 SLP120 T02391028 53002,M
ELY,2021-10-05 02:53,-114.8453,39.2950,1909.00,52.00,16.00,23.68,180.00,9.00,0.00,30.20,1017.60,10.00,M,CLR,M,M,M,M,M,M,M,M,M,M,M,M,M,M,52.00,KELY 050253Z AUTO 18009KT 10SM CLR 11/M09 A3020 RMK AO2 SLP176 T01111089 53004,M
LOL,2021-10-05 02:53,-118.5701,40.0684,1192.43,56.00,16.00,20.53,90.00,3.00,0.00,29.99,1014.90,7.00,M,CLR,M,M,M,M,M,M,M,M,M,M,M,M,M,M,55.90,KLOL 050253Z AUTO 09003KT 7SM CLR 13/M09 A2999 RMK AO2 SLP149 T01331089 53000,M
HTH,2021-10-05 02:55,-118.6315,38.5448,1282.89,71.60,19.40,13.71,200.00,5.00,0.00,30.02,M,10.00,M,FEW,BKN,M,M,6500.00,8500.00,M,M,M,M,M,M,M,M,M,71.60,KHTH 050255Z AUTO 20005KT 10SM FEW065 BKN085 22/M07 A3002 RMK A01,M
CXP,2021-10-05 02:55,-119.7326,39.1923,1431.00,69.80,19.40,14.57,250.00,6.00,0.00,30.08,M,10.00,M,CLR,M,M,M,M,M,M,M,M,M,M,M,M,M,M,69.80,KCXP 050255Z AUTO 25006KT 10SM CLR 21/M07 A3008 RMK AO2,M
RTS,2021-10-05 02:55,-119.8764,39.6682,1539.00,62.60,17.60,17.32,310.00,4.00,0.00,30.10,M,10.00,M,CLR,M,M,M,M,M,M,M,M,M,M,M,M,M,M,62.60,KRTS 050255Z AUTO 31004KT 10SM CLR 17/M08 A3010 RMK AO2,M
TMT,2021-10-05 02:55,-117.1971,39.4643,1749.34,56.80,20.30,23.91,210.00,7.00,0.00,30.14,M,10.00,M,CLR,M,M,M,M,M,M,M,M,M,M,M,M,M,M,56.80,KTMT 050255Z AUTO 21007KT 10SM CLR 14/M06 A3014 RMK AO2 T01381065,M
BAM,2021-10-05 02:55,-116.8743,40.5990,1382.36,68.00,15.80,13.27,100.00,3.00,0.00,30.05,M,10.00,M,CLR,M,M,M,M,M,M,M,M,M,M,M,M,M,M,68.00,KBAM 050255Z AUTO 10003KT 10SM CLR 20/M09 A3005 RMK AO1,M
BVU,2021-10-05 02:55,-114.8611,35.9475,671.00,78.80,35.60,21.00,30.00,6.00,0.00,29.94,M,10.00,M,CLR,M,M,M,M,M,M,M,M,M,M,M,M,M,M,78.80,KBVU 050255Z AUTO 03006KT 10SM CLR 26/02 A2994 RMK AO2,M
MEV,2021-10-05 02:55,-119.7500,38.9963,1441.42,68.00,24.80,19.47,240.00,6.00,0.00,30.07,M,10.00,M,OVC,M,M,M,12000.00,M,M,M,M,M,M,M,M,M,M,68.00,KMEV 050255Z AUTO 24006KT 10SM OVC120 20/M04 A3007 RMK AO2,M
RNO,2021-10-05 02:55,-119.7711,39.4839,1341.00,71.00,21.90,15.51,270.00,9.00,0.00,30.04,1013.80,10.00,15.00,FEW,M,M,M,23000.00,M,M,M,M,M,M,M,M,M,M,71.10,KRNO 050255Z 27009G15KT 10SM FEW230 22/M06 A3004 RMK AO2 SLP138 FU ALF ALQDS T02171056 53009,M
TPH,2021-10-05 02:56,-117.0904,38.0505,1654.00,67.00,28.90,23.95,190.00,8.00,0.00,30.13,1015.50,10.00,M,CLR,M,M,M,M,M,M,M,M,M,M,M,M,M,M,66.90,KTPH 050256Z AUTO 19008KT 10SM CLR 19/M02 A3013 RMK AO2 SLP155 T01941017 53004,M
WMC,2021-10-05 02:56,-117.8072,40.9019,1315.00,62.00,15.10,15.82,120.00,4.00,0.00,30.02,1014.60,7.00,M,CLR,M,M,M,M,M,M,M,M,M,M,M,M,M,M,62.10,KWMC 050256Z AUTO 12004KT 7SM CLR 17/M09 A3002 RMK AO2 SLP146 T01671094 53004,M
LAS,2021-10-05 02:56,-115.1634,36.0719,663.00,82.00,36.00,19.21,0.00,0.00,0.00,29.94,1011.90,10.00,M,BKN,M,M,M,20000.00,M,M,M,M,M,M,M,M,M,M,79.83,KLAS 050256Z 00000KT 10SM BKN200 28/02 A2994 RMK AO2 SLP119 T02780022 56003,M
HND,2021-10-05 02:56,-115.1344,35.9729,742.79,77.00,38.00,24.40,190.00,6.00,0.00,29.98,1014.90,10.00,M,CLR,M,M,M,M,M,M,M,M,M,M,M,M,M,M,77.00,KHND 050256Z 19006KT 10SM CLR 25/03 A2998 RMK AO2 SLP149 T02500033 55001,M
NFL,2021-10-05 02:56,-118.7010,39.4166,1199.00,65.00,18.00,16.25,70.00,7.00,0.00,29.99,1012.70,6.00,M,BKN,M,M,M,6000.00,M,M,M,FU,M,M,M,M,M,M,64.90,KNFL 050256Z 07007KT 6SM FU BKN060 18/M08 A2999 RMK AO2 SLP127 FU BKN060 T01831078 53002,M
EKO,2021-10-05 02:56,-115.7860,40.8242,1367.00,60.00,19.90,20.88,M,M,0.00,30.08,1016.60,10.00,M,CLR,M,M,M,M,M,M,M,M,M,M,M,M,M,M,60.10,KEKO 050256Z AUTO 10SM CLR 16/M07 A3008 RMK AO2 SLP166 T01561067 53005,M
LSV,2021-10-05 02:58,-115.0343,36.2362,570.00,77.00,28.40,16.67,10.00,3.00,0.00,29.93,M,10.00,M,SCT,M,M,M,23000.00,M,M,M,M,M,M,M,M,M,M,77.00,KLSV 050258Z 01003KT 10SM SCT230 25/M02 A2993 RMK AO2A SLPNO RVRNO $,M
INS,2021-10-05 02:58,-115.6733,36.5872,955.00,75.60,31.60,19.89,120.00,6.00,0.00,30.00,1012.50,10.00,M,CLR,M,M,M,M,M,M,M,M,M,M,M,M,M,M,75.60,KINS 050258Z AUTO 12006KT 10SM CLR 24/M00 A3000 RMK AO2 SLP125 T02421002 53003 $,M
HTH,2021-10-05 03:15,-118.6315,38.5448,1282.89,68.00,19.40,15.50,150.00,9.00,0.00,30.03,M,10.00,M,OVC,M,M,M,8000.00,M,M,M,M,M,M,M,M,M,M,68.00,KHTH 050315Z AUTO 15009KT 10SM OVC080 20/M07 A3003 RMK A01,M
MEV,2021-10-05 03:15,-119.7500,38.9963,1441.42,66.20,24.80,20.72,250.00,5.00,0.00,30.08,M,10.00,M,OVC,M,M,M,12000.00,M,M,M,M,M,M,M,M,M,M,66.20,KMEV 050315Z AUTO 25005KT 10SM OVC120 19/M04 A3008 RMK AO2,M
TMT,2021-10-05 03:15,-117.1971,39.4643,1749.34,57.70,21.40,24.25,250.00,7.00,0.00,30.14,M,10.00,M,CLR,M,M,M,M,M,M,M,M,M,M,M,M,M,M,57.70,KTMT 050315Z AUTO 25007KT 10SM CLR 14/M06 A3014 RMK AO2 LTG DSNT SW T01431059,M
BVU,2021-10-05 03:15,-114.8611,35.9475,671.00,77.00,35.60,22.28,10.00,5.00,0.00,29.95,M,10.00,M,CLR,M,M,M,M,M,M,M,M,M,M,M,M,M,M,77.00,KBVU 050315Z AUTO 01005KT 10SM CLR 25/02 A2995 RMK AO2 LTG DSNT SW AND W,M
CXP,2021-10-05 03:15,-119.7326,39.1923,1431.00,69.80,21.20,15.73,0.00,0.00,0.00,30.08,M,10.00,M,FEW,M,M,M,11000.00,M,M,M,M,M,M,M,M,M,M,69.80,KCXP 050315Z AUTO 00000KT 10SM FEW110 21/M06 A3008 RMK AO2,M
RTS,2021-10-05 03:15,-119.8764,39.6682,1539.00,60.80,17.60,18.46,350.00,3.00,0.00,30.10,M,10.00,M,CLR,M,M,M,M,M,M,M,M,M,M,M,M,M,M,60.80,KRTS 050315Z AUTO 35003KT 10SM CLR 16/M08 A3010 RMK AO2,M
BAM,2021-10-05 03:15,-116.8743,40.5990,1382.36,60.80,14.00,15.78,150.00,5.00,0.00,30.05,M,10.00,M,CLR,M,M,M,M,M,M,M,M,M,M,M,M,M,M,60.80,KBAM 050315Z AUTO 15005KT 10SM CLR 16/M10 A3005 RMK AO1,M
BVU,2021-10-05 03:35,-114.8611,35.9475,671.00,77.00,35.60,22.28,10.00,6.00,0.00,29.95,M,10.00,M,CLR,M,M,M,M,M,M,M,M,M,M,M,M,M,M,77.00,KBVU 050335Z AUTO 01006KT 10SM CLR 25/02 A2995 RMK AO2,M
CXP,2021-10-05 03:35,-119.7326,39.1923,1431.00,64.40,23.00,20.46,0.00,0.00,0.00,30.08,M,10.00,M,FEW,M,M,M,11000.00,M,M,M,M,M,M,M,M,M,M,64.40,KCXP 050335Z AUTO 00000KT 10SM FEW110 18/M05 A3008 RMK AO2,M
HTH,2021-10-05 03:35,-118.6315,38.5448,1282.89,66.20,19.40,16.50,140.00,6.00,0.00,30.03,M,10.00,M,OVC,M,M,M,8000.00,M,M,M,M,M,M,M,M,M,M,66.20,KHTH 050335Z AUTO 14006KT 10SM OVC080 19/M07 A3003 RMK A01,M
TMT,2021-10-05 03:35,-117.1971,39.4643,1749.34,56.00,20.70,24.94,160.00,3.00,0.00,30.15,M,10.00,M,CLR,M,M,M,M,M,M,M,M,M,M,M,M,M,M,56.10,KTMT 050335Z AUTO 16003KT 10SM CLR 13/M06 A3015 RMK AO2 T01341063,M
BAM,2021-10-05 03:35,-116.8743,40.5990,1382.36,60.80,14.00,15.78,160.00,4.00,0.00,30.05,M,10.00,M,CLR,M,M,M,M,M,M,M,M,M,M,M,M,M,M,60.80,KBAM 050335Z AUTO 16004KT 10SM CLR 16/M10 A3005 RMK AO1,M
MEV,2021-10-05 03:35,-119.7500,38.9963,1441.42,64.40,24.80,22.06,M,6.00,0.00,30.08,M,10.00,M,OVC,M,M,M,12000.00,M,M,M,M,M,M,M,M,M,M,64.40,KMEV 050335Z AUTO VRB06KT 10SM OVC120 18/M04 A3008 RMK AO2,M
RTS,2021-10-05 03:35,-119.8764,39.6682,1539.00,62.60,17.60,17.32,M,3.00,0.00,30.11,M,10.00,M,CLR,M,M,M,M,M,M,M,M,M,M,M,M,M,M,62.60,KRTS 050335Z AUTO VRB03KT 10SM CLR 17/M08 A3011 RMK AO2,M
P68,2021-10-05 03:53,-116.0056,39.6014,1993.00,57.00,17.10,20.69,170.00,5.00,0.00,30.16,1015.10,M,M,M,M,M,M,M,M,M,M,M,M,M,M,M,M,M,57.00,KP68 050353Z AUTO 17005KT 14/M08 A3016 RMK AO1 SLP151 T01391083,M
VGT,2021-10-05 03:53,-115.1933,36.2111,667.00,80.00,40.00,23.82,260.00,5.00,0.00,29.93,1013.20,10.00,M,CLR,M,M,M,M,M,M,M,M,M,M,M,M,M,M,78.93,KVGT 050353Z 26005KT 10SM CLR 27/04 A2993 RMK AO2 SLP132 T02670044,M
LOL,2021-10-05 03:53,-118.5701,40.0684,1192.43,56.00,18.00,22.39,30.00,5.00,0.00,30.01,1014.60,7.00,M,CLR,M,M,M,M,M,M,M,M,M,M,M,M,M,M,55.90,KLOL 050353Z AUTO 03005KT 7SM CLR 13/M08 A3001 RMK AO2 SLP146 T01331078,M
ELY,2021-10-05 03:53,-114.8453,39.2950,1909.00,55.00,18.00,23.13,200.00,9.00,0.00,30.21,1015.80,10.00,M,CLR,M,M,M,M,M,M,M,M,M,M,M,M,M,M,55.00,KELY 050353Z AUTO 20009KT 10SM CLR 13/M08 A3021 RMK AO2 SLP158 T01281078,M
DRA,2021-10-05 03:53,-116.0278,36.6206,1009.00,70.00,27.00,19.92,100.00,4.00,0.00,30.01,1012.30,10.00,M,CLR,M,M,M,M,M,M,M,M,M,M,M,M,M,M,70.00,KDRA 050353Z AUTO 10004KT 10SM CLR 21/M03 A3001 RMK AO2 SLP123 T02111028,M
BVU,2021-10-05 03:55,-114.8611,35.9475,671.00,77.00,37.40,23.93,30.00,8.00,0.00,29.95,M,10.00,M,CLR,M,M,M,M,M,M,M,M,M,M,M,M,M,M,77.00,KBVU 050355Z AUTO 03008KT 10SM CLR 25/03 A2995 RMK AO2 LTG DSNT SW,M
CXP,2021-10-05 03:55,-119.7326,39.1923,1431.00,64.40,23.00,20.46,0.00,0.00,0.00,30.09,M,10.00,M,CLR,M,M,M,M,M,M,M,M,M,M,M,M,M,M,64.40,KCXP 050355Z AUTO 00000KT 10SM CLR 18/M05 A3009 RMK AO2,M
RNO,2021-10-05 03:55,-119.7711,39.4839,1341.00,68.00,23.00,18.06,120.00,3.00,0.00,30.06,1014.30,10.00,M,FEW,M,M,M,23000.00,M,M,M,M,M,M,M,M,M,M,68.00,KRNO 050355Z 12003KT 10SM FEW230 20/M05 A3006 RMK AO2 SLP143 FU ALF ALQDS T02001050,M
RTS,2021-10-05 03:55,-119.8764,39.6682,1539.00,62.60,17.60,17.32,M,4.00,0.00,30.11,M,10.00,M,CLR,M,M,M,M,M,M,M,M,M,M,M,M,M,M,62.60,KRTS 050355Z AUTO VRB04KT 10SM CLR 17/M08 A3011 RMK AO2,M
MEV,2021-10-05 03:55,-119.7500,38.9963,1441.42,51.80,21.20,29.82,110.00,7.00,0.00,30.08,M,10.00,M,OVC,M,M,M,12000.00,M,M,M,M,M,M,M,M,M,M,51.80,KMEV 050355Z AUTO 11007KT 10SM OVC120 11/M06 A3008 RMK AO2,M
TMT,2021-10-05 03:55,-117.1971,39.4643,1749.34,49.50,18.10,28.45,160.00,4.00,0.00,30.15,M,10.00,M,CLR,M,M,M,M,M,M,M,M,M,M,M,M,M,M,47.86,KTMT 050355Z AUTO 16004KT 10SM CLR 10/M08 A3015 RMK AO2 LTG DSNT SW T00971077,M
BAM,2021-10-05 03:55,-116.8743,40.5990,1382.36,60.80,14.00,15.78,160.00,5.00,0.00,30.06,M,10.00,M,CLR,M,M,M,M,M,M,M,M,M,M,M,M,M,M,60.80,KBAM 050355Z AUTO 16005KT 10SM CLR 16/M10 A3006 RMK AO1,M
HTH,2021-10-05 03:55,-118.6315,38.5448,1282.89,66.20,19.40,16.50,150.00,10.00,0.00,30.03,M,10.00,M,BKN,BKN,M,M,8000.00,9000.00,M,M,M,M,M,M,M,M,M,66.20,KHTH 050355Z AUTO 15010KT 10SM BKN080 BKN090 19/M07 A3003 RMK A01,M
NFL,2021-10-05 03:56,-118.7010,39.4166,1199.00,64.00,21.00,19.07,270.00,7.00,0.00,30.01,1013.20,6.00,M,BKN,M,M,M,6000.00,M,M,M,FU,M,M,M,M,M,M,64.00,KNFL 050356Z 27007KT 6SM FU BKN060 18/M06 A3001 RMK AO2 SLP132 FU BKN060 T01781061,M
LAS,2021-10-05 03:56,-115.1634,36.0719,663.00,80.00,37.00,21.27,240.00,3.00,0.00,29.95,1012.10,10.00,M,BKN,M,M,M,20000.00,M,M,M,M,M,M,M,M,M,M,78.81,KLAS 050356Z 24003KT 10SM BKN200 27/03 A2995 RMK AO2 SLP121 T02670028,M
EKO,2021-10-05 03:56,-115.7860,40.8242,1367.00,60.00,16.00,17.66,M,3.00,0.00,30.09,1016.70,10.00,M,CLR,M,M,M,M,M,M,M,M,M,M,M,M,M,M,60.10,KEKO 050356Z AUTO VRB03KT 10SM CLR 16/M09 A3009 RMK AO2 SLP167 T01561089,M
HND,2021-10-05 03:56,-115.1344,35.9729,742.79,74.00,38.00,27.06,160.00,4.00,0.00,29.99,1014.90,10.00,M,CLR,M,M,M,M,M,M,M,M,M,M,M,M,M,M,73.90,KHND 050356Z AUTO 16004KT 10SM CLR 23/03 A2999 RMK AO2 SLP149 T02330033,M
WMC,2021-10-05 03:56,-117.8072,40.9019,1315.00,55.00,15.10,20.40,M,3.00,0.00,30.03,1014.60,7.00,M,CLR,M,M,M,M,M,M,M,M,M,M,M,M,M,M,55.00,KWMC 050356Z AUTO VRB03KT 7SM CLR 13/M09 A3003 RMK AO2 SLP146 T01281094,M
TPH,2021-10-05 03:56,-117.0904,38.0505,1654.00,64.00,28.00,25.54,0.00,0.00,0.00,30.14,1015.40,10.00,M,CLR,M,M,M,M,M,M,M,M,M,M,M,M,M,M,64.00,KTPH 050356Z AUTO 00000KT 10SM CLR 18/M02 A3014 RMK AO2 SLP154 T01781022,M
LSV,2021-10-05 03:58,-115.0343,36.2362,570.00,77.00,28.40,16.67,40.00,2.00,0.00,29.93,M,10.00,M,BKN,M,M,M,22000.00,M,M,M,M,M,M,M,M,M,M,77.00,KLSV 050358Z 04002KT 10SM BKN220 25/M02 A2993 RMK AO2A SLPNO RVRNO $,M
INS,2021-10-05 03:58,-115.6733,36.5872,955.00,71.40,29.50,21.04,280.00,4.00,0.00,30.01,1012.60,10.00,M,CLR,M,M,M,M,M,M,M,M,M,M,M,M,M,M,71.40,KINS 050358Z AUTO 28004KT 10SM CLR 22/M01 A3001 RMK AO2 SLP126 T02191014 $,M
MEV,2021-10-05 04:15,-119.7500,38.9963,1441.42,51.80,23.00,32.17,110.00,8.00,0.00,30.08,M,10.00,M,OVC,M,M,M,12000.00,M,M,M,M,M,M,M,M,M,M,51.80,KMEV 050415Z AUTO 11008KT 10SM OVC120 11/M05 A3008 RMK AO2,M
CXP,2021-10-05 04:15,-119.7326,39.1923,1431.00,60.80,23.00,23.23,0.00,0.00,0.00,30.09,M,10.00,M,FEW,M,M,M,12000.00,M,M,M,M,M,M,M,M,M,M,60.80,KCXP 050415Z AUTO 00000KT 10SM FEW120 16/M05 A3009 RMK AO2,M
RTS,2021-10-05 04:15,-119.8764,39.6682,1539.00,62.60,17.60,17.32,250.00,5.00,0.00,30.10,M,10.00,M,CLR,M,M,M,M,M,M,M,M,M,M,M,M,M,M,62.60,KRTS 050415Z AUTO 25005KT 10SM CLR 17/M08 A3010 RMK AO2,M
BVU,2021-10-05 04:15,-114.8611,35.9475,671.00,77.00,35.60,22.28,30.00,7.00,0.00,29.95,M,10.00,M,CLR,M,M,M,M,M,M,M,M,M,M,M,M,M,M,77.00,KBVU 050415Z AUTO 03007KT 10SM CLR 25/02 A2995 RMK AO2 LTG DSNT SW,M
BAM,2021-10-05 04:15,-116.8743,40.5990,1382.36,59.00,14.00,16.83,200.00,4.00,0.00,30.07,M,10.00,M,CLR,M,M,M,M,M,M,M,M,M,M,M,M,M,M,59.00,KBAM 050415Z AUTO 20004KT 10SM CLR 15/M10 A3007 RMK AO1,M
HTH,2021-10-05 04:15,-118.6315,38.5448,1282.89,68.00,21.20,16.74,140.00,6.00,0.00,30.04,M,10.00,M,SCT,M,M,M,8000.00,M,M,M,M,M,M,M,M,M,M,68.00,KHTH 050415Z AUTO 14006KT 10SM SCT080 20/M06 A3004 RMK A01,M
TMT,2021-10-05 04:15,-117.1971,39.4643,1749.34,48.20,18.30,30.12,180.00,5.00,0.00,30.15,M,10.00,M,CLR,M,M,M,M,M,M,M,M,M,M,M,M,M,M,45.63,KTMT 050415Z AUTO 18005KT 10SM CLR 09/M08 A3015 RMK AO2 T00901076,M
CXP,2021-10-05 04:35,-119.7326,39.1923,1431.00,60.80,21.20,21.53,0.00,0.00,0.00,30.09,M,10.00,M,FEW,M,M,M,12000.00,M,M,M,M,M,M,M,M,M,M,60.80,KCXP 050435Z AUTO 00000KT 10SM FEW120 16/M06 A3009 RMK AO2,M
BVU,2021-10-05 04:35,-114.8611,35.9475,671.00,77.00,37.40,23.93,30.00,8.00,0.00,29.95,M,10.00,M,CLR,M,M,M,M,M,M,M,M,M,M,M,M,M,M,77.00,KBVU 050435Z AUTO 03008KT 10SM CLR 25/03 A2995 RMK AO2,M
HTH,2021-10-05 04:35,-118.6315,38.5448,1282.89,68.00,21.20,16.74,150.00,7.00,0.00,30.04,M,10.00,M,FEW,M,M,M,8500.00,M,M,M,M,M,M,M,M,M,M,68.00,KHTH 050435Z AUTO 15007KT 10SM FEW085 20/M06 A3004 RMK A01,M
BAM,2021-10-05 04:35,-116.8743,40.5990,1382.36,57.20,14.00,17.95,210.00,3.00,0.00,30.07,M,10.00,M,CLR,M,M,M,M,M,M,M,M,M,M,M,M,M,M,57.20,KBAM 050435Z AUTO 21003KT 10SM CLR 14/M10 A3007 RMK AO1,M
TMT,2021-10-05 04:35,-117.1971,39.4643,1749.34,49.30,18.00,28.54,0.00,0.00,0.00,30.15,M,10.00,M,CLR,M,M,M,M,M,M,M,M,M,M,M,M,M,M,49.30,KTMT 050435Z AUTO 00000KT 10SM CLR 10/M08 A3015 RMK AO2 LTG DSNT S T00961078,M
MEV,2021-10-05 04:35,-119.7500,38.9963,1441.42,53.60,24.80,32.46,120.00,10.00,0.00,30.08,M,10.00,M,OVC,M,M,M,12000.00,M,M,M,M,M,M,M,M,M,M,53.60,KMEV 050435Z AUTO 12010KT 10SM OVC120 12/M04 A3008 RMK AO2,M
RTS,2021-10-05 04:35,-119.8764,39.6682,1539.00,62.60,17.60,17.32,270.00,4.00,0.00,30.10,M,10.00,M,CLR,M,M,M,M,M,M,M,M,M,M,M,M,M,M,62.60,KRTS 050435Z AUTO 27004KT 10SM CLR 17/M08 A3010 RMK AO2,M
DRA,2021-10-05 04:53,-116.0278,36.6206,1009.00,65.00,27.00,23.75,0.00,0.00,0.00,30.02,1012.30,10.00,M,CLR,M,M,M,M,M,M,M,M,M,M,M,M,M,M,64.90,KDRA 050453Z AUTO 00000KT 10SM CLR 18/M03 A3002 RMK AO2 SLP123 T01831028,M
ELY,2021-10-05 04:53,-114.8453,39.2950,1909.00,53.00,21.00,28.18,200.00,11.00,0.00,30.22,1015.20,10.00,M,CLR,M,M,M,M,M,M,M,M,M,M,M,M,M,M,53.10,KELY 050453Z AUTO 20011KT 10SM CLR 12/M06 A3022 RMK AO2 SLP152 T01171061,M
LOL,2021-10-05 04:53,-118.5701,40.0684,1192.43,55.00,14.00,19.44,M,4.00,0.00,30.01,1014.40,7.00,M,CLR,M,M,M,M,M,M,M,M,M,M,M,M,M,M,55.00,KLOL 050453Z AUTO VRB04KT 7SM CLR 13/M10 A3001 RMK AO2 SLP144 T01281100,M
VGT,2021-10-05 04:53,-115.1933,36.2111,667.00,79.00,40.00,24.70,270.00,4.00,0.00,29.94,1013.20,10.00,M,CLR,M,M,M,M,M,M,M,M,M,M,M,M,M,M,79.00,KVGT 050453Z AUTO 27004KT 10SM CLR 26/04 A2994 RMK AO2 SLP132 T02610044,M
P68,2021-10-05 04:53,-116.0056,39.6014,1993.00,52.00,19.00,26.95,160.00,6.00,0.00,30.16,1014.90,M,M,M,M,M,M,M,M,M,M,M,M,M,M,M,M,M,52.00,KP68 050453Z AUTO 16006KT 11/M07 A3016 RMK AO1 SLP149 T01111072,M
CXP,2021-10-05 04:55,-119.7326,39.1923,1431.00,59.00,21.20,22.95,0.00,0.00,0.00,30.09,M,10.00,M,CLR,M,M,M,M,M,M,M,M,M,M,M,M,M,M,59.00,KCXP 050455Z AUTO 00000KT 10SM CLR 15/M06 A3009 RMK AO2,M
MEV,2021-10-05 04:55,-119.7500,38.9963,1441.42,55.40,23.00,28.20,100.00,8.00,0.00,30.08,M,10.00,M,OVC,M,M,M,12000.00,M,M,M,M,M,M,M,M,M,M,55.40,KMEV 050455Z AUTO 10008KT 10SM OVC120 13/M05 A3008 RMK AO2,M
BAM,2021-10-05 04:55,-116.8743,40.5990,1382.36,55.40,12.20,17.70,140.00,4.00,0.00,30.07,M,10.00,M,CLR,M,M,M,M,M,M,M,M,M,M,M,M,M,M,55.40,KBAM 050455Z AUTO 14004KT 10SM CLR 13/M11 A3007 RMK AO1,M
HTH,2021-10-05 04:55,-118.6315,38.5448,1282.89,66.20,23.00,19.22,160.00,9.00,0.00,30.04,M,10.00,M,CLR,M,M,M,M,M,M,M,M,M,M,M,M,M,M,66.20,KHTH 050455Z AUTO 16009KT 10SM CLR 19/M05 A3004 RMK A01,M
TMT,2021-10-05 04:55,-117.1971,39.4643,1749.34,46.60,19.00,32.96,0.00,0.00,0.00,30.16,M,10.00,M,CLR,M,M,M,M,M,M,M,M,M,M,M,M,M,M,46.60,KTMT 050455Z AUTO 00000KT 10SM CLR 08/M07 A3016 RMK AO2 T00811072,M
BVU,2021-10-05 04:55,-114.8611,35.9475,671.00,77.00,37.40,23.93,30.00,8.00,0.00,29.96,M,10.00,M,CLR,M,M,M,M,M,M,M,M,M,M,M,M,M,M,77.00,KBVU 050455Z AUTO 03008KT 10SM CLR 25/03 A2996 RMK AO2,M
RNO,2021-10-05 04:55,-119.7711,39.4839,1341.00,62.00,24.10,23.23,170.00,4.00,0.00,30.07,1014.70,10.00,M,FEW,M,M,M,20000.00,M,M,M,M,M,M,M,M,M,M,62.10,KRNO 050455Z 17004KT 10SM FEW200 17/M04 A3007 RMK AO2 SLP147 FU ALF ALQDS T01671044,M
RTS,2021-10-05 04:55,-119.8764,39.6682,1539.00,59.00,17.60,19.68,340.00,4.00,0.00,30.11,M,10.00,M,CLR,M,M,M,M,M,M,M,M,M,M,M,M,M,M,59.00,KRTS 050455Z AUTO 34004KT 10SM CLR 15/M08 A3011 RMK AO2,M
LAS,2021-10-05 04:56,-115.1634,36.0719,663.00,78.00,37.00,22.71,260.00,4.00,0.00,29.95,1012.10,10.00,M,BKN,M,M,M,23000.00,M,M,M,M,M,M,M,M,M,M,78.10,KLAS 050456Z 26004KT 10SM BKN230 26/03 A2995 RMK AO2 SLP121 T02560028,M
WMC,2021-10-05 04:56,-117.8072,40.9019,1315.00,59.00,14.00,16.83,170.00,10.00,0.00,30.03,1013.80,9.00,M,CLR,M,M,M,M,M,M,M,M,M,M,M,M,M,M,59.00,KWMC 050456Z AUTO 17010KT 9SM CLR 15/M10 A3003 RMK AO2 SLP138 T01501100,M
HND,2021-10-05 04:56,-115.1344,35.9729,742.79,73.00,36.00,25.88,180.00,6.00,0.00,29.99,1014.90,10.00,M,CLR,M,M,M,M,M,M,M,M,M,M,M,M,M,M,73.00,KHND 050456Z AUTO 18006KT 10SM CLR 23/02 A2999 RMK AO2 SLP149 T02280022,M
TPH,2021-10-05 04:56,-117.0904,38.0505,1654.00,61.00,26.10,26.25,100.00,3.00,0.00,30.15,1015.40,10.00,M,CLR,M,M,M,M,M,M,M,M,M,M,M,M,M,M,61.00,KTPH 050456Z AUTO 10003KT 10SM CLR 16/M03 A3015 RMK AO2 SLP154 T01611033,M
EKO,2021-10-05 04:56,-115.7860,40.8242,1367.00,57.00,18.00,21.51,10.00,8.00,0.00,30.09,1016.40,10.00,M,CLR,M,M,M,M,M,M,M,M,M,M,M,M,M,M,57.00,KEKO 050456Z AUTO 01008KT 10SM CLR 14/M08 A3009 RMK AO2 SLP164 T01391078,M
NFL,2021-10-05 04:56,-118.7010,39.4166,1199.00,62.00,21.90,21.18,300.00,8.00,0.00,30.01,1013.10,6.00,M,BKN,BKN,M,M,6000.00,22000.00,M,M,FU,M,M,M,M,M,M,62.10,KNFL 050456Z 30008KT 6SM FU BKN060 BKN220 17/M06 A3001 RMK AO2 SLP131 FU BKN060 T01671056,M
LSV,2021-10-05 04:58,-115.0343,36.2362,570.00,77.00,28.40,16.67,10.00,8.00,0.00,29.94,M,10.00,M,FEW,M,M,M,24000.00,M,M,M,M,M,M,M,M,M,M,77.00,KLSV 050458Z 01008KT 10SM FEW240 25/M02 A2994 RMK AO2A SLPNO ALSTG ESTMD RVRNO $,M
INS,2021-10-05 04:58,-115.6733,36.5872,955.00,69.00,28.60,21.93,260.00,5.00,0.00,30.01,1012.40,10.00,M,CLR,M,M,M,M,M,M,M,M,M,M,M,M,M,M,69.10,KINS 050458Z AUTO 26005KT 10SM CLR 21/M02 A3001 RMK AO2 SLP124 T02061019 $,M
CXP,2021-10-05 05:15,-119.7326,39.1923,1431.00,59.00,23.00,24.76,0.00,0.00,0.00,30.09,M,10.00,M,CLR,M,M,M,M,M,M,M,M,M,M,M,M,M,M,59.00,KCXP 050515Z AUTO 00000KT 10SM CLR 15/M05 A3009 RMK AO2,M
BVU,2021-10-05 05:15,-114.8611,35.9475,671.00,75.20,32.00,20.49,0.00,0.00,0.00,29.96,M,10.00,M,CLR,M,M,M,M,M,M,M,M,M,M,M,M,M,M,75.20,KBVU 050515Z AUTO 00000KT 10SM CLR 24/M00 A2996 RMK AO2,M
HTH,2021-10-05 05:15,-118.6315,38.5448,1282.89,68.00,23.00,18.06,150.00,9.00,0.00,30.05,M,10.00,M,BKN,M,M,M,12000.00,M,M,M,M,M,M,M,M,M,M,68.00,KHTH 050515Z AUTO 15009KT 10SM BKN120 20/M05 A3005 RMK A01,M
TMT,2021-10-05 05:15,-117.1971,39.4643,1749.34,45.50,18.10,33.06,280.00,3.00,0.00,30.16,M,10.00,M,CLR,M,M,M,M,M,M,M,M,M,M,M,M,M,M,44.12,KTMT 050515Z AUTO 28003KT 10SM CLR 08/M08 A3016 RMK AO2 T00751077,M
BAM,2021-10-05 05:15,-116.8743,40.5990,1382.36,57.20,14.00,17.95,0.00,0.00,0.00,30.07,M,10.00,M,CLR,M,M,M,M,M,M,M,M,M,M,M,M,M,M,57.20,KBAM 050515Z AUTO 00000KT 10SM CLR 14/M10 A3007 RMK AO1,M
MEV,2021-10-05 05:15,-119.7500,38.9963,1441.42,55.40,23.00,28.20,90.00,10.00,0.00,30.08,M,10.00,M,OVC,M,M,M,12000.00,M,M,M,M,M,M,M,M,M,M,55.40,KMEV 050515Z AUTO 09010KT 10SM OVC120 13/M05 A3008 RMK AO2,M
RTS,2021-10-05 05:15,-119.8764,39.6682,1539.00,57.20,17.60,20.99,M,3.00,0.00,30.11,M,10.00,M,CLR,M,M,M,M,M,M,M,M,M,M,M,M,M,M,57.20,KRTS 050515Z AUTO VRB03KT 10SM CLR 14/M08 A3011 RMK AO2,M
TMT,2021-10-05 05:35,-117.1971,39.4643,1749.34,44.00,16.50,32.55,280.00,4.00,0.00,30.16,M,10.00,M,CLR,M,M,M,M,M,M,M,M,M,M,M,M,M,M,41.55,KTMT 050535Z AUTO 28004KT 10SM CLR 07/M09 A3016 RMK AO2 T00671086,M
CXP,2021-10-05 05:35,-119.7326,39.1923,1431.00,57.20,21.20,24.49,0.00,0.00,0.00,30.09,M,10.00,M,SCT,M,M,M,12000.00,M,M,M,M,M,M,M,M,M,M,57.20,KCXP 050535Z AUTO 00000KT 10SM SCT120 14/M06 A3009 RMK AO2,M
BVU,2021-10-05 05:35,-114.8611,35.9475,671.00,73.40,35.60,25.13,0.00,0.00,0.00,29.96,M,10.00,M,CLR,M,M,M,M,M,M,M,M,M,M,M,M,M,M,73.40,KBVU 050535Z AUTO 00000KT 10SM CLR 23/02 A2996 RMK AO2 LTG DSNT SW,M
HTH,2021-10-05 05:35,-118.6315,38.5448,1282.89,66.20,23.00,19.22,160.00,8.00,0.00,30.05,M,10.00,M,BKN,M,M,M,12000.00,M,M,M,M,M,M,M,M,M,M,66.20,KHTH 050535Z AUTO 16008KT 10SM BKN120 19/M05 A3005 RMK A01,M
BAM,2021-10-05 05:35,-116.8743,40.5990,1382.36,55.40,12.20,17.70,160.00,3.00,0.00,30.07,M,10.00,M,CLR,M,M,M,M,M,M,M,M,M,M,M,M,M,M,55.40,KBAM 050535Z AUTO 16003KT 10SM CLR 13/M11 A3007 RMK AO1,M
MEV,2021-10-05 05:35,-119.7500,38.9963,1441.42,55.40,23.00,28.20,0.00,0.00,0.00,30.09,M,10.00,12.00,OVC,M,M,M,12000.00,M,M,M,M,M,M,M,M,M,M,55.40,KMEV 050535Z AUTO 00000G12KT 10SM OVC120 13/M05 A3009 RMK AO2,M
RTS,2021-10-05 05:35,-119.8764,39.6682,1539.00,59.00,17.60,19.68,360.00,4.00,0.00,30.11,M,10.00,M,CLR,M,M,M,M,M,M,M,M,M,M,M,M,M,M,59.00,KRTS 050535Z AUTO 36004KT 10SM CLR 15/M08 A3011 RMK AO2,M
LOL,2021-10-05 05:53,-118.5701,40.0684,1192.43,53.00,19.90,26.89,50.00,7.00,0.00,30.02,1014.30,7.00,M,CLR,M,M,M,M,M,M,M,M,M,M,M,M,M,M,53.10,KLOL 050553Z AUTO 05007KT 7SM CLR 12/M07 A3002 RMK AO2 SLP143 T01171067 10272 20100 51009,M
ELY,2021-10-05 05:53,-114.8453,39.2950,1909.00,56.00,25.00,30.10,210.00,9.00,0.00,30.21,1014.40,10.00,M,CLR,M,M,M,M,M,M,M,M,M,M,M,M,M,M,55.90,KELY 050553Z AUTO 21009KT 10SM CLR 13/M04 A3021 RMK AO2 SLP144 T01331039 10222 20106 50005,M
DRA,2021-10-05 05:53,-116.0278,36.6206,1009.00,66.00,28.00,23.82,50.00,4.00,0.00,30.02,1012.10,10.00,M,CLR,M,M,M,M,M,M,M,M,M,M,M,M,M,M,66.00,KDRA 050553Z AUTO 05004KT 10SM CLR 19/M02 A3002 RMK AO2 SLP121 T01891022 10300 20183 51005,M
P68,2021-10-05 05:53,-116.0056,39.6014,1993.00,47.00,15.10,27.54,260.00,3.00,0.00,30.16,1015.10,M,M,M,M,M,M,M,M,M,M,M,M,M,M,M,M,M,45.72,KP68 050553Z AUTO 26003KT 08/M09 A3016 RMK AO1 SLP151 T00831094 10228 20083 51004,M
VGT,2021-10-05 05:53,-115.1933,36.2111,667.00,77.00,39.00,25.47,30.00,3.00,0.00,29.95,1013.50,10.00,M,CLR,M,M,M,M,M,M,M,M,M,M,M,M,M,M,77.00,KVGT 050553Z AUTO 03003KT 10SM CLR 25/04 A2995 RMK AO2 SLP135 T02500039 10311 20244 52006,M
RNO,2021-10-05 05:55,-119.7711,39.4839,1341.00,58.00,25.00,28.01,0.00,0.00,0.00,30.07,1014.50,10.00,M,FEW,SCT,M,M,12000.00,20000.00,M,M,M,M,M,M,M,M,M,57.90,KRNO 050555Z 00000KT 10SM FEW120 SCT200 14/M04 A3007 RMK AO2 SLP145 FU ALF ALQDS T01441039 10261 20144 51007,M
TMT,2021-10-05 05:55,-117.1971,39.4643,1749.34,42.30,15.60,33.54,0.00,0.00,0.00,30.16,M,10.00,M,CLR,M,M,M,M,M,M,M,M,M,M,M,M,M,M,42.30,KTMT 050555Z AUTO 00000KT 10SM CLR 06/M09 A3016 RMK AO2 LTG DSNT S T00571091 10233 20057,M
HTH,2021-10-05 05:55,-118.6315,38.5448,1282.89,68.00,24.80,19.47,170.00,7.00,0.00,30.05,M,10.00,M,FEW,SCT,BKN,M,2200.00,3000.00,12000.00,M,M,M,M,M,M,M,M,68.00,KHTH 050555Z AUTO 17007KT 10SM FEW022 SCT030 BKN120 20/M04 A3005 RMK A01,M
BAM,2021-10-05 05:55,-116.8743,40.5990,1382.36,59.00,14.00,16.83,150.00,6.00,0.00,30.07,M,10.00,M,CLR,M,M,M,M,M,M,M,M,M,M,M,M,M,M,59.00,KBAM 050555Z AUTO 15006KT 10SM CLR 15/M10 A3007 RMK AO1,M
MEV,2021-10-05 05:55,-119.7500,38.9963,1441.42,51.80,23.00,32.17,0.00,0.00,0.00,30.09,M,10.00,M,FEW,FEW,OVC,M,5000.00,9000.00,12000.00,M,M,M,M,M,M,M,M,51.80,KMEV 050555Z AUTO 00000KT 10SM FEW050 FEW090 OVC120 11/M05 A3009 RMK AO2,M
RTS,2021-10-05 05:55,-119.8764,39.6682,1539.00,57.20,17.60,20.99,0.00,0.00,0.00,30.11,M,10.00,M,CLR,M,M,M,M,M,M,M,M,M,M,M,M,M,M,57.20,KRTS 050555Z AUTO 00000KT 10SM CLR 14/M08 A3011 RMK AO2,M
BVU,2021-10-05 05:55,-114.8611,35.9475,671.00,71.60,41.00,33.00,330.00,3.00,0.00,29.96,M,10.00,M,CLR,M,M,M,M,M,M,M,M,M,M,M,M,M,M,71.60,KBVU 050555Z AUTO 33003KT 10SM CLR 22/05 A2996 RMK AO2,M
CXP,2021-10-05 05:55,-119.7326,39.1923,1431.00,55.40,21.20,26.13,0.00,0.00,0.00,30.10,M,10.00,M,OVC,M,M,M,11000.00,M,M,M,M,M,M,M,M,M,M,55.40,KCXP 050555Z AUTO 00000KT 10SM OVC110 13/M06 A3010 RMK AO2,M
EKO,2021-10-05 05:56,-115.7860,40.8242,1367.00,54.00,18.00,23.99,320.00,4.00,0.00,30.10,M,10.00,M,CLR,M,M,M,M,M,M,M,M,M,M,M,M,M,M,54.00,KEKO 050556Z AUTO 32004KT 10SM CLR 12/M08 A3010 RMK AO2 SLPNO T01221078 10256 20122 51007,M
LAS,2021-10-05 05:56,-115.1634,36.0719,663.00,77.00,36.00,22.64,0.00,0.00,0.00,29.96,1012.30,10.00,M,BKN,M,M,M,25000.00,M,M,M,M,M,M,M,M,M,M,77.00,KLAS 050556Z 00000KT 10SM BKN250 25/02 A2996 RMK AO2 SLP123 T02500022 10311 20250 51005,M
TPH,2021-10-05 05:56,-117.0904,38.0505,1654.00,58.00,25.00,28.01,10.00,5.00,0.00,30.15,1015.20,10.00,M,CLR,M,M,M,M,M,M,M,M,M,M,M,M,M,M,57.90,KTPH 050556Z AUTO 01005KT 10SM CLR 14/M04 A3015 RMK AO2 SLP152 T01441039 10244 20144 51006,M
WMC,2021-10-05 05:56,-117.8072,40.9019,1315.00,54.00,14.00,20.16,170.00,9.00,0.00,30.04,1013.90,9.00,M,CLR,M,M,M,M,M,M,M,M,M,M,M,M,M,M,54.00,KWMC 050556Z AUTO 17009KT 9SM CLR 12/M10 A3004 RMK AO2 SLP139 T01221100 10267 20111 51006,M
HND,2021-10-05 05:56,-115.1344,35.9729,742.79,72.00,37.00,27.85,140.00,3.00,0.00,29.99,1014.90,10.00,M,CLR,M,M,M,M,M,M,M,M,M,M,M,M,M,M,72.00,KHND 050556Z AUTO 14003KT 10SM CLR 22/03 A2999 RMK AO2 SLP149 T02220028 10300 20222 51004,M
NFL,2021-10-05 05:56,-118.7010,39.4166,1199.00,53.00,23.00,30.67,150.00,6.00,0.00,30.02,1013.70,6.00,M,BKN,M,M,M,6000.00,M,M,M,FU,M,M,M,M,M,M,53.10,KNFL 050556Z 15006KT 6SM FU BKN060 12/M05 A3002 RMK AO2 SLP137 FU BKN060 T01171050 10278 20117 52010,M
LSV,2021-10-05 05:58,-115.0343,36.2362,570.00,74.80,31.10,20.02,40.00,4.00,0.00,29.94,1011.70,10.00,M,CLR,M,M,M,M,M,M,M,M,M,M,M,M,M,M,74.80,KLSV 050558Z 04004KT 10SM CLR 24/M00 A2994 RMK AO2A SLP117 T02381005 10312 20238 $,M
INS,2021-10-05 05:58,-115.6733,36.5872,955.00,67.60,28.60,23.10,180.00,4.00,0.00,30.02,1012.60,10.00,M,CLR,M,M,M,M,M,M,M,M,M,M,M,M,M,M,67.60,KINS 050558Z AUTO 18004KT 10SM CLR 20/M02 A3002 RMK AO2 SLP126 T01981019 10284 20181 52005 $,M
BVU,2021-10-05 06:15,-114.8611,35.9475,671.00,71.60,37.40,28.68,310.00,4.00,0.00,29.96,M,10.00,M,CLR,M,M,M,M,M,M,M,M,M,M,M,M,M,M,71.60,KBVU 050615Z AUTO 31004KT 10SM CLR 22/03 A2996 RMK AO2 LTG DSNT NE AND SW,M
CXP,2021-10-05 06:15,-119.7326,39.1923,1431.00,55.40,21.20,26.13,0.00,0.00,0.00,30.10,M,10.00,M,OVC,M,M,M,12000.00,M,M,M,M,M,M,M,M,M,M,55.40,KCXP 050615Z AUTO 00000KT 10SM OVC120 13/M06 A3010 RMK AO2,M
RTS,2021-10-05 06:15,-119.8764,39.6682,1539.00,57.20,17.60,20.99,10.00,4.00,0.00,30.11,M,10.00,M,CLR,M,M,M,M,M,M,M,M,M,M,M,M,M,M,57.20,KRTS 050615Z AUTO 01004KT 10SM CLR 14/M08 A3011 RMK AO2,M
MEV,2021-10-05 06:15,-119.7500,38.9963,1441.42,51.80,21.20,29.82,120.00,4.00,0.00,30.09,M,10.00,M,BKN,OVC,M,M,9000.00,11000.00,M,M,M,M,M,M,M,M,M,51.80,KMEV 050615Z AUTO 12004KT 10SM BKN090 OVC110 11/M06 A3009 RMK AO2,M
TMT,2021-10-05 06:15,-117.1971,39.4643,1749.34,44.40,16.70,32.46,0.00,0.00,0.00,30.16,M,10.00,M,CLR,M,M,M,M,M,M,M,M,M,M,M,M,M,M,44.40,KTMT 050615Z AUTO 00000KT 10SM CLR 07/M08 A3016 RMK AO2 LTG DSNT S T00691085,M
HTH,2021-10-05 06:15,-118.6315,38.5448,1282.89,66.20,24.80,20.72,180.00,6.00,0.00,30.05,M,10.00,M,FEW,SCT,BKN,M,2300.00,3100.00,12000.00,M,M,M,M,M,M,M,M,66.20,KHTH 050615Z AUTO 18006KT 10SM FEW023 SCT031 BKN120 19/M04 A3005 RMK A01,M
BAM,2021-10-05 06:15,-116.8743,40.5990,1382.36,55.40,14.00,19.16,130.00,7.00,0.00,30.07,M,10.00,M,CLR,M,M,M,M,M,M,M,M,M,M,M,M,M,M,55.40,KBAM 050615Z AUTO 13007KT 10SM CLR 13/M10 A3007 RMK AO1,M
TMT,2021-10-05 06:35,-117.1971,39.4643,1749.34,44.00,16.00,32.09,0.00,0.00,0.00,30.17,M,10.00,M,CLR,M,M,M,M,M,M,M,M,M,M,M,M,M,M,43.90,KTMT 050635Z AUTO 00000KT 10SM CLR 07/M09 A3017 RMK AO2 T00661089,M
BVU,2021-10-05 06:35,-114.8611,35.9475,671.00,71.60,39.20,30.77,0.00,0.00,0.00,29.96,M,10.00,M,CLR,M,M,M,M,M,M,M,M,M,M,M,M,M,M,71.60,KBVU 050635Z AUTO 00000KT 10SM CLR 22/04 A2996 RMK AO2,M
RTS,2021-10-05 06:35,-119.8764,39.6682,1539.00,50.00,15.80,25.28,10.00,3.00,0.00,30.11,M,10.00,M,CLR,M,M,M,M,M,M,M,M,M,M,M,M,M,M,50.00,KRTS 050635Z AUTO 01003KT 10SM CLR 10/M09 A3011 RMK AO2,M
MEV,2021-10-05 06:35,-119.7500,38.9963,1441.42,51.80,23.00,32.17,140.00,4.00,0.00,30.09,M,10.00,M,BKN,OVC,M,M,10000.00,12000.00,M,M,M,M,M,M,M,M,M,51.80,KMEV 050635Z AUTO 14004KT 10SM BKN100 OVC120 11/M05 A3009 RMK AO2,M
CXP,2021-10-05 06:35,-119.7326,39.1923,1431.00,55.40,21.20,26.13,0.00,0.00,0.00,30.10,M,10.00,M,OVC,M,M,M,12000.00,M,M,M,M,M,M,M,M,M,M,55.40,KCXP 050635Z AUTO 00000KT 10SM OVC120 13/M06 A3010 RMK AO2,M
HTH,2021-10-05 06:35,-118.6315,38.5448,1282.89,64.40,24.80,22.06,0.00,0.00,0.00,30.06,M,10.00,M,FEW,SCT,BKN,M,2400.00,3100.00,3700.00,M,M,M,M,M,M,M,M,64.40,KHTH 050635Z AUTO 00000KT 10SM FEW024 SCT031 BKN037 18/M04 A3006 RMK A01,M
BAM,2021-10-05 06:35,-116.8743,40.5990,1382.36,50.00,14.00,23.37,180.00,3.00,0.00,30.07,M,10.00,M,CLR,M,M,M,M,M,M,M,M,M,M,M,M,M,M,50.00,KBAM 050635Z AUTO 18003KT 10SM CLR 10/M10 A3007 RMK AO1,M
LOL,2021-10-05 06:53,-118.5701,40.0684,1192.43,49.00,19.00,30.24,320.00,4.00,0.00,30.02,1014.30,7.00,M,CLR,M,M,M,M,M,M,M,M,M,M,M,M,M,M,47.16,KLOL 050653Z AUTO 32004KT 7SM CLR 09/M07 A3002 RMK AO2 SLP143 T00941072,M
ELY,2021-10-05 06:53,-114.8453,39.2950,1909.00,51.00,26.10,37.57,180.00,9.00,0.00,30.21,1014.70,10.00,M,CLR,M,M,M,M,M,M,M,M,M,M,M,M,M,M,51.10,KELY 050653Z AUTO 18009KT 10SM CLR 11/M03 A3021 RMK AO2 SLP147 T01061033,M
P68,2021-10-05 06:53,-116.0056,39.6014,1993.00,52.00,21.00,29.35,180.00,3.00,0.00,30.16,1014.30,M,M,M,M,M,M,M,M,M,M,M,M,M,M,M,M,M,52.00,KP68 050653Z AUTO 18003KT 11/M06 A3016 RMK AO1 SLP143 T01111061,M
DRA,2021-10-05 06:53,-116.0278,36.6206,1009.00,64.00,28.90,26.50,0.00,0.00,0.00,30.02,1012.40,10.00,M,CLR,M,M,M,M,M,M,M,M,M,M,M,M,M,M,64.00,KDRA 050653Z AUTO 00000KT 10SM CLR 18/M02 A3002 RMK AO2 SLP124 T01781017,M
VGT,2021-10-05 06:53,-115.1933,36.2111,667.00,75.00,40.00,28.20,300.00,5.00,0.00,29.93,1013.10,10.00,M,BKN,M,M,M,11000.00,M,M,M,M,M,M,M,M,M,M,75.00,KVGT 050653Z AUTO 30005KT 10SM BKN110 24/04 A2993 RMK AO2 SLP131 T02390044,M
MEV,2021-10-05 06:55,-119.7500,38.9963,1441.42,48.20,23.00,36.78,170.00,4.00,0.00,30.09,M,10.00,M,OVC,M,M,M,11000.00,M,M,M,M,M,M,M,M,M,M,46.34,KMEV 050655Z AUTO 17004KT 10SM OVC110 09/M05 A3009 RMK AO2,M
RTS,2021-10-05 06:55,-119.8764,39.6682,1539.00,50.00,17.60,27.33,340.00,3.00,0.00,30.11,M,10.00,M,CLR,M,M,M,M,M,M,M,M,M,M,M,M,M,M,50.00,KRTS 050655Z AUTO 34003KT 10SM CLR 10/M08 A3011 RMK AO2,M
CXP,2021-10-05 06:55,-119.7326,39.1923,1431.00,57.20,21.20,24.49,0.00,0.00,0.00,30.10,M,10.00,M,OVC,M,M,M,12000.00,M,M,M,M,M,M,M,M,M,M,57.20,KCXP 050655Z AUTO 00000KT 10SM OVC120 14/M06 A3010 RMK AO2 LTG DSNT NE AND SE,M
BVU,2021-10-05 06:55,-114.8611,35.9475,671.00,71.60,41.00,33.00,0.00,0.00,0.00,29.97,M,10.00,M,CLR,M,M,M,M,M,M,M,M,M,M,M,M,M,M,71.60,KBVU 050655Z AUTO 00000KT 10SM CLR 22/05 A2997 RMK AO2,M
BAM,2021-10-05 06:55,-116.8743,40.5990,1382.36,51.80,14.00,21.86,0.00,0.00,0.00,30.07,M,10.00,M,CLR,M,M,M,M,M,M,M,M,M,M,M,M,M,M,51.80,KBAM 050655Z AUTO 00000KT 10SM CLR 11/M10 A3007 RMK AO1,M
HTH,2021-10-05 06:55,-118.6315,38.5448,1282.89,66.20,24.80,20.72,160.00,7.00,0.00,30.06,M,10.00,M,SCT,BKN,BKN,M,2600.00,3300.00,4300.00,M,M,M,M,M,M,M,M,66.20,KHTH 050655Z AUTO 16007KT 10SM SCT026 BKN033 BKN043 19/M04 A3006 RMK A01,M
RNO,2021-10-05 06:55,-119.7711,39.4839,1341.00,53.00,26.10,34.90,160.00,4.00,0.00,30.07,1014.50,10.00,M,SCT,M,M,M,20000.00,M,M,M,M,M,M,M,M,M,M,53.10,KRNO 050655Z 16004KT 10SM SCT200 12/M03 A3007 RMK AO2 SLP145 FU ALF ALQDS T01171033,M
TMT,2021-10-05 06:55,-117.1971,39.4643,1749.34,37.60,11.10,33.03,0.00,0.00,0.00,30.17,M,10.00,M,CLR,M,M,M,M,M,M,M,M,M,M,M,M,M,M,37.60,KTMT 050655Z AUTO 00000KT 10SM CLR 03/M12 A3017 RMK AO2 T00311116,M
HND,2021-10-05 06:56,-115.1344,35.9729,742.79,70.00,34.00,26.46,180.00,5.00,0.00,29.99,1015.00,10.00,M,SCT,M,M,M,11000.00,M,M,M,M,M,M,M,M,M,M,70.00,KHND 050656Z AUTO 18005KT 10SM SCT110 21/01 A2999 RMK AO2 SLP150 T02110011 403060172,M
EKO,2021-10-05 06:56,-115.7860,40.8242,1367.00,50.00,19.00,29.02,0.00,0.00,0.00,30.10,M,10.00,M,CLR,M,M,M,M,M,M,M,M,M,M,M,M,M,M,50.00,KEKO 050656Z AUTO 00000KT 10SM CLR 10/M07 A3010 RMK AO2 SLPNO T01001072,M
LAS,2021-10-05 06:56,-115.1634,36.0719,663.00,76.00,36.00,23.48,250.00,4.00,0.00,29.96,1012.20,10.00,M,FEW,BKN,M,M,12000.00,25000.00,M,M,M,M,M,M,M,M,M,75.90,KLAS 050656Z 25004KT 10SM FEW120 BKN250 24/02 A2996 RMK AO2 SLP122 T02440022,M
NFL,2021-10-05 06:56,-118.7010,39.4166,1199.00,53.00,19.00,25.88,140.00,6.00,0.00,30.03,1013.90,6.00,M,BKN,M,M,M,6000.00,M,M,M,FU,M,M,M,M,M,M,53.10,KNFL 050656Z 14006KT 6SM FU BKN060 12/M07 A3003 RMK AO2 SLP139 FU BKN060 T01171072,M
TPH,2021-10-05 06:56,-117.0904,38.0505,1654.00,55.00,24.10,29.96,350.00,6.00,0.00,30.16,1015.30,10.00,M,CLR,M,M,M,M,M,M,M,M,M,M,M,M,M,M,55.00,KTPH 050656Z AUTO 35006KT 10SM CLR 13/M04 A3016 RMK AO2 SLP153 T01281044,M
WMC,2021-10-05 06:56,-117.8072,40.9019,1315.00,45.00,12.00,25.82,170.00,6.00,0.00,30.05,1014.40,9.00,M,CLR,M,M,M,M,M,M,M,M,M,M,M,M,M,M,41.19,KWMC 050656Z AUTO 17006KT 9SM CLR 07/M11 A3005 RMK AO2 SLP144 T00721111,M
INS,2021-10-05 06:58,-115.6733,36.5872,955.00,63.30,27.00,25.12,260.00,4.00,0.00,30.02,1012.60,10.00,M,SCT,M,M,M,10000.00,M,M,M,M,M,M,M,M,M,M,63.30,KINS 050658Z AUTO 26004KT 10SM SCT100 17/M03 A3002 RMK AO2 SLP126 T01741028 $,M
LSV,2021-10-05 06:58,-115.0343,36.2362,570.00,75.70,34.20,22.01,0.00,0.00,0.00,29.94,1011.70,10.00,M,CLR,M,M,M,M,M,M,M,M,M,M,M,M,M,M,75.70,KLSV 050658Z AUTO 00000KT 10SM CLR 24/01 A2994 RMK AO2 SLP117 T02430012 $,M
BVU,2021-10-05 07:15,-114.8611,35.9475,671.00,69.80,41.00,35.09,0.00,0.00,0.00,29.97,M,10.00,M,CLR,M,M,M,M,M,M,M,M,M,M,M,M,M,M,69.80,KBVU 050715Z AUTO 00000KT 10SM CLR 21/05 A2997 RMK AO2,M
CXP,2021-10-05 07:15,-119.7326,39.1923,1431.00,55.40,23.00,28.20,0.00,0.00,0.00,30.10,M,10.00,M,FEW,BKN,M,M,9000.00,12000.00,M,M,M,M,M,M,M,M,M,55.40,KCXP 050715Z AUTO 00000KT 10SM FEW090 BKN120 13/M05 A3010 RMK AO2,M
HTH,2021-10-05 07:15,-118.6315,38.5448,1282.89,66.20,26.60,22.33,170.00,10.00,0.00,30.06,M,10.00,M,FEW,FEW,FEW,M,2700.00,3500.00,4300.00,M,M,M,M,M,M,M,M,66.20,KHTH 050715Z AUTO 17010KT 10SM FEW027 FEW035 FEW043 19/M03 A3006 RMK A01,M
RTS,2021-10-05 07:15,-119.8764,39.6682,1539.00,50.00,17.60,27.33,360.00,7.00,0.00,30.11,M,10.00,M,CLR,M,M,M,M,M,M,M,M,M,M,M,M,M,M,50.00,KRTS 050715Z AUTO 36007KT 10SM CLR 10/M08 A3011 RMK AO2,M
BAM,2021-10-05 07:15,-116.8743,40.5990,1382.36,46.40,12.20,24.71,0.00,0.00,0.00,30.08,M,10.00,M,CLR,M,M,M,M,M,M,M,M,M,M,M,M,M,M,46.40,KBAM 050715Z AUTO 00000KT 10SM CLR 08/M11 A3008 RMK AO1,M
MEV,2021-10-05 07:15,-119.7500,38.9963,1441.42,50.00,23.00,34.39,130.00,4.00,0.00,30.09,M,10.00,M,OVC,M,M,M,10000.00,M,M,M,M,M,M,M,M,M,M,50.00,KMEV 050715Z AUTO 13004KT 10SM OVC100 10/M05 A3009 RMK AO2,M
TMT,2021-10-05 07:15,-117.1971,39.4643,1749.34,39.60,11.80,31.51,0.00,0.00,0.00,30.17,M,10.00,M,CLR,M,M,M,M,M,M,M,M,M,M,M,M,M,M,39.60,KTMT 050715Z AUTO 00000KT 10SM CLR 04/M11 A3017 RMK AO2 T00421112,M
TMT,2021-10-05 07:35,-117.1971,39.4643,1749.34,37.80,11.50,33.36,0.00,0.00,0.00,30.17,M,10.00,M,CLR,M,M,M,M,M,M,M,M,M,M,M,M,M,M,37.80,KTMT 050735Z AUTO 00000KT 10SM CLR 03/M11 A3017 RMK AO2 T00321114,M
HTH,2021-10-05 07:35,-118.6315,38.5448,1282.89,66.20,26.60,22.33,170.00,11.00,0.00,30.06,M,10.00,M,SCT,M,M,M,3200.00,M,M,M,M,M,M,M,M,M,M,66.20,KHTH 050735Z AUTO 17011KT 10SM SCT032 19/M03 A3006 RMK A01,M
BAM,2021-10-05 07:35,-116.8743,40.5990,1382.36,44.60,10.40,24.42,60.00,5.00,0.00,30.07,M,10.00,M,CLR,M,M,M,M,M,M,M,M,M,M,M,M,M,M,41.36,KBAM 050735Z AUTO 06005KT 10SM CLR 07/M12 A3007 RMK AO1,M
BVU,2021-10-05 07:35,-114.8611,35.9475,671.00,68.00,39.20,34.80,360.00,7.00,0.00,29.97,M,10.00,M,CLR,M,M,M,M,M,M,M,M,M,M,M,M,M,M,68.00,KBVU 050735Z AUTO 36007KT 10SM CLR 20/04 A2997 RMK AO2,M
MEV,2021-10-05 07:35,-119.7500,38.9963,1441.42,46.40,23.00,39.36,110.00,3.00,0.00,30.09,M,10.00,M,OVC,M,M,M,10000.00,M,M,M,M,M,M,M,M,M,M,45.15,KMEV 050735Z AUTO 11003KT 10SM OVC100 08/M05 A3009 RMK AO2,M
RTS,2021-10-05 07:35,-119.8764,39.6682,1539.00,48.20,17.60,29.23,360.00,6.00,0.00,30.11,M,10.00,M,FEW,M,M,M,12000.00,M,M,M,M,M,M,M,M,M,M,45.04,KRTS 050735Z AUTO 36006KT 10SM FEW120 09/M08 A3011 RMK AO2,M
CXP,2021-10-05 07:35,-119.7326,39.1923,1431.00,53.60,23.00,30.11,310.00,4.00,0.00,30.10,M,10.00,M,SCT,SCT,M,M,9000.00,12000.00,M,M,M,M,M,M,M,M,M,53.60,KCXP 050735Z AUTO 31004KT 10SM SCT090 SCT120 12/M05 A3010 RMK AO2,M
ELY,2021-10-05 07:53,-114.8453,39.2950,1909.00,47.00,26.10,43.95,180.00,12.00,0.00,30.21,1015.10,10.00,M,CLR,M,M,M,M,M,M,M,M,M,M,M,M,M,M,40.97,KELY 050753Z AUTO 18012KT 10SM CLR 08/M03 A3021 RMK AO2 SLP151 T00831033 402390039,M
VGT,2021-10-05 07:53,-115.1933,36.2111,667.00,73.00,39.00,29.12,0.00,0.00,0.00,29.94,1013.50,10.00,M,CLR,M,M,M,M,M,M,M,M,M,M,M,M,M,M,73.00,KVGT 050753Z AUTO 00000KT 10SM CLR 23/04 A2994 RMK AO2 SLP135 T02280039 403220194,M
DRA,2021-10-05 07:53,-116.0278,36.6206,1009.00,65.00,28.00,24.75,330.00,3.00,0.00,30.01,1011.90,10.00,M,CLR,M,M,M,M,M,M,M,M,M,M,M,M,M,M,64.90,KDRA 050753Z AUTO 33003KT 10SM CLR 18/M02 A3001 RMK AO2 SLP119 T01831022 403060139,M
P68,2021-10-05 07:53,-116.0056,39.6014,1993.00,54.00,25.00,32.26,190.00,7.00,0.00,30.17,1014.20,M,M,M,M,M,M,M,M,M,M,M,M,M,M,M,M,M,54.00,KP68 050753Z AUTO 19007KT 12/M04 A3017 RMK AO1 SLP142 T01221039 402560050,M
LOL,2021-10-05 07:53,-118.5701,40.0684,1192.43,45.00,19.00,35.02,100.00,5.00,0.00,30.03,1014.50,7.00,M,CLR,M,M,M,M,M,M,M,M,M,M,M,M,M,M,41.83,KLOL 050753Z AUTO 10005KT 7SM CLR 07/M07 A3003 RMK AO2 SLP145 T00721072 402780017,M
CXP,2021-10-05 07:55,-119.7326,39.1923,1431.00,55.40,23.00,28.20,0.00,0.00,0.00,30.10,M,10.00,M,FEW,M,M,M,9000.00,M,M,M,M,M,M,M,M,M,M,55.40,KCXP 050755Z AUTO 00000KT 10SM FEW090 13/M05 A3010 RMK AO2,M
MEV,2021-10-05 07:55,-119.7500,38.9963,1441.42,46.40,23.00,39.36,0.00,0.00,0.00,30.09,M,10.00,M,OVC,M,M,M,10000.00,M,M,M,M,M,M,M,M,M,M,46.40,KMEV 050755Z AUTO 00000KT 10SM OVC100 08/M05 A3009 RMK AO2,M
BAM,2021-10-05 07:55,-116.8743,40.5990,1382.36,44.60,12.20,26.45,70.00,6.00,0.00,30.08,M,10.00,M,CLR,M,M,M,M,M,M,M,M,M,M,M,M,M,M,40.71,KBAM 050755Z AUTO 07006KT 10SM CLR 07/M11 A3008 RMK AO1,M
TMT,2021-10-05 07:55,-117.1971,39.4643,1749.34,37.20,11.10,33.56,90.00,3.00,0.00,30.17,M,10.00,M,CLR,M,M,M,M,M,M,M,M,M,M,M,M,M,M,34.63,KTMT 050755Z AUTO 09003KT 10SM CLR 03/M12 A3017 RMK AO2 T00291116 402661048,M
RNO,2021-10-05 07:55,-119.7711,39.4839,1341.00,53.00,27.00,36.22,0.00,0.00,0.00,30.07,1014.30,10.00,M,SCT,M,M,M,20000.00,M,M,M,M,M,M,M,M,M,M,53.10,KRNO 050755Z 00000KT 10SM SCT200 12/M03 A3007 RMK AO2 SLP143 FU ALF ALQDS T01171028 402780072,M
BVU,2021-10-05 07:55,-114.8611,35.9475,671.00,69.80,37.40,30.49,340.00,4.00,0.00,29.97,M,10.00,M,CLR,M,M,M,M,M,M,M,M,M,M,M,M,M,M,69.80,KBVU 050755Z AUTO 34004KT 10SM CLR 21/03 A2997 RMK AO2,M
HTH,2021-10-05 07:55,-118.6315,38.5448,1282.89,66.20,26.60,22.33,170.00,10.00,0.00,30.05,M,10.00,M,SCT,SCT,M,M,3200.00,3800.00,M,M,M,M,M,M,M,M,M,66.20,KHTH 050755Z AUTO 17010KT 10SM SCT032 SCT038 19/M03 A3005 RMK A01,M
RTS,2021-10-05 07:55,-119.8764,39.6682,1539.00,50.00,17.60,27.33,340.00,6.00,0.00,30.11,M,10.00,M,BKN,M,M,M,12000.00,M,M,M,M,M,M,M,M,M,M,50.00,KRTS 050755Z AUTO 34006KT 10SM BKN120 10/M08 A3011 RMK AO2,M
WMC,2021-10-05 07:56,-117.8072,40.9019,1315.00,44.00,12.90,27.81,180.00,5.00,0.00,30.05,1014.00,9.00,M,CLR,M,M,M,M,M,M,M,M,M,M,M,M,M,M,40.77,KWMC 050756Z AUTO 18005KT 9SM CLR 07/M11 A3005 RMK AO2 SLP140 T00671106 402831011,M
HND,2021-10-05 07:56,-115.1344,35.9729,742.79,70.00,35.00,27.65,200.00,6.00,0.00,29.99,1014.90,10.00,M,CLR,M,M,M,M,M,M,M,M,M,M,M,M,M,M,70.00,KHND 050756Z AUTO 20006KT 10SM CLR 21/02 A2999 RMK AO2 SLP149 T02110017,M
EKO,2021-10-05 07:56,-115.7860,40.8242,1367.00,50.00,18.00,27.80,70.00,6.00,0.00,30.11,1015.70,10.00,M,CLR,M,M,M,M,M,M,M,M,M,M,M,M,M,M,50.00,KEKO 050756Z AUTO 07006KT 10SM CLR 10/M08 A3011 RMK AO2 SLP157 T01001078 402721006,M
NFL,2021-10-05 07:56,-118.7010,39.4166,1199.00,52.00,17.10,24.83,170.00,4.00,0.00,30.03,1014.00,6.00,M,CLR,M,M,M,M,M,M,M,HZ,M,M,M,M,M,M,52.00,KNFL 050756Z AUTO 17004KT 6SM HZ CLR 11/M08 A3003 RMK AO2 SLP140 T01111083 402830067,M
LAS,2021-10-05 07:56,-115.1634,36.0719,663.00,74.00,35.00,24.23,230.00,3.00,0.00,29.96,1012.30,10.00,M,FEW,FEW,BKN,M,12000.00,16000.00,25000.00,M,M,M,M,M,M,M,M,73.90,KLAS 050756Z 23003KT 10SM FEW120 FEW160 BKN250 23/02 A2996 RMK AO2 SLP123 T02330017 403170200,M
TPH,2021-10-05 07:56,-117.0904,38.0505,1654.00,53.00,24.10,32.11,10.00,7.00,0.00,30.16,1015.20,10.00,M,CLR,M,M,M,M,M,M,M,M,M,M,M,M,M,M,53.10,KTPH 050756Z AUTO 01007KT 10SM CLR 12/M04 A3016 RMK AO2 SLP152 T01171044 402670083,M
LSV,2021-10-05 07:58,-115.0343,36.2362,570.00,71.20,30.40,21.97,0.00,0.00,0.00,29.94,1011.80,10.00,M,SCT,SCT,M,M,11000.00,14000.00,M,M,M,M,M,M,M,M,M,71.20,KLSV 050758Z AUTO 00000KT 10SM SCT110 SCT140 22/M01 A2994 RMK AO2 SLP118 T02181009 403200178 $,M
INS,2021-10-05 07:58,-115.6733,36.5872,955.00,63.50,27.00,24.94,0.00,0.00,0.00,30.01,1012.10,10.00,M,BKN,M,M,M,12000.00,M,M,M,M,M,M,M,M,M,M,63.50,KINS 050758Z AUTO 00000KT 10SM BKN120 18/M03 A3001 RMK AO2 SLP121 T01751028 403000121 $,M
MEV,2021-10-05 08:15,-119.7500,38.9963,1441.42,44.60,23.00,42.14,0.00,0.00,0.00,30.09,M,10.00,M,OVC,M,M,M,10000.00,M,M,M,M,M,M,M,M,M,M,44.60,KMEV 050815Z AUTO 00000KT 10SM OVC100 07/M05 A3009 RMK AO2,M
BVU,2021-10-05 08:15,-114.8611,35.9475,671.00,71.60,35.60,26.71,310.00,5.00,0.00,29.96,M,10.00,M,CLR,M,M,M,M,M,M,M,M,M,M,M,M,M,M,71.60,KBVU 050815Z AUTO 31005KT 10SM CLR 22/02 A2996 RMK AO2,M
CXP,2021-10-05 08:15,-119.7326,39.1923,1431.00,53.60,23.00,30.11,0.00,0.00,0.00,30.10,M,10.00,M,SCT,SCT,M,M,9000.00,11000.00,M,M,M,M,M,M,M,M,M,53.60,KCXP 050815Z AUTO 00000KT 10SM SCT090 SCT110 12/M05 A3010 RMK AO2,M
BAM,2021-10-05 08:15,-116.8743,40.5990,1382.36,44.60,12.20,26.45,0.00,0.00,0.00,30.08,M,10.00,M,CLR,M,M,M,M,M,M,M,M,M,M,M,M,M,M,44.60,KBAM 050815Z AUTO 00000KT 10SM CLR 07/M11 A3008 RMK AO1,M
HTH,2021-10-05 08:15,-118.6315,38.5448,1282.89,66.20,26.60,22.33,180.00,8.00,0.00,30.05,M,10.00,M,CLR,M,M,M,M,M,M,M,M,M,M,M,M,M,M,66.20,KHTH 050815Z AUTO 18008KT 10SM CLR 19/M03 A3005 RMK A01,M
RTS,2021-10-05 08:15,-119.8764,39.6682,1539.00,48.20,17.60,29.23,350.00,6.00,0.00,30.11,M,10.00,M,SCT,M,M,M,11000.00,M,M,M,M,M,M,M,M,M,M,45.04,KRTS 050815Z AUTO 35006KT 10SM SCT110 09/M08 A3011 RMK AO2,M
TMT,2021-10-05 08:15,-117.1971,39.4643,1749.34,39.00,13.10,34.16,10.00,3.00,0.00,30.16,M,10.00,M,CLR,M,M,M,M,M,M,M,M,M,M,M,M,M,M,36.69,KTMT 050815Z AUTO 01003KT 10SM CLR 04/M10 A3016 RMK AO2 T00391105,M
TMT,2021-10-05 08:35,-117.1971,39.4643,1749.34,39.60,14.00,34.72,350.00,4.00,0.00,30.16,M,10.00,M,CLR,M,M,M,M,M,M,M,M,M,M,M,M,M,M,36.30,KTMT 050835Z AUTO 35004KT 10SM CLR 04/M10 A3016 RMK AO2 LTG DSNT S T00421100,M
CXP,2021-10-05 08:35,-119.7326,39.1923,1431.00,51.80,23.00,32.17,0.00,0.00,0.00,30.10,M,10.00,M,FEW,SCT,M,M,9000.00,11000.00,M,M,M,M,M,M,M,M,M,51.80,KCXP 050835Z AUTO 00000KT 10SM FEW090 SCT110 11/M05 A3010 RMK AO2 LTG DSNT SE,M
MEV,2021-10-05 08:35,-119.7500,38.9963,1441.42,44.60,21.20,39.06,0.00,0.00,0.00,30.09,M,10.00,M,OVC,M,M,M,11000.00,M,M,M,M,M,M,M,M,M,M,44.60,KMEV 050835Z AUTO 00000KT 10SM OVC110 07/M06 A3009 RMK AO2 LTG DSNT SE,M
BAM,2021-10-05 08:35,-116.8743,40.5990,1382.36,42.80,10.40,26.16,0.00,0.00,0.00,30.08,M,10.00,M,CLR,M,M,M,M,M,M,M,M,M,M,M,M,M,M,42.80,KBAM 050835Z AUTO 00000KT 10SM CLR 06/M12 A3008 RMK AO1,M
HTH,2021-10-05 08:35,-118.6315,38.5448,1282.89,64.40,26.60,23.77,0.00,0.00,0.00,30.05,M,10.00,M,FEW,M,M,M,3000.00,M,M,M,M,M,M,M,M,M,M,64.40,KHTH 050835Z AUTO 00000KT 10SM FEW030 18/M03 A3005 RMK A01,M
BVU,2021-10-05 08:35,-114.8611,35.9475,671.00,71.60,37.40,28.68,320.00,3.00,0.00,29.96,M,10.00,M,CLR,M,M,M,M,M,M,M,M,M,M,M,M,M,M,71.60,KBVU 050835Z AUTO 32003KT 10SM CLR 22/03 A2996 RMK AO2,M
RTS,2021-10-05 08:35,-119.8764,39.6682,1539.00,48.20,17.60,29.23,350.00,6.00,0.00,30.11,M,10.00,M,FEW,M,M,M,11000.00,M,M,M,M,M,M,M,M,M,M,45.04,KRTS 050835Z AUTO 35006KT 10SM FEW110 09/M08 A3011 RMK AO2,M
ELY,2021-10-05 08:53,-114.8453,39.2950,1909.00,45.00,26.10,47.23,180.00,11.00,0.00,30.21,1014.90,10.00,M,CLR,M,M,M,M,M,M,M,M,M,M,M,M,M,M,38.89,KELY 050853Z AUTO 18011KT 10SM CLR 07/M03 A3021 RMK AO2 SLP149 T00721033 58001,M
VGT,2021-10-05 08:53,-115.1933,36.2111,667.00,71.00,40.00,32.16,320.00,5.00,0.00,29.93,1013.20,10.00,M,CLR,M,M,M,M,M,M,M,M,M,M,M,M,M,M,71.10,KVGT 050853Z AUTO 32005KT 10SM CLR 22/04 A2993 RMK AO2 SLP132 T02170044 56003,M
DRA,2021-10-05 08:53,-116.0278,36.6206,1009.00,66.00,28.90,24.71,160.00,4.00,0.00,30.01,1011.80,10.00,M,BKN,M,M,M,11000.00,M,M,M,M,M,M,M,M,M,M,66.00,KDRA 050853Z AUTO 16004KT 10SM BKN110 19/M02 A3001 RMK AO2 SLP118 T01891017 58002,M
P68,2021-10-05 08:53,-116.0056,39.6014,1993.00,46.00,21.90,38.15,210.00,5.00,0.00,30.17,1014.80,M,M,M,M,M,M,M,M,M,M,M,M,M,M,M,M,M,43.02,KP68 050853Z AUTO 21005KT 08/M06 A3017 RMK AO1 SLP148 T00781056 53001,M
LOL,2021-10-05 08:53,-118.5701,40.0684,1192.43,39.00,19.90,45.87,160.00,5.00,0.00,30.04,1014.90,7.00,M,CLR,M,M,M,M,M,M,M,M,M,M,M,M,M,M,34.71,KLOL 050853Z AUTO 16005KT 7SM CLR 04/M07 A3004 RMK AO2 SLP149 T00391067 53004,M
TMT,2021-10-05 08:55,-117.1971,39.4643,1749.34,37.60,12.00,34.38,0.00,0.00,0.00,30.16,M,10.00,M,CLR,M,M,M,M,M,M,M,M,M,M,M,M,M,M,37.60,KTMT 050855Z AUTO 00000KT 10SM CLR 03/M11 A3016 RMK AO2 T00311111,M
BVU,2021-10-05 08:55,-114.8611,35.9475,671.00,71.60,37.40,28.68,330.00,4.00,0.00,29.96,M,10.00,M,FEW,M,M,M,12000.00,M,M,M,M,M,M,M,M,M,M,71.60,KBVU 050855Z AUTO 33004KT 10SM FEW120 22/03 A2996 RMK AO2,M
CXP,2021-10-05 08:55,-119.7326,39.1923,1431.00,50.00,23.00,34.39,0.00,0.00,0.00,30.10,M,10.00,M,FEW,BKN,M,M,9000.00,11000.00,M,M,M,M,M,M,M,M,M,50.00,KCXP 050855Z AUTO 00000KT 10SM FEW090 BKN110 10/M05 A3010 RMK AO2,M
MEV,2021-10-05 08:55,-119.7500,38.9963,1441.42,41.00,23.00,48.39,0.00,0.00,0.00,30.09,M,10.00,M,FEW,OVC,M,M,8500.00,11000.00,M,M,M,M,M,M,M,M,M,41.00,KMEV 050855Z AUTO 00000KT 10SM FEW085 OVC110 05/M05 A3009 RMK AO2,M
RNO,2021-10-05 08:55,-119.7711,39.4839,1341.00,51.00,26.10,37.57,150.00,3.00,0.00,30.08,1014.40,10.00,M,SCT,M,M,M,20000.00,M,M,M,M,M,M,M,M,M,M,51.10,KRNO 050855Z 15003KT 10SM SCT200 11/M03 A3008 RMK AO2 SLP144 FU ALF ALQDS T01061033 53004,M
HTH,2021-10-05 08:55,-118.6315,38.5448,1282.89,59.00,24.80,26.70,40.00,4.00,0.00,30.06,M,10.00,M,CLR,M,M,M,M,M,M,M,M,M,M,M,M,M,M,59.00,KHTH 050855Z AUTO 04004KT 10SM CLR 15/M04 A3006 RMK A01,M
RTS,2021-10-05 08:55,-119.8764,39.6682,1539.00,48.20,17.60,29.23,360.00,5.00,0.00,30.11,M,10.00,M,CLR,M,M,M,M,M,M,M,M,M,M,M,M,M,M,45.63,KRTS 050855Z AUTO 36005KT 10SM CLR 09/M08 A3011 RMK AO2,M
BAM,2021-10-05 08:55,-116.8743,40.5990,1382.36,46.40,12.20,24.71,170.00,3.00,0.00,30.07,M,10.00,M,CLR,M,M,M,M,M,M,M,M,M,M,M,M,M,M,45.15,KBAM 050855Z AUTO 17003KT 10SM CLR 08/M11 A3007 RMK AO1,M
NFL,2021-10-05 08:56,-118.7010,39.4166,1199.00,51.00,18.00,26.69,150.00,6.00,0.00,30.03,1014.00,6.00,M,CLR,M,M,M,M,M,M,M,HZ,M,M,M,M,M,M,51.10,KNFL 050856Z AUTO 15006KT 6SM HZ CLR 11/M08 A3003 RMK AO2 SLP140 T01061078 50003,M
TPH,2021-10-05 08:56,-117.0904,38.0505,1654.00,53.00,25.00,33.34,360.00,8.00,0.00,30.15,1014.60,10.00,M,CLR,M,M,M,M,M,M,M,M,M,M,M,M,M,M,53.10,KTPH 050856Z AUTO 36008KT 10SM CLR 12/M04 A3015 RMK AO2 SLP146 T01171039 58002,M
LAS,2021-10-05 08:56,-115.1634,36.0719,663.00,73.00,35.00,24.97,0.00,0.00,0.00,29.96,1012.20,10.00,M,FEW,BKN,BKN,M,12000.00,16000.00,25000.00,M,M,M,M,M,M,M,M,73.00,KLAS 050856Z 00000KT 10SM FEW120 BKN160 BKN250 23/02 A2996 RMK AO2 SLP122 T02280017 57001,M
EKO,2021-10-05 08:56,-115.7860,40.8242,1367.00,48.00,16.00,27.48,80.00,7.00,0.00,30.11,1015.30,10.00,M,CLR,M,M,M,M,M,M,M,M,M,M,M,M,M,M,44.28,KEKO 050856Z AUTO 08007KT 10SM CLR 09/M09 A3011 RMK AO2 SLP153 T00891089 50004,M
WMC,2021-10-05 08:56,-117.8072,40.9019,1315.00,43.00,15.10,31.94,140.00,3.00,0.00,30.05,1014.20,9.00,M,CLR,M,M,M,M,M,M,M,M,M,M,M,M,M,M,41.26,KWMC 050856Z AUTO 14003KT 9SM CLR 06/M09 A3005 RMK AO2 SLP142 T00611094 51004,M
HND,2021-10-05 08:56,-115.1344,35.9729,742.79,71.00,35.00,26.63,190.00,5.00,0.00,29.99,1014.80,10.00,M,FEW,M,M,M,11000.00,M,M,M,M,M,M,M,M,M,M,71.10,KHND 050856Z AUTO 19005KT 10SM FEW110 22/02 A2999 RMK AO2 SLP148 T02170017 58001,M
INS,2021-10-05 08:58,-115.6733,36.5872,955.00,63.00,27.70,26.03,0.00,0.00,0.00,30.01,1012.10,10.00,M,SCT,M,M,M,13000.00,M,M,M,M,M,M,M,M,M,M,63.10,KINS 050858Z AUTO 00000KT 10SM SCT130 17/M02 A3001 RMK AO2 SLP121 T01731024 58002 $,M
LSV,2021-10-05 08:58,-115.0343,36.2362,570.00,70.30,30.70,22.93,70.00,4.00,0.00,29.94,1011.80,10.00,M,M,M,M,M,M,M,M,M,M,M,M,M,M,M,M,70.30,KLSV 050858Z AUTO 07004KT 10SM M 21/M01 A2994 RMK AO2 SLP118 T02131007 50001 $,M
HTH,2021-10-05 09:15,-118.6315,38.5448,1282.89,59.00,23.00,24.76,190.00,5.00,0.00,30.06,M,10.00,M,CLR,M,M,M,M,M,M,M,M,M,M,M,M,M,M,59.00,KHTH 050915Z AUTO 19005KT 10SM CLR 15/M05 A3006 RMK A01,M
BAM,2021-10-05 09:15,-116.8743,40.5990,1382.36,44.60,12.20,26.45,0.00,0.00,0.00,30.08,M,10.00,M,CLR,M,M,M,M,M,M,M,M,M,M,M,M,M,M,44.60,KBAM 050915Z AUTO 00000KT 10SM CLR 07/M11 A3008 RMK AO1,M
BVU,2021-10-05 09:15,-114.8611,35.9475,671.00,69.80,39.20,32.72,350.00,5.00,0.00,29.96,M,10.00,M,FEW,M,M,M,12000.00,M,M,M,M,M,M,M,M,M,M,69.80,KBVU 050915Z AUTO 35005KT 10SM FEW120 21/04 A2996 RMK AO2,M
CXP,2021-10-05 09:15,-119.7326,39.1923,1431.00,48.20,24.80,39.66,0.00,0.00,0.00,30.10,M,10.00,M,FEW,SCT,M,M,9000.00,11000.00,M,M,M,M,M,M,M,M,M,48.20,KCXP 050915Z AUTO 00000KT 10SM FEW090 SCT110 09/M04 A3010 RMK AO2,M
RTS,2021-10-05 09:15,-119.8764,39.6682,1539.00,46.40,17.60,31.28,0.00,0.00,0.00,30.11,M,10.00,M,CLR,M,M,M,M,M,M,M,M,M,M,M,M,M,M,46.40,KRTS 050915Z AUTO 00000KT 10SM CLR 08/M08 A3011 RMK AO2,M
TMT,2021-10-05 09:15,-117.1971,39.4643,1749.34,35.40,9.70,33.85,0.00,0.00,0.00,30.16,M,10.00,M,CLR,M,M,M,M,M,M,M,M,M,M,M,M,M,M,35.40,KTMT 050915Z AUTO 00000KT 10SM CLR 02/M12 A3016 RMK AO2 T00191124,M
MEV,2021-10-05 09:15,-119.7500,38.9963,1441.42,39.20,21.20,48.10,120.00,5.00,0.00,30.09,M,10.00,M,BKN,OVC,M,M,8000.00,11000.00,M,M,M,M,M,M,M,M,M,34.95,KMEV 050915Z AUTO 12005KT 10SM BKN080 OVC110 04/M06 A3009 RMK AO2,M
BVU,2021-10-05 09:35,-114.8611,35.9475,671.00,69.80,37.40,30.49,0.00,0.00,0.00,29.95,M,10.00,M,CLR,M,M,M,M,M,M,M,M,M,M,M,M,M,M,69.80,KBVU 050935Z AUTO 00000KT 10SM CLR 21/03 A2995 RMK AO2,M
MEV,2021-10-05 09:35,-119.7500,38.9963,1441.42,41.00,23.00,48.39,40.00,3.00,0.00,30.08,M,10.00,M,OVC,M,M,M,8000.00,M,M,M,M,M,M,M,M,M,M,38.98,KMEV 050935Z AUTO 04003KT 10SM OVC080 05/M05 A3008 RMK AO2,M
BAM,2021-10-05 09:35,-116.8743,40.5990,1382.36,46.40,14.00,26.75,50.00,3.00,0.00,30.08,M,10.00,M,CLR,M,M,M,M,M,M,M,M,M,M,M,M,M,M,45.15,KBAM 050935Z AUTO 05003KT 10SM CLR 08/M10 A3008 RMK AO1,M
TMT,2021-10-05 09:35,-117.1971,39.4643,1749.34,36.50,12.00,35.90,0.00,0.00,0.00,30.16,M,10.00,M,CLR,M,M,M,M,M,M,M,M,M,M,M,M,M,M,36.50,KTMT 050935Z AUTO 00000KT 10SM CLR 03/M11 A3016 RMK AO2 T00251111,M
HTH,2021-10-05 09:35,-118.6315,38.5448,1282.89,59.00,24.80,26.70,250.00,5.00,0.00,30.05,M,10.00,M,FEW,M,M,M,4000.00,M,M,M,M,M,M,M,M,M,M,59.00,KHTH 050935Z AUTO 25005KT 10SM FEW040 15/M04 A3005 RMK A01,M
RTS,2021-10-05 09:35,-119.8764,39.6682,1539.00,46.40,17.60,31.28,0.00,0.00,0.00,30.11,M,10.00,M,CLR,M,M,M,M,M,M,M,M,M,M,M,M,M,M,46.40,KRTS 050935Z AUTO 00000KT 10SM CLR 08/M08 A3011 RMK AO2,M
CXP,2021-10-05 09:35,-119.7326,39.1923,1431.00,48.20,24.80,39.66,0.00,0.00,0.00,30.10,M,10.00,M,FEW,M,M,M,12000.00,M,M,M,M,M,M,M,M,M,M,48.20,KCXP 050935Z AUTO 00000KT 10SM FEW120 09/M04 A3010 RMK AO2,M
ELY,2021-10-05 09:53,-114.8453,39.2950,1909.00,43.00,26.10,50.98,230.00,6.00,0.00,30.20,1015.10,10.00,M,CLR,M,M,M,M,M,M,M,M,M,M,M,M,M,M,38.78,KELY 050953Z AUTO 23006KT 10SM CLR 06/M03 A3020 RMK AO2 SLP151 T00611033,M
VGT,2021-10-05 09:53,-115.1933,36.2111,667.00,73.00,40.00,30.16,0.00,0.00,T,29.93,1012.90,10.00,M,FEW,FEW,BKN,M,5500.00,7500.00,11000.00,M,M,M,M,M,M,M,M,73.00,KVGT 050953Z AUTO 00000KT 10SM FEW055 FEW075 BKN110 23/04 A2993 RMK AO2 RAB41E51 SLP129 P0000 T02280044,M
LOL,2021-10-05 09:53,-118.5701,40.0684,1192.43,45.00,19.00,35.02,310.00,6.00,0.00,30.03,1014.40,8.00,M,CLR,M,M,M,M,M,M,M,M,M,M,M,M,M,M,41.19,KLOL 050953Z AUTO 31006KT 8SM CLR 07/M07 A3003 RMK AO2 SLP144 T00721072,M
DRA,2021-10-05 09:53,-116.0278,36.6206,1009.00,62.00,28.90,28.33,0.00,0.00,0.00,30.00,1011.60,10.00,M,CLR,M,M,M,M,M,M,M,M,M,M,M,M,M,M,62.10,KDRA 050953Z AUTO 00000KT 10SM CLR 17/M02 A3000 RMK AO2 SLP116 T01671017,M
P68,2021-10-05 09:53,-116.0056,39.6014,1993.00,46.00,21.90,38.15,180.00,8.00,0.00,30.15,1014.50,M,M,M,M,M,M,M,M,M,M,M,M,M,M,M,M,M,41.36,KP68 050953Z AUTO 18008KT 08/M06 A3015 RMK AO1 SLP145 T00781056,M
HTH,2021-10-05 09:55,-118.6315,38.5448,1282.89,59.00,24.80,26.70,230.00,3.00,0.00,30.05,M,10.00,M,FEW,M,M,M,4100.00,M,M,M,M,M,M,M,M,M,M,59.00,KHTH 050955Z AUTO 23003KT 10SM FEW041 15/M04 A3005 RMK A01,M
TMT,2021-10-05 09:55,-117.1971,39.4643,1749.34,38.70,13.80,35.65,0.00,0.00,0.00,30.15,M,10.00,M,CLR,M,M,M,M,M,M,M,M,M,M,M,M,M,M,38.70,KTMT 050955Z AUTO 00000KT 10SM CLR 04/M10 A3015 RMK AO2 T00371101,M
RNO,2021-10-05 09:55,-119.7711,39.4839,1341.00,50.00,28.90,43.92,0.00,0.00,0.00,30.06,1013.80,10.00,M,FEW,M,M,M,20000.00,M,M,M,M,M,M,M,M,M,M,50.00,KRNO 050955Z 00000KT 10SM FEW200 10/M02 A3006 RMK AO2 SLP138 FU ALF ALQDS T01001017,M
CXP,2021-10-05 09:55,-119.7326,39.1923,1431.00,48.20,24.80,39.66,0.00,0.00,0.00,30.09,M,10.00,M,FEW,M,M,M,12000.00,M,M,M,M,M,M,M,M,M,M,48.20,KCXP 050955Z AUTO 00000KT 10SM FEW120 09/M04 A3009 RMK AO2,M
RTS,2021-10-05 09:55,-119.8764,39.6682,1539.00,50.00,19.40,29.52,0.00,0.00,0.00,30.10,M,10.00,M,CLR,M,M,M,M,M,M,M,M,M,M,M,M,M,M,50.00,KRTS 050955Z AUTO 00000KT 10SM CLR 10/M07 A3010 RMK AO2,M
MEV,2021-10-05 09:55,-119.7500,38.9963,1441.42,39.20,23.00,51.89,0.00,0.00,0.00,30.08,M,10.00,M,OVC,M,M,M,7500.00,M,M,M,M,M,M,M,M,M,M,39.20,KMEV 050955Z AUTO 00000KT 10SM OVC075 04/M05 A3008 RMK AO2,M
BVU,2021-10-05 09:55,-114.8611,35.9475,671.00,68.00,41.00,37.32,340.00,3.00,0.00,29.95,M,10.00,M,CLR,M,M,M,M,M,M,M,M,M,M,M,M,M,M,68.00,KBVU 050955Z AUTO 34003KT 10SM CLR 20/05 A2995 RMK AO2,M
BAM,2021-10-05 09:55,-116.8743,40.5990,1382.36,42.80,12.20,28.34,0.00,0.00,0.00,30.08,M,10.00,M,CLR,M,M,M,M,M,M,M,M,M,M,M,M,M,M,42.80,KBAM 050955Z AUTO 00000KT 10SM CLR 06/M11 A3008 RMK AO1,M
LAS,2021-10-05 09:56,-115.1634,36.0719,663.00,74.00,36.00,25.11,0.00,0.00,T,29.95,1011.90,10.00,M,FEW,BKN,OVC,M,11000.00,13000.00,16000.00,M,M,M,M,M,M,M,M,73.90,KLAS 050956Z 00000KT 10SM FEW110 BKN130 OVC160 23/02 A2995 RMK AO2 RAB19E28 SLP119 P0000 T02330022,M
HND,2021-10-05 09:56,-115.1344,35.9729,742.79,70.00,35.00,27.65,160.00,4.00,0.00,29.98,1014.50,10.00,M,FEW,M,M,M,12000.00,M,M,M,M,M,M,M,M,M,M,70.00,KHND 050956Z AUTO 16004KT 10SM FEW120 21/02 A2998 RMK AO2 SLP145 T02110017,M
WMC,2021-10-05 09:56,-117.8072,40.9019,1315.00,43.00,15.10,31.94,150.00,5.00,0.00,30.05,1014.10,9.00,M,CLR,M,M,M,M,M,M,M,M,M,M,M,M,M,M,39.46,KWMC 050956Z AUTO 15005KT 9SM CLR 06/M09 A3005 RMK AO2 SLP141 T00611094,M
NFL,2021-10-05 09:56,-118.7010,39.4166,1199.00,52.00,18.00,25.82,180.00,3.00,0.00,30.02,1013.60,8.00,M,CLR,M,M,M,M,M,M,M,M,M,M,M,M,M,M,52.00,KNFL 050956Z AUTO 18003KT 8SM CLR 11/M08 A3002 RMK AO2 SLP136 T01111078,M
EKO,2021-10-05 09:56,-115.7860,40.8242,1367.00,48.00,16.00,27.48,80.00,8.00,0.00,30.10,1015.00,10.00,M,CLR,M,M,M,M,M,M,M,M,M,M,M,M,M,M,43.82,KEKO 050956Z AUTO 08008KT 10SM CLR 09/M09 A3010 RMK AO2 SLP150 T00891089,M
TPH,2021-10-05 09:56,-117.0904,38.0505,1654.00,51.00,26.10,37.57,10.00,9.00,0.00,30.13,1014.20,10.00,M,CLR,M,M,M,M,M,M,M,M,M,M,M,M,M,M,51.10,KTPH 050956Z AUTO 01009KT 10SM CLR 11/M03 A3013 RMK AO2 SLP142 T01061033,M
LSV,2021-10-05 09:58,-115.0343,36.2362,570.00,71.00,31.30,23.02,0.00,0.00,0.00,29.93,1011.40,10.00,M,BKN,M,M,M,11000.00,M,M,M,M,M,M,M,M,M,M,70.90,KLSV 050958Z AUTO 00000KT 10SM BKN110 22/M00 A2993 RMK AO2 SLP114 T02161004 $,M
INS,2021-10-05 09:58,-115.6733,36.5872,955.00,60.60,26.40,26.95,280.00,4.00,0.00,30.00,1011.90,10.00,M,FEW,BKN,M,M,12000.00,14000.00,M,M,M,M,M,M,M,M,M,60.60,KINS 050958Z AUTO 28004KT 10SM FEW120 BKN140 16/M03 A3000 RMK AO2 SLP119 T01591031 $,M
BVU,2021-10-05 10:15,-114.8611,35.9475,671.00,69.80,42.80,37.61,40.00,3.00,0.00,29.95,M,10.00,M,BKN,M,M,M,12000.00,M,M,M,M,M,M,M,M,M,M,69.80,KBVU 051015Z AUTO 04003KT 10SM BKN120 21/06 A2995 RMK AO2,M
TMT,2021-10-05 10:15,-117.1971,39.4643,1749.34,39.20,14.90,36.68,0.00,0.00,0.00,30.14,M,10.00,M,CLR,M,M,M,M,M,M,M,M,M,M,M,M,M,M,39.20,KTMT 051015Z AUTO 00000KT 10SM CLR 04/M09 A3014 RMK AO2 T00401095,M
RTS,2021-10-05 10:15,-119.8764,39.6682,1539.00,46.40,17.60,31.28,M,3.00,0.00,30.09,M,10.00,M,CLR,M,M,M,M,M,M,M,M,M,M,M,M,M,M,45.15,KRTS 051015Z AUTO VRB03KT 10SM CLR 08/M08 A3009 RMK AO2,M
HTH,2021-10-05 10:15,-118.6315,38.5448,1282.89,57.20,26.60,30.69,220.00,6.00,0.00,30.05,M,10.00,M,CLR,M,M,M,M,M,M,M,M,M,M,M,M,M,M,57.20,KHTH 051015Z AUTO 22006KT 10SM CLR 14/M03 A3005 RMK A01,M
BAM,2021-10-05 10:15,-116.8743,40.5990,1382.36,42.80,10.40,26.16,70.00,3.00,0.00,30.07,M,10.00,M,CLR,M,M,M,M,M,M,M,M,M,M,M,M,M,M,41.03,KBAM 051015Z AUTO 07003KT 10SM CLR 06/M12 A3007 RMK AO1,M
MEV,2021-10-05 10:15,-119.7500,38.9963,1441.42,41.00,24.80,52.17,0.00,0.00,0.00,30.07,M,10.00,M,BKN,OVC,M,M,7500.00,12000.00,M,M,M,M,M,M,M,M,M,41.00,KMEV 051015Z AUTO 00000KT 10SM BKN075 OVC120 05/M04 A3007 RMK AO2,M
CXP,2021-10-05 10:15,-119.7326,39.1923,1431.00,48.20,24.80,39.66,0.00,0.00,0.00,30.09,M,10.00,M,FEW,M,M,M,11000.00,M,M,M,M,M,M,M,M,M,M,48.20,KCXP 051015Z AUTO 00000KT 10SM FEW110 09/M04 A3009 RMK AO2,M
BAM,2021-10-05 10:35,-116.8743,40.5990,1382.36,42.80,10.40,26.16,110.00,5.00,0.00,30.07,M,10.00,M,CLR,M,M,M,M,M,M,M,M,M,M,M,M,M,M,39.22,KBAM 051035Z AUTO 11005KT 10SM CLR 06/M12 A3007 RMK AO1,M
HTH,2021-10-05 10:35,-118.6315,38.5448,1282.89,59.00,26.60,28.77,240.00,5.00,0.00,30.05,M,10.00,M,CLR,M,M,M,M,M,M,M,M,M,M,M,M,M,M,59.00,KHTH 051035Z AUTO 24005KT 10SM CLR 15/M03 A3005 RMK A01,M
RTS,2021-10-05 10:35,-119.8764,39.6682,1539.00,44.60,17.60,33.49,0.00,0.00,0.00,30.09,M,10.00,M,CLR,M,M,M,M,M,M,M,M,M,M,M,M,M,M,44.60,KRTS 051035Z AUTO 00000KT 10SM CLR 07/M08 A3009 RMK AO2,M
CXP,2021-10-05 10:35,-119.7326,39.1923,1431.00,44.60,24.80,45.44,0.00,0.00,0.00,30.08,M,10.00,M,FEW,M,M,M,11000.00,M,M,M,M,M,M,M,M,M,M,44.60,KCXP 051035Z AUTO 00000KT 10SM FEW110 07/M04 A3008 RMK AO2,M
BVU,2021-10-05 10:35,-114.8611,35.9475,671.00,71.60,37.40,28.68,350.00,4.00,0.00,29.94,M,10.00,M,OVC,M,M,M,12000.00,M,M,M,M,M,M,M,M,M,M,71.60,KBVU 051035Z AUTO 35004KT 10SM OVC120 22/03 A2994 RMK AO2,M
TMT,2021-10-05 10:35,-117.1971,39.4643,1749.34,40.80,16.70,37.27,0.00,0.00,0.00,30.14,M,10.00,M,CLR,M,M,M,M,M,M,M,M,M,M,M,M,M,M,40.80,KTMT 051035Z AUTO 00000KT 10SM CLR 05/M08 A3014 RMK AO2 T00491085,M
MEV,2021-10-05 10:35,-119.7500,38.9963,1441.42,41.00,24.80,52.17,0.00,0.00,0.00,30.07,M,10.00,M,FEW,OVC,M,M,7500.00,11000.00,M,M,M,M,M,M,M,M,M,41.00,KMEV 051035Z AUTO 00000KT 10SM FEW075 OVC110 05/M04 A3007 RMK AO2,M
LOL,2021-10-05 10:53,-118.5701,40.0684,1192.43,40.00,19.90,44.29,100.00,5.00,0.00,30.02,1014.30,7.00,M,CLR,M,M,M,M,M,M,M,M,M,M,M,M,M,M,35.78,KLOL 051053Z AUTO 10005KT 7SM CLR 04/M07 A3002 RMK AO2 SLP143 T00441067,M
DRA,2021-10-05 10:53,-116.0278,36.6206,1009.00,61.00,28.00,28.38,340.00,4.00,0.00,29.99,1011.40,10.00,M,CLR,M,M,M,M,M,M,M,M,M,M,M,M,M,M,61.00,KDRA 051053Z AUTO 34004KT 10SM CLR 16/M02 A2999 RMK AO2 SLP114 T01611022,M
VGT,2021-10-05 10:53,-115.1933,36.2111,667.00,72.00,40.00,31.20,0.00,0.00,0.00,29.92,1012.60,10.00,M,SCT,M,M,M,12000.00,M,M,M,M,M,M,M,M,M,M,72.00,KVGT 051053Z AUTO 00000KT 10SM SCT120 22/04 A2992 RMK AO2 SLP126 T02220044,M
P68,2021-10-05 10:53,-116.0056,39.6014,1993.00,41.00,23.00,48.39,170.00,5.00,0.00,30.14,1014.90,M,M,M,M,M,M,M,M,M,M,M,M,M,M,M,M,M,37.08,KP68 051053Z AUTO 17005KT 05/M05 A3014 RMK AO1 SLP149 T00501050,M
ELY,2021-10-05 10:53,-114.8453,39.2950,1909.00,42.00,26.10,52.78,170.00,10.00,0.00,30.19,1014.80,10.00,M,CLR,M,M,M,M,M,M,M,M,M,M,M,M,M,M,35.63,KELY 051053Z AUTO 17010KT 10SM CLR 06/M03 A3019 RMK AO2 SLP148 T00561033,M
BAM,2021-10-05 10:55,-116.8743,40.5990,1382.36,44.60,12.20,26.45,350.00,5.00,0.00,30.08,M,10.00,M,CLR,M,M,M,M,M,M,M,M,M,M,M,M,M,M,41.36,KBAM 051055Z AUTO 35005KT 10SM CLR 07/M11 A3008 RMK AO1,M
HTH,2021-10-05 10:55,-118.6315,38.5448,1282.89,57.20,26.60,30.69,0.00,0.00,0.00,30.04,M,10.00,M,CLR,M,M,M,M,M,M,M,M,M,M,M,M,M,M,57.20,KHTH 051055Z AUTO 00000KT 10SM CLR 14/M03 A3004 RMK A01,M
CXP,2021-10-05 10:55,-119.7326,39.1923,1431.00,44.60,24.80,45.44,0.00,0.00,0.00,30.08,M,10.00,M,FEW,M,M,M,12000.00,M,M,M,M,M,M,M,M,M,M,44.60,KCXP 051055Z AUTO 00000KT 10SM FEW120 07/M04 A3008 RMK AO2,M
RTS,2021-10-05 10:55,-119.8764,39.6682,1539.00,44.60,17.60,33.49,M,4.00,0.00,30.09,M,10.00,M,SCT,M,M,M,4200.00,M,M,M,M,M,M,M,M,M,M,42.13,KRTS 051055Z AUTO VRB04KT 10SM SCT042 07/M08 A3009 RMK AO2,M
MEV,2021-10-05 10:55,-119.7500,38.9963,1441.42,39.20,21.20,48.10,100.00,5.00,0.00,30.07,M,9.00,M,OVC,M,M,M,11000.00,M,M,M,M,M,M,M,M,M,M,34.95,KMEV 051055Z AUTO 10005KT 9SM OVC110 04/M06 A3007 RMK AO2,M
RNO,2021-10-05 10:55,-119.7711,39.4839,1341.00,50.00,30.00,45.93,0.00,0.00,0.00,30.06,1013.40,10.00,M,FEW,M,M,M,20000.00,M,M,M,M,M,M,M,M,M,M,50.00,KRNO 051055Z 00000KT 10SM FEW200 10/M01 A3006 RMK AO2 SLP134 FU ALF ALQDS T01001011,M
BVU,2021-10-05 10:55,-114.8611,35.9475,671.00,69.80,39.20,32.72,0.00,0.00,0.00,29.94,M,10.00,M,BKN,M,M,M,12000.00,M,M,M,M,M,M,M,M,M,M,69.80,KBVU 051055Z AUTO 00000KT 10SM BKN120 21/04 A2994 RMK AO2 LTG DSNT SE,M
TMT,2021-10-05 10:55,-117.1971,39.4643,1749.34,37.00,13.30,37.42,0.00,0.00,0.00,30.14,M,10.00,M,CLR,M,M,M,M,M,M,M,M,M,M,M,M,M,M,36.90,KTMT 051055Z AUTO 00000KT 10SM CLR 03/M10 A3014 RMK AO2 T00271104,M
NFL,2021-10-05 10:56,-118.7010,39.4166,1199.00,52.00,19.00,26.95,200.00,4.00,0.00,30.02,1013.40,8.00,M,CLR,M,M,M,M,M,M,M,M,M,M,M,M,M,M,52.00,KNFL 051056Z AUTO 20004KT 8SM CLR 11/M07 A3002 RMK AO2 SLP134 T01111072,M
LAS,2021-10-05 10:56,-115.1634,36.0719,663.00,73.00,37.00,26.92,270.00,3.00,0.00,29.94,1011.30,10.00,M,BKN,OVC,M,M,12000.00,16000.00,M,M,M,M,M,M,M,M,M,73.00,KLAS 051056Z 27003KT 10SM BKN120 OVC160 23/03 A2994 RMK AO2 SLP113 T02280028,M
HND,2021-10-05 10:56,-115.1344,35.9729,742.79,70.00,37.00,29.81,160.00,3.00,0.00,29.96,1013.90,10.00,M,OVC,M,M,M,12000.00,M,M,M,M,M,M,M,M,M,M,70.00,KHND 051056Z AUTO 16003KT 10SM OVC120 21/03 A2996 RMK AO2 SLP139 T02110028,M
TPH,2021-10-05 10:56,-117.0904,38.0505,1654.00,51.00,26.10,37.57,10.00,10.00,0.00,30.12,1014.20,10.00,M,CLR,M,M,M,M,M,M,M,M,M,M,M,M,M,M,51.10,KTPH 051056Z AUTO 01010KT 10SM CLR 11/M03 A3012 RMK AO2 SLP142 T01061033,M
EKO,2021-10-05 10:56,-115.7860,40.8242,1367.00,45.00,14.00,28.20,60.00,6.00,0.00,30.10,1015.20,10.00,M,CLR,M,M,M,M,M,M,M,M,M,M,M,M,M,M,41.19,KEKO 051056Z AUTO 06006KT 10SM CLR 07/M10 A3010 RMK AO2 SLP152 T00721100,M
WMC,2021-10-05 10:57,-117.8072,40.9019,1315.00,39.00,14.00,35.54,150.00,6.00,0.00,30.04,1014.10,9.00,M,M,M,M,M,M,M,M,M,M,M,M,M,M,M,M,33.96,KWMC 051057Z AUTO 15006KT 9SM 04/M10 A3004 RMK AO2 SLP141 T00391100 $,M
INS,2021-10-05 10:58,-115.6733,36.5872,955.00,61.50,27.10,26.87,0.00,0.00,0.00,29.99,1011.40,10.00,M,SCT,M,M,M,11000.00,M,M,M,M,M,M,M,M,M,M,61.50,KINS 051058Z AUTO 00000KT 10SM SCT110 16/M03 A2999 RMK AO2 SLP114 T01641027 $,M
LSV,2021-10-05 10:58,-115.0343,36.2362,570.00,69.30,30.90,23.92,0.00,0.00,0.00,29.92,1011.10,10.00,M,OVC,M,M,M,11000.00,M,M,M,M,M,M,M,M,M,M,69.30,KLSV 051058Z AUTO 00000KT 10SM OVC110 21/M01 A2992 RMK AO2 SLP111 T02071006 $,M
BAM,2021-10-05 11:15,-116.8743,40.5990,1382.36,44.60,12.20,26.45,350.00,3.00,0.00,30.07,M,10.00,M,CLR,M,M,M,M,M,M,M,M,M,M,M,M,M,M,43.09,KBAM 051115Z AUTO 35003KT 10SM CLR 07/M11 A3007 RMK AO1,M
RTS,2021-10-05 11:15,-119.8764,39.6682,1539.00,48.20,19.40,31.57,M,4.00,0.00,30.08,M,10.00,M,SCT,M,M,M,4200.00,M,M,M,M,M,M,M,M,M,M,46.34,KRTS 051115Z AUTO VRB04KT 10SM SCT042 09/M07 A3008 RMK AO2,M
HTH,2021-10-05 11:15,-118.6315,38.5448,1282.89,57.20,24.80,28.48,280.00,5.00,0.00,30.04,M,10.00,M,CLR,M,M,M,M,M,M,M,M,M,M,M,M,M,M,57.20,KHTH 051115Z AUTO 28005KT 10SM CLR 14/M04 A3004 RMK A01,M
MEV,2021-10-05 11:15,-119.7500,38.9963,1441.42,39.20,23.00,51.89,220.00,4.00,0.00,30.07,M,9.00,M,OVC,M,M,M,11000.00,M,M,M,M,M,M,M,M,M,M,35.83,KMEV 051115Z AUTO 22004KT 9SM OVC110 04/M05 A3007 RMK AO2,M
BVU,2021-10-05 11:15,-114.8611,35.9475,671.00,68.00,41.00,37.32,30.00,3.00,0.00,29.94,M,10.00,M,CLR,M,M,M,M,M,M,M,M,M,M,M,M,M,M,68.00,KBVU 051115Z AUTO 03003KT 10SM CLR 20/05 A2994 RMK AO2,M
CXP,2021-10-05 11:15,-119.7326,39.1923,1431.00,46.40,24.80,42.44,0.00,0.00,0.00,30.08,M,10.00,M,BKN,M,M,M,11000.00,M,M,M,M,M,M,M,M,M,M,46.40,KCXP 051115Z AUTO 00000KT 10SM BKN110 08/M04 A3008 RMK AO2,M
TMT,2021-10-05 11:15,-117.1971,39.4643,1749.34,39.60,14.70,35.80,300.00,3.00,0.00,30.14,M,10.00,M,CLR,M,M,M,M,M,M,M,M,M,M,M,M,M,M,37.38,KTMT 051115Z AUTO 30003KT 10SM CLR 04/M10 A3014 RMK AO2 T00421096,M
RTS,2021-10-05 11:25,-119.8764,39.6682,1539.00,46.40,19.40,33.79,0.00,0.00,0.00,30.09,M,10.00,M,SCT,M,M,M,4300.00,M,M,M,M,M,M,M,M,M,M,46.40,KRTS 051125Z AUTO 00000KT 10SM SCT043 08/M07 A3009 RMK AO2,M
MEV,2021-10-05 11:35,-119.7500,38.9963,1441.42,35.60,23.00,59.79,0.00,0.00,0.00,30.07,M,9.00,M,OVC,M,M,M,11000.00,M,M,M,M,M,M,M,M,M,M,35.60,KMEV 051135Z AUTO 00000KT 9SM OVC110 02/M05 A3007 RMK AO2,M
CXP,2021-10-05 11:35,-119.7326,39.1923,1431.00,44.60,24.80,45.44,0.00,0.00,0.00,30.08,M,10.00,M,FEW,OVC,M,M,6000.00,11000.00,M,M,M,M,M,M,M,M,M,44.60,KCXP 051135Z AUTO 00000KT 10SM FEW060 OVC110 07/M04 A3008 RMK AO2,M
TMT,2021-10-05 11:35,-117.1971,39.4643,1749.34,37.20,14.20,38.48,0.00,0.00,0.00,30.15,M,10.00,M,CLR,M,M,M,M,M,M,M,M,M,M,M,M,M,M,37.20,KTMT 051135Z AUTO 00000KT 10SM CLR 03/M10 A3015 RMK AO2 T00291099,M
HTH,2021-10-05 11:35,-118.6315,38.5448,1282.89,57.20,24.80,28.48,0.00,0.00,0.00,30.05,M,10.00,M,CLR,M,M,M,M,M,M,M,M,M,M,M,M,M,M,57.20,KHTH 051135Z AUTO 00000KT 10SM CLR 14/M04 A3005 RMK A01,M
BAM,2021-10-05 11:35,-116.8743,40.5990,1382.36,42.80,14.00,30.68,320.00,3.00,0.00,30.07,M,10.00,M,CLR,M,M,M,M,M,M,M,M,M,M,M,M,M,M,41.03,KBAM 051135Z AUTO 32003KT 10SM CLR 06/M10 A3007 RMK AO1,M
BVU,2021-10-05 11:35,-114.8611,35.9475,671.00,68.00,39.20,34.80,30.00,3.00,0.00,29.94,M,10.00,M,CLR,M,M,M,M,M,M,M,M,M,M,M,M,M,M,68.00,KBVU 051135Z AUTO 03003KT 10SM CLR 20/04 A2994 RMK AO2 LTG DSNT S,M
ELY,2021-10-05 11:53,-114.8453,39.2950,1909.00,41.00,26.10,55.07,170.00,9.00,0.00,30.18,1014.80,10.00,M,CLR,M,M,M,M,M,M,M,M,M,M,M,M,M,M,34.70,KELY 051153Z AUTO 17009KT 10SM CLR 05/M03 A3018 RMK AO2 SLP148 T00501033 10133 20050 56007,M
DRA,2021-10-05 11:53,-116.0278,36.6206,1009.00,60.00,28.90,30.41,0.00,0.00,0.00,29.99,1011.40,10.00,M,CLR,M,M,M,M,M,M,M,M,M,M,M,M,M,M,60.10,KDRA 051153Z AUTO 00000KT 10SM CLR 16/M02 A2999 RMK AO2 SLP114 T01561017 10194 20144 56006,M
LOL,2021-10-05 11:53,-118.5701,40.0684,1192.43,39.00,17.10,40.67,0.00,0.00,0.00,30.02,1014.40,8.00,M,CLR,M,M,M,M,M,M,M,M,M,M,M,M,M,M,39.00,KLOL 051153Z AUTO 00000KT 8SM CLR 04/M08 A3002 RMK AO2 SLP144 T00391083 10122 20033 56005,M
P68,2021-10-05 11:53,-116.0056,39.6014,1993.00,43.00,24.10,46.91,170.00,6.00,0.00,30.15,1015.20,M,M,M,M,M,M,M,M,M,M,M,M,M,M,M,M,M,38.78,KP68 051153Z AUTO 17006KT 06/M04 A3015 RMK AO1 SLP152 T00611044 10139 20050 55004,M
VGT,2021-10-05 11:53,-115.1933,36.2111,667.00,72.00,41.00,32.56,340.00,4.00,0.00,29.92,1012.70,10.00,M,FEW,M,M,M,11000.00,M,M,M,M,M,M,M,M,M,M,72.00,KVGT 051153Z AUTO 34004KT 10SM FEW110 22/05 A2992 RMK AO2 SLP127 60000 T02220050 10250 20217 55004,M
BAM,2021-10-05 11:55,-116.8743,40.5990,1382.36,44.60,14.00,28.64,0.00,0.00,0.00,30.07,M,10.00,M,CLR,M,M,M,M,M,M,M,M,M,M,M,M,M,M,44.60,KBAM 051155Z AUTO 00000KT 10SM CLR 07/M10 A3007 RMK AO1,M
BVU,2021-10-05 11:55,-114.8611,35.9475,671.00,68.00,41.00,37.32,0.00,0.00,0.00,29.95,M,10.00,M,SCT,M,M,M,11000.00,M,M,M,M,M,M,M,M,M,M,68.00,KBVU 051155Z AUTO 00000KT 10SM SCT110 20/05 A2995 RMK AO2 LTG DSNT SE AND S,M
HTH,2021-10-05 11:55,-118.6315,38.5448,1282.89,57.20,26.60,30.69,200.00,5.00,0.00,30.05,M,10.00,M,CLR,M,M,M,M,M,M,M,M,M,M,M,M,M,M,57.20,KHTH 051155Z AUTO 20005KT 10SM CLR 14/M03 A3005 RMK A01,M
CXP,2021-10-05 11:55,-119.7326,39.1923,1431.00,44.60,26.60,48.96,0.00,0.00,0.00,30.08,M,10.00,M,OVC,M,M,M,11000.00,M,M,M,M,M,M,M,M,M,M,44.60,KCXP 051155Z AUTO 00000KT 10SM OVC110 07/M03 A3008 RMK AO2,M
TMT,2021-10-05 11:55,-117.1971,39.4643,1749.34,34.20,11.70,38.81,0.00,0.00,0.00,30.15,M,10.00,M,CLR,M,M,M,M,M,M,M,M,M,M,M,M,M,M,34.20,KTMT 051155Z AUTO 00000KT 10SM CLR 01/M11 A3015 RMK AO2 T00121113 10076 20012,M
RNO,2021-10-05 11:55,-119.7711,39.4839,1341.00,48.00,30.00,49.49,0.00,0.00,0.00,30.05,1013.60,10.00,M,FEW,M,M,M,20000.00,M,M,M,M,M,M,M,M,M,M,48.00,KRNO 051155Z 00000KT 10SM FEW200 09/M01 A3005 RMK AO2 SLP136 FU ALF ALQDS T00891011 10144 20089 56008,M
RTS,2021-10-05 11:55,-119.8764,39.6682,1539.00,39.20,17.60,41.24,M,3.00,0.00,30.09,M,10.00,M,BKN,M,M,M,4300.00,M,M,M,M,M,M,M,M,M,M,36.92,KRTS 051155Z AUTO VRB03KT 10SM BKN043 04/M08 A3009 RMK AO2,M
MEV,2021-10-05 11:55,-119.7500,38.9963,1441.42,39.20,24.80,55.95,120.00,3.00,0.00,30.07,M,8.00,M,OVC,M,M,M,11000.00,M,M,M,M,M,M,M,M,M,M,36.92,KMEV 051155Z AUTO 12003KT 8SM OVC110 04/M04 A3007 RMK AO2,M
EKO,2021-10-05 11:56,-115.7860,40.8242,1367.00,43.00,15.10,31.94,50.00,4.00,0.00,30.11,1016.20,10.00,M,CLR,M,M,M,M,M,M,M,M,M,M,M,M,M,M,40.27,KEKO 051156Z AUTO 05004KT 10SM CLR 06/M09 A3011 RMK AO2 SLP162 7//// T00611094 10122 20061 53001,M
WMC,2021-10-05 11:56,-117.8072,40.9019,1315.00,38.00,12.00,33.97,150.00,6.00,0.00,30.04,1014.50,8.00,M,CLR,M,M,M,M,M,M,M,M,M,M,M,M,M,M,32.64,KWMC 051156Z AUTO 15006KT 8SM CLR 03/M11 A3004 RMK AO2 SLP145 T00331111 10133 20033 $,M
NFL,2021-10-05 11:56,-118.7010,39.4166,1199.00,49.00,19.90,31.42,210.00,4.00,0.00,30.02,1013.60,8.00,M,CLR,M,M,M,M,M,M,M,M,M,M,M,M,M,M,47.16,KNFL 051156Z AUTO 21004KT 8SM CLR 09/M07 A3002 RMK AO2 SLP136 T00941067 10122 20094 55004,M
LAS,2021-10-05 11:56,-115.1634,36.0719,663.00,72.00,37.00,27.85,210.00,3.00,0.00,29.94,1011.70,10.00,M,SCT,OVC,M,M,12000.00,16000.00,M,M,M,M,M,M,M,M,M,72.00,KLAS 051156Z 21003KT 10SM SCT120 OVC160 22/03 A2994 RMK AO2 SLP117 60000 T02220028 10256 20222 55004,M
TPH,2021-10-05 11:56,-117.0904,38.0505,1654.00,49.00,26.10,40.77,350.00,9.00,0.00,30.13,1014.60,10.00,M,CLR,M,M,M,M,M,M,M,M,M,M,M,M,M,M,44.53,KTPH 051156Z AUTO 35009KT 10SM CLR 09/M03 A3013 RMK AO2 SLP146 T00941033 10144 20094 55006,M
HND,2021-10-05 11:56,-115.1344,35.9729,742.79,68.00,36.00,30.69,200.00,5.00,0.00,29.97,1014.20,10.00,M,SCT,M,M,M,11000.00,M,M,M,M,M,M,M,M,M,M,68.00,KHND 051156Z AUTO 20005KT 10SM SCT110 20/02 A2997 RMK AO2 SLP142 T02000022 10222 20200 55005,M
INS,2021-10-05 11:58,-115.6733,36.5872,955.00,60.00,26.80,28.09,0.00,0.00,0.00,30.00,1011.90,10.00,M,BKN,M,M,M,11000.00,M,M,M,M,M,M,M,M,M,M,59.90,KINS 051158Z AUTO 00000KT 10SM BKN110 16/M03 A3000 RMK AO2 SLP119 T01551029 10197 20154 55004 $,M
LSV,2021-10-05 11:58,-115.0343,36.2362,570.00,72.30,33.40,23.89,0.00,0.00,0.00,29.92,1011.00,10.00,M,BKN,M,M,M,12000.00,M,M,M,M,M,M,M,M,M,M,72.30,KLSV 051158Z 00000KT 10SM BKN120 22/01 A2992 RMK AO2A SLP110 T02240008 10243 20205 55006 $,M
BVU,2021-10-05 12:15,-114.8611,35.9475,671.00,69.80,37.40,30.49,0.00,0.00,0.00,29.95,M,10.00,M,FEW,M,M,M,11000.00,M,M,M,M,M,M,M,M,M,M,69.80,KBVU 051215Z AUTO 00000KT 10SM FEW110 21/03 A2995 RMK AO2 LTG DSNT SE AND SW,M
TMT,2021-10-05 12:15,-117.1971,39.4643,1749.34,33.00,16.30,49.62,0.00,0.00,0.00,30.15,M,10.00,M,CLR,M,M,M,M,M,M,M,M,M,M,M,M,M,M,33.10,KTMT 051215Z AUTO 00000KT 10SM CLR 01/M09 A3015 RMK AO2 T00061087,M
BAM,2021-10-05 12:15,-116.8743,40.5990,1382.36,41.00,12.20,30.38,140.00,3.00,0.00,30.08,M,10.00,M,CLR,M,M,M,M,M,M,M,M,M,M,M,M,M,M,38.98,KBAM 051215Z AUTO 14003KT 10SM CLR 05/M11 A3008 RMK AO1,M
MEV,2021-10-05 12:15,-119.7500,38.9963,1441.42,41.00,24.80,52.17,130.00,3.00,0.00,30.07,M,8.00,M,FEW,OVC,M,M,7000.00,11000.00,M,M,M,M,M,M,M,M,M,38.98,KMEV 051215Z AUTO 13003KT 8SM FEW070 OVC110 05/M04 A3007 RMK AO2,M
RTS,2021-10-05 12:15,-119.8764,39.6682,1539.00,39.20,15.80,38.15,M,5.00,0.00,30.09,M,10.00,M,FEW,M,M,M,4200.00,M,M,M,M,M,M,M,M,M,M,34.95,KRTS 051215Z AUTO VRB05KT 10SM FEW042 04/M09 A3009 RMK AO2,M
HTH,2021-10-05 12:15,-118.6315,38.5448,1282.89,55.40,24.80,30.40,210.00,4.00,0.00,30.05,M,10.00,M,FEW,M,M,M,4600.00,M,M,M,M,M,M,M,M,M,M,55.40,KHTH 051215Z AUTO 21004KT 10SM FEW046 13/M04 A3005 RMK A01,M
CXP,2021-10-05 12:15,-119.7326,39.1923,1431.00,42.80,26.60,52.45,0.00,0.00,0.00,30.08,M,10.00,M,BKN,M,M,M,11000.00,M,M,M,M,M,M,M,M,M,M,42.80,KCXP 051215Z AUTO 00000KT 10SM BKN110 06/M03 A3008 RMK AO2,M
BVU,2021-10-05 12:35,-114.8611,35.9475,671.00,66.20,39.20,37.03,0.00,0.00,0.00,29.95,M,10.00,M,FEW,M,M,M,12000.00,M,M,M,M,M,M,M,M,M,M,66.20,KBVU 051235Z AUTO 00000KT 10SM FEW120 19/04 A2995 RMK AO2 LTG DSNT SE-SW,M
TMT,2021-10-05 12:35,-117.1971,39.4643,1749.34,33.60,12.40,41.01,0.00,0.00,0.00,30.15,M,10.00,M,CLR,M,M,M,M,M,M,M,M,M,M,M,M,M,M,33.60,KTMT 051235Z AUTO 00000KT 10SM CLR 01/M11 A3015 RMK AO2 LTG DSNT S T00091109,M
RTS,2021-10-05 12:35,-119.8764,39.6682,1539.00,39.20,15.80,38.15,0.00,0.00,0.00,30.09,M,10.00,M,CLR,M,M,M,M,M,M,M,M,M,M,M,M,M,M,39.20,KRTS 051235Z AUTO 00000KT 10SM CLR 04/M09 A3009 RMK AO2,M
HTH,2021-10-05 12:35,-118.6315,38.5448,1282.89,53.60,24.80,32.46,0.00,0.00,0.00,30.06,M,10.00,M,FEW,M,M,M,4500.00,M,M,M,M,M,M,M,M,M,M,53.60,KHTH 051235Z AUTO 00000KT 10SM FEW045 12/M04 A3006 RMK A01,M
BAM,2021-10-05 12:35,-116.8743,40.5990,1382.36,41.00,10.40,28.04,150.00,3.00,0.00,30.08,M,10.00,M,CLR,M,M,M,M,M,M,M,M,M,M,M,M,M,M,38.98,KBAM 051235Z AUTO 15003KT 10SM CLR 05/M12 A3008 RMK AO1,M
MEV,2021-10-05 12:35,-119.7500,38.9963,1441.42,37.40,24.80,60.04,0.00,0.00,0.00,30.08,M,8.00,M,FEW,OVC,M,M,7000.00,11000.00,M,M,M,M,M,M,M,M,M,37.40,KMEV 051235Z AUTO 00000KT 8SM FEW070 OVC110 03/M04 A3008 RMK AO2,M
CXP,2021-10-05 12:35,-119.7326,39.1923,1431.00,44.60,24.80,45.44,0.00,0.00,0.00,30.08,M,10.00,M,FEW,M,M,M,11000.00,M,M,M,M,M,M,M,M,M,M,44.60,KCXP 051235Z AUTO 00000KT 10SM FEW110 07/M04 A3008 RMK AO2,M
ELY,2021-10-05 12:53,-114.8453,39.2950,1909.00,39.00,25.00,56.86,140.00,4.00,0.00,30.19,1016.10,10.00,M,CLR,M,M,M,M,M,M,M,M,M,M,M,M,M,M,35.59,KELY 051253Z AUTO 14004KT 10SM CLR 04/M04 A3019 RMK AO2 SLP161 T00391039,M
P68,2021-10-05 12:53,-116.0056,39.6014,1993.00,42.00,23.00,46.37,210.00,8.00,0.00,30.15,1015.60,M,M,M,M,M,M,M,M,M,M,M,M,M,M,M,M,M,36.55,KP68 051253Z AUTO 21008KT 06/M05 A3015 RMK AO1 SLP156 T00561050,M
LOL,2021-10-05 12:53,-118.5701,40.0684,1192.43,40.00,19.00,42.62,0.00,0.00,0.00,30.02,1014.80,8.00,M,CLR,M,M,M,M,M,M,M,M,M,M,M,M,M,M,39.90,KLOL 051253Z AUTO 00000KT 8SM CLR 04/M07 A3002 RMK AO2 SLP148 T00441072,M
DRA,2021-10-05 12:53,-116.0278,36.6206,1009.00,63.00,30.90,29.77,0.00,0.00,0.00,29.99,1011.50,10.00,M,OVC,M,M,M,11000.00,M,M,M,M,M,M,M,M,M,M,63.00,KDRA 051253Z AUTO 00000KT 10SM OVC110 17/M01 A2999 RMK AO2 SLP115 T01721006,M
VGT,2021-10-05 12:53,-115.1933,36.2111,667.00,71.00,38.00,29.74,330.00,4.00,0.00,29.93,1012.90,10.00,M,SCT,M,M,M,11000.00,M,M,M,M,M,M,M,M,M,M,71.10,KVGT 051253Z 33004KT 10SM SCT110 22/03 A2993 RMK AO2 SLP129 T02170033,M
HTH,2021-10-05 12:55,-118.6315,38.5448,1282.89,53.60,24.80,32.46,230.00,4.00,0.00,30.06,M,10.00,M,SCT,M,M,M,4800.00,M,M,M,M,M,M,M,M,M,M,53.60,KHTH 051255Z AUTO 23004KT 10SM SCT048 12/M04 A3006 RMK A01,M
RTS,2021-10-05 12:55,-119.8764,39.6682,1539.00,39.20,15.80,38.15,90.00,3.00,0.00,30.09,M,10.00,M,FEW,M,M,M,3400.00,M,M,M,M,M,M,M,M,M,M,36.92,KRTS 051255Z AUTO 09003KT 10SM FEW034 04/M09 A3009 RMK AO2,M
BVU,2021-10-05 12:55,-114.8611,35.9475,671.00,68.00,41.00,37.32,0.00,0.00,0.00,29.95,M,10.00,M,BKN,M,M,M,12000.00,M,M,M,M,M,M,M,M,M,M,68.00,KBVU 051255Z AUTO 00000KT 10SM BKN120 20/05 A2995 RMK AO2 LTG DSNT SE-SW,M
BAM,2021-10-05 12:55,-116.8743,40.5990,1382.36,41.00,10.40,28.04,160.00,3.00,0.00,30.08,M,10.00,M,CLR,M,M,M,M,M,M,M,M,M,M,M,M,M,M,38.98,KBAM 051255Z AUTO 16003KT 10SM CLR 05/M12 A3008 RMK AO1,M
CXP,2021-10-05 12:55,-119.7326,39.1923,1431.00,42.80,26.60,52.45,0.00,0.00,0.00,30.09,M,10.00,M,SCT,M,M,M,11000.00,M,M,M,M,M,M,M,M,M,M,42.80,KCXP 051255Z AUTO 00000KT 10SM SCT110 06/M03 A3009 RMK AO2 LTG DSNT SE,M
RNO,2021-10-05 12:55,-119.7711,39.4839,1341.00,45.00,28.00,51.08,0.00,0.00,0.00,30.06,1014.10,10.00,M,FEW,M,M,M,20000.00,M,M,M,M,M,M,M,M,M,M,45.00,KRNO 051255Z 00000KT 10SM FEW200 07/M02 A3006 RMK AO2 SLP141 FU ALF ALQDS T00721022,M
MEV,2021-10-05 12:55,-119.7500,38.9963,1441.42,37.40,21.20,51.61,0.00,0.00,0.00,30.08,M,7.00,M,OVC,M,M,M,11000.00,M,M,M,M,M,M,M,M,M,M,37.40,KMEV 051255Z AUTO 00000KT 7SM OVC110 03/M06 A3008 RMK AO2 LTG DSNT SE,M
TMT,2021-10-05 12:55,-117.1971,39.4643,1749.34,30.90,7.70,37.06,0.00,0.00,0.00,30.15,M,10.00,M,CLR,M,M,M,M,M,M,M,M,M,M,M,M,M,M,30.90,KTMT 051255Z AUTO 00000KT 10SM CLR M01/M13 A3015 RMK AO2 LTG DSNT S T10061135,M
WMC,2021-10-05 12:56,-117.8072,40.9019,1315.00,40.00,16.00,37.44,80.00,3.00,0.00,30.05,1014.70,8.00,M,CLR,M,M,M,M,M,M,M,M,M,M,M,M,M,M,37.72,KWMC 051256Z AUTO 08003KT 8SM CLR 04/M09 A3005 RMK AO2 SLP147 T00441089 $,M
LAS,2021-10-05 12:56,-115.1634,36.0719,663.00,73.00,38.00,27.89,0.00,0.00,0.00,29.95,1011.70,10.00,M,OVC,M,M,M,11000.00,M,M,M,M,M,M,M,M,M,M,73.00,KLAS 051256Z 00000KT 10SM OVC110 23/03 A2995 RMK AO2 LTG DSNT SW SLP117 T02280033,M
NFL,2021-10-05 12:56,-118.7010,39.4166,1199.00,44.00,17.10,33.40,90.00,4.00,0.00,30.03,1013.70,8.00,M,CLR,M,M,M,M,M,M,M,M,M,M,M,M,M,M,41.55,KNFL 051256Z AUTO 09004KT 8SM CLR 07/M08 A3003 RMK AO2 SLP137 T00671083,M
TPH,2021-10-05 12:56,-117.0904,38.0505,1654.00,50.00,27.00,40.62,360.00,10.00,0.00,30.13,1014.90,10.00,M,CLR,M,M,M,M,M,M,M,M,M,M,M,M,M,M,50.00,KTPH 051256Z AUTO 36010KT 10SM CLR 10/M03 A3013 RMK AO2 SLP149 T01001028,M
EKO,2021-10-05 12:56,-115.7860,40.8242,1367.00,41.00,14.00,32.88,70.00,4.00,0.00,30.12,1016.60,10.00,M,CLR,M,M,M,M,M,M,M,M,M,M,M,M,M,M,37.93,KEKO 051256Z AUTO 07004KT 10SM CLR 05/M10 A3012 RMK AO2 SLP166 T00501100,M
HND,2021-10-05 12:56,-115.1344,35.9729,742.79,69.00,38.00,31.85,160.00,4.00,0.00,29.98,1014.30,10.00,M,OVC,M,M,M,11000.00,M,M,M,M,M,M,M,M,M,M,69.10,KHND 051256Z 16004KT 10SM OVC110 21/03 A2998 RMK AO2 LTG DSNT SW SLP143 T02060033,M
LSV,2021-10-05 12:58,-115.0343,36.2362,570.00,68.70,31.50,25.02,0.00,0.00,0.00,29.93,1011.60,10.00,M,FEW,BKN,M,M,11000.00,13000.00,M,M,M,M,M,M,M,M,M,68.70,KLSV 051258Z AUTO 00000KT 10SM FEW110 BKN130 20/M00 A2993 RMK AO2 LTG DSNT S SLP116 T02041003 $,M
INS,2021-10-05 12:58,-115.6733,36.5872,955.00,61.00,28.40,28.85,0.00,0.00,0.00,30.00,1011.90,10.00,M,SCT,M,M,M,11000.00,M,M,M,M,M,M,M,M,M,M,61.00,KINS 051258Z AUTO 00000KT 10SM SCT110 16/M02 A3000 RMK AO2 SLP119 T01611020 $,M
RTS,2021-10-05 13:15,-119.8764,39.6682,1539.00,39.20,15.80,38.15,0.00,0.00,0.00,30.08,M,10.00,M,FEW,M,M,M,3800.00,M,M,M,M,M,M,M,M,M,M,39.20,KRTS 051315Z AUTO 00000KT 10SM FEW038 04/M09 A3008 RMK AO2,M
BVU,2021-10-05 13:15,-114.8611,35.9475,671.00,69.80,39.20,32.72,230.00,3.00,0.00,29.96,M,10.00,M,BKN,M,M,M,12000.00,M,M,M,VCTS,M,M,M,M,M,M,69.80,KBVU 051315Z AUTO 23003KT 10SM VCTS BKN120 21/04 A2996 RMK AO2 LTG DSNT SW AND W,M
CXP,2021-10-05 13:15,-119.7326,39.1923,1431.00,44.60,24.80,45.44,0.00,0.00,0.00,30.09,M,10.00,M,BKN,M,M,M,11000.00,M,M,M,M,M,M,M,M,M,M,44.60,KCXP 051315Z AUTO 00000KT 10SM BKN110 07/M04 A3009 RMK AO2,M
MEV,2021-10-05 13:15,-119.7500,38.9963,1441.42,35.60,21.20,55.41,0.00,0.00,0.00,30.08,M,7.00,M,OVC,M,M,M,11000.00,M,M,M,M,M,M,M,M,M,M,35.60,KMEV 051315Z AUTO 00000KT 7SM OVC110 02/M06 A3008 RMK AO2,M
TMT,2021-10-05 13:15,-117.1971,39.4643,1749.34,30.40,11.70,45.23,0.00,0.00,0.00,30.16,M,10.00,M,CLR,M,M,M,M,M,M,M,M,M,M,M,M,M,M,30.40,KTMT 051315Z AUTO 00000KT 10SM CLR M01/M11 A3016 RMK AO2 T10091113,M
HTH,2021-10-05 13:15,-118.6315,38.5448,1282.89,53.60,26.60,34.98,180.00,3.00,0.00,30.06,M,10.00,M,FEW,M,M,M,5000.00,M,M,M,M,M,M,M,M,M,M,53.60,KHTH 051315Z AUTO 18003KT 10SM FEW050 12/M03 A3006 RMK A01,M
BAM,2021-10-05 13:15,-116.8743,40.5990,1382.36,39.20,10.40,30.07,0.00,0.00,0.00,30.08,M,10.00,M,CLR,M,M,M,M,M,M,M,M,M,M,M,M,M,M,39.20,KBAM 051315Z AUTO 00000KT 10SM CLR 04/M12 A3008 RMK AO1,M
TMT,2021-10-05 13:35,-117.1971,39.4643,1749.34,31.60,10.20,40.30,0.00,0.00,0.00,30.16,M,10.00,M,CLR,M,M,M,M,M,M,M,M,M,M,M,M,M,M,31.60,KTMT 051335Z AUTO 00000KT 10SM CLR 00/M12 A3016 RMK AO2 LTG DSNT S T10021121,M
HTH,2021-10-05 13:35,-118.6315,38.5448,1282.89,51.80,26.60,37.38,180.00,4.00,0.00,30.06,M,8.00,M,FEW,FEW,M,M,4600.00,5000.00,M,M,M,M,M,M,M,M,M,51.80,KHTH 051335Z AUTO 18004KT 8SM FEW046 FEW050 11/M03 A3006 RMK A01,M
BAM,2021-10-05 13:35,-116.8743,40.5990,1382.36,41.00,10.40,28.04,0.00,0.00,0.00,30.08,M,10.00,M,CLR,M,M,M,M,M,M,M,M,M,M,M,M,M,M,41.00,KBAM 051335Z AUTO 00000KT 10SM CLR 05/M12 A3008 RMK AO1,M
RTS,2021-10-05 13:35,-119.8764,39.6682,1539.00,37.40,17.60,44.25,0.00,0.00,0.00,30.09,M,10.00,M,BKN,M,M,M,3500.00,M,M,M,M,M,M,M,M,M,M,37.40,KRTS 051335Z AUTO 00000KT 10SM BKN035 03/M08 A3009 RMK AO2,M
BVU,2021-10-05 13:35,-114.8611,35.9475,671.00,71.60,37.40,28.68,130.00,3.00,0.00,29.97,M,10.00,M,SCT,OVC,M,M,9500.00,12000.00,M,M,M,M,M,M,M,M,M,71.60,KBVU 051335Z AUTO 13003KT 10SM SCT095 OVC120 22/03 A2997 RMK AO2 LTG DSNT SE-W,M
CXP,2021-10-05 13:35,-119.7326,39.1923,1431.00,42.80,24.80,48.67,0.00,0.00,0.00,30.09,M,10.00,M,BKN,M,M,M,11000.00,M,M,M,M,M,M,M,M,M,M,42.80,KCXP 051335Z AUTO 00000KT 10SM BKN110 06/M04 A3009 RMK AO2,M
MEV,2021-10-05 13:35,-119.7500,38.9963,1441.42,37.40,24.80,60.04,0.00,0.00,0.00,30.08,M,7.00,M,OVC,M,M,M,11000.00,M,M,M,M,M,M,M,M,M,M,37.40,KMEV 051335Z AUTO 00000KT 7SM OVC110 03/M04 A3008 RMK AO2,M
DRA,2021-10-05 13:53,-116.0278,36.6206,1009.00,62.00,36.00,37.69,0.00,0.00,0.00,29.99,1011.70,10.00,M,OVC,M,M,M,10000.00,M,M,M,M,M,M,M,M,M,M,62.10,KDRA 051353Z AUTO 00000KT 10SM OVC100 17/02 A2999 RMK AO2 SLP117 T01670022,M
LOL,2021-10-05 13:53,-118.5701,40.0684,1192.43,37.00,18.00,45.73,0.00,0.00,0.00,30.03,1015.80,8.00,M,CLR,M,M,M,M,M,M,M,M,M,M,M,M,M,M,37.00,KLOL 051353Z AUTO 00000KT 8SM CLR 03/M08 A3003 RMK AO2 SLP158 T00281078,M
ELY,2021-10-05 13:53,-114.8453,39.2950,1909.00,39.00,25.00,56.86,170.00,6.00,0.00,30.19,1017.80,10.00,M,CLR,M,M,M,M,M,M,M,M,M,M,M,M,M,M,33.96,KELY 051353Z AUTO 17006KT 10SM CLR 04/M04 A3019 RMK AO2 SLP178 T00391039,M
P68,2021-10-05 13:53,-116.0056,39.6014,1993.00,43.00,23.00,44.80,190.00,8.00,0.00,30.16,1016.50,M,M,M,M,M,M,M,M,M,M,M,M,M,M,M,M,M,37.66,KP68 051353Z AUTO 19008KT 06/M05 A3016 RMK AO1 SLP165 T00611050,M
VGT,2021-10-05 13:53,-115.1933,36.2111,667.00,71.00,38.00,29.74,320.00,4.00,0.00,29.94,1013.40,10.00,M,BKN,M,M,M,11000.00,M,M,M,M,M,M,M,M,M,M,71.10,KVGT 051353Z 32004KT 10SM BKN110 22/03 A2994 RMK AO2 LTG DSNT S AND SW SLP134 T02170033,M
TMT,2021-10-05 13:55,-117.1971,39.4643,1749.34,28.90,12.90,50.70,0.00,0.00,0.00,30.16,M,10.00,M,CLR,M,M,M,M,M,M,M,M,M,M,M,M,M,M,28.90,KTMT 051355Z AUTO 00000KT 10SM CLR M02/M11 A3016 RMK AO2 LTG DSNT S T10171106,M
RTS,2021-10-05 13:55,-119.8764,39.6682,1539.00,41.00,17.60,38.45,360.00,5.00,0.00,30.09,M,10.00,M,SCT,SCT,M,M,3500.00,4100.00,M,M,M,M,M,M,M,M,M,37.08,KRTS 051355Z AUTO 36005KT 10SM SCT035 SCT041 05/M08 A3009 RMK AO2,M
RNO,2021-10-05 13:55,-119.7711,39.4839,1341.00,48.00,28.90,47.32,0.00,0.00,0.00,30.06,1014.30,10.00,M,SCT,M,M,M,20000.00,M,M,M,M,M,M,M,M,M,M,48.00,KRNO 051355Z 00000KT 10SM SCT200 09/M02 A3006 RMK AO2 SLP143 FU ALF ALQDS T00891017,M
HTH,2021-10-05 13:55,-118.6315,38.5448,1282.89,51.80,24.80,34.69,0.00,0.00,0.00,30.06,M,10.00,M,CLR,M,M,M,M,M,M,M,M,M,M,M,M,M,M,51.80,KHTH 051355Z AUTO 00000KT 10SM CLR 11/M04 A3006 RMK A01,M
BAM,2021-10-05 13:55,-116.8743,40.5990,1382.36,39.20,10.40,30.07,0.00,0.00,0.00,30.08,M,10.00,M,CLR,M,M,M,M,M,M,M,M,M,M,M,M,M,M,39.20,KBAM 051355Z AUTO 00000KT 10SM CLR 04/M12 A3008 RMK AO1,M
MEV,2021-10-05 13:55,-119.7500,38.9963,1441.42,35.60,23.00,59.79,0.00,0.00,0.00,30.08,M,6.00,M,SCT,M,M,M,11000.00,M,M,M,HZ,M,M,M,M,M,M,35.60,KMEV 051355Z AUTO 00000KT 6SM HZ SCT110 02/M05 A3008 RMK AO2,M
CXP,2021-10-05 13:55,-119.7326,39.1923,1431.00,42.80,23.00,45.14,0.00,0.00,0.00,30.09,M,10.00,M,SCT,M,M,M,11000.00,M,M,M,M,M,M,M,M,M,M,42.80,KCXP 051355Z AUTO 00000KT 10SM SCT110 06/M05 A3009 RMK AO2,M
BVU,2021-10-05 13:55,-114.8611,35.9475,671.00,66.20,37.40,34.51,0.00,0.00,0.00,29.97,M,10.00,M,OVC,M,M,M,11000.00,M,M,M,VCTS,M,M,M,M,M,M,66.20,KBVU 051355Z AUTO 00000KT 10SM VCTS OVC110 19/03 A2997 RMK AO2 LTG DSNT SE-W,M
TPH,2021-10-05 13:56,-117.0904,38.0505,1654.00,48.00,27.00,43.77,350.00,8.00,0.00,30.12,1015.30,10.00,M,CLR,M,M,M,M,M,M,M,M,M,M,M,M,M,M,43.82,KTPH 051356Z AUTO 35008KT 10SM CLR 09/M03 A3012 RMK AO2 SLP153 T00891028,M
HND,2021-10-05 13:56,-115.1344,35.9729,742.79,68.00,55.00,63.12,0.00,0.00,T,29.99,1015.10,10.00,M,BKN,OVC,M,M,9000.00,11000.00,M,M,M,M,M,M,M,M,M,68.00,KHND 051356Z 00000KT 10SM BKN090 OVC110 20/13 A2999 RMK AO2 LTG DSNT S-W RAB15E43 SLP151 P0000 T02000128,M
LAS,2021-10-05 13:56,-115.1634,36.0719,663.00,72.00,37.00,27.85,210.00,4.00,0.00,29.96,1012.50,10.00,M,SCT,BKN,M,M,9000.00,11000.00,M,M,M,M,M,M,M,M,M,72.00,KLAS 051356Z 21004KT 10SM SCT090 BKN110 22/03 A2996 RMK AO2 LTG DSNT S-W SLP125 OCNL LTGCG DSNT SW-W CB DSNT SW-W SH DSNT SW-W T02220028,M
EKO,2021-10-05 13:56,-115.7860,40.8242,1367.00,41.00,15.10,34.50,0.00,0.00,0.00,30.11,1017.10,10.00,M,CLR,M,M,M,M,M,M,M,M,M,M,M,M,M,M,41.00,KEKO 051356Z AUTO 00000KT 10SM CLR 05/M09 A3011 RMK AO2 SLP171 T00501094,M
WMC,2021-10-05 13:56,-117.8072,40.9019,1315.00,45.00,17.10,32.28,0.00,0.00,0.00,30.04,1014.90,8.00,M,CLR,M,M,M,M,M,M,M,M,M,M,M,M,M,M,45.00,KWMC 051356Z AUTO 00000KT 8SM CLR 07/M08 A3004 RMK AO2 SLP149 T00721083 $,M
NFL,2021-10-05 13:56,-118.7010,39.4166,1199.00,46.00,18.00,32.30,0.00,0.00,0.00,30.03,1013.70,8.00,M,CLR,M,M,M,M,M,M,M,M,M,M,M,M,M,M,46.00,KNFL 051356Z AUTO 00000KT 8SM CLR 08/M08 A3003 RMK AO2 SLP137 T00781078,M
LSV,2021-10-05 13:58,-115.0343,36.2362,570.00,74.00,33.80,23.00,80.00,7.00,0.00,29.94,M,9.00,M,OVC,M,M,M,11000.00,M,M,M,M,M,M,M,M,M,M,73.90,KLSV 051358Z AUTO 08007KT 9SM OVC110 23/01 A2994 RMK AO2 LTG DSNT S-SW SLPNO T02330010 $,M
INS,2021-10-05 13:58,-115.6733,36.5872,955.00,60.30,27.00,27.93,0.00,0.00,0.00,30.00,1012.10,10.00,M,BKN,M,M,M,12000.00,M,M,M,VCTS,M,M,M,M,M,M,60.30,KINS 051358Z AUTO 00000KT 10SM VCTS BKN120 16/M03 A3000 RMK AO2 SLP121 T01571028 $,M
BAM,2021-10-05 14:15,-116.8743,40.5990,1382.36,42.80,14.00,30.68,0.00,0.00,0.00,30.08,M,10.00,M,CLR,M,M,M,M,M,M,M,M,M,M,M,M,M,M,42.80,KBAM 051415Z AUTO 00000KT 10SM CLR 06/M10 A3008 RMK AO1,M
CXP,2021-10-05 14:15,-119.7326,39.1923,1431.00,41.00,26.60,56.22,0.00,0.00,0.00,30.10,M,10.00,M,CLR,M,M,M,M,M,M,M,M,M,M,M,M,M,M,41.00,KCXP 051415Z AUTO 00000KT 10SM CLR 05/M03 A3010 RMK AO2,M
HTH,2021-10-05 14:15,-118.6315,38.5448,1282.89,53.60,24.80,32.46,0.00,0.00,0.00,30.07,M,10.00,M,CLR,M,M,M,M,M,M,M,M,M,M,M,M,M,M,53.60,KHTH 051415Z AUTO 00000KT 10SM CLR 12/M04 A3007 RMK A01,M
TMT,2021-10-05 14:15,-117.1971,39.4643,1749.34,30.40,14.40,50.94,0.00,0.00,0.00,30.16,M,10.00,M,CLR,M,M,M,M,M,M,M,M,M,M,M,M,M,M,30.40,KTMT 051415Z AUTO 00000KT 10SM CLR M01/M10 A3016 RMK AO2 LTG DSNT S T10091098,M
MEV,2021-10-05 14:15,-119.7500,38.9963,1441.42,35.60,21.20,55.41,0.00,0.00,0.00,30.09,M,6.00,M,CLR,M,M,M,M,M,M,M,HZ,M,M,M,M,M,M,35.60,KMEV 051415Z AUTO 00000KT 6SM HZ CLR 02/M06 A3009 RMK AO2,M
BVU,2021-10-05 14:15,-114.8611,35.9475,671.00,68.00,41.00,37.32,0.00,0.00,0.00,29.97,M,10.00,M,BKN,M,M,M,12000.00,M,M,M,VCTS,M,M,M,M,M,M,68.00,KBVU 051415Z AUTO 00000KT 10SM VCTS BKN120 20/05 A2997 RMK AO2 LTG DSNT SW AND W,M
RTS,2021-10-05 14:15,-119.8764,39.6682,1539.00,41.00,17.60,38.45,0.00,0.00,0.00,30.10,M,10.00,M,CLR,M,M,M,M,M,M,M,M,M,M,M,M,M,M,41.00,KRTS 051415Z AUTO 00000KT 10SM CLR 05/M08 A3010 RMK AO2,M
BVU,2021-10-05 14:35,-114.8611,35.9475,671.00,68.00,42.80,40.00,0.00,0.00,0.00,29.98,M,10.00,M,SCT,M,M,M,12000.00,M,M,M,M,M,M,M,M,M,M,68.00,KBVU 051435Z AUTO 00000KT 10SM SCT120 20/06 A2998 RMK AO2 LTG DSNT SE-W,M
RTS,2021-10-05 14:35,-119.8764,39.6682,1539.00,42.80,19.40,38.75,340.00,5.00,0.00,30.10,M,10.00,M,CLR,M,M,M,M,M,M,M,M,M,M,M,M,M,M,39.22,KRTS 051435Z AUTO 34005KT 10SM CLR 06/M07 A3010 RMK AO2,M
TMT,2021-10-05 14:35,-117.1971,39.4643,1749.34,35.40,19.20,51.30,0.00,0.00,0.00,30.15,M,10.00,M,CLR,M,M,M,M,M,M,M,M,M,M,M,M,M,M,35.40,KTMT 051435Z AUTO 00000KT 10SM CLR 02/M07 A3015 RMK AO2 T00191071,M
HTH,2021-10-05 14:35,-118.6315,38.5448,1282.89,55.40,26.60,32.76,170.00,4.00,0.00,30.07,M,10.00,M,CLR,M,M,M,M,M,M,M,M,M,M,M,M,M,M,55.40,KHTH 051435Z AUTO 17004KT 10SM CLR 13/M03 A3007 RMK A01,M
CXP,2021-10-05 14:35,-119.7326,39.1923,1431.00,42.80,26.60,52.45,0.00,0.00,0.00,30.10,M,9.00,M,CLR,M,M,M,M,M,M,M,M,M,M,M,M,M,M,42.80,KCXP 051435Z AUTO 00000KT 9SM CLR 06/M03 A3010 RMK AO2,M
MEV,2021-10-05 14:35,-119.7500,38.9963,1441.42,35.60,23.00,59.79,0.00,0.00,0.00,30.09,M,6.00,M,CLR,M,M,M,M,M,M,M,HZ,M,M,M,M,M,M,35.60,KMEV 051435Z AUTO 00000KT 6SM HZ CLR 02/M05 A3009 RMK AO2,M
BAM,2021-10-05 14:35,-116.8743,40.5990,1382.36,42.80,12.20,28.34,0.00,0.00,0.00,30.08,M,10.00,M,CLR,M,M,M,M,M,M,M,M,M,M,M,M,M,M,42.80,KBAM 051435Z AUTO 00000KT 10SM CLR 06/M11 A3008 RMK AO1,M
VGT,2021-10-05 14:53,-115.1933,36.2111,667.00,75.00,40.00,28.20,260.00,5.00,0.00,29.97,1014.40,10.00,M,OVC,M,M,M,10000.00,M,M,M,M,M,M,M,M,M,M,75.00,KVGT 051453Z 26005KT 10SM OVC100 24/04 A2997 RMK AO2 LTG DSNT S AND SW SLP144 T02390044 53015,M
LOL,2021-10-05 14:53,-118.5701,40.0684,1192.43,44.00,19.90,37.67,30.00,3.00,0.00,30.04,1016.30,6.00,M,CLR,M,M,M,M,M,M,M,HZ,M,M,M,M,M,M,42.52,KLOL 051453Z AUTO 03003KT 6SM HZ CLR 07/M07 A3004 RMK AO2 SLP163 T00671067 53005,M
ELY,2021-10-05 14:53,-114.8453,39.2950,1909.00,41.00,26.10,55.07,170.00,5.00,0.00,30.20,1018.40,10.00,M,CLR,M,M,M,M,M,M,M,M,M,M,M,M,M,M,37.08,KELY 051453Z AUTO 17005KT 10SM CLR 05/M03 A3020 RMK AO2 SLP184 T00501033 51005,M
DRA,2021-10-05 14:53,-116.0278,36.6206,1009.00,61.00,47.00,59.71,80.00,7.00,T,30.02,1013.00,10.00,M,FEW,OVC,M,M,7000.00,9500.00,M,M,-RA,M,M,M,M,M,M,61.00,KDRA 051453Z AUTO 08007KT 050V110 10SM -RA FEW070 OVC095 16/08 A3002 RMK AO2 RAB46 SLP130 P0000 60000 T01610083 53010,M
P68,2021-10-05 14:53,-116.0056,39.6014,1993.00,50.00,25.00,37.39,210.00,6.00,0.00,30.16,1016.30,M,M,M,M,M,M,M,M,M,M,M,M,M,M,M,M,M,50.00,KP68 051453Z AUTO 21006KT 10/M04 A3016 RMK AO1 SLP163 T01001039 53003,M
RNO,2021-10-05 14:55,-119.7711,39.4839,1341.00,49.00,28.90,45.75,0.00,0.00,0.00,30.08,1014.90,10.00,M,FEW,BKN,M,M,0.00,18000.00,M,M,M,M,M,M,M,M,M,48.90,KRNO 051455Z 00000KT 10SM FEW000 BKN180 09/M02 A3008 RMK AO2 SLP149 FU FEW000 FU AND HZ ALQDS T00941017 53006,M
CXP,2021-10-05 14:55,-119.7326,39.1923,1431.00,44.60,26.60,48.96,0.00,0.00,0.00,30.10,M,10.00,M,CLR,M,M,M,M,M,M,M,M,M,M,M,M,M,M,44.60,KCXP 051455Z AUTO 00000KT 10SM CLR 07/M03 A3010 RMK AO2,M
RTS,2021-10-05 14:55,-119.8764,39.6682,1539.00,42.80,19.40,38.75,0.00,0.00,0.00,30.10,M,10.00,M,CLR,M,M,M,M,M,M,M,M,M,M,M,M,M,M,42.80,KRTS 051455Z AUTO 00000KT 10SM CLR 06/M07 A3010 RMK AO2,M
MEV,2021-10-05 14:55,-119.7500,38.9963,1441.42,37.40,23.00,55.68,0.00,0.00,0.00,30.09,M,6.00,M,CLR,M,M,M,M,M,M,M,HZ,M,M,M,M,M,M,37.40,KMEV 051455Z AUTO 00000KT 6SM HZ CLR 03/M05 A3009 RMK AO2,M
BAM,2021-10-05 14:55,-116.8743,40.5990,1382.36,44.60,14.00,28.64,0.00,0.00,0.00,30.08,M,10.00,M,CLR,M,M,M,M,M,M,M,M,M,M,M,M,M,M,44.60,KBAM 051455Z AUTO 00000KT 10SM CLR 07/M10 A3008 RMK AO1,M
HTH,2021-10-05 14:55,-118.6315,38.5448,1282.89,55.40,26.60,32.76,100.00,5.00,0.00,30.07,M,10.00,M,CLR,M,M,M,M,M,M,M,M,M,M,M,M,M,M,55.40,KHTH 051455Z AUTO 10005KT 10SM CLR 13/M03 A3007 RMK A01,M
TMT,2021-10-05 14:55,-117.1971,39.4643,1749.34,37.00,16.90,43.79,0.00,0.00,0.00,30.15,M,10.00,M,CLR,M,M,M,M,M,M,M,M,M,M,M,M,M,M,36.90,KTMT 051455Z AUTO 00000KT 10SM CLR 03/M08 A3015 RMK AO2 T00271084,M
BVU,2021-10-05 14:55,-114.8611,35.9475,671.00,71.60,39.20,30.77,0.00,0.00,0.00,29.99,M,10.00,M,BKN,M,M,M,12000.00,M,M,M,M,M,M,M,M,M,M,71.60,KBVU 051455Z AUTO 00000KT 10SM BKN120 22/04 A2999 RMK AO2 LTG DSNT S-W,M
NFL,2021-10-05 14:56,-118.7010,39.4166,1199.00,51.00,18.00,26.69,0.00,0.00,0.00,30.03,1013.90,7.00,M,BKN,M,M,M,22000.00,M,M,M,M,M,M,M,M,M,M,51.10,KNFL 051456Z 00000KT 7SM BKN220 11/M08 A3003 RMK AO2 SLP139 T01061078 52004,M
TPH,2021-10-05 14:56,-117.0904,38.0505,1654.00,51.00,28.00,40.63,10.00,7.00,0.00,30.13,1015.60,10.00,M,CLR,M,M,M,M,M,M,M,M,M,M,M,M,M,M,51.10,KTPH 051456Z AUTO 01007KT 10SM CLR 11/M02 A3013 RMK AO2 SLP156 T01061022 53002,M
LAS,2021-10-05 14:56,-115.1634,36.0719,663.00,73.00,46.00,38.11,240.00,8.00,0.00,29.99,1013.50,10.00,M,SCT,BKN,M,M,10000.00,13000.00,M,M,M,M,M,M,M,M,M,73.00,KLAS 051456Z 24008KT 10SM SCT100 BKN130 23/08 A2999 RMK AO2 LTG DSNT SW AND W SLP135 VIRGA DSNT SW-NW-N T02280078 53017,M
HND,2021-10-05 14:56,-115.1344,35.9729,742.79,72.00,49.00,43.97,300.00,7.00,0.00,30.03,1016.20,10.00,M,OVC,M,M,M,10000.00,M,M,M,M,M,M,M,M,M,M,72.00,KHND 051456Z 30007KT 10SM OVC100 22/09 A3003 RMK AO2 LTG DSNT SW AND W SLP162 60000 T02220094 53017,M
WMC,2021-10-05 14:56,-117.8072,40.9019,1315.00,44.00,14.00,29.19,0.00,0.00,0.00,30.05,1015.40,7.00,M,CLR,M,M,M,M,M,M,M,M,M,M,M,M,M,M,44.10,KWMC 051456Z AUTO 00000KT 7SM CLR 07/M10 A3005 RMK AO2 SLP154 T00671100 53001,M
EKO,2021-10-05 14:56,-115.7860,40.8242,1367.00,43.00,15.10,31.94,80.00,4.00,0.00,30.13,1018.10,10.00,M,CLR,M,M,M,M,M,M,M,M,M,M,M,M,M,M,40.27,KEKO 051456Z AUTO 08004KT 10SM CLR 06/M09 A3013 RMK AO2 SLP181 T00611094 53004,M
LSV,2021-10-05 14:58,-115.0343,36.2362,570.00,71.00,36.30,27.93,220.00,9.00,0.00,29.97,M,10.00,M,OVC,M,M,M,10000.00,M,M,M,M,M,M,M,M,M,M,71.10,KLSV 051458Z AUTO 22009KT 10SM OVC100 22/02 A2997 RMK AO2 LTG DSNT SW SLPNO T02170024 53016 $,M
INS,2021-10-05 14:58,-115.6733,36.5872,955.00,63.00,28.40,26.89,0.00,0.00,0.00,30.00,1012.30,10.00,M,SCT,M,M,M,11000.00,M,M,M,M,M,M,M,M,M,M,63.00,KINS 051458Z AUTO 00000KT 10SM SCT110 17/M02 A3000 RMK AO2 SLP123 T01721020 53002 $,M
TMT,2021-10-05 15:15,-117.1971,39.4643,1749.34,41.50,19.90,41.62,0.00,0.00,0.00,30.16,M,10.00,M,CLR,M,M,M,M,M,M,M,M,M,M,M,M,M,M,41.50,KTMT 051515Z AUTO 00000KT 10SM CLR 05/M07 A3016 RMK AO2 T00531067,M
BVU,2021-10-05 15:15,-114.8611,35.9475,671.00,71.60,41.00,33.00,0.00,0.00,0.00,30.00,M,10.00,M,FEW,M,M,M,12000.00,M,M,M,M,M,M,M,M,M,M,71.60,KBVU 051515Z AUTO 00000KT 10SM FEW120 22/05 A3000 RMK AO2 LTG DSNT S-W,M
RTS,2021-10-05 15:15,-119.8764,39.6682,1539.00,44.60,21.20,39.06,110.00,4.00,0.00,30.10,M,10.00,M,CLR,M,M,M,M,M,M,M,M,M,M,M,M,M,M,42.13,KRTS 051515Z AUTO 11004KT 10SM CLR 07/M06 A3010 RMK AO2,M
MEV,2021-10-05 15:15,-119.7500,38.9963,1441.42,39.20,23.00,51.89,0.00,0.00,0.00,30.09,M,3.00,M,CLR,M,M,M,M,M,M,M,HZ,M,M,M,M,M,M,39.20,KMEV 051515Z AUTO 00000KT 3SM HZ CLR 04/M05 A3009 RMK AO2,M
CXP,2021-10-05 15:15,-119.7326,39.1923,1431.00,44.60,26.60,48.96,0.00,0.00,0.00,30.10,M,9.00,M,CLR,M,M,M,M,M,M,M,M,M,M,M,M,M,M,44.60,KCXP 051515Z AUTO 00000KT 9SM CLR 07/M03 A3010 RMK AO2,M
BAM,2021-10-05 15:15,-116.8743,40.5990,1382.36,46.40,14.00,26.75,0.00,0.00,0.00,30.09,M,10.00,M,CLR,M,M,M,M,M,M,M,M,M,M,M,M,M,M,46.40,KBAM 051515Z AUTO 00000KT 10SM CLR 08/M10 A3009 RMK AO1,M
HTH,2021-10-05 15:15,-118.6315,38.5448,1282.89,57.20,26.60,30.69,0.00,0.00,0.00,30.07,M,10.00,M,CLR,M,M,M,M,M,M,M,M,M,M,M,M,M,M,57.20,KHTH 051515Z AUTO 00000KT 10SM CLR 14/M03 A3007 RMK A01,M
DRA,2021-10-05 15:24,-116.0278,36.6206,1009.00,64.00,41.00,42.88,90.00,5.00,T,30.03,M,10.00,M,FEW,OVC,M,M,6500.00,10000.00,M,M,-TSRA,M,M,M,M,M,M,64.00,KDRA 051524Z 09005KT 10SM -TSRA FEW065 OVC100 18/05 A3003 RMK AO2 TSB21 P0000 T01780050,M
LSV,2021-10-05 15:30,-115.0343,36.2362,570.00,71.60,39.20,30.77,0.00,0.00,0.00,29.98,M,10.00,M,FEW,BKN,M,M,7500.00,11000.00,M,M,-RA,M,M,M,M,M,M,71.60,KLSV 051530Z AUTO 00000KT 10SM -RA FEW075 BKN110 22/04 A2998 RMK AO2 LTG DSNT SW RAB30 SLPNO $,M
DRA,2021-10-05 15:34,-116.0278,36.6206,1009.00,65.00,41.00,41.55,40.00,3.00,T,30.05,M,10.00,M,FEW,FEW,OVC,M,5000.00,7000.00,9500.00,M,-RA,M,M,M,M,M,M,64.90,KDRA 051534Z AUTO 04003KT 10SM -RA FEW050 FEW070 OVC095 18/05 A3005 RMK AO2 TSB21 P0000 T01830050,M
TMT,2021-10-05 15:35,-117.1971,39.4643,1749.34,45.30,22.60,40.35,0.00,0.00,0.00,30.16,M,10.00,M,CLR,M,M,M,M,M,M,M,M,M,M,M,M,M,M,45.30,KTMT 051535Z AUTO 00000KT 10SM CLR 07/M05 A3016 RMK AO2 T00741052,M
RTS,2021-10-05 15:35,-119.8764,39.6682,1539.00,46.40,21.20,36.48,0.00,0.00,0.00,30.11,M,10.00,M,CLR,M,M,M,M,M,M,M,M,M,M,M,M,M,M,46.40,KRTS 051535Z AUTO 00000KT 10SM CLR 08/M06 A3011 RMK AO2,M
BVU,2021-10-05 15:35,-114.8611,35.9475,671.00,73.40,44.60,35.66,0.00,0.00,0.00,30.00,M,10.00,M,FEW,M,M,M,11000.00,M,M,M,VCTS,M,M,M,M,M,M,73.40,KBVU 051535Z AUTO 00000KT 10SM VCTS FEW110 23/07 A3000 RMK AO2 LTG DSNT S AND W,M
CXP,2021-10-05 15:35,-119.7326,39.1923,1431.00,48.20,28.40,46.02,0.00,0.00,0.00,30.10,M,9.00,M,CLR,M,M,M,M,M,M,M,M,M,M,M,M,M,M,48.20,KCXP 051535Z AUTO 00000KT 9SM CLR 09/M02 A3010 RMK AO2,M
MEV,2021-10-05 15:35,-119.7500,38.9963,1441.42,44.60,26.60,48.96,0.00,0.00,0.00,30.09,M,6.00,M,CLR,M,M,M,M,M,M,M,HZ,M,M,M,M,M,M,44.60,KMEV 051535Z AUTO 00000KT 6SM HZ CLR 07/M03 A3009 RMK AO2,M
BAM,2021-10-05 15:35,-116.8743,40.5990,1382.36,51.80,14.00,21.86,0.00,0.00,0.00,30.09,M,10.00,M,CLR,M,M,M,M,M,M,M,M,M,M,M,M,M,M,51.80,KBAM 051535Z AUTO 00000KT 10SM CLR 11/M10 A3009 RMK AO1,M
HTH,2021-10-05 15:35,-118.6315,38.5448,1282.89,59.00,26.60,28.77,0.00,0.00,0.00,30.07,M,10.00,M,CLR,M,M,M,M,M,M,M,M,M,M,M,M,M,M,59.00,KHTH 051535Z AUTO 00000KT 10SM CLR 15/M03 A3007 RMK A01,M
LSV,2021-10-05 15:40,-115.0343,36.2362,570.00,71.60,41.00,33.00,190.00,3.00,0.00,29.98,M,10.00,M,SCT,M,M,M,11000.00,M,M,M,M,M,M,M,M,M,M,71.60,KLSV 051540Z AUTO 19003KT 10SM SCT110 22/05 A2998 RMK AO2 LTG DSNT SW RAB30E40 SLPNO $,M
INS,2021-10-05 15:41,-115.6733,36.5872,955.00,66.20,30.20,25.88,250.00,9.00,0.00,30.04,1013.50,10.00,M,SCT,M,M,M,8500.00,M,M,M,VCTS,M,M,M,M,M,M,66.20,KINS 051541Z AUTO 25009KT 10SM VCTS SCT085 19/M01 A3004 RMK AO2 SLP135 $,M
INS,2021-10-05 15:46,-115.6733,36.5872,955.00,66.20,30.20,25.88,240.00,8.00,0.00,30.04,1013.50,10.00,M,BKN,M,M,M,8500.00,M,M,M,VCTS,M,M,M,M,M,M,66.20,KINS 051546Z AUTO 24008KT 10SM VCTS BKN085 19/M01 A3004 RMK AO2 SLP135 $,M
HND,2021-10-05 15:48,-115.1344,35.9729,742.79,69.80,48.20,46.16,200.00,21.00,0.00,30.05,M,10.00,29.00,SCT,OVC,M,M,7500.00,10000.00,M,M,VCTS HZ,M,M,M,29.00,210.00,2021-10-05 15:43,69.80,KHND 051548Z COR 20021G29KT 10SM VCTS HZ SCT075 OVC100 21/09 A3005 RMK AO2 PK WND 21029/1543 LTG DSNT S AND W TSB42,M
LOL,2021-10-05 15:53,-118.5701,40.0684,1192.43,51.00,19.90,28.95,330.00,4.00,0.00,30.04,1015.90,7.00,M,CLR,M,M,M,M,M,M,M,M,M,M,M,M,M,M,51.10,KLOL 051553Z AUTO 33004KT 7SM CLR 11/M07 A3004 RMK AO2 SLP159 T01061067,M
DRA,2021-10-05 15:53,-116.0278,36.6206,1009.00,63.00,52.00,67.29,30.00,8.00,T,30.06,1014.40,10.00,M,FEW,OVC,M,M,4500.00,8500.00,M,M,-RA,M,M,M,M,M,M,63.00,KDRA 051553Z AUTO 03008KT 10SM -RA FEW045 OVC085 17/11 A3006 RMK AO2 TSB21 SLP144 P0000 T01720111,M
VGT,2021-10-05 15:53,-115.1933,36.2111,667.00,77.00,47.00,34.50,0.00,0.00,0.00,29.98,1014.90,10.00,M,BKN,M,M,M,10000.00,M,M,M,M,M,M,M,M,M,M,77.00,KVGT 051553Z 00000KT 10SM BKN100 25/08 A2998 RMK AO2 LTG DSNT S AND SW SLP149 T02500083,M
P68,2021-10-05 15:53,-116.0056,39.6014,1993.00,59.00,27.00,29.25,250.00,3.00,0.00,30.16,1015.40,M,M,M,M,M,M,M,M,M,M,M,M,M,M,M,M,M,59.00,KP68 051553Z AUTO 25003KT 15/M03 A3016 RMK AO1 SLP154 T01501028,M
ELY,2021-10-05 15:53,-114.8453,39.2950,1909.00,52.00,30.90,44.24,180.00,4.00,0.00,30.20,1016.30,10.00,M,BKN,M,M,M,12000.00,M,M,M,M,M,M,M,M,M,M,52.00,KELY 051553Z AUTO 18004KT 10SM BKN120 11/M01 A3020 RMK AO2 SLP163 T01111006,M
CXP,2021-10-05 15:55,-119.7326,39.1923,1431.00,50.00,26.60,39.95,0.00,0.00,0.00,30.10,M,9.00,M,CLR,M,M,M,M,M,M,M,M,M,M,M,M,M,M,50.00,KCXP 051555Z AUTO 00000KT 9SM CLR 10/M03 A3010 RMK AO2,M
RTS,2021-10-05 15:55,-119.8764,39.6682,1539.00,48.20,21.20,34.09,0.00,0.00,0.00,30.11,M,9.00,M,CLR,M,M,M,M,M,M,M,M,M,M,M,M,M,M,48.20,KRTS 051555Z AUTO 00000KT 9SM CLR 09/M06 A3011 RMK AO2,M
BAM,2021-10-05 15:55,-116.8743,40.5990,1382.36,55.40,17.60,22.41,0.00,0.00,0.00,30.09,M,10.00,M,CLR,M,M,M,M,M,M,M,M,M,M,M,M,M,M,55.40,KBAM 051555Z AUTO 00000KT 10SM CLR 13/M08 A3009 RMK AO1,M
HTH,2021-10-05 15:55,-118.6315,38.5448,1282.89,62.60,26.60,25.32,0.00,0.00,0.00,30.07,M,10.00,M,CLR,M,M,M,M,M,M,M,M,M,M,M,M,M,M,62.60,KHTH 051555Z AUTO 00000KT 10SM CLR 17/M03 A3007 RMK A01,M
TMT,2021-10-05 15:55,-117.1971,39.4643,1749.34,49.50,24.40,37.15,0.00,0.00,0.00,30.16,M,10.00,M,CLR,M,M,M,M,M,M,M,M,M,M,M,M,M,M,49.50,KTMT 051555Z AUTO 00000KT 10SM CLR 10/M04 A3016 RMK AO2 T00971042,M
MEV,2021-10-05 15:55,-119.7500,38.9963,1441.42,48.20,26.60,42.73,0.00,0.00,0.00,30.09,M,6.00,M,CLR,M,M,M,M,M,M,M,HZ,M,M,M,M,M,M,48.20,KMEV 051555Z AUTO 00000KT 6SM HZ CLR 09/M03 A3009 RMK AO2,M
BVU,2021-10-05 15:55,-114.8611,35.9475,671.00,73.40,37.40,26.98,M,3.00,0.00,30.02,M,10.00,M,BKN,M,M,M,11000.00,M,M,M,M,M,M,M,M,M,M,73.40,KBVU 051555Z AUTO VRB03KT 10SM BKN110 23/03 A3002 RMK AO2 LTG DSNT W,M
RNO,2021-10-05 15:55,-119.7711,39.4839,1341.00,52.00,30.00,42.65,200.00,3.00,0.00,30.08,1015.20,10.00,M,FEW,FEW,M,M,0.00,18000.00,M,M,M,M,M,M,M,M,M,52.00,KRNO 051555Z 20003KT 10SM FEW000 FEW180 11/M01 A3008 RMK AO2 SLP152 FU FEW000 FU AND HZ ALQDS T01111011,M
LAS,2021-10-05 15:56,-115.1634,36.0719,663.00,72.00,50.00,45.81,210.00,12.00,0.00,30.03,1014.80,10.00,23.00,SCT,BKN,BKN,M,8000.00,12000.00,20000.00,M,M,M,M,M,M,M,M,72.00,KLAS 051556Z 21012G23KT 10SM SCT080 BKN120 BKN200 22/10 A3003 RMK AO2 LTG DSNT S AND SW SLP148 VCSH SE-S T02220100,M
HND,2021-10-05 15:56,-115.1344,35.9729,742.79,69.00,48.00,46.92,200.00,24.00,0.00,30.05,1017.20,10.00,33.00,FEW,BKN,M,M,7000.00,9500.00,M,M,VCTS,M,M,M,33.00,210.00,2021-10-05 15:50,69.10,KHND 051556Z 20024G33KT 10SM VCTS FEW070 BKN095 21/09 A3005 RMK AO2 PK WND 21033/1550 WSHFT 1537 LTG DSNT S-W TSB42 SLP172 T02060089,M
NFL,2021-10-05 15:56,-118.7010,39.4166,1199.00,60.00,21.00,21.88,0.00,0.00,0.00,30.04,1014.10,7.00,M,SCT,BKN,M,M,10000.00,20000.00,M,M,M,M,M,M,M,M,M,60.10,KNFL 051556Z 00000KT 7SM SCT100 BKN200 16/M06 A3004 RMK AO2 SLP141 FU SCT100 T01561061,M
EKO,2021-10-05 15:56,-115.7860,40.8242,1367.00,50.00,16.00,25.50,60.00,4.00,0.00,30.13,1017.80,10.00,M,CLR,M,M,M,M,M,M,M,M,M,M,M,M,M,M,50.00,KEKO 051556Z AUTO 06004KT 10SM CLR 10/M09 A3013 RMK AO2 SLP178 T01001089,M
WMC,2021-10-05 15:56,-117.8072,40.9019,1315.00,57.00,19.90,23.34,0.00,0.00,0.00,30.05,1015.00,7.00,M,CLR,M,M,M,M,M,M,M,M,M,M,M,M,M,M,57.00,KWMC 051556Z AUTO 00000KT 7SM CLR 14/M07 A3005 RMK AO2 SLP150 T01391067,M
TPH,2021-10-05 15:56,-117.0904,38.0505,1654.00,59.00,28.90,31.63,30.00,5.00,0.00,30.14,1015.30,10.00,M,CLR,M,M,M,M,M,M,M,M,M,M,M,M,M,M,59.00,KTPH 051556Z AUTO 03005KT 10SM CLR 15/M02 A3014 RMK AO2 SLP153 T01501017,M
INS,2021-10-05 15:58,-115.6733,36.5872,955.00,67.80,31.60,25.91,270.00,7.00,0.00,30.04,1013.50,10.00,M,BKN,M,M,M,8500.00,M,M,M,M,M,M,M,M,M,M,67.80,KINS 051558Z AUTO 27007KT 10SM BKN085 20/M00 A3004 RMK AO2 LTG DSNT NW SLP135 T01991002 $,M
LSV,2021-10-05 15:58,-115.0343,36.2362,570.00,73.80,39.60,29.02,220.00,3.00,T,30.00,M,10.00,M,SCT,M,M,M,11000.00,M,M,M,M,M,M,M,M,M,M,73.80,KLSV 051558Z AUTO 22003KT 10SM SCT110 23/04 A3000 RMK AO2 LTG DSNT S-SW RAB30E40 PRESRR SLPNO P0000 T02320042 $,M
LAS,2021-10-05 16:08,-115.1634,36.0719,663.00,71.00,51.00,49.20,200.00,10.00,0.00,30.02,M,10.00,23.00,SCT,BKN,BKN,M,8000.00,12000.00,20000.00,M,VCTS,M,M,M,M,M,M,71.10,KLAS 051608Z 20010G23KT 10SM VCTS SCT080 BKN120 BKN200 22/11 A3002 RMK AO2 LTG DSNT SW TSE02 VCSH SE-S T02170106,M
INS,2021-10-05 16:08,-115.6733,36.5872,955.00,68.00,33.80,28.11,260.00,9.00,0.00,30.05,1014.00,10.00,M,SCT,M,M,M,9000.00,M,M,M,M,M,M,M,M,M,M,68.00,KINS 051608Z AUTO 26009KT 10SM SCT090 20/01 A3005 RMK AO2 LTG DSNT NW SLP140 $,M
LAS,2021-10-05 16:13,-115.1634,36.0719,663.00,71.00,51.00,49.20,210.00,12.00,0.00,30.02,M,10.00,18.00,SCT,BKN,BKN,M,8000.00,11000.00,20000.00,M,TS,M,M,M,M,M,M,71.10,KLAS 051613Z 21012G18KT 10SM TS SCT080 BKN110CB BKN200 22/11 A3002 RMK AO2 LTG DSNT SW TSE02B10 OCNL LTGCG SW TS SW MOV NW T02170106,M
TMT,2021-10-05 16:15,-117.1971,39.4643,1749.34,54.00,27.10,35.06,0.00,0.00,0.00,30.16,M,10.00,M,CLR,M,M,M,M,M,M,M,M,M,M,M,M,M,M,54.10,KTMT 051615Z AUTO 00000KT 10SM CLR 12/M03 A3016 RMK AO2 LTG DSNT S T01231027,M
RTS,2021-10-05 16:15,-119.8764,39.6682,1539.00,51.80,21.20,29.82,0.00,0.00,0.00,30.11,M,10.00,M,CLR,M,M,M,M,M,M,M,M,M,M,M,M,M,M,51.80,KRTS 051615Z AUTO 00000KT 10SM CLR 11/M06 A3011 RMK AO2,M
HTH,2021-10-05 16:15,-118.6315,38.5448,1282.89,62.60,28.40,27.27,0.00,0.00,0.00,30.07,M,10.00,M,CLR,M,M,M,M,M,M,M,M,M,M,M,M,M,M,62.60,KHTH 051615Z AUTO 00000KT 10SM CLR 17/M02 A3007 RMK A01,M
BAM,2021-10-05 16:15,-116.8743,40.5990,1382.36,59.00,17.60,19.68,0.00,0.00,0.00,30.09,M,10.00,M,CLR,M,M,M,M,M,M,M,M,M,M,M,M,M,M,59.00,KBAM 051615Z AUTO 00000KT 10SM CLR 15/M08 A3009 RMK AO1,M
MEV,2021-10-05 16:15,-119.7500,38.9963,1441.42,50.00,28.40,43.03,0.00,0.00,0.00,30.09,M,6.00,M,CLR,M,M,M,M,M,M,M,HZ,M,M,M,M,M,M,50.00,KMEV 051615Z AUTO 00000KT 6SM HZ CLR 10/M02 A3009 RMK AO2,M
CXP,2021-10-05 16:15,-119.7326,39.1923,1431.00,51.80,26.60,37.38,0.00,0.00,0.00,30.10,M,9.00,M,CLR,M,M,M,M,M,M,M,M,M,M,M,M,M,M,51.80,KCXP 051615Z AUTO 00000KT 9SM CLR 11/M03 A3010 RMK AO2,M
BVU,2021-10-05 16:15,-114.8611,35.9475,671.00,71.60,42.80,35.37,200.00,9.00,0.00,30.03,M,10.00,M,SCT,BKN,M,M,8000.00,11000.00,M,M,M,M,M,M,M,M,M,71.60,KBVU 051615Z AUTO 20009KT 10SM SCT080 BKN110 22/06 A3003 RMK AO2,M
VGT,2021-10-05 16:22,-115.1933,36.2111,667.00,75.00,52.00,44.59,200.00,18.00,0.00,30.00,M,10.00,24.00,FEW,SCT,M,M,8000.00,11000.00,M,M,M,M,M,M,M,M,M,75.00,KVGT 051622Z 20018G24KT 10SM FEW080 SCT110 24/11 A3000 RMK AO2 WSHFT 1602 LTG DSNT S AND SW T02390111,M
HND,2021-10-05 16:29,-115.1344,35.9729,742.79,66.20,53.60,63.82,210.00,10.00,0.00,30.07,M,10.00,M,FEW,BKN,M,M,6000.00,10000.00,M,M,M,M,M,M,29.00,200.00,2021-10-05 15:58,66.20,KHND 051629Z 21010KT 10SM FEW060 BKN100 19/12 A3007 RMK AO2 PK WND 20029/1558 TSE23,M
LAS,2021-10-05 16:33,-115.1634,36.0719,663.00,70.00,52.00,52.80,230.00,13.00,0.00,30.03,M,10.00,22.00,SCT,BKN,BKN,M,8000.00,11000.00,20000.00,M,M,M,M,M,M,M,M,70.00,KLAS 051633Z 23013G22KT 10SM SCT080 BKN110 BKN200 21/11 A3003 RMK AO2 TSE02B10E32 VCSH W T02110111,M
HTH,2021-10-05 16:35,-118.6315,38.5448,1282.89,64.40,28.40,25.60,280.00,3.00,0.00,30.06,M,10.00,M,CLR,M,M,M,M,M,M,M,M,M,M,M,M,M,M,64.40,KHTH 051635Z AUTO 28003KT 10SM CLR 18/M02 A3006 RMK A01,M
RTS,2021-10-05 16:35,-119.8764,39.6682,1539.00,55.40,23.00,28.20,0.00,0.00,0.00,30.11,M,10.00,M,CLR,M,M,M,M,M,M,M,M,M,M,M,M,M,M,55.40,KRTS 051635Z AUTO 00000KT 10SM CLR 13/M05 A3011 RMK AO2,M
TMT,2021-10-05 16:35,-117.1971,39.4643,1749.34,57.40,28.40,32.82,0.00,0.00,0.00,30.15,M,10.00,M,CLR,M,M,M,M,M,M,M,M,M,M,M,M,M,M,57.40,KTMT 051635Z AUTO 00000KT 10SM CLR 14/M02 A3015 RMK AO2 T01411020,M
MEV,2021-10-05 16:35,-119.7500,38.9963,1441.42,53.60,28.40,37.67,0.00,0.00,0.00,30.09,M,7.00,M,CLR,M,M,M,M,M,M,M,M,M,M,M,M,M,M,53.60,KMEV 051635Z AUTO 00000KT 7SM CLR 12/M02 A3009 RMK AO2,M
CXP,2021-10-05 16:35,-119.7326,39.1923,1431.00,55.40,28.40,35.28,0.00,0.00,0.00,30.10,M,9.00,M,CLR,M,M,M,M,M,M,M,M,M,M,M,M,M,M,55.40,KCXP 051635Z AUTO 00000KT 9SM CLR 13/M02 A3010 RMK AO2,M
BVU,2021-10-05 16:35,-114.8611,35.9475,671.00,75.20,48.20,38.46,270.00,8.00,0.00,30.03,M,10.00,M,FEW,M,M,M,8000.00,M,M,M,M,M,M,M,M,M,M,75.20,KBVU 051635Z AUTO 27008KT 10SM FEW080 24/09 A3003 RMK AO2,M
BAM,2021-10-05 16:35,-116.8743,40.5990,1382.36,62.60,19.40,18.71,0.00,0.00,0.00,30.08,M,10.00,M,CLR,M,M,M,M,M,M,M,M,M,M,M,M,M,M,62.60,KBAM 051635Z AUTO 00000KT 10SM CLR 17/M07 A3008 RMK AO1,M
INS,2021-10-05 16:38,-115.6733,36.5872,955.00,69.80,44.60,40.29,310.00,6.00,0.00,30.06,1014.20,10.00,M,FEW,SCT,M,M,10000.00,20000.00,M,M,-DZ,M,M,M,M,M,M,69.80,KINS 051638Z AUTO 31006KT 10SM -DZ FEW100 SCT200 21/07 A3006 RMK AO2 DZB38 SLP142 $,M
INS,2021-10-05 16:48,-115.6733,36.5872,955.00,69.80,44.60,40.29,290.00,5.00,0.00,30.05,1013.80,10.00,M,FEW,M,M,M,10000.00,M,M,M,M,M,M,M,M,M,M,69.80,KINS 051648Z AUTO 29005KT 10SM FEW100 21/07 A3005 RMK AO2 DZB38E48DZB48 SLP138 $,M
P68,2021-10-05 16:53,-116.0056,39.6014,1993.00,64.00,28.00,25.54,0.00,0.00,0.00,30.15,1014.90,M,M,M,M,M,M,M,M,M,M,M,M,M,M,M,M,M,64.00,KP68 051653Z AUTO 00000KT 18/M02 A3015 RMK AO1 SLP149 T01781022,M
DRA,2021-10-05 16:53,-116.0278,36.6206,1009.00,62.00,55.00,77.53,330.00,8.00,0.03,30.08,1015.40,10.00,M,FEW,BKN,OVC,M,4600.00,10000.00,12000.00,M,-RA,M,M,M,M,M,M,62.10,KDRA 051653Z AUTO 33008KT 10SM -RA FEW046 BKN100 OVC120 17/13 A3008 RMK AO2 SLP154 P0003 T01670128,M
VGT,2021-10-05 16:53,-115.1933,36.2111,667.00,74.00,53.00,48.18,220.00,11.00,0.00,30.00,1015.50,10.00,19.00,CLR,M,M,M,M,M,M,M,M,M,M,M,M,M,M,73.90,KVGT 051653Z 22011G19KT 10SM CLR 23/12 A3000 RMK AO2 WSHFT 1602 LTG DSNT S SLP155 T02330117,M
ELY,2021-10-05 16:53,-114.8453,39.2950,1909.00,63.00,33.00,32.53,230.00,8.00,0.00,30.18,1014.60,10.00,M,OVC,M,M,M,8500.00,M,M,M,M,M,M,M,M,M,M,63.00,KELY 051653Z AUTO 23008KT 10SM OVC085 17/01 A3018 RMK AO2 SLP146 T01720006,M
LOL,2021-10-05 16:53,-118.5701,40.0684,1192.43,63.00,21.00,19.75,0.00,0.00,0.00,30.03,1014.90,9.00,M,CLR,M,M,M,M,M,M,M,M,M,M,M,M,M,M,63.00,KLOL 051653Z AUTO 00000KT 9SM CLR 17/M06 A3003 RMK AO2 SLP149 T01721061,M
HTH,2021-10-05 16:55,-118.6315,38.5448,1282.89,66.20,28.40,24.04,0.00,0.00,0.00,30.06,M,10.00,M,CLR,M,M,M,M,M,M,M,M,M,M,M,M,M,M,66.20,KHTH 051655Z AUTO 00000KT 10SM CLR 19/M02 A3006 RMK A01,M
MEV,2021-10-05 16:55,-119.7500,38.9963,1441.42,57.20,28.40,33.05,0.00,0.00,0.00,30.09,M,7.00,M,CLR,M,M,M,M,M,M,M,M,M,M,M,M,M,M,57.20,KMEV 051655Z AUTO 00000KT 7SM CLR 14/M02 A3009 RMK AO2,M
RNO,2021-10-05 16:55,-119.7711,39.4839,1341.00,57.00,28.00,32.75,0.00,0.00,0.00,30.08,1015.00,10.00,M,SCT,SCT,M,M,0.00,20000.00,M,M,M,M,M,M,M,M,M,57.00,KRNO 051655Z 00000KT 10SM SCT000 SCT200 14/M02 A3008 RMK AO2 SLP150 FU SCT000 FU AND HZ ALQDS T01391022,M
CXP,2021-10-05 16:55,-119.7326,39.1923,1431.00,59.00,26.60,28.77,0.00,0.00,0.00,30.10,M,9.00,M,CLR,M,M,M,M,M,M,M,M,M,M,M,M,M,M,59.00,KCXP 051655Z AUTO 00000KT 9SM CLR 15/M03 A3010 RMK AO2,M
RTS,2021-10-05 16:55,-119.8764,39.6682,1539.00,60.80,24.80,25.04,0.00,0.00,0.00,30.10,M,10.00,M,CLR,M,M,M,M,M,M,M,M,M,M,M,M,M,M,60.80,KRTS 051655Z AUTO 00000KT 10SM CLR 16/M04 A3010 RMK AO2,M
BAM,2021-10-05 16:55,-116.8743,40.5990,1382.36,68.00,19.40,15.50,90.00,4.00,0.00,30.08,M,10.00,M,CLR,M,M,M,M,M,M,M,M,M,M,M,M,M,M,68.00,KBAM 051655Z AUTO 09004KT 10SM CLR 20/M07 A3008 RMK AO1,M
TMT,2021-10-05 16:55,-117.1971,39.4643,1749.34,61.00,29.30,29.94,0.00,0.00,0.00,30.14,M,10.00,M,CLR,M,M,M,M,M,M,M,M,M,M,M,M,M,M,61.00,KTMT 051655Z AUTO 00000KT 10SM CLR 16/M01 A3014 RMK AO2 LTG DSNT S T01611015,M
BVU,2021-10-05 16:55,-114.8611,35.9475,671.00,77.00,48.20,36.22,260.00,8.00,0.00,30.03,M,10.00,M,CLR,M,M,M,M,M,M,M,VCTS,M,M,M,M,M,M,77.00,KBVU 051655Z AUTO 26008KT 10SM VCTS CLR 25/09 A3003 RMK AO2 LTG DSNT S AND SW,M
NFL,2021-10-05 16:56,-118.7010,39.4166,1199.00,67.00,21.90,17.91,180.00,3.00,0.00,30.03,1013.90,6.00,M,SCT,BKN,M,M,10000.00,20000.00,M,M,HZ,M,M,M,M,M,M,66.90,KNFL 051656Z 18003KT 6SM HZ SCT100 BKN200 19/M06 A3003 RMK AO2 SLP139 FU SCT100 T01941056,M
WMC,2021-10-05 16:56,-117.8072,40.9019,1315.00,67.00,19.00,15.83,20.00,6.00,0.00,30.04,1013.80,7.00,M,CLR,M,M,M,M,M,M,M,M,M,M,M,M,M,M,66.90,KWMC 051656Z AUTO 02006KT 7SM CLR 19/M07 A3004 RMK AO2 SLP138 T01941072,M
HND,2021-10-05 16:56,-115.1344,35.9729,742.79,69.00,56.00,62.80,160.00,7.00,T,30.06,1017.70,10.00,M,FEW,SCT,SCT,M,4400.00,8000.00,10000.00,M,-RA,M,M,M,29.00,200.00,2021-10-05 15:58,69.10,KHND 051656Z 16007KT 10SM -RA FEW044 SCT080 SCT100 21/13 A3006 RMK AO2 PK WND 20029/1558 LTG DSNT S TSE23RAB30 SLP177 P0000 T02060133,M
EKO,2021-10-05 16:56,-115.7860,40.8242,1367.00,60.00,19.00,20.09,0.00,0.00,0.00,30.12,1016.40,10.00,M,CLR,M,M,M,M,M,M,M,M,M,M,M,M,M,M,60.10,KEKO 051656Z AUTO 00000KT 10SM CLR 16/M07 A3012 RMK AO2 SLP164 T01561072,M
LAS,2021-10-05 16:56,-115.1634,36.0719,663.00,70.00,55.00,58.94,250.00,8.00,T,30.03,1014.90,10.00,M,SCT,BKN,BKN,M,8000.00,11000.00,20000.00,M,-RA,M,M,M,M,M,M,70.00,KLAS 051656Z 25008KT 10SM -RA SCT080 BKN110 BKN200 21/13 A3003 RMK AO2 LTG DSNT S RAB37 TSE02B10E32 SLP149 P0000 T02110128,M
TPH,2021-10-05 16:56,-117.0904,38.0505,1654.00,63.00,28.90,27.44,150.00,3.00,0.00,30.14,1015.20,10.00,M,CLR,M,M,M,M,M,M,M,M,M,M,M,M,M,M,63.00,KTPH 051656Z AUTO 15003KT 10SM CLR 17/M02 A3014 RMK AO2 SLP152 T01721017,M
LSV,2021-10-05 16:58,-115.0343,36.2362,570.00,75.60,52.20,44.03,210.00,9.00,0.00,30.01,M,10.00,M,CLR,M,M,M,M,M,M,M,M,M,M,M,M,M,M,75.60,KLSV 051658Z AUTO 21009KT 10SM CLR 24/11 A3001 RMK AO2 SLPNO T02420112 $,M
INS,2021-10-05 16:58,-115.6733,36.5872,955.00,70.20,44.00,38.99,280.00,10.00,T,30.06,1014.20,10.00,M,FEW,M,M,M,10000.00,M,M,M,M,M,M,M,M,M,M,70.20,KINS 051658Z AUTO 28010KT 10SM FEW100 21/07 A3006 RMK AO2 DZB38E48DZB48E48 SLP142 P0000 T02120067 $,M
BVU,2021-10-05 17:15,-114.8611,35.9475,671.00,77.00,48.20,36.22,M,5.00,0.00,30.03,M,10.00,M,CLR,M,M,M,M,M,M,M,M,M,M,M,M,M,M,77.00,KBVU 051715Z AUTO VRB05KT 10SM CLR 25/09 A3003 RMK AO2,M
RTS,2021-10-05 17:15,-119.8764,39.6682,1539.00,62.60,24.80,23.50,140.00,4.00,0.00,30.10,M,10.00,M,CLR,M,M,M,M,M,M,M,M,M,M,M,M,M,M,62.60,KRTS 051715Z AUTO 14004KT 10SM CLR 17/M04 A3010 RMK AO2,M
MEV,2021-10-05 17:15,-119.7500,38.9963,1441.42,59.00,30.20,33.35,230.00,4.00,0.00,30.08,M,5.00,M,CLR,M,M,M,M,M,M,M,HZ,M,M,M,M,M,M,59.00,KMEV 051715Z AUTO 23004KT 5SM HZ CLR 15/M01 A3008 RMK AO2,M
TMT,2021-10-05 17:15,-117.1971,39.4643,1749.34,64.20,29.50,26.96,0.00,0.00,0.00,30.14,M,10.00,M,CLR,M,M,M,M,M,M,M,M,M,M,M,M,M,M,64.20,KTMT 051715Z AUTO 00000KT 10SM CLR 18/M01 A3014 RMK AO2 T01791014,M
BAM,2021-10-05 17:15,-116.8743,40.5990,1382.36,69.80,21.20,15.73,0.00,0.00,0.00,30.07,M,10.00,M,CLR,M,M,M,M,M,M,M,M,M,M,M,M,M,M,69.80,KBAM 051715Z AUTO 00000KT 10SM CLR 21/M06 A3007 RMK AO1,M
HTH,2021-10-05 17:15,-118.6315,38.5448,1282.89,68.00,28.40,22.59,0.00,0.00,0.00,30.06,M,10.00,M,CLR,M,M,M,M,M,M,M,M,M,M,M,M,M,M,68.00,KHTH 051715Z AUTO 00000KT 10SM CLR 20/M02 A3006 RMK A01,M
CXP,2021-10-05 17:15,-119.7326,39.1923,1431.00,60.80,26.60,26.98,0.00,0.00,0.00,30.09,M,9.00,M,CLR,M,M,M,M,M,M,M,M,M,M,M,M,M,M,60.80,KCXP 051715Z AUTO 00000KT 9SM CLR 16/M03 A3009 RMK AO2,M
HTH,2021-10-05 17:35,-118.6315,38.5448,1282.89,69.80,28.40,21.24,0.00,0.00,0.00,30.05,M,10.00,M,CLR,M,M,M,M,M,M,M,M,M,M,M,M,M,M,69.80,KHTH 051735Z AUTO 00000KT 10SM CLR 21/M02 A3005 RMK A01,M
BVU,2021-10-05 17:35,-114.8611,35.9475,671.00,77.00,48.20,36.22,190.00,7.00,0.00,30.03,M,10.00,M,CLR,M,M,M,M,M,M,M,M,M,M,M,M,M,M,77.00,KBVU 051735Z AUTO 19007KT 10SM CLR 25/09 A3003 RMK AO2,M
CXP,2021-10-05 17:35,-119.7326,39.1923,1431.00,62.60,28.40,27.27,0.00,0.00,0.00,30.09,M,9.00,M,CLR,M,M,M,M,M,M,M,M,M,M,M,M,M,M,62.60,KCXP 051735Z AUTO 00000KT 9SM CLR 17/M02 A3009 RMK AO2,M
RTS,2021-10-05 17:35,-119.8764,39.6682,1539.00,64.40,23.00,20.46,130.00,4.00,0.00,30.09,M,10.00,M,CLR,M,M,M,M,M,M,M,M,M,M,M,M,M,M,64.40,KRTS 051735Z AUTO 13004KT 10SM CLR 18/M05 A3009 RMK AO2,M
MEV,2021-10-05 17:35,-119.7500,38.9963,1441.42,60.80,30.20,31.28,0.00,0.00,0.00,30.08,M,5.00,M,CLR,M,M,M,M,M,M,M,HZ,M,M,M,M,M,M,60.80,KMEV 051735Z AUTO 00000KT 5SM HZ CLR 16/M01 A3008 RMK AO2,M
BAM,2021-10-05 17:35,-116.8743,40.5990,1382.36,71.60,21.20,14.80,0.00,0.00,0.00,30.07,M,10.00,M,CLR,M,M,M,M,M,M,M,M,M,M,M,M,M,M,71.60,KBAM 051735Z AUTO 00000KT 10SM CLR 22/M06 A3007 RMK AO1,M
TMT,2021-10-05 17:35,-117.1971,39.4643,1749.34,66.20,29.10,24.74,0.00,0.00,0.00,30.13,M,10.00,M,CLR,M,M,M,M,M,M,M,M,M,M,M,M,M,M,66.20,KTMT 051735Z AUTO 00000KT 10SM CLR 19/M02 A3013 RMK AO2 T01901016,M
BAM,2021-10-05 17:50,-116.8743,40.5990,1382.36,71.60,23.00,15.97,0.00,0.00,0.00,30.06,M,10.00,M,CLR,M,M,M,M,M,M,M,M,M,M,M,M,M,M,71.60,KBAM 051750Z AUTO 00000KT 10SM CLR 22/M05 A3006 RMK AO1,M
VGT,2021-10-05 17:53,-115.1933,36.2111,667.00,79.00,50.00,36.27,0.00,0.00,0.00,29.99,1015.10,10.00,M,CLR,M,M,M,M,M,M,M,M,M,M,M,M,M,M,79.00,KVGT 051753Z 00000KT 10SM CLR 26/10 A2999 RMK AO2 LTG DSNT SW SLP151 T02610100 10261 20217 50006,M
ELY,2021-10-05 17:53,-114.8453,39.2950,1909.00,67.00,34.00,29.44,150.00,12.00,0.00,30.17,1013.10,10.00,M,OVC,M,M,M,9000.00,M,M,M,M,M,M,M,M,M,M,66.90,KELY 051753Z AUTO 15012KT 10SM OVC090 19/01 A3017 RMK AO2 SLP131 T01940011 10200 20033 58009,M
LOL,2021-10-05 17:53,-118.5701,40.0684,1192.43,70.00,21.00,15.50,180.00,4.00,0.00,30.03,1014.40,9.00,M,CLR,M,M,M,M,M,M,M,M,M,M,M,M,M,M,70.00,KLOL 051753Z AUTO 18004KT 9SM CLR 21/M06 A3003 RMK AO2 SLP144 T02111061 10211 20017 58003,M
DRA,2021-10-05 17:53,-116.0278,36.6206,1009.00,62.00,54.00,74.75,250.00,6.00,T,30.09,1015.80,10.00,M,OVC,M,M,M,8500.00,M,M,M,-RA,M,M,M,M,M,M,62.10,KDRA 051753Z AUTO 25006KT 10SM -RA OVC085 17/12 A3009 RMK AO2 SLP158 P0000 60003 T01670122 10189 20150 51021,M
P68,2021-10-05 17:53,-116.0056,39.6014,1993.00,69.00,28.90,22.21,M,3.00,0.00,30.13,1014.30,M,M,M,M,M,M,M,M,M,M,M,M,M,M,M,M,M,69.10,KP68 051753Z AUTO VRB03KT 21/M02 A3013 RMK AO1 SLP143 T02061017 10206 20044 58010,M
HTH,2021-10-05 17:55,-118.6315,38.5448,1282.89,69.80,28.40,21.24,0.00,0.00,0.00,30.05,M,10.00,M,CLR,M,M,M,M,M,M,M,M,M,M,M,M,M,M,69.80,KHTH 051755Z AUTO 00000KT 10SM CLR 21/M02 A3005 RMK A01,M
TMT,2021-10-05 17:55,-117.1971,39.4643,1749.34,68.70,29.10,22.70,210.00,5.00,0.00,30.12,M,10.00,M,CLR,M,M,M,M,M,M,M,M,M,M,M,M,M,M,68.70,KTMT 051755Z AUTO 21005KT 10SM CLR 20/M02 A3012 RMK AO2 LTG DSNT S T02041016 10204 21021,M
CXP,2021-10-05 17:55,-119.7326,39.1923,1431.00,64.40,28.40,25.60,0.00,0.00,0.00,30.09,M,8.00,M,CLR,M,M,M,M,M,M,M,M,M,M,M,M,M,M,64.40,KCXP 051755Z AUTO 00000KT 8SM CLR 18/M02 A3009 RMK AO2,M
RTS,2021-10-05 17:55,-119.8764,39.6682,1539.00,66.20,23.00,19.22,0.00,0.00,0.00,30.09,M,10.00,M,CLR,M,M,M,M,M,M,M,M,M,M,M,M,M,M,66.20,KRTS 051755Z AUTO 00000KT 10SM CLR 19/M05 A3009 RMK AO2,M
RNO,2021-10-05 17:55,-119.7711,39.4839,1341.00,62.00,28.00,27.30,0.00,0.00,0.00,30.07,1014.60,10.00,M,SCT,SCT,M,M,0.00,20000.00,M,M,M,M,M,M,M,M,M,62.10,KRNO 051755Z 00000KT 10SM SCT000 SCT200 17/M02 A3007 RMK AO2 SLP146 FU SCT000 FU ALF AND HZ ALQDS T01671022 10167 20072 58003,M
BVU,2021-10-05 17:55,-114.8611,35.9475,671.00,77.00,48.20,36.22,170.00,6.00,0.00,30.02,M,10.00,M,SCT,M,M,M,11000.00,M,M,M,M,M,M,M,M,M,M,77.00,KBVU 051755Z AUTO 17006KT 10SM SCT110 25/09 A3002 RMK AO2 LTG DSNT SE AND SW,M
MEV,2021-10-05 17:55,-119.7500,38.9963,1441.42,62.60,33.80,33.93,0.00,0.00,0.00,30.08,M,5.00,M,CLR,M,M,M,M,M,M,M,HZ,M,M,M,M,M,M,62.60,KMEV 051755Z AUTO 00000KT 5SM HZ CLR 17/01 A3008 RMK AO2,M
EKO,2021-10-05 17:56,-115.7860,40.8242,1367.00,69.00,24.10,18.21,0.00,0.00,0.00,30.09,1015.00,10.00,M,CLR,M,M,M,M,M,M,M,M,M,M,M,M,M,M,69.10,KEKO 051756Z AUTO 00000KT 10SM CLR 21/M04 A3009 RMK AO2 SLP150 T02061044 10206 20033 58011,M
WMC,2021-10-05 17:56,-117.8072,40.9019,1315.00,72.00,19.00,13.29,20.00,4.00,0.00,30.03,1013.50,9.00,M,CLR,M,M,M,M,M,M,M,M,M,M,M,M,M,M,72.00,KWMC 051756Z AUTO 02004KT 9SM CLR 22/M07 A3003 RMK AO2 SLP135 T02221072 10222 20028 58005,M
HND,2021-10-05 17:56,-115.1344,35.9729,742.79,72.00,52.00,49.33,170.00,10.00,T,30.05,1017.20,10.00,M,FEW,M,M,M,11000.00,M,M,M,M,M,M,M,M,M,M,72.00,KHND 051756Z 17010KT 10SM FEW110 22/11 A3005 RMK AO2 LTG DSNT SW AND W RAE1659 SLP172 P0000 60000 T02220111 10228 20183 50006,M
NFL,2021-10-05 17:56,-118.7010,39.4166,1199.00,72.00,21.90,15.04,0.00,0.00,0.00,30.02,1013.60,6.00,M,BKN,M,M,M,10000.00,M,M,M,HZ FU,M,M,M,M,M,M,72.00,KNFL 051756Z 00000KT 6SM HZ FU BKN100 22/M06 A3002 RMK AO2 SLP136 FU BKN100 T02221056 10222 20061 58004,M
LAS,2021-10-05 17:56,-115.1634,36.0719,663.00,73.00,53.00,49.66,180.00,8.00,T,30.02,1014.50,10.00,M,FEW,SCT,BKN,M,8000.00,11000.00,20000.00,M,M,M,M,M,M,M,M,73.00,KLAS 051756Z 18008KT 10SM FEW080 SCT110 BKN200 23/12 A3002 RMK AO2 LTG DSNT SW RAE1659 SLP145 VIRGA DSNT SW P0000 60000 T02280117 10239 20200 50007,M
TPH,2021-10-05 17:56,-117.0904,38.0505,1654.00,69.00,28.90,22.21,170.00,8.00,0.00,30.13,1014.50,10.00,M,CLR,M,M,M,M,M,M,M,M,M,M,M,M,M,M,69.10,KTPH 051756Z AUTO 17008KT 10SM CLR 21/M02 A3013 RMK AO2 SLP145 T02061017 10206 20083 58001,M
INS,2021-10-05 17:58,-115.6733,36.5872,955.00,69.40,48.40,47.15,270.00,10.00,0.00,30.06,1014.30,10.00,M,FEW,SCT,BKN,M,8000.00,9500.00,20000.00,M,M,M,M,M,M,M,M,69.40,KINS 051758Z AUTO 27010KT 10SM FEW080 SCT095 BKN200 21/09 A3006 RMK AO2 SLP143 60000 T02080091 10217 20154 51018 $,M
LSV,2021-10-05 17:58,-115.0343,36.2362,570.00,78.40,51.40,38.96,180.00,6.00,0.00,30.00,1014.00,10.00,M,CLR,M,M,M,M,M,M,M,M,M,M,M,M,M,M,78.40,KLSV 051758Z AUTO 18006KT 10SM CLR 26/11 A3000 RMK AO2 SLP140 60000 T02580108 10258 20195 50008 $,M
TMT,2021-10-05 18:10,-117.1971,39.4643,1749.34,69.60,29.50,22.37,240.00,6.00,0.00,30.12,M,10.00,M,CLR,M,M,M,M,M,M,M,M,M,M,M,M,M,M,69.60,KTMT 051810Z AUTO 24006KT 10SM CLR 21/M01 A3012 RMK AO2 T02091014,M
BAM,2021-10-05 18:10,-116.8743,40.5990,1382.36,73.40,23.00,15.03,0.00,0.00,0.00,30.05,M,10.00,M,CLR,M,M,M,M,M,M,M,M,M,M,M,M,M,M,73.40,KBAM 051810Z AUTO 00000KT 10SM CLR 23/M05 A3005 RMK AO1,M
RTS,2021-10-05 18:15,-119.8764,39.6682,1539.00,68.00,23.00,18.06,M,4.00,0.00,30.09,M,10.00,M,CLR,M,M,M,M,M,M,M,M,M,M,M,M,M,M,68.00,KRTS 051815Z AUTO VRB04KT 10SM CLR 20/M05 A3009 RMK AO2,M
CXP,2021-10-05 18:15,-119.7326,39.1923,1431.00,68.00,26.60,20.98,0.00,0.00,0.00,30.08,M,8.00,M,CLR,M,M,M,M,M,M,M,M,M,M,M,M,M,M,68.00,KCXP 051815Z AUTO 00000KT 8SM CLR 20/M03 A3008 RMK AO2,M
HTH,2021-10-05 18:15,-118.6315,38.5448,1282.89,71.60,28.40,19.98,0.00,0.00,0.00,30.04,M,10.00,M,CLR,M,M,M,M,M,M,M,M,M,M,M,M,M,M,71.60,KHTH 051815Z AUTO 00000KT 10SM CLR 22/M02 A3004 RMK A01,M
MEV,2021-10-05 18:15,-119.7500,38.9963,1441.42,66.20,32.00,27.83,0.00,0.00,0.00,30.07,M,5.00,M,CLR,M,M,M,M,M,M,M,HZ,M,M,M,M,M,M,66.20,KMEV 051815Z AUTO 00000KT 5SM HZ CLR 19/00 A3007 RMK AO2,M
BVU,2021-10-05 18:15,-114.8611,35.9475,671.00,77.00,48.20,36.22,200.00,8.00,0.00,30.02,M,10.00,M,SCT,M,M,M,11000.00,M,M,M,M,M,M,M,M,M,M,77.00,KBVU 051815Z AUTO 20008KT 10SM SCT110 25/09 A3002 RMK AO2,M
MEV,2021-10-05 18:35,-119.7500,38.9963,1441.42,68.00,28.40,22.59,40.00,4.00,0.00,30.06,M,5.00,M,CLR,M,M,M,M,M,M,M,HZ,M,M,M,M,M,M,68.00,KMEV 051835Z AUTO 04004KT 5SM HZ CLR 20/M02 A3006 RMK AO2,M
HTH,2021-10-05 18:35,-118.6315,38.5448,1282.89,73.40,28.40,18.80,0.00,0.00,0.00,30.03,M,10.00,M,CLR,M,M,M,M,M,M,M,M,M,M,M,M,M,M,73.40,KHTH 051835Z AUTO 00000KT 10SM CLR 23/M02 A3003 RMK A01,M
RTS,2021-10-05 18:35,-119.8764,39.6682,1539.00,69.80,21.20,15.73,250.00,8.00,0.00,30.08,M,6.00,M,CLR,M,M,M,M,M,M,M,HZ,M,M,M,M,M,M,69.80,KRTS 051835Z AUTO 25008KT 6SM HZ CLR 21/M06 A3008 RMK AO2,M
TMT,2021-10-05 18:35,-117.1971,39.4643,1749.34,71.00,29.30,21.08,20.00,4.00,0.00,30.10,M,10.00,M,CLR,M,M,M,M,M,M,M,M,M,M,M,M,M,M,71.10,KTMT 051835Z AUTO 02004KT 10SM CLR 22/M01 A3010 RMK AO2 T02171015,M
CXP,2021-10-05 18:35,-119.7326,39.1923,1431.00,69.80,26.60,19.72,M,3.00,0.00,30.07,M,7.00,M,CLR,M,M,M,M,M,M,M,M,M,M,M,M,M,M,69.80,KCXP 051835Z AUTO VRB03KT 7SM CLR 21/M03 A3007 RMK AO2,M
BVU,2021-10-05 18:35,-114.8611,35.9475,671.00,77.00,50.00,38.74,200.00,8.00,0.00,30.02,M,10.00,M,BKN,BKN,M,M,10000.00,12000.00,M,M,M,M,M,M,M,M,M,77.00,KBVU 051835Z AUTO 20008KT 10SM BKN100 BKN120 25/10 A3002 RMK AO2 LTG DSNT SE-W,M
BAM,2021-10-05 18:35,-116.8743,40.5990,1382.36,77.00,24.80,14.37,0.00,0.00,0.00,30.04,M,10.00,M,CLR,M,M,M,M,M,M,M,M,M,M,M,M,M,M,77.00,KBAM 051835Z AUTO 00000KT 10SM CLR 25/M04 A3004 RMK AO1,M
VGT,2021-10-05 18:53,-115.1933,36.2111,667.00,81.00,50.00,33.97,170.00,8.00,0.00,29.99,1015.10,10.00,M,CLR,M,M,M,M,M,M,M,M,M,M,M,M,M,M,80.12,KVGT 051853Z 17008KT 10SM CLR 27/10 A2999 RMK AO2 SLP151 T02720100,M
P68,2021-10-05 18:53,-116.0056,39.6014,1993.00,73.00,28.90,19.45,160.00,15.00,0.00,30.12,1012.70,M,19.00,M,M,M,M,M,M,M,M,M,M,M,M,M,M,M,73.00,KP68 051853Z AUTO 16015G19KT 23/M02 A3012 RMK AO1 SLP127 T02281017,M
LOL,2021-10-05 18:53,-118.5701,40.0684,1192.43,75.00,23.00,14.24,0.00,0.00,0.00,30.01,1013.70,9.00,M,CLR,M,M,M,M,M,M,M,M,M,M,M,M,M,M,75.00,KLOL 051853Z AUTO 00000KT 9SM CLR 24/M05 A3001 RMK AO2 SLP137 T02391050,M
DRA,2021-10-05 18:53,-116.0278,36.6206,1009.00,66.00,56.00,69.88,30.00,6.00,0.01,30.04,1014.00,10.00,M,SCT,M,M,M,10000.00,M,M,M,-RA,M,M,M,M,M,M,66.00,KDRA 051853Z AUTO 03006KT 10SM -RA SCT100 19/13 A3004 RMK AO2 SLP140 P0001 T01890133,M
ELY,2021-10-05 18:53,-114.8453,39.2950,1909.00,68.00,34.00,28.34,190.00,11.00,0.00,30.16,1013.20,10.00,18.00,BKN,OVC,M,M,8000.00,9000.00,M,M,M,M,M,M,M,M,M,68.00,KELY 051853Z AUTO 19011G18KT 10SM BKN080 OVC090 20/01 A3016 RMK AO2 SLP132 T02000011,M
MEV,2021-10-05 18:55,-119.7500,38.9963,1441.42,69.80,26.60,19.72,0.00,0.00,0.00,30.06,M,4.00,M,CLR,M,M,M,M,M,M,M,HZ,M,M,M,M,M,M,69.80,KMEV 051855Z AUTO 00000KT 4SM HZ CLR 21/M03 A3006 RMK AO2,M
TMT,2021-10-05 18:55,-117.1971,39.4643,1749.34,73.40,27.90,18.42,260.00,6.00,0.00,30.10,M,10.00,M,CLR,M,M,M,M,M,M,M,M,M,M,M,M,M,M,73.40,KTMT 051855Z AUTO 26006KT 10SM CLR 23/M02 A3010 RMK AO2 T02301023,M
BAM,2021-10-05 18:55,-116.8743,40.5990,1382.36,77.00,26.60,15.48,210.00,5.00,0.00,30.04,M,10.00,M,CLR,M,M,M,M,M,M,M,M,M,M,M,M,M,M,77.00,KBAM 051855Z AUTO 21005KT 10SM CLR 25/M03 A3004 RMK AO1,M
HTH,2021-10-05 18:55,-118.6315,38.5448,1282.89,75.20,28.40,17.70,10.00,4.00,0.00,30.03,M,10.00,M,CLR,M,M,M,M,M,M,M,M,M,M,M,M,M,M,75.20,KHTH 051855Z AUTO 01004KT 10SM CLR 24/M02 A3003 RMK A01,M
RNO,2021-10-05 18:55,-119.7711,39.4839,1341.00,68.00,28.90,23.06,0.00,0.00,0.00,30.04,1013.60,10.00,M,SCT,SCT,M,M,0.00,20000.00,M,M,M,M,M,M,M,M,M,68.00,KRNO 051855Z 00000KT 10SM SCT000 SCT200 20/M02 A3004 RMK AO2 SLP136 FU SCT000 FU ALF AND HZ ALQDS T02001017,M
RTS,2021-10-05 18:55,-119.8764,39.6682,1539.00,69.80,21.20,15.73,250.00,13.00,0.00,30.08,M,10.00,18.00,CLR,M,M,M,M,M,M,M,M,M,M,M,M,M,M,69.80,KRTS 051855Z AUTO 25013G18KT 10SM CLR 21/M06 A3008 RMK AO2,M
BVU,2021-10-05 18:55,-114.8611,35.9475,671.00,77.00,50.00,38.74,190.00,8.00,0.00,30.03,M,10.00,15.00,SCT,M,M,M,10000.00,M,M,M,M,M,M,M,M,M,M,77.00,KBVU 051855Z AUTO 19008G15KT 10SM SCT100 25/10 A3003 RMK AO2 LTG DSNT SE,M
CXP,2021-10-05 18:55,-119.7326,39.1923,1431.00,71.60,26.60,18.55,0.00,0.00,0.00,30.07,M,7.00,M,CLR,M,M,M,M,M,M,M,M,M,M,M,M,M,M,71.60,KCXP 051855Z AUTO 00000KT 7SM CLR 22/M03 A3007 RMK AO2,M
HND,2021-10-05 18:56,-115.1344,35.9729,742.79,73.00,51.00,46.13,210.00,11.00,0.00,30.05,1017.10,10.00,M,SCT,M,M,M,9500.00,M,M,M,M,M,M,M,M,M,M,73.00,KHND 051856Z 21011KT 10SM SCT095 23/11 A3005 RMK AO2 SLP171 T02280106,M
WMC,2021-10-05 18:56,-117.8072,40.9019,1315.00,76.00,21.00,12.70,M,4.00,0.00,30.01,1013.20,9.00,M,CLR,M,M,M,M,M,M,M,M,M,M,M,M,M,M,75.90,KWMC 051856Z AUTO VRB04KT 9SM CLR 24/M06 A3001 RMK AO2 SLP132 T02441061,M
EKO,2021-10-05 18:56,-115.7860,40.8242,1367.00,74.00,27.00,17.45,0.00,0.00,0.00,30.07,1014.10,10.00,M,CLR,M,M,M,M,M,M,M,M,M,M,M,M,M,M,73.90,KEKO 051856Z AUTO 00000KT 10SM CLR 23/M03 A3007 RMK AO2 SLP141 T02331028,M
TPH,2021-10-05 18:56,-117.0904,38.0505,1654.00,72.00,28.90,20.12,180.00,13.00,0.00,30.12,1014.00,10.00,19.00,CLR,M,M,M,M,M,M,M,M,M,M,M,M,M,M,72.00,KTPH 051856Z AUTO 18013G19KT 10SM CLR 22/M02 A3012 RMK AO2 SLP140 T02221017,M
NFL,2021-10-05 18:56,-118.7010,39.4166,1199.00,75.00,25.00,15.48,0.00,0.00,0.00,30.01,1013.20,6.00,M,BKN,BKN,M,M,10000.00,20000.00,M,M,HZ FU,M,M,M,M,M,M,75.00,KNFL 051856Z 00000KT 6SM HZ FU BKN100 BKN200 24/M04 A3001 RMK AO2 SLP132 FU BKN100 T02391039,M
LAS,2021-10-05 18:56,-115.1634,36.0719,663.00,75.00,51.00,43.14,180.00,4.00,0.00,30.02,1014.50,10.00,M,FEW,SCT,BKN,M,8000.00,11000.00,20000.00,M,M,M,M,M,M,M,M,75.00,KLAS 051856Z 18004KT 10SM FEW080 SCT110 BKN200 24/11 A3002 RMK AO2 SLP145 VIRGA DSNT SW T02390106,M
INS,2021-10-05 18:58,-115.6733,36.5872,955.00,73.00,44.20,35.71,340.00,7.00,0.00,30.04,1013.60,10.00,M,FEW,SCT,M,M,11000.00,20000.00,M,M,M,M,M,M,M,M,M,72.90,KINS 051858Z AUTO 34007KT 10SM FEW110 SCT200 23/07 A3004 RMK AO2 SLP136 T02270068 $,M
LSV,2021-10-05 18:58,-115.0343,36.2362,570.00,80.80,49.80,33.94,190.00,7.00,0.00,29.99,1013.50,10.00,M,CLR,M,M,M,M,M,M,M,M,M,M,M,M,M,M,79.98,KLSV 051858Z AUTO 19007KT 10SM CLR 27/10 A2999 RMK AO2 SLP135 T02710099 $,M
TMT,2021-10-05 19:15,-117.1971,39.4643,1749.34,73.40,28.40,18.80,160.00,5.00,0.00,30.10,M,10.00,M,SCT,M,M,M,10000.00,M,M,M,M,M,M,M,M,M,M,73.40,KTMT 051915Z AUTO 16005KT 10SM SCT100 23/M02 A3010 RMK AO2 T02301020,M
MEV,2021-10-05 19:15,-119.7500,38.9963,1441.42,71.60,26.60,18.55,0.00,0.00,0.00,30.05,M,4.00,M,CLR,M,M,M,M,M,M,M,HZ,M,M,M,M,M,M,71.60,KMEV 051915Z AUTO 00000KT 4SM HZ CLR 22/M03 A3005 RMK AO2,M
BAM,2021-10-05 19:15,-116.8743,40.5990,1382.36,78.80,26.60,14.59,240.00,4.00,0.00,30.03,M,10.00,M,CLR,M,M,M,M,M,M,M,M,M,M,M,M,M,M,78.80,KBAM 051915Z AUTO 24004KT 10SM CLR 26/M03 A3003 RMK AO1,M
HTH,2021-10-05 19:15,-118.6315,38.5448,1282.89,75.20,28.40,17.70,0.00,0.00,0.00,30.02,M,10.00,M,CLR,M,M,M,M,M,M,M,M,M,M,M,M,M,M,75.20,KHTH 051915Z AUTO 00000KT 10SM CLR 24/M02 A3002 RMK A01,M
RTS,2021-10-05 19:15,-119.8764,39.6682,1539.00,69.80,23.00,16.98,250.00,16.00,0.00,30.07,M,10.00,M,CLR,M,M,M,M,M,M,M,M,M,M,M,M,M,M,69.80,KRTS 051915Z AUTO 25016KT 10SM CLR 21/M05 A3007 RMK AO2,M
CXP,2021-10-05 19:15,-119.7326,39.1923,1431.00,73.40,26.60,17.46,0.00,0.00,0.00,30.06,M,8.00,M,CLR,M,M,M,M,M,M,M,M,M,M,M,M,M,M,73.40,KCXP 051915Z AUTO 00000KT 8SM CLR 23/M03 A3006 RMK AO2,M
BVU,2021-10-05 19:15,-114.8611,35.9475,671.00,75.20,50.00,41.14,0.00,0.00,0.00,30.03,M,10.00,M,SCT,M,M,M,9000.00,M,M,M,M,M,M,M,M,M,M,75.20,KBVU 051915Z AUTO 00000KT 10SM SCT090 24/10 A3003 RMK AO2 LTG DSNT SE AND S,M
MEV,2021-10-05 19:35,-119.7500,38.9963,1441.42,73.40,26.60,17.46,M,5.00,0.00,30.04,M,4.00,M,CLR,M,M,M,M,M,M,M,HZ,M,M,M,M,M,M,73.40,KMEV 051935Z AUTO VRB05KT 4SM HZ CLR 23/M03 A3004 RMK AO2,M
TMT,2021-10-05 19:35,-117.1971,39.4643,1749.34,72.00,27.30,18.84,250.00,9.00,0.00,30.09,M,10.00,M,BKN,M,M,M,10000.00,M,M,M,M,M,M,M,M,M,M,72.00,KTMT 051935Z AUTO 25009KT 10SM BKN100 22/M03 A3009 RMK AO2 T02221026,M
BAM,2021-10-05 19:35,-116.8743,40.5990,1382.36,78.80,26.60,14.59,240.00,3.00,0.00,30.02,M,10.00,M,CLR,M,M,M,M,M,M,M,M,M,M,M,M,M,M,78.80,KBAM 051935Z AUTO 24003KT 10SM CLR 26/M03 A3002 RMK AO1,M
HTH,2021-10-05 19:35,-118.6315,38.5448,1282.89,77.00,28.40,16.67,290.00,4.00,0.00,30.01,M,10.00,M,CLR,M,M,M,M,M,M,M,M,M,M,M,M,M,M,77.00,KHTH 051935Z AUTO 29004KT 10SM CLR 25/M02 A3001 RMK A01,M
BVU,2021-10-05 19:35,-114.8611,35.9475,671.00,73.40,50.00,43.69,130.00,22.00,0.00,30.03,M,10.00,M,SCT,M,M,M,9500.00,M,M,M,M,M,M,M,M,M,M,73.40,KBVU 051935Z AUTO 13022KT 10SM SCT095 23/10 A3003 RMK AO2,M
CXP,2021-10-05 19:35,-119.7326,39.1923,1431.00,73.40,28.40,18.80,230.00,7.00,0.00,30.05,M,8.00,M,CLR,M,M,M,M,M,M,M,M,M,M,M,M,M,M,73.40,KCXP 051935Z AUTO 23007KT 8SM CLR 23/M02 A3005 RMK AO2,M
RTS,2021-10-05 19:35,-119.8764,39.6682,1539.00,71.60,23.00,15.97,260.00,14.00,0.00,30.07,M,10.00,M,CLR,M,M,M,M,M,M,M,M,M,M,M,M,M,M,71.60,KRTS 051935Z AUTO 26014KT 10SM CLR 22/M05 A3007 RMK AO2,M
ELY,2021-10-05 19:53,-114.8453,39.2950,1909.00,67.00,35.00,30.75,170.00,14.00,0.00,30.14,1013.30,10.00,M,BKN,M,M,M,11000.00,M,M,M,M,M,M,M,27.00,150.00,2021-10-05 19:26,66.90,KELY 051953Z AUTO 17014KT 10SM BKN110 19/02 A3014 RMK AO2 PK WND 15027/1926 SLP133 T01940017,M
VGT,2021-10-05 19:53,-115.1933,36.2111,667.00,79.00,50.00,36.27,180.00,9.00,0.00,29.98,1014.90,10.00,M,BKN,BKN,M,M,9000.00,11000.00,M,M,M,M,M,M,M,M,M,79.00,KVGT 051953Z 18009KT 10SM BKN090 BKN110 26/10 A2998 RMK AO2 SLP149 T02610100,M
DRA,2021-10-05 19:53,-116.0278,36.6206,1009.00,69.00,50.00,50.56,50.00,14.00,T,30.03,1013.50,10.00,M,FEW,FEW,OVC,M,5000.00,7500.00,10000.00,M,-RA,M,M,M,M,M,M,69.10,KDRA 051953Z AUTO 05014KT 10SM -RA FEW050 FEW075 OVC100 21/10 A3003 RMK AO2 SLP135 P0000 T02060100,M
P68,2021-10-05 19:53,-116.0056,39.6014,1993.00,72.00,28.00,19.39,150.00,7.00,0.00,30.09,1011.80,M,M,M,M,M,M,M,M,M,M,M,M,M,M,M,M,M,72.00,KP68 051953Z AUTO 15007KT 22/M02 A3009 RMK AO1 SLP118 T02221022,M
LOL,2021-10-05 19:53,-118.5701,40.0684,1192.43,78.00,21.90,12.26,0.00,0.00,0.00,29.98,1012.90,10.00,M,CLR,M,M,M,M,M,M,M,M,M,M,M,M,M,M,78.10,KLOL 051953Z AUTO 00000KT 10SM CLR 26/M06 A2998 RMK AO2 SLP129 T02561056,M
RNO,2021-10-05 19:55,-119.7711,39.4839,1341.00,73.00,28.00,18.74,M,3.00,0.00,30.02,1012.50,9.00,M,FEW,FEW,SCT,M,0.00,14000.00,20000.00,M,M,M,M,M,M,M,M,73.00,KRNO 051955Z VRB03KT 9SM FEW000 FEW140 SCT200 23/M02 A3002 RMK AO2 SLP125 FU FEW000 FU ALF AND HZ ALQDS T02281022,M
CXP,2021-10-05 19:55,-119.7326,39.1923,1431.00,75.20,26.60,16.43,210.00,8.00,0.00,30.04,M,9.00,16.00,CLR,M,M,M,M,M,M,M,M,M,M,M,M,M,M,75.20,KCXP 051955Z AUTO 21008G16KT 160V220 9SM CLR 24/M03 A3004 RMK AO2,M
RTS,2021-10-05 19:55,-119.8764,39.6682,1539.00,71.60,24.80,17.22,240.00,11.00,0.00,30.06,M,10.00,18.00,CLR,M,M,M,M,M,M,M,M,M,M,M,M,M,M,71.60,KRTS 051955Z AUTO 24011G18KT 10SM CLR 22/M04 A3006 RMK AO2,M
TMT,2021-10-05 19:55,-117.1971,39.4643,1749.34,76.00,28.20,17.04,220.00,11.00,0.00,30.08,M,10.00,16.00,BKN,M,M,M,10000.00,M,M,M,M,M,M,M,M,M,M,76.10,KTMT 051955Z AUTO 22011G16KT 10SM BKN100 25/M02 A3008 RMK AO2 T02451021,M
MEV,2021-10-05 19:55,-119.7500,38.9963,1441.42,73.40,26.60,17.46,0.00,0.00,0.00,30.03,M,5.00,M,CLR,M,M,M,M,M,M,M,HZ,M,M,M,M,M,M,73.40,KMEV 051955Z AUTO 00000KT 5SM HZ CLR 23/M03 A3003 RMK AO2,M
BAM,2021-10-05 19:55,-116.8743,40.5990,1382.36,80.60,26.60,13.75,240.00,3.00,0.00,30.01,M,10.00,M,CLR,M,M,M,M,M,M,M,M,M,M,M,M,M,M,78.68,KBAM 051955Z AUTO 24003KT 10SM CLR 27/M03 A3001 RMK AO1,M
HTH,2021-10-05 19:55,-118.6315,38.5448,1282.89,77.00,26.60,15.48,300.00,6.00,0.00,30.00,M,10.00,M,CLR,M,M,M,M,M,M,M,M,M,M,M,M,M,M,77.00,KHTH 051955Z AUTO 30006KT 10SM CLR 25/M03 A3000 RMK A01,M
BVU,2021-10-05 19:55,-114.8611,35.9475,671.00,73.40,48.20,40.85,150.00,15.00,0.00,30.02,M,10.00,24.00,FEW,M,M,M,10000.00,M,M,M,M,M,M,M,M,M,M,73.40,KBVU 051955Z AUTO 15015G24KT 10SM FEW100 23/09 A3002 RMK AO2 LTG DSNT E AND SE,M
WMC,2021-10-05 19:56,-117.8072,40.9019,1315.00,79.00,24.10,13.06,300.00,4.00,0.00,29.99,1012.10,10.00,M,CLR,M,M,M,M,M,M,M,M,M,M,M,M,M,M,79.00,KWMC 051956Z AUTO 30004KT 10SM CLR 26/M04 A2999 RMK AO2 SLP121 T02611044,M
HND,2021-10-05 19:56,-115.1344,35.9729,742.79,74.00,49.00,41.24,210.00,6.00,0.00,30.04,1016.90,10.00,M,BKN,M,M,M,10000.00,M,M,M,M,M,M,M,M,M,M,73.90,KHND 051956Z 21006KT 10SM BKN100 23/09 A3004 RMK AO2 SLP169 T02330094,M
EKO,2021-10-05 19:56,-115.7860,40.8242,1367.00,76.00,28.00,17.01,0.00,0.00,0.00,30.04,1012.80,10.00,M,SCT,M,M,M,10000.00,M,M,M,M,M,M,M,M,M,M,75.90,KEKO 051956Z AUTO 00000KT 10SM SCT100 24/M02 A3004 RMK AO2 SLP128 T02441022,M
LAS,2021-10-05 19:56,-115.1634,36.0719,663.00,77.00,49.00,37.19,190.00,6.00,0.00,30.01,1014.10,10.00,M,FEW,BKN,BKN,M,6500.00,11000.00,25000.00,M,M,M,M,M,M,M,M,77.00,KLAS 051956Z 19006KT 10SM FEW065 BKN110 BKN250 25/09 A3001 RMK AO2 SLP141 VIRGA DSNT S-W CB DSNT E T02500094,M
TPH,2021-10-05 19:56,-117.0904,38.0505,1654.00,74.00,30.90,20.47,200.00,19.00,0.00,30.11,1013.60,10.00,26.00,CLR,M,M,M,M,M,M,M,M,M,M,M,27.00,180.00,2021-10-05 19:41,73.90,KTPH 051956Z AUTO 20019G26KT 10SM CLR 23/M01 A3011 RMK AO2 PK WND 18027/1941 SLP136 T02331006,M
NFL,2021-10-05 19:56,-118.7010,39.4166,1199.00,78.00,24.10,13.45,M,4.00,0.00,29.99,1012.60,7.00,M,CLR,M,M,M,M,M,M,M,FU,M,M,M,M,M,M,78.10,KNFL 051956Z VRB04KT 7SM FU CLR 26/M04 A2999 RMK AO2 SLP126 T02561044,M
LSV,2021-10-05 19:58,-115.0343,36.2362,570.00,80.00,50.50,35.87,130.00,6.00,0.00,29.98,1013.40,10.00,M,SCT,BKN,M,M,9000.00,12000.00,M,M,M,M,M,M,M,M,M,79.90,KLSV 051958Z AUTO 13006KT 10SM SCT090 BKN120 27/10 A2998 RMK AO2 SLP134 T02660103 $,M
INS,2021-10-05 19:58,-115.6733,36.5872,955.00,76.80,42.00,28.92,330.00,6.00,0.00,30.03,1013.10,10.00,M,CLR,M,M,M,M,M,M,M,M,M,M,M,M,M,M,76.80,KINS 051958Z AUTO 33006KT 10SM CLR 25/06 A3003 RMK AO2 SLP131 T02490056 $,M
MEV,2021-10-05 20:15,-119.7500,38.9963,1441.42,73.40,26.60,17.46,M,4.00,0.00,30.03,M,6.00,M,CLR,M,M,M,M,M,M,M,HZ,M,M,M,M,M,M,73.40,KMEV 052015Z AUTO VRB04KT 6SM HZ CLR 23/M03 A3003 RMK AO2,M
BAM,2021-10-05 20:15,-116.8743,40.5990,1382.36,82.40,24.80,12.03,150.00,9.00,0.00,29.99,M,10.00,M,CLR,M,M,M,M,M,M,M,M,M,M,M,M,M,M,79.79,KBAM 052015Z AUTO 15009KT 10SM CLR 28/M04 A2999 RMK AO1,M
HTH,2021-10-05 20:15,-118.6315,38.5448,1282.89,78.80,26.60,14.59,310.00,7.00,0.00,29.99,M,10.00,M,CLR,M,M,M,M,M,M,M,M,M,M,M,M,M,M,78.80,KHTH 052015Z AUTO 31007KT 10SM CLR 26/M03 A2999 RMK A01,M
RTS,2021-10-05 20:15,-119.8764,39.6682,1539.00,71.60,24.80,17.22,250.00,12.00,0.00,30.05,M,10.00,22.00,CLR,M,M,M,M,M,M,M,M,M,M,M,M,M,M,71.60,KRTS 052015Z AUTO 25012G22KT 10SM CLR 22/M04 A3005 RMK AO2,M
TMT,2021-10-05 20:15,-117.1971,39.4643,1749.34,73.80,28.40,18.55,260.00,9.00,0.00,30.07,M,10.00,14.00,SCT,SCT,M,M,10000.00,12000.00,M,M,M,M,M,M,M,M,M,73.80,KTMT 052015Z AUTO 26009G14KT 10SM SCT100 SCT120 23/M02 A3007 RMK AO2 T02321020,M
CXP,2021-10-05 20:15,-119.7326,39.1923,1431.00,75.20,26.60,16.43,250.00,9.00,0.00,30.04,M,9.00,17.00,CLR,M,M,M,M,M,M,M,M,M,M,M,M,M,M,75.20,KCXP 052015Z AUTO 25009G17KT 9SM CLR 24/M03 A3004 RMK AO2,M
BVU,2021-10-05 20:15,-114.8611,35.9475,671.00,71.60,51.80,49.64,90.00,13.00,0.00,30.01,M,10.00,19.00,CLR,M,M,M,M,M,M,M,M,M,M,M,M,M,M,71.60,KBVU 052015Z AUTO 09013G19KT 10SM CLR 22/11 A3001 RMK AO2 LTG DSNT NE AND E,M
BAM,2021-10-05 20:35,-116.8743,40.5990,1382.36,82.40,21.20,10.34,240.00,11.00,0.00,29.99,M,10.00,16.00,CLR,M,M,M,M,M,M,M,M,M,M,M,M,M,M,79.55,KBAM 052035Z AUTO 24011G16KT 190V270 10SM CLR 28/M06 A2999 RMK AO1,M
TMT,2021-10-05 20:35,-117.1971,39.4643,1749.34,73.00,28.40,19.12,200.00,6.00,0.00,30.06,M,10.00,M,SCT,M,M,M,12000.00,M,M,M,M,M,M,M,M,M,M,72.90,KTMT 052035Z AUTO 20006KT 10SM SCT120 23/M02 A3006 RMK AO2 T02271020,M
BVU,2021-10-05 20:35,-114.8611,35.9475,671.00,69.80,51.80,52.77,60.00,11.00,0.00,30.00,M,10.00,16.00,CLR,M,M,M,M,M,M,M,M,M,M,M,M,M,M,69.80,KBVU 052035Z AUTO 06011G16KT 10SM CLR 21/11 A3000 RMK AO2 LTG DSNT SE,M
CXP,2021-10-05 20:35,-119.7326,39.1923,1431.00,75.20,26.60,16.43,240.00,9.00,0.00,30.03,M,10.00,16.00,CLR,M,M,M,M,M,M,M,M,M,M,M,M,M,M,75.20,KCXP 052035Z AUTO 24009G16KT 200V270 10SM CLR 24/M03 A3003 RMK AO2,M
RTS,2021-10-05 20:35,-119.8764,39.6682,1539.00,71.60,24.80,17.22,240.00,14.00,0.00,30.04,M,10.00,M,CLR,M,M,M,M,M,M,M,M,M,M,M,M,M,M,71.60,KRTS 052035Z AUTO 24014KT 10SM CLR 22/M04 A3004 RMK AO2,M
MEV,2021-10-05 20:35,-119.7500,38.9963,1441.42,75.20,26.60,16.43,M,4.00,0.00,30.02,M,7.00,M,CLR,M,M,M,M,M,M,M,M,M,M,M,M,M,M,75.20,KMEV 052035Z AUTO VRB04KT 7SM CLR 24/M03 A3002 RMK AO2,M
HTH,2021-10-05 20:35,-118.6315,38.5448,1282.89,78.80,26.60,14.59,300.00,4.00,0.00,29.98,M,10.00,M,CLR,M,M,M,M,M,M,M,M,M,M,M,M,M,M,78.80,KHTH 052035Z AUTO 30004KT 10SM CLR 26/M03 A2998 RMK A01,M
LSV,2021-10-05 20:38,-115.0343,36.2362,570.00,80.60,50.00,34.41,130.00,14.00,0.00,29.96,1012.70,10.00,19.00,FEW,M,M,M,19000.00,M,M,M,M,M,M,M,M,M,M,79.88,KLSV 052038Z AUTO 13014G19KT 10SM FEW190 27/10 A2996 RMK AO2 WSHFT 37 SLP127 $,M
INS,2021-10-05 20:38,-115.6733,36.5872,955.00,75.20,42.80,31.34,70.00,4.00,0.00,30.01,1012.40,10.00,M,BKN,M,M,M,8000.00,M,M,M,M,M,M,M,M,M,M,75.20,KINS 052038Z AUTO 07004KT 10SM BKN080 24/06 A3001 RMK AO2 LTG DSNT S SLP124 $,M
ELY,2021-10-05 20:53,-114.8453,39.2950,1909.00,65.00,39.00,38.44,150.00,19.00,0.00,30.12,1013.30,10.00,26.00,BKN,OVC,M,M,9500.00,11000.00,M,M,M,M,M,M,26.00,170.00,2021-10-05 20:44,64.90,KELY 052053Z AUTO 15019G26KT 10SM BKN095 OVC110 18/04 A3012 RMK AO2 PK WND 17026/2044 SLP133 T01830039 58013,M
P68,2021-10-05 20:53,-116.0056,39.6014,1993.00,74.00,27.00,17.45,240.00,5.00,0.00,30.06,1011.30,M,M,M,M,M,M,M,M,M,M,M,M,M,M,M,M,M,73.90,KP68 052053Z AUTO 24005KT 23/M03 A3006 RMK AO1 SLP113 T02331028 58020,M
VGT,2021-10-05 20:53,-115.1933,36.2111,667.00,80.00,51.00,36.44,130.00,8.00,0.00,29.95,1014.00,10.00,M,SCT,M,M,M,10000.00,M,M,M,M,M,M,M,M,M,M,79.72,KVGT 052053Z 13008KT 10SM SCT100 27/11 A2995 RMK AO2 LTG DSNT NW SLP140 T02670106 58011,M
LOL,2021-10-05 20:53,-118.5701,40.0684,1192.43,80.00,24.10,12.60,M,6.00,0.00,29.96,1012.30,10.00,M,CLR,M,M,M,M,M,M,M,M,M,M,M,M,M,M,78.37,KLOL 052053Z AUTO VRB06KT 10SM CLR 27/M04 A2996 RMK AO2 SLP123 T02671044 58021,M
DRA,2021-10-05 20:53,-116.0278,36.6206,1009.00,72.00,48.00,42.51,160.00,7.00,T,30.02,1012.70,10.00,M,FEW,FEW,OVC,M,5000.00,8000.00,9500.00,M,-RA,M,M,M,M,M,M,72.00,KDRA 052053Z AUTO 16007KT 10SM -RA FEW050 FEW080 OVC095 22/09 A3002 RMK AO2 SLP127 P0000 60001 T02220089 56023,M
CXP,2021-10-05 20:55,-119.7326,39.1923,1431.00,77.00,26.60,15.48,250.00,8.00,0.00,30.02,M,10.00,16.00,CLR,M,M,M,M,M,M,M,M,M,M,M,M,M,M,77.00,KCXP 052055Z AUTO 25008G16KT 210V270 10SM CLR 25/M03 A3002 RMK AO2,M
BVU,2021-10-05 20:55,-114.8611,35.9475,671.00,69.80,51.80,52.77,50.00,10.00,0.00,30.00,M,10.00,M,CLR,M,M,M,M,M,M,M,M,M,M,M,M,M,M,69.80,KBVU 052055Z AUTO 05010KT 10SM CLR 21/11 A3000 RMK AO2,M
RNO,2021-10-05 20:55,-119.7711,39.4839,1341.00,77.00,28.00,16.40,20.00,4.00,0.00,29.99,1011.40,10.00,M,FEW,FEW,BKN,M,14000.00,20000.00,25000.00,M,M,M,M,M,M,M,M,77.00,KRNO 052055Z 02004KT 10SM FEW140 FEW200 BKN250 25/M02 A2999 RMK AO2 SLP114 ACSL DSNT W-NW HZ ALQDS T02501022 58023,M
RTS,2021-10-05 20:55,-119.8764,39.6682,1539.00,71.60,24.80,17.22,270.00,15.00,0.00,30.03,M,10.00,21.00,CLR,M,M,M,M,M,M,M,M,M,M,M,M,M,M,71.60,KRTS 052055Z AUTO 27015G21KT 10SM CLR 22/M04 A3003 RMK AO2,M
MEV,2021-10-05 20:55,-119.7500,38.9963,1441.42,75.20,26.60,16.43,M,4.00,0.00,30.01,M,7.00,10.00,CLR,M,M,M,M,M,M,M,M,M,M,M,M,M,M,75.20,KMEV 052055Z AUTO VRB04G10KT 7SM CLR 24/M03 A3001 RMK AO2,M
HTH,2021-10-05 20:55,-118.6315,38.5448,1282.89,78.80,26.60,14.59,340.00,10.00,0.00,29.97,M,10.00,M,CLR,M,M,M,M,M,M,M,M,M,M,M,M,M,M,78.80,KHTH 052055Z AUTO 34010KT 10SM CLR 26/M03 A2997 RMK A01,M
TMT,2021-10-05 20:55,-117.1971,39.4643,1749.34,71.40,27.30,19.23,230.00,3.00,0.00,30.05,M,10.00,M,CLR,M,M,M,M,M,M,M,M,M,M,M,M,M,M,71.40,KTMT 052055Z AUTO 23003KT 10SM CLR 22/M03 A3005 RMK AO2 T02191026,M
BAM,2021-10-05 20:55,-116.8743,40.5990,1382.36,82.40,21.20,10.34,200.00,8.00,0.00,29.97,M,10.00,17.00,CLR,M,M,M,M,M,M,M,M,M,M,M,M,M,M,79.55,KBAM 052055Z AUTO 20008G17KT 10SM CLR 28/M06 A2997 RMK AO1,M
HND,2021-10-05 20:56,-115.1344,35.9729,742.79,75.00,51.00,43.14,M,5.00,0.00,30.00,1015.60,10.00,M,CLR,M,M,M,M,M,M,M,M,M,M,M,M,M,M,75.00,KHND 052056Z VRB05KT 10SM CLR 24/11 A3000 RMK AO2 SLP156 T02390106 58013,M
EKO,2021-10-05 20:56,-115.7860,40.8242,1367.00,78.00,24.10,13.45,M,5.00,0.00,30.00,1011.50,10.00,M,CLR,M,M,M,M,M,M,M,M,M,M,M,M,M,M,78.10,KEKO 052056Z AUTO VRB05KT 10SM CLR 26/M04 A3000 RMK AO2 SLP115 T02561044 58027,M
LAS,2021-10-05 20:56,-115.1634,36.0719,663.00,77.00,49.00,37.19,M,4.00,0.00,29.97,1012.90,10.00,M,FEW,SCT,BKN,M,8000.00,11000.00,25000.00,M,M,M,M,M,M,M,M,77.00,KLAS 052056Z VRB04KT 10SM FEW080 SCT110 BKN250 25/09 A2997 RMK AO2 SLP129 T02500094 58015,M
NFL,2021-10-05 20:56,-118.7010,39.4166,1199.00,80.00,26.10,13.69,290.00,7.00,0.00,29.96,1011.70,7.00,M,BKN,BKN,M,M,10000.00,15000.00,M,M,M,M,M,M,M,M,M,78.45,KNFL 052056Z 29007KT 7SM BKN100 BKN150 27/M03 A2996 RMK AO2 SLP117 FU BKN100 T02671033 58018,M
WMC,2021-10-05 20:56,-117.8072,40.9019,1315.00,79.00,23.00,12.47,330.00,3.00,0.00,29.96,1011.20,10.00,M,CLR,M,M,M,M,M,M,M,M,M,M,M,M,M,M,79.00,KWMC 052056Z AUTO 33003KT 10SM CLR 26/M05 A2996 RMK AO2 SLP112 T02611050 58021,M
TPH,2021-10-05 20:56,-117.0904,38.0505,1654.00,72.00,37.00,27.85,180.00,18.00,0.00,30.09,1013.20,10.00,M,CLR,M,M,M,M,M,M,M,M,M,M,M,28.00,180.00,2021-10-05 20:31,72.00,KTPH 052056Z AUTO 18018KT 10SM CLR 22/03 A3009 RMK AO2 PK WND 18028/2031 SLP132 T02220028 58012,M
LSV,2021-10-05 20:58,-115.0343,36.2362,570.00,79.30,51.40,37.83,120.00,18.00,0.00,29.96,1012.70,10.00,M,FEW,FEW,M,M,10000.00,18000.00,M,M,M,M,M,M,M,M,M,79.30,KLSV 052058Z AUTO 12018KT 10SM FEW100 FEW180 26/11 A2996 RMK AO2 SLP127 T02630108 58013 $,M
INS,2021-10-05 20:58,-115.6733,36.5872,955.00,74.80,43.00,32.00,110.00,3.00,0.00,30.00,1012.10,10.00,M,FEW,SCT,BKN,M,6500.00,8000.00,20000.00,M,M,M,M,M,M,M,M,74.80,KINS 052058Z AUTO 11003KT 10SM FEW065 SCT080 BKN200 24/06 A3000 RMK AO2 SLP121 T02380061 57018 $,M
HTH,2021-10-05 21:15,-118.6315,38.5448,1282.89,78.80,26.60,14.59,340.00,10.00,0.00,29.96,M,9.00,M,CLR,M,M,M,M,M,M,M,M,M,M,M,M,M,M,78.80,KHTH 052115Z AUTO 34010KT 9SM CLR 26/M03 A2996 RMK A01,M
CXP,2021-10-05 21:15,-119.7326,39.1923,1431.00,75.20,26.60,16.43,250.00,13.00,0.00,30.01,M,9.00,M,CLR,M,M,M,M,M,M,M,M,M,M,M,M,M,M,75.20,KCXP 052115Z AUTO 25013KT 9SM CLR 24/M03 A3001 RMK AO2,M
RTS,2021-10-05 21:15,-119.8764,39.6682,1539.00,71.60,26.60,18.55,260.00,12.00,0.00,30.02,M,10.00,20.00,CLR,M,M,M,M,M,M,M,M,M,M,M,M,M,M,71.60,KRTS 052115Z AUTO 26012G20KT 10SM CLR 22/M03 A3002 RMK AO2,M
MEV,2021-10-05 21:15,-119.7500,38.9963,1441.42,75.20,26.60,16.43,0.00,0.00,0.00,30.00,M,7.00,M,CLR,M,M,M,M,M,M,M,M,M,M,M,M,M,M,75.20,KMEV 052115Z AUTO 00000KT 7SM CLR 24/M03 A3000 RMK AO2,M
TMT,2021-10-05 21:15,-117.1971,39.4643,1749.34,74.00,27.30,17.55,300.00,10.00,0.00,30.04,M,10.00,M,SCT,M,M,M,12000.00,M,M,M,M,M,M,M,M,M,M,74.10,KTMT 052115Z AUTO 30010KT 10SM SCT120 23/M03 A3004 RMK AO2 T02341026,M
BAM,2021-10-05 21:15,-116.8743,40.5990,1382.36,82.40,23.00,11.16,240.00,15.00,0.00,29.96,M,10.00,19.00,CLR,M,M,M,M,M,M,M,M,M,M,M,M,M,M,79.67,KBAM 052115Z AUTO 24015G19KT 10SM CLR 28/M05 A2996 RMK AO1,M
BVU,2021-10-05 21:15,-114.8611,35.9475,671.00,71.60,50.00,46.43,90.00,10.00,0.00,30.00,M,10.00,M,CLR,M,M,M,M,M,M,M,M,M,M,M,M,M,M,71.60,KBVU 052115Z AUTO 09010KT 10SM CLR 22/10 A3000 RMK AO2,M
BVU,2021-10-05 21:35,-114.8611,35.9475,671.00,71.60,50.00,46.43,100.00,9.00,0.00,29.99,M,10.00,M,CLR,M,M,M,M,M,M,M,M,M,M,M,M,M,M,71.60,KBVU 052135Z AUTO 10009KT 10SM CLR 22/10 A2999 RMK AO2 LTG DSNT NE AND E,M
BAM,2021-10-05 21:35,-116.8743,40.5990,1382.36,82.40,23.00,11.16,230.00,7.00,0.00,29.95,M,10.00,15.00,CLR,M,M,M,M,M,M,M,M,M,M,M,M,M,M,79.67,KBAM 052135Z AUTO 23007G15KT 190V290 10SM CLR 28/M05 A2995 RMK AO1,M
CXP,2021-10-05 21:35,-119.7326,39.1923,1431.00,77.00,26.60,15.48,270.00,10.00,0.00,30.01,M,10.00,16.00,CLR,M,M,M,M,M,M,M,M,M,M,M,M,M,M,77.00,KCXP 052135Z AUTO 27010G16KT 240V300 10SM CLR 25/M03 A3001 RMK AO2,M
RTS,2021-10-05 21:35,-119.8764,39.6682,1539.00,73.40,26.60,17.46,250.00,15.00,0.00,30.02,M,10.00,20.00,CLR,M,M,M,M,M,M,M,M,M,M,M,M,M,M,73.40,KRTS 052135Z AUTO 25015G20KT 10SM CLR 23/M03 A3002 RMK AO2,M
MEV,2021-10-05 21:35,-119.7500,38.9963,1441.42,75.20,26.60,16.43,320.00,5.00,0.00,29.99,M,7.00,M,CLR,M,M,M,M,M,M,M,M,M,M,M,M,M,M,75.20,KMEV 052135Z AUTO 32005KT 7SM CLR 24/M03 A2999 RMK AO2,M
TMT,2021-10-05 21:35,-117.1971,39.4643,1749.34,73.60,27.00,17.63,300.00,5.00,0.00,30.03,M,10.00,15.00,SCT,M,M,M,11000.00,M,M,M,M,M,M,M,M,M,M,73.60,KTMT 052135Z AUTO 30005G15KT 10SM SCT110 23/M03 A3003 RMK AO2 T02311028,M
HTH,2021-10-05 21:35,-118.6315,38.5448,1282.89,77.00,24.80,14.37,320.00,10.00,0.00,29.96,M,10.00,M,CLR,M,M,M,M,M,M,M,M,M,M,M,M,M,M,77.00,KHTH 052135Z AUTO 32010KT 10SM CLR 25/M04 A2996 RMK A01,M
VGT,2021-10-05 21:53,-115.1933,36.2111,667.00,79.00,51.00,37.78,130.00,12.00,0.00,29.94,1013.50,10.00,17.00,CLR,M,M,M,M,M,M,M,M,M,M,M,M,M,M,79.00,KVGT 052153Z 13012G17KT 10SM CLR 26/11 A2994 RMK AO2 SLP135 T02610106,M
P68,2021-10-05 21:53,-116.0056,39.6014,1993.00,75.00,28.00,17.53,160.00,13.00,0.00,30.04,1010.50,M,22.00,M,M,M,M,M,M,M,M,M,M,M,M,M,M,M,75.00,KP68 052153Z AUTO 16013G22KT 24/M02 A3004 RMK AO1 SLP105 T02391022,M
DRA,2021-10-05 21:53,-116.0278,36.6206,1009.00,73.00,47.00,39.43,0.00,0.00,T,29.99,1011.90,10.00,M,FEW,M,M,M,11000.00,M,M,M,-RA,M,M,M,M,M,M,73.00,KDRA 052153Z AUTO 00000KT 10SM -RA FEW110 23/08 A2999 RMK AO2 SLP119 P0000 T02280083,M
ELY,2021-10-05 21:53,-114.8453,39.2950,1909.00,68.00,37.00,31.92,130.00,13.00,0.00,30.10,1012.40,10.00,19.00,BKN,BKN,M,M,9500.00,11000.00,M,M,M,M,M,M,27.00,130.00,2021-10-05 21:15,68.00,KELY 052153Z AUTO 13013G19KT 10SM BKN095 BKN110 20/03 A3010 RMK AO2 PK WND 13027/2115 SLP124 T02000028,M
LOL,2021-10-05 21:53,-118.5701,40.0684,1192.43,80.00,25.00,13.08,230.00,9.00,0.00,29.93,1011.10,10.00,M,CLR,M,M,M,M,M,M,M,M,M,M,M,M,M,M,78.42,KLOL 052153Z AUTO 23009KT 10SM CLR 27/M04 A2993 RMK AO2 SLP111 T02671039,M
CXP,2021-10-05 21:55,-119.7326,39.1923,1431.00,75.20,28.40,17.70,290.00,12.00,0.00,30.01,M,10.00,M,CLR,M,M,M,M,M,M,M,M,M,M,M,M,M,M,75.20,KCXP 052155Z AUTO 29012KT 10SM CLR 24/M02 A3001 RMK AO2,M
BAM,2021-10-05 21:55,-116.8743,40.5990,1382.36,82.40,23.00,11.16,230.00,9.00,0.00,29.95,M,10.00,17.00,CLR,M,M,M,M,M,M,M,M,M,M,M,M,M,M,79.67,KBAM 052155Z AUTO 23009G17KT 10SM CLR 28/M05 A2995 RMK AO1,M
TMT,2021-10-05 21:55,-117.1971,39.4643,1749.34,74.00,26.10,16.81,260.00,7.00,0.00,30.03,M,10.00,14.00,SCT,M,M,M,11000.00,M,M,M,M,M,M,M,M,M,M,73.90,KTMT 052155Z AUTO 26007G14KT 10SM SCT110 23/M03 A3003 RMK AO2 T02331033,M
HTH,2021-10-05 21:55,-118.6315,38.5448,1282.89,77.00,24.80,14.37,320.00,8.00,0.00,29.95,M,10.00,M,CLR,M,M,M,M,M,M,M,M,M,M,M,M,M,M,77.00,KHTH 052155Z AUTO 32008KT 10SM CLR 25/M04 A2995 RMK A01,M
MEV,2021-10-05 21:55,-119.7500,38.9963,1441.42,75.20,28.40,17.70,280.00,11.00,0.00,29.99,M,9.00,21.00,FEW,M,M,M,11000.00,M,M,M,M,M,M,M,M,M,M,75.20,KMEV 052155Z AUTO 28011G21KT 9SM FEW110 24/M02 A2999 RMK AO2,M
RTS,2021-10-05 21:55,-119.8764,39.6682,1539.00,71.60,26.60,18.55,260.00,15.00,0.00,30.02,M,10.00,M,CLR,M,M,M,M,M,M,M,M,M,M,M,M,M,M,71.60,KRTS 052155Z AUTO 26015KT 10SM CLR 22/M03 A3002 RMK AO2,M
RNO,2021-10-05 21:55,-119.7711,39.4839,1341.00,77.00,28.00,16.40,0.00,0.00,0.00,29.97,1010.70,10.00,M,SCT,SCT,BKN,M,11000.00,20000.00,25000.00,M,M,M,M,M,M,M,M,77.00,KRNO 052155Z 00000KT 10SM SCT110 SCT200 BKN250 25/M02 A2997 RMK AO2 SLP107 HZ ALQDS T02501022,M
BVU,2021-10-05 21:55,-114.8611,35.9475,671.00,73.40,44.60,35.66,120.00,12.00,0.00,29.98,M,10.00,18.00,CLR,M,M,M,M,M,M,M,M,M,M,M,M,M,M,73.40,KBVU 052155Z AUTO 12012G18KT 10SM CLR 23/07 A2998 RMK AO2,M
TPH,2021-10-05 21:56,-117.0904,38.0505,1654.00,72.00,37.00,27.85,190.00,11.00,0.00,30.07,1012.70,10.00,21.00,CLR,M,M,M,M,M,M,M,M,M,M,M,M,M,M,72.00,KTPH 052156Z AUTO 19011G21KT 10SM CLR 22/03 A3007 RMK AO2 SLP127 T02220028,M
LAS,2021-10-05 21:56,-115.1634,36.0719,663.00,78.00,50.00,37.36,90.00,7.00,0.00,29.96,1012.60,10.00,M,FEW,SCT,BKN,M,8000.00,11000.00,25000.00,M,M,M,M,M,M,M,M,78.10,KLAS 052156Z 09007KT 050V120 10SM FEW080 SCT110 BKN250 26/10 A2996 RMK AO2 SLP126 T02560100,M
EKO,2021-10-05 21:56,-115.7860,40.8242,1367.00,78.00,24.10,13.45,270.00,6.00,0.00,29.98,1010.80,10.00,M,FEW,M,M,M,12000.00,M,M,M,M,M,M,M,M,M,M,78.10,KEKO 052156Z AUTO 27006KT 10SM FEW120 26/M04 A2998 RMK AO2 SLP108 T02561044,M
NFL,2021-10-05 21:56,-118.7010,39.4166,1199.00,81.00,25.00,12.70,220.00,5.00,0.00,29.94,1011.00,7.00,M,BKN,BKN,M,M,10000.00,14000.00,M,M,M,M,M,M,M,M,M,78.89,KNFL 052156Z 22005KT 7SM BKN100 BKN140 27/M04 A2994 RMK AO2 SLP110 FU BKN100 T02721039,M
HND,2021-10-05 21:56,-115.1344,35.9729,742.79,77.00,49.00,37.19,M,4.00,0.00,29.99,1015.10,10.00,M,SCT,M,M,M,10000.00,M,M,M,M,M,M,M,M,M,M,77.00,KHND 052156Z VRB04KT 10SM SCT100 25/09 A2999 RMK AO2 SLP151 T02500094,M
WMC,2021-10-05 21:56,-117.8072,40.9019,1315.00,80.00,23.00,12.03,330.00,9.00,0.00,29.94,1010.60,10.00,M,CLR,M,M,M,M,M,M,M,M,M,M,M,M,M,M,78.29,KWMC 052156Z AUTO 33009KT 10SM CLR 27/M05 A2994 RMK AO2 SLP106 T02671050,M
INS,2021-10-05 21:58,-115.6733,36.5872,955.00,76.50,43.50,30.82,300.00,4.00,0.00,29.98,1011.60,10.00,M,CLR,M,M,M,M,M,M,M,M,M,M,M,M,M,M,76.50,KINS 052158Z AUTO 30004KT 10SM CLR 25/06 A2998 RMK AO2 SLP116 T02470064 $,M
LSV,2021-10-05 21:58,-115.0343,36.2362,570.00,78.00,49.60,36.81,130.00,14.00,0.00,29.94,1012.00,10.00,M,FEW,M,M,M,20000.00,M,M,M,M,M,M,M,M,M,M,78.10,KLSV 052158Z AUTO 13014KT 10SM FEW200 26/10 A2994 RMK AO2 SLP120 T02560098 $,M
CXP,2021-10-05 22:15,-119.7326,39.1923,1431.00,75.20,28.40,17.70,310.00,16.00,0.00,30.00,M,10.00,21.00,CLR,M,M,M,M,M,M,M,M,M,M,M,M,M,M,75.20,KCXP 052215Z AUTO 31016G21KT 10SM CLR 24/M02 A3000 RMK AO2,M
TMT,2021-10-05 22:15,-117.1971,39.4643,1749.34,75.70,26.80,16.30,220.00,15.00,0.00,30.03,M,10.00,M,SCT,M,M,M,11000.00,M,M,M,M,M,M,M,M,M,M,75.70,KTMT 052215Z AUTO 22015KT 10SM SCT110 24/M03 A3003 RMK AO2 T02431029,M
BVU,2021-10-05 22:15,-114.8611,35.9475,671.00,73.40,46.40,38.18,110.00,10.00,0.00,29.97,M,10.00,M,CLR,M,M,M,M,M,M,M,M,M,M,M,M,M,M,73.40,KBVU 052215Z AUTO 11010KT 10SM CLR 23/08 A2997 RMK AO2,M
MEV,2021-10-05 22:15,-119.7500,38.9963,1441.42,75.20,30.20,19.05,290.00,12.00,0.00,29.99,M,9.00,18.00,SCT,M,M,M,10000.00,M,M,M,M,M,M,M,M,M,M,75.20,KMEV 052215Z AUTO 29012G18KT 9SM SCT100 24/M01 A2999 RMK AO2,M
BAM,2021-10-05 22:15,-116.8743,40.5990,1382.36,82.40,23.00,11.16,260.00,10.00,0.00,29.94,M,10.00,15.00,CLR,M,M,M,M,M,M,M,M,M,M,M,M,M,M,79.67,KBAM 052215Z AUTO 26010G15KT 10SM CLR 28/M05 A2994 RMK AO1,M
HTH,2021-10-05 22:15,-118.6315,38.5448,1282.89,77.00,24.80,14.37,330.00,9.00,0.00,29.95,M,9.00,M,CLR,M,M,M,M,M,M,M,M,M,M,M,M,M,M,77.00,KHTH 052215Z AUTO 33009KT 9SM CLR 25/M04 A2995 RMK A01,M
RTS,2021-10-05 22:15,-119.8764,39.6682,1539.00,73.40,28.40,18.80,250.00,17.00,0.00,30.01,M,10.00,23.00,FEW,M,M,M,10000.00,M,M,M,M,M,M,M,M,M,M,73.40,KRTS 052215Z AUTO 25017G23KT 10SM FEW100 23/M02 A3001 RMK AO2,M
MEV,2021-10-05 22:35,-119.7500,38.9963,1441.42,77.00,30.20,17.94,240.00,14.00,0.00,29.98,M,9.00,21.00,FEW,M,M,M,10000.00,M,M,M,M,M,M,M,M,M,M,77.00,KMEV 052235Z AUTO 24014G21KT 9SM FEW100 25/M01 A2998 RMK AO2,M
HTH,2021-10-05 22:35,-118.6315,38.5448,1282.89,77.00,24.80,14.37,320.00,10.00,0.00,29.95,M,9.00,M,CLR,M,M,M,M,M,M,M,M,M,M,M,M,M,M,77.00,KHTH 052235Z AUTO 32010KT 9SM CLR 25/M04 A2995 RMK A01,M
CXP,2021-10-05 22:35,-119.7326,39.1923,1431.00,73.40,28.40,18.80,290.00,13.00,0.00,30.00,M,10.00,19.00,CLR,M,M,M,M,M,M,M,M,M,M,M,M,M,M,73.40,KCXP 052235Z AUTO 29013G19KT 10SM CLR 23/M02 A3000 RMK AO2,M
TMT,2021-10-05 22:35,-117.1971,39.4643,1749.34,72.00,26.20,17.94,250.00,4.00,0.00,30.02,M,10.00,M,SCT,M,M,M,11000.00,M,M,M,M,M,M,M,M,M,M,72.10,KTMT 052235Z AUTO 25004KT 10SM SCT110 22/M03 A3002 RMK AO2 T02231032,M
RTS,2021-10-05 22:35,-119.8764,39.6682,1539.00,73.40,28.40,18.80,260.00,17.00,0.00,30.01,M,10.00,22.00,CLR,M,M,M,M,M,M,M,M,M,M,M,M,M,M,73.40,KRTS 052235Z AUTO 26017G22KT 10SM CLR 23/M02 A3001 RMK AO2,M
BVU,2021-10-05 22:35,-114.8611,35.9475,671.00,73.40,44.60,35.66,120.00,5.00,0.00,29.97,M,10.00,10.00,CLR,M,M,M,M,M,M,M,M,M,M,M,M,M,M,73.40,KBVU 052235Z AUTO 12005G10KT 10SM CLR 23/07 A2997 RMK AO2,M
BAM,2021-10-05 22:35,-116.8743,40.5990,1382.36,82.40,21.20,10.34,240.00,10.00,0.00,29.93,M,10.00,17.00,CLR,M,M,M,M,M,M,M,M,M,M,M,M,M,M,79.55,KBAM 052235Z AUTO 24010G17KT 10SM CLR 28/M06 A2993 RMK AO1,M
P68,2021-10-05 22:53,-116.0056,39.6014,1993.00,73.00,27.00,17.99,180.00,15.00,0.00,30.02,1010.70,M,21.00,M,M,M,M,M,M,M,M,M,M,M,M,M,M,M,73.00,KP68 052253Z AUTO 18015G21KT 23/M03 A3002 RMK AO1 SLP107 T02281028,M
ELY,2021-10-05 22:53,-114.8453,39.2950,1909.00,66.00,38.00,35.44,180.00,15.00,0.00,30.10,1012.70,10.00,23.00,OVC,M,M,M,10000.00,M,M,M,M,M,M,M,M,M,M,66.00,KELY 052253Z AUTO 18015G23KT 10SM OVC100 19/03 A3010 RMK AO2 SLP127 T01890033,M
VGT,2021-10-05 22:53,-115.1933,36.2111,667.00,79.00,49.00,34.81,110.00,10.00,0.00,29.93,1013.00,10.00,M,CLR,M,M,M,M,M,M,M,M,M,M,M,M,M,M,79.00,KVGT 052253Z 11010KT 10SM CLR 26/09 A2993 RMK AO2 SLP130 T02610094,M
LOL,2021-10-05 22:53,-118.5701,40.0684,1192.43,81.00,25.00,12.70,150.00,7.00,0.00,29.92,1010.70,9.00,M,CLR,M,M,M,M,M,M,M,M,M,M,M,M,M,M,78.89,KLOL 052253Z AUTO 15007KT 9SM CLR 27/M04 A2992 RMK AO2 SLP107 T02721039,M
DRA,2021-10-05 22:53,-116.0278,36.6206,1009.00,75.00,47.00,36.87,150.00,7.00,T,29.97,1011.20,10.00,M,CLR,M,M,M,M,M,M,M,-RA,M,M,M,M,M,M,75.00,KDRA 052253Z AUTO 15007KT 10SM -RA CLR 24/08 A2997 RMK AO2 SLP112 P0000 T02390083,M
CXP,2021-10-05 22:55,-119.7326,39.1923,1431.00,75.20,30.20,19.05,280.00,12.00,0.00,30.00,M,10.00,18.00,CLR,M,M,M,M,M,M,M,M,M,M,M,M,M,M,75.20,KCXP 052255Z AUTO 28012G18KT 240V300 10SM CLR 24/M01 A3000 RMK AO2,M
TMT,2021-10-05 22:55,-117.1971,39.4643,1749.34,71.80,25.70,17.75,260.00,8.00,0.00,30.02,M,10.00,M,CLR,M,M,M,M,M,M,M,M,M,M,M,M,M,M,71.80,KTMT 052255Z AUTO 26008KT 10SM CLR 22/M03 A3002 RMK AO2 T02211035,M
RNO,2021-10-05 22:55,-119.7711,39.4839,1341.00,77.00,28.90,17.01,0.00,0.00,0.00,29.96,1010.20,10.00,M,SCT,BKN,BKN,M,10000.00,18000.00,25000.00,M,M,M,M,M,M,M,M,77.00,KRNO 052255Z 00000KT 10SM SCT100 BKN180 BKN250 25/M02 A2996 RMK AO2 SLP102 HZ ALQDS T02501017,M
BAM,2021-10-05 22:55,-116.8743,40.5990,1382.36,82.40,21.20,10.34,250.00,7.00,0.00,29.93,M,10.00,M,CLR,M,M,M,M,M,M,M,M,M,M,M,M,M,M,79.55,KBAM 052255Z AUTO 25007KT 10SM CLR 28/M06 A2993 RMK AO1,M
BVU,2021-10-05 22:55,-114.8611,35.9475,671.00,75.20,44.60,33.57,100.00,10.00,0.00,29.97,M,10.00,M,CLR,M,M,M,M,M,M,M,M,M,M,M,M,M,M,75.20,KBVU 052255Z AUTO 10010KT 10SM CLR 24/07 A2997 RMK AO2,M
HTH,2021-10-05 22:55,-118.6315,38.5448,1282.89,77.00,24.80,14.37,320.00,9.00,0.00,29.94,M,10.00,M,CLR,M,M,M,M,M,M,M,M,M,M,M,M,M,M,77.00,KHTH 052255Z AUTO 32009KT 10SM CLR 25/M04 A2994 RMK A01,M
MEV,2021-10-05 22:55,-119.7500,38.9963,1441.42,73.40,30.20,20.23,250.00,15.00,0.00,29.99,M,8.00,22.00,CLR,M,M,M,M,M,M,M,M,M,M,M,M,M,M,73.40,KMEV 052255Z AUTO 25015G22KT 8SM CLR 23/M01 A2999 RMK AO2,M
RTS,2021-10-05 22:55,-119.8764,39.6682,1539.00,71.60,30.20,21.50,250.00,11.00,0.00,30.02,M,10.00,19.00,CLR,M,M,M,M,M,M,M,M,M,M,M,M,M,M,71.60,KRTS 052255Z AUTO 25011G19KT 10SM CLR 22/M01 A3002 RMK AO2,M
WMC,2021-10-05 22:56,-117.8072,40.9019,1315.00,80.00,23.00,12.03,270.00,7.00,0.00,29.93,1010.30,10.00,15.00,CLR,M,M,M,M,M,M,M,M,M,M,M,M,M,M,78.29,KWMC 052256Z AUTO 27007G15KT 10SM CLR 27/M05 A2993 RMK AO2 SLP103 T02671050,M
EKO,2021-10-05 22:56,-115.7860,40.8242,1367.00,76.00,26.10,15.73,230.00,9.00,0.00,29.96,1010.70,10.00,M,BKN,M,M,M,11000.00,M,M,M,M,M,M,M,M,M,M,75.90,KEKO 052256Z AUTO 23009KT 10SM BKN110 24/M03 A2996 RMK AO2 SLP107 T02441033,M
TPH,2021-10-05 22:56,-117.0904,38.0505,1654.00,72.00,35.00,25.83,190.00,11.00,0.00,30.05,1012.30,10.00,20.00,CLR,M,M,M,M,M,M,M,M,M,M,M,M,M,M,72.00,KTPH 052256Z AUTO 19011G20KT 10SM CLR 22/02 A3005 RMK AO2 SLP123 T02220017,M
HND,2021-10-05 22:56,-115.1344,35.9729,742.79,77.00,49.00,37.19,190.00,8.00,0.00,29.98,1014.50,10.00,M,CLR,M,M,M,M,M,M,M,M,M,M,M,M,M,M,77.00,KHND 052256Z 19008KT 10SM CLR 25/09 A2998 RMK AO2 SLP145 T02500094,M
NFL,2021-10-05 22:56,-118.7010,39.4166,1199.00,80.00,25.00,13.08,M,5.00,0.00,29.92,1010.50,7.00,M,BKN,BKN,OVC,M,10000.00,12000.00,25000.00,M,M,M,M,M,M,M,M,78.42,KNFL 052256Z VRB05KT 7SM BKN100 BKN120 OVC250 27/M04 A2992 RMK AO2 SLP105 FU BKN100 T02671039,M
LAS,2021-10-05 22:56,-115.1634,36.0719,663.00,77.00,48.00,35.95,120.00,4.00,0.00,29.94,1012.00,10.00,M,FEW,SCT,BKN,M,8000.00,11000.00,25000.00,M,M,M,M,M,M,M,M,77.00,KLAS 052256Z 12004KT 10SM FEW080 SCT110 BKN250 25/09 A2994 RMK AO2 SLP120 T02500089,M
LSV,2021-10-05 22:58,-115.0343,36.2362,570.00,77.50,47.70,34.97,130.00,11.00,0.00,29.93,1011.80,10.00,17.00,CLR,M,M,M,M,M,M,M,M,M,M,M,M,M,M,77.50,KLSV 052258Z AUTO 13011G17KT 10SM CLR 25/09 A2993 RMK AO2 SLP118 T02530087 $,M
INS,2021-10-05 22:58,-115.6733,36.5872,955.00,76.80,45.50,32.94,100.00,12.00,0.00,29.96,1010.70,10.00,M,FEW,M,M,M,10000.00,M,M,M,M,M,M,M,M,M,M,76.80,KINS 052258Z AUTO 10012KT 10SM FEW100 25/08 A2996 RMK AO2 SLP107 T02490075 $,M
BVU,2021-10-05 23:15,-114.8611,35.9475,671.00,73.40,46.40,38.18,100.00,8.00,0.00,29.97,M,10.00,M,CLR,M,M,M,M,M,M,M,M,M,M,M,M,M,M,73.40,KBVU 052315Z AUTO 10008KT 10SM CLR 23/08 A2997 RMK AO2,M
CXP,2021-10-05 23:15,-119.7326,39.1923,1431.00,73.40,30.20,20.23,270.00,12.00,0.00,30.00,M,10.00,18.00,CLR,M,M,M,M,M,M,M,M,M,M,M,M,M,M,73.40,KCXP 052315Z AUTO 27012G18KT 10SM CLR 23/M01 A3000 RMK AO2,M
RTS,2021-10-05 23:15,-119.8764,39.6682,1539.00,71.60,32.00,23.13,270.00,16.00,0.00,30.02,M,10.00,21.00,CLR,M,M,M,M,M,M,M,M,M,M,M,M,M,M,71.60,KRTS 052315Z AUTO 27016G21KT 10SM CLR 22/M00 A3002 RMK AO2,M
MEV,2021-10-05 23:15,-119.7500,38.9963,1441.42,73.40,32.00,21.76,260.00,13.00,0.00,29.99,M,8.00,21.00,CLR,M,M,M,M,M,M,M,M,M,M,M,M,M,M,73.40,KMEV 052315Z AUTO 26013G21KT 8SM CLR 23/M00 A2999 RMK AO2,M
TMT,2021-10-05 23:15,-117.1971,39.4643,1749.34,73.60,25.00,16.23,260.00,10.00,0.00,30.01,M,10.00,M,SCT,M,M,M,11000.00,M,M,M,M,M,M,M,M,M,M,73.60,KTMT 052315Z AUTO 26010KT 10SM SCT110 23/M04 A3001 RMK AO2 T02311039,M
HTH,2021-10-05 23:15,-118.6315,38.5448,1282.89,77.00,24.80,14.37,340.00,8.00,0.00,29.94,M,10.00,M,CLR,M,M,M,M,M,M,M,M,M,M,M,M,M,M,77.00,KHTH 052315Z AUTO 34008KT 10SM CLR 25/M04 A2994 RMK A01,M
BAM,2021-10-05 23:15,-116.8743,40.5990,1382.36,82.40,21.20,10.34,290.00,9.00,0.00,29.93,M,10.00,16.00,CLR,M,M,M,M,M,M,M,M,M,M,M,M,M,M,79.55,KBAM 052315Z AUTO 29009G16KT 10SM CLR 28/M06 A2993 RMK AO1,M
BAM,2021-10-05 23:35,-116.8743,40.5990,1382.36,82.40,21.20,10.34,290.00,11.00,0.00,29.93,M,10.00,M,CLR,M,M,M,M,M,M,M,M,M,M,M,M,M,M,79.55,KBAM 052335Z AUTO 29011KT 10SM CLR 28/M06 A2993 RMK AO1,M
TMT,2021-10-05 23:35,-117.1971,39.4643,1749.34,73.20,26.10,17.22,220.00,10.00,0.00,30.02,M,10.00,M,BKN,M,M,M,11000.00,M,M,M,M,M,M,M,M,M,M,73.20,KTMT 052335Z AUTO 22010KT 10SM BKN110 23/M03 A3002 RMK AO2 T02291033,M
HTH,2021-10-05 23:35,-118.6315,38.5448,1282.89,77.00,24.80,14.37,340.00,9.00,0.00,29.93,M,10.00,M,CLR,M,M,M,M,M,M,M,M,M,M,M,M,M,M,77.00,KHTH 052335Z AUTO 34009KT 10SM CLR 25/M04 A2993 RMK A01,M
MEV,2021-10-05 23:35,-119.7500,38.9963,1441.42,71.60,32.00,23.13,280.00,12.00,0.00,29.99,M,9.00,18.00,CLR,M,M,M,M,M,M,M,M,M,M,M,M,M,M,71.60,KMEV 052335Z AUTO 28012G18KT 9SM CLR 22/00 A2999 RMK AO2,M
CXP,2021-10-05 23:35,-119.7326,39.1923,1431.00,71.60,32.00,23.13,280.00,12.00,0.00,30.00,M,10.00,M,CLR,M,M,M,M,M,M,M,M,M,M,M,M,M,M,71.60,KCXP 052335Z AUTO 28012KT 10SM CLR 22/00 A3000 RMK AO2,M
BVU,2021-10-05 23:35,-114.8611,35.9475,671.00,75.20,44.60,33.57,120.00,9.00,0.00,29.96,M,10.00,M,CLR,M,M,M,M,M,M,M,M,M,M,M,M,M,M,75.20,KBVU 052335Z AUTO 12009KT 10SM CLR 24/07 A2996 RMK AO2,M
RTS,2021-10-05 23:35,-119.8764,39.6682,1539.00,71.60,30.20,21.50,250.00,17.00,0.00,30.01,M,10.00,M,SCT,M,M,M,10000.00,M,M,M,M,M,M,M,M,M,M,71.60,KRTS 052335Z AUTO 25017KT 10SM SCT100 22/M01 A3001 RMK AO2,M
LOL,2021-10-05 23:53,-118.5701,40.0684,1192.43,79.00,26.10,14.19,200.00,5.00,0.00,29.91,1010.50,8.00,M,CLR,M,M,M,M,M,M,M,M,M,M,M,M,M,M,79.00,KLOL 052353Z AUTO 20005KT 8SM CLR 26/M03 A2991 RMK AO2 SLP105 T02611033 10272 20217 56016,M
P68,2021-10-05 23:53,-116.0056,39.6014,1993.00,72.00,28.90,20.12,180.00,13.00,0.00,30.01,1010.30,M,M,M,M,M,M,M,M,M,M,M,M,M,M,M,M,M,72.00,KP68 052353Z AUTO 18013KT 22/M02 A3001 RMK AO1 SLP103 T02221017 10239 20206 56012,M
DRA,2021-10-05 23:53,-116.0278,36.6206,1009.00,77.00,47.00,34.50,180.00,9.00,T,29.95,1010.50,10.00,16.00,CLR,M,M,M,M,M,M,M,-RA,M,M,M,M,M,M,77.00,KDRA 052353Z AUTO 18009G16KT 10SM -RA CLR 25/08 A2995 RMK AO2 SLP105 P0000 60001 T02500083 10250 20167 56020,M
VGT,2021-10-05 23:53,-115.1933,36.2111,667.00,78.00,46.00,32.15,100.00,11.00,0.00,29.92,1013.10,10.00,M,CLR,M,M,M,M,M,M,M,M,M,M,M,M,M,M,78.10,KVGT 052353Z 10011KT 10SM CLR 26/08 A2992 RMK AO2 SLP131 T02560078 10272 20256 56009,M
ELY,2021-10-05 23:53,-114.8453,39.2950,1909.00,64.00,39.00,39.67,170.00,12.00,0.00,30.09,1012.60,10.00,19.00,OVC,M,M,M,10000.00,M,M,M,M,M,M,M,M,M,M,64.00,KELY 052353Z AUTO 17012G19KT 10SM OVC100 18/04 A3009 RMK AO2 SLP126 T01780039 10206 20178 56010,M
TMT,2021-10-05 23:55,-117.1971,39.4643,1749.34,73.20,26.20,17.29,220.00,6.00,0.00,30.01,M,10.00,M,SCT,M,M,M,11000.00,M,M,M,M,M,M,M,M,M,M,73.20,KTMT 052355Z AUTO 22006KT 10SM SCT110 23/M03 A3001 RMK AO2 T02291032 10246 20206,M
BAM,2021-10-05 23:55,-116.8743,40.5990,1382.36,80.60,21.20,10.97,290.00,11.00,0.00,29.92,M,10.00,18.00,CLR,M,M,M,M,M,M,M,M,M,M,M,M,M,M,78.68,KBAM 052355Z AUTO 29011G18KT 10SM CLR 27/M06 A2992 RMK AO1,M
HTH,2021-10-05 23:55,-118.6315,38.5448,1282.89,77.00,24.80,14.37,350.00,7.00,0.00,29.93,M,9.00,M,CLR,M,M,M,M,M,M,M,M,M,M,M,M,M,M,77.00,KHTH 052355Z AUTO 35007KT 9SM CLR 25/M04 A2993 RMK A01,M
RNO,2021-10-05 23:55,-119.7711,39.4839,1341.00,74.00,34.00,23.19,270.00,12.00,0.00,29.96,1010.60,10.00,M,FEW,SCT,BKN,M,10000.00,19000.00,25000.00,M,M,M,M,M,M,M,M,73.90,KRNO 052355Z 27012KT 10SM FEW100 SCT190 BKN250 23/01 A2996 RMK AO2 SLP106 ACSL DSNT SW THRU NW T02330011 10261 20167 55010,M
BVU,2021-10-05 23:55,-114.8611,35.9475,671.00,75.20,44.60,33.57,100.00,8.00,0.00,29.95,M,10.00,M,CLR,M,M,M,M,M,M,M,M,M,M,M,M,M,M,75.20,KBVU 052355Z AUTO 10008KT 10SM CLR 24/07 A2995 RMK AO2,M
CXP,2021-10-05 23:55,-119.7326,39.1923,1431.00,71.60,33.80,24.86,280.00,9.00,0.00,29.99,M,10.00,20.00,CLR,M,M,M,M,M,M,M,M,M,M,M,M,M,M,71.60,KCXP 052355Z AUTO 28009G20KT 10SM CLR 22/01 A2999 RMK AO2,M
RTS,2021-10-05 23:55,-119.8764,39.6682,1539.00,71.60,30.20,21.50,250.00,17.00,0.00,30.01,M,10.00,M,FEW,M,M,M,10000.00,M,M,M,M,M,M,M,M,M,M,71.60,KRTS 052355Z AUTO 25017KT 10SM FEW100 22/M01 A3001 RMK AO2,M
MEV,2021-10-05 23:55,-119.7500,38.9963,1441.42,71.60,32.00,23.13,270.00,12.00,0.00,29.99,M,10.00,21.00,CLR,M,M,M,M,M,M,M,M,M,M,M,M,M,M,71.60,KMEV 052355Z AUTO 27012G21KT 10SM CLR 22/00 A2999 RMK AO2,M
TPH,2021-10-05 23:56,-117.0904,38.0505,1654.00,72.00,36.00,26.77,190.00,12.00,0.00,30.04,1012.00,10.00,M,CLR,M,M,M,M,M,M,M,M,M,M,M,M,M,M,72.00,KTPH 052356Z AUTO 19012KT 10SM CLR 22/02 A3004 RMK AO2 SLP120 T02220022 10233 20206 56014,M
EKO,2021-10-05 23:56,-115.7860,40.8242,1367.00,77.00,25.00,14.49,230.00,6.00,0.00,29.94,1010.20,10.00,M,FEW,M,M,M,12000.00,M,M,M,M,M,M,M,M,M,M,77.00,KEKO 052356Z AUTO 23006KT 10SM FEW120 25/M04 A2994 RMK AO2 SLP102 T02501039 10272 20206 56016,M
HND,2021-10-05 23:56,-115.1344,35.9729,742.79,76.00,47.00,35.78,170.00,7.00,0.00,29.97,1014.40,10.00,M,CLR,M,M,M,M,M,M,M,M,M,M,M,M,M,M,75.90,KHND 052356Z 17007KT 10SM CLR 24/08 A2997 RMK AO2 SLP144 T02440083 10256 20222 56012,M
WMC,2021-10-05 23:56,-117.8072,40.9019,1315.00,79.00,23.00,12.47,250.00,12.00,0.00,29.91,1010.00,10.00,M,CLR,M,M,M,M,M,M,M,M,M,M,M,M,M,M,79.00,KWMC 052356Z AUTO 25012KT 10SM CLR 26/M05 A2991 RMK AO2 SLP100 T02611050 10278 20222 56014 $,M
LAS,2021-10-05 23:56,-115.1634,36.0719,663.00,77.00,47.00,34.50,90.00,14.00,0.00,29.94,1011.70,10.00,M,FEW,SCT,BKN,M,11000.00,20000.00,25000.00,M,M,M,M,M,M,M,M,77.00,KLAS 052356Z 09014KT 10SM FEW110 SCT200 BKN250 25/08 A2994 RMK AO2 SLP117 T02500083 10256 20228 56011,M
NFL,2021-10-05 23:56,-118.7010,39.4166,1199.00,79.00,26.10,14.19,M,5.00,0.00,29.91,1010.20,7.00,M,BKN,BKN,OVC,M,10000.00,12000.00,25000.00,M,M,M,M,M,M,M,M,79.00,KNFL 052356Z VRB05KT 7SM BKN100 BKN120 OVC250 26/M03 A2991 RMK AO2 SLP102 FU BKN100 T02611033 10272 20222 56016,M
LSV,2021-10-05 23:58,-115.0343,36.2362,570.00,75.40,48.00,37.92,100.00,10.00,0.00,29.92,1011.40,10.00,M,CLR,M,M,M,M,M,M,M,M,M,M,M,M,M,M,75.40,KLSV 052358Z AUTO 10010KT 10SM CLR 24/09 A2992 RMK AO2 SLP114 T02410089 10272 20241 57010 $,M
INS,2021-10-05 23:58,-115.6733,36.5872,955.00,74.80,46.00,35.88,120.00,9.00,0.00,29.96,1010.90,10.00,M,FEW,M,M,M,10000.00,M,M,M,M,M,M,M,M,M,M,74.80,KINS 052358Z AUTO 12009KT 10SM FEW100 24/08 A2996 RMK AO2 SLP109 T02380078 10254 20209 56015 $,M
