station,valid,lon,lat,elevation,tmpf,dwpf,relh,drct,sknt,p01i,alti,mslp,vsby,gust,skyc1,skyc2,skyc3,skyc4,skyl1,skyl2,skyl3,skyl4,wxcodes,ice_accretion_1hr,ice_accretion_3hr,ice_accretion_6hr,peak_wind_gust,peak_wind_drct,peak_wind_time,feel,metar,snowdepth
VGT,2022-07-15 00:03,-115.1933,36.2111,667.00,99.00,55.00,23.18,180.00,8.00,0.00,29.86,M,10.00,M,CLR,M,M,M,M,M,M,M,M,M,M,M,M,M,M,97.39,KVGT 150003Z 18008KT 10SM CLR 37/13 A2986 RMK AO2 LTG DSNT ALQDS T03720128,M
P68,2022-07-15 00:07,-116.0056,39.6014,1993.00,89.00,32.00,13.05,120.00,25.00,0.00,30.12,M,M,40.00,M,M,M,M,M,M,M,M,M,M,M,M,40.00,130.00,2022-07-15 00:06,85.15,KP68 150007Z AUTO 12025G40KT 32/00 A3012 RMK AO1 PK WND 13040/0006 WSHFT 2350 T03170000,M
VGT,2022-07-15 00:14,-115.1933,36.2111,667.00,99.00,54.00,22.35,140.00,12.00,0.00,29.86,M,10.00,M,CLR,M,M,M,M,M,M,M,VCTS,M,M,M,M,M,M,97.06,KVGT 150014Z 14012KT 10SM VCTS CLR 37/12 A2986 RMK AO2 LTG DSNT N AND SE AND S T03720122,M
05U,2022-07-15 00:15,-116.0051,39.6042,1811.23,89.60,33.80,13.80,140.00,11.00,0.00,30.15,M,8.00,31.00,CLR,M,M,M,M,M,M,M,M,M,M,M,M,M,M,85.59,K05U 150015Z AUTO 14011G31KT 110V170 8SM CLR 32/01 A3015 RMK A01,M
RTS,2022-07-15 00:15,-119.8764,39.6682,1539.00,91.40,24.80,9.04,250.00,12.00,0.00,30.11,M,10.00,20.00,CLR,M,M,M,M,M,M,M,M,M,M,M,M,M,M,86.21,KRTS 150015Z AUTO 25012G20KT 10SM CLR 33/M04 A3011 RMK AO2,M
BVU,2022-07-15 00:15,-114.8611,35.9475,671.00,M,M,M,M,M,0.00,M,M,M,M,M,M,M,M,M,M,M,M,M,M,M,M,M,M,M,M,KBVU 150015Z AUTO RMK AO2 PNO PWINO TSNO,M
HTH,2022-07-15 00:15,-118.6315,38.5448,1282.89,98.60,23.00,6.71,320.00,11.00,0.00,29.95,M,10.00,M,CLR,M,M,M,M,M,M,M,M,M,M,M,M,M,M,91.75,KHTH 150015Z AUTO 32011KT 10SM CLR 37/M05 A2995 RMK A01,M
TMT,2022-07-15 00:15,-117.1971,39.4643,1749.34,M,M,M,240.00,12.00,0.00,30.10,M,10.00,M,CLR,M,M,M,M,M,M,M,M,M,M,M,M,M,M,M,KTMT 150015Z AUTO 24012KT 10SM CLR A3010 RMK AO2,M
CXP,2022-07-15 00:15,-119.7326,39.1923,1431.00,91.40,37.40,15.05,260.00,13.00,0.00,30.07,M,10.00,21.00,CLR,M,M,M,M,M,M,M,M,M,M,M,M,M,M,87.23,KCXP 150015Z AUTO 26013G21KT 10SM CLR 33/03 A3007 RMK AO2,M
MEV,2022-07-15 00:15,-119.7500,38.9963,1441.42,93.20,32.00,11.48,260.00,8.00,0.00,30.06,M,10.00,18.00,CLR,M,M,M,M,M,M,M,M,M,M,M,M,M,M,88.31,KMEV 150015Z AUTO 26008G18KT 10SM CLR 34/00 A3006 RMK AO2,M
BAM,2022-07-15 00:15,-116.8743,40.5990,1382.36,M,M,M,250.00,9.00,0.00,29.99,M,10.00,19.00,CLR,M,M,M,M,M,M,M,M,M,M,M,M,M,M,M,KBAM 150015Z AUTO 25009G19KT 10SM CLR A2999 RMK AO1,M
HND,2022-07-15 00:18,-115.1344,35.9729,742.79,87.80,62.60,43.07,180.00,18.00,0.00,29.97,M,10.00,23.00,FEW,BKN,M,M,6500.00,11000.00,M,M,M,M,M,M,M,M,M,88.48,KHND 150018Z 18018G23KT 10SM FEW065 BKN110 31/17 A2997 RMK AO2 WSHFT 0000 LTG DSNT ALQDS TSE18,M
LSV,2022-07-15 00:24,-115.0343,36.2362,570.00,96.80,57.20,26.84,140.00,15.00,0.00,29.86,1008.20,10.00,M,CLR,M,M,M,M,M,M,M,M,M,M,M,M,M,M,95.77,KLSV 150024Z AUTO 14015KT 10SM CLR 36/14 A2986 RMK AO2 WSHFT 14 LTG DSNT E-SE AND SW PRESRR SLP082 $,M
VGT,2022-07-15 00:29,-115.1933,36.2111,667.00,99.00,54.00,22.35,210.00,8.00,0.00,29.88,M,10.00,M,FEW,SCT,M,M,6500.00,12000.00,M,M,M,M,M,M,M,M,M,97.06,KVGT 150029Z 21008KT 10SM FEW065 SCT120 37/12 A2988 RMK AO2 LTG DSNT ALQDS T03720122,M
HND,2022-07-15 00:33,-115.1344,35.9729,742.79,87.80,62.60,43.07,180.00,15.00,0.00,29.96,M,10.00,22.00,FEW,BKN,M,M,6500.00,11000.00,M,M,VCTS,M,M,M,M,M,M,88.48,KHND 150033Z 18015G22KT 10SM VCTS FEW065 BKN110 31/17 A2996 RMK AO2 WSHFT 0000 LTG DSNT ALQDS TSE18B27,M
TMT,2022-07-15 00:35,-117.1971,39.4643,1749.34,M,M,M,240.00,6.00,0.00,30.09,M,10.00,19.00,CLR,M,M,M,M,M,M,M,M,M,M,M,M,M,M,M,KTMT 150035Z AUTO 24006G19KT 10SM CLR A3009 RMK AO2,M
BVU,2022-07-15 00:35,-114.8611,35.9475,671.00,M,M,M,M,M,0.00,M,M,M,M,M,M,M,M,M,M,M,M,M,M,M,M,M,M,M,M,KBVU 150035Z AUTO RMK AO2 PNO PWINO TSNO,M
CXP,2022-07-15 00:35,-119.7326,39.1923,1431.00,91.40,37.40,15.05,290.00,17.00,0.00,30.07,M,10.00,M,CLR,M,M,M,M,M,M,M,M,M,M,M,M,M,M,87.23,KCXP 150035Z AUTO 29017KT 10SM CLR 33/03 A3007 RMK AO2,M
RTS,2022-07-15 00:35,-119.8764,39.6682,1539.00,89.60,24.80,9.56,240.00,12.00,0.00,30.11,M,10.00,20.00,CLR,M,M,M,M,M,M,M,M,M,M,M,M,M,M,84.88,KRTS 150035Z AUTO 24012G20KT 10SM CLR 32/M04 A3011 RMK AO2,M
05U,2022-07-15 00:35,-116.0051,39.6042,1811.23,89.60,32.00,12.84,140.00,7.00,0.00,30.14,M,10.00,M,CLR,M,M,M,M,M,M,M,M,M,M,M,M,M,M,85.54,K05U 150035Z AUTO 14007KT 10SM CLR 32/00 A3014 RMK A01,M
MEV,2022-07-15 00:35,-119.7500,38.9963,1441.42,91.40,32.00,12.14,240.00,9.00,0.00,30.06,M,10.00,19.00,CLR,M,M,M,M,M,M,M,M,M,M,M,M,M,M,86.91,KMEV 150035Z AUTO 24009G19KT 10SM CLR 33/00 A3006 RMK AO2,M
BAM,2022-07-15 00:35,-116.8743,40.5990,1382.36,M,M,M,270.00,10.00,0.00,29.99,M,10.00,17.00,CLR,M,M,M,M,M,M,M,M,M,M,M,M,M,M,M,KBAM 150035Z AUTO 27010G17KT 10SM CLR A2999 RMK AO1,M
HTH,2022-07-15 00:35,-118.6315,38.5448,1282.89,100.40,23.00,6.36,320.00,12.00,0.00,29.95,M,10.00,M,CLR,M,M,M,M,M,M,M,M,M,M,M,M,M,M,93.25,KHTH 150035Z AUTO 32012KT 10SM CLR 38/M05 A2995 RMK A01,M
VGT,2022-07-15 00:36,-115.1933,36.2111,667.00,98.00,56.00,24.61,190.00,16.00,0.00,29.87,M,10.00,31.00,SCT,BKN,M,M,6500.00,12000.00,M,M,TS,M,M,M,31.00,200.00,2022-07-15 00:32,96.72,KVGT 150036Z 19016G31KT 10SM TS SCT065 BKN120 37/13 A2987 RMK AO2 PK WND 20031/0032 LTG DSNT ALQDS TSB30 T03670133,M
LAS,2022-07-15 00:38,-115.1634,36.0719,663.00,89.00,61.00,39.06,190.00,15.00,T,29.89,M,10.00,31.00,SCT,BKN,BKN,OVC,5500.00,10000.00,12000.00,18000.00,TS,M,M,M,32.00,180.00,2022-07-15 00:24,89.11,KLAS 150038Z 19015G31KT 10SM TS SCT055 BKN100CB BKN120 OVC180 32/16 A2989 RMK AO2 PK WND 18032/0024 WSHFT 0018 LTG DSNT ALQDS RAE08B26E37 OCNL LTGICCG OHD-ALQDS TS OHD-ALQDS MOV N P0000 T03170161,M
LSV,2022-07-15 00:48,-115.0343,36.2362,570.00,93.20,59.00,31.99,110.00,25.00,0.00,29.86,1008.40,9.00,34.00,FEW,FEW,SCT,M,7000.00,8500.00,12000.00,M,-TSRA,M,M,M,M,M,M,92.57,KLSV 150048Z 11025G34KT 9SM -TSRA FEW070 FEW085 SCT120 34/15 A2986 RMK AO2A TSB48 SLP084 $,M
HND,2022-07-15 00:48,-115.1344,35.9729,742.79,87.80,62.60,43.07,180.00,15.00,0.00,29.96,M,10.00,M,SCT,M,M,M,11000.00,M,M,M,M,M,M,M,M,M,M,88.48,KHND 150048Z 18015KT 10SM SCT110 31/17 A2996 RMK AO2 WSHFT 0000 LTG DSNT ALQDS TSE18B27E42,M
LSV,2022-07-15 00:50,-115.0343,36.2362,570.00,91.40,60.80,36.08,110.00,21.00,0.00,29.87,1008.70,9.00,34.00,FEW,SCT,SCT,M,6000.00,8000.00,12000.00,M,TS,M,M,M,M,M,M,91.40,KLSV 150050Z AUTO 11021G34KT 9SM TS FEW060 SCT080 SCT120 33/16 A2987 RMK AO2 TSB48 SLP087 $,M
VGT,2022-07-15 00:51,-115.1933,36.2111,667.00,95.00,57.20,28.37,190.00,19.00,0.00,29.89,M,10.00,25.00,SCT,OVC,M,M,6500.00,12000.00,M,M,VCTS,M,M,M,31.00,200.00,2022-07-15 00:32,93.82,KVGT 150051Z 19019G25KT 10SM VCTS SCT065 OVC120 35/14 A2989 RMK AO2 PK WND 20031/0032 LTG DSNT ALQDS TSB30E45,M
LOL,2022-07-15 00:53,-118.5701,40.0684,1192.43,100.00,18.00,5.20,270.00,9.00,0.00,29.94,1009.40,10.00,M,CLR,M,M,M,M,M,M,M,M,M,M,M,M,M,M,92.56,KLOL 150053Z AUTO 27009KT 10SM CLR 38/M08 A2994 RMK AO2 SLP094 T03781078,M
P68,2022-07-15 00:53,-116.0056,39.6014,1993.00,89.00,34.00,14.14,140.00,7.00,0.00,30.10,1010.20,M,M,M,M,M,M,M,M,M,M,M,M,M,M,40.00,130.00,2022-07-15 00:06,85.17,KP68 150053Z AUTO 14007KT 32/01 A3010 RMK AO1 PK WND 13040/0006 WSHFT 2350 SLP102 T03170011,M
ELY,2022-07-15 00:53,-114.8453,39.2950,1909.00,89.00,34.00,14.14,210.00,9.00,0.00,30.15,1009.10,10.00,M,CLR,M,M,M,M,M,M,M,M,M,M,M,M,M,M,85.17,KELY 150053Z AUTO 21009KT 10SM CLR 32/01 A3015 RMK AO2 SLP091 T03170011,M
VGT,2022-07-15 00:53,-115.1933,36.2111,667.00,95.00,58.00,29.09,190.00,14.00,0.00,29.91,1011.30,10.00,25.00,BKN,OVC,M,M,6500.00,12000.00,M,M,VCTS,M,M,M,31.00,200.00,2022-07-15 00:32,94.08,KVGT 150053Z 19014G25KT 10SM VCTS BKN065 OVC120 35/14 A2991 RMK AO2 PK WND 20031/0032 LTG DSNT ALQDS TSB30E45 PRESRR SLP113 T03500144,M
DRA,2022-07-15 00:53,-116.0278,36.6206,1009.00,100.00,47.00,16.66,200.00,14.00,0.00,29.92,1007.10,10.00,23.00,CLR,M,M,M,M,M,M,M,M,M,M,M,26.00,210.00,2022-07-15 00:20,96.33,KDRA 150053Z AUTO 20014G23KT 10SM CLR 38/08 A2992 RMK AO2 PK WND 21026/0020 SLP071 T03780083,M
BVU,2022-07-15 00:55,-114.8611,35.9475,671.00,M,M,M,M,M,0.00,M,M,M,M,M,M,M,M,M,M,M,M,M,M,M,M,M,M,M,M,KBVU 150055Z AUTO RMK AO2 PNO PWINO TSNO,M
RNO,2022-07-15 00:55,-119.7711,39.4839,1341.00,94.00,37.00,13.71,300.00,18.00,0.00,30.02,1010.30,10.00,25.00,FEW,M,M,M,10000.00,M,M,M,M,M,M,M,M,M,M,89.44,KRNO 150055Z 30018G25KT 10SM FEW100 34/03 A3002 RMK AO2 SLP103 T03440028,M
RTS,2022-07-15 00:55,-119.8764,39.6682,1539.00,89.60,24.80,9.56,240.00,14.00,0.00,30.11,M,10.00,22.00,CLR,M,M,M,M,M,M,M,M,M,M,M,M,M,M,84.88,KRTS 150055Z AUTO 24014G22KT 10SM CLR 32/M04 A3011 RMK AO2,M
05U,2022-07-15 00:55,-116.0051,39.6042,1811.23,89.60,33.80,13.80,140.00,6.00,0.00,30.13,M,10.00,M,CLR,M,M,M,M,M,M,M,M,M,M,M,M,M,M,85.59,K05U 150055Z AUTO 14006KT 10SM CLR 32/01 A3013 RMK A01,M
MEV,2022-07-15 00:55,-119.7500,38.9963,1441.42,91.40,32.00,12.14,250.00,11.00,0.00,30.06,M,10.00,17.00,CLR,M,M,M,M,M,M,M,M,M,M,M,M,M,M,86.91,KMEV 150055Z AUTO 25011G17KT 10SM CLR 33/00 A3006 RMK AO2,M
BAM,2022-07-15 00:55,-116.8743,40.5990,1382.36,M,M,M,260.00,13.00,0.00,29.99,M,10.00,22.00,CLR,M,M,M,M,M,M,M,M,M,M,M,M,M,M,M,KBAM 150055Z AUTO 26013G22KT 10SM CLR A2999 RMK AO1,M
HTH,2022-07-15 00:55,-118.6315,38.5448,1282.89,96.80,24.80,7.65,320.00,13.00,0.00,29.95,M,10.00,M,CLR,M,M,M,M,M,M,M,M,M,M,M,M,M,M,90.40,KHTH 150055Z AUTO 32013KT 10SM CLR 36/M04 A2995 RMK A01,M
TMT,2022-07-15 00:55,-117.1971,39.4643,1749.34,M,M,M,220.00,6.00,0.00,30.09,M,10.00,M,CLR,M,M,M,M,M,M,M,M,M,M,M,M,M,M,M,KTMT 150055Z AUTO 22006KT 10SM CLR A3009 RMK AO2,M
CXP,2022-07-15 00:55,-119.7326,39.1923,1431.00,89.60,37.40,15.92,260.00,11.00,0.00,30.07,M,10.00,21.00,CLR,M,M,M,M,M,M,M,M,M,M,M,M,M,M,85.67,KCXP 150055Z AUTO 26011G21KT 10SM CLR 32/03 A3007 RMK AO2,M
WMC,2022-07-15 00:56,-117.8072,40.9019,1315.00,99.00,14.00,4.51,270.00,15.00,0.00,29.98,1009.80,10.00,M,FEW,M,M,M,11000.00,M,M,M,M,M,M,M,26.00,260.00,2022-07-15 00:09,91.51,KWMC 150056Z AUTO 27015KT 10SM FEW110 37/M10 A2998 RMK AO2 PK WND 26026/0009 SLP098 T03721100 TSNO,M
LAS,2022-07-15 00:56,-115.1634,36.0719,663.00,89.00,61.00,39.06,190.00,13.00,T,29.92,1010.10,10.00,23.00,FEW,FEW,BKN,OVC,5500.00,10000.00,15000.00,18000.00,TS,M,M,M,32.00,180.00,2022-07-15 00:24,89.11,KLAS 150056Z 19013G23KT 10SM TS FEW055 FEW100 BKN150CB OVC180 32/16 A2992 RMK AO2 PK WND 18032/0024 WSHFT 0018 LTG DSNT ALQDS RAE08B26E37 PRESRR SLP101 OCNL LTGICCG OHD-ALQDS TS OHD-ALQDS MOV N VCSH ALQDS P0000 T03170161,M
NFL,2022-07-15 00:56,-118.7010,39.4166,1199.00,101.00,17.10,4.87,330.00,10.00,0.00,29.94,1011.20,10.00,M,FEW,SCT,M,M,9000.00,14000.00,M,M,M,M,M,M,M,M,M,93.25,KNFL 150056Z 33010KT 300V010 10SM FEW090 SCT140 38/M08 A2994 RMK AO2 SLP112 FU ALOFT ALQDS T03831083,M
LSV,2022-07-15 00:56,-115.0343,36.2362,570.00,92.00,62.00,36.93,110.00,21.00,0.00,29.87,1008.70,9.00,34.00,FEW,SCT,SCT,M,6000.00,8000.00,12000.00,M,-TSRA,M,M,M,34.00,110.00,2022-07-15 00:27,92.43,KLSV 150056Z 11021G34KT 9SM -TSRA FEW060CB SCT080 SCT120 33/17 A2987 RMK A02A PK WND 11034/27 TSB48 SLP087 T03330166 $,M
HND,2022-07-15 00:56,-115.1344,35.9729,742.79,88.00,62.00,42.05,170.00,21.00,0.00,29.96,1012.70,10.00,26.00,SCT,BKN,M,M,10000.00,11000.00,M,M,M,M,M,M,26.00,160.00,2022-07-15 00:55,88.47,KHND 150056Z 17021G26KT 10SM SCT100 BKN110 31/17 A2996 RMK AO2 PK WND 16026/0055 WSHFT 0000 LTG DSNT ALQDS TSE18B27E42 SLP127 T03110167,M
EKO,2022-07-15 00:56,-115.7860,40.8242,1367.00,96.00,28.90,9.25,250.00,14.00,0.00,30.03,1010.10,10.00,25.00,CLR,M,M,M,M,M,M,M,M,M,M,M,32.00,270.00,2022-07-15 00:43,90.23,KEKO 150056Z AUTO 25014G25KT 10SM CLR 36/M02 A3003 RMK AO2 PK WND 27032/0043 SLP101 T03561017,M
TPH,2022-07-15 00:56,-117.0904,38.0505,1654.00,97.00,37.00,12.46,190.00,13.00,0.00,30.06,1008.90,10.00,19.00,BKN,M,M,M,12000.00,M,M,M,M,M,M,M,M,M,M,92.13,KTPH 150056Z AUTO 19013G19KT 10SM BKN120 36/03 A3006 RMK AO2 SLP089 T03610028,M
LSV,2022-07-15 00:57,-115.0343,36.2362,570.00,91.40,62.60,38.45,110.00,21.00,0.00,29.89,1009.40,10.00,32.00,FEW,SCT,SCT,M,6000.00,8000.00,12000.00,M,TS,M,M,M,M,M,M,92.23,KLSV 150057Z AUTO 11021G32KT 10SM TS FEW060 SCT080 SCT120 33/17 A2989 RMK AO2 RAE56 PRESRR SLP094 $,M
INS,2022-07-15 00:58,-115.6733,36.5872,955.00,95.00,52.50,23.90,130.00,19.00,0.00,29.92,1007.70,10.00,M,BKN,M,M,M,17000.00,M,M,M,M,M,M,M,29.00,150.00,2022-07-15 00:09,92.43,KINS 150058Z AUTO 13019KT 10SM BKN170 35/11 A2992 RMK AO2 PK WND 15029/09 LTG DSNT E SLP077 T03500114 $,M
LSV,2022-07-15 01:07,-115.0343,36.2362,570.00,91.40,60.80,36.08,150.00,16.00,0.00,29.94,1011.10,10.00,28.00,FEW,SCT,SCT,BKN,4800.00,6000.00,7500.00,11000.00,TS,M,M,M,M,M,M,91.40,KLSV 150107Z AUTO 15016G28KT 10SM TS FEW048 SCT060 SCT075 BKN110 33/16 A2994 RMK AO2 WSHFT 0053 RAE0056 PRESRR SLP111 $,M
VGT,2022-07-15 01:08,-115.1933,36.2111,667.00,94.00,57.00,29.14,110.00,16.00,T,29.95,M,10.00,24.00,FEW,SCT,BKN,M,6500.00,8000.00,12000.00,M,VCTS -RA,M,M,M,M,M,M,92.58,KVGT 150108Z 11016G24KT 10SM VCTS -RA FEW065 SCT080 BKN120 34/14 A2995 RMK AO2 WSHFT 0048 LTG DSNT ALQDS RAB04 P0000 T03440139,M
LSV,2022-07-15 01:09,-115.0343,36.2362,570.00,91.40,60.80,36.08,160.00,12.00,0.00,29.94,1011.10,10.00,28.00,FEW,FEW,SCT,BKN,3200.00,4800.00,6000.00,7500.00,-TSRA,M,M,M,M,M,M,91.40,KLSV 150109Z AUTO 16012G28KT 10SM -TSRA FEW032 FEW048 SCT060 BKN075 BKN110 33/16 A2994 RMK AO2 RAE0056RAB09 SLP111 $,M
CXP,2022-07-15 01:15,-119.7326,39.1923,1431.00,89.60,37.40,15.92,250.00,12.00,0.00,30.07,M,10.00,20.00,CLR,M,M,M,M,M,M,M,M,M,M,M,M,M,M,85.67,KCXP 150115Z AUTO 25012G20KT 220V290 10SM CLR 32/03 A3007 RMK AO2,M
BVU,2022-07-15 01:15,-114.8611,35.9475,671.00,M,M,M,M,M,0.00,M,M,M,M,M,M,M,M,M,M,M,M,M,M,M,M,M,M,M,M,KBVU 150115Z AUTO RMK AO2 PNO PWINO TSNO,M
RTS,2022-07-15 01:15,-119.8764,39.6682,1539.00,87.80,23.00,9.39,250.00,15.00,0.00,30.11,M,10.00,20.00,CLR,M,M,M,M,M,M,M,M,M,M,M,M,M,M,83.43,KRTS 150115Z AUTO 25015G20KT 10SM CLR 31/M05 A3011 RMK AO2,M
05U,2022-07-15 01:15,-116.0051,39.6042,1811.23,89.60,33.80,13.80,0.00,0.00,0.00,30.13,M,10.00,M,CLR,M,M,M,M,M,M,M,M,M,M,M,M,M,M,85.59,K05U 150115Z AUTO 00000KT 10SM CLR 32/01 A3013 RMK A01,M
MEV,2022-07-15 01:15,-119.7500,38.9963,1441.42,91.40,33.80,13.05,270.00,8.00,0.00,30.06,M,10.00,17.00,CLR,M,M,M,M,M,M,M,M,M,M,M,M,M,M,87.13,KMEV 150115Z AUTO 27008G17KT 10SM CLR 33/01 A3006 RMK AO2,M
BAM,2022-07-15 01:15,-116.8743,40.5990,1382.36,M,M,M,280.00,9.00,0.00,29.99,M,10.00,M,CLR,M,M,M,M,M,M,M,M,M,M,M,M,M,M,M,KBAM 150115Z AUTO 28009KT 10SM CLR A2999 RMK AO1,M
HTH,2022-07-15 01:15,-118.6315,38.5448,1282.89,96.80,23.00,7.09,320.00,9.00,0.00,29.95,M,10.00,M,CLR,M,M,M,M,M,M,M,M,M,M,M,M,M,M,90.25,KHTH 150115Z AUTO 32009KT 10SM CLR 36/M05 A2995 RMK A01,M
TMT,2022-07-15 01:15,-117.1971,39.4643,1749.34,M,M,M,340.00,12.00,0.00,30.09,M,10.00,16.00,CLR,M,M,M,M,M,M,M,M,M,M,M,M,M,M,M,KTMT 150115Z AUTO 34012G16KT 10SM CLR A3009 RMK AO2,M
VGT,2022-07-15 01:16,-115.1933,36.2111,667.00,93.00,59.00,32.19,120.00,16.00,T,29.95,M,10.00,23.00,FEW,SCT,BKN,M,6000.00,8000.00,11000.00,M,VCTS -RA,M,M,M,M,M,M,92.35,KVGT 150116Z 12016G23KT 10SM VCTS -RA FEW060 SCT080 BKN110 34/15 A2995 RMK AO2 WSHFT 0048 LTG DSNT ALQDS RAB04 P0000 T03390150,M
LSV,2022-07-15 01:17,-115.0343,36.2362,570.00,89.60,64.40,43.34,140.00,13.00,0.00,29.93,1010.90,10.00,M,FEW,SCT,BKN,BKN,3200.00,4800.00,6000.00,7500.00,-RA,M,M,M,M,M,M,91.23,KLSV 150117Z AUTO 14013KT 10SM -RA FEW032 SCT048 BKN060 BKN075 BKN110 32/18 A2993 RMK AO2 LTG DSNT SE RAE0056RAB09E13DZB13E14RAB14 TSE17 SLP109 $,M
LSV,2022-07-15 01:24,-115.0343,36.2362,570.00,89.60,60.80,38.18,150.00,24.00,0.00,29.92,1010.60,10.00,M,FEW,BKN,BKN,BKN,4100.00,5000.00,6000.00,7500.00,M,M,M,M,M,M,M,89.54,KLSV 150124Z AUTO 15024KT 10SM FEW041 BKN050 BKN060 BKN075 BKN110 32/16 A2992 RMK AO2 LTG DSNT SE-S RAE0056RAB09E13DZB13E14RAB14E24 TSE17 SLP106 $,M
05U,2022-07-15 01:30,-116.0051,39.6042,1811.23,87.80,33.80,14.61,0.00,0.00,0.00,30.13,M,10.00,M,CLR,M,M,M,M,M,M,M,M,M,M,M,M,M,M,84.10,K05U 150130Z AUTO 00000KT 10SM CLR 31/01 A3013 RMK A01,M
MEV,2022-07-15 01:35,-119.7500,38.9963,1441.42,89.60,37.40,15.92,210.00,10.00,0.00,30.06,M,10.00,16.00,CLR,M,M,M,M,M,M,M,M,M,M,M,M,M,M,85.67,KMEV 150135Z AUTO 21010G16KT 10SM CLR 32/03 A3006 RMK AO2,M
BVU,2022-07-15 01:35,-114.8611,35.9475,671.00,M,M,M,M,M,0.00,M,M,M,M,M,M,M,M,M,M,M,M,M,M,M,M,M,M,M,M,KBVU 150135Z AUTO RMK AO2 PNO PWINO TSNO,M
CXP,2022-07-15 01:35,-119.7326,39.1923,1431.00,87.80,39.20,18.09,270.00,17.00,0.00,30.07,M,10.00,M,CLR,M,M,M,M,M,M,M,M,M,M,M,M,M,M,84.22,KCXP 150135Z AUTO 27017KT 10SM CLR 31/04 A3007 RMK AO2,M
RTS,2022-07-15 01:35,-119.8764,39.6682,1539.00,87.80,24.80,10.12,230.00,14.00,0.00,30.11,M,10.00,19.00,CLR,M,M,M,M,M,M,M,M,M,M,M,M,M,M,83.56,KRTS 150135Z AUTO 23014G19KT 10SM CLR 31/M04 A3011 RMK AO2,M
HTH,2022-07-15 01:35,-118.6315,38.5448,1282.89,96.80,24.80,7.65,320.00,11.00,0.00,29.95,M,10.00,M,CLR,M,M,M,M,M,M,M,M,M,M,M,M,M,M,90.40,KHTH 150135Z AUTO 32011KT 10SM CLR 36/M04 A2995 RMK A01,M
TMT,2022-07-15 01:35,-117.1971,39.4643,1749.34,94.30,27.00,9.05,320.00,10.00,0.00,30.09,M,10.00,18.00,CLR,M,M,M,M,M,M,M,M,M,M,M,M,M,M,88.59,KTMT 150135Z AUTO 32010G18KT 10SM CLR 35/M03 A3009 RMK AO2 T03461028,M
BAM,2022-07-15 01:35,-116.8743,40.5990,1382.36,M,M,M,260.00,12.00,0.00,29.99,M,10.00,M,CLR,M,M,M,M,M,M,M,M,M,M,M,M,M,M,M,KBAM 150135Z AUTO 26012KT 10SM CLR A2999 RMK AO1,M
HND,2022-07-15 01:37,-115.1344,35.9729,742.79,87.80,62.60,43.07,180.00,11.00,T,30.01,M,10.00,M,FEW,BKN,M,M,5500.00,10000.00,M,M,VCTS -RA,M,M,M,28.00,160.00,2022-07-15 01:16,88.48,KHND 150137Z 18011KT 10SM VCTS -RA FEW055 BKN100 31/17 A3001 RMK AO2 PK WND 16028/0116 LTG DSNT ALQDS TSB31RAB17 PRESRR P0000,M
HND,2022-07-15 01:52,-115.1344,35.9729,742.79,87.80,60.80,40.41,140.00,10.00,T,30.02,M,10.00,15.00,FEW,M,M,M,11000.00,M,M,M,M,M,M,M,28.00,160.00,2022-07-15 01:16,87.75,KHND 150152Z 14010G15KT 10SM FEW110 31/16 A3002 RMK AO2 PK WND 16028/0116 LTG DSNT ALQDS TSB31E46RAB17E42 P0000,M
DRA,2022-07-15 01:53,-116.0278,36.6206,1009.00,98.00,48.00,18.39,200.00,15.00,0.00,29.93,1007.10,10.00,22.00,CLR,M,M,M,M,M,M,M,M,M,M,M,M,M,M,94.63,KDRA 150153Z AUTO 20015G22KT 10SM CLR 37/09 A2993 RMK AO2 SLP071 T03670089,M
ELY,2022-07-15 01:53,-114.8453,39.2950,1909.00,87.00,37.00,16.97,310.00,8.00,0.00,30.18,1009.50,10.00,M,BKN,M,M,M,12000.00,M,M,M,M,M,M,M,M,M,M,83.59,KELY 150153Z AUTO 31008KT 10SM BKN120 31/03 A3018 RMK AO2 LTG DSNT NW SLP095 T03060028,M
P68,2022-07-15 01:53,-116.0056,39.6014,1993.00,89.00,34.00,14.14,130.00,5.00,0.00,30.10,1009.30,M,M,M,M,M,M,M,M,M,M,M,M,M,M,M,M,M,85.17,KP68 150153Z AUTO 13005KT 32/01 A3010 RMK AO1 SLP093 T03170011,M
INS,2022-07-15 01:53,-115.6733,36.5872,955.00,87.80,59.00,37.90,120.00,34.00,0.00,29.95,1009.00,4.00,43.00,BKN,OVC,M,M,14000.00,17000.00,M,M,HZ,M,M,M,M,M,M,87.12,KINS 150153Z AUTO 12034G43KT 4SM HZ BKN140 OVC170 31/15 A2995 RMK AO2 LTG DSNT SE SLP090 $,M
VGT,2022-07-15 01:53,-115.1933,36.2111,667.00,88.00,63.00,43.40,130.00,15.00,T,29.99,1014.30,10.00,M,FEW,FEW,FEW,M,6500.00,9000.00,11000.00,M,VCTS -RA,M,M,M,30.00,140.00,2022-07-15 01:22,88.86,KVGT 150153Z 13015KT 10SM VCTS -RA FEW065 FEW090 FEW110 31/17 A2999 RMK AO2 PK WND 14030/0122 WSHFT 0048 LTG DSNT SE-SW RAB04 SLP143 P0000 T03110172,M
LOL,2022-07-15 01:53,-118.5701,40.0684,1192.43,98.00,17.10,5.30,280.00,11.00,0.00,29.94,1009.20,10.00,M,CLR,M,M,M,M,M,M,M,M,M,M,M,M,M,M,90.93,KLOL 150153Z AUTO 28011KT 10SM CLR 37/M08 A2994 RMK AO2 SLP092 T03671083,M
RNO,2022-07-15 01:55,-119.7711,39.4839,1341.00,91.00,37.00,15.00,290.00,13.00,0.00,30.03,1010.60,10.00,22.00,FEW,M,M,M,10000.00,M,M,M,M,M,M,M,27.00,290.00,2022-07-15 01:04,86.86,KRNO 150155Z 29013G22KT 10SM FEW100 33/03 A3003 RMK AO2 PK WND 29027/0104 SLP106 T03280028,M
TMT,2022-07-15 01:55,-117.1971,39.4643,1749.34,91.40,25.20,9.19,340.00,13.00,0.00,30.10,M,10.00,18.00,CLR,M,M,M,M,M,M,M,M,M,M,M,M,M,M,86.25,KTMT 150155Z AUTO 34013G18KT 10SM CLR 33/M04 A3010 RMK AO2 T03301038,M
CXP,2022-07-15 01:55,-119.7326,39.1923,1431.00,86.00,39.20,19.15,270.00,9.00,0.00,30.07,M,10.00,19.00,CLR,M,M,M,M,M,M,M,M,M,M,M,M,M,M,82.79,KCXP 150155Z AUTO 27009G19KT 10SM CLR 30/04 A3007 RMK AO2,M
BVU,2022-07-15 01:55,-114.8611,35.9475,671.00,M,M,M,M,M,0.00,M,M,M,M,M,M,M,M,M,M,M,M,M,M,M,M,M,M,M,M,KBVU 150155Z AUTO RMK AO2 PNO PWINO TSNO,M
RTS,2022-07-15 01:55,-119.8764,39.6682,1539.00,86.00,24.80,10.72,240.00,11.00,0.00,30.11,M,10.00,M,CLR,M,M,M,M,M,M,M,M,M,M,M,M,M,M,82.26,KRTS 150155Z AUTO 24011KT 10SM CLR 30/M04 A3011 RMK AO2,M
05U,2022-07-15 01:55,-116.0051,39.6042,1811.23,89.60,33.80,13.80,0.00,0.00,0.00,30.13,M,10.00,M,CLR,M,M,M,M,M,M,M,M,M,M,M,M,M,M,85.59,K05U 150155Z AUTO 00000KT 10SM CLR 32/01 A3013 RMK A01,M
MEV,2022-07-15 01:55,-119.7500,38.9963,1441.42,87.80,37.40,16.86,240.00,8.00,0.00,30.06,M,10.00,16.00,CLR,M,M,M,M,M,M,M,M,M,M,M,M,M,M,84.16,KMEV 150155Z AUTO 24008G16KT 10SM CLR 31/03 A3006 RMK AO2,M
BAM,2022-07-15 01:55,-116.8743,40.5990,1382.36,M,M,M,250.00,9.00,0.00,29.99,M,10.00,M,CLR,M,M,M,M,M,M,M,M,M,M,M,M,M,M,M,KBAM 150155Z AUTO 25009KT 10SM CLR A2999 RMK AO1,M
HTH,2022-07-15 01:55,-118.6315,38.5448,1282.89,96.80,26.60,8.24,310.00,9.00,0.00,29.95,M,10.00,15.00,CLR,M,M,M,M,M,M,M,M,M,M,M,M,M,M,90.57,KHTH 150155Z AUTO 31009G15KT 10SM CLR 36/M03 A2995 RMK A01,M
LAS,2022-07-15 01:56,-115.1634,36.0719,663.00,84.00,67.00,56.51,100.00,8.00,T,29.99,1012.60,10.00,M,FEW,BKN,BKN,OVC,5500.00,11000.00,15000.00,18000.00,TS,M,M,M,M,M,M,86.62,KLAS 150156Z 10008KT 10SM TS FEW055 BKN110CB BKN150 OVC180 29/19 A2999 RMK AO2 LTG DSNT ALQDS RAB10E52 SLP126 OCNL LTGICCCCG OHD-ALQDS TS OHD-ALQDS MOV N VCSH ALQDS P0000 T02890194,M
EKO,2022-07-15 01:56,-115.7860,40.8242,1367.00,94.00,30.90,10.74,240.00,9.00,0.00,30.04,1009.80,10.00,M,CLR,M,M,M,M,M,M,M,M,M,M,M,M,M,M,88.71,KEKO 150156Z AUTO 24009KT 10SM CLR 34/M01 A3004 RMK AO2 SLP098 T03441006,M
WMC,2022-07-15 01:56,-117.8072,40.9019,1315.00,97.00,18.00,5.70,250.00,9.00,0.00,29.97,1009.20,10.00,M,CLR,M,M,M,M,M,M,M,M,M,M,M,M,M,M,90.07,KWMC 150156Z AUTO 25009KT 10SM CLR 36/M08 A2997 RMK AO2 SLP092 T03611078 TSNO,M
NFL,2022-07-15 01:56,-118.7010,39.4166,1199.00,99.00,21.90,6.33,290.00,10.00,0.00,29.94,1011.10,10.00,M,FEW,FEW,M,M,9000.00,16000.00,M,M,M,M,M,M,M,M,M,91.99,KNFL 150156Z 29010KT 10SM FEW090 FEW160 37/M06 A2994 RMK AO2 SLP111 FU ALOFT ALQDS T03721056,M
TPH,2022-07-15 01:56,-117.0904,38.0505,1654.00,93.00,38.00,14.60,180.00,17.00,0.00,30.07,1008.80,10.00,26.00,CLR,M,M,M,M,M,M,M,M,M,M,M,26.00,210.00,2022-07-15 00:59,88.67,KTPH 150156Z AUTO 18017G26KT 10SM CLR 34/03 A3007 RMK AO2 PK WND 21026/0059 SLP088 T03390033,M
HND,2022-07-15 01:56,-115.1344,35.9729,742.79,85.00,62.00,46.42,160.00,7.00,T,30.02,1015.00,10.00,15.00,FEW,SCT,M,M,5000.00,11000.00,M,M,M,M,M,M,28.00,160.00,2022-07-15 01:16,85.49,KHND 150156Z 16007G15KT 10SM FEW050 SCT110 29/17 A3002 RMK AO2 PK WND 16028/0116 LTG DSNT ALQDS TSB31E46RAB17E42 SLP150 P0000 T02940167,M
INS,2022-07-15 01:58,-115.6733,36.5872,955.00,86.70,58.00,38.00,120.00,34.00,0.00,29.95,1009.00,6.00,41.00,BKN,OVC,M,M,14000.00,17000.00,M,M,HZ,M,M,M,43.00,120.00,2022-07-15 01:43,85.83,KINS 150158Z AUTO 12034G41KT 6SM HZ BKN140 OVC170 30/15 A2995 RMK AO2 PK WND 12043/43 SLP090 T03040145 $,M
LSV,2022-07-15 01:58,-115.0343,36.2362,570.00,90.00,60.80,37.70,150.00,19.00,T,29.96,1011.80,10.00,24.00,FEW,FEW,BKN,M,7000.00,10000.00,13000.00,M,M,M,M,M,28.00,130.00,2022-07-15 00:58,89.94,KLSV 150158Z 15019G24KT 10SM FEW070 FEW100 BKN130 32/16 A2996 RMK AO2A PK WND 13028/0058 LTG DSNT E-SW RAE0056RAB09E13DZB13E14RAB14E24 TSE17 PRESRR SLP118 P0000 T03220160 $,M
LSV,2022-07-15 02:02,-115.0343,36.2362,570.00,89.60,62.60,40.69,140.00,15.00,0.00,29.97,1012.20,10.00,24.00,FEW,BKN,M,M,7000.00,13000.00,M,M,TS,M,M,M,M,M,M,90.32,KLSV 150202Z AUTO 14015G24KT 10SM TS FEW070 BKN130 32/17 A2997 RMK AO2 TSB02 SLP122 $,M
LSV,2022-07-15 02:03,-115.0343,36.2362,570.00,89.60,62.60,40.69,140.00,16.00,0.00,29.97,1012.20,10.00,24.00,FEW,BKN,M,M,7000.00,13000.00,M,M,TS -DZ,M,M,M,M,M,M,90.32,KLSV 150203Z AUTO 14016G24KT 10SM TS -DZ FEW070 BKN130 32/17 A2997 RMK AO2 DZB03 TSB02 SLP122 $,M
VGT,2022-07-15 02:05,-115.1933,36.2111,667.00,86.00,64.00,47.91,150.00,16.00,T,29.99,M,10.00,19.00,FEW,M,M,M,11000.00,M,M,M,-TSRA,M,M,M,M,M,M,87.31,KVGT 150205Z 15016G19KT 10SM -TSRA FEW110 30/18 A2999 RMK AO2 LTG DSNT E-SW TSB03 P0000 T03000178,M
ELY,2022-07-15 02:14,-114.8453,39.2950,1909.00,82.00,40.00,22.39,300.00,15.00,0.00,30.18,M,10.00,22.00,FEW,SCT,BKN,M,6500.00,8000.00,12000.00,M,M,M,M,M,M,M,M,79.98,KELY 150214Z AUTO 30015G22KT 10SM FEW065 SCT080 BKN120 28/04 A3018 RMK AO2 WSHFT 0154 LTG DSNT W T02780044,M
05U,2022-07-15 02:15,-116.0051,39.6042,1811.23,86.00,35.60,16.63,0.00,0.00,0.00,30.13,M,10.00,M,CLR,M,M,M,M,M,M,M,M,M,M,M,M,M,M,82.69,K05U 150215Z AUTO 00000KT 10SM CLR 30/02 A3013 RMK A01,M
MEV,2022-07-15 02:15,-119.7500,38.9963,1441.42,87.80,37.40,16.86,230.00,10.00,0.00,30.07,M,10.00,M,CLR,M,M,M,M,M,M,M,M,M,M,M,M,M,M,84.16,KMEV 150215Z AUTO 23010KT 10SM CLR 31/03 A3007 RMK AO2,M
HTH,2022-07-15 02:15,-118.6315,38.5448,1282.89,96.80,24.80,7.65,350.00,12.00,0.00,29.96,M,10.00,M,CLR,M,M,M,M,M,M,M,M,M,M,M,M,M,M,90.40,KHTH 150215Z AUTO 35012KT 10SM CLR 36/M04 A2996 RMK A01,M
RTS,2022-07-15 02:15,-119.8764,39.6682,1539.00,86.00,26.60,11.55,240.00,9.00,0.00,30.11,M,10.00,M,CLR,M,M,M,M,M,M,M,M,M,M,M,M,M,M,82.39,KRTS 150215Z AUTO 24009KT 10SM CLR 30/M03 A3011 RMK AO2,M
BVU,2022-07-15 02:15,-114.8611,35.9475,671.00,M,M,M,M,M,0.00,M,M,M,M,M,M,M,M,M,M,M,M,M,M,M,M,M,M,M,M,KBVU 150215Z AUTO RMK AO2 PNO PWINO TSNO,M
TMT,2022-07-15 02:15,-117.1971,39.4643,1749.34,89.60,24.80,9.56,350.00,13.00,0.00,30.10,M,10.00,M,CLR,M,M,M,M,M,M,M,M,M,M,M,M,M,M,84.88,KTMT 150215Z AUTO 35013KT 10SM CLR 32/M04 A3010 RMK AO2 T03201040,M
CXP,2022-07-15 02:15,-119.7326,39.1923,1431.00,86.00,39.20,19.15,270.00,12.00,0.00,30.07,M,10.00,17.00,CLR,M,M,M,M,M,M,M,M,M,M,M,M,M,M,82.79,KCXP 150215Z AUTO 27012G17KT 10SM CLR 30/04 A3007 RMK AO2,M
HND,2022-07-15 02:15,-115.1344,35.9729,742.79,84.20,62.60,48.32,160.00,11.00,T,30.05,M,10.00,16.00,SCT,SCT,BKN,M,6000.00,8000.00,11000.00,M,VCTS -RA,M,M,M,M,M,M,85.03,KHND 150215Z 16011G16KT 10SM VCTS -RA SCT060 SCT080 BKN110 29/17 A3005 RMK AO2 LTG DSNT ALQDS TSB09RAB01 P0000,M
BAM,2022-07-15 02:15,-116.8743,40.5990,1382.36,M,M,M,260.00,8.00,0.00,29.99,M,10.00,M,CLR,M,M,M,M,M,M,M,M,M,M,M,M,M,M,M,KBAM 150215Z AUTO 26008KT 10SM CLR A2999 RMK AO1,M
LSV,2022-07-15 02:17,-115.0343,36.2362,570.00,87.80,64.40,45.88,170.00,7.00,0.00,29.97,1012.30,10.00,22.00,FEW,SCT,BKN,M,6000.00,7500.00,13000.00,M,-RA,M,M,M,M,M,M,89.33,KLSV 150217Z AUTO 17007G22KT 10SM -RA FEW060 SCT075 BKN130 31/18 A2997 RMK AO2 DZB03E10RAB10 TSB02E17 SLP123 $,M
VGT,2022-07-15 02:24,-115.1933,36.2111,667.00,86.00,63.00,46.25,140.00,13.00,T,30.01,M,10.00,M,SCT,M,M,M,12000.00,M,M,M,-RA,M,M,M,M,M,M,86.88,KVGT 150224Z 14013KT 10SM -RA SCT120 30/17 A3001 RMK AO2 LTG DSNT SE-SW TSB03E18 P0000 T03000172,M
HND,2022-07-15 02:30,-115.1344,35.9729,742.79,82.40,64.40,54.55,180.00,14.00,T,30.04,M,10.00,M,FEW,SCT,BKN,M,6000.00,9000.00,11000.00,M,-RA,M,M,M,M,M,M,83.98,KHND 150230Z 18014KT 10SM -RA FEW060 SCT090 BKN110 28/18 A3004 RMK AO2 LTG DSNT E AND SW AND W TSB09E24RAB01 P0000,M
RTS,2022-07-15 02:35,-119.8764,39.6682,1539.00,84.20,26.60,12.23,280.00,11.00,0.00,30.12,M,10.00,17.00,CLR,M,M,M,M,M,M,M,M,M,M,M,M,M,M,81.13,KRTS 150235Z AUTO 28011G17KT 10SM CLR 29/M03 A3012 RMK AO2,M
BVU,2022-07-15 02:35,-114.8611,35.9475,671.00,M,M,M,M,M,0.00,M,M,M,M,M,M,M,M,M,M,M,M,M,M,M,M,M,M,M,M,KBVU 150235Z AUTO RMK AO2 PNO PWINO TSNO,M
MEV,2022-07-15 02:35,-119.7500,38.9963,1441.42,84.20,41.00,21.76,230.00,5.00,0.00,30.07,M,10.00,10.00,CLR,M,M,M,M,M,M,M,M,M,M,M,M,M,M,81.52,KMEV 150235Z AUTO 23005G10KT 10SM CLR 29/05 A3007 RMK AO2,M
05U,2022-07-15 02:35,-116.0051,39.6042,1811.23,84.20,33.80,16.39,0.00,0.00,0.00,30.14,M,10.00,M,CLR,M,M,M,M,M,M,M,M,M,M,M,M,M,M,81.30,K05U 150235Z AUTO 00000KT 10SM CLR 29/01 A3014 RMK A01,M
BAM,2022-07-15 02:35,-116.8743,40.5990,1382.36,M,M,M,280.00,8.00,0.00,29.99,M,10.00,M,CLR,M,M,M,M,M,M,M,M,M,M,M,M,M,M,M,KBAM 150235Z AUTO 28008KT 10SM CLR A2999 RMK AO1,M
TMT,2022-07-15 02:35,-117.1971,39.4643,1749.34,88.00,24.60,9.97,350.00,12.00,0.00,30.11,M,10.00,M,CLR,M,M,M,M,M,M,M,M,M,M,M,M,M,M,83.69,KTMT 150235Z AUTO 35012KT 10SM CLR 31/M04 A3011 RMK AO2 T03111041,M
HTH,2022-07-15 02:35,-118.6315,38.5448,1282.89,96.80,30.20,9.55,350.00,13.00,0.00,29.96,M,10.00,M,CLR,M,M,M,M,M,M,M,M,M,M,M,M,M,M,90.96,KHTH 150235Z AUTO 35013KT 10SM CLR 36/M01 A2996 RMK A01,M
CXP,2022-07-15 02:35,-119.7326,39.1923,1431.00,84.20,41.00,21.76,270.00,8.00,0.00,30.08,M,10.00,15.00,CLR,M,M,M,M,M,M,M,M,M,M,M,M,M,M,81.52,KCXP 150235Z AUTO 27008G15KT 10SM CLR 29/05 A3008 RMK AO2,M
LSV,2022-07-15 02:37,-115.0343,36.2362,570.00,84.20,64.40,51.47,10.00,7.00,0.00,29.99,1012.90,10.00,M,FEW,SCT,BKN,M,4800.00,6000.00,7500.00,M,-TSRA,M,M,M,M,M,M,85.71,KLSV 150237Z AUTO 01007KT 10SM -TSRA FEW048 SCT060 BKN075 29/18 A2999 RMK AO2 DZB03E10RAB10E23DZB23E35RAB35 TSB02E17TSB37 SLP129 $,M
LSV,2022-07-15 02:52,-115.0343,36.2362,570.00,82.40,68.00,61.81,260.00,6.00,0.00,29.99,1012.90,10.00,M,FEW,M,M,M,6000.00,M,M,M,-RA,M,M,M,M,M,M,85.38,KLSV 150252Z AUTO 26006KT 10SM -RA FEW060 28/20 A2999 RMK AO2 LTG DSNT SE DZB03E10RAB10E23DZB23E35RAB35 TSB02E17TSB37E52 SLP129 $,M
VGT,2022-07-15 02:53,-115.1933,36.2111,667.00,86.00,64.00,47.91,130.00,6.00,T,30.01,1015.00,10.00,M,FEW,M,M,M,12000.00,M,M,M,-RA,M,M,M,M,M,M,87.31,KVGT 150253Z 13006KT 10SM -RA FEW120 30/18 A3001 RMK AO2 LTG DSNT SW TSB03E18 SLP150 P0000 60000 T03000178 53038,M
P68,2022-07-15 02:53,-116.0056,39.6014,1993.00,82.00,35.00,18.54,130.00,10.00,0.00,30.12,1009.50,M,16.00,M,M,M,M,M,M,M,M,M,M,M,M,M,M,M,79.80,KP68 150253Z AUTO 13010G16KT 28/02 A3012 RMK AO1 SLP095 T02780017 53001,M
ELY,2022-07-15 02:53,-114.8453,39.2950,1909.00,81.00,40.00,23.13,310.00,11.00,0.00,30.20,1010.30,10.00,17.00,OVC,M,M,M,11000.00,M,M,M,M,M,M,M,M,M,M,79.37,KELY 150253Z AUTO 31011G17KT 10SM OVC110 27/04 A3020 RMK AO2 WSHFT 0154 LTG DSNT W SLP103 T02720044 53012,M
LOL,2022-07-15 02:53,-118.5701,40.0684,1192.43,94.00,21.90,7.40,290.00,13.00,0.00,29.95,1009.20,10.00,M,CLR,M,M,M,M,M,M,M,M,M,M,M,M,M,M,87.86,KLOL 150253Z AUTO 29013KT 10SM CLR 34/M06 A2995 RMK AO2 SLP092 T03441056 55000,M
DRA,2022-07-15 02:53,-116.0278,36.6206,1009.00,93.00,54.00,26.87,90.00,16.00,0.00,29.95,1008.10,10.00,26.00,FEW,M,M,M,12000.00,M,M,M,M,M,M,M,26.00,80.00,2022-07-15 02:44,90.76,KDRA 150253Z AUTO 09016G26KT 10SM FEW120 34/12 A2995 RMK AO2 PK WND 08026/0244 SLP081 T03390122 53010,M
BVU,2022-07-15 02:55,-114.8611,35.9475,671.00,M,M,M,M,M,0.00,M,M,M,M,M,M,M,M,M,M,M,M,M,M,M,M,M,M,M,M,KBVU 150255Z AUTO RMK AO2 PNO PWINO TSNO,M
RNO,2022-07-15 02:55,-119.7711,39.4839,1341.00,87.00,38.00,17.58,290.00,15.00,0.00,30.04,1011.10,10.00,21.00,FEW,M,M,M,10000.00,M,M,M,M,M,M,M,M,M,M,83.61,KRNO 150255Z 29015G21KT 10SM FEW100 31/03 A3004 RMK AO2 SLP111 T03060033 53005,M
RTS,2022-07-15 02:55,-119.8764,39.6682,1539.00,82.40,26.60,12.97,280.00,10.00,0.00,30.12,M,10.00,M,CLR,M,M,M,M,M,M,M,M,M,M,M,M,M,M,79.92,KRTS 150255Z AUTO 28010KT 10SM CLR 28/M03 A3012 RMK AO2,M
HTH,2022-07-15 02:55,-118.6315,38.5448,1282.89,95.00,33.80,11.67,350.00,12.00,0.00,29.97,M,10.00,M,CLR,M,M,M,M,M,M,M,M,M,M,M,M,M,M,89.97,KHTH 150255Z AUTO 35012KT 10SM CLR 35/01 A2997 RMK A01,M
CXP,2022-07-15 02:55,-119.7326,39.1923,1431.00,84.20,41.00,21.76,260.00,7.00,0.00,30.08,M,10.00,14.00,CLR,M,M,M,M,M,M,M,M,M,M,M,M,M,M,81.52,KCXP 150255Z AUTO 26007G14KT 240V310 10SM CLR 29/05 A3008 RMK AO2,M
BAM,2022-07-15 02:55,-116.8743,40.5990,1382.36,M,M,M,290.00,4.00,0.00,29.99,M,10.00,M,CLR,M,M,M,M,M,M,M,M,M,M,M,M,M,M,M,KBAM 150255Z AUTO 29004KT 10SM CLR A2999 RMK AO1,M
TMT,2022-07-15 02:55,-117.1971,39.4643,1749.34,87.00,23.90,9.97,340.00,10.00,0.00,30.12,M,10.00,M,CLR,M,M,M,M,M,M,M,M,M,M,M,M,M,M,82.99,KTMT 150255Z AUTO 34010KT 10SM CLR 31/M04 A3012 RMK AO2 T03061045,M
MEV,2022-07-15 02:55,-119.7500,38.9963,1441.42,80.60,41.00,24.46,M,3.00,0.00,30.07,M,10.00,11.00,CLR,M,M,M,M,M,M,M,M,M,M,M,M,M,M,79.20,KMEV 150255Z AUTO VRB03G11KT 10SM CLR 27/05 A3007 RMK AO2,M
05U,2022-07-15 02:55,-116.0051,39.6042,1811.23,82.40,35.60,18.67,130.00,14.00,0.00,30.14,M,10.00,M,CLR,M,M,M,M,M,M,M,M,M,M,M,M,M,M,80.08,K05U 150255Z AUTO 13014KT 10SM CLR 28/02 A3014 RMK A01,M
INS,2022-07-15 02:56,-115.6733,36.5872,955.00,82.40,62.60,51.21,110.00,30.00,0.00,29.99,1010.20,10.00,35.00,FEW,M,M,M,20000.00,M,M,M,M,M,M,M,M,M,M,83.41,KINS 150256Z AUTO 11030G35KT 10SM FEW200 28/17 A2999 RMK AO2 SLP102 $,M
EKO,2022-07-15 02:56,-115.7860,40.8242,1367.00,94.00,28.90,9.90,0.00,0.00,0.00,30.03,1009.40,10.00,M,CLR,M,M,M,M,M,M,M,M,M,M,M,M,M,M,88.48,KEKO 150256Z AUTO 00000KT 10SM CLR 34/M02 A3003 RMK AO2 SLP094 T03441017 50002,M
WMC,2022-07-15 02:56,-117.8072,40.9019,1315.00,89.00,21.90,8.60,290.00,6.00,0.00,29.98,1009.50,10.00,M,CLR,M,M,M,M,M,M,M,M,M,M,M,M,M,M,84.31,KWMC 150256Z AUTO 29006KT 10SM CLR 32/M06 A2998 RMK AO2 SLP095 T03171056 55000 TSNO,M
NFL,2022-07-15 02:56,-118.7010,39.4166,1199.00,92.00,30.00,11.02,290.00,11.00,0.00,29.96,1011.80,10.00,M,FEW,FEW,M,M,10000.00,18000.00,M,M,M,M,M,M,M,M,M,87.07,KNFL 150256Z 29011KT 10SM FEW100 FEW180 33/M01 A2996 RMK AO2 SLP118 FU ALOFT ALQDS T03331011 53002,M
HND,2022-07-15 02:56,-115.1344,35.9729,742.79,85.00,63.00,47.91,130.00,10.00,T,30.04,1015.60,10.00,15.00,SCT,BKN,M,M,9000.00,11000.00,M,M,-RA,M,M,M,M,M,M,85.83,KHND 150256Z 13010G15KT 10SM -RA SCT090 BKN110 29/17 A3004 RMK AO2 LTG DSNT E AND SW AND W TSB09E24RAB01E33B52 SLP156 P0000 60000 T02940172 51027,M
LAS,2022-07-15 02:56,-115.1634,36.0719,663.00,84.00,64.00,51.08,0.00,0.00,T,30.02,1013.40,10.00,M,FEW,SCT,BKN,OVC,5500.00,10000.00,15000.00,18000.00,TS,M,M,M,M,M,M,85.36,KLAS 150256Z 00000KT 10SM TS FEW055 SCT100CB BKN150 OVC180 29/18 A3002 RMK AO2 LTG DSNT SE AND W RAB11E52 SLP134 OCNL LTGICCCCG E-SE TS E-SE MOV N VCSH N-E-S P0000 60000 T02890178 52040,M
TPH,2022-07-15 02:56,-117.0904,38.0505,1654.00,89.00,42.00,19.42,180.00,16.00,0.00,30.10,1009.40,10.00,M,CLR,M,M,M,M,M,M,M,M,M,M,M,26.00,170.00,2022-07-15 02:11,85.45,KTPH 150256Z AUTO 18016KT 10SM CLR 32/06 A3010 RMK AO2 PK WND 17026/0211 SLP094 T03170056 53006,M
LSV,2022-07-15 02:58,-115.0343,36.2362,570.00,82.00,68.20,63.05,250.00,13.00,T,29.99,1012.90,10.00,M,FEW,M,M,M,6000.00,M,M,M,-RA,M,M,M,M,M,M,85.00,KLSV 150258Z AUTO 25013KT 10SM -RA FEW060 28/20 A2999 RMK AO2 LTG DSNT SE DZB03E10RAB10E23DZB23E35RAB35 TSB02E17TSB37E52 SLP129 P0000 60000 T02780201 52051 $,M
INS,2022-07-15 02:58,-115.6733,36.5872,955.00,81.70,61.70,50.75,110.00,29.00,0.00,29.99,1010.20,10.00,35.00,SCT,M,M,M,20000.00,M,M,M,M,M,M,M,43.00,120.00,2022-07-15 02:17,82.55,KINS 150258Z AUTO 11029G35KT 10SM SCT200 28/17 A2999 RMK AO2 PK WND 12043/17 SLP102 T02760165 52025 $,M
DRA,2022-07-15 02:58,-116.0278,36.6206,1009.00,94.00,53.00,25.28,100.00,14.00,0.00,29.96,M,10.00,24.00,CLR,M,M,M,M,M,M,M,M,M,M,M,M,M,M,91.45,KDRA 150258Z AUTO 10014G24KT 10SM CLR 34/12 A2996 RMK AO2 WSHFT 0241 T03440117,M
LSV,2022-07-15 03:07,-115.0343,36.2362,570.00,82.40,69.80,65.74,280.00,9.00,0.00,29.99,1012.90,10.00,M,CLR,M,M,M,M,M,M,M,M,M,M,M,M,M,M,86.22,KLSV 150307Z AUTO 28009KT 10SM CLR 28/21 A2999 RMK AO2 LTG DSNT SE RAE07 SLP129 $,M
LSV,2022-07-15 03:08,-115.0343,36.2362,570.00,82.40,69.80,65.74,290.00,9.00,0.00,30.00,1013.20,10.00,M,CLR,M,M,M,M,M,M,M,-RA,M,M,M,M,M,M,86.22,KLSV 150308Z AUTO 29009KT 10SM -RA CLR 28/21 A3000 RMK AO2 LTG DSNT SE RAE07RAB07 SLP132 $,M
LAS,2022-07-15 03:13,-115.1634,36.0719,663.00,84.00,65.00,52.71,0.00,0.00,0.00,30.02,M,10.00,M,FEW,BKN,OVC,M,9000.00,15000.00,18000.00,M,M,M,M,M,M,M,M,85.72,KLAS 150313Z 00000KT 10SM FEW090 BKN150 OVC180 29/18 A3002 RMK AO2 TSE13 TS DSIPTD LTGICCC DSNT NE-SE VCSH NE-SE T02890183,M
LSV,2022-07-15 03:13,-115.0343,36.2362,570.00,82.40,69.80,65.74,290.00,9.00,0.00,29.99,1012.90,10.00,M,CLR,M,M,M,M,M,M,M,M,M,M,M,M,M,M,86.22,KLSV 150313Z AUTO 29009KT 10SM CLR 28/21 A2999 RMK AO2 RAE07RAB07E13 SLP129 $,M
RTS,2022-07-15 03:15,-119.8764,39.6682,1539.00,80.60,26.60,13.75,290.00,8.00,0.00,30.13,M,10.00,M,CLR,M,M,M,M,M,M,M,M,M,M,M,M,M,M,78.68,KRTS 150315Z AUTO 29008KT 10SM CLR 27/M03 A3013 RMK AO2,M
05U,2022-07-15 03:15,-116.0051,39.6042,1811.23,82.40,37.40,20.04,130.00,13.00,0.00,30.15,M,10.00,M,CLR,M,M,M,M,M,M,M,M,M,M,M,M,M,M,80.14,K05U 150315Z AUTO 13013KT 10SM CLR 28/03 A3015 RMK A01,M
MEV,2022-07-15 03:15,-119.7500,38.9963,1441.42,77.00,41.00,27.53,0.00,0.00,0.00,30.08,M,10.00,M,CLR,M,M,M,M,M,M,M,M,M,M,M,M,M,M,77.00,KMEV 150315Z AUTO 00000KT 10SM CLR 25/05 A3008 RMK AO2,M
BAM,2022-07-15 03:15,-116.8743,40.5990,1382.36,M,M,M,310.00,4.00,0.00,30.00,M,10.00,M,CLR,M,M,M,M,M,M,M,M,M,M,M,M,M,M,M,KBAM 150315Z AUTO 31004KT 10SM CLR A3000 RMK AO1,M
HTH,2022-07-15 03:15,-118.6315,38.5448,1282.89,93.20,28.40,9.91,350.00,13.00,0.00,29.98,M,10.00,M,CLR,M,M,M,M,M,M,M,M,M,M,M,M,M,M,87.89,KHTH 150315Z AUTO 35013KT 10SM CLR 34/M02 A2998 RMK A01,M
BVU,2022-07-15 03:15,-114.8611,35.9475,671.00,M,M,M,M,M,0.00,M,M,M,M,M,M,M,M,M,M,M,M,M,M,M,M,M,M,M,M,KBVU 150315Z AUTO RMK AO2 PNO PWINO TSNO,M
CXP,2022-07-15 03:15,-119.7326,39.1923,1431.00,82.40,39.20,21.51,M,5.00,0.00,30.08,M,10.00,12.00,CLR,M,M,M,M,M,M,M,M,M,M,M,M,M,M,80.21,KCXP 150315Z AUTO VRB05G12KT 10SM CLR 28/04 A3008 RMK AO2,M
TMT,2022-07-15 03:15,-117.1971,39.4643,1749.34,84.70,23.90,10.76,360.00,6.00,0.00,30.12,M,10.00,M,CLR,M,M,M,M,M,M,M,M,M,M,M,M,M,M,81.29,KTMT 150315Z AUTO 36006KT 10SM CLR 29/M04 A3012 RMK AO2 T02931045,M
05U,2022-07-15 03:35,-116.0051,39.6042,1811.23,80.60,37.40,21.25,130.00,14.00,0.00,30.15,M,10.00,M,CLR,M,M,M,M,M,M,M,M,M,M,M,M,M,M,79.02,K05U 150335Z AUTO 13014KT 10SM CLR 27/03 A3015 RMK A01,M
MEV,2022-07-15 03:35,-119.7500,38.9963,1441.42,78.80,41.00,25.95,0.00,0.00,0.00,30.08,M,10.00,M,CLR,M,M,M,M,M,M,M,M,M,M,M,M,M,M,78.80,KMEV 150335Z AUTO 00000KT 10SM CLR 26/05 A3008 RMK AO2,M
BAM,2022-07-15 03:35,-116.8743,40.5990,1382.36,M,M,M,290.00,4.00,0.00,30.01,M,10.00,M,CLR,M,M,M,M,M,M,M,M,M,M,M,M,M,M,M,KBAM 150335Z AUTO 29004KT 10SM CLR A3001 RMK AO1,M
HTH,2022-07-15 03:35,-118.6315,38.5448,1282.89,93.20,33.80,12.34,350.00,13.00,0.00,29.99,M,10.00,M,CLR,M,M,M,M,M,M,M,M,M,M,M,M,M,M,88.55,KHTH 150335Z AUTO 35013KT 10SM CLR 34/01 A2999 RMK A01,M
TMT,2022-07-15 03:35,-117.1971,39.4643,1749.34,82.00,24.30,11.98,340.00,5.00,0.00,30.13,M,10.00,M,CLR,M,M,M,M,M,M,M,M,M,M,M,M,M,M,79.42,KTMT 150335Z AUTO 34005KT 10SM CLR 28/M04 A3013 RMK AO2 T02771043,M
BVU,2022-07-15 03:35,-114.8611,35.9475,671.00,M,M,M,M,M,0.00,M,M,M,M,M,M,M,M,M,M,M,M,M,M,M,M,M,M,M,M,KBVU 150335Z AUTO RMK AO2 PNO PWINO TSNO,M
CXP,2022-07-15 03:35,-119.7326,39.1923,1431.00,82.40,39.20,21.51,M,5.00,0.00,30.09,M,10.00,11.00,CLR,M,M,M,M,M,M,M,M,M,M,M,M,M,M,80.21,KCXP 150335Z AUTO VRB05G11KT 10SM CLR 28/04 A3009 RMK AO2,M
RTS,2022-07-15 03:35,-119.8764,39.6682,1539.00,77.00,26.60,15.48,290.00,6.00,0.00,30.13,M,10.00,M,CLR,M,M,M,M,M,M,M,M,M,M,M,M,M,M,77.00,KRTS 150335Z AUTO 29006KT 10SM CLR 25/M03 A3013 RMK AO2,M
LSV,2022-07-15 03:36,-115.0343,36.2362,570.00,80.60,73.40,78.76,310.00,5.00,0.00,30.00,1013.10,10.00,M,CLR,M,M,M,M,M,M,M,-RA,M,M,M,M,M,M,85.32,KLSV 150336Z AUTO 31005KT 10SM -RA CLR 27/23 A3000 RMK AO2 RAE07RAB07E13RAB36 SLP131 $,M
TPH,2022-07-15 03:37,-117.0904,38.0505,1654.00,88.00,42.00,20.11,200.00,14.00,0.00,30.10,M,10.00,M,CLR,M,M,M,M,M,M,M,VCTS,M,M,M,M,M,M,84.52,KTPH 150337Z AUTO 20014KT 10SM VCTS CLR 31/06 A3010 RMK AO2 LTG DSNT W-N T03110056,M
LSV,2022-07-15 03:42,-115.0343,36.2362,570.00,80.60,73.40,78.76,0.00,0.00,0.00,30.00,1013.10,10.00,M,CLR,M,M,M,M,M,M,M,M,M,M,M,M,M,M,85.32,KLSV 150342Z AUTO 00000KT 10SM CLR 27/23 A3000 RMK AO2 RAE07RAB07E13RAB36E42 SLP131 $,M
TPH,2022-07-15 03:52,-117.0904,38.0505,1654.00,87.80,42.80,20.79,200.00,13.00,0.00,30.12,M,10.00,M,CLR,M,M,M,M,M,M,M,M,M,M,M,M,M,M,84.40,KTPH 150352Z AUTO 20013KT 10SM CLR 31/06 A3012 RMK AO2 LTG DSNT W-N,M
ELY,2022-07-15 03:53,-114.8453,39.2950,1909.00,76.00,45.00,33.30,320.00,9.00,T,30.27,1012.80,10.00,M,OVC,M,M,M,10000.00,M,M,M,M,M,M,M,27.00,280.00,2022-07-15 03:22,75.90,KELY 150353Z AUTO 32009KT 10SM OVC100 24/07 A3027 RMK AO2 PK WND 28027/0322 RAB22E32 SLP128 P0000 T02440072,M
DRA,2022-07-15 03:53,-116.0278,36.6206,1009.00,91.00,54.00,28.60,100.00,9.00,0.00,29.98,1009.10,10.00,M,CLR,M,M,M,M,M,M,M,M,M,M,M,M,M,M,88.78,KDRA 150353Z AUTO 10009KT 10SM CLR 33/12 A2998 RMK AO2 WSHFT 0241 SLP091 T03280122,M
VGT,2022-07-15 03:53,-115.1933,36.2111,667.00,85.00,64.00,49.62,120.00,5.00,T,30.02,1015.00,10.00,M,CLR,M,M,M,M,M,M,M,-RA,M,M,M,M,M,M,86.23,KVGT 150353Z 12005KT 10SM -RA CLR 29/18 A3002 RMK AO2 SLP150 P0000 T02940178,M
LOL,2022-07-15 03:53,-118.5701,40.0684,1192.43,88.00,24.10,9.77,290.00,12.00,0.00,29.97,1010.00,10.00,M,CLR,M,M,M,M,M,M,M,M,M,M,M,M,M,M,83.65,KLOL 150353Z AUTO 29012KT 10SM CLR 31/M04 A2997 RMK AO2 SLP100 T03111044,M
P68,2022-07-15 03:53,-116.0056,39.6014,1993.00,79.00,38.00,22.84,130.00,12.00,0.00,30.13,1009.80,M,M,M,M,M,M,M,M,M,M,M,M,M,M,26.00,130.00,2022-07-15 03:20,79.00,KP68 150353Z AUTO 13012KT 26/03 A3013 RMK AO1 PK WND 13026/0320 SLP098 T02610033,M
MEV,2022-07-15 03:55,-119.7500,38.9963,1441.42,78.80,41.00,25.95,0.00,0.00,0.00,30.09,M,10.00,M,CLR,M,M,M,M,M,M,M,M,M,M,M,M,M,M,78.80,KMEV 150355Z AUTO 00000KT 10SM CLR 26/05 A3009 RMK AO2,M
05U,2022-07-15 03:55,-116.0051,39.6042,1811.23,78.80,37.40,22.54,130.00,10.00,0.00,30.16,M,10.00,M,CLR,M,M,M,M,M,M,M,M,M,M,M,M,M,M,78.80,K05U 150355Z AUTO 13010KT 10SM CLR 26/03 A3016 RMK A01,M
RTS,2022-07-15 03:55,-119.8764,39.6682,1539.00,73.40,26.60,17.46,300.00,6.00,0.00,30.13,M,10.00,M,CLR,M,M,M,M,M,M,M,M,M,M,M,M,M,M,73.40,KRTS 150355Z AUTO 30006KT 10SM CLR 23/M03 A3013 RMK AO2,M
CXP,2022-07-15 03:55,-119.7326,39.1923,1431.00,82.40,39.20,21.51,M,4.00,0.00,30.09,M,10.00,M,CLR,M,M,M,M,M,M,M,M,M,M,M,M,M,M,80.21,KCXP 150355Z AUTO VRB04KT 10SM CLR 28/04 A3009 RMK AO2,M
TMT,2022-07-15 03:55,-117.1971,39.4643,1749.34,76.30,24.30,14.40,0.00,0.00,0.00,30.15,M,10.00,M,CLR,M,M,M,M,M,M,M,M,M,M,M,M,M,M,76.30,KTMT 150355Z AUTO 00000KT 10SM CLR 25/M04 A3015 RMK AO2 T02461043,M
HTH,2022-07-15 03:55,-118.6315,38.5448,1282.89,91.40,32.00,12.14,350.00,17.00,0.00,30.00,M,10.00,M,CLR,M,M,M,M,M,M,M,M,M,M,M,M,M,M,86.91,KHTH 150355Z AUTO 35017KT 10SM CLR 33/00 A3000 RMK A01,M
BAM,2022-07-15 03:55,-116.8743,40.5990,1382.36,M,M,M,340.00,3.00,0.00,30.01,M,10.00,M,CLR,M,M,M,M,M,M,M,M,M,M,M,M,M,M,M,KBAM 150355Z AUTO 34003KT 10SM CLR A3001 RMK AO1,M
RNO,2022-07-15 03:55,-119.7711,39.4839,1341.00,84.00,38.00,19.41,290.00,12.00,0.00,30.05,1011.50,10.00,M,FEW,M,M,M,10000.00,M,M,M,M,M,M,M,M,M,M,81.25,KRNO 150355Z 29012KT 10SM FEW100 29/03 A3005 RMK AO2 SLP115 T02890033,M
BVU,2022-07-15 03:55,-114.8611,35.9475,671.00,M,M,M,M,M,0.00,M,M,M,M,M,M,M,M,M,M,M,M,M,M,M,M,M,M,M,M,KBVU 150355Z AUTO RMK AO2 PNO PWINO TSNO,M
HND,2022-07-15 03:56,-115.1344,35.9729,742.79,85.00,62.00,46.42,340.00,5.00,T,30.04,1015.50,10.00,M,FEW,M,M,M,11000.00,M,M,M,M,M,M,M,M,M,M,85.49,KHND 150356Z AUTO 34005KT 10SM FEW110 29/17 A3004 RMK AO2 RAE12 SLP155 P0000 T02940167,M
WMC,2022-07-15 03:56,-117.8072,40.9019,1315.00,74.00,19.90,12.96,90.00,4.00,0.00,30.00,1010.30,10.00,M,CLR,M,M,M,M,M,M,M,M,M,M,M,M,M,M,73.90,KWMC 150356Z AUTO 09004KT 10SM CLR 23/M07 A3000 RMK AO2 SLP103 T02331067 TSNO,M
EKO,2022-07-15 03:56,-115.7860,40.8242,1367.00,86.00,30.90,13.77,350.00,3.00,0.00,30.04,1009.90,10.00,M,CLR,M,M,M,M,M,M,M,M,M,M,M,M,M,M,82.64,KEKO 150356Z AUTO 35003KT 10SM CLR 30/M01 A3004 RMK AO2 SLP099 T03001006,M
LAS,2022-07-15 03:56,-115.1634,36.0719,663.00,83.00,65.00,54.62,310.00,6.00,T,30.01,1013.30,10.00,M,FEW,BKN,OVC,M,9000.00,15000.00,18000.00,M,-RA,M,M,M,M,M,M,84.64,KLAS 150356Z 31006KT 10SM -RA FEW090 BKN150 OVC180 28/18 A3001 RMK AO2 RAB47 TSE13 SLP133 TS DSIPTD P0000 T02830183,M
TPH,2022-07-15 03:56,-117.0904,38.0505,1654.00,87.00,42.00,20.70,200.00,12.00,0.00,30.12,1009.90,10.00,M,CLR,M,M,M,M,M,M,M,M,M,M,M,M,M,M,83.79,KTPH 150356Z AUTO 20012KT 10SM CLR 31/06 A3012 RMK AO2 LTG DSNT W-N SLP099 T03060056,M
NFL,2022-07-15 03:56,-118.7010,39.4166,1199.00,89.00,27.00,10.64,280.00,12.00,0.00,29.98,1012.50,10.00,M,FEW,FEW,M,M,10000.00,18000.00,M,M,M,M,M,M,M,M,M,84.68,KNFL 150356Z 28012KT 10SM FEW100 FEW180 32/M03 A2998 RMK AO2 SLP125 FU ALOFT ALQDS T03171028,M
LSV,2022-07-15 03:58,-115.0343,36.2362,570.00,80.00,73.00,78.72,350.00,5.00,0.02,29.99,1012.80,10.00,M,CLR,M,M,M,M,M,M,M,M,M,M,M,M,M,M,84.27,KLSV 150358Z AUTO 35005KT 10SM CLR 27/23 A2999 RMK AO2 RAE07RAB07E13RAB36E42 SLP128 P0002 T02670227 $,M
INS,2022-07-15 03:58,-115.6733,36.5872,955.00,80.60,60.30,50.06,110.00,30.00,0.00,30.01,1010.80,10.00,36.00,CLR,M,M,M,M,M,M,M,M,M,M,M,39.00,110.00,2022-07-15 03:36,81.36,KINS 150358Z AUTO 11030G36KT 10SM CLR 27/16 A3001 RMK AO2 PK WND 11039/36 SLP108 T02700157 $,M
CXP,2022-07-15 04:10,-119.7326,39.1923,1431.00,80.60,39.20,22.81,M,4.00,0.00,30.10,M,10.00,M,CLR,M,M,M,M,M,M,M,M,M,M,M,M,M,M,79.10,KCXP 150410Z AUTO VRB04KT 10SM CLR 27/04 A3010 RMK AO2,M
TPH,2022-07-15 04:14,-117.0904,38.0505,1654.00,86.00,42.00,21.43,M,5.00,0.00,30.14,M,10.00,M,CLR,M,M,M,M,M,M,M,VCTS,M,M,M,M,M,M,82.92,KTPH 150414Z AUTO VRB05KT 10SM VCTS CLR 30/06 A3014 RMK AO2 LTG DSNT NW T03000056,M
TMT,2022-07-15 04:15,-117.1971,39.4643,1749.34,73.40,25.90,16.96,140.00,4.00,0.00,30.16,M,10.00,M,CLR,M,M,M,M,M,M,M,M,M,M,M,M,M,M,73.40,KTMT 150415Z AUTO 14004KT 10SM CLR 23/M03 A3016 RMK AO2 T02301034,M
HTH,2022-07-15 04:15,-118.6315,38.5448,1282.89,89.60,30.20,11.94,360.00,14.00,0.00,30.02,M,10.00,M,CLR,M,M,M,M,M,M,M,M,M,M,M,M,M,M,85.34,KHTH 150415Z AUTO 36014KT 10SM CLR 32/M01 A3002 RMK A01,M
BAM,2022-07-15 04:15,-116.8743,40.5990,1382.36,M,M,M,0.00,0.00,0.00,30.03,M,10.00,M,CLR,M,M,M,M,M,M,M,M,M,M,M,M,M,M,M,KBAM 150415Z AUTO 00000KT 10SM CLR A3003 RMK AO1,M
MEV,2022-07-15 04:15,-119.7500,38.9963,1441.42,77.00,41.00,27.53,250.00,4.00,0.00,30.09,M,10.00,M,CLR,M,M,M,M,M,M,M,M,M,M,M,M,M,M,77.00,KMEV 150415Z AUTO 25004KT 10SM CLR 25/05 A3009 RMK AO2,M
05U,2022-07-15 04:15,-116.0051,39.6042,1811.23,77.00,37.40,23.93,140.00,7.00,0.00,30.17,M,10.00,M,CLR,M,M,M,M,M,M,M,M,M,M,M,M,M,M,77.00,K05U 150415Z AUTO 14007KT 10SM CLR 25/03 A3017 RMK A01,M
RTS,2022-07-15 04:15,-119.8764,39.6682,1539.00,73.40,26.60,17.46,290.00,7.00,0.00,30.14,M,10.00,M,CLR,M,M,M,M,M,M,M,M,M,M,M,M,M,M,73.40,KRTS 150415Z AUTO 29007KT 10SM CLR 23/M03 A3014 RMK AO2,M
BVU,2022-07-15 04:15,-114.8611,35.9475,671.00,M,M,M,M,M,0.00,M,M,M,M,M,M,M,M,M,M,M,M,M,M,M,M,M,M,M,M,KBVU 150415Z AUTO RMK AO2 PNO PWINO TSNO,M
TPH,2022-07-15 04:29,-117.0904,38.0505,1654.00,83.00,43.00,24.51,10.00,11.00,0.00,30.14,M,10.00,M,CLR,M,M,M,M,M,M,M,M,M,M,M,M,M,M,80.73,KTPH 150429Z AUTO 01011KT 10SM CLR 28/06 A3014 RMK AO2 LTG DSNT NW T02830061,M
MEV,2022-07-15 04:35,-119.7500,38.9963,1441.42,77.00,41.00,27.53,300.00,8.00,0.00,30.10,M,10.00,M,CLR,M,M,M,M,M,M,M,M,M,M,M,M,M,M,77.00,KMEV 150435Z AUTO 30008KT 10SM CLR 25/05 A3010 RMK AO2,M
HTH,2022-07-15 04:35,-118.6315,38.5448,1282.89,89.60,30.20,11.94,330.00,11.00,0.00,30.03,M,10.00,M,CLR,M,M,M,M,M,M,M,M,M,M,M,M,M,M,85.34,KHTH 150435Z AUTO 33011KT 10SM CLR 32/M01 A3003 RMK A01,M
TMT,2022-07-15 04:35,-117.1971,39.4643,1749.34,70.70,26.20,18.81,140.00,3.00,0.00,30.16,M,10.00,M,CLR,M,M,M,M,M,M,M,M,M,M,M,M,M,M,70.70,KTMT 150435Z AUTO 14003KT 10SM CLR 22/M03 A3016 RMK AO2 T02151032,M
05U,2022-07-15 04:35,-116.0051,39.6042,1811.23,78.80,39.20,24.19,130.00,15.00,0.00,30.17,M,10.00,22.00,CLR,M,M,M,M,M,M,M,M,M,M,M,M,M,M,78.80,K05U 150435Z AUTO 13015G22KT 10SM CLR 26/04 A3017 RMK A01,M
RTS,2022-07-15 04:35,-119.8764,39.6682,1539.00,75.20,28.40,17.70,M,6.00,0.00,30.15,M,10.00,11.00,CLR,M,M,M,M,M,M,M,M,M,M,M,M,M,M,75.20,KRTS 150435Z AUTO VRB06G11KT 10SM CLR 24/M02 A3015 RMK AO2,M
CXP,2022-07-15 04:35,-119.7326,39.1923,1431.00,80.60,37.40,21.25,M,3.00,0.00,30.11,M,10.00,M,CLR,M,M,M,M,M,M,M,M,M,M,M,M,M,M,79.02,KCXP 150435Z AUTO VRB03KT 10SM CLR 27/03 A3011 RMK AO2,M
BVU,2022-07-15 04:35,-114.8611,35.9475,671.00,M,M,M,M,M,0.00,M,M,M,M,M,M,M,M,M,M,M,M,M,M,M,M,M,M,M,M,KBVU 150435Z AUTO RMK AO2 PNO PWINO TSNO,M
BAM,2022-07-15 04:35,-116.8743,40.5990,1382.36,M,M,M,0.00,0.00,0.00,30.03,M,10.00,M,CLR,M,M,M,M,M,M,M,M,M,M,M,M,M,M,M,KBAM 150435Z AUTO 00000KT 10SM CLR A3003 RMK AO1,M
ELY,2022-07-15 04:50,-114.8453,39.2950,1909.00,73.40,51.80,46.71,190.00,6.00,T,30.34,M,10.00,M,FEW,OVC,M,M,6500.00,8000.00,M,M,VCTS -RA,M,M,M,M,M,M,73.40,KELY 150450Z AUTO 19006KT 10SM VCTS -RA FEW065 OVC080 23/11 A3034 RMK AO2 LTG DSNT NE RAB0354E18B50 P0000,M
ELY,2022-07-15 04:53,-114.8453,39.2950,1909.00,72.00,53.00,51.37,180.00,9.00,T,30.35,1015.50,8.00,M,OVC,M,M,M,8000.00,M,M,M,VCTS -RA,M,M,M,M,M,M,72.00,KELY 150453Z AUTO 18009KT 8SM VCTS -RA OVC080 22/12 A3035 RMK AO2 LTG DSNT NE RAB0354E18B50 SLP155 P0000 T02220117,M
DRA,2022-07-15 04:53,-116.0278,36.6206,1009.00,87.00,55.00,33.55,90.00,12.00,0.00,30.02,1010.40,10.00,17.00,CLR,M,M,M,M,M,M,M,M,M,M,M,M,M,M,85.40,KDRA 150453Z AUTO 09012G17KT 10SM CLR 31/13 A3002 RMK AO2 SLP104 T03060128,M
VGT,2022-07-15 04:53,-115.1933,36.2111,667.00,84.00,64.00,51.08,360.00,6.00,T,30.02,1015.10,10.00,M,CLR,M,M,M,M,M,M,M,M,M,M,M,M,M,M,85.36,KVGT 150453Z AUTO 36006KT 10SM CLR 29/18 A3002 RMK AO2 RAE03 SLP151 P0000 T02890178,M
LOL,2022-07-15 04:53,-118.5701,40.0684,1192.43,84.00,25.00,11.52,290.00,10.00,0.00,30.00,1010.90,10.00,M,CLR,M,M,M,M,M,M,M,M,M,M,M,M,M,M,80.88,KLOL 150453Z AUTO 29010KT 10SM CLR 29/M04 A3000 RMK AO2 SLP109 T02891039,M
P68,2022-07-15 04:53,-116.0056,39.6014,1993.00,79.00,40.00,24.70,140.00,16.00,0.00,30.15,1010.50,M,22.00,M,M,M,M,M,M,M,M,M,M,M,M,26.00,140.00,2022-07-15 04:28,79.00,KP68 150453Z AUTO 14016G22KT 26/04 A3015 RMK AO1 PK WND 14026/0428 SLP105 T02610044,M
HTH,2022-07-15 04:55,-118.6315,38.5448,1282.89,87.80,33.80,14.61,360.00,8.00,0.00,30.04,M,10.00,14.00,CLR,M,M,M,M,M,M,M,M,M,M,M,M,M,M,84.10,KHTH 150455Z AUTO 36008G14KT 10SM CLR 31/01 A3004 RMK A01,M
05U,2022-07-15 04:55,-116.0051,39.6042,1811.23,78.80,39.20,24.19,140.00,13.00,0.00,30.18,M,10.00,18.00,CLR,M,M,M,M,M,M,M,M,M,M,M,M,M,M,78.80,K05U 150455Z AUTO 14013G18KT 10SM CLR 26/04 A3018 RMK A01,M
CXP,2022-07-15 04:55,-119.7326,39.1923,1431.00,80.60,37.40,21.25,M,4.00,0.00,30.12,M,10.00,M,CLR,M,M,M,M,M,M,M,M,M,M,M,M,M,M,79.02,KCXP 150455Z AUTO VRB04KT 10SM CLR 27/03 A3012 RMK AO2,M
TMT,2022-07-15 04:55,-117.1971,39.4643,1749.34,70.00,27.00,19.92,110.00,4.00,0.00,30.16,M,10.00,M,CLR,M,M,M,M,M,M,M,M,M,M,M,M,M,M,70.00,KTMT 150455Z AUTO 11004KT 10SM CLR 21/M03 A3016 RMK AO2 T02111028,M
BVU,2022-07-15 04:55,-114.8611,35.9475,671.00,M,M,M,M,M,0.00,M,M,M,M,M,M,M,M,M,M,M,M,M,M,M,M,M,M,M,M,KBVU 150455Z AUTO RMK AO2 PNO PWINO TSNO,M
MEV,2022-07-15 04:55,-119.7500,38.9963,1441.42,77.00,41.00,27.53,280.00,7.00,0.00,30.10,M,10.00,M,CLR,M,M,M,M,M,M,M,M,M,M,M,M,M,M,77.00,KMEV 150455Z AUTO 28007KT 10SM CLR 25/05 A3010 RMK AO2,M
RNO,2022-07-15 04:55,-119.7711,39.4839,1341.00,81.00,39.00,22.33,60.00,3.00,0.00,30.09,1012.50,10.00,M,FEW,M,M,M,10000.00,M,M,M,M,M,M,M,M,M,M,79.33,KRNO 150455Z 06003KT 10SM FEW100 27/04 A3009 RMK AO2 SLP125 T02720039,M
BAM,2022-07-15 04:55,-116.8743,40.5990,1382.36,M,M,M,180.00,7.00,0.00,30.04,M,10.00,M,CLR,M,M,M,M,M,M,M,M,M,M,M,M,M,M,M,KBAM 150455Z AUTO 18007KT 10SM CLR A3004 RMK AO1,M
RTS,2022-07-15 04:55,-119.8764,39.6682,1539.00,75.20,30.20,19.05,M,4.00,0.00,30.16,M,10.00,15.00,CLR,M,M,M,M,M,M,M,M,M,M,M,M,M,M,75.20,KRTS 150455Z AUTO VRB04G15KT 10SM CLR 24/M01 A3016 RMK AO2,M
HND,2022-07-15 04:56,-115.1344,35.9729,742.79,83.00,64.00,52.93,340.00,8.00,0.00,30.06,1016.00,10.00,M,FEW,SCT,M,M,9000.00,11000.00,M,M,M,M,M,M,M,M,M,84.32,KHND 150456Z AUTO 34008KT 10SM FEW090 SCT110 28/18 A3006 RMK AO2 SLP160 T02830178,M
EKO,2022-07-15 04:56,-115.7860,40.8242,1367.00,74.00,33.00,22.37,0.00,0.00,0.00,30.06,1011.00,10.00,M,CLR,M,M,M,M,M,M,M,M,M,M,M,M,M,M,73.90,KEKO 150456Z AUTO 00000KT 10SM CLR 23/01 A3006 RMK AO2 SLP110 T02330006,M
TPH,2022-07-15 04:56,-117.0904,38.0505,1654.00,85.00,42.00,22.20,M,3.00,0.00,30.16,1011.10,10.00,M,FEW,M,M,M,11000.00,M,M,M,M,M,M,M,M,M,M,82.08,KTPH 150456Z AUTO VRB03KT 10SM FEW110 29/06 A3016 RMK AO2 LTG DSNT N SLP111 T02940056,M
WMC,2022-07-15 04:56,-117.8072,40.9019,1315.00,81.00,21.00,10.73,0.00,0.00,0.00,30.03,1010.70,10.00,M,CLR,M,M,M,M,M,M,M,M,M,M,M,M,M,M,78.63,KWMC 150456Z AUTO 00000KT 10SM CLR 27/M06 A3003 RMK AO2 SLP107 T02721061 TSNO,M
NFL,2022-07-15 04:56,-118.7010,39.4166,1199.00,86.00,30.00,13.28,300.00,9.00,0.00,30.00,1012.90,10.00,M,FEW,FEW,M,M,10000.00,18000.00,M,M,M,M,M,M,M,M,M,82.64,KNFL 150456Z 30009KT 10SM FEW100 FEW180 30/M01 A3000 RMK AO2 SLP129 FU ALOFT ALQDS T03001011,M
LAS,2022-07-15 04:56,-115.1634,36.0719,663.00,82.00,65.00,56.24,10.00,8.00,T,30.03,1013.90,10.00,M,FEW,BKN,M,M,9000.00,17000.00,M,M,M,M,M,M,M,M,M,83.76,KLAS 150456Z 01008KT 10SM FEW090 BKN170 28/18 A3003 RMK AO2 RAE0359 SLP139 P0000 T02780183,M
INS,2022-07-15 04:58,-115.6733,36.5872,955.00,80.00,60.00,50.85,120.00,23.00,0.00,30.03,1011.30,10.00,30.00,CLR,M,M,M,M,M,M,M,M,M,M,M,36.00,120.00,2022-07-15 03:59,79.90,KINS 150458Z AUTO 12023G30KT 10SM CLR 27/16 A3003 RMK AO2 PK WND 12036/0359 SLP113 T02660156 $,M
LSV,2022-07-15 04:58,-115.0343,36.2362,570.00,81.00,72.00,73.91,70.00,4.00,0.00,29.99,1012.80,10.00,M,SCT,M,M,M,23000.00,M,M,M,M,M,M,M,M,M,M,85.50,KLSV 150458Z AUTO 07004KT 10SM SCT230 27/22 A2999 RMK AO2 SLP128 T02730222 $,M
ELY,2022-07-15 05:05,-114.8453,39.2950,1909.00,66.20,57.20,72.74,170.00,13.00,0.00,30.35,M,6.00,M,SCT,OVC,M,M,8000.00,10000.00,M,M,-RA,M,M,M,M,M,M,66.20,KELY 150505Z AUTO 17013KT 6SM -RA SCT080 OVC100 19/14 A3035,M
TMT,2022-07-15 05:15,-117.1971,39.4643,1749.34,67.80,29.30,23.60,140.00,7.00,0.00,30.17,M,10.00,M,CLR,M,M,M,M,M,M,M,M,M,M,M,M,M,M,67.80,KTMT 150515Z AUTO 14007KT 10SM CLR 20/M01 A3017 RMK AO2 T01991015,M
RTS,2022-07-15 05:15,-119.8764,39.6682,1539.00,77.00,30.20,17.94,310.00,12.00,0.00,30.16,M,10.00,M,CLR,M,M,M,M,M,M,M,M,M,M,M,M,M,M,77.00,KRTS 150515Z AUTO 31012KT 10SM CLR 25/M01 A3016 RMK AO2,M
BAM,2022-07-15 05:15,-116.8743,40.5990,1382.36,M,M,M,200.00,4.00,0.00,30.04,M,10.00,M,CLR,M,M,M,M,M,M,M,M,M,M,M,M,M,M,M,KBAM 150515Z AUTO 20004KT 10SM CLR A3004 RMK AO1,M
MEV,2022-07-15 05:15,-119.7500,38.9963,1441.42,73.40,42.80,33.29,0.00,0.00,0.00,30.11,M,8.00,M,CLR,M,M,M,M,M,M,M,M,M,M,M,M,M,M,73.40,KMEV 150515Z AUTO 00000KT 8SM CLR 23/06 A3011 RMK AO2,M
05U,2022-07-15 05:15,-116.0051,39.6042,1811.23,78.80,39.20,24.19,170.00,10.00,0.00,30.20,M,10.00,16.00,CLR,M,M,M,M,M,M,M,M,M,M,M,M,M,M,78.80,K05U 150515Z AUTO 17010G16KT 10SM CLR 26/04 A3020 RMK A01,M
HTH,2022-07-15 05:15,-118.6315,38.5448,1282.89,86.00,33.80,15.48,0.00,0.00,0.00,30.05,M,10.00,M,CLR,M,M,M,M,M,M,M,M,M,M,M,M,M,M,82.66,KHTH 150515Z AUTO 00000KT 10SM CLR 30/01 A3005 RMK A01,M
CXP,2022-07-15 05:15,-119.7326,39.1923,1431.00,78.80,39.20,24.19,240.00,4.00,0.00,30.12,M,10.00,M,CLR,M,M,M,M,M,M,M,M,M,M,M,M,M,M,78.80,KCXP 150515Z AUTO 24004KT 10SM CLR 26/04 A3012 RMK AO2,M
BVU,2022-07-15 05:15,-114.8611,35.9475,671.00,M,M,M,M,M,0.00,M,M,M,M,M,M,M,M,M,M,M,M,M,M,M,M,M,M,M,M,KBVU 150515Z AUTO RMK AO2 PNO PWINO TSNO,M
TPH,2022-07-15 05:29,-117.0904,38.0505,1654.00,83.00,44.00,25.57,40.00,13.00,T,30.17,M,10.00,M,BKN,M,M,M,11000.00,M,M,M,-RA,M,M,M,M,M,M,80.80,KTPH 150529Z AUTO 04013KT 10SM -RA BKN110 28/07 A3017 RMK AO2 WSHFT 0509 RAB29 P0000 T02830067,M
RTS,2022-07-15 05:35,-119.8764,39.6682,1539.00,75.20,32.00,20.49,310.00,12.00,0.00,30.16,M,10.00,M,CLR,M,M,M,M,M,M,M,M,M,M,M,M,M,M,75.20,KRTS 150535Z AUTO 31012KT 10SM CLR 24/M00 A3016 RMK AO2,M
CXP,2022-07-15 05:35,-119.7326,39.1923,1431.00,77.00,39.20,25.67,0.00,0.00,0.00,30.12,M,10.00,M,CLR,M,M,M,M,M,M,M,M,M,M,M,M,M,M,77.00,KCXP 150535Z AUTO 00000KT 10SM CLR 25/04 A3012 RMK AO2,M
BVU,2022-07-15 05:35,-114.8611,35.9475,671.00,M,M,M,M,M,0.00,M,M,M,M,M,M,M,M,M,M,M,M,M,M,M,M,M,M,M,M,KBVU 150535Z AUTO RMK AO2 PNO PWINO TSNO,M
MEV,2022-07-15 05:35,-119.7500,38.9963,1441.42,71.60,41.00,33.00,30.00,4.00,0.00,30.11,M,10.00,M,CLR,M,M,M,M,M,M,M,M,M,M,M,M,M,M,71.60,KMEV 150535Z AUTO 03004KT 10SM CLR 22/05 A3011 RMK AO2,M
BAM,2022-07-15 05:35,-116.8743,40.5990,1382.36,M,M,M,0.00,0.00,0.00,30.05,M,10.00,M,CLR,M,M,M,M,M,M,M,M,M,M,M,M,M,M,M,KBAM 150535Z AUTO 00000KT 10SM CLR A3005 RMK AO1,M
TMT,2022-07-15 05:35,-117.1971,39.4643,1749.34,67.60,25.70,20.49,180.00,5.00,0.00,30.18,M,10.00,M,CLR,M,M,M,M,M,M,M,M,M,M,M,M,M,M,67.60,KTMT 150535Z AUTO 18005KT 10SM CLR 20/M03 A3018 RMK AO2 T01981035,M
05U,2022-07-15 05:35,-116.0051,39.6042,1811.23,78.80,41.00,25.95,0.00,0.00,0.00,30.20,M,10.00,13.00,CLR,M,M,M,M,M,M,M,M,M,M,M,M,M,M,78.80,K05U 150535Z AUTO 00000G13KT 10SM CLR 26/05 A3020 RMK A01,M
HTH,2022-07-15 05:35,-118.6315,38.5448,1282.89,84.20,35.60,17.61,250.00,9.00,0.00,30.05,M,10.00,M,CLR,M,M,M,M,M,M,M,M,M,M,M,M,M,M,81.34,KHTH 150535Z AUTO 25009KT 10SM CLR 29/02 A3005 RMK A01,M
TMT,2022-07-15 05:50,-117.1971,39.4643,1749.34,67.50,23.90,19.08,130.00,4.00,0.00,30.18,M,10.00,M,CLR,M,M,M,M,M,M,M,M,M,M,M,M,M,M,67.50,KTMT 150550Z AUTO 13004KT 10SM CLR 20/M04 A3018 RMK AO2 T01971045,M
CXP,2022-07-15 05:50,-119.7326,39.1923,1431.00,75.20,35.60,23.66,300.00,5.00,0.00,30.13,M,10.00,M,CLR,M,M,M,M,M,M,M,M,M,M,M,M,M,M,75.20,KCXP 150550Z AUTO 30005KT 10SM CLR 24/02 A3013 RMK AO2,M
P68,2022-07-15 05:53,-116.0056,39.6014,1993.00,78.00,41.00,26.55,140.00,11.00,0.00,30.17,1010.90,M,M,M,M,M,M,M,M,M,M,M,M,M,M,M,M,M,78.10,KP68 150553Z AUTO 14011KT 26/05 A3017 RMK AO1 SLP109 T02560050 10328 20244 53014,M
VGT,2022-07-15 05:53,-115.1933,36.2111,667.00,85.00,64.00,49.62,240.00,4.00,0.00,30.02,1014.90,10.00,M,CLR,M,M,M,M,M,M,M,M,M,M,M,M,M,M,86.23,KVGT 150553Z AUTO 24004KT 10SM CLR 29/18 A3002 RMK AO2 SLP149 60000 T02940178 10372 20283 50002,M
LOL,2022-07-15 05:53,-118.5701,40.0684,1192.43,83.00,24.10,11.50,320.00,7.00,0.00,30.02,1011.30,10.00,M,CLR,M,M,M,M,M,M,M,M,M,M,M,M,M,M,80.07,KLOL 150553Z AUTO 32007KT 10SM CLR 28/M04 A3002 RMK AO2 SLP113 T02831044 10383 20244 51020,M
ELY,2022-07-15 05:53,-114.8453,39.2950,1909.00,66.00,55.00,67.64,140.00,17.00,0.01,30.33,1015.20,10.00,22.00,OVC,M,M,M,9500.00,M,M,M,-RA,M,M,M,M,M,M,66.00,KELY 150553Z AUTO 14017G22KT 10SM -RA OVC095 19/13 A3033 RMK AO2 SLP152 P0001 60001 T01890128 10322 20189 50015,M
DRA,2022-07-15 05:53,-116.0278,36.6206,1009.00,87.00,54.00,32.34,240.00,6.00,0.00,30.03,1010.80,10.00,M,FEW,FEW,M,M,10000.00,12000.00,M,M,M,M,M,M,M,M,M,85.19,KDRA 150553Z AUTO 24006KT 10SM FEW100 FEW120 31/12 A3003 RMK AO2 SLP108 T03060122 10400 20300 51024,M
RNO,2022-07-15 05:55,-119.7711,39.4839,1341.00,78.00,38.00,23.53,M,3.00,0.00,30.10,1012.70,10.00,M,FEW,M,M,M,10000.00,M,M,M,M,M,M,M,M,M,M,78.10,KRNO 150555Z VRB03KT 10SM FEW100 26/03 A3010 RMK AO2 SLP127 T02560033 10367 20256 51017,M
HTH,2022-07-15 05:55,-118.6315,38.5448,1282.89,84.20,35.60,17.61,250.00,8.00,0.00,30.05,M,10.00,M,CLR,M,M,M,M,M,M,M,M,M,M,M,M,M,M,81.34,KHTH 150555Z AUTO 25008KT 10SM CLR 29/02 A3005 RMK A01,M
MEV,2022-07-15 05:55,-119.7500,38.9963,1441.42,69.80,41.00,35.09,20.00,6.00,0.00,30.11,M,10.00,M,CLR,M,M,M,M,M,M,M,M,M,M,M,M,M,M,69.80,KMEV 150555Z AUTO 02006KT 10SM CLR 21/05 A3011 RMK AO2,M
05U,2022-07-15 05:55,-116.0051,39.6042,1811.23,77.00,41.00,27.53,140.00,11.00,0.00,30.19,M,10.00,M,SCT,SCT,M,M,9500.00,12000.00,M,M,M,M,M,M,M,M,M,77.00,K05U 150555Z AUTO 14011KT 10SM SCT095 SCT120 25/05 A3019 RMK A01,M
RTS,2022-07-15 05:55,-119.8764,39.6682,1539.00,75.20,32.00,20.49,300.00,8.00,0.00,30.16,M,10.00,15.00,CLR,M,M,M,M,M,M,M,M,M,M,M,M,M,M,75.20,KRTS 150555Z AUTO 30008G15KT 10SM CLR 24/00 A3016 RMK AO2,M
BVU,2022-07-15 05:55,-114.8611,35.9475,671.00,M,M,M,M,M,0.00,M,M,M,M,M,M,M,M,M,M,M,M,M,M,M,M,M,M,M,M,KBVU 150555Z AUTO RMK AO2 PNO PWINO TSNO,M
BAM,2022-07-15 05:55,-116.8743,40.5990,1382.36,M,M,M,0.00,0.00,0.00,30.05,M,10.00,M,CLR,M,M,M,M,M,M,M,M,M,M,M,M,M,M,M,KBAM 150555Z AUTO 00000KT 10SM CLR A3005 RMK AO1,M
LAS,2022-07-15 05:56,-115.1634,36.0719,663.00,83.00,65.00,54.62,0.00,0.00,0.00,30.03,1013.70,10.00,M,FEW,SCT,M,M,11000.00,18000.00,M,M,M,M,M,M,M,M,M,84.64,KLAS 150556Z 00000KT 10SM FEW110 SCT180 28/18 A3003 RMK AO2 SLP137 60000 T02830183 10350 20278 50004,M
EKO,2022-07-15 05:56,-115.7860,40.8242,1367.00,71.00,30.90,22.50,180.00,5.00,0.00,30.07,1011.30,10.00,M,CLR,M,M,M,M,M,M,M,M,M,M,M,M,M,M,71.10,KEKO 150556Z AUTO 18005KT 10SM CLR 22/M01 A3007 RMK AO2 SLP113 T02171006 10367 20211 51011,M
WMC,2022-07-15 05:56,-117.8072,40.9019,1315.00,75.00,21.90,13.60,280.00,4.00,0.00,30.04,1011.40,10.00,M,CLR,M,M,M,M,M,M,M,M,M,M,M,M,M,M,75.00,KWMC 150556Z AUTO 28004KT 10SM CLR 24/M06 A3004 RMK AO2 SLP114 T02391056 10389 20228 51019 TSNO,M
NFL,2022-07-15 05:56,-118.7010,39.4166,1199.00,79.00,30.90,17.28,50.00,7.00,0.00,30.03,1013.80,10.00,M,FEW,M,M,M,12000.00,M,M,M,M,M,M,M,M,M,M,79.00,KNFL 150556Z 05007KT 10SM FEW120 26/M01 A3003 RMK AO2 SLP138 FU ALOFT ALQDS T02611006 10383 20256 53020,M
TPH,2022-07-15 05:56,-117.0904,38.0505,1654.00,81.00,46.00,29.23,30.00,9.00,T,30.17,1011.60,10.00,M,OVC,M,M,M,11000.00,M,M,M,M,M,M,M,M,M,M,79.76,KTPH 150556Z AUTO 03009KT 10SM OVC110 27/08 A3017 RMK AO2 WSHFT 0509 RAB29E37 SLP116 P0000 60000 T02720078 10367 20272 53016,M
HND,2022-07-15 05:56,-115.1344,35.9729,742.79,81.00,65.00,58.10,90.00,3.00,0.00,30.06,1016.20,10.00,M,CLR,M,M,M,M,M,M,M,M,M,M,M,M,M,M,82.79,KHND 150556Z AUTO 09003KT 10SM CLR 27/18 A3006 RMK AO2 SLP162 60000 T02720183 10344 20272 53006,M
INS,2022-07-15 05:58,-115.6733,36.5872,955.00,83.80,54.70,36.88,110.00,15.00,0.00,30.02,1010.80,10.00,M,CLR,M,M,M,M,M,M,M,M,M,M,M,27.00,130.00,2022-07-15 04:58,82.65,KINS 150558Z AUTO 11015KT 10SM CLR 29/13 A3002 RMK AO2 PK WND 13027/0458 LTG DSNT NW SLP108 T02880126 10381 20265 50012 $,M
LSV,2022-07-15 05:58,-115.0343,36.2362,570.00,79.00,72.50,80.52,100.00,6.00,0.00,29.99,1012.80,10.00,M,FEW,M,M,M,23000.00,M,M,M,M,M,M,M,M,M,M,79.00,KLSV 150558Z AUTO 10006KT 10SM FEW230 26/23 A2999 RMK AO2 SLP128 60002 T02610225 10364 20261 50002 $,M
05U,2022-07-15 06:15,-116.0051,39.6042,1811.23,78.80,41.00,25.95,140.00,18.00,0.00,30.20,M,10.00,M,SCT,BKN,BKN,M,7500.00,9000.00,11000.00,M,M,M,M,M,M,M,M,78.80,K05U 150615Z AUTO 14018KT 10SM SCT075 BKN090 BKN110 26/05 A3020 RMK A01,M
RTS,2022-07-15 06:15,-119.8764,39.6682,1539.00,75.20,32.00,20.49,310.00,10.00,0.00,30.17,M,10.00,16.00,CLR,M,M,M,M,M,M,M,M,M,M,M,M,M,M,75.20,KRTS 150615Z AUTO 31010G16KT 230V340 10SM CLR 24/M00 A3017 RMK AO2,M
CXP,2022-07-15 06:15,-119.7326,39.1923,1431.00,77.00,33.80,20.74,280.00,6.00,0.00,30.12,M,10.00,M,CLR,M,M,M,M,M,M,M,M,M,M,M,M,M,M,77.00,KCXP 150615Z AUTO 28006KT 10SM CLR 25/01 A3012 RMK AO2,M
BVU,2022-07-15 06:15,-114.8611,35.9475,671.00,M,M,M,M,M,0.00,M,M,M,M,M,M,M,M,M,M,M,M,M,M,M,M,M,M,M,M,KBVU 150615Z AUTO RMK AO2 PNO PWINO TSNO,M
TMT,2022-07-15 06:15,-117.1971,39.4643,1749.34,66.40,27.50,23.01,260.00,6.00,0.00,30.18,M,10.00,M,CLR,M,M,M,M,M,M,M,M,M,M,M,M,M,M,66.40,KTMT 150615Z AUTO 26006KT 10SM CLR 19/M02 A3018 RMK AO2 T01911025,M
HTH,2022-07-15 06:15,-118.6315,38.5448,1282.89,80.60,35.60,19.79,230.00,4.00,0.00,30.06,M,10.00,M,CLR,M,M,M,M,M,M,M,M,M,M,M,M,M,M,78.94,KHTH 150615Z AUTO 23004KT 10SM CLR 27/02 A3006 RMK A01,M
MEV,2022-07-15 06:15,-119.7500,38.9963,1441.42,73.40,39.20,28.96,M,4.00,0.00,30.12,M,10.00,M,CLR,M,M,M,M,M,M,M,M,M,M,M,M,M,M,73.40,KMEV 150615Z AUTO VRB04KT 10SM CLR 23/04 A3012 RMK AO2,M
ELY,2022-07-15 06:28,-114.8453,39.2950,1909.00,64.00,56.00,74.93,190.00,21.00,T,30.30,M,10.00,36.00,FEW,SCT,SCT,M,4100.00,7500.00,12000.00,M,M,M,M,M,45.00,120.00,2022-07-15 06:09,64.00,KELY 150628Z AUTO 19021G36KT 10SM FEW041 SCT075 SCT120 18/13 A3030 RMK AO2 PK WND 12045/0609 WSHFT 0608 RAE22 P0000 T01780133,M
MEV,2022-07-15 06:35,-119.7500,38.9963,1441.42,71.60,41.00,33.00,350.00,4.00,0.00,30.11,M,10.00,M,CLR,M,M,M,M,M,M,M,M,M,M,M,M,M,M,71.60,KMEV 150635Z AUTO 35004KT 10SM CLR 22/05 A3011 RMK AO2,M
05U,2022-07-15 06:35,-116.0051,39.6042,1811.23,78.80,41.00,25.95,160.00,19.00,0.00,30.21,M,10.00,25.00,FEW,BKN,BKN,M,7500.00,10000.00,12000.00,M,M,M,M,M,M,M,M,78.80,K05U 150635Z AUTO 16019G25KT 10SM FEW075 BKN100 BKN120 26/05 A3021 RMK A01,M
RTS,2022-07-15 06:35,-119.8764,39.6682,1539.00,77.00,28.40,16.67,M,7.00,0.00,30.17,M,10.00,17.00,CLR,M,M,M,M,M,M,M,M,M,M,M,M,M,M,77.00,KRTS 150635Z AUTO VRB07G17KT 10SM CLR 25/M02 A3017 RMK AO2,M
CXP,2022-07-15 06:35,-119.7326,39.1923,1431.00,73.40,37.40,26.98,150.00,6.00,0.00,30.13,M,10.00,M,CLR,M,M,M,M,M,M,M,M,M,M,M,M,M,M,73.40,KCXP 150635Z AUTO 15006KT 10SM CLR 23/03 A3013 RMK AO2,M
BVU,2022-07-15 06:35,-114.8611,35.9475,671.00,M,M,M,M,M,0.00,M,M,M,M,M,M,M,M,M,M,M,M,M,M,M,M,M,M,M,M,KBVU 150635Z AUTO RMK AO2 PNO PWINO TSNO,M
TMT,2022-07-15 06:35,-117.1971,39.4643,1749.34,64.00,25.30,22.84,150.00,7.00,0.00,30.19,M,10.00,M,CLR,M,M,M,M,M,M,M,M,M,M,M,M,M,M,64.00,KTMT 150635Z AUTO 15007KT 10SM CLR 18/M04 A3019 RMK AO2 T01781037,M
BAM,2022-07-15 06:35,-116.8743,40.5990,1382.36,M,M,M,150.00,5.00,0.00,30.06,M,10.00,M,CLR,M,M,M,M,M,M,M,M,M,M,M,M,M,M,M,KBAM 150635Z AUTO 15005KT 10SM CLR A3006 RMK AO1,M
HTH,2022-07-15 06:35,-118.6315,38.5448,1282.89,82.40,35.60,18.67,250.00,4.00,0.00,30.06,M,10.00,M,CLR,M,M,M,M,M,M,M,M,M,M,M,M,M,M,80.08,KHTH 150635Z AUTO 25004KT 10SM CLR 28/02 A3006 RMK A01,M
ELY,2022-07-15 06:53,-114.8453,39.2950,1909.00,64.00,55.00,72.52,190.00,20.00,T,30.30,1014.40,10.00,38.00,CLR,M,M,M,M,M,M,M,M,M,M,M,45.00,120.00,2022-07-15 06:09,64.00,KELY 150653Z AUTO 19020G38KT 10SM CLR 18/13 A3030 RMK AO2 PK WND 12045/0609 WSHFT 0608 RAE22 SLP144 P0000 T01780128,M
DRA,2022-07-15 06:53,-116.0278,36.6206,1009.00,85.00,55.00,35.99,0.00,0.00,0.00,30.05,1011.40,10.00,M,FEW,M,M,M,12000.00,M,M,M,M,M,M,M,M,M,M,83.56,KDRA 150653Z AUTO 00000KT 10SM FEW120 29/13 A3005 RMK AO2 SLP114 T02940128,M
VGT,2022-07-15 06:53,-115.1933,36.2111,667.00,85.00,64.00,49.62,180.00,3.00,0.00,30.02,1014.90,10.00,M,CLR,M,M,M,M,M,M,M,M,M,M,M,M,M,M,86.23,KVGT 150653Z AUTO 18003KT 10SM CLR 29/18 A3002 RMK AO2 SLP149 T02940178,M
P68,2022-07-15 06:53,-116.0056,39.6014,1993.00,75.00,47.00,36.87,170.00,21.00,0.00,30.20,1011.90,M,32.00,M,M,M,M,M,M,M,M,M,M,M,M,33.00,190.00,2022-07-15 06:42,75.00,KP68 150653Z AUTO 17021G32KT 24/08 A3020 RMK AO1 PK WND 19033/0642 SLP119 T02390083,M
LOL,2022-07-15 06:53,-118.5701,40.0684,1192.43,74.00,25.00,16.06,90.00,4.00,0.00,30.03,1012.10,10.00,M,CLR,M,M,M,M,M,M,M,M,M,M,M,M,M,M,73.90,KLOL 150653Z AUTO 09004KT 10SM CLR 23/M04 A3003 RMK AO2 SLP121 T02331039,M
RNO,2022-07-15 06:55,-119.7711,39.4839,1341.00,78.00,38.00,23.53,280.00,7.00,0.00,30.10,1012.70,10.00,M,FEW,M,M,M,10000.00,M,M,M,M,M,M,M,M,M,M,78.10,KRNO 150655Z 28007KT 230V300 10SM FEW100 26/03 A3010 RMK AO2 SLP127 T02560033,M
BVU,2022-07-15 06:55,-114.8611,35.9475,671.00,M,M,M,M,M,0.00,M,M,M,M,M,M,M,M,M,M,M,M,M,M,M,M,M,M,M,M,KBVU 150655Z AUTO RMK AO2 PNO PWINO TSNO,M
CXP,2022-07-15 06:55,-119.7326,39.1923,1431.00,75.20,35.60,23.66,0.00,0.00,0.00,30.13,M,10.00,M,CLR,M,M,M,M,M,M,M,M,M,M,M,M,M,M,75.20,KCXP 150655Z AUTO 00000KT 10SM CLR 24/02 A3013 RMK AO2,M
RTS,2022-07-15 06:55,-119.8764,39.6682,1539.00,77.00,26.60,15.48,270.00,6.00,0.00,30.17,M,10.00,17.00,CLR,M,M,M,M,M,M,M,M,M,M,M,M,M,M,77.00,KRTS 150655Z AUTO 27006G17KT 10SM CLR 25/M03 A3017 RMK AO2,M
05U,2022-07-15 06:55,-116.0051,39.6042,1811.23,75.20,46.40,35.94,160.00,18.00,0.00,30.22,M,10.00,25.00,OVC,M,M,M,11000.00,M,M,M,M,M,M,M,M,M,M,75.20,K05U 150655Z AUTO 16018G25KT 10SM OVC110 24/08 A3022 RMK A01,M
MEV,2022-07-15 06:55,-119.7500,38.9963,1441.42,64.40,42.80,45.32,50.00,4.00,0.00,30.12,M,10.00,M,CLR,M,M,M,M,M,M,M,M,M,M,M,M,M,M,64.40,KMEV 150655Z AUTO 05004KT 10SM CLR 18/06 A3012 RMK AO2,M
BAM,2022-07-15 06:55,-116.8743,40.5990,1382.36,M,M,M,0.00,0.00,0.00,30.06,M,10.00,M,CLR,M,M,M,M,M,M,M,M,M,M,M,M,M,M,M,KBAM 150655Z AUTO 00000KT 10SM CLR A3006 RMK AO1,M
HTH,2022-07-15 06:55,-118.6315,38.5448,1282.89,78.80,35.60,21.00,230.00,4.00,0.00,30.07,M,10.00,M,CLR,M,M,M,M,M,M,M,M,M,M,M,M,M,M,78.80,KHTH 150655Z AUTO 23004KT 10SM CLR 26/02 A3007 RMK A01,M
TMT,2022-07-15 06:55,-117.1971,39.4643,1749.34,68.00,24.80,19.47,270.00,6.00,0.00,30.19,M,10.00,M,CLR,M,M,M,M,M,M,M,M,M,M,M,M,M,M,68.00,KTMT 150655Z AUTO 27006KT 10SM CLR 20/M04 A3019 RMK AO2 T02001040,M
HND,2022-07-15 06:56,-115.1344,35.9729,742.79,80.00,63.00,55.98,100.00,4.00,0.00,30.07,1016.30,10.00,M,CLR,M,M,M,M,M,M,M,M,M,M,M,M,M,M,81.50,KHND 150656Z AUTO 10004KT 10SM CLR 27/17 A3007 RMK AO2 SLP163 T02670172 404110267,M
LAS,2022-07-15 06:56,-115.1634,36.0719,663.00,82.00,65.00,56.24,180.00,4.00,0.00,30.03,1013.80,10.00,M,FEW,SCT,M,M,11000.00,18000.00,M,M,M,M,M,M,M,M,M,83.76,KLAS 150656Z 18004KT 10SM FEW110 SCT180 28/18 A3003 RMK AO2 SLP138 T02780183,M
NFL,2022-07-15 06:56,-118.7010,39.4166,1199.00,77.00,28.00,16.40,50.00,5.00,0.00,30.04,1014.30,10.00,M,FEW,M,M,M,12000.00,M,M,M,M,M,M,M,M,M,M,77.00,KNFL 150656Z 05005KT 10SM FEW120 25/M02 A3004 RMK AO2 SLP143 FU ALOFT ALQDS T02501022,M
TPH,2022-07-15 06:56,-117.0904,38.0505,1654.00,81.00,44.00,27.20,50.00,9.00,0.00,30.20,1012.10,10.00,M,FEW,M,M,M,11000.00,M,M,M,M,M,M,M,M,M,M,79.62,KTPH 150656Z AUTO 05009KT 10SM FEW110 27/07 A3020 RMK AO2 SLP121 T02720067,M
EKO,2022-07-15 06:56,-115.7860,40.8242,1367.00,75.00,32.00,20.63,330.00,6.00,0.00,30.09,1011.60,10.00,M,CLR,M,M,M,M,M,M,M,M,M,M,M,M,M,M,75.00,KEKO 150656Z AUTO 33006KT 10SM CLR 24/00 A3009 RMK AO2 SLP116 T02390000,M
WMC,2022-07-15 06:56,-117.8072,40.9019,1315.00,73.00,24.10,15.95,0.00,0.00,0.00,30.06,1011.70,10.00,M,CLR,M,M,M,M,M,M,M,M,M,M,M,M,M,M,73.00,KWMC 150656Z AUTO 00000KT 10SM CLR 23/M04 A3006 RMK AO2 SLP117 T02281044 TSNO,M
INS,2022-07-15 06:58,-115.6733,36.5872,955.00,84.60,49.60,29.78,110.00,14.00,0.00,30.04,1011.50,10.00,M,FEW,M,M,M,11000.00,M,M,M,M,M,M,M,M,M,M,82.48,KINS 150658Z AUTO 11014KT 10SM FEW110 29/10 A3004 RMK AO2 LTG DSNT W SLP115 T02920098 $,M
LSV,2022-07-15 06:58,-115.0343,36.2362,570.00,80.00,68.00,66.62,100.00,5.00,0.00,30.00,1013.00,10.00,M,OVC,M,M,M,17000.00,M,M,M,M,M,M,M,M,M,M,82.70,KLSV 150658Z AUTO 10005KT 10SM OVC170 27/20 A3000 RMK AO2 SLP130 T02670200 $,M
05U,2022-07-15 07:10,-116.0051,39.6042,1811.23,75.20,48.20,38.46,170.00,22.00,0.00,30.22,M,10.00,M,BKN,M,M,M,11000.00,M,M,M,M,M,M,M,M,M,M,75.20,K05U 150710Z AUTO 17022KT 10SM BKN110 24/09 A3022 RMK A01,M
RTS,2022-07-15 07:15,-119.8764,39.6682,1539.00,75.20,28.40,17.70,300.00,11.00,0.00,30.17,M,10.00,M,CLR,M,M,M,M,M,M,M,M,M,M,M,M,M,M,75.20,KRTS 150715Z AUTO 30011KT 10SM CLR 24/M02 A3017 RMK AO2,M
BVU,2022-07-15 07:15,-114.8611,35.9475,671.00,M,M,M,M,M,0.00,M,M,M,M,M,M,M,M,M,M,M,M,M,M,M,M,M,M,M,M,KBVU 150715Z AUTO RMK AO2 PNO PWINO TSNO,M
MEV,2022-07-15 07:15,-119.7500,38.9963,1441.42,64.40,44.60,48.55,0.00,0.00,0.00,30.12,M,10.00,M,CLR,M,M,M,M,M,M,M,M,M,M,M,M,M,M,64.40,KMEV 150715Z AUTO 00000KT 10SM CLR 18/07 A3012 RMK AO2,M
BAM,2022-07-15 07:15,-116.8743,40.5990,1382.36,M,M,M,170.00,4.00,0.00,30.06,M,10.00,M,CLR,M,M,M,M,M,M,M,M,M,M,M,M,M,M,M,KBAM 150715Z AUTO 17004KT 10SM CLR A3006 RMK AO1,M
HTH,2022-07-15 07:15,-118.6315,38.5448,1282.89,78.80,35.60,21.00,150.00,3.00,0.00,30.07,M,10.00,M,CLR,M,M,M,M,M,M,M,M,M,M,M,M,M,M,78.80,KHTH 150715Z AUTO 15003KT 10SM CLR 26/02 A3007 RMK A01,M
TMT,2022-07-15 07:15,-117.1971,39.4643,1749.34,67.50,36.30,31.59,280.00,6.00,0.00,30.18,M,10.00,M,CLR,M,M,M,M,M,M,M,M,M,M,M,M,M,M,67.50,KTMT 150715Z AUTO 28006KT 10SM CLR 20/02 A3018 RMK AO2 T01970024,M
CXP,2022-07-15 07:15,-119.7326,39.1923,1431.00,75.20,35.60,23.66,330.00,6.00,0.00,30.13,M,10.00,M,CLR,M,M,M,M,M,M,M,M,M,M,M,M,M,M,75.20,KCXP 150715Z AUTO 33006KT 10SM CLR 24/02 A3013 RMK AO2,M
TMT,2022-07-15 07:35,-117.1971,39.4643,1749.34,67.00,40.00,36.89,240.00,6.00,0.00,30.18,M,10.00,M,CLR,M,M,M,M,M,M,M,M,M,M,M,M,M,M,67.10,KTMT 150735Z AUTO 24006KT 10SM CLR 20/04 A3018 RMK AO2 T01950044,M
RTS,2022-07-15 07:35,-119.8764,39.6682,1539.00,66.20,30.20,25.88,310.00,7.00,0.00,30.17,M,10.00,13.00,CLR,M,M,M,M,M,M,M,M,M,M,M,M,M,M,66.20,KRTS 150735Z AUTO 31007G13KT 10SM CLR 19/M01 A3017 RMK AO2,M
HTH,2022-07-15 07:35,-118.6315,38.5448,1282.89,75.20,35.60,23.66,M,M,0.00,30.07,M,10.00,M,CLR,M,M,M,M,M,M,M,M,M,M,M,M,M,M,75.20,KHTH 150735Z AUTO 10SM CLR 24/02 A3007 RMK A01,M
05U,2022-07-15 07:35,-116.0051,39.6042,1811.23,73.40,48.20,40.85,160.00,17.00,0.00,30.23,M,10.00,23.00,CLR,M,M,M,M,M,M,M,M,M,M,M,M,M,M,73.40,K05U 150735Z AUTO 16017G23KT 10SM CLR 23/09 A3023 RMK A01,M
BVU,2022-07-15 07:35,-114.8611,35.9475,671.00,M,M,M,M,M,0.00,M,M,M,M,M,M,M,M,M,M,M,M,M,M,M,M,M,M,M,M,KBVU 150735Z AUTO RMK AO2 PNO PWINO TSNO,M
MEV,2022-07-15 07:35,-119.7500,38.9963,1441.42,59.00,42.80,54.86,0.00,0.00,0.00,30.12,M,10.00,M,CLR,M,M,M,M,M,M,M,M,M,M,M,M,M,M,59.00,KMEV 150735Z AUTO 00000KT 10SM CLR 15/06 A3012 RMK AO2,M
BAM,2022-07-15 07:35,-116.8743,40.5990,1382.36,M,M,M,0.00,0.00,0.00,30.07,M,10.00,M,CLR,M,M,M,M,M,M,M,M,M,M,M,M,M,M,M,KBAM 150735Z AUTO 00000KT 10SM CLR A3007 RMK AO1,M
DRA,2022-07-15 07:36,-116.0278,36.6206,1009.00,85.00,53.00,33.57,150.00,13.00,0.00,30.06,M,10.00,M,BKN,M,M,M,11000.00,M,M,M,M,M,M,M,M,M,M,83.21,KDRA 150736Z AUTO 15013KT 10SM BKN110 29/12 A3006 RMK AO2 WSHFT 0719 T02940117,M
P68,2022-07-15 07:53,-116.0056,39.6014,1993.00,72.00,50.00,45.81,130.00,15.00,0.00,30.20,1012.30,M,22.00,M,M,M,M,M,M,M,M,M,M,M,M,35.00,160.00,2022-07-15 07:01,72.00,KP68 150753Z AUTO 13015G22KT 22/10 A3020 RMK AO1 PK WND 16035/0701 SLP123 T02220100 403440128,M
ELY,2022-07-15 07:53,-114.8453,39.2950,1909.00,64.00,55.00,72.52,170.00,15.00,0.00,30.33,1015.20,10.00,22.00,SCT,M,M,M,11000.00,M,M,M,M,M,M,M,32.00,200.00,2022-07-15 06:54,64.00,KELY 150753Z AUTO 17015G22KT 10SM SCT110 18/13 A3033 RMK AO2 PK WND 20032/0654 SLP152 T01780128 403500156,M
LOL,2022-07-15 07:53,-118.5701,40.0684,1192.43,67.00,26.10,21.35,20.00,4.00,0.00,30.04,1012.70,10.00,M,CLR,M,M,M,M,M,M,M,M,M,M,M,M,M,M,66.90,KLOL 150753Z AUTO 02004KT 10SM CLR 19/M03 A3004 RMK AO2 SLP127 T01941033 403830100,M
VGT,2022-07-15 07:53,-115.1933,36.2111,667.00,83.00,62.00,49.51,90.00,9.00,0.00,30.02,1015.20,10.00,M,CLR,M,M,M,M,M,M,M,M,M,M,M,M,M,M,83.70,KVGT 150753Z AUTO 09009KT 10SM CLR 28/17 A3002 RMK AO2 SLP152 T02830167 404330283,M
DRA,2022-07-15 07:53,-116.0278,36.6206,1009.00,85.00,55.00,35.99,160.00,12.00,T,30.07,1012.00,10.00,20.00,FEW,SCT,M,M,8000.00,12000.00,M,M,-RA,M,M,M,M,M,M,83.56,KDRA 150753Z AUTO 16012G20KT 10SM -RA FEW080 SCT120 29/13 A3007 RMK AO2 WSHFT 0719 RAB42 SLP120 P0000 T02940128 404060278,M
HTH,2022-07-15 07:55,-118.6315,38.5448,1282.89,75.20,35.60,23.66,110.00,5.00,0.00,30.08,M,10.00,M,M,M,M,M,M,M,M,M,M,M,M,M,M,M,M,75.20,KHTH 150755Z AUTO 11005KT 10SM 24/02 A3008 RMK A01,M
RNO,2022-07-15 07:55,-119.7711,39.4839,1341.00,72.00,39.00,30.12,M,3.00,0.00,30.11,1012.90,10.00,M,FEW,M,M,M,10000.00,M,M,M,M,M,M,M,M,M,M,72.00,KRNO 150755Z VRB03KT 10SM FEW100 22/04 A3011 RMK AO2 SLP129 T02220039 403780167,M
05U,2022-07-15 07:55,-116.0051,39.6042,1811.23,73.40,51.80,46.71,130.00,15.00,0.00,30.23,M,10.00,M,SCT,M,M,M,11000.00,M,M,M,M,M,M,M,M,M,M,73.40,K05U 150755Z AUTO 13015KT 10SM SCT110 23/11 A3023 RMK A01,M
MEV,2022-07-15 07:55,-119.7500,38.9963,1441.42,66.20,42.80,42.57,200.00,4.00,0.00,30.12,M,10.00,M,CLR,M,M,M,M,M,M,M,M,M,M,M,M,M,M,66.20,KMEV 150755Z AUTO 20004KT 10SM CLR 19/06 A3012 RMK AO2,M
BAM,2022-07-15 07:55,-116.8743,40.5990,1382.36,M,M,M,220.00,3.00,0.00,30.07,M,10.00,M,CLR,M,M,M,M,M,M,M,M,M,M,M,M,M,M,M,KBAM 150755Z AUTO 22003KT 10SM CLR A3007 RMK AO1,M
BVU,2022-07-15 07:55,-114.8611,35.9475,671.00,M,M,M,M,M,0.00,M,M,M,M,M,M,M,M,M,M,M,M,M,M,M,M,M,M,M,M,KBVU 150755Z AUTO RMK AO2 PNO PWINO TSNO,M
TMT,2022-07-15 07:55,-117.1971,39.4643,1749.34,67.80,37.60,32.91,200.00,7.00,0.00,30.19,M,10.00,M,CLR,M,M,M,M,M,M,M,M,M,M,M,M,M,M,67.80,KTMT 150755Z AUTO 20007KT 10SM CLR 20/03 A3019 RMK AO2 T01990031,M
RTS,2022-07-15 07:55,-119.8764,39.6682,1539.00,62.60,30.20,29.35,300.00,9.00,0.00,30.17,M,10.00,M,CLR,M,M,M,M,M,M,M,M,M,M,M,M,M,M,62.60,KRTS 150755Z AUTO 30009KT 10SM CLR 17/M01 A3017 RMK AO2,M
LAS,2022-07-15 07:56,-115.1634,36.0719,663.00,81.00,65.00,58.10,110.00,4.00,0.00,30.03,1013.90,10.00,M,FEW,BKN,M,M,11000.00,17000.00,M,M,M,M,M,M,M,M,M,82.79,KLAS 150756Z 11004KT 10SM FEW110 BKN170 27/18 A3003 RMK AO2 SLP139 T02720183 404170272,M
INS,2022-07-15 07:56,-115.6733,36.5872,955.00,84.20,50.00,30.62,60.00,9.00,0.00,30.08,1012.90,10.00,M,OVC,M,M,M,10000.00,M,M,M,M,M,M,M,M,M,M,82.24,KINS 150756Z AUTO 06009KT 10SM OVC100 29/10 A3008 RMK AO2 LTG DSNT W-NW SLP129 $,M
WMC,2022-07-15 07:56,-117.8072,40.9019,1315.00,73.00,21.90,14.54,320.00,5.00,0.00,30.06,1011.80,10.00,M,CLR,M,M,M,M,M,M,M,M,M,M,M,M,M,M,73.00,KWMC 150756Z AUTO 32005KT 10SM CLR 23/M06 A3006 RMK AO2 SLP118 T02281056 403940117 TSNO,M
NFL,2022-07-15 07:56,-118.7010,39.4166,1199.00,71.00,30.00,21.69,300.00,4.00,0.00,30.05,1014.40,10.00,M,CLR,M,M,M,M,M,M,M,M,M,M,M,M,M,M,71.10,KNFL 150756Z AUTO 30004KT 10SM CLR 22/M01 A3005 RMK AO2 SLP144 T02171011 403830133,M
HND,2022-07-15 07:56,-115.1344,35.9729,742.79,79.00,63.00,58.04,140.00,4.00,0.00,30.07,1016.50,10.00,M,CLR,M,M,M,M,M,M,M,M,M,M,M,M,M,M,79.00,KHND 150756Z AUTO 14004KT 10SM CLR 26/17 A3007 RMK AO2 SLP165 T02610172,M
TPH,2022-07-15 07:56,-117.0904,38.0505,1654.00,77.00,53.00,43.44,160.00,10.00,0.00,30.20,1012.20,10.00,M,CLR,M,M,M,M,M,M,M,M,M,M,M,M,M,M,77.00,KTPH 150756Z AUTO 16010KT 10SM CLR 25/12 A3020 RMK AO2 SLP122 T02500117 403670150,M
EKO,2022-07-15 07:56,-115.7860,40.8242,1367.00,81.00,40.00,23.13,180.00,15.00,0.00,30.09,1010.70,10.00,28.00,CLR,M,M,M,M,M,M,M,M,M,M,M,28.00,170.00,2022-07-15 07:49,79.37,KEKO 150756Z AUTO 18015G28KT 10SM CLR 27/04 A3009 RMK AO2 PK WND 17028/0749 SLP107 T02720044 403890150,M
INS,2022-07-15 07:58,-115.6733,36.5872,955.00,84.20,50.20,30.85,50.00,11.00,0.00,30.08,1012.90,10.00,M,OVC,M,M,M,10000.00,M,M,M,M,M,M,M,M,M,M,82.26,KINS 150758Z AUTO 05011KT 10SM OVC100 29/10 A3008 RMK AO2 LTG DSNT W-NW SLP129 T02900101 403940250 $,M
LSV,2022-07-15 07:58,-115.0343,36.2362,570.00,80.00,70.70,73.55,40.00,8.00,0.00,30.00,1013.00,10.00,M,OVC,M,M,M,17000.00,M,M,M,M,M,M,M,M,M,M,79.90,KLSV 150758Z AUTO 04008KT 10SM OVC170 27/22 A3000 RMK AO2 SLP130 T02660215 404340261 $,M
05U,2022-07-15 08:15,-116.0051,39.6042,1811.23,73.40,51.80,46.71,140.00,20.00,0.00,30.23,M,10.00,26.00,BKN,M,M,M,11000.00,M,M,M,M,M,M,M,M,M,M,73.40,K05U 150815Z AUTO 14020G26KT 10SM BKN110 23/11 A3023 RMK A01,M
MEV,2022-07-15 08:15,-119.7500,38.9963,1441.42,60.80,42.80,51.45,130.00,5.00,0.00,30.12,M,10.00,M,CLR,M,M,M,M,M,M,M,M,M,M,M,M,M,M,60.80,KMEV 150815Z AUTO 13005KT 10SM CLR 16/06 A3012 RMK AO2,M
BAM,2022-07-15 08:15,-116.8743,40.5990,1382.36,M,M,M,230.00,5.00,0.00,30.07,M,10.00,M,CLR,M,M,M,M,M,M,M,M,M,M,M,M,M,M,M,KBAM 150815Z AUTO 23005KT 10SM CLR A3007 RMK AO1,M
BVU,2022-07-15 08:15,-114.8611,35.9475,671.00,M,M,M,M,M,0.00,M,M,M,M,M,M,M,M,M,M,M,M,M,M,M,M,M,M,M,M,KBVU 150815Z AUTO RMK AO2 PNO PWINO TSNO,M
TMT,2022-07-15 08:15,-117.1971,39.4643,1749.34,64.00,34.00,32.56,0.00,0.00,0.00,30.20,M,10.00,M,CLR,M,M,M,M,M,M,M,M,M,M,M,M,M,M,64.00,KTMT 150815Z AUTO 00000KT 10SM CLR 18/01 A3020 RMK AO2 T01780011,M
HTH,2022-07-15 08:15,-118.6315,38.5448,1282.89,77.00,35.60,22.28,110.00,4.00,0.00,30.08,M,10.00,M,CLR,M,M,M,M,M,M,M,M,M,M,M,M,M,M,77.00,KHTH 150815Z AUTO 11004KT 10SM CLR 25/02 A3008 RMK A01,M
RTS,2022-07-15 08:15,-119.8764,39.6682,1539.00,64.40,32.00,29.63,300.00,9.00,0.00,30.17,M,10.00,M,CLR,M,M,M,M,M,M,M,M,M,M,M,M,M,M,64.40,KRTS 150815Z AUTO 30009KT 10SM CLR 18/00 A3017 RMK AO2,M
ELY,2022-07-15 08:18,-114.8453,39.2950,1909.00,63.00,55.00,75.11,210.00,12.00,0.00,30.34,M,10.00,M,SCT,M,M,M,11000.00,M,M,M,M,M,M,M,M,M,M,63.00,KELY 150818Z AUTO 21012KT 10SM SCT110 17/13 A3034 RMK AO2 WSHFT 0758 T01720128,M
RTS,2022-07-15 08:30,-119.8764,39.6682,1539.00,62.60,32.00,31.56,300.00,9.00,0.00,30.17,M,10.00,M,CLR,M,M,M,M,M,M,M,M,M,M,M,M,M,M,62.60,KRTS 150830Z AUTO 30009KT 10SM CLR 17/M00 A3017 RMK AO2,M
HTH,2022-07-15 08:35,-118.6315,38.5448,1282.89,78.80,37.40,22.54,230.00,4.00,0.00,30.08,M,10.00,M,CLR,M,M,M,M,M,M,M,M,M,M,M,M,M,M,78.80,KHTH 150835Z AUTO 23004KT 10SM CLR 26/03 A3008 RMK A01,M
BVU,2022-07-15 08:35,-114.8611,35.9475,671.00,M,M,M,M,M,0.00,M,M,M,M,M,M,M,M,M,M,M,M,M,M,M,M,M,M,M,M,KBVU 150835Z AUTO RMK AO2 PNO PWINO TSNO,M
05U,2022-07-15 08:35,-116.0051,39.6042,1811.23,71.60,51.80,49.64,140.00,16.00,0.00,30.24,M,10.00,M,FEW,M,M,M,12000.00,M,M,M,M,M,M,M,M,M,M,71.60,K05U 150835Z AUTO 14016KT 10SM FEW120 22/11 A3024 RMK A01,M
MEV,2022-07-15 08:35,-119.7500,38.9963,1441.42,59.00,42.80,54.86,130.00,5.00,0.00,30.13,M,10.00,M,CLR,M,M,M,M,M,M,M,M,M,M,M,M,M,M,59.00,KMEV 150835Z AUTO 13005KT 10SM CLR 15/06 A3013 RMK AO2,M
BAM,2022-07-15 08:35,-116.8743,40.5990,1382.36,M,M,M,180.00,4.00,0.00,30.08,M,10.00,M,CLR,M,M,M,M,M,M,M,M,M,M,M,M,M,M,M,KBAM 150835Z AUTO 18004KT 10SM CLR A3008 RMK AO1,M
TMT,2022-07-15 08:35,-117.1971,39.4643,1749.34,64.60,32.70,30.27,0.00,0.00,0.00,30.20,M,10.00,M,CLR,M,M,M,M,M,M,M,M,M,M,M,M,M,M,64.60,KTMT 150835Z AUTO 00000KT 10SM CLR 18/00 A3020 RMK AO2 T01810004,M
ELY,2022-07-15 08:53,-114.8453,39.2950,1909.00,62.00,55.00,77.53,190.00,11.00,0.00,30.33,1015.50,10.00,M,CLR,M,M,M,M,M,M,M,M,M,M,M,M,M,M,62.10,KELY 150853Z AUTO 19011KT 10SM CLR 17/13 A3033 RMK AO2 WSHFT 0758 SLP155 60000 T01670128 53002,M
P68,2022-07-15 08:53,-116.0056,39.6014,1993.00,73.00,47.00,39.43,150.00,13.00,0.00,30.22,1012.70,M,20.00,M,M,M,M,M,M,M,M,M,M,M,M,33.00,150.00,2022-07-15 08:02,73.00,KP68 150853Z AUTO 15013G20KT 23/08 A3022 RMK AO1 PK WND 15033/0802 SLP127 T02280083 51014,M
VGT,2022-07-15 08:53,-115.1933,36.2111,667.00,83.00,63.00,51.10,170.00,6.00,0.00,30.03,1015.50,10.00,M,CLR,M,M,M,M,M,M,M,M,M,M,M,M,M,M,83.98,KVGT 150853Z AUTO 17006KT 10SM CLR 28/17 A3003 RMK AO2 SLP155 T02830172 53004,M
LOL,2022-07-15 08:53,-118.5701,40.0684,1192.43,69.00,24.10,18.21,0.00,0.00,0.00,30.05,1012.70,10.00,M,CLR,M,M,M,M,M,M,M,M,M,M,M,M,M,M,69.10,KLOL 150853Z AUTO 00000KT 10SM CLR 21/M04 A3005 RMK AO2 SLP127 T02061044 51010,M
DRA,2022-07-15 08:53,-116.0278,36.6206,1009.00,82.00,55.00,39.52,100.00,14.00,T,30.09,1012.70,10.00,21.00,FEW,SCT,M,M,10000.00,12000.00,M,M,M,M,M,M,M,M,M,81.40,KDRA 150853Z AUTO 10014G21KT 10SM FEW100 SCT120 28/13 A3009 RMK AO2 RAE0754 SLP127 P0000 60000 T02780128 53017,M
BAM,2022-07-15 08:55,-116.8743,40.5990,1382.36,M,M,M,180.00,4.00,0.00,30.08,M,10.00,M,CLR,M,M,M,M,M,M,M,M,M,M,M,M,M,M,M,KBAM 150855Z AUTO 18004KT 10SM CLR A3008 RMK AO1,M
RNO,2022-07-15 08:55,-119.7711,39.4839,1341.00,69.00,40.00,34.43,60.00,3.00,0.00,30.11,1013.30,10.00,M,FEW,M,M,M,10000.00,M,M,M,M,M,M,M,M,M,M,69.10,KRNO 150855Z 06003KT 10SM FEW100 21/04 A3011 RMK AO2 SLP133 T02060044 51005,M
HTH,2022-07-15 08:55,-118.6315,38.5448,1282.89,78.80,39.20,24.19,0.00,0.00,0.00,30.08,M,10.00,M,CLR,M,M,M,M,M,M,M,M,M,M,M,M,M,M,78.80,KHTH 150855Z AUTO 00000KT 10SM CLR 26/04 A3008 RMK A01,M
BVU,2022-07-15 08:55,-114.8611,35.9475,671.00,M,M,M,M,M,0.00,M,M,M,M,M,M,M,M,M,M,M,M,M,M,M,M,M,M,M,M,KBVU 150855Z AUTO RMK AO2 PNO PWINO TSNO,M
TMT,2022-07-15 08:55,-117.1971,39.4643,1749.34,61.00,31.80,33.13,90.00,7.00,0.00,30.21,M,10.00,M,CLR,M,M,M,M,M,M,M,M,M,M,M,M,M,M,61.00,KTMT 150855Z AUTO 09007KT 10SM CLR 16/00 A3021 RMK AO2 T01611001,M
RTS,2022-07-15 08:55,-119.8764,39.6682,1539.00,62.60,32.00,31.56,290.00,11.00,0.00,30.17,M,10.00,M,CLR,M,M,M,M,M,M,M,M,M,M,M,M,M,M,62.60,KRTS 150855Z AUTO 29011KT 10SM CLR 17/00 A3017 RMK AO2,M
05U,2022-07-15 08:55,-116.0051,39.6042,1811.23,71.60,48.20,43.42,140.00,9.00,0.00,30.24,M,10.00,17.00,SCT,M,M,M,12000.00,M,M,M,M,M,M,M,M,M,M,71.60,K05U 150855Z AUTO 14009G17KT 10SM SCT120 22/09 A3024 RMK A01,M
MEV,2022-07-15 08:55,-119.7500,38.9963,1441.42,59.00,42.80,54.86,0.00,0.00,0.00,30.13,M,10.00,M,CLR,M,M,M,M,M,M,M,M,M,M,M,M,M,M,59.00,KMEV 150855Z AUTO 00000KT 10SM CLR 15/06 A3013 RMK AO2,M
TPH,2022-07-15 08:56,-117.0904,38.0505,1654.00,75.00,53.00,46.44,120.00,9.00,0.00,30.21,1012.70,10.00,M,CLR,M,M,M,M,M,M,M,M,M,M,M,M,M,M,75.00,KTPH 150856Z AUTO 12009KT 10SM CLR 24/12 A3021 RMK AO2 SLP127 T02390117 51010,M
EKO,2022-07-15 08:56,-115.7860,40.8242,1367.00,79.00,46.00,31.21,180.00,16.00,0.00,30.10,1011.10,10.00,32.00,CLR,M,M,M,M,M,M,M,M,M,M,M,34.00,190.00,2022-07-15 08:29,79.00,KEKO 150856Z AUTO 18016G32KT 10SM CLR 26/08 A3010 RMK AO2 PK WND 19034/0829 SLP111 T02610078 51008,M
LAS,2022-07-15 08:56,-115.1634,36.0719,663.00,81.00,65.00,58.10,250.00,3.00,0.00,30.04,1014.20,10.00,M,FEW,BKN,M,M,11000.00,16000.00,M,M,M,M,M,M,M,M,M,82.79,KLAS 150856Z 25003KT 10SM FEW110 BKN160 27/18 A3004 RMK AO2 SLP142 T02720183 53004,M
HND,2022-07-15 08:56,-115.1344,35.9729,742.79,80.00,62.00,54.23,320.00,3.00,0.00,30.08,1016.70,10.00,M,CLR,M,M,M,M,M,M,M,M,M,M,M,M,M,M,81.31,KHND 150856Z AUTO 32003KT 10SM CLR 27/17 A3008 RMK AO2 SLP167 T02670167 53004,M
WMC,2022-07-15 08:56,-117.8072,40.9019,1315.00,68.00,25.00,19.63,80.00,5.00,0.00,30.07,1012.40,10.00,M,CLR,M,M,M,M,M,M,M,M,M,M,M,M,M,M,68.00,KWMC 150856Z AUTO 08005KT 10SM CLR 20/M04 A3007 RMK AO2 SLP124 T02001039 51009 TSNO,M
NFL,2022-07-15 08:56,-118.7010,39.4166,1199.00,72.00,30.00,21.04,250.00,4.00,0.00,30.06,1014.80,10.00,M,CLR,M,M,M,M,M,M,M,M,M,M,M,M,M,M,72.00,KNFL 150856Z AUTO 25004KT 10SM CLR 22/M01 A3006 RMK AO2 SLP148 T02221011 51009,M
LSV,2022-07-15 08:58,-115.0343,36.2362,570.00,80.60,67.60,64.64,90.00,7.00,0.00,30.00,1013.00,10.00,M,BKN,OVC,M,M,14000.00,17000.00,M,M,M,M,M,M,M,M,M,83.17,KLSV 150858Z AUTO 09007KT 10SM BKN140 OVC170 27/20 A3000 RMK AO2 SLP130 T02700198 50003 $,M
INS,2022-07-15 08:58,-115.6733,36.5872,955.00,82.80,53.00,35.93,80.00,7.00,0.00,30.09,1013.20,10.00,M,BKN,OVC,M,M,10000.00,14000.00,M,M,M,M,M,M,M,M,M,81.66,KINS 150858Z AUTO 08007KT 10SM BKN100 OVC140 28/12 A3009 RMK AO2 SLP132 T02820117 52021 $,M
BAM,2022-07-15 09:15,-116.8743,40.5990,1382.36,M,M,M,180.00,6.00,0.00,30.09,M,10.00,M,CLR,M,M,M,M,M,M,M,M,M,M,M,M,M,M,M,KBAM 150915Z AUTO 18006KT 10SM CLR A3009 RMK AO1,M
MEV,2022-07-15 09:15,-119.7500,38.9963,1441.42,59.00,42.80,54.86,0.00,0.00,0.00,30.12,M,10.00,M,CLR,M,M,M,M,M,M,M,M,M,M,M,M,M,M,59.00,KMEV 150915Z AUTO 00000KT 10SM CLR 15/06 A3012 RMK AO2,M
TMT,2022-07-15 09:15,-117.1971,39.4643,1749.34,59.20,32.00,35.61,110.00,7.00,0.00,30.21,M,10.00,M,CLR,M,M,M,M,M,M,M,M,M,M,M,M,M,M,59.20,KTMT 150915Z AUTO 11007KT 10SM CLR 15/00 A3021 RMK AO2 T01510000,M
RTS,2022-07-15 09:15,-119.8764,39.6682,1539.00,66.20,32.00,27.83,290.00,9.00,0.00,30.17,M,10.00,M,CLR,M,M,M,M,M,M,M,M,M,M,M,M,M,M,66.20,KRTS 150915Z AUTO 29009KT 10SM CLR 19/00 A3017 RMK AO2,M
BVU,2022-07-15 09:15,-114.8611,35.9475,671.00,M,M,M,M,M,0.00,M,M,M,M,M,M,M,M,M,M,M,M,M,M,M,M,M,M,M,M,KBVU 150915Z AUTO RMK AO2 PNO PWINO TSNO,M
05U,2022-07-15 09:15,-116.0051,39.6042,1811.23,73.40,46.40,38.18,160.00,11.00,0.00,30.24,M,10.00,18.00,OVC,M,M,M,11000.00,M,M,M,M,M,M,M,M,M,M,73.40,K05U 150915Z AUTO 16011G18KT 10SM OVC110 23/08 A3024 RMK A01,M
HTH,2022-07-15 09:15,-118.6315,38.5448,1282.89,78.80,37.40,22.54,0.00,0.00,0.00,30.09,M,10.00,M,CLR,M,M,M,M,M,M,M,M,M,M,M,M,M,M,78.80,KHTH 150915Z AUTO 00000KT 10SM CLR 26/03 A3009 RMK A01,M
RTS,2022-07-15 09:35,-119.8764,39.6682,1539.00,66.20,32.00,27.83,0.00,0.00,0.00,30.17,M,10.00,10.00,CLR,M,M,M,M,M,M,M,M,M,M,M,M,M,M,66.20,KRTS 150935Z AUTO 00000G10KT 10SM CLR 19/M00 A3017 RMK AO2,M
BAM,2022-07-15 09:35,-116.8743,40.5990,1382.36,M,M,M,180.00,3.00,0.00,30.09,M,10.00,M,CLR,M,M,M,M,M,M,M,M,M,M,M,M,M,M,M,KBAM 150935Z AUTO 18003KT 10SM CLR A3009 RMK AO1,M
TMT,2022-07-15 09:35,-117.1971,39.4643,1749.34,60.30,35.00,38.46,140.00,7.00,0.00,30.22,M,10.00,M,CLR,M,M,M,M,M,M,M,M,M,M,M,M,M,M,60.30,KTMT 150935Z AUTO 14007KT 10SM CLR 16/02 A3022 RMK AO2 T01570016,M
BVU,2022-07-15 09:35,-114.8611,35.9475,671.00,M,M,M,M,M,0.00,M,M,M,M,M,M,M,M,M,M,M,M,M,M,M,M,M,M,M,M,KBVU 150935Z AUTO RMK AO2 PNO PWINO TSNO,M
MEV,2022-07-15 09:35,-119.7500,38.9963,1441.42,59.00,41.00,51.18,M,3.00,0.00,30.13,M,10.00,M,CLR,M,M,M,M,M,M,M,M,M,M,M,M,M,M,59.00,KMEV 150935Z AUTO VRB03KT 10SM CLR 15/05 A3013 RMK AO2,M
05U,2022-07-15 09:35,-116.0051,39.6042,1811.23,71.60,48.20,43.42,180.00,16.00,0.00,30.24,M,10.00,27.00,BKN,M,M,M,11000.00,M,M,M,M,M,M,M,M,M,M,71.60,K05U 150935Z AUTO 18016G27KT 10SM BKN110 22/09 A3024 RMK A01,M
HTH,2022-07-15 09:35,-118.6315,38.5448,1282.89,77.00,39.20,25.67,40.00,3.00,0.00,30.09,M,10.00,M,SCT,M,M,M,12000.00,M,M,M,M,M,M,M,M,M,M,77.00,KHTH 150935Z AUTO 04003KT 10SM SCT120 25/04 A3009 RMK A01,M
VGT,2022-07-15 09:53,-115.1933,36.2111,667.00,84.00,63.00,49.32,230.00,6.00,0.00,30.03,1015.50,10.00,M,CLR,M,M,M,M,M,M,M,M,M,M,M,M,M,M,84.99,KVGT 150953Z AUTO 23006KT 10SM CLR 29/17 A3003 RMK AO2 SLP155 T02890172,M
DRA,2022-07-15 09:53,-116.0278,36.6206,1009.00,77.00,61.00,57.77,130.00,16.00,T,30.06,1011.90,10.00,28.00,FEW,BKN,M,M,8000.00,11000.00,M,M,M,M,M,M,28.00,110.00,2022-07-15 09:45,77.00,KDRA 150953Z AUTO 13016G28KT 10SM FEW080 BKN110 25/16 A3006 RMK AO2 PK WND 11028/0945 RAB30E50 SLP119 P0000 T02500161,M
ELY,2022-07-15 09:53,-114.8453,39.2950,1909.00,62.00,54.00,74.75,210.00,11.00,0.00,30.30,1014.20,10.00,M,FEW,M,M,M,12000.00,M,M,M,M,M,M,M,M,M,M,62.10,KELY 150953Z AUTO 21011KT 10SM FEW120 17/12 A3030 RMK AO2 SLP142 T01670122,M
LOL,2022-07-15 09:53,-118.5701,40.0684,1192.43,60.00,26.10,27.10,M,3.00,0.00,30.07,1013.70,10.00,M,CLR,M,M,M,M,M,M,M,M,M,M,M,M,M,M,60.10,KLOL 150953Z AUTO VRB03KT 10SM CLR 16/M03 A3007 RMK AO2 SLP137 T01561033,M
P68,2022-07-15 09:53,-116.0056,39.6014,1993.00,70.00,48.00,45.50,180.00,19.00,0.00,30.21,1012.90,M,30.00,M,M,M,M,M,M,M,M,M,M,M,M,32.00,170.00,2022-07-15 09:25,70.00,KP68 150953Z AUTO 18019G30KT 21/09 A3021 RMK AO1 PK WND 17032/0925 SLP129 T02110089,M
BAM,2022-07-15 09:55,-116.8743,40.5990,1382.36,M,M,M,220.00,4.00,0.00,30.10,M,10.00,M,CLR,M,M,M,M,M,M,M,M,M,M,M,M,M,M,M,KBAM 150955Z AUTO 22004KT 10SM CLR A3010 RMK AO1,M
RNO,2022-07-15 09:55,-119.7711,39.4839,1341.00,66.00,40.00,38.32,190.00,3.00,0.00,30.12,1013.30,10.00,M,FEW,M,M,M,10000.00,M,M,M,M,M,M,M,M,M,M,66.00,KRNO 150955Z 19003KT 10SM FEW100 19/04 A3012 RMK AO2 SLP133 T01890044,M
BVU,2022-07-15 09:55,-114.8611,35.9475,671.00,M,M,M,M,M,0.00,M,M,M,M,M,M,M,M,M,M,M,M,M,M,M,M,M,M,M,M,KBVU 150955Z AUTO RMK AO2 PNO PWINO TSNO,M
RTS,2022-07-15 09:55,-119.8764,39.6682,1539.00,68.00,32.00,26.15,260.00,5.00,0.00,30.17,M,10.00,M,CLR,M,M,M,M,M,M,M,M,M,M,M,M,M,M,68.00,KRTS 150955Z AUTO 26005KT 10SM CLR 20/M00 A3017 RMK AO2,M
05U,2022-07-15 09:55,-116.0051,39.6042,1811.23,69.80,48.20,46.16,180.00,15.00,0.00,30.24,M,10.00,22.00,CLR,M,M,M,M,M,M,M,M,M,M,M,M,M,M,69.80,K05U 150955Z AUTO 18015G22KT 10SM CLR 21/09 A3024 RMK A01,M
MEV,2022-07-15 09:55,-119.7500,38.9963,1441.42,59.00,41.00,51.18,M,4.00,0.00,30.13,M,10.00,M,CLR,M,M,M,M,M,M,M,M,M,M,M,M,M,M,59.00,KMEV 150955Z AUTO VRB04KT 10SM CLR 15/05 A3013 RMK AO2,M
HTH,2022-07-15 09:55,-118.6315,38.5448,1282.89,75.20,37.40,25.40,0.00,0.00,0.00,30.09,M,10.00,M,FEW,M,M,M,12000.00,M,M,M,M,M,M,M,M,M,M,75.20,KHTH 150955Z AUTO 00000KT 10SM FEW120 24/03 A3009 RMK A01,M
TMT,2022-07-15 09:55,-117.1971,39.4643,1749.34,63.50,35.40,35.04,90.00,4.00,0.00,30.22,M,10.00,M,CLR,M,M,M,M,M,M,M,M,M,M,M,M,M,M,63.50,KTMT 150955Z AUTO 09004KT 10SM CLR 18/02 A3022 RMK AO2 T01750019,M
EKO,2022-07-15 09:56,-115.7860,40.8242,1367.00,77.00,48.00,35.95,190.00,15.00,0.00,30.12,1012.00,10.00,25.00,CLR,M,M,M,M,M,M,M,M,M,M,M,31.00,170.00,2022-07-15 09:06,77.00,KEKO 150956Z AUTO 19015G25KT 10SM CLR 25/09 A3012 RMK AO2 PK WND 17031/0906 SLP120 T02500089,M
LAS,2022-07-15 09:56,-115.1634,36.0719,663.00,82.00,64.00,54.50,260.00,5.00,0.00,30.04,1014.10,10.00,M,FEW,BKN,M,M,12000.00,16000.00,M,M,M,M,M,M,M,M,M,83.47,KLAS 150956Z 26005KT 10SM FEW120 BKN160 28/18 A3004 RMK AO2 SLP141 T02780178,M
TPH,2022-07-15 09:56,-117.0904,38.0505,1654.00,73.00,55.00,53.23,100.00,15.00,0.00,30.23,1013.40,10.00,M,CLR,M,M,M,M,M,M,M,M,M,M,M,26.00,100.00,2022-07-15 09:44,73.00,KTPH 150956Z AUTO 10015KT 10SM CLR 23/13 A3023 RMK AO2 PK WND 10026/0944 SLP134 T02280128,M
HND,2022-07-15 09:56,-115.1344,35.9729,742.79,81.00,63.00,54.36,260.00,3.00,0.00,30.08,1016.90,10.00,M,CLR,M,M,M,M,M,M,M,M,M,M,M,M,M,M,82.28,KHND 150956Z AUTO 26003KT 10SM CLR 27/17 A3008 RMK AO2 SLP169 T02720172,M
NFL,2022-07-15 09:56,-118.7010,39.4166,1199.00,67.00,28.90,23.95,170.00,3.00,0.00,30.06,1014.80,10.00,M,CLR,M,M,M,M,M,M,M,M,M,M,M,M,M,M,66.90,KNFL 150956Z AUTO 17003KT 10SM CLR 19/M02 A3006 RMK AO2 SLP148 T01941017,M
WMC,2022-07-15 09:56,-117.8072,40.9019,1315.00,70.00,24.10,17.66,M,M,0.00,30.09,1012.60,10.00,M,CLR,M,M,M,M,M,M,M,M,M,M,M,M,M,M,70.00,KWMC 150956Z AUTO 10SM CLR 21/M04 A3009 RMK AO2 SLP126 T02111044 TSNO,M
INS,2022-07-15 09:58,-115.6733,36.5872,955.00,79.20,59.40,50.75,120.00,13.00,0.00,30.09,1013.40,10.00,M,BKN,OVC,M,M,11000.00,13000.00,M,M,M,M,M,M,M,M,M,79.20,KINS 150958Z AUTO 12013KT 10SM BKN110 OVC130 26/15 A3009 RMK AO2 SLP134 T02620152 $,M
LSV,2022-07-15 09:58,-115.0343,36.2362,570.00,80.40,66.20,61.99,60.00,3.00,0.00,30.01,1013.40,10.00,M,SCT,M,M,M,17000.00,M,M,M,M,M,M,M,M,M,M,82.54,KLSV 150958Z AUTO 06003KT 10SM SCT170 27/19 A3001 RMK AO2 SLP134 T02690190 $,M
MEV,2022-07-15 10:15,-119.7500,38.9963,1441.42,57.20,42.80,58.52,0.00,0.00,0.00,30.13,M,10.00,M,CLR,M,M,M,M,M,M,M,M,M,M,M,M,M,M,57.20,KMEV 151015Z AUTO 00000KT 10SM CLR 14/06 A3013 RMK AO2,M
TMT,2022-07-15 10:15,-117.1971,39.4643,1749.34,59.70,34.00,37.91,270.00,5.00,0.00,30.22,M,10.00,M,CLR,M,M,M,M,M,M,M,M,M,M,M,M,M,M,59.70,KTMT 151015Z AUTO 27005KT 10SM CLR 15/01 A3022 RMK AO2 T01540011,M
BAM,2022-07-15 10:15,-116.8743,40.5990,1382.36,M,M,M,220.00,6.00,0.00,30.11,M,10.00,M,CLR,M,M,M,M,M,M,M,M,M,M,M,M,M,M,M,KBAM 151015Z AUTO 22006KT 10SM CLR A3011 RMK AO1,M
BVU,2022-07-15 10:15,-114.8611,35.9475,671.00,M,M,M,M,M,0.00,M,M,M,M,M,M,M,M,M,M,M,M,M,M,M,M,M,M,M,M,KBVU 151015Z AUTO RMK AO2 PNO PWINO TSNO,M
RTS,2022-07-15 10:15,-119.8764,39.6682,1539.00,71.60,32.00,23.13,250.00,8.00,0.00,30.17,M,10.00,M,CLR,M,M,M,M,M,M,M,M,M,M,M,M,M,M,71.60,KRTS 151015Z AUTO 25008KT 10SM CLR 22/M00 A3017 RMK AO2,M
05U,2022-07-15 10:15,-116.0051,39.6042,1811.23,69.80,48.20,46.16,170.00,17.00,0.00,30.24,M,10.00,M,CLR,M,M,M,M,M,M,M,M,M,M,M,M,M,M,69.80,K05U 151015Z AUTO 17017KT 10SM CLR 21/09 A3024 RMK A01,M
HTH,2022-07-15 10:15,-118.6315,38.5448,1282.89,75.20,39.20,27.26,0.00,0.00,0.00,30.10,M,10.00,M,FEW,M,M,M,11000.00,M,M,M,M,M,M,M,M,M,M,75.20,KHTH 151015Z AUTO 00000KT 10SM FEW110 24/04 A3010 RMK A01,M
BVU,2022-07-15 10:35,-114.8611,35.9475,671.00,M,M,M,M,M,0.00,M,M,M,M,M,M,M,M,M,M,M,M,M,M,M,M,M,M,M,M,KBVU 151035Z AUTO RMK AO2 PNO PWINO TSNO,M
05U,2022-07-15 10:35,-116.0051,39.6042,1811.23,71.60,44.60,37.89,0.00,0.00,0.00,30.25,M,10.00,11.00,CLR,M,M,M,M,M,M,M,M,M,M,M,M,M,M,71.60,K05U 151035Z AUTO 00000G11KT 10SM CLR 22/07 A3025 RMK A01,M
RTS,2022-07-15 10:35,-119.8764,39.6682,1539.00,73.40,30.20,20.23,280.00,9.00,0.00,30.17,M,10.00,15.00,CLR,M,M,M,M,M,M,M,M,M,M,M,M,M,M,73.40,KRTS 151035Z AUTO 28009G15KT 260V320 10SM CLR 23/M01 A3017 RMK AO2,M
TMT,2022-07-15 10:35,-117.1971,39.4643,1749.34,56.00,33.80,43.11,320.00,5.00,0.00,30.22,M,10.00,M,CLR,M,M,M,M,M,M,M,M,M,M,M,M,M,M,55.90,KTMT 151035Z AUTO 32005KT 10SM CLR 13/01 A3022 RMK AO2 T01330010,M
BAM,2022-07-15 10:35,-116.8743,40.5990,1382.36,M,M,M,220.00,6.00,0.00,30.11,M,10.00,M,CLR,M,M,M,M,M,M,M,M,M,M,M,M,M,M,M,KBAM 151035Z AUTO 22006KT 10SM CLR A3011 RMK AO1,M
HTH,2022-07-15 10:35,-118.6315,38.5448,1282.89,73.40,41.00,31.05,150.00,3.00,0.00,30.10,M,10.00,M,CLR,M,M,M,M,M,M,M,M,M,M,M,M,M,M,73.40,KHTH 151035Z AUTO 15003KT 10SM CLR 23/05 A3010 RMK A01,M
MEV,2022-07-15 10:35,-119.7500,38.9963,1441.42,57.20,42.80,58.52,40.00,3.00,0.00,30.13,M,10.00,M,CLR,M,M,M,M,M,M,M,M,M,M,M,M,M,M,57.20,KMEV 151035Z AUTO 04003KT 10SM CLR 14/06 A3013 RMK AO2,M
P68,2022-07-15 10:53,-116.0056,39.6014,1993.00,70.00,46.00,42.20,140.00,3.00,0.00,30.23,1013.70,M,M,M,M,M,M,M,M,M,M,M,M,M,M,32.00,170.00,2022-07-15 09:56,70.00,KP68 151053Z AUTO 14003KT 21/08 A3023 RMK AO1 PK WND 17032/0956 SLP137 T02110078,M
LOL,2022-07-15 10:53,-118.5701,40.0684,1192.43,61.00,25.00,25.07,30.00,3.00,0.00,30.07,1013.70,10.00,M,CLR,M,M,M,M,M,M,M,M,M,M,M,M,M,M,61.00,KLOL 151053Z AUTO 03003KT 10SM CLR 16/M04 A3007 RMK AO2 SLP137 T01611039,M
ELY,2022-07-15 10:53,-114.8453,39.2950,1909.00,62.00,55.00,77.53,110.00,3.00,0.00,30.33,1015.30,10.00,M,BKN,M,M,M,12000.00,M,M,M,M,M,M,M,M,M,M,62.10,KELY 151053Z AUTO 11003KT 10SM BKN120 17/13 A3033 RMK AO2 SLP153 T01670128,M
DRA,2022-07-15 10:53,-116.0278,36.6206,1009.00,80.00,55.00,42.05,30.00,10.00,0.00,30.08,1012.50,10.00,20.00,CLR,M,M,M,M,M,M,M,M,M,M,M,M,M,M,80.17,KDRA 151053Z AUTO 03010G20KT 10SM CLR 27/13 A3008 RMK AO2 SLP125 T02670128,M
VGT,2022-07-15 10:53,-115.1933,36.2111,667.00,84.00,63.00,49.32,310.00,3.00,0.00,30.03,1015.50,10.00,M,CLR,M,M,M,M,M,M,M,M,M,M,M,M,M,M,84.99,KVGT 151053Z AUTO 31003KT 10SM CLR 29/17 A3003 RMK AO2 SLP155 T02890172,M
BVU,2022-07-15 10:55,-114.8611,35.9475,671.00,M,M,M,M,M,0.00,M,M,M,M,M,M,M,M,M,M,M,M,M,M,M,M,M,M,M,M,KBVU 151055Z AUTO RMK AO2 PNO PWINO TSNO,M
RNO,2022-07-15 10:55,-119.7711,39.4839,1341.00,65.00,41.00,41.55,0.00,0.00,0.00,30.13,1013.90,10.00,M,CLR,M,M,M,M,M,M,M,M,M,M,M,M,M,M,64.90,KRNO 151055Z 00000KT 10SM CLR 18/05 A3013 RMK AO2 SLP139 T01830050,M
05U,2022-07-15 10:55,-116.0051,39.6042,1811.23,69.80,46.40,43.13,0.00,0.00,0.00,30.26,M,10.00,M,CLR,M,M,M,M,M,M,M,M,M,M,M,M,M,M,69.80,K05U 151055Z AUTO 00000KT 10SM CLR 21/08 A3026 RMK A01,M
TMT,2022-07-15 10:55,-117.1971,39.4643,1749.34,53.60,32.00,43.61,200.00,7.00,0.00,30.23,M,10.00,M,CLR,M,M,M,M,M,M,M,M,M,M,M,M,M,M,53.60,KTMT 151055Z AUTO 20007KT 10SM CLR 12/00 A3023 RMK AO2 T01200000,M
MEV,2022-07-15 10:55,-119.7500,38.9963,1441.42,59.00,44.60,58.77,80.00,5.00,0.00,30.13,M,10.00,M,CLR,M,M,M,M,M,M,M,M,M,M,M,M,M,M,59.00,KMEV 151055Z AUTO 08005KT 10SM CLR 15/07 A3013 RMK AO2,M
BAM,2022-07-15 10:55,-116.8743,40.5990,1382.36,M,M,M,240.00,6.00,0.00,30.11,M,10.00,M,CLR,M,M,M,M,M,M,M,M,M,M,M,M,M,M,M,KBAM 151055Z AUTO 24006KT 10SM CLR A3011 RMK AO1,M
RTS,2022-07-15 10:55,-119.8764,39.6682,1539.00,66.20,30.20,25.88,M,5.00,0.00,30.18,M,10.00,M,CLR,M,M,M,M,M,M,M,M,M,M,M,M,M,M,66.20,KRTS 151055Z AUTO VRB05KT 10SM CLR 19/M01 A3018 RMK AO2,M
HTH,2022-07-15 10:55,-118.6315,38.5448,1282.89,75.20,37.40,25.40,200.00,3.00,0.00,30.10,M,10.00,M,CLR,M,M,M,M,M,M,M,M,M,M,M,M,M,M,75.20,KHTH 151055Z AUTO 20003KT 10SM CLR 24/03 A3010 RMK A01,M
WMC,2022-07-15 10:56,-117.8072,40.9019,1315.00,58.00,26.10,29.32,M,3.00,0.00,30.10,1013.50,10.00,M,CLR,M,M,M,M,M,M,M,M,M,M,M,M,M,M,57.90,KWMC 151056Z AUTO VRB03KT 10SM CLR 14/M03 A3010 RMK AO2 SLP135 T01441033 TSNO,M
TPH,2022-07-15 10:56,-117.0904,38.0505,1654.00,70.00,57.00,63.37,100.00,15.00,0.00,30.24,1014.00,10.00,27.00,CLR,M,M,M,M,M,M,M,M,M,M,M,27.00,100.00,2022-07-15 10:47,70.00,KTPH 151056Z AUTO 10015G27KT 10SM CLR 21/14 A3024 RMK AO2 PK WND 10027/1047 SLP140 T02110139,M
EKO,2022-07-15 10:56,-115.7860,40.8242,1367.00,76.00,49.00,38.57,190.00,12.00,0.00,30.14,1012.90,10.00,25.00,CLR,M,M,M,M,M,M,M,M,M,M,M,29.00,160.00,2022-07-15 10:41,75.90,KEKO 151056Z AUTO 19012G25KT 10SM CLR 24/09 A3014 RMK AO2 PK WND 16029/1041 SLP129 T02440094,M
HND,2022-07-15 10:56,-115.1344,35.9729,742.79,78.00,63.00,59.78,170.00,3.00,0.00,30.08,1017.00,10.00,M,CLR,M,M,M,M,M,M,M,M,M,M,M,M,M,M,78.10,KHND 151056Z AUTO 17003KT 10SM CLR 26/17 A3008 RMK AO2 SLP170 T02560172,M
NFL,2022-07-15 10:56,-118.7010,39.4166,1199.00,65.00,36.00,34.17,220.00,4.00,0.00,30.07,1015.20,10.00,M,CLR,M,M,M,M,M,M,M,M,M,M,M,M,M,M,64.90,KNFL 151056Z AUTO 22004KT 10SM CLR 18/02 A3007 RMK AO2 SLP152 T01830022,M
LAS,2022-07-15 10:56,-115.1634,36.0719,663.00,81.00,65.00,58.10,290.00,5.00,0.00,30.03,1014.00,10.00,M,FEW,BKN,M,M,12000.00,16000.00,M,M,M,M,M,M,M,M,M,82.79,KLAS 151056Z 29005KT 10SM FEW120 BKN160 27/18 A3003 RMK AO2 SLP140 T02720183,M
LSV,2022-07-15 10:58,-115.0343,36.2362,570.00,80.20,66.40,62.83,80.00,3.00,0.00,30.01,1013.60,10.00,M,FEW,M,M,M,12000.00,M,M,M,M,M,M,M,M,M,M,82.38,KLSV 151058Z AUTO 08003KT 10SM FEW120 27/19 A3001 RMK AO2 SLP136 T02680191 $,M
INS,2022-07-15 10:58,-115.6733,36.5872,955.00,77.00,61.50,58.80,100.00,10.00,0.00,30.08,1013.00,10.00,M,OVC,M,M,M,16000.00,M,M,M,M,M,M,M,M,M,M,77.00,KINS 151058Z AUTO 10010KT 10SM OVC160 25/16 A3008 RMK AO2 SLP130 T02500164 $,M
RTS,2022-07-15 11:15,-119.8764,39.6682,1539.00,60.80,28.40,29.06,M,3.00,0.00,30.18,M,10.00,11.00,CLR,M,M,M,M,M,M,M,M,M,M,M,M,M,M,60.80,KRTS 151115Z AUTO VRB03G11KT 10SM CLR 16/M02 A3018 RMK AO2,M
BVU,2022-07-15 11:15,-114.8611,35.9475,671.00,M,M,M,M,M,0.00,M,M,M,M,M,M,M,M,M,M,M,M,M,M,M,M,M,M,M,M,KBVU 151115Z AUTO RMK AO2 PNO PWINO TSNO,M
05U,2022-07-15 11:15,-116.0051,39.6042,1811.23,68.00,44.60,42.85,0.00,0.00,0.00,30.27,M,10.00,M,CLR,M,M,M,M,M,M,M,M,M,M,M,M,M,M,68.00,K05U 151115Z AUTO 00000KT 10SM CLR 20/07 A3027 RMK A01,M
MEV,2022-07-15 11:15,-119.7500,38.9963,1441.42,60.80,44.60,55.12,0.00,0.00,0.00,30.14,M,10.00,M,CLR,M,M,M,M,M,M,M,M,M,M,M,M,M,M,60.80,KMEV 151115Z AUTO 00000KT 10SM CLR 16/07 A3014 RMK AO2,M
BAM,2022-07-15 11:15,-116.8743,40.5990,1382.36,M,M,M,240.00,6.00,0.00,30.11,M,10.00,M,CLR,M,M,M,M,M,M,M,M,M,M,M,M,M,M,M,KBAM 151115Z AUTO 24006KT 10SM CLR A3011 RMK AO1,M
HTH,2022-07-15 11:15,-118.6315,38.5448,1282.89,71.60,37.40,28.68,220.00,6.00,0.00,30.11,M,10.00,M,CLR,M,M,M,M,M,M,M,M,M,M,M,M,M,M,71.60,KHTH 151115Z AUTO 22006KT 10SM CLR 22/03 A3011 RMK A01,M
TMT,2022-07-15 11:15,-117.1971,39.4643,1749.34,51.00,31.10,46.11,0.00,0.00,0.00,30.23,M,10.00,M,CLR,M,M,M,M,M,M,M,M,M,M,M,M,M,M,51.10,KTMT 151115Z AUTO 00000KT 10SM CLR 11/00 A3023 RMK AO2 T01061005,M
HTH,2022-07-15 11:35,-118.6315,38.5448,1282.89,73.40,37.40,26.98,230.00,4.00,0.00,30.11,M,10.00,M,CLR,M,M,M,M,M,M,M,M,M,M,M,M,M,M,73.40,KHTH 151135Z AUTO 23004KT 10SM CLR 23/03 A3011 RMK A01,M
BVU,2022-07-15 11:35,-114.8611,35.9475,671.00,M,M,M,M,M,0.00,M,M,M,M,M,M,M,M,M,M,M,M,M,M,M,M,M,M,M,M,KBVU 151135Z AUTO RMK AO2 PNO PWINO TSNO,M
RTS,2022-07-15 11:35,-119.8764,39.6682,1539.00,62.60,28.40,27.27,0.00,0.00,0.00,30.19,M,10.00,M,CLR,M,M,M,M,M,M,M,M,M,M,M,M,M,M,62.60,KRTS 151135Z AUTO 00000KT 10SM CLR 17/M02 A3019 RMK AO2,M
TMT,2022-07-15 11:35,-117.1971,39.4643,1749.34,51.30,32.40,48.23,120.00,4.00,0.00,30.24,M,10.00,M,CLR,M,M,M,M,M,M,M,M,M,M,M,M,M,M,51.30,KTMT 151135Z AUTO 12004KT 10SM CLR 11/00 A3024 RMK AO2 LTG DSNT SE T01070002,M
05U,2022-07-15 11:35,-116.0051,39.6042,1811.23,68.00,46.40,45.88,0.00,0.00,0.00,30.28,M,10.00,M,FEW,M,M,M,12000.00,M,M,M,M,M,M,M,M,M,M,68.00,K05U 151135Z AUTO 00000KT 10SM FEW120 20/08 A3028 RMK A01,M
MEV,2022-07-15 11:35,-119.7500,38.9963,1441.42,55.40,42.80,62.46,260.00,5.00,0.00,30.15,M,10.00,M,FEW,M,M,M,4500.00,M,M,M,M,M,M,M,M,M,M,55.40,KMEV 151135Z AUTO 26005KT 10SM FEW045 13/06 A3015 RMK AO2,M
BAM,2022-07-15 11:35,-116.8743,40.5990,1382.36,M,M,M,160.00,7.00,0.00,30.12,M,10.00,M,CLR,M,M,M,M,M,M,M,M,M,M,M,M,M,M,M,KBAM 151135Z AUTO 16007KT 10SM CLR A3012 RMK AO1,M
TMT,2022-07-15 11:50,-117.1971,39.4643,1749.34,51.30,32.70,48.82,150.00,3.00,0.00,30.24,M,10.00,M,CLR,M,M,M,M,M,M,M,M,M,M,M,M,M,M,51.30,KTMT 151150Z AUTO 15003KT 10SM CLR 11/00 A3024 RMK AO2 LTG DSNT SE T01070004,M
DRA,2022-07-15 11:53,-116.0278,36.6206,1009.00,78.00,58.00,49.87,40.00,12.00,0.00,30.10,1013.20,10.00,M,CLR,M,M,M,M,M,M,M,M,M,M,M,M,M,M,78.10,KDRA 151153Z AUTO 04012KT 10SM CLR 26/14 A3010 RMK AO2 SLP132 60000 T02560144 10306 20244 53003,M
P68,2022-07-15 11:53,-116.0056,39.6014,1993.00,68.00,46.00,45.19,0.00,0.00,0.00,30.26,1014.80,M,M,M,M,M,M,M,M,M,M,M,M,M,M,M,M,M,68.00,KP68 151153Z AUTO 00000KT 20/08 A3026 RMK AO1 SLP148 T02000078 10267 20200 53012,M
VGT,2022-07-15 11:53,-115.1933,36.2111,667.00,82.00,63.00,52.62,0.00,0.00,0.00,30.04,1015.80,10.00,M,CLR,M,M,M,M,M,M,M,M,M,M,M,M,M,M,83.17,KVGT 151153Z AUTO 00000KT 10SM CLR 28/17 A3004 RMK AO2 SLP158 T02780172 10300 20278 53001,M
LOL,2022-07-15 11:53,-118.5701,40.0684,1192.43,60.00,26.10,27.10,90.00,3.00,0.00,30.09,1014.30,10.00,M,CLR,M,M,M,M,M,M,M,M,M,M,M,M,M,M,60.10,KLOL 151153Z AUTO 09003KT 10SM CLR 16/M03 A3009 RMK AO2 SLP143 T01561033 10289 20139 53012,M
ELY,2022-07-15 11:53,-114.8453,39.2950,1909.00,62.00,54.00,74.75,240.00,14.00,0.00,30.31,1014.80,10.00,21.00,CLR,M,M,M,M,M,M,M,M,M,M,M,M,M,M,62.10,KELY 151153Z AUTO 24014G21KT 10SM CLR 17/12 A3031 RMK AO2 SLP148 60000 70001 T01670122 10194 20161 56007,M
RTS,2022-07-15 11:55,-119.8764,39.6682,1539.00,62.60,28.40,27.27,340.00,3.00,0.00,30.19,M,10.00,M,CLR,M,M,M,M,M,M,M,M,M,M,M,M,M,M,62.60,KRTS 151155Z AUTO 34003KT 10SM CLR 17/M02 A3019 RMK AO2,M
05U,2022-07-15 11:55,-116.0051,39.6042,1811.23,66.20,46.40,48.83,0.00,0.00,0.00,30.28,M,10.00,M,CLR,M,M,M,M,M,M,M,M,M,M,M,M,M,M,66.20,K05U 151155Z AUTO 00000KT 10SM CLR 19/08 A3028 RMK A01,M
MEV,2022-07-15 11:55,-119.7500,38.9963,1441.42,57.20,42.80,58.52,0.00,0.00,0.00,30.15,M,10.00,M,SCT,SCT,M,M,4300.00,4900.00,M,M,M,M,M,M,M,M,M,57.20,KMEV 151155Z AUTO 00000KT 10SM SCT043 SCT049 14/06 A3015 RMK AO2,M
BAM,2022-07-15 11:55,-116.8743,40.5990,1382.36,M,M,M,200.00,6.00,0.00,30.12,M,10.00,M,CLR,M,M,M,M,M,M,M,M,M,M,M,M,M,M,M,KBAM 151155Z AUTO 20006KT 10SM CLR A3012 RMK AO1,M
HTH,2022-07-15 11:55,-118.6315,38.5448,1282.89,75.20,41.00,29.23,290.00,4.00,0.00,30.12,M,10.00,M,BKN,M,M,M,11000.00,M,M,M,M,M,M,M,M,M,M,75.20,KHTH 151155Z AUTO 29004KT 10SM BKN110 24/05 A3012 RMK A01,M
RNO,2022-07-15 11:55,-119.7711,39.4839,1341.00,66.00,41.00,39.99,0.00,0.00,0.00,30.15,1014.40,10.00,M,FEW,M,M,M,12000.00,M,M,M,M,M,M,M,M,M,M,66.00,KRNO 151155Z 00000KT 10SM FEW120 19/05 A3015 RMK AO2 SLP144 T01890050 10256 20172 53010,M
BVU,2022-07-15 11:55,-114.8611,35.9475,671.00,M,M,M,M,M,0.00,M,M,M,M,M,M,M,M,M,M,M,M,M,M,M,M,M,M,M,M,KBVU 151155Z AUTO RMK AO2 PNO PWINO TSNO,M
TPH,2022-07-15 11:56,-117.0904,38.0505,1654.00,69.00,56.00,62.80,110.00,15.00,0.00,30.25,1014.80,10.00,M,CLR,M,M,M,M,M,M,M,M,M,M,M,M,M,M,69.10,KTPH 151156Z AUTO 11015KT 10SM CLR 21/13 A3025 RMK AO2 SLP148 T02060133 10278 20206 51013,M
HND,2022-07-15 11:56,-115.1344,35.9729,742.79,77.00,62.00,60.06,0.00,0.00,0.00,30.08,1017.30,10.00,M,SCT,M,M,M,12000.00,M,M,M,M,M,M,M,M,M,M,77.00,KHND 151156Z AUTO 00000KT 10SM SCT120 25/17 A3008 RMK AO2 SLP173 T02500167 10272 20250 53002,M
LAS,2022-07-15 11:56,-115.1634,36.0719,663.00,81.00,64.00,56.30,100.00,4.00,0.00,30.04,1014.60,10.00,M,FEW,SCT,BKN,M,12000.00,16000.00,22000.00,M,M,M,M,M,M,M,M,82.54,KLAS 151156Z 10004KT 10SM FEW120 SCT160 BKN220 27/18 A3004 RMK AO2 SLP146 70001 T02720178 10283 20267 53000,M
NFL,2022-07-15 11:56,-118.7010,39.4166,1199.00,67.00,30.90,25.98,210.00,5.00,0.00,30.10,1015.80,10.00,M,FEW,M,M,M,12000.00,M,M,M,M,M,M,M,M,M,M,66.90,KNFL 151156Z AUTO 21005KT 10SM FEW120 19/M01 A3010 RMK AO2 SLP158 T01941006 10261 20161 53011,M
WMC,2022-07-15 11:56,-117.8072,40.9019,1315.00,57.00,23.00,26.61,150.00,5.00,0.00,30.11,1014.00,10.00,M,CLR,M,M,M,M,M,M,M,M,M,M,M,M,M,M,57.00,KWMC 151156Z AUTO 15005KT 10SM CLR 14/M05 A3011 RMK AO2 SLP140 T01391050 10256 20128 51010 TSNO,M
EKO,2022-07-15 11:56,-115.7860,40.8242,1367.00,75.00,48.00,38.43,190.00,14.00,0.00,30.16,1013.70,10.00,20.00,CLR,M,M,M,M,M,M,M,M,M,M,M,26.00,180.00,2022-07-15 11:08,75.00,KEKO 151156Z AUTO 19014G20KT 10SM CLR 24/09 A3016 RMK AO2 PK WND 18026/1108 SLP137 T02390089 10272 20211 52018,M
LSV,2022-07-15 11:58,-115.0343,36.2362,570.00,78.00,67.80,70.66,70.00,5.00,0.00,30.02,1014.10,10.00,M,CLR,M,M,M,M,M,M,M,M,M,M,M,M,M,M,78.10,KLSV 151158Z AUTO 07005KT 10SM CLR 26/20 A3002 RMK AO2 SLP141 70002 T02560199 10272 20256 52005 $,M
INS,2022-07-15 11:58,-115.6733,36.5872,955.00,79.50,55.60,43.83,70.00,6.00,0.00,30.11,1014.10,10.00,M,FEW,M,M,M,16000.00,M,M,M,M,M,M,M,M,M,M,79.50,KINS 151158Z AUTO 07006KT 10SM FEW160 26/13 A3011 RMK AO2 SLP141 T02640131 10296 20248 53006 $,M
BVU,2022-07-15 12:15,-114.8611,35.9475,671.00,M,M,M,M,M,0.00,M,M,M,M,M,M,M,M,M,M,M,M,M,M,M,M,M,M,M,M,KBVU 151215Z AUTO RMK AO2 PNO PWINO TSNO,M
05U,2022-07-15 12:15,-116.0051,39.6042,1811.23,68.00,48.20,49.10,0.00,0.00,0.00,30.29,M,10.00,10.00,CLR,M,M,M,M,M,M,M,M,M,M,M,M,M,M,68.00,K05U 151215Z AUTO 00000G10KT 10SM CLR 20/09 A3029 RMK A01,M
RTS,2022-07-15 12:15,-119.8764,39.6682,1539.00,57.20,26.60,30.69,360.00,7.00,0.00,30.19,M,10.00,M,CLR,M,M,M,M,M,M,M,M,M,M,M,M,M,M,57.20,KRTS 151215Z AUTO 36007KT 10SM CLR 14/M03 A3019 RMK AO2,M
TMT,2022-07-15 12:15,-117.1971,39.4643,1749.34,51.00,31.60,47.40,0.00,0.00,0.00,30.24,M,10.00,M,CLR,M,M,M,M,M,M,M,M,M,M,M,M,M,M,50.90,KTMT 151215Z AUTO 00000KT 10SM CLR 11/00 A3024 RMK AO2 T01051002,M
HTH,2022-07-15 12:15,-118.6315,38.5448,1282.89,71.60,39.20,30.77,0.00,0.00,0.00,30.13,M,10.00,M,BKN,M,M,M,11000.00,M,M,M,M,M,M,M,M,M,M,71.60,KHTH 151215Z AUTO 00000KT 10SM BKN110 22/04 A3013 RMK A01,M
BAM,2022-07-15 12:15,-116.8743,40.5990,1382.36,M,M,M,170.00,5.00,0.00,30.13,M,10.00,M,CLR,M,M,M,M,M,M,M,M,M,M,M,M,M,M,M,KBAM 151215Z AUTO 17005KT 10SM CLR A3013 RMK AO1,M
MEV,2022-07-15 12:15,-119.7500,38.9963,1441.42,51.80,39.20,61.99,0.00,0.00,0.00,30.16,M,10.00,M,SCT,SCT,M,M,4200.00,5000.00,M,M,M,M,M,M,M,M,M,51.80,KMEV 151215Z AUTO 00000KT 10SM SCT042 SCT050 11/04 A3016 RMK AO2,M
TMT,2022-07-15 12:35,-117.1971,39.4643,1749.34,50.50,31.80,48.50,0.00,0.00,0.00,30.25,M,10.00,M,CLR,M,M,M,M,M,M,M,M,M,M,M,M,M,M,50.50,KTMT 151235Z AUTO 00000KT 10SM CLR 10/00 A3025 RMK AO2 T01031001,M
BVU,2022-07-15 12:35,-114.8611,35.9475,671.00,M,M,M,M,M,0.00,M,M,M,M,M,M,M,M,M,M,M,M,M,M,M,M,M,M,M,M,KBVU 151235Z AUTO RMK AO2 PNO PWINO TSNO,M
HTH,2022-07-15 12:35,-118.6315,38.5448,1282.89,73.40,41.00,31.05,0.00,0.00,0.00,30.13,M,10.00,M,BKN,M,M,M,11000.00,M,M,M,M,M,M,M,M,M,M,73.40,KHTH 151235Z AUTO 00000KT 10SM BKN110 23/05 A3013 RMK A01,M
05U,2022-07-15 12:35,-116.0051,39.6042,1811.23,68.00,50.00,52.51,170.00,5.00,0.00,30.29,M,10.00,11.00,CLR,M,M,M,M,M,M,M,M,M,M,M,M,M,M,68.00,K05U 151235Z AUTO 17005G11KT 10SM CLR 20/10 A3029 RMK A01,M
RTS,2022-07-15 12:35,-119.8764,39.6682,1539.00,57.20,26.60,30.69,M,3.00,0.00,30.20,M,10.00,M,CLR,M,M,M,M,M,M,M,M,M,M,M,M,M,M,57.20,KRTS 151235Z AUTO VRB03KT 10SM CLR 14/M03 A3020 RMK AO2,M
MEV,2022-07-15 12:35,-119.7500,38.9963,1441.42,51.80,42.80,71.26,0.00,0.00,0.00,30.16,M,10.00,M,FEW,FEW,M,M,4100.00,5000.00,M,M,M,M,M,M,M,M,M,51.80,KMEV 151235Z AUTO 00000KT 10SM FEW041 FEW050 11/06 A3016 RMK AO2,M
BAM,2022-07-15 12:35,-116.8743,40.5990,1382.36,M,M,M,200.00,5.00,0.00,30.13,M,10.00,M,CLR,M,M,M,M,M,M,M,M,M,M,M,M,M,M,M,KBAM 151235Z AUTO 20005KT 10SM CLR A3013 RMK AO1,M
05U,2022-07-15 12:50,-116.0051,39.6042,1811.23,68.00,48.20,49.10,M,6.00,0.00,30.30,M,10.00,14.00,CLR,M,M,M,M,M,M,M,M,M,M,M,M,M,M,68.00,K05U 151250Z AUTO VRB06G14KT 10SM CLR 20/09 A3030 RMK A01,M
DRA,2022-07-15 12:53,-116.0278,36.6206,1009.00,77.00,60.00,55.95,100.00,6.00,0.00,30.14,1014.90,10.00,M,CLR,M,M,M,M,M,M,M,M,M,M,M,M,M,M,77.00,KDRA 151253Z AUTO 10006KT 10SM CLR 25/16 A3014 RMK AO2 SLP149 T02500156 $,M
LOL,2022-07-15 12:53,-118.5701,40.0684,1192.43,56.00,26.10,31.51,0.00,0.00,0.00,30.11,1015.20,10.00,M,FEW,M,M,M,12000.00,M,M,M,M,M,M,M,M,M,M,55.90,KLOL 151253Z AUTO 00000KT 10SM FEW120 13/M03 A3011 RMK AO2 SLP152 T01331033,M
VGT,2022-07-15 12:53,-115.1933,36.2111,667.00,83.00,64.00,52.93,0.00,0.00,0.00,30.05,1016.40,10.00,M,CLR,M,M,M,M,M,M,M,M,M,M,M,M,M,M,84.32,KVGT 151253Z 00000KT 10SM CLR 28/18 A3005 RMK AO2 SLP164 T02830178,M
ELY,2022-07-15 12:53,-114.8453,39.2950,1909.00,62.00,53.00,72.33,130.00,6.00,0.00,30.34,1016.00,10.00,M,CLR,M,M,M,M,M,M,M,M,M,M,M,M,M,M,62.10,KELY 151253Z AUTO 13006KT 10SM CLR 17/12 A3034 RMK AO2 SLP160 T01670117,M
P68,2022-07-15 12:53,-116.0056,39.6014,1993.00,69.00,49.00,48.53,180.00,11.00,0.00,30.27,1015.20,M,18.00,M,M,M,M,M,M,M,M,M,M,M,M,M,M,M,69.10,KP68 151253Z AUTO 18011G18KT 21/09 A3027 RMK AO1 SLP152 T02060094,M
TMT,2022-07-15 12:55,-117.1971,39.4643,1749.34,55.40,34.70,45.50,0.00,0.00,0.00,30.25,M,10.00,M,CLR,M,M,M,M,M,M,M,M,M,M,M,M,M,M,55.40,KTMT 151255Z AUTO 00000KT 10SM CLR 13/02 A3025 RMK AO2 T01300015,M
MEV,2022-07-15 12:55,-119.7500,38.9963,1441.42,51.80,41.00,66.48,0.00,0.00,0.00,30.17,M,10.00,M,CLR,M,M,M,M,M,M,M,M,M,M,M,M,M,M,51.80,KMEV 151255Z AUTO 00000KT 10SM CLR 11/05 A3017 RMK AO2,M
BAM,2022-07-15 12:55,-116.8743,40.5990,1382.36,M,M,M,170.00,6.00,0.00,30.13,M,10.00,M,CLR,M,M,M,M,M,M,M,M,M,M,M,M,M,M,M,KBAM 151255Z AUTO 17006KT 10SM CLR A3013 RMK AO1,M
HTH,2022-07-15 12:55,-118.6315,38.5448,1282.89,71.60,39.20,30.77,0.00,0.00,0.00,30.14,M,8.00,M,BKN,M,M,M,12000.00,M,M,M,M,M,M,M,M,M,M,71.60,KHTH 151255Z AUTO 00000KT 8SM BKN120 22/04 A3014 RMK A01,M
RTS,2022-07-15 12:55,-119.8764,39.6682,1539.00,60.80,28.40,29.06,0.00,0.00,0.00,30.21,M,10.00,M,CLR,M,M,M,M,M,M,M,M,M,M,M,M,M,M,60.80,KRTS 151255Z AUTO 00000KT 10SM CLR 16/M02 A3021 RMK AO2,M
RNO,2022-07-15 12:55,-119.7711,39.4839,1341.00,62.00,40.00,43.93,0.00,0.00,0.00,30.16,1015.30,10.00,M,FEW,M,M,M,12000.00,M,M,M,M,M,M,M,M,M,M,62.10,KRNO 151255Z 00000KT 10SM FEW120 17/04 A3016 RMK AO2 SLP153 T01670044,M
BVU,2022-07-15 12:55,-114.8611,35.9475,671.00,M,M,M,M,M,0.00,M,M,M,M,M,M,M,M,M,M,M,M,M,M,M,M,M,M,M,M,KBVU 151255Z AUTO RMK AO2 PNO PWINO TSNO,M
EKO,2022-07-15 12:56,-115.7860,40.8242,1367.00,74.00,48.00,39.87,180.00,12.00,0.00,30.17,1014.30,10.00,22.00,CLR,M,M,M,M,M,M,M,M,M,M,M,M,M,M,73.90,KEKO 151256Z AUTO 18012G22KT 10SM CLR 23/09 A3017 RMK AO2 SLP143 T02330089,M
LAS,2022-07-15 12:56,-115.1634,36.0719,663.00,81.00,64.00,56.30,0.00,0.00,0.00,30.06,1015.30,10.00,M,FEW,BKN,BKN,M,12000.00,16000.00,22000.00,M,M,M,M,M,M,M,M,82.54,KLAS 151256Z 00000KT 10SM FEW120 BKN160 BKN220 27/18 A3006 RMK AO2 SLP153 T02720178,M
TPH,2022-07-15 12:56,-117.0904,38.0505,1654.00,69.00,55.00,60.78,120.00,10.00,0.00,30.26,1015.00,10.00,M,CLR,M,M,M,M,M,M,M,M,M,M,M,M,M,M,69.10,KTPH 151256Z AUTO 12010KT 10SM CLR 21/13 A3026 RMK AO2 SLP150 T02060128,M
NFL,2022-07-15 12:56,-118.7010,39.4166,1199.00,63.00,30.90,29.77,210.00,3.00,0.00,30.11,1016.20,10.00,M,CLR,M,M,M,M,M,M,M,M,M,M,M,M,M,M,63.00,KNFL 151256Z AUTO 21003KT 10SM CLR 17/M01 A3011 RMK AO2 SLP162 T01721006,M
WMC,2022-07-15 12:56,-117.8072,40.9019,1315.00,58.00,24.10,26.98,120.00,3.00,0.00,30.12,1014.50,10.00,M,CLR,M,M,M,M,M,M,M,M,M,M,M,M,M,M,57.90,KWMC 151256Z AUTO 12003KT 10SM CLR 14/M04 A3012 RMK AO2 SLP145 T01441044 TSNO,M
HND,2022-07-15 12:56,-115.1344,35.9729,742.79,78.00,62.00,57.92,170.00,4.00,0.00,30.10,1018.10,10.00,M,CLR,M,M,M,M,M,M,M,M,M,M,M,M,M,M,78.10,KHND 151256Z 17004KT 10SM CLR 26/17 A3010 RMK AO2 SLP181 T02560167,M
INS,2022-07-15 12:58,-115.6733,36.5872,955.00,78.00,56.70,48.08,0.00,0.00,0.00,30.14,1015.40,10.00,M,BKN,BKN,M,M,11000.00,15000.00,M,M,M,M,M,M,M,M,M,77.90,KINS 151258Z AUTO 00000KT 10SM BKN110 BKN150 26/14 A3014 RMK AO2 SLP154 T02550137 $,M
LSV,2022-07-15 12:58,-115.0343,36.2362,570.00,78.00,67.80,70.66,80.00,6.00,0.00,30.03,1014.60,10.00,M,OVC,M,M,M,16000.00,M,M,M,M,M,M,M,M,M,M,78.10,KLSV 151258Z AUTO 08006KT 10SM OVC160 26/20 A3003 RMK AO2 SLP146 T02560199 $,M
BVU,2022-07-15 13:15,-114.8611,35.9475,671.00,M,M,M,M,M,0.00,M,M,M,M,M,M,M,M,M,M,M,M,M,M,M,M,M,M,M,M,KBVU 151315Z AUTO RMK AO2 PNO PWINO TSNO,M
TMT,2022-07-15 13:15,-117.1971,39.4643,1749.34,53.00,34.20,48.87,0.00,0.00,0.00,30.26,M,10.00,M,CLR,M,M,M,M,M,M,M,M,M,M,M,M,M,M,52.90,KTMT 151315Z AUTO 00000KT 10SM CLR 12/01 A3026 RMK AO2 T01160012,M
RTS,2022-07-15 13:15,-119.8764,39.6682,1539.00,55.40,24.80,30.40,0.00,0.00,0.00,30.21,M,10.00,M,CLR,M,M,M,M,M,M,M,M,M,M,M,M,M,M,55.40,KRTS 151315Z AUTO 00000KT 10SM CLR 13/M04 A3021 RMK AO2,M
05U,2022-07-15 13:15,-116.0051,39.6042,1811.23,69.80,46.40,43.13,190.00,5.00,0.00,30.29,M,10.00,11.00,CLR,M,M,M,M,M,M,M,M,M,M,M,M,M,M,69.80,K05U 151315Z AUTO 19005G11KT 10SM CLR 21/08 A3029 RMK A01,M
HTH,2022-07-15 13:15,-118.6315,38.5448,1282.89,73.40,39.20,28.96,200.00,3.00,0.00,30.14,M,10.00,M,SCT,M,M,M,11000.00,M,M,M,M,M,M,M,M,M,M,73.40,KHTH 151315Z AUTO 20003KT 10SM SCT110 23/04 A3014 RMK A01,M
BAM,2022-07-15 13:15,-116.8743,40.5990,1382.36,M,M,M,250.00,3.00,0.00,30.14,M,10.00,M,CLR,M,M,M,M,M,M,M,M,M,M,M,M,M,M,M,KBAM 151315Z AUTO 25003KT 10SM CLR A3014 RMK AO1,M
MEV,2022-07-15 13:15,-119.7500,38.9963,1441.42,53.60,42.80,66.70,0.00,0.00,0.00,30.18,M,10.00,M,CLR,M,M,M,M,M,M,M,M,M,M,M,M,M,M,53.60,KMEV 151315Z AUTO 00000KT 10SM CLR 12/06 A3018 RMK AO2,M
05U,2022-07-15 13:35,-116.0051,39.6042,1811.23,68.00,50.00,52.51,0.00,0.00,0.00,30.30,M,10.00,M,CLR,M,M,M,M,M,M,M,M,M,M,M,M,M,M,68.00,K05U 151335Z AUTO 00000KT 10SM CLR 20/10 A3030 RMK A01,M
TMT,2022-07-15 13:35,-117.1971,39.4643,1749.34,54.00,34.70,47.71,150.00,4.00,0.00,30.26,M,10.00,M,CLR,M,M,M,M,M,M,M,M,M,M,M,M,M,M,54.10,KTMT 151335Z AUTO 15004KT 10SM CLR 12/02 A3026 RMK AO2 T01230015,M
BVU,2022-07-15 13:35,-114.8611,35.9475,671.00,M,M,M,M,M,0.00,M,M,M,M,M,M,M,M,M,M,M,M,M,M,M,M,M,M,M,M,KBVU 151335Z AUTO RMK AO2 PNO PWINO TSNO,M
RTS,2022-07-15 13:35,-119.8764,39.6682,1539.00,59.00,24.80,26.70,320.00,6.00,0.00,30.21,M,10.00,M,CLR,M,M,M,M,M,M,M,M,M,M,M,M,M,M,59.00,KRTS 151335Z AUTO 32006KT 10SM CLR 15/M04 A3021 RMK AO2,M
MEV,2022-07-15 13:35,-119.7500,38.9963,1441.42,55.40,44.60,66.91,0.00,0.00,0.00,30.18,M,10.00,M,CLR,M,M,M,M,M,M,M,M,M,M,M,M,M,M,55.40,KMEV 151335Z AUTO 00000KT 10SM CLR 13/07 A3018 RMK AO2,M
BAM,2022-07-15 13:35,-116.8743,40.5990,1382.36,M,M,M,250.00,4.00,0.00,30.14,M,10.00,M,CLR,M,M,M,M,M,M,M,M,M,M,M,M,M,M,M,KBAM 151335Z AUTO 25004KT 10SM CLR A3014 RMK AO1,M
HTH,2022-07-15 13:35,-118.6315,38.5448,1282.89,71.60,37.40,28.68,0.00,0.00,0.00,30.15,M,10.00,M,CLR,M,M,M,M,M,M,M,M,M,M,M,M,M,M,71.60,KHTH 151335Z AUTO 00000KT 10SM CLR 22/03 A3015 RMK A01,M
VGT,2022-07-15 13:53,-115.1933,36.2111,667.00,84.00,63.00,49.32,0.00,0.00,0.00,30.08,1017.50,10.00,M,CLR,M,M,M,M,M,M,M,M,M,M,M,M,M,M,84.99,KVGT 151353Z 00000KT 10SM CLR 29/17 A3008 RMK AO2 SLP175 T02890172,M
P68,2022-07-15 13:53,-116.0056,39.6014,1993.00,67.00,49.00,52.35,0.00,0.00,0.00,30.27,1015.50,M,M,M,M,M,M,M,M,M,M,M,M,M,M,M,M,M,66.90,KP68 151353Z AUTO 00000KT 19/09 A3027 RMK AO1 SLP155 T01940094,M
LOL,2022-07-15 13:53,-118.5701,40.0684,1192.43,64.00,28.90,26.50,240.00,3.00,0.00,30.11,1015.10,10.00,M,CLR,M,M,M,M,M,M,M,M,M,M,M,M,M,M,64.00,KLOL 151353Z AUTO 24003KT 10SM CLR 18/M02 A3011 RMK AO2 SLP151 T01781017,M
DRA,2022-07-15 13:53,-116.0278,36.6206,1009.00,80.00,59.00,48.58,80.00,9.00,0.00,30.14,1015.10,10.00,M,CLR,M,M,M,M,M,M,M,M,M,M,M,M,M,M,80.76,KDRA 151353Z AUTO 08009KT 10SM CLR 27/15 A3014 RMK AO2 SLP151 T02670150 $,M
ELY,2022-07-15 13:53,-114.8453,39.2950,1909.00,63.00,53.00,70.07,310.00,6.00,0.00,30.34,1016.20,10.00,M,CLR,M,M,M,M,M,M,M,M,M,M,M,M,M,M,63.00,KELY 151353Z AUTO 31006KT 10SM CLR 17/12 A3034 RMK AO2 SLP162 T01720117,M
RTS,2022-07-15 13:55,-119.8764,39.6682,1539.00,60.80,28.40,29.06,310.00,4.00,0.00,30.21,M,10.00,M,CLR,M,M,M,M,M,M,M,M,M,M,M,M,M,M,60.80,KRTS 151355Z AUTO 31004KT 10SM CLR 16/M02 A3021 RMK AO2,M
BVU,2022-07-15 13:55,-114.8611,35.9475,671.00,M,M,M,M,M,0.00,M,M,M,M,M,M,M,M,M,M,M,M,M,M,M,M,M,M,M,M,KBVU 151355Z AUTO RMK AO2 PNO PWINO TSNO,M
05U,2022-07-15 13:55,-116.0051,39.6042,1811.23,66.20,50.00,55.88,0.00,0.00,0.00,30.30,M,10.00,M,CLR,M,M,M,M,M,M,M,M,M,M,M,M,M,M,66.20,K05U 151355Z AUTO 00000KT 10SM CLR 19/10 A3030 RMK A01,M
MEV,2022-07-15 13:55,-119.7500,38.9963,1441.42,60.80,44.60,55.12,0.00,0.00,0.00,30.18,M,10.00,M,CLR,M,M,M,M,M,M,M,M,M,M,M,M,M,M,60.80,KMEV 151355Z AUTO 00000KT 10SM CLR 16/07 A3018 RMK AO2,M
BAM,2022-07-15 13:55,-116.8743,40.5990,1382.36,M,M,M,0.00,0.00,0.00,30.15,M,10.00,M,CLR,M,M,M,M,M,M,M,M,M,M,M,M,M,M,M,KBAM 151355Z AUTO 00000KT 10SM CLR A3015 RMK AO1,M
HTH,2022-07-15 13:55,-118.6315,38.5448,1282.89,73.40,39.20,28.96,0.00,0.00,0.00,30.15,M,10.00,M,CLR,M,M,M,M,M,M,M,M,M,M,M,M,M,M,73.40,KHTH 151355Z AUTO 00000KT 10SM CLR 23/04 A3015 RMK A01,M
TMT,2022-07-15 13:55,-117.1971,39.4643,1749.34,60.40,37.20,41.98,0.00,0.00,0.00,30.26,M,10.00,M,CLR,M,M,M,M,M,M,M,M,M,M,M,M,M,M,60.40,KTMT 151355Z AUTO 00000KT 10SM CLR 16/03 A3026 RMK AO2 T01580029,M
RNO,2022-07-15 13:55,-119.7711,39.4839,1341.00,67.00,40.00,37.14,290.00,3.00,0.00,30.17,1015.50,10.00,M,FEW,M,M,M,12000.00,M,M,M,M,M,M,M,M,M,M,66.90,KRNO 151355Z 29003KT 10SM FEW120 19/04 A3017 RMK AO2 SLP155 T01940044,M
LAS,2022-07-15 13:56,-115.1634,36.0719,663.00,83.00,62.00,49.51,0.00,0.00,0.00,30.08,1016.20,10.00,M,FEW,BKN,BKN,M,12000.00,16000.00,22000.00,M,M,M,M,M,M,M,M,83.70,KLAS 151356Z 00000KT 10SM FEW120 BKN160 BKN220 28/17 A3008 RMK AO2 SLP162 T02830167,M
TPH,2022-07-15 13:56,-117.0904,38.0505,1654.00,69.00,55.00,60.78,270.00,3.00,0.00,30.28,1016.10,10.00,M,CLR,M,M,M,M,M,M,M,M,M,M,M,M,M,M,69.10,KTPH 151356Z AUTO 27003KT 10SM CLR 21/13 A3028 RMK AO2 SLP161 T02060128,M
HND,2022-07-15 13:56,-115.1344,35.9729,742.79,81.00,63.00,54.36,170.00,4.00,0.00,30.12,1018.90,10.00,M,CLR,M,M,M,M,M,M,M,M,M,M,M,M,M,M,82.28,KHND 151356Z 17004KT 10SM CLR 27/17 A3012 RMK AO2 SLP189 T02720172,M
NFL,2022-07-15 13:56,-118.7010,39.4166,1199.00,70.00,30.00,22.52,150.00,4.00,0.00,30.12,1016.60,10.00,M,CLR,M,M,M,M,M,M,M,M,M,M,M,M,M,M,70.00,KNFL 151356Z AUTO 15004KT 10SM CLR 21/M01 A3012 RMK AO2 SLP166 T02111011,M
EKO,2022-07-15 13:56,-115.7860,40.8242,1367.00,73.00,49.00,42.51,220.00,7.00,0.00,30.19,1015.00,10.00,15.00,CLR,M,M,M,M,M,M,M,M,M,M,M,M,M,M,73.00,KEKO 151356Z AUTO 22007G15KT 10SM CLR 23/09 A3019 RMK AO2 SLP150 T02280094,M
WMC,2022-07-15 13:56,-117.8072,40.9019,1315.00,63.00,24.10,22.50,160.00,3.00,0.00,30.14,1014.90,10.00,M,CLR,M,M,M,M,M,M,M,M,M,M,M,M,M,M,63.00,KWMC 151356Z AUTO 16003KT 10SM CLR 17/M04 A3014 RMK AO2 SLP149 T01721044 TSNO,M
LSV,2022-07-15 13:58,-115.0343,36.2362,570.00,82.20,66.40,58.86,310.00,6.00,0.00,30.05,1015.20,10.00,M,SCT,M,M,M,17000.00,M,M,M,M,M,M,M,M,M,M,84.50,KLSV 151358Z AUTO 31006KT 10SM SCT170 28/19 A3005 RMK AO2 SLP152 T02790191 $,M
INS,2022-07-15 13:58,-115.6733,36.5872,955.00,79.00,57.00,46.87,290.00,5.00,0.00,30.15,1016.10,10.00,M,FEW,M,M,M,15000.00,M,M,M,M,M,M,M,M,M,M,79.00,KINS 151358Z AUTO 29005KT 10SM FEW150 26/14 A3015 RMK AO2 SLP161 T02610139 $,M
BVU,2022-07-15 14:15,-114.8611,35.9475,671.00,M,M,M,M,M,0.00,M,M,M,M,M,M,M,M,M,M,M,M,M,M,M,M,M,M,M,M,KBVU 151415Z AUTO RMK AO2 PNO PWINO TSNO,M
05U,2022-07-15 14:15,-116.0051,39.6042,1811.23,68.00,50.00,52.51,0.00,0.00,0.00,30.30,M,10.00,M,CLR,M,M,M,M,M,M,M,M,M,M,M,M,M,M,68.00,K05U 151415Z AUTO 00000KT 10SM CLR 20/10 A3030 RMK A01,M
RTS,2022-07-15 14:15,-119.8764,39.6682,1539.00,64.40,30.20,27.55,0.00,0.00,0.00,30.21,M,10.00,M,CLR,M,M,M,M,M,M,M,M,M,M,M,M,M,M,64.40,KRTS 151415Z AUTO 00000KT 10SM CLR 18/M01 A3021 RMK AO2,M
MEV,2022-07-15 14:15,-119.7500,38.9963,1441.42,64.40,44.60,48.55,0.00,0.00,0.00,30.18,M,10.00,M,CLR,M,M,M,M,M,M,M,M,M,M,M,M,M,M,64.40,KMEV 151415Z AUTO 00000KT 10SM CLR 18/07 A3018 RMK AO2,M
BAM,2022-07-15 14:15,-116.8743,40.5990,1382.36,M,M,M,0.00,0.00,0.00,30.15,M,10.00,M,CLR,M,M,M,M,M,M,M,M,M,M,M,M,M,M,M,KBAM 151415Z AUTO 00000KT 10SM CLR A3015 RMK AO1,M
HTH,2022-07-15 14:15,-118.6315,38.5448,1282.89,77.00,39.20,25.67,100.00,5.00,0.00,30.15,M,10.00,M,CLR,M,M,M,M,M,M,M,M,M,M,M,M,M,M,77.00,KHTH 151415Z AUTO 10005KT 10SM CLR 25/04 A3015 RMK A01,M
TMT,2022-07-15 14:15,-117.1971,39.4643,1749.34,64.20,38.80,39.09,0.00,0.00,0.00,30.27,M,10.00,M,CLR,M,M,M,M,M,M,M,M,M,M,M,M,M,M,64.20,KTMT 151415Z AUTO 00000KT 10SM CLR 18/04 A3027 RMK AO2 T01790038,M
BVU,2022-07-15 14:35,-114.8611,35.9475,671.00,M,M,M,M,M,0.00,M,M,M,M,M,M,M,M,M,M,M,M,M,M,M,M,M,M,M,M,KBVU 151435Z AUTO RMK AO2 PNO PWINO TSNO,M
05U,2022-07-15 14:35,-116.0051,39.6042,1811.23,71.60,48.20,43.42,0.00,0.00,0.00,30.30,M,10.00,M,CLR,M,M,M,M,M,M,M,M,M,M,M,M,M,M,71.60,K05U 151435Z AUTO 00000KT 10SM CLR 22/09 A3030 RMK A01,M
RTS,2022-07-15 14:35,-119.8764,39.6682,1539.00,66.20,30.20,25.88,0.00,0.00,0.00,30.22,M,10.00,M,CLR,M,M,M,M,M,M,M,M,M,M,M,M,M,M,66.20,KRTS 151435Z AUTO 00000KT 10SM CLR 19/M01 A3022 RMK AO2,M
BAM,2022-07-15 14:35,-116.8743,40.5990,1382.36,M,M,M,0.00,0.00,0.00,30.16,M,10.00,M,CLR,M,M,M,M,M,M,M,M,M,M,M,M,M,M,M,KBAM 151435Z AUTO 00000KT 10SM CLR A3016 RMK AO1,M
MEV,2022-07-15 14:35,-119.7500,38.9963,1441.42,66.20,44.60,45.60,0.00,0.00,0.00,30.18,M,10.00,M,CLR,M,M,M,M,M,M,M,M,M,M,M,M,M,M,66.20,KMEV 151435Z AUTO 00000KT 10SM CLR 19/07 A3018 RMK AO2,M
HTH,2022-07-15 14:35,-118.6315,38.5448,1282.89,78.80,39.20,24.19,0.00,0.00,0.00,30.15,M,10.00,M,CLR,M,M,M,M,M,M,M,M,M,M,M,M,M,M,78.80,KHTH 151435Z AUTO 00000KT 10SM CLR 26/04 A3015 RMK A01,M
TMT,2022-07-15 14:35,-117.1971,39.4643,1749.34,67.00,41.00,38.76,0.00,0.00,0.00,30.27,M,10.00,M,CLR,M,M,M,M,M,M,M,M,M,M,M,M,M,M,66.90,KTMT 151435Z AUTO 00000KT 10SM CLR 19/05 A3027 RMK AO2 T01940050,M
NFL,2022-07-15 14:44,-118.7010,39.4166,1199.00,77.00,32.00,19.30,280.00,5.00,0.00,30.12,M,10.00,M,FEW,FEW,M,M,10000.00,15000.00,M,M,M,M,M,M,M,M,M,77.00,KNFL 151444Z 28005KT 10SM FEW100 FEW150 25/00 A3012 RMK AO2 FU ALOFT NE-SE-S T02500000,M
LOL,2022-07-15 14:53,-118.5701,40.0684,1192.43,72.00,32.00,22.82,110.00,3.00,0.00,30.13,1015.30,10.00,M,CLR,M,M,M,M,M,M,M,M,M,M,M,M,M,M,72.00,KLOL 151453Z AUTO 11003KT 10SM CLR 22/00 A3013 RMK AO2 SLP153 T02220000 51011,M
DRA,2022-07-15 14:53,-116.0278,36.6206,1009.00,83.00,57.00,41.27,70.00,10.00,0.00,30.14,1015.00,10.00,18.00,CLR,M,M,M,M,M,M,M,M,M,M,M,M,M,M,82.41,KDRA 151453Z AUTO 07010G18KT 10SM CLR 28/14 A3014 RMK AO2 SLP150 T02830139 50014 $,M
ELY,2022-07-15 14:53,-114.8453,39.2950,1909.00,64.00,53.00,67.66,230.00,4.00,0.00,30.34,1016.70,10.00,M,CLR,M,M,M,M,M,M,M,M,M,M,M,M,M,M,64.00,KELY 151453Z AUTO 23004KT 10SM CLR 18/12 A3034 RMK AO2 SLP167 T01780117 51011,M
VGT,2022-07-15 14:53,-115.1933,36.2111,667.00,88.00,59.00,37.66,0.00,0.00,0.00,30.08,1017.70,10.00,M,CLR,M,M,M,M,M,M,M,M,M,M,M,M,M,M,87.31,KVGT 151453Z 00000KT 10SM CLR 31/15 A3008 RMK AO2 SLP177 T03110150 51015,M
P68,2022-07-15 14:53,-116.0056,39.6014,1993.00,73.00,49.00,42.51,130.00,5.00,0.00,30.27,1015.50,M,M,M,M,M,M,M,M,M,M,M,M,M,M,M,M,M,73.00,KP68 151453Z AUTO 13005KT 23/09 A3027 RMK AO1 SLP155 T02280094 51004,M
BVU,2022-07-15 14:55,-114.8611,35.9475,671.00,M,M,M,M,M,0.00,M,M,M,M,M,M,M,M,M,M,M,M,M,M,M,M,M,M,M,M,KBVU 151455Z AUTO RMK AO2 PNO PWINO TSNO,M
RNO,2022-07-15 14:55,-119.7711,39.4839,1341.00,72.00,40.00,31.20,0.00,0.00,0.00,30.17,1015.50,10.00,M,CLR,M,M,M,M,M,M,M,M,M,M,M,M,M,M,72.00,KRNO 151455Z 00000KT 10SM CLR 22/04 A3017 RMK AO2 SLP155 T02220044 51008,M
TMT,2022-07-15 14:55,-117.1971,39.4643,1749.34,M,M,M,0.00,0.00,0.00,30.27,M,10.00,M,CLR,M,M,M,M,M,M,M,M,M,M,M,M,M,M,M,KTMT 151455Z AUTO 00000KT 10SM CLR A3027 RMK AO2,M
HTH,2022-07-15 14:55,-118.6315,38.5448,1282.89,80.60,37.40,21.25,90.00,3.00,0.00,30.16,M,10.00,M,CLR,M,M,M,M,M,M,M,M,M,M,M,M,M,M,79.02,KHTH 151455Z AUTO 09003KT 10SM CLR 27/03 A3016 RMK A01,M
BAM,2022-07-15 14:55,-116.8743,40.5990,1382.36,M,M,M,100.00,4.00,0.00,30.16,M,10.00,M,CLR,M,M,M,M,M,M,M,M,M,M,M,M,M,M,M,KBAM 151455Z AUTO 10004KT 10SM CLR A3016 RMK AO1,M
MEV,2022-07-15 14:55,-119.7500,38.9963,1441.42,69.80,42.80,37.61,0.00,0.00,0.00,30.18,M,10.00,M,CLR,M,M,M,M,M,M,M,M,M,M,M,M,M,M,69.80,KMEV 151455Z AUTO 00000KT 10SM CLR 21/06 A3018 RMK AO2,M
05U,2022-07-15 14:55,-116.0051,39.6042,1811.23,75.20,50.00,41.14,0.00,0.00,0.00,30.30,M,10.00,M,CLR,M,M,M,M,M,M,M,M,M,M,M,M,M,M,75.20,K05U 151455Z AUTO 00000KT 10SM CLR 24/10 A3030 RMK A01,M
RTS,2022-07-15 14:55,-119.8764,39.6682,1539.00,68.00,30.20,24.32,0.00,0.00,0.00,30.22,M,10.00,M,CLR,M,M,M,M,M,M,M,M,M,M,M,M,M,M,68.00,KRTS 151455Z AUTO 00000KT 10SM CLR 20/M01 A3022 RMK AO2,M
WMC,2022-07-15 14:56,-117.8072,40.9019,1315.00,74.00,24.10,15.47,200.00,4.00,0.00,30.14,1014.90,10.00,M,CLR,M,M,M,M,M,M,M,M,M,M,M,M,M,M,73.90,KWMC 151456Z AUTO 20004KT 10SM CLR 23/M04 A3014 RMK AO2 SLP149 T02331044 51010 TSNO,M
EKO,2022-07-15 14:56,-115.7860,40.8242,1367.00,76.00,49.00,38.57,220.00,8.00,0.00,30.20,1015.30,10.00,M,CLR,M,M,M,M,M,M,M,M,M,M,M,M,M,M,75.90,KEKO 151456Z AUTO 22008KT 10SM CLR 24/09 A3020 RMK AO2 SLP153 T02440094 51012,M
HND,2022-07-15 14:56,-115.1344,35.9729,742.79,86.00,61.00,43.10,30.00,8.00,0.00,30.13,1019.00,10.00,M,CLR,M,M,M,M,M,M,M,M,M,M,M,M,M,M,86.12,KHND 151456Z 03008KT 10SM CLR 30/16 A3013 RMK AO2 SLP190 T03000161 51015,M
LAS,2022-07-15 14:56,-115.1634,36.0719,663.00,85.00,61.00,44.65,40.00,5.00,0.00,30.10,1016.50,10.00,M,FEW,BKN,BKN,M,12000.00,16000.00,22000.00,M,M,M,M,M,M,M,M,85.12,KLAS 151456Z 04005KT 10SM FEW120 BKN160 BKN220 29/16 A3010 RMK AO2 SLP165 T02940161 51017,M
TPH,2022-07-15 14:56,-117.0904,38.0505,1654.00,74.00,54.00,49.79,140.00,5.00,0.00,30.29,1016.20,10.00,M,CLR,M,M,M,M,M,M,M,M,M,M,M,M,M,M,73.90,KTPH 151456Z AUTO 14005KT 10SM CLR 23/12 A3029 RMK AO2 SLP162 T02330122 53010,M
NFL,2022-07-15 14:56,-118.7010,39.4166,1199.00,78.00,33.00,19.45,290.00,6.00,0.00,30.12,1016.70,10.00,M,FEW,FEW,M,M,10000.00,15000.00,M,M,M,M,M,M,M,M,M,78.10,KNFL 151456Z 29006KT 10SM FEW100 FEW150 26/01 A3012 RMK AO2 SLP167 FU ALOFT NE-SE-S T02560006 51008,M
INS,2022-07-15 14:58,-115.6733,36.5872,955.00,83.30,54.30,36.94,140.00,7.00,0.00,30.14,1015.70,10.00,M,CLR,M,M,M,M,M,M,M,M,M,M,M,M,M,M,82.20,KINS 151458Z AUTO 14007KT 10SM CLR 29/12 A3014 RMK AO2 SLP157 T02850124 50008 $,M
LSV,2022-07-15 14:58,-115.0343,36.2362,570.00,87.00,65.30,48.71,260.00,4.00,0.00,30.06,1015.60,10.00,M,SCT,M,M,M,20000.00,M,M,M,M,M,M,M,M,M,M,88.86,KLSV 151458Z AUTO 26004KT 10SM SCT200 31/19 A3006 RMK AO2 SLP156 T03050185 52014 $,M
TMT,2022-07-15 15:15,-117.1971,39.4643,1749.34,76.30,46.60,34.91,0.00,0.00,0.00,30.27,M,10.00,M,CLR,M,M,M,M,M,M,M,M,M,M,M,M,M,M,76.30,KTMT 151515Z AUTO 00000KT 10SM CLR 25/08 A3027 RMK AO2 T02460081,M
RTS,2022-07-15 15:15,-119.8764,39.6682,1539.00,71.60,28.40,19.98,0.00,0.00,0.00,30.22,M,10.00,M,CLR,M,M,M,M,M,M,M,M,M,M,M,M,M,M,71.60,KRTS 151515Z AUTO 00000KT 10SM CLR 22/M02 A3022 RMK AO2,M
05U,2022-07-15 15:15,-116.0051,39.6042,1811.23,75.20,48.20,38.46,0.00,0.00,0.00,30.30,M,10.00,M,CLR,M,M,M,M,M,M,M,M,M,M,M,M,M,M,75.20,K05U 151515Z AUTO 00000KT 10SM CLR 24/09 A3030 RMK A01,M
BVU,2022-07-15 15:15,-114.8611,35.9475,671.00,M,M,M,M,M,0.00,M,M,M,M,M,M,M,M,M,M,M,M,M,M,M,M,M,M,M,M,KBVU 151515Z AUTO RMK AO2 PNO PWINO TSNO,M
MEV,2022-07-15 15:15,-119.7500,38.9963,1441.42,71.60,46.40,40.57,310.00,3.00,0.00,30.19,M,10.00,M,CLR,M,M,M,M,M,M,M,M,M,M,M,M,M,M,71.60,KMEV 151515Z AUTO 31003KT 10SM CLR 22/08 A3019 RMK AO2,M
BAM,2022-07-15 15:15,-116.8743,40.5990,1382.36,M,M,M,130.00,3.00,0.00,30.17,M,10.00,M,CLR,M,M,M,M,M,M,M,M,M,M,M,M,M,M,M,KBAM 151515Z AUTO 13003KT 10SM CLR A3017 RMK AO1,M
HTH,2022-07-15 15:15,-118.6315,38.5448,1282.89,80.60,37.40,21.25,0.00,0.00,0.00,30.16,M,10.00,M,CLR,M,M,M,M,M,M,M,M,M,M,M,M,M,M,79.02,KHTH 151515Z AUTO 00000KT 10SM CLR 27/03 A3016 RMK A01,M
RTS,2022-07-15 15:35,-119.8764,39.6682,1539.00,73.40,28.40,18.80,0.00,0.00,0.00,30.23,M,10.00,M,CLR,M,M,M,M,M,M,M,M,M,M,M,M,M,M,73.40,KRTS 151535Z AUTO 00000KT 10SM CLR 23/M02 A3023 RMK AO2,M
BVU,2022-07-15 15:35,-114.8611,35.9475,671.00,M,M,M,M,M,0.00,M,M,M,M,M,M,M,M,M,M,M,M,M,M,M,M,M,M,M,M,KBVU 151535Z AUTO RMK AO2 PNO PWINO TSNO,M
05U,2022-07-15 15:35,-116.0051,39.6042,1811.23,78.80,50.00,36.51,0.00,0.00,0.00,30.30,M,10.00,M,CLR,M,M,M,M,M,M,M,M,M,M,M,M,M,M,78.80,K05U 151535Z AUTO 00000KT 10SM CLR 26/10 A3030 RMK A01,M
MEV,2022-07-15 15:35,-119.7500,38.9963,1441.42,71.60,46.40,40.57,0.00,0.00,0.00,30.19,M,10.00,M,CLR,M,M,M,M,M,M,M,M,M,M,M,M,M,M,71.60,KMEV 151535Z AUTO 00000KT 10SM CLR 22/08 A3019 RMK AO2,M
BAM,2022-07-15 15:35,-116.8743,40.5990,1382.36,M,M,M,80.00,3.00,0.00,30.17,M,10.00,M,CLR,M,M,M,M,M,M,M,M,M,M,M,M,M,M,M,KBAM 151535Z AUTO 08003KT 10SM CLR A3017 RMK AO1,M
HTH,2022-07-15 15:35,-118.6315,38.5448,1282.89,82.40,35.60,18.67,0.00,0.00,0.00,30.16,M,10.00,M,CLR,M,M,M,M,M,M,M,M,M,M,M,M,M,M,80.08,KHTH 151535Z AUTO 00000KT 10SM CLR 28/02 A3016 RMK A01,M
TMT,2022-07-15 15:35,-117.1971,39.4643,1749.34,78.30,49.50,36.43,230.00,4.00,0.00,30.27,M,10.00,M,CLR,M,M,M,M,M,M,M,M,M,M,M,M,M,M,78.30,KTMT 151535Z AUTO 23004KT 10SM CLR 26/10 A3027 RMK AO2 T02570097,M
DRA,2022-07-15 15:53,-116.0278,36.6206,1009.00,86.00,56.00,35.90,110.00,10.00,0.00,30.14,1014.90,10.00,M,CLR,M,M,M,M,M,M,M,M,M,M,M,M,M,M,84.66,KDRA 151553Z AUTO 11010KT 10SM CLR 30/13 A3014 RMK AO2 SLP149 T03000133,M
ELY,2022-07-15 15:53,-114.8453,39.2950,1909.00,69.00,52.00,54.45,M,4.00,0.00,30.34,1016.70,10.00,M,CLR,M,M,M,M,M,M,M,M,M,M,M,M,M,M,69.10,KELY 151553Z AUTO VRB04KT 10SM CLR 21/11 A3034 RMK AO2 SLP167 T02060111,M
P68,2022-07-15 15:53,-116.0056,39.6014,1993.00,77.00,50.00,38.74,M,5.00,0.00,30.27,1015.40,M,M,M,M,M,M,M,M,M,M,M,M,M,M,M,M,M,77.00,KP68 151553Z AUTO VRB05KT 25/10 A3027 RMK AO1 SLP154 T02500100,M
VGT,2022-07-15 15:53,-115.1933,36.2111,667.00,90.00,59.00,35.36,M,3.00,0.00,30.08,1017.50,10.00,M,CLR,M,M,M,M,M,M,M,M,M,M,M,M,M,M,89.26,KVGT 151553Z VRB03KT 10SM CLR 32/15 A3008 RMK AO2 SLP175 T03220150,M
LOL,2022-07-15 15:53,-118.5701,40.0684,1192.43,80.00,28.00,14.81,0.00,0.00,0.00,30.13,1015.40,10.00,M,CLR,M,M,M,M,M,M,M,M,M,M,M,M,M,M,78.51,KLOL 151553Z AUTO 00000KT 10SM CLR 27/M02 A3013 RMK AO2 SLP154 T02671022,M
05U,2022-07-15 15:55,-116.0051,39.6042,1811.23,80.60,50.00,34.41,0.00,0.00,0.00,30.30,M,10.00,M,CLR,M,M,M,M,M,M,M,M,M,M,M,M,M,M,79.88,K05U 151555Z AUTO 00000KT 10SM CLR 27/10 A3030 RMK A01,M
RNO,2022-07-15 15:55,-119.7711,39.4839,1341.00,77.00,38.00,24.40,0.00,0.00,0.00,30.18,1015.60,10.00,M,CLR,M,M,M,M,M,M,M,M,M,M,M,M,M,M,77.00,KRNO 151555Z 00000KT 10SM CLR 25/03 A3018 RMK AO2 SLP156 T02500033,M
BVU,2022-07-15 15:55,-114.8611,35.9475,671.00,M,M,M,M,M,0.00,M,M,M,M,M,M,M,M,M,M,M,M,M,M,M,M,M,M,M,M,KBVU 151555Z AUTO RMK AO2 PNO PWINO TSNO,M
CXP,2022-07-15 15:55,-119.7326,39.1923,1431.00,78.80,41.00,25.95,0.00,0.00,0.00,30.20,M,10.00,M,CLR,M,M,M,M,M,M,M,M,M,M,M,M,M,M,78.80,KCXP 151555Z AUTO 00000KT 10SM CLR 26/05 A3020 RMK AO2,M
RTS,2022-07-15 15:55,-119.8764,39.6682,1539.00,75.20,30.20,19.05,0.00,0.00,0.00,30.23,M,10.00,M,CLR,M,M,M,M,M,M,M,M,M,M,M,M,M,M,75.20,KRTS 151555Z AUTO 00000KT 10SM CLR 24/M01 A3023 RMK AO2,M
MEV,2022-07-15 15:55,-119.7500,38.9963,1441.42,75.20,42.80,31.34,340.00,3.00,0.00,30.19,M,10.00,M,CLR,M,M,M,M,M,M,M,M,M,M,M,M,M,M,75.20,KMEV 151555Z AUTO 34003KT 10SM CLR 24/06 A3019 RMK AO2,M
BAM,2022-07-15 15:55,-116.8743,40.5990,1382.36,M,M,M,60.00,3.00,0.00,30.17,M,10.00,M,CLR,M,M,M,M,M,M,M,M,M,M,M,M,M,M,M,KBAM 151555Z AUTO 06003KT 10SM CLR A3017 RMK AO1,M
HTH,2022-07-15 15:55,-118.6315,38.5448,1282.89,84.20,35.60,17.61,0.00,0.00,0.00,30.16,M,10.00,M,CLR,M,M,M,M,M,M,M,M,M,M,M,M,M,M,81.34,KHTH 151555Z AUTO 00000KT 10SM CLR 29/02 A3016 RMK A01,M
TMT,2022-07-15 15:55,-117.1971,39.4643,1749.34,M,M,M,240.00,5.00,0.00,30.27,M,10.00,M,CLR,M,M,M,M,M,M,M,M,M,M,M,M,M,M,M,KTMT 151555Z AUTO 24005KT 10SM CLR A3027 RMK AO2,M
TPH,2022-07-15 15:56,-117.0904,38.0505,1654.00,78.00,53.00,41.89,170.00,12.00,0.00,30.28,1015.80,10.00,17.00,CLR,M,M,M,M,M,M,M,M,M,M,M,M,M,M,78.10,KTPH 151556Z AUTO 17012G17KT 10SM CLR 26/12 A3028 RMK AO2 SLP158 T02560117,M
EKO,2022-07-15 15:56,-115.7860,40.8242,1367.00,82.00,49.00,31.56,160.00,13.00,0.00,30.20,1015.50,10.00,18.00,CLR,M,M,M,M,M,M,M,M,M,M,M,M,M,M,80.61,KEKO 151556Z AUTO 16013G18KT 10SM CLR 28/09 A3020 RMK AO2 SLP155 T02780094,M
NFL,2022-07-15 15:56,-118.7010,39.4166,1199.00,82.00,28.90,14.44,250.00,3.00,0.00,30.13,1016.80,10.00,M,FEW,M,M,M,10000.00,M,M,M,M,M,M,M,M,M,M,79.67,KNFL 151556Z COR 25003KT 10SM FEW100 28/M02 A3013 RMK AO2 SLP168 FU ALOFT E-S T02781017,M
LAS,2022-07-15 15:56,-115.1634,36.0719,663.00,87.00,61.00,41.62,0.00,0.00,0.00,30.09,1016.40,10.00,M,FEW,SCT,BKN,M,12000.00,16000.00,22000.00,M,M,M,M,M,M,M,M,87.15,KLAS 151556Z 00000KT 10SM FEW120 SCT160 BKN220 31/16 A3009 RMK AO2 SLP164 T03060161,M
HND,2022-07-15 15:56,-115.1344,35.9729,742.79,88.00,60.00,39.17,10.00,7.00,0.00,30.13,1018.70,10.00,M,CLR,M,M,M,M,M,M,M,M,M,M,M,M,M,M,87.69,KHND 151556Z 01007KT 350V050 10SM CLR 31/16 A3013 RMK AO2 SLP187 T03110156,M
WMC,2022-07-15 15:56,-117.8072,40.9019,1315.00,84.00,21.00,9.74,0.00,0.00,0.00,30.15,1015.60,10.00,M,CLR,M,M,M,M,M,M,M,M,M,M,M,M,M,M,80.63,KWMC 151556Z AUTO 00000KT 10SM CLR 29/M06 A3015 RMK AO2 SLP156 T02891061 TSNO,M
LSV,2022-07-15 15:58,-115.0343,36.2362,570.00,94.60,60.00,31.86,0.00,0.00,0.00,30.05,1015.10,10.00,M,FEW,M,M,M,17000.00,M,M,M,M,M,M,M,M,M,M,94.54,KLSV 151558Z AUTO 00000KT 10SM FEW170 35/16 A3005 RMK AO2 SLP151 T03480156 $,M
INS,2022-07-15 15:58,-115.6733,36.5872,955.00,86.00,52.70,31.94,120.00,6.00,0.00,30.13,1015.20,10.00,M,CLR,M,M,M,M,M,M,M,M,M,M,M,M,M,M,84.02,KINS 151558Z AUTO 12006KT 10SM CLR 30/12 A3013 RMK AO2 SLP152 T03000115 $,M
CXP,2022-07-15 16:15,-119.7326,39.1923,1431.00,80.60,41.00,24.46,0.00,0.00,0.00,30.20,M,10.00,M,CLR,M,M,M,M,M,M,M,M,M,M,M,M,M,M,79.20,KCXP 151615Z AUTO 00000KT 10SM CLR 27/05 A3020 RMK AO2,M
HTH,2022-07-15 16:15,-118.6315,38.5448,1282.89,84.20,35.60,17.61,260.00,5.00,0.00,30.15,M,10.00,M,CLR,M,M,M,M,M,M,M,M,M,M,M,M,M,M,81.34,KHTH 151615Z AUTO 26005KT 10SM CLR 29/02 A3015 RMK A01,M
BAM,2022-07-15 16:15,-116.8743,40.5990,1382.36,M,M,M,0.00,0.00,0.00,30.17,M,10.00,M,CLR,M,M,M,M,M,M,M,M,M,M,M,M,M,M,M,KBAM 151615Z AUTO 00000KT 10SM CLR A3017 RMK AO1,M
MEV,2022-07-15 16:15,-119.7500,38.9963,1441.42,78.80,42.80,27.81,0.00,0.00,0.00,30.19,M,10.00,M,CLR,M,M,M,M,M,M,M,M,M,M,M,M,M,M,78.80,KMEV 151615Z AUTO 00000KT 10SM CLR 26/06 A3019 RMK AO2,M
05U,2022-07-15 16:15,-116.0051,39.6042,1811.23,82.40,50.00,32.46,0.00,0.00,0.00,30.29,M,10.00,M,CLR,M,M,M,M,M,M,M,M,M,M,M,M,M,M,80.99,K05U 151615Z AUTO 00000KT 10SM CLR 28/10 A3029 RMK A01,M
RTS,2022-07-15 16:15,-119.8764,39.6682,1539.00,77.00,26.60,15.48,M,3.00,0.00,30.23,M,10.00,M,CLR,M,M,M,M,M,M,M,M,M,M,M,M,M,M,77.00,KRTS 151615Z AUTO VRB03KT 10SM CLR 25/M03 A3023 RMK AO2,M
BVU,2022-07-15 16:15,-114.8611,35.9475,671.00,M,M,M,M,M,0.00,M,M,M,M,M,M,M,M,M,M,M,M,M,M,M,M,M,M,M,M,KBVU 151615Z AUTO RMK AO2 PNO PWINO TSNO,M
TMT,2022-07-15 16:15,-117.1971,39.4643,1749.34,M,M,M,220.00,7.00,0.00,30.26,M,10.00,M,CLR,M,M,M,M,M,M,M,M,M,M,M,M,M,M,M,KTMT 151615Z AUTO 22007KT 10SM CLR A3026 RMK AO2,M
RTS,2022-07-15 16:35,-119.8764,39.6682,1539.00,78.80,30.20,16.90,100.00,4.00,0.00,30.23,M,10.00,M,CLR,M,M,M,M,M,M,M,M,M,M,M,M,M,M,78.80,KRTS 151635Z AUTO 10004KT 10SM CLR 26/M01 A3023 RMK AO2,M
BVU,2022-07-15 16:35,-114.8611,35.9475,671.00,M,M,M,M,M,0.00,M,M,M,M,M,M,M,M,M,M,M,M,M,M,M,M,M,M,M,M,KBVU 151635Z AUTO RMK AO2 PNO PWINO TSNO,M
HTH,2022-07-15 16:35,-118.6315,38.5448,1282.89,86.00,35.60,16.63,M,4.00,0.00,30.15,M,10.00,M,CLR,M,M,M,M,M,M,M,M,M,M,M,M,M,M,82.69,KHTH 151635Z AUTO VRB04KT 10SM CLR 30/02 A3015 RMK A01,M
05U,2022-07-15 16:35,-116.0051,39.6042,1811.23,82.40,50.00,32.46,0.00,0.00,0.00,30.29,M,10.00,M,CLR,M,M,M,M,M,M,M,M,M,M,M,M,M,M,80.99,K05U 151635Z AUTO 00000KT 10SM CLR 28/10 A3029 RMK A01,M
CXP,2022-07-15 16:35,-119.7326,39.1923,1431.00,82.40,41.00,23.07,0.00,0.00,0.00,30.20,M,10.00,M,CLR,M,M,M,M,M,M,M,M,M,M,M,M,M,M,80.29,KCXP 151635Z AUTO 00000KT 10SM CLR 28/05 A3020 RMK AO2,M
MEV,2022-07-15 16:35,-119.7500,38.9963,1441.42,80.60,39.20,22.81,0.00,0.00,0.00,30.18,M,10.00,M,CLR,M,M,M,M,M,M,M,M,M,M,M,M,M,M,79.10,KMEV 151635Z AUTO 00000KT 10SM CLR 27/04 A3018 RMK AO2,M
TMT,2022-07-15 16:35,-117.1971,39.4643,1749.34,83.30,51.00,32.60,260.00,6.00,0.00,30.26,M,10.00,M,CLR,M,M,M,M,M,M,M,M,M,M,M,M,M,M,81.70,KTMT 151635Z AUTO 26006KT 220V290 10SM CLR 29/11 A3026 RMK AO2 T02850105,M
BAM,2022-07-15 16:35,-116.8743,40.5990,1382.36,M,M,M,360.00,3.00,0.00,30.17,M,10.00,M,CLR,M,M,M,M,M,M,M,M,M,M,M,M,M,M,M,KBAM 151635Z AUTO 36003KT 10SM CLR A3017 RMK AO1,M
DRA,2022-07-15 16:53,-116.0278,36.6206,1009.00,90.00,54.00,29.51,120.00,10.00,0.00,30.12,1014.20,10.00,M,CLR,M,M,M,M,M,M,M,M,M,M,M,M,M,M,87.82,KDRA 151653Z AUTO 12010KT 10SM CLR 32/12 A3012 RMK AO2 SLP142 T03220122,M
ELY,2022-07-15 16:53,-114.8453,39.2950,1909.00,71.00,52.00,50.86,0.00,0.00,0.00,30.34,1016.80,10.00,M,CLR,M,M,M,M,M,M,M,M,M,M,M,M,M,M,71.10,KELY 151653Z AUTO 00000KT 10SM CLR 22/11 A3034 RMK AO2 SLP168 T02170111,M
VGT,2022-07-15 16:53,-115.1933,36.2111,667.00,93.00,59.00,32.19,90.00,5.00,0.00,30.06,1016.70,10.00,M,CLR,M,M,M,M,M,M,M,M,M,M,M,M,M,M,92.35,KVGT 151653Z 09005KT 10SM CLR 34/15 A3006 RMK AO2 SLP167 T03390150,M
LOL,2022-07-15 16:53,-118.5701,40.0684,1192.43,86.00,24.10,10.41,220.00,3.00,0.00,30.13,1015.00,10.00,M,CLR,M,M,M,M,M,M,M,M,M,M,M,M,M,M,82.21,KLOL 151653Z AUTO 22003KT 10SM CLR 30/M04 A3013 RMK AO2 SLP150 T03001044,M
BAM,2022-07-15 16:55,-116.8743,40.5990,1382.36,M,M,M,250.00,6.00,0.00,30.17,M,10.00,M,CLR,M,M,M,M,M,M,M,M,M,M,M,M,M,M,M,KBAM 151655Z AUTO 25006KT 10SM CLR A3017 RMK AO1,M
05U,2022-07-15 16:55,-116.0051,39.6042,1811.23,84.20,50.00,30.62,150.00,8.00,0.00,30.29,M,10.00,M,CLR,M,M,M,M,M,M,M,M,M,M,M,M,M,M,82.24,K05U 151655Z AUTO 15008KT 120V180 10SM CLR 29/10 A3029 RMK A01,M
BVU,2022-07-15 16:55,-114.8611,35.9475,671.00,M,M,M,M,M,0.00,M,M,M,M,M,M,M,M,M,M,M,M,M,M,M,M,M,M,M,M,KBVU 151655Z AUTO RMK AO2 PNO PWINO TSNO,M
RTS,2022-07-15 16:55,-119.8764,39.6682,1539.00,78.80,30.20,16.90,0.00,0.00,0.00,30.23,M,10.00,M,CLR,M,M,M,M,M,M,M,M,M,M,M,M,M,M,78.80,KRTS 151655Z AUTO 00000KT 10SM CLR 26/M01 A3023 RMK AO2,M
RNO,2022-07-15 16:55,-119.7711,39.4839,1341.00,82.00,40.00,22.39,0.00,0.00,0.00,30.17,1015.30,10.00,M,CLR,M,M,M,M,M,M,M,M,M,M,M,M,M,M,79.98,KRNO 151655Z 00000KT 10SM CLR 28/04 A3017 RMK AO2 SLP153 T02780044,M
HTH,2022-07-15 16:55,-118.6315,38.5448,1282.89,86.00,35.60,16.63,310.00,5.00,0.00,30.14,M,10.00,10.00,CLR,M,M,M,M,M,M,M,M,M,M,M,M,M,M,82.69,KHTH 151655Z AUTO 31005G10KT 10SM CLR 30/02 A3014 RMK A01,M
CXP,2022-07-15 16:55,-119.7326,39.1923,1431.00,84.20,39.20,20.29,0.00,0.00,0.00,30.19,M,10.00,M,CLR,M,M,M,M,M,M,M,M,M,M,M,M,M,M,81.44,KCXP 151655Z AUTO 00000KT 10SM CLR 29/04 A3019 RMK AO2,M
TMT,2022-07-15 16:55,-117.1971,39.4643,1749.34,M,M,M,250.00,5.00,0.00,30.26,M,10.00,M,CLR,M,M,M,M,M,M,M,M,M,M,M,M,M,M,M,KTMT 151655Z AUTO 25005KT 10SM CLR A3026 RMK AO2,M
MEV,2022-07-15 16:55,-119.7500,38.9963,1441.42,84.20,37.40,18.91,0.00,0.00,0.00,30.18,M,10.00,M,CLR,M,M,M,M,M,M,M,M,M,M,M,M,M,M,81.38,KMEV 151655Z AUTO 00000KT 10SM CLR 29/03 A3018 RMK AO2,M
NFL,2022-07-15 16:56,-118.7010,39.4166,1199.00,86.00,28.90,12.69,M,3.00,0.00,30.12,1016.70,10.00,M,FEW,M,M,M,8000.00,M,M,M,M,M,M,M,M,M,M,82.58,KNFL 151656Z VRB03KT 10SM FEW080 30/M02 A3012 RMK SLP167 T03001017,M
WMC,2022-07-15 16:56,-117.8072,40.9019,1315.00,89.00,19.90,7.90,M,M,0.00,30.15,1014.80,10.00,M,CLR,M,M,M,M,M,M,M,M,M,M,M,M,M,M,84.20,KWMC 151656Z AUTO 10SM CLR 32/M07 A3015 RMK AO2 SLP148 T03171067 TSNO,M
HND,2022-07-15 16:56,-115.1344,35.9729,742.79,90.00,59.00,35.36,350.00,7.00,0.00,30.10,1017.90,10.00,M,CLR,M,M,M,M,M,M,M,M,M,M,M,M,M,M,89.26,KHND 151656Z 35007KT 10SM CLR 32/15 A3010 RMK AO2 SLP179 T03220150,M
LAS,2022-07-15 16:56,-115.1634,36.0719,663.00,91.00,59.00,34.27,330.00,6.00,0.00,30.07,1015.50,10.00,M,FEW,SCT,BKN,M,12000.00,16000.00,22000.00,M,M,M,M,M,M,M,M,90.27,KLAS 151656Z 33006KT 10SM FEW120 SCT160 BKN220 33/15 A3007 RMK AO2 SLP155 ACC DSNT W T03280150,M
EKO,2022-07-15 16:56,-115.7860,40.8242,1367.00,86.00,48.00,26.82,M,3.00,0.00,30.20,1015.90,10.00,M,CLR,M,M,M,M,M,M,M,M,M,M,M,M,M,M,83.38,KEKO 151656Z AUTO VRB03KT 10SM CLR 30/09 A3020 RMK AO2 SLP159 T03000089,M
TPH,2022-07-15 16:56,-117.0904,38.0505,1654.00,82.00,51.00,34.25,190.00,12.00,0.00,30.27,1015.20,10.00,18.00,CLR,M,M,M,M,M,M,M,M,M,M,M,M,M,M,80.85,KTPH 151656Z AUTO 19012G18KT 10SM CLR 28/11 A3027 RMK AO2 SLP152 T02780106,M
INS,2022-07-15 16:58,-115.6733,36.5872,955.00,89.00,51.60,27.80,50.00,6.00,0.00,30.11,1014.50,10.00,M,CLR,M,M,M,M,M,M,M,M,M,M,M,M,M,M,86.51,KINS 151658Z AUTO 05006KT 10SM CLR 32/11 A3011 RMK AO2 SLP145 T03170109 $,M
LSV,2022-07-15 16:58,-115.0343,36.2362,570.00,99.30,59.40,26.92,360.00,4.00,0.00,30.03,1014.30,10.00,M,CLR,M,M,M,M,M,M,M,M,M,M,M,M,M,M,99.50,KLSV 151658Z AUTO 36004KT 10SM CLR 37/15 A3003 RMK AO2 SLP143 T03740152 $,M
RTS,2022-07-15 17:15,-119.8764,39.6682,1539.00,80.60,30.20,15.94,M,3.00,0.00,30.22,M,10.00,M,CLR,M,M,M,M,M,M,M,M,M,M,M,M,M,M,78.77,KRTS 151715Z AUTO VRB03KT 10SM CLR 27/M01 A3022 RMK AO2,M
05U,2022-07-15 17:15,-116.0051,39.6042,1811.23,84.20,51.80,32.73,130.00,8.00,0.00,30.29,M,10.00,15.00,CLR,M,M,M,M,M,M,M,M,M,M,M,M,M,M,82.48,K05U 151715Z AUTO 13008G15KT 10SM CLR 29/11 A3029 RMK A01,M
BVU,2022-07-15 17:15,-114.8611,35.9475,671.00,M,M,M,M,M,0.00,M,M,M,M,M,M,M,M,M,M,M,M,M,M,M,M,M,M,M,M,KBVU 151715Z AUTO RMK AO2 PNO PWINO TSNO,M
MEV,2022-07-15 17:15,-119.7500,38.9963,1441.42,86.00,37.40,17.85,0.00,0.00,0.00,30.17,M,10.00,M,CLR,M,M,M,M,M,M,M,M,M,M,M,M,M,M,82.73,KMEV 151715Z AUTO 00000KT 10SM CLR 30/03 A3017 RMK AO2,M
BAM,2022-07-15 17:15,-116.8743,40.5990,1382.36,M,M,M,290.00,7.00,0.00,30.17,M,10.00,M,CLR,M,M,M,M,M,M,M,M,M,M,M,M,M,M,M,KBAM 151715Z AUTO 29007KT 220V280 10SM CLR A3017 RMK AO1,M
HTH,2022-07-15 17:15,-118.6315,38.5448,1282.89,87.80,41.00,19.40,0.00,0.00,0.00,30.14,M,10.00,M,CLR,M,M,M,M,M,M,M,M,M,M,M,M,M,M,84.30,KHTH 151715Z AUTO 00000KT 10SM CLR 31/05 A3014 RMK A01,M
TMT,2022-07-15 17:15,-117.1971,39.4643,1749.34,M,M,M,250.00,6.00,0.00,30.26,M,10.00,M,CLR,M,M,M,M,M,M,M,M,M,M,M,M,M,M,M,KTMT 151715Z AUTO 25006KT 10SM CLR A3026 RMK AO2,M
CXP,2022-07-15 17:15,-119.7326,39.1923,1431.00,84.20,39.20,20.29,0.00,0.00,0.00,30.19,M,10.00,M,CLR,M,M,M,M,M,M,M,M,M,M,M,M,M,M,81.44,KCXP 151715Z AUTO 00000KT 10SM CLR 29/04 A3019 RMK AO2,M
TMT,2022-07-15 17:35,-117.1971,39.4643,1749.34,85.50,49.60,28.94,270.00,4.00,0.00,30.25,M,10.00,M,CLR,M,M,M,M,M,M,M,M,M,M,M,M,M,M,83.17,KTMT 151735Z AUTO 27004KT 10SM CLR 30/10 A3025 RMK AO2 T02970098,M
BVU,2022-07-15 17:35,-114.8611,35.9475,671.00,M,M,M,M,M,0.00,M,M,M,M,M,M,M,M,M,M,M,M,M,M,M,M,M,M,M,M,KBVU 151735Z AUTO RMK AO2 PNO PWINO TSNO,M
CXP,2022-07-15 17:35,-119.7326,39.1923,1431.00,87.80,41.00,19.40,170.00,5.00,0.00,30.18,M,10.00,M,CLR,M,M,M,M,M,M,M,M,M,M,M,M,M,M,84.30,KCXP 151735Z AUTO 17005KT 10SM CLR 31/05 A3018 RMK AO2,M
RTS,2022-07-15 17:35,-119.8764,39.6682,1539.00,82.40,26.60,12.97,0.00,0.00,0.00,30.22,M,10.00,M,CLR,M,M,M,M,M,M,M,M,M,M,M,M,M,M,79.92,KRTS 151735Z AUTO 00000KT 10SM CLR 28/M03 A3022 RMK AO2,M
05U,2022-07-15 17:35,-116.0051,39.6042,1811.23,86.00,50.00,28.90,150.00,10.00,0.00,30.29,M,10.00,15.00,CLR,M,M,M,M,M,M,M,M,M,M,M,M,M,M,83.62,K05U 151735Z AUTO 15010G15KT 10SM CLR 30/10 A3029 RMK A01,M
MEV,2022-07-15 17:35,-119.7500,38.9963,1441.42,87.80,37.40,16.86,180.00,4.00,0.00,30.17,M,10.00,10.00,CLR,M,M,M,M,M,M,M,M,M,M,M,M,M,M,84.16,KMEV 151735Z AUTO 18004G10KT 10SM CLR 31/03 A3017 RMK AO2,M
BAM,2022-07-15 17:35,-116.8743,40.5990,1382.36,M,M,M,240.00,4.00,0.00,30.17,M,10.00,M,CLR,M,M,M,M,M,M,M,M,M,M,M,M,M,M,M,KBAM 151735Z AUTO 24004KT 10SM CLR A3017 RMK AO1,M
HTH,2022-07-15 17:35,-118.6315,38.5448,1282.89,87.80,39.20,18.09,310.00,6.00,0.00,30.13,M,10.00,11.00,CLR,M,M,M,M,M,M,M,M,M,M,M,M,M,M,84.22,KHTH 151735Z AUTO 31006G11KT 10SM CLR 31/04 A3013 RMK A01,M
ELY,2022-07-15 17:53,-114.8453,39.2950,1909.00,78.00,51.00,38.92,0.00,0.00,0.00,30.34,1016.70,10.00,M,CLR,M,M,M,M,M,M,M,M,M,M,M,M,M,M,78.10,KELY 151753Z AUTO 00000KT 10SM CLR 26/11 A3034 RMK AO2 SLP167 T02560106 10256 20161 58002,M
DRA,2022-07-15 17:53,-116.0278,36.6206,1009.00,91.00,53.00,27.67,0.00,0.00,0.00,30.11,1013.80,10.00,M,CLR,M,M,M,M,M,M,M,M,M,M,M,M,M,M,88.57,KDRA 151753Z AUTO 00000KT 10SM CLR 33/12 A3011 RMK AO2 SLP138 T03280117 10339 20250 58010,M
LOL,2022-07-15 17:53,-118.5701,40.0684,1192.43,91.00,27.00,10.02,M,3.00,0.00,30.12,1014.60,10.00,M,CLR,M,M,M,M,M,M,M,M,M,M,M,M,M,M,86.10,KLOL 151753Z AUTO VRB03KT 10SM CLR 33/M03 A3012 RMK AO2 SLP146 T03281028 10328 20122 58003,M
VGT,2022-07-15 17:53,-115.1933,36.2111,667.00,96.00,58.00,28.12,20.00,4.00,0.00,30.04,1016.00,10.00,M,CLR,M,M,M,M,M,M,M,M,M,M,M,M,M,M,95.27,KVGT 151753Z 02004KT 10SM CLR 36/14 A3004 RMK AO2 SLP160 T03560144 10356 20278 58013,M
RNO,2022-07-15 17:55,-119.7711,39.4839,1341.00,87.00,37.00,16.97,260.00,3.00,0.00,30.16,1014.50,10.00,M,FEW,M,M,M,9000.00,M,M,M,M,M,M,M,M,M,M,83.59,KRNO 151755Z 26003KT 10SM FEW090 31/03 A3016 RMK AO2 SLP145 T03060028 10306 20167 58005,M
TMT,2022-07-15 17:55,-117.1971,39.4643,1749.34,M,M,M,220.00,5.00,0.00,30.25,M,10.00,M,CLR,M,M,M,M,M,M,M,M,M,M,M,M,M,M,M,KTMT 151755Z AUTO 22005KT 10SM CLR A3025 RMK AO2,M
RTS,2022-07-15 17:55,-119.8764,39.6682,1539.00,84.20,24.80,11.35,0.00,0.00,0.00,30.22,M,10.00,M,CLR,M,M,M,M,M,M,M,M,M,M,M,M,M,M,81.00,KRTS 151755Z AUTO 00000KT 10SM CLR 29/M04 A3022 RMK AO2,M
HTH,2022-07-15 17:55,-118.6315,38.5448,1282.89,89.60,42.80,19.64,360.00,7.00,0.00,30.13,M,10.00,M,CLR,M,M,M,M,M,M,M,M,M,M,M,M,M,M,85.93,KHTH 151755Z AUTO 36007KT 10SM CLR 32/06 A3013 RMK A01,M
05U,2022-07-15 17:55,-116.0051,39.6042,1811.23,86.00,50.00,28.90,0.00,0.00,0.00,30.29,M,10.00,M,CLR,M,M,M,M,M,M,M,M,M,M,M,M,M,M,83.62,K05U 151755Z AUTO 00000KT 10SM CLR 30/10 A3029 RMK A01,M
MEV,2022-07-15 17:55,-119.7500,38.9963,1441.42,87.80,39.20,18.09,160.00,5.00,0.00,30.17,M,10.00,M,CLR,M,M,M,M,M,M,M,M,M,M,M,M,M,M,84.22,KMEV 151755Z AUTO 16005KT 10SM CLR 31/04 A3017 RMK AO2,M
BAM,2022-07-15 17:55,-116.8743,40.5990,1382.36,M,M,M,170.00,4.00,0.00,30.17,M,10.00,M,CLR,M,M,M,M,M,M,M,M,M,M,M,M,M,M,M,KBAM 151755Z AUTO 17004KT 10SM CLR A3017 RMK AO1,M
BVU,2022-07-15 17:55,-114.8611,35.9475,671.00,M,M,M,M,M,0.00,M,M,M,M,M,M,M,M,M,M,M,M,M,M,M,M,M,M,M,M,KBVU 151755Z AUTO RMK AO2 PNO PWINO TSNO,M
CXP,2022-07-15 17:55,-119.7326,39.1923,1431.00,89.60,39.20,17.09,M,4.00,0.00,30.18,M,10.00,M,CLR,M,M,M,M,M,M,M,M,M,M,M,M,M,M,85.73,KCXP 151755Z AUTO VRB04KT 10SM CLR 32/04 A3018 RMK AO2,M
LAS,2022-07-15 17:56,-115.1634,36.0719,663.00,92.00,59.00,33.31,M,3.00,0.00,30.06,1015.10,10.00,M,FEW,SCT,BKN,M,12000.00,16000.00,22000.00,M,M,M,M,M,M,M,M,91.20,KLAS 151756Z VRB03KT 10SM FEW120 SCT160 BKN220 33/15 A3006 RMK AO2 SLP151 ACC DSNT NW T03330150 10339 20267 58012,M
EKO,2022-07-15 17:56,-115.7860,40.8242,1367.00,88.00,47.00,24.15,220.00,7.00,0.00,30.20,1015.80,10.00,M,CLR,M,M,M,M,M,M,M,M,M,M,M,M,M,M,84.90,KEKO 151756Z AUTO 22007KT 10SM CLR 31/08 A3020 RMK AO2 SLP158 T03110083 10317 20222 58001,M
WMC,2022-07-15 17:56,-117.8072,40.9019,1315.00,92.00,18.00,6.67,330.00,9.00,0.00,30.14,1014.70,10.00,M,CLR,M,M,M,M,M,M,M,M,M,M,M,M,M,M,86.15,KWMC 151756Z AUTO 33009KT 10SM CLR 33/M08 A3014 RMK AO2 SLP147 T03331078 10339 20122 50001 TSNO,M
HND,2022-07-15 17:56,-115.1344,35.9729,742.79,94.00,59.00,31.31,360.00,6.00,0.00,30.09,1017.50,10.00,M,CLR,M,M,M,M,M,M,M,M,M,M,M,M,M,M,93.32,KHND 151756Z 36006KT 10SM CLR 34/15 A3009 RMK AO2 SLP175 T03440150 10344 20250 58012,M
TPH,2022-07-15 17:56,-117.0904,38.0505,1654.00,85.00,51.00,31.19,170.00,8.00,0.00,30.26,1015.00,10.00,18.00,CLR,M,M,M,M,M,M,M,M,M,M,M,M,M,M,82.90,KTPH 151756Z AUTO 17008G18KT 10SM CLR 29/11 A3026 RMK AO2 SLP150 T02940106 10300 20194 58008,M
NFL,2022-07-15 17:56,-118.7010,39.4166,1199.00,90.00,37.00,15.48,350.00,3.00,0.00,30.12,1016.50,10.00,M,FEW,M,M,M,8000.00,M,M,M,M,M,M,M,M,M,M,86.00,KNFL 151756Z 35003KT 10SM FEW080 32/03 A3012 RMK SLP165 T03220028 10322 20167 58002,M
INS,2022-07-15 17:58,-115.6733,36.5872,955.00,91.40,52.70,26.93,100.00,8.00,0.00,30.10,1013.90,10.00,M,CLR,M,M,M,M,M,M,M,M,M,M,M,M,M,M,88.87,KINS 151758Z AUTO 10008KT 10SM CLR 33/12 A3010 RMK AO2 SLP139 T03300115 10330 20255 57011 $,M
LSV,2022-07-15 17:58,-115.0343,36.2362,570.00,101.50,58.00,23.87,10.00,6.00,0.00,30.01,1013.50,10.00,M,CLR,M,M,M,M,M,M,M,M,M,M,M,M,M,M,101.31,KLSV 151758Z AUTO 01006KT 10SM CLR 39/14 A3001 RMK AO2 SLP135 T03860144 10386 20254 57016 $,M
HTH,2022-07-15 18:15,-118.6315,38.5448,1282.89,89.60,41.00,18.33,340.00,8.00,0.00,30.13,M,10.00,M,CLR,M,M,M,M,M,M,M,M,M,M,M,M,M,M,85.82,KHTH 151815Z AUTO 34008KT 10SM CLR 32/05 A3013 RMK A01,M
BVU,2022-07-15 18:15,-114.8611,35.9475,671.00,M,M,M,M,M,0.00,M,M,M,M,M,M,M,M,M,M,M,M,M,M,M,M,M,M,M,M,KBVU 151815Z AUTO RMK AO2 PNO PWINO TSNO,M
CXP,2022-07-15 18:15,-119.7326,39.1923,1431.00,89.60,39.20,17.09,M,6.00,0.00,30.18,M,10.00,M,CLR,M,M,M,M,M,M,M,M,M,M,M,M,M,M,85.73,KCXP 151815Z AUTO VRB06KT 10SM CLR 32/04 A3018 RMK AO2,M
RTS,2022-07-15 18:15,-119.8764,39.6682,1539.00,86.00,23.00,9.94,0.00,0.00,0.00,30.22,M,10.00,M,CLR,M,M,M,M,M,M,M,M,M,M,M,M,M,M,82.14,KRTS 151815Z AUTO 00000KT 10SM CLR 30/M05 A3022 RMK AO2,M
05U,2022-07-15 18:15,-116.0051,39.6042,1811.23,87.80,48.20,25.52,110.00,6.00,0.00,30.29,M,10.00,M,CLR,M,M,M,M,M,M,M,M,M,M,M,M,M,M,84.87,K05U 151815Z AUTO 11006KT 10SM CLR 31/09 A3029 RMK A01,M
MEV,2022-07-15 18:15,-119.7500,38.9963,1441.42,89.60,39.20,17.09,290.00,6.00,0.00,30.16,M,10.00,M,CLR,M,M,M,M,M,M,M,M,M,M,M,M,M,M,85.73,KMEV 151815Z AUTO 29006KT 10SM CLR 32/04 A3016 RMK AO2,M
BAM,2022-07-15 18:15,-116.8743,40.5990,1382.36,M,M,M,0.00,0.00,0.00,30.17,M,10.00,M,CLR,M,M,M,M,M,M,M,M,M,M,M,M,M,M,M,KBAM 151815Z AUTO 00000KT 10SM CLR A3017 RMK AO1,M
TMT,2022-07-15 18:15,-117.1971,39.4643,1749.34,M,M,M,240.00,4.00,0.00,30.25,M,10.00,M,SCT,M,M,M,8000.00,M,M,M,M,M,M,M,M,M,M,M,KTMT 151815Z AUTO 24004KT 10SM SCT080 A3025 RMK AO2,M
05U,2022-07-15 18:30,-116.0051,39.6042,1811.23,89.60,48.20,24.11,100.00,3.00,0.00,30.29,M,10.00,M,FEW,M,M,M,7500.00,M,M,M,M,M,M,M,M,M,M,86.44,K05U 151830Z AUTO 10003KT 10SM FEW075 32/09 A3029 RMK A01,M
MEV,2022-07-15 18:35,-119.7500,38.9963,1441.42,89.60,39.20,17.09,M,4.00,0.00,30.16,M,10.00,10.00,CLR,M,M,M,M,M,M,M,M,M,M,M,M,M,M,85.73,KMEV 151835Z AUTO VRB04G10KT 10SM CLR 32/04 A3016 RMK AO2,M
BAM,2022-07-15 18:35,-116.8743,40.5990,1382.36,M,M,M,0.00,0.00,0.00,30.16,M,10.00,M,CLR,M,M,M,M,M,M,M,M,M,M,M,M,M,M,M,KBAM 151835Z AUTO 00000KT 10SM CLR A3016 RMK AO1,M
BVU,2022-07-15 18:35,-114.8611,35.9475,671.00,M,M,M,M,M,0.00,M,M,M,M,M,M,M,M,M,M,M,M,M,M,M,M,M,M,M,M,KBVU 151835Z AUTO RMK AO2 PNO PWINO TSNO,M
CXP,2022-07-15 18:35,-119.7326,39.1923,1431.00,89.60,37.40,15.92,M,6.00,0.00,30.17,M,10.00,M,CLR,M,M,M,M,M,M,M,M,M,M,M,M,M,M,85.67,KCXP 151835Z AUTO VRB06KT 10SM CLR 32/03 A3017 RMK AO2,M
RTS,2022-07-15 18:35,-119.8764,39.6682,1539.00,86.00,23.00,9.94,100.00,3.00,0.00,30.21,M,10.00,M,CLR,M,M,M,M,M,M,M,M,M,M,M,M,M,M,82.14,KRTS 151835Z AUTO 10003KT 10SM CLR 30/M05 A3021 RMK AO2,M
TMT,2022-07-15 18:35,-117.1971,39.4643,1749.34,M,M,M,230.00,9.00,0.00,30.26,M,10.00,M,CLR,M,M,M,M,M,M,M,M,M,M,M,M,M,M,M,KTMT 151835Z AUTO 23009KT 10SM CLR A3026 RMK AO2,M
HTH,2022-07-15 18:35,-118.6315,38.5448,1282.89,91.40,44.60,19.89,M,3.00,0.00,30.12,M,10.00,10.00,CLR,M,M,M,M,M,M,M,M,M,M,M,M,M,M,87.68,KHTH 151835Z AUTO VRB03G10KT 10SM CLR 33/07 A3012 RMK A01,M
DRA,2022-07-15 18:53,-116.0278,36.6206,1009.00,96.00,52.00,22.69,M,6.00,0.00,30.09,1013.20,10.00,M,CLR,M,M,M,M,M,M,M,M,M,M,M,M,M,M,93.44,KDRA 151853Z AUTO VRB06KT 10SM CLR 36/11 A3009 RMK AO2 SLP132 T03560111,M
VGT,2022-07-15 18:53,-115.1933,36.2111,667.00,97.00,57.00,26.49,170.00,6.00,0.00,30.03,1015.50,10.00,M,CLR,M,M,M,M,M,M,M,M,M,M,M,M,M,M,95.92,KVGT 151853Z 17006KT 10SM CLR 36/14 A3003 RMK AO2 SLP155 T03610139,M
ELY,2022-07-15 18:53,-114.8453,39.2950,1909.00,83.00,50.00,31.93,340.00,8.00,0.00,30.32,1015.60,10.00,M,CLR,M,M,M,M,M,M,M,M,M,M,M,M,M,M,81.32,KELY 151853Z AUTO 34008KT 310V020 10SM CLR 28/10 A3032 RMK AO2 SLP156 T02830100,M
LOL,2022-07-15 18:53,-118.5701,40.0684,1192.43,93.00,35.00,13.07,170.00,7.00,0.00,30.11,1014.60,10.00,M,CLR,M,M,M,M,M,M,M,M,M,M,M,M,M,M,88.56,KLOL 151853Z AUTO 17007KT 10SM CLR 34/02 A3011 RMK AO2 SLP146 T03390017,M
05U,2022-07-15 18:55,-116.0051,39.6042,1811.23,91.40,48.20,22.78,0.00,0.00,0.00,30.28,M,10.00,M,FEW,M,M,M,7500.00,M,M,M,M,M,M,M,M,M,M,88.09,K05U 151855Z AUTO 00000KT 10SM FEW075 33/09 A3028 RMK A01,M
BAM,2022-07-15 18:55,-116.8743,40.5990,1382.36,M,M,M,240.00,3.00,0.00,30.16,M,10.00,M,CLR,M,M,M,M,M,M,M,M,M,M,M,M,M,M,M,KBAM 151855Z AUTO 24003KT 10SM CLR A3016 RMK AO1,M
HTH,2022-07-15 18:55,-118.6315,38.5448,1282.89,93.20,44.60,18.80,M,5.00,0.00,30.11,M,10.00,M,CLR,M,M,M,M,M,M,M,M,M,M,M,M,M,M,89.34,KHTH 151855Z AUTO VRB05KT 10SM CLR 34/07 A3011 RMK A01,M
BVU,2022-07-15 18:55,-114.8611,35.9475,671.00,M,M,M,M,M,0.00,M,M,M,M,M,M,M,M,M,M,M,M,M,M,M,M,M,M,M,M,KBVU 151855Z AUTO RMK AO2 PNO PWINO TSNO,M
CXP,2022-07-15 18:55,-119.7326,39.1923,1431.00,91.40,35.60,14.02,60.00,4.00,0.00,30.17,M,10.00,10.00,CLR,M,M,M,M,M,M,M,M,M,M,M,M,M,M,87.17,KCXP 151855Z AUTO 06004G10KT 10SM CLR 33/02 A3017 RMK AO2,M
TMT,2022-07-15 18:55,-117.1971,39.4643,1749.34,M,M,M,220.00,9.00,0.00,30.25,M,10.00,M,CLR,M,M,M,M,M,M,M,M,M,M,M,M,M,M,M,KTMT 151855Z AUTO 22009KT 10SM CLR A3025 RMK AO2,M
RNO,2022-07-15 18:55,-119.7711,39.4839,1341.00,92.00,36.00,14.02,M,3.00,0.00,30.15,1014.00,10.00,M,FEW,M,M,M,6000.00,M,M,M,M,M,M,M,M,M,M,87.62,KRNO 151855Z VRB03KT 10SM FEW060 33/02 A3015 RMK AO2 SLP140 T03330022,M
RTS,2022-07-15 18:55,-119.8764,39.6682,1539.00,87.80,23.00,9.39,170.00,9.00,0.00,30.21,M,10.00,M,CLR,M,M,M,M,M,M,M,M,M,M,M,M,M,M,83.43,KRTS 151855Z AUTO 17009KT 10SM CLR 31/M05 A3021 RMK AO2,M
MEV,2022-07-15 18:55,-119.7500,38.9963,1441.42,91.40,39.20,16.15,280.00,6.00,0.00,30.16,M,0.50,M,VV ,M,M,M,500.00,M,M,M,-RA HZ,M,M,M,M,M,M,87.30,KMEV 151855Z AUTO 28006KT 1/2SM -RA HZ VV005 33/04 A3016 RMK AO2 VIS M1/4V5,M
NFL,2022-07-15 18:56,-118.7010,39.4166,1199.00,92.00,39.00,15.77,100.00,4.00,0.00,30.11,1016.10,10.00,M,SCT,M,M,M,8000.00,M,M,M,M,M,M,M,M,M,M,87.74,KNFL 151856Z 10004KT 10SM SCT080 33/04 A3011 RMK SLP161 T03330039,M
WMC,2022-07-15 18:56,-117.8072,40.9019,1315.00,94.00,28.90,9.90,250.00,11.00,0.00,30.14,1014.50,10.00,19.00,CLR,M,M,M,M,M,M,M,M,M,M,M,M,M,M,88.48,KWMC 151856Z AUTO 25011G19KT 10SM CLR 34/M02 A3014 RMK AO2 SLP145 T03441017 TSNO,M
LSV,2022-07-15 18:56,-115.0343,36.2362,570.00,103.30,57.00,21.90,0.00,0.00,0.00,30.00,1013.20,10.00,M,CLR,M,M,M,M,M,M,M,M,M,M,M,M,M,M,102.92,KLSV 151856Z AUTO 00000KT 10SM CLR 40/14 A3000 RMK AO2 SLP132 T03960139 $,M
HND,2022-07-15 18:56,-115.1344,35.9729,742.79,96.00,59.00,29.25,80.00,6.00,0.00,30.08,1016.90,10.00,M,CLR,M,M,M,M,M,M,M,M,M,M,M,M,M,M,95.72,KHND 151856Z 08006KT 10SM CLR 36/15 A3008 RMK AO2 SLP169 T03560150,M
LAS,2022-07-15 18:56,-115.1634,36.0719,663.00,95.00,57.00,28.16,M,3.00,0.00,30.04,1014.40,10.00,M,FEW,BKN,BKN,M,12000.00,16000.00,22000.00,M,M,M,M,M,M,M,M,93.75,KLAS 151856Z VRB03KT 10SM FEW120 BKN160 BKN220 35/14 A3004 RMK AO2 SLP144 ACC DSNT N AND E AND S CB DSNT NW T03500139,M
TPH,2022-07-15 18:56,-117.0904,38.0505,1654.00,90.00,49.00,24.44,230.00,14.00,0.00,30.24,1013.90,10.00,23.00,CLR,M,M,M,M,M,M,M,M,M,M,M,M,M,M,86.90,KTPH 151856Z AUTO 23014G23KT 10SM CLR 32/09 A3024 RMK AO2 SLP139 T03220094,M
INS,2022-07-15 18:56,-115.6733,36.5872,955.00,94.60,51.00,22.98,70.00,7.00,0.00,30.08,1013.00,10.00,M,FEW,M,M,M,20000.00,M,M,M,M,M,M,M,M,M,M,91.71,KINS 151856Z AUTO 07007KT 10SM FEW200 35/11 A3008 RMK AO2 SLP130 T03480106 $,M
EKO,2022-07-15 18:56,-115.7860,40.8242,1367.00,90.00,38.00,16.04,M,3.00,0.00,30.20,1015.40,10.00,M,CLR,M,M,M,M,M,M,M,M,M,M,M,M,M,M,86.03,KEKO 151856Z AUTO VRB03KT 10SM CLR 32/03 A3020 RMK AO2 SLP154 T03220033,M
HTH,2022-07-15 19:15,-118.6315,38.5448,1282.89,91.40,46.40,21.29,M,5.00,0.00,30.10,M,10.00,M,CLR,M,M,M,M,M,M,M,M,M,M,M,M,M,M,87.86,KHTH 151915Z AUTO VRB05KT 10SM CLR 33/08 A3010 RMK A01,M
BVU,2022-07-15 19:15,-114.8611,35.9475,671.00,M,M,M,M,M,0.00,M,M,M,M,M,M,M,M,M,M,M,M,M,M,M,M,M,M,M,M,KBVU 151915Z AUTO RMK AO2 PNO PWINO TSNO,M
CXP,2022-07-15 19:15,-119.7326,39.1923,1431.00,93.20,35.60,13.25,180.00,6.00,0.00,30.17,M,10.00,M,CLR,M,M,M,M,M,M,M,M,M,M,M,M,M,M,88.76,KCXP 151915Z AUTO 18006KT 10SM CLR 34/02 A3017 RMK AO2,M
RTS,2022-07-15 19:15,-119.8764,39.6682,1539.00,89.60,17.60,7.05,200.00,10.00,0.00,30.20,M,10.00,19.00,CLR,M,M,M,M,M,M,M,M,M,M,M,M,M,M,84.45,KRTS 151915Z AUTO 20010G19KT 10SM CLR 32/M08 A3020 RMK AO2,M
05U,2022-07-15 19:15,-116.0051,39.6042,1811.23,91.40,48.20,22.78,M,6.00,0.00,30.27,M,10.00,12.00,CLR,M,M,M,M,M,M,M,M,M,M,M,M,M,M,88.09,K05U 151915Z AUTO VRB06G12KT 10SM CLR 33/09 A3027 RMK A01,M
MEV,2022-07-15 19:15,-119.7500,38.9963,1441.42,91.40,39.20,16.15,300.00,7.00,0.00,30.15,M,10.00,12.00,CLR,M,M,M,M,M,M,M,M,M,M,M,M,M,M,87.30,KMEV 151915Z AUTO 30007G12KT 10SM CLR 33/04 A3015 RMK AO2,M
BAM,2022-07-15 19:15,-116.8743,40.5990,1382.36,M,M,M,190.00,8.00,0.00,30.15,M,7.00,M,CLR,M,M,M,M,M,M,M,M,M,M,M,M,M,M,M,KBAM 151915Z AUTO 19008KT 7SM CLR A3015 RMK AO1,M
TMT,2022-07-15 19:15,-117.1971,39.4643,1749.34,82.80,49.00,30.98,200.00,5.00,0.00,30.24,M,10.00,M,CLR,M,M,M,M,M,M,M,M,M,M,M,M,M,M,81.15,KTMT 151915Z AUTO 20005KT 10SM CLR 28/10 A3024 RMK AO2 LTG DSNT E THRU W T02820095,M
05U,2022-07-15 19:35,-116.0051,39.6042,1811.23,91.40,48.20,22.78,M,4.00,0.00,30.26,M,10.00,11.00,CLR,M,M,M,M,M,M,M,M,M,M,M,M,M,M,88.09,K05U 151935Z AUTO VRB04G11KT 10SM CLR 33/09 A3026 RMK A01,M
TMT,2022-07-15 19:35,-117.1971,39.4643,1749.34,82.40,49.60,31.98,150.00,5.00,0.00,30.25,M,10.00,M,CLR,M,M,M,M,M,M,M,VCTS,M,M,M,M,M,M,80.94,KTMT 151935Z AUTO 15005KT 10SM VCTS CLR 28/10 A3025 RMK AO2 LTG DSNT E THRU S T02800098,M
BAM,2022-07-15 19:35,-116.8743,40.5990,1382.36,M,M,M,200.00,11.00,0.00,30.14,M,10.00,15.00,SCT,M,M,M,11000.00,M,M,M,M,M,M,M,M,M,M,M,KBAM 151935Z AUTO 20011G15KT 190V250 10SM SCT110 A3014 RMK AO1,M
HTH,2022-07-15 19:35,-118.6315,38.5448,1282.89,93.20,46.40,20.13,0.00,0.00,0.00,30.10,M,10.00,M,CLR,M,M,M,M,M,M,M,M,M,M,M,M,M,M,89.55,KHTH 151935Z AUTO 00000KT 10SM CLR 34/08 A3010 RMK A01,M
MEV,2022-07-15 19:35,-119.7500,38.9963,1441.42,91.40,39.20,16.15,250.00,5.00,0.00,30.15,M,10.00,M,CLR,M,M,M,M,M,M,M,M,M,M,M,M,M,M,87.30,KMEV 151935Z AUTO 25005KT 10SM CLR 33/04 A3015 RMK AO2,M
BVU,2022-07-15 19:35,-114.8611,35.9475,671.00,M,M,M,M,M,0.00,M,M,M,M,M,M,M,M,M,M,M,M,M,M,M,M,M,M,M,M,KBVU 151935Z AUTO RMK AO2 PNO PWINO TSNO,M
CXP,2022-07-15 19:35,-119.7326,39.1923,1431.00,91.40,35.60,14.02,0.00,0.00,0.00,30.16,M,10.00,M,CLR,M,M,M,M,M,M,M,M,M,M,M,M,M,M,87.17,KCXP 151935Z AUTO 00000KT 10SM CLR 33/02 A3016 RMK AO2,M
RTS,2022-07-15 19:35,-119.8764,39.6682,1539.00,91.40,21.20,7.77,230.00,12.00,0.00,30.20,M,10.00,18.00,CLR,M,M,M,M,M,M,M,M,M,M,M,M,M,M,85.96,KRTS 151935Z AUTO 23012G18KT 10SM CLR 33/M06 A3020 RMK AO2,M
LOL,2022-07-15 19:53,-118.5701,40.0684,1192.43,95.00,39.00,14.33,210.00,9.00,0.00,30.09,1014.30,10.00,15.00,CLR,M,M,M,M,M,M,M,M,M,M,M,M,M,M,90.55,KLOL 151953Z AUTO 21009G15KT 10SM CLR 35/04 A3009 RMK AO2 SLP143 T03500039,M
ELY,2022-07-15 19:53,-114.8453,39.2950,1909.00,85.00,47.00,26.66,190.00,6.00,0.00,30.30,1014.60,10.00,21.00,SCT,M,M,M,7500.00,M,M,M,M,M,M,M,M,M,M,82.42,KELY 151953Z AUTO 19006G21KT 10SM SCT075 29/08 A3030 RMK AO2 SLP146 T02940083 $,M
VGT,2022-07-15 19:53,-115.1933,36.2111,667.00,100.00,56.00,23.23,140.00,8.00,0.00,30.00,1014.50,10.00,M,CLR,M,M,M,M,M,M,M,M,M,M,M,M,M,M,98.81,KVGT 151953Z 14008KT 10SM CLR 38/13 A3000 RMK AO2 LTG DSNT NW SLP145 T03780133,M
MEV,2022-07-15 19:55,-119.7500,38.9963,1441.42,93.20,37.40,14.23,310.00,6.00,0.00,30.15,M,10.00,12.00,CLR,M,M,M,M,M,M,M,M,M,M,M,M,M,M,88.83,KMEV 151955Z AUTO 31006G12KT 10SM CLR 34/03 A3015 RMK AO2,M
BVU,2022-07-15 19:55,-114.8611,35.9475,671.00,M,M,M,M,M,0.00,M,M,M,M,M,M,M,M,M,M,M,M,M,M,M,M,M,M,M,M,KBVU 151955Z AUTO RMK AO2 PNO PWINO TSNO,M
CXP,2022-07-15 19:55,-119.7326,39.1923,1431.00,93.20,35.60,13.25,M,3.00,0.00,30.16,M,10.00,11.00,CLR,M,M,M,M,M,M,M,M,M,M,M,M,M,M,88.76,KCXP 151955Z AUTO VRB03G11KT 10SM CLR 34/02 A3016 RMK AO2,M
RTS,2022-07-15 19:55,-119.8764,39.6682,1539.00,91.40,21.20,7.77,250.00,15.00,0.00,30.20,M,10.00,M,CLR,M,M,M,M,M,M,M,M,M,M,M,M,M,M,85.96,KRTS 151955Z AUTO 25015KT 10SM CLR 33/M06 A3020 RMK AO2,M
BAM,2022-07-15 19:55,-116.8743,40.5990,1382.36,M,M,M,240.00,9.00,0.00,30.13,M,10.00,17.00,CLR,M,M,M,M,M,M,M,M,M,M,M,M,M,M,M,KBAM 151955Z AUTO 24009G17KT 10SM CLR A3013 RMK AO1,M
HTH,2022-07-15 19:55,-118.6315,38.5448,1282.89,95.00,46.40,19.04,M,4.00,0.00,30.09,M,10.00,M,FEW,M,M,M,7500.00,M,M,M,M,M,M,M,M,M,M,91.29,KHTH 151955Z AUTO VRB04KT 10SM FEW075 35/08 A3009 RMK A01,M
TMT,2022-07-15 19:55,-117.1971,39.4643,1749.34,M,M,M,150.00,10.00,0.00,30.25,M,10.00,14.00,CLR,M,M,M,M,M,M,M,M,M,M,M,M,M,M,M,KTMT 151955Z AUTO 15010G14KT 10SM CLR A3025 RMK AO2 LTG DSNT SE,M
05U,2022-07-15 19:55,-116.0051,39.6042,1811.23,87.80,48.20,25.52,0.00,0.00,0.00,30.26,M,10.00,12.00,CLR,M,M,M,M,M,M,M,M,M,M,M,M,M,M,84.87,K05U 151955Z AUTO 00000G12KT 10SM CLR 31/09 A3026 RMK A01,M
RNO,2022-07-15 19:55,-119.7711,39.4839,1341.00,96.00,33.00,10.97,260.00,5.00,0.00,30.13,1013.50,10.00,M,FEW,M,M,M,6000.00,M,M,M,M,M,M,M,M,M,M,90.76,KRNO 151955Z 26005KT 10SM FEW060 36/01 A3013 RMK AO2 SLP135 T03560006,M
LAS,2022-07-15 19:56,-115.1634,36.0719,663.00,98.00,57.00,25.61,0.00,0.00,0.00,30.01,1013.40,10.00,M,FEW,SCT,SCT,M,8000.00,12000.00,16000.00,M,M,M,M,M,M,M,M,97.13,KLAS 151956Z 00000KT 10SM FEW080 SCT120 SCT160 37/14 A3001 RMK AO2 LTG DSNT W SLP134 ACC DSNT N AND SE-SW CB DSNT E AND W-NW T03670139,M
NFL,2022-07-15 19:56,-118.7010,39.4166,1199.00,97.00,41.00,14.57,340.00,8.00,0.00,30.09,1015.70,10.00,M,SCT,M,M,M,8000.00,M,M,M,M,M,M,M,M,M,M,92.58,KNFL 151956Z 34008KT 10SM SCT080 36/05 A3009 RMK SLP157 T03610050,M
TPH,2022-07-15 19:56,-117.0904,38.0505,1654.00,90.00,48.00,23.63,M,5.00,0.00,30.23,1013.70,10.00,20.00,CLR,M,M,M,M,M,M,M,M,M,M,M,M,M,M,86.78,KTPH 151956Z AUTO VRB05G20KT 10SM CLR 32/09 A3023 RMK AO2 SLP137 T03220089,M
EKO,2022-07-15 19:56,-115.7860,40.8242,1367.00,93.00,38.00,14.60,M,5.00,0.00,30.18,1014.10,10.00,14.00,CLR,M,M,M,M,M,M,M,M,M,M,M,M,M,M,88.67,KEKO 151956Z AUTO VRB05G14KT 10SM CLR 34/03 A3018 RMK AO2 SLP141 T03390033,M
HND,2022-07-15 19:56,-115.1344,35.9729,742.79,97.00,59.00,28.46,M,5.00,0.00,30.05,1016.00,10.00,M,CLR,M,M,M,M,M,M,M,M,M,M,M,M,M,M,96.72,KHND 151956Z VRB05KT 10SM CLR 36/15 A3005 RMK AO2 SLP160 T03610150,M
LSV,2022-07-15 19:56,-115.0343,36.2362,570.00,106.30,55.40,18.91,260.00,3.00,0.00,29.97,1012.10,10.00,M,CLR,M,M,M,M,M,M,M,M,M,M,M,M,M,M,105.51,KLSV 151956Z AUTO 26003KT 10SM CLR 41/13 A2997 RMK AO2 SLP121 T04130130 $,M
WMC,2022-07-15 19:56,-117.8072,40.9019,1315.00,96.00,36.00,12.31,220.00,7.00,0.00,30.12,1013.90,10.00,20.00,CLR,M,M,M,M,M,M,M,M,M,M,M,M,M,M,91.21,KWMC 151956Z AUTO 22007G20KT 180V270 10SM CLR 36/02 A3012 RMK AO2 SLP139 T03560022 TSNO,M
INS,2022-07-15 19:56,-115.6733,36.5872,955.00,96.40,50.00,20.87,50.00,7.00,0.00,30.07,1012.50,10.00,M,CLR,M,M,M,M,M,M,M,M,M,M,M,M,M,M,93.30,KINS 151956Z AUTO 05007KT 10SM CLR 36/10 A3007 RMK AO2 SLP125 T03580100 $,M
HTH,2022-07-15 20:15,-118.6315,38.5448,1282.89,95.00,46.40,19.04,340.00,8.00,0.00,30.08,M,10.00,M,CLR,M,M,M,M,M,M,M,M,M,M,M,M,M,M,91.29,KHTH 152015Z AUTO 34008KT 310V010 10SM CLR 35/08 A3008 RMK A01,M
TMT,2022-07-15 20:15,-117.1971,39.4643,1749.34,M,M,M,140.00,7.00,0.00,30.25,M,10.00,M,CLR,M,M,M,M,M,M,M,M,M,M,M,M,M,M,M,KTMT 152015Z AUTO 14007KT 10SM CLR A3025 RMK AO2 LTG DSNT N SE AND NW,M
05U,2022-07-15 20:15,-116.0051,39.6042,1811.23,86.00,50.00,28.90,140.00,7.00,0.00,30.27,M,10.00,M,CLR,M,M,M,M,M,M,M,M,M,M,M,M,M,M,83.62,K05U 152015Z AUTO 14007KT 10SM CLR 30/10 A3027 RMK A01,M
BVU,2022-07-15 20:15,-114.8611,35.9475,671.00,M,M,M,M,M,0.00,M,M,M,M,M,M,M,M,M,M,M,M,M,M,M,M,M,M,M,M,KBVU 152015Z AUTO RMK AO2 PNO PWINO TSNO,M
RTS,2022-07-15 20:15,-119.8764,39.6682,1539.00,91.40,21.20,7.77,270.00,11.00,0.00,30.19,M,10.00,20.00,CLR,M,M,M,M,M,M,M,M,M,M,M,M,M,M,85.96,KRTS 152015Z AUTO 27011G20KT 10SM CLR 33/M06 A3019 RMK AO2,M
MEV,2022-07-15 20:15,-119.7500,38.9963,1441.42,93.20,37.40,14.23,300.00,6.00,0.00,30.14,M,10.00,M,CLR,M,M,M,M,M,M,M,M,M,M,M,M,M,M,88.83,KMEV 152015Z AUTO 30006KT 10SM CLR 34/03 A3014 RMK AO2,M
CXP,2022-07-15 20:15,-119.7326,39.1923,1431.00,93.20,35.60,13.25,220.00,9.00,0.00,30.16,M,10.00,17.00,CLR,M,M,M,M,M,M,M,M,M,M,M,M,M,M,88.76,KCXP 152015Z AUTO 22009G17KT 10SM CLR 34/02 A3016 RMK AO2,M
BAM,2022-07-15 20:15,-116.8743,40.5990,1382.36,M,M,M,270.00,13.00,0.00,30.13,M,10.00,19.00,CLR,M,M,M,M,M,M,M,M,M,M,M,M,M,M,M,KBAM 152015Z AUTO 27013G19KT 250V310 10SM CLR A3013 RMK AO1,M
CXP,2022-07-15 20:30,-119.7326,39.1923,1431.00,93.20,37.40,14.23,250.00,12.00,0.00,30.16,M,10.00,17.00,CLR,M,M,M,M,M,M,M,M,M,M,M,M,M,M,88.83,KCXP 152030Z AUTO 25012G17KT 10SM CLR 34/03 A3016 RMK AO2,M
TMT,2022-07-15 20:35,-117.1971,39.4643,1749.34,M,M,M,140.00,8.00,0.00,30.24,M,10.00,M,SCT,M,M,M,11000.00,M,M,M,VCTS,M,M,M,M,M,M,M,KTMT 152035Z AUTO 14008KT 10SM VCTS SCT110 A3024 RMK AO2 LTG DSNT NW THRU NE,M
05U,2022-07-15 20:35,-116.0051,39.6042,1811.23,84.20,51.80,32.73,170.00,15.00,0.00,30.26,M,10.00,21.00,CLR,M,M,M,M,M,M,M,M,M,M,M,M,M,M,82.48,K05U 152035Z AUTO 17015G21KT 10SM CLR 29/11 A3026 RMK A01,M
MEV,2022-07-15 20:35,-119.7500,38.9963,1441.42,95.00,41.00,15.49,310.00,8.00,0.00,30.14,M,10.00,M,CLR,M,M,M,M,M,M,M,M,M,M,M,M,M,M,90.70,KMEV 152035Z AUTO 31008KT 10SM CLR 35/05 A3014 RMK AO2,M
BAM,2022-07-15 20:35,-116.8743,40.5990,1382.36,M,M,M,280.00,13.00,0.00,30.13,M,10.00,19.00,CLR,M,M,M,M,M,M,M,M,M,M,M,M,M,M,M,KBAM 152035Z AUTO 28013G19KT 10SM CLR A3013 RMK AO1,M
BVU,2022-07-15 20:35,-114.8611,35.9475,671.00,M,M,M,M,M,0.00,M,M,M,M,M,M,M,M,M,M,M,M,M,M,M,M,M,M,M,M,KBVU 152035Z AUTO RMK AO2 PNO PWINO TSNO,M
HTH,2022-07-15 20:35,-118.6315,38.5448,1282.89,95.00,46.40,19.04,330.00,11.00,0.00,30.07,M,10.00,16.00,CLR,M,M,M,M,M,M,M,M,M,M,M,M,M,M,91.29,KHTH 152035Z AUTO 33011G16KT 10SM CLR 35/08 A3007 RMK A01,M
RTS,2022-07-15 20:35,-119.8764,39.6682,1539.00,91.40,23.00,8.38,220.00,12.00,0.00,30.19,M,10.00,18.00,CLR,M,M,M,M,M,M,M,M,M,M,M,M,M,M,86.08,KRTS 152035Z AUTO 22012G18KT 10SM CLR 33/M05 A3019 RMK AO2,M
VGT,2022-07-15 20:53,-115.1933,36.2111,667.00,101.00,56.00,22.61,0.00,0.00,0.00,29.97,1013.50,10.00,M,CLR,M,M,M,M,M,M,M,M,M,M,M,M,M,M,99.80,KVGT 152053Z 00000KT 10SM CLR 38/13 A2997 RMK AO2 LTG DSNT N SLP135 T03830133 58022,M
LOL,2022-07-15 20:53,-118.5701,40.0684,1192.43,97.00,37.00,12.46,210.00,11.00,0.00,30.07,1013.30,10.00,M,CLR,M,M,M,M,M,M,M,M,M,M,M,M,M,M,92.13,KLOL 152053Z AUTO 21011KT 10SM CLR 36/03 A3007 RMK AO2 SLP133 T03610028 58015,M
DRA,2022-07-15 20:53,-116.0278,36.6206,1009.00,101.00,50.00,18.21,230.00,10.00,0.00,30.05,1011.50,10.00,22.00,CLR,M,M,M,M,M,M,M,M,M,M,M,M,M,M,97.94,KDRA 152053Z AUTO 23010G22KT 10SM CLR 38/10 A3005 RMK AO2 SLP115 T03830100 58018,M
ELY,2022-07-15 20:53,-114.8453,39.2950,1909.00,87.00,45.00,23.12,300.00,7.00,0.00,30.27,1013.70,10.00,M,CLR,M,M,M,M,M,M,M,M,M,M,M,M,M,M,83.98,KELY 152053Z AUTO 30007KT 10SM CLR 31/07 A3027 RMK AO2 SLP137 T03060072 58019 $,M
P68,2022-07-15 20:53,-116.0056,39.6014,1993.00,77.00,47.00,34.50,180.00,16.00,0.00,30.23,1014.60,M,27.00,M,M,M,M,M,M,M,M,M,M,M,M,29.00,180.00,2022-07-15 20:35,77.00,KP68 152053Z AUTO 18016G27KT 25/08 A3023 RMK AO1 PK WND 18029/2035 SLP146 T02500083 55008,M
MEV,2022-07-15 20:55,-119.7500,38.9963,1441.42,93.20,41.00,16.37,310.00,7.00,0.00,30.13,M,10.00,17.00,CLR,M,M,M,M,M,M,M,M,M,M,M,M,M,M,89.03,KMEV 152055Z AUTO 31007G17KT 270V350 10SM CLR 34/05 A3013 RMK AO2,M
RTS,2022-07-15 20:55,-119.8764,39.6682,1539.00,91.40,23.00,8.38,250.00,10.00,0.00,30.19,M,10.00,18.00,CLR,M,M,M,M,M,M,M,M,M,M,M,M,M,M,86.08,KRTS 152055Z AUTO 25010G18KT 10SM CLR 33/M05 A3019 RMK AO2,M
05U,2022-07-15 20:55,-116.0051,39.6042,1811.23,77.00,44.60,31.62,170.00,16.00,0.00,30.26,M,10.00,M,CLR,M,M,M,M,M,M,M,M,M,M,M,M,M,M,77.00,K05U 152055Z AUTO 17016KT 10SM CLR 25/07 A3026 RMK A01,M
BVU,2022-07-15 20:55,-114.8611,35.9475,671.00,M,M,M,M,M,0.00,M,M,M,M,M,M,M,M,M,M,M,M,M,M,M,M,M,M,M,M,KBVU 152055Z AUTO RMK AO2 PNO PWINO TSNO,M
CXP,2022-07-15 20:55,-119.7326,39.1923,1431.00,95.00,37.40,13.46,230.00,9.00,0.00,30.15,M,10.00,15.00,CLR,M,M,M,M,M,M,M,M,M,M,M,M,M,M,90.46,KCXP 152055Z AUTO 23009G15KT 10SM CLR 35/03 A3015 RMK AO2,M
RNO,2022-07-15 20:55,-119.7711,39.4839,1341.00,98.00,37.00,12.05,260.00,8.00,0.00,30.11,1012.70,10.00,19.00,FEW,M,M,M,6000.00,M,M,M,M,M,M,M,M,M,M,93.05,KRNO 152055Z 26008G19KT 10SM FEW060 37/03 A3011 RMK AO2 SLP127 T03670028 58015,M
TMT,2022-07-15 20:55,-117.1971,39.4643,1749.34,85.00,48.40,28.21,130.00,8.00,0.00,30.22,M,10.00,M,SCT,M,M,M,11000.00,M,M,M,M,M,M,M,M,M,M,82.57,KTMT 152055Z AUTO 13008KT 10SM SCT110 29/09 A3022 RMK AO2 LTG DSNT N AND NW T02940091,M
HTH,2022-07-15 20:55,-118.6315,38.5448,1282.89,95.00,46.40,19.04,50.00,6.00,0.00,30.07,M,10.00,12.00,CLR,M,M,M,M,M,M,M,M,M,M,M,M,M,M,91.29,KHTH 152055Z AUTO 05006G12KT 10SM CLR 35/08 A3007 RMK A01,M
BAM,2022-07-15 20:55,-116.8743,40.5990,1382.36,M,M,M,290.00,11.00,0.00,30.12,M,10.00,18.00,CLR,M,M,M,M,M,M,M,M,M,M,M,M,M,M,M,KBAM 152055Z AUTO 29011G18KT 270V340 10SM CLR A3012 RMK AO1,M
INS,2022-07-15 20:56,-115.6733,36.5872,955.00,97.30,49.50,19.93,0.00,0.00,0.00,30.04,1011.70,10.00,M,CLR,M,M,M,M,M,M,M,M,M,M,M,M,M,M,94.11,KINS 152056Z AUTO 00000KT 10SM CLR 36/10 A3004 RMK AO2 SLP117 T03630097 57019 $,M
LAS,2022-07-15 20:56,-115.1634,36.0719,663.00,100.00,56.00,23.23,M,4.00,0.00,29.98,1012.30,10.00,M,FEW,SCT,SCT,M,8000.00,12000.00,16000.00,M,M,M,M,M,M,M,M,98.81,KLAS 152056Z VRB04KT 10SM FEW080 SCT120 SCT160 38/13 A2998 RMK AO2 SLP123 CB DSNT N AND S AND NW ACC DSNT NE-SE AND SW-W T03780133 58024,M
HND,2022-07-15 20:56,-115.1344,35.9729,742.79,102.00,57.00,22.77,0.00,0.00,0.00,30.02,1014.60,10.00,M,CLR,M,M,M,M,M,M,M,M,M,M,M,M,M,M,101.47,KHND 152056Z 00000KT 10SM CLR 39/14 A3002 RMK AO2 SLP146 T03890139 58025,M
TPH,2022-07-15 20:56,-117.0904,38.0505,1654.00,93.00,47.00,20.64,210.00,8.00,0.00,30.20,1012.70,10.00,31.00,CLR,M,M,M,M,M,M,M,M,M,M,M,31.00,180.00,2022-07-15 20:47,89.43,KTPH 152056Z AUTO 21008G31KT 10SM CLR 34/08 A3020 RMK AO2 PK WND 18031/2047 SLP127 T03390083 58017,M
EKO,2022-07-15 20:56,-115.7860,40.8242,1367.00,95.00,37.00,13.25,220.00,10.00,0.00,30.15,1013.40,10.00,18.00,CLR,M,M,M,M,M,M,M,M,M,M,M,M,M,M,90.44,KEKO 152056Z AUTO 22010G18KT 10SM CLR 35/03 A3015 RMK AO2 SLP134 T03500028 58013,M
NFL,2022-07-15 20:56,-118.7010,39.4166,1199.00,98.00,40.00,13.50,350.00,8.00,0.00,30.07,1015.00,10.00,M,SCT,SCT,M,M,8000.00,12000.00,M,M,M,M,M,M,M,M,M,93.51,KNFL 152056Z 35008KT 10SM SCT080 SCT120 37/04 A3007 RMK SLP150 TCU DSNT SE-S T03670044 58015,M
WMC,2022-07-15 20:56,-117.8072,40.9019,1315.00,97.00,34.00,11.06,210.00,10.00,0.00,30.11,1013.60,10.00,22.00,CLR,M,M,M,M,M,M,M,M,M,M,M,M,M,M,91.64,KWMC 152056Z AUTO 21010G22KT 10SM CLR 36/01 A3011 RMK AO2 SLP136 T03610011 58011 TSNO,M
LSV,2022-07-15 20:56,-115.0343,36.2362,570.00,107.60,56.50,18.94,10.00,4.00,0.00,29.94,1011.00,10.00,M,CLR,M,M,M,M,M,M,M,M,M,M,M,M,M,M,107.43,KLSV 152056Z AUTO 01004KT 10SM CLR 42/14 A2994 RMK AO2 SLP110 T04200136 57023 $,M
BAM,2022-07-15 21:15,-116.8743,40.5990,1382.36,M,M,M,250.00,11.00,0.00,30.11,M,10.00,17.00,CLR,M,M,M,M,M,M,M,M,M,M,M,M,M,M,M,KBAM 152115Z AUTO 25011G17KT 10SM CLR A3011 RMK AO1,M
TMT,2022-07-15 21:15,-117.1971,39.4643,1749.34,85.80,49.00,28.13,10.00,10.00,0.00,30.22,M,10.00,18.00,CLR,M,M,M,M,M,M,M,M,M,M,M,M,M,M,83.34,KTMT 152115Z AUTO 01010G18KT 10SM CLR 30/10 A3022 RMK AO2 LTG DSNT N AND NE T02990095,M
HTH,2022-07-15 21:15,-118.6315,38.5448,1282.89,93.20,50.00,23.04,80.00,7.00,0.00,30.07,M,10.00,M,CLR,M,M,M,M,M,M,M,M,M,M,M,M,M,M,90.10,KHTH 152115Z AUTO 08007KT 10SM CLR 34/10 A3007 RMK A01,M
MEV,2022-07-15 21:15,-119.7500,38.9963,1441.42,95.00,41.00,15.49,300.00,12.00,0.00,30.12,M,10.00,M,CLR,M,M,M,M,M,M,M,M,M,M,M,M,M,M,90.70,KMEV 152115Z AUTO 30012KT 10SM CLR 35/05 A3012 RMK AO2,M
05U,2022-07-15 21:15,-116.0051,39.6042,1811.23,78.80,44.60,29.79,160.00,18.00,0.00,30.26,M,9.00,28.00,FEW,FEW,SCT,M,4700.00,6000.00,10000.00,M,M,M,M,M,M,M,M,78.80,K05U 152115Z AUTO 16018G28KT 9SM FEW047 FEW060 SCT100 26/07 A3026 RMK A01,M
RTS,2022-07-15 21:15,-119.8764,39.6682,1539.00,91.40,24.80,9.04,280.00,8.00,0.00,30.18,M,10.00,17.00,CLR,M,M,M,M,M,M,M,M,M,M,M,M,M,M,86.21,KRTS 152115Z AUTO 28008G17KT 230V320 10SM CLR 33/M04 A3018 RMK AO2,M
CXP,2022-07-15 21:15,-119.7326,39.1923,1431.00,95.00,37.40,13.46,270.00,15.00,0.00,30.14,M,10.00,21.00,CLR,M,M,M,M,M,M,M,M,M,M,M,M,M,M,90.46,KCXP 152115Z AUTO 27015G21KT 10SM CLR 35/03 A3014 RMK AO2,M
BVU,2022-07-15 21:15,-114.8611,35.9475,671.00,M,M,M,M,M,0.00,M,M,M,M,M,M,M,M,M,M,M,M,M,M,M,M,M,M,M,M,KBVU 152115Z AUTO RMK AO2 PNO PWINO TSNO,M
HTH,2022-07-15 21:35,-118.6315,38.5448,1282.89,95.00,46.40,19.04,30.00,8.00,0.00,30.05,M,10.00,M,CLR,M,M,M,M,M,M,M,M,M,M,M,M,M,M,91.29,KHTH 152135Z AUTO 03008KT 350V070 10SM CLR 35/08 A3005 RMK A01,M
BVU,2022-07-15 21:35,-114.8611,35.9475,671.00,M,M,M,M,M,0.00,M,M,M,M,M,M,M,M,M,M,M,M,M,M,M,M,M,M,M,M,KBVU 152135Z AUTO RMK AO2 PNO PWINO TSNO,M
CXP,2022-07-15 21:35,-119.7326,39.1923,1431.00,95.00,39.20,14.44,260.00,12.00,0.00,30.14,M,10.00,19.00,CLR,M,M,M,M,M,M,M,M,M,M,M,M,M,M,90.57,KCXP 152135Z AUTO 26012G19KT 10SM CLR 35/04 A3014 RMK AO2,M
RTS,2022-07-15 21:35,-119.8764,39.6682,1539.00,91.40,26.60,9.74,250.00,14.00,0.00,30.18,M,10.00,21.00,CLR,M,M,M,M,M,M,M,M,M,M,M,M,M,M,86.36,KRTS 152135Z AUTO 25014G21KT 10SM CLR 33/M03 A3018 RMK AO2,M
05U,2022-07-15 21:35,-116.0051,39.6042,1811.23,71.60,53.60,53.03,320.00,17.00,0.00,30.37,M,2.00,28.00,FEW,SCT,OVC,M,400.00,5500.00,9500.00,M,HZ,M,M,M,M,M,M,71.60,K05U 152135Z AUTO 32017G28KT 2SM HZ FEW004 SCT055 OVC095 22/12 A3037 RMK A01 VIS 3/4V5,M
MEV,2022-07-15 21:35,-119.7500,38.9963,1441.42,96.80,41.00,14.66,290.00,10.00,0.00,30.12,M,10.00,M,CLR,M,M,M,M,M,M,M,M,M,M,M,M,M,M,92.39,KMEV 152135Z AUTO 29010KT 10SM CLR 36/05 A3012 RMK AO2,M
BAM,2022-07-15 21:35,-116.8743,40.5990,1382.36,M,M,M,220.00,8.00,0.00,30.10,M,10.00,18.00,CLR,M,M,M,M,M,M,M,M,M,M,M,M,M,M,M,KBAM 152135Z AUTO 22008G18KT 10SM CLR A3010 RMK AO1,M
TMT,2022-07-15 21:35,-117.1971,39.4643,1749.34,89.00,46.00,22.69,20.00,9.00,0.00,30.22,M,10.00,M,SCT,M,M,M,11000.00,M,M,M,M,M,M,M,M,M,M,85.58,KTMT 152135Z AUTO 02009KT 10SM SCT110 32/08 A3022 RMK AO2 LTG DSNT NW T03160078,M
P68,2022-07-15 21:42,-116.0056,39.6014,1993.00,66.00,50.00,56.27,330.00,5.00,0.11,30.35,M,M,34.00,M,M,M,M,M,M,M,M,M,M,M,M,36.00,300.00,2022-07-15 21:32,66.00,KP68 152142Z AUTO 33005G34KT 19/10 A3035 RMK AO1 PK WND 30036/2132 WSHFT 2125 P0011 T01890100,M
ELY,2022-07-15 21:53,-114.8453,39.2950,1909.00,90.00,43.00,19.55,170.00,8.00,0.00,30.24,1012.50,10.00,15.00,CLR,M,M,M,M,M,M,M,M,M,M,M,M,M,M,86.29,KELY 152153Z AUTO 17008G15KT 10SM CLR 32/06 A3024 RMK AO2 LTG DSNT NW SLP125 T03220061 $,M
P68,2022-07-15 21:53,-116.0056,39.6014,1993.00,68.00,50.00,52.51,110.00,10.00,0.24,30.32,1018.60,M,15.00,M,M,M,M,M,M,M,M,M,M,M,M,36.00,300.00,2022-07-15 21:32,68.00,KP68 152153Z AUTO 11010G15KT 20/10 A3032 RMK AO1 PK WND 30036/2132 WSHFT 2125 SLP186 P0024 T02000100,M
VGT,2022-07-15 21:53,-115.1933,36.2111,667.00,103.00,55.00,20.61,200.00,5.00,0.00,29.94,1012.40,10.00,M,CLR,M,M,M,M,M,M,M,M,M,M,M,M,M,M,101.65,KVGT 152153Z AUTO 20005KT 10SM CLR 39/13 A2994 RMK AO2 SLP124 T03940128,M
LOL,2022-07-15 21:53,-118.5701,40.0684,1192.43,98.00,37.00,12.05,M,3.00,0.00,30.04,1012.80,10.00,M,CLR,M,M,M,M,M,M,M,M,M,M,M,M,M,M,93.05,KLOL 152153Z AUTO VRB03KT 10SM CLR 37/03 A3004 RMK AO2 SLP128 T03670028,M
DRA,2022-07-15 21:53,-116.0278,36.6206,1009.00,102.00,49.00,16.91,M,M,0.00,30.02,1010.70,10.00,M,CLR,M,M,M,M,M,M,M,M,M,M,M,M,M,M,98.79,KDRA 152153Z AUTO 10SM CLR 39/09 A3002 RMK AO2 SLP107 T03890094,M
HTH,2022-07-15 21:55,-118.6315,38.5448,1282.89,95.00,46.40,19.04,10.00,8.00,0.00,30.05,M,10.00,M,CLR,M,M,M,M,M,M,M,M,M,M,M,M,M,M,91.29,KHTH 152155Z AUTO 01008KT 10SM CLR 35/08 A3005 RMK A01,M
TMT,2022-07-15 21:55,-117.1971,39.4643,1749.34,87.60,49.00,26.36,30.00,15.00,0.00,30.21,M,10.00,20.00,CLR,M,M,M,M,M,M,M,M,M,M,M,M,M,M,84.79,KTMT 152155Z AUTO 03015G20KT 10SM CLR 31/09 A3021 RMK AO2 LTG DSNT NE T03090094,M
RNO,2022-07-15 21:55,-119.7711,39.4839,1341.00,99.00,41.00,13.70,230.00,14.00,0.00,30.09,1012.30,10.00,20.00,FEW,M,M,M,6000.00,M,M,M,M,M,M,M,M,M,M,94.47,KRNO 152155Z 23014G20KT 200V270 10SM FEW060 37/05 A3009 RMK AO2 SLP123 T03720050,M
BAM,2022-07-15 21:55,-116.8743,40.5990,1382.36,M,M,M,250.00,15.00,0.00,30.10,M,10.00,20.00,CLR,M,M,M,M,M,M,M,M,M,M,M,M,M,M,M,KBAM 152155Z AUTO 25015G20KT 10SM CLR A3010 RMK AO1,M
05U,2022-07-15 21:55,-116.0051,39.6042,1811.23,64.40,51.80,63.60,110.00,10.00,0.21,30.33,M,3.00,M,SCT,BKN,OVC,M,300.00,2700.00,9000.00,M,HZ,M,M,M,M,M,M,64.40,K05U 152155Z AUTO 11010KT 3SM HZ SCT003 BKN027 OVC090 18/11 A3033 RMK A01 P0021,M
BVU,2022-07-15 21:55,-114.8611,35.9475,671.00,M,M,M,M,M,0.00,M,M,M,M,M,M,M,M,M,M,M,M,M,M,M,M,M,M,M,M,KBVU 152155Z AUTO RMK AO2 PNO PWINO TSNO,M
CXP,2022-07-15 21:55,-119.7326,39.1923,1431.00,95.00,39.20,14.44,270.00,12.00,0.00,30.13,M,10.00,25.00,CLR,M,M,M,M,M,M,M,M,M,M,M,M,M,M,90.57,KCXP 152155Z AUTO 27012G25KT 230V290 10SM CLR 35/04 A3013 RMK AO2,M
MEV,2022-07-15 21:55,-119.7500,38.9963,1441.42,96.80,41.00,14.66,260.00,14.00,0.00,30.12,M,10.00,21.00,CLR,M,M,M,M,M,M,M,M,M,M,M,M,M,M,92.39,KMEV 152155Z AUTO 26014G21KT 10SM CLR 36/05 A3012 RMK AO2,M
RTS,2022-07-15 21:55,-119.8764,39.6682,1539.00,93.20,30.20,10.67,250.00,16.00,0.00,30.17,M,10.00,23.00,CLR,M,M,M,M,M,M,M,M,M,M,M,M,M,M,88.09,KRTS 152155Z AUTO 25016G23KT 10SM CLR 34/M01 A3017 RMK AO2,M
LAS,2022-07-15 21:56,-115.1634,36.0719,663.00,102.00,55.00,21.17,0.00,0.00,0.00,29.95,1011.00,10.00,M,FEW,FEW,SCT,M,8000.00,12000.00,16000.00,M,M,M,M,M,M,M,M,100.66,KLAS 152156Z 00000KT 10SM FEW080 FEW120 SCT160 39/13 A2995 RMK AO2 SLP110 CB DSNT N AND S ACC DSNT NE-SE AND SW-W T03890128,M
TPH,2022-07-15 21:56,-117.0904,38.0505,1654.00,95.00,46.00,18.76,210.00,16.00,0.00,30.16,1011.40,10.00,23.00,FEW,M,M,M,10000.00,M,M,M,M,M,M,M,27.00,200.00,2022-07-15 21:32,91.23,KTPH 152156Z AUTO 21016G23KT 10SM FEW100 35/08 A3016 RMK AO2 PK WND 20027/2132 SLP114 T03500078,M
LSV,2022-07-15 21:56,-115.0343,36.2362,570.00,110.00,55.40,16.92,70.00,3.00,0.00,29.91,1009.90,10.00,M,CLR,M,M,M,M,M,M,M,M,M,M,M,M,M,M,109.56,KLSV 152156Z AUTO 07003KT 10SM CLR 43/13 A2991 RMK AO2 SLP099 T04340130 $,M
INS,2022-07-15 21:56,-115.6733,36.5872,955.00,98.80,49.30,18.90,120.00,5.00,0.00,30.02,1011.00,10.00,M,CLR,M,M,M,M,M,M,M,M,M,M,M,M,M,M,95.61,KINS 152156Z AUTO 12005KT 10SM CLR 37/10 A3002 RMK AO2 SLP110 T03710096 $,M
HND,2022-07-15 21:56,-115.1344,35.9729,742.79,104.00,56.00,20.61,0.00,0.00,0.00,29.98,1013.30,10.00,M,CLR,M,M,M,M,M,M,M,M,M,M,M,M,M,M,103.22,KHND 152156Z 00000KT 10SM CLR 40/13 A2998 RMK AO2 SLP133 T04000133,M
EKO,2022-07-15 21:56,-115.7860,40.8242,1367.00,96.00,35.00,11.88,220.00,9.00,0.00,30.13,1012.70,10.00,16.00,CLR,M,M,M,M,M,M,M,M,M,M,M,M,M,M,91.07,KEKO 152156Z AUTO 22009G16KT 10SM CLR 36/02 A3013 RMK AO2 SLP127 T03560017,M
WMC,2022-07-15 21:56,-117.8072,40.9019,1315.00,98.00,35.00,11.17,M,4.00,0.00,30.08,1012.50,10.00,18.00,CLR,M,M,M,M,M,M,M,M,M,M,M,29.00,250.00,2022-07-15 21:19,92.73,KWMC 152156Z AUTO VRB04G18KT 10SM CLR 37/02 A3008 RMK AO2 PK WND 25029/2119 SLP125 T03670017 TSNO,M
NFL,2022-07-15 21:56,-118.7010,39.4166,1199.00,98.00,38.00,12.48,330.00,8.00,0.00,30.04,1014.10,10.00,M,SCT,SCT,M,M,8000.00,12000.00,M,M,M,M,M,M,M,M,M,93.22,KNFL 152156Z 33008KT 10SM SCT080 SCT120 37/03 A3004 RMK SLP141 TCU DSNT E-S-SW T03670033,M
MEV,2022-07-15 22:15,-119.7500,38.9963,1441.42,96.80,42.80,15.71,280.00,14.00,0.00,30.11,M,10.00,20.00,CLR,M,M,M,M,M,M,M,M,M,M,M,M,M,M,92.57,KMEV 152215Z AUTO 28014G20KT 230V300 10SM CLR 36/06 A3011 RMK AO2,M
TMT,2022-07-15 22:15,-117.1971,39.4643,1749.34,88.70,50.40,26.93,10.00,17.00,0.00,30.20,M,10.00,20.00,CLR,M,M,M,M,M,M,M,VCTS,M,M,M,M,M,M,85.95,KTMT 152215Z AUTO 01017G20KT 10SM VCTS CLR 32/10 A3020 RMK AO2 LTG DSNT NE THRU S T03150102,M
HTH,2022-07-15 22:15,-118.6315,38.5448,1282.89,91.40,53.60,27.83,120.00,23.00,0.00,30.06,M,10.00,30.00,CLR,M,M,M,M,M,M,M,M,M,M,M,M,M,M,89.08,KHTH 152215Z AUTO 12023G30KT 10SM CLR 33/12 A3006 RMK A01,M
BVU,2022-07-15 22:15,-114.8611,35.9475,671.00,M,M,M,M,M,0.00,M,M,M,M,M,M,M,M,M,M,M,M,M,M,M,M,M,M,M,M,KBVU 152215Z AUTO RMK AO2 PNO PWINO TSNO,M
CXP,2022-07-15 22:15,-119.7326,39.1923,1431.00,95.00,41.00,15.49,280.00,19.00,0.00,30.12,M,10.00,M,CLR,M,M,M,M,M,M,M,M,M,M,M,M,M,M,90.70,KCXP 152215Z AUTO 28019KT 10SM CLR 35/05 A3012 RMK AO2,M
RTS,2022-07-15 22:15,-119.8764,39.6682,1539.00,91.40,32.00,12.14,240.00,14.00,0.00,30.17,M,10.00,22.00,CLR,M,M,M,M,M,M,M,M,M,M,M,M,M,M,86.91,KRTS 152215Z AUTO 24014G22KT 10SM CLR 33/00 A3017 RMK AO2,M
05U,2022-07-15 22:15,-116.0051,39.6042,1811.23,64.40,55.40,72.56,110.00,16.00,0.00,30.31,M,8.00,24.00,FEW,SCT,BKN,M,2800.00,4300.00,5500.00,M,M,M,M,M,M,M,M,64.40,K05U 152215Z AUTO 11016G24KT 8SM FEW028 SCT043 BKN055 18/13 A3031 RMK A01,M
BAM,2022-07-15 22:15,-116.8743,40.5990,1382.36,M,M,M,280.00,9.00,0.00,30.09,M,10.00,17.00,CLR,M,M,M,M,M,M,M,M,M,M,M,M,M,M,M,KBAM 152215Z AUTO 28009G17KT 10SM CLR A3009 RMK AO1,M
CXP,2022-07-15 22:35,-119.7326,39.1923,1431.00,95.00,41.00,15.49,270.00,15.00,0.00,30.12,M,10.00,24.00,CLR,M,M,M,M,M,M,M,M,M,M,M,M,M,M,90.70,KCXP 152235Z AUTO 27015G24KT 230V290 10SM CLR 35/05 A3012 RMK AO2,M
BVU,2022-07-15 22:35,-114.8611,35.9475,671.00,M,M,M,M,M,0.00,M,M,M,M,M,M,M,M,M,M,M,M,M,M,M,M,M,M,M,M,KBVU 152235Z AUTO RMK AO2 PNO PWINO TSNO,M
HTH,2022-07-15 22:35,-118.6315,38.5448,1282.89,86.00,50.00,28.90,110.00,17.00,0.00,30.06,M,10.00,22.00,SCT,M,M,M,12000.00,M,M,M,M,M,M,M,M,M,M,83.62,KHTH 152235Z AUTO 11017G22KT 10SM SCT120 30/10 A3006 RMK A01,M
BAM,2022-07-15 22:35,-116.8743,40.5990,1382.36,M,M,M,250.00,8.00,0.00,30.08,M,10.00,12.00,CLR,M,M,M,M,M,M,M,M,M,M,M,M,M,M,M,KBAM 152235Z AUTO 25008G12KT 10SM CLR A3008 RMK AO1,M
MEV,2022-07-15 22:35,-119.7500,38.9963,1441.42,96.80,42.80,15.71,250.00,15.00,0.00,30.10,M,10.00,21.00,CLR,M,M,M,M,M,M,M,M,M,M,M,M,M,M,92.57,KMEV 152235Z AUTO 25015G21KT 10SM CLR 36/06 A3010 RMK AO2,M
05U,2022-07-15 22:35,-116.0051,39.6042,1811.23,68.00,50.00,52.51,130.00,16.00,0.00,30.30,M,10.00,22.00,FEW,FEW,FEW,M,4400.00,5500.00,9000.00,M,M,M,M,M,M,M,M,68.00,K05U 152235Z AUTO 13016G22KT 10SM FEW044 FEW055 FEW090 20/10 A3030 RMK A01,M
TMT,2022-07-15 22:35,-117.1971,39.4643,1749.34,85.00,50.40,30.20,30.00,12.00,0.00,30.20,M,10.00,M,CLR,M,M,M,M,M,M,M,VCTS,M,M,M,M,M,M,82.96,KTMT 152235Z AUTO 03012KT 10SM VCTS CLR 30/10 A3020 RMK AO2 LTG DSNT SE THRU NW T02950102,M
RTS,2022-07-15 22:35,-119.8764,39.6682,1539.00,91.40,32.00,12.14,260.00,10.00,0.00,30.16,M,10.00,22.00,CLR,M,M,M,M,M,M,M,M,M,M,M,M,M,M,86.91,KRTS 152235Z AUTO 26010G22KT 10SM CLR 33/00 A3016 RMK AO2,M
INS,2022-07-15 22:47,-115.6733,36.5872,955.00,100.40,48.20,17.28,60.00,4.00,0.00,29.98,1009.70,10.00,M,CLR,M,M,M,M,M,M,M,M,M,M,M,M,M,M,97.00,KINS 152247Z AUTO 06004KT 10SM CLR 38/09 A2998 RMK AO2 SLP097 $,M
DRA,2022-07-15 22:53,-116.0278,36.6206,1009.00,101.00,48.00,16.90,M,M,0.00,29.99,1009.50,10.00,M,CLR,M,M,M,M,M,M,M,M,M,M,M,M,M,M,97.46,KDRA 152253Z AUTO 10SM CLR 38/09 A2999 RMK AO2 SLP095 T03830089,M
LOL,2022-07-15 22:53,-118.5701,40.0684,1192.43,101.00,35.00,10.27,300.00,11.00,0.00,30.02,1011.70,10.00,M,CLR,M,M,M,M,M,M,M,M,M,M,M,M,M,M,95.10,KLOL 152253Z AUTO 30011KT 10SM CLR 38/02 A3002 RMK AO2 SLP117 T03830017,M
ELY,2022-07-15 22:53,-114.8453,39.2950,1909.00,80.00,46.00,30.11,320.00,29.00,0.00,30.28,1014.80,9.00,45.00,OVC,M,M,M,10000.00,M,M,M,M,M,M,M,45.00,310.00,2022-07-15 22:50,79.26,KELY 152253Z AUTO 32029G45KT 9SM OVC100 27/08 A3028 RMK AO2 PK WND 31045/2250 LTG DSNT SW-N PRESRR SLP148 T02670078 $,M
VGT,2022-07-15 22:53,-115.1933,36.2111,667.00,106.00,55.00,18.80,130.00,7.00,0.00,29.91,1011.10,10.00,M,CLR,M,M,M,M,M,M,M,M,M,M,M,M,M,M,105.02,KVGT 152253Z 13007KT 100V160 10SM CLR 41/13 A2991 RMK AO2 LTG DSNT W SLP111 T04110128,M
P68,2022-07-15 22:53,-116.0056,39.6014,1993.00,70.00,50.00,49.03,0.00,0.00,0.01,30.29,1017.50,M,M,M,M,M,M,M,M,M,M,M,M,M,M,44.00,130.00,2022-07-15 22:19,70.00,KP68 152253Z AUTO 00000KT 21/10 A3029 RMK AO1 PK WND 13044/2219 SLP175 P0001 T02110100,M
RNO,2022-07-15 22:55,-119.7711,39.4839,1341.00,97.00,43.00,15.73,270.00,17.00,0.00,30.07,1011.90,10.00,25.00,FEW,M,M,M,10000.00,M,M,M,M,M,M,M,M,M,M,92.79,KRNO 152255Z 27017G25KT 10SM FEW100 36/06 A3007 RMK AO2 SLP119 TCU DSNT SE T03610061,M
BVU,2022-07-15 22:55,-114.8611,35.9475,671.00,M,M,M,M,M,0.00,M,M,M,M,M,M,M,M,M,M,M,M,M,M,M,M,M,M,M,M,KBVU 152255Z AUTO RMK AO2 PNO PWINO TSNO,M
TMT,2022-07-15 22:55,-117.1971,39.4643,1749.34,82.00,55.00,39.65,30.00,10.00,0.00,30.21,M,10.00,M,SCT,M,M,M,11000.00,M,M,M,M,M,M,M,M,M,M,81.33,KTMT 152255Z AUTO 03010KT 10SM SCT110 28/13 A3021 RMK AO2 LTG DSNT N SE AND S T02770128,M
CXP,2022-07-15 22:55,-119.7326,39.1923,1431.00,93.20,41.00,16.37,280.00,19.00,0.00,30.12,M,10.00,27.00,CLR,M,M,M,M,M,M,M,M,M,M,M,M,M,M,89.03,KCXP 152255Z AUTO 28019G27KT 10SM CLR 34/05 A3012 RMK AO2,M
HTH,2022-07-15 22:55,-118.6315,38.5448,1282.89,82.40,57.20,42.25,170.00,10.00,0.00,30.08,M,10.00,18.00,FEW,M,M,M,12000.00,M,M,M,M,M,M,M,M,M,M,82.08,KHTH 152255Z AUTO 17010G18KT 10SM FEW120 28/14 A3008 RMK A01,M
BAM,2022-07-15 22:55,-116.8743,40.5990,1382.36,M,M,M,350.00,8.00,0.00,30.08,M,10.00,M,CLR,M,M,M,M,M,M,M,M,M,M,M,M,M,M,M,KBAM 152255Z AUTO 35008KT 310V010 10SM CLR A3008 RMK AO1,M
MEV,2022-07-15 22:55,-119.7500,38.9963,1441.42,95.00,42.80,16.60,300.00,11.00,0.00,30.10,M,10.00,20.00,CLR,M,M,M,M,M,M,M,M,M,M,M,M,M,M,90.86,KMEV 152255Z AUTO 30011G20KT 10SM CLR 35/06 A3010 RMK AO2,M
05U,2022-07-15 22:55,-116.0051,39.6042,1811.23,69.80,51.80,52.77,260.00,5.00,0.01,30.33,M,10.00,11.00,CLR,M,M,M,M,M,M,M,M,M,M,M,M,M,M,69.80,K05U 152255Z AUTO 26005G11KT 10SM CLR 21/11 A3033 RMK A01 P0001,M
RTS,2022-07-15 22:55,-119.8764,39.6682,1539.00,91.40,35.60,14.02,240.00,7.00,0.00,30.16,M,10.00,21.00,CLR,M,M,M,M,M,M,M,M,M,M,M,M,M,M,87.17,KRTS 152255Z AUTO 24007G21KT 210V280 10SM CLR 33/02 A3016 RMK AO2,M
WMC,2022-07-15 22:56,-117.8072,40.9019,1315.00,100.00,34.00,10.10,230.00,14.00,0.00,30.06,1012.40,10.00,19.00,CLR,M,M,M,M,M,M,M,M,M,M,M,27.00,260.00,2022-07-15 22:04,94.16,KWMC 152256Z AUTO 23014G19KT 10SM CLR 38/01 A3006 RMK AO2 PK WND 26027/2204 SLP124 T03780011 TSNO,M
LSV,2022-07-15 22:56,-115.0343,36.2362,570.00,109.60,53.20,15.84,260.00,6.00,0.00,29.87,1008.60,10.00,M,CLR,M,M,M,M,M,M,M,M,M,M,M,M,M,M,108.03,KLSV 152256Z AUTO 26006KT 10SM CLR 43/12 A2987 RMK AO2 SLP086 T04310118 $,M
LAS,2022-07-15 22:56,-115.1634,36.0719,663.00,103.00,54.00,19.87,80.00,6.00,0.00,29.91,1009.80,10.00,M,FEW,FEW,SCT,M,8000.00,12000.00,18000.00,M,M,M,M,M,M,M,M,101.27,KLAS 152256Z 08006KT 10SM FEW080 FEW120 SCT180 39/12 A2991 RMK AO2 LTG DSNT W AND NW SLP098 CB DSNT SW-NW ACC DSNT N T03940122,M
TPH,2022-07-15 22:56,-117.0904,38.0505,1654.00,95.00,43.00,16.73,180.00,12.00,0.00,30.15,1011.20,10.00,26.00,FEW,M,M,M,10000.00,M,M,M,M,M,M,M,26.00,180.00,2022-07-15 22:52,90.88,KTPH 152256Z AUTO 18012G26KT 10SM FEW100 35/06 A3015 RMK AO2 PK WND 18026/2252 SLP112 T03500061,M
EKO,2022-07-15 22:56,-115.7860,40.8242,1367.00,94.00,34.00,12.17,230.00,12.00,0.00,30.12,1012.60,10.00,18.00,CLR,M,M,M,M,M,M,M,M,M,M,M,M,M,M,89.13,KEKO 152256Z AUTO 23012G18KT 10SM CLR 34/01 A3012 RMK AO2 SLP126 T03440011,M
HND,2022-07-15 22:56,-115.1344,35.9729,742.79,103.00,53.00,19.23,200.00,5.00,0.00,29.96,1012.60,10.00,M,CLR,M,M,M,M,M,M,M,M,M,M,M,M,M,M,100.96,KHND 152256Z 20005KT 10SM CLR 39/12 A2996 RMK AO2 LTG DSNT NW SLP126 T03940117,M
NFL,2022-07-15 22:56,-118.7010,39.4166,1199.00,100.00,37.00,11.37,280.00,10.00,0.00,30.01,1013.30,10.00,14.00,SCT,SCT,M,M,8000.00,15000.00,M,M,M,M,M,M,M,M,M,94.66,KNFL 152256Z 28010G14KT 10SM SCT080 SCT150 38/03 A3001 RMK SLP133 CB DSNT E-SE TCU S-SW T03780028,M
INS,2022-07-15 22:56,-115.6733,36.5872,955.00,100.60,47.80,16.92,0.00,0.00,0.00,29.98,1009.60,10.00,M,CLR,M,M,M,M,M,M,M,M,M,M,M,M,M,M,97.12,KINS 152256Z AUTO 00000KT 10SM CLR 38/09 A2998 RMK AO2 LTG DSNT S SLP096 T03810088 $,M
INS,2022-07-15 22:57,-115.6733,36.5872,955.00,100.40,48.20,17.28,0.00,0.00,0.00,29.98,1009.60,10.00,M,CLR,M,M,M,M,M,M,M,M,M,M,M,M,M,M,97.00,KINS 152257Z COR AUTO 00000KT 10SM CLR 38/09 A2998 RMK AO2 TSB57 SLP096 $ COR 2259,M
INS,2022-07-15 22:59,-115.6733,36.5872,955.00,100.40,48.20,17.28,280.00,3.00,0.00,29.98,1009.70,10.00,M,CLR,M,M,M,M,M,M,M,M,M,M,M,M,M,M,97.00,KINS 152259Z COR AUTO 28003KT 10SM CLR 38/09 A2998 RMK AO2 TSB59 SLP097 $ COR 2301,M
INS,2022-07-15 23:09,-115.6733,36.5872,955.00,100.40,48.20,17.28,0.00,0.00,0.00,29.98,1009.60,10.00,M,SCT,M,M,M,11000.00,M,M,M,VCTS,M,M,M,M,M,M,97.00,KINS 152309Z 00000KT 10SM VCTS SCT110 38/09 A2998 RMK AO2A TSB09 SLP096 $,M
TMT,2022-07-15 23:15,-117.1971,39.4643,1749.34,74.50,60.60,61.91,350.00,16.00,0.01,30.21,M,10.00,M,SCT,SCT,BKN,M,3200.00,4000.00,11000.00,M,VCTSRA,M,M,M,M,M,M,74.50,KTMT 152315Z AUTO 35016KT 10SM VCTSRA SCT032 SCT040 BKN110 24/16 A3021 RMK AO2 LTG DSNT ALQS P0001 T02360159,M
05U,2022-07-15 23:15,-116.0051,39.6042,1811.23,73.40,46.40,38.18,0.00,0.00,0.00,30.32,M,10.00,10.00,FEW,M,M,M,10000.00,M,M,M,M,M,M,M,M,M,M,73.40,K05U 152315Z AUTO 00000G10KT 10SM FEW100 23/08 A3032 RMK A01,M
MEV,2022-07-15 23:15,-119.7500,38.9963,1441.42,95.00,42.80,16.60,280.00,12.00,0.00,30.10,M,10.00,18.00,CLR,M,M,M,M,M,M,M,M,M,M,M,M,M,M,90.86,KMEV 152315Z AUTO 28012G18KT 10SM CLR 35/06 A3010 RMK AO2,M
CXP,2022-07-15 23:15,-119.7326,39.1923,1431.00,93.20,42.80,17.55,280.00,18.00,0.00,30.11,M,10.00,27.00,CLR,M,M,M,M,M,M,M,M,M,M,M,M,M,M,89.17,KCXP 152315Z AUTO 28018G27KT 10SM CLR 34/06 A3011 RMK AO2,M
BVU,2022-07-15 23:15,-114.8611,35.9475,671.00,M,M,M,M,M,0.00,M,M,M,M,M,M,M,M,M,M,M,M,M,M,M,M,M,M,M,M,KBVU 152315Z AUTO RMK AO2 PNO PWINO TSNO,M
BAM,2022-07-15 23:15,-116.8743,40.5990,1382.36,M,M,M,360.00,7.00,0.00,30.08,M,10.00,M,CLR,M,M,M,M,M,M,M,M,M,M,M,M,M,M,M,KBAM 152315Z AUTO 36007KT 10SM CLR A3008 RMK AO1,M
HTH,2022-07-15 23:15,-118.6315,38.5448,1282.89,84.20,50.00,30.62,0.00,0.00,0.00,30.08,M,10.00,M,FEW,M,M,M,12000.00,M,M,M,M,M,M,M,M,M,M,82.24,KHTH 152315Z AUTO 00000KT 10SM FEW120 29/10 A3008 RMK A01,M
RTS,2022-07-15 23:15,-119.8764,39.6682,1539.00,91.40,35.60,14.02,230.00,12.00,0.00,30.16,M,10.00,18.00,CLR,M,M,M,M,M,M,M,M,M,M,M,M,M,M,87.17,KRTS 152315Z AUTO 23012G18KT 10SM CLR 33/02 A3016 RMK AO2,M
ELY,2022-07-15 23:25,-114.8453,39.2950,1909.00,73.00,44.00,35.46,310.00,28.00,0.00,30.31,M,10.00,47.00,SCT,BKN,OVC,M,7000.00,9000.00,11000.00,M,VCTS,M,M,M,47.00,320.00,2022-07-15 23:25,73.00,KELY 152325Z AUTO 31028G47KT 10SM VCTS SCT070 BKN090 OVC110 23/07 A3031 RMK AO2 PK WND 32047/2325 LTG DSNT ALQDS T02280067 $,M
05U,2022-07-15 23:35,-116.0051,39.6042,1811.23,73.40,48.20,40.85,120.00,8.00,0.00,30.31,M,10.00,13.00,FEW,M,M,M,10000.00,M,M,M,M,M,M,M,M,M,M,73.40,K05U 152335Z AUTO 12008G13KT 10SM FEW100 23/09 A3031 RMK A01,M
CXP,2022-07-15 23:35,-119.7326,39.1923,1431.00,93.20,42.80,17.55,280.00,17.00,0.00,30.11,M,10.00,25.00,CLR,M,M,M,M,M,M,M,M,M,M,M,M,M,M,89.17,KCXP 152335Z AUTO 28017G25KT 10SM CLR 34/06 A3011 RMK AO2,M
HTH,2022-07-15 23:35,-118.6315,38.5448,1282.89,86.00,51.80,30.90,220.00,3.00,0.00,30.08,M,10.00,M,FEW,M,M,M,12000.00,M,M,M,M,M,M,M,M,M,M,83.87,KHTH 152335Z AUTO 22003KT 10SM FEW120 30/11 A3008 RMK A01,M
BVU,2022-07-15 23:35,-114.8611,35.9475,671.00,M,M,M,M,M,0.00,M,M,M,M,M,M,M,M,M,M,M,M,M,M,M,M,M,M,M,M,KBVU 152335Z AUTO RMK AO2 PNO PWINO TSNO,M
TMT,2022-07-15 23:35,-117.1971,39.4643,1749.34,71.60,55.40,56.63,50.00,10.00,0.01,30.21,M,10.00,M,SCT,OVC,M,M,3400.00,11000.00,M,M,-TSRA,M,M,M,M,M,M,71.60,KTMT 152335Z AUTO 05010KT 10SM -TSRA SCT034 OVC110 22/13 A3021 RMK AO2 LTG DSNT ALQS P0001 T02200130,M
BAM,2022-07-15 23:35,-116.8743,40.5990,1382.36,M,M,M,10.00,7.00,0.00,30.07,M,10.00,M,CLR,M,M,M,M,M,M,M,M,M,M,M,M,M,M,M,KBAM 152335Z AUTO 01007KT 10SM CLR A3007 RMK AO1,M
MEV,2022-07-15 23:35,-119.7500,38.9963,1441.42,95.00,44.60,17.78,270.00,18.00,0.00,30.09,M,10.00,24.00,CLR,M,M,M,M,M,M,M,M,M,M,M,M,M,M,91.06,KMEV 152335Z AUTO 27018G24KT 10SM CLR 35/07 A3009 RMK AO2,M
RTS,2022-07-15 23:35,-119.8764,39.6682,1539.00,91.40,35.60,14.02,240.00,16.00,0.00,30.16,M,10.00,M,CLR,M,M,M,M,M,M,M,M,M,M,M,M,M,M,87.17,KRTS 152335Z AUTO 24016KT 10SM CLR 33/02 A3016 RMK AO2,M
ELY,2022-07-15 23:41,-114.8453,39.2950,1909.00,72.00,44.00,36.68,320.00,23.00,T,30.32,M,10.00,37.00,BKN,OVC,M,M,6000.00,7500.00,M,M,-RA,M,M,M,47.00,320.00,2022-07-15 23:25,72.00,KELY 152341Z AUTO 32023G37KT 10SM -RA BKN060 OVC075 22/07 A3032 RMK AO2 PK WND 32047/2325 LTG DSNT N-SE RAB37 P0000 T02220067 $,M
ELY,2022-07-15 23:53,-114.8453,39.2950,1909.00,72.00,44.00,36.68,340.00,25.00,T,30.35,1018.20,10.00,34.00,FEW,BKN,OVC,M,4300.00,6000.00,12000.00,M,-RA,M,M,M,47.00,320.00,2022-07-15 23:25,72.00,KELY 152353Z AUTO 34025G34KT 10SM -RA FEW043 BKN060 OVC120 22/07 A3035 RMK AO2 PK WND 32047/2325 LTG DSNT NE-SE RAB37 PRESRR SLP182 P0000 60000 T02220067 10322 20222 53022 $,M
LOL,2022-07-15 23:53,-118.5701,40.0684,1192.43,100.00,33.00,9.74,M,3.00,0.00,30.00,1011.20,10.00,M,CLR,M,M,M,M,M,M,M,M,M,M,M,M,M,M,94.03,KLOL 152353Z AUTO VRB03KT 10SM CLR 38/01 A3000 RMK AO2 SLP112 T03780006 10389 20322 56020,M
P68,2022-07-15 23:53,-116.0056,39.6014,1993.00,73.00,50.00,44.29,100.00,5.00,0.00,30.28,1016.90,M,M,M,M,M,M,M,M,M,M,M,M,M,M,M,M,M,73.00,KP68 152353Z AUTO 10005KT 23/10 A3028 RMK AO1 SLP169 60025 T02280100 10317 20183 50014,M
DRA,2022-07-15 23:53,-116.0278,36.6206,1009.00,102.00,48.00,16.35,M,6.00,0.00,29.97,1008.90,10.00,M,CLR,M,M,M,M,M,M,M,M,M,M,M,M,M,M,98.58,KDRA 152353Z AUTO VRB06KT 10SM CLR 39/09 A2997 RMK AO2 SLP089 T03890089 10400 20333 56025,M
VGT,2022-07-15 23:53,-115.1933,36.2111,667.00,105.00,54.00,18.61,160.00,4.00,0.00,29.89,1010.50,10.00,M,CLR,M,M,M,M,M,M,M,M,M,M,M,M,M,M,103.64,KVGT 152353Z 16004KT 10SM CLR 41/12 A2989 RMK AO2 LTG DSNT SW SLP105 T04060122 10417 20350 56027,M
05U,2022-07-15 23:55,-116.0051,39.6042,1811.23,73.40,50.00,43.69,110.00,4.00,0.00,30.31,M,10.00,M,CLR,M,M,M,M,M,M,M,M,M,M,M,M,M,M,73.40,K05U 152355Z AUTO 11004KT 10SM CLR 23/10 A3031 RMK A01,M
MEV,2022-07-15 23:55,-119.7500,38.9963,1441.42,93.20,42.80,17.55,280.00,15.00,0.00,30.10,M,10.00,20.00,CLR,M,M,M,M,M,M,M,M,M,M,M,M,M,M,89.17,KMEV 152355Z AUTO 28015G20KT 10SM CLR 34/06 A3010 RMK AO2,M
BAM,2022-07-15 23:55,-116.8743,40.5990,1382.36,M,M,M,10.00,8.00,0.00,30.07,M,10.00,M,CLR,M,M,M,M,M,M,M,M,M,M,M,M,M,M,M,KBAM 152355Z AUTO 01008KT 10SM CLR A3007 RMK AO1,M
HTH,2022-07-15 23:55,-118.6315,38.5448,1282.89,84.20,55.40,37.35,110.00,7.00,0.00,30.07,M,10.00,M,CLR,M,M,M,M,M,M,M,M,M,M,M,M,M,M,83.09,KHTH 152355Z AUTO 11007KT 10SM CLR 29/13 A3007 RMK A01,M
TMT,2022-07-15 23:55,-117.1971,39.4643,1749.34,69.00,57.20,66.27,50.00,7.00,0.06,30.25,M,5.00,M,SCT,BKN,OVC,M,5000.00,6000.00,11000.00,M,M,M,M,M,M,M,M,68.90,KTMT 152355Z AUTO 05007KT 5SM /VCTSRA SCT050 BKN060 OVC110 21/14 A3025 RMK AO2 LTG DSNT ALQS P0006 60006 T02050140,M
BVU,2022-07-15 23:55,-114.8611,35.9475,671.00,M,M,M,M,M,0.00,M,M,M,M,M,M,M,M,M,M,M,M,M,M,M,M,M,M,M,M,KBVU 152355Z AUTO RMK AO2 PNO PWINO TSNO,M
CXP,2022-07-15 23:55,-119.7326,39.1923,1431.00,91.40,41.00,17.32,280.00,18.00,0.00,30.11,M,9.00,26.00,CLR,M,M,M,M,M,M,M,M,M,M,M,M,M,M,87.40,KCXP 152355Z AUTO 28018G26KT 9SM CLR 33/05 A3011 RMK AO2,M
RNO,2022-07-15 23:55,-119.7711,39.4839,1341.00,96.00,45.00,17.46,280.00,17.00,0.00,30.07,1011.80,10.00,25.00,FEW,M,M,M,10000.00,M,M,M,M,M,M,M,29.00,300.00,2022-07-15 23:32,92.17,KRNO 152355Z 28017G25KT 10SM FEW100 36/07 A3007 RMK AO2 PK WND 30029/2332 SLP118 CB DSNT SE T03560072 10378 20306 56012,M
RTS,2022-07-15 23:55,-119.8764,39.6682,1539.00,91.40,37.40,15.05,220.00,15.00,0.00,30.16,M,10.00,M,CLR,M,M,M,M,M,M,M,M,M,M,M,M,M,M,87.23,KRTS 152355Z AUTO 22015KT 10SM CLR 33/03 A3016 RMK AO2,M
EKO,2022-07-15 23:56,-115.7860,40.8242,1367.00,90.00,41.00,18.10,180.00,18.00,0.00,30.12,1012.90,10.00,34.00,CLR,M,M,M,M,M,M,M,M,M,M,M,34.00,170.00,2022-07-15 23:47,86.16,KEKO 152356Z AUTO 18018G34KT 10SM CLR 32/05 A3012 RMK AO2 PK WND 17034/2347 SLP129 T03220050 10361 20311 56008,M
HND,2022-07-15 23:56,-115.1344,35.9729,742.79,103.00,53.00,19.23,240.00,8.00,0.00,29.94,1012.10,10.00,M,CLR,M,M,M,M,M,M,M,M,M,M,M,M,M,M,100.96,KHND 152356Z 24008KT 10SM CLR 39/12 A2994 RMK AO2 LTG DSNT W SLP121 T03940117 10411 20333 56024,M
NFL,2022-07-15 23:56,-118.7010,39.4166,1199.00,102.00,37.00,10.71,360.00,11.00,0.00,29.99,1012.80,10.00,21.00,SCT,SCT,M,M,8000.00,15000.00,M,M,M,M,M,M,M,M,M,96.38,KNFL 152356Z 36011G21KT 10SM SCT080 SCT150 39/03 A2999 RMK AO2 SLP128 CB DSNT E-S-SW TCU DSNT W T03890028 10389 20317 56022,M
TPH,2022-07-15 23:56,-117.0904,38.0505,1654.00,93.00,42.00,17.19,220.00,12.00,0.00,30.14,1011.40,10.00,M,FEW,M,M,M,11000.00,M,M,M,M,M,M,M,M,M,M,88.93,KTPH 152356Z AUTO 22012KT 10SM FEW110 34/06 A3014 RMK AO2 SLP114 T03390056 10361 20294 56016,M
INS,2022-07-15 23:56,-115.6733,36.5872,955.00,100.60,46.20,15.93,90.00,5.00,0.00,29.96,1008.90,10.00,M,CLR,M,M,M,M,M,M,M,M,M,M,M,M,M,M,96.80,KINS 152356Z 09005KT 10SM CLR 38/08 A2996 RMK AO2A SLP089 T03810079 10385 20330 57026 $,M
WMC,2022-07-15 23:56,-117.8072,40.9019,1315.00,99.00,25.00,7.21,330.00,9.00,0.00,30.05,1012.20,10.00,19.00,CLR,M,M,M,M,M,M,M,M,M,M,M,28.00,270.00,2022-07-15 23:27,92.25,KWMC 152356Z AUTO 33009G19KT 10SM CLR 37/M04 A3005 RMK AO2 PK WND 27028/2327 SLP122 T03721039 10378 20333 56016 TSNO,M
LSV,2022-07-15 23:56,-115.0343,36.2362,570.00,108.00,52.20,15.95,40.00,4.00,0.00,29.85,1008.00,10.00,M,CLR,M,M,M,M,M,M,M,M,M,M,M,M,M,M,106.09,KLSV 152356Z AUTO 04004KT 10SM CLR 42/11 A2985 RMK AO2 SLP080 T04230112 10434 20386 57028 $,M
LAS,2022-07-15 23:56,-115.1634,36.0719,663.00,103.00,52.00,18.47,M,5.00,0.00,29.90,1009.30,10.00,M,FEW,FEW,BKN,M,8000.00,12000.00,20000.00,M,M,M,M,M,M,M,M,100.60,KLAS 152356Z VRB05KT 10SM FEW080 FEW120 BKN200 39/11 A2990 RMK AO2 LTG DSNT W SLP093 CB DSNT ALQDS T03940111 10406 20328 56026,M
