station,valid,lon,lat,elevation,tmpf,dwpf,relh,drct,sknt,p01i,alti,mslp,vsby,gust,skyc1,skyc2,skyc3,skyc4,skyl1,skyl2,skyl3,skyl4,wxcodes,ice_accretion_1hr,ice_accretion_3hr,ice_accretion_6hr,peak_wind_gust,peak_wind_drct,peak_wind_time,feel,metar,snowdepth
05U,2021-01-29 00:10,-116.0051,39.6042,1811.23,39.20,26.60,60.29,180.00,20.00,0.00,29.78,M,10.00,25.00,CLR,M,M,M,M,M,M,M,M,M,M,M,M,M,M,28.70,K05U 290010Z AUTO 18020G25KT 10SM CLR 04/M03 A2978 RMK A01,M
MEV,2021-01-29 00:15,-119.7500,38.9963,1441.42,33.80,32.00,93.03,0.00,0.00,0.00,29.70,M,10.00,M,BKN,M,M,M,600.00,M,M,M,M,M,M,M,M,M,M,33.80,KMEV 290015Z AUTO 00000KT 10SM BKN006 01/00 A2970 RMK AO2,M
CXP,2021-01-29 00:15,-119.7326,39.1923,1431.00,35.60,33.80,93.08,0.00,0.00,0.00,29.71,M,10.00,M,OVC,M,M,M,700.00,M,M,M,M,M,M,M,M,M,M,35.60,KCXP 290015Z AUTO 00000KT 10SM OVC007 02/01 A2971 RMK AO2,M
BVU,2021-01-29 00:15,-114.8611,35.9475,671.00,53.60,26.60,34.98,140.00,4.00,0.00,29.93,M,10.00,M,CLR,M,M,M,M,M,M,M,M,M,M,M,M,M,M,53.60,KBVU 290015Z AUTO 14004KT 10SM CLR 12/M03 A2993 RMK AO2,M
RTS,2021-01-29 00:15,-119.8764,39.6682,1539.00,33.80,32.00,93.03,190.00,11.00,0.00,29.70,M,8.00,M,CLR,M,M,M,M,M,M,M,M,M,M,M,M,M,M,24.74,KRTS 290015Z AUTO 19011KT 8SM CLR 01/M00 A2970 RMK AO2,M
TMT,2021-01-29 00:15,-117.1971,39.4643,1749.34,38.80,28.40,65.95,220.00,5.00,0.00,29.73,M,10.00,M,M,M,M,M,M,M,M,M,M,M,M,M,M,M,M,34.47,KTMT 290015Z AUTO 22005KT 10SM 04/M02 A2973 RMK AO2 T00381020,M
BAM,2021-01-29 00:15,-116.8743,40.5990,1382.36,41.00,32.00,70.08,130.00,4.00,0.00,29.76,M,10.00,M,SCT,OVC,M,M,4300.00,5000.00,M,M,M,M,M,M,M,M,M,37.93,KBAM 290015Z AUTO 13004KT 10SM SCT043 OVC050 05/00 A2976 RMK AO1,M
HTH,2021-01-29 00:15,-118.6315,38.5448,1282.89,42.80,32.00,65.38,140.00,15.00,0.00,29.71,M,10.00,21.00,CLR,M,M,M,M,M,M,M,M,M,M,M,M,M,M,34.78,KHTH 290015Z AUTO 14015G21KT 10SM CLR 06/00 A2971 RMK A01,M
05U,2021-01-29 00:30,-116.0051,39.6042,1811.23,39.20,26.60,60.29,170.00,17.00,0.00,29.78,M,10.00,23.00,CLR,M,M,M,M,M,M,M,M,M,M,M,M,M,M,29.51,K05U 290030Z AUTO 17017G23KT 10SM CLR 04/M03 A2978 RMK A01,M
CXP,2021-01-29 00:35,-119.7326,39.1923,1431.00,35.60,33.80,93.08,0.00,0.00,0.00,29.71,M,10.00,M,SCT,OVC,M,M,700.00,1300.00,M,M,M,M,M,M,M,M,M,35.60,KCXP 290035Z AUTO 00000KT 10SM SCT007 OVC013 02/01 A2971 RMK AO2,M
RTS,2021-01-29 00:35,-119.8764,39.6682,1539.00,33.80,32.00,93.03,170.00,10.00,0.00,29.70,M,2.00,M,CLR,M,M,M,M,M,M,M,-SN,M,M,M,M,M,M,25.23,KRTS 290035Z AUTO 17010KT 2SM -SN CLR 01/M00 A2970 RMK AO2,M
BAM,2021-01-29 00:35,-116.8743,40.5990,1382.36,41.00,32.00,70.08,130.00,4.00,0.00,29.76,M,10.00,M,BKN,OVC,M,M,3900.00,4700.00,M,M,M,M,M,M,M,M,M,37.93,KBAM 290035Z AUTO 13004KT 10SM BKN039 OVC047 05/00 A2976 RMK AO1,M
HTH,2021-01-29 00:35,-118.6315,38.5448,1282.89,41.00,32.00,70.08,130.00,14.00,0.00,29.70,M,10.00,M,CLR,M,M,M,M,M,M,M,M,M,M,M,M,M,M,32.76,KHTH 290035Z AUTO 13014KT 10SM CLR 05/00 A2970 RMK A01,M
TMT,2021-01-29 00:35,-117.1971,39.4643,1749.34,38.80,27.90,64.61,240.00,6.00,0.00,29.72,M,10.00,14.00,M,M,M,M,M,M,M,M,M,M,M,M,M,M,M,33.72,KTMT 290035Z AUTO 24006G14KT 10SM 04/M02 A2972 RMK AO2 T00381023,M
MEV,2021-01-29 00:35,-119.7500,38.9963,1441.42,33.80,32.00,93.03,0.00,0.00,0.00,29.70,M,10.00,M,SCT,M,M,M,600.00,M,M,M,M,M,M,M,M,M,M,33.80,KMEV 290035Z AUTO 00000KT 10SM SCT006 01/00 A2970 RMK AO2,M
BVU,2021-01-29 00:35,-114.8611,35.9475,671.00,53.60,26.60,34.98,0.00,0.00,0.00,29.92,M,10.00,M,CLR,M,M,M,M,M,M,M,M,M,M,M,M,M,M,53.60,KBVU 290035Z AUTO 00000KT 10SM CLR 12/M03 A2992 RMK AO2,M
05U,2021-01-29 00:50,-116.0051,39.6042,1811.23,39.20,26.60,60.29,180.00,16.00,0.00,29.78,M,10.00,25.00,SCT,M,M,M,8000.00,M,M,M,M,M,M,M,M,M,M,29.80,K05U 290050Z AUTO 18016G25KT 10SM SCT080 04/M03 A2978 RMK A01,M
LOL,2021-01-29 00:53,-118.5701,40.0684,1192.43,39.00,33.00,79.17,40.00,6.00,0.00,29.70,1006.40,10.00,M,BKN,OVC,M,M,6000.00,8000.00,M,M,M,M,M,M,M,M,M,33.96,KLOL 290053Z AUTO 04006KT 10SM BKN060 OVC080 04/01 A2970 RMK AO2 SLP064 T00390006,M
ELY,2021-01-29 00:53,-114.8453,39.2950,1909.00,35.00,21.00,56.05,150.00,24.00,0.00,29.82,1009.70,10.00,37.00,CLR,M,M,M,M,M,M,M,M,M,M,M,37.00,150.00,2021-01-29 00:48,22.24,KELY 290053Z AUTO 15024G37KT 10SM CLR 02/M06 A2982 RMK AO2 PK WND 15037/0048 SLP097 T00171061 $,M
VGT,2021-01-29 00:53,-115.1933,36.2111,667.00,54.00,27.00,35.05,100.00,8.00,0.00,29.87,1013.10,10.00,M,CLR,M,M,M,M,M,M,M,M,M,M,M,M,M,M,54.00,KVGT 290053Z 10008KT 10SM CLR 12/M03 A2987 RMK AO2 SLP131 T01221028,M
DRA,2021-01-29 00:53,-116.0278,36.6206,1009.00,46.00,34.00,62.71,290.00,4.00,0.00,29.84,1009.70,10.00,M,CLR,M,M,M,M,M,M,M,M,M,M,M,M,M,M,43.77,KDRA 290053Z AUTO 29004KT 10SM CLR 08/01 A2984 RMK AO2 SLP097 T00780011,M
P68,2021-01-29 00:53,-116.0056,39.6014,1993.00,39.00,27.00,61.78,170.00,20.00,0.00,29.75,1006.50,M,27.00,M,M,M,M,M,M,M,M,M,M,M,M,31.00,170.00,2021-01-29 00:10,28.44,KP68 290053Z AUTO 17020G27KT 04/M03 A2975 RMK AO1 PK WND 17031/0010 SLP065 T00391028,M
MEV,2021-01-29 00:55,-119.7500,38.9963,1441.42,33.80,32.00,93.03,0.00,0.00,0.00,29.69,M,10.00,M,FEW,M,M,M,4300.00,M,M,M,M,M,M,M,M,M,M,33.80,KMEV 290055Z AUTO 00000KT 10SM FEW043 01/00 A2969 RMK AO2,M
CXP,2021-01-29 00:55,-119.7326,39.1923,1431.00,35.60,33.80,93.08,0.00,0.00,0.00,29.70,M,10.00,M,SCT,BKN,OVC,M,1400.00,3900.00,5000.00,M,M,M,M,M,M,M,M,35.60,KCXP 290055Z AUTO 00000KT 10SM SCT014 BKN039 OVC050 02/01 A2970 RMK AO2,M
BVU,2021-01-29 00:55,-114.8611,35.9475,671.00,51.80,26.60,37.38,20.00,4.00,0.00,29.92,M,10.00,M,CLR,M,M,M,M,M,M,M,M,M,M,M,M,M,M,51.80,KBVU 290055Z AUTO 02004KT 10SM CLR 11/M03 A2992 RMK AO2,M
RTS,2021-01-29 00:55,-119.8764,39.6682,1539.00,33.80,32.00,93.03,170.00,8.00,0.00,29.69,M,1.75,M,CLR,M,M,M,M,M,M,M,-SN,M,M,M,M,M,M,26.33,KRTS 290055Z AUTO 17008KT 1 3/4SM -SN CLR 01/M00 A2969 RMK AO2,M
BAM,2021-01-29 00:55,-116.8743,40.5990,1382.36,41.00,32.00,70.08,120.00,4.00,0.00,29.76,M,10.00,M,SCT,BKN,OVC,M,2800.00,3400.00,4000.00,M,M,M,M,M,M,M,M,37.93,KBAM 290055Z AUTO 12004KT 10SM SCT028 BKN034 OVC040 05/00 A2976 RMK AO1,M
HTH,2021-01-29 00:55,-118.6315,38.5448,1282.89,41.00,32.00,70.08,120.00,13.00,0.00,29.70,M,10.00,18.00,CLR,M,M,M,M,M,M,M,M,M,M,M,M,M,M,33.10,KHTH 290055Z AUTO 12013G18KT 10SM CLR 05/00 A2970 RMK A01,M
TMT,2021-01-29 00:55,-117.1971,39.4643,1749.34,38.50,28.00,65.64,240.00,9.00,0.00,29.72,M,10.00,M,M,M,M,M,M,M,M,M,M,M,M,M,M,M,M,31.60,KTMT 290055Z AUTO 24009KT 10SM 04/M02 A2972 RMK AO2 T00361022,M
RNO,2021-01-29 00:55,-119.7711,39.4839,1341.00,36.00,32.00,85.23,200.00,8.00,0.00,29.68,1004.90,10.00,M,FEW,BKN,OVC,M,3000.00,4500.00,6000.00,M,M,M,M,M,M,M,M,29.04,KRNO 290055Z 20008KT 10SM FEW030 BKN045 OVC060 02/00 A2968 RMK AO2 SLP049 T00220000,M
TPH,2021-01-29 00:56,-117.0904,38.0505,1654.00,39.00,26.10,59.52,180.00,21.00,0.00,29.76,1007.80,10.00,29.00,CLR,M,M,M,M,M,M,M,M,M,M,M,31.00,170.00,2021-01-29 00:44,28.19,KTPH 290056Z AUTO 18021G29KT 10SM CLR 04/M03 A2976 RMK AO2 PK WND 17031/0044 SLP078 T00391033,M
EKO,2021-01-29 00:56,-115.7860,40.8242,1367.00,42.00,28.90,59.22,250.00,17.00,0.00,29.75,1007.30,10.00,21.00,OVC,M,M,M,4600.00,M,M,M,M,M,M,M,27.00,210.00,2021-01-29 00:07,33.31,KEKO 290056Z AUTO 25017G21KT 10SM OVC046 06/M02 A2975 RMK AO2 PK WND 21027/0007 SLP073 T00561017,M
INS,2021-01-29 00:56,-115.6733,36.5872,955.00,47.70,26.80,43.90,110.00,18.00,0.00,29.81,1008.60,10.00,28.00,CLR,M,M,M,M,M,M,M,M,M,M,M,34.00,130.00,2021-01-29 00:18,40.42,KINS 290056Z AUTO 11018G28KT 10SM CLR 09/M03 A2981 RMK AO2 PK WND 13034/18 SLP086 T00871029 $,M
WMC,2021-01-29 00:56,-117.8072,40.9019,1315.00,38.00,28.90,69.73,210.00,6.00,0.00,29.72,1006.60,10.00,M,FEW,FEW,M,M,6000.00,10000.00,M,M,M,M,M,M,M,M,M,32.64,KWMC 290056Z AUTO 21006KT 10SM FEW060 FEW100 03/M02 A2972 RMK AO2 SLP066 T00331017,M
HND,2021-01-29 00:56,-115.1344,35.9729,742.79,50.00,28.00,42.33,20.00,4.00,0.00,29.92,1015.60,10.00,M,CLR,M,M,M,M,M,M,M,M,M,M,M,M,M,M,50.00,KHND 290056Z 02004KT 10SM CLR 10/M02 A2992 RMK AO2 SLP156 T01001022,M
LAS,2021-01-29 00:56,-115.1634,36.0719,663.00,52.00,28.00,39.30,110.00,5.00,0.00,29.91,1012.80,10.00,M,BKN,BKN,M,M,18000.00,25000.00,M,M,M,M,M,M,M,M,M,52.00,KLAS 290056Z 11005KT 10SM BKN180 BKN250 11/M02 A2991 RMK AO2 SLP128 T01111022,M
NFL,2021-01-29 00:56,-118.7010,39.4166,1199.00,47.00,30.00,51.58,150.00,18.00,0.00,29.68,1003.30,10.00,25.00,SCT,BKN,BKN,OVC,3000.00,8000.00,15000.00,20000.00,M,M,M,M,M,M,M,39.36,KNFL 290056Z 15018G25KT 10SM SCT030 BKN080 BKN150 OVC200 08/M01 A2968 RMK AO2 SLP033 T00831011,M
LSV,2021-01-29 00:56,-115.0343,36.2362,570.00,53.00,29.30,39.81,70.00,9.00,0.00,29.90,1012.50,10.00,M,BKN,M,M,M,20000.00,M,M,M,M,M,M,M,M,M,M,53.10,KLSV 290056Z 07009KT 10SM BKN200 12/M01 A2990 RMK AO2A SLP125 T01171015 $,M
05U,2021-01-29 01:10,-116.0051,39.6042,1811.23,39.20,24.80,55.95,180.00,19.00,0.00,29.77,M,10.00,26.00,BKN,M,M,M,8000.00,M,M,M,M,M,M,M,M,M,M,28.96,K05U 290110Z AUTO 18019G26KT 10SM BKN080 04/M04 A2977 RMK A01,M
MEV,2021-01-29 01:15,-119.7500,38.9963,1441.42,33.80,32.00,93.03,50.00,4.00,0.00,29.68,M,10.00,M,FEW,BKN,M,M,6500.00,7500.00,M,M,M,M,M,M,M,M,M,29.52,KMEV 290115Z AUTO 05004KT 10SM FEW065 BKN075 01/00 A2968 RMK AO2,M
BAM,2021-01-29 01:15,-116.8743,40.5990,1382.36,39.20,33.80,80.79,130.00,4.00,0.00,29.76,M,10.00,M,OVC,M,M,M,3000.00,M,M,M,M,M,M,M,M,M,M,35.83,KBAM 290115Z AUTO 13004KT 10SM OVC030 04/01 A2976 RMK AO1,M
HTH,2021-01-29 01:15,-118.6315,38.5448,1282.89,41.00,32.00,70.08,110.00,15.00,0.00,29.70,M,10.00,M,FEW,FEW,M,M,7000.00,9500.00,M,M,M,M,M,M,M,M,M,32.45,KHTH 290115Z AUTO 11015KT 10SM FEW070 FEW095 05/00 A2970 RMK A01,M
RTS,2021-01-29 01:15,-119.8764,39.6682,1539.00,33.80,32.00,93.03,170.00,8.00,0.00,29.69,M,2.00,13.00,CLR,M,M,M,M,M,M,M,-SN,M,M,M,M,M,M,26.33,KRTS 290115Z AUTO 17008G13KT 2SM -SN CLR 01/M00 A2969 RMK AO2,M
TMT,2021-01-29 01:15,-117.1971,39.4643,1749.34,38.00,28.20,67.23,240.00,8.00,0.00,29.72,M,10.00,M,M,M,M,M,M,M,M,M,M,M,M,M,M,M,M,31.63,KTMT 290115Z AUTO 24008KT 10SM 03/M02 A2972 RMK AO2 T00341021,M
BVU,2021-01-29 01:15,-114.8611,35.9475,671.00,51.80,26.60,37.38,30.00,6.00,0.00,29.91,M,10.00,M,CLR,M,M,M,M,M,M,M,M,M,M,M,M,M,M,51.80,KBVU 290115Z AUTO 03006KT 10SM CLR 11/M03 A2991 RMK AO2,M
CXP,2021-01-29 01:15,-119.7326,39.1923,1431.00,35.60,32.00,86.59,0.00,0.00,0.00,29.69,M,10.00,M,FEW,SCT,BKN,M,2900.00,3800.00,4900.00,M,M,M,M,M,M,M,M,35.60,KCXP 290115Z AUTO 00000KT 10SM FEW029 SCT038 BKN049 02/00 A2969 RMK AO2,M
05U,2021-01-29 01:30,-116.0051,39.6042,1811.23,39.20,24.80,55.95,180.00,23.00,0.00,29.77,M,10.00,32.00,OVC,M,M,M,9500.00,M,M,M,M,M,M,M,M,M,M,27.99,K05U 290130Z AUTO 18023G32KT 10SM OVC095 04/M04 A2977 RMK A01,M
BVU,2021-01-29 01:35,-114.8611,35.9475,671.00,51.80,26.60,37.38,70.00,5.00,0.00,29.91,M,10.00,M,CLR,M,M,M,M,M,M,M,M,M,M,M,M,M,M,51.80,KBVU 290135Z AUTO 07005KT 10SM CLR 11/M03 A2991 RMK AO2,M
CXP,2021-01-29 01:35,-119.7326,39.1923,1431.00,35.60,32.00,86.59,0.00,0.00,0.00,29.70,M,10.00,M,FEW,SCT,BKN,M,4600.00,5500.00,7500.00,M,M,M,M,M,M,M,M,35.60,KCXP 290135Z AUTO 00000KT 10SM FEW046 SCT055 BKN075 02/00 A2970 RMK AO2,M
BAM,2021-01-29 01:35,-116.8743,40.5990,1382.36,37.40,33.80,86.69,0.00,0.00,0.00,29.76,M,10.00,M,OVC,M,M,M,2800.00,M,M,M,M,M,M,M,M,M,M,37.40,KBAM 290135Z AUTO 00000KT 10SM OVC028 03/01 A2976 RMK AO1,M
TMT,2021-01-29 01:35,-117.1971,39.4643,1749.34,38.00,27.90,66.93,250.00,10.00,0.00,29.72,M,10.00,M,M,M,M,M,M,M,M,M,M,M,M,M,M,M,M,30.37,KTMT 290135Z AUTO 25010KT 10SM 03/M02 A2972 RMK AO2 T00331023,M
RTS,2021-01-29 01:35,-119.8764,39.6682,1539.00,32.00,32.00,100.00,M,M,0.00,29.69,M,1.00,M,SCT,BKN,BKN,M,300.00,700.00,1300.00,M,-SN,M,M,M,M,M,M,M,KRTS 290135Z AUTO 1SM -SN SCT003 BKN007 BKN013 00/M00 A2969 RMK AO2,M
MEV,2021-01-29 01:35,-119.7500,38.9963,1441.42,33.80,32.00,93.03,60.00,3.00,0.00,29.69,M,10.00,M,OVC,M,M,M,7500.00,M,M,M,M,M,M,M,M,M,M,30.75,KMEV 290135Z AUTO 06003KT 10SM OVC075 01/00 A2969 RMK AO2,M
HTH,2021-01-29 01:35,-118.6315,38.5448,1282.89,41.00,32.00,70.08,120.00,20.00,0.00,29.70,M,10.00,M,SCT,BKN,BKN,M,7000.00,9000.00,12000.00,M,M,M,M,M,M,M,M,31.09,KHTH 290135Z AUTO 12020KT 10SM SCT070 BKN090 BKN120 05/M00 A2970 RMK A01,M
05U,2021-01-29 01:50,-116.0051,39.6042,1811.23,39.20,24.80,55.95,170.00,20.00,0.00,29.77,M,10.00,30.00,OVC,M,M,M,9000.00,M,M,M,M,M,M,M,M,M,M,28.70,K05U 290150Z AUTO 17020G30KT 10SM OVC090 04/M04 A2977 RMK A01,M
LOL,2021-01-29 01:53,-118.5701,40.0684,1192.43,37.00,33.00,85.64,60.00,5.00,0.00,29.70,1006.50,10.00,M,BKN,OVC,M,M,6500.00,8500.00,M,M,M,M,M,M,M,M,M,32.33,KLOL 290153Z AUTO 06005KT 10SM BKN065 OVC085 03/01 A2970 RMK AO2 SLP065 T00280006,M
VGT,2021-01-29 01:53,-115.1933,36.2111,667.00,52.00,28.00,39.30,110.00,6.00,0.00,29.85,1013.00,10.00,M,CLR,M,M,M,M,M,M,M,M,M,M,M,M,M,M,52.00,KVGT 290153Z 11006KT 10SM CLR 11/M02 A2985 RMK AO2 SLP130 T01111022,M
ELY,2021-01-29 01:53,-114.8453,39.2950,1909.00,34.00,21.00,58.56,150.00,27.00,0.00,29.81,1009.40,10.00,38.00,CLR,M,M,M,M,M,M,M,M,M,M,M,38.00,140.00,2021-01-29 01:53,20.07,KELY 290153Z AUTO 15027G38KT 10SM CLR 01/M06 A2981 RMK AO2 PK WND 14038/0153 SLP094 T00111061,M
DRA,2021-01-29 01:53,-116.0278,36.6206,1009.00,41.00,36.00,82.22,0.00,0.00,0.00,29.83,1009.70,10.00,M,CLR,M,M,M,M,M,M,M,M,M,M,M,M,M,M,41.00,KDRA 290153Z AUTO 00000KT 10SM CLR 05/02 A2983 RMK AO2 SLP097 T00500022,M
P68,2021-01-29 01:53,-116.0056,39.6014,1993.00,39.00,26.10,59.52,170.00,21.00,0.00,29.74,1006.30,M,29.00,M,M,M,M,M,M,M,M,M,M,M,M,37.00,180.00,2021-01-29 01:38,28.19,KP68 290153Z AUTO 17021G29KT 04/M03 A2974 RMK AO1 PK WND 18037/0138 SLP063 T00391033,M
BAM,2021-01-29 01:55,-116.8743,40.5990,1382.36,39.20,33.80,80.79,110.00,4.00,0.00,29.76,M,10.00,M,BKN,OVC,M,M,2400.00,2900.00,M,M,M,M,M,M,M,M,M,35.83,KBAM 290155Z AUTO 11004KT 10SM BKN024 OVC029 04/01 A2976 RMK AO1,M
RTS,2021-01-29 01:55,-119.8764,39.6682,1539.00,32.00,32.00,100.00,290.00,8.00,0.03,29.70,M,0.75,M,OVC,M,M,M,200.00,M,M,M,-SN,M,M,M,M,M,M,24.11,KRTS 290155Z AUTO 29008KT 3/4SM -SN OVC002 00/00 A2970 RMK AO2 P0003,M
BVU,2021-01-29 01:55,-114.8611,35.9475,671.00,51.80,26.60,37.38,70.00,5.00,0.00,29.91,M,10.00,M,CLR,M,M,M,M,M,M,M,M,M,M,M,M,M,M,51.80,KBVU 290155Z AUTO 07005KT 10SM CLR 11/M03 A2991 RMK AO2,M
CXP,2021-01-29 01:55,-119.7326,39.1923,1431.00,35.60,32.00,86.59,0.00,0.00,0.00,29.69,M,10.00,M,SCT,BKN,OVC,M,4600.00,6500.00,9000.00,M,M,M,M,M,M,M,M,35.60,KCXP 290155Z AUTO 00000KT 10SM SCT046 BKN065 OVC090 02/00 A2969 RMK AO2,M
MEV,2021-01-29 01:55,-119.7500,38.9963,1441.42,33.80,32.00,93.03,0.00,0.00,0.00,29.69,M,10.00,M,FEW,FEW,OVC,M,1700.00,5500.00,7500.00,M,M,M,M,M,M,M,M,33.80,KMEV 290155Z AUTO 00000KT 10SM FEW017 FEW055 OVC075 01/00 A2969 RMK AO2,M
TMT,2021-01-29 01:55,-117.1971,39.4643,1749.34,37.80,28.00,67.47,260.00,9.00,0.00,29.72,M,10.00,M,M,M,M,M,M,M,M,M,M,M,M,M,M,M,M,30.73,KTMT 290155Z AUTO 26009KT 10SM 03/M02 A2972 RMK AO2 T00321022,M
HTH,2021-01-29 01:55,-118.6315,38.5448,1282.89,41.00,30.20,65.16,130.00,18.00,0.00,29.69,M,10.00,24.00,OVC,M,M,M,7000.00,M,M,M,M,M,M,M,M,M,M,31.60,KHTH 290155Z AUTO 13018G24KT 10SM OVC070 05/M01 A2969 RMK A01,M
RNO,2021-01-29 01:55,-119.7711,39.4839,1341.00,36.00,32.00,85.23,270.00,9.00,0.00,29.69,1005.30,10.00,14.00,SCT,BKN,OVC,M,3800.00,5000.00,7000.00,M,M,M,M,M,M,M,M,28.49,KRNO 290155Z 27009G14KT 10SM SCT038 BKN050 OVC070 02/00 A2969 RMK AO2 SLP053 T00220000,M
HND,2021-01-29 01:56,-115.1344,35.9729,742.79,48.00,30.00,49.49,0.00,0.00,0.00,29.91,1015.40,10.00,M,CLR,M,M,M,M,M,M,M,M,M,M,M,M,M,M,48.00,KHND 290156Z 00000KT 10SM CLR 09/M01 A2991 RMK AO2 SLP154 T00891011,M
EKO,2021-01-29 01:56,-115.7860,40.8242,1367.00,40.00,30.00,67.45,0.00,0.00,0.00,29.75,1007.60,10.00,M,BKN,OVC,M,M,4900.00,6000.00,M,M,M,M,M,M,M,M,M,39.90,KEKO 290156Z AUTO 00000KT 10SM BKN049 OVC060 04/M01 A2975 RMK AO2 SLP076 T00441011,M
TPH,2021-01-29 01:56,-117.0904,38.0505,1654.00,38.00,26.10,62.14,170.00,13.00,0.00,29.77,1008.10,10.00,M,CLR,M,M,M,M,M,M,M,M,M,M,M,31.00,190.00,2021-01-29 01:06,29.13,KTPH 290156Z AUTO 17013KT 10SM CLR 03/M03 A2977 RMK AO2 PK WND 19031/0106 SLP081 T00331033,M
LAS,2021-01-29 01:56,-115.1634,36.0719,663.00,50.00,28.00,42.33,110.00,6.00,0.00,29.90,1012.50,10.00,M,BKN,OVC,M,M,18000.00,25000.00,M,M,M,M,M,M,M,M,M,50.00,KLAS 290156Z 11006KT 10SM BKN180 OVC250 10/M02 A2990 RMK AO2 SLP125 T01001022,M
LSV,2021-01-29 01:56,-115.0343,36.2362,570.00,52.50,27.50,37.80,70.00,10.00,0.00,29.91,1013.30,10.00,M,BKN,M,M,M,18000.00,M,M,M,M,M,M,M,M,M,M,52.50,KLSV 290156Z 07010KT 10SM BKN180 11/M03 A2991 RMK AO2A SLP133 WND DATA ESTMD ALSTG/SLP ESTMD T01141025 $,M
WMC,2021-01-29 01:56,-117.8072,40.9019,1315.00,37.00,30.00,75.56,20.00,5.00,0.00,29.73,1006.80,10.00,M,FEW,SCT,OVC,M,6500.00,8000.00,11000.00,M,M,M,M,M,M,M,M,32.33,KWMC 290156Z AUTO 02005KT 10SM FEW065 SCT080 OVC110 03/M01 A2973 RMK AO2 SLP068 T00281011,M
NFL,2021-01-29 01:56,-118.7010,39.4166,1199.00,45.00,30.90,57.50,170.00,8.00,0.00,29.68,1003.30,10.00,M,SCT,BKN,BKN,OVC,3000.00,8000.00,15000.00,20000.00,M,M,M,M,M,M,M,40.13,KNFL 290156Z 17008KT 10SM SCT030 BKN080 BKN150 OVC200 07/M01 A2968 RMK AO2 SLP033 T00721006,M
INS,2021-01-29 01:56,-115.6733,36.5872,955.00,46.60,25.90,44.09,120.00,19.00,0.00,29.79,1008.20,10.00,28.00,CLR,M,M,M,M,M,M,M,M,M,M,M,30.00,130.00,2021-01-29 01:17,38.74,KINS 290156Z AUTO 12019G28KT 10SM CLR 08/M03 A2979 RMK AO2 PK WND 13030/17 SLP082 T00811034 $,M
05U,2021-01-29 02:10,-116.0051,39.6042,1811.23,39.20,24.80,55.95,180.00,22.00,0.00,29.77,M,10.00,30.00,BKN,OVC,M,M,8000.00,9500.00,M,M,M,M,M,M,M,M,M,28.22,K05U 290210Z AUTO 18022G30KT 10SM BKN080 OVC095 04/M04 A2977 RMK A01,M
BAM,2021-01-29 02:15,-116.8743,40.5990,1382.36,37.40,37.40,100.00,130.00,5.00,0.00,29.76,M,10.00,M,BKN,BKN,OVC,M,1900.00,2400.00,3000.00,M,M,M,M,M,M,M,M,32.81,KBAM 290215Z AUTO 13005KT 10SM BKN019 BKN024 OVC030 03/03 A2976 RMK AO1,M
HTH,2021-01-29 02:15,-118.6315,38.5448,1282.89,42.80,30.20,60.79,140.00,19.00,0.00,29.68,M,10.00,25.00,FEW,OVC,M,M,5500.00,7000.00,M,M,M,M,M,M,M,M,M,33.72,KHTH 290215Z AUTO 14019G25KT 10SM FEW055 OVC070 06/M01 A2968 RMK A01,M
MEV,2021-01-29 02:15,-119.7500,38.9963,1441.42,33.80,32.00,93.03,0.00,0.00,0.00,29.68,M,10.00,M,FEW,SCT,OVC,M,1700.00,4800.00,7000.00,M,M,M,M,M,M,M,M,33.80,KMEV 290215Z AUTO 00000KT 10SM FEW017 SCT048 OVC070 01/00 A2968 RMK AO2,M
TMT,2021-01-29 02:15,-117.1971,39.4643,1749.34,37.40,28.20,69.10,260.00,9.00,0.00,29.72,M,10.00,M,M,M,M,M,M,M,M,M,M,M,M,M,M,M,M,30.23,KTMT 290215Z AUTO 26009KT 10SM 03/M02 A2972 RMK AO2 T00301021,M
BVU,2021-01-29 02:15,-114.8611,35.9475,671.00,50.00,26.60,39.95,80.00,5.00,0.00,29.91,M,10.00,M,CLR,M,M,M,M,M,M,M,M,M,M,M,M,M,M,50.00,KBVU 290215Z AUTO 08005KT 10SM CLR 10/M03 A2991 RMK AO2,M
CXP,2021-01-29 02:15,-119.7326,39.1923,1431.00,35.60,32.00,86.59,0.00,0.00,0.00,29.69,M,10.00,M,FEW,OVC,M,M,4600.00,7000.00,M,M,M,M,M,M,M,M,M,35.60,KCXP 290215Z AUTO 00000KT 10SM FEW046 OVC070 02/00 A2969 RMK AO2,M
RTS,2021-01-29 02:15,-119.8764,39.6682,1539.00,32.00,32.00,100.00,310.00,6.00,0.00,29.70,M,0.75,M,OVC,M,M,M,200.00,M,M,M,-SN,M,M,M,M,M,M,25.53,KRTS 290215Z AUTO 31006KT 3/4SM -SN OVC002 M00/M00 A2970 RMK AO2,M
RNO,2021-01-29 02:19,-119.7711,39.4839,1341.00,34.00,30.90,88.27,290.00,11.00,T,29.68,M,2.50,18.00,BKN,OVC,M,M,2500.00,3300.00,M,M,-SN BR,M,M,M,M,M,M,24.99,KRNO 290219Z 29011G18KT 2 1/2SM -SN BR BKN025 OVC033 01/M01 A2968 RMK AO2 SFC VIS 3 RAB0159E02SNB02 P0000 T00111006,M
05U,2021-01-29 02:30,-116.0051,39.6042,1811.23,39.20,24.80,55.95,180.00,20.00,0.00,29.77,M,10.00,28.00,BKN,OVC,M,M,7500.00,8500.00,M,M,M,M,M,M,M,M,M,28.70,K05U 290230Z AUTO 18020G28KT 10SM BKN075 OVC085 04/M04 A2977 RMK A01,M
TMT,2021-01-29 02:35,-117.1971,39.4643,1749.34,37.20,28.40,70.22,240.00,9.00,0.00,29.72,M,10.00,M,M,M,M,M,M,M,M,M,M,M,M,M,M,M,M,29.98,KTMT 290235Z AUTO 24009KT 10SM 03/M02 A2972 RMK AO2 T00291020,M
MEV,2021-01-29 02:35,-119.7500,38.9963,1441.42,33.80,32.00,93.03,0.00,0.00,0.00,29.69,M,10.00,M,FEW,SCT,BKN,M,1700.00,4800.00,5500.00,M,M,M,M,M,M,M,M,33.80,KMEV 290235Z AUTO 00000KT 10SM FEW017 SCT048 BKN055 01/M00 A2969 RMK AO2,M
CXP,2021-01-29 02:35,-119.7326,39.1923,1431.00,35.60,32.00,86.59,0.00,0.00,0.00,29.71,M,10.00,M,FEW,BKN,OVC,M,4500.00,6000.00,7000.00,M,M,M,M,M,M,M,M,35.60,KCXP 290235Z AUTO 00000KT 10SM FEW045 BKN060 OVC070 02/M00 A2971 RMK AO2,M
BVU,2021-01-29 02:35,-114.8611,35.9475,671.00,51.80,24.80,34.69,100.00,6.00,0.00,29.91,M,10.00,M,CLR,M,M,M,M,M,M,M,M,M,M,M,M,M,M,51.80,KBVU 290235Z AUTO 10006KT 10SM CLR 11/M04 A2991 RMK AO2,M
RTS,2021-01-29 02:35,-119.8764,39.6682,1539.00,32.00,32.00,100.00,310.00,3.00,0.00,29.70,M,2.00,M,OVC,M,M,M,200.00,M,M,M,-SN,M,M,M,M,M,M,28.69,KRTS 290235Z AUTO 31003KT 2SM -SN OVC002 M00/M00 A2970 RMK AO2,M
BAM,2021-01-29 02:35,-116.8743,40.5990,1382.36,37.40,37.40,100.00,130.00,3.00,0.00,29.76,M,10.00,M,BKN,OVC,M,M,1900.00,2800.00,M,M,M,M,M,M,M,M,M,34.86,KBAM 290235Z AUTO 13003KT 10SM BKN019 OVC028 03/03 A2976 RMK AO1,M
HTH,2021-01-29 02:35,-118.6315,38.5448,1282.89,42.80,30.20,60.79,130.00,19.00,0.00,29.69,M,10.00,M,SCT,OVC,M,M,5500.00,7000.00,M,M,M,M,M,M,M,M,M,33.72,KHTH 290235Z AUTO 13019KT 10SM SCT055 OVC070 06/M01 A2969 RMK A01,M
RNO,2021-01-29 02:37,-119.7711,39.4839,1341.00,34.00,30.90,88.27,300.00,8.00,0.01,29.70,M,2.00,M,BKN,OVC,M,M,1300.00,2700.00,M,M,-SN BR,M,M,M,M,M,M,26.58,KRNO 290237Z 30008KT 2SM -SN BR BKN013 OVC027 01/M01 A2970 RMK AO2 TWR VIS 2 1/2 RAB0159E02SNB02 P0001 T00111006,M
05U,2021-01-29 02:50,-116.0051,39.6042,1811.23,37.40,24.80,60.04,180.00,17.00,0.00,29.79,M,10.00,25.00,SCT,OVC,M,M,7500.00,9500.00,M,M,M,M,M,M,M,M,M,27.15,K05U 290250Z AUTO 18017G25KT 10SM SCT075 OVC095 03/M04 A2979 RMK A01,M
DRA,2021-01-29 02:53,-116.0278,36.6206,1009.00,38.00,34.00,85.69,0.00,0.00,0.00,29.82,1009.80,10.00,M,CLR,M,M,M,M,M,M,M,M,M,M,M,M,M,M,37.90,KDRA 290253Z AUTO 00000KT 10SM CLR 03/01 A2982 RMK AO2 SLP098 T00330011 56010,M
VGT,2021-01-29 02:53,-115.1933,36.2111,667.00,52.00,28.00,39.30,0.00,0.00,0.00,29.85,1012.90,10.00,M,CLR,M,M,M,M,M,M,M,M,M,M,M,M,M,M,52.00,KVGT 290253Z 00000KT 10SM CLR 11/M02 A2985 RMK AO2 SLP129 T01111022 56010,M
ELY,2021-01-29 02:53,-114.8453,39.2950,1909.00,34.00,21.00,58.56,150.00,24.00,0.00,29.82,1009.90,10.00,35.00,SCT,M,M,M,11000.00,M,M,M,M,M,M,M,40.00,140.00,2021-01-29 02:22,20.76,KELY 290253Z AUTO 15024G35KT 10SM SCT110 01/M06 A2982 RMK AO2 PK WND 14040/0222 SLP099 T00111061 55006,M
LOL,2021-01-29 02:53,-118.5701,40.0684,1192.43,41.00,33.00,73.25,0.00,0.00,0.00,29.70,1006.10,10.00,M,SCT,OVC,M,M,5500.00,7000.00,M,M,M,M,M,M,M,M,M,41.00,KLOL 290253Z AUTO 00000KT 10SM SCT055 OVC070 05/01 A2970 RMK AO2 SLP061 T00500006 56002,M
P68,2021-01-29 02:53,-116.0056,39.6014,1993.00,38.00,26.10,62.14,180.00,19.00,0.00,29.76,1006.90,M,31.00,M,M,M,M,M,M,M,M,M,M,M,M,34.00,170.00,2021-01-29 02:10,27.24,KP68 290253Z AUTO 18019G31KT 03/M03 A2976 RMK AO1 PK WND 17034/0210 SLP069 T00331033 53001,M
MEV,2021-01-29 02:55,-119.7500,38.9963,1441.42,33.80,32.00,93.03,320.00,5.00,0.00,29.69,M,10.00,M,SCT,BKN,OVC,M,4100.00,4800.00,5500.00,M,M,M,M,M,M,M,M,28.53,KMEV 290255Z AUTO 32005KT 10SM SCT041 BKN048 OVC055 01/M00 A2969 RMK AO2,M
HTH,2021-01-29 02:55,-118.6315,38.5448,1282.89,41.00,30.20,65.16,130.00,16.00,0.00,29.69,M,10.00,22.00,SCT,BKN,OVC,M,5000.00,6000.00,7500.00,M,M,M,M,M,M,M,M,32.15,KHTH 290255Z AUTO 13016G22KT 10SM SCT050 BKN060 OVC075 05/M01 A2969 RMK A01,M
TMT,2021-01-29 02:55,-117.1971,39.4643,1749.34,37.80,27.90,67.19,250.00,8.00,0.00,29.72,M,10.00,17.00,M,M,M,M,M,M,M,M,M,M,M,M,M,M,M,31.26,KTMT 290255Z AUTO 25008G17KT 10SM 03/M02 A2972 RMK AO2 T00321023,M
BVU,2021-01-29 02:55,-114.8611,35.9475,671.00,50.00,26.60,39.95,60.00,5.00,0.00,29.91,M,10.00,M,CLR,M,M,M,M,M,M,M,M,M,M,M,M,M,M,50.00,KBVU 290255Z AUTO 06005KT 10SM CLR 10/M03 A2991 RMK AO2,M
CXP,2021-01-29 02:55,-119.7326,39.1923,1431.00,35.60,32.00,86.59,0.00,0.00,0.00,29.70,M,10.00,M,SCT,BKN,OVC,M,4800.00,6000.00,7000.00,M,M,M,M,M,M,M,M,35.60,KCXP 290255Z AUTO 00000KT 10SM SCT048 BKN060 OVC070 02/M00 A2970 RMK AO2,M
RTS,2021-01-29 02:55,-119.8764,39.6682,1539.00,32.00,32.00,100.00,0.00,0.00,0.06,29.71,M,4.00,M,SCT,BKN,M,M,300.00,2200.00,M,M,-SN,M,M,M,M,M,M,32.00,KRTS 290255Z AUTO 00000KT 4SM -SN SCT003 BKN022 M00/M00 A2971 RMK AO2 P0006,M
RNO,2021-01-29 02:55,-119.7711,39.4839,1341.00,33.00,30.90,91.51,330.00,8.00,0.03,29.70,1006.10,2.50,M,BKN,OVC,M,M,1200.00,2500.00,M,M,-SN BR,M,M,M,M,M,M,25.47,KRNO 290255Z 33008KT 2 1/2SM -SN BR BKN012 OVC025 01/M01 A2970 RMK AO2 SFC VIS 3 RAB0159E02SNB02 SLP061 P0003 60003 T00061006 53003,M
BAM,2021-01-29 02:55,-116.8743,40.5990,1382.36,35.60,35.60,100.00,90.00,3.00,0.00,29.76,M,10.00,M,SCT,OVC,M,M,1700.00,2600.00,M,M,M,M,M,M,M,M,M,32.80,KBAM 290255Z AUTO 09003KT 10SM SCT017 OVC026 02/02 A2976 RMK AO1,M
EKO,2021-01-29 02:56,-115.7860,40.8242,1367.00,37.00,30.90,78.37,0.00,0.00,0.00,29.75,1008.00,10.00,M,OVC,M,M,M,4700.00,M,M,M,M,M,M,M,M,M,M,37.00,KEKO 290256Z AUTO 00000KT 10SM OVC047 03/M01 A2975 RMK AO2 SLP080 T00281006 56001,M
NFL,2021-01-29 02:56,-118.7010,39.4166,1199.00,43.00,33.00,67.82,150.00,10.00,0.00,29.68,1003.40,10.00,M,SCT,BKN,BKN,OVC,3000.00,8000.00,15000.00,20000.00,M,M,M,M,M,M,M,36.76,KNFL 290256Z 15010KT 10SM SCT030 BKN080 BKN150 OVC200 06/01 A2968 RMK AO2 SLP034 T00610006 55002,M
LSV,2021-01-29 02:56,-115.0343,36.2362,570.00,51.60,28.80,41.22,30.00,7.00,0.00,29.91,1013.30,10.00,M,BKN,M,M,M,18000.00,M,M,M,M,M,M,M,M,M,M,51.60,KLSV 290256Z 03007KT 10SM BKN180 11/M02 A2991 RMK AO2A SLP133 WND DATA ESTMD ALSTG/SLP ESTMD T01091018 56013 $,M
WMC,2021-01-29 02:56,-117.8072,40.9019,1315.00,36.00,30.00,78.60,60.00,10.00,0.00,29.72,1006.60,10.00,M,OVC,M,M,M,10000.00,M,M,M,M,M,M,M,M,M,M,27.98,KWMC 290256Z AUTO 06010KT 10SM OVC100 02/M01 A2972 RMK AO2 SLP066 T00221011 56002,M
HND,2021-01-29 02:56,-115.1344,35.9729,742.79,48.00,28.00,45.61,M,3.00,0.00,29.91,1015.10,10.00,15.00,CLR,M,M,M,M,M,M,M,M,M,M,M,M,M,M,46.98,KHND 290256Z VRB03G15KT 10SM CLR 09/M02 A2991 RMK AO2 SLP151 T00891022 56012,M
TPH,2021-01-29 02:56,-117.0904,38.0505,1654.00,38.00,26.10,62.14,170.00,11.00,0.00,29.77,1008.30,10.00,M,OVC,M,M,M,6500.00,M,M,M,M,M,M,M,M,M,M,29.92,KTPH 290256Z AUTO 17011KT 10SM OVC065 03/M03 A2977 RMK AO2 SLP083 T00331033 55002,M
LAS,2021-01-29 02:56,-115.1634,36.0719,663.00,49.00,30.00,47.85,80.00,3.00,0.00,29.89,1012.40,10.00,M,BKN,OVC,M,M,18000.00,25000.00,M,M,M,M,M,M,M,M,M,48.01,KLAS 290256Z 08003KT 10SM BKN180 OVC250 09/M01 A2989 RMK AO2 SLP124 T00941011 56012,M
INS,2021-01-29 02:56,-115.6733,36.5872,955.00,46.00,26.40,46.04,120.00,14.00,0.00,29.80,1008.30,10.00,26.00,CLR,M,M,M,M,M,M,M,M,M,M,M,30.00,130.00,2021-01-29 01:58,39.21,KINS 290256Z AUTO 12014G26KT 10SM CLR 08/M03 A2980 RMK AO2 PK WND 13030/0158 SLP083 T00781031 55007 $,M
RNO,2021-01-29 03:06,-119.7711,39.4839,1341.00,34.00,30.90,88.27,360.00,5.00,T,29.71,M,2.50,M,FEW,OVC,M,M,1200.00,2500.00,M,M,-SN BR,M,M,M,M,M,M,28.77,KRNO 290306Z 36005KT 2 1/2SM -SN BR FEW012 OVC025 01/M01 A2971 RMK AO2 SFC VIS 4 P0000 T00111006,M
05U,2021-01-29 03:10,-116.0051,39.6042,1811.23,37.40,24.80,60.04,180.00,17.00,0.00,29.79,M,10.00,M,OVC,M,M,M,9000.00,M,M,M,M,M,M,M,M,M,M,27.15,K05U 290310Z AUTO 18017KT 10SM OVC090 03/M04 A2979 RMK A01,M
BVU,2021-01-29 03:15,-114.8611,35.9475,671.00,50.00,26.60,39.95,70.00,6.00,0.00,29.90,M,10.00,M,CLR,M,M,M,M,M,M,M,M,M,M,M,M,M,M,50.00,KBVU 290315Z AUTO 07006KT 10SM CLR 10/M03 A2990 RMK AO2,M
RTS,2021-01-29 03:15,-119.8764,39.6682,1539.00,32.00,32.00,100.00,300.00,3.00,0.00,29.71,M,1.75,M,BKN,BKN,M,M,300.00,2100.00,M,M,-SN,M,M,M,M,M,M,28.69,KRTS 290315Z AUTO 30003KT 1 3/4SM -SN BKN003 BKN021 M00/M00 A2971 RMK AO2,M
MEV,2021-01-29 03:15,-119.7500,38.9963,1441.42,33.80,32.00,93.03,230.00,6.00,0.00,29.69,M,10.00,M,SCT,BKN,OVC,M,3200.00,4100.00,4900.00,M,M,M,M,M,M,M,M,27.70,KMEV 290315Z AUTO 23006KT 10SM SCT032 BKN041 OVC049 01/M00 A2969 RMK AO2,M
TMT,2021-01-29 03:15,-117.1971,39.4643,1749.34,37.00,28.20,70.20,240.00,5.00,0.00,29.72,M,10.00,M,M,M,M,M,M,M,M,M,M,M,M,M,M,M,M,32.33,KTMT 290315Z AUTO 24005KT 10SM 03/M02 A2972 RMK AO2 T00281021,M
HTH,2021-01-29 03:15,-118.6315,38.5448,1282.89,42.80,30.20,60.79,130.00,16.00,0.00,29.69,M,10.00,M,SCT,OVC,M,M,5000.00,7500.00,M,M,M,M,M,M,M,M,M,34.50,KHTH 290315Z AUTO 13016KT 10SM SCT050 OVC075 06/M01 A2969 RMK A01,M
CXP,2021-01-29 03:15,-119.7326,39.1923,1431.00,35.60,32.00,86.59,310.00,3.00,0.00,29.71,M,10.00,M,SCT,BKN,OVC,M,3400.00,4400.00,4900.00,M,M,M,M,M,M,M,M,32.80,KCXP 290315Z AUTO 31003KT 10SM SCT034 BKN044 OVC049 02/M00 A2971 RMK AO2,M
BAM,2021-01-29 03:15,-116.8743,40.5990,1382.36,35.60,35.60,100.00,80.00,3.00,0.00,29.76,M,10.00,M,BKN,BKN,OVC,M,1500.00,2300.00,4100.00,M,M,M,M,M,M,M,M,32.80,KBAM 290315Z AUTO 08003KT 10SM BKN015 BKN023 OVC041 02/02 A2976 RMK AO1,M
05U,2021-01-29 03:30,-116.0051,39.6042,1811.23,37.40,24.80,60.04,170.00,12.00,0.00,29.79,M,10.00,19.00,OVC,M,M,M,9000.00,M,M,M,M,M,M,M,M,M,M,28.87,K05U 290330Z AUTO 17012G19KT 10SM OVC090 03/M04 A2979 RMK A01,M
TMT,2021-01-29 03:35,-117.1971,39.4643,1749.34,36.70,28.00,70.45,0.00,0.00,0.00,29.73,M,10.00,M,M,M,M,M,M,M,M,M,M,M,M,M,M,M,M,36.70,KTMT 290335Z AUTO 00000KT 10SM 03/M02 A2973 RMK AO2 T00261022,M
CXP,2021-01-29 03:35,-119.7326,39.1923,1431.00,35.60,32.00,86.59,M,3.00,0.00,29.71,M,7.00,M,SCT,BKN,BKN,M,2900.00,3400.00,4300.00,M,-UP,M,M,M,M,M,M,32.80,KCXP 290335Z AUTO VRB03KT 7SM -UP SCT029 BKN034 BKN043 02/M00 A2971 RMK AO2,M
BVU,2021-01-29 03:35,-114.8611,35.9475,671.00,51.80,26.60,37.38,90.00,5.00,0.00,29.89,M,10.00,M,CLR,M,M,M,M,M,M,M,M,M,M,M,M,M,M,51.80,KBVU 290335Z AUTO 09005KT 10SM CLR 11/M03 A2989 RMK AO2,M
HTH,2021-01-29 03:35,-118.6315,38.5448,1282.89,42.80,30.20,60.79,130.00,15.00,0.00,29.69,M,10.00,20.00,FEW,BKN,OVC,M,4100.00,5000.00,7500.00,M,M,M,M,M,M,M,M,34.78,KHTH 290335Z AUTO 13015G20KT 10SM FEW041 BKN050 OVC075 06/M01 A2969 RMK A01,M
BAM,2021-01-29 03:35,-116.8743,40.5990,1382.36,35.60,35.60,100.00,50.00,4.00,0.00,29.75,M,10.00,M,BKN,BKN,OVC,M,1700.00,3300.00,5500.00,M,M,M,M,M,M,M,M,31.62,KBAM 290335Z AUTO 05004KT 10SM BKN017 BKN033 OVC055 02/02 A2975 RMK AO1,M
MEV,2021-01-29 03:35,-119.7500,38.9963,1441.42,33.80,32.00,93.03,230.00,5.00,0.00,29.69,M,10.00,M,BKN,OVC,M,M,3100.00,4100.00,M,M,M,M,M,M,M,M,M,28.53,KMEV 290335Z AUTO 23005KT 10SM BKN031 OVC041 01/M00 A2969 RMK AO2,M
RTS,2021-01-29 03:35,-119.8764,39.6682,1539.00,32.00,32.00,100.00,320.00,4.00,0.00,29.71,M,2.00,M,BKN,M,M,M,300.00,M,M,M,-SN,M,M,M,M,M,M,27.42,KRTS 290335Z AUTO 32004KT 2SM -SN BKN003 M00/M00 A2971 RMK AO2,M
05U,2021-01-29 03:50,-116.0051,39.6042,1811.23,37.40,24.80,60.04,170.00,13.00,0.00,29.79,M,10.00,M,BKN,OVC,M,M,8000.00,9000.00,M,M,M,M,M,M,M,M,M,28.49,K05U 290350Z AUTO 17013KT 10SM BKN080 OVC090 03/M04 A2979 RMK A01,M
ELY,2021-01-29 03:53,-114.8453,39.2950,1909.00,34.00,21.90,60.83,150.00,23.00,0.00,29.82,1009.60,10.00,34.00,FEW,M,M,M,12000.00,M,M,M,M,M,M,M,36.00,140.00,2021-01-29 03:35,21.00,KELY 290353Z AUTO 15023G34KT 10SM FEW120 01/M06 A2982 RMK AO2 PK WND 14036/0335 SLP096 T00111056,M
P68,2021-01-29 03:53,-116.0056,39.6014,1993.00,37.00,26.10,64.38,170.00,13.00,0.00,29.76,1006.90,M,M,M,M,M,M,M,M,M,M,M,M,M,M,29.00,180.00,2021-01-29 02:56,27.97,KP68 290353Z AUTO 17013KT 03/M03 A2976 RMK AO1 PK WND 18029/0256 SLP069 T00281033,M
LOL,2021-01-29 03:53,-118.5701,40.0684,1192.43,40.00,34.00,79.25,0.00,0.00,T,29.70,1006.40,10.00,M,OVC,M,M,M,4000.00,M,M,M,-RA,M,M,M,M,M,M,39.90,KLOL 290353Z AUTO 00000KT 10SM -RA OVC040 04/01 A2970 RMK AO2 RAB51 SLP064 P0000 T00440011,M
DRA,2021-01-29 03:53,-116.0278,36.6206,1009.00,40.00,33.00,76.44,60.00,3.00,0.00,29.81,1009.10,10.00,M,CLR,M,M,M,M,M,M,M,M,M,M,M,M,M,M,37.72,KDRA 290353Z AUTO 06003KT 10SM CLR 04/01 A2981 RMK AO2 SLP091 T00440006,M
VGT,2021-01-29 03:53,-115.1933,36.2111,667.00,50.00,28.90,43.92,0.00,0.00,0.00,29.84,1012.40,10.00,M,CLR,M,M,M,M,M,M,M,M,M,M,M,M,M,M,50.00,KVGT 290353Z AUTO 00000KT 10SM CLR 10/M02 A2984 RMK AO2 SLP124 T01001017,M
HTH,2021-01-29 03:55,-118.6315,38.5448,1282.89,42.80,30.20,60.79,140.00,17.00,0.00,29.69,M,10.00,M,SCT,BKN,OVC,M,4000.00,4800.00,7000.00,M,M,M,M,M,M,M,M,34.22,KHTH 290355Z AUTO 14017KT 10SM SCT040 BKN048 OVC070 06/M01 A2969 RMK A01,M
MEV,2021-01-29 03:55,-119.7500,38.9963,1441.42,33.80,32.00,93.03,220.00,3.00,0.00,29.69,M,9.00,M,OVC,M,M,M,3000.00,M,M,M,-SN,M,M,M,M,M,M,30.75,KMEV 290355Z AUTO 22003KT 9SM -SN OVC030 01/00 A2969 RMK AO2,M
RTS,2021-01-29 03:55,-119.8764,39.6682,1539.00,30.20,30.20,100.00,20.00,4.00,0.01,29.71,M,2.50,M,FEW,M,M,M,300.00,M,M,M,-SN,M,M,M,M,M,M,25.32,KRTS 290355Z AUTO 02004KT 2 1/2SM -SN FEW003 M01/M01 A2971 RMK AO2 P0001,M
RNO,2021-01-29 03:55,-119.7711,39.4839,1341.00,32.00,32.00,100.00,40.00,5.00,0.04,29.70,1006.30,2.00,M,FEW,OVC,M,M,300.00,1900.00,M,M,-SN BR,M,M,M,M,M,M,26.40,KRNO 290355Z 04005KT 2SM -SN BR FEW003 OVC019 00/00 A2970 RMK AO2 SLP063 P0004 T00000000,M
CXP,2021-01-29 03:55,-119.7326,39.1923,1431.00,33.80,32.00,93.03,0.00,0.00,0.00,29.70,M,3.00,M,SCT,SCT,BKN,M,300.00,1100.00,2800.00,M,-SN,M,M,M,M,M,M,33.80,KCXP 290355Z AUTO 00000KT 3SM -SN SCT003 SCT011 BKN028 01/M00 A2970 RMK AO2,M
BVU,2021-01-29 03:55,-114.8611,35.9475,671.00,51.80,26.60,37.38,70.00,5.00,0.00,29.89,M,10.00,M,CLR,M,M,M,M,M,M,M,M,M,M,M,M,M,M,51.80,KBVU 290355Z AUTO 07005KT 10SM CLR 11/M03 A2989 RMK AO2,M
TMT,2021-01-29 03:55,-117.1971,39.4643,1749.34,36.70,27.90,70.16,240.00,3.00,0.00,29.73,M,10.00,M,M,M,M,M,M,M,M,M,M,M,M,M,M,M,M,34.06,KTMT 290355Z AUTO 24003KT 10SM 03/M02 A2973 RMK AO2 T00261023,M
BAM,2021-01-29 03:55,-116.8743,40.5990,1382.36,35.60,35.60,100.00,40.00,6.00,0.00,29.74,M,10.00,M,SCT,SCT,OVC,M,1700.00,3000.00,5000.00,M,M,M,M,M,M,M,M,29.87,KBAM 290355Z AUTO 04006KT 10SM SCT017 SCT030 OVC050 02/02 A2974 RMK AO1,M
LSV,2021-01-29 03:56,-115.0343,36.2362,570.00,49.50,30.90,48.54,40.00,7.00,0.00,29.90,1013.10,10.00,M,BKN,M,M,M,18000.00,M,M,M,M,M,M,M,M,M,M,46.11,KLSV 290356Z 04007KT 10SM BKN180 10/M01 A2990 RMK AO2A SLP131 WND DATA ESTMD ALSTG/SLP ESTMD T00971006 $,M
NFL,2021-01-29 03:56,-118.7010,39.4166,1199.00,40.00,35.00,82.80,260.00,8.00,0.02,29.70,1004.00,6.00,M,BKN,OVC,M,M,3000.00,5000.00,M,M,RA,M,M,M,M,M,M,33.84,KNFL 290356Z 26008KT 6SM RA BKN030 OVC050 04/02 A2970 RMK AO2 RAB14 SLP040 P0002 T00440017,M
HND,2021-01-29 03:56,-115.1344,35.9729,742.79,46.00,30.00,53.37,0.00,0.00,0.00,29.89,1014.70,10.00,M,CLR,M,M,M,M,M,M,M,M,M,M,M,M,M,M,46.00,KHND 290356Z 00000KT 10SM CLR 08/M01 A2989 RMK AO2 SLP147 T00781011,M
LAS,2021-01-29 03:56,-115.1634,36.0719,663.00,49.00,28.90,45.75,10.00,5.00,0.00,29.90,1012.50,10.00,M,BKN,OVC,M,M,18000.00,25000.00,M,M,M,M,M,M,M,M,M,46.47,KLAS 290356Z 01005KT 10SM BKN180 OVC250 09/M02 A2990 RMK AO2 SLP125 T00941017,M
TPH,2021-01-29 03:56,-117.0904,38.0505,1654.00,38.00,26.10,62.14,170.00,12.00,0.00,29.76,1007.70,10.00,M,OVC,M,M,M,6000.00,M,M,M,M,M,M,M,M,M,M,29.51,KTPH 290356Z AUTO 17012KT 10SM OVC060 03/M03 A2976 RMK AO2 SLP077 T00331033,M
WMC,2021-01-29 03:56,-117.8072,40.9019,1315.00,38.00,30.00,72.93,100.00,6.00,0.00,29.72,1006.40,10.00,M,BKN,OVC,M,M,6500.00,8000.00,M,M,M,M,M,M,M,M,M,32.64,KWMC 290356Z AUTO 10006KT 10SM BKN065 OVC080 03/M01 A2972 RMK AO2 SLP064 T00331011,M
INS,2021-01-29 03:56,-115.6733,36.5872,955.00,45.70,26.60,46.95,120.00,16.00,0.00,29.79,1008.20,10.00,M,CLR,M,M,M,M,M,M,M,M,M,M,M,30.00,130.00,2021-01-29 03:20,38.27,KINS 290356Z AUTO 12016KT 10SM CLR 08/M03 A2979 RMK AO2 PK WND 13030/20 SLP082 T00761030 $,M
EKO,2021-01-29 03:56,-115.7860,40.8242,1367.00,37.00,30.90,78.37,0.00,0.00,0.00,29.75,1008.00,10.00,M,OVC,M,M,M,5500.00,M,M,M,M,M,M,M,M,M,M,37.00,KEKO 290356Z AUTO 00000KT 10SM OVC055 03/M01 A2975 RMK AO2 SLP080 T00281006,M
05U,2021-01-29 04:10,-116.0051,39.6042,1811.23,37.40,24.80,60.04,170.00,10.00,0.00,29.79,M,10.00,M,BKN,OVC,M,M,7500.00,9000.00,M,M,M,M,M,M,M,M,M,29.74,K05U 290410Z AUTO 17010KT 10SM BKN075 OVC090 03/M04 A2979 RMK A01,M
BAM,2021-01-29 04:15,-116.8743,40.5990,1382.36,35.60,35.60,100.00,20.00,3.00,0.00,29.74,M,10.00,M,OVC,M,M,M,5000.00,M,M,M,M,M,M,M,M,M,M,32.80,KBAM 290415Z AUTO 02003KT 10SM OVC050 02/02 A2974 RMK AO1,M
HTH,2021-01-29 04:15,-118.6315,38.5448,1282.89,42.80,30.20,60.79,140.00,14.00,0.00,29.68,M,10.00,M,FEW,FEW,OVC,M,4800.00,5500.00,7000.00,M,M,M,M,M,M,M,M,35.08,KHTH 290415Z AUTO 14014KT 10SM FEW048 FEW055 OVC070 06/M01 A2968 RMK A01,M
TMT,2021-01-29 04:15,-117.1971,39.4643,1749.34,36.70,28.20,71.03,250.00,5.00,0.00,29.73,M,10.00,M,M,M,M,M,M,M,M,M,M,M,M,M,M,M,M,31.98,KTMT 290415Z AUTO 25005KT 10SM 03/M02 A2973 RMK AO2 T00261021,M
MEV,2021-01-29 04:15,-119.7500,38.9963,1441.42,33.80,32.00,93.03,0.00,0.00,0.00,29.69,M,4.00,M,FEW,SCT,BKN,M,400.00,1500.00,2500.00,M,-SN BR,M,M,M,M,M,M,33.80,KMEV 290415Z AUTO 00000KT 4SM -SN BR FEW004 SCT015 BKN025 01/M00 A2969 RMK AO2,M
CXP,2021-01-29 04:15,-119.7326,39.1923,1431.00,33.80,32.00,93.03,0.00,0.00,0.00,29.70,M,3.00,M,BKN,BKN,BKN,M,300.00,1000.00,2800.00,M,-SN,M,M,M,M,M,M,33.80,KCXP 290415Z AUTO 00000KT 3SM -SN BKN003 BKN010 BKN028 01/M00 A2970 RMK AO2,M
RTS,2021-01-29 04:15,-119.8764,39.6682,1539.00,30.20,30.20,100.00,40.00,5.00,0.00,29.70,M,6.00,M,CLR,M,M,M,M,M,M,M,-SN,M,M,M,M,M,M,24.26,KRTS 290415Z AUTO 04005KT 6SM -SN CLR M01/M01 A2970 RMK AO2,M
BVU,2021-01-29 04:15,-114.8611,35.9475,671.00,50.00,26.60,39.95,M,6.00,0.00,29.89,M,10.00,M,CLR,M,M,M,M,M,M,M,M,M,M,M,M,M,M,50.00,KBVU 290415Z AUTO VRB06KT 10SM CLR 10/M03 A2989 RMK AO2,M
WMC,2021-01-29 04:19,-117.8072,40.9019,1315.00,37.00,30.90,78.37,140.00,6.00,T,29.72,M,10.00,M,BKN,BKN,OVC,M,1100.00,2100.00,5500.00,M,UP,M,M,M,M,M,M,31.55,KWMC 290419Z AUTO 14006KT 10SM UP BKN011 BKN021 OVC055 03/M01 A2972 RMK AO2 UPB16 P0000 T00281006,M
05U,2021-01-29 04:30,-116.0051,39.6042,1811.23,37.40,24.80,60.04,170.00,12.00,0.00,29.78,M,10.00,M,BKN,OVC,M,M,8000.00,9000.00,M,M,M,M,M,M,M,M,M,28.87,K05U 290430Z AUTO 17012KT 10SM BKN080 OVC090 03/M04 A2978 RMK A01,M
HTH,2021-01-29 04:35,-118.6315,38.5448,1282.89,41.00,30.20,65.16,150.00,12.00,0.00,29.68,M,10.00,18.00,FEW,OVC,M,M,5000.00,7000.00,M,M,M,M,M,M,M,M,M,33.46,KHTH 290435Z AUTO 15012G18KT 10SM FEW050 OVC070 05/M01 A2968 RMK A01,M
MEV,2021-01-29 04:35,-119.7500,38.9963,1441.42,32.00,32.00,100.00,30.00,3.00,0.00,29.68,M,2.50,M,FEW,SCT,OVC,M,400.00,700.00,1400.00,M,-SN BR,M,M,M,M,M,M,28.69,KMEV 290435Z AUTO 03003KT 2 1/2SM -SN BR FEW004 SCT007 OVC014 00/M00 A2968 RMK AO2,M
RTS,2021-01-29 04:35,-119.8764,39.6682,1539.00,30.20,30.20,100.00,100.00,3.00,0.00,29.70,M,10.00,M,BKN,M,M,M,6000.00,M,M,M,M,M,M,M,M,M,M,26.63,KRTS 290435Z AUTO 10003KT 10SM BKN060 M01/M01 A2970 RMK AO2,M
BVU,2021-01-29 04:35,-114.8611,35.9475,671.00,51.80,26.60,37.38,130.00,5.00,0.00,29.89,M,10.00,M,CLR,M,M,M,M,M,M,M,M,M,M,M,M,M,M,51.80,KBVU 290435Z AUTO 13005KT 10SM CLR 11/M03 A2989 RMK AO2,M
CXP,2021-01-29 04:35,-119.7326,39.1923,1431.00,33.80,32.00,93.03,0.00,0.00,0.00,29.70,M,3.00,M,FEW,SCT,SCT,M,300.00,1000.00,2800.00,M,-SN,M,M,M,M,M,M,33.80,KCXP 290435Z AUTO 00000KT 3SM -SN FEW003 SCT010 SCT028 01/00 A2970 RMK AO2,M
BAM,2021-01-29 04:35,-116.8743,40.5990,1382.36,35.60,35.60,100.00,60.00,5.00,0.00,29.74,M,10.00,M,SCT,OVC,M,M,4500.00,5000.00,M,M,M,M,M,M,M,M,M,30.67,KBAM 290435Z AUTO 06005KT 10SM SCT045 OVC050 02/02 A2974 RMK AO1,M
TMT,2021-01-29 04:35,-117.1971,39.4643,1749.34,36.70,27.90,70.16,230.00,9.00,0.00,29.72,M,10.00,M,M,M,M,M,M,M,M,M,M,M,M,M,M,M,M,29.36,KTMT 290435Z AUTO 23009KT 10SM 03/M02 A2972 RMK AO2 T00261023,M
LOL,2021-01-29 04:39,-118.5701,40.0684,1192.43,39.00,34.00,82.08,170.00,5.00,T,29.70,M,10.00,M,BKN,BKN,OVC,M,2200.00,2800.00,3300.00,M,-RA,M,M,M,M,M,M,34.71,KLOL 290439Z AUTO 17005KT 10SM -RA BKN022 BKN028 OVC033 04/01 A2970 RMK AO2 P0000 T00390011,M
NFL,2021-01-29 04:43,-118.7010,39.4166,1199.00,39.00,35.00,85.76,280.00,5.00,0.04,29.70,M,7.00,M,BKN,OVC,M,M,2000.00,3000.00,M,M,-RA,M,M,M,M,M,M,34.71,KNFL 290443Z 28005KT 7SM -RA BKN020 OVC030 04/02 A2970 RMK AO2 WR// P0004 T00390017,M
05U,2021-01-29 04:50,-116.0051,39.6042,1811.23,35.60,24.80,64.46,180.00,14.00,0.00,29.78,M,10.00,M,FEW,OVC,M,M,7500.00,9000.00,M,M,M,M,M,M,M,M,M,25.80,K05U 290450Z AUTO 18014KT 10SM FEW075 OVC090 02/M04 A2978 RMK A01,M
VGT,2021-01-29 04:53,-115.1933,36.2111,667.00,49.00,30.00,47.85,0.00,0.00,0.00,29.84,1012.40,10.00,M,CLR,M,M,M,M,M,M,M,M,M,M,M,M,M,M,48.90,KVGT 290453Z AUTO 00000KT 10SM CLR 09/M01 A2984 RMK AO2 SLP124 T00941011,M
WMC,2021-01-29 04:53,-117.8072,40.9019,1315.00,35.60,32.00,86.59,150.00,4.00,0.01,29.72,M,10.00,M,BKN,OVC,M,M,900.00,1400.00,M,M,-RA,M,M,M,M,M,M,31.62,KWMC 290453Z AUTO 15004KT 10SM -RA BKN009 OVC014 02/00 A2972 RMK AO2 UPB16E20RAB20 P0001,M
ELY,2021-01-29 04:53,-114.8453,39.2950,1909.00,34.00,21.90,60.83,160.00,24.00,0.00,29.81,1008.40,10.00,31.00,BKN,M,M,M,11000.00,M,M,M,M,M,M,M,35.00,150.00,2021-01-29 04:02,20.76,KELY 290453Z AUTO 16024G31KT 10SM BKN110 01/M06 A2981 RMK AO2 PK WND 15035/0402 SLP084 T00111056,M
LOL,2021-01-29 04:53,-118.5701,40.0684,1192.43,39.00,34.00,82.08,160.00,7.00,0.01,29.70,1006.30,10.00,M,BKN,OVC,M,M,2000.00,2600.00,M,M,-RA,M,M,M,M,M,M,33.31,KLOL 290453Z AUTO 16007KT 10SM -RA BKN020 OVC026 04/01 A2970 RMK AO2 SLP063 P0001 T00390011,M
DRA,2021-01-29 04:53,-116.0278,36.6206,1009.00,39.00,35.00,85.76,20.00,3.00,0.00,29.81,1008.90,10.00,M,FEW,M,M,M,12000.00,M,M,M,M,M,M,M,M,M,M,36.69,KDRA 290453Z AUTO 02003KT 10SM FEW120 04/02 A2981 RMK AO2 SLP089 T00390017,M
P68,2021-01-29 04:53,-116.0056,39.6014,1993.00,37.00,25.00,61.50,170.00,15.00,0.00,29.75,1005.80,M,24.00,M,M,M,M,M,M,M,M,M,M,M,M,M,M,M,27.26,KP68 290453Z AUTO 17015G24KT 03/M04 A2975 RMK AO1 SLP058 T00281039,M
TMT,2021-01-29 04:55,-117.1971,39.4643,1749.34,36.50,28.00,71.01,250.00,9.00,0.00,29.71,M,10.00,M,M,M,M,M,M,M,M,M,M,M,M,M,M,M,M,29.11,KTMT 290455Z AUTO 25009KT 10SM 03/M02 A2971 RMK AO2 T00251022,M
RNO,2021-01-29 04:55,-119.7711,39.4839,1341.00,32.00,32.00,100.00,0.00,0.00,0.02,29.70,1006.10,2.00,M,FEW,OVC,M,M,1000.00,2300.00,M,M,-SN BR,M,M,M,M,M,M,32.00,KRNO 290455Z 00000KT 2SM -SN BR FEW010 OVC023 00/00 A2970 RMK AO2 SFC VIS 2 1/2 SLP061 P0002 T00000000,M
MEV,2021-01-29 04:55,-119.7500,38.9963,1441.42,32.00,32.00,100.00,10.00,3.00,0.00,29.68,M,2.00,M,FEW,OVC,M,M,500.00,1500.00,M,M,-SN BR,M,M,M,M,M,M,28.69,KMEV 290455Z AUTO 01003KT 2SM -SN BR FEW005 OVC015 00/M00 A2968 RMK AO2,M
CXP,2021-01-29 04:55,-119.7326,39.1923,1431.00,33.80,32.00,93.03,0.00,0.00,0.00,29.70,M,5.00,M,FEW,FEW,BKN,M,600.00,900.00,2800.00,M,-SN,M,M,M,M,M,M,33.80,KCXP 290455Z AUTO 00000KT 5SM -SN FEW006 FEW009 BKN028 01/00 A2970 RMK AO2,M
BVU,2021-01-29 04:55,-114.8611,35.9475,671.00,51.80,26.60,37.38,130.00,9.00,0.00,29.89,M,10.00,M,CLR,M,M,M,M,M,M,M,M,M,M,M,M,M,M,51.80,KBVU 290455Z AUTO 13009KT 10SM CLR 11/M03 A2989 RMK AO2,M
HTH,2021-01-29 04:55,-118.6315,38.5448,1282.89,42.80,28.40,56.48,130.00,14.00,0.00,29.67,M,10.00,19.00,FEW,FEW,OVC,M,4300.00,5000.00,7000.00,M,M,M,M,M,M,M,M,35.08,KHTH 290455Z AUTO 13014G19KT 10SM FEW043 FEW050 OVC070 06/M02 A2967 RMK A01,M
BAM,2021-01-29 04:55,-116.8743,40.5990,1382.36,37.40,37.40,100.00,80.00,6.00,0.00,29.74,M,10.00,M,SCT,BKN,OVC,M,3000.00,4500.00,5000.00,M,M,M,M,M,M,M,M,32.03,KBAM 290455Z AUTO 08006KT 10SM SCT030 BKN045 OVC050 03/03 A2974 RMK AO1,M
RTS,2021-01-29 04:55,-119.8764,39.6682,1539.00,30.20,28.40,92.92,0.00,0.00,0.00,29.71,M,10.00,M,SCT,OVC,M,M,200.00,5500.00,M,M,M,M,M,M,M,M,M,30.20,KRTS 290455Z AUTO 00000KT 10SM SCT002 OVC055 M01/M02 A2971 RMK AO2,M
WMC,2021-01-29 04:56,-117.8072,40.9019,1315.00,35.00,32.00,88.33,140.00,5.00,0.02,29.72,1006.60,10.00,M,BKN,OVC,M,M,900.00,1400.00,M,M,-RA,M,M,M,M,M,M,30.08,KWMC 290456Z AUTO 14005KT 10SM -RA BKN009 OVC014 02/00 A2972 RMK AO2 UPB16E20RAB20 SLP066 P0002 T00170000,M
NFL,2021-01-29 04:56,-118.7010,39.4166,1199.00,38.00,35.00,89.53,310.00,5.00,0.06,29.69,1003.70,6.00,M,BKN,OVC,M,M,2000.00,3000.00,M,M,RA BR,M,M,M,M,M,M,33.40,KNFL 290456Z 31005KT 6SM RA BR BKN020 OVC030 03/02 A2969 RMK AO2 SLP037 WR// P0006 T00330017,M
LSV,2021-01-29 04:56,-115.0343,36.2362,570.00,49.00,31.30,50.44,10.00,4.00,0.00,29.90,1013.00,10.00,M,BKN,M,M,M,18000.00,M,M,M,M,M,M,M,M,M,M,47.16,KLSV 290456Z 01004KT 10SM BKN180 09/00 A2990 RMK AO2A SLP130 WND DATA ESTMD ALSTG/SLP ESTMD T00941004 $,M
LAS,2021-01-29 04:56,-115.1634,36.0719,663.00,47.00,30.90,53.50,300.00,3.00,0.00,29.87,1011.60,10.00,M,BKN,OVC,M,M,18000.00,25000.00,M,M,M,M,M,M,M,M,M,45.72,KLAS 290456Z 30003KT 10SM BKN180 OVC250 08/M01 A2987 RMK AO2 SLP116 T00831006,M
TPH,2021-01-29 04:56,-117.0904,38.0505,1654.00,38.00,26.10,62.14,170.00,15.00,0.00,29.74,1006.80,10.00,M,OVC,M,M,M,6000.00,M,M,M,M,M,M,M,27.00,170.00,2021-01-29 04:43,28.43,KTPH 290456Z AUTO 17015KT 10SM OVC060 03/M03 A2974 RMK AO2 PK WND 17027/0443 SLP068 T00331033,M
HND,2021-01-29 04:56,-115.1344,35.9729,742.79,46.00,30.00,53.37,350.00,5.00,0.00,29.89,1014.40,10.00,M,CLR,M,M,M,M,M,M,M,M,M,M,M,M,M,M,43.02,KHND 290456Z AUTO 35005KT 10SM CLR 08/M01 A2989 RMK AO2 SLP144 T00781011,M
INS,2021-01-29 04:56,-115.6733,36.5872,955.00,45.00,26.60,48.04,110.00,16.00,0.00,29.78,1007.80,10.00,M,CLR,M,M,M,M,M,M,M,M,M,M,M,28.00,110.00,2021-01-29 04:23,37.49,KINS 290456Z AUTO 11016KT 10SM CLR 07/M03 A2978 RMK AO2 PK WND 11028/23 SLP078 T00731030 $,M
EKO,2021-01-29 04:56,-115.7860,40.8242,1367.00,38.00,30.00,72.93,170.00,3.00,0.00,29.75,1007.40,10.00,M,BKN,OVC,M,M,6000.00,8000.00,M,M,M,M,M,M,M,M,M,35.43,KEKO 290456Z AUTO 17003KT 10SM BKN060 OVC080 03/M01 A2975 RMK AO2 SLP074 T00331011,M
05U,2021-01-29 05:10,-116.0051,39.6042,1811.23,35.60,24.80,64.46,170.00,13.00,0.00,29.78,M,10.00,M,OVC,M,M,M,8500.00,M,M,M,M,M,M,M,M,M,M,26.18,K05U 290510Z AUTO 17013KT 10SM OVC085 02/M04 A2978 RMK A01,M
BVU,2021-01-29 05:15,-114.8611,35.9475,671.00,53.60,24.80,32.46,160.00,9.00,0.00,29.89,M,10.00,15.00,CLR,M,M,M,M,M,M,M,M,M,M,M,M,M,M,53.60,KBVU 290515Z AUTO 16009G15KT 10SM CLR 12/M04 A2989 RMK AO2,M
CXP,2021-01-29 05:15,-119.7326,39.1923,1431.00,33.80,32.00,93.03,0.00,0.00,0.00,29.70,M,4.00,M,BKN,OVC,M,M,600.00,2800.00,M,M,-SN,M,M,M,M,M,M,33.80,KCXP 290515Z AUTO 00000KT 4SM -SN BKN006 OVC028 01/00 A2970 RMK AO2,M
RTS,2021-01-29 05:15,-119.8764,39.6682,1539.00,30.20,30.20,100.00,0.00,0.00,0.00,29.70,M,10.00,M,SCT,OVC,M,M,300.00,3300.00,M,M,M,M,M,M,M,M,M,30.20,KRTS 290515Z AUTO 00000KT 10SM SCT003 OVC033 M01/M01 A2970 RMK AO2,M
TMT,2021-01-29 05:15,-117.1971,39.4643,1749.34,36.50,28.00,71.01,250.00,5.00,0.00,29.71,M,10.00,M,M,M,M,M,M,M,M,M,M,M,M,M,M,M,M,31.74,KTMT 290515Z AUTO 25005KT 10SM 03/M02 A2971 RMK AO2 T00251022,M
BAM,2021-01-29 05:15,-116.8743,40.5990,1382.36,37.40,37.40,100.00,0.00,0.00,0.00,29.73,M,10.00,M,SCT,BKN,OVC,M,3000.00,3700.00,5500.00,M,M,M,M,M,M,M,M,37.40,KBAM 290515Z AUTO 00000KT 10SM SCT030 BKN037 OVC055 03/03 A2973 RMK AO1,M
MEV,2021-01-29 05:15,-119.7500,38.9963,1441.42,32.00,32.00,100.00,360.00,4.00,0.00,29.69,M,1.50,M,SCT,BKN,OVC,M,400.00,1500.00,2200.00,M,-SN BR,M,M,M,M,M,M,27.42,KMEV 290515Z AUTO 36004KT 1 1/2SM -SN BR SCT004 BKN015 OVC022 00/M00 A2969 RMK AO2,M
HTH,2021-01-29 05:15,-118.6315,38.5448,1282.89,42.80,30.20,60.79,140.00,17.00,0.00,29.67,M,10.00,M,FEW,FEW,OVC,M,4300.00,5000.00,7000.00,M,M,M,M,M,M,M,M,34.22,KHTH 290515Z AUTO 14017KT 10SM FEW043 FEW050 OVC070 06/M01 A2967 RMK A01,M
WMC,2021-01-29 05:19,-117.8072,40.9019,1315.00,35.00,32.00,88.33,90.00,3.00,T,29.71,M,10.00,M,BKN,OVC,M,M,1200.00,2500.00,M,M,-RA,M,M,M,M,M,M,32.23,KWMC 290519Z AUTO 09003KT 10SM -RA BKN012 OVC025 02/00 A2971 RMK AO2 P0000 T00170000,M
RNO,2021-01-29 05:28,-119.7711,39.4839,1341.00,33.00,32.00,95.67,0.00,0.00,0.01,29.71,M,2.00,M,SCT,OVC,M,M,300.00,2000.00,M,M,-SN BR,M,M,M,M,M,M,33.10,KRNO 290528Z 00000KT 2SM -SN BR SCT003 OVC020 01/00 A2971 RMK AO2 SFC VIS 3 P0001 T00060000,M
05U,2021-01-29 05:30,-116.0051,39.6042,1811.23,35.60,24.80,64.46,170.00,15.00,0.00,29.78,M,10.00,M,FEW,SCT,BKN,M,5000.00,6500.00,7500.00,M,M,M,M,M,M,M,M,25.45,K05U 290530Z AUTO 17015KT 10SM FEW050 SCT065 BKN075 02/M04 A2978 RMK A01,M
MEV,2021-01-29 05:35,-119.7500,38.9963,1441.42,32.00,32.00,100.00,0.00,0.00,0.00,29.69,M,2.00,M,BKN,BKN,OVC,M,400.00,1500.00,2200.00,M,-SN BR,M,M,M,M,M,M,32.00,KMEV 290535Z AUTO 00000KT 2SM -SN BR BKN004 BKN015 OVC022 00/M00 A2969 RMK AO2,M
RTS,2021-01-29 05:35,-119.8764,39.6682,1539.00,30.20,30.20,100.00,0.00,0.00,0.00,29.71,M,6.00,M,FEW,BKN,OVC,M,400.00,2700.00,3300.00,M,-SN,M,M,M,M,M,M,30.20,KRTS 290535Z AUTO 00000KT 6SM -SN FEW004 BKN027 OVC033 M01/M01 A2971 RMK AO2,M
CXP,2021-01-29 05:35,-119.7326,39.1923,1431.00,33.80,32.00,93.03,0.00,0.00,0.00,29.70,M,3.00,M,OVC,M,M,M,600.00,M,M,M,-SN,M,M,M,M,M,M,33.80,KCXP 290535Z AUTO 00000KT 3SM -SN OVC006 01/00 A2970 RMK AO2,M
BVU,2021-01-29 05:35,-114.8611,35.9475,671.00,55.40,24.80,30.40,M,5.00,0.00,29.90,M,10.00,11.00,CLR,M,M,M,M,M,M,M,M,M,M,M,M,M,M,55.40,KBVU 290535Z AUTO VRB05G11KT 10SM CLR 13/M04 A2990 RMK AO2,M
BAM,2021-01-29 05:35,-116.8743,40.5990,1382.36,35.60,35.60,100.00,0.00,0.00,0.00,29.73,M,10.00,M,OVC,M,M,M,4800.00,M,M,M,M,M,M,M,M,M,M,35.60,KBAM 290535Z AUTO 00000KT 10SM OVC048 02/02 A2973 RMK AO1,M
HTH,2021-01-29 05:35,-118.6315,38.5448,1282.89,41.00,30.20,65.16,140.00,14.00,0.00,29.67,M,10.00,M,BKN,BKN,OVC,M,3600.00,4300.00,6500.00,M,M,M,M,M,M,M,M,32.76,KHTH 290535Z AUTO 14014KT 10SM BKN036 BKN043 OVC065 05/M01 A2967 RMK A01,M
TMT,2021-01-29 05:35,-117.1971,39.4643,1749.34,36.30,28.00,71.58,160.00,5.00,0.00,29.70,M,10.00,M,M,M,M,M,M,M,M,M,M,M,M,M,M,M,M,31.50,KTMT 290535Z AUTO 16005KT 10SM 02/M02 A2970 RMK AO2 T00241022,M
RNO,2021-01-29 05:49,-119.7711,39.4839,1341.00,33.80,32.00,93.03,M,3.00,0.01,29.70,M,2.00,M,BKN,OVC,M,M,500.00,1500.00,M,M,-SN BR,M,M,M,M,M,M,30.75,KRNO 290549Z VRB03KT 2SM -SN BR BKN005 OVC015 01/00 A2970 RMK AO2 SFC VIS 3 P0001,M
05U,2021-01-29 05:50,-116.0051,39.6042,1811.23,35.60,24.80,64.46,160.00,15.00,0.00,29.78,M,10.00,21.00,FEW,SCT,OVC,M,4900.00,6500.00,7500.00,M,M,M,M,M,M,M,M,25.45,K05U 290550Z AUTO 16015G21KT 10SM FEW049 SCT065 OVC075 02/M04 A2978 RMK A01,M
DRA,2021-01-29 05:53,-116.0278,36.6206,1009.00,41.00,34.00,75.94,330.00,5.00,0.00,29.80,1008.20,10.00,M,OVC,M,M,M,11000.00,M,M,M,M,M,M,M,M,M,M,37.08,KDRA 290553Z AUTO 33005KT 10SM OVC110 05/01 A2980 RMK AO2 SLP082 T00500011 10100 20028 56009,M
P68,2021-01-29 05:53,-116.0056,39.6014,1993.00,36.00,25.00,63.98,160.00,17.00,0.00,29.75,1005.50,M,24.00,M,M,M,M,M,M,M,M,M,M,M,M,26.00,170.00,2021-01-29 05:13,25.32,KP68 290553Z AUTO 16017G24KT 02/M04 A2975 RMK AO1 PK WND 17026/0513 SLP055 T00221039 10044 20022 58003,M
ELY,2021-01-29 05:53,-114.8453,39.2950,1909.00,35.00,23.00,60.99,150.00,21.00,0.00,29.81,1008.10,10.00,31.00,BKN,M,M,M,12000.00,M,M,M,M,M,M,M,32.00,150.00,2021-01-29 05:31,22.99,KELY 290553Z AUTO 15021G31KT 10SM BKN120 02/M05 A2981 RMK AO2 PK WND 15032/0531 SLP081 T00171050 10022 20011 57002,M
VGT,2021-01-29 05:53,-115.1933,36.2111,667.00,48.00,30.00,49.49,0.00,0.00,0.00,29.84,1012.40,10.00,M,FEW,M,M,M,11000.00,M,M,M,M,M,M,M,M,M,M,48.00,KVGT 290553Z AUTO 00000KT 10SM FEW110 09/M01 A2984 RMK AO2 SLP124 T00891011 10133 20089 56003,M
LOL,2021-01-29 05:53,-118.5701,40.0684,1192.43,37.00,35.00,92.76,190.00,6.00,0.03,29.70,1006.30,10.00,M,OVC,M,M,M,2400.00,M,M,M,-RA,M,M,M,M,M,M,31.55,KLOL 290553Z AUTO 19006KT 10SM -RA OVC024 03/02 A2970 RMK AO2 SLP063 P0003 60004 T00280017 10050 20028 51000,M
TMT,2021-01-29 05:55,-117.1971,39.4643,1749.34,37.60,27.30,66.07,140.00,4.00,0.00,29.70,M,10.00,M,M,M,M,M,M,M,M,M,M,M,M,M,M,M,M,33.96,KTMT 290555Z AUTO 14004KT 10SM 03/M03 A2970 RMK AO2 T00311026 10045 20023,M
BVU,2021-01-29 05:55,-114.8611,35.9475,671.00,53.60,26.60,34.98,170.00,6.00,0.00,29.90,M,10.00,M,CLR,M,M,M,M,M,M,M,M,M,M,M,M,M,M,53.60,KBVU 290555Z AUTO 17006KT 10SM CLR 12/M03 A2990 RMK AO2,M
HTH,2021-01-29 05:55,-118.6315,38.5448,1282.89,41.00,30.20,65.16,130.00,15.00,0.00,29.67,M,10.00,M,SCT,BKN,OVC,M,3700.00,4300.00,7000.00,M,M,M,M,M,M,M,M,32.45,KHTH 290555Z AUTO 13015KT 10SM SCT037 BKN043 OVC070 05/M01 A2967 RMK A01,M
CXP,2021-01-29 05:55,-119.7326,39.1923,1431.00,33.80,32.00,93.03,0.00,0.00,0.00,29.69,M,2.50,M,OVC,M,M,M,600.00,M,M,M,-SN,M,M,M,M,M,M,33.80,KCXP 290555Z AUTO 00000KT 2 1/2SM -SN OVC006 01/00 A2969 RMK AO2,M
BAM,2021-01-29 05:55,-116.8743,40.5990,1382.36,35.60,35.60,100.00,0.00,0.00,0.00,29.73,M,10.00,M,SCT,OVC,M,M,4300.00,5000.00,M,M,M,M,M,M,M,M,M,35.60,KBAM 290555Z AUTO 00000KT 10SM SCT043 OVC050 02/02 A2973 RMK AO1,M
RTS,2021-01-29 05:55,-119.8764,39.6682,1539.00,30.20,30.20,100.00,330.00,3.00,0.00,29.70,M,4.00,M,BKN,SCT,BKN,M,400.00,2100.00,2700.00,M,-SN,M,M,M,M,M,M,26.63,KRTS 290555Z AUTO 33003KT 4SM -SN BKN004 SCT021 BKN027 M01/M01 A2970 RMK AO2,M
MEV,2021-01-29 05:55,-119.7500,38.9963,1441.42,32.00,32.00,100.00,20.00,3.00,0.01,29.69,M,1.75,M,BKN,OVC,M,M,500.00,1200.00,M,M,-SN BR,M,M,M,M,M,M,28.69,KMEV 290555Z AUTO 02003KT 1 3/4SM -SN BR BKN005 OVC012 00/M00 A2969 RMK AO2 P0001,M
RNO,2021-01-29 05:55,-119.7711,39.4839,1341.00,33.00,32.00,95.67,0.00,0.00,0.01,29.70,1006.10,2.00,M,BKN,OVC,M,M,500.00,1500.00,M,M,-SN BR,M,M,M,M,M,M,33.10,KRNO 290555Z 00000KT 2SM -SN BR BKN005 OVC015 01/00 A2970 RMK AO2 SFC VIS 3 SLP061 4/001 P0001 60010 T00060000 10028 20000 52001,1
INS,2021-01-29 05:56,-115.6733,36.5872,955.00,45.70,26.60,46.95,80.00,18.00,0.00,29.76,1006.90,10.00,29.00,CLR,M,M,M,M,M,M,M,M,M,M,M,31.00,110.00,2021-01-29 05:32,37.78,KINS 290556Z AUTO 08018G29KT 10SM CLR 08/M03 A2976 RMK AO2 PK WND 11031/32 SLP069 T00761030 10094 20072 57012 $,M
EKO,2021-01-29 05:56,-115.7860,40.8242,1367.00,38.00,30.00,72.93,0.00,0.00,0.00,29.74,1007.10,10.00,M,BKN,OVC,M,M,5500.00,7500.00,M,M,M,M,M,M,M,M,M,37.90,KEKO 290556Z AUTO 00000KT 10SM BKN055 OVC075 03/M01 A2974 RMK AO2 SLP071 T00331011 10072 20022 58002,M
LAS,2021-01-29 05:56,-115.1634,36.0719,663.00,48.00,30.00,49.49,270.00,3.00,0.00,29.89,1012.00,10.00,M,SCT,OVC,M,M,18000.00,25000.00,M,M,M,M,M,M,M,M,M,46.98,KLAS 290556Z 27003KT 10SM SCT180 OVC250 09/M01 A2989 RMK AO2 SLP120 T00891011 10117 20083 55002,M
NFL,2021-01-29 05:56,-118.7010,39.4166,1199.00,36.00,34.00,92.35,330.00,5.00,0.03,29.70,1003.90,9.00,M,BKN,OVC,M,M,2000.00,3000.00,M,M,UP,M,M,M,M,M,M,31.15,KNFL 290556Z 33005KT 9SM UP BKN020 OVC030 02/01 A2970 RMK AO2 RAE22UPB22 SLP039 P0003 60011 T00220011 10089 20022 51005,M
WMC,2021-01-29 05:56,-117.8072,40.9019,1315.00,34.00,30.90,88.27,120.00,5.00,0.03,29.71,1006.40,5.00,M,BKN,OVC,M,M,900.00,1500.00,M,M,-SN BR,M,M,M,M,M,M,28.77,KWMC 290556Z AUTO 12005KT 5SM -SN BR BKN009 OVC015 01/M01 A2971 RMK AO2 RAE35SNB35 SLP064 P0003 60005 T00111006 10056 20011 58002,M
TPH,2021-01-29 05:56,-117.0904,38.0505,1654.00,37.00,25.00,61.50,170.00,14.00,0.00,29.73,1006.50,10.00,M,OVC,M,M,M,8000.00,M,M,M,M,M,M,M,27.00,170.00,2021-01-29 05:44,27.61,KTPH 290556Z AUTO 17014KT 10SM OVC080 03/M04 A2973 RMK AO2 PK WND 17027/0544 SLP065 T00281039 10044 20028 56011,M
HND,2021-01-29 05:56,-115.1344,35.9729,742.79,45.00,30.00,55.43,0.00,0.00,0.00,29.90,1014.50,10.00,M,CLR,M,M,M,M,M,M,M,M,M,M,M,M,M,M,45.00,KHND 290556Z AUTO 00000KT 10SM CLR 07/M01 A2990 RMK AO2 SLP145 T00721011 10111 20067 55001,M
LSV,2021-01-29 05:56,-115.0343,36.2362,570.00,51.00,28.60,41.64,40.00,7.00,0.00,29.87,1011.20,10.00,M,BKN,M,M,M,18000.00,M,M,M,M,M,M,M,M,M,M,51.10,KLSV 290556Z 04007KT 10SM BKN180 11/M02 A2987 RMK AO2A SLP112 WND DATA ESTMD ALSTG/SLP ESTMD T01061019 10125 20092 55001 $,M
05U,2021-01-29 06:10,-116.0051,39.6042,1811.23,35.60,24.80,64.46,160.00,17.00,0.00,29.77,M,10.00,M,FEW,OVC,M,M,6000.00,7000.00,M,M,M,M,M,M,M,M,M,24.79,K05U 290610Z AUTO 16017KT 10SM FEW060 OVC070 02/M04 A2977 RMK A01,M
TMT,2021-01-29 06:15,-117.1971,39.4643,1749.34,37.80,26.80,64.22,210.00,4.00,0.00,29.70,M,10.00,M,M,M,M,M,M,M,M,M,M,M,M,M,M,M,M,34.19,KTMT 290615Z AUTO 21004KT 10SM 03/M03 A2970 RMK AO2 T00321029,M
BVU,2021-01-29 06:15,-114.8611,35.9475,671.00,53.60,26.60,34.98,140.00,3.00,0.00,29.90,M,10.00,M,CLR,M,M,M,M,M,M,M,M,M,M,M,M,M,M,53.60,KBVU 290615Z AUTO 14003KT 10SM CLR 12/M03 A2990 RMK AO2,M
BAM,2021-01-29 06:15,-116.8743,40.5990,1382.36,35.60,35.60,100.00,0.00,0.00,0.00,29.73,M,10.00,M,SCT,OVC,M,M,4800.00,6000.00,M,M,M,M,M,M,M,M,M,35.60,KBAM 290615Z AUTO 00000KT 10SM SCT048 OVC060 02/02 A2973 RMK AO1,M
HTH,2021-01-29 06:15,-118.6315,38.5448,1282.89,41.00,30.20,65.16,140.00,16.00,0.00,29.67,M,10.00,M,BKN,BKN,OVC,M,3600.00,4200.00,7000.00,M,M,M,M,M,M,M,M,32.15,KHTH 290615Z AUTO 14016KT 10SM BKN036 BKN042 OVC070 05/M01 A2967 RMK A01,M
MEV,2021-01-29 06:15,-119.7500,38.9963,1441.42,32.00,32.00,100.00,30.00,3.00,0.00,29.68,M,1.50,M,FEW,OVC,M,M,700.00,1500.00,M,M,-SN BR,M,M,M,M,M,M,28.69,KMEV 290615Z AUTO 03003KT 1 1/2SM -SN BR FEW007 OVC015 00/M00 A2968 RMK AO2,M
CXP,2021-01-29 06:15,-119.7326,39.1923,1431.00,33.80,32.00,93.03,0.00,0.00,0.00,29.69,M,3.00,M,BKN,BKN,BKN,M,400.00,800.00,2900.00,M,-SN,M,M,M,M,M,M,33.80,KCXP 290615Z AUTO 00000KT 3SM -SN BKN004 BKN008 BKN029 01/00 A2969 RMK AO2,M
RTS,2021-01-29 06:15,-119.8764,39.6682,1539.00,30.20,30.20,100.00,330.00,4.00,0.00,29.69,M,5.00,M,SCT,SCT,SCT,M,400.00,2100.00,3600.00,M,-SN,M,M,M,M,M,M,25.32,KRTS 290615Z AUTO 33004KT 5SM -SN SCT004 SCT021 SCT036 M01/M01 A2969 RMK AO2,M
RNO,2021-01-29 06:26,-119.7711,39.4839,1341.00,32.00,32.00,100.00,10.00,4.00,0.01,29.69,M,1.75,M,BKN,OVC,M,M,700.00,1500.00,M,M,-SN BR,M,M,M,M,M,M,27.42,KRNO 290626Z 01004KT 1 3/4SM -SN BR BKN007 OVC015 00/00 A2969 RMK AO2 TWR VIS 2 P0001 T00000000,M
05U,2021-01-29 06:30,-116.0051,39.6042,1811.23,35.60,24.80,64.46,160.00,18.00,0.00,29.77,M,10.00,25.00,BKN,OVC,M,M,6000.00,7000.00,M,M,M,M,M,M,M,M,M,24.49,K05U 290630Z AUTO 16018G25KT 10SM BKN060 OVC070 02/M04 A2977 RMK A01,M
RTS,2021-01-29 06:35,-119.8764,39.6682,1539.00,30.20,30.20,100.00,0.00,0.00,0.00,29.70,M,4.00,M,BKN,BKN,M,M,600.00,2500.00,M,M,-SN,M,M,M,M,M,M,30.20,KRTS 290635Z AUTO 00000KT 4SM -SN BKN006 BKN025 M01/M01 A2970 RMK AO2,M
CXP,2021-01-29 06:35,-119.7326,39.1923,1431.00,33.80,32.00,93.03,0.00,0.00,0.00,29.69,M,2.50,M,SCT,BKN,BKN,M,300.00,700.00,3000.00,M,-SN,M,M,M,M,M,M,33.80,KCXP 290635Z AUTO 00000KT 2 1/2SM -SN SCT003 BKN007 BKN030 01/00 A2969 RMK AO2,M
TMT,2021-01-29 06:35,-117.1971,39.4643,1749.34,37.40,27.50,67.14,230.00,10.00,0.00,29.70,M,10.00,M,M,M,M,M,M,M,M,M,M,M,M,M,M,M,M,29.74,KTMT 290635Z AUTO 23010KT 10SM 03/M02 A2970 RMK AO2 T00301025,M
HTH,2021-01-29 06:35,-118.6315,38.5448,1282.89,41.00,30.20,65.16,140.00,14.00,0.00,29.66,M,10.00,19.00,FEW,OVC,M,M,3000.00,3500.00,M,M,M,M,M,M,M,M,M,32.76,KHTH 290635Z AUTO 14014G19KT 10SM FEW030 OVC035 05/M01 A2966 RMK A01,M
BAM,2021-01-29 06:35,-116.8743,40.5990,1382.36,37.40,37.40,100.00,0.00,0.00,0.00,29.73,M,10.00,M,SCT,OVC,M,M,4600.00,5500.00,M,M,M,M,M,M,M,M,M,37.40,KBAM 290635Z AUTO 00000KT 10SM SCT046 OVC055 03/03 A2973 RMK AO1,M
MEV,2021-01-29 06:35,-119.7500,38.9963,1441.42,32.00,32.00,100.00,360.00,3.00,0.00,29.68,M,1.75,M,OVC,M,M,M,1700.00,M,M,M,-SN BR,M,M,M,M,M,M,28.69,KMEV 290635Z AUTO 36003KT 1 3/4SM -SN BR OVC017 00/M00 A2968 RMK AO2,M
WMC,2021-01-29 06:44,-117.8072,40.9019,1315.00,33.00,30.00,88.23,140.00,5.00,0.04,29.71,M,4.00,M,OVC,M,M,M,400.00,M,M,M,-SN BR,M,M,M,M,M,M,27.70,KWMC 290644Z AUTO 14005KT 4SM -SN BR OVC004 01/M01 A2971 RMK AO2 P0004 T00061011,M
LOL,2021-01-29 06:49,-118.5701,40.0684,1192.43,35.60,33.80,93.08,210.00,3.00,0.02,29.69,M,8.00,M,BKN,OVC,M,M,1000.00,2100.00,M,M,RA,M,M,M,M,M,M,32.80,KLOL 290649Z AUTO 21003KT 8SM RA BKN010 OVC021 02/01 A2969 RMK AO2 P0002,M
05U,2021-01-29 06:50,-116.0051,39.6042,1811.23,35.60,23.00,59.79,160.00,16.00,0.00,29.76,M,10.00,22.00,FEW,BKN,OVC,M,4800.00,6000.00,8500.00,M,M,M,M,M,M,M,M,25.11,K05U 290650Z AUTO 16016G22KT 10SM FEW048 BKN060 OVC085 02/M05 A2976 RMK A01,M
P68,2021-01-29 06:53,-116.0056,39.6014,1993.00,36.00,25.00,63.98,160.00,19.00,0.00,29.74,1005.10,M,25.00,M,M,M,M,M,M,M,M,M,M,M,M,29.00,150.00,2021-01-29 06:27,24.73,KP68 290653Z AUTO 16019G25KT 02/M04 A2974 RMK AO1 PK WND 15029/0627 SLP051 T00221039,M
ELY,2021-01-29 06:53,-114.8453,39.2950,1909.00,34.00,23.00,63.72,160.00,17.00,0.00,29.81,1008.00,10.00,26.00,FEW,OVC,M,M,5500.00,10000.00,M,M,M,M,M,M,30.00,150.00,2021-01-29 05:54,22.70,KELY 290653Z AUTO 16017G26KT 10SM FEW055 OVC100 01/M05 A2981 RMK AO2 PK WND 15030/0554 SLP080 T00111050,M
DRA,2021-01-29 06:53,-116.0278,36.6206,1009.00,46.00,30.90,55.36,20.00,5.00,0.00,29.79,1007.50,10.00,M,OVC,M,M,M,12000.00,M,M,M,M,M,M,M,M,M,M,43.02,KDRA 290653Z AUTO 02005KT 10SM OVC120 08/M01 A2979 RMK AO2 SLP075 T00781006,M
LOL,2021-01-29 06:53,-118.5701,40.0684,1192.43,36.00,34.00,92.35,0.00,0.00,0.03,29.70,1006.30,7.00,M,BKN,OVC,M,M,1000.00,2100.00,M,M,RA,M,M,M,M,M,M,36.00,KLOL 290653Z AUTO 00000KT 7SM RA BKN010 OVC021 02/01 A2970 RMK AO2 SLP063 P0003 T00220011,M
VGT,2021-01-29 06:53,-115.1933,36.2111,667.00,48.00,30.00,49.49,0.00,0.00,0.00,29.83,1012.00,10.00,M,FEW,M,M,M,8000.00,M,M,M,M,M,M,M,M,M,M,48.00,KVGT 290653Z AUTO 00000KT 10SM FEW080 09/M01 A2983 RMK AO2 SLP120 T00891011,M
MEV,2021-01-29 06:55,-119.7500,38.9963,1441.42,32.00,32.00,100.00,0.00,0.00,0.00,29.68,M,1.50,M,FEW,BKN,OVC,M,300.00,1900.00,2500.00,M,-SN BR,M,M,M,M,M,M,32.00,KMEV 290655Z AUTO 00000KT 1 1/2SM -SN BR FEW003 BKN019 OVC025 M00/M00 A2968 RMK AO2,M
TMT,2021-01-29 06:55,-117.1971,39.4643,1749.34,37.80,27.50,66.10,210.00,10.00,0.00,29.70,M,10.00,M,M,M,M,M,M,M,M,M,M,M,M,M,M,M,M,30.24,KTMT 290655Z AUTO 21010KT 10SM 03/M02 A2970 RMK AO2 T00321025,M
HTH,2021-01-29 06:55,-118.6315,38.5448,1282.89,41.00,30.20,65.16,150.00,15.00,0.00,29.67,M,10.00,M,BKN,OVC,M,M,3000.00,3600.00,M,M,M,M,M,M,M,M,M,32.45,KHTH 290655Z AUTO 15015KT 10SM BKN030 OVC036 05/M01 A2967 RMK A01,M
RTS,2021-01-29 06:55,-119.8764,39.6682,1539.00,30.20,30.20,100.00,0.00,0.00,0.00,29.69,M,3.00,M,SCT,BKN,BKN,M,600.00,1000.00,2200.00,M,-SN,M,M,M,M,M,M,30.20,KRTS 290655Z AUTO 00000KT 3SM -SN SCT006 BKN010 BKN022 M01/M01 A2969 RMK AO2,M
RNO,2021-01-29 06:55,-119.7711,39.4839,1341.00,32.00,32.00,100.00,20.00,3.00,0.03,29.70,1006.00,1.75,M,SCT,OVC,M,M,700.00,1500.00,M,M,-SN BR,M,M,M,M,M,M,28.69,KRNO 290655Z 02003KT 1 3/4SM -SN BR SCT007 OVC015 00/00 A2970 RMK AO2 TWR VIS 2 SLP060 P0003 T00000000,M
CXP,2021-01-29 06:55,-119.7326,39.1923,1431.00,33.80,32.00,93.03,0.00,0.00,0.00,29.70,M,2.00,M,FEW,BKN,OVC,M,300.00,600.00,2900.00,M,-SN,M,M,M,M,M,M,33.80,KCXP 290655Z AUTO 00000KT 2SM -SN FEW003 BKN006 OVC029 01/00 A2970 RMK AO2,M
BAM,2021-01-29 06:55,-116.8743,40.5990,1382.36,33.80,33.80,100.00,0.00,0.00,0.00,29.72,M,10.00,M,SCT,OVC,M,M,4600.00,5500.00,M,M,M,M,M,M,M,M,M,33.80,KBAM 290655Z AUTO 00000KT 10SM SCT046 OVC055 01/01 A2972 RMK AO1,M
HND,2021-01-29 06:56,-115.1344,35.9729,742.79,47.00,28.90,49.32,M,3.00,0.00,29.88,1013.60,10.00,M,CLR,M,M,M,M,M,M,M,M,M,M,M,M,M,M,45.72,KHND 290656Z AUTO VRB03KT 10SM CLR 08/M02 A2988 RMK AO2 SLP136 T00831017,M
INS,2021-01-29 06:56,-115.6733,36.5872,955.00,46.00,27.30,47.97,60.00,12.00,0.00,29.74,1005.70,10.00,M,CLR,M,M,M,M,M,M,M,M,M,M,M,29.00,80.00,2021-01-29 06:06,39.69,KINS 290656Z AUTO 06012KT 10SM CLR 08/M03 A2974 RMK AO2 PK WND 08029/06 SLP057 T00771026 $,M
EKO,2021-01-29 06:56,-115.7860,40.8242,1367.00,40.00,25.00,54.90,220.00,9.00,0.00,29.74,1006.50,10.00,M,BKN,OVC,M,M,7000.00,9000.00,M,M,M,M,M,M,M,M,M,33.34,KEKO 290656Z AUTO 22009KT 10SM BKN070 OVC090 04/M04 A2974 RMK AO2 SLP065 T00441039,M
LSV,2021-01-29 06:56,-115.0343,36.2362,570.00,52.30,29.80,41.84,40.00,7.00,0.00,29.86,1010.70,10.00,M,BKN,M,M,M,18000.00,M,M,M,M,M,M,M,M,M,M,52.30,KLSV 290656Z 04007KT 10SM BKN180 11/M01 A2986 RMK AO2A SLP107 T01131012 $,M
LAS,2021-01-29 06:56,-115.1634,36.0719,663.00,47.00,30.00,51.58,170.00,3.00,0.00,29.87,1011.30,10.00,M,BKN,OVC,M,M,17000.00,24000.00,M,M,M,M,M,M,M,M,M,45.72,KLAS 290656Z 17003KT 10SM BKN170 OVC240 08/M01 A2987 RMK AO2 SLP113 T00831011,M
WMC,2021-01-29 06:56,-117.8072,40.9019,1315.00,33.00,30.00,88.23,110.00,4.00,0.05,29.71,1006.00,4.00,M,OVC,M,M,M,400.00,M,M,M,-SN BR,M,M,M,M,M,M,28.70,KWMC 290656Z AUTO 11004KT 4SM -SN BR OVC004 01/M01 A2971 RMK AO2 SLP060 P0005 T00061011,M
NFL,2021-01-29 06:56,-118.7010,39.4166,1199.00,36.00,34.00,92.35,10.00,5.00,0.03,29.69,1003.50,7.00,M,BKN,OVC,M,M,2000.00,3000.00,M,M,UP,M,M,M,M,M,M,31.15,KNFL 290656Z 01005KT 7SM UP BKN020 OVC030 02/01 A2969 RMK AO2 UPE15B36RAB15E36 SLP035 P0003 T00220011,M
TPH,2021-01-29 06:56,-117.0904,38.0505,1654.00,37.00,25.00,61.50,170.00,13.00,0.00,29.74,1006.30,10.00,M,FEW,OVC,M,M,5000.00,6500.00,M,M,M,M,M,M,M,M,M,27.97,KTPH 290656Z AUTO 17013KT 10SM FEW050 OVC065 03/M04 A2974 RMK AO2 SLP063 T00281039,M
NFL,2021-01-29 07:03,-118.7010,39.4166,1199.00,36.00,34.00,92.35,10.00,4.00,0.01,29.69,M,6.00,M,OVC,M,M,M,1200.00,M,M,M,-SN BR,M,M,M,M,M,M,32.09,KNFL 290703Z AUTO 01004KT 6SM -SN BR OVC012 02/01 A2969 RMK AO2 UPE0657RAB0657E0659SNB0659 P0001 T00220011,M
WMC,2021-01-29 07:03,-117.8072,40.9019,1315.00,33.00,30.00,88.23,100.00,5.00,0.01,29.70,M,4.00,M,OVC,M,M,M,500.00,M,M,M,-SN BR,M,M,M,M,M,M,27.70,KWMC 290703Z AUTO 10005KT 4SM -SN BR OVC005 01/M01 A2970 RMK AO2 P0001 T00061011,M
LOL,2021-01-29 07:10,-118.5701,40.0684,1192.43,35.00,33.00,92.32,210.00,3.00,0.01,29.69,M,7.00,M,BKN,OVC,M,M,600.00,1000.00,M,M,-RA,M,M,M,M,M,M,32.23,KLOL 290710Z AUTO 21003KT 7SM -RA BKN006 OVC010 02/01 A2969 RMK AO2 P0001 T00170006,M
05U,2021-01-29 07:10,-116.0051,39.6042,1811.23,35.60,23.00,59.79,160.00,17.00,0.00,29.76,M,10.00,M,FEW,BKN,OVC,M,4500.00,5000.00,8500.00,M,M,M,M,M,M,M,M,24.79,K05U 290710Z AUTO 16017KT 10SM FEW045 BKN050 OVC085 02/M05 A2976 RMK A01,M
BAM,2021-01-29 07:15,-116.8743,40.5990,1382.36,35.60,35.60,100.00,0.00,0.00,0.00,29.72,M,10.00,M,SCT,OVC,M,M,4900.00,5500.00,M,M,M,M,M,M,M,M,M,35.60,KBAM 290715Z AUTO 00000KT 10SM SCT049 OVC055 02/02 A2972 RMK AO1,M
TMT,2021-01-29 07:15,-117.1971,39.4643,1749.34,36.70,28.00,70.45,220.00,6.00,0.00,29.70,M,10.00,M,M,M,M,M,M,M,M,M,M,M,M,M,M,M,M,31.19,KTMT 290715Z AUTO 22006KT 10SM 03/M02 A2970 RMK AO2 T00261022,M
HTH,2021-01-29 07:15,-118.6315,38.5448,1282.89,41.00,28.40,60.54,140.00,14.00,0.00,29.66,M,10.00,M,SCT,BKN,OVC,M,3100.00,3700.00,5500.00,M,M,M,M,M,M,M,M,32.76,KHTH 290715Z AUTO 14014KT 10SM SCT031 BKN037 OVC055 05/M02 A2966 RMK A01,M
CXP,2021-01-29 07:15,-119.7326,39.1923,1431.00,33.80,33.80,100.00,0.00,0.00,0.00,29.69,M,1.25,M,SCT,BKN,M,M,600.00,2800.00,M,M,-SN,M,M,M,M,M,M,33.80,KCXP 290715Z AUTO 00000KT 1 1/4SM -SN SCT006 BKN028 01/01 A2969 RMK AO2,M
RTS,2021-01-29 07:15,-119.8764,39.6682,1539.00,30.20,30.20,100.00,0.00,0.00,0.00,29.70,M,2.50,M,FEW,BKN,BKN,M,300.00,1000.00,2200.00,M,-SN,M,M,M,M,M,M,30.20,KRTS 290715Z AUTO 00000KT 2 1/2SM -SN FEW003 BKN010 BKN022 M01/M01 A2970 RMK AO2,M
MEV,2021-01-29 07:15,-119.7500,38.9963,1441.42,32.00,32.00,100.00,0.00,0.00,0.00,29.69,M,1.50,M,SCT,BKN,OVC,M,300.00,2100.00,2500.00,M,-SN BR,M,M,M,M,M,M,32.00,KMEV 290715Z AUTO 00000KT 1 1/2SM -SN BR SCT003 BKN021 OVC025 M00/M00 A2969 RMK AO2,M
WMC,2021-01-29 07:22,-117.8072,40.9019,1315.00,33.00,30.00,88.23,90.00,4.00,0.02,29.70,M,4.00,M,OVC,M,M,M,400.00,M,M,M,-SN BR,M,M,M,M,M,M,28.70,KWMC 290722Z AUTO 09004KT 4SM -SN BR OVC004 01/M01 A2970 RMK AO2 P0002 T00061011,M
NFL,2021-01-29 07:30,-118.7010,39.4166,1199.00,34.00,32.00,92.29,350.00,4.00,0.03,29.69,M,5.00,M,OVC,M,M,M,1500.00,M,M,M,-SN BR,M,M,M,M,M,M,29.76,KNFL 290730Z AUTO 35004KT 5SM -SN BR OVC015 01/00 A2969 RMK AO2 UPE0657RAB0657E0659SNB0659 P0003 T00110000,M
05U,2021-01-29 07:30,-116.0051,39.6042,1811.23,35.60,23.00,59.79,160.00,17.00,0.00,29.76,M,10.00,23.00,FEW,BKN,OVC,M,4500.00,5500.00,9000.00,M,M,M,M,M,M,M,M,24.79,K05U 290730Z AUTO 16017G23KT 10SM FEW045 BKN055 OVC090 02/M05 A2976 RMK A01,M
LOL,2021-01-29 07:31,-118.5701,40.0684,1192.43,33.00,32.00,95.67,170.00,3.00,0.03,29.69,M,2.00,M,OVC,M,M,M,700.00,M,M,M,-SN BR,M,M,M,M,M,M,29.95,KLOL 290731Z AUTO 17003KT 2SM -SN BR OVC007 01/00 A2969 RMK AO2 RAE11SNB11 P0003 T00060000,M
RTS,2021-01-29 07:35,-119.8764,39.6682,1539.00,30.20,30.20,100.00,330.00,3.00,0.00,29.70,M,2.00,M,FEW,SCT,SCT,M,300.00,900.00,2200.00,M,-SN,M,M,M,M,M,M,26.63,KRTS 290735Z AUTO 33003KT 2SM -SN FEW003 SCT009 SCT022 M01/M01 A2970 RMK AO2,M
MEV,2021-01-29 07:35,-119.7500,38.9963,1441.42,32.00,32.00,100.00,0.00,0.00,0.00,29.69,M,1.00,M,OVC,M,M,M,300.00,M,M,M,-SN BR,M,M,M,M,M,M,32.00,KMEV 290735Z AUTO 00000KT 1SM -SN BR OVC003 M00/M00 A2969 RMK AO2,M
CXP,2021-01-29 07:35,-119.7326,39.1923,1431.00,32.00,32.00,100.00,0.00,0.00,0.00,29.70,M,1.00,M,BKN,BKN,M,M,200.00,2700.00,M,M,-SN,M,M,M,M,M,M,32.00,KCXP 290735Z AUTO 00000KT 1SM -SN BKN002 BKN027 00/00 A2970 RMK AO2,M
HTH,2021-01-29 07:35,-118.6315,38.5448,1282.89,41.00,28.40,60.54,150.00,12.00,0.00,29.66,M,10.00,M,BKN,OVC,M,M,3000.00,3600.00,M,M,M,M,M,M,M,M,M,33.46,KHTH 290735Z AUTO 15012KT 10SM BKN030 OVC036 05/M02 A2966 RMK A01,M
BAM,2021-01-29 07:35,-116.8743,40.5990,1382.36,35.60,35.60,100.00,50.00,5.00,0.00,29.71,M,10.00,M,OVC,M,M,M,5000.00,M,M,M,M,M,M,M,M,M,M,30.67,KBAM 290735Z AUTO 05005KT 10SM OVC050 02/02 A2971 RMK AO1,M
TMT,2021-01-29 07:35,-117.1971,39.4643,1749.34,37.00,27.10,67.36,180.00,3.00,0.00,29.68,M,10.00,M,M,M,M,M,M,M,M,M,M,M,M,M,M,M,M,34.29,KTMT 290735Z AUTO 18003KT 10SM 03/M03 A2968 RMK AO2 T00271027,M
LOL,2021-01-29 07:41,-118.5701,40.0684,1192.43,33.00,32.00,95.67,170.00,3.00,0.04,29.69,M,1.50,M,OVC,M,M,M,700.00,M,M,M,-SN BR,M,M,M,M,M,M,29.95,KLOL 290741Z AUTO 17003KT 1 1/2SM -SN BR OVC007 01/00 A2969 RMK AO2 RAE11SNB11 P0004 T00060000,M
WMC,2021-01-29 07:44,-117.8072,40.9019,1315.00,33.00,30.00,88.23,60.00,4.00,0.04,29.69,M,6.00,M,FEW,BKN,OVC,M,400.00,2200.00,2800.00,M,-SN BR,M,M,M,M,M,M,28.70,KWMC 290744Z AUTO 06004KT 6SM -SN BR FEW004 BKN022 OVC028 01/M01 A2969 RMK AO2 P0004 T00061011,M
05U,2021-01-29 07:50,-116.0051,39.6042,1811.23,35.60,24.80,64.46,160.00,12.00,0.00,29.75,M,9.00,20.00,SCT,BKN,OVC,M,2400.00,5500.00,7000.00,M,M,M,M,M,M,M,M,26.58,K05U 290750Z AUTO 16012G20KT 9SM SCT024 BKN055 OVC070 02/M04 A2975 RMK A01,M
VGT,2021-01-29 07:53,-115.1933,36.2111,667.00,51.00,28.00,40.63,100.00,3.00,0.00,29.82,1011.20,10.00,M,CLR,M,M,M,M,M,M,M,M,M,M,M,M,M,M,51.10,KVGT 290753Z AUTO 10003KT 10SM CLR 11/M02 A2982 RMK AO2 SLP112 T01061022 401330044,M
DRA,2021-01-29 07:53,-116.0278,36.6206,1009.00,51.00,28.00,40.63,200.00,13.00,0.00,29.77,1006.40,10.00,26.00,OVC,M,M,M,10000.00,M,M,M,M,M,M,M,29.00,180.00,2021-01-29 07:38,51.10,KDRA 290753Z AUTO 20013G26KT 10SM OVC100 11/M02 A2977 RMK AO2 PK WND 18029/0738 SLP064 T01061022 401110000,M
P68,2021-01-29 07:53,-116.0056,39.6014,1993.00,34.00,25.00,69.28,160.00,17.00,0.00,29.72,1004.60,M,24.00,M,M,M,M,M,M,M,M,M,M,M,M,26.00,150.00,2021-01-29 06:58,22.70,KP68 290753Z AUTO 16017G24KT 01/M04 A2972 RMK AO1 PK WND 15026/0658 SLP046 T00111039 400611022,M
LOL,2021-01-29 07:53,-118.5701,40.0684,1192.43,33.00,32.00,95.67,190.00,3.00,0.05,29.69,1005.90,1.50,M,OVC,M,M,M,1100.00,M,M,M,-SN BR,M,M,M,M,M,M,29.95,KLOL 290753Z AUTO 19003KT 1 1/2SM -SN BR OVC011 01/00 A2969 RMK AO2 RAE11SNB11 SLP059 P0005 T00060000 400670006,M
ELY,2021-01-29 07:53,-114.8453,39.2950,1909.00,34.00,24.10,66.72,150.00,20.00,0.00,29.78,1006.70,10.00,29.00,OVC,M,M,M,9000.00,M,M,M,M,M,M,M,31.00,150.00,2021-01-29 07:31,21.80,KELY 290753Z AUTO 15020G29KT 10SM OVC090 01/M04 A2978 RMK AO2 PK WND 15031/0731 SLP067 T00111044 400441039,M
HTH,2021-01-29 07:55,-118.6315,38.5448,1282.89,41.00,28.40,60.54,150.00,17.00,0.00,29.66,M,10.00,M,SCT,BKN,OVC,M,2900.00,3400.00,5500.00,M,M,M,M,M,M,M,M,31.87,KHTH 290755Z AUTO 15017KT 10SM SCT029 BKN034 OVC055 05/M02 A2966 RMK A01,M
BVU,2021-01-29 07:55,-114.8611,35.9475,671.00,50.00,28.40,43.03,120.00,8.00,0.00,29.88,M,10.00,M,CLR,M,M,M,M,M,M,M,M,M,M,M,M,M,M,50.00,KBVU 290755Z AUTO 12008KT 10SM CLR 10/M02 A2988 RMK AO2,M
TMT,2021-01-29 07:55,-117.1971,39.4643,1749.34,37.00,27.00,66.82,250.00,3.00,0.00,29.67,M,10.00,M,M,M,M,M,M,M,M,M,M,M,M,M,M,M,M,34.40,KTMT 290755Z AUTO 25003KT 10SM 03/M03 A2967 RMK AO2 T00281028 400561024,M
MEV,2021-01-29 07:55,-119.7500,38.9963,1441.42,32.00,32.00,100.00,350.00,3.00,0.02,29.68,M,1.00,M,OVC,M,M,M,300.00,M,M,M,-SN BR,M,M,M,M,M,M,28.69,KMEV 290755Z AUTO 35003KT 1SM -SN BR OVC003 M00/M00 A2968 RMK AO2 P0002,M
RTS,2021-01-29 07:55,-119.8764,39.6682,1539.00,30.20,30.20,100.00,0.00,0.00,0.02,29.69,M,2.00,M,BKN,M,M,M,300.00,M,M,M,-SN,M,M,M,M,M,M,30.20,KRTS 290755Z AUTO 00000KT 2SM -SN BKN003 M01/M01 A2969 RMK AO2 P0002,M
BAM,2021-01-29 07:55,-116.8743,40.5990,1382.36,35.60,35.60,100.00,0.00,0.00,0.00,29.70,M,10.00,M,OVC,M,M,M,5000.00,M,M,M,M,M,M,M,M,M,M,35.60,KBAM 290755Z AUTO 00000KT 10SM OVC050 02/02 A2970 RMK AO1,M
CXP,2021-01-29 07:55,-119.7326,39.1923,1431.00,32.00,32.00,100.00,0.00,0.00,0.00,29.70,M,2.00,M,BKN,M,M,M,300.00,M,M,M,-SN,M,M,M,M,M,M,32.00,KCXP 290755Z AUTO 00000KT 2SM -SN BKN003 00/00 A2970 RMK AO2,M
RNO,2021-01-29 07:55,-119.7711,39.4839,1341.00,32.00,32.00,100.00,0.00,0.00,0.02,29.70,1005.90,1.50,M,FEW,OVC,M,M,700.00,1800.00,M,M,-SN BR,M,M,M,M,M,M,32.00,KRNO 290755Z 00000KT 1 1/2SM -SN BR FEW007 OVC018 00/00 A2970 RMK AO2 TWR VIS 2 SLP059 P0002 T00000000 400330000,M
NFL,2021-01-29 07:56,-118.7010,39.4166,1199.00,33.00,32.00,95.67,320.00,3.00,0.06,29.68,1003.30,2.00,M,OVC,M,M,M,1200.00,M,M,M,-SN BR,M,M,M,M,M,M,29.95,KNFL 290756Z AUTO 32003KT 2SM -SN BR OVC012 01/00 A2968 RMK AO2 UPE0657RAB0657E0659SNB0659 SLP033 P0006 T00060000 401000006,M
HND,2021-01-29 07:56,-115.1344,35.9729,742.79,53.00,26.10,34.90,170.00,15.00,0.00,29.84,1011.80,10.00,20.00,CLR,M,M,M,M,M,M,M,M,M,M,M,26.00,150.00,2021-01-29 07:35,53.10,KHND 290756Z AUTO 17015G20KT 10SM CLR 12/M03 A2984 RMK AO2 PK WND 15026/0735 SLP118 T01171033 401220017,M
INS,2021-01-29 07:56,-115.6733,36.5872,955.00,48.70,26.60,41.94,0.00,0.00,0.00,29.73,1005.20,10.00,M,FEW,M,M,M,14000.00,M,M,M,M,M,M,M,M,M,M,48.70,KINS 290756Z AUTO 00000KT 10SM FEW140 09/M03 A2973 RMK AO2 SLP052 T00931030 401070013 $,M
LAS,2021-01-29 07:56,-115.1634,36.0719,663.00,47.00,30.90,53.50,300.00,5.00,0.00,29.84,1010.30,10.00,M,BKN,OVC,M,M,15000.00,22000.00,M,M,M,M,M,M,M,M,M,44.09,KLAS 290756Z 30005KT 10SM BKN150 OVC220 08/M01 A2984 RMK AO2 SLP103 T00831006 401220039,M
WMC,2021-01-29 07:56,-117.8072,40.9019,1315.00,33.00,30.00,88.23,70.00,4.00,0.04,29.68,1005.40,8.00,M,FEW,SCT,OVC,M,600.00,1100.00,2200.00,M,-SN,M,M,M,M,M,M,28.70,KWMC 290756Z AUTO 07004KT 8SM -SN FEW006 SCT011 OVC022 01/M01 A2968 RMK AO2 SLP054 P0004 T00061011 400670006,M
EKO,2021-01-29 07:56,-115.7860,40.8242,1367.00,40.00,24.10,52.88,210.00,10.00,0.00,29.72,1005.90,10.00,17.00,OVC,M,M,M,9500.00,M,M,M,M,M,M,M,M,M,M,32.87,KEKO 290756Z AUTO 21010G17KT 10SM OVC095 04/M04 A2972 RMK AO2 SLP059 T00441044 400830011,M
TPH,2021-01-29 07:56,-117.0904,38.0505,1654.00,37.00,27.00,66.82,180.00,23.00,0.00,29.72,1005.40,10.00,27.00,OVC,M,M,M,5000.00,M,M,M,M,M,M,M,28.00,180.00,2021-01-29 07:55,25.03,KTPH 290756Z AUTO 18023G27KT 10SM OVC050 03/M03 A2972 RMK AO2 PK WND 18028/0755 SLP054 T00281028 400561022,M
LSV,2021-01-29 07:56,-115.0343,36.2362,570.00,51.80,30.00,42.97,140.00,6.00,0.00,29.84,1010.10,10.00,M,FEW,M,M,M,17000.00,M,M,M,M,M,M,M,M,M,M,51.80,KLSV 290756Z AUTO 14006KT 10SM FEW170 11/M01 A2984 RMK AO2 SLP101 T01101011 401330037 $,M
NFL,2021-01-29 08:10,-118.7010,39.4166,1199.00,33.00,32.00,95.67,350.00,3.00,0.01,29.68,M,1.50,M,SCT,OVC,M,M,800.00,1200.00,M,M,-SN BR,M,M,M,M,M,M,29.95,KNFL 290810Z AUTO 35003KT 1 1/2SM -SN BR SCT008 OVC012 01/00 A2968 RMK AO2 P0001 T00060000,M
05U,2021-01-29 08:10,-116.0051,39.6042,1811.23,33.80,24.80,69.25,160.00,11.00,0.00,29.74,M,9.00,16.00,FEW,SCT,OVC,M,2200.00,6000.00,7000.00,M,M,M,M,M,M,M,M,24.74,K05U 290810Z AUTO 16011G16KT 9SM FEW022 SCT060 OVC070 01/M04 A2974 RMK A01,M
LOL,2021-01-29 08:15,-118.5701,40.0684,1192.43,33.00,32.00,95.67,0.00,0.00,0.01,29.68,M,1.50,M,OVC,M,M,M,1500.00,M,M,M,-SN BR,M,M,M,M,M,M,33.10,KLOL 290815Z AUTO 00000KT 1 1/2SM -SN BR OVC015 01/00 A2968 RMK AO2 P0001 T00060000,M
MEV,2021-01-29 08:15,-119.7500,38.9963,1441.42,32.00,32.00,100.00,10.00,4.00,0.00,29.68,M,2.00,M,BKN,OVC,M,M,400.00,2400.00,M,M,-SN BR,M,M,M,M,M,M,27.42,KMEV 290815Z AUTO 01004KT 2SM -SN BR BKN004 OVC024 M00/M00 A2968 RMK AO2,M
HTH,2021-01-29 08:15,-118.6315,38.5448,1282.89,41.00,30.20,65.16,140.00,16.00,0.00,29.65,M,10.00,M,SCT,BKN,OVC,M,2900.00,3500.00,5500.00,M,M,M,M,M,M,M,M,32.15,KHTH 290815Z AUTO 14016KT 10SM SCT029 BKN035 OVC055 05/M01 A2965 RMK A01,M
TMT,2021-01-29 08:15,-117.1971,39.4643,1749.34,36.00,27.50,70.68,190.00,4.00,0.00,29.66,M,10.00,M,M,M,M,M,M,M,M,M,M,M,M,M,M,M,M,32.21,KTMT 290815Z AUTO 19004KT 10SM 02/M02 A2966 RMK AO2 T00231025,M
BAM,2021-01-29 08:15,-116.8743,40.5990,1382.36,35.60,35.60,100.00,0.00,0.00,0.00,29.69,M,10.00,M,SCT,OVC,M,M,4600.00,6000.00,M,M,M,M,M,M,M,M,M,35.60,KBAM 290815Z AUTO 00000KT 10SM SCT046 OVC060 02/02 A2969 RMK AO1,M
RTS,2021-01-29 08:15,-119.8764,39.6682,1539.00,30.20,30.20,100.00,0.00,0.00,0.00,29.69,M,1.50,M,OVC,M,M,M,300.00,M,M,M,-SN,M,M,M,M,M,M,30.20,KRTS 290815Z AUTO 00000KT 1 1/2SM -SN OVC003 M01/M01 A2969 RMK AO2,M
CXP,2021-01-29 08:15,-119.7326,39.1923,1431.00,32.00,32.00,100.00,0.00,0.00,0.00,29.68,M,3.00,M,SCT,BKN,M,M,300.00,2900.00,M,M,-SN,M,M,M,M,M,M,32.00,KCXP 290815Z AUTO 00000KT 3SM -SN SCT003 BKN029 00/00 A2968 RMK AO2,M
BVU,2021-01-29 08:15,-114.8611,35.9475,671.00,50.00,28.40,43.03,130.00,12.00,0.00,29.86,M,10.00,18.00,FEW,M,M,M,4200.00,M,M,M,M,M,M,M,M,M,M,50.00,KBVU 290815Z AUTO 13012G18KT 10SM FEW042 10/M02 A2986 RMK AO2,M
LOL,2021-01-29 08:28,-118.5701,40.0684,1192.43,33.00,32.00,95.67,0.00,0.00,0.03,29.68,M,1.25,M,OVC,M,M,M,1300.00,M,M,M,-SN BR,M,M,M,M,M,M,33.10,KLOL 290828Z AUTO 00000KT 1 1/4SM -SN BR OVC013 01/00 A2968 RMK AO2 P0003 T00060000,M
05U,2021-01-29 08:30,-116.0051,39.6042,1811.23,35.60,24.80,64.46,160.00,14.00,0.00,29.73,M,10.00,21.00,OVC,M,M,M,6500.00,M,M,M,M,M,M,M,M,M,M,25.80,K05U 290830Z AUTO 16014G21KT 10SM OVC065 02/M04 A2973 RMK A01,M
WMC,2021-01-29 08:33,-117.8072,40.9019,1315.00,33.00,30.90,91.51,90.00,4.00,0.01,29.67,M,9.00,M,SCT,BKN,OVC,M,700.00,1100.00,1900.00,M,M,M,M,M,M,M,M,28.70,KWMC 290833Z AUTO 09004KT 9SM SCT007 BKN011 OVC019 01/M01 A2967 RMK AO2 UPB29E33SNE29 P0001 T00061006,M
BVU,2021-01-29 08:35,-114.8611,35.9475,671.00,51.80,28.40,40.25,130.00,11.00,0.00,29.85,M,10.00,M,CLR,M,M,M,M,M,M,M,M,M,M,M,M,M,M,51.80,KBVU 290835Z AUTO 13011KT 10SM CLR 11/M02 A2985 RMK AO2,M
RTS,2021-01-29 08:35,-119.8764,39.6682,1539.00,30.20,30.20,100.00,0.00,0.00,0.00,29.68,M,2.00,M,OVC,M,M,M,300.00,M,M,M,-SN,M,M,M,M,M,M,30.20,KRTS 290835Z AUTO 00000KT 2SM -SN OVC003 M01/M01 A2968 RMK AO2,M
HTH,2021-01-29 08:35,-118.6315,38.5448,1282.89,41.00,30.20,65.16,140.00,14.00,0.00,29.65,M,10.00,M,BKN,BKN,OVC,M,3300.00,3900.00,5000.00,M,M,M,M,M,M,M,M,32.76,KHTH 290835Z AUTO 14014KT 10SM BKN033 BKN039 OVC050 05/M01 A2965 RMK A01,M
TMT,2021-01-29 08:35,-117.1971,39.4643,1749.34,37.00,27.00,67.08,200.00,14.00,0.00,29.65,M,10.00,20.00,M,M,M,M,M,M,M,M,M,M,M,M,M,M,M,27.48,KTMT 290835Z AUTO 20014G20KT 10SM 03/M03 A2965 RMK AO2 T00271028,M
MEV,2021-01-29 08:35,-119.7500,38.9963,1441.42,32.00,32.00,100.00,10.00,3.00,0.00,29.68,M,1.50,M,BKN,OVC,M,M,400.00,2400.00,M,M,-SN BR,M,M,M,M,M,M,28.69,KMEV 290835Z AUTO 01003KT 1 1/2SM -SN BR BKN004 OVC024 M00/M00 A2968 RMK AO2,M
CXP,2021-01-29 08:35,-119.7326,39.1923,1431.00,32.00,32.00,100.00,0.00,0.00,0.00,29.69,M,4.00,M,FEW,BKN,BKN,M,500.00,3000.00,4900.00,M,-SN,M,M,M,M,M,M,32.00,KCXP 290835Z AUTO 00000KT 4SM -SN FEW005 BKN030 BKN049 00/00 A2969 RMK AO2,M
BAM,2021-01-29 08:35,-116.8743,40.5990,1382.36,35.60,35.60,100.00,10.00,3.00,0.00,29.69,M,10.00,M,SCT,SCT,OVC,M,3500.00,4700.00,6000.00,M,M,M,M,M,M,M,M,32.80,KBAM 290835Z AUTO 01003KT 10SM SCT035 SCT047 OVC060 02/02 A2969 RMK AO1,M
NFL,2021-01-29 08:40,-118.7010,39.4166,1199.00,33.00,32.00,95.67,0.00,0.00,0.06,29.68,M,1.00,M,VV ,M,M,M,800.00,M,M,M,-SN BR,M,M,M,M,M,M,33.10,KNFL 290840Z AUTO 00000KT 1SM -SN BR VV008 01/00 A2968 RMK AO2 P0006 T00060000,M
05U,2021-01-29 08:50,-116.0051,39.6042,1811.23,33.80,24.80,69.25,160.00,15.00,0.00,29.73,M,9.00,21.00,FEW,SCT,BKN,M,3000.00,4700.00,5500.00,M,M,M,M,M,M,M,M,23.11,K05U 290850Z AUTO 16015G21KT 9SM FEW030 SCT047 BKN055 01/M04 A2973 RMK A01,M
RNO,2021-01-29 08:52,-119.7711,39.4839,1341.00,32.00,32.00,100.00,10.00,3.00,0.03,29.69,M,1.25,M,BKN,OVC,M,M,700.00,1600.00,M,M,-SN BR,M,M,M,M,M,M,28.69,KRNO 290852Z 01003KT 1 1/4SM R16R/6000VP6000FT -SN BR BKN007 OVC016 00/00 A2969 RMK AO2 TWR VIS 2 P0003,M
P68,2021-01-29 08:53,-116.0056,39.6014,1993.00,34.00,25.00,69.28,160.00,16.00,0.00,29.71,1003.90,M,24.00,M,M,M,M,M,M,M,M,M,M,M,M,26.00,160.00,2021-01-29 08:32,23.03,KP68 290853Z AUTO 16016G24KT 01/M04 A2971 RMK AO1 PK WND 16026/0832 SLP039 T00111039 58013,M
LOL,2021-01-29 08:53,-118.5701,40.0684,1192.43,33.00,32.00,95.67,310.00,5.00,0.05,29.67,1005.30,1.50,M,OVC,M,M,M,1200.00,M,M,M,-SN BR,M,M,M,M,M,M,27.70,KLOL 290853Z AUTO 31005KT 1 1/2SM -SN BR OVC012 01/00 A2967 RMK AO2 SLP053 P0005 60013 T00060000 58008,M
ELY,2021-01-29 08:53,-114.8453,39.2950,1909.00,34.00,23.00,63.72,150.00,23.00,0.00,29.76,1005.90,10.00,31.00,OVC,M,M,M,10000.00,M,M,M,M,M,M,M,35.00,150.00,2021-01-29 08:36,21.00,KELY 290853Z AUTO 15023G31KT 10SM OVC100 01/M05 A2976 RMK AO2 PK WND 15035/0836 SLP059 T00111050 58013,M
VGT,2021-01-29 08:53,-115.1933,36.2111,667.00,50.00,30.00,45.93,100.00,8.00,0.00,29.79,1010.10,10.00,M,SCT,M,M,M,11000.00,M,M,M,M,M,M,M,M,M,M,50.00,KVGT 290853Z AUTO 10008KT 10SM SCT110 10/M01 A2979 RMK AO2 SLP101 T01001011 58019,M
RNO,2021-01-29 08:53,-119.7711,39.4839,1341.00,32.00,32.00,100.00,10.00,3.00,0.03,29.69,1005.40,1.25,M,BKN,OVC,M,M,700.00,1600.00,M,M,-SN BR,M,M,M,M,M,M,28.69,KRNO 290853Z 01003KT 1 1/4SM R16R/6000VP6000FT -SN BR BKN007 OVC016 00/00 A2969 RMK AO2 TWR VIS 2 SLP054 P0003 60008 T00000000 58005,M
DRA,2021-01-29 08:53,-116.0278,36.6206,1009.00,49.00,28.00,44.10,220.00,11.00,0.00,29.76,1006.10,10.00,21.00,OVC,M,M,M,11000.00,M,M,M,M,M,M,M,31.00,230.00,2021-01-29 08:10,43.82,KDRA 290853Z AUTO 22011G21KT 10SM OVC110 09/M02 A2976 RMK AO2 PK WND 23031/0810 SLP061 T00941022 56011,M
RTS,2021-01-29 08:55,-119.8764,39.6682,1539.00,30.20,30.20,100.00,0.00,0.00,0.03,29.68,M,2.00,M,BKN,BKN,M,M,300.00,1600.00,M,M,-SN,M,M,M,M,M,M,30.20,KRTS 290855Z AUTO 00000KT 2SM -SN BKN003 BKN016 M01/M01 A2968 RMK AO2 P0003,M
TMT,2021-01-29 08:55,-117.1971,39.4643,1749.34,36.50,27.10,68.43,210.00,11.00,0.00,29.65,M,10.00,M,M,M,M,M,M,M,M,M,M,M,M,M,M,M,M,28.15,KTMT 290855Z AUTO 21011KT 10SM 03/M03 A2965 RMK AO2 T00251027,M
BAM,2021-01-29 08:55,-116.8743,40.5990,1382.36,35.60,35.60,100.00,340.00,3.00,0.00,29.68,M,10.00,M,SCT,OVC,M,M,4800.00,5000.00,M,M,M,M,M,M,M,M,M,32.80,KBAM 290855Z AUTO 34003KT 10SM SCT048 OVC050 02/02 A2968 RMK AO1,M
MEV,2021-01-29 08:55,-119.7500,38.9963,1441.42,32.00,32.00,100.00,350.00,4.00,0.00,29.67,M,1.75,M,SCT,OVC,M,M,300.00,2200.00,M,M,-SN BR,M,M,M,M,M,M,27.42,KMEV 290855Z AUTO 35004KT 1 3/4SM -SN BR SCT003 OVC022 M00/M00 A2967 RMK AO2,M
HTH,2021-01-29 08:55,-118.6315,38.5448,1282.89,39.20,32.00,75.16,150.00,9.00,0.00,29.64,M,10.00,17.00,FEW,BKN,OVC,M,2600.00,3400.00,7000.00,M,M,M,M,M,M,M,M,32.47,KHTH 290855Z AUTO 15009G17KT 10SM FEW026 BKN034 OVC070 04/M00 A2964 RMK A01,M
BVU,2021-01-29 08:55,-114.8611,35.9475,671.00,51.80,28.40,40.25,150.00,10.00,0.00,29.84,M,10.00,M,SCT,M,M,M,11000.00,M,M,M,M,M,M,M,M,M,M,51.80,KBVU 290855Z AUTO 15010KT 10SM SCT110 11/M02 A2984 RMK AO2,M
CXP,2021-01-29 08:55,-119.7326,39.1923,1431.00,32.00,32.00,100.00,0.00,0.00,0.00,29.69,M,5.00,M,FEW,BKN,OVC,M,400.00,3100.00,4900.00,M,-SN,M,M,M,M,M,M,32.00,KCXP 290855Z AUTO 00000KT 5SM -SN FEW004 BKN031 OVC049 00/00 A2969 RMK AO2,M
TPH,2021-01-29 08:56,-117.0904,38.0505,1654.00,33.00,32.00,95.67,170.00,21.00,T,29.70,1004.90,6.00,29.00,FEW,OVC,M,M,1400.00,9500.00,M,M,-SN BR,M,M,M,29.00,190.00,2021-01-29 08:07,20.32,KTPH 290856Z AUTO 17021G29KT 6SM -SN BR FEW014 OVC095 01/00 A2970 RMK AO2 PK WND 19029/0807 SNB51 SLP049 P0000 60000 T00060000 58011,M
NFL,2021-01-29 08:56,-118.7010,39.4166,1199.00,33.00,32.00,95.67,300.00,3.00,0.09,29.67,1003.10,1.00,M,VV ,M,M,M,600.00,M,M,M,-SN BR,M,M,M,M,M,M,29.95,KNFL 290856Z AUTO 30003KT 1SM -SN BR VV006 01/00 A2967 RMK AO2 SLP031 P0009 60018 T00060000 58004,M
LAS,2021-01-29 08:56,-115.1634,36.0719,663.00,50.00,28.90,43.92,340.00,3.00,0.00,29.82,1009.40,10.00,M,BKN,OVC,M,M,13000.00,17000.00,M,M,M,M,M,M,M,M,M,50.00,KLAS 290856Z 34003KT 10SM BKN130 OVC170 10/M02 A2982 RMK AO2 SLP094 T01001017 58021,M
WMC,2021-01-29 08:56,-117.8072,40.9019,1315.00,33.00,30.00,88.23,100.00,5.00,0.01,29.66,1004.60,10.00,M,BKN,BKN,OVC,M,900.00,1300.00,1800.00,M,UP,M,M,M,M,M,M,27.70,KWMC 290856Z AUTO 10005KT 10SM UP BKN009 BKN013 OVC018 01/M01 A2966 RMK AO2 UPB29E33B53SNE29 CIG 005V010 SLP046 P0001 60010 T00061011 58015,M
LSV,2021-01-29 08:56,-115.0343,36.2362,570.00,51.60,30.40,44.00,60.00,10.00,0.00,29.82,1009.30,10.00,M,CLR,M,M,M,M,M,M,M,M,M,M,M,M,M,M,51.60,KLSV 290856Z AUTO 06010KT 10SM CLR 11/M01 A2982 RMK AO2 SLP093 T01091009 $,M
INS,2021-01-29 08:56,-115.6733,36.5872,955.00,47.00,27.30,46.19,90.00,19.00,0.00,29.73,1005.20,10.00,M,BKN,M,M,M,10000.00,M,M,M,M,M,M,M,26.00,120.00,2021-01-29 08:12,39.14,KINS 290856Z AUTO 09019KT 10SM BKN100 08/M03 A2973 RMK AO2 PK WND 12026/12 SLP052 T00831026 55012 $,M
EKO,2021-01-29 08:56,-115.7860,40.8242,1367.00,40.00,24.10,52.88,200.00,11.00,0.00,29.70,1004.80,10.00,M,OVC,M,M,M,9500.00,M,M,M,M,M,M,M,M,M,M,32.45,KEKO 290856Z AUTO 20011KT 10SM OVC095 04/M04 A2970 RMK AO2 SLP048 T00441044 58014,M
HND,2021-01-29 08:56,-115.1344,35.9729,742.79,53.00,28.00,37.74,160.00,14.00,0.00,29.82,1011.30,10.00,20.00,SCT,M,M,M,12000.00,M,M,M,M,M,M,M,M,M,M,53.10,KHND 290856Z AUTO 16014G20KT 10SM SCT120 12/M02 A2982 RMK AO2 SLP113 T01171022 56024,M
WMC,2021-01-29 09:09,-117.8072,40.9019,1315.00,33.00,30.00,88.23,70.00,6.00,T,29.66,M,9.00,M,FEW,OVC,M,M,600.00,1100.00,M,M,-SN,M,M,M,M,M,M,26.86,KWMC 290909Z AUTO 07006KT 9SM -SN FEW006 OVC011 01/M01 A2966 RMK AO2 UPE03SNB03 P0000 T00061011,M
05U,2021-01-29 09:10,-116.0051,39.6042,1811.23,33.80,24.80,69.25,170.00,15.00,0.00,29.73,M,10.00,M,FEW,SCT,OVC,M,2300.00,3100.00,6000.00,M,M,M,M,M,M,M,M,23.11,K05U 290910Z AUTO 17015KT 10SM FEW023 SCT031 OVC060 01/M04 A2973 RMK A01,M
TMT,2021-01-29 09:15,-117.1971,39.4643,1749.34,35.80,26.80,69.49,210.00,15.00,0.00,29.65,M,10.00,M,M,M,M,M,M,M,M,M,M,M,M,M,M,M,M,25.71,KTMT 290915Z AUTO 21015KT 10SM 02/M03 A2965 RMK AO2 T00211029,M
CXP,2021-01-29 09:15,-119.7326,39.1923,1431.00,32.00,32.00,100.00,0.00,0.00,0.00,29.68,M,3.00,M,BKN,BKN,M,M,2900.00,6500.00,M,M,-SN,M,M,M,M,M,M,32.00,KCXP 290915Z AUTO 00000KT 3SM -SN BKN029 BKN065 00/00 A2968 RMK AO2,M
HTH,2021-01-29 09:15,-118.6315,38.5448,1282.89,39.20,30.20,69.88,M,5.00,0.00,29.65,M,10.00,M,SCT,SCT,OVC,M,3300.00,4600.00,7000.00,M,M,M,M,M,M,M,M,34.95,KHTH 290915Z AUTO VRB05KT 10SM SCT033 SCT046 OVC070 04/M01 A2965 RMK A01,M
MEV,2021-01-29 09:15,-119.7500,38.9963,1441.42,32.00,32.00,100.00,340.00,3.00,0.00,29.67,M,1.75,M,SCT,BKN,OVC,M,300.00,2200.00,2700.00,M,-SN BR,M,M,M,M,M,M,28.69,KMEV 290915Z AUTO 34003KT 1 3/4SM -SN BR SCT003 BKN022 OVC027 M00/M00 A2967 RMK AO2,M
RTS,2021-01-29 09:15,-119.8764,39.6682,1539.00,30.20,30.20,100.00,0.00,0.00,0.00,29.69,M,3.00,M,FEW,FEW,SCT,M,300.00,800.00,2300.00,M,-SN,M,M,M,M,M,M,30.20,KRTS 290915Z AUTO 00000KT 3SM -SN FEW003 FEW008 SCT023 M01/M01 A2969 RMK AO2,M
TPH,2021-01-29 09:15,-117.0904,38.0505,1654.00,33.00,32.00,95.67,180.00,15.00,T,29.70,M,10.00,M,SCT,SCT,OVC,M,800.00,1700.00,10000.00,M,M,M,M,M,M,M,M,22.21,KTPH 290915Z AUTO 18015KT 10SM SCT008 SCT017 OVC100 01/00 A2970 RMK AO2 SNE06 P0000 T00060000,M
BAM,2021-01-29 09:15,-116.8743,40.5990,1382.36,35.60,35.60,100.00,320.00,3.00,0.00,29.67,M,10.00,M,SCT,OVC,M,M,4400.00,5000.00,M,M,M,M,M,M,M,M,M,32.80,KBAM 290915Z AUTO 32003KT 10SM SCT044 OVC050 02/02 A2967 RMK AO1,M
BVU,2021-01-29 09:15,-114.8611,35.9475,671.00,51.80,28.40,40.25,140.00,12.00,0.00,29.85,M,10.00,M,SCT,BKN,M,M,10000.00,12000.00,M,M,M,M,M,M,M,M,M,51.80,KBVU 290915Z AUTO 14012KT 10SM SCT100 BKN120 11/M02 A2985 RMK AO2,M
LOL,2021-01-29 09:19,-118.5701,40.0684,1192.43,33.00,32.00,95.67,260.00,4.00,0.02,29.67,M,2.00,M,OVC,M,M,M,1600.00,M,M,M,-SN BR,M,M,M,M,M,M,28.70,KLOL 290919Z AUTO 26004KT 2SM -SN BR OVC016 01/00 A2967 RMK AO2 P0002 T00060000,M
NFL,2021-01-29 09:29,-118.7010,39.4166,1199.00,33.00,32.00,95.67,270.00,3.00,0.05,29.67,M,1.00,M,VV ,M,M,M,800.00,M,M,M,-SN BR,M,M,M,M,M,M,29.95,KNFL 290929Z AUTO 27003KT 1SM -SN BR VV008 01/00 A2967 RMK AO2 P0005 T00060000,M
RNO,2021-01-29 09:30,-119.7711,39.4839,1341.00,32.00,32.00,100.00,40.00,3.00,0.02,29.68,M,1.50,M,BKN,OVC,M,M,700.00,1600.00,M,M,-SN BR,M,M,M,M,M,M,28.69,KRNO 290930Z 04003KT 1 1/2SM -SN BR BKN007 OVC016 00/00 A2968 RMK AO2 SFC VIS 1 3/4 P0002 T00000000,M
05U,2021-01-29 09:30,-116.0051,39.6042,1811.23,33.80,24.80,69.25,170.00,13.00,0.00,29.72,M,8.00,19.00,FEW,SCT,BKN,M,500.00,2200.00,3200.00,M,M,M,M,M,M,M,M,23.87,K05U 290930Z AUTO 17013G19KT 8SM FEW005 SCT022 BKN032 01/M04 A2972 RMK A01,M
TPH,2021-01-29 09:34,-117.0904,38.0505,1654.00,33.00,32.00,95.67,170.00,11.00,T,29.72,M,10.00,M,BKN,OVC,M,M,900.00,10000.00,M,M,M,M,M,M,M,M,M,23.86,KTPH 290934Z AUTO 17011KT 10SM BKN009 OVC100 01/00 A2972 RMK AO2 SNE06 CIG 007V012 P0000 T00060000,M
RTS,2021-01-29 09:35,-119.8764,39.6682,1539.00,28.40,30.20,M,0.00,0.00,0.00,29.68,M,4.00,M,FEW,SCT,BKN,M,400.00,2400.00,3500.00,M,-SN,M,M,M,M,M,M,M,KRTS 290935Z AUTO 00000KT 4SM -SN FEW004 SCT024 BKN035 M02/M01 A2968 RMK AO2,M
BVU,2021-01-29 09:35,-114.8611,35.9475,671.00,51.80,28.40,40.25,130.00,13.00,0.00,29.84,M,10.00,M,BKN,M,M,M,12000.00,M,M,M,M,M,M,M,M,M,M,51.80,KBVU 290935Z AUTO 13013KT 10SM BKN120 11/M02 A2984 RMK AO2,M
CXP,2021-01-29 09:35,-119.7326,39.1923,1431.00,32.00,32.00,100.00,0.00,0.00,0.00,29.68,M,1.75,M,FEW,BKN,M,M,200.00,2800.00,M,M,-SN,M,M,M,M,M,M,32.00,KCXP 290935Z AUTO 00000KT 1 3/4SM -SN FEW002 BKN028 00/00 A2968 RMK AO2,M
MEV,2021-01-29 09:35,-119.7500,38.9963,1441.42,32.00,32.00,100.00,0.00,0.00,0.00,29.67,M,1.25,M,BKN,BKN,OVC,M,300.00,700.00,2500.00,M,-SN BR,M,M,M,M,M,M,32.00,KMEV 290935Z AUTO 00000KT 1 1/4SM -SN BR BKN003 BKN007 OVC025 M00/M00 A2967 RMK AO2,M
BAM,2021-01-29 09:35,-116.8743,40.5990,1382.36,35.60,35.60,100.00,0.00,0.00,0.00,29.67,M,10.00,M,SCT,BKN,OVC,M,3000.00,4400.00,5000.00,M,M,M,M,M,M,M,M,35.60,KBAM 290935Z AUTO 00000KT 10SM SCT030 BKN044 OVC050 02/02 A2967 RMK AO1,M
HTH,2021-01-29 09:35,-118.6315,38.5448,1282.89,37.40,33.80,86.69,320.00,7.00,0.00,29.66,M,10.00,M,BKN,BKN,OVC,M,4800.00,5500.00,7000.00,M,M,M,M,M,M,M,M,31.36,KHTH 290935Z AUTO 32007KT 10SM BKN048 BKN055 OVC070 03/01 A2966 RMK A01,M
TMT,2021-01-29 09:35,-117.1971,39.4643,1749.34,35.60,27.10,70.91,220.00,12.00,0.00,29.64,M,10.00,M,M,M,M,M,M,M,M,M,M,M,M,M,M,M,M,26.58,KTMT 290935Z AUTO 22012KT 10SM 02/M03 A2964 RMK AO2 T00201027,M
NFL,2021-01-29 09:41,-118.7010,39.4166,1199.00,33.00,32.00,95.67,290.00,3.00,0.05,29.66,M,0.75,M,VV ,M,M,M,700.00,M,M,M,-SN BR,M,M,M,M,M,M,29.95,KNFL 290941Z AUTO 29003KT 3/4SM -SN BR VV007 01/00 A2966 RMK AO2 P0005 T00060000,M
05U,2021-01-29 09:50,-116.0051,39.6042,1811.23,32.00,26.60,80.22,160.00,13.00,0.00,29.72,M,3.00,M,SCT,BKN,OVC,M,300.00,2300.00,6000.00,M,HZ,M,M,M,M,M,M,21.57,K05U 290950Z AUTO 16013KT 3SM HZ SCT003 BKN023 OVC060 00/M03 A2972 RMK A01,M
VGT,2021-01-29 09:53,-115.1933,36.2111,667.00,52.00,28.90,40.78,120.00,7.00,0.00,29.77,1009.40,10.00,M,FEW,M,M,M,12000.00,M,M,M,M,M,M,M,M,M,M,52.00,KVGT 290953Z AUTO 12007KT 10SM FEW120 11/M02 A2977 RMK AO2 SLP094 T01111017,M
LOL,2021-01-29 09:53,-118.5701,40.0684,1192.43,33.00,32.00,95.67,0.00,0.00,0.05,29.67,1005.30,1.75,M,OVC,M,M,M,1700.00,M,M,M,-SN BR,M,M,M,M,M,M,33.10,KLOL 290953Z AUTO 00000KT 1 3/4SM -SN BR OVC017 01/00 A2967 RMK AO2 SLP053 P0005 T00060000,M
ELY,2021-01-29 09:53,-114.8453,39.2950,1909.00,34.00,23.00,63.72,150.00,22.00,0.00,29.76,1005.80,10.00,33.00,OVC,M,M,M,9000.00,M,M,M,M,M,M,M,35.00,150.00,2021-01-29 09:39,21.26,KELY 290953Z AUTO 15022G33KT 10SM OVC090 01/M05 A2976 RMK AO2 PK WND 15035/0939 SLP058 T00111050,M
DRA,2021-01-29 09:53,-116.0278,36.6206,1009.00,47.00,28.90,49.32,210.00,15.00,0.00,29.77,1006.50,10.00,26.00,OVC,M,M,M,8500.00,M,M,M,M,M,M,M,30.00,220.00,2021-01-29 09:41,40.10,KDRA 290953Z AUTO 21015G26KT 10SM OVC085 08/M02 A2977 RMK AO2 PK WND 22030/0941 SLP065 T00831017,M
P68,2021-01-29 09:53,-116.0056,39.6014,1993.00,32.00,27.00,81.55,160.00,16.00,0.00,29.70,1003.90,M,M,M,M,M,M,M,M,M,M,M,M,M,M,M,M,M,20.42,KP68 290953Z AUTO 16016KT 00/M03 A2970 RMK AO1 SLP039 T00001028,M
RTS,2021-01-29 09:55,-119.8764,39.6682,1539.00,28.40,28.40,100.00,0.00,0.00,0.00,29.69,M,4.00,M,BKN,BKN,BKN,M,500.00,3700.00,4700.00,M,-SN,M,M,M,M,M,M,28.40,KRTS 290955Z AUTO 00000KT 4SM -SN BKN005 BKN037 BKN047 M02/M02 A2969 RMK AO2,M
BVU,2021-01-29 09:55,-114.8611,35.9475,671.00,50.00,28.40,43.03,150.00,10.00,0.00,29.84,M,10.00,M,BKN,M,M,M,12000.00,M,M,M,M,M,M,M,M,M,M,50.00,KBVU 290955Z AUTO 15010KT 10SM BKN120 10/M02 A2984 RMK AO2,M
HTH,2021-01-29 09:55,-118.6315,38.5448,1282.89,37.40,33.80,86.69,340.00,6.00,0.00,29.66,M,10.00,13.00,FEW,SCT,BKN,M,1300.00,2800.00,4900.00,M,M,M,M,M,M,M,M,32.03,KHTH 290955Z AUTO 34006G13KT 10SM FEW013 SCT028 BKN049 03/01 A2966 RMK A01,M
CXP,2021-01-29 09:55,-119.7326,39.1923,1431.00,32.00,32.00,100.00,0.00,0.00,0.00,29.69,M,2.50,M,FEW,SCT,M,M,1300.00,2800.00,M,M,-SN,M,M,M,M,M,M,32.00,KCXP 290955Z AUTO 00000KT 2 1/2SM -SN FEW013 SCT028 00/00 A2969 RMK AO2,M
RNO,2021-01-29 09:55,-119.7711,39.4839,1341.00,32.00,30.90,95.65,0.00,0.00,0.03,29.68,1005.30,1.50,M,BKN,OVC,M,M,700.00,1600.00,M,M,-SN BR,M,M,M,M,M,M,32.00,KRNO 290955Z 00000KT 1 1/2SM -SN BR BKN007 OVC016 00/M01 A2968 RMK AO2 SFC VIS 1 3/4 SLP053 SNINCR 1/3 P0003 T00001006,M
TMT,2021-01-29 09:55,-117.1971,39.4643,1749.34,35.00,27.30,73.52,220.00,8.00,0.00,29.64,M,10.00,M,M,M,M,M,M,M,M,M,M,M,M,M,M,M,M,27.69,KTMT 290955Z AUTO 22008KT 10SM 02/M03 A2964 RMK AO2 T00161026,M
BAM,2021-01-29 09:55,-116.8743,40.5990,1382.36,35.60,35.60,100.00,0.00,0.00,0.00,29.67,M,10.00,M,SCT,BKN,OVC,M,3000.00,4300.00,5000.00,M,M,M,M,M,M,M,M,35.60,KBAM 290955Z AUTO 00000KT 10SM SCT030 BKN043 OVC050 02/02 A2967 RMK AO1,M
MEV,2021-01-29 09:55,-119.7500,38.9963,1441.42,32.00,32.00,100.00,0.00,0.00,0.00,29.68,M,1.25,M,BKN,OVC,M,M,300.00,2100.00,M,M,-SN BR,M,M,M,M,M,M,32.00,KMEV 290955Z AUTO 00000KT 1 1/4SM -SN BR BKN003 OVC021 M00/M00 A2968 RMK AO2,M
EKO,2021-01-29 09:56,-115.7860,40.8242,1367.00,40.00,24.10,52.88,190.00,18.00,0.00,29.67,1003.70,10.00,28.00,OVC,M,M,M,9000.00,M,M,M,M,M,M,M,28.00,180.00,2021-01-29 09:55,30.15,KEKO 290956Z AUTO 19018G28KT 10SM OVC090 04/M04 A2967 RMK AO2 PK WND 18028/0955 SLP037 T00441044,M
TPH,2021-01-29 09:56,-117.0904,38.0505,1654.00,32.00,32.00,100.00,170.00,16.00,T,29.72,1005.80,2.50,21.00,OVC,M,M,M,700.00,M,M,M,-SN BR,M,M,M,M,M,M,20.42,KTPH 290956Z AUTO 17016G21KT 2 1/2SM -SN BR OVC007 00/00 A2972 RMK AO2 SNE06B37 CIG 005V012 SLP058 P0000 T00000000,M
HND,2021-01-29 09:56,-115.1344,35.9729,742.79,52.00,28.90,40.78,170.00,16.00,0.00,29.81,1010.80,10.00,23.00,OVC,M,M,M,11000.00,M,M,M,M,M,M,M,M,M,M,52.00,KHND 290956Z AUTO 17016G23KT 10SM OVC110 11/M02 A2981 RMK AO2 SLP108 T01111017,M
WMC,2021-01-29 09:56,-117.8072,40.9019,1315.00,33.00,30.90,91.51,60.00,6.00,0.01,29.64,1003.80,9.00,M,FEW,OVC,M,M,400.00,1200.00,M,M,-SN,M,M,M,M,M,M,26.86,KWMC 290956Z AUTO 06006KT 9SM -SN FEW004 OVC012 01/M01 A2964 RMK AO2 UPE03B21E25B44E47SNB03E21B47 SLP038 P0001 T00061006,M
NFL,2021-01-29 09:56,-118.7010,39.4166,1199.00,33.00,32.00,95.67,270.00,3.00,0.07,29.67,1003.10,1.00,M,VV ,M,M,M,800.00,M,M,M,-SN BR,M,M,M,M,M,M,29.95,KNFL 290956Z AUTO 27003KT 1SM -SN BR VV008 01/00 A2967 RMK AO2 SLP031 P0007 T00060000,M
LSV,2021-01-29 09:56,-115.0343,36.2362,570.00,49.30,32.40,51.95,100.00,7.00,0.00,29.80,1008.70,10.00,M,CLR,M,M,M,M,M,M,M,M,M,M,M,M,M,M,45.87,KLSV 290956Z AUTO 10007KT 10SM CLR 10/00 A2980 RMK AO2 SLP087 T00960002 $,M
LAS,2021-01-29 09:56,-115.1634,36.0719,663.00,49.00,30.00,47.85,310.00,6.00,0.00,29.81,1009.00,10.00,M,BKN,OVC,M,M,12000.00,14000.00,M,M,M,M,M,M,M,M,M,45.88,KLAS 290956Z 31006KT 10SM BKN120 OVC140 09/M01 A2981 RMK AO2 SLP090 VIRGA S-W-N T00941011,M
INS,2021-01-29 09:56,-115.6733,36.5872,955.00,46.40,27.90,48.24,70.00,17.00,0.00,29.74,1005.50,10.00,25.00,OVC,M,M,M,11000.00,M,M,M,M,M,M,M,M,M,M,38.94,KINS 290956Z AUTO 07017G25KT 10SM OVC110 08/M02 A2974 RMK AO2 SLP055 T00801023 $,M
INS,2021-01-29 10:06,-115.6733,36.5872,955.00,46.40,28.40,49.24,100.00,16.00,0.00,29.74,1005.50,10.00,24.00,OVC,M,M,M,10000.00,M,M,M,M,M,M,M,M,M,M,39.19,KINS 291006Z AUTO 10016G24KT 10SM OVC100 08/M02 A2974 RMK AO2 WSHFT 0955 SLP055 $,M
TPH,2021-01-29 10:06,-117.0904,38.0505,1654.00,32.00,32.00,100.00,160.00,14.00,T,29.71,M,3.00,M,OVC,M,M,M,500.00,M,M,M,-SN BR,M,M,M,M,M,M,21.16,KTPH 291006Z AUTO 16014KT 3SM -SN BR OVC005 00/00 A2971 RMK AO2 CIG 005V008 P0000 T00000000,M
NFL,2021-01-29 10:10,-118.7010,39.4166,1199.00,33.00,32.00,95.67,250.00,3.00,0.01,29.68,M,1.25,M,SCT,OVC,M,M,300.00,1000.00,M,M,-SN BR,M,M,M,M,M,M,29.95,KNFL 291010Z AUTO 25003KT 1 1/4SM -SN BR SCT003 OVC010 01/00 A2968 RMK AO2 P0001 T00060000,M
05U,2021-01-29 10:10,-116.0051,39.6042,1811.23,32.00,26.60,80.22,170.00,18.00,0.00,29.71,M,3.00,M,SCT,BKN,OVC,M,400.00,2200.00,6500.00,M,HZ,M,M,M,M,M,M,19.75,K05U 291010Z AUTO 17018KT 3SM HZ SCT004 BKN022 OVC065 00/M03 A2971 RMK A01,M
TMT,2021-01-29 10:15,-117.1971,39.4643,1749.34,34.50,27.30,74.70,240.00,3.00,0.00,29.63,M,10.00,M,M,M,M,M,M,M,M,M,M,M,M,M,M,M,M,31.55,KTMT 291015Z AUTO 24003KT 10SM 01/M03 A2963 RMK AO2 T00141026,M
CXP,2021-01-29 10:15,-119.7326,39.1923,1431.00,32.00,32.00,100.00,0.00,0.00,0.00,29.69,M,2.00,M,SCT,SCT,SCT,M,300.00,700.00,2800.00,M,-SN,M,M,M,M,M,M,32.00,KCXP 291015Z AUTO 00000KT 2SM -SN SCT003 SCT007 SCT028 00/00 A2969 RMK AO2,M
MEV,2021-01-29 10:15,-119.7500,38.9963,1441.42,32.00,32.00,100.00,0.00,0.00,0.00,29.69,M,0.75,M,OVC,M,M,M,300.00,M,M,M,-SN BR,M,M,M,M,M,M,32.00,KMEV 291015Z AUTO 00000KT 3/4SM -SN BR OVC003 M00/M00 A2969 RMK AO2,M
RTS,2021-01-29 10:15,-119.8764,39.6682,1539.00,28.40,28.40,100.00,0.00,0.00,0.00,29.68,M,6.00,M,FEW,BKN,BKN,M,500.00,4900.00,6000.00,M,-SN,M,M,M,M,M,M,28.40,KRTS 291015Z AUTO 00000KT 6SM -SN FEW005 BKN049 BKN060 M02/M02 A2968 RMK AO2,M
BAM,2021-01-29 10:15,-116.8743,40.5990,1382.36,35.60,35.60,100.00,0.00,0.00,0.00,29.66,M,10.00,M,OVC,M,M,M,4800.00,M,M,M,M,M,M,M,M,M,M,35.60,KBAM 291015Z AUTO 00000KT 10SM OVC048 02/02 A2966 RMK AO1,M
BVU,2021-01-29 10:15,-114.8611,35.9475,671.00,50.00,30.20,46.31,150.00,10.00,0.00,29.83,M,10.00,M,SCT,M,M,M,12000.00,M,M,M,M,M,M,M,M,M,M,50.00,KBVU 291015Z AUTO 15010KT 10SM SCT120 10/M01 A2983 RMK AO2,M
HTH,2021-01-29 10:15,-118.6315,38.5448,1282.89,35.60,33.80,93.08,330.00,7.00,0.00,29.66,M,10.00,M,FEW,SCT,BKN,M,1400.00,7000.00,12000.00,M,M,M,M,M,M,M,M,29.17,KHTH 291015Z AUTO 33007KT 10SM FEW014 SCT070 BKN120 02/01 A2966 RMK A01,M
LOL,2021-01-29 10:20,-118.5701,40.0684,1192.43,33.00,32.00,95.67,0.00,0.00,0.03,29.67,M,1.00,M,VV ,M,M,M,1300.00,M,M,M,-SN BR,M,M,M,M,M,M,33.10,KLOL 291020Z AUTO 00000KT 1SM -SN BR VV013 01/00 A2967 RMK AO2 P0003 T00060000,M
INS,2021-01-29 10:26,-115.6733,36.5872,955.00,48.20,28.40,46.02,100.00,7.00,0.00,29.75,1005.90,10.00,M,BKN,OVC,M,M,8500.00,10000.00,M,M,M,M,M,M,M,M,M,44.53,KINS 291026Z AUTO 10007KT 10SM BKN085 OVC100 09/M02 A2975 RMK AO2 SLP059 $,M
05U,2021-01-29 10:30,-116.0051,39.6042,1811.23,32.00,26.60,80.22,160.00,19.00,0.00,29.70,M,8.00,M,FEW,SCT,BKN,M,300.00,2000.00,5500.00,M,M,M,M,M,M,M,M,19.44,K05U 291030Z AUTO 16019KT 8SM FEW003 SCT020 BKN055 00/M03 A2970 RMK A01,M
MEV,2021-01-29 10:35,-119.7500,38.9963,1441.42,32.00,32.00,100.00,0.00,0.00,0.00,29.69,M,1.00,M,OVC,M,M,M,300.00,M,M,M,-SN BR,M,M,M,M,M,M,32.00,KMEV 291035Z AUTO 00000KT 1SM -SN BR OVC003 M00/M00 A2969 RMK AO2,M
HTH,2021-01-29 10:35,-118.6315,38.5448,1282.89,33.80,33.80,100.00,300.00,7.00,0.00,29.66,M,10.00,M,FEW,FEW,M,M,2300.00,12000.00,M,M,M,M,M,M,M,M,M,26.97,KHTH 291035Z AUTO 30007KT 10SM FEW023 FEW120 01/01 A2966 RMK A01,M
TMT,2021-01-29 10:35,-117.1971,39.4643,1749.34,34.30,27.10,74.68,250.00,7.00,0.00,29.64,M,10.00,M,M,M,M,M,M,M,M,M,M,M,M,M,M,M,M,27.58,KTMT 291035Z AUTO 25007KT 10SM 01/M03 A2964 RMK AO2 T00131027,M
CXP,2021-01-29 10:35,-119.7326,39.1923,1431.00,32.00,32.00,100.00,0.00,0.00,0.00,29.70,M,3.00,M,BKN,BKN,M,M,300.00,700.00,M,M,-SN,M,M,M,M,M,M,32.00,KCXP 291035Z AUTO 00000KT 3SM -SN BKN003 BKN007 00/00 A2970 RMK AO2,M
BVU,2021-01-29 10:35,-114.8611,35.9475,671.00,50.00,30.20,46.31,150.00,9.00,0.00,29.83,M,10.00,M,BKN,M,M,M,12000.00,M,M,M,M,M,M,M,M,M,M,50.00,KBVU 291035Z AUTO 15009KT 10SM BKN120 10/M01 A2983 RMK AO2,M
RTS,2021-01-29 10:35,-119.8764,39.6682,1539.00,28.40,28.40,100.00,0.00,0.00,0.00,29.69,M,10.00,M,FEW,SCT,OVC,M,700.00,4100.00,4800.00,M,M,M,M,M,M,M,M,28.40,KRTS 291035Z AUTO 00000KT 10SM FEW007 SCT041 OVC048 M02/M02 A2969 RMK AO2,M
BAM,2021-01-29 10:35,-116.8743,40.5990,1382.36,33.80,33.80,100.00,0.00,0.00,0.00,29.65,M,10.00,M,SCT,BKN,M,M,4200.00,4800.00,M,M,M,M,M,M,M,M,M,33.80,KBAM 291035Z AUTO 00000KT 10SM SCT042 BKN048 01/01 A2965 RMK AO1,M
NFL,2021-01-29 10:45,-118.7010,39.4166,1199.00,33.00,32.00,95.67,220.00,4.00,0.02,29.69,M,1.25,M,SCT,OVC,M,M,300.00,800.00,M,M,-SN BR,M,M,M,M,M,M,28.70,KNFL 291045Z AUTO 22004KT 1 1/4SM -SN BR SCT003 OVC008 01/00 A2969 RMK AO2 P0002 T00060000,M
05U,2021-01-29 10:50,-116.0051,39.6042,1811.23,33.80,24.80,69.25,170.00,19.00,0.00,29.69,M,7.00,26.00,FEW,SCT,BKN,M,1700.00,3500.00,5000.00,M,M,M,M,M,M,M,M,21.82,K05U 291050Z AUTO 17019G26KT 7SM FEW017 SCT035 BKN050 01/M04 A2969 RMK A01,M
P68,2021-01-29 10:53,-116.0056,39.6014,1993.00,33.00,26.10,75.18,160.00,19.00,0.00,29.67,1002.90,M,30.00,M,M,M,M,M,M,M,M,M,M,M,M,30.00,160.00,2021-01-29 10:36,20.89,KP68 291053Z AUTO 16019G30KT 01/M03 A2967 RMK AO1 PK WND 16030/1036 SLP029 T00061033,M
DRA,2021-01-29 10:53,-116.0278,36.6206,1009.00,44.00,33.00,65.02,220.00,17.00,0.00,29.78,1007.00,10.00,23.00,OVC,M,M,M,8000.00,M,M,M,M,M,M,M,26.00,220.00,2021-01-29 10:30,35.93,KDRA 291053Z AUTO 22017G23KT 10SM OVC080 07/01 A2978 RMK AO2 PK WND 22026/1030 SLP070 T00670006,M
LOL,2021-01-29 10:53,-118.5701,40.0684,1192.43,33.00,33.00,100.00,0.00,0.00,0.07,29.68,1005.70,1.00,M,VV ,M,M,M,1100.00,M,M,M,-SN BR,M,M,M,M,M,M,33.10,KLOL 291053Z AUTO 00000KT 1SM -SN BR VV011 01/01 A2968 RMK AO2 SLP057 P0007 T00060006,M
VGT,2021-01-29 10:53,-115.1933,36.2111,667.00,50.00,30.00,45.93,110.00,9.00,0.00,29.75,1008.90,10.00,M,SCT,M,M,M,12000.00,M,M,M,M,M,M,M,M,M,M,50.00,KVGT 291053Z AUTO 11009KT 10SM SCT120 10/M01 A2975 RMK AO2 SLP089 T01001011,M
ELY,2021-01-29 10:53,-114.8453,39.2950,1909.00,33.00,23.00,66.06,160.00,18.00,0.00,29.75,1005.90,10.00,23.00,SCT,OVC,M,M,8000.00,9500.00,M,M,M,M,M,M,32.00,140.00,2021-01-29 10:01,21.20,KELY 291053Z AUTO 16018G23KT 10SM SCT080 OVC095 01/M05 A2975 RMK AO2 PK WND 14032/1001 SLP059 T00061050,M
RTS,2021-01-29 10:55,-119.8764,39.6682,1539.00,28.40,28.40,100.00,0.00,0.00,0.00,29.69,M,1.25,M,SCT,OVC,M,M,500.00,900.00,M,M,BR,M,M,M,M,M,M,28.40,KRTS 291055Z AUTO 00000KT 1 1/4SM BR SCT005 OVC009 M02/M02 A2969 RMK AO2,M
TMT,2021-01-29 10:55,-117.1971,39.4643,1749.34,35.00,27.10,72.91,230.00,10.00,0.00,29.64,M,10.00,14.00,M,M,M,M,M,M,M,M,M,M,M,M,M,M,M,26.60,KTMT 291055Z AUTO 23010G14KT 10SM 02/M03 A2964 RMK AO2 T00161027,M
HTH,2021-01-29 10:55,-118.6315,38.5448,1282.89,33.80,33.80,100.00,300.00,9.00,0.00,29.67,M,10.00,M,FEW,FEW,M,M,500.00,2200.00,M,M,M,M,M,M,M,M,M,25.75,KHTH 291055Z AUTO 30009KT 10SM FEW005 FEW022 01/01 A2967 RMK A01,M
MEV,2021-01-29 10:55,-119.7500,38.9963,1441.42,32.00,30.20,92.97,360.00,3.00,0.03,29.69,M,0.75,M,OVC,M,M,M,300.00,M,M,M,-SN BR,M,M,M,M,M,M,28.69,KMEV 291055Z AUTO 36003KT 3/4SM -SN BR OVC003 M00/M01 A2969 RMK AO2 P0003,M
BAM,2021-01-29 10:55,-116.8743,40.5990,1382.36,33.80,33.80,100.00,0.00,0.00,0.00,29.65,M,10.00,M,BKN,BKN,M,M,5000.00,12000.00,M,M,M,M,M,M,M,M,M,33.80,KBAM 291055Z AUTO 00000KT 10SM BKN050 BKN120 01/01 A2965 RMK AO1,M
CXP,2021-01-29 10:55,-119.7326,39.1923,1431.00,32.00,32.00,100.00,0.00,0.00,0.00,29.70,M,3.00,M,SCT,BKN,BKN,M,300.00,900.00,3700.00,M,-SN,M,M,M,M,M,M,32.00,KCXP 291055Z AUTO 00000KT 3SM -SN SCT003 BKN009 BKN037 00/00 A2970 RMK AO2,M
RNO,2021-01-29 10:55,-119.7711,39.4839,1341.00,32.00,30.90,95.65,0.00,0.00,0.01,29.69,1005.50,1.50,M,BKN,OVC,M,M,700.00,1600.00,M,M,-SN BR,M,M,M,M,M,M,32.00,KRNO 291055Z 00000KT 1 1/2SM -SN BR BKN007 OVC016 00/M01 A2969 RMK AO2 SLP055 P0001 T00001006,M
BVU,2021-01-29 10:55,-114.8611,35.9475,671.00,50.00,30.20,46.31,140.00,13.00,0.00,29.82,M,10.00,M,FEW,SCT,M,M,8500.00,12000.00,M,M,M,M,M,M,M,M,M,50.00,KBVU 291055Z AUTO 14013KT 10SM FEW085 SCT120 10/M01 A2982 RMK AO2,M
NFL,2021-01-29 10:56,-118.7010,39.4166,1199.00,33.00,32.00,95.67,240.00,4.00,0.03,29.69,1003.50,1.25,M,OVC,M,M,M,600.00,M,M,M,-SN BR,M,M,M,M,M,M,28.70,KNFL 291056Z AUTO 24004KT 1 1/4SM -SN BR OVC006 01/00 A2969 RMK AO2 SLP035 P0003 T00060000,M
INS,2021-01-29 10:56,-115.6733,36.5872,955.00,46.00,27.90,48.98,340.00,10.00,0.00,29.75,1005.90,10.00,M,OVC,M,M,M,8000.00,M,M,M,M,M,M,M,M,M,M,40.52,KINS 291056Z AUTO 34010KT 10SM OVC080 08/M02 A2975 RMK AO2 SLP059 T00781023 $,M
EKO,2021-01-29 10:56,-115.7860,40.8242,1367.00,39.00,25.00,56.86,220.00,8.00,0.00,29.66,1003.50,10.00,M,OVC,M,M,M,10000.00,M,M,M,M,M,M,M,M,M,M,32.74,KEKO 291056Z AUTO 22008KT 10SM OVC100 04/M04 A2966 RMK AO2 SLP035 T00391039,M
TPH,2021-01-29 10:56,-117.0904,38.0505,1654.00,32.00,32.00,100.00,170.00,15.00,T,29.71,1005.70,1.75,M,OVC,M,M,M,400.00,M,M,M,-SN BR,M,M,M,M,M,M,20.78,KTPH 291056Z AUTO 17015KT 1 3/4SM -SN BR OVC004 00/00 A2971 RMK AO2 SLP057 P0000 T00000000,M
LSV,2021-01-29 10:56,-115.0343,36.2362,570.00,52.20,30.90,43.91,110.00,5.00,0.00,29.79,1008.20,10.00,M,FEW,SCT,M,M,9000.00,12000.00,M,M,M,M,M,M,M,M,M,52.20,KLSV 291056Z AUTO 11005KT 10SM FEW090 SCT120 11/M01 A2979 RMK AO2 SLP082 T01121006 $,M
WMC,2021-01-29 10:56,-117.8072,40.9019,1315.00,33.00,30.90,91.51,0.00,0.00,0.02,29.64,1003.50,5.00,M,SCT,OVC,M,M,400.00,1100.00,M,M,-SN BR,M,M,M,M,M,M,33.10,KWMC 291056Z AUTO 00000KT 5SM -SN BR SCT004 OVC011 01/M01 A2964 RMK AO2 CIG 008V014 SLP035 P0002 T00061006,M
HND,2021-01-29 10:56,-115.1344,35.9729,742.79,51.00,28.90,42.16,190.00,14.00,0.00,29.80,1010.60,10.00,M,FEW,OVC,M,M,7500.00,11000.00,M,M,M,M,M,M,M,M,M,51.10,KHND 291056Z AUTO 19014KT 10SM FEW075 OVC110 11/M02 A2980 RMK AO2 SLP106 T01061017,M
LAS,2021-01-29 10:56,-115.1634,36.0719,663.00,50.00,28.90,43.92,280.00,5.00,0.00,29.79,1008.40,10.00,M,FEW,BKN,OVC,M,8000.00,12000.00,16000.00,M,M,M,M,M,M,M,M,50.00,KLAS 291056Z 28005KT 10SM FEW080 BKN120 OVC160 10/M02 A2979 RMK AO2 SLP084 VIRGA NE-SE-S T01001017,M
WMC,2021-01-29 11:03,-117.8072,40.9019,1315.00,33.00,30.90,91.51,280.00,4.00,0.01,29.64,M,3.00,M,SCT,OVC,M,M,400.00,900.00,M,M,-SN BR,M,M,M,M,M,M,28.70,KWMC 291103Z AUTO 28004KT 3SM -SN BR SCT004 OVC009 01/M01 A2964 RMK AO2 P0001 T00061006,M
TPH,2021-01-29 11:07,-117.0904,38.0505,1654.00,32.00,32.00,100.00,170.00,14.00,T,29.71,M,2.50,M,OVC,M,M,M,500.00,M,M,M,-SN BR,M,M,M,M,M,M,21.16,KTPH 291107Z AUTO 17014KT 2 1/2SM -SN BR OVC005 00/00 A2971 RMK AO2 CIG 003V008 P0000 T00000000,M
WMC,2021-01-29 11:08,-117.8072,40.9019,1315.00,33.00,30.00,88.23,270.00,7.00,0.01,29.64,M,2.50,M,BKN,OVC,M,M,400.00,1100.00,M,M,-SN BR,M,M,M,M,M,M,26.12,KWMC 291108Z AUTO 27007KT 2 1/2SM -SN BR BKN004 OVC011 01/M01 A2964 RMK AO2 CIG 002V006 P0001 T00061011,M
05U,2021-01-29 11:10,-116.0051,39.6042,1811.23,33.80,26.60,74.63,170.00,17.00,0.00,29.70,M,4.00,23.00,FEW,SCT,BKN,M,400.00,2000.00,4800.00,M,HZ,M,M,M,M,M,M,22.43,K05U 291110Z AUTO 17017G23KT 4SM HZ FEW004 SCT020 BKN048 01/M03 A2970 RMK A01,M
BVU,2021-01-29 11:15,-114.8611,35.9475,671.00,50.00,30.20,46.31,140.00,11.00,0.00,29.82,M,10.00,M,BKN,M,M,M,11000.00,M,M,M,M,M,M,M,M,M,M,50.00,KBVU 291115Z AUTO 14011KT 10SM BKN110 10/M01 A2982 RMK AO2,M
TMT,2021-01-29 11:15,-117.1971,39.4643,1749.34,36.00,27.00,69.24,200.00,6.00,0.00,29.62,M,10.00,M,M,M,M,M,M,M,M,M,M,M,M,M,M,M,M,30.47,KTMT 291115Z AUTO 20006KT 10SM 02/M03 A2962 RMK AO2 T00231028,M
CXP,2021-01-29 11:15,-119.7326,39.1923,1431.00,32.00,32.00,100.00,0.00,0.00,0.00,29.70,M,3.00,M,SCT,BKN,M,M,400.00,1100.00,M,M,-SN,M,M,M,M,M,M,32.00,KCXP 291115Z AUTO 00000KT 3SM -SN SCT004 BKN011 00/00 A2970 RMK AO2,M
RTS,2021-01-29 11:15,-119.8764,39.6682,1539.00,28.40,28.40,100.00,0.00,0.00,0.00,29.69,M,5.00,M,OVC,M,M,M,700.00,M,M,M,-SN,M,M,M,M,M,M,28.40,KRTS 291115Z AUTO 00000KT 5SM -SN OVC007 M02/M02 A2969 RMK AO2,M
BAM,2021-01-29 11:15,-116.8743,40.5990,1382.36,33.80,33.80,100.00,0.00,0.00,0.00,29.65,M,10.00,M,BKN,OVC,M,M,5000.00,8000.00,M,M,M,M,M,M,M,M,M,33.80,KBAM 291115Z AUTO 00000KT 10SM BKN050 OVC080 01/01 A2965 RMK AO1,M
MEV,2021-01-29 11:15,-119.7500,38.9963,1441.42,32.00,30.20,92.97,350.00,4.00,0.00,29.69,M,2.00,M,SCT,BKN,BKN,M,300.00,2200.00,3100.00,M,-SN BR,M,M,M,M,M,M,27.42,KMEV 291115Z AUTO 35004KT 2SM -SN BR SCT003 BKN022 BKN031 M00/M01 A2969 RMK AO2,M
HTH,2021-01-29 11:15,-118.6315,38.5448,1282.89,33.80,33.80,100.00,310.00,9.00,0.00,29.68,M,10.00,M,FEW,M,M,M,1800.00,M,M,M,M,M,M,M,M,M,M,25.75,KHTH 291115Z AUTO 31009KT 10SM FEW018 01/01 A2968 RMK A01,M
NFL,2021-01-29 11:17,-118.7010,39.4166,1199.00,33.00,32.00,95.67,270.00,3.00,0.03,29.69,M,0.75,M,FEW,OVC,M,M,400.00,800.00,M,M,-SN BR,M,M,M,M,M,M,29.95,KNFL 291117Z AUTO 27003KT 3/4SM -SN BR FEW004 OVC008 01/00 A2969 RMK AO2 P0003 T00060000,M
TPH,2021-01-29 11:17,-117.0904,38.0505,1654.00,32.00,32.00,100.00,170.00,16.00,T,29.70,M,3.00,19.00,OVC,M,M,M,500.00,M,M,M,-SN BR,M,M,M,M,M,M,20.42,KTPH 291117Z AUTO 17016G19KT 3SM -SN BR OVC005 00/00 A2970 RMK AO2 P0000 T00000000,M
NFL,2021-01-29 11:24,-118.7010,39.4166,1199.00,33.00,32.00,95.67,0.00,0.00,0.04,29.69,M,1.00,M,FEW,OVC,M,M,400.00,1000.00,M,M,-SN BR,M,M,M,M,M,M,33.10,KNFL 291124Z AUTO 00000KT 1SM -SN BR FEW004 OVC010 01/00 A2969 RMK AO2 P0004 T00060000,M
TPH,2021-01-29 11:25,-117.0904,38.0505,1654.00,32.00,32.00,100.00,170.00,17.00,T,29.70,M,2.50,M,OVC,M,M,M,500.00,M,M,M,-SN BR,M,M,M,M,M,M,20.08,KTPH 291125Z AUTO 17017KT 2 1/2SM -SN BR OVC005 00/00 A2970 RMK AO2 CIG 004V008 P0000 T00000000,M
WMC,2021-01-29 11:29,-117.8072,40.9019,1315.00,33.00,30.00,88.23,270.00,6.00,0.03,29.64,M,2.50,M,SCT,OVC,M,M,400.00,1100.00,M,M,-SN BR,M,M,M,M,M,M,26.86,KWMC 291129Z AUTO 27006KT 2 1/2SM -SN BR SCT004 OVC011 01/M01 A2964 RMK AO2 P0003 T00061011,M
05U,2021-01-29 11:30,-116.0051,39.6042,1811.23,33.80,28.40,80.36,160.00,15.00,0.00,29.70,M,3.00,M,FEW,BKN,OVC,M,300.00,1800.00,4900.00,M,HZ,M,M,M,M,M,M,23.11,K05U 291130Z AUTO 16015KT 3SM HZ FEW003 BKN018 OVC049 01/M02 A2970 RMK A01,M
TMT,2021-01-29 11:35,-117.1971,39.4643,1749.34,35.40,27.30,72.07,250.00,8.00,0.00,29.62,M,10.00,M,M,M,M,M,M,M,M,M,M,M,M,M,M,M,M,28.30,KTMT 291135Z AUTO 25008KT 10SM 02/M03 A2962 RMK AO2 T00191026,M
HTH,2021-01-29 11:35,-118.6315,38.5448,1282.89,33.80,33.80,100.00,300.00,12.00,0.00,29.68,M,10.00,M,FEW,SCT,M,M,1800.00,2800.00,M,M,M,M,M,M,M,M,M,24.29,KHTH 291135Z AUTO 30012KT 10SM FEW018 SCT028 01/01 A2968 RMK A01,M
CXP,2021-01-29 11:35,-119.7326,39.1923,1431.00,32.00,32.00,100.00,320.00,3.00,0.00,29.70,M,1.25,M,OVC,M,M,M,300.00,M,M,M,-SN,M,M,M,M,M,M,28.69,KCXP 291135Z AUTO 32003KT 1 1/4SM -SN OVC003 00/00 A2970 RMK AO2,M
RTS,2021-01-29 11:35,-119.8764,39.6682,1539.00,28.40,28.40,100.00,0.00,0.00,0.00,29.70,M,8.00,M,BKN,OVC,M,M,600.00,5500.00,M,M,-UP,M,M,M,M,M,M,28.40,KRTS 291135Z AUTO 00000KT 8SM -UP BKN006 OVC055 M02/M02 A2970 RMK AO2,M
BVU,2021-01-29 11:35,-114.8611,35.9475,671.00,50.00,30.20,46.31,150.00,9.00,0.00,29.82,M,10.00,M,SCT,BKN,OVC,M,6500.00,8000.00,11000.00,M,M,M,M,M,M,M,M,50.00,KBVU 291135Z AUTO 15009KT 10SM SCT065 BKN080 OVC110 10/M01 A2982 RMK AO2,M
BAM,2021-01-29 11:35,-116.8743,40.5990,1382.36,33.80,33.80,100.00,0.00,0.00,0.00,29.64,M,10.00,M,SCT,OVC,M,M,4700.00,5000.00,M,M,M,M,M,M,M,M,M,33.80,KBAM 291135Z AUTO 00000KT 10SM SCT047 OVC050 01/01 A2964 RMK AO1,M
MEV,2021-01-29 11:35,-119.7500,38.9963,1441.42,30.20,30.20,100.00,30.00,3.00,0.00,29.69,M,2.50,M,FEW,BKN,OVC,M,2000.00,3100.00,8000.00,M,-SN BR,M,M,M,M,M,M,26.63,KMEV 291135Z AUTO 03003KT 2 1/2SM -SN BR FEW020 BKN031 OVC080 M01/M01 A2969 RMK AO2,M
TPH,2021-01-29 11:37,-117.0904,38.0505,1654.00,32.00,32.00,100.00,170.00,16.00,T,29.69,M,3.00,M,BKN,OVC,M,M,500.00,1300.00,M,M,-SN BR,M,M,M,M,M,M,20.42,KTPH 291137Z AUTO 17016KT 3SM -SN BR BKN005 OVC013 00/00 A2969 RMK AO2 CIG 004V009 P0000 T00000000,M
05U,2021-01-29 11:50,-116.0051,39.6042,1811.23,32.00,28.40,86.39,140.00,12.00,0.00,29.70,M,3.00,17.00,SCT,BKN,OVC,M,300.00,1700.00,6000.00,M,HZ,M,M,M,M,M,M,22.00,K05U 291150Z AUTO 14012G17KT 3SM HZ SCT003 BKN017 OVC060 00/M02 A2970 RMK A01,M
LOL,2021-01-29 11:53,-118.5701,40.0684,1192.43,33.00,32.00,95.67,180.00,5.00,0.06,29.69,1006.30,1.25,M,OVC,M,M,M,1200.00,M,M,M,-SN BR,M,M,M,M,M,M,27.70,KLOL 291153Z AUTO 18005KT 1 1/4SM -SN BR OVC012 01/00 A2969 RMK AO2 SLP063 P0006 60031 70035 T00060000 10028 20006 53007,M
P68,2021-01-29 11:53,-116.0056,39.6014,1993.00,32.00,28.00,84.98,140.00,15.00,0.00,29.67,1003.20,M,M,M,M,M,M,M,M,M,M,M,M,M,M,28.00,170.00,2021-01-29 10:57,20.78,KP68 291153Z AUTO 14015KT 00/M02 A2967 RMK AO1 PK WND 17028/1057 SLP032 T00001022 10022 20000 55010,M
VGT,2021-01-29 11:53,-115.1933,36.2111,667.00,51.00,30.00,44.09,M,4.00,0.00,29.75,1008.70,10.00,M,OVC,M,M,M,8500.00,M,M,M,M,M,M,M,M,M,M,51.10,KVGT 291153Z AUTO VRB04KT 10SM OVC085 11/M01 A2975 RMK AO2 SLP087 T01061011 10111 20089 56011,M
WMC,2021-01-29 11:53,-117.8072,40.9019,1315.00,33.80,30.20,86.49,270.00,8.00,0.05,29.64,M,3.00,M,OVC,M,M,M,1500.00,M,M,M,-SN BR,M,M,M,M,M,M,26.33,KWMC 291153Z AUTO 27008KT 3SM -SN BR OVC015 01/M01 A2964 RMK AO2 P0005,M
DRA,2021-01-29 11:53,-116.0278,36.6206,1009.00,42.00,36.00,78.80,210.00,14.00,T,29.78,1006.90,10.00,M,SCT,SCT,OVC,M,5500.00,7000.00,9500.00,M,-RA,M,M,M,26.00,210.00,2021-01-29 11:26,34.18,KDRA 291153Z AUTO 21014KT 10SM -RA SCT055 SCT070 OVC095 06/02 A2978 RMK AO2 PK WND 21026/1126 RAB01E11B29 SLP069 P0000 60000 T00560022 10111 20050 50006,M
ELY,2021-01-29 11:53,-114.8453,39.2950,1909.00,32.00,24.10,72.30,160.00,17.00,0.00,29.75,1006.40,10.00,24.00,OVC,M,M,M,7000.00,M,M,M,M,M,M,M,31.00,170.00,2021-01-29 11:28,20.08,KELY 291153Z AUTO 16017G24KT 10SM OVC070 00/M04 A2975 RMK AO2 PK WND 17031/1128 SLP064 T00001044 10017 20000 58004,M
MEV,2021-01-29 11:55,-119.7500,38.9963,1441.42,30.20,30.20,100.00,10.00,3.00,0.00,29.68,M,4.00,M,BKN,BKN,OVC,M,3100.00,4300.00,6000.00,M,UP BR,M,M,M,M,M,M,26.63,KMEV 291155Z AUTO 01003KT 4SM UP BR BKN031 BKN043 OVC060 M01/M01 A2968 RMK AO2,M
RTS,2021-01-29 11:55,-119.8764,39.6682,1539.00,26.60,26.60,100.00,0.00,0.00,0.00,29.69,M,10.00,M,FEW,SCT,BKN,M,700.00,3000.00,4400.00,M,M,M,M,M,M,M,M,26.60,KRTS 291155Z AUTO 00000KT 10SM FEW007 SCT030 BKN044 M03/M03 A2969 RMK AO2,M
BVU,2021-01-29 11:55,-114.8611,35.9475,671.00,51.80,30.20,43.32,180.00,9.00,0.00,29.82,M,10.00,M,SCT,OVC,M,M,6500.00,7500.00,M,M,M,M,M,M,M,M,M,51.80,KBVU 291155Z AUTO 18009KT 10SM SCT065 OVC075 11/M01 A2982 RMK AO2,M
CXP,2021-01-29 11:55,-119.7326,39.1923,1431.00,32.00,32.00,100.00,0.00,0.00,0.00,29.70,M,4.00,M,SCT,BKN,OVC,M,300.00,2900.00,4700.00,M,-SN,M,M,M,M,M,M,32.00,KCXP 291155Z AUTO 00000KT 4SM -SN SCT003 BKN029 OVC047 M00/00 A2970 RMK AO2,M
HTH,2021-01-29 11:55,-118.6315,38.5448,1282.89,33.80,33.80,100.00,310.00,12.00,0.00,29.68,M,10.00,M,SCT,SCT,BKN,M,400.00,1600.00,2900.00,M,M,M,M,M,M,M,M,24.29,KHTH 291155Z AUTO 31012KT 10SM SCT004 SCT016 BKN029 01/01 A2968 RMK A01,M
TMT,2021-01-29 11:55,-117.1971,39.4643,1749.34,35.20,27.30,72.64,250.00,10.00,0.00,29.63,M,10.00,M,M,M,M,M,M,M,M,M,M,M,M,M,M,M,M,26.98,KTMT 291155Z AUTO 25010KT 10SM 02/M03 A2963 RMK AO2 T00181026 10034 20013,M
BAM,2021-01-29 11:55,-116.8743,40.5990,1382.36,33.80,33.80,100.00,0.00,0.00,0.00,29.64,M,10.00,M,SCT,OVC,M,M,4100.00,5000.00,M,M,M,M,M,M,M,M,M,33.80,KBAM 291155Z AUTO 00000KT 10SM SCT041 OVC050 01/01 A2964 RMK AO1,M
RNO,2021-01-29 11:55,-119.7711,39.4839,1341.00,32.00,32.00,100.00,0.00,0.00,0.01,29.69,1005.60,1.50,M,FEW,OVC,M,M,400.00,1600.00,M,M,-SN BR,M,M,M,M,M,M,32.00,KRNO 291155Z 00000KT 1 1/2SM -SN BR FEW004 OVC016 00/00 A2969 RMK AO2 SLP056 4/003 P0001 60013 70035 T00000000 10006 20000 53002,3
INS,2021-01-29 11:56,-115.6733,36.5872,955.00,45.30,28.80,52.19,60.00,3.00,0.00,29.76,1006.40,10.00,M,OVC,M,M,M,7000.00,M,M,M,M,M,M,M,M,M,M,43.89,KINS 291156Z AUTO 06003KT 10SM OVC070 07/M02 A2976 RMK AO2 SLP064 T00741018 10093 20070 52009 $,M
LAS,2021-01-29 11:56,-115.1634,36.0719,663.00,52.00,30.00,42.65,210.00,9.00,0.00,29.80,1008.40,10.00,M,OVC,M,M,M,7000.00,M,M,M,M,M,M,M,M,M,M,52.00,KLAS 291156Z 21009KT 10SM OVC070 11/M01 A2980 RMK AO2 SLP084 VIRGA NE-SE-S T01111011 10117 20078 55007,M
TPH,2021-01-29 11:56,-117.0904,38.0505,1654.00,32.00,32.00,100.00,170.00,16.00,T,29.68,1004.90,5.00,M,BKN,OVC,M,M,600.00,1100.00,M,M,-SN BR,M,M,M,M,M,M,20.42,KTPH 291156Z AUTO 17016KT 5SM -SN BR BKN006 OVC011 00/00 A2968 RMK AO2 CIG 003V008 SLP049 P0000 60000 T00000000 10033 20000 58004,M
WMC,2021-01-29 11:56,-117.8072,40.9019,1315.00,33.00,30.00,88.23,270.00,7.00,0.06,29.64,1003.60,3.00,M,OVC,M,M,M,1500.00,M,M,M,-SN BR,M,M,M,M,M,M,26.12,KWMC 291156Z AUTO 27007KT 3SM -SN BR OVC015 01/M01 A2964 RMK AO2 SLP036 P0006 60019 70024 T00061011 10011 20006 56001,M
EKO,2021-01-29 11:56,-115.7860,40.8242,1367.00,37.00,25.00,61.50,200.00,3.00,0.00,29.66,1003.90,10.00,M,OVC,M,M,M,9500.00,M,M,M,M,M,M,M,M,M,M,34.40,KEKO 291156Z AUTO 20003KT 10SM OVC095 03/M04 A2966 RMK AO2 SLP039 T00281039 10050 20028 56010,M
LSV,2021-01-29 11:56,-115.0343,36.2362,570.00,54.00,29.70,39.01,180.00,16.00,0.00,29.78,1007.90,10.00,22.00,OVC,M,M,M,8000.00,M,M,M,M,M,M,M,M,M,M,54.10,KLSV 291156Z AUTO 18016G22KT 10SM OVC080 12/M01 A2978 RMK AO2 SLP079 T01231013 10124 20091 57014 $,M
HND,2021-01-29 11:56,-115.1344,35.9729,742.79,51.00,28.90,42.16,220.00,13.00,0.00,29.81,1010.80,10.00,M,OVC,M,M,M,7000.00,M,M,M,M,M,M,M,M,M,M,51.10,KHND 291156Z AUTO 22013KT 10SM OVC070 11/M02 A2981 RMK AO2 SLP108 T01061017 10122 20067 55004,M
NFL,2021-01-29 11:56,-118.7010,39.4166,1199.00,33.00,32.00,95.67,240.00,3.00,0.05,29.70,1003.90,1.25,M,OVC,M,M,M,1000.00,M,M,M,-SN BR,M,M,M,M,M,M,29.95,KNFL 291156Z AUTO 24003KT 1 1/4SM -SN BR OVC010 01/00 A2970 RMK AO2 SLP039 P0005 60033 70044 T00060000 10022 20006 53008,M
WMC,2021-01-29 12:05,-117.8072,40.9019,1315.00,33.00,30.00,88.23,270.00,8.00,T,29.64,M,2.50,M,BKN,OVC,M,M,1400.00,1900.00,M,M,-SN BR,M,M,M,M,M,M,25.47,KWMC 291205Z AUTO 27008KT 2 1/2SM -SN BR BKN014 OVC019 01/M01 A2964 RMK AO2 P0000 T00061011,M
05U,2021-01-29 12:10,-116.0051,39.6042,1811.23,32.00,28.40,86.39,140.00,9.00,0.00,29.69,M,2.00,M,SCT,BKN,OVC,M,300.00,1700.00,5500.00,M,HZ,M,M,M,M,M,M,23.51,K05U 291210Z AUTO 14009KT 2SM HZ SCT003 BKN017 OVC055 00/M02 A2969 RMK A01,M
TPH,2021-01-29 12:11,-117.0904,38.0505,1654.00,32.00,32.00,100.00,170.00,15.00,T,29.67,M,7.00,M,FEW,OVC,M,M,400.00,900.00,M,M,-SN,M,M,M,M,M,M,20.78,KTPH 291211Z AUTO 17015KT 7SM -SN FEW004 OVC009 00/00 A2967 RMK AO2 CIG 006V012 P0000 T00000000,M
CXP,2021-01-29 12:15,-119.7326,39.1923,1431.00,32.00,32.00,100.00,0.00,0.00,0.00,29.70,M,4.00,M,SCT,BKN,OVC,M,1300.00,2900.00,4300.00,M,-SN,M,M,M,M,M,M,32.00,KCXP 291215Z AUTO 00000KT 4SM -SN SCT013 BKN029 OVC043 M00/M00 A2970 RMK AO2,M
BVU,2021-01-29 12:15,-114.8611,35.9475,671.00,51.80,28.40,40.25,190.00,9.00,0.00,29.82,M,10.00,M,OVC,M,M,M,7500.00,M,M,M,M,M,M,M,M,M,M,51.80,KBVU 291215Z AUTO 19009KT 10SM OVC075 11/M02 A2982 RMK AO2,M
RTS,2021-01-29 12:15,-119.8764,39.6682,1539.00,28.40,28.40,100.00,0.00,0.00,0.00,29.69,M,10.00,M,FEW,SCT,BKN,M,2300.00,3100.00,4200.00,M,-SN,M,M,M,M,M,M,28.40,KRTS 291215Z AUTO 00000KT 10SM -SN FEW023 SCT031 BKN042 M02/M02 A2969 RMK AO2,M
MEV,2021-01-29 12:15,-119.7500,38.9963,1441.42,30.20,28.40,92.92,0.00,0.00,0.00,29.69,M,6.00,M,BKN,OVC,M,M,700.00,3100.00,M,M,UP BR,M,M,M,M,M,M,30.20,KMEV 291215Z AUTO 00000KT 6SM UP BR BKN007 OVC031 M01/M02 A2969 RMK AO2,M
TMT,2021-01-29 12:15,-117.1971,39.4643,1749.34,35.40,27.30,72.07,260.00,14.00,0.00,29.64,M,10.00,M,M,M,M,M,M,M,M,M,M,M,M,M,M,M,M,25.54,KTMT 291215Z AUTO 26014KT 10SM 02/M03 A2964 RMK AO2 T00191026,M
BAM,2021-01-29 12:15,-116.8743,40.5990,1382.36,33.80,33.80,100.00,0.00,0.00,0.00,29.65,M,10.00,M,BKN,OVC,M,M,4700.00,5000.00,M,M,M,M,M,M,M,M,M,33.80,KBAM 291215Z AUTO 00000KT 10SM BKN047 OVC050 01/01 A2965 RMK AO1,M
HTH,2021-01-29 12:15,-118.6315,38.5448,1282.89,33.80,33.80,100.00,310.00,12.00,0.00,29.69,M,10.00,M,BKN,OVC,M,M,400.00,1500.00,M,M,M,M,M,M,M,M,M,24.29,KHTH 291215Z AUTO 31012KT 10SM BKN004 OVC015 01/01 A2969 RMK A01,M
LOL,2021-01-29 12:20,-118.5701,40.0684,1192.43,33.00,32.00,95.67,0.00,0.00,0.02,29.69,M,2.00,M,OVC,M,M,M,1400.00,M,M,M,-SN BR,M,M,M,M,M,M,33.10,KLOL 291220Z AUTO 00000KT 2SM -SN BR OVC014 01/00 A2969 RMK AO2 P0002 T00060000,M
DRA,2021-01-29 12:25,-116.0278,36.6206,1009.00,41.00,37.00,85.54,190.00,15.00,0.02,29.78,M,6.00,24.00,OVC,M,M,M,2700.00,M,M,M,RA BR,M,M,M,M,M,M,32.45,KDRA 291225Z AUTO 19015G24KT 6SM RA BR OVC027 05/03 A2978 RMK AO2 P0002 T00500028,M
WMC,2021-01-29 12:25,-117.8072,40.9019,1315.00,33.00,30.00,88.23,260.00,9.00,0.02,29.64,M,1.75,M,OVC,M,M,M,1100.00,M,M,M,-SN BR,M,M,M,M,M,M,24.88,KWMC 291225Z AUTO 26009KT 1 3/4SM -SN BR OVC011 01/M01 A2964 RMK AO2 P0002 T00061011,M
LOL,2021-01-29 12:26,-118.5701,40.0684,1192.43,33.00,32.00,95.67,160.00,3.00,0.02,29.69,M,3.00,M,OVC,M,M,M,1800.00,M,M,M,-SN BR,M,M,M,M,M,M,29.95,KLOL 291226Z AUTO 16003KT 3SM -SN BR OVC018 01/00 A2969 RMK AO2 P0002 T00060000,M
05U,2021-01-29 12:30,-116.0051,39.6042,1811.23,32.00,28.40,86.39,130.00,6.00,0.00,29.69,M,5.00,11.00,FEW,SCT,BKN,M,300.00,2100.00,3800.00,M,HZ,M,M,M,M,M,M,25.53,K05U 291230Z AUTO 13006G11KT 5SM HZ FEW003 SCT021 BKN038 00/M02 A2969 RMK A01,M
INS,2021-01-29 12:31,-115.6733,36.5872,955.00,44.60,28.40,52.72,130.00,4.00,0.00,29.75,1006.10,10.00,M,SCT,SCT,BKN,M,7000.00,9500.00,12000.00,M,M,M,M,M,M,M,M,42.13,KINS 291231Z AUTO 13004KT 10SM SCT070 SCT095 BKN120 07/M02 A2975 RMK AO2 SLP061 $,M
BVU,2021-01-29 12:35,-114.8611,35.9475,671.00,51.80,28.40,40.25,200.00,11.00,0.00,29.82,M,10.00,M,OVC,M,M,M,7000.00,M,M,M,M,M,M,M,M,M,M,51.80,KBVU 291235Z AUTO 20011KT 10SM OVC070 11/M02 A2982 RMK AO2,M
TMT,2021-01-29 12:35,-117.1971,39.4643,1749.34,33.30,29.30,85.06,250.00,12.00,0.00,29.64,M,10.00,M,M,M,M,M,M,M,M,M,-SN,M,M,M,M,M,M,23.66,KTMT 291235Z AUTO 25012KT 10SM -SN 01/M01 A2964 RMK AO2 T00071015,M
HTH,2021-01-29 12:35,-118.6315,38.5448,1282.89,33.80,33.80,100.00,320.00,12.00,0.00,29.69,M,10.00,M,OVC,M,M,M,400.00,M,M,M,M,M,M,M,M,M,M,24.29,KHTH 291235Z AUTO 32012KT 10SM OVC004 01/01 A2969 RMK A01,M
CXP,2021-01-29 12:35,-119.7326,39.1923,1431.00,32.00,32.00,100.00,0.00,0.00,0.00,29.70,M,2.00,M,BKN,BKN,OVC,M,300.00,1300.00,3000.00,M,-SN,M,M,M,M,M,M,32.00,KCXP 291235Z AUTO 00000KT 2SM -SN BKN003 BKN013 OVC030 M00/00 A2970 RMK AO2,M
MEV,2021-01-29 12:35,-119.7500,38.9963,1441.42,30.20,30.20,100.00,0.00,0.00,0.00,29.69,M,8.00,M,OVC,M,M,M,800.00,M,M,M,M,M,M,M,M,M,M,30.20,KMEV 291235Z AUTO 00000KT 8SM OVC008 M01/M01 A2969 RMK AO2,M
BAM,2021-01-29 12:35,-116.8743,40.5990,1382.36,33.80,33.80,100.00,0.00,0.00,0.00,29.65,M,10.00,M,BKN,BKN,OVC,M,4500.00,5000.00,7000.00,M,M,M,M,M,M,M,M,33.80,KBAM 291235Z AUTO 00000KT 10SM BKN045 BKN050 OVC070 01/01 A2965 RMK AO1,M
RTS,2021-01-29 12:35,-119.8764,39.6682,1539.00,26.60,26.60,100.00,360.00,3.00,0.00,29.69,M,10.00,M,FEW,SCT,OVC,M,3500.00,6000.00,7500.00,M,M,M,M,M,M,M,M,22.52,KRTS 291235Z AUTO 36003KT 10SM FEW035 SCT060 OVC075 M03/M03 A2969 RMK AO2,M
WMC,2021-01-29 12:41,-117.8072,40.9019,1315.00,33.00,30.00,88.23,260.00,8.00,0.04,29.64,M,2.00,M,OVC,M,M,M,1100.00,M,M,M,-SN BR,M,M,M,M,M,M,25.47,KWMC 291241Z AUTO 26008KT 2SM -SN BR OVC011 01/M01 A2964 RMK AO2 P0004 T00061011,M
INS,2021-01-29 12:41,-115.6733,36.5872,955.00,44.60,30.20,56.74,200.00,10.00,0.00,29.76,1006.40,10.00,M,SCT,BKN,BKN,M,6500.00,9000.00,12000.00,M,M,M,M,M,M,M,M,38.77,KINS 291241Z AUTO 20010KT 10SM SCT065 BKN090 BKN120 07/M01 A2976 RMK AO2 SLP064 $,M
NFL,2021-01-29 12:45,-118.7010,39.4166,1199.00,33.00,32.00,95.67,290.00,3.00,0.05,29.71,M,0.75,M,VV ,M,M,M,1100.00,M,M,M,-SN BR,M,M,M,M,M,M,29.95,KNFL 291245Z AUTO 29003KT 3/4SM -SN BR VV011 01/00 A2971 RMK AO2 P0005 T00060000,M
LOL,2021-01-29 12:49,-118.5701,40.0684,1192.43,33.80,32.00,93.03,180.00,4.00,0.02,29.70,M,2.50,M,FEW,OVC,M,M,500.00,2500.00,M,M,-SN BR,M,M,M,M,M,M,29.52,KLOL 291249Z AUTO 18004KT 2 1/2SM -SN BR FEW005 OVC025 01/00 A2970 RMK AO2 P0002,M
05U,2021-01-29 12:50,-116.0051,39.6042,1811.23,33.80,26.60,74.63,160.00,15.00,0.00,29.68,M,10.00,M,FEW,SCT,BKN,M,2200.00,3600.00,4500.00,M,M,M,M,M,M,M,M,23.11,K05U 291250Z AUTO 16015KT 10SM FEW022 SCT036 BKN045 01/M03 A2968 RMK A01,M
LOL,2021-01-29 12:50,-118.5701,40.0684,1192.43,33.00,32.00,95.67,190.00,3.00,0.02,29.70,1006.50,2.50,M,FEW,OVC,M,M,500.00,2500.00,M,M,-SN BR,M,M,M,M,M,M,29.95,KLOL 291250Z AUTO 19003KT 2 1/2SM -SN BR FEW005 OVC025 01/00 A2970 RMK AO2 SLP065 P0002 T00060000,M
P68,2021-01-29 12:53,-116.0056,39.6014,1993.00,34.00,27.00,75.26,170.00,16.00,0.00,29.65,1002.20,M,23.00,M,M,M,M,M,M,M,M,M,M,M,M,M,M,M,23.03,KP68 291253Z AUTO 17016G23KT 01/M03 A2965 RMK AO1 SLP022 T00111028,M
ELY,2021-01-29 12:53,-114.8453,39.2950,1909.00,30.90,26.10,82.15,160.00,16.00,T,29.73,1005.90,3.00,M,OVC,M,M,M,4800.00,M,M,M,-SN,M,M,M,26.00,160.00,2021-01-29 12:25,18.98,KELY 291253Z AUTO 16016KT 3SM -SN OVC048 M01/M03 A2973 RMK AO2 PK WND 16026/1225 SNB15 SLP059 P0000 T10061033,M
VGT,2021-01-29 12:53,-115.1933,36.2111,667.00,52.00,30.90,44.24,230.00,8.00,0.00,29.76,1009.20,10.00,M,OVC,M,M,M,7000.00,M,M,M,M,M,M,M,M,M,M,52.00,KVGT 291253Z AUTO 23008KT 10SM OVC070 11/M01 A2976 RMK AO2 SLP092 T01111006,M
DRA,2021-01-29 12:53,-116.0278,36.6206,1009.00,40.00,37.00,89.27,190.00,13.00,0.04,29.78,1007.40,10.00,M,OVC,M,M,M,3300.00,M,M,M,-RA,M,M,M,M,M,M,31.69,KDRA 291253Z AUTO 19013KT 10SM -RA OVC033 04/03 A2978 RMK AO2 SLP074 P0004 T00440028,M
WMC,2021-01-29 12:54,-117.8072,40.9019,1315.00,33.80,30.20,86.49,260.00,9.00,0.05,29.64,M,2.50,M,FEW,OVC,M,M,600.00,1100.00,M,M,-SN BR,M,M,M,M,M,M,25.75,KWMC 291254Z AUTO 26009KT 2 1/2SM -SN BR FEW006 OVC011 01/M01 A2964 RMK AO2 P0005,M
RTS,2021-01-29 12:55,-119.8764,39.6682,1539.00,26.60,26.60,100.00,0.00,0.00,0.00,29.70,M,10.00,M,BKN,OVC,M,M,2700.00,7500.00,M,M,M,M,M,M,M,M,M,26.60,KRTS 291255Z AUTO 00000KT 10SM BKN027 OVC075 M03/M03 A2970 RMK AO2,M
CXP,2021-01-29 12:55,-119.7326,39.1923,1431.00,32.00,32.00,100.00,0.00,0.00,0.00,29.70,M,5.00,M,SCT,BKN,OVC,M,300.00,1300.00,5000.00,M,-SN,M,M,M,M,M,M,32.00,KCXP 291255Z AUTO 00000KT 5SM -SN SCT003 BKN013 OVC050 M00/M00 A2970 RMK AO2,M
BVU,2021-01-29 12:55,-114.8611,35.9475,671.00,51.80,28.40,40.25,180.00,17.00,0.00,29.82,M,10.00,M,OVC,M,M,M,7500.00,M,M,M,M,M,M,M,M,M,M,51.80,KBVU 291255Z AUTO 18017KT 10SM OVC075 11/M02 A2982 RMK AO2,M
MEV,2021-01-29 12:55,-119.7500,38.9963,1441.42,30.20,30.20,100.00,320.00,3.00,0.00,29.70,M,10.00,M,OVC,M,M,M,1000.00,M,M,M,M,M,M,M,M,M,M,26.63,KMEV 291255Z AUTO 32003KT 10SM OVC010 M01/M01 A2970 RMK AO2,M
BAM,2021-01-29 12:55,-116.8743,40.5990,1382.36,35.60,35.60,100.00,240.00,6.00,0.00,29.65,M,10.00,M,SCT,BKN,OVC,M,3100.00,3700.00,4300.00,M,M,M,M,M,M,M,M,29.87,KBAM 291255Z AUTO 24006KT 10SM SCT031 BKN037 OVC043 02/02 A2965 RMK AO1,M
HTH,2021-01-29 12:55,-118.6315,38.5448,1282.89,33.80,33.80,100.00,320.00,11.00,0.00,29.70,M,10.00,M,OVC,M,M,M,400.00,M,M,M,M,M,M,M,M,M,M,24.74,KHTH 291255Z AUTO 32011KT 10SM OVC004 01/01 A2970 RMK A01,M
TMT,2021-01-29 12:55,-117.1971,39.4643,1749.34,32.50,30.00,90.38,250.00,10.00,0.00,29.64,M,5.00,M,M,M,M,M,M,M,M,M,-SN,M,M,M,M,M,M,23.60,KTMT 291255Z AUTO 25010KT 5SM -SN 00/M01 A2964 RMK AO2 T00031011,M
RNO,2021-01-29 12:55,-119.7711,39.4839,1341.00,32.00,30.90,95.65,0.00,0.00,T,29.70,1006.00,1.50,M,SCT,OVC,M,M,400.00,1600.00,M,M,BR,M,M,M,M,M,M,32.00,KRNO 291255Z 00000KT 1 1/2SM BR SCT004 OVC016 00/M01 A2970 RMK AO2 SNE54 SLP060 P0000 T00001006,M
HND,2021-01-29 12:56,-115.1344,35.9729,742.79,49.00,30.90,49.63,230.00,8.00,0.00,29.83,1011.60,10.00,M,OVC,M,M,M,6000.00,M,M,M,M,M,M,M,M,M,M,44.93,KHND 291256Z AUTO 23008KT 10SM OVC060 09/M01 A2983 RMK AO2 SLP116 T00941006,M
WMC,2021-01-29 12:56,-117.8072,40.9019,1315.00,33.00,30.00,88.23,260.00,11.00,0.05,29.64,1004.10,2.50,M,SCT,OVC,M,M,600.00,1000.00,M,M,-SN BR,M,M,M,M,M,M,23.86,KWMC 291256Z AUTO 26011KT 2 1/2SM -SN BR SCT006 OVC010 01/M01 A2964 RMK AO2 SLP041 P0005 T00061011,M
TPH,2021-01-29 12:56,-117.0904,38.0505,1654.00,33.00,32.00,95.67,160.00,10.00,T,29.68,1004.90,9.00,M,OVC,M,M,M,800.00,M,M,M,M,M,M,M,M,M,M,24.35,KTPH 291256Z AUTO 16010KT 9SM OVC008 01/00 A2968 RMK AO2 SNE16B43E53 CIG 006V011 SLP049 P0000 T00060000,M
EKO,2021-01-29 12:56,-115.7860,40.8242,1367.00,38.00,25.00,59.36,200.00,10.00,0.00,29.65,1003.60,10.00,17.00,OVC,M,M,M,9000.00,M,M,M,M,M,M,M,M,M,M,30.37,KEKO 291256Z AUTO 20010G17KT 10SM OVC090 03/M04 A2965 RMK AO2 SLP036 T00331039,M
LSV,2021-01-29 12:56,-115.0343,36.2362,570.00,52.20,32.00,45.91,180.00,13.00,0.00,29.79,1008.30,10.00,M,OVC,M,M,M,7000.00,M,M,M,M,M,M,M,26.00,170.00,2021-01-29 12:30,52.20,KLSV 291256Z AUTO 18013KT 10SM OVC070 11/00 A2979 RMK AO2 PK WND 17026/30 SLP083 T01120000 $,M
LAS,2021-01-29 12:56,-115.1634,36.0719,663.00,51.00,30.00,44.09,230.00,10.00,0.00,29.81,1009.00,10.00,20.00,OVC,M,M,M,6500.00,M,M,M,M,M,M,M,M,M,M,51.10,KLAS 291256Z 23010G20KT 10SM OVC065 11/M01 A2981 RMK AO2 SLP090 CIG LWR W-N SHSN OBSCURES MTNS DSNT W-N T01061011,M
NFL,2021-01-29 12:56,-118.7010,39.4166,1199.00,33.00,32.00,95.67,310.00,3.00,0.06,29.70,1004.00,1.25,M,OVC,M,M,M,1300.00,M,M,M,-SN BR,M,M,M,M,M,M,29.95,KNFL 291256Z AUTO 31003KT 1 1/4SM -SN BR OVC013 01/00 A2970 RMK AO2 SLP040 P0006 T00060000,M
INS,2021-01-29 12:56,-115.6733,36.5872,955.00,44.40,29.30,55.12,240.00,11.00,0.00,29.76,1006.40,10.00,M,SCT,BKN,BKN,M,6000.00,9000.00,12000.00,M,M,M,M,M,M,M,M,38.14,KINS 291256Z AUTO 24011KT 10SM SCT060 BKN090 BKN120 07/M01 A2976 RMK AO2 SLP064 T00691015 $,M
INS,2021-01-29 12:59,-115.6733,36.5872,955.00,46.40,28.40,49.24,250.00,12.00,0.00,29.76,1006.40,10.00,M,BKN,BKN,M,M,6000.00,9000.00,M,M,M,M,M,M,M,M,M,40.33,KINS 291259Z AUTO 25012KT 10SM BKN060 BKN090 08/M02 A2976 RMK AO2 WSHFT 51 SLP064 $,M
05U,2021-01-29 13:10,-116.0051,39.6042,1811.23,33.80,26.60,74.63,160.00,15.00,0.00,29.67,M,9.00,M,FEW,OVC,M,M,3600.00,4400.00,M,M,M,M,M,M,M,M,M,23.11,K05U 291310Z AUTO 16015KT 9SM FEW036 OVC044 01/M03 A2967 RMK A01,M
WMC,2021-01-29 13:10,-117.8072,40.9019,1315.00,33.00,30.00,88.23,270.00,9.00,0.01,29.65,M,2.50,M,BKN,OVC,M,M,600.00,900.00,M,M,-SN BR,M,M,M,M,M,M,24.88,KWMC 291310Z AUTO 27009KT 2 1/2SM -SN BR BKN006 OVC009 01/M01 A2965 RMK AO2 P0001 T00061011,M
NFL,2021-01-29 13:12,-118.7010,39.4166,1199.00,33.00,32.00,95.67,0.00,0.00,T,29.71,M,1.75,M,SCT,OVC,M,M,1700.00,2600.00,M,M,-SN BR,M,M,M,M,M,M,33.10,KNFL 291312Z AUTO 00000KT 1 3/4SM -SN BR SCT017 OVC026 01/00 A2971 RMK AO2 P0000 T00060000,M
BVU,2021-01-29 13:15,-114.8611,35.9475,671.00,51.80,28.40,40.25,180.00,14.00,0.00,29.83,M,10.00,24.00,BKN,OVC,M,M,6000.00,7500.00,M,M,M,M,M,M,M,M,M,51.80,KBVU 291315Z AUTO 18014G24KT 10SM BKN060 OVC075 11/M02 A2983 RMK AO2,M
CXP,2021-01-29 13:15,-119.7326,39.1923,1431.00,32.00,32.00,100.00,0.00,0.00,0.00,29.71,M,2.50,M,BKN,BKN,OVC,M,200.00,1300.00,4500.00,M,-SN,M,M,M,M,M,M,32.00,KCXP 291315Z AUTO 00000KT 2 1/2SM -SN BKN002 BKN013 OVC045 M00/00 A2971 RMK AO2,M
BAM,2021-01-29 13:15,-116.8743,40.5990,1382.36,35.60,35.60,100.00,0.00,0.00,0.00,29.65,M,10.00,M,SCT,OVC,M,M,2400.00,3100.00,M,M,M,M,M,M,M,M,M,35.60,KBAM 291315Z AUTO 00000KT 10SM SCT024 OVC031 02/02 A2965 RMK AO1,M
MEV,2021-01-29 13:15,-119.7500,38.9963,1441.42,28.40,28.40,100.00,0.00,0.00,0.00,29.70,M,0.75,M,BKN,OVC,M,M,300.00,1100.00,M,M,BR,M,M,M,M,M,M,28.40,KMEV 291315Z AUTO 00000KT 3/4SM BR BKN003 OVC011 M02/M02 A2970 RMK AO2,M
RTS,2021-01-29 13:15,-119.8764,39.6682,1539.00,24.80,24.80,100.00,330.00,5.00,0.00,29.70,M,10.00,M,OVC,M,M,M,2600.00,M,M,M,M,M,M,M,M,M,M,17.84,KRTS 291315Z AUTO 33005KT 10SM OVC026 M04/M04 A2970 RMK AO2,M
HTH,2021-01-29 13:15,-118.6315,38.5448,1282.89,33.80,33.80,100.00,310.00,10.00,0.00,29.71,M,10.00,M,OVC,M,M,M,400.00,M,M,M,M,M,M,M,M,M,M,25.23,KHTH 291315Z AUTO 31010KT 10SM OVC004 01/01 A2971 RMK A01,M
TMT,2021-01-29 13:15,-117.1971,39.4643,1749.34,32.00,30.60,94.50,250.00,7.00,0.00,29.65,M,2.00,M,M,M,M,M,M,M,M,M,-SN,M,M,M,M,M,M,24.78,KTMT 291315Z AUTO 25007KT 2SM -SN 00/M01 A2965 RMK AO2 T00001008,M
NFL,2021-01-29 13:16,-118.7010,39.4166,1199.00,33.00,32.00,95.67,0.00,0.00,T,29.71,M,2.00,M,FEW,OVC,M,M,1700.00,3200.00,M,M,-SN BR,M,M,M,M,M,M,33.10,KNFL 291316Z AUTO 00000KT 2SM -SN BR FEW017 OVC032 01/00 A2971 RMK AO2 P0000 T00060000,M
LOL,2021-01-29 13:23,-118.5701,40.0684,1192.43,33.00,32.00,95.67,0.00,0.00,0.01,29.70,M,3.00,M,BKN,OVC,M,M,400.00,2400.00,M,M,-SN BR,M,M,M,M,M,M,33.10,KLOL 291323Z AUTO 00000KT 3SM -SN BR BKN004 OVC024 01/00 A2970 RMK AO2 P0001 T00060000,M
NFL,2021-01-29 13:26,-118.7010,39.4166,1199.00,33.00,32.00,95.67,0.00,0.00,T,29.71,M,3.00,M,FEW,OVC,M,M,1700.00,3600.00,M,M,-SN BR,M,M,M,M,M,M,33.10,KNFL 291326Z AUTO 00000KT 3SM -SN BR FEW017 OVC036 01/00 A2971 RMK AO2 P0000 T00060000,M
TPH,2021-01-29 13:27,-117.0904,38.0505,1654.00,32.00,32.00,100.00,160.00,9.00,0.00,29.68,M,10.00,M,OVC,M,M,M,600.00,M,M,M,M,M,M,M,M,M,M,23.51,KTPH 291327Z AUTO 16009KT 10SM OVC006 00/00 A2968 RMK AO2 CIG 004V009 T00000000,M
05U,2021-01-29 13:30,-116.0051,39.6042,1811.23,33.80,26.60,74.63,160.00,15.00,0.00,29.66,M,10.00,20.00,BKN,OVC,M,M,4200.00,4800.00,M,M,M,M,M,M,M,M,M,23.11,K05U 291330Z AUTO 16015G20KT 10SM BKN042 OVC048 01/M03 A2966 RMK A01,M
HTH,2021-01-29 13:35,-118.6315,38.5448,1282.89,33.80,33.80,100.00,310.00,12.00,0.00,29.71,M,10.00,M,BKN,BKN,OVC,M,400.00,1800.00,2200.00,M,M,M,M,M,M,M,M,24.29,KHTH 291335Z AUTO 31012KT 10SM BKN004 BKN018 OVC022 01/01 A2971 RMK A01,M
MEV,2021-01-29 13:35,-119.7500,38.9963,1441.42,28.40,28.40,100.00,0.00,0.00,0.00,29.70,M,8.00,M,BKN,OVC,M,M,400.00,1100.00,M,M,M,M,M,M,M,M,M,28.40,KMEV 291335Z AUTO 00000KT 8SM BKN004 OVC011 M02/M02 A2970 RMK AO2,M
BAM,2021-01-29 13:35,-116.8743,40.5990,1382.36,35.60,35.60,100.00,190.00,3.00,0.00,29.65,M,10.00,M,BKN,OVC,M,M,2500.00,3000.00,M,M,M,M,M,M,M,M,M,32.80,KBAM 291335Z AUTO 19003KT 10SM BKN025 OVC030 02/02 A2965 RMK AO1,M
TMT,2021-01-29 13:35,-117.1971,39.4643,1749.34,32.00,31.10,96.43,220.00,5.00,0.00,29.66,M,2.00,M,M,M,M,M,M,M,M,M,-SN,M,M,M,M,M,M,26.40,KTMT 291335Z AUTO 22005KT 2SM -SN 00/00 A2966 RMK AO2 T00001005,M
BVU,2021-01-29 13:35,-114.8611,35.9475,671.00,50.00,30.20,46.31,200.00,9.00,0.00,29.83,M,10.00,M,FEW,SCT,BKN,M,3500.00,4600.00,5500.00,M,M,M,M,M,M,M,M,50.00,KBVU 291335Z AUTO 20009KT 10SM FEW035 SCT046 BKN055 10/M01 A2983 RMK AO2,M
CXP,2021-01-29 13:35,-119.7326,39.1923,1431.00,32.00,32.00,100.00,0.00,0.00,0.00,29.71,M,3.00,M,BKN,BKN,OVC,M,300.00,700.00,6500.00,M,-SN,M,M,M,M,M,M,32.00,KCXP 291335Z AUTO 00000KT 3SM -SN BKN003 BKN007 OVC065 M00/M00 A2971 RMK AO2,M
RTS,2021-01-29 13:35,-119.8764,39.6682,1539.00,24.80,23.00,92.74,0.00,0.00,0.00,29.71,M,1.50,M,SCT,SCT,OVC,M,2700.00,4700.00,6000.00,M,BR,M,M,M,M,M,M,24.80,KRTS 291335Z AUTO 00000KT 1 1/2SM BR SCT027 SCT047 OVC060 M04/M05 A2971 RMK AO2,M
LOL,2021-01-29 13:37,-118.5701,40.0684,1192.43,33.00,32.00,95.67,200.00,3.00,0.01,29.70,M,6.00,M,SCT,BKN,OVC,M,500.00,900.00,3900.00,M,-SN BR,M,M,M,M,M,M,29.95,KLOL 291337Z AUTO 20003KT 6SM -SN BR SCT005 BKN009 OVC039 01/00 A2970 RMK AO2 P0001 T00060000,M
WMC,2021-01-29 13:38,-117.8072,40.9019,1315.00,33.00,30.00,88.23,260.00,10.00,0.04,29.66,M,3.00,M,FEW,OVC,M,M,600.00,1100.00,M,M,-SN BR,M,M,M,M,M,M,24.35,KWMC 291338Z AUTO 26010KT 3SM -SN BR FEW006 OVC011 01/M01 A2966 RMK AO2 P0004 T00061011,M
NFL,2021-01-29 13:38,-118.7010,39.4166,1199.00,33.00,32.00,95.67,0.00,0.00,T,29.71,M,2.00,M,FEW,OVC,M,M,500.00,3200.00,M,M,-SN BR,M,M,M,M,M,M,33.10,KNFL 291338Z AUTO 00000KT 2SM -SN BR FEW005 OVC032 01/00 A2971 RMK AO2 P0000 T00060000,M
LSV,2021-01-29 13:48,-115.0343,36.2362,570.00,51.80,32.00,46.59,190.00,9.00,0.00,29.83,M,10.00,M,OVC,M,M,M,7000.00,M,M,M,-RA,M,M,M,M,M,M,51.80,KLSV 291348Z 19009KT 10SM -RA OVC070 11/00 A2983 RMK RMK RAB48,M
05U,2021-01-29 13:50,-116.0051,39.6042,1811.23,33.80,26.60,74.63,160.00,16.00,0.00,29.66,M,8.00,M,FEW,BKN,OVC,M,300.00,4600.00,12000.00,M,M,M,M,M,M,M,M,22.76,K05U 291350Z AUTO 16016KT 8SM FEW003 BKN046 OVC120 01/M03 A2966 RMK A01,M
NFL,2021-01-29 13:52,-118.7010,39.4166,1199.00,33.00,32.00,95.67,0.00,0.00,T,29.72,1004.40,2.00,M,BKN,OVC,M,M,700.00,2600.00,M,M,-SN BR,M,M,M,M,M,M,33.10,KNFL 291352Z AUTO 00000KT 2SM -SN BR BKN007 OVC026 01/00 A2972 RMK AO2 SLP044 P0000 T00060000,M
LOL,2021-01-29 13:53,-118.5701,40.0684,1192.43,33.00,32.00,95.67,0.00,0.00,0.01,29.71,1007.10,9.00,M,BKN,OVC,M,M,500.00,4300.00,M,M,M,M,M,M,M,M,M,33.10,KLOL 291353Z AUTO 00000KT 9SM BKN005 OVC043 01/00 A2971 RMK AO2 SNE48 SLP071 P0001 T00060000,M
ELY,2021-01-29 13:53,-114.8453,39.2950,1909.00,30.00,25.00,81.40,160.00,14.00,T,29.71,1005.50,8.00,21.00,OVC,M,M,M,3800.00,M,M,M,-SN,M,M,M,26.00,160.00,2021-01-29 13:02,18.58,KELY 291353Z AUTO 16014G21KT 8SM -SN OVC038 M01/M04 A2971 RMK AO2 PK WND 16026/1302 SLP055 P0000 T10111039,M
P68,2021-01-29 13:53,-116.0056,39.6014,1993.00,33.00,27.00,78.03,160.00,15.00,0.00,29.64,1002.00,M,25.00,M,M,M,M,M,M,M,M,M,M,M,M,M,M,M,22.21,KP68 291353Z AUTO 16015G25KT 01/M03 A2964 RMK AO1 SLP020 T00061028,M
VGT,2021-01-29 13:53,-115.1933,36.2111,667.00,50.00,34.00,53.97,200.00,11.00,0.00,29.76,1009.30,10.00,M,FEW,BKN,OVC,M,5500.00,7500.00,9500.00,M,M,M,M,M,M,M,M,50.00,KVGT 291353Z 20011KT 10SM FEW055 BKN075 OVC095 10/01 A2976 RMK AO2 SLP093 T01000011,M
DRA,2021-01-29 13:53,-116.0278,36.6206,1009.00,41.00,35.00,79.34,170.00,17.00,0.02,29.75,1006.50,10.00,29.00,BKN,BKN,OVC,M,4500.00,6500.00,11000.00,M,M,M,M,M,29.00,170.00,2021-01-29 13:21,31.87,KDRA 291353Z AUTO 17017G29KT 10SM BKN045 BKN065 OVC110 05/02 A2975 RMK AO2 PK WND 17029/1321 RAE44 SLP065 P0002 T00500017,M
TMT,2021-01-29 13:55,-117.1971,39.4643,1749.34,32.00,31.50,98.00,170.00,8.00,0.01,29.66,M,0.75,M,M,M,M,M,M,M,M,M,SN,M,M,M,M,M,M,24.11,KTMT 291355Z AUTO 17008KT 3/4SM SN 00/00 A2966 RMK AO2 P0001 T00001003,M
BVU,2021-01-29 13:55,-114.8611,35.9475,671.00,48.20,33.80,57.26,200.00,8.00,0.00,29.84,M,10.00,M,SCT,BKN,OVC,M,4700.00,5500.00,6500.00,M,M,M,M,M,M,M,M,44.07,KBVU 291355Z AUTO 20008KT 10SM SCT047 BKN055 OVC065 09/01 A2984 RMK AO2,M
CXP,2021-01-29 13:55,-119.7326,39.1923,1431.00,30.20,32.00,M,0.00,0.00,0.00,29.72,M,1.25,M,OVC,M,M,M,600.00,M,M,M,-SN,M,M,M,M,M,M,M,KCXP 291355Z AUTO 00000KT 1 1/4SM -SN OVC006 M01/M00 A2972 RMK AO2,M
MEV,2021-01-29 13:55,-119.7500,38.9963,1441.42,28.40,28.40,100.00,0.00,0.00,0.00,29.71,M,10.00,M,SCT,OVC,M,M,500.00,1000.00,M,M,M,M,M,M,M,M,M,28.40,KMEV 291355Z AUTO 00000KT 10SM SCT005 OVC010 M02/M02 A2971 RMK AO2,M
RTS,2021-01-29 13:55,-119.8764,39.6682,1539.00,23.00,21.20,92.69,340.00,6.00,0.00,29.71,M,1.50,M,FEW,BKN,OVC,M,300.00,3900.00,5500.00,M,BR,M,M,M,M,M,M,14.69,KRTS 291355Z AUTO 34006KT 1 1/2SM BR FEW003 BKN039 OVC055 M05/M06 A2971 RMK AO2,M
BAM,2021-01-29 13:55,-116.8743,40.5990,1382.36,35.60,35.60,100.00,220.00,3.00,0.00,29.64,M,10.00,M,SCT,OVC,M,M,1800.00,2500.00,M,M,M,M,M,M,M,M,M,32.80,KBAM 291355Z AUTO 22003KT 10SM SCT018 OVC025 02/02 A2964 RMK AO1,M
HTH,2021-01-29 13:55,-118.6315,38.5448,1282.89,33.80,33.80,100.00,310.00,9.00,0.00,29.71,M,5.00,M,SCT,BKN,BKN,M,500.00,1600.00,2300.00,M,BR,M,M,M,M,M,M,25.75,KHTH 291355Z AUTO 31009KT 5SM BR SCT005 BKN016 BKN023 01/01 A2971 RMK A01,M
RNO,2021-01-29 13:55,-119.7711,39.4839,1341.00,32.00,30.90,95.65,0.00,0.00,T,29.71,1006.60,1.50,M,SCT,BKN,BKN,M,400.00,1600.00,2900.00,M,BR,M,M,M,M,M,M,32.00,KRNO 291355Z 00000KT 1 1/2SM BR SCT004 BKN016 BKN029 00/M01 A2971 RMK AO2 SNB32E39 SLP066 P0000 T00001006,M
EKO,2021-01-29 13:56,-115.7860,40.8242,1367.00,37.00,26.10,64.38,240.00,9.00,0.00,29.64,1003.50,10.00,M,OVC,M,M,M,9000.00,M,M,M,M,M,M,M,M,M,M,29.73,KEKO 291356Z AUTO 24009KT 10SM OVC090 03/M03 A2964 RMK AO2 SLP035 T00281033,M
INS,2021-01-29 13:56,-115.6733,36.5872,955.00,42.60,32.70,67.77,270.00,9.00,0.00,29.76,1006.70,10.00,M,BKN,BKN,M,M,6000.00,7500.00,M,M,M,M,M,M,M,M,M,36.69,KINS 291356Z AUTO 27009KT 10SM BKN060 BKN075 06/00 A2976 RMK AO2 SLP067 T00590004 $,M
TPH,2021-01-29 13:56,-117.0904,38.0505,1654.00,32.00,32.00,100.00,170.00,8.00,0.00,29.69,1005.20,10.00,M,OVC,M,M,M,600.00,M,M,M,M,M,M,M,M,M,M,24.11,KTPH 291356Z AUTO 17008KT 10SM OVC006 00/00 A2969 RMK AO2 SLP052 T00000000,M
HND,2021-01-29 13:56,-115.1344,35.9729,742.79,47.00,36.00,65.63,200.00,8.00,T,29.84,1012.30,10.00,M,SCT,BKN,BKN,M,7500.00,9000.00,11000.00,M,M,M,M,M,M,M,M,42.47,KHND 291356Z 20008KT 10SM SCT075 BKN090 BKN110 08/02 A2984 RMK AO2 RAB18E44 SLP123 P0000 T00830022,M
WMC,2021-01-29 13:56,-117.8072,40.9019,1315.00,33.00,30.00,88.23,270.00,8.00,0.05,29.66,1004.80,4.00,M,OVC,M,M,M,1500.00,M,M,M,-SN BR,M,M,M,M,M,M,25.47,KWMC 291356Z AUTO 27008KT 4SM -SN BR OVC015 01/M01 A2966 RMK AO2 SLP048 P0005 T00061011,M
LAS,2021-01-29 13:56,-115.1634,36.0719,663.00,48.00,35.00,60.76,220.00,12.00,T,29.82,1009.40,10.00,21.00,SCT,OVC,M,M,5000.00,7000.00,M,M,M,M,M,M,M,M,M,42.37,KLAS 291356Z 22012G21KT 10SM SCT050 OVC070 09/02 A2982 RMK AO2 RAB36E41 SLP094 VCSH CIG LWR W-N P0000 T00890017,M
LSV,2021-01-29 13:56,-115.0343,36.2362,570.00,51.00,33.30,50.38,200.00,9.00,T,29.83,1009.70,10.00,M,OVC,M,M,M,7000.00,M,M,M,M,M,M,M,M,M,M,51.10,KLSV 291356Z 20009KT 10SM OVC070 -RA 10/M01 A2983 RMK AO2A RAB48 SLP097 WND DATA ESTMD ALSTG/SLP ESTMD P0000 T01060007 $,M
RNO,2021-01-29 14:02,-119.7711,39.4839,1341.00,32.00,30.00,92.22,0.00,0.00,0.00,29.72,M,4.00,M,SCT,BKN,BKN,M,400.00,1600.00,2900.00,M,BR,M,M,M,M,M,M,32.00,KRNO 291402Z 00000KT 4SM BR SCT004 BKN016 BKN029 00/M01 A2972 RMK AO2 T00001011,M
TPH,2021-01-29 14:07,-117.0904,38.0505,1654.00,32.00,32.00,100.00,160.00,10.00,0.00,29.69,M,10.00,M,OVC,M,M,M,700.00,M,M,M,M,M,M,M,M,M,M,22.97,KTPH 291407Z AUTO 16010KT 10SM OVC007 00/00 A2969 RMK AO2 T00000000,M
05U,2021-01-29 14:10,-116.0051,39.6042,1811.23,33.80,26.60,74.63,170.00,19.00,0.00,29.66,M,8.00,M,FEW,BKN,OVC,M,2200.00,4500.00,8500.00,M,M,M,M,M,M,M,M,21.82,K05U 291410Z AUTO 17019KT 8SM FEW022 BKN045 OVC085 01/M03 A2966 RMK A01,M
INS,2021-01-29 14:11,-115.6733,36.5872,955.00,42.80,32.00,65.38,0.00,0.00,0.00,29.76,1006.70,10.00,M,SCT,M,M,M,6500.00,M,M,M,M,M,M,M,M,M,M,42.80,KINS 291411Z AUTO 00000KT 10SM SCT065 06/00 A2976 RMK AO2 SLP067 $,M
RTS,2021-01-29 14:15,-119.8764,39.6682,1539.00,21.20,21.20,100.00,360.00,5.00,0.00,29.72,M,10.00,M,FEW,SCT,BKN,M,200.00,1500.00,3800.00,M,M,M,M,M,M,M,M,13.57,KRTS 291415Z AUTO 36005KT 10SM FEW002 SCT015 BKN038 M06/M06 A2972 RMK AO2,M
CXP,2021-01-29 14:15,-119.7326,39.1923,1431.00,32.00,32.00,100.00,0.00,0.00,0.00,29.72,M,8.00,M,BKN,BKN,OVC,M,300.00,700.00,1600.00,M,M,M,M,M,M,M,M,32.00,KCXP 291415Z AUTO 00000KT 8SM BKN003 BKN007 OVC016 M00/M00 A2972 RMK AO2,M
HTH,2021-01-29 14:15,-118.6315,38.5448,1282.89,33.80,33.80,100.00,320.00,11.00,0.00,29.72,M,5.00,M,SCT,BKN,OVC,M,500.00,1600.00,2400.00,M,BR,M,M,M,M,M,M,24.74,KHTH 291415Z AUTO 32011KT 5SM BR SCT005 BKN016 OVC024 01/01 A2972 RMK A01,M
TMT,2021-01-29 14:15,-117.1971,39.4643,1749.34,31.80,30.20,93.73,210.00,12.00,0.00,29.67,M,10.00,M,M,M,M,M,M,M,M,M,M,M,M,M,M,M,M,21.75,KTMT 291415Z AUTO 21012KT 10SM 00/M01 A2967 RMK AO2 T10011010,M
BAM,2021-01-29 14:15,-116.8743,40.5990,1382.36,35.60,35.60,100.00,250.00,4.00,0.00,29.64,M,10.00,M,BKN,OVC,M,M,1800.00,2500.00,M,M,M,M,M,M,M,M,M,31.62,KBAM 291415Z AUTO 25004KT 10SM BKN018 OVC025 02/02 A2964 RMK AO1,M
MEV,2021-01-29 14:15,-119.7500,38.9963,1441.42,26.60,26.60,100.00,120.00,5.00,0.00,29.71,M,7.00,M,OVC,M,M,M,1100.00,M,M,M,-SN,M,M,M,M,M,M,19.98,KMEV 291415Z AUTO 12005KT 7SM -SN OVC011 M03/M03 A2971 RMK AO2,M
BVU,2021-01-29 14:15,-114.8611,35.9475,671.00,48.20,33.80,57.26,200.00,6.00,0.00,29.84,M,10.00,M,OVC,M,M,M,4800.00,M,M,M,M,M,M,M,M,M,M,45.04,KBVU 291415Z AUTO 20006KT 10SM OVC048 09/01 A2984 RMK AO2,M
LOL,2021-01-29 14:18,-118.5701,40.0684,1192.43,33.00,32.00,95.67,0.00,0.00,T,29.71,M,5.00,M,SCT,OVC,M,M,600.00,3100.00,M,M,-SN BR,M,M,M,M,M,M,33.10,KLOL 291418Z AUTO 00000KT 5SM -SN BR SCT006 OVC031 01/00 A2971 RMK AO2 SNB1356 P0000 T00060000,M
TPH,2021-01-29 14:21,-117.0904,38.0505,1654.00,32.00,32.00,100.00,170.00,8.00,0.00,29.69,M,7.00,M,OVC,M,M,M,600.00,M,M,M,M,M,M,M,M,M,M,24.11,KTPH 291421Z AUTO 17008KT 7SM OVC006 00/00 A2969 RMK AO2 T00000000,M
NFL,2021-01-29 14:22,-118.7010,39.4166,1199.00,33.00,32.00,95.67,230.00,3.00,T,29.73,M,1.75,M,OVC,M,M,M,900.00,M,M,M,-SN BR,M,M,M,M,M,M,29.95,KNFL 291422Z AUTO 23003KT 1 3/4SM -SN BR OVC009 01/00 A2973 RMK AO2 P0000 T00060000,M
NFL,2021-01-29 14:29,-118.7010,39.4166,1199.00,32.00,32.00,100.00,230.00,4.00,T,29.73,M,2.50,M,OVC,M,M,M,900.00,M,M,M,-SN BR,M,M,M,M,M,M,27.42,KNFL 291429Z 23004KT 2 1/2SM -SN BR OVC009 00/00 A2973 RMK AO2 P0000 T00000000,M
05U,2021-01-29 14:30,-116.0051,39.6042,1811.23,33.80,26.60,74.63,170.00,17.00,0.00,29.67,M,7.00,M,FEW,BKN,OVC,M,2400.00,3400.00,8500.00,M,M,M,M,M,M,M,M,22.43,K05U 291430Z AUTO 17017KT 7SM FEW024 BKN034 OVC085 01/M03 A2967 RMK A01,M
TPH,2021-01-29 14:32,-117.0904,38.0505,1654.00,32.00,32.00,100.00,170.00,10.00,0.00,29.69,M,8.00,M,OVC,M,M,M,400.00,M,M,M,M,M,M,M,M,M,M,22.97,KTPH 291432Z AUTO 17010KT 8SM OVC004 00/00 A2969 RMK AO2 T00000000,M
LSV,2021-01-29 14:33,-115.0343,36.2362,570.00,50.00,35.60,57.52,180.00,9.00,0.00,29.85,M,10.00,M,OVC,M,M,M,8000.00,M,M,M,M,M,M,M,M,M,M,50.00,KLSV 291433Z 18009KT 10SM OVC080 10/02 A2985 RMK RAE1357 SLPNO RVRNO $,M
HTH,2021-01-29 14:35,-118.6315,38.5448,1282.89,33.80,33.80,100.00,310.00,10.00,0.00,29.73,M,10.00,M,SCT,SCT,OVC,M,600.00,1600.00,2600.00,M,M,M,M,M,M,M,M,25.23,KHTH 291435Z AUTO 31010KT 10SM SCT006 SCT016 OVC026 01/01 A2973 RMK A01,M
BAM,2021-01-29 14:35,-116.8743,40.5990,1382.36,35.60,35.60,100.00,240.00,6.00,0.00,29.65,M,10.00,M,OVC,M,M,M,1600.00,M,M,M,M,M,M,M,M,M,M,29.87,KBAM 291435Z AUTO 24006KT 10SM OVC016 02/02 A2965 RMK AO1,M
TMT,2021-01-29 14:35,-117.1971,39.4643,1749.34,31.80,30.20,93.73,210.00,13.00,0.00,29.68,M,10.00,M,M,M,M,M,M,M,M,M,M,M,M,M,M,M,M,21.31,KTMT 291435Z AUTO 21013KT 10SM 00/M01 A2968 RMK AO2 T10011010,M
RTS,2021-01-29 14:35,-119.8764,39.6682,1539.00,23.00,23.00,100.00,340.00,4.00,0.00,29.73,M,1.00,M,BKN,OVC,M,M,200.00,1400.00,M,M,BR,M,M,M,M,M,M,16.91,KRTS 291435Z AUTO 34004KT 1SM BR BKN002 OVC014 M05/M05 A2973 RMK AO2,M
BVU,2021-01-29 14:35,-114.8611,35.9475,671.00,48.20,35.60,61.52,180.00,6.00,0.00,29.85,M,10.00,M,FEW,OVC,M,M,3700.00,4600.00,M,M,M,M,M,M,M,M,M,45.04,KBVU 291435Z AUTO 18006KT 10SM FEW037 OVC046 09/02 A2985 RMK AO2,M
MEV,2021-01-29 14:35,-119.7500,38.9963,1441.42,28.40,28.40,100.00,0.00,0.00,0.00,29.72,M,10.00,M,SCT,OVC,M,M,600.00,1100.00,M,M,M,M,M,M,M,M,M,28.40,KMEV 291435Z AUTO 00000KT 10SM SCT006 OVC011 M02/M02 A2972 RMK AO2,M
NFL,2021-01-29 14:35,-118.7010,39.4166,1199.00,32.00,32.00,100.00,230.00,4.00,T,29.73,M,2.00,M,OVC,M,M,M,800.00,M,M,M,-SN BR,M,M,M,M,M,M,27.42,KNFL 291435Z 23004KT 2SM -SN BR OVC008 00/00 A2973 RMK AO2 P0000 T00000000,M
CXP,2021-01-29 14:35,-119.7326,39.1923,1431.00,30.20,30.20,100.00,0.00,0.00,0.00,29.73,M,3.00,M,BKN,OVC,M,M,400.00,1100.00,M,M,-SN,M,M,M,M,M,M,30.20,KCXP 291435Z AUTO 00000KT 3SM -SN BKN004 OVC011 M01/M01 A2973 RMK AO2,M
LOL,2021-01-29 14:45,-118.5701,40.0684,1192.43,33.00,32.00,95.67,270.00,5.00,T,29.72,M,8.00,M,BKN,OVC,M,M,600.00,4900.00,M,M,M,M,M,M,M,M,M,27.70,KLOL 291445Z AUTO 27005KT 8SM BKN006 OVC049 01/00 A2972 RMK AO2 SNB1356E32 P0000 T00060000,M
05U,2021-01-29 14:50,-116.0051,39.6042,1811.23,33.80,26.60,74.63,170.00,14.00,0.00,29.67,M,5.00,20.00,FEW,BKN,OVC,M,2500.00,3100.00,3900.00,M,HZ,M,M,M,M,M,M,23.48,K05U 291450Z AUTO 17014G20KT 5SM HZ FEW025 BKN031 OVC039 01/M03 A2967 RMK A01,M
VGT,2021-01-29 14:53,-115.1933,36.2111,667.00,48.00,35.00,60.76,150.00,7.00,0.00,29.78,1009.90,10.00,M,SCT,M,M,M,10000.00,M,M,M,M,M,M,M,M,M,M,44.28,KVGT 291453Z 15007KT 10SM SCT100 09/02 A2978 RMK AO2 SLP099 T00890017 53008,M
ELY,2021-01-29 14:53,-114.8453,39.2950,1909.00,30.90,25.00,78.48,160.00,18.00,T,29.70,1005.10,9.00,24.00,SCT,SCT,BKN,M,3600.00,5000.00,10000.00,M,M,M,M,M,M,M,M,18.30,KELY 291453Z AUTO 16018G24KT 9SM SCT036 SCT050 BKN100 M01/M04 A2970 RMK AO2 SNE03B35E48 SLP051 P0000 60000 T10061039 56012,M
LOL,2021-01-29 14:53,-118.5701,40.0684,1192.43,33.00,32.00,95.67,290.00,4.00,T,29.72,1007.30,5.00,M,BKN,OVC,M,M,600.00,7000.00,M,M,BR,M,M,M,M,M,M,28.70,KLOL 291453Z AUTO 29004KT 5SM BR BKN006 OVC070 01/00 A2972 RMK AO2 SNB1356E32 SLP073 P0000 60003 T00060000 53009,M
P68,2021-01-29 14:53,-116.0056,39.6014,1993.00,33.00,28.00,81.30,170.00,16.00,0.00,29.65,1002.30,M,M,M,M,M,M,M,M,M,M,M,M,M,M,27.00,170.00,2021-01-29 14:10,21.85,KP68 291453Z AUTO 17016KT 01/M02 A2965 RMK AO1 PK WND 17027/1410 SLP023 T00061022 55007,M
DRA,2021-01-29 14:53,-116.0278,36.6206,1009.00,43.00,34.00,70.30,M,M,0.00,29.77,1007.30,10.00,M,BKN,M,M,M,10000.00,M,M,M,M,M,M,M,M,M,M,M,KDRA 291453Z AUTO 10SM BKN100 06/01 A2977 RMK AO2 SLP073 60006 T00610011 55003,M
BVU,2021-01-29 14:55,-114.8611,35.9475,671.00,46.40,35.60,65.83,170.00,8.00,0.00,29.85,M,10.00,M,BKN,OVC,M,M,3400.00,4400.00,M,M,M,M,M,M,M,M,M,41.85,KBVU 291455Z AUTO 17008KT 10SM BKN034 OVC044 08/02 A2985 RMK AO2,M
RNO,2021-01-29 14:55,-119.7711,39.4839,1341.00,30.90,30.00,96.41,0.00,0.00,0.00,29.73,1007.40,1.75,M,SCT,BKN,BKN,M,400.00,1600.00,2900.00,M,BR,M,M,M,M,M,M,30.90,KRNO 291455Z 00000KT 1 3/4SM BR SCT004 BKN016 BKN029 M01/M01 A2973 RMK AO2 SLP074 60000 T10061011 53011,M
RTS,2021-01-29 14:55,-119.8764,39.6682,1539.00,21.20,19.40,92.63,0.00,0.00,0.00,29.73,M,0.25,M,BKN,OVC,M,M,200.00,3000.00,M,M,FZFG,M,M,M,M,M,M,21.20,KRTS 291455Z AUTO 00000KT 1/4SM FZFG BKN002 OVC030 M06/M07 A2973 RMK AO2,M
MEV,2021-01-29 14:55,-119.7500,38.9963,1441.42,28.40,28.40,100.00,30.00,3.00,0.00,29.73,M,10.00,M,OVC,M,M,M,500.00,M,M,M,M,M,M,M,M,M,M,24.57,KMEV 291455Z AUTO 03003KT 10SM OVC005 M02/M02 A2973 RMK AO2,M
CXP,2021-01-29 14:55,-119.7326,39.1923,1431.00,30.20,30.20,100.00,0.00,0.00,0.00,29.74,M,1.75,M,OVC,M,M,M,300.00,M,M,M,BR,M,M,M,M,M,M,30.20,KCXP 291455Z AUTO 00000KT 1 3/4SM BR OVC003 M01/M01 A2974 RMK AO2,M
TMT,2021-01-29 14:55,-117.1971,39.4643,1749.34,31.80,29.70,91.84,220.00,8.00,0.00,29.68,M,10.00,M,M,M,M,M,M,M,M,M,-SN,M,M,M,M,M,M,23.87,KTMT 291455Z AUTO 22008KT 10SM -SN 00/M01 A2968 RMK AO2 60001 T10011013,M
BAM,2021-01-29 14:55,-116.8743,40.5990,1382.36,33.80,33.80,100.00,220.00,5.00,0.00,29.65,M,7.00,M,BKN,OVC,M,M,1400.00,1900.00,M,M,M,M,M,M,M,M,M,28.53,KBAM 291455Z AUTO 22005KT 7SM BKN014 OVC019 01/01 A2965 RMK AO1,M
HTH,2021-01-29 14:55,-118.6315,38.5448,1282.89,33.80,33.80,100.00,320.00,12.00,0.00,29.73,M,10.00,M,SCT,BKN,OVC,M,700.00,2700.00,3800.00,M,M,M,M,M,M,M,M,24.29,KHTH 291455Z AUTO 32012KT 10SM SCT007 BKN027 OVC038 01/01 A2973 RMK A01,M
WMC,2021-01-29 14:56,-117.8072,40.9019,1315.00,33.00,30.00,88.23,280.00,5.00,0.01,29.69,1005.80,9.00,M,FEW,OVC,M,M,2600.00,3400.00,M,M,-SN,M,M,M,M,M,M,27.70,KWMC 291456Z AUTO 28005KT 9SM -SN FEW026 OVC034 01/M01 A2969 RMK AO2 SLP058 P0001 60011 T00061011 53013,M
HND,2021-01-29 14:56,-115.1344,35.9729,742.79,46.00,35.00,65.52,170.00,11.00,0.00,29.84,1012.40,10.00,M,BKN,M,M,M,11000.00,M,M,M,M,M,M,M,M,M,M,40.16,KHND 291456Z 17011KT 10SM BKN110 08/02 A2984 RMK AO2 SLP124 60000 T00780017 51010,M
NFL,2021-01-29 14:56,-118.7010,39.4166,1199.00,33.00,32.00,95.67,0.00,0.00,T,29.73,1004.90,2.00,M,OVC,M,M,M,700.00,M,M,M,-SN BR,M,M,M,M,M,M,33.10,KNFL 291456Z 00000KT 2SM -SN BR OVC007 01/00 A2973 RMK AO2 SLP049 P0000 60006 T00060000 53008,M
EKO,2021-01-29 14:56,-115.7860,40.8242,1367.00,37.00,27.00,66.82,210.00,11.00,0.00,29.65,1004.30,10.00,15.00,BKN,OVC,M,M,4400.00,7500.00,M,M,M,M,M,M,M,M,M,28.79,KEKO 291456Z AUTO 21011G15KT 10SM BKN044 OVC075 03/M03 A2965 RMK AO2 SLP043 T00281028 55003,M
TPH,2021-01-29 14:56,-117.0904,38.0505,1654.00,32.00,32.00,100.00,170.00,9.00,0.00,29.70,1005.50,10.00,M,OVC,M,M,M,600.00,M,M,M,M,M,M,M,M,M,M,23.51,KTPH 291456Z AUTO 17009KT 10SM OVC006 00/00 A2970 RMK AO2 SLP055 60000 T00000000 53003,M
INS,2021-01-29 14:56,-115.6733,36.5872,955.00,42.40,32.20,66.93,0.00,0.00,0.00,29.77,1007.00,10.00,M,CLR,M,M,M,M,M,M,M,M,M,M,M,M,M,M,42.40,KINS 291456Z AUTO 00000KT 10SM CLR 06/00 A2977 RMK AO2 SLP070 T00580001 50003 $,M
LAS,2021-01-29 14:56,-115.1634,36.0719,663.00,48.00,35.00,60.76,190.00,4.00,0.00,29.82,1009.60,10.00,M,SCT,BKN,M,M,8000.00,11000.00,M,M,M,M,M,M,M,M,M,46.10,KLAS 291456Z 19004KT 10SM SCT080 BKN110 09/02 A2982 RMK AO2 SLP096 MTNS OBSCURED DSNT SW-NW 60000 T00890017 51008,M
LSV,2021-01-29 14:58,-115.0343,36.2362,570.00,49.00,36.30,61.15,160.00,10.00,0.00,29.81,M,10.00,M,M,M,M,M,M,M,M,M,M,M,M,M,M,M,M,44.41,KLSV 291458Z 16010KT 10SM M 10/02 A2981 RMK RAE1357 PRESFR SLPNO T00950024 $,M
RNO,2021-01-29 15:08,-119.7711,39.4839,1341.00,30.90,30.00,96.41,70.00,3.00,0.00,29.73,M,2.50,M,SCT,BKN,M,M,400.00,1500.00,M,M,BR,M,M,M,M,M,M,27.43,KRNO 291508Z 07003KT 2 1/2SM BR SCT004 BKN015 M01/M01 A2973 RMK AO2 T10061011 $,M
05U,2021-01-29 15:10,-116.0051,39.6042,1811.23,33.80,26.60,74.63,170.00,16.00,0.00,29.67,M,4.00,23.00,BKN,BKN,M,M,3500.00,4300.00,M,M,HZ,M,M,M,M,M,M,22.76,K05U 291510Z AUTO 17016G23KT 4SM HZ BKN035 BKN043 01/M03 A2967 RMK A01,M
HTH,2021-01-29 15:15,-118.6315,38.5448,1282.89,33.80,33.80,100.00,310.00,9.00,0.00,29.74,M,10.00,M,OVC,M,M,M,700.00,M,M,M,M,M,M,M,M,M,M,25.75,KHTH 291515Z AUTO 31009KT 10SM OVC007 01/01 A2974 RMK A01,M
BVU,2021-01-29 15:15,-114.8611,35.9475,671.00,46.40,37.40,70.68,190.00,12.00,0.00,29.85,M,10.00,17.00,SCT,OVC,M,M,3300.00,4000.00,M,M,M,M,M,M,M,M,M,40.33,KBVU 291515Z AUTO 19012G17KT 10SM SCT033 OVC040 08/03 A2985 RMK AO2,M
CXP,2021-01-29 15:15,-119.7326,39.1923,1431.00,32.00,32.00,100.00,0.00,0.00,0.00,29.74,M,1.25,M,OVC,M,M,M,200.00,M,M,M,-SN,M,M,M,M,M,M,32.00,KCXP 291515Z AUTO 00000KT 1 1/4SM -SN OVC002 M00/M00 A2974 RMK AO2,M
BAM,2021-01-29 15:15,-116.8743,40.5990,1382.36,33.80,33.80,100.00,220.00,6.00,0.00,29.67,M,1.75,M,BKN,OVC,M,M,700.00,1700.00,M,M,M,M,M,M,M,M,M,27.70,KBAM 291515Z AUTO 22006KT 1 3/4SM BKN007 OVC017 01/01 A2967 RMK AO1,M
TPH,2021-01-29 15:15,-117.0904,38.0505,1654.00,32.00,32.00,100.00,200.00,7.00,0.00,29.71,M,10.00,M,OVC,M,M,M,700.00,M,M,M,M,M,M,M,M,M,M,24.78,KTPH 291515Z AUTO 20007KT 10SM OVC007 00/00 A2971 RMK AO2 T00000000,M
MEV,2021-01-29 15:15,-119.7500,38.9963,1441.42,30.20,28.40,92.92,50.00,5.00,0.00,29.73,M,4.00,M,OVC,M,M,M,400.00,M,M,M,UP BR,M,M,M,M,M,M,24.26,KMEV 291515Z AUTO 05005KT 4SM UP BR OVC004 M01/M02 A2973 RMK AO2,M
RTS,2021-01-29 15:15,-119.8764,39.6682,1539.00,21.20,21.20,100.00,340.00,5.00,0.00,29.74,M,0.25,M,OVC,M,M,M,200.00,M,M,M,-UP,M,M,M,M,M,M,13.57,KRTS 291515Z AUTO 34005KT M1/4SM -UP OVC002 M06/M06 A2974 RMK AO2,M
TMT,2021-01-29 15:15,-117.1971,39.4643,1749.34,31.30,29.30,92.20,190.00,7.00,0.00,29.68,M,10.00,M,M,M,M,M,M,M,M,M,M,M,M,M,M,M,M,23.93,KTMT 291515Z AUTO 19007KT 10SM 00/M01 A2968 RMK AO2 T10041015,M
WMC,2021-01-29 15:19,-117.8072,40.9019,1315.00,33.00,30.00,88.23,320.00,5.00,T,29.69,M,7.00,M,BKN,BKN,OVC,M,1200.00,2700.00,3600.00,M,-SN,M,M,M,M,M,M,27.70,KWMC 291519Z AUTO 32005KT 7SM -SN BKN012 BKN027 OVC036 01/M01 A2969 RMK AO2 P0000 T00061011,M
RNO,2021-01-29 15:19,-119.7711,39.4839,1341.00,30.00,30.00,100.00,70.00,3.00,0.00,29.74,M,5.00,M,SCT,BKN,BKN,M,400.00,1800.00,3200.00,M,BR,M,M,M,M,M,M,26.40,KRNO 291519Z 07003KT 5SM BR SCT004 BKN018 BKN032 M01/M01 A2974 RMK AO2 VIS LWR S THRU W T10111011 $,M
WMC,2021-01-29 15:27,-117.8072,40.9019,1315.00,33.00,30.00,88.23,290.00,6.00,T,29.69,M,8.00,M,SCT,SCT,OVC,M,1300.00,2700.00,3200.00,M,-SN,M,M,M,M,M,M,26.86,KWMC 291527Z AUTO 29006KT 8SM -SN SCT013 SCT027 OVC032 01/M01 A2969 RMK AO2 P0000 T00061011,M
05U,2021-01-29 15:30,-116.0051,39.6042,1811.23,33.80,26.60,74.63,180.00,19.00,0.00,29.67,M,2.50,26.00,FEW,M,M,M,3600.00,M,M,M,HZ,M,M,M,M,M,M,21.82,K05U 291530Z AUTO 18019G26KT 2 1/2SM HZ FEW036 01/M03 A2967 RMK A01,M
TPH,2021-01-29 15:31,-117.0904,38.0505,1654.00,32.00,32.00,100.00,190.00,9.00,T,29.71,M,7.00,M,BKN,OVC,M,M,500.00,900.00,M,M,-SN,M,M,M,M,M,M,23.51,KTPH 291531Z AUTO 19009KT 7SM -SN BKN005 OVC009 00/00 A2971 RMK AO2 SNB24 P0000 T00000000,M
INS,2021-01-29 15:31,-115.6733,36.5872,955.00,41.00,33.80,75.33,60.00,3.00,0.00,29.77,1007.20,10.00,M,SCT,BKN,M,M,5000.00,8000.00,M,M,M,M,M,M,M,M,M,38.98,KINS 291531Z AUTO 06003KT 10SM SCT050 BKN080 05/01 A2977 RMK AO2 SLP072 $,M
MEV,2021-01-29 15:35,-119.7500,38.9963,1441.42,30.20,28.40,92.92,100.00,6.00,0.00,29.73,M,0.75,M,OVC,M,M,M,300.00,M,M,M,-SN BR,M,M,M,M,M,M,23.36,KMEV 291535Z AUTO 10006KT 3/4SM -SN BR OVC003 M01/M02 A2973 RMK AO2,M
BAM,2021-01-29 15:35,-116.8743,40.5990,1382.36,33.80,33.80,100.00,230.00,6.00,0.00,29.67,M,1.50,M,BKN,OVC,M,M,300.00,700.00,M,M,M,M,M,M,M,M,M,27.70,KBAM 291535Z AUTO 23006KT 1 1/2SM BKN003 OVC007 01/01 A2967 RMK AO1,M
HTH,2021-01-29 15:35,-118.6315,38.5448,1282.89,33.80,33.80,100.00,320.00,9.00,0.00,29.74,M,10.00,M,SCT,BKN,OVC,M,700.00,3700.00,4700.00,M,M,M,M,M,M,M,M,25.75,KHTH 291535Z AUTO 32009KT 10SM SCT007 BKN037 OVC047 01/01 A2974 RMK A01,M
TMT,2021-01-29 15:35,-117.1971,39.4643,1749.34,30.90,28.90,92.18,220.00,6.00,0.00,29.70,M,10.00,M,M,M,M,M,M,M,M,M,M,M,M,M,M,M,M,24.21,KTMT 291535Z AUTO 22006KT 10SM M01/M02 A2970 RMK AO2 T10061017,M
BVU,2021-01-29 15:35,-114.8611,35.9475,671.00,46.40,37.40,70.68,180.00,12.00,0.00,29.86,M,10.00,M,FEW,OVC,M,M,4000.00,6000.00,M,M,M,M,M,M,M,M,M,40.33,KBVU 291535Z AUTO 18012KT 10SM FEW040 OVC060 08/03 A2986 RMK AO2,M
RTS,2021-01-29 15:35,-119.8764,39.6682,1539.00,23.00,21.20,92.69,330.00,3.00,0.00,29.75,M,10.00,M,FEW,OVC,M,M,200.00,3900.00,M,M,M,M,M,M,M,M,M,18.40,KRTS 291535Z AUTO 33003KT 10SM FEW002 OVC039 M05/M06 A2975 RMK AO2,M
CXP,2021-01-29 15:35,-119.7326,39.1923,1431.00,32.00,32.00,100.00,0.00,0.00,0.00,29.75,M,1.00,M,OVC,M,M,M,200.00,M,M,M,-SN,M,M,M,M,M,M,32.00,KCXP 291535Z AUTO 00000KT 1SM -SN OVC002 M00/M00 A2975 RMK AO2,M
WMC,2021-01-29 15:36,-117.8072,40.9019,1315.00,33.00,30.00,88.23,290.00,5.00,0.01,29.69,M,9.00,M,BKN,BKN,OVC,M,1300.00,3800.00,4600.00,M,-SN,M,M,M,M,M,M,27.70,KWMC 291536Z AUTO 29005KT 9SM -SN BKN013 BKN038 OVC046 01/M01 A2969 RMK AO2 P0001 T00061011,M
LOL,2021-01-29 15:44,-118.5701,40.0684,1192.43,32.00,32.00,100.00,0.00,0.00,0.00,29.74,M,10.00,M,OVC,M,M,M,1000.00,M,M,M,M,M,M,M,M,M,M,32.00,KLOL 291544Z AUTO 00000KT 10SM OVC010 00/00 A2974 RMK AO2 T00000000,M
INS,2021-01-29 15:46,-115.6733,36.5872,955.00,42.80,33.80,70.28,30.00,4.00,0.00,29.77,1007.00,10.00,M,SCT,SCT,M,M,5000.00,8000.00,M,M,M,M,M,M,M,M,M,40.03,KINS 291546Z AUTO 03004KT 10SM SCT050 SCT080 06/01 A2977 RMK AO2 SLP070 $,M
NFL,2021-01-29 15:49,-118.7010,39.4166,1199.00,30.90,30.90,100.00,160.00,4.00,T,29.74,M,0.25,M,BKN,OVC,M,M,500.00,6000.00,M,M,FZFG,M,M,M,M,M,M,26.14,KNFL 291549Z 16004KT 1/4SM FZFG BKN005 OVC060 M01/M01 A2974 RMK AO2 SNE49 P0000 T10061006,M
05U,2021-01-29 15:50,-116.0051,39.6042,1811.23,33.80,26.60,74.63,180.00,14.00,0.00,29.66,M,5.00,24.00,CLR,M,M,M,M,M,M,M,HZ,M,M,M,M,M,M,23.48,K05U 291550Z AUTO 18014G24KT 5SM HZ CLR 01/M03 A2966 RMK A01,M
LOL,2021-01-29 15:53,-118.5701,40.0684,1192.43,33.00,32.00,95.67,0.00,0.00,0.00,29.74,1007.80,10.00,M,BKN,OVC,M,M,1100.00,2600.00,M,M,M,M,M,M,M,M,M,33.10,KLOL 291553Z AUTO 00000KT 10SM BKN011 OVC026 01/00 A2974 RMK AO2 SLP078 T00060000,M
ELY,2021-01-29 15:53,-114.8453,39.2950,1909.00,32.00,26.10,78.58,160.00,18.00,T,29.70,1005.10,10.00,25.00,SCT,BKN,BKN,M,4700.00,5500.00,7000.00,M,M,M,M,M,27.00,160.00,2021-01-29 15:13,19.75,KELY 291553Z AUTO 16018G25KT 10SM SCT047 BKN055 BKN070 00/M03 A2970 RMK AO2 PK WND 16027/1513 UPB10E14SNB01E07B14E40 SLP051 P0000 T00001033,M
VGT,2021-01-29 15:53,-115.1933,36.2111,667.00,49.00,34.00,56.23,160.00,6.00,0.00,29.80,1010.60,10.00,M,FEW,BKN,OVC,M,4900.00,7000.00,9000.00,M,M,M,M,M,M,M,M,45.88,KVGT 291553Z 16006KT 10SM FEW049 BKN070 OVC090 09/01 A2980 RMK AO2 SLP106 T00940011,M
P68,2021-01-29 15:53,-116.0056,39.6014,1993.00,34.00,26.10,72.52,170.00,17.00,0.00,29.64,1002.00,M,28.00,M,M,M,M,M,M,M,M,M,M,M,M,31.00,170.00,2021-01-29 15:22,22.70,KP68 291553Z AUTO 17017G28KT 01/M03 A2964 RMK AO1 PK WND 17031/1522 SLP020 T00111033,M
DRA,2021-01-29 15:53,-116.0278,36.6206,1009.00,42.00,36.00,78.80,190.00,17.00,0.00,29.79,1007.80,10.00,23.00,OVC,M,M,M,10000.00,M,M,M,M,M,M,M,27.00,180.00,2021-01-29 15:28,33.31,KDRA 291553Z AUTO 19017G23KT 10SM OVC100 06/02 A2979 RMK AO2 PK WND 18027/1528 SLP078 T00560022,M
TPH,2021-01-29 15:54,-117.0904,38.0505,1654.00,32.00,32.00,100.00,190.00,8.00,T,29.72,M,10.00,M,BKN,OVC,M,M,700.00,1000.00,M,M,M,M,M,M,M,M,M,24.11,KTPH 291554Z AUTO 19008KT 10SM BKN007 OVC010 00/00 A2972 RMK AO2 SNB24E37 P0000,M
RNO,2021-01-29 15:55,-119.7711,39.4839,1341.00,30.00,28.00,92.15,340.00,4.00,0.00,29.75,1008.50,6.00,M,SCT,BKN,BKN,M,400.00,1800.00,3200.00,M,BR,M,M,M,M,M,M,25.08,KRNO 291555Z 34004KT 6SM BR SCT004 BKN018 BKN032 M01/M02 A2975 RMK AO2 SLP085 VIS LWR SE THRU W T10111022,M
RTS,2021-01-29 15:55,-119.8764,39.6682,1539.00,23.00,23.00,100.00,20.00,5.00,0.00,29.75,M,10.00,M,OVC,M,M,M,3900.00,M,M,M,M,M,M,M,M,M,M,15.71,KRTS 291555Z AUTO 02005KT 10SM OVC039 M05/M05 A2975 RMK AO2,M
CXP,2021-01-29 15:55,-119.7326,39.1923,1431.00,30.20,30.20,100.00,0.00,0.00,0.00,29.75,M,2.00,M,OVC,M,M,M,400.00,M,M,M,-SN,M,M,M,M,M,M,30.20,KCXP 291555Z AUTO 00000KT 2SM -SN OVC004 M01/M01 A2975 RMK AO2 VIS 1V5,M
MEV,2021-01-29 15:55,-119.7500,38.9963,1441.42,28.40,28.40,100.00,0.00,0.00,0.00,29.74,M,9.00,M,FEW,SCT,BKN,M,300.00,1200.00,2200.00,M,UP,M,M,M,M,M,M,28.40,KMEV 291555Z AUTO 00000KT 9SM UP FEW003 SCT012 BKN022 M02/M02 A2974 RMK AO2,M
TMT,2021-01-29 15:55,-117.1971,39.4643,1749.34,30.90,28.40,90.31,260.00,7.00,0.00,29.70,M,10.00,M,M,M,M,M,M,M,M,M,M,M,M,M,M,M,M,23.44,KTMT 291555Z AUTO 26007KT 10SM M01/M02 A2970 RMK AO2 T10061020,M
BAM,2021-01-29 15:55,-116.8743,40.5990,1382.36,33.80,33.80,100.00,250.00,6.00,0.00,29.68,M,3.00,M,BKN,OVC,M,M,300.00,900.00,M,M,M,M,M,M,M,M,M,27.70,KBAM 291555Z AUTO 25006KT 3SM BKN003 OVC009 01/01 A2968 RMK AO1,M
HTH,2021-01-29 15:55,-118.6315,38.5448,1282.89,33.80,33.80,100.00,320.00,7.00,0.00,29.75,M,10.00,M,SCT,BKN,OVC,M,700.00,4700.00,8000.00,M,M,M,M,M,M,M,M,26.97,KHTH 291555Z AUTO 32007KT 10SM SCT007 BKN047 OVC080 01/01 A2975 RMK A01,M
BVU,2021-01-29 15:55,-114.8611,35.9475,671.00,46.40,39.20,75.84,170.00,9.00,0.00,29.87,M,9.00,M,FEW,SCT,BKN,M,2800.00,3400.00,4900.00,M,M,M,M,M,M,M,M,41.42,KBVU 291555Z AUTO 17009KT 9SM FEW028 SCT034 BKN049 08/04 A2987 RMK AO2,M
TPH,2021-01-29 15:56,-117.0904,38.0505,1654.00,32.00,32.00,100.00,200.00,10.00,T,29.72,1006.30,10.00,M,BKN,OVC,M,M,700.00,1000.00,M,M,M,M,M,M,M,M,M,22.97,KTPH 291556Z AUTO 20010KT 10SM BKN007 OVC010 00/00 A2972 RMK AO2 SNB24E37 SLP063 P0000 T00000000,M
INS,2021-01-29 15:56,-115.6733,36.5872,955.00,42.60,33.40,69.70,0.00,0.00,0.00,29.77,1007.00,10.00,M,FEW,FEW,SCT,M,4300.00,5000.00,8500.00,M,M,M,M,M,M,M,M,42.60,KINS 291556Z AUTO 00000KT 10SM FEW043 FEW050 SCT085 06/01 A2977 RMK AO2 SLP070 T00590008 $,M
EKO,2021-01-29 15:56,-115.7860,40.8242,1367.00,37.00,27.00,66.82,200.00,11.00,0.00,29.66,1004.50,10.00,22.00,SCT,BKN,OVC,M,4200.00,4900.00,7000.00,M,M,M,M,M,M,M,M,28.79,KEKO 291556Z AUTO 20011G22KT 10SM SCT042 BKN049 OVC070 03/M03 A2966 RMK AO2 SLP045 T00281028,M
WMC,2021-01-29 15:56,-117.8072,40.9019,1315.00,33.00,30.00,88.23,290.00,5.00,0.01,29.70,1006.10,9.00,M,BKN,BKN,OVC,M,1100.00,2200.00,6000.00,M,-SN,M,M,M,M,M,M,27.70,KWMC 291556Z AUTO 29005KT 9SM -SN BKN011 BKN022 OVC060 01/M01 A2970 RMK AO2 SLP061 P0001 T00061011,M
LAS,2021-01-29 15:56,-115.1634,36.0719,663.00,47.00,36.00,65.63,190.00,8.00,0.00,29.83,1010.10,10.00,M,BKN,BKN,OVC,M,5500.00,7500.00,10000.00,M,M,M,M,M,M,M,M,42.47,KLAS 291556Z 19008KT 10SM BKN055 BKN075 OVC100 08/02 A2983 RMK AO2 SLP101 MTNS OBSCURED DSNT N AND SW-NW SH DSNT N AND SW-NW T00830022,M
HND,2021-01-29 15:56,-115.1344,35.9729,742.79,46.00,37.00,70.64,200.00,5.00,T,29.85,1012.70,10.00,M,FEW,BKN,OVC,M,3300.00,8000.00,10000.00,M,M,M,M,M,M,M,M,43.02,KHND 291556Z 20005KT 10SM FEW033 BKN080 OVC100 08/03 A2985 RMK AO2 RAB29E45 SLP127 P0000 T00780028,M
NFL,2021-01-29 15:56,-118.7010,39.4166,1199.00,30.90,30.90,100.00,160.00,3.00,T,29.75,1005.30,0.25,M,BKN,OVC,M,M,500.00,1000.00,M,M,FZFG,M,M,M,M,M,M,27.43,KNFL 291556Z 16003KT 1/4SM FZFG BKN005 OVC010 M01/M01 A2975 RMK AO2 SNE49 SLP053 P0000 T10061006,M
LSV,2021-01-29 15:56,-115.0343,36.2362,570.00,49.60,36.30,60.02,180.00,10.00,0.00,29.84,M,10.00,M,OVC,M,M,M,5500.00,M,M,M,M,M,M,M,M,M,M,45.04,KLSV 291556Z AUTO 18010KT 10SM OVC055 10/02 A2984 RMK AO2 SLPNO T00980024 $,M
LSV,2021-01-29 16:01,-115.0343,36.2362,570.00,50.00,35.60,57.52,180.00,10.00,0.00,29.83,1009.80,10.00,M,BKN,OVC,M,M,4900.00,6000.00,M,M,M,M,M,M,M,M,M,50.00,KLSV 291601Z AUTO 18010KT 10SM BKN049 OVC060 10/02 A2983 RMK AO2 SLP098 $,M
LOL,2021-01-29 16:01,-118.5701,40.0684,1192.43,32.00,32.00,100.00,120.00,4.00,0.00,29.74,M,10.00,M,FEW,BKN,OVC,M,600.00,1100.00,3600.00,M,M,M,M,M,M,M,M,27.42,KLOL 291601Z AUTO 12004KT 10SM FEW006 BKN011 OVC036 00/00 A2974 RMK AO2 T00000000,M
05U,2021-01-29 16:10,-116.0051,39.6042,1811.23,33.80,24.80,69.25,180.00,15.00,0.00,29.67,M,10.00,24.00,CLR,M,M,M,M,M,M,M,M,M,M,M,M,M,M,23.11,K05U 291610Z AUTO 18015G24KT 10SM CLR 01/M04 A2967 RMK A01,M
LOL,2021-01-29 16:12,-118.5701,40.0684,1192.43,32.00,32.00,100.00,160.00,3.00,0.00,29.74,M,10.00,M,FEW,SCT,OVC,M,600.00,1200.00,3600.00,M,M,M,M,M,M,M,M,28.69,KLOL 291612Z AUTO 16003KT 10SM FEW006 SCT012 OVC036 00/00 A2974 RMK AO2 T00000000,M
WMC,2021-01-29 16:13,-117.8072,40.9019,1315.00,33.00,30.00,88.23,290.00,6.00,T,29.71,M,8.00,M,SCT,BKN,OVC,M,1100.00,2000.00,2500.00,M,-SN,M,M,M,M,M,M,26.86,KWMC 291613Z AUTO 29006KT 8SM -SN SCT011 BKN020 OVC025 01/M01 A2971 RMK AO2 P0000 T00061011,M
RTS,2021-01-29 16:15,-119.8764,39.6682,1539.00,24.80,24.80,100.00,0.00,0.00,0.00,29.76,M,10.00,M,OVC,M,M,M,4000.00,M,M,M,M,M,M,M,M,M,M,24.80,KRTS 291615Z AUTO 00000KT 10SM OVC040 M04/M04 A2976 RMK AO2,M
BAM,2021-01-29 16:15,-116.8743,40.5990,1382.36,33.80,33.80,100.00,240.00,8.00,0.00,29.69,M,10.00,M,SCT,BKN,OVC,M,300.00,3000.00,3700.00,M,M,M,M,M,M,M,M,26.33,KBAM 291615Z AUTO 24008KT 10SM SCT003 BKN030 OVC037 01/01 A2969 RMK AO1,M
HTH,2021-01-29 16:15,-118.6315,38.5448,1282.89,33.80,33.80,100.00,320.00,8.00,0.00,29.76,M,10.00,M,BKN,OVC,M,M,700.00,3200.00,M,M,M,M,M,M,M,M,M,26.33,KHTH 291615Z AUTO 32008KT 10SM BKN007 OVC032 01/01 A2976 RMK A01,M
CXP,2021-01-29 16:15,-119.7326,39.1923,1431.00,30.20,30.20,100.00,0.00,0.00,0.00,29.76,M,7.00,M,OVC,M,M,M,400.00,M,M,M,M,M,M,M,M,M,M,30.20,KCXP 291615Z AUTO 00000KT 7SM OVC004 M01/M01 A2976 RMK AO2,M
TMT,2021-01-29 16:15,-117.1971,39.4643,1749.34,30.70,27.30,87.03,300.00,3.00,0.00,29.71,M,10.00,M,M,M,M,M,M,M,M,M,M,M,M,M,M,M,M,27.20,KTMT 291615Z AUTO 30003KT 10SM M01/M03 A2971 RMK AO2 T10071026,M
MEV,2021-01-29 16:15,-119.7500,38.9963,1441.42,28.40,28.40,100.00,0.00,0.00,0.00,29.75,M,10.00,M,SCT,OVC,M,M,1000.00,2300.00,M,M,M,M,M,M,M,M,M,28.40,KMEV 291615Z AUTO 00000KT 10SM SCT010 OVC023 M02/M02 A2975 RMK AO2,M
BVU,2021-01-29 16:15,-114.8611,35.9475,671.00,46.40,39.20,75.84,150.00,13.00,0.00,29.86,M,10.00,M,FEW,SCT,BKN,M,3300.00,3900.00,5000.00,M,M,M,M,M,M,M,M,40.02,KBVU 291615Z AUTO 15013KT 10SM FEW033 SCT039 BKN050 08/04 A2986 RMK AO2,M
TPH,2021-01-29 16:16,-117.0904,38.0505,1654.00,32.00,32.00,100.00,180.00,13.00,T,29.72,M,7.00,M,SCT,BKN,OVC,M,1000.00,1300.00,3600.00,M,-SN,M,M,M,M,M,M,21.57,KTPH 291616Z AUTO 18013KT 7SM -SN SCT010 BKN013 OVC036 00/00 A2972 RMK AO2 SNB10 P0000 T00000000,M
NFL,2021-01-29 16:17,-118.7010,39.4166,1199.00,32.00,30.90,95.65,0.00,0.00,0.00,29.76,M,0.50,M,OVC,M,M,M,400.00,M,M,M,FZFG,M,M,M,M,M,M,32.00,KNFL 291617Z 00000KT 1/2SM FZFG OVC004 00/M01 A2976 RMK AO2 T00001006,M
EKO,2021-01-29 16:22,-115.7860,40.8242,1367.00,37.00,28.00,69.63,200.00,9.00,0.00,29.66,M,10.00,18.00,BKN,BKN,OVC,M,2400.00,3400.00,4100.00,M,M,M,M,M,M,M,M,29.73,KEKO 291622Z AUTO 20009G18KT 10SM BKN024 BKN034 OVC041 03/M02 A2966 RMK AO2 T00281022,M
LSV,2021-01-29 16:22,-115.0343,36.2362,570.00,50.00,37.40,61.76,190.00,8.00,0.00,29.83,1009.80,10.00,M,SCT,M,M,M,4700.00,M,M,M,M,M,M,M,M,M,M,50.00,KLSV 291622Z AUTO 19008KT 10SM SCT047 10/03 A2983 RMK AO2 SLP098 $,M
05U,2021-01-29 16:30,-116.0051,39.6042,1811.23,33.80,26.60,74.63,170.00,12.00,0.00,29.68,M,10.00,M,CLR,M,M,M,M,M,M,M,M,M,M,M,M,M,M,24.29,K05U 291630Z AUTO 17012KT 10SM CLR 01/M03 A2968 RMK A01,M
BVU,2021-01-29 16:35,-114.8611,35.9475,671.00,46.40,39.20,75.84,170.00,10.00,0.00,29.87,M,10.00,M,FEW,FEW,BKN,M,3900.00,5000.00,6500.00,M,M,M,M,M,M,M,M,41.03,KBVU 291635Z AUTO 17010KT 10SM FEW039 FEW050 BKN065 08/04 A2987 RMK AO2,M
HTH,2021-01-29 16:35,-118.6315,38.5448,1282.89,35.60,33.80,93.08,310.00,8.00,0.00,29.77,M,10.00,M,FEW,BKN,M,M,800.00,3500.00,M,M,M,M,M,M,M,M,M,28.55,KHTH 291635Z AUTO 31008KT 10SM FEW008 BKN035 02/01 A2977 RMK A01,M
TMT,2021-01-29 16:35,-117.1971,39.4643,1749.34,31.30,27.00,83.89,260.00,5.00,0.00,29.72,M,10.00,M,M,M,M,M,M,M,M,M,M,M,M,M,M,M,M,25.56,KTMT 291635Z AUTO 26005KT 10SM 00/M03 A2972 RMK AO2 T10041028,M
MEV,2021-01-29 16:35,-119.7500,38.9963,1441.42,28.40,28.40,100.00,0.00,0.00,0.00,29.76,M,10.00,M,OVC,M,M,M,900.00,M,M,M,M,M,M,M,M,M,M,28.40,KMEV 291635Z AUTO 00000KT 10SM OVC009 M02/M02 A2976 RMK AO2,M
RTS,2021-01-29 16:35,-119.8764,39.6682,1539.00,24.80,24.80,100.00,0.00,0.00,0.00,29.77,M,10.00,M,BKN,BKN,M,M,3700.00,4300.00,M,M,M,M,M,M,M,M,M,24.80,KRTS 291635Z AUTO 00000KT 10SM BKN037 BKN043 M04/M04 A2977 RMK AO2,M
CXP,2021-01-29 16:35,-119.7326,39.1923,1431.00,28.40,28.40,100.00,360.00,4.00,0.00,29.77,M,10.00,M,FEW,SCT,OVC,M,400.00,800.00,2200.00,M,M,M,M,M,M,M,M,23.22,KCXP 291635Z AUTO 36004KT 10SM FEW004 SCT008 OVC022 M02/M02 A2977 RMK AO2,M
BAM,2021-01-29 16:35,-116.8743,40.5990,1382.36,33.80,33.80,100.00,240.00,6.00,0.00,29.69,M,10.00,M,SCT,BKN,OVC,M,3000.00,3700.00,4400.00,M,M,M,M,M,M,M,M,27.70,KBAM 291635Z AUTO 24006KT 10SM SCT030 BKN037 OVC044 01/01 A2969 RMK AO1,M
TPH,2021-01-29 16:37,-117.0904,38.0505,1654.00,32.00,32.00,100.00,190.00,10.00,T,29.73,M,4.00,M,SCT,OVC,M,M,1200.00,3700.00,M,M,-SN BR,M,M,M,M,M,M,22.97,KTPH 291637Z AUTO 19010KT 4SM -SN BR SCT012 OVC037 00/00 A2973 RMK AO2 SNB10 P0000 T00000000,M
NFL,2021-01-29 16:38,-118.7010,39.4166,1199.00,32.00,32.00,100.00,260.00,4.00,0.00,29.76,M,1.25,M,BKN,OVC,M,M,400.00,1300.00,M,M,BR,M,M,M,M,M,M,27.42,KNFL 291638Z 26004KT 1 1/4SM BR BKN004 OVC013 00/00 A2976 RMK AO2 SLR// T00000000,M
LSV,2021-01-29 16:49,-115.0343,36.2362,570.00,50.00,39.20,66.27,200.00,9.00,0.00,29.84,M,10.00,M,FEW,M,M,M,4800.00,M,M,M,-RA,M,M,M,M,M,M,50.00,KLSV 291649Z AUTO 20009KT 10SM -RA FEW048 10/04 A2984 RMK AO2 RAB49 SLPNO $,M
INS,2021-01-29 16:49,-115.6733,36.5872,955.00,44.60,33.80,65.61,0.00,0.00,0.00,29.79,1007.70,10.00,M,SCT,SCT,M,M,4400.00,5500.00,M,M,-DZ,M,M,M,M,M,M,44.60,KINS 291649Z AUTO 00000KT 10SM -DZ SCT044 SCT055 07/01 A2979 RMK AO2 DZB49 SLP077 $,M
05U,2021-01-29 16:50,-116.0051,39.6042,1811.23,35.60,26.60,69.46,180.00,11.00,0.00,29.69,M,10.00,M,SCT,M,M,M,6000.00,M,M,M,M,M,M,M,M,M,M,27.02,K05U 291650Z AUTO 18011KT 10SM SCT060 02/M03 A2969 RMK A01,M
VGT,2021-01-29 16:53,-115.1933,36.2111,667.00,50.00,35.00,56.39,170.00,12.00,0.00,29.80,1010.80,10.00,M,BKN,M,M,M,7000.00,M,M,M,M,M,M,M,M,M,M,50.00,KVGT 291653Z 17012KT 10SM BKN070 10/02 A2980 RMK AO2 SLP108 T01000017,M
LOL,2021-01-29 16:53,-118.5701,40.0684,1192.43,33.00,32.00,95.67,200.00,4.00,0.00,29.75,1008.60,10.00,M,BKN,M,M,M,4800.00,M,M,M,M,M,M,M,M,M,M,28.70,KLOL 291653Z AUTO 20004KT 10SM BKN048 01/00 A2975 RMK AO2 SLP086 T00060000,M
DRA,2021-01-29 16:53,-116.0278,36.6206,1009.00,45.00,34.00,65.13,220.00,15.00,0.00,29.79,1007.90,10.00,M,SCT,BKN,M,M,9000.00,10000.00,M,M,M,M,M,M,M,M,M,37.63,KDRA 291653Z AUTO 22015KT 10SM SCT090 BKN100 07/01 A2979 RMK AO2 SLP079 T00720011,M
ELY,2021-01-29 16:53,-114.8453,39.2950,1909.00,33.00,26.10,75.18,160.00,18.00,T,29.70,1004.50,10.00,29.00,FEW,OVC,M,M,4800.00,5500.00,M,M,UP,M,M,M,29.00,150.00,2021-01-29 16:47,21.20,KELY 291653Z AUTO 16018G29KT 10SM UP FEW048 OVC055 01/M03 A2970 RMK AO2 PK WND 15029/1647 RAB44E53UPB45SNB1558E13 SLP045 P0000 T00061033,M
P68,2021-01-29 16:53,-116.0056,39.6014,1993.00,35.00,27.00,72.04,180.00,19.00,0.00,29.66,1002.90,M,23.00,M,M,M,M,M,M,M,M,M,M,M,M,28.00,170.00,2021-01-29 16:06,23.54,KP68 291653Z AUTO 18019G23KT 02/M03 A2966 RMK AO1 PK WND 17028/1606 SLP029 T00171028,M
INS,2021-01-29 16:54,-115.6733,36.5872,955.00,44.60,33.80,65.61,10.00,4.00,0.00,29.78,1007.40,10.00,M,FEW,SCT,BKN,M,2700.00,3700.00,4600.00,M,-DZ,M,M,M,M,M,M,42.13,KINS 291654Z AUTO 01004KT 10SM -DZ FEW027 SCT037 BKN046 07/01 A2978 RMK AO2 DZB49 SLP074 $,M
MEV,2021-01-29 16:55,-119.7500,38.9963,1441.42,30.20,28.40,92.92,0.00,0.00,0.00,29.77,M,10.00,M,OVC,M,M,M,800.00,M,M,M,M,M,M,M,M,M,M,30.20,KMEV 291655Z AUTO 00000KT 10SM OVC008 M01/M02 A2977 RMK AO2,M
RTS,2021-01-29 16:55,-119.8764,39.6682,1539.00,24.80,24.80,100.00,0.00,0.00,0.00,29.76,M,10.00,M,FEW,M,M,M,3600.00,M,M,M,M,M,M,M,M,M,M,24.80,KRTS 291655Z AUTO 00000KT 10SM FEW036 M04/M04 A2976 RMK AO2,M
RNO,2021-01-29 16:55,-119.7711,39.4839,1341.00,30.90,28.90,92.18,0.00,0.00,0.00,29.77,1008.90,10.00,M,FEW,BKN,BKN,M,400.00,2300.00,5000.00,M,M,M,M,M,M,M,M,30.90,KRNO 291655Z 00000KT 10SM FEW004 BKN023 BKN050 M01/M02 A2977 RMK AO2 SLP089 VIS LWR SE THRU W T10061017,M
CXP,2021-01-29 16:55,-119.7326,39.1923,1431.00,30.20,30.20,100.00,0.00,0.00,0.00,29.78,M,10.00,M,FEW,BKN,OVC,M,1700.00,2300.00,5500.00,M,M,M,M,M,M,M,M,30.20,KCXP 291655Z AUTO 00000KT 10SM FEW017 BKN023 OVC055 M01/M01 A2978 RMK AO2,M
TMT,2021-01-29 16:55,-117.1971,39.4643,1749.34,31.60,27.30,83.91,220.00,6.00,0.00,29.73,M,10.00,M,M,M,M,M,M,M,M,M,M,M,M,M,M,M,M,25.05,KTMT 291655Z AUTO 22006KT 10SM 00/M03 A2973 RMK AO2 T10021026,M
BAM,2021-01-29 16:55,-116.8743,40.5990,1382.36,35.60,35.60,100.00,230.00,7.00,0.00,29.69,M,10.00,M,BKN,OVC,M,M,3200.00,4200.00,M,M,M,M,M,M,M,M,M,29.17,KBAM 291655Z AUTO 23007KT 10SM BKN032 OVC042 02/02 A2969 RMK AO1,M
HTH,2021-01-29 16:55,-118.6315,38.5448,1282.89,35.60,33.80,93.08,310.00,10.00,0.00,29.77,M,10.00,M,OVC,M,M,M,3600.00,M,M,M,M,M,M,M,M,M,M,27.48,KHTH 291655Z AUTO 31010KT 10SM OVC036 02/01 A2977 RMK A01,M
BVU,2021-01-29 16:55,-114.8611,35.9475,671.00,46.40,39.20,75.84,140.00,8.00,0.00,29.86,M,10.00,M,BKN,M,M,M,6500.00,M,M,M,M,M,M,M,M,M,M,41.85,KBVU 291655Z AUTO 14008KT 10SM BKN065 08/04 A2986 RMK AO2,M
HND,2021-01-29 16:56,-115.1344,35.9729,742.79,49.00,36.00,60.88,200.00,12.00,0.00,29.85,1012.70,10.00,M,CLR,M,M,M,M,M,M,M,M,M,M,M,M,M,M,43.51,KHND 291656Z 20012KT 10SM CLR 09/02 A2985 RMK AO2 SLP127 T00940022,M
WMC,2021-01-29 16:56,-117.8072,40.9019,1315.00,33.00,30.00,88.23,290.00,7.00,T,29.71,1006.90,9.00,M,OVC,M,M,M,2500.00,M,M,M,-SN,M,M,M,M,M,M,26.12,KWMC 291656Z AUTO 29007KT 9SM -SN OVC025 01/M01 A2971 RMK AO2 SLP069 P0000 T00061011,M
LSV,2021-01-29 16:56,-115.0343,36.2362,570.00,48.70,39.70,70.93,180.00,7.00,T,29.84,M,10.00,M,FEW,M,M,M,5000.00,M,M,M,-RA,M,M,M,M,M,M,45.14,KLSV 291656Z AUTO 18007KT 10SM -RA FEW050 09/04 A2984 RMK AO2 RAB49 SLPNO P0000 T00930043 $,M
EKO,2021-01-29 16:56,-115.7860,40.8242,1367.00,37.00,28.90,72.24,190.00,9.00,0.00,29.66,1004.40,10.00,M,BKN,BKN,OVC,M,1900.00,5000.00,6000.00,M,M,M,M,M,M,M,M,29.73,KEKO 291656Z AUTO 19009KT 10SM BKN019 BKN050 OVC060 03/M02 A2966 RMK AO2 SLP044 T00281017,M
LAS,2021-01-29 16:56,-115.1634,36.0719,663.00,50.00,37.00,60.79,210.00,6.00,0.00,29.85,1010.40,10.00,M,FEW,SCT,BKN,M,5000.00,7000.00,10000.00,M,M,M,M,M,M,M,M,50.00,KLAS 291656Z 21006KT 10SM FEW050 SCT070 BKN100 10/03 A2985 RMK AO2 SLP104 MTNS OBSCURED DSNT N-E AND SW-NW SH DSNT N-E AND SW-NW T01000028,M
TPH,2021-01-29 16:56,-117.0904,38.0505,1654.00,32.00,32.00,100.00,200.00,12.00,T,29.73,1006.60,8.00,M,FEW,OVC,M,M,1300.00,4100.00,M,M,-SN,M,M,M,M,M,M,22.00,KTPH 291656Z AUTO 20012KT 8SM -SN FEW013 OVC041 00/00 A2973 RMK AO2 SNB10 SLP066 P0000 T00000000,M
INS,2021-01-29 16:56,-115.6733,36.5872,955.00,45.00,33.30,63.09,50.00,3.00,T,29.79,1007.70,10.00,M,FEW,SCT,SCT,BKN,1800.00,2600.00,3700.00,4600.00,-RA,M,M,M,M,M,M,43.66,KINS 291656Z AUTO 05003KT 10SM -RA FEW018 SCT026 SCT037 BKN046 07/01 A2979 RMK AO2 DZB49E54RAB54 SLP077 P0000 T00730007 $,M
NFL,2021-01-29 16:56,-118.7010,39.4166,1199.00,32.00,32.00,100.00,240.00,3.00,0.00,29.77,1006.00,1.00,M,OVC,M,M,M,400.00,M,M,M,BR,M,M,M,M,M,M,28.69,KNFL 291656Z 24003KT 1SM BR OVC004 00/00 A2977 RMK AO2 SLP060 SLR// T00000000,M
INS,2021-01-29 16:57,-115.6733,36.5872,955.00,44.60,33.80,65.61,70.00,3.00,0.00,29.79,1007.70,10.00,M,FEW,SCT,BKN,M,1300.00,2600.00,4400.00,M,-RA,M,M,M,M,M,M,43.09,KINS 291657Z AUTO 07003KT 10SM -RA FEW013 SCT026 BKN044 07/01 A2979 RMK AO2 SLP077 $,M
INS,2021-01-29 17:02,-115.6733,36.5872,955.00,44.60,35.60,70.48,50.00,4.00,0.00,29.79,1007.70,10.00,M,FEW,SCT,BKN,BKN,1300.00,2600.00,3500.00,4400.00,-RA,M,M,M,M,M,M,42.13,KINS 291702Z AUTO 05004KT 10SM -RA FEW013 SCT026 BKN035 BKN044 07/02 A2979 RMK AO2 SLP077 $,M
LSV,2021-01-29 17:02,-115.0343,36.2362,570.00,48.20,41.00,76.01,160.00,5.00,0.00,29.84,M,10.00,M,BKN,M,M,M,5000.00,M,M,M,M,M,M,M,M,M,M,45.63,KLSV 291702Z AUTO 16005KT 10SM BKN050 09/05 A2984 RMK AO2 RAE02 SLPNO $,M
RNO,2021-01-29 17:08,-119.7711,39.4839,1341.00,30.90,28.00,88.84,60.00,3.00,0.00,29.77,M,10.00,M,FEW,SCT,BKN,M,400.00,2300.00,6000.00,M,M,M,M,M,M,M,M,27.43,KRNO 291708Z 06003KT 10SM FEW004 SCT023 BKN060 M01/M02 A2977 RMK AO2 VIS LWR SE THRU W T10061022,M
INS,2021-01-29 17:09,-115.6733,36.5872,955.00,44.60,33.80,65.61,360.00,6.00,0.00,29.79,1007.70,10.00,M,FEW,FEW,BKN,BKN,1300.00,2600.00,3500.00,4400.00,M,M,M,M,M,M,M,40.71,KINS 291709Z AUTO 36006KT 10SM FEW013 FEW026 BKN035 BKN044 07/01 A2979 RMK AO2 RAE07DZB07E09 SLP077 $,M
05U,2021-01-29 17:10,-116.0051,39.6042,1811.23,35.60,26.60,69.46,190.00,12.00,0.00,29.70,M,10.00,18.00,BKN,OVC,M,M,4900.00,6000.00,M,M,M,M,M,M,M,M,M,26.58,K05U 291710Z AUTO 19012G18KT 10SM BKN049 OVC060 02/M03 A2970 RMK A01,M
EKO,2021-01-29 17:14,-115.7860,40.8242,1367.00,37.00,30.00,75.56,200.00,8.00,0.00,29.66,M,10.00,15.00,FEW,BKN,OVC,M,1900.00,3600.00,4700.00,M,M,M,M,M,M,M,M,30.27,KEKO 291714Z AUTO 20008G15KT 10SM FEW019 BKN036 OVC047 03/M01 A2966 RMK AO2 T00281011,M
BAM,2021-01-29 17:15,-116.8743,40.5990,1382.36,35.60,35.60,100.00,230.00,9.00,0.00,29.70,M,10.00,M,SCT,OVC,M,M,3400.00,5500.00,M,M,M,M,M,M,M,M,M,27.99,KBAM 291715Z AUTO 23009KT 10SM SCT034 OVC055 02/02 A2970 RMK AO1,M
TMT,2021-01-29 17:15,-117.1971,39.4643,1749.34,32.00,27.90,84.63,240.00,3.00,0.00,29.73,M,10.00,M,M,M,M,M,M,M,M,M,M,M,M,M,M,M,M,28.69,KTMT 291715Z AUTO 24003KT 10SM 00/M02 A2973 RMK AO2 T00001023,M
HTH,2021-01-29 17:15,-118.6315,38.5448,1282.89,35.60,32.00,86.59,320.00,7.00,0.00,29.78,M,10.00,M,FEW,SCT,BKN,M,2300.00,2800.00,3600.00,M,M,M,M,M,M,M,M,29.17,KHTH 291715Z AUTO 32007KT 10SM FEW023 SCT028 BKN036 02/00 A2978 RMK A01,M
BVU,2021-01-29 17:15,-114.8611,35.9475,671.00,48.20,39.20,70.88,180.00,13.00,0.00,29.87,M,10.00,M,FEW,BKN,BKN,M,3900.00,5500.00,7000.00,M,M,M,M,M,M,M,M,42.32,KBVU 291715Z AUTO 18013KT 10SM FEW039 BKN055 BKN070 09/04 A2987 RMK AO2,M
MEV,2021-01-29 17:15,-119.7500,38.9963,1441.42,30.20,30.20,100.00,0.00,0.00,0.00,29.78,M,1.50,M,OVC,M,M,M,800.00,M,M,M,UP BR,M,M,M,M,M,M,30.20,KMEV 291715Z AUTO 00000KT 1 1/2SM UP BR OVC008 M01/M01 A2978 RMK AO2,M
RTS,2021-01-29 17:15,-119.8764,39.6682,1539.00,24.80,23.00,92.74,0.00,0.00,0.00,29.77,M,0.25,M,VV ,M,M,M,0.00,M,M,M,-UP,M,M,M,M,M,M,24.80,KRTS 291715Z AUTO 00000KT M1/4SM -UP VV000 M04/M05 A2977 RMK AO2,M
CXP,2021-01-29 17:15,-119.7326,39.1923,1431.00,30.20,30.20,100.00,0.00,0.00,0.00,29.78,M,10.00,M,FEW,SCT,OVC,M,1700.00,4000.00,5000.00,M,M,M,M,M,M,M,M,30.20,KCXP 291715Z AUTO 00000KT 10SM FEW017 SCT040 OVC050 M01/M01 A2978 RMK AO2,M
LSV,2021-01-29 17:19,-115.0343,36.2362,570.00,50.00,41.00,71.07,180.00,7.00,0.00,29.84,1010.20,10.00,M,OVC,M,M,M,4900.00,M,M,M,M,M,M,M,M,M,M,50.00,KLSV 291719Z AUTO 18007KT 10SM OVC049 10/05 A2984 RMK AO2 RAE02 SLP102 $,M
INS,2021-01-29 17:29,-115.6733,36.5872,955.00,44.60,35.60,70.48,40.00,7.00,0.00,29.80,1008.10,10.00,M,SCT,BKN,OVC,M,3200.00,4400.00,5500.00,M,M,M,M,M,M,M,M,40.14,KINS 291729Z AUTO 04007KT 10SM SCT032 BKN044 OVC055 07/02 A2980 RMK AO2 RAE07DZB07E09 SLP081 $,M
05U,2021-01-29 17:30,-116.0051,39.6042,1811.23,35.60,26.60,69.46,220.00,10.00,0.00,29.70,M,10.00,M,FEW,SCT,BKN,M,2900.00,3500.00,4400.00,M,M,M,M,M,M,M,M,27.48,K05U 291730Z AUTO 22010KT 10SM FEW029 SCT035 BKN044 02/M03 A2970 RMK A01,M
EKO,2021-01-29 17:32,-115.7860,40.8242,1367.00,36.00,30.90,81.53,220.00,7.00,0.00,29.67,M,9.00,M,BKN,BKN,OVC,M,1900.00,2800.00,3600.00,M,M,M,M,M,M,M,M,29.65,KEKO 291732Z AUTO 22007KT 9SM BKN019 BKN028 OVC036 02/M01 A2967 RMK AO2 T00221006,M
LSV,2021-01-29 17:33,-115.0343,36.2362,570.00,50.00,41.00,71.07,190.00,10.00,0.00,29.84,M,10.00,M,OVC,M,M,M,5000.00,M,M,M,M,M,M,M,M,M,M,50.00,KLSV 291733Z AUTO 19010KT 10SM OVC050 10/05 A2984 RMK AO2 RAE02 SLPNO $,M
NFL,2021-01-29 17:34,-118.7010,39.4166,1199.00,33.00,33.00,100.00,210.00,4.00,0.00,29.78,M,1.00,M,SCT,BKN,BKN,BKN,400.00,1000.00,3000.00,13000.00,BR,M,M,M,M,M,M,28.70,KNFL 291734Z 21004KT 1SM BR SCT004 BKN010 BKN030 BKN130 01/01 A2978 RMK AO2 SLR// T00060006,M
BVU,2021-01-29 17:35,-114.8611,35.9475,671.00,48.20,41.00,76.01,160.00,15.00,0.00,29.87,M,10.00,M,BKN,BKN,M,M,5500.00,10000.00,M,M,M,M,M,M,M,M,M,41.78,KBVU 291735Z AUTO 16015KT 10SM BKN055 BKN100 09/05 A2987 RMK AO2,M
MEV,2021-01-29 17:35,-119.7500,38.9963,1441.42,30.20,28.40,92.92,110.00,4.00,0.00,29.78,M,1.75,M,SCT,SCT,OVC,M,900.00,1300.00,2500.00,M,-SN BR,M,M,M,M,M,M,25.32,KMEV 291735Z AUTO 11004KT 1 3/4SM -SN BR SCT009 SCT013 OVC025 M01/M02 A2978 RMK AO2,M
BAM,2021-01-29 17:35,-116.8743,40.5990,1382.36,35.60,35.60,100.00,230.00,8.00,0.00,29.71,M,10.00,M,SCT,SCT,M,M,5500.00,12000.00,M,M,M,M,M,M,M,M,M,28.55,KBAM 291735Z AUTO 23008KT 10SM SCT055 SCT120 02/02 A2971 RMK AO1,M
HTH,2021-01-29 17:35,-118.6315,38.5448,1282.89,35.60,33.80,93.08,310.00,8.00,0.00,29.79,M,9.00,M,CLR,M,M,M,M,M,M,M,M,M,M,M,M,M,M,28.55,KHTH 291735Z AUTO 31008KT 9SM CLR 02/01 A2979 RMK A01,M
TMT,2021-01-29 17:35,-117.1971,39.4643,1749.34,32.50,27.50,81.59,250.00,4.00,0.00,29.74,M,10.00,M,M,M,M,M,M,M,M,M,M,M,M,M,M,M,M,28.00,KTMT 291735Z AUTO 25004KT 10SM 00/M02 A2974 RMK AO2 T00031025,M
RTS,2021-01-29 17:35,-119.8764,39.6682,1539.00,24.80,24.80,100.00,0.00,0.00,0.00,29.77,M,10.00,M,CLR,M,M,M,M,M,M,M,M,M,M,M,M,M,M,24.80,KRTS 291735Z AUTO 00000KT 10SM CLR M04/M04 A2977 RMK AO2,M
CXP,2021-01-29 17:35,-119.7326,39.1923,1431.00,30.20,28.40,92.92,0.00,0.00,0.00,29.79,M,9.00,M,BKN,BKN,OVC,M,2000.00,3900.00,4600.00,M,-UP,M,M,M,M,M,M,30.20,KCXP 291735Z AUTO 00000KT 9SM -UP BKN020 BKN039 OVC046 M01/M02 A2979 RMK AO2,M
LSV,2021-01-29 17:40,-115.0343,36.2362,570.00,50.00,39.20,66.27,180.00,9.00,0.00,29.84,M,10.00,M,BKN,M,M,M,4900.00,M,M,M,M,M,M,M,M,M,M,50.00,KLSV 291740Z AUTO 18009KT 10SM BKN049 10/04 A2984 RMK AO2 RAE02 SLPNO $,M
RNO,2021-01-29 17:40,-119.7711,39.4839,1341.00,32.00,30.00,92.22,160.00,5.00,0.00,29.78,M,10.00,M,FEW,BKN,BKN,M,400.00,2500.00,4900.00,M,M,M,M,M,M,M,M,26.40,KRNO 291740Z 16005KT 10SM FEW004 BKN025 BKN049 00/M01 A2978 RMK AO2 VIS LWR SE THRU SW T00001011 $,M
P68,2021-01-29 17:42,-116.0056,39.6014,1993.00,32.00,27.00,81.55,260.00,9.00,0.00,29.69,M,M,17.00,M,M,M,M,M,M,M,M,M,M,M,M,26.00,180.00,2021-01-29 16:54,23.51,KP68 291742Z AUTO 26009G17KT 00/M03 A2969 RMK AO1 PK WND 18026/1654 WSHFT 1725 T00001028,M
TPH,2021-01-29 17:48,-117.0904,38.0505,1654.00,33.00,32.00,95.67,220.00,14.00,T,29.75,M,10.00,M,BKN,OVC,M,M,1200.00,3900.00,M,M,M,M,M,M,M,M,M,22.58,KTPH 291748Z AUTO 22014KT 10SM BKN012 OVC039 01/00 A2975 RMK AO2 SNE1657 P0000 T00060000,M
EKO,2021-01-29 17:48,-115.7860,40.8242,1367.00,35.00,30.90,84.49,260.00,8.00,T,29.67,M,5.00,M,BKN,OVC,M,M,1300.00,1800.00,M,M,-SN BR,M,M,M,M,M,M,27.93,KEKO 291748Z AUTO 26008KT 5SM -SN BR BKN013 OVC018 02/M01 A2967 RMK AO2 SNB41 P0000 T00171006,M
INS,2021-01-29 17:49,-115.6733,36.5872,955.00,44.60,33.80,65.61,20.00,7.00,0.00,29.80,1008.10,10.00,M,FEW,SCT,M,M,3100.00,5000.00,M,M,M,M,M,M,M,M,M,40.14,KINS 291749Z AUTO 02007KT 10SM FEW031 SCT050 07/01 A2980 RMK AO2 RAE07DZB07E09 SLP081 $,M
05U,2021-01-29 17:50,-116.0051,39.6042,1811.23,32.00,26.60,80.22,240.00,9.00,0.00,29.72,M,0.75,M,OVC,M,M,M,300.00,M,M,M,HZ,M,M,M,M,M,M,23.51,K05U 291750Z AUTO 24009KT 3/4SM HZ OVC003 00/M03 A2972 RMK A01,M
LSV,2021-01-29 17:50,-115.0343,36.2362,570.00,50.00,39.20,66.27,170.00,9.00,0.00,29.84,1010.20,10.00,M,SCT,M,M,M,5000.00,M,M,M,M,M,M,M,M,M,M,50.00,KLSV 291750Z AUTO 17009KT 10SM SCT050 10/04 A2984 RMK AO2 RAE02 SLP102 $,M
P68,2021-01-29 17:53,-116.0056,39.6014,1993.00,30.90,28.00,88.84,230.00,9.00,0.02,29.70,1004.70,M,17.00,M,M,M,M,M,M,M,M,M,M,M,M,26.00,180.00,2021-01-29 16:54,22.15,KP68 291753Z AUTO 23009G17KT M01/M02 A2970 RMK AO1 PK WND 18026/1654 WSHFT 1725 SLP047 P0002 60002 T10061022 10017 21006 53015,M
ELY,2021-01-29 17:53,-114.8453,39.2950,1909.00,34.00,26.10,72.52,160.00,17.00,T,29.70,1004.40,9.00,24.00,FEW,OVC,M,M,4200.00,4900.00,M,M,-SN,M,M,M,28.00,160.00,2021-01-29 16:54,22.70,KELY 291753Z AUTO 16017G24KT 9SM -SN FEW042 OVC049 01/M03 A2970 RMK AO2 PK WND 16028/1654 UPE1658B20E51SNB33E40B51 SLP044 P0000 60000 T00111033 10011 21011 55000,M
VGT,2021-01-29 17:53,-115.1933,36.2111,667.00,52.00,35.00,52.36,180.00,13.00,0.00,29.80,1010.70,10.00,M,FEW,SCT,M,M,6000.00,12000.00,M,M,M,M,M,M,M,M,M,52.00,KVGT 291753Z 18013KT 10SM FEW060 SCT120 11/02 A2980 RMK AO2 SLP107 T01110017 10111 20089 50007,M
LOL,2021-01-29 17:53,-118.5701,40.0684,1192.43,34.00,33.00,96.46,0.00,0.00,0.00,29.77,1009.20,10.00,M,SCT,M,M,M,4800.00,M,M,M,M,M,M,M,M,M,M,34.00,KLOL 291753Z AUTO 00000KT 10SM SCT048 01/01 A2977 RMK AO2 SLP092 60003 T00110006 10011 21006 53015,M
DRA,2021-01-29 17:53,-116.0278,36.6206,1009.00,45.00,32.00,60.11,210.00,17.00,0.00,29.79,1007.80,10.00,30.00,CLR,M,M,M,M,M,M,M,M,M,M,M,31.00,190.00,2021-01-29 17:36,37.11,KDRA 291753Z AUTO 21017G30KT 10SM CLR 07/00 A2979 RMK AO2 PK WND 19031/1736 SLP078 60006 T00720000 10072 20044 51007,M
EKO,2021-01-29 17:54,-115.7860,40.8242,1367.00,33.80,30.20,86.49,280.00,7.97,M,29.67,M,2.00,M,BKN,OVC,M,M,1299.00,1801.00,M,M,-SN BR,M,M,M,M,M,M,26.35,SPECI KEKO 291754Z 28008KT 2SM -SN BR BKN013 OVC018 01/M01 A2967 RMK AO2 SNB41 P0000 TSNO FIBI,M
WMC,2021-01-29 17:54,-117.8072,40.9019,1315.00,33.80,30.20,86.49,280.00,7.00,T,29.73,M,10.00,M,FEW,SCT,OVC,M,1300.00,2600.00,3500.00,M,M,M,M,M,M,M,M,26.97,KWMC 291754Z AUTO 28007KT 10SM FEW013 SCT026 OVC035 01/M01 A2973 RMK AO2 SNE19 P0000,M
BVU,2021-01-29 17:55,-114.8611,35.9475,671.00,48.20,39.20,70.88,140.00,10.00,0.00,29.87,M,10.00,17.00,FEW,SCT,M,M,5500.00,9500.00,M,M,M,M,M,M,M,M,M,43.28,KBVU 291755Z AUTO 14010G17KT 10SM FEW055 SCT095 09/04 A2987 RMK AO2,M
BAM,2021-01-29 17:55,-116.8743,40.5990,1382.36,35.60,33.80,93.08,240.00,8.00,0.00,29.71,M,10.00,M,SCT,M,M,M,12000.00,M,M,M,M,M,M,M,M,M,M,28.55,KBAM 291755Z AUTO 24008KT 10SM SCT120 02/01 A2971 RMK AO1,M
RNO,2021-01-29 17:55,-119.7711,39.4839,1341.00,35.00,30.00,81.46,0.00,0.00,0.00,29.79,1009.20,10.00,M,FEW,BKN,BKN,M,400.00,2500.00,4900.00,M,M,M,M,M,M,M,M,35.10,KRNO 291755Z 00000KT 10SM FEW004 BKN025 BKN049 02/M01 A2979 RMK AO2 SLP092 4/002 933009 60000 T00171011 10017 21017 51018 $,2
MEV,2021-01-29 17:55,-119.7500,38.9963,1441.42,30.20,28.40,92.92,0.00,0.00,0.00,29.79,M,3.00,M,BKN,BKN,BKN,M,1000.00,2500.00,3000.00,M,-SN BR,M,M,M,M,M,M,30.20,KMEV 291755Z AUTO 00000KT 3SM -SN BR BKN010 BKN025 BKN030 M01/M02 A2979 RMK AO2,M
HTH,2021-01-29 17:55,-118.6315,38.5448,1282.89,35.60,33.80,93.08,320.00,7.00,0.00,29.80,M,8.00,M,CLR,M,M,M,M,M,M,M,M,M,M,M,M,M,M,29.17,KHTH 291755Z AUTO 32007KT 8SM CLR 02/01 A2980 RMK A01,M
CXP,2021-01-29 17:55,-119.7326,39.1923,1431.00,33.80,32.00,93.03,0.00,0.00,0.00,29.80,M,10.00,M,BKN,BKN,OVC,M,2200.00,3000.00,5500.00,M,-UP,M,M,M,M,M,M,33.80,KCXP 291755Z AUTO 00000KT 10SM -UP BKN022 BKN030 OVC055 01/M00 A2980 RMK AO2,M
RTS,2021-01-29 17:55,-119.8764,39.6682,1539.00,24.80,24.80,100.00,330.00,3.00,0.00,29.78,M,2.00,M,CLR,M,M,M,M,M,M,M,BR,M,M,M,M,M,M,20.46,KRTS 291755Z AUTO 33003KT 2SM BR CLR M04/M04 A2978 RMK AO2,M
TMT,2021-01-29 17:55,-117.1971,39.4643,1749.34,33.00,26.60,77.37,220.00,5.00,0.00,29.74,M,10.00,M,M,M,M,M,M,M,M,M,M,M,M,M,M,M,M,27.46,KTMT 291755Z AUTO 22005KT 10SM 01/M03 A2974 RMK AO2 60001 T00051030 10019 21007,M
EKO,2021-01-29 17:56,-115.7860,40.8242,1367.00,34.00,31.00,88.63,280.00,7.00,M,29.67,1005.10,1.50,M,FEW,OVC,M,M,600.00,1299.00,M,M,-SN BR,M,M,M,M,M,M,27.22,METAR KEKO 291756Z 28007KT 1 1/2SM -SN BR FEW006 OVC013 01/M01 A2967 RMK AO2 SNB41 SLP051 P0000 60000 T00111006 10033 20011 53006 TSNO FIBI,M
WMC,2021-01-29 17:56,-117.8072,40.9019,1315.00,34.00,30.00,85.11,270.00,9.00,T,29.73,1007.60,10.00,M,FEW,OVC,M,M,1300.00,3300.00,M,M,M,M,M,M,M,M,M,26.00,KWMC 291756Z AUTO 27009KT 10SM FEW013 OVC033 01/M01 A2973 RMK AO2 SNE19 SLP076 P0000 60012 T00111011 10017 20000 51010,M
LAS,2021-01-29 17:56,-115.1634,36.0719,663.00,50.00,34.00,53.97,200.00,12.00,0.00,29.85,1010.40,10.00,20.00,FEW,SCT,BKN,M,5000.00,7000.00,11000.00,M,M,M,M,M,M,M,M,50.00,KLAS 291756Z 20012G20KT 10SM FEW050 SCT070 BKN110 10/01 A2985 RMK AO2 SLP104 VIRGA DSNT SW-NW 60000 T01000011 10111 20083 51007,M
HND,2021-01-29 17:56,-115.1344,35.9729,742.79,52.00,34.00,50.12,210.00,17.00,0.00,29.85,1012.40,10.00,21.00,CLR,M,M,M,M,M,M,M,M,M,M,M,M,M,M,52.00,KHND 291756Z 21017G21KT 10SM CLR 11/01 A2985 RMK AO2 SLP124 60000 T01110011 10111 20072 50002,M
LSV,2021-01-29 17:56,-115.0343,36.2362,570.00,50.20,38.80,64.76,170.00,10.00,T,29.84,1010.20,10.00,M,SCT,SCT,M,M,5000.00,9000.00,M,M,M,M,M,M,M,M,M,50.20,KLSV 291756Z AUTO 17010KT 10SM SCT050 SCT090 10/04 A2984 RMK AO2 RAE02 SLP102 P0000 6//// T01010038 10123 20092 50009 $,M
INS,2021-01-29 17:56,-115.6733,36.5872,955.00,45.00,34.30,65.92,40.00,5.00,T,29.80,1008.10,10.00,M,SCT,M,M,M,5000.00,M,M,M,M,M,M,M,M,M,M,41.83,KINS 291756Z AUTO 04005KT 10SM SCT050 07/01 A2980 RMK AO2 RAE07DZB07E09 SLP081 P0000 60000 T00720013 10080 20051 52011 $,M
NFL,2021-01-29 17:56,-118.7010,39.4166,1199.00,33.80,33.80,100.00,230.00,3.00,0.00,29.79,1006.70,1.00,M,SCT,BKN,BKN,M,400.00,1300.00,3000.00,M,BR,M,M,M,M,M,M,30.75,KNFL 291756Z 23003KT 1SM BR SCT004 BKN013 BKN030 01/01 A2979 RMK SLP067 4/002 60006 T0110006 10011 21006 53018,2
TPH,2021-01-29 17:56,-117.0904,38.0505,1654.00,33.00,32.00,95.67,220.00,12.00,T,29.75,1007.50,10.00,M,BKN,OVC,M,M,1100.00,3700.00,M,M,M,M,M,M,M,M,M,23.40,KTPH 291756Z AUTO 22012KT 10SM BKN011 OVC037 01/00 A2975 RMK AO2 SNE1657 SLP075 P0000 60000 T00060000 10011 20000 53010,M
NFL,2021-01-29 18:00,-118.7010,39.4166,1199.00,33.00,33.00,100.00,230.00,3.00,0.00,29.79,M,0.75,M,BKN,OVC,M,M,400.00,1300.00,M,M,BR,M,M,M,M,M,M,29.95,KNFL 291800Z 23003KT 3/4SM BR BKN004 OVC013 01/01 A2979 RMK AO2 T00060006,M
NFL,2021-01-29 18:02,-118.7010,39.4166,1199.00,33.00,33.00,100.00,230.00,3.00,0.00,29.80,M,1.00,M,SCT,BKN,BKN,M,400.00,1300.00,3000.00,M,BR,M,M,M,M,M,M,29.95,KNFL 291802Z 23003KT 1SM BR SCT004 BKN013 BKN030 01/01 A2980 RMK AO2 SLR// T00060006,M
EKO,2021-01-29 18:03,-115.7860,40.8242,1367.00,33.00,31.00,92.25,260.00,5.05,M,29.67,M,0.75,M,BKN,OVC,M,M,800.00,1299.00,M,M,-SN BR,M,M,M,M,M,M,27.53,SPECI KEKO 291803Z 26005KT 3/4SM -SN BR BKN008 OVC013 01/M01 A2967 RMK AO2 P0001 T00061006 TSNO FIBI,M
05U,2021-01-29 18:10,-116.0051,39.6042,1811.23,32.00,28.40,86.39,220.00,6.00,0.00,29.73,M,1.00,M,BKN,BKN,BKN,M,300.00,700.00,2000.00,M,BR,M,M,M,M,M,M,25.53,K05U 291810Z AUTO 22006KT 1SM BR BKN003 BKN007 BKN020 M00/M02 A2973 RMK A01,M
CXP,2021-01-29 18:15,-119.7326,39.1923,1431.00,33.80,32.00,93.03,0.00,0.00,0.00,29.81,M,8.00,M,BKN,BKN,OVC,M,600.00,2600.00,5500.00,M,M,M,M,M,M,M,M,33.80,KCXP 291815Z AUTO 00000KT 8SM BKN006 BKN026 OVC055 01/M00 A2981 RMK AO2,M
HTH,2021-01-29 18:15,-118.6315,38.5448,1282.89,35.60,35.60,100.00,330.00,6.00,0.00,29.81,M,4.00,M,FEW,M,M,M,500.00,M,M,M,BR,M,M,M,M,M,M,29.87,KHTH 291815Z AUTO 33006KT 4SM BR FEW005 02/02 A2981 RMK A01,M
BAM,2021-01-29 18:15,-116.8743,40.5990,1382.36,37.40,33.80,86.69,230.00,11.00,0.00,29.72,M,10.00,M,SCT,SCT,M,M,4100.00,12000.00,M,M,M,M,M,M,M,M,M,29.29,KBAM 291815Z AUTO 23011KT 10SM SCT041 SCT120 03/01 A2972 RMK AO1,M
RTS,2021-01-29 18:15,-119.8764,39.6682,1539.00,26.60,26.60,100.00,90.00,3.00,0.00,29.79,M,5.00,M,CLR,M,M,M,M,M,M,M,-UP,M,M,M,M,M,M,22.52,KRTS 291815Z AUTO 09003KT 5SM -UP CLR M03/M03 A2979 RMK AO2,M
TMT,2021-01-29 18:15,-117.1971,39.4643,1749.34,33.40,26.60,75.83,0.00,0.00,0.00,29.74,M,10.00,M,M,M,M,M,M,M,M,M,M,M,M,M,M,M,M,33.40,KTMT 291815Z AUTO 00000KT 10SM 01/M03 A2974 RMK AO2 T00081030,M
BVU,2021-01-29 18:15,-114.8611,35.9475,671.00,48.20,39.20,70.88,140.00,9.00,0.00,29.87,M,10.00,M,FEW,M,M,M,9000.00,M,M,M,M,M,M,M,M,M,M,43.66,KBVU 291815Z AUTO 14009KT 10SM FEW090 09/04 A2987 RMK AO2,M
MEV,2021-01-29 18:15,-119.7500,38.9963,1441.42,30.20,28.40,92.92,0.00,0.00,0.00,29.80,M,4.00,M,OVC,M,M,M,900.00,M,M,M,UP BR,M,M,M,M,M,M,30.20,KMEV 291815Z AUTO 00000KT 4SM UP BR OVC009 M01/M02 A2980 RMK AO2,M
NFL,2021-01-29 18:18,-118.7010,39.4166,1199.00,34.00,33.00,96.46,180.00,3.00,0.00,29.79,M,4.00,M,SCT,BKN,BKN,M,400.00,1300.00,3000.00,M,BR,M,M,M,M,M,M,30.97,KNFL 291818Z 18003KT 4SM BR SCT004 BKN013 BKN030 01/01 A2979 RMK AO2 SLR// T00110006,M
EKO,2021-01-29 18:19,-115.7860,40.8242,1367.00,33.00,32.00,96.06,250.00,4.08,M,29.67,M,1.50,M,BKN,OVC,M,M,800.00,1601.00,M,M,-SN BR,M,M,M,M,M,M,28.50,SPECI KEKO 291819Z 25004KT 1 1/2SM -SN BR BKN008 OVC016 01/00 A2967 RMK AO2 P0003 T00060000 TSNO FIBI,M
EKO,2021-01-29 18:23,-115.7860,40.8242,1367.00,33.00,32.00,96.06,250.00,5.05,M,29.67,M,2.00,M,SCT,BKN,OVC,M,600.00,1099.00,1601.00,M,-SN BR,M,M,M,M,M,M,27.53,SPECI KEKO 291823Z 25005KT 2SM -SN BR SCT006 BKN011 OVC016 01/00 A2967 RMK AO2 P0003 T00060000 TSNO FIBI,M
LOL,2021-01-29 18:26,-118.5701,40.0684,1192.43,34.00,32.00,92.29,180.00,7.00,0.00,29.78,M,10.00,M,FEW,BKN,M,M,400.00,4900.00,M,M,M,M,M,M,M,M,M,27.22,KLOL 291826Z AUTO 18007KT 10SM FEW004 BKN049 01/00 A2978 RMK AO2 T00110000,M
05U,2021-01-29 18:30,-116.0051,39.6042,1811.23,32.00,28.40,86.39,0.00,0.00,0.00,29.73,M,0.25,M,BKN,OVC,M,M,300.00,2300.00,M,M,FZFG,M,M,M,M,M,M,32.00,K05U 291830Z AUTO 00000KT 1/4SM FZFG BKN003 OVC023 M00/M02 A2973 RMK A01,M
INS,2021-01-29 18:31,-115.6733,36.5872,955.00,46.40,33.80,61.28,270.00,13.00,0.00,29.80,1007.80,10.00,24.00,FEW,SCT,SCT,SCT,4800.00,6000.00,11000.00,14000.00,M,M,M,M,M,M,M,40.02,KINS 291831Z AUTO 27013G24KT 10SM FEW048 SCT060 SCT110 SCT140 BKN160 08/01 A2980 RMK AO2 WSHFT 28 SLP078 $,M
BVU,2021-01-29 18:35,-114.8611,35.9475,671.00,50.00,39.20,66.27,160.00,14.00,0.00,29.87,M,10.00,M,FEW,M,M,M,12000.00,M,M,M,M,M,M,M,M,M,M,50.00,KBVU 291835Z AUTO 16014KT 10SM FEW120 10/04 A2987 RMK AO2,M
RTS,2021-01-29 18:35,-119.8764,39.6682,1539.00,26.60,26.60,100.00,0.00,0.00,0.00,29.79,M,10.00,M,CLR,M,M,M,M,M,M,M,M,M,M,M,M,M,M,26.60,KRTS 291835Z AUTO 00000KT 10SM CLR M03/M03 A2979 RMK AO2,M
MEV,2021-01-29 18:35,-119.7500,38.9963,1441.42,30.20,28.40,92.92,0.00,0.00,0.00,29.81,M,10.00,M,OVC,M,M,M,1000.00,M,M,M,UP,M,M,M,M,M,M,30.20,KMEV 291835Z AUTO 00000KT 10SM UP OVC010 M01/M02 A2981 RMK AO2,M
HTH,2021-01-29 18:35,-118.6315,38.5448,1282.89,35.60,35.60,100.00,340.00,6.00,0.00,29.81,M,10.00,M,FEW,M,M,M,600.00,M,M,M,M,M,M,M,M,M,M,29.87,KHTH 291835Z AUTO 34006KT 10SM FEW006 02/02 A2981 RMK A01,M
BAM,2021-01-29 18:35,-116.8743,40.5990,1382.36,37.40,33.80,86.69,230.00,14.00,0.00,29.72,M,10.00,M,SCT,BKN,M,M,3900.00,12000.00,M,M,M,M,M,M,M,M,M,28.12,KBAM 291835Z AUTO 23014KT 10SM SCT039 BKN120 03/01 A2972 RMK AO1,M
TMT,2021-01-29 18:35,-117.1971,39.4643,1749.34,33.80,27.30,76.81,250.00,3.00,0.00,29.75,M,10.00,M,M,M,M,M,M,M,M,M,M,M,M,M,M,M,M,30.75,KTMT 291835Z AUTO 25003KT 10SM 01/M03 A2975 RMK AO2 T00101026,M
CXP,2021-01-29 18:35,-119.7326,39.1923,1431.00,33.80,32.00,93.03,M,4.00,0.00,29.81,M,2.00,M,BKN,BKN,BKN,M,600.00,1000.00,1300.00,M,BR,M,M,M,M,M,M,29.52,KCXP 291835Z AUTO VRB04KT 2SM BR BKN006 BKN010 BKN013 01/M00 A2981 RMK AO2,M
EKO,2021-01-29 18:36,-115.7860,40.8242,1367.00,33.00,31.00,92.25,240.00,6.03,M,29.68,M,1.00,M,FEW,SCT,OVC,M,400.00,800.00,1499.00,M,-SN BR,M,M,M,M,M,M,26.71,SPECI KEKO 291836Z 24006KT 1SM -SN BR FEW004 SCT008 OVC015 01/M01 A2968 RMK AO2 P0004 T00061006 TSNO FIBI,M
05U,2021-01-29 18:50,-116.0051,39.6042,1811.23,32.00,28.40,86.39,220.00,4.00,0.00,29.73,M,0.25,M,OVC,M,M,M,200.00,M,M,M,FZFG,M,M,M,M,M,M,27.42,K05U 291850Z AUTO 22004KT 1/4SM FZFG OVC002 M00/M02 A2973 RMK A01,M
EKO,2021-01-29 18:51,-115.7860,40.8242,1367.00,33.80,30.20,86.49,230.00,13.02,M,29.67,M,2.00,M,SCT,BKN,OVC,M,600.00,1099.00,3100.00,M,-SN BR,M,M,M,M,M,M,23.86,SPECI KEKO 291851Z 23013KT 2SM -SN BR SCT006 BKN011 OVC031 01/M01 A2967 RMK AO2 P0005 TSNO FIBI,M
EKO,2021-01-29 18:52,-115.7860,40.8242,1367.00,33.80,30.20,86.49,230.00,12.05,M,29.68,M,2.00,M,SCT,BKN,OVC,M,600.00,1499.00,3100.00,M,-SN BR,M,M,M,M,M,M,24.27,SPECI KEKO 291852Z 23012KT 2SM -SN BR SCT006 BKN015 OVC031 01/M01 A2968 RMK AO2 P0005 TSNO FIBI,M
TPH,2021-01-29 18:52,-117.0904,38.0505,1654.00,32.00,32.00,100.00,0.00,0.00,0.01,29.77,M,2.50,M,FEW,BKN,OVC,M,500.00,1300.00,2600.00,M,-SN BR,M,M,M,M,M,M,32.00,KTPH 291852Z AUTO 00000KT 2 1/2SM -SN BR FEW005 BKN013 OVC026 00/00 A2977 RMK AO2 SNB44 P0001,M
LOL,2021-01-29 18:53,-118.5701,40.0684,1192.43,35.00,33.00,92.32,190.00,8.00,0.00,29.79,1009.70,10.00,M,FEW,M,M,M,400.00,M,M,M,M,M,M,M,M,M,M,27.93,KLOL 291853Z AUTO 19008KT 10SM FEW004 02/01 A2979 RMK AO2 SLP097 T00170006,M
VGT,2021-01-29 18:53,-115.1933,36.2111,667.00,49.00,34.00,56.23,230.00,16.00,0.01,29.81,1011.20,10.00,27.00,SCT,BKN,OVC,M,3600.00,7000.00,10000.00,M,-RA,M,M,M,27.00,240.00,2021-01-29 18:47,42.45,KVGT 291853Z 23016G27KT 10SM -RA SCT036 BKN070 OVC100 09/01 A2981 RMK AO2 PK WND 24027/1847 RAB28 SLP112 P0001 T00940011,M
ELY,2021-01-29 18:53,-114.8453,39.2950,1909.00,34.00,26.10,72.52,170.00,16.00,T,29.70,1004.70,9.00,23.00,SCT,BKN,OVC,M,3000.00,4300.00,5000.00,M,-SN,M,M,M,M,M,M,23.03,KELY 291853Z AUTO 17016G23KT 9SM -SN SCT030 BKN043 OVC050 01/M03 A2970 RMK AO2 UPB05E52RAB15E19B40E48SNE01B31E34B52 SLP047 P0000 T00111033,M
DRA,2021-01-29 18:53,-116.0278,36.6206,1009.00,47.00,33.00,58.47,200.00,18.00,0.00,29.79,1007.40,10.00,29.00,FEW,M,M,M,100.00,M,M,M,M,M,M,M,32.00,220.00,2021-01-29 18:37,39.36,KDRA 291853Z AUTO 20018G29KT 10SM FEW001 08/01 A2979 RMK AO2 PK WND 22032/1837 SLP074 T00830006 $,M
BVU,2021-01-29 18:55,-114.8611,35.9475,671.00,51.80,39.20,61.99,160.00,12.00,0.00,29.86,M,10.00,19.00,CLR,M,M,M,M,M,M,M,M,M,M,M,M,M,M,51.80,KBVU 291855Z AUTO 16012G19KT 10SM CLR 11/04 A2986 RMK AO2,M
HTH,2021-01-29 18:55,-118.6315,38.5448,1282.89,35.60,33.80,93.08,340.00,8.00,0.00,29.82,M,10.00,M,SCT,SCT,SCT,M,800.00,1200.00,6000.00,M,M,M,M,M,M,M,M,28.55,KHTH 291855Z AUTO 34008KT 10SM SCT008 SCT012 SCT060 02/01 A2982 RMK A01,M
MEV,2021-01-29 18:55,-119.7500,38.9963,1441.42,32.00,30.20,92.97,120.00,3.00,0.00,29.81,M,3.00,M,OVC,M,M,M,1000.00,M,M,M,UP BR,M,M,M,M,M,M,28.69,KMEV 291855Z AUTO 12003KT 3SM UP BR OVC010 M00/M01 A2981 RMK AO2,M
BAM,2021-01-29 18:55,-116.8743,40.5990,1382.36,37.40,32.00,80.65,240.00,12.00,0.00,29.73,M,10.00,17.00,BKN,BKN,BKN,M,3700.00,4200.00,12000.00,M,M,M,M,M,M,M,M,28.87,KBAM 291855Z AUTO 24012G17KT 10SM BKN037 BKN042 BKN120 03/00 A2973 RMK AO1,M
TMT,2021-01-29 18:55,-117.1971,39.4643,1749.34,35.60,27.70,72.69,200.00,6.00,0.00,29.75,M,10.00,M,M,M,M,M,M,M,M,M,M,M,M,M,M,M,M,29.87,KTMT 291855Z AUTO 20006KT 10SM 02/M02 A2975 RMK AO2 T00201024,M
RTS,2021-01-29 18:55,-119.8764,39.6682,1539.00,28.40,28.40,100.00,0.00,0.00,0.00,29.80,M,10.00,M,CLR,M,M,M,M,M,M,M,M,M,M,M,M,M,M,28.40,KRTS 291855Z AUTO 00000KT 10SM CLR M02/M02 A2980 RMK AO2,M
RNO,2021-01-29 18:55,-119.7711,39.4839,1341.00,35.00,28.90,77.88,180.00,3.00,0.00,29.80,1009.60,10.00,M,FEW,BKN,BKN,M,1000.00,2500.00,5500.00,M,M,M,M,M,M,M,M,32.23,KRNO 291855Z 18003KT 10SM FEW010 BKN025 BKN055 02/M02 A2980 RMK AO2 SLP096 T00171017 $,M
CXP,2021-01-29 18:55,-119.7326,39.1923,1431.00,33.80,30.20,86.49,210.00,4.00,0.00,29.82,M,9.00,M,FEW,BKN,OVC,M,600.00,1200.00,2500.00,M,M,M,M,M,M,M,M,29.52,KCXP 291855Z AUTO 21004KT 9SM FEW006 BKN012 OVC025 01/M01 A2982 RMK AO2,M
NFL,2021-01-29 18:56,-118.7010,39.4166,1199.00,34.00,34.00,100.00,170.00,4.00,0.00,29.80,1007.00,5.00,M,SCT,BKN,BKN,M,400.00,1100.00,6000.00,M,BR,M,M,M,M,M,M,29.76,KNFL 291856Z 17004KT 5SM BR SCT004 BKN011 BKN060 01/01 A2980 RMK AO2 SLP070 SLR// T00110011,M
INS,2021-01-29 18:56,-115.6733,36.5872,955.00,46.20,32.20,57.90,200.00,6.00,0.00,29.80,1007.80,10.00,14.00,SCT,M,M,M,6000.00,M,M,M,M,M,M,M,M,M,M,42.63,KINS 291856Z AUTO 20006G14KT 10SM SCT060 08/00 A2980 RMK AO2 SLP078 T00790001 $,M
LSV,2021-01-29 18:56,-115.0343,36.2362,570.00,54.70,36.00,49.15,190.00,14.00,0.00,29.84,1009.90,10.00,18.00,FEW,FEW,M,M,5500.00,20000.00,M,M,M,M,M,M,M,M,M,54.70,KLSV 291856Z AUTO 19014G18KT 10SM FEW055 FEW200 13/02 A2984 RMK AO2 SLP099 T01260022 $,M
TPH,2021-01-29 18:56,-117.0904,38.0505,1654.00,32.00,32.00,100.00,0.00,0.00,0.01,29.77,1008.00,2.50,M,FEW,BKN,OVC,M,500.00,1300.00,2600.00,M,-SN BR,M,M,M,M,M,M,32.00,KTPH 291856Z AUTO 00000KT 2 1/2SM -SN BR FEW005 BKN013 OVC026 00/00 A2977 RMK AO2 VIS 1 3/4V5 SNB44 SLP080 P0001 T00000000,M
EKO,2021-01-29 18:56,-115.7860,40.8242,1367.00,34.00,31.00,88.63,230.00,12.05,M,29.68,1005.10,4.00,M,SCT,BKN,OVC,M,800.00,1801.00,3398.00,M,-SN BR,M,M,M,M,M,M,24.52,METAR KEKO 291856Z 23012KT 4SM -SN BR SCT008 BKN018 OVC034 01/M01 A2968 RMK AO2 SLP051 P0005 T00111006 TSNO FIBI,M
HND,2021-01-29 18:56,-115.1344,35.9729,742.79,48.00,33.00,56.10,220.00,19.00,T,29.88,1013.60,10.00,27.00,SCT,BKN,M,M,2500.00,8000.00,M,M,-RA,M,M,M,27.00,230.00,2021-01-29 18:47,40.60,KHND 291856Z 22019G27KT 10SM -RA SCT025 BKN080 09/01 A2988 RMK AO2 PK WND 23027/1847 RAB49 SLP136 P0000 T00890006,M
LAS,2021-01-29 18:56,-115.1634,36.0719,663.00,50.00,33.00,52.06,240.00,15.00,T,29.86,1010.90,10.00,24.00,FEW,SCT,BKN,M,5500.00,7000.00,10000.00,M,-RA,M,M,M,27.00,210.00,2021-01-29 18:35,50.00,KLAS 291856Z 24015G24KT 10SM -RA FEW055 SCT070 BKN100 10/01 A2986 RMK AO2 PK WND 21027/1835 RAB54 SLP109 P0000 T01000006,M
WMC,2021-01-29 18:56,-117.8072,40.9019,1315.00,36.00,30.90,81.53,270.00,7.00,0.00,29.74,1007.60,10.00,M,OVC,M,M,M,4200.00,M,M,M,M,M,M,M,M,M,M,29.65,KWMC 291856Z AUTO 27007KT 10SM OVC042 02/M01 A2974 RMK AO2 SLP076 T00221006,M
TPH,2021-01-29 18:59,-117.0904,38.0505,1654.00,32.00,32.00,100.00,320.00,4.00,T,29.77,M,1.00,M,FEW,OVC,M,M,500.00,1500.00,M,M,-SN BR,M,M,M,M,M,M,27.42,KTPH 291859Z AUTO 32004KT 1SM -SN BR FEW005 OVC015 00/00 A2977 RMK AO2 P0000 T00000000,M
NFL,2021-01-29 19:00,-118.7010,39.4166,1199.00,34.00,33.00,96.46,160.00,5.00,0.00,29.80,M,5.00,M,SCT,BKN,BKN,M,400.00,1100.00,6000.00,M,BR,M,M,M,M,M,M,28.77,KNFL 291900Z 16005KT 5SM BR SCT004 BKN011 BKN060 01/01 A2980 RMK AO2 SLR// VIS LWR SE-S 2 T00110006,M
LSV,2021-01-29 19:07,-115.0343,36.2362,570.00,53.60,35.60,50.36,170.00,15.00,0.00,29.83,1009.70,10.00,M,BKN,M,M,M,4800.00,M,M,M,M,M,M,M,M,M,M,53.60,KLSV 291907Z AUTO 17015KT 10SM BKN048 12/02 A2983 RMK AO2 SLP097 $,M
TPH,2021-01-29 19:07,-117.0904,38.0505,1654.00,32.00,30.90,95.65,350.00,4.00,0.03,29.77,M,0.50,M,FEW,BKN,OVC,M,600.00,1500.00,2000.00,M,-SN FG,M,M,M,M,M,M,27.42,KTPH 291907Z AUTO 35004KT 1/2SM -SN FG FEW006 BKN015 OVC020 00/M01 A2977 RMK AO2 P0003 T00001006,M
05U,2021-01-29 19:10,-116.0051,39.6042,1811.23,32.00,28.40,86.39,180.00,7.00,0.00,29.72,M,0.50,M,BKN,M,M,M,200.00,M,M,M,BR,M,M,M,M,M,M,24.78,K05U 291910Z AUTO 18007KT 1/2SM BR BKN002 M00/M02 A2972 RMK A01,M
LSV,2021-01-29 19:10,-115.0343,36.2362,570.00,53.60,35.60,50.36,220.00,18.00,0.00,29.83,1009.70,10.00,23.00,BKN,M,M,M,4800.00,M,M,M,M,M,M,M,M,M,M,53.60,KLSV 291910Z AUTO 22018G23KT 10SM BKN048 12/02 A2983 RMK AO2 WSHFT 07 SLP097 $,M
LSV,2021-01-29 19:13,-115.0343,36.2362,570.00,53.60,35.60,50.36,260.00,15.00,0.00,29.84,1010.10,10.00,23.00,BKN,M,M,M,4800.00,M,M,M,M,M,M,M,M,M,M,53.60,KLSV 291913Z AUTO 26015G23KT 10SM BKN048 12/02 A2984 RMK AO2 WSHFT 10 SLP101 $,M
LSV,2021-01-29 19:14,-115.0343,36.2362,570.00,53.60,35.60,50.36,260.00,13.00,0.00,29.84,1009.90,10.00,23.00,BKN,M,M,M,4800.00,M,M,M,-RA,M,M,M,M,M,M,53.60,KLSV 291914Z AUTO 26013G23KT 10SM -RA BKN048 12/02 A2984 RMK AO2 RAB14 SLP099 $,M
TPH,2021-01-29 19:14,-117.0904,38.0505,1654.00,32.00,32.00,100.00,360.00,4.00,0.03,29.77,M,2.00,M,FEW,BKN,OVC,M,600.00,1800.00,3200.00,M,-SN BR,M,M,M,M,M,M,27.42,KTPH 291914Z AUTO 36004KT 2SM -SN BR FEW006 BKN018 OVC032 00/00 A2977 RMK AO2 P0003 T00000000,M
BVU,2021-01-29 19:15,-114.8611,35.9475,671.00,51.80,39.20,61.99,160.00,13.00,0.00,29.86,M,10.00,18.00,SCT,SCT,BKN,M,5500.00,6500.00,7000.00,M,M,M,M,M,M,M,M,51.80,KBVU 291915Z AUTO 16013G18KT 10SM SCT055 SCT065 BKN070 11/04 A2986 RMK AO2,M
CXP,2021-01-29 19:15,-119.7326,39.1923,1431.00,35.60,30.20,80.51,0.00,0.00,0.00,29.82,M,10.00,M,BKN,BKN,OVC,M,1000.00,1400.00,2500.00,M,M,M,M,M,M,M,M,35.60,KCXP 291915Z AUTO 00000KT 10SM BKN010 BKN014 OVC025 02/M01 A2982 RMK AO2,M
RTS,2021-01-29 19:15,-119.8764,39.6682,1539.00,30.20,26.60,86.28,0.00,0.00,0.00,29.80,M,10.00,M,CLR,M,M,M,M,M,M,M,M,M,M,M,M,M,M,30.20,KRTS 291915Z AUTO 00000KT 10SM CLR M01/M03 A2980 RMK AO2,M
MEV,2021-01-29 19:15,-119.7500,38.9963,1441.42,32.00,30.20,92.97,0.00,0.00,0.00,29.81,M,9.00,M,SCT,OVC,M,M,1100.00,4200.00,M,M,UP,M,M,M,M,M,M,32.00,KMEV 291915Z AUTO 00000KT 9SM UP SCT011 OVC042 M00/M01 A2981 RMK AO2,M
HTH,2021-01-29 19:15,-118.6315,38.5448,1282.89,37.40,33.80,86.69,320.00,6.00,0.00,29.81,M,10.00,M,SCT,BKN,BKN,M,900.00,1300.00,6000.00,M,M,M,M,M,M,M,M,32.03,KHTH 291915Z AUTO 32006KT 10SM SCT009 BKN013 BKN060 03/01 A2981 RMK A01,M
BAM,2021-01-29 19:15,-116.8743,40.5990,1382.36,37.40,32.00,80.65,230.00,12.00,0.00,29.73,M,10.00,M,OVC,M,M,M,3500.00,M,M,M,M,M,M,M,M,M,M,28.87,KBAM 291915Z AUTO 23012KT 10SM OVC035 03/00 A2973 RMK AO1,M
TMT,2021-01-29 19:15,-117.1971,39.4643,1749.34,34.70,27.30,74.10,220.00,6.00,0.00,29.75,M,10.00,M,M,M,M,M,M,M,M,M,M,M,M,M,M,M,M,28.78,KTMT 291915Z AUTO 22006KT 10SM 02/M03 A2975 RMK AO2 T00151026,M
EKO,2021-01-29 19:17,-115.7860,40.8242,1367.00,35.00,31.00,85.17,230.00,12.05,M,29.68,M,10.00,M,FEW,OVC,M,M,1000.00,3300.00,M,M,M,M,M,M,M,M,M,25.80,SPECI KEKO 291917Z 23012KT 10SM FEW010 OVC033 02/M01 A2968 RMK AO2 SNE00 P0000 T00171006 TSNO FIBI,M
ELY,2021-01-29 19:18,-114.8453,39.2950,1909.00,34.00,25.00,69.28,170.00,17.00,T,29.70,M,6.00,M,BKN,BKN,OVC,M,2600.00,3700.00,4800.00,M,-SN,M,M,M,M,M,M,22.70,KELY 291918Z AUTO 17017KT 6SM -SN BKN026 BKN037 OVC048 01/M04 A2970 RMK AO2 UPB04E08SNE04B08 P0000 T00111039,M
TPH,2021-01-29 19:22,-117.0904,38.0505,1654.00,33.00,32.00,95.67,10.00,5.00,0.03,29.76,M,9.00,M,SCT,BKN,OVC,M,1700.00,2700.00,3300.00,M,M,M,M,M,M,M,M,27.70,KTPH 291922Z AUTO 01005KT 9SM SCT017 BKN027 OVC033 01/00 A2976 RMK AO2 SNE21 P0003 T00060000,M
LOL,2021-01-29 19:24,-118.5701,40.0684,1192.43,35.00,33.00,92.32,190.00,7.00,0.00,29.79,M,10.00,M,BKN,BKN,M,M,600.00,5000.00,M,M,M,M,M,M,M,M,M,28.56,KLOL 291924Z AUTO 19007KT 10SM BKN006 BKN050 02/01 A2979 RMK AO2 T00170006,M
LSV,2021-01-29 19:26,-115.0343,36.2362,570.00,50.00,39.20,66.27,220.00,11.00,0.00,29.83,1009.70,9.00,M,SCT,M,M,M,4700.00,M,M,M,-RA,M,M,M,M,M,M,50.00,KLSV 291926Z AUTO 22011KT 9SM -RA SCT047 10/04 A2983 RMK AO2 WSHFT 14 LTG DSNT SE RAB14 SLP097 $,M
LSV,2021-01-29 19:27,-115.0343,36.2362,570.00,50.00,39.20,66.27,220.00,11.00,0.00,29.83,1009.70,10.00,M,SCT,M,M,M,4700.00,M,M,M,M,M,M,M,M,M,M,50.00,KLSV 291927Z AUTO 22011KT 10SM SCT047 10/04 A2983 RMK AO2 LTG DSNT SE RAB14E27 SLP097 $,M
LSV,2021-01-29 19:29,-115.0343,36.2362,570.00,50.00,39.20,66.27,210.00,12.00,0.00,29.83,1009.70,10.00,M,SCT,M,M,M,4700.00,M,M,M,TS,M,M,M,M,M,M,50.00,KLSV 291929Z AUTO 21012KT 10SM TS SCT047 10/04 A2983 RMK AO2 RAB14E27 TSB29 SLP097 $,M
05U,2021-01-29 19:30,-116.0051,39.6042,1811.23,32.00,28.40,86.39,0.00,0.00,0.00,29.73,M,9.00,M,FEW,SCT,SCT,M,1800.00,2500.00,4300.00,M,M,M,M,M,M,M,M,32.00,K05U 291930Z AUTO 00000KT 9SM FEW018 SCT025 SCT043 00/M02 A2973 RMK A01,M
INS,2021-01-29 19:30,-115.6733,36.5872,955.00,48.20,28.40,46.02,220.00,13.00,0.00,29.78,1006.90,10.00,19.00,FEW,SCT,M,M,16000.00,19000.00,M,M,M,M,M,M,M,M,M,42.32,KINS 291930Z AUTO 22013G19KT 10SM FEW160 SCT190 09/M02 A2978 RMK AO2 WSHFT 25 LTG DSNT SE SLP069 $,M
TPH,2021-01-29 19:31,-117.0904,38.0505,1654.00,34.00,32.00,92.29,10.00,5.00,0.03,29.76,M,10.00,M,FEW,BKN,OVC,M,1700.00,3400.00,4000.00,M,M,M,M,M,M,M,M,28.77,KTPH 291931Z AUTO 01005KT 10SM FEW017 BKN034 OVC040 01/00 A2976 RMK AO2 SNE21 P0003 T00110000,M
RNO,2021-01-29 19:32,-119.7711,39.4839,1341.00,37.00,28.00,69.63,0.00,0.00,0.00,29.80,M,10.00,M,FEW,SCT,BKN,M,1000.00,2500.00,5000.00,M,M,M,M,M,M,M,M,37.00,KRNO 291932Z 00000KT 10SM FEW010 SCT025 BKN050 03/M02 A2980 RMK AO2 T00281022 $,M
BVU,2021-01-29 19:35,-114.8611,35.9475,671.00,48.20,37.40,66.05,280.00,14.00,0.00,29.87,M,10.00,20.00,FEW,SCT,BKN,M,3200.00,4700.00,5500.00,M,TS,M,M,M,M,M,M,42.04,KBVU 291935Z AUTO 28014G20KT 10SM TS FEW032 SCT047 BKN055 09/03 A2987 RMK AO2 LTG DSNT NW-NE,M
TMT,2021-01-29 19:35,-117.1971,39.4643,1749.34,37.00,27.50,68.48,210.00,5.00,0.00,29.75,M,10.00,M,M,M,M,M,M,M,M,M,M,M,M,M,M,M,M,32.21,KTMT 291935Z AUTO 21005KT 10SM 03/M02 A2975 RMK AO2 LTG DSNT S T00271025,M
CXP,2021-01-29 19:35,-119.7326,39.1923,1431.00,35.60,30.20,80.51,0.00,0.00,0.00,29.82,M,10.00,M,BKN,BKN,OVC,M,1200.00,3100.00,6500.00,M,M,M,M,M,M,M,M,35.60,KCXP 291935Z AUTO 00000KT 10SM BKN012 BKN031 OVC065 02/M01 A2982 RMK AO2,M
MEV,2021-01-29 19:35,-119.7500,38.9963,1441.42,32.00,30.20,92.97,0.00,0.00,0.00,29.81,M,10.00,M,SCT,BKN,OVC,M,4100.00,4700.00,6000.00,M,M,M,M,M,M,M,M,32.00,KMEV 291935Z AUTO 00000KT 10SM SCT041 BKN047 OVC060 00/M01 A2981 RMK AO2,M
BAM,2021-01-29 19:35,-116.8743,40.5990,1382.36,37.40,32.00,80.65,250.00,13.00,0.00,29.73,M,10.00,M,OVC,M,M,M,3300.00,M,M,M,M,M,M,M,M,M,M,28.49,KBAM 291935Z AUTO 25013KT 10SM OVC033 03/00 A2973 RMK AO1,M
HTH,2021-01-29 19:35,-118.6315,38.5448,1282.89,37.40,33.80,86.69,340.00,4.00,0.00,29.81,M,10.00,M,SCT,BKN,OVC,M,900.00,1300.00,6000.00,M,M,M,M,M,M,M,M,33.73,KHTH 291935Z AUTO 34004KT 10SM SCT009 BKN013 OVC060 03/01 A2981 RMK A01,M
RTS,2021-01-29 19:35,-119.8764,39.6682,1539.00,30.20,26.60,86.28,0.00,0.00,0.00,29.80,M,10.00,M,CLR,M,M,M,M,M,M,M,M,M,M,M,M,M,M,30.20,KRTS 291935Z AUTO 00000KT 10SM CLR M01/M03 A2980 RMK AO2,M
TPH,2021-01-29 19:40,-117.0904,38.0505,1654.00,33.00,32.00,95.67,360.00,6.00,0.03,29.76,M,2.00,M,FEW,BKN,OVC,M,900.00,3400.00,4100.00,M,-SN BR,M,M,M,M,M,M,26.86,KTPH 291940Z AUTO 36006KT 2SM -SN BR FEW009 BKN034 OVC041 01/00 A2976 RMK AO2 SNE21B36 P0003 T00060000,M
ELY,2021-01-29 19:42,-114.8453,39.2950,1909.00,34.00,24.10,66.72,190.00,11.00,T,29.68,M,5.00,M,BKN,BKN,OVC,M,3400.00,4400.00,6000.00,M,-SN,M,M,M,M,M,M,24.99,KELY 291942Z AUTO 19011KT 5SM -SN BKN034 BKN044 OVC060 01/M04 A2968 RMK AO2 UPB04E08SNE04B08 P0000 T00111044,M
TPH,2021-01-29 19:43,-117.0904,38.0505,1654.00,33.00,32.00,95.67,330.00,6.00,0.04,29.76,M,1.00,M,FEW,BKN,OVC,M,700.00,2700.00,4100.00,M,-SN BR,M,M,M,M,M,M,26.86,KTPH 291943Z AUTO 33006KT 1SM -SN BR FEW007 BKN027 OVC041 01/00 A2976 RMK AO2 SNE21B36 P0004 T00060000,M
LSV,2021-01-29 19:44,-115.0343,36.2362,570.00,51.80,39.20,61.99,210.00,13.00,0.00,29.82,1009.40,10.00,M,FEW,FEW,FEW,M,6000.00,11000.00,20000.00,M,VCTS,M,M,M,M,M,M,51.80,KLSV 291944Z COR AUTO 21013KT 10SM VCTS FEW060 FEW110 FEW200 11/04 A2982 RMK AO2 RAB14E27 SLP094 $ COR 1954,M
05U,2021-01-29 19:50,-116.0051,39.6042,1811.23,33.80,28.40,80.36,190.00,4.00,0.00,29.72,M,4.00,M,BKN,BKN,BKN,M,1800.00,2700.00,3200.00,M,HZ,M,M,M,M,M,M,29.52,K05U 291950Z AUTO 19004KT 4SM HZ BKN018 BKN027 BKN032 01/M02 A2972 RMK A01,M
WMC,2021-01-29 19:52,-117.8072,40.9019,1315.00,37.40,30.20,74.98,M,3.00,0.00,29.74,M,10.00,M,SCT,BKN,OVC,M,2300.00,2800.00,4500.00,M,M,M,M,M,M,M,M,34.86,KWMC 291952Z AUTO VRB03KT 10SM SCT023 BKN028 OVC045 03/M01 A2974 RMK AO2,M
ELY,2021-01-29 19:53,-114.8453,39.2950,1909.00,34.00,23.00,63.72,190.00,14.00,0.01,29.68,1004.00,8.00,20.00,BKN,OVC,M,M,3400.00,4200.00,M,M,-SN,M,M,M,M,M,M,23.74,KELY 291953Z AUTO 19014G20KT 8SM -SN BKN034 OVC042 01/M05 A2968 RMK AO2 UPB04E08SNE04B08 SLP040 P0001 T00111050,M
LOL,2021-01-29 19:53,-118.5701,40.0684,1192.43,35.00,33.00,92.32,190.00,7.00,0.00,29.79,1010.10,10.00,M,BKN,BKN,M,M,600.00,5000.00,M,M,M,M,M,M,M,M,M,28.56,KLOL 291953Z AUTO 19007KT 10SM BKN006 BKN050 02/01 A2979 RMK AO2 SLP101 T00170006,M
VGT,2021-01-29 19:53,-115.1933,36.2111,667.00,51.00,35.00,54.13,230.00,8.00,T,29.79,1010.30,10.00,M,CLR,M,M,M,M,M,M,M,M,M,M,M,M,M,M,51.10,KVGT 291953Z 23008KT 10SM CLR 11/02 A2979 RMK AO2 LTG DSNT E AND SE RAE05 SLP103 P0000 T01060017,M
P68,2021-01-29 19:53,-116.0056,39.6014,1993.00,32.00,28.00,84.98,170.00,6.00,0.02,29.69,1004.80,M,M,M,M,M,M,M,M,M,M,M,M,M,M,M,M,M,25.53,KP68 291953Z AUTO 17006KT 00/M02 A2969 RMK AO1 SLP048 P0002 T00001022,M
DRA,2021-01-29 19:53,-116.0278,36.6206,1009.00,48.00,32.00,53.67,200.00,16.00,0.00,29.78,1006.50,10.00,28.00,CLR,M,M,M,M,M,M,M,M,M,M,M,34.00,190.00,2021-01-29 19:05,41.27,KDRA 291953Z AUTO 20016G28KT 10SM CLR 09/00 A2978 RMK AO2 PK WND 19034/1905 SLP065 T00890000 $,M
EKO,2021-01-29 19:54,-115.7860,40.8242,1367.00,37.40,30.20,74.98,260.00,14.97,M,29.67,M,10.00,M,BKN,BKN,OVC,M,2001.00,3700.00,10000.00,M,M,M,M,M,M,M,M,27.79,SPECI KEKO 291954Z 26015KT 10SM BKN020 BKN037 OVC100 03/M01 A2967 RMK AO2 SNE00 P0000 TSNO FIBI,M
RTS,2021-01-29 19:55,-119.8764,39.6682,1539.00,30.20,26.60,86.28,0.00,0.00,0.00,29.80,M,10.00,M,FEW,M,M,M,4600.00,M,M,M,M,M,M,M,M,M,M,30.20,KRTS 291955Z AUTO 00000KT 10SM FEW046 M01/M03 A2980 RMK AO2,M
HTH,2021-01-29 19:55,-118.6315,38.5448,1282.89,39.20,32.00,75.16,0.00,0.00,0.00,29.81,M,10.00,M,FEW,SCT,OVC,M,900.00,1300.00,5500.00,M,M,M,M,M,M,M,M,39.20,KHTH 291955Z AUTO 00000KT 10SM FEW009 SCT013 OVC055 04/00 A2981 RMK A01,M
BAM,2021-01-29 19:55,-116.8743,40.5990,1382.36,37.40,32.00,80.65,240.00,15.00,0.00,29.73,M,10.00,M,BKN,OVC,M,M,3300.00,4100.00,M,M,M,M,M,M,M,M,M,27.78,KBAM 291955Z AUTO 24015KT 10SM BKN033 OVC041 03/00 A2973 RMK AO1,M
MEV,2021-01-29 19:55,-119.7500,38.9963,1441.42,32.00,30.20,92.97,120.00,3.00,0.00,29.80,M,10.00,M,FEW,SCT,BKN,M,4000.00,4700.00,5500.00,M,M,M,M,M,M,M,M,28.69,KMEV 291955Z AUTO 12003KT 10SM FEW040 SCT047 BKN055 00/M01 A2980 RMK AO2,M
TMT,2021-01-29 19:55,-117.1971,39.4643,1749.34,36.30,26.10,66.18,200.00,4.00,0.00,29.74,M,10.00,M,M,M,M,M,M,M,M,M,M,M,M,M,M,M,M,32.44,KTMT 291955Z AUTO 20004KT 10SM 02/M03 A2974 RMK AO2 T00241033,M
RNO,2021-01-29 19:55,-119.7711,39.4839,1341.00,37.00,28.90,72.24,0.00,0.00,0.00,29.80,1009.30,10.00,M,FEW,SCT,BKN,M,1400.00,2500.00,5000.00,M,M,M,M,M,M,M,M,37.00,KRNO 291955Z 00000KT 10SM FEW014 SCT025 BKN050 03/M02 A2980 RMK AO2 SLP093 T00281017 $,M
BVU,2021-01-29 19:55,-114.8611,35.9475,671.00,50.00,33.80,53.54,240.00,9.00,0.00,29.85,M,10.00,M,FEW,FEW,SCT,M,4700.00,5500.00,11000.00,M,VCTS,M,M,M,M,M,M,50.00,KBVU 291955Z AUTO 24009KT 10SM VCTS FEW047 FEW055 SCT110 10/01 A2985 RMK AO2 LTG DSNT NE,M
CXP,2021-01-29 19:55,-119.7326,39.1923,1431.00,35.60,28.40,74.80,0.00,0.00,0.00,29.81,M,10.00,M,SCT,SCT,OVC,M,1500.00,2300.00,6500.00,M,M,M,M,M,M,M,M,35.60,KCXP 291955Z AUTO 00000KT 10SM SCT015 SCT023 OVC065 02/M02 A2981 RMK AO2,M
TPH,2021-01-29 19:56,-117.0904,38.0505,1654.00,32.00,32.00,100.00,320.00,9.00,0.04,29.77,1008.00,0.50,M,FEW,BKN,OVC,M,700.00,1200.00,3600.00,M,SN FG,M,M,M,M,M,M,23.51,KTPH 291956Z AUTO 32009KT 1/2SM SN FG FEW007 BKN012 OVC036 00/00 A2977 RMK AO2 SNE21B36 SLP080 P0004 T00000000,M
WMC,2021-01-29 19:56,-117.8072,40.9019,1315.00,37.00,30.00,75.56,160.00,3.00,0.00,29.74,1007.50,10.00,M,SCT,BKN,OVC,M,2300.00,2800.00,4600.00,M,M,M,M,M,M,M,M,34.40,KWMC 291956Z AUTO 16003KT 10SM SCT023 BKN028 OVC046 03/M01 A2974 RMK AO2 SLP075 T00281011,M
HND,2021-01-29 19:56,-115.1344,35.9729,742.79,48.00,35.00,60.76,190.00,14.00,T,29.85,1012.40,10.00,M,SCT,BKN,M,M,4000.00,10000.00,M,M,M,M,M,M,28.00,230.00,2021-01-29 19:00,41.79,KHND 291956Z 19014KT 10SM SCT040 BKN100 09/02 A2985 RMK AO2 PK WND 23028/1900 LTG DSNT E RAE23 SLP124 P0000 T00890017,M
NFL,2021-01-29 19:56,-118.7010,39.4166,1199.00,34.00,33.00,96.46,150.00,4.00,0.00,29.80,1007.00,5.00,M,SCT,BKN,BKN,M,300.00,1300.00,5000.00,M,BR,M,M,M,M,M,M,29.76,KNFL 291956Z 15004KT 5SM BR SCT003 BKN013 BKN050 01/01 A2980 RMK AO2 SLP070 SLR// VIS LWR SE-S 2 T00110006,M
EKO,2021-01-29 19:56,-115.7860,40.8242,1367.00,38.00,31.00,75.65,250.00,13.02,M,29.67,1004.70,10.00,M,BKN,BKN,OVC,M,2001.00,3900.00,10000.00,M,M,M,M,M,M,M,M,29.25,METAR KEKO 291956Z 25013KT 10SM BKN020 BKN039 OVC100 03/M01 A2967 RMK AO2 SNE00 SLP047 P0000 T00331006 TSNO FIBI,M
LSV,2021-01-29 19:56,-115.0343,36.2362,570.00,52.20,37.80,57.83,210.00,17.00,0.01,29.81,1009.00,10.00,M,FEW,FEW,M,M,6500.00,11000.00,M,M,M,M,M,M,M,M,M,52.20,KLSV 291956Z AUTO 21017KT 10SM FEW065 FEW110 11/03 A2981 RMK AO2 RAB14E27 TSB29E44 SLP090 P0001 T01120032 $,M
LAS,2021-01-29 19:56,-115.1634,36.0719,663.00,50.00,32.00,49.81,230.00,7.00,T,29.83,1009.90,10.00,19.00,FEW,SCT,BKN,BKN,5000.00,7000.00,12000.00,20000.00,M,M,M,M,M,M,M,50.00,KLAS 291956Z 23007G19KT 10SM FEW050 SCT070 BKN120 BKN200 10/00 A2983 RMK AO2 LTG DSNT E RAE12 SLP099 SH DSNT E P0000 T01000000,M
INS,2021-01-29 19:56,-115.6733,36.5872,955.00,48.70,27.30,43.17,170.00,5.00,0.00,29.77,1006.60,10.00,18.00,FEW,FEW,SCT,SCT,13000.00,16000.00,18000.00,21000.00,M,M,M,M,M,M,M,46.23,KINS 291956Z AUTO 17005G18KT 10SM FEW130 FEW160 SCT180 SCT210 09/M03 A2977 RMK AO2 SLP066 T00931026 $,M
TPH,2021-01-29 20:04,-117.0904,38.0505,1654.00,30.90,30.90,100.00,330.00,9.00,0.01,29.77,M,0.25,M,VV ,M,M,M,600.00,M,M,M,+SN FZFG,M,M,M,M,M,M,22.15,KTPH 292004Z AUTO 33009KT 1/4SM +SN FZFG VV006 M01/M01 A2977 RMK AO2 P0001 T10061006,M
05U,2021-01-29 20:10,-116.0051,39.6042,1811.23,33.80,28.40,80.36,250.00,7.00,0.00,29.72,M,9.00,M,FEW,SCT,BKN,M,1500.00,1900.00,4200.00,M,M,M,M,M,M,M,M,26.97,K05U 292010Z AUTO 25007KT 9SM FEW015 SCT019 BKN042 01/M02 A2972 RMK A01,M
CXP,2021-01-29 20:15,-119.7326,39.1923,1431.00,39.20,28.40,64.93,0.00,0.00,0.00,29.81,M,10.00,M,BKN,OVC,M,M,1400.00,2100.00,M,M,M,M,M,M,M,M,M,39.20,KCXP 292015Z AUTO 00000KT 10SM BKN014 OVC021 04/M02 A2981 RMK AO2,M
BAM,2021-01-29 20:15,-116.8743,40.5990,1382.36,39.20,32.00,75.16,240.00,11.00,0.00,29.73,M,10.00,M,OVC,M,M,M,4000.00,M,M,M,M,M,M,M,M,M,M,31.57,KBAM 292015Z AUTO 24011KT 10SM OVC040 04/00 A2973 RMK AO1,M
HTH,2021-01-29 20:15,-118.6315,38.5448,1282.89,39.20,32.00,75.16,360.00,6.00,0.00,29.80,M,10.00,M,SCT,SCT,BKN,M,1500.00,2100.00,2700.00,M,M,M,M,M,M,M,M,34.20,KHTH 292015Z AUTO 36006KT 10SM SCT015 SCT021 BKN027 04/00 A2980 RMK A01,M
BVU,2021-01-29 20:15,-114.8611,35.9475,671.00,53.60,33.80,46.88,240.00,13.00,0.00,29.85,M,10.00,M,FEW,M,M,M,11000.00,M,M,M,M,M,M,M,M,M,M,53.60,KBVU 292015Z AUTO 24013KT 10SM FEW110 12/01 A2985 RMK AO2,M
MEV,2021-01-29 20:15,-119.7500,38.9963,1441.42,33.80,30.20,86.49,0.00,0.00,0.00,29.80,M,10.00,M,SCT,BKN,OVC,M,700.00,4900.00,6000.00,M,M,M,M,M,M,M,M,33.80,KMEV 292015Z AUTO 00000KT 10SM SCT007 BKN049 OVC060 01/M01 A2980 RMK AO2,M
RTS,2021-01-29 20:15,-119.8764,39.6682,1539.00,30.20,26.60,86.28,0.00,0.00,0.00,29.80,M,10.00,M,BKN,M,M,M,4500.00,M,M,M,M,M,M,M,M,M,M,30.20,KRTS 292015Z AUTO 00000KT 10SM BKN045 M01/M03 A2980 RMK AO2,M
TMT,2021-01-29 20:15,-117.1971,39.4643,1749.34,36.50,25.00,62.73,230.00,4.00,0.00,29.74,M,10.00,M,M,M,M,M,M,M,M,M,M,M,M,M,M,M,M,32.68,KTMT 292015Z AUTO 23004KT 10SM 03/M04 A2974 RMK AO2 T00251039,M
ELY,2021-01-29 20:23,-114.8453,39.2950,1909.00,33.00,24.10,69.17,240.00,14.00,T,29.68,M,2.50,20.00,BKN,OVC,M,M,2700.00,3700.00,M,M,-SN,M,M,M,M,M,M,22.58,KELY 292023Z AUTO 24014G20KT 2 1/2SM -SN BKN027 OVC037 01/M04 A2968 RMK AO2 VIS 1 1/2V5 P0000 T00061044,M
ELY,2021-01-29 20:28,-114.8453,39.2950,1909.00,32.00,25.00,75.07,250.00,13.00,T,29.68,M,1.50,20.00,BKN,OVC,M,M,3000.00,4000.00,M,M,-SN,M,M,M,M,M,M,21.57,KELY 292028Z AUTO 25013G20KT 1 1/2SM -SN BKN030 OVC040 00/M04 A2968 RMK AO2 P0000 T00001039,M
05U,2021-01-29 20:30,-116.0051,39.6042,1811.23,33.80,28.40,80.36,250.00,9.00,0.00,29.72,M,10.00,M,FEW,SCT,OVC,M,2800.00,3500.00,4300.00,M,M,M,M,M,M,M,M,25.75,K05U 292030Z AUTO 25009KT 10SM FEW028 SCT035 OVC043 01/M02 A2972 RMK A01,M
INS,2021-01-29 20:31,-115.6733,36.5872,955.00,50.00,30.20,46.31,200.00,11.00,0.00,29.76,1006.00,10.00,16.00,FEW,SCT,SCT,BKN,6000.00,10000.00,13000.00,20000.00,M,M,M,M,M,M,M,50.00,KINS 292031Z AUTO 20011G16KT 10SM FEW060 SCT100 SCT130 BKN200 10/M01 A2976 RMK AO2 WSHFT 23 SLP060 $,M
CXP,2021-01-29 20:35,-119.7326,39.1923,1431.00,37.40,28.40,69.67,0.00,0.00,0.00,29.80,M,7.00,M,OVC,M,M,M,1300.00,M,M,M,M,M,M,M,M,M,M,37.40,KCXP 292035Z AUTO 00000KT 7SM OVC013 03/M02 A2980 RMK AO2,M
BVU,2021-01-29 20:35,-114.8611,35.9475,671.00,51.80,33.80,50.08,230.00,13.00,0.00,29.83,M,10.00,M,CLR,M,M,M,M,M,M,M,M,M,M,M,M,M,M,51.80,KBVU 292035Z AUTO 23013KT 10SM CLR 11/01 A2983 RMK AO2,M
TMT,2021-01-29 20:35,-117.1971,39.4643,1749.34,35.60,23.70,61.57,0.00,0.00,0.00,29.74,M,10.00,M,M,M,M,M,M,M,M,M,M,M,M,M,M,M,M,35.60,KTMT 292035Z AUTO 00000KT 10SM 02/M05 A2974 RMK AO2 T00201046,M
BAM,2021-01-29 20:35,-116.8743,40.5990,1382.36,41.00,32.00,70.08,240.00,16.00,0.00,29.73,M,10.00,M,BKN,OVC,M,M,4300.00,5500.00,M,M,M,M,M,M,M,M,M,32.15,KBAM 292035Z AUTO 24016KT 10SM BKN043 OVC055 05/00 A2973 RMK AO1,M
HTH,2021-01-29 20:35,-118.6315,38.5448,1282.89,39.20,32.00,75.16,320.00,6.00,0.00,29.81,M,10.00,M,FEW,SCT,BKN,M,1500.00,2500.00,4100.00,M,M,M,M,M,M,M,M,34.20,KHTH 292035Z AUTO 32006KT 10SM FEW015 SCT025 BKN041 04/M00 A2981 RMK A01,M
RTS,2021-01-29 20:35,-119.8764,39.6682,1539.00,32.00,28.40,86.39,0.00,0.00,0.00,29.80,M,10.00,M,OVC,M,M,M,4500.00,M,M,M,M,M,M,M,M,M,M,32.00,KRTS 292035Z AUTO 00000KT 10SM OVC045 M00/M02 A2980 RMK AO2,M
MEV,2021-01-29 20:35,-119.7500,38.9963,1441.42,33.80,30.20,86.49,0.00,0.00,0.00,29.80,M,9.00,M,BKN,BKN,BKN,M,700.00,5000.00,6000.00,M,M,M,M,M,M,M,M,33.80,KMEV 292035Z AUTO 00000KT 9SM BKN007 BKN050 BKN060 01/M01 A2980 RMK AO2,M
TPH,2021-01-29 20:38,-117.0904,38.0505,1654.00,30.90,30.90,100.00,0.00,0.00,0.06,29.76,M,0.50,M,VV ,M,M,M,1000.00,M,M,M,SN FZFG,M,M,M,M,M,M,30.90,KTPH 292038Z AUTO 00000KT 1/2SM SN FZFG VV010 M01/M01 A2976 RMK AO2 P0006 T10061006,M
ELY,2021-01-29 20:41,-114.8453,39.2950,1909.00,32.00,25.00,75.07,260.00,11.00,T,29.68,M,4.00,M,SCT,OVC,M,M,2900.00,3700.00,M,M,-SN,M,M,M,M,M,M,22.47,KELY 292041Z AUTO 26011KT 4SM -SN SCT029 OVC037 00/M04 A2968 RMK AO2 P0000 T00001039,M
TPH,2021-01-29 20:44,-117.0904,38.0505,1654.00,30.90,30.90,100.00,0.00,0.00,0.06,29.76,M,1.00,M,BKN,BKN,OVC,M,1500.00,3300.00,4600.00,M,-SN BR,M,M,M,M,M,M,30.90,KTPH 292044Z AUTO 00000KT 1SM -SN BR BKN015 BKN033 OVC046 M01/M01 A2976 RMK AO2 P0006 T10061006,M
LOL,2021-01-29 20:45,-118.5701,40.0684,1192.43,37.00,33.00,85.64,180.00,7.00,0.00,29.79,M,10.00,M,BKN,BKN,M,M,1000.00,1400.00,M,M,M,M,M,M,M,M,M,30.87,KLOL 292045Z AUTO 18007KT 10SM BKN010 BKN014 03/01 A2979 RMK AO2 CIG 008V012 T00280006,M
ELY,2021-01-29 20:48,-114.8453,39.2950,1909.00,30.20,24.80,80.07,230.00,19.00,T,29.69,M,1.25,27.00,BKN,OVC,M,M,2400.00,3700.00,M,M,-SN,M,M,M,27.00,230.00,2021-01-29 20:48,17.06,KELY 292048Z AUTO 23019G27KT 1 1/4SM -SN BKN024 OVC037 M01/M04 A2969 RMK AO2 PK WND 23027/2048 P0000,M
TPH,2021-01-29 20:49,-117.0904,38.0505,1654.00,30.90,30.90,100.00,0.00,0.00,0.06,29.76,M,3.00,M,BKN,OVC,M,M,2500.00,5000.00,M,M,-SN BR,M,M,M,M,M,M,30.90,KTPH 292049Z AUTO 00000KT 3SM -SN BR BKN025 OVC050 M01/M01 A2976 RMK AO2 P0006 T10061006,M
05U,2021-01-29 20:50,-116.0051,39.6042,1811.23,33.80,26.60,74.63,280.00,7.00,0.00,29.72,M,10.00,M,FEW,BKN,OVC,M,2800.00,3700.00,4500.00,M,M,M,M,M,M,M,M,26.97,K05U 292050Z AUTO 28007KT 10SM FEW028 BKN037 OVC045 01/M03 A2972 RMK A01,M
VGT,2021-01-29 20:53,-115.1933,36.2111,667.00,53.00,32.00,44.42,260.00,9.00,0.00,29.77,1009.60,10.00,M,BKN,M,M,M,6000.00,M,M,M,M,M,M,M,M,M,M,53.10,KVGT 292053Z 26009KT 230V300 10SM BKN060 12/00 A2977 RMK AO2 SLP096 60001 T01170000 58008,M
P68,2021-01-29 20:53,-116.0056,39.6014,1993.00,34.00,27.00,75.26,270.00,6.00,0.00,29.70,1004.60,M,M,M,M,M,M,M,M,M,M,M,M,M,M,M,M,M,27.94,KP68 292053Z AUTO 27006KT 01/M03 A2970 RMK AO1 SLP046 60007 T00111028 58000,M
DRA,2021-01-29 20:53,-116.0278,36.6206,1009.00,48.00,32.00,53.67,200.00,17.00,0.00,29.78,1006.70,10.00,26.00,SCT,BKN,M,M,4500.00,5000.00,M,M,M,M,M,M,31.00,220.00,2021-01-29 20:37,41.04,KDRA 292053Z AUTO 20017G26KT 10SM SCT045 BKN050 09/00 A2978 RMK AO2 PK WND 22031/2037 SLP067 T00890000 55004,M
LOL,2021-01-29 20:53,-118.5701,40.0684,1192.43,37.00,33.00,85.64,170.00,10.00,0.00,29.79,1009.80,10.00,M,BKN,OVC,M,M,1000.00,1800.00,M,M,M,M,M,M,M,M,M,29.24,KLOL 292053Z AUTO 17010KT 10SM BKN010 OVC018 03/01 A2979 RMK AO2 SLP098 T00280006 50000,M
ELY,2021-01-29 20:53,-114.8453,39.2950,1909.00,28.00,24.10,85.08,230.00,17.00,T,29.69,1005.30,0.25,27.00,BKN,OVC,M,M,1600.00,3700.00,M,M,SN FZFG,M,M,M,27.00,230.00,2021-01-29 20:48,14.83,KELY 292053Z AUTO 23017G27KT 1/4SM SN FZFG BKN016 OVC037 M02/M04 A2969 RMK AO2 PK WND 23027/2048 SLP053 P0000 60001 T10221044 55003,M
MEV,2021-01-29 20:55,-119.7500,38.9963,1441.42,33.80,30.20,86.49,0.00,0.00,0.00,29.80,M,10.00,M,SCT,BKN,M,M,900.00,5000.00,M,M,M,M,M,M,M,M,M,33.80,KMEV 292055Z AUTO 00000KT 10SM SCT009 BKN050 01/M01 A2980 RMK AO2,M
RNO,2021-01-29 20:55,-119.7711,39.4839,1341.00,37.00,28.90,72.24,0.00,0.00,0.00,29.79,1009.10,10.00,M,SCT,BKN,M,M,2500.00,5500.00,M,M,M,M,M,M,M,M,M,37.00,KRNO 292055Z 00000KT 10SM SCT025 BKN055 03/M02 A2979 RMK AO2 SLP091 MTN TOPS OBSCD DSNT SW THRU NW T00281017 50000 $,M
RTS,2021-01-29 20:55,-119.8764,39.6682,1539.00,32.00,26.60,80.22,0.00,0.00,0.00,29.80,M,10.00,M,OVC,M,M,M,4700.00,M,M,M,M,M,M,M,M,M,M,32.00,KRTS 292055Z AUTO 00000KT 10SM OVC047 00/M03 A2980 RMK AO2,M
BAM,2021-01-29 20:55,-116.8743,40.5990,1382.36,37.40,32.00,80.65,240.00,14.00,0.00,29.73,M,10.00,18.00,BKN,BKN,OVC,M,4400.00,5000.00,5500.00,M,M,M,M,M,M,M,M,28.12,KBAM 292055Z AUTO 24014G18KT 10SM BKN044 BKN050 OVC055 03/00 A2973 RMK AO1,M
HTH,2021-01-29 20:55,-118.6315,38.5448,1282.89,39.20,30.20,69.88,350.00,5.00,0.00,29.80,M,10.00,M,FEW,SCT,BKN,M,1600.00,4400.00,6000.00,M,M,M,M,M,M,M,M,34.95,KHTH 292055Z AUTO 35005KT 10SM FEW016 SCT044 BKN060 04/M01 A2980 RMK A01,M
TMT,2021-01-29 20:55,-117.1971,39.4643,1749.34,35.20,23.00,60.74,300.00,6.00,0.00,29.74,M,10.00,M,M,M,M,M,M,M,M,M,M,M,M,M,M,M,M,29.38,KTMT 292055Z AUTO 30006KT 10SM 02/M05 A2974 RMK AO2 T00181050,M
CXP,2021-01-29 20:55,-119.7326,39.1923,1431.00,37.40,28.40,69.67,0.00,0.00,0.00,29.80,M,10.00,M,BKN,OVC,M,M,1400.00,4600.00,M,M,M,M,M,M,M,M,M,37.40,KCXP 292055Z AUTO 00000KT 10SM BKN014 OVC046 03/M02 A2980 RMK AO2,M
BVU,2021-01-29 20:55,-114.8611,35.9475,671.00,53.60,30.20,40.54,240.00,17.00,0.00,29.83,M,10.00,23.00,CLR,M,M,M,M,M,M,M,M,M,M,M,M,M,M,53.60,KBVU 292055Z AUTO 24017G23KT 10SM CLR 12/M01 A2983 RMK AO2,M
EKO,2021-01-29 20:56,-115.7860,40.8242,1367.00,35.00,30.00,81.78,230.00,7.97,M,29.67,1004.80,10.00,M,BKN,OVC,M,M,2201.00,2598.00,M,M,M,M,M,M,M,M,M,27.83,METAR KEKO 292056Z 23008KT 10SM BKN022 OVC026 02/M01 A2967 RMK AO2 SLP048 60005 T00171011 57001 TSNO FIBI,M
NFL,2021-01-29 20:56,-118.7010,39.4166,1199.00,36.00,32.00,85.23,190.00,4.00,0.00,29.80,1006.90,10.00,M,FEW,SCT,BKN,M,1000.00,1500.00,5000.00,M,M,M,M,M,M,M,M,32.09,KNFL 292056Z 19004KT 10SM FEW010 SCT015 BKN050 02/00 A2980 RMK AO2 SLP069 SLR// T00220000 55001,M
HND,2021-01-29 20:56,-115.1344,35.9729,742.79,51.00,30.90,45.73,230.00,19.00,0.00,29.82,1011.00,10.00,24.00,CLR,M,M,M,M,M,M,M,M,M,M,M,M,M,M,51.10,KHND 292056Z 23019G24KT 10SM CLR 11/M01 A2982 RMK AO2 SLP110 60000 T01061006 58010,M
INS,2021-01-29 20:56,-115.6733,36.5872,955.00,49.00,23.40,36.16,210.00,10.00,0.00,29.76,1006.20,10.00,17.00,FEW,FEW,M,M,10000.00,13000.00,M,M,M,M,M,M,M,M,M,44.41,KINS 292056Z AUTO 21010G17KT 10SM FEW100 FEW130 10/M05 A2976 RMK AO2 SLP062 T00951048 57014 $,M
WMC,2021-01-29 20:56,-117.8072,40.9019,1315.00,37.00,27.00,66.82,240.00,11.00,0.00,29.75,1007.90,10.00,17.00,BKN,OVC,M,M,2900.00,5500.00,M,M,M,M,M,M,M,M,M,28.79,KWMC 292056Z AUTO 24011G17KT 10SM BKN029 OVC055 03/M03 A2975 RMK AO2 SLP079 T00281028 53003,M
TPH,2021-01-29 20:56,-117.0904,38.0505,1654.00,30.90,30.90,100.00,0.00,0.00,0.06,29.76,1008.70,6.00,M,BKN,OVC,M,M,3100.00,4600.00,M,M,-SN BR,M,M,M,M,M,M,30.90,KTPH 292056Z AUTO 00000KT 6SM -SN BR BKN031 OVC046 M01/M01 A2976 RMK AO2 SLP087 P0006 60011 T10061006 50004,M
LAS,2021-01-29 20:56,-115.1634,36.0719,663.00,53.00,30.00,40.96,220.00,14.00,0.00,29.80,1008.60,10.00,28.00,FEW,SCT,SCT,BKN,5000.00,7000.00,12000.00,20000.00,M,M,M,M,29.00,220.00,2021-01-29 20:43,53.10,KLAS 292056Z 22014G28KT 10SM FEW050 SCT070 SCT120 BKN200 12/M01 A2980 RMK AO2 PK WND 22029/2043 SLP086 60000 T01171011 58015,M
LSV,2021-01-29 20:56,-115.0343,36.2362,570.00,53.00,35.20,50.86,200.00,14.00,0.00,29.79,1008.30,10.00,M,SCT,BKN,M,M,12000.00,19000.00,M,M,M,M,M,M,M,M,M,52.90,KLSV 292056Z 20014KT 10SM SCT120 BKN190 12/02 A2979 RMK AO2A SLP083 60001 T01160018 58017 $,M
ELY,2021-01-29 21:01,-114.8453,39.2950,1909.00,28.00,24.10,85.08,210.00,16.00,0.03,29.70,M,0.25,M,BKN,OVC,M,M,1100.00,3500.00,M,M,SN FZFG,M,M,M,M,M,M,15.20,KELY 292101Z AUTO 21016KT 1/4SM SN FZFG BKN011 OVC035 M02/M04 A2970 RMK AO2 P0003 T10221044,M
WMC,2021-01-29 21:04,-117.8072,40.9019,1315.00,37.00,27.00,66.82,240.00,11.00,0.00,29.75,M,10.00,M,FEW,OVC,M,M,2900.00,5500.00,M,M,M,M,M,M,M,M,M,28.79,KWMC 292104Z AUTO 24011KT 10SM FEW029 OVC055 03/M03 A2975 RMK AO2 T00281028,M
05U,2021-01-29 21:10,-116.0051,39.6042,1811.23,35.60,24.80,64.46,290.00,6.00,0.00,29.72,M,10.00,M,FEW,OVC,M,M,2900.00,4700.00,M,M,M,M,M,M,M,M,M,29.87,K05U 292110Z AUTO 29006KT 10SM FEW029 OVC047 02/M04 A2972 RMK A01,M
INS,2021-01-29 21:11,-115.6733,36.5872,955.00,50.00,23.00,34.39,220.00,13.00,0.00,29.76,1006.20,10.00,19.00,FEW,M,M,M,15000.00,M,M,M,M,M,M,M,M,M,M,50.00,KINS 292111Z AUTO 22013G19KT 10SM FEW150 10/M05 A2976 RMK AO2 WSHFT 07 SLP062 $,M
LOL,2021-01-29 21:13,-118.5701,40.0684,1192.43,38.00,34.00,85.69,150.00,9.00,0.00,29.79,M,10.00,M,FEW,BKN,BKN,M,700.00,1600.00,2200.00,M,M,M,M,M,M,M,M,30.85,KLOL 292113Z AUTO 15009KT 10SM FEW007 BKN016 BKN022 03/01 A2979 RMK AO2 T00330011,M
ELY,2021-01-29 21:13,-114.8453,39.2950,1909.00,28.90,25.00,85.14,200.00,9.00,0.04,29.69,M,1.00,19.00,BKN,BKN,OVC,M,1400.00,3000.00,6000.00,M,-SN BR,M,M,M,M,M,M,19.66,KELY 292113Z AUTO 20009G19KT 1SM -SN BR BKN014 BKN030 OVC060 M02/M04 A2969 RMK AO2 P0004 T10171039,M
CXP,2021-01-29 21:15,-119.7326,39.1923,1431.00,37.40,28.40,69.67,210.00,7.00,0.00,29.80,M,9.00,M,FEW,FEW,BKN,M,1600.00,3100.00,4700.00,M,M,M,M,M,M,M,M,31.36,KCXP 292115Z AUTO 21007KT 9SM FEW016 FEW031 BKN047 03/M02 A2980 RMK AO2,M
TMT,2021-01-29 21:15,-117.1971,39.4643,1749.34,38.50,22.60,52.44,300.00,4.00,0.00,29.74,M,10.00,M,M,M,M,M,M,M,M,M,M,M,M,M,M,M,M,35.01,KTMT 292115Z AUTO 30004KT 10SM 04/M05 A2974 RMK AO2 LTG DSNT SE T00361052,M
MEV,2021-01-29 21:15,-119.7500,38.9963,1441.42,33.80,28.40,80.36,0.00,0.00,0.00,29.79,M,10.00,M,FEW,FEW,BKN,M,900.00,3200.00,5500.00,M,-RA,M,M,M,M,M,M,33.80,KMEV 292115Z AUTO 00000KT 10SM -RA FEW009 FEW032 BKN055 01/M02 A2979 RMK AO2,M
RTS,2021-01-29 21:15,-119.8764,39.6682,1539.00,32.00,26.60,80.22,0.00,0.00,0.00,29.80,M,10.00,M,OVC,M,M,M,5000.00,M,M,M,M,M,M,M,M,M,M,32.00,KRTS 292115Z AUTO 00000KT 10SM OVC050 00/M03 A2980 RMK AO2,M
BVU,2021-01-29 21:15,-114.8611,35.9475,671.00,53.60,28.40,37.67,230.00,15.00,0.00,29.83,M,10.00,22.00,CLR,M,M,M,M,M,M,M,M,M,M,M,M,M,M,53.60,KBVU 292115Z AUTO 23015G22KT 10SM CLR 12/M02 A2983 RMK AO2,M
HTH,2021-01-29 21:15,-118.6315,38.5448,1282.89,39.20,30.20,69.88,320.00,5.00,0.00,29.80,M,10.00,M,FEW,SCT,BKN,M,1900.00,4200.00,5000.00,M,M,M,M,M,M,M,M,34.95,KHTH 292115Z AUTO 32005KT 10SM FEW019 SCT042 BKN050 04/M01 A2980 RMK A01,M
BAM,2021-01-29 21:15,-116.8743,40.5990,1382.36,37.40,32.00,80.65,230.00,15.00,0.00,29.73,M,10.00,20.00,OVC,M,M,M,4400.00,M,M,M,M,M,M,M,M,M,M,27.78,KBAM 292115Z AUTO 23015G20KT 10SM OVC044 03/00 A2973 RMK AO1,M
ELY,2021-01-29 21:16,-114.8453,39.2950,1909.00,28.90,25.00,85.14,190.00,12.00,0.04,29.69,M,2.00,19.00,BKN,BKN,OVC,M,1200.00,3000.00,7500.00,M,-SN BR,M,M,M,M,M,M,18.06,KELY 292116Z AUTO 19012G19KT 2SM -SN BR BKN012 BKN030 OVC075 M02/M04 A2969 RMK AO2 P0004 T10171039,M
ELY,2021-01-29 21:24,-114.8453,39.2950,1909.00,30.00,25.00,81.40,210.00,11.00,0.04,29.69,M,3.00,M,BKN,BKN,OVC,M,1200.00,6000.00,9500.00,M,-SN,M,M,M,M,M,M,19.94,KELY 292124Z AUTO 21011KT 3SM -SN BKN012 BKN060 OVC095 M01/M04 A2969 RMK AO2 P0004 T10111039,M
05U,2021-01-29 21:30,-116.0051,39.6042,1811.23,37.40,24.80,60.04,270.00,9.00,0.00,29.72,M,10.00,15.00,SCT,SCT,M,M,3300.00,4900.00,M,M,M,M,M,M,M,M,M,30.23,K05U 292130Z AUTO 27009G15KT 10SM SCT033 SCT049 03/M04 A2972 RMK A01,M
ELY,2021-01-29 21:34,-114.8453,39.2950,1909.00,30.90,25.00,78.48,160.00,8.00,0.04,29.69,M,8.00,M,FEW,BKN,OVC,M,1200.00,5500.00,10000.00,M,M,M,M,M,M,M,M,22.76,KELY 292134Z AUTO 16008KT 8SM FEW012 BKN055 OVC100 M01/M04 A2969 RMK AO2 SNE34 P0004 T10061039,M
CXP,2021-01-29 21:35,-119.7326,39.1923,1431.00,35.60,30.20,80.51,0.00,0.00,0.00,29.81,M,10.00,M,FEW,SCT,BKN,M,3200.00,4100.00,5000.00,M,M,M,M,M,M,M,M,35.60,KCXP 292135Z AUTO 00000KT 10SM FEW032 SCT041 BKN050 02/M01 A2981 RMK AO2,M
BVU,2021-01-29 21:35,-114.8611,35.9475,671.00,53.60,28.40,37.67,220.00,10.00,0.00,29.83,M,10.00,16.00,SCT,M,M,M,6000.00,M,M,M,M,M,M,M,M,M,M,53.60,KBVU 292135Z AUTO 22010G16KT 10SM SCT060 12/M02 A2983 RMK AO2,M
HTH,2021-01-29 21:35,-118.6315,38.5448,1282.89,41.00,30.20,65.16,290.00,3.00,0.00,29.81,M,10.00,M,FEW,FEW,SCT,M,4100.00,5500.00,8000.00,M,M,M,M,M,M,M,M,38.98,KHTH 292135Z AUTO 29003KT 10SM FEW041 FEW055 SCT080 05/M01 A2981 RMK A01,M
RTS,2021-01-29 21:35,-119.8764,39.6682,1539.00,32.00,26.60,80.22,0.00,0.00,0.00,29.80,M,10.00,M,FEW,SCT,OVC,M,3400.00,4200.00,5000.00,M,M,M,M,M,M,M,M,32.00,KRTS 292135Z AUTO 00000KT 10SM FEW034 SCT042 OVC050 00/M03 A2980 RMK AO2,M
TMT,2021-01-29 21:35,-117.1971,39.4643,1749.34,35.60,23.70,61.57,320.00,5.00,0.00,29.75,M,10.00,M,M,M,M,M,M,M,M,M,M,M,M,M,M,M,M,30.67,KTMT 292135Z AUTO 32005KT 10SM 02/M05 A2975 RMK AO2 T00201046,M
BAM,2021-01-29 21:35,-116.8743,40.5990,1382.36,37.40,32.00,80.65,230.00,12.00,0.00,29.74,M,10.00,M,OVC,M,M,M,4400.00,M,M,M,M,M,M,M,M,M,M,28.87,KBAM 292135Z AUTO 23012KT 10SM OVC044 03/00 A2974 RMK AO1,M
MEV,2021-01-29 21:35,-119.7500,38.9963,1441.42,35.60,30.20,80.51,0.00,0.00,0.00,29.80,M,10.00,M,FEW,FEW,BKN,M,3000.00,3700.00,5500.00,M,M,M,M,M,M,M,M,35.60,KMEV 292135Z AUTO 00000KT 10SM FEW030 FEW037 BKN055 02/M01 A2980 RMK AO2,M
LSV,2021-01-29 21:42,-115.0343,36.2362,570.00,55.40,32.00,40.84,200.00,18.00,0.00,29.77,1007.70,10.00,M,FEW,SCT,M,M,12000.00,19000.00,M,M,M,M,M,M,M,M,M,55.40,KLSV 292142Z 20018KT 10SM FEW120 SCT190 13/00 A2977 RMK AO2A WSHFT 27 SLP077 $,M
TPH,2021-01-29 21:42,-117.0904,38.0505,1654.00,33.00,33.00,100.00,270.00,4.00,T,29.77,M,10.00,M,FEW,SCT,M,M,200.00,11000.00,M,M,M,M,M,M,M,M,M,28.70,KTPH 292142Z AUTO 27004KT 10SM FEW002 SCT110 01/01 A2977 RMK AO2 SNE22 P0000 T00060006,M
05U,2021-01-29 21:50,-116.0051,39.6042,1811.23,37.40,23.00,55.68,280.00,6.00,0.00,29.73,M,10.00,13.00,SCT,BKN,BKN,M,2900.00,3600.00,5500.00,M,M,M,M,M,M,M,M,32.03,K05U 292150Z AUTO 28006G13KT 10SM SCT029 BKN036 BKN055 03/M05 A2973 RMK A01,M
LOL,2021-01-29 21:53,-118.5701,40.0684,1192.43,39.00,33.00,79.17,200.00,8.00,0.00,29.81,1010.30,10.00,M,FEW,OVC,M,M,1000.00,2200.00,M,M,M,M,M,M,M,M,M,32.74,KLOL 292153Z AUTO 20008KT 10SM FEW010 OVC022 04/01 A2981 RMK AO2 SLP103 T00390006,M
DRA,2021-01-29 21:53,-116.0278,36.6206,1009.00,46.00,30.90,55.36,210.00,15.00,0.00,29.79,1007.10,10.00,27.00,FEW,BKN,M,M,4600.00,11000.00,M,M,M,M,M,M,31.00,230.00,2021-01-29 21:01,38.93,KDRA 292153Z AUTO 21015G27KT 10SM FEW046 BKN110 08/M01 A2979 RMK AO2 PK WND 23031/2101 SLP071 T00781006,M
VGT,2021-01-29 21:53,-115.1933,36.2111,667.00,54.00,28.90,37.89,220.00,12.00,0.00,29.75,1008.80,10.00,20.00,FEW,M,M,M,6000.00,M,M,M,M,M,M,M,M,M,M,54.00,KVGT 292153Z 22012G20KT 10SM FEW060 12/M02 A2975 RMK AO2 SLP088 T01221017,M
P68,2021-01-29 21:53,-116.0056,39.6014,1993.00,37.00,25.00,61.50,300.00,8.00,0.00,29.71,1005.00,M,M,M,M,M,M,M,M,M,M,M,M,M,M,M,M,M,30.27,KP68 292153Z AUTO 30008KT 260V330 03/M04 A2971 RMK AO1 SLP050 T00281039,M
ELY,2021-01-29 21:53,-114.8453,39.2950,1909.00,32.00,25.00,75.07,160.00,9.00,0.04,29.69,1004.80,10.00,M,FEW,BKN,OVC,M,3700.00,6000.00,10000.00,M,M,M,M,M,M,M,M,23.51,KELY 292153Z AUTO 16009KT 10SM FEW037 BKN060 OVC100 00/M04 A2969 RMK AO2 SNE34 SLP048 P0004 T00001039,M
BAM,2021-01-29 21:55,-116.8743,40.5990,1382.36,37.40,32.00,80.65,240.00,12.00,0.00,29.75,M,10.00,M,OVC,M,M,M,4400.00,M,M,M,M,M,M,M,M,M,M,28.87,KBAM 292155Z AUTO 24012KT 10SM OVC044 03/00 A2975 RMK AO1,M
MEV,2021-01-29 21:55,-119.7500,38.9963,1441.42,33.80,28.40,80.36,0.00,0.00,0.00,29.81,M,10.00,M,SCT,SCT,M,M,4800.00,5500.00,M,M,M,M,M,M,M,M,M,33.80,KMEV 292155Z AUTO 00000KT 10SM SCT048 SCT055 01/M02 A2981 RMK AO2,M
RTS,2021-01-29 21:55,-119.8764,39.6682,1539.00,32.00,26.60,80.22,0.00,0.00,0.00,29.81,M,10.00,M,SCT,BKN,OVC,M,3600.00,4200.00,6000.00,M,M,M,M,M,M,M,M,32.00,KRTS 292155Z AUTO 00000KT 10SM SCT036 BKN042 OVC060 00/M03 A2981 RMK AO2,M
BVU,2021-01-29 21:55,-114.8611,35.9475,671.00,53.60,28.40,37.67,240.00,14.00,0.00,29.83,M,10.00,M,BKN,BKN,M,M,5500.00,6500.00,M,M,M,M,M,M,M,M,M,53.60,KBVU 292155Z AUTO 24014KT 10SM BKN055 BKN065 12/M02 A2983 RMK AO2,M
CXP,2021-01-29 21:55,-119.7326,39.1923,1431.00,35.60,30.20,80.51,200.00,4.00,0.00,29.81,M,10.00,M,FEW,SCT,BKN,M,2400.00,3500.00,4800.00,M,M,M,M,M,M,M,M,31.62,KCXP 292155Z AUTO 20004KT 10SM FEW024 SCT035 BKN048 02/M01 A2981 RMK AO2,M
HTH,2021-01-29 21:55,-118.6315,38.5448,1282.89,41.00,30.20,65.16,320.00,8.00,0.00,29.81,M,10.00,M,SCT,SCT,M,M,2300.00,6000.00,M,M,M,M,M,M,M,M,M,35.20,KHTH 292155Z AUTO 32008KT 10SM SCT023 SCT060 05/M01 A2981 RMK A01,M
TMT,2021-01-29 21:55,-117.1971,39.4643,1749.34,36.70,23.70,58.95,320.00,8.00,0.00,29.75,M,10.00,M,M,M,M,M,M,M,M,M,M,M,M,M,M,M,M,29.90,KTMT 292155Z AUTO 32008KT 10SM 03/M05 A2975 RMK AO2 T00261046,M
RNO,2021-01-29 21:55,-119.7711,39.4839,1341.00,39.00,27.00,61.78,0.00,0.00,0.00,29.80,1009.20,10.00,M,FEW,SCT,BKN,M,1500.00,2800.00,5500.00,M,M,M,M,M,M,M,M,39.00,KRNO 292155Z 00000KT 10SM FEW015 SCT028 BKN055 04/M03 A2980 RMK AO2 SLP092 MTN TOPS OBSCD DSNT SW THRU NW T00391028 $,M
INS,2021-01-29 21:56,-115.6733,36.5872,955.00,49.00,22.50,35.08,250.00,20.00,0.00,29.74,1005.50,10.00,M,FEW,M,M,M,16000.00,M,M,M,M,M,M,M,M,M,M,41.59,KINS 292156Z AUTO 25020KT 10SM FEW160 09/M05 A2974 RMK AO2 SLP055 T00941053 $,M
LSV,2021-01-29 21:56,-115.0343,36.2362,570.00,55.80,31.10,38.81,220.00,16.00,0.00,29.78,1008.00,10.00,21.00,FEW,SCT,M,M,12000.00,18000.00,M,M,M,M,M,M,M,M,M,55.80,KLSV 292156Z 22016G21KT 10SM FEW120 SCT180 13/00 A2978 RMK AO2A SLP080 T01321005 $,M
HND,2021-01-29 21:56,-115.1344,35.9729,742.79,53.00,28.00,37.74,240.00,20.00,0.00,29.82,1011.00,10.00,24.00,CLR,M,M,M,M,M,M,M,M,M,M,M,28.00,240.00,2021-01-29 21:31,53.10,KHND 292156Z 24020G24KT 10SM CLR 12/M02 A2982 RMK AO2 PK WND 24028/2131 SLP110 T01171022,M
EKO,2021-01-29 21:56,-115.7860,40.8242,1367.00,35.00,28.00,75.36,250.00,19.05,M,29.70,1005.70,10.00,M,SCT,BKN,OVC,M,2299.00,2700.00,3398.00,M,M,M,M,M,M,M,M,23.39,METAR KEKO 292156Z 25019KT 10SM SCT023 BKN027 OVC034 02/M02 A2970 RMK AO2 SLP057 T00171022 TSNO FIBI,M
TPH,2021-01-29 21:56,-117.0904,38.0505,1654.00,35.00,30.90,84.49,310.00,9.00,0.01,29.77,1008.50,10.00,M,CLR,M,M,M,M,M,M,M,M,M,M,M,M,M,M,27.37,KTPH 292156Z AUTO 31009KT 10SM CLR 02/M01 A2977 RMK AO2 SNE22 SLP085 P0001 T00171006,M
WMC,2021-01-29 21:56,-117.8072,40.9019,1315.00,38.00,27.00,64.49,240.00,14.00,0.00,29.77,1008.30,10.00,M,OVC,M,M,M,5500.00,M,M,M,M,M,M,M,M,M,M,28.77,KWMC 292156Z AUTO 24014KT 10SM OVC055 03/M03 A2977 RMK AO2 SLP083 T00331028,M
NFL,2021-01-29 21:56,-118.7010,39.4166,1199.00,37.00,32.00,81.93,180.00,4.00,0.00,29.81,1007.20,10.00,M,SCT,SCT,SCT,M,1500.00,5000.00,12000.00,M,M,M,M,M,M,M,M,33.26,KNFL 292156Z 18004KT 10SM SCT015 SCT050 SCT120 03/00 A2981 RMK AO2 SLP072 SLR// T00280000,M
LAS,2021-01-29 21:56,-115.1634,36.0719,663.00,54.00,28.00,36.52,220.00,14.00,0.00,29.80,1008.60,10.00,27.00,FEW,SCT,SCT,BKN,5000.00,7000.00,12000.00,20000.00,M,M,M,M,28.00,220.00,2021-01-29 21:30,54.00,KLAS 292156Z 22014G27KT 10SM FEW050 SCT070 SCT120 BKN200 12/M02 A2980 RMK AO2 PK WND 22028/2130 SLP086 T01221022,M
EKO,2021-01-29 22:03,-115.7860,40.8242,1367.00,35.00,28.00,75.36,260.00,19.05,M,29.70,M,10.00,M,FEW,SCT,OVC,M,2299.00,2700.00,3300.00,M,M,M,M,M,M,M,M,23.39,SPECI KEKO 292203Z 26019KT 10SM FEW023 SCT027 OVC033 02/M02 A2970 RMK AO2 T00171022 TSNO FIBI,M
05U,2021-01-29 22:10,-116.0051,39.6042,1811.23,37.40,23.00,55.68,290.00,7.00,0.00,29.74,M,10.00,M,SCT,BKN,BKN,M,2900.00,3800.00,4900.00,M,M,M,M,M,M,M,M,31.36,K05U 292210Z AUTO 29007KT 10SM SCT029 BKN038 BKN049 03/M05 A2974 RMK A01,M
RTS,2021-01-29 22:15,-119.8764,39.6682,1539.00,33.80,26.60,74.63,0.00,0.00,0.00,29.81,M,10.00,M,BKN,BKN,OVC,M,4000.00,4600.00,6000.00,M,M,M,M,M,M,M,M,33.80,KRTS 292215Z AUTO 00000KT 10SM BKN040 BKN046 OVC060 01/M03 A2981 RMK AO2,M
BAM,2021-01-29 22:15,-116.8743,40.5990,1382.36,39.20,32.00,75.16,240.00,13.00,0.00,29.76,M,10.00,M,OVC,M,M,M,4600.00,M,M,M,M,M,M,M,M,M,M,30.79,KBAM 292215Z AUTO 24013KT 10SM OVC046 04/00 A2976 RMK AO1,M
HTH,2021-01-29 22:15,-118.6315,38.5448,1282.89,41.00,28.40,60.54,310.00,7.00,0.00,29.81,M,10.00,M,FEW,FEW,M,M,2300.00,5500.00,M,M,M,M,M,M,M,M,M,35.75,KHTH 292215Z AUTO 31007KT 10SM FEW023 FEW055 05/M02 A2981 RMK A01,M
TMT,2021-01-29 22:15,-117.1971,39.4643,1749.34,35.00,22.80,60.96,310.00,7.00,0.00,29.76,M,10.00,M,M,M,M,M,M,M,M,M,M,M,M,M,M,M,M,28.31,KTMT 292215Z AUTO 31007KT 10SM 02/M05 A2976 RMK AO2 LTG DSNT S T00161051,M
BVU,2021-01-29 22:15,-114.8611,35.9475,671.00,57.20,26.60,30.69,250.00,17.00,0.00,29.83,M,10.00,M,SCT,M,M,M,6000.00,M,M,M,M,M,M,M,M,M,M,57.20,KBVU 292215Z AUTO 25017KT 10SM SCT060 14/M03 A2983 RMK AO2,M
CXP,2021-01-29 22:15,-119.7326,39.1923,1431.00,37.40,30.20,74.98,0.00,0.00,0.00,29.82,M,10.00,M,FEW,SCT,OVC,M,2400.00,5500.00,7000.00,M,M,M,M,M,M,M,M,37.40,KCXP 292215Z AUTO 00000KT 10SM FEW024 SCT055 OVC070 03/M01 A2982 RMK AO2 LTG DSNT SE,M
MEV,2021-01-29 22:15,-119.7500,38.9963,1441.42,33.80,28.40,80.36,0.00,0.00,0.00,29.81,M,10.00,M,CLR,M,M,M,M,M,M,M,M,M,M,M,M,M,M,33.80,KMEV 292215Z AUTO 00000KT 10SM CLR 01/M02 A2981 RMK AO2,M
LOL,2021-01-29 22:16,-118.5701,40.0684,1192.43,39.00,34.00,82.08,180.00,10.00,0.00,29.81,M,10.00,M,FEW,SCT,BKN,M,1100.00,2200.00,3300.00,M,M,M,M,M,M,M,M,31.75,KLOL 292216Z AUTO 18010KT 10SM FEW011 SCT022 BKN033 04/01 A2981 RMK AO2 T00390011,M
05U,2021-01-29 22:30,-116.0051,39.6042,1811.23,37.40,23.00,55.68,310.00,12.00,0.00,29.75,M,10.00,18.00,FEW,FEW,M,M,4900.00,8000.00,M,M,M,M,M,M,M,M,M,28.87,K05U 292230Z AUTO 31012G18KT 10SM FEW049 FEW080 03/M05 A2975 RMK A01,M
BAM,2021-01-29 22:35,-116.8743,40.5990,1382.36,39.20,32.00,75.16,230.00,11.00,0.00,29.76,M,10.00,M,OVC,M,M,M,4600.00,M,M,M,M,M,M,M,M,M,M,31.57,KBAM 292235Z AUTO 23011KT 10SM OVC046 04/00 A2976 RMK AO1,M
BVU,2021-01-29 22:35,-114.8611,35.9475,671.00,55.40,26.60,32.76,240.00,13.00,0.00,29.83,M,10.00,18.00,FEW,SCT,SCT,M,6000.00,7500.00,8500.00,M,VCTS,M,M,M,M,M,M,55.40,KBVU 292235Z AUTO 24013G18KT 10SM VCTS FEW060 SCT075 SCT085 13/M03 A2983 RMK AO2 LTG DSNT SE,M
CXP,2021-01-29 22:35,-119.7326,39.1923,1431.00,39.20,28.40,64.93,0.00,0.00,0.00,29.82,M,10.00,M,BKN,BKN,M,M,4900.00,7000.00,M,M,M,M,M,M,M,M,M,39.20,KCXP 292235Z AUTO 00000KT 10SM BKN049 BKN070 04/M02 A2982 RMK AO2,M
TMT,2021-01-29 22:35,-117.1971,39.4643,1749.34,35.00,23.90,63.33,310.00,6.00,0.00,29.77,M,10.00,M,M,M,M,M,M,M,M,M,M,M,M,M,M,M,M,29.26,KTMT 292235Z AUTO 31006KT 10SM 02/M04 A2977 RMK AO2 T00171045,M
RTS,2021-01-29 22:35,-119.8764,39.6682,1539.00,32.00,28.40,86.39,0.00,0.00,0.00,29.82,M,2.50,M,FEW,SCT,BKN,M,300.00,3900.00,6000.00,M,-SN,M,M,M,M,M,M,32.00,KRTS 292235Z AUTO 00000KT 2 1/2SM -SN FEW003 SCT039 BKN060 00/M02 A2982 RMK AO2,M
HTH,2021-01-29 22:35,-118.6315,38.5448,1282.89,41.00,28.40,60.54,320.00,6.00,0.00,29.82,M,10.00,M,CLR,M,M,M,M,M,M,M,M,M,M,M,M,M,M,36.37,KHTH 292235Z AUTO 32006KT 10SM CLR 05/M02 A2982 RMK A01,M
MEV,2021-01-29 22:35,-119.7500,38.9963,1441.42,35.60,30.20,80.51,0.00,0.00,0.00,29.82,M,10.00,M,CLR,M,M,M,M,M,M,M,M,M,M,M,M,M,M,35.60,KMEV 292235Z AUTO 00000KT 10SM CLR 02/M01 A2982 RMK AO2,M
EKO,2021-01-29 22:37,-115.7860,40.8242,1367.00,36.00,28.00,72.43,250.00,15.94,M,29.71,M,10.00,M,BKN,OVC,M,M,2401.00,3300.00,M,M,M,M,M,M,M,M,M,25.65,SPECI KEKO 292237Z 25016KT 10SM BKN024 OVC033 02/M02 A2971 RMK AO2 T00221022 TSNO FIBI,M
ELY,2021-01-29 22:42,-114.8453,39.2950,1909.00,30.00,25.00,81.40,230.00,15.00,T,29.72,M,1.00,20.00,FEW,BKN,OVC,M,1600.00,2700.00,7500.00,M,-SN,M,M,M,M,M,M,18.19,KELY 292242Z AUTO 23015G20KT 1SM -SN FEW016 BKN027 OVC075 M01/M04 A2972 RMK AO2 SNB20 P0000 T10111039,M
ELY,2021-01-29 22:44,-114.8453,39.2950,1909.00,28.90,25.00,85.14,230.00,13.00,T,29.72,M,0.25,20.00,BKN,BKN,OVC,M,1800.00,3200.00,7500.00,M,SN FZFG,M,M,M,M,M,M,17.60,KELY 292244Z AUTO 23013G20KT 1/4SM SN FZFG BKN018 BKN032 OVC075 M02/M04 A2972 RMK AO2 SNB20 P0000 T10171039,M
05U,2021-01-29 22:50,-116.0051,39.6042,1811.23,35.60,23.00,59.79,310.00,9.00,0.00,29.76,M,10.00,M,SCT,M,M,M,7500.00,M,M,M,M,M,M,M,M,M,M,27.99,K05U 292250Z AUTO 31009KT 10SM SCT075 02/M05 A2976 RMK A01,M
ELY,2021-01-29 22:53,-114.8453,39.2950,1909.00,28.00,26.10,92.46,190.00,8.00,0.01,29.72,1006.30,0.25,18.00,BKN,BKN,OVC,M,900.00,1800.00,3100.00,M,+SN FZFG,M,M,M,M,M,M,19.19,KELY 292253Z AUTO 19008G18KT M1/4SM +SN FZFG BKN009 BKN018 OVC031 M02/M03 A2972 RMK AO2 SNB20 SLP063 P0001 T10221033,M
LOL,2021-01-29 22:53,-118.5701,40.0684,1192.43,40.00,35.00,82.80,150.00,8.00,0.00,29.83,1010.90,10.00,M,FEW,BKN,OVC,M,3000.00,3600.00,4500.00,M,M,M,M,M,M,M,M,33.84,KLOL 292253Z AUTO 15008KT 10SM FEW030 BKN036 OVC045 04/02 A2983 RMK AO2 SLP109 T00440017,M
P68,2021-01-29 22:53,-116.0056,39.6014,1993.00,35.00,23.00,60.99,290.00,11.00,0.00,29.73,1005.80,M,M,M,M,M,M,M,M,M,M,M,M,M,M,M,M,M,26.38,KP68 292253Z AUTO 29011KT 02/M05 A2973 RMK AO1 SLP058 T00171050,M
VGT,2021-01-29 22:53,-115.1933,36.2111,667.00,56.00,25.00,30.10,220.00,17.00,0.00,29.75,1008.90,10.00,21.00,FEW,M,M,M,11000.00,M,M,M,M,M,M,M,M,M,M,55.90,KVGT 292253Z AUTO 22017G21KT 10SM FEW110 13/M04 A2975 RMK AO2 SLP089 T01331039,M
DRA,2021-01-29 22:53,-116.0278,36.6206,1009.00,48.00,30.90,51.34,210.00,15.00,0.00,29.80,1007.60,10.00,23.00,FEW,SCT,BKN,M,4500.00,5000.00,10000.00,M,M,M,M,M,28.00,200.00,2021-01-29 22:24,41.52,KDRA 292253Z AUTO 21015G23KT 10SM FEW045 SCT050 BKN100 09/M01 A2980 RMK AO2 PK WND 20028/2224 SLP076 T00891006,M
RNO,2021-01-29 22:55,-119.7711,39.4839,1341.00,37.00,28.90,72.24,30.00,5.00,0.00,29.82,1009.90,10.00,M,SCT,BKN,BKN,BKN,2600.00,3300.00,5500.00,13000.00,M,M,M,M,M,M,M,32.33,KRNO 292255Z 03005KT 10SM SCT026 BKN033 BKN055 BKN130 03/M02 A2982 RMK AO2 SLP099 SH DSNT SE THRU SW T00281017 $,M
CXP,2021-01-29 22:55,-119.7326,39.1923,1431.00,39.20,28.40,64.93,M,4.00,0.00,29.82,M,10.00,M,BKN,BKN,M,M,5000.00,6000.00,M,M,M,M,M,M,M,M,M,35.83,KCXP 292255Z AUTO VRB04KT 10SM BKN050 BKN060 04/M02 A2982 RMK AO2,M
RTS,2021-01-29 22:55,-119.8764,39.6682,1539.00,32.00,28.40,86.39,0.00,0.00,0.00,29.82,M,10.00,M,FEW,SCT,M,M,4100.00,5500.00,M,M,M,M,M,M,M,M,M,32.00,KRTS 292255Z AUTO 00000KT 10SM FEW041 SCT055 00/M02 A2982 RMK AO2,M
MEV,2021-01-29 22:55,-119.7500,38.9963,1441.42,35.60,30.20,80.51,200.00,4.00,0.00,29.82,M,10.00,M,CLR,M,M,M,M,M,M,M,M,M,M,M,M,M,M,31.62,KMEV 292255Z AUTO 20004KT 10SM CLR 02/M01 A2982 RMK AO2,M
TMT,2021-01-29 22:55,-117.1971,39.4643,1749.34,35.80,25.20,65.03,230.00,5.00,0.00,29.79,M,10.00,M,M,M,M,M,M,M,M,M,M,M,M,M,M,M,M,30.91,KTMT 292255Z AUTO 23005KT 10SM 02/M04 A2979 RMK AO2 T00211038,M
BAM,2021-01-29 22:55,-116.8743,40.5990,1382.36,39.20,32.00,75.16,240.00,9.00,0.00,29.77,M,10.00,M,OVC,M,M,M,4600.00,M,M,M,M,M,M,M,M,M,M,32.47,KBAM 292255Z AUTO 24009KT 10SM OVC046 04/00 A2977 RMK AO1,M
BVU,2021-01-29 22:55,-114.8611,35.9475,671.00,55.40,24.80,30.40,210.00,17.00,0.00,29.82,M,10.00,M,FEW,FEW,M,M,6500.00,8500.00,M,M,M,M,M,M,M,M,M,55.40,KBVU 292255Z AUTO 21017KT 10SM FEW065 FEW085 13/M04 A2982 RMK AO2 LTG DSNT E AND SE,M
HTH,2021-01-29 22:55,-118.6315,38.5448,1282.89,42.80,28.40,56.48,M,3.00,0.00,29.83,M,10.00,M,FEW,M,M,M,6000.00,M,M,M,M,M,M,M,M,M,M,41.03,KHTH 292255Z AUTO VRB03KT 10SM FEW060 06/M02 A2983 RMK A01,M
INS,2021-01-29 22:56,-115.6733,36.5872,955.00,49.80,23.20,34.94,250.00,18.00,0.00,29.76,1006.20,10.00,27.00,CLR,M,M,M,M,M,M,M,M,M,M,M,27.00,260.00,2021-01-29 22:48,43.18,KINS 292256Z AUTO 25018G27KT 10SM CLR 10/M05 A2976 RMK AO2 PK WND 26027/48 SLP062 T00991049 $,M
WMC,2021-01-29 22:56,-117.8072,40.9019,1315.00,39.00,28.00,64.37,250.00,11.00,0.00,29.79,1009.30,10.00,M,SCT,BKN,M,M,5000.00,6000.00,M,M,M,M,M,M,M,M,M,31.31,KWMC 292256Z AUTO 25011KT 10SM SCT050 BKN060 04/M02 A2979 RMK AO2 SLP093 T00391022,M
NFL,2021-01-29 22:56,-118.7010,39.4166,1199.00,38.00,32.00,79.08,0.00,0.00,0.00,29.83,1007.90,10.00,M,FEW,SCT,SCT,M,1500.00,5000.00,12000.00,M,M,M,M,M,M,M,M,37.90,KNFL 292256Z 00000KT 10SM FEW015 SCT050 SCT120 03/00 A2983 RMK AO2 SLP079 T00330000,M
HND,2021-01-29 22:56,-115.1344,35.9729,742.79,53.00,28.90,39.16,210.00,15.00,0.00,29.82,1011.10,10.00,M,CLR,M,M,M,M,M,M,M,M,M,M,M,28.00,210.00,2021-01-29 22:39,53.10,KHND 292256Z 21015KT 10SM CLR 12/M02 A2982 RMK AO2 PK WND 21028/2239 SLP111 T01171017,M
EKO,2021-01-29 22:56,-115.7860,40.8242,1367.00,36.00,28.00,72.43,260.00,15.94,M,29.72,1006.60,6.00,M,SCT,BKN,OVC,M,2401.00,2998.00,4101.00,M,-SN,M,M,M,M,M,M,25.65,METAR KEKO 292256Z 26016KT 6SM -SN SCT024 BKN030 OVC041 02/M02 A2972 RMK AO2 SNB54 SLP066 P0000 T00221022 TSNO FIBI,M
LSV,2021-01-29 22:56,-115.0343,36.2362,570.00,55.40,28.90,36.01,210.00,20.00,0.00,29.78,1007.90,10.00,M,SCT,M,M,M,14000.00,M,M,M,M,M,M,M,M,M,M,55.40,KLSV 292256Z 21020KT 10SM SCT140 13/M02 A2978 RMK AO2A SLP079 T01301017 $,M
LAS,2021-01-29 22:56,-115.1634,36.0719,663.00,53.00,28.00,37.74,230.00,13.00,0.00,29.82,1009.20,10.00,22.00,FEW,SCT,SCT,SCT,5000.00,7000.00,12000.00,20000.00,M,M,M,M,29.00,230.00,2021-01-29 22:11,53.10,KLAS 292256Z 23013G22KT 10SM FEW050 SCT070 SCT120 SCT200 12/M02 A2982 RMK AO2 PK WND 23029/2211 SLP092 VCSH T01171022,M
TPH,2021-01-29 22:56,-117.0904,38.0505,1654.00,36.00,30.90,81.53,340.00,8.00,0.00,29.79,1009.20,10.00,M,CLR,M,M,M,M,M,M,M,M,M,M,M,M,M,M,29.04,KTPH 292256Z AUTO 34008KT 10SM CLR 02/M01 A2979 RMK AO2 SLP092 T00221006,M
EKO,2021-01-29 23:06,-115.7860,40.8242,1367.00,36.00,29.00,75.46,250.00,14.00,M,29.73,M,7.00,M,BKN,OVC,M,M,2700.00,3198.00,M,M,-SN,M,M,M,M,M,M,26.32,SPECI KEKO 292306Z 25014KT 7SM -SN BKN027 OVC032 02/M02 A2973 RMK AO2 P0001 T00221017 TSNO FIBI,M
05U,2021-01-29 23:10,-116.0051,39.6042,1811.23,35.60,21.20,55.41,300.00,8.00,0.00,29.77,M,10.00,16.00,BKN,BKN,BKN,M,3200.00,3700.00,4500.00,M,M,M,M,M,M,M,M,28.55,K05U 292310Z AUTO 30008G16KT 10SM BKN032 BKN037 BKN045 02/M06 A2977 RMK A01,M
HTH,2021-01-29 23:15,-118.6315,38.5448,1282.89,41.00,28.40,60.54,310.00,5.00,0.00,29.84,M,10.00,M,BKN,M,M,M,6500.00,M,M,M,M,M,M,M,M,M,M,37.08,KHTH 292315Z AUTO 31005KT 10SM BKN065 05/M02 A2984 RMK A01,M
RTS,2021-01-29 23:15,-119.8764,39.6682,1539.00,32.00,28.40,86.39,0.00,0.00,0.00,29.83,M,10.00,M,SCT,BKN,OVC,M,3600.00,4100.00,6000.00,M,M,M,M,M,M,M,M,32.00,KRTS 292315Z AUTO 00000KT 10SM SCT036 BKN041 OVC060 00/M02 A2983 RMK AO2,M
BVU,2021-01-29 23:15,-114.8611,35.9475,671.00,55.40,24.80,30.40,230.00,14.00,0.00,29.84,M,10.00,19.00,FEW,SCT,M,M,6500.00,8500.00,M,M,M,M,M,M,M,M,M,55.40,KBVU 292315Z AUTO 23014G19KT 10SM FEW065 SCT085 13/M04 A2984 RMK AO2,M
CXP,2021-01-29 23:15,-119.7326,39.1923,1431.00,39.20,26.60,60.29,M,5.00,0.00,29.83,M,10.00,M,FEW,FEW,M,M,5000.00,5500.00,M,M,M,M,M,M,M,M,M,34.95,KCXP 292315Z AUTO VRB05KT 10SM FEW050 FEW055 04/M03 A2983 RMK AO2,M
MEV,2021-01-29 23:15,-119.7500,38.9963,1441.42,33.80,30.20,86.49,120.00,4.00,0.00,29.83,M,10.00,M,CLR,M,M,M,M,M,M,M,M,M,M,M,M,M,M,29.52,KMEV 292315Z AUTO 12004KT 10SM CLR 01/M01 A2983 RMK AO2,M
TMT,2021-01-29 23:15,-117.1971,39.4643,1749.34,37.00,23.20,57.04,300.00,8.00,0.00,29.80,M,10.00,M,M,M,M,M,M,M,M,M,M,M,M,M,M,M,M,30.27,KTMT 292315Z AUTO 30008KT 10SM 03/M05 A2980 RMK AO2 T00281049,M
BAM,2021-01-29 23:15,-116.8743,40.5990,1382.36,39.20,32.00,75.16,240.00,7.00,0.00,29.79,M,10.00,M,OVC,M,M,M,4800.00,M,M,M,M,M,M,M,M,M,M,33.56,KBAM 292315Z AUTO 24007KT 10SM OVC048 04/00 A2979 RMK AO1,M
ELY,2021-01-29 23:23,-114.8453,39.2950,1909.00,28.90,26.10,89.12,290.00,3.00,0.06,29.73,M,0.50,M,FEW,OVC,M,M,900.00,1500.00,M,M,-SN FZFG,M,M,M,M,M,M,25.14,KELY 292323Z AUTO 29003KT 1/2SM -SN FZFG FEW009 OVC015 M02/M03 A2973 RMK AO2 P0006 T10171033,M
ELY,2021-01-29 23:26,-114.8453,39.2950,1909.00,28.90,25.00,85.14,300.00,3.00,0.06,29.73,M,2.00,M,FEW,BKN,OVC,M,1200.00,2000.00,5000.00,M,-SN BR,M,M,M,M,M,M,25.14,KELY 292326Z AUTO 30003KT 2SM -SN BR FEW012 BKN020 OVC050 M02/M04 A2973 RMK AO2 P0006 T10171039,M
05U,2021-01-29 23:30,-116.0051,39.6042,1811.23,35.60,19.40,51.33,310.00,10.00,0.00,29.78,M,10.00,M,FEW,BKN,BKN,M,3300.00,4400.00,7500.00,M,M,M,M,M,M,M,M,27.48,K05U 292330Z AUTO 31010KT 10SM FEW033 BKN044 BKN075 02/M07 A2978 RMK A01,M
ELY,2021-01-29 23:33,-114.8453,39.2950,1909.00,28.90,26.10,89.12,270.00,3.00,0.09,29.73,M,9.00,M,FEW,BKN,OVC,M,1200.00,3100.00,5000.00,M,-SN,M,M,M,M,M,M,25.14,KELY 292333Z AUTO 27003KT 9SM -SN FEW012 BKN031 OVC050 M02/M03 A2973 RMK AO2 P0009 T10171033,M
TMT,2021-01-29 23:35,-117.1971,39.4643,1749.34,35.40,22.60,59.26,300.00,5.00,0.00,29.81,M,10.00,M,M,M,M,M,M,M,M,M,M,M,M,M,M,M,M,30.43,KTMT 292335Z AUTO 30005KT 10SM 02/M05 A2981 RMK AO2 LTG DSNT SE T00191052,M
HTH,2021-01-29 23:35,-118.6315,38.5448,1282.89,41.00,28.40,60.54,290.00,5.00,0.00,29.85,M,10.00,M,BKN,M,M,M,6500.00,M,M,M,M,M,M,M,M,M,M,37.08,KHTH 292335Z AUTO 29005KT 10SM BKN065 05/M02 A2985 RMK A01,M
BVU,2021-01-29 23:35,-114.8611,35.9475,671.00,55.40,23.00,28.20,240.00,20.00,0.00,29.84,M,10.00,M,FEW,SCT,M,M,6500.00,8500.00,M,M,M,M,M,M,M,M,M,55.40,KBVU 292335Z AUTO 24020KT 10SM FEW065 SCT085 13/M05 A2984 RMK AO2,M
MEV,2021-01-29 23:35,-119.7500,38.9963,1441.42,32.00,28.40,86.39,220.00,4.00,0.00,29.84,M,10.00,M,FEW,M,M,M,6000.00,M,M,M,M,M,M,M,M,M,M,27.42,KMEV 292335Z AUTO 22004KT 10SM FEW060 M00/M02 A2984 RMK AO2,M
BAM,2021-01-29 23:35,-116.8743,40.5990,1382.36,39.20,30.20,69.88,240.00,8.00,0.00,29.80,M,10.00,M,OVC,M,M,M,5000.00,M,M,M,M,M,M,M,M,M,M,32.98,KBAM 292335Z AUTO 24008KT 10SM OVC050 04/M01 A2980 RMK AO1,M
RTS,2021-01-29 23:35,-119.8764,39.6682,1539.00,32.00,28.40,86.39,0.00,0.00,0.00,29.84,M,10.00,M,BKN,BKN,BKN,M,3700.00,4600.00,6000.00,M,M,M,M,M,M,M,M,32.00,KRTS 292335Z AUTO 00000KT 10SM BKN037 BKN046 BKN060 00/M02 A2984 RMK AO2,M
CXP,2021-01-29 23:35,-119.7326,39.1923,1431.00,39.20,28.40,64.93,0.00,0.00,0.00,29.84,M,10.00,M,FEW,FEW,SCT,M,3300.00,4300.00,6000.00,M,M,M,M,M,M,M,M,39.20,KCXP 292335Z AUTO 00000KT 10SM FEW033 FEW043 SCT060 04/M02 A2984 RMK AO2,M
05U,2021-01-29 23:50,-116.0051,39.6042,1811.23,35.60,21.20,55.41,300.00,6.00,0.00,29.79,M,10.00,12.00,BKN,BKN,M,M,4800.00,7500.00,M,M,M,M,M,M,M,M,M,29.87,K05U 292350Z AUTO 30006G12KT 10SM BKN048 BKN075 02/M06 A2979 RMK A01,M
P68,2021-01-29 23:53,-116.0056,39.6014,1993.00,35.00,21.90,58.22,290.00,9.00,0.00,29.77,1007.20,M,M,M,M,M,M,M,M,M,M,M,M,M,M,M,M,M,27.37,KP68 292353Z AUTO 29009KT 02/M06 A2977 RMK AO1 SLP072 60007 T00171056 10033 21011 53020,M
DRA,2021-01-29 23:53,-116.0278,36.6206,1009.00,46.00,28.90,51.03,220.00,14.00,0.00,29.82,1008.50,10.00,25.00,SCT,BKN,M,M,4800.00,6000.00,M,M,M,M,M,M,26.00,200.00,2021-01-29 23:04,39.21,KDRA 292353Z AUTO 22014G25KT 10SM SCT048 BKN060 08/M02 A2982 RMK AO2 PK WND 20026/2304 SLP085 T00781017 10100 20072 53011,M
ELY,2021-01-29 23:53,-114.8453,39.2950,1909.00,28.00,25.00,88.33,80.00,5.00,0.09,29.74,1007.30,10.00,M,FEW,SCT,OVC,M,2800.00,3300.00,4800.00,M,M,M,M,M,M,M,M,21.64,KELY 292353Z AUTO 08005KT 10SM FEW028 SCT033 OVC048 M02/M04 A2974 RMK AO2 SNE35 SLP073 P0009 60015 T10221039 10017 21022 53013,M
LOL,2021-01-29 23:53,-118.5701,40.0684,1192.43,39.00,33.00,79.17,170.00,7.00,0.00,29.84,1011.50,10.00,M,FEW,FEW,SCT,M,1400.00,2900.00,4200.00,M,M,M,M,M,M,M,M,33.31,KLOL 292353Z AUTO 17007KT 10SM FEW014 FEW029 SCT042 04/01 A2984 RMK AO2 SLP115 T00390006 10044 20011 51016,M
VGT,2021-01-29 23:53,-115.1933,36.2111,667.00,54.00,25.00,32.26,220.00,14.00,0.00,29.77,1009.30,10.00,22.00,CLR,M,M,M,M,M,M,M,M,M,M,M,M,M,M,54.00,KVGT 292353Z AUTO 22014G22KT 10SM CLR 12/M04 A2977 RMK AO2 SLP093 60001 T01221039 10133 20094 55001,M
RTS,2021-01-29 23:55,-119.8764,39.6682,1539.00,33.80,28.40,80.36,0.00,0.00,0.00,29.84,M,10.00,M,BKN,BKN,BKN,M,4800.00,5500.00,6000.00,M,M,M,M,M,M,M,M,33.80,KRTS 292355Z AUTO 00000KT 10SM BKN048 BKN055 BKN060 01/M02 A2984 RMK AO2,M
RNO,2021-01-29 23:55,-119.7711,39.4839,1341.00,37.00,28.90,72.24,90.00,5.00,0.00,29.84,1010.80,10.00,M,SCT,BKN,BKN,M,2300.00,3500.00,13000.00,M,M,M,M,M,M,M,M,32.33,KRNO 292355Z 09005KT 10SM SCT023 BKN035 BKN130 03/M02 A2984 RMK AO2 SLP108 4/002 SH DSNT SW MTN TOPS OBSCD DSNT S THRU W T00281017 10044 20006 53015 $,2
HTH,2021-01-29 23:55,-118.6315,38.5448,1282.89,41.00,26.60,56.22,250.00,3.00,0.00,29.85,M,10.00,M,FEW,M,M,M,6500.00,M,M,M,M,M,M,M,M,M,M,38.98,KHTH 292355Z AUTO 25003KT 10SM FEW065 05/M03 A2985 RMK A01,M
TMT,2021-01-29 23:55,-117.1971,39.4643,1749.34,33.40,26.40,75.21,320.00,11.00,0.00,29.81,M,10.00,M,M,M,M,M,M,M,M,M,M,M,M,M,M,M,M,24.24,KTMT 292355Z AUTO 32011KT 10SM 01/M03 A2981 RMK AO2 T00081031 10039 20005,M
BAM,2021-01-29 23:55,-116.8743,40.5990,1382.36,39.20,30.20,69.88,260.00,6.00,0.00,29.80,M,10.00,M,OVC,M,M,M,5000.00,M,M,M,M,M,M,M,M,M,M,34.20,KBAM 292355Z AUTO 26006KT 10SM OVC050 04/M01 A2980 RMK AO1,M
MEV,2021-01-29 23:55,-119.7500,38.9963,1441.42,32.00,28.40,86.39,0.00,0.00,0.00,29.85,M,10.00,M,FEW,M,M,M,6000.00,M,M,M,M,M,M,M,M,M,M,32.00,KMEV 292355Z AUTO 00000KT 10SM FEW060 00/M02 A2985 RMK AO2,M
BVU,2021-01-29 23:55,-114.8611,35.9475,671.00,53.60,24.80,32.46,240.00,15.00,0.00,29.85,M,10.00,M,CLR,M,M,M,M,M,M,M,M,M,M,M,M,M,M,53.60,KBVU 292355Z AUTO 24015KT 10SM CLR 12/M04 A2985 RMK AO2,M
CXP,2021-01-29 23:55,-119.7326,39.1923,1431.00,37.40,30.20,74.98,230.00,4.00,0.00,29.85,M,10.00,M,FEW,FEW,SCT,M,3400.00,4100.00,5500.00,M,M,M,M,M,M,M,M,33.73,KCXP 292355Z AUTO 23004KT 10SM FEW034 FEW041 SCT055 03/M01 A2985 RMK AO2,M
LAS,2021-01-29 23:56,-115.1634,36.0719,663.00,53.00,26.10,34.90,230.00,10.00,0.00,29.83,1009.40,10.00,M,FEW,FEW,SCT,SCT,5000.00,7000.00,12000.00,20000.00,M,M,M,M,29.00,230.00,2021-01-29 22:58,53.10,KLAS 292356Z 23010KT 10SM FEW050 FEW070 SCT120 SCT200 12/M03 A2983 RMK AO2 PK WND 23029/2258 SLP094 VCSH 60000 T01171033 10122 20094 53008,M
HND,2021-01-29 23:56,-115.1344,35.9729,742.79,53.00,27.00,36.22,220.00,18.00,0.00,29.85,1012.10,10.00,M,BKN,M,M,M,6500.00,M,M,M,M,M,M,M,27.00,240.00,2021-01-29 23:21,53.10,KHND 292356Z 22018KT 10SM BKN065 12/M03 A2985 RMK AO2 PK WND 24027/2321 SLP121 60000 T01171028 10117 20067 53009,M
INS,2021-01-29 23:56,-115.6733,36.5872,955.00,49.30,23.40,35.89,260.00,13.00,0.00,29.79,1007.20,10.00,M,CLR,M,M,M,M,M,M,M,M,M,M,M,M,M,M,43.73,KINS 292356Z AUTO 26013KT 10SM CLR 10/M05 A2979 RMK AO2 SLP072 T00961048 10104 20073 53010 $,M
NFL,2021-01-29 23:56,-118.7010,39.4166,1199.00,38.00,33.00,82.66,150.00,4.00,0.00,29.84,1008.30,10.00,M,FEW,SCT,SCT,M,1500.00,5000.00,12000.00,M,M,M,M,M,M,M,M,34.31,KNFL 292356Z 15004KT 10SM FEW015 SCT050 SCT120 03/01 A2984 RMK AO2 SLP083 T00330006 10033 20006 53013,M
EKO,2021-01-29 23:56,-115.7860,40.8242,1367.00,35.00,28.00,75.36,260.00,14.97,M,29.75,1008.00,10.00,M,BKN,BKN,OVC,M,2798.00,3700.00,7001.00,M,M,M,M,M,M,M,M,24.68,METAR KEKO 292356Z 26015KT 10SM BKN028 BKN037 OVC070 02/M02 A2975 RMK AO2 SNE09B26E40 SLP080 P0001 60006 T00171022 10033 20006 53023 TSNO FIBI,M
LSV,2021-01-29 23:56,-115.0343,36.2362,570.00,54.30,27.30,35.10,220.00,16.00,0.00,29.80,1008.60,10.00,24.00,FEW,SCT,M,M,14000.00,19000.00,M,M,M,M,M,M,26.00,220.00,2021-01-29 23:43,54.30,KLSV 292356Z 22016G24KT 10SM FEW140 SCT190 12/M03 A2980 RMK AO2A PK WND 22026/43 SLP086 60001 T01241026 10132 20097 53003 $,M
TPH,2021-01-29 23:56,-117.0904,38.0505,1654.00,36.00,30.90,81.53,310.00,8.00,0.00,29.82,1010.30,10.00,M,CLR,M,M,M,M,M,M,M,M,M,M,M,M,M,M,29.04,KTPH 292356Z AUTO 31008KT 10SM CLR 02/M01 A2982 RMK AO2 SLP103 60012 T00221006 10022 21006 53017,M
WMC,2021-01-29 23:56,-117.8072,40.9019,1315.00,37.00,28.00,69.63,230.00,13.00,0.00,29.81,1010.10,10.00,M,CLR,M,M,M,M,M,M,M,M,M,M,M,M,M,M,27.97,KWMC 292356Z AUTO 23013KT 10SM CLR 03/M02 A2981 RMK AO2 SLP101 T00281022 10039 20011 53019,M
