station,valid,lon,lat,elevation,tmpf,dwpf,relh,drct,sknt,p01i,alti,mslp,vsby,gust,skyc1,skyc2,skyc3,skyc4,skyl1,skyl2,skyl3,skyl4,wxcodes,ice_accretion_1hr,ice_accretion_3hr,ice_accretion_6hr,peak_wind_gust,peak_wind_drct,peak_wind_time,feel,metar,snowdepth
CXP,2022-08-25 00:10,-119.7326,39.1923,1431.00,91.40,26.60,9.74,270.00,10.00,0.00,30.00,M,10.00,18.00,CLR,M,M,M,M,M,M,M,M,M,M,M,M,M,M,86.36,KCXP 250010Z AUTO 27010G18KT 230V290 10SM CLR 33/M03 A3000 RMK AO2,M
LAS,2022-08-25 00:14,-115.1634,36.0719,663.00,95.00,46.00,18.76,230.00,11.00,0.00,29.84,M,10.00,22.00,FEW,FEW,BKN,M,12000.00,16000.00,20000.00,M,M,M,M,M,M,M,M,91.23,KLAS 250014Z 23011G22KT 10SM FEW120 FEW160 BKN200 35/08 A2984 RMK AO2 WSHFT 2354 CB DSNT ALQDS T03500078,M
HTH,2022-08-25 00:15,-118.6315,38.5448,1282.89,98.60,19.40,5.76,250.00,5.00,0.00,29.89,M,10.00,13.00,CLR,M,M,M,M,M,M,M,M,M,M,M,M,M,M,91.49,KHTH 250015Z AUTO 25005G13KT 10SM CLR 37/M07 A2989 RMK A01,M
TMT,2022-08-25 00:15,-117.1971,39.4643,1749.34,M,M,M,300.00,7.00,0.00,30.04,M,10.00,M,CLR,M,M,M,M,M,M,M,M,M,M,M,M,M,M,M,KTMT 250015Z AUTO 30007KT 10SM CLR A3004 RMK AO2,M
MEV,2022-08-25 00:15,-119.7500,38.9963,1441.42,93.20,23.00,7.92,240.00,13.00,0.00,29.98,M,10.00,21.00,CLR,M,M,M,M,M,M,M,M,M,M,M,M,M,M,87.42,KMEV 250015Z AUTO 24013G21KT 10SM CLR 34/M05 A2998 RMK AO2,M
BAM,2022-08-25 00:15,-116.8743,40.5990,1382.36,96.80,26.60,8.24,250.00,12.00,0.00,29.93,M,10.00,18.00,CLR,M,M,M,M,M,M,M,M,M,M,M,M,M,M,90.57,KBAM 250015Z AUTO 25012G18KT 10SM CLR 36/M03 A2993 RMK AO1,M
BVU,2022-08-25 00:15,-114.8611,35.9475,671.00,96.80,46.40,18.02,270.00,5.00,0.00,29.84,M,M,11.00,M,M,M,M,M,M,M,M,M,M,M,M,M,M,M,93.05,KBVU 250015Z AUTO 27005G11KT 36/08 A2984 RMK AO2 PWINO TSNO,M
RTS,2022-08-25 00:15,-119.8764,39.6682,1539.00,89.60,17.60,7.05,230.00,17.00,0.00,30.03,M,10.00,22.00,CLR,M,M,M,M,M,M,M,M,M,M,M,M,M,M,84.45,KRTS 250015Z AUTO 23017G22KT 10SM CLR 32/M08 A3003 RMK AO2,M
ELY,2022-08-25 00:30,-114.8453,39.2950,1909.00,78.00,42.00,27.70,60.00,9.00,0.00,30.15,M,10.00,M,CLR,M,M,M,M,M,M,M,M,M,M,M,27.00,20.00,2022-08-24 23:57,78.10,KELY 250030Z AUTO 06009KT 10SM CLR 26/06 A3015 RMK AO2 PK WND 02027/2357 WSHFT 0010 T02560056,M
CXP,2022-08-25 00:35,-119.7326,39.1923,1431.00,91.40,30.20,11.28,270.00,8.00,0.00,30.00,M,10.00,19.00,CLR,M,M,M,M,M,M,M,M,M,M,M,M,M,M,86.71,KCXP 250035Z AUTO 27008G19KT 10SM CLR 33/M01 A3000 RMK AO2,M
RTS,2022-08-25 00:35,-119.8764,39.6682,1539.00,89.60,19.40,7.61,220.00,12.00,0.00,30.03,M,10.00,20.00,CLR,M,M,M,M,M,M,M,M,M,M,M,M,M,M,84.54,KRTS 250035Z AUTO 22012G20KT 10SM CLR 32/M07 A3003 RMK AO2,M
MEV,2022-08-25 00:35,-119.7500,38.9963,1441.42,91.40,23.00,8.38,250.00,16.00,0.00,29.98,M,10.00,M,CLR,M,M,M,M,M,M,M,M,M,M,M,M,M,M,86.08,KMEV 250035Z AUTO 25016KT 10SM CLR 33/M05 A2998 RMK AO2,M
BAM,2022-08-25 00:35,-116.8743,40.5990,1382.36,96.80,24.80,7.65,290.00,12.00,0.00,29.95,M,10.00,18.00,CLR,M,M,M,M,M,M,M,M,M,M,M,M,M,M,90.40,KBAM 250035Z AUTO 29012G18KT 10SM CLR 36/M04 A2995 RMK AO1,M
HTH,2022-08-25 00:35,-118.6315,38.5448,1282.89,96.80,21.20,6.57,0.00,0.00,0.00,29.89,M,10.00,17.00,CLR,M,M,M,M,M,M,M,M,M,M,M,M,M,M,90.11,KHTH 250035Z AUTO 00000G17KT 10SM CLR 36/M06 A2989 RMK A01,M
TMT,2022-08-25 00:35,-117.1971,39.4643,1749.34,M,M,M,280.00,8.00,0.00,30.04,M,10.00,M,CLR,M,M,M,M,M,M,M,M,M,M,M,M,M,M,M,KTMT 250035Z AUTO 28008KT 10SM CLR A3004 RMK AO2,M
BVU,2022-08-25 00:35,-114.8611,35.9475,671.00,95.00,46.40,19.04,310.00,6.00,0.00,29.83,M,M,11.00,M,M,M,M,M,M,M,M,M,M,M,M,M,M,M,91.29,KBVU 250035Z AUTO 31006G11KT 35/08 A2983 RMK AO2 PWINO TSNO,M
DRA,2022-08-25 00:51,-116.0278,36.6206,1009.00,98.60,46.40,17.05,190.00,13.00,0.00,29.88,M,10.00,25.00,CLR,M,M,M,M,M,M,M,M,M,M,M,M,M,M,94.84,KDRA 250051Z AUTO 19013G25KT 10SM CLR 37/08 A2988 RMK AO2 WSHFT 0034,M
DRA,2022-08-25 00:53,-116.0278,36.6206,1009.00,98.00,46.00,17.06,190.00,14.00,0.00,29.88,1006.20,10.00,25.00,CLR,M,M,M,M,M,M,M,M,M,M,M,M,M,M,94.28,KDRA 250053Z AUTO 19014G25KT 10SM CLR 37/08 A2988 RMK AO2 WSHFT 0034 SLP062 T03670078,M
VGT,2022-08-25 00:53,-115.1933,36.2111,667.00,97.00,47.00,18.25,190.00,10.00,0.00,29.80,1007.70,10.00,M,CLR,M,M,M,M,M,M,M,M,M,M,M,M,M,M,93.33,KVGT 250053Z 19010KT 10SM CLR 36/08 A2980 RMK AO2 SLP077 T03610083,M
LOL,2022-08-25 00:53,-118.5701,40.0684,1192.43,98.00,19.90,5.98,290.00,12.00,0.00,29.88,1007.40,10.00,M,CLR,M,M,M,M,M,M,M,M,M,M,M,M,M,M,91.10,KLOL 250053Z AUTO 29012KT 10SM CLR 37/M07 A2988 RMK AO2 SLP074 T03671067,M
P68,2022-08-25 00:53,-116.0056,39.6014,1993.00,84.00,35.00,17.38,160.00,18.00,0.00,30.05,1008.60,M,M,M,M,M,M,M,M,M,M,M,M,M,M,29.00,140.00,2022-08-25 00:17,81.18,KP68 250053Z AUTO 16018KT 29/02 A3005 RMK AO1 PK WND 14029/0017 SLP086 T02890017,M
ELY,2022-08-25 00:53,-114.8453,39.2950,1909.00,77.00,43.00,29.74,350.00,7.00,0.00,30.14,1010.00,10.00,M,CLR,M,M,M,M,M,M,M,M,M,M,M,27.00,20.00,2022-08-24 23:57,77.00,KELY 250053Z AUTO 35007KT 10SM CLR 25/06 A3014 RMK AO2 PK WND 02027/2357 WSHFT 0010 SLP100 T02500061,M
BVU,2022-08-25 00:55,-114.8611,35.9475,671.00,95.00,46.40,19.04,0.00,0.00,0.00,29.84,M,M,M,M,M,M,M,M,M,M,M,M,M,M,M,M,M,M,91.29,KBVU 250055Z AUTO 00000KT 35/08 A2984 RMK AO2 PWINO TSNO,M
TMT,2022-08-25 00:55,-117.1971,39.4643,1749.34,M,M,M,300.00,6.00,0.00,30.04,M,10.00,14.00,CLR,M,M,M,M,M,M,M,M,M,M,M,M,M,M,M,KTMT 250055Z AUTO 30006G14KT 10SM CLR A3004 RMK AO2,M
CXP,2022-08-25 00:55,-119.7326,39.1923,1431.00,89.60,35.60,14.83,270.00,12.00,0.00,30.01,M,10.00,21.00,CLR,M,M,M,M,M,M,M,M,M,M,M,M,M,M,85.62,KCXP 250055Z AUTO 27012G21KT 10SM CLR 32/02 A3001 RMK AO2,M
RNO,2022-08-25 00:55,-119.7711,39.4839,1341.00,93.00,30.90,11.04,270.00,14.00,0.00,29.95,1007.90,10.00,M,CLR,M,M,M,M,M,M,M,M,M,M,M,M,M,M,88.02,KRNO 250055Z 27014KT 10SM CLR 34/M01 A2995 RMK AO2 SLP079 T03391006,M
RTS,2022-08-25 00:55,-119.8764,39.6682,1539.00,87.80,21.20,8.70,230.00,17.00,0.00,30.03,M,10.00,M,CLR,M,M,M,M,M,M,M,M,M,M,M,M,M,M,83.33,KRTS 250055Z AUTO 23017KT 10SM CLR 31/M06 A3003 RMK AO2,M
MEV,2022-08-25 00:55,-119.7500,38.9963,1441.42,91.40,23.00,8.38,240.00,17.00,0.00,29.99,M,10.00,M,CLR,M,M,M,M,M,M,M,M,M,M,M,M,M,M,86.08,KMEV 250055Z AUTO 24017KT 10SM CLR 33/M05 A2999 RMK AO2,M
BAM,2022-08-25 00:55,-116.8743,40.5990,1382.36,96.80,24.80,7.65,260.00,9.00,0.00,29.94,M,10.00,14.00,CLR,M,M,M,M,M,M,M,M,M,M,M,M,M,M,90.40,KBAM 250055Z AUTO 26009G14KT 240V300 10SM CLR 36/M04 A2994 RMK AO1,M
HTH,2022-08-25 00:55,-118.6315,38.5448,1282.89,98.60,21.20,6.22,270.00,10.00,0.00,29.89,M,10.00,17.00,CLR,M,M,M,M,M,M,M,M,M,M,M,M,M,M,91.61,KHTH 250055Z AUTO 27010G17KT 10SM CLR 37/M06 A2989 RMK A01,M
LAS,2022-08-25 00:56,-115.1634,36.0719,663.00,95.00,47.00,19.40,160.00,7.00,0.00,29.82,1006.70,10.00,M,FEW,FEW,BKN,M,12000.00,16000.00,20000.00,M,M,M,M,M,M,M,M,91.36,KLAS 250056Z 16007KT 10SM FEW120 FEW160 BKN200 35/08 A2982 RMK AO2 WSHFT 2354 SLP067 CB DSNT NE-SE-SW T03500083,M
EKO,2022-08-25 00:56,-115.7860,40.8242,1367.00,83.00,39.00,21.00,150.00,6.00,0.00,29.99,1010.30,10.00,M,CLR,M,M,M,M,M,M,M,M,M,M,M,M,M,M,80.53,KEKO 250056Z AUTO 15006KT 10SM CLR 28/04 A2999 RMK AO2 SLP103 T02830039,M
WMC,2022-08-25 00:56,-117.8072,40.9019,1315.00,95.00,17.10,5.83,270.00,15.00,0.00,29.92,1008.50,10.00,20.00,CLR,M,M,M,M,M,M,M,M,M,M,M,M,M,M,88.36,KWMC 250056Z AUTO 27015G20KT 10SM CLR 35/M08 A2992 RMK AO2 SLP085 T03501083,M
TPH,2022-08-25 00:56,-117.0904,38.0505,1654.00,91.00,30.90,11.76,220.00,12.00,0.00,30.01,1007.50,10.00,M,M,M,M,M,M,M,M,M,M,M,M,M,M,M,M,86.48,KTPH 250056Z AUTO 22012KT 10SM 33/M01 A3001 RMK AO2 SLP075 T03281006 $,M
NFL,2022-08-25 00:56,-118.7010,39.4166,1199.00,98.00,23.00,6.82,290.00,11.00,0.00,29.87,1009.10,10.00,M,FEW,M,M,M,8000.00,M,M,M,M,M,M,M,M,M,M,91.33,KNFL 250056Z 29011KT 10SM FEW080 37/M05 A2987 RMK AO2 SLP091 T03671050,M
INS,2022-08-25 00:58,-115.6733,36.5872,955.00,96.00,44.00,16.97,190.00,6.00,0.00,29.87,1006.00,10.00,M,CLR,M,M,M,M,M,M,M,M,M,M,M,M,M,M,91.86,KINS 250058Z AUTO 19006KT 10SM CLR 36/07 A2987 RMK AO2 SLP060 T03550067 $,M
LSV,2022-08-25 00:58,-115.0343,36.2362,570.00,98.00,47.00,17.89,200.00,11.00,0.00,29.79,1005.80,10.00,M,CLR,M,M,M,M,M,M,M,M,M,M,M,M,M,M,94.26,KLSV 250058Z AUTO 20011KT 10SM CLR 37/08 A2979 RMK AO2 SLP058 T03660084 $,M
MEV,2022-08-25 01:15,-119.7500,38.9963,1441.42,89.60,24.80,9.56,250.00,11.00,0.00,29.99,M,10.00,17.00,CLR,M,M,M,M,M,M,M,M,M,M,M,M,M,M,84.88,KMEV 250115Z AUTO 25011G17KT 10SM CLR 32/M04 A2999 RMK AO2,M
TMT,2022-08-25 01:15,-117.1971,39.4643,1749.34,M,M,M,290.00,6.00,0.00,30.04,M,10.00,M,CLR,M,M,M,M,M,M,M,M,M,M,M,M,M,M,M,KTMT 250115Z AUTO 29006KT 10SM CLR A3004 RMK AO2,M
RTS,2022-08-25 01:15,-119.8764,39.6682,1539.00,87.80,21.20,8.70,220.00,13.00,0.00,30.04,M,10.00,21.00,CLR,M,M,M,M,M,M,M,M,M,M,M,M,M,M,83.33,KRTS 250115Z AUTO 22013G21KT 10SM CLR 31/M06 A3004 RMK AO2,M
BVU,2022-08-25 01:15,-114.8611,35.9475,671.00,95.00,46.40,19.04,170.00,7.00,0.00,29.83,M,M,M,M,M,M,M,M,M,M,M,M,M,M,M,M,M,M,91.29,KBVU 250115Z AUTO 17007KT 140V200 35/08 A2983 RMK AO2 PWINO TSNO,M
BAM,2022-08-25 01:15,-116.8743,40.5990,1382.36,95.00,21.20,6.95,280.00,9.00,0.00,29.95,M,10.00,15.00,CLR,M,M,M,M,M,M,M,M,M,M,M,M,M,M,88.62,KBAM 250115Z AUTO 28009G15KT 10SM CLR 35/M06 A2995 RMK AO1,M
HTH,2022-08-25 01:15,-118.6315,38.5448,1282.89,96.80,23.00,7.09,250.00,14.00,0.00,29.90,M,10.00,M,CLR,M,M,M,M,M,M,M,M,M,M,M,M,M,M,90.25,KHTH 250115Z AUTO 25014KT 10SM CLR 36/M05 A2990 RMK A01,M
CXP,2022-08-25 01:15,-119.7326,39.1923,1431.00,89.60,35.60,14.83,260.00,9.00,0.00,30.01,M,10.00,17.00,CLR,M,M,M,M,M,M,M,M,M,M,M,M,M,M,85.62,KCXP 250115Z AUTO 26009G17KT 10SM CLR 32/02 A3001 RMK AO2,M
TMT,2022-08-25 01:35,-117.1971,39.4643,1749.34,M,M,M,240.00,5.00,0.00,30.05,M,10.00,M,CLR,M,M,M,M,M,M,M,M,M,M,M,M,M,M,M,KTMT 250135Z AUTO 24005KT 10SM CLR A3005 RMK AO2,M
CXP,2022-08-25 01:35,-119.7326,39.1923,1431.00,87.80,35.60,15.70,270.00,8.00,0.00,30.01,M,10.00,19.00,CLR,M,M,M,M,M,M,M,M,M,M,M,M,M,M,84.12,KCXP 250135Z AUTO 27008G19KT 10SM CLR 31/02 A3001 RMK AO2,M
BVU,2022-08-25 01:35,-114.8611,35.9475,671.00,93.20,46.40,20.13,180.00,7.00,0.00,29.83,M,M,M,M,M,M,M,M,M,M,M,M,M,M,M,M,M,M,89.55,KBVU 250135Z AUTO 18007KT 34/08 A2983 RMK AO2 PWINO TSNO,M
RTS,2022-08-25 01:35,-119.8764,39.6682,1539.00,86.00,23.00,9.94,240.00,11.00,0.00,30.05,M,10.00,21.00,CLR,M,M,M,M,M,M,M,M,M,M,M,M,M,M,82.14,KRTS 250135Z AUTO 24011G21KT 10SM CLR 30/M05 A3005 RMK AO2,M
MEV,2022-08-25 01:35,-119.7500,38.9963,1441.42,87.80,30.20,12.64,260.00,8.00,0.00,30.00,M,10.00,17.00,CLR,M,M,M,M,M,M,M,M,M,M,M,M,M,M,84.01,KMEV 250135Z AUTO 26008G17KT 10SM CLR 31/M01 A3000 RMK AO2,M
BAM,2022-08-25 01:35,-116.8743,40.5990,1382.36,95.00,19.40,6.43,290.00,10.00,0.00,29.95,M,10.00,14.00,CLR,M,M,M,M,M,M,M,M,M,M,M,M,M,M,88.50,KBAM 250135Z AUTO 29010G14KT 10SM CLR 35/M07 A2995 RMK AO1,M
HTH,2022-08-25 01:35,-118.6315,38.5448,1282.89,96.80,23.00,7.09,240.00,11.00,0.00,29.90,M,10.00,M,CLR,M,M,M,M,M,M,M,M,M,M,M,M,M,M,90.25,KHTH 250135Z AUTO 24011KT 10SM CLR 36/M05 A2990 RMK A01,M
P68,2022-08-25 01:53,-116.0056,39.6014,1993.00,81.00,38.00,21.39,140.00,12.00,0.00,30.06,1009.30,M,M,M,M,M,M,M,M,M,M,M,M,M,M,27.00,150.00,2022-08-25 01:31,79.28,KP68 250153Z AUTO 14012KT 27/03 A3006 RMK AO1 PK WND 15027/0131 SLP093 T02720033,M
ELY,2022-08-25 01:53,-114.8453,39.2950,1909.00,72.00,45.00,37.96,20.00,9.00,0.00,30.15,1010.40,10.00,M,CLR,M,M,M,M,M,M,M,M,M,M,M,M,M,M,72.00,KELY 250153Z AUTO 02009KT 10SM CLR 22/07 A3015 RMK AO2 SLP104 T02220072,M
LOL,2022-08-25 01:53,-118.5701,40.0684,1192.43,95.00,21.00,6.89,290.00,14.00,0.00,29.89,1007.60,10.00,M,CLR,M,M,M,M,M,M,M,M,M,M,M,M,M,M,88.61,KLOL 250153Z AUTO 29014KT 10SM CLR 35/M06 A2989 RMK AO2 SLP076 T03501061,M
VGT,2022-08-25 01:53,-115.1933,36.2111,667.00,96.00,47.00,18.76,180.00,7.00,0.00,29.82,1008.40,10.00,M,CLR,M,M,M,M,M,M,M,M,M,M,M,M,M,M,92.44,KVGT 250153Z 18007KT 10SM CLR 36/08 A2982 RMK AO2 SLP084 T03560083,M
DRA,2022-08-25 01:53,-116.0278,36.6206,1009.00,94.00,44.00,18.05,200.00,10.00,0.00,29.89,1006.60,10.00,17.00,CLR,M,M,M,M,M,M,M,M,M,M,M,28.00,190.00,2022-08-25 00:56,89.95,KDRA 250153Z AUTO 20010G17KT 10SM CLR 34/07 A2989 RMK AO2 PK WND 19028/0056 SLP066 T03440067,M
BAM,2022-08-25 01:55,-116.8743,40.5990,1382.36,93.20,19.40,6.80,260.00,8.00,0.00,29.95,M,10.00,M,CLR,M,M,M,M,M,M,M,M,M,M,M,M,M,M,87.18,KBAM 250155Z AUTO 26008KT 10SM CLR 34/M07 A2995 RMK AO1,M
HTH,2022-08-25 01:55,-118.6315,38.5448,1282.89,95.00,24.80,8.08,260.00,15.00,0.00,29.91,M,10.00,M,CLR,M,M,M,M,M,M,M,M,M,M,M,M,M,M,88.91,KHTH 250155Z AUTO 26015KT 10SM CLR 35/M04 A2991 RMK A01,M
TMT,2022-08-25 01:55,-117.1971,39.4643,1749.34,M,M,M,310.00,8.00,0.00,30.05,M,10.00,M,CLR,M,M,M,M,M,M,M,M,M,M,M,M,M,M,M,KTMT 250155Z AUTO 31008KT 10SM CLR A3005 RMK AO2,M
RTS,2022-08-25 01:55,-119.8764,39.6682,1539.00,86.00,23.00,9.94,240.00,12.00,0.00,30.05,M,10.00,18.00,CLR,M,M,M,M,M,M,M,M,M,M,M,M,M,M,82.14,KRTS 250155Z AUTO 24012G18KT 10SM CLR 30/M05 A3005 RMK AO2,M
RNO,2022-08-25 01:55,-119.7711,39.4839,1341.00,91.00,33.00,12.85,280.00,14.00,0.00,29.97,1008.70,10.00,M,CLR,M,M,M,M,M,M,M,M,M,M,M,27.00,260.00,2022-08-25 01:07,86.74,KRNO 250155Z 28014KT 10SM CLR 33/01 A2997 RMK AO2 PK WND 26027/0107 SLP087 T03280006,M
CXP,2022-08-25 01:55,-119.7326,39.1923,1431.00,87.80,37.40,16.86,260.00,7.00,0.00,30.02,M,10.00,13.00,CLR,M,M,M,M,M,M,M,M,M,M,M,M,M,M,84.16,KCXP 250155Z AUTO 26007G13KT 10SM CLR 31/03 A3002 RMK AO2,M
BVU,2022-08-25 01:55,-114.8611,35.9475,671.00,93.20,46.40,20.13,150.00,6.00,0.00,29.84,M,M,M,M,M,M,M,M,M,M,M,M,M,M,M,M,M,M,89.55,KBVU 250155Z AUTO 15006KT 34/08 A2984 RMK AO2 PWINO TSNO,M
MEV,2022-08-25 01:55,-119.7500,38.9963,1441.42,86.00,32.00,14.40,240.00,7.00,0.00,30.00,M,10.00,M,CLR,M,M,M,M,M,M,M,M,M,M,M,M,M,M,82.64,KMEV 250155Z AUTO 24007KT 10SM CLR 30/M00 A3000 RMK AO2,M
EKO,2022-08-25 01:56,-115.7860,40.8242,1367.00,79.00,40.00,24.70,80.00,8.00,0.00,30.00,1011.20,10.00,M,CLR,M,M,M,M,M,M,M,M,M,M,M,M,M,M,79.00,KEKO 250156Z AUTO 08008KT 10SM CLR 26/04 A3000 RMK AO2 SLP112 T02610044,M
NFL,2022-08-25 01:56,-118.7010,39.4166,1199.00,95.00,19.00,6.32,290.00,12.00,0.00,29.89,1009.60,10.00,M,FEW,M,M,M,8000.00,M,M,M,M,M,M,M,M,M,M,88.47,KNFL 250156Z 29012KT 10SM FEW080 35/M07 A2989 RMK AO2 SLP096 T03501072,M
LAS,2022-08-25 01:56,-115.1634,36.0719,663.00,92.00,48.00,22.26,210.00,10.00,0.00,29.84,1007.30,10.00,17.00,FEW,FEW,BKN,M,12000.00,16000.00,20000.00,M,M,M,M,M,M,M,M,88.53,KLAS 250156Z 21010G17KT 10SM FEW120 FEW160 BKN200 33/09 A2984 RMK AO2 SLP073 CB DSNT NE-SE-SW T03330089,M
TPH,2022-08-25 01:56,-117.0904,38.0505,1654.00,89.00,34.00,14.14,150.00,6.00,0.00,30.03,1008.40,10.00,M,CLR,M,M,M,M,M,M,M,M,M,M,M,M,M,M,85.17,KTPH 250156Z AUTO 15006KT 10SM CLR 32/01 A3003 RMK AO2 SLP084 T03170011 $,M
WMC,2022-08-25 01:56,-117.8072,40.9019,1315.00,91.00,18.00,6.86,290.00,10.00,0.00,29.93,1009.20,10.00,M,CLR,M,M,M,M,M,M,M,M,M,M,M,M,M,M,85.49,KWMC 250156Z AUTO 29010KT 10SM CLR 33/M08 A2993 RMK AO2 SLP092 T03281078,M
LSV,2022-08-25 01:58,-115.0343,36.2362,570.00,96.30,48.60,19.87,200.00,9.00,0.00,29.80,1006.40,10.00,M,FEW,M,M,M,22000.00,M,M,M,M,M,M,M,M,M,M,92.93,KLSV 250158Z AUTO 20009KT 10SM FEW220 36/09 A2980 RMK AO2 SLP064 T03570092 $,M
INS,2022-08-25 01:58,-115.6733,36.5872,955.00,92.30,42.60,17.91,110.00,9.00,0.00,29.88,1006.30,10.00,M,CLR,M,M,M,M,M,M,M,M,M,M,M,M,M,M,88.33,KINS 250158Z AUTO 11009KT 10SM CLR 34/06 A2988 RMK AO2 SLP063 T03350059 $,M
BAM,2022-08-25 02:15,-116.8743,40.5990,1382.36,89.60,19.40,7.61,270.00,7.00,0.00,29.95,M,10.00,M,CLR,M,M,M,M,M,M,M,M,M,M,M,M,M,M,84.54,KBAM 250215Z AUTO 27007KT 10SM CLR 32/M07 A2995 RMK AO1,M
HTH,2022-08-25 02:15,-118.6315,38.5448,1282.89,93.20,24.80,8.54,270.00,15.00,0.00,29.91,M,10.00,M,CLR,M,M,M,M,M,M,M,M,M,M,M,M,M,M,87.56,KHTH 250215Z AUTO 27015KT 10SM CLR 34/M04 A2991 RMK A01,M
TMT,2022-08-25 02:15,-117.1971,39.4643,1749.34,M,M,M,330.00,7.00,0.00,30.05,M,10.00,M,CLR,M,M,M,M,M,M,M,M,M,M,M,M,M,M,M,KTMT 250215Z AUTO 33007KT 10SM CLR A3005 RMK AO2,M
BVU,2022-08-25 02:15,-114.8611,35.9475,671.00,93.20,46.40,20.13,130.00,4.00,0.00,29.85,M,M,M,M,M,M,M,M,M,M,M,M,M,M,M,M,M,M,89.55,KBVU 250215Z AUTO 13004KT 34/08 A2985 RMK AO2 PWINO TSNO,M
CXP,2022-08-25 02:15,-119.7326,39.1923,1431.00,86.00,37.40,17.85,240.00,5.00,0.00,30.02,M,10.00,12.00,CLR,M,M,M,M,M,M,M,M,M,M,M,M,M,M,82.73,KCXP 250215Z AUTO 24005G12KT 10SM CLR 30/03 A3002 RMK AO2,M
RTS,2022-08-25 02:15,-119.8764,39.6682,1539.00,84.20,24.80,11.35,240.00,15.00,0.00,30.05,M,10.00,M,CLR,M,M,M,M,M,M,M,M,M,M,M,M,M,M,81.00,KRTS 250215Z AUTO 24015KT 10SM CLR 29/M04 A3005 RMK AO2,M
MEV,2022-08-25 02:15,-119.7500,38.9963,1441.42,84.20,33.80,16.39,250.00,6.00,0.00,30.01,M,10.00,12.00,CLR,M,M,M,M,M,M,M,M,M,M,M,M,M,M,81.30,KMEV 250215Z AUTO 25006G12KT 10SM CLR 29/01 A3001 RMK AO2,M
TPH,2022-08-25 02:20,-117.0904,38.0505,1654.00,86.00,40.00,19.68,90.00,17.00,0.00,30.05,M,10.00,27.00,CLR,M,M,M,M,M,M,M,M,M,M,M,27.00,80.00,2022-08-25 02:10,82.81,KTPH 250220Z AUTO 09017G27KT 10SM CLR 30/04 A3005 RMK AO2 PK WND 08027/0210 WSHFT 0200 T03000044 $,M
RTS,2022-08-25 02:35,-119.8764,39.6682,1539.00,82.40,24.80,12.03,230.00,12.00,0.00,30.06,M,10.00,M,CLR,M,M,M,M,M,M,M,M,M,M,M,M,M,M,79.79,KRTS 250235Z AUTO 23012KT 10SM CLR 28/M04 A3006 RMK AO2,M
CXP,2022-08-25 02:35,-119.7326,39.1923,1431.00,84.20,35.60,17.61,240.00,6.00,0.00,30.03,M,10.00,14.00,CLR,M,M,M,M,M,M,M,M,M,M,M,M,M,M,81.34,KCXP 250235Z AUTO 24006G14KT 10SM CLR 29/02 A3003 RMK AO2,M
BVU,2022-08-25 02:35,-114.8611,35.9475,671.00,91.40,48.20,22.78,110.00,22.00,0.00,29.88,M,M,M,M,M,M,M,M,M,M,M,M,M,M,M,M,M,M,88.09,KBVU 250235Z AUTO 11022KT 33/09 A2988 RMK AO2 PWINO TSNO,M
TMT,2022-08-25 02:35,-117.1971,39.4643,1749.34,M,M,M,320.00,7.00,0.00,30.06,M,10.00,M,CLR,M,M,M,M,M,M,M,M,M,M,M,M,M,M,M,KTMT 250235Z AUTO 32007KT 10SM CLR A3006 RMK AO2,M
HTH,2022-08-25 02:35,-118.6315,38.5448,1282.89,91.40,24.80,9.04,260.00,17.00,0.00,29.91,M,10.00,M,CLR,M,M,M,M,M,M,M,M,M,M,M,M,M,M,86.21,KHTH 250235Z AUTO 26017KT 10SM CLR 33/M04 A2991 RMK A01,M
MEV,2022-08-25 02:35,-119.7500,38.9963,1441.42,78.80,35.60,21.00,260.00,6.00,0.00,30.02,M,10.00,M,CLR,M,M,M,M,M,M,M,M,M,M,M,M,M,M,78.80,KMEV 250235Z AUTO 26006KT 10SM CLR 26/02 A3002 RMK AO2,M
BAM,2022-08-25 02:35,-116.8743,40.5990,1382.36,86.00,21.20,9.21,290.00,7.00,0.00,29.96,M,10.00,M,CLR,M,M,M,M,M,M,M,M,M,M,M,M,M,M,82.04,KBAM 250235Z AUTO 29007KT 10SM CLR 30/M06 A2996 RMK AO1,M
VGT,2022-08-25 02:53,-115.1933,36.2111,667.00,94.00,48.00,20.92,160.00,6.00,0.00,29.85,1009.30,10.00,M,CLR,M,M,M,M,M,M,M,M,M,M,M,M,M,M,90.45,KVGT 250253Z 16006KT 10SM CLR 34/09 A2985 RMK AO2 SLP093 T03440089 53011,M
P68,2022-08-25 02:53,-116.0056,39.6014,1993.00,77.00,36.00,22.64,180.00,8.00,0.00,30.08,1009.90,M,M,M,M,M,M,M,M,M,M,M,M,M,M,M,M,M,77.00,KP68 250253Z AUTO 18008KT 25/02 A3008 RMK AO1 SLP099 T02500022 53009,M
DRA,2022-08-25 02:53,-116.0278,36.6206,1009.00,91.00,45.00,20.45,230.00,7.00,0.00,29.91,1007.20,10.00,M,CLR,M,M,M,M,M,M,M,M,M,M,M,M,M,M,87.35,KDRA 250253Z AUTO 23007KT 10SM CLR 33/07 A2991 RMK AO2 SLP072 T03280072 53009,M
ELY,2022-08-25 02:53,-114.8453,39.2950,1909.00,69.00,46.00,43.52,M,3.00,0.00,30.18,1011.90,10.00,17.00,CLR,M,M,M,M,M,M,M,M,M,M,M,M,M,M,69.10,KELY 250253Z AUTO VRB03G17KT 10SM CLR 21/08 A3018 RMK AO2 SLP119 T02060078 53006,M
LOL,2022-08-25 02:53,-118.5701,40.0684,1192.43,87.00,21.00,8.82,310.00,8.00,0.00,29.91,1008.30,10.00,M,CLR,M,M,M,M,M,M,M,M,M,M,M,M,M,M,82.81,KLOL 250253Z AUTO 31008KT 10SM CLR 31/M06 A2991 RMK AO2 SLP083 T03061061 53010,M
HTH,2022-08-25 02:55,-118.6315,38.5448,1282.89,91.40,26.60,9.74,270.00,19.00,0.00,29.92,M,10.00,M,CLR,M,M,M,M,M,M,M,M,M,M,M,M,M,M,86.36,KHTH 250255Z AUTO 27019KT 10SM CLR 33/M03 A2992 RMK A01,M
TMT,2022-08-25 02:55,-117.1971,39.4643,1749.34,M,M,M,60.00,4.00,0.00,30.07,M,10.00,M,CLR,M,M,M,M,M,M,M,M,M,M,M,M,M,M,M,KTMT 250255Z AUTO 06004KT 10SM CLR A3007 RMK AO2,M
BVU,2022-08-25 02:55,-114.8611,35.9475,671.00,87.80,55.40,33.29,130.00,17.00,0.00,29.89,M,M,24.00,M,M,M,M,M,M,M,M,M,M,M,M,M,M,M,86.11,KBVU 250255Z AUTO 13017G24KT 31/13 A2989 RMK AO2 PWINO TSNO,M
CXP,2022-08-25 02:55,-119.7326,39.1923,1431.00,82.40,37.40,20.04,M,6.00,0.00,30.03,M,10.00,M,CLR,M,M,M,M,M,M,M,M,M,M,M,M,M,M,80.14,KCXP 250255Z AUTO VRB06KT 10SM CLR 28/03 A3003 RMK AO2,M
RTS,2022-08-25 02:55,-119.8764,39.6682,1539.00,80.60,26.60,13.75,270.00,7.00,0.00,30.07,M,10.00,12.00,CLR,M,M,M,M,M,M,M,M,M,M,M,M,M,M,78.68,KRTS 250255Z AUTO 27007G12KT 10SM CLR 27/M03 A3007 RMK AO2,M
MEV,2022-08-25 02:55,-119.7500,38.9963,1441.42,77.00,35.60,22.28,250.00,8.00,0.00,30.02,M,10.00,M,CLR,M,M,M,M,M,M,M,M,M,M,M,M,M,M,77.00,KMEV 250255Z AUTO 25008KT 10SM CLR 25/02 A3002 RMK AO2,M
BAM,2022-08-25 02:55,-116.8743,40.5990,1382.36,82.40,21.20,10.34,290.00,7.00,0.00,29.97,M,10.00,M,CLR,M,M,M,M,M,M,M,M,M,M,M,M,M,M,79.55,KBAM 250255Z AUTO 29007KT 10SM CLR 28/M06 A2997 RMK AO1,M
RNO,2022-08-25 02:55,-119.7711,39.4839,1341.00,87.00,34.00,15.06,220.00,8.00,0.00,29.99,1009.50,10.00,M,CLR,M,M,M,M,M,M,M,M,M,M,M,M,M,M,83.53,KRNO 250255Z 22008KT 10SM CLR 31/01 A2999 RMK AO2 SLP095 T03060011 53013,M
WMC,2022-08-25 02:56,-117.8072,40.9019,1315.00,78.00,19.00,10.84,250.00,6.00,0.00,29.95,1010.00,10.00,M,CLR,M,M,M,M,M,M,M,M,M,M,M,M,M,M,78.10,KWMC 250256Z AUTO 25006KT 10SM CLR 26/M07 A2995 RMK AO2 SLP100 T02561072 53009,M
TPH,2022-08-25 02:56,-117.0904,38.0505,1654.00,82.00,43.00,25.24,100.00,21.00,0.00,30.07,1009.60,10.00,29.00,CLR,M,M,M,M,M,M,M,M,M,M,M,36.00,90.00,2022-08-25 02:25,80.15,KTPH 250256Z AUTO 10021G29KT 10SM CLR 28/06 A3007 RMK AO2 PK WND 09036/0225 WSHFT 0200 SLP096 T02780061 $,M
LAS,2022-08-25 02:56,-115.1634,36.0719,663.00,89.00,52.00,28.21,190.00,6.00,0.00,29.87,1008.40,10.00,M,FEW,FEW,BKN,M,12000.00,16000.00,20000.00,M,M,M,M,M,M,M,M,86.58,KLAS 250256Z 19006KT 10SM FEW120 FEW160 BKN200 32/11 A2987 RMK AO2 SLP084 T03170111 53005,M
NFL,2022-08-25 02:56,-118.7010,39.4166,1199.00,88.00,25.00,10.14,290.00,7.00,0.00,29.91,1010.40,10.00,M,FEW,M,M,M,8000.00,M,M,M,M,M,M,M,M,M,M,83.71,KNFL 250256Z 29007KT 10SM FEW080 31/M04 A2991 RMK AO2 SLP104 T03111039 53014,M
EKO,2022-08-25 02:56,-115.7860,40.8242,1367.00,73.00,41.00,31.47,30.00,5.00,0.00,30.03,1012.30,10.00,M,CLR,M,M,M,M,M,M,M,M,M,M,M,M,M,M,73.00,KEKO 250256Z AUTO 03005KT 10SM CLR 23/05 A3003 RMK AO2 SLP123 T02280050 53013,M
LSV,2022-08-25 02:58,-115.0343,36.2362,570.00,92.80,48.40,21.98,220.00,7.00,0.00,29.83,1007.40,10.00,M,CLR,M,M,M,M,M,M,M,M,M,M,M,M,M,M,89.45,KLSV 250258Z AUTO 22007KT 10SM CLR 34/09 A2983 RMK AO2 SLP074 T03380091 53014 $,M
INS,2022-08-25 02:58,-115.6733,36.5872,955.00,88.20,43.30,20.93,90.00,10.00,0.00,29.90,1007.10,10.00,M,FEW,M,M,M,18000.00,M,M,M,M,M,M,M,M,M,M,84.76,KINS 250258Z AUTO 09010KT 10SM FEW180 31/06 A2990 RMK AO2 SLP071 T03120063 53007 $,M
HTH,2022-08-25 03:15,-118.6315,38.5448,1282.89,89.60,28.40,11.09,280.00,12.00,0.00,29.94,M,10.00,M,CLR,M,M,M,M,M,M,M,M,M,M,M,M,M,M,85.17,KHTH 250315Z AUTO 28012KT 10SM CLR 32/M02 A2994 RMK A01,M
BVU,2022-08-25 03:15,-114.8611,35.9475,671.00,87.80,57.20,35.53,120.00,14.00,0.00,29.90,M,M,M,M,M,M,M,M,M,M,M,M,M,M,M,M,M,M,86.58,KBVU 250315Z AUTO 12014KT 31/14 A2990 RMK AO2 PWINO TSNO,M
CXP,2022-08-25 03:15,-119.7326,39.1923,1431.00,82.40,37.40,20.04,250.00,6.00,0.00,30.04,M,10.00,12.00,CLR,M,M,M,M,M,M,M,M,M,M,M,M,M,M,80.14,KCXP 250315Z AUTO 25006G12KT 10SM CLR 28/03 A3004 RMK AO2,M
RTS,2022-08-25 03:15,-119.8764,39.6682,1539.00,77.00,26.60,15.48,0.00,0.00,0.00,30.08,M,10.00,M,CLR,M,M,M,M,M,M,M,M,M,M,M,M,M,M,77.00,KRTS 250315Z AUTO 00000KT 10SM CLR 25/M03 A3008 RMK AO2,M
MEV,2022-08-25 03:15,-119.7500,38.9963,1441.42,80.60,35.60,19.79,280.00,7.00,0.00,30.03,M,10.00,M,CLR,M,M,M,M,M,M,M,M,M,M,M,M,M,M,78.94,KMEV 250315Z AUTO 28007KT 10SM CLR 27/02 A3003 RMK AO2,M
BAM,2022-08-25 03:15,-116.8743,40.5990,1382.36,80.60,21.20,10.97,310.00,7.00,0.00,29.98,M,10.00,M,CLR,M,M,M,M,M,M,M,M,M,M,M,M,M,M,78.68,KBAM 250315Z AUTO 31007KT 10SM CLR 27/M06 A2998 RMK AO1,M
TMT,2022-08-25 03:15,-117.1971,39.4643,1749.34,M,M,M,110.00,6.00,0.00,30.09,M,10.00,M,CLR,M,M,M,M,M,M,M,M,M,M,M,M,M,M,M,KTMT 250315Z AUTO 11006KT 10SM CLR A3009 RMK AO2,M
BVU,2022-08-25 03:35,-114.8611,35.9475,671.00,86.00,57.20,37.62,100.00,19.00,0.00,29.92,M,M,M,M,M,M,M,M,M,M,M,M,M,M,M,M,M,M,84.97,KBVU 250335Z AUTO 10019KT 30/14 A2992 RMK AO2 PWINO TSNO,M
CXP,2022-08-25 03:35,-119.7326,39.1923,1431.00,82.40,37.40,20.04,250.00,5.00,0.00,30.05,M,10.00,13.00,CLR,M,M,M,M,M,M,M,M,M,M,M,M,M,M,80.14,KCXP 250335Z AUTO 25005G13KT 10SM CLR 28/03 A3005 RMK AO2,M
RTS,2022-08-25 03:35,-119.8764,39.6682,1539.00,77.00,26.60,15.48,330.00,3.00,0.00,30.09,M,10.00,M,CLR,M,M,M,M,M,M,M,M,M,M,M,M,M,M,77.00,KRTS 250335Z AUTO 33003KT 10SM CLR 25/M03 A3009 RMK AO2,M
MEV,2022-08-25 03:35,-119.7500,38.9963,1441.42,78.80,35.60,21.00,260.00,11.00,0.00,30.04,M,10.00,M,CLR,M,M,M,M,M,M,M,M,M,M,M,M,M,M,78.80,KMEV 250335Z AUTO 26011KT 10SM CLR 26/02 A3004 RMK AO2,M
BAM,2022-08-25 03:35,-116.8743,40.5990,1382.36,80.60,23.00,11.83,350.00,9.00,0.00,29.99,M,10.00,M,CLR,M,M,M,M,M,M,M,M,M,M,M,M,M,M,78.80,KBAM 250335Z AUTO 35009KT 10SM CLR 27/M05 A2999 RMK AO1,M
HTH,2022-08-25 03:35,-118.6315,38.5448,1282.89,89.60,28.40,11.09,270.00,16.00,0.00,29.95,M,10.00,M,CLR,M,M,M,M,M,M,M,M,M,M,M,M,M,M,85.17,KHTH 250335Z AUTO 27016KT 10SM CLR 32/M02 A2995 RMK A01,M
TMT,2022-08-25 03:35,-117.1971,39.4643,1749.34,M,M,M,120.00,5.00,0.00,30.09,M,10.00,M,CLR,M,M,M,M,M,M,M,M,M,M,M,M,M,M,M,KTMT 250335Z AUTO 12005KT 10SM CLR A3009 RMK AO2,M
DRA,2022-08-25 03:53,-116.0278,36.6206,1009.00,88.00,44.00,21.72,240.00,12.00,0.00,29.94,1008.10,10.00,18.00,CLR,M,M,M,M,M,M,M,M,M,M,M,M,M,M,84.65,KDRA 250353Z AUTO 24012G18KT 10SM CLR 31/07 A2994 RMK AO2 SLP081 T03110067,M
LOL,2022-08-25 03:53,-118.5701,40.0684,1192.43,79.00,21.00,11.46,300.00,3.00,0.00,29.94,1009.70,10.00,M,CLR,M,M,M,M,M,M,M,M,M,M,M,M,M,M,79.00,KLOL 250353Z AUTO 30003KT 10SM CLR 26/M06 A2994 RMK AO2 SLP097 T02611061,M
VGT,2022-08-25 03:53,-115.1933,36.2111,667.00,91.00,54.00,28.60,130.00,15.00,0.00,29.91,1011.30,9.00,23.00,SCT,M,M,M,2300.00,M,M,M,M,M,M,M,M,M,M,88.78,KVGT 250353Z 13015G23KT 9SM SCT023 33/12 A2991 RMK AO2 SLP113 T03280122,M
ELY,2022-08-25 03:53,-114.8453,39.2950,1909.00,64.00,47.00,53.72,M,3.00,0.00,30.20,1012.60,10.00,M,CLR,M,M,M,M,M,M,M,M,M,M,M,M,M,M,64.00,KELY 250353Z AUTO VRB03KT 10SM CLR 18/08 A3020 RMK AO2 SLP126 T01780083,M
P68,2022-08-25 03:53,-116.0056,39.6014,1993.00,73.00,39.00,29.12,140.00,9.00,0.00,30.11,1010.50,M,M,M,M,M,M,M,M,M,M,M,M,M,M,M,M,M,73.00,KP68 250353Z AUTO 14009KT 23/04 A3011 RMK AO1 SLP105 T02280039,M
BVU,2022-08-25 03:55,-114.8611,35.9475,671.00,86.00,57.20,37.62,120.00,15.00,0.00,29.93,M,M,20.00,M,M,M,M,M,M,M,M,M,M,M,M,M,M,M,84.97,KBVU 250355Z AUTO 12015G20KT 30/14 A2993 RMK AO2 PWINO TSNO,M
RTS,2022-08-25 03:55,-119.8764,39.6682,1539.00,75.20,26.60,16.43,340.00,4.00,0.00,30.10,M,10.00,M,CLR,M,M,M,M,M,M,M,M,M,M,M,M,M,M,75.20,KRTS 250355Z AUTO 34004KT 10SM CLR 24/M03 A3010 RMK AO2,M
MEV,2022-08-25 03:55,-119.7500,38.9963,1441.42,78.80,37.40,22.54,240.00,9.00,0.00,30.05,M,10.00,M,CLR,M,M,M,M,M,M,M,M,M,M,M,M,M,M,78.80,KMEV 250355Z AUTO 24009KT 10SM CLR 26/03 A3005 RMK AO2,M
BAM,2022-08-25 03:55,-116.8743,40.5990,1382.36,78.80,23.00,12.55,340.00,9.00,0.00,30.00,M,10.00,M,CLR,M,M,M,M,M,M,M,M,M,M,M,M,M,M,78.80,KBAM 250355Z AUTO 34009KT 10SM CLR 26/M05 A3000 RMK AO1,M
HTH,2022-08-25 03:55,-118.6315,38.5448,1282.89,89.60,30.20,11.94,270.00,17.00,0.00,29.95,M,10.00,25.00,CLR,M,M,M,M,M,M,M,M,M,M,M,M,M,M,85.34,KHTH 250355Z AUTO 27017G25KT 10SM CLR 32/M01 A2995 RMK A01,M
TMT,2022-08-25 03:55,-117.1971,39.4643,1749.34,M,M,M,0.00,0.00,0.00,30.11,M,10.00,M,CLR,M,M,M,M,M,M,M,M,M,M,M,M,M,M,M,KTMT 250355Z AUTO 00000KT 10SM CLR A3011 RMK AO2,M
RNO,2022-08-25 03:55,-119.7711,39.4839,1341.00,84.00,35.00,17.38,300.00,7.00,0.00,30.02,1010.30,10.00,M,CLR,M,M,M,M,M,M,M,M,M,M,M,M,M,M,81.18,KRNO 250355Z 30007KT 10SM CLR 29/02 A3002 RMK AO2 SLP103 T02890017,M
CXP,2022-08-25 03:55,-119.7326,39.1923,1431.00,80.60,37.40,21.25,280.00,5.00,0.00,30.05,M,10.00,M,CLR,M,M,M,M,M,M,M,M,M,M,M,M,M,M,79.02,KCXP 250355Z AUTO 28005KT 10SM CLR 27/03 A3005 RMK AO2,M
WMC,2022-08-25 03:56,-117.8072,40.9019,1315.00,69.00,19.90,15.25,160.00,6.00,0.00,29.97,1010.30,10.00,M,CLR,M,M,M,M,M,M,M,M,M,M,M,M,M,M,69.10,KWMC 250356Z AUTO 16006KT 10SM CLR 21/M07 A2997 RMK AO2 SLP103 T02061067,M
TPH,2022-08-25 03:56,-117.0904,38.0505,1654.00,79.00,46.00,31.21,140.00,11.00,0.00,30.14,1011.60,10.00,24.00,FEW,M,M,M,11000.00,M,M,M,M,M,M,M,30.00,120.00,2022-08-25 03:03,79.00,KTPH 250356Z AUTO 14011G24KT 10SM FEW110 26/08 A3014 RMK AO2 PK WND 12030/0303 PRESRR SLP116 T02610078 $,M
NFL,2022-08-25 03:56,-118.7010,39.4166,1199.00,85.00,27.00,12.16,290.00,8.00,0.00,29.95,1011.50,10.00,M,CLR,M,M,M,M,M,M,M,M,M,M,M,M,M,M,81.65,KNFL 250356Z 29008KT 10SM CLR 29/M03 A2995 RMK AO2 SLP115 T02941028,M
LAS,2022-08-25 03:56,-115.1634,36.0719,663.00,89.00,56.00,32.53,130.00,8.00,0.00,29.92,1010.30,7.00,M,FEW,FEW,SCT,M,12000.00,16000.00,22000.00,M,M,M,M,M,M,M,M,87.44,KLAS 250356Z 13008KT 7SM FEW120 FEW160 SCT220 32/13 A2992 RMK AO2 SLP103 VIS LWR NE-SE T03170133,M
EKO,2022-08-25 03:56,-115.7860,40.8242,1367.00,66.00,40.00,38.32,110.00,7.00,0.00,30.06,1013.10,10.00,M,CLR,M,M,M,M,M,M,M,M,M,M,M,M,M,M,66.00,KEKO 250356Z AUTO 11007KT 10SM CLR 19/04 A3006 RMK AO2 SLP131 T01890044,M
INS,2022-08-25 03:58,-115.6733,36.5872,955.00,86.40,44.20,22.94,100.00,13.00,0.00,29.93,1008.00,10.00,M,FEW,M,M,M,18000.00,M,M,M,M,M,M,M,M,M,M,83.36,KINS 250358Z AUTO 10013KT 10SM FEW180 30/07 A2993 RMK AO2 SLP080 T03020068 $,M
LSV,2022-08-25 03:58,-115.0343,36.2362,570.00,90.00,57.00,32.80,130.00,13.00,0.00,29.89,1009.40,10.00,M,CLR,M,M,M,M,M,M,M,M,M,M,M,M,M,M,88.70,KLSV 250358Z AUTO 13013KT 10SM CLR 32/14 A2989 RMK AO2 SLP094 T03230139 $,M
VGT,2022-08-25 04:01,-115.1933,36.2111,667.00,90.00,56.00,31.62,120.00,18.00,0.00,29.91,M,7.00,27.00,BKN,M,M,M,2500.00,M,M,M,M,M,M,M,27.00,120.00,2022-08-25 03:59,88.29,KVGT 250401Z AUTO 12018G27KT 7SM BKN025 32/13 A2991 RMK AO2 PK WND 12027/0359 T03220133,M
LAS,2022-08-25 04:10,-115.1634,36.0719,663.00,88.00,57.00,35.05,120.00,8.00,0.00,29.93,M,5.00,17.00,FEW,SCT,SCT,BKN,3500.00,12000.00,16000.00,22000.00,BLDU,M,M,M,M,M,M,86.71,KLAS 250410Z 12008G17KT 5SM BLDU FEW035 SCT120 SCT160 BKN220 31/14 A2993 RMK AO2 VIS LWR NE-SE BLDU FEW035 T03110139,M
CXP,2022-08-25 04:15,-119.7326,39.1923,1431.00,80.60,35.60,19.79,250.00,4.00,0.00,30.06,M,10.00,M,CLR,M,M,M,M,M,M,M,M,M,M,M,M,M,M,78.94,KCXP 250415Z AUTO 25004KT 10SM CLR 27/02 A3006 RMK AO2,M
HTH,2022-08-25 04:15,-118.6315,38.5448,1282.89,89.60,30.20,11.94,270.00,14.00,0.00,29.97,M,10.00,25.00,CLR,M,M,M,M,M,M,M,M,M,M,M,M,M,M,85.34,KHTH 250415Z AUTO 27014G25KT 10SM CLR 32/M01 A2997 RMK A01,M
BAM,2022-08-25 04:15,-116.8743,40.5990,1382.36,78.80,21.20,11.64,340.00,9.00,0.00,30.00,M,10.00,M,CLR,M,M,M,M,M,M,M,M,M,M,M,M,M,M,78.80,KBAM 250415Z AUTO 34009KT 10SM CLR 26/M06 A3000 RMK AO1,M
MEV,2022-08-25 04:15,-119.7500,38.9963,1441.42,77.00,37.40,23.93,260.00,6.00,0.00,30.05,M,10.00,M,CLR,M,M,M,M,M,M,M,M,M,M,M,M,M,M,77.00,KMEV 250415Z AUTO 26006KT 10SM CLR 25/03 A3005 RMK AO2,M
BVU,2022-08-25 04:15,-114.8611,35.9475,671.00,86.00,57.20,37.62,140.00,12.00,0.00,29.94,M,M,18.00,M,M,M,M,M,M,M,M,M,M,M,M,M,M,M,84.97,KBVU 250415Z AUTO 14012G18KT 30/14 A2994 RMK AO2 PWINO TSNO,M
RTS,2022-08-25 04:15,-119.8764,39.6682,1539.00,75.20,28.40,17.70,300.00,6.00,0.00,30.10,M,10.00,M,CLR,M,M,M,M,M,M,M,M,M,M,M,M,M,M,75.20,KRTS 250415Z AUTO 30006KT 10SM CLR 24/M02 A3010 RMK AO2,M
TMT,2022-08-25 04:15,-117.1971,39.4643,1749.34,M,M,M,0.00,0.00,0.00,30.11,M,10.00,M,CLR,M,M,M,M,M,M,M,M,M,M,M,M,M,M,M,KTMT 250415Z AUTO 00000KT 10SM CLR A3011 RMK AO2,M
VGT,2022-08-25 04:23,-115.1933,36.2111,667.00,89.00,57.00,33.85,130.00,12.00,0.00,29.92,M,6.00,M,OVC,M,M,M,3500.00,M,M,M,HZ,M,M,M,27.00,120.00,2022-08-25 04:06,87.74,KVGT 250423Z AUTO 13012KT 6SM HZ OVC035 32/14 A2992 RMK AO2 PK WND 12027/0406 T03170139,M
CXP,2022-08-25 04:30,-119.7326,39.1923,1431.00,78.80,37.40,22.54,0.00,0.00,0.00,30.06,M,10.00,M,CLR,M,M,M,M,M,M,M,M,M,M,M,M,M,M,78.80,KCXP 250430Z AUTO 00000KT 10SM CLR 26/03 A3006 RMK AO2,M
HTH,2022-08-25 04:35,-118.6315,38.5448,1282.89,87.80,30.20,12.64,260.00,11.00,0.00,29.98,M,10.00,18.00,CLR,M,M,M,M,M,M,M,M,M,M,M,M,M,M,84.01,KHTH 250435Z AUTO 26011G18KT 10SM CLR 31/M01 A2998 RMK A01,M
MEV,2022-08-25 04:35,-119.7500,38.9963,1441.42,77.00,35.60,22.28,260.00,7.00,0.00,30.05,M,10.00,M,CLR,M,M,M,M,M,M,M,M,M,M,M,M,M,M,77.00,KMEV 250435Z AUTO 26007KT 10SM CLR 25/02 A3005 RMK AO2,M
RTS,2022-08-25 04:35,-119.8764,39.6682,1539.00,73.40,26.60,17.46,260.00,11.00,0.00,30.10,M,10.00,M,CLR,M,M,M,M,M,M,M,M,M,M,M,M,M,M,73.40,KRTS 250435Z AUTO 26011KT 10SM CLR 23/M03 A3010 RMK AO2,M
BVU,2022-08-25 04:35,-114.8611,35.9475,671.00,86.00,55.40,35.25,140.00,7.00,0.00,29.94,M,M,M,M,M,M,M,M,M,M,M,M,M,M,M,M,M,M,84.54,KBVU 250435Z AUTO 14007KT 30/13 A2994 RMK AO2 PWINO TSNO,M
BAM,2022-08-25 04:35,-116.8743,40.5990,1382.36,77.00,21.20,12.35,350.00,10.00,0.00,30.01,M,10.00,M,CLR,M,M,M,M,M,M,M,M,M,M,M,M,M,M,77.00,KBAM 250435Z AUTO 35010KT 10SM CLR 25/M06 A3001 RMK AO1,M
TMT,2022-08-25 04:35,-117.1971,39.4643,1749.34,M,M,M,0.00,0.00,0.00,30.11,M,10.00,M,CLR,M,M,M,M,M,M,M,M,M,M,M,M,M,M,M,KTMT 250435Z AUTO 00000KT 10SM CLR A3011 RMK AO2,M
VGT,2022-08-25 04:53,-115.1933,36.2111,667.00,89.00,57.00,33.85,130.00,12.00,0.00,29.93,1012.10,10.00,M,OVC,M,M,M,4700.00,M,M,M,M,M,M,M,27.00,120.00,2022-08-25 04:06,87.74,KVGT 250453Z AUTO 13012KT 10SM OVC047 32/14 A2993 RMK AO2 PK WND 12027/0406 SLP121 T03170139,M
ELY,2022-08-25 04:53,-114.8453,39.2950,1909.00,61.00,46.00,57.72,100.00,4.00,0.00,30.22,1012.40,10.00,M,CLR,M,M,M,M,M,M,M,M,M,M,M,M,M,M,61.00,KELY 250453Z AUTO 10004KT 10SM CLR 16/08 A3022 RMK AO2 SLP124 T01610078,M
DRA,2022-08-25 04:53,-116.0278,36.6206,1009.00,87.00,47.00,24.85,200.00,5.00,0.00,29.96,1008.60,10.00,M,CLR,M,M,M,M,M,M,M,M,M,M,M,M,M,M,84.15,KDRA 250453Z AUTO 20005KT 10SM CLR 31/08 A2996 RMK AO2 SLP086 T03060083,M
LOL,2022-08-25 04:53,-118.5701,40.0684,1192.43,81.00,23.00,11.68,310.00,9.00,0.00,29.96,1010.00,10.00,M,CLR,M,M,M,M,M,M,M,M,M,M,M,M,M,M,78.75,KLOL 250453Z AUTO 31009KT 10SM CLR 27/M05 A2996 RMK AO2 SLP100 T02721050,M
P68,2022-08-25 04:53,-116.0056,39.6014,1993.00,70.00,40.00,33.39,130.00,10.00,0.00,30.12,1010.60,M,M,M,M,M,M,M,M,M,M,M,M,M,M,M,M,M,70.00,KP68 250453Z AUTO 13010KT 21/04 A3012 RMK AO1 SLP106 T02110044,M
CXP,2022-08-25 04:55,-119.7326,39.1923,1431.00,77.00,37.40,23.93,120.00,4.00,0.00,30.07,M,10.00,M,CLR,M,M,M,M,M,M,M,M,M,M,M,M,M,M,77.00,KCXP 250455Z AUTO 12004KT 10SM CLR 25/03 A3007 RMK AO2,M
BVU,2022-08-25 04:55,-114.8611,35.9475,671.00,86.00,55.40,35.25,150.00,5.00,0.00,29.95,M,M,10.00,M,M,M,M,M,M,M,M,M,M,M,M,M,M,M,84.54,KBVU 250455Z AUTO 15005G10KT 30/13 A2995 RMK AO2 PWINO TSNO,M
RNO,2022-08-25 04:55,-119.7711,39.4839,1341.00,78.00,36.00,21.83,180.00,3.00,0.00,30.03,1010.80,10.00,M,CLR,M,M,M,M,M,M,M,M,M,M,M,M,M,M,78.10,KRNO 250455Z 18003KT 10SM CLR 26/02 A3003 RMK AO2 SLP108 T02560022,M
RTS,2022-08-25 04:55,-119.8764,39.6682,1539.00,69.80,26.60,19.72,270.00,10.00,0.00,30.10,M,10.00,M,CLR,M,M,M,M,M,M,M,M,M,M,M,M,M,M,69.80,KRTS 250455Z AUTO 27010KT 10SM CLR 21/M03 A3010 RMK AO2,M
MEV,2022-08-25 04:55,-119.7500,38.9963,1441.42,68.00,37.40,32.43,M,6.00,0.00,30.06,M,10.00,M,CLR,M,M,M,M,M,M,M,M,M,M,M,M,M,M,68.00,KMEV 250455Z AUTO VRB06KT 10SM CLR 20/03 A3006 RMK AO2,M
BAM,2022-08-25 04:55,-116.8743,40.5990,1382.36,77.00,21.20,12.35,350.00,10.00,0.00,30.01,M,10.00,M,CLR,M,M,M,M,M,M,M,M,M,M,M,M,M,M,77.00,KBAM 250455Z AUTO 35010KT 10SM CLR 25/M06 A3001 RMK AO1,M
HTH,2022-08-25 04:55,-118.6315,38.5448,1282.89,87.80,28.40,11.74,350.00,7.00,0.00,29.99,M,10.00,13.00,FEW,M,M,M,4600.00,M,M,M,M,M,M,M,M,M,M,83.84,KHTH 250455Z AUTO 35007G13KT 10SM FEW046 31/M02 A2999 RMK A01,M
TMT,2022-08-25 04:55,-117.1971,39.4643,1749.34,M,M,M,200.00,3.00,0.00,30.12,M,10.00,M,CLR,M,M,M,M,M,M,M,M,M,M,M,M,M,M,M,KTMT 250455Z AUTO 20003KT 10SM CLR A3012 RMK AO2,M
TPH,2022-08-25 04:56,-117.0904,38.0505,1654.00,77.00,47.00,34.50,170.00,14.00,0.00,30.12,1010.90,10.00,M,CLR,M,M,M,M,M,M,M,M,M,M,M,35.00,180.00,2022-08-25 04:19,77.00,KTPH 250456Z AUTO 17014KT 10SM CLR 25/08 A3012 RMK AO2 PK WND 18035/0419 LTG DSNT SE SLP109 T02500083 $,M
LAS,2022-08-25 04:56,-115.1634,36.0719,663.00,87.00,58.00,37.25,100.00,5.00,0.00,29.93,1010.60,7.00,M,SCT,SCT,BKN,M,4500.00,12000.00,24000.00,M,M,M,M,M,M,M,M,86.14,KLAS 250456Z 10005KT 7SM SCT045 SCT120 BKN240 31/14 A2993 RMK AO2 SLP106 VIS LWR NE-SE DU SCT045 DU ALQDS T03060144,M
EKO,2022-08-25 04:56,-115.7860,40.8242,1367.00,64.00,41.00,42.88,100.00,6.00,0.00,30.07,1013.70,10.00,M,CLR,M,M,M,M,M,M,M,M,M,M,M,M,M,M,64.00,KEKO 250456Z AUTO 10006KT 10SM CLR 18/05 A3007 RMK AO2 SLP137 T01780050,M
WMC,2022-08-25 04:56,-117.8072,40.9019,1315.00,69.00,21.90,16.60,100.00,4.00,0.00,29.98,1010.10,10.00,M,CLR,M,M,M,M,M,M,M,M,M,M,M,M,M,M,69.10,KWMC 250456Z AUTO 10004KT 10SM CLR 21/M06 A2998 RMK AO2 SLP101 T02061056,M
NFL,2022-08-25 04:56,-118.7010,39.4166,1199.00,79.00,30.00,16.66,320.00,6.00,0.00,29.97,1012.20,10.00,M,CLR,M,M,M,M,M,M,M,M,M,M,M,M,M,M,79.00,KNFL 250456Z 32006KT 10SM CLR 26/M01 A2997 RMK AO2 SLP122 T02611011,M
INS,2022-08-25 04:58,-115.6733,36.5872,955.00,85.80,48.00,27.00,110.00,19.00,0.00,29.96,1008.90,10.00,22.00,CLR,M,M,M,M,M,M,M,M,M,M,M,27.00,120.00,2022-08-25 04:35,83.22,KINS 250458Z AUTO 11019G22KT 10SM CLR 30/09 A2996 RMK AO2 PK WND 12027/35 SLP089 T02990089 $,M
LSV,2022-08-25 04:58,-115.0343,36.2362,570.00,87.80,58.30,36.96,100.00,5.00,0.00,29.91,1010.20,10.00,M,CLR,M,M,M,M,M,M,M,M,M,M,M,M,M,M,86.90,KLSV 250458Z AUTO 10005KT 10SM CLR 31/15 A2991 RMK AO2 SLP102 T03100146 $,M
INS,2022-08-25 05:08,-115.6733,36.5872,955.00,84.20,50.00,30.62,110.00,16.00,0.00,29.95,1008.60,10.00,M,FEW,M,M,M,500.00,M,M,M,M,M,M,M,M,M,M,82.24,KINS 250508Z AUTO 11016KT 10SM FEW005 29/10 A2995 RMK AO2 SLP086 $,M
CXP,2022-08-25 05:10,-119.7326,39.1923,1431.00,73.40,39.20,28.96,90.00,5.00,0.00,30.07,M,10.00,M,CLR,M,M,M,M,M,M,M,M,M,M,M,M,M,M,73.40,KCXP 250510Z AUTO 09005KT 10SM CLR 23/04 A3007 RMK AO2,M
RTS,2022-08-25 05:15,-119.8764,39.6682,1539.00,66.20,28.40,24.04,270.00,9.00,0.00,30.10,M,10.00,M,CLR,M,M,M,M,M,M,M,M,M,M,M,M,M,M,66.20,KRTS 250515Z AUTO 27009KT 10SM CLR 19/M02 A3010 RMK AO2,M
BVU,2022-08-25 05:15,-114.8611,35.9475,671.00,86.00,55.40,35.25,160.00,5.00,0.00,29.95,M,M,M,M,M,M,M,M,M,M,M,M,M,M,M,M,M,M,84.54,KBVU 250515Z AUTO 16005KT 30/13 A2995 RMK AO2 PWINO TSNO,M
TMT,2022-08-25 05:15,-117.1971,39.4643,1749.34,M,M,M,220.00,8.00,0.00,30.12,M,10.00,M,CLR,M,M,M,M,M,M,M,M,M,M,M,M,M,M,M,KTMT 250515Z AUTO 22008KT 10SM CLR A3012 RMK AO2,M
HTH,2022-08-25 05:15,-118.6315,38.5448,1282.89,87.80,30.20,12.64,40.00,6.00,0.00,30.00,M,10.00,13.00,FEW,FEW,M,M,4800.00,5500.00,M,M,M,M,M,M,M,M,M,84.01,KHTH 250515Z AUTO 04006G13KT 10SM FEW048 FEW055 31/M01 A3000 RMK A01,M
BAM,2022-08-25 05:15,-116.8743,40.5990,1382.36,77.00,21.20,12.35,340.00,7.00,0.00,30.01,M,10.00,M,CLR,M,M,M,M,M,M,M,M,M,M,M,M,M,M,77.00,KBAM 250515Z AUTO 34007KT 10SM CLR 25/M06 A3001 RMK AO1,M
MEV,2022-08-25 05:15,-119.7500,38.9963,1441.42,66.20,37.40,34.51,90.00,7.00,0.00,30.06,M,10.00,M,CLR,M,M,M,M,M,M,M,M,M,M,M,M,M,M,66.20,KMEV 250515Z AUTO 09007KT 10SM CLR 19/03 A3006 RMK AO2,M
INS,2022-08-25 05:33,-115.6733,36.5872,955.00,84.20,51.80,32.73,100.00,21.00,0.00,29.96,1008.90,7.00,M,BKN,M,M,M,500.00,M,M,M,M,M,M,M,M,M,M,82.48,KINS 250533Z AUTO 10021KT 7SM BKN005 29/11 A2996 RMK AO2 SLP089 $,M
CXP,2022-08-25 05:35,-119.7326,39.1923,1431.00,73.40,37.40,26.98,0.00,0.00,0.00,30.07,M,10.00,M,CLR,M,M,M,M,M,M,M,M,M,M,M,M,M,M,73.40,KCXP 250535Z AUTO 00000KT 10SM CLR 23/03 A3007 RMK AO2,M
BAM,2022-08-25 05:35,-116.8743,40.5990,1382.36,73.40,21.20,13.93,260.00,6.00,0.00,30.02,M,10.00,M,CLR,M,M,M,M,M,M,M,M,M,M,M,M,M,M,73.40,KBAM 250535Z AUTO 26006KT 10SM CLR 23/M06 A3002 RMK AO1,M
TMT,2022-08-25 05:35,-117.1971,39.4643,1749.34,58.60,27.30,30.04,240.00,5.00,0.00,30.13,M,10.00,M,CLR,M,M,M,M,M,M,M,M,M,M,M,M,M,M,58.60,KTMT 250535Z AUTO 24005KT 10SM CLR 15/M03 A3013 RMK AO2 T01481026,M
HTH,2022-08-25 05:35,-118.6315,38.5448,1282.89,87.80,28.40,11.74,0.00,0.00,0.00,30.01,M,10.00,M,CLR,M,M,M,M,M,M,M,M,M,M,M,M,M,M,83.84,KHTH 250535Z AUTO 00000KT 10SM CLR 31/M02 A3001 RMK A01,M
MEV,2022-08-25 05:35,-119.7500,38.9963,1441.42,66.20,35.60,32.14,60.00,7.00,0.00,30.06,M,10.00,M,CLR,M,M,M,M,M,M,M,M,M,M,M,M,M,M,66.20,KMEV 250535Z AUTO 06007KT 10SM CLR 19/02 A3006 RMK AO2,M
RTS,2022-08-25 05:35,-119.8764,39.6682,1539.00,69.80,28.40,21.24,260.00,8.00,0.00,30.11,M,10.00,M,CLR,M,M,M,M,M,M,M,M,M,M,M,M,M,M,69.80,KRTS 250535Z AUTO 26008KT 10SM CLR 21/M02 A3011 RMK AO2,M
BVU,2022-08-25 05:35,-114.8611,35.9475,671.00,86.00,55.40,35.25,190.00,4.00,0.00,29.96,M,M,11.00,M,M,M,M,M,M,M,M,M,M,M,M,M,M,M,84.54,KBVU 250535Z AUTO 19004G11KT 30/13 A2996 RMK AO2 PWINO TSNO,M
INS,2022-08-25 05:53,-115.6733,36.5872,955.00,84.20,53.60,34.97,100.00,19.00,0.00,29.96,1008.90,8.00,M,OVC,M,M,M,800.00,M,M,M,M,M,M,M,M,M,M,82.76,KINS 250553Z AUTO 10019KT 8SM OVC008 29/12 A2996 RMK AO2 SLP089 $,M
P68,2022-08-25 05:53,-116.0056,39.6014,1993.00,70.00,40.00,33.39,150.00,11.00,0.00,30.13,1010.40,M,M,M,M,M,M,M,M,M,M,M,M,M,M,M,M,M,70.00,KP68 250553Z AUTO 15011KT 21/04 A3013 RMK AO1 SLP104 T02110044 10300 20200 51015,M
VGT,2022-08-25 05:53,-115.1933,36.2111,667.00,88.00,56.00,33.68,0.00,0.00,0.00,29.95,1012.80,10.00,M,CLR,M,M,M,M,M,M,M,M,M,M,M,M,M,M,86.42,KVGT 250553Z AUTO 00000KT 10SM CLR 31/13 A2995 RMK AO2 SLP128 T03110133 10367 20311 51032,M
LOL,2022-08-25 05:53,-118.5701,40.0684,1192.43,69.00,25.00,18.91,160.00,6.00,0.00,29.98,1010.80,10.00,M,CLR,M,M,M,M,M,M,M,M,M,M,M,M,M,M,69.10,KLOL 250553Z AUTO 16006KT 10SM CLR 21/M04 A2998 RMK AO2 SLP108 T02061039 10372 20194 51023,M
DRA,2022-08-25 05:53,-116.0278,36.6206,1009.00,85.00,47.00,26.66,10.00,7.00,0.00,29.98,1009.20,10.00,M,CLR,M,M,M,M,M,M,M,M,M,M,M,M,M,M,82.42,KDRA 250553Z AUTO 01007KT 10SM CLR 29/08 A2998 RMK AO2 SLP092 T02940083 10372 20294 51020,M
ELY,2022-08-25 05:53,-114.8453,39.2950,1909.00,62.00,44.00,51.64,200.00,7.00,0.00,30.22,1012.00,10.00,M,CLR,M,M,M,M,M,M,M,M,M,M,M,M,M,M,62.10,KELY 250553Z AUTO 20007KT 10SM CLR 17/07 A3022 RMK AO2 SLP120 T01670067 10261 20156 51009,M
RTS,2022-08-25 05:55,-119.8764,39.6682,1539.00,62.60,28.40,27.27,290.00,9.00,0.00,30.11,M,10.00,M,CLR,M,M,M,M,M,M,M,M,M,M,M,M,M,M,62.60,KRTS 250555Z AUTO 29009KT 10SM CLR 17/M02 A3011 RMK AO2,M
RNO,2022-08-25 05:55,-119.7711,39.4839,1341.00,75.00,39.00,27.23,0.00,0.00,0.00,30.04,1010.90,10.00,M,CLR,M,M,M,M,M,M,M,M,M,M,M,M,M,M,75.00,KRNO 250555Z 00000KT 10SM CLR 24/04 A3004 RMK AO2 SLP109 T02390039 10356 20239 51015,M
MEV,2022-08-25 05:55,-119.7500,38.9963,1441.42,62.60,35.60,36.45,90.00,5.00,0.00,30.07,M,10.00,M,CLR,M,M,M,M,M,M,M,M,M,M,M,M,M,M,62.60,KMEV 250555Z AUTO 09005KT 10SM CLR 17/02 A3007 RMK AO2,M
BAM,2022-08-25 05:55,-116.8743,40.5990,1382.36,71.60,21.20,14.80,210.00,4.00,0.00,30.02,M,10.00,M,CLR,M,M,M,M,M,M,M,M,M,M,M,M,M,M,71.60,KBAM 250555Z AUTO 21004KT 10SM CLR 22/M06 A3002 RMK AO1,M
HTH,2022-08-25 05:55,-118.6315,38.5448,1282.89,86.00,28.40,12.44,250.00,4.00,0.00,30.02,M,10.00,M,CLR,M,M,M,M,M,M,M,M,M,M,M,M,M,M,82.54,KHTH 250555Z AUTO 25004KT 10SM CLR 30/M02 A3002 RMK A01,M
TMT,2022-08-25 05:55,-117.1971,39.4643,1749.34,M,M,M,220.00,4.00,0.00,30.14,M,10.00,M,CLR,M,M,M,M,M,M,M,M,M,M,M,M,M,M,M,KTMT 250555Z AUTO 22004KT 10SM CLR A3014 RMK AO2,M
BVU,2022-08-25 05:55,-114.8611,35.9475,671.00,84.20,55.40,37.35,0.00,0.00,0.00,29.97,M,M,M,M,M,M,M,M,M,M,M,M,M,M,M,M,M,M,83.09,KBVU 250555Z AUTO 00000KT 29/13 A2997 RMK AO2 PWINO TSNO,M
CXP,2022-08-25 05:55,-119.7326,39.1923,1431.00,73.40,39.20,28.96,0.00,0.00,0.00,30.08,M,10.00,M,CLR,M,M,M,M,M,M,M,M,M,M,M,M,M,M,73.40,KCXP 250555Z AUTO 00000KT 10SM CLR 23/04 A3008 RMK AO2,M
NFL,2022-08-25 05:56,-118.7010,39.4166,1199.00,78.00,28.90,16.41,290.00,7.00,0.00,29.99,1012.60,10.00,M,CLR,M,M,M,M,M,M,M,M,M,M,M,M,M,M,78.10,KNFL 250556Z 29007KT 10SM CLR 26/M02 A2999 RMK AO2 SLP126 T02561017 10378 20250 51023,M
EKO,2022-08-25 05:56,-115.7860,40.8242,1367.00,63.00,42.00,46.34,100.00,5.00,0.00,30.08,1013.70,10.00,M,CLR,M,M,M,M,M,M,M,M,M,M,M,M,M,M,63.00,KEKO 250556Z AUTO 10005KT 10SM CLR 17/06 A3008 RMK AO2 SLP137 T01720056 10283 20167 51015,M
WMC,2022-08-25 05:56,-117.8072,40.9019,1315.00,64.00,26.10,23.61,0.00,0.00,0.00,30.00,1010.60,10.00,M,CLR,M,M,M,M,M,M,M,M,M,M,M,M,M,M,64.00,KWMC 250556Z AUTO 00000KT 10SM CLR 18/M03 A3000 RMK AO2 SLP106 T01781033 10361 20156 51014,M
TPH,2022-08-25 05:56,-117.0904,38.0505,1654.00,76.00,46.00,34.58,170.00,14.00,0.00,30.15,1011.50,10.00,M,CLR,M,M,M,M,M,M,M,M,M,M,M,M,M,M,75.90,KTPH 250556Z AUTO 17014KT 10SM CLR 24/08 A3015 RMK AO2 LTG DSNT E AND SE SLP115 T02440078 10344 20244 51021 $,M
LAS,2022-08-25 05:56,-115.1634,36.0719,663.00,88.00,57.00,35.05,0.00,0.00,0.00,29.96,1011.30,9.00,M,BKN,M,M,M,24000.00,M,M,M,M,M,M,M,M,M,M,86.71,KLAS 250556Z 00000KT 9SM BKN240 31/14 A2996 RMK AO2 SLP113 VIS LWR NE-SE DU ALQDS T03110139 10361 20300 51029 $,M
INS,2022-08-25 05:58,-115.6733,36.5872,955.00,83.00,54.00,36.91,100.00,21.00,0.00,29.97,1009.30,8.00,M,OVC,M,M,M,800.00,M,M,M,M,M,M,M,29.00,120.00,2022-08-25 04:59,82.03,KINS 250558Z AUTO 10021KT 8SM OVC008 28/12 A2997 RMK AO2 PK WND 12029/0459 SLP093 T02840123 10357 20284 52021 $,M
LSV,2022-08-25 05:58,-115.0343,36.2362,570.00,87.00,58.00,37.76,290.00,3.00,0.00,29.94,1011.00,10.00,M,FEW,M,M,M,23000.00,M,M,M,M,M,M,M,M,M,M,86.01,KLSV 250558Z AUTO 29003KT 10SM FEW230 31/15 A2994 RMK AO2 SLP110 T03050145 10395 20305 52032 $,M
INS,2022-08-25 06:03,-115.6733,36.5872,955.00,82.40,55.40,39.58,110.00,16.00,0.00,29.96,1008.90,8.00,M,OVC,M,M,M,1000.00,M,M,M,M,M,M,M,M,M,M,81.75,KINS 250603Z AUTO 11016KT 8SM OVC010 28/13 A2996 RMK AO2 SLP089 $,M
RTS,2022-08-25 06:15,-119.8764,39.6682,1539.00,66.20,33.80,29.92,270.00,14.00,0.00,30.10,M,10.00,M,CLR,M,M,M,M,M,M,M,M,M,M,M,M,M,M,66.20,KRTS 250615Z AUTO 27014KT 10SM CLR 19/01 A3010 RMK AO2,M
CXP,2022-08-25 06:15,-119.7326,39.1923,1431.00,71.60,37.40,28.68,0.00,0.00,0.00,30.08,M,10.00,M,CLR,M,M,M,M,M,M,M,M,M,M,M,M,M,M,71.60,KCXP 250615Z AUTO 00000KT 10SM CLR 22/03 A3008 RMK AO2,M
BVU,2022-08-25 06:15,-114.8611,35.9475,671.00,84.20,60.80,45.34,160.00,20.00,0.00,29.98,M,M,M,M,M,M,M,M,M,M,M,M,M,M,M,M,M,M,84.43,KBVU 250615Z AUTO 16020KT 29/16 A2998 RMK AO2 PWINO TSNO,M
HTH,2022-08-25 06:15,-118.6315,38.5448,1282.89,84.20,30.20,14.18,360.00,4.00,0.00,30.02,M,10.00,M,CLR,M,M,M,M,M,M,M,M,M,M,M,M,M,M,81.26,KHTH 250615Z AUTO 36004KT 10SM CLR 29/M01 A3002 RMK A01,M
BAM,2022-08-25 06:15,-116.8743,40.5990,1382.36,69.80,21.20,15.73,170.00,3.00,0.00,30.03,M,10.00,M,CLR,M,M,M,M,M,M,M,M,M,M,M,M,M,M,69.80,KBAM 250615Z AUTO 17003KT 10SM CLR 21/M06 A3003 RMK AO1,M
MEV,2022-08-25 06:15,-119.7500,38.9963,1441.42,60.80,37.40,41.71,90.00,9.00,0.00,30.07,M,10.00,M,CLR,M,M,M,M,M,M,M,M,M,M,M,M,M,M,60.80,KMEV 250615Z AUTO 09009KT 10SM CLR 16/03 A3007 RMK AO2,M
TMT,2022-08-25 06:15,-117.1971,39.4643,1749.34,M,M,M,150.00,4.00,0.00,30.15,M,10.00,M,CLR,M,M,M,M,M,M,M,M,M,M,M,M,M,M,M,KTMT 250615Z AUTO 15004KT 10SM CLR A3015 RMK AO2,M
RTS,2022-08-25 06:35,-119.8764,39.6682,1539.00,68.00,35.60,30.20,260.00,14.00,0.00,30.10,M,10.00,M,CLR,M,M,M,M,M,M,M,M,M,M,M,M,M,M,68.00,KRTS 250635Z AUTO 26014KT 10SM CLR 20/02 A3010 RMK AO2,M
CXP,2022-08-25 06:35,-119.7326,39.1923,1431.00,69.80,35.60,28.39,0.00,0.00,0.00,30.08,M,10.00,M,CLR,M,M,M,M,M,M,M,M,M,M,M,M,M,M,69.80,KCXP 250635Z AUTO 00000KT 10SM CLR 21/02 A3008 RMK AO2,M
BVU,2022-08-25 06:35,-114.8611,35.9475,671.00,82.40,62.60,51.21,160.00,12.00,0.00,29.99,M,M,19.00,M,M,M,M,M,M,M,M,M,M,M,M,M,M,M,83.41,KBVU 250635Z AUTO 16012G19KT 28/17 A2999 RMK AO2 PWINO TSNO,M
MEV,2022-08-25 06:35,-119.7500,38.9963,1441.42,62.60,37.40,39.14,100.00,8.00,0.00,30.07,M,10.00,M,CLR,M,M,M,M,M,M,M,M,M,M,M,M,M,M,62.60,KMEV 250635Z AUTO 10008KT 10SM CLR 17/03 A3007 RMK AO2,M
BAM,2022-08-25 06:35,-116.8743,40.5990,1382.36,62.60,19.40,18.71,160.00,6.00,0.00,30.03,M,10.00,M,CLR,M,M,M,M,M,M,M,M,M,M,M,M,M,M,62.60,KBAM 250635Z AUTO 16006KT 10SM CLR 17/M07 A3003 RMK AO1,M
HTH,2022-08-25 06:35,-118.6315,38.5448,1282.89,82.40,30.20,15.03,0.00,0.00,0.00,30.03,M,10.00,M,CLR,M,M,M,M,M,M,M,M,M,M,M,M,M,M,79.97,KHTH 250635Z AUTO 00000KT 10SM CLR 28/M01 A3003 RMK A01,M
TMT,2022-08-25 06:35,-117.1971,39.4643,1749.34,M,M,M,190.00,7.00,0.00,30.15,M,10.00,M,CLR,M,M,M,M,M,M,M,M,M,M,M,M,M,M,M,KTMT 250635Z AUTO 19007KT 10SM CLR A3015 RMK AO2,M
INS,2022-08-25 06:38,-115.6733,36.5872,955.00,82.40,53.60,37.07,120.00,18.00,0.00,29.98,1009.60,10.00,22.00,SCT,OVC,M,M,1200.00,13000.00,M,M,M,M,M,M,M,M,M,81.46,KINS 250638Z AUTO 12018G22KT 10SM SCT012 OVC130 28/12 A2998 RMK AO2 SLP096 $,M
CXP,2022-08-25 06:50,-119.7326,39.1923,1431.00,68.00,37.40,32.43,0.00,0.00,0.00,30.09,M,10.00,M,CLR,M,M,M,M,M,M,M,M,M,M,M,M,M,M,68.00,KCXP 250650Z AUTO 00000KT 10SM CLR 20/03 A3009 RMK AO2,M
P68,2022-08-25 06:53,-116.0056,39.6014,1993.00,65.00,38.00,36.82,180.00,6.00,0.00,30.14,1011.50,M,M,M,M,M,M,M,M,M,M,M,M,M,M,M,M,M,64.90,KP68 250653Z AUTO 18006KT 18/03 A3014 RMK AO1 SLP115 T01830033,M
DRA,2022-08-25 06:53,-116.0278,36.6206,1009.00,83.00,48.00,29.64,0.00,0.00,0.00,29.99,1009.70,10.00,M,CLR,M,M,M,M,M,M,M,M,M,M,M,M,M,M,81.11,KDRA 250653Z AUTO 00000KT 10SM CLR 28/09 A2999 RMK AO2 SLP097 T02830089,M
ELY,2022-08-25 06:53,-114.8453,39.2950,1909.00,60.00,45.00,57.37,210.00,8.00,0.00,30.22,1012.20,10.00,M,CLR,M,M,M,M,M,M,M,M,M,M,M,M,M,M,60.10,KELY 250653Z AUTO 21008KT 10SM CLR 16/07 A3022 RMK AO2 SLP122 T01560072 403170156,M
VGT,2022-08-25 06:53,-115.1933,36.2111,667.00,88.00,57.00,35.05,50.00,8.00,0.00,30.00,1014.30,10.00,M,CLR,M,M,M,M,M,M,M,M,M,M,M,M,M,M,86.71,KVGT 250653Z AUTO 05008KT 10SM CLR 31/14 A3000 RMK AO2 SLP143 T03110139,M
LOL,2022-08-25 06:53,-118.5701,40.0684,1192.43,67.00,25.00,20.39,70.00,4.00,0.00,30.00,1011.10,10.00,M,CLR,M,M,M,M,M,M,M,M,M,M,M,M,M,M,66.90,KLOL 250653Z AUTO 07004KT 10SM CLR 19/M04 A3000 RMK AO2 SLP111 T01941039,M
TMT,2022-08-25 06:55,-117.1971,39.4643,1749.34,M,M,M,240.00,4.00,0.00,30.16,M,10.00,M,CLR,M,M,M,M,M,M,M,M,M,M,M,M,M,M,M,KTMT 250655Z AUTO 24004KT 10SM CLR A3016 RMK AO2,M
BVU,2022-08-25 06:55,-114.8611,35.9475,671.00,80.60,62.60,54.30,180.00,8.00,0.00,30.02,M,M,18.00,M,M,M,M,M,M,M,M,M,M,M,M,M,M,M,81.84,KBVU 250655Z AUTO 18008G18KT 27/17 A3002 RMK AO2 PWINO TSNO,M
RTS,2022-08-25 06:55,-119.8764,39.6682,1539.00,62.60,33.80,33.93,290.00,7.00,0.00,30.11,M,10.00,M,CLR,M,M,M,M,M,M,M,M,M,M,M,M,M,M,62.60,KRTS 250655Z AUTO 29007KT 10SM CLR 17/01 A3011 RMK AO2,M
MEV,2022-08-25 06:55,-119.7500,38.9963,1441.42,62.60,35.60,36.45,100.00,8.00,0.00,30.07,M,10.00,M,CLR,M,M,M,M,M,M,M,M,M,M,M,M,M,M,62.60,KMEV 250655Z AUTO 10008KT 10SM CLR 17/02 A3007 RMK AO2,M
BAM,2022-08-25 06:55,-116.8743,40.5990,1382.36,64.40,19.40,17.56,150.00,6.00,0.00,30.04,M,10.00,M,CLR,M,M,M,M,M,M,M,M,M,M,M,M,M,M,64.40,KBAM 250655Z AUTO 15006KT 10SM CLR 18/M07 A3004 RMK AO1,M
HTH,2022-08-25 06:55,-118.6315,38.5448,1282.89,80.60,30.20,15.94,210.00,4.00,0.00,30.03,M,10.00,M,CLR,M,M,M,M,M,M,M,M,M,M,M,M,M,M,78.77,KHTH 250655Z AUTO 21004KT 10SM CLR 27/M01 A3003 RMK A01,M
RNO,2022-08-25 06:55,-119.7711,39.4839,1341.00,72.00,38.00,28.85,210.00,5.00,0.00,30.05,1011.30,10.00,M,CLR,M,M,M,M,M,M,M,M,M,M,M,M,M,M,72.00,KRNO 250655Z 21005KT 10SM CLR 22/03 A3005 RMK AO2 SLP113 T02220033,M
LAS,2022-08-25 06:56,-115.1634,36.0719,663.00,88.00,57.00,35.05,M,4.00,0.00,30.00,1012.60,10.00,M,SCT,BKN,M,M,15000.00,24000.00,M,M,M,M,M,M,M,M,M,86.71,KLAS 250656Z VRB04KT 10SM SCT150 BKN240 31/14 A3000 RMK AO2 SLP126 VIS LWR NE-SE DU ALQDS T03110139 $,M
NFL,2022-08-25 06:56,-118.7010,39.4166,1199.00,72.00,30.90,21.82,M,5.00,0.00,30.01,1013.10,10.00,M,CLR,M,M,M,M,M,M,M,M,M,M,M,M,M,M,72.00,KNFL 250656Z VRB05KT 10SM CLR 22/M01 A3001 RMK AO2 SLP131 T02221006,M
EKO,2022-08-25 06:56,-115.7860,40.8242,1367.00,68.00,42.00,38.94,80.00,4.00,0.00,30.09,1013.40,10.00,M,CLR,M,M,M,M,M,M,M,M,M,M,M,M,M,M,68.00,KEKO 250656Z AUTO 08004KT 10SM CLR 20/06 A3009 RMK AO2 SLP134 T02000056,M
WMC,2022-08-25 06:56,-117.8072,40.9019,1315.00,60.00,24.10,24.93,160.00,6.00,0.00,30.01,1011.00,10.00,M,CLR,M,M,M,M,M,M,M,M,M,M,M,M,M,M,60.10,KWMC 250656Z AUTO 16006KT 10SM CLR 16/M04 A3001 RMK AO2 SLP110 T01561044,M
TPH,2022-08-25 06:56,-117.0904,38.0505,1654.00,73.00,46.00,38.11,180.00,12.00,0.00,30.16,1012.10,10.00,M,CLR,M,M,M,M,M,M,M,M,M,M,M,M,M,M,73.00,KTPH 250656Z AUTO 18012KT 10SM CLR 23/08 A3016 RMK AO2 LTG DSNT E SLP121 T02280078 $,M
LSV,2022-08-25 06:58,-115.0343,36.2362,570.00,87.00,57.40,36.82,70.00,9.00,0.00,29.98,1012.30,10.00,M,OVC,M,M,M,10000.00,M,M,M,M,M,M,M,M,M,M,85.82,KLSV 250658Z AUTO 07009KT 10SM OVC100 31/14 A2998 RMK AO2 SLP123 T03050141 $,M
INS,2022-08-25 06:58,-115.6733,36.5872,955.00,82.00,53.80,37.95,110.00,19.00,0.00,30.00,1010.30,10.00,25.00,OVC,M,M,M,14000.00,M,M,M,M,M,M,M,31.00,130.00,2022-08-25 06:33,81.15,KINS 250658Z AUTO 11019G25KT 10SM OVC140 28/12 A3000 RMK AO2 PK WND 13031/33 PRESRR SLP103 T02770121 $,M
LSV,2022-08-25 06:59,-115.0343,36.2362,570.00,87.80,59.00,37.90,70.00,9.00,0.00,29.98,1012.30,10.00,M,OVC,M,M,M,10000.00,M,M,M,-DZ,M,M,M,M,M,M,87.12,KLSV 250659Z AUTO 07009KT 10SM -DZ OVC100 31/15 A2998 RMK AO2 DZB58 SLP123 $,M
LSV,2022-08-25 07:04,-115.0343,36.2362,570.00,87.80,59.00,37.90,120.00,7.00,0.00,29.98,1012.30,10.00,M,OVC,M,M,M,10000.00,M,M,M,M,M,M,M,M,M,M,87.12,KLSV 250704Z AUTO 12007KT 10SM OVC100 31/15 A2998 RMK AO2 DZB0658E04 SLP123 $,M
RTS,2022-08-25 07:15,-119.8764,39.6682,1539.00,64.40,33.80,31.85,300.00,9.00,0.00,30.11,M,10.00,M,CLR,M,M,M,M,M,M,M,M,M,M,M,M,M,M,64.40,KRTS 250715Z AUTO 30009KT 10SM CLR 18/01 A3011 RMK AO2,M
TMT,2022-08-25 07:15,-117.1971,39.4643,1749.34,55.00,27.30,34.21,0.00,0.00,0.00,30.16,M,10.00,M,CLR,M,M,M,M,M,M,M,M,M,M,M,M,M,M,55.00,KTMT 250715Z AUTO 00000KT 10SM CLR 13/M03 A3016 RMK AO2 T01281026,M
HTH,2022-08-25 07:15,-118.6315,38.5448,1282.89,77.00,30.20,17.94,210.00,4.00,0.00,30.04,M,10.00,M,CLR,M,M,M,M,M,M,M,M,M,M,M,M,M,M,77.00,KHTH 250715Z AUTO 21004KT 10SM CLR 25/M01 A3004 RMK A01,M
BAM,2022-08-25 07:15,-116.8743,40.5990,1382.36,64.40,19.40,17.56,100.00,5.00,0.00,30.04,M,10.00,M,CLR,M,M,M,M,M,M,M,M,M,M,M,M,M,M,64.40,KBAM 250715Z AUTO 10005KT 10SM CLR 18/M07 A3004 RMK AO1,M
MEV,2022-08-25 07:15,-119.7500,38.9963,1441.42,62.60,35.60,36.45,90.00,8.00,0.00,30.08,M,10.00,M,CLR,M,M,M,M,M,M,M,M,M,M,M,M,M,M,62.60,KMEV 250715Z AUTO 09008KT 10SM CLR 17/02 A3008 RMK AO2,M
CXP,2022-08-25 07:15,-119.7326,39.1923,1431.00,66.20,37.40,34.51,80.00,4.00,0.00,30.09,M,10.00,M,CLR,M,M,M,M,M,M,M,M,M,M,M,M,M,M,66.20,KCXP 250715Z AUTO 08004KT 10SM CLR 19/03 A3009 RMK AO2,M
BVU,2022-08-25 07:15,-114.8611,35.9475,671.00,80.60,62.60,54.30,M,6.00,0.00,30.04,M,M,12.00,M,M,M,M,M,M,M,M,M,M,M,M,M,M,M,81.84,KBVU 250715Z AUTO VRB06G12KT 27/17 A3004 RMK AO2 PWINO TSNO,M
LSV,2022-08-25 07:27,-115.0343,36.2362,570.00,86.00,64.40,48.58,140.00,9.00,0.00,29.99,1012.80,10.00,M,BKN,BKN,M,M,10000.00,16000.00,M,M,-DZ,M,M,M,M,M,M,87.49,KLSV 250727Z AUTO 14009KT 10SM -DZ BKN100 BKN160 30/18 A2999 RMK AO2 DZB0658E04DZB21 SLP128 $,M
LSV,2022-08-25 07:31,-115.0343,36.2362,570.00,84.20,66.20,54.80,140.00,12.00,0.00,29.99,1012.80,10.00,M,SCT,BKN,OVC,M,10000.00,11000.00,16000.00,M,M,M,M,M,M,M,M,86.50,KLSV 250731Z AUTO 14012KT 10SM SCT100 BKN110 OVC160 29/19 A2999 RMK AO2 DZB0658E04DZB21E31 SLP128 $,M
RTS,2022-08-25 07:35,-119.8764,39.6682,1539.00,60.80,30.20,31.28,320.00,9.00,0.00,30.12,M,10.00,M,CLR,M,M,M,M,M,M,M,M,M,M,M,M,M,M,60.80,KRTS 250735Z AUTO 32009KT 10SM CLR 16/M01 A3012 RMK AO2,M
MEV,2022-08-25 07:35,-119.7500,38.9963,1441.42,62.60,35.60,36.45,90.00,9.00,0.00,30.08,M,10.00,M,FEW,M,M,M,4800.00,M,M,M,M,M,M,M,M,M,M,62.60,KMEV 250735Z AUTO 09009KT 10SM FEW048 17/02 A3008 RMK AO2,M
CXP,2022-08-25 07:35,-119.7326,39.1923,1431.00,68.00,37.40,32.43,60.00,3.00,0.00,30.10,M,10.00,M,CLR,M,M,M,M,M,M,M,M,M,M,M,M,M,M,68.00,KCXP 250735Z AUTO 06003KT 10SM CLR 20/03 A3010 RMK AO2,M
HTH,2022-08-25 07:35,-118.6315,38.5448,1282.89,75.20,32.00,20.49,140.00,12.00,0.00,30.06,M,10.00,M,M,M,M,M,M,M,M,M,M,M,M,M,M,M,M,75.20,KHTH 250735Z AUTO 14012KT 10SM 24/M00 A3006 RMK A01,M
TMT,2022-08-25 07:35,-117.1971,39.4643,1749.34,55.60,27.00,33.06,200.00,5.00,0.00,30.17,M,10.00,M,CLR,M,M,M,M,M,M,M,M,M,M,M,M,M,M,55.60,KTMT 250735Z AUTO 20005KT 10SM CLR 13/M03 A3017 RMK AO2 T01311028,M
BAM,2022-08-25 07:35,-116.8743,40.5990,1382.36,62.60,24.80,23.50,70.00,8.00,0.00,30.04,M,10.00,M,CLR,M,M,M,M,M,M,M,M,M,M,M,M,M,M,62.60,KBAM 250735Z AUTO 07008KT 10SM CLR 17/M04 A3004 RMK AO1,M
BVU,2022-08-25 07:35,-114.8611,35.9475,671.00,78.80,64.40,61.36,110.00,11.00,0.00,30.04,M,M,M,M,M,M,M,M,M,M,M,M,M,M,M,M,M,M,78.80,KBVU 250735Z AUTO 11011KT 26/18 A3004 RMK AO2 PWINO TSNO,M
CXP,2022-08-25 07:50,-119.7326,39.1923,1431.00,68.00,35.60,30.20,0.00,0.00,0.00,30.10,M,10.00,M,CLR,M,M,M,M,M,M,M,M,M,M,M,M,M,M,68.00,KCXP 250750Z AUTO 00000KT 10SM CLR 20/02 A3010 RMK AO2,M
ELY,2022-08-25 07:53,-114.8453,39.2950,1909.00,61.00,44.00,53.69,200.00,9.00,0.00,30.23,1012.20,10.00,M,CLR,M,M,M,M,M,M,M,M,M,M,M,M,M,M,61.00,KELY 250753Z AUTO 20009KT 10SM CLR 16/07 A3023 RMK AO2 SLP122 T01610067,M
DRA,2022-08-25 07:53,-116.0278,36.6206,1009.00,81.00,49.00,32.60,290.00,4.00,0.00,30.02,1010.80,10.00,M,BKN,M,M,M,11000.00,M,M,M,M,M,M,M,M,M,M,80.01,KDRA 250753Z AUTO 29004KT 10SM BKN110 27/09 A3002 RMK AO2 SLP108 T02720094 403940244,M
LOL,2022-08-25 07:53,-118.5701,40.0684,1192.43,61.00,25.00,25.07,90.00,5.00,0.00,30.01,1011.80,10.00,M,CLR,M,M,M,M,M,M,M,M,M,M,M,M,M,M,61.00,KLOL 250753Z AUTO 09005KT 10SM CLR 16/M04 A3001 RMK AO2 SLP118 T01611039 403720111,M
P68,2022-08-25 07:53,-116.0056,39.6014,1993.00,62.00,38.00,40.62,0.00,0.00,0.00,30.16,1012.70,M,M,M,M,M,M,M,M,M,M,M,M,M,M,M,M,M,62.10,KP68 250753Z AUTO 00000KT 17/03 A3016 RMK AO1 SLP127 T01670033 403220133,M
VGT,2022-08-25 07:53,-115.1933,36.2111,667.00,86.00,58.00,38.58,100.00,10.00,0.00,30.01,1014.80,10.00,M,SCT,M,M,M,11000.00,M,M,M,M,M,M,M,M,M,M,85.16,KVGT 250753Z AUTO 10010KT 10SM SCT110 30/14 A3001 RMK AO2 SLP148 T03000144 404000300,M
BVU,2022-08-25 07:55,-114.8611,35.9475,671.00,78.80,64.40,61.36,140.00,4.00,0.00,30.04,M,M,M,M,M,M,M,M,M,M,M,M,M,M,M,M,M,M,78.80,KBVU 250755Z AUTO 14004KT 26/18 A3004 RMK AO2 PWINO TSNO,M
RNO,2022-08-25 07:55,-119.7711,39.4839,1341.00,69.00,39.00,33.25,0.00,0.00,0.00,30.07,1011.90,10.00,M,CLR,M,M,M,M,M,M,M,M,M,M,M,M,M,M,69.10,KRNO 250755Z 00000KT 10SM CLR 21/04 A3007 RMK AO2 SLP119 T02060039 403720183,M
TMT,2022-08-25 07:55,-117.1971,39.4643,1749.34,51.00,25.90,37.54,200.00,8.00,0.00,30.18,M,10.00,M,CLR,M,M,M,M,M,M,M,M,M,M,M,M,M,M,50.90,KTMT 250755Z AUTO 20008KT 10SM CLR 11/M03 A3018 RMK AO2 T01051034,M
HTH,2022-08-25 07:55,-118.6315,38.5448,1282.89,77.00,32.00,19.30,170.00,5.00,0.00,30.06,M,10.00,12.00,CLR,M,M,M,M,M,M,M,M,M,M,M,M,M,M,77.00,KHTH 250755Z AUTO 17005G12KT 10SM CLR 25/M00 A3006 RMK A01,M
BAM,2022-08-25 07:55,-116.8743,40.5990,1382.36,68.00,33.80,28.11,60.00,8.00,0.00,30.04,M,10.00,M,CLR,M,M,M,M,M,M,M,M,M,M,M,M,M,M,68.00,KBAM 250755Z AUTO 06008KT 10SM CLR 20/01 A3004 RMK AO1,M
MEV,2022-08-25 07:55,-119.7500,38.9963,1441.42,62.60,33.80,33.93,100.00,8.00,0.00,30.08,M,10.00,M,CLR,M,M,M,M,M,M,M,M,M,M,M,M,M,M,62.60,KMEV 250755Z AUTO 10008KT 10SM CLR 17/01 A3008 RMK AO2,M
RTS,2022-08-25 07:55,-119.8764,39.6682,1539.00,60.80,28.40,29.06,320.00,7.00,0.00,30.12,M,10.00,M,CLR,M,M,M,M,M,M,M,M,M,M,M,M,M,M,60.80,KRTS 250755Z AUTO 32007KT 10SM CLR 16/M02 A3012 RMK AO2,M
LAS,2022-08-25 07:56,-115.1634,36.0719,663.00,84.00,61.00,45.96,100.00,6.00,0.00,30.02,1013.40,10.00,M,SCT,BKN,M,M,15000.00,24000.00,M,M,M,M,M,M,M,M,M,84.32,KLAS 250756Z 10006KT 10SM SCT150 BKN240 29/16 A3002 RMK AO2 SLP134 DU AND HZ DSNT NW-NE-E T02890161 403890289 $,M
WMC,2022-08-25 07:56,-117.8072,40.9019,1315.00,62.00,21.90,21.18,70.00,3.00,0.00,30.01,1010.60,10.00,M,CLR,M,M,M,M,M,M,M,M,M,M,M,M,M,M,62.10,KWMC 250756Z AUTO 07003KT 10SM CLR 17/M06 A3001 RMK AO2 SLP106 T01671056 403720083,M
TPH,2022-08-25 07:56,-117.0904,38.0505,1654.00,72.00,45.00,37.96,170.00,12.00,0.00,30.18,1012.50,10.00,M,CLR,M,M,M,M,M,M,M,M,M,M,M,M,M,M,72.00,KTPH 250756Z AUTO 17012KT 10SM CLR 22/07 A3018 RMK AO2 SLP125 T02220072 403440167 $,M
EKO,2022-08-25 07:56,-115.7860,40.8242,1367.00,62.00,42.00,47.83,0.00,0.00,0.00,30.10,1013.80,10.00,M,CLR,M,M,M,M,M,M,M,M,M,M,M,M,M,M,62.10,KEKO 250756Z AUTO 00000KT 10SM CLR 17/06 A3010 RMK AO2 SLP138 T01670056 403330072,M
INS,2022-08-25 07:58,-115.6733,36.5872,955.00,82.00,54.00,38.11,120.00,16.00,0.00,30.02,1011.10,10.00,24.00,BKN,BKN,M,M,12000.00,17000.00,M,M,VCTS,M,M,M,29.00,120.00,2022-08-25 07:02,81.24,KINS 250758Z AUTO 12016G24KT 10SM VCTS BKN120 BKN170 28/12 A3002 RMK AO2 PK WND 12029/02 SLP111 T02780122 403650240 $,M
LSV,2022-08-25 07:58,-115.0343,36.2362,570.00,82.20,67.00,59.89,180.00,8.00,T,29.99,1012.80,10.00,M,FEW,SCT,BKN,M,11000.00,15000.00,17000.00,M,M,M,M,M,M,M,M,84.70,KLSV 250758Z AUTO 18008KT 10SM FEW110 SCT150 BKN170 28/19 A2999 RMK AO2 DZB0658E04DZB21E31 SLP128 P0000 T02790194 404070279 $,M
TMT,2022-08-25 08:15,-117.1971,39.4643,1749.34,49.00,24.60,38.02,150.00,3.00,0.00,30.18,M,10.00,M,CLR,M,M,M,M,M,M,M,M,M,M,M,M,M,M,48.24,KTMT 250815Z AUTO 15003KT 10SM CLR 10/M04 A3018 RMK AO2 T00951041,M
HTH,2022-08-25 08:15,-118.6315,38.5448,1282.89,75.20,30.20,19.05,210.00,8.00,0.00,30.06,M,10.00,M,CLR,M,M,M,M,M,M,M,M,M,M,M,M,M,M,75.20,KHTH 250815Z AUTO 21008KT 10SM CLR 24/M01 A3006 RMK A01,M
BAM,2022-08-25 08:15,-116.8743,40.5990,1382.36,69.80,37.40,30.49,70.00,8.00,0.00,30.05,M,10.00,M,CLR,M,M,M,M,M,M,M,M,M,M,M,M,M,M,69.80,KBAM 250815Z AUTO 07008KT 10SM CLR 21/03 A3005 RMK AO1,M
MEV,2022-08-25 08:15,-119.7500,38.9963,1441.42,64.40,33.80,31.85,90.00,8.00,0.00,30.08,M,10.00,M,CLR,M,M,M,M,M,M,M,M,M,M,M,M,M,M,64.40,KMEV 250815Z AUTO 09008KT 10SM CLR 18/01 A3008 RMK AO2,M
RTS,2022-08-25 08:15,-119.8764,39.6682,1539.00,59.00,28.40,30.98,10.00,6.00,0.00,30.13,M,10.00,M,CLR,M,M,M,M,M,M,M,M,M,M,M,M,M,M,59.00,KRTS 250815Z AUTO 01006KT 10SM CLR 15/M02 A3013 RMK AO2,M
CXP,2022-08-25 08:15,-119.7326,39.1923,1431.00,66.20,35.60,32.14,310.00,3.00,0.00,30.10,M,10.00,M,CLR,M,M,M,M,M,M,M,M,M,M,M,M,M,M,66.20,KCXP 250815Z AUTO 31003KT 10SM CLR 19/02 A3010 RMK AO2,M
BVU,2022-08-25 08:15,-114.8611,35.9475,671.00,78.80,64.40,61.36,150.00,7.00,0.00,30.04,M,M,12.00,M,M,M,M,M,M,M,M,M,M,M,M,M,M,M,78.80,KBVU 250815Z AUTO 15007G12KT 26/18 A3004 RMK AO2 PWINO TSNO,M
CXP,2022-08-25 08:35,-119.7326,39.1923,1431.00,64.40,33.80,31.85,0.00,0.00,0.00,30.10,M,10.00,M,CLR,M,M,M,M,M,M,M,M,M,M,M,M,M,M,64.40,KCXP 250835Z AUTO 00000KT 10SM CLR 18/01 A3010 RMK AO2,M
RTS,2022-08-25 08:35,-119.8764,39.6682,1539.00,59.00,28.40,30.98,20.00,4.00,0.00,30.13,M,10.00,M,CLR,M,M,M,M,M,M,M,M,M,M,M,M,M,M,59.00,KRTS 250835Z AUTO 02004KT 10SM CLR 15/M02 A3013 RMK AO2,M
TMT,2022-08-25 08:35,-117.1971,39.4643,1749.34,46.00,24.80,43.25,110.00,4.00,0.00,30.18,M,10.00,M,CLR,M,M,M,M,M,M,M,M,M,M,M,M,M,M,43.65,KTMT 250835Z AUTO 11004KT 10SM CLR 08/M04 A3018 RMK AO2 T00771040,M
HTH,2022-08-25 08:35,-118.6315,38.5448,1282.89,75.20,32.00,20.49,0.00,0.00,0.00,30.07,M,10.00,M,CLR,M,M,M,M,M,M,M,M,M,M,M,M,M,M,75.20,KHTH 250835Z AUTO 00000KT 10SM CLR 24/M00 A3007 RMK A01,M
BAM,2022-08-25 08:35,-116.8743,40.5990,1382.36,69.80,37.40,30.49,120.00,3.00,0.00,30.06,M,10.00,M,CLR,M,M,M,M,M,M,M,M,M,M,M,M,M,M,69.80,KBAM 250835Z AUTO 12003KT 10SM CLR 21/03 A3006 RMK AO1,M
MEV,2022-08-25 08:35,-119.7500,38.9963,1441.42,62.60,33.80,33.93,0.00,0.00,0.00,30.09,M,10.00,M,CLR,M,M,M,M,M,M,M,M,M,M,M,M,M,M,62.60,KMEV 250835Z AUTO 00000KT 10SM CLR 17/01 A3009 RMK AO2,M
BVU,2022-08-25 08:35,-114.8611,35.9475,671.00,77.00,66.20,69.33,90.00,4.00,0.00,30.04,M,M,M,M,M,M,M,M,M,M,M,M,M,M,M,M,M,M,77.00,KBVU 250835Z AUTO 09004KT 25/19 A3004 RMK AO2 PWINO TSNO,M
CXP,2022-08-25 08:50,-119.7326,39.1923,1431.00,64.40,33.80,31.85,0.00,0.00,0.00,30.11,M,10.00,M,CLR,M,M,M,M,M,M,M,M,M,M,M,M,M,M,64.40,KCXP 250850Z AUTO 00000KT 10SM CLR 18/01 A3011 RMK AO2,M
LOL,2022-08-25 08:53,-118.5701,40.0684,1192.43,60.00,26.10,27.10,130.00,3.00,0.00,30.02,1012.30,10.00,M,CLR,M,M,M,M,M,M,M,M,M,M,M,M,M,M,60.10,KLOL 250853Z AUTO 13003KT 10SM CLR 16/M03 A3002 RMK AO2 SLP123 T01561033 51013,M
VGT,2022-08-25 08:53,-115.1933,36.2111,667.00,84.00,62.00,47.78,150.00,4.00,0.00,29.99,1014.20,10.00,M,SCT,M,M,M,11000.00,M,M,M,M,M,M,M,M,M,M,84.67,KVGT 250853Z AUTO 15004KT 10SM SCT110 29/17 A2999 RMK AO2 SLP142 T02890167 50013,M
ELY,2022-08-25 08:53,-114.8453,39.2950,1909.00,62.00,44.00,51.64,220.00,10.00,0.00,30.24,1012.80,10.00,M,CLR,M,M,M,M,M,M,M,M,M,M,M,M,M,M,62.10,KELY 250853Z AUTO 22010KT 10SM CLR 17/07 A3024 RMK AO2 SLP128 T01670067 53008,M
P68,2022-08-25 08:53,-116.0056,39.6014,1993.00,63.00,38.00,39.36,180.00,7.00,0.00,30.18,1012.70,M,M,M,M,M,M,M,M,M,M,M,M,M,M,M,M,M,63.00,KP68 250853Z AUTO 18007KT 17/03 A3018 RMK AO1 SLP127 T01720033 53012,M
DRA,2022-08-25 08:53,-116.0278,36.6206,1009.00,82.00,54.00,38.11,130.00,9.00,0.00,30.03,1011.10,10.00,M,BKN,M,M,M,11000.00,M,M,M,M,M,M,M,M,M,M,81.24,KDRA 250853Z AUTO 13009KT 10SM BKN110 28/12 A3003 RMK AO2 SLP111 T02780122 51017,M
RTS,2022-08-25 08:55,-119.8764,39.6682,1539.00,60.80,30.20,31.28,340.00,8.00,0.00,30.14,M,10.00,M,CLR,M,M,M,M,M,M,M,M,M,M,M,M,M,M,60.80,KRTS 250855Z AUTO 34008KT 10SM CLR 16/M01 A3014 RMK AO2,M
RNO,2022-08-25 08:55,-119.7711,39.4839,1341.00,68.00,39.00,34.53,230.00,3.00,0.00,30.08,1012.30,10.00,M,CLR,M,M,M,M,M,M,M,M,M,M,M,M,M,M,68.00,KRNO 250855Z 23003KT 10SM CLR 20/04 A3008 RMK AO2 SLP123 T02000039 53012,M
BVU,2022-08-25 08:55,-114.8611,35.9475,671.00,77.00,66.20,69.33,140.00,4.00,0.00,30.02,M,M,M,M,M,M,M,M,M,M,M,M,M,M,M,M,M,M,77.00,KBVU 250855Z AUTO 14004KT 25/19 A3002 RMK AO2 PWINO TSNO,M
TMT,2022-08-25 08:55,-117.1971,39.4643,1749.34,47.30,24.40,40.34,0.00,0.00,0.00,30.18,M,10.00,M,CLR,M,M,M,M,M,M,M,M,M,M,M,M,M,M,47.30,KTMT 250855Z AUTO 00000KT 10SM CLR 09/M04 A3018 RMK AO2 T00851042,M
BAM,2022-08-25 08:55,-116.8743,40.5990,1382.36,68.00,39.20,34.80,100.00,6.00,0.00,30.07,M,10.00,M,CLR,M,M,M,M,M,M,M,M,M,M,M,M,M,M,68.00,KBAM 250855Z AUTO 10006KT 10SM CLR 20/04 A3007 RMK AO1,M
HTH,2022-08-25 08:55,-118.6315,38.5448,1282.89,75.20,30.20,19.05,160.00,5.00,0.00,30.07,M,10.00,M,CLR,M,M,M,M,M,M,M,M,M,M,M,M,M,M,75.20,KHTH 250855Z AUTO 16005KT 10SM CLR 24/M01 A3007 RMK A01,M
MEV,2022-08-25 08:55,-119.7500,38.9963,1441.42,60.80,33.80,36.16,0.00,0.00,0.00,30.10,M,10.00,M,CLR,M,M,M,M,M,M,M,M,M,M,M,M,M,M,60.80,KMEV 250855Z AUTO 00000KT 10SM CLR 16/01 A3010 RMK AO2,M
TPH,2022-08-25 08:56,-117.0904,38.0505,1654.00,70.00,46.00,42.20,260.00,4.00,0.00,30.17,1012.10,10.00,M,CLR,M,M,M,M,M,M,M,M,M,M,M,M,M,M,70.00,KTPH 250856Z AUTO 26004KT 10SM CLR 21/08 A3017 RMK AO2 SLP121 T02110078 50007 $,M
NFL,2022-08-25 08:56,-118.7010,39.4166,1199.00,67.00,36.00,31.87,240.00,3.00,0.00,30.03,1014.00,10.00,M,CLR,M,M,M,M,M,M,M,M,M,M,M,M,M,M,66.90,KNFL 250856Z AUTO 24003KT 10SM CLR 19/02 A3003 RMK AO2 SLP140 T01940022 51014,M
LAS,2022-08-25 08:56,-115.1634,36.0719,663.00,83.00,61.00,47.62,200.00,5.00,0.00,29.99,1012.60,10.00,M,SCT,BKN,BKN,M,11000.00,15000.00,25000.00,M,M,M,M,M,M,M,M,83.37,KLAS 250856Z 20005KT 10SM SCT110 BKN150 BKN250 28/16 A2999 RMK AO2 SLP126 T02830161 50012 $,M
EKO,2022-08-25 08:56,-115.7860,40.8242,1367.00,56.00,42.00,59.71,0.00,0.00,0.00,30.11,1014.00,10.00,M,CLR,M,M,M,M,M,M,M,M,M,M,M,M,M,M,55.90,KEKO 250856Z AUTO 00000KT 10SM CLR 13/06 A3011 RMK AO2 SLP140 T01330056 51009,M
WMC,2022-08-25 08:56,-117.8072,40.9019,1315.00,57.00,21.00,24.45,0.00,0.00,0.00,30.03,1011.50,10.00,M,CLR,M,M,M,M,M,M,M,M,M,M,M,M,M,M,57.00,KWMC 250856Z AUTO 00000KT 10SM CLR 14/M06 A3003 RMK AO2 SLP115 T01391061 53010,M
INS,2022-08-25 08:58,-115.6733,36.5872,955.00,81.30,52.50,36.90,110.00,13.00,0.00,30.02,1011.10,10.00,M,CLR,M,M,M,M,M,M,M,M,M,M,M,27.00,140.00,2022-08-25 08:04,80.58,KINS 250858Z AUTO 11013KT 10SM CLR 27/11 A3002 RMK AO2 PK WND 14027/04 SLP111 T02740114 52018 $,M
LSV,2022-08-25 08:58,-115.0343,36.2362,570.00,82.00,65.30,57.03,120.00,3.00,0.00,29.97,1012.10,10.00,M,SCT,SCT,M,M,15000.00,18000.00,M,M,M,M,M,M,M,M,M,83.90,KLSV 250858Z AUTO 12003KT 10SM SCT150 SCT180 28/19 A2997 RMK AO2 SLP121 60000 T02780185 50013 $,M
HTH,2022-08-25 09:15,-118.6315,38.5448,1282.89,75.20,32.00,20.49,0.00,0.00,0.00,30.07,M,10.00,M,FEW,M,M,M,4500.00,M,M,M,M,M,M,M,M,M,M,75.20,KHTH 250915Z AUTO 00000KT 10SM FEW045 24/M00 A3007 RMK A01,M
TMT,2022-08-25 09:15,-117.1971,39.4643,1749.34,48.00,25.70,41.48,10.00,3.00,0.00,30.19,M,10.00,M,CLR,M,M,M,M,M,M,M,M,M,M,M,M,M,M,46.98,KTMT 250915Z AUTO 01003KT 10SM CLR 09/M03 A3019 RMK AO2 T00891035,M
BVU,2022-08-25 09:15,-114.8611,35.9475,671.00,77.00,68.00,73.78,160.00,8.00,0.00,30.00,M,M,M,M,M,M,M,M,M,M,M,M,M,M,M,M,M,M,77.00,KBVU 250915Z AUTO 16008KT 25/20 A3000 RMK AO2 PWINO TSNO,M
CXP,2022-08-25 09:15,-119.7326,39.1923,1431.00,62.60,33.80,33.93,0.00,0.00,0.00,30.11,M,10.00,M,CLR,M,M,M,M,M,M,M,M,M,M,M,M,M,M,62.60,KCXP 250915Z AUTO 00000KT 10SM CLR 17/01 A3011 RMK AO2,M
RTS,2022-08-25 09:15,-119.8764,39.6682,1539.00,60.80,28.40,29.06,20.00,4.00,0.00,30.14,M,10.00,M,CLR,M,M,M,M,M,M,M,M,M,M,M,M,M,M,60.80,KRTS 250915Z AUTO 02004KT 10SM CLR 16/M02 A3014 RMK AO2,M
MEV,2022-08-25 09:15,-119.7500,38.9963,1441.42,59.00,32.00,35.87,0.00,0.00,0.00,30.10,M,10.00,M,CLR,M,M,M,M,M,M,M,M,M,M,M,M,M,M,59.00,KMEV 250915Z AUTO 00000KT 10SM CLR 15/00 A3010 RMK AO2,M
BAM,2022-08-25 09:15,-116.8743,40.5990,1382.36,57.20,26.60,30.69,0.00,0.00,0.00,30.07,M,10.00,M,CLR,M,M,M,M,M,M,M,M,M,M,M,M,M,M,57.20,KBAM 250915Z AUTO 00000KT 10SM CLR 14/M03 A3007 RMK AO1,M
MEV,2022-08-25 09:35,-119.7500,38.9963,1441.42,53.60,35.60,50.36,110.00,3.00,0.00,30.10,M,10.00,M,CLR,M,M,M,M,M,M,M,M,M,M,M,M,M,M,53.60,KMEV 250935Z AUTO 11003KT 10SM CLR 12/02 A3010 RMK AO2,M
RTS,2022-08-25 09:35,-119.8764,39.6682,1539.00,59.00,28.40,30.98,340.00,5.00,0.00,30.14,M,10.00,M,CLR,M,M,M,M,M,M,M,M,M,M,M,M,M,M,59.00,KRTS 250935Z AUTO 34005KT 10SM CLR 15/M02 A3014 RMK AO2,M
BVU,2022-08-25 09:35,-114.8611,35.9475,671.00,77.00,68.00,73.78,0.00,0.00,0.00,30.00,M,M,M,M,M,M,M,M,M,M,M,M,M,M,M,M,M,M,77.00,KBVU 250935Z AUTO 00000KT 25/20 A3000 RMK AO2 PWINO TSNO,M
CXP,2022-08-25 09:35,-119.7326,39.1923,1431.00,62.60,33.80,33.93,0.00,0.00,0.00,30.12,M,10.00,M,CLR,M,M,M,M,M,M,M,M,M,M,M,M,M,M,62.60,KCXP 250935Z AUTO 00000KT 10SM CLR 17/01 A3012 RMK AO2,M
TMT,2022-08-25 09:35,-117.1971,39.4643,1749.34,48.60,26.60,42.10,0.00,0.00,0.00,30.19,M,10.00,M,CLR,M,M,M,M,M,M,M,M,M,M,M,M,M,M,48.60,KTMT 250935Z AUTO 00000KT 10SM CLR 09/M03 A3019 RMK AO2 T00921030,M
HTH,2022-08-25 09:35,-118.6315,38.5448,1282.89,73.40,32.00,21.76,270.00,4.00,0.00,30.07,M,10.00,M,FEW,M,M,M,4600.00,M,M,M,M,M,M,M,M,M,M,73.40,KHTH 250935Z AUTO 27004KT 10SM FEW046 23/M00 A3007 RMK A01,M
BAM,2022-08-25 09:35,-116.8743,40.5990,1382.36,55.40,26.60,32.76,240.00,6.00,0.00,30.07,M,10.00,M,CLR,M,M,M,M,M,M,M,M,M,M,M,M,M,M,55.40,KBAM 250935Z AUTO 24006KT 10SM CLR 13/M03 A3007 RMK AO1,M
DRA,2022-08-25 09:53,-116.0278,36.6206,1009.00,80.00,56.00,43.44,10.00,3.00,0.00,30.03,1011.10,10.00,M,CLR,M,M,M,M,M,M,M,M,M,M,M,M,M,M,80.29,KDRA 250953Z AUTO 01003KT 10SM CLR 27/13 A3003 RMK AO2 SLP111 T02670133,M
LOL,2022-08-25 09:53,-118.5701,40.0684,1192.43,57.00,25.00,28.93,0.00,0.00,0.00,30.03,1012.50,10.00,M,CLR,M,M,M,M,M,M,M,M,M,M,M,M,M,M,57.00,KLOL 250953Z AUTO 00000KT 10SM CLR 14/M04 A3003 RMK AO2 SLP125 T01391039,M
P68,2022-08-25 09:53,-116.0056,39.6014,1993.00,59.00,38.00,45.36,250.00,4.00,0.00,30.19,1013.10,M,M,M,M,M,M,M,M,M,M,M,M,M,M,M,M,M,59.00,KP68 250953Z AUTO 25004KT 15/03 A3019 RMK AO1 SLP131 T01500033,M
ELY,2022-08-25 09:53,-114.8453,39.2950,1909.00,63.00,44.00,50.03,210.00,10.00,0.00,30.25,1013.00,10.00,M,CLR,M,M,M,M,M,M,M,M,M,M,M,M,M,M,63.00,KELY 250953Z AUTO 21010KT 10SM CLR 17/07 A3025 RMK AO2 SLP130 T01720067,M
VGT,2022-08-25 09:53,-115.1933,36.2111,667.00,84.00,62.00,47.78,M,3.00,0.00,29.98,1013.60,10.00,M,CLR,M,M,M,M,M,M,M,M,M,M,M,M,M,M,84.67,KVGT 250953Z AUTO VRB03KT 10SM CLR 29/17 A2998 RMK AO2 SLP136 T02890167,M
BAM,2022-08-25 09:55,-116.8743,40.5990,1382.36,53.60,21.20,27.91,140.00,5.00,0.00,30.08,M,10.00,M,CLR,M,M,M,M,M,M,M,M,M,M,M,M,M,M,53.60,KBAM 250955Z AUTO 14005KT 10SM CLR 12/M06 A3008 RMK AO1,M
MEV,2022-08-25 09:55,-119.7500,38.9963,1441.42,51.80,39.20,61.99,200.00,5.00,0.00,30.11,M,10.00,M,CLR,M,M,M,M,M,M,M,M,M,M,M,M,M,M,51.80,KMEV 250955Z AUTO 20005KT 10SM CLR 11/04 A3011 RMK AO2,M
RTS,2022-08-25 09:55,-119.8764,39.6682,1539.00,60.80,28.40,29.06,360.00,4.00,0.00,30.14,M,10.00,M,CLR,M,M,M,M,M,M,M,M,M,M,M,M,M,M,60.80,KRTS 250955Z AUTO 36004KT 10SM CLR 16/M02 A3014 RMK AO2,M
CXP,2022-08-25 09:55,-119.7326,39.1923,1431.00,60.80,33.80,36.16,0.00,0.00,0.00,30.12,M,10.00,M,CLR,M,M,M,M,M,M,M,M,M,M,M,M,M,M,60.80,KCXP 250955Z AUTO 00000KT 10SM CLR 16/01 A3012 RMK AO2,M
BVU,2022-08-25 09:55,-114.8611,35.9475,671.00,75.20,68.00,78.34,320.00,3.00,0.00,29.99,M,M,M,M,M,M,M,M,M,M,M,M,M,M,M,M,M,M,75.20,KBVU 250955Z AUTO 32003KT 24/20 A2999 RMK AO2 PWINO TSNO,M
RNO,2022-08-25 09:55,-119.7711,39.4839,1341.00,67.00,40.00,37.14,230.00,3.00,0.00,30.09,1012.30,10.00,M,CLR,M,M,M,M,M,M,M,M,M,M,M,M,M,M,66.90,KRNO 250955Z 23003KT 10SM CLR 19/04 A3009 RMK AO2 SLP123 T01940044,M
TMT,2022-08-25 09:55,-117.1971,39.4643,1749.34,48.20,25.30,40.49,330.00,3.00,0.00,30.19,M,10.00,M,CLR,M,M,M,M,M,M,M,M,M,M,M,M,M,M,47.21,KTMT 250955Z AUTO 33003KT 10SM CLR 09/M04 A3019 RMK AO2 T00901037,M
HTH,2022-08-25 09:55,-118.6315,38.5448,1282.89,71.60,32.00,23.13,0.00,0.00,0.00,30.07,M,10.00,M,CLR,M,M,M,M,M,M,M,M,M,M,M,M,M,M,71.60,KHTH 250955Z AUTO 00000KT 10SM CLR 22/M00 A3007 RMK A01,M
TPH,2022-08-25 09:56,-117.0904,38.0505,1654.00,70.00,47.00,43.66,360.00,3.00,0.00,30.17,1012.00,10.00,M,CLR,M,M,M,M,M,M,M,M,M,M,M,M,M,M,70.00,KTPH 250956Z AUTO 36003KT 10SM CLR 21/08 A3017 RMK AO2 SLP120 T02110083 $,M
NFL,2022-08-25 09:56,-118.7010,39.4166,1199.00,65.00,36.00,34.17,0.00,0.00,0.00,30.04,1014.30,10.00,M,CLR,M,M,M,M,M,M,M,M,M,M,M,M,M,M,64.90,KNFL 250956Z AUTO 00000KT 10SM CLR 18/02 A3004 RMK AO2 SLP143 T01830022,M
LAS,2022-08-25 09:56,-115.1634,36.0719,663.00,82.00,62.00,50.97,210.00,5.00,0.00,29.98,1012.20,10.00,M,BKN,BKN,M,M,17000.00,25000.00,M,M,M,M,M,M,M,M,M,82.91,KLAS 250956Z 21005KT 10SM BKN170 BKN250 28/17 A2998 RMK AO2 SLP122 T02780167 $,M
WMC,2022-08-25 09:56,-117.8072,40.9019,1315.00,53.00,19.90,26.89,0.00,0.00,0.00,30.04,1012.10,10.00,M,CLR,M,M,M,M,M,M,M,M,M,M,M,M,M,M,53.10,KWMC 250956Z AUTO 00000KT 10SM CLR 12/M07 A3004 RMK AO2 SLP121 T01171067,M
EKO,2022-08-25 09:56,-115.7860,40.8242,1367.00,53.00,41.00,63.38,0.00,0.00,0.00,30.12,1015.00,10.00,M,CLR,M,M,M,M,M,M,M,M,M,M,M,M,M,M,53.10,KEKO 250956Z AUTO 00000KT 10SM CLR 12/05 A3012 RMK AO2 SLP150 T01170050,M
LSV,2022-08-25 09:58,-115.0343,36.2362,570.00,81.50,64.20,55.78,0.00,0.00,0.00,29.96,1011.80,10.00,M,OVC,M,M,M,18000.00,M,M,M,M,M,M,M,M,M,M,83.06,KLSV 250958Z AUTO 00000KT 10SM OVC180 28/18 A2996 RMK AO2 SLP118 T02750179 $,M
INS,2022-08-25 09:58,-115.6733,36.5872,955.00,78.60,53.60,41.97,120.00,7.00,0.00,30.02,1011.40,10.00,M,CLR,M,M,M,M,M,M,M,M,M,M,M,M,M,M,78.60,KINS 250958Z AUTO 12007KT 10SM CLR 26/12 A3002 RMK AO2 SLP114 T02590120 $,M
CXP,2022-08-25 10:10,-119.7326,39.1923,1431.00,60.80,33.80,36.16,0.00,0.00,0.00,30.12,M,10.00,M,CLR,M,M,M,M,M,M,M,M,M,M,M,M,M,M,60.80,KCXP 251010Z AUTO 00000KT 10SM CLR 16/01 A3012 RMK AO2,M
TMT,2022-08-25 10:15,-117.1971,39.4643,1749.34,47.30,26.60,44.20,0.00,0.00,0.00,30.20,M,10.00,M,CLR,M,M,M,M,M,M,M,M,M,M,M,M,M,M,47.30,KTMT 251015Z AUTO 00000KT 10SM CLR 09/M03 A3020 RMK AO2 T00851030,M
BVU,2022-08-25 10:15,-114.8611,35.9475,671.00,75.20,68.00,78.34,0.00,0.00,0.00,29.98,M,M,M,M,M,M,M,M,M,M,M,M,M,M,M,M,M,M,75.20,KBVU 251015Z AUTO 00000KT 24/20 A2998 RMK AO2 PWINO TSNO,M
RTS,2022-08-25 10:15,-119.8764,39.6682,1539.00,59.00,32.00,35.87,0.00,0.00,0.00,30.15,M,10.00,M,CLR,M,M,M,M,M,M,M,M,M,M,M,M,M,M,59.00,KRTS 251015Z AUTO 00000KT 10SM CLR 15/M00 A3015 RMK AO2,M
MEV,2022-08-25 10:15,-119.7500,38.9963,1441.42,50.00,39.20,66.27,110.00,3.00,0.00,30.11,M,10.00,M,CLR,M,M,M,M,M,M,M,M,M,M,M,M,M,M,50.00,KMEV 251015Z AUTO 11003KT 10SM CLR 10/04 A3011 RMK AO2,M
BAM,2022-08-25 10:15,-116.8743,40.5990,1382.36,55.40,21.20,26.13,150.00,5.00,0.00,30.08,M,10.00,M,CLR,M,M,M,M,M,M,M,M,M,M,M,M,M,M,55.40,KBAM 251015Z AUTO 15005KT 10SM CLR 13/M06 A3008 RMK AO1,M
HTH,2022-08-25 10:15,-118.6315,38.5448,1282.89,71.60,32.00,23.13,0.00,0.00,0.00,30.08,M,10.00,M,CLR,M,M,M,M,M,M,M,M,M,M,M,M,M,M,71.60,KHTH 251015Z AUTO 00000KT 10SM CLR 22/00 A3008 RMK A01,M
CXP,2022-08-25 10:35,-119.7326,39.1923,1431.00,59.00,35.60,41.42,0.00,0.00,0.00,30.13,M,10.00,M,CLR,M,M,M,M,M,M,M,M,M,M,M,M,M,M,59.00,KCXP 251035Z AUTO 00000KT 10SM CLR 15/02 A3013 RMK AO2,M
RTS,2022-08-25 10:35,-119.8764,39.6682,1539.00,57.20,28.40,33.05,0.00,0.00,0.00,30.15,M,10.00,M,CLR,M,M,M,M,M,M,M,M,M,M,M,M,M,M,57.20,KRTS 251035Z AUTO 00000KT 10SM CLR 14/M02 A3015 RMK AO2,M
MEV,2022-08-25 10:35,-119.7500,38.9963,1441.42,53.60,39.20,58.02,0.00,0.00,0.00,30.11,M,10.00,M,CLR,M,M,M,M,M,M,M,M,M,M,M,M,M,M,53.60,KMEV 251035Z AUTO 00000KT 10SM CLR 12/04 A3011 RMK AO2,M
TMT,2022-08-25 10:35,-117.1971,39.4643,1749.34,45.50,25.20,44.64,0.00,0.00,0.00,30.20,M,10.00,M,CLR,M,M,M,M,M,M,M,M,M,M,M,M,M,M,45.50,KTMT 251035Z AUTO 00000KT 10SM CLR 08/M04 A3020 RMK AO2 T00751038,M
HTH,2022-08-25 10:35,-118.6315,38.5448,1282.89,71.60,33.80,24.86,190.00,3.00,0.00,30.08,M,10.00,M,CLR,M,M,M,M,M,M,M,M,M,M,M,M,M,M,71.60,KHTH 251035Z AUTO 19003KT 10SM CLR 22/01 A3008 RMK A01,M
BAM,2022-08-25 10:35,-116.8743,40.5990,1382.36,59.00,21.20,22.95,170.00,6.00,0.00,30.09,M,10.00,M,CLR,M,M,M,M,M,M,M,M,M,M,M,M,M,M,59.00,KBAM 251035Z AUTO 17006KT 10SM CLR 15/M06 A3009 RMK AO1,M
BVU,2022-08-25 10:35,-114.8611,35.9475,671.00,75.20,68.00,78.34,0.00,0.00,0.00,29.98,M,M,M,M,M,M,M,M,M,M,M,M,M,M,M,M,M,M,75.20,KBVU 251035Z AUTO 00000KT 24/20 A2998 RMK AO2 PWINO TSNO,M
VGT,2022-08-25 10:53,-115.1933,36.2111,667.00,82.00,64.00,54.50,70.00,8.00,0.00,29.97,1013.50,10.00,M,CLR,M,M,M,M,M,M,M,M,M,M,M,M,M,M,83.47,KVGT 251053Z AUTO 07008KT 10SM CLR 28/18 A2997 RMK AO2 SLP135 T02780178,M
ELY,2022-08-25 10:53,-114.8453,39.2950,1909.00,63.00,45.00,51.78,210.00,11.00,0.00,30.25,1013.40,10.00,M,FEW,M,M,M,12000.00,M,M,M,M,M,M,M,M,M,M,63.00,KELY 251053Z AUTO 21011KT 10SM FEW120 17/07 A3025 RMK AO2 SLP134 T01720072,M
DRA,2022-08-25 10:53,-116.0278,36.6206,1009.00,79.00,55.00,43.59,0.00,0.00,0.00,30.04,1011.70,10.00,M,CLR,M,M,M,M,M,M,M,M,M,M,M,M,M,M,79.00,KDRA 251053Z AUTO 00000KT 10SM CLR 26/13 A3004 RMK AO2 SLP117 T02610128,M
P68,2022-08-25 10:53,-116.0056,39.6014,1993.00,54.00,38.00,54.34,130.00,5.00,0.00,30.19,1014.00,M,M,M,M,M,M,M,M,M,M,M,M,M,M,M,M,M,54.00,KP68 251053Z AUTO 13005KT 12/03 A3019 RMK AO1 SLP140 T01220033,M
LOL,2022-08-25 10:53,-118.5701,40.0684,1192.43,57.00,25.00,28.93,0.00,0.00,0.00,30.05,1013.20,10.00,M,CLR,M,M,M,M,M,M,M,M,M,M,M,M,M,M,57.00,KLOL 251053Z AUTO 00000KT 10SM CLR 14/M04 A3005 RMK AO2 SLP132 T01391039,M
BAM,2022-08-25 10:55,-116.8743,40.5990,1382.36,55.40,21.20,26.13,190.00,7.00,0.00,30.09,M,10.00,M,CLR,M,M,M,M,M,M,M,M,M,M,M,M,M,M,55.40,KBAM 251055Z AUTO 19007KT 10SM CLR 13/M06 A3009 RMK AO1,M
MEV,2022-08-25 10:55,-119.7500,38.9963,1441.42,51.80,35.60,53.81,0.00,0.00,0.00,30.12,M,10.00,M,CLR,M,M,M,M,M,M,M,M,M,M,M,M,M,M,51.80,KMEV 251055Z AUTO 00000KT 10SM CLR 11/02 A3012 RMK AO2,M
RTS,2022-08-25 10:55,-119.8764,39.6682,1539.00,53.60,26.60,34.98,0.00,0.00,0.00,30.15,M,10.00,M,CLR,M,M,M,M,M,M,M,M,M,M,M,M,M,M,53.60,KRTS 251055Z AUTO 00000KT 10SM CLR 12/M03 A3015 RMK AO2,M
TMT,2022-08-25 10:55,-117.1971,39.4643,1749.34,45.00,25.00,44.95,0.00,0.00,0.00,30.20,M,10.00,M,CLR,M,M,M,M,M,M,M,M,M,M,M,M,M,M,45.10,KTMT 251055Z AUTO 00000KT 10SM CLR 07/M04 A3020 RMK AO2 T00731039,M
CXP,2022-08-25 10:55,-119.7326,39.1923,1431.00,60.80,33.80,36.16,0.00,0.00,0.00,30.13,M,10.00,M,CLR,M,M,M,M,M,M,M,M,M,M,M,M,M,M,60.80,KCXP 251055Z AUTO 00000KT 10SM CLR 16/01 A3013 RMK AO2,M
HTH,2022-08-25 10:55,-118.6315,38.5448,1282.89,71.60,32.00,23.13,240.00,5.00,0.00,30.08,M,10.00,M,CLR,M,M,M,M,M,M,M,M,M,M,M,M,M,M,71.60,KHTH 251055Z AUTO 24005KT 10SM CLR 22/00 A3008 RMK A01,M
RNO,2022-08-25 10:55,-119.7711,39.4839,1341.00,64.00,40.00,41.09,0.00,0.00,0.00,30.11,1013.20,10.00,M,CLR,M,M,M,M,M,M,M,M,M,M,M,M,M,M,64.00,KRNO 251055Z 00000KT 10SM CLR 18/04 A3011 RMK AO2 SLP132 T01780044,M
BVU,2022-08-25 10:55,-114.8611,35.9475,671.00,77.00,66.20,69.33,70.00,6.00,0.00,29.99,M,M,M,M,M,M,M,M,M,M,M,M,M,M,M,M,M,M,77.00,KBVU 251055Z AUTO 07006KT 25/19 A2999 RMK AO2 PWINO TSNO,M
TPH,2022-08-25 10:56,-117.0904,38.0505,1654.00,68.00,45.00,43.51,20.00,7.00,0.00,30.18,1012.80,10.00,M,CLR,M,M,M,M,M,M,M,M,M,M,M,M,M,M,68.00,KTPH 251056Z AUTO 02007KT 10SM CLR 20/07 A3018 RMK AO2 SLP128 T02000072 $,M
EKO,2022-08-25 10:56,-115.7860,40.8242,1367.00,53.00,42.00,66.13,40.00,5.00,0.00,30.13,1015.30,10.00,M,CLR,M,M,M,M,M,M,M,M,M,M,M,M,M,M,53.10,KEKO 251056Z AUTO 04005KT 10SM CLR 12/06 A3013 RMK AO2 SLP153 T01170056,M
LAS,2022-08-25 10:56,-115.1634,36.0719,663.00,82.00,60.00,47.49,160.00,3.00,0.00,29.97,1011.90,10.00,M,SCT,OVC,M,M,13000.00,18000.00,M,M,M,M,M,M,M,M,M,82.40,KLAS 251056Z 16003KT 10SM SCT130 OVC180 28/16 A2997 RMK AO2 SLP119 T02780156 $,M
WMC,2022-08-25 10:56,-117.8072,40.9019,1315.00,56.00,26.10,31.51,170.00,3.00,0.00,30.06,1012.50,10.00,M,CLR,M,M,M,M,M,M,M,M,M,M,M,M,M,M,55.90,KWMC 251056Z AUTO 17003KT 10SM CLR 13/M03 A3006 RMK AO2 SLP125 T01331033,M
NFL,2022-08-25 10:56,-118.7010,39.4166,1199.00,62.00,39.00,42.41,160.00,5.00,0.00,30.05,1014.50,10.00,M,CLR,M,M,M,M,M,M,M,M,M,M,M,M,M,M,62.10,KNFL 251056Z AUTO 16005KT 10SM CLR 17/04 A3005 RMK AO2 SLP145 T01670039,M
INS,2022-08-25 10:58,-115.6733,36.5872,955.00,76.60,57.70,52.03,100.00,9.00,0.00,30.04,1012.10,10.00,M,SCT,M,M,M,13000.00,M,M,M,M,M,M,M,M,M,M,76.60,KINS 251058Z AUTO 10009KT 10SM SCT130 25/14 A3004 RMK AO2 SLP121 T02480143 $,M
LSV,2022-08-25 10:58,-115.0343,36.2362,570.00,81.30,64.60,56.93,350.00,3.00,0.00,29.95,1011.50,10.00,M,BKN,OVC,M,M,17000.00,19000.00,M,M,M,M,M,M,M,M,M,82.99,KLSV 251058Z AUTO 35003KT 10SM BKN170 OVC190 27/18 A2995 RMK AO2 SLP115 T02740181 $,M
TMT,2022-08-25 11:15,-117.1971,39.4643,1749.34,46.60,26.60,45.38,0.00,0.00,0.00,30.21,M,10.00,M,CLR,M,M,M,M,M,M,M,M,M,M,M,M,M,M,46.60,KTMT 251115Z AUTO 00000KT 10SM CLR 08/M03 A3021 RMK AO2 T00811030,M
BVU,2022-08-25 11:15,-114.8611,35.9475,671.00,77.00,66.20,69.33,70.00,5.00,0.00,29.99,M,M,M,M,M,M,M,M,M,M,M,M,M,M,M,M,M,M,77.00,KBVU 251115Z AUTO 07005KT 25/19 A2999 RMK AO2 PWINO TSNO,M
MEV,2022-08-25 11:15,-119.7500,38.9963,1441.42,50.00,35.60,57.52,M,4.00,0.00,30.12,M,10.00,M,CLR,M,M,M,M,M,M,M,M,M,M,M,M,M,M,50.00,KMEV 251115Z AUTO VRB04KT 10SM CLR 10/02 A3012 RMK AO2,M
RTS,2022-08-25 11:15,-119.8764,39.6682,1539.00,53.60,26.60,34.98,350.00,4.00,0.00,30.16,M,10.00,M,CLR,M,M,M,M,M,M,M,M,M,M,M,M,M,M,53.60,KRTS 251115Z AUTO 35004KT 10SM CLR 12/M03 A3016 RMK AO2,M
CXP,2022-08-25 11:15,-119.7326,39.1923,1431.00,59.00,33.80,38.56,0.00,0.00,0.00,30.13,M,10.00,M,CLR,M,M,M,M,M,M,M,M,M,M,M,M,M,M,59.00,KCXP 251115Z AUTO 00000KT 10SM CLR 15/01 A3013 RMK AO2,M
BAM,2022-08-25 11:15,-116.8743,40.5990,1382.36,55.40,23.00,28.20,90.00,5.00,0.00,30.09,M,10.00,M,CLR,M,M,M,M,M,M,M,M,M,M,M,M,M,M,55.40,KBAM 251115Z AUTO 09005KT 10SM CLR 13/M05 A3009 RMK AO1,M
HTH,2022-08-25 11:15,-118.6315,38.5448,1282.89,69.80,32.00,24.59,210.00,4.00,0.00,30.08,M,10.00,M,CLR,M,M,M,M,M,M,M,M,M,M,M,M,M,M,69.80,KHTH 251115Z AUTO 21004KT 10SM CLR 21/00 A3008 RMK A01,M
TMT,2022-08-25 11:35,-117.1971,39.4643,1749.34,45.00,26.10,47.23,0.00,0.00,0.00,30.21,M,10.00,M,CLR,M,M,M,M,M,M,M,M,M,M,M,M,M,M,45.00,KTMT 251135Z AUTO 00000KT 10SM CLR 07/M03 A3021 RMK AO2 T00721033,M
CXP,2022-08-25 11:35,-119.7326,39.1923,1431.00,57.20,35.60,44.19,0.00,0.00,0.00,30.13,M,10.00,M,CLR,M,M,M,M,M,M,M,M,M,M,M,M,M,M,57.20,KCXP 251135Z AUTO 00000KT 10SM CLR 14/02 A3013 RMK AO2,M
RTS,2022-08-25 11:35,-119.8764,39.6682,1539.00,53.60,28.40,37.67,0.00,0.00,0.00,30.16,M,10.00,M,CLR,M,M,M,M,M,M,M,M,M,M,M,M,M,M,53.60,KRTS 251135Z AUTO 00000KT 10SM CLR 12/M02 A3016 RMK AO2,M
MEV,2022-08-25 11:35,-119.7500,38.9963,1441.42,50.00,39.20,66.27,230.00,4.00,0.00,30.12,M,10.00,M,CLR,M,M,M,M,M,M,M,M,M,M,M,M,M,M,50.00,KMEV 251135Z AUTO 23004KT 10SM CLR 10/04 A3012 RMK AO2,M
BAM,2022-08-25 11:35,-116.8743,40.5990,1382.36,55.40,23.00,28.20,80.00,4.00,0.00,30.09,M,10.00,M,CLR,M,M,M,M,M,M,M,M,M,M,M,M,M,M,55.40,KBAM 251135Z AUTO 08004KT 10SM CLR 13/M05 A3009 RMK AO1,M
BVU,2022-08-25 11:35,-114.8611,35.9475,671.00,75.20,66.20,73.61,80.00,5.00,0.00,29.99,M,M,M,M,M,M,M,M,M,M,M,M,M,M,M,M,M,M,75.20,KBVU 251135Z AUTO 08005KT 24/19 A2999 RMK AO2 PWINO TSNO,M
HTH,2022-08-25 11:35,-118.6315,38.5448,1282.89,69.80,33.80,26.43,0.00,0.00,0.00,30.08,M,10.00,M,CLR,M,M,M,M,M,M,M,M,M,M,M,M,M,M,69.80,KHTH 251135Z AUTO 00000KT 10SM CLR 21/01 A3008 RMK A01,M
LOL,2022-08-25 11:53,-118.5701,40.0684,1192.43,53.00,27.00,36.22,70.00,5.00,0.00,30.05,1013.60,10.00,M,CLR,M,M,M,M,M,M,M,M,M,M,M,M,M,M,53.10,KLOL 251153Z AUTO 07005KT 10SM CLR 12/M03 A3005 RMK AO2 SLP136 T01171028 10233 20106 52009,M
VGT,2022-08-25 11:53,-115.1933,36.2111,667.00,82.00,63.00,52.62,0.00,0.00,0.00,29.98,1013.80,10.00,M,CLR,M,M,M,M,M,M,M,M,M,M,M,M,M,M,83.17,KVGT 251153Z AUTO 00000KT 10SM CLR 28/17 A2998 RMK AO2 SLP138 T02780172 10311 20272 55004,M
ELY,2022-08-25 11:53,-114.8453,39.2950,1909.00,63.00,45.00,51.78,210.00,12.00,0.00,30.25,1014.20,10.00,M,CLR,M,M,M,M,M,M,M,M,M,M,M,M,M,M,63.00,KELY 251153Z AUTO 21012KT 10SM CLR 17/07 A3025 RMK AO2 SLP142 T01720072 10183 20156 50001,M
DRA,2022-08-25 11:53,-116.0278,36.6206,1009.00,76.00,55.00,48.30,110.00,8.00,0.00,30.06,1012.40,10.00,M,CLR,M,M,M,M,M,M,M,M,M,M,M,M,M,M,75.90,KDRA 251153Z AUTO 11008KT 10SM CLR 24/13 A3006 RMK AO2 SLP124 T02440128 10294 20244 53010,M
P68,2022-08-25 11:53,-116.0056,39.6014,1993.00,58.00,39.00,49.26,210.00,5.00,0.00,30.20,1014.30,M,M,M,M,M,M,M,M,M,M,M,M,M,M,M,M,M,57.90,KP68 251153Z AUTO 21005KT 14/04 A3020 RMK AO1 SLP143 T01440039 10217 20122 51008,M
BVU,2022-08-25 11:55,-114.8611,35.9475,671.00,75.20,66.20,73.61,60.00,5.00,0.00,29.99,M,M,M,M,M,M,M,M,M,M,M,M,M,M,M,M,M,M,75.20,KBVU 251155Z AUTO 06005KT 24/19 A2999 RMK AO2 PWINO TSNO,M
CXP,2022-08-25 11:55,-119.7326,39.1923,1431.00,57.20,37.40,47.44,0.00,0.00,0.00,30.13,M,10.00,M,CLR,M,M,M,M,M,M,M,M,M,M,M,M,M,M,57.20,KCXP 251155Z AUTO 00000KT 10SM CLR 14/03 A3013 RMK AO2,M
RTS,2022-08-25 11:55,-119.8764,39.6682,1539.00,51.80,26.60,37.38,270.00,7.00,0.00,30.16,M,10.00,M,CLR,M,M,M,M,M,M,M,M,M,M,M,M,M,M,51.80,KRTS 251155Z AUTO 27007KT 10SM CLR 11/M03 A3016 RMK AO2,M
RNO,2022-08-25 11:55,-119.7711,39.4839,1341.00,65.00,34.00,31.55,260.00,3.00,0.00,30.12,1013.40,10.00,M,CLR,M,M,M,M,M,M,M,M,M,M,M,M,M,M,64.90,KRNO 251155Z 26003KT 10SM CLR 18/01 A3012 RMK AO2 SLP134 T01830011 10244 20172 51010,M
TMT,2022-08-25 11:55,-117.1971,39.4643,1749.34,40.80,24.80,52.58,0.00,0.00,0.00,30.22,M,10.00,M,CLR,M,M,M,M,M,M,M,M,M,M,M,M,M,M,40.80,KTMT 251155Z AUTO 00000KT 10SM CLR 05/M04 A3022 RMK AO2 T00491040,M
BAM,2022-08-25 11:55,-116.8743,40.5990,1382.36,55.40,32.00,40.84,60.00,5.00,0.00,30.10,M,10.00,M,CLR,M,M,M,M,M,M,M,M,M,M,M,M,M,M,55.40,KBAM 251155Z AUTO 06005KT 10SM CLR 13/00 A3010 RMK AO1,M
MEV,2022-08-25 11:55,-119.7500,38.9963,1441.42,46.40,37.40,70.68,0.00,0.00,0.00,30.12,M,10.00,M,CLR,M,M,M,M,M,M,M,M,M,M,M,M,M,M,46.40,KMEV 251155Z AUTO 00000KT 10SM CLR 08/03 A3012 RMK AO2,M
HTH,2022-08-25 11:55,-118.6315,38.5448,1282.89,68.00,33.80,28.11,80.00,6.00,0.00,30.09,M,10.00,M,CLR,M,M,M,M,M,M,M,M,M,M,M,M,M,M,68.00,KHTH 251155Z AUTO 08006KT 10SM CLR 20/01 A3009 RMK A01,M
WMC,2022-08-25 11:56,-117.8072,40.9019,1315.00,56.00,25.00,30.10,0.00,0.00,0.00,30.07,1012.90,10.00,M,CLR,M,M,M,M,M,M,M,M,M,M,M,M,M,M,55.90,KWMC 251156Z AUTO 00000KT 10SM CLR 13/M04 A3007 RMK AO2 SLP129 T01331039 10178 20106 52010,M
TPH,2022-08-25 11:56,-117.0904,38.0505,1654.00,65.00,44.00,46.81,340.00,4.00,0.00,30.20,1013.60,10.00,M,CLR,M,M,M,M,M,M,M,M,M,M,M,M,M,M,64.90,KTPH 251156Z AUTO 34004KT 10SM CLR 18/07 A3020 RMK AO2 SLP136 T01830067 10244 20183 53007 $,M
LAS,2022-08-25 11:56,-115.1634,36.0719,663.00,81.00,63.00,54.36,90.00,9.00,0.00,29.99,1012.50,10.00,M,BKN,OVC,M,M,15000.00,20000.00,M,M,M,M,M,M,M,M,M,82.28,KLAS 251156Z 09009KT 10SM BKN150 OVC200 27/17 A2999 RMK AO2 SLP125 T02720172 10311 20272 55003 $,M
NFL,2022-08-25 11:56,-118.7010,39.4166,1199.00,60.00,34.00,37.37,150.00,3.00,0.00,30.05,1014.50,10.00,M,CLR,M,M,M,M,M,M,M,M,M,M,M,M,M,M,60.10,KNFL 251156Z AUTO 15003KT 10SM CLR 16/01 A3005 RMK AO2 SLP145 T01560011 10261 20156 51006,M
EKO,2022-08-25 11:56,-115.7860,40.8242,1367.00,47.00,39.00,73.85,0.00,0.00,0.00,30.14,1016.30,10.00,M,CLR,M,M,M,M,M,M,M,M,M,M,M,M,M,M,46.90,KEKO 251156Z AUTO 00000KT 10SM CLR 08/04 A3014 RMK AO2 SLP163 T00830039 10206 20078 51009,M
INS,2022-08-25 11:58,-115.6733,36.5872,955.00,77.40,56.70,48.88,190.00,3.00,0.00,30.05,1012.50,10.00,M,FEW,M,M,M,14000.00,M,M,M,M,M,M,M,M,M,M,77.40,KINS 251158Z AUTO 19003KT 10SM FEW140 25/14 A3005 RMK AO2 SLP125 70005 T02520137 10283 20247 53008 $,M
LSV,2022-08-25 11:58,-115.0343,36.2362,570.00,80.20,66.40,62.83,0.00,0.00,0.00,29.96,1011.80,10.00,M,OVC,M,M,M,14000.00,M,M,M,M,M,M,M,M,M,M,82.38,KLSV 251158Z AUTO 00000KT 10SM OVC140 27/19 A2996 RMK AO2 SLP118 60000 T02680191 10306 20268 55005 $,M
MEV,2022-08-25 12:15,-119.7500,38.9963,1441.42,48.20,37.40,66.05,140.00,4.00,0.00,30.13,M,10.00,M,CLR,M,M,M,M,M,M,M,M,M,M,M,M,M,M,46.34,KMEV 251215Z AUTO 14004KT 10SM CLR 09/03 A3013 RMK AO2,M
BVU,2022-08-25 12:15,-114.8611,35.9475,671.00,73.40,66.20,78.19,40.00,5.00,0.00,30.00,M,M,M,M,M,M,M,M,M,M,M,M,M,M,M,M,M,M,73.40,KBVU 251215Z AUTO 04005KT 23/19 A3000 RMK AO2 PWINO TSNO,M
TMT,2022-08-25 12:15,-117.1971,39.4643,1749.34,45.00,26.20,47.43,0.00,0.00,0.00,30.22,M,10.00,M,CLR,M,M,M,M,M,M,M,M,M,M,M,M,M,M,45.00,KTMT 251215Z AUTO 00000KT 10SM CLR 07/M03 A3022 RMK AO2 T00721032,M
HTH,2022-08-25 12:15,-118.6315,38.5448,1282.89,68.00,32.00,26.15,0.00,0.00,0.00,30.09,M,10.00,M,CLR,M,M,M,M,M,M,M,M,M,M,M,M,M,M,68.00,KHTH 251215Z AUTO 00000KT 10SM CLR 20/00 A3009 RMK A01,M
BAM,2022-08-25 12:15,-116.8743,40.5990,1382.36,57.20,33.80,41.13,60.00,3.00,0.00,30.10,M,10.00,M,CLR,M,M,M,M,M,M,M,M,M,M,M,M,M,M,57.20,KBAM 251215Z AUTO 06003KT 10SM CLR 14/01 A3010 RMK AO1,M
CXP,2022-08-25 12:15,-119.7326,39.1923,1431.00,57.20,35.60,44.19,0.00,0.00,0.00,30.14,M,10.00,M,CLR,M,M,M,M,M,M,M,M,M,M,M,M,M,M,57.20,KCXP 251215Z AUTO 00000KT 10SM CLR 14/02 A3014 RMK AO2,M
RTS,2022-08-25 12:15,-119.8764,39.6682,1539.00,51.80,26.60,37.38,310.00,6.00,0.00,30.16,M,10.00,M,CLR,M,M,M,M,M,M,M,M,M,M,M,M,M,M,51.80,KRTS 251215Z AUTO 31006KT 10SM CLR 11/M03 A3016 RMK AO2,M
MEV,2022-08-25 12:35,-119.7500,38.9963,1441.42,48.20,35.60,61.52,130.00,4.00,0.00,30.13,M,10.00,M,CLR,M,M,M,M,M,M,M,M,M,M,M,M,M,M,46.34,KMEV 251235Z AUTO 13004KT 10SM CLR 09/02 A3013 RMK AO2,M
BVU,2022-08-25 12:35,-114.8611,35.9475,671.00,75.20,66.20,73.61,20.00,5.00,0.00,30.00,M,M,M,M,M,M,M,M,M,M,M,M,M,M,M,M,M,M,75.20,KBVU 251235Z AUTO 02005KT 24/19 A3000 RMK AO2 PWINO TSNO,M
CXP,2022-08-25 12:35,-119.7326,39.1923,1431.00,57.20,35.60,44.19,0.00,0.00,0.00,30.14,M,10.00,M,CLR,M,M,M,M,M,M,M,M,M,M,M,M,M,M,57.20,KCXP 251235Z AUTO 00000KT 10SM CLR 14/02 A3014 RMK AO2,M
RTS,2022-08-25 12:35,-119.8764,39.6682,1539.00,50.00,26.60,39.95,0.00,0.00,0.00,30.17,M,10.00,M,CLR,M,M,M,M,M,M,M,M,M,M,M,M,M,M,50.00,KRTS 251235Z AUTO 00000KT 10SM CLR 10/M03 A3017 RMK AO2,M
BAM,2022-08-25 12:35,-116.8743,40.5990,1382.36,53.60,32.00,43.61,0.00,0.00,0.00,30.10,M,10.00,M,CLR,M,M,M,M,M,M,M,M,M,M,M,M,M,M,53.60,KBAM 251235Z AUTO 00000KT 10SM CLR 12/00 A3010 RMK AO1,M
HTH,2022-08-25 12:35,-118.6315,38.5448,1282.89,68.00,33.80,28.11,200.00,3.00,0.00,30.10,M,10.00,M,CLR,M,M,M,M,M,M,M,M,M,M,M,M,M,M,68.00,KHTH 251235Z AUTO 20003KT 10SM CLR 20/01 A3010 RMK A01,M
TMT,2022-08-25 12:35,-117.1971,39.4643,1749.34,42.60,25.70,50.92,0.00,0.00,0.00,30.22,M,10.00,M,CLR,M,M,M,M,M,M,M,M,M,M,M,M,M,M,42.60,KTMT 251235Z AUTO 00000KT 10SM CLR 06/M03 A3022 RMK AO2 T00591035,M
CXP,2022-08-25 12:50,-119.7326,39.1923,1431.00,55.40,33.80,43.90,0.00,0.00,0.00,30.15,M,10.00,M,CLR,M,M,M,M,M,M,M,M,M,M,M,M,M,M,55.40,KCXP 251250Z AUTO 00000KT 10SM CLR 13/01 A3015 RMK AO2,M
LOL,2022-08-25 12:53,-118.5701,40.0684,1192.43,51.00,28.00,40.63,70.00,4.00,0.00,30.06,1014.10,10.00,M,CLR,M,M,M,M,M,M,M,M,M,M,M,M,M,M,51.10,KLOL 251253Z AUTO 07004KT 10SM CLR 11/M02 A3006 RMK AO2 SLP141 T01061022,M
DRA,2022-08-25 12:53,-116.0278,36.6206,1009.00,75.00,57.00,53.52,90.00,5.00,0.00,30.07,1012.60,10.00,M,CLR,M,M,M,M,M,M,M,M,M,M,M,M,M,M,75.00,KDRA 251253Z AUTO 09005KT 10SM CLR 24/14 A3007 RMK AO2 SLP126 T02390139,M
ELY,2022-08-25 12:53,-114.8453,39.2950,1909.00,62.00,46.00,55.51,210.00,10.00,0.00,30.26,1014.40,10.00,M,CLR,M,M,M,M,M,M,M,M,M,M,M,M,M,M,62.10,KELY 251253Z AUTO 21010KT 10SM CLR 17/08 A3026 RMK AO2 SLP144 T01670078,M
VGT,2022-08-25 12:53,-115.1933,36.2111,667.00,82.00,63.00,52.62,160.00,4.00,0.00,29.99,1014.30,10.00,M,CLR,M,M,M,M,M,M,M,M,M,M,M,M,M,M,83.17,KVGT 251253Z AUTO 16004KT 10SM CLR 28/17 A2999 RMK AO2 SLP143 T02780172,M
P68,2022-08-25 12:53,-116.0056,39.6014,1993.00,56.00,39.00,52.94,210.00,9.00,0.00,30.21,1014.60,M,M,M,M,M,M,M,M,M,M,M,M,M,M,M,M,M,55.90,KP68 251253Z AUTO 21009KT 13/04 A3021 RMK AO1 SLP146 T01330039,M
BVU,2022-08-25 12:55,-114.8611,35.9475,671.00,75.20,66.20,73.61,60.00,5.00,0.00,30.01,M,M,M,M,M,M,M,M,M,M,M,M,M,M,M,M,M,M,75.20,KBVU 251255Z AUTO 06005KT 24/19 A3001 RMK AO2 PWINO TSNO,M
RNO,2022-08-25 12:55,-119.7711,39.4839,1341.00,62.00,39.00,42.41,0.00,0.00,0.00,30.12,1014.10,10.00,M,FEW,M,M,M,15000.00,M,M,M,M,M,M,M,M,M,M,62.10,KRNO 251255Z 00000KT 10SM FEW150 17/04 A3012 RMK AO2 SLP141 T01670039,M
TMT,2022-08-25 12:55,-117.1971,39.4643,1749.34,42.40,24.80,49.43,0.00,0.00,0.00,30.23,M,10.00,M,CLR,M,M,M,M,M,M,M,M,M,M,M,M,M,M,42.40,KTMT 251255Z AUTO 00000KT 10SM CLR 06/M04 A3023 RMK AO2 T00581040,M
HTH,2022-08-25 12:55,-118.6315,38.5448,1282.89,68.00,33.80,28.11,200.00,4.00,0.00,30.10,M,10.00,M,CLR,M,M,M,M,M,M,M,M,M,M,M,M,M,M,68.00,KHTH 251255Z AUTO 20004KT 10SM CLR 20/01 A3010 RMK A01,M
RTS,2022-08-25 12:55,-119.8764,39.6682,1539.00,55.40,30.20,37.97,M,5.00,0.00,30.17,M,10.00,M,CLR,M,M,M,M,M,M,M,M,M,M,M,M,M,M,55.40,KRTS 251255Z AUTO VRB05KT 10SM CLR 13/M01 A3017 RMK AO2,M
MEV,2022-08-25 12:55,-119.7500,38.9963,1441.42,50.00,37.40,61.76,0.00,0.00,0.00,30.14,M,10.00,M,CLR,M,M,M,M,M,M,M,M,M,M,M,M,M,M,50.00,KMEV 251255Z AUTO 00000KT 10SM CLR 10/03 A3014 RMK AO2,M
BAM,2022-08-25 12:55,-116.8743,40.5990,1382.36,55.40,32.00,40.84,0.00,0.00,0.00,30.11,M,10.00,M,CLR,M,M,M,M,M,M,M,M,M,M,M,M,M,M,55.40,KBAM 251255Z AUTO 00000KT 10SM CLR 13/00 A3011 RMK AO1,M
EKO,2022-08-25 12:56,-115.7860,40.8242,1367.00,48.00,40.00,73.38,90.00,4.00,0.00,30.16,1016.80,10.00,M,CLR,M,M,M,M,M,M,M,M,M,M,M,M,M,M,46.10,KEKO 251256Z AUTO 09004KT 10SM CLR 09/04 A3016 RMK AO2 SLP168 T00890044,M
NFL,2022-08-25 12:56,-118.7010,39.4166,1199.00,63.00,33.00,32.53,170.00,4.00,0.00,30.07,1015.00,10.00,M,CLR,M,M,M,M,M,M,M,M,M,M,M,M,M,M,63.00,KNFL 251256Z AUTO 17004KT 10SM CLR 17/01 A3007 RMK AO2 SLP150 T01720006,M
LAS,2022-08-25 12:56,-115.1634,36.0719,663.00,79.00,64.00,60.11,100.00,4.00,0.00,30.01,1013.40,10.00,M,BKN,BKN,M,M,14000.00,20000.00,M,M,M,M,M,M,M,M,M,79.00,KLAS 251256Z 10004KT 10SM BKN140 BKN200 26/18 A3001 RMK AO2 SLP134 T02610178 $,M
TPH,2022-08-25 12:56,-117.0904,38.0505,1654.00,64.00,45.00,49.99,80.00,6.00,0.00,30.21,1014.30,10.00,M,CLR,M,M,M,M,M,M,M,M,M,M,M,M,M,M,64.00,KTPH 251256Z AUTO 08006KT 10SM CLR 18/07 A3021 RMK AO2 SLP143 T01780072 $,M
WMC,2022-08-25 12:56,-117.8072,40.9019,1315.00,54.00,26.10,33.77,90.00,4.00,0.00,30.08,1013.60,10.00,M,CLR,M,M,M,M,M,M,M,M,M,M,M,M,M,M,54.00,KWMC 251256Z AUTO 09004KT 10SM CLR 12/M03 A3008 RMK AO2 SLP136 T01221033,M
INS,2022-08-25 12:58,-115.6733,36.5872,955.00,74.00,56.30,54.14,270.00,9.00,0.00,30.05,1012.50,10.00,M,FEW,M,M,M,13000.00,M,M,M,M,M,M,M,M,M,M,73.90,KINS 251258Z AUTO 27009KT 10SM FEW130 23/14 A3005 RMK AO2 SLP125 T02330135 $,M
LSV,2022-08-25 12:58,-115.0343,36.2362,570.00,79.50,66.70,64.96,0.00,0.00,0.00,29.98,1012.70,10.00,M,OVC,M,M,M,15000.00,M,M,M,M,M,M,M,M,M,M,79.50,KLSV 251258Z AUTO 00000KT 10SM OVC150 26/19 A2998 RMK AO2 SLP127 T02640193 $,M
BVU,2022-08-25 13:15,-114.8611,35.9475,671.00,75.20,66.20,73.61,80.00,5.00,0.00,30.02,M,M,M,M,M,M,M,M,M,M,M,M,M,M,M,M,M,M,75.20,KBVU 251315Z AUTO 08005KT 24/19 A3002 RMK AO2 PWINO TSNO,M
HND,2022-08-25 13:15,-115.1344,35.9729,742.79,M,M,M,170.00,6.00,0.00,30.04,M,10.00,M,CLR,M,M,M,M,M,M,M,M,M,M,M,M,M,M,M,KHND 251315Z 17006KT 10SM CLR /16 A3004 RMK AA,M
TMT,2022-08-25 13:15,-117.1971,39.4643,1749.34,41.70,24.40,49.94,0.00,0.00,0.00,30.24,M,10.00,M,CLR,M,M,M,M,M,M,M,M,M,M,M,M,M,M,41.70,KTMT 251315Z AUTO 00000KT 10SM CLR 05/M04 A3024 RMK AO2 T00541042,M
HTH,2022-08-25 13:15,-118.6315,38.5448,1282.89,68.00,33.80,28.11,0.00,0.00,0.00,30.10,M,10.00,M,CLR,M,M,M,M,M,M,M,M,M,M,M,M,M,M,68.00,KHTH 251315Z AUTO 00000KT 10SM CLR 20/01 A3010 RMK A01,M
BAM,2022-08-25 13:15,-116.8743,40.5990,1382.36,55.40,28.40,35.28,0.00,0.00,0.00,30.12,M,10.00,M,CLR,M,M,M,M,M,M,M,M,M,M,M,M,M,M,55.40,KBAM 251315Z AUTO 00000KT 10SM CLR 13/M02 A3012 RMK AO1,M
MEV,2022-08-25 13:15,-119.7500,38.9963,1441.42,51.80,39.20,61.99,220.00,3.00,0.00,30.15,M,10.00,M,CLR,M,M,M,M,M,M,M,M,M,M,M,M,M,M,51.80,KMEV 251315Z AUTO 22003KT 10SM CLR 11/04 A3015 RMK AO2,M
RTS,2022-08-25 13:15,-119.8764,39.6682,1539.00,53.60,32.00,43.61,220.00,4.00,0.00,30.18,M,10.00,M,CLR,M,M,M,M,M,M,M,M,M,M,M,M,M,M,53.60,KRTS 251315Z AUTO 22004KT 10SM CLR 12/M00 A3018 RMK AO2,M
CXP,2022-08-25 13:15,-119.7326,39.1923,1431.00,55.40,35.60,47.16,0.00,0.00,0.00,30.16,M,10.00,M,CLR,M,M,M,M,M,M,M,M,M,M,M,M,M,M,55.40,KCXP 251315Z AUTO 00000KT 10SM CLR 13/02 A3016 RMK AO2,M
BAM,2022-08-25 13:35,-116.8743,40.5990,1382.36,51.80,30.20,43.32,0.00,0.00,0.00,30.12,M,10.00,M,CLR,M,M,M,M,M,M,M,M,M,M,M,M,M,M,51.80,KBAM 251335Z AUTO 00000KT 10SM CLR 11/M01 A3012 RMK AO1,M
MEV,2022-08-25 13:35,-119.7500,38.9963,1441.42,48.20,37.40,66.05,0.00,0.00,0.00,30.15,M,10.00,M,CLR,M,M,M,M,M,M,M,M,M,M,M,M,M,M,48.20,KMEV 251335Z AUTO 00000KT 10SM CLR 09/03 A3015 RMK AO2,M
RTS,2022-08-25 13:35,-119.8764,39.6682,1539.00,51.80,28.40,40.25,0.00,0.00,0.00,30.18,M,10.00,M,CLR,M,M,M,M,M,M,M,M,M,M,M,M,M,M,51.80,KRTS 251335Z AUTO 00000KT 10SM CLR 11/M02 A3018 RMK AO2,M
CXP,2022-08-25 13:35,-119.7326,39.1923,1431.00,55.40,35.60,47.16,0.00,0.00,0.00,30.16,M,10.00,M,CLR,M,M,M,M,M,M,M,M,M,M,M,M,M,M,55.40,KCXP 251335Z AUTO 00000KT 10SM CLR 13/02 A3016 RMK AO2,M
BVU,2022-08-25 13:35,-114.8611,35.9475,671.00,75.20,66.20,73.61,90.00,5.00,0.00,30.02,M,M,M,M,M,M,M,M,M,M,M,M,M,M,M,M,M,M,75.20,KBVU 251335Z AUTO 09005KT 24/19 A3002 RMK AO2 PWINO TSNO,M
TMT,2022-08-25 13:35,-117.1971,39.4643,1749.34,43.20,24.80,47.93,0.00,0.00,0.00,30.24,M,10.00,M,CLR,M,M,M,M,M,M,M,M,M,M,M,M,M,M,43.20,KTMT 251335Z AUTO 00000KT 10SM CLR 06/M04 A3024 RMK AO2 T00621040,M
HTH,2022-08-25 13:35,-118.6315,38.5448,1282.89,68.00,33.80,28.11,230.00,7.00,0.00,30.11,M,10.00,M,CLR,M,M,M,M,M,M,M,M,M,M,M,M,M,M,68.00,KHTH 251335Z AUTO 23007KT 10SM CLR 20/01 A3011 RMK A01,M
DRA,2022-08-25 13:53,-116.0278,36.6206,1009.00,76.00,58.00,53.64,20.00,4.00,0.00,30.07,1013.10,10.00,M,CLR,M,M,M,M,M,M,M,M,M,M,M,M,M,M,75.90,KDRA 251353Z AUTO 02004KT 10SM CLR 24/14 A3007 RMK AO2 SLP131 T02440144,M
VGT,2022-08-25 13:53,-115.1933,36.2111,667.00,81.00,64.00,56.30,80.00,5.00,0.00,30.01,1015.00,10.00,M,CLR,M,M,M,M,M,M,M,M,M,M,M,M,M,M,82.54,KVGT 251353Z 08005KT 10SM CLR 27/18 A3001 RMK AO2 SLP150 T02720178,M
LOL,2022-08-25 13:53,-118.5701,40.0684,1192.43,57.00,28.90,33.98,30.00,4.00,0.00,30.08,1014.60,10.00,M,CLR,M,M,M,M,M,M,M,M,M,M,M,M,M,M,57.00,KLOL 251353Z AUTO 03004KT 10SM CLR 14/M02 A3008 RMK AO2 SLP146 T01391017,M
P68,2022-08-25 13:53,-116.0056,39.6014,1993.00,57.00,40.00,52.70,190.00,6.00,0.00,30.23,1015.60,M,M,M,M,M,M,M,M,M,M,M,M,M,M,M,M,M,57.00,KP68 251353Z AUTO 19006KT 14/04 A3023 RMK AO1 SLP156 T01390044,M
ELY,2022-08-25 13:53,-114.8453,39.2950,1909.00,61.00,46.00,57.72,0.00,0.00,0.00,30.28,1015.90,10.00,M,CLR,M,M,M,M,M,M,M,M,M,M,M,M,M,M,61.00,KELY 251353Z AUTO 00000KT 10SM CLR 16/08 A3028 RMK AO2 SLP159 T01610078,M
TMT,2022-08-25 13:55,-117.1971,39.4643,1749.34,45.70,26.20,46.18,0.00,0.00,0.00,30.25,M,10.00,M,CLR,M,M,M,M,M,M,M,M,M,M,M,M,M,M,45.70,KTMT 251355Z AUTO 00000KT 10SM CLR 08/M03 A3025 RMK AO2 T00761032,M
RTS,2022-08-25 13:55,-119.8764,39.6682,1539.00,50.00,28.40,43.03,360.00,5.00,0.00,30.18,M,10.00,M,CLR,M,M,M,M,M,M,M,M,M,M,M,M,M,M,50.00,KRTS 251355Z AUTO 36005KT 10SM CLR 10/M02 A3018 RMK AO2,M
MEV,2022-08-25 13:55,-119.7500,38.9963,1441.42,51.80,35.60,53.81,70.00,4.00,0.00,30.15,M,10.00,M,CLR,M,M,M,M,M,M,M,M,M,M,M,M,M,M,51.80,KMEV 251355Z AUTO 07004KT 10SM CLR 11/02 A3015 RMK AO2,M
BAM,2022-08-25 13:55,-116.8743,40.5990,1382.36,53.60,30.20,40.54,60.00,5.00,0.00,30.13,M,10.00,M,CLR,M,M,M,M,M,M,M,M,M,M,M,M,M,M,53.60,KBAM 251355Z AUTO 06005KT 10SM CLR 12/M01 A3013 RMK AO1,M
CXP,2022-08-25 13:55,-119.7326,39.1923,1431.00,57.20,35.60,44.19,0.00,0.00,0.00,30.17,M,10.00,M,CLR,M,M,M,M,M,M,M,M,M,M,M,M,M,M,57.20,KCXP 251355Z AUTO 00000KT 10SM CLR 14/02 A3017 RMK AO2,M
HTH,2022-08-25 13:55,-118.6315,38.5448,1282.89,69.80,32.00,24.59,230.00,7.00,0.00,30.12,M,10.00,M,CLR,M,M,M,M,M,M,M,M,M,M,M,M,M,M,69.80,KHTH 251355Z AUTO 23007KT 10SM CLR 21/00 A3012 RMK A01,M
RNO,2022-08-25 13:55,-119.7711,39.4839,1341.00,61.00,41.00,47.66,0.00,0.00,0.00,30.14,1015.00,10.00,M,FEW,M,M,M,15000.00,M,M,M,M,M,M,M,M,M,M,61.00,KRNO 251355Z 00000KT 10SM FEW150 16/05 A3014 RMK AO2 SLP150 T01610050,M
BVU,2022-08-25 13:55,-114.8611,35.9475,671.00,75.20,66.20,73.61,40.00,4.00,0.00,30.03,M,M,M,M,M,M,M,M,M,M,M,M,M,M,M,M,M,M,75.20,KBVU 251355Z AUTO 04004KT 24/19 A3003 RMK AO2 PWINO TSNO,M
LAS,2022-08-25 13:56,-115.1634,36.0719,663.00,79.00,64.00,60.11,110.00,3.00,0.00,30.02,1013.90,10.00,M,BKN,BKN,M,M,15000.00,20000.00,M,M,M,M,M,M,M,M,M,79.00,KLAS 251356Z 11003KT 10SM BKN150 BKN200 26/18 A3002 RMK AO2 SLP139 ACC DSNT SE-SW T02610178 $,M
WMC,2022-08-25 13:56,-117.8072,40.9019,1315.00,56.00,26.10,31.51,M,3.00,0.00,30.10,1014.50,10.00,M,CLR,M,M,M,M,M,M,M,M,M,M,M,M,M,M,55.90,KWMC 251356Z AUTO VRB03KT 10SM CLR 13/M03 A3010 RMK AO2 SLP145 T01331033,M
TPH,2022-08-25 13:56,-117.0904,38.0505,1654.00,63.00,44.00,50.03,20.00,7.00,0.00,30.23,1015.40,10.00,M,CLR,M,M,M,M,M,M,M,M,M,M,M,M,M,M,63.00,KTPH 251356Z AUTO 02007KT 10SM CLR 17/07 A3023 RMK AO2 SLP154 T01720067 $,M
NFL,2022-08-25 13:56,-118.7010,39.4166,1199.00,64.00,35.00,34.02,160.00,6.00,0.00,30.08,1015.40,10.00,M,CLR,M,M,M,M,M,M,M,M,M,M,M,M,M,M,64.00,KNFL 251356Z AUTO 16006KT 10SM CLR 18/02 A3008 RMK AO2 SLP154 T01780017,M
EKO,2022-08-25 13:56,-115.7860,40.8242,1367.00,49.00,40.00,70.95,90.00,4.00,0.00,30.18,1017.80,10.00,M,CLR,M,M,M,M,M,M,M,M,M,M,M,M,M,M,47.16,KEKO 251356Z AUTO 09004KT 10SM CLR 09/04 A3018 RMK AO2 SLP178 T00940044,M
LSV,2022-08-25 13:58,-115.0343,36.2362,570.00,78.80,66.40,65.78,80.00,4.00,0.00,29.99,1013.00,10.00,M,CLR,M,M,M,M,M,M,M,M,M,M,M,M,M,M,78.80,KLSV 251358Z AUTO 08004KT 10SM CLR 26/19 A2999 RMK AO2 SLP130 T02600191 $,M
INS,2022-08-25 13:58,-115.6733,36.5872,955.00,75.60,54.00,47.04,270.00,8.00,0.00,30.05,1012.50,10.00,M,SCT,M,M,M,14000.00,M,M,M,M,M,M,M,M,M,M,75.60,KINS 251358Z AUTO 27008KT 10SM SCT140 24/12 A3005 RMK AO2 SLP125 T02420122 $,M
CXP,2022-08-25 14:15,-119.7326,39.1923,1431.00,59.00,37.40,44.47,0.00,0.00,0.00,30.18,M,10.00,M,CLR,M,M,M,M,M,M,M,M,M,M,M,M,M,M,59.00,KCXP 251415Z AUTO 00000KT 10SM CLR 15/03 A3018 RMK AO2,M
RTS,2022-08-25 14:15,-119.8764,39.6682,1539.00,55.40,28.40,35.28,0.00,0.00,0.00,30.19,M,10.00,M,CLR,M,M,M,M,M,M,M,M,M,M,M,M,M,M,55.40,KRTS 251415Z AUTO 00000KT 10SM CLR 13/M02 A3019 RMK AO2,M
MEV,2022-08-25 14:15,-119.7500,38.9963,1441.42,53.60,37.40,54.07,0.00,0.00,0.00,30.16,M,9.00,M,CLR,M,M,M,M,M,M,M,M,M,M,M,M,M,M,53.60,KMEV 251415Z AUTO 00000KT 9SM CLR 12/03 A3016 RMK AO2,M
BAM,2022-08-25 14:15,-116.8743,40.5990,1382.36,59.00,32.00,35.87,70.00,5.00,0.00,30.14,M,10.00,M,CLR,M,M,M,M,M,M,M,M,M,M,M,M,M,M,59.00,KBAM 251415Z AUTO 07005KT 10SM CLR 15/00 A3014 RMK AO1,M
HTH,2022-08-25 14:15,-118.6315,38.5448,1282.89,69.80,33.80,26.43,0.00,0.00,0.00,30.13,M,10.00,M,CLR,M,M,M,M,M,M,M,M,M,M,M,M,M,M,69.80,KHTH 251415Z AUTO 00000KT 10SM CLR 21/01 A3013 RMK A01,M
BVU,2022-08-25 14:15,-114.8611,35.9475,671.00,75.20,66.20,73.61,40.00,3.00,0.00,30.03,M,M,M,M,M,M,M,M,M,M,M,M,M,M,M,M,M,M,75.20,KBVU 251415Z AUTO 04003KT 24/19 A3003 RMK AO2 PWINO TSNO,M
TMT,2022-08-25 14:15,-117.1971,39.4643,1749.34,50.70,28.80,42.61,0.00,0.00,0.00,30.25,M,10.00,M,CLR,M,M,M,M,M,M,M,M,M,M,M,M,M,M,50.70,KTMT 251415Z AUTO 00000KT 10SM CLR 10/M02 A3025 RMK AO2 T01041018,M
TMT,2022-08-25 14:35,-117.1971,39.4643,1749.34,M,M,M,0.00,0.00,0.00,30.26,M,10.00,M,CLR,M,M,M,M,M,M,M,M,M,M,M,M,M,M,M,KTMT 251435Z AUTO 00000KT 10SM CLR A3026 RMK AO2,M
BVU,2022-08-25 14:35,-114.8611,35.9475,671.00,75.20,66.20,73.61,0.00,0.00,0.00,30.04,M,M,M,M,M,M,M,M,M,M,M,M,M,M,M,M,M,M,75.20,KBVU 251435Z AUTO 00000KT 24/19 A3004 RMK AO2 PWINO TSNO,M
CXP,2022-08-25 14:35,-119.7326,39.1923,1431.00,60.80,39.20,44.76,0.00,0.00,0.00,30.18,M,10.00,M,CLR,M,M,M,M,M,M,M,M,M,M,M,M,M,M,60.80,KCXP 251435Z AUTO 00000KT 10SM CLR 16/04 A3018 RMK AO2,M
RTS,2022-08-25 14:35,-119.8764,39.6682,1539.00,59.00,30.20,33.35,0.00,0.00,0.00,30.19,M,10.00,M,CLR,M,M,M,M,M,M,M,M,M,M,M,M,M,M,59.00,KRTS 251435Z AUTO 00000KT 10SM CLR 15/M01 A3019 RMK AO2,M
MEV,2022-08-25 14:35,-119.7500,38.9963,1441.42,57.20,37.40,47.44,260.00,4.00,0.00,30.17,M,8.00,M,CLR,M,M,M,M,M,M,M,M,M,M,M,M,M,M,57.20,KMEV 251435Z AUTO 26004KT 8SM CLR 14/03 A3017 RMK AO2,M
BAM,2022-08-25 14:35,-116.8743,40.5990,1382.36,64.40,37.40,36.74,70.00,4.00,0.00,30.15,M,10.00,M,CLR,M,M,M,M,M,M,M,M,M,M,M,M,M,M,64.40,KBAM 251435Z AUTO 07004KT 10SM CLR 18/03 A3015 RMK AO1,M
HTH,2022-08-25 14:35,-118.6315,38.5448,1282.89,69.80,33.80,26.43,0.00,0.00,0.00,30.13,M,10.00,M,CLR,M,M,M,M,M,M,M,M,M,M,M,M,M,M,69.80,KHTH 251435Z AUTO 00000KT 10SM CLR 21/01 A3013 RMK A01,M
NFL,2022-08-25 14:44,-118.7010,39.4166,1199.00,70.00,32.00,24.42,0.00,0.00,0.00,30.10,M,10.00,M,CLR,M,M,M,M,M,M,M,M,M,M,M,M,M,M,70.00,KNFL 251444Z 00000KT 10SM CLR 21/00 A3010 RMK AO2 T02110000,M
P68,2022-08-25 14:53,-116.0056,39.6014,1993.00,67.00,41.00,38.76,210.00,5.00,0.00,30.24,1015.40,M,M,M,M,M,M,M,M,M,M,M,M,M,M,M,M,M,66.90,KP68 251453Z AUTO 21005KT 19/05 A3024 RMK AO1 SLP154 T01940050 52012,M
LOL,2022-08-25 14:53,-118.5701,40.0684,1192.43,64.00,28.90,26.50,0.00,0.00,0.00,30.10,1015.10,10.00,M,CLR,M,M,M,M,M,M,M,M,M,M,M,M,M,M,64.00,KLOL 251453Z AUTO 00000KT 10SM CLR 18/M02 A3010 RMK AO2 SLP151 T01781017 53013,M
DRA,2022-08-25 14:53,-116.0278,36.6206,1009.00,79.00,57.00,46.87,330.00,3.00,0.00,30.07,1013.10,10.00,M,CLR,M,M,M,M,M,M,M,M,M,M,M,M,M,M,79.00,KDRA 251453Z AUTO 33003KT 10SM CLR 26/14 A3007 RMK AO2 SLP131 T02610139 51004,M
VGT,2022-08-25 14:53,-115.1933,36.2111,667.00,83.00,62.00,49.51,120.00,7.00,0.00,30.02,1015.30,10.00,M,CLR,M,M,M,M,M,M,M,M,M,M,M,M,M,M,83.70,KVGT 251453Z 12007KT 10SM CLR 28/17 A3002 RMK AO2 SLP153 T02830167 51013,M
ELY,2022-08-25 14:53,-114.8453,39.2950,1909.00,64.00,48.00,55.99,0.00,0.00,0.00,30.29,1016.30,10.00,M,CLR,M,M,M,M,M,M,M,M,M,M,M,M,M,M,64.00,KELY 251453Z AUTO 00000KT 10SM CLR 18/09 A3029 RMK AO2 SLP163 T01780089 51013,M
MEV,2022-08-25 14:55,-119.7500,38.9963,1441.42,60.80,37.40,41.71,0.00,0.00,0.00,30.17,M,10.00,M,CLR,M,M,M,M,M,M,M,M,M,M,M,M,M,M,60.80,KMEV 251455Z AUTO 00000KT 10SM CLR 16/03 A3017 RMK AO2,M
BAM,2022-08-25 14:55,-116.8743,40.5990,1382.36,68.00,37.40,32.43,50.00,5.00,0.00,30.15,M,10.00,M,CLR,M,M,M,M,M,M,M,M,M,M,M,M,M,M,68.00,KBAM 251455Z AUTO 05005KT 10SM CLR 20/03 A3015 RMK AO1,M
HTH,2022-08-25 14:55,-118.6315,38.5448,1282.89,73.40,33.80,23.39,0.00,0.00,0.00,30.14,M,10.00,M,CLR,M,M,M,M,M,M,M,M,M,M,M,M,M,M,73.40,KHTH 251455Z AUTO 00000KT 10SM CLR 23/01 A3014 RMK A01,M
BVU,2022-08-25 14:55,-114.8611,35.9475,671.00,77.00,66.20,69.33,0.00,0.00,0.00,30.04,M,M,M,M,M,M,M,M,M,M,M,M,M,M,M,M,M,M,77.00,KBVU 251455Z AUTO 00000KT 25/19 A3004 RMK AO2 PWINO TSNO,M
RNO,2022-08-25 14:55,-119.7711,39.4839,1341.00,66.00,39.00,37.00,0.00,0.00,0.00,30.16,1015.30,10.00,M,CLR,M,M,M,M,M,M,M,M,M,M,M,M,M,M,66.00,KRNO 251455Z 00000KT 10SM CLR 19/04 A3016 RMK AO2 SLP153 T01890039 53012,M
CXP,2022-08-25 14:55,-119.7326,39.1923,1431.00,64.40,35.60,34.22,0.00,0.00,0.00,30.18,M,10.00,M,CLR,M,M,M,M,M,M,M,M,M,M,M,M,M,M,64.40,KCXP 251455Z AUTO 00000KT 10SM CLR 18/02 A3018 RMK AO2,M
RTS,2022-08-25 14:55,-119.8764,39.6682,1539.00,60.80,30.20,31.28,0.00,0.00,0.00,30.20,M,10.00,M,CLR,M,M,M,M,M,M,M,M,M,M,M,M,M,M,60.80,KRTS 251455Z AUTO 00000KT 10SM CLR 16/M01 A3020 RMK AO2,M
TMT,2022-08-25 14:55,-117.1971,39.4643,1749.34,M,M,M,0.00,0.00,0.00,30.26,M,10.00,M,CLR,M,M,M,M,M,M,M,M,M,M,M,M,M,M,M,KTMT 251455Z AUTO 00000KT 10SM CLR A3026 RMK AO2,M
LAS,2022-08-25 14:56,-115.1634,36.0719,663.00,81.00,64.00,56.30,80.00,5.00,0.00,30.03,1014.30,10.00,M,BKN,M,M,M,15000.00,M,M,M,M,M,M,M,M,M,M,82.54,KLAS 251456Z 08005KT 10SM BKN150 27/18 A3003 RMK AO2 SLP143 ACC DSNT SE-SW AND NW T02720178 51015 $,M
NFL,2022-08-25 14:56,-118.7010,39.4166,1199.00,72.00,30.90,21.82,170.00,4.00,0.00,30.10,1016.00,10.00,M,FEW,M,M,M,9000.00,M,M,M,M,M,M,M,M,M,M,72.00,KNFL 251456Z COR 17004KT 10SM FEW090 22/M01 A3010 RMK AO2 SLP160 T02221006 53015,M
WMC,2022-08-25 14:56,-117.8072,40.9019,1315.00,65.00,27.00,23.75,200.00,3.00,0.00,30.12,1015.30,10.00,M,CLR,M,M,M,M,M,M,M,M,M,M,M,M,M,M,64.90,KWMC 251456Z AUTO 20003KT 10SM CLR 18/M03 A3012 RMK AO2 SLP153 T01831028 52016,M
EKO,2022-08-25 14:56,-115.7860,40.8242,1367.00,55.00,41.00,59.13,80.00,3.00,0.00,30.19,1018.30,10.00,M,CLR,M,M,M,M,M,M,M,M,M,M,M,M,M,M,55.00,KEKO 251456Z AUTO 08003KT 10SM CLR 13/05 A3019 RMK AO2 SLP183 T01280050 51015,M
INS,2022-08-25 14:58,-115.6733,36.5872,955.00,79.50,53.00,40.01,130.00,3.00,0.00,30.07,1013.20,10.00,M,FEW,M,M,M,16000.00,M,M,M,M,M,M,M,M,M,M,79.50,KINS 251458Z AUTO 13003KT 10SM FEW160 26/12 A3007 RMK AO2 SLP132 T02640117 51006 $,M
LSV,2022-08-25 14:58,-115.0343,36.2362,570.00,82.00,69.30,65.69,60.00,5.00,0.00,30.01,1013.70,10.00,M,SCT,M,M,M,15000.00,M,M,M,M,M,M,M,M,M,M,85.36,KLSV 251458Z AUTO 06005KT 10SM SCT150 28/21 A3001 RMK AO2 SLP137 T02770207 52016 $,M
HTH,2022-08-25 15:15,-118.6315,38.5448,1282.89,75.20,33.80,22.02,0.00,0.00,0.00,30.14,M,10.00,M,CLR,M,M,M,M,M,M,M,M,M,M,M,M,M,M,75.20,KHTH 251515Z AUTO 00000KT 10SM CLR 24/01 A3014 RMK A01,M
BVU,2022-08-25 15:15,-114.8611,35.9475,671.00,78.80,64.40,61.36,0.00,0.00,0.00,30.04,M,M,M,M,M,M,M,M,M,M,M,M,M,M,M,M,M,M,78.80,KBVU 251515Z AUTO 00000KT 26/18 A3004 RMK AO2 PWINO TSNO,M
CXP,2022-08-25 15:15,-119.7326,39.1923,1431.00,68.00,35.60,30.20,0.00,0.00,0.00,30.18,M,10.00,M,CLR,M,M,M,M,M,M,M,M,M,M,M,M,M,M,68.00,KCXP 251515Z AUTO 00000KT 10SM CLR 20/02 A3018 RMK AO2,M
RTS,2022-08-25 15:15,-119.8764,39.6682,1539.00,64.40,30.20,27.55,0.00,0.00,0.00,30.20,M,10.00,M,CLR,M,M,M,M,M,M,M,M,M,M,M,M,M,M,64.40,KRTS 251515Z AUTO 00000KT 10SM CLR 18/M01 A3020 RMK AO2,M
MEV,2022-08-25 15:15,-119.7500,38.9963,1441.42,64.40,37.40,36.74,0.00,0.00,0.00,30.17,M,10.00,M,CLR,M,M,M,M,M,M,M,M,M,M,M,M,M,M,64.40,KMEV 251515Z AUTO 00000KT 10SM CLR 18/03 A3017 RMK AO2,M
BAM,2022-08-25 15:15,-116.8743,40.5990,1382.36,71.60,39.20,30.77,60.00,9.00,0.00,30.16,M,10.00,M,CLR,M,M,M,M,M,M,M,M,M,M,M,M,M,M,71.60,KBAM 251515Z AUTO 06009KT 10SM CLR 22/04 A3016 RMK AO1,M
TMT,2022-08-25 15:15,-117.1971,39.4643,1749.34,M,M,M,0.00,0.00,0.00,30.26,M,10.00,M,CLR,M,M,M,M,M,M,M,M,M,M,M,M,M,M,M,KTMT 251515Z AUTO 00000KT 10SM CLR A3026 RMK AO2,M
HTH,2022-08-25 15:35,-118.6315,38.5448,1282.89,75.20,33.80,22.02,0.00,0.00,0.00,30.14,M,10.00,M,CLR,M,M,M,M,M,M,M,M,M,M,M,M,M,M,75.20,KHTH 251535Z AUTO 00000KT 10SM CLR 24/01 A3014 RMK A01,M
BVU,2022-08-25 15:35,-114.8611,35.9475,671.00,80.60,62.60,54.30,150.00,4.00,0.00,30.05,M,M,M,M,M,M,M,M,M,M,M,M,M,M,M,M,M,M,81.84,KBVU 251535Z AUTO 15004KT 27/17 A3005 RMK AO2 PWINO TSNO,M
CXP,2022-08-25 15:35,-119.7326,39.1923,1431.00,69.80,35.60,28.39,0.00,0.00,0.00,30.18,M,10.00,M,CLR,M,M,M,M,M,M,M,M,M,M,M,M,M,M,69.80,KCXP 251535Z AUTO 00000KT 10SM CLR 21/02 A3018 RMK AO2,M
RTS,2022-08-25 15:35,-119.8764,39.6682,1539.00,68.00,30.20,24.32,0.00,0.00,0.00,30.20,M,10.00,M,CLR,M,M,M,M,M,M,M,M,M,M,M,M,M,M,68.00,KRTS 251535Z AUTO 00000KT 10SM CLR 20/M01 A3020 RMK AO2,M
MEV,2022-08-25 15:35,-119.7500,38.9963,1441.42,66.20,37.40,34.51,0.00,0.00,0.00,30.17,M,10.00,M,CLR,M,M,M,M,M,M,M,M,M,M,M,M,M,M,66.20,KMEV 251535Z AUTO 00000KT 10SM CLR 19/03 A3017 RMK AO2,M
BAM,2022-08-25 15:35,-116.8743,40.5990,1382.36,73.40,39.20,28.96,60.00,8.00,0.00,30.16,M,10.00,M,CLR,M,M,M,M,M,M,M,M,M,M,M,M,M,M,73.40,KBAM 251535Z AUTO 06008KT 10SM CLR 23/04 A3016 RMK AO1,M
TMT,2022-08-25 15:35,-117.1971,39.4643,1749.34,M,M,M,0.00,0.00,0.00,30.26,M,10.00,M,CLR,M,M,M,M,M,M,M,M,M,M,M,M,M,M,M,KTMT 251535Z AUTO 00000KT 10SM CLR A3026 RMK AO2,M
ELY,2022-08-25 15:53,-114.8453,39.2950,1909.00,70.00,50.00,49.03,170.00,4.00,0.00,30.29,1016.10,10.00,M,CLR,M,M,M,M,M,M,M,M,M,M,M,M,M,M,70.00,KELY 251553Z AUTO 17004KT 10SM CLR 21/10 A3029 RMK AO2 SLP161 T02110100,M
VGT,2022-08-25 15:53,-115.1933,36.2111,667.00,86.00,61.00,43.10,110.00,5.00,0.00,30.03,1015.80,10.00,M,CLR,M,M,M,M,M,M,M,M,M,M,M,M,M,M,86.12,KVGT 251553Z 11005KT 10SM CLR 30/16 A3003 RMK AO2 SLP158 T03000161,M
HND,2022-08-25 15:53,-115.1344,35.9729,742.79,82.40,62.60,51.21,120.00,4.00,0.00,30.07,M,10.00,M,CLR,M,M,M,M,M,M,M,M,M,M,M,M,M,M,83.41,KHND 251553Z 12004KT 10SM CLR 28/17 A3007 RMK KP,M
P68,2022-08-25 15:53,-116.0056,39.6014,1993.00,74.00,40.00,29.26,220.00,5.00,0.00,30.25,1015.20,M,M,M,M,M,M,M,M,M,M,M,M,M,M,M,M,M,73.90,KP68 251553Z AUTO 22005KT 23/04 A3025 RMK AO1 SLP152 T02330044,M
DRA,2022-08-25 15:53,-116.0278,36.6206,1009.00,83.00,55.00,38.38,0.00,0.00,0.00,30.09,1013.50,10.00,M,CLR,M,M,M,M,M,M,M,M,M,M,M,M,M,M,82.03,KDRA 251553Z AUTO 00000KT 10SM CLR 28/13 A3009 RMK AO2 SLP135 T02830128,M
LOL,2022-08-25 15:53,-118.5701,40.0684,1192.43,75.00,28.00,17.53,0.00,0.00,0.00,30.10,1015.10,10.00,M,CLR,M,M,M,M,M,M,M,M,M,M,M,M,M,M,75.00,KLOL 251553Z AUTO 00000KT 10SM CLR 24/M02 A3010 RMK AO2 SLP151 T02391022,M
BVU,2022-08-25 15:55,-114.8611,35.9475,671.00,82.40,62.60,51.21,0.00,0.00,0.00,30.05,M,M,M,M,M,M,M,M,M,M,M,M,M,M,M,M,M,M,83.41,KBVU 251555Z AUTO 00000KT 28/17 A3005 RMK AO2 PWINO TSNO,M
TMT,2022-08-25 15:55,-117.1971,39.4643,1749.34,M,M,M,0.00,0.00,0.00,30.25,M,10.00,M,CLR,M,M,M,M,M,M,M,M,M,M,M,M,M,M,M,KTMT 251555Z AUTO 00000KT 10SM CLR A3025 RMK AO2,M
CXP,2022-08-25 15:55,-119.7326,39.1923,1431.00,71.60,35.60,26.71,0.00,0.00,0.00,30.18,M,10.00,M,CLR,M,M,M,M,M,M,M,M,M,M,M,M,M,M,71.60,KCXP 251555Z AUTO 00000KT 10SM CLR 22/02 A3018 RMK AO2,M
RTS,2022-08-25 15:55,-119.8764,39.6682,1539.00,69.80,30.20,22.86,0.00,0.00,0.00,30.20,M,10.00,M,CLR,M,M,M,M,M,M,M,M,M,M,M,M,M,M,69.80,KRTS 251555Z AUTO 00000KT 10SM CLR 21/M01 A3020 RMK AO2,M
RNO,2022-08-25 15:55,-119.7711,39.4839,1341.00,73.00,37.00,26.92,0.00,0.00,0.00,30.16,1015.10,10.00,M,CLR,M,M,M,M,M,M,M,M,M,M,M,M,M,M,73.00,KRNO 251555Z 00000KT 10SM CLR 23/03 A3016 RMK AO2 SLP151 T02280028,M
MEV,2022-08-25 15:55,-119.7500,38.9963,1441.42,69.80,35.60,28.39,0.00,0.00,0.00,30.17,M,10.00,M,CLR,M,M,M,M,M,M,M,M,M,M,M,M,M,M,69.80,KMEV 251555Z AUTO 00000KT 10SM CLR 21/02 A3017 RMK AO2,M
BAM,2022-08-25 15:55,-116.8743,40.5990,1382.36,77.00,39.20,25.67,50.00,8.00,0.00,30.16,M,10.00,M,CLR,M,M,M,M,M,M,M,M,M,M,M,M,M,M,77.00,KBAM 251555Z AUTO 05008KT 10SM CLR 25/04 A3016 RMK AO1,M
HTH,2022-08-25 15:55,-118.6315,38.5448,1282.89,77.00,32.00,19.30,0.00,0.00,0.00,30.15,M,10.00,M,CLR,M,M,M,M,M,M,M,M,M,M,M,M,M,M,77.00,KHTH 251555Z AUTO 00000KT 10SM CLR 25/00 A3015 RMK A01,M
INS,2022-08-25 15:56,-115.6733,36.5872,955.00,82.00,55.20,39.81,90.00,7.00,0.00,30.08,1013.50,10.00,M,FEW,M,M,M,14000.00,M,M,M,M,M,M,M,M,M,M,81.43,KINS 251556Z AUTO 09007KT 10SM FEW140 28/13 A3008 RMK AO2 SLP135 T02780129 $,M
EKO,2022-08-25 15:56,-115.7860,40.8242,1367.00,61.00,43.00,51.48,0.00,0.00,0.00,30.20,1018.40,10.00,M,CLR,M,M,M,M,M,M,M,M,M,M,M,M,M,M,61.00,KEKO 251556Z AUTO 00000KT 10SM CLR 16/06 A3020 RMK AO2 SLP184 T01610061,M
WMC,2022-08-25 15:56,-117.8072,40.9019,1315.00,79.00,27.00,14.73,0.00,0.00,0.00,30.12,1015.10,10.00,M,CLR,M,M,M,M,M,M,M,M,M,M,M,M,M,M,79.00,KWMC 251556Z AUTO 00000KT 10SM CLR 26/M03 A3012 RMK AO2 SLP151 T02611028,M
NFL,2022-08-25 15:56,-118.7010,39.4166,1199.00,78.00,35.00,21.07,180.00,3.00,0.00,30.11,1016.30,10.00,M,FEW,M,M,M,10000.00,M,M,M,M,M,M,M,M,M,M,78.10,KNFL 251556Z 18003KT 10SM FEW100 26/02 A3011 RMK AO2 SLP163 T02560017,M
LSV,2022-08-25 15:56,-115.0343,36.2362,570.00,87.30,62.00,42.99,140.00,6.00,0.00,30.01,1013.60,10.00,M,CLR,M,M,M,M,M,M,M,M,M,M,M,M,M,M,87.78,KLSV 251556Z AUTO 14006KT 10SM CLR 31/17 A3001 RMK AO2 SLP136 T03070167 $,M
LAS,2022-08-25 15:56,-115.1634,36.0719,663.00,84.00,63.00,49.32,80.00,6.00,0.00,30.04,1014.60,10.00,M,BKN,M,M,M,15000.00,M,M,M,M,M,M,M,M,M,M,84.99,KLAS 251556Z 08006KT 10SM BKN150 29/17 A3004 RMK AO2 SLP146 ACC DSNT E AND SW-W T02890172,M
TPH,2022-08-25 15:57,-117.0904,38.0505,1654.00,74.00,51.00,44.76,190.00,4.00,0.00,30.25,1015.80,10.00,M,CLR,M,M,M,M,M,M,M,M,M,M,M,M,M,M,73.90,KTPH 251557Z AUTO 19004KT 10SM CLR 23/11 A3025 RMK AO2 SLP158 T02330106 $,M
MEV,2022-08-25 16:15,-119.7500,38.9963,1441.42,73.40,35.60,25.13,0.00,0.00,0.00,30.17,M,10.00,M,CLR,M,M,M,M,M,M,M,M,M,M,M,M,M,M,73.40,KMEV 251615Z AUTO 00000KT 10SM CLR 23/02 A3017 RMK AO2,M
HTH,2022-08-25 16:15,-118.6315,38.5448,1282.89,78.80,33.80,19.55,0.00,0.00,0.00,30.15,M,10.00,M,CLR,M,M,M,M,M,M,M,M,M,M,M,M,M,M,78.80,KHTH 251615Z AUTO 00000KT 10SM CLR 26/01 A3015 RMK A01,M
TMT,2022-08-25 16:15,-117.1971,39.4643,1749.34,M,M,M,0.00,0.00,0.00,30.25,M,10.00,M,CLR,M,M,M,M,M,M,M,M,M,M,M,M,M,M,M,KTMT 251615Z AUTO 00000KT 10SM CLR A3025 RMK AO2,M
BAM,2022-08-25 16:15,-116.8743,40.5990,1382.36,78.80,35.60,21.00,40.00,5.00,0.00,30.16,M,10.00,M,CLR,M,M,M,M,M,M,M,M,M,M,M,M,M,M,78.80,KBAM 251615Z AUTO 04005KT 10SM CLR 26/02 A3016 RMK AO1,M
RTS,2022-08-25 16:15,-119.8764,39.6682,1539.00,71.60,30.20,21.50,0.00,0.00,0.00,30.20,M,10.00,M,CLR,M,M,M,M,M,M,M,M,M,M,M,M,M,M,71.60,KRTS 251615Z AUTO 00000KT 10SM CLR 22/M01 A3020 RMK AO2,M
CXP,2022-08-25 16:15,-119.7326,39.1923,1431.00,75.20,35.60,23.66,0.00,0.00,0.00,30.18,M,10.00,M,CLR,M,M,M,M,M,M,M,M,M,M,M,M,M,M,75.20,KCXP 251615Z AUTO 00000KT 10SM CLR 24/02 A3018 RMK AO2,M
BVU,2022-08-25 16:15,-114.8611,35.9475,671.00,82.40,62.60,51.21,0.00,0.00,0.00,30.04,M,M,M,M,M,M,M,M,M,M,M,M,M,M,M,M,M,M,83.41,KBVU 251615Z AUTO 00000KT 28/17 A3004 RMK AO2 PWINO TSNO,M
TMT,2022-08-25 16:35,-117.1971,39.4643,1749.34,M,M,M,0.00,0.00,0.00,30.25,M,10.00,M,CLR,M,M,M,M,M,M,M,M,M,M,M,M,M,M,M,KTMT 251635Z AUTO 00000KT 10SM CLR A3025 RMK AO2,M
BAM,2022-08-25 16:35,-116.8743,40.5990,1382.36,78.80,33.80,19.55,30.00,4.00,0.00,30.16,M,10.00,M,CLR,M,M,M,M,M,M,M,M,M,M,M,M,M,M,78.80,KBAM 251635Z AUTO 03004KT 10SM CLR 26/01 A3016 RMK AO1,M
CXP,2022-08-25 16:35,-119.7326,39.1923,1431.00,77.00,33.80,20.74,0.00,0.00,0.00,30.18,M,10.00,M,CLR,M,M,M,M,M,M,M,M,M,M,M,M,M,M,77.00,KCXP 251635Z AUTO 00000KT 10SM CLR 25/01 A3018 RMK AO2,M
RTS,2022-08-25 16:35,-119.8764,39.6682,1539.00,75.20,32.00,20.49,0.00,0.00,0.00,30.20,M,10.00,M,CLR,M,M,M,M,M,M,M,M,M,M,M,M,M,M,75.20,KRTS 251635Z AUTO 00000KT 10SM CLR 24/M00 A3020 RMK AO2,M
MEV,2022-08-25 16:35,-119.7500,38.9963,1441.42,75.20,35.60,23.66,320.00,3.00,0.00,30.17,M,10.00,M,CLR,M,M,M,M,M,M,M,M,M,M,M,M,M,M,75.20,KMEV 251635Z AUTO 32003KT 10SM CLR 24/02 A3017 RMK AO2,M
BVU,2022-08-25 16:35,-114.8611,35.9475,671.00,84.20,62.60,48.32,0.00,0.00,0.00,30.05,M,M,M,M,M,M,M,M,M,M,M,M,M,M,M,M,M,M,85.03,KBVU 251635Z AUTO 00000KT 29/17 A3005 RMK AO2 PWINO TSNO,M
HTH,2022-08-25 16:35,-118.6315,38.5448,1282.89,80.60,35.60,19.79,310.00,5.00,0.00,30.14,M,10.00,M,CLR,M,M,M,M,M,M,M,M,M,M,M,M,M,M,78.94,KHTH 251635Z AUTO 31005KT 10SM CLR 27/02 A3014 RMK A01,M
ELY,2022-08-25 16:53,-114.8453,39.2950,1909.00,76.00,49.00,38.57,80.00,5.00,0.00,30.29,1015.50,10.00,M,CLR,M,M,M,M,M,M,M,M,M,M,M,M,M,M,75.90,KELY 251653Z AUTO 08005KT 10SM CLR 24/09 A3029 RMK AO2 SLP155 T02440094,M
LOL,2022-08-25 16:53,-118.5701,40.0684,1192.43,82.00,30.00,15.10,M,3.00,0.00,30.11,1014.80,10.00,M,CLR,M,M,M,M,M,M,M,M,M,M,M,M,M,M,79.69,KLOL 251653Z AUTO VRB03KT 10SM CLR 28/M01 A3011 RMK AO2 SLP148 T02781011,M
DRA,2022-08-25 16:53,-116.0278,36.6206,1009.00,87.00,55.00,33.55,M,M,0.00,30.10,1013.70,10.00,M,CLR,M,M,M,M,M,M,M,M,M,M,M,M,M,M,85.40,KDRA 251653Z AUTO 10SM CLR 31/13 A3010 RMK AO2 SLP137 T03060128,M
P68,2022-08-25 16:53,-116.0056,39.6014,1993.00,80.00,37.00,21.27,240.00,9.00,0.00,30.24,1014.90,M,M,M,M,M,M,M,M,M,M,M,M,M,M,M,M,M,78.81,KP68 251653Z AUTO 24009KT 27/03 A3024 RMK AO1 SLP149 T02670028,M
VGT,2022-08-25 16:53,-115.1933,36.2111,667.00,87.00,60.00,40.31,100.00,5.00,0.00,30.04,1016.20,10.00,M,CLR,M,M,M,M,M,M,M,M,M,M,M,M,M,M,86.83,KVGT 251653Z 10005KT 10SM CLR 31/16 A3004 RMK AO2 SLP162 T03060156,M
CXP,2022-08-25 16:55,-119.7326,39.1923,1431.00,78.80,35.60,21.00,230.00,4.00,0.00,30.18,M,10.00,M,CLR,M,M,M,M,M,M,M,M,M,M,M,M,M,M,78.80,KCXP 251655Z AUTO 23004KT 10SM CLR 26/02 A3018 RMK AO2,M
RNO,2022-08-25 16:55,-119.7711,39.4839,1341.00,77.00,37.00,23.55,80.00,3.00,0.00,30.15,1015.00,10.00,M,CLR,M,M,M,M,M,M,M,M,M,M,M,M,M,M,77.00,KRNO 251655Z 08003KT 10SM CLR 25/03 A3015 RMK AO2 SLP150 T02500028,M
RTS,2022-08-25 16:55,-119.8764,39.6682,1539.00,77.00,30.20,17.94,0.00,0.00,0.00,30.20,M,10.00,M,CLR,M,M,M,M,M,M,M,M,M,M,M,M,M,M,77.00,KRTS 251655Z AUTO 00000KT 10SM CLR 25/M01 A3020 RMK AO2,M
MEV,2022-08-25 16:55,-119.7500,38.9963,1441.42,77.00,35.60,22.28,0.00,0.00,0.00,30.16,M,10.00,M,CLR,M,M,M,M,M,M,M,M,M,M,M,M,M,M,77.00,KMEV 251655Z AUTO 00000KT 10SM CLR 25/02 A3016 RMK AO2,M
BAM,2022-08-25 16:55,-116.8743,40.5990,1382.36,82.40,33.80,17.38,60.00,3.00,0.00,30.16,M,10.00,M,CLR,M,M,M,M,M,M,M,M,M,M,M,M,M,M,80.03,KBAM 251655Z AUTO 06003KT 10SM CLR 28/01 A3016 RMK AO1,M
HTH,2022-08-25 16:55,-118.6315,38.5448,1282.89,80.60,33.80,18.42,320.00,5.00,0.00,30.14,M,10.00,M,CLR,M,M,M,M,M,M,M,M,M,M,M,M,M,M,78.88,KHTH 251655Z AUTO 32005KT 10SM CLR 27/01 A3014 RMK A01,M
TMT,2022-08-25 16:55,-117.1971,39.4643,1749.34,M,M,M,0.00,0.00,0.00,30.25,M,10.00,M,CLR,M,M,M,M,M,M,M,M,M,M,M,M,M,M,M,KTMT 251655Z AUTO 00000KT 10SM CLR A3025 RMK AO2,M
BVU,2022-08-25 16:55,-114.8611,35.9475,671.00,84.20,60.80,45.34,0.00,0.00,0.00,30.06,M,M,M,M,M,M,M,M,M,M,M,M,M,M,M,M,M,M,84.43,KBVU 251655Z AUTO 00000KT 29/16 A3006 RMK AO2 PWINO TSNO,M
NFL,2022-08-25 16:56,-118.7010,39.4166,1199.00,83.00,30.00,14.67,0.00,0.00,0.00,30.12,1016.40,10.00,M,CLR,M,M,M,M,M,M,M,M,M,M,M,M,M,M,80.31,KNFL 251656Z 00000KT 10SM CLR 28/M01 A3012 RMK AO2 SLP164 T02831011,M
LSV,2022-08-25 16:56,-115.0343,36.2362,570.00,91.40,60.80,36.08,0.00,0.00,0.00,30.03,M,10.00,M,FEW,FEW,M,M,16000.00,18000.00,M,M,M,M,M,M,M,M,M,91.40,KLSV 251656Z 00000KT 10SM FEW160 FEW180 33/16 A3003 RMK SLPNO 52010,M
EKO,2022-08-25 16:56,-115.7860,40.8242,1367.00,69.00,44.00,40.48,0.00,0.00,0.00,30.19,1017.70,10.00,M,CLR,M,M,M,M,M,M,M,M,M,M,M,M,M,M,69.10,KEKO 251656Z AUTO 00000KT 10SM CLR 21/07 A3019 RMK AO2 SLP177 T02060067,M
INS,2022-08-25 16:56,-115.6733,36.5872,955.00,85.60,55.60,35.97,90.00,7.00,0.00,30.09,1013.70,10.00,M,CLR,M,M,M,M,M,M,M,M,M,M,M,M,M,M,84.25,KINS 251656Z AUTO 09007KT 10SM CLR 30/13 A3009 RMK AO2 SLP137 T02980131 $,M
WMC,2022-08-25 16:56,-117.8072,40.9019,1315.00,85.00,27.00,12.16,290.00,5.00,0.00,30.13,1014.90,10.00,M,CLR,M,M,M,M,M,M,M,M,M,M,M,M,M,M,81.65,KWMC 251656Z AUTO 29005KT 10SM CLR 29/M03 A3013 RMK AO2 SLP149 T02941028 $,M
LAS,2022-08-25 16:56,-115.1634,36.0719,663.00,86.00,60.00,41.74,100.00,4.00,0.00,30.05,1015.00,10.00,M,BKN,M,M,M,15000.00,M,M,M,M,M,M,M,M,M,M,85.81,KLAS 251656Z 10004KT 10SM BKN150 30/16 A3005 RMK AO2 SLP150 T03000156,M
TPH,2022-08-25 16:56,-117.0904,38.0505,1654.00,78.00,51.00,38.92,190.00,6.00,0.00,30.25,1015.80,10.00,M,CLR,M,M,M,M,M,M,M,M,M,M,M,M,M,M,78.10,KTPH 251656Z AUTO 19006KT 10SM CLR 26/11 A3025 RMK AO2 SLP158 T02560106,M
MEV,2022-08-25 17:15,-119.7500,38.9963,1441.42,80.60,37.40,21.25,0.00,0.00,0.00,30.16,M,10.00,M,CLR,M,M,M,M,M,M,M,M,M,M,M,M,M,M,79.02,KMEV 251715Z AUTO 00000KT 10SM CLR 27/03 A3016 RMK AO2,M
BAM,2022-08-25 17:15,-116.8743,40.5990,1382.36,82.40,32.00,16.17,0.00,0.00,0.00,30.16,M,10.00,M,CLR,M,M,M,M,M,M,M,M,M,M,M,M,M,M,80.00,KBAM 251715Z AUTO 00000KT 10SM CLR 28/00 A3016 RMK AO1,M
HTH,2022-08-25 17:15,-118.6315,38.5448,1282.89,82.40,32.00,16.17,320.00,4.00,0.00,30.14,M,10.00,M,CLR,M,M,M,M,M,M,M,M,M,M,M,M,M,M,80.00,KHTH 251715Z AUTO 32004KT 10SM CLR 28/00 A3014 RMK A01,M
TMT,2022-08-25 17:15,-117.1971,39.4643,1749.34,M,M,M,160.00,3.00,0.00,30.25,M,10.00,M,CLR,M,M,M,M,M,M,M,M,M,M,M,M,M,M,M,KTMT 251715Z AUTO 16003KT 10SM CLR A3025 RMK AO2,M
BVU,2022-08-25 17:15,-114.8611,35.9475,671.00,86.00,60.80,42.80,10.00,4.00,0.00,30.06,M,M,M,M,M,M,M,M,M,M,M,M,M,M,M,M,M,M,86.05,KBVU 251715Z AUTO 01004KT 30/16 A3006 RMK AO2 PWINO TSNO,M
CXP,2022-08-25 17:15,-119.7326,39.1923,1431.00,82.40,35.60,18.67,0.00,0.00,0.00,30.17,M,10.00,M,CLR,M,M,M,M,M,M,M,M,M,M,M,M,M,M,80.08,KCXP 251715Z AUTO 00000KT 10SM CLR 28/02 A3017 RMK AO2,M
RTS,2022-08-25 17:15,-119.8764,39.6682,1539.00,78.80,30.20,16.90,140.00,5.00,0.00,30.20,M,10.00,M,CLR,M,M,M,M,M,M,M,M,M,M,M,M,M,M,78.80,KRTS 251715Z AUTO 14005KT 10SM CLR 26/M01 A3020 RMK AO2,M
TMT,2022-08-25 17:35,-117.1971,39.4643,1749.34,M,M,M,90.00,3.00,0.00,30.25,M,10.00,M,CLR,M,M,M,M,M,M,M,M,M,M,M,M,M,M,M,KTMT 251735Z AUTO 09003KT 10SM CLR A3025 RMK AO2,M
MEV,2022-08-25 17:35,-119.7500,38.9963,1441.42,82.40,35.60,18.67,0.00,0.00,0.00,30.16,M,10.00,M,CLR,M,M,M,M,M,M,M,M,M,M,M,M,M,M,80.08,KMEV 251735Z AUTO 00000KT 10SM CLR 28/02 A3016 RMK AO2,M
BAM,2022-08-25 17:35,-116.8743,40.5990,1382.36,86.00,32.00,14.40,0.00,0.00,0.00,30.16,M,10.00,M,CLR,M,M,M,M,M,M,M,M,M,M,M,M,M,M,82.64,KBAM 251735Z AUTO 00000KT 10SM CLR 30/00 A3016 RMK AO1,M
HTH,2022-08-25 17:35,-118.6315,38.5448,1282.89,84.20,41.00,21.76,290.00,4.00,0.00,30.14,M,10.00,M,CLR,M,M,M,M,M,M,M,M,M,M,M,M,M,M,81.52,KHTH 251735Z AUTO 29004KT 10SM CLR 29/05 A3014 RMK A01,M
BVU,2022-08-25 17:35,-114.8611,35.9475,671.00,87.80,55.40,33.29,140.00,8.00,0.00,30.05,M,M,M,M,M,M,M,M,M,M,M,M,M,M,M,M,M,M,86.11,KBVU 251735Z AUTO 14008KT 31/13 A3005 RMK AO2 PWINO TSNO,M
CXP,2022-08-25 17:35,-119.7326,39.1923,1431.00,84.20,35.60,17.61,0.00,0.00,0.00,30.17,M,10.00,M,CLR,M,M,M,M,M,M,M,M,M,M,M,M,M,M,81.34,KCXP 251735Z AUTO 00000KT 10SM CLR 29/02 A3017 RMK AO2,M
RTS,2022-08-25 17:35,-119.8764,39.6682,1539.00,80.60,26.60,13.75,0.00,0.00,0.00,30.20,M,10.00,M,CLR,M,M,M,M,M,M,M,M,M,M,M,M,M,M,78.68,KRTS 251735Z AUTO 00000KT 10SM CLR 27/M03 A3020 RMK AO2,M
ELY,2022-08-25 17:53,-114.8453,39.2950,1909.00,80.00,46.00,30.11,M,4.00,0.00,30.28,1014.70,10.00,M,CLR,M,M,M,M,M,M,M,M,M,M,M,M,M,M,79.26,KELY 251753Z AUTO VRB04KT 10SM CLR 27/08 A3028 RMK AO2 SLP147 T02670078 10267 20139 58005,M
P68,2022-08-25 17:53,-116.0056,39.6014,1993.00,82.00,28.00,13.92,70.00,4.00,0.00,30.24,1014.50,M,M,M,M,M,M,M,M,M,M,M,M,M,M,M,M,M,79.66,KP68 251753Z AUTO 07004KT 28/M02 A3024 RMK AO1 SLP145 T02781022 10289 20122 58002,M
LOL,2022-08-25 17:53,-118.5701,40.0684,1192.43,88.00,28.00,11.48,M,4.00,0.00,30.10,1015.00,10.00,M,CLR,M,M,M,M,M,M,M,M,M,M,M,M,M,M,83.95,KLOL 251753Z AUTO VRB04KT 10SM CLR 31/M02 A3010 RMK AO2 SLP150 T03111022 10311 20100 50002,M
DRA,2022-08-25 17:53,-116.0278,36.6206,1009.00,89.00,55.00,31.49,M,3.00,0.00,30.10,1013.70,10.00,M,CLR,M,M,M,M,M,M,M,M,M,M,M,M,M,M,87.21,KDRA 251753Z AUTO VRB03KT 10SM CLR 32/13 A3010 RMK AO2 SLP137 T03170128 10322 20233 50007,M
VGT,2022-08-25 17:53,-115.1933,36.2111,667.00,90.00,58.00,33.99,150.00,6.00,0.00,30.04,1016.10,10.00,M,CLR,M,M,M,M,M,M,M,M,M,M,M,M,M,M,88.89,KVGT 251753Z 15006KT 10SM CLR 32/14 A3004 RMK AO2 SLP161 T03220144 10328 20272 50007,M
RTS,2022-08-25 17:55,-119.8764,39.6682,1539.00,82.40,26.60,12.97,0.00,0.00,0.00,30.20,M,10.00,M,CLR,M,M,M,M,M,M,M,M,M,M,M,M,M,M,79.92,KRTS 251755Z AUTO 00000KT 10SM CLR 28/M03 A3020 RMK AO2,M
TMT,2022-08-25 17:55,-117.1971,39.4643,1749.34,M,M,M,0.00,0.00,0.00,30.25,M,10.00,M,CLR,M,M,M,M,M,M,M,M,M,M,M,M,M,M,M,KTMT 251755Z AUTO 00000KT 10SM CLR A3025 RMK AO2,M
CXP,2022-08-25 17:55,-119.7326,39.1923,1431.00,86.00,35.60,16.63,0.00,0.00,0.00,30.17,M,10.00,M,CLR,M,M,M,M,M,M,M,M,M,M,M,M,M,M,82.69,KCXP 251755Z AUTO 00000KT 10SM CLR 30/02 A3017 RMK AO2,M
HTH,2022-08-25 17:55,-118.6315,38.5448,1282.89,86.00,39.20,19.15,M,3.00,0.00,30.13,M,10.00,M,CLR,M,M,M,M,M,M,M,M,M,M,M,M,M,M,82.79,KHTH 251755Z AUTO VRB03KT 10SM CLR 30/04 A3013 RMK A01,M
MEV,2022-08-25 17:55,-119.7500,38.9963,1441.42,86.00,35.60,16.63,200.00,4.00,0.00,30.16,M,10.00,M,CLR,M,M,M,M,M,M,M,M,M,M,M,M,M,M,82.69,KMEV 251755Z AUTO 20004KT 10SM CLR 30/02 A3016 RMK AO2,M
BAM,2022-08-25 17:55,-116.8743,40.5990,1382.36,87.80,32.00,13.59,0.00,0.00,0.00,30.15,M,10.00,M,CLR,M,M,M,M,M,M,M,M,M,M,M,M,M,M,84.08,KBAM 251755Z AUTO 00000KT 10SM CLR 31/00 A3015 RMK AO1,M
RNO,2022-08-25 17:55,-119.7711,39.4839,1341.00,84.00,38.00,19.41,80.00,4.00,0.00,30.14,1014.40,10.00,M,CLR,M,M,M,M,M,M,M,M,M,M,M,M,M,M,81.25,KRNO 251755Z 08004KT 10SM CLR 29/03 A3014 RMK AO2 SLP144 T02890033 10289 20156 58004,M
BVU,2022-08-25 17:55,-114.8611,35.9475,671.00,89.60,55.40,31.45,90.00,7.00,0.00,30.05,M,M,M,M,M,M,M,M,M,M,M,M,M,M,M,M,M,M,87.78,KBVU 251755Z AUTO 09007KT 32/13 A3005 RMK AO2 PWINO TSNO,M
WMC,2022-08-25 17:56,-117.8072,40.9019,1315.00,91.00,19.90,7.44,240.00,8.00,0.00,30.12,1014.60,10.00,M,CLR,M,M,M,M,M,M,M,M,M,M,M,M,M,M,85.59,KWMC 251756Z AUTO 24008KT 10SM CLR 33/M07 A3012 RMK AO2 SLP146 T03281067 10328 20111 50001 $,M
LAS,2022-08-25 17:56,-115.1634,36.0719,663.00,88.00,59.00,37.66,100.00,6.00,0.00,30.05,1014.80,10.00,M,FEW,BKN,M,M,11000.00,15000.00,M,M,M,M,M,M,M,M,M,87.31,KLAS 251756Z 10006KT 10SM FEW110 BKN150 31/15 A3005 RMK AO2 SLP148 T03110150 10317 20261 50007,M
INS,2022-08-25 17:56,-115.6733,36.5872,955.00,88.00,52.70,29.97,330.00,3.00,0.00,30.09,1013.70,10.00,M,CLR,M,M,M,M,M,M,M,M,M,M,M,M,M,M,85.72,KINS 251756Z AUTO 33003KT 10SM CLR 31/12 A3009 RMK AO2 SLP137 T03110115 10311 20233 50006 $,M
LSV,2022-08-25 17:56,-115.0343,36.2362,570.00,93.20,58.80,31.77,160.00,3.00,0.00,30.02,1014.00,10.00,M,FEW,M,M,M,19000.00,M,M,M,M,M,M,M,M,M,M,92.49,KLSV 251756Z AUTO 16003KT 10SM FEW190 34/15 A3002 RMK AO2 SLP140 T03400149 10340 20260 50006 $,M
NFL,2022-08-25 17:56,-118.7010,39.4166,1199.00,87.00,30.00,12.82,0.00,0.00,0.00,30.11,1016.10,10.00,M,CLR,M,M,M,M,M,M,M,M,M,M,M,M,M,M,83.48,KNFL 251756Z 00000KT 10SM CLR 31/M01 A3011 RMK AO2 SLP161 T03061011 10306 20150 50002,M
TPH,2022-08-25 17:56,-117.0904,38.0505,1654.00,81.00,51.00,35.38,M,5.00,0.00,30.24,1015.30,10.00,M,CLR,M,M,M,M,M,M,M,M,M,M,M,M,M,M,80.23,KTPH 251756Z AUTO VRB05KT 10SM CLR 27/11 A3024 RMK AO2 SLP153 T02720106 10272 20172,M
EKO,2022-08-25 17:56,-115.7860,40.8242,1367.00,77.00,39.00,25.47,210.00,5.00,0.00,30.18,1016.80,10.00,M,CLR,M,M,M,M,M,M,M,M,M,M,M,M,M,M,77.00,KEKO 251756Z AUTO 21005KT 10SM CLR 25/04 A3018 RMK AO2 SLP168 T02500039 10256 20061 58004,M
CXP,2022-08-25 18:15,-119.7326,39.1923,1431.00,89.60,32.00,12.84,170.00,8.00,0.00,30.16,M,10.00,13.00,CLR,M,M,M,M,M,M,M,M,M,M,M,M,M,M,85.54,KCXP 251815Z AUTO 17008G13KT 10SM CLR 32/M00 A3016 RMK AO2,M
BVU,2022-08-25 18:15,-114.8611,35.9475,671.00,89.60,55.40,31.45,110.00,7.00,0.00,30.05,M,M,M,M,M,M,M,M,M,M,M,M,M,M,M,M,M,M,87.78,KBVU 251815Z AUTO 11007KT 32/13 A3005 RMK AO2 PWINO TSNO,M
TMT,2022-08-25 18:15,-117.1971,39.4643,1749.34,M,M,M,0.00,0.00,0.00,30.24,M,10.00,M,CLR,M,M,M,M,M,M,M,M,M,M,M,M,M,M,M,KTMT 251815Z AUTO 00000KT 10SM CLR A3024 RMK AO2,M
HTH,2022-08-25 18:15,-118.6315,38.5448,1282.89,86.00,37.40,17.85,M,4.00,0.00,30.13,M,10.00,M,CLR,M,M,M,M,M,M,M,M,M,M,M,M,M,M,82.73,KHTH 251815Z AUTO VRB04KT 10SM CLR 30/03 A3013 RMK A01,M
BAM,2022-08-25 18:15,-116.8743,40.5990,1382.36,89.60,30.20,11.94,160.00,6.00,0.00,30.15,M,10.00,M,CLR,M,M,M,M,M,M,M,M,M,M,M,M,M,M,85.34,KBAM 251815Z AUTO 16006KT 10SM CLR 32/M01 A3015 RMK AO1,M
MEV,2022-08-25 18:15,-119.7500,38.9963,1441.42,86.00,37.40,17.85,M,3.00,0.00,30.15,M,10.00,M,CLR,M,M,M,M,M,M,M,M,M,M,M,M,M,M,82.73,KMEV 251815Z AUTO VRB03KT 10SM CLR 30/03 A3015 RMK AO2,M
RTS,2022-08-25 18:15,-119.8764,39.6682,1539.00,84.20,28.40,13.18,0.00,0.00,0.00,30.19,M,10.00,M,CLR,M,M,M,M,M,M,M,M,M,M,M,M,M,M,81.25,KRTS 251815Z AUTO 00000KT 10SM CLR 29/M02 A3019 RMK AO2,M
RTS,2022-08-25 18:35,-119.8764,39.6682,1539.00,86.00,26.60,11.55,200.00,8.00,0.00,30.19,M,10.00,M,CLR,M,M,M,M,M,M,M,M,M,M,M,M,M,M,82.39,KRTS 251835Z AUTO 20008KT 150V220 10SM CLR 30/M03 A3019 RMK AO2,M
BVU,2022-08-25 18:35,-114.8611,35.9475,671.00,89.60,55.40,31.45,90.00,7.00,0.00,30.04,M,M,M,M,M,M,M,M,M,M,M,M,M,M,M,M,M,M,87.78,KBVU 251835Z AUTO 09007KT 32/13 A3004 RMK AO2 PWINO TSNO,M
HTH,2022-08-25 18:35,-118.6315,38.5448,1282.89,87.80,33.80,14.61,0.00,0.00,0.00,30.12,M,10.00,M,CLR,M,M,M,M,M,M,M,M,M,M,M,M,M,M,84.10,KHTH 251835Z AUTO 00000KT 10SM CLR 31/01 A3012 RMK A01,M
TMT,2022-08-25 18:35,-117.1971,39.4643,1749.34,M,M,M,280.00,4.00,0.00,30.24,M,10.00,M,CLR,M,M,M,M,M,M,M,M,M,M,M,M,M,M,M,KTMT 251835Z AUTO 28004KT 10SM CLR A3024 RMK AO2,M
BAM,2022-08-25 18:35,-116.8743,40.5990,1382.36,89.60,28.40,11.09,120.00,3.00,0.00,30.14,M,10.00,M,CLR,M,M,M,M,M,M,M,M,M,M,M,M,M,M,85.17,KBAM 251835Z AUTO 12003KT 10SM CLR 32/M02 A3014 RMK AO1,M
MEV,2022-08-25 18:35,-119.7500,38.9963,1441.42,89.60,35.60,14.83,M,6.00,0.00,30.15,M,10.00,M,CLR,M,M,M,M,M,M,M,M,M,M,M,M,M,M,85.62,KMEV 251835Z AUTO VRB06KT 10SM CLR 32/02 A3015 RMK AO2,M
CXP,2022-08-25 18:35,-119.7326,39.1923,1431.00,89.60,30.20,11.94,170.00,5.00,0.00,30.16,M,10.00,12.00,CLR,M,M,M,M,M,M,M,M,M,M,M,M,M,M,85.34,KCXP 251835Z AUTO 17005G12KT 10SM CLR 32/M01 A3016 RMK AO2,M
TMT,2022-08-25 18:50,-117.1971,39.4643,1749.34,M,M,M,280.00,4.00,0.00,30.24,M,10.00,M,CLR,M,M,M,M,M,M,M,M,M,M,M,M,M,M,M,KTMT 251850Z AUTO 28004KT 10SM CLR A3024 RMK AO2 LTG DSNT S,M
LOL,2022-08-25 18:53,-118.5701,40.0684,1192.43,91.00,28.90,10.84,M,6.00,0.00,30.09,1014.60,10.00,M,CLR,M,M,M,M,M,M,M,M,M,M,M,M,M,M,86.27,KLOL 251853Z AUTO VRB06KT 10SM CLR 33/M02 A3009 RMK AO2 SLP146 T03281017,M
ELY,2022-08-25 18:53,-114.8453,39.2950,1909.00,83.00,42.00,23.68,300.00,8.00,0.00,30.26,1013.90,10.00,M,CLR,M,M,M,M,M,M,M,M,M,M,M,M,M,M,80.68,KELY 251853Z AUTO 30008KT 10SM CLR 28/06 A3026 RMK AO2 SLP139 T02830056,M
VGT,2022-08-25 18:53,-115.1933,36.2111,667.00,92.00,58.00,32.03,120.00,8.00,0.00,30.03,1015.40,10.00,M,CLR,M,M,M,M,M,M,M,M,M,M,M,M,M,M,90.80,KVGT 251853Z 12008KT 10SM CLR 33/14 A3003 RMK AO2 LTG DSNT N SLP154 T03330144,M
P68,2022-08-25 18:53,-116.0056,39.6014,1993.00,83.00,25.00,11.94,130.00,3.00,0.00,30.23,1014.60,M,M,M,M,M,M,M,M,M,M,M,M,M,M,M,M,M,80.13,KP68 251853Z AUTO 13003KT 28/M04 A3023 RMK AO1 SLP146 T02831039,M
DRA,2022-08-25 18:53,-116.0278,36.6206,1009.00,93.00,55.00,27.87,200.00,8.00,0.00,30.08,1012.90,10.00,M,CLR,M,M,M,M,M,M,M,M,M,M,M,M,M,M,91.03,KDRA 251853Z AUTO 20008KT 170V230 10SM CLR 34/13 A3008 RMK AO2 SLP129 T03390128,M
LSV,2022-08-25 18:55,-115.0343,36.2362,570.00,98.00,59.40,27.92,180.00,4.00,0.00,30.00,1013.10,10.00,M,CLR,M,M,M,M,M,M,M,M,M,M,M,M,M,M,98.14,KLSV 251855Z AUTO 18004KT 10SM CLR 37/15 A3000 RMK AO2 SLP131 T03670152 $,M
BVU,2022-08-25 18:55,-114.8611,35.9475,671.00,91.40,55.40,29.72,140.00,7.00,0.00,30.03,M,M,M,M,M,M,M,M,M,M,M,M,M,M,M,M,M,M,89.53,KBVU 251855Z AUTO 14007KT 33/13 A3003 RMK AO2 PWINO TSNO,M
INS,2022-08-25 18:55,-115.6733,36.5872,955.00,89.60,52.20,27.97,140.00,4.00,0.00,30.07,1013.00,10.00,M,CLR,M,M,M,M,M,M,M,M,M,M,M,M,M,M,87.07,KINS 251855Z AUTO 14004KT 10SM CLR 32/11 A3007 RMK AO2 SLP130 T03200112 $,M
HTH,2022-08-25 18:55,-118.6315,38.5448,1282.89,89.60,33.80,13.80,M,4.00,0.00,30.12,M,10.00,M,CLR,M,M,M,M,M,M,M,M,M,M,M,M,M,M,85.59,KHTH 251855Z AUTO VRB04KT 10SM CLR 32/01 A3012 RMK A01,M
BAM,2022-08-25 18:55,-116.8743,40.5990,1382.36,91.40,28.40,10.48,160.00,6.00,0.00,30.13,M,10.00,M,CLR,M,M,M,M,M,M,M,M,M,M,M,M,M,M,86.53,KBAM 251855Z AUTO 16006KT 10SM CLR 33/M02 A3013 RMK AO1,M
MEV,2022-08-25 18:55,-119.7500,38.9963,1441.42,89.60,35.60,14.83,190.00,8.00,0.00,30.14,M,10.00,M,CLR,M,M,M,M,M,M,M,M,M,M,M,M,M,M,85.62,KMEV 251855Z AUTO 19008KT 10SM CLR 32/02 A3014 RMK AO2,M
RTS,2022-08-25 18:55,-119.8764,39.6682,1539.00,87.80,24.80,10.12,220.00,14.00,0.00,30.18,M,10.00,20.00,CLR,M,M,M,M,M,M,M,M,M,M,M,M,M,M,83.56,KRTS 251855Z AUTO 22014G20KT 190V260 10SM CLR 31/M04 A3018 RMK AO2,M
RNO,2022-08-25 18:55,-119.7711,39.4839,1341.00,90.00,37.00,15.48,330.00,3.00,0.00,30.13,1013.80,10.00,M,CLR,M,M,M,M,M,M,M,M,M,M,M,M,M,M,86.00,KRNO 251855Z 33003KT 10SM CLR 32/03 A3013 RMK AO2 SLP138 T03220028,M
CXP,2022-08-25 18:55,-119.7326,39.1923,1431.00,91.40,30.20,11.28,160.00,7.00,0.00,30.15,M,10.00,15.00,CLR,M,M,M,M,M,M,M,M,M,M,M,M,M,M,86.71,KCXP 251855Z AUTO 16007G15KT 120V180 10SM CLR 33/M01 A3015 RMK AO2,M
LAS,2022-08-25 18:56,-115.1634,36.0719,663.00,92.00,59.00,33.31,70.00,7.00,0.00,30.03,1014.00,10.00,M,FEW,SCT,M,M,11000.00,15000.00,M,M,M,M,M,M,M,M,M,91.20,KLAS 251856Z 07007KT 10SM FEW110 SCT150 33/15 A3003 RMK AO2 SLP140 CB DSNT S AND NW-N T03330150,M
TPH,2022-08-25 18:56,-117.0904,38.0505,1654.00,83.00,49.00,30.65,M,4.00,0.00,30.23,1015.00,10.00,M,CLR,M,M,M,M,M,M,M,M,M,M,M,M,M,M,81.20,KTPH 251856Z AUTO VRB04KT 10SM CLR 28/09 A3023 RMK AO2 SLP150 T02830094,M
EKO,2022-08-25 18:56,-115.7860,40.8242,1367.00,82.00,32.00,16.38,210.00,7.00,0.00,30.17,1015.40,10.00,M,CLR,M,M,M,M,M,M,M,M,M,M,M,M,M,M,79.73,KEKO 251856Z AUTO 21007KT 10SM CLR 28/00 A3017 RMK AO2 SLP154 T02780000,M
WMC,2022-08-25 18:56,-117.8072,40.9019,1315.00,93.00,24.10,8.35,220.00,12.00,0.00,30.11,1014.50,10.00,19.00,CLR,M,M,M,M,M,M,M,M,M,M,M,M,M,M,87.36,KWMC 251856Z AUTO 22012G19KT 10SM CLR 34/M04 A3011 RMK AO2 SLP145 T03391044,M
NFL,2022-08-25 18:56,-118.7010,39.4166,1199.00,91.00,30.90,11.76,190.00,4.00,0.00,30.09,1015.70,10.00,M,FEW,M,M,M,10000.00,M,M,M,M,M,M,M,M,M,M,86.48,KNFL 251856Z 19004KT 10SM FEW100 33/M01 A3009 RMK AO2 SLP157 T03281006,M
MEV,2022-08-25 19:15,-119.7500,38.9963,1441.42,89.60,32.00,12.84,300.00,4.00,0.00,30.14,M,10.00,M,CLR,M,M,M,M,M,M,M,M,M,M,M,M,M,M,85.54,KMEV 251915Z AUTO 30004KT 10SM CLR 32/00 A3014 RMK AO2,M
BVU,2022-08-25 19:15,-114.8611,35.9475,671.00,93.20,53.60,26.31,90.00,6.00,0.00,30.03,M,M,M,M,M,M,M,M,M,M,M,M,M,M,M,M,M,M,90.86,KBVU 251915Z AUTO 09006KT 34/12 A3003 RMK AO2 PWINO TSNO,M
CXP,2022-08-25 19:15,-119.7326,39.1923,1431.00,93.20,32.00,11.48,M,6.00,0.00,30.15,M,10.00,15.00,CLR,M,M,M,M,M,M,M,M,M,M,M,M,M,M,88.31,KCXP 251915Z AUTO VRB06G15KT 10SM CLR 34/M00 A3015 RMK AO2,M
RTS,2022-08-25 19:15,-119.8764,39.6682,1539.00,89.60,23.00,8.87,220.00,12.00,0.00,30.17,M,10.00,18.00,CLR,M,M,M,M,M,M,M,M,M,M,M,M,M,M,84.75,KRTS 251915Z AUTO 22012G18KT 10SM CLR 32/M05 A3017 RMK AO2,M
BAM,2022-08-25 19:15,-116.8743,40.5990,1382.36,95.00,26.60,8.71,210.00,7.00,0.00,30.13,M,10.00,M,CLR,M,M,M,M,M,M,M,M,M,M,M,M,M,M,89.08,KBAM 251915Z AUTO 21007KT 10SM CLR 35/M03 A3013 RMK AO1,M
HTH,2022-08-25 19:15,-118.6315,38.5448,1282.89,89.60,33.80,13.80,300.00,5.00,0.00,30.11,M,10.00,M,CLR,M,M,M,M,M,M,M,M,M,M,M,M,M,M,85.59,KHTH 251915Z AUTO 30005KT 10SM CLR 32/01 A3011 RMK A01,M
TMT,2022-08-25 19:15,-117.1971,39.4643,1749.34,M,M,M,310.00,3.00,0.00,30.23,M,10.00,M,CLR,M,M,M,M,M,M,M,M,M,M,M,M,M,M,M,KTMT 251915Z AUTO 31003KT 10SM CLR A3023 RMK AO2,M
HTH,2022-08-25 19:35,-118.6315,38.5448,1282.89,91.40,33.80,13.05,340.00,6.00,0.00,30.10,M,10.00,M,CLR,M,M,M,M,M,M,M,M,M,M,M,M,M,M,87.13,KHTH 251935Z AUTO 34006KT 10SM CLR 33/01 A3010 RMK A01,M
BVU,2022-08-25 19:35,-114.8611,35.9475,671.00,93.20,53.60,26.31,70.00,6.00,0.00,30.02,M,M,15.00,M,M,M,M,M,M,M,M,M,M,M,M,M,M,M,90.86,KBVU 251935Z AUTO 07006G15KT 34/12 A3002 RMK AO2 PWINO TSNO,M
CXP,2022-08-25 19:35,-119.7326,39.1923,1431.00,93.20,30.20,10.67,0.00,0.00,0.00,30.15,M,9.00,10.00,CLR,M,M,M,M,M,M,M,M,M,M,M,M,M,M,88.09,KCXP 251935Z AUTO 00000G10KT 9SM CLR 34/M01 A3015 RMK AO2,M
RTS,2022-08-25 19:35,-119.8764,39.6682,1539.00,89.60,21.20,8.22,230.00,13.00,0.00,30.17,M,10.00,21.00,CLR,M,M,M,M,M,M,M,M,M,M,M,M,M,M,84.64,KRTS 251935Z AUTO 23013G21KT 10SM CLR 32/M06 A3017 RMK AO2,M
TMT,2022-08-25 19:35,-117.1971,39.4643,1749.34,M,M,M,150.00,6.00,0.00,30.22,M,10.00,M,CLR,M,M,M,M,M,M,M,M,M,M,M,M,M,M,M,KTMT 251935Z AUTO 15006KT 10SM CLR A3022 RMK AO2,M
MEV,2022-08-25 19:35,-119.7500,38.9963,1441.42,91.40,30.20,11.28,170.00,6.00,0.00,30.13,M,10.00,M,CLR,M,M,M,M,M,M,M,M,M,M,M,M,M,M,86.71,KMEV 251935Z AUTO 17006KT 10SM CLR 33/M01 A3013 RMK AO2,M
BAM,2022-08-25 19:35,-116.8743,40.5990,1382.36,95.00,28.40,9.38,230.00,6.00,0.00,30.12,M,10.00,14.00,CLR,M,M,M,M,M,M,M,M,M,M,M,M,M,M,89.27,KBAM 251935Z AUTO 23006G14KT 210V270 10SM CLR 35/M02 A3012 RMK AO1,M
LOL,2022-08-25 19:53,-118.5701,40.0684,1192.43,94.00,28.00,9.54,280.00,8.00,0.00,30.07,1014.00,10.00,14.00,CLR,M,M,M,M,M,M,M,M,M,M,M,M,M,M,88.39,KLOL 251953Z AUTO 28008G14KT 10SM CLR 34/M02 A3007 RMK AO2 SLP140 T03441022,M
VGT,2022-08-25 19:53,-115.1933,36.2111,667.00,94.00,56.00,28.00,140.00,6.00,0.00,30.01,1014.80,10.00,M,CLR,M,M,M,M,M,M,M,M,M,M,M,M,M,M,92.22,KVGT 251953Z 14006KT 10SM CLR 34/13 A3001 RMK AO2 LTG DSNT N AND W SLP148 T03440133,M
ELY,2022-08-25 19:53,-114.8453,39.2950,1909.00,85.00,40.00,20.39,M,3.00,0.00,30.22,1012.50,10.00,M,CLR,M,M,M,M,M,M,M,M,M,M,M,M,M,M,81.98,KELY 251953Z AUTO VRB03KT 10SM CLR 29/04 A3022 RMK AO2 LTG DSNT SE AND S SLP125 T02940044,M
P68,2022-08-25 19:53,-116.0056,39.6014,1993.00,86.00,21.90,9.49,M,3.00,0.00,30.21,1013.80,M,M,M,M,M,M,M,M,M,M,M,M,M,M,M,M,M,82.08,KP68 251953Z AUTO VRB03KT 30/M06 A3021 RMK AO1 SLP138 T03001056,M
DRA,2022-08-25 19:53,-116.0278,36.6206,1009.00,94.00,55.00,27.10,M,M,0.00,30.06,1012.10,10.00,M,FEW,M,M,M,7500.00,M,M,M,M,M,M,M,M,M,M,91.95,KDRA 251953Z AUTO 10SM FEW075 34/13 A3006 RMK AO2 SLP121 T03440128,M
BVU,2022-08-25 19:55,-114.8611,35.9475,671.00,93.20,53.60,26.31,M,6.00,0.00,30.02,M,M,M,M,M,M,M,M,M,M,M,M,M,M,M,M,M,M,90.86,KBVU 251955Z AUTO VRB06KT 34/12 A3002 RMK AO2 PWINO TSNO,M
RNO,2022-08-25 19:55,-119.7711,39.4839,1341.00,92.00,36.00,14.02,120.00,4.00,0.00,30.11,1013.20,10.00,M,FEW,M,M,M,10000.00,M,M,M,M,M,M,M,M,M,M,87.62,KRNO 251955Z 12004KT 10SM FEW100 33/02 A3011 RMK AO2 SLP132 T03330022,M
TMT,2022-08-25 19:55,-117.1971,39.4643,1749.34,M,M,M,70.00,4.00,0.00,30.22,M,10.00,M,CLR,M,M,M,M,M,M,M,M,M,M,M,M,M,M,M,KTMT 251955Z AUTO 07004KT 10SM CLR A3022 RMK AO2 LTG DSNT S,M
LSV,2022-08-25 19:55,-115.0343,36.2362,570.00,101.00,58.60,24.77,30.00,5.00,0.00,29.99,1012.90,10.00,M,CLR,M,M,M,M,M,M,M,M,M,M,M,M,M,M,101.17,KLSV 251955Z AUTO 03005KT 10SM CLR 38/15 A2999 RMK AO2 SLP129 T03840148 $,M
HTH,2022-08-25 19:55,-118.6315,38.5448,1282.89,91.40,32.00,12.14,320.00,8.00,0.00,30.09,M,10.00,M,CLR,M,M,M,M,M,M,M,M,M,M,M,M,M,M,86.91,KHTH 251955Z AUTO 32008KT 290V350 10SM CLR 33/M00 A3009 RMK A01,M
BAM,2022-08-25 19:55,-116.8743,40.5990,1382.36,95.00,28.40,9.38,240.00,6.00,0.00,30.11,M,10.00,M,CLR,M,M,M,M,M,M,M,M,M,M,M,M,M,M,89.27,KBAM 251955Z AUTO 24006KT 200V280 10SM CLR 35/M02 A3011 RMK AO1,M
MEV,2022-08-25 19:55,-119.7500,38.9963,1441.42,91.40,28.40,10.48,M,4.00,0.00,30.13,M,10.00,M,CLR,M,M,M,M,M,M,M,M,M,M,M,M,M,M,86.53,KMEV 251955Z AUTO VRB04KT 10SM CLR 33/M02 A3013 RMK AO2,M
RTS,2022-08-25 19:55,-119.8764,39.6682,1539.00,89.60,23.00,8.87,260.00,11.00,0.00,30.17,M,10.00,22.00,CLR,M,M,M,M,M,M,M,M,M,M,M,M,M,M,84.75,KRTS 251955Z AUTO 26011G22KT 210V300 10SM CLR 32/M05 A3017 RMK AO2,M
INS,2022-08-25 19:55,-115.6733,36.5872,955.00,92.00,50.00,23.84,80.00,9.00,0.00,30.05,1012.30,10.00,M,CLR,M,M,M,M,M,M,M,M,M,M,M,M,M,M,89.03,KINS 251955Z AUTO 08009KT 10SM CLR 33/10 A3005 RMK AO2 SLP123 T03340100 $,M
CXP,2022-08-25 19:55,-119.7326,39.1923,1431.00,93.20,28.40,9.91,250.00,9.00,0.00,30.14,M,10.00,18.00,CLR,M,M,M,M,M,M,M,M,M,M,M,M,M,M,87.89,KCXP 251955Z AUTO 25009G18KT 10SM CLR 34/M02 A3014 RMK AO2,M
EKO,2022-08-25 19:56,-115.7860,40.8242,1367.00,85.00,28.90,13.15,210.00,8.00,0.00,30.15,1014.80,10.00,M,CLR,M,M,M,M,M,M,M,M,M,M,M,M,M,M,81.78,KEKO 251956Z AUTO 21008KT 10SM CLR 29/M02 A3015 RMK AO2 SLP148 T02941017,M
NFL,2022-08-25 19:56,-118.7010,39.4166,1199.00,93.00,30.90,11.04,320.00,8.00,0.00,30.07,1015.10,10.00,M,SCT,M,M,M,8000.00,M,M,M,M,M,M,M,M,M,M,88.02,KNFL 251956Z 32008KT 10SM SCT080 34/M01 A3007 RMK AO2 SLP151 T03391006,M
TPH,2022-08-25 19:56,-117.0904,38.0505,1654.00,87.00,46.00,24.02,180.00,11.00,0.00,30.20,1013.60,10.00,14.00,CLR,M,M,M,M,M,M,M,M,M,M,M,M,M,M,84.07,KTPH 251956Z AUTO 18011G14KT 10SM CLR 31/08 A3020 RMK AO2 SLP136 T03060078,M
WMC,2022-08-25 19:56,-117.8072,40.9019,1315.00,94.00,24.10,8.12,290.00,9.00,0.00,30.10,1013.70,10.00,M,CLR,M,M,M,M,M,M,M,M,M,M,M,M,M,M,88.03,KWMC 251956Z AUTO 29009KT 260V320 10SM CLR 34/M04 A3010 RMK AO2 SLP137 T03441044,M
LAS,2022-08-25 19:56,-115.1634,36.0719,663.00,94.00,57.00,29.14,80.00,9.00,0.00,30.02,1013.60,10.00,M,FEW,SCT,SCT,M,11000.00,15000.00,25000.00,M,M,M,M,M,M,M,M,92.58,KLAS 251956Z 08009KT 10SM FEW110 SCT150 SCT250 34/14 A3002 RMK AO2 SLP136 CB DSNT S AND W-N T03440139,M
ELY,2022-08-25 20:10,-114.8453,39.2950,1909.00,87.00,38.00,17.58,M,3.00,0.00,30.22,M,10.00,M,CLR,M,M,M,M,M,M,M,VCTS,M,M,M,M,M,M,83.61,KELY 252010Z AUTO VRB03KT 10SM VCTS CLR 31/03 A3022 RMK AO2 LTG DSNT E AND S T03060033,M
MEV,2022-08-25 20:15,-119.7500,38.9963,1441.42,91.40,28.40,10.48,M,4.00,0.00,30.12,M,10.00,11.00,CLR,M,M,M,M,M,M,M,M,M,M,M,M,M,M,86.53,KMEV 252015Z AUTO VRB04G11KT 10SM CLR 33/M02 A3012 RMK AO2,M
RTS,2022-08-25 20:15,-119.8764,39.6682,1539.00,89.60,19.40,7.61,200.00,12.00,0.00,30.16,M,10.00,19.00,CLR,M,M,M,M,M,M,M,M,M,M,M,M,M,M,84.54,KRTS 252015Z AUTO 20012G19KT 10SM CLR 32/M07 A3016 RMK AO2,M
BAM,2022-08-25 20:15,-116.8743,40.5990,1382.36,95.00,28.40,9.38,230.00,13.00,0.00,30.10,M,10.00,16.00,CLR,M,M,M,M,M,M,M,M,M,M,M,M,M,M,89.27,KBAM 252015Z AUTO 23013G16KT 180V240 10SM CLR 35/M02 A3010 RMK AO1,M
HTH,2022-08-25 20:15,-118.6315,38.5448,1282.89,91.40,32.00,12.14,M,4.00,0.00,30.08,M,10.00,11.00,CLR,M,M,M,M,M,M,M,M,M,M,M,M,M,M,86.91,KHTH 252015Z AUTO VRB04G11KT 10SM CLR 33/M00 A3008 RMK A01,M
BVU,2022-08-25 20:15,-114.8611,35.9475,671.00,93.20,53.60,26.31,M,3.00,0.00,30.01,M,M,M,M,M,M,M,M,M,M,M,M,M,M,M,M,M,M,90.86,KBVU 252015Z AUTO VRB03KT 34/12 A3001 RMK AO2 PWINO TSNO,M
TMT,2022-08-25 20:15,-117.1971,39.4643,1749.34,M,M,M,290.00,8.00,0.00,30.21,M,10.00,M,CLR,M,M,M,M,M,M,M,M,M,M,M,M,M,M,M,KTMT 252015Z AUTO 29008KT 10SM CLR A3021 RMK AO2,M
CXP,2022-08-25 20:15,-119.7326,39.1923,1431.00,91.40,28.40,10.48,280.00,10.00,0.00,30.13,M,10.00,17.00,CLR,M,M,M,M,M,M,M,M,M,M,M,M,M,M,86.53,KCXP 252015Z AUTO 28010G17KT 10SM CLR 33/M02 A3013 RMK AO2,M
INS,2022-08-25 20:32,-115.6733,36.5872,955.00,93.20,50.00,23.04,60.00,11.00,0.00,30.03,1011.50,10.00,15.00,CLR,M,M,M,M,M,M,M,M,M,M,M,M,M,M,90.10,KINS 252032Z AUTO 06011G15KT 10SM CLR 34/10 A3003 RMK AO2 WSHFT 28 LTG DSNT SW SLP115 $,M
MEV,2022-08-25 20:35,-119.7500,38.9963,1441.42,93.20,30.20,10.67,280.00,12.00,0.00,30.12,M,10.00,M,CLR,M,M,M,M,M,M,M,M,M,M,M,M,M,M,88.09,KMEV 252035Z AUTO 28012KT 10SM CLR 34/M01 A3012 RMK AO2,M
BVU,2022-08-25 20:35,-114.8611,35.9475,671.00,95.00,51.80,23.30,90.00,6.00,0.00,30.00,M,M,M,M,M,M,M,M,M,M,M,M,M,M,M,M,M,M,92.26,KBVU 252035Z AUTO 09006KT 35/11 A3000 RMK AO2 PWINO TSNO,M
TMT,2022-08-25 20:35,-117.1971,39.4643,1749.34,M,M,M,30.00,5.00,0.00,30.20,M,10.00,M,CLR,M,M,M,M,M,M,M,M,M,M,M,M,M,M,M,KTMT 252035Z AUTO 03005KT 10SM CLR A3020 RMK AO2,M
CXP,2022-08-25 20:35,-119.7326,39.1923,1431.00,93.20,30.20,10.67,290.00,8.00,0.00,30.13,M,10.00,16.00,CLR,M,M,M,M,M,M,M,M,M,M,M,M,M,M,88.09,KCXP 252035Z AUTO 29008G16KT 10SM CLR 34/M01 A3013 RMK AO2,M
HTH,2022-08-25 20:35,-118.6315,38.5448,1282.89,93.20,32.00,11.48,50.00,7.00,0.00,30.07,M,10.00,M,CLR,M,M,M,M,M,M,M,M,M,M,M,M,M,M,88.31,KHTH 252035Z AUTO 05007KT 330V080 10SM CLR 34/M00 A3007 RMK A01,M
BAM,2022-08-25 20:35,-116.8743,40.5990,1382.36,93.20,28.40,9.91,270.00,4.00,0.00,30.10,M,10.00,M,CLR,M,M,M,M,M,M,M,M,M,M,M,M,M,M,87.89,KBAM 252035Z AUTO 27004KT 10SM CLR 34/M02 A3010 RMK AO1,M
RTS,2022-08-25 20:35,-119.8764,39.6682,1539.00,87.80,26.60,10.91,290.00,10.00,0.00,30.16,M,10.00,15.00,CLR,M,M,M,M,M,M,M,M,M,M,M,M,M,M,83.69,KRTS 252035Z AUTO 29010G15KT 10SM CLR 31/M03 A3016 RMK AO2,M
INS,2022-08-25 20:49,-115.6733,36.5872,955.00,93.20,50.00,23.04,130.00,14.00,0.00,30.02,1011.10,10.00,20.00,CLR,M,M,M,M,M,M,M,M,M,M,M,M,M,M,90.10,KINS 252049Z AUTO 13014G20KT 10SM CLR 34/10 A3002 RMK AO2 WSHFT 42 SLP111 $,M
VGT,2022-08-25 20:53,-115.1933,36.2111,667.00,98.00,56.00,24.61,50.00,7.00,0.00,29.98,1013.80,10.00,M,CLR,M,M,M,M,M,M,M,M,M,M,M,M,M,M,96.72,KVGT 252053Z 05007KT 10SM CLR 37/13 A2998 RMK AO2 LTG DSNT W SLP138 T03670133 58020,M
DRA,2022-08-25 20:53,-116.0278,36.6206,1009.00,93.00,53.00,26.00,130.00,6.00,0.00,30.03,1011.20,10.00,M,SCT,M,M,M,8500.00,M,M,M,M,M,M,M,M,M,M,90.54,KDRA 252053Z AUTO 13006KT 10SM SCT085 34/12 A3003 RMK AO2 SLP112 T03390117 58021,M
LOL,2022-08-25 20:53,-118.5701,40.0684,1192.43,97.00,28.00,8.67,190.00,12.00,0.00,30.05,1013.00,10.00,19.00,CLR,M,M,M,M,M,M,M,M,M,M,M,M,M,M,90.87,KLOL 252053Z AUTO 19012G19KT 10SM CLR 36/M02 A3005 RMK AO2 SLP130 T03611022 58018,M
ELY,2022-08-25 20:53,-114.8453,39.2950,1909.00,84.00,37.00,18.74,100.00,19.00,0.00,30.21,1011.80,10.00,33.00,SCT,M,M,M,10000.00,M,M,M,VCTS,M,M,M,33.00,90.00,2022-08-25 20:44,81.23,KELY 252053Z AUTO 10019G33KT 10SM VCTS SCT100 29/03 A3021 RMK AO2 PK WND 09033/2044 LTG DSNT S SLP118 T02890028 57020,M
P68,2022-08-25 20:53,-116.0056,39.6014,1993.00,87.00,25.00,10.43,120.00,6.00,0.00,30.18,1012.90,M,M,M,M,M,M,M,M,M,M,M,M,M,M,M,M,M,83.06,KP68 252053Z AUTO 12006KT 31/M04 A3018 RMK AO1 SLP129 T03061039 58015,M
INS,2022-08-25 20:55,-115.6733,36.5872,955.00,92.70,49.50,22.97,120.00,8.00,0.00,30.02,1011.10,10.00,18.00,CLR,M,M,M,M,M,M,M,M,M,M,M,M,M,M,89.53,KINS 252055Z AUTO 12008G18KT 10SM CLR 34/10 A3002 RMK AO2 SLP111 T03370097 $,M
CXP,2022-08-25 20:55,-119.7326,39.1923,1431.00,93.20,30.20,10.67,270.00,9.00,0.00,30.13,M,10.00,17.00,CLR,M,M,M,M,M,M,M,M,M,M,M,M,M,M,88.09,KCXP 252055Z AUTO 27009G17KT 220V300 10SM CLR 34/M01 A3013 RMK AO2,M
MEV,2022-08-25 20:55,-119.7500,38.9963,1441.42,93.20,30.20,10.67,250.00,12.00,0.00,30.12,M,10.00,M,CLR,M,M,M,M,M,M,M,M,M,M,M,M,M,M,88.09,KMEV 252055Z AUTO 25012KT 230V290 10SM CLR 34/M01 A3012 RMK AO2,M
BAM,2022-08-25 20:55,-116.8743,40.5990,1382.36,96.80,30.20,9.55,280.00,10.00,0.00,30.09,M,10.00,15.00,CLR,M,M,M,M,M,M,M,M,M,M,M,M,M,M,90.96,KBAM 252055Z AUTO 28010G15KT 10SM CLR 36/M01 A3009 RMK AO1,M
HTH,2022-08-25 20:55,-118.6315,38.5448,1282.89,95.00,30.20,10.09,M,6.00,0.00,30.06,M,10.00,M,CLR,M,M,M,M,M,M,M,M,M,M,M,M,M,M,89.48,KHTH 252055Z AUTO VRB06KT 10SM CLR 35/M01 A3006 RMK A01,M
TMT,2022-08-25 20:55,-117.1971,39.4643,1749.34,M,M,M,0.00,0.00,0.00,30.19,M,10.00,M,CLR,M,M,M,M,M,M,M,M,M,M,M,M,M,M,M,KTMT 252055Z AUTO 00000KT 10SM CLR A3019 RMK AO2,M
BVU,2022-08-25 20:55,-114.8611,35.9475,671.00,95.00,51.80,23.30,M,5.00,0.00,29.99,M,M,M,M,M,M,M,M,M,M,M,M,M,M,M,M,M,M,92.26,KBVU 252055Z AUTO VRB05KT 35/11 A2999 RMK AO2 PWINO TSNO,M
LSV,2022-08-25 20:55,-115.0343,36.2362,570.00,101.30,56.50,22.83,80.00,4.00,0.00,29.96,1011.80,10.00,M,CLR,M,M,M,M,M,M,M,M,M,M,M,M,M,M,100.48,KLSV 252055Z AUTO 08004KT 10SM CLR 39/14 A2996 RMK AO2 SLP118 T03850136 $,M
RNO,2022-08-25 20:55,-119.7711,39.4839,1341.00,93.00,34.00,12.51,M,3.00,0.00,30.09,1012.40,10.00,M,FEW,M,M,M,10000.00,M,M,M,M,M,M,M,M,M,M,88.42,KRNO 252055Z VRB03KT 10SM FEW100 34/01 A3009 RMK AO2 SLP124 T03390011 58017,M
RTS,2022-08-25 20:55,-119.8764,39.6682,1539.00,89.60,24.80,9.56,270.00,9.00,0.00,30.15,M,10.00,M,CLR,M,M,M,M,M,M,M,M,M,M,M,M,M,M,84.88,KRTS 252055Z AUTO 27009KT 250V310 10SM CLR 32/M04 A3015 RMK AO2,M
EKO,2022-08-25 20:56,-115.7860,40.8242,1367.00,90.00,28.90,11.18,210.00,7.00,0.00,30.12,1014.10,10.00,18.00,CLR,M,M,M,M,M,M,M,M,M,M,M,M,M,M,85.52,KEKO 252056Z AUTO 21007G18KT 10SM CLR 32/M02 A3012 RMK AO2 SLP141 T03221017 58019,M
WMC,2022-08-25 20:56,-117.8072,40.9019,1315.00,97.00,27.00,8.32,240.00,13.00,0.00,30.07,1013.00,10.00,23.00,CLR,M,M,M,M,M,M,M,M,M,M,M,M,M,M,90.77,KWMC 252056Z AUTO 24013G23KT 10SM CLR 36/M03 A3007 RMK AO2 SLP130 T03611028 58015,M
LAS,2022-08-25 20:56,-115.1634,36.0719,663.00,96.00,55.00,25.32,80.00,10.00,0.00,29.99,1012.60,10.00,M,FEW,SCT,SCT,M,11000.00,15000.00,25000.00,M,M,M,M,M,M,M,M,94.27,KLAS 252056Z 08010KT 10SM FEW110 SCT150 SCT250 36/13 A2999 RMK AO2 LTG DSNT W SLP126 CB DSNT S AND W-N T03560128 58019,M
NFL,2022-08-25 20:56,-118.7010,39.4166,1199.00,95.00,28.90,9.57,180.00,6.00,0.00,30.04,1014.30,10.00,M,SCT,M,M,M,8000.00,M,M,M,M,M,M,M,M,M,M,89.32,KNFL 252056Z 18006KT 10SM SCT080 35/M02 A3004 RMK AO2 SLP143 T03501017 58019,M
TPH,2022-08-25 20:56,-117.0904,38.0505,1654.00,87.00,43.00,21.42,240.00,7.00,0.00,30.18,1013.00,10.00,M,CLR,M,M,M,M,M,M,M,M,M,M,M,M,M,M,83.84,KTPH 252056Z AUTO 24007KT 10SM CLR 31/06 A3018 RMK AO2 LTG DSNT NE SLP130 T03060061 58019,M
ELY,2022-08-25 21:12,-114.8453,39.2950,1909.00,78.00,39.00,24.56,160.00,22.00,0.00,30.23,M,8.00,36.00,BKN,BKN,M,M,10000.00,12000.00,M,M,VCTS,M,M,M,36.00,170.00,2022-08-25 21:08,78.10,KELY 252112Z AUTO 16022G36KT 8SM VCTS BKN100 BKN120 26/04 A3023 RMK AO2 PK WND 17036/2108 WSHFT 2052 LTG DSNT SE-W T02560039,M
BAM,2022-08-25 21:15,-116.8743,40.5990,1382.36,96.80,30.20,9.55,260.00,11.00,0.00,30.08,M,10.00,18.00,CLR,M,M,M,M,M,M,M,M,M,M,M,M,M,M,90.96,KBAM 252115Z AUTO 26011G18KT 10SM CLR 36/M01 A3008 RMK AO1,M
BVU,2022-08-25 21:15,-114.8611,35.9475,671.00,95.00,50.00,21.79,M,3.00,0.00,29.98,M,M,12.00,M,M,M,M,M,M,M,M,M,M,M,M,M,M,M,91.89,KBVU 252115Z AUTO VRB03G12KT 35/10 A2998 RMK AO2 PWINO TSNO,M
CXP,2022-08-25 21:15,-119.7326,39.1923,1431.00,93.20,30.20,10.67,240.00,10.00,0.00,30.12,M,10.00,18.00,CLR,M,M,M,M,M,M,M,M,M,M,M,M,M,M,88.09,KCXP 252115Z AUTO 24010G18KT 200V270 10SM CLR 34/M01 A3012 RMK AO2,M
RTS,2022-08-25 21:15,-119.8764,39.6682,1539.00,91.40,21.20,7.77,230.00,11.00,0.00,30.15,M,10.00,19.00,CLR,M,M,M,M,M,M,M,M,M,M,M,M,M,M,85.96,KRTS 252115Z AUTO 23011G19KT 10SM CLR 33/M06 A3015 RMK AO2,M
MEV,2022-08-25 21:15,-119.7500,38.9963,1441.42,93.20,30.20,10.67,270.00,14.00,0.00,30.11,M,10.00,M,CLR,M,M,M,M,M,M,M,M,M,M,M,M,M,M,88.09,KMEV 252115Z AUTO 27014KT 10SM CLR 34/M01 A3011 RMK AO2,M
HTH,2022-08-25 21:15,-118.6315,38.5448,1282.89,95.00,30.20,10.09,10.00,8.00,0.00,30.05,M,10.00,M,CLR,M,M,M,M,M,M,M,M,M,M,M,M,M,M,89.48,KHTH 252115Z AUTO 01008KT 10SM CLR 35/M01 A3005 RMK A01,M
TMT,2022-08-25 21:15,-117.1971,39.4643,1749.34,M,M,M,240.00,7.00,0.00,30.18,M,10.00,M,CLR,M,M,M,M,M,M,M,M,M,M,M,M,M,M,M,KTMT 252115Z AUTO 24007KT 180V290 10SM CLR A3018 RMK AO2,M
BAM,2022-08-25 21:35,-116.8743,40.5990,1382.36,96.80,30.20,9.55,0.00,0.00,0.00,30.07,M,10.00,M,CLR,M,M,M,M,M,M,M,M,M,M,M,M,M,M,90.96,KBAM 252135Z AUTO 00000KT 10SM CLR 36/M01 A3007 RMK AO1,M
HTH,2022-08-25 21:35,-118.6315,38.5448,1282.89,95.00,30.20,10.09,M,6.00,0.00,30.04,M,10.00,M,CLR,M,M,M,M,M,M,M,M,M,M,M,M,M,M,89.48,KHTH 252135Z AUTO VRB06KT 10SM CLR 35/M01 A3004 RMK A01,M
CXP,2022-08-25 21:35,-119.7326,39.1923,1431.00,93.20,30.20,10.67,280.00,11.00,0.00,30.12,M,10.00,19.00,CLR,M,M,M,M,M,M,M,M,M,M,M,M,M,M,88.09,KCXP 252135Z AUTO 28011G19KT 10SM CLR 34/M01 A3012 RMK AO2,M
BVU,2022-08-25 21:35,-114.8611,35.9475,671.00,95.00,51.80,23.30,M,4.00,0.00,29.97,M,M,M,M,M,M,M,M,M,M,M,M,M,M,M,M,M,M,92.26,KBVU 252135Z AUTO VRB04KT 35/11 A2997 RMK AO2 PWINO TSNO,M
TMT,2022-08-25 21:35,-117.1971,39.4643,1749.34,M,M,M,310.00,6.00,0.00,30.18,M,10.00,M,CLR,M,M,M,M,M,M,M,M,M,M,M,M,M,M,M,KTMT 252135Z AUTO 31006KT 10SM CLR A3018 RMK AO2,M
RTS,2022-08-25 21:35,-119.8764,39.6682,1539.00,91.40,21.20,7.77,240.00,7.00,0.00,30.15,M,10.00,17.00,CLR,M,M,M,M,M,M,M,M,M,M,M,M,M,M,85.96,KRTS 252135Z AUTO 24007G17KT 210V290 10SM CLR 33/M06 A3015 RMK AO2,M
MEV,2022-08-25 21:35,-119.7500,38.9963,1441.42,93.20,30.20,10.67,310.00,11.00,0.00,30.10,M,10.00,16.00,CLR,M,M,M,M,M,M,M,M,M,M,M,M,M,M,88.09,KMEV 252135Z AUTO 31011G16KT 10SM CLR 34/M01 A3010 RMK AO2,M
CXP,2022-08-25 21:50,-119.7326,39.1923,1431.00,93.20,30.20,10.67,260.00,13.00,0.00,30.12,M,10.00,23.00,CLR,M,M,M,M,M,M,M,M,M,M,M,M,M,M,88.09,KCXP 252150Z AUTO 26013G23KT 10SM CLR 34/M01 A3012 RMK AO2,M
P68,2022-08-25 21:53,-116.0056,39.6014,1993.00,89.00,27.00,10.64,70.00,5.00,0.00,30.15,1011.90,M,M,M,M,M,M,M,M,M,M,M,M,M,M,M,M,M,84.68,KP68 252153Z AUTO 07005KT 32/M03 A3015 RMK AO1 SLP119 T03171028,M
LOL,2022-08-25 21:53,-118.5701,40.0684,1192.43,97.00,24.10,7.38,M,3.00,0.00,30.02,1012.10,10.00,M,CLR,M,M,M,M,M,M,M,M,M,M,M,M,M,M,90.50,KLOL 252153Z AUTO VRB03KT 10SM CLR 36/M04 A3002 RMK AO2 SLP121 T03611044,M
ELY,2022-08-25 21:53,-114.8453,39.2950,1909.00,70.00,49.00,47.06,200.00,11.00,T,30.27,1015.50,10.00,M,FEW,FEW,OVC,M,5500.00,7000.00,9500.00,M,-RA,M,M,M,36.00,170.00,2022-08-25 21:08,70.00,KELY 252153Z AUTO 20011KT 10SM -RA FEW055 FEW070 OVC095 21/09 A3027 RMK AO2 PK WND 17036/2108 WSHFT 2052 LTG DSNT N AND SW RAB51 SLP155 P0000 T02110094,M
DRA,2022-08-25 21:53,-116.0278,36.6206,1009.00,92.00,51.00,24.99,150.00,23.00,0.00,30.02,1011.10,10.00,34.00,OVC,M,M,M,9000.00,M,M,M,M,M,M,M,34.00,150.00,2022-08-25 21:51,89.04,KDRA 252153Z AUTO 15023G34KT 10SM OVC090 33/11 A3002 RMK AO2 PK WND 15034/2151 SLP111 T03330106,M
VGT,2022-08-25 21:53,-115.1933,36.2111,667.00,97.00,55.00,24.63,110.00,6.00,0.00,29.95,1013.00,10.00,M,CLR,M,M,M,M,M,M,M,M,M,M,M,M,M,M,95.23,KVGT 252153Z 11006KT 10SM CLR 36/13 A2995 RMK AO2 SLP130 T03610128,M
HTH,2022-08-25 21:55,-118.6315,38.5448,1282.89,95.00,30.20,10.09,330.00,10.00,0.00,30.03,M,10.00,M,CLR,M,M,M,M,M,M,M,M,M,M,M,M,M,M,89.48,KHTH 252155Z AUTO 33010KT 10SM CLR 35/M01 A3003 RMK A01,M
INS,2022-08-25 21:55,-115.6733,36.5872,955.00,90.30,52.70,27.87,110.00,8.00,0.00,30.01,1011.10,10.00,M,OVC,M,M,M,20000.00,M,M,M,M,M,M,M,M,M,M,87.82,KINS 252155Z AUTO 11008KT 10SM OVC200 32/12 A3001 RMK AO2 SLP111 T03240115 $,M
BVU,2022-08-25 21:55,-114.8611,35.9475,671.00,95.00,50.00,21.79,M,4.00,0.00,29.96,M,M,M,M,M,M,M,M,M,M,M,M,M,M,M,M,M,M,91.89,KBVU 252155Z AUTO VRB04KT 35/10 A2996 RMK AO2 PWINO TSNO,M
RNO,2022-08-25 21:55,-119.7711,39.4839,1341.00,97.00,32.00,10.21,260.00,7.00,0.00,30.07,1011.70,10.00,M,FEW,M,M,M,10000.00,M,M,M,M,M,M,M,M,M,M,91.35,KRNO 252155Z 26007KT 10SM FEW100 36/00 A3007 RMK AO2 SLP117 T03610000,M
RTS,2022-08-25 21:55,-119.8764,39.6682,1539.00,91.40,21.20,7.77,250.00,14.00,0.00,30.14,M,10.00,M,CLR,M,M,M,M,M,M,M,M,M,M,M,M,M,M,85.96,KRTS 252155Z AUTO 25014KT 10SM CLR 33/M06 A3014 RMK AO2,M
LSV,2022-08-25 21:55,-115.0343,36.2362,570.00,101.00,56.30,22.94,150.00,6.00,0.00,29.93,1010.80,10.00,M,CLR,M,M,M,M,M,M,M,M,M,M,M,M,M,M,99.96,KLSV 252155Z AUTO 15006KT 10SM CLR 38/14 A2993 RMK AO2 SLP108 T03830135 $,M
MEV,2022-08-25 21:55,-119.7500,38.9963,1441.42,93.20,32.00,11.48,250.00,13.00,0.00,30.10,M,10.00,M,CLR,M,M,M,M,M,M,M,M,M,M,M,M,M,M,88.31,KMEV 252155Z AUTO 25013KT 10SM CLR 34/M00 A3010 RMK AO2,M
BAM,2022-08-25 21:55,-116.8743,40.5990,1382.36,96.80,30.20,9.55,240.00,5.00,0.00,30.06,M,10.00,M,CLR,M,M,M,M,M,M,M,M,M,M,M,M,M,M,90.96,KBAM 252155Z AUTO 24005KT 10SM CLR 36/M01 A3006 RMK AO1,M
TMT,2022-08-25 21:55,-117.1971,39.4643,1749.34,M,M,M,240.00,5.00,0.00,30.16,M,10.00,14.00,CLR,M,M,M,M,M,M,M,M,M,M,M,M,M,M,M,KTMT 252155Z AUTO 24005G14KT 10SM CLR A3016 RMK AO2,M
TPH,2022-08-25 21:56,-117.0904,38.0505,1654.00,90.00,40.00,17.34,M,M,0.00,30.14,1011.60,10.00,M,FEW,M,M,M,10000.00,M,M,M,M,M,M,M,M,M,M,86.11,KTPH 252156Z AUTO 10SM FEW100 32/04 A3014 RMK AO2 LTG DSNT N AND NE SLP116 T03220044,M
EKO,2022-08-25 21:56,-115.7860,40.8242,1367.00,87.00,26.10,10.92,280.00,17.00,0.00,30.10,1013.70,10.00,27.00,CLR,M,M,M,M,M,M,M,M,M,M,M,27.00,270.00,2022-08-25 21:47,83.14,KEKO 252156Z AUTO 28017G27KT 10SM CLR 31/M03 A3010 RMK AO2 PK WND 27027/2147 SLP137 T03061033,M
WMC,2022-08-25 21:56,-117.8072,40.9019,1315.00,97.00,28.00,8.67,190.00,12.00,0.00,30.04,1012.30,10.00,23.00,CLR,M,M,M,M,M,M,M,M,M,M,M,M,M,M,90.87,KWMC 252156Z AUTO 19012G23KT 10SM CLR 36/M02 A3004 RMK AO2 SLP123 T03611022,M
LAS,2022-08-25 21:56,-115.1634,36.0719,663.00,96.00,55.00,25.32,50.00,7.00,0.00,29.96,1011.70,10.00,M,FEW,FEW,SCT,M,11000.00,15000.00,25000.00,M,M,M,M,M,M,M,M,94.27,KLAS 252156Z 05007KT 360V090 10SM FEW110 FEW150 SCT250 36/13 A2996 RMK AO2 LTG DSNT SW SLP117 CB DSNT S-W-N T03560128,M
NFL,2022-08-25 21:56,-118.7010,39.4166,1199.00,97.00,28.90,9.00,0.00,0.00,0.00,30.02,1013.50,10.00,M,SCT,M,M,M,8000.00,M,M,M,M,M,M,M,M,M,M,90.97,KNFL 252156Z 00000KT 10SM SCT080 36/M02 A3002 RMK AO2 SLP135 T03611017,M
ELY,2022-08-25 22:01,-114.8453,39.2950,1909.00,69.00,50.00,50.56,200.00,9.00,T,30.27,M,10.00,M,FEW,SCT,OVC,M,5500.00,7500.00,9000.00,M,VCTS -RA,M,M,M,M,M,M,69.10,KELY 252201Z AUTO 20009KT 10SM VCTS -RA FEW055 SCT075 OVC090 21/10 A3027 RMK AO2 LTG DSNT N AND SW P0000 T02060100,M
RTS,2022-08-25 22:15,-119.8764,39.6682,1539.00,91.40,21.20,7.77,250.00,14.00,0.00,30.14,M,10.00,M,CLR,M,M,M,M,M,M,M,M,M,M,M,M,M,M,85.96,KRTS 252215Z AUTO 25014KT 10SM CLR 33/M06 A3014 RMK AO2,M
MEV,2022-08-25 22:15,-119.7500,38.9963,1441.42,93.20,32.00,11.48,290.00,14.00,0.00,30.10,M,10.00,19.00,CLR,M,M,M,M,M,M,M,M,M,M,M,M,M,M,88.31,KMEV 252215Z AUTO 29014G19KT 10SM CLR 34/00 A3010 RMK AO2,M
BAM,2022-08-25 22:15,-116.8743,40.5990,1382.36,96.80,32.00,10.27,230.00,9.00,0.00,30.06,M,10.00,M,CLR,M,M,M,M,M,M,M,M,M,M,M,M,M,M,91.19,KBAM 252215Z AUTO 23009KT 10SM CLR 36/00 A3006 RMK AO1,M
HTH,2022-08-25 22:15,-118.6315,38.5448,1282.89,95.00,30.20,10.09,310.00,7.00,0.00,30.03,M,10.00,15.00,CLR,M,M,M,M,M,M,M,M,M,M,M,M,M,M,89.48,KHTH 252215Z AUTO 31007G15KT 10SM CLR 35/M01 A3003 RMK A01,M
TMT,2022-08-25 22:15,-117.1971,39.4643,1749.34,M,M,M,240.00,7.00,0.00,30.16,M,10.00,14.00,CLR,M,M,M,M,M,M,M,M,M,M,M,M,M,M,M,KTMT 252215Z AUTO 24007G14KT 10SM CLR A3016 RMK AO2 LTG DSNT SW,M
CXP,2022-08-25 22:15,-119.7326,39.1923,1431.00,91.40,28.40,10.48,280.00,16.00,0.00,30.11,M,10.00,24.00,CLR,M,M,M,M,M,M,M,M,M,M,M,M,M,M,86.53,KCXP 252215Z AUTO 28016G24KT 10SM CLR 33/M02 A3011 RMK AO2,M
BVU,2022-08-25 22:15,-114.8611,35.9475,671.00,96.80,50.00,20.62,30.00,4.00,0.00,29.95,M,M,M,M,M,M,M,M,M,M,M,M,M,M,M,M,M,M,93.71,KBVU 252215Z AUTO 03004KT 36/10 A2995 RMK AO2 PWINO TSNO,M
INS,2022-08-25 22:24,-115.6733,36.5872,955.00,89.60,51.80,27.56,290.00,15.00,0.00,30.00,1010.80,10.00,M,BKN,M,M,M,18000.00,M,M,M,M,M,M,M,M,M,M,87.00,KINS 252224Z AUTO 29015KT 10SM BKN180 32/11 A3000 RMK AO2 WSHFT 12 SLP108 $,M
CXP,2022-08-25 22:30,-119.7326,39.1923,1431.00,91.40,30.20,11.28,280.00,16.00,0.00,30.11,M,10.00,24.00,CLR,M,M,M,M,M,M,M,M,M,M,M,M,M,M,86.71,KCXP 252230Z AUTO 28016G24KT 10SM CLR 33/M01 A3011 RMK AO2,M
MEV,2022-08-25 22:35,-119.7500,38.9963,1441.42,93.20,32.00,11.48,280.00,14.00,0.00,30.10,M,10.00,20.00,CLR,M,M,M,M,M,M,M,M,M,M,M,M,M,M,88.31,KMEV 252235Z AUTO 28014G20KT 10SM CLR 34/00 A3010 RMK AO2,M
TMT,2022-08-25 22:35,-117.1971,39.4643,1749.34,M,M,M,240.00,6.00,0.00,30.16,M,10.00,M,CLR,M,M,M,M,M,M,M,M,M,M,M,M,M,M,M,KTMT 252235Z AUTO 24006KT 10SM CLR A3016 RMK AO2,M
HTH,2022-08-25 22:35,-118.6315,38.5448,1282.89,95.00,30.20,10.09,340.00,10.00,0.00,30.02,M,10.00,16.00,CLR,M,M,M,M,M,M,M,M,M,M,M,M,M,M,89.48,KHTH 252235Z AUTO 34010G16KT 10SM CLR 35/M01 A3002 RMK A01,M
BAM,2022-08-25 22:35,-116.8743,40.5990,1382.36,96.80,32.00,10.27,260.00,11.00,0.00,30.05,M,10.00,19.00,CLR,M,M,M,M,M,M,M,M,M,M,M,M,M,M,91.19,KBAM 252235Z AUTO 26011G19KT 10SM CLR 36/00 A3005 RMK AO1,M
RTS,2022-08-25 22:35,-119.8764,39.6682,1539.00,91.40,21.20,7.77,240.00,10.00,0.00,30.14,M,10.00,M,CLR,M,M,M,M,M,M,M,M,M,M,M,M,M,M,85.96,KRTS 252235Z AUTO 24010KT 220V280 10SM CLR 33/M06 A3014 RMK AO2,M
BVU,2022-08-25 22:35,-114.8611,35.9475,671.00,96.80,50.00,20.62,120.00,5.00,0.00,29.95,M,M,11.00,M,M,M,M,M,M,M,M,M,M,M,M,M,M,M,93.71,KBVU 252235Z AUTO 12005G11KT 36/10 A2995 RMK AO2 PWINO TSNO,M
ELY,2022-08-25 22:41,-114.8453,39.2950,1909.00,68.00,49.00,50.40,120.00,17.00,T,30.27,M,10.00,25.00,FEW,BKN,OVC,M,6000.00,8000.00,10000.00,M,-RA,M,M,M,M,M,M,68.00,KELY 252241Z AUTO 12017G25KT 10SM -RA FEW060 BKN080 OVC100 20/09 A3027 RMK AO2 LTG DSNT SW P0000 T02000094,M
VGT,2022-08-25 22:53,-115.1933,36.2111,667.00,98.00,55.00,23.82,130.00,8.00,0.00,29.92,1011.90,10.00,M,CLR,M,M,M,M,M,M,M,M,M,M,M,M,M,M,96.41,KVGT 252253Z 13008KT 10SM CLR 37/13 A2992 RMK AO2 LTG DSNT SW SLP119 T03670128,M
LOL,2022-08-25 22:53,-118.5701,40.0684,1192.43,98.00,26.10,7.76,220.00,9.00,0.00,30.00,1011.40,10.00,18.00,CLR,M,M,M,M,M,M,M,M,M,M,M,M,M,M,91.60,KLOL 252253Z AUTO 22009G18KT 10SM CLR 37/M03 A3000 RMK AO2 SLP114 T03671033,M
ELY,2022-08-25 22:53,-114.8453,39.2950,1909.00,69.00,47.00,45.02,120.00,17.00,T,30.26,1015.20,10.00,28.00,FEW,SCT,OVC,M,5500.00,7000.00,9000.00,M,-RA,M,M,M,28.00,110.00,2022-08-25 22:45,69.10,KELY 252253Z AUTO 12017G28KT 10SM -RA FEW055 SCT070 OVC090 21/08 A3026 RMK AO2 PK WND 11028/2245 LTG DSNT SW SLP152 P0000 T02060083,M
P68,2022-08-25 22:53,-116.0056,39.6014,1993.00,86.00,26.10,11.31,180.00,6.00,0.00,30.15,1012.40,M,M,M,M,M,M,M,M,M,M,M,M,M,M,M,M,M,82.35,KP68 252253Z AUTO 18006KT 30/M03 A3015 RMK AO1 SLP124 T03001033,M
DRA,2022-08-25 22:53,-116.0278,36.6206,1009.00,94.00,54.00,26.13,90.00,11.00,0.00,29.99,1010.00,10.00,M,CLR,M,M,M,M,M,M,M,M,M,M,M,32.00,140.00,2022-08-25 21:57,91.68,KDRA 252253Z AUTO 09011KT 10SM CLR 34/12 A2999 RMK AO2 PK WND 14032/2157 SLP100 T03440122,M
LSV,2022-08-25 22:55,-115.0343,36.2362,570.00,101.80,54.50,20.92,0.00,0.00,0.00,29.90,1009.80,10.00,M,CLR,M,M,M,M,M,M,M,M,M,M,M,M,M,M,100.26,KLSV 252255Z AUTO 00000KT 10SM CLR 39/13 A2990 RMK AO2 SLP098 T03880125 $,M
HTH,2022-08-25 22:55,-118.6315,38.5448,1282.89,95.00,28.40,9.38,360.00,10.00,0.00,30.01,M,10.00,M,CLR,M,M,M,M,M,M,M,M,M,M,M,M,M,M,89.27,KHTH 252255Z AUTO 36010KT 10SM CLR 35/M02 A3001 RMK A01,M
BAM,2022-08-25 22:55,-116.8743,40.5990,1382.36,96.80,32.00,10.27,240.00,12.00,0.00,30.04,M,10.00,17.00,CLR,M,M,M,M,M,M,M,M,M,M,M,M,M,M,91.19,KBAM 252255Z AUTO 24012G17KT 10SM CLR 36/00 A3004 RMK AO1,M
INS,2022-08-25 22:55,-115.6733,36.5872,955.00,91.00,52.20,26.85,260.00,9.00,0.00,29.99,1010.40,10.00,M,SCT,BKN,M,M,17000.00,19000.00,M,M,M,M,M,M,M,M,M,88.29,KINS 252255Z AUTO 26009KT 10SM SCT170 BKN190 33/11 A2999 RMK AO2 SLP104 T03270112 $,M
MEV,2022-08-25 22:55,-119.7500,38.9963,1441.42,93.20,32.00,11.48,300.00,16.00,0.00,30.09,M,10.00,23.00,CLR,M,M,M,M,M,M,M,M,M,M,M,M,M,M,88.31,KMEV 252255Z AUTO 30016G23KT 10SM CLR 34/M00 A3009 RMK AO2,M
RTS,2022-08-25 22:55,-119.8764,39.6682,1539.00,89.60,21.20,8.22,M,4.00,0.00,30.13,M,10.00,12.00,CLR,M,M,M,M,M,M,M,M,M,M,M,M,M,M,84.64,KRTS 252255Z AUTO VRB04G12KT 10SM CLR 32/M06 A3013 RMK AO2,M
CXP,2022-08-25 22:55,-119.7326,39.1923,1431.00,91.40,30.20,11.28,280.00,17.00,0.00,30.11,M,10.00,M,CLR,M,M,M,M,M,M,M,M,M,M,M,M,M,M,86.71,KCXP 252255Z AUTO 28017KT 10SM CLR 33/M01 A3011 RMK AO2,M
BVU,2022-08-25 22:55,-114.8611,35.9475,671.00,96.80,50.00,20.62,70.00,5.00,0.00,29.94,M,M,M,M,M,M,M,M,M,M,M,M,M,M,M,M,M,M,93.71,KBVU 252255Z AUTO 07005KT 36/10 A2994 RMK AO2 PWINO TSNO,M
RNO,2022-08-25 22:55,-119.7711,39.4839,1341.00,96.00,34.00,11.37,280.00,18.00,0.00,30.06,1011.50,10.00,21.00,FEW,M,M,M,10000.00,M,M,M,M,M,M,M,M,M,M,90.89,KRNO 252255Z 28018G21KT 10SM FEW100 36/01 A3006 RMK AO2 SLP115 T03560011,M
TMT,2022-08-25 22:55,-117.1971,39.4643,1749.34,M,M,M,210.00,6.00,0.00,30.15,M,10.00,M,CLR,M,M,M,M,M,M,M,M,M,M,M,M,M,M,M,KTMT 252255Z AUTO 21006KT 10SM CLR A3015 RMK AO2,M
LAS,2022-08-25 22:56,-115.1634,36.0719,663.00,96.00,53.00,23.62,70.00,9.00,0.00,29.94,1010.80,10.00,M,FEW,FEW,SCT,M,11000.00,15000.00,25000.00,M,M,M,M,M,M,M,M,93.72,KLAS 252256Z 07009KT 10SM FEW110 FEW150 SCT250 36/12 A2994 RMK AO2 LTG DSNT SW SLP108 CB DSNT S-W-N T03560117,M
TPH,2022-08-25 22:56,-117.0904,38.0505,1654.00,89.00,44.00,20.97,230.00,8.00,0.00,30.14,1011.60,10.00,18.00,CLR,M,M,M,M,M,M,M,M,M,M,M,M,M,M,85.59,KTPH 252256Z AUTO 23008G18KT 10SM CLR 32/07 A3014 RMK AO2 LTG DSNT E AND SE SLP116 T03170067,M
EKO,2022-08-25 22:56,-115.7860,40.8242,1367.00,87.00,25.00,10.43,260.00,13.00,0.00,30.08,1013.00,10.00,21.00,CLR,M,M,M,M,M,M,M,M,M,M,M,M,M,M,83.06,KEKO 252256Z AUTO 26013G21KT 10SM CLR 31/M04 A3008 RMK AO2 SLP130 T03061039,M
NFL,2022-08-25 22:56,-118.7010,39.4166,1199.00,97.00,28.90,9.00,310.00,5.00,0.00,30.00,1013.00,10.00,M,SCT,M,M,M,8000.00,M,M,M,M,M,M,M,M,M,M,90.97,KNFL 252256Z 31005KT 10SM SCT080 36/M02 A3000 RMK AO2 SLP130 T03611017,M
WMC,2022-08-25 22:56,-117.8072,40.9019,1315.00,97.00,24.10,7.38,240.00,14.00,0.00,30.03,1011.70,10.00,22.00,CLR,M,M,M,M,M,M,M,M,M,M,M,26.00,220.00,2022-08-25 22:04,90.50,KWMC 252256Z AUTO 24014G22KT 10SM CLR 36/M04 A3003 RMK AO2 PK WND 22026/2204 SLP117 T03611044,M
BVU,2022-08-25 23:15,-114.8611,35.9475,671.00,95.00,50.00,21.79,0.00,0.00,0.00,29.93,M,M,M,M,M,M,M,M,M,M,M,M,M,M,M,M,M,M,91.89,KBVU 252315Z AUTO 00000KT 35/10 A2993 RMK AO2 PWINO TSNO,M
CXP,2022-08-25 23:15,-119.7326,39.1923,1431.00,91.40,30.20,11.28,270.00,15.00,0.00,30.10,M,10.00,22.00,CLR,M,M,M,M,M,M,M,M,M,M,M,M,M,M,86.71,KCXP 252315Z AUTO 27015G22KT 10SM CLR 33/M01 A3010 RMK AO2,M
RTS,2022-08-25 23:15,-119.8764,39.6682,1539.00,89.60,21.20,8.22,240.00,13.00,0.00,30.13,M,10.00,M,CLR,M,M,M,M,M,M,M,M,M,M,M,M,M,M,84.64,KRTS 252315Z AUTO 24013KT 10SM CLR 32/M06 A3013 RMK AO2,M
MEV,2022-08-25 23:15,-119.7500,38.9963,1441.42,93.20,32.00,11.48,270.00,14.00,0.00,30.09,M,10.00,22.00,CLR,M,M,M,M,M,M,M,M,M,M,M,M,M,M,88.31,KMEV 252315Z AUTO 27014G22KT 10SM CLR 34/00 A3009 RMK AO2,M
BAM,2022-08-25 23:15,-116.8743,40.5990,1382.36,96.80,32.00,10.27,270.00,8.00,0.00,30.04,M,10.00,17.00,CLR,M,M,M,M,M,M,M,M,M,M,M,M,M,M,91.19,KBAM 252315Z AUTO 27008G17KT 10SM CLR 36/00 A3004 RMK AO1,M
HTH,2022-08-25 23:15,-118.6315,38.5448,1282.89,95.00,26.60,8.71,10.00,6.00,0.00,30.01,M,10.00,M,CLR,M,M,M,M,M,M,M,M,M,M,M,M,M,M,89.08,KHTH 252315Z AUTO 01006KT 10SM CLR 35/M03 A3001 RMK A01,M
TMT,2022-08-25 23:15,-117.1971,39.4643,1749.34,M,M,M,0.00,0.00,0.00,30.15,M,10.00,M,CLR,M,M,M,M,M,M,M,M,M,M,M,M,M,M,M,KTMT 252315Z AUTO 00000KT 10SM CLR A3015 RMK AO2,M
DRA,2022-08-25 23:35,-116.0278,36.6206,1009.00,91.00,53.00,27.67,30.00,22.00,0.00,30.01,M,10.00,32.00,FEW,M,M,M,12000.00,M,M,M,M,M,M,M,32.00,40.00,2022-08-25 23:32,88.57,KDRA 252335Z AUTO 03022G32KT 10SM FEW120 33/12 A3001 RMK AO2 PK WND 04032/2332 WSHFT 2318 T03280117,M
MEV,2022-08-25 23:35,-119.7500,38.9963,1441.42,91.40,32.00,12.14,270.00,15.00,0.00,30.09,M,10.00,20.00,CLR,M,M,M,M,M,M,M,M,M,M,M,M,M,M,86.91,KMEV 252335Z AUTO 27015G20KT 10SM CLR 33/00 A3009 RMK AO2,M
BAM,2022-08-25 23:35,-116.8743,40.5990,1382.36,96.80,32.00,10.27,240.00,12.00,0.00,30.04,M,10.00,16.00,CLR,M,M,M,M,M,M,M,M,M,M,M,M,M,M,91.19,KBAM 252335Z AUTO 24012G16KT 10SM CLR 36/00 A3004 RMK AO1,M
HTH,2022-08-25 23:35,-118.6315,38.5448,1282.89,95.00,28.40,9.38,330.00,9.00,0.00,30.00,M,10.00,M,CLR,M,M,M,M,M,M,M,M,M,M,M,M,M,M,89.27,KHTH 252335Z AUTO 33009KT 10SM CLR 35/M02 A3000 RMK A01,M
TMT,2022-08-25 23:35,-117.1971,39.4643,1749.34,M,M,M,40.00,11.00,0.00,30.14,M,10.00,M,SCT,M,M,M,11000.00,M,M,M,M,M,M,M,M,M,M,M,KTMT 252335Z AUTO 04011KT 10SM SCT110 A3014 RMK AO2,M
CXP,2022-08-25 23:35,-119.7326,39.1923,1431.00,91.40,30.20,11.28,290.00,13.00,0.00,30.10,M,10.00,24.00,CLR,M,M,M,M,M,M,M,M,M,M,M,M,M,M,86.71,KCXP 252335Z AUTO 29013G24KT 10SM CLR 33/M01 A3010 RMK AO2,M
BVU,2022-08-25 23:35,-114.8611,35.9475,671.00,96.80,50.00,20.62,30.00,7.00,0.00,29.93,M,M,M,M,M,M,M,M,M,M,M,M,M,M,M,M,M,M,93.71,KBVU 252335Z AUTO 03007KT 36/10 A2993 RMK AO2 PWINO TSNO,M
RTS,2022-08-25 23:35,-119.8764,39.6682,1539.00,89.60,23.00,8.87,280.00,9.00,0.00,30.13,M,10.00,M,CLR,M,M,M,M,M,M,M,M,M,M,M,M,M,M,84.75,KRTS 252335Z AUTO 28009KT 10SM CLR 32/M05 A3013 RMK AO2,M
TPH,2022-08-25 23:38,-117.0904,38.0505,1654.00,84.00,42.00,22.85,80.00,24.00,0.00,30.15,M,10.00,33.00,BKN,M,M,M,10000.00,M,M,M,M,M,M,M,33.00,50.00,2022-08-25 23:32,81.43,KTPH 252338Z AUTO 08024G33KT 10SM BKN100 29/06 A3015 RMK AO2 PK WND 05033/2332 WSHFT 2318 LTG DSNT NE T02890056,M
TPH,2022-08-25 23:48,-117.0904,38.0505,1654.00,82.00,43.00,25.24,100.00,22.00,0.00,30.15,M,10.00,34.00,SCT,M,M,M,10000.00,M,M,M,VCTS,M,M,M,34.00,90.00,2022-08-25 23:48,80.15,KTPH 252348Z AUTO 10022G34KT 10SM VCTS SCT100 28/06 A3015 RMK AO2 PK WND 09034/2348 WSHFT 2318 LTG DSNT NE AND SE AND NW T02780061,M
P68,2022-08-25 23:53,-116.0056,39.6014,1993.00,87.00,30.90,13.30,190.00,8.00,0.00,30.14,1011.50,M,M,M,M,M,M,M,M,M,M,M,M,M,M,M,M,M,83.51,KP68 252353Z AUTO 19008KT 160V220 31/M01 A3014 RMK AO1 SLP115 T03061006 10322 20278 56014,M
DRA,2022-08-25 23:53,-116.0278,36.6206,1009.00,93.00,48.00,21.51,50.00,20.00,0.00,30.00,1010.40,10.00,28.00,CLR,M,M,M,M,M,M,M,M,M,M,M,32.00,40.00,2022-08-25 23:32,89.58,KDRA 252353Z AUTO 05020G28KT 10SM CLR 34/09 A3000 RMK AO2 PK WND 04032/2332 WSHFT 2318 SLP104 T03390089 10356 20317 55010,M
ELY,2022-08-25 23:53,-114.8453,39.2950,1909.00,68.00,48.00,48.73,210.00,12.00,T,30.26,1015.20,10.00,24.00,FEW,M,M,M,12000.00,M,M,M,M,M,M,M,M,M,M,68.00,KELY 252353Z AUTO 21012G24KT 10SM FEW120 20/09 A3026 RMK AO2 LTG DSNT W RAE08 SLP152 P0000 60000 T02000089 10317 20189 51015,M
VGT,2022-08-25 23:53,-115.1933,36.2111,667.00,97.00,54.00,23.75,160.00,8.00,0.00,29.92,1011.90,10.00,M,CLR,M,M,M,M,M,M,M,M,M,M,M,M,M,M,94.92,KVGT 252353Z 16008KT 10SM CLR 36/12 A2992 RMK AO2 SLP119 T03610122 10372 20317 56018,M
LOL,2022-08-25 23:53,-118.5701,40.0684,1192.43,97.00,23.00,7.05,280.00,14.00,0.00,29.99,1011.50,10.00,20.00,CLR,M,M,M,M,M,M,M,M,M,M,M,M,M,M,90.41,KLOL 252353Z AUTO 28014G20KT 10SM CLR 36/M05 A2999 RMK AO2 SLP115 T03611050 10372 20311 56017,M
TMT,2022-08-25 23:55,-117.1971,39.4643,1749.34,M,M,M,20.00,7.00,0.00,30.14,M,10.00,18.00,SCT,M,M,M,11000.00,M,M,M,M,M,M,M,M,M,M,M,KTMT 252355Z AUTO 02007G18KT 10SM SCT110 A3014 RMK AO2 LTG DSNT SE,M
RNO,2022-08-25 23:55,-119.7711,39.4839,1341.00,95.00,33.00,11.34,280.00,15.00,0.00,30.05,1011.20,10.00,24.00,FEW,M,M,M,10000.00,M,M,M,M,M,M,M,M,M,M,89.86,KRNO 252355Z 28015G24KT 10SM FEW100 35/01 A3005 RMK AO2 SLP112 T03500006 10367 20289 56011,M
LSV,2022-08-25 23:55,-115.0343,36.2362,570.00,97.20,54.30,23.87,160.00,6.00,0.00,29.89,1009.60,10.00,M,CLR,M,M,M,M,M,M,M,M,M,M,M,M,M,M,95.22,KLSV 252355Z AUTO 16006KT 10SM CLR 36/12 A2989 RMK AO2 SLP096 T03620124 10394 20360 56020 $,M
INS,2022-08-25 23:55,-115.6733,36.5872,955.00,93.70,51.40,23.89,340.00,3.00,0.00,30.00,1010.60,10.00,M,FEW,M,M,M,13000.00,M,M,M,M,M,M,M,M,M,M,90.87,KINS 252355Z AUTO 34003KT 10SM FEW130 34/11 A3000 RMK AO2 SLP106 T03430108 10346 20311 55008 $,M
BVU,2022-08-25 23:55,-114.8611,35.9475,671.00,96.80,50.00,20.62,80.00,5.00,0.00,29.93,M,M,M,M,M,M,M,M,M,M,M,M,M,M,M,M,M,M,93.71,KBVU 252355Z AUTO 08005KT 36/10 A2993 RMK AO2 PWINO TSNO,M
CXP,2022-08-25 23:55,-119.7326,39.1923,1431.00,89.60,30.20,11.94,270.00,14.00,0.00,30.11,M,10.00,27.00,CLR,M,M,M,M,M,M,M,M,M,M,M,M,M,M,85.34,KCXP 252355Z AUTO 27014G27KT 240V300 10SM CLR 32/M01 A3011 RMK AO2,M
RTS,2022-08-25 23:55,-119.8764,39.6682,1539.00,89.60,24.80,9.56,250.00,11.00,0.00,30.13,M,10.00,18.00,CLR,M,M,M,M,M,M,M,M,M,M,M,M,M,M,84.88,KRTS 252355Z AUTO 25011G18KT 10SM CLR 32/M04 A3013 RMK AO2,M
MEV,2022-08-25 23:55,-119.7500,38.9963,1441.42,91.40,33.80,13.05,270.00,14.00,0.00,30.09,M,10.00,20.00,CLR,M,M,M,M,M,M,M,M,M,M,M,M,M,M,87.13,KMEV 252355Z AUTO 27014G20KT 10SM CLR 33/01 A3009 RMK AO2,M
BAM,2022-08-25 23:55,-116.8743,40.5990,1382.36,96.80,32.00,10.27,240.00,5.00,0.00,30.04,M,10.00,20.00,CLR,M,M,M,M,M,M,M,M,M,M,M,M,M,M,91.19,KBAM 252355Z AUTO 24005G20KT 10SM CLR 36/00 A3004 RMK AO1,M
HTH,2022-08-25 23:55,-118.6315,38.5448,1282.89,95.00,26.60,8.71,320.00,10.00,0.00,30.00,M,10.00,M,CLR,M,M,M,M,M,M,M,M,M,M,M,M,M,M,89.08,KHTH 252355Z AUTO 32010KT 10SM CLR 35/M03 A3000 RMK A01,M
LAS,2022-08-25 23:56,-115.1634,36.0719,663.00,95.00,54.00,25.26,0.00,0.00,0.00,29.93,1010.80,10.00,M,FEW,FEW,BKN,M,11000.00,15000.00,22000.00,M,M,M,M,M,M,M,M,92.82,KLAS 252356Z 00000KT 10SM FEW110 FEW150 BKN220 35/12 A2993 RMK AO2 LTG DSNT S SLP108 CB DSNT S-SW T03500122 10361 20311 56018,M
TPH,2022-08-25 23:56,-117.0904,38.0505,1654.00,82.00,45.00,27.24,110.00,23.00,0.00,30.15,1013.20,10.00,37.00,SCT,M,M,M,10000.00,M,M,M,VCTS,M,M,M,37.00,100.00,2022-08-25 23:50,80.28,KTPH 252356Z AUTO 11023G37KT 10SM VCTS SCT100 28/07 A3015 RMK AO2 PK WND 10037/2350 WSHFT 2318 LTG DSNT SE AND NW SLP132 T02780072 10333 20272 55006,M
WMC,2022-08-25 23:56,-117.8072,40.9019,1315.00,96.00,21.00,6.66,260.00,11.00,0.00,30.02,1011.50,10.00,17.00,CLR,M,M,M,M,M,M,M,M,M,M,M,M,M,M,89.52,KWMC 252356Z AUTO 26011G17KT 10SM CLR 36/M06 A3002 RMK AO2 SLP115 T03561061 10367 20328 56014,M
EKO,2022-08-25 23:56,-115.7860,40.8242,1367.00,86.00,26.10,11.31,0.00,0.00,0.00,30.07,1013.20,10.00,M,CLR,M,M,M,M,M,M,M,M,M,M,M,M,M,M,82.35,KEKO 252356Z AUTO 00000KT 10SM CLR 30/M03 A3007 RMK AO2 SLP132 T03001033 10344 20250 56015,M
NFL,2022-08-25 23:56,-118.7010,39.4166,1199.00,97.00,27.00,8.32,320.00,4.00,0.00,29.98,1012.40,10.00,M,SCT,M,M,M,8000.00,M,M,M,M,M,M,M,M,M,M,90.77,KNFL 252356Z 32004KT 10SM SCT080 36/M03 A2998 RMK AO2 SLP124 T03611028 10367 20300 56018,M
