station,valid,lon,lat,elevation,tmpf,dwpf,relh,drct,sknt,p01i,alti,mslp,vsby,gust,skyc1,skyc2,skyc3,skyc4,skyl1,skyl2,skyl3,skyl4,wxcodes,ice_accretion_1hr,ice_accretion_3hr,ice_accretion_6hr,peak_wind_gust,peak_wind_drct,peak_wind_time,feel,metar,snowdepth
INS,2021-09-10 00:03,-115.6733,36.5872,955.00,93.20,44.60,18.80,70.00,7.00,0.00,29.91,1007.80,10.00,M,FEW,FEW,BKN,M,2100.00,7000.00,13000.00,M,M,M,M,M,M,M,M,89.34,KINS 100003Z AUTO 07007KT 10SM FEW021 FEW070 BKN130 34/07 A2991 RMK AO2 LTG DSNT NW-N RAE01DZB01E03DZB03 TSE2359 SLP078 $,M
ELY,2021-09-10 00:08,-114.8453,39.2950,1909.00,75.00,45.00,34.31,110.00,13.00,T,30.22,M,9.00,26.00,FEW,OVC,M,M,9000.00,11000.00,M,M,-RA,M,M,M,35.00,110.00,2021-09-09 23:54,75.00,KELY 100008Z AUTO 11013G26KT 9SM -RA FEW090 OVC110 24/07 A3022 RMK AO2 PK WND 11035/2354 WSHFT 2348 LTG DSNT N TSE2357 P0000 T02390072,M
RNO,2021-09-10 00:10,-119.7711,39.4839,1341.00,80.00,48.00,32.46,350.00,15.00,0.02,29.98,M,5.00,30.00,BKN,BKN,M,M,9500.00,15000.00,M,M,-TSRA,M,M,M,35.00,170.00,2021-09-09 23:58,79.42,KRNO 100010Z 35015G30KT 5SM -TSRA BKN095CB BKN150 27/09 A2998 RMK AO2 PK WND 17035/2358 WSHFT 2356 LTG DSNT N OCNL LTG OHD TS OHD MOV N P0002 T02670089,M
INS,2021-09-10 00:11,-115.6733,36.5872,955.00,95.00,48.20,20.38,120.00,8.00,0.00,29.92,1008.00,10.00,M,FEW,BKN,M,M,2100.00,13000.00,M,M,-DZ,M,M,M,M,M,M,91.56,KINS 100011Z AUTO 12008KT 10SM -DZ FEW021 BKN130 35/09 A2992 RMK AO2 LTG DSNT NW RAE01DZB01E03DZB03E03DZB11 TSE2359 SLP080 $,M
BAM,2021-09-10 00:15,-116.8743,40.5990,1382.36,93.20,30.20,10.67,230.00,13.00,0.00,29.99,M,10.00,22.00,CLR,M,M,M,M,M,M,M,M,M,M,M,M,M,M,88.09,KBAM 100015Z AUTO 23013G22KT 10SM CLR 34/M01 A2999 RMK AO1,M
BVU,2021-09-10 00:15,-114.8611,35.9475,671.00,104.00,44.60,13.54,140.00,10.00,0.00,29.85,M,10.00,M,CLR,M,M,M,M,M,M,M,M,M,M,M,M,M,M,99.82,KBVU 100015Z AUTO 14010KT 10SM CLR 40/07 A2985 RMK AO2 LTG DSNT E,M
CXP,2021-09-10 00:15,-119.7326,39.1923,1431.00,84.20,41.00,21.76,340.00,9.00,0.00,30.02,M,10.00,M,FEW,M,M,M,11000.00,M,M,M,M,M,M,M,M,M,M,81.52,KCXP 100015Z AUTO 34009KT 10SM FEW110 29/05 A3002 RMK AO2 LTG DSNT N,M
RTS,2021-09-10 00:15,-119.8764,39.6682,1539.00,80.60,41.00,24.46,150.00,21.00,0.00,30.04,M,10.00,32.00,BKN,M,M,M,11000.00,M,M,M,M,M,M,M,M,M,M,79.20,KRTS 100015Z AUTO 15021G32KT 10SM BKN110 27/05 A3004 RMK AO2,M
MEV,2021-09-10 00:15,-119.7500,38.9963,1441.42,86.00,39.20,19.15,30.00,13.00,0.00,30.00,M,10.00,M,CLR,M,M,M,M,M,M,M,M,M,M,M,M,M,M,82.79,KMEV 100015Z AUTO 03013KT 10SM CLR 30/04 A3000 RMK AO2,M
ELY,2021-09-10 00:15,-114.8453,39.2950,1909.00,73.40,46.40,38.18,250.00,16.00,0.00,30.22,M,5.00,31.00,FEW,BKN,OVC,M,7000.00,9000.00,11000.00,M,VCTS RA,M,M,M,M,M,M,73.40,KELY 100015Z AUTO 25016G31KT 190V330 5SM VCTS RA FEW070 BKN090 OVC110 23/08 A3022,M
TMT,2021-09-10 00:15,-117.1971,39.4643,1749.34,85.00,36.30,17.71,170.00,18.00,0.00,30.10,M,10.00,26.00,CLR,M,M,M,M,M,M,M,M,M,M,M,M,M,M,81.87,KTMT 100015Z AUTO 17018G26KT 10SM CLR 29/02 A3010 RMK AO2 T02940024,M
RNO,2021-09-10 00:21,-119.7711,39.4839,1341.00,81.00,45.00,28.15,330.00,6.00,0.02,29.98,M,10.00,M,BKN,BKN,M,M,9500.00,15000.00,M,M,TS,M,M,M,35.00,170.00,2021-09-09 23:58,79.68,KRNO 100021Z 33006KT 10SM TS BKN095CB BKN150 27/07 A2998 RMK AO2 PK WND 17035/2358 WSHFT 2359 LTG DSNT N RAE18 OCNL LTG N TS N MOV N SH NW THRU NE P0002 T02720072,M
INS,2021-09-10 00:26,-115.6733,36.5872,955.00,86.00,51.80,30.90,0.00,0.00,0.00,29.93,1008.80,5.00,M,SCT,OVC,M,M,3500.00,13000.00,M,M,VCTS RA,M,M,M,M,M,M,83.87,KINS 100026Z AUTO 00000KT 5SM VCTS RA SCT035 OVC130 30/11 A2993 RMK AO2 RAE01DZB01E03DZB03E03DZB11E16RAB16 TSE2359 SLP088 $,M
ELY,2021-09-10 00:31,-114.8453,39.2950,1909.00,73.00,48.00,41.10,320.00,10.00,0.01,30.21,M,10.00,19.00,FEW,SCT,OVC,M,2100.00,8000.00,11000.00,M,-RA,M,M,M,35.00,110.00,2021-09-09 23:54,73.00,KELY 100031Z AUTO 32010G19KT 10SM -RA FEW021 SCT080 OVC110 23/09 A3021 RMK AO2 PK WND 11035/2354 WSHFT 0017 TSE2357 P0001 T02280089 $,M
INS,2021-09-10 00:34,-115.6733,36.5872,955.00,86.00,51.80,30.90,340.00,4.00,0.00,29.94,1009.20,10.00,M,SCT,OVC,M,M,3500.00,12000.00,M,M,VCTS,M,M,M,M,M,M,83.87,KINS 100034Z AUTO 34004KT 10SM VCTS SCT035 OVC120 30/11 A2994 RMK AO2 RAE01DZB01E03DZB03E03DZB11E16RAB16 TSE2359 SLP092 $,M
CXP,2021-09-10 00:35,-119.7326,39.1923,1431.00,86.00,41.00,20.54,340.00,6.00,0.00,30.02,M,10.00,M,FEW,M,M,M,11000.00,M,M,M,M,M,M,M,M,M,M,82.86,KCXP 100035Z AUTO 34006KT 10SM FEW110 30/05 A3002 RMK AO2,M
MEV,2021-09-10 00:35,-119.7500,38.9963,1441.42,86.00,37.40,17.85,20.00,10.00,0.00,30.00,M,10.00,M,CLR,M,M,M,M,M,M,M,M,M,M,M,M,M,M,82.73,KMEV 100035Z AUTO 02010KT 10SM CLR 30/03 A3000 RMK AO2,M
RTS,2021-09-10 00:35,-119.8764,39.6682,1539.00,82.40,37.40,20.04,110.00,15.00,0.00,30.03,M,10.00,27.00,SCT,M,M,M,11000.00,M,M,M,M,M,M,M,M,M,M,80.14,KRTS 100035Z AUTO 11015G27KT 10SM SCT110 28/03 A3003 RMK AO2,M
TMT,2021-09-10 00:35,-117.1971,39.4643,1749.34,83.30,40.60,22.06,130.00,18.00,0.00,30.09,M,10.00,26.00,CLR,M,M,M,M,M,M,M,M,M,M,M,M,M,M,80.87,KTMT 100035Z AUTO 13018G26KT 10SM CLR 29/05 A3009 RMK AO2 T02850048,M
BAM,2021-09-10 00:35,-116.8743,40.5990,1382.36,91.40,33.80,13.05,170.00,23.00,0.00,30.00,M,7.00,28.00,CLR,M,M,M,M,M,M,M,M,M,M,M,M,M,M,87.13,KBAM 100035Z AUTO 17023G28KT 7SM CLR 33/01 A3000 RMK AO1,M
BVU,2021-09-10 00:35,-114.8611,35.9475,671.00,104.00,44.60,13.54,140.00,13.00,0.00,29.85,M,10.00,M,CLR,M,M,M,M,M,M,M,M,M,M,M,M,M,M,99.82,KBVU 100035Z AUTO 14013KT 10SM CLR 40/07 A2985 RMK AO2,M
RNO,2021-09-10 00:36,-119.7711,39.4839,1341.00,79.00,52.00,39.06,30.00,3.00,0.02,29.98,M,10.00,M,BKN,BKN,M,M,9500.00,15000.00,M,M,M,M,M,M,35.00,170.00,2021-09-09 23:58,79.00,KRNO 100036Z 03003KT 10SM BKN095CB BKN150 26/11 A2998 RMK AO2 PK WND 17035/2358 WSHFT 2359 LTG DSNT N RAE18 TSE30 OCNL LTG DSNT N TS DSNT N MOV N CB DSNT N P0002 T02610111,M
INS,2021-09-10 00:44,-115.6733,36.5872,955.00,86.00,60.80,42.80,150.00,5.00,0.00,29.96,1009.90,9.00,M,SCT,OVC,M,M,3500.00,12000.00,M,M,-RA,M,M,M,M,M,M,86.05,KINS 100044Z AUTO 15005KT 9SM -RA SCT035 OVC120 30/16 A2996 RMK AO2 LTG DSNT NW-N RAE01DZB01E03DZB03E03DZB11E16RAB16E34RAB44 TSE2359 PRESRR SLP099 $,M
INS,2021-09-10 00:48,-115.6733,36.5872,955.00,86.00,53.60,33.01,170.00,21.00,0.00,29.95,1009.50,9.00,27.00,FEW,OVC,M,M,3200.00,12000.00,M,M,-RA SQ,M,M,M,M,M,M,84.18,KINS 100048Z AUTO 17021G27KT 9SM -RA SQ FEW032 OVC120 30/12 A2995 RMK AO2 LTG DSNT NW-N RAE01DZB01E03DZB03E03DZB11E16RAB16E34RAB44 TSE2359 SLP095 $,M
INS,2021-09-10 00:51,-115.6733,36.5872,955.00,86.00,51.80,30.90,150.00,27.00,0.00,29.95,1009.50,10.00,M,FEW,BKN,M,M,1200.00,12000.00,M,M,-RA SQ,M,M,M,M,M,M,83.87,KINS 100051Z AUTO 15027KT 10SM -RA SQ FEW012 BKN120 30/11 A2995 RMK AO2 LTG DSNT NW-N RAE01DZB01E03DZB03E03DZB11E16RAB16E34RAB44 TSE2359 SLP095 $,M
ELY,2021-09-10 00:53,-114.8453,39.2950,1909.00,70.00,53.00,54.98,60.00,4.00,0.01,30.22,1015.60,10.00,M,SCT,M,M,M,12000.00,M,M,M,M,M,M,M,35.00,110.00,2021-09-09 23:54,70.00,KELY 100053Z AUTO 06004KT 10SM SCT120 21/12 A3022 RMK AO2 PK WND 11035/2354 WSHFT 0017 LTG DSNT N-SE RAE42 TSE2357 SLP156 P0001 T02110117 $,M
DRA,2021-09-10 00:53,-116.0278,36.6206,1009.00,95.00,41.00,15.49,210.00,13.00,0.00,29.93,1008.30,10.00,26.00,CLR,M,M,M,M,M,M,M,M,M,M,M,36.00,170.00,2021-09-10 00:22,90.70,KDRA 100053Z AUTO 21013G26KT 10SM CLR 35/05 A2993 RMK AO2 PK WND 17036/0022 SLP083 T03500050,M
VGT,2021-09-10 00:53,-115.1933,36.2111,667.00,105.00,40.00,10.94,180.00,12.00,0.00,29.82,1008.20,10.00,M,CLR,M,M,M,M,M,M,M,M,M,M,M,M,M,M,99.68,KVGT 100053Z 18012KT 10SM CLR 41/04 A2982 RMK AO2 SLP082 T04060044,M
LOL,2021-09-10 00:53,-118.5701,40.0684,1192.43,94.00,33.00,11.74,210.00,10.00,0.00,29.90,1008.30,10.00,M,CLR,M,M,M,M,M,M,M,M,M,M,M,M,M,M,89.00,KLOL 100053Z AUTO 21010KT 10SM CLR 34/01 A2990 RMK AO2 SLP083 T03440006,M
P68,2021-09-10 00:53,-116.0056,39.6014,1993.00,76.00,43.00,30.85,60.00,8.00,0.00,30.18,1014.70,M,M,M,M,M,M,M,M,M,M,M,M,M,M,M,M,M,75.90,KP68 100053Z AUTO 06008KT 24/06 A3018 RMK AO1 SLP147 T02440061,M
RTS,2021-09-10 00:55,-119.8764,39.6682,1539.00,82.40,37.40,20.04,200.00,5.00,0.00,30.04,M,10.00,M,FEW,M,M,M,10000.00,M,M,M,M,M,M,M,M,M,M,80.14,KRTS 100055Z AUTO 20005KT 10SM FEW100 28/03 A3004 RMK AO2,M
BVU,2021-09-10 00:55,-114.8611,35.9475,671.00,102.20,44.60,14.29,170.00,10.00,0.00,29.85,M,10.00,19.00,CLR,M,M,M,M,M,M,M,M,M,M,M,M,M,M,98.07,KBVU 100055Z AUTO 17010G19KT 10SM CLR 39/07 A2985 RMK AO2,M
CXP,2021-09-10 00:55,-119.7326,39.1923,1431.00,86.00,42.80,22.02,M,4.00,0.00,30.02,M,10.00,M,BKN,M,M,M,11000.00,M,M,M,M,M,M,M,M,M,M,82.95,KCXP 100055Z AUTO VRB04KT 10SM BKN110 30/06 A3002 RMK AO2,M
MEV,2021-09-10 00:55,-119.7500,38.9963,1441.42,84.20,42.80,23.33,10.00,7.00,0.00,30.00,M,10.00,M,CLR,M,M,M,M,M,M,M,M,M,M,M,M,M,M,81.61,KMEV 100055Z AUTO 01007KT 10SM CLR 29/06 A3000 RMK AO2,M
BAM,2021-09-10 00:55,-116.8743,40.5990,1382.36,87.80,33.80,14.61,160.00,18.00,0.00,30.00,M,4.00,31.00,CLR,M,M,M,M,M,M,M,M,M,M,M,M,M,M,84.10,KBAM 100055Z AUTO 16018G31KT 4SM CLR 31/01 A3000 RMK AO1,M
TMT,2021-09-10 00:55,-117.1971,39.4643,1749.34,82.40,41.20,23.25,130.00,16.00,0.00,30.10,M,10.00,26.00,CLR,M,M,M,M,M,M,M,M,M,M,M,M,M,M,80.30,KTMT 100055Z AUTO 13016G26KT 10SM CLR 28/05 A3010 RMK AO2 T02800051,M
RNO,2021-09-10 00:55,-119.7711,39.4839,1341.00,80.00,55.00,42.05,190.00,6.00,0.02,29.99,1009.90,10.00,M,BKN,BKN,M,M,9500.00,15000.00,M,M,M,M,M,M,35.00,170.00,2021-09-09 23:58,80.17,KRNO 100055Z 19006KT 10SM BKN095 BKN150 27/13 A2999 RMK AO2 PK WND 17035/2358 WSHFT 2359 RAE18 TSE30 SLP099 HZ AND FU ALQDS P0002 T02670128,M
LAS,2021-09-10 00:56,-115.1634,36.0719,663.00,103.00,41.00,12.19,180.00,10.00,0.00,29.85,1007.40,10.00,19.00,FEW,SCT,M,M,14000.00,22000.00,M,M,M,M,M,M,M,M,M,98.00,KLAS 100056Z 18010G19KT 10SM FEW140 SCT220 39/05 A2985 RMK AO2 SLP074 CB DSNT ALQDS T03940050,M
NFL,2021-09-10 00:56,-118.7010,39.4166,1199.00,93.00,32.00,11.55,250.00,11.00,0.00,29.92,1010.60,8.00,35.00,BKN,BKN,OVC,M,7000.00,12000.00,25000.00,M,M,M,M,M,35.00,210.00,2021-09-10 00:47,88.15,KNFL 100056Z 25011G35KT 8SM BKN070 BKN120 OVC250 34/00 A2992 RMK AO2 PK WND 21035/0047 SLP106 CB DSNT S-SW T03390000,M
HND,2021-09-10 00:56,-115.1344,35.9729,742.79,102.00,46.00,15.16,190.00,15.00,0.00,29.88,1009.90,10.00,M,CLR,M,M,M,M,M,M,M,M,M,M,M,M,M,M,98.15,KHND 100056Z 19015KT 10SM CLR 39/08 A2988 RMK AO2 SLP099 T03890078,M
TPH,2021-09-10 00:56,-117.0904,38.0505,1654.00,89.00,33.00,13.64,180.00,18.00,0.00,30.09,1011.00,10.00,27.00,CLR,M,M,M,M,M,M,M,M,M,M,M,27.00,170.00,2021-09-10 00:51,85.16,KTPH 100056Z AUTO 18018G27KT 10SM CLR 32/01 A3009 RMK AO2 PK WND 17027/0051 SLP110 T03170006,M
EKO,2021-09-10 00:56,-115.7860,40.8242,1367.00,85.00,36.00,17.50,190.00,20.00,0.00,30.08,1013.70,5.00,28.00,FEW,M,M,M,11000.00,M,M,M,HZ,M,M,M,39.00,190.00,2021-09-10 00:20,81.86,KEKO 100056Z AUTO 19020G28KT 5SM HZ FEW110 29/02 A3008 RMK AO2 PK WND 19039/0020 SLP137 T02940022,M
WMC,2021-09-10 00:56,-117.8072,40.9019,1315.00,94.00,30.90,10.74,100.00,14.00,0.00,29.91,1007.80,7.00,24.00,FEW,M,M,M,9000.00,M,M,M,M,M,M,M,M,M,M,88.71,KWMC 100056Z AUTO 10014G24KT 7SM FEW090 34/M01 A2991 RMK AO2 WSHFT 0038 SLP078 T03441006,M
INS,2021-09-10 00:58,-115.6733,36.5872,955.00,85.00,51.80,32.01,140.00,19.00,0.10,29.97,1010.40,9.00,30.00,FEW,BKN,M,M,2200.00,12000.00,M,M,-RA SQ,M,M,M,37.00,140.00,2021-09-10 00:52,83.00,KINS 100058Z AUTO 14019G30KT 9SM -RA SQ FEW022 BKN120 29/11 A2997 RMK AO2 PK WND 14037/52 LTG DSNT NW-N RAE01DZB01E03DZB03E03DZB11E16RAB16E34RAB44 TSE2359 PRESRR SLP104 P0010 T02940110 $,M
LSV,2021-09-10 00:58,-115.0343,36.2362,570.00,104.20,45.50,13.93,180.00,10.00,0.00,29.80,1006.30,10.00,M,M,M,M,M,M,M,M,M,M,M,M,M,M,M,M,100.21,KLSV 100058Z AUTO 18010KT 10SM M 40/08 A2980 RMK AO2 SLP063 T04010075 $,M
WMC,2021-09-10 01:03,-117.8072,40.9019,1315.00,93.00,33.00,12.07,M,M,0.00,29.91,M,9.00,M,FEW,FEW,M,M,8000.00,9500.00,M,M,M,M,M,M,M,M,M,88.29,KWMC 100103Z AUTO 9SM FEW080 FEW095 34/01 A2991 RMK AO2 WSHFT 0043 T03390006,M
INS,2021-09-10 01:04,-115.6733,36.5872,955.00,84.20,48.20,28.63,120.00,12.00,0.00,29.96,1010.10,10.00,30.00,FEW,SCT,BKN,M,3200.00,5500.00,12000.00,M,VCTS -DZ,M,M,M,M,M,M,82.04,KINS 100104Z AUTO 12012G30KT 10SM VCTS -DZ FEW032 SCT055 BKN120 29/09 A2996 RMK AO2 WSHFT 0049 RAE03DZB03 SLP101 $,M
INS,2021-09-10 01:13,-115.6733,36.5872,955.00,87.80,48.20,25.52,140.00,9.00,0.00,29.95,1009.40,10.00,22.00,FEW,SCT,M,M,3200.00,12000.00,M,M,VCTS,M,M,M,M,M,M,84.87,KINS 100113Z AUTO 14009G22KT 10SM VCTS FEW032 SCT120 31/09 A2995 RMK AO2 RAE03DZB03 SLP094 $,M
CXP,2021-09-10 01:15,-119.7326,39.1923,1431.00,84.20,42.80,23.33,300.00,10.00,0.00,30.02,M,10.00,M,SCT,M,M,M,11000.00,M,M,M,M,M,M,M,M,M,M,81.61,KCXP 100115Z AUTO 30010KT 10SM SCT110 29/06 A3002 RMK AO2,M
BVU,2021-09-10 01:15,-114.8611,35.9475,671.00,102.20,44.60,14.29,180.00,9.00,0.00,29.85,M,10.00,M,CLR,M,M,M,M,M,M,M,M,M,M,M,M,M,M,98.07,KBVU 100115Z AUTO 18009KT 10SM CLR 39/07 A2985 RMK AO2,M
MEV,2021-09-10 01:15,-119.7500,38.9963,1441.42,82.40,42.80,24.72,350.00,5.00,0.00,30.01,M,10.00,M,CLR,M,M,M,M,M,M,M,M,M,M,M,M,M,M,80.39,KMEV 100115Z AUTO 35005KT 10SM CLR 28/06 A3001 RMK AO2,M
RTS,2021-09-10 01:15,-119.8764,39.6682,1539.00,82.40,37.40,20.04,M,5.00,0.00,30.04,M,10.00,M,CLR,M,M,M,M,M,M,M,M,M,M,M,M,M,M,80.14,KRTS 100115Z AUTO VRB05KT 10SM CLR 28/03 A3004 RMK AO2,M
BAM,2021-09-10 01:15,-116.8743,40.5990,1382.36,87.80,33.80,14.61,120.00,10.00,0.00,30.00,M,10.00,M,CLR,M,M,M,M,M,M,M,M,M,M,M,M,M,M,84.10,KBAM 100115Z AUTO 12010KT 10SM CLR 31/01 A3000 RMK AO1,M
TMT,2021-09-10 01:15,-117.1971,39.4643,1749.34,80.80,40.60,23.93,120.00,14.00,0.00,30.09,M,10.00,M,CLR,M,M,M,M,M,M,M,M,M,M,M,M,M,M,79.29,KTMT 100115Z AUTO 12014KT 10SM CLR 27/05 A3009 RMK AO2 T02710048,M
DRA,2021-09-10 01:17,-116.0278,36.6206,1009.00,93.00,44.00,18.56,130.00,14.00,0.00,29.96,M,10.00,M,CLR,M,M,M,M,M,M,M,M,M,M,M,M,M,M,89.11,KDRA 100117Z AUTO 13014KT 10SM CLR 34/07 A2996 RMK AO2 WSHFT 0100 T03390067,M
TMT,2021-09-10 01:35,-117.1971,39.4643,1749.34,81.00,37.60,21.07,140.00,9.00,0.00,30.09,M,10.00,M,CLR,M,M,M,M,M,M,M,M,M,M,M,M,M,M,79.33,KTMT 100135Z AUTO 14009KT 10SM CLR 27/03 A3009 RMK AO2 T02730031,M
CXP,2021-09-10 01:35,-119.7326,39.1923,1431.00,84.20,42.80,23.33,290.00,6.00,0.00,30.02,M,10.00,M,FEW,M,M,M,11000.00,M,M,M,M,M,M,M,M,M,M,81.61,KCXP 100135Z AUTO 29006KT 10SM FEW110 29/06 A3002 RMK AO2,M
RTS,2021-09-10 01:35,-119.8764,39.6682,1539.00,84.20,37.40,18.91,240.00,10.00,0.00,30.04,M,10.00,M,CLR,M,M,M,M,M,M,M,M,M,M,M,M,M,M,81.38,KRTS 100135Z AUTO 24010KT 10SM CLR 29/03 A3004 RMK AO2,M
MEV,2021-09-10 01:35,-119.7500,38.9963,1441.42,80.60,44.60,28.08,300.00,5.00,0.00,30.02,M,10.00,10.00,CLR,M,M,M,M,M,M,M,M,M,M,M,M,M,M,79.42,KMEV 100135Z AUTO 30005G10KT 10SM CLR 27/07 A3002 RMK AO2,M
BAM,2021-09-10 01:35,-116.8743,40.5990,1382.36,89.60,33.80,13.80,140.00,7.00,0.00,30.00,M,10.00,M,CLR,M,M,M,M,M,M,M,M,M,M,M,M,M,M,85.59,KBAM 100135Z AUTO 14007KT 10SM CLR 32/01 A3000 RMK AO1,M
BVU,2021-09-10 01:35,-114.8611,35.9475,671.00,100.40,44.60,15.08,170.00,9.00,0.00,29.85,M,10.00,M,CLR,M,M,M,M,M,M,M,M,M,M,M,M,M,M,96.31,KBVU 100135Z AUTO 17009KT 10SM CLR 38/07 A2985 RMK AO2,M
ELY,2021-09-10 01:41,-114.8453,39.2950,1909.00,71.00,52.00,50.86,0.00,0.00,0.00,30.22,M,10.00,M,FEW,SCT,M,M,8500.00,11000.00,M,M,VCTS,M,M,M,M,M,M,71.10,KELY 100141Z AUTO 00000KT 10SM VCTS FEW085 SCT110 22/11 A3022 RMK AO2 LTG DSNT S T02170111 $,M
LOL,2021-09-10 01:48,-118.5701,40.0684,1192.43,89.60,35.60,14.83,220.00,25.00,0.00,29.91,M,2.50,36.00,FEW,M,M,M,1200.00,M,M,M,HZ,M,M,M,36.00,230.00,2021-09-10 01:41,85.62,KLOL 100148Z AUTO 22025G36KT 2 1/2SM HZ FEW012 32/02 A2991 RMK AO2 PK WND 23036/0141,M
LOL,2021-09-10 01:53,-118.5701,40.0684,1192.43,91.00,36.00,14.42,210.00,16.00,0.00,29.92,1009.10,8.00,30.00,FEW,M,M,M,1000.00,M,M,M,M,M,M,M,36.00,230.00,2021-09-10 01:41,86.83,KLOL 100153Z AUTO 21016G30KT 8SM FEW010 33/02 A2992 RMK AO2 PK WND 23036/0141 SLP091 T03280022,M
P68,2021-09-10 01:53,-116.0056,39.6014,1993.00,72.00,40.00,31.20,0.00,0.00,0.00,30.16,1014.70,M,M,M,M,M,M,M,M,M,M,M,M,M,M,M,M,M,72.00,KP68 100153Z AUTO 00000KT 22/04 A3016 RMK AO1 SLP147 T02220044,M
VGT,2021-09-10 01:53,-115.1933,36.2111,667.00,102.00,47.00,15.69,250.00,6.00,0.00,29.84,1008.90,10.00,M,CLR,M,M,M,M,M,M,M,M,M,M,M,M,M,M,98.33,KVGT 100153Z 25006KT 10SM CLR 39/08 A2984 RMK AO2 SLP089 T03890083,M
ELY,2021-09-10 01:53,-114.8453,39.2950,1909.00,68.00,54.00,60.86,30.00,6.00,T,30.21,1015.10,9.00,M,FEW,SCT,BKN,M,4000.00,9000.00,11000.00,M,-RA,M,M,M,M,M,M,68.00,KELY 100153Z AUTO 03006KT 9SM -RA FEW040 SCT090 BKN110 20/12 A3021 RMK AO2 RAB46 SLP151 P0000 T02000122 $,M
DRA,2021-09-10 01:53,-116.0278,36.6206,1009.00,92.00,46.00,20.65,130.00,6.00,0.00,29.96,1009.20,10.00,M,CLR,M,M,M,M,M,M,M,M,M,M,M,M,M,M,88.28,KDRA 100153Z AUTO 13006KT 10SM CLR 33/08 A2996 RMK AO2 WSHFT 0100 SLP092 T03330078,M
BAM,2021-09-10 01:55,-116.8743,40.5990,1382.36,87.80,33.80,14.61,130.00,6.00,0.00,29.99,M,10.00,M,CLR,M,M,M,M,M,M,M,M,M,M,M,M,M,M,84.10,KBAM 100155Z AUTO 13006KT 10SM CLR 31/01 A2999 RMK AO1,M
BVU,2021-09-10 01:55,-114.8611,35.9475,671.00,100.40,46.40,16.15,160.00,8.00,0.00,29.86,M,10.00,M,CLR,M,M,M,M,M,M,M,M,M,M,M,M,M,M,96.63,KBVU 100155Z AUTO 16008KT 10SM CLR 38/08 A2986 RMK AO2,M
CXP,2021-09-10 01:55,-119.7326,39.1923,1431.00,82.40,44.60,26.49,0.00,0.00,0.00,30.02,M,10.00,M,CLR,M,M,M,M,M,M,M,M,M,M,M,M,M,M,80.50,KCXP 100155Z AUTO 00000KT 10SM CLR 28/07 A3002 RMK AO2,M
RNO,2021-09-10 01:55,-119.7711,39.4839,1341.00,81.00,50.00,33.97,200.00,3.00,0.00,29.99,1010.00,10.00,M,SCT,BKN,BKN,M,9000.00,15000.00,22000.00,M,M,M,M,M,M,M,M,80.12,KRNO 100155Z 20003KT 10SM SCT090 BKN150 BKN220 27/10 A2999 RMK AO2 SLP100 HZ AND FU ALQDS T02720100,M
RTS,2021-09-10 01:55,-119.8764,39.6682,1539.00,84.20,37.40,18.91,240.00,15.00,0.00,30.04,M,10.00,M,CLR,M,M,M,M,M,M,M,M,M,M,M,M,M,M,81.38,KRTS 100155Z AUTO 24015KT 10SM CLR 29/03 A3004 RMK AO2,M
MEV,2021-09-10 01:55,-119.7500,38.9963,1441.42,80.60,44.60,28.08,320.00,3.00,0.00,30.02,M,10.00,M,CLR,M,M,M,M,M,M,M,M,M,M,M,M,M,M,79.42,KMEV 100155Z AUTO 32003KT 10SM CLR 27/07 A3002 RMK AO2,M
TMT,2021-09-10 01:55,-117.1971,39.4643,1749.34,82.60,33.00,16.65,170.00,18.00,0.00,30.09,M,10.00,22.00,CLR,M,M,M,M,M,M,M,M,M,M,M,M,M,M,80.15,KTMT 100155Z AUTO 17018G22KT 10SM CLR 28/01 A3009 RMK AO2 T02810005,M
NFL,2021-09-10 01:56,-118.7010,39.4166,1199.00,90.00,35.00,14.36,200.00,5.00,0.00,29.95,1011.30,10.00,M,BKN,BKN,OVC,M,7000.00,12000.00,25000.00,M,M,M,M,M,M,M,M,85.95,KNFL 100156Z 20005KT 10SM BKN070 BKN120 OVC250 32/02 A2995 RMK AO2 SLP113 CB DSNT S-SW T03220017,M
WMC,2021-09-10 01:56,-117.8072,40.9019,1315.00,91.00,33.00,12.85,300.00,11.00,0.00,29.93,1008.40,10.00,21.00,FEW,FEW,M,M,9000.00,11000.00,M,M,M,M,M,M,30.00,250.00,2021-09-10 01:32,86.74,KWMC 100156Z AUTO 30011G21KT 10SM FEW090 FEW110 33/01 A2993 RMK AO2 PK WND 25030/0132 WSHFT 0043 SLP084 T03280006,M
TPH,2021-09-10 01:56,-117.0904,38.0505,1654.00,86.00,32.00,14.40,190.00,16.00,0.00,30.10,1011.40,10.00,23.00,CLR,M,M,M,M,M,M,M,M,M,M,M,27.00,180.00,2021-09-10 01:04,82.64,KTPH 100156Z AUTO 19016G23KT 10SM CLR 30/00 A3010 RMK AO2 PK WND 18027/0104 SLP114 T03000000,M
HND,2021-09-10 01:56,-115.1344,35.9729,742.79,100.00,46.00,16.10,170.00,10.00,0.00,29.89,1010.40,10.00,M,CLR,M,M,M,M,M,M,M,M,M,M,M,M,M,M,96.16,KHND 100156Z 17010KT 10SM CLR 38/08 A2989 RMK AO2 SLP104 T03780078,M
LAS,2021-09-10 01:56,-115.1634,36.0719,663.00,101.00,46.00,15.67,200.00,8.00,0.00,29.86,1007.80,10.00,M,FEW,SCT,M,M,14000.00,22000.00,M,M,M,M,M,M,M,M,M,97.06,KLAS 100156Z 20008KT 10SM FEW140 SCT220 38/08 A2986 RMK AO2 SLP078 CB DSNT ALQDS T03830078,M
EKO,2021-09-10 01:56,-115.7860,40.8242,1367.00,85.00,34.00,16.16,150.00,11.00,0.00,30.07,1013.20,10.00,M,CLR,M,M,M,M,M,M,M,M,M,M,M,26.00,190.00,2021-09-10 01:03,81.82,KEKO 100156Z AUTO 15011KT 10SM CLR 29/01 A3007 RMK AO2 PK WND 19026/0103 SLP132 T02940011,M
LSV,2021-09-10 01:58,-115.0343,36.2362,570.00,103.00,44.40,13.89,150.00,10.00,0.00,29.81,1006.60,10.00,M,FEW,M,M,M,15000.00,M,M,M,M,M,M,M,M,M,M,98.72,KLSV 100158Z 15010KT 10SM FEW150 39/07 A2981 RMK AO2A SLP066 WND DATA ESTMD T03940069 $,M
INS,2021-09-10 01:58,-115.6733,36.5872,955.00,82.40,56.30,40.90,280.00,4.00,T,29.95,1009.70,10.00,M,FEW,M,M,M,18000.00,M,M,M,M,M,M,M,28.00,170.00,2021-09-10 00:57,81.91,KINS 100158Z AUTO 28004KT 10SM FEW180 28/14 A2995 RMK AO2 PK WND 17028/0057 RAE03DZB03E13 SLP097 P0000 T02800135 $,M
ELY,2021-09-10 02:01,-114.8453,39.2950,1909.00,66.00,55.00,67.64,310.00,7.00,T,30.22,M,10.00,M,FEW,FEW,BKN,M,4000.00,9000.00,11000.00,M,VCTS,M,M,M,M,M,M,66.00,KELY 100201Z AUTO 31007KT 10SM VCTS FEW040 FEW090 BKN110 19/13 A3022 RMK AO2 LTG DSNT SE RAE01 P0000 T01890128 $,M
RTS,2021-09-10 02:15,-119.8764,39.6682,1539.00,82.40,37.40,20.04,250.00,11.00,0.00,30.05,M,10.00,16.00,CLR,M,M,M,M,M,M,M,M,M,M,M,M,M,M,80.14,KRTS 100215Z AUTO 25011G16KT 10SM CLR 28/03 A3005 RMK AO2,M
BVU,2021-09-10 02:15,-114.8611,35.9475,671.00,98.60,46.40,17.05,170.00,4.00,0.00,29.86,M,10.00,M,CLR,M,M,M,M,M,M,M,M,M,M,M,M,M,M,94.84,KBVU 100215Z AUTO 17004KT 10SM CLR 37/08 A2986 RMK AO2,M
CXP,2021-09-10 02:15,-119.7326,39.1923,1431.00,82.40,44.60,26.49,0.00,0.00,0.00,30.03,M,10.00,M,CLR,M,M,M,M,M,M,M,M,M,M,M,M,M,M,80.50,KCXP 100215Z AUTO 00000KT 10SM CLR 28/07 A3003 RMK AO2,M
TMT,2021-09-10 02:15,-117.1971,39.4643,1749.34,82.40,32.00,16.17,170.00,12.00,0.00,30.09,M,10.00,20.00,CLR,M,M,M,M,M,M,M,M,M,M,M,M,M,M,80.00,KTMT 100215Z AUTO 17012G20KT 10SM CLR 28/00 A3009 RMK AO2 T02800000,M
BAM,2021-09-10 02:15,-116.8743,40.5990,1382.36,86.00,33.80,15.48,110.00,4.00,0.00,29.99,M,10.00,M,CLR,M,M,M,M,M,M,M,M,M,M,M,M,M,M,82.66,KBAM 100215Z AUTO 11004KT 10SM CLR 30/01 A2999 RMK AO1,M
MEV,2021-09-10 02:15,-119.7500,38.9963,1441.42,78.80,44.60,29.79,190.00,4.00,0.00,30.02,M,10.00,M,CLR,M,M,M,M,M,M,M,M,M,M,M,M,M,M,78.80,KMEV 100215Z AUTO 19004KT 10SM CLR 26/07 A3002 RMK AO2,M
ELY,2021-09-10 02:16,-114.8453,39.2950,1909.00,66.20,53.60,63.82,360.00,9.00,0.00,30.22,M,10.00,M,SCT,M,M,M,11000.00,M,M,M,M,M,M,M,M,M,M,66.20,KELY 100216Z AUTO 36009KT 10SM SCT110 19/12 A3022,M
CXP,2021-09-10 02:30,-119.7326,39.1923,1431.00,80.60,44.60,28.08,0.00,0.00,0.00,30.03,M,10.00,M,CLR,M,M,M,M,M,M,M,M,M,M,M,M,M,M,79.42,KCXP 100230Z AUTO 00000KT 10SM CLR 27/07 A3003 RMK AO2,M
TMT,2021-09-10 02:35,-117.1971,39.4643,1749.34,79.00,37.00,22.05,220.00,9.00,0.00,30.11,M,10.00,18.00,SCT,M,M,M,12000.00,M,M,M,M,M,M,M,M,M,M,79.00,KTMT 100235Z AUTO 22009G18KT 10SM SCT120 26/03 A3011 RMK AO2 T02610028,M
BAM,2021-09-10 02:35,-116.8743,40.5990,1382.36,84.20,33.80,16.39,90.00,7.00,0.00,29.99,M,10.00,M,CLR,M,M,M,M,M,M,M,M,M,M,M,M,M,M,81.30,KBAM 100235Z AUTO 09007KT 10SM CLR 29/01 A2999 RMK AO1,M
RTS,2021-09-10 02:35,-119.8764,39.6682,1539.00,82.40,39.20,21.51,250.00,10.00,0.00,30.06,M,10.00,M,CLR,M,M,M,M,M,M,M,M,M,M,M,M,M,M,80.21,KRTS 100235Z AUTO 25010KT 10SM CLR 28/04 A3006 RMK AO2,M
BVU,2021-09-10 02:35,-114.8611,35.9475,671.00,98.60,46.40,17.05,140.00,6.00,0.00,29.87,M,10.00,M,CLR,M,M,M,M,M,M,M,M,M,M,M,M,M,M,94.84,KBVU 100235Z AUTO 14006KT 10SM CLR 37/08 A2987 RMK AO2,M
MEV,2021-09-10 02:35,-119.7500,38.9963,1441.42,73.40,44.60,35.66,0.00,0.00,0.00,30.03,M,10.00,M,CLR,M,M,M,M,M,M,M,M,M,M,M,M,M,M,73.40,KMEV 100235Z AUTO 00000KT 10SM CLR 23/07 A3003 RMK AO2,M
DRA,2021-09-10 02:53,-116.0278,36.6206,1009.00,89.00,47.00,23.32,290.00,3.00,0.00,29.97,1009.70,10.00,M,CLR,M,M,M,M,M,M,M,M,M,M,M,M,M,M,85.85,KDRA 100253Z AUTO 29003KT 10SM CLR 32/08 A2997 RMK AO2 SLP097 T03170083 53017,M
LOL,2021-09-10 02:53,-118.5701,40.0684,1192.43,88.00,38.00,17.08,230.00,11.00,0.00,29.96,1010.20,9.00,M,FEW,FEW,M,M,4200.00,12000.00,M,M,M,M,M,M,35.00,200.00,2021-09-10 02:09,84.34,KLOL 100253Z AUTO 23011KT 9SM FEW042 FEW120 31/03 A2996 RMK AO2 PK WND 20035/0209 SLP102 T03110033 53017,M
VGT,2021-09-10 02:53,-115.1933,36.2111,667.00,100.00,46.00,16.10,190.00,6.00,0.00,29.86,1009.40,10.00,M,CLR,M,M,M,M,M,M,M,M,M,M,M,M,M,M,96.16,KVGT 100253Z 19006KT 10SM CLR 38/08 A2986 RMK AO2 SLP094 T03780078 53012,M
P68,2021-09-10 02:53,-116.0056,39.6014,1993.00,68.00,40.00,35.76,180.00,3.00,0.00,30.17,1014.10,M,M,M,M,M,M,M,M,M,M,M,M,M,M,M,M,M,68.00,KP68 100253Z AUTO 18003KT 20/04 A3017 RMK AO1 SLP141 T02000044 55012,M
ELY,2021-09-10 02:53,-114.8453,39.2950,1909.00,65.00,52.00,62.96,M,3.00,T,30.24,1014.90,10.00,M,SCT,M,M,M,11000.00,M,M,M,M,M,M,M,M,M,M,64.90,KELY 100253Z AUTO VRB03KT 10SM SCT110 18/11 A3024 RMK AO2 RAE01 SLP149 P0000 60001 T01830111 53006 $,M
RNO,2021-09-10 02:55,-119.7711,39.4839,1341.00,80.00,52.00,37.67,0.00,0.00,0.00,30.00,1010.50,10.00,M,SCT,BKN,BKN,M,9000.00,15000.00,22000.00,M,M,M,M,M,M,M,M,79.81,KRNO 100255Z 00000KT 10SM SCT090 BKN150 BKN220 27/11 A3000 RMK AO2 SLP105 60002 T02670111 55006,M
CXP,2021-09-10 02:55,-119.7326,39.1923,1431.00,82.40,42.80,24.72,240.00,4.00,0.00,30.04,M,10.00,M,FEW,SCT,M,M,6000.00,12000.00,M,M,M,M,M,M,M,M,M,80.39,KCXP 100255Z AUTO 24004KT 10SM FEW060 SCT120 28/06 A3004 RMK AO2,M
BVU,2021-09-10 02:55,-114.8611,35.9475,671.00,98.60,48.20,18.25,110.00,9.00,0.00,29.87,M,10.00,M,CLR,M,M,M,M,M,M,M,M,M,M,M,M,M,M,95.17,KBVU 100255Z AUTO 11009KT 10SM CLR 37/09 A2987 RMK AO2,M
RTS,2021-09-10 02:55,-119.8764,39.6682,1539.00,80.60,39.20,22.81,240.00,7.00,0.00,30.07,M,10.00,M,CLR,M,M,M,M,M,M,M,M,M,M,M,M,M,M,79.10,KRTS 100255Z AUTO 24007KT 10SM CLR 27/04 A3007 RMK AO2,M
BAM,2021-09-10 02:55,-116.8743,40.5990,1382.36,86.00,32.00,14.40,130.00,10.00,0.00,29.99,M,10.00,17.00,CLR,M,M,M,M,M,M,M,M,M,M,M,M,M,M,82.64,KBAM 100255Z AUTO 13010G17KT 10SM CLR 30/00 A2999 RMK AO1,M
TMT,2021-09-10 02:55,-117.1971,39.4643,1749.34,77.20,37.20,23.58,250.00,11.00,0.00,30.13,M,10.00,M,SCT,M,M,M,12000.00,M,M,M,M,M,M,M,M,M,M,77.20,KTMT 100255Z AUTO 25011KT 10SM SCT120 25/03 A3013 RMK AO2 T02510029,M
MEV,2021-09-10 02:55,-119.7500,38.9963,1441.42,77.00,42.80,29.51,190.00,8.00,0.00,30.03,M,10.00,M,CLR,M,M,M,M,M,M,M,M,M,M,M,M,M,M,77.00,KMEV 100255Z AUTO 19008KT 10SM CLR 25/06 A3003 RMK AO2,M
LAS,2021-09-10 02:56,-115.1634,36.0719,663.00,99.00,48.00,17.90,230.00,8.00,0.00,29.88,1008.40,10.00,M,FEW,SCT,M,M,14000.00,22000.00,M,M,M,M,M,M,M,M,M,95.54,KLAS 100256Z 23008KT 10SM FEW140 SCT220 37/09 A2988 RMK AO2 SLP084 T03720089 53010,M
EKO,2021-09-10 02:56,-115.7860,40.8242,1367.00,80.00,37.00,21.27,160.00,9.00,0.00,30.07,1013.00,10.00,M,CLR,M,M,M,M,M,M,M,M,M,M,M,M,M,M,78.81,KEKO 100256Z AUTO 16009KT 10SM CLR 27/03 A3007 RMK AO2 SLP130 T02670028 50003,M
NFL,2021-09-10 02:56,-118.7010,39.4166,1199.00,86.00,39.00,19.01,250.00,11.00,0.00,29.98,1012.30,10.00,15.00,BKN,BKN,BKN,M,7000.00,12000.00,25000.00,M,M,M,M,M,M,M,M,82.78,KNFL 100256Z 25011G15KT 10SM BKN070 BKN120 BKN250 30/04 A2998 RMK AO2 SLP123 CB DSNT SW T03000039 53024,M
HND,2021-09-10 02:56,-115.1344,35.9729,742.79,96.00,49.00,20.22,190.00,4.00,0.00,29.91,1011.00,10.00,M,CLR,M,M,M,M,M,M,M,M,M,M,M,M,M,M,92.78,KHND 100256Z 19004KT 10SM CLR 36/09 A2991 RMK AO2 SLP110 T03560094 53010,M
WMC,2021-09-10 02:56,-117.8072,40.9019,1315.00,82.00,43.00,25.24,320.00,4.00,T,29.97,1009.80,10.00,M,CLR,M,M,M,M,M,M,M,M,M,M,M,M,M,M,80.15,KWMC 100256Z AUTO 32004KT 10SM CLR 28/06 A2997 RMK AO2 RAB15E30 SLP098 P0000 60000 T02780061 53014,M
TPH,2021-09-10 02:56,-117.0904,38.0505,1654.00,81.00,42.00,25.19,220.00,20.00,0.00,30.12,1012.10,10.00,26.00,CLR,M,M,M,M,M,M,M,M,M,M,M,26.00,210.00,2021-09-10 02:43,79.49,KTPH 100256Z AUTO 22020G26KT 10SM CLR 27/06 A3012 RMK AO2 PK WND 21026/0243 SLP121 T02720056 53008,M
INS,2021-09-10 02:58,-115.6733,36.5872,955.00,80.40,57.70,45.91,10.00,3.00,0.00,29.96,1009.90,10.00,M,CLR,M,M,M,M,M,M,M,M,M,M,M,M,M,M,80.75,KINS 100258Z AUTO 01003KT 10SM CLR 27/14 A2996 RMK AO2 SLP099 60010 T02690143 50015 $,M
LSV,2021-09-10 02:58,-115.0343,36.2362,570.00,M,M,M,M,M,0.00,29.85,M,M,M,M,M,M,M,M,M,M,M,M,M,M,M,M,M,M,M,KLSV 100258Z AUTO M M M M M A2985 RMK AO2 SLPNO ALSTG ESTMD RVRNO $,M
CXP,2021-09-10 03:10,-119.7326,39.1923,1431.00,82.40,42.80,24.72,230.00,3.00,0.00,30.05,M,10.00,M,BKN,M,M,M,12000.00,M,M,M,M,M,M,M,M,M,M,80.39,KCXP 100310Z AUTO 23003KT 10SM BKN120 28/06 A3005 RMK AO2,M
NFL,2021-09-10 03:14,-118.7010,39.4166,1199.00,85.00,41.00,21.28,250.00,10.00,0.00,29.97,M,10.00,M,BKN,BKN,BKN,M,7000.00,12000.00,25000.00,M,M,M,M,M,M,M,M,82.03,KNFL 100314Z 25010KT 10SM BKN070 BKN120 BKN250 29/05 A2997 RMK AO2 WSHFT 0254 T02940050,M
MEV,2021-09-10 03:15,-119.7500,38.9963,1441.42,77.00,44.60,31.62,180.00,9.00,0.00,30.04,M,10.00,M,FEW,M,M,M,12000.00,M,M,M,M,M,M,M,M,M,M,77.00,KMEV 100315Z AUTO 18009KT 10SM FEW120 25/07 A3004 RMK AO2,M
TMT,2021-09-10 03:15,-117.1971,39.4643,1749.34,76.00,38.00,25.31,250.00,9.00,0.00,30.13,M,10.00,M,CLR,M,M,M,M,M,M,M,M,M,M,M,M,M,M,75.90,KTMT 100315Z AUTO 25009KT 10SM CLR 24/03 A3013 RMK AO2 T02440033,M
BAM,2021-09-10 03:15,-116.8743,40.5990,1382.36,84.20,32.00,15.25,0.00,0.00,0.00,30.01,M,10.00,M,CLR,M,M,M,M,M,M,M,M,M,M,M,M,M,M,81.28,KBAM 100315Z AUTO 00000KT 10SM CLR 29/00 A3001 RMK AO1,M
RTS,2021-09-10 03:15,-119.8764,39.6682,1539.00,80.60,39.20,22.81,250.00,12.00,0.00,30.07,M,10.00,M,CLR,M,M,M,M,M,M,M,M,M,M,M,M,M,M,79.10,KRTS 100315Z AUTO 25012KT 10SM CLR 27/04 A3007 RMK AO2,M
BVU,2021-09-10 03:15,-114.8611,35.9475,671.00,96.80,48.20,19.28,110.00,7.00,0.00,29.88,M,10.00,M,CLR,M,M,M,M,M,M,M,M,M,M,M,M,M,M,93.36,KBVU 100315Z AUTO 11007KT 10SM CLR 36/09 A2988 RMK AO2,M
BVU,2021-09-10 03:35,-114.8611,35.9475,671.00,96.80,48.20,19.28,110.00,7.00,0.00,29.89,M,10.00,M,CLR,M,M,M,M,M,M,M,M,M,M,M,M,M,M,93.36,KBVU 100335Z AUTO 11007KT 10SM CLR 36/09 A2989 RMK AO2,M
TMT,2021-09-10 03:35,-117.1971,39.4643,1749.34,70.50,37.00,29.30,140.00,5.00,0.00,30.15,M,10.00,8.00,CLR,M,M,M,M,M,M,M,M,M,M,M,M,M,M,70.50,KTMT 100335Z AUTO 14005G08KT 10SM CLR 21/03 A3015 RMK AO2 LTG DSNT N AND W T02140028,M
MEV,2021-09-10 03:35,-119.7500,38.9963,1441.42,75.20,42.80,31.34,200.00,12.00,0.00,30.05,M,10.00,M,FEW,M,M,M,12000.00,M,M,M,M,M,M,M,M,M,M,75.20,KMEV 100335Z AUTO 20012KT 10SM FEW120 24/06 A3005 RMK AO2 LTG DSNT NE AND S,M
CXP,2021-09-10 03:35,-119.7326,39.1923,1431.00,82.40,41.00,23.07,0.00,0.00,0.00,30.06,M,10.00,M,BKN,M,M,M,12000.00,M,M,M,M,M,M,M,M,M,M,80.29,KCXP 100335Z AUTO 00000KT 10SM BKN120 28/05 A3006 RMK AO2 LTG DSNT N AND NE,M
BAM,2021-09-10 03:35,-116.8743,40.5990,1382.36,82.40,32.00,16.17,120.00,7.00,0.00,30.02,M,10.00,M,CLR,M,M,M,M,M,M,M,M,M,M,M,M,M,M,80.00,KBAM 100335Z AUTO 12007KT 10SM CLR 28/00 A3002 RMK AO1,M
RTS,2021-09-10 03:35,-119.8764,39.6682,1539.00,78.80,39.20,24.19,240.00,8.00,0.00,30.08,M,10.00,M,CLR,M,M,M,M,M,M,M,M,M,M,M,M,M,M,78.80,KRTS 100335Z AUTO 24008KT 10SM CLR 26/04 A3008 RMK AO2,M
P68,2021-09-10 03:53,-116.0056,39.6014,1993.00,76.00,39.00,26.42,190.00,7.00,0.00,30.18,1012.60,M,17.00,M,M,M,M,M,M,M,M,M,M,M,M,M,M,M,75.90,KP68 100353Z AUTO 19007G17KT 24/04 A3018 RMK AO1 SLP126 T02440039,M
VGT,2021-09-10 03:53,-115.1933,36.2111,667.00,98.00,50.00,19.82,240.00,4.00,0.00,29.88,1010.30,10.00,M,CLR,M,M,M,M,M,M,M,M,M,M,M,M,M,M,95.04,KVGT 100353Z 24004KT 10SM CLR 37/10 A2988 RMK AO2 SLP103 T03670100,M
DRA,2021-09-10 03:53,-116.0278,36.6206,1009.00,87.00,46.00,24.02,60.00,4.00,0.00,30.00,1010.20,10.00,M,CLR,M,M,M,M,M,M,M,M,M,M,M,M,M,M,84.07,KDRA 100353Z AUTO 06004KT 10SM CLR 31/08 A3000 RMK AO2 SLP102 T03060078,M
LOL,2021-09-10 03:53,-118.5701,40.0684,1192.43,86.00,38.00,18.20,290.00,10.00,0.00,29.96,1010.00,10.00,M,CLR,M,M,M,M,M,M,M,M,M,M,M,M,M,M,82.74,KLOL 100353Z AUTO 29010KT 10SM CLR 30/03 A2996 RMK AO2 LTG DSNT SW AND W SLP100 T03000033,M
ELY,2021-09-10 03:53,-114.8453,39.2950,1909.00,67.00,48.00,50.62,210.00,8.00,0.00,30.24,1013.00,10.00,M,SCT,M,M,M,12000.00,M,M,M,M,M,M,M,M,M,M,66.90,KELY 100353Z AUTO 21008KT 10SM SCT120 19/09 A3024 RMK AO2 SLP130 T01940089 $,M
MEV,2021-09-10 03:55,-119.7500,38.9963,1441.42,71.60,42.80,35.37,170.00,5.00,0.00,30.05,M,10.00,M,CLR,M,M,M,M,M,M,M,M,M,M,M,M,M,M,71.60,KMEV 100355Z AUTO 17005KT 10SM CLR 22/06 A3005 RMK AO2,M
RNO,2021-09-10 03:55,-119.7711,39.4839,1341.00,76.00,53.00,45.06,0.00,0.00,0.00,30.03,1011.10,10.00,M,SCT,BKN,BKN,M,9000.00,15000.00,22000.00,M,M,M,M,M,M,M,M,75.90,KRNO 100355Z 00000KT 10SM SCT090 BKN150 BKN220 24/12 A3003 RMK AO2 LTG DSNT NE SLP111 T02440117,M
BVU,2021-09-10 03:55,-114.8611,35.9475,671.00,93.20,50.00,23.04,90.00,4.00,0.00,29.90,M,10.00,M,CLR,M,M,M,M,M,M,M,M,M,M,M,M,M,M,90.10,KBVU 100355Z AUTO 09004KT 10SM CLR 34/10 A2990 RMK AO2,M
BAM,2021-09-10 03:55,-116.8743,40.5990,1382.36,80.60,33.80,18.42,210.00,3.00,0.00,30.04,M,10.00,M,CLR,M,M,M,M,M,M,M,M,M,M,M,M,M,M,78.88,KBAM 100355Z AUTO 21003KT 10SM CLR 27/01 A3004 RMK AO1,M
TMT,2021-09-10 03:55,-117.1971,39.4643,1749.34,68.50,37.00,31.25,150.00,5.00,0.00,30.15,M,10.00,M,CLR,M,M,M,M,M,M,M,M,M,M,M,M,M,M,68.50,KTMT 100355Z AUTO 15005KT 10SM CLR 20/03 A3015 RMK AO2 T02030027,M
CXP,2021-09-10 03:55,-119.7326,39.1923,1431.00,80.60,41.00,24.46,330.00,3.00,0.00,30.06,M,10.00,M,SCT,M,M,M,12000.00,M,M,M,M,M,M,M,M,M,M,79.20,KCXP 100355Z AUTO 33003KT 10SM SCT120 27/05 A3006 RMK AO2,M
RTS,2021-09-10 03:55,-119.8764,39.6682,1539.00,77.00,39.20,25.67,240.00,9.00,0.00,30.08,M,10.00,M,CLR,M,M,M,M,M,M,M,M,M,M,M,M,M,M,77.00,KRTS 100355Z AUTO 24009KT 10SM CLR 25/04 A3008 RMK AO2,M
TPH,2021-09-10 03:56,-117.0904,38.0505,1654.00,80.00,41.00,24.86,220.00,15.00,0.00,30.15,1012.20,10.00,21.00,CLR,M,M,M,M,M,M,M,M,M,M,M,M,M,M,78.98,KTPH 100356Z AUTO 22015G21KT 10SM CLR 27/05 A3015 RMK AO2 SLP122 T02670050,M
WMC,2021-09-10 03:56,-117.8072,40.9019,1315.00,83.00,40.00,21.75,250.00,14.00,0.00,30.00,1010.60,7.00,24.00,FEW,M,M,M,10000.00,M,M,M,M,M,M,M,M,M,M,80.57,KWMC 100356Z AUTO 25014G24KT 7SM FEW100 28/04 A3000 RMK AO2 SLP106 T02830044,M
NFL,2021-09-10 03:56,-118.7010,39.4166,1199.00,86.00,41.00,20.54,200.00,17.00,T,29.99,1012.70,10.00,26.00,BKN,BKN,BKN,M,7000.00,12000.00,25000.00,M,-RA,M,M,M,26.00,200.00,2021-09-10 03:55,82.86,KNFL 100356Z 20017G26KT 10SM -RA BKN070 BKN120 BKN250 30/05 A2999 RMK AO2 PK WND 20026/0355 WSHFT 0254 RAB55 SLP127 OCNL LTGIC DSNT W-NW CB DSNT NW P0000 T03000050,M
LAS,2021-09-10 03:56,-115.1634,36.0719,663.00,96.00,49.00,20.22,210.00,4.00,0.00,29.90,1009.30,10.00,M,FEW,SCT,M,M,14000.00,22000.00,M,M,M,M,M,M,M,M,M,92.78,KLAS 100356Z 21004KT 10SM FEW140 SCT220 36/09 A2990 RMK AO2 SLP093 T03560094,M
EKO,2021-09-10 03:56,-115.7860,40.8242,1367.00,77.00,37.00,23.55,230.00,7.00,0.00,30.08,1013.30,10.00,M,CLR,M,M,M,M,M,M,M,M,M,M,M,M,M,M,77.00,KEKO 100356Z AUTO 23007KT 10SM CLR 25/03 A3008 RMK AO2 SLP133 T02500028,M
HND,2021-09-10 03:56,-115.1344,35.9729,742.79,93.00,52.00,24.97,120.00,4.00,0.00,29.94,1012.00,10.00,M,CLR,M,M,M,M,M,M,M,M,M,M,M,M,M,M,90.29,KHND 100356Z AUTO 12004KT 10SM CLR 34/11 A2994 RMK AO2 SLP120 T03390111,M
INS,2021-09-10 03:58,-115.6733,36.5872,955.00,79.70,62.00,54.95,0.00,0.00,0.00,29.99,M,10.00,M,CLR,M,M,M,M,M,M,M,M,M,M,M,M,M,M,79.70,KINS 100358Z AUTO 00000KT 10SM CLR 27/17 A2999 RMK AO2 SLPNO T02650167 $,M
LSV,2021-09-10 03:58,-115.0343,36.2362,570.00,98.40,41.20,14.07,170.00,6.00,0.00,29.88,M,10.00,M,CLR,M,M,M,M,M,M,M,M,M,M,M,M,M,M,93.92,KLSV 100358Z 17006KT 10SM CLR 37/05 A2988 RMK AO2A SLPNO WND DATA ESTMD ALSTG/SLP ESTMD T03690051 $,M
RTS,2021-09-10 04:15,-119.8764,39.6682,1539.00,77.00,41.00,27.53,240.00,12.00,0.00,30.09,M,10.00,M,CLR,M,M,M,M,M,M,M,M,M,M,M,M,M,M,77.00,KRTS 100415Z AUTO 24012KT 10SM CLR 25/05 A3009 RMK AO2,M
BVU,2021-09-10 04:15,-114.8611,35.9475,671.00,93.20,48.20,21.54,290.00,4.00,0.00,29.90,M,10.00,M,CLR,M,M,M,M,M,M,M,M,M,M,M,M,M,M,89.80,KBVU 100415Z AUTO 29004KT 10SM CLR 34/09 A2990 RMK AO2,M
MEV,2021-09-10 04:15,-119.7500,38.9963,1441.42,69.80,42.80,37.61,190.00,5.00,0.00,30.06,M,10.00,M,CLR,M,M,M,M,M,M,M,M,M,M,M,M,M,M,69.80,KMEV 100415Z AUTO 19005KT 10SM CLR 21/06 A3006 RMK AO2,M
TMT,2021-09-10 04:15,-117.1971,39.4643,1749.34,67.60,36.50,31.73,190.00,4.00,0.00,30.15,M,10.00,M,CLR,M,M,M,M,M,M,M,M,M,M,M,M,M,M,67.60,KTMT 100415Z AUTO 19004KT 10SM CLR 20/03 A3015 RMK AO2 T01980025,M
CXP,2021-09-10 04:15,-119.7326,39.1923,1431.00,77.00,41.00,27.53,0.00,0.00,0.00,30.07,M,10.00,M,CLR,M,M,M,M,M,M,M,M,M,M,M,M,M,M,77.00,KCXP 100415Z AUTO 00000KT 10SM CLR 25/05 A3007 RMK AO2,M
BAM,2021-09-10 04:15,-116.8743,40.5990,1382.36,80.60,33.80,18.42,220.00,4.00,0.00,30.04,M,10.00,M,CLR,M,M,M,M,M,M,M,M,M,M,M,M,M,M,78.88,KBAM 100415Z AUTO 22004KT 10SM CLR 27/01 A3004 RMK AO1,M
TMT,2021-09-10 04:35,-117.1971,39.4643,1749.34,65.70,36.00,33.23,160.00,3.00,0.00,30.15,M,10.00,M,CLR,M,M,M,M,M,M,M,M,M,M,M,M,M,M,65.70,KTMT 100435Z AUTO 16003KT 10SM CLR 19/02 A3015 RMK AO2 T01870022,M
BVU,2021-09-10 04:35,-114.8611,35.9475,671.00,89.60,50.00,25.79,320.00,4.00,0.00,29.91,M,10.00,M,CLR,M,M,M,M,M,M,M,M,M,M,M,M,M,M,86.70,KBVU 100435Z AUTO 32004KT 10SM CLR 32/10 A2991 RMK AO2,M
BAM,2021-09-10 04:35,-116.8743,40.5990,1382.36,77.00,33.80,20.74,120.00,4.00,0.00,30.03,M,10.00,M,CLR,M,M,M,M,M,M,M,M,M,M,M,M,M,M,77.00,KBAM 100435Z AUTO 12004KT 10SM CLR 25/01 A3003 RMK AO1,M
MEV,2021-09-10 04:35,-119.7500,38.9963,1441.42,71.60,42.80,35.37,190.00,9.00,0.00,30.06,M,10.00,M,CLR,M,M,M,M,M,M,M,M,M,M,M,M,M,M,71.60,KMEV 100435Z AUTO 19009KT 10SM CLR 22/06 A3006 RMK AO2,M
RTS,2021-09-10 04:35,-119.8764,39.6682,1539.00,75.20,41.00,29.23,240.00,10.00,0.00,30.09,M,10.00,M,CLR,M,M,M,M,M,M,M,M,M,M,M,M,M,M,75.20,KRTS 100435Z AUTO 24010KT 10SM CLR 24/05 A3009 RMK AO2,M
CXP,2021-09-10 04:35,-119.7326,39.1923,1431.00,75.20,41.00,29.23,360.00,5.00,0.00,30.07,M,10.00,M,CLR,M,M,M,M,M,M,M,M,M,M,M,M,M,M,75.20,KCXP 100435Z AUTO 36005KT 10SM CLR 24/05 A3007 RMK AO2,M
VGT,2021-09-10 04:53,-115.1933,36.2111,667.00,94.00,50.00,22.55,20.00,5.00,0.00,29.90,1010.80,10.00,M,CLR,M,M,M,M,M,M,M,M,M,M,M,M,M,M,90.79,KVGT 100453Z AUTO 02005KT 10SM CLR 34/10 A2990 RMK AO2 SLP108 T03440100,M
ELY,2021-09-10 04:53,-114.8453,39.2950,1909.00,62.00,48.00,59.86,190.00,6.00,0.00,30.24,1013.00,10.00,M,CLR,M,M,M,M,M,M,M,M,M,M,M,M,M,M,62.10,KELY 100453Z AUTO 19006KT 10SM CLR 17/09 A3024 RMK AO2 SLP130 T01670089 $,M
LOL,2021-09-10 04:53,-118.5701,40.0684,1192.43,85.00,39.00,19.69,290.00,14.00,0.00,29.99,1010.70,10.00,M,CLR,M,M,M,M,M,M,M,M,M,M,M,M,M,M,81.95,KLOL 100453Z AUTO 29014KT 10SM CLR 29/04 A2999 RMK AO2 SLP107 T02940039,M
P68,2021-09-10 04:53,-116.0056,39.6014,1993.00,72.00,38.00,28.85,160.00,4.00,0.00,30.17,1012.00,M,M,M,M,M,M,M,M,M,M,M,M,M,M,M,M,M,72.00,KP68 100453Z AUTO 16004KT 22/03 A3017 RMK AO1 SLP120 T02220033,M
DRA,2021-09-10 04:53,-116.0278,36.6206,1009.00,86.00,48.00,26.82,50.00,12.00,0.00,30.00,1010.10,10.00,M,CLR,M,M,M,M,M,M,M,M,M,M,M,M,M,M,83.38,KDRA 100453Z AUTO 05012KT 10SM CLR 30/09 A3000 RMK AO2 SLP101 T03000089,M
BVU,2021-09-10 04:55,-114.8611,35.9475,671.00,89.60,51.80,27.56,0.00,0.00,0.00,29.91,M,10.00,M,CLR,M,M,M,M,M,M,M,M,M,M,M,M,M,M,87.00,KBVU 100455Z AUTO 00000KT 10SM CLR 32/11 A2991 RMK AO2,M
TMT,2021-09-10 04:55,-117.1971,39.4643,1749.34,63.70,35.00,34.11,180.00,6.00,0.00,30.16,M,10.00,M,CLR,M,M,M,M,M,M,M,M,M,M,M,M,M,M,63.70,KTMT 100455Z AUTO 18006KT 10SM CLR 18/02 A3016 RMK AO2 T01760016,M
MEV,2021-09-10 04:55,-119.7500,38.9963,1441.42,73.40,42.80,33.29,210.00,9.00,0.00,30.06,M,10.00,M,CLR,M,M,M,M,M,M,M,M,M,M,M,M,M,M,73.40,KMEV 100455Z AUTO 21009KT 10SM CLR 23/06 A3006 RMK AO2,M
RTS,2021-09-10 04:55,-119.8764,39.6682,1539.00,75.20,41.00,29.23,250.00,9.00,0.00,30.09,M,10.00,M,CLR,M,M,M,M,M,M,M,M,M,M,M,M,M,M,75.20,KRTS 100455Z AUTO 25009KT 10SM CLR 24/05 A3009 RMK AO2,M
RNO,2021-09-10 04:55,-119.7711,39.4839,1341.00,76.00,51.00,41.86,0.00,0.00,0.00,30.03,1011.10,10.00,M,FEW,M,M,M,15000.00,M,M,M,M,M,M,M,M,M,M,75.90,KRNO 100455Z 00000KT 10SM FEW150 24/11 A3003 RMK AO2 SLP111 T02440106,M
BAM,2021-09-10 04:55,-116.8743,40.5990,1382.36,80.60,33.80,18.42,120.00,3.00,0.00,30.03,M,10.00,M,CLR,M,M,M,M,M,M,M,M,M,M,M,M,M,M,78.88,KBAM 100455Z AUTO 12003KT 10SM CLR 27/01 A3003 RMK AO1,M
CXP,2021-09-10 04:55,-119.7326,39.1923,1431.00,75.20,41.00,29.23,0.00,0.00,0.00,30.07,M,10.00,M,CLR,M,M,M,M,M,M,M,M,M,M,M,M,M,M,75.20,KCXP 100455Z AUTO 00000KT 10SM CLR 24/05 A3007 RMK AO2,M
WMC,2021-09-10 04:56,-117.8072,40.9019,1315.00,76.00,40.00,27.37,240.00,4.00,0.00,30.00,1010.30,10.00,M,CLR,M,M,M,M,M,M,M,M,M,M,M,M,M,M,75.90,KWMC 100456Z AUTO 24004KT 10SM CLR 24/04 A3000 RMK AO2 SLP103 T02440044,M
TPH,2021-09-10 04:56,-117.0904,38.0505,1654.00,77.00,44.00,31.02,240.00,12.00,0.00,30.18,1013.20,10.00,M,CLR,M,M,M,M,M,M,M,M,M,M,M,29.00,260.00,2021-09-10 04:13,77.00,KTPH 100456Z AUTO 24012KT 10SM CLR 25/07 A3018 RMK AO2 PK WND 26029/0413 SLP132 T02500067,M
LAS,2021-09-10 04:56,-115.1634,36.0719,663.00,95.00,51.00,22.70,190.00,5.00,0.00,29.91,1009.70,10.00,M,FEW,BKN,M,M,13000.00,22000.00,M,M,M,M,M,M,M,M,M,92.11,KLAS 100456Z 19005KT 10SM FEW130 BKN220 35/11 A2991 RMK AO2 SLP097 T03500106,M
EKO,2021-09-10 04:56,-115.7860,40.8242,1367.00,74.00,38.00,27.06,M,3.00,0.00,30.09,1012.80,10.00,M,CLR,M,M,M,M,M,M,M,M,M,M,M,M,M,M,73.90,KEKO 100456Z AUTO VRB03KT 10SM CLR 23/03 A3009 RMK AO2 SLP128 T02330033,M
HND,2021-09-10 04:56,-115.1344,35.9729,742.79,91.00,52.00,26.57,170.00,6.00,0.00,29.95,1012.30,10.00,M,CLR,M,M,M,M,M,M,M,M,M,M,M,M,M,M,88.35,KHND 100456Z AUTO 17006KT 10SM CLR 33/11 A2995 RMK AO2 SLP123 T03280111,M
NFL,2021-09-10 04:56,-118.7010,39.4166,1199.00,82.00,41.00,23.37,260.00,6.00,T,29.98,1012.40,10.00,M,BKN,BKN,OVC,M,7000.00,12000.00,25000.00,M,M,M,M,M,M,M,M,80.04,KNFL 100456Z 26006KT 10SM BKN070 BKN120 OVC250 28/05 A2998 RMK AO2 RAE04 SLP124 OCNL LTGIC DSNT W-NW CB DSNT NW P0000 T02780050,M
INS,2021-09-10 04:58,-115.6733,36.5872,955.00,78.60,59.00,51.03,0.00,0.00,0.00,30.00,M,10.00,M,FEW,M,M,M,12000.00,M,M,M,M,M,M,M,M,M,M,78.60,KINS 100458Z AUTO 00000KT 10SM FEW120 26/15 A3000 RMK AO2 SLPNO T02590150 $,M
LSV,2021-09-10 04:58,-115.0343,36.2362,570.00,96.00,48.40,19.85,0.00,0.00,0.00,29.88,M,10.00,M,SCT,M,M,M,13000.00,M,M,M,M,M,M,M,M,M,M,92.69,KLSV 100458Z AUTO 00000KT 10SM SCT130 36/09 A2988 RMK AO2 SLPNO T03560091 $,M
CXP,2021-09-10 05:10,-119.7326,39.1923,1431.00,75.20,41.00,29.23,350.00,4.00,0.00,30.07,M,10.00,M,CLR,M,M,M,M,M,M,M,M,M,M,M,M,M,M,75.20,KCXP 100510Z AUTO 35004KT 10SM CLR 24/05 A3007 RMK AO2,M
TMT,2021-09-10 05:15,-117.1971,39.4643,1749.34,70.50,36.50,28.73,210.00,7.00,0.00,30.16,M,10.00,M,CLR,M,M,M,M,M,M,M,M,M,M,M,M,M,M,70.50,KTMT 100515Z AUTO 21007KT 10SM CLR 21/03 A3016 RMK AO2 T02140025,M
BVU,2021-09-10 05:15,-114.8611,35.9475,671.00,87.80,51.80,29.18,340.00,4.00,0.00,29.91,M,10.00,M,CLR,M,M,M,M,M,M,M,M,M,M,M,M,M,M,85.39,KBVU 100515Z AUTO 34004KT 10SM CLR 31/11 A2991 RMK AO2,M
RTS,2021-09-10 05:15,-119.8764,39.6682,1539.00,73.40,39.20,28.96,230.00,7.00,0.00,30.09,M,10.00,M,CLR,M,M,M,M,M,M,M,M,M,M,M,M,M,M,73.40,KRTS 100515Z AUTO 23007KT 10SM CLR 23/04 A3009 RMK AO2,M
MEV,2021-09-10 05:15,-119.7500,38.9963,1441.42,75.20,42.80,31.34,210.00,9.00,0.00,30.06,M,10.00,M,CLR,M,M,M,M,M,M,M,M,M,M,M,M,M,M,75.20,KMEV 100515Z AUTO 21009KT 10SM CLR 24/06 A3006 RMK AO2,M
BAM,2021-09-10 05:15,-116.8743,40.5990,1382.36,77.00,33.80,20.74,130.00,4.00,0.00,30.03,M,10.00,M,CLR,M,M,M,M,M,M,M,M,M,M,M,M,M,M,77.00,KBAM 100515Z AUTO 13004KT 10SM CLR 25/01 A3003 RMK AO1,M
TMT,2021-09-10 05:35,-117.1971,39.4643,1749.34,71.00,37.40,29.17,230.00,10.00,0.00,30.18,M,10.00,M,SCT,M,M,M,11000.00,M,M,M,M,M,M,M,M,M,M,71.10,KTMT 100535Z AUTO 23010KT 10SM SCT110 22/03 A3018 RMK AO2 T02170030,M
MEV,2021-09-10 05:35,-119.7500,38.9963,1441.42,68.00,42.80,40.00,110.00,7.00,0.00,30.06,M,10.00,M,CLR,M,M,M,M,M,M,M,M,M,M,M,M,M,M,68.00,KMEV 100535Z AUTO 11007KT 10SM CLR 20/06 A3006 RMK AO2,M
BAM,2021-09-10 05:35,-116.8743,40.5990,1382.36,77.00,33.80,20.74,0.00,0.00,0.00,30.03,M,10.00,M,CLR,M,M,M,M,M,M,M,M,M,M,M,M,M,M,77.00,KBAM 100535Z AUTO 00000KT 10SM CLR 25/01 A3003 RMK AO1,M
RTS,2021-09-10 05:35,-119.8764,39.6682,1539.00,75.20,39.20,27.26,210.00,9.00,0.00,30.09,M,10.00,14.00,FEW,M,M,M,11000.00,M,M,M,M,M,M,M,M,M,M,75.20,KRTS 100535Z AUTO 21009G14KT 10SM FEW110 24/04 A3009 RMK AO2,M
CXP,2021-09-10 05:35,-119.7326,39.1923,1431.00,73.40,41.00,31.05,0.00,0.00,0.00,30.07,M,10.00,M,CLR,M,M,M,M,M,M,M,M,M,M,M,M,M,M,73.40,KCXP 100535Z AUTO 00000KT 10SM CLR 23/05 A3007 RMK AO2,M
BVU,2021-09-10 05:35,-114.8611,35.9475,671.00,87.80,50.00,27.29,10.00,5.00,0.00,29.91,M,10.00,M,CLR,M,M,M,M,M,M,M,M,M,M,M,M,M,M,85.11,KBVU 100535Z AUTO 01005KT 10SM CLR 31/10 A2991 RMK AO2,M
LOL,2021-09-10 05:53,-118.5701,40.0684,1192.43,80.00,45.00,28.99,340.00,8.00,T,29.98,1010.10,10.00,M,FEW,BKN,M,M,4500.00,12000.00,M,M,-RA,M,M,M,M,M,M,79.18,KLOL 100553Z AUTO 34008KT 10SM -RA FEW045 BKN120 27/07 A2998 RMK AO2 RAB14E26B45 SLP101 P0000 60000 T02670072 10361 20267 50006,M
DRA,2021-09-10 05:53,-116.0278,36.6206,1009.00,83.00,49.00,30.65,40.00,9.00,0.00,30.01,1010.30,10.00,M,CLR,M,M,M,M,M,M,M,M,M,M,M,M,M,M,81.20,KDRA 100553Z AUTO 04009KT 10SM CLR 28/09 A3001 RMK AO2 SLP103 T02830094 10383 20283 51011,M
VGT,2021-09-10 05:53,-115.1933,36.2111,667.00,93.00,51.00,24.15,40.00,4.00,0.00,29.91,1011.10,10.00,M,CLR,M,M,M,M,M,M,M,M,M,M,M,M,M,M,90.11,KVGT 100553Z AUTO 04004KT 10SM CLR 34/11 A2991 RMK AO2 SLP111 T03390106 10411 20339 51016,M
ELY,2021-09-10 05:53,-114.8453,39.2950,1909.00,62.00,48.00,59.86,190.00,8.00,0.00,30.29,1014.70,10.00,M,SCT,M,M,M,11000.00,M,M,M,M,M,M,M,M,M,M,62.10,KELY 100553Z AUTO 19008KT 10SM SCT110 17/09 A3029 RMK AO2 SLP147 60001 T01670089 10250 20156 53014 $,M
P68,2021-09-10 05:53,-116.0056,39.6014,1993.00,74.00,41.00,30.54,190.00,20.00,0.00,30.19,1012.20,M,30.00,M,M,M,M,M,M,M,M,M,M,M,M,33.00,160.00,2021-09-10 05:35,73.90,KP68 100553Z AUTO 19020G30KT 23/05 A3019 RMK AO1 PK WND 16033/0535 SLP122 T02330050 10256 20183 53008,M
BVU,2021-09-10 05:55,-114.8611,35.9475,671.00,86.00,50.00,28.90,350.00,3.00,0.00,29.91,M,10.00,M,CLR,M,M,M,M,M,M,M,M,M,M,M,M,M,M,83.62,KBVU 100555Z AUTO 35003KT 10SM CLR 30/10 A2991 RMK AO2,M
RNO,2021-09-10 05:55,-119.7711,39.4839,1341.00,70.00,52.00,52.80,160.00,3.00,0.00,30.04,1011.20,10.00,M,SCT,M,M,M,15000.00,M,M,M,M,M,M,M,M,M,M,70.00,KRNO 100555Z 16003KT 10SM SCT150 21/11 A3004 RMK AO2 SLP112 60002 T02110111 10272 20211 51009,M
CXP,2021-09-10 05:55,-119.7326,39.1923,1431.00,69.80,42.80,37.61,0.00,0.00,0.00,30.07,M,10.00,M,CLR,M,M,M,M,M,M,M,M,M,M,M,M,M,M,69.80,KCXP 100555Z AUTO 00000KT 10SM CLR 21/06 A3007 RMK AO2,M
TMT,2021-09-10 05:55,-117.1971,39.4643,1749.34,73.60,40.00,29.56,230.00,11.00,0.00,30.19,M,10.00,19.00,BKN,M,M,M,11000.00,M,M,M,M,M,M,M,M,M,M,73.60,KTMT 100555Z AUTO 23011G19KT 10SM BKN110 23/04 A3019 RMK AO2 T02310044 10305 20175,M
BAM,2021-09-10 05:55,-116.8743,40.5990,1382.36,73.40,33.80,23.39,350.00,5.00,0.00,30.04,M,10.00,M,CLR,M,M,M,M,M,M,M,M,M,M,M,M,M,M,73.40,KBAM 100555Z AUTO 35005KT 10SM CLR 23/01 A3004 RMK AO1,M
MEV,2021-09-10 05:55,-119.7500,38.9963,1441.42,69.80,42.80,37.61,140.00,6.00,0.00,30.06,M,10.00,M,CLR,M,M,M,M,M,M,M,M,M,M,M,M,M,M,69.80,KMEV 100555Z AUTO 14006KT 10SM CLR 21/06 A3006 RMK AO2,M
RTS,2021-09-10 05:55,-119.8764,39.6682,1539.00,75.20,39.20,27.26,190.00,10.00,0.00,30.09,M,10.00,M,CLR,M,M,M,M,M,M,M,M,M,M,M,M,M,M,75.20,KRTS 100555Z AUTO 19010KT 10SM CLR 24/04 A3009 RMK AO2,M
HND,2021-09-10 05:56,-115.1344,35.9729,742.79,88.00,52.00,29.21,200.00,7.00,0.00,29.96,1012.50,10.00,M,CLR,M,M,M,M,M,M,M,M,M,M,M,M,M,M,85.60,KHND 100556Z AUTO 20007KT 10SM CLR 31/11 A2996 RMK AO2 SLP125 T03110111 10406 20311 51014,M
TPH,2021-09-10 05:56,-117.0904,38.0505,1654.00,75.00,46.00,35.64,160.00,6.00,T,30.20,1013.90,10.00,M,FEW,BKN,BKN,M,5500.00,10000.00,12000.00,M,-RA,M,M,M,M,M,M,75.00,KTPH 100556Z AUTO 16006KT 10SM -RA FEW055 BKN100 BKN120 24/08 A3020 RMK AO2 RAB56 SLP139 P0000 60000 T02390078 10328 20239 51023,M
EKO,2021-09-10 05:56,-115.7860,40.8242,1367.00,76.00,37.00,24.43,230.00,8.00,0.00,30.09,1012.20,10.00,M,CLR,M,M,M,M,M,M,M,M,M,M,M,M,M,M,75.90,KEKO 100556Z AUTO 23008KT 10SM CLR 24/03 A3009 RMK AO2 SLP122 T02440028 10322 20228 51007,M
WMC,2021-09-10 05:56,-117.8072,40.9019,1315.00,83.00,38.00,20.11,230.00,14.00,0.00,30.03,1010.50,10.00,20.00,FEW,SCT,BKN,M,7000.00,9000.00,11000.00,M,M,M,M,M,M,M,M,80.49,KWMC 100556Z AUTO 23014G20KT 10SM FEW070 SCT090 BKN110 28/03 A3003 RMK AO2 SLP105 60000 T02830033 10372 20244 51019,M
LAS,2021-09-10 05:56,-115.1634,36.0719,663.00,94.00,51.00,23.48,190.00,4.00,0.00,29.92,1009.90,10.00,M,SCT,BKN,M,M,15000.00,20000.00,M,M,M,M,M,M,M,M,M,91.00,KLAS 100556Z 19004KT 10SM SCT150 BKN200 34/11 A2992 RMK AO2 SLP099 T03440106 10406 20344 51014,M
NFL,2021-09-10 05:56,-118.7010,39.4166,1199.00,85.00,42.00,22.20,230.00,11.00,T,30.02,1013.70,10.00,25.00,BKN,BKN,BKN,M,7000.00,12000.00,25000.00,M,-RA,M,M,M,M,M,M,82.08,KNFL 100556Z 23011G25KT 10SM -RA BKN070 BKN120 BKN250 29/06 A3002 RMK AO2 RAB38 SLP137 P0000 60000 T02940056 10350 20256 53014,M
LSV,2021-09-10 05:58,-115.0343,36.2362,570.00,95.20,50.40,21.98,180.00,4.00,0.00,29.88,M,10.00,M,FEW,M,M,M,13000.00,M,M,M,M,M,M,M,M,M,M,92.17,KLSV 100558Z AUTO 18004KT 10SM FEW130 35/10 A2988 RMK AO2 SLPNO T03510102 10414 20351 $,M
INS,2021-09-10 05:58,-115.6733,36.5872,955.00,79.50,55.60,43.83,0.00,0.00,0.00,30.01,M,10.00,M,SCT,M,M,M,12000.00,M,M,M,M,M,M,M,M,M,M,79.50,KINS 100558Z AUTO 00000KT 10SM SCT120 26/13 A3001 RMK AO2 SLPNO 60010 T02640131 10345 20249 51013 $,M
TMT,2021-09-10 06:15,-117.1971,39.4643,1749.34,73.00,40.30,30.63,210.00,14.00,0.00,30.20,M,10.00,17.00,BKN,M,M,M,11000.00,M,M,M,M,M,M,M,M,M,M,73.00,KTMT 100615Z AUTO 21014G17KT 10SM BKN110 23/05 A3020 RMK AO2 T02280046,M
CXP,2021-09-10 06:15,-119.7326,39.1923,1431.00,69.80,42.80,37.61,0.00,0.00,0.00,30.08,M,10.00,M,CLR,M,M,M,M,M,M,M,M,M,M,M,M,M,M,69.80,KCXP 100615Z AUTO 00000KT 10SM CLR 21/06 A3008 RMK AO2,M
RTS,2021-09-10 06:15,-119.8764,39.6682,1539.00,77.00,39.20,25.67,210.00,11.00,0.00,30.09,M,10.00,M,CLR,M,M,M,M,M,M,M,M,M,M,M,M,M,M,77.00,KRTS 100615Z AUTO 21011KT 10SM CLR 25/04 A3009 RMK AO2,M
MEV,2021-09-10 06:15,-119.7500,38.9963,1441.42,64.40,42.80,45.32,110.00,8.00,0.00,30.07,M,10.00,M,CLR,M,M,M,M,M,M,M,M,M,M,M,M,M,M,64.40,KMEV 100615Z AUTO 11008KT 10SM CLR 18/06 A3007 RMK AO2,M
BAM,2021-09-10 06:15,-116.8743,40.5990,1382.36,71.60,33.80,24.86,290.00,3.00,0.00,30.04,M,10.00,M,CLR,M,M,M,M,M,M,M,M,M,M,M,M,M,M,71.60,KBAM 100615Z AUTO 29003KT 10SM CLR 22/01 A3004 RMK AO1,M
BVU,2021-09-10 06:15,-114.8611,35.9475,671.00,86.00,50.00,28.90,10.00,6.00,0.00,29.92,M,10.00,M,CLR,M,M,M,M,M,M,M,M,M,M,M,M,M,M,83.62,KBVU 100615Z AUTO 01006KT 10SM CLR 30/10 A2992 RMK AO2,M
MEV,2021-09-10 06:35,-119.7500,38.9963,1441.42,64.40,42.80,45.32,120.00,10.00,0.00,30.07,M,10.00,M,CLR,M,M,M,M,M,M,M,M,M,M,M,M,M,M,64.40,KMEV 100635Z AUTO 12010KT 10SM CLR 18/06 A3007 RMK AO2,M
TMT,2021-09-10 06:35,-117.1971,39.4643,1749.34,71.80,41.70,33.68,210.00,12.00,0.00,30.20,M,10.00,M,OVC,M,M,M,11000.00,M,M,M,M,M,M,M,M,M,M,71.80,KTMT 100635Z AUTO 21012KT 10SM OVC110 22/05 A3020 RMK AO2 T02210054,M
BAM,2021-09-10 06:35,-116.8743,40.5990,1382.36,77.00,33.80,20.74,250.00,6.00,0.00,30.05,M,10.00,M,CLR,M,M,M,M,M,M,M,M,M,M,M,M,M,M,77.00,KBAM 100635Z AUTO 25006KT 10SM CLR 25/01 A3005 RMK AO1,M
BVU,2021-09-10 06:35,-114.8611,35.9475,671.00,84.20,50.00,30.62,330.00,3.00,0.00,29.92,M,10.00,M,CLR,M,M,M,M,M,M,M,M,M,M,M,M,M,M,82.24,KBVU 100635Z AUTO 33003KT 10SM CLR 29/10 A2992 RMK AO2,M
RTS,2021-09-10 06:35,-119.8764,39.6682,1539.00,73.40,39.20,28.96,200.00,4.00,0.00,30.09,M,10.00,M,CLR,M,M,M,M,M,M,M,M,M,M,M,M,M,M,73.40,KRTS 100635Z AUTO 20004KT 10SM CLR 23/04 A3009 RMK AO2,M
CXP,2021-09-10 06:35,-119.7326,39.1923,1431.00,68.00,42.80,40.00,0.00,0.00,0.00,30.08,M,10.00,M,CLR,M,M,M,M,M,M,M,M,M,M,M,M,M,M,68.00,KCXP 100635Z AUTO 00000KT 10SM CLR 20/06 A3008 RMK AO2,M
LOL,2021-09-10 06:38,-118.5701,40.0684,1192.43,75.00,51.00,43.14,200.00,6.00,T,30.01,M,10.00,M,FEW,BKN,M,M,8000.00,11000.00,M,M,VCTS,M,M,M,M,M,M,75.00,KLOL 100638Z AUTO 20006KT 10SM VCTS FEW080 BKN110 24/11 A3001 RMK AO2 RAE0555B20E32 P0000 T02390106,M
MEV,2021-09-10 06:45,-119.7500,38.9963,1441.42,66.20,44.60,45.60,140.00,11.00,0.00,30.08,M,10.00,M,SCT,BKN,M,M,9000.00,11000.00,M,M,M,M,M,M,M,M,M,66.20,KMEV 100645Z AUTO 14011KT 10SM SCT090 BKN110 19/07 A3008 RMK AO2 LTG DSNT SW AND W,M
CXP,2021-09-10 06:50,-119.7326,39.1923,1431.00,68.00,42.80,40.00,0.00,0.00,0.00,30.08,M,10.00,M,CLR,M,M,M,M,M,M,M,M,M,M,M,M,M,M,68.00,KCXP 100650Z AUTO 00000KT 10SM CLR 20/06 A3008 RMK AO2 LTG DSNT SW,M
ELY,2021-09-10 06:53,-114.8453,39.2950,1909.00,65.00,47.00,52.06,M,5.00,0.00,30.30,1014.30,10.00,M,BKN,M,M,M,9000.00,M,M,M,M,M,M,M,M,M,M,64.90,KELY 100653Z AUTO VRB05KT 10SM BKN090 18/08 A3030 RMK AO2 PRESRR SLP143 T01830083 $,M
LOL,2021-09-10 06:53,-118.5701,40.0684,1192.43,70.00,55.00,58.94,140.00,9.00,0.03,30.03,1012.20,4.00,24.00,FEW,SCT,BKN,M,4600.00,7000.00,11000.00,M,+RA,M,M,M,M,M,M,70.00,KLOL 100653Z AUTO 14009G24KT 4SM +RA FEW046 SCT070 BKN110 21/13 A3003 RMK AO2 LTG DSNT N AND S RAE0555B20E32B48 SLP122 P0003 T02110128,M
P68,2021-09-10 06:53,-116.0056,39.6014,1993.00,72.00,41.00,32.56,150.00,18.00,0.00,30.20,1012.20,M,24.00,M,M,M,M,M,M,M,M,M,M,M,M,28.00,160.00,2021-09-10 06:32,72.00,KP68 100653Z AUTO 15018G24KT 22/05 A3020 RMK AO1 PK WND 16028/0632 SLP122 T02220050,M
DRA,2021-09-10 06:53,-116.0278,36.6206,1009.00,79.00,48.00,33.66,0.00,0.00,0.00,30.02,1010.60,10.00,M,CLR,M,M,M,M,M,M,M,M,M,M,M,M,M,M,79.00,KDRA 100653Z AUTO 00000KT 10SM CLR 26/09 A3002 RMK AO2 SLP106 T02610089,M
VGT,2021-09-10 06:53,-115.1933,36.2111,667.00,92.00,51.00,24.99,300.00,5.00,0.00,29.91,1010.90,10.00,M,CLR,M,M,M,M,M,M,M,M,M,M,M,M,M,M,89.04,KVGT 100653Z AUTO 30005KT 10SM CLR 33/11 A2991 RMK AO2 SLP109 T03330106,M
TMT,2021-09-10 06:55,-117.1971,39.4643,1749.34,71.60,42.80,35.37,240.00,9.00,0.00,30.20,M,10.00,M,BKN,M,M,M,11000.00,M,M,M,M,M,M,M,M,M,M,71.60,KTMT 100655Z AUTO 24009KT 10SM BKN110 22/06 A3020 RMK AO2 T02200060,M
BAM,2021-09-10 06:55,-116.8743,40.5990,1382.36,75.20,33.80,22.02,210.00,6.00,0.00,30.05,M,7.00,M,CLR,M,M,M,M,M,M,M,M,M,M,M,M,M,M,75.20,KBAM 100655Z AUTO 21006KT 7SM CLR 24/01 A3005 RMK AO1,M
BVU,2021-09-10 06:55,-114.8611,35.9475,671.00,86.00,50.00,28.90,0.00,0.00,0.00,29.92,M,10.00,M,CLR,M,M,M,M,M,M,M,M,M,M,M,M,M,M,83.62,KBVU 100655Z AUTO 00000KT 10SM CLR 30/10 A2992 RMK AO2,M
RTS,2021-09-10 06:55,-119.8764,39.6682,1539.00,71.60,39.20,30.77,0.00,0.00,0.00,30.09,M,10.00,M,CLR,M,M,M,M,M,M,M,M,M,M,M,M,M,M,71.60,KRTS 100655Z AUTO 00000KT 10SM CLR 22/04 A3009 RMK AO2,M
RNO,2021-09-10 06:55,-119.7711,39.4839,1341.00,71.00,52.00,50.86,0.00,0.00,0.00,30.04,1010.70,10.00,M,FEW,FEW,SCT,M,9000.00,15000.00,21000.00,M,M,M,M,M,M,M,M,71.10,KRNO 100655Z 00000KT 10SM FEW090 FEW150 SCT210 22/11 A3004 RMK AO2 SLP107 OCNL LTG DSNT SW T02170111,M
TPH,2021-09-10 06:56,-117.0904,38.0505,1654.00,72.00,49.00,43.97,30.00,3.00,T,30.19,1013.10,10.00,M,CLR,M,M,M,M,M,M,M,M,M,M,M,M,M,M,72.00,KTPH 100656Z AUTO 03003KT 10SM CLR 22/09 A3019 RMK AO2 RAE06 SLP131 P0000 T02220094,M
EKO,2021-09-10 06:56,-115.7860,40.8242,1367.00,77.00,37.00,23.55,260.00,7.00,0.00,30.09,1011.70,10.00,M,CLR,M,M,M,M,M,M,M,M,M,M,M,M,M,M,77.00,KEKO 100656Z AUTO 26007KT 10SM CLR 25/03 A3009 RMK AO2 SLP117 T02500028,M
LAS,2021-09-10 06:56,-115.1634,36.0719,663.00,91.00,51.00,25.70,0.00,0.00,0.00,29.92,1009.90,10.00,M,FEW,SCT,M,M,15000.00,20000.00,M,M,M,M,M,M,M,M,M,88.18,KLAS 100656Z 00000KT 10SM FEW150 SCT200 33/11 A2992 RMK AO2 SLP099 T03280106,M
HND,2021-09-10 06:56,-115.1344,35.9729,742.79,88.00,53.00,30.41,190.00,10.00,0.00,29.96,1012.40,10.00,M,CLR,M,M,M,M,M,M,M,M,M,M,M,M,M,M,85.80,KHND 100656Z AUTO 19010KT 10SM CLR 31/12 A2996 RMK AO2 SLP124 T03110117 404170267,M
NFL,2021-09-10 06:56,-118.7010,39.4166,1199.00,80.00,45.00,28.99,160.00,11.00,T,30.01,1013.30,10.00,M,BKN,OVC,M,M,7000.00,10000.00,M,M,M,M,M,M,M,M,M,79.18,KNFL 100656Z 16011KT 10SM BKN070 OVC100 27/07 A3001 RMK AO2 RAE10 SLP133 P0000 T02670072,M
WMC,2021-09-10 06:56,-117.8072,40.9019,1315.00,79.00,42.00,26.89,290.00,8.00,0.00,30.01,1009.90,10.00,M,FEW,SCT,M,M,9000.00,11000.00,M,M,M,M,M,M,M,M,M,79.00,KWMC 100656Z AUTO 29008KT 10SM FEW090 SCT110 26/06 A3001 RMK AO2 SLP099 T02610056,M
INS,2021-09-10 06:58,-115.6733,36.5872,955.00,76.80,57.70,51.69,0.00,0.00,0.00,30.01,M,10.00,M,SCT,M,M,M,12000.00,M,M,M,M,M,M,M,M,M,M,76.80,KINS 100658Z AUTO 00000KT 10SM SCT120 25/14 A3001 RMK AO2 SLPNO T02490143 $,M
LSV,2021-09-10 06:58,-115.0343,36.2362,570.00,91.60,49.60,23.86,0.00,0.00,0.00,29.88,M,10.00,M,CLR,M,M,M,M,M,M,M,M,M,M,M,M,M,M,88.49,KLSV 100658Z AUTO 00000KT 10SM CLR 33/10 A2988 RMK AO2 SLPNO T03310098 $,M
LOL,2021-09-10 07:02,-118.5701,40.0684,1192.43,71.00,55.00,56.77,170.00,15.00,0.01,30.05,M,6.00,M,FEW,SCT,OVC,M,5000.00,7000.00,10000.00,M,VCTS -RA,M,M,M,M,M,M,71.10,KLOL 100702Z AUTO 17015KT 6SM VCTS -RA FEW050 SCT070 OVC100 22/13 A3005 RMK AO2 LTG DSNT N PRESRR P0001 T02170128,M
BAM,2021-09-10 07:15,-116.8743,40.5990,1382.36,75.20,33.80,22.02,270.00,6.00,0.00,30.06,M,5.00,M,CLR,M,M,M,M,M,M,M,M,M,M,M,M,M,M,75.20,KBAM 100715Z AUTO 27006KT 5SM CLR 24/01 A3006 RMK AO1,M
MEV,2021-09-10 07:15,-119.7500,38.9963,1441.42,69.80,48.20,46.16,150.00,13.00,0.00,30.08,M,9.00,M,FEW,SCT,BKN,M,200.00,4200.00,6500.00,M,M,M,M,M,M,M,M,69.80,KMEV 100715Z AUTO 15013KT 9SM FEW002 SCT042 BKN065 21/09 A3008 RMK AO2 LTG DSNT W AND NW,M
CXP,2021-09-10 07:15,-119.7326,39.1923,1431.00,69.80,41.00,35.09,M,6.00,0.00,30.10,M,10.00,M,SCT,BKN,M,M,10000.00,12000.00,M,M,M,M,M,M,M,M,M,69.80,KCXP 100715Z AUTO VRB06KT 10SM SCT100 BKN120 21/05 A3010 RMK AO2 LTG DSNT SW AND W,M
TMT,2021-09-10 07:15,-117.1971,39.4643,1749.34,70.20,43.30,37.82,240.00,8.00,0.00,30.20,M,10.00,M,SCT,SCT,M,M,10000.00,12000.00,M,M,M,M,M,M,M,M,M,70.20,KTMT 100715Z AUTO 24008KT 10SM SCT100 SCT120 21/06 A3020 RMK AO2 T02120063,M
RTS,2021-09-10 07:15,-119.8764,39.6682,1539.00,71.60,39.20,30.77,330.00,5.00,0.00,30.08,M,10.00,12.00,FEW,M,M,M,11000.00,M,M,M,M,M,M,M,M,M,M,71.60,KRTS 100715Z AUTO 33005G12KT 10SM FEW110 22/04 A3008 RMK AO2,M
BVU,2021-09-10 07:15,-114.8611,35.9475,671.00,84.20,51.80,32.73,0.00,0.00,0.00,29.91,M,10.00,M,CLR,M,M,M,M,M,M,M,M,M,M,M,M,M,M,82.48,KBVU 100715Z AUTO 00000KT 10SM CLR 29/11 A2991 RMK AO2,M
LOL,2021-09-10 07:22,-118.5701,40.0684,1192.43,68.00,57.00,67.86,220.00,6.00,0.02,30.04,M,7.00,M,FEW,FEW,OVC,M,6000.00,7500.00,10000.00,M,-RA,M,M,M,M,M,M,68.00,KLOL 100722Z AUTO 22006KT 7SM -RA FEW060 FEW075 OVC100 20/14 A3004 RMK AO2 LTG DSNT N AND NW P0002 T02000139,M
CXP,2021-09-10 07:30,-119.7326,39.1923,1431.00,73.40,44.60,35.66,180.00,6.00,0.00,30.11,M,10.00,16.00,FEW,SCT,BKN,M,4900.00,6000.00,7000.00,M,VCTS,M,M,M,M,M,M,73.40,KCXP 100730Z AUTO 18006G16KT 10SM VCTS FEW049 SCT060 BKN070 23/07 A3011 RMK AO2 LTG DSNT W AND NW,M
BAM,2021-09-10 07:35,-116.8743,40.5990,1382.36,75.20,35.60,23.66,280.00,7.00,0.00,30.06,M,4.00,M,CLR,M,M,M,M,M,M,M,M,M,M,M,M,M,M,75.20,KBAM 100735Z AUTO 28007KT 4SM CLR 24/02 A3006 RMK AO1,M
MEV,2021-09-10 07:35,-119.7500,38.9963,1441.42,69.80,46.40,43.13,200.00,7.00,0.00,30.07,M,10.00,M,FEW,SCT,SCT,M,4700.00,6500.00,9000.00,M,M,M,M,M,M,M,M,69.80,KMEV 100735Z AUTO 20007KT 10SM FEW047 SCT065 SCT090 21/08 A3007 RMK AO2 LTG DSNT NW,M
RTS,2021-09-10 07:35,-119.8764,39.6682,1539.00,69.80,37.40,30.49,10.00,7.00,0.00,30.09,M,10.00,M,FEW,BKN,M,M,9500.00,11000.00,M,M,M,M,M,M,M,M,M,69.80,KRTS 100735Z AUTO 01007KT 10SM FEW095 BKN110 21/03 A3009 RMK AO2,M
BVU,2021-09-10 07:35,-114.8611,35.9475,671.00,84.20,50.00,30.62,0.00,0.00,0.00,29.91,M,10.00,M,CLR,M,M,M,M,M,M,M,M,M,M,M,M,M,M,82.24,KBVU 100735Z AUTO 00000KT 10SM CLR 29/10 A2991 RMK AO2,M
TMT,2021-09-10 07:35,-117.1971,39.4643,1749.34,68.50,44.20,41.48,240.00,7.00,0.00,30.20,M,10.00,M,CLR,M,M,M,M,M,M,M,M,M,M,M,M,M,M,68.50,KTMT 100735Z AUTO 24007KT 10SM CLR 20/07 A3020 RMK AO2 T02030068,M
RNO,2021-09-10 07:47,-119.7711,39.4839,1341.00,68.00,53.00,58.88,180.00,10.00,0.00,30.07,M,10.00,M,BKN,BKN,OVC,M,9000.00,12000.00,17000.00,M,TS,M,M,M,M,M,M,68.00,KRNO 100747Z 18010KT 10SM TS BKN090CB BKN120 OVC170 20/12 A3007 RMK AO2 LTG DSNT SW AND W TSB47 PRESRR FRQ LTGICCG SW THRU W TS SW THRU W MOV N T02000117,M
P68,2021-09-10 07:53,-116.0056,39.6014,1993.00,71.00,41.00,33.57,160.00,7.00,0.00,30.20,1012.60,M,M,M,M,M,M,M,M,M,M,M,M,M,M,M,M,M,71.10,KP68 100753Z AUTO 16007KT 22/05 A3020 RMK AO1 SLP126 T02170050 403390094,M
LOL,2021-09-10 07:53,-118.5701,40.0684,1192.43,69.00,58.00,67.50,340.00,10.00,0.02,30.02,1011.70,10.00,M,BKN,M,M,M,11000.00,M,M,M,M,M,M,M,M,M,M,69.10,KLOL 100753Z AUTO 34010KT 10SM BKN110 21/14 A3002 RMK AO2 RAE43 SLP117 P0002 T02060144 403780128,M
ELY,2021-09-10 07:53,-114.8453,39.2950,1909.00,65.00,48.00,54.26,160.00,13.00,T,30.29,1014.00,10.00,20.00,BKN,OVC,M,M,10000.00,12000.00,M,M,M,M,M,M,M,M,M,64.90,KELY 100753Z AUTO 16013G20KT 10SM BKN100 OVC120 18/09 A3029 RMK AO2 RAB10E38 SLP140 P0000 T01830089 403330089 $,M
VGT,2021-09-10 07:53,-115.1933,36.2111,667.00,89.00,52.00,28.21,310.00,6.00,0.00,29.90,1010.90,10.00,M,CLR,M,M,M,M,M,M,M,M,M,M,M,M,M,M,86.58,KVGT 100753Z AUTO 31006KT 10SM CLR 32/11 A2990 RMK AO2 SLP109 T03170111 404170283,M
DRA,2021-09-10 07:53,-116.0278,36.6206,1009.00,76.00,47.00,35.78,0.00,0.00,0.00,30.01,1010.70,10.00,M,CLR,M,M,M,M,M,M,M,M,M,M,M,M,M,M,75.90,KDRA 100753Z AUTO 00000KT 10SM CLR 24/08 A3001 RMK AO2 SLP107 T02440083 404000233,M
BVU,2021-09-10 07:55,-114.8611,35.9475,671.00,84.20,51.80,32.73,0.00,0.00,0.00,29.92,M,10.00,M,CLR,M,M,M,M,M,M,M,M,M,M,M,M,M,M,82.48,KBVU 100755Z AUTO 00000KT 10SM CLR 29/11 A2992 RMK AO2,M
BAM,2021-09-10 07:55,-116.8743,40.5990,1382.36,75.20,35.60,23.66,220.00,7.00,0.00,30.07,M,3.00,M,SCT,M,M,M,12000.00,M,M,M,M,M,M,M,M,M,M,75.20,KBAM 100755Z AUTO 22007KT 3SM SCT120 24/02 A3007 RMK AO1,M
RTS,2021-09-10 07:55,-119.8764,39.6682,1539.00,69.80,39.20,32.72,60.00,7.00,0.00,30.10,M,10.00,M,SCT,BKN,M,M,9500.00,11000.00,M,M,M,M,M,M,M,M,M,69.80,KRTS 100755Z AUTO 06007KT 10SM SCT095 BKN110 21/04 A3010 RMK AO2,M
RNO,2021-09-10 07:55,-119.7711,39.4839,1341.00,70.00,51.00,51.07,200.00,10.00,T,30.08,1012.00,10.00,17.00,BKN,BKN,OVC,M,9000.00,12000.00,17000.00,M,-TSRA,M,M,M,M,M,M,70.00,KRNO 100755Z 20010G17KT 170V230 10SM -TSRA BKN090CB BKN120 OVC170 21/11 A3008 RMK AO2 LTG DSNT SW-NW RAB54 TSB47 SLP120 FRQ LTGIC SW THRU W TS SW THRU W MOV N P0000 T02110106 403670178,M
CXP,2021-09-10 07:55,-119.7326,39.1923,1431.00,73.40,46.40,38.18,310.00,4.00,0.00,30.08,M,10.00,M,FEW,FEW,SCT,M,4800.00,5500.00,6500.00,M,M,M,M,M,M,M,M,73.40,KCXP 100755Z AUTO 31004KT 10SM FEW048 FEW055 SCT065 23/08 A3008 RMK AO2 LTG DSNT W AND NW,M
TMT,2021-09-10 07:55,-117.1971,39.4643,1749.34,67.00,44.20,43.53,230.00,7.00,0.00,30.21,M,10.00,M,SCT,M,M,M,10000.00,M,M,M,M,M,M,M,M,M,M,67.10,KTMT 100755Z AUTO 23007KT 10SM SCT100 20/07 A3021 RMK AO2 T01950068 403390028,M
MEV,2021-09-10 07:55,-119.7500,38.9963,1441.42,68.00,46.40,45.88,180.00,7.00,0.00,30.07,M,10.00,M,CLR,M,M,M,M,M,M,M,M,M,M,M,M,M,M,68.00,KMEV 100755Z AUTO 18007KT 10SM CLR 20/08 A3007 RMK AO2 LTG DSNT N AND W,M
LAS,2021-09-10 07:56,-115.1634,36.0719,663.00,89.00,51.00,27.29,240.00,3.00,0.00,29.92,1009.90,10.00,M,FEW,M,M,M,20000.00,M,M,M,M,M,M,M,M,M,M,86.42,KLAS 100756Z 24003KT 10SM FEW200 32/11 A2992 RMK AO2 SLP099 T03170106 404110283,M
WMC,2021-09-10 07:56,-117.8072,40.9019,1315.00,73.00,41.00,31.47,250.00,7.00,0.00,30.02,1010.30,10.00,M,CLR,M,M,M,M,M,M,M,M,M,M,M,M,M,M,73.00,KWMC 100756Z AUTO 25007KT 10SM CLR 23/05 A3002 RMK AO2 SLP103 T02280050 403830100,M
HND,2021-09-10 07:56,-115.1344,35.9729,742.79,85.00,52.00,32.24,190.00,8.00,0.00,29.96,1012.40,10.00,M,CLR,M,M,M,M,M,M,M,M,M,M,M,M,M,M,83.03,KHND 100756Z AUTO 19008KT 10SM CLR 29/11 A2996 RMK AO2 SLP124 T02940111,M
NFL,2021-09-10 07:56,-118.7010,39.4166,1199.00,73.00,54.00,51.33,120.00,5.00,0.04,30.00,1012.90,8.00,M,FEW,OVC,M,M,7000.00,11000.00,M,M,-RA,M,M,M,M,M,M,73.00,KNFL 100756Z AUTO 12005KT 8SM -RA FEW070 OVC110 23/12 A3000 RMK AO2 RAB43 SLP129 P0004 T02280122 403830150,M
EKO,2021-09-10 07:56,-115.7860,40.8242,1367.00,78.00,39.00,24.56,190.00,16.00,0.00,30.10,1011.90,10.00,25.00,CLR,M,M,M,M,M,M,M,M,M,M,M,30.00,170.00,2021-09-10 07:44,78.10,KEKO 100756Z AUTO 19016G25KT 10SM CLR 26/04 A3010 RMK AO2 PK WND 17030/0744 SLP119 T02560039 403610072,M
TPH,2021-09-10 07:56,-117.0904,38.0505,1654.00,70.00,49.00,47.06,70.00,5.00,0.00,30.18,1013.00,10.00,M,CLR,M,M,M,M,M,M,M,M,M,M,M,M,M,M,70.00,KTPH 100756Z AUTO 07005KT 10SM CLR 21/09 A3018 RMK AO2 SLP130 T02110094 403440144,M
LSV,2021-09-10 07:58,-115.0343,36.2362,570.00,87.00,48.00,25.90,80.00,4.00,0.00,29.89,M,10.00,M,CLR,M,M,M,M,M,M,M,M,M,M,M,M,M,M,84.27,KLSV 100758Z AUTO 08004KT 10SM CLR 31/09 A2989 RMK AO2 SLPNO T03060089 404140274 $,M
INS,2021-09-10 07:58,-115.6733,36.5872,955.00,73.40,61.30,65.85,260.00,4.00,0.00,30.01,M,10.00,M,CLR,M,M,M,M,M,M,M,M,M,M,M,M,M,M,73.40,KINS 100758Z AUTO 26004KT 10SM CLR 23/16 A3001 RMK AO2 SLPNO T02300163 403880211 $,M
RNO,2021-09-10 08:11,-119.7711,39.4839,1341.00,70.00,51.00,51.07,280.00,11.00,T,30.04,M,10.00,24.00,FEW,BKN,OVC,M,5500.00,9500.00,11000.00,M,-TSRA,M,M,M,26.00,240.00,2021-09-10 08:01,70.00,KRNO 100811Z 28011G24KT 10SM -TSRA FEW055 BKN095CB OVC110 21/11 A3004 RMK AO2 PK WND 24026/0801 WSHFT 0754 LTG DSNT N AND NW PRESFR FRQ LTGICCG W THRU NW TS W THRU NW MOV N P0000 T02110106,M
RTS,2021-09-10 08:15,-119.8764,39.6682,1539.00,64.40,50.00,59.50,210.00,14.00,0.00,30.15,M,4.00,28.00,FEW,SCT,OVC,M,3300.00,6500.00,9000.00,M,-DZ,M,M,M,M,M,M,64.40,KRTS 100815Z AUTO 21014G28KT 4SM -DZ FEW033 SCT065 OVC090 18/10 A3015 RMK AO2,M
TMT,2021-09-10 08:15,-117.1971,39.4643,1749.34,69.60,44.60,40.56,230.00,9.00,0.00,30.19,M,10.00,M,SCT,BKN,M,M,9000.00,11000.00,M,M,M,M,M,M,M,M,M,69.60,KTMT 100815Z AUTO 23009KT 10SM SCT090 BKN110 21/07 A3019 RMK AO2 T02090070,M
BVU,2021-09-10 08:15,-114.8611,35.9475,671.00,82.40,51.80,34.69,0.00,0.00,0.00,29.92,M,10.00,M,CLR,M,M,M,M,M,M,M,M,M,M,M,M,M,M,81.20,KBVU 100815Z AUTO 00000KT 10SM CLR 28/11 A2992 RMK AO2,M
BAM,2021-09-10 08:15,-116.8743,40.5990,1382.36,73.40,35.60,25.13,160.00,5.00,0.00,30.08,M,3.00,M,BKN,M,M,M,12000.00,M,M,M,M,M,M,M,M,M,M,73.40,KBAM 100815Z AUTO 16005KT 3SM BKN120 23/02 A3008 RMK AO1,M
MEV,2021-09-10 08:15,-119.7500,38.9963,1441.42,68.00,46.40,45.88,160.00,12.00,0.00,30.07,M,10.00,M,BKN,BKN,M,M,9000.00,11000.00,M,M,M,M,M,M,M,M,M,68.00,KMEV 100815Z AUTO 16012KT 10SM BKN090 BKN110 20/08 A3007 RMK AO2,M
CXP,2021-09-10 08:15,-119.7326,39.1923,1431.00,69.80,46.40,43.13,0.00,0.00,0.00,30.08,M,10.00,M,CLR,M,M,M,M,M,M,M,M,M,M,M,M,M,M,69.80,KCXP 100815Z AUTO 00000KT 10SM CLR 21/08 A3008 RMK AO2,M
RNO,2021-09-10 08:23,-119.7711,39.4839,1341.00,70.00,51.00,51.07,80.00,7.00,T,30.05,M,10.00,M,FEW,SCT,BKN,M,6000.00,9500.00,15000.00,M,M,M,M,M,26.00,240.00,2021-09-10 08:01,70.00,KRNO 100823Z 08007KT 10SM FEW060 SCT095 BKN150 21/11 A3005 RMK AO2 PK WND 24026/0801 WSHFT 0754 LTG DSNT N AND NW RAE22 TSE22 OCNL LTG DSNT W AND NW TS MOVD NW P0000 T02110106,M
MEV,2021-09-10 08:35,-119.7500,38.9963,1441.42,69.80,46.40,43.13,150.00,11.00,0.00,30.06,M,10.00,17.00,FEW,FEW,M,M,9000.00,11000.00,M,M,M,M,M,M,M,M,M,69.80,KMEV 100835Z AUTO 15011G17KT 10SM FEW090 FEW110 21/08 A3006 RMK AO2 LTG DSNT N AND W,M
RTS,2021-09-10 08:35,-119.8764,39.6682,1539.00,62.60,51.80,67.75,360.00,7.00,0.00,30.08,M,8.00,M,SCT,BKN,OVC,M,3400.00,5000.00,11000.00,M,-DZ,M,M,M,M,M,M,62.60,KRTS 100835Z AUTO 36007KT 8SM -DZ SCT034 BKN050 OVC110 17/11 A3008 RMK AO2,M
BAM,2021-09-10 08:35,-116.8743,40.5990,1382.36,73.40,35.60,25.13,0.00,0.00,0.00,30.07,M,3.00,M,SCT,M,M,M,12000.00,M,M,M,M,M,M,M,M,M,M,73.40,KBAM 100835Z AUTO 00000KT 3SM SCT120 23/02 A3007 RMK AO1,M
CXP,2021-09-10 08:35,-119.7326,39.1923,1431.00,69.80,46.40,43.13,0.00,0.00,0.00,30.08,M,10.00,M,FEW,FEW,M,M,10000.00,11000.00,M,M,M,M,M,M,M,M,M,69.80,KCXP 100835Z AUTO 00000KT 10SM FEW100 FEW110 21/08 A3008 RMK AO2 LTG DSNT N AND W,M
TMT,2021-09-10 08:35,-117.1971,39.4643,1749.34,68.00,44.60,42.85,200.00,4.00,0.00,30.18,M,10.00,M,SCT,M,M,M,12000.00,M,M,M,M,M,M,M,M,M,M,68.00,KTMT 100835Z AUTO 20004KT 10SM SCT120 20/07 A3018 RMK AO2 LTG DSNT W T02000070,M
BVU,2021-09-10 08:35,-114.8611,35.9475,671.00,82.40,51.80,34.69,50.00,3.00,0.00,29.92,M,10.00,M,CLR,M,M,M,M,M,M,M,M,M,M,M,M,M,M,81.20,KBVU 100835Z AUTO 05003KT 10SM CLR 28/11 A2992 RMK AO2,M
DRA,2021-09-10 08:53,-116.0278,36.6206,1009.00,77.00,47.00,34.50,0.00,0.00,0.00,30.01,1010.50,10.00,M,CLR,M,M,M,M,M,M,M,M,M,M,M,M,M,M,77.00,KDRA 100853Z AUTO 00000KT 10SM CLR 25/08 A3001 RMK AO2 SLP105 T02500083 51001,M
VGT,2021-09-10 08:53,-115.1933,36.2111,667.00,89.00,51.00,27.29,330.00,6.00,0.00,29.91,1011.00,10.00,M,CLR,M,M,M,M,M,M,M,M,M,M,M,M,M,M,86.42,KVGT 100853Z AUTO 33006KT 10SM CLR 32/11 A2991 RMK AO2 SLP110 T03170106 53000,M
P68,2021-09-10 08:53,-116.0056,39.6014,1993.00,70.00,41.00,34.85,170.00,9.00,0.00,30.21,1012.90,M,M,M,M,M,M,M,M,M,M,M,M,M,M,M,M,M,70.00,KP68 100853Z AUTO 17009KT 21/05 A3021 RMK AO1 SLP129 T02110050 53004,M
ELY,2021-09-10 08:53,-114.8453,39.2950,1909.00,61.00,48.00,62.23,210.00,10.00,0.00,30.26,1013.10,10.00,M,CLR,M,M,M,M,M,M,M,M,M,M,M,M,M,M,61.00,KELY 100853Z AUTO 21010KT 10SM CLR 16/09 A3026 RMK AO2 SLP131 60000 T01610089 58009 $,M
LOL,2021-09-10 08:53,-118.5701,40.0684,1192.43,67.00,58.00,72.81,110.00,8.00,0.00,30.01,1011.20,10.00,M,FEW,M,M,M,11000.00,M,M,M,M,M,M,M,M,M,M,66.90,KLOL 100853Z AUTO 11008KT 10SM FEW110 19/14 A3001 RMK AO2 SLP112 60005 T01940144 50009,M
BVU,2021-09-10 08:55,-114.8611,35.9475,671.00,82.40,51.80,34.69,40.00,4.00,0.00,29.92,M,10.00,M,CLR,M,M,M,M,M,M,M,M,M,M,M,M,M,M,81.20,KBVU 100855Z AUTO 04004KT 10SM CLR 28/11 A2992 RMK AO2,M
CXP,2021-09-10 08:55,-119.7326,39.1923,1431.00,69.80,46.40,43.13,0.00,0.00,0.00,30.07,M,10.00,M,CLR,M,M,M,M,M,M,M,M,M,M,M,M,M,M,69.80,KCXP 100855Z AUTO 00000KT 10SM CLR 21/08 A3007 RMK AO2,M
RNO,2021-09-10 08:55,-119.7711,39.4839,1341.00,68.00,51.00,54.70,250.00,3.00,T,30.04,1010.70,10.00,M,FEW,SCT,M,M,10000.00,17000.00,M,M,M,M,M,M,26.00,240.00,2021-09-10 08:01,68.00,KRNO 100855Z 25003KT 10SM FEW100 SCT170 20/11 A3004 RMK AO2 PK WND 24026/0801 WSHFT 0754 RAE22 TSE22 SLP107 FU ALQDS P0000 60000 T02000106 50001,M
BAM,2021-09-10 08:55,-116.8743,40.5990,1382.36,73.40,35.60,25.13,0.00,0.00,0.00,30.07,M,4.00,M,CLR,M,M,M,M,M,M,M,M,M,M,M,M,M,M,73.40,KBAM 100855Z AUTO 00000KT 4SM CLR 23/02 A3007 RMK AO1,M
RTS,2021-09-10 08:55,-119.8764,39.6682,1539.00,60.80,51.80,72.20,320.00,8.00,0.03,30.08,M,10.00,18.00,FEW,FEW,SCT,M,4400.00,7000.00,11000.00,M,M,M,M,M,M,M,M,60.80,KRTS 100855Z AUTO 32008G18KT 10SM FEW044 FEW070 SCT110 16/11 A3008 RMK AO2 P0003,M
MEV,2021-09-10 08:55,-119.7500,38.9963,1441.42,66.20,46.40,48.83,230.00,5.00,0.00,30.06,M,10.00,M,CLR,M,M,M,M,M,M,M,M,M,M,M,M,M,M,66.20,KMEV 100855Z AUTO 23005KT 10SM CLR 19/08 A3006 RMK AO2,M
TMT,2021-09-10 08:55,-117.1971,39.4643,1749.34,65.30,44.00,45.81,0.00,0.00,0.00,30.19,M,10.00,M,CLR,M,M,M,M,M,M,M,M,M,M,M,M,M,M,65.30,KTMT 100855Z AUTO 00000KT 10SM CLR 19/07 A3019 RMK AO2 T01850066,M
EKO,2021-09-10 08:56,-115.7860,40.8242,1367.00,77.00,40.00,26.38,200.00,15.00,0.00,30.12,1012.30,10.00,23.00,SCT,M,M,M,12000.00,M,M,M,M,M,M,M,27.00,200.00,2021-09-10 08:26,77.00,KEKO 100856Z AUTO 20015G23KT 10SM SCT120 25/04 A3012 RMK AO2 PK WND 20027/0826 SLP123 T02500044 53008,M
HND,2021-09-10 08:56,-115.1344,35.9729,742.79,84.00,52.00,33.19,200.00,7.00,0.00,29.96,1012.70,10.00,M,CLR,M,M,M,M,M,M,M,M,M,M,M,M,M,M,82.36,KHND 100856Z AUTO 20007KT 10SM CLR 29/11 A2996 RMK AO2 SLP127 T02890111 53001,M
NFL,2021-09-10 08:56,-118.7010,39.4166,1199.00,71.00,57.00,61.04,150.00,4.00,0.02,30.01,1013.30,10.00,M,BKN,M,M,M,12000.00,M,M,M,M,M,M,M,M,M,M,71.10,KNFL 100856Z AUTO 15004KT 10SM BKN120 22/14 A3001 RMK AO2 RAE23 SLP133 P0002 60006 T02170139 55004,M
LAS,2021-09-10 08:56,-115.1634,36.0719,663.00,87.00,52.00,30.05,0.00,0.00,0.00,29.93,1010.20,10.00,M,SCT,M,M,M,20000.00,M,M,M,M,M,M,M,M,M,M,84.82,KLAS 100856Z 00000KT 10SM SCT200 31/11 A2993 RMK AO2 SLP102 T03060111 53003,M
TPH,2021-09-10 08:56,-117.0904,38.0505,1654.00,69.00,47.00,45.02,0.00,0.00,0.00,30.17,1012.50,10.00,M,CLR,M,M,M,M,M,M,M,M,M,M,M,M,M,M,69.10,KTPH 100856Z AUTO 00000KT 10SM CLR 21/08 A3017 RMK AO2 SLP125 60000 T02060083 56008,M
WMC,2021-09-10 08:56,-117.8072,40.9019,1315.00,75.00,40.00,28.20,260.00,7.00,0.00,30.06,1011.60,10.00,M,OVC,M,M,M,10000.00,M,M,M,M,M,M,M,M,M,M,75.00,KWMC 100856Z AUTO 26007KT 220V290 10SM OVC100 24/04 A3006 RMK AO2 SLP116 T02390044 53009,M
INS,2021-09-10 08:58,-115.6733,36.5872,955.00,71.20,63.30,76.12,0.00,0.00,0.00,30.00,M,10.00,M,CLR,M,M,M,M,M,M,M,M,M,M,M,M,M,M,71.20,KINS 100858Z AUTO 00000KT 10SM CLR 22/17 A3000 RMK AO2 SLPNO T02180174 58000 $,M
LSV,2021-09-10 08:58,-115.0343,36.2362,570.00,87.60,48.40,25.88,0.00,0.00,0.00,29.89,M,10.00,M,CLR,M,M,M,M,M,M,M,M,M,M,M,M,M,M,84.73,KLSV 100858Z AUTO 00000KT 10SM CLR 31/09 A2989 RMK AO2 SLPNO T03090091 52004 $,M
CXP,2021-09-10 09:10,-119.7326,39.1923,1431.00,68.00,46.40,45.88,0.00,0.00,0.00,30.07,M,10.00,M,CLR,M,M,M,M,M,M,M,M,M,M,M,M,M,M,68.00,KCXP 100910Z AUTO 00000KT 10SM CLR 20/08 A3007 RMK AO2,M
TMT,2021-09-10 09:15,-117.1971,39.4643,1749.34,66.20,43.70,44.06,0.00,0.00,0.00,30.18,M,10.00,M,SCT,M,M,M,12000.00,M,M,M,M,M,M,M,M,M,M,66.20,KTMT 100915Z AUTO 00000KT 10SM SCT120 19/07 A3018 RMK AO2 T01900065,M
BAM,2021-09-10 09:15,-116.8743,40.5990,1382.36,77.00,37.40,23.93,230.00,9.00,0.00,30.07,M,7.00,M,CLR,M,M,M,M,M,M,M,M,M,M,M,M,M,M,77.00,KBAM 100915Z AUTO 23009KT 7SM CLR 25/03 A3007 RMK AO1,M
RTS,2021-09-10 09:15,-119.8764,39.6682,1539.00,60.80,53.60,77.14,10.00,5.00,0.00,30.09,M,10.00,M,BKN,M,M,M,9000.00,M,M,M,M,M,M,M,M,M,M,60.80,KRTS 100915Z AUTO 01005KT 10SM BKN090 16/12 A3009 RMK AO2,M
MEV,2021-09-10 09:15,-119.7500,38.9963,1441.42,66.20,46.40,48.83,310.00,4.00,0.00,30.06,M,10.00,M,CLR,M,M,M,M,M,M,M,M,M,M,M,M,M,M,66.20,KMEV 100915Z AUTO 31004KT 10SM CLR 19/08 A3006 RMK AO2,M
BVU,2021-09-10 09:15,-114.8611,35.9475,671.00,80.60,51.80,36.79,0.00,0.00,0.00,29.92,M,10.00,M,CLR,M,M,M,M,M,M,M,M,M,M,M,M,M,M,80.08,KBVU 100915Z AUTO 00000KT 10SM CLR 27/11 A2992 RMK AO2,M
WMC,2021-09-10 09:17,-117.8072,40.9019,1315.00,76.00,47.00,35.78,270.00,15.00,0.00,30.04,M,10.00,21.00,FEW,SCT,BKN,M,5500.00,8000.00,10000.00,M,M,M,M,M,M,M,M,75.90,KWMC 100917Z AUTO 27015G21KT 10SM FEW055 SCT080 BKN100 24/08 A3004 RMK AO2 WSHFT 0857 T02440083,M
MEV,2021-09-10 09:35,-119.7500,38.9963,1441.42,62.60,46.40,55.37,0.00,0.00,0.00,30.06,M,10.00,M,CLR,M,M,M,M,M,M,M,M,M,M,M,M,M,M,62.60,KMEV 100935Z AUTO 00000KT 10SM CLR 17/08 A3006 RMK AO2,M
BVU,2021-09-10 09:35,-114.8611,35.9475,671.00,80.60,51.80,36.79,0.00,0.00,0.00,29.92,M,10.00,M,CLR,M,M,M,M,M,M,M,M,M,M,M,M,M,M,80.08,KBVU 100935Z AUTO 00000KT 10SM CLR 27/11 A2992 RMK AO2,M
CXP,2021-09-10 09:35,-119.7326,39.1923,1431.00,69.80,44.60,40.29,0.00,0.00,0.00,30.07,M,10.00,M,CLR,M,M,M,M,M,M,M,M,M,M,M,M,M,M,69.80,KCXP 100935Z AUTO 00000KT 10SM CLR 21/07 A3007 RMK AO2,M
RTS,2021-09-10 09:35,-119.8764,39.6682,1539.00,60.80,53.60,77.14,100.00,4.00,0.00,30.08,M,10.00,M,BKN,M,M,M,9000.00,M,M,M,M,M,M,M,M,M,M,60.80,KRTS 100935Z AUTO 10004KT 10SM BKN090 16/12 A3008 RMK AO2,M
TMT,2021-09-10 09:35,-117.1971,39.4643,1749.34,68.00,44.20,42.20,170.00,4.00,0.00,30.18,M,10.00,M,SCT,SCT,M,M,7000.00,8500.00,M,M,M,M,M,M,M,M,M,68.00,KTMT 100935Z AUTO 17004KT 10SM SCT070 SCT085 20/07 A3018 RMK AO2 T02000068,M
BAM,2021-09-10 09:35,-116.8743,40.5990,1382.36,77.00,37.40,23.93,200.00,12.00,0.00,30.11,M,7.00,M,BKN,M,M,M,11000.00,M,M,M,M,M,M,M,M,M,M,77.00,KBAM 100935Z AUTO 20012KT 7SM BKN110 25/03 A3011 RMK AO1,M
CXP,2021-09-10 09:50,-119.7326,39.1923,1431.00,68.00,44.60,42.85,0.00,0.00,0.00,30.07,M,10.00,M,FEW,M,M,M,9000.00,M,M,M,M,M,M,M,M,M,M,68.00,KCXP 100950Z AUTO 00000KT 10SM FEW090 20/07 A3007 RMK AO2,M
DRA,2021-09-10 09:53,-116.0278,36.6206,1009.00,74.00,46.00,36.98,0.00,0.00,0.00,30.02,1010.60,10.00,M,CLR,M,M,M,M,M,M,M,M,M,M,M,M,M,M,73.90,KDRA 100953Z AUTO 00000KT 10SM CLR 23/08 A3002 RMK AO2 SLP106 T02330078,M
P68,2021-09-10 09:53,-116.0056,39.6014,1993.00,69.00,41.00,35.94,180.00,9.00,0.00,30.19,1012.60,M,M,M,M,M,M,M,M,M,M,M,M,M,M,M,M,M,69.10,KP68 100953Z AUTO 18009KT 21/05 A3019 RMK AO1 SLP126 T02060050,M
LOL,2021-09-10 09:53,-118.5701,40.0684,1192.43,66.00,58.00,75.12,60.00,4.00,T,30.00,1010.90,10.00,M,FEW,SCT,M,M,6500.00,10000.00,M,M,M,M,M,M,M,M,M,66.00,KLOL 100953Z AUTO 06004KT 10SM FEW065 SCT100 19/14 A3000 RMK AO2 RAB21E31 SLP109 P0000 T01890144,M
VGT,2021-09-10 09:53,-115.1933,36.2111,667.00,89.00,51.00,27.29,310.00,7.00,0.00,29.91,1011.00,10.00,M,CLR,M,M,M,M,M,M,M,M,M,M,M,M,M,M,86.42,KVGT 100953Z AUTO 31007KT 10SM CLR 32/11 A2991 RMK AO2 SLP110 T03170106,M
ELY,2021-09-10 09:53,-114.8453,39.2950,1909.00,59.00,46.00,61.98,130.00,6.00,0.00,30.26,1013.30,10.00,M,CLR,M,M,M,M,M,M,M,M,M,M,M,M,M,M,59.00,KELY 100953Z AUTO 13006KT 10SM CLR 15/08 A3026 RMK AO2 SLP133 T01500078 $,M
BVU,2021-09-10 09:55,-114.8611,35.9475,671.00,80.60,51.80,36.79,70.00,3.00,0.00,29.92,M,10.00,M,CLR,M,M,M,M,M,M,M,M,M,M,M,M,M,M,80.08,KBVU 100955Z AUTO 07003KT 10SM CLR 27/11 A2992 RMK AO2,M
BAM,2021-09-10 09:55,-116.8743,40.5990,1382.36,77.00,44.60,31.62,200.00,16.00,0.00,30.13,M,10.00,24.00,SCT,SCT,OVC,M,5000.00,7000.00,10000.00,M,M,M,M,M,M,M,M,77.00,KBAM 100955Z AUTO 20016G24KT 10SM SCT050 SCT070 OVC100 25/07 A3013 RMK AO1,M
MEV,2021-09-10 09:55,-119.7500,38.9963,1441.42,60.80,46.40,59.01,0.00,0.00,0.00,30.06,M,10.00,M,CLR,M,M,M,M,M,M,M,M,M,M,M,M,M,M,60.80,KMEV 100955Z AUTO 00000KT 10SM CLR 16/08 A3006 RMK AO2,M
RNO,2021-09-10 09:55,-119.7711,39.4839,1341.00,67.00,50.00,54.54,290.00,10.00,0.00,30.04,1010.80,10.00,M,FEW,SCT,M,M,10000.00,18000.00,M,M,M,M,M,M,M,M,M,66.90,KRNO 100955Z 29010KT 10SM FEW100 SCT180 19/10 A3004 RMK AO2 SLP108 T01940100,M
TMT,2021-09-10 09:55,-117.1971,39.4643,1749.34,67.00,44.20,43.53,350.00,4.00,0.00,30.16,M,10.00,M,SCT,BKN,M,M,9500.00,12000.00,M,M,M,M,M,M,M,M,M,67.10,KTMT 100955Z AUTO 35004KT 10SM SCT095 BKN120 20/07 A3016 RMK AO2 T01950068,M
RTS,2021-09-10 09:55,-119.8764,39.6682,1539.00,59.00,55.40,87.83,310.00,3.00,0.00,30.10,M,10.00,M,SCT,BKN,M,M,8000.00,9000.00,M,M,M,M,M,M,M,M,M,59.00,KRTS 100955Z AUTO 31003KT 10SM SCT080 BKN090 15/13 A3010 RMK AO2,M
TPH,2021-09-10 09:56,-117.0904,38.0505,1654.00,66.00,43.00,43.20,0.00,0.00,0.00,30.17,1012.50,10.00,M,CLR,M,M,M,M,M,M,M,M,M,M,M,M,M,M,66.00,KTPH 100956Z AUTO 00000KT 10SM CLR 19/06 A3017 RMK AO2 SLP125 T01890061,M
LAS,2021-09-10 09:56,-115.1634,36.0719,663.00,86.00,50.00,28.90,230.00,3.00,0.00,29.93,1010.20,10.00,M,FEW,M,M,M,20000.00,M,M,M,M,M,M,M,M,M,M,83.62,KLAS 100956Z 23003KT 10SM FEW200 30/10 A2993 RMK AO2 SLP102 T03000100,M
HND,2021-09-10 09:56,-115.1344,35.9729,742.79,86.00,52.00,31.13,240.00,7.00,0.00,29.96,1012.50,10.00,M,CLR,M,M,M,M,M,M,M,M,M,M,M,M,M,M,83.91,KHND 100956Z AUTO 24007KT 10SM CLR 30/11 A2996 RMK AO2 SLP125 T03000111,M
EKO,2021-09-10 09:56,-115.7860,40.8242,1367.00,77.00,40.00,26.38,210.00,11.00,0.00,30.13,1012.70,10.00,20.00,OVC,M,M,M,11000.00,M,M,M,M,M,M,M,M,M,M,77.00,KEKO 100956Z AUTO 21011G20KT 10SM OVC110 25/04 A3013 RMK AO2 SLP127 T02500044,M
WMC,2021-09-10 09:56,-117.8072,40.9019,1315.00,74.00,48.00,39.87,M,3.00,0.00,30.03,1010.70,10.00,M,BKN,M,M,M,11000.00,M,M,M,M,M,M,M,M,M,M,73.90,KWMC 100956Z AUTO VRB03KT 10SM BKN110 23/09 A3003 RMK AO2 WSHFT 0857 SLP107 T02330089,M
NFL,2021-09-10 09:56,-118.7010,39.4166,1199.00,72.00,55.00,55.06,0.00,0.00,0.00,29.99,1012.80,10.00,M,CLR,M,M,M,M,M,M,M,M,M,M,M,M,M,M,72.00,KNFL 100956Z AUTO 00000KT 10SM CLR 22/13 A2999 RMK AO2 SLP128 T02220128,M
INS,2021-09-10 09:58,-115.6733,36.5872,955.00,71.20,60.00,67.98,230.00,3.00,0.00,30.01,1010.90,10.00,M,CLR,M,M,M,M,M,M,M,M,M,M,M,M,M,M,71.20,KINS 100958Z AUTO 23003KT 10SM CLR 22/16 A3001 RMK AO2 SLP109 T02180156 $,M
LSV,2021-09-10 09:58,-115.0343,36.2362,570.00,83.70,48.00,28.88,0.00,0.00,0.00,29.90,1009.60,10.00,M,CLR,M,M,M,M,M,M,M,M,M,M,M,M,M,M,81.66,KLSV 100958Z AUTO 00000KT 10SM CLR 29/09 A2990 RMK AO2 SLP096 T02870089 $,M
CXP,2021-09-10 10:15,-119.7326,39.1923,1431.00,66.20,44.60,45.60,0.00,0.00,0.00,30.08,M,10.00,M,SCT,M,M,M,9500.00,M,M,M,M,M,M,M,M,M,M,66.20,KCXP 101015Z AUTO 00000KT 10SM SCT095 19/07 A3008 RMK AO2,M
RTS,2021-09-10 10:15,-119.8764,39.6682,1539.00,59.00,55.40,87.83,320.00,6.00,0.00,30.11,M,10.00,M,BKN,M,M,M,8500.00,M,M,M,M,M,M,M,M,M,M,59.00,KRTS 101015Z AUTO 32006KT 10SM BKN085 15/13 A3011 RMK AO2,M
MEV,2021-09-10 10:15,-119.7500,38.9963,1441.42,59.00,46.40,62.92,340.00,4.00,0.00,30.06,M,10.00,M,FEW,M,M,M,8500.00,M,M,M,M,M,M,M,M,M,M,59.00,KMEV 101015Z AUTO 34004KT 10SM FEW085 15/08 A3006 RMK AO2,M
TMT,2021-09-10 10:15,-117.1971,39.4643,1749.34,63.00,43.70,49.10,330.00,6.00,0.00,30.16,M,10.00,M,SCT,M,M,M,12000.00,M,M,M,M,M,M,M,M,M,M,63.10,KTMT 101015Z AUTO 33006KT 10SM SCT120 17/07 A3016 RMK AO2 T01730065,M
BAM,2021-09-10 10:15,-116.8743,40.5990,1382.36,73.40,46.40,38.18,110.00,7.00,0.00,30.08,M,10.00,M,SCT,SCT,BKN,M,4300.00,6000.00,10000.00,M,M,M,M,M,M,M,M,73.40,KBAM 101015Z AUTO 11007KT 10SM SCT043 SCT060 BKN100 23/08 A3008 RMK AO1,M
BVU,2021-09-10 10:15,-114.8611,35.9475,671.00,78.80,53.60,41.69,50.00,4.00,0.00,29.92,M,10.00,M,CLR,M,M,M,M,M,M,M,M,M,M,M,M,M,M,78.80,KBVU 101015Z AUTO 05004KT 10SM CLR 26/12 A2992 RMK AO2,M
BVU,2021-09-10 10:35,-114.8611,35.9475,671.00,78.80,51.80,39.02,30.00,3.00,0.00,29.92,M,10.00,M,CLR,M,M,M,M,M,M,M,M,M,M,M,M,M,M,78.80,KBVU 101035Z AUTO 03003KT 10SM CLR 26/11 A2992 RMK AO2,M
BAM,2021-09-10 10:35,-116.8743,40.5990,1382.36,71.60,48.20,43.42,50.00,5.00,0.00,30.08,M,10.00,M,SCT,SCT,M,M,9000.00,11000.00,M,M,M,M,M,M,M,M,M,71.60,KBAM 101035Z AUTO 05005KT 10SM SCT090 SCT110 22/09 A3008 RMK AO1,M
MEV,2021-09-10 10:35,-119.7500,38.9963,1441.42,59.00,44.60,58.77,50.00,3.00,0.00,30.05,M,10.00,M,FEW,M,M,M,8500.00,M,M,M,M,M,M,M,M,M,M,59.00,KMEV 101035Z AUTO 05003KT 10SM FEW085 15/07 A3005 RMK AO2,M
TMT,2021-09-10 10:35,-117.1971,39.4643,1749.34,61.70,43.00,50.22,0.00,0.00,0.00,30.17,M,10.00,M,CLR,M,M,M,M,M,M,M,M,M,M,M,M,M,M,61.70,KTMT 101035Z AUTO 00000KT 10SM CLR 17/06 A3017 RMK AO2 T01650061,M
RTS,2021-09-10 10:35,-119.8764,39.6682,1539.00,64.40,50.00,59.50,300.00,7.00,0.00,30.11,M,10.00,15.00,BKN,OVC,M,M,8000.00,9500.00,M,M,M,M,M,M,M,M,M,64.40,KRTS 101035Z AUTO 30007G15KT 10SM BKN080 OVC095 18/10 A3011 RMK AO2,M
CXP,2021-09-10 10:35,-119.7326,39.1923,1431.00,64.40,44.60,48.55,0.00,0.00,0.00,30.07,M,10.00,M,SCT,M,M,M,9500.00,M,M,M,M,M,M,M,M,M,M,64.40,KCXP 101035Z AUTO 00000KT 10SM SCT095 18/07 A3007 RMK AO2,M
CXP,2021-09-10 10:50,-119.7326,39.1923,1431.00,64.40,44.60,48.55,50.00,3.00,0.00,30.06,M,10.00,M,FEW,M,M,M,9500.00,M,M,M,M,M,M,M,M,M,M,64.40,KCXP 101050Z AUTO 05003KT 10SM FEW095 18/07 A3006 RMK AO2,M
LOL,2021-09-10 10:53,-118.5701,40.0684,1192.43,67.00,58.00,72.81,300.00,3.00,0.00,29.99,1010.60,10.00,M,CLR,M,M,M,M,M,M,M,M,M,M,M,M,M,M,66.90,KLOL 101053Z AUTO 30003KT 10SM CLR 19/14 A2999 RMK AO2 SLP106 T01940144,M
DRA,2021-09-10 10:53,-116.0278,36.6206,1009.00,73.00,47.00,39.43,100.00,5.00,0.00,30.01,1010.50,10.00,M,CLR,M,M,M,M,M,M,M,M,M,M,M,M,M,M,73.00,KDRA 101053Z AUTO 10005KT 10SM CLR 23/08 A3001 RMK AO2 SLP105 T02280083,M
ELY,2021-09-10 10:53,-114.8453,39.2950,1909.00,53.00,46.00,76.75,180.00,9.00,0.00,30.25,1014.20,10.00,M,CLR,M,M,M,M,M,M,M,M,M,M,M,M,M,M,53.10,KELY 101053Z AUTO 18009KT 10SM CLR 12/08 A3025 RMK AO2 SLP142 T01170078 $,M
P68,2021-09-10 10:53,-116.0056,39.6014,1993.00,69.00,41.00,35.94,200.00,7.00,0.00,30.20,1013.30,M,M,M,M,M,M,M,M,M,M,M,M,M,M,M,M,M,69.10,KP68 101053Z AUTO 20007KT 21/05 A3020 RMK AO1 SLP133 T02060050,M
VGT,2021-09-10 10:53,-115.1933,36.2111,667.00,86.00,51.00,30.11,330.00,4.00,0.00,29.91,1011.10,10.00,M,CLR,M,M,M,M,M,M,M,M,M,M,M,M,M,M,83.77,KVGT 101053Z AUTO 33004KT 10SM CLR 30/11 A2991 RMK AO2 SLP111 T03000106,M
MEV,2021-09-10 10:55,-119.7500,38.9963,1441.42,59.00,46.40,62.92,70.00,4.00,0.00,30.05,M,10.00,M,CLR,M,M,M,M,M,M,M,M,M,M,M,M,M,M,59.00,KMEV 101055Z AUTO 07004KT 10SM CLR 15/08 A3005 RMK AO2,M
RNO,2021-09-10 10:55,-119.7711,39.4839,1341.00,66.00,52.00,60.60,100.00,8.00,0.00,30.03,1010.70,10.00,M,FEW,BKN,M,M,8500.00,22000.00,M,M,M,M,M,M,M,M,M,66.00,KRNO 101055Z 10008KT 10SM FEW085 BKN220 19/11 A3003 RMK AO2 SLP107 OCNL LTG DSNT SW T01890111,M
RTS,2021-09-10 10:55,-119.8764,39.6682,1539.00,62.60,50.00,63.38,290.00,4.00,0.00,30.09,M,10.00,M,FEW,BKN,M,M,8000.00,10000.00,M,M,M,M,M,M,M,M,M,62.60,KRTS 101055Z AUTO 29004KT 10SM FEW080 BKN100 17/10 A3009 RMK AO2,M
BAM,2021-09-10 10:55,-116.8743,40.5990,1382.36,69.80,48.20,46.16,0.00,0.00,0.00,30.08,M,10.00,M,SCT,M,M,M,12000.00,M,M,M,M,M,M,M,M,M,M,69.80,KBAM 101055Z AUTO 00000KT 10SM SCT120 21/09 A3008 RMK AO1,M
BVU,2021-09-10 10:55,-114.8611,35.9475,671.00,78.80,51.80,39.02,10.00,3.00,0.00,29.92,M,10.00,M,CLR,M,M,M,M,M,M,M,M,M,M,M,M,M,M,78.80,KBVU 101055Z AUTO 01003KT 10SM CLR 26/11 A2992 RMK AO2,M
TMT,2021-09-10 10:55,-117.1971,39.4643,1749.34,61.30,42.80,50.55,120.00,4.00,0.00,30.16,M,10.00,M,CLR,M,M,M,M,M,M,M,M,M,M,M,M,M,M,61.30,KTMT 101055Z AUTO 12004KT 10SM CLR 16/06 A3016 RMK AO2 T01630060,M
NFL,2021-09-10 10:56,-118.7010,39.4166,1199.00,70.00,59.00,68.09,250.00,5.00,0.00,29.99,1012.60,10.00,M,SCT,M,M,M,12000.00,M,M,M,M,M,M,M,M,M,M,70.00,KNFL 101056Z AUTO 25005KT 10SM SCT120 21/15 A2999 RMK AO2 SLP126 T02110150,M
WMC,2021-09-10 10:56,-117.8072,40.9019,1315.00,73.00,48.00,41.10,M,3.00,0.00,30.02,1010.20,10.00,M,SCT,M,M,M,11000.00,M,M,M,M,M,M,M,M,M,M,73.00,KWMC 101056Z AUTO VRB03KT 10SM SCT110 23/09 A3002 RMK AO2 SLP102 T02280089,M
LAS,2021-09-10 10:56,-115.1634,36.0719,663.00,85.00,50.00,29.94,200.00,3.00,0.00,29.92,1010.10,10.00,M,FEW,M,M,M,20000.00,M,M,M,M,M,M,M,M,M,M,82.76,KLAS 101056Z 20003KT 10SM FEW200 29/10 A2992 RMK AO2 SLP101 T02940100,M
HND,2021-09-10 10:56,-115.1344,35.9729,742.79,82.00,51.00,34.25,170.00,8.00,0.00,29.96,1012.50,10.00,M,CLR,M,M,M,M,M,M,M,M,M,M,M,M,M,M,80.85,KHND 101056Z AUTO 17008KT 10SM CLR 28/11 A2996 RMK AO2 SLP125 T02780106,M
EKO,2021-09-10 10:56,-115.7860,40.8242,1367.00,72.00,44.00,36.68,210.00,6.00,0.00,30.13,1013.10,10.00,M,SCT,M,M,M,11000.00,M,M,M,M,M,M,M,M,M,M,72.00,KEKO 101056Z AUTO 21006KT 10SM SCT110 22/07 A3013 RMK AO2 SLP131 T02220067,M
TPH,2021-09-10 10:56,-117.0904,38.0505,1654.00,64.00,41.00,42.88,350.00,4.00,0.00,30.16,1012.70,10.00,M,CLR,M,M,M,M,M,M,M,M,M,M,M,M,M,M,64.00,KTPH 101056Z AUTO 35004KT 10SM CLR 18/05 A3016 RMK AO2 SLP127 T01780050,M
INS,2021-09-10 10:58,-115.6733,36.5872,955.00,69.30,59.00,69.73,260.00,4.00,0.00,30.01,1010.90,10.00,M,CLR,M,M,M,M,M,M,M,M,M,M,M,M,M,M,69.30,KINS 101058Z AUTO 26004KT 10SM CLR 21/15 A3001 RMK AO2 SLP109 T02070150 $,M
LSV,2021-09-10 10:58,-115.0343,36.2362,570.00,85.80,49.00,27.92,70.00,7.00,0.00,29.89,1009.30,10.00,M,CLR,M,M,M,M,M,M,M,M,M,M,M,M,M,M,83.32,KLSV 101058Z AUTO 07007KT 10SM CLR 30/09 A2989 RMK AO2 SLP093 T02990094 $,M
CXP,2021-09-10 11:15,-119.7326,39.1923,1431.00,64.40,46.40,51.98,0.00,0.00,0.00,30.05,M,10.00,M,CLR,M,M,M,M,M,M,M,M,M,M,M,M,M,M,64.40,KCXP 101115Z AUTO 00000KT 10SM CLR 18/08 A3005 RMK AO2,M
RTS,2021-09-10 11:15,-119.8764,39.6682,1539.00,62.60,50.00,63.38,20.00,4.00,0.00,30.07,M,10.00,M,FEW,FEW,M,M,10000.00,12000.00,M,M,M,M,M,M,M,M,M,62.60,KRTS 101115Z AUTO 02004KT 10SM FEW100 FEW120 17/10 A3007 RMK AO2,M
MEV,2021-09-10 11:15,-119.7500,38.9963,1441.42,57.20,44.60,62.69,0.00,0.00,0.00,30.05,M,10.00,M,CLR,M,M,M,M,M,M,M,M,M,M,M,M,M,M,57.20,KMEV 101115Z AUTO 00000KT 10SM CLR 14/07 A3005 RMK AO2,M
BAM,2021-09-10 11:15,-116.8743,40.5990,1382.36,69.80,48.20,46.16,0.00,0.00,0.00,30.09,M,10.00,M,BKN,M,M,M,11000.00,M,M,M,M,M,M,M,M,M,M,69.80,KBAM 101115Z AUTO 00000KT 10SM BKN110 21/09 A3009 RMK AO1,M
TMT,2021-09-10 11:15,-117.1971,39.4643,1749.34,60.40,42.80,52.19,120.00,3.00,0.00,30.16,M,10.00,M,CLR,M,M,M,M,M,M,M,M,M,M,M,M,M,M,60.40,KTMT 101115Z AUTO 12003KT 10SM CLR 16/06 A3016 RMK AO2 T01580060,M
BVU,2021-09-10 11:15,-114.8611,35.9475,671.00,78.80,50.00,36.51,350.00,4.00,0.00,29.92,M,10.00,M,CLR,M,M,M,M,M,M,M,M,M,M,M,M,M,M,78.80,KBVU 101115Z AUTO 35004KT 10SM CLR 26/10 A2992 RMK AO2,M
CXP,2021-09-10 11:35,-119.7326,39.1923,1431.00,62.60,46.40,55.37,300.00,3.00,0.00,30.05,M,10.00,M,CLR,M,M,M,M,M,M,M,M,M,M,M,M,M,M,62.60,KCXP 101135Z AUTO 30003KT 10SM CLR 17/08 A3005 RMK AO2,M
MEV,2021-09-10 11:35,-119.7500,38.9963,1441.42,60.80,44.60,55.12,0.00,0.00,0.00,30.05,M,10.00,M,CLR,M,M,M,M,M,M,M,M,M,M,M,M,M,M,60.80,KMEV 101135Z AUTO 00000KT 10SM CLR 16/07 A3005 RMK AO2,M
BAM,2021-09-10 11:35,-116.8743,40.5990,1382.36,68.00,50.00,52.51,330.00,3.00,0.00,30.08,M,10.00,M,SCT,BKN,M,M,8000.00,11000.00,M,M,M,M,M,M,M,M,M,68.00,KBAM 101135Z AUTO 33003KT 10SM SCT080 BKN110 20/10 A3008 RMK AO1,M
BVU,2021-09-10 11:35,-114.8611,35.9475,671.00,80.60,51.80,36.79,330.00,4.00,0.00,29.92,M,10.00,M,CLR,M,M,M,M,M,M,M,M,M,M,M,M,M,M,80.08,KBVU 101135Z AUTO 33004KT 10SM CLR 27/11 A2992 RMK AO2,M
TMT,2021-09-10 11:35,-117.1971,39.4643,1749.34,60.30,42.80,52.37,0.00,0.00,0.00,30.16,M,10.00,M,CLR,M,M,M,M,M,M,M,M,M,M,M,M,M,M,60.30,KTMT 101135Z AUTO 00000KT 10SM CLR 16/06 A3016 RMK AO2 T01570060,M
RTS,2021-09-10 11:35,-119.8764,39.6682,1539.00,62.60,50.00,63.38,0.00,0.00,0.00,30.08,M,10.00,M,CLR,M,M,M,M,M,M,M,M,M,M,M,M,M,M,62.60,KRTS 101135Z AUTO 00000KT 10SM CLR 17/10 A3008 RMK AO2,M
VGT,2021-09-10 11:53,-115.1933,36.2111,667.00,85.00,52.00,32.24,280.00,4.00,0.00,29.92,1011.50,10.00,M,CLR,M,M,M,M,M,M,M,M,M,M,M,M,M,M,83.03,KVGT 101153Z AUTO 28004KT 10SM CLR 29/11 A2992 RMK AO2 SLP115 T02940111 10339 20294 53003,M
P68,2021-09-10 11:53,-116.0056,39.6014,1993.00,65.00,42.00,43.36,170.00,6.00,0.00,30.18,1013.20,M,M,M,M,M,M,M,M,M,M,M,M,M,M,M,M,M,64.90,KP68 101153Z AUTO 17006KT 18/06 A3018 RMK AO1 SLP132 T01830056 10233 20178 58008,M
ELY,2021-09-10 11:53,-114.8453,39.2950,1909.00,52.00,47.00,82.68,160.00,10.00,0.00,30.24,1014.80,10.00,M,CLR,M,M,M,M,M,M,M,M,M,M,M,M,M,M,52.00,KELY 101153Z AUTO 16010KT 10SM CLR 11/08 A3024 RMK AO2 SLP148 60000 70001 T01110083 10206 20111 58006 $,M
DRA,2021-09-10 11:53,-116.0278,36.6206,1009.00,72.00,47.00,40.79,80.00,4.00,0.00,30.01,1010.50,10.00,M,CLR,M,M,M,M,M,M,M,M,M,M,M,M,M,M,72.00,KDRA 101153Z AUTO 08004KT 10SM CLR 22/08 A3001 RMK AO2 SLP105 T02220083 10283 20222 58002,M
LOL,2021-09-10 11:53,-118.5701,40.0684,1192.43,64.00,58.00,80.54,0.00,0.00,0.00,29.98,1010.40,10.00,M,FEW,M,M,M,11000.00,M,M,M,M,M,M,M,M,M,M,64.00,KLOL 101153Z AUTO 00000KT 10SM FEW110 18/14 A2998 RMK AO2 SLP104 60005 70005 T01780144 10272 20167 58009,M
TMT,2021-09-10 11:55,-117.1971,39.4643,1749.34,60.30,42.80,52.37,0.00,0.00,0.00,30.16,M,10.00,M,CLR,M,M,M,M,M,M,M,M,M,M,M,M,M,M,60.30,KTMT 101155Z AUTO 00000KT 10SM CLR 16/06 A3016 RMK AO2 T01570060 10230 20150,M
CXP,2021-09-10 11:55,-119.7326,39.1923,1431.00,64.40,46.40,51.98,0.00,0.00,0.00,30.05,M,10.00,M,CLR,M,M,M,M,M,M,M,M,M,M,M,M,M,M,64.40,KCXP 101155Z AUTO 00000KT 10SM CLR 18/08 A3005 RMK AO2 LTG DSNT S,M
RNO,2021-09-10 11:55,-119.7711,39.4839,1341.00,68.00,50.00,52.51,340.00,10.00,0.00,30.04,1011.60,10.00,M,FEW,FEW,BKN,M,10000.00,16000.00,22000.00,M,M,M,M,M,M,M,M,68.00,KRNO 101155Z 34010KT 10SM FEW100 FEW160 BKN220 20/10 A3004 RMK AO2 SLP116 60000 70003 T02000100 10217 20189 57000,M
RTS,2021-09-10 11:55,-119.8764,39.6682,1539.00,60.80,50.00,67.54,70.00,3.00,0.00,30.09,M,10.00,M,SCT,M,M,M,7500.00,M,M,M,M,M,M,M,M,M,M,60.80,KRTS 101155Z AUTO 07003KT 10SM SCT075 16/10 A3009 RMK AO2,M
MEV,2021-09-10 11:55,-119.7500,38.9963,1441.42,57.20,44.60,62.69,120.00,4.00,0.00,30.04,M,10.00,M,CLR,M,M,M,M,M,M,M,M,M,M,M,M,M,M,57.20,KMEV 101155Z AUTO 12004KT 10SM CLR 14/07 A3004 RMK AO2 LTG DSNT S,M
BAM,2021-09-10 11:55,-116.8743,40.5990,1382.36,68.00,50.00,52.51,360.00,4.00,0.00,30.07,M,10.00,M,BKN,M,M,M,11000.00,M,M,M,M,M,M,M,M,M,M,68.00,KBAM 101155Z AUTO 36004KT 10SM BKN110 20/10 A3007 RMK AO1,M
BVU,2021-09-10 11:55,-114.8611,35.9475,671.00,80.60,50.00,34.41,0.00,0.00,0.00,29.93,M,10.00,M,CLR,M,M,M,M,M,M,M,M,M,M,M,M,M,M,79.88,KBVU 101155Z AUTO 00000KT 10SM CLR 27/10 A2993 RMK AO2,M
HND,2021-09-10 11:56,-115.1344,35.9729,742.79,82.00,52.00,35.41,210.00,4.00,0.00,29.97,1012.70,10.00,M,CLR,M,M,M,M,M,M,M,M,M,M,M,M,M,M,80.97,KHND 101156Z AUTO 21004KT 10SM CLR 28/11 A2997 RMK AO2 SLP127 T02780111 10311 20278 53001,M
TPH,2021-09-10 11:56,-117.0904,38.0505,1654.00,63.00,42.00,46.34,10.00,6.00,0.00,30.16,1012.90,10.00,M,CLR,M,M,M,M,M,M,M,M,M,M,M,M,M,M,63.00,KTPH 101156Z AUTO 01006KT 10SM CLR 17/06 A3016 RMK AO2 SLP129 60000 T01720056 10239 20172 56003,M
NFL,2021-09-10 11:56,-118.7010,39.4166,1199.00,71.00,52.00,50.86,200.00,4.00,0.00,29.98,1012.30,10.00,M,CLR,M,M,M,M,M,M,M,M,M,M,M,M,M,M,71.10,KNFL 101156Z AUTO 20004KT 10SM CLR 22/11 A2998 RMK AO2 SLP123 60006 70006 T02170111 10294 20206 56009,M
EKO,2021-09-10 11:56,-115.7860,40.8242,1367.00,67.00,48.00,50.62,0.00,0.00,T,30.12,1013.30,10.00,M,FEW,M,M,M,10000.00,M,M,M,M,M,M,M,M,M,M,66.90,KEKO 101156Z AUTO 00000KT 10SM FEW100 19/09 A3012 RMK AO2 RAB41E50 SLP133 P0000 60000 T01940089 10261 20189 50001,M
LAS,2021-09-10 11:56,-115.1634,36.0719,663.00,83.00,51.00,33.27,310.00,3.00,0.00,29.93,1010.30,10.00,M,FEW,M,M,M,20000.00,M,M,M,M,M,M,M,M,M,M,81.45,KLAS 101156Z 31003KT 10SM FEW200 28/11 A2993 RMK AO2 SLP103 T02830106 10339 20283 53001,M
WMC,2021-09-10 11:56,-117.8072,40.9019,1315.00,72.00,47.00,40.79,50.00,9.00,0.00,30.01,1009.90,10.00,M,FEW,M,M,M,11000.00,M,M,M,M,M,M,M,M,M,M,72.00,KWMC 101156Z AUTO 05009KT 10SM FEW110 22/08 A3001 RMK AO2 SLP099 7//// T02220083 10289 20211 56014,M
INS,2021-09-10 11:58,-115.6733,36.5872,955.00,67.50,60.30,77.71,280.00,3.00,0.00,30.01,1011.40,10.00,M,CLR,M,M,M,M,M,M,M,M,M,M,M,M,M,M,67.50,KINS 101158Z AUTO 28003KT 10SM CLR 20/16 A3001 RMK AO2 SLP114 70010 T01970157 10266 20197 51001 $,M
LSV,2021-09-10 11:58,-115.0343,36.2362,570.00,86.20,49.30,27.98,50.00,8.00,0.00,29.90,1009.50,10.00,M,CLR,M,M,M,M,M,M,M,M,M,M,M,M,M,M,83.69,KLSV 101158Z AUTO 05008KT 10SM CLR 30/10 A2990 RMK AO2 SLP095 T03010096 10350 20286 50003 $,M
MEV,2021-09-10 12:15,-119.7500,38.9963,1441.42,57.20,46.40,67.12,280.00,5.00,0.00,30.06,M,10.00,12.00,FEW,SCT,M,M,7500.00,8500.00,M,M,M,M,M,M,M,M,M,57.20,KMEV 101215Z AUTO 28005G12KT 10SM FEW075 SCT085 14/08 A3006 RMK AO2 LTG DSNT S AND NW,M
TMT,2021-09-10 12:15,-117.1971,39.4643,1749.34,57.60,41.00,53.82,110.00,4.00,0.00,30.16,M,10.00,M,CLR,M,M,M,M,M,M,M,M,M,M,M,M,M,M,57.60,KTMT 101215Z AUTO 11004KT 10SM CLR 14/05 A3016 RMK AO2 T01420050,M
BAM,2021-09-10 12:15,-116.8743,40.5990,1382.36,68.00,48.20,49.10,70.00,6.00,0.00,30.07,M,10.00,M,SCT,M,M,M,12000.00,M,M,M,M,M,M,M,M,M,M,68.00,KBAM 101215Z AUTO 07006KT 10SM SCT120 20/09 A3007 RMK AO1,M
CXP,2021-09-10 12:15,-119.7326,39.1923,1431.00,60.80,46.40,59.01,220.00,5.00,0.00,30.08,M,10.00,10.00,FEW,SCT,M,M,7500.00,9000.00,M,M,M,M,M,M,M,M,M,60.80,KCXP 101215Z AUTO 22005G10KT 10SM FEW075 SCT090 16/08 A3008 RMK AO2 LTG DSNT S AND SW,M
BVU,2021-09-10 12:15,-114.8611,35.9475,671.00,80.60,51.80,36.79,0.00,0.00,0.00,29.93,M,10.00,M,CLR,M,M,M,M,M,M,M,M,M,M,M,M,M,M,80.08,KBVU 101215Z AUTO 00000KT 10SM CLR 27/11 A2993 RMK AO2,M
RTS,2021-09-10 12:15,-119.8764,39.6682,1539.00,62.60,50.00,63.38,10.00,4.00,0.00,30.08,M,10.00,M,BKN,OVC,M,M,7500.00,9000.00,M,M,M,M,M,M,M,M,M,62.60,KRTS 101215Z AUTO 01004KT 10SM BKN075 OVC090 17/10 A3008 RMK AO2,M
RNO,2021-09-10 12:34,-119.7711,39.4839,1341.00,68.00,50.00,52.51,300.00,9.00,0.00,30.07,M,10.00,M,SCT,SCT,BKN,M,8000.00,14000.00,22000.00,M,VCTS,M,M,M,M,M,M,68.00,KRNO 101234Z 30009KT 10SM VCTS SCT080 SCT140 BKN220 20/10 A3007 RMK AO2 LTG DSNT SW TSE28 PRESRR T02000100,M
BVU,2021-09-10 12:35,-114.8611,35.9475,671.00,78.80,51.80,39.02,0.00,0.00,0.00,29.94,M,10.00,M,CLR,M,M,M,M,M,M,M,M,M,M,M,M,M,M,78.80,KBVU 101235Z AUTO 00000KT 10SM CLR 26/11 A2994 RMK AO2,M
TMT,2021-09-10 12:35,-117.1971,39.4643,1749.34,59.00,42.00,52.99,0.00,0.00,0.00,30.15,M,10.00,M,SCT,M,M,M,11000.00,M,M,M,M,M,M,M,M,M,M,59.00,KTMT 101235Z AUTO 00000KT 10SM SCT110 15/06 A3015 RMK AO2 T01500055,M
MEV,2021-09-10 12:35,-119.7500,38.9963,1441.42,62.60,48.20,59.26,350.00,4.00,0.00,30.05,M,10.00,M,FEW,SCT,M,M,7500.00,9500.00,M,M,M,M,M,M,M,M,M,62.60,KMEV 101235Z AUTO 35004KT 10SM FEW075 SCT095 17/09 A3005 RMK AO2 LTG DSNT S,M
BAM,2021-09-10 12:35,-116.8743,40.5990,1382.36,69.80,46.40,43.13,100.00,6.00,0.00,30.07,M,10.00,M,CLR,M,M,M,M,M,M,M,M,M,M,M,M,M,M,69.80,KBAM 101235Z AUTO 10006KT 10SM CLR 21/08 A3007 RMK AO1,M
RTS,2021-09-10 12:35,-119.8764,39.6682,1539.00,59.00,53.60,82.25,170.00,7.00,0.00,30.13,M,2.50,15.00,SCT,BKN,OVC,M,400.00,7000.00,9000.00,M,RA,M,M,M,M,M,M,59.00,KRTS 101235Z AUTO 17007G15KT 140V210 2 1/2SM RA SCT004 BKN070 OVC090 15/12 A3013 RMK AO2,M
CXP,2021-09-10 12:35,-119.7326,39.1923,1431.00,66.20,48.20,52.25,340.00,9.00,0.00,30.07,M,10.00,M,FEW,FEW,BKN,M,2500.00,3400.00,7500.00,M,M,M,M,M,M,M,M,66.20,KCXP 101235Z AUTO 34009KT 10SM FEW025 FEW034 BKN075 19/09 A3007 RMK AO2 LTG DSNT S AND NW,M
RNO,2021-09-10 12:41,-119.7711,39.4839,1341.00,67.00,52.00,58.74,360.00,3.00,T,30.06,M,10.00,M,BKN,BKN,BKN,M,7500.00,9500.00,15000.00,M,-TSRA,M,M,M,M,M,M,66.90,KRNO 101241Z 36003KT 10SM -TSRA BKN075 BKN095 BKN150 19/11 A3006 RMK AO2 LTG DSNT N RAB37 TSE28B41 OCNL LTGIC NW THRU N TS NW THRU N MOV N P0000 T01940111,M
CXP,2021-09-10 12:50,-119.7326,39.1923,1431.00,66.20,50.00,55.88,340.00,13.00,0.00,30.09,M,10.00,M,FEW,SCT,BKN,M,2700.00,8000.00,9000.00,M,M,M,M,M,M,M,M,66.20,KCXP 101250Z AUTO 34013KT 10SM FEW027 SCT080 BKN090 19/10 A3009 RMK AO2,M
ELY,2021-09-10 12:53,-114.8453,39.2950,1909.00,53.00,47.00,79.40,160.00,9.00,0.00,30.24,1015.70,10.00,M,CLR,M,M,M,M,M,M,M,M,M,M,M,M,M,M,53.10,KELY 101253Z AUTO 16009KT 10SM CLR 12/08 A3024 RMK AO2 SLP157 T01170083 $,M
DRA,2021-09-10 12:53,-116.0278,36.6206,1009.00,71.00,47.00,42.05,100.00,3.00,0.00,30.02,1011.30,10.00,M,CLR,M,M,M,M,M,M,M,M,M,M,M,M,M,M,71.10,KDRA 101253Z AUTO 10003KT 10SM CLR 22/08 A3002 RMK AO2 SLP113 T02170083,M
LOL,2021-09-10 12:53,-118.5701,40.0684,1192.43,63.00,58.00,83.42,0.00,0.00,0.00,29.99,1010.90,10.00,M,SCT,M,M,M,11000.00,M,M,M,M,M,M,M,M,M,M,63.00,KLOL 101253Z AUTO 00000KT 10SM SCT110 17/14 A2999 RMK AO2 SLP109 T01720144,M
P68,2021-09-10 12:53,-116.0056,39.6014,1993.00,63.00,41.00,44.41,170.00,9.00,0.00,30.18,1013.50,M,M,M,M,M,M,M,M,M,M,M,M,M,M,M,M,M,63.00,KP68 101253Z AUTO 17009KT 17/05 A3018 RMK AO1 SLP135 T01720050,M
RNO,2021-09-10 12:53,-119.7711,39.4839,1341.00,66.20,55.40,68.15,210.00,7.00,0.01,30.08,M,10.00,M,FEW,SCT,BKN,M,6000.00,7500.00,12000.00,M,-TSRA,M,M,M,M,M,M,66.20,KRNO 101253Z 21007KT 10SM -TSRA FEW060 SCT075CB BKN120 19/13 A3008 RMK AO2 LTG DSNT N RAB37 TSE28B41E52B53 OCNL LTGIC N TS N MOV N P0001,M
VGT,2021-09-10 12:53,-115.1933,36.2111,667.00,85.00,52.00,32.24,260.00,4.00,0.00,29.94,1012.20,10.00,M,FEW,M,M,M,12000.00,M,M,M,M,M,M,M,M,M,M,83.03,KVGT 101253Z 26004KT 10SM FEW120 29/11 A2994 RMK AO2 SLP122 T02940111,M
RNO,2021-09-10 12:55,-119.7711,39.4839,1341.00,65.00,55.00,70.28,0.00,0.00,0.01,30.08,1013.10,10.00,M,FEW,SCT,BKN,M,6000.00,7500.00,12000.00,M,-TSRA,M,M,M,M,M,M,64.90,KRNO 101255Z 00000KT 10SM -TSRA FEW060 SCT075CB BKN120 18/13 A3008 RMK AO2 LTG DSNT N RAB37 TSE28B41E52B53 SLP131 OCNL LTGIC N TS N MOV N P0001 T01830128,M
TMT,2021-09-10 12:55,-117.1971,39.4643,1749.34,58.50,41.70,53.53,0.00,0.00,0.00,30.15,M,10.00,M,CLR,M,M,M,M,M,M,M,M,M,M,M,M,M,M,58.50,KTMT 101255Z AUTO 00000KT 10SM CLR 15/05 A3015 RMK AO2 T01470054,M
MEV,2021-09-10 12:55,-119.7500,38.9963,1441.42,60.80,46.40,59.01,60.00,6.00,0.00,30.07,M,10.00,M,SCT,BKN,BKN,M,7000.00,9000.00,11000.00,M,M,M,M,M,M,M,M,60.80,KMEV 101255Z AUTO 06006KT 10SM SCT070 BKN090 BKN110 16/08 A3007 RMK AO2,M
BVU,2021-09-10 12:55,-114.8611,35.9475,671.00,80.60,50.00,34.41,0.00,0.00,0.00,29.95,M,10.00,M,CLR,M,M,M,M,M,M,M,M,M,M,M,M,M,M,79.88,KBVU 101255Z AUTO 00000KT 10SM CLR 27/10 A2995 RMK AO2,M
RTS,2021-09-10 12:55,-119.8764,39.6682,1539.00,60.80,51.80,72.20,200.00,5.00,0.15,30.13,M,8.00,11.00,FEW,SCT,BKN,M,400.00,3400.00,4600.00,M,-DZ,M,M,M,M,M,M,60.80,KRTS 101255Z AUTO 20005G11KT 8SM -DZ FEW004 SCT034 BKN046 16/11 A3013 RMK AO2 P0015,M
BAM,2021-09-10 12:55,-116.8743,40.5990,1382.36,66.20,46.40,48.83,90.00,5.00,0.00,30.07,M,10.00,M,CLR,M,M,M,M,M,M,M,M,M,M,M,M,M,M,66.20,KBAM 101255Z AUTO 09005KT 10SM CLR 19/08 A3007 RMK AO1,M
LAS,2021-09-10 12:56,-115.1634,36.0719,663.00,84.00,51.00,32.10,280.00,4.00,0.00,29.94,1010.70,9.00,M,FEW,M,M,M,14000.00,M,M,M,M,M,M,M,M,M,M,82.23,KLAS 101256Z 28004KT 9SM FEW140 29/11 A2994 RMK AO2 SLP107 T02890106,M
WMC,2021-09-10 12:56,-117.8072,40.9019,1315.00,68.00,48.00,48.73,70.00,11.00,0.00,30.00,1010.10,10.00,M,FEW,M,M,M,11000.00,M,M,M,M,M,M,M,M,M,M,68.00,KWMC 101256Z AUTO 07011KT 10SM FEW110 20/09 A3000 RMK AO2 SLP101 T02000089,M
EKO,2021-09-10 12:56,-115.7860,40.8242,1367.00,66.00,48.00,52.22,330.00,4.00,0.00,30.10,1013.20,10.00,M,CLR,M,M,M,M,M,M,M,M,M,M,M,M,M,M,66.00,KEKO 101256Z AUTO 33004KT 10SM CLR 19/09 A3010 RMK AO2 SLP132 T01890089,M
TPH,2021-09-10 12:56,-117.0904,38.0505,1654.00,61.00,40.00,45.67,360.00,7.00,0.00,30.16,1013.30,10.00,M,CLR,M,M,M,M,M,M,M,M,M,M,M,M,M,M,61.00,KTPH 101256Z AUTO 36007KT 10SM CLR 16/04 A3016 RMK AO2 SLP133 T01610044,M
NFL,2021-09-10 12:56,-118.7010,39.4166,1199.00,68.00,51.00,54.70,190.00,3.00,0.00,29.99,1012.70,10.00,M,CLR,M,M,M,M,M,M,M,M,M,M,M,M,M,M,68.00,KNFL 101256Z AUTO 19003KT 10SM CLR 20/11 A2999 RMK AO2 SLP127 T02000106,M
HND,2021-09-10 12:56,-115.1344,35.9729,742.79,81.00,52.00,36.58,0.00,0.00,0.00,29.98,1013.30,10.00,M,CLR,M,M,M,M,M,M,M,M,M,M,M,M,M,M,80.34,KHND 101256Z AUTO 00000KT 10SM CLR 27/11 A2998 RMK AO2 SLP133 T02720111,M
LSV,2021-09-10 12:58,-115.0343,36.2362,570.00,83.00,50.00,31.93,0.00,0.00,0.00,29.92,1010.40,10.00,M,CLR,M,M,M,M,M,M,M,M,M,M,M,M,M,M,81.32,KLSV 101258Z AUTO 00000KT 10SM CLR 28/10 A2992 RMK AO2 SLP104 T02830100 $,M
INS,2021-09-10 12:58,-115.6733,36.5872,955.00,67.30,60.40,78.52,0.00,0.00,0.00,30.02,1012.10,10.00,M,CLR,M,M,M,M,M,M,M,M,M,M,M,M,M,M,67.30,KINS 101258Z AUTO 00000KT 10SM CLR 20/16 A3002 RMK AO2 SLP121 T01960158 $,M
RNO,2021-09-10 13:10,-119.7711,39.4839,1341.00,65.00,54.00,67.76,110.00,4.00,T,30.07,M,10.00,M,FEW,BKN,OVC,M,5000.00,10000.00,12000.00,M,M,M,M,M,M,M,M,64.90,KRNO 101310Z 11004KT 10SM FEW050 BKN100 OVC120 18/12 A3007 RMK AO2 RAE02 TSE10 TS MOVD N P0000 T01830122,M
MEV,2021-09-10 13:15,-119.7500,38.9963,1441.42,59.00,51.80,76.98,110.00,7.00,0.00,30.09,M,9.00,13.00,FEW,SCT,BKN,M,3300.00,7500.00,10000.00,M,-RA,M,M,M,M,M,M,59.00,KMEV 101315Z AUTO 11007G13KT 9SM -RA FEW033 SCT075 BKN100 15/11 A3009 RMK AO2,M
TMT,2021-09-10 13:15,-117.1971,39.4643,1749.34,53.20,39.70,60.04,320.00,3.00,0.00,30.15,M,10.00,M,CLR,M,M,M,M,M,M,M,M,M,M,M,M,M,M,53.20,KTMT 101315Z AUTO 32003KT 10SM CLR 12/04 A3015 RMK AO2 T01180043,M
BAM,2021-09-10 13:15,-116.8743,40.5990,1382.36,68.00,46.40,45.88,70.00,7.00,0.00,30.07,M,10.00,M,CLR,M,M,M,M,M,M,M,M,M,M,M,M,M,M,68.00,KBAM 101315Z AUTO 07007KT 10SM CLR 20/08 A3007 RMK AO1,M
RTS,2021-09-10 13:15,-119.8764,39.6682,1539.00,60.80,53.60,77.14,330.00,7.00,0.00,30.13,M,6.00,12.00,FEW,SCT,BKN,M,3000.00,4400.00,7000.00,M,-DZ,M,M,M,M,M,M,60.80,KRTS 101315Z AUTO 33007G12KT 6SM -DZ FEW030 SCT044 BKN070 16/12 A3013 RMK AO2,M
CXP,2021-09-10 13:15,-119.7326,39.1923,1431.00,68.00,50.00,52.51,0.00,0.00,0.00,30.08,M,9.00,M,FEW,SCT,BKN,M,3400.00,6000.00,9000.00,M,M,M,M,M,M,M,M,68.00,KCXP 101315Z AUTO 00000KT 9SM FEW034 SCT060 BKN090 20/10 A3008 RMK AO2 LTG DSNT N AND S,M
BVU,2021-09-10 13:15,-114.8611,35.9475,671.00,78.80,51.80,39.02,40.00,5.00,0.00,29.95,M,10.00,M,CLR,M,M,M,M,M,M,M,M,M,M,M,M,M,M,78.80,KBVU 101315Z AUTO 04005KT 10SM CLR 26/11 A2995 RMK AO2,M
BVU,2021-09-10 13:35,-114.8611,35.9475,671.00,78.80,50.00,36.51,20.00,4.00,0.00,29.95,M,10.00,M,CLR,M,M,M,M,M,M,M,M,M,M,M,M,M,M,78.80,KBVU 101335Z AUTO 02004KT 10SM CLR 26/10 A2995 RMK AO2,M
MEV,2021-09-10 13:35,-119.7500,38.9963,1441.42,60.80,51.80,72.20,130.00,6.00,0.00,30.10,M,10.00,12.00,SCT,BKN,BKN,M,6500.00,7500.00,9000.00,M,M,M,M,M,M,M,M,60.80,KMEV 101335Z AUTO 13006G12KT 10SM SCT065 BKN075 BKN090 16/11 A3010 RMK AO2,M
BAM,2021-09-10 13:35,-116.8743,40.5990,1382.36,66.20,48.20,52.25,80.00,6.00,0.00,30.06,M,10.00,M,CLR,M,M,M,M,M,M,M,M,M,M,M,M,M,M,66.20,KBAM 101335Z AUTO 08006KT 10SM CLR 19/09 A3006 RMK AO1,M
TMT,2021-09-10 13:35,-117.1971,39.4643,1749.34,52.30,39.00,60.39,0.00,0.00,0.00,30.16,M,10.00,M,SCT,M,M,M,12000.00,M,M,M,M,M,M,M,M,M,M,52.30,KTMT 101335Z AUTO 00000KT 10SM SCT120 11/04 A3016 RMK AO2 T01130039,M
RTS,2021-09-10 13:35,-119.8764,39.6682,1539.00,M,M,M,M,M,0.00,M,M,M,M,M,M,M,M,M,M,M,M,M,M,M,M,M,M,M,M,KRTS 101335Z AUTO RMK AO2 PNO PWINO,M
CXP,2021-09-10 13:35,-119.7326,39.1923,1431.00,66.20,51.80,59.74,0.00,0.00,0.00,30.11,M,10.00,M,FEW,SCT,BKN,M,3400.00,8000.00,11000.00,M,M,M,M,M,M,M,M,66.20,KCXP 101335Z AUTO 00000KT 10SM FEW034 SCT080 BKN110 19/11 A3011 RMK AO2,M
CXP,2021-09-10 13:50,-119.7326,39.1923,1431.00,64.40,53.60,67.95,50.00,3.00,0.00,30.11,M,8.00,M,FEW,BKN,OVC,M,4100.00,7000.00,10000.00,M,-RA,M,M,M,M,M,M,64.40,KCXP 101350Z AUTO 05003KT 8SM -RA FEW041 BKN070 OVC100 18/12 A3011 RMK AO2 LTG DSNT N AND NE,M
DRA,2021-09-10 13:53,-116.0278,36.6206,1009.00,72.00,48.00,42.51,0.00,0.00,0.00,30.03,1012.00,10.00,M,FEW,M,M,M,12000.00,M,M,M,M,M,M,M,M,M,M,72.00,KDRA 101353Z AUTO 00000KT 10SM FEW120 22/09 A3003 RMK AO2 SLP120 T02220089,M
P68,2021-09-10 13:53,-116.0056,39.6014,1993.00,66.00,40.00,38.32,170.00,8.00,0.00,30.19,1014.00,M,M,M,M,M,M,M,M,M,M,M,M,M,M,M,M,M,66.00,KP68 101353Z AUTO 17008KT 19/04 A3019 RMK AO1 SLP140 T01890044,M
LOL,2021-09-10 13:53,-118.5701,40.0684,1192.43,61.00,56.00,83.29,0.00,0.00,0.00,30.01,1012.20,10.00,M,CLR,M,M,M,M,M,M,M,M,M,M,M,M,M,M,61.00,KLOL 101353Z AUTO 00000KT 10SM CLR 16/13 A3001 RMK AO2 SLP122 T01610133,M
VGT,2021-09-10 13:53,-115.1933,36.2111,667.00,83.00,52.00,34.39,310.00,3.00,0.00,29.95,1012.60,10.00,M,CLR,M,M,M,M,M,M,M,M,M,M,M,M,M,M,81.57,KVGT 101353Z 31003KT 10SM CLR 28/11 A2995 RMK AO2 SLP126 T02830111,M
ELY,2021-09-10 13:53,-114.8453,39.2950,1909.00,52.00,46.00,79.92,160.00,11.00,0.00,30.25,1016.60,10.00,M,CLR,M,M,M,M,M,M,M,M,M,M,M,M,M,M,52.00,KELY 101353Z AUTO 16011KT 10SM CLR 11/08 A3025 RMK AO2 SLP166 T01110078 $,M
BAM,2021-09-10 13:55,-116.8743,40.5990,1382.36,68.00,48.20,49.10,110.00,5.00,0.00,30.06,M,10.00,M,CLR,M,M,M,M,M,M,M,M,M,M,M,M,M,M,68.00,KBAM 101355Z AUTO 11005KT 10SM CLR 20/09 A3006 RMK AO1,M
RTS,2021-09-10 13:55,-119.8764,39.6682,1539.00,M,M,M,M,M,0.00,M,M,M,M,M,M,M,M,M,M,M,M,M,M,M,M,M,M,M,M,KRTS 101355Z AUTO RMK AO2 PNO PWINO,M
RNO,2021-09-10 13:55,-119.7711,39.4839,1341.00,65.00,55.00,70.28,260.00,7.00,0.02,30.09,1013.70,10.00,M,SCT,BKN,BKN,M,5000.00,8500.00,11000.00,M,M,M,M,M,M,M,M,64.90,KRNO 101355Z 26007KT 10SM SCT050 BKN085 BKN110 18/13 A3009 RMK AO2 LTG DSNT E RAE02B12E46 TSE10 SLP137 OCNL LTG DSNT E CB DSNT NE THRU SE P0002 T01830128,M
TMT,2021-09-10 13:55,-117.1971,39.4643,1749.34,51.40,38.30,60.74,160.00,5.00,0.00,30.17,M,10.00,M,BKN,M,M,M,12000.00,M,M,M,M,M,M,M,M,M,M,51.40,KTMT 101355Z AUTO 16005KT 10SM BKN120 11/04 A3017 RMK AO2 T01080035,M
MEV,2021-09-10 13:55,-119.7500,38.9963,1441.42,62.60,51.80,67.75,M,3.00,0.00,30.10,M,10.00,10.00,FEW,SCT,BKN,M,6500.00,8000.00,9500.00,M,M,M,M,M,M,M,M,62.60,KMEV 101355Z AUTO VRB03G10KT 10SM FEW065 SCT080 BKN095 17/11 A3010 RMK AO2,M
BVU,2021-09-10 13:55,-114.8611,35.9475,671.00,80.60,50.00,34.41,0.00,0.00,0.00,29.96,M,10.00,M,CLR,M,M,M,M,M,M,M,M,M,M,M,M,M,M,79.88,KBVU 101355Z AUTO 00000KT 10SM CLR 27/10 A2996 RMK AO2,M
HND,2021-09-10 13:56,-115.1344,35.9729,742.79,80.00,52.00,37.67,170.00,4.00,0.00,30.00,1014.20,10.00,M,CLR,M,M,M,M,M,M,M,M,M,M,M,M,M,M,79.81,KHND 101356Z 17004KT 10SM CLR 27/11 A3000 RMK AO2 SLP142 T02670111,M
WMC,2021-09-10 13:56,-117.8072,40.9019,1315.00,68.00,46.00,45.19,200.00,4.00,0.00,30.03,1011.30,10.00,M,BKN,M,M,M,11000.00,M,M,M,M,M,M,M,M,M,M,68.00,KWMC 101356Z AUTO 20004KT 10SM BKN110 20/08 A3003 RMK AO2 SLP113 T02000078,M
LAS,2021-09-10 13:56,-115.1634,36.0719,663.00,84.00,51.00,32.10,280.00,4.00,0.00,29.97,1011.70,10.00,M,FEW,M,M,M,14000.00,M,M,M,M,M,M,M,M,M,M,82.23,KLAS 101356Z 28004KT 10SM FEW140 29/11 A2997 RMK AO2 SLP117 T02890106,M
EKO,2021-09-10 13:56,-115.7860,40.8242,1367.00,63.00,47.00,55.64,0.00,0.00,0.00,30.11,1013.80,10.00,M,CLR,M,M,M,M,M,M,M,M,M,M,M,M,M,M,63.00,KEKO 101356Z AUTO 00000KT 10SM CLR 17/08 A3011 RMK AO2 SLP138 T01720083,M
NFL,2021-09-10 13:56,-118.7010,39.4166,1199.00,69.00,51.00,52.67,0.00,0.00,0.00,30.01,1013.30,10.00,M,CLR,M,M,M,M,M,M,M,M,M,M,M,M,M,M,69.10,KNFL 101356Z AUTO 00000KT 10SM CLR 21/11 A3001 RMK AO2 SLP133 T02060106,M
TPH,2021-09-10 13:56,-117.0904,38.0505,1654.00,59.00,41.00,51.18,360.00,7.00,0.00,30.18,1014.40,10.00,M,CLR,M,M,M,M,M,M,M,M,M,M,M,M,M,M,59.00,KTPH 101356Z AUTO 36007KT 10SM CLR 15/05 A3018 RMK AO2 SLP144 T01500050,M
LSV,2021-09-10 13:58,-115.0343,36.2362,570.00,83.50,49.60,30.86,10.00,4.00,0.00,29.94,M,10.00,M,CLR,M,M,M,M,M,M,M,M,M,M,M,M,M,M,81.69,KLSV 101358Z AUTO 01004KT 10SM CLR 29/10 A2994 RMK AO2 SLPNO T02860098 $,M
INS,2021-09-10 13:58,-115.6733,36.5872,955.00,68.40,59.00,71.92,0.00,0.00,0.00,30.03,1012.60,10.00,M,CLR,M,M,M,M,M,M,M,M,M,M,M,M,M,M,68.40,KINS 101358Z AUTO 00000KT 10SM CLR 20/15 A3003 RMK AO2 SLP126 T02020150 $,M
CXP,2021-09-10 14:10,-119.7326,39.1923,1431.00,60.80,55.40,82.37,0.00,0.00,0.00,30.12,M,10.00,M,FEW,SCT,SCT,M,4100.00,7000.00,8500.00,M,M,M,M,M,M,M,M,60.80,KCXP 101410Z AUTO 00000KT 10SM FEW041 SCT070 SCT085 16/13 A3012 RMK AO2,M
RTS,2021-09-10 14:15,-119.8764,39.6682,1539.00,M,M,M,M,M,0.00,M,M,M,M,M,M,M,M,M,M,M,M,M,M,M,M,M,M,M,M,KRTS 101415Z AUTO RMK AO2 PNO PWINO,M
BAM,2021-09-10 14:15,-116.8743,40.5990,1382.36,66.20,46.40,48.83,0.00,0.00,0.00,30.07,M,10.00,M,CLR,M,M,M,M,M,M,M,M,M,M,M,M,M,M,66.20,KBAM 101415Z AUTO 00000KT 10SM CLR 19/08 A3007 RMK AO1,M
MEV,2021-09-10 14:15,-119.7500,38.9963,1441.42,62.60,53.60,72.38,80.00,4.00,0.00,30.10,M,10.00,M,BKN,BKN,OVC,M,7000.00,8000.00,12000.00,M,M,M,M,M,M,M,M,62.60,KMEV 101415Z AUTO 08004KT 10SM BKN070 BKN080 OVC120 17/12 A3010 RMK AO2,M
BVU,2021-09-10 14:15,-114.8611,35.9475,671.00,84.20,50.00,30.62,0.00,0.00,0.00,29.97,M,10.00,M,CLR,M,M,M,M,M,M,M,M,M,M,M,M,M,M,82.24,KBVU 101415Z AUTO 00000KT 10SM CLR 29/10 A2997 RMK AO2,M
TMT,2021-09-10 14:15,-117.1971,39.4643,1749.34,55.80,40.30,55.90,230.00,3.00,0.00,30.18,M,10.00,M,SCT,M,M,M,12000.00,M,M,M,M,M,M,M,M,M,M,55.80,KTMT 101415Z AUTO 23003KT 10SM SCT120 13/05 A3018 RMK AO2 T01320046,M
CXP,2021-09-10 14:30,-119.7326,39.1923,1431.00,62.60,55.40,77.29,0.00,0.00,0.00,30.12,M,10.00,M,FEW,BKN,M,M,7500.00,9000.00,M,M,M,M,M,M,M,M,M,62.60,KCXP 101430Z AUTO 00000KT 10SM FEW075 BKN090 17/13 A3012 RMK AO2,M
TMT,2021-09-10 14:35,-117.1971,39.4643,1749.34,58.80,42.00,53.79,0.00,0.00,0.00,30.18,M,10.00,M,CLR,M,M,M,M,M,M,M,M,M,M,M,M,M,M,58.80,KTMT 101435Z AUTO 00000KT 10SM CLR 15/06 A3018 RMK AO2 LTG DSNT W T01490056,M
BAM,2021-09-10 14:35,-116.8743,40.5990,1382.36,68.00,46.40,45.88,0.00,0.00,0.00,30.08,M,10.00,M,CLR,M,M,M,M,M,M,M,M,M,M,M,M,M,M,68.00,KBAM 101435Z AUTO 00000KT 10SM CLR 20/08 A3008 RMK AO1,M
MEV,2021-09-10 14:35,-119.7500,38.9963,1441.42,62.60,53.60,72.38,150.00,4.00,0.00,30.12,M,10.00,M,SCT,SCT,BKN,M,7000.00,10000.00,12000.00,M,M,M,M,M,M,M,M,62.60,KMEV 101435Z AUTO 15004KT 10SM SCT070 SCT100 BKN120 17/12 A3012 RMK AO2,M
BVU,2021-09-10 14:35,-114.8611,35.9475,671.00,84.20,51.80,32.73,10.00,3.00,0.00,29.97,M,10.00,M,CLR,M,M,M,M,M,M,M,M,M,M,M,M,M,M,82.48,KBVU 101435Z AUTO 01003KT 10SM CLR 29/11 A2997 RMK AO2,M
RTS,2021-09-10 14:35,-119.8764,39.6682,1539.00,M,M,M,M,M,0.00,M,M,M,M,M,M,M,M,M,M,M,M,M,M,M,M,M,M,M,M,KRTS 101435Z AUTO RMK AO2 PNO PWINO,M
NFL,2021-09-10 14:39,-118.7010,39.4166,1199.00,69.00,50.00,50.56,280.00,12.00,0.00,30.05,M,10.00,M,SCT,SCT,SCT,M,6000.00,12000.00,18000.00,M,M,M,M,M,M,M,M,69.10,KNFL 101439Z 28012KT 10SM SCT060 SCT120 SCT180 21/10 A3005 RMK AO2 T02060100,M
CXP,2021-09-10 14:50,-119.7326,39.1923,1431.00,62.60,55.40,77.29,0.00,0.00,0.00,30.14,M,10.00,M,SCT,BKN,BKN,M,7500.00,9000.00,12000.00,M,M,M,M,M,M,M,M,62.60,KCXP 101450Z AUTO 00000KT 10SM SCT075 BKN090 BKN120 17/13 A3014 RMK AO2,M
P68,2021-09-10 14:53,-116.0056,39.6014,1993.00,72.00,41.00,32.56,160.00,14.00,0.00,30.20,1014.10,M,M,M,M,M,M,M,M,M,M,M,M,M,M,M,M,M,72.00,KP68 101453Z AUTO 16014KT 22/05 A3020 RMK AO1 SLP141 T02220050 53005,M
LOL,2021-09-10 14:53,-118.5701,40.0684,1192.43,67.00,58.00,72.81,290.00,7.00,0.00,30.05,1013.20,10.00,M,BKN,M,M,M,11000.00,M,M,M,M,M,M,M,M,M,M,66.90,KLOL 101453Z AUTO 29007KT 10SM BKN110 19/14 A3005 RMK AO2 LTG DSNT SW AND W SLP132 T01940144 53021,M
DRA,2021-09-10 14:53,-116.0278,36.6206,1009.00,76.00,49.00,38.57,0.00,0.00,0.00,30.06,1012.70,10.00,M,FEW,M,M,M,11000.00,M,M,M,M,M,M,M,M,M,M,75.90,KDRA 101453Z AUTO 00000KT 10SM FEW110 24/09 A3006 RMK AO2 SLP127 T02440094 53016,M
VGT,2021-09-10 14:53,-115.1933,36.2111,667.00,87.00,52.00,30.05,0.00,0.00,0.00,29.97,1013.30,10.00,M,CLR,M,M,M,M,M,M,M,M,M,M,M,M,M,M,84.82,KVGT 101453Z 00000KT 10SM CLR 31/11 A2997 RMK AO2 SLP133 T03060111 53016,M
ELY,2021-09-10 14:53,-114.8453,39.2950,1909.00,58.00,47.00,66.70,200.00,12.00,0.00,30.27,1016.50,10.00,M,CLR,M,M,M,M,M,M,M,M,M,M,M,M,M,M,57.90,KELY 101453Z AUTO 20012KT 10SM CLR 14/08 A3027 RMK AO2 SLP165 T01440083 53008 $,M
MEV,2021-09-10 14:55,-119.7500,38.9963,1441.42,62.60,53.60,72.38,0.00,0.00,0.00,30.12,M,10.00,M,FEW,BKN,BKN,M,7500.00,9000.00,12000.00,M,-RA,M,M,M,M,M,M,62.60,KMEV 101455Z AUTO 00000KT 10SM -RA FEW075 BKN090 BKN120 17/12 A3012 RMK AO2,M
BAM,2021-09-10 14:55,-116.8743,40.5990,1382.36,69.80,46.40,43.13,0.00,0.00,0.00,30.08,M,10.00,M,CLR,M,M,M,M,M,M,M,M,M,M,M,M,M,M,69.80,KBAM 101455Z AUTO 00000KT 10SM CLR 21/08 A3008 RMK AO1,M
TMT,2021-09-10 14:55,-117.1971,39.4643,1749.34,61.70,43.20,50.61,330.00,3.00,0.00,30.19,M,10.00,M,SCT,M,M,M,11000.00,M,M,M,M,M,M,M,M,M,M,61.70,KTMT 101455Z AUTO 33003KT 10SM SCT110 17/06 A3019 RMK AO2 T01650062,M
RTS,2021-09-10 14:55,-119.8764,39.6682,1539.00,M,M,M,M,M,0.00,M,M,M,M,M,M,M,M,M,M,M,M,M,M,M,M,M,M,M,M,KRTS 101455Z AUTO RMK AO2 PNO PWINO,M
RNO,2021-09-10 14:55,-119.7711,39.4839,1341.00,64.00,57.00,77.97,0.00,0.00,0.03,30.11,1014.40,10.00,M,FEW,BKN,BKN,M,5500.00,9500.00,14000.00,M,M,M,M,M,M,M,M,64.00,KRNO 101455Z 00000KT 10SM FEW055 BKN095 BKN140 18/14 A3011 RMK AO2 RAB06E22 SLP144 SH DSNT E THRU NE P0003 60006 T01780139 51021,M
BVU,2021-09-10 14:55,-114.8611,35.9475,671.00,87.80,48.20,25.52,0.00,0.00,0.00,29.98,M,10.00,M,CLR,M,M,M,M,M,M,M,M,M,M,M,M,M,M,84.87,KBVU 101455Z AUTO 00000KT 10SM CLR 31/09 A2998 RMK AO2,M
LAS,2021-09-10 14:56,-115.1634,36.0719,663.00,88.00,51.00,28.25,0.00,0.00,0.00,29.99,1012.30,10.00,M,FEW,FEW,M,M,14000.00,20000.00,M,M,M,M,M,M,M,M,M,85.45,KLAS 101456Z 00000KT 10SM FEW140 FEW200 31/11 A2999 RMK AO2 SLP123 T03110106 53019,M
TPH,2021-09-10 14:56,-117.0904,38.0505,1654.00,69.00,42.00,37.50,0.00,0.00,0.00,30.20,1014.50,10.00,M,CLR,M,M,M,M,M,M,M,M,M,M,M,M,M,M,69.10,KTPH 101456Z AUTO 00000KT 10SM CLR 21/06 A3020 RMK AO2 SLP145 T02060056 53010,M
EKO,2021-09-10 14:56,-115.7860,40.8242,1367.00,71.00,46.00,40.65,20.00,3.00,0.00,30.13,1014.00,10.00,M,CLR,M,M,M,M,M,M,M,M,M,M,M,M,M,M,71.10,KEKO 101456Z AUTO 02003KT 10SM CLR 22/08 A3013 RMK AO2 SLP140 T02170078 53002,M
WMC,2021-09-10 14:56,-117.8072,40.9019,1315.00,72.00,49.00,43.97,280.00,7.00,0.00,30.06,1012.60,10.00,M,FEW,BKN,OVC,M,4700.00,10000.00,12000.00,M,M,M,M,M,M,M,M,72.00,KWMC 101456Z AUTO 28007KT 10SM FEW047 BKN100 OVC120 22/09 A3006 RMK AO2 PRESRR SLP126 T02220094 53014,M
HND,2021-09-10 14:56,-115.1344,35.9729,742.79,86.00,53.00,32.41,0.00,0.00,0.00,30.02,1014.80,10.00,M,CLR,M,M,M,M,M,M,M,M,M,M,M,M,M,M,84.09,KHND 101456Z 00000KT 10SM CLR 30/12 A3002 RMK AO2 SLP148 T03000117 53018,M
NFL,2021-09-10 14:56,-118.7010,39.4166,1199.00,71.00,51.00,49.20,300.00,12.00,0.00,30.06,1014.80,10.00,M,SCT,SCT,SCT,M,6000.00,12000.00,18000.00,M,M,M,M,M,M,M,M,71.10,KNFL 101456Z 30012KT 10SM SCT060 SCT120 SCT180 22/11 A3006 RMK AO2 SLP148 T02170106 53024,M
LSV,2021-09-10 14:58,-115.0343,36.2362,570.00,85.50,50.50,29.92,0.00,0.00,0.00,29.96,M,10.00,M,CLR,M,M,M,M,M,M,M,M,M,M,M,M,M,M,83.29,KLSV 101458Z AUTO 00000KT 10SM CLR 30/10 A2996 RMK AO2 SLPNO T02970103 52019 $,M
INS,2021-09-10 14:58,-115.6733,36.5872,955.00,72.30,60.30,65.96,0.00,0.00,0.00,30.05,1013.30,10.00,M,CLR,M,M,M,M,M,M,M,M,M,M,M,M,M,M,72.30,KINS 101458Z AUTO 00000KT 10SM CLR 22/16 A3005 RMK AO2 SLP133 T02240157 52012 $,M
CXP,2021-09-10 15:10,-119.7326,39.1923,1431.00,64.40,57.20,77.45,0.00,0.00,0.00,30.13,M,9.00,M,FEW,SCT,BKN,M,7500.00,9000.00,12000.00,M,M,M,M,M,M,M,M,64.40,KCXP 101510Z AUTO 00000KT 9SM FEW075 SCT090 BKN120 18/14 A3013 RMK AO2 LTG DSNT NE AND W,M
RTS,2021-09-10 15:15,-119.8764,39.6682,1539.00,60.80,53.60,77.14,280.00,13.00,0.00,30.18,M,9.00,19.00,M,M,M,M,M,M,M,M,M,M,M,M,M,M,M,60.80,KRTS 101515Z AUTO 28013G19KT 9SM 16/12 A3018 RMK AO2,M
MEV,2021-09-10 15:15,-119.7500,38.9963,1441.42,62.60,53.60,72.38,M,M,0.00,30.12,M,10.00,M,FEW,SCT,BKN,M,7000.00,9500.00,12000.00,M,M,M,M,M,M,M,M,62.60,KMEV 101515Z AUTO 10SM FEW070 SCT095 BKN120 17/12 A3012 RMK AO2,M
BAM,2021-09-10 15:15,-116.8743,40.5990,1382.36,71.60,46.40,40.57,0.00,0.00,0.00,30.08,M,10.00,M,CLR,M,M,M,M,M,M,M,M,M,M,M,M,M,M,71.60,KBAM 101515Z AUTO 00000KT 10SM CLR 22/08 A3008 RMK AO1,M
TMT,2021-09-10 15:15,-117.1971,39.4643,1749.34,62.60,43.50,49.59,0.00,0.00,0.00,30.19,M,10.00,M,BKN,M,M,M,10000.00,M,M,M,M,M,M,M,M,M,M,62.60,KTMT 101515Z AUTO 00000KT 10SM BKN100 17/06 A3019 RMK AO2 T01700064,M
BVU,2021-09-10 15:15,-114.8611,35.9475,671.00,87.80,46.40,23.85,0.00,0.00,0.00,29.99,M,10.00,M,CLR,M,M,M,M,M,M,M,M,M,M,M,M,M,M,84.68,KBVU 101515Z AUTO 00000KT 10SM CLR 31/08 A2999 RMK AO2,M
CXP,2021-09-10 15:30,-119.7326,39.1923,1431.00,64.40,57.20,77.45,0.00,0.00,0.00,30.13,M,10.00,M,CLR,M,M,M,M,M,M,M,M,M,M,M,M,M,M,64.40,KCXP 101530Z AUTO 00000KT 10SM CLR 18/14 A3013 RMK AO2 LTG DSNT NE AND NW,M
TMT,2021-09-10 15:35,-117.1971,39.4643,1749.34,64.40,44.00,47.27,0.00,0.00,0.00,30.19,M,10.00,M,BKN,M,M,M,10000.00,M,M,M,M,M,M,M,M,M,M,64.40,KTMT 101535Z AUTO 00000KT 10SM BKN100 18/07 A3019 RMK AO2 T01800066,M
RTS,2021-09-10 15:35,-119.8764,39.6682,1539.00,60.80,55.40,82.37,340.00,4.00,0.00,30.15,M,10.00,M,BKN,BKN,M,M,5500.00,6500.00,M,M,M,M,M,M,M,M,M,60.80,KRTS 101535Z AUTO 34004KT 10SM BKN055 BKN065 16/13 A3015 RMK AO2,M
BAM,2021-09-10 15:35,-116.8743,40.5990,1382.36,73.40,46.40,38.18,0.00,0.00,0.00,30.08,M,10.00,M,CLR,M,M,M,M,M,M,M,M,M,M,M,M,M,M,73.40,KBAM 101535Z AUTO 00000KT 10SM CLR 23/08 A3008 RMK AO1,M
MEV,2021-09-10 15:35,-119.7500,38.9963,1441.42,64.40,55.40,72.56,0.00,0.00,0.00,30.12,M,10.00,M,FEW,FEW,M,M,7000.00,12000.00,M,M,M,M,M,M,M,M,M,64.40,KMEV 101535Z AUTO 00000KT 10SM FEW070 FEW120 18/13 A3012 RMK AO2 LTG DSNT NE AND NW,M
BVU,2021-09-10 15:35,-114.8611,35.9475,671.00,91.40,48.20,22.78,0.00,0.00,0.00,29.99,M,10.00,M,CLR,M,M,M,M,M,M,M,M,M,M,M,M,M,M,88.09,KBVU 101535Z AUTO 00000KT 10SM CLR 33/09 A2999 RMK AO2,M
LOL,2021-09-10 15:53,-118.5701,40.0684,1192.43,72.00,54.00,53.09,360.00,9.00,0.00,30.06,1013.30,10.00,M,FEW,SCT,M,M,3500.00,10000.00,M,M,M,M,M,M,M,M,M,72.00,KLOL 101553Z AUTO 36009KT 10SM FEW035 SCT100 22/12 A3006 RMK AO2 SLP133 T02220122,M
P68,2021-09-10 15:53,-116.0056,39.6014,1993.00,77.00,42.00,28.73,160.00,15.00,0.00,30.19,1012.90,M,M,M,M,M,M,M,M,M,M,M,M,M,M,M,M,M,77.00,KP68 101553Z AUTO 16015KT 25/06 A3019 RMK AO1 SLP129 T02500056,M
ELY,2021-09-10 15:53,-114.8453,39.2950,1909.00,71.00,48.00,43.83,210.00,11.00,0.00,30.27,1014.90,10.00,M,FEW,M,M,M,8000.00,M,M,M,M,M,M,M,M,M,M,71.10,KELY 101553Z AUTO 21011KT 10SM FEW080 22/09 A3027 RMK AO2 SLP149 T02170089,M
DRA,2021-09-10 15:53,-116.0278,36.6206,1009.00,84.00,48.00,28.60,10.00,5.00,0.00,30.06,1012.40,10.00,M,CLR,M,M,M,M,M,M,M,M,M,M,M,M,M,M,81.87,KDRA 101553Z AUTO 01005KT 10SM CLR 29/09 A3006 RMK AO2 SLP124 T02890089,M
VGT,2021-09-10 15:53,-115.1933,36.2111,667.00,91.00,52.00,26.57,0.00,0.00,0.00,29.98,1013.70,10.00,M,CLR,M,M,M,M,M,M,M,M,M,M,M,M,M,M,88.35,KVGT 101553Z 00000KT 10SM CLR 33/11 A2998 RMK AO2 SLP137 T03280111,M
TMT,2021-09-10 15:55,-117.1971,39.4643,1749.34,68.20,44.60,42.56,130.00,4.00,0.00,30.18,M,10.00,M,SCT,M,M,M,10000.00,M,M,M,M,M,M,M,M,M,M,68.20,KTMT 101555Z AUTO 13004KT 10SM SCT100 20/07 A3018 RMK AO2 T02010070,M
RNO,2021-09-10 15:55,-119.7711,39.4839,1341.00,66.00,58.00,75.12,60.00,7.00,0.00,30.10,1014.10,10.00,M,SCT,SCT,M,M,6500.00,12000.00,M,M,M,M,M,M,M,M,M,66.00,KRNO 101555Z 06007KT 10SM SCT065 SCT120 19/14 A3010 RMK AO2 SLP141 SH DSNT NW T01890144,M
BAM,2021-09-10 15:55,-116.8743,40.5990,1382.36,77.00,46.40,33.85,0.00,0.00,0.00,30.09,M,10.00,M,SCT,M,M,M,12000.00,M,M,M,M,M,M,M,M,M,M,77.00,KBAM 101555Z AUTO 00000KT 10SM SCT120 25/08 A3009 RMK AO1,M
MEV,2021-09-10 15:55,-119.7500,38.9963,1441.42,68.00,53.60,59.97,290.00,5.00,0.00,30.11,M,10.00,M,CLR,M,M,M,M,M,M,M,M,M,M,M,M,M,M,68.00,KMEV 101555Z AUTO 29005KT 10SM CLR 20/12 A3011 RMK AO2,M
CXP,2021-09-10 15:55,-119.7326,39.1923,1431.00,69.80,53.60,56.38,60.00,4.00,0.00,30.13,M,10.00,M,BKN,M,M,M,7000.00,M,M,M,M,M,M,M,M,M,M,69.80,KCXP 101555Z AUTO 06004KT 10SM BKN070 21/12 A3013 RMK AO2,M
BVU,2021-09-10 15:55,-114.8611,35.9475,671.00,91.40,46.40,21.29,200.00,4.00,0.00,29.99,M,10.00,M,CLR,M,M,M,M,M,M,M,M,M,M,M,M,M,M,87.86,KBVU 101555Z AUTO 20004KT 10SM CLR 33/08 A2999 RMK AO2,M
RTS,2021-09-10 15:55,-119.8764,39.6682,1539.00,62.60,57.20,82.50,330.00,8.00,0.02,30.15,M,10.00,M,FEW,SCT,M,M,6000.00,8500.00,M,M,M,M,M,M,M,M,M,62.60,KRTS 101555Z AUTO 33008KT 10SM FEW060 SCT085 17/14 A3015 RMK AO2 P0002,M
HND,2021-09-10 15:56,-115.1344,35.9729,742.79,91.00,52.00,26.57,0.00,0.00,0.00,30.03,1015.00,10.00,M,CLR,M,M,M,M,M,M,M,M,M,M,M,M,M,M,88.35,KHND 101556Z 00000KT 10SM CLR 33/11 A3003 RMK AO2 SLP150 T03280111,M
EKO,2021-09-10 15:56,-115.7860,40.8242,1367.00,78.00,43.00,28.68,M,4.00,0.00,30.12,1013.30,10.00,M,CLR,M,M,M,M,M,M,M,M,M,M,M,M,M,M,78.10,KEKO 101556Z AUTO VRB04KT 10SM CLR 26/06 A3012 RMK AO2 SLP133 T02560061,M
LAS,2021-09-10 15:56,-115.1634,36.0719,663.00,91.00,51.00,25.70,0.00,0.00,0.00,29.99,1012.30,10.00,M,FEW,FEW,M,M,14000.00,20000.00,M,M,M,M,M,M,M,M,M,88.18,KLAS 101556Z 00000KT 10SM FEW140 FEW200 33/11 A2999 RMK AO2 SLP123 T03280106,M
TPH,2021-09-10 15:56,-117.0904,38.0505,1654.00,71.00,44.00,37.81,0.00,0.00,0.00,30.20,1014.40,10.00,M,CLR,M,M,M,M,M,M,M,M,M,M,M,M,M,M,71.10,KTPH 101556Z AUTO 00000KT 10SM CLR 22/07 A3020 RMK AO2 SLP144 T02170067,M
NFL,2021-09-10 15:56,-118.7010,39.4166,1199.00,73.00,54.00,51.33,320.00,8.00,0.00,30.07,1015.00,10.00,M,SCT,BKN,BKN,M,6000.00,12000.00,20000.00,M,M,M,M,M,M,M,M,73.00,KNFL 101556Z 32008KT 10SM SCT060 BKN120 BKN200 23/12 A3007 RMK AO2 SLP150 CB DSNT SW T02280122,M
WMC,2021-09-10 15:56,-117.8072,40.9019,1315.00,70.00,53.00,54.98,280.00,14.00,0.01,30.09,1013.70,9.00,22.00,FEW,BKN,M,M,3200.00,10000.00,M,M,-RA,M,M,M,M,M,M,70.00,KWMC 101556Z AUTO 28014G22KT 9SM -RA FEW032 BKN100 21/12 A3009 RMK AO2 RAB1459E31B50 SLP137 P0001 T02110117 $,M
LSV,2021-09-10 15:58,-115.0343,36.2362,570.00,92.70,50.50,23.84,80.00,7.00,0.00,29.96,1011.70,10.00,M,CLR,M,M,M,M,M,M,M,M,M,M,M,M,M,M,89.70,KLSV 101558Z AUTO 08007KT 10SM CLR 34/10 A2996 RMK AO2 SLP117 T03370103 $,M
INS,2021-09-10 15:58,-115.6733,36.5872,955.00,80.20,56.30,43.93,0.00,0.00,0.00,30.05,1012.80,10.00,M,CLR,M,M,M,M,M,M,M,M,M,M,M,M,M,M,80.41,KINS 101558Z AUTO 00000KT 10SM CLR 27/14 A3005 RMK AO2 SLP128 T02680135 $,M
TMT,2021-09-10 16:15,-117.1971,39.4643,1749.34,73.20,45.00,36.45,230.00,4.00,0.00,30.18,M,10.00,M,CLR,M,M,M,M,M,M,M,M,M,M,M,M,M,M,73.20,KTMT 101615Z AUTO 23004KT 10SM CLR 23/07 A3018 RMK AO2 T02290072,M
MEV,2021-09-10 16:15,-119.7500,38.9963,1441.42,69.80,53.60,56.38,M,3.00,0.00,30.12,M,10.00,M,FEW,M,M,M,7000.00,M,M,M,M,M,M,M,M,M,M,69.80,KMEV 101615Z AUTO VRB03KT 10SM FEW070 21/12 A3012 RMK AO2,M
RTS,2021-09-10 16:15,-119.8764,39.6682,1539.00,60.80,57.20,87.92,0.00,0.00,0.00,30.15,M,10.00,12.00,FEW,BKN,BKN,M,4200.00,6000.00,8500.00,M,M,M,M,M,M,M,M,60.80,KRTS 101615Z AUTO 00000G12KT 10SM FEW042 BKN060 BKN085 16/14 A3015 RMK AO2,M
CXP,2021-09-10 16:15,-119.7326,39.1923,1431.00,69.80,51.80,52.77,0.00,0.00,0.00,30.13,M,10.00,M,SCT,M,M,M,6500.00,M,M,M,M,M,M,M,M,M,M,69.80,KCXP 101615Z AUTO 00000KT 10SM SCT065 21/11 A3013 RMK AO2,M
BVU,2021-09-10 16:15,-114.8611,35.9475,671.00,93.20,48.20,21.54,0.00,0.00,0.00,29.99,M,10.00,M,CLR,M,M,M,M,M,M,M,M,M,M,M,M,M,M,89.80,KBVU 101615Z AUTO 00000KT 10SM CLR 34/09 A2999 RMK AO2,M
BAM,2021-09-10 16:15,-116.8743,40.5990,1382.36,77.00,46.40,33.85,270.00,6.00,0.00,30.10,M,10.00,M,SCT,M,M,M,11000.00,M,M,M,M,M,M,M,M,M,M,77.00,KBAM 101615Z AUTO 27006KT 10SM SCT110 25/08 A3010 RMK AO1,M
RTS,2021-09-10 16:35,-119.8764,39.6682,1539.00,62.60,55.40,77.29,300.00,7.00,0.00,30.16,M,10.00,M,SCT,OVC,M,M,4000.00,5000.00,M,M,M,M,M,M,M,M,M,62.60,KRTS 101635Z AUTO 30007KT 10SM SCT040 OVC050 17/13 A3016 RMK AO2,M
BVU,2021-09-10 16:35,-114.8611,35.9475,671.00,93.20,48.20,21.54,0.00,0.00,0.00,29.99,M,10.00,M,CLR,M,M,M,M,M,M,M,M,M,M,M,M,M,M,89.80,KBVU 101635Z AUTO 00000KT 10SM CLR 34/09 A2999 RMK AO2,M
TMT,2021-09-10 16:35,-117.1971,39.4643,1749.34,75.70,45.50,34.16,210.00,4.00,0.00,30.18,M,10.00,M,SCT,M,M,M,10000.00,M,M,M,M,M,M,M,M,M,M,75.70,KTMT 101635Z AUTO 21004KT 10SM SCT100 24/08 A3018 RMK AO2 LTG DSNT NW T02430075,M
BAM,2021-09-10 16:35,-116.8743,40.5990,1382.36,78.80,44.60,29.79,220.00,4.00,0.00,30.08,M,10.00,M,SCT,M,M,M,11000.00,M,M,M,M,M,M,M,M,M,M,78.80,KBAM 101635Z AUTO 22004KT 10SM SCT110 26/07 A3008 RMK AO1,M
MEV,2021-09-10 16:35,-119.7500,38.9963,1441.42,69.80,53.60,56.38,M,3.00,0.00,30.11,M,10.00,M,FEW,M,M,M,7500.00,M,M,M,M,M,M,M,M,M,M,69.80,KMEV 101635Z AUTO VRB03KT 10SM FEW075 21/12 A3011 RMK AO2,M
CXP,2021-09-10 16:35,-119.7326,39.1923,1431.00,71.60,51.80,49.64,320.00,4.00,0.00,30.13,M,10.00,M,FEW,M,M,M,7000.00,M,M,M,M,M,M,M,M,M,M,71.60,KCXP 101635Z AUTO 32004KT 10SM FEW070 22/11 A3013 RMK AO2,M
WMC,2021-09-10 16:42,-117.8072,40.9019,1315.00,68.00,55.40,64.04,290.00,18.00,0.00,30.10,M,2.50,27.00,FEW,SCT,BKN,M,5000.00,7000.00,9000.00,M,RA,M,M,M,M,M,M,68.00,KWMC 101642Z AUTO 29018G27KT 2 1/2SM RA FEW050 SCT070 BKN090 20/13 A3010,M
CXP,2021-09-10 16:50,-119.7326,39.1923,1431.00,71.60,51.80,49.64,50.00,5.00,0.00,30.12,M,10.00,M,CLR,M,M,M,M,M,M,M,M,M,M,M,M,M,M,71.60,KCXP 101650Z AUTO 05005KT 10SM CLR 22/11 A3012 RMK AO2,M
WMC,2021-09-10 16:51,-117.8072,40.9019,1315.00,71.60,53.60,53.03,300.00,13.00,0.01,30.10,M,6.00,25.00,FEW,SCT,BKN,M,3200.00,7000.00,9000.00,M,-RA,M,M,M,31.00,280.00,2021-09-10 16:30,71.60,KWMC 101651Z AUTO 30013G25KT 6SM -RA FEW032 SCT070 BKN090 22/12 A3010 RMK AO2 PK WND 28031/1630 RAE03B37 P0001,M
DRA,2021-09-10 16:53,-116.0278,36.6206,1009.00,85.00,52.00,32.24,160.00,20.00,T,30.09,1013.70,6.00,33.00,FEW,SCT,M,M,4000.00,10000.00,M,M,-RA,M,M,M,33.00,160.00,2021-09-10 16:52,83.03,KDRA 101653Z AUTO 16020G33KT 6SM -RA FEW040 SCT100 29/11 A3009 RMK AO2 PK WND 16033/1652 RAB53 PRESRR SLP137 P0000 T02940111,M
VGT,2021-09-10 16:53,-115.1933,36.2111,667.00,94.00,51.00,23.48,110.00,4.00,0.00,29.98,1013.70,10.00,M,CLR,M,M,M,M,M,M,M,M,M,M,M,M,M,M,91.00,KVGT 101653Z 11004KT 10SM CLR 34/11 A2998 RMK AO2 SLP137 T03440106,M
ELY,2021-09-10 16:53,-114.8453,39.2950,1909.00,80.00,49.00,33.58,220.00,11.00,0.00,30.26,1014.20,10.00,24.00,BKN,BKN,M,M,7500.00,10000.00,M,M,M,M,M,M,M,M,M,79.50,KELY 101653Z AUTO 22011G24KT 190V250 10SM BKN075 BKN100 27/09 A3026 RMK AO2 SLP142 T02670094,M
P68,2021-09-10 16:53,-116.0056,39.6014,1993.00,81.00,42.00,25.19,170.00,20.00,0.00,30.19,1012.60,M,25.00,M,M,M,M,M,M,M,M,M,M,M,M,M,M,M,79.49,KP68 101653Z AUTO 17020G25KT 27/06 A3019 RMK AO1 SLP126 T02720056,M
LOL,2021-09-10 16:53,-118.5701,40.0684,1192.43,74.00,53.00,48.18,270.00,7.00,T,30.09,1014.20,10.00,17.00,FEW,SCT,BKN,M,4600.00,7000.00,9500.00,M,-RA,M,M,M,M,M,M,73.90,KLOL 101653Z AUTO 27007G17KT 10SM -RA FEW046 SCT070 BKN095 23/12 A3009 RMK AO2 RAB1555E04B33 SLP142 P0000 T02330117,M
MEV,2021-09-10 16:55,-119.7500,38.9963,1441.42,75.20,51.80,43.97,190.00,9.00,0.00,30.11,M,10.00,M,SCT,SCT,M,M,7000.00,8000.00,M,M,M,M,M,M,M,M,M,75.20,KMEV 101655Z AUTO 19009KT 10SM SCT070 SCT080 24/11 A3011 RMK AO2,M
BAM,2021-09-10 16:55,-116.8743,40.5990,1382.36,80.60,44.60,28.08,240.00,7.00,0.00,30.08,M,10.00,M,SCT,M,M,M,11000.00,M,M,M,M,M,M,M,M,M,M,79.42,KBAM 101655Z AUTO 24007KT 10SM SCT110 27/07 A3008 RMK AO1,M
RTS,2021-09-10 16:55,-119.8764,39.6682,1539.00,62.60,55.40,77.29,310.00,5.00,0.00,30.16,M,10.00,M,FEW,OVC,M,M,4000.00,5000.00,M,M,M,M,M,M,M,M,M,62.60,KRTS 101655Z AUTO 31005KT 10SM FEW040 OVC050 17/13 A3016 RMK AO2,M
BVU,2021-09-10 16:55,-114.8611,35.9475,671.00,95.00,48.20,20.38,0.00,0.00,0.00,29.99,M,10.00,M,CLR,M,M,M,M,M,M,M,M,M,M,M,M,M,M,91.56,KBVU 101655Z AUTO 00000KT 10SM CLR 35/09 A2999 RMK AO2,M
RNO,2021-09-10 16:55,-119.7711,39.4839,1341.00,70.00,56.00,60.89,340.00,10.00,0.00,30.11,1014.30,10.00,M,FEW,BKN,BKN,M,3500.00,8000.00,14000.00,M,M,M,M,M,M,M,M,70.00,KRNO 101655Z 34010KT 10SM FEW035 BKN080 BKN140 21/13 A3011 RMK AO2 SLP143 SH DSNT SW THRU W T02110133,M
TMT,2021-09-10 16:55,-117.1971,39.4643,1749.34,74.80,45.50,35.20,0.00,0.00,0.00,30.18,M,10.00,M,BKN,M,M,M,11000.00,M,M,M,M,M,M,M,M,M,M,74.80,KTMT 101655Z AUTO 00000KT 10SM BKN110 24/08 A3018 RMK AO2 T02380075,M
EKO,2021-09-10 16:56,-115.7860,40.8242,1367.00,85.00,44.00,23.97,220.00,8.00,0.00,30.11,1012.70,10.00,18.00,CLR,M,M,M,M,M,M,M,M,M,M,M,M,M,M,82.20,KEKO 101656Z AUTO 22008G18KT 190V250 10SM CLR 29/07 A3011 RMK AO2 SLP127 T02940067,M
TPH,2021-09-10 16:56,-117.0904,38.0505,1654.00,80.00,44.00,28.01,190.00,13.00,0.00,30.19,1013.60,10.00,17.00,CLR,M,M,M,M,M,M,M,M,M,M,M,M,M,M,79.12,KTPH 101656Z AUTO 19013G17KT 10SM CLR 27/07 A3019 RMK AO2 SLP136 T02670067,M
NFL,2021-09-10 16:56,-118.7010,39.4166,1199.00,78.00,52.00,40.23,30.00,10.00,0.00,30.06,1014.70,10.00,M,SCT,BKN,BKN,M,7000.00,10000.00,18000.00,M,M,M,M,M,M,M,M,78.10,KNFL 101656Z 03010KT 10SM SCT070 BKN100 BKN180 26/11 A3006 RMK AO2 SLP147 CB DSNT SW T02560111,M
LAS,2021-09-10 16:56,-115.1634,36.0719,663.00,93.00,51.00,24.15,0.00,0.00,0.00,30.00,1012.70,10.00,M,FEW,FEW,M,M,14000.00,20000.00,M,M,M,M,M,M,M,M,M,90.11,KLAS 101656Z 00000KT 10SM FEW140 FEW200 34/11 A3000 RMK AO2 SLP127 CB DSNT NW T03390106,M
WMC,2021-09-10 16:56,-117.8072,40.9019,1315.00,73.00,54.00,51.33,290.00,14.00,0.01,30.11,1014.60,10.00,25.00,FEW,SCT,M,M,3500.00,9500.00,M,M,M,M,M,M,31.00,280.00,2021-09-10 16:30,73.00,KWMC 101656Z AUTO 29014G25KT 10SM FEW035 SCT095 23/12 A3011 RMK AO2 PK WND 28031/1630 RAE03B37E52 SLP146 P0001 T02280122,M
HND,2021-09-10 16:56,-115.1344,35.9729,742.79,94.00,54.00,26.13,M,3.00,0.00,30.03,1014.90,10.00,M,CLR,M,M,M,M,M,M,M,M,M,M,M,M,M,M,91.68,KHND 101656Z VRB03KT 10SM CLR 34/12 A3003 RMK AO2 SLP149 T03440122,M
LSV,2021-09-10 16:58,-115.0343,36.2362,570.00,94.60,49.80,21.90,60.00,4.00,0.00,29.96,1011.70,10.00,M,CLR,M,M,M,M,M,M,M,M,M,M,M,M,M,M,91.45,KLSV 101658Z AUTO 06004KT 10SM CLR 35/10 A2996 RMK AO2 SLP117 T03480099 $,M
INS,2021-09-10 16:58,-115.6733,36.5872,955.00,83.00,52.50,34.80,0.00,0.00,0.00,30.06,1013.20,10.00,M,CLR,M,M,M,M,M,M,M,M,M,M,M,M,M,M,81.78,KINS 101658Z AUTO 00000KT 10SM CLR 28/11 A3006 RMK AO2 SLP132 T02840114 $,M
CXP,2021-09-10 17:15,-119.7326,39.1923,1431.00,73.40,51.80,46.71,0.00,0.00,0.00,30.12,M,10.00,M,SCT,SCT,M,M,7500.00,8500.00,M,M,M,M,M,M,M,M,M,73.40,KCXP 101715Z AUTO 00000KT 10SM SCT075 SCT085 23/11 A3012 RMK AO2,M
BVU,2021-09-10 17:15,-114.8611,35.9475,671.00,96.80,48.20,19.28,100.00,4.00,0.00,29.99,M,10.00,M,CLR,M,M,M,M,M,M,M,M,M,M,M,M,M,M,93.36,KBVU 101715Z AUTO 10004KT 10SM CLR 36/09 A2999 RMK AO2,M
BAM,2021-09-10 17:15,-116.8743,40.5990,1382.36,82.40,44.60,26.49,270.00,8.00,0.00,30.08,M,10.00,M,SCT,M,M,M,11000.00,M,M,M,M,M,M,M,M,M,M,80.50,KBAM 101715Z AUTO 27008KT 10SM SCT110 28/07 A3008 RMK AO1,M
TMT,2021-09-10 17:15,-117.1971,39.4643,1749.34,78.00,46.40,32.86,230.00,14.00,0.00,30.18,M,10.00,18.00,BKN,BKN,M,M,10000.00,12000.00,M,M,M,M,M,M,M,M,M,77.90,KTMT 101715Z AUTO 23014G18KT 10SM BKN100 BKN120 26/08 A3018 RMK AO2 T02550080,M
MEV,2021-09-10 17:15,-119.7500,38.9963,1441.42,75.20,51.80,43.97,210.00,7.00,0.00,30.11,M,10.00,18.00,FEW,FEW,M,M,7000.00,8000.00,M,M,M,M,M,M,M,M,M,75.20,KMEV 101715Z AUTO 21007G18KT 160V300 10SM FEW070 FEW080 24/11 A3011 RMK AO2,M
RTS,2021-09-10 17:15,-119.8764,39.6682,1539.00,62.60,55.40,77.29,M,4.00,0.00,30.16,M,10.00,M,SCT,OVC,M,M,5000.00,6000.00,M,M,M,M,M,M,M,M,M,62.60,KRTS 101715Z AUTO VRB04KT 10SM SCT050 OVC060 17/13 A3016 RMK AO2,M
CXP,2021-09-10 17:35,-119.7326,39.1923,1431.00,77.00,50.00,38.74,M,5.00,0.00,30.12,M,10.00,10.00,SCT,SCT,M,M,8000.00,9000.00,M,M,M,M,M,M,M,M,M,77.00,KCXP 101735Z AUTO VRB05G10KT 10SM SCT080 SCT090 25/10 A3012 RMK AO2,M
MEV,2021-09-10 17:35,-119.7500,38.9963,1441.42,78.80,51.80,39.02,160.00,11.00,0.00,30.10,M,10.00,M,SCT,SCT,M,M,7500.00,8500.00,M,M,M,M,M,M,M,M,M,78.80,KMEV 101735Z AUTO 16011KT 10SM SCT075 SCT085 26/11 A3010 RMK AO2,M
TMT,2021-09-10 17:35,-117.1971,39.4643,1749.34,78.60,45.50,31.03,240.00,15.00,0.00,30.18,M,10.00,20.00,SCT,M,M,M,11000.00,M,M,M,M,M,M,M,M,M,M,78.60,KTMT 101735Z AUTO 24015G20KT 10SM SCT110 26/08 A3018 RMK AO2 T02590075,M
RTS,2021-09-10 17:35,-119.8764,39.6682,1539.00,62.60,55.40,77.29,340.00,4.00,0.00,30.17,M,10.00,M,FEW,OVC,M,M,4900.00,6000.00,M,M,M,M,M,M,M,M,M,62.60,KRTS 101735Z AUTO 34004KT 10SM FEW049 OVC060 17/13 A3017 RMK AO2,M
BVU,2021-09-10 17:35,-114.8611,35.9475,671.00,96.80,48.20,19.28,90.00,5.00,0.00,29.99,M,10.00,M,CLR,M,M,M,M,M,M,M,M,M,M,M,M,M,M,93.36,KBVU 101735Z AUTO 09005KT 10SM CLR 36/09 A2999 RMK AO2,M
BAM,2021-09-10 17:35,-116.8743,40.5990,1382.36,82.40,44.60,26.49,270.00,8.00,0.00,30.09,M,10.00,M,CLR,M,M,M,M,M,M,M,M,M,M,M,M,M,M,80.50,KBAM 101735Z AUTO 27008KT 10SM CLR 28/07 A3009 RMK AO1,M
DRA,2021-09-10 17:53,-116.0278,36.6206,1009.00,89.00,53.00,29.37,360.00,4.00,T,30.06,1012.50,10.00,M,SCT,M,M,M,11000.00,M,M,M,M,M,M,M,M,M,M,86.79,KDRA 101753Z AUTO 36004KT 10SM SCT110 32/12 A3006 RMK AO2 RAE05B22E32 SLP125 P0000 60000 T03170117 10317 20211 50001,M
VGT,2021-09-10 17:53,-115.1933,36.2111,667.00,97.00,51.00,21.35,M,M,0.00,29.97,1013.30,10.00,M,CLR,M,M,M,M,M,M,M,M,M,M,M,M,M,M,94.16,KVGT 101753Z 10SM CLR 36/11 A2997 RMK AO2 SLP133 T03610106 10367 20278 58001,M
LOL,2021-09-10 17:53,-118.5701,40.0684,1192.43,69.00,57.00,65.35,190.00,12.00,0.01,30.09,1014.80,10.00,M,FEW,SCT,BKN,M,4500.00,7000.00,9500.00,M,M,M,M,M,M,M,M,69.10,KLOL 101753Z AUTO 19012KT 10SM FEW045 SCT070 BKN095 21/14 A3009 RMK AO2 RAE01B29E46 SLP148 P0001 60001 T02060139 10239 20150 50011,M
P68,2021-09-10 17:53,-116.0056,39.6014,1993.00,84.00,40.00,20.99,160.00,21.00,0.00,30.18,1011.90,M,28.00,M,M,M,M,M,M,M,M,M,M,M,M,31.00,170.00,2021-09-10 17:06,81.33,KP68 101753Z AUTO 16021G28KT 29/04 A3018 RMK AO1 PK WND 17031/1706 SLP119 T02890044 10289 20156 58005,M
ELY,2021-09-10 17:53,-114.8453,39.2950,1909.00,83.00,41.00,22.70,190.00,16.00,0.00,30.26,1013.80,10.00,24.00,SCT,M,M,M,9000.00,M,M,M,M,M,M,M,30.00,190.00,2021-09-10 17:36,80.62,KELY 101753Z AUTO 19016G24KT 10SM SCT090 28/05 A3026 RMK AO2 PK WND 19030/1736 SLP138 T02830050 10283 20106 56002,M
BAM,2021-09-10 17:55,-116.8743,40.5990,1382.36,86.00,42.80,22.02,230.00,12.00,0.00,30.09,M,10.00,M,SCT,M,M,M,10000.00,M,M,M,M,M,M,M,M,M,M,82.95,KBAM 101755Z AUTO 23012KT 10SM SCT100 30/06 A3009 RMK AO1,M
TMT,2021-09-10 17:55,-117.1971,39.4643,1749.34,81.50,44.80,27.48,230.00,22.00,0.00,30.18,M,10.00,30.00,BKN,M,M,M,10000.00,M,M,M,M,M,M,M,M,M,M,79.96,KTMT 101755Z AUTO 23022G30KT 10SM BKN100 28/07 A3018 RMK AO2 LTG DSNT SE T02750071 10276 20101,M
RTS,2021-09-10 17:55,-119.8764,39.6682,1539.00,64.40,55.40,72.56,M,3.00,0.00,30.16,M,10.00,M,BKN,BKN,M,M,6000.00,7000.00,M,M,M,M,M,M,M,M,M,64.40,KRTS 101755Z AUTO VRB03KT 10SM BKN060 BKN070 18/13 A3016 RMK AO2,M
RNO,2021-09-10 17:55,-119.7711,39.4839,1341.00,71.00,54.00,54.73,360.00,6.00,0.00,30.11,1014.60,10.00,M,SCT,BKN,BKN,BKN,4000.00,7500.00,10000.00,17000.00,M,M,M,M,M,M,M,71.10,KRNO 101755Z 36006KT 10SM SCT040 BKN075 BKN100 BKN170 22/12 A3011 RMK AO2 SLP146 TCU DSNT E 60006 T02170122 10222 20161 53001,M
MEV,2021-09-10 17:55,-119.7500,38.9963,1441.42,78.80,51.80,39.02,180.00,14.00,0.00,30.10,M,10.00,20.00,SCT,BKN,M,M,7500.00,8500.00,M,M,M,M,M,M,M,M,M,78.80,KMEV 101755Z AUTO 18014G20KT 10SM SCT075 BKN085 26/11 A3010 RMK AO2,M
BVU,2021-09-10 17:55,-114.8611,35.9475,671.00,98.60,50.00,19.52,60.00,9.00,0.00,29.98,M,10.00,M,CLR,M,M,M,M,M,M,M,M,M,M,M,M,M,M,95.56,KBVU 101755Z AUTO 06009KT 10SM CLR 37/10 A2998 RMK AO2,M
CXP,2021-09-10 17:55,-119.7326,39.1923,1431.00,77.00,50.00,38.74,M,5.00,0.00,30.12,M,10.00,11.00,SCT,BKN,M,M,8000.00,9000.00,M,M,M,M,M,M,M,M,M,77.00,KCXP 101755Z AUTO VRB05G11KT 10SM SCT080 BKN090 25/10 A3012 RMK AO2,M
LAS,2021-09-10 17:56,-115.1634,36.0719,663.00,96.00,52.00,22.69,110.00,7.00,0.00,29.99,1012.30,10.00,M,FEW,FEW,M,M,12000.00,20000.00,M,M,M,M,M,M,M,M,M,93.44,KLAS 101756Z 11007KT 10SM FEW120 FEW200 36/11 A2999 RMK AO2 SLP123 CB DSNT NW-N T03560111 10356 20283 50000,M
EKO,2021-09-10 17:56,-115.7860,40.8242,1367.00,85.00,42.00,22.20,210.00,21.00,0.00,30.10,1012.50,10.00,30.00,BKN,M,M,M,10000.00,M,M,M,M,M,M,M,31.00,160.00,2021-09-10 17:19,82.08,KEKO 101756Z AUTO 21021G30KT 10SM BKN100 29/06 A3010 RMK AO2 PK WND 16031/1719 SLP125 T02940056 10311 20161 56007,M
HND,2021-09-10 17:56,-115.1344,35.9729,742.79,97.00,55.00,24.63,50.00,8.00,0.00,30.02,1014.50,10.00,M,CLR,M,M,M,M,M,M,M,M,M,M,M,M,M,M,95.23,KHND 101756Z 05008KT 10SM CLR 36/13 A3002 RMK AO2 SLP145 T03610128 10361 20267 58002,M
NFL,2021-09-10 17:56,-118.7010,39.4166,1199.00,73.00,55.00,53.23,10.00,8.00,T,30.06,1014.80,10.00,M,SCT,BKN,BKN,M,7000.00,10000.00,15000.00,M,-RA,M,M,M,M,M,M,73.00,KNFL 101756Z 01008KT 10SM -RA SCT070 BKN100 BKN150 23/13 A3006 RMK AO2 RAB39 PRESFR SLP148 CB DSNT N P0000 60000 T02280128 10261 20189 50000,M
WMC,2021-09-10 17:56,-117.8072,40.9019,1315.00,66.00,56.00,69.88,290.00,20.00,T,30.14,1015.60,10.00,28.00,FEW,BKN,OVC,M,4400.00,6000.00,9500.00,M,-RA,M,M,M,28.00,280.00,2021-09-10 17:51,66.00,KWMC 101756Z AUTO 29020G28KT 10SM -RA FEW044 BKN060 OVC095 19/13 A3014 RMK AO2 PK WND 28028/1751 RAB49 SLP156 P0000 60002 T01890133 10233 20189 53015,M
TPH,2021-09-10 17:56,-117.0904,38.0505,1654.00,84.00,47.00,27.44,200.00,20.00,0.00,30.18,1012.90,10.00,26.00,CLR,M,M,M,M,M,M,M,M,M,M,M,26.00,200.00,2021-09-10 17:53,81.77,KTPH 101756Z AUTO 20020G26KT 10SM CLR 29/08 A3018 RMK AO2 PK WND 20026/1753 SLP129 T02890083 10289 20144 58005,M
INS,2021-09-10 17:58,-115.6733,36.5872,955.00,87.60,49.50,26.96,280.00,3.00,0.00,30.06,1012.80,10.00,M,FEW,SCT,SCT,BKN,10000.00,14000.00,16000.00,18000.00,M,M,M,M,M,M,M,84.87,KINS 101758Z AUTO 28003KT 10SM FEW100 SCT140 SCT160 BKN180 31/10 A3006 RMK AO2 SLP128 T03090097 10309 20192 52004 $,M
LSV,2021-09-10 17:58,-115.0343,36.2362,570.00,97.70,49.80,19.91,40.00,5.00,0.00,29.95,1011.20,10.00,M,CLR,M,M,M,M,M,M,M,M,M,M,M,M,M,M,94.59,KLSV 101758Z AUTO 04005KT 10SM CLR 37/10 A2995 RMK AO2 SLP112 T03650099 10365 20280 58002 $,M
RTS,2021-09-10 18:15,-119.8764,39.6682,1539.00,66.20,55.40,68.15,0.00,0.00,0.00,30.16,M,10.00,M,BKN,M,M,M,6000.00,M,M,M,M,M,M,M,M,M,M,66.20,KRTS 101815Z AUTO 00000KT 10SM BKN060 19/13 A3016 RMK AO2,M
CXP,2021-09-10 18:15,-119.7326,39.1923,1431.00,77.00,50.00,38.74,M,6.00,0.00,30.12,M,10.00,M,SCT,BKN,BKN,M,6500.00,8000.00,8500.00,M,M,M,M,M,M,M,M,77.00,KCXP 101815Z AUTO VRB06KT 10SM SCT065 BKN080 BKN085 25/10 A3012 RMK AO2,M
BVU,2021-09-10 18:15,-114.8611,35.9475,671.00,100.40,50.00,18.48,110.00,11.00,0.00,29.97,M,10.00,M,CLR,M,M,M,M,M,M,M,M,M,M,M,M,M,M,97.42,KBVU 101815Z AUTO 11011KT 070V130 10SM CLR 38/10 A2997 RMK AO2,M
BAM,2021-09-10 18:15,-116.8743,40.5990,1382.36,87.80,42.80,20.79,220.00,9.00,0.00,30.08,M,10.00,M,CLR,M,M,M,M,M,M,M,M,M,M,M,M,M,M,84.40,KBAM 101815Z AUTO 22009KT 10SM CLR 31/06 A3008 RMK AO1,M
TMT,2021-09-10 18:15,-117.1971,39.4643,1749.34,81.50,45.50,28.22,220.00,20.00,0.00,30.17,M,10.00,27.00,SCT,M,M,M,10000.00,M,M,M,VCTS,M,M,M,M,M,M,80.01,KTMT 101815Z AUTO 22020G27KT 10SM VCTS SCT100 28/08 A3017 RMK AO2 LTG DSNT SE AND NW T02750075,M
MEV,2021-09-10 18:15,-119.7500,38.9963,1441.42,78.80,51.80,39.02,180.00,14.00,0.00,30.11,M,10.00,22.00,SCT,BKN,M,M,7500.00,8500.00,M,M,M,M,M,M,M,M,M,78.80,KMEV 101815Z AUTO 18014G22KT 10SM SCT075 BKN085 26/11 A3011 RMK AO2,M
RTS,2021-09-10 18:35,-119.8764,39.6682,1539.00,66.20,55.40,68.15,340.00,3.00,0.00,30.16,M,10.00,M,OVC,M,M,M,5500.00,M,M,M,M,M,M,M,M,M,M,66.20,KRTS 101835Z AUTO 34003KT 10SM OVC055 19/13 A3016 RMK AO2,M
BVU,2021-09-10 18:35,-114.8611,35.9475,671.00,100.40,50.00,18.48,140.00,9.00,0.00,29.96,M,10.00,15.00,CLR,M,M,M,M,M,M,M,M,M,M,M,M,M,M,97.42,KBVU 101835Z AUTO 14009G15KT 10SM CLR 38/10 A2996 RMK AO2,M
MEV,2021-09-10 18:35,-119.7500,38.9963,1441.42,80.60,50.00,34.41,180.00,11.00,0.00,30.10,M,10.00,22.00,FEW,SCT,BKN,M,6500.00,7500.00,8500.00,M,M,M,M,M,M,M,M,79.88,KMEV 101835Z AUTO 18011G22KT 10SM FEW065 SCT075 BKN085 27/10 A3010 RMK AO2,M
CXP,2021-09-10 18:35,-119.7326,39.1923,1431.00,77.00,50.00,38.74,250.00,5.00,0.00,30.12,M,10.00,M,BKN,OVC,M,M,6500.00,7500.00,M,M,M,M,M,M,M,M,M,77.00,KCXP 101835Z AUTO 25005KT 10SM BKN065 OVC075 25/10 A3012 RMK AO2,M
BAM,2021-09-10 18:35,-116.8743,40.5990,1382.36,86.00,41.00,20.54,270.00,11.00,0.00,30.08,M,10.00,18.00,CLR,M,M,M,M,M,M,M,M,M,M,M,M,M,M,82.86,KBAM 101835Z AUTO 27011G18KT 10SM CLR 30/05 A3008 RMK AO1,M
TMT,2021-09-10 18:35,-117.1971,39.4643,1749.34,82.80,45.70,27.26,220.00,24.00,0.00,30.17,M,10.00,30.00,SCT,M,M,M,11000.00,M,M,M,VCTS,M,M,M,M,M,M,80.85,KTMT 101835Z AUTO 22024G30KT 10SM VCTS SCT110 28/08 A3017 RMK AO2 LTG DSNT NE THRU S T02820076,M
CXP,2021-09-10 18:50,-119.7326,39.1923,1431.00,77.00,50.00,38.74,M,4.00,0.00,30.11,M,10.00,10.00,BKN,BKN,M,M,7000.00,8500.00,M,M,M,M,M,M,M,M,M,77.00,KCXP 101850Z AUTO VRB04G10KT 10SM BKN070 BKN085 25/10 A3011 RMK AO2,M
LOL,2021-09-10 18:53,-118.5701,40.0684,1192.43,71.00,59.00,65.58,0.00,0.00,0.04,30.09,1015.30,10.00,M,CLR,M,M,M,M,M,M,M,M,M,M,M,M,M,M,71.10,KLOL 101853Z AUTO 00000KT 10SM CLR 22/15 A3009 RMK AO2 RAB05E26 SLP153 P0004 T02170150,M
P68,2021-09-10 18:53,-116.0056,39.6014,1993.00,85.00,38.00,18.86,190.00,21.00,0.00,30.16,1011.20,M,30.00,M,M,M,M,M,M,M,M,M,M,M,M,33.00,200.00,2021-09-10 18:39,81.91,KP68 101853Z AUTO 19021G30KT 29/03 A3016 RMK AO1 PK WND 20033/1839 SLP112 T02940033,M
DRA,2021-09-10 18:53,-116.0278,36.6206,1009.00,96.00,47.00,18.76,230.00,13.00,0.00,30.04,1011.50,10.00,20.00,CLR,M,M,M,M,M,M,M,M,M,M,M,M,M,M,92.44,KDRA 101853Z AUTO 23013G20KT 10SM CLR 36/08 A3004 RMK AO2 SLP115 T03560083,M
VGT,2021-09-10 18:53,-115.1933,36.2111,667.00,100.00,52.00,20.15,110.00,5.00,0.00,29.94,1012.30,10.00,M,CLR,M,M,M,M,M,M,M,M,M,M,M,M,M,M,97.53,KVGT 101853Z 11005KT 10SM CLR 38/11 A2994 RMK AO2 SLP123 T03780111,M
ELY,2021-09-10 18:53,-114.8453,39.2950,1909.00,83.00,39.00,21.00,200.00,22.00,0.00,30.24,1012.80,10.00,33.00,CLR,M,M,M,M,M,M,M,M,M,M,M,33.00,200.00,2021-09-10 18:46,80.53,KELY 101853Z AUTO 20022G33KT 10SM CLR 28/04 A3024 RMK AO2 PK WND 20033/1846 SLP128 T02830039,M
RTS,2021-09-10 18:55,-119.8764,39.6682,1539.00,66.20,55.40,68.15,0.00,0.00,0.00,30.15,M,10.00,M,BKN,BKN,M,M,5500.00,11000.00,M,M,M,M,M,M,M,M,M,66.20,KRTS 101855Z AUTO 00000KT 10SM BKN055 BKN110 19/13 A3015 RMK AO2,M
BVU,2021-09-10 18:55,-114.8611,35.9475,671.00,102.20,48.20,16.37,170.00,11.00,0.00,29.95,M,10.00,16.00,CLR,M,M,M,M,M,M,M,M,M,M,M,M,M,M,98.83,KBVU 101855Z AUTO 17011G16KT 10SM CLR 39/09 A2995 RMK AO2,M
RNO,2021-09-10 18:55,-119.7711,39.4839,1341.00,74.00,53.00,48.18,M,3.00,0.00,30.10,1013.90,10.00,M,FEW,SCT,BKN,BKN,5000.00,7000.00,9000.00,15000.00,M,M,M,M,M,M,M,73.90,KRNO 101855Z VRB03KT 10SM FEW050 SCT070TCU BKN090 BKN150 23/12 A3010 RMK AO2 SLP139 TCU NW MOV NE FU ALF VC S THRU SW T02330117,M
BAM,2021-09-10 18:55,-116.8743,40.5990,1382.36,80.60,46.40,30.07,340.00,20.00,0.00,30.09,M,7.00,23.00,SCT,SCT,M,M,9000.00,12000.00,M,M,M,M,M,M,M,M,M,79.56,KBAM 101855Z AUTO 34020G23KT 7SM SCT090 SCT120 27/08 A3009 RMK AO1,M
MEV,2021-09-10 18:55,-119.7500,38.9963,1441.42,80.60,50.00,34.41,170.00,17.00,0.00,30.10,M,10.00,23.00,FEW,FEW,FEW,M,7500.00,8500.00,11000.00,M,M,M,M,M,M,M,M,79.88,KMEV 101855Z AUTO 17017G23KT 10SM FEW075 FEW085 FEW110 27/10 A3010 RMK AO2,M
TMT,2021-09-10 18:55,-117.1971,39.4643,1749.34,80.80,45.00,28.44,220.00,23.00,0.00,30.17,M,10.00,31.00,SCT,M,M,M,11000.00,M,M,M,VCTS,M,M,M,M,M,M,79.57,KTMT 101855Z AUTO 22023G31KT 10SM VCTS SCT110 27/07 A3017 RMK AO2 LTG DSNT NE T02710073,M
TPH,2021-09-10 18:56,-117.0904,38.0505,1654.00,88.00,41.00,19.28,200.00,24.00,0.00,30.16,1012.20,10.00,32.00,CLR,M,M,M,M,M,M,M,M,M,M,M,38.00,200.00,2021-09-10 18:24,84.46,KTPH 101856Z AUTO 20024G32KT 10SM CLR 31/05 A3016 RMK AO2 PK WND 20038/1824 SLP122 T03110050,M
NFL,2021-09-10 18:56,-118.7010,39.4166,1199.00,77.00,55.00,46.57,350.00,9.00,T,30.07,1014.90,10.00,M,SCT,BKN,BKN,M,7000.00,12000.00,15000.00,M,M,M,M,M,M,M,M,77.00,KNFL 101856Z 35009KT 10SM SCT070 BKN120 BKN150 25/13 A3007 RMK AO2 RAE10 SLP149 CB DSNT W-NW AND NE P0000 T02500128,M
LAS,2021-09-10 18:56,-115.1634,36.0719,663.00,99.00,51.00,20.09,100.00,9.00,0.00,29.96,1011.50,10.00,M,SCT,BKN,M,M,12000.00,20000.00,M,M,M,M,M,M,M,M,M,96.24,KLAS 101856Z 10009KT 10SM SCT120 BKN200 37/11 A2996 RMK AO2 SLP115 CB DSNT S AND NW-N SH DSNT S T03720106,M
EKO,2021-09-10 18:56,-115.7860,40.8242,1367.00,79.00,52.00,39.06,210.00,10.00,T,30.09,1012.20,9.00,16.00,FEW,BKN,M,M,3000.00,11000.00,M,M,-RA,M,M,M,35.00,240.00,2021-09-10 18:28,79.00,KEKO 101856Z AUTO 21010G16KT 9SM -RA FEW030 BKN110 26/11 A3009 RMK AO2 PK WND 24035/1828 RAB50 SLP122 P0000 T02610111,M
WMC,2021-09-10 18:56,-117.8072,40.9019,1315.00,71.00,55.00,56.77,320.00,14.00,0.00,30.13,1015.30,10.00,19.00,SCT,BKN,M,M,8000.00,10000.00,M,M,M,M,M,M,27.00,290.00,2021-09-10 17:59,71.10,KWMC 101856Z AUTO 32014G19KT 10SM SCT080 BKN100 22/13 A3013 RMK AO2 PK WND 29027/1759 RAE08 SLP153 T02170128 PNO $,M
HND,2021-09-10 18:56,-115.1344,35.9729,742.79,97.00,53.00,22.98,130.00,8.00,T,30.00,1013.90,10.00,15.00,FEW,SCT,M,M,9500.00,11000.00,M,M,-RA,M,M,M,M,M,M,94.67,KHND 101856Z 13008G15KT 10SM -RA FEW095 SCT110 36/12 A3000 RMK AO2 RAB56 SLP139 P0000 T03610117,M
INS,2021-09-10 18:58,-115.6733,36.5872,955.00,92.30,49.00,22.91,40.00,3.00,0.00,30.03,1011.60,10.00,M,FEW,M,M,M,21000.00,M,M,M,M,M,M,M,M,M,M,89.08,KINS 101858Z AUTO 04003KT 10SM FEW210 34/10 A3003 RMK AO2 SLP116 T03350095 $,M
LSV,2021-09-10 18:58,-115.0343,36.2362,570.00,100.40,50.50,18.83,190.00,6.00,0.00,29.93,1010.50,10.00,M,CLR,M,M,M,M,M,M,M,M,M,M,M,M,M,M,97.54,KLSV 101858Z AUTO 19006KT 10SM CLR 38/10 A2993 RMK AO2 SLP105 T03800103 $,M
LAS,2021-09-10 19:15,-115.1634,36.0719,663.00,98.00,51.00,20.64,100.00,7.00,0.00,29.96,M,10.00,M,BKN,BKN,M,M,12000.00,20000.00,M,M,TS,M,M,M,M,M,M,95.30,KLAS 101915Z 10007KT 10SM TS BKN120CB BKN200 37/11 A2996 RMK AO2 LTG DSNT S TSB14 OCNL LTGICCC S TS S MOV N T03670106,M
TMT,2021-09-10 19:15,-117.1971,39.4643,1749.34,81.70,44.60,27.10,210.00,24.00,0.00,30.16,M,10.00,28.00,SCT,M,M,M,11000.00,M,M,M,M,M,M,M,M,M,M,80.07,KTMT 101915Z AUTO 21024G28KT 10SM SCT110 28/07 A3016 RMK AO2 T02760070,M
RTS,2021-09-10 19:15,-119.8764,39.6682,1539.00,69.80,53.60,56.38,290.00,4.00,0.00,30.16,M,10.00,M,FEW,SCT,SCT,M,6000.00,7500.00,11000.00,M,M,M,M,M,M,M,M,69.80,KRTS 101915Z AUTO 29004KT 10SM FEW060 SCT075 SCT110 21/12 A3016 RMK AO2,M
BAM,2021-09-10 19:15,-116.8743,40.5990,1382.36,80.60,46.40,30.07,340.00,20.00,0.00,30.08,M,10.00,26.00,SCT,M,M,M,10000.00,M,M,M,M,M,M,M,M,M,M,79.56,KBAM 101915Z AUTO 34020G26KT 10SM SCT100 27/08 A3008 RMK AO1,M
CXP,2021-09-10 19:15,-119.7326,39.1923,1431.00,78.80,48.20,34.13,M,6.00,0.00,30.11,M,10.00,12.00,FEW,BKN,M,M,7500.00,9000.00,M,M,M,M,M,M,M,M,M,78.80,KCXP 101915Z AUTO VRB06G12KT 10SM FEW075 BKN090 26/09 A3011 RMK AO2,M
MEV,2021-09-10 19:15,-119.7500,38.9963,1441.42,78.80,50.00,36.51,170.00,16.00,0.00,30.09,M,10.00,23.00,FEW,FEW,M,M,9500.00,11000.00,M,M,M,M,M,M,M,M,M,78.80,KMEV 101915Z AUTO 17016G23KT 10SM FEW095 FEW110 26/10 A3009 RMK AO2,M
BVU,2021-09-10 19:15,-114.8611,35.9475,671.00,102.20,48.20,16.37,150.00,11.00,0.00,29.95,M,10.00,20.00,CLR,M,M,M,M,M,M,M,M,M,M,M,M,M,M,98.83,KBVU 101915Z AUTO 15011G20KT 10SM CLR 39/09 A2995 RMK AO2,M
BVU,2021-09-10 19:35,-114.8611,35.9475,671.00,100.40,50.00,18.48,200.00,10.00,0.00,29.94,M,10.00,18.00,FEW,M,M,M,11000.00,M,M,M,M,M,M,M,M,M,M,97.42,KBVU 101935Z AUTO 20010G18KT 130V250 10SM FEW110 38/10 A2994 RMK AO2,M
TMT,2021-09-10 19:35,-117.1971,39.4643,1749.34,82.60,44.20,25.92,200.00,23.00,0.00,30.16,M,10.00,30.00,SCT,M,M,M,11000.00,M,M,M,M,M,M,M,M,M,M,80.61,KTMT 101935Z AUTO 20023G30KT 10SM SCT110 28/07 A3016 RMK AO2 T02810068,M
BAM,2021-09-10 19:35,-116.8743,40.5990,1382.36,80.60,50.00,34.41,340.00,19.00,0.00,30.08,M,7.00,25.00,SCT,SCT,M,M,10000.00,12000.00,M,M,M,M,M,M,M,M,M,79.88,KBAM 101935Z AUTO 34019G25KT 7SM SCT100 SCT120 27/10 A3008 RMK AO1,M
CXP,2021-09-10 19:35,-119.7326,39.1923,1431.00,80.60,48.20,32.18,220.00,10.00,0.00,30.10,M,10.00,M,SCT,BKN,BKN,M,7000.00,8500.00,11000.00,M,M,M,M,M,M,M,M,79.71,KCXP 101935Z AUTO 22010KT 10SM SCT070 BKN085 BKN110 27/09 A3010 RMK AO2,M
RTS,2021-09-10 19:35,-119.8764,39.6682,1539.00,71.60,53.60,53.03,0.00,0.00,0.00,30.15,M,10.00,M,FEW,FEW,M,M,6000.00,7500.00,M,M,M,M,M,M,M,M,M,71.60,KRTS 101935Z AUTO 00000KT 10SM FEW060 FEW075 22/12 A3015 RMK AO2,M
MEV,2021-09-10 19:35,-119.7500,38.9963,1441.42,78.80,48.20,34.13,180.00,15.00,0.00,30.09,M,10.00,M,SCT,BKN,BKN,M,7500.00,9000.00,11000.00,M,M,M,M,M,M,M,M,78.80,KMEV 101935Z AUTO 18015KT 10SM SCT075 BKN090 BKN110 26/09 A3009 RMK AO2,M
EKO,2021-09-10 19:44,-115.7860,40.8242,1367.00,79.00,46.00,31.21,270.00,25.00,T,30.08,M,7.00,41.00,BKN,M,M,M,11000.00,M,M,M,SQ,M,M,M,41.00,230.00,2021-09-10 19:38,79.00,KEKO 101944Z AUTO 27025G41KT 7SM SQ BKN110 26/08 A3008 RMK AO2 PK WND 23041/1938 LTG DSNT W AND NW RAE02 P0000 T02610078,M
DRA,2021-09-10 19:53,-116.0278,36.6206,1009.00,98.00,43.00,15.21,210.00,21.00,0.00,30.01,1010.70,10.00,28.00,CLR,M,M,M,M,M,M,M,M,M,M,M,28.00,210.00,2021-09-10 19:52,93.85,KDRA 101953Z AUTO 21021G28KT 10SM CLR 37/06 A3001 RMK AO2 PK WND 21028/1952 SLP107 T03670061,M
ELY,2021-09-10 19:53,-114.8453,39.2950,1909.00,80.00,43.00,26.85,240.00,15.00,0.00,30.22,1012.30,10.00,23.00,CLR,M,M,M,M,M,M,M,M,M,M,M,33.00,210.00,2021-09-10 19:03,79.04,KELY 101953Z AUTO 24015G23KT 10SM CLR 27/06 A3022 RMK AO2 PK WND 21033/1903 LTG DSNT SW SLP123 T02670061,M
P68,2021-09-10 19:53,-116.0056,39.6014,1993.00,83.00,37.00,19.41,230.00,15.00,0.00,30.14,1011.10,M,22.00,M,M,M,M,M,M,M,M,M,M,M,M,35.00,180.00,2021-09-10 19:22,80.46,KP68 101953Z AUTO 23015G22KT 28/03 A3014 RMK AO1 PK WND 18035/1922 SLP111 T02830028,M
LOL,2021-09-10 19:53,-118.5701,40.0684,1192.43,78.00,57.00,48.28,30.00,8.00,0.00,30.05,1013.70,10.00,M,CLR,M,M,M,M,M,M,M,M,M,M,M,M,M,M,78.10,KLOL 101953Z AUTO 03008KT 10SM CLR 26/14 A3005 RMK AO2 SLP137 T02560139,M
VGT,2021-09-10 19:53,-115.1933,36.2111,667.00,101.00,51.00,18.97,150.00,14.00,T,29.92,1011.60,10.00,22.00,CLR,M,M,M,M,M,M,M,VCTS,M,M,M,M,M,M,98.23,KVGT 101953Z 15014G22KT 10SM VCTS CLR 38/11 A2992 RMK AO2 RAB38E49 SLP116 P0000 T03830106,M
TMT,2021-09-10 19:55,-117.1971,39.4643,1749.34,85.00,44.20,23.91,220.00,24.00,0.00,30.15,M,10.00,30.00,CLR,M,M,M,M,M,M,M,M,M,M,M,M,M,M,82.36,KTMT 101955Z AUTO 22024G30KT 10SM CLR 30/07 A3015 RMK AO2 LTG DSNT N T02950068,M
CXP,2021-09-10 19:55,-119.7326,39.1923,1431.00,80.60,48.20,32.18,190.00,7.00,0.00,30.10,M,10.00,M,SCT,SCT,BKN,M,7000.00,8500.00,12000.00,M,M,M,M,M,M,M,M,79.71,KCXP 101955Z AUTO 19007KT 10SM SCT070 SCT085 BKN120 27/09 A3010 RMK AO2,M
BAM,2021-09-10 19:55,-116.8743,40.5990,1382.36,82.40,48.20,30.35,340.00,19.00,0.00,30.08,M,10.00,24.00,CLR,M,M,M,M,M,M,M,M,M,M,M,M,M,M,80.80,KBAM 101955Z AUTO 34019G24KT 10SM CLR 28/09 A3008 RMK AO1,M
RNO,2021-09-10 19:55,-119.7711,39.4839,1341.00,76.00,54.00,46.57,340.00,5.00,0.00,30.08,1013.30,10.00,M,FEW,SCT,BKN,BKN,5000.00,7000.00,9000.00,15000.00,M,M,M,M,M,M,M,75.90,KRNO 101955Z 34005KT 10SM FEW050 SCT070 BKN090 BKN150 24/12 A3008 RMK AO2 SLP133 ACSL DSNT E FU ALF AND HZ VC SE THRU SW T02440122,M
RTS,2021-09-10 19:55,-119.8764,39.6682,1539.00,69.80,51.80,52.77,M,6.00,0.00,30.14,M,10.00,M,SCT,BKN,M,M,5500.00,7500.00,M,M,M,M,M,M,M,M,M,69.80,KRTS 101955Z AUTO VRB06KT 10SM SCT055 BKN075 21/11 A3014 RMK AO2,M
MEV,2021-09-10 19:55,-119.7500,38.9963,1441.42,78.80,48.20,34.13,180.00,11.00,0.00,30.08,M,10.00,22.00,SCT,BKN,M,M,7500.00,9000.00,M,M,M,M,M,M,M,M,M,78.80,KMEV 101955Z AUTO 18011G22KT 10SM SCT075 BKN090 26/09 A3008 RMK AO2,M
BVU,2021-09-10 19:55,-114.8611,35.9475,671.00,98.60,50.00,19.52,270.00,8.00,0.00,29.94,M,10.00,16.00,SCT,M,M,M,11000.00,M,M,M,M,M,M,M,M,M,M,95.56,KBVU 101955Z AUTO 27008G16KT 10SM SCT110 37/10 A2994 RMK AO2,M
LAS,2021-09-10 19:56,-115.1634,36.0719,663.00,99.00,51.00,20.09,130.00,9.00,T,29.94,1010.70,10.00,14.00,BKN,BKN,M,M,12000.00,20000.00,M,M,TS,M,M,M,M,M,M,96.24,KLAS 101956Z 13009G14KT 10SM TS BKN120CB BKN200 37/11 A2994 RMK AO2 LTG DSNT NW RAB24E34 TSB14 SLP107 OCNL LTGICCC OHD-W TS OHD-W MOV N VCSH P0000 T03720106,M
EKO,2021-09-10 19:56,-115.7860,40.8242,1367.00,78.00,48.00,34.67,280.00,21.00,T,30.08,1011.80,10.00,31.00,FEW,SCT,M,M,2600.00,11000.00,M,M,-RA,M,M,M,41.00,230.00,2021-09-10 19:38,78.10,KEKO 101956Z AUTO 28021G31KT 10SM -RA FEW026 SCT110 26/09 A3008 RMK AO2 PK WND 23041/1938 LTG DSNT ALQDS RAE02B46 SLP118 P0000 T02560089,M
HND,2021-09-10 19:56,-115.1344,35.9729,742.79,99.00,53.00,21.62,110.00,9.00,T,29.98,1013.30,10.00,18.00,CLR,M,M,M,M,M,M,M,VCTS,M,M,M,M,M,M,96.79,KHND 101956Z 11009G18KT 10SM VCTS CLR 37/12 A2998 RMK AO2 LTG DSNT N AND NW TSB51RAE12 SLP133 P0000 T03720117,M
NFL,2021-09-10 19:56,-118.7010,39.4166,1199.00,81.00,53.00,38.09,20.00,8.00,0.00,30.04,1014.10,10.00,M,SCT,BKN,BKN,M,7000.00,12000.00,15000.00,M,M,M,M,M,M,M,M,80.47,KNFL 101956Z 02008KT 10SM SCT070 BKN120 BKN150 27/12 A3004 RMK AO2 SLP141 CB DSNT NE T02720117,M
TPH,2021-09-10 19:56,-117.0904,38.0505,1654.00,89.00,35.00,14.77,190.00,33.00,0.00,30.14,1011.50,10.00,42.00,FEW,M,M,M,10000.00,M,M,M,M,M,M,M,42.00,190.00,2021-09-10 19:55,85.19,KTPH 101956Z AUTO 19033G42KT 10SM FEW100 32/02 A3014 RMK AO2 PK WND 19042/1955 SLP115 T03170017,M
WMC,2021-09-10 19:56,-117.8072,40.9019,1315.00,66.00,59.00,78.14,310.00,5.00,0.00,30.13,1016.00,8.00,M,FEW,FEW,OVC,M,4300.00,7500.00,9500.00,M,-RA,M,M,M,M,M,M,66.00,KWMC 101956Z AUTO 31005KT 8SM -RA FEW043 FEW075 OVC095 19/15 A3013 RMK AO2 RAB1857 SLP160 T01890150 PNO $,M
INS,2021-09-10 19:58,-115.6733,36.5872,955.00,92.30,46.60,20.86,170.00,3.00,0.00,30.01,1011.10,10.00,M,FEW,M,M,M,11000.00,M,M,M,M,M,M,M,M,M,M,88.73,KINS 101958Z AUTO 17003KT 10SM FEW110 34/08 A3001 RMK AO2 SLP111 T03350081 $,M
LSV,2021-09-10 19:58,-115.0343,36.2362,570.00,101.00,49.60,17.94,150.00,5.00,0.00,29.91,1010.00,10.00,M,FEW,SCT,M,M,12000.00,18000.00,M,M,VCTS,M,M,M,M,M,M,97.84,KLSV 101958Z AUTO 15005KT 10SM VCTS FEW120 SCT180 38/10 A2991 RMK AO2 SLP100 T03830098 $,M
VGT,2021-09-10 20:00,-115.1933,36.2111,667.00,99.00,54.00,22.35,220.00,15.00,T,29.93,M,10.00,22.00,FEW,SCT,M,M,3000.00,9000.00,M,M,-TSRA,M,M,M,M,M,M,97.06,KVGT 102000Z 22015G22KT 10SM -TSRA FEW030 SCT090 37/12 A2993 RMK AO2 RAB1958 TSB1954 P0000 T03720122,M
INS,2021-09-10 20:03,-115.6733,36.5872,955.00,91.40,46.40,21.29,130.00,5.00,0.00,30.01,1011.30,10.00,M,FEW,M,M,M,12000.00,M,M,M,-DZ,M,M,M,M,M,M,87.86,KINS 102003Z AUTO 13005KT 10SM -DZ FEW120 33/08 A3001 RMK AO2 DZB03 SLP113 $,M
INS,2021-09-10 20:13,-115.6733,36.5872,955.00,93.20,44.60,18.80,160.00,4.00,0.00,30.00,1010.80,10.00,M,FEW,FEW,M,M,12000.00,16000.00,M,M,M,M,M,M,M,M,M,89.34,KINS 102013Z AUTO 16004KT 10SM FEW120 FEW160 34/07 A3000 RMK AO2 DZB03E13DZB13 SLP108 $,M
MEV,2021-09-10 20:15,-119.7500,38.9963,1441.42,78.80,48.20,34.13,170.00,15.00,0.00,30.08,M,10.00,M,SCT,BKN,BKN,M,7500.00,9000.00,11000.00,M,M,M,M,M,M,M,M,78.80,KMEV 102015Z AUTO 17015KT 10SM SCT075 BKN090 BKN110 26/09 A3008 RMK AO2,M
BAM,2021-09-10 20:15,-116.8743,40.5990,1382.36,80.60,48.20,32.18,330.00,14.00,0.00,30.09,M,10.00,M,CLR,M,M,M,M,M,M,M,M,M,M,M,M,M,M,79.71,KBAM 102015Z AUTO 33014KT 10SM CLR 27/09 A3009 RMK AO1,M
TMT,2021-09-10 20:15,-117.1971,39.4643,1749.34,83.50,42.40,23.50,200.00,21.00,0.00,30.14,M,10.00,29.00,SCT,M,M,M,11000.00,M,M,M,M,M,M,M,M,M,M,81.10,KTMT 102015Z AUTO 20021G29KT 10SM SCT110 29/06 A3014 RMK AO2 T02860058,M
RTS,2021-09-10 20:15,-119.8764,39.6682,1539.00,71.60,51.80,49.64,0.00,0.00,0.00,30.14,M,10.00,10.00,FEW,BKN,OVC,M,5000.00,5500.00,7000.00,M,M,M,M,M,M,M,M,71.60,KRTS 102015Z AUTO 00000G10KT 10SM FEW050 BKN055 OVC070 22/11 A3014 RMK AO2,M
BVU,2021-09-10 20:15,-114.8611,35.9475,671.00,98.60,53.60,22.29,240.00,10.00,0.00,29.94,M,10.00,20.00,FEW,M,M,M,11000.00,M,M,M,M,M,M,M,M,M,M,96.51,KBVU 102015Z AUTO 24010G20KT 10SM FEW110 37/12 A2994 RMK AO2 LTG DSNT NW,M
CXP,2021-09-10 20:15,-119.7326,39.1923,1431.00,78.80,46.40,31.90,M,5.00,0.00,30.10,M,10.00,10.00,FEW,SCT,BKN,M,7000.00,8000.00,10000.00,M,M,M,M,M,M,M,M,78.80,KCXP 102015Z AUTO VRB05G10KT 10SM FEW070 SCT080 BKN100 26/08 A3010 RMK AO2,M
ELY,2021-09-10 20:16,-114.8453,39.2950,1909.00,72.00,46.00,39.42,240.00,28.00,0.00,30.24,M,2.50,47.00,FEW,FEW,M,M,300.00,10000.00,M,M,HZ,M,M,M,47.00,220.00,2021-09-10 20:09,72.00,KELY 102016Z AUTO 24028G47KT 2 1/2SM HZ FEW003 FEW100 22/08 A3024 RMK AO2 PK WND 22047/2009 LTG DSNT S AND W T02220078,M
ELY,2021-09-10 20:22,-114.8453,39.2950,1909.00,69.00,48.00,46.92,240.00,24.00,T,30.26,M,6.00,42.00,FEW,SCT,M,M,1900.00,10000.00,M,M,VCTS -RA,M,M,M,47.00,220.00,2021-09-10 20:09,69.10,KELY 102022Z AUTO 24024G42KT 6SM VCTS -RA FEW019 SCT100 21/09 A3026 RMK AO2 PK WND 22047/2009 LTG DSNT S AND W RAB18 P0000 T02060089,M
EKO,2021-09-10 20:27,-115.7860,40.8242,1367.00,77.00,47.00,34.50,200.00,14.00,T,30.10,M,10.00,19.00,BKN,M,M,M,10000.00,M,M,M,M,M,M,M,27.00,290.00,2021-09-10 19:59,77.00,KEKO 102027Z AUTO 20014G19KT 10SM BKN100 25/08 A3010 RMK AO2 PK WND 29027/1959 WSHFT 2007 LTG DSNT W RAE1957 P0000 T02500083,M
HND,2021-09-10 20:30,-115.1344,35.9729,742.79,100.40,53.60,21.11,140.00,9.00,0.00,29.96,M,10.00,M,CLR,M,M,M,M,M,M,M,M,M,M,M,M,M,M,98.44,KHND 102030Z 14009KT 10SM CLR 38/12 A2996 RMK AO2 LTG DSNT N TSE24,M
BAM,2021-09-10 20:35,-116.8743,40.5990,1382.36,80.60,46.40,30.07,330.00,10.00,0.00,30.09,M,10.00,17.00,SCT,BKN,M,M,9000.00,11000.00,M,M,M,M,M,M,M,M,M,79.56,KBAM 102035Z AUTO 33010G17KT 10SM SCT090 BKN110 27/08 A3009 RMK AO1,M
VGT,2021-09-10 20:35,-115.1933,36.2111,667.00,92.00,62.00,37.19,70.00,6.00,0.09,29.92,M,8.00,M,FEW,SCT,BKN,M,3500.00,7000.00,11000.00,M,VCTS -RA,M,M,M,28.00,240.00,2021-09-10 20:09,92.52,KVGT 102035Z 07006KT 8SM VCTS -RA FEW035 SCT070 BKN110 33/17 A2992 RMK AO2 PK WND 24028/2009 LTG DSNT NW RAB1958 TSB1954E29 P0009 T03330167,M
MEV,2021-09-10 20:35,-119.7500,38.9963,1441.42,78.80,48.20,34.13,170.00,12.00,0.00,30.08,M,10.00,17.00,SCT,BKN,BKN,M,8000.00,9000.00,11000.00,M,M,M,M,M,M,M,M,78.80,KMEV 102035Z AUTO 17012G17KT 10SM SCT080 BKN090 BKN110 26/09 A3008 RMK AO2,M
RTS,2021-09-10 20:35,-119.8764,39.6682,1539.00,73.40,50.00,43.69,250.00,15.00,0.00,30.13,M,10.00,M,BKN,OVC,M,M,5500.00,7000.00,M,M,M,M,M,M,M,M,M,73.40,KRTS 102035Z AUTO 25015KT 10SM BKN055 OVC070 23/10 A3013 RMK AO2,M
BVU,2021-09-10 20:35,-114.8611,35.9475,671.00,98.60,50.00,19.52,M,6.00,0.00,29.93,M,10.00,M,FEW,M,M,M,12000.00,M,M,M,M,M,M,M,M,M,M,95.56,KBVU 102035Z AUTO VRB06KT 10SM FEW120 37/10 A2993 RMK AO2,M
TMT,2021-09-10 20:35,-117.1971,39.4643,1749.34,82.00,40.30,22.74,220.00,19.00,0.00,30.14,M,10.00,26.00,SCT,M,M,M,11000.00,M,M,M,M,M,M,M,M,M,M,80.00,KTMT 102035Z AUTO 22019G26KT 10SM SCT110 28/05 A3014 RMK AO2 T02780046,M
CXP,2021-09-10 20:35,-119.7326,39.1923,1431.00,78.80,46.40,31.90,M,4.00,0.00,30.10,M,10.00,14.00,BKN,OVC,M,M,7000.00,8500.00,M,M,M,M,M,M,M,M,M,78.80,KCXP 102035Z AUTO VRB04G14KT 10SM BKN070 OVC085 26/08 A3010 RMK AO2,M
EKO,2021-09-10 20:40,-115.7860,40.8242,1367.00,76.00,48.00,37.29,260.00,22.00,T,30.13,M,10.00,27.00,BKN,M,M,M,10000.00,M,M,M,VCTS,M,M,M,27.00,260.00,2021-09-10 20:34,75.90,KEKO 102040Z AUTO 26022G27KT 10SM VCTS BKN100 24/09 A3013 RMK AO2 PK WND 26027/2034 WSHFT 2007 LTG DSNT SE RAE1957 P0000 T02440089,M
HND,2021-09-10 20:43,-115.1344,35.9729,742.79,98.60,53.60,22.29,190.00,22.00,0.00,29.98,M,6.00,44.00,FEW,M,M,M,12000.00,M,M,M,TS HZ,M,M,M,44.00,230.00,2021-09-10 20:43,96.51,KHND 102043Z 19022G44KT 160V230 6SM TS HZ FEW120 37/12 A2998 RMK AO2 PK WND 23044/2043 LTG DSNT N TSE24B37,M
VGT,2021-09-10 20:44,-115.1933,36.2111,667.00,93.00,65.00,39.65,140.00,8.00,0.09,29.93,M,10.00,M,FEW,SCT,BKN,M,3700.00,6000.00,11000.00,M,-RA,M,M,M,28.00,240.00,2021-09-10 20:09,95.27,KVGT 102044Z 14008KT 10SM -RA FEW037 SCT060 BKN110 34/18 A2993 RMK AO2 PK WND 24028/2009 LTG DSNT N AND S AND NW RAB1958 TSB1954E29 P0009 T03390183,M
LAS,2021-09-10 20:49,-115.1634,36.0719,663.00,98.00,52.00,21.34,M,5.00,0.00,29.93,M,10.00,21.00,FEW,BKN,BKN,M,8000.00,12000.00,20000.00,M,TS,M,M,M,M,M,M,95.53,KLAS 102049Z VRB05G21KT 10SM TS FEW080 BKN120CB BKN200 37/11 A2993 RMK AO2 LTG DSNT N AND NW OCNL LTGICCC S-W-N TS S-W-N MOV N VCSH T03670111,M
ELY,2021-09-10 20:50,-114.8453,39.2950,1909.00,64.40,48.20,55.63,220.00,6.00,T,30.26,M,10.00,22.00,FEW,BKN,OVC,M,6000.00,10000.00,11000.00,M,-RA,M,M,M,47.00,220.00,2021-09-10 20:09,64.40,KELY 102050Z AUTO 22006G22KT 10SM -RA FEW060 BKN100 OVC110 18/09 A3026 RMK AO2 PK WND 22047/2009 LTG DSNT NE AND NW RAB18 P0000,M
ELY,2021-09-10 20:53,-114.8453,39.2950,1909.00,66.00,49.00,54.01,230.00,5.00,T,30.25,1015.60,10.00,M,BKN,BKN,M,M,9000.00,11000.00,M,M,-RA,M,M,M,47.00,220.00,2021-09-10 20:09,66.00,KELY 102053Z AUTO 23005KT 10SM -RA BKN090 BKN110 19/09 A3025 RMK AO2 PK WND 22047/2009 LTG DSNT NE AND NW RAB18 SLP156 P0000 60000 T01890094 53005,M
P68,2021-09-10 20:53,-116.0056,39.6014,1993.00,83.00,38.00,20.11,190.00,20.00,0.00,30.13,1010.50,M,29.00,M,M,M,M,M,M,M,M,M,M,M,M,35.00,250.00,2021-09-10 19:59,80.49,KP68 102053Z AUTO 19020G29KT 28/03 A3013 RMK AO1 PK WND 25035/1959 SLP105 T02830033 56015,M
DRA,2021-09-10 20:53,-116.0278,36.6206,1009.00,97.00,42.00,15.20,230.00,18.00,0.00,30.00,1010.20,10.00,29.00,FEW,M,M,M,11000.00,M,M,M,M,M,M,M,32.00,200.00,2021-09-10 20:31,92.69,KDRA 102053Z AUTO 23018G29KT 10SM FEW110 36/06 A3000 RMK AO2 PK WND 20032/2031 SLP102 T03610056 56019,M
VGT,2021-09-10 20:53,-115.1933,36.2111,667.00,91.00,63.00,39.49,150.00,7.00,0.10,29.92,1011.90,8.00,15.00,FEW,SCT,BKN,M,3800.00,7500.00,10000.00,M,-RA,M,M,M,28.00,240.00,2021-09-10 20:09,92.00,KVGT 102053Z 15007G15KT 8SM -RA FEW038 SCT075 BKN100 33/17 A2992 RMK AO2 PK WND 24028/2009 LTG DSNT N AND S RAB1958 TSB1954E29 SLP119 P0010 60010 T03280172 55015,M
LOL,2021-09-10 20:53,-118.5701,40.0684,1192.43,79.00,56.00,45.04,80.00,7.00,0.00,30.04,1013.50,10.00,M,CLR,M,M,M,M,M,M,M,M,M,M,M,M,M,M,79.00,KLOL 102053Z AUTO 08007KT 10SM CLR 26/13 A3004 RMK AO2 SLP135 60004 T02610133 58014,M
EKO,2021-09-10 20:54,-115.7860,40.8242,1367.00,73.40,48.20,40.85,280.00,18.08,M,30.13,M,10.00,25.08,SCT,SCT,M,M,10000.00,12001.00,M,M,M,M,M,M,27.00,260.00,2021-09-10 20:34,73.40,SPECI KEKO 102054Z 28018G25KT 10SM SCT100 SCT120 23/09 A3013 RMK AO2 PK WND 26027/2034 WSHFT 2007 LTG DSNT S RAE1957 P0000 FIBI,M
BAM,2021-09-10 20:55,-116.8743,40.5990,1382.36,82.40,46.40,28.36,350.00,11.00,0.00,30.09,M,10.00,17.00,SCT,M,M,M,11000.00,M,M,M,M,M,M,M,M,M,M,80.64,KBAM 102055Z AUTO 35011G17KT 10SM SCT110 28/08 A3009 RMK AO1,M
TMT,2021-09-10 20:55,-117.1971,39.4643,1749.34,83.80,39.20,20.56,220.00,21.00,0.00,30.13,M,10.00,27.00,SCT,M,M,M,12000.00,M,M,M,M,M,M,M,M,M,M,81.16,KTMT 102055Z AUTO 22021G27KT 10SM SCT120 29/04 A3013 RMK AO2 T02880040,M
BVU,2021-09-10 20:55,-114.8611,35.9475,671.00,100.40,48.20,17.28,200.00,7.00,0.00,29.92,M,10.00,M,SCT,M,M,M,11000.00,M,M,M,M,M,M,M,M,M,M,97.00,KBVU 102055Z AUTO 20007KT 10SM SCT110 38/09 A2992 RMK AO2 LTG DSNT S-NW,M
CXP,2021-09-10 20:55,-119.7326,39.1923,1431.00,78.80,46.40,31.90,250.00,12.00,0.00,30.10,M,10.00,17.00,SCT,BKN,OVC,M,7500.00,8500.00,11000.00,M,M,M,M,M,M,M,M,78.80,KCXP 102055Z AUTO 25012G17KT 10SM SCT075 BKN085 OVC110 26/08 A3010 RMK AO2,M
RNO,2021-09-10 20:55,-119.7711,39.4839,1341.00,80.00,51.00,36.44,320.00,8.00,0.00,30.07,1012.70,10.00,M,FEW,SCT,BKN,BKN,6000.00,7500.00,9000.00,15000.00,M,M,M,M,M,M,M,79.72,KRNO 102055Z 32008KT 10SM FEW060 SCT075 BKN090 BKN150 27/11 A3007 RMK AO2 SLP127 TCU DSNT S FU ALF AND HZ VC SE THRU SW T02670106 58013,M
MEV,2021-09-10 20:55,-119.7500,38.9963,1441.42,78.80,48.20,34.13,200.00,11.00,0.00,30.08,M,10.00,21.00,SCT,BKN,M,M,8000.00,9500.00,M,M,M,M,M,M,M,M,M,78.80,KMEV 102055Z AUTO 20011G21KT 10SM SCT080 BKN095 26/09 A3008 RMK AO2,M
RTS,2021-09-10 20:55,-119.8764,39.6682,1539.00,73.40,48.20,40.85,250.00,10.00,0.00,30.13,M,10.00,17.00,SCT,BKN,OVC,M,5500.00,6500.00,7500.00,M,M,M,M,M,M,M,M,73.40,KRTS 102055Z AUTO 25010G17KT 10SM SCT055 BKN065 OVC075 23/09 A3013 RMK AO2,M
EKO,2021-09-10 20:56,-115.7860,40.8242,1367.00,74.00,48.00,39.87,280.00,20.00,T,30.13,1014.00,10.00,26.00,SCT,SCT,M,M,10000.00,12000.00,M,M,M,M,M,M,27.00,260.00,2021-09-10 20:34,73.90,KEKO 102056Z AUTO 28020G26KT 10SM SCT100 SCT120 23/09 A3013 RMK AO2 PK WND 26027/2034 WSHFT 2007 LTG DSNT S RAE1957 SLP140 P0000 60000 T02330089 53007,M
NFL,2021-09-10 20:56,-118.7010,39.4166,1199.00,82.00,53.00,36.87,340.00,11.00,0.00,30.03,1013.80,10.00,M,SCT,BKN,BKN,M,7000.00,10000.00,15000.00,M,M,M,M,M,M,M,M,81.11,KNFL 102056Z 34011KT 10SM SCT070 BKN100 BKN150 28/12 A3003 RMK AO2 SLP138 60000 T02780117 58010,M
WMC,2021-09-10 20:56,-117.8072,40.9019,1315.00,73.00,56.00,55.00,350.00,10.00,0.00,30.10,1014.30,10.00,M,FEW,M,M,M,11000.00,M,M,M,M,M,M,M,M,M,M,73.00,KWMC 102056Z AUTO 35010KT 310V010 10SM FEW110 23/13 A3010 RMK AO2 RAE03 SLP143 6//// T02280133 58013,M
LAS,2021-09-10 20:56,-115.1634,36.0719,663.00,95.00,57.00,28.16,170.00,17.00,T,29.95,1011.20,6.00,28.00,FEW,BKN,BKN,M,8000.00,12000.00,20000.00,M,TSRA,M,M,M,28.00,140.00,2021-09-10 20:56,93.75,KLAS 102056Z 17017G28KT 6SM TSRA FEW080 BKN120CB BKN200 35/14 A2995 RMK AO2 PK WND 14028/2056 LTG DSNT N AND S RAB56 SLP112 OCNL LTGICCC S-W-N TS S-W-N MOV N VCSH P0000 60000 T03500139 55012,M
TPH,2021-09-10 20:56,-117.0904,38.0505,1654.00,89.00,33.00,13.64,210.00,24.00,0.00,30.13,1011.40,10.00,34.00,CLR,M,M,M,M,M,M,M,M,M,M,M,39.00,200.00,2021-09-10 20:46,85.16,KTPH 102056Z AUTO 21024G34KT 10SM CLR 32/01 A3013 RMK AO2 PK WND 20039/2046 SLP114 T03170006 56015,M
HND,2021-09-10 20:56,-115.1344,35.9729,742.79,89.00,57.00,33.85,M,4.00,0.11,29.97,1013.20,9.00,22.00,FEW,SCT,SCT,M,900.00,5000.00,11000.00,M,-TSRA,M,M,M,64.00,240.00,2021-09-10 20:44,87.74,KHND 102056Z VRB04G22KT 9SM -TSRA FEW009 SCT050 SCT110 32/14 A2997 RMK AO2 PK WND 24064/2044 WSHFT 2036 LTG DSNT S TSE24B37RAB45 SLP132 P0011 60011 T03170139 56016,M
INS,2021-09-10 20:58,-115.6733,36.5872,955.00,98.00,42.30,14.90,220.00,12.00,T,29.98,1010.10,10.00,24.00,CLR,M,M,M,M,M,M,M,M,M,M,M,M,M,M,93.57,KINS 102058Z AUTO 22012G24KT 10SM CLR 37/06 A2998 RMK AO2 DZB03E13DZB13E13 SLP101 P0000 60000 T03660057 57026 $,M
LSV,2021-09-10 20:58,-115.0343,36.2362,570.00,100.80,51.00,18.88,310.00,9.00,0.00,29.89,1009.30,10.00,18.00,FEW,FEW,M,M,12000.00,19000.00,M,M,M,M,M,M,M,M,M,98.07,KLSV 102058Z AUTO 31009G18KT 10SM FEW120 FEW190 38/11 A2989 RMK AO2 LTG DSNT S SLP093 T03820105 57019 $,M
VGT,2021-09-10 21:00,-115.1933,36.2111,667.00,94.00,63.00,36.08,110.00,8.00,T,29.91,M,10.00,M,FEW,SCT,BKN,M,4700.00,8000.00,11000.00,M,-TSRA,M,M,M,M,M,M,95.19,KVGT 102100Z 11008KT 10SM -TSRA FEW047 SCT080 BKN110 34/17 A2991 RMK AO2 LTG DSNT N AND S TSB00 P0000 T03440172,M
CXP,2021-09-10 21:15,-119.7326,39.1923,1431.00,78.80,46.40,31.90,250.00,12.00,0.00,30.09,M,10.00,17.00,SCT,BKN,BKN,M,7500.00,8500.00,11000.00,M,M,M,M,M,M,M,M,78.80,KCXP 102115Z AUTO 25012G17KT 10SM SCT075 BKN085 BKN110 26/08 A3009 RMK AO2,M
TMT,2021-09-10 21:15,-117.1971,39.4643,1749.34,81.00,40.30,23.49,250.00,29.00,0.00,30.14,M,7.00,34.00,BKN,M,M,M,12000.00,M,M,M,M,M,M,M,M,M,M,79.39,KTMT 102115Z AUTO 25029G34KT 7SM BKN120 27/05 A3014 RMK AO2 LTG DSNT W T02720046,M
BVU,2021-09-10 21:15,-114.8611,35.9475,671.00,102.20,48.20,16.37,210.00,17.00,0.00,29.91,M,10.00,M,SCT,M,M,M,11000.00,M,M,M,M,M,M,M,M,M,M,98.83,KBVU 102115Z AUTO 21017KT 10SM SCT110 39/09 A2991 RMK AO2 LTG DSNT SW-NW,M
RTS,2021-09-10 21:15,-119.8764,39.6682,1539.00,75.20,48.20,38.46,270.00,17.00,0.00,30.13,M,10.00,M,SCT,BKN,M,M,6500.00,7500.00,M,M,M,M,M,M,M,M,M,75.20,KRTS 102115Z AUTO 27017KT 10SM SCT065 BKN075 24/09 A3013 RMK AO2,M
BAM,2021-09-10 21:15,-116.8743,40.5990,1382.36,82.40,46.40,28.36,350.00,12.00,0.00,30.08,M,10.00,18.00,SCT,M,M,M,12000.00,M,M,M,M,M,M,M,M,M,M,80.64,KBAM 102115Z AUTO 35012G18KT 320V030 10SM SCT120 28/08 A3008 RMK AO1,M
MEV,2021-09-10 21:15,-119.7500,38.9963,1441.42,82.40,44.60,26.49,210.00,12.00,0.00,30.08,M,10.00,M,BKN,BKN,M,M,8000.00,11000.00,M,M,M,M,M,M,M,M,M,80.50,KMEV 102115Z AUTO 21012KT 10SM BKN080 BKN110 28/07 A3008 RMK AO2,M
LSV,2021-09-10 21:16,-115.0343,36.2362,570.00,100.40,51.80,19.76,240.00,6.00,0.00,29.89,1009.30,10.00,M,FEW,FEW,M,M,12000.00,19000.00,M,M,TS,M,M,M,M,M,M,97.90,KLSV 102116Z AUTO 24006KT 10SM TS FEW120 FEW190 38/11 A2989 RMK AO2 TSB16 SLP093 $,M
VGT,2021-09-10 21:24,-115.1933,36.2111,667.00,91.00,62.00,38.26,140.00,23.00,0.01,29.90,M,10.00,42.00,FEW,SCT,M,M,2300.00,12000.00,M,M,-TSRA SQ,M,M,M,42.00,140.00,2021-09-10 21:17,91.56,KVGT 102124Z 14023G42KT 10SM -TSRA SQ FEW023 SCT120 33/17 A2990 RMK AO2 PK WND 14042/2117 LTG DSNT SE AND S TSB00 P0001 T03280167,M
HND,2021-09-10 21:32,-115.1344,35.9729,742.79,84.20,60.80,45.34,80.00,12.00,0.06,29.96,M,10.00,21.00,FEW,BKN,BKN,M,4700.00,6500.00,8500.00,M,TS,M,M,M,27.00,90.00,2021-09-10 21:19,84.43,KHND 102132Z 08012G21KT 10SM TS FEW047 BKN065 BKN085 29/16 A2996 RMK AO2 PK WND 09027/2119 WSHFT 2112 LTG DSNT N RAE29 P0006,M
LSV,2021-09-10 21:34,-115.0343,36.2362,570.00,96.80,60.80,30.53,280.00,17.00,0.00,29.91,1010.20,10.00,28.00,SCT,M,M,M,11000.00,M,M,M,TS,M,M,M,M,M,M,97.33,KLSV 102134Z COR 28017G28KT 10SM TS SCT110 36/16 A2991 RMK AO2 WSHFT 28 TSB16 RAB16 PRESRR SLP102 $ COR 2141,M
LSV,2021-09-10 21:35,-115.0343,36.2362,570.00,96.80,60.80,30.53,280.00,17.00,0.00,29.91,1010.20,10.00,28.00,SCT,M,M,M,11000.00,M,M,M,-TSRA,M,M,M,M,M,M,97.33,KLSV 102135Z COR 28017G28KT 10SM -TSRA SCT110 36/16 A2991 RMK AO2 RAB16 TSB16 SLP102 $ COR 2142,M
BAM,2021-09-10 21:35,-116.8743,40.5990,1382.36,84.20,48.20,28.63,350.00,14.00,0.00,30.07,M,10.00,M,SCT,M,M,M,12000.00,M,M,M,M,M,M,M,M,M,M,82.04,KBAM 102135Z AUTO 35014KT 10SM SCT120 29/09 A3007 RMK AO1,M
CXP,2021-09-10 21:35,-119.7326,39.1923,1431.00,78.80,48.20,34.13,290.00,12.00,0.00,30.09,M,10.00,18.00,BKN,OVC,M,M,7500.00,9000.00,M,M,M,M,M,M,M,M,M,78.80,KCXP 102135Z AUTO 29012G18KT 10SM BKN075 OVC090 26/09 A3009 RMK AO2,M
BVU,2021-09-10 21:35,-114.8611,35.9475,671.00,102.20,48.20,16.37,180.00,14.00,0.00,29.91,M,10.00,20.00,FEW,M,M,M,11000.00,M,M,M,M,M,M,M,M,M,M,98.83,KBVU 102135Z AUTO 18014G20KT 10SM FEW110 39/09 A2991 RMK AO2 LTG DSNT SW AND NW,M
MEV,2021-09-10 21:35,-119.7500,38.9963,1441.42,80.60,44.60,28.08,190.00,11.00,0.00,30.07,M,10.00,M,BKN,BKN,M,M,8500.00,11000.00,M,M,M,M,M,M,M,M,M,79.42,KMEV 102135Z AUTO 19011KT 10SM BKN085 BKN110 27/07 A3007 RMK AO2,M
RTS,2021-09-10 21:35,-119.8764,39.6682,1539.00,73.40,48.20,40.85,250.00,16.00,0.00,30.12,M,10.00,23.00,SCT,BKN,BKN,M,6500.00,8000.00,10000.00,M,M,M,M,M,M,M,M,73.40,KRTS 102135Z AUTO 25016G23KT 10SM SCT065 BKN080 BKN100 23/09 A3012 RMK AO2,M
TMT,2021-09-10 21:35,-117.1971,39.4643,1749.34,83.80,40.80,21.88,260.00,11.00,0.00,30.11,M,10.00,16.00,SCT,M,M,M,11000.00,M,M,M,VCTS,M,M,M,M,M,M,81.22,KTMT 102135Z AUTO 26011G16KT 10SM VCTS SCT110 29/05 A3011 RMK AO2 LTG DSNT SW THRU N T02880049,M
VGT,2021-09-10 21:49,-115.1933,36.2111,667.00,91.40,60.80,36.08,120.00,17.00,0.01,29.91,M,10.00,27.00,CLR,M,M,M,M,M,M,M,VCTS,M,M,M,42.00,140.00,2021-09-10 21:17,91.40,KVGT 102149Z 12017G27KT 10SM VCTS CLR 33/16 A2991 RMK AO2 PK WND 14042/2117 LTG DSNT NE AND E RAE28 TSB00E43 P0001,M
INS,2021-09-10 21:52,-115.6733,36.5872,955.00,96.80,48.20,19.28,150.00,16.00,0.00,29.96,1009.40,9.00,21.00,FEW,FEW,M,M,12000.00,20000.00,M,M,M,M,M,M,M,M,M,93.36,KINS 102152Z AUTO 15016G21KT 9SM FEW120 FEW200 36/09 A2996 RMK AO2 WSHFT 51 SLP094 $,M
P68,2021-09-10 21:53,-116.0056,39.6014,1993.00,84.00,35.00,17.38,190.00,16.00,0.00,30.10,1009.60,M,25.00,M,M,M,M,M,M,M,M,M,M,M,M,36.00,220.00,2021-09-10 21:19,81.18,KP68 102153Z AUTO 19016G25KT 29/02 A3010 RMK AO1 PK WND 22036/2119 SLP096 T02890017,M
INS,2021-09-10 21:53,-115.6733,36.5872,955.00,96.80,48.20,19.28,210.00,14.00,0.00,29.96,1009.40,9.00,21.00,FEW,SCT,M,M,12000.00,20000.00,M,M,M,M,M,M,M,M,M,93.36,KINS 102153Z AUTO 21014G21KT 9SM FEW120 SCT200 36/09 A2996 RMK AO2 WSHFT 52 SLP094 $,M
VGT,2021-09-10 21:53,-115.1933,36.2111,667.00,92.00,60.00,34.65,110.00,16.00,0.01,29.91,1011.40,10.00,M,CLR,M,M,M,M,M,M,M,M,M,M,M,42.00,140.00,2021-09-10 21:17,91.63,KVGT 102153Z 11016KT 10SM CLR 33/16 A2991 RMK AO2 PK WND 14042/2117 LTG DSNT NE AND E RAE28 TSB00E43 SLP114 P0001 T03330156,M
DRA,2021-09-10 21:53,-116.0278,36.6206,1009.00,99.00,41.00,13.70,190.00,15.00,0.00,29.97,1009.40,10.00,27.00,FEW,M,M,M,11000.00,M,M,M,M,M,M,M,35.00,200.00,2021-09-10 21:43,94.47,KDRA 102153Z AUTO 19015G27KT 10SM FEW110 37/05 A2997 RMK AO2 PK WND 20035/2143 SLP094 T03720050,M
ELY,2021-09-10 21:53,-114.8453,39.2950,1909.00,78.00,44.00,29.91,M,4.00,T,30.21,1012.80,10.00,M,CLR,M,M,M,M,M,M,M,M,M,M,M,M,M,M,78.10,KELY 102153Z AUTO VRB04KT 10SM CLR 26/07 A3021 RMK AO2 RAE2059 SLP128 P0000 T02560067,M
LOL,2021-09-10 21:53,-118.5701,40.0684,1192.43,82.00,54.00,38.11,M,5.00,0.00,30.02,1012.60,10.00,M,CLR,M,M,M,M,M,M,M,M,M,M,M,M,M,M,81.24,KLOL 102153Z AUTO VRB05KT 10SM CLR 28/12 A3002 RMK AO2 SLP126 T02780122,M
MEV,2021-09-10 21:55,-119.7500,38.9963,1441.42,80.60,44.60,28.08,210.00,13.00,0.00,30.07,M,10.00,20.00,BKN,BKN,M,M,9000.00,11000.00,M,M,M,M,M,M,M,M,M,79.42,KMEV 102155Z AUTO 21013G20KT 10SM BKN090 BKN110 27/07 A3007 RMK AO2,M
RNO,2021-09-10 21:55,-119.7711,39.4839,1341.00,80.00,50.00,34.98,260.00,19.00,0.00,30.05,1012.10,10.00,24.00,FEW,SCT,BKN,BKN,6500.00,8000.00,10000.00,15000.00,M,M,M,M,M,M,M,79.60,KRNO 102155Z 26019G24KT 10SM FEW065 SCT080 BKN100 BKN150 27/10 A3005 RMK AO2 SLP121 FU ALF AND HZ DSNT SE THRU SW AND W T02670100,M
CXP,2021-09-10 21:55,-119.7326,39.1923,1431.00,77.00,48.20,36.22,280.00,10.00,0.00,30.09,M,10.00,18.00,SCT,BKN,OVC,M,7500.00,8500.00,12000.00,M,M,M,M,M,M,M,M,77.00,KCXP 102155Z AUTO 28010G18KT 10SM SCT075 BKN085 OVC120 25/09 A3009 RMK AO2,M
RTS,2021-09-10 21:55,-119.8764,39.6682,1539.00,77.00,48.20,36.22,250.00,14.00,0.00,30.12,M,10.00,21.00,FEW,M,M,M,10000.00,M,M,M,M,M,M,M,M,M,M,77.00,KRTS 102155Z AUTO 25014G21KT 10SM FEW100 25/09 A3012 RMK AO2,M
BAM,2021-09-10 21:55,-116.8743,40.5990,1382.36,86.00,46.40,25.26,330.00,12.00,0.00,30.05,M,10.00,16.00,CLR,M,M,M,M,M,M,M,M,M,M,M,M,M,M,83.22,KBAM 102155Z AUTO 33012G16KT 10SM CLR 30/08 A3005 RMK AO1,M
TMT,2021-09-10 21:55,-117.1971,39.4643,1749.34,84.20,40.00,20.85,200.00,12.00,0.00,30.10,M,10.00,21.00,SCT,M,M,M,10000.00,M,M,M,M,M,M,M,M,M,M,81.47,KTMT 102155Z AUTO 20012G21KT 170V230 10SM SCT100 29/04 A3010 RMK AO2 LTG DSNT W THRU N T02900044,M
BVU,2021-09-10 21:55,-114.8611,35.9475,671.00,102.20,46.40,15.30,180.00,15.00,0.00,29.91,M,10.00,M,CLR,M,M,M,M,M,M,M,M,M,M,M,M,M,M,98.43,KBVU 102155Z AUTO 18015KT 10SM CLR 39/08 A2991 RMK AO2 LTG DSNT N,M
WMC,2021-09-10 21:56,-117.8072,40.9019,1315.00,77.00,53.00,43.44,M,3.00,0.00,30.08,1013.60,10.00,M,FEW,M,M,M,10000.00,M,M,M,M,M,M,M,M,M,M,77.00,KWMC 102156Z AUTO VRB03KT 10SM FEW100 25/12 A3008 RMK AO2 SLP136 T02500117 $,M
HND,2021-09-10 21:56,-115.1344,35.9729,742.79,90.00,66.00,45.25,110.00,7.00,0.06,29.95,1012.50,10.00,M,FEW,M,M,M,4600.00,M,M,M,M,M,M,M,27.00,90.00,2021-09-10 21:19,92.59,KHND 102156Z 11007KT 10SM FEW046 32/19 A2995 RMK AO2 PK WND 09027/2119 WSHFT 2112 LTG DSNT N AND NE TSE52RAE53 SLP125 P0006 T03220189,M
LAS,2021-09-10 21:56,-115.1634,36.0719,663.00,90.00,63.00,40.75,90.00,8.00,0.12,29.92,1010.20,10.00,18.00,FEW,SCT,BKN,M,8000.00,12000.00,18000.00,M,TS,M,M,M,26.00,110.00,2021-09-10 21:26,90.93,KLAS 102156Z 09008G18KT 10SM TS FEW080 SCT120CB BKN180 32/17 A2992 RMK AO2 PK WND 11026/2126 LTG DSNT N AND NE RAE46 SLP102 OCNL LTGICCC OHD-N-E TS OHD-N-E MOV N VCSH CB DSNT N-E-S P0012 T03220172,M
EKO,2021-09-10 21:56,-115.7860,40.8242,1367.00,80.00,48.00,32.46,220.00,6.00,T,30.09,1012.20,10.00,M,FEW,M,M,M,11000.00,M,M,M,M,M,M,M,M,M,M,79.42,KEKO 102156Z AUTO 22006KT 10SM FEW110 27/09 A3009 RMK AO2 RAB07E17 SLP122 P0000 T02670089,M
NFL,2021-09-10 21:56,-118.7010,39.4166,1199.00,85.00,51.00,31.19,50.00,6.00,0.00,30.01,1013.10,10.00,M,SCT,BKN,BKN,M,7000.00,10000.00,15000.00,M,M,M,M,M,M,M,M,82.90,KNFL 102156Z 05006KT 10SM SCT070 BKN100 BKN150 29/11 A3001 RMK AO2 SLP131 T02940106,M
TPH,2021-09-10 21:56,-117.0904,38.0505,1654.00,89.00,32.00,13.05,200.00,25.00,0.00,30.11,1010.70,10.00,32.00,CLR,M,M,M,M,M,M,M,M,M,M,M,38.00,200.00,2021-09-10 21:05,85.15,KTPH 102156Z AUTO 20025G32KT 10SM CLR 32/00 A3011 RMK AO2 PK WND 20038/2105 SLP107 T03170000,M
LSV,2021-09-10 21:58,-115.0343,36.2362,570.00,88.20,61.30,40.62,70.00,6.00,0.02,29.88,1009.40,10.00,M,FEW,SCT,M,M,7000.00,17000.00,M,M,-TSRA,M,M,M,28.00,240.00,2021-09-10 21:27,88.34,KLSV 102158Z 07006KT 10SM -TSRA FEW070 SCT170 31/16 A2988 RMK PK WND 24028/2127 RAB2116E56 TSB16 SLP094 P0002 T03120163 $,M
INS,2021-09-10 21:58,-115.6733,36.5872,955.00,97.00,47.80,18.88,150.00,9.00,0.00,29.96,1009.40,9.00,21.00,FEW,SCT,M,M,12000.00,21000.00,M,M,M,M,M,M,27.00,110.00,2021-09-10 21:25,93.48,KINS 102158Z AUTO 15009G21KT 9SM FEW120 SCT210 36/09 A2996 RMK AO2 PK WND 11027/25 SLP094 T03610088 $,M
MEV,2021-09-10 22:15,-119.7500,38.9963,1441.42,80.60,46.40,30.07,250.00,9.00,0.00,30.07,M,10.00,22.00,SCT,BKN,M,M,8500.00,11000.00,M,M,M,M,M,M,M,M,M,79.56,KMEV 102215Z AUTO 25009G22KT 190V280 10SM SCT085 BKN110 27/08 A3007 RMK AO2,M
CXP,2021-09-10 22:15,-119.7326,39.1923,1431.00,77.00,48.20,36.22,260.00,8.00,0.00,30.08,M,10.00,17.00,FEW,BKN,M,M,8500.00,12000.00,M,M,M,M,M,M,M,M,M,77.00,KCXP 102215Z AUTO 26008G17KT 10SM FEW085 BKN120 25/09 A3008 RMK AO2,M
BVU,2021-09-10 22:15,-114.8611,35.9475,671.00,102.20,46.40,15.30,180.00,14.00,0.00,29.90,M,10.00,21.00,FEW,M,M,M,12000.00,M,M,M,M,M,M,M,M,M,M,98.43,KBVU 102215Z AUTO 18014G21KT 10SM FEW120 39/08 A2990 RMK AO2,M
BAM,2021-09-10 22:15,-116.8743,40.5990,1382.36,80.60,46.40,30.07,330.00,9.00,0.00,30.06,M,10.00,M,SCT,SCT,BKN,M,5500.00,6500.00,10000.00,M,M,M,M,M,M,M,M,79.56,KBAM 102215Z AUTO 33009KT 10SM SCT055 SCT065 BKN100 27/08 A3006 RMK AO1,M
TMT,2021-09-10 22:15,-117.1971,39.4643,1749.34,75.70,46.40,35.35,280.00,21.00,0.00,30.12,M,10.00,35.00,SCT,BKN,M,M,10000.00,12000.00,M,M,M,M,M,M,M,M,M,75.70,KTMT 102215Z AUTO 28021G35KT 10SM SCT100 BKN120 24/08 A3012 RMK AO2 LTG DSNT N AND NW T02430080,M
RTS,2021-09-10 22:15,-119.8764,39.6682,1539.00,77.00,48.20,36.22,250.00,17.00,0.00,30.12,M,10.00,M,FEW,M,M,M,12000.00,M,M,M,M,M,M,M,M,M,M,77.00,KRTS 102215Z AUTO 25017KT 10SM FEW120 25/09 A3012 RMK AO2,M
LAS,2021-09-10 22:21,-115.1634,36.0719,663.00,94.00,60.00,32.56,120.00,9.00,T,29.91,M,10.00,M,FEW,SCT,BKN,M,8000.00,12000.00,18000.00,M,-RA,M,M,M,M,M,M,93.77,KLAS 102221Z 12009KT 10SM -RA FEW080 SCT120 BKN180 34/16 A2991 RMK AO2 LTG DSNT NE RAB19 TSE20 TS MOV NE VCSH CB DSNT N-E-S P0000 T03440156,M
INS,2021-09-10 22:22,-115.6733,36.5872,955.00,96.80,48.20,19.28,190.00,12.00,0.00,29.95,1009.00,10.00,18.00,FEW,M,M,M,12000.00,M,M,M,M,M,M,M,M,M,M,93.36,KINS 102222Z AUTO 19012G18KT 10SM FEW120 36/09 A2995 RMK AO2 WSHFT 15 SLP090 $,M
CXP,2021-09-10 22:35,-119.7326,39.1923,1431.00,77.00,48.20,36.22,270.00,12.00,0.00,30.08,M,10.00,20.00,FEW,SCT,M,M,9000.00,12000.00,M,M,M,M,M,M,M,M,M,77.00,KCXP 102235Z AUTO 27012G20KT 10SM FEW090 SCT120 25/09 A3008 RMK AO2,M
BAM,2021-09-10 22:35,-116.8743,40.5990,1382.36,78.80,48.20,34.13,320.00,14.00,0.00,30.07,M,10.00,M,SCT,SCT,BKN,M,3900.00,5000.00,11000.00,M,M,M,M,M,M,M,M,78.80,KBAM 102235Z AUTO 32014KT 10SM SCT039 SCT050 BKN110 26/09 A3007 RMK AO1,M
TMT,2021-09-10 22:35,-117.1971,39.4643,1749.34,76.30,46.80,35.17,290.00,12.00,0.00,30.11,M,10.00,22.00,SCT,M,M,M,10000.00,M,M,M,M,M,M,M,M,M,M,76.30,KTMT 102235Z AUTO 29012G22KT 10SM SCT100 25/08 A3011 RMK AO2 T02460082,M
RTS,2021-09-10 22:35,-119.8764,39.6682,1539.00,77.00,48.20,36.22,250.00,13.00,0.00,30.12,M,10.00,21.00,FEW,M,M,M,12000.00,M,M,M,M,M,M,M,M,M,M,77.00,KRTS 102235Z AUTO 25013G21KT 10SM FEW120 25/09 A3012 RMK AO2,M
MEV,2021-09-10 22:35,-119.7500,38.9963,1441.42,80.60,44.60,28.08,200.00,15.00,0.00,30.07,M,10.00,22.00,FEW,SCT,M,M,8500.00,11000.00,M,M,M,M,M,M,M,M,M,79.42,KMEV 102235Z AUTO 20015G22KT 10SM FEW085 SCT110 27/07 A3007 RMK AO2,M
BVU,2021-09-10 22:35,-114.8611,35.9475,671.00,104.00,44.60,13.54,200.00,15.00,0.00,29.89,M,10.00,20.00,CLR,M,M,M,M,M,M,M,M,M,M,M,M,M,M,99.82,KBVU 102235Z AUTO 20015G20KT 10SM CLR 40/07 A2989 RMK AO2 LTG DSNT N,M
P68,2021-09-10 22:42,-116.0056,39.6014,1993.00,84.00,40.00,20.99,160.00,22.00,0.00,30.08,M,M,31.00,M,M,M,M,M,M,M,M,M,M,M,M,31.00,150.00,2021-09-10 22:40,81.33,KP68 102242Z AUTO 16022G31KT 29/04 A3008 RMK AO1 PK WND 15031/2240 WSHFT 2225 T02890044,M
INS,2021-09-10 22:43,-115.6733,36.5872,955.00,96.80,46.40,18.02,220.00,14.00,0.00,29.95,1009.00,10.00,21.00,FEW,M,M,M,12000.00,M,M,M,M,M,M,M,M,M,M,93.05,KINS 102243Z AUTO 22014G21KT 10SM FEW120 36/08 A2995 RMK AO2 WSHFT 35 SLP090 $,M
CXP,2021-09-10 22:50,-119.7326,39.1923,1431.00,78.80,48.20,34.13,270.00,13.00,0.00,30.08,M,10.00,19.00,SCT,BKN,M,M,8500.00,12000.00,M,M,M,M,M,M,M,M,M,78.80,KCXP 102250Z AUTO 27013G19KT 10SM SCT085 BKN120 26/09 A3008 RMK AO2,M
VGT,2021-09-10 22:53,-115.1933,36.2111,667.00,97.00,57.00,26.49,0.00,0.00,0.00,29.89,1010.80,10.00,M,CLR,M,M,M,M,M,M,M,M,M,M,M,M,M,M,95.92,KVGT 102253Z 00000KT 10SM CLR 36/14 A2989 RMK AO2 SLP108 T03610139,M
LOL,2021-09-10 22:53,-118.5701,40.0684,1192.43,83.00,53.00,35.81,280.00,6.00,0.00,30.01,1012.10,10.00,M,SCT,BKN,M,M,8000.00,9500.00,M,M,M,M,M,M,M,M,M,81.73,KLOL 102253Z AUTO 28006KT 10SM SCT080 BKN095 28/12 A3001 RMK AO2 SLP121 T02830117,M
P68,2021-09-10 22:53,-116.0056,39.6014,1993.00,85.00,38.00,18.86,170.00,18.00,0.00,30.08,1008.90,M,25.00,M,M,M,M,M,M,M,M,M,M,M,M,31.00,150.00,2021-09-10 22:40,81.91,KP68 102253Z AUTO 17018G25KT 29/03 A3008 RMK AO1 PK WND 15031/2240 WSHFT 2225 SLP089 T02940033,M
ELY,2021-09-10 22:53,-114.8453,39.2950,1909.00,78.00,46.00,32.15,170.00,18.00,T,30.18,1012.70,9.00,31.00,BKN,M,M,M,11000.00,M,M,M,-RA,M,M,M,31.00,190.00,2021-09-10 22:42,78.10,KELY 102253Z AUTO 17018G31KT 9SM -RA BKN110 26/08 A3018 RMK AO2 PK WND 19031/2242 LTG DSNT NW RAB45 SLP127 P0000 T02560078,M
DRA,2021-09-10 22:53,-116.0278,36.6206,1009.00,99.00,39.00,12.68,230.00,19.00,0.00,29.95,1008.80,10.00,28.00,FEW,M,M,M,12000.00,M,M,M,M,M,M,M,37.00,200.00,2021-09-10 22:05,94.19,KDRA 102253Z AUTO 23019G28KT 10SM FEW120 37/04 A2995 RMK AO2 PK WND 20037/2205 SLP088 T03720039,M
BAM,2021-09-10 22:55,-116.8743,40.5990,1382.36,71.60,55.40,56.63,340.00,13.00,0.00,30.08,M,10.00,22.00,SCT,SCT,BKN,M,6500.00,7500.00,9000.00,M,M,M,M,M,M,M,M,71.60,KBAM 102255Z AUTO 34013G22KT 10SM SCT065 SCT075 BKN090 22/13 A3008 RMK AO1,M
RTS,2021-09-10 22:55,-119.8764,39.6682,1539.00,75.20,46.40,35.94,250.00,18.00,0.00,30.12,M,10.00,24.00,CLR,M,M,M,M,M,M,M,M,M,M,M,M,M,M,75.20,KRTS 102255Z AUTO 25018G24KT 10SM CLR 24/08 A3012 RMK AO2,M
RNO,2021-09-10 22:55,-119.7711,39.4839,1341.00,80.00,49.00,33.58,270.00,19.00,0.00,30.05,1012.00,10.00,28.00,BKN,BKN,M,M,8000.00,15000.00,M,M,M,M,M,M,28.00,270.00,2021-09-10 22:47,79.50,KRNO 102255Z 27019G28KT 10SM BKN080 BKN150 27/09 A3005 RMK AO2 PK WND 27028/2247 SLP120 TCU DSNT NE AND SW T02670094,M
TMT,2021-09-10 22:55,-117.1971,39.4643,1749.34,80.80,44.80,28.11,290.00,11.00,0.00,30.11,M,10.00,M,SCT,M,M,M,11000.00,M,M,M,M,M,M,M,M,M,M,79.55,KTMT 102255Z AUTO 29011KT 10SM SCT110 27/07 A3011 RMK AO2 T02710071,M
MEV,2021-09-10 22:55,-119.7500,38.9963,1441.42,80.60,44.60,28.08,210.00,15.00,0.00,30.07,M,10.00,M,FEW,SCT,SCT,M,8000.00,9000.00,12000.00,M,M,M,M,M,M,M,M,79.42,KMEV 102255Z AUTO 21015KT 10SM FEW080 SCT090 SCT120 27/07 A3007 RMK AO2,M
BVU,2021-09-10 22:55,-114.8611,35.9475,671.00,102.20,46.40,15.30,200.00,8.00,0.00,29.89,M,10.00,20.00,CLR,M,M,M,M,M,M,M,M,M,M,M,M,M,M,98.43,KBVU 102255Z AUTO 20008G20KT 10SM CLR 39/08 A2989 RMK AO2,M
LAS,2021-09-10 22:56,-115.1634,36.0719,663.00,96.00,53.00,23.62,0.00,0.00,T,29.89,1009.20,10.00,M,FEW,SCT,BKN,M,8000.00,12000.00,18000.00,M,M,M,M,M,36.00,290.00,2021-09-10 22:40,93.72,KLAS 102256Z 00000KT 10SM FEW080 SCT120 BKN180 36/12 A2989 RMK AO2 PK WND 29036/2240 RAB19E51 TSE20 SLP092 TS MOV NE VCSH CB DSNT N-E-S P0000 T03560117,M
NFL,2021-09-10 22:56,-118.7010,39.4166,1199.00,84.00,51.00,32.10,20.00,7.00,0.00,29.99,1012.70,10.00,M,SCT,BKN,M,M,6000.00,15000.00,M,M,M,M,M,M,M,M,M,82.23,KNFL 102256Z 02007KT 10SM SCT060 BKN150 29/11 A2999 RMK AO2 SLP127 SH DSNT S AND NW T02890106,M
WMC,2021-09-10 22:56,-117.8072,40.9019,1315.00,78.00,53.00,41.89,320.00,7.00,0.00,30.07,1013.10,10.00,M,CLR,M,M,M,M,M,M,M,M,M,M,M,M,M,M,78.10,KWMC 102256Z AUTO 32007KT 10SM CLR 26/12 A3007 RMK AO2 SLP131 T02560117 $,M
TPH,2021-09-10 22:56,-117.0904,38.0505,1654.00,89.00,36.00,15.31,220.00,16.00,0.00,30.10,1010.80,10.00,M,SCT,M,M,M,10000.00,M,M,M,M,M,M,M,33.00,200.00,2021-09-10 22:13,85.21,KTPH 102256Z AUTO 22016KT 10SM SCT100 32/02 A3010 RMK AO2 PK WND 20033/2213 SLP108 T03170022,M
HND,2021-09-10 22:56,-115.1344,35.9729,742.79,98.00,54.00,22.97,170.00,11.00,0.00,29.92,1011.40,10.00,19.00,CLR,M,M,M,M,M,M,M,M,M,M,M,M,M,M,96.10,KHND 102256Z 17011G19KT 10SM CLR 37/12 A2992 RMK AO2 SLP114 T03670122,M
EKO,2021-09-10 22:56,-115.7860,40.8242,1367.00,80.00,46.00,30.11,90.00,9.00,0.00,30.07,1012.10,10.00,M,FEW,M,M,M,11000.00,M,M,M,M,M,M,M,M,M,M,79.26,KEKO 102256Z AUTO 09009KT 10SM FEW110 27/08 A3007 RMK AO2 SLP121 T02670078,M
INS,2021-09-10 22:58,-115.6733,36.5872,955.00,97.00,47.80,18.88,190.00,18.00,0.00,29.95,1009.20,10.00,24.00,SCT,M,M,M,12000.00,M,M,M,M,M,M,M,M,M,M,93.48,KINS 102258Z AUTO 19018G24KT 10SM SCT120 36/09 A2995 RMK AO2 SLP092 T03610088 $,M
LSV,2021-09-10 22:58,-115.0343,36.2362,570.00,92.30,61.30,35.71,50.00,9.00,T,29.86,1008.50,10.00,M,FEW,SCT,M,M,14000.00,17000.00,M,M,M,M,M,M,M,M,M,92.58,KLSV 102258Z 05009KT 10SM FEW140 SCT170 34/16 A2986 RMK TSB16E58 SLP085 P0000 T03350163 $,M
CXP,2021-09-10 23:15,-119.7326,39.1923,1431.00,80.60,48.20,32.18,270.00,17.00,0.00,30.08,M,10.00,23.00,SCT,BKN,M,M,8500.00,12000.00,M,M,M,M,M,M,M,M,M,79.71,KCXP 102315Z AUTO 27017G23KT 10SM SCT085 BKN120 27/09 A3008 RMK AO2,M
BAM,2021-09-10 23:15,-116.8743,40.5990,1382.36,71.60,55.40,56.63,330.00,13.00,0.00,30.09,M,10.00,19.00,SCT,BKN,OVC,M,3600.00,10000.00,12000.00,M,M,M,M,M,M,M,M,71.60,KBAM 102315Z AUTO 33013G19KT 10SM SCT036 BKN100 OVC120 22/13 A3009 RMK AO1,M
MEV,2021-09-10 23:15,-119.7500,38.9963,1441.42,80.60,48.20,32.18,240.00,9.00,0.00,30.08,M,10.00,19.00,SCT,SCT,M,M,8500.00,12000.00,M,M,M,M,M,M,M,M,M,79.71,KMEV 102315Z AUTO 24009G19KT 10SM SCT085 SCT120 27/09 A3008 RMK AO2,M
RTS,2021-09-10 23:15,-119.8764,39.6682,1539.00,75.20,46.40,35.94,250.00,21.00,0.00,30.11,M,10.00,27.00,FEW,M,M,M,12000.00,M,M,M,M,M,M,M,M,M,M,75.20,KRTS 102315Z AUTO 25021G27KT 10SM FEW120 24/08 A3011 RMK AO2,M
BVU,2021-09-10 23:15,-114.8611,35.9475,671.00,100.40,44.60,15.08,170.00,10.00,0.00,29.88,M,10.00,17.00,FEW,M,M,M,12000.00,M,M,M,M,M,M,M,M,M,M,96.31,KBVU 102315Z AUTO 17010G17KT 10SM FEW120 38/07 A2988 RMK AO2,M
TMT,2021-09-10 23:15,-117.1971,39.4643,1749.34,76.30,47.00,35.57,170.00,23.00,0.00,30.16,M,10.00,29.00,SCT,BKN,BKN,M,8000.00,10000.00,12000.00,M,TS,M,M,M,M,M,M,76.30,KTMT 102315Z AUTO 17023G29KT 10SM TS SCT080 BKN100 BKN120 25/08 A3016 RMK AO2 LTG DSNT ALQS T02460084,M
P68,2021-09-10 23:23,-116.0056,39.6014,1993.00,84.00,34.00,16.63,230.00,21.00,0.00,30.08,M,M,29.00,M,M,M,M,M,M,M,M,M,M,M,M,31.00,190.00,2021-09-10 23:10,81.16,KP68 102323Z AUTO 23021G29KT 29/01 A3008 RMK AO1 PK WND 19031/2310 WSHFT 2306 T02890011,M
CXP,2021-09-10 23:35,-119.7326,39.1923,1431.00,80.60,48.20,32.18,270.00,14.00,0.00,30.09,M,10.00,21.00,FEW,M,M,M,12000.00,M,M,M,M,M,M,M,M,M,M,79.71,KCXP 102335Z AUTO 27014G21KT 10SM FEW120 27/09 A3009 RMK AO2,M
RTS,2021-09-10 23:35,-119.8764,39.6682,1539.00,75.20,46.40,35.94,250.00,20.00,0.00,30.11,M,10.00,28.00,FEW,M,M,M,12000.00,M,M,M,M,M,M,M,M,M,M,75.20,KRTS 102335Z AUTO 25020G28KT 10SM FEW120 24/08 A3011 RMK AO2,M
TMT,2021-09-10 23:35,-117.1971,39.4643,1749.34,70.00,48.60,46.54,190.00,20.00,0.00,30.16,M,10.00,29.00,SCT,SCT,OVC,M,4000.00,4800.00,9500.00,M,-TSRA,M,M,M,M,M,M,70.00,KTMT 102335Z AUTO 19020G29KT 10SM -TSRA SCT040 SCT048 OVC095 21/09 A3016 RMK AO2 LTG DSNT NE AND E T02110092,M
MEV,2021-09-10 23:35,-119.7500,38.9963,1441.42,80.60,44.60,28.08,200.00,12.00,0.00,30.08,M,10.00,19.00,BKN,BKN,M,M,8500.00,11000.00,M,M,M,M,M,M,M,M,M,79.42,KMEV 102335Z AUTO 20012G19KT 10SM BKN085 BKN110 27/07 A3008 RMK AO2,M
BAM,2021-09-10 23:35,-116.8743,40.5990,1382.36,71.60,55.40,56.63,340.00,7.00,0.00,30.09,M,10.00,M,BKN,BKN,M,M,10000.00,12000.00,M,M,M,M,M,M,M,M,M,71.60,KBAM 102335Z AUTO 34007KT 10SM BKN100 BKN120 22/13 A3009 RMK AO1,M
BVU,2021-09-10 23:35,-114.8611,35.9475,671.00,102.20,46.40,15.30,160.00,15.00,0.00,29.87,M,10.00,M,FEW,M,M,M,12000.00,M,M,M,M,M,M,M,M,M,M,98.43,KBVU 102335Z AUTO 16015KT 10SM FEW120 39/08 A2987 RMK AO2,M
HND,2021-09-10 23:44,-115.1344,35.9729,742.79,100.40,51.80,19.76,220.00,11.00,0.00,29.91,M,10.00,M,FEW,M,M,M,12000.00,M,M,M,VCTS,M,M,M,M,M,M,97.90,KHND 102344Z 22011KT 10SM VCTS FEW120 38/11 A2991 RMK AO2 TSB38,M
LOL,2021-09-10 23:53,-118.5701,40.0684,1192.43,84.00,52.00,33.19,320.00,8.00,0.00,30.02,1012.50,10.00,M,SCT,BKN,M,M,7000.00,8500.00,M,M,M,M,M,M,M,M,M,82.36,KLOL 102353Z AUTO 32008KT 10SM SCT070 BKN085 29/11 A3002 RMK AO2 SLP125 60004 T02890111 10300 20194 55007,M
VGT,2021-09-10 23:53,-115.1933,36.2111,667.00,99.00,52.00,20.77,60.00,4.00,0.00,29.86,1009.80,10.00,M,CLR,M,M,M,M,M,M,M,M,M,M,M,M,M,M,96.47,KVGT 102353Z 06004KT 10SM CLR 37/11 A2986 RMK AO2 LTG DSNT SE SLP098 60011 T03720111 10389 20317 58016,M
ELY,2021-09-10 23:53,-114.8453,39.2950,1909.00,81.00,43.00,26.08,190.00,14.00,T,30.16,1011.50,10.00,M,FEW,M,M,M,10000.00,M,M,M,M,M,M,M,M,M,M,79.54,KELY 102353Z AUTO 19014KT 10SM FEW100 27/06 A3016 RMK AO2 RAE2255 SLP115 P0000 60000 T02720061 10289 20183 56027,M
DRA,2021-09-10 23:53,-116.0278,36.6206,1009.00,95.00,43.00,16.73,200.00,11.00,0.00,29.95,1009.00,10.00,23.00,CLR,M,M,M,M,M,M,M,M,M,M,M,29.00,200.00,2021-09-10 23:11,90.88,KDRA 102353Z AUTO 20011G23KT 10SM CLR 35/06 A2995 RMK AO2 PK WND 20029/2311 SLP090 T03500061 10378 20322 56014,M
P68,2021-09-10 23:53,-116.0056,39.6014,1993.00,86.00,36.00,16.89,220.00,17.00,0.00,30.08,1009.00,M,26.00,M,M,M,M,M,M,M,M,M,M,M,M,31.00,190.00,2021-09-10 23:10,82.70,KP68 102353Z AUTO 22017G26KT 30/02 A3008 RMK AO1 PK WND 19031/2310 WSHFT 2306 SLP090 T03000022 10306 20256 56014,M
MEV,2021-09-10 23:55,-119.7500,38.9963,1441.42,80.60,46.40,30.07,190.00,10.00,0.00,30.08,M,10.00,18.00,BKN,SCT,M,M,9000.00,11000.00,M,M,M,M,M,M,M,M,M,79.56,KMEV 102355Z AUTO 19010G18KT 10SM BKN090 SCT110 27/08 A3008 RMK AO2,M
RNO,2021-09-10 23:55,-119.7711,39.4839,1341.00,81.00,49.00,32.60,260.00,15.00,0.00,30.06,1012.20,10.00,24.00,SCT,BKN,M,M,8000.00,15000.00,M,M,M,M,M,M,27.00,270.00,2021-09-10 23:00,80.01,KRNO 102355Z 26015G24KT 10SM SCT080 BKN150 27/09 A3006 RMK AO2 PK WND 27027/2300 SLP122 TCU DSNT NE AND SE THRU SW T02720094 10278 20211 55003,M
RTS,2021-09-10 23:55,-119.8764,39.6682,1539.00,75.20,46.40,35.94,250.00,20.00,0.00,30.11,M,10.00,26.00,FEW,M,M,M,12000.00,M,M,M,M,M,M,M,M,M,M,75.20,KRTS 102355Z AUTO 25020G26KT 10SM FEW120 24/08 A3011 RMK AO2,M
BAM,2021-09-10 23:55,-116.8743,40.5990,1382.36,73.40,53.60,49.90,330.00,11.00,0.00,30.08,M,10.00,M,SCT,SCT,M,M,9000.00,12000.00,M,M,M,M,M,M,M,M,M,73.40,KBAM 102355Z AUTO 33011KT 10SM SCT090 SCT120 23/12 A3008 RMK AO1,M
TMT,2021-09-10 23:55,-117.1971,39.4643,1749.34,68.40,51.00,53.95,130.00,4.00,0.00,30.12,M,10.00,M,SCT,SCT,BKN,M,3800.00,4900.00,8500.00,M,M,M,M,M,M,M,M,68.40,KTMT 102355Z AUTO 13004KT 10SM SCT038 SCT049 BKN085 20/11 A3012 RMK AO2 T02020106 10295 20193,M
CXP,2021-09-10 23:55,-119.7326,39.1923,1431.00,80.60,48.20,32.18,280.00,15.00,0.00,30.09,M,10.00,22.00,SCT,M,M,M,11000.00,M,M,M,M,M,M,M,M,M,M,79.71,KCXP 102355Z AUTO 28015G22KT 10SM SCT110 27/09 A3009 RMK AO2,M
BVU,2021-09-10 23:55,-114.8611,35.9475,671.00,100.40,46.40,16.15,170.00,14.00,0.00,29.88,M,10.00,21.00,FEW,M,M,M,12000.00,M,M,M,M,M,M,M,M,M,M,96.63,KBVU 102355Z AUTO 17014G21KT 10SM FEW120 38/08 A2988 RMK AO2,M
WMC,2021-09-10 23:56,-117.8072,40.9019,1315.00,76.00,52.00,43.28,320.00,9.00,0.00,30.08,1013.60,10.00,M,CLR,M,M,M,M,M,M,M,M,M,M,M,M,M,M,75.90,KWMC 102356Z AUTO 32009KT 10SM CLR 24/11 A3008 RMK AO2 SLP136 6//// T02440111 10261 20183 55006,M
EKO,2021-09-10 23:56,-115.7860,40.8242,1367.00,75.00,51.00,43.14,170.00,7.00,T,30.10,1013.60,10.00,M,SCT,BKN,OVC,M,5000.00,9000.00,11000.00,M,M,M,M,M,M,M,M,75.00,KEKO 102356Z AUTO 17007KT 10SM SCT050 BKN090 OVC110 24/11 A3010 RMK AO2 RAB31E46 SLP136 P0000 60000 T02390106 10311 20228 55008,M
HND,2021-09-10 23:56,-115.1344,35.9729,742.79,100.00,50.00,18.71,230.00,13.00,0.00,29.91,1011.00,10.00,M,FEW,M,M,M,12000.00,M,M,M,VCTS,M,M,M,M,M,M,97.00,KHND 102356Z 23013KT 10SM VCTS FEW120 38/10 A2991 RMK AO2 LTG DSNT NE TSB38E53B55 SLP110 60017 T03780100 10383 20283 56018,M
LAS,2021-09-10 23:56,-115.1634,36.0719,663.00,95.00,59.00,30.26,70.00,6.00,0.00,29.88,1009.00,10.00,M,FEW,BKN,BKN,M,8000.00,12000.00,18000.00,M,M,M,M,M,M,M,M,94.51,KLAS 102356Z 07006KT 10SM FEW080 BKN120CB BKN180 35/15 A2988 RMK AO2 LTG DSNT E AND SE SLP090 VCSH CB NE-SE MOV NE 60012 T03500150 10389 20289 56021,M
TPH,2021-09-10 23:56,-117.0904,38.0505,1654.00,87.00,40.00,19.01,210.00,16.00,0.00,30.09,1010.70,10.00,26.00,CLR,M,M,M,M,M,M,M,M,M,M,M,31.00,190.00,2021-09-10 23:46,83.68,KTPH 102356Z AUTO 21016G26KT 10SM CLR 31/04 A3009 RMK AO2 PK WND 19031/2346 SLP107 T03060044 10322 20289 56012,M
NFL,2021-09-10 23:56,-118.7010,39.4166,1199.00,84.00,52.00,33.19,300.00,11.00,0.00,30.00,1013.00,10.00,M,SCT,BKN,BKN,M,6000.00,10000.00,15000.00,M,M,M,M,M,M,M,M,82.36,KNFL 102356Z 30011KT 10SM SCT060 BKN100 BKN150 29/11 A3000 RMK AO2 SLP130 SH VC S-SW SH DSNT E 60000 T02890111 10306 20228 55008,M
LSV,2021-09-10 23:58,-115.0343,36.2362,570.00,97.20,54.30,23.87,60.00,5.00,0.00,29.85,1008.10,10.00,M,FEW,SCT,M,M,10000.00,12000.00,M,M,M,M,M,M,M,M,M,95.22,KLSV 102358Z 06005KT 10SM FEW100 SCT120 36/12 A2985 RMK AO2A SLP081 60002 T03620124 10391 20300 58015 $,M
INS,2021-09-10 23:58,-115.6733,36.5872,955.00,96.00,45.50,17.90,170.00,5.00,0.00,29.94,1008.90,10.00,M,CLR,M,M,M,M,M,M,M,M,M,M,M,M,M,M,92.04,KINS 102358Z AUTO 17005KT 10SM CLR 36/08 A2994 RMK AO2 SLP089 60000 T03550075 10369 20310 57012 $,M
LAS,2021-09-10 23:59,-115.1634,36.0719,663.00,94.00,59.00,31.31,80.00,7.00,0.00,29.88,M,10.00,M,FEW,BKN,BKN,M,8000.00,12000.00,18000.00,M,TS,M,M,M,M,M,M,93.32,KLAS 102359Z 08007KT 10SM TS FEW080 BKN120CB BKN180 34/15 A2988 RMK AO2 LTG DSNT E AND SE TSE57B59 VCSH OCNL LTGICCG NE-SE TS NE-SE MOV NE T03440150,M
