station,valid,lon,lat,elevation,tmpf,dwpf,relh,drct,sknt,p01i,alti,mslp,vsby,gust,skyc1,skyc2,skyc3,skyc4,skyl1,skyl2,skyl3,skyl4,wxcodes,ice_accretion_1hr,ice_accretion_3hr,ice_accretion_6hr,peak_wind_gust,peak_wind_drct,peak_wind_time,feel,metar,snowdepth
10U,2025-04-02 00:00,-116.1876,41.9532,1637.00,33.80,28.40,80.36,200.00,5.00,0.00,29.68,M,10.00,10.00,FEW,M,M,M,5000.00,M,M,M,M,M,M,M,M,M,M,28.53,K10U 020000Z AUTO 20005G10KT 10SM FEW050 01/M02 A2968 RMK AO2,M
WMC,2025-04-02 00:03,-117.8072,40.9019,1315.00,38.00,33.00,82.00,200.00,5.00,0.00,29.70,M,10.00,M,FEW,BKN,OVC,M,1600.00,4400.00,5500.00,M,M,M,M,M,M,M,M,33.52,KWMC 020003Z AUTO 20005KT 10SM FEW016 BKN044 OVC055 03/01 A2970 RMK AO2 T00330006 TSNO,M
MEV,2025-04-02 00:10,-119.7500,38.9963,1441.42,39.20,23.00,51.89,230.00,16.00,0.00,29.74,M,10.00,M,CLR,M,M,M,M,M,M,M,M,M,M,M,M,M,M,29.80,KMEV 020010Z AUTO 23016KT 10SM CLR 04/M05 A2974 RMK AO2,M
ELY,2025-04-02 00:12,-114.8453,39.2950,1909.00,31.00,24.00,74.97,270.00,15.00,T,29.69,M,1.75,28.00,SCT,BKN,OVC,M,3200.00,4100.00,11000.00,M,-SN,M,M,M,28.00,270.00,2025-04-02 00:08,19.48,KELY 020012Z AUTO 27015G28KT 1 3/4SM -SN SCT032 BKN041 OVC110 M01/M04 A2969 RMK AO2 PK WND 27028/0008 P0000 T10061044,M
BVU,2025-04-02 00:15,-114.8611,35.9475,671.00,64.40,8.60,10.94,230.00,16.00,0.00,29.65,M,10.00,21.00,FEW,M,M,M,11000.00,M,M,M,M,M,M,M,M,M,M,64.40,KBVU 020015Z AUTO 23016G21KT 10SM FEW110 18/M13 A2965 RMK AO2,M
BAM,2025-04-02 00:15,-116.8743,40.5990,1382.36,33.80,32.00,93.03,270.00,10.00,0.00,29.71,M,0.50,M,BKN,OVC,M,M,300.00,700.00,M,M,M,M,M,M,M,M,M,25.23,KBAM 020015Z AUTO 27010KT 1/2SM BKN003 OVC007 01/00 A2971 RMK AO1,M
CXP,2025-04-02 00:15,-119.7326,39.1923,1431.00,41.00,17.60,38.45,M,6.00,0.00,29.73,M,10.00,22.00,SCT,OVC,M,M,4700.00,5500.00,M,M,M,M,M,M,M,M,M,36.37,KCXP 020015Z AUTO VRB06G22KT 10SM SCT047 OVC055 05/M08 A2973 RMK AO2,M
RTS,2025-04-02 00:15,-119.8764,39.6682,1539.00,35.60,28.40,74.80,240.00,10.00,0.00,29.73,M,10.00,15.00,FEW,SCT,M,M,2300.00,3000.00,M,M,M,M,M,M,M,M,M,27.48,KRTS 020015Z AUTO 24010G15KT 10SM FEW023 SCT030 02/M02 A2973 RMK AO2,M
HTH,2025-04-02 00:15,-118.6315,38.5448,1282.89,48.20,8.60,19.66,260.00,18.00,0.00,29.70,M,10.00,25.00,CLR,M,M,M,M,M,M,M,M,M,M,M,M,M,M,41.07,KHTH 020015Z AUTO 26018G25KT 10SM CLR 09/M13 A2970 RMK A01,M
TMT,2025-04-02 00:15,-117.1971,39.4643,1749.34,32.00,27.30,82.57,250.00,15.00,0.00,29.73,M,5.00,22.00,SCT,BKN,OVC,M,1000.00,3200.00,4500.00,M,-SN,M,M,M,M,M,M,20.78,KTMT 020015Z AUTO 25015G22KT 5SM -SN SCT010 BKN032 OVC045 00/M03 A2973 RMK AO2 T00011026,M
ELY,2025-04-02 00:16,-114.8453,39.2950,1909.00,31.00,25.00,78.16,270.00,15.00,T,29.70,M,1.25,28.00,BKN,BKN,OVC,M,2900.00,3900.00,9000.00,M,-SN,M,M,M,28.00,270.00,2025-04-02 00:08,19.48,KELY 020016Z AUTO 27015G28KT 1 1/4SM -SN BKN029 BKN039 OVC090 M01/M04 A2970 RMK AO2 PK WND 27028/0008 P0000 T10061039,M
LAS,2025-04-02 00:20,-115.1634,36.0719,663.00,64.00,11.00,12.35,300.00,9.00,0.00,29.65,M,10.00,M,BKN,M,M,M,11000.00,M,M,M,M,M,M,M,M,M,M,64.00,KLAS 020020Z 30009KT 10SM BKN110 18/M12 A2965 RMK AO2 T01781117,M
10U,2025-04-02 00:20,-116.1876,41.9532,1637.00,33.80,26.60,74.63,330.00,3.00,0.00,29.67,M,9.00,M,FEW,BKN,BKN,M,3400.00,4300.00,5500.00,M,M,M,M,M,M,M,M,30.75,K10U 020020Z AUTO 33003KT 9SM FEW034 BKN043 BKN055 01/M03 A2967 RMK AO2,M
RTS,2025-04-02 00:25,-119.8764,39.6682,1539.00,35.60,26.60,69.46,290.00,9.00,0.00,29.73,M,10.00,M,BKN,BKN,M,M,2200.00,3000.00,M,M,M,M,M,M,M,M,M,27.99,KRTS 020025Z AUTO 29009KT 10SM BKN022 BKN030 02/M03 A2973 RMK AO2,M
ELY,2025-04-02 00:29,-114.8453,39.2950,1909.00,31.00,24.00,74.97,280.00,8.00,T,29.69,M,2.00,21.00,BKN,BKN,OVC,M,2900.00,3700.00,4500.00,M,-SN,M,M,M,28.00,270.00,2025-04-02 00:08,22.88,KELY 020029Z AUTO 28008G21KT 2SM -SN BKN029 BKN037 OVC045 M01/M04 A2969 RMK AO2 PK WND 27028/0008 P0000 T10061044,M
BVU,2025-04-02 00:35,-114.8611,35.9475,671.00,64.40,10.40,11.86,0.00,0.00,0.00,29.63,M,10.00,M,SCT,BKN,M,M,9500.00,11000.00,M,M,M,M,M,M,M,M,M,64.40,KBVU 020035Z AUTO 00000KT 10SM SCT095 BKN110 18/M12 A2963 RMK AO2,M
BAM,2025-04-02 00:35,-116.8743,40.5990,1382.36,35.60,33.80,93.08,340.00,8.00,0.00,29.71,M,10.00,M,SCT,BKN,OVC,M,500.00,2600.00,7000.00,M,M,M,M,M,M,M,M,28.55,KBAM 020035Z AUTO 34008KT 10SM SCT005 BKN026 OVC070 02/01 A2971 RMK AO1,M
CXP,2025-04-02 00:35,-119.7326,39.1923,1431.00,41.00,21.20,44.85,M,4.00,0.00,29.74,M,10.00,12.00,FEW,BKN,BKN,M,4900.00,6000.00,7000.00,M,M,M,M,M,M,M,M,37.93,KCXP 020035Z AUTO VRB04G12KT 10SM FEW049 BKN060 BKN070 05/M06 A2974 RMK AO2,M
MEV,2025-04-02 00:35,-119.7500,38.9963,1441.42,39.20,24.80,55.95,250.00,19.00,0.00,29.74,M,10.00,M,BKN,BKN,BKN,M,3900.00,5500.00,7000.00,M,M,M,M,M,M,M,M,28.96,KMEV 020035Z AUTO 25019KT 10SM BKN039 BKN055 BKN070 04/M04 A2974 RMK AO2,M
HTH,2025-04-02 00:35,-118.6315,38.5448,1282.89,48.20,10.40,21.31,260.00,14.00,0.00,29.70,M,10.00,20.00,CLR,M,M,M,M,M,M,M,M,M,M,M,M,M,M,42.04,KHTH 020035Z AUTO 26014G20KT 10SM CLR 09/M12 A2970 RMK A01,M
TMT,2025-04-02 00:35,-117.1971,39.4643,1749.34,31.00,27.50,86.68,260.00,14.00,0.00,29.73,M,5.00,20.00,SCT,BKN,OVC,M,900.00,3200.00,3900.00,M,-SN,M,M,M,M,M,M,19.87,KTMT 020035Z AUTO 26014G20KT 5SM -SN SCT009 BKN032 OVC039 00/M02 A2973 RMK AO2 T10051025,M
ELY,2025-04-02 00:37,-114.8453,39.2950,1909.00,33.00,24.00,69.16,270.00,9.00,T,29.69,M,9.00,M,BKN,OVC,M,M,3400.00,7500.00,M,M,M,M,M,M,28.00,270.00,2025-04-02 00:08,24.76,KELY 020037Z AUTO 27009KT 9SM BKN034 OVC075 01/M04 A2969 RMK AO2 PK WND 27028/0008 SNE35 P0000 T00061044,M
10U,2025-04-02 00:40,-116.1876,41.9532,1637.00,32.00,28.40,86.39,350.00,8.00,0.00,29.67,M,9.00,M,FEW,FEW,SCT,M,1300.00,1900.00,4600.00,M,UP,M,M,M,M,M,M,24.11,K10U 020040Z AUTO 35008KT 9SM UP FEW013 FEW019 SCT046 M00/M02 A2967 RMK AO2,M
INS,2025-04-02 00:47,-115.6733,36.5872,955.00,60.80,5.00,10.55,210.00,13.00,0.00,29.64,1001.50,10.00,M,BKN,BKN,M,M,11000.00,13000.00,M,M,M,M,M,M,M,M,M,60.80,KINS 020047Z AUTO 21013KT 10SM BKN110 BKN130 16/M15 A2964 RMK AO2 WSHFT 43 SLP015 $,M
P68,2025-04-02 00:53,-116.0056,39.6014,1993.00,35.00,26.00,69.39,210.00,6.00,0.00,29.68,1004.70,M,M,M,M,M,M,M,M,M,M,M,M,M,M,M,M,M,29.14,KP68 020053Z AUTO 21006KT 02/M03 A2968 RMK AO1 SLP047 T00171033,M
DRA,2025-04-02 00:53,-116.0278,36.6206,1009.00,58.00,9.00,13.97,240.00,8.00,0.00,29.64,1001.40,10.00,19.00,CLR,M,M,M,M,M,M,M,M,M,M,M,M,M,M,58.00,KDRA 020053Z AUTO 24008G19KT 10SM CLR 14/M13 A2964 RMK AO2 SLP014 T01441128,M
ELY,2025-04-02 00:53,-114.8453,39.2950,1909.00,32.00,22.00,66.20,340.00,6.00,T,29.69,1006.00,10.00,M,FEW,SCT,BKN,M,4600.00,7000.00,10000.00,M,M,M,M,M,28.00,270.00,2025-04-02 00:08,25.53,KELY 020053Z AUTO 34006KT 10SM FEW046 SCT070 BKN100 00/M06 A2969 RMK AO2 PK WND 27028/0008 SNE35 SLP060 P0000 T00001056,M
VGT,2025-04-02 00:53,-115.1933,36.2111,667.00,63.00,17.00,16.64,230.00,7.00,0.00,29.62,1003.90,10.00,18.00,FEW,M,M,M,12000.00,M,M,M,M,M,M,M,M,M,M,63.00,KVGT 020053Z 23007G18KT 10SM FEW120 17/M08 A2962 RMK AO2 SLP039 T01721083,M
LOL,2025-04-02 00:53,-118.5701,40.0684,1192.43,44.00,24.00,44.96,260.00,13.00,0.00,29.71,1006.80,10.00,M,BKN,OVC,M,M,7000.00,12000.00,M,M,M,M,M,M,M,M,M,36.94,KLOL 020053Z AUTO 26013KT 10SM BKN070 OVC120 07/M04 A2971 RMK AO2 SLP068 T00671044,M
INS,2025-04-02 00:55,-115.6733,36.5872,955.00,60.30,3.40,9.97,230.00,15.00,0.00,29.63,1001.10,10.00,M,BKN,BKN,M,M,11000.00,13000.00,M,M,M,M,M,M,M,M,M,60.30,KINS 020055Z AUTO 23015KT 10SM BKN110 BKN130 16/M16 A2963 RMK AO2 SLP011 T01571159 $,M
LSV,2025-04-02 00:55,-115.0343,36.2362,570.00,65.00,5.00,9.10,250.00,13.00,0.00,29.58,1000.70,10.00,M,SCT,M,M,M,15000.00,M,M,M,M,M,M,M,M,M,M,65.00,KLSV 020055Z 25013KT 10SM SCT150 18/M15 A2958 RMK AO2A SLP007 T01841151 FZRANO $,M
BVU,2025-04-02 00:55,-114.8611,35.9475,671.00,64.40,3.20,8.55,230.00,11.00,0.00,29.63,M,10.00,M,SCT,BKN,M,M,10000.00,12000.00,M,M,M,M,M,M,M,M,M,64.40,KBVU 020055Z AUTO 23011KT 10SM SCT100 BKN120 18/M16 A2963 RMK AO2,M
RNO,2025-04-02 00:55,-119.7711,39.4839,1341.00,41.00,19.00,40.83,300.00,19.00,0.00,29.70,1005.80,10.00,28.00,BKN,BKN,BKN,M,4400.00,10000.00,16000.00,M,M,M,M,M,29.00,290.00,2025-04-02 00:18,31.34,KRNO 020055Z 30019G28KT 10SM BKN044 BKN100 BKN160 05/M07 A2970 RMK AO2 PK WND 29029/0018 SLP058 MTN TOPS OBSCD DSNT SW THRU NW T00501072,M
BAM,2025-04-02 00:55,-116.8743,40.5990,1382.36,35.60,33.80,93.08,20.00,7.00,0.00,29.71,M,10.00,M,SCT,BKN,OVC,M,2300.00,4800.00,7000.00,M,M,M,M,M,M,M,M,29.17,KBAM 020055Z AUTO 02007KT 10SM SCT023 BKN048 OVC070 02/01 A2971 RMK AO1,M
CXP,2025-04-02 00:55,-119.7326,39.1923,1431.00,41.00,19.40,41.54,M,6.00,0.00,29.74,M,10.00,M,BKN,BKN,OVC,M,5500.00,7000.00,9500.00,M,M,M,M,M,M,M,M,36.37,KCXP 020055Z AUTO VRB06KT 10SM BKN055 BKN070 OVC095 05/M07 A2974 RMK AO2,M
RTS,2025-04-02 00:55,-119.8764,39.6682,1539.00,33.80,28.40,80.36,310.00,8.00,0.00,29.74,M,9.00,M,FEW,FEW,SCT,M,300.00,2200.00,3200.00,M,M,M,M,M,M,M,M,26.33,KRTS 020055Z AUTO 31008KT 9SM FEW003 FEW022 SCT032 01/M02 A2974 RMK AO2,M
MEV,2025-04-02 00:55,-119.7500,38.9963,1441.42,37.40,24.80,60.04,10.00,3.00,0.00,29.74,M,10.00,M,SCT,BKN,OVC,M,3900.00,4700.00,5000.00,M,M,M,M,M,M,M,M,34.86,KMEV 020055Z AUTO 01003KT 10SM SCT039 BKN047 OVC050 03/M04 A2974 RMK AO2,M
HTH,2025-04-02 00:55,-118.6315,38.5448,1282.89,48.20,12.20,23.09,270.00,12.00,0.00,29.70,M,10.00,19.00,FEW,M,M,M,11000.00,M,M,M,M,M,M,M,M,M,M,42.62,KHTH 020055Z AUTO 27012G19KT 10SM FEW110 09/M11 A2970 RMK A01,M
TMT,2025-04-02 00:55,-117.1971,39.4643,1749.34,31.60,27.00,82.88,260.00,11.00,0.00,29.72,M,10.00,M,SCT,BKN,OVC,M,2400.00,4800.00,6000.00,M,M,M,M,M,M,M,M,21.96,KTMT 020055Z AUTO 26011KT 10SM SCT024 BKN048 OVC060 00/M03 A2972 RMK AO2 T10021028,M
EKO,2025-04-02 00:56,-115.7860,40.8242,1367.00,36.00,29.00,75.46,240.00,8.00,T,29.67,1005.60,7.00,M,SCT,BKN,M,M,2500.00,3600.00,M,M,-SN,M,M,M,M,M,M,29.04,KEKO 020056Z AUTO 24008KT 7SM -SN SCT025 BKN036 02/M02 A2967 RMK AO2 SNB26 SLP056 P0000 T00221017,M
WMC,2025-04-02 00:56,-117.8072,40.9019,1315.00,38.00,32.00,78.77,170.00,8.00,0.00,29.69,1006.00,10.00,M,OVC,M,M,M,3700.00,M,M,M,M,M,M,M,M,M,M,31.50,KWMC 020056Z AUTO 17008KT 10SM OVC037 03/00 A2969 RMK AO2 SLP060 T00330000 TSNO,M
HND,2025-04-02 00:56,-115.1344,35.9729,742.79,64.00,7.00,10.32,260.00,10.00,0.00,29.66,M,10.00,M,CLR,M,M,M,M,M,M,M,M,M,M,M,M,M,M,64.00,KHND 020056Z 26010KT 10SM CLR 18/M14 A2966 RMK AO2 SLPNO T01781139 $,M
TPH,2025-04-02 00:56,-117.0904,38.0505,1654.00,41.00,21.00,44.47,M,M,0.00,29.71,1006.20,10.00,M,FEW,SCT,BKN,M,5500.00,8000.00,10000.00,M,M,M,M,M,M,M,M,M,KTPH 020056Z AUTO 10SM FEW055 SCT080 BKN100 05/M06 A2971 RMK AO2 SLP062 T00501061,M
LAS,2025-04-02 00:56,-115.1634,36.0719,663.00,65.00,9.00,10.91,260.00,13.00,0.00,29.64,1002.70,10.00,18.00,FEW,BKN,M,M,7000.00,11000.00,M,M,M,M,M,M,M,M,M,65.00,KLAS 020056Z 26013G18KT 230V290 10SM FEW070 BKN110 18/M13 A2964 RMK AO2 SLP027 VIRGA E T01831128,M
NFL,2025-04-02 00:57,-118.7010,39.4166,1199.00,49.00,19.00,30.12,280.00,13.00,0.00,29.69,1003.70,10.00,M,SCT,BKN,BKN,BKN,5000.00,6500.00,10000.00,13000.00,M,M,M,M,M,M,M,43.35,KNFL 020057Z 28013KT 10SM SCT050 BKN065 BKN100 BKN130 09/M07 A2969 RMK AO2 SLP037 T00941072,M
10U,2025-04-02 01:00,-116.1876,41.9532,1637.00,30.20,28.40,92.92,360.00,6.00,0.00,29.68,M,0.75,M,OVC,M,M,M,300.00,M,M,M,VCTS SN,M,M,M,M,M,M,23.36,K10U 020100Z AUTO 36006KT 3/4SM VCTS SN OVC003 M01/M02 A2968 RMK AO2 LTG DSNT SE,M
RTS,2025-04-02 01:05,-119.8764,39.6682,1539.00,33.80,28.40,80.36,310.00,11.00,0.00,29.74,M,10.00,M,FEW,SCT,M,M,300.00,4000.00,M,M,M,M,M,M,M,M,M,24.74,KRTS 020105Z AUTO 31011KT 10SM FEW003 SCT040 01/M02 A2974 RMK AO2,M
MEV,2025-04-02 01:05,-119.7500,38.9963,1441.42,37.40,24.80,60.04,330.00,6.00,0.00,29.74,M,10.00,12.00,FEW,OVC,M,M,4000.00,4700.00,M,M,M,M,M,M,M,M,M,32.03,KMEV 020105Z AUTO 33006G12KT 10SM FEW040 OVC047 03/M04 A2974 RMK AO2,M
INS,2025-04-02 01:13,-115.6733,36.5872,955.00,60.80,5.00,10.55,190.00,11.00,0.00,29.63,1001.10,10.00,M,BKN,OVC,M,M,11000.00,13000.00,M,M,M,M,M,M,M,M,M,60.80,KINS 020113Z AUTO 19011KT 10SM BKN110 OVC130 16/M15 A2963 RMK AO2 WSHFT 00 SLP011 $,M
BVU,2025-04-02 01:15,-114.8611,35.9475,671.00,64.40,3.20,8.55,250.00,13.00,0.00,29.62,M,10.00,19.00,BKN,M,M,M,12000.00,M,M,M,M,M,M,M,M,M,M,64.40,KBVU 020115Z AUTO 25013G19KT 10SM BKN120 18/M16 A2962 RMK AO2,M
BAM,2025-04-02 01:15,-116.8743,40.5990,1382.36,35.60,33.80,93.08,250.00,11.00,0.00,29.71,M,10.00,M,SCT,BKN,OVC,M,1300.00,2400.00,8000.00,M,M,M,M,M,M,M,M,27.02,KBAM 020115Z AUTO 25011KT 10SM SCT013 BKN024 OVC080 02/01 A2971 RMK AO1,M
CXP,2025-04-02 01:15,-119.7326,39.1923,1431.00,39.20,21.20,48.10,210.00,8.00,0.00,29.73,M,10.00,16.00,BKN,BKN,OVC,M,5500.00,7500.00,10000.00,M,M,M,M,M,M,M,M,32.98,KCXP 020115Z AUTO 21008G16KT 10SM BKN055 BKN075 OVC100 04/M06 A2973 RMK AO2,M
HTH,2025-04-02 01:15,-118.6315,38.5448,1282.89,48.20,12.20,23.09,280.00,11.00,0.00,29.70,M,10.00,21.00,FEW,M,M,M,11000.00,M,M,M,M,M,M,M,M,M,M,42.94,KHTH 020115Z AUTO 28011G21KT 10SM FEW110 09/M11 A2970 RMK A01,M
TMT,2025-04-02 01:15,-117.1971,39.4643,1749.34,32.00,26.00,78.25,270.00,5.00,0.00,29.73,M,10.00,M,BKN,BKN,OVC,M,4600.00,6000.00,7000.00,M,M,M,M,M,M,M,M,26.40,KTMT 020115Z AUTO 27005KT 10SM BKN046 BKN060 OVC070 00/M03 A2973 RMK AO2 T00001034,M
10U,2025-04-02 01:20,-116.1876,41.9532,1637.00,30.20,28.40,92.92,350.00,5.00,0.00,29.68,M,0.75,M,OVC,M,M,M,300.00,M,M,M,-SN,M,M,M,M,M,M,24.26,K10U 020120Z AUTO 35005KT 3/4SM -SN OVC003 M01/M02 A2968 RMK AO2,M
WMC,2025-04-02 01:21,-117.8072,40.9019,1315.00,36.00,31.00,81.86,250.00,11.00,T,29.71,M,5.00,19.00,SCT,BKN,OVC,M,2100.00,2700.00,3400.00,M,-SN,M,M,M,M,M,M,27.52,KWMC 020121Z AUTO 25011G19KT 5SM -SN SCT021 BKN027 OVC034 02/M01 A2971 RMK AO2 SNB18 P0000 T00221006 TSNO,M
WMC,2025-04-02 01:30,-117.8072,40.9019,1315.00,35.00,32.00,88.68,280.00,8.00,T,29.71,M,1.75,M,FEW,BKN,OVC,M,1100.00,1800.00,2700.00,M,-SN BR,M,M,M,M,M,M,27.81,KWMC 020130Z AUTO 28008KT 1 3/4SM -SN BR FEW011 BKN018 OVC027 02/00 A2971 RMK AO2 VIS 3/4V5 SNB18 P0000 T00170000 TSNO,M
WMC,2025-04-02 01:33,-117.8072,40.9019,1315.00,34.00,32.00,92.29,270.00,7.00,T,29.71,M,1.25,M,BKN,BKN,OVC,M,1400.00,2100.00,2700.00,M,-SN BR,M,M,M,M,M,M,27.22,KWMC 020133Z AUTO 27007KT 1 1/4SM -SN BR BKN014 BKN021 OVC027 01/00 A2971 RMK AO2 SNB18 P0000 T00110000 TSNO,M
BVU,2025-04-02 01:35,-114.8611,35.9475,671.00,62.60,1.40,8.38,240.00,11.00,0.00,29.62,M,10.00,M,FEW,M,M,M,12000.00,M,M,M,M,M,M,M,M,M,M,62.60,KBVU 020135Z AUTO 24011KT 10SM FEW120 17/M17 A2962 RMK AO2,M
BAM,2025-04-02 01:35,-116.8743,40.5990,1382.36,35.60,33.80,93.08,230.00,13.00,0.00,29.71,M,10.00,16.00,SCT,BKN,OVC,M,2200.00,7000.00,9000.00,M,M,M,M,M,M,M,M,26.18,KBAM 020135Z AUTO 23013G16KT 10SM SCT022 BKN070 OVC090 02/01 A2971 RMK AO1,M
CXP,2025-04-02 01:35,-119.7326,39.1923,1431.00,39.20,19.40,44.55,230.00,9.00,0.00,29.74,M,10.00,15.00,FEW,SCT,BKN,M,3100.00,4000.00,5000.00,M,M,M,M,M,M,M,M,32.47,KCXP 020135Z AUTO 23009G15KT 10SM FEW031 SCT040 BKN050 04/M07 A2974 RMK AO2,M
RTS,2025-04-02 01:35,-119.8764,39.6682,1539.00,32.00,28.40,86.39,270.00,12.00,0.00,29.75,M,1.25,17.00,SCT,SCT,SCT,M,2300.00,3400.00,4100.00,M,-SN,M,M,M,M,M,M,22.00,KRTS 020135Z AUTO 27012G17KT 1 1/4SM -SN SCT023 SCT034 SCT041 M00/M02 A2975 RMK AO2,M
MEV,2025-04-02 01:35,-119.7500,38.9963,1441.42,33.80,28.40,80.36,300.00,12.00,0.00,29.74,M,9.00,M,FEW,FEW,BKN,M,1600.00,3500.00,4700.00,M,UP,M,M,M,M,M,M,24.29,KMEV 020135Z AUTO 30012KT 9SM UP FEW016 FEW035 BKN047 01/M02 A2974 RMK AO2,M
HTH,2025-04-02 01:35,-118.6315,38.5448,1282.89,46.40,10.40,22.81,270.00,16.00,0.00,29.71,M,10.00,M,BKN,M,M,M,10000.00,M,M,M,M,M,M,M,M,M,M,39.19,KHTH 020135Z AUTO 27016KT 10SM BKN100 08/M12 A2971 RMK A01,M
TMT,2025-04-02 01:35,-117.1971,39.4643,1749.34,30.00,28.00,92.15,20.00,5.00,0.00,29.73,M,0.75,M,BKN,OVC,M,M,600.00,1300.00,M,M,-SN,M,M,M,M,M,M,24.02,KTMT 020135Z AUTO 02005KT 3/4SM -SN BKN006 OVC013 M01/M02 A2973 RMK AO2 T10111022,M
10U,2025-04-02 01:40,-116.1876,41.9532,1637.00,30.20,28.40,92.92,340.00,5.00,0.00,29.69,M,0.50,M,OVC,M,M,M,300.00,M,M,M,-SN,M,M,M,M,M,M,24.26,K10U 020140Z AUTO 34005KT 1/2SM -SN OVC003 M01/M02 A2969 RMK AO2,M
WMC,2025-04-02 01:42,-117.8072,40.9019,1315.00,33.00,32.00,96.06,260.00,4.00,0.01,29.71,M,0.75,M,BKN,OVC,M,M,1100.00,1800.00,M,M,-SN BR,M,M,M,M,M,M,28.59,KWMC 020142Z AUTO 26004KT 3/4SM -SN BR BKN011 OVC018 01/00 A2971 RMK AO2 SNB18 P0001 T00060000 TSNO,M
P68,2025-04-02 01:53,-116.0056,39.6014,1993.00,30.00,29.00,96.00,250.00,11.00,0.00,29.68,1005.40,M,22.00,M,M,M,M,M,M,M,M,M,M,M,M,M,M,M,19.94,KP68 020153Z AUTO 25011G22KT M01/M02 A2968 RMK AO1 SLP054 T10111017,M
DRA,2025-04-02 01:53,-116.0278,36.6206,1009.00,57.00,7.00,13.23,330.00,7.00,0.00,29.63,1001.40,10.00,M,FEW,OVC,M,M,7000.00,10000.00,M,M,M,M,M,M,30.00,260.00,2025-04-02 01:28,57.00,KDRA 020153Z AUTO 33007KT 10SM FEW070 OVC100 14/M14 A2963 RMK AO2 PK WND 26030/0128 SLP014 T01391139,M
ELY,2025-04-02 01:53,-114.8453,39.2950,1909.00,32.00,22.00,66.20,70.00,3.00,0.00,29.69,1005.80,10.00,M,FEW,SCT,BKN,M,4000.00,7000.00,8000.00,M,M,M,M,M,M,M,M,28.69,KELY 020153Z AUTO 07003KT 10SM FEW040 SCT070 BKN080 00/M06 A2969 RMK AO2 SLP058 T00001056,M
VGT,2025-04-02 01:53,-115.1933,36.2111,667.00,62.00,17.00,17.24,250.00,11.00,0.00,29.62,1003.80,10.00,M,CLR,M,M,M,M,M,M,M,M,M,M,M,M,M,M,62.00,KVGT 020153Z 25011KT 10SM CLR 17/M08 A2962 RMK AO2 SLP038 T01671083,M
LOL,2025-04-02 01:53,-118.5701,40.0684,1192.43,39.00,30.00,69.85,280.00,6.00,T,29.71,1007.40,10.00,M,SCT,BKN,M,M,6000.00,8500.00,M,M,M,M,M,M,M,M,M,33.96,KLOL 020153Z AUTO 28006KT 10SM SCT060 BKN085 04/M01 A2971 RMK AO2 RAB05E28SNB15E24 SLP074 P0000 T00391011,M
LSV,2025-04-02 01:54,-115.0343,36.2362,570.00,64.00,6.30,10.00,240.00,11.00,0.00,29.58,1000.70,10.00,M,SCT,M,M,M,15000.00,M,M,M,M,M,M,M,M,M,M,64.00,KLSV 020154Z 24011KT 10SM SCT150 18/M14 A2958 RMK SLP007 T01771143 FZRANO $,M
INS,2025-04-02 01:55,-115.6733,36.5872,955.00,59.40,8.40,12.94,190.00,11.00,0.00,29.63,1001.30,10.00,M,BKN,BKN,M,M,11000.00,13000.00,M,M,M,M,M,M,M,M,M,59.40,KINS 020155Z AUTO 19011KT 10SM BKN110 BKN130 15/M13 A2963 RMK AO2 SLP013 T01521131 $,M
BVU,2025-04-02 01:55,-114.8611,35.9475,671.00,62.60,3.20,9.11,260.00,10.00,0.00,29.62,M,10.00,M,CLR,M,M,M,M,M,M,M,M,M,M,M,M,M,M,62.60,KBVU 020155Z AUTO 26010KT 10SM CLR 17/M16 A2962 RMK AO2,M
RNO,2025-04-02 01:55,-119.7711,39.4839,1341.00,37.00,25.00,61.50,310.00,11.00,0.00,29.73,1006.90,10.00,M,BKN,BKN,OVC,M,4500.00,11000.00,16000.00,M,M,M,M,M,32.00,270.00,2025-04-02 01:00,28.79,KRNO 020155Z 31011KT 10SM BKN045 BKN110 OVC160 03/M04 A2973 RMK AO2 PK WND 27032/0100 SLP069 MTN TOPS OBSCD DSNT S THRU NW T00281039,M
BAM,2025-04-02 01:55,-116.8743,40.5990,1382.36,35.60,33.80,93.08,230.00,10.00,0.00,29.71,M,10.00,M,BKN,OVC,M,M,7000.00,8000.00,M,M,M,M,M,M,M,M,M,27.48,KBAM 020155Z AUTO 23010KT 10SM BKN070 OVC080 02/01 A2971 RMK AO1,M
CXP,2025-04-02 01:55,-119.7326,39.1923,1431.00,37.40,23.00,55.68,250.00,8.00,0.00,29.75,M,10.00,M,FEW,SCT,BKN,M,3200.00,5000.00,7500.00,M,M,M,M,M,M,M,M,30.76,KCXP 020155Z AUTO 25008KT 220V290 10SM FEW032 SCT050 BKN075 03/M05 A2975 RMK AO2,M
RTS,2025-04-02 01:55,-119.8764,39.6682,1539.00,30.20,28.40,92.92,310.00,6.00,0.00,29.75,M,2.00,M,CLR,M,M,M,M,M,M,M,-SN,M,M,M,M,M,M,23.36,KRTS 020155Z AUTO 31006KT 2SM -SN CLR M01/M02 A2975 RMK AO2,M
MEV,2025-04-02 01:55,-119.7500,38.9963,1441.42,35.60,23.00,59.79,270.00,18.00,0.00,29.74,M,4.00,M,FEW,SCT,BKN,M,2400.00,3600.00,4600.00,M,-SN HZ,M,M,M,M,M,M,24.49,KMEV 020155Z AUTO 27018KT 4SM -SN HZ FEW024 SCT036 BKN046 02/M05 A2974 RMK AO2,M
HTH,2025-04-02 01:55,-118.6315,38.5448,1282.89,46.40,10.40,22.81,250.00,12.00,0.00,29.71,M,10.00,M,FEW,SCT,M,M,9500.00,12000.00,M,M,M,M,M,M,M,M,M,40.33,KHTH 020155Z AUTO 25012KT 10SM FEW095 SCT120 08/M12 A2971 RMK A01,M
TMT,2025-04-02 01:55,-117.1971,39.4643,1749.34,29.00,28.00,95.99,170.00,3.00,0.00,29.73,M,1.50,M,SCT,BKN,OVC,M,500.00,1000.00,1700.00,M,-SN,M,M,M,M,M,M,25.26,KTMT 020155Z AUTO 17003KT 1 1/2SM -SN SCT005 BKN010 OVC017 M02/M02 A2973 RMK AO2 VIS 1V2 1/2 T10171022,M
EKO,2025-04-02 01:56,-115.7860,40.8242,1367.00,35.00,28.00,75.36,240.00,5.00,T,29.66,1005.70,9.00,M,FEW,SCT,OVC,M,2800.00,3600.00,5500.00,M,M,M,M,M,M,M,M,29.96,KEKO 020156Z AUTO 24005KT 9SM FEW028 SCT036 OVC055 02/M02 A2966 RMK AO2 SNE0059B45E52 SLP057 P0000 T00171022,M
WMC,2025-04-02 01:56,-117.8072,40.9019,1315.00,33.00,32.00,96.06,0.00,0.00,0.02,29.70,1006.90,0.75,M,FEW,OVC,M,M,1300.00,1800.00,M,M,-SN BR,M,M,M,M,M,M,33.00,KWMC 020156Z AUTO 00000KT 3/4SM -SN BR FEW013 OVC018 01/00 A2970 RMK AO2 SNB18 SLP069 P0002 T00060000 TSNO,M
HND,2025-04-02 01:56,-115.1344,35.9729,742.79,61.00,9.00,12.55,240.00,9.00,0.00,29.65,M,10.00,M,CLR,M,M,M,M,M,M,M,M,M,M,M,M,M,M,61.00,KHND 020156Z 24009KT 10SM CLR 16/M13 A2965 RMK AO2 SLPNO T01611128 $,M
TPH,2025-04-02 01:56,-117.0904,38.0505,1654.00,39.00,19.00,44.14,M,M,0.00,29.70,1006.10,10.00,M,SCT,SCT,BKN,M,7000.00,8500.00,11000.00,M,M,M,M,M,M,M,M,M,KTPH 020156Z AUTO 10SM SCT070 SCT085 BKN110 04/M07 A2970 RMK AO2 SLP061 T00391072,M
LAS,2025-04-02 01:56,-115.1634,36.0719,663.00,63.00,10.00,12.23,270.00,8.00,0.00,29.63,1002.40,10.00,M,FEW,BKN,BKN,M,7000.00,11000.00,20000.00,M,M,M,M,M,M,M,M,63.00,KLAS 020156Z COR 27008KT 10SM FEW070 BKN110 BKN200 17/M12 A2963 RMK AO2 SLP024 T01721122,M
NFL,2025-04-02 01:57,-118.7010,39.4166,1199.00,45.00,18.00,33.55,310.00,17.00,0.00,29.71,1004.10,10.00,23.00,SCT,BKN,BKN,BKN,5000.00,8000.00,10000.00,20000.00,M,M,M,M,M,M,M,37.11,KNFL 020157Z 31017G23KT 10SM SCT050 BKN080 BKN100 BKN200 07/M08 A2971 RMK AO2 SLP041 T00721078,M
10U,2025-04-02 02:00,-116.1876,41.9532,1637.00,28.40,28.40,100.00,40.00,4.00,0.00,29.68,M,0.25,M,OVC,M,M,M,200.00,M,M,M,SN,M,M,M,M,M,M,23.22,K10U 020200Z AUTO 04004KT 1/4SM SN OVC002 M02/M02 A2968 RMK AO2,M
MEV,2025-04-02 02:05,-119.7500,38.9963,1441.42,35.60,21.20,55.41,280.00,12.00,0.00,29.74,M,10.00,23.00,FEW,BKN,OVC,M,2500.00,3200.00,6000.00,M,M,M,M,M,M,M,M,26.58,KMEV 020205Z AUTO 28012G23KT 10SM FEW025 BKN032 OVC060 02/M06 A2974 RMK AO2,M
RTS,2025-04-02 02:05,-119.8764,39.6682,1539.00,30.20,28.40,92.92,300.00,7.00,0.00,29.74,M,4.00,M,CLR,M,M,M,M,M,M,M,-SN,M,M,M,M,M,M,22.59,KRTS 020205Z AUTO 30007KT 4SM -SN CLR M01/M02 A2974 RMK AO2,M
WMC,2025-04-02 02:06,-117.8072,40.9019,1315.00,33.00,32.00,96.06,0.00,0.00,T,29.71,M,1.25,M,OVC,M,M,M,1900.00,M,M,M,-SN BR,M,M,M,M,M,M,33.00,KWMC 020206Z AUTO 00000KT 1 1/4SM -SN BR OVC019 01/00 A2971 RMK AO2 P0000 T00060000 TSNO,M
BVU,2025-04-02 02:15,-114.8611,35.9475,671.00,60.80,3.20,9.71,250.00,10.00,0.00,29.62,M,10.00,M,CLR,M,M,M,M,M,M,M,M,M,M,M,M,M,M,60.80,KBVU 020215Z AUTO 25010KT 10SM CLR 16/M16 A2962 RMK AO2,M
BAM,2025-04-02 02:15,-116.8743,40.5990,1382.36,35.60,33.80,93.08,220.00,10.00,0.00,29.71,M,10.00,M,SCT,BKN,OVC,M,3300.00,7000.00,8000.00,M,M,M,M,M,M,M,M,27.48,KBAM 020215Z AUTO 22010KT 10SM SCT033 BKN070 OVC080 02/01 A2971 RMK AO1,M
CXP,2025-04-02 02:15,-119.7326,39.1923,1431.00,35.60,24.80,64.46,200.00,11.00,0.00,29.76,M,7.00,16.00,SCT,SCT,BKN,M,2700.00,3700.00,6500.00,M,M,M,M,M,M,M,M,27.02,KCXP 020215Z AUTO 20011G16KT 7SM SCT027 SCT037 BKN065 02/M04 A2976 RMK AO2,M
HTH,2025-04-02 02:15,-118.6315,38.5448,1282.89,44.60,12.20,26.45,M,4.00,0.00,29.71,M,10.00,13.00,CLR,M,M,M,M,M,M,M,M,M,M,M,M,M,M,42.13,KHTH 020215Z AUTO VRB04G13KT 10SM CLR 07/M11 A2971 RMK A01,M
TMT,2025-04-02 02:15,-117.1971,39.4643,1749.34,28.40,27.50,96.37,140.00,5.00,0.00,29.73,M,10.00,M,SCT,SCT,OVC,M,1300.00,4300.00,9500.00,M,M,M,M,M,M,M,M,22.12,KTMT 020215Z AUTO 14005KT 10SM SCT013 SCT043 OVC095 M02/M02 A2973 RMK AO2 T10201025,M
10U,2025-04-02 02:20,-116.1876,41.9532,1637.00,28.40,28.40,100.00,110.00,4.00,0.00,29.68,M,1.00,M,OVC,M,M,M,200.00,M,M,M,-SN,M,M,M,M,M,M,23.22,K10U 020220Z AUTO 11004KT 1SM -SN OVC002 M02/M02 A2968 RMK AO2,M
WMC,2025-04-02 02:24,-117.8072,40.9019,1315.00,33.00,32.00,96.06,250.00,3.00,0.01,29.71,M,1.50,M,FEW,BKN,OVC,M,900.00,2200.00,4000.00,M,-SN BR,M,M,M,M,M,M,29.83,KWMC 020224Z AUTO 25003KT 1 1/2SM -SN BR FEW009 BKN022 OVC040 01/00 A2971 RMK AO2 P0001 T00060000 TSNO,M
WMC,2025-04-02 02:33,-117.8072,40.9019,1315.00,33.00,32.00,96.06,220.00,5.00,0.01,29.71,M,2.50,M,BKN,BKN,OVC,M,1600.00,2300.00,3800.00,M,-SN BR,M,M,M,M,M,M,27.58,KWMC 020233Z AUTO 22005KT 2 1/2SM -SN BR BKN016 BKN023 OVC038 01/00 A2971 RMK AO2 P0001 T00060000 TSNO,M
BVU,2025-04-02 02:35,-114.8611,35.9475,671.00,60.80,3.20,9.71,280.00,6.00,0.00,29.62,M,10.00,13.00,CLR,M,M,M,M,M,M,M,M,M,M,M,M,M,M,60.80,KBVU 020235Z AUTO 28006G13KT 10SM CLR 16/M16 A2962 RMK AO2,M
BAM,2025-04-02 02:35,-116.8743,40.5990,1382.36,33.80,32.00,93.03,230.00,6.00,0.00,29.71,M,10.00,M,SCT,OVC,M,M,7000.00,9000.00,M,M,M,M,M,M,M,M,M,27.70,KBAM 020235Z AUTO 23006KT 10SM SCT070 OVC090 01/00 A2971 RMK AO1,M
CXP,2025-04-02 02:35,-119.7326,39.1923,1431.00,33.80,28.40,80.36,210.00,4.00,0.00,29.76,M,10.00,M,SCT,BKN,OVC,M,2800.00,3600.00,7000.00,M,M,M,M,M,M,M,M,29.52,KCXP 020235Z AUTO 21004KT 10SM SCT028 BKN036 OVC070 01/M02 A2976 RMK AO2,M
HTH,2025-04-02 02:35,-118.6315,38.5448,1282.89,44.60,12.20,26.45,70.00,3.00,0.00,29.71,M,10.00,M,FEW,SCT,M,M,9000.00,11000.00,M,M,M,M,M,M,M,M,M,43.09,KHTH 020235Z AUTO 07003KT 10SM FEW090 SCT110 07/M11 A2971 RMK A01,M
TMT,2025-04-02 02:35,-117.1971,39.4643,1749.34,28.00,27.00,95.97,170.00,5.00,0.00,29.73,M,10.00,M,SCT,SCT,OVC,M,2900.00,4000.00,9500.00,M,M,M,M,M,M,M,M,21.64,KTMT 020235Z AUTO 17005KT 10SM SCT029 SCT040 OVC095 M02/M03 A2973 RMK AO2 T10221027,M
10U,2025-04-02 02:40,-116.1876,41.9532,1637.00,28.40,26.60,92.86,130.00,5.00,0.00,29.67,M,7.00,M,BKN,BKN,M,M,200.00,5500.00,M,M,UP,M,M,M,M,M,M,22.12,K10U 020240Z AUTO 13005KT 7SM UP BKN002 BKN055 M02/M03 A2967 RMK AO2,M
WMC,2025-04-02 02:40,-117.8072,40.9019,1315.00,33.00,32.00,96.06,210.00,6.00,0.01,29.71,M,5.00,M,FEW,BKN,OVC,M,1000.00,1500.00,3700.00,M,-SN BR,M,M,M,M,M,M,26.73,KWMC 020240Z AUTO 21006KT 5SM -SN BR FEW010 BKN015 OVC037 01/00 A2971 RMK AO2 P0001 T00060000 TSNO,M
P68,2025-04-02 02:53,-116.0056,39.6014,1993.00,30.00,28.00,92.15,270.00,3.00,0.00,29.68,1005.40,M,M,M,M,M,M,M,M,M,M,M,M,M,M,M,M,M,26.40,KP68 020253Z AUTO 27003KT M01/M02 A2968 RMK AO1 SLP054 T10111022 53000,M
DRA,2025-04-02 02:53,-116.0278,36.6206,1009.00,55.00,10.00,16.29,80.00,3.00,0.00,29.62,1000.90,10.00,M,OVC,M,M,M,11000.00,M,M,M,M,M,M,M,M,M,M,55.00,KDRA 020253Z AUTO 08003KT 10SM OVC110 13/M12 A2962 RMK AO2 SLP009 T01281122 56010,M
ELY,2025-04-02 02:53,-114.8453,39.2950,1909.00,29.00,22.00,74.77,220.00,3.00,0.00,29.68,1005.80,10.00,M,BKN,M,M,M,10000.00,M,M,M,M,M,M,M,M,M,M,25.26,KELY 020253Z AUTO 22003KT 10SM BKN100 M02/M06 A2968 RMK AO2 SLP058 60000 T10171056 58000,M
VGT,2025-04-02 02:53,-115.1933,36.2111,667.00,61.00,18.00,18.64,230.00,5.00,0.00,29.61,1003.60,10.00,M,CLR,M,M,M,M,M,M,M,M,M,M,M,M,M,M,61.00,KVGT 020253Z 23005KT 10SM CLR 16/M08 A2961 RMK AO2 SLP036 T01611078 56008,M
LOL,2025-04-02 02:53,-118.5701,40.0684,1192.43,38.00,30.00,72.64,330.00,16.00,0.00,29.73,1008.00,10.00,20.00,FEW,BKN,OVC,M,3900.00,5000.00,6000.00,M,M,M,M,M,M,M,M,28.24,KLOL 020253Z AUTO 33016G20KT 10SM FEW039 BKN050 OVC060 03/M01 A2973 RMK AO2 SLP080 60000 T00331011 53007,M
WMC,2025-04-02 02:54,-117.8072,40.9019,1315.00,33.80,32.00,93.03,190.00,3.00,0.01,29.71,M,9.00,M,SCT,BKN,OVC,M,1600.00,3700.00,9500.00,M,M,M,M,M,M,M,M,30.75,KWMC 020254Z AUTO 19003KT 9SM SCT016 BKN037 OVC095 01/00 A2971 RMK AO2 SNE51 P0001 TSNO,M
INS,2025-04-02 02:55,-115.6733,36.5872,955.00,58.00,7.30,12.94,220.00,7.00,0.00,29.63,1001.10,10.00,M,SCT,M,M,M,10000.00,M,M,M,M,M,M,M,M,M,M,58.00,KINS 020255Z AUTO 22007KT 10SM SCT100 14/M14 A2963 RMK AO2 SLP011 T01441137 56008 $,M
LSV,2025-04-02 02:55,-115.0343,36.2362,570.00,63.00,7.50,10.93,260.00,5.00,0.00,29.58,1000.60,10.00,M,SCT,M,M,M,15000.00,M,M,M,M,M,M,M,M,M,M,63.00,KLSV 020255Z 26005KT 10SM SCT150 17/M14 A2958 RMK AO2A SLP006 T01721136 56004 FZRANO $,M
BVU,2025-04-02 02:55,-114.8611,35.9475,671.00,59.00,3.20,10.35,260.00,5.00,0.00,29.62,M,10.00,M,CLR,M,M,M,M,M,M,M,M,M,M,M,M,M,M,59.00,KBVU 020255Z AUTO 26005KT 10SM CLR 15/M16 A2962 RMK AO2,M
RNO,2025-04-02 02:55,-119.7711,39.4839,1341.00,37.00,24.00,58.99,290.00,11.00,0.00,29.74,1007.20,10.00,M,BKN,BKN,OVC,M,5000.00,12000.00,16000.00,M,M,M,M,M,M,M,M,28.79,KRNO 020255Z 29011KT 10SM BKN050 BKN120 OVC160 03/M04 A2974 RMK AO2 SLP072 MTN TOPS OBSCD DSNT S THRU NW T00281044 53010,M
BAM,2025-04-02 02:55,-116.8743,40.5990,1382.36,33.80,32.00,93.03,240.00,4.00,0.00,29.71,M,10.00,M,SCT,SCT,BKN,M,800.00,4100.00,7500.00,M,M,M,M,M,M,M,M,29.52,KBAM 020255Z AUTO 24004KT 10SM SCT008 SCT041 BKN075 01/00 A2971 RMK AO1,M
TMT,2025-04-02 02:55,-117.1971,39.4643,1749.34,28.00,26.60,94.40,180.00,6.00,0.00,29.72,M,10.00,M,SCT,BKN,OVC,M,2900.00,6500.00,9500.00,M,M,M,M,M,M,M,M,20.71,KTMT 020255Z AUTO 18006KT 10SM SCT029 BKN065 OVC095 M02/M03 A2972 RMK AO2 T10231030,M
CXP,2025-04-02 02:55,-119.7326,39.1923,1431.00,33.80,28.40,80.36,140.00,3.00,0.00,29.77,M,10.00,M,SCT,BKN,OVC,M,3000.00,3900.00,4800.00,M,M,M,M,M,M,M,M,30.75,KCXP 020255Z AUTO 14003KT 10SM SCT030 BKN039 OVC048 01/M02 A2977 RMK AO2,M
HTH,2025-04-02 02:55,-118.6315,38.5448,1282.89,44.60,14.00,28.64,50.00,11.00,0.00,29.72,M,10.00,M,BKN,OVC,M,M,8500.00,11000.00,M,M,M,M,M,M,M,M,M,38.39,KHTH 020255Z AUTO 05011KT 10SM BKN085 OVC110 07/M10 A2972 RMK A01,M
EKO,2025-04-02 02:56,-115.7860,40.8242,1367.00,33.00,29.00,85.04,260.00,10.00,0.00,29.67,1006.00,10.00,M,FEW,BKN,OVC,M,3200.00,5500.00,7000.00,M,M,M,M,M,M,M,M,24.22,KEKO 020256Z AUTO 26010KT 10SM FEW032 BKN055 OVC070 01/M02 A2967 RMK AO2 SLP060 60000 T00061017 55000,M
WMC,2025-04-02 02:56,-117.8072,40.9019,1315.00,33.00,32.00,96.06,190.00,4.00,0.01,29.71,1006.80,9.00,M,SCT,BKN,OVC,M,1300.00,3700.00,9000.00,M,M,M,M,M,M,M,M,28.59,KWMC 020256Z AUTO 19004KT 9SM SCT013 BKN037 OVC090 01/00 A2971 RMK AO2 SNE51 SLP068 P0001 60003 T00060000 51004 TSNO,M
HND,2025-04-02 02:56,-115.1344,35.9729,742.79,59.00,8.00,12.89,270.00,5.00,0.00,29.64,M,10.00,M,CLR,M,M,M,M,M,M,M,M,M,M,M,M,M,M,59.00,KHND 020256Z 27005KT 10SM CLR 15/M13 A2964 RMK AO2 SLPNO T01501133 56008 $,M
TPH,2025-04-02 02:56,-117.0904,38.0505,1654.00,36.00,22.00,56.42,330.00,14.00,0.00,29.72,1006.20,10.00,M,FEW,M,M,M,9500.00,M,M,M,M,M,M,M,M,M,M,26.32,KTPH 020256Z AUTO 33014KT 10SM FEW095 02/M06 A2972 RMK AO2 SLP062 T00221056 55000,M
LAS,2025-04-02 02:56,-115.1634,36.0719,663.00,60.00,13.00,15.54,300.00,5.00,0.00,29.63,1002.40,10.00,M,FEW,BKN,BKN,M,7000.00,11000.00,20000.00,M,M,M,M,M,M,M,M,60.00,KLAS 020256Z 30005KT 10SM FEW070 BKN110 BKN200 16/M11 A2963 RMK AO2 SLP024 T01561106 56009,M
NFL,2025-04-02 02:57,-118.7010,39.4166,1199.00,43.00,22.00,42.95,300.00,12.00,0.00,29.72,1004.50,10.00,M,BKN,OVC,M,M,6000.00,8000.00,M,M,M,M,M,M,M,M,M,36.00,KNFL 020257Z 30012KT 10SM BKN060 OVC080 06/M06 A2972 RMK AO2 SLP045 T00611056 53006,M
10U,2025-04-02 03:00,-116.1876,41.9532,1637.00,26.60,24.80,92.80,160.00,4.00,0.00,29.68,M,10.00,M,SCT,SCT,M,M,5500.00,7000.00,M,M,M,M,M,M,M,M,M,21.11,K10U 020300Z AUTO 16004KT 10SM SCT055 SCT070 M03/M04 A2968 RMK AO2,M
RTS,2025-04-02 03:05,-119.8764,39.6682,1539.00,32.00,26.60,80.22,280.00,6.00,0.00,29.74,M,10.00,M,FEW,BKN,OVC,M,3000.00,3900.00,6500.00,M,M,M,M,M,M,M,M,25.53,KRTS 020305Z AUTO 28006KT 10SM FEW030 BKN039 OVC065 M00/M03 A2974 RMK AO2,M
MEV,2025-04-02 03:05,-119.7500,38.9963,1441.42,33.80,24.80,69.25,270.00,9.00,0.00,29.76,M,10.00,M,FEW,BKN,OVC,M,700.00,2500.00,8000.00,M,UP,M,M,M,M,M,M,25.75,KMEV 020305Z AUTO 27009KT 10SM UP FEW007 BKN025 OVC080 01/M04 A2976 RMK AO2,M
WMC,2025-04-02 03:08,-117.8072,40.9019,1315.00,34.00,32.00,92.29,0.00,0.00,0.00,29.71,M,10.00,M,BKN,BKN,M,M,1300.00,4600.00,M,M,M,M,M,M,M,M,M,34.00,KWMC 020308Z AUTO 00000KT 10SM BKN013 BKN046 01/00 A2971 RMK AO2 T00110000 TSNO,M
LOL,2025-04-02 03:12,-118.5701,40.0684,1192.43,34.00,32.00,92.29,300.00,10.00,0.01,29.75,M,3.00,M,OVC,M,M,M,2500.00,M,M,M,-SN BR,M,M,M,M,M,M,25.48,KLOL 020312Z AUTO 30010KT 3SM -SN BR OVC025 01/00 A2975 RMK AO2 RAB0256E0258SNB0258 P0001 T00110000,M
BVU,2025-04-02 03:15,-114.8611,35.9475,671.00,59.00,3.20,10.35,270.00,5.00,0.00,29.62,M,10.00,M,CLR,M,M,M,M,M,M,M,M,M,M,M,M,M,M,59.00,KBVU 020315Z AUTO 27005KT 10SM CLR 15/M16 A2962 RMK AO2,M
EKO,2025-04-02 03:15,-115.7860,40.8242,1367.00,32.00,30.00,92.22,240.00,9.00,T,29.68,M,1.75,M,OVC,M,M,M,3200.00,M,M,M,-SN BR,M,M,M,M,M,M,23.51,KEKO 020315Z AUTO 24009KT 1 3/4SM -SN BR OVC032 00/M01 A2968 RMK AO2 SNB06 P0000 T00001011,M
BAM,2025-04-02 03:15,-116.8743,40.5990,1382.36,33.80,32.00,93.03,250.00,5.00,0.00,29.71,M,10.00,M,SCT,M,M,M,3900.00,M,M,M,M,M,M,M,M,M,M,28.53,KBAM 020315Z AUTO 25005KT 10SM SCT039 01/00 A2971 RMK AO1,M
TMT,2025-04-02 03:15,-117.1971,39.4643,1749.34,28.00,26.00,92.08,210.00,9.00,0.00,29.73,M,10.00,M,SCT,SCT,BKN,M,6500.00,7500.00,10000.00,M,M,M,M,M,M,M,M,18.54,KTMT 020315Z AUTO 21009KT 10SM SCT065 SCT075 BKN100 M02/M03 A2973 RMK AO2 T10221034,M
CXP,2025-04-02 03:15,-119.7326,39.1923,1431.00,33.80,26.60,74.63,0.00,0.00,0.00,29.77,M,10.00,M,SCT,BKN,OVC,M,3400.00,4300.00,5000.00,M,M,M,M,M,M,M,M,33.80,KCXP 020315Z AUTO 00000KT 10SM SCT034 BKN043 OVC050 01/M03 A2977 RMK AO2,M
HTH,2025-04-02 03:15,-118.6315,38.5448,1282.89,44.60,14.00,28.64,350.00,11.00,0.00,29.72,M,10.00,M,SCT,BKN,OVC,M,7000.00,7500.00,8500.00,M,M,M,M,M,M,M,M,38.39,KHTH 020315Z AUTO 35011KT 10SM SCT070 BKN075 OVC085 07/M10 A2972 RMK A01,M
10U,2025-04-02 03:20,-116.1876,41.9532,1637.00,26.60,24.80,92.80,150.00,4.00,0.00,29.68,M,10.00,M,SCT,BKN,OVC,M,4000.00,4700.00,7000.00,M,M,M,M,M,M,M,M,21.11,K10U 020320Z AUTO 15004KT 10SM SCT040 BKN047 OVC070 M03/M04 A2968 RMK AO2,M
EKO,2025-04-02 03:23,-115.7860,40.8242,1367.00,32.00,30.00,92.22,230.00,10.00,T,29.68,M,1.00,M,OVC,M,M,M,2100.00,M,M,M,-SN BR,M,M,M,M,M,M,22.97,KEKO 020323Z AUTO 23010KT 1SM -SN BR OVC021 00/M01 A2968 RMK AO2 SNB06 P0000 T00001011,M
WMC,2025-04-02 03:28,-117.8072,40.9019,1315.00,33.00,31.00,92.25,0.00,0.00,0.00,29.71,M,10.00,M,SCT,BKN,M,M,1100.00,6000.00,M,M,M,M,M,M,M,M,M,33.00,KWMC 020328Z AUTO 00000KT 10SM SCT011 BKN060 01/M01 A2971 RMK AO2 T00061006 TSNO,M
EKO,2025-04-02 03:29,-115.7860,40.8242,1367.00,31.00,31.00,100.00,220.00,8.00,T,29.69,M,0.50,M,VV ,M,M,M,1400.00,M,M,M,SN FZFG,M,M,M,M,M,M,22.88,KEKO 020329Z AUTO 22008KT 1/2SM SN FZFG VV014 M01/M01 A2969 RMK AO2 SNB06 P0000 T10061006,M
BVU,2025-04-02 03:35,-114.8611,35.9475,671.00,57.20,3.20,11.04,210.00,4.00,0.00,29.62,M,10.00,M,FEW,M,M,M,12000.00,M,M,M,M,M,M,M,M,M,M,57.20,KBVU 020335Z AUTO 21004KT 10SM FEW120 14/M16 A2962 RMK AO2,M
CXP,2025-04-02 03:35,-119.7326,39.1923,1431.00,35.60,24.80,64.46,200.00,5.00,0.00,29.77,M,10.00,M,FEW,SCT,BKN,M,2800.00,3300.00,3800.00,M,M,M,M,M,M,M,M,30.67,KCXP 020335Z AUTO 20005KT 10SM FEW028 SCT033 BKN038 02/M04 A2977 RMK AO2,M
BAM,2025-04-02 03:35,-116.8743,40.5990,1382.36,33.80,32.00,93.03,250.00,4.00,0.00,29.71,M,10.00,M,SCT,M,M,M,8000.00,M,M,M,M,M,M,M,M,M,M,29.52,KBAM 020335Z AUTO 25004KT 10SM SCT080 01/00 A2971 RMK AO1,M
HTH,2025-04-02 03:35,-118.6315,38.5448,1282.89,44.60,12.20,26.45,300.00,5.00,0.00,29.73,M,10.00,11.00,BKN,OVC,M,M,6500.00,7500.00,M,M,M,M,M,M,M,M,M,41.36,KHTH 020335Z AUTO 30005G11KT 10SM BKN065 OVC075 07/M11 A2973 RMK A01,M
TMT,2025-04-02 03:35,-117.1971,39.4643,1749.34,27.50,25.30,91.30,190.00,7.00,0.00,29.73,M,10.00,M,SCT,SCT,BKN,M,3500.00,7500.00,10000.00,M,M,M,M,M,M,M,M,19.29,KTMT 020335Z AUTO 19007KT 10SM SCT035 SCT075 BKN100 M02/M04 A2973 RMK AO2 T10251037,M
10U,2025-04-02 03:40,-116.1876,41.9532,1637.00,26.60,26.60,100.00,140.00,4.00,0.00,29.68,M,10.00,M,SCT,OVC,M,M,4100.00,4900.00,M,M,M,M,M,M,M,M,M,21.11,K10U 020340Z AUTO 14004KT 10SM SCT041 OVC049 M03/M03 A2968 RMK AO2,M
EKO,2025-04-02 03:41,-115.7860,40.8242,1367.00,31.00,30.00,96.02,230.00,4.00,0.03,29.69,M,0.50,M,VV ,M,M,M,700.00,M,M,M,SN FZFG,M,M,M,M,M,M,26.25,KEKO 020341Z AUTO 23004KT 1/2SM SN FZFG VV007 M01/M01 A2969 RMK AO2 SNB06 P0003 T10061011,M
LOL,2025-04-02 03:41,-118.5701,40.0684,1192.43,35.00,30.00,81.78,290.00,4.00,0.01,29.74,M,9.00,M,OVC,M,M,M,3700.00,M,M,M,M,M,M,M,M,M,M,30.92,KLOL 020341Z AUTO 29004KT 9SM OVC037 02/M01 A2974 RMK AO2 RAB0256E0258SNB0258E41 P0001 T00171011,M
DRA,2025-04-02 03:53,-116.0278,36.6206,1009.00,55.00,15.00,20.31,280.00,13.00,0.00,29.64,1001.30,10.00,25.00,BKN,OVC,M,M,7500.00,9500.00,M,M,M,M,M,M,36.00,230.00,2025-04-02 03:46,55.00,KDRA 020353Z AUTO 28013G25KT 10SM BKN075 OVC095 13/M09 A2964 RMK AO2 PK WND 23036/0346 SLP013 T01281094,M
P68,2025-04-02 03:53,-116.0056,39.6014,1993.00,28.00,27.00,95.97,220.00,5.00,0.03,29.69,1005.80,M,M,M,M,M,M,M,M,M,M,M,M,M,M,M,M,M,21.64,KP68 020353Z AUTO 22005KT M02/M03 A2969 RMK AO1 SLP058 P0003 T10221028,M
ELY,2025-04-02 03:53,-114.8453,39.2950,1909.00,29.00,22.00,74.77,290.00,6.00,0.00,29.68,1005.00,10.00,M,OVC,M,M,M,10000.00,M,M,M,M,M,M,M,M,M,M,21.92,KELY 020353Z AUTO 29006KT 10SM OVC100 M02/M06 A2968 RMK AO2 SLP050 T10171056,M
VGT,2025-04-02 03:53,-115.1933,36.2111,667.00,60.00,17.00,18.50,230.00,5.00,0.00,29.62,1003.80,10.00,M,CLR,M,M,M,M,M,M,M,M,M,M,M,M,M,M,60.00,KVGT 020353Z 23005KT 10SM CLR 16/M08 A2962 RMK AO2 SLP038 T01561083,M
LOL,2025-04-02 03:53,-118.5701,40.0684,1192.43,35.00,31.00,85.17,270.00,3.00,0.01,29.75,1008.40,10.00,M,BKN,OVC,M,M,4100.00,7500.00,M,M,M,M,M,M,M,M,M,32.12,KLOL 020353Z AUTO 27003KT 10SM BKN041 OVC075 02/M01 A2975 RMK AO2 RAB0256E0258SNB0258E41 SLP084 P0001 T00171006,M
INS,2025-04-02 03:55,-115.6733,36.5872,955.00,54.00,6.00,14.10,250.00,4.00,0.00,29.64,1001.60,10.00,M,SCT,M,M,M,12000.00,M,M,M,M,M,M,M,M,M,M,54.00,KINS 020355Z AUTO 25004KT 10SM SCT120 12/M14 A2964 RMK AO2 SLP016 T01231145 $,M
LSV,2025-04-02 03:55,-115.0343,36.2362,570.00,60.80,8.00,12.09,0.00,0.00,0.00,29.58,1000.60,10.00,M,BKN,M,M,M,15000.00,M,M,M,M,M,M,M,M,M,M,60.80,KLSV 020355Z 00000KT 10SM BKN150 16/M13 A2958 RMK AO2A SLP006 T01601134 FZRANO $,M
BVU,2025-04-02 03:55,-114.8611,35.9475,671.00,57.20,10.40,15.31,240.00,10.00,0.00,29.63,M,10.00,M,BKN,M,M,M,11000.00,M,M,M,M,M,M,M,M,M,M,57.20,KBVU 020355Z AUTO 24010KT 10SM BKN110 14/M12 A2963 RMK AO2,M
RNO,2025-04-02 03:55,-119.7711,39.4839,1341.00,37.00,24.00,58.99,290.00,10.00,0.00,29.75,1007.40,10.00,M,BKN,BKN,BKN,M,5500.00,10000.00,16000.00,M,M,M,M,M,M,M,M,29.24,KRNO 020355Z 29010KT 10SM BKN055 BKN100 BKN160 03/M04 A2975 RMK AO2 SLP074 T00281044,M
BAM,2025-04-02 03:55,-116.8743,40.5990,1382.36,32.00,32.00,100.00,250.00,4.00,0.00,29.72,M,10.00,M,SCT,SCT,M,M,4000.00,8000.00,M,M,M,M,M,M,M,M,M,27.42,KBAM 020355Z AUTO 25004KT 10SM SCT040 SCT080 00/00 A2972 RMK AO1,M
TMT,2025-04-02 03:55,-117.1971,39.4643,1749.34,27.50,24.80,89.42,200.00,6.00,0.00,29.73,M,10.00,M,SCT,SCT,BKN,M,4300.00,6000.00,7000.00,M,M,M,M,M,M,M,M,20.11,KTMT 020355Z AUTO 20006KT 10SM SCT043 SCT060 BKN070 M02/M04 A2973 RMK AO2 T10251040,M
CXP,2025-04-02 03:55,-119.7326,39.1923,1431.00,33.80,26.60,74.63,220.00,6.00,0.00,29.78,M,10.00,M,FEW,OVC,M,M,4500.00,7500.00,M,M,M,M,M,M,M,M,M,27.70,KCXP 020355Z AUTO 22006KT 10SM FEW045 OVC075 01/M03 A2978 RMK AO2,M
RTS,2025-04-02 03:55,-119.8764,39.6682,1539.00,30.20,26.60,86.28,290.00,6.00,0.00,29.77,M,10.00,12.00,BKN,OVC,M,M,6500.00,8000.00,M,M,M,M,M,M,M,M,M,23.36,KRTS 020355Z AUTO 29006G12KT 10SM BKN065 OVC080 M01/M03 A2977 RMK AO2,M
MEV,2025-04-02 03:55,-119.7500,38.9963,1441.42,32.00,26.60,80.22,300.00,6.00,0.00,29.76,M,10.00,12.00,FEW,SCT,BKN,M,3000.00,4100.00,5500.00,M,M,M,M,M,M,M,M,25.53,KMEV 020355Z AUTO 30006G12KT 10SM FEW030 SCT041 BKN055 00/M03 A2976 RMK AO2,M
HTH,2025-04-02 03:55,-118.6315,38.5448,1282.89,42.80,14.00,30.68,290.00,8.00,0.00,29.73,M,10.00,M,FEW,BKN,OVC,M,5500.00,7000.00,10000.00,M,M,M,M,M,M,M,M,37.42,KHTH 020355Z AUTO 29008KT 10SM FEW055 BKN070 OVC100 06/M10 A2973 RMK A01,M
EKO,2025-04-02 03:56,-115.7860,40.8242,1367.00,31.00,30.00,96.02,230.00,3.00,0.04,29.69,1006.80,0.75,M,VV ,M,M,M,800.00,M,M,M,-SN BR,M,M,M,M,M,M,27.55,KEKO 020356Z AUTO 23003KT 3/4SM -SN BR VV008 M01/M01 A2969 RMK AO2 SNB06 SLP068 P0004 T10061011,M
WMC,2025-04-02 03:56,-117.8072,40.9019,1315.00,34.00,32.00,92.29,0.00,0.00,T,29.72,1007.30,7.00,M,OVC,M,M,M,4600.00,M,M,M,-SN,M,M,M,M,M,M,34.00,KWMC 020356Z AUTO 00000KT 7SM -SN OVC046 01/00 A2972 RMK AO2 SNB41 SLP073 P0000 T00110000 TSNO,M
HND,2025-04-02 03:56,-115.1344,35.9729,742.79,57.00,18.00,21.51,210.00,14.00,0.00,29.65,M,10.00,M,CLR,M,M,M,M,M,M,M,M,M,M,M,M,M,M,57.00,KHND 020356Z AUTO 21014KT 10SM CLR 14/M08 A2965 RMK AO2 SLPNO T01391078 $,M
TPH,2025-04-02 03:56,-117.0904,38.0505,1654.00,35.00,21.00,56.27,320.00,10.00,0.00,29.73,1006.70,10.00,19.00,BKN,OVC,M,M,5000.00,6000.00,M,M,M,M,M,M,M,M,M,26.73,KTPH 020356Z AUTO 32010G19KT 10SM BKN050 OVC060 02/M06 A2973 RMK AO2 SLP067 T00171061,M
LAS,2025-04-02 03:56,-115.1634,36.0719,663.00,60.00,12.00,14.87,210.00,7.00,0.00,29.64,1002.50,10.00,16.00,BKN,BKN,M,M,11000.00,20000.00,M,M,M,M,M,M,M,M,M,60.00,KLAS 020356Z 21007G16KT 10SM BKN110 BKN200 16/M11 A2964 RMK AO2 SLP025 T01561111,M
NFL,2025-04-02 03:57,-118.7010,39.4166,1199.00,41.00,24.00,50.46,290.00,14.00,0.00,29.75,1005.30,10.00,M,SCT,OVC,M,M,5000.00,8000.00,M,M,M,M,M,M,M,M,M,32.76,KNFL 020357Z 29014KT 10SM SCT050 OVC080 05/M04 A2975 RMK AO2 SLP053 T00501044,M
10U,2025-04-02 04:00,-116.1876,41.9532,1637.00,26.60,24.80,92.80,0.00,0.00,0.00,29.69,M,10.00,M,SCT,BKN,OVC,M,3900.00,4800.00,5500.00,M,M,M,M,M,M,M,M,26.60,K10U 020400Z AUTO 00000KT 10SM SCT039 BKN048 OVC055 M03/M04 A2969 RMK AO2,M
MEV,2025-04-02 04:10,-119.7500,38.9963,1441.42,32.00,28.40,86.39,340.00,7.00,0.00,29.76,M,10.00,M,FEW,SCT,BKN,M,3100.00,5000.00,6000.00,M,M,M,M,M,M,M,M,24.78,KMEV 020410Z AUTO 34007KT 10SM FEW031 SCT050 BKN060 M00/M02 A2976 RMK AO2,M
BVU,2025-04-02 04:15,-114.8611,35.9475,671.00,59.00,14.00,16.83,230.00,14.00,0.00,29.63,M,10.00,19.00,SCT,M,M,M,11000.00,M,M,M,M,M,M,M,M,M,M,59.00,KBVU 020415Z AUTO 23014G19KT 10SM SCT110 15/M10 A2963 RMK AO2,M
CXP,2025-04-02 04:15,-119.7326,39.1923,1431.00,33.80,26.60,74.63,0.00,0.00,0.00,29.78,M,10.00,M,SCT,OVC,M,M,6000.00,7000.00,M,M,M,M,M,M,M,M,M,33.80,KCXP 020415Z AUTO 00000KT 10SM SCT060 OVC070 01/M03 A2978 RMK AO2,M
RTS,2025-04-02 04:15,-119.8764,39.6682,1539.00,32.00,26.60,80.22,350.00,6.00,0.00,29.78,M,10.00,M,SCT,OVC,M,M,3600.00,6000.00,M,M,M,M,M,M,M,M,M,25.53,KRTS 020415Z AUTO 35006KT 10SM SCT036 OVC060 M00/M03 A2978 RMK AO2,M
BAM,2025-04-02 04:15,-116.8743,40.5990,1382.36,32.00,32.00,100.00,230.00,4.00,0.00,29.72,M,10.00,M,BKN,M,M,M,3800.00,M,M,M,M,M,M,M,M,M,M,27.42,KBAM 020415Z AUTO 23004KT 10SM BKN038 00/00 A2972 RMK AO1,M
HTH,2025-04-02 04:15,-118.6315,38.5448,1282.89,42.80,15.80,33.18,340.00,10.00,0.00,29.74,M,10.00,M,FEW,SCT,BKN,M,5500.00,6500.00,7500.00,M,M,M,M,M,M,M,M,36.51,KHTH 020415Z AUTO 34010KT 10SM FEW055 SCT065 BKN075 06/M09 A2974 RMK A01,M
TMT,2025-04-02 04:15,-117.1971,39.4643,1749.34,27.70,25.30,90.55,240.00,5.00,0.00,29.74,M,10.00,M,SCT,BKN,OVC,M,4500.00,7000.00,7500.00,M,M,M,M,M,M,M,M,21.29,KTMT 020415Z AUTO 24005KT 10SM SCT045 BKN070 OVC075 M02/M04 A2974 RMK AO2 T10241037,M
EKO,2025-04-02 04:16,-115.7860,40.8242,1367.00,30.00,30.00,100.00,240.00,3.00,0.03,29.69,M,2.00,M,BKN,OVC,M,M,700.00,1900.00,M,M,-SN BR,M,M,M,M,M,M,26.40,KEKO 020416Z AUTO 24003KT 2SM -SN BR BKN007 OVC019 M01/M01 A2969 RMK AO2 P0003 T10111011,M
10U,2025-04-02 04:20,-116.1876,41.9532,1637.00,26.60,24.80,92.80,220.00,4.00,0.00,29.69,M,10.00,M,SCT,BKN,OVC,M,3600.00,4500.00,6000.00,M,M,M,M,M,M,M,M,21.11,K10U 020420Z AUTO 22004KT 10SM SCT036 BKN045 OVC060 M03/M04 A2969 RMK AO2,M
EKO,2025-04-02 04:23,-115.7860,40.8242,1367.00,30.00,30.00,100.00,180.00,3.00,0.03,29.69,M,8.00,M,BKN,BKN,OVC,M,700.00,1900.00,4500.00,M,-SN,M,M,M,M,M,M,26.40,KEKO 020423Z AUTO 18003KT 8SM -SN BKN007 BKN019 OVC045 M01/M01 A2969 RMK AO2 P0003 T10111011,M
RTS,2025-04-02 04:25,-119.8764,39.6682,1539.00,32.00,24.80,74.44,320.00,3.00,0.00,29.78,M,10.00,M,FEW,BKN,OVC,M,3600.00,5000.00,6000.00,M,M,M,M,M,M,M,M,28.69,KRTS 020425Z AUTO 32003KT 10SM FEW036 BKN050 OVC060 M00/M04 A2978 RMK AO2,M
EKO,2025-04-02 04:28,-115.7860,40.8242,1367.00,30.00,30.00,100.00,190.00,3.00,0.03,29.69,M,9.00,M,SCT,SCT,OVC,M,700.00,1900.00,4500.00,M,M,M,M,M,M,M,M,26.40,KEKO 020428Z AUTO 19003KT 9SM SCT007 SCT019 OVC045 M01/M01 A2969 RMK AO2 SNE24 P0003 T10111011,M
BVU,2025-04-02 04:35,-114.8611,35.9475,671.00,57.20,15.80,19.42,210.00,11.00,0.00,29.64,M,10.00,M,CLR,M,M,M,M,M,M,M,M,M,M,M,M,M,M,57.20,KBVU 020435Z AUTO 21011KT 10SM CLR 14/M09 A2964 RMK AO2,M
CXP,2025-04-02 04:35,-119.7326,39.1923,1431.00,33.80,26.60,74.63,0.00,0.00,0.00,29.79,M,10.00,M,OVC,M,M,M,6000.00,M,M,M,M,M,M,M,M,M,M,33.80,KCXP 020435Z AUTO 00000KT 10SM OVC060 01/M03 A2979 RMK AO2,M
MEV,2025-04-02 04:35,-119.7500,38.9963,1441.42,32.00,26.60,80.22,140.00,5.00,0.00,29.77,M,10.00,M,BKN,BKN,OVC,M,6500.00,7500.00,8500.00,M,M,M,M,M,M,M,M,26.40,KMEV 020435Z AUTO 14005KT 10SM BKN065 BKN075 OVC085 M00/M03 A2977 RMK AO2,M
BAM,2025-04-02 04:35,-116.8743,40.5990,1382.36,32.00,32.00,100.00,250.00,5.00,0.00,29.73,M,10.00,M,SCT,BKN,M,M,3800.00,10000.00,M,M,M,M,M,M,M,M,M,26.40,KBAM 020435Z AUTO 25005KT 10SM SCT038 BKN100 00/00 A2973 RMK AO1,M
HTH,2025-04-02 04:35,-118.6315,38.5448,1282.89,42.80,14.00,30.68,310.00,8.00,0.00,29.75,M,10.00,16.00,BKN,OVC,M,M,6500.00,7500.00,M,M,M,M,M,M,M,M,M,37.42,KHTH 020435Z AUTO 31008G16KT 10SM BKN065 OVC075 06/M10 A2975 RMK A01,M
TMT,2025-04-02 04:35,-117.1971,39.4643,1749.34,28.20,26.20,92.09,230.00,5.00,0.00,29.74,M,3.00,M,SCT,BKN,OVC,M,1300.00,1900.00,4800.00,M,-SN,M,M,M,M,M,M,21.88,KTMT 020435Z AUTO 23005KT 3SM -SN SCT013 BKN019 OVC048 M02/M03 A2974 RMK AO2 T10211032,M
10U,2025-04-02 04:40,-116.1876,41.9532,1637.00,26.60,24.80,92.80,220.00,3.00,0.00,29.69,M,10.00,M,SCT,OVC,M,M,4700.00,5500.00,M,M,M,M,M,M,M,M,M,22.52,K10U 020440Z AUTO 22003KT 10SM SCT047 OVC055 M03/M04 A2969 RMK AO2,M
MEV,2025-04-02 04:50,-119.7500,38.9963,1441.42,32.00,26.60,80.22,100.00,7.00,0.00,29.77,M,10.00,M,BKN,OVC,M,M,7000.00,7500.00,M,M,M,M,M,M,M,M,M,24.78,KMEV 020450Z AUTO 10007KT 10SM BKN070 OVC075 M00/M03 A2977 RMK AO2,M
P68,2025-04-02 04:53,-116.0056,39.6014,1993.00,30.00,24.00,78.07,250.00,8.00,0.00,29.69,1005.30,M,M,M,M,M,M,M,M,M,M,M,M,M,M,M,M,M,21.65,KP68 020453Z AUTO 25008KT M01/M04 A2969 RMK AO1 SLP053 T10111044,M
DRA,2025-04-02 04:53,-116.0278,36.6206,1009.00,53.00,17.00,23.83,360.00,6.00,0.00,29.64,1001.30,10.00,22.00,BKN,M,M,M,10000.00,M,M,M,M,M,M,M,M,M,M,53.00,KDRA 020453Z AUTO 36006G22KT 10SM BKN100 12/M08 A2964 RMK AO2 SLP013 T01171083,M
ELY,2025-04-02 04:53,-114.8453,39.2950,1909.00,30.00,23.00,74.87,0.00,0.00,0.00,29.68,1004.30,10.00,M,BKN,OVC,M,M,6000.00,7000.00,M,M,M,M,M,M,M,M,M,30.00,KELY 020453Z AUTO 00000KT 10SM BKN060 OVC070 M01/M05 A2968 RMK AO2 SLP043 T10111050,M
VGT,2025-04-02 04:53,-115.1933,36.2111,667.00,58.00,20.00,22.61,220.00,13.00,0.00,29.62,1003.70,10.00,21.00,CLR,M,M,M,M,M,M,M,M,M,M,M,M,M,M,58.00,KVGT 020453Z AUTO 22013G21KT 10SM CLR 14/M07 A2962 RMK AO2 SLP037 T01441067,M
LOL,2025-04-02 04:53,-118.5701,40.0684,1192.43,36.00,31.00,81.86,60.00,6.00,0.00,29.75,1008.10,10.00,M,OVC,M,M,M,6500.00,M,M,M,M,M,M,M,M,M,M,30.35,KLOL 020453Z AUTO 06006KT 10SM OVC065 02/M01 A2975 RMK AO2 SLP081 T00221006,M
INS,2025-04-02 04:55,-115.6733,36.5872,955.00,56.00,15.40,19.93,200.00,12.00,0.00,29.64,1001.50,10.00,M,FEW,SCT,OVC,M,6000.00,7500.00,9500.00,M,M,M,M,M,M,M,M,56.00,KINS 020455Z AUTO 20012KT 10SM FEW060 SCT075 OVC095 13/M09 A2964 RMK AO2 SLP015 T01331092 $,M
LSV,2025-04-02 04:55,-115.0343,36.2362,570.00,58.30,10.80,14.98,200.00,7.00,0.00,29.59,1000.90,10.00,M,CLR,M,M,M,M,M,M,M,M,M,M,M,M,M,M,58.30,KLSV 020455Z AUTO 20007KT 10SM CLR 15/M12 A2959 RMK AO2 SLP009 T01461118 FZRANO $,M
BVU,2025-04-02 04:55,-114.8611,35.9475,671.00,57.20,17.60,20.99,190.00,15.00,0.00,29.63,M,10.00,M,CLR,M,M,M,M,M,M,M,M,M,M,M,M,M,M,57.20,KBVU 020455Z AUTO 19015KT 10SM CLR 14/M08 A2963 RMK AO2,M
RNO,2025-04-02 04:55,-119.7711,39.4839,1341.00,36.00,25.00,63.98,350.00,7.00,0.00,29.78,1008.00,10.00,M,BKN,BKN,BKN,M,6000.00,9500.00,16000.00,M,M,M,M,M,M,M,M,29.65,KRNO 020455Z 35007KT 10SM BKN060 BKN095 BKN160 02/M04 A2978 RMK AO2 SLP080 T00221039,M
BAM,2025-04-02 04:55,-116.8743,40.5990,1382.36,32.00,32.00,100.00,250.00,6.00,0.00,29.73,M,10.00,M,SCT,BKN,M,M,3000.00,3600.00,M,M,M,M,M,M,M,M,M,25.53,KBAM 020455Z AUTO 25006KT 10SM SCT030 BKN036 00/00 A2973 RMK AO1,M
CXP,2025-04-02 04:55,-119.7326,39.1923,1431.00,33.80,26.60,74.63,0.00,0.00,0.00,29.79,M,10.00,M,OVC,M,M,M,6000.00,M,M,M,M,M,M,M,M,M,M,33.80,KCXP 020455Z AUTO 00000KT 10SM OVC060 01/M03 A2979 RMK AO2,M
HTH,2025-04-02 04:55,-118.6315,38.5448,1282.89,42.80,14.00,30.68,320.00,6.00,0.00,29.75,M,10.00,M,SCT,OVC,M,M,5500.00,6500.00,M,M,M,M,M,M,M,M,M,38.54,KHTH 020455Z AUTO 32006KT 10SM SCT055 OVC065 06/M10 A2975 RMK A01,M
TMT,2025-04-02 04:55,-117.1971,39.4643,1749.34,28.00,26.60,94.40,240.00,4.00,0.00,29.74,M,1.25,M,SCT,BKN,OVC,M,700.00,1300.00,1900.00,M,SN,M,M,M,M,M,M,22.75,KTMT 020455Z AUTO 24004KT 1 1/4SM SN SCT007 BKN013 OVC019 M02/M03 A2974 RMK AO2 T10231030,M
EKO,2025-04-02 04:56,-115.7860,40.8242,1367.00,28.00,27.00,95.97,230.00,4.00,0.03,29.68,1006.50,10.00,M,FEW,SCT,OVC,M,300.00,3600.00,8500.00,M,M,M,M,M,M,M,M,22.75,KEKO 020456Z AUTO 23004KT 10SM FEW003 SCT036 OVC085 M02/M03 A2968 RMK AO2 SNE24 SLP065 P0003 T10221028,M
WMC,2025-04-02 04:56,-117.8072,40.9019,1315.00,33.00,32.00,96.06,160.00,4.00,T,29.72,1007.40,10.00,M,FEW,BKN,BKN,M,2500.00,4000.00,5000.00,M,M,M,M,M,M,M,M,28.59,KWMC 020456Z AUTO 16004KT 10SM FEW025 BKN040 BKN050 01/00 A2972 RMK AO2 SNE48 SLP074 P0000 T00060000 TSNO,M
HND,2025-04-02 04:56,-115.1344,35.9729,742.79,55.00,20.00,25.20,210.00,17.00,0.00,29.66,M,10.00,21.00,CLR,M,M,M,M,M,M,M,M,M,M,M,M,M,M,55.00,KHND 020456Z AUTO 21017G21KT 10SM CLR 13/M07 A2966 RMK AO2 SLPNO T01281067 $,M
TPH,2025-04-02 04:56,-117.0904,38.0505,1654.00,34.00,21.00,58.56,320.00,8.00,0.00,29.72,1005.90,10.00,M,FEW,SCT,M,M,5500.00,9000.00,M,M,M,M,M,M,M,M,M,26.58,KTPH 020456Z AUTO 32008KT 10SM FEW055 SCT090 01/M06 A2972 RMK AO2 SLP059 T00111061,M
LAS,2025-04-02 04:56,-115.1634,36.0719,663.00,58.00,19.00,21.66,250.00,14.00,0.00,29.64,1002.60,10.00,26.00,FEW,SCT,M,M,11000.00,20000.00,M,M,M,M,M,M,26.00,260.00,2025-04-02 04:51,58.00,KLAS 020456Z 25014G26KT 10SM FEW110 SCT200 14/M07 A2964 RMK AO2 PK WND 26026/0451 SLP026 T01441072,M
NFL,2025-04-02 04:57,-118.7010,39.4166,1199.00,41.00,24.00,50.46,270.00,8.00,0.00,29.75,1005.50,10.00,M,BKN,OVC,M,M,6000.00,8000.00,M,M,M,M,M,M,M,M,M,35.20,KNFL 020457Z 27008KT 10SM BKN060 OVC080 05/M04 A2975 RMK AO2 SLP055 T00501044,M
10U,2025-04-02 05:00,-116.1876,41.9532,1637.00,26.60,24.80,92.80,170.00,4.00,0.00,29.69,M,10.00,M,FEW,SCT,OVC,M,3900.00,5000.00,6500.00,M,M,M,M,M,M,M,M,21.11,K10U 020500Z AUTO 17004KT 10SM FEW039 SCT050 OVC065 M03/M04 A2969 RMK AO2,M
BVU,2025-04-02 05:15,-114.8611,35.9475,671.00,57.20,17.60,20.99,210.00,9.00,0.00,29.64,M,10.00,24.00,CLR,M,M,M,M,M,M,M,M,M,M,M,M,M,M,57.20,KBVU 020515Z AUTO 21009G24KT 10SM CLR 14/M08 A2964 RMK AO2,M
BAM,2025-04-02 05:15,-116.8743,40.5990,1382.36,33.80,32.00,93.03,250.00,7.00,0.00,29.73,M,10.00,M,BKN,OVC,M,M,2800.00,3600.00,M,M,M,M,M,M,M,M,M,26.97,KBAM 020515Z AUTO 25007KT 10SM BKN028 OVC036 01/00 A2973 RMK AO1,M
CXP,2025-04-02 05:15,-119.7326,39.1923,1431.00,33.80,26.60,74.63,30.00,3.00,0.00,29.79,M,10.00,M,BKN,OVC,M,M,6000.00,7000.00,M,M,M,M,M,M,M,M,M,30.75,KCXP 020515Z AUTO 03003KT 10SM BKN060 OVC070 01/M03 A2979 RMK AO2,M
RTS,2025-04-02 05:15,-119.8764,39.6682,1539.00,30.20,26.60,86.28,280.00,7.00,0.00,29.78,M,10.00,M,BKN,BKN,OVC,M,4900.00,6000.00,7000.00,M,M,M,M,M,M,M,M,22.59,KRTS 020515Z AUTO 28007KT 10SM BKN049 BKN060 OVC070 M01/M03 A2978 RMK AO2,M
MEV,2025-04-02 05:15,-119.7500,38.9963,1441.42,32.00,26.60,80.22,80.00,6.00,0.00,29.77,M,10.00,M,SCT,BKN,OVC,M,4800.00,6000.00,7500.00,M,M,M,M,M,M,M,M,25.53,KMEV 020515Z AUTO 08006KT 10SM SCT048 BKN060 OVC075 00/M03 A2977 RMK AO2,M
HTH,2025-04-02 05:15,-118.6315,38.5448,1282.89,41.00,17.60,38.45,20.00,11.00,0.00,29.75,M,10.00,17.00,FEW,FEW,OVC,M,5000.00,6000.00,7500.00,M,M,M,M,M,M,M,M,33.84,KHTH 020515Z AUTO 02011G17KT 10SM FEW050 FEW060 OVC075 05/M08 A2975 RMK A01,M
TMT,2025-04-02 05:15,-117.1971,39.4643,1749.34,27.50,27.00,97.96,230.00,3.00,0.00,29.74,M,0.50,M,OVC,M,M,M,300.00,M,M,M,+SN,M,M,M,M,M,M,23.54,KTMT 020515Z AUTO 23003KT 1/2SM +SN OVC003 M02/M03 A2974 RMK AO2 T10251028,M
10U,2025-04-02 05:20,-116.1876,41.9532,1637.00,23.00,21.20,92.69,220.00,4.00,0.00,29.69,M,10.00,M,SCT,BKN,OVC,M,6500.00,9000.00,11000.00,M,M,M,M,M,M,M,M,16.91,K10U 020520Z AUTO 22004KT 10SM SCT065 BKN090 OVC110 M05/M06 A2969 RMK AO2,M
EKO,2025-04-02 05:23,-115.7860,40.8242,1367.00,27.00,27.00,100.00,280.00,3.00,0.00,29.69,M,10.00,M,BKN,BKN,M,M,400.00,8500.00,M,M,M,M,M,M,M,M,M,22.97,KEKO 020523Z AUTO 28003KT 10SM BKN004 BKN085 M03/M03 A2969 RMK AO2 T10281028,M
ELY,2025-04-02 05:24,-114.8453,39.2950,1909.00,29.00,24.00,81.32,240.00,5.00,T,29.68,M,2.50,M,OVC,M,M,M,2900.00,M,M,M,-SN,M,M,M,M,M,M,22.83,KELY 020524Z AUTO 24005KT 2 1/2SM -SN OVC029 M02/M04 A2968 RMK AO2 SNB16 P0000 T10171044,M
RTS,2025-04-02 05:25,-119.8764,39.6682,1539.00,30.20,26.60,86.28,270.00,7.00,0.00,29.78,M,10.00,M,SCT,BKN,OVC,M,4800.00,6000.00,7000.00,M,M,M,M,M,M,M,M,22.59,KRTS 020525Z AUTO 27007KT 10SM SCT048 BKN060 OVC070 M01/M03 A2978 RMK AO2,M
ELY,2025-04-02 05:32,-114.8453,39.2950,1909.00,29.00,24.00,81.32,210.00,3.00,T,29.68,M,3.00,M,OVC,M,M,M,3300.00,M,M,M,-SN,M,M,M,M,M,M,25.26,KELY 020532Z AUTO 21003KT 3SM -SN OVC033 M02/M04 A2968 RMK AO2 SNB16 P0000 T10171044,M
EKO,2025-04-02 05:34,-115.7860,40.8242,1367.00,28.00,28.00,100.00,270.00,5.00,0.00,29.69,M,1.50,M,BKN,BKN,M,M,200.00,9000.00,M,M,BR,M,M,M,M,M,M,21.64,KEKO 020534Z AUTO 27005KT 1 1/2SM BR BKN002 BKN090 M02/M02 A2969 RMK AO2 T10221022,M
BVU,2025-04-02 05:35,-114.8611,35.9475,671.00,55.40,17.60,22.41,260.00,11.00,0.00,29.62,M,10.00,19.00,CLR,M,M,M,M,M,M,M,M,M,M,M,M,M,M,55.40,KBVU 020535Z AUTO 26011G19KT 10SM CLR 13/M08 A2962 RMK AO2,M
BAM,2025-04-02 05:35,-116.8743,40.5990,1382.36,33.80,32.00,93.03,250.00,6.00,0.00,29.73,M,10.00,M,SCT,OVC,M,M,2800.00,3400.00,M,M,M,M,M,M,M,M,M,27.70,KBAM 020535Z AUTO 25006KT 10SM SCT028 OVC034 01/00 A2973 RMK AO1,M
CXP,2025-04-02 05:35,-119.7326,39.1923,1431.00,33.80,26.60,74.63,0.00,0.00,0.00,29.79,M,10.00,M,OVC,M,M,M,5500.00,M,M,M,M,M,M,M,M,M,M,33.80,KCXP 020535Z AUTO 00000KT 10SM OVC055 01/M03 A2979 RMK AO2,M
MEV,2025-04-02 05:35,-119.7500,38.9963,1441.42,32.00,26.60,80.22,0.00,0.00,0.00,29.78,M,10.00,M,BKN,BKN,OVC,M,4600.00,6000.00,7000.00,M,M,M,M,M,M,M,M,32.00,KMEV 020535Z AUTO 00000KT 10SM BKN046 BKN060 OVC070 00/M03 A2978 RMK AO2,M
HTH,2025-04-02 05:35,-118.6315,38.5448,1282.89,41.00,17.60,38.45,10.00,10.00,0.00,29.75,M,10.00,M,OVC,M,M,M,7500.00,M,M,M,M,M,M,M,M,M,M,34.25,KHTH 020535Z AUTO 01010KT 10SM OVC075 05/M08 A2975 RMK A01,M
TMT,2025-04-02 05:35,-117.1971,39.4643,1749.34,27.50,27.00,97.96,240.00,4.00,0.00,29.74,M,0.50,M,OVC,M,M,M,300.00,M,M,M,+SN,M,M,M,M,M,M,22.17,KTMT 020535Z AUTO 24004KT 1/2SM +SN OVC003 M02/M03 A2974 RMK AO2 T10251028,M
10U,2025-04-02 05:40,-116.1876,41.9532,1637.00,23.00,21.20,92.69,210.00,4.00,0.00,29.70,M,10.00,M,BKN,M,M,M,11000.00,M,M,M,M,M,M,M,M,M,M,16.91,K10U 020540Z AUTO 21004KT 10SM BKN110 M05/M06 A2970 RMK AO2,M
MEV,2025-04-02 05:50,-119.7500,38.9963,1441.42,32.00,26.60,80.22,0.00,0.00,0.00,29.78,M,10.00,M,BKN,BKN,OVC,M,4600.00,6000.00,7000.00,M,M,M,M,M,M,M,M,32.00,KMEV 020550Z AUTO 00000KT 10SM BKN046 BKN060 OVC070 00/M03 A2978 RMK AO2,M
EKO,2025-04-02 05:52,-115.7860,40.8242,1367.00,26.60,26.60,100.00,0.00,0.00,0.00,29.69,M,1.50,M,OVC,M,M,M,100.00,M,M,M,BR,T,M,M,M,M,M,26.60,KEKO 020552Z AUTO 00000KT 1 1/2SM BR OVC001 M03/M03 A2969 RMK AO2 I1000,M
P68,2025-04-02 05:53,-116.0056,39.6014,1993.00,29.00,24.00,81.32,250.00,6.00,0.00,29.68,1005.00,M,M,M,M,M,M,M,M,M,M,M,M,M,M,M,M,M,21.92,KP68 020553Z AUTO 25006KT M02/M04 A2968 RMK AO1 SLP050 60003 T10171044 10033 21022 58002,M
DRA,2025-04-02 05:53,-116.0278,36.6206,1009.00,51.00,18.00,26.79,40.00,7.00,0.00,29.64,1001.30,10.00,M,FEW,M,M,M,11000.00,M,M,M,M,M,M,M,M,M,M,51.00,KDRA 020553Z AUTO 04007KT 10SM FEW110 11/M08 A2964 RMK AO2 SLP013 T01061078 10161 20106 50006,M
ELY,2025-04-02 05:53,-114.8453,39.2950,1909.00,29.00,24.00,81.32,0.00,0.00,T,29.68,1004.20,8.00,M,OVC,M,M,M,3800.00,M,M,M,-SN,M,M,M,M,M,M,29.00,KELY 020553Z AUTO 00000KT 8SM -SN OVC038 M02/M04 A2968 RMK AO2 SNB16 SLP042 P0000 60000 T10171044 10011 21022 58001,M
VGT,2025-04-02 05:53,-115.1933,36.2111,667.00,56.00,22.00,26.45,180.00,8.00,0.00,29.61,1003.50,10.00,M,CLR,M,M,M,M,M,M,M,M,M,M,M,M,M,M,56.00,KVGT 020553Z AUTO 18008KT 10SM CLR 13/M06 A2961 RMK AO2 SLP035 T01331056 10178 20133 58000,M
LOL,2025-04-02 05:53,-118.5701,40.0684,1192.43,34.00,31.00,88.63,120.00,6.00,0.00,29.75,1008.20,10.00,M,BKN,BKN,M,M,3500.00,8000.00,M,M,M,M,M,M,M,M,M,27.94,KLOL 020553Z AUTO 12006KT 10SM BKN035 BKN080 01/M01 A2975 RMK AO2 SLP082 60001 T00111006 10078 20006 51006,M
INS,2025-04-02 05:55,-115.6733,36.5872,955.00,54.00,15.00,21.07,0.00,0.00,0.00,29.64,1001.50,10.00,M,BKN,M,M,M,10000.00,M,M,M,M,M,M,M,M,M,M,54.00,KINS 020555Z AUTO 00000KT 10SM BKN100 12/M09 A2964 RMK AO2 SLP015 T01231094 10161 20118 51002 $,M
LSV,2025-04-02 05:55,-115.0343,36.2362,570.00,57.00,17.20,20.78,200.00,10.00,0.00,29.59,1000.90,10.00,M,FEW,SCT,M,M,10000.00,20000.00,M,M,M,M,M,M,M,M,M,57.00,KLSV 020555Z 20010KT 10SM FEW100 SCT200 14/M08 A2959 RMK AO2A SLP009 T01381082 10196 20136 51003 FZRANO $,M
BVU,2025-04-02 05:55,-114.8611,35.9475,671.00,55.40,19.40,24.21,190.00,7.00,0.00,29.63,M,10.00,12.00,CLR,M,M,M,M,M,M,M,M,M,M,M,M,M,M,55.40,KBVU 020555Z AUTO 19007G12KT 10SM CLR 13/M07 A2963 RMK AO2,M
RNO,2025-04-02 05:55,-119.7711,39.4839,1341.00,36.00,25.00,63.98,340.00,6.00,0.00,29.77,1007.80,10.00,M,SCT,SCT,SCT,M,3500.00,8000.00,12000.00,M,M,M,M,M,M,M,M,30.35,KRNO 020555Z 34006KT 10SM SCT035 SCT080 SCT120 02/M04 A2977 RMK AO2 SLP078 T00221039 10067 20022 50011,M
BAM,2025-04-02 05:55,-116.8743,40.5990,1382.36,33.80,32.00,93.03,240.00,6.00,0.00,29.73,M,10.00,M,OVC,M,M,M,3400.00,M,M,M,M,M,M,M,M,M,M,27.70,KBAM 020555Z AUTO 24006KT 10SM OVC034 01/00 A2973 RMK AO1,M
CXP,2025-04-02 05:55,-119.7326,39.1923,1431.00,33.80,26.60,74.63,0.00,0.00,0.00,29.79,M,10.00,M,SCT,OVC,M,M,4800.00,5500.00,M,M,M,M,M,M,M,M,M,33.80,KCXP 020555Z AUTO 00000KT 10SM SCT048 OVC055 01/M03 A2979 RMK AO2,M
HTH,2025-04-02 05:55,-118.6315,38.5448,1282.89,41.00,19.40,41.54,360.00,12.00,0.00,29.75,M,10.00,18.00,FEW,BKN,OVC,M,5500.00,7000.00,7500.00,M,M,M,M,M,M,M,M,33.46,KHTH 020555Z AUTO 36012G18KT 10SM FEW055 BKN070 OVC075 05/M07 A2975 RMK A01,M
TMT,2025-04-02 05:55,-117.1971,39.4643,1749.34,27.50,26.60,96.36,210.00,4.00,0.00,29.74,M,1.00,M,OVC,M,M,M,700.00,M,M,M,SN,M,M,M,M,M,M,22.17,KTMT 020555Z AUTO 21004KT 1SM SN OVC007 M02/M03 A2974 RMK AO2 T10251030 10001 21025,M
EKO,2025-04-02 05:56,-115.7860,40.8242,1367.00,28.00,28.00,100.00,0.00,0.00,0.00,29.69,1006.80,1.50,M,OVC,M,M,M,100.00,M,M,M,BR,T,M,T,M,M,M,28.00,KEKO 020556Z AUTO 00000KT 1 1/2SM BR OVC001 M02/M02 A2969 RMK AO2 SLP068 60007 I1000 I6000 T10221022 10033 21033 56001,M
WMC,2025-04-02 05:56,-117.8072,40.9019,1315.00,33.00,32.00,96.06,190.00,3.00,T,29.73,1007.50,2.50,M,FEW,BKN,OVC,M,1900.00,3700.00,6500.00,M,-SN BR,M,M,M,M,M,M,29.83,KWMC 020556Z AUTO 19003KT 2 1/2SM -SN BR FEW019 BKN037 OVC065 01/00 A2973 RMK AO2 SNB42 SLP075 P0000 60003 T00060000 10033 20000 51005 TSNO,M
HND,2025-04-02 05:56,-115.1344,35.9729,742.79,53.00,22.00,29.51,210.00,15.00,0.00,29.66,M,10.00,22.00,CLR,M,M,M,M,M,M,M,M,M,M,M,M,M,M,53.00,KHND 020556Z AUTO 21015G22KT 10SM CLR 12/M06 A2966 RMK AO2 SLPNO T01171056 10178 20117 50005 $,M
TPH,2025-04-02 05:56,-117.0904,38.0505,1654.00,33.00,20.00,58.41,290.00,8.00,0.00,29.71,1005.50,10.00,M,CLR,M,M,M,M,M,M,M,M,M,M,M,M,M,M,25.34,KTPH 020556Z AUTO 29008KT 10SM CLR 01/M07 A2971 RMK AO2 SLP055 T00061067 10067 20006 58000,M
LAS,2025-04-02 05:56,-115.1634,36.0719,663.00,56.00,20.00,24.30,200.00,9.00,0.00,29.64,1002.70,10.00,16.00,FEW,SCT,M,M,11000.00,20000.00,M,M,M,M,M,M,M,M,M,56.00,KLAS 020556Z 20009G16KT 10SM FEW110 SCT200 13/M07 A2964 RMK AO2 SLP027 T01331067 10183 20133 51004,M
NFL,2025-04-02 05:57,-118.7010,39.4166,1199.00,39.00,23.00,52.30,40.00,3.00,0.00,29.76,1005.80,10.00,M,BKN,BKN,M,M,5500.00,7000.00,M,M,M,M,M,M,M,M,M,36.69,KNFL 020557Z 04003KT 10SM BKN055 BKN070 04/M05 A2976 RMK AO2 SLP058 T00391050 10100 20039 51013,M
10U,2025-04-02 06:00,-116.1876,41.9532,1637.00,23.00,23.00,100.00,160.00,4.00,0.00,29.70,M,10.00,M,FEW,M,M,M,12000.00,M,M,M,M,M,M,M,M,M,M,16.91,K10U 020600Z AUTO 16004KT 10SM FEW120 M05/M05 A2970 RMK AO2,M
WMC,2025-04-02 06:03,-117.8072,40.9019,1315.00,33.00,32.00,96.06,210.00,4.00,T,29.73,M,2.50,M,SCT,BKN,OVC,M,1200.00,2400.00,6500.00,M,-SN BR,M,M,M,M,M,M,28.59,KWMC 020603Z AUTO 21004KT 2 1/2SM -SN BR SCT012 BKN024 OVC065 01/00 A2973 RMK AO2 P0000 T00060000 TSNO,M
RTS,2025-04-02 06:05,-119.8764,39.6682,1539.00,30.20,26.60,86.28,290.00,7.00,0.00,29.78,M,10.00,M,FEW,SCT,BKN,M,2800.00,3700.00,9500.00,M,M,M,M,M,M,M,M,22.59,KRTS 020605Z AUTO 29007KT 10SM FEW028 SCT037 BKN095 M01/M03 A2978 RMK AO2,M
MEV,2025-04-02 06:05,-119.7500,38.9963,1441.42,33.80,26.60,74.63,60.00,4.00,0.00,29.77,M,10.00,M,SCT,BKN,OVC,M,4500.00,5000.00,6500.00,M,M,M,M,M,M,M,M,29.52,KMEV 020605Z AUTO 06004KT 10SM SCT045 BKN050 OVC065 01/M03 A2977 RMK AO2,M
WMC,2025-04-02 06:12,-117.8072,40.9019,1315.00,33.00,32.00,96.06,190.00,5.00,T,29.73,M,4.00,M,SCT,BKN,OVC,M,1000.00,2600.00,4700.00,M,-SN BR,M,M,M,M,M,M,27.58,KWMC 020612Z AUTO 19005KT 4SM -SN BR SCT010 BKN026 OVC047 01/00 A2973 RMK AO2 P0000 T00060000 TSNO,M
BVU,2025-04-02 06:15,-114.8611,35.9475,671.00,53.60,19.40,25.85,240.00,11.00,0.00,29.62,M,10.00,M,CLR,M,M,M,M,M,M,M,M,M,M,M,M,M,M,53.60,KBVU 020615Z AUTO 24011KT 10SM CLR 12/M07 A2962 RMK AO2,M
BAM,2025-04-02 06:15,-116.8743,40.5990,1382.36,33.80,32.00,93.03,250.00,6.00,0.00,29.73,M,10.00,M,SCT,OVC,M,M,3400.00,4500.00,M,M,M,M,M,M,M,M,M,27.70,KBAM 020615Z AUTO 25006KT 10SM SCT034 OVC045 01/00 A2973 RMK AO1,M
CXP,2025-04-02 06:15,-119.7326,39.1923,1431.00,33.80,26.60,74.63,300.00,3.00,0.00,29.79,M,10.00,M,BKN,OVC,M,M,4700.00,5500.00,M,M,M,M,M,M,M,M,M,30.75,KCXP 020615Z AUTO 30003KT 10SM BKN047 OVC055 01/M03 A2979 RMK AO2,M
HTH,2025-04-02 06:15,-118.6315,38.5448,1282.89,41.00,19.40,41.54,360.00,18.00,0.00,29.76,M,10.00,25.00,SCT,BKN,OVC,M,3000.00,4000.00,6500.00,M,M,M,M,M,M,M,M,31.60,KHTH 020615Z AUTO 36018G25KT 10SM SCT030 BKN040 OVC065 05/M07 A2976 RMK A01,M
TMT,2025-04-02 06:15,-117.1971,39.4643,1749.34,27.30,26.60,97.15,190.00,5.00,0.00,29.74,M,5.00,M,SCT,BKN,OVC,M,900.00,2600.00,3700.00,M,-SN,M,M,M,M,M,M,20.81,KTMT 020615Z AUTO 19005KT 5SM -SN SCT009 BKN026 OVC037 M03/M03 A2974 RMK AO2 T10261030,M
EKO,2025-04-02 06:20,-115.7860,40.8242,1367.00,27.00,27.00,100.00,100.00,3.00,0.00,29.69,M,0.75,M,SCT,BKN,BKN,M,100.00,1500.00,4800.00,M,BR,M,M,M,M,M,M,22.97,KEKO 020620Z AUTO 10003KT 3/4SM BR SCT001 BKN015 BKN048 M03/M03 A2969 RMK AO2 T10281028,M
10U,2025-04-02 06:20,-116.1876,41.9532,1637.00,23.00,21.20,92.69,190.00,3.00,0.00,29.70,M,10.00,M,FEW,M,M,M,12000.00,M,M,M,M,M,M,M,M,M,M,18.40,K10U 020620Z AUTO 19003KT 10SM FEW120 M05/M06 A2970 RMK AO2,M
WMC,2025-04-02 06:25,-117.8072,40.9019,1315.00,33.00,32.00,96.06,210.00,5.00,T,29.73,M,5.00,M,BKN,BKN,OVC,M,800.00,1600.00,5500.00,M,-SN BR,M,M,M,M,M,M,27.58,KWMC 020625Z AUTO 21005KT 5SM -SN BR BKN008 BKN016 OVC055 01/00 A2973 RMK AO2 P0000 T00060000 TSNO,M
EKO,2025-04-02 06:32,-115.7860,40.8242,1367.00,26.00,26.00,100.00,190.00,3.00,0.00,29.69,M,0.25,M,FEW,BKN,BKN,M,100.00,1500.00,4800.00,M,FZFG,T,M,M,M,M,M,21.83,KEKO 020632Z AUTO 19003KT 1/4SM FZFG FEW001 BKN015 BKN048 M03/M03 A2969 RMK AO2 I1000 T10331033,M
BVU,2025-04-02 06:35,-114.8611,35.9475,671.00,53.60,19.40,25.85,190.00,6.00,0.00,29.63,M,10.00,M,CLR,M,M,M,M,M,M,M,M,M,M,M,M,M,M,53.60,KBVU 020635Z AUTO 19006KT 10SM CLR 12/M07 A2963 RMK AO2,M
BAM,2025-04-02 06:35,-116.8743,40.5990,1382.36,33.80,32.00,93.03,270.00,5.00,0.00,29.73,M,10.00,M,SCT,BKN,OVC,M,1700.00,4500.00,5000.00,M,M,M,M,M,M,M,M,28.53,KBAM 020635Z AUTO 27005KT 10SM SCT017 BKN045 OVC050 01/00 A2973 RMK AO1,M
CXP,2025-04-02 06:35,-119.7326,39.1923,1431.00,33.80,26.60,74.63,270.00,3.00,0.00,29.80,M,10.00,M,SCT,BKN,OVC,M,4600.00,6000.00,7000.00,M,M,M,M,M,M,M,M,30.75,KCXP 020635Z AUTO 27003KT 10SM SCT046 BKN060 OVC070 01/M03 A2980 RMK AO2,M
RTS,2025-04-02 06:35,-119.8764,39.6682,1539.00,30.20,28.40,92.92,310.00,7.00,0.00,29.79,M,10.00,M,BKN,OVC,M,M,3300.00,3900.00,M,M,M,M,M,M,M,M,M,22.59,KRTS 020635Z AUTO 31007KT 10SM BKN033 OVC039 M01/M02 A2979 RMK AO2,M
MEV,2025-04-02 06:35,-119.7500,38.9963,1441.42,33.80,26.60,74.63,350.00,4.00,0.00,29.78,M,10.00,M,FEW,BKN,OVC,M,2700.00,3200.00,4400.00,M,M,M,M,M,M,M,M,29.52,KMEV 020635Z AUTO 35004KT 10SM FEW027 BKN032 OVC044 01/M03 A2978 RMK AO2,M
HTH,2025-04-02 06:35,-118.6315,38.5448,1282.89,39.20,19.40,44.55,340.00,17.00,0.00,29.77,M,10.00,M,FEW,BKN,OVC,M,2800.00,3500.00,4200.00,M,M,M,M,M,M,M,M,29.51,KHTH 020635Z AUTO 34017KT 10SM FEW028 BKN035 OVC042 04/M07 A2977 RMK A01,M
TMT,2025-04-02 06:35,-117.1971,39.4643,1749.34,26.60,25.70,96.34,190.00,5.00,0.00,29.74,M,10.00,M,SCT,BKN,OVC,M,2800.00,3700.00,5000.00,M,-SN,M,M,M,M,M,M,19.98,KTMT 020635Z AUTO 19005KT 10SM -SN SCT028 BKN037 OVC050 M03/M03 A2974 RMK AO2 T10301035,M
10U,2025-04-02 06:40,-116.1876,41.9532,1637.00,23.00,21.20,92.69,220.00,3.00,0.00,29.71,M,10.00,M,FEW,FEW,M,M,7500.00,12000.00,M,M,M,M,M,M,M,M,M,18.40,K10U 020640Z AUTO 22003KT 10SM FEW075 FEW120 M05/M06 A2971 RMK AO2,M
EKO,2025-04-02 06:40,-115.7860,40.8242,1367.00,24.00,24.00,100.00,260.00,3.00,0.00,29.69,M,0.50,M,SCT,BKN,M,M,100.00,1400.00,M,M,FZFG,T,M,M,M,M,M,19.54,KEKO 020640Z AUTO 26003KT 1/2SM FZFG SCT001 BKN014 M04/M04 A2969 RMK AO2 I1000 T10441044,M
WMC,2025-04-02 06:40,-117.8072,40.9019,1315.00,33.00,32.00,96.06,200.00,4.00,T,29.73,M,4.00,M,FEW,SCT,OVC,M,800.00,1500.00,2300.00,M,-SN BR,M,M,M,M,M,M,28.59,KWMC 020640Z AUTO 20004KT 4SM -SN BR FEW008 SCT015 OVC023 01/00 A2973 RMK AO2 P0000 T00060000 TSNO,M
WMC,2025-04-02 06:44,-117.8072,40.9019,1315.00,33.00,32.00,96.06,190.00,3.00,T,29.73,M,1.75,M,FEW,SCT,OVC,M,800.00,1200.00,1800.00,M,-SN BR,M,M,M,M,M,M,29.83,KWMC 020644Z AUTO 19003KT 1 3/4SM -SN BR FEW008 SCT012 OVC018 01/00 A2973 RMK AO2 P0000 T00060000 TSNO,M
RTS,2025-04-02 06:45,-119.8764,39.6682,1539.00,30.20,26.60,86.28,310.00,6.00,0.00,29.79,M,10.00,M,BKN,OVC,M,M,3300.00,3900.00,M,M,M,M,M,M,M,M,M,23.36,KRTS 020645Z AUTO 31006KT 10SM BKN033 OVC039 M01/M03 A2979 RMK AO2,M
WMC,2025-04-02 06:47,-117.8072,40.9019,1315.00,33.00,32.00,96.06,200.00,3.00,0.01,29.73,M,1.25,M,FEW,BKN,OVC,M,700.00,1300.00,2000.00,M,-SN BR,M,M,M,M,M,M,29.83,KWMC 020647Z AUTO 20003KT 1 1/4SM -SN BR FEW007 BKN013 OVC020 01/00 A2973 RMK AO2 P0001 T00060000 TSNO,M
MEV,2025-04-02 06:50,-119.7500,38.9963,1441.42,33.80,23.00,64.23,0.00,0.00,0.00,29.79,M,10.00,M,FEW,BKN,OVC,M,2600.00,3600.00,4300.00,M,M,M,M,M,M,M,M,33.80,KMEV 020650Z AUTO 00000KT 10SM FEW026 BKN036 OVC043 01/M05 A2979 RMK AO2,M
EKO,2025-04-02 06:52,-115.7860,40.8242,1367.00,24.80,24.80,100.00,270.00,4.00,0.00,29.69,M,0.50,M,BKN,BKN,M,M,100.00,1400.00,M,M,FZFG,T,M,M,M,M,M,19.01,KEKO 020652Z AUTO 27004KT 1/2SM FZFG BKN001 BKN014 M04/M04 A2969 RMK AO2 I1000,M
P68,2025-04-02 06:53,-116.0056,39.6014,1993.00,28.00,24.00,84.72,260.00,8.00,0.00,29.68,1004.70,M,M,M,M,M,M,M,M,M,M,M,M,M,M,M,M,M,19.19,KP68 020653Z AUTO 26008KT M02/M04 A2968 RMK AO1 SLP047 T10221044,M
DRA,2025-04-02 06:53,-116.0278,36.6206,1009.00,51.00,20.00,29.18,240.00,5.00,0.00,29.66,1002.10,10.00,M,BKN,OVC,M,M,7500.00,9000.00,M,M,M,M,M,M,M,M,M,51.00,KDRA 020653Z AUTO 24005KT 10SM BKN075 OVC090 11/M07 A2966 RMK AO2 SLP021 T01061067,M
ELY,2025-04-02 06:53,-114.8453,39.2950,1909.00,27.00,24.00,88.28,190.00,3.00,T,29.68,1004.40,10.00,M,BKN,BKN,BKN,M,5500.00,6500.00,11000.00,M,M,M,M,M,M,M,M,22.97,KELY 020653Z AUTO 19003KT 10SM BKN055 BKN065 BKN110 M03/M04 A2968 RMK AO2 SNE22 SLP044 P0000 T10281044,M
VGT,2025-04-02 06:53,-115.1933,36.2111,667.00,55.00,21.00,26.29,210.00,12.00,0.00,29.61,1003.50,10.00,M,CLR,M,M,M,M,M,M,M,M,M,M,M,M,M,M,55.00,KVGT 020653Z AUTO 21012KT 10SM CLR 13/M06 A2961 RMK AO2 SLP035 T01281061,M
LOL,2025-04-02 06:53,-118.5701,40.0684,1192.43,34.00,31.00,88.63,70.00,6.00,0.00,29.76,1008.30,10.00,M,FEW,SCT,OVC,M,2900.00,4200.00,9000.00,M,M,M,M,M,M,M,M,27.94,KLOL 020653Z AUTO 07006KT 10SM FEW029 SCT042 OVC090 01/M01 A2976 RMK AO2 SLP083 T00111006,M
TMT,2025-04-02 06:55,-117.1971,39.4643,1749.34,26.00,24.80,95.14,220.00,6.00,0.00,29.74,M,10.00,M,SCT,BKN,OVC,M,3600.00,4600.00,5000.00,M,M,M,M,M,M,M,M,18.30,KTMT 020655Z AUTO 22006KT 10SM SCT036 BKN046 OVC050 M03/M04 A2974 RMK AO2 T10331040,M
LSV,2025-04-02 06:55,-115.0343,36.2362,570.00,56.00,18.70,22.99,210.00,15.00,0.00,29.58,1000.60,10.00,M,SCT,M,M,M,20000.00,M,M,M,M,M,M,M,M,M,M,56.00,KLSV 020655Z 21015KT 10SM SCT200 13/M07 A2958 RMK AO2A SLP006 T01331074 FZRANO $,M
BVU,2025-04-02 06:55,-114.8611,35.9475,671.00,51.80,19.40,27.62,200.00,7.00,0.00,29.63,M,10.00,12.00,CLR,M,M,M,M,M,M,M,M,M,M,M,M,M,M,51.80,KBVU 020655Z AUTO 20007G12KT 10SM CLR 11/M07 A2963 RMK AO2,M
RNO,2025-04-02 06:55,-119.7711,39.4839,1341.00,36.00,25.00,63.98,310.00,6.00,0.00,29.79,1008.10,10.00,M,SCT,BKN,M,M,4800.00,6000.00,M,M,M,M,M,M,M,M,M,30.35,KRNO 020655Z 31006KT 10SM SCT048 BKN060 02/M04 A2979 RMK AO2 SLP081 T00221039,M
BAM,2025-04-02 06:55,-116.8743,40.5990,1382.36,33.80,32.00,93.03,290.00,5.00,0.00,29.74,M,5.00,M,BKN,OVC,M,M,1700.00,4500.00,M,M,M,M,M,M,M,M,M,28.53,KBAM 020655Z AUTO 29005KT 5SM BKN017 OVC045 01/00 A2974 RMK AO1,M
CXP,2025-04-02 06:55,-119.7326,39.1923,1431.00,33.80,26.60,74.63,0.00,0.00,0.00,29.80,M,10.00,M,FEW,SCT,OVC,M,3500.00,5500.00,7000.00,M,M,M,M,M,M,M,M,33.80,KCXP 020655Z AUTO 00000KT 10SM FEW035 SCT055 OVC070 01/M03 A2980 RMK AO2,M
INS,2025-04-02 06:55,-115.6733,36.5872,955.00,52.00,14.40,22.08,360.00,7.00,0.00,29.64,1001.30,10.00,M,FEW,OVC,M,M,6500.00,9000.00,M,M,M,M,M,M,M,M,M,52.00,KINS 020655Z AUTO 36007KT 10SM FEW065 OVC090 11/M10 A2964 RMK AO2 SLP013 T01121098 $,M
HTH,2025-04-02 06:55,-118.6315,38.5448,1282.89,39.20,19.40,44.55,360.00,15.00,0.00,29.77,M,10.00,M,SCT,BKN,OVC,M,3400.00,5500.00,6500.00,M,M,M,M,M,M,M,M,30.11,KHTH 020655Z AUTO 36015KT 10SM SCT034 BKN055 OVC065 04/M07 A2977 RMK A01,M
EKO,2025-04-02 06:56,-115.7860,40.8242,1367.00,24.00,24.00,100.00,0.00,0.00,0.00,29.69,1007.00,0.25,M,BKN,BKN,M,M,100.00,1400.00,M,M,FZFG,0.01,M,M,M,M,M,24.00,KEKO 020656Z AUTO 00000KT 1/4SM FZFG BKN001 BKN014 M04/M04 A2969 RMK AO2 SLP070 I1001 T10441044,M
WMC,2025-04-02 06:56,-117.8072,40.9019,1315.00,33.00,32.00,96.06,220.00,6.00,0.02,29.73,1007.60,1.00,M,BKN,BKN,OVC,M,1100.00,2000.00,3500.00,M,-SN BR,M,M,M,M,M,M,26.73,KWMC 020656Z AUTO 22006KT 1SM -SN BR BKN011 BKN020 OVC035 01/00 A2973 RMK AO2 SLP076 P0002 T00060000 TSNO,M
HND,2025-04-02 06:56,-115.1344,35.9729,742.79,52.00,23.00,31.93,210.00,17.00,0.00,29.65,M,10.00,M,CLR,M,M,M,M,M,M,M,M,M,M,M,M,M,M,52.00,KHND 020656Z AUTO 21017KT 10SM CLR 11/M05 A2965 RMK AO2 SLPNO T01111050 401890094 $,M
TPH,2025-04-02 06:56,-117.0904,38.0505,1654.00,32.00,20.00,60.81,300.00,6.00,0.00,29.72,1005.40,10.00,M,CLR,M,M,M,M,M,M,M,M,M,M,M,M,M,M,25.53,KTPH 020656Z AUTO 30006KT 10SM CLR 00/M07 A2972 RMK AO2 SLP054 T00001067,M
LAS,2025-04-02 06:56,-115.1634,36.0719,663.00,54.00,21.00,27.27,220.00,12.00,0.00,29.63,1002.50,10.00,18.00,FEW,M,M,M,20000.00,M,M,M,M,M,M,M,M,M,M,54.00,KLAS 020656Z 22012G18KT 10SM FEW200 12/M06 A2963 RMK AO2 SLP025 T01221061,M
NFL,2025-04-02 06:57,-118.7010,39.4166,1199.00,37.00,29.00,72.54,90.00,3.00,0.00,29.77,1006.00,10.00,M,BKN,OVC,M,M,4800.00,6000.00,M,M,M,M,M,M,M,M,M,34.40,KNFL 020657Z AUTO 09003KT 10SM BKN048 OVC060 03/M02 A2977 RMK AO2 SLP060 T00281017,M
10U,2025-04-02 07:00,-116.1876,41.9532,1637.00,23.00,21.20,92.69,0.00,0.00,0.00,29.71,M,10.00,M,FEW,SCT,BKN,M,1400.00,5000.00,5500.00,M,M,M,M,M,M,M,M,23.00,K10U 020700Z AUTO 00000KT 10SM FEW014 SCT050 BKN055 M05/M06 A2971 RMK AO2,M
WMC,2025-04-02 07:01,-117.8072,40.9019,1315.00,33.00,32.00,96.06,210.00,5.00,0.01,29.73,M,2.00,M,BKN,BKN,OVC,M,1300.00,1900.00,3500.00,M,-SN BR,M,M,M,M,M,M,27.58,KWMC 020701Z AUTO 21005KT 2SM -SN BR BKN013 BKN019 OVC035 01/00 A2973 RMK AO2 P0001 T00060000 TSNO,M
RTS,2025-04-02 07:05,-119.8764,39.6682,1539.00,30.20,26.60,86.28,300.00,8.00,0.00,29.79,M,10.00,M,BKN,OVC,M,M,3100.00,3800.00,M,M,M,M,M,M,M,M,M,21.90,KRTS 020705Z AUTO 30008KT 10SM BKN031 OVC038 M01/M03 A2979 RMK AO2,M
WMC,2025-04-02 07:09,-117.8072,40.9019,1315.00,33.00,32.00,96.06,210.00,5.00,0.01,29.73,M,8.00,M,BKN,BKN,OVC,M,1100.00,2500.00,3500.00,M,-SN,M,M,M,M,M,M,27.58,KWMC 020709Z AUTO 21005KT 8SM -SN BKN011 BKN025 OVC035 01/00 A2973 RMK AO2 P0001 T00060000 TSNO,M
EKO,2025-04-02 07:13,-115.7860,40.8242,1367.00,25.00,25.00,100.00,0.00,0.00,0.00,29.69,M,0.50,M,VV ,M,M,M,100.00,M,M,M,FZFG,M,M,M,M,M,M,25.00,KEKO 020713Z AUTO 00000KT 1/2SM FZFG VV001 M04/M04 A2969 RMK AO2 T10391039,M
HTH,2025-04-02 07:15,-118.6315,38.5448,1282.89,37.40,21.20,51.61,360.00,10.00,0.00,29.77,M,10.00,M,SCT,BKN,OVC,M,4300.00,5000.00,6500.00,M,M,M,M,M,M,M,M,29.74,KHTH 020715Z AUTO 36010KT 10SM SCT043 BKN050 OVC065 03/M06 A2977 RMK A01,M
TMT,2025-04-02 07:15,-117.1971,39.4643,1749.34,26.80,25.00,92.81,230.00,6.00,0.00,29.74,M,10.00,M,OVC,M,M,M,4800.00,M,M,M,-SN,M,M,M,M,M,M,19.27,KTMT 020715Z AUTO 23006KT 10SM -SN OVC048 M03/M04 A2974 RMK AO2 T10291039,M
BVU,2025-04-02 07:15,-114.8611,35.9475,671.00,51.80,19.40,27.62,210.00,10.00,0.00,29.63,M,10.00,M,CLR,M,M,M,M,M,M,M,M,M,M,M,M,M,M,51.80,KBVU 020715Z AUTO 21010KT 10SM CLR 11/M07 A2963 RMK AO2,M
BAM,2025-04-02 07:15,-116.8743,40.5990,1382.36,33.80,32.00,93.03,260.00,4.00,0.00,29.74,M,2.50,M,OVC,M,M,M,1700.00,M,M,M,M,M,M,M,M,M,M,29.52,KBAM 020715Z AUTO 26004KT 2 1/2SM OVC017 01/00 A2974 RMK AO1,M
CXP,2025-04-02 07:15,-119.7326,39.1923,1431.00,33.80,26.60,74.63,0.00,0.00,0.00,29.80,M,10.00,M,SCT,BKN,OVC,M,3600.00,5000.00,7500.00,M,M,M,M,M,M,M,M,33.80,KCXP 020715Z AUTO 00000KT 10SM SCT036 BKN050 OVC075 01/M03 A2980 RMK AO2,M
10U,2025-04-02 07:20,-116.1876,41.9532,1637.00,21.20,21.20,100.00,0.00,0.00,0.00,29.71,M,10.00,M,SCT,BKN,BKN,M,1500.00,2000.00,5000.00,M,M,M,M,M,M,M,M,21.20,K10U 020720Z AUTO 00000KT 10SM SCT015 BKN020 BKN050 M06/M06 A2971 RMK AO2,M
EKO,2025-04-02 07:25,-115.7860,40.8242,1367.00,25.00,25.00,100.00,270.00,3.00,0.00,29.69,M,1.25,M,SCT,M,M,M,100.00,M,M,M,BR,M,M,M,M,M,M,20.69,KEKO 020725Z AUTO 27003KT 1 1/4SM BR SCT001 M04/M04 A2969 RMK AO2 T10391039,M
EKO,2025-04-02 07:30,-115.7860,40.8242,1367.00,25.00,25.00,100.00,270.00,3.00,0.00,29.69,M,3.00,M,SCT,M,M,M,100.00,M,M,M,BR,M,M,M,M,M,M,20.69,KEKO 020730Z AUTO 27003KT 3SM BR SCT001 M04/M04 A2969 RMK AO2 T10391039,M
BVU,2025-04-02 07:35,-114.8611,35.9475,671.00,51.80,19.40,27.62,210.00,11.00,0.00,29.63,M,10.00,M,CLR,M,M,M,M,M,M,M,M,M,M,M,M,M,M,51.80,KBVU 020735Z AUTO 21011KT 10SM CLR 11/M07 A2963 RMK AO2,M
BAM,2025-04-02 07:35,-116.8743,40.5990,1382.36,33.80,32.00,93.03,250.00,3.00,0.00,29.74,M,2.50,M,BKN,OVC,M,M,2100.00,3400.00,M,M,M,M,M,M,M,M,M,30.75,KBAM 020735Z AUTO 25003KT 2 1/2SM BKN021 OVC034 01/00 A2974 RMK AO1 VIS 1 3/4V4,M
RTS,2025-04-02 07:35,-119.8764,39.6682,1539.00,30.20,26.60,86.28,320.00,7.00,0.00,29.80,M,10.00,M,BKN,OVC,M,M,2900.00,3700.00,M,M,M,M,M,M,M,M,M,22.59,KRTS 020735Z AUTO 32007KT 10SM BKN029 OVC037 M01/M03 A2980 RMK AO2,M
MEV,2025-04-02 07:35,-119.7500,38.9963,1441.42,32.00,23.00,69.04,40.00,4.00,0.00,29.79,M,10.00,M,SCT,OVC,M,M,4400.00,6000.00,M,M,M,M,M,M,M,M,M,27.42,KMEV 020735Z AUTO 04004KT 10SM SCT044 OVC060 00/M05 A2979 RMK AO2,M
HTH,2025-04-02 07:35,-118.6315,38.5448,1282.89,37.40,21.20,51.61,20.00,8.00,0.00,29.77,M,10.00,M,FEW,SCT,OVC,M,4200.00,5000.00,6000.00,M,M,M,M,M,M,M,M,30.76,KHTH 020735Z AUTO 02008KT 10SM FEW042 SCT050 OVC060 03/M06 A2977 RMK A01,M
TMT,2025-04-02 07:35,-117.1971,39.4643,1749.34,26.60,24.60,92.03,240.00,6.00,0.00,29.74,M,10.00,M,SCT,OVC,M,M,4200.00,4800.00,M,M,M,M,M,M,M,M,M,19.03,KTMT 020735Z AUTO 24006KT 10SM SCT042 OVC048 M03/M04 A2974 RMK AO2 T10301041,M
CXP,2025-04-02 07:35,-119.7326,39.1923,1431.00,32.00,26.60,80.22,190.00,3.00,0.00,29.81,M,10.00,M,BKN,OVC,M,M,4700.00,5500.00,M,M,M,M,M,M,M,M,M,28.69,KCXP 020735Z AUTO 19003KT 10SM BKN047 OVC055 00/M03 A2981 RMK AO2,M
10U,2025-04-02 07:40,-116.1876,41.9532,1637.00,21.20,21.20,100.00,0.00,0.00,0.00,29.72,M,10.00,M,BKN,OVC,M,M,500.00,1500.00,M,M,M,M,M,M,M,M,M,21.20,K10U 020740Z AUTO 00000KT 10SM BKN005 OVC015 M06/M06 A2972 RMK AO2,M
WMC,2025-04-02 07:41,-117.8072,40.9019,1315.00,33.00,32.00,96.06,230.00,3.00,0.01,29.74,M,10.00,M,SCT,BKN,OVC,M,1100.00,2100.00,3700.00,M,M,M,M,M,M,M,M,29.83,KWMC 020741Z AUTO 23003KT 10SM SCT011 BKN021 OVC037 01/00 A2974 RMK AO2 SNE11 P0001 T00060000 TSNO,M
EKO,2025-04-02 07:42,-115.7860,40.8242,1367.00,25.00,25.00,100.00,0.00,0.00,0.00,29.69,M,5.00,M,FEW,BKN,M,M,100.00,2600.00,M,M,BR,M,M,M,M,M,M,25.00,KEKO 020742Z AUTO 00000KT 5SM BR FEW001 BKN026 M04/M04 A2969 RMK AO2 T10391039,M
MEV,2025-04-02 07:45,-119.7500,38.9963,1441.42,32.00,26.60,80.22,30.00,6.00,0.00,29.80,M,10.00,M,SCT,OVC,M,M,4600.00,6000.00,M,M,M,M,M,M,M,M,M,25.53,KMEV 020745Z AUTO 03006KT 10SM SCT046 OVC060 M00/M03 A2980 RMK AO2,M
RTS,2025-04-02 07:45,-119.8764,39.6682,1539.00,30.20,26.60,86.28,300.00,7.00,0.00,29.80,M,10.00,M,BKN,OVC,M,M,2900.00,3700.00,M,M,M,M,M,M,M,M,M,22.59,KRTS 020745Z AUTO 30007KT 10SM BKN029 OVC037 M01/M03 A2980 RMK AO2,M
ELY,2025-04-02 07:49,-114.8453,39.2950,1909.00,26.60,23.00,86.07,0.00,0.00,0.01,29.68,M,2.50,M,FEW,BKN,OVC,M,1700.00,2600.00,3400.00,M,-SN BR,M,M,M,M,M,M,26.60,KELY 020749Z AUTO 00000KT 2 1/2SM -SN BR FEW017 BKN026 OVC034 M03/M05 A2968 RMK AO2 SNB34 P0001,M
P68,2025-04-02 07:53,-116.0056,39.6014,1993.00,29.00,24.00,81.32,240.00,4.00,0.00,29.68,1004.50,M,M,M,M,M,M,M,M,M,M,M,M,M,M,M,M,M,23.92,KP68 020753Z AUTO 24004KT M02/M04 A2968 RMK AO1 SLP045 T10171044 400441039,M
DRA,2025-04-02 07:53,-116.0278,36.6206,1009.00,47.00,29.00,49.34,280.00,7.00,T,29.68,1002.50,10.00,25.00,BKN,OVC,M,M,3400.00,7000.00,M,M,-RA,M,M,M,M,M,M,43.06,KDRA 020753Z AUTO 28007G25KT 10SM -RA BKN034 OVC070 08/M02 A2968 RMK AO2 RAB46 SLP025 P0000 T00831017 401670039,M
ELY,2025-04-02 07:53,-114.8453,39.2950,1909.00,27.00,23.00,84.66,0.00,0.00,0.01,29.68,1004.30,2.50,M,FEW,OVC,M,M,1500.00,3100.00,M,M,-SN BR,M,M,M,M,M,M,27.00,KELY 020753Z AUTO 00000KT 2 1/2SM -SN BR FEW015 OVC031 M03/M05 A2968 RMK AO2 SNB34 SLP043 P0001 T10281050 400561044,M
VGT,2025-04-02 07:53,-115.1933,36.2111,667.00,54.00,21.00,27.27,180.00,3.00,0.00,29.61,1003.60,10.00,M,CLR,M,M,M,M,M,M,M,M,M,M,M,M,M,M,54.00,KVGT 020753Z AUTO 18003KT 10SM CLR 12/M06 A2961 RMK AO2 SLP036 T01221061 401890122,M
LOL,2025-04-02 07:53,-118.5701,40.0684,1192.43,33.00,31.00,92.25,170.00,3.00,0.00,29.76,1008.50,10.00,M,SCT,OVC,M,M,4900.00,10000.00,M,M,M,M,M,M,M,M,M,29.83,KLOL 020753Z AUTO 17003KT 10SM SCT049 OVC100 01/M01 A2976 RMK AO2 SLP085 T00061006 400781044,M
BVU,2025-04-02 07:55,-114.8611,35.9475,671.00,51.80,19.40,27.62,200.00,6.00,0.00,29.63,M,10.00,M,CLR,M,M,M,M,M,M,M,M,M,M,M,M,M,M,51.80,KBVU 020755Z AUTO 20006KT 10SM CLR 11/M07 A2963 RMK AO2,M
RNO,2025-04-02 07:55,-119.7711,39.4839,1341.00,36.00,24.00,61.37,330.00,7.00,0.00,29.79,1008.50,10.00,M,FEW,BKN,BKN,M,4000.00,6000.00,17000.00,M,M,M,M,M,M,M,M,29.65,KRNO 020755Z 33007KT 10SM FEW040 BKN060 BKN170 02/M04 A2979 RMK AO2 SLP085 T00221044 400781006,M
BAM,2025-04-02 07:55,-116.8743,40.5990,1382.36,33.80,32.00,93.03,230.00,3.00,0.00,29.74,M,10.00,M,OVC,M,M,M,1900.00,M,M,M,M,M,M,M,M,M,M,30.75,KBAM 020755Z AUTO 23003KT 10SM OVC019 01/00 A2974 RMK AO1,M
CXP,2025-04-02 07:55,-119.7326,39.1923,1431.00,32.00,26.60,80.22,0.00,0.00,0.00,29.81,M,10.00,M,FEW,BKN,OVC,M,2500.00,4000.00,4700.00,M,M,M,M,M,M,M,M,32.00,KCXP 020755Z AUTO 00000KT 10SM FEW025 BKN040 OVC047 00/M03 A2981 RMK AO2,M
HTH,2025-04-02 07:55,-118.6315,38.5448,1282.89,37.40,21.20,51.61,350.00,10.00,0.00,29.78,M,10.00,M,OVC,M,M,M,5500.00,M,M,M,M,M,M,M,M,M,M,29.74,KHTH 020755Z AUTO 35010KT 10SM OVC055 03/M06 A2978 RMK A01,M
TMT,2025-04-02 07:55,-117.1971,39.4643,1749.34,26.40,24.80,93.57,240.00,5.00,0.00,29.74,M,3.00,M,SCT,BKN,OVC,M,1800.00,2500.00,4700.00,M,-SN,M,M,M,M,M,M,19.74,KTMT 020755Z AUTO 24005KT 3SM -SN SCT018 BKN025 OVC047 M03/M04 A2974 RMK AO2 T10311040 400381046,M
INS,2025-04-02 07:55,-115.6733,36.5872,955.00,49.50,24.30,36.99,280.00,20.00,0.00,29.67,1002.50,10.00,M,BKN,OVC,M,M,6500.00,8500.00,M,M,M,M,M,M,27.00,310.00,2025-04-02 07:36,42.38,KINS 020755Z AUTO 28020KT 10SM BKN065 OVC085 10/M04 A2967 RMK AO2 PK WND 31027/36 SLP025 T00971043 401690069 $,M
LSV,2025-04-02 07:55,-115.0343,36.2362,570.00,54.70,19.60,25.04,200.00,10.00,0.00,29.59,1000.90,10.00,M,FEW,M,M,M,13000.00,M,M,M,M,M,M,M,M,M,M,54.70,KLSV 020755Z 20010KT 10SM FEW130 13/M07 A2959 RMK AO2A SLP009 T01261069 402040112 FZRANO $,M
EKO,2025-04-02 07:56,-115.7860,40.8242,1367.00,26.00,26.00,100.00,230.00,3.00,0.00,29.69,1007.40,10.00,M,OVC,M,M,M,2600.00,M,M,M,M,M,M,M,M,M,M,21.83,KEKO 020756Z AUTO 23003KT 10SM OVC026 M03/M03 A2969 RMK AO2 SLP074 T10331033 400441044,M
WMC,2025-04-02 07:56,-117.8072,40.9019,1315.00,33.00,32.00,96.06,250.00,4.00,0.01,29.74,1007.70,10.00,M,BKN,OVC,M,M,2100.00,3500.00,M,M,M,M,M,M,M,M,M,28.59,KWMC 020756Z AUTO 25004KT 10SM BKN021 OVC035 01/00 A2974 RMK AO2 SNE11 SLP077 P0001 T00060000 400391022 TSNO,M
HND,2025-04-02 07:56,-115.1344,35.9729,742.79,50.00,23.00,34.39,170.00,8.00,0.00,29.66,M,10.00,M,CLR,M,M,M,M,M,M,M,M,M,M,M,M,M,M,50.00,KHND 020756Z AUTO 17008KT 10SM CLR 10/M05 A2966 RMK AO2 SLPNO T01001050 $,M
TPH,2025-04-02 07:56,-117.0904,38.0505,1654.00,32.00,19.00,58.27,M,M,0.00,29.71,1005.10,10.00,M,SCT,M,M,M,11000.00,M,M,M,M,M,M,M,M,M,M,M,KTPH 020756Z AUTO 10SM SCT110 00/M07 A2971 RMK AO2 SLP051 T00001072 400941033 $,M
LAS,2025-04-02 07:56,-115.1634,36.0719,663.00,52.00,23.00,31.93,200.00,8.00,0.00,29.63,1002.50,10.00,18.00,FEW,M,M,M,20000.00,M,M,M,M,M,M,M,M,M,M,52.00,KLAS 020756Z 20008G18KT 10SM FEW200 11/M05 A2963 RMK AO2 SLP025 T01111050 401830111,M
ELY,2025-04-02 08:00,-114.8453,39.2950,1909.00,27.00,23.00,84.66,0.00,0.00,T,29.68,M,8.00,M,FEW,BKN,OVC,M,1700.00,3600.00,7000.00,M,-SN,M,M,M,M,M,M,27.00,KELY 020800Z AUTO 00000KT 8SM -SN FEW017 BKN036 OVC070 M03/M05 A2968 RMK AO2 P0000 T10281050,M
10U,2025-04-02 08:00,-116.1876,41.9532,1637.00,26.60,24.80,92.80,0.00,0.00,0.00,29.72,M,10.00,M,OVC,M,M,M,400.00,M,M,M,M,M,M,M,M,M,M,26.60,K10U 020800Z AUTO 00000KT 10SM OVC004 M03/M04 A2972 RMK AO2,M
BVU,2025-04-02 08:15,-114.8611,35.9475,671.00,50.00,19.40,29.52,210.00,7.00,0.00,29.63,M,10.00,M,CLR,M,M,M,M,M,M,M,M,M,M,M,M,M,M,50.00,KBVU 020815Z AUTO 21007KT 10SM CLR 10/M07 A2963 RMK AO2,M
BAM,2025-04-02 08:15,-116.8743,40.5990,1382.36,32.00,32.00,100.00,230.00,4.00,0.00,29.74,M,10.00,M,BKN,OVC,M,M,1700.00,2600.00,M,M,M,M,M,M,M,M,M,27.42,KBAM 020815Z AUTO 23004KT 10SM BKN017 OVC026 00/00 A2974 RMK AO1,M
CXP,2025-04-02 08:15,-119.7326,39.1923,1431.00,32.00,26.60,80.22,200.00,4.00,0.00,29.82,M,10.00,M,SCT,BKN,OVC,M,2100.00,2900.00,3900.00,M,M,M,M,M,M,M,M,27.42,KCXP 020815Z AUTO 20004KT 10SM SCT021 BKN029 OVC039 00/M03 A2982 RMK AO2,M
RTS,2025-04-02 08:15,-119.8764,39.6682,1539.00,30.20,26.60,86.28,290.00,9.00,0.00,29.80,M,10.00,M,BKN,OVC,M,M,3000.00,3500.00,M,M,M,M,M,M,M,M,M,21.28,KRTS 020815Z AUTO 29009KT 10SM BKN030 OVC035 M01/M03 A2980 RMK AO2,M
MEV,2025-04-02 08:15,-119.7500,38.9963,1441.42,32.00,28.40,86.39,350.00,3.00,0.00,29.80,M,9.00,M,FEW,SCT,BKN,M,600.00,2100.00,3300.00,M,UP,M,M,M,M,M,M,28.69,KMEV 020815Z AUTO 35003KT 9SM UP FEW006 SCT021 BKN033 M00/M02 A2980 RMK AO2,M
HTH,2025-04-02 08:15,-118.6315,38.5448,1282.89,35.60,23.00,59.79,10.00,10.00,0.00,29.78,M,10.00,15.00,BKN,OVC,M,M,5500.00,7000.00,M,M,M,M,M,M,M,M,M,27.48,KHTH 020815Z AUTO 01010G15KT 10SM BKN055 OVC070 02/M05 A2978 RMK A01,M
TMT,2025-04-02 08:15,-117.1971,39.4643,1749.34,26.00,25.00,95.93,210.00,5.00,0.00,29.73,M,3.00,M,SCT,BKN,OVC,M,1300.00,1700.00,2900.00,M,-SN,M,M,M,M,M,M,19.27,KTMT 020815Z AUTO 21005KT 3SM -SN SCT013 BKN017 OVC029 M03/M04 A2973 RMK AO2 T10341038,M
10U,2025-04-02 08:20,-116.1876,41.9532,1637.00,26.60,24.80,92.80,0.00,0.00,0.00,29.72,M,5.00,M,OVC,M,M,M,400.00,M,M,M,-SN,M,M,M,M,M,M,26.60,K10U 020820Z AUTO 00000KT 5SM -SN OVC004 M03/M04 A2972 RMK AO2,M
EKO,2025-04-02 08:32,-115.7860,40.8242,1367.00,25.00,24.00,95.91,0.00,0.00,0.00,29.70,M,10.00,M,SCT,BKN,M,M,2600.00,12000.00,M,M,M,M,M,M,M,M,M,25.00,KEKO 020832Z AUTO 00000KT 10SM SCT026 BKN120 M04/M04 A2970 RMK AO2 T10391044,M
CXP,2025-04-02 08:35,-119.7326,39.1923,1431.00,32.00,26.60,80.22,0.00,0.00,0.00,29.82,M,10.00,M,FEW,BKN,OVC,M,2100.00,2900.00,5000.00,M,M,M,M,M,M,M,M,32.00,KCXP 020835Z AUTO 00000KT 10SM FEW021 BKN029 OVC050 00/M03 A2982 RMK AO2,M
RTS,2025-04-02 08:35,-119.8764,39.6682,1539.00,30.20,26.60,86.28,290.00,8.00,0.00,29.80,M,10.00,M,FEW,BKN,OVC,M,2200.00,3000.00,4100.00,M,M,M,M,M,M,M,M,21.90,KRTS 020835Z AUTO 29008KT 10SM FEW022 BKN030 OVC041 M01/M03 A2980 RMK AO2,M
MEV,2025-04-02 08:35,-119.7500,38.9963,1441.42,30.20,26.60,86.28,60.00,3.00,0.00,29.80,M,8.00,M,FEW,BKN,OVC,M,3200.00,4400.00,6500.00,M,-SN,M,M,M,M,M,M,26.63,KMEV 020835Z AUTO 06003KT 8SM -SN FEW032 BKN044 OVC065 M01/M03 A2980 RMK AO2,M
HTH,2025-04-02 08:35,-118.6315,38.5448,1282.89,35.60,23.00,59.79,10.00,8.00,0.00,29.79,M,10.00,M,BKN,OVC,M,M,6000.00,7500.00,M,M,M,M,M,M,M,M,M,28.55,KHTH 020835Z AUTO 01008KT 10SM BKN060 OVC075 02/M05 A2979 RMK A01,M
TMT,2025-04-02 08:35,-117.1971,39.4643,1749.34,25.00,24.00,95.91,200.00,4.00,0.00,29.74,M,10.00,M,SCT,SCT,BKN,M,1200.00,1800.00,2800.00,M,M,M,M,M,M,M,M,19.25,KTMT 020835Z AUTO 20004KT 10SM SCT012 SCT018 BKN028 M04/M04 A2974 RMK AO2 T10381044,M
BVU,2025-04-02 08:35,-114.8611,35.9475,671.00,50.00,19.40,29.52,260.00,5.00,0.00,29.61,M,10.00,M,CLR,M,M,M,M,M,M,M,M,M,M,M,M,M,M,50.00,KBVU 020835Z AUTO 26005KT 10SM CLR 10/M07 A2961 RMK AO2,M
BAM,2025-04-02 08:35,-116.8743,40.5990,1382.36,32.00,32.00,100.00,240.00,3.00,0.00,29.74,M,10.00,M,SCT,OVC,M,M,1700.00,2800.00,M,M,M,M,M,M,M,M,M,28.69,KBAM 020835Z AUTO 24003KT 10SM SCT017 OVC028 00/00 A2974 RMK AO1,M
WMC,2025-04-02 08:39,-117.8072,40.9019,1315.00,33.00,32.00,96.06,290.00,8.00,0.00,29.74,M,10.00,M,FEW,BKN,OVC,M,1200.00,3000.00,3500.00,M,M,M,M,M,M,M,M,25.34,KWMC 020839Z AUTO 29008KT 10SM FEW012 BKN030 OVC035 01/00 A2974 RMK AO2 T00060000 TSNO,M
10U,2025-04-02 08:40,-116.1876,41.9532,1637.00,26.60,24.80,92.80,0.00,0.00,0.00,29.72,M,7.00,M,OVC,M,M,M,500.00,M,M,M,UP,M,M,M,M,M,M,26.60,K10U 020840Z AUTO 00000KT 7SM UP OVC005 M03/M04 A2972 RMK AO2,M
RTS,2025-04-02 08:45,-119.8764,39.6682,1539.00,30.20,26.60,86.28,290.00,4.00,0.00,29.81,M,10.00,M,SCT,BKN,OVC,M,2100.00,3000.00,4100.00,M,M,M,M,M,M,M,M,25.32,KRTS 020845Z AUTO 29004KT 10SM SCT021 BKN030 OVC041 M01/M03 A2981 RMK AO2,M
P68,2025-04-02 08:53,-116.0056,39.6014,1993.00,29.00,24.00,81.32,240.00,5.00,0.00,29.68,1003.80,M,M,M,M,M,M,M,M,M,M,M,M,M,M,M,M,M,22.83,KP68 020853Z AUTO 24005KT M02/M04 A2968 RMK AO1 SLP038 T10171044 50000,M
DRA,2025-04-02 08:53,-116.0278,36.6206,1009.00,47.00,30.00,51.39,60.00,9.00,T,29.66,1002.10,10.00,M,OVC,M,M,M,8000.00,M,M,M,M,M,M,M,M,M,M,42.17,KDRA 020853Z AUTO 06009KT 10SM OVC080 08/M01 A2966 RMK AO2 RAE16 SLP021 P0000 60000 T00831011 50007,M
ELY,2025-04-02 08:53,-114.8453,39.2950,1909.00,25.00,22.00,88.18,0.00,0.00,T,29.67,1003.50,10.00,M,SCT,BKN,M,M,2800.00,9000.00,M,M,M,M,M,M,M,M,M,25.00,KELY 020853Z AUTO 00000KT 10SM SCT028 BKN090 M04/M06 A2967 RMK AO2 SNE01B24E46 SLP035 P0000 60001 T10391056 58003,M
VGT,2025-04-02 08:53,-115.1933,36.2111,667.00,53.00,21.00,28.29,10.00,12.00,0.00,29.62,1003.70,10.00,22.00,CLR,M,M,M,M,M,M,M,M,M,M,M,M,M,M,53.00,KVGT 020853Z AUTO 01012G22KT 10SM CLR 12/M06 A2962 RMK AO2 SLP037 T01171061 53002,M
LOL,2025-04-02 08:53,-118.5701,40.0684,1192.43,31.00,29.00,92.19,330.00,3.00,0.00,29.77,1008.60,10.00,M,BKN,M,M,M,3600.00,M,M,M,M,M,M,M,M,M,M,27.55,KLOL 020853Z AUTO 33003KT 10SM BKN036 M01/M02 A2977 RMK AO2 SLP086 T10061017 51005,M
BVU,2025-04-02 08:55,-114.8611,35.9475,671.00,48.20,19.40,31.57,0.00,0.00,0.00,29.62,M,10.00,M,CLR,M,M,M,M,M,M,M,M,M,M,M,M,M,M,48.20,KBVU 020855Z AUTO 00000KT 10SM CLR 09/M07 A2962 RMK AO2,M
RNO,2025-04-02 08:55,-119.7711,39.4839,1341.00,36.00,23.00,58.85,320.00,5.00,0.00,29.80,1008.30,10.00,M,BKN,BKN,M,M,4200.00,8000.00,M,M,M,M,M,M,M,M,M,31.15,KRNO 020855Z 32005KT 10SM BKN042 BKN080 02/M05 A2980 RMK AO2 SLP083 T00221050 51007,M
BAM,2025-04-02 08:55,-116.8743,40.5990,1382.36,32.00,32.00,100.00,230.00,3.00,0.00,29.74,M,10.00,M,OVC,M,M,M,2800.00,M,M,M,M,M,M,M,M,M,M,28.69,KBAM 020855Z AUTO 23003KT 10SM OVC028 00/00 A2974 RMK AO1,M
MEV,2025-04-02 08:55,-119.7500,38.9963,1441.42,28.40,28.40,100.00,0.00,0.00,0.00,29.80,M,10.00,M,SCT,SCT,SCT,M,4600.00,7500.00,9000.00,M,M,M,M,M,M,M,M,28.40,KMEV 020855Z AUTO 00000KT 10SM SCT046 SCT075 SCT090 M02/M02 A2980 RMK AO2,M
HTH,2025-04-02 08:55,-118.6315,38.5448,1282.89,35.60,23.00,59.79,360.00,8.00,0.00,29.79,M,10.00,M,OVC,M,M,M,6000.00,M,M,M,M,M,M,M,M,M,M,28.55,KHTH 020855Z AUTO 36008KT 10SM OVC060 02/M05 A2979 RMK A01,M
TMT,2025-04-02 08:55,-117.1971,39.4643,1749.34,23.50,23.00,97.92,180.00,5.00,0.00,29.74,M,10.00,M,BKN,BKN,M,M,1200.00,1800.00,M,M,M,M,M,M,M,M,M,16.30,KTMT 020855Z AUTO 18005KT 10SM BKN012 BKN018 M05/M05 A2974 RMK AO2 T10471050,M
CXP,2025-04-02 08:55,-119.7326,39.1923,1431.00,32.00,26.60,80.22,270.00,4.00,0.00,29.82,M,10.00,M,FEW,SCT,OVC,M,2900.00,3500.00,4600.00,M,M,M,M,M,M,M,M,27.42,KCXP 020855Z AUTO 27004KT 10SM FEW029 SCT035 OVC046 M00/M03 A2982 RMK AO2,M
INS,2025-04-02 08:55,-115.6733,36.5872,955.00,49.50,23.00,35.03,330.00,14.00,0.00,29.66,1001.90,10.00,17.00,FEW,OVC,M,M,6000.00,9000.00,M,M,M,M,M,M,M,M,M,43.72,KINS 020855Z AUTO 33014G17KT 10SM FEW060 OVC090 10/M05 A2966 RMK AO2 SLP019 T00971050 50008 $,M
LSV,2025-04-02 08:55,-115.0343,36.2362,570.00,53.80,22.30,29.02,210.00,13.00,0.00,29.58,1000.60,10.00,M,BKN,M,M,M,12000.00,M,M,M,M,M,M,M,M,M,M,53.80,KLSV 020855Z 21013KT 10SM BKN120 12/M05 A2958 RMK SLP006 T01211054 55001 FZRANO $,M
EKO,2025-04-02 08:56,-115.7860,40.8242,1367.00,25.00,25.00,100.00,270.00,3.00,0.00,29.69,1007.40,10.00,M,FEW,BKN,M,M,2400.00,12000.00,M,M,M,T,0.01,M,M,M,M,20.69,KEKO 020856Z AUTO 27003KT 10SM FEW024 BKN120 M04/M04 A2969 RMK AO2 SLP074 I1000 I3001 T10391039 53002,M
TPH,2025-04-02 08:56,-117.0904,38.0505,1654.00,32.00,19.00,58.27,M,M,0.00,29.70,1004.70,10.00,M,SCT,M,M,M,12000.00,M,M,M,M,M,M,M,M,M,M,M,KTPH 020856Z AUTO 10SM SCT120 00/M07 A2970 RMK AO2 SLP047 T00001072 58003 $,M
LAS,2025-04-02 08:56,-115.1634,36.0719,663.00,51.00,24.00,34.55,200.00,10.00,0.00,29.62,1002.30,10.00,M,FEW,M,M,M,20000.00,M,M,M,M,M,M,M,M,M,M,51.00,KLAS 020856Z 20010KT 10SM FEW200 11/M04 A2962 RMK AO2 SLP023 T01061044 58005,M
WMC,2025-04-02 08:56,-117.8072,40.9019,1315.00,33.00,32.00,96.06,300.00,6.00,T,29.74,1008.00,9.00,M,FEW,BKN,OVC,M,1800.00,3600.00,5000.00,M,M,M,M,M,M,M,M,26.73,KWMC 020856Z AUTO 30006KT 9SM FEW018 BKN036 OVC050 01/00 A2974 RMK AO2 SNB41E56 SLP080 P0000 60003 T00060000 53006 TSNO,M
HND,2025-04-02 08:56,-115.1344,35.9729,742.79,48.00,24.00,38.64,190.00,15.00,0.00,29.64,1004.60,10.00,M,CLR,M,M,M,M,M,M,M,M,M,M,M,M,M,M,41.52,KHND 020856Z AUTO 19015KT 10SM CLR 09/M04 A2964 RMK AO2 SLP046 T00891044 58006 $,M
NFL,2025-04-02 08:57,-118.7010,39.4166,1199.00,34.00,25.00,69.28,280.00,5.00,0.00,29.77,1006.10,10.00,M,BKN,BKN,M,M,5500.00,6500.00,M,M,M,M,M,M,M,M,M,28.77,KNFL 020857Z AUTO 28005KT 10SM BKN055 BKN065 01/M04 A2977 RMK AO2 SLP061 T00111039 51003,M
10U,2025-04-02 09:00,-116.1876,41.9532,1637.00,26.60,26.60,100.00,0.00,0.00,0.00,29.72,M,10.00,M,OVC,M,M,M,500.00,M,M,M,UP,M,M,M,M,M,M,26.60,K10U 020900Z AUTO 00000KT 10SM UP OVC005 M03/M03 A2972 RMK AO2,M
RTS,2025-04-02 09:05,-119.8764,39.6682,1539.00,32.00,26.60,80.22,270.00,8.00,0.00,29.81,M,10.00,M,BKN,OVC,M,M,2300.00,2800.00,M,M,M,M,M,M,M,M,M,24.11,KRTS 020905Z AUTO 27008KT 10SM BKN023 OVC028 M00/M03 A2981 RMK AO2,M
MEV,2025-04-02 09:15,-119.7500,38.9963,1441.42,28.40,26.60,92.86,100.00,3.00,0.00,29.80,M,10.00,M,BKN,BKN,BKN,M,4700.00,5500.00,7500.00,M,M,M,M,M,M,M,M,24.57,KMEV 020915Z AUTO 10003KT 10SM BKN047 BKN055 BKN075 M02/M03 A2980 RMK AO2,M
HTH,2025-04-02 09:15,-118.6315,38.5448,1282.89,35.60,24.80,64.46,20.00,10.00,0.00,29.79,M,10.00,M,BKN,BKN,OVC,M,5500.00,6500.00,7500.00,M,M,M,M,M,M,M,M,27.48,KHTH 020915Z AUTO 02010KT 10SM BKN055 BKN065 OVC075 02/M04 A2979 RMK A01,M
TMT,2025-04-02 09:15,-117.1971,39.4643,1749.34,25.50,24.80,97.13,200.00,5.00,0.00,29.73,M,10.00,M,BKN,BKN,OVC,M,1600.00,3000.00,4100.00,M,M,M,M,M,M,M,M,18.68,KTMT 020915Z AUTO 20005KT 10SM BKN016 BKN030 OVC041 M04/M04 A2973 RMK AO2 T10361040,M
BVU,2025-04-02 09:15,-114.8611,35.9475,671.00,48.20,21.20,34.09,0.00,0.00,0.00,29.61,M,10.00,M,CLR,M,M,M,M,M,M,M,M,M,M,M,M,M,M,48.20,KBVU 020915Z AUTO 00000KT 10SM CLR 09/M06 A2961 RMK AO2,M
WMC,2025-04-02 09:15,-117.8072,40.9019,1315.00,33.00,32.00,96.06,300.00,4.00,0.00,29.74,M,10.00,M,BKN,BKN,OVC,M,1400.00,2200.00,4600.00,M,M,M,M,M,M,M,M,28.59,KWMC 020915Z AUTO 30004KT 10SM BKN014 BKN022 OVC046 01/00 A2974 RMK AO2 T00060000 TSNO,M
BAM,2025-04-02 09:15,-116.8743,40.5990,1382.36,33.80,32.00,93.03,230.00,6.00,0.00,29.74,M,10.00,M,SCT,OVC,M,M,400.00,2800.00,M,M,M,M,M,M,M,M,M,27.70,KBAM 020915Z AUTO 23006KT 10SM SCT004 OVC028 01/00 A2974 RMK AO1,M
CXP,2025-04-02 09:15,-119.7326,39.1923,1431.00,32.00,26.60,80.22,0.00,0.00,0.00,29.82,M,10.00,M,FEW,OVC,M,M,3100.00,4500.00,M,M,M,M,M,M,M,M,M,32.00,KCXP 020915Z AUTO 00000KT 10SM FEW031 OVC045 M00/M03 A2982 RMK AO2,M
10U,2025-04-02 09:20,-116.1876,41.9532,1637.00,26.60,26.60,100.00,0.00,0.00,0.00,29.72,M,10.00,M,SCT,OVC,M,M,500.00,1300.00,M,M,-SN,M,M,M,M,M,M,26.60,K10U 020920Z AUTO 00000KT 10SM -SN SCT005 OVC013 M03/M03 A2972 RMK AO2,M
MEV,2025-04-02 09:25,-119.7500,38.9963,1441.42,28.40,26.60,92.86,0.00,0.00,0.00,29.80,M,10.00,M,FEW,OVC,M,M,3600.00,4700.00,M,M,M,M,M,M,M,M,M,28.40,KMEV 020925Z AUTO 00000KT 10SM FEW036 OVC047 M02/M03 A2980 RMK AO2,M
RTS,2025-04-02 09:25,-119.8764,39.6682,1539.00,30.20,26.60,86.28,0.00,0.00,0.00,29.81,M,10.00,M,BKN,BKN,OVC,M,2200.00,2700.00,3200.00,M,M,M,M,M,M,M,M,30.20,KRTS 020925Z AUTO 00000KT 10SM BKN022 BKN027 OVC032 M01/M03 A2981 RMK AO2,M
WMC,2025-04-02 09:30,-117.8072,40.9019,1315.00,33.00,32.00,96.06,330.00,3.00,0.00,29.75,M,10.00,M,BKN,BKN,OVC,M,900.00,1200.00,3100.00,M,M,M,M,M,M,M,M,29.83,KWMC 020930Z AUTO 33003KT 10SM BKN009 BKN012 OVC031 01/00 A2975 RMK AO2 T00060000 TSNO,M
BVU,2025-04-02 09:35,-114.8611,35.9475,671.00,48.20,19.40,31.57,0.00,0.00,0.00,29.62,M,10.00,M,CLR,M,M,M,M,M,M,M,M,M,M,M,M,M,M,48.20,KBVU 020935Z AUTO 00000KT 10SM CLR 09/M07 A2962 RMK AO2,M
BAM,2025-04-02 09:35,-116.8743,40.5990,1382.36,32.00,32.00,100.00,240.00,8.00,0.00,29.74,M,10.00,M,SCT,BKN,OVC,M,2800.00,3300.00,5500.00,M,M,M,M,M,M,M,M,24.11,KBAM 020935Z AUTO 24008KT 10SM SCT028 BKN033 OVC055 00/00 A2974 RMK AO1,M
CXP,2025-04-02 09:35,-119.7326,39.1923,1431.00,32.00,26.60,80.22,0.00,0.00,0.00,29.82,M,10.00,M,FEW,OVC,M,M,3000.00,4400.00,M,M,M,M,M,M,M,M,M,32.00,KCXP 020935Z AUTO 00000KT 10SM FEW030 OVC044 M00/M03 A2982 RMK AO2,M
HTH,2025-04-02 09:35,-118.6315,38.5448,1282.89,35.60,24.80,64.46,0.00,0.00,0.00,29.79,M,10.00,M,BKN,BKN,OVC,M,5000.00,6000.00,7500.00,M,M,M,M,M,M,M,M,35.60,KHTH 020935Z AUTO 00000KT 10SM BKN050 BKN060 OVC075 02/M04 A2979 RMK A01,M
TMT,2025-04-02 09:35,-117.1971,39.4643,1749.34,25.50,24.60,96.32,0.00,0.00,0.00,29.73,M,10.00,M,SCT,SCT,OVC,M,1600.00,3000.00,4100.00,M,M,M,M,M,M,M,M,25.50,KTMT 020935Z AUTO 00000KT 10SM SCT016 SCT030 OVC041 M04/M04 A2973 RMK AO2 T10361041,M
10U,2025-04-02 09:40,-116.1876,41.9532,1637.00,26.60,26.60,100.00,0.00,0.00,0.00,29.72,M,4.00,M,FEW,FEW,OVC,M,400.00,1000.00,1400.00,M,UP,M,M,M,M,M,M,26.60,K10U 020940Z AUTO 00000KT 4SM UP FEW004 FEW010 OVC014 M03/M03 A2972 RMK AO2,M
WMC,2025-04-02 09:46,-117.8072,40.9019,1315.00,33.00,32.00,96.06,320.00,4.00,0.00,29.75,M,10.00,M,OVC,M,M,M,1100.00,M,M,M,M,M,M,M,M,M,M,28.59,KWMC 020946Z AUTO 32004KT 10SM OVC011 01/00 A2975 RMK AO2 T00060000 TSNO,M
P68,2025-04-02 09:53,-116.0056,39.6014,1993.00,28.00,23.00,81.25,240.00,3.00,0.00,29.68,1005.10,M,M,M,M,M,M,M,M,M,M,M,M,M,M,M,M,M,24.12,KP68 020953Z AUTO 24003KT M02/M05 A2968 RMK AO1 SLP051 T10221050,M
DRA,2025-04-02 09:53,-116.0278,36.6206,1009.00,45.00,30.00,55.43,10.00,14.00,0.00,29.67,1002.50,10.00,23.00,BKN,OVC,M,M,4800.00,7000.00,M,M,M,M,M,M,M,M,M,37.92,KDRA 020953Z AUTO 01014G23KT 10SM BKN048 OVC070 07/M01 A2967 RMK AO2 SLP025 T00721011,M
ELY,2025-04-02 09:53,-114.8453,39.2950,1909.00,25.00,22.00,88.18,0.00,0.00,0.00,29.66,1003.70,10.00,M,BKN,BKN,OVC,M,2800.00,3300.00,4300.00,M,M,M,M,M,M,M,M,25.00,KELY 020953Z AUTO 00000KT 10SM BKN028 BKN033 OVC043 M04/M06 A2966 RMK AO2 SLP037 T10391056,M
VGT,2025-04-02 09:53,-115.1933,36.2111,667.00,53.00,26.00,34.88,320.00,15.00,0.00,29.59,1003.00,10.00,29.00,CLR,M,M,M,M,M,M,M,M,M,M,M,29.00,310.00,2025-04-02 09:49,53.00,KVGT 020953Z AUTO 32015G29KT 10SM CLR 12/M03 A2959 RMK AO2 PK WND 31029/0949 SLP030 T01171033,M
LOL,2025-04-02 09:53,-118.5701,40.0684,1192.43,31.00,28.00,88.48,0.00,0.00,T,29.77,1008.80,10.00,M,BKN,OVC,M,M,4700.00,6000.00,M,M,M,M,M,M,M,M,M,31.00,KLOL 020953Z AUTO 00000KT 10SM BKN047 OVC060 M01/M02 A2977 RMK AO2 SNB10E18 SLP088 P0000 T10061022,M
BVU,2025-04-02 09:55,-114.8611,35.9475,671.00,48.20,19.40,31.57,0.00,0.00,0.00,29.63,M,10.00,M,SCT,M,M,M,11000.00,M,M,M,M,M,M,M,M,M,M,48.20,KBVU 020955Z AUTO 00000KT 10SM SCT110 09/M07 A2963 RMK AO2,M
RNO,2025-04-02 09:55,-119.7711,39.4839,1341.00,36.00,23.00,58.85,310.00,6.00,0.00,29.81,1008.60,10.00,M,BKN,OVC,M,M,4000.00,6000.00,M,M,M,M,M,M,M,M,M,30.35,KRNO 020955Z 31006KT 10SM BKN040 OVC060 02/M05 A2981 RMK AO2 SLP086 T00221050,M
BAM,2025-04-02 09:55,-116.8743,40.5990,1382.36,32.00,32.00,100.00,240.00,6.00,0.00,29.74,M,10.00,M,OVC,M,M,M,3000.00,M,M,M,M,M,M,M,M,M,M,25.53,KBAM 020955Z AUTO 24006KT 10SM OVC030 00/00 A2974 RMK AO1,M
CXP,2025-04-02 09:55,-119.7326,39.1923,1431.00,32.00,26.60,80.22,0.00,0.00,0.00,29.82,M,10.00,M,FEW,OVC,M,M,3500.00,4600.00,M,M,M,M,M,M,M,M,M,32.00,KCXP 020955Z AUTO 00000KT 10SM FEW035 OVC046 M00/M03 A2982 RMK AO2,M
HTH,2025-04-02 09:55,-118.6315,38.5448,1282.89,35.60,24.80,64.46,310.00,4.00,0.00,29.79,M,10.00,12.00,BKN,OVC,M,M,4800.00,5500.00,M,M,M,M,M,M,M,M,M,31.62,KHTH 020955Z AUTO 31004G12KT 10SM BKN048 OVC055 02/M04 A2979 RMK A01,M
TMT,2025-04-02 09:55,-117.1971,39.4643,1749.34,25.00,24.00,95.91,250.00,3.00,0.00,29.73,M,10.00,M,SCT,BKN,OVC,M,2400.00,3500.00,4500.00,M,M,M,M,M,M,M,M,20.69,KTMT 020955Z AUTO 25003KT 10SM SCT024 BKN035 OVC045 M04/M04 A2973 RMK AO2 T10381044,M
INS,2025-04-02 09:55,-115.6733,36.5872,955.00,47.00,26.20,43.97,320.00,15.00,0.00,29.67,1002.50,10.00,M,BKN,OVC,M,M,6000.00,10000.00,M,M,M,M,M,M,M,M,M,40.23,KINS 020955Z AUTO 32015KT 10SM BKN060 OVC100 08/M03 A2967 RMK AO2 SLP025 T00841032 $,M
LSV,2025-04-02 09:55,-115.0343,36.2362,570.00,54.50,22.00,27.93,160.00,3.00,0.00,29.57,1000.10,10.00,M,FEW,M,M,M,20000.00,M,M,M,M,M,M,M,M,M,M,54.50,KLSV 020955Z 16003KT 10SM FEW200 13/M05 A2957 RMK AO2A SLP001 T01251055 FZRANO $,M
EKO,2025-04-02 09:56,-115.7860,40.8242,1367.00,27.00,26.00,95.95,0.00,0.00,0.00,29.69,1007.20,9.00,M,SCT,OVC,M,M,1800.00,4600.00,M,M,M,M,M,M,M,M,M,27.00,KEKO 020956Z AUTO 00000KT 9SM SCT018 OVC046 M03/M03 A2969 RMK AO2 SLP072 T10281033,M
WMC,2025-04-02 09:56,-117.8072,40.9019,1315.00,33.00,32.00,96.06,310.00,5.00,0.00,29.75,1008.20,10.00,M,OVC,M,M,M,1100.00,M,M,M,M,M,M,M,M,M,M,27.58,KWMC 020956Z AUTO 31005KT 10SM OVC011 01/00 A2975 RMK AO2 SLP082 T00060000 TSNO,M
HND,2025-04-02 09:56,-115.1344,35.9729,742.79,48.00,26.00,42.00,180.00,9.00,0.00,29.64,1004.70,10.00,M,BKN,M,M,M,11000.00,M,M,M,M,M,M,M,M,M,M,43.41,KHND 020956Z AUTO 18009KT 10SM BKN110 09/M03 A2964 RMK AO2 SLP047 T00891033 $,M
TPH,2025-04-02 09:56,-117.0904,38.0505,1654.00,31.00,21.00,66.07,M,M,0.00,29.69,1004.60,10.00,M,CLR,M,M,M,M,M,M,M,M,M,M,M,M,M,M,M,KTPH 020956Z AUTO 10SM CLR M01/M06 A2969 RMK AO2 SLP046 T10061061 $,M
LAS,2025-04-02 09:56,-115.1634,36.0719,663.00,51.00,24.00,34.55,150.00,8.00,0.00,29.63,1002.40,10.00,M,SCT,SCT,M,M,10000.00,20000.00,M,M,M,M,M,M,M,M,M,51.00,KLAS 020956Z COR 15008KT 10SM SCT100 SCT200 11/M04 A2963 RMK AO2 SLP024 T01061044,M
NFL,2025-04-02 09:57,-118.7010,39.4166,1199.00,36.00,25.00,63.98,290.00,7.00,0.00,29.78,1006.20,10.00,M,BKN,OVC,M,M,4900.00,6500.00,M,M,M,M,M,M,M,M,M,29.65,KNFL 020957Z AUTO 29007KT 10SM BKN049 OVC065 02/M04 A2978 RMK AO2 SLP062 T00221039,M
10U,2025-04-02 10:00,-116.1876,41.9532,1637.00,26.60,26.60,100.00,0.00,0.00,0.00,29.72,M,1.75,M,BKN,OVC,M,M,300.00,1400.00,M,M,-SN,M,M,M,M,M,M,26.60,K10U 021000Z AUTO 00000KT 1 3/4SM -SN BKN003 OVC014 M03/M03 A2972 RMK AO2,M
ELY,2025-04-02 10:10,-114.8453,39.2950,1909.00,25.00,21.00,84.53,0.00,0.00,0.00,29.66,M,10.00,M,SCT,BKN,BKN,M,2800.00,3400.00,4100.00,M,M,M,M,M,M,M,M,25.00,KELY 021010Z AUTO 00000KT 10SM SCT028 BKN034 BKN041 M04/M06 A2966 RMK AO2 T10391061,M
BVU,2025-04-02 10:15,-114.8611,35.9475,671.00,48.20,21.20,34.09,130.00,5.00,0.00,29.62,M,10.00,M,OVC,M,M,M,10000.00,M,M,M,M,M,M,M,M,M,M,45.63,KBVU 021015Z AUTO 13005KT 10SM OVC100 09/M06 A2962 RMK AO2,M
BAM,2025-04-02 10:15,-116.8743,40.5990,1382.36,33.80,32.00,93.03,240.00,5.00,0.00,29.74,M,10.00,M,SCT,OVC,M,M,3200.00,3700.00,M,M,M,M,M,M,M,M,M,28.53,KBAM 021015Z AUTO 24005KT 10SM SCT032 OVC037 01/00 A2974 RMK AO1,M
CXP,2025-04-02 10:15,-119.7326,39.1923,1431.00,32.00,26.60,80.22,0.00,0.00,0.00,29.82,M,10.00,M,OVC,M,M,M,4600.00,M,M,M,M,M,M,M,M,M,M,32.00,KCXP 021015Z AUTO 00000KT 10SM OVC046 M00/M03 A2982 RMK AO2,M
HTH,2025-04-02 10:15,-118.6315,38.5448,1282.89,35.60,24.80,64.46,0.00,0.00,0.00,29.78,M,10.00,M,FEW,BKN,BKN,M,4600.00,5000.00,7500.00,M,M,M,M,M,M,M,M,35.60,KHTH 021015Z AUTO 00000KT 10SM FEW046 BKN050 BKN075 02/M04 A2978 RMK A01,M
TMT,2025-04-02 10:15,-117.1971,39.4643,1749.34,23.50,23.00,97.92,230.00,5.00,0.00,29.73,M,10.00,M,SCT,OVC,M,M,2200.00,5000.00,M,M,M,M,M,M,M,M,M,16.30,KTMT 021015Z AUTO 23005KT 10SM SCT022 OVC050 M05/M05 A2973 RMK AO2 T10471051,M
ELY,2025-04-02 10:17,-114.8453,39.2950,1909.00,24.00,21.00,88.13,330.00,3.00,0.00,29.66,M,10.00,M,BKN,BKN,BKN,M,2800.00,3400.00,4100.00,M,M,M,M,M,M,M,M,19.54,KELY 021017Z AUTO 33003KT 10SM BKN028 BKN034 BKN041 M04/M06 A2966 RMK AO2 T10441061,M
10U,2025-04-02 10:20,-116.1876,41.9532,1637.00,26.60,26.60,100.00,0.00,0.00,0.00,29.72,M,0.75,M,OVC,M,M,M,300.00,M,M,M,-SN,M,M,M,M,M,M,26.60,K10U 021020Z AUTO 00000KT 3/4SM -SN OVC003 M03/M03 A2972 RMK AO2,M
ELY,2025-04-02 10:26,-114.8453,39.2950,1909.00,23.00,21.00,91.90,310.00,5.00,0.00,29.66,M,10.00,M,FEW,SCT,M,M,3100.00,4100.00,M,M,M,M,M,M,M,M,M,15.71,KELY 021026Z AUTO 31005KT 10SM FEW031 SCT041 M05/M06 A2966 RMK AO2 T10501061,M
BVU,2025-04-02 10:35,-114.8611,35.9475,671.00,48.20,21.20,34.09,0.00,0.00,0.00,29.61,M,10.00,M,BKN,M,M,M,10000.00,M,M,M,M,M,M,M,M,M,M,48.20,KBVU 021035Z AUTO 00000KT 10SM BKN100 09/M06 A2961 RMK AO2,M
BAM,2025-04-02 10:35,-116.8743,40.5990,1382.36,33.80,32.00,93.03,250.00,5.00,0.00,29.74,M,10.00,M,SCT,OVC,M,M,2000.00,3600.00,M,M,M,M,M,M,M,M,M,28.53,KBAM 021035Z AUTO 25005KT 10SM SCT020 OVC036 01/00 A2974 RMK AO1,M
CXP,2025-04-02 10:35,-119.7326,39.1923,1431.00,32.00,26.60,80.22,0.00,0.00,0.00,29.81,M,10.00,M,BKN,OVC,M,M,4600.00,5500.00,M,M,M,M,M,M,M,M,M,32.00,KCXP 021035Z AUTO 00000KT 10SM BKN046 OVC055 M00/M03 A2981 RMK AO2,M
HTH,2025-04-02 10:35,-118.6315,38.5448,1282.89,35.60,24.80,64.46,0.00,0.00,0.00,29.78,M,10.00,M,BKN,M,M,M,5500.00,M,M,M,M,M,M,M,M,M,M,35.60,KHTH 021035Z AUTO 00000KT 10SM BKN055 02/M04 A2978 RMK A01,M
TMT,2025-04-02 10:35,-117.1971,39.4643,1749.34,23.50,22.60,96.29,210.00,5.00,0.00,29.73,M,10.00,M,SCT,SCT,BKN,M,2200.00,4400.00,5000.00,M,M,M,M,M,M,M,M,16.30,KTMT 021035Z AUTO 21005KT 10SM SCT022 SCT044 BKN050 M05/M05 A2973 RMK AO2 T10471052,M
INS,2025-04-02 10:37,-115.6733,36.5872,955.00,44.60,30.20,56.74,340.00,17.00,0.00,29.68,1002.80,10.00,M,SCT,BKN,OVC,M,2700.00,4300.00,6000.00,M,-RA,M,M,M,M,M,M,36.58,KINS 021037Z AUTO 34017KT 10SM -RA SCT027 BKN043 OVC060 07/M01 A2968 RMK AO2 RAB37 SLP028 $,M
10U,2025-04-02 10:40,-116.1876,41.9532,1637.00,26.60,26.60,100.00,0.00,0.00,0.00,29.72,M,0.75,M,OVC,M,M,M,200.00,M,M,M,-SN,M,M,M,M,M,M,26.60,K10U 021040Z AUTO 00000KT 3/4SM -SN OVC002 M03/M03 A2972 RMK AO2,M
MEV,2025-04-02 10:50,-119.7500,38.9963,1441.42,28.40,26.60,92.86,0.00,0.00,0.00,29.80,M,10.00,M,FEW,BKN,OVC,M,3600.00,4400.00,5000.00,M,M,M,M,M,M,M,M,28.40,KMEV 021050Z AUTO 00000KT 10SM FEW036 BKN044 OVC050 M02/M03 A2980 RMK AO2,M
P68,2025-04-02 10:53,-116.0056,39.6014,1993.00,28.00,24.00,84.72,0.00,0.00,0.00,29.67,1004.10,M,M,M,M,M,M,M,M,M,M,M,M,M,M,M,M,M,28.00,KP68 021053Z AUTO 00000KT M02/M04 A2967 RMK AO1 SLP041 T10221044,M
DRA,2025-04-02 10:53,-116.0278,36.6206,1009.00,40.00,34.00,78.94,40.00,14.00,T,29.67,1002.70,10.00,23.00,BKN,OVC,M,M,4400.00,7000.00,M,M,-RA,M,M,M,32.00,360.00,2025-04-02 09:55,31.47,KDRA 021053Z AUTO 04014G23KT 10SM -RA BKN044 OVC070 04/01 A2967 RMK AO2 PK WND 36032/0955 RAB0958E12B42 SLP027 P0000 T00440011,M
ELY,2025-04-02 10:53,-114.8453,39.2950,1909.00,22.00,19.00,88.02,290.00,3.00,0.00,29.66,1004.30,10.00,M,BKN,M,M,M,4400.00,M,M,M,M,M,M,M,M,M,M,17.26,KELY 021053Z AUTO 29003KT 10SM BKN044 M06/M07 A2966 RMK AO2 SLP043 T10561072,M
VGT,2025-04-02 10:53,-115.1933,36.2111,667.00,53.00,28.00,37.88,330.00,18.00,0.00,29.60,1003.00,10.00,25.00,SCT,M,M,M,11000.00,M,M,M,M,M,M,M,M,M,M,53.00,KVGT 021053Z AUTO 33018G25KT 10SM SCT110 12/M02 A2960 RMK AO2 SLP030 T01171022,M
LOL,2025-04-02 10:53,-118.5701,40.0684,1192.43,30.00,27.00,88.44,330.00,3.00,0.00,29.77,1008.70,10.00,M,FEW,OVC,M,M,4100.00,5000.00,M,M,M,M,M,M,M,M,M,26.40,KLOL 021053Z AUTO 33003KT 10SM FEW041 OVC050 M01/M03 A2977 RMK AO2 SLP087 T10111028,M
BAM,2025-04-02 10:55,-116.8743,40.5990,1382.36,32.00,32.00,100.00,250.00,4.00,0.00,29.74,M,10.00,M,BKN,BKN,OVC,M,3600.00,4800.00,6000.00,M,M,M,M,M,M,M,M,27.42,KBAM 021055Z AUTO 25004KT 10SM BKN036 BKN048 OVC060 00/00 A2974 RMK AO1,M
BVU,2025-04-02 10:55,-114.8611,35.9475,671.00,48.20,23.00,36.78,130.00,5.00,0.00,29.61,M,10.00,M,FEW,M,M,M,9500.00,M,M,M,M,M,M,M,M,M,M,45.63,KBVU 021055Z AUTO 13005KT 10SM FEW095 09/M05 A2961 RMK AO2,M
RNO,2025-04-02 10:55,-119.7711,39.4839,1341.00,35.00,26.00,69.39,290.00,7.00,0.00,29.80,1008.70,10.00,M,BKN,BKN,M,M,4000.00,6000.00,M,M,M,M,M,M,M,M,M,28.44,KRNO 021055Z 29007KT 10SM BKN040 BKN060 02/M03 A2980 RMK AO2 SLP087 T00171033,M
RTS,2025-04-02 10:55,-119.8764,39.6682,1539.00,30.20,26.60,86.28,280.00,6.00,0.00,29.81,M,10.00,M,BKN,BKN,OVC,M,2000.00,2900.00,6000.00,M,M,M,M,M,M,M,M,23.36,KRTS 021055Z AUTO 28006KT 10SM BKN020 BKN029 OVC060 M01/M03 A2981 RMK AO2,M
HTH,2025-04-02 10:55,-118.6315,38.5448,1282.89,35.60,24.80,64.46,190.00,4.00,0.00,29.78,M,10.00,M,OVC,M,M,M,5500.00,M,M,M,M,M,M,M,M,M,M,31.62,KHTH 021055Z AUTO 19004KT 10SM OVC055 02/M04 A2978 RMK A01,M
TMT,2025-04-02 10:55,-117.1971,39.4643,1749.34,22.00,21.20,96.67,220.00,5.00,0.00,29.73,M,10.00,M,SCT,BKN,BKN,M,2100.00,4400.00,5000.00,M,M,M,M,M,M,M,M,14.52,KTMT 021055Z AUTO 22005KT 10SM SCT021 BKN044 BKN050 M05/M06 A2973 RMK AO2 T10551060,M
CXP,2025-04-02 10:55,-119.7326,39.1923,1431.00,32.00,26.60,80.22,0.00,0.00,0.00,29.81,M,9.00,M,SCT,BKN,OVC,M,3400.00,4100.00,5000.00,M,UP,M,M,M,M,M,M,32.00,KCXP 021055Z AUTO 00000KT 9SM UP SCT034 BKN041 OVC050 M00/M03 A2981 RMK AO2,M
INS,2025-04-02 10:55,-115.6733,36.5872,955.00,42.80,31.50,64.08,350.00,14.00,T,29.68,1003.00,10.00,23.00,FEW,SCT,OVC,M,2700.00,3600.00,4500.00,M,-DZ,M,M,M,M,M,M,35.08,KINS 021055Z AUTO 35014G23KT 10SM -DZ FEW027 SCT036 OVC045 06/M00 A2968 RMK AO2 RAE0955RAB37E44DZB44 SLP030 P0000 T00601003 $,M
LSV,2025-04-02 10:55,-115.0343,36.2362,570.00,51.00,21.60,31.24,340.00,4.00,0.00,29.57,1000.30,10.00,M,FEW,M,M,M,13000.00,M,M,M,M,M,M,M,M,M,M,51.00,KLSV 021055Z 34004KT 10SM FEW130 11/M06 A2957 RMK AO2A SLP003 T01061058 FZRANO $,M
LAS,2025-04-02 10:56,-115.1634,36.0719,663.00,50.00,25.00,37.39,210.00,5.00,0.00,29.62,1002.00,10.00,M,SCT,SCT,M,M,10000.00,20000.00,M,M,M,M,M,M,M,M,M,50.00,KLAS 021056Z 21005KT 10SM SCT100 SCT200 10/M04 A2962 RMK AO2 SLP020 T01001039,M
EKO,2025-04-02 10:56,-115.7860,40.8242,1367.00,29.00,28.00,95.99,0.00,0.00,T,29.69,1006.40,2.50,M,OVC,M,M,M,2400.00,M,M,M,-SN BR,M,M,M,M,M,M,29.00,KEKO 021056Z AUTO 00000KT 2 1/2SM -SN BR OVC024 M02/M02 A2969 RMK AO2 SNB34 SLP064 P0000 T10171022,M
WMC,2025-04-02 10:56,-117.8072,40.9019,1315.00,32.00,31.00,96.04,320.00,5.00,0.00,29.75,1008.10,10.00,M,BKN,BKN,OVC,M,1300.00,3800.00,6000.00,M,M,M,M,M,M,M,M,26.40,KWMC 021056Z AUTO 32005KT 10SM BKN013 BKN038 OVC060 00/M01 A2975 RMK AO2 SLP081 T00001006 TSNO,M
HND,2025-04-02 10:56,-115.1344,35.9729,742.79,47.00,27.00,45.45,180.00,13.00,0.00,29.64,1004.40,10.00,M,CLR,M,M,M,M,M,M,M,M,M,M,M,M,M,M,40.79,KHND 021056Z AUTO 18013KT 10SM CLR 08/M03 A2964 RMK AO2 SLP044 T00831028 $,M
TPH,2025-04-02 10:56,-117.0904,38.0505,1654.00,30.00,20.00,65.94,M,M,0.00,29.69,1004.50,10.00,M,CLR,M,M,M,M,M,M,M,M,M,M,M,M,M,M,M,KTPH 021056Z AUTO 10SM CLR M01/M07 A2969 RMK AO2 SLP045 T10111067 $,M
NFL,2025-04-02 10:57,-118.7010,39.4166,1199.00,34.00,27.00,75.26,280.00,6.00,0.00,29.77,1006.10,10.00,M,SCT,M,M,M,6000.00,M,M,M,M,M,M,M,M,M,M,27.94,KNFL 021057Z AUTO 28006KT 10SM SCT060 01/M03 A2977 RMK AO2 SLP061 T00111028,M
10U,2025-04-02 11:00,-116.1876,41.9532,1637.00,26.60,26.60,100.00,0.00,0.00,0.00,29.72,M,7.00,M,FEW,BKN,OVC,M,200.00,1000.00,1300.00,M,UP,M,M,M,M,M,M,26.60,K10U 021100Z AUTO 00000KT 7SM UP FEW002 BKN010 OVC013 M03/M03 A2972 RMK AO2,M
MEV,2025-04-02 11:00,-119.7500,38.9963,1441.42,28.40,26.60,92.86,160.00,5.00,0.00,29.80,M,10.00,M,FEW,BKN,OVC,M,4100.00,4900.00,5500.00,M,M,M,M,M,M,M,M,22.12,KMEV 021100Z AUTO 16005KT 10SM FEW041 BKN049 OVC055 M02/M03 A2980 RMK AO2,M
WMC,2025-04-02 11:06,-117.8072,40.9019,1315.00,32.00,30.00,92.22,350.00,7.00,0.00,29.75,M,10.00,M,SCT,BKN,OVC,M,1300.00,3900.00,5500.00,M,M,M,M,M,M,M,M,24.78,KWMC 021106Z AUTO 35007KT 10SM SCT013 BKN039 OVC055 00/M01 A2975 RMK AO2 T00001011 TSNO,M
EKO,2025-04-02 11:14,-115.7860,40.8242,1367.00,29.00,28.00,95.99,0.00,0.00,T,29.69,M,1.50,M,OVC,M,M,M,2200.00,M,M,M,-SN BR,M,M,M,M,M,M,29.00,KEKO 021114Z AUTO 00000KT 1 1/2SM -SN BR OVC022 M02/M02 A2969 RMK AO2 P0000 T10171022,M
BVU,2025-04-02 11:15,-114.8611,35.9475,671.00,46.40,23.00,39.36,60.00,5.00,0.00,29.60,M,10.00,M,CLR,M,M,M,M,M,M,M,M,M,M,M,M,M,M,43.50,KBVU 021115Z AUTO 06005KT 10SM CLR 08/M05 A2960 RMK AO2,M
CXP,2025-04-02 11:15,-119.7326,39.1923,1431.00,32.00,26.60,80.22,0.00,0.00,0.00,29.81,M,10.00,M,SCT,OVC,M,M,2600.00,3500.00,M,M,UP,M,M,M,M,M,M,32.00,KCXP 021115Z AUTO 00000KT 10SM UP SCT026 OVC035 M00/M03 A2981 RMK AO2,M
RTS,2025-04-02 11:15,-119.8764,39.6682,1539.00,30.20,26.60,86.28,280.00,5.00,0.00,29.81,M,10.00,M,FEW,BKN,OVC,M,2100.00,2900.00,5500.00,M,M,M,M,M,M,M,M,24.26,KRTS 021115Z AUTO 28005KT 10SM FEW021 BKN029 OVC055 M01/M03 A2981 RMK AO2,M
BAM,2025-04-02 11:15,-116.8743,40.5990,1382.36,32.00,32.00,100.00,270.00,4.00,0.00,29.74,M,10.00,M,BKN,BKN,OVC,M,3400.00,4200.00,8000.00,M,M,M,M,M,M,M,M,27.42,KBAM 021115Z AUTO 27004KT 10SM BKN034 BKN042 OVC080 00/00 A2974 RMK AO1,M
HTH,2025-04-02 11:15,-118.6315,38.5448,1282.89,35.60,24.80,64.46,180.00,3.00,0.00,29.78,M,10.00,M,OVC,M,M,M,6000.00,M,M,M,M,M,M,M,M,M,M,32.80,KHTH 021115Z AUTO 18003KT 10SM OVC060 02/M04 A2978 RMK A01,M
TMT,2025-04-02 11:15,-117.1971,39.4643,1749.34,23.50,22.50,95.88,210.00,5.00,0.00,29.73,M,10.00,M,BKN,OVC,M,M,2100.00,2600.00,M,M,M,M,M,M,M,M,M,16.30,KTMT 021115Z AUTO 21005KT 10SM BKN021 OVC026 M05/M05 A2973 RMK AO2 T10471053,M
10U,2025-04-02 11:20,-116.1876,41.9532,1637.00,24.80,24.80,100.00,0.00,0.00,0.00,29.72,M,9.00,M,SCT,OVC,M,M,200.00,900.00,M,M,UP,M,M,M,M,M,M,24.80,K10U 021120Z AUTO 00000KT 9SM UP SCT002 OVC009 M04/M04 A2972 RMK AO2,M
RTS,2025-04-02 11:25,-119.8764,39.6682,1539.00,30.20,26.60,86.28,280.00,6.00,0.00,29.81,M,10.00,M,FEW,BKN,OVC,M,2100.00,3000.00,6000.00,M,M,M,M,M,M,M,M,23.36,KRTS 021125Z AUTO 28006KT 10SM FEW021 BKN030 OVC060 M01/M03 A2981 RMK AO2,M
INS,2025-04-02 11:30,-115.6733,36.5872,955.00,42.80,32.00,65.38,340.00,12.00,0.00,29.68,1003.00,10.00,M,FEW,SCT,BKN,OVC,1300.00,1900.00,2700.00,3700.00,-RA,M,M,M,M,M,M,35.75,KINS 021130Z AUTO 34012KT 10SM -RA FEW013 SCT019 BKN027 OVC037 06/M00 A2968 RMK AO2 DZE1059RAB1059 CIG 027V039 SLP030 $,M
BVU,2025-04-02 11:35,-114.8611,35.9475,671.00,44.60,24.80,45.44,60.00,5.00,0.00,29.60,M,10.00,M,CLR,M,M,M,M,M,M,M,M,M,M,M,M,M,M,41.36,KBVU 021135Z AUTO 06005KT 10SM CLR 07/M04 A2960 RMK AO2,M
BAM,2025-04-02 11:35,-116.8743,40.5990,1382.36,32.00,32.00,100.00,280.00,5.00,0.00,29.74,M,7.00,M,SCT,BKN,OVC,M,1500.00,2200.00,8000.00,M,M,M,M,M,M,M,M,26.40,KBAM 021135Z AUTO 28005KT 7SM SCT015 BKN022 OVC080 00/00 A2974 RMK AO1,M
CXP,2025-04-02 11:35,-119.7326,39.1923,1431.00,32.00,26.60,80.22,300.00,4.00,0.00,29.81,M,10.00,M,BKN,OVC,M,M,2500.00,3400.00,M,M,M,M,M,M,M,M,M,27.42,KCXP 021135Z AUTO 30004KT 10SM BKN025 OVC034 M00/M03 A2981 RMK AO2,M
HTH,2025-04-02 11:35,-118.6315,38.5448,1282.89,35.60,24.80,64.46,0.00,0.00,0.00,29.78,M,10.00,M,OVC,M,M,M,6000.00,M,M,M,M,M,M,M,M,M,M,35.60,KHTH 021135Z AUTO 00000KT 10SM OVC060 02/M04 A2978 RMK A01,M
TMT,2025-04-02 11:35,-117.1971,39.4643,1749.34,23.00,21.70,94.67,180.00,4.00,0.00,29.73,M,10.00,M,SCT,BKN,OVC,M,2100.00,3000.00,4500.00,M,M,M,M,M,M,M,M,16.91,KTMT 021135Z AUTO 18004KT 10SM SCT021 BKN030 OVC045 M05/M06 A2973 RMK AO2 T10501057,M
EKO,2025-04-02 11:39,-115.7860,40.8242,1367.00,29.00,29.00,100.00,0.00,0.00,0.02,29.68,M,0.50,M,VV ,M,M,M,1100.00,M,M,M,SN FZFG,M,M,M,M,M,M,29.00,KEKO 021139Z AUTO 00000KT 1/2SM SN FZFG VV011 M02/M02 A2968 RMK AO2 P0002 T10171017,M
10U,2025-04-02 11:40,-116.1876,41.9532,1637.00,24.80,24.80,100.00,320.00,5.00,0.00,29.72,M,10.00,M,FEW,OVC,M,M,200.00,700.00,M,M,M,M,M,M,M,M,M,17.84,K10U 021140Z AUTO 32005KT 10SM FEW002 OVC007 M04/M04 A2972 RMK AO2,M
EKO,2025-04-02 11:48,-115.7860,40.8242,1367.00,29.00,29.00,100.00,0.00,0.00,0.04,29.68,M,0.50,M,VV ,M,M,M,800.00,M,M,M,SN FZFG,M,M,M,M,M,M,29.00,KEKO 021148Z AUTO 00000KT 1/2SM SN FZFG VV008 M02/M02 A2968 RMK AO2 P0004 T10171017,M
P68,2025-04-02 11:53,-116.0056,39.6014,1993.00,27.00,24.00,88.28,0.00,0.00,0.00,29.68,1004.40,M,M,M,M,M,M,M,M,M,M,M,M,M,M,M,M,M,27.00,KP68 021153Z AUTO 00000KT M03/M04 A2968 RMK AO1 SLP044 70005 T10281044 11011 21028 58001,M
DRA,2025-04-02 11:53,-116.0278,36.6206,1009.00,41.00,32.00,70.08,120.00,9.00,T,29.65,1001.80,10.00,M,OVC,M,M,M,6000.00,M,M,M,M,M,M,M,M,M,M,34.70,KDRA 021153Z AUTO 12009KT 10SM OVC060 05/00 A2965 RMK AO2 RAE1058 SLP018 P0000 60000 T00500000 10111 20044 58005,M
ELY,2025-04-02 11:53,-114.8453,39.2950,1909.00,23.00,20.00,88.08,0.00,0.00,0.00,29.66,1004.60,10.00,M,OVC,M,M,M,3900.00,M,M,M,M,M,M,M,M,M,M,23.00,KELY 021153Z AUTO 00000KT 10SM OVC039 M05/M07 A2966 RMK AO2 SLP046 60001 70001 T10501067 11017 21061 56004,M
VGT,2025-04-02 11:53,-115.1933,36.2111,667.00,49.00,31.00,49.65,310.00,25.00,0.00,29.60,1003.30,10.00,37.00,CLR,M,M,M,M,M,M,M,M,M,M,M,38.00,310.00,2025-04-02 11:42,40.83,KVGT 021153Z AUTO 31025G37KT 10SM CLR 09/M01 A2960 RMK AO2 PK WND 31038/1142 SLP033 T00941006 10139 20094 56006,M
LOL,2025-04-02 11:53,-118.5701,40.0684,1192.43,27.00,25.00,92.05,100.00,3.00,0.00,29.76,1008.90,10.00,M,BKN,BKN,M,M,4300.00,5000.00,M,M,M,M,M,M,M,M,M,22.97,KLOL 021153Z AUTO 10003KT 10SM BKN043 BKN050 M03/M04 A2976 RMK AO2 SLP089 60000 70001 T10281039 10017 21028 56001,M
BVU,2025-04-02 11:55,-114.8611,35.9475,671.00,46.40,24.80,42.44,0.00,0.00,0.00,29.61,M,10.00,M,CLR,M,M,M,M,M,M,M,M,M,M,M,M,M,M,46.40,KBVU 021155Z AUTO 00000KT 10SM CLR 08/M04 A2961 RMK AO2,M
RNO,2025-04-02 11:55,-119.7711,39.4839,1341.00,35.00,24.00,63.85,300.00,8.00,0.00,29.80,1008.40,10.00,M,FEW,BKN,M,M,4000.00,6000.00,M,M,M,M,M,M,M,M,M,27.81,KRNO 021155Z 30008KT 10SM FEW040 BKN060 02/M04 A2980 RMK AO2 SLP084 T00171044 10022 20017 50000,M
BAM,2025-04-02 11:55,-116.8743,40.5990,1382.36,32.00,32.00,100.00,270.00,3.00,0.00,29.74,M,1.25,M,BKN,OVC,M,M,600.00,1000.00,M,M,M,M,M,M,M,M,M,28.69,KBAM 021155Z AUTO 27003KT 1 1/4SM BKN006 OVC010 00/00 A2974 RMK AO1,M
CXP,2025-04-02 11:55,-119.7326,39.1923,1431.00,32.00,26.60,80.22,200.00,3.00,0.00,29.81,M,1.00,M,BKN,BKN,OVC,M,300.00,700.00,2600.00,M,-SN HZ,M,M,M,M,M,M,28.69,KCXP 021155Z AUTO 20003KT 1SM -SN HZ BKN003 BKN007 OVC026 M00/M03 A2981 RMK AO2,M
HTH,2025-04-02 11:55,-118.6315,38.5448,1282.89,35.60,24.80,64.46,0.00,0.00,0.00,29.77,M,10.00,M,OVC,M,M,M,6500.00,M,M,M,M,M,M,M,M,M,M,35.60,KHTH 021155Z AUTO 00000KT 10SM OVC065 02/M04 A2977 RMK A01,M
TMT,2025-04-02 11:55,-117.1971,39.4643,1749.34,24.00,23.00,95.89,210.00,5.00,0.00,29.73,M,10.00,M,SCT,OVC,M,M,2500.00,3000.00,M,M,M,M,M,M,M,M,M,16.89,KTMT 021155Z AUTO 21005KT 10SM SCT025 OVC030 M04/M05 A2973 RMK AO2 T10451050 11025 21055,M
INS,2025-04-02 11:55,-115.6733,36.5872,955.00,40.60,33.00,74.10,330.00,11.00,T,29.68,1003.00,10.00,M,SCT,OVC,M,M,1300.00,2400.00,M,M,-RA,M,M,M,M,M,M,33.33,KINS 021155Z AUTO 33011KT 10SM -RA SCT013 OVC024 05/01 A2968 RMK AO2 RAE1055DZB1055E1059RAB1059 OVC V BKN SLP030 P0000 60000 T00480006 10127 20048 52006 $,M
LSV,2025-04-02 11:55,-115.0343,36.2362,570.00,50.40,21.60,31.94,20.00,4.00,0.00,29.58,1000.70,10.00,M,SCT,M,M,M,10000.00,M,M,M,M,M,M,M,M,M,M,50.40,KLSV 021155Z AUTO 02004KT 10SM SCT100 10/M06 A2958 RMK AO2 SLP007 T01021058 10141 20098 55002 FZRANO $,M
EKO,2025-04-02 11:56,-115.7860,40.8242,1367.00,30.00,30.00,100.00,0.00,0.00,0.05,29.68,1006.10,0.75,M,VV ,M,M,M,700.00,M,M,M,-SN BR,M,M,0.01,M,M,M,30.00,KEKO 021156Z AUTO 00000KT 3/4SM -SN BR VV007 M01/M01 A2968 RMK AO2 SLP061 P0005 60005 70033 I6001 T10111011 11011 21044 57003,M
WMC,2025-04-02 11:56,-117.8072,40.9019,1315.00,32.00,30.00,92.22,320.00,6.00,T,29.76,1008.20,9.00,M,SCT,OVC,M,M,3200.00,3900.00,M,M,-SN,M,M,M,M,M,M,25.53,KWMC 021156Z AUTO 32006KT 9SM -SN SCT032 OVC039 00/M01 A2976 RMK AO2 SNB32 SLP082 P0000 60003 70026 T00001011 10006 20000 51003 TSNO,M
HND,2025-04-02 11:56,-115.1344,35.9729,742.79,44.00,27.00,50.93,210.00,13.00,0.00,29.63,1004.40,10.00,M,CLR,M,M,M,M,M,M,M,M,M,M,M,M,M,M,36.94,KHND 021156Z AUTO 21013KT 10SM CLR 07/M03 A2963 RMK AO2 SLP044 7//// T00671028 10117 20067 58003 $,M
TPH,2025-04-02 11:56,-117.0904,38.0505,1654.00,30.00,20.00,65.94,M,M,0.00,29.68,1004.50,10.00,M,CLR,M,M,M,M,M,M,M,M,M,M,M,M,M,M,M,KTPH 021156Z AUTO 10SM CLR M01/M07 A2968 RMK AO2 SLP045 T10111067 10006 21017 56007 $,M
LAS,2025-04-02 11:56,-115.1634,36.0719,663.00,50.00,27.00,40.62,M,M,0.00,29.62,1002.20,10.00,M,FEW,M,M,M,20000.00,M,M,M,M,M,M,M,M,M,M,50.00,KLAS 021156Z COR 10SM FEW200 10/M03 A2962 RMK AO2 SLP022 T01001028 10133 20089 52000,M
NFL,2025-04-02 11:57,-118.7010,39.4166,1199.00,37.00,28.00,69.63,310.00,6.00,0.00,29.77,1006.00,10.00,M,BKN,OVC,M,M,3900.00,4800.00,M,M,M,M,M,M,M,M,M,31.55,KNFL 021157Z AUTO 31006KT 10SM BKN039 OVC048 03/M02 A2977 RMK AO2 SLP060 T00281022 10039 20011 58001,M
10U,2025-04-02 12:00,-116.1876,41.9532,1637.00,26.60,24.80,92.80,330.00,4.00,0.00,29.72,M,10.00,M,OVC,M,M,M,400.00,M,M,M,M,M,M,M,M,M,M,21.11,K10U 021200Z AUTO 33004KT 10SM OVC004 M03/M04 A2972 RMK AO2,M
LAS,2025-04-02 12:03,-115.1634,36.0719,663.00,49.00,29.00,45.77,310.00,16.00,0.00,29.62,M,10.00,22.00,FEW,M,M,M,20000.00,M,M,M,M,M,M,M,M,M,M,42.58,KLAS 021203Z 31016G22KT 10SM FEW200 09/M02 A2962 RMK AO2 T00941017,M
INS,2025-04-02 12:05,-115.6733,36.5872,955.00,41.00,33.80,75.33,320.00,9.00,0.00,29.69,1003.40,10.00,M,BKN,OVC,M,M,1200.00,2200.00,M,M,-RA,M,M,M,M,M,M,34.70,KINS 021205Z AUTO 32009KT 10SM -RA BKN012 OVC022 05/01 A2969 RMK AO2 RAE1157DZB1157E04RAB04 CIG 012V024 SLP034 $,M
EKO,2025-04-02 12:10,-115.7860,40.8242,1367.00,30.00,30.00,100.00,0.00,0.00,0.01,29.68,M,1.00,M,VV ,M,M,M,1000.00,M,M,M,-SN BR,M,M,M,M,M,M,30.00,KEKO 021210Z AUTO 00000KT 1SM -SN BR VV010 M01/M01 A2968 RMK AO2 P0001 T10111011,M
BAM,2025-04-02 12:15,-116.8743,40.5990,1382.36,32.00,32.00,100.00,0.00,0.00,0.00,29.74,M,1.50,M,BKN,OVC,M,M,600.00,1100.00,M,M,M,M,M,M,M,M,M,32.00,KBAM 021215Z AUTO 00000KT 1 1/2SM BKN006 OVC011 00/00 A2974 RMK AO1,M
CXP,2025-04-02 12:15,-119.7326,39.1923,1431.00,30.20,28.40,92.92,0.00,0.00,0.00,29.82,M,2.00,M,SCT,BKN,OVC,M,300.00,1900.00,2700.00,M,-SN BR,M,M,M,M,M,M,30.20,KCXP 021215Z AUTO 00000KT 2SM -SN BR SCT003 BKN019 OVC027 M01/M02 A2982 RMK AO2 VIS 1 1/4V5,M
HTH,2025-04-02 12:15,-118.6315,38.5448,1282.89,35.60,24.80,64.46,0.00,0.00,0.00,29.78,M,10.00,M,FEW,OVC,M,M,5000.00,6500.00,M,M,M,M,M,M,M,M,M,35.60,KHTH 021215Z AUTO 00000KT 10SM FEW050 OVC065 02/M04 A2978 RMK A01,M
TMT,2025-04-02 12:15,-117.1971,39.4643,1749.34,24.40,23.40,95.90,250.00,3.00,0.00,29.73,M,10.00,M,BKN,OVC,M,M,3000.00,4900.00,M,M,M,M,M,M,M,M,M,20.00,KTMT 021215Z AUTO 25003KT 10SM BKN030 OVC049 M04/M05 A2973 RMK AO2 T10421048,M
BVU,2025-04-02 12:15,-114.8611,35.9475,671.00,46.40,24.80,42.44,50.00,4.00,0.00,29.61,M,10.00,M,SCT,M,M,M,11000.00,M,M,M,M,M,M,M,M,M,M,44.24,KBVU 021215Z AUTO 05004KT 10SM SCT110 08/M04 A2961 RMK AO2,M
INS,2025-04-02 12:20,-115.6733,36.5872,955.00,41.00,33.80,75.33,310.00,6.00,0.00,29.70,1003.90,10.00,M,BKN,BKN,BKN,OVC,1300.00,2000.00,2500.00,4700.00,-DZ,M,M,M,M,M,M,36.37,KINS 021220Z AUTO 31006KT 10SM -DZ BKN013 BKN020 BKN025 OVC047 05/01 A2970 RMK AO2 RAE1157DZB1157E04RAB04E12DZB12 CIG 012V021 SLP039 $,M
10U,2025-04-02 12:20,-116.1876,41.9532,1637.00,26.60,26.60,100.00,320.00,5.00,0.00,29.73,M,10.00,M,OVC,M,M,M,400.00,M,M,M,M,M,M,M,M,M,M,19.98,K10U 021220Z AUTO 32005KT 10SM OVC004 M03/M03 A2973 RMK AO2,M
INS,2025-04-02 12:25,-115.6733,36.5872,955.00,41.00,33.80,75.33,310.00,6.00,0.00,29.70,1003.90,10.00,M,BKN,OVC,M,M,1600.00,2400.00,M,M,-DZ,M,M,M,M,M,M,36.37,KINS 021225Z AUTO 31006KT 10SM -DZ BKN016 OVC024 05/01 A2970 RMK AO2 RAE1157DZB1157E04RAB04E12DZB12 CIG 013V021 SLP039 $,M
LSV,2025-04-02 12:29,-115.0343,36.2362,570.00,50.00,28.40,43.03,320.00,15.00,0.00,29.58,1000.70,10.00,25.00,SCT,BKN,M,M,10000.00,20000.00,M,M,M,M,M,M,M,M,M,50.00,KLSV 021229Z 32015G25KT 10SM SCT100 BKN200 10/M02 A2958 RMK SLP007 FZRANO $,M
EKO,2025-04-02 12:34,-115.7860,40.8242,1367.00,30.00,30.00,100.00,20.00,3.00,0.03,29.69,M,1.00,M,SCT,OVC,M,M,600.00,1100.00,M,M,-SN BR,M,M,M,M,M,M,26.40,KEKO 021234Z AUTO 02003KT 1SM -SN BR SCT006 OVC011 M01/M01 A2969 RMK AO2 P0003 T10111011,M
BVU,2025-04-02 12:35,-114.8611,35.9475,671.00,46.40,24.80,42.44,0.00,0.00,0.00,29.61,M,10.00,M,OVC,M,M,M,10000.00,M,M,M,M,M,M,M,M,M,M,46.40,KBVU 021235Z AUTO 00000KT 10SM OVC100 08/M04 A2961 RMK AO2,M
BAM,2025-04-02 12:35,-116.8743,40.5990,1382.36,32.00,32.00,100.00,0.00,0.00,0.00,29.75,M,2.50,M,BKN,OVC,M,M,500.00,1100.00,M,M,M,M,M,M,M,M,M,32.00,KBAM 021235Z AUTO 00000KT 2 1/2SM BKN005 OVC011 00/00 A2975 RMK AO1,M
CXP,2025-04-02 12:35,-119.7326,39.1923,1431.00,30.20,28.40,92.92,0.00,0.00,0.00,29.82,M,7.00,M,BKN,BKN,OVC,M,2000.00,2700.00,3900.00,M,-SN,M,M,M,M,M,M,30.20,KCXP 021235Z AUTO 00000KT 7SM -SN BKN020 BKN027 OVC039 M01/M02 A2982 RMK AO2,M
HTH,2025-04-02 12:35,-118.6315,38.5448,1282.89,37.40,23.00,55.68,0.00,0.00,0.00,29.78,M,10.00,M,FEW,SCT,OVC,M,3900.00,4900.00,6500.00,M,M,M,M,M,M,M,M,37.40,KHTH 021235Z AUTO 00000KT 10SM FEW039 SCT049 OVC065 03/M05 A2978 RMK A01,M
TMT,2025-04-02 12:35,-117.1971,39.4643,1749.34,24.40,23.40,95.90,250.00,3.00,0.00,29.73,M,10.00,M,SCT,BKN,OVC,M,2400.00,3200.00,4000.00,M,-SN,M,M,M,M,M,M,20.00,KTMT 021235Z AUTO 25003KT 10SM -SN SCT024 BKN032 OVC040 M04/M05 A2973 RMK AO2 T10421048,M
WMC,2025-04-02 12:36,-117.8072,40.9019,1315.00,31.00,30.00,96.02,330.00,6.00,T,29.76,M,10.00,M,SCT,BKN,OVC,M,400.00,3300.00,4700.00,M,M,M,M,M,M,M,M,24.33,KWMC 021236Z AUTO 33006KT 10SM SCT004 BKN033 OVC047 M01/M01 A2976 RMK AO2 SNE1158 P0000 T10061011 TSNO,M
10U,2025-04-02 12:40,-116.1876,41.9532,1637.00,26.60,26.60,100.00,330.00,4.00,0.00,29.73,M,9.00,M,OVC,M,M,M,400.00,M,M,M,M,M,M,M,M,M,M,21.11,K10U 021240Z AUTO 33004KT 9SM OVC004 M03/M03 A2973 RMK AO2,M
EKO,2025-04-02 12:43,-115.7860,40.8242,1367.00,30.00,30.00,100.00,0.00,0.00,0.04,29.69,M,0.75,M,BKN,OVC,M,M,700.00,1300.00,M,M,-SN BR,M,M,M,M,M,M,30.00,KEKO 021243Z AUTO 00000KT 3/4SM -SN BR BKN007 OVC013 M01/M01 A2969 RMK AO2 P0004 T10111011,M
INS,2025-04-02 12:45,-115.6733,36.5872,955.00,39.20,33.80,80.79,260.00,5.00,0.00,29.70,1003.90,10.00,M,SCT,BKN,OVC,M,600.00,1100.00,1800.00,M,-RA,M,M,M,M,M,M,34.95,KINS 021245Z AUTO 26005KT 10SM -RA SCT006 BKN011 OVC018 04/01 A2970 RMK AO2 DZE1155RAB1155E1157DZB1157E04RAB04E12DZB12E31RAB31 CIG 011V018 BKN V SCT SLP039 $,M
INS,2025-04-02 12:50,-115.6733,36.5872,955.00,39.20,33.80,80.79,220.00,6.00,0.00,29.70,1003.90,10.00,M,BKN,BKN,OVC,M,600.00,1100.00,1800.00,M,-RA,M,M,M,M,M,M,34.20,KINS 021250Z AUTO 22006KT 10SM -RA BKN006 BKN011 OVC018 04/01 A2970 RMK AO2 DZE1155RAB1155E1157DZB1157E04RAB04E12DZB12E31RAB31 CIG 006V018 BKN006 V SCT SLP039 $,M
EKO,2025-04-02 12:50,-115.7860,40.8242,1367.00,30.20,30.20,100.00,0.00,0.00,0.05,29.69,M,1.00,M,FEW,OVC,M,M,500.00,1200.00,M,M,-SN BR,M,M,M,M,M,M,30.20,KEKO 021250Z AUTO 00000KT 1SM -SN BR FEW005 OVC012 M01/M01 A2969 RMK AO2 P0005,M
P68,2025-04-02 12:53,-116.0056,39.6014,1993.00,26.00,25.00,95.93,0.00,0.00,0.00,29.68,1004.60,M,M,M,M,M,M,M,M,M,M,M,M,M,M,M,M,M,26.00,KP68 021253Z AUTO 00000KT M03/M04 A2968 RMK AO1 SLP046 T10331039,M
DRA,2025-04-02 12:53,-116.0278,36.6206,1009.00,39.00,32.00,75.75,120.00,15.00,0.00,29.66,1002.60,10.00,M,OVC,M,M,M,8000.00,M,M,M,M,M,M,M,M,M,M,29.85,KDRA 021253Z AUTO 12015KT 10SM OVC080 04/00 A2966 RMK AO2 SLP026 T00390000,M
ELY,2025-04-02 12:53,-114.8453,39.2950,1909.00,25.00,21.00,84.53,20.00,5.00,0.00,29.65,1004.30,10.00,M,OVC,M,M,M,4300.00,M,M,M,M,M,M,M,M,M,M,18.08,KELY 021253Z AUTO 02005KT 10SM OVC043 M04/M06 A2965 RMK AO2 SLP043 T10391061 $,M
VGT,2025-04-02 12:53,-115.1933,36.2111,667.00,48.00,32.00,53.67,330.00,22.00,0.00,29.61,1003.90,10.00,35.00,OVC,M,M,M,11000.00,M,M,M,M,M,M,M,35.00,310.00,2025-04-02 12:49,40.00,KVGT 021253Z 33022G35KT 10SM OVC110 09/00 A2961 RMK AO2 PK WND 31035/1249 SLP039 T00890000,M
LOL,2025-04-02 12:53,-118.5701,40.0684,1192.43,32.00,28.00,84.98,40.00,3.00,0.00,29.77,1008.80,10.00,M,OVC,M,M,M,4200.00,M,M,M,M,M,M,M,M,M,M,28.69,KLOL 021253Z AUTO 04003KT 10SM OVC042 00/M02 A2977 RMK AO2 SLP088 T00001022,M
BVU,2025-04-02 12:55,-114.8611,35.9475,671.00,48.20,28.40,46.02,300.00,12.00,0.00,29.61,M,10.00,M,OVC,M,M,M,9500.00,M,M,M,M,M,M,M,M,M,M,42.62,KBVU 021255Z AUTO 30012KT 10SM OVC095 09/M02 A2961 RMK AO2,M
RNO,2025-04-02 12:55,-119.7711,39.4839,1341.00,35.00,24.00,63.85,330.00,9.00,0.00,29.80,1008.90,10.00,M,FEW,BKN,BKN,M,4000.00,6000.00,7500.00,M,M,M,M,M,M,M,M,27.24,KRNO 021255Z 33009KT 10SM FEW040 BKN060 BKN075 02/M04 A2980 RMK AO2 SLP089 T00171044,M
BAM,2025-04-02 12:55,-116.8743,40.5990,1382.36,32.00,32.00,100.00,330.00,3.00,0.00,29.75,M,2.00,M,OVC,M,M,M,500.00,M,M,M,M,M,M,M,M,M,M,28.69,KBAM 021255Z AUTO 33003KT 2SM OVC005 00/00 A2975 RMK AO1,M
CXP,2025-04-02 12:55,-119.7326,39.1923,1431.00,30.20,28.40,92.92,M,3.00,0.00,29.82,M,3.00,M,FEW,BKN,OVC,M,700.00,1900.00,3700.00,M,-SN BR,M,M,M,M,M,M,26.63,KCXP 021255Z AUTO VRB03KT 3SM -SN BR FEW007 BKN019 OVC037 M01/M02 A2982 RMK AO2,M
RTS,2025-04-02 12:55,-119.8764,39.6682,1539.00,30.20,23.00,74.26,0.00,0.00,0.00,29.81,M,10.00,M,BKN,OVC,M,M,3700.00,5500.00,M,M,M,M,M,M,M,M,M,30.20,KRTS 021255Z AUTO 00000KT 10SM BKN037 OVC055 M01/M05 A2981 RMK AO2,M
HTH,2025-04-02 12:55,-118.6315,38.5448,1282.89,37.40,23.00,55.68,0.00,0.00,0.00,29.78,M,10.00,M,FEW,SCT,BKN,M,3800.00,5000.00,5500.00,M,M,M,M,M,M,M,M,37.40,KHTH 021255Z AUTO 00000KT 10SM FEW038 SCT050 BKN055 03/M05 A2978 RMK A01,M
TMT,2025-04-02 12:55,-117.1971,39.4643,1749.34,23.50,22.00,93.88,0.00,0.00,0.00,29.73,M,7.00,M,SCT,SCT,OVC,M,2400.00,2900.00,3500.00,M,-SN,M,M,M,M,M,M,23.50,KTMT 021255Z AUTO 00000KT 7SM -SN SCT024 SCT029 OVC035 M05/M05 A2973 RMK AO2 T10471055,M
INS,2025-04-02 12:55,-115.6733,36.5872,955.00,38.50,33.00,80.41,200.00,12.00,0.01,29.70,1003.90,10.00,M,BKN,BKN,OVC,M,600.00,1100.00,1800.00,M,-RA,M,M,M,M,M,M,30.27,KINS 021255Z AUTO 20012KT 10SM -RA BKN006 BKN011 OVC018 04/01 A2970 RMK AO2 RAE1157DZB1157E04RAB04E12DZB12E31RAB31 CIG 006V011 BKN006 V SCT SLP039 P0001 T00360006 $,M
LSV,2025-04-02 12:55,-115.0343,36.2362,570.00,50.40,28.20,42.04,320.00,14.00,0.00,29.59,1001.10,10.00,M,SCT,M,M,M,10000.00,M,M,M,M,M,M,M,M,M,M,50.40,KLSV 021255Z 32014KT 10SM SCT100 10/M02 A2959 RMK AO2A SLP011 T01021021 FZRANO $,M
EKO,2025-04-02 12:56,-115.7860,40.8242,1367.00,30.00,30.00,100.00,0.00,0.00,0.05,29.69,1006.50,1.50,M,FEW,OVC,M,M,500.00,2000.00,M,M,-SN BR,M,M,M,M,M,M,30.00,KEKO 021256Z AUTO 00000KT 1 1/2SM -SN BR FEW005 OVC020 M01/M01 A2969 RMK AO2 SLP065 P0005 T10111011,M
WMC,2025-04-02 12:56,-117.8072,40.9019,1315.00,31.00,30.00,96.02,330.00,9.00,T,29.76,1008.40,10.00,M,FEW,SCT,OVC,M,600.00,2600.00,4000.00,M,M,M,M,M,M,M,M,22.27,KWMC 021256Z AUTO 33009KT 10SM FEW006 SCT026 OVC040 M01/M01 A2976 RMK AO2 SNE1158 SLP084 P0000 T10061011 TSNO,M
HND,2025-04-02 12:56,-115.1344,35.9729,742.79,44.00,27.00,50.93,190.00,4.00,0.00,29.65,1005.20,10.00,M,BKN,M,M,M,11000.00,M,M,M,M,M,M,M,M,M,M,41.43,KHND 021256Z AUTO 19004KT 10SM BKN110 07/M03 A2965 RMK AO2 SLP052 T00671028 $,M
TPH,2025-04-02 12:56,-117.0904,38.0505,1654.00,30.00,21.00,68.81,340.00,13.00,0.00,29.69,1005.10,10.00,M,CLR,M,M,M,M,M,M,M,M,M,M,M,M,M,M,19.01,KTPH 021256Z AUTO 34013KT 10SM CLR M01/M06 A2969 RMK AO2 SLP051 T10111061 $,M
LAS,2025-04-02 12:56,-115.1634,36.0719,663.00,48.00,30.00,49.49,320.00,15.00,0.00,29.63,1002.50,10.00,30.00,SCT,BKN,M,M,11000.00,20000.00,M,M,M,M,M,M,30.00,350.00,2025-04-02 12:52,41.52,KLAS 021256Z 32015G30KT 10SM SCT110 BKN200 09/M01 A2963 RMK AO2 PK WND 35030/1252 SLP025 T00891011,M
NFL,2025-04-02 12:57,-118.7010,39.4166,1199.00,36.00,27.00,69.51,300.00,4.00,0.00,29.78,1006.20,10.00,M,BKN,OVC,M,M,5500.00,8000.00,M,M,M,M,M,M,M,M,M,32.09,KNFL 021257Z AUTO 30004KT 10SM BKN055 OVC080 02/M03 A2978 RMK AO2 SLP062 T00221028,M
10U,2025-04-02 13:00,-116.1876,41.9532,1637.00,26.60,24.80,92.80,0.00,0.00,0.00,29.74,M,10.00,M,OVC,M,M,M,400.00,M,M,M,M,M,M,M,M,M,M,26.60,K10U 021300Z AUTO 00000KT 10SM OVC004 M03/M04 A2974 RMK AO2,M
EKO,2025-04-02 13:01,-115.7860,40.8242,1367.00,29.00,29.00,100.00,0.00,0.00,T,29.69,M,3.00,M,OVC,M,M,M,2800.00,M,M,M,-SN BR,M,M,M,M,M,M,29.00,KEKO 021301Z AUTO 00000KT 3SM -SN BR OVC028 M02/M02 A2969 RMK AO2 P0000 T10171017,M
INS,2025-04-02 13:05,-115.6733,36.5872,955.00,37.40,33.80,86.69,180.00,9.00,0.00,29.69,1003.80,10.00,M,SCT,M,M,M,600.00,M,M,M,-RA,M,M,M,M,M,M,30.23,KINS 021305Z AUTO 18009KT 10SM -RA SCT006 03/01 A2969 RMK AO2 SLP038 $,M
RTS,2025-04-02 13:05,-119.8764,39.6682,1539.00,30.20,24.80,80.07,M,3.00,0.00,29.81,M,10.00,M,SCT,BKN,OVC,M,3700.00,6000.00,6500.00,M,M,M,M,M,M,M,M,26.63,KRTS 021305Z AUTO VRB03KT 10SM SCT037 BKN060 OVC065 M01/M04 A2981 RMK AO2,M
WMC,2025-04-02 13:06,-117.8072,40.9019,1315.00,31.00,30.00,96.02,340.00,5.00,0.00,29.76,M,10.00,M,SCT,BKN,OVC,M,500.00,2600.00,4000.00,M,M,M,M,M,M,M,M,25.21,KWMC 021306Z AUTO 34005KT 10SM SCT005 BKN026 OVC040 M01/M01 A2976 RMK AO2 T10061011 TSNO,M
EKO,2025-04-02 13:09,-115.7860,40.8242,1367.00,29.00,29.00,100.00,0.00,0.00,T,29.69,M,8.00,M,OVC,M,M,M,3700.00,M,M,M,-SN,M,M,M,M,M,M,29.00,KEKO 021309Z AUTO 00000KT 8SM -SN OVC037 M02/M02 A2969 RMK AO2 P0000 T10171017,M
WMC,2025-04-02 13:14,-117.8072,40.9019,1315.00,31.00,30.00,96.02,330.00,4.00,0.00,29.77,M,10.00,M,BKN,BKN,OVC,M,500.00,2600.00,4000.00,M,M,M,M,M,M,M,M,26.25,KWMC 021314Z AUTO 33004KT 10SM BKN005 BKN026 OVC040 M01/M01 A2977 RMK AO2 T10061011 TSNO,M
BVU,2025-04-02 13:15,-114.8611,35.9475,671.00,48.20,28.40,46.02,320.00,19.00,0.00,29.61,M,10.00,M,BKN,OVC,M,M,7500.00,9000.00,M,M,M,M,M,M,M,M,M,40.86,KBVU 021315Z AUTO 32019KT 10SM BKN075 OVC090 09/M02 A2961 RMK AO2,M
BAM,2025-04-02 13:15,-116.8743,40.5990,1382.36,32.00,32.00,100.00,340.00,7.00,0.00,29.75,M,2.50,M,BKN,OVC,M,M,700.00,1400.00,M,M,M,M,M,M,M,M,M,24.78,KBAM 021315Z AUTO 34007KT 2 1/2SM BKN007 OVC014 00/00 A2975 RMK AO1,M
CXP,2025-04-02 13:15,-119.7326,39.1923,1431.00,30.20,28.40,92.92,210.00,4.00,0.00,29.82,M,7.00,M,FEW,SCT,BKN,M,600.00,1700.00,3700.00,M,-SN,M,M,M,M,M,M,25.32,KCXP 021315Z AUTO 21004KT 7SM -SN FEW006 SCT017 BKN037 M01/M02 A2982 RMK AO2,M
INS,2025-04-02 13:15,-115.6733,36.5872,955.00,39.20,33.80,80.79,180.00,11.00,0.00,29.69,1003.60,10.00,M,FEW,BKN,OVC,M,600.00,2300.00,4200.00,M,-DZ,M,M,M,M,M,M,31.57,KINS 021315Z AUTO 18011KT 10SM -DZ FEW006 BKN023 OVC042 04/01 A2969 RMK AO2 RAE10DZB10 CIG 023V040 BKN V SCT SLP036 $,M
HTH,2025-04-02 13:15,-118.6315,38.5448,1282.89,35.60,24.80,64.46,20.00,8.00,0.00,29.78,M,10.00,M,FEW,BKN,OVC,M,2900.00,5000.00,7000.00,M,M,M,M,M,M,M,M,28.55,KHTH 021315Z AUTO 02008KT 10SM FEW029 BKN050 OVC070 02/M04 A2978 RMK A01,M
TMT,2025-04-02 13:15,-117.1971,39.4643,1749.34,24.40,23.00,94.30,220.00,3.00,0.00,29.73,M,10.00,M,SCT,SCT,OVC,M,2400.00,3200.00,3900.00,M,-SN,M,M,M,M,M,M,20.00,KTMT 021315Z AUTO 22003KT 10SM -SN SCT024 SCT032 OVC039 M04/M05 A2973 RMK AO2 T10421050,M
INS,2025-04-02 13:16,-115.6733,36.5872,955.00,39.20,33.80,80.79,180.00,10.00,0.00,29.69,1003.60,10.00,M,FEW,BKN,OVC,M,600.00,2300.00,4200.00,M,M,M,M,M,M,M,M,32.00,KINS 021316Z AUTO 18010KT 10SM FEW006 BKN023 OVC042 04/01 A2969 RMK AO2 RAE10DZB10E15 CIG 023V040 BKN V SCT SLP036 $,M
10U,2025-04-02 13:20,-116.1876,41.9532,1637.00,24.80,24.80,100.00,0.00,0.00,0.00,29.74,M,10.00,M,OVC,M,M,M,500.00,M,M,M,M,M,M,M,M,M,M,24.80,K10U 021320Z AUTO 00000KT 10SM OVC005 M04/M04 A2974 RMK AO2,M
INS,2025-04-02 13:21,-115.6733,36.5872,955.00,39.20,33.80,80.79,180.00,10.00,0.00,29.69,1003.60,10.00,M,FEW,SCT,OVC,M,600.00,2300.00,4200.00,M,M,M,M,M,M,M,M,32.00,KINS 021321Z AUTO 18010KT 10SM FEW006 SCT023 OVC042 04/01 A2969 RMK AO2 RAE10DZB10E15 SLP036 $,M
EKO,2025-04-02 13:26,-115.7860,40.8242,1367.00,29.00,28.00,95.99,0.00,0.00,T,29.70,M,8.00,M,SCT,BKN,BKN,M,300.00,4900.00,10000.00,M,M,M,M,M,M,M,M,29.00,KEKO 021326Z AUTO 00000KT 8SM SCT003 BKN049 BKN100 M02/M02 A2970 RMK AO2 SNE11 P0000 T10171022,M
EKO,2025-04-02 13:31,-115.7860,40.8242,1367.00,28.00,28.00,100.00,0.00,0.00,T,29.70,M,2.00,M,BKN,BKN,BKN,M,300.00,4900.00,10000.00,M,BR,M,M,M,M,M,M,28.00,KEKO 021331Z AUTO 00000KT 2SM BR BKN003 BKN049 BKN100 M02/M02 A2970 RMK AO2 SNE11 P0000 T10221022,M
BVU,2025-04-02 13:35,-114.8611,35.9475,671.00,48.20,28.40,46.02,330.00,17.00,0.00,29.62,M,10.00,23.00,BKN,OVC,M,M,7500.00,9000.00,M,M,M,M,M,M,M,M,M,41.30,KBVU 021335Z AUTO 33017G23KT 10SM BKN075 OVC090 09/M02 A2962 RMK AO2,M
BAM,2025-04-02 13:35,-116.8743,40.5990,1382.36,32.00,32.00,100.00,10.00,3.00,0.00,29.76,M,10.00,M,SCT,BKN,OVC,M,700.00,1400.00,3300.00,M,M,M,M,M,M,M,M,28.69,KBAM 021335Z AUTO 01003KT 10SM SCT007 BKN014 OVC033 00/00 A2976 RMK AO1,M
CXP,2025-04-02 13:35,-119.7326,39.1923,1431.00,30.20,28.40,92.92,200.00,5.00,0.00,29.82,M,10.00,M,FEW,SCT,BKN,M,500.00,1700.00,2700.00,M,M,M,M,M,M,M,M,24.26,KCXP 021335Z AUTO 20005KT 10SM FEW005 SCT017 BKN027 M01/M02 A2982 RMK AO2,M
HTH,2025-04-02 13:35,-118.6315,38.5448,1282.89,35.60,24.80,64.46,30.00,5.00,0.00,29.79,M,10.00,M,FEW,SCT,BKN,M,3900.00,4500.00,5500.00,M,M,M,M,M,M,M,M,30.67,KHTH 021335Z AUTO 03005KT 10SM FEW039 SCT045 BKN055 02/M04 A2979 RMK A01,M
TMT,2025-04-02 13:35,-117.1971,39.4643,1749.34,24.80,23.50,94.71,200.00,3.00,0.00,29.73,M,10.00,M,BKN,BKN,OVC,M,2200.00,3700.00,4300.00,M,M,M,M,M,M,M,M,20.46,KTMT 021335Z AUTO 20003KT 10SM BKN022 BKN037 OVC043 M04/M05 A2973 RMK AO2 T10401047,M
EKO,2025-04-02 13:37,-115.7860,40.8242,1367.00,27.00,27.00,100.00,260.00,3.00,T,29.70,M,0.75,M,BKN,BKN,BKN,M,300.00,9000.00,11000.00,M,BR,M,M,M,M,M,M,22.97,KEKO 021337Z AUTO 26003KT 3/4SM BR BKN003 BKN090 BKN110 M03/M03 A2970 RMK AO2 VIS M1/4V5 SNE11 P0000 T10281028,M
NFL,2025-04-02 13:38,-118.7010,39.4166,1199.00,37.00,27.00,66.82,280.00,7.00,0.00,29.78,M,10.00,M,FEW,SCT,BKN,BKN,3000.00,4500.00,8000.00,13000.00,M,M,M,M,M,M,M,30.87,KNFL 021338Z 28007KT 10SM FEW030 SCT045 BKN080 BKN130 03/M03 A2978 RMK AO2 T00281028,M
10U,2025-04-02 13:40,-116.1876,41.9532,1637.00,26.60,24.80,92.80,0.00,0.00,0.00,29.75,M,10.00,M,OVC,M,M,M,500.00,M,M,M,M,M,M,M,M,M,M,26.60,K10U 021340Z AUTO 00000KT 10SM OVC005 M03/M04 A2975 RMK AO2,M
EKO,2025-04-02 13:46,-115.7860,40.8242,1367.00,26.00,26.00,100.00,260.00,3.00,T,29.70,M,0.25,M,BKN,M,M,M,300.00,M,M,M,FZFG,M,M,M,M,M,M,21.83,KEKO 021346Z AUTO 26003KT 1/4SM FZFG BKN003 M03/M03 A2970 RMK AO2 SNE11 P0000 T10331033,M
INS,2025-04-02 13:48,-115.6733,36.5872,955.00,39.20,33.80,80.79,180.00,12.00,0.00,29.69,1003.80,10.00,M,FEW,BKN,OVC,M,2500.00,3900.00,4600.00,M,-DZ,M,M,M,M,M,M,31.17,KINS 021348Z AUTO 18012KT 10SM -DZ FEW025 BKN039 OVC046 04/01 A2969 RMK AO2 RAB1255E10DZB10E15DZB48 SLP038 $,M
P68,2025-04-02 13:53,-116.0056,39.6014,1993.00,26.00,25.00,95.93,0.00,0.00,0.01,29.70,1006.10,M,M,M,M,M,M,M,M,M,M,M,M,M,M,M,M,M,26.00,KP68 021353Z AUTO 00000KT M03/M04 A2970 RMK AO1 SLP061 P0001 T10331039,M
DRA,2025-04-02 13:53,-116.0278,36.6206,1009.00,40.00,31.00,69.97,120.00,16.00,0.00,29.67,1002.80,10.00,24.00,OVC,M,M,M,9500.00,M,M,M,M,M,M,M,M,M,M,30.85,KDRA 021353Z AUTO 12016G24KT 10SM OVC095 04/M01 A2967 RMK AO2 SLP028 T00441006,M
ELY,2025-04-02 13:53,-114.8453,39.2950,1909.00,26.00,21.00,81.09,320.00,5.00,0.00,29.66,1004.80,10.00,M,OVC,M,M,M,4500.00,M,M,M,M,M,M,M,M,M,M,19.27,KELY 021353Z AUTO 32005KT 10SM OVC045 M03/M06 A2966 RMK AO2 SLP048 T10331061 $,M
VGT,2025-04-02 13:53,-115.1933,36.2111,667.00,48.00,32.00,53.67,310.00,24.00,0.00,29.64,1004.90,10.00,34.00,OVC,M,M,M,8500.00,M,M,M,M,M,M,M,34.00,320.00,2025-04-02 13:49,39.64,KVGT 021353Z 31024G34KT 10SM OVC085 09/00 A2964 RMK AO2 PK WND 32034/1349 SLP049 T00890000,M
LOL,2025-04-02 13:53,-118.5701,40.0684,1192.43,33.00,28.00,81.63,70.00,3.00,0.00,29.78,1009.60,10.00,M,BKN,BKN,M,M,4300.00,6000.00,M,M,M,M,M,M,M,M,M,29.83,KLOL 021353Z AUTO 07003KT 10SM BKN043 BKN060 01/M02 A2978 RMK AO2 SLP096 T00061022,M
BVU,2025-04-02 13:55,-114.8611,35.9475,671.00,48.20,28.40,46.02,330.00,16.00,0.00,29.62,M,10.00,23.00,SCT,M,M,M,8500.00,M,M,M,M,M,M,M,M,M,M,41.53,KBVU 021355Z AUTO 33016G23KT 10SM SCT085 09/M02 A2962 RMK AO2,M
RNO,2025-04-02 13:55,-119.7711,39.4839,1341.00,34.00,25.00,69.28,330.00,7.00,0.00,29.81,1009.70,10.00,M,SCT,BKN,BKN,M,4500.00,6000.00,18000.00,M,M,M,M,M,M,M,M,27.22,KRNO 021355Z 33007KT 10SM SCT045 BKN060 BKN180 01/M04 A2981 RMK AO2 SLP097 T00111039,M
BAM,2025-04-02 13:55,-116.8743,40.5990,1382.36,32.00,32.00,100.00,360.00,4.00,0.00,29.76,M,10.00,M,OVC,M,M,M,1400.00,M,M,M,M,M,M,M,M,M,M,27.42,KBAM 021355Z AUTO 36004KT 10SM OVC014 00/00 A2976 RMK AO1,M
CXP,2025-04-02 13:55,-119.7326,39.1923,1431.00,30.20,28.40,92.92,220.00,3.00,0.00,29.83,M,10.00,M,FEW,SCT,BKN,M,700.00,1500.00,2500.00,M,M,M,M,M,M,M,M,26.63,KCXP 021355Z AUTO 22003KT 10SM FEW007 SCT015 BKN025 M01/M02 A2983 RMK AO2,M
INS,2025-04-02 13:55,-115.6733,36.5872,955.00,39.70,32.70,75.81,160.00,10.00,T,29.69,1003.60,10.00,M,FEW,BKN,OVC,M,2400.00,4100.00,4800.00,M,-DZ,M,M,M,M,M,M,32.62,KINS 021355Z AUTO 16010KT 10SM -DZ FEW024 BKN041 OVC048 04/00 A2969 RMK AO2 RAB1255E10DZB10E15DZB48 SLP036 P0000 T00430004 $,M
MEV,2025-04-02 13:55,-119.7500,38.9963,1441.42,28.40,26.60,92.86,0.00,0.00,0.00,29.82,M,10.00,M,BKN,BKN,OVC,M,3700.00,4300.00,6000.00,M,M,M,M,M,M,M,M,28.40,KMEV 021355Z AUTO 00000KT 10SM BKN037 BKN043 OVC060 M02/M03 A2982 RMK AO2,M
HTH,2025-04-02 13:55,-118.6315,38.5448,1282.89,37.40,23.00,55.68,20.00,8.00,0.00,29.79,M,10.00,M,BKN,BKN,OVC,M,4100.00,5500.00,7000.00,M,M,M,M,M,M,M,M,30.76,KHTH 021355Z AUTO 02008KT 10SM BKN041 BKN055 OVC070 03/M05 A2979 RMK A01,M
TMT,2025-04-02 13:55,-117.1971,39.4643,1749.34,25.30,24.00,94.72,210.00,5.00,0.00,29.74,M,10.00,M,SCT,OVC,M,M,2000.00,3100.00,M,M,-SN,M,M,M,M,M,M,18.44,KTMT 021355Z AUTO 21005KT 10SM -SN SCT020 OVC031 M04/M04 A2974 RMK AO2 T10371045,M
LSV,2025-04-02 13:55,-115.0343,36.2362,570.00,48.20,32.40,54.13,300.00,23.00,0.00,29.61,1001.90,10.00,29.00,SCT,BKN,M,M,10000.00,20000.00,M,M,M,M,M,M,29.00,320.00,2025-04-02 13:52,40.09,KLSV 021355Z 30023G29KT 10SM SCT100 BKN200 09/00 A2961 RMK AO2A PK WND 32029/52 SLP019 T00900002 FZRANO $,M
EKO,2025-04-02 13:56,-115.7860,40.8242,1367.00,26.00,26.00,100.00,0.00,0.00,T,29.71,1007.40,0.25,M,VV ,M,M,M,100.00,M,M,M,FZFG,M,M,M,M,M,M,26.00,KEKO 021356Z AUTO 00000KT 1/4SM FZFG VV001 M03/M03 A2971 RMK AO2 SNE11 SLP074 P0000 T10331033,M
WMC,2025-04-02 13:56,-117.8072,40.9019,1315.00,31.00,30.00,96.02,310.00,4.00,0.00,29.78,1009.40,10.00,M,OVC,M,M,M,400.00,M,M,M,M,M,M,M,M,M,M,26.25,KWMC 021356Z AUTO 31004KT 10SM OVC004 M01/M01 A2978 RMK AO2 SLP094 T10061011 TSNO,M
HND,2025-04-02 13:56,-115.1344,35.9729,742.79,45.00,28.00,51.08,190.00,5.00,0.00,29.67,1006.00,10.00,M,OVC,M,M,M,8500.00,M,M,M,M,M,M,M,M,M,M,41.83,KHND 021356Z 19005KT 10SM OVC085 07/M02 A2967 RMK AO2 SLP060 T00721022 $,M
TPH,2025-04-02 13:56,-117.0904,38.0505,1654.00,29.00,22.00,74.77,330.00,15.00,0.00,29.71,1006.30,10.00,23.00,FEW,M,M,M,4500.00,M,M,M,M,M,M,M,M,M,M,16.89,KTPH 021356Z AUTO 33015G23KT 10SM FEW045 M02/M06 A2971 RMK AO2 SLP063 T10171056 $,M
LAS,2025-04-02 13:56,-115.1634,36.0719,663.00,48.00,30.00,49.49,340.00,18.00,0.00,29.66,1003.50,10.00,27.00,FEW,BKN,BKN,OVC,3000.00,8000.00,12000.00,20000.00,M,M,M,M,31.00,350.00,2025-04-02 13:46,40.81,KLAS 021356Z 34018G27KT 10SM FEW030 BKN080 BKN120 OVC200 09/M01 A2966 RMK AO2 PK WND 35031/1346 SLP035 T00891011,M
INS,2025-04-02 13:57,-115.6733,36.5872,955.00,41.00,32.00,70.08,160.00,7.00,0.00,29.69,1003.60,10.00,M,FEW,OVC,M,M,2400.00,4500.00,M,M,M,M,M,M,M,M,M,35.75,KINS 021357Z AUTO 16007KT 10SM FEW024 OVC045 05/00 A2969 RMK AO2 DZE57 SLP036 $,M
NFL,2025-04-02 13:57,-118.7010,39.4166,1199.00,36.00,27.00,69.51,300.00,6.00,0.00,29.79,1006.60,10.00,M,FEW,SCT,BKN,BKN,3000.00,4500.00,8000.00,13000.00,M,M,M,M,M,M,M,30.35,KNFL 021357Z 30006KT 10SM FEW030 SCT045 BKN080 BKN130 02/M03 A2979 RMK AO2 SLP066 T00221028,M
10U,2025-04-02 14:00,-116.1876,41.9532,1637.00,24.80,24.80,100.00,320.00,4.00,0.00,29.75,M,10.00,M,OVC,M,M,M,600.00,M,M,M,M,M,M,M,M,M,M,19.01,K10U 021400Z AUTO 32004KT 10SM OVC006 M04/M04 A2975 RMK AO2,M
MEV,2025-04-02 14:05,-119.7500,38.9963,1441.42,28.40,24.80,86.18,0.00,0.00,0.00,29.82,M,10.00,M,BKN,BKN,OVC,M,3700.00,4700.00,6000.00,M,M,M,M,M,M,M,M,28.40,KMEV 021405Z AUTO 00000KT 10SM BKN037 BKN047 OVC060 M02/M04 A2982 RMK AO2,M
BVU,2025-04-02 14:15,-114.8611,35.9475,671.00,48.20,30.20,49.53,320.00,18.00,0.00,29.63,M,10.00,26.00,FEW,M,M,M,8500.00,M,M,M,M,M,M,M,M,M,M,41.07,KBVU 021415Z AUTO 32018G26KT 10SM FEW085 09/M01 A2963 RMK AO2,M
BAM,2025-04-02 14:15,-116.8743,40.5990,1382.36,32.00,32.00,100.00,340.00,6.00,0.00,29.77,M,10.00,M,BKN,BKN,OVC,M,1400.00,2500.00,5000.00,M,M,M,M,M,M,M,M,25.53,KBAM 021415Z AUTO 34006KT 10SM BKN014 BKN025 OVC050 00/00 A2977 RMK AO1,M
CXP,2025-04-02 14:15,-119.7326,39.1923,1431.00,30.20,28.40,92.92,190.00,6.00,0.00,29.84,M,10.00,M,FEW,OVC,M,M,1600.00,2900.00,M,M,M,M,M,M,M,M,M,23.36,KCXP 021415Z AUTO 19006KT 10SM FEW016 OVC029 M01/M02 A2984 RMK AO2,M
HTH,2025-04-02 14:15,-118.6315,38.5448,1282.89,37.40,23.00,55.68,10.00,7.00,0.00,29.80,M,10.00,M,BKN,OVC,M,M,3900.00,4600.00,M,M,M,M,M,M,M,M,M,31.36,KHTH 021415Z AUTO 01007KT 10SM BKN039 OVC046 03/M05 A2980 RMK A01,M
TMT,2025-04-02 14:15,-117.1971,39.4643,1749.34,25.70,24.00,93.16,210.00,5.00,0.00,29.74,M,10.00,M,BKN,OVC,M,M,2800.00,3300.00,M,M,M,M,M,M,M,M,M,18.91,KTMT 021415Z AUTO 21005KT 10SM BKN028 OVC033 M03/M04 A2974 RMK AO2 T10351045,M
10U,2025-04-02 14:20,-116.1876,41.9532,1637.00,26.60,24.80,92.80,320.00,5.00,0.00,29.76,M,10.00,M,OVC,M,M,M,700.00,M,M,M,M,M,M,M,M,M,M,19.98,K10U 021420Z AUTO 32005KT 10SM OVC007 M03/M04 A2976 RMK AO2,M
WMC,2025-04-02 14:28,-117.8072,40.9019,1315.00,31.00,30.00,96.02,310.00,7.00,0.00,29.79,M,10.00,M,BKN,BKN,OVC,M,500.00,5000.00,6000.00,M,M,M,M,M,M,M,M,23.56,KWMC 021428Z AUTO 31007KT 10SM BKN005 BKN050 OVC060 M01/M01 A2979 RMK AO2 T10061011 TSNO,M
BVU,2025-04-02 14:35,-114.8611,35.9475,671.00,48.20,30.20,49.53,320.00,20.00,0.00,29.64,M,10.00,27.00,BKN,M,M,M,8000.00,M,M,M,M,M,M,M,M,M,M,40.66,KBVU 021435Z AUTO 32020G27KT 10SM BKN080 09/M01 A2964 RMK AO2,M
BAM,2025-04-02 14:35,-116.8743,40.5990,1382.36,32.00,30.20,92.97,330.00,6.00,0.00,29.77,M,10.00,M,SCT,BKN,OVC,M,2500.00,4100.00,4800.00,M,M,M,M,M,M,M,M,25.53,KBAM 021435Z AUTO 33006KT 10SM SCT025 BKN041 OVC048 00/M01 A2977 RMK AO1,M
CXP,2025-04-02 14:35,-119.7326,39.1923,1431.00,30.20,28.40,92.92,190.00,4.00,0.00,29.84,M,10.00,M,BKN,BKN,OVC,M,2300.00,2900.00,3500.00,M,M,M,M,M,M,M,M,25.32,KCXP 021435Z AUTO 19004KT 10SM BKN023 BKN029 OVC035 M01/M02 A2984 RMK AO2,M
RTS,2025-04-02 14:35,-119.8764,39.6682,1539.00,30.20,23.00,74.26,320.00,4.00,0.00,29.83,M,10.00,M,FEW,SCT,BKN,M,3000.00,4000.00,4600.00,M,M,M,M,M,M,M,M,25.32,KRTS 021435Z AUTO 32004KT 10SM FEW030 SCT040 BKN046 M01/M05 A2983 RMK AO2,M
HTH,2025-04-02 14:35,-118.6315,38.5448,1282.89,37.40,24.80,60.04,10.00,12.00,0.00,29.80,M,9.00,M,FEW,BKN,OVC,M,2800.00,3800.00,4800.00,M,M,M,M,M,M,M,M,28.87,KHTH 021435Z AUTO 01012KT 9SM FEW028 BKN038 OVC048 03/M04 A2980 RMK A01,M
TMT,2025-04-02 14:35,-117.1971,39.4643,1749.34,26.40,24.60,92.80,200.00,5.00,0.00,29.74,M,1.50,M,BKN,OVC,M,M,1600.00,2600.00,M,M,-SN,M,M,M,M,M,M,19.74,KTMT 021435Z AUTO 20005KT 1 1/2SM -SN BKN016 OVC026 M03/M04 A2974 RMK AO2 T10311041,M
10U,2025-04-02 14:40,-116.1876,41.9532,1637.00,26.60,26.60,100.00,300.00,3.00,0.00,29.77,M,10.00,M,SCT,BKN,OVC,M,800.00,1300.00,2300.00,M,M,M,M,M,M,M,M,22.52,K10U 021440Z AUTO 30003KT 10SM SCT008 BKN013 OVC023 M03/M03 A2977 RMK AO2,M
RTS,2025-04-02 14:45,-119.8764,39.6682,1539.00,30.20,23.00,74.26,0.00,0.00,0.00,29.83,M,10.00,M,FEW,BKN,OVC,M,3100.00,4000.00,6000.00,M,M,M,M,M,M,M,M,30.20,KRTS 021445Z AUTO 00000KT 10SM FEW031 BKN040 OVC060 M01/M05 A2983 RMK AO2,M
WMC,2025-04-02 14:49,-117.8072,40.9019,1315.00,31.00,30.00,96.02,290.00,5.00,0.00,29.79,M,10.00,M,SCT,OVC,M,M,500.00,5500.00,M,M,M,M,M,M,M,M,M,25.21,KWMC 021449Z AUTO 29005KT 10SM SCT005 OVC055 M01/M01 A2979 RMK AO2 T10061011 TSNO,M
P68,2025-04-02 14:53,-116.0056,39.6014,1993.00,28.00,25.00,88.33,0.00,0.00,0.00,29.70,1005.90,M,M,M,M,M,M,M,M,M,M,M,M,M,M,M,M,M,28.00,KP68 021453Z AUTO 00000KT M02/M04 A2970 RMK AO1 SLP059 60001 T10221039 53006,M
DRA,2025-04-02 14:53,-116.0278,36.6206,1009.00,40.00,31.00,69.97,110.00,15.00,0.00,29.69,1003.60,10.00,M,SCT,M,M,M,12000.00,M,M,M,M,M,M,M,M,M,M,31.15,KDRA 021453Z AUTO 11015KT 10SM SCT120 04/M01 A2969 RMK AO2 SLP036 T00441006 52012,M
ELY,2025-04-02 14:53,-114.8453,39.2950,1909.00,27.00,21.00,77.80,300.00,6.00,0.00,29.68,1005.80,10.00,M,BKN,OVC,M,M,5000.00,5500.00,M,M,M,M,M,M,M,M,M,19.51,KELY 021453Z AUTO 30006KT 10SM BKN050 OVC055 M03/M06 A2968 RMK AO2 SLP058 T10281061 53007 $,M
VGT,2025-04-02 14:53,-115.1933,36.2111,667.00,47.00,33.00,58.01,310.00,25.00,0.00,29.66,1005.50,10.00,35.00,OVC,M,M,M,7000.00,M,M,M,M,M,M,M,35.00,320.00,2025-04-02 14:44,38.12,KVGT 021453Z 31025G35KT 10SM OVC070 08/01 A2966 RMK AO2 PK WND 32035/1444 SLP055 T00830006 51019,M
LOL,2025-04-02 14:53,-118.5701,40.0684,1192.43,35.00,30.00,81.78,30.00,6.00,T,29.81,1010.20,8.00,M,FEW,OVC,M,M,4400.00,6500.00,M,M,M,M,M,M,M,M,M,29.14,KLOL 021453Z AUTO 03006KT 8SM FEW044 OVC065 02/M01 A2981 RMK AO2 UPB13E30SNB12E13B40E51 SLP102 P0000 60000 T00171011 53013,M
BVU,2025-04-02 14:55,-114.8611,35.9475,671.00,50.00,30.20,46.31,320.00,22.00,0.00,29.65,M,10.00,28.00,BKN,M,M,M,8000.00,M,M,M,M,M,M,M,M,M,M,50.00,KBVU 021455Z AUTO 32022G28KT 10SM BKN080 10/M01 A2965 RMK AO2,M
RNO,2025-04-02 14:55,-119.7711,39.4839,1341.00,35.00,23.00,61.23,310.00,7.00,0.00,29.83,1010.20,10.00,M,BKN,BKN,M,M,5000.00,20000.00,M,M,M,M,M,M,M,M,M,28.44,KRNO 021455Z 31007KT 10SM BKN050 BKN200 02/M05 A2983 RMK AO2 SLP102 T00171050 53009,M
BAM,2025-04-02 14:55,-116.8743,40.5990,1382.36,32.00,32.00,100.00,320.00,7.00,0.00,29.78,M,10.00,M,OVC,M,M,M,4100.00,M,M,M,M,M,M,M,M,M,M,24.78,KBAM 021455Z AUTO 32007KT 10SM OVC041 00/00 A2978 RMK AO1,M
CXP,2025-04-02 14:55,-119.7326,39.1923,1431.00,30.20,28.40,92.92,0.00,0.00,0.00,29.85,M,9.00,M,FEW,FEW,OVC,M,900.00,1300.00,2400.00,M,M,M,M,M,M,M,M,30.20,KCXP 021455Z AUTO 00000KT 9SM FEW009 FEW013 OVC024 M01/M02 A2985 RMK AO2,M
HTH,2025-04-02 14:55,-118.6315,38.5448,1282.89,37.40,26.60,64.70,360.00,13.00,0.00,29.81,M,8.00,19.00,FEW,SCT,BKN,M,2700.00,3900.00,4800.00,M,M,M,M,M,M,M,M,28.49,KHTH 021455Z AUTO 36013G19KT 8SM FEW027 SCT039 BKN048 03/M03 A2981 RMK A01,M
TMT,2025-04-02 14:55,-117.1971,39.4643,1749.34,26.60,25.00,93.58,200.00,4.00,0.00,29.76,M,5.00,M,SCT,BKN,OVC,M,1400.00,3400.00,4300.00,M,-SN,M,M,M,M,M,M,21.11,KTMT 021455Z AUTO 20004KT 5SM -SN SCT014 BKN034 OVC043 M03/M04 A2976 RMK AO2 T10301038,M
INS,2025-04-02 14:55,-115.6733,36.5872,955.00,42.00,31.00,64.75,0.00,0.00,T,29.70,1003.90,10.00,M,OVC,M,M,M,6000.00,M,M,M,M,M,M,M,M,M,M,42.00,KINS 021455Z AUTO 00000KT 10SM OVC060 06/M01 A2970 RMK AO2 DZB1355E1357 SLP039 P0000 60001 T00551006 50004 $,M
LSV,2025-04-02 14:55,-115.0343,36.2362,570.00,49.30,31.50,50.10,300.00,23.00,0.00,29.63,1002.50,10.00,28.00,FEW,SCT,BKN,M,5000.00,10000.00,18000.00,M,M,M,M,M,33.00,310.00,2025-04-02 14:37,41.57,KLSV 021455Z 30023G28KT 10SM FEW050 SCT100 BKN180 10/M00 A2963 RMK AO2A PK WND 31033/37 SLP025 T00961003 52016 FZRANO $,M
EKO,2025-04-02 14:56,-115.7860,40.8242,1367.00,26.00,26.00,100.00,0.00,0.00,0.00,29.73,1008.50,0.25,M,VV ,M,M,M,100.00,M,M,M,FZFG,M,M,M,M,M,M,26.00,KEKO 021456Z AUTO 00000KT M1/4SM FZFG VV001 M03/M03 A2973 RMK AO2 SLP085 60005 T10331033 53013 $,M
WMC,2025-04-02 14:56,-117.8072,40.9019,1315.00,31.00,30.00,96.02,300.00,4.00,0.00,29.80,1010.10,10.00,M,SCT,OVC,M,M,500.00,6000.00,M,M,M,M,M,M,M,M,M,26.25,KWMC 021456Z AUTO 30004KT 10SM SCT005 OVC060 M01/M01 A2980 RMK AO2 SLP101 60000 T10061011 53010 TSNO,M
HND,2025-04-02 14:56,-115.1344,35.9729,742.79,47.00,29.00,49.34,330.00,16.00,T,29.70,1006.80,10.00,21.00,SCT,BKN,OVC,M,3800.00,4700.00,6000.00,M,-RA,M,M,M,M,M,M,39.97,KHND 021456Z 33016G21KT 10SM -RA SCT038 BKN047 OVC060 08/M02 A2970 RMK AO2 RAB55 SLP068 P0000 60000 T00831017 51021 $,M
TPH,2025-04-02 14:56,-117.0904,38.0505,1654.00,33.00,23.00,66.32,M,M,0.00,29.72,1006.50,10.00,M,FEW,M,M,M,4000.00,M,M,M,M,M,M,M,M,M,M,M,KTPH 021456Z AUTO 10SM FEW040 01/M05 A2972 RMK AO2 SLP065 T00061050 53013 $,M
LAS,2025-04-02 14:56,-115.1634,36.0719,663.00,48.00,29.00,47.52,310.00,17.00,0.00,29.68,1004.40,10.00,26.00,BKN,BKN,OVC,M,6500.00,11000.00,20000.00,M,M,M,M,M,34.00,350.00,2025-04-02 13:57,41.04,KLAS 021456Z 31017G26KT 10SM BKN065 BKN110 OVC200 09/M02 A2968 RMK AO2 PK WND 35034/1357 SLP044 VIRGA DSNT S-W-N T00891017 53018,M
NFL,2025-04-02 14:57,-118.7010,39.4166,1199.00,38.00,26.00,61.64,330.00,12.00,0.00,29.80,1007.10,10.00,M,OVC,M,M,M,6000.00,M,M,M,M,M,M,M,M,M,M,29.64,KNFL 021457Z 33012KT 10SM OVC060 03/M03 A2980 RMK AO2 SLP071 T00331033 53010,M
10U,2025-04-02 15:00,-116.1876,41.9532,1637.00,26.60,24.80,92.80,0.00,0.00,0.00,29.77,M,10.00,M,FEW,SCT,OVC,M,1200.00,2000.00,2700.00,M,M,M,M,M,M,M,M,26.60,K10U 021500Z AUTO 00000KT 10SM FEW012 SCT020 OVC027 M03/M04 A2977 RMK AO2,M
BVU,2025-04-02 15:15,-114.8611,35.9475,671.00,50.00,30.20,46.31,320.00,18.00,0.00,29.66,M,10.00,M,OVC,M,M,M,7500.00,M,M,M,M,M,M,M,M,M,M,50.00,KBVU 021515Z AUTO 32018KT 10SM OVC075 10/M01 A2966 RMK AO2,M
BAM,2025-04-02 15:15,-116.8743,40.5990,1382.36,32.00,32.00,100.00,340.00,5.00,0.00,29.79,M,10.00,M,SCT,OVC,M,M,4100.00,4700.00,M,M,M,M,M,M,M,M,M,26.40,KBAM 021515Z AUTO 34005KT 10SM SCT041 OVC047 00/00 A2979 RMK AO1,M
CXP,2025-04-02 15:15,-119.7326,39.1923,1431.00,32.00,28.40,86.39,0.00,0.00,0.00,29.85,M,10.00,M,FEW,OVC,M,M,800.00,2600.00,M,M,M,M,M,M,M,M,M,32.00,KCXP 021515Z AUTO 00000KT 10SM FEW008 OVC026 M00/M02 A2985 RMK AO2,M
HTH,2025-04-02 15:15,-118.6315,38.5448,1282.89,35.60,28.40,74.80,10.00,11.00,0.00,29.81,M,7.00,18.00,FEW,SCT,BKN,M,2200.00,4800.00,5500.00,M,M,M,M,M,M,M,M,27.02,KHTH 021515Z AUTO 01011G18KT 7SM FEW022 SCT048 BKN055 02/M02 A2981 RMK A01,M
TMT,2025-04-02 15:15,-117.1971,39.4643,1749.34,27.70,26.00,93.22,190.00,5.00,0.00,29.76,M,10.00,M,BKN,BKN,OVC,M,2000.00,2600.00,4100.00,M,M,M,M,M,M,M,M,21.29,KTMT 021515Z AUTO 19005KT 10SM BKN020 BKN026 OVC041 M02/M03 A2976 RMK AO2 T10241034,M
10U,2025-04-02 15:20,-116.1876,41.9532,1637.00,28.40,24.80,86.18,300.00,4.00,0.00,29.77,M,10.00,M,FEW,OVC,M,M,1400.00,2800.00,M,M,M,M,M,M,M,M,M,23.22,K10U 021520Z AUTO 30004KT 10SM FEW014 OVC028 M02/M04 A2977 RMK AO2,M
EKO,2025-04-02 15:34,-115.7860,40.8242,1367.00,28.00,28.00,100.00,0.00,0.00,0.00,29.74,M,0.75,M,VV ,M,M,M,500.00,M,M,M,BR,M,M,M,M,M,M,28.00,KEKO 021534Z AUTO 00000KT 3/4SM BR VV005 M02/M02 A2974 RMK AO2 T10221022 $,M
BVU,2025-04-02 15:35,-114.8611,35.9475,671.00,50.00,30.20,46.31,320.00,15.00,0.00,29.66,M,10.00,25.00,OVC,M,M,M,8500.00,M,M,M,M,M,M,M,M,M,M,50.00,KBVU 021535Z AUTO 32015G25KT 10SM OVC085 10/M01 A2966 RMK AO2,M
BAM,2025-04-02 15:35,-116.8743,40.5990,1382.36,33.80,32.00,93.03,340.00,4.00,0.00,29.79,M,10.00,M,OVC,M,M,M,4900.00,M,M,M,M,M,M,M,M,M,M,29.52,KBAM 021535Z AUTO 34004KT 10SM OVC049 01/00 A2979 RMK AO1,M
CXP,2025-04-02 15:35,-119.7326,39.1923,1431.00,32.00,28.40,86.39,0.00,0.00,0.00,29.85,M,10.00,M,FEW,BKN,OVC,M,900.00,2700.00,3500.00,M,M,M,M,M,M,M,M,32.00,KCXP 021535Z AUTO 00000KT 10SM FEW009 BKN027 OVC035 M00/M02 A2985 RMK AO2,M
HTH,2025-04-02 15:35,-118.6315,38.5448,1282.89,37.40,26.60,64.70,360.00,16.00,0.00,29.81,M,10.00,M,SCT,BKN,BKN,M,4200.00,5000.00,6500.00,M,M,M,M,M,M,M,M,27.46,KHTH 021535Z AUTO 36016KT 10SM SCT042 BKN050 BKN065 03/M03 A2981 RMK A01,M
TMT,2025-04-02 15:35,-117.1971,39.4643,1749.34,28.40,25.70,89.46,210.00,3.00,0.00,29.76,M,10.00,M,OVC,M,M,M,2200.00,M,M,M,-SN,M,M,M,M,M,M,24.57,KTMT 021535Z AUTO 21003KT 10SM -SN OVC022 M02/M03 A2976 RMK AO2 T10201035,M
EKO,2025-04-02 15:37,-115.7860,40.8242,1367.00,28.00,28.00,100.00,0.00,0.00,0.00,29.74,M,2.00,M,BKN,OVC,M,M,800.00,4000.00,M,M,BR,M,M,M,M,M,M,28.00,KEKO 021537Z AUTO 00000KT 2SM BR BKN008 OVC040 M02/M02 A2974 RMK AO2 T10221022 $,M
EKO,2025-04-02 15:39,-115.7860,40.8242,1367.00,28.00,28.00,100.00,0.00,0.00,0.00,29.74,M,3.00,M,BKN,OVC,M,M,1100.00,4000.00,M,M,BR,M,M,M,M,M,M,28.00,KEKO 021539Z AUTO 00000KT 3SM BR BKN011 OVC040 M02/M02 A2974 RMK AO2 T10221022 $,M
10U,2025-04-02 15:40,-116.1876,41.9532,1637.00,26.60,24.80,92.80,300.00,7.00,0.00,29.78,M,10.00,M,BKN,BKN,OVC,M,700.00,1300.00,2700.00,M,M,M,M,M,M,M,M,18.20,K10U 021540Z AUTO 30007KT 10SM BKN007 BKN013 OVC027 M03/M04 A2978 RMK AO2,M
ELY,2025-04-02 15:45,-114.8453,39.2950,1909.00,28.00,23.00,81.25,20.00,5.00,T,29.68,M,2.00,M,BKN,OVC,M,M,3600.00,4700.00,M,M,-SN,M,M,M,M,M,M,21.64,KELY 021545Z AUTO 02005KT 2SM -SN BKN036 OVC047 M02/M05 A2968 RMK AO2 SNB03 P0000 T10221050 $,M
EKO,2025-04-02 15:47,-115.7860,40.8242,1367.00,28.00,28.00,100.00,0.00,0.00,0.00,29.74,M,6.00,M,BKN,OVC,M,M,2300.00,4000.00,M,M,BR,M,M,M,M,M,M,28.00,KEKO 021547Z AUTO 00000KT 6SM BR BKN023 OVC040 M02/M02 A2974 RMK AO2 T10221022,M
P68,2025-04-02 15:53,-116.0056,39.6014,1993.00,30.00,25.00,81.40,0.00,0.00,0.00,29.71,1006.40,M,M,M,M,M,M,M,M,M,M,M,M,M,M,M,M,M,30.00,KP68 021553Z AUTO 00000KT M01/M04 A2971 RMK AO1 SLP064 T10111039,M
DRA,2025-04-02 15:53,-116.0278,36.6206,1009.00,42.00,31.00,64.75,90.00,9.00,0.00,29.70,1003.70,10.00,M,CLR,M,M,M,M,M,M,M,M,M,M,M,M,M,M,35.95,KDRA 021553Z AUTO 09009KT 10SM CLR 06/M01 A2970 RMK AO2 SLP037 T00561006,M
ELY,2025-04-02 15:53,-114.8453,39.2950,1909.00,28.00,23.00,81.25,360.00,4.00,T,29.69,1005.70,4.00,M,BKN,OVC,M,M,3600.00,4700.00,M,M,-SN,M,M,M,M,M,M,22.75,KELY 021553Z AUTO 36004KT 4SM -SN BKN036 OVC047 M02/M05 A2969 RMK AO2 SNB03 SLP057 P0000 T10221050,M
VGT,2025-04-02 15:53,-115.1933,36.2111,667.00,48.00,34.00,58.16,310.00,21.00,0.00,29.68,1006.20,10.00,31.00,OVC,M,M,M,7500.00,M,M,M,M,M,M,M,32.00,310.00,2025-04-02 15:01,40.19,KVGT 021553Z 31021G31KT 10SM OVC075 09/01 A2968 RMK AO2 PK WND 31032/1501 SLP062 T00890011,M
LOL,2025-04-02 15:53,-118.5701,40.0684,1192.43,38.00,28.00,66.94,350.00,8.00,T,29.81,1010.40,10.00,M,BKN,M,M,M,6500.00,M,M,M,M,M,M,M,M,M,M,31.50,KLOL 021553Z AUTO 35008KT 10SM BKN065 03/M02 A2981 RMK AO2 SNB1454E14 SLP104 P0000 T00331022,M
BVU,2025-04-02 15:55,-114.8611,35.9475,671.00,50.00,30.20,46.31,320.00,18.00,0.00,29.67,M,10.00,24.00,BKN,OVC,M,M,8000.00,9000.00,M,M,M,M,M,M,M,M,M,50.00,KBVU 021555Z AUTO 32018G24KT 10SM BKN080 OVC090 10/M01 A2967 RMK AO2,M
RNO,2025-04-02 15:55,-119.7711,39.4839,1341.00,36.00,23.00,58.85,340.00,7.00,0.00,29.84,1010.50,10.00,M,BKN,M,M,M,4600.00,M,M,M,M,M,M,M,M,M,M,29.65,KRNO 021555Z 34007KT 10SM BKN046 02/M05 A2984 RMK AO2 SLP105 T00221050,M
BAM,2025-04-02 15:55,-116.8743,40.5990,1382.36,33.80,32.00,93.03,0.00,0.00,0.00,29.80,M,10.00,M,SCT,SCT,OVC,M,800.00,1500.00,5500.00,M,M,M,M,M,M,M,M,33.80,KBAM 021555Z AUTO 00000KT 10SM SCT008 SCT015 OVC055 01/00 A2980 RMK AO1,M
CXP,2025-04-02 15:55,-119.7326,39.1923,1431.00,33.80,28.40,80.36,0.00,0.00,0.00,29.85,M,10.00,M,FEW,BKN,OVC,M,1000.00,2800.00,4700.00,M,M,M,M,M,M,M,M,33.80,KCXP 021555Z AUTO 00000KT 10SM FEW010 BKN028 OVC047 01/M02 A2985 RMK AO2,M
HTH,2025-04-02 15:55,-118.6315,38.5448,1282.89,37.40,26.60,64.70,360.00,17.00,0.00,29.82,M,10.00,23.00,FEW,SCT,BKN,M,3400.00,4100.00,5000.00,M,M,M,M,M,M,M,M,27.15,KHTH 021555Z AUTO 36017G23KT 10SM FEW034 SCT041 BKN050 03/M03 A2982 RMK A01,M
TMT,2025-04-02 15:55,-117.1971,39.4643,1749.34,29.00,26.00,88.38,220.00,4.00,0.00,29.77,M,7.00,M,OVC,M,M,M,2000.00,M,M,M,-SN,M,M,M,M,M,M,23.92,KTMT 021555Z AUTO 22004KT 7SM -SN OVC020 M02/M03 A2977 RMK AO2 T10171034,M
INS,2025-04-02 15:55,-115.6733,36.5872,955.00,42.00,32.40,68.52,290.00,6.00,0.00,29.71,1004.50,10.00,M,FEW,BKN,M,M,8000.00,11000.00,M,M,M,M,M,M,M,M,M,37.57,KINS 021555Z AUTO 29006KT 10SM FEW080 BKN110 06/00 A2971 RMK AO2 SLP045 T00560002 $,M
LSV,2025-04-02 15:55,-115.0343,36.2362,570.00,51.00,32.00,47.99,310.00,21.00,0.00,29.64,1002.80,M,28.00,FEW,BKN,BKN,CLR,5000.00,12000.00,20000.00,M,M,M,M,M,31.00,310.00,2025-04-02 15:04,51.00,KLSV 021555Z 31021G28KT FEW050 BKN120 BKN200 CLR 11/00 A2964 RMK AO2A PK WND 31031/04 SLP028 T01060000 FZRANO $,M
EKO,2025-04-02 15:56,-115.7860,40.8242,1367.00,29.00,29.00,100.00,0.00,0.00,0.00,29.74,1008.90,8.00,M,BKN,BKN,OVC,M,3100.00,4000.00,7000.00,M,M,M,M,M,M,M,M,29.00,KEKO 021556Z AUTO 00000KT 8SM BKN031 BKN040 OVC070 M02/M02 A2974 RMK AO2 SLP089 T10171017,M
WMC,2025-04-02 15:56,-117.8072,40.9019,1315.00,33.00,31.00,92.25,320.00,9.00,0.00,29.81,1010.20,10.00,M,FEW,BKN,M,M,1700.00,5500.00,M,M,M,M,M,M,M,M,M,24.76,KWMC 021556Z AUTO 32009KT 10SM FEW017 BKN055 01/M01 A2981 RMK AO2 SLP102 T00061006 TSNO,M
HND,2025-04-02 15:56,-115.1344,35.9729,742.79,47.00,31.00,53.52,300.00,13.00,T,29.72,1007.60,10.00,M,BKN,OVC,M,M,3800.00,4700.00,M,M,-RA,M,M,M,M,M,M,40.79,KHND 021556Z AUTO 30013KT 10SM -RA BKN038 OVC047 08/M01 A2972 RMK AO2 SLP076 P0000 T00831006 $,M
TPH,2025-04-02 15:56,-117.0904,38.0505,1654.00,33.00,21.00,60.95,M,M,0.00,29.73,1007.10,10.00,M,CLR,M,M,M,M,M,M,M,M,M,M,M,M,M,M,M,KTPH 021556Z AUTO 10SM CLR 01/M06 A2973 RMK AO2 SLP071 T00061061 $,M
LAS,2025-04-02 15:56,-115.1634,36.0719,663.00,47.00,32.00,55.73,320.00,14.00,0.00,29.70,1004.90,10.00,26.00,FEW,BKN,OVC,M,4000.00,6000.00,12000.00,M,M,M,M,M,31.00,320.00,2025-04-02 15:01,40.50,KLAS 021556Z 32014G26KT 10SM FEW040 BKN060 OVC120 08/00 A2970 RMK AO2 PK WND 32031/1501 SLP049 VIRGA DSNT SW-NW T00830000,M
NFL,2025-04-02 15:57,-118.7010,39.4166,1199.00,40.00,26.00,57.01,340.00,10.00,0.00,29.82,1007.50,10.00,M,SCT,BKN,BKN,BKN,4000.00,6000.00,10000.00,18000.00,M,M,M,M,M,M,M,33.00,KNFL 021557Z 34010KT 10SM SCT040 BKN060 BKN100 BKN180 04/M03 A2982 RMK AO2 SLP075 T00441033,M
10U,2025-04-02 16:00,-116.1876,41.9532,1637.00,28.40,24.80,86.18,300.00,7.00,0.00,29.78,M,10.00,M,SCT,OVC,M,M,700.00,1300.00,M,M,M,M,M,M,M,M,M,20.39,K10U 021600Z AUTO 30007KT 10SM SCT007 OVC013 M02/M04 A2978 RMK AO2,M
INS,2025-04-02 16:02,-115.6733,36.5872,955.00,42.80,32.00,65.38,300.00,5.00,0.00,29.71,1004.50,10.00,M,SCT,BKN,M,M,5000.00,11000.00,M,M,M,M,M,M,M,M,M,39.22,KINS 021602Z 30005KT 10SM SCT050 BKN110 06/M00 A2971 RMK SLP045 $,M
BVU,2025-04-02 16:15,-114.8611,35.9475,671.00,51.80,30.20,43.32,320.00,19.00,0.00,29.67,M,10.00,M,SCT,M,M,M,8000.00,M,M,M,M,M,M,M,M,M,M,51.80,KBVU 021615Z AUTO 32019KT 10SM SCT080 11/M01 A2967 RMK AO2,M
BAM,2025-04-02 16:15,-116.8743,40.5990,1382.36,33.80,32.00,93.03,340.00,6.00,0.00,29.80,M,10.00,M,SCT,BKN,OVC,M,1000.00,4400.00,5500.00,M,M,M,M,M,M,M,M,27.70,KBAM 021615Z AUTO 34006KT 10SM SCT010 BKN044 OVC055 01/00 A2980 RMK AO1,M
CXP,2025-04-02 16:15,-119.7326,39.1923,1431.00,32.00,26.60,80.22,0.00,0.00,0.00,29.86,M,10.00,M,SCT,BKN,OVC,M,2900.00,3500.00,4400.00,M,M,M,M,M,M,M,M,32.00,KCXP 021615Z AUTO 00000KT 10SM SCT029 BKN035 OVC044 00/M03 A2986 RMK AO2,M
RTS,2025-04-02 16:15,-119.8764,39.6682,1539.00,33.80,24.80,69.25,350.00,11.00,0.00,29.85,M,10.00,16.00,M,M,M,M,M,M,M,M,M,M,M,M,M,M,M,24.74,KRTS 021615Z AUTO 35011G16KT 10SM 01/M04 A2985 RMK AO2,M
MEV,2025-04-02 16:15,-119.7500,38.9963,1441.42,32.00,26.60,80.22,110.00,3.00,0.00,29.84,M,10.00,M,OVC,M,M,M,5500.00,M,M,M,M,M,M,M,M,M,M,28.69,KMEV 021615Z AUTO 11003KT 10SM OVC055 M00/M03 A2984 RMK AO2,M
HTH,2025-04-02 16:15,-118.6315,38.5448,1282.89,35.60,28.40,74.80,340.00,11.00,0.00,29.83,M,1.00,24.00,SCT,BKN,OVC,M,300.00,4000.00,7000.00,M,HZ,M,M,M,M,M,M,27.02,KHTH 021615Z AUTO 34011G24KT 1SM HZ SCT003 BKN040 OVC070 02/M02 A2983 RMK A01,M
TMT,2025-04-02 16:15,-117.1971,39.4643,1749.34,29.00,25.50,86.57,210.00,4.00,0.00,29.77,M,10.00,M,BKN,BKN,OVC,M,1600.00,2700.00,3900.00,M,M,M,M,M,M,M,M,23.92,KTMT 021615Z AUTO 21004KT 10SM BKN016 BKN027 OVC039 M02/M04 A2977 RMK AO2 T10171036,M
10U,2025-04-02 16:20,-116.1876,41.9532,1637.00,28.40,24.80,86.18,330.00,6.00,0.00,29.78,M,10.00,M,OVC,M,M,M,1300.00,M,M,M,M,M,M,M,M,M,M,21.19,K10U 021620Z AUTO 33006KT 10SM OVC013 M02/M04 A2978 RMK AO2,M
WMC,2025-04-02 16:25,-117.8072,40.9019,1315.00,36.00,32.00,85.23,330.00,6.00,0.00,29.81,M,10.00,M,SCT,SCT,M,M,700.00,5000.00,M,M,M,M,M,M,M,M,M,30.35,KWMC 021625Z AUTO 33006KT 10SM SCT007 SCT050 02/00 A2981 RMK AO2 T00220000 TSNO,M
RTS,2025-04-02 16:25,-119.8764,39.6682,1539.00,33.80,24.80,69.25,340.00,12.00,0.00,29.85,M,10.00,M,FEW,SCT,OVC,M,1900.00,2400.00,3500.00,M,M,M,M,M,M,M,M,24.29,KRTS 021625Z AUTO 34012KT 10SM FEW019 SCT024 OVC035 01/M04 A2985 RMK AO2,M
BVU,2025-04-02 16:35,-114.8611,35.9475,671.00,51.80,30.20,43.32,320.00,17.00,0.00,29.68,M,10.00,22.00,CLR,M,M,M,M,M,M,M,M,M,M,M,M,M,M,51.80,KBVU 021635Z AUTO 32017G22KT 10SM CLR 11/M01 A2968 RMK AO2,M
BAM,2025-04-02 16:35,-116.8743,40.5990,1382.36,33.80,32.00,93.03,330.00,4.00,0.00,29.81,M,10.00,M,SCT,BKN,OVC,M,2700.00,4200.00,4900.00,M,M,M,M,M,M,M,M,29.52,KBAM 021635Z AUTO 33004KT 10SM SCT027 BKN042 OVC049 01/00 A2981 RMK AO1,M
CXP,2025-04-02 16:35,-119.7326,39.1923,1431.00,33.80,28.40,80.36,0.00,0.00,0.00,29.86,M,10.00,M,OVC,M,M,M,4400.00,M,M,M,M,M,M,M,M,M,M,33.80,KCXP 021635Z AUTO 00000KT 10SM OVC044 01/M02 A2986 RMK AO2,M
MEV,2025-04-02 16:35,-119.7500,38.9963,1441.42,32.00,26.60,80.22,0.00,0.00,0.00,29.84,M,10.00,M,BKN,OVC,M,M,5000.00,5500.00,M,M,M,M,M,M,M,M,M,32.00,KMEV 021635Z AUTO 00000KT 10SM BKN050 OVC055 M00/M03 A2984 RMK AO2,M
HTH,2025-04-02 16:35,-118.6315,38.5448,1282.89,33.80,30.20,86.49,300.00,8.00,0.00,29.83,M,0.25,16.00,BKN,BKN,BKN,M,300.00,2300.00,3000.00,M,FG,M,M,M,M,M,M,26.33,KHTH 021635Z AUTO 30008G16KT 1/4SM FG BKN003 BKN023 BKN030 01/M01 A2983 RMK A01,M
TMT,2025-04-02 16:35,-117.1971,39.4643,1749.34,29.30,25.50,85.52,350.00,8.00,0.00,29.78,M,10.00,M,BKN,BKN,OVC,M,1400.00,2200.00,4100.00,M,M,M,M,M,M,M,M,20.79,KTMT 021635Z AUTO 35008KT 10SM BKN014 BKN022 OVC041 M01/M04 A2978 RMK AO2 T10151036,M
LSV,2025-04-02 16:40,-115.0343,36.2362,570.00,53.60,30.20,40.54,300.00,24.00,0.00,29.65,1003.20,10.00,27.00,FEW,BKN,BKN,M,5000.00,12000.00,20000.00,M,M,M,M,M,M,M,M,53.60,KLSV 021640Z 30024G27KT 10SM FEW050 BKN120 BKN200 12/M01 A2965 RMK AO2A SLP032 FZRANO $,M
10U,2025-04-02 16:40,-116.1876,41.9532,1637.00,28.40,24.80,86.18,340.00,6.00,0.00,29.79,M,10.00,M,BKN,BKN,M,M,1100.00,1600.00,M,M,M,M,M,M,M,M,M,21.19,K10U 021640Z AUTO 34006KT 10SM BKN011 BKN016 M02/M04 A2979 RMK AO2,M
ELY,2025-04-02 16:42,-114.8453,39.2950,1909.00,31.00,23.00,71.89,0.00,0.00,T,29.69,M,10.00,M,BKN,BKN,OVC,M,1400.00,2400.00,4200.00,M,M,M,M,M,M,M,M,31.00,KELY 021642Z AUTO 00000KT 10SM BKN014 BKN024 OVC042 M01/M05 A2969 RMK AO2 SNE32 P0000 T10061050,M
WMC,2025-04-02 16:42,-117.8072,40.9019,1315.00,36.00,32.00,85.23,330.00,7.00,0.00,29.82,M,10.00,M,BKN,M,M,M,900.00,M,M,M,M,M,M,M,M,M,M,29.65,KWMC 021642Z AUTO 33007KT 10SM BKN009 02/00 A2982 RMK AO2 CIG 007V012 T00220000 TSNO,M
P68,2025-04-02 16:53,-116.0056,39.6014,1993.00,31.00,26.00,81.48,20.00,9.00,0.00,29.72,1006.40,M,M,M,M,M,M,M,M,M,M,M,M,M,M,M,M,M,22.27,KP68 021653Z AUTO 02009KT M01/M03 A2972 RMK AO1 SLP064 T10061033,M
DRA,2025-04-02 16:53,-116.0278,36.6206,1009.00,46.00,28.00,49.18,0.00,0.00,0.00,29.71,1004.20,10.00,M,CLR,M,M,M,M,M,M,M,M,M,M,M,M,M,M,46.00,KDRA 021653Z AUTO 00000KT 10SM CLR 08/M02 A2971 RMK AO2 SLP042 T00781022,M
ELY,2025-04-02 16:53,-114.8453,39.2950,1909.00,32.00,23.00,69.04,360.00,5.00,T,29.69,1005.30,10.00,M,BKN,BKN,BKN,M,1600.00,2400.00,4400.00,M,M,M,M,M,M,M,M,26.40,KELY 021653Z AUTO 36005KT 10SM BKN016 BKN024 BKN044 00/M05 A2969 RMK AO2 SNE32 SLP053 P0000 T00001050,M
VGT,2025-04-02 16:53,-115.1933,36.2111,667.00,50.00,34.00,53.97,300.00,20.00,0.00,29.69,1006.70,10.00,29.00,SCT,BKN,M,M,7000.00,9000.00,M,M,M,M,M,M,31.00,300.00,2025-04-02 16:20,50.00,KVGT 021653Z 30020G29KT 10SM SCT070 BKN090 10/01 A2969 RMK AO2 PK WND 30031/1620 SLP067 T01000011,M
LOL,2025-04-02 16:53,-118.5701,40.0684,1192.43,38.00,27.00,64.24,60.00,6.00,0.00,29.82,1010.80,10.00,M,FEW,SCT,M,M,3300.00,6000.00,M,M,M,M,M,M,M,M,M,32.76,KLOL 021653Z AUTO 06006KT 10SM FEW033 SCT060 03/M03 A2982 RMK AO2 SLP108 T00331028,M
BVU,2025-04-02 16:55,-114.8611,35.9475,671.00,51.80,30.20,43.32,310.00,16.00,0.00,29.68,M,10.00,22.00,CLR,M,M,M,M,M,M,M,M,M,M,M,M,M,M,51.80,KBVU 021655Z AUTO 31016G22KT 10SM CLR 11/M01 A2968 RMK AO2,M
RNO,2025-04-02 16:55,-119.7711,39.4839,1341.00,39.00,22.00,50.14,330.00,7.00,0.00,29.84,1010.30,10.00,M,BKN,M,M,M,4700.00,M,M,M,M,M,M,M,M,M,M,33.31,KRNO 021655Z 33007KT 10SM BKN047 04/M06 A2984 RMK AO2 SLP103 T00391056,M
BAM,2025-04-02 16:55,-116.8743,40.5990,1382.36,33.80,32.00,93.03,350.00,4.00,0.00,29.82,M,10.00,M,SCT,BKN,OVC,M,2700.00,3800.00,4400.00,M,M,M,M,M,M,M,M,29.52,KBAM 021655Z AUTO 35004KT 10SM SCT027 BKN038 OVC044 01/00 A2982 RMK AO1,M
CXP,2025-04-02 16:55,-119.7326,39.1923,1431.00,35.60,28.40,74.80,210.00,4.00,0.00,29.86,M,10.00,M,OVC,M,M,M,4400.00,M,M,M,M,M,M,M,M,M,M,31.62,KCXP 021655Z AUTO 21004KT 10SM OVC044 02/M02 A2986 RMK AO2,M
MEV,2025-04-02 16:55,-119.7500,38.9963,1441.42,33.80,26.60,74.63,0.00,0.00,0.00,29.85,M,10.00,M,OVC,M,M,M,5000.00,M,M,M,M,M,M,M,M,M,M,33.80,KMEV 021655Z AUTO 00000KT 10SM OVC050 01/M03 A2985 RMK AO2,M
HTH,2025-04-02 16:55,-118.6315,38.5448,1282.89,37.40,32.00,80.65,320.00,11.00,0.00,29.83,M,10.00,M,FEW,SCT,BKN,M,300.00,4900.00,5500.00,M,M,M,M,M,M,M,M,29.29,KHTH 021655Z AUTO 32011KT 10SM FEW003 SCT049 BKN055 03/M00 A2983 RMK A01,M
TMT,2025-04-02 16:55,-117.1971,39.4643,1749.34,29.30,25.00,83.76,340.00,7.00,0.00,29.78,M,10.00,M,SCT,BKN,OVC,M,1500.00,4000.00,6000.00,M,M,M,M,M,M,M,M,21.49,KTMT 021655Z AUTO 34007KT 10SM SCT015 BKN040 OVC060 M01/M04 A2978 RMK AO2 T10151039,M
INS,2025-04-02 16:55,-115.6733,36.5872,955.00,45.00,32.40,61.09,0.00,0.00,0.00,29.72,1004.60,10.00,M,SCT,BKN,BKN,M,5500.00,8000.00,12000.00,M,M,M,M,M,M,M,M,45.00,KINS 021655Z AUTO 00000KT 10SM SCT055 BKN080 BKN120 07/00 A2972 RMK AO2 SLP046 T00720002 $,M
LSV,2025-04-02 16:55,-115.0343,36.2362,570.00,54.00,31.00,41.27,300.00,19.00,0.00,29.65,1003.30,10.00,M,FEW,BKN,BKN,BKN,7000.00,10000.00,12000.00,20000.00,M,M,M,M,27.00,300.00,2025-04-02 15:57,54.00,KLSV 021655Z 30019KT 10SM FEW070 BKN100 BKN120 BKN200 12/M01 A2965 RMK AO2A PK WND 30027/1557 SLP033 T01231006 FZRANO $,M
EKO,2025-04-02 16:56,-115.7860,40.8242,1367.00,32.00,27.00,81.55,0.00,0.00,0.00,29.76,1009.40,10.00,M,SCT,OVC,M,M,4100.00,8000.00,M,M,M,M,M,M,M,M,M,32.00,KEKO 021656Z AUTO 00000KT 10SM SCT041 OVC080 00/M03 A2976 RMK AO2 SLP094 T00001028,M
WMC,2025-04-02 16:56,-117.8072,40.9019,1315.00,36.00,31.00,81.86,330.00,9.00,0.00,29.82,1010.40,10.00,M,SCT,BKN,M,M,900.00,5500.00,M,M,M,M,M,M,M,M,M,28.49,KWMC 021656Z AUTO 33009KT 10SM SCT009 BKN055 02/M01 A2982 RMK AO2 SLP104 T00221006 TSNO,M
HND,2025-04-02 16:56,-115.1344,35.9729,742.79,50.00,32.00,49.81,300.00,10.00,T,29.73,1007.80,10.00,M,FEW,M,M,M,3500.00,M,M,M,M,M,M,M,M,M,M,50.00,KHND 021656Z AUTO 30010KT 10SM FEW035 10/00 A2973 RMK AO2 RAE03 SLP078 P0000 T01000000 $,M
TPH,2025-04-02 16:56,-117.0904,38.0505,1654.00,38.00,19.00,45.90,M,M,0.00,29.73,1006.70,10.00,M,SCT,BKN,M,M,4100.00,5000.00,M,M,M,M,M,M,M,M,M,M,KTPH 021656Z AUTO 10SM SCT041 BKN050 03/M07 A2973 RMK AO2 SLP067 T00331072 $,M
LAS,2025-04-02 16:56,-115.1634,36.0719,663.00,51.00,31.00,46.09,320.00,18.00,0.00,29.71,1005.30,10.00,28.00,FEW,BKN,OVC,M,6000.00,10000.00,20000.00,M,M,M,M,M,28.00,320.00,2025-04-02 16:49,51.00,KLAS 021656Z 32018G28KT 10SM FEW060 BKN100 OVC200 11/M01 A2971 RMK AO2 PK WND 32028/1649 SLP053 VIRGA DSNT SW-NW T01061006,M
NFL,2025-04-02 16:57,-118.7010,39.4166,1199.00,41.00,25.00,52.61,350.00,12.00,0.00,29.82,1007.60,10.00,M,FEW,BKN,BKN,M,3500.00,5500.00,10000.00,M,M,M,M,M,M,M,M,33.46,KNFL 021657Z 35012KT 10SM FEW035 BKN055 BKN100 05/M04 A2982 RMK AO2 SLP076 T00501039,M
10U,2025-04-02 17:00,-116.1876,41.9532,1637.00,30.20,24.80,80.07,0.00,0.00,0.00,29.79,M,10.00,M,OVC,M,M,M,1500.00,M,M,M,M,M,M,M,M,M,M,30.20,K10U 021700Z AUTO 00000KT 10SM OVC015 M01/M04 A2979 RMK AO2,M
MEV,2025-04-02 17:05,-119.7500,38.9963,1441.42,35.60,26.60,69.46,0.00,0.00,0.00,29.85,M,10.00,M,OVC,M,M,M,4800.00,M,M,M,M,M,M,M,M,M,M,35.60,KMEV 021705Z AUTO 00000KT 10SM OVC048 02/M03 A2985 RMK AO2,M
RTS,2025-04-02 17:05,-119.8764,39.6682,1539.00,35.60,24.80,64.46,350.00,12.00,0.00,29.85,M,10.00,M,FEW,M,M,M,4800.00,M,M,M,M,M,M,M,M,M,M,26.58,KRTS 021705Z AUTO 35012KT 10SM FEW048 02/M04 A2985 RMK AO2,M
BVU,2025-04-02 17:15,-114.8611,35.9475,671.00,53.60,30.20,40.54,310.00,13.00,0.00,29.69,M,10.00,21.00,CLR,M,M,M,M,M,M,M,M,M,M,M,M,M,M,53.60,KBVU 021715Z AUTO 31013G21KT 10SM CLR 12/M01 A2969 RMK AO2,M
BAM,2025-04-02 17:15,-116.8743,40.5990,1382.36,33.80,32.00,93.03,350.00,4.00,0.00,29.82,M,10.00,M,BKN,OVC,M,M,3600.00,4700.00,M,M,M,M,M,M,M,M,M,29.52,KBAM 021715Z AUTO 35004KT 10SM BKN036 OVC047 01/00 A2982 RMK AO1,M
CXP,2025-04-02 17:15,-119.7326,39.1923,1431.00,35.60,26.60,69.46,M,3.00,0.00,29.86,M,10.00,M,OVC,M,M,M,4600.00,M,M,M,M,M,M,M,M,M,M,32.80,KCXP 021715Z AUTO VRB03KT 10SM OVC046 02/M03 A2986 RMK AO2,M
HTH,2025-04-02 17:15,-118.6315,38.5448,1282.89,37.40,30.20,74.98,300.00,11.00,0.00,29.83,M,10.00,M,SCT,BKN,OVC,M,3200.00,3800.00,5500.00,M,M,M,M,M,M,M,M,29.29,KHTH 021715Z AUTO 30011KT 10SM SCT032 BKN038 OVC055 03/M01 A2983 RMK A01,M
TMT,2025-04-02 17:15,-117.1971,39.4643,1749.34,29.50,25.70,85.53,340.00,8.00,0.00,29.79,M,10.00,M,SCT,SCT,OVC,M,3000.00,3800.00,6000.00,M,-SN,M,M,M,M,M,M,21.03,KTMT 021715Z AUTO 34008KT 10SM -SN SCT030 SCT038 OVC060 M01/M03 A2979 RMK AO2 T10141035,M
10U,2025-04-02 17:20,-116.1876,41.9532,1637.00,30.20,24.80,80.07,0.00,0.00,0.00,29.79,M,10.00,M,BKN,OVC,M,M,1500.00,2400.00,M,M,M,M,M,M,M,M,M,30.20,K10U 021720Z AUTO 00000KT 10SM BKN015 OVC024 M01/M04 A2979 RMK AO2,M
EKO,2025-04-02 17:30,-115.7860,40.8242,1367.00,35.00,28.00,75.36,330.00,5.00,0.00,29.76,M,10.00,M,BKN,M,M,M,2500.00,M,M,M,M,M,M,M,M,M,M,29.96,KEKO 021730Z AUTO 33005KT 10SM BKN025 02/M02 A2976 RMK AO2 T00171022,M
BVU,2025-04-02 17:35,-114.8611,35.9475,671.00,53.60,30.20,40.54,300.00,12.00,0.00,29.69,M,10.00,21.00,CLR,M,M,M,M,M,M,M,M,M,M,M,M,M,M,53.60,KBVU 021735Z AUTO 30012G21KT 10SM CLR 12/M01 A2969 RMK AO2,M
BAM,2025-04-02 17:35,-116.8743,40.5990,1382.36,35.60,32.00,86.59,340.00,4.00,0.00,29.82,M,10.00,M,BKN,OVC,M,M,4600.00,5000.00,M,M,M,M,M,M,M,M,M,31.62,KBAM 021735Z AUTO 34004KT 10SM BKN046 OVC050 02/00 A2982 RMK AO1,M
CXP,2025-04-02 17:35,-119.7326,39.1923,1431.00,35.60,23.00,59.79,0.00,0.00,0.00,29.86,M,10.00,M,OVC,M,M,M,5000.00,M,M,M,M,M,M,M,M,M,M,35.60,KCXP 021735Z AUTO 00000KT 10SM OVC050 02/M05 A2986 RMK AO2,M
HTH,2025-04-02 17:35,-118.6315,38.5448,1282.89,39.20,28.40,64.93,320.00,12.00,0.00,29.83,M,10.00,M,BKN,BKN,OVC,M,3300.00,4100.00,5500.00,M,M,M,M,M,M,M,M,31.17,KHTH 021735Z AUTO 32012KT 10SM BKN033 BKN041 OVC055 04/M02 A2983 RMK A01,M
TMT,2025-04-02 17:35,-117.1971,39.4643,1749.34,29.30,26.20,88.03,330.00,5.00,0.00,29.79,M,10.00,M,SCT,SCT,SCT,M,3000.00,6000.00,7500.00,M,M,M,M,M,M,M,M,23.19,KTMT 021735Z AUTO 33005KT 10SM SCT030 SCT060 SCT075 M01/M03 A2979 RMK AO2 T10151032,M
WMC,2025-04-02 17:38,-117.8072,40.9019,1315.00,38.00,32.00,78.77,330.00,5.00,0.00,29.82,M,10.00,M,SCT,BKN,M,M,1300.00,2000.00,M,M,M,M,M,M,M,M,M,33.52,KWMC 021738Z AUTO 33005KT 10SM SCT013 BKN020 03/00 A2982 RMK AO2 T00330000 TSNO,M
10U,2025-04-02 17:40,-116.1876,41.9532,1637.00,32.00,26.60,80.22,M,3.00,0.00,29.79,M,10.00,M,BKN,OVC,M,M,1400.00,2000.00,M,M,M,M,M,M,M,M,M,28.69,K10U 021740Z AUTO VRB03KT 10SM BKN014 OVC020 00/M03 A2979 RMK AO2,M
ELY,2025-04-02 17:47,-114.8453,39.2950,1909.00,35.60,23.00,59.79,20.00,11.00,0.00,29.70,M,10.00,19.00,SCT,BKN,M,M,2200.00,3100.00,M,M,M,M,M,M,M,M,M,27.02,KELY 021747Z AUTO 02011G19KT 10SM SCT022 BKN031 02/M05 A2970 RMK AO2 WSHFT 1730,M
P68,2025-04-02 17:53,-116.0056,39.6014,1993.00,36.00,26.00,66.69,360.00,13.00,0.00,29.72,1005.90,M,M,M,M,M,M,M,M,M,M,M,M,M,M,M,M,M,26.69,KP68 021753Z AUTO 36013KT 02/M03 A2972 RMK AO1 SLP059 60001 T00221033 10028 21039 51007,M
DRA,2025-04-02 17:53,-116.0278,36.6206,1009.00,50.00,25.00,37.39,70.00,6.00,0.00,29.72,1004.20,10.00,M,FEW,M,M,M,4300.00,M,M,M,M,M,M,M,M,M,M,50.00,KDRA 021753Z AUTO 07006KT 10SM FEW043 10/M04 A2972 RMK AO2 SLP042 T01001039 10100 20039 51009,M
ELY,2025-04-02 17:53,-114.8453,39.2950,1909.00,35.00,23.00,61.23,350.00,10.00,0.00,29.70,1005.20,10.00,20.00,BKN,BKN,M,M,2200.00,3600.00,M,M,M,M,M,M,M,M,M,26.73,KELY 021753Z AUTO 35010G20KT 10SM BKN022 BKN036 02/M05 A2970 RMK AO2 WSHFT 1730 SLP052 60000 T00171050 10017 21050 51004,M
VGT,2025-04-02 17:53,-115.1933,36.2111,667.00,50.00,34.00,53.97,310.00,20.00,0.00,29.70,1007.10,10.00,30.00,SCT,M,M,M,6000.00,M,M,M,M,M,M,M,31.00,310.00,2025-04-02 17:37,50.00,KVGT 021753Z 31020G30KT 10SM SCT060 10/01 A2970 RMK AO2 PK WND 31031/1737 SLP071 T01000011 10106 20078 51014,M
LOL,2025-04-02 17:53,-118.5701,40.0684,1192.43,41.00,25.00,52.61,10.00,5.00,T,29.83,1010.80,10.00,M,BKN,BKN,OVC,M,4000.00,4700.00,7000.00,M,M,M,M,M,M,M,M,37.08,KLOL 021753Z AUTO 01005KT 10SM BKN040 BKN047 OVC070 05/M04 A2983 RMK AO2 RAB30E41 SLP108 P0000 60000 T00501039 10050 21028 51006,M
BVU,2025-04-02 17:55,-114.8611,35.9475,671.00,53.60,30.20,40.54,300.00,12.00,0.00,29.69,M,10.00,M,CLR,M,M,M,M,M,M,M,M,M,M,M,M,M,M,53.60,KBVU 021755Z AUTO 30012KT 10SM CLR 12/M01 A2969 RMK AO2,M
RNO,2025-04-02 17:55,-119.7711,39.4839,1341.00,41.00,22.00,46.39,340.00,9.00,0.00,29.84,1010.10,10.00,M,BKN,M,M,M,4500.00,M,M,M,M,M,M,M,M,M,M,34.70,KRNO 021755Z 34009KT 10SM BKN045 05/M06 A2984 RMK AO2 SLP101 T00501056 10050 20011 51004,M
BAM,2025-04-02 17:55,-116.8743,40.5990,1382.36,35.60,30.20,80.51,350.00,3.00,0.00,29.82,M,10.00,M,BKN,OVC,M,M,4200.00,5000.00,M,M,M,M,M,M,M,M,M,32.80,KBAM 021755Z AUTO 35003KT 10SM BKN042 OVC050 02/M01 A2982 RMK AO1,M
CXP,2025-04-02 17:55,-119.7326,39.1923,1431.00,37.40,21.20,51.61,20.00,5.00,0.00,29.86,M,10.00,M,FEW,OVC,M,M,4100.00,5000.00,M,M,M,M,M,M,M,M,M,32.81,KCXP 021755Z AUTO 02005KT 10SM FEW041 OVC050 03/M06 A2986 RMK AO2,M
HTH,2025-04-02 17:55,-118.6315,38.5448,1282.89,41.00,24.80,52.17,340.00,16.00,0.00,29.82,M,10.00,M,SCT,BKN,BKN,M,3400.00,4200.00,8000.00,M,M,M,M,M,M,M,M,32.15,KHTH 021755Z AUTO 34016KT 10SM SCT034 BKN042 BKN080 05/M04 A2982 RMK A01,M
TMT,2025-04-02 17:55,-117.1971,39.4643,1749.34,30.00,25.70,83.80,350.00,3.00,0.00,29.79,M,10.00,M,SCT,SCT,SCT,M,1900.00,2900.00,6500.00,M,M,M,M,M,M,M,M,26.40,KTMT 021755Z AUTO 35003KT 10SM SCT019 SCT029 SCT065 M01/M03 A2979 RMK AO2 T10111035 11010 21047,M
INS,2025-04-02 17:55,-115.6733,36.5872,955.00,46.20,29.50,51.90,0.00,0.00,0.00,29.73,1005.00,10.00,M,SCT,BKN,M,M,6000.00,7500.00,M,M,M,M,M,M,M,M,M,46.20,KINS 021755Z AUTO 00000KT 10SM SCT060 BKN075 08/M01 A2973 RMK AO2 SLP050 60001 T00791014 10081 20029 52008 $,M
LSV,2025-04-02 17:55,-115.0343,36.2362,570.00,55.60,31.00,38.94,300.00,18.00,0.00,29.66,1003.60,10.00,26.00,BKN,BKN,M,M,8000.00,15000.00,M,M,M,M,M,M,26.00,300.00,2025-04-02 17:44,55.60,KLSV 021755Z 30018G26KT 10SM BKN080 BKN150 13/M00 A2966 RMK AO2A PK WND 30026/44 SLP036 T01311005 10131 20089 52012 FZRANO $,M
EKO,2025-04-02 17:56,-115.7860,40.8242,1367.00,35.00,28.00,75.36,M,3.00,0.00,29.76,1009.10,10.00,M,FEW,BKN,BKN,M,2600.00,3500.00,5000.00,M,M,M,M,M,M,M,M,32.12,KEKO 021756Z AUTO VRB03KT 10SM FEW026 BKN035 BKN050 02/M02 A2976 RMK AO2 SLP091 60005 T00171022 10022 21039 51008,M
WMC,2025-04-02 17:56,-117.8072,40.9019,1315.00,39.00,31.00,72.75,M,5.00,0.00,29.83,1010.50,10.00,M,SCT,BKN,M,M,1500.00,2400.00,M,M,M,M,M,M,M,M,M,34.71,KWMC 021756Z AUTO VRB05KT 10SM SCT015 BKN024 04/M01 A2983 RMK AO2 SLP105 60000 T00391006 10039 21011 51009 TSNO,M
HND,2025-04-02 17:56,-115.1344,35.9729,742.79,53.00,31.00,42.81,290.00,11.00,0.00,29.73,1007.90,10.00,M,OVC,M,M,M,9500.00,M,M,M,M,M,M,M,M,M,M,53.00,KHND 021756Z AUTO 29011KT 10SM OVC095 12/M01 A2973 RMK AO2 SLP079 60000 T01171006 10117 20067 51011 $,M
TPH,2025-04-02 17:56,-117.0904,38.0505,1654.00,42.00,18.00,37.64,M,M,0.00,29.73,1006.10,10.00,M,FEW,BKN,M,M,4500.00,5500.00,M,M,M,M,M,M,M,M,M,M,KTPH 021756Z AUTO 10SM FEW045 BKN055 06/M08 A2973 RMK AO2 SLP061 T00561078 10061 21017 50002 $,M
LAS,2025-04-02 17:56,-115.1634,36.0719,663.00,52.00,32.00,46.25,320.00,16.00,0.00,29.72,1005.70,10.00,25.00,FEW,SCT,BKN,BKN,4000.00,6000.00,10000.00,20000.00,M,M,M,M,M,M,M,52.00,KLAS 021756Z 32016G25KT 10SM FEW040 SCT060 BKN100 BKN200 11/00 A2972 RMK AO2 SLP057 VIRGA DSNT SW-NW T01110000 10117 20083 51012,M
NFL,2025-04-02 17:57,-118.7010,39.4166,1199.00,44.00,24.00,44.96,350.00,8.00,0.00,29.82,1007.60,10.00,M,SCT,BKN,BKN,M,3600.00,5500.00,10000.00,M,M,M,M,M,M,M,M,38.90,KNFL 021757Z 35008KT 10SM SCT036 BKN055 BKN100 07/M04 A2982 RMK AO2 SLP076 SH DSNT W-NW T00671044 10072 20022 51006,M
10U,2025-04-02 18:00,-116.1876,41.9532,1637.00,32.00,26.60,80.22,0.00,0.00,0.00,29.79,M,10.00,M,SCT,BKN,BKN,M,1300.00,1900.00,2400.00,M,M,M,M,M,M,M,M,32.00,K10U 021800Z AUTO 00000KT 10SM SCT013 BKN019 BKN024 M00/M03 A2979 RMK AO2,M
ELY,2025-04-02 18:07,-114.8453,39.2950,1909.00,34.00,23.00,63.72,360.00,14.00,T,29.70,M,8.00,M,FEW,SCT,BKN,M,2600.00,3100.00,4100.00,M,-SN,M,M,M,M,M,M,23.74,KELY 021807Z AUTO 36014KT 8SM -SN FEW026 SCT031 BKN041 01/M05 A2970 RMK AO2 SNB03 P0000 T00111050,M
BVU,2025-04-02 18:15,-114.8611,35.9475,671.00,55.40,28.40,35.28,310.00,14.00,0.00,29.69,M,10.00,20.00,CLR,M,M,M,M,M,M,M,M,M,M,M,M,M,M,55.40,KBVU 021815Z AUTO 31014G20KT 10SM CLR 13/M02 A2969 RMK AO2,M
BAM,2025-04-02 18:15,-116.8743,40.5990,1382.36,37.40,32.00,80.65,0.00,0.00,0.00,29.82,M,10.00,M,SCT,OVC,M,M,3700.00,4500.00,M,M,M,M,M,M,M,M,M,37.40,KBAM 021815Z AUTO 00000KT 10SM SCT037 OVC045 03/00 A2982 RMK AO1,M
CXP,2025-04-02 18:15,-119.7326,39.1923,1431.00,37.40,23.00,55.68,340.00,7.00,0.00,29.86,M,10.00,M,BKN,OVC,M,M,4200.00,5500.00,M,M,M,M,M,M,M,M,M,31.36,KCXP 021815Z AUTO 34007KT 10SM BKN042 OVC055 03/M05 A2986 RMK AO2,M
RTS,2025-04-02 18:15,-119.8764,39.6682,1539.00,35.60,19.40,51.33,M,3.00,0.00,29.85,M,10.00,13.00,BKN,BKN,M,M,3500.00,4100.00,M,M,M,M,M,M,M,M,M,32.80,KRTS 021815Z AUTO VRB03G13KT 10SM BKN035 BKN041 02/M07 A2985 RMK AO2,M
MEV,2025-04-02 18:15,-119.7500,38.9963,1441.42,37.40,21.20,51.61,M,M,0.00,29.84,M,10.00,M,FEW,SCT,OVC,M,2900.00,4000.00,5500.00,M,M,M,M,M,M,M,M,M,KMEV 021815Z AUTO 10SM FEW029 SCT040 OVC055 03/M06 A2984 RMK AO2,M
HTH,2025-04-02 18:15,-118.6315,38.5448,1282.89,41.00,24.80,52.17,360.00,15.00,0.00,29.83,M,10.00,22.00,BKN,BKN,M,M,3900.00,4600.00,M,M,M,M,M,M,M,M,M,32.45,KHTH 021815Z AUTO 36015G22KT 10SM BKN039 BKN046 05/M04 A2983 RMK A01,M
TMT,2025-04-02 18:15,-117.1971,39.4643,1749.34,31.00,25.50,79.80,0.00,0.00,0.00,29.79,M,10.00,M,SCT,SCT,M,M,3100.00,3900.00,M,M,M,M,M,M,M,M,M,31.00,KTMT 021815Z AUTO 00000KT 10SM SCT031 SCT039 00/M04 A2979 RMK AO2 T10051036,M
10U,2025-04-02 18:20,-116.1876,41.9532,1637.00,33.80,26.60,74.63,0.00,0.00,0.00,29.79,M,10.00,M,SCT,BKN,M,M,1700.00,2800.00,M,M,M,M,M,M,M,M,M,33.80,K10U 021820Z AUTO 00000KT 10SM SCT017 BKN028 01/M03 A2979 RMK AO2,M
RTS,2025-04-02 18:25,-119.8764,39.6682,1539.00,37.40,21.20,51.61,350.00,7.00,0.00,29.85,M,10.00,14.00,BKN,BKN,M,M,3500.00,4200.00,M,M,M,M,M,M,M,M,M,31.36,KRTS 021825Z AUTO 35007G14KT 10SM BKN035 BKN042 03/M06 A2985 RMK AO2,M
BVU,2025-04-02 18:35,-114.8611,35.9475,671.00,55.40,28.40,35.28,300.00,13.00,0.00,29.69,M,10.00,18.00,FEW,M,M,M,9000.00,M,M,M,M,M,M,M,M,M,M,55.40,KBVU 021835Z AUTO 30013G18KT 10SM FEW090 13/M02 A2969 RMK AO2,M
BAM,2025-04-02 18:35,-116.8743,40.5990,1382.36,39.20,32.00,75.16,50.00,4.00,0.00,29.81,M,10.00,M,SCT,SCT,BKN,M,2200.00,2800.00,4600.00,M,M,M,M,M,M,M,M,35.83,KBAM 021835Z AUTO 05004KT 10SM SCT022 SCT028 BKN046 04/00 A2981 RMK AO1,M
CXP,2025-04-02 18:35,-119.7326,39.1923,1431.00,39.20,24.80,55.95,310.00,8.00,0.00,29.86,M,10.00,M,FEW,OVC,M,M,4400.00,6000.00,M,M,M,M,M,M,M,M,M,32.98,KCXP 021835Z AUTO 31008KT 10SM FEW044 OVC060 04/M04 A2986 RMK AO2,M
MEV,2025-04-02 18:35,-119.7500,38.9963,1441.42,39.20,21.20,48.10,M,4.00,0.00,29.84,M,10.00,M,FEW,SCT,OVC,M,4100.00,5000.00,6000.00,M,M,M,M,M,M,M,M,35.83,KMEV 021835Z AUTO VRB04KT 10SM FEW041 SCT050 OVC060 04/M06 A2984 RMK AO2,M
HTH,2025-04-02 18:35,-118.6315,38.5448,1282.89,42.80,23.00,45.14,10.00,19.00,0.00,29.82,M,10.00,M,FEW,SCT,M,M,3900.00,8000.00,M,M,M,M,M,M,M,M,M,33.72,KHTH 021835Z AUTO 01019KT 10SM FEW039 SCT080 06/M05 A2982 RMK A01,M
TMT,2025-04-02 18:35,-117.1971,39.4643,1749.34,32.00,26.60,80.22,60.00,5.00,0.00,29.78,M,10.00,M,SCT,SCT,OVC,M,2300.00,3000.00,3700.00,M,M,M,M,M,M,M,M,26.40,KTMT 021835Z AUTO 06005KT 10SM SCT023 SCT030 OVC037 00/M03 A2978 RMK AO2 T00001030,M
10U,2025-04-02 18:40,-116.1876,41.9532,1637.00,33.80,24.80,69.25,0.00,0.00,0.00,29.78,M,10.00,M,FEW,BKN,OVC,M,1800.00,2600.00,3100.00,M,M,M,M,M,M,M,M,33.80,K10U 021840Z AUTO 00000KT 10SM FEW018 BKN026 OVC031 01/M04 A2978 RMK AO2,M
WMC,2025-04-02 18:46,-117.8072,40.9019,1315.00,40.00,30.00,67.18,20.00,6.00,0.00,29.82,M,10.00,M,SCT,BKN,M,M,1800.00,4300.00,M,M,M,M,M,M,M,M,M,35.17,KWMC 021846Z AUTO 02006KT 10SM SCT018 BKN043 04/M01 A2982 RMK AO2 T00441011 TSNO,M
CXP,2025-04-02 18:50,-119.7326,39.1923,1431.00,39.20,23.00,51.89,310.00,8.00,0.00,29.85,M,10.00,M,SCT,OVC,M,M,4500.00,6000.00,M,M,M,M,M,M,M,M,M,32.98,KCXP 021850Z AUTO 31008KT 10SM SCT045 OVC060 04/M05 A2985 RMK AO2,M
P68,2025-04-02 18:53,-116.0056,39.6014,1993.00,36.00,23.00,58.85,20.00,7.00,0.00,29.72,1006.00,M,16.00,M,M,M,M,M,M,M,M,M,M,M,M,M,M,M,29.65,KP68 021853Z AUTO 02007G16KT 02/M05 A2972 RMK AO1 SLP060 T00221050,M
DRA,2025-04-02 18:53,-116.0278,36.6206,1009.00,52.00,25.00,34.72,M,M,0.00,29.70,1003.50,10.00,M,FEW,M,M,M,5500.00,M,M,M,M,M,M,M,M,M,M,52.00,KDRA 021853Z AUTO 10SM FEW055 11/M04 A2970 RMK AO2 SLP035 T01111039,M
ELY,2025-04-02 18:53,-114.8453,39.2950,1909.00,34.00,20.00,56.12,30.00,16.00,T,29.69,1005.20,10.00,23.00,SCT,BKN,OVC,M,2800.00,3500.00,6000.00,M,M,M,M,M,M,M,M,23.03,KELY 021853Z AUTO 03016G23KT 10SM SCT028 BKN035 OVC060 01/M07 A2969 RMK AO2 SNB03E24 SLP052 P0000 T00111067,M
VGT,2025-04-02 18:53,-115.1933,36.2111,667.00,50.00,34.00,53.97,310.00,22.00,T,29.70,1007.00,10.00,32.00,OVC,M,M,M,6500.00,M,M,M,-RA,M,M,M,32.00,310.00,2025-04-02 18:47,50.00,KVGT 021853Z 31022G32KT 10SM -RA OVC065 10/01 A2970 RMK AO2 PK WND 31032/1847 RAB39 SLP070 P0000 T01000011,M
LOL,2025-04-02 18:53,-118.5701,40.0684,1192.43,42.00,26.00,52.76,70.00,8.00,T,29.81,1010.40,10.00,M,SCT,SCT,BKN,M,4800.00,5500.00,7000.00,M,-RA,M,M,M,M,M,M,36.43,KLOL 021853Z AUTO 07008KT 10SM -RA SCT048 SCT055 BKN070 06/M03 A2981 RMK AO2 RAB04E21B48SNB21E31 SLP104 P0000 T00561033,M
BVU,2025-04-02 18:55,-114.8611,35.9475,671.00,55.40,28.40,35.28,290.00,12.00,0.00,29.69,M,10.00,18.00,SCT,M,M,M,9000.00,M,M,M,M,M,M,M,M,M,M,55.40,KBVU 021855Z AUTO 29012G18KT 260V320 10SM SCT090 13/M02 A2969 RMK AO2,M
RNO,2025-04-02 18:55,-119.7711,39.4839,1341.00,40.00,22.00,48.22,M,5.00,0.00,29.84,1010.30,10.00,M,BKN,M,M,M,4800.00,M,M,M,M,M,M,M,M,M,M,35.90,KRNO 021855Z VRB05KT 10SM BKN048 04/M06 A2984 RMK AO2 SLP103 T00441056,M
BAM,2025-04-02 18:55,-116.8743,40.5990,1382.36,39.20,30.20,69.88,110.00,4.00,0.00,29.81,M,10.00,M,SCT,SCT,SCT,M,2200.00,2800.00,5500.00,M,M,M,M,M,M,M,M,35.83,KBAM 021855Z AUTO 11004KT 10SM SCT022 SCT028 SCT055 04/M01 A2981 RMK AO1,M
MEV,2025-04-02 18:55,-119.7500,38.9963,1441.42,39.20,19.40,44.55,340.00,10.00,0.00,29.84,M,10.00,M,FEW,SCT,OVC,M,4300.00,4800.00,6000.00,M,M,M,M,M,M,M,M,32.00,KMEV 021855Z AUTO 34010KT 10SM FEW043 SCT048 OVC060 04/M07 A2984 RMK AO2,M
HTH,2025-04-02 18:55,-118.6315,38.5448,1282.89,42.80,23.00,45.14,350.00,13.00,0.00,29.82,M,10.00,19.00,FEW,FEW,BKN,M,4200.00,6000.00,8000.00,M,M,M,M,M,M,M,M,35.40,KHTH 021855Z AUTO 35013G19KT 10SM FEW042 FEW060 BKN080 06/M05 A2982 RMK A01,M
TMT,2025-04-02 18:55,-117.1971,39.4643,1749.34,33.40,27.30,78.05,10.00,8.00,0.00,29.78,M,10.00,M,SCT,BKN,OVC,M,2100.00,3700.00,4700.00,M,M,M,M,M,M,M,M,25.84,KTMT 021855Z AUTO 01008KT 10SM SCT021 BKN037 OVC047 01/M03 A2978 RMK AO2 T00081026,M
INS,2025-04-02 18:55,-115.6733,36.5872,955.00,49.60,27.50,42.09,260.00,4.00,0.00,29.72,1004.40,10.00,M,FEW,FEW,M,M,14000.00,17000.00,M,M,M,M,M,M,M,M,M,47.97,KINS 021855Z AUTO 26004KT 10SM FEW140 FEW170 10/M02 A2972 RMK AO2 SLP044 T00981025 $,M
LSV,2025-04-02 18:55,-115.0343,36.2362,570.00,57.40,31.30,36.93,300.00,19.00,0.00,29.66,1003.50,10.00,M,FEW,SCT,M,M,17000.00,20000.00,M,M,M,M,M,M,M,M,M,57.40,KLSV 021855Z AUTO 30019KT 10SM FEW170 SCT200 14/M00 A2966 RMK AO2 SLP035 T01411004 FZRANO $,M
EKO,2025-04-02 18:56,-115.7860,40.8242,1367.00,39.00,29.00,67.06,110.00,7.00,0.00,29.74,1008.60,10.00,M,SCT,BKN,M,M,3600.00,4600.00,M,M,M,M,M,M,M,M,M,33.31,KEKO 021856Z AUTO 11007KT 10SM SCT036 BKN046 04/M02 A2974 RMK AO2 SLP086 T00391017,M
WMC,2025-04-02 18:56,-117.8072,40.9019,1315.00,42.00,30.00,62.18,30.00,6.00,0.00,29.82,1009.80,10.00,M,FEW,SCT,M,M,2000.00,4300.00,M,M,M,M,M,M,M,M,M,37.57,KWMC 021856Z AUTO 03006KT 10SM FEW020 SCT043 06/M01 A2982 RMK AO2 SLP098 T00561011 TSNO,M
HND,2025-04-02 18:56,-115.1344,35.9729,742.79,51.00,31.00,46.09,320.00,8.00,0.00,29.73,1008.10,10.00,M,OVC,M,M,M,9000.00,M,M,M,M,M,M,M,M,M,M,51.00,KHND 021856Z AUTO 32008KT 10SM OVC090 11/M01 A2973 RMK AO2 SLP081 T01061006 $,M
TPH,2025-04-02 18:56,-117.0904,38.0505,1654.00,44.00,17.00,33.39,M,M,0.00,29.71,1005.40,10.00,M,FEW,SCT,M,M,5500.00,7000.00,M,M,M,M,M,M,M,M,M,M,KTPH 021856Z AUTO 10SM FEW055 SCT070 07/M08 A2971 RMK AO2 SLP054 T00671083 $,M
LAS,2025-04-02 18:56,-115.1634,36.0719,663.00,51.00,33.00,49.96,320.00,18.00,0.00,29.72,1005.80,10.00,M,FEW,SCT,BKN,BKN,4000.00,6000.00,10000.00,20000.00,M,M,M,M,30.00,330.00,2025-04-02 18:27,51.00,KLAS 021856Z 32018KT 10SM FEW040 SCT060 BKN100 BKN200 11/01 A2972 RMK AO2 PK WND 33030/1827 SLP058 VIRGA DSNT W-N T01060006,M
NFL,2025-04-02 18:57,-118.7010,39.4166,1199.00,47.00,24.00,40.12,M,5.00,0.00,29.81,1007.10,10.00,16.00,FEW,BKN,BKN,M,3000.00,5000.00,8000.00,M,M,M,M,M,M,M,M,44.21,KNFL 021857Z VRB05G16KT 10SM FEW030 BKN050 BKN080 08/M04 A2981 RMK AO2 SLP071 SH DSNT N-E-S-SW T00831044,M
10U,2025-04-02 19:00,-116.1876,41.9532,1637.00,33.80,24.80,69.25,M,4.00,0.00,29.78,M,10.00,M,BKN,OVC,M,M,2300.00,2900.00,M,M,M,M,M,M,M,M,M,29.52,K10U 021900Z AUTO VRB04KT 10SM BKN023 OVC029 01/M04 A2978 RMK AO2,M
BVU,2025-04-02 19:15,-114.8611,35.9475,671.00,57.20,30.20,35.57,300.00,14.00,0.00,29.68,M,10.00,19.00,BKN,M,M,M,9000.00,M,M,M,M,M,M,M,M,M,M,57.20,KBVU 021915Z AUTO 30014G19KT 10SM BKN090 14/M01 A2968 RMK AO2,M
BAM,2025-04-02 19:15,-116.8743,40.5990,1382.36,42.80,32.00,65.38,60.00,4.00,0.00,29.81,M,10.00,M,SCT,BKN,M,M,3500.00,4300.00,M,M,M,M,M,M,M,M,M,40.03,KBAM 021915Z AUTO 06004KT 10SM SCT035 BKN043 06/00 A2981 RMK AO1,M
CXP,2025-04-02 19:15,-119.7326,39.1923,1431.00,39.20,23.00,51.89,0.00,0.00,0.00,29.85,M,10.00,11.00,SCT,BKN,BKN,M,4400.00,5000.00,6500.00,M,M,M,M,M,M,M,M,39.20,KCXP 021915Z AUTO 00000G11KT 10SM SCT044 BKN050 BKN065 04/M05 A2985 RMK AO2,M
MEV,2025-04-02 19:15,-119.7500,38.9963,1441.42,39.20,21.20,48.10,300.00,5.00,0.00,29.83,M,10.00,M,FEW,OVC,M,M,4300.00,6000.00,M,M,M,M,M,M,M,M,M,34.95,KMEV 021915Z AUTO 30005KT 10SM FEW043 OVC060 04/M06 A2983 RMK AO2,M
HTH,2025-04-02 19:15,-118.6315,38.5448,1282.89,44.60,23.00,42.14,350.00,15.00,0.00,29.82,M,9.00,22.00,FEW,FEW,SCT,M,3800.00,6000.00,7000.00,M,M,M,M,M,M,M,M,37.11,KHTH 021915Z AUTO 35015G22KT 9SM FEW038 FEW060 SCT070 07/M05 A2982 RMK A01,M
TMT,2025-04-02 19:15,-117.1971,39.4643,1749.34,32.00,27.70,83.94,310.00,6.00,0.00,29.78,M,10.00,M,SCT,BKN,OVC,M,1500.00,1900.00,2600.00,M,M,M,M,M,M,M,M,25.53,KTMT 021915Z AUTO 31006KT 10SM SCT015 BKN019 OVC026 00/M02 A2978 RMK AO2 T00001024,M
10U,2025-04-02 19:20,-116.1876,41.9532,1637.00,35.60,26.60,69.46,0.00,0.00,0.00,29.77,M,10.00,M,SCT,BKN,OVC,M,2400.00,3000.00,5000.00,M,M,M,M,M,M,M,M,35.60,K10U 021920Z AUTO 00000KT 10SM SCT024 BKN030 OVC050 02/M03 A2977 RMK AO2,M
LSV,2025-04-02 19:27,-115.0343,36.2362,570.00,55.40,32.00,40.84,290.00,18.00,0.00,29.66,1003.60,10.00,M,FEW,SCT,BKN,M,7000.00,15000.00,20000.00,M,M,M,M,M,M,M,M,55.40,KLSV 021927Z 29018KT 10SM FEW070 SCT150 BKN200 13/M00 A2966 RMK AO2A SLP036 FZRANO $,M
BVU,2025-04-02 19:35,-114.8611,35.9475,671.00,57.20,30.20,35.57,310.00,18.00,0.00,29.68,M,10.00,23.00,FEW,M,M,M,9000.00,M,M,M,M,M,M,M,M,M,M,57.20,KBVU 021935Z AUTO 31018G23KT 10SM FEW090 14/M01 A2968 RMK AO2,M
BAM,2025-04-02 19:35,-116.8743,40.5990,1382.36,41.00,32.00,70.08,290.00,9.00,0.00,29.80,M,10.00,M,SCT,BKN,OVC,M,2000.00,3700.00,4700.00,M,M,M,M,M,M,M,M,34.70,KBAM 021935Z AUTO 29009KT 10SM SCT020 BKN037 OVC047 05/00 A2980 RMK AO1,M
CXP,2025-04-02 19:35,-119.7326,39.1923,1431.00,42.80,23.00,45.14,320.00,10.00,0.00,29.84,M,10.00,15.00,FEW,BKN,BKN,M,4200.00,6000.00,7000.00,M,M,M,M,M,M,M,M,36.51,KCXP 021935Z AUTO 32010G15KT 10SM FEW042 BKN060 BKN070 06/M05 A2984 RMK AO2,M
MEV,2025-04-02 19:35,-119.7500,38.9963,1441.42,41.00,21.20,44.85,320.00,9.00,0.00,29.83,M,10.00,M,OVC,M,M,M,6000.00,M,M,M,M,M,M,M,M,M,M,34.70,KMEV 021935Z AUTO 32009KT 280V340 10SM OVC060 05/M06 A2983 RMK AO2,M
HTH,2025-04-02 19:35,-118.6315,38.5448,1282.89,44.60,21.20,39.06,330.00,14.00,0.00,29.81,M,10.00,20.00,FEW,FEW,SCT,M,4400.00,5500.00,7000.00,M,M,M,M,M,M,M,M,37.40,KHTH 021935Z AUTO 33014G20KT 10SM FEW044 FEW055 SCT070 07/M06 A2981 RMK A01,M
TMT,2025-04-02 19:35,-117.1971,39.4643,1749.34,33.40,24.00,68.06,10.00,6.00,0.00,29.78,M,10.00,M,SCT,BKN,OVC,M,1500.00,2800.00,4600.00,M,M,M,M,M,M,M,M,27.22,KTMT 021935Z AUTO 01006KT 10SM SCT015 BKN028 OVC046 01/M04 A2978 RMK AO2 T00081044,M
10U,2025-04-02 19:40,-116.1876,41.9532,1637.00,35.60,24.80,64.46,290.00,11.00,0.00,29.77,M,10.00,16.00,FEW,SCT,BKN,M,2700.00,3500.00,5000.00,M,UP,M,M,M,M,M,M,27.02,K10U 021940Z AUTO 29011G16KT 10SM UP FEW027 SCT035 BKN050 02/M04 A2977 RMK AO2,M
MEV,2025-04-02 19:45,-119.7500,38.9963,1441.42,41.00,19.40,41.54,0.00,0.00,0.00,29.83,M,10.00,12.00,OVC,M,M,M,6000.00,M,M,M,M,M,M,M,M,M,M,41.00,KMEV 021945Z AUTO 00000G12KT 10SM OVC060 05/M07 A2983 RMK AO2,M
P68,2025-04-02 19:53,-116.0056,39.6014,1993.00,37.00,24.00,58.99,350.00,6.00,0.00,29.71,1005.40,M,M,M,M,M,M,M,M,M,M,M,M,M,M,M,M,M,31.55,KP68 021953Z AUTO 35006KT 03/M04 A2971 RMK AO1 SLP054 T00281044,M
DRA,2025-04-02 19:53,-116.0278,36.6206,1009.00,54.00,24.00,30.94,M,3.00,0.00,29.68,1002.80,10.00,14.00,SCT,M,M,M,6500.00,M,M,M,M,M,M,M,M,M,M,54.00,KDRA 021953Z AUTO VRB03G14KT 10SM SCT065 12/M04 A2968 RMK AO2 SLP028 T01221044,M
ELY,2025-04-02 19:53,-114.8453,39.2950,1909.00,38.00,20.00,47.90,360.00,16.00,0.00,29.68,1004.40,10.00,23.00,FEW,BKN,M,M,3200.00,11000.00,M,M,M,M,M,M,M,M,M,28.24,KELY 021953Z AUTO 36016G23KT 10SM FEW032 BKN110 03/M07 A2968 RMK AO2 SLP044 T00331067,M
VGT,2025-04-02 19:53,-115.1933,36.2111,667.00,52.00,33.00,48.15,330.00,13.00,T,29.70,1007.10,10.00,M,FEW,SCT,BKN,M,6000.00,7000.00,8500.00,M,M,M,M,M,30.00,310.00,2025-04-02 18:57,52.00,KVGT 021953Z 33013KT 10SM FEW060 SCT070 BKN085 11/01 A2970 RMK AO2 PK WND 31030/1857 RAE1857 SLP071 P0000 T01110006,M
LOL,2025-04-02 19:53,-118.5701,40.0684,1192.43,45.00,25.00,45.12,20.00,12.00,T,29.81,1009.90,10.00,19.00,SCT,OVC,M,M,4900.00,8000.00,M,M,-RA,M,M,M,M,M,M,38.55,KLOL 021953Z AUTO 02012G19KT 10SM -RA SCT049 OVC080 07/M04 A2981 RMK AO2 RAE14B50 SLP099 P0000 T00721039,M
BVU,2025-04-02 19:55,-114.8611,35.9475,671.00,57.20,30.20,35.57,320.00,16.00,0.00,29.68,M,10.00,M,CLR,M,M,M,M,M,M,M,M,M,M,M,M,M,M,57.20,KBVU 021955Z AUTO 32016KT 10SM CLR 14/M01 A2968 RMK AO2,M
RNO,2025-04-02 19:55,-119.7711,39.4839,1341.00,41.00,22.00,46.39,340.00,6.00,0.01,29.83,1009.80,10.00,M,BKN,M,M,M,5000.00,M,M,M,M,M,M,M,M,M,M,36.37,KRNO 021955Z 34006KT 10SM BKN050 05/M06 A2983 RMK AO2 RAB25E39 SLP098 SH VC P0001 T00501056,M
BAM,2025-04-02 19:55,-116.8743,40.5990,1382.36,41.00,30.20,65.16,310.00,5.00,0.00,29.80,M,10.00,M,SCT,BKN,OVC,M,2200.00,3900.00,4700.00,M,M,M,M,M,M,M,M,37.08,KBAM 021955Z AUTO 31005KT 10SM SCT022 BKN039 OVC047 05/M01 A2980 RMK AO1,M
CXP,2025-04-02 19:55,-119.7326,39.1923,1431.00,42.80,21.20,41.84,360.00,7.00,0.00,29.84,M,10.00,13.00,BKN,M,M,M,6500.00,M,M,M,M,M,M,M,M,M,M,37.94,KCXP 021955Z AUTO 36007G13KT 10SM BKN065 06/M06 A2984 RMK AO2,M
RTS,2025-04-02 19:55,-119.8764,39.6682,1539.00,37.40,21.20,51.61,340.00,10.00,0.00,29.84,M,10.00,M,FEW,BKN,OVC,M,3800.00,4600.00,5500.00,M,M,M,M,M,M,M,M,29.74,KRTS 021955Z AUTO 34010KT 10SM FEW038 BKN046 OVC055 03/M06 A2984 RMK AO2,M
HTH,2025-04-02 19:55,-118.6315,38.5448,1282.89,44.60,21.20,39.06,310.00,17.00,0.00,29.81,M,10.00,28.00,FEW,FEW,FEW,M,4600.00,5500.00,7000.00,M,M,M,M,M,M,M,M,36.58,KHTH 021955Z AUTO 31017G28KT 10SM FEW046 FEW055 FEW070 07/M06 A2981 RMK A01,M
TMT,2025-04-02 19:55,-117.1971,39.4643,1749.34,34.00,26.00,72.22,20.00,6.00,0.00,29.78,M,10.00,M,BKN,BKN,OVC,M,3000.00,3700.00,4600.00,M,M,M,M,M,M,M,M,27.94,KTMT 021955Z AUTO 02006KT 360V060 10SM BKN030 BKN037 OVC046 01/M03 A2978 RMK AO2 T00121034,M
INS,2025-04-02 19:55,-115.6733,36.5872,955.00,51.30,21.60,30.89,210.00,3.00,0.00,29.70,1003.90,10.00,M,SCT,M,M,M,17000.00,M,M,M,M,M,M,M,M,M,M,51.30,KINS 021955Z AUTO 21003KT 10SM SCT170 11/M06 A2970 RMK AO2 SLP039 T01071058 $,M
LSV,2025-04-02 19:55,-115.0343,36.2362,570.00,57.20,30.00,35.29,300.00,19.00,0.00,29.65,1003.30,10.00,M,FEW,BKN,M,M,4000.00,12000.00,M,M,M,M,M,M,M,M,M,57.20,KLSV 021955Z 30019KT 10SM FEW040 BKN120 14/M01 A2965 RMK AO2A SLP033 T01401012 FZRANO $,M
TPH,2025-04-02 19:56,-117.0904,38.0505,1654.00,44.00,16.00,31.97,M,M,T,29.71,1005.20,10.00,M,SCT,SCT,BKN,M,3900.00,5500.00,10000.00,M,-RA,M,M,M,M,M,M,M,KTPH 021956Z AUTO 10SM -RA SCT039 SCT055 BKN100 07/M09 A2971 RMK AO2 RAB44 SLP052 P0000 T00671089,M
EKO,2025-04-02 19:56,-115.7860,40.8242,1367.00,40.00,25.00,54.69,M,3.00,0.00,29.74,1008.10,10.00,M,BKN,OVC,M,M,4300.00,5000.00,M,M,M,M,M,M,M,M,M,37.83,KEKO 021956Z AUTO VRB03KT 10SM BKN043 OVC050 04/M04 A2974 RMK AO2 SLP081 T00441039,M
WMC,2025-04-02 19:56,-117.8072,40.9019,1315.00,44.00,24.00,44.96,0.00,0.00,0.00,29.80,1009.20,10.00,M,CLR,M,M,M,M,M,M,M,M,M,M,M,M,M,M,44.00,KWMC 021956Z AUTO 00000KT 10SM CLR 07/M04 A2980 RMK AO2 SLP092 T00671044 TSNO,M
HND,2025-04-02 19:56,-115.1344,35.9729,742.79,54.00,30.00,39.63,M,6.00,0.00,29.71,1007.40,10.00,M,CLR,M,M,M,M,M,M,M,M,M,M,M,M,M,M,54.00,KHND 021956Z AUTO VRB06KT 10SM CLR 12/M01 A2971 RMK AO2 SLP074 T01221011 $,M
LAS,2025-04-02 19:56,-115.1634,36.0719,663.00,55.00,30.00,38.21,330.00,11.00,0.00,29.71,1005.30,10.00,18.00,FEW,SCT,BKN,BKN,4000.00,6000.00,10000.00,20000.00,M,M,M,M,26.00,310.00,2025-04-02 19:00,55.00,KLAS 021956Z 33011G18KT 10SM FEW040 SCT060 BKN100 BKN200 13/M01 A2971 RMK AO2 PK WND 31026/1900 SLP053 VIRGA DSNT ALQDS CB DSNT E T01281011,M
NFL,2025-04-02 19:57,-118.7010,39.4166,1199.00,48.00,23.00,37.06,20.00,14.00,0.00,29.80,1007.10,10.00,18.00,FEW,SCT,BKN,M,2500.00,5000.00,10000.00,M,M,M,M,M,M,M,M,41.79,KNFL 021957Z 02014G18KT 10SM FEW025 SCT050 BKN100 09/M05 A2980 RMK AO2 WSHFT 1921 SLP071 SH DSNT E-S T00891050,M
10U,2025-04-02 20:00,-116.1876,41.9532,1637.00,35.60,23.00,59.79,300.00,6.00,0.00,29.77,M,10.00,11.00,FEW,FEW,BKN,M,2600.00,3700.00,6000.00,M,M,M,M,M,M,M,M,29.87,K10U 022000Z AUTO 30006G11KT 10SM FEW026 FEW037 BKN060 02/M05 A2977 RMK AO2,M
RTS,2025-04-02 20:05,-119.8764,39.6682,1539.00,37.40,21.20,51.61,310.00,7.00,0.00,29.84,M,10.00,M,FEW,BKN,OVC,M,3800.00,4600.00,5000.00,M,M,M,M,M,M,M,M,31.36,KRTS 022005Z AUTO 31007KT 10SM FEW038 BKN046 OVC050 03/M06 A2984 RMK AO2,M
BVU,2025-04-02 20:15,-114.8611,35.9475,671.00,57.20,28.40,33.05,310.00,17.00,0.00,29.67,M,10.00,22.00,CLR,M,M,M,M,M,M,M,M,M,M,M,M,M,M,57.20,KBVU 022015Z AUTO 31017G22KT 270V330 10SM CLR 14/M02 A2967 RMK AO2,M
BAM,2025-04-02 20:15,-116.8743,40.5990,1382.36,41.00,28.40,60.54,360.00,3.00,0.00,29.80,M,10.00,M,SCT,BKN,BKN,M,3000.00,3800.00,4800.00,M,M,M,M,M,M,M,M,38.98,KBAM 022015Z AUTO 36003KT 10SM SCT030 BKN038 BKN048 05/M02 A2980 RMK AO1,M
CXP,2025-04-02 20:15,-119.7326,39.1923,1431.00,41.00,21.20,44.85,0.00,0.00,0.00,29.84,M,10.00,12.00,BKN,M,M,M,6500.00,M,M,M,M,M,M,M,M,M,M,41.00,KCXP 022015Z AUTO 00000G12KT 10SM BKN065 05/M06 A2984 RMK AO2,M
HTH,2025-04-02 20:15,-118.6315,38.5448,1282.89,44.60,21.20,39.06,290.00,12.00,0.00,29.81,M,10.00,18.00,CLR,M,M,M,M,M,M,M,M,M,M,M,M,M,M,38.04,KHTH 022015Z AUTO 29012G18KT 10SM CLR 07/M06 A2981 RMK A01,M
TMT,2025-04-02 20:15,-117.1971,39.4643,1749.34,34.30,24.60,67.32,350.00,9.00,0.00,29.78,M,10.00,M,BKN,OVC,M,M,3200.00,4500.00,M,M,M,M,M,M,M,M,M,26.37,KTMT 022015Z AUTO 35009KT 10SM BKN032 OVC045 01/M04 A2978 RMK AO2 T00131041,M
10U,2025-04-02 20:20,-116.1876,41.9532,1637.00,39.20,26.60,60.29,250.00,8.00,0.00,29.76,M,10.00,M,SCT,BKN,M,M,3800.00,6000.00,M,M,M,M,M,M,M,M,M,32.98,K10U 022020Z AUTO 25008KT 10SM SCT038 BKN060 04/M03 A2976 RMK AO2,M
BVU,2025-04-02 20:35,-114.8611,35.9475,671.00,57.20,28.40,33.05,310.00,11.00,0.00,29.67,M,10.00,19.00,CLR,M,M,M,M,M,M,M,M,M,M,M,M,M,M,57.20,KBVU 022035Z AUTO 31011G19KT 10SM CLR 14/M02 A2967 RMK AO2,M
BAM,2025-04-02 20:35,-116.8743,40.5990,1382.36,41.00,32.00,70.08,320.00,10.00,0.00,29.80,M,10.00,16.00,SCT,BKN,BKN,M,3000.00,3700.00,5000.00,M,M,M,M,M,M,M,M,34.25,KBAM 022035Z AUTO 32010G16KT 10SM SCT030 BKN037 BKN050 05/00 A2980 RMK AO1,M
CXP,2025-04-02 20:35,-119.7326,39.1923,1431.00,44.60,21.20,39.06,340.00,8.00,0.00,29.83,M,10.00,13.00,FEW,BKN,BKN,M,4800.00,6500.00,7000.00,M,M,M,M,M,M,M,M,39.63,KCXP 022035Z AUTO 34008G13KT 10SM FEW048 BKN065 BKN070 07/M06 A2983 RMK AO2,M
HTH,2025-04-02 20:35,-118.6315,38.5448,1282.89,46.40,21.20,36.48,310.00,15.00,0.00,29.80,M,10.00,21.00,CLR,M,M,M,M,M,M,M,M,M,M,M,M,M,M,39.45,KHTH 022035Z AUTO 31015G21KT 10SM CLR 08/M06 A2980 RMK A01,M
TMT,2025-04-02 20:35,-117.1971,39.4643,1749.34,33.40,25.00,70.96,0.00,0.00,0.00,29.77,M,7.00,M,BKN,BKN,OVC,M,3000.00,3600.00,4500.00,M,-RA,M,M,M,M,M,M,33.40,KTMT 022035Z AUTO 00000KT 7SM -RA BKN030 BKN036 OVC045 01/M04 A2977 RMK AO2 T00081039,M
10U,2025-04-02 20:40,-116.1876,41.9532,1637.00,39.20,24.80,55.95,360.00,5.00,0.00,29.76,M,10.00,M,BKN,BKN,BKN,M,3700.00,4800.00,5500.00,M,M,M,M,M,M,M,M,34.95,K10U 022040Z AUTO 36005KT 10SM BKN037 BKN048 BKN055 04/M04 A2976 RMK AO2,M
P68,2025-04-02 20:53,-116.0056,39.6014,1993.00,40.00,23.00,50.30,360.00,11.00,0.00,29.70,1004.50,M,M,M,M,M,M,M,M,M,M,M,M,M,M,M,M,M,32.58,KP68 022053Z AUTO 36011KT 04/M05 A2970 RMK AO1 SLP045 T00441050 58007,M
DRA,2025-04-02 20:53,-116.0278,36.6206,1009.00,48.00,36.00,62.97,240.00,6.00,T,29.69,1003.60,10.00,M,FEW,BKN,OVC,M,4700.00,6500.00,8000.00,M,-RA,M,M,M,M,M,M,44.80,KDRA 022053Z AUTO 24006KT 10SM -RA FEW047 BKN065 OVC080 09/02 A2969 RMK AO2 RAB30 SLP036 P0000 60000 T00890022 55009,M
ELY,2025-04-02 20:53,-114.8453,39.2950,1909.00,38.00,16.00,40.33,20.00,7.00,0.00,29.68,1004.30,10.00,21.00,FEW,M,M,M,4400.00,M,M,M,M,M,M,M,M,M,M,32.09,KELY 022053Z AUTO 02007G21KT 10SM FEW044 03/M09 A2968 RMK AO2 SLP043 60000 T00331089 56007,M
VGT,2025-04-02 20:53,-115.1933,36.2111,667.00,56.00,30.00,36.85,290.00,9.00,T,29.68,1006.00,10.00,M,BKN,M,M,M,8000.00,M,M,M,M,M,M,M,M,M,M,56.00,KVGT 022053Z 29009KT 10SM BKN080 13/M01 A2968 RMK AO2 RAB11E20 SLP060 P0000 60000 T01331011 58008,M
LOL,2025-04-02 20:53,-118.5701,40.0684,1192.43,47.00,20.00,33.89,30.00,4.00,T,29.79,1009.40,10.00,M,FEW,SCT,M,M,6500.00,8000.00,M,M,M,M,M,M,M,M,M,44.94,KLOL 022053Z AUTO 03004KT 10SM FEW065 SCT080 08/M07 A2979 RMK AO2 RAE04 SLP094 P0000 60000 T00831067 58011,M
BVU,2025-04-02 20:55,-114.8611,35.9475,671.00,59.00,26.60,28.77,310.00,12.00,0.00,29.66,M,10.00,17.00,CLR,M,M,M,M,M,M,M,M,M,M,M,M,M,M,59.00,KBVU 022055Z AUTO 31012G17KT 10SM CLR 15/M03 A2966 RMK AO2,M
RNO,2025-04-02 20:55,-119.7711,39.4839,1341.00,44.00,24.00,44.96,30.00,15.00,T,29.83,1009.40,10.00,21.00,BKN,M,M,M,6000.00,M,M,M,-RA,M,M,M,M,M,M,36.34,KRNO 022055Z 03015G21KT 10SM -RA BKN060 07/M04 A2983 RMK AO2 RAB51 SLP094 P0000 60001 T00671044 58005,M
BAM,2025-04-02 20:55,-116.8743,40.5990,1382.36,42.80,32.00,65.38,330.00,8.00,0.00,29.79,M,10.00,14.00,SCT,SCT,SCT,M,3700.00,4600.00,5500.00,M,M,M,M,M,M,M,M,37.42,KBAM 022055Z AUTO 33008G14KT 10SM SCT037 SCT046 SCT055 06/00 A2979 RMK AO1,M
CXP,2025-04-02 20:55,-119.7326,39.1923,1431.00,44.60,17.60,33.49,360.00,7.00,0.00,29.83,M,10.00,M,SCT,BKN,M,M,6000.00,7500.00,M,M,M,M,M,M,M,M,M,40.14,KCXP 022055Z AUTO 36007KT 10SM SCT060 BKN075 07/M08 A2983 RMK AO2,M
HTH,2025-04-02 20:55,-118.6315,38.5448,1282.89,46.40,19.40,33.79,310.00,16.00,0.00,29.80,M,10.00,M,CLR,M,M,M,M,M,M,M,M,M,M,M,M,M,M,39.19,KHTH 022055Z AUTO 31016KT 10SM CLR 08/M07 A2980 RMK A01,M
TMT,2025-04-02 20:55,-117.1971,39.4643,1749.34,36.00,25.50,65.33,350.00,6.00,0.00,29.77,M,10.00,M,SCT,SCT,OVC,M,3000.00,3400.00,6000.00,M,M,M,M,M,M,M,M,30.35,KTMT 022055Z AUTO 35006KT 10SM SCT030 SCT034 OVC060 02/M04 A2977 RMK AO2 T00231036,M
INS,2025-04-02 20:55,-115.6733,36.5872,955.00,53.00,21.00,28.29,280.00,4.00,0.00,29.68,1003.00,10.00,M,FEW,M,M,M,20000.00,M,M,M,M,M,M,M,M,M,M,53.00,KINS 022055Z AUTO 28004KT 10SM FEW200 12/M06 A2968 RMK AO2 SLP030 T01171062 57015 $,M
LSV,2025-04-02 20:55,-115.0343,36.2362,570.00,57.60,28.00,32.05,310.00,14.00,0.00,29.64,1003.00,10.00,M,SCT,BKN,M,M,11000.00,20000.00,M,M,M,M,M,M,M,M,M,57.60,KLSV 022055Z 31014KT 10SM SCT110 BKN200 14/M02 A2964 RMK AO2A SLP030 T01421023 58006 FZRANO $,M
EKO,2025-04-02 20:56,-115.7860,40.8242,1367.00,40.00,26.00,57.01,100.00,8.00,0.00,29.73,1007.80,10.00,M,BKN,M,M,M,6000.00,M,M,M,M,M,M,M,M,M,M,33.97,KEKO 022056Z AUTO 10008KT 10SM BKN060 04/M03 A2973 RMK AO2 SLP078 T00441033 56008,M
WMC,2025-04-02 20:56,-117.8072,40.9019,1315.00,45.00,23.00,41.50,340.00,6.00,0.00,29.80,1009.10,10.00,15.00,BKN,M,M,M,7000.00,M,M,M,M,M,M,M,M,M,M,41.19,KWMC 022056Z AUTO 34006G15KT 10SM BKN070 07/M05 A2980 RMK AO2 SLP091 T00721050 56007 TSNO,M
HND,2025-04-02 20:56,-115.1344,35.9729,742.79,56.00,27.00,32.59,290.00,9.00,0.00,29.70,1006.90,10.00,M,FEW,M,M,M,6000.00,M,M,M,M,M,M,M,M,M,M,56.00,KHND 022056Z AUTO 29009KT 10SM FEW060 13/M03 A2970 RMK AO2 SLP069 T01331028 58010 $,M
TPH,2025-04-02 20:56,-117.0904,38.0505,1654.00,42.00,15.00,33.05,M,M,T,29.72,1006.10,10.00,M,FEW,BKN,BKN,M,6000.00,7000.00,8500.00,M,M,M,M,M,M,M,M,M,KTPH 022056Z AUTO 10SM FEW060 BKN070 BKN085 06/M09 A2972 RMK AO2 RAE1959 SLP061 P0000 60000 T00561094 55002,M
LAS,2025-04-02 20:56,-115.1634,36.0719,663.00,56.00,28.00,33.96,320.00,7.00,0.00,29.69,1004.60,10.00,16.00,FEW,FEW,SCT,BKN,4000.00,6000.00,10000.00,20000.00,M,M,M,M,M,M,M,56.00,KLAS 022056Z 32007G16KT 10SM FEW040 FEW060 SCT100 BKN200 13/M02 A2969 RMK AO2 SLP046 VIRGA DSNT NE-E AND W CB DSNT E T01331022 58009,M
NFL,2025-04-02 20:57,-118.7010,39.4166,1199.00,49.00,20.00,31.44,M,4.00,0.00,29.79,1006.60,10.00,16.00,FEW,SCT,BKN,M,3000.00,5000.00,9000.00,M,M,M,M,M,M,M,M,47.27,KNFL 022057Z VRB04G16KT 10SM FEW030 SCT050 BKN090 09/M07 A2979 RMK AO2 SLP066 SH DSNT ALQDS T00941067 56010,M
10U,2025-04-02 21:00,-116.1876,41.9532,1637.00,33.80,28.40,80.36,100.00,11.00,0.00,29.76,M,10.00,M,BKN,OVC,M,M,3500.00,4500.00,M,M,M,M,M,M,M,M,M,24.74,K10U 022100Z AUTO 10011KT 10SM BKN035 OVC045 01/M02 A2976 RMK AO2,M
P68,2025-04-02 21:06,-116.0056,39.6014,1993.00,37.00,25.00,61.50,310.00,14.00,0.00,29.70,M,M,23.00,M,M,M,M,M,M,M,M,M,M,M,M,M,M,M,27.61,KP68 022106Z AUTO 31014G23KT 03/M04 A2970 RMK AO1 WSHFT 2049 T00281039,M
BVU,2025-04-02 21:15,-114.8611,35.9475,671.00,59.00,26.60,28.77,330.00,11.00,0.00,29.66,M,10.00,16.00,CLR,M,M,M,M,M,M,M,M,M,M,M,M,M,M,59.00,KBVU 022115Z AUTO 33011G16KT 10SM CLR 15/M03 A2966 RMK AO2,M
BAM,2025-04-02 21:15,-116.8743,40.5990,1382.36,44.60,28.40,52.72,320.00,9.00,0.00,29.79,M,10.00,M,SCT,SCT,SCT,M,3800.00,4800.00,5500.00,M,M,M,M,M,M,M,M,39.18,KBAM 022115Z AUTO 32009KT 10SM SCT038 SCT048 SCT055 07/M02 A2979 RMK AO1,M
CXP,2025-04-02 21:15,-119.7326,39.1923,1431.00,44.60,19.40,36.18,310.00,5.00,0.00,29.82,M,10.00,M,SCT,BKN,M,M,6500.00,7500.00,M,M,M,M,M,M,M,M,M,41.36,KCXP 022115Z AUTO 31005KT 10SM SCT065 BKN075 07/M07 A2982 RMK AO2,M
MEV,2025-04-02 21:15,-119.7500,38.9963,1441.42,44.60,14.00,28.64,340.00,4.00,0.00,29.81,M,10.00,11.00,M,M,M,M,M,M,M,M,M,M,M,M,M,M,M,42.13,KMEV 022115Z AUTO 34004G11KT 10SM 07/M10 A2981 RMK AO2,M
HTH,2025-04-02 21:15,-118.6315,38.5448,1282.89,48.20,17.60,29.23,320.00,14.00,0.00,29.80,M,10.00,21.00,CLR,M,M,M,M,M,M,M,M,M,M,M,M,M,M,42.04,KHTH 022115Z AUTO 32014G21KT 10SM CLR 09/M08 A2980 RMK A01,M
TMT,2025-04-02 21:15,-117.1971,39.4643,1749.34,36.00,26.00,66.69,20.00,6.00,0.00,29.77,M,7.00,M,SCT,BKN,OVC,M,3300.00,4600.00,6000.00,M,M,M,M,M,M,M,M,30.35,KTMT 022115Z AUTO 02006KT 7SM SCT033 BKN046 OVC060 02/M03 A2977 RMK AO2 T00231033,M
10U,2025-04-02 21:20,-116.1876,41.9532,1637.00,35.60,28.40,74.80,80.00,7.00,0.00,29.76,M,10.00,12.00,SCT,BKN,OVC,M,3100.00,4000.00,6500.00,M,M,M,M,M,M,M,M,29.17,K10U 022120Z AUTO 08007G12KT 050V110 10SM SCT031 BKN040 OVC065 02/M02 A2976 RMK AO2,M
BVU,2025-04-02 21:35,-114.8611,35.9475,671.00,59.00,26.60,28.77,330.00,11.00,0.00,29.65,M,10.00,18.00,CLR,M,M,M,M,M,M,M,M,M,M,M,M,M,M,59.00,KBVU 022135Z AUTO 33011G18KT 10SM CLR 15/M03 A2965 RMK AO2 LTG DSNT NW,M
BAM,2025-04-02 21:35,-116.8743,40.5990,1382.36,44.60,30.20,56.74,310.00,8.00,0.00,29.79,M,10.00,M,SCT,SCT,BKN,M,3800.00,4400.00,5000.00,M,M,M,M,M,M,M,M,39.63,KBAM 022135Z AUTO 31008KT 10SM SCT038 SCT044 BKN050 07/M01 A2979 RMK AO1,M
CXP,2025-04-02 21:35,-119.7326,39.1923,1431.00,44.60,21.20,39.06,280.00,10.00,0.00,29.82,M,10.00,M,BKN,OVC,M,M,5000.00,6500.00,M,M,M,M,M,M,M,M,M,38.77,KCXP 022135Z AUTO 28010KT 10SM BKN050 OVC065 07/M06 A2982 RMK AO2,M
RTS,2025-04-02 21:35,-119.8764,39.6682,1539.00,39.20,19.40,44.55,330.00,7.00,0.00,29.82,M,10.00,M,SCT,BKN,OVC,M,4700.00,5500.00,7000.00,M,M,M,M,M,M,M,M,33.56,KRTS 022135Z AUTO 33007KT 10SM SCT047 BKN055 OVC070 04/M07 A2982 RMK AO2,M
MEV,2025-04-02 21:35,-119.7500,38.9963,1441.42,44.60,14.00,28.64,0.00,0.00,0.00,29.80,M,10.00,12.00,M,M,M,M,M,M,M,M,M,M,M,M,M,M,M,44.60,KMEV 022135Z AUTO 00000G12KT 10SM 07/M10 A2980 RMK AO2,M
HTH,2025-04-02 21:35,-118.6315,38.5448,1282.89,46.40,19.40,33.79,320.00,15.00,0.00,29.80,M,10.00,23.00,CLR,M,M,M,M,M,M,M,M,M,M,M,M,M,M,39.45,KHTH 022135Z AUTO 32015G23KT 10SM CLR 08/M07 A2980 RMK A01,M
TMT,2025-04-02 21:35,-117.1971,39.4643,1749.34,38.00,24.40,57.67,20.00,9.00,0.00,29.76,M,10.00,M,SCT,BKN,BKN,M,3300.00,3900.00,4800.00,M,M,M,M,M,M,M,M,30.97,KTMT 022135Z AUTO 02009KT 10SM SCT033 BKN039 BKN048 03/M04 A2976 RMK AO2 T00341042,M
10U,2025-04-02 21:40,-116.1876,41.9532,1637.00,33.80,26.60,74.63,120.00,12.00,0.00,29.76,M,10.00,M,FEW,BKN,OVC,M,2900.00,4200.00,5000.00,M,-RA,M,M,M,M,M,M,24.29,K10U 022140Z AUTO 12012KT 10SM -RA FEW029 BKN042 OVC050 01/M03 A2976 RMK AO2,M
MEV,2025-04-02 21:45,-119.7500,38.9963,1441.42,44.60,14.00,28.64,360.00,6.00,0.00,29.80,M,10.00,13.00,M,M,M,M,M,M,M,M,M,M,M,M,M,M,M,40.71,KMEV 022145Z AUTO 36006G13KT 10SM 07/M10 A2980 RMK AO2,M
RTS,2025-04-02 21:45,-119.8764,39.6682,1539.00,41.00,17.60,38.45,10.00,6.00,0.00,29.82,M,10.00,M,FEW,BKN,OVC,M,4900.00,6000.00,7500.00,M,M,M,M,M,M,M,M,36.37,KRTS 022145Z AUTO 01006KT 10SM FEW049 BKN060 OVC075 05/M08 A2982 RMK AO2,M
HTH,2025-04-02 21:50,-118.6315,38.5448,1282.89,46.40,19.40,33.79,320.00,16.00,0.00,29.79,M,10.00,23.00,FEW,M,M,M,5000.00,M,M,M,M,M,M,M,M,M,M,39.19,KHTH 022150Z AUTO 32016G23KT 10SM FEW050 08/M07 A2979 RMK A01,M
P68,2025-04-02 21:53,-116.0056,39.6014,1993.00,39.00,20.00,46.06,10.00,12.00,0.00,29.70,1004.70,M,16.00,M,M,M,M,M,M,M,M,M,M,M,M,M,M,M,30.91,KP68 022153Z AUTO 01012G16KT 04/M07 A2970 RMK AO1 WSHFT 2049 SLP047 T00391067,M
DRA,2025-04-02 21:53,-116.0278,36.6206,1009.00,51.00,25.00,36.03,210.00,6.00,0.01,29.67,1002.90,10.00,M,FEW,BKN,OVC,M,6500.00,9000.00,11000.00,M,M,M,M,M,M,M,M,51.00,KDRA 022153Z AUTO 21006KT 10SM FEW065 BKN090 OVC110 11/M04 A2967 RMK AO2 RAE2058 SLP029 P0001 T01061039,M
ELY,2025-04-02 21:53,-114.8453,39.2950,1909.00,40.00,12.00,31.30,10.00,10.00,0.00,29.67,1004.00,10.00,21.00,FEW,M,M,M,6000.00,M,M,M,M,M,M,M,M,M,M,33.00,KELY 022153Z AUTO 01010G21KT 10SM FEW060 04/M11 A2967 RMK AO2 SLP040 T00441111,M
VGT,2025-04-02 21:53,-115.1933,36.2111,667.00,58.00,30.00,34.28,280.00,9.00,0.00,29.66,1005.40,10.00,14.00,CLR,M,M,M,M,M,M,M,M,M,M,M,M,M,M,58.00,KVGT 022153Z 28009G14KT 10SM CLR 14/M01 A2966 RMK AO2 SLP054 T01441011,M
LOL,2025-04-02 21:53,-118.5701,40.0684,1192.43,48.00,21.00,34.05,330.00,9.00,T,29.78,1008.90,10.00,20.00,BKN,BKN,M,M,6500.00,9000.00,M,M,-RA,M,M,M,M,M,M,43.41,KLOL 022153Z AUTO 33009G20KT 10SM -RA BKN065 BKN090 09/M06 A2978 RMK AO2 RAB45 SLP089 P0000 T00891061,M
BVU,2025-04-02 21:55,-114.8611,35.9475,671.00,59.00,24.80,26.70,330.00,10.00,0.00,29.65,M,10.00,M,CLR,M,M,M,M,M,M,M,M,M,M,M,M,M,M,59.00,KBVU 022155Z AUTO 33010KT 10SM CLR 15/M04 A2965 RMK AO2,M
RNO,2025-04-02 21:55,-119.7711,39.4839,1341.00,44.00,22.00,41.34,50.00,5.00,T,29.81,1009.00,10.00,M,BKN,BKN,M,M,5500.00,12000.00,M,M,M,M,M,M,M,M,M,40.65,KRNO 022155Z 05005KT 10SM BKN055 BKN120 07/M06 A2981 RMK AO2 RAE09B25E47 SLP090 P0000 T00671056,M
BAM,2025-04-02 21:55,-116.8743,40.5990,1382.36,44.60,28.40,52.72,340.00,10.00,0.00,29.78,M,10.00,15.00,SCT,BKN,BKN,M,3900.00,4500.00,5000.00,M,M,M,M,M,M,M,M,38.77,KBAM 022155Z AUTO 34010G15KT 10SM SCT039 BKN045 BKN050 07/M02 A2978 RMK AO1,M
CXP,2025-04-02 21:55,-119.7326,39.1923,1431.00,44.60,17.60,33.49,340.00,5.00,0.00,29.82,M,10.00,12.00,BKN,OVC,M,M,5500.00,6500.00,M,M,M,M,M,M,M,M,M,41.36,KCXP 022155Z AUTO 34005G12KT 10SM BKN055 OVC065 07/M08 A2982 RMK AO2,M
TMT,2025-04-02 21:55,-117.1971,39.4643,1749.34,38.30,23.00,53.75,350.00,5.00,0.00,29.76,M,10.00,M,SCT,SCT,BKN,M,4100.00,4900.00,6000.00,M,M,M,M,M,M,M,M,33.88,KTMT 022155Z AUTO 35005KT 10SM SCT041 SCT049 BKN060 04/M05 A2976 RMK AO2 T00351050,M
INS,2025-04-02 21:55,-115.6733,36.5872,955.00,56.00,19.80,24.09,230.00,13.00,0.00,29.66,1002.30,10.00,M,SCT,M,M,M,7500.00,M,M,M,M,M,M,M,M,M,M,56.00,KINS 022155Z AUTO 23013KT 10SM SCT075 13/M07 A2966 RMK AO2 SLP023 T01341068 $,M
LSV,2025-04-02 21:55,-115.0343,36.2362,570.00,57.20,25.00,28.72,190.00,3.00,0.00,29.62,1002.30,10.00,M,SCT,BKN,M,M,15000.00,20000.00,M,M,M,M,M,M,M,M,M,57.20,KLSV 022155Z 19003KT 10SM SCT150 BKN200 14/M04 A2962 RMK AO2A SLP023 T01401038 FZRANO $,M
EKO,2025-04-02 21:56,-115.7860,40.8242,1367.00,40.00,27.00,59.41,M,3.00,0.00,29.73,1007.50,10.00,M,SCT,M,M,M,5500.00,M,M,M,M,M,M,M,M,M,M,37.83,KEKO 022156Z AUTO VRB03KT 10SM SCT055 04/M03 A2973 RMK AO2 SLP075 T00441028,M
WMC,2025-04-02 21:56,-117.8072,40.9019,1315.00,46.00,23.00,39.96,0.00,0.00,0.00,29.78,1008.30,10.00,M,CLR,M,M,M,M,M,M,M,M,M,M,M,M,M,M,46.00,KWMC 022156Z AUTO 00000KT 10SM CLR 08/M05 A2978 RMK AO2 SLP083 T00781050 TSNO,M
HND,2025-04-02 21:56,-115.1344,35.9729,742.79,58.00,26.00,29.09,270.00,12.00,0.00,29.68,1006.30,10.00,16.00,CLR,M,M,M,M,M,M,M,M,M,M,M,M,M,M,58.00,KHND 022156Z AUTO 27012G16KT 10SM CLR 14/M03 A2968 RMK AO2 SLP063 T01441033 $,M
TPH,2025-04-02 21:56,-117.0904,38.0505,1654.00,38.00,25.00,59.13,M,M,T,29.72,1006.50,10.00,M,BKN,OVC,M,M,5000.00,6500.00,M,M,-RA,M,M,M,M,M,M,M,KTPH 022156Z AUTO 10SM -RA BKN050 OVC065 03/M04 A2972 RMK AO2 RAB20 SLP065 P0000 T00331039,M
LAS,2025-04-02 21:56,-115.1634,36.0719,663.00,58.00,25.00,27.91,330.00,14.00,0.00,29.67,1004.00,10.00,20.00,FEW,FEW,BKN,M,4000.00,7000.00,20000.00,M,M,M,M,M,M,M,M,58.00,KLAS 022156Z 33014G20KT 10SM FEW040 FEW070 BKN200 14/M04 A2967 RMK AO2 SLP040 VIRGA DSNT E CB DSNT E T01441039,M
NFL,2025-04-02 21:57,-118.7010,39.4166,1199.00,49.00,25.00,38.81,360.00,16.00,T,29.79,1006.50,10.00,23.00,SCT,BKN,BKN,M,4000.00,5500.00,8000.00,M,M,M,M,M,M,M,M,42.58,KNFL 022157Z 36016G23KT 10SM SCT040 BKN055 BKN080 09/M04 A2979 RMK AO2 RAB25E26GSB25E26 SLP065 SH VC NE-SE-S P0000 T00941039,M
10U,2025-04-02 22:00,-116.1876,41.9532,1637.00,32.00,26.60,80.22,80.00,7.00,0.00,29.76,M,10.00,14.00,SCT,OVC,M,M,4200.00,5000.00,M,M,-UP,M,M,M,M,M,M,24.78,K10U 022200Z AUTO 08007G14KT 10SM -UP SCT042 OVC050 00/M03 A2976 RMK AO2,M
BVU,2025-04-02 22:15,-114.8611,35.9475,671.00,59.00,24.80,26.70,300.00,11.00,0.00,29.65,M,10.00,M,FEW,M,M,M,9000.00,M,M,M,M,M,M,M,M,M,M,59.00,KBVU 022215Z AUTO 30011KT 10SM FEW090 15/M04 A2965 RMK AO2,M
BAM,2025-04-02 22:15,-116.8743,40.5990,1382.36,44.60,23.00,42.14,10.00,4.00,0.00,29.77,M,10.00,M,SCT,SCT,BKN,M,4300.00,6000.00,7000.00,M,M,M,M,M,M,M,M,42.13,KBAM 022215Z AUTO 01004KT 10SM SCT043 SCT060 BKN070 07/M05 A2977 RMK AO1,M
CXP,2025-04-02 22:15,-119.7326,39.1923,1431.00,44.60,14.00,28.64,M,4.00,0.00,29.81,M,10.00,M,SCT,SCT,M,M,5500.00,7000.00,M,M,M,M,M,M,M,M,M,42.13,KCXP 022215Z AUTO VRB04KT 10SM SCT055 SCT070 07/M10 A2981 RMK AO2,M
HTH,2025-04-02 22:15,-118.6315,38.5448,1282.89,46.40,21.20,36.48,330.00,14.00,0.00,29.78,M,10.00,20.00,FEW,M,M,M,7000.00,M,M,M,M,M,M,M,M,M,M,39.72,KHTH 022215Z AUTO 33014G20KT 310V010 10SM FEW070 08/M06 A2978 RMK A01,M
TMT,2025-04-02 22:15,-117.1971,39.4643,1749.34,37.80,22.30,53.22,360.00,9.00,0.00,29.75,M,10.00,M,SCT,SCT,M,M,4300.00,6000.00,M,M,M,M,M,M,M,M,M,30.73,KTMT 022215Z AUTO 36009KT 10SM SCT043 SCT060 03/M05 A2975 RMK AO2 T00321054,M
10U,2025-04-02 22:20,-116.1876,41.9532,1637.00,32.00,28.40,86.39,70.00,6.00,0.00,29.77,M,2.00,M,SCT,SCT,BKN,M,400.00,2200.00,4200.00,M,-SN,M,M,M,M,M,M,25.53,K10U 022220Z AUTO 07006KT 2SM -SN SCT004 SCT022 BKN042 M00/M02 A2977 RMK AO2,M
TPH,2025-04-02 22:23,-117.0904,38.0505,1654.00,33.00,27.00,78.34,M,M,0.02,29.74,M,2.50,M,FEW,OVC,M,M,4300.00,5500.00,M,M,-SN,M,M,M,M,M,M,M,KTPH 022223Z AUTO 2 1/2SM -SN FEW043 OVC055 01/M03 A2974 RMK AO2 RAE05SNB11 P0002 T00061028,M
BVU,2025-04-02 22:35,-114.8611,35.9475,671.00,59.00,23.00,24.76,310.00,7.00,0.00,29.64,M,10.00,13.00,SCT,SCT,SCT,M,7000.00,8000.00,10000.00,M,M,M,M,M,M,M,M,59.00,KBVU 022235Z AUTO 31007G13KT 10SM SCT070 SCT080 SCT100 15/M05 A2964 RMK AO2,M
TPH,2025-04-02 22:35,-117.0904,38.0505,1654.00,32.00,28.00,84.98,M,M,0.04,29.75,M,1.50,M,BKN,BKN,OVC,M,3300.00,4700.00,5500.00,M,-SN BR,M,M,M,M,M,M,M,KTPH 022235Z AUTO 1 1/2SM -SN BR BKN033 BKN047 OVC055 00/M02 A2975 RMK AO2 RAE05SNB11 P0004 T00001022,M
BAM,2025-04-02 22:35,-116.8743,40.5990,1382.36,44.60,24.80,45.44,10.00,7.00,0.00,29.77,M,10.00,M,SCT,M,M,M,5000.00,M,M,M,M,M,M,M,M,M,M,40.14,KBAM 022235Z AUTO 01007KT 10SM SCT050 07/M04 A2977 RMK AO1,M
CXP,2025-04-02 22:35,-119.7326,39.1923,1431.00,46.40,17.60,31.28,310.00,11.00,0.00,29.81,M,10.00,M,FEW,M,M,M,6000.00,M,M,M,M,M,M,M,M,M,M,40.66,KCXP 022235Z AUTO 31011KT 10SM FEW060 08/M08 A2981 RMK AO2,M
HTH,2025-04-02 22:35,-118.6315,38.5448,1282.89,48.20,17.60,29.23,310.00,17.00,0.00,29.78,M,10.00,24.00,CLR,M,M,M,M,M,M,M,M,M,M,M,M,M,M,41.30,KHTH 022235Z AUTO 31017G24KT 10SM CLR 09/M08 A2978 RMK A01,M
TMT,2025-04-02 22:35,-117.1971,39.4643,1749.34,37.60,28.20,68.56,320.00,13.00,0.00,29.76,M,10.00,19.00,SCT,SCT,SCT,M,1300.00,3600.00,5000.00,M,M,M,M,M,M,M,M,28.74,KTMT 022235Z AUTO 32013G19KT 10SM SCT013 SCT036 SCT050 03/M02 A2976 RMK AO2 T00311021,M
10U,2025-04-02 22:40,-116.1876,41.9532,1637.00,30.20,28.40,92.92,130.00,7.00,0.00,29.77,M,1.50,M,BKN,BKN,OVC,M,300.00,1600.00,3600.00,M,-SN,M,M,M,M,M,M,22.59,K10U 022240Z AUTO 13007KT 1 1/2SM -SN BKN003 BKN016 OVC036 M01/M02 A2977 RMK AO2,M
TPH,2025-04-02 22:46,-117.0904,38.0505,1654.00,33.00,28.00,81.63,M,M,0.04,29.74,M,3.00,M,BKN,OVC,M,M,4000.00,5500.00,M,M,-SN,M,M,M,M,M,M,M,KTPH 022246Z AUTO 3SM -SN BKN040 OVC055 01/M02 A2974 RMK AO2 RAE05SNB11 P0004 T00061022,M
WMC,2025-04-02 22:48,-117.8072,40.9019,1315.00,38.00,26.00,61.64,210.00,10.00,T,29.79,M,1.75,26.00,FEW,SCT,BKN,M,2100.00,2900.00,5000.00,M,-RA,M,M,M,26.00,310.00,2025-04-02 22:38,30.49,KWMC 022248Z AUTO 21010G26KT 130V260 1 3/4SM -RA FEW021 SCT029 BKN050 03/M03 A2979 RMK AO2 PK WND 31026/2238 WSHFT 2232 VIS 3/4V4 RAB40 P0000 T00331033 TSNO,M
P68,2025-04-02 22:53,-116.0056,39.6014,1993.00,38.00,20.00,47.90,360.00,8.00,0.00,29.70,1005.20,M,M,M,M,M,M,M,M,M,M,M,M,M,M,M,M,M,31.50,KP68 022253Z AUTO 36008KT 03/M07 A2970 RMK AO1 SLP052 T00331067,M
DRA,2025-04-02 22:53,-116.0278,36.6206,1009.00,53.00,22.00,29.51,230.00,12.00,0.00,29.66,1002.70,10.00,M,CLR,M,M,M,M,M,M,M,M,M,M,M,M,M,M,53.00,KDRA 022253Z AUTO 23012KT 10SM CLR 12/M06 A2966 RMK AO2 SLP027 T01171056,M
ELY,2025-04-02 22:53,-114.8453,39.2950,1909.00,35.00,24.00,63.85,310.00,21.00,0.00,29.68,1005.40,10.00,30.00,FEW,M,M,M,4900.00,M,M,M,M,M,M,M,30.00,320.00,2025-04-02 22:48,22.85,KELY 022253Z AUTO 31021G30KT 10SM FEW049 02/M04 A2968 RMK AO2 PK WND 32030/2248 SLP054 T00171044,M
VGT,2025-04-02 22:53,-115.1933,36.2111,667.00,57.00,28.00,32.75,M,3.00,0.00,29.64,1004.70,10.00,M,CLR,M,M,M,M,M,M,M,M,M,M,M,M,M,M,57.00,KVGT 022253Z VRB03KT 10SM CLR 14/M02 A2964 RMK AO2 SLP047 T01391022,M
LOL,2025-04-02 22:53,-118.5701,40.0684,1192.43,50.00,18.00,27.80,320.00,10.00,T,29.77,1008.60,10.00,M,BKN,BKN,M,M,6500.00,8000.00,M,M,M,M,M,M,M,M,M,50.00,KLOL 022253Z AUTO 32010KT 10SM BKN065 BKN080 10/M08 A2977 RMK AO2 RAE01 SLP086 P0000 T01001078,M
BVU,2025-04-02 22:55,-114.8611,35.9475,671.00,60.80,21.20,21.53,290.00,10.00,0.00,29.64,M,10.00,16.00,BKN,BKN,M,M,7500.00,9000.00,M,M,M,M,M,M,M,M,M,60.80,KBVU 022255Z AUTO 29010G16KT 10SM BKN075 BKN090 16/M06 A2964 RMK AO2,M
RNO,2025-04-02 22:55,-119.7711,39.4839,1341.00,44.00,19.00,36.39,30.00,11.00,T,29.80,1008.60,10.00,M,BKN,BKN,BKN,M,5000.00,8500.00,12000.00,M,M,M,M,M,M,M,M,37.63,KRNO 022255Z 03011KT 10SM BKN050 BKN085 BKN120 07/M07 A2980 RMK AO2 RAB01E13 SLP086 P0000 T00671072,M
BAM,2025-04-02 22:55,-116.8743,40.5990,1382.36,42.80,32.00,65.38,340.00,19.00,0.00,29.78,M,10.00,22.00,SCT,SCT,SCT,M,700.00,1300.00,5000.00,M,M,M,M,M,M,M,M,33.72,KBAM 022255Z AUTO 34019G22KT 10SM SCT007 SCT013 SCT050 06/00 A2978 RMK AO1,M
CXP,2025-04-02 22:55,-119.7326,39.1923,1431.00,46.40,19.40,33.79,330.00,11.00,0.00,29.80,M,10.00,M,FEW,M,M,M,6000.00,M,M,M,M,M,M,M,M,M,M,40.66,KCXP 022255Z AUTO 33011KT 10SM FEW060 08/M07 A2980 RMK AO2,M
HTH,2025-04-02 22:55,-118.6315,38.5448,1282.89,48.20,19.40,31.57,290.00,14.00,0.00,29.79,M,10.00,23.00,CLR,M,M,M,M,M,M,M,M,M,M,M,M,M,M,42.04,KHTH 022255Z AUTO 29014G23KT 10SM CLR 09/M07 A2979 RMK A01,M
TMT,2025-04-02 22:55,-117.1971,39.4643,1749.34,36.50,24.60,61.69,340.00,7.00,0.00,29.76,M,10.00,M,SCT,SCT,BKN,M,1400.00,3600.00,6000.00,M,M,M,M,M,M,M,M,30.26,KTMT 022255Z AUTO 34007KT 10SM SCT014 SCT036 BKN060 03/M04 A2976 RMK AO2 T00251041,M
INS,2025-04-02 22:55,-115.6733,36.5872,955.00,55.00,18.70,23.84,240.00,10.00,0.00,29.66,1002.50,10.00,M,BKN,M,M,M,7500.00,M,M,M,M,M,M,M,M,M,M,55.00,KINS 022255Z AUTO 24010KT 10SM BKN075 13/M07 A2966 RMK AO2 LTG DSNT SW SLP025 T01271074 $,M
LSV,2025-04-02 22:55,-115.0343,36.2362,570.00,60.00,24.00,24.92,190.00,5.00,0.00,29.60,1001.60,10.00,M,SCT,BKN,M,M,17000.00,20000.00,M,M,M,M,M,M,M,M,M,60.00,KLSV 022255Z 19005KT 10SM SCT170 BKN200 16/M04 A2960 RMK AO2A SLP016 T01561044 FZRANO $,M
EKO,2025-04-02 22:56,-115.7860,40.8242,1367.00,40.00,27.00,59.41,110.00,5.00,0.00,29.73,1007.30,10.00,M,FEW,BKN,OVC,M,5000.00,7000.00,9000.00,M,M,M,M,M,M,M,M,35.90,KEKO 022256Z AUTO 11005KT 10SM FEW050 BKN070 OVC090 04/M03 A2973 RMK AO2 SLP073 T00441028,M
WMC,2025-04-02 22:56,-117.8072,40.9019,1315.00,40.00,24.00,52.45,0.00,0.00,T,29.79,1009.20,2.50,M,FEW,BKN,OVC,M,1900.00,5500.00,7000.00,M,-SN,M,M,M,26.00,310.00,2025-04-02 22:38,40.00,KWMC 022256Z AUTO 00000KT 2 1/2SM -SN FEW019 BKN055 OVC070 04/M04 A2979 RMK AO2 PK WND 31026/2238 WSHFT 2232 RAB40E49SNB49 SLP092 P0000 T00441044 TSNO,M
HND,2025-04-02 22:56,-115.1344,35.9729,742.79,56.00,26.00,31.27,280.00,10.00,0.00,29.68,1006.20,10.00,M,CLR,M,M,M,M,M,M,M,M,M,M,M,M,M,M,56.00,KHND 022256Z AUTO 28010KT 10SM CLR 13/M03 A2968 RMK AO2 SLP062 T01331033 $,M
TPH,2025-04-02 22:56,-117.0904,38.0505,1654.00,33.00,28.00,81.63,M,M,0.04,29.74,1007.80,8.00,M,SCT,OVC,M,M,4200.00,7000.00,M,M,-SN,M,M,M,M,M,M,M,KTPH 022256Z AUTO 8SM -SN SCT042 OVC070 01/M02 A2974 RMK AO2 RAE05SNB11 SLP078 P0004 T00061022,M
LAS,2025-04-02 22:56,-115.1634,36.0719,663.00,57.00,27.00,31.43,230.00,8.00,0.00,29.66,1003.50,10.00,17.00,FEW,FEW,BKN,M,4000.00,7000.00,20000.00,M,M,M,M,M,M,M,M,57.00,KLAS 022256Z 23008G17KT 10SM FEW040 FEW070 BKN200 14/M03 A2966 RMK AO2 SLP035 VIRGA DSNT E CB DSNT E T01391028,M
NFL,2025-04-02 22:57,-118.7010,39.4166,1199.00,50.00,20.00,30.29,340.00,9.00,0.00,29.78,1006.30,10.00,M,SCT,BKN,BKN,BKN,4000.00,5500.00,8000.00,13000.00,M,M,M,M,M,M,M,50.00,KNFL 022257Z 34009KT 10SM SCT040 BKN055 BKN080 BKN130 10/M07 A2978 RMK AO2 SLP063 SH VC W-N-NE T01001067,M
10U,2025-04-02 23:00,-116.1876,41.9532,1637.00,32.00,26.60,80.22,0.00,0.00,0.00,29.78,M,1.25,M,BKN,BKN,BKN,M,300.00,1000.00,3000.00,M,-SN,M,M,M,M,M,M,32.00,K10U 022300Z AUTO 00000KT 1 1/4SM -SN BKN003 BKN010 BKN030 M00/M03 A2978 RMK AO2,M
WMC,2025-04-02 23:03,-117.8072,40.9019,1315.00,41.00,24.00,50.46,200.00,5.00,T,29.79,M,10.00,M,FEW,SCT,OVC,M,2600.00,5000.00,7000.00,M,M,M,M,M,M,M,M,37.08,KWMC 022303Z AUTO 20005KT 10SM FEW026 SCT050 OVC070 05/M04 A2979 RMK AO2 RAB2258E01SNE2258 P0000 T00501044 TSNO,M
INS,2025-04-02 23:13,-115.6733,36.5872,955.00,55.40,15.80,20.73,270.00,12.00,0.00,29.65,1002.40,10.00,16.00,FEW,SCT,OVC,M,7500.00,10000.00,13000.00,M,M,M,M,M,M,M,M,55.40,KINS 022313Z AUTO 27012G16KT 10SM FEW075 SCT100 OVC130 13/M09 A2965 RMK AO2 WSHFT 10 LTG DSNT SW SLP024 $,M
BVU,2025-04-02 23:15,-114.8611,35.9475,671.00,60.80,21.20,21.53,280.00,9.00,0.00,29.64,M,10.00,19.00,SCT,SCT,M,M,7500.00,9000.00,M,M,M,M,M,M,M,M,M,60.80,KBVU 022315Z AUTO 28009G19KT 10SM SCT075 SCT090 16/M06 A2964 RMK AO2,M
BAM,2025-04-02 23:15,-116.8743,40.5990,1382.36,35.60,32.00,86.59,300.00,8.00,0.00,29.79,M,3.00,M,SCT,BKN,OVC,M,1200.00,2400.00,12000.00,M,M,M,M,M,M,M,M,28.55,KBAM 022315Z AUTO 30008KT 3SM SCT012 BKN024 OVC120 02/00 A2979 RMK AO1,M
CXP,2025-04-02 23:15,-119.7326,39.1923,1431.00,46.40,19.40,33.79,280.00,9.00,0.00,29.80,M,10.00,M,CLR,M,M,M,M,M,M,M,M,M,M,M,M,M,M,41.42,KCXP 022315Z AUTO 28009KT 10SM CLR 08/M07 A2980 RMK AO2,M
RTS,2025-04-02 23:15,-119.8764,39.6682,1539.00,41.00,19.40,41.54,260.00,9.00,0.00,29.81,M,10.00,16.00,SCT,M,M,M,7000.00,M,M,M,M,M,M,M,M,M,M,34.70,KRTS 022315Z AUTO 26009G16KT 210V290 10SM SCT070 05/M07 A2981 RMK AO2,M
MEV,2025-04-02 23:15,-119.7500,38.9963,1441.42,46.40,15.80,28.93,290.00,8.00,0.00,29.79,M,10.00,M,BKN,OVC,M,M,6000.00,7000.00,M,M,M,M,M,M,M,M,M,41.85,KMEV 022315Z AUTO 29008KT 10SM BKN060 OVC070 08/M09 A2979 RMK AO2,M
HTH,2025-04-02 23:15,-118.6315,38.5448,1282.89,44.60,19.40,36.18,350.00,15.00,0.00,29.78,M,10.00,21.00,CLR,M,M,M,M,M,M,M,M,M,M,M,M,M,M,37.11,KHTH 022315Z AUTO 35015G21KT 10SM CLR 07/M07 A2978 RMK A01,M
TMT,2025-04-02 23:15,-117.1971,39.4643,1749.34,39.60,23.70,52.61,350.00,11.00,0.00,29.76,M,10.00,15.00,SCT,BKN,BKN,M,3900.00,6000.00,7000.00,M,M,M,M,M,M,M,M,32.07,KTMT 022315Z AUTO 35011G15KT 10SM SCT039 BKN060 BKN070 04/M05 A2976 RMK AO2 T00421046,M
10U,2025-04-02 23:20,-116.1876,41.9532,1637.00,33.80,28.40,80.36,160.00,9.00,0.00,29.77,M,7.00,M,FEW,FEW,M,M,300.00,5000.00,M,M,-UP,M,M,M,M,M,M,25.75,K10U 022320Z AUTO 16009KT 7SM -UP FEW003 FEW050 01/M02 A2977 RMK AO2,M
RTS,2025-04-02 23:25,-119.8764,39.6682,1539.00,42.80,23.00,45.14,260.00,11.00,0.00,29.81,M,10.00,M,FEW,SCT,M,M,5000.00,7500.00,M,M,M,M,M,M,M,M,M,36.11,KRTS 022325Z AUTO 26011KT 10SM FEW050 SCT075 06/M05 A2981 RMK AO2,M
BAM,2025-04-02 23:35,-116.8743,40.5990,1382.36,39.20,32.00,75.16,320.00,7.00,0.00,29.79,M,10.00,M,SCT,SCT,BKN,M,1900.00,3600.00,4600.00,M,M,M,M,M,M,M,M,33.56,KBAM 022335Z AUTO 32007KT 10SM SCT019 SCT036 BKN046 04/00 A2979 RMK AO1,M
BVU,2025-04-02 23:35,-114.8611,35.9475,671.00,60.80,23.00,23.23,230.00,14.00,0.00,29.64,M,10.00,M,SCT,M,M,M,7500.00,M,M,M,M,M,M,M,M,M,M,60.80,KBVU 022335Z AUTO 23014KT 10SM SCT075 16/M05 A2964 RMK AO2,M
CXP,2025-04-02 23:35,-119.7326,39.1923,1431.00,46.40,19.40,33.79,350.00,8.00,0.00,29.80,M,10.00,14.00,BKN,BKN,M,M,6500.00,7000.00,M,M,M,M,M,M,M,M,M,41.85,KCXP 022335Z AUTO 35008G14KT 330V030 10SM BKN065 BKN070 08/M07 A2980 RMK AO2,M
MEV,2025-04-02 23:35,-119.7500,38.9963,1441.42,46.40,14.00,26.75,310.00,6.00,0.00,29.79,M,10.00,M,OVC,M,M,M,6000.00,M,M,M,M,M,M,M,M,M,M,42.87,KMEV 022335Z AUTO 31006KT 10SM OVC060 08/M10 A2979 RMK AO2,M
HTH,2025-04-02 23:35,-118.6315,38.5448,1282.89,46.40,19.40,33.79,310.00,14.00,0.00,29.79,M,10.00,21.00,FEW,M,M,M,6500.00,M,M,M,M,M,M,M,M,M,M,39.72,KHTH 022335Z AUTO 31014G21KT 10SM FEW065 08/M07 A2979 RMK A01,M
TMT,2025-04-02 23:35,-117.1971,39.4643,1749.34,39.00,22.30,50.78,330.00,12.00,0.00,29.76,M,10.00,20.00,SCT,SCT,SCT,M,3300.00,4100.00,5500.00,M,M,M,M,M,M,M,M,30.91,KTMT 022335Z AUTO 33012G20KT 10SM SCT033 SCT041 SCT055 04/M05 A2976 RMK AO2 T00391054,M
10U,2025-04-02 23:40,-116.1876,41.9532,1637.00,33.80,30.20,86.49,130.00,11.00,0.00,29.77,M,10.00,M,FEW,SCT,BKN,M,2500.00,4700.00,5000.00,M,M,M,M,M,M,M,M,24.74,K10U 022340Z AUTO 13011KT 10SM FEW025 SCT047 BKN050 01/M01 A2977 RMK AO2,M
P68,2025-04-02 23:53,-116.0056,39.6014,1993.00,33.00,23.00,66.32,60.00,11.00,0.00,29.72,1006.40,M,M,M,M,M,M,M,M,M,M,M,M,M,M,29.00,360.00,2025-04-02 22:57,23.73,KP68 022353Z AUTO 06011KT 01/M05 A2972 RMK AO1 PK WND 36029/2257 SLP064 T00061050 10056 20006 53005,M
DRA,2025-04-02 23:53,-116.0278,36.6206,1009.00,53.00,21.00,28.29,260.00,10.00,0.00,29.67,1003.20,10.00,M,CLR,M,M,M,M,M,M,M,M,M,M,M,M,M,M,53.00,KDRA 022353Z AUTO 26010KT 10SM CLR 12/M06 A2967 RMK AO2 SLP032 60001 T01171061 10128 20078 55004,M
ELY,2025-04-02 23:53,-114.8453,39.2950,1909.00,34.00,21.00,58.56,350.00,14.00,0.00,29.70,1006.30,10.00,21.00,FEW,BKN,M,M,3100.00,6500.00,M,M,M,M,M,M,33.00,310.00,2025-04-02 22:54,23.74,KELY 022353Z AUTO 35014G21KT 10SM FEW031 BKN065 01/M06 A2970 RMK AO2 PK WND 31033/2254 SLP063 60000 T00111061 10056 20000 53007,M
VGT,2025-04-02 23:53,-115.1933,36.2111,667.00,58.00,27.00,30.32,240.00,10.00,0.00,29.63,1004.60,10.00,M,CLR,M,M,M,M,M,M,M,M,M,M,M,M,M,M,58.00,KVGT 022353Z 24010KT 10SM CLR 14/M03 A2963 RMK AO2 SLP046 60000 T01441028 10150 20094 56014,M
LOL,2025-04-02 23:53,-118.5701,40.0684,1192.43,46.00,27.00,47.20,100.00,9.00,0.04,29.78,1009.30,10.00,M,SCT,OVC,M,M,7000.00,9500.00,M,M,M,M,M,M,M,M,M,40.92,KLOL 022353Z AUTO 10009KT 10SM SCT070 OVC095 08/M03 A2978 RMK AO2 RAB06E35 SLP093 P0004 60004 T00781028 10100 20033 55003,M
BVU,2025-04-02 23:55,-114.8611,35.9475,671.00,59.00,21.20,22.95,260.00,10.00,0.00,29.65,M,10.00,M,FEW,SCT,M,M,7500.00,8500.00,M,M,M,M,M,M,M,M,M,59.00,KBVU 022355Z AUTO 26010KT 10SM FEW075 SCT085 15/M06 A2965 RMK AO2,M
RNO,2025-04-02 23:55,-119.7711,39.4839,1341.00,45.00,18.00,33.55,20.00,7.00,0.00,29.80,1008.40,10.00,M,SCT,BKN,M,M,5000.00,8500.00,M,M,M,M,M,M,M,M,M,40.63,KRNO 022355Z 02007KT 10SM SCT050 BKN085 07/M08 A2980 RMK AO2 SLP084 MTN TOPS OBSCD DSNT W THRU NW 60001 T00721078 10072 20039 56008,M
BAM,2025-04-02 23:55,-116.8743,40.5990,1382.36,42.80,30.20,60.79,320.00,10.00,0.00,29.79,M,10.00,M,CLR,M,M,M,M,M,M,M,M,M,M,M,M,M,M,36.51,KBAM 022355Z AUTO 32010KT 10SM CLR 06/M01 A2979 RMK AO1,M
CXP,2025-04-02 23:55,-119.7326,39.1923,1431.00,46.40,17.60,31.28,320.00,8.00,0.00,29.81,M,10.00,M,SCT,M,M,M,6500.00,M,M,M,M,M,M,M,M,M,M,41.85,KCXP 022355Z AUTO 32008KT 290V350 10SM SCT065 08/M08 A2981 RMK AO2,M
MEV,2025-04-02 23:55,-119.7500,38.9963,1441.42,46.40,15.80,28.93,310.00,6.00,0.00,29.79,M,10.00,12.00,M,M,M,M,M,M,M,M,M,M,M,M,M,M,M,42.87,KMEV 022355Z AUTO 31006G12KT 10SM 08/M09 A2979 RMK AO2,M
HTH,2025-04-02 23:55,-118.6315,38.5448,1282.89,44.60,17.60,33.49,310.00,9.00,0.00,29.79,M,10.00,M,CLR,M,M,M,M,M,M,M,M,M,M,M,M,M,M,39.18,KHTH 022355Z AUTO 31009KT 10SM CLR 07/M08 A2979 RMK A01,M
TMT,2025-04-02 23:55,-117.1971,39.4643,1749.34,39.00,21.40,48.89,350.00,15.00,0.00,29.77,M,10.00,M,CLR,M,M,M,M,M,M,M,M,M,M,M,M,M,M,29.85,KTMT 022355Z AUTO 35015KT 10SM CLR 04/M06 A2977 RMK AO2 T00381059 10044 21010,M
INS,2025-04-02 23:55,-115.6733,36.5872,955.00,55.60,17.20,21.86,230.00,17.00,0.00,29.65,1002.40,10.00,M,FEW,M,M,M,11000.00,M,M,M,M,M,M,M,M,M,M,55.60,KINS 022355Z AUTO 23017KT 10SM FEW110 13/M08 A2965 RMK AO2 SLP024 T01311082 10136 20080 57008 $,M
LSV,2025-04-02 23:55,-115.0343,36.2362,570.00,61.30,22.00,21.88,200.00,8.00,0.00,29.60,1001.60,10.00,M,SCT,BKN,M,M,15000.00,20000.00,M,M,M,M,M,M,M,M,M,61.30,KLSV 022355Z 20008KT 10SM SCT150 BKN200 16/M05 A2960 RMK AO2A SLP016 T01631055 10165 20130 57015 FZRANO $,M
EKO,2025-04-02 23:56,-115.7860,40.8242,1367.00,39.00,27.00,61.78,80.00,8.00,0.00,29.74,1007.80,10.00,M,SCT,BKN,OVC,M,4700.00,6000.00,10000.00,M,M,M,M,M,M,M,M,32.74,KEKO 022356Z AUTO 08008KT 10SM SCT047 BKN060 OVC100 04/M03 A2974 RMK AO2 SLP078 T00391028 10067 20022 53004,M
WMC,2025-04-02 23:56,-117.8072,40.9019,1315.00,43.00,27.00,52.91,210.00,5.00,T,29.78,1008.70,10.00,M,FEW,M,M,M,6000.00,M,M,M,M,M,M,M,M,M,M,39.46,KWMC 022356Z AUTO 21005KT 10SM FEW060 06/M03 A2978 RMK AO2 RAB2258E01SNE2258 SLP087 P0000 60000 T00611028 10089 20033 56005 TSNO,M
HND,2025-04-02 23:56,-115.1344,35.9729,742.79,57.00,25.00,28.93,290.00,15.00,0.00,29.67,1006.10,10.00,M,CLR,M,M,M,M,M,M,M,M,M,M,M,M,M,M,57.00,KHND 022356Z 29015KT 10SM CLR 14/M04 A2967 RMK AO2 SLP061 T01391039 10150 20106 56008 $,M
TPH,2025-04-02 23:56,-117.0904,38.0505,1654.00,36.00,26.00,66.69,M,3.00,T,29.74,1007.60,10.00,M,FEW,M,M,M,11000.00,M,M,M,M,M,M,M,M,M,M,33.26,KTPH 022356Z AUTO VRB03KT 10SM FEW110 02/M03 A2974 RMK AO2 SNE2258 SLP076 P0000 60004 T00221033 10083 20000 53005,M
LAS,2025-04-02 23:56,-115.1634,36.0719,663.00,58.00,25.00,27.91,240.00,11.00,0.00,29.66,1003.50,10.00,16.00,FEW,FEW,BKN,BKN,4000.00,7000.00,20000.00,25000.00,M,M,M,M,M,M,M,58.00,KLAS 022356Z 24011G16KT 10SM FEW040 FEW070 BKN200 BKN250 14/M04 A2966 RMK AO2 SLP035 VIRGA DSNT N CB DSNT N T01441039 10150 20106 56011,M
NFL,2025-04-02 23:57,-118.7010,39.4166,1199.00,45.00,20.00,36.55,300.00,19.00,T,29.79,1006.70,10.00,27.00,SCT,BKN,BKN,BKN,4000.00,5500.00,8000.00,13000.00,-SN,M,M,M,28.00,320.00,2025-04-02 23:38,36.63,KNFL 022357Z 30019G27KT 10SM -SN SCT040 BKN055 BKN080 BKN130 07/M07 A2979 RMK AO2 PK WND 32028/2338 SNB55 SLP067 P0000 60000 T00721067 10111 20061 53001,M
