station,valid,lon,lat,elevation,tmpf,dwpf,relh,drct,sknt,p01i,alti,mslp,vsby,gust,skyc1,skyc2,skyc3,skyc4,skyl1,skyl2,skyl3,skyl4,wxcodes,ice_accretion_1hr,ice_accretion_3hr,ice_accretion_6hr,peak_wind_gust,peak_wind_drct,peak_wind_time,feel,metar,snowdepth
CXP,2021-03-11 00:10,-119.7326,39.1923,1431.00,41.00,21.20,44.85,90.00,7.00,0.00,29.78,M,10.00,15.00,BKN,OVC,M,M,5000.00,6000.00,M,M,M,M,M,M,M,M,M,35.75,KCXP 110010Z AUTO 09007G15KT 10SM BKN050 OVC060 05/M06 A2978 RMK AO2,M
ELY,2021-03-11 00:11,-114.8453,39.2950,1909.00,27.00,25.00,92.05,M,M,0.02,29.76,M,M,M,OVC,M,M,M,800.00,M,M,M,SN,M,M,M,M,M,M,M,KELY 110011Z AUTO SN OVC008 M03/M04 A2976 RMK AO2 P0002 T10281039 $,M
LSV,2021-03-11 00:12,-115.0343,36.2362,570.00,55.40,23.00,28.20,250.00,16.00,0.00,29.84,1010.10,10.00,26.00,FEW,M,M,M,7500.00,M,M,M,M,M,M,M,M,M,M,55.40,KLSV 110012Z AUTO 25016G26KT 10SM FEW075 13/M05 A2984 RMK AO2 WSHFT 00 SLP101 $,M
TPH,2021-03-11 00:12,-117.0904,38.0505,1654.00,28.90,28.00,96.38,20.00,5.00,T,29.78,M,1.25,M,SCT,BKN,OVC,M,3100.00,5000.00,7000.00,M,-SN BR,M,M,M,M,M,M,22.71,KTPH 110012Z AUTO 02005KT 1 1/4SM -SN BR SCT031 BKN050 OVC070 M02/M02 A2978 RMK AO2 P0000 T10171022,M
TMT,2021-03-11 00:15,-117.1971,39.4643,1749.34,30.40,26.60,85.58,0.00,0.00,0.00,29.77,M,5.00,M,M,M,M,M,M,M,M,M,-SN,M,M,M,M,M,M,30.40,KTMT 110015Z AUTO 00000KT 5SM -SN M01/M03 A2977 RMK AO2 T10091030,M
BAM,2021-03-11 00:15,-116.8743,40.5990,1382.36,33.80,33.80,100.00,0.00,0.00,0.00,29.80,M,3.00,M,SCT,BKN,OVC,M,1200.00,1800.00,3100.00,M,M,M,M,M,M,M,M,33.80,KBAM 110015Z AUTO 00000KT 3SM SCT012 BKN018 OVC031 01/01 A2980 RMK AO1,M
05U,2021-03-11 00:15,-116.0051,39.6042,1811.23,32.00,24.80,74.44,0.00,0.00,0.00,29.75,M,10.00,10.00,FEW,SCT,BKN,M,5500.00,6000.00,7500.00,M,M,M,M,M,M,M,M,32.00,K05U 110015Z AUTO 00000G10KT 10SM FEW055 SCT060 BKN075 M00/M04 A2975 RMK A01,M
BVU,2021-03-11 00:15,-114.8611,35.9475,671.00,55.40,23.00,28.20,180.00,6.00,0.00,29.85,M,10.00,M,FEW,M,M,M,10000.00,M,M,M,M,M,M,M,M,M,M,55.40,KBVU 110015Z AUTO 18006KT 10SM FEW100 13/M05 A2985 RMK AO2,M
MEV,2021-03-11 00:15,-119.7500,38.9963,1441.42,41.00,15.80,35.57,250.00,13.00,0.00,29.76,M,10.00,19.00,FEW,SCT,BKN,M,3900.00,5500.00,6500.00,M,M,M,M,M,M,M,M,33.10,KMEV 110015Z AUTO 25013G19KT 10SM FEW039 SCT055 BKN065 05/M09 A2976 RMK AO2,M
HTH,2021-03-11 00:15,-118.6315,38.5448,1282.89,39.20,21.20,48.10,320.00,7.00,0.00,29.79,M,10.00,M,FEW,FEW,M,M,3000.00,3600.00,M,M,M,M,M,M,M,M,M,33.56,KHTH 110015Z AUTO 32007KT 10SM FEW030 FEW036 04/M06 A2979 RMK A01,M
RTS,2021-03-11 00:15,-119.8764,39.6682,1539.00,35.60,23.00,59.79,50.00,8.00,0.00,29.78,M,10.00,M,FEW,SCT,BKN,M,3000.00,5500.00,7000.00,M,M,M,M,M,M,M,M,28.55,KRTS 110015Z AUTO 05008KT 10SM FEW030 SCT055 BKN070 02/M05 A2978 RMK AO2,M
TPH,2021-03-11 00:17,-117.0904,38.0505,1654.00,28.90,28.00,96.38,10.00,6.00,T,29.78,M,2.00,M,FEW,BKN,OVC,M,800.00,4800.00,7000.00,M,-SN BR,M,M,M,M,M,M,21.80,KTPH 110017Z AUTO 01006KT 2SM -SN BR FEW008 BKN048 OVC070 M02/M02 A2978 RMK AO2 P0000 T10171022,M
TPH,2021-03-11 00:26,-117.0904,38.0505,1654.00,28.90,28.00,96.38,30.00,6.00,T,29.78,M,8.00,M,FEW,BKN,OVC,M,800.00,4600.00,7000.00,M,M,M,M,M,M,M,M,21.80,KTPH 110026Z AUTO 03006KT 8SM FEW008 BKN046 OVC070 M02/M02 A2978 RMK AO2 SNE26 P0000 T10171022,M
CXP,2021-03-11 00:30,-119.7326,39.1923,1431.00,44.60,15.80,30.98,290.00,14.00,0.00,29.77,M,10.00,20.00,FEW,BKN,BKN,M,4400.00,5000.00,10000.00,M,M,M,M,M,M,M,M,37.40,KCXP 110030Z AUTO 29014G20KT 260V320 10SM FEW044 BKN050 BKN100 07/M09 A2977 RMK AO2,M
MEV,2021-03-11 00:35,-119.7500,38.9963,1441.42,39.20,14.00,35.26,260.00,17.00,0.00,29.76,M,10.00,M,FEW,FEW,BKN,M,4200.00,5000.00,6000.00,M,M,M,M,M,M,M,M,29.51,KMEV 110035Z AUTO 26017KT 10SM FEW042 FEW050 BKN060 04/M10 A2976 RMK AO2,M
RTS,2021-03-11 00:35,-119.8764,39.6682,1539.00,33.80,24.80,69.25,40.00,11.00,0.00,29.79,M,10.00,M,SCT,BKN,OVC,M,2600.00,3300.00,7000.00,M,+UP,M,M,M,M,M,M,24.74,KRTS 110035Z AUTO 04011KT 10SM +UP SCT026 BKN033 OVC070 01/M04 A2979 RMK AO2,M
HTH,2021-03-11 00:35,-118.6315,38.5448,1282.89,37.40,21.20,51.61,290.00,8.00,0.00,29.79,M,10.00,M,SCT,BKN,BKN,M,5000.00,6000.00,7000.00,M,M,M,M,M,M,M,M,30.76,KHTH 110035Z AUTO 29008KT 10SM SCT050 BKN060 BKN070 03/M06 A2979 RMK A01,M
BAM,2021-03-11 00:35,-116.8743,40.5990,1382.36,33.80,33.80,100.00,130.00,4.00,0.00,29.80,M,7.00,M,SCT,BKN,OVC,M,2200.00,3000.00,6500.00,M,M,M,M,M,M,M,M,29.52,KBAM 110035Z AUTO 13004KT 7SM SCT022 BKN030 OVC065 01/01 A2980 RMK AO1,M
BVU,2021-03-11 00:35,-114.8611,35.9475,671.00,57.20,19.40,22.68,240.00,12.00,0.00,29.85,M,10.00,M,BKN,M,M,M,8500.00,M,M,M,M,M,M,M,M,M,M,57.20,KBVU 110035Z AUTO 24012KT 10SM BKN085 14/M07 A2985 RMK AO2,M
05U,2021-03-11 00:35,-116.0051,39.6042,1811.23,33.80,24.80,69.25,0.00,0.00,0.00,29.75,M,10.00,M,SCT,SCT,BKN,M,3600.00,4600.00,5500.00,M,M,M,M,M,M,M,M,33.80,K05U 110035Z AUTO 00000KT 10SM SCT036 SCT046 BKN055 01/M04 A2975 RMK A01,M
TMT,2021-03-11 00:35,-117.1971,39.4643,1749.34,30.60,27.50,88.10,0.00,0.00,0.00,29.77,M,10.00,M,M,M,M,M,M,M,M,M,M,M,M,M,M,M,M,30.60,KTMT 110035Z AUTO 00000KT 10SM M01/M02 A2977 RMK AO2 T10081025,M
ELY,2021-03-11 00:45,-114.8453,39.2950,1909.00,27.00,25.00,92.05,M,M,0.06,29.76,M,M,M,BKN,OVC,M,M,1200.00,4600.00,M,M,-SN,M,M,M,M,M,M,M,KELY 110045Z AUTO -SN BKN012 OVC046 M03/M04 A2976 RMK AO2 P0006 T10281039 $,M
RNO,2021-03-11 00:48,-119.7711,39.4839,1341.00,37.00,24.10,59.24,0.00,0.00,T,29.79,M,3.00,M,FEW,BKN,BKN,BKN,2000.00,2900.00,5500.00,13000.00,-SN,M,M,M,M,M,M,37.00,KRNO 110048Z 00000KT 3SM R16R/5000VP6000FT -SN FEW020 BKN029 BKN055 BKN130 03/M04 A2979 RMK AO2 SNE10B33 P0000 T00281044,M
CXP,2021-03-11 00:50,-119.7326,39.1923,1431.00,42.80,14.00,30.68,280.00,9.00,0.00,29.78,M,10.00,M,FEW,FEW,SCT,M,4400.00,4900.00,5500.00,M,M,M,M,M,M,M,M,36.94,KCXP 110050Z AUTO 28009KT 10SM FEW044 FEW049 SCT055 06/M10 A2978 RMK AO2,M
ELY,2021-03-11 00:53,-114.8453,39.2950,1909.00,27.00,24.10,88.65,M,M,0.06,29.76,1011.70,M,M,FEW,BKN,OVC,M,1400.00,2300.00,4700.00,M,-SN,M,M,M,M,M,M,M,KELY 110053Z AUTO -SN FEW014 BKN023 OVC047 M03/M04 A2976 RMK AO2 SLP117 P0006 T10281044 $,M
VGT,2021-03-11 00:53,-115.1933,36.2111,667.00,52.00,28.00,39.30,250.00,15.00,0.00,29.81,1011.10,10.00,21.00,FEW,BKN,OVC,M,5000.00,7500.00,10000.00,M,M,M,M,M,34.00,210.00,2021-03-11 00:18,52.00,KVGT 110053Z 25015G21KT 10SM FEW050 BKN075 OVC100 11/M02 A2981 RMK AO2 PK WND 21034/0018 SLP111 T01111022,M
P68,2021-03-11 00:53,-116.0056,39.6014,1993.00,30.90,26.10,82.15,270.00,7.00,0.00,29.74,1008.60,M,M,M,M,M,M,M,M,M,M,M,M,M,M,M,M,M,23.44,KP68 110053Z AUTO 27007KT 210V280 M01/M03 A2974 RMK AO1 SLP086 T10061033,M
LOL,2021-03-11 00:53,-118.5701,40.0684,1192.43,39.00,25.00,56.86,0.00,0.00,0.00,29.79,1010.70,10.00,M,CLR,M,M,M,M,M,M,M,M,M,M,M,M,M,M,39.00,KLOL 110053Z AUTO 00000KT 10SM CLR 04/M04 A2979 RMK AO2 SLP107 T00391039,M
BAM,2021-03-11 00:55,-116.8743,40.5990,1382.36,33.80,33.80,100.00,140.00,4.00,0.00,29.80,M,10.00,M,SCT,BKN,OVC,M,3400.00,7500.00,8000.00,M,M,M,M,M,M,M,M,29.52,KBAM 110055Z AUTO 14004KT 10SM SCT034 BKN075 OVC080 01/01 A2980 RMK AO1,M
BVU,2021-03-11 00:55,-114.8611,35.9475,671.00,55.40,17.60,22.41,240.00,13.00,0.00,29.85,M,10.00,19.00,BKN,BKN,BKN,M,8500.00,10000.00,12000.00,M,M,M,M,M,M,M,M,55.40,KBVU 110055Z AUTO 24013G19KT 10SM BKN085 BKN100 BKN120 13/M08 A2985 RMK AO2,M
RNO,2021-03-11 00:55,-119.7711,39.4839,1341.00,36.00,24.10,61.62,0.00,0.00,T,29.79,1009.20,6.00,M,FEW,BKN,BKN,BKN,2000.00,2900.00,5500.00,13000.00,-SN,M,M,M,M,M,M,36.00,KRNO 110055Z 00000KT 6SM -SN FEW020 BKN029 BKN055 BKN130 02/M04 A2979 RMK AO2 SNE10B33 SLP092 P0000 T00221044,M
MEV,2021-03-11 00:55,-119.7500,38.9963,1441.42,37.40,14.00,37.84,270.00,15.00,0.00,29.77,M,10.00,M,BKN,BKN,M,M,5500.00,6500.00,M,M,M,M,M,M,M,M,M,27.78,KMEV 110055Z AUTO 27015KT 10SM BKN055 BKN065 03/M10 A2977 RMK AO2,M
TMT,2021-03-11 00:55,-117.1971,39.4643,1749.34,30.20,27.70,90.28,200.00,5.00,0.00,29.78,M,10.00,M,M,M,M,M,M,M,M,M,M,M,M,M,M,M,M,24.26,KTMT 110055Z AUTO 20005KT 10SM M01/M02 A2978 RMK AO2 T10101024,M
RTS,2021-03-11 00:55,-119.8764,39.6682,1539.00,32.00,24.80,74.44,340.00,11.00,0.00,29.79,M,4.00,M,SCT,BKN,OVC,M,1700.00,2800.00,4200.00,M,-SN,M,M,M,M,M,M,22.47,KRTS 110055Z AUTO 34011KT 4SM -SN SCT017 BKN028 OVC042 00/M04 A2979 RMK AO2,M
05U,2021-03-11 00:55,-116.0051,39.6042,1811.23,32.00,24.80,74.44,260.00,11.00,0.00,29.76,M,1.25,M,SCT,BKN,OVC,M,300.00,1600.00,2700.00,M,HZ,M,M,M,M,M,M,22.47,K05U 110055Z AUTO 26011KT 1 1/4SM HZ SCT003 BKN016 OVC027 M00/M04 A2976 RMK A01,M
HTH,2021-03-11 00:55,-118.6315,38.5448,1282.89,37.40,21.20,51.61,320.00,8.00,0.00,29.79,M,10.00,M,BKN,OVC,M,M,5000.00,6000.00,M,M,M,M,M,M,M,M,M,30.76,KHTH 110055Z AUTO 32008KT 10SM BKN050 OVC060 03/M06 A2979 RMK A01,M
WMC,2021-03-11 00:56,-117.8072,40.9019,1315.00,39.00,21.90,49.93,330.00,4.00,0.00,29.78,1009.70,10.00,M,BKN,M,M,M,9000.00,M,M,M,M,M,M,M,M,M,M,35.59,KWMC 110056Z AUTO 33004KT 10SM BKN090 04/M06 A2978 RMK AO2 SLP097 T00391056,M
NFL,2021-03-11 00:56,-118.7010,39.4166,1199.00,37.00,30.90,78.37,M,5.00,T,29.80,1007.00,10.00,M,BKN,BKN,OVC,M,3000.00,8000.00,10000.00,M,M,M,M,M,M,M,M,32.33,KNFL 110056Z VRB05KT 10SM BKN030 BKN080 OVC100 03/M01 A2980 RMK AO2 SNE07 SLP070 SH DSNT NW-N AND NE-E P0000 T00281006,M
HND,2021-03-11 00:56,-115.1344,35.9729,742.79,50.00,25.00,37.39,230.00,36.00,0.00,29.84,1012.20,8.00,50.00,CLR,M,M,M,M,M,M,M,M,M,M,M,50.00,230.00,2021-03-11 00:55,50.00,KHND 110056Z 23036G50KT 8SM CLR 10/M04 A2984 RMK AO2 PK WND 23050/0055 SLP122 T01001039,M
EKO,2021-03-11 00:56,-115.7860,40.8242,1367.00,37.00,21.00,51.99,280.00,12.00,0.00,29.75,1009.90,10.00,M,BKN,OVC,M,M,7500.00,9000.00,M,M,M,M,M,M,M,M,M,28.37,KEKO 110056Z AUTO 28012KT 10SM BKN075 OVC090 03/M06 A2975 RMK AO2 SLP099 T00281061,M
LAS,2021-03-11 00:56,-115.1634,36.0719,663.00,51.00,27.00,38.99,280.00,11.00,0.00,29.87,1011.30,10.00,M,SCT,BKN,BKN,BKN,7000.00,11000.00,17000.00,25000.00,M,M,M,M,28.00,260.00,2021-03-11 00:01,51.10,KLAS 110056Z 28011KT 230V310 10SM SCT070 BKN110 BKN170 BKN250 11/M03 A2987 RMK AO2 PK WND 26028/0001 SLP113 VCSH S-W-N VIRGA DSNT E T01061028,M
TPH,2021-03-11 00:56,-117.0904,38.0505,1654.00,28.90,28.00,96.38,40.00,7.00,T,29.79,1010.70,9.00,M,SCT,BKN,OVC,M,3800.00,4400.00,7000.00,M,-SN,M,M,M,M,M,M,21.00,KTPH 110056Z AUTO 04007KT 9SM -SN SCT038 BKN044 OVC070 M02/M02 A2979 RMK AO2 SNE26B55 SLP107 P0000 T10171022,M
INS,2021-03-11 00:58,-115.6733,36.5872,955.00,47.00,22.60,37.98,190.00,5.00,0.00,29.79,1007.90,10.00,M,CLR,M,M,M,M,M,M,M,M,M,M,M,M,M,M,44.09,KINS 110058Z AUTO 19005KT 10SM CLR 08/M05 A2979 RMK AO2 SLP079 T00831052 $,M
LSV,2021-03-11 00:58,-115.0343,36.2362,570.00,54.00,22.60,29.07,260.00,14.00,0.00,29.85,1010.50,10.00,M,FEW,BKN,M,M,7500.00,10000.00,M,M,M,M,M,M,28.00,230.00,2021-03-11 00:26,54.10,KLSV 110058Z 26014KT 10SM FEW075 BKN100 12/M05 A2985 RMK AO2A PK WND 23028/26 SLP105 T01231052 $,M
ELY,2021-03-11 01:08,-114.8453,39.2950,1909.00,27.00,23.00,84.66,M,M,T,29.76,M,M,M,FEW,BKN,OVC,M,1600.00,4900.00,7000.00,M,-SN,M,M,M,M,M,M,M,KELY 110108Z AUTO -SN FEW016 BKN049 OVC070 M03/M05 A2976 RMK AO2 P0000 T10281050 $,M
TPH,2021-03-11 01:11,-117.0904,38.0505,1654.00,28.90,28.90,100.00,60.00,7.00,T,29.79,M,2.00,M,BKN,BKN,OVC,M,2800.00,3600.00,4300.00,M,-SN BR,M,M,M,M,M,M,21.00,KTPH 110111Z AUTO 06007KT 2SM -SN BR BKN028 BKN036 OVC043 M02/M02 A2979 RMK AO2 P0000 T10171017,M
TMT,2021-03-11 01:15,-117.1971,39.4643,1749.34,29.80,27.10,89.53,170.00,5.00,0.00,29.78,M,10.00,M,M,M,M,M,M,M,M,M,M,M,M,M,M,M,M,23.78,KTMT 110115Z AUTO 17005KT 10SM M01/M03 A2978 RMK AO2 T10121027,M
CXP,2021-03-11 01:15,-119.7326,39.1923,1431.00,41.00,12.20,30.38,M,4.00,0.00,29.79,M,10.00,12.00,BKN,BKN,M,M,6000.00,7000.00,M,M,M,M,M,M,M,M,M,37.93,KCXP 110115Z AUTO VRB04G12KT 10SM BKN060 BKN070 05/M11 A2979 RMK AO2,M
05U,2021-03-11 01:15,-116.0051,39.6042,1811.23,28.40,24.80,86.18,250.00,6.00,0.00,29.77,M,1.50,12.00,BKN,BKN,OVC,M,300.00,700.00,2100.00,M,BR,M,M,M,M,M,M,21.19,K05U 110115Z AUTO 25006G12KT 1 1/2SM BR BKN003 BKN007 OVC021 M02/M04 A2977 RMK A01,M
RTS,2021-03-11 01:15,-119.8764,39.6682,1539.00,30.20,26.60,86.28,50.00,11.00,0.00,29.80,M,4.00,M,FEW,SCT,BKN,M,1700.00,2300.00,3000.00,M,-SN,M,M,M,M,M,M,20.19,KRTS 110115Z AUTO 05011KT 4SM -SN FEW017 SCT023 BKN030 M01/M03 A2980 RMK AO2,M
BAM,2021-03-11 01:15,-116.8743,40.5990,1382.36,33.80,33.80,100.00,100.00,4.00,0.00,29.80,M,10.00,M,OVC,M,M,M,6500.00,M,M,M,M,M,M,M,M,M,M,29.52,KBAM 110115Z AUTO 10004KT 10SM OVC065 01/01 A2980 RMK AO1,M
HTH,2021-03-11 01:15,-118.6315,38.5448,1282.89,37.40,24.80,60.04,320.00,8.00,0.00,29.80,M,10.00,M,FEW,SCT,BKN,M,3000.00,3600.00,4100.00,M,M,M,M,M,M,M,M,30.76,KHTH 110115Z AUTO 32008KT 10SM FEW030 SCT036 BKN041 03/M04 A2980 RMK A01,M
BVU,2021-03-11 01:15,-114.8611,35.9475,671.00,55.40,15.80,20.73,260.00,19.00,0.00,29.85,M,10.00,26.00,FEW,BKN,BKN,M,7500.00,8500.00,11000.00,M,M,M,M,M,M,M,M,55.40,KBVU 110115Z AUTO 26019G26KT 10SM FEW075 BKN085 BKN110 13/M09 A2985 RMK AO2 LTG DSNT E,M
MEV,2021-03-11 01:15,-119.7500,38.9963,1441.42,35.60,14.00,40.63,280.00,10.00,0.00,29.78,M,10.00,19.00,BKN,BKN,M,M,5000.00,6500.00,M,M,M,M,M,M,M,M,M,27.48,KMEV 110115Z AUTO 28010G19KT 10SM BKN050 BKN065 02/M10 A2978 RMK AO2,M
TPH,2021-03-11 01:21,-117.0904,38.0505,1654.00,28.90,28.00,96.38,80.00,13.00,T,29.78,M,1.00,M,OVC,M,M,M,2400.00,M,M,M,-SN BR,M,M,M,M,M,M,17.60,KTPH 110121Z AUTO 08013KT 1SM -SN BR OVC024 M02/M02 A2978 RMK AO2 P0000 T10171022,M
CXP,2021-03-11 01:30,-119.7326,39.1923,1431.00,39.20,14.00,35.26,310.00,10.00,0.00,29.80,M,10.00,M,SCT,BKN,M,M,6000.00,7000.00,M,M,M,M,M,M,M,M,M,32.00,KCXP 110130Z AUTO 31010KT 10SM SCT060 BKN070 04/M10 A2980 RMK AO2,M
TPH,2021-03-11 01:33,-117.0904,38.0505,1654.00,28.90,28.90,100.00,90.00,8.00,T,29.78,M,2.00,M,BKN,OVC,M,M,3100.00,6500.00,M,M,-SN BR,M,M,M,M,M,M,20.29,KTPH 110133Z AUTO 09008KT 2SM -SN BR BKN031 OVC065 M02/M02 A2978 RMK AO2 P0000 T10171017,M
RTS,2021-03-11 01:35,-119.8764,39.6682,1539.00,32.00,28.40,86.39,50.00,13.00,0.00,29.80,M,10.00,M,SCT,BKN,OVC,M,2300.00,3800.00,4500.00,M,M,M,M,M,M,M,M,21.57,KRTS 110135Z AUTO 05013KT 10SM SCT023 BKN038 OVC045 M00/M02 A2980 RMK AO2,M
05U,2021-03-11 01:35,-116.0051,39.6042,1811.23,28.40,24.80,86.18,250.00,6.00,0.00,29.77,M,6.00,M,FEW,SCT,OVC,M,400.00,1700.00,2300.00,M,BR,M,M,M,M,M,M,21.19,K05U 110135Z AUTO 25006KT 6SM BR FEW004 SCT017 OVC023 M02/M04 A2977 RMK A01,M
MEV,2021-03-11 01:35,-119.7500,38.9963,1441.42,37.40,14.00,37.84,270.00,12.00,0.00,29.78,M,10.00,M,BKN,OVC,M,M,5000.00,6500.00,M,M,M,M,M,M,M,M,M,28.87,KMEV 110135Z AUTO 27012KT 10SM BKN050 OVC065 03/M10 A2978 RMK AO2,M
TMT,2021-03-11 01:35,-117.1971,39.4643,1749.34,29.30,26.60,89.50,150.00,3.00,0.00,29.78,M,10.00,M,M,M,M,M,M,M,M,M,M,M,M,M,M,M,M,25.60,KTMT 110135Z AUTO 15003KT 10SM M01/M03 A2978 RMK AO2 T10151030,M
BAM,2021-03-11 01:35,-116.8743,40.5990,1382.36,33.80,33.80,100.00,80.00,4.00,0.00,29.80,M,10.00,M,SCT,OVC,M,M,6000.00,7000.00,M,M,M,M,M,M,M,M,M,29.52,KBAM 110135Z AUTO 08004KT 10SM SCT060 OVC070 01/01 A2980 RMK AO1,M
HTH,2021-03-11 01:35,-118.6315,38.5448,1282.89,37.40,24.80,60.04,340.00,9.00,0.00,29.81,M,10.00,M,BKN,OVC,M,M,3200.00,3900.00,M,M,M,M,M,M,M,M,M,30.23,KHTH 110135Z AUTO 34009KT 10SM BKN032 OVC039 03/M04 A2981 RMK A01,M
BVU,2021-03-11 01:35,-114.8611,35.9475,671.00,51.80,19.40,27.62,260.00,13.00,0.00,29.86,M,10.00,19.00,FEW,FEW,FEW,M,8000.00,9500.00,12000.00,M,M,M,M,M,M,M,M,51.80,KBVU 110135Z AUTO 26013G19KT 10SM FEW080 FEW095 FEW120 11/M07 A2986 RMK AO2 LTG DSNT NE,M
TPH,2021-03-11 01:37,-117.0904,38.0505,1654.00,28.90,28.00,96.38,90.00,8.00,T,29.78,M,5.00,M,BKN,BKN,OVC,M,2900.00,6000.00,9000.00,M,-SN BR,M,M,M,M,M,M,20.29,KTPH 110137Z AUTO 09008KT 5SM -SN BR BKN029 BKN060 OVC090 M02/M02 A2978 RMK AO2 P0000 T10171022,M
LAS,2021-03-11 01:39,-115.1634,36.0719,663.00,48.00,30.00,49.49,280.00,15.00,0.00,29.87,M,10.00,M,SCT,SCT,BKN,BKN,7000.00,11000.00,17000.00,25000.00,M,M,M,M,26.00,220.00,2021-03-11 01:07,41.52,KLAS 110139Z 28015KT 10SM SCT070 SCT110 BKN170 BKN250 09/M01 A2987 RMK AO2 PK WND 22026/0107 WSHFT 0119 LTG DSNT E VCSH S-W AND N VIRGA DSNT NE-SE T00891011,M
TPH,2021-03-11 01:46,-117.0904,38.0505,1654.00,28.90,28.00,96.38,110.00,6.00,T,29.78,M,9.00,M,SCT,SCT,OVC,M,3700.00,6000.00,10000.00,M,M,M,M,M,M,M,M,21.80,KTPH 110146Z AUTO 11006KT 9SM SCT037 SCT060 OVC100 M02/M02 A2978 RMK AO2 SNE43 P0000 T10171022,M
CXP,2021-03-11 01:50,-119.7326,39.1923,1431.00,37.40,14.00,37.84,320.00,10.00,0.00,29.80,M,10.00,16.00,FEW,BKN,BKN,M,4300.00,5500.00,7000.00,M,M,M,M,M,M,M,M,29.74,KCXP 110150Z AUTO 32010G16KT 10SM FEW043 BKN055 BKN070 03/M10 A2980 RMK AO2,M
INS,2021-03-11 01:52,-115.6733,36.5872,955.00,46.40,21.20,36.48,120.00,13.00,0.00,29.79,1008.20,10.00,M,CLR,M,M,M,M,M,M,M,M,M,M,M,M,M,M,40.02,KINS 110152Z AUTO 12013KT 10SM CLR 08/M06 A2979 RMK AO2 WSHFT 46 SLP082 $,M
VGT,2021-03-11 01:53,-115.1933,36.2111,667.00,48.00,32.00,53.67,170.00,6.00,T,29.82,1011.60,10.00,M,FEW,SCT,BKN,M,5500.00,10000.00,12000.00,M,M,M,M,M,27.00,220.00,2021-03-11 01:17,44.80,KVGT 110153Z 17006KT 10SM FEW055 SCT100 BKN120 09/00 A2982 RMK AO2 PK WND 22027/0117 LTG DSNT SE RAB0057E40 SLP116 P0000 T00890000,M
LOL,2021-03-11 01:53,-118.5701,40.0684,1192.43,36.00,25.00,63.98,310.00,5.00,0.00,29.81,1011.40,10.00,M,CLR,M,M,M,M,M,M,M,M,M,M,M,M,M,M,31.15,KLOL 110153Z AUTO 31005KT 10SM CLR 02/M04 A2981 RMK AO2 SLP114 T00221039,M
P68,2021-03-11 01:53,-116.0056,39.6014,1993.00,28.00,25.00,88.33,270.00,5.00,0.04,29.75,1009.30,M,M,M,M,M,M,M,M,M,M,M,M,M,M,M,M,M,21.64,KP68 110153Z AUTO 27005KT M02/M04 A2975 RMK AO1 SLP093 P0004 T10221039,M
ELY,2021-03-11 01:53,-114.8453,39.2950,1909.00,26.10,18.00,71.04,M,M,T,29.77,1011.10,M,M,FEW,SCT,M,M,4400.00,7500.00,M,M,M,M,M,M,M,M,M,M,KELY 110153Z AUTO FEW044 SCT075 M03/M08 A2977 RMK AO2 SNE11 SLP111 P0000 T10331078 $,M
RNO,2021-03-11 01:55,-119.7711,39.4839,1341.00,35.00,26.10,69.41,360.00,13.00,T,29.80,1009.80,9.00,M,SCT,BKN,BKN,BKN,2600.00,4500.00,7000.00,13000.00,-SN,M,M,M,M,M,M,25.54,KRNO 110155Z 36013KT 9SM -SN SCT026 BKN045 BKN070 BKN130 02/M03 A2980 RMK AO2 SNE21B47 SLP098 MTN TOPS OBSCD DSNT SW THRU NW P0000 T00171033,M
BVU,2021-03-11 01:55,-114.8611,35.9475,671.00,51.80,21.20,29.82,230.00,16.00,0.00,29.87,M,10.00,M,CLR,M,M,M,M,M,M,M,M,M,M,M,M,M,M,51.80,KBVU 110155Z AUTO 23016KT 10SM CLR 11/M06 A2987 RMK AO2,M
RTS,2021-03-11 01:55,-119.8764,39.6682,1539.00,32.00,24.80,74.44,30.00,8.00,0.00,29.81,M,10.00,14.00,SCT,BKN,OVC,M,2100.00,3700.00,4500.00,M,-UP,M,M,M,M,M,M,24.11,KRTS 110155Z AUTO 03008G14KT 10SM -UP SCT021 BKN037 OVC045 M00/M04 A2981 RMK AO2,M
05U,2021-03-11 01:55,-116.0051,39.6042,1811.23,28.40,24.80,86.18,260.00,4.00,0.00,29.77,M,5.00,M,FEW,BKN,OVC,M,1100.00,1600.00,2300.00,M,HZ,M,M,M,M,M,M,23.22,K05U 110155Z AUTO 26004KT 5SM HZ FEW011 BKN016 OVC023 M02/M04 A2977 RMK A01,M
MEV,2021-03-11 01:55,-119.7500,38.9963,1441.42,35.60,14.00,40.63,270.00,11.00,0.00,29.79,M,10.00,M,SCT,OVC,M,M,5000.00,5500.00,M,M,M,M,M,M,M,M,M,27.02,KMEV 110155Z AUTO 27011KT 10SM SCT050 OVC055 02/M10 A2979 RMK AO2,M
BAM,2021-03-11 01:55,-116.8743,40.5990,1382.36,33.80,33.80,100.00,70.00,5.00,0.00,29.80,M,10.00,M,SCT,BKN,M,M,4800.00,6000.00,M,M,M,M,M,M,M,M,M,28.53,KBAM 110155Z AUTO 07005KT 10SM SCT048 BKN060 01/01 A2980 RMK AO1,M
TMT,2021-03-11 01:55,-117.1971,39.4643,1749.34,28.80,26.10,89.48,160.00,3.00,0.00,29.78,M,10.00,M,M,M,M,M,M,M,M,M,M,M,M,M,M,M,M,25.03,KTMT 110155Z AUTO 16003KT 10SM M02/M03 A2978 RMK AO2 T10181033,M
HTH,2021-03-11 01:55,-118.6315,38.5448,1282.89,37.40,24.80,60.04,340.00,9.00,0.00,29.81,M,10.00,M,FEW,SCT,BKN,M,3200.00,3800.00,4600.00,M,M,M,M,M,M,M,M,30.23,KHTH 110155Z AUTO 34009KT 10SM FEW032 SCT038 BKN046 03/M04 A2981 RMK A01,M
WMC,2021-03-11 01:56,-117.8072,40.9019,1315.00,33.00,25.00,71.82,270.00,8.00,0.00,29.80,1010.70,10.00,M,FEW,M,M,M,4500.00,M,M,M,M,M,M,M,M,M,M,25.47,KWMC 110156Z AUTO 27008KT 10SM FEW045 01/M04 A2980 RMK AO2 SLP107 T00061039,M
HND,2021-03-11 01:56,-115.1344,35.9729,742.79,48.00,26.10,42.17,250.00,7.00,T,29.87,1013.30,10.00,16.00,CLR,M,M,M,M,M,M,M,M,M,M,M,37.00,230.00,2021-03-11 00:57,44.28,KHND 110156Z 25007G16KT 10SM CLR 09/M03 A2987 RMK AO2 PK WND 23037/0057 LTG DSNT E RAB0058E12 SLP133 P0000 T00891033,M
NFL,2021-03-11 01:56,-118.7010,39.4166,1199.00,35.00,30.00,81.46,M,5.00,0.00,29.81,1007.20,10.00,M,SCT,BKN,OVC,M,3000.00,8000.00,10000.00,M,M,M,M,M,M,M,M,30.08,KNFL 110156Z VRB05KT 10SM SCT030 BKN080 OVC100 02/M01 A2981 RMK AO2 SLP072 SH DSNT N-NE AND SE T00171011,M
EKO,2021-03-11 01:56,-115.7860,40.8242,1367.00,36.00,21.90,56.18,290.00,6.00,0.00,29.76,1010.10,10.00,M,OVC,M,M,M,8000.00,M,M,M,M,M,M,M,M,M,M,30.35,KEKO 110156Z AUTO 29006KT 10SM OVC080 02/M06 A2976 RMK AO2 SLP101 T00221056,M
TPH,2021-03-11 01:56,-117.0904,38.0505,1654.00,28.90,28.00,96.38,110.00,6.00,T,29.78,1010.20,10.00,M,FEW,FEW,OVC,M,6000.00,7500.00,11000.00,M,M,M,M,M,M,M,M,21.80,KTPH 110156Z AUTO 11006KT 10SM FEW060 FEW075 OVC110 M02/M02 A2978 RMK AO2 SNE43 SLP102 P0000 T10171022,M
LAS,2021-03-11 01:56,-115.1634,36.0719,663.00,47.00,30.90,53.50,270.00,7.00,0.00,29.86,1011.10,10.00,M,SCT,SCT,BKN,BKN,7000.00,11000.00,17000.00,25000.00,M,M,M,M,26.00,220.00,2021-03-11 01:07,42.94,KLAS 110156Z 27007KT 10SM SCT070 SCT110 BKN170 BKN250 08/M01 A2986 RMK AO2 PK WND 22026/0107 WSHFT 0119 LTG DSNT E SLP111 VCSH S-W AND N VIRGA DSNT NE-SE T00831006,M
INS,2021-03-11 01:58,-115.6733,36.5872,955.00,46.80,22.50,37.96,100.00,10.00,0.00,29.79,1007.90,10.00,M,CLR,M,M,M,M,M,M,M,M,M,M,M,M,M,M,41.53,KINS 110158Z AUTO 10010KT 10SM CLR 08/M05 A2979 RMK AO2 SLP079 T00821053 $,M
LSV,2021-03-11 01:58,-115.0343,36.2362,570.00,49.00,32.20,51.92,250.00,12.00,0.00,29.86,1011.00,10.00,M,CLR,M,M,M,M,M,M,M,M,M,M,M,M,M,M,43.77,KLSV 110158Z AUTO 25012KT 10SM CLR 10/00 A2986 RMK AO2 SLP110 T00950001 $,M
CXP,2021-03-11 02:10,-119.7326,39.1923,1431.00,35.60,23.00,59.79,50.00,9.00,0.00,29.81,M,10.00,M,OVC,M,M,M,6000.00,M,M,M,M,M,M,M,M,M,M,27.99,KCXP 110210Z AUTO 05009KT 10SM OVC060 02/M05 A2981 RMK AO2,M
HTH,2021-03-11 02:15,-118.6315,38.5448,1282.89,37.40,24.80,60.04,330.00,12.00,0.00,29.81,M,10.00,17.00,BKN,OVC,M,M,4800.00,5500.00,M,M,M,M,M,M,M,M,M,28.87,KHTH 110215Z AUTO 33012G17KT 10SM BKN048 OVC055 03/M04 A2981 RMK A01,M
05U,2021-03-11 02:15,-116.0051,39.6042,1811.23,28.40,24.80,86.18,260.00,5.00,0.00,29.77,M,3.00,M,SCT,BKN,OVC,M,300.00,1300.00,3000.00,M,BR,M,M,M,M,M,M,22.12,K05U 110215Z AUTO 26005KT 3SM BR SCT003 BKN013 OVC030 M02/M04 A2977 RMK A01,M
MEV,2021-03-11 02:15,-119.7500,38.9963,1441.42,33.80,14.00,43.65,270.00,8.00,0.00,29.80,M,10.00,13.00,OVC,M,M,M,5500.00,M,M,M,M,M,M,M,M,M,M,26.33,KMEV 110215Z AUTO 27008G13KT 10SM OVC055 01/M10 A2980 RMK AO2,M
BAM,2021-03-11 02:15,-116.8743,40.5990,1382.36,32.00,32.00,100.00,70.00,5.00,0.00,29.80,M,10.00,M,SCT,M,M,M,4400.00,M,M,M,M,M,M,M,M,M,M,26.40,KBAM 110215Z AUTO 07005KT 10SM SCT044 00/00 A2980 RMK AO1,M
RTS,2021-03-11 02:15,-119.8764,39.6682,1539.00,30.20,24.80,80.07,M,6.00,0.00,29.82,M,8.00,13.00,SCT,BKN,OVC,M,2000.00,2900.00,3600.00,M,-SN,M,M,M,M,M,M,23.36,KRTS 110215Z AUTO VRB06G13KT 8SM -SN SCT020 BKN029 OVC036 M01/M04 A2982 RMK AO2,M
TMT,2021-03-11 02:15,-117.1971,39.4643,1749.34,28.60,25.70,88.73,0.00,0.00,0.00,29.79,M,10.00,M,M,M,M,M,M,M,M,M,M,M,M,M,M,M,M,28.60,KTMT 110215Z AUTO 00000KT 10SM M02/M03 A2979 RMK AO2 T10191035,M
BVU,2021-03-11 02:15,-114.8611,35.9475,671.00,50.00,23.00,34.39,220.00,13.00,0.00,29.87,M,10.00,19.00,BKN,BKN,M,M,9500.00,11000.00,M,M,M,M,M,M,M,M,M,50.00,KBVU 110215Z AUTO 22013G19KT 10SM BKN095 BKN110 10/M05 A2987 RMK AO2,M
CXP,2021-03-11 02:30,-119.7326,39.1923,1431.00,33.80,24.80,69.25,10.00,7.00,0.00,29.82,M,10.00,13.00,OVC,M,M,M,6000.00,M,M,M,M,M,M,M,M,M,M,26.97,KCXP 110230Z AUTO 01007G13KT 10SM OVC060 01/M04 A2982 RMK AO2,M
TMT,2021-03-11 02:35,-117.1971,39.4643,1749.34,28.40,25.50,88.72,0.00,0.00,0.00,29.79,M,10.00,M,M,M,M,M,M,M,M,M,M,M,M,M,M,M,M,28.40,KTMT 110235Z AUTO 00000KT 10SM M02/M04 A2979 RMK AO2 T10201036,M
BAM,2021-03-11 02:35,-116.8743,40.5990,1382.36,32.00,32.00,100.00,0.00,0.00,0.00,29.81,M,10.00,M,SCT,SCT,BKN,M,400.00,2400.00,4600.00,M,M,M,M,M,M,M,M,32.00,KBAM 110235Z AUTO 00000KT 10SM SCT004 SCT024 BKN046 00/00 A2981 RMK AO1,M
05U,2021-03-11 02:35,-116.0051,39.6042,1811.23,28.40,24.80,86.18,0.00,0.00,0.00,29.77,M,10.00,M,FEW,BKN,OVC,M,200.00,2100.00,4200.00,M,M,M,M,M,M,M,M,28.40,K05U 110235Z AUTO 00000KT 10SM FEW002 BKN021 OVC042 M02/M04 A2977 RMK A01,M
RTS,2021-03-11 02:35,-119.8764,39.6682,1539.00,30.20,26.60,86.28,0.00,0.00,0.00,29.83,M,1.75,M,BKN,BKN,OVC,M,200.00,900.00,1800.00,M,-SN,M,M,M,M,M,M,30.20,KRTS 110235Z AUTO 00000KT 1 3/4SM -SN BKN002 BKN009 OVC018 M01/M03 A2983 RMK AO2,M
BVU,2021-03-11 02:35,-114.8611,35.9475,671.00,50.00,23.00,34.39,200.00,13.00,0.00,29.87,M,10.00,M,BKN,OVC,M,M,8000.00,9500.00,M,M,M,M,M,M,M,M,M,50.00,KBVU 110235Z AUTO 20013KT 10SM BKN080 OVC095 10/M05 A2987 RMK AO2,M
MEV,2021-03-11 02:35,-119.7500,38.9963,1441.42,33.80,14.00,43.65,180.00,5.00,0.00,29.81,M,10.00,M,OVC,M,M,M,5500.00,M,M,M,M,M,M,M,M,M,M,28.53,KMEV 110235Z AUTO 18005KT 10SM OVC055 01/M10 A2981 RMK AO2,M
HTH,2021-03-11 02:35,-118.6315,38.5448,1282.89,35.60,23.00,59.79,340.00,7.00,0.00,29.83,M,10.00,M,SCT,OVC,M,M,4900.00,6000.00,M,M,M,M,M,M,M,M,M,29.17,KHTH 110235Z AUTO 34007KT 10SM SCT049 OVC060 02/M05 A2983 RMK A01,M
INS,2021-03-11 02:39,-115.6733,36.5872,955.00,46.40,17.60,31.28,180.00,11.00,0.00,29.77,1007.50,10.00,16.00,CLR,M,M,M,M,M,M,M,M,M,M,M,M,M,M,40.66,KINS 110239Z AUTO 18011G16KT 10SM CLR 08/M08 A2977 RMK AO2 WSHFT 38 SLP075 $,M
TPH,2021-03-11 02:44,-117.0904,38.0505,1654.00,27.00,27.00,100.00,340.00,3.00,0.00,29.79,M,10.00,M,SCT,M,M,M,700.00,M,M,M,M,M,M,M,M,M,M,22.97,KTPH 110244Z AUTO 34003KT 10SM SCT007 M03/M03 A2979 RMK AO2 T10281028,M
INS,2021-03-11 02:49,-115.6733,36.5872,955.00,46.40,15.80,28.93,190.00,14.00,0.00,29.77,1007.50,10.00,19.00,CLR,M,M,M,M,M,M,M,M,M,M,M,M,M,M,39.72,KINS 110249Z AUTO 19014G19KT 10SM CLR 08/M09 A2977 RMK AO2 WSHFT 48 SLP075 $,M
CXP,2021-03-11 02:50,-119.7326,39.1923,1431.00,33.80,24.80,69.25,60.00,9.00,0.00,29.83,M,10.00,M,FEW,SCT,OVC,M,4200.00,4900.00,5500.00,M,M,M,M,M,M,M,M,25.75,KCXP 110250Z AUTO 06009KT 10SM FEW042 SCT049 OVC055 01/M04 A2983 RMK AO2,M
ELY,2021-03-11 02:53,-114.8453,39.2950,1909.00,23.00,19.00,84.39,M,M,0.00,29.78,1011.70,M,M,BKN,BKN,OVC,M,4600.00,6000.00,9000.00,M,M,M,M,M,M,M,M,M,KELY 110253Z AUTO BKN046 BKN060 OVC090 M05/M07 A2978 RMK AO2 SLP117 60006 T10501072 53005 $,M
P68,2021-03-11 02:53,-116.0056,39.6014,1993.00,28.00,25.00,88.33,0.00,0.00,0.01,29.75,1009.00,M,M,M,M,M,M,M,M,M,M,M,M,M,M,M,M,M,28.00,KP68 110253Z AUTO 00000KT M02/M04 A2975 RMK AO1 SLP090 P0001 60005 T10221039 51006,M
LOL,2021-03-11 02:53,-118.5701,40.0684,1192.43,30.90,23.00,72.18,160.00,3.00,0.00,29.82,1012.10,10.00,M,CLR,M,M,M,M,M,M,M,M,M,M,M,M,M,M,27.43,KLOL 110253Z AUTO 16003KT 10SM CLR M01/M05 A2982 RMK AO2 SLP121 T10061050 53008,M
VGT,2021-03-11 02:53,-115.1933,36.2111,667.00,48.00,30.00,49.49,50.00,5.00,0.00,29.82,1011.60,10.00,M,CLR,M,M,M,M,M,M,M,M,M,M,M,M,M,M,45.40,KVGT 110253Z 05005KT 10SM CLR 09/M01 A2982 RMK AO2 SLP116 60000 T00891011 50004,M
MEV,2021-03-11 02:55,-119.7500,38.9963,1441.42,33.80,15.80,47.22,80.00,6.00,0.00,29.82,M,10.00,M,SCT,OVC,M,M,5000.00,5500.00,M,M,M,M,M,M,M,M,M,27.70,KMEV 110255Z AUTO 08006KT 10SM SCT050 OVC055 01/M09 A2982 RMK AO2,M
RTS,2021-03-11 02:55,-119.8764,39.6682,1539.00,28.40,26.60,92.86,70.00,4.00,0.00,29.84,M,0.75,M,OVC,M,M,M,200.00,M,M,M,-SN,M,M,M,M,M,M,23.22,KRTS 110255Z AUTO 07004KT 3/4SM -SN OVC002 M02/M03 A2984 RMK AO2,M
RNO,2021-03-11 02:55,-119.7711,39.4839,1341.00,32.00,28.00,84.98,30.00,9.00,T,29.83,1011.10,10.00,M,FEW,SCT,BKN,BKN,2600.00,4800.00,7000.00,13000.00,M,M,M,M,M,M,M,23.51,KRNO 110255Z 03009KT 10SM FEW026 SCT048 BKN070 BKN130 00/M02 A2983 RMK AO2 WSHFT 0144 SNE05 SLP111 MTN TOPS OBSCD DSNT SW THRU NW P0000 60000 T00001022 53017,M
BAM,2021-03-11 02:55,-116.8743,40.5990,1382.36,32.00,32.00,100.00,0.00,0.00,0.00,29.81,M,10.00,M,SCT,BKN,OVC,M,400.00,2400.00,4800.00,M,M,M,M,M,M,M,M,32.00,KBAM 110255Z AUTO 00000KT 10SM SCT004 BKN024 OVC048 00/00 A2981 RMK AO1,M
TMT,2021-03-11 02:55,-117.1971,39.4643,1749.34,27.10,24.80,90.91,0.00,0.00,0.00,29.80,M,10.00,M,M,M,M,M,M,M,M,M,M,M,M,M,M,M,M,27.10,KTMT 110255Z AUTO 00000KT 10SM M03/M04 A2980 RMK AO2 T10271040,M
05U,2021-03-11 02:55,-116.0051,39.6042,1811.23,28.40,24.80,86.18,0.00,0.00,0.00,29.78,M,9.00,M,FEW,BKN,OVC,M,1500.00,2400.00,4200.00,M,M,M,M,M,M,M,M,28.40,K05U 110255Z AUTO 00000KT 9SM FEW015 BKN024 OVC042 M02/M04 A2978 RMK A01,M
BVU,2021-03-11 02:55,-114.8611,35.9475,671.00,50.00,23.00,34.39,180.00,10.00,0.00,29.88,M,10.00,15.00,FEW,FEW,M,M,7500.00,8500.00,M,M,M,M,M,M,M,M,M,50.00,KBVU 110255Z AUTO 18010G15KT 10SM FEW075 FEW085 10/M05 A2988 RMK AO2,M
HTH,2021-03-11 02:55,-118.6315,38.5448,1282.89,35.60,23.00,59.79,340.00,4.00,0.00,29.83,M,10.00,M,SCT,BKN,OVC,M,3300.00,4500.00,5500.00,M,M,M,M,M,M,M,M,31.62,KHTH 110255Z AUTO 34004KT 10SM SCT033 BKN045 OVC055 02/M05 A2983 RMK A01,M
WMC,2021-03-11 02:56,-117.8072,40.9019,1315.00,30.90,25.00,78.48,M,5.00,0.00,29.81,1011.10,10.00,M,CLR,M,M,M,M,M,M,M,M,M,M,M,M,M,M,25.09,KWMC 110256Z AUTO VRB05KT 10SM CLR M01/M04 A2981 RMK AO2 SLP111 T10061039 53009,M
LAS,2021-03-11 02:56,-115.1634,36.0719,663.00,49.00,28.00,44.10,240.00,13.00,0.00,29.85,1010.80,10.00,20.00,FEW,SCT,SCT,BKN,7000.00,11000.00,17000.00,25000.00,M,M,M,M,M,M,M,43.22,KLAS 110256Z 24013G20KT 10SM FEW070 SCT110 SCT170 BKN250 09/M02 A2985 RMK AO2 SLP108 T00941022 50002,M
HND,2021-03-11 02:56,-115.1344,35.9729,742.79,47.00,27.00,45.62,260.00,7.00,0.00,29.88,1013.80,10.00,M,CLR,M,M,M,M,M,M,M,M,M,M,M,M,M,M,42.94,KHND 110256Z 26007KT 10SM CLR 08/M03 A2988 RMK AO2 SLP138 60000 T00831028 53009,M
EKO,2021-03-11 02:56,-115.7860,40.8242,1367.00,33.00,25.00,71.82,210.00,7.00,0.00,29.76,1010.40,10.00,M,SCT,OVC,M,M,5000.00,7000.00,M,M,M,M,M,M,M,M,M,26.12,KEKO 110256Z AUTO 21007KT 10SM SCT050 OVC070 01/M04 A2976 RMK AO2 SLP104 T00061039 51007,M
TPH,2021-03-11 02:56,-117.0904,38.0505,1654.00,25.00,25.00,100.00,0.00,0.00,0.00,29.80,1011.20,10.00,M,SCT,M,M,M,700.00,M,M,M,M,M,M,M,M,M,M,25.00,KTPH 110256Z AUTO 00000KT 10SM SCT007 M04/M04 A2980 RMK AO2 SLP112 60000 T10391039 53005,M
NFL,2021-03-11 02:56,-118.7010,39.4166,1199.00,34.00,28.90,81.37,M,5.00,0.00,29.83,1007.70,10.00,M,SCT,BKN,OVC,M,3000.00,8000.00,10000.00,M,M,M,M,M,M,M,M,28.77,KNFL 110256Z VRB05KT 10SM SCT030 BKN080 OVC100 01/M02 A2983 RMK AO2 SLP077 SH DSNT NW-N 60000 T00111017 53007,M
LSV,2021-03-11 02:58,-115.0343,36.2362,570.00,47.80,30.60,51.10,250.00,8.00,0.00,29.87,1011.30,10.00,M,FEW,SCT,BKN,M,8000.00,11000.00,15000.00,M,M,M,M,M,M,M,M,43.58,KLSV 110258Z 25008KT 10SM FEW080 SCT110 BKN150 09/M01 A2987 RMK AO2A SLP113 T00881008 52010 $,M
INS,2021-03-11 02:58,-115.6733,36.5872,955.00,46.60,16.00,28.96,170.00,15.00,0.00,29.78,1007.60,10.00,19.00,CLR,M,M,M,M,M,M,M,M,M,M,M,M,M,M,39.71,KINS 110258Z AUTO 17015G19KT 10SM CLR 08/M09 A2978 RMK AO2 SLP076 T00811089 58005 $,M
TPH,2021-03-11 03:06,-117.0904,38.0505,1654.00,25.00,24.10,96.31,0.00,0.00,0.00,29.80,M,10.00,M,BKN,M,M,M,700.00,M,M,M,M,M,M,M,M,M,M,25.00,KTPH 110306Z AUTO 00000KT 10SM BKN007 M04/M04 A2980 RMK AO2 T10391044,M
CXP,2021-03-11 03:10,-119.7326,39.1923,1431.00,33.80,26.60,74.63,80.00,7.00,0.00,29.84,M,10.00,M,FEW,SCT,OVC,M,4200.00,4900.00,5500.00,M,M,M,M,M,M,M,M,26.97,KCXP 110310Z AUTO 08007KT 10SM FEW042 SCT049 OVC055 01/M03 A2984 RMK AO2,M
MEV,2021-03-11 03:15,-119.7500,38.9963,1441.42,32.00,14.00,46.92,0.00,0.00,0.00,29.82,M,10.00,M,SCT,OVC,M,M,5000.00,6000.00,M,M,M,M,M,M,M,M,M,32.00,KMEV 110315Z AUTO 00000KT 10SM SCT050 OVC060 M00/M10 A2982 RMK AO2,M
TMT,2021-03-11 03:15,-117.1971,39.4643,1749.34,25.70,24.60,95.53,0.00,0.00,0.00,29.80,M,10.00,M,M,M,M,M,M,M,M,M,M,M,M,M,M,M,M,25.70,KTMT 110315Z AUTO 00000KT 10SM M03/M04 A2980 RMK AO2 T10351041,M
BVU,2021-03-11 03:15,-114.8611,35.9475,671.00,48.20,24.80,39.66,170.00,6.00,0.00,29.88,M,10.00,13.00,CLR,M,M,M,M,M,M,M,M,M,M,M,M,M,M,45.04,KBVU 110315Z AUTO 17006G13KT 10SM CLR 09/M04 A2988 RMK AO2,M
RTS,2021-03-11 03:15,-119.8764,39.6682,1539.00,28.40,26.60,92.86,0.00,0.00,0.00,29.85,M,2.00,M,BKN,OVC,M,M,200.00,2200.00,M,M,-SN,M,M,M,M,M,M,28.40,KRTS 110315Z AUTO 00000KT 2SM -SN BKN002 OVC022 M02/M03 A2985 RMK AO2,M
05U,2021-03-11 03:15,-116.0051,39.6042,1811.23,28.40,24.80,86.18,0.00,0.00,0.00,29.78,M,2.00,M,FEW,BKN,OVC,M,300.00,1700.00,2300.00,M,BR,M,M,M,M,M,M,28.40,K05U 110315Z AUTO 00000KT 2SM BR FEW003 BKN017 OVC023 M02/M04 A2978 RMK A01,M
BAM,2021-03-11 03:15,-116.8743,40.5990,1382.36,32.00,32.00,100.00,60.00,4.00,0.00,29.81,M,10.00,M,OVC,M,M,M,5000.00,M,M,M,M,M,M,M,M,M,M,27.42,KBAM 110315Z AUTO 06004KT 10SM OVC050 00/00 A2981 RMK AO1,M
HTH,2021-03-11 03:15,-118.6315,38.5448,1282.89,35.60,24.80,64.46,290.00,5.00,0.00,29.84,M,10.00,M,OVC,M,M,M,3200.00,M,M,M,M,M,M,M,M,M,M,30.67,KHTH 110315Z AUTO 29005KT 10SM OVC032 02/M04 A2984 RMK A01,M
INS,2021-03-11 03:21,-115.6733,36.5872,955.00,46.40,17.60,31.28,100.00,10.00,0.00,29.78,1007.60,10.00,17.00,CLR,M,M,M,M,M,M,M,M,M,M,M,M,M,M,41.03,KINS 110321Z AUTO 10010G17KT 10SM CLR 08/M08 A2978 RMK AO2 WSHFT 16 SLP076 $,M
CXP,2021-03-11 03:30,-119.7326,39.1923,1431.00,33.80,24.80,69.25,90.00,10.00,0.00,29.84,M,10.00,M,OVC,M,M,M,5500.00,M,M,M,M,M,M,M,M,M,M,25.23,KCXP 110330Z AUTO 09010KT 10SM OVC055 01/M04 A2984 RMK AO2,M
TMT,2021-03-11 03:35,-117.1971,39.4643,1749.34,25.00,24.40,97.53,0.00,0.00,0.00,29.80,M,10.00,M,M,M,M,M,M,M,M,M,M,M,M,M,M,M,M,25.00,KTMT 110335Z AUTO 00000KT 10SM M04/M04 A2980 RMK AO2 T10391042,M
MEV,2021-03-11 03:35,-119.7500,38.9963,1441.42,32.00,14.00,46.92,70.00,4.00,0.00,29.83,M,10.00,M,BKN,OVC,M,M,5500.00,6500.00,M,M,M,M,M,M,M,M,M,27.42,KMEV 110335Z AUTO 07004KT 10SM BKN055 OVC065 M00/M10 A2983 RMK AO2,M
BAM,2021-03-11 03:35,-116.8743,40.5990,1382.36,32.00,32.00,100.00,80.00,5.00,0.00,29.81,M,10.00,M,SCT,BKN,OVC,M,4200.00,5000.00,6500.00,M,M,M,M,M,M,M,M,26.40,KBAM 110335Z AUTO 08005KT 10SM SCT042 BKN050 OVC065 00/00 A2981 RMK AO1,M
HTH,2021-03-11 03:35,-118.6315,38.5448,1282.89,35.60,26.60,69.46,310.00,9.00,0.00,29.84,M,M,M,FEW,BKN,OVC,M,1200.00,2700.00,3200.00,M,M,M,M,M,M,M,M,27.99,KHTH 110335Z AUTO 31009KT FEW012 BKN027 OVC032 02/M03 A2984 RMK A01,M
BVU,2021-03-11 03:35,-114.8611,35.9475,671.00,50.00,24.80,37.08,150.00,11.00,0.00,29.88,M,10.00,M,CLR,M,M,M,M,M,M,M,M,M,M,M,M,M,M,50.00,KBVU 110335Z AUTO 15011KT 10SM CLR 10/M04 A2988 RMK AO2,M
05U,2021-03-11 03:35,-116.0051,39.6042,1811.23,28.40,24.80,86.18,0.00,0.00,0.00,29.78,M,3.00,M,SCT,BKN,OVC,M,300.00,1700.00,2300.00,M,BR,M,M,M,M,M,M,28.40,K05U 110335Z AUTO 00000KT 3SM BR SCT003 BKN017 OVC023 M02/M04 A2978 RMK A01,M
RTS,2021-03-11 03:35,-119.8764,39.6682,1539.00,28.40,26.60,92.86,0.00,0.00,0.00,29.85,M,7.00,M,FEW,SCT,BKN,M,300.00,1900.00,2400.00,M,-SN,M,M,M,M,M,M,28.40,KRTS 110335Z AUTO 00000KT 7SM -SN FEW003 SCT019 BKN024 M02/M03 A2985 RMK AO2,M
TPH,2021-03-11 03:49,-117.0904,38.0505,1654.00,26.10,26.10,100.00,0.00,0.00,0.00,29.80,M,10.00,M,SCT,BKN,M,M,700.00,1800.00,M,M,M,M,M,M,M,M,M,26.10,KTPH 110349Z AUTO 00000KT 10SM SCT007 BKN018 M03/M03 A2980 RMK AO2 T10331033,M
ELY,2021-03-11 03:53,-114.8453,39.2950,1909.00,24.10,19.00,80.59,M,M,0.00,29.79,1010.60,M,M,OVC,M,M,M,4300.00,M,M,M,M,M,M,M,M,M,M,M,KELY 110353Z AUTO OVC043 M04/M07 A2979 RMK AO2 SLP106 T10441072 $,M
P68,2021-03-11 03:53,-116.0056,39.6014,1993.00,27.00,24.10,88.65,240.00,7.00,0.00,29.76,1008.70,M,M,M,M,M,M,M,M,M,M,M,M,M,M,M,M,M,18.68,KP68 110353Z AUTO 24007KT M03/M04 A2976 RMK AO1 SLP087 T10281044,M
VGT,2021-03-11 03:53,-115.1933,36.2111,667.00,49.00,26.10,40.77,150.00,10.00,0.00,29.82,1011.30,10.00,M,CLR,M,M,M,M,M,M,M,M,M,M,M,M,M,M,44.16,KVGT 110353Z AUTO 15010KT 10SM CLR 09/M03 A2982 RMK AO2 SLP113 T00941033,M
LOL,2021-03-11 03:53,-118.5701,40.0684,1192.43,28.90,21.90,74.76,270.00,3.00,0.00,29.83,1012.10,10.00,M,CLR,M,M,M,M,M,M,M,M,M,M,M,M,M,M,25.14,KLOL 110353Z AUTO 27003KT 10SM CLR M02/M06 A2983 RMK AO2 SLP121 T10171056,M
BAM,2021-03-11 03:55,-116.8743,40.5990,1382.36,32.00,32.00,100.00,60.00,5.00,0.00,29.81,M,10.00,M,SCT,BKN,OVC,M,4400.00,6000.00,10000.00,M,M,M,M,M,M,M,M,26.40,KBAM 110355Z AUTO 06005KT 10SM SCT044 BKN060 OVC100 00/00 A2981 RMK AO1,M
BVU,2021-03-11 03:55,-114.8611,35.9475,671.00,48.20,24.80,39.66,180.00,6.00,0.00,29.88,M,10.00,M,SCT,SCT,M,M,7000.00,8000.00,M,M,M,M,M,M,M,M,M,45.04,KBVU 110355Z AUTO 18006KT 10SM SCT070 SCT080 09/M04 A2988 RMK AO2,M
CXP,2021-03-11 03:55,-119.7326,39.1923,1431.00,32.00,26.60,80.22,100.00,4.00,0.00,29.85,M,10.00,10.00,BKN,BKN,OVC,M,3700.00,4300.00,5000.00,M,M,M,M,M,M,M,M,27.42,KCXP 110355Z AUTO 10004G10KT 10SM BKN037 BKN043 OVC050 00/M03 A2985 RMK AO2,M
05U,2021-03-11 03:55,-116.0051,39.6042,1811.23,26.60,24.80,92.80,240.00,7.00,0.00,29.78,M,1.50,M,OVC,M,M,M,200.00,M,M,M,BR,M,M,M,M,M,M,18.20,K05U 110355Z AUTO 24007KT 1 1/2SM BR OVC002 M03/M04 A2978 RMK A01,M
MEV,2021-03-11 03:55,-119.7500,38.9963,1441.42,30.20,19.40,63.75,50.00,4.00,0.00,29.83,M,10.00,M,BKN,OVC,M,M,5000.00,6500.00,M,M,M,M,M,M,M,M,M,25.32,KMEV 110355Z AUTO 05004KT 10SM BKN050 OVC065 M01/M07 A2983 RMK AO2,M
TMT,2021-03-11 03:55,-117.1971,39.4643,1749.34,25.50,25.20,98.76,0.00,0.00,0.00,29.80,M,10.00,M,M,M,M,M,M,M,M,M,M,M,M,M,M,M,M,25.50,KTMT 110355Z AUTO 00000KT 10SM M04/M04 A2980 RMK AO2 T10361038,M
HTH,2021-03-11 03:55,-118.6315,38.5448,1282.89,35.60,26.60,69.46,300.00,8.00,0.00,29.85,M,M,14.00,M,M,M,M,M,M,M,M,M,M,M,M,M,M,M,28.55,KHTH 110355Z AUTO 30008G14KT 02/M03 A2985 RMK A01,M
RTS,2021-03-11 03:55,-119.8764,39.6682,1539.00,28.40,23.00,79.92,340.00,3.00,0.08,29.85,M,3.00,M,SCT,BKN,OVC,M,300.00,3300.00,4100.00,M,-SN,M,M,M,M,M,M,24.57,KRTS 110355Z AUTO 34003KT 3SM -SN SCT003 BKN033 OVC041 M02/M05 A2985 RMK AO2 P0008,M
RNO,2021-03-11 03:55,-119.7711,39.4839,1341.00,32.00,27.00,81.55,30.00,10.00,0.00,29.85,1011.70,10.00,M,FEW,FEW,BKN,OVC,900.00,3900.00,6000.00,13000.00,M,M,M,M,M,M,M,22.97,KRNO 110355Z 03010KT 10SM FEW009 FEW039 BKN060 OVC130 00/M03 A2985 RMK AO2 SLP117 T00001028,M
TPH,2021-03-11 03:56,-117.0904,38.0505,1654.00,27.00,27.00,100.00,0.00,0.00,0.00,29.80,1010.30,10.00,M,FEW,SCT,M,M,700.00,1800.00,M,M,M,M,M,M,M,M,M,27.00,KTPH 110356Z AUTO 00000KT 10SM FEW007 SCT018 M03/M03 A2980 RMK AO2 SLP103 T10281028,M
EKO,2021-03-11 03:56,-115.7860,40.8242,1367.00,33.00,24.10,69.17,200.00,8.00,0.00,29.77,1010.10,10.00,M,BKN,BKN,OVC,M,4200.00,4900.00,6500.00,M,M,M,M,M,M,M,M,25.47,KEKO 110356Z AUTO 20008KT 10SM BKN042 BKN049 OVC065 01/M04 A2977 RMK AO2 SLP101 T00061044,M
LAS,2021-03-11 03:56,-115.1634,36.0719,663.00,48.00,27.00,43.77,230.00,8.00,0.00,29.87,1011.40,10.00,M,FEW,SCT,SCT,M,7000.00,11000.00,25000.00,M,M,M,M,M,M,M,M,43.82,KLAS 110356Z 23008KT 10SM FEW070 SCT110 SCT250 09/M03 A2987 RMK AO2 SLP114 T00891028,M
HND,2021-03-11 03:56,-115.1344,35.9729,742.79,46.00,24.10,41.84,190.00,10.00,0.00,29.88,1013.60,10.00,M,CLR,M,M,M,M,M,M,M,M,M,M,M,M,M,M,40.52,KHND 110356Z 19010KT 10SM CLR 08/M04 A2988 RMK AO2 SLP136 T00781044,M
NFL,2021-03-11 03:56,-118.7010,39.4166,1199.00,33.00,28.00,81.30,M,5.00,0.00,29.84,1008.20,10.00,M,SCT,BKN,OVC,M,3000.00,8000.00,10000.00,M,M,M,M,M,M,M,M,27.70,KNFL 110356Z VRB05KT 10SM SCT030 BKN080 OVC100 01/M02 A2984 RMK AO2 SLP082 T00061022,M
WMC,2021-03-11 03:56,-117.8072,40.9019,1315.00,28.90,24.10,82.00,0.00,0.00,0.00,29.82,1011.20,10.00,M,OVC,M,M,M,9000.00,M,M,M,M,M,M,M,M,M,M,28.90,KWMC 110356Z AUTO 00000KT 10SM OVC090 M02/M04 A2982 RMK AO2 SLP112 T10171044,M
INS,2021-03-11 03:58,-115.6733,36.5872,955.00,45.50,18.70,33.93,140.00,5.00,0.00,29.79,1007.70,10.00,M,CLR,M,M,M,M,M,M,M,M,M,M,M,M,M,M,42.43,KINS 110358Z AUTO 14005KT 10SM CLR 08/M07 A2979 RMK AO2 SLP077 T00751074 $,M
LSV,2021-03-11 03:58,-115.0343,36.2362,570.00,47.70,28.40,46.89,210.00,8.00,0.00,29.86,1011.00,10.00,M,SCT,SCT,M,M,8000.00,15000.00,M,M,M,M,M,M,M,M,M,43.45,KLSV 110358Z 21008KT 10SM SCT080 SCT150 09/M02 A2986 RMK AO2A SLP110 T00871020 $,M
CXP,2021-03-11 04:10,-119.7326,39.1923,1431.00,33.80,24.80,69.25,0.00,0.00,0.00,29.86,M,6.00,M,SCT,BKN,OVC,M,2900.00,3800.00,5000.00,M,-SN,M,M,M,M,M,M,33.80,KCXP 110410Z AUTO 00000KT 6SM -SN SCT029 BKN038 OVC050 01/M04 A2986 RMK AO2,M
HTH,2021-03-11 04:15,-118.6315,38.5448,1282.89,33.80,26.60,74.63,330.00,16.00,0.00,29.86,M,M,M,M,M,M,M,M,M,M,M,M,M,M,M,M,M,M,22.76,KHTH 110415Z AUTO 33016KT 01/M03 A2986 RMK A01,M
BAM,2021-03-11 04:15,-116.8743,40.5990,1382.36,32.00,32.00,100.00,60.00,5.00,0.00,29.81,M,10.00,M,SCT,BKN,OVC,M,4400.00,7500.00,10000.00,M,M,M,M,M,M,M,M,26.40,KBAM 110415Z AUTO 06005KT 10SM SCT044 BKN075 OVC100 00/00 A2981 RMK AO1,M
MEV,2021-03-11 04:15,-119.7500,38.9963,1441.42,28.40,21.20,74.08,50.00,3.00,0.00,29.84,M,10.00,M,FEW,SCT,BKN,M,4000.00,4900.00,6000.00,M,M,M,M,M,M,M,M,24.57,KMEV 110415Z AUTO 05003KT 10SM FEW040 SCT049 BKN060 M02/M06 A2984 RMK AO2,M
05U,2021-03-11 04:15,-116.0051,39.6042,1811.23,26.60,24.80,92.80,260.00,5.00,0.00,29.79,M,1.75,M,OVC,M,M,M,200.00,M,M,M,BR,M,M,M,M,M,M,19.98,K05U 110415Z AUTO 26005KT 1 3/4SM BR OVC002 M03/M04 A2979 RMK A01,M
RTS,2021-03-11 04:15,-119.8764,39.6682,1539.00,28.40,21.20,74.08,310.00,4.00,0.00,29.86,M,10.00,M,FEW,SCT,OVC,M,1700.00,3400.00,4000.00,M,M,M,M,M,M,M,M,23.22,KRTS 110415Z AUTO 31004KT 10SM FEW017 SCT034 OVC040 M02/M06 A2986 RMK AO2,M
TMT,2021-03-11 04:15,-117.1971,39.4643,1749.34,23.50,23.20,98.75,0.00,0.00,0.00,29.81,M,10.00,M,M,M,M,M,M,M,M,M,M,M,M,M,M,M,M,23.50,KTMT 110415Z AUTO 00000KT 10SM M05/M05 A2981 RMK AO2 T10471049,M
BVU,2021-03-11 04:15,-114.8611,35.9475,671.00,46.40,24.80,42.44,200.00,3.00,0.00,29.88,M,10.00,M,FEW,M,M,M,6500.00,M,M,M,M,M,M,M,M,M,M,45.15,KBVU 110415Z AUTO 20003KT 10SM FEW065 08/M04 A2988 RMK AO2,M
EKO,2021-03-11 04:26,-115.7860,40.8242,1367.00,32.00,28.00,84.98,210.00,7.00,T,29.78,M,2.50,M,BKN,OVC,M,M,2400.00,3800.00,M,M,-SN BR,M,M,M,M,M,M,24.78,KEKO 110426Z AUTO 21007KT 2 1/2SM -SN BR BKN024 OVC038 00/M02 A2978 RMK AO2 SNB13 P0000 T00001022,M
CXP,2021-03-11 04:30,-119.7326,39.1923,1431.00,32.00,26.60,80.22,240.00,5.00,0.00,29.86,M,3.00,M,SCT,OVC,M,M,2800.00,4100.00,M,M,-SN,M,M,M,M,M,M,26.40,KCXP 110430Z AUTO 24005KT 3SM -SN SCT028 OVC041 00/M03 A2986 RMK AO2,M
INS,2021-03-11 04:32,-115.6733,36.5872,955.00,44.60,17.60,33.49,120.00,13.00,0.00,29.79,1007.50,10.00,M,CLR,M,M,M,M,M,M,M,M,M,M,M,M,M,M,37.71,KINS 110432Z AUTO 12013KT 10SM CLR 07/M08 A2979 RMK AO2 WSHFT 29 SLP075 $,M
BVU,2021-03-11 04:35,-114.8611,35.9475,671.00,46.40,24.80,42.44,160.00,4.00,0.00,29.88,M,10.00,M,CLR,M,M,M,M,M,M,M,M,M,M,M,M,M,M,44.24,KBVU 110435Z AUTO 16004KT 10SM CLR 08/M04 A2988 RMK AO2,M
MEV,2021-03-11 04:35,-119.7500,38.9963,1441.42,30.20,21.20,68.83,360.00,7.00,0.00,29.85,M,10.00,M,SCT,BKN,OVC,M,3800.00,4700.00,5500.00,M,M,M,M,M,M,M,M,22.59,KMEV 110435Z AUTO 36007KT 10SM SCT038 BKN047 OVC055 M01/M06 A2985 RMK AO2,M
BAM,2021-03-11 04:35,-116.8743,40.5990,1382.36,32.00,32.00,100.00,70.00,4.00,0.00,29.82,M,7.00,M,BKN,OVC,M,M,5000.00,6500.00,M,M,M,M,M,M,M,M,M,27.42,KBAM 110435Z AUTO 07004KT 7SM BKN050 OVC065 00/00 A2982 RMK AO1,M
HTH,2021-03-11 04:35,-118.6315,38.5448,1282.89,32.00,28.40,86.39,330.00,10.00,0.00,29.87,M,M,15.00,M,M,M,M,M,M,M,M,M,M,M,M,M,M,M,22.97,KHTH 110435Z AUTO 33010G15KT M00/M02 A2987 RMK A01,M
TMT,2021-03-11 04:35,-117.1971,39.4643,1749.34,22.30,21.70,97.50,180.00,3.00,0.00,29.81,M,10.00,M,M,M,M,M,M,M,M,M,M,M,M,M,M,M,M,17.60,KTMT 110435Z AUTO 18003KT 10SM M05/M06 A2981 RMK AO2 T10541057,M
05U,2021-03-11 04:35,-116.0051,39.6042,1811.23,26.60,24.80,92.80,0.00,0.00,0.00,29.79,M,3.00,M,SCT,BKN,OVC,M,400.00,2400.00,6000.00,M,BR,M,M,M,M,M,M,26.60,K05U 110435Z AUTO 00000KT 3SM BR SCT004 BKN024 OVC060 M03/M04 A2979 RMK A01,M
RTS,2021-03-11 04:35,-119.8764,39.6682,1539.00,26.60,23.00,86.07,0.00,0.00,0.00,29.86,M,10.00,M,FEW,SCT,BKN,M,2500.00,3300.00,3900.00,M,M,M,M,M,M,M,M,26.60,KRTS 110435Z AUTO 00000KT 10SM FEW025 SCT033 BKN039 M03/M05 A2986 RMK AO2,M
HTH,2021-03-11 04:40,-118.6315,38.5448,1282.89,32.00,30.20,92.97,320.00,11.00,0.00,29.87,M,M,M,M,M,M,M,M,M,M,M,M,M,M,M,M,M,M,22.47,KHTH 110440Z AUTO 32011KT M00/M01 A2987 RMK A01,M
CXP,2021-03-11 04:50,-119.7326,39.1923,1431.00,30.20,28.40,92.92,210.00,4.00,0.00,29.87,M,3.00,M,FEW,SCT,BKN,M,300.00,2900.00,3700.00,M,-SN,M,M,M,M,M,M,25.32,KCXP 110450Z AUTO 21004KT 3SM -SN FEW003 SCT029 BKN037 M01/M02 A2987 RMK AO2,M
ELY,2021-03-11 04:53,-114.8453,39.2950,1909.00,24.10,19.90,83.75,M,M,T,29.79,1010.00,M,M,BKN,OVC,M,M,3100.00,4500.00,M,M,-SN,M,M,M,M,M,M,M,KELY 110453Z AUTO -SN BKN031 OVC045 M04/M07 A2979 RMK AO2 SNB48 SLP100 P0000 T10441067 $,M
VGT,2021-03-11 04:53,-115.1933,36.2111,667.00,47.00,27.00,45.62,150.00,6.00,0.00,29.82,1011.30,10.00,M,CLR,M,M,M,M,M,M,M,M,M,M,M,M,M,M,43.48,KVGT 110453Z AUTO 15006KT 10SM CLR 08/M03 A2982 RMK AO2 SLP113 T00831028,M
LOL,2021-03-11 04:53,-118.5701,40.0684,1192.43,25.00,19.90,80.66,180.00,3.00,0.00,29.85,1012.80,10.00,M,CLR,M,M,M,M,M,M,M,M,M,M,M,M,M,M,20.69,KLOL 110453Z AUTO 18003KT 10SM CLR M04/M07 A2985 RMK AO2 SLP128 T10391067,M
P68,2021-03-11 04:53,-116.0056,39.6014,1993.00,27.00,26.10,96.35,0.00,0.00,0.02,29.77,1008.30,M,M,M,M,M,M,M,M,M,M,M,M,M,M,M,M,M,27.00,KP68 110453Z AUTO 00000KT M03/M03 A2977 RMK AO1 SLP083 P0002 T10281033,M
05U,2021-03-11 04:55,-116.0051,39.6042,1811.23,26.60,24.80,92.80,0.00,0.00,0.00,29.80,M,2.50,M,SCT,BKN,OVC,M,600.00,1000.00,2400.00,M,BR,M,M,M,M,M,M,26.60,K05U 110455Z AUTO 00000KT 2 1/2SM BR SCT006 BKN010 OVC024 M03/M04 A2980 RMK A01,M
BAM,2021-03-11 04:55,-116.8743,40.5990,1382.36,32.00,32.00,100.00,50.00,3.00,0.00,29.82,M,10.00,M,BKN,BKN,OVC,M,1900.00,2600.00,5000.00,M,M,M,M,M,M,M,M,28.69,KBAM 110455Z AUTO 05003KT 10SM BKN019 BKN026 OVC050 00/00 A2982 RMK AO1,M
RNO,2021-03-11 04:55,-119.7711,39.4839,1341.00,30.90,27.00,85.26,60.00,6.00,0.00,29.86,1011.90,10.00,M,FEW,FEW,SCT,BKN,900.00,2700.00,6000.00,15000.00,M,M,M,M,M,M,M,24.21,KRNO 110455Z 06006KT 10SM FEW009 FEW027 SCT060 BKN150 M01/M03 A2986 RMK AO2 SLP119 T10061028,M
MEV,2021-03-11 04:55,-119.7500,38.9963,1441.42,30.20,24.80,80.07,20.00,7.00,0.00,29.85,M,10.00,M,FEW,SCT,OVC,M,3800.00,4800.00,6000.00,M,M,M,M,M,M,M,M,22.59,KMEV 110455Z AUTO 02007KT 10SM FEW038 SCT048 OVC060 M01/M04 A2985 RMK AO2,M
RTS,2021-03-11 04:55,-119.8764,39.6682,1539.00,24.80,24.80,100.00,80.00,4.00,0.01,29.86,M,10.00,M,SCT,SCT,BKN,M,3000.00,3600.00,4300.00,M,M,M,M,M,M,M,M,19.01,KRTS 110455Z AUTO 08004KT 10SM SCT030 SCT036 BKN043 M04/M04 A2986 RMK AO2 P0001,M
TMT,2021-03-11 04:55,-117.1971,39.4643,1749.34,22.10,21.20,96.27,180.00,5.00,0.00,29.81,M,10.00,M,M,M,M,M,M,M,M,M,M,M,M,M,M,M,M,14.64,KTMT 110455Z AUTO 18005KT 10SM M05/M06 A2981 RMK AO2 T10551060,M
BVU,2021-03-11 04:55,-114.8611,35.9475,671.00,46.40,24.80,42.44,0.00,0.00,0.00,29.88,M,10.00,10.00,CLR,M,M,M,M,M,M,M,M,M,M,M,M,M,M,46.40,KBVU 110455Z AUTO 00000G10KT 10SM CLR 08/M04 A2988 RMK AO2,M
WMC,2021-03-11 04:56,-117.8072,40.9019,1315.00,27.00,21.90,80.83,290.00,3.00,0.00,29.82,1011.10,10.00,M,CLR,M,M,M,M,M,M,M,M,M,M,M,M,M,M,22.97,KWMC 110456Z AUTO 29003KT 10SM CLR M03/M06 A2982 RMK AO2 SLP111 T10281056,M
EKO,2021-03-11 04:56,-115.7860,40.8242,1367.00,30.90,28.00,88.84,240.00,3.00,0.01,29.78,1010.00,3.00,M,OVC,M,M,M,2400.00,M,M,M,-SN BR,M,M,M,M,M,M,27.43,KEKO 110456Z AUTO 24003KT 3SM -SN BR OVC024 M01/M02 A2978 RMK AO2 SNB13 SLP100 P0001 T10061022,M
LAS,2021-03-11 04:56,-115.1634,36.0719,663.00,48.00,27.00,43.77,200.00,8.00,0.00,29.87,1011.00,10.00,17.00,FEW,SCT,SCT,M,7000.00,11000.00,25000.00,M,M,M,M,M,M,M,M,43.82,KLAS 110456Z 20008G17KT 10SM FEW070 SCT110 SCT250 09/M03 A2987 RMK AO2 SLP110 T00891028,M
HND,2021-03-11 04:56,-115.1344,35.9729,742.79,44.00,26.10,48.88,190.00,9.00,0.00,29.88,1013.80,10.00,M,CLR,M,M,M,M,M,M,M,M,M,M,M,M,M,M,38.56,KHND 110456Z AUTO 19009KT 10SM CLR 07/M03 A2988 RMK AO2 SLP138 T00671033,M
NFL,2021-03-11 04:56,-118.7010,39.4166,1199.00,33.00,28.00,81.30,M,5.00,0.00,29.85,1008.50,10.00,M,SCT,BKN,OVC,M,3000.00,8000.00,10000.00,M,M,M,M,M,M,M,M,27.70,KNFL 110456Z VRB05KT 10SM SCT030 BKN080 OVC100 01/M02 A2985 RMK AO2 SLP085 T00061022,M
TPH,2021-03-11 04:56,-117.0904,38.0505,1654.00,27.00,26.10,96.35,0.00,0.00,0.00,29.81,1010.80,10.00,M,BKN,OVC,M,M,1000.00,3400.00,M,M,M,M,M,M,M,M,M,27.00,KTPH 110456Z AUTO 00000KT 10SM BKN010 OVC034 M03/M03 A2981 RMK AO2 SLP108 T10281033,M
LSV,2021-03-11 04:58,-115.0343,36.2362,570.00,46.00,27.00,47.20,180.00,7.00,0.00,29.86,1011.00,10.00,M,FEW,SCT,M,M,10000.00,15000.00,M,M,M,M,M,M,M,M,M,41.84,KLSV 110458Z 18007KT 10SM FEW100 SCT150 08/M03 A2986 RMK AO2A SLP110 T00781028 $,M
INS,2021-03-11 04:58,-115.6733,36.5872,955.00,43.70,21.60,41.11,130.00,10.00,0.00,29.79,1007.50,10.00,M,CLR,M,M,M,M,M,M,M,M,M,M,M,M,M,M,37.64,KINS 110458Z AUTO 13010KT 10SM CLR 07/M06 A2979 RMK AO2 SLP075 T00651058 $,M
TPH,2021-03-11 05:05,-117.0904,38.0505,1654.00,27.00,26.10,96.35,0.00,0.00,0.00,29.81,M,10.00,M,OVC,M,M,M,900.00,M,M,M,M,M,M,M,M,M,M,27.00,KTPH 110505Z AUTO 00000KT 10SM OVC009 M03/M03 A2981 RMK AO2 T10281033,M
CXP,2021-03-11 05:10,-119.7326,39.1923,1431.00,30.20,28.40,92.92,0.00,0.00,0.00,29.87,M,2.50,M,SCT,BKN,OVC,M,300.00,2400.00,3700.00,M,-SN,M,M,M,M,M,M,30.20,KCXP 110510Z AUTO 00000KT 2 1/2SM -SN SCT003 BKN024 OVC037 M01/M02 A2987 RMK AO2,M
INS,2021-03-11 05:10,-115.6733,36.5872,955.00,44.60,15.80,30.98,180.00,11.00,0.00,29.79,1007.50,10.00,M,CLR,M,M,M,M,M,M,M,M,M,M,M,M,M,M,38.39,KINS 110510Z AUTO 18011KT 10SM CLR 07/M09 A2979 RMK AO2 WSHFT 05 SLP075 $,M
EKO,2021-03-11 05:11,-115.7860,40.8242,1367.00,30.90,28.90,92.18,260.00,5.00,T,29.78,M,4.00,M,OVC,M,M,M,3200.00,M,M,M,-SN BR,M,M,M,M,M,M,25.09,KEKO 110511Z AUTO 26005KT 4SM -SN BR OVC032 M01/M02 A2978 RMK AO2 P0000 T10061017,M
MEV,2021-03-11 05:15,-119.7500,38.9963,1441.42,30.20,23.00,74.26,40.00,7.00,0.00,29.85,M,10.00,M,BKN,BKN,OVC,M,3900.00,5000.00,6000.00,M,M,M,M,M,M,M,M,22.59,KMEV 110515Z AUTO 04007KT 10SM BKN039 BKN050 OVC060 M01/M05 A2985 RMK AO2,M
05U,2021-03-11 05:15,-116.0051,39.6042,1811.23,26.60,24.80,92.80,0.00,0.00,0.00,29.80,M,4.00,M,SCT,OVC,M,M,600.00,1000.00,M,M,BR,M,M,M,M,M,M,26.60,K05U 110515Z AUTO 00000KT 4SM BR SCT006 OVC010 M03/M04 A2980 RMK A01,M
TMT,2021-03-11 05:15,-117.1971,39.4643,1749.34,22.80,21.60,95.06,0.00,0.00,0.00,29.81,M,10.00,M,M,M,M,M,M,M,M,M,M,M,M,M,M,M,M,22.80,KTMT 110515Z AUTO 00000KT 10SM M05/M06 A2981 RMK AO2 T10511058,M
RTS,2021-03-11 05:15,-119.8764,39.6682,1539.00,24.80,23.00,92.74,90.00,3.00,0.00,29.87,M,4.00,M,FEW,FEW,SCT,M,1000.00,2600.00,7500.00,M,BR,M,M,M,M,M,M,20.46,KRTS 110515Z AUTO 09003KT 4SM BR FEW010 FEW026 SCT075 M04/M05 A2987 RMK AO2,M
BAM,2021-03-11 05:15,-116.8743,40.5990,1382.36,32.00,32.00,100.00,60.00,3.00,0.00,29.82,M,10.00,M,SCT,BKN,OVC,M,1900.00,2400.00,11000.00,M,M,M,M,M,M,M,M,28.69,KBAM 110515Z AUTO 06003KT 10SM SCT019 BKN024 OVC110 00/00 A2982 RMK AO1,M
BVU,2021-03-11 05:15,-114.8611,35.9475,671.00,46.40,24.80,42.44,160.00,11.00,0.00,29.88,M,10.00,M,FEW,M,M,M,6000.00,M,M,M,M,M,M,M,M,M,M,40.66,KBVU 110515Z AUTO 16011KT 10SM FEW060 08/M04 A2988 RMK AO2,M
INS,2021-03-11 05:19,-115.6733,36.5872,955.00,44.60,19.40,36.18,230.00,11.00,0.00,29.79,1007.50,10.00,M,CLR,M,M,M,M,M,M,M,M,M,M,M,M,M,M,38.39,KINS 110519Z AUTO 23011KT 10SM CLR 07/M07 A2979 RMK AO2 WSHFT 10 SLP075 $,M
INS,2021-03-11 05:23,-115.6733,36.5872,955.00,44.60,19.40,36.18,280.00,15.00,0.00,29.80,1007.80,10.00,M,CLR,M,M,M,M,M,M,M,M,M,M,M,M,M,M,37.11,KINS 110523Z AUTO 28015KT 10SM CLR 07/M07 A2980 RMK AO2 WSHFT 19 SLP078 $,M
RTS,2021-03-11 05:35,-119.8764,39.6682,1539.00,24.80,24.80,100.00,0.00,0.00,0.00,29.87,M,1.00,M,CLR,M,M,M,M,M,M,M,BR,M,M,M,M,M,M,24.80,KRTS 110535Z AUTO 00000KT 1SM BR CLR M04/M04 A2987 RMK AO2,M
CXP,2021-03-11 05:35,-119.7326,39.1923,1431.00,30.20,28.40,92.92,0.00,0.00,0.00,29.88,M,1.00,M,OVC,M,M,M,300.00,M,M,M,-SN,M,M,M,M,M,M,30.20,KCXP 110535Z AUTO 00000KT 1SM -SN OVC003 M01/M02 A2988 RMK AO2,M
05U,2021-03-11 05:35,-116.0051,39.6042,1811.23,26.60,24.80,92.80,0.00,0.00,0.00,29.80,M,4.00,M,FEW,OVC,M,M,200.00,1000.00,M,M,BR,M,M,M,M,M,M,26.60,K05U 110535Z AUTO 00000KT 4SM BR FEW002 OVC010 M03/M04 A2980 RMK A01,M
TMT,2021-03-11 05:35,-117.1971,39.4643,1749.34,21.60,20.70,96.26,0.00,0.00,0.00,29.82,M,10.00,M,M,M,M,M,M,M,M,M,M,M,M,M,M,M,M,21.60,KTMT 110535Z AUTO 00000KT 10SM M06/M06 A2982 RMK AO2 T10581063,M
TPH,2021-03-11 05:35,-117.0904,38.0505,1654.00,27.00,26.10,96.35,10.00,3.00,0.00,29.82,M,10.00,M,OVC,M,M,M,1000.00,M,M,M,M,M,M,M,M,M,M,22.97,KTPH 110535Z AUTO 01003KT 10SM OVC010 M03/M03 A2982 RMK AO2 T10281033,M
BVU,2021-03-11 05:35,-114.8611,35.9475,671.00,48.20,24.80,39.66,190.00,11.00,0.00,29.89,M,10.00,M,CLR,M,M,M,M,M,M,M,M,M,M,M,M,M,M,42.94,KBVU 110535Z AUTO 19011KT 10SM CLR 09/M04 A2989 RMK AO2,M
MEV,2021-03-11 05:35,-119.7500,38.9963,1441.42,30.20,23.00,74.26,40.00,6.00,0.00,29.86,M,10.00,M,OVC,M,M,M,3900.00,M,M,M,M,M,M,M,M,M,M,23.36,KMEV 110535Z AUTO 04006KT 10SM OVC039 M01/M05 A2986 RMK AO2,M
BAM,2021-03-11 05:35,-116.8743,40.5990,1382.36,32.00,32.00,100.00,80.00,4.00,0.00,29.82,M,10.00,M,SCT,BKN,OVC,M,3000.00,3700.00,11000.00,M,M,M,M,M,M,M,M,27.42,KBAM 110535Z AUTO 08004KT 10SM SCT030 BKN037 OVC110 00/00 A2982 RMK AO1,M
CXP,2021-03-11 05:50,-119.7326,39.1923,1431.00,30.20,28.40,92.92,240.00,3.00,0.00,29.88,M,2.50,M,BKN,BKN,M,M,300.00,5000.00,M,M,-SN,M,M,M,M,M,M,26.63,KCXP 110550Z AUTO 24003KT 2 1/2SM -SN BKN003 BKN050 M01/M02 A2988 RMK AO2,M
P68,2021-03-11 05:53,-116.0056,39.6014,1993.00,27.00,24.10,88.65,220.00,5.00,0.02,29.78,1008.90,M,M,M,M,M,M,M,M,M,M,M,M,M,M,M,M,M,20.46,KP68 110553Z AUTO 22005KT M03/M04 A2978 RMK AO1 SLP089 P0002 60009 T10281044 10000 21028 53008,M
ELY,2021-03-11 05:53,-114.8453,39.2950,1909.00,23.00,19.00,84.39,M,M,T,29.80,1009.90,M,M,FEW,BKN,M,M,6500.00,11000.00,M,M,M,M,M,M,M,M,M,M,KELY 110553Z AUTO FEW065 BKN110 M05/M07 A2980 RMK AO2 SNE02 SLP099 P0000 60006 T10501072 11022 21050 53003 $,M
LOL,2021-03-11 05:53,-118.5701,40.0684,1192.43,26.10,21.90,83.89,180.00,3.00,0.00,29.86,1012.90,10.00,M,SCT,M,M,M,6500.00,M,M,M,M,M,M,M,M,M,M,21.94,KLOL 110553Z AUTO 18003KT 10SM SCT065 M03/M06 A2986 RMK AO2 SLP129 T10331056 10039 21044 51011,M
VGT,2021-03-11 05:53,-115.1933,36.2111,667.00,48.00,25.00,40.29,180.00,7.00,0.00,29.83,1011.70,10.00,M,CLR,M,M,M,M,M,M,M,M,M,M,M,M,M,M,44.28,KVGT 110553Z AUTO 18007KT 10SM CLR 09/M04 A2983 RMK AO2 SLP117 60000 T00891039 10128 20083 53004,M
BAM,2021-03-11 05:55,-116.8743,40.5990,1382.36,32.00,32.00,100.00,0.00,0.00,0.00,29.83,M,10.00,M,OVC,M,M,M,3900.00,M,M,M,M,M,M,M,M,M,M,32.00,KBAM 110555Z AUTO 00000KT 10SM OVC039 00/00 A2983 RMK AO1,M
RNO,2021-03-11 05:55,-119.7711,39.4839,1341.00,30.00,27.00,88.44,20.00,5.00,0.00,29.88,1012.50,10.00,M,FEW,FEW,SCT,BKN,900.00,2700.00,6000.00,20000.00,M,M,M,M,M,M,M,24.02,KRNO 110555Z 02005KT 10SM FEW009 FEW027 SCT060 BKN200 M01/M03 A2988 RMK AO2 SLP125 60000 T10111028 10033 21011 51014,M
MEV,2021-03-11 05:55,-119.7500,38.9963,1441.42,30.20,24.80,80.07,20.00,10.00,0.00,29.87,M,10.00,M,BKN,OVC,M,M,3400.00,4100.00,M,M,M,M,M,M,M,M,M,20.71,KMEV 110555Z AUTO 02010KT 10SM BKN034 OVC041 M01/M04 A2987 RMK AO2,M
BVU,2021-03-11 05:55,-114.8611,35.9475,671.00,46.40,26.60,45.73,190.00,9.00,0.00,29.90,M,10.00,M,CLR,M,M,M,M,M,M,M,M,M,M,M,M,M,M,41.42,KBVU 110555Z AUTO 19009KT 10SM CLR 08/M03 A2990 RMK AO2,M
TMT,2021-03-11 05:55,-117.1971,39.4643,1749.34,19.90,18.90,95.82,250.00,3.00,0.00,29.82,M,10.00,M,M,M,M,M,M,M,M,M,M,M,M,M,M,M,M,14.86,KTMT 110555Z AUTO 25003KT 10SM M07/M07 A2982 RMK AO2 T10671073 11005 21067,M
RTS,2021-03-11 05:55,-119.8764,39.6682,1539.00,23.00,21.20,92.69,0.00,0.00,0.00,29.88,M,4.00,M,FEW,M,M,M,300.00,M,M,M,BR,M,M,M,M,M,M,23.00,KRTS 110555Z AUTO 00000KT 4SM BR FEW003 M05/M06 A2988 RMK AO2,M
05U,2021-03-11 05:55,-116.0051,39.6042,1811.23,26.60,24.80,92.80,0.00,0.00,0.00,29.80,M,1.75,M,BKN,OVC,M,M,300.00,1000.00,M,M,BR,M,M,M,M,M,M,26.60,K05U 110555Z AUTO 00000KT 1 3/4SM BR BKN003 OVC010 M03/M04 A2980 RMK A01,M
NFL,2021-03-11 05:56,-118.7010,39.4166,1199.00,33.00,28.00,81.30,M,5.00,0.00,29.86,1008.90,10.00,M,SCT,BKN,OVC,M,3000.00,8000.00,10000.00,M,M,M,M,M,M,M,M,27.70,KNFL 110556Z VRB05KT 10SM SCT030 BKN080 OVC100 01/M02 A2986 RMK AO2 SLP089 60000 T00061022 10028 20006 51012,M
WMC,2021-03-11 05:56,-117.8072,40.9019,1315.00,24.10,19.90,83.75,300.00,5.00,0.00,29.84,1011.50,10.00,M,FEW,SCT,M,M,3800.00,7000.00,M,M,M,M,M,M,M,M,M,17.01,KWMC 110556Z AUTO 30005KT 10SM FEW038 SCT070 M04/M07 A2984 RMK AO2 SLP115 T10441067 10044 21044 53006,M
HND,2021-03-11 05:56,-115.1344,35.9729,742.79,45.00,26.10,47.23,220.00,11.00,0.00,29.89,1014.00,10.00,M,CLR,M,M,M,M,M,M,M,M,M,M,M,M,M,M,38.89,KHND 110556Z AUTO 22011KT 10SM CLR 07/M03 A2989 RMK AO2 SLP140 60000 T00721033 10128 20067 53003,M
TPH,2021-03-11 05:56,-117.0904,38.0505,1654.00,26.10,25.00,95.53,350.00,4.00,0.00,29.82,1010.80,10.00,M,OVC,M,M,M,1100.00,M,M,M,M,M,M,M,M,M,M,20.53,KTPH 110556Z AUTO 35004KT 10SM OVC011 M03/M04 A2982 RMK AO2 SLP108 60000 T10331039 11017 21039 53006,M
EKO,2021-03-11 05:56,-115.7860,40.8242,1367.00,30.90,28.90,92.18,0.00,0.00,T,29.79,1009.50,10.00,M,FEW,BKN,OVC,M,1400.00,6000.00,8000.00,M,M,M,M,M,M,M,M,30.90,KEKO 110556Z AUTO 00000KT 10SM FEW014 BKN060 OVC080 M01/M02 A2979 RMK AO2 SNE35 SLP095 P0000 60001 T10061017 10044 21006 51007,M
LAS,2021-03-11 05:56,-115.1634,36.0719,663.00,48.00,26.10,42.17,230.00,12.00,0.00,29.89,1011.60,10.00,21.00,FEW,SCT,BKN,M,9000.00,16000.00,25000.00,M,M,M,M,M,M,M,M,42.37,KLAS 110556Z 23012G21KT 10SM FEW090 SCT160 BKN250 09/M03 A2989 RMK AO2 SLP116 T00891033 10122 20083 53010,M
LSV,2021-03-11 05:58,-115.0343,36.2362,570.00,47.70,27.30,44.82,200.00,14.00,0.00,29.88,1011.50,10.00,18.00,CLR,M,M,M,M,M,M,M,M,M,M,M,M,M,M,41.40,KLSV 110558Z 20014G18KT 10SM CLR 09/M03 A2988 RMK AO2A SLP115 T00871026 10133 20078 53004 $,M
INS,2021-03-11 05:58,-115.6733,36.5872,955.00,43.70,19.80,38.09,310.00,6.00,0.00,29.82,1008.50,10.00,M,CLR,M,M,M,M,M,M,M,M,M,M,M,M,M,M,39.62,KINS 110558Z AUTO 31006KT 10SM CLR 07/M07 A2982 RMK AO2 SLP085 T00651068 10091 20060 52012 $,M
EKO,2021-03-11 06:05,-115.7860,40.8242,1367.00,30.90,28.00,88.84,0.00,0.00,0.00,29.79,M,10.00,M,FEW,SCT,OVC,M,400.00,5000.00,7000.00,M,M,M,M,M,M,M,M,30.90,KEKO 110605Z AUTO 00000KT 10SM FEW004 SCT050 OVC070 M01/M02 A2979 RMK AO2 T10061022,M
INS,2021-03-11 06:05,-115.6733,36.5872,955.00,44.60,15.80,30.98,250.00,14.00,0.00,29.81,1008.20,10.00,20.00,FEW,M,M,M,12000.00,M,M,M,M,M,M,M,M,M,M,37.40,KINS 110605Z AUTO 25014G20KT 10SM FEW120 07/M09 A2981 RMK AO2 WSHFT 04 SLP082 $,M
MEV,2021-03-11 06:15,-119.7500,38.9963,1441.42,30.20,26.60,86.28,10.00,8.00,0.00,29.87,M,9.00,13.00,SCT,SCT,OVC,M,500.00,900.00,3500.00,M,-SN,M,M,M,M,M,M,21.90,KMEV 110615Z AUTO 01008G13KT 9SM -SN SCT005 SCT009 OVC035 M01/M03 A2987 RMK AO2,M
BVU,2021-03-11 06:15,-114.8611,35.9475,671.00,46.40,26.60,45.73,220.00,4.00,0.00,29.91,M,10.00,13.00,CLR,M,M,M,M,M,M,M,M,M,M,M,M,M,M,44.24,KBVU 110615Z AUTO 22004G13KT 10SM CLR 08/M03 A2991 RMK AO2,M
CXP,2021-03-11 06:15,-119.7326,39.1923,1431.00,30.20,26.60,86.28,0.00,0.00,0.00,29.89,M,1.50,M,OVC,M,M,M,300.00,M,M,M,-SN,M,M,M,M,M,M,30.20,KCXP 110615Z AUTO 00000KT 1 1/2SM -SN OVC003 M01/M03 A2989 RMK AO2,M
RTS,2021-03-11 06:15,-119.8764,39.6682,1539.00,23.00,21.20,92.69,0.00,0.00,0.00,29.88,M,10.00,M,FEW,M,M,M,300.00,M,M,M,M,M,M,M,M,M,M,23.00,KRTS 110615Z AUTO 00000KT 10SM FEW003 M05/M06 A2988 RMK AO2,M
BAM,2021-03-11 06:15,-116.8743,40.5990,1382.36,32.00,32.00,100.00,260.00,3.00,0.00,29.83,M,7.00,M,BKN,OVC,M,M,700.00,4200.00,M,M,M,M,M,M,M,M,M,28.69,KBAM 110615Z AUTO 26003KT 7SM BKN007 OVC042 00/00 A2983 RMK AO1,M
TMT,2021-03-11 06:15,-117.1971,39.4643,1749.34,20.30,19.40,96.23,260.00,3.00,0.00,29.82,M,10.00,M,M,M,M,M,M,M,M,M,M,M,M,M,M,M,M,15.31,KTMT 110615Z AUTO 26003KT 10SM M06/M07 A2982 RMK AO2 T10651070,M
05U,2021-03-11 06:15,-116.0051,39.6042,1811.23,26.60,24.80,92.80,210.00,3.00,0.00,29.81,M,0.50,M,OVC,M,M,M,200.00,M,M,M,BR,M,M,M,M,M,M,22.52,K05U 110615Z AUTO 21003KT 1/2SM BR OVC002 M03/M04 A2981 RMK A01,M
CXP,2021-03-11 06:30,-119.7326,39.1923,1431.00,30.20,28.40,92.92,0.00,0.00,0.00,29.89,M,1.75,M,OVC,M,M,M,300.00,M,M,M,-SN,M,M,M,M,M,M,30.20,KCXP 110630Z AUTO 00000KT 1 3/4SM -SN OVC003 M01/M02 A2989 RMK AO2,M
BAM,2021-03-11 06:35,-116.8743,40.5990,1382.36,32.00,32.00,100.00,0.00,0.00,0.00,29.83,M,7.00,M,BKN,BKN,OVC,M,500.00,2200.00,3200.00,M,M,M,M,M,M,M,M,32.00,KBAM 110635Z AUTO 00000KT 7SM BKN005 BKN022 OVC032 00/00 A2983 RMK AO1,M
TMT,2021-03-11 06:35,-117.1971,39.4643,1749.34,19.90,19.20,97.05,240.00,6.00,0.00,29.82,M,10.00,M,M,M,M,M,M,M,M,M,M,M,M,M,M,M,M,10.96,KTMT 110635Z AUTO 24006KT 10SM M07/M07 A2982 RMK AO2 T10671071,M
MEV,2021-03-11 06:35,-119.7500,38.9963,1441.42,30.20,26.60,86.28,360.00,7.00,0.00,29.87,M,10.00,M,FEW,OVC,M,M,600.00,3600.00,M,M,M,M,M,M,M,M,M,22.59,KMEV 110635Z AUTO 36007KT 10SM FEW006 OVC036 M01/M03 A2987 RMK AO2,M
BVU,2021-03-11 06:35,-114.8611,35.9475,671.00,44.60,24.80,45.44,M,4.00,0.00,29.91,M,10.00,M,CLR,M,M,M,M,M,M,M,M,M,M,M,M,M,M,42.13,KBVU 110635Z AUTO VRB04KT 10SM CLR 07/M04 A2991 RMK AO2,M
RTS,2021-03-11 06:35,-119.8764,39.6682,1539.00,24.80,23.00,92.74,0.00,0.00,0.00,29.89,M,0.25,M,OVC,M,M,M,100.00,M,M,M,FZFG,M,M,M,M,M,M,24.80,KRTS 110635Z AUTO 00000KT M1/4SM FZFG OVC001 M04/M05 A2989 RMK AO2 VIS M1/4V5,M
05U,2021-03-11 06:35,-116.0051,39.6042,1811.23,26.60,24.80,92.80,0.00,0.00,0.00,29.81,M,1.50,M,OVC,M,M,M,200.00,M,M,M,BR,M,M,M,M,M,M,26.60,K05U 110635Z AUTO 00000KT 1 1/2SM BR OVC002 M03/M04 A2981 RMK A01,M
TPH,2021-03-11 06:48,-117.0904,38.0505,1654.00,25.00,23.00,91.97,360.00,6.00,T,29.83,M,10.00,M,FEW,SCT,OVC,M,1200.00,3600.00,6000.00,M,M,M,M,M,M,M,M,17.10,KTPH 110648Z AUTO 36006KT 10SM FEW012 SCT036 OVC060 M04/M05 A2983 RMK AO2 SNB11E21 P0000 T10391050,M
CXP,2021-03-11 06:50,-119.7326,39.1923,1431.00,30.20,26.60,86.28,110.00,3.00,0.00,29.89,M,1.75,M,OVC,M,M,M,300.00,M,M,M,-SN,M,M,M,M,M,M,26.63,KCXP 110650Z AUTO 11003KT 1 3/4SM -SN OVC003 M01/M03 A2989 RMK AO2,M
VGT,2021-03-11 06:53,-115.1933,36.2111,667.00,48.00,23.00,37.06,210.00,7.00,0.00,29.84,1011.90,10.00,M,CLR,M,M,M,M,M,M,M,M,M,M,M,M,M,M,44.28,KVGT 110653Z AUTO 21007KT 10SM CLR 09/M05 A2984 RMK AO2 SLP119 T00891050,M
ELY,2021-03-11 06:53,-114.8453,39.2950,1909.00,23.00,19.00,84.39,M,M,T,29.80,1010.30,M,M,OVC,M,M,M,5500.00,M,M,M,M,M,M,M,M,M,M,M,KELY 110653Z AUTO OVC055 M05/M07 A2980 RMK AO2 SNB38E49 SLP103 P0000 T10501072 $,M
P68,2021-03-11 06:53,-116.0056,39.6014,1993.00,26.10,24.10,92.01,170.00,5.00,0.03,29.78,1008.20,M,M,M,M,M,M,M,M,M,M,M,M,M,M,M,M,M,19.39,KP68 110653Z AUTO 17005KT M03/M04 A2978 RMK AO1 SLP082 P0003 T10331044,M
LOL,2021-03-11 06:53,-118.5701,40.0684,1192.43,24.10,19.90,83.75,90.00,3.00,0.00,29.87,1013.30,10.00,M,CLR,M,M,M,M,M,M,M,M,M,M,M,M,M,M,19.66,KLOL 110653Z AUTO 09003KT 10SM CLR M04/M07 A2987 RMK AO2 SLP133 T10441067,M
EKO,2021-03-11 06:54,-115.7860,40.8242,1367.00,28.40,26.60,92.86,0.00,0.00,M,29.79,M,9.00,M,SCT,BKN,OVC,M,1200.00,2700.00,5498.00,M,M,M,M,M,M,M,M,28.40,SPECI KEKO 110654Z 00000KT 9SM SCT012 BKN027 OVC055 M02/M03 A2979 RMK AO2 FIBI,M
BVU,2021-03-11 06:55,-114.8611,35.9475,671.00,46.40,26.60,45.73,240.00,11.00,0.00,29.91,M,10.00,18.00,CLR,M,M,M,M,M,M,M,M,M,M,M,M,M,M,40.66,KBVU 110655Z AUTO 24011G18KT 10SM CLR 08/M03 A2991 RMK AO2,M
RNO,2021-03-11 06:55,-119.7711,39.4839,1341.00,30.00,25.00,81.40,0.00,0.00,0.00,29.89,1012.70,10.00,M,FEW,SCT,BKN,M,900.00,6000.00,18000.00,M,M,M,M,M,M,M,M,30.00,KRNO 110655Z 00000KT 10SM FEW009 SCT060 BKN180 M01/M04 A2989 RMK AO2 SLP127 T10111039,M
RTS,2021-03-11 06:55,-119.8764,39.6682,1539.00,23.00,21.20,92.69,0.00,0.00,0.00,29.89,M,0.50,M,SCT,BKN,M,M,100.00,6500.00,M,M,BR,M,M,M,M,M,M,23.00,KRTS 110655Z AUTO 00000KT 1/2SM BR SCT001 BKN065 M05/M06 A2989 RMK AO2,M
05U,2021-03-11 06:55,-116.0051,39.6042,1811.23,26.60,24.80,92.80,0.00,0.00,0.00,29.81,M,2.50,M,BKN,BKN,BKN,M,300.00,3000.00,4000.00,M,BR,M,M,M,M,M,M,26.60,K05U 110655Z AUTO 00000KT 2 1/2SM BR BKN003 BKN030 BKN040 M03/M04 A2981 RMK A01,M
MEV,2021-03-11 06:55,-119.7500,38.9963,1441.42,30.20,26.60,86.28,0.00,0.00,0.00,29.88,M,9.00,M,FEW,BKN,OVC,M,1200.00,3300.00,4000.00,M,-SN,M,M,M,M,M,M,30.20,KMEV 110655Z AUTO 00000KT 9SM -SN FEW012 BKN033 OVC040 M01/M03 A2988 RMK AO2,M
BAM,2021-03-11 06:55,-116.8743,40.5990,1382.36,32.00,32.00,100.00,0.00,0.00,0.00,29.83,M,3.00,M,SCT,SCT,OVC,M,500.00,1600.00,2600.00,M,M,M,M,M,M,M,M,32.00,KBAM 110655Z AUTO 00000KT 3SM SCT005 SCT016 OVC026 00/00 A2983 RMK AO1,M
TMT,2021-03-11 06:55,-117.1971,39.4643,1749.34,21.40,20.30,95.44,210.00,6.00,0.00,29.83,M,10.00,M,M,M,M,M,M,M,M,M,M,M,M,M,M,M,M,12.76,KTMT 110655Z AUTO 21006KT 10SM M06/M06 A2983 RMK AO2 T10591065,M
NFL,2021-03-11 06:56,-118.7010,39.4166,1199.00,33.00,27.00,78.03,270.00,7.00,0.00,29.87,1009.00,10.00,M,SCT,BKN,OVC,M,3000.00,5000.00,8000.00,M,M,M,M,M,M,M,M,26.12,KNFL 110656Z 27007KT 10SM SCT030 BKN050 OVC080 01/M03 A2987 RMK AO2 SLP090 T00061028,M
TPH,2021-03-11 06:56,-117.0904,38.0505,1654.00,25.00,23.00,91.97,360.00,6.00,T,29.83,1011.20,10.00,M,SCT,SCT,OVC,M,2000.00,3600.00,5500.00,M,M,M,M,M,M,M,M,17.10,KTPH 110656Z AUTO 36006KT 10SM SCT020 SCT036 OVC055 M04/M05 A2983 RMK AO2 SNB11E21 SLP112 P0000 T10391050,M
HND,2021-03-11 06:56,-115.1344,35.9729,742.79,45.00,24.10,43.46,230.00,25.00,0.00,29.89,1013.80,10.00,30.00,CLR,M,M,M,M,M,M,M,M,M,M,M,35.00,220.00,2021-03-11 06:19,35.41,KHND 110656Z AUTO 23025G30KT 10SM CLR 07/M04 A2989 RMK AO2 PK WND 22035/0619 SLP138 T00721044,M
WMC,2021-03-11 06:56,-117.8072,40.9019,1315.00,28.00,24.10,85.08,330.00,4.00,0.00,29.84,1011.30,10.00,M,BKN,OVC,M,M,3600.00,4500.00,M,M,M,M,M,M,M,M,M,22.75,KWMC 110656Z AUTO 33004KT 10SM BKN036 OVC045 M02/M04 A2984 RMK AO2 SLP113 T10221044,M
LAS,2021-03-11 06:56,-115.1634,36.0719,663.00,47.00,24.10,40.44,230.00,16.00,0.00,29.88,1011.50,10.00,30.00,FEW,SCT,BKN,M,9000.00,13000.00,25000.00,M,M,M,M,M,30.00,220.00,2021-03-11 06:50,39.84,KLAS 110656Z 23016G30KT 10SM FEW090 SCT130 BKN250 08/M04 A2988 RMK AO2 PK WND 22030/0650 SLP115 T00831044,M
EKO,2021-03-11 06:56,-115.7860,40.8242,1367.00,28.90,26.10,89.12,0.00,0.00,0.00,29.80,1009.60,8.00,M,SCT,BKN,OVC,M,1200.00,2500.00,5500.00,M,M,M,M,M,M,M,M,28.90,KEKO 110656Z AUTO 00000KT 8SM SCT012 BKN025 OVC055 M02/M03 A2980 RMK AO2 SLP096 T10171033,M
LSV,2021-03-11 06:58,-115.0343,36.2362,570.00,48.00,24.80,39.95,210.00,18.00,0.00,29.89,1011.80,10.00,23.00,FEW,FEW,M,M,14000.00,16000.00,M,M,M,M,M,M,M,M,M,40.81,KLSV 110658Z 21018G23KT 10SM FEW140 FEW160 09/M04 A2989 RMK AO2A SLP118 T00891040 $,M
INS,2021-03-11 06:58,-115.6733,36.5872,955.00,44.00,18.90,36.09,100.00,10.00,0.00,29.83,1008.60,10.00,M,CLR,M,M,M,M,M,M,M,M,M,M,M,M,M,M,38.14,KINS 110658Z AUTO 10010KT 10SM CLR 07/M07 A2983 RMK AO2 SLP086 T00671073 $,M
CXP,2021-03-11 07:10,-119.7326,39.1923,1431.00,30.20,26.60,86.28,0.00,0.00,0.00,29.89,M,6.00,M,BKN,BKN,OVC,M,300.00,800.00,1200.00,M,-SN,M,M,M,M,M,M,30.20,KCXP 110710Z AUTO 00000KT 6SM -SN BKN003 BKN008 OVC012 M01/M03 A2989 RMK AO2,M
EKO,2021-03-11 07:11,-115.7860,40.8242,1367.00,30.00,28.00,92.15,0.00,0.00,0.00,29.80,M,8.00,M,FEW,BKN,OVC,M,1200.00,5000.00,7500.00,M,M,M,M,M,M,M,M,30.00,KEKO 110711Z AUTO 00000KT 8SM FEW012 BKN050 OVC075 M01/M02 A2980 RMK AO2 T10111022,M
RTS,2021-03-11 07:15,-119.8764,39.6682,1539.00,23.00,21.20,92.69,0.00,0.00,0.00,29.89,M,0.75,M,OVC,M,M,M,6500.00,M,M,M,BR,M,M,M,M,M,M,23.00,KRTS 110715Z AUTO 00000KT 3/4SM BR OVC065 M05/M06 A2989 RMK AO2,M
05U,2021-03-11 07:15,-116.0051,39.6042,1811.23,26.60,24.80,92.80,0.00,0.00,0.00,29.81,M,4.00,M,FEW,SCT,BKN,M,300.00,1500.00,2100.00,M,BR,M,M,M,M,M,M,26.60,K05U 110715Z AUTO 00000KT 4SM BR FEW003 SCT015 BKN021 M03/M04 A2981 RMK A01,M
BAM,2021-03-11 07:15,-116.8743,40.5990,1382.36,32.00,32.00,100.00,0.00,0.00,0.00,29.83,M,7.00,M,BKN,BKN,OVC,M,500.00,1500.00,2000.00,M,M,M,M,M,M,M,M,32.00,KBAM 110715Z AUTO 00000KT 7SM BKN005 BKN015 OVC020 00/00 A2983 RMK AO1,M
TMT,2021-03-11 07:15,-117.1971,39.4643,1749.34,21.70,20.80,96.26,220.00,5.00,0.00,29.83,M,10.00,M,M,M,M,M,M,M,M,M,M,M,M,M,M,M,M,14.16,KTMT 110715Z AUTO 22005KT 10SM M06/M06 A2983 RMK AO2 T10571062,M
HTH,2021-03-11 07:15,-118.6315,38.5448,1282.89,32.00,30.20,92.97,210.00,3.00,0.00,29.88,M,9.00,M,M,M,M,M,M,M,M,M,M,M,M,M,M,M,M,28.69,KHTH 110715Z AUTO 21003KT 9SM 00/M01 A2988 RMK A01,M
MEV,2021-03-11 07:15,-119.7500,38.9963,1441.42,28.40,24.80,86.18,350.00,4.00,0.00,29.88,M,10.00,M,SCT,BKN,OVC,M,2800.00,4000.00,4700.00,M,M,M,M,M,M,M,M,23.22,KMEV 110715Z AUTO 35004KT 10SM SCT028 BKN040 OVC047 M02/M04 A2988 RMK AO2,M
BVU,2021-03-11 07:15,-114.8611,35.9475,671.00,46.40,24.80,42.44,240.00,11.00,0.00,29.92,M,10.00,M,FEW,M,M,M,12000.00,M,M,M,M,M,M,M,M,M,M,40.66,KBVU 110715Z AUTO 24011KT 10SM FEW120 08/M04 A2992 RMK AO2,M
CXP,2021-03-11 07:30,-119.7326,39.1923,1431.00,28.40,26.60,92.86,0.00,0.00,0.00,29.90,M,10.00,M,BKN,OVC,M,M,1000.00,6000.00,M,M,M,M,M,M,M,M,M,28.40,KCXP 110730Z AUTO 00000KT 10SM BKN010 OVC060 M02/M03 A2990 RMK AO2,M
HTH,2021-03-11 07:35,-118.6315,38.5448,1282.89,32.00,30.20,92.97,210.00,4.00,0.00,29.89,M,10.00,M,FEW,SCT,BKN,M,1500.00,2900.00,3500.00,M,M,M,M,M,M,M,M,27.42,KHTH 110735Z AUTO 21004KT 10SM FEW015 SCT029 BKN035 00/M01 A2989 RMK A01,M
MEV,2021-03-11 07:35,-119.7500,38.9963,1441.42,26.60,23.00,86.07,0.00,0.00,0.00,29.88,M,10.00,M,SCT,BKN,OVC,M,4000.00,4900.00,5500.00,M,M,M,M,M,M,M,M,26.60,KMEV 110735Z AUTO 00000KT 10SM SCT040 BKN049 OVC055 M03/M05 A2988 RMK AO2,M
05U,2021-03-11 07:35,-116.0051,39.6042,1811.23,26.60,24.80,92.80,0.00,0.00,0.00,29.82,M,2.00,M,BKN,BKN,OVC,M,300.00,1000.00,2100.00,M,BR,M,M,M,M,M,M,26.60,K05U 110735Z AUTO 00000KT 2SM BR BKN003 BKN010 OVC021 M03/M04 A2982 RMK A01,M
TMT,2021-03-11 07:35,-117.1971,39.4643,1749.34,21.90,20.50,94.24,230.00,5.00,0.00,29.83,M,10.00,M,M,M,M,M,M,M,M,M,M,M,M,M,M,M,M,14.40,KTMT 110735Z AUTO 23005KT 10SM M06/M06 A2983 RMK AO2 T10561064,M
RTS,2021-03-11 07:35,-119.8764,39.6682,1539.00,23.00,21.20,92.69,120.00,4.00,0.00,29.89,M,0.25,M,OVC,M,M,M,100.00,M,M,M,FZFG,M,M,M,M,M,M,16.91,KRTS 110735Z AUTO 12004KT M1/4SM FZFG OVC001 M05/M06 A2989 RMK AO2,M
BVU,2021-03-11 07:35,-114.8611,35.9475,671.00,44.60,24.80,45.44,230.00,7.00,0.00,29.92,M,10.00,M,CLR,M,M,M,M,M,M,M,M,M,M,M,M,M,M,40.14,KBVU 110735Z AUTO 23007KT 10SM CLR 07/M04 A2992 RMK AO2,M
BAM,2021-03-11 07:35,-116.8743,40.5990,1382.36,32.00,32.00,100.00,0.00,0.00,0.00,29.84,M,4.00,M,OVC,M,M,M,500.00,M,M,M,M,M,M,M,M,M,M,32.00,KBAM 110735Z AUTO 00000KT 4SM OVC005 00/00 A2984 RMK AO1,M
EKO,2021-03-11 07:48,-115.7860,40.8242,1367.00,30.00,27.00,88.44,330.00,5.00,0.00,29.80,M,9.00,M,SCT,BKN,OVC,M,1100.00,2300.00,7500.00,M,M,T,M,M,M,M,M,24.02,KEKO 110748Z AUTO 33005KT 9SM SCT011 BKN023 OVC075 M01/M03 A2980 RMK AO2 I1000 T10111028,M
CXP,2021-03-11 07:50,-119.7326,39.1923,1431.00,28.40,26.60,92.86,0.00,0.00,0.00,29.90,M,10.00,M,SCT,OVC,M,M,1000.00,5500.00,M,M,M,M,M,M,M,M,M,28.40,KCXP 110750Z AUTO 00000KT 10SM SCT010 OVC055 M02/M03 A2990 RMK AO2,M
TPH,2021-03-11 07:51,-117.0904,38.0505,1654.00,24.80,23.00,92.74,10.00,6.00,T,29.83,M,5.00,M,FEW,BKN,OVC,M,700.00,3800.00,4600.00,M,-SN BR,M,M,M,M,M,M,16.86,KTPH 110751Z AUTO 01006KT 5SM -SN BR FEW007 BKN038 OVC046 M04/M05 A2983 RMK AO2 SNB12 P0000,M
VGT,2021-03-11 07:53,-115.1933,36.2111,667.00,48.00,23.00,37.06,250.00,3.00,0.00,29.85,1012.50,10.00,M,CLR,M,M,M,M,M,M,M,M,M,M,M,M,M,M,46.98,KVGT 110753Z AUTO 25003KT 10SM CLR 09/M05 A2985 RMK AO2 SLP125 T00891050 401500078,M
P68,2021-03-11 07:53,-116.0056,39.6014,1993.00,26.10,24.10,92.01,190.00,4.00,0.01,29.79,1008.50,M,M,M,M,M,M,M,M,M,M,M,M,M,M,M,M,M,20.53,KP68 110753Z AUTO 19004KT M03/M04 A2979 RMK AO1 SLP085 P0001 T10331044 400441106,M
ELY,2021-03-11 07:53,-114.8453,39.2950,1909.00,24.10,19.00,80.59,M,M,T,29.79,1010.20,M,M,OVC,M,M,M,5000.00,M,M,M,-SN,M,M,M,M,M,M,M,KELY 110753Z AUTO -SN OVC050 M04/M07 A2979 RMK AO2 SNB0657E18B49 SLP102 P0000 T10441072 400171128 $,M
LOL,2021-03-11 07:53,-118.5701,40.0684,1192.43,21.00,18.00,87.97,50.00,4.00,0.00,29.87,1013.70,10.00,M,CLR,M,M,M,M,M,M,M,M,M,M,M,M,M,M,14.57,KLOL 110753Z AUTO 05004KT 10SM CLR M06/M08 A2987 RMK AO2 SLP137 T10611078 400561067,M
RTS,2021-03-11 07:55,-119.8764,39.6682,1539.00,23.00,21.20,92.69,0.00,0.00,0.00,29.89,M,0.25,M,BKN,OVC,M,M,100.00,7000.00,M,M,FZFG,M,M,M,M,M,M,23.00,KRTS 110755Z AUTO 00000KT M1/4SM FZFG BKN001 OVC070 M05/M06 A2989 RMK AO2,M
MEV,2021-03-11 07:55,-119.7500,38.9963,1441.42,26.60,24.80,92.80,350.00,4.00,0.00,29.89,M,10.00,M,BKN,BKN,OVC,M,2700.00,3900.00,5000.00,M,M,M,M,M,M,M,M,21.11,KMEV 110755Z AUTO 35004KT 10SM BKN027 BKN039 OVC050 M03/M04 A2989 RMK AO2,M
HTH,2021-03-11 07:55,-118.6315,38.5448,1282.89,32.00,30.20,92.97,210.00,4.00,0.00,29.89,M,10.00,M,SCT,OVC,M,M,2900.00,3400.00,M,M,M,M,M,M,M,M,M,27.42,KHTH 110755Z AUTO 21004KT 10SM SCT029 OVC034 00/M01 A2989 RMK A01,M
RNO,2021-03-11 07:55,-119.7711,39.4839,1341.00,28.00,26.10,92.46,0.00,0.00,0.00,29.89,1012.80,10.00,M,FEW,BKN,BKN,M,900.00,7000.00,11000.00,M,M,M,M,M,M,M,M,28.00,KRNO 110755Z 00000KT 10SM FEW009 BKN070 BKN110 M02/M03 A2989 RMK AO2 SLP128 T10221033 400561022,M
BVU,2021-03-11 07:55,-114.8611,35.9475,671.00,42.80,24.80,48.67,120.00,6.00,0.00,29.92,M,10.00,M,CLR,M,M,M,M,M,M,M,M,M,M,M,M,M,M,38.54,KBVU 110755Z AUTO 12006KT 10SM CLR 06/M04 A2992 RMK AO2,M
TMT,2021-03-11 07:55,-117.1971,39.4643,1749.34,21.70,20.30,94.23,0.00,0.00,0.00,29.83,M,10.00,M,M,M,M,M,M,M,M,M,M,M,M,M,M,M,M,21.70,KTMT 110755Z AUTO 00000KT 10SM M06/M06 A2983 RMK AO2 T10571065 400021126,M
BAM,2021-03-11 07:55,-116.8743,40.5990,1382.36,32.00,32.00,100.00,0.00,0.00,0.00,29.84,M,2.50,M,OVC,M,M,M,300.00,M,M,M,M,M,M,M,M,M,M,32.00,KBAM 110755Z AUTO 00000KT 2 1/2SM OVC003 00/00 A2984 RMK AO1,M
05U,2021-03-11 07:55,-116.0051,39.6042,1811.23,26.60,24.80,92.80,0.00,0.00,0.00,29.82,M,3.00,M,SCT,SCT,SCT,M,300.00,2100.00,2700.00,M,BR,M,M,M,M,M,M,26.60,K05U 110755Z AUTO 00000KT 3SM BR SCT003 SCT021 SCT027 M03/M04 A2982 RMK A01,M
EKO,2021-03-11 07:56,-115.7860,40.8242,1367.00,30.00,27.00,88.44,340.00,4.00,0.00,29.80,1009.50,10.00,M,BKN,OVC,M,M,1100.00,7500.00,M,M,M,T,M,M,M,M,M,25.08,KEKO 110756Z AUTO 34004KT 10SM BKN011 OVC075 M01/M03 A2980 RMK AO2 SLP095 I1000 T10111028 400721094,M
NFL,2021-03-11 07:56,-118.7010,39.4166,1199.00,32.00,27.00,81.55,0.00,0.00,0.00,29.88,1009.20,10.00,M,OVC,M,M,M,4200.00,M,M,M,M,M,M,M,M,M,M,32.00,KNFL 110756Z AUTO 00000KT 10SM OVC042 00/M03 A2988 RMK AO2 SLP092 T00001028 400671028,M
TPH,2021-03-11 07:56,-117.0904,38.0505,1654.00,24.10,23.00,95.49,10.00,4.00,T,29.83,1011.60,6.00,M,FEW,BKN,OVC,M,700.00,4400.00,5500.00,M,-SN BR,M,M,M,M,M,M,18.19,KTPH 110756Z AUTO 01004KT 6SM -SN BR FEW007 BKN044 OVC055 M04/M05 A2983 RMK AO2 SNB12 SLP116 P0000 T10441050 400391056,M
LAS,2021-03-11 07:56,-115.1634,36.0719,663.00,46.00,24.10,41.84,220.00,16.00,0.00,29.89,1011.90,10.00,26.00,FEW,FEW,BKN,M,9000.00,13000.00,22000.00,M,M,M,M,M,29.00,230.00,2021-03-11 07:15,38.67,KLAS 110756Z 22016G26KT 10SM FEW090 FEW130 BKN220 08/M04 A2989 RMK AO2 PK WND 23029/0715 SLP119 T00781044 401390078,M
HND,2021-03-11 07:56,-115.1344,35.9729,742.79,44.00,25.00,46.70,230.00,13.00,0.00,29.90,1014.80,10.00,M,CLR,M,M,M,M,M,M,M,M,M,M,M,29.00,240.00,2021-03-11 07:11,37.07,KHND 110756Z AUTO 23013KT 10SM CLR 07/M04 A2990 RMK AO2 PK WND 24029/0711 SLP148 T00671039 401280061,M
WMC,2021-03-11 07:56,-117.8072,40.9019,1315.00,30.00,24.10,78.40,320.00,3.00,0.00,29.85,1011.30,10.00,M,OVC,M,M,M,3500.00,M,M,M,M,M,M,M,M,M,M,26.40,KWMC 110756Z AUTO 32003KT 10SM OVC035 M01/M04 A2985 RMK AO2 SLP113 T10111044 400501083,M
INS,2021-03-11 07:58,-115.6733,36.5872,955.00,42.40,21.00,42.13,120.00,5.00,0.00,29.83,1008.60,10.00,M,CLR,M,M,M,M,M,M,M,M,M,M,M,M,M,M,38.75,KINS 110758Z AUTO 12005KT 10SM CLR 06/M06 A2983 RMK AO2 SLP086 T00581061 401230009 $,M
LSV,2021-03-11 07:58,-115.0343,36.2362,570.00,46.40,24.60,42.08,190.00,14.00,0.00,29.90,1012.40,10.00,M,CLR,M,M,M,M,M,M,M,M,M,M,M,M,M,M,39.72,KLSV 110758Z AUTO 19014KT 10SM CLR 08/M04 A2990 RMK AO2 SLP124 T00801041 401430077 $,M
CXP,2021-03-11 08:10,-119.7326,39.1923,1431.00,28.40,26.60,92.86,0.00,0.00,0.00,29.90,M,10.00,M,BKN,OVC,M,M,4600.00,5500.00,M,M,M,M,M,M,M,M,M,28.40,KCXP 110810Z AUTO 00000KT 10SM BKN046 OVC055 M02/M03 A2990 RMK AO2,M
TPH,2021-03-11 08:12,-117.0904,38.0505,1654.00,24.10,23.00,95.49,10.00,7.00,T,29.83,M,5.00,M,SCT,BKN,OVC,M,700.00,1800.00,5000.00,M,-SN BR,M,M,M,M,M,M,15.15,KTPH 110812Z AUTO 01007KT 5SM -SN BR SCT007 BKN018 OVC050 M04/M05 A2983 RMK AO2 P0000 T10441050,M
BAM,2021-03-11 08:15,-116.8743,40.5990,1382.36,32.00,32.00,100.00,0.00,0.00,0.00,29.84,M,2.50,M,BKN,OVC,M,M,300.00,2300.00,M,M,M,M,M,M,M,M,M,32.00,KBAM 110815Z AUTO 00000KT 2 1/2SM BKN003 OVC023 00/00 A2984 RMK AO1,M
05U,2021-03-11 08:15,-116.0051,39.6042,1811.23,26.60,24.80,92.80,0.00,0.00,0.00,29.82,M,1.50,M,BKN,OVC,M,M,200.00,2100.00,M,M,BR,M,M,M,M,M,M,26.60,K05U 110815Z AUTO 00000KT 1 1/2SM BR BKN002 OVC021 M03/M04 A2982 RMK A01,M
HTH,2021-03-11 08:15,-118.6315,38.5448,1282.89,32.00,30.20,92.97,210.00,5.00,0.00,29.89,M,10.00,M,FEW,SCT,OVC,M,2900.00,3500.00,5500.00,M,M,M,M,M,M,M,M,26.40,KHTH 110815Z AUTO 21005KT 10SM FEW029 SCT035 OVC055 00/M01 A2989 RMK A01,M
BVU,2021-03-11 08:15,-114.8611,35.9475,671.00,44.60,24.80,45.44,140.00,6.00,0.00,29.92,M,10.00,M,CLR,M,M,M,M,M,M,M,M,M,M,M,M,M,M,40.71,KBVU 110815Z AUTO 14006KT 10SM CLR 07/M04 A2992 RMK AO2,M
MEV,2021-03-11 08:15,-119.7500,38.9963,1441.42,21.20,19.40,92.63,0.00,0.00,0.00,29.89,M,10.00,M,BKN,OVC,M,M,2600.00,3600.00,M,M,M,M,M,M,M,M,M,21.20,KMEV 110815Z AUTO 00000KT 10SM BKN026 OVC036 M06/M07 A2989 RMK AO2,M
TMT,2021-03-11 08:15,-117.1971,39.4643,1749.34,22.10,20.70,94.24,0.00,0.00,0.00,29.83,M,10.00,M,M,M,M,M,M,M,M,M,M,M,M,M,M,M,M,22.10,KTMT 110815Z AUTO 00000KT 10SM M05/M06 A2983 RMK AO2 T10551063,M
RTS,2021-03-11 08:15,-119.8764,39.6682,1539.00,21.20,19.40,92.63,0.00,0.00,0.00,29.89,M,10.00,M,OVC,M,M,M,7000.00,M,M,M,M,M,M,M,M,M,M,21.20,KRTS 110815Z AUTO 00000KT 10SM OVC070 M06/M07 A2989 RMK AO2,M
TPH,2021-03-11 08:25,-117.0904,38.0505,1654.00,25.00,24.10,96.31,20.00,6.00,0.01,29.83,M,2.50,M,FEW,SCT,OVC,M,800.00,2000.00,3000.00,M,-SN BR,M,M,M,M,M,M,17.10,KTPH 110825Z AUTO 02006KT 2 1/2SM -SN BR FEW008 SCT020 OVC030 M04/M04 A2983 RMK AO2 P0001 T10391044,M
CXP,2021-03-11 08:30,-119.7326,39.1923,1431.00,28.40,26.60,92.86,0.00,0.00,0.00,29.90,M,10.00,M,FEW,SCT,BKN,M,1200.00,3700.00,4400.00,M,M,M,M,M,M,M,M,28.40,KCXP 110830Z AUTO 00000KT 10SM FEW012 SCT037 BKN044 M02/M03 A2990 RMK AO2,M
TPH,2021-03-11 08:32,-117.0904,38.0505,1654.00,25.00,24.10,96.31,20.00,7.00,0.01,29.83,M,2.00,M,FEW,OVC,M,M,800.00,2200.00,M,M,-SN BR,M,M,M,M,M,M,16.25,KTPH 110832Z AUTO 02007KT 2SM -SN BR FEW008 OVC022 M04/M04 A2983 RMK AO2 P0001 T10391044,M
EKO,2021-03-11 08:33,-115.7860,40.8242,1367.00,28.90,27.00,92.49,70.00,3.00,0.00,29.80,M,9.00,M,SCT,SCT,BKN,M,1200.00,3500.00,7500.00,M,M,M,M,M,M,M,M,25.14,KEKO 110833Z AUTO 07003KT 9SM SCT012 SCT035 BKN075 M02/M03 A2980 RMK AO2 T10171028,M
05U,2021-03-11 08:35,-116.0051,39.6042,1811.23,24.80,23.00,92.74,0.00,0.00,0.00,29.82,M,2.50,M,BKN,OVC,M,M,200.00,2100.00,M,M,BR,M,M,M,M,M,M,24.80,K05U 110835Z AUTO 00000KT 2 1/2SM BR BKN002 OVC021 M04/M05 A2982 RMK A01,M
TMT,2021-03-11 08:35,-117.1971,39.4643,1749.34,22.60,21.00,93.46,0.00,0.00,0.00,29.84,M,10.00,M,M,M,M,M,M,M,M,M,M,M,M,M,M,M,M,22.60,KTMT 110835Z AUTO 00000KT 10SM M05/M06 A2984 RMK AO2 T10521061,M
BAM,2021-03-11 08:35,-116.8743,40.5990,1382.36,32.00,32.00,100.00,0.00,0.00,0.00,29.84,M,2.50,M,OVC,M,M,M,300.00,M,M,M,M,M,M,M,M,M,M,32.00,KBAM 110835Z AUTO 00000KT 2 1/2SM OVC003 00/00 A2984 RMK AO1,M
MEV,2021-03-11 08:35,-119.7500,38.9963,1441.42,21.20,21.20,100.00,0.00,0.00,0.00,29.89,M,10.00,M,FEW,BKN,OVC,M,1900.00,2600.00,3600.00,M,M,M,M,M,M,M,M,21.20,KMEV 110835Z AUTO 00000KT 10SM FEW019 BKN026 OVC036 M06/M06 A2989 RMK AO2,M
BVU,2021-03-11 08:35,-114.8611,35.9475,671.00,44.60,24.80,45.44,M,5.00,0.00,29.93,M,10.00,M,FEW,M,M,M,9000.00,M,M,M,M,M,M,M,M,M,M,41.36,KBVU 110835Z AUTO VRB05KT 10SM FEW090 07/M04 A2993 RMK AO2,M
RTS,2021-03-11 08:35,-119.8764,39.6682,1539.00,21.20,19.40,92.63,360.00,3.00,0.00,29.89,M,10.00,M,SCT,SCT,M,M,7000.00,8000.00,M,M,M,M,M,M,M,M,M,16.34,KRTS 110835Z AUTO 36003KT 10SM SCT070 SCT080 M06/M07 A2989 RMK AO2,M
HTH,2021-03-11 08:35,-118.6315,38.5448,1282.89,32.00,28.40,86.39,220.00,3.00,0.00,29.89,M,10.00,M,OVC,M,M,M,5500.00,M,M,M,M,M,M,M,M,M,M,28.69,KHTH 110835Z AUTO 22003KT 10SM OVC055 00/M02 A2989 RMK A01,M
TPH,2021-03-11 08:39,-117.0904,38.0505,1654.00,25.00,24.10,96.31,20.00,7.00,0.01,29.83,M,1.75,M,OVC,M,M,M,2000.00,M,M,M,-SN BR,M,M,M,M,M,M,16.25,KTPH 110839Z AUTO 02007KT 1 3/4SM -SN BR OVC020 M04/M04 A2983 RMK AO2 P0001 T10391044,M
EKO,2021-03-11 08:47,-115.7860,40.8242,1367.00,30.00,27.00,88.44,130.00,3.00,0.00,29.81,M,10.00,M,BKN,BKN,BKN,M,2300.00,3400.00,7500.00,M,M,M,M,M,M,M,M,26.40,KEKO 110847Z AUTO 13003KT 10SM BKN023 BKN034 BKN075 M01/M03 A2981 RMK AO2 T10111028,M
CXP,2021-03-11 08:50,-119.7326,39.1923,1431.00,26.60,24.80,92.80,0.00,0.00,0.00,29.90,M,10.00,M,FEW,SCT,BKN,M,3700.00,4900.00,7000.00,M,M,M,M,M,M,M,M,26.60,KCXP 110850Z AUTO 00000KT 10SM FEW037 SCT049 BKN070 M03/M04 A2990 RMK AO2,M
ELY,2021-03-11 08:53,-114.8453,39.2950,1909.00,24.10,19.90,83.75,M,M,T,29.81,1010.50,M,M,FEW,OVC,M,M,3300.00,4400.00,M,M,-SN,M,M,M,M,M,M,M,KELY 110853Z AUTO -SN FEW033 OVC044 M04/M07 A2981 RMK AO2 SNE0757B37 SLP105 P0000 60000 T10441067 53003 $,M
VGT,2021-03-11 08:53,-115.1933,36.2111,667.00,45.00,23.00,41.50,170.00,10.00,0.00,29.85,1012.30,10.00,M,CLR,M,M,M,M,M,M,M,M,M,M,M,M,M,M,39.27,KVGT 110853Z AUTO 17010KT 10SM CLR 07/M05 A2985 RMK AO2 SLP123 T00721050 50005,M
LOL,2021-03-11 08:53,-118.5701,40.0684,1192.43,21.00,17.10,84.62,310.00,4.00,0.00,29.88,1013.90,10.00,M,BKN,OVC,M,M,5000.00,6000.00,M,M,M,M,M,M,M,M,M,14.57,KLOL 110853Z AUTO 31004KT 10SM BKN050 OVC060 M06/M08 A2988 RMK AO2 SLP139 T10611083 53009,M
P68,2021-03-11 08:53,-116.0056,39.6014,1993.00,24.10,21.90,91.17,180.00,5.00,0.01,29.80,1009.10,M,M,M,M,M,M,M,M,M,M,M,M,M,M,M,M,M,17.01,KP68 110853Z AUTO 18005KT M04/M06 A2980 RMK AO1 SLP091 P0001 60005 T10441056 53005,M
MEV,2021-03-11 08:55,-119.7500,38.9963,1441.42,21.20,19.40,92.63,120.00,4.00,0.00,29.89,M,10.00,M,BKN,OVC,M,M,2600.00,3800.00,M,M,M,M,M,M,M,M,M,14.81,KMEV 110855Z AUTO 12004KT 10SM BKN026 OVC038 M06/M07 A2989 RMK AO2,M
BAM,2021-03-11 08:55,-116.8743,40.5990,1382.36,32.00,32.00,100.00,0.00,0.00,0.00,29.84,M,2.00,M,OVC,M,M,M,500.00,M,M,M,M,M,M,M,M,M,M,32.00,KBAM 110855Z AUTO 00000KT 2SM OVC005 00/00 A2984 RMK AO1,M
HTH,2021-03-11 08:55,-118.6315,38.5448,1282.89,32.00,28.40,86.39,330.00,4.00,0.00,29.89,M,10.00,M,BKN,OVC,M,M,1700.00,6000.00,M,M,M,M,M,M,M,M,M,27.42,KHTH 110855Z AUTO 33004KT 10SM BKN017 OVC060 00/M02 A2989 RMK A01,M
05U,2021-03-11 08:55,-116.0051,39.6042,1811.23,24.80,23.00,92.74,0.00,0.00,0.00,29.83,M,2.00,M,BKN,OVC,M,M,300.00,2100.00,M,M,BR,M,M,M,M,M,M,24.80,K05U 110855Z AUTO 00000KT 2SM BR BKN003 OVC021 M04/M05 A2983 RMK A01,M
BVU,2021-03-11 08:55,-114.8611,35.9475,671.00,44.60,24.80,45.44,100.00,5.00,0.00,29.93,M,10.00,M,CLR,M,M,M,M,M,M,M,M,M,M,M,M,M,M,41.36,KBVU 110855Z AUTO 10005KT 10SM CLR 07/M04 A2993 RMK AO2,M
RNO,2021-03-11 08:55,-119.7711,39.4839,1341.00,28.00,21.00,74.67,270.00,3.00,0.00,29.90,1012.90,10.00,M,FEW,BKN,M,M,900.00,7000.00,M,M,M,M,M,M,M,M,M,24.12,KRNO 110855Z 27003KT 10SM FEW009 BKN070 M02/M06 A2990 RMK AO2 SLP129 T10221061 51006,M
TMT,2021-03-11 08:55,-117.1971,39.4643,1749.34,23.00,21.90,95.47,0.00,0.00,0.00,29.84,M,10.00,M,M,M,M,M,M,M,M,M,-SN,M,M,M,M,M,M,23.00,KTMT 110855Z AUTO 00000KT 10SM -SN M05/M06 A2984 RMK AO2 T10501056,M
RTS,2021-03-11 08:55,-119.8764,39.6682,1539.00,21.20,17.60,85.74,340.00,4.00,0.00,29.89,M,10.00,M,BKN,M,M,M,6500.00,M,M,M,M,M,M,M,M,M,M,14.81,KRTS 110855Z AUTO 34004KT 10SM BKN065 M06/M08 A2989 RMK AO2,M
HND,2021-03-11 08:56,-115.1344,35.9729,742.79,42.00,24.10,48.56,210.00,12.00,0.00,29.91,1014.80,10.00,M,CLR,M,M,M,M,M,M,M,M,M,M,M,M,M,M,34.86,KHND 110856Z AUTO 21012KT 10SM CLR 06/M04 A2991 RMK AO2 SLP148 T00561044 53006,M
EKO,2021-03-11 08:56,-115.7860,40.8242,1367.00,30.00,28.00,92.15,0.00,0.00,0.00,29.81,1010.00,10.00,M,BKN,OVC,M,M,2500.00,3200.00,M,M,M,M,T,M,M,M,M,30.00,KEKO 110856Z AUTO 00000KT 10SM BKN025 OVC032 M01/M02 A2981 RMK AO2 SLP100 I3000 T10111022 53005,M
WMC,2021-03-11 08:56,-117.8072,40.9019,1315.00,30.00,24.10,78.40,0.00,0.00,0.00,29.86,1011.90,10.00,M,FEW,OVC,M,M,3000.00,5000.00,M,M,M,M,M,M,M,M,M,30.00,KWMC 110856Z AUTO 00000KT 10SM FEW030 OVC050 M01/M04 A2986 RMK AO2 SLP119 T10111044 53007,M
TPH,2021-03-11 08:56,-117.0904,38.0505,1654.00,26.10,25.00,95.53,10.00,6.00,0.02,29.83,1011.10,1.25,M,OVC,M,M,M,1800.00,M,M,M,-SN BR,M,M,M,M,M,M,18.42,KTPH 110856Z AUTO 01006KT 1 1/4SM -SN BR OVC018 M03/M04 A2983 RMK AO2 SLP111 P0002 60002 T10331039 53002,M
LAS,2021-03-11 08:56,-115.1634,36.0719,663.00,45.00,23.00,41.50,220.00,13.00,0.00,29.90,1012.20,10.00,21.00,FEW,FEW,BKN,M,9000.00,13000.00,22000.00,M,M,M,M,M,M,M,M,38.22,KLAS 110856Z 22013G21KT 10SM FEW090 FEW130 BKN220 07/M05 A2990 RMK AO2 SLP122 T00721050 53004,M
NFL,2021-03-11 08:56,-118.7010,39.4166,1199.00,30.00,25.00,81.40,170.00,3.00,0.00,29.89,1009.50,10.00,M,FEW,M,M,M,4100.00,M,M,M,M,M,M,M,M,M,M,26.40,KNFL 110856Z AUTO 17003KT 10SM FEW041 M01/M04 A2989 RMK AO2 SLP095 T10111039 53007,M
LSV,2021-03-11 08:58,-115.0343,36.2362,570.00,46.00,24.30,42.19,190.00,12.00,0.00,29.91,1012.70,10.00,M,CLR,M,M,M,M,M,M,M,M,M,M,M,M,M,M,39.82,KLSV 110858Z AUTO 19012KT 10SM CLR 08/M04 A2991 RMK AO2 SLP127 T00781043 52009 $,M
INS,2021-03-11 08:58,-115.6733,36.5872,955.00,42.00,18.30,37.98,270.00,8.00,0.00,29.84,1009.00,10.00,M,CLR,M,M,M,M,M,M,M,M,M,M,M,M,M,M,36.55,KINS 110858Z AUTO 27008KT 10SM CLR 06/M08 A2984 RMK AO2 SLP090 T00561076 51006 $,M
EKO,2021-03-11 09:14,-115.7860,40.8242,1367.00,30.00,27.00,88.44,80.00,4.00,0.00,29.81,M,9.00,M,FEW,BKN,OVC,M,2400.00,3200.00,5000.00,M,M,M,M,M,M,M,M,25.08,KEKO 110914Z AUTO 08004KT 9SM FEW024 BKN032 OVC050 M01/M03 A2981 RMK AO2 T10111028,M
HTH,2021-03-11 09:15,-118.6315,38.5448,1282.89,32.00,28.40,86.39,330.00,3.00,0.00,29.90,M,10.00,M,BKN,OVC,M,M,1700.00,7000.00,M,M,M,M,M,M,M,M,M,28.69,KHTH 110915Z AUTO 33003KT 10SM BKN017 OVC070 M00/M02 A2990 RMK A01,M
BAM,2021-03-11 09:15,-116.8743,40.5990,1382.36,32.00,32.00,100.00,0.00,0.00,0.00,29.85,M,1.50,M,OVC,M,M,M,500.00,M,M,M,M,M,M,M,M,M,M,32.00,KBAM 110915Z AUTO 00000KT 1 1/2SM OVC005 00/00 A2985 RMK AO1,M
TMT,2021-03-11 09:15,-117.1971,39.4643,1749.34,23.00,21.90,95.47,0.00,0.00,0.00,29.84,M,10.00,M,M,M,M,M,M,M,M,M,M,M,M,M,M,M,M,23.00,KTMT 110915Z AUTO 00000KT 10SM M05/M06 A2984 RMK AO2 T10501056,M
05U,2021-03-11 09:15,-116.0051,39.6042,1811.23,23.00,21.20,92.69,0.00,0.00,0.00,29.83,M,2.50,M,BKN,BKN,OVC,M,300.00,2100.00,3000.00,M,BR,M,M,M,M,M,M,23.00,K05U 110915Z AUTO 00000KT 2 1/2SM BR BKN003 BKN021 OVC030 M05/M06 A2983 RMK A01,M
RTS,2021-03-11 09:15,-119.8764,39.6682,1539.00,19.40,17.60,92.57,0.00,0.00,0.00,29.90,M,10.00,M,OVC,M,M,M,6000.00,M,M,M,M,M,M,M,M,M,M,19.40,KRTS 110915Z AUTO 00000KT 10SM OVC060 M07/M08 A2990 RMK AO2,M
CXP,2021-03-11 09:15,-119.7326,39.1923,1431.00,26.60,24.80,92.80,0.00,0.00,0.00,29.90,M,10.00,M,FEW,FEW,BKN,M,1600.00,7000.00,10000.00,M,M,M,M,M,M,M,M,26.60,KCXP 110915Z AUTO 00000KT 10SM FEW016 FEW070 BKN100 M03/M04 A2990 RMK AO2,M
BVU,2021-03-11 09:15,-114.8611,35.9475,671.00,42.80,24.80,48.67,0.00,0.00,0.00,29.93,M,10.00,M,CLR,M,M,M,M,M,M,M,M,M,M,M,M,M,M,42.80,KBVU 110915Z AUTO 00000KT 10SM CLR 06/M04 A2993 RMK AO2,M
MEV,2021-03-11 09:15,-119.7500,38.9963,1441.42,19.40,17.60,92.57,130.00,5.00,0.00,29.90,M,10.00,M,OVC,M,M,M,2600.00,M,M,M,M,M,M,M,M,M,M,11.43,KMEV 110915Z AUTO 13005KT 10SM OVC026 M07/M08 A2990 RMK AO2,M
TPH,2021-03-11 09:16,-117.0904,38.0505,1654.00,25.00,24.10,96.31,360.00,7.00,0.01,29.83,M,1.00,M,VV ,M,M,M,1300.00,M,M,M,-SN BR,M,M,M,M,M,M,16.25,KTPH 110916Z AUTO 36007KT 1SM -SN BR VV013 M04/M04 A2983 RMK AO2 P0001 T10391044,M
WMC,2021-03-11 09:30,-117.8072,40.9019,1315.00,30.00,24.10,78.40,270.00,4.00,0.00,29.86,M,10.00,M,BKN,OVC,M,M,2800.00,5000.00,M,M,M,M,M,M,M,M,M,25.08,KWMC 110930Z AUTO 27004KT 10SM BKN028 OVC050 M01/M04 A2986 RMK AO2 T10111044,M
CXP,2021-03-11 09:30,-119.7326,39.1923,1431.00,24.80,23.00,92.74,0.00,0.00,0.00,29.91,M,0.25,M,SCT,BKN,OVC,M,100.00,2100.00,11000.00,M,FZFG,M,M,M,M,M,M,24.80,KCXP 110930Z AUTO 00000KT 1/4SM FZFG SCT001 BKN021 OVC110 M04/M05 A2991 RMK AO2,M
EKO,2021-03-11 09:32,-115.7860,40.8242,1367.00,30.00,27.00,88.44,30.00,3.00,0.00,29.81,M,9.00,M,SCT,BKN,OVC,M,300.00,4200.00,4900.00,M,M,M,M,M,M,M,M,26.40,KEKO 110932Z AUTO 03003KT 9SM SCT003 BKN042 OVC049 M01/M03 A2981 RMK AO2 T10111028,M
RTS,2021-03-11 09:35,-119.8764,39.6682,1539.00,19.40,17.60,92.57,310.00,4.00,0.00,29.90,M,10.00,M,SCT,M,M,M,6000.00,M,M,M,M,M,M,M,M,M,M,12.71,KRTS 110935Z AUTO 31004KT 10SM SCT060 M07/M08 A2990 RMK AO2,M
BVU,2021-03-11 09:35,-114.8611,35.9475,671.00,41.00,24.80,52.17,20.00,4.00,0.00,29.93,M,10.00,M,BKN,M,M,M,6000.00,M,M,M,M,M,M,M,M,M,M,37.93,KBVU 110935Z AUTO 02004KT 10SM BKN060 05/M04 A2993 RMK AO2,M
05U,2021-03-11 09:35,-116.0051,39.6042,1811.23,23.00,21.20,92.69,0.00,0.00,0.00,29.83,M,3.00,M,FEW,OVC,M,M,300.00,2300.00,M,M,BR,M,M,M,M,M,M,23.00,K05U 110935Z AUTO 00000KT 3SM BR FEW003 OVC023 M05/M06 A2983 RMK A01,M
TMT,2021-03-11 09:35,-117.1971,39.4643,1749.34,22.30,21.20,95.46,0.00,0.00,0.00,29.85,M,10.00,M,M,M,M,M,M,M,M,M,M,M,M,M,M,M,M,22.30,KTMT 110935Z AUTO 00000KT 10SM M05/M06 A2985 RMK AO2 T10541060,M
HTH,2021-03-11 09:35,-118.6315,38.5448,1282.89,32.00,30.20,92.97,290.00,4.00,0.00,29.90,M,9.00,M,FEW,BKN,OVC,M,1400.00,2000.00,6500.00,M,M,M,M,M,M,M,M,27.42,KHTH 110935Z AUTO 29004KT 9SM FEW014 BKN020 OVC065 M00/M01 A2990 RMK A01,M
BAM,2021-03-11 09:35,-116.8743,40.5990,1382.36,32.00,32.00,100.00,240.00,3.00,0.00,29.85,M,1.50,M,OVC,M,M,M,500.00,M,M,M,M,M,M,M,M,M,M,28.69,KBAM 110935Z AUTO 24003KT 1 1/2SM OVC005 00/00 A2985 RMK AO1,M
MEV,2021-03-11 09:35,-119.7500,38.9963,1441.42,19.40,17.60,92.57,130.00,5.00,0.00,29.90,M,10.00,M,OVC,M,M,M,2600.00,M,M,M,M,M,M,M,M,M,M,11.43,KMEV 110935Z AUTO 13005KT 10SM OVC026 M07/M08 A2990 RMK AO2,M
WMC,2021-03-11 09:42,-117.8072,40.9019,1315.00,28.90,24.10,82.00,280.00,6.00,0.00,29.86,M,10.00,M,SCT,SCT,OVC,M,2800.00,3200.00,5500.00,M,M,M,M,M,M,M,M,21.80,KWMC 110942Z AUTO 28006KT 10SM SCT028 SCT032 OVC055 M02/M04 A2986 RMK AO2 T10171044,M
TPH,2021-03-11 09:49,-117.0904,38.0505,1654.00,25.00,24.10,96.31,10.00,8.00,0.02,29.83,M,1.75,M,OVC,M,M,M,1600.00,M,M,M,-SN BR,M,M,M,M,M,M,15.49,KTPH 110949Z AUTO 01008KT 1 3/4SM -SN BR OVC016 M04/M04 A2983 RMK AO2 P0002 T10391044,M
CXP,2021-03-11 09:50,-119.7326,39.1923,1431.00,24.80,23.00,92.74,0.00,0.00,0.00,29.91,M,4.00,M,OVC,M,M,M,11000.00,M,M,M,BR,M,M,M,M,M,M,24.80,KCXP 110950Z AUTO 00000KT 4SM BR OVC110 M04/M05 A2991 RMK AO2,M
VGT,2021-03-11 09:53,-115.1933,36.2111,667.00,46.00,23.00,39.96,170.00,4.00,0.00,29.85,1012.40,10.00,M,FEW,SCT,M,M,7000.00,12000.00,M,M,M,M,M,M,M,M,M,43.77,KVGT 110953Z AUTO 17004KT 10SM FEW070 SCT120 08/M05 A2985 RMK AO2 SLP124 T00781050,M
ELY,2021-03-11 09:53,-114.8453,39.2950,1909.00,24.10,19.90,83.75,M,M,T,29.80,1009.80,M,M,FEW,OVC,M,M,6500.00,9000.00,M,M,M,M,M,M,M,M,M,M,KELY 110953Z AUTO FEW065 OVC090 M04/M07 A2980 RMK AO2 SNE00 SLP098 P0000 T10441067 $,M
P68,2021-03-11 09:53,-116.0056,39.6014,1993.00,21.90,19.00,88.40,170.00,5.00,0.00,29.80,1009.30,M,M,M,M,M,M,M,M,M,M,M,M,M,M,M,M,M,14.40,KP68 110953Z AUTO 17005KT M06/M07 A2980 RMK AO1 SLP093 T10561072,M
LOL,2021-03-11 09:53,-118.5701,40.0684,1192.43,21.90,18.00,84.68,0.00,0.00,0.00,29.88,1013.90,10.00,M,CLR,M,M,M,M,M,M,M,M,M,M,M,M,M,M,21.90,KLOL 110953Z AUTO 00000KT 10SM CLR M06/M08 A2988 RMK AO2 SLP139 T10561078,M
RNO,2021-03-11 09:55,-119.7711,39.4839,1341.00,28.00,19.00,68.57,0.00,0.00,0.00,29.90,1013.20,10.00,M,FEW,BKN,M,M,4000.00,7500.00,M,M,M,M,M,M,M,M,M,28.00,KRNO 110955Z 00000KT 10SM FEW040 BKN075 M02/M07 A2990 RMK AO2 SLP132 T10221072,M
BAM,2021-03-11 09:55,-116.8743,40.5990,1382.36,32.00,32.00,100.00,250.00,3.00,0.00,29.85,M,1.50,M,OVC,M,M,M,500.00,M,M,M,M,M,M,M,M,M,M,28.69,KBAM 110955Z AUTO 25003KT 1 1/2SM OVC005 00/00 A2985 RMK AO1,M
MEV,2021-03-11 09:55,-119.7500,38.9963,1441.42,21.20,19.40,92.63,100.00,6.00,0.00,29.90,M,10.00,M,FEW,OVC,M,M,1700.00,2700.00,M,M,M,M,M,M,M,M,M,12.52,KMEV 110955Z AUTO 10006KT 10SM FEW017 OVC027 M06/M07 A2990 RMK AO2,M
RTS,2021-03-11 09:55,-119.8764,39.6682,1539.00,19.40,17.60,92.57,320.00,3.00,0.00,29.90,M,10.00,M,CLR,M,M,M,M,M,M,M,M,M,M,M,M,M,M,14.28,KRTS 110955Z AUTO 32003KT 10SM CLR M07/M08 A2990 RMK AO2,M
BVU,2021-03-11 09:55,-114.8611,35.9475,671.00,41.00,24.80,52.17,0.00,0.00,0.00,29.93,M,10.00,M,SCT,M,M,M,6000.00,M,M,M,M,M,M,M,M,M,M,41.00,KBVU 110955Z AUTO 00000KT 10SM SCT060 05/M04 A2993 RMK AO2,M
05U,2021-03-11 09:55,-116.0051,39.6042,1811.23,23.00,19.40,85.85,0.00,0.00,0.00,29.83,M,9.00,M,OVC,M,M,M,2300.00,M,M,M,M,M,M,M,M,M,M,23.00,K05U 110955Z AUTO 00000KT 9SM OVC023 M05/M07 A2983 RMK A01,M
TMT,2021-03-11 09:55,-117.1971,39.4643,1749.34,22.80,21.60,95.06,0.00,0.00,0.00,29.84,M,10.00,M,M,M,M,M,M,M,M,M,-SN,M,M,M,M,M,M,22.80,KTMT 110955Z AUTO 00000KT 10SM -SN M05/M06 A2984 RMK AO2 T10511058,M
HTH,2021-03-11 09:55,-118.6315,38.5448,1282.89,32.00,28.40,86.39,300.00,3.00,0.00,29.90,M,10.00,M,FEW,BKN,OVC,M,1700.00,2800.00,6500.00,M,M,M,M,M,M,M,M,28.69,KHTH 110955Z AUTO 30003KT 10SM FEW017 BKN028 OVC065 M00/M02 A2990 RMK A01,M
NFL,2021-03-11 09:56,-118.7010,39.4166,1199.00,28.90,25.00,85.14,220.00,3.00,0.00,29.89,1009.50,10.00,M,BKN,M,M,M,4200.00,M,M,M,M,M,M,M,M,M,M,25.14,KNFL 110956Z AUTO 22003KT 10SM BKN042 M02/M04 A2989 RMK AO2 SLP095 T10171039,M
HND,2021-03-11 09:56,-115.1344,35.9729,742.79,41.00,25.00,52.61,210.00,8.00,0.00,29.93,1015.40,10.00,M,CLR,M,M,M,M,M,M,M,M,M,M,M,M,M,M,35.20,KHND 110956Z AUTO 21008KT 10SM CLR 05/M04 A2993 RMK AO2 SLP154 T00501039,M
EKO,2021-03-11 09:56,-115.7860,40.8242,1367.00,30.00,27.00,88.44,0.00,0.00,T,29.81,1009.70,5.00,M,FEW,OVC,M,M,300.00,3900.00,M,M,-SN BR,M,M,M,M,M,M,30.00,KEKO 110956Z AUTO 00000KT 5SM -SN BR FEW003 OVC039 M01/M03 A2981 RMK AO2 SNB33 SLP097 P0000 T10111028,M
LAS,2021-03-11 09:56,-115.1634,36.0719,663.00,45.00,24.10,43.46,M,6.00,0.00,29.91,1012.70,10.00,M,FEW,BKN,M,M,8000.00,20000.00,M,M,M,M,M,M,27.00,240.00,2021-03-11 09:14,41.19,KLAS 110956Z VRB06KT 10SM FEW080 BKN200 07/M04 A2991 RMK AO2 PK WND 24027/0914 SLP127 T00721044,M
TPH,2021-03-11 09:56,-117.0904,38.0505,1654.00,25.00,24.10,96.31,20.00,6.00,0.02,29.83,1010.80,1.75,M,OVC,M,M,M,1700.00,M,M,M,-SN BR,M,M,M,M,M,M,17.10,KTPH 110956Z AUTO 02006KT 1 3/4SM -SN BR OVC017 M04/M04 A2983 RMK AO2 SLP108 P0002 T10391044,M
WMC,2021-03-11 09:56,-117.8072,40.9019,1315.00,28.90,24.10,82.00,280.00,6.00,0.00,29.86,1012.10,10.00,M,FEW,SCT,OVC,M,1800.00,3100.00,5500.00,M,M,M,M,M,M,M,M,21.80,KWMC 110956Z AUTO 28006KT 10SM FEW018 SCT031 OVC055 M02/M04 A2986 RMK AO2 SLP121 T10171044,M
LSV,2021-03-11 09:58,-115.0343,36.2362,570.00,46.00,24.10,42.00,200.00,18.00,0.00,29.89,1011.90,10.00,M,CLR,M,M,M,M,M,M,M,M,M,M,M,26.00,200.00,2021-03-11 09:44,38.05,KLSV 110958Z AUTO 20018KT 10SM CLR 08/M04 A2989 RMK AO2 PK WND 20026/44 SLP119 T00771044 $,M
INS,2021-03-11 09:58,-115.6733,36.5872,955.00,40.50,20.30,44.01,0.00,0.00,0.00,29.84,1009.20,10.00,M,CLR,M,M,M,M,M,M,M,M,M,M,M,M,M,M,40.50,KINS 110958Z AUTO 00000KT 10SM CLR 05/M06 A2984 RMK AO2 SLP092 T00471065 $,M
CXP,2021-03-11 10:10,-119.7326,39.1923,1431.00,21.20,19.40,92.63,0.00,0.00,0.00,29.91,M,0.25,M,BKN,BKN,OVC,M,200.00,6500.00,11000.00,M,FZFG,M,M,M,M,M,M,21.20,KCXP 111010Z AUTO 00000KT 1/4SM FZFG BKN002 BKN065 OVC110 M06/M07 A2991 RMK AO2,M
BVU,2021-03-11 10:15,-114.8611,35.9475,671.00,42.80,24.80,48.67,90.00,4.00,0.00,29.93,M,10.00,M,FEW,M,M,M,12000.00,M,M,M,M,M,M,M,M,M,M,40.03,KBVU 111015Z AUTO 09004KT 10SM FEW120 06/M04 A2993 RMK AO2,M
MEV,2021-03-11 10:15,-119.7500,38.9963,1441.42,21.20,17.60,85.74,100.00,5.00,0.00,29.90,M,10.00,M,FEW,BKN,OVC,M,1700.00,2400.00,3500.00,M,M,M,M,M,M,M,M,13.57,KMEV 111015Z AUTO 10005KT 10SM FEW017 BKN024 OVC035 M06/M08 A2990 RMK AO2,M
BAM,2021-03-11 10:15,-116.8743,40.5990,1382.36,32.00,32.00,100.00,250.00,3.00,0.00,29.85,M,3.00,M,OVC,M,M,M,500.00,M,M,M,M,M,M,M,M,M,M,28.69,KBAM 111015Z AUTO 25003KT 3SM OVC005 00/00 A2985 RMK AO1,M
TPH,2021-03-11 10:15,-117.0904,38.0505,1654.00,25.00,24.10,96.31,20.00,6.00,0.01,29.82,M,1.00,M,FEW,OVC,M,M,900.00,1300.00,M,M,-SN BR,M,M,M,M,M,M,17.10,KTPH 111015Z AUTO 02006KT 1SM -SN BR FEW009 OVC013 M04/M04 A2982 RMK AO2 P0001 T10391044,M
HTH,2021-03-11 10:15,-118.6315,38.5448,1282.89,32.00,28.40,86.39,290.00,3.00,0.00,29.89,M,10.00,M,SCT,BKN,OVC,M,1900.00,2700.00,6000.00,M,M,M,M,M,M,M,M,28.69,KHTH 111015Z AUTO 29003KT 10SM SCT019 BKN027 OVC060 M00/M02 A2989 RMK A01,M
RTS,2021-03-11 10:15,-119.8764,39.6682,1539.00,15.80,12.20,85.40,350.00,5.00,0.00,29.90,M,10.00,M,SCT,M,M,M,7000.00,M,M,M,M,M,M,M,M,M,M,7.16,KRTS 111015Z AUTO 35005KT 10SM SCT070 M09/M11 A2990 RMK AO2,M
TMT,2021-03-11 10:15,-117.1971,39.4643,1749.34,22.60,21.20,94.26,0.00,0.00,0.00,29.84,M,10.00,M,M,M,M,M,M,M,M,M,-SN,M,M,M,M,M,M,22.60,KTMT 111015Z AUTO 00000KT 10SM -SN M05/M06 A2984 RMK AO2 T10521060,M
05U,2021-03-11 10:15,-116.0051,39.6042,1811.23,21.20,19.40,92.63,0.00,0.00,0.00,29.82,M,10.00,M,BKN,BKN,OVC,M,2000.00,2500.00,7500.00,M,M,M,M,M,M,M,M,21.20,K05U 111015Z AUTO 00000KT 10SM BKN020 BKN025 OVC075 M06/M07 A2982 RMK A01,M
TPH,2021-03-11 10:28,-117.0904,38.0505,1654.00,25.00,24.10,96.31,30.00,6.00,0.02,29.82,M,0.75,M,VV ,M,M,M,900.00,M,M,M,-SN BR,M,M,M,M,M,M,17.10,KTPH 111028Z AUTO 03006KT 3/4SM -SN BR VV009 M04/M04 A2982 RMK AO2 P0002 T10391044,M
CXP,2021-03-11 10:30,-119.7326,39.1923,1431.00,21.20,19.40,92.63,0.00,0.00,0.00,29.91,M,2.50,M,BKN,BKN,BKN,M,6000.00,7000.00,11000.00,M,BR,M,M,M,M,M,M,21.20,KCXP 111030Z AUTO 00000KT 2 1/2SM BR BKN060 BKN070 BKN110 M06/M07 A2991 RMK AO2,M
RTS,2021-03-11 10:35,-119.8764,39.6682,1539.00,17.60,14.00,85.51,340.00,7.00,0.00,29.89,M,10.00,M,BKN,M,M,M,7000.00,M,M,M,M,M,M,M,M,M,M,7.23,KRTS 111035Z AUTO 34007KT 10SM BKN070 M08/M10 A2989 RMK AO2,M
BAM,2021-03-11 10:35,-116.8743,40.5990,1382.36,32.00,32.00,100.00,240.00,4.00,0.00,29.84,M,3.00,M,OVC,M,M,M,700.00,M,M,M,M,M,M,M,M,M,M,27.42,KBAM 111035Z AUTO 24004KT 3SM OVC007 00/00 A2984 RMK AO1,M
MEV,2021-03-11 10:35,-119.7500,38.9963,1441.42,19.40,17.60,92.57,120.00,4.00,0.00,29.89,M,10.00,M,FEW,SCT,OVC,M,2300.00,3500.00,12000.00,M,M,M,M,M,M,M,M,12.71,KMEV 111035Z AUTO 12004KT 10SM FEW023 SCT035 OVC120 M07/M08 A2989 RMK AO2,M
05U,2021-03-11 10:35,-116.0051,39.6042,1811.23,19.40,17.60,92.57,180.00,4.00,0.00,29.82,M,10.00,M,FEW,SCT,OVC,M,2000.00,4300.00,7500.00,M,M,M,M,M,M,M,M,12.71,K05U 111035Z AUTO 18004KT 10SM FEW020 SCT043 OVC075 M07/M08 A2982 RMK A01,M
TMT,2021-03-11 10:35,-117.1971,39.4643,1749.34,21.90,20.30,93.44,0.00,0.00,0.00,29.84,M,10.00,M,M,M,M,M,M,M,M,M,-SN,M,M,M,M,M,M,21.90,KTMT 111035Z AUTO 00000KT 10SM -SN M06/M06 A2984 RMK AO2 T10561065,M
BVU,2021-03-11 10:35,-114.8611,35.9475,671.00,44.60,23.00,42.14,160.00,6.00,0.00,29.92,M,10.00,M,CLR,M,M,M,M,M,M,M,M,M,M,M,M,M,M,40.71,KBVU 111035Z AUTO 16006KT 10SM CLR 07/M05 A2992 RMK AO2,M
HTH,2021-03-11 10:35,-118.6315,38.5448,1282.89,32.00,28.40,86.39,290.00,3.00,0.00,29.89,M,10.00,M,BKN,OVC,M,M,2100.00,2600.00,M,M,M,M,M,M,M,M,M,28.69,KHTH 111035Z AUTO 29003KT 10SM BKN021 OVC026 M00/M02 A2989 RMK A01,M
TPH,2021-03-11 10:48,-117.0904,38.0505,1654.00,25.00,24.10,96.31,20.00,7.00,0.06,29.82,M,0.50,M,VV ,M,M,M,500.00,M,M,M,SN FZFG,M,M,M,M,M,M,16.25,KTPH 111048Z AUTO 02007KT 1/2SM SN FZFG VV005 M04/M04 A2982 RMK AO2 P0006 T10391044,M
CXP,2021-03-11 10:50,-119.7326,39.1923,1431.00,21.20,19.40,92.63,0.00,0.00,0.00,29.90,M,2.00,M,BKN,BKN,M,M,6000.00,12000.00,M,M,BR,M,M,M,M,M,M,21.20,KCXP 111050Z AUTO 00000KT 2SM BR BKN060 BKN120 M06/M07 A2990 RMK AO2,M
EKO,2021-03-11 10:51,-115.7860,40.8242,1367.00,30.20,28.40,92.92,70.00,3.00,T,29.80,M,2.50,M,OVC,M,M,M,2800.00,M,M,M,-SN BR,M,M,M,M,M,M,26.63,KEKO 111051Z AUTO 07003KT 2 1/2SM -SN BR OVC028 M01/M02 A2980 RMK AO2 P0000,M
VGT,2021-03-11 10:53,-115.1933,36.2111,667.00,45.00,21.90,39.62,180.00,10.00,0.00,29.84,1012.00,10.00,M,CLR,M,M,M,M,M,M,M,M,M,M,M,M,M,M,39.27,KVGT 111053Z AUTO 18010KT 10SM CLR 07/M06 A2984 RMK AO2 SLP120 T00721056,M
ELY,2021-03-11 10:53,-114.8453,39.2950,1909.00,21.00,18.00,87.97,M,M,0.00,29.80,1010.90,M,M,OVC,M,M,M,5000.00,M,M,M,M,M,M,M,M,M,M,M,KELY 111053Z AUTO OVC050 M06/M08 A2980 RMK AO2 SLP109 T10611078 $,M
TPH,2021-03-11 10:53,-117.0904,38.0505,1654.00,24.80,24.80,100.00,20.00,7.00,0.07,29.82,M,0.25,M,VV ,M,M,M,400.00,M,M,M,+SN FZFG,M,M,M,M,M,M,16.00,KTPH 111053Z AUTO 02007KT 1/4SM +SN FZFG VV004 M04/M04 A2982 RMK AO2 P0007,M
P68,2021-03-11 10:53,-116.0056,39.6014,1993.00,18.00,16.00,91.72,180.00,6.00,0.00,29.80,1009.70,M,M,M,M,M,M,M,M,M,M,M,M,M,M,M,M,M,8.67,KP68 111053Z AUTO 18006KT M08/M09 A2980 RMK AO1 SLP097 T10781089,M
LOL,2021-03-11 10:53,-118.5701,40.0684,1192.43,18.00,14.00,84.05,80.00,5.00,0.00,29.88,1014.10,10.00,M,CLR,M,M,M,M,M,M,M,M,M,M,M,M,M,M,9.77,KLOL 111053Z AUTO 08005KT 10SM CLR M08/M10 A2988 RMK AO2 SLP141 T10781100,M
BVU,2021-03-11 10:55,-114.8611,35.9475,671.00,42.80,24.80,48.67,130.00,5.00,0.00,29.92,M,10.00,M,FEW,M,M,M,11000.00,M,M,M,M,M,M,M,M,M,M,39.22,KBVU 111055Z AUTO 13005KT 10SM FEW110 06/M04 A2992 RMK AO2,M
TMT,2021-03-11 10:55,-117.1971,39.4643,1749.34,21.70,20.30,94.23,0.00,0.00,0.00,29.84,M,10.00,M,M,M,M,M,M,M,M,M,-SN,M,M,M,M,M,M,21.70,KTMT 111055Z AUTO 00000KT 10SM -SN M06/M06 A2984 RMK AO2 T10571065,M
05U,2021-03-11 10:55,-116.0051,39.6042,1811.23,19.40,15.80,85.63,180.00,4.00,0.00,29.82,M,10.00,M,FEW,BKN,OVC,M,2100.00,4300.00,7500.00,M,M,M,M,M,M,M,M,12.71,K05U 111055Z AUTO 18004KT 10SM FEW021 BKN043 OVC075 M07/M09 A2982 RMK A01,M
MEV,2021-03-11 10:55,-119.7500,38.9963,1441.42,19.40,15.80,85.63,M,4.00,0.00,29.89,M,10.00,M,SCT,BKN,OVC,M,2800.00,3700.00,12000.00,M,M,M,M,M,M,M,M,12.71,KMEV 111055Z AUTO VRB04KT 10SM SCT028 BKN037 OVC120 M07/M09 A2989 RMK AO2,M
BAM,2021-03-11 10:55,-116.8743,40.5990,1382.36,32.00,32.00,100.00,240.00,3.00,0.00,29.84,M,2.00,M,OVC,M,M,M,900.00,M,M,M,M,M,M,M,M,M,M,28.69,KBAM 111055Z AUTO 24003KT 2SM OVC009 00/00 A2984 RMK AO1,M
RNO,2021-03-11 10:55,-119.7711,39.4839,1341.00,28.00,17.10,63.19,260.00,5.00,0.00,29.90,1013.20,10.00,M,FEW,BKN,M,M,4000.00,7500.00,M,M,M,M,M,M,M,M,M,21.64,KRNO 111055Z 26005KT 10SM FEW040 BKN075 M02/M08 A2990 RMK AO2 SLP132 T10221083,M
RTS,2021-03-11 10:55,-119.8764,39.6682,1539.00,15.80,14.00,92.44,340.00,5.00,0.00,29.89,M,10.00,M,SCT,M,M,M,7000.00,M,M,M,M,M,M,M,M,M,M,7.16,KRTS 111055Z AUTO 34005KT 10SM SCT070 M09/M10 A2989 RMK AO2,M
HTH,2021-03-11 10:55,-118.6315,38.5448,1282.89,32.00,28.40,86.39,320.00,4.00,0.00,29.89,M,10.00,M,OVC,M,M,M,2300.00,M,M,M,M,M,M,M,M,M,M,27.42,KHTH 111055Z AUTO 32004KT 10SM OVC023 M00/M02 A2989 RMK A01,M
TPH,2021-03-11 10:56,-117.0904,38.0505,1654.00,25.00,25.00,100.00,20.00,7.00,0.08,29.82,1011.40,0.25,M,VV ,M,M,M,400.00,M,M,M,+SN FZFG,M,M,M,M,M,M,16.25,KTPH 111056Z AUTO 02007KT 1/4SM +SN FZFG VV004 M04/M04 A2982 RMK AO2 SLP114 P0008 T10391039,M
EKO,2021-03-11 10:56,-115.7860,40.8242,1367.00,30.00,28.00,92.15,70.00,3.00,T,29.80,1009.70,2.00,M,BKN,OVC,M,M,2600.00,3500.00,M,M,-SN BR,M,M,M,M,M,M,26.40,KEKO 111056Z AUTO 07003KT 2SM -SN BR BKN026 OVC035 M01/M02 A2980 RMK AO2 SLP097 P0000 T10111022,M
NFL,2021-03-11 10:56,-118.7010,39.4166,1199.00,27.00,24.10,88.65,210.00,4.00,0.00,29.88,1009.40,10.00,M,BKN,M,M,M,6000.00,M,M,M,M,M,M,M,M,M,M,21.58,KNFL 111056Z AUTO 21004KT 10SM BKN060 M03/M04 A2988 RMK AO2 SLP094 T10281044,M
WMC,2021-03-11 10:56,-117.8072,40.9019,1315.00,28.90,25.00,85.14,290.00,3.00,T,29.86,1012.00,9.00,M,FEW,BKN,OVC,M,2400.00,4300.00,5000.00,M,-SN,M,M,M,M,M,M,25.14,KWMC 111056Z AUTO 29003KT 9SM -SN FEW024 BKN043 OVC050 M02/M04 A2986 RMK AO2 SNB24 SLP120 P0000 T10171039,M
HND,2021-03-11 10:56,-115.1344,35.9729,742.79,41.00,25.00,52.61,180.00,11.00,0.00,29.91,1014.70,10.00,M,CLR,M,M,M,M,M,M,M,M,M,M,M,M,M,M,33.84,KHND 111056Z AUTO 18011KT 10SM CLR 05/M04 A2991 RMK AO2 SLP147 T00501039,M
LAS,2021-03-11 10:56,-115.1634,36.0719,663.00,44.00,24.10,44.98,190.00,9.00,0.00,29.90,1012.20,10.00,M,FEW,BKN,M,M,8000.00,18000.00,M,M,M,M,M,M,M,M,M,38.56,KLAS 111056Z 19009KT 10SM FEW080 BKN180 07/M04 A2990 RMK AO2 SLP122 T00671044,M
LSV,2021-03-11 10:58,-115.0343,36.2362,570.00,45.70,24.40,42.85,200.00,12.00,0.00,29.89,1011.80,10.00,M,CLR,M,M,M,M,M,M,M,M,M,M,M,M,M,M,39.44,KLSV 111058Z AUTO 20012KT 10SM CLR 08/M04 A2989 RMK AO2 SLP118 T00761042 $,M
INS,2021-03-11 10:58,-115.6733,36.5872,955.00,37.00,19.40,48.76,100.00,4.00,0.00,29.85,1009.80,10.00,M,FEW,M,M,M,7000.00,M,M,M,M,M,M,M,M,M,M,33.14,KINS 111058Z AUTO 10004KT 10SM FEW070 03/M07 A2985 RMK AO2 SLP098 T00271070 $,M
CXP,2021-03-11 11:10,-119.7326,39.1923,1431.00,21.20,19.40,92.63,0.00,0.00,0.00,29.90,M,0.50,M,BKN,M,M,M,6000.00,M,M,M,BR,M,M,M,M,M,M,21.20,KCXP 111110Z AUTO 00000KT 1/2SM BR BKN060 M06/M07 A2990 RMK AO2,M
EKO,2021-03-11 11:12,-115.7860,40.8242,1367.00,30.00,28.00,92.15,0.00,0.00,T,29.81,M,4.00,M,FEW,BKN,OVC,M,1100.00,3000.00,3600.00,M,-SN BR,M,M,M,M,M,M,30.00,KEKO 111112Z AUTO 00000KT 4SM -SN BR FEW011 BKN030 OVC036 M01/M02 A2981 RMK AO2 P0000 T10111022,M
05U,2021-03-11 11:15,-116.0051,39.6042,1811.23,17.60,15.80,92.50,180.00,5.00,0.00,29.82,M,9.00,M,BKN,BKN,OVC,M,2300.00,2800.00,4200.00,M,M,M,M,M,M,M,M,9.29,K05U 111115Z AUTO 18005KT 9SM BKN023 BKN028 OVC042 M08/M09 A2982 RMK A01,M
RTS,2021-03-11 11:15,-119.8764,39.6682,1539.00,15.80,14.00,92.44,340.00,6.00,0.00,29.90,M,10.00,M,SCT,M,M,M,7000.00,M,M,M,M,M,M,M,M,M,M,6.02,KRTS 111115Z AUTO 34006KT 10SM SCT070 M09/M10 A2990 RMK AO2,M
BVU,2021-03-11 11:15,-114.8611,35.9475,671.00,42.80,24.80,48.67,80.00,4.00,0.00,29.92,M,10.00,M,FEW,M,M,M,12000.00,M,M,M,M,M,M,M,M,M,M,40.03,KBVU 111115Z AUTO 08004KT 10SM FEW120 06/M04 A2992 RMK AO2,M
HTH,2021-03-11 11:15,-118.6315,38.5448,1282.89,30.20,28.40,92.92,330.00,3.00,0.00,29.89,M,10.00,M,SCT,SCT,OVC,M,2400.00,3300.00,6500.00,M,M,M,M,M,M,M,M,26.63,KHTH 111115Z AUTO 33003KT 10SM SCT024 SCT033 OVC065 M01/M02 A2989 RMK A01,M
BAM,2021-03-11 11:15,-116.8743,40.5990,1382.36,32.00,32.00,100.00,0.00,0.00,0.00,29.84,M,2.50,M,SCT,OVC,M,M,700.00,1300.00,M,M,M,M,M,M,M,M,M,32.00,KBAM 111115Z AUTO 00000KT 2 1/2SM SCT007 OVC013 00/00 A2984 RMK AO1,M
TMT,2021-03-11 11:15,-117.1971,39.4643,1749.34,21.60,19.90,93.04,0.00,0.00,0.00,29.84,M,7.00,M,M,M,M,M,M,M,M,M,-SN,M,M,M,M,M,M,21.60,KTMT 111115Z AUTO 00000KT 7SM -SN M06/M07 A2984 RMK AO2 T10581067,M
MEV,2021-03-11 11:15,-119.7500,38.9963,1441.42,19.40,17.60,92.57,180.00,3.00,0.00,29.89,M,10.00,M,OVC,M,M,M,2700.00,M,M,M,M,M,M,M,M,M,M,14.28,KMEV 111115Z AUTO 18003KT 10SM OVC027 M07/M08 A2989 RMK AO2,M
EKO,2021-03-11 11:19,-115.7860,40.8242,1367.00,30.00,28.00,92.15,0.00,0.00,T,29.81,M,4.00,M,SCT,SCT,OVC,M,500.00,1100.00,3400.00,M,-SN BR,M,M,M,M,M,M,30.00,KEKO 111119Z AUTO 00000KT 4SM -SN BR SCT005 SCT011 OVC034 M01/M02 A2981 RMK AO2 P0000 T10111022,M
EKO,2021-03-11 11:24,-115.7860,40.8242,1367.00,30.90,28.00,88.84,0.00,0.00,T,29.81,M,2.50,M,BKN,OVC,M,M,500.00,3400.00,M,M,-SN BR,M,M,M,M,M,M,30.90,KEKO 111124Z AUTO 00000KT 2 1/2SM -SN BR BKN005 OVC034 M01/M02 A2981 RMK AO2 P0000 T10061022,M
CXP,2021-03-11 11:30,-119.7326,39.1923,1431.00,21.20,19.40,92.63,0.00,0.00,0.00,29.90,M,9.00,M,CLR,M,M,M,M,M,M,M,M,M,M,M,M,M,M,21.20,KCXP 111130Z AUTO 00000KT 9SM CLR M06/M07 A2990 RMK AO2,M
EKO,2021-03-11 11:32,-115.7860,40.8242,1367.00,30.90,28.00,88.84,0.00,0.00,0.01,29.81,M,2.50,M,BKN,OVC,M,M,400.00,3600.00,M,M,-SN BR,M,M,M,M,M,M,30.90,KEKO 111132Z AUTO 00000KT 2 1/2SM -SN BR BKN004 OVC036 M01/M02 A2981 RMK AO2 P0001 T10061022,M
TPH,2021-03-11 11:32,-117.0904,38.0505,1654.00,25.00,25.00,100.00,10.00,7.00,0.09,29.82,M,0.50,M,VV ,M,M,M,300.00,M,M,M,SN FZFG,M,M,M,M,M,M,16.25,KTPH 111132Z AUTO 01007KT 1/2SM SN FZFG VV003 M04/M04 A2982 RMK AO2 P0009 T10391039,M
05U,2021-03-11 11:35,-116.0051,39.6042,1811.23,19.40,17.60,92.57,0.00,0.00,0.00,29.83,M,6.00,M,OVC,M,M,M,2200.00,M,M,M,BR,M,M,M,M,M,M,19.40,K05U 111135Z AUTO 00000KT 6SM BR OVC022 M07/M08 A2983 RMK A01,M
TMT,2021-03-11 11:35,-117.1971,39.4643,1749.34,21.40,19.90,93.83,0.00,0.00,0.00,29.84,M,3.00,M,M,M,M,M,M,M,M,M,-SN,M,M,M,M,M,M,21.40,KTMT 111135Z AUTO 00000KT 3SM -SN M06/M07 A2984 RMK AO2 T10591067,M
BVU,2021-03-11 11:35,-114.8611,35.9475,671.00,41.00,26.60,56.22,50.00,3.00,0.00,29.92,M,10.00,M,FEW,M,M,M,12000.00,M,M,M,M,M,M,M,M,M,M,38.98,KBVU 111135Z AUTO 05003KT 10SM FEW120 05/M03 A2992 RMK AO2,M
RTS,2021-03-11 11:35,-119.8764,39.6682,1539.00,17.60,14.00,85.51,330.00,6.00,0.00,29.90,M,10.00,M,SCT,M,M,M,7000.00,M,M,M,M,M,M,M,M,M,M,8.19,KRTS 111135Z AUTO 33006KT 10SM SCT070 M08/M10 A2990 RMK AO2,M
MEV,2021-03-11 11:35,-119.7500,38.9963,1441.42,17.60,15.80,92.50,110.00,5.00,0.00,29.90,M,10.00,M,BKN,OVC,M,M,2800.00,3300.00,M,M,M,M,M,M,M,M,M,9.29,KMEV 111135Z AUTO 11005KT 10SM BKN028 OVC033 M08/M09 A2990 RMK AO2,M
BAM,2021-03-11 11:35,-116.8743,40.5990,1382.36,32.00,32.00,100.00,260.00,3.00,0.00,29.85,M,3.00,M,SCT,BKN,OVC,M,500.00,1600.00,2800.00,M,M,M,M,M,M,M,M,28.69,KBAM 111135Z AUTO 26003KT 3SM SCT005 BKN016 OVC028 00/00 A2985 RMK AO1,M
HTH,2021-03-11 11:35,-118.6315,38.5448,1282.89,30.20,28.40,92.92,320.00,3.00,0.00,29.89,M,10.00,M,OVC,M,M,M,7000.00,M,M,M,M,M,M,M,M,M,M,26.63,KHTH 111135Z AUTO 32003KT 10SM OVC070 M01/M02 A2989 RMK A01,M
TPH,2021-03-11 11:45,-117.0904,38.0505,1654.00,25.00,25.00,100.00,20.00,7.00,0.12,29.82,M,0.25,M,VV ,M,M,M,300.00,M,M,M,+SN FZFG,M,M,M,M,M,M,16.25,KTPH 111145Z AUTO 02007KT 1/4SM +SN FZFG VV003 M04/M04 A2982 RMK AO2 P0012 T10391039,M
WMC,2021-03-11 11:46,-117.8072,40.9019,1315.00,30.00,26.10,85.21,0.00,0.00,T,29.86,M,9.00,M,BKN,OVC,M,M,2300.00,5500.00,M,M,-SN,M,M,M,M,M,M,30.00,KWMC 111146Z AUTO 00000KT 9SM -SN BKN023 OVC055 M01/M03 A2986 RMK AO2 P0000 T10111033,M
CXP,2021-03-11 11:50,-119.7326,39.1923,1431.00,21.20,19.40,92.63,0.00,0.00,0.00,29.91,M,10.00,M,BKN,M,M,M,5500.00,M,M,M,M,M,M,M,M,M,M,21.20,KCXP 111150Z AUTO 00000KT 10SM BKN055 M06/M07 A2991 RMK AO2,M
LOL,2021-03-11 11:53,-118.5701,40.0684,1192.43,17.10,14.00,87.38,190.00,3.00,0.00,29.90,1014.90,10.00,M,FEW,M,M,M,4600.00,M,M,M,M,M,M,M,M,M,M,11.66,KLOL 111153Z AUTO 19003KT 10SM FEW046 M08/M10 A2990 RMK AO2 SLP149 T10831100 11033 21089 53004,M
ELY,2021-03-11 11:53,-114.8453,39.2950,1909.00,17.10,14.00,87.38,M,M,0.00,29.81,1012.10,M,M,FEW,M,M,M,5000.00,M,M,M,M,M,M,M,M,M,M,M,KELY 111153Z AUTO FEW050 M08/M10 A2981 RMK AO2 SLP121 60000 70012 T10831100 11039 21083 55000 $,M
VGT,2021-03-11 11:53,-115.1933,36.2111,667.00,44.00,23.00,42.95,130.00,6.00,0.00,29.86,1012.70,10.00,M,CLR,M,M,M,M,M,M,M,M,M,M,M,M,M,M,40.10,KVGT 111153Z AUTO 13006KT 10SM CLR 07/M05 A2986 RMK AO2 SLP127 T00671050 10089 20061 53003,M
P68,2021-03-11 11:53,-116.0056,39.6014,1993.00,19.90,18.00,92.19,190.00,5.00,0.00,29.81,1011.00,M,M,M,M,M,M,M,M,M,M,M,M,M,M,M,M,M,12.03,KP68 111153Z AUTO 19005KT M07/M08 A2981 RMK AO1 SLP110 60005 70014 T10671078 11028 21083 53003,M
RNO,2021-03-11 11:55,-119.7711,39.4839,1341.00,27.00,17.10,65.84,0.00,0.00,0.00,29.91,1013.70,10.00,M,FEW,SCT,M,M,4000.00,7500.00,M,M,M,M,M,M,M,M,M,27.00,KRNO 111155Z 00000KT 10SM FEW040 SCT075 M03/M08 A2991 RMK AO2 SLP137 T10281083 11011 21033 53003,M
BAM,2021-03-11 11:55,-116.8743,40.5990,1382.36,32.00,32.00,100.00,250.00,4.00,0.00,29.85,M,5.00,M,SCT,BKN,OVC,M,2000.00,2800.00,4400.00,M,M,M,M,M,M,M,M,27.42,KBAM 111155Z AUTO 25004KT 5SM SCT020 BKN028 OVC044 00/00 A2985 RMK AO1,M
RTS,2021-03-11 11:55,-119.8764,39.6682,1539.00,17.60,14.00,85.51,350.00,5.00,0.00,29.90,M,10.00,M,SCT,SCT,M,M,5000.00,5500.00,M,M,M,M,M,M,M,M,M,9.29,KRTS 111155Z AUTO 35005KT 10SM SCT050 SCT055 M08/M10 A2990 RMK AO2,M
HTH,2021-03-11 11:55,-118.6315,38.5448,1282.89,30.20,28.40,92.92,0.00,0.00,0.00,29.90,M,10.00,M,BKN,OVC,M,M,5000.00,7000.00,M,M,M,M,M,M,M,M,M,30.20,KHTH 111155Z AUTO 00000KT 10SM BKN050 OVC070 M01/M02 A2990 RMK A01,M
MEV,2021-03-11 11:55,-119.7500,38.9963,1441.42,19.40,17.60,92.57,110.00,4.00,0.00,29.90,M,10.00,M,FEW,BKN,OVC,M,2400.00,2900.00,3300.00,M,M,M,M,M,M,M,M,12.71,KMEV 111155Z AUTO 11004KT 10SM FEW024 BKN029 OVC033 M07/M08 A2990 RMK AO2,M
05U,2021-03-11 11:55,-116.0051,39.6042,1811.23,19.40,17.60,92.57,180.00,4.00,0.00,29.83,M,7.00,M,BKN,BKN,OVC,M,2000.00,2600.00,7000.00,M,M,M,M,M,M,M,M,12.71,K05U 111155Z AUTO 18004KT 7SM BKN020 BKN026 OVC070 M07/M08 A2983 RMK A01,M
BVU,2021-03-11 11:55,-114.8611,35.9475,671.00,41.00,26.60,56.22,90.00,5.00,0.00,29.93,M,10.00,M,CLR,M,M,M,M,M,M,M,M,M,M,M,M,M,M,37.08,KBVU 111155Z AUTO 09005KT 10SM CLR 05/M03 A2993 RMK AO2,M
TMT,2021-03-11 11:55,-117.1971,39.4643,1749.34,21.20,19.80,94.22,0.00,0.00,0.00,29.85,M,4.00,M,M,M,M,M,M,M,M,M,-SN,M,M,M,M,M,M,21.20,KTMT 111155Z AUTO 00000KT 4SM -SN M06/M07 A2985 RMK AO2 T10601068 11049 21070,M
WMC,2021-03-11 11:56,-117.8072,40.9019,1315.00,30.00,26.10,85.21,0.00,0.00,T,29.86,1012.00,9.00,M,OVC,M,M,M,2300.00,M,M,M,M,M,M,M,M,M,M,30.00,KWMC 111156Z AUTO 00000KT 9SM OVC023 M01/M03 A2986 RMK AO2 SNE51 SLP120 P0000 60000 T10111033 11011 21044 53002,M
EKO,2021-03-11 11:56,-115.7860,40.8242,1367.00,30.00,28.00,92.15,0.00,0.00,0.01,29.82,1010.50,2.00,M,OVC,M,M,M,400.00,M,M,M,-SN BR,M,M,T,M,M,M,30.00,KEKO 111156Z AUTO 00000KT 2SM -SN BR OVC004 M01/M02 A2982 RMK AO2 SLP105 P0001 60001 70002 I6000 T10111022 11006 21017 53003,M
TPH,2021-03-11 11:56,-117.0904,38.0505,1654.00,25.00,25.00,100.00,20.00,7.00,0.15,29.82,1011.80,0.25,M,VV ,M,M,M,300.00,M,M,M,+SN FZFG,M,M,M,M,M,M,16.25,KTPH 111156Z AUTO 02007KT 1/4SM +SN FZFG VV003 M04/M04 A2982 RMK AO2 SLP118 P0015 60027 70030 T10391039 11033 21044 55002,M
NFL,2021-03-11 11:56,-118.7010,39.4166,1199.00,28.00,25.00,88.33,220.00,4.00,0.00,29.89,1009.70,10.00,M,OVC,M,M,M,5500.00,M,M,M,M,M,M,M,M,M,M,22.75,KNFL 111156Z AUTO 22004KT 10SM OVC055 M02/M04 A2989 RMK AO2 SLP097 T10221039 10011 21028 53001,M
HND,2021-03-11 11:56,-115.1344,35.9729,742.79,42.00,23.00,46.37,190.00,13.00,0.00,29.91,1014.70,10.00,M,CLR,M,M,M,M,M,M,M,M,M,M,M,M,M,M,34.51,KHND 111156Z AUTO 19013KT 10SM CLR 06/M05 A2991 RMK AO2 SLP147 T00561050 10072 20044 50000,M
LAS,2021-03-11 11:56,-115.1634,36.0719,663.00,44.00,23.00,42.95,140.00,9.00,0.00,29.91,1012.50,10.00,M,FEW,BKN,M,M,8000.00,18000.00,M,M,M,M,M,M,M,M,M,38.56,KLAS 111156Z 14009KT 10SM FEW080 BKN180 07/M05 A2991 RMK AO2 SLP125 T00671050 10089 20067 51002,M
LSV,2021-03-11 11:58,-115.0343,36.2362,570.00,45.30,25.20,44.98,190.00,11.00,0.00,29.90,1012.20,10.00,M,CLR,M,M,M,M,M,M,M,M,M,M,M,M,M,M,39.27,KLSV 111158Z AUTO 19011KT 10SM CLR 07/M04 A2990 RMK AO2 SLP122 T00741038 10089 20071 55003 $,M
INS,2021-03-11 11:58,-115.6733,36.5872,955.00,36.50,19.20,49.11,0.00,0.00,0.00,29.86,1010.40,10.00,M,CLR,M,M,M,M,M,M,M,M,M,M,M,M,M,M,36.50,KINS 111158Z AUTO 00000KT 10SM CLR 03/M07 A2986 RMK AO2 SLP104 T00251071 10073 20019 52007 $,M
EKO,2021-03-11 12:04,-115.7860,40.8242,1367.00,30.00,27.00,88.44,0.00,0.00,T,29.82,M,1.75,M,BKN,OVC,M,M,500.00,1200.00,M,M,-SN BR,M,M,M,M,M,M,30.00,KEKO 111204Z AUTO 00000KT 1 3/4SM -SN BR BKN005 OVC012 M01/M03 A2982 RMK AO2 CIG 004V009 P0000 T10111028,M
TPH,2021-03-11 12:09,-117.0904,38.0505,1654.00,25.00,24.10,96.31,20.00,8.00,0.02,29.83,M,0.50,M,VV ,M,M,M,400.00,M,M,M,SN FZFG,M,M,M,M,M,M,15.49,KTPH 111209Z AUTO 02008KT 1/2SM SN FZFG VV004 M04/M04 A2983 RMK AO2 P0002 T10391044,M
BVU,2021-03-11 12:15,-114.8611,35.9475,671.00,41.00,28.40,60.54,0.00,0.00,0.00,29.93,M,10.00,M,CLR,M,M,M,M,M,M,M,M,M,M,M,M,M,M,41.00,KBVU 111215Z AUTO 00000KT 10SM CLR 05/M02 A2993 RMK AO2,M
TMT,2021-03-11 12:15,-117.1971,39.4643,1749.34,21.00,19.80,95.02,0.00,0.00,0.00,29.85,M,3.00,M,M,M,M,M,M,M,M,M,-SN,M,M,M,M,M,M,21.00,KTMT 111215Z AUTO 00000KT 3SM -SN M06/M07 A2985 RMK AO2 T10611068,M
CXP,2021-03-11 12:15,-119.7326,39.1923,1431.00,21.20,19.40,92.63,0.00,0.00,0.00,29.92,M,10.00,M,FEW,OVC,M,M,4800.00,5500.00,M,M,M,M,M,M,M,M,M,21.20,KCXP 111215Z AUTO 00000KT 10SM FEW048 OVC055 M06/M07 A2992 RMK AO2,M
RTS,2021-03-11 12:15,-119.8764,39.6682,1539.00,15.80,12.20,85.40,340.00,4.00,0.00,29.91,M,10.00,M,FEW,FEW,SCT,M,2500.00,3400.00,5000.00,M,M,M,M,M,M,M,M,8.50,KRTS 111215Z AUTO 34004KT 10SM FEW025 FEW034 SCT050 M09/M11 A2991 RMK AO2,M
05U,2021-03-11 12:15,-116.0051,39.6042,1811.23,19.40,17.60,92.57,180.00,4.00,0.00,29.84,M,8.00,M,OVC,M,M,M,7000.00,M,M,M,M,M,M,M,M,M,M,12.71,K05U 111215Z AUTO 18004KT 8SM OVC070 M07/M08 A2984 RMK A01,M
MEV,2021-03-11 12:15,-119.7500,38.9963,1441.42,21.20,19.40,92.63,110.00,4.00,0.00,29.91,M,10.00,M,FEW,OVC,M,M,2400.00,3000.00,M,M,M,M,M,M,M,M,M,14.81,KMEV 111215Z AUTO 11004KT 10SM FEW024 OVC030 M06/M07 A2991 RMK AO2,M
BAM,2021-03-11 12:15,-116.8743,40.5990,1382.36,32.00,32.00,100.00,230.00,6.00,0.00,29.86,M,4.00,M,SCT,BKN,OVC,M,1300.00,3300.00,4100.00,M,M,M,M,M,M,M,M,25.53,KBAM 111215Z AUTO 23006KT 4SM SCT013 BKN033 OVC041 00/00 A2986 RMK AO1,M
HTH,2021-03-11 12:15,-118.6315,38.5448,1282.89,30.20,28.40,92.92,320.00,4.00,0.00,29.90,M,10.00,M,FEW,SCT,OVC,M,2200.00,4100.00,5000.00,M,M,M,M,M,M,M,M,25.32,KHTH 111215Z AUTO 32004KT 10SM FEW022 SCT041 OVC050 M01/M02 A2990 RMK A01,M
EKO,2021-03-11 12:17,-115.7860,40.8242,1367.00,30.00,27.00,88.44,0.00,0.00,0.01,29.82,M,1.00,M,SCT,OVC,M,M,500.00,1200.00,M,M,-SN BR,M,M,M,M,M,M,30.00,KEKO 111217Z AUTO 00000KT 1SM -SN BR SCT005 OVC012 M01/M03 A2982 RMK AO2 P0001 T10111028,M
TPH,2021-03-11 12:18,-117.0904,38.0505,1654.00,24.10,24.10,100.00,20.00,8.00,0.04,29.83,M,0.75,M,VV ,M,M,M,500.00,M,M,M,-SN BR,M,M,M,M,M,M,14.38,KTPH 111218Z AUTO 02008KT 3/4SM -SN BR VV005 M04/M04 A2983 RMK AO2 P0004 T10441044,M
CXP,2021-03-11 12:30,-119.7326,39.1923,1431.00,21.20,17.60,85.74,0.00,0.00,0.00,29.92,M,10.00,M,SCT,OVC,M,M,5000.00,6000.00,M,M,M,M,M,M,M,M,M,21.20,KCXP 111230Z AUTO 00000KT 10SM SCT050 OVC060 M06/M08 A2992 RMK AO2,M
HTH,2021-03-11 12:35,-118.6315,38.5448,1282.89,30.20,28.40,92.92,320.00,3.00,0.00,29.91,M,10.00,M,BKN,BKN,OVC,M,2100.00,4100.00,4800.00,M,M,M,M,M,M,M,M,26.63,KHTH 111235Z AUTO 32003KT 10SM BKN021 BKN041 OVC048 M01/M02 A2991 RMK A01,M
05U,2021-03-11 12:35,-116.0051,39.6042,1811.23,19.40,17.60,92.57,180.00,5.00,0.00,29.84,M,10.00,M,FEW,SCT,OVC,M,2100.00,3500.00,7000.00,M,M,M,M,M,M,M,M,11.43,K05U 111235Z AUTO 18005KT 10SM FEW021 SCT035 OVC070 M07/M08 A2984 RMK A01,M
BVU,2021-03-11 12:35,-114.8611,35.9475,671.00,39.20,26.60,60.29,0.00,0.00,0.00,29.94,M,10.00,M,FEW,M,M,M,12000.00,M,M,M,M,M,M,M,M,M,M,39.20,KBVU 111235Z AUTO 00000KT 10SM FEW120 04/M03 A2994 RMK AO2,M
BAM,2021-03-11 12:35,-116.8743,40.5990,1382.36,32.00,32.00,100.00,250.00,5.00,0.00,29.86,M,4.00,M,SCT,BKN,OVC,M,1500.00,2400.00,4100.00,M,M,M,M,M,M,M,M,26.40,KBAM 111235Z AUTO 25005KT 4SM SCT015 BKN024 OVC041 00/00 A2986 RMK AO1,M
MEV,2021-03-11 12:35,-119.7500,38.9963,1441.42,23.00,19.40,85.85,0.00,0.00,0.00,29.91,M,10.00,M,OVC,M,M,M,3000.00,M,M,M,M,M,M,M,M,M,M,23.00,KMEV 111235Z AUTO 00000KT 10SM OVC030 M05/M07 A2991 RMK AO2,M
RTS,2021-03-11 12:35,-119.8764,39.6682,1539.00,17.60,14.00,85.51,340.00,3.00,0.00,29.92,M,10.00,M,BKN,BKN,BKN,M,2600.00,4100.00,4800.00,M,M,M,M,M,M,M,M,12.23,KRTS 111235Z AUTO 34003KT 10SM BKN026 BKN041 BKN048 M08/M10 A2992 RMK AO2,M
TMT,2021-03-11 12:35,-117.1971,39.4643,1749.34,18.90,17.60,94.57,0.00,0.00,0.00,29.86,M,4.00,M,M,M,M,M,M,M,M,M,-SN,M,M,M,M,M,M,18.90,KTMT 111235Z AUTO 00000KT 4SM -SN M07/M08 A2986 RMK AO2 T10731080,M
TPH,2021-03-11 12:37,-117.0904,38.0505,1654.00,25.00,24.10,96.31,10.00,9.00,0.06,29.83,M,0.75,M,VV ,M,M,M,700.00,M,M,M,-SN BR,M,M,M,M,M,M,14.81,KTPH 111237Z AUTO 01009KT 3/4SM -SN BR VV007 M04/M04 A2983 RMK AO2 P0006 T10391044,M
EKO,2021-03-11 12:44,-115.7860,40.8242,1367.00,30.00,27.00,88.44,0.00,0.00,0.03,29.83,M,1.75,M,OVC,M,M,M,1700.00,M,M,M,-SN BR,M,M,M,M,M,M,30.00,KEKO 111244Z AUTO 00000KT 1 3/4SM -SN BR OVC017 M01/M03 A2983 RMK AO2 P0003 T10111028,M
ELY,2021-03-11 12:48,-114.8453,39.2950,1909.00,19.40,15.80,85.63,M,M,0.00,29.82,M,M,M,BKN,OVC,M,M,2700.00,6000.00,M,M,M,M,M,M,M,M,M,M,KELY 111248Z AUTO BKN027 OVC060 M07/M09 A2982 RMK AO2 $,M
CXP,2021-03-11 12:50,-119.7326,39.1923,1431.00,21.20,19.40,92.63,0.00,0.00,0.00,29.93,M,10.00,M,SCT,OVC,M,M,5000.00,6000.00,M,M,M,M,M,M,M,M,M,21.20,KCXP 111250Z AUTO 00000KT 10SM SCT050 OVC060 M06/M07 A2993 RMK AO2,M
VGT,2021-03-11 12:53,-115.1933,36.2111,667.00,45.00,23.00,41.50,160.00,7.00,0.00,29.86,1013.10,10.00,M,CLR,M,M,M,M,M,M,M,M,M,M,M,M,M,M,40.63,KVGT 111253Z AUTO 16007KT 10SM CLR 07/M05 A2986 RMK AO2 SLP131 T00721050,M
LOL,2021-03-11 12:53,-118.5701,40.0684,1192.43,18.00,15.10,88.20,0.00,0.00,0.00,29.91,1015.00,10.00,M,FEW,M,M,M,5000.00,M,M,M,M,M,M,M,M,M,M,18.00,KLOL 111253Z AUTO 00000KT 10SM FEW050 M08/M09 A2991 RMK AO2 SLP150 T10781094,M
P68,2021-03-11 12:53,-116.0056,39.6014,1993.00,19.00,17.10,92.15,190.00,7.00,0.00,29.82,1011.50,M,M,M,M,M,M,M,M,M,M,M,M,M,M,M,M,M,8.93,KP68 111253Z AUTO 19007KT M07/M08 A2982 RMK AO1 SLP115 T10721083,M
EKO,2021-03-11 12:53,-115.7860,40.8242,1367.00,30.20,26.60,86.28,0.00,0.00,0.03,29.83,M,2.50,M,OVC,M,M,M,1900.00,M,M,M,-SN BR,M,M,M,M,M,M,30.20,KEKO 111253Z AUTO 00000KT 2 1/2SM -SN BR OVC019 M01/M03 A2983 RMK AO2 P0003,M
ELY,2021-03-11 12:53,-114.8453,39.2950,1909.00,19.90,16.00,84.55,M,M,0.00,29.82,1012.10,M,M,BKN,OVC,M,M,2900.00,6000.00,M,M,M,M,M,M,M,M,M,M,KELY 111253Z AUTO BKN029 OVC060 M07/M09 A2982 RMK AO2 SLP121 T10671089 $,M
TMT,2021-03-11 12:55,-117.1971,39.4643,1749.34,18.50,17.20,94.56,0.00,0.00,0.00,29.87,M,7.00,M,M,M,M,M,M,M,M,M,-SN,M,M,M,M,M,M,18.50,KTMT 111255Z AUTO 00000KT 7SM -SN M07/M08 A2987 RMK AO2 T10751082,M
RNO,2021-03-11 12:55,-119.7711,39.4839,1341.00,26.10,17.10,68.34,280.00,3.00,0.00,29.93,1014.70,10.00,M,SCT,BKN,M,M,2900.00,7000.00,M,M,M,M,M,M,M,M,M,21.94,KRNO 111255Z 28003KT 10SM SCT029 BKN070 M03/M08 A2993 RMK AO2 SLP147 T10331083,M
BVU,2021-03-11 12:55,-114.8611,35.9475,671.00,39.20,26.60,60.29,60.00,4.00,0.00,29.94,M,10.00,M,SCT,M,M,M,12000.00,M,M,M,M,M,M,M,M,M,M,35.83,KBVU 111255Z AUTO 06004KT 10SM SCT120 04/M03 A2994 RMK AO2,M
MEV,2021-03-11 12:55,-119.7500,38.9963,1441.42,23.00,19.40,85.85,0.00,0.00,0.00,29.92,M,10.00,M,OVC,M,M,M,3300.00,M,M,M,M,M,M,M,M,M,M,23.00,KMEV 111255Z AUTO 00000KT 10SM OVC033 M05/M07 A2992 RMK AO2,M
RTS,2021-03-11 12:55,-119.8764,39.6682,1539.00,19.40,15.80,85.63,10.00,3.00,0.00,29.93,M,10.00,M,BKN,OVC,M,M,2400.00,4100.00,M,M,M,M,M,M,M,M,M,14.28,KRTS 111255Z AUTO 01003KT 10SM BKN024 OVC041 M07/M09 A2993 RMK AO2,M
05U,2021-03-11 12:55,-116.0051,39.6042,1811.23,19.40,17.60,92.57,190.00,5.00,0.00,29.85,M,10.00,M,SCT,BKN,OVC,M,2100.00,3500.00,7500.00,M,M,M,M,M,M,M,M,11.43,K05U 111255Z AUTO 19005KT 10SM SCT021 BKN035 OVC075 M07/M08 A2985 RMK A01,M
BAM,2021-03-11 12:55,-116.8743,40.5990,1382.36,32.00,32.00,100.00,240.00,4.00,0.00,29.87,M,5.00,M,BKN,BKN,OVC,M,1500.00,2200.00,4200.00,M,M,M,M,M,M,M,M,27.42,KBAM 111255Z AUTO 24004KT 5SM BKN015 BKN022 OVC042 00/00 A2987 RMK AO1,M
HTH,2021-03-11 12:55,-118.6315,38.5448,1282.89,28.40,28.40,100.00,0.00,0.00,0.00,29.92,M,10.00,M,SCT,OVC,M,M,2200.00,4400.00,M,M,M,M,M,M,M,M,M,28.40,KHTH 111255Z AUTO 00000KT 10SM SCT022 OVC044 M02/M02 A2992 RMK A01,M
TPH,2021-03-11 12:56,-117.0904,38.0505,1654.00,25.00,25.00,100.00,20.00,8.00,0.07,29.83,1012.10,1.00,M,VV ,M,M,M,900.00,M,M,M,-SN BR,M,M,M,M,M,M,15.49,KTPH 111256Z AUTO 02008KT 1SM -SN BR VV009 M04/M04 A2983 RMK AO2 SLP121 P0007 T10391039,M
HND,2021-03-11 12:56,-115.1344,35.9729,742.79,42.00,23.00,46.37,180.00,14.00,0.00,29.93,1015.40,10.00,M,CLR,M,M,M,M,M,M,M,M,M,M,M,M,M,M,34.18,KHND 111256Z AUTO 18014KT 10SM CLR 06/M05 A2993 RMK AO2 SLP154 T00561050,M
LAS,2021-03-11 12:56,-115.1634,36.0719,663.00,45.00,23.00,41.50,200.00,6.00,0.00,29.91,1012.70,10.00,17.00,FEW,BKN,OVC,M,8000.00,14000.00,18000.00,M,M,M,M,M,M,M,M,41.19,KLAS 111256Z 20006G17KT 10SM FEW080 BKN140 OVC180 07/M05 A2991 RMK AO2 SLP127 T00721050,M
WMC,2021-03-11 12:56,-117.8072,40.9019,1315.00,30.00,26.10,85.21,0.00,0.00,0.01,29.88,1012.50,2.50,M,OVC,M,M,M,1500.00,M,M,M,-SN BR,M,M,M,M,M,M,30.00,KWMC 111256Z AUTO 00000KT 2 1/2SM -SN BR OVC015 M01/M03 A2988 RMK AO2 SNB12 SLP125 P0001 T10111033,M
NFL,2021-03-11 12:56,-118.7010,39.4166,1199.00,26.10,23.00,87.87,0.00,0.00,0.00,29.91,1010.20,10.00,M,FEW,SCT,BKN,M,3500.00,4700.00,6000.00,M,M,M,M,M,M,M,M,26.10,KNFL 111256Z AUTO 00000KT 10SM FEW035 SCT047 BKN060 M03/M05 A2991 RMK AO2 SLP102 T10331050,M
EKO,2021-03-11 12:56,-115.7860,40.8242,1367.00,30.00,27.00,88.44,0.00,0.00,0.03,29.83,1011.20,2.50,M,OVC,M,M,M,1900.00,M,M,M,-SN BR,M,M,M,M,M,M,30.00,KEKO 111256Z AUTO 00000KT 2 1/2SM -SN BR OVC019 M01/M03 A2983 RMK AO2 SLP112 P0003 T10111028,M
LSV,2021-03-11 12:58,-115.0343,36.2362,570.00,45.50,23.20,41.06,180.00,12.00,0.00,29.91,1012.60,10.00,M,CLR,M,M,M,M,M,M,M,M,M,M,M,M,M,M,39.18,KLSV 111258Z AUTO 18012KT 10SM CLR 08/M05 A2991 RMK AO2 SLP126 T00751049 $,M
INS,2021-03-11 12:58,-115.6733,36.5872,955.00,34.70,18.90,52.07,130.00,5.00,0.00,29.87,1010.90,10.00,M,CLR,M,M,M,M,M,M,M,M,M,M,M,M,M,M,29.60,KINS 111258Z AUTO 13005KT 10SM CLR 02/M07 A2987 RMK AO2 SLP109 T00151073 $,M
TPH,2021-03-11 13:04,-117.0904,38.0505,1654.00,25.00,25.00,100.00,10.00,8.00,0.01,29.83,M,1.50,M,BKN,OVC,M,M,1000.00,2100.00,M,M,-SN BR,M,M,M,M,M,M,15.49,KTPH 111304Z AUTO 01008KT 1 1/2SM -SN BR BKN010 OVC021 M04/M04 A2983 RMK AO2 P0001 T10391039,M
CXP,2021-03-11 13:10,-119.7326,39.1923,1431.00,21.20,17.60,85.74,0.00,0.00,0.00,29.94,M,10.00,M,OVC,M,M,M,5500.00,M,M,M,M,M,M,M,M,M,M,21.20,KCXP 111310Z AUTO 00000KT 10SM OVC055 M06/M08 A2994 RMK AO2,M
EKO,2021-03-11 13:12,-115.7860,40.8242,1367.00,30.00,27.00,88.44,0.00,0.00,T,29.84,M,1.75,M,OVC,M,M,M,2000.00,M,M,M,-SN BR,M,M,M,M,M,M,30.00,KEKO 111312Z AUTO 00000KT 1 3/4SM -SN BR OVC020 M01/M03 A2984 RMK AO2 P0000 T10111028,M
ELY,2021-03-11 13:13,-114.8453,39.2950,1909.00,19.00,15.10,84.49,M,M,0.00,29.83,M,M,M,BKN,OVC,M,M,3100.00,8000.00,M,M,M,M,M,M,M,M,M,M,KELY 111313Z AUTO BKN031 OVC080 M07/M09 A2983 RMK AO2 T10721094 $,M
RTS,2021-03-11 13:15,-119.8764,39.6682,1539.00,21.20,17.60,85.74,0.00,0.00,0.00,29.93,M,10.00,M,FEW,OVC,M,M,2300.00,4200.00,M,M,M,M,M,M,M,M,M,21.20,KRTS 111315Z AUTO 00000KT 10SM FEW023 OVC042 M06/M08 A2993 RMK AO2,M
05U,2021-03-11 13:15,-116.0051,39.6042,1811.23,15.80,12.20,85.40,190.00,4.00,0.00,29.85,M,9.00,M,BKN,BKN,OVC,M,2000.00,3400.00,7500.00,M,M,M,M,M,M,M,M,8.50,K05U 111315Z AUTO 19004KT 9SM BKN020 BKN034 OVC075 M09/M11 A2985 RMK A01,M
MEV,2021-03-11 13:15,-119.7500,38.9963,1441.42,21.20,19.40,92.63,0.00,0.00,0.00,29.93,M,10.00,M,BKN,BKN,OVC,M,3300.00,5000.00,6500.00,M,M,M,M,M,M,M,M,21.20,KMEV 111315Z AUTO 00000KT 10SM BKN033 BKN050 OVC065 M06/M07 A2993 RMK AO2,M
TMT,2021-03-11 13:15,-117.1971,39.4643,1749.34,18.70,18.00,97.04,0.00,0.00,0.00,29.87,M,10.00,M,M,M,M,M,M,M,M,M,M,M,M,M,M,M,M,18.70,KTMT 111315Z AUTO 00000KT 10SM M07/M08 A2987 RMK AO2 T10741078,M
BAM,2021-03-11 13:15,-116.8743,40.5990,1382.36,32.00,32.00,100.00,260.00,3.00,0.00,29.88,M,7.00,M,BKN,OVC,M,M,1500.00,3400.00,M,M,M,M,M,M,M,M,M,28.69,KBAM 111315Z AUTO 26003KT 7SM BKN015 OVC034 00/00 A2988 RMK AO1,M
BVU,2021-03-11 13:15,-114.8611,35.9475,671.00,41.00,26.60,56.22,0.00,0.00,0.00,29.94,M,10.00,M,BKN,M,M,M,11000.00,M,M,M,M,M,M,M,M,M,M,41.00,KBVU 111315Z AUTO 00000KT 10SM BKN110 05/M03 A2994 RMK AO2,M
HTH,2021-03-11 13:15,-118.6315,38.5448,1282.89,30.20,28.40,92.92,310.00,4.00,0.00,29.92,M,10.00,M,FEW,FEW,OVC,M,2400.00,3700.00,4500.00,M,M,M,M,M,M,M,M,25.32,KHTH 111315Z AUTO 31004KT 10SM FEW024 FEW037 OVC045 M01/M02 A2992 RMK A01,M
EKO,2021-03-11 13:28,-115.7860,40.8242,1367.00,30.00,27.00,88.44,0.00,0.00,0.01,29.84,M,1.50,M,SCT,OVC,M,M,400.00,1800.00,M,M,-SN BR,M,M,M,M,M,M,30.00,KEKO 111328Z AUTO 00000KT 1 1/2SM -SN BR SCT004 OVC018 M01/M03 A2984 RMK AO2 P0001 T10111028,M
CXP,2021-03-11 13:30,-119.7326,39.1923,1431.00,21.20,19.40,92.63,0.00,0.00,0.00,29.94,M,10.00,M,OVC,M,M,M,5000.00,M,M,M,M,M,M,M,M,M,M,21.20,KCXP 111330Z AUTO 00000KT 10SM OVC050 M06/M07 A2994 RMK AO2,M
TPH,2021-03-11 13:30,-117.0904,38.0505,1654.00,25.00,24.10,96.31,20.00,13.00,0.02,29.84,M,0.75,M,BKN,OVC,M,M,1100.00,1700.00,M,M,-SN BR,M,M,M,M,M,M,12.60,KTPH 111330Z AUTO 02013KT 3/4SM -SN BR BKN011 OVC017 M04/M04 A2984 RMK AO2 P0002 T10391044,M
MEV,2021-03-11 13:35,-119.7500,38.9963,1441.42,21.20,19.40,92.63,30.00,3.00,0.00,29.93,M,10.00,M,SCT,OVC,M,M,5000.00,6000.00,M,M,M,M,M,M,M,M,M,16.34,KMEV 111335Z AUTO 03003KT 10SM SCT050 OVC060 M06/M07 A2993 RMK AO2,M
05U,2021-03-11 13:35,-116.0051,39.6042,1811.23,14.00,12.20,92.38,190.00,5.00,0.00,29.86,M,6.00,M,FEW,BKN,SCT,M,1900.00,2600.00,3500.00,M,BR,M,M,M,M,M,M,5.02,K05U 111335Z AUTO 19005KT 6SM BR FEW019 BKN026 SCT035 M10/M11 A2986 RMK A01,M
HTH,2021-03-11 13:35,-118.6315,38.5448,1282.89,28.40,26.60,92.86,0.00,0.00,0.00,29.92,M,10.00,M,SCT,BKN,OVC,M,3100.00,4000.00,4600.00,M,M,M,M,M,M,M,M,28.40,KHTH 111335Z AUTO 00000KT 10SM SCT031 BKN040 OVC046 M02/M03 A2992 RMK A01,M
TMT,2021-03-11 13:35,-117.1971,39.4643,1749.34,16.30,15.40,96.16,0.00,0.00,0.00,29.87,M,10.00,M,M,M,M,M,M,M,M,M,M,M,M,M,M,M,M,16.30,KTMT 111335Z AUTO 00000KT 10SM M09/M09 A2987 RMK AO2 T10871092,M
RTS,2021-03-11 13:35,-119.8764,39.6682,1539.00,21.20,17.60,85.74,0.00,0.00,0.00,29.93,M,10.00,M,FEW,OVC,M,M,2200.00,4200.00,M,M,M,M,M,M,M,M,M,21.20,KRTS 111335Z AUTO 00000KT 10SM FEW022 OVC042 M06/M08 A2993 RMK AO2,M
BVU,2021-03-11 13:35,-114.8611,35.9475,671.00,39.20,26.60,60.29,0.00,0.00,0.00,29.95,M,10.00,M,OVC,M,M,M,11000.00,M,M,M,M,M,M,M,M,M,M,39.20,KBVU 111335Z AUTO 00000KT 10SM OVC110 04/M03 A2995 RMK AO2,M
BAM,2021-03-11 13:35,-116.8743,40.5990,1382.36,32.00,32.00,100.00,290.00,4.00,0.00,29.88,M,7.00,M,SCT,OVC,M,M,500.00,1500.00,M,M,M,M,M,M,M,M,M,27.42,KBAM 111335Z AUTO 29004KT 7SM SCT005 OVC015 00/00 A2988 RMK AO1,M
WMC,2021-03-11 13:37,-117.8072,40.9019,1315.00,28.90,26.10,89.12,270.00,3.00,0.02,29.89,M,3.00,M,OVC,M,M,M,1600.00,M,M,M,-SN BR,M,M,M,M,M,M,25.14,KWMC 111337Z AUTO 27003KT 3SM -SN BR OVC016 M02/M03 A2989 RMK AO2 P0002 T10171033,M
EKO,2021-03-11 13:38,-115.7860,40.8242,1367.00,30.00,27.00,88.44,0.00,0.00,0.01,29.84,M,1.75,M,BKN,OVC,M,M,600.00,1800.00,M,M,-SN BR,M,M,M,M,M,M,30.00,KEKO 111338Z AUTO 00000KT 1 3/4SM -SN BR BKN006 OVC018 M01/M03 A2984 RMK AO2 P0001 T10111028,M
WMC,2021-03-11 13:39,-117.8072,40.9019,1315.00,28.90,26.10,89.12,0.00,0.00,0.03,29.89,M,2.50,M,BKN,OVC,M,M,1400.00,1900.00,M,M,-SN BR,M,M,M,M,M,M,28.90,KWMC 111339Z AUTO 00000KT 2 1/2SM -SN BR BKN014 OVC019 M02/M03 A2989 RMK AO2 P0003 T10171033,M
WMC,2021-03-11 13:46,-117.8072,40.9019,1315.00,28.90,26.10,89.12,0.00,0.00,0.03,29.89,M,3.00,M,FEW,OVC,M,M,400.00,1400.00,M,M,-SN BR,M,M,M,M,M,M,28.90,KWMC 111346Z AUTO 00000KT 3SM -SN BR FEW004 OVC014 M02/M03 A2989 RMK AO2 P0003 T10171033,M
TPH,2021-03-11 13:47,-117.0904,38.0505,1654.00,24.10,24.10,100.00,20.00,12.00,0.03,29.85,M,1.00,M,OVC,M,M,M,1100.00,M,M,M,-SN BR,M,M,M,M,M,M,11.95,KTPH 111347Z AUTO 02012KT 1SM -SN BR OVC011 M04/M04 A2985 RMK AO2 P0003 T10441044,M
CXP,2021-03-11 13:50,-119.7326,39.1923,1431.00,23.00,21.20,92.69,0.00,0.00,0.00,29.95,M,10.00,M,BKN,OVC,M,M,5000.00,6000.00,M,M,M,M,M,M,M,M,M,23.00,KCXP 111350Z AUTO 00000KT 10SM BKN050 OVC060 M05/M06 A2995 RMK AO2,M
EKO,2021-03-11 13:53,-115.7860,40.8242,1367.00,30.20,26.60,86.28,0.00,0.00,0.02,29.85,M,1.50,M,BKN,OVC,M,M,400.00,1600.00,M,M,-SN BR,M,M,M,M,M,M,30.20,KEKO 111353Z AUTO 00000KT 1 1/2SM -SN BR BKN004 OVC016 M01/M03 A2985 RMK AO2 P0002,M
LOL,2021-03-11 13:53,-118.5701,40.0684,1192.43,14.00,10.90,87.20,0.00,0.00,0.00,29.92,1016.20,10.00,M,CLR,M,M,M,M,M,M,M,M,M,M,M,M,M,M,14.00,KLOL 111353Z AUTO 00000KT 10SM CLR M10/M12 A2992 RMK AO2 SLP162 T11001117,M
ELY,2021-03-11 13:53,-114.8453,39.2950,1909.00,19.00,15.10,84.49,M,M,0.00,29.84,1013.10,M,M,BKN,M,M,M,3000.00,M,M,M,M,M,M,M,M,M,M,M,KELY 111353Z AUTO BKN030 M07/M09 A2984 RMK AO2 SLP131 T10721094 $,M
P68,2021-03-11 13:53,-116.0056,39.6014,1993.00,16.00,12.00,83.91,190.00,6.00,0.00,29.84,1012.90,M,M,M,M,M,M,M,M,M,M,M,M,M,M,M,M,M,6.26,KP68 111353Z AUTO 19006KT M09/M11 A2984 RMK AO1 SLP129 T10891111,M
VGT,2021-03-11 13:53,-115.1933,36.2111,667.00,44.00,23.00,42.95,0.00,0.00,0.00,29.89,1014.10,10.00,M,CLR,M,M,M,M,M,M,M,M,M,M,M,M,M,M,44.10,KVGT 111353Z 00000KT 10SM CLR 07/M05 A2989 RMK AO2 SLP141 T00671050,M
BAM,2021-03-11 13:55,-116.8743,40.5990,1382.36,32.00,32.00,100.00,290.00,3.00,0.00,29.89,M,3.00,M,SCT,OVC,M,M,500.00,1500.00,M,M,M,M,M,M,M,M,M,28.69,KBAM 111355Z AUTO 29003KT 3SM SCT005 OVC015 00/00 A2989 RMK AO1,M
RTS,2021-03-11 13:55,-119.8764,39.6682,1539.00,21.20,19.40,92.63,350.00,5.00,0.00,29.94,M,10.00,M,FEW,OVC,M,M,2200.00,4300.00,M,M,M,M,M,M,M,M,M,13.57,KRTS 111355Z AUTO 35005KT 10SM FEW022 OVC043 M06/M07 A2994 RMK AO2,M
05U,2021-03-11 13:55,-116.0051,39.6042,1811.23,15.80,12.20,85.40,190.00,4.00,0.00,29.86,M,9.00,M,BKN,OVC,M,M,3300.00,7000.00,M,M,M,M,M,M,M,M,M,8.50,K05U 111355Z AUTO 19004KT 9SM BKN033 OVC070 M09/M11 A2986 RMK A01,M
MEV,2021-03-11 13:55,-119.7500,38.9963,1441.42,19.40,17.60,92.57,50.00,3.00,0.00,29.94,M,10.00,M,SCT,BKN,OVC,M,1500.00,5000.00,6500.00,M,M,M,M,M,M,M,M,14.28,KMEV 111355Z AUTO 05003KT 10SM SCT015 BKN050 OVC065 M07/M08 A2994 RMK AO2,M
HTH,2021-03-11 13:55,-118.6315,38.5448,1282.89,28.40,26.60,92.86,320.00,4.00,0.00,29.93,M,10.00,M,FEW,OVC,M,M,3300.00,4100.00,M,M,M,M,M,M,M,M,M,23.22,KHTH 111355Z AUTO 32004KT 10SM FEW033 OVC041 M02/M03 A2993 RMK A01,M
BVU,2021-03-11 13:55,-114.8611,35.9475,671.00,37.40,24.80,60.04,0.00,0.00,0.00,29.96,M,10.00,M,BKN,M,M,M,11000.00,M,M,M,M,M,M,M,M,M,M,37.40,KBVU 111355Z AUTO 00000KT 10SM BKN110 03/M04 A2996 RMK AO2,M
TMT,2021-03-11 13:55,-117.1971,39.4643,1749.34,18.10,17.40,97.03,0.00,0.00,0.00,29.88,M,10.00,M,M,M,M,M,M,M,M,M,M,M,M,M,M,M,M,18.10,KTMT 111355Z AUTO 00000KT 10SM M08/M08 A2988 RMK AO2 T10771081,M
RNO,2021-03-11 13:55,-119.7711,39.4839,1341.00,26.10,15.10,62.65,M,3.00,0.00,29.95,1015.40,10.00,M,FEW,BKN,BKN,M,2900.00,4700.00,7000.00,M,M,M,M,M,M,M,M,21.94,KRNO 111355Z VRB03KT 10SM FEW029 BKN047 BKN070 M03/M09 A2995 RMK AO2 SLP154 T10331094,M
NFL,2021-03-11 13:56,-118.7010,39.4166,1199.00,26.10,23.00,87.87,240.00,3.00,0.00,29.93,1010.70,10.00,M,OVC,M,M,M,4100.00,M,M,M,M,M,M,M,M,M,M,21.94,KNFL 111356Z AUTO 24003KT 10SM OVC041 M03/M05 A2993 RMK AO2 SLP107 T10331050,M
WMC,2021-03-11 13:56,-117.8072,40.9019,1315.00,30.00,27.00,88.44,0.00,0.00,0.03,29.90,1013.60,4.00,M,BKN,OVC,M,M,400.00,1200.00,M,M,-SN BR,M,M,M,M,M,M,30.00,KWMC 111356Z AUTO 00000KT 4SM -SN BR BKN004 OVC012 M01/M03 A2990 RMK AO2 SLP136 P0003 T10111028,M
LAS,2021-03-11 13:56,-115.1634,36.0719,663.00,44.00,23.00,42.95,200.00,9.00,0.00,29.93,1013.40,10.00,18.00,FEW,FEW,BKN,M,8000.00,12000.00,20000.00,M,M,M,M,M,M,M,M,38.56,KLAS 111356Z 20009G18KT 10SM FEW080 FEW120 BKN200 07/M05 A2993 RMK AO2 SLP134 T00671050,M
EKO,2021-03-11 13:56,-115.7860,40.8242,1367.00,30.00,27.00,88.44,0.00,0.00,0.02,29.85,1012.00,1.50,M,BKN,OVC,M,M,400.00,1600.00,M,M,-SN BR,M,M,M,M,M,M,30.00,KEKO 111356Z AUTO 00000KT 1 1/2SM -SN BR BKN004 OVC016 M01/M03 A2985 RMK AO2 SLP120 P0002 T10111028,M
HND,2021-03-11 13:56,-115.1344,35.9729,742.79,41.00,23.00,48.39,170.00,11.00,0.00,29.95,1016.30,10.00,M,SCT,M,M,M,10000.00,M,M,M,M,M,M,M,M,M,M,33.84,KHND 111356Z AUTO 17011KT 10SM SCT100 05/M05 A2995 RMK AO2 SLP163 T00501050,M
TPH,2021-03-11 13:56,-117.0904,38.0505,1654.00,24.10,23.00,95.49,10.00,13.00,0.03,29.85,1012.70,1.00,M,OVC,M,M,M,1100.00,M,M,M,-SN BR,M,M,M,M,M,M,11.45,KTPH 111356Z AUTO 01013KT 1SM -SN BR OVC011 M04/M05 A2985 RMK AO2 SLP127 P0003 T10441050,M
LSV,2021-03-11 13:58,-115.0343,36.2362,570.00,45.00,22.80,41.00,200.00,4.00,0.00,29.94,1013.90,10.00,M,CLR,M,M,M,M,M,M,M,M,M,M,M,M,M,M,42.72,KLSV 111358Z AUTO 20004KT 10SM CLR 07/M05 A2994 RMK AO2 SLP139 T00731051 $,M
INS,2021-03-11 13:58,-115.6733,36.5872,955.00,34.70,18.90,52.07,0.00,0.00,0.00,29.89,1011.60,10.00,M,CLR,M,M,M,M,M,M,M,M,M,M,M,M,M,M,34.70,KINS 111358Z AUTO 00000KT 10SM CLR 02/M07 A2989 RMK AO2 SLP116 T00151073 $,M
EKO,2021-03-11 14:04,-115.7860,40.8242,1367.00,30.00,27.00,88.44,0.00,0.00,T,29.85,M,0.75,M,BKN,OVC,M,M,500.00,1200.00,M,M,-SN BR,M,M,M,M,M,M,30.00,KEKO 111404Z AUTO 00000KT 3/4SM -SN BR BKN005 OVC012 M01/M03 A2985 RMK AO2 P0000 T10111028,M
TPH,2021-03-11 14:06,-117.0904,38.0505,1654.00,24.10,23.00,95.49,20.00,11.00,0.01,29.85,M,0.75,M,BKN,OVC,M,M,900.00,1300.00,M,M,-SN BR,M,M,M,M,M,M,12.48,KTPH 111406Z AUTO 02011KT 3/4SM -SN BR BKN009 OVC013 M04/M05 A2985 RMK AO2 P0001 T10441050,M
WMC,2021-03-11 14:07,-117.8072,40.9019,1315.00,30.00,27.00,88.44,280.00,5.00,0.01,29.90,M,4.00,M,SCT,OVC,M,M,400.00,1200.00,M,M,-SN BR,M,M,M,M,M,M,24.02,KWMC 111407Z AUTO 28005KT 4SM -SN BR SCT004 OVC012 M01/M03 A2990 RMK AO2 P0001 T10111028,M
CXP,2021-03-11 14:10,-119.7326,39.1923,1431.00,21.20,19.40,92.63,0.00,0.00,0.00,29.95,M,10.00,M,BKN,OVC,M,M,5000.00,6000.00,M,M,M,M,M,M,M,M,M,21.20,KCXP 111410Z AUTO 00000KT 10SM BKN050 OVC060 M06/M07 A2995 RMK AO2,M
TMT,2021-03-11 14:15,-117.1971,39.4643,1749.34,19.80,18.50,94.59,210.00,3.00,0.00,29.89,M,10.00,M,M,M,M,M,M,M,M,M,M,M,M,M,M,M,M,14.74,KTMT 111415Z AUTO 21003KT 10SM M07/M07 A2989 RMK AO2 T10681075,M
BAM,2021-03-11 14:15,-116.8743,40.5990,1382.36,32.00,32.00,100.00,0.00,0.00,0.00,29.89,M,1.25,M,OVC,M,M,M,1500.00,M,M,M,M,M,M,M,M,M,M,32.00,KBAM 111415Z AUTO 00000KT 1 1/4SM OVC015 00/00 A2989 RMK AO1,M
RTS,2021-03-11 14:15,-119.8764,39.6682,1539.00,21.20,17.60,85.74,320.00,4.00,0.00,29.94,M,10.00,M,FEW,OVC,M,M,2300.00,4400.00,M,M,M,M,M,M,M,M,M,14.81,KRTS 111415Z AUTO 32004KT 10SM FEW023 OVC044 M06/M08 A2994 RMK AO2,M
TPH,2021-03-11 14:15,-117.0904,38.0505,1654.00,24.10,23.00,95.49,20.00,11.00,0.02,29.85,M,0.25,M,BKN,OVC,M,M,600.00,1000.00,M,M,+SN FZFG,M,M,M,M,M,M,12.48,KTPH 111415Z AUTO 02011KT 1/4SM +SN FZFG BKN006 OVC010 M04/M05 A2985 RMK AO2 P0002 T10441050,M
MEV,2021-03-11 14:15,-119.7500,38.9963,1441.42,19.40,17.60,92.57,0.00,0.00,0.00,29.94,M,10.00,M,SCT,SCT,OVC,M,1600.00,3600.00,6000.00,M,M,M,M,M,M,M,M,19.40,KMEV 111415Z AUTO 00000KT 10SM SCT016 SCT036 OVC060 M07/M08 A2994 RMK AO2,M
BVU,2021-03-11 14:15,-114.8611,35.9475,671.00,39.20,26.60,60.29,0.00,0.00,0.00,29.96,M,10.00,M,FEW,M,M,M,11000.00,M,M,M,M,M,M,M,M,M,M,39.20,KBVU 111415Z AUTO 00000KT 10SM FEW110 04/M03 A2996 RMK AO2,M
HTH,2021-03-11 14:15,-118.6315,38.5448,1282.89,28.40,26.60,92.86,280.00,8.00,0.00,29.93,M,10.00,M,SCT,SCT,M,M,4100.00,5000.00,M,M,M,M,M,M,M,M,M,19.68,KHTH 111415Z AUTO 28008KT 10SM SCT041 SCT050 M02/M03 A2993 RMK A01,M
05U,2021-03-11 14:15,-116.0051,39.6042,1811.23,17.60,14.00,85.51,0.00,0.00,0.00,29.87,M,10.00,M,OVC,M,M,M,3300.00,M,M,M,M,M,M,M,M,M,M,17.60,K05U 111415Z AUTO 00000KT 10SM OVC033 M08/M10 A2987 RMK A01,M
WMC,2021-03-11 14:23,-117.8072,40.9019,1315.00,30.00,27.00,88.44,280.00,6.00,0.01,29.90,M,1.75,M,FEW,OVC,M,M,400.00,1100.00,M,M,-SN BR,M,M,M,M,M,M,23.12,KWMC 111423Z AUTO 28006KT 1 3/4SM -SN BR FEW004 OVC011 M01/M03 A2990 RMK AO2 P0001 T10111028,M
TPH,2021-03-11 14:26,-117.0904,38.0505,1654.00,24.10,23.00,95.49,10.00,10.00,0.03,29.86,M,0.50,M,VV ,M,M,M,700.00,M,M,M,SN FZFG,M,M,M,M,M,M,13.06,KTPH 111426Z AUTO 01010KT 1/2SM SN FZFG VV007 M04/M05 A2986 RMK AO2 P0003 T10441050,M
CXP,2021-03-11 14:30,-119.7326,39.1923,1431.00,23.00,19.40,85.85,0.00,0.00,0.00,29.95,M,10.00,M,SCT,SCT,OVC,M,4000.00,4900.00,6000.00,M,M,M,M,M,M,M,M,23.00,KCXP 111430Z AUTO 00000KT 10SM SCT040 SCT049 OVC060 M05/M07 A2995 RMK AO2,M
HTH,2021-03-11 14:35,-118.6315,38.5448,1282.89,28.40,28.40,100.00,260.00,5.00,0.00,29.94,M,10.00,M,FEW,SCT,BKN,M,2100.00,4700.00,5500.00,M,M,M,M,M,M,M,M,22.12,KHTH 111435Z AUTO 26005KT 10SM FEW021 SCT047 BKN055 M02/M02 A2994 RMK A01,M
TMT,2021-03-11 14:35,-117.1971,39.4643,1749.34,19.90,18.70,95.00,0.00,0.00,0.00,29.89,M,10.00,M,M,M,M,M,M,M,M,M,M,M,M,M,M,M,M,19.90,KTMT 111435Z AUTO 00000KT 10SM M07/M07 A2989 RMK AO2 T10671074,M
05U,2021-03-11 14:35,-116.0051,39.6042,1811.23,17.60,15.80,92.50,0.00,0.00,0.00,29.87,M,10.00,M,OVC,M,M,M,3400.00,M,M,M,M,M,M,M,M,M,M,17.60,K05U 111435Z AUTO 00000KT 10SM OVC034 M08/M09 A2987 RMK A01,M
BVU,2021-03-11 14:35,-114.8611,35.9475,671.00,41.00,26.60,56.22,0.00,0.00,0.00,29.97,M,10.00,M,CLR,M,M,M,M,M,M,M,M,M,M,M,M,M,M,41.00,KBVU 111435Z AUTO 00000KT 10SM CLR 05/M03 A2997 RMK AO2,M
MEV,2021-03-11 14:35,-119.7500,38.9963,1441.42,21.20,17.60,85.74,320.00,4.00,0.00,29.95,M,10.00,M,BKN,BKN,OVC,M,1700.00,2900.00,6000.00,M,M,M,M,M,M,M,M,14.81,KMEV 111435Z AUTO 32004KT 10SM BKN017 BKN029 OVC060 M06/M08 A2995 RMK AO2,M
RTS,2021-03-11 14:35,-119.8764,39.6682,1539.00,21.20,17.60,85.74,350.00,5.00,0.00,29.95,M,10.00,M,BKN,OVC,M,M,4000.00,4500.00,M,M,M,M,M,M,M,M,M,13.57,KRTS 111435Z AUTO 35005KT 10SM BKN040 OVC045 M06/M08 A2995 RMK AO2,M
BAM,2021-03-11 14:35,-116.8743,40.5990,1382.36,32.00,32.00,100.00,250.00,3.00,0.00,29.89,M,1.25,M,OVC,M,M,M,1700.00,M,M,M,M,M,M,M,M,M,M,28.69,KBAM 111435Z AUTO 25003KT 1 1/4SM OVC017 00/00 A2989 RMK AO1,M
TPH,2021-03-11 14:36,-117.0904,38.0505,1654.00,24.10,23.00,95.49,20.00,11.00,0.03,29.86,M,2.50,M,OVC,M,M,M,700.00,M,M,M,BR,M,M,M,M,M,M,12.48,KTPH 111436Z AUTO 02011KT 2 1/2SM BR OVC007 M04/M05 A2986 RMK AO2 SNEMM P0003 T10441050 $,M
EKO,2021-03-11 14:38,-115.7860,40.8242,1367.00,28.90,26.10,89.12,40.00,5.00,0.02,29.86,M,1.00,M,FEW,OVC,M,M,500.00,1400.00,M,M,-SN BR,M,M,M,M,M,M,22.71,KEKO 111438Z AUTO 04005KT 1SM -SN BR FEW005 OVC014 M02/M03 A2986 RMK AO2 P0002 T10171033,M
ELY,2021-03-11 14:39,-114.8453,39.2950,1909.00,18.00,15.10,88.20,M,M,T,29.85,M,M,M,BKN,BKN,OVC,M,2700.00,3500.00,4400.00,M,-SN,M,M,M,M,M,M,M,KELY 111439Z AUTO -SN BKN027 BKN035 OVC044 M08/M09 A2985 RMK AO2 SNB28 P0000 T10781094 $,M
TPH,2021-03-11 14:43,-117.0904,38.0505,1654.00,24.10,21.90,91.17,10.00,11.00,0.03,29.86,M,8.00,M,OVC,M,M,M,700.00,M,M,M,-SN,M,M,M,M,M,M,12.48,KTPH 111443Z AUTO 01011KT 8SM -SN OVC007 M04/M06 A2986 RMK AO2 SNEMMB37 P0003 T10441056 $,M
CXP,2021-03-11 14:50,-119.7326,39.1923,1431.00,19.40,17.60,92.57,0.00,0.00,0.00,29.96,M,10.00,M,SCT,OVC,M,M,4000.00,4800.00,M,M,M,M,M,M,M,M,M,19.40,KCXP 111450Z AUTO 00000KT 10SM SCT040 OVC048 M07/M08 A2996 RMK AO2,M
WMC,2021-03-11 14:50,-117.8072,40.9019,1315.00,30.20,26.60,86.28,270.00,8.00,0.02,29.91,M,3.00,M,OVC,M,M,M,1300.00,M,M,M,-SN BR,M,M,M,M,M,M,21.90,KWMC 111450Z AUTO 27008KT 3SM -SN BR OVC013 M01/M03 A2991 RMK AO2 P0002,M
EKO,2021-03-11 14:52,-115.7860,40.8242,1367.00,28.40,24.80,86.18,50.00,7.00,0.03,29.87,M,0.75,M,FEW,OVC,M,M,700.00,1400.00,M,M,-SN BR,M,M,M,M,M,M,20.39,KEKO 111452Z AUTO 05007KT 3/4SM -SN BR FEW007 OVC014 M02/M04 A2987 RMK AO2 P0003,M
VGT,2021-03-11 14:53,-115.1933,36.2111,667.00,43.00,24.10,46.91,310.00,4.00,0.00,29.91,1015.00,10.00,M,BKN,M,M,M,12000.00,M,M,M,M,M,M,M,M,M,M,40.27,KVGT 111453Z 31004KT 10SM BKN120 06/M04 A2991 RMK AO2 SLP150 T00611044 53018,M
LOL,2021-03-11 14:53,-118.5701,40.0684,1192.43,21.00,17.10,84.62,310.00,4.00,0.00,29.94,1016.60,10.00,M,SCT,M,M,M,5000.00,M,M,M,M,M,M,M,M,M,M,14.57,KLOL 111453Z AUTO 31004KT 10SM SCT050 M06/M08 A2994 RMK AO2 SLP166 T10611083 53013,M
ELY,2021-03-11 14:53,-114.8453,39.2950,1909.00,19.90,16.00,84.55,M,M,T,29.86,1014.10,M,M,BKN,OVC,M,M,2500.00,3000.00,M,M,-SN,M,M,M,M,M,M,M,KELY 111453Z AUTO -SN BKN025 OVC030 M07/M09 A2986 RMK AO2 SNB28 SLP141 P0000 60000 T10671089 53011 $,M
P68,2021-03-11 14:53,-116.0056,39.6014,1993.00,19.90,17.10,88.68,190.00,3.00,0.00,29.85,1012.80,M,M,M,M,M,M,M,M,M,M,M,M,M,M,M,M,M,14.86,KP68 111453Z AUTO 19003KT M07/M08 A2985 RMK AO1 SLP128 T10671083 52012,M
EKO,2021-03-11 14:54,-115.7860,40.8242,1367.00,28.40,24.80,86.18,30.00,7.97,M,29.87,M,1.00,M,FEW,OVC,M,M,698.00,1400.00,M,M,-SN BR,M,M,M,M,M,M,19.70,SPECI KEKO 111454Z 03008KT 1SM -SN BR FEW007 OVC014 M02/M04 A2987 RMK AO2 P0003 FIBI,M
MEV,2021-03-11 14:55,-119.7500,38.9963,1441.42,19.40,17.60,92.57,0.00,0.00,0.00,29.95,M,10.00,M,FEW,OVC,M,M,1700.00,3100.00,M,M,M,M,M,M,M,M,M,19.40,KMEV 111455Z AUTO 00000KT 10SM FEW017 OVC031 M07/M08 A2995 RMK AO2,M
05U,2021-03-11 14:55,-116.0051,39.6042,1811.23,19.40,17.60,92.57,0.00,0.00,0.00,29.88,M,10.00,M,OVC,M,M,M,3400.00,M,M,M,M,M,M,M,M,M,M,19.40,K05U 111455Z AUTO 00000KT 10SM OVC034 M07/M08 A2988 RMK A01,M
RNO,2021-03-11 14:55,-119.7711,39.4839,1341.00,26.10,18.00,71.04,0.00,0.00,0.00,29.97,1016.30,10.00,M,BKN,BKN,M,M,4400.00,10000.00,M,M,M,M,M,M,M,M,M,26.10,KRNO 111455Z 00000KT 10SM BKN044 BKN100 M03/M08 A2997 RMK AO2 SLP163 T10331078 51016,M
BAM,2021-03-11 14:55,-116.8743,40.5990,1382.36,32.00,32.00,100.00,250.00,4.00,0.00,29.91,M,1.00,M,OVC,M,M,M,1700.00,M,M,M,M,M,M,M,M,M,M,27.42,KBAM 111455Z AUTO 25004KT 1SM OVC017 00/00 A2991 RMK AO1,M
HTH,2021-03-11 14:55,-118.6315,38.5448,1282.89,30.20,28.40,92.92,250.00,3.00,0.00,29.94,M,10.00,M,FEW,OVC,M,M,4600.00,5500.00,M,M,M,M,M,M,M,M,M,26.63,KHTH 111455Z AUTO 25003KT 10SM FEW046 OVC055 M01/M02 A2994 RMK A01,M
TMT,2021-03-11 14:55,-117.1971,39.4643,1749.34,20.80,19.20,93.41,210.00,4.00,0.00,29.90,M,10.00,M,M,M,M,M,M,M,M,M,M,M,M,M,M,M,M,14.34,KTMT 111455Z AUTO 21004KT 10SM M06/M07 A2990 RMK AO2 T10621071,M
RTS,2021-03-11 14:55,-119.8764,39.6682,1539.00,21.20,17.60,85.74,310.00,6.00,0.00,29.95,M,10.00,M,FEW,SCT,OVC,M,2000.00,2800.00,4000.00,M,M,M,M,M,M,M,M,12.52,KRTS 111455Z AUTO 31006KT 10SM FEW020 SCT028 OVC040 M06/M08 A2995 RMK AO2,M
BVU,2021-03-11 14:55,-114.8611,35.9475,671.00,42.80,24.80,48.67,0.00,0.00,0.00,29.98,M,10.00,M,BKN,M,M,M,8000.00,M,M,M,M,M,M,M,M,M,M,42.80,KBVU 111455Z AUTO 00000KT 10SM BKN080 06/M04 A2998 RMK AO2,M
WMC,2021-03-11 14:56,-117.8072,40.9019,1315.00,30.00,27.00,88.44,270.00,7.00,0.02,29.91,1014.20,6.00,M,OVC,M,M,M,1100.00,M,M,M,-SN BR,M,M,M,M,M,M,22.34,KWMC 111456Z AUTO 27007KT 6SM -SN BR OVC011 M01/M03 A2991 RMK AO2 SLP142 P0002 60006 T10111028 51013,M
LAS,2021-03-11 14:56,-115.1634,36.0719,663.00,45.00,24.10,43.46,190.00,6.00,0.00,29.96,1014.40,10.00,M,FEW,BKN,BKN,M,8000.00,12000.00,20000.00,M,M,M,M,M,M,M,M,41.19,KLAS 111456Z 19006KT 10SM FEW080 BKN120 BKN200 07/M04 A2996 RMK AO2 SLP144 T00721044 53016,M
HND,2021-03-11 14:56,-115.1344,35.9729,742.79,42.00,24.10,48.56,180.00,8.00,0.00,29.97,1017.10,10.00,M,BKN,M,M,M,8500.00,M,M,M,M,M,M,M,M,M,M,36.55,KHND 111456Z 18008KT 10SM BKN085 06/M04 A2997 RMK AO2 SLP171 T00561044 53019,M
NFL,2021-03-11 14:56,-118.7010,39.4166,1199.00,27.00,24.10,88.65,130.00,4.00,0.00,29.94,1011.10,10.00,M,SCT,BKN,BKN,M,4500.00,6000.00,12000.00,M,M,M,M,M,M,M,M,21.58,KNFL 111456Z 13004KT 10SM SCT045 BKN060 BKN120 M03/M04 A2994 RMK AO2 SLP111 T10281044 51014,M
TPH,2021-03-11 14:56,-117.0904,38.0505,1654.00,24.10,23.00,95.49,10.00,9.00,0.03,29.86,1013.80,9.00,M,OVC,M,M,M,700.00,M,M,M,-SN,M,M,M,M,M,M,13.69,KTPH 111456Z AUTO 01009KT 9SM -SN OVC007 M04/M05 A2986 RMK AO2 SNEMMB37 SLP138 P0003 60013 T10441050 53012 $,M
EKO,2021-03-11 14:56,-115.7860,40.8242,1367.00,28.90,25.00,85.14,50.00,7.00,0.03,29.87,1013.10,1.00,M,FEW,BKN,OVC,M,700.00,1400.00,1900.00,M,-SN BR,M,M,M,M,M,M,21.00,KEKO 111456Z AUTO 05007KT 1SM -SN BR FEW007 BKN014 OVC019 M02/M04 A2987 RMK AO2 SLP131 P0003 60008 T10171039 52006,M
INS,2021-03-11 14:58,-115.6733,36.5872,955.00,35.40,18.10,48.93,0.00,0.00,0.00,29.91,1012.30,10.00,M,CLR,M,M,M,M,M,M,M,M,M,M,M,M,M,M,35.40,KINS 111458Z AUTO 00000KT 10SM CLR 02/M08 A2991 RMK AO2 SLP123 T00191077 52017 $,M
LSV,2021-03-11 14:58,-115.0343,36.2362,570.00,44.20,26.80,50.12,0.00,0.00,0.00,29.96,1014.60,10.00,M,SCT,M,M,M,9000.00,M,M,M,M,M,M,M,M,M,M,44.20,KLSV 111458Z AUTO 00000KT 10SM SCT090 07/M03 A2996 RMK AO2 SLP146 T00681029 52021 $,M
EKO,2021-03-11 15:03,-115.7860,40.8242,1367.00,28.90,25.00,85.14,40.00,5.00,T,29.87,M,2.00,M,FEW,OVC,M,M,700.00,1600.00,M,M,-SN BR,M,M,M,M,M,M,22.71,KEKO 111503Z AUTO 04005KT 2SM -SN BR FEW007 OVC016 M02/M04 A2987 RMK AO2 P0000 T10171039,M
CXP,2021-03-11 15:10,-119.7326,39.1923,1431.00,21.20,19.40,92.63,0.00,0.00,0.00,29.97,M,10.00,M,FEW,OVC,M,M,3800.00,4700.00,M,M,M,M,M,M,M,M,M,21.20,KCXP 111510Z AUTO 00000KT 10SM FEW038 OVC047 M06/M07 A2997 RMK AO2,M
HTH,2021-03-11 15:15,-118.6315,38.5448,1282.89,30.20,28.40,92.92,290.00,4.00,0.00,29.95,M,10.00,M,SCT,OVC,M,M,3400.00,5500.00,M,M,M,M,M,M,M,M,M,25.32,KHTH 111515Z AUTO 29004KT 10SM SCT034 OVC055 M01/M02 A2995 RMK A01,M
TMT,2021-03-11 15:15,-117.1971,39.4643,1749.34,21.40,19.40,91.84,200.00,4.00,0.00,29.90,M,10.00,M,M,M,M,M,M,M,M,M,M,M,M,M,M,M,M,15.04,KTMT 111515Z AUTO 20004KT 10SM M06/M07 A2990 RMK AO2 T10591070,M
BAM,2021-03-11 15:15,-116.8743,40.5990,1382.36,32.00,32.00,100.00,250.00,4.00,0.00,29.91,M,1.00,M,OVC,M,M,M,1700.00,M,M,M,M,M,M,M,M,M,M,27.42,KBAM 111515Z AUTO 25004KT 1SM OVC017 00/00 A2991 RMK AO1,M
05U,2021-03-11 15:15,-116.0051,39.6042,1811.23,21.20,19.40,92.63,190.00,4.00,0.00,29.89,M,10.00,M,OVC,M,M,M,3300.00,M,M,M,M,M,M,M,M,M,M,14.81,K05U 111515Z AUTO 19004KT 10SM OVC033 M06/M07 A2989 RMK A01,M
RTS,2021-03-11 15:15,-119.8764,39.6682,1539.00,23.00,19.40,85.85,320.00,4.00,0.00,29.96,M,10.00,M,SCT,BKN,OVC,M,1900.00,2700.00,3800.00,M,M,M,M,M,M,M,M,16.91,KRTS 111515Z AUTO 32004KT 10SM SCT019 BKN027 OVC038 M05/M07 A2996 RMK AO2,M
BVU,2021-03-11 15:15,-114.8611,35.9475,671.00,42.80,24.80,48.67,0.00,0.00,0.00,29.98,M,10.00,M,BKN,M,M,M,8000.00,M,M,M,M,M,M,M,M,M,M,42.80,KBVU 111515Z AUTO 00000KT 10SM BKN080 06/M04 A2998 RMK AO2,M
MEV,2021-03-11 15:15,-119.7500,38.9963,1441.42,19.40,17.60,92.57,0.00,0.00,0.00,29.96,M,10.00,M,OVC,M,M,M,3100.00,M,M,M,M,M,M,M,M,M,M,19.40,KMEV 111515Z AUTO 00000KT 10SM OVC031 M07/M08 A2996 RMK AO2,M
EKO,2021-03-11 15:28,-115.7860,40.8242,1367.00,30.00,25.00,81.40,40.00,9.00,T,29.88,M,3.00,M,SCT,BKN,OVC,M,1600.00,2600.00,3200.00,M,-SN,M,M,M,M,M,M,21.03,KEKO 111528Z AUTO 04009KT 3SM -SN SCT016 BKN026 OVC032 M01/M04 A2988 RMK AO2 P0000 T10111039,M
CXP,2021-03-11 15:30,-119.7326,39.1923,1431.00,23.00,19.40,85.85,0.00,0.00,0.00,29.97,M,10.00,M,OVC,M,M,M,4400.00,M,M,M,M,M,M,M,M,M,M,23.00,KCXP 111530Z AUTO 00000KT 10SM OVC044 M05/M07 A2997 RMK AO2,M
TMT,2021-03-11 15:35,-117.1971,39.4643,1749.34,22.60,20.70,92.28,170.00,5.00,0.00,29.91,M,10.00,M,M,M,M,M,M,M,M,M,M,M,M,M,M,M,M,15.23,KTMT 111535Z AUTO 17005KT 10SM M05/M06 A2991 RMK AO2 T10521063,M
BVU,2021-03-11 15:35,-114.8611,35.9475,671.00,42.80,24.80,48.67,0.00,0.00,0.00,29.99,M,10.00,M,SCT,SCT,M,M,7000.00,8000.00,M,M,M,M,M,M,M,M,M,42.80,KBVU 111535Z AUTO 00000KT 10SM SCT070 SCT080 06/M04 A2999 RMK AO2,M
05U,2021-03-11 15:35,-116.0051,39.6042,1811.23,23.00,19.40,85.85,0.00,0.00,0.00,29.90,M,10.00,M,OVC,M,M,M,3300.00,M,M,M,M,M,M,M,M,M,M,23.00,K05U 111535Z AUTO 00000KT 10SM OVC033 M05/M07 A2990 RMK A01,M
MEV,2021-03-11 15:35,-119.7500,38.9963,1441.42,23.00,21.20,92.69,0.00,0.00,0.00,29.97,M,10.00,M,BKN,OVC,M,M,3100.00,4300.00,M,M,M,M,M,M,M,M,M,23.00,KMEV 111535Z AUTO 00000KT 10SM BKN031 OVC043 M05/M06 A2997 RMK AO2,M
BAM,2021-03-11 15:35,-116.8743,40.5990,1382.36,32.00,32.00,100.00,240.00,6.00,0.00,29.92,M,0.75,M,OVC,M,M,M,1500.00,M,M,M,M,M,M,M,M,M,M,25.53,KBAM 111535Z AUTO 24006KT 3/4SM OVC015 00/00 A2992 RMK AO1,M
RTS,2021-03-11 15:35,-119.8764,39.6682,1539.00,23.00,19.40,85.85,350.00,4.00,0.00,29.97,M,M,M,M,M,M,M,M,M,M,M,M,M,M,M,M,M,M,16.91,KRTS 111535Z AUTO 35004KT M05/M07 A2997 RMK AO2 PWINO,M
HTH,2021-03-11 15:35,-118.6315,38.5448,1282.89,32.00,28.40,86.39,300.00,6.00,0.00,29.96,M,10.00,M,FEW,BKN,OVC,M,3000.00,3400.00,5000.00,M,M,M,M,M,M,M,M,25.53,KHTH 111535Z AUTO 30006KT 10SM FEW030 BKN034 OVC050 M00/M02 A2996 RMK A01,M
WMC,2021-03-11 15:37,-117.8072,40.9019,1315.00,30.00,27.00,88.44,280.00,8.00,0.01,29.92,M,5.00,M,BKN,OVC,M,M,900.00,1300.00,M,M,-SN BR,M,M,M,M,M,M,21.65,KWMC 111537Z AUTO 28008KT 5SM -SN BR BKN009 OVC013 M01/M03 A2992 RMK AO2 P0001 T10111028,M
EKO,2021-03-11 15:47,-115.7860,40.8242,1367.00,30.00,25.00,81.40,60.00,8.00,T,29.89,M,3.00,M,FEW,BKN,OVC,M,900.00,2800.00,3400.00,M,-SN,M,M,M,M,M,M,21.65,KEKO 111547Z AUTO 06008KT 3SM -SN FEW009 BKN028 OVC034 M01/M04 A2989 RMK AO2 P0000 T10111039,M
CXP,2021-03-11 15:50,-119.7326,39.1923,1431.00,24.80,21.20,85.96,0.00,0.00,0.00,29.98,M,10.00,M,OVC,M,M,M,4200.00,M,M,M,M,M,M,M,M,M,M,24.80,KCXP 111550Z AUTO 00000KT 10SM OVC042 M04/M06 A2998 RMK AO2,M
ELY,2021-03-11 15:53,-114.8453,39.2950,1909.00,25.00,19.90,80.66,M,M,0.02,29.88,1013.90,M,M,BKN,BKN,OVC,M,2200.00,4800.00,6000.00,M,M,M,M,M,M,M,M,M,KELY 111553Z AUTO BKN022 BKN048 OVC060 M04/M07 A2988 RMK AO2 SNE37 SLP139 P0002 T10391067 $,M
TPH,2021-03-11 15:53,-117.0904,38.0505,1654.00,28.40,26.60,92.86,100.00,9.00,T,29.88,M,10.00,M,OVC,M,M,M,1100.00,M,M,M,M,M,M,M,M,M,M,19.04,KTPH 111553Z AUTO 10009KT 10SM OVC011 M02/M03 A2988 RMK AO2 SNE21 P0000 $,M
LOL,2021-03-11 15:53,-118.5701,40.0684,1192.43,28.90,25.00,85.14,120.00,3.00,0.00,29.96,1016.80,10.00,M,OVC,M,M,M,4500.00,M,M,M,M,M,M,M,M,M,M,25.14,KLOL 111553Z AUTO 12003KT 10SM OVC045 M02/M04 A2996 RMK AO2 SLP168 T10171039,M
VGT,2021-03-11 15:53,-115.1933,36.2111,667.00,45.00,24.10,43.46,0.00,0.00,0.00,29.93,1015.60,10.00,M,OVC,M,M,M,10000.00,M,M,M,M,M,M,M,M,M,M,45.00,KVGT 111553Z 00000KT 10SM OVC100 07/M04 A2993 RMK AO2 SLP156 T00721044,M
P68,2021-03-11 15:53,-116.0056,39.6014,1993.00,23.00,19.90,87.70,220.00,4.00,0.00,29.88,1013.30,M,M,M,M,M,M,M,M,M,M,M,M,M,M,M,M,M,16.91,KP68 111553Z AUTO 22004KT M05/M07 A2988 RMK AO1 SLP133 T10501067,M
EKO,2021-03-11 15:54,-115.7860,40.8242,1367.00,30.20,24.80,80.07,60.00,7.97,M,29.90,M,2.50,M,FEW,BKN,OVC,M,898.00,2099.00,2798.00,M,-SN,M,M,M,M,M,M,21.92,SPECI KEKO 111554Z 06008KT 2 1/2SM -SN FEW009 BKN021 OVC028 M01/M04 A2990 RMK AO2 P0000 FIBI,M
RNO,2021-03-11 15:55,-119.7711,39.4839,1341.00,28.00,18.00,65.69,150.00,3.00,0.00,29.98,1016.60,10.00,M,SCT,SCT,M,M,4000.00,20000.00,M,M,M,M,M,M,M,M,M,24.12,KRNO 111555Z 15003KT 10SM SCT040 SCT200 M02/M08 A2998 RMK AO2 SLP166 CLDS TPG MTNS SW THRU NW T10221078,M
HTH,2021-03-11 15:55,-118.6315,38.5448,1282.89,32.00,28.40,86.39,320.00,7.00,0.00,29.97,M,10.00,M,FEW,SCT,BKN,M,1700.00,2800.00,3600.00,M,M,M,M,M,M,M,M,24.78,KHTH 111555Z AUTO 32007KT 10SM FEW017 SCT028 BKN036 00/M02 A2997 RMK A01,M
TMT,2021-03-11 15:55,-117.1971,39.4643,1749.34,25.30,21.90,86.72,210.00,3.00,0.00,29.92,M,10.00,M,M,M,M,M,M,M,M,M,M,M,M,M,M,M,M,21.03,KTMT 111555Z AUTO 21003KT 10SM M04/M06 A2992 RMK AO2 T10371056,M
BVU,2021-03-11 15:55,-114.8611,35.9475,671.00,42.80,24.80,48.67,0.00,0.00,0.00,30.00,M,10.00,M,FEW,FEW,M,M,7000.00,9000.00,M,M,M,M,M,M,M,M,M,42.80,KBVU 111555Z AUTO 00000KT 10SM FEW070 FEW090 06/M04 A3000 RMK AO2,M
MEV,2021-03-11 15:55,-119.7500,38.9963,1441.42,24.80,21.20,85.96,0.00,0.00,0.00,29.98,M,10.00,M,BKN,OVC,M,M,3100.00,4300.00,M,M,M,M,M,M,M,M,M,24.80,KMEV 111555Z AUTO 00000KT 10SM BKN031 OVC043 M04/M06 A2998 RMK AO2,M
05U,2021-03-11 15:55,-116.0051,39.6042,1811.23,23.00,19.40,85.85,220.00,4.00,0.00,29.90,M,10.00,M,BKN,OVC,M,M,3300.00,5000.00,M,M,M,M,M,M,M,M,M,16.91,K05U 111555Z AUTO 22004KT 10SM BKN033 OVC050 M05/M07 A2990 RMK A01,M
BAM,2021-03-11 15:55,-116.8743,40.5990,1382.36,32.00,32.00,100.00,240.00,6.00,0.00,29.93,M,0.75,M,OVC,M,M,M,1500.00,M,M,M,M,M,M,M,M,M,M,25.53,KBAM 111555Z AUTO 24006KT 3/4SM OVC015 00/00 A2993 RMK AO1,M
RTS,2021-03-11 15:55,-119.8764,39.6682,1539.00,26.60,23.00,86.07,250.00,3.00,0.00,29.97,M,10.00,M,M,M,M,M,M,M,M,M,M,M,M,M,M,M,M,22.52,KRTS 111555Z AUTO 25003KT 10SM M03/M05 A2997 RMK AO2,M
WMC,2021-03-11 15:56,-117.8072,40.9019,1315.00,30.90,27.00,85.26,280.00,8.00,0.02,29.93,1015.20,3.00,M,OVC,M,M,M,900.00,M,M,M,-SN BR,M,M,M,M,M,M,22.76,KWMC 111556Z AUTO 28008KT 3SM -SN BR OVC009 M01/M03 A2993 RMK AO2 SLP152 P0002 T10061028,M
HND,2021-03-11 15:56,-115.1344,35.9729,742.79,44.00,25.00,46.70,190.00,12.00,0.00,29.99,1017.90,10.00,M,BKN,M,M,M,7500.00,M,M,M,M,M,M,M,M,M,M,37.40,KHND 111556Z 19012KT 10SM BKN075 07/M04 A2999 RMK AO2 SLP179 T00671039,M
TPH,2021-03-11 15:56,-117.0904,38.0505,1654.00,28.00,26.10,92.46,90.00,10.00,T,29.88,1013.70,10.00,M,OVC,M,M,M,1100.00,M,M,M,M,M,M,M,M,M,M,17.95,KTPH 111556Z AUTO 09010KT 10SM OVC011 M02/M03 A2988 RMK AO2 SNE21 SLP137 P0000 T10221033 $,M
LAS,2021-03-11 15:56,-115.1634,36.0719,663.00,46.00,25.00,43.44,200.00,8.00,0.00,29.98,1015.00,10.00,M,FEW,BKN,BKN,M,7000.00,11000.00,20000.00,M,M,M,M,M,M,M,M,41.36,KLAS 111556Z 20008KT 10SM FEW070 BKN110 BKN200 08/M04 A2998 RMK AO2 SLP150 VIRGA DSNT S T00781039,M
EKO,2021-03-11 15:56,-115.7860,40.8242,1367.00,30.00,25.00,81.40,70.00,8.00,T,29.90,1014.00,2.50,M,FEW,BKN,OVC,M,900.00,2100.00,2800.00,M,-SN,M,M,M,M,M,M,21.65,KEKO 111556Z AUTO 07008KT 2 1/2SM -SN FEW009 BKN021 OVC028 M01/M04 A2990 RMK AO2 SLP140 P0000 T10111039,M
NFL,2021-03-11 15:56,-118.7010,39.4166,1199.00,32.00,27.00,81.55,0.00,0.00,0.00,29.96,1011.80,10.00,M,SCT,BKN,BKN,BKN,4000.00,6000.00,12000.00,18000.00,M,M,M,M,M,M,M,32.00,KNFL 111556Z 00000KT 10SM SCT040 BKN060 BKN120 BKN180 00/M03 A2996 RMK AO2 SLP118 T00001028,M
LSV,2021-03-11 15:58,-115.0343,36.2362,570.00,47.70,24.40,39.74,190.00,8.00,0.00,29.98,1015.10,10.00,M,FEW,M,M,M,20000.00,M,M,M,M,M,M,M,M,M,M,43.45,KLSV 111558Z AUTO 19008KT 10SM FEW200 09/M04 A2998 RMK AO2 SLP151 T00871042 $,M
INS,2021-03-11 15:58,-115.6733,36.5872,955.00,37.80,19.40,47.06,0.00,0.00,0.00,29.94,1013.30,10.00,M,CLR,M,M,M,M,M,M,M,M,M,M,M,M,M,M,37.80,KINS 111558Z AUTO 00000KT 10SM CLR 03/M07 A2994 RMK AO2 SLP133 T00321070 $,M
ELY,2021-03-11 16:01,-114.8453,39.2950,1909.00,25.00,19.90,80.66,M,M,0.00,29.88,M,M,M,SCT,BKN,OVC,M,2200.00,4800.00,6000.00,M,M,M,M,M,M,M,M,M,KELY 111601Z AUTO SCT022 BKN048 OVC060 M04/M07 A2988 RMK AO2 T10391067 $,M
EKO,2021-03-11 16:02,-115.7860,40.8242,1367.00,30.00,25.00,81.40,50.00,7.00,T,29.90,M,3.00,M,FEW,BKN,OVC,M,900.00,1400.00,2800.00,M,-SN,M,M,M,M,M,M,22.34,KEKO 111602Z AUTO 05007KT 3SM -SN FEW009 BKN014 OVC028 M01/M04 A2990 RMK AO2 P0000 T10111039,M
CXP,2021-03-11 16:10,-119.7326,39.1923,1431.00,26.60,23.00,86.07,0.00,0.00,0.00,29.99,M,10.00,M,OVC,M,M,M,4300.00,M,M,M,M,M,M,M,M,M,M,26.60,KCXP 111610Z AUTO 00000KT 10SM OVC043 M03/M05 A2999 RMK AO2,M
RTS,2021-03-11 16:15,-119.8764,39.6682,1539.00,28.40,21.20,74.08,270.00,6.00,0.00,29.98,M,10.00,M,FEW,BKN,OVC,M,1900.00,4300.00,5000.00,M,-UP,M,M,M,M,M,M,21.19,KRTS 111615Z AUTO 27006KT 10SM -UP FEW019 BKN043 OVC050 M02/M06 A2998 RMK AO2,M
BAM,2021-03-11 16:15,-116.8743,40.5990,1382.36,32.00,32.00,100.00,240.00,7.00,0.00,29.93,M,1.25,M,SCT,BKN,OVC,M,400.00,1300.00,2400.00,M,M,M,M,M,M,M,M,24.78,KBAM 111615Z AUTO 24007KT 1 1/4SM SCT004 BKN013 OVC024 00/00 A2993 RMK AO1,M
TMT,2021-03-11 16:15,-117.1971,39.4643,1749.34,26.10,22.60,86.40,240.00,3.00,0.00,29.92,M,10.00,M,M,M,M,M,M,M,M,M,M,M,M,M,M,M,M,21.94,KTMT 111615Z AUTO 24003KT 10SM M03/M05 A2992 RMK AO2 T10331052,M
BVU,2021-03-11 16:15,-114.8611,35.9475,671.00,44.60,24.80,45.44,0.00,0.00,0.00,30.00,M,9.00,M,SCT,M,M,M,9000.00,M,M,M,M,M,M,M,M,M,M,44.60,KBVU 111615Z AUTO 00000KT 9SM SCT090 07/M04 A3000 RMK AO2,M
05U,2021-03-11 16:15,-116.0051,39.6042,1811.23,26.60,21.20,79.77,200.00,4.00,0.00,29.91,M,10.00,M,FEW,OVC,M,M,3300.00,5500.00,M,M,M,M,M,M,M,M,M,21.11,K05U 111615Z AUTO 20004KT 10SM FEW033 OVC055 M03/M06 A2991 RMK A01,M
MEV,2021-03-11 16:15,-119.7500,38.9963,1441.42,26.60,23.00,86.07,0.00,0.00,0.00,29.98,M,10.00,M,SCT,OVC,M,M,3100.00,4300.00,M,M,M,M,M,M,M,M,M,26.60,KMEV 111615Z AUTO 00000KT 10SM SCT031 OVC043 M03/M05 A2998 RMK AO2,M
HTH,2021-03-11 16:15,-118.6315,38.5448,1282.89,33.80,26.60,74.63,320.00,8.00,0.00,29.98,M,7.00,M,FEW,FEW,SCT,M,1700.00,2600.00,3900.00,M,M,M,M,M,M,M,M,26.33,KHTH 111615Z AUTO 32008KT 7SM FEW017 FEW026 SCT039 01/M03 A2998 RMK A01,M
TPH,2021-03-11 16:24,-117.0904,38.0505,1654.00,28.90,27.00,92.49,90.00,14.00,0.00,29.89,M,10.00,M,SCT,BKN,OVC,M,1100.00,2000.00,2500.00,M,M,M,M,M,M,M,M,17.17,KTPH 111624Z AUTO 09014KT 10SM SCT011 BKN020 OVC025 M02/M03 A2989 RMK AO2 T10171028 $,M
EKO,2021-03-11 16:25,-115.7860,40.8242,1367.00,30.00,25.00,81.40,40.00,8.00,T,29.90,M,5.00,M,OVC,M,M,M,1600.00,M,M,M,-SN,M,M,M,M,M,M,21.65,KEKO 111625Z AUTO 04008KT 5SM -SN OVC016 M01/M04 A2990 RMK AO2 P0000 T10111039,M
TPH,2021-03-11 16:26,-117.0904,38.0505,1654.00,28.90,26.10,89.12,90.00,15.00,0.00,29.89,M,10.00,M,BKN,BKN,OVC,M,900.00,2000.00,2500.00,M,M,M,M,M,M,M,M,16.76,KTPH 111626Z AUTO 09015KT 10SM BKN009 BKN020 OVC025 M02/M03 A2989 RMK AO2 T10171033 $,M
WMC,2021-03-11 16:29,-117.8072,40.9019,1315.00,32.00,28.00,84.98,330.00,8.00,T,29.94,M,2.50,M,SCT,OVC,M,M,700.00,1500.00,M,M,-SN BR,M,M,M,M,M,M,24.11,KWMC 111629Z AUTO 33008KT 2 1/2SM -SN BR SCT007 OVC015 00/M02 A2994 RMK AO2 P0000 T00001022,M
CXP,2021-03-11 16:30,-119.7326,39.1923,1431.00,26.60,23.00,86.07,0.00,0.00,0.00,29.99,M,10.00,M,BKN,M,M,M,4300.00,M,M,M,M,M,M,M,M,M,M,26.60,KCXP 111630Z AUTO 00000KT 10SM BKN043 M03/M05 A2999 RMK AO2,M
TPH,2021-03-11 16:33,-117.0904,38.0505,1654.00,28.00,26.10,92.46,90.00,16.00,0.00,29.89,M,9.00,M,SCT,BKN,OVC,M,900.00,1700.00,2200.00,M,M,M,M,M,M,M,M,15.20,KTPH 111633Z AUTO 09016KT 9SM SCT009 BKN017 OVC022 M02/M03 A2989 RMK AO2 T10221033 $,M
BAM,2021-03-11 16:35,-116.8743,40.5990,1382.36,32.00,32.00,100.00,240.00,6.00,0.00,29.93,M,4.00,M,OVC,M,M,M,2200.00,M,M,M,M,M,M,M,M,M,M,25.53,KBAM 111635Z AUTO 24006KT 4SM OVC022 00/00 A2993 RMK AO1,M
HTH,2021-03-11 16:35,-118.6315,38.5448,1282.89,33.80,28.40,80.36,320.00,7.00,0.00,29.98,M,8.00,M,SCT,SCT,M,M,5000.00,5500.00,M,M,M,M,M,M,M,M,M,26.97,KHTH 111635Z AUTO 32007KT 8SM SCT050 SCT055 01/M02 A2998 RMK A01,M
TMT,2021-03-11 16:35,-117.1971,39.4643,1749.34,26.60,22.80,85.35,240.00,5.00,0.00,29.93,M,10.00,M,M,M,M,M,M,M,M,M,M,M,M,M,M,M,M,19.98,KTMT 111635Z AUTO 24005KT 10SM M03/M05 A2993 RMK AO2 T10301051,M
BVU,2021-03-11 16:35,-114.8611,35.9475,671.00,44.60,23.00,42.14,0.00,0.00,0.00,30.01,M,10.00,M,FEW,M,M,M,9000.00,M,M,M,M,M,M,M,M,M,M,44.60,KBVU 111635Z AUTO 00000KT 10SM FEW090 07/M05 A3001 RMK AO2,M
RTS,2021-03-11 16:35,-119.8764,39.6682,1539.00,28.40,21.20,74.08,260.00,5.00,0.00,29.98,M,10.00,M,SCT,BKN,OVC,M,3300.00,4800.00,5500.00,M,M,M,M,M,M,M,M,22.12,KRTS 111635Z AUTO 26005KT 10SM SCT033 BKN048 OVC055 M02/M06 A2998 RMK AO2,M
05U,2021-03-11 16:35,-116.0051,39.6042,1811.23,28.40,23.00,79.92,190.00,5.00,0.00,29.91,M,10.00,M,FEW,BKN,M,M,4600.00,5500.00,M,M,M,M,M,M,M,M,M,22.12,K05U 111635Z AUTO 19005KT 10SM FEW046 BKN055 M02/M05 A2991 RMK A01,M
MEV,2021-03-11 16:35,-119.7500,38.9963,1441.42,28.40,23.00,79.92,M,3.00,0.00,29.98,M,10.00,M,OVC,M,M,M,4300.00,M,M,M,M,M,M,M,M,M,M,24.57,KMEV 111635Z AUTO VRB03KT 10SM OVC043 M02/M05 A2998 RMK AO2,M
WMC,2021-03-11 16:40,-117.8072,40.9019,1315.00,32.00,28.00,84.98,330.00,9.00,0.01,29.95,M,1.75,M,FEW,OVC,M,M,700.00,1400.00,M,M,-SN BR,M,M,M,M,M,M,23.51,KWMC 111640Z AUTO 33009KT 1 3/4SM -SN BR FEW007 OVC014 00/M02 A2995 RMK AO2 P0001 T00001022,M
LOL,2021-03-11 16:53,-118.5701,40.0684,1192.43,33.00,26.10,75.18,0.00,0.00,0.00,29.97,1017.10,10.00,M,SCT,BKN,BKN,M,4500.00,7000.00,10000.00,M,M,M,M,M,M,M,M,33.10,KLOL 111653Z AUTO 00000KT 10SM SCT045 BKN070 BKN100 01/M03 A2997 RMK AO2 SLP171 T00061033,M
ELY,2021-03-11 16:53,-114.8453,39.2950,1909.00,26.10,19.90,77.06,M,M,0.00,29.89,1014.30,M,M,CLR,M,M,M,M,M,M,M,M,M,M,M,M,M,M,M,KELY 111653Z AUTO CLR M03/M07 A2989 RMK AO2 SLP143 T10331067 $,M
P68,2021-03-11 16:53,-116.0056,39.6014,1993.00,27.00,23.00,84.66,190.00,5.00,0.00,29.89,1013.20,M,M,M,M,M,M,M,M,M,M,M,M,M,M,M,M,M,20.46,KP68 111653Z AUTO 19005KT M03/M05 A2989 RMK AO1 SLP132 T10281050,M
VGT,2021-03-11 16:53,-115.1933,36.2111,667.00,48.00,24.10,38.80,200.00,9.00,0.00,29.94,1015.90,10.00,M,BKN,M,M,M,8500.00,M,M,M,M,M,M,M,M,M,M,43.41,KVGT 111653Z 20009KT 10SM BKN085 09/M04 A2994 RMK AO2 SLP159 T00891044,M
CXP,2021-03-11 16:55,-119.7326,39.1923,1431.00,32.00,23.00,69.04,0.00,0.00,0.00,29.99,M,10.00,M,BKN,BKN,M,M,4300.00,5000.00,M,M,-UP,M,M,M,M,M,M,32.00,KCXP 111655Z AUTO 00000KT 10SM -UP BKN043 BKN050 M00/M05 A2999 RMK AO2,M
MEV,2021-03-11 16:55,-119.7500,38.9963,1441.42,30.20,21.20,68.83,0.00,0.00,0.00,29.99,M,10.00,M,OVC,M,M,M,4300.00,M,M,M,M,M,M,M,M,M,M,30.20,KMEV 111655Z AUTO 00000KT 10SM OVC043 M01/M06 A2999 RMK AO2,M
BVU,2021-03-11 16:55,-114.8611,35.9475,671.00,44.60,23.00,42.14,0.00,0.00,0.00,30.01,M,10.00,M,CLR,M,M,M,M,M,M,M,M,M,M,M,M,M,M,44.60,KBVU 111655Z AUTO 00000KT 10SM CLR 07/M05 A3001 RMK AO2,M
RTS,2021-03-11 16:55,-119.8764,39.6682,1539.00,30.20,21.20,68.83,250.00,5.00,0.00,29.99,M,10.00,M,BKN,BKN,OVC,M,3200.00,3800.00,4900.00,M,M,M,M,M,M,M,M,24.26,KRTS 111655Z AUTO 25005KT 10SM BKN032 BKN038 OVC049 M01/M06 A2999 RMK AO2,M
05U,2021-03-11 16:55,-116.0051,39.6042,1811.23,30.20,23.00,74.26,200.00,4.00,0.00,29.92,M,10.00,M,BKN,BKN,M,M,4900.00,6000.00,M,M,M,M,M,M,M,M,M,25.32,K05U 111655Z AUTO 20004KT 10SM BKN049 BKN060 M01/M05 A2992 RMK A01,M
BAM,2021-03-11 16:55,-116.8743,40.5990,1382.36,32.00,32.00,100.00,240.00,8.00,0.00,29.94,M,3.00,M,SCT,OVC,M,M,500.00,2000.00,M,M,M,M,M,M,M,M,M,24.11,KBAM 111655Z AUTO 24008KT 3SM SCT005 OVC020 00/00 A2994 RMK AO1,M
HTH,2021-03-11 16:55,-118.6315,38.5448,1282.89,33.80,26.60,74.63,330.00,6.00,0.00,29.98,M,10.00,M,OVC,M,M,M,6000.00,M,M,M,M,M,M,M,M,M,M,27.70,KHTH 111655Z AUTO 33006KT 10SM OVC060 01/M03 A2998 RMK A01,M
TMT,2021-03-11 16:55,-117.1971,39.4643,1749.34,29.10,24.60,83.05,220.00,4.00,0.00,29.93,M,10.00,M,M,M,M,M,M,M,M,M,M,M,M,M,M,M,M,24.03,KTMT 111655Z AUTO 22004KT 10SM M02/M04 A2993 RMK AO2 T10161041,M
RNO,2021-03-11 16:55,-119.7711,39.4839,1341.00,32.00,18.00,55.82,0.00,0.00,0.00,29.99,1016.60,10.00,M,FEW,BKN,BKN,M,4000.00,6500.00,20000.00,M,M,M,M,M,M,M,M,32.00,KRNO 111655Z 00000KT 10SM FEW040 BKN065 BKN200 00/M08 A2999 RMK AO2 SLP166 MTN TOPS OBSCD SW THRU NW T00001078,M
EKO,2021-03-11 16:56,-115.7860,40.8242,1367.00,30.90,25.00,78.48,60.00,6.00,0.01,29.91,1014.70,6.00,M,SCT,BKN,OVC,M,1400.00,2200.00,2800.00,M,HZ,M,M,M,M,M,M,24.21,KEKO 111656Z AUTO 06006KT 6SM HZ SCT014 BKN022 OVC028 M01/M04 A2991 RMK AO2 SNE43 SLP147 P0001 T10061039,M
LAS,2021-03-11 16:56,-115.1634,36.0719,663.00,46.00,27.00,47.20,190.00,12.00,0.00,30.00,1015.70,10.00,21.00,SCT,BKN,BKN,M,7000.00,11000.00,20000.00,M,M,M,M,M,M,M,M,39.82,KLAS 111656Z 19012G21KT 10SM SCT070 BKN110 BKN200 08/M03 A3000 RMK AO2 SLP157 VIRGA DSNT S T00781028,M
NFL,2021-03-11 16:56,-118.7010,39.4166,1199.00,36.00,27.00,69.51,300.00,3.00,0.00,29.97,1012.00,10.00,M,FEW,SCT,BKN,BKN,4000.00,6000.00,10000.00,15000.00,M,M,M,M,M,M,M,33.26,KNFL 111656Z 30003KT 10SM FEW040 SCT060 BKN100 BKN150 BKN200 02/M03 A2997 RMK AO2 SLP120 T00221028,M
TPH,2021-03-11 16:56,-117.0904,38.0505,1654.00,28.90,27.00,92.49,100.00,16.00,T,29.90,1014.30,2.50,M,SCT,OVC,M,M,1300.00,1800.00,M,M,-SN BR,M,M,M,M,M,M,16.38,KTPH 111656Z AUTO 10016KT 2 1/2SM -SN BR SCT013 OVC018 M02/M03 A2990 RMK AO2 SNB34 SLP143 P0000 T10171028 $,M
HND,2021-03-11 16:56,-115.1344,35.9729,742.79,43.00,28.90,57.21,180.00,16.00,0.00,30.01,1018.50,10.00,M,SCT,BKN,OVC,M,3500.00,4600.00,5500.00,M,M,M,M,M,M,M,M,34.76,KHND 111656Z 18016KT 10SM SCT035 BKN046 OVC055 06/M02 A3001 RMK AO2 SLP185 T00611017,M
WMC,2021-03-11 16:56,-117.8072,40.9019,1315.00,32.00,28.00,84.98,320.00,9.00,0.02,29.95,1015.80,3.00,M,OVC,M,M,M,1400.00,M,M,M,-SN BR,M,M,M,M,M,M,23.51,KWMC 111656Z AUTO 32009KT 3SM -SN BR OVC014 00/M02 A2995 RMK AO2 SLP158 P0002 T00001022,M
INS,2021-03-11 16:58,-115.6733,36.5872,955.00,41.20,19.80,41.93,0.00,0.00,0.00,29.94,1013.10,10.00,M,CLR,M,M,M,M,M,M,M,M,M,M,M,M,M,M,41.20,KINS 111658Z AUTO 00000KT 10SM CLR 05/M07 A2994 RMK AO2 SLP131 T00511068 $,M
LSV,2021-03-11 16:58,-115.0343,36.2362,570.00,48.40,25.20,40.02,190.00,15.00,0.00,29.99,1015.60,10.00,M,FEW,M,M,M,19000.00,M,M,M,M,M,M,M,M,M,M,42.04,KLSV 111658Z AUTO 19015KT 10SM FEW190 09/M04 A2999 RMK AO2 SLP156 T00911038 $,M
WMC,2021-03-11 17:10,-117.8072,40.9019,1315.00,32.00,28.90,88.17,330.00,7.00,T,29.96,M,3.00,M,SCT,OVC,M,M,600.00,1400.00,M,M,-SN BR,M,M,M,M,M,M,24.78,KWMC 111710Z AUTO 33007KT 3SM -SN BR SCT006 OVC014 00/M02 A2996 RMK AO2 P0000 T00001017,M
CXP,2021-03-11 17:10,-119.7326,39.1923,1431.00,32.00,23.00,69.04,0.00,0.00,0.00,30.00,M,10.00,M,FEW,SCT,BKN,M,4000.00,4700.00,5000.00,M,M,M,M,M,M,M,M,32.00,KCXP 111710Z AUTO 00000KT 10SM FEW040 SCT047 BKN050 00/M05 A3000 RMK AO2,M
TPH,2021-03-11 17:11,-117.0904,38.0505,1654.00,28.90,27.00,92.49,90.00,16.00,T,29.90,M,2.50,M,BKN,OVC,M,M,1000.00,1900.00,M,M,-SN BR,M,M,M,M,M,M,16.38,KTPH 111711Z AUTO 09016KT 2 1/2SM -SN BR BKN010 OVC019 M02/M03 A2990 RMK AO2 P0000 T10171028 $,M
TMT,2021-03-11 17:15,-117.1971,39.4643,1749.34,30.70,23.70,74.94,240.00,3.00,0.00,29.93,M,10.00,M,M,M,M,M,M,M,M,M,M,M,M,M,M,M,M,27.20,KTMT 111715Z AUTO 24003KT 10SM M01/M05 A2993 RMK AO2 T10071046,M
05U,2021-03-11 17:15,-116.0051,39.6042,1811.23,30.20,23.00,74.26,0.00,0.00,0.00,29.92,M,10.00,M,FEW,SCT,BKN,M,4000.00,4500.00,5000.00,M,M,M,M,M,M,M,M,30.20,K05U 111715Z AUTO 00000KT 10SM FEW040 SCT045 BKN050 M01/M05 A2992 RMK A01,M
BAM,2021-03-11 17:15,-116.8743,40.5990,1382.36,32.00,32.00,100.00,240.00,7.00,0.00,29.95,M,3.00,M,SCT,OVC,M,M,500.00,2200.00,M,M,M,M,M,M,M,M,M,24.78,KBAM 111715Z AUTO 24007KT 3SM SCT005 OVC022 00/00 A2995 RMK AO1,M
RTS,2021-03-11 17:15,-119.8764,39.6682,1539.00,30.20,21.20,68.83,240.00,6.00,0.00,29.99,M,10.00,M,FEW,FEW,OVC,M,2200.00,2700.00,3400.00,M,M,M,M,M,M,M,M,23.36,KRTS 111715Z AUTO 24006KT 10SM FEW022 FEW027 OVC034 M01/M06 A2999 RMK AO2,M
MEV,2021-03-11 17:15,-119.7500,38.9963,1441.42,32.00,21.20,63.99,0.00,0.00,0.00,29.99,M,10.00,M,OVC,M,M,M,4300.00,M,M,M,M,M,M,M,M,M,M,32.00,KMEV 111715Z AUTO 00000KT 10SM OVC043 M00/M06 A2999 RMK AO2,M
BVU,2021-03-11 17:15,-114.8611,35.9475,671.00,46.40,23.00,39.36,230.00,3.00,0.00,30.02,M,10.00,M,FEW,M,M,M,4600.00,M,M,M,M,M,M,M,M,M,M,45.15,KBVU 111715Z AUTO 23003KT 10SM FEW046 08/M05 A3002 RMK AO2,M
HTH,2021-03-11 17:15,-118.6315,38.5448,1282.89,33.80,24.80,69.25,350.00,7.00,0.00,29.99,M,9.00,M,BKN,BKN,M,M,5500.00,6500.00,M,M,M,M,M,M,M,M,M,26.97,KHTH 111715Z AUTO 35007KT 9SM BKN055 BKN065 01/M04 A2999 RMK A01,M
WMC,2021-03-11 17:20,-117.8072,40.9019,1315.00,32.00,28.00,84.98,330.00,7.00,T,29.96,M,5.00,M,BKN,OVC,M,M,600.00,1300.00,M,M,-SN BR,M,M,M,M,M,M,24.78,KWMC 111720Z AUTO 33007KT 5SM -SN BR BKN006 OVC013 00/M02 A2996 RMK AO2 CIG 005V009 P0000 T00001022,M
TPH,2021-03-11 17:23,-117.0904,38.0505,1654.00,28.90,27.00,92.49,100.00,13.00,T,29.91,M,1.75,M,OVC,M,M,M,900.00,M,M,M,-SN BR,M,M,M,M,M,M,17.60,KTPH 111723Z AUTO 10013KT 1 3/4SM -SN BR OVC009 M02/M03 A2991 RMK AO2 P0000 T10171028 $,M
TPH,2021-03-11 17:30,-117.0904,38.0505,1654.00,28.90,27.00,92.49,100.00,14.00,T,29.91,M,2.00,M,OVC,M,M,M,900.00,M,M,M,-SN BR,M,M,M,M,M,M,17.17,KTPH 111730Z AUTO 10014KT 2SM -SN BR OVC009 M02/M03 A2991 RMK AO2 P0000 T10171028 $,M
HTH,2021-03-11 17:35,-118.6315,38.5448,1282.89,35.60,24.80,64.46,330.00,8.00,0.00,29.99,M,10.00,M,FEW,BKN,OVC,M,2500.00,5500.00,6500.00,M,M,M,M,M,M,M,M,28.55,KHTH 111735Z AUTO 33008KT 10SM FEW025 BKN055 OVC065 02/M04 A2999 RMK A01,M
RTS,2021-03-11 17:35,-119.8764,39.6682,1539.00,30.20,21.20,68.83,0.00,0.00,0.00,29.99,M,10.00,M,BKN,BKN,OVC,M,2100.00,2900.00,3400.00,M,M,M,M,M,M,M,M,30.20,KRTS 111735Z AUTO 00000KT 10SM BKN021 BKN029 OVC034 M01/M06 A2999 RMK AO2,M
TMT,2021-03-11 17:35,-117.1971,39.4643,1749.34,30.70,21.90,69.47,150.00,3.00,0.00,29.93,M,10.00,M,M,M,M,M,M,M,M,M,M,M,M,M,M,M,M,27.20,KTMT 111735Z AUTO 15003KT 10SM M01/M06 A2993 RMK AO2 T10071056,M
CXP,2021-03-11 17:35,-119.7326,39.1923,1431.00,33.80,23.00,64.23,210.00,4.00,0.00,30.00,M,10.00,M,SCT,BKN,OVC,M,4300.00,5000.00,6000.00,M,M,M,M,M,M,M,M,29.52,KCXP 111735Z AUTO 21004KT 10SM SCT043 BKN050 OVC060 01/M05 A3000 RMK AO2,M
05U,2021-03-11 17:35,-116.0051,39.6042,1811.23,28.40,23.00,79.92,0.00,0.00,0.00,29.93,M,10.00,M,SCT,BKN,M,M,3900.00,7000.00,M,M,M,M,M,M,M,M,M,28.40,K05U 111735Z AUTO 00000KT 10SM SCT039 BKN070 M02/M05 A2993 RMK A01,M
BVU,2021-03-11 17:35,-114.8611,35.9475,671.00,46.40,26.60,45.73,M,4.00,0.00,30.02,M,10.00,11.00,SCT,SCT,M,M,4300.00,4900.00,M,M,M,M,M,M,M,M,M,44.24,KBVU 111735Z AUTO VRB04G11KT 10SM SCT043 SCT049 08/M03 A3002 RMK AO2,M
BAM,2021-03-11 17:35,-116.8743,40.5990,1382.36,33.80,33.80,100.00,240.00,8.00,0.00,29.95,M,5.00,M,SCT,OVC,M,M,500.00,2000.00,M,M,M,M,M,M,M,M,M,26.33,KBAM 111735Z AUTO 24008KT 5SM SCT005 OVC020 01/01 A2995 RMK AO1,M
MEV,2021-03-11 17:35,-119.7500,38.9963,1441.42,32.00,19.40,59.27,M,3.00,0.00,29.99,M,10.00,M,OVC,M,M,M,4300.00,M,M,M,M,M,M,M,M,M,M,28.69,KMEV 111735Z AUTO VRB03KT 10SM OVC043 M00/M07 A2999 RMK AO2,M
EKO,2021-03-11 17:39,-115.7860,40.8242,1367.00,30.90,26.10,82.15,30.00,6.00,T,29.93,M,1.75,M,BKN,OVC,M,M,1700.00,3000.00,M,M,-SN,M,M,M,M,M,M,24.21,KEKO 111739Z AUTO 03006KT 1 3/4SM -SN BKN017 OVC030 M01/M03 A2993 RMK AO2 SNB00 P0000 T10061033,M
WMC,2021-03-11 17:40,-117.8072,40.9019,1315.00,32.00,28.00,84.98,310.00,8.00,T,29.96,M,2.00,M,OVC,M,M,M,700.00,M,M,M,-SN BR,M,M,M,M,M,M,24.11,KWMC 111740Z AUTO 31008KT 2SM -SN BR OVC007 00/M02 A2996 RMK AO2 P0000 T00001022,M
TPH,2021-03-11 17:48,-117.0904,38.0505,1654.00,30.00,27.00,88.44,90.00,13.00,T,29.92,M,3.00,M,BKN,OVC,M,M,1100.00,2500.00,M,M,-SN BR,M,M,M,M,M,M,19.01,KTPH 111748Z AUTO 09013KT 3SM -SN BR BKN011 OVC025 M01/M03 A2992 RMK AO2 P0000 T10111028 $,M
WMC,2021-03-11 17:53,-117.8072,40.9019,1315.00,33.80,28.40,80.36,310.00,7.00,0.01,29.97,M,3.00,M,BKN,BKN,OVC,M,700.00,1100.00,2000.00,M,-SN BR,M,M,M,M,M,M,26.97,KWMC 111753Z AUTO 31007KT 3SM -SN BR BKN007 BKN011 OVC020 01/M02 A2997 RMK AO2 P0001,M
P68,2021-03-11 17:53,-116.0056,39.6014,1993.00,28.90,24.10,82.00,60.00,3.00,0.00,29.91,1013.80,M,M,M,M,M,M,M,M,M,M,M,M,M,M,M,M,M,25.14,KP68 111753Z AUTO 06003KT M02/M04 A2991 RMK AO1 SLP138 T10171044 11011 21100 53017,M
VGT,2021-03-11 17:53,-115.1933,36.2111,667.00,48.00,28.00,45.61,160.00,14.00,0.00,29.96,1016.40,10.00,M,FEW,M,M,M,12000.00,M,M,M,M,M,M,M,M,M,M,41.79,KVGT 111753Z 16014KT 10SM FEW120 09/M02 A2996 RMK AO2 SLP164 T00891022 10094 20061 51015,M
ELY,2021-03-11 17:53,-114.8453,39.2950,1909.00,30.00,23.00,74.87,M,M,0.00,29.90,1014.00,M,M,BKN,M,M,M,5000.00,M,M,M,M,M,M,M,M,M,M,M,KELY 111753Z AUTO BKN050 M01/M05 A2990 RMK AO2 SLP140 60002 T10111050 11011 21094 51012 $,M
LOL,2021-03-11 17:53,-118.5701,40.0684,1192.43,37.00,26.10,64.38,0.00,0.00,0.00,29.98,1017.20,10.00,M,OVC,M,M,M,6000.00,M,M,M,M,M,M,M,M,M,M,37.00,KLOL 111753Z AUTO 00000KT 10SM OVC060 03/M03 A2998 RMK AO2 SLP172 T00281033 10028 21100 51013,M
05U,2021-03-11 17:55,-116.0051,39.6042,1811.23,30.20,23.00,74.26,0.00,0.00,0.00,29.93,M,10.00,M,FEW,FEW,M,M,3900.00,7000.00,M,M,M,M,M,M,M,M,M,30.20,K05U 111755Z AUTO 00000KT 10SM FEW039 FEW070 M01/M05 A2993 RMK A01,M
RNO,2021-03-11 17:55,-119.7711,39.4839,1341.00,36.00,21.00,54.08,0.00,0.00,0.00,30.00,1016.70,10.00,M,FEW,SCT,BKN,M,3500.00,6500.00,20000.00,M,M,M,M,M,M,M,M,36.00,KRNO 111755Z 00000KT 10SM FEW035 SCT065 BKN200 02/M06 A3000 RMK AO2 SLP167 MTN TOPS OBSCD SW THRU NW T00221061 10022 21033 51010,M
BVU,2021-03-11 17:55,-114.8611,35.9475,671.00,46.40,30.20,53.00,150.00,10.00,0.00,30.03,M,10.00,M,BKN,OVC,M,M,4000.00,4700.00,M,M,M,M,M,M,M,M,M,41.03,KBVU 111755Z AUTO 15010KT 10SM BKN040 OVC047 08/M01 A3003 RMK AO2,M
TMT,2021-03-11 17:55,-117.1971,39.4643,1749.34,30.60,21.40,68.30,0.00,0.00,0.00,29.93,M,10.00,M,M,M,M,M,M,M,M,M,M,M,M,M,M,M,M,30.60,KTMT 111755Z AUTO 00000KT 10SM M01/M06 A2993 RMK AO2 T10081059 11002 21091,M
RTS,2021-03-11 17:55,-119.8764,39.6682,1539.00,30.20,21.20,68.83,300.00,4.00,0.00,30.00,M,10.00,M,BKN,BKN,OVC,M,2000.00,2500.00,3100.00,M,M,M,M,M,M,M,M,25.32,KRTS 111755Z AUTO 30004KT 10SM BKN020 BKN025 OVC031 M01/M06 A3000 RMK AO2,M
HTH,2021-03-11 17:55,-118.6315,38.5448,1282.89,35.60,24.80,64.46,340.00,11.00,0.00,29.99,M,10.00,M,FEW,FEW,OVC,M,2400.00,4200.00,6000.00,M,M,M,M,M,M,M,M,27.02,KHTH 111755Z AUTO 34011KT 10SM FEW024 FEW042 OVC060 02/M04 A2999 RMK A01,M
BAM,2021-03-11 17:55,-116.8743,40.5990,1382.36,33.80,33.80,100.00,230.00,7.00,0.00,29.96,M,4.00,M,SCT,OVC,M,M,700.00,2000.00,M,M,M,M,M,M,M,M,M,26.97,KBAM 111755Z AUTO 23007KT 4SM SCT007 OVC020 01/01 A2996 RMK AO1,M
CXP,2021-03-11 17:55,-119.7326,39.1923,1431.00,35.60,23.00,59.79,140.00,4.00,0.00,30.00,M,10.00,M,FEW,OVC,M,M,4100.00,5500.00,M,M,M,M,M,M,M,M,M,31.62,KCXP 111755Z AUTO 14004KT 10SM FEW041 OVC055 02/M05 A3000 RMK AO2,M
MEV,2021-03-11 17:55,-119.7500,38.9963,1441.42,33.80,21.20,59.53,0.00,0.00,0.00,29.99,M,10.00,M,BKN,BKN,M,M,4400.00,5000.00,M,M,M,M,M,M,M,M,M,33.80,KMEV 111755Z AUTO 00000KT 10SM BKN044 BKN050 01/M06 A2999 RMK AO2,M
TPH,2021-03-11 17:56,-117.0904,38.0505,1654.00,30.00,27.00,88.44,90.00,14.00,T,29.92,1015.00,3.00,M,BKN,OVC,M,M,1100.00,2500.00,M,M,-SN BR,M,M,M,M,M,M,18.58,KTPH 111756Z AUTO 09014KT 3SM -SN BR BKN011 OVC025 M01/M03 A2992 RMK AO2 SLP150 P0000 60013 T10111028 11011 21044 53011 $,M
EKO,2021-03-11 17:56,-115.7860,40.8242,1367.00,30.90,27.00,85.26,30.00,6.00,T,29.93,1015.40,1.00,M,BKN,OVC,M,M,1700.00,2900.00,M,M,-SN BR,M,M,M,M,M,M,24.21,KEKO 111756Z AUTO 03006KT 1SM -SN BR BKN017 OVC029 M01/M03 A2993 RMK AO2 SNB00 SLP154 P0000 60009 T10061028 11006 21017 51019,M
LAS,2021-03-11 17:56,-115.1634,36.0719,663.00,45.00,30.90,57.50,170.00,10.00,0.00,30.01,1016.20,10.00,16.00,SCT,BKN,BKN,M,7000.00,11000.00,20000.00,M,M,M,M,M,M,M,M,39.27,KLAS 111756Z 17010G16KT 10SM SCT070 BKN110 BKN200 07/M01 A3001 RMK AO2 SLP162 VIRGA DSNT E-S T00721006 10078 20061 51017,M
NFL,2021-03-11 17:56,-118.7010,39.4166,1199.00,38.00,26.10,62.14,320.00,4.00,0.00,29.98,1012.50,10.00,M,SCT,BKN,BKN,OVC,3500.00,5000.00,12000.00,15000.00,M,M,M,M,M,M,M,34.31,KNFL 111756Z 32004KT 10SM SCT035 BKN050 BKN120 OVC150 03/M03 A2998 RMK AO2 SLP125 T00331033 10033 21039 51014,M
HND,2021-03-11 17:56,-115.1344,35.9729,742.79,44.00,32.00,62.21,170.00,11.00,0.00,30.03,1019.10,10.00,M,SCT,BKN,OVC,M,2800.00,3400.00,5500.00,M,M,M,M,M,M,M,M,37.76,KHND 111756Z 17011KT 10SM SCT028 BKN034 OVC055 07/00 A3003 RMK AO2 SLP191 T00670000 10067 20050 51018,M
WMC,2021-03-11 17:56,-117.8072,40.9019,1315.00,33.00,28.90,84.36,310.00,6.00,0.01,29.97,1016.60,3.00,M,BKN,OVC,M,M,900.00,2000.00,M,M,-SN BR,M,M,M,M,M,M,26.86,KWMC 111756Z AUTO 31006KT 3SM -SN BR BKN009 OVC020 01/M02 A2997 RMK AO2 SLP166 P0001 60011 T00061017 10006 21017 51010,M
INS,2021-03-11 17:58,-115.6733,36.5872,955.00,44.00,20.10,37.99,120.00,7.00,0.00,29.95,1013.20,10.00,M,FEW,SCT,BKN,M,11000.00,16000.00,19000.00,M,M,M,M,M,M,M,M,39.53,KINS 111758Z AUTO 12007KT 10SM FEW110 SCT160 BKN190 07/M07 A2995 RMK AO2 SLP132 T00671066 10067 20003 52012 $,M
LSV,2021-03-11 17:58,-115.0343,36.2362,570.00,48.20,30.40,49.93,190.00,14.00,0.00,30.01,1016.10,10.00,M,BKN,BKN,M,M,7000.00,8500.00,M,M,M,M,M,M,M,M,M,42.04,KLSV 111758Z AUTO 19014KT 10SM BKN070 BKN085 09/M01 A3001 RMK AO2 SLP161 T00901009 10092 20066 52014 $,M
LSV,2021-03-11 18:06,-115.0343,36.2362,570.00,48.20,30.20,49.53,160.00,13.00,0.00,30.01,1016.10,10.00,M,SCT,SCT,BKN,BKN,7000.00,9000.00,13000.00,20000.00,M,M,M,M,M,M,M,42.32,KLSV 111806Z AUTO 16013KT 10SM SCT070 SCT090 BKN130 BKN200 09/M01 A3001 RMK AO2 WSHFT 1751 SLP161 $,M
CXP,2021-03-11 18:10,-119.7326,39.1923,1431.00,33.80,23.00,64.23,170.00,3.00,0.00,30.00,M,10.00,M,FEW,SCT,OVC,M,3000.00,4500.00,5500.00,M,M,M,M,M,M,M,M,30.75,KCXP 111810Z AUTO 17003KT 10SM FEW030 SCT045 OVC055 01/M05 A3000 RMK AO2,M
05U,2021-03-11 18:15,-116.0051,39.6042,1811.23,30.20,23.00,74.26,0.00,0.00,0.00,29.94,M,10.00,M,CLR,M,M,M,M,M,M,M,M,M,M,M,M,M,M,30.20,K05U 111815Z AUTO 00000KT 10SM CLR M01/M05 A2994 RMK A01,M
HTH,2021-03-11 18:15,-118.6315,38.5448,1282.89,37.40,26.60,64.70,320.00,8.00,0.00,30.00,M,10.00,M,SCT,BKN,OVC,M,2400.00,4200.00,6000.00,M,M,M,M,M,M,M,M,30.76,KHTH 111815Z AUTO 32008KT 10SM SCT024 BKN042 OVC060 03/M03 A3000 RMK A01,M
MEV,2021-03-11 18:15,-119.7500,38.9963,1441.42,35.60,21.20,55.41,M,5.00,0.00,29.99,M,10.00,M,BKN,OVC,M,M,4800.00,5500.00,M,M,M,M,M,M,M,M,M,30.67,KMEV 111815Z AUTO VRB05KT 10SM BKN048 OVC055 02/M06 A2999 RMK AO2,M
RTS,2021-03-11 18:15,-119.8764,39.6682,1539.00,32.00,21.20,63.99,320.00,5.00,0.00,30.00,M,10.00,M,BKN,OVC,M,M,2200.00,2800.00,M,M,M,M,M,M,M,M,M,26.40,KRTS 111815Z AUTO 32005KT 10SM BKN022 OVC028 M00/M06 A3000 RMK AO2,M
BVU,2021-03-11 18:15,-114.8611,35.9475,671.00,46.40,32.00,57.00,160.00,9.00,0.00,30.03,M,10.00,M,SCT,OVC,M,M,3700.00,4700.00,M,M,M,M,M,M,M,M,M,41.42,KBVU 111815Z AUTO 16009KT 10SM SCT037 OVC047 08/00 A3003 RMK AO2,M
TPH,2021-03-11 18:15,-117.0904,38.0505,1654.00,30.00,27.00,88.44,120.00,9.00,T,29.92,M,5.00,M,FEW,SCT,OVC,M,1100.00,1600.00,2500.00,M,-SN BR,M,M,M,M,M,M,21.03,KTPH 111815Z AUTO 12009KT 5SM -SN BR FEW011 SCT016 OVC025 M01/M03 A2992 RMK AO2 P0000 T10111028 $,M
WMC,2021-03-11 18:23,-117.8072,40.9019,1315.00,34.00,28.90,81.37,340.00,5.00,T,29.97,M,7.00,M,BKN,BKN,OVC,M,1000.00,2100.00,4700.00,M,-SN,M,M,M,M,M,M,28.77,KWMC 111823Z AUTO 34005KT 7SM -SN BKN010 BKN021 OVC047 01/M02 A2997 RMK AO2 P0000 T00111017,M
EKO,2021-03-11 18:24,-115.7860,40.8242,1367.00,32.00,27.00,81.55,20.00,4.00,0.01,29.94,M,2.50,M,BKN,OVC,M,M,2900.00,3600.00,M,M,-SN,M,M,M,M,M,M,27.42,KEKO 111824Z AUTO 02004KT 2 1/2SM -SN BKN029 OVC036 00/M03 A2994 RMK AO2 P0001 T00001028,M
WMC,2021-03-11 18:32,-117.8072,40.9019,1315.00,35.00,28.90,77.88,320.00,4.00,T,29.98,M,9.00,M,SCT,BKN,OVC,M,1000.00,4700.00,7000.00,M,M,M,M,M,M,M,M,31.04,KWMC 111832Z AUTO 32004KT 9SM SCT010 BKN047 OVC070 02/M02 A2998 RMK AO2 SNE30 P0000 T00171017,M
EKO,2021-03-11 18:33,-115.7860,40.8242,1367.00,32.00,27.00,81.55,30.00,4.00,0.01,29.94,M,4.00,M,BKN,OVC,M,M,3400.00,4600.00,M,M,-SN,M,M,M,M,M,M,27.42,KEKO 111833Z AUTO 03004KT 4SM -SN BKN034 OVC046 00/M03 A2994 RMK AO2 P0001 T00001028,M
05U,2021-03-11 18:35,-116.0051,39.6042,1811.23,32.00,23.00,69.04,0.00,0.00,0.00,29.94,M,4.00,M,FEW,FEW,FEW,M,2300.00,2700.00,3100.00,M,HZ,M,M,M,M,M,M,32.00,K05U 111835Z AUTO 00000KT 4SM HZ FEW023 FEW027 FEW031 00/M05 A2994 RMK A01,M
HTH,2021-03-11 18:35,-118.6315,38.5448,1282.89,37.40,24.80,60.04,340.00,10.00,0.00,30.00,M,10.00,M,FEW,SCT,OVC,M,2400.00,3400.00,5500.00,M,M,M,M,M,M,M,M,29.74,KHTH 111835Z AUTO 34010KT 10SM FEW024 SCT034 OVC055 03/M04 A3000 RMK A01,M
BAM,2021-03-11 18:35,-116.8743,40.5990,1382.36,33.80,33.80,100.00,220.00,4.00,0.00,29.97,M,4.00,M,SCT,OVC,M,M,700.00,1800.00,M,M,M,M,M,M,M,M,M,29.52,KBAM 111835Z AUTO 22004KT 4SM SCT007 OVC018 01/01 A2997 RMK AO1,M
TMT,2021-03-11 18:35,-117.1971,39.4643,1749.34,35.20,21.70,57.50,20.00,4.00,0.00,29.94,M,10.00,M,M,M,M,M,M,M,M,M,M,M,M,M,M,M,M,31.16,KTMT 111835Z AUTO 02004KT 10SM 02/M06 A2994 RMK AO2 T00181057,M
MEV,2021-03-11 18:35,-119.7500,38.9963,1441.42,33.80,19.40,55.14,310.00,5.00,0.00,29.99,M,10.00,M,FEW,BKN,BKN,M,4200.00,4800.00,5500.00,M,M,M,M,M,M,M,M,28.53,KMEV 111835Z AUTO 31005KT 10SM FEW042 BKN048 BKN055 01/M07 A2999 RMK AO2,M
RTS,2021-03-11 18:35,-119.8764,39.6682,1539.00,32.00,21.20,63.99,330.00,9.00,0.00,30.00,M,10.00,M,SCT,BKN,BKN,M,2500.00,3000.00,4900.00,M,M,M,M,M,M,M,M,23.51,KRTS 111835Z AUTO 33009KT 10SM SCT025 BKN030 BKN049 00/M06 A3000 RMK AO2,M
CXP,2021-03-11 18:35,-119.7326,39.1923,1431.00,35.60,23.00,59.79,0.00,0.00,0.00,30.00,M,10.00,M,FEW,OVC,M,M,4100.00,5000.00,M,M,M,M,M,M,M,M,M,35.60,KCXP 111835Z AUTO 00000KT 10SM FEW041 OVC050 02/M05 A3000 RMK AO2,M
BVU,2021-03-11 18:35,-114.8611,35.9475,671.00,46.40,30.20,53.00,150.00,5.00,0.00,30.03,M,10.00,M,FEW,BKN,BKN,M,3100.00,4400.00,5000.00,M,M,M,M,M,M,M,M,43.50,KBVU 111835Z AUTO 15005KT 10SM FEW031 BKN044 BKN050 08/M01 A3003 RMK AO2,M
TPH,2021-03-11 18:45,-117.0904,38.0505,1654.00,30.00,25.00,81.40,120.00,8.00,T,29.93,M,10.00,M,FEW,BKN,OVC,M,800.00,1300.00,2500.00,M,M,M,M,M,M,M,M,21.65,KTPH 111845Z AUTO 12008KT 10SM FEW008 BKN013 OVC025 M01/M04 A2993 RMK AO2 SNE30 P0000 T10111039 $,M
CXP,2021-03-11 18:50,-119.7326,39.1923,1431.00,35.60,23.00,59.79,M,3.00,0.00,30.00,M,10.00,M,OVC,M,M,M,5500.00,M,M,M,M,M,M,M,M,M,M,32.80,KCXP 111850Z AUTO VRB03KT 10SM OVC055 02/M05 A3000 RMK AO2,M
ELY,2021-03-11 18:53,-114.8453,39.2950,1909.00,32.00,24.10,72.30,M,M,0.00,29.91,1013.90,M,M,FEW,M,M,M,2700.00,M,M,M,M,M,M,M,M,M,M,M,KELY 111853Z AUTO FEW027 00/M04 A2991 RMK AO2 SLP139 T00001044 $,M
P68,2021-03-11 18:53,-116.0056,39.6014,1993.00,32.00,24.10,72.30,50.00,4.00,0.00,29.92,1013.80,M,M,M,M,M,M,M,M,M,M,M,M,M,M,M,M,M,27.42,KP68 111853Z AUTO 05004KT 00/M04 A2992 RMK AO1 SLP138 T00001044,M
VGT,2021-03-11 18:53,-115.1933,36.2111,667.00,48.00,28.90,47.32,150.00,10.00,0.00,29.96,1016.50,10.00,18.00,BKN,OVC,M,M,8000.00,9000.00,M,M,M,M,M,M,M,M,M,43.03,KVGT 111853Z 15010G18KT 10SM BKN080 OVC090 09/M02 A2996 RMK AO2 SLP165 T00891017,M
LOL,2021-03-11 18:53,-118.5701,40.0684,1192.43,38.00,27.00,64.49,280.00,3.00,0.00,30.00,1017.80,10.00,M,BKN,OVC,M,M,4000.00,5000.00,M,M,M,M,M,M,M,M,M,35.43,KLOL 111853Z AUTO 28003KT 10SM BKN040 OVC050 03/M03 A3000 RMK AO2 SLP178 T00331028,M
BVU,2021-03-11 18:55,-114.8611,35.9475,671.00,46.40,28.40,49.24,180.00,4.00,0.00,30.02,M,10.00,M,FEW,SCT,BKN,M,2900.00,3300.00,4900.00,M,M,M,M,M,M,M,M,44.24,KBVU 111855Z AUTO 18004KT 10SM FEW029 SCT033 BKN049 08/M02 A3002 RMK AO2,M
HTH,2021-03-11 18:55,-118.6315,38.5448,1282.89,37.40,23.00,55.68,340.00,10.00,0.00,30.00,M,10.00,M,BKN,OVC,M,M,6000.00,7000.00,M,M,M,M,M,M,M,M,M,29.74,KHTH 111855Z AUTO 34010KT 10SM BKN060 OVC070 03/M05 A3000 RMK A01,M
RTS,2021-03-11 18:55,-119.8764,39.6682,1539.00,32.00,21.20,63.99,330.00,10.00,0.00,30.01,M,10.00,M,BKN,BKN,BKN,M,2500.00,3000.00,4000.00,M,M,M,M,M,M,M,M,22.97,KRTS 111855Z AUTO 33010KT 10SM BKN025 BKN030 BKN040 00/M06 A3001 RMK AO2,M
TMT,2021-03-11 18:55,-117.1971,39.4643,1749.34,33.00,20.50,59.91,30.00,5.00,0.00,29.94,M,10.00,M,M,M,M,M,M,M,M,M,M,M,M,M,M,M,M,27.46,KTMT 111855Z AUTO 03005KT 10SM 01/M06 A2994 RMK AO2 T00051064,M
RNO,2021-03-11 18:55,-119.7711,39.4839,1341.00,37.00,19.90,49.61,330.00,6.00,0.00,30.00,1016.60,10.00,M,FEW,BKN,BKN,BKN,3000.00,5000.00,12000.00,25000.00,M,M,M,M,M,M,M,31.55,KRNO 111855Z 33006KT 10SM FEW030 BKN050 BKN120 BKN250 03/M07 A3000 RMK AO2 SLP166 MTN TOPS OBSCD SW THRU NW T00281067,M
05U,2021-03-11 18:55,-116.0051,39.6042,1811.23,33.80,23.00,64.23,60.00,3.00,0.03,29.94,M,10.00,M,CLR,M,M,M,M,M,M,M,M,M,M,M,M,M,M,30.75,K05U 111855Z AUTO 06003KT 10SM CLR 01/M05 A2994 RMK A01 P0003,M
BAM,2021-03-11 18:55,-116.8743,40.5990,1382.36,33.80,32.00,93.03,230.00,3.00,0.00,29.98,M,5.00,M,BKN,OVC,M,M,1600.00,2200.00,M,M,M,M,M,M,M,M,M,30.75,KBAM 111855Z AUTO 23003KT 5SM BKN016 OVC022 01/00 A2998 RMK AO1,M
MEV,2021-03-11 18:55,-119.7500,38.9963,1441.42,35.60,17.60,47.51,0.00,0.00,0.00,29.99,M,10.00,M,BKN,M,M,M,5000.00,M,M,M,M,M,M,M,M,M,M,35.60,KMEV 111855Z AUTO 00000KT 10SM BKN050 02/M08 A2999 RMK AO2,M
HND,2021-03-11 18:56,-115.1344,35.9729,742.79,47.00,30.00,51.58,190.00,11.00,T,30.02,1018.60,10.00,M,FEW,SCT,M,M,3700.00,4500.00,M,M,M,M,M,M,M,M,M,41.30,KHND 111856Z 19011KT 10SM FEW037 SCT045 08/M01 A3002 RMK AO2 RAB1757E34 SLP186 P0000 T00831011,M
EKO,2021-03-11 18:56,-115.7860,40.8242,1367.00,33.00,26.10,75.18,40.00,3.00,0.01,29.95,1016.00,10.00,M,SCT,BKN,BKN,M,1100.00,4300.00,5000.00,M,M,M,M,M,M,M,M,29.95,KEKO 111856Z AUTO 04003KT 10SM SCT011 BKN043 BKN050 01/M03 A2995 RMK AO2 SNE38 SLP160 P0001 T00061033,M
TPH,2021-03-11 18:56,-117.0904,38.0505,1654.00,30.00,25.00,81.40,120.00,10.00,T,29.93,1015.50,10.00,M,BKN,M,M,M,1100.00,M,M,M,M,M,M,M,M,M,M,20.46,KTPH 111856Z AUTO 12010KT 10SM BKN011 M01/M04 A2993 RMK AO2 SNE30 SLP155 P0000 T10111039 $,M
NFL,2021-03-11 18:56,-118.7010,39.4166,1199.00,41.00,24.10,50.67,40.00,5.00,0.00,29.99,1012.60,10.00,M,SCT,BKN,OVC,M,3000.00,5000.00,12000.00,M,M,M,M,M,M,M,M,37.08,KNFL 111856Z 04005KT 10SM SCT030 BKN050 OVC120 05/M04 A2999 RMK AO2 SLP126 T00501044,M
WMC,2021-03-11 18:56,-117.8072,40.9019,1315.00,37.00,27.00,66.82,40.00,4.00,T,29.98,1016.40,10.00,M,FEW,SCT,BKN,M,3200.00,5000.00,6000.00,M,M,M,M,M,M,M,M,33.26,KWMC 111856Z AUTO 04004KT 10SM FEW032 SCT050 BKN060 03/M03 A2998 RMK AO2 SNE30 SLP164 P0000 T00281028,M
LAS,2021-03-11 18:56,-115.1634,36.0719,663.00,48.00,30.90,51.34,150.00,7.00,0.00,30.01,1016.00,10.00,M,FEW,BKN,BKN,M,4000.00,7000.00,11000.00,M,M,M,M,M,M,M,M,44.28,KLAS 111856Z 15007KT 10SM FEW040 BKN070 BKN110 09/M01 A3001 RMK AO2 SLP160 VIRGA DSNT S T00891006,M
INS,2021-03-11 18:58,-115.6733,36.5872,955.00,46.00,19.00,33.85,130.00,7.00,0.00,29.95,1013.20,10.00,M,FEW,SCT,BKN,M,8500.00,14000.00,18000.00,M,M,M,M,M,M,M,M,41.72,KINS 111858Z AUTO 13007KT 10SM FEW085 SCT140 BKN180 08/M07 A2995 RMK AO2 SLP132 T00771072 $,M
LSV,2021-03-11 18:58,-115.0343,36.2362,570.00,48.70,29.50,47.24,150.00,11.00,0.00,30.01,1016.10,10.00,M,FEW,FEW,SCT,M,4700.00,18000.00,21000.00,M,M,M,M,M,M,M,M,43.57,KLSV 111858Z AUTO 15011KT 10SM FEW047 FEW180 SCT210 09/M01 A3001 RMK AO2 SLP161 T00931014 $,M
EKO,2021-03-11 19:02,-115.7860,40.8242,1367.00,34.00,26.10,72.52,20.00,3.00,0.00,29.95,M,10.00,M,BKN,BKN,BKN,M,900.00,4500.00,5000.00,M,M,M,M,M,M,M,M,30.97,KEKO 111902Z AUTO 02003KT 10SM BKN009 BKN045 BKN050 01/M03 A2995 RMK AO2 T00111033,M
EKO,2021-03-11 19:08,-115.7860,40.8242,1367.00,34.00,26.10,72.52,50.00,3.00,0.00,29.96,M,10.00,M,SCT,BKN,OVC,M,1100.00,4700.00,6000.00,M,M,M,M,M,M,M,M,30.97,KEKO 111908Z AUTO 05003KT 10SM SCT011 BKN047 OVC060 01/M03 A2996 RMK AO2 T00111033,M
CXP,2021-03-11 19:10,-119.7326,39.1923,1431.00,37.40,21.20,51.61,M,4.00,0.00,30.00,M,10.00,M,BKN,BKN,OVC,M,3800.00,4700.00,5500.00,M,M,M,M,M,M,M,M,33.73,KCXP 111910Z AUTO VRB04KT 10SM BKN038 BKN047 OVC055 03/M06 A3000 RMK AO2,M
WMC,2021-03-11 19:11,-117.8072,40.9019,1315.00,37.00,27.00,66.82,M,6.00,0.01,29.99,M,10.00,M,SCT,BKN,BKN,M,2100.00,2700.00,4000.00,M,M,M,M,M,M,M,M,31.55,KWMC 111911Z AUTO VRB06KT 10SM SCT021 BKN027 BKN040 03/M03 A2999 RMK AO2 P0001 T00281028,M
BAM,2021-03-11 19:15,-116.8743,40.5990,1382.36,33.80,32.00,93.03,260.00,4.00,0.00,29.99,M,10.00,M,SCT,BKN,OVC,M,700.00,1600.00,2200.00,M,M,M,M,M,M,M,M,29.52,KBAM 111915Z AUTO 26004KT 10SM SCT007 BKN016 OVC022 01/00 A2999 RMK AO1,M
BVU,2021-03-11 19:15,-114.8611,35.9475,671.00,48.20,30.20,49.53,150.00,3.00,0.00,30.02,M,10.00,M,FEW,SCT,BKN,M,3200.00,4800.00,5500.00,M,M,M,M,M,M,M,M,47.21,KBVU 111915Z AUTO 15003KT 10SM FEW032 SCT048 BKN055 09/M01 A3002 RMK AO2,M
05U,2021-03-11 19:15,-116.0051,39.6042,1811.23,33.80,24.80,69.25,70.00,5.00,0.00,29.94,M,10.00,M,CLR,M,M,M,M,M,M,M,M,M,M,M,M,M,M,28.53,K05U 111915Z AUTO 07005KT 10SM CLR 01/M04 A2994 RMK A01,M
MEV,2021-03-11 19:15,-119.7500,38.9963,1441.42,37.40,19.40,47.80,M,3.00,0.00,29.99,M,10.00,M,OVC,M,M,M,5000.00,M,M,M,M,M,M,M,M,M,M,34.86,KMEV 111915Z AUTO VRB03KT 10SM OVC050 03/M07 A2999 RMK AO2,M
HTH,2021-03-11 19:15,-118.6315,38.5448,1282.89,39.20,23.00,51.89,310.00,5.00,0.00,30.00,M,10.00,12.00,OVC,M,M,M,5500.00,M,M,M,M,M,M,M,M,M,M,34.95,KHTH 111915Z AUTO 31005G12KT 10SM OVC055 04/M05 A3000 RMK A01,M
RTS,2021-03-11 19:15,-119.8764,39.6682,1539.00,32.00,21.20,63.99,360.00,5.00,0.00,30.01,M,10.00,M,SCT,BKN,M,M,2600.00,3900.00,M,M,M,M,M,M,M,M,M,26.40,KRTS 111915Z AUTO 36005KT 10SM SCT026 BKN039 00/M06 A3001 RMK AO2,M
TMT,2021-03-11 19:15,-117.1971,39.4643,1749.34,35.00,20.50,55.31,270.00,3.00,0.00,29.94,M,10.00,M,M,M,M,M,M,M,M,M,M,M,M,M,M,M,M,32.00,KTMT 111915Z AUTO 27003KT 10SM 02/M06 A2994 RMK AO2 T00161064,M
WMC,2021-03-11 19:24,-117.8072,40.9019,1315.00,37.00,25.00,61.50,20.00,6.00,0.02,29.99,M,10.00,M,FEW,SCT,OVC,M,2100.00,2800.00,4400.00,M,M,M,M,M,M,M,M,31.55,KWMC 111924Z AUTO 02006KT 10SM FEW021 SCT028 OVC044 03/M04 A2999 RMK AO2 P0002 T00281039,M
TPH,2021-03-11 19:27,-117.0904,38.0505,1654.00,28.90,25.00,85.14,150.00,7.00,0.00,29.94,M,10.00,M,SCT,M,M,M,1000.00,M,M,M,M,M,M,M,M,M,M,21.00,KTPH 111927Z AUTO 15007KT 10SM SCT010 M02/M04 A2994 RMK AO2 T10171039 $,M
CXP,2021-03-11 19:30,-119.7326,39.1923,1431.00,37.40,19.40,47.80,0.00,0.00,0.00,30.00,M,10.00,M,BKN,BKN,OVC,M,4000.00,4700.00,5500.00,M,M,M,M,M,M,M,M,37.40,KCXP 111930Z AUTO 00000KT 10SM BKN040 BKN047 OVC055 03/M07 A3000 RMK AO2,M
TPH,2021-03-11 19:34,-117.0904,38.0505,1654.00,28.90,25.00,85.14,150.00,7.00,0.00,29.94,M,10.00,M,SCT,M,M,M,800.00,M,M,M,M,M,M,M,M,M,M,21.00,KTPH 111934Z AUTO 15007KT 10SM SCT008 M02/M04 A2994 RMK AO2 T10171039 $,M
BAM,2021-03-11 19:35,-116.8743,40.5990,1382.36,35.60,32.00,86.59,250.00,3.00,0.00,29.99,M,2.50,M,SCT,BKN,OVC,M,700.00,1600.00,2800.00,M,M,M,M,M,M,M,M,32.80,KBAM 111935Z AUTO 25003KT 2 1/2SM SCT007 BKN016 OVC028 02/00 A2999 RMK AO1,M
TMT,2021-03-11 19:35,-117.1971,39.4643,1749.34,34.50,20.80,56.92,50.00,4.00,0.00,29.94,M,10.00,M,M,M,M,M,M,M,M,M,M,M,M,M,M,M,M,30.34,KTMT 111935Z AUTO 05004KT 10SM 01/M06 A2994 RMK AO2 T00141062,M
RTS,2021-03-11 19:35,-119.8764,39.6682,1539.00,33.80,21.20,59.53,320.00,7.00,0.00,30.01,M,10.00,12.00,FEW,SCT,BKN,M,2500.00,3100.00,3900.00,M,M,M,M,M,M,M,M,26.97,KRTS 111935Z AUTO 32007G12KT 10SM FEW025 SCT031 BKN039 01/M06 A3001 RMK AO2,M
HTH,2021-03-11 19:35,-118.6315,38.5448,1282.89,41.00,21.20,44.85,320.00,10.00,0.00,29.99,M,10.00,M,FEW,OVC,M,M,3300.00,5500.00,M,M,M,M,M,M,M,M,M,34.25,KHTH 111935Z AUTO 32010KT 10SM FEW033 OVC055 05/M06 A2999 RMK A01,M
05U,2021-03-11 19:35,-116.0051,39.6042,1811.23,32.00,23.00,69.04,70.00,4.00,0.00,29.95,M,10.00,M,CLR,M,M,M,M,M,M,M,M,M,M,M,M,M,M,27.42,K05U 111935Z AUTO 07004KT 10SM CLR 00/M05 A2995 RMK A01,M
BVU,2021-03-11 19:35,-114.8611,35.9475,671.00,48.20,28.40,46.02,M,5.00,0.00,30.02,M,10.00,M,SCT,BKN,BKN,M,4100.00,4800.00,5500.00,M,M,M,M,M,M,M,M,45.63,KBVU 111935Z AUTO VRB05KT 10SM SCT041 BKN048 BKN055 09/M02 A3002 RMK AO2,M
MEV,2021-03-11 19:35,-119.7500,38.9963,1441.42,37.40,17.60,44.25,320.00,5.00,0.00,30.00,M,10.00,M,SCT,BKN,M,M,3900.00,5500.00,M,M,M,M,M,M,M,M,M,32.81,KMEV 111935Z AUTO 32005KT 10SM SCT039 BKN055 03/M08 A3000 RMK AO2,M
INS,2021-03-11 19:48,-115.6733,36.5872,955.00,46.40,23.00,39.36,140.00,13.00,0.00,29.94,1012.90,10.00,M,FEW,FEW,SCT,SCT,7000.00,9000.00,11000.00,13000.00,M,M,M,M,M,M,M,40.02,KINS 111948Z AUTO 14013KT 10SM FEW070 FEW090 SCT110 SCT130 BKN190 08/M05 A2994 RMK AO2 WSHFT 39 SLP129 $,M
CXP,2021-03-11 19:50,-119.7326,39.1923,1431.00,41.00,24.80,52.17,100.00,4.00,0.00,30.00,M,10.00,M,FEW,SCT,OVC,M,4300.00,4800.00,5500.00,M,M,M,M,M,M,M,M,37.93,KCXP 111950Z AUTO 10004KT 10SM FEW043 SCT048 OVC055 05/M04 A3000 RMK AO2,M
LOL,2021-03-11 19:53,-118.5701,40.0684,1192.43,38.00,30.90,75.64,20.00,6.00,T,30.00,1018.10,3.00,M,SCT,BKN,OVC,M,2700.00,3500.00,4300.00,M,-SN,M,M,M,M,M,M,32.64,KLOL 111953Z AUTO 02006KT 3SM -SN SCT027 BKN035 OVC043 03/M01 A3000 RMK AO2 SNB01E16B52 SLP181 P0000 T00331006,M
VGT,2021-03-11 19:53,-115.1933,36.2111,667.00,49.00,28.00,44.10,140.00,12.00,0.00,29.96,1016.20,10.00,M,OVC,M,M,M,9000.00,M,M,M,M,M,M,M,M,M,M,43.51,KVGT 111953Z 14012KT 10SM OVC090 09/M02 A2996 RMK AO2 SLP162 T00941022,M
ELY,2021-03-11 19:53,-114.8453,39.2950,1909.00,33.00,21.90,63.06,190.00,8.00,0.00,29.91,1013.70,M,M,FEW,SCT,BKN,M,3400.00,4400.00,6000.00,M,M,M,M,M,M,M,M,25.47,KELY 111953Z AUTO 19008KT FEW034 SCT044 BKN060 01/M06 A2991 RMK AO2 SLP137 T00061056 $,M
P68,2021-03-11 19:53,-116.0056,39.6014,1993.00,32.00,25.00,75.07,50.00,5.00,0.00,29.92,1013.80,M,M,M,M,M,M,M,M,M,M,M,M,M,M,M,M,M,26.40,KP68 111953Z AUTO 05005KT 00/M04 A2992 RMK AO1 SLP138 T00001039,M
EKO,2021-03-11 19:53,-115.7860,40.8242,1367.00,35.60,26.60,69.46,360.00,5.00,0.00,29.96,M,10.00,M,BKN,M,M,M,1700.00,M,M,M,M,M,M,M,M,M,M,30.67,KEKO 111953Z AUTO 36005KT 10SM BKN017 02/M03 A2996 RMK AO2,M
HTH,2021-03-11 19:55,-118.6315,38.5448,1282.89,41.00,21.20,44.85,310.00,9.00,0.00,29.99,M,10.00,M,BKN,OVC,M,M,6000.00,7000.00,M,M,M,M,M,M,M,M,M,34.70,KHTH 111955Z AUTO 31009KT 10SM BKN060 OVC070 05/M06 A2999 RMK A01,M
BAM,2021-03-11 19:55,-116.8743,40.5990,1382.36,33.80,32.00,93.03,0.00,0.00,0.00,29.99,M,4.00,M,BKN,BKN,OVC,M,700.00,1500.00,3000.00,M,M,M,M,M,M,M,M,33.80,KBAM 111955Z AUTO 00000KT 4SM BKN007 BKN015 OVC030 01/00 A2999 RMK AO1,M
TMT,2021-03-11 19:55,-117.1971,39.4643,1749.34,34.00,23.20,64.26,340.00,7.00,0.00,29.94,M,10.00,M,M,M,M,M,M,M,M,M,M,M,M,M,M,M,M,27.22,KTMT 111955Z AUTO 34007KT 10SM 01/M05 A2994 RMK AO2 T00111049,M
05U,2021-03-11 19:55,-116.0051,39.6042,1811.23,33.80,24.80,69.25,M,M,0.06,29.95,M,10.00,M,CLR,M,M,M,M,M,M,M,M,M,M,M,M,M,M,M,K05U 111955Z AUTO 5/00000005KT 10SM CLR 01/M04 A2995 RMK A01 P0006,M
MEV,2021-03-11 19:55,-119.7500,38.9963,1441.42,37.40,15.80,40.93,0.00,0.00,0.00,29.99,M,10.00,M,FEW,BKN,M,M,4000.00,5500.00,M,M,M,M,M,M,M,M,M,37.40,KMEV 111955Z AUTO 00000KT 10SM FEW040 BKN055 03/M09 A2999 RMK AO2,M
RNO,2021-03-11 19:55,-119.7711,39.4839,1341.00,38.00,21.00,50.18,330.00,7.00,0.00,30.01,1017.00,10.00,14.00,FEW,SCT,BKN,BKN,4200.00,5500.00,7000.00,14000.00,M,M,M,M,M,M,M,31.97,KRNO 111955Z 33007G14KT 10SM FEW042 SCT055 BKN070 BKN140 BKN200 03/M06 A3001 RMK AO2 SLP170 MTN TOPS OBSCD DSNT SW THRU NW T00331061,M
BVU,2021-03-11 19:55,-114.8611,35.9475,671.00,48.20,28.40,46.02,130.00,3.00,0.00,30.02,M,10.00,M,FEW,SCT,SCT,M,4200.00,5500.00,6500.00,M,M,M,M,M,M,M,M,47.21,KBVU 111955Z AUTO 13003KT 10SM FEW042 SCT055 SCT065 09/M02 A3002 RMK AO2,M
RTS,2021-03-11 19:55,-119.8764,39.6682,1539.00,33.80,23.00,64.23,20.00,9.00,0.00,30.01,M,10.00,16.00,SCT,OVC,M,M,2900.00,4200.00,M,M,M,M,M,M,M,M,M,25.75,KRTS 111955Z AUTO 02009G16KT 10SM SCT029 OVC042 01/M05 A3001 RMK AO2,M
WMC,2021-03-11 19:56,-117.8072,40.9019,1315.00,40.00,26.10,57.47,30.00,10.00,0.02,29.99,1016.40,10.00,M,FEW,SCT,OVC,M,2800.00,3700.00,4500.00,M,M,M,M,M,M,M,M,32.87,KWMC 111956Z AUTO 03010KT 10SM FEW028 SCT037 OVC045 04/M03 A2999 RMK AO2 SLP164 P0002 T00441033,M
NFL,2021-03-11 19:56,-118.7010,39.4166,1199.00,41.00,24.10,50.67,20.00,5.00,0.00,29.99,1012.70,10.00,M,SCT,BKN,BKN,OVC,4000.00,5500.00,12000.00,18000.00,M,M,M,M,M,M,M,37.08,KNFL 111956Z 02005KT 10SM SCT040 BKN055 BKN120 OVC180 05/M04 A2999 RMK AO2 SLP127 T00501044,M
LAS,2021-03-11 19:56,-115.1634,36.0719,663.00,49.00,25.00,38.95,230.00,6.00,0.00,30.00,1015.90,10.00,M,FEW,BKN,BKN,BKN,4000.00,7000.00,11000.00,20000.00,M,M,M,M,M,M,M,45.88,KLAS 111956Z 23006KT 10SM FEW040 BKN070 BKN110 BKN200 09/M04 A3000 RMK AO2 SLP159 VIRGA DSNT NE AND W T00941039,M
HND,2021-03-11 19:56,-115.1344,35.9729,742.79,49.00,28.90,45.75,180.00,3.00,0.00,30.01,1018.20,10.00,M,FEW,M,M,M,5500.00,M,M,M,M,M,M,M,M,M,M,48.01,KHND 111956Z 18003KT 10SM FEW055 09/M02 A3001 RMK AO2 SLP182 T00941017,M
EKO,2021-03-11 19:56,-115.7860,40.8242,1367.00,35.00,25.00,66.31,350.00,4.00,0.00,29.96,1015.90,10.00,M,BKN,M,M,M,1700.00,M,M,M,M,M,M,M,M,M,M,31.04,KEKO 111956Z AUTO 35004KT 10SM BKN017 02/M04 A2996 RMK AO2 SLP159 T00171039,M
TPH,2021-03-11 19:56,-117.0904,38.0505,1654.00,30.00,25.00,81.40,150.00,8.00,0.00,29.94,1016.10,10.00,M,FEW,SCT,SCT,M,700.00,7000.00,8500.00,M,M,M,M,M,M,M,M,21.65,KTPH 111956Z AUTO 15008KT 10SM FEW007 SCT070 SCT085 M01/M04 A2994 RMK AO2 SLP161 T10111039 $,M
LSV,2021-03-11 19:58,-115.0343,36.2362,570.00,49.00,29.10,46.13,170.00,9.00,0.00,30.01,1016.10,10.00,M,FEW,FEW,SCT,M,15000.00,17000.00,21000.00,M,M,M,M,M,M,M,M,44.53,KLSV 111958Z AUTO 17009KT 10SM FEW150 FEW170 SCT210 09/M02 A3001 RMK AO2 SLP161 T00941016 $,M
INS,2021-03-11 19:58,-115.6733,36.5872,955.00,45.30,23.50,41.90,160.00,15.00,0.00,29.95,1013.50,10.00,M,SCT,SCT,BKN,BKN,8000.00,11000.00,14000.00,17000.00,M,M,M,M,M,M,M,38.02,KINS 111958Z AUTO 16015KT 10SM SCT080 SCT110 BKN140 BKN170 BKN190 07/M05 A2995 RMK AO2 SLP135 T00741047 $,M
INS,2021-03-11 20:08,-115.6733,36.5872,955.00,44.60,24.80,45.44,160.00,13.00,0.00,29.95,1013.50,10.00,M,SCT,BKN,BKN,BKN,7000.00,9000.00,11000.00,19000.00,M,M,M,M,M,M,M,37.71,KINS 112008Z AUTO 16013KT 10SM SCT070 BKN090 BKN110 BKN190 07/M04 A2995 RMK AO2 SLP135 $,M
CXP,2021-03-11 20:10,-119.7326,39.1923,1431.00,41.00,21.20,44.85,0.00,0.00,0.00,30.00,M,10.00,M,BKN,OVC,M,M,4700.00,5500.00,M,M,M,M,M,M,M,M,M,41.00,KCXP 112010Z AUTO 00000KT 10SM BKN047 OVC055 05/M06 A3000 RMK AO2,M
TMT,2021-03-11 20:15,-117.1971,39.4643,1749.34,33.80,22.10,61.84,340.00,4.00,0.00,29.94,M,10.00,M,M,M,M,M,M,M,M,M,M,M,M,M,M,M,M,29.52,KTMT 112015Z AUTO 34004KT 10SM 01/M05 A2994 RMK AO2 T00101055,M
05U,2021-03-11 20:15,-116.0051,39.6042,1811.23,33.80,21.20,59.53,60.00,5.00,0.00,29.94,M,10.00,M,CLR,M,M,M,M,M,M,M,M,M,M,M,M,M,M,28.53,K05U 112015Z AUTO 06005KT 10SM CLR 01/M06 A2994 RMK A01,M
BAM,2021-03-11 20:15,-116.8743,40.5990,1382.36,33.80,33.80,100.00,0.00,0.00,0.00,29.99,M,2.00,M,OVC,M,M,M,700.00,M,M,M,M,M,M,M,M,M,M,33.80,KBAM 112015Z AUTO 00000KT 2SM OVC007 01/01 A2999 RMK AO1,M
RTS,2021-03-11 20:15,-119.8764,39.6682,1539.00,33.80,23.00,64.23,360.00,9.00,0.00,30.01,M,10.00,M,FEW,BKN,OVC,M,2800.00,3800.00,4400.00,M,-RA,M,M,M,M,M,M,25.75,KRTS 112015Z AUTO 36009KT 10SM -RA FEW028 BKN038 OVC044 01/M05 A3001 RMK AO2,M
HTH,2021-03-11 20:15,-118.6315,38.5448,1282.89,41.00,19.40,41.54,360.00,16.00,0.00,29.98,M,10.00,M,FEW,BKN,BKN,M,4500.00,6000.00,7000.00,M,M,M,M,M,M,M,M,32.15,KHTH 112015Z AUTO 36016KT 10SM FEW045 BKN060 BKN070 05/M07 A2998 RMK A01,M
BVU,2021-03-11 20:15,-114.8611,35.9475,671.00,48.20,32.00,53.27,140.00,8.00,0.00,30.01,M,10.00,M,FEW,SCT,BKN,M,5000.00,6000.00,9000.00,M,M,M,M,M,M,M,M,44.07,KBVU 112015Z AUTO 14008KT 10SM FEW050 SCT060 BKN090 09/M00 A3001 RMK AO2,M
MEV,2021-03-11 20:15,-119.7500,38.9963,1441.42,39.20,15.80,38.15,340.00,9.00,0.00,29.99,M,10.00,M,OVC,M,M,M,5500.00,M,M,M,M,M,M,M,M,M,M,32.47,KMEV 112015Z AUTO 34009KT 10SM OVC055 04/M09 A2999 RMK AO2,M
EKO,2021-03-11 20:19,-115.7860,40.8242,1367.00,36.00,25.00,63.98,360.00,6.00,0.00,29.96,M,10.00,M,SCT,M,M,M,2000.00,M,M,M,M,M,M,M,M,M,M,30.35,KEKO 112019Z AUTO 36006KT 10SM SCT020 02/M04 A2996 RMK AO2 T00221039,M
INS,2021-03-11 20:28,-115.6733,36.5872,955.00,42.80,24.80,48.67,190.00,12.00,0.00,29.95,1013.50,10.00,M,SCT,BKN,M,M,7000.00,19000.00,M,M,M,M,M,M,M,M,M,35.75,KINS 112028Z AUTO 19012KT 10SM SCT070 BKN190 06/M04 A2995 RMK AO2 SLP135 $,M
CXP,2021-03-11 20:30,-119.7326,39.1923,1431.00,39.20,19.40,44.55,0.00,0.00,0.00,30.00,M,10.00,M,OVC,M,M,M,4900.00,M,M,M,M,M,M,M,M,M,M,39.20,KCXP 112030Z AUTO 00000KT 10SM OVC049 04/M07 A3000 RMK AO2,M
HTH,2021-03-11 20:35,-118.6315,38.5448,1282.89,41.00,19.40,41.54,350.00,12.00,0.00,29.98,M,10.00,17.00,FEW,FEW,SCT,M,4500.00,6000.00,7000.00,M,M,M,M,M,M,M,M,33.46,KHTH 112035Z AUTO 35012G17KT 10SM FEW045 FEW060 SCT070 05/M07 A2998 RMK A01,M
05U,2021-03-11 20:35,-116.0051,39.6042,1811.23,35.60,21.20,55.41,60.00,5.00,0.00,29.94,M,10.00,M,CLR,M,M,M,M,M,M,M,M,M,M,M,M,M,M,30.67,K05U 112035Z AUTO 06005KT 10SM CLR 02/M06 A2994 RMK A01,M
BVU,2021-03-11 20:35,-114.8611,35.9475,671.00,48.20,33.80,57.26,160.00,11.00,0.00,30.01,M,10.00,M,SCT,BKN,OVC,M,3700.00,5500.00,9000.00,M,M,M,M,M,M,M,M,42.94,KBVU 112035Z AUTO 16011KT 10SM SCT037 BKN055 OVC090 09/01 A3001 RMK AO2,M
RTS,2021-03-11 20:35,-119.8764,39.6682,1539.00,33.80,23.00,64.23,340.00,10.00,0.00,30.01,M,10.00,16.00,FEW,OVC,M,M,2700.00,3700.00,M,M,M,M,M,M,M,M,M,25.23,KRTS 112035Z AUTO 34010G16KT 10SM FEW027 OVC037 01/M05 A3001 RMK AO2,M
MEV,2021-03-11 20:35,-119.7500,38.9963,1441.42,39.20,15.80,38.15,350.00,8.00,0.00,29.98,M,10.00,M,FEW,BKN,M,M,4900.00,6000.00,M,M,M,M,M,M,M,M,M,32.98,KMEV 112035Z AUTO 35008KT 10SM FEW049 BKN060 04/M09 A2998 RMK AO2,M
TMT,2021-03-11 20:35,-117.1971,39.4643,1749.34,35.20,20.80,55.35,90.00,3.00,0.00,29.93,M,10.00,M,M,M,M,M,M,M,M,M,M,M,M,M,M,M,M,32.35,KTMT 112035Z AUTO 09003KT 10SM 02/M06 A2993 RMK AO2 T00181062,M
BAM,2021-03-11 20:35,-116.8743,40.5990,1382.36,35.60,33.80,93.08,0.00,0.00,0.00,30.00,M,5.00,M,BKN,OVC,M,M,700.00,1600.00,M,M,M,M,M,M,M,M,M,35.60,KBAM 112035Z AUTO 00000KT 5SM BKN007 OVC016 02/01 A3000 RMK AO1,M
TPH,2021-03-11 20:46,-117.0904,38.0505,1654.00,30.90,25.00,78.48,140.00,5.00,0.00,29.94,M,10.00,M,BKN,M,M,M,800.00,M,M,M,M,M,M,M,M,M,M,25.09,KTPH 112046Z AUTO 14005KT 10SM BKN008 M01/M04 A2994 RMK AO2 T10061039 $,M
CXP,2021-03-11 20:50,-119.7326,39.1923,1431.00,39.20,19.40,44.55,340.00,9.00,0.00,29.99,M,10.00,M,BKN,OVC,M,M,4400.00,5000.00,M,M,M,M,M,M,M,M,M,32.47,KCXP 112050Z AUTO 34009KT 10SM BKN044 OVC050 04/M07 A2999 RMK AO2,M
P68,2021-03-11 20:53,-116.0056,39.6014,1993.00,34.00,23.00,63.72,40.00,6.00,0.00,29.92,1013.60,M,M,M,M,M,M,M,M,M,M,M,M,M,M,M,M,M,27.94,KP68 112053Z AUTO 04006KT 01/M05 A2992 RMK AO1 SLP136 T00111050 50001,M
LOL,2021-03-11 20:53,-118.5701,40.0684,1192.43,39.00,33.00,79.17,40.00,8.00,T,30.00,1017.80,6.00,M,FEW,SCT,OVC,M,2200.00,2600.00,3700.00,M,-RA,M,M,M,M,M,M,32.74,KLOL 112053Z AUTO 04008KT 6SM -RA FEW022 SCT026 OVC037 04/01 A3000 RMK AO2 RAB32SNE09 SLP178 P0000 60000 T00390006 50003,M
ELY,2021-03-11 20:53,-114.8453,39.2950,1909.00,30.00,21.90,71.48,M,M,0.02,29.91,1014.40,M,M,FEW,BKN,OVC,M,3000.00,3600.00,6000.00,M,-SN,M,M,M,M,M,M,M,KELY 112053Z AUTO -SN FEW030 BKN036 OVC060 M01/M06 A2991 RMK AO2 SNB32 SLP144 P0002 60002 T10111056 51003 $,M
VGT,2021-03-11 20:53,-115.1933,36.2111,667.00,53.00,26.10,34.90,140.00,10.00,0.00,29.93,1015.40,10.00,M,FEW,FEW,M,M,7000.00,11000.00,M,M,M,M,M,M,M,M,M,53.10,KVGT 112053Z 14010KT 10SM FEW070 FEW110 12/M03 A2993 RMK AO2 SLP154 T01171033 58009,M
HTH,2021-03-11 20:55,-118.6315,38.5448,1282.89,42.80,19.40,38.75,360.00,9.00,0.00,29.98,M,10.00,16.00,FEW,BKN,M,M,4600.00,6000.00,M,M,M,M,M,M,M,M,M,36.94,KHTH 112055Z AUTO 36009G16KT 320V020 10SM FEW046 BKN060 06/M07 A2998 RMK A01,M
05U,2021-03-11 20:55,-116.0051,39.6042,1811.23,35.60,21.20,55.41,60.00,4.00,0.02,29.94,M,10.00,M,CLR,M,M,M,M,M,M,M,M,M,M,M,M,M,M,31.62,K05U 112055Z AUTO 06004KT 10SM CLR 02/M06 A2994 RMK A01 P0002,M
TMT,2021-03-11 20:55,-117.1971,39.4643,1749.34,38.30,19.40,46.14,350.00,3.00,0.00,29.92,M,10.00,M,M,M,M,M,M,M,M,M,M,M,M,M,M,M,M,35.89,KTMT 112055Z AUTO 35003KT 10SM 04/M07 A2992 RMK AO2 T00351070,M
RTS,2021-03-11 20:55,-119.8764,39.6682,1539.00,35.60,23.00,59.79,320.00,10.00,0.00,30.00,M,10.00,M,FEW,OVC,M,M,2800.00,3700.00,M,M,M,M,M,M,M,M,M,27.48,KRTS 112055Z AUTO 32010KT 10SM FEW028 OVC037 02/M05 A3000 RMK AO2,M
BAM,2021-03-11 20:55,-116.8743,40.5990,1382.36,35.60,35.60,100.00,40.00,4.00,0.00,29.99,M,4.00,M,BKN,OVC,M,M,700.00,1600.00,M,M,M,M,M,M,M,M,M,31.62,KBAM 112055Z AUTO 04004KT 4SM BKN007 OVC016 02/02 A2999 RMK AO1,M
RNO,2021-03-11 20:55,-119.7711,39.4839,1341.00,39.00,23.00,52.30,20.00,9.00,0.00,30.00,1016.50,10.00,M,FEW,SCT,BKN,OVC,3900.00,5000.00,7000.00,13000.00,M,M,M,M,M,M,M,32.22,KRNO 112055Z 02009KT 10SM FEW039 SCT050 BKN070 OVC130 04/M05 A3000 RMK AO2 SLP165 MTN TOPS OBSCD DSNT SW THRU NW SH VC SE THRU S T00391050 58000,M
BVU,2021-03-11 20:55,-114.8611,35.9475,671.00,48.20,33.80,57.26,150.00,12.00,0.00,30.00,M,10.00,17.00,BKN,BKN,M,M,5500.00,9000.00,M,M,M,M,M,M,M,M,M,42.62,KBVU 112055Z AUTO 15012G17KT 10SM BKN055 BKN090 09/01 A3000 RMK AO2,M
MEV,2021-03-11 20:55,-119.7500,38.9963,1441.42,39.20,14.00,35.26,330.00,8.00,0.00,29.97,M,10.00,13.00,SCT,BKN,M,M,5000.00,6500.00,M,M,M,M,M,M,M,M,M,32.98,KMEV 112055Z AUTO 33008G13KT 10SM SCT050 BKN065 04/M10 A2997 RMK AO2,M
NFL,2021-03-11 20:56,-118.7010,39.4166,1199.00,42.00,27.00,54.78,310.00,8.00,T,29.98,1012.40,9.00,M,SCT,BKN,OVC,M,3500.00,4500.00,8000.00,M,-SN,M,M,M,M,M,M,36.55,KNFL 112056Z 31008KT 9SM -SN SCT035 BKN045 OVC080 06/M03 A2998 RMK AO2 SNB47 SLP124 P0000 60000 T00561028 58000,M
HND,2021-03-11 20:56,-115.1344,35.9729,742.79,51.00,27.00,38.99,180.00,9.00,0.00,29.98,1017.30,10.00,M,BKN,M,M,M,9000.00,M,M,M,M,M,M,M,M,M,M,51.10,KHND 112056Z 18009KT 10SM BKN090 11/M03 A2998 RMK AO2 SLP173 60000 T01061028 58014,M
WMC,2021-03-11 20:56,-117.8072,40.9019,1315.00,41.00,27.00,57.15,30.00,9.00,0.00,29.98,1016.00,10.00,M,SCT,BKN,OVC,M,2900.00,4500.00,7000.00,M,M,M,M,M,M,M,M,34.70,KWMC 112056Z AUTO 03009KT 10SM SCT029 BKN045 OVC070 05/M03 A2998 RMK AO2 SLP160 60002 T00501028 50005,M
TPH,2021-03-11 20:56,-117.0904,38.0505,1654.00,30.00,25.00,81.40,100.00,5.00,0.00,29.94,1015.70,10.00,M,BKN,M,M,M,800.00,M,M,M,M,M,M,M,M,M,M,24.02,KTPH 112056Z AUTO 10005KT 10SM BKN008 M01/M04 A2994 RMK AO2 SLP157 60000 T10111039 50005 $,M
LAS,2021-03-11 20:56,-115.1634,36.0719,663.00,51.00,28.00,40.63,150.00,6.00,0.00,29.98,1015.00,10.00,16.00,FEW,SCT,BKN,BKN,4700.00,7000.00,11000.00,20000.00,M,M,M,M,M,M,M,51.10,KLAS 112056Z 15006G16KT 10SM FEW047 SCT070 BKN110 BKN200 11/M02 A2998 RMK AO2 SLP150 VIRGA DSNT ALQDS T01061022 58011,M
EKO,2021-03-11 20:56,-115.7860,40.8242,1367.00,38.00,26.10,62.14,M,6.00,0.00,29.95,1015.40,10.00,M,FEW,M,M,M,2400.00,M,M,M,M,M,M,M,M,M,M,32.64,KEKO 112056Z AUTO VRB06KT 10SM FEW024 03/M03 A2995 RMK AO2 SLP154 60001 T00331033 58000,M
LSV,2021-03-11 20:58,-115.0343,36.2362,570.00,52.00,28.90,40.78,110.00,7.00,0.00,29.98,1015.10,10.00,M,FEW,M,M,M,10000.00,M,M,M,M,M,M,M,M,M,M,52.00,KLSV 112058Z AUTO 11007KT 10SM FEW100 11/M02 A2998 RMK AO2 SLP151 T01111017 58010 $,M
INS,2021-03-11 20:58,-115.6733,36.5872,955.00,42.00,27.10,55.00,140.00,12.00,0.00,29.95,1013.50,10.00,M,FEW,FEW,FEW,M,16000.00,18000.00,20000.00,M,M,M,M,M,M,M,M,34.86,KINS 112058Z AUTO 14012KT 10SM FEW160 FEW180 FEW200 06/M03 A2995 RMK AO2 SLP135 T00561027 55000 $,M
INS,2021-03-11 21:08,-115.6733,36.5872,955.00,42.80,28.40,56.48,130.00,13.00,0.00,29.95,1013.70,10.00,M,FEW,BKN,BKN,M,4200.00,8000.00,20000.00,M,M,M,M,M,M,M,M,35.40,KINS 112108Z AUTO 13013KT 10SM FEW042 BKN080 BKN200 06/M02 A2995 RMK AO2 SLP137 $,M
CXP,2021-03-11 21:10,-119.7326,39.1923,1431.00,39.20,17.60,41.24,360.00,9.00,0.00,29.99,M,10.00,M,BKN,BKN,OVC,M,4500.00,5000.00,6000.00,M,M,M,M,M,M,M,M,32.47,KCXP 112110Z AUTO 36009KT 10SM BKN045 BKN050 OVC060 04/M08 A2999 RMK AO2,M
LOL,2021-03-11 21:12,-118.5701,40.0684,1192.43,39.00,33.00,79.17,360.00,9.00,T,29.99,M,6.00,M,FEW,BKN,OVC,M,1900.00,2900.00,3700.00,M,-SN,M,M,M,M,M,M,32.22,KLOL 112112Z AUTO 36009KT 6SM -SN FEW019 BKN029 OVC037 04/01 A2999 RMK AO2 RAE06SNB06 P0000 T00390006,M
BAM,2021-03-11 21:15,-116.8743,40.5990,1382.36,35.60,33.80,93.08,50.00,4.00,0.00,29.99,M,5.00,M,SCT,BKN,OVC,M,700.00,1600.00,3600.00,M,M,M,M,M,M,M,M,31.62,KBAM 112115Z AUTO 05004KT 5SM SCT007 BKN016 OVC036 02/01 A2999 RMK AO1,M
05U,2021-03-11 21:15,-116.0051,39.6042,1811.23,37.40,21.20,51.61,0.00,0.00,0.00,29.93,M,10.00,M,CLR,M,M,M,M,M,M,M,M,M,M,M,M,M,M,37.40,K05U 112115Z AUTO 00000KT 10SM CLR 03/M06 A2993 RMK A01,M
TMT,2021-03-11 21:15,-117.1971,39.4643,1749.34,38.30,16.00,39.86,0.00,0.00,0.00,29.92,M,10.00,M,M,M,M,M,M,M,M,M,M,M,M,M,M,M,M,38.30,KTMT 112115Z AUTO 00000KT 10SM 04/M09 A2992 RMK AO2 T00351089,M
RTS,2021-03-11 21:15,-119.8764,39.6682,1539.00,35.60,21.20,55.41,360.00,7.00,0.00,30.00,M,10.00,13.00,FEW,OVC,M,M,3100.00,4300.00,M,M,M,M,M,M,M,M,M,29.17,KRTS 112115Z AUTO 36007G13KT 330V030 10SM FEW031 OVC043 02/M06 A3000 RMK AO2,M
BVU,2021-03-11 21:15,-114.8611,35.9475,671.00,46.40,32.00,57.00,150.00,10.00,0.00,30.00,M,10.00,M,FEW,M,M,M,8500.00,M,M,M,M,M,M,M,M,M,M,41.03,KBVU 112115Z AUTO 15010KT 10SM FEW085 08/00 A3000 RMK AO2,M
MEV,2021-03-11 21:15,-119.7500,38.9963,1441.42,42.80,14.00,30.68,10.00,10.00,0.00,29.97,M,10.00,M,SCT,BKN,M,M,5500.00,6500.00,M,M,M,M,M,M,M,M,M,36.51,KMEV 112115Z AUTO 01010KT 10SM SCT055 BKN065 06/M10 A2997 RMK AO2,M
HTH,2021-03-11 21:15,-118.6315,38.5448,1282.89,42.80,17.60,35.87,330.00,10.00,0.00,29.97,M,10.00,M,FEW,SCT,BKN,M,4200.00,6000.00,6500.00,M,M,M,M,M,M,M,M,36.51,KHTH 112115Z AUTO 33010KT 10SM FEW042 SCT060 BKN065 06/M08 A2997 RMK A01,M
INS,2021-03-11 21:18,-115.6733,36.5872,955.00,42.80,30.20,60.79,110.00,13.00,0.00,29.95,1013.70,10.00,M,SCT,BKN,BKN,M,7500.00,15000.00,18000.00,M,M,M,M,M,M,M,M,35.40,KINS 112118Z AUTO 11013KT 10SM SCT075 BKN150 BKN180 06/M01 A2995 RMK AO2 SLP137 $,M
LOL,2021-03-11 21:20,-118.5701,40.0684,1192.43,40.00,33.00,76.44,30.00,7.00,T,29.99,M,10.00,M,FEW,BKN,OVC,M,1400.00,3800.00,4900.00,M,-RA,M,M,M,M,M,M,34.41,KLOL 112120Z AUTO 03007KT 10SM -RA FEW014 BKN038 OVC049 04/01 A2999 RMK AO2 RAE06B16SNB06E16 P0000 T00440006,M
TPH,2021-03-11 21:22,-117.0904,38.0505,1654.00,30.90,25.00,78.48,0.00,0.00,0.00,29.94,M,10.00,M,SCT,M,M,M,800.00,M,M,M,M,M,M,M,M,M,M,30.90,KTPH 112122Z AUTO 00000KT 10SM SCT008 M01/M04 A2994 RMK AO2 T10061039 $,M
CXP,2021-03-11 21:30,-119.7326,39.1923,1431.00,41.00,15.80,35.57,340.00,6.00,0.00,29.99,M,10.00,M,OVC,M,M,M,5500.00,M,M,M,M,M,M,M,M,M,M,36.37,KCXP 112130Z AUTO 34006KT 10SM OVC055 05/M09 A2999 RMK AO2,M
HTH,2021-03-11 21:35,-118.6315,38.5448,1282.89,42.80,19.40,38.75,350.00,13.00,0.00,29.97,M,10.00,M,SCT,SCT,M,M,6500.00,7500.00,M,M,M,M,M,M,M,M,M,35.40,KHTH 112135Z AUTO 35013KT 10SM SCT065 SCT075 06/M07 A2997 RMK A01,M
BVU,2021-03-11 21:35,-114.8611,35.9475,671.00,48.20,32.00,53.27,180.00,12.00,0.00,29.99,M,10.00,M,FEW,FEW,M,M,8500.00,10000.00,M,M,M,M,M,M,M,M,M,42.62,KBVU 112135Z AUTO 18012KT 10SM FEW085 FEW100 09/M00 A2999 RMK AO2,M
MEV,2021-03-11 21:35,-119.7500,38.9963,1441.42,41.00,17.60,38.45,350.00,15.00,0.00,29.96,M,10.00,22.00,SCT,OVC,M,M,5000.00,6500.00,M,M,M,M,M,M,M,M,M,32.45,KMEV 112135Z AUTO 35015G22KT 10SM SCT050 OVC065 05/M08 A2996 RMK AO2,M
TMT,2021-03-11 21:35,-117.1971,39.4643,1749.34,37.40,18.30,45.60,40.00,5.00,0.00,29.92,M,10.00,M,M,M,M,M,M,M,M,M,M,M,M,M,M,M,M,32.81,KTMT 112135Z AUTO 04005KT 10SM 03/M08 A2992 RMK AO2 T00301076,M
BAM,2021-03-11 21:35,-116.8743,40.5990,1382.36,35.60,33.80,93.08,30.00,4.00,0.00,29.99,M,10.00,M,BKN,BKN,OVC,M,900.00,2300.00,3600.00,M,M,M,M,M,M,M,M,31.62,KBAM 112135Z AUTO 03004KT 10SM BKN009 BKN023 OVC036 02/01 A2999 RMK AO1,M
05U,2021-03-11 21:35,-116.0051,39.6042,1811.23,37.40,23.00,55.68,40.00,5.00,0.00,29.93,M,10.00,M,CLR,M,M,M,M,M,M,M,M,M,M,M,M,M,M,32.81,K05U 112135Z AUTO 04005KT 10SM CLR 03/M05 A2993 RMK A01,M
RTS,2021-03-11 21:35,-119.8764,39.6682,1539.00,35.60,21.20,55.41,40.00,8.00,0.00,30.00,M,7.00,16.00,SCT,BKN,M,M,3200.00,4400.00,M,M,-UP,M,M,M,M,M,M,28.55,KRTS 112135Z AUTO 04008G16KT 7SM -UP SCT032 BKN044 02/M06 A3000 RMK AO2,M
LOL,2021-03-11 21:50,-118.5701,40.0684,1192.43,39.20,32.00,75.16,20.00,8.00,T,29.98,M,9.00,18.00,SCT,BKN,OVC,M,1800.00,2900.00,7000.00,M,-RA,M,M,M,M,M,M,32.98,KLOL 112150Z AUTO 02008G18KT 9SM -RA SCT018 BKN029 OVC070 04/00 A2998 RMK AO2 RAE06B16SNB06E16 P0000,M
CXP,2021-03-11 21:50,-119.7326,39.1923,1431.00,41.00,19.40,41.54,350.00,11.00,0.00,29.98,M,10.00,M,SCT,BKN,OVC,M,5000.00,5500.00,6500.00,M,M,M,M,M,M,M,M,33.84,KCXP 112150Z AUTO 35011KT 10SM SCT050 BKN055 OVC065 05/M07 A2998 RMK AO2,M
P68,2021-03-11 21:53,-116.0056,39.6014,1993.00,35.00,23.00,60.99,30.00,5.00,0.00,29.91,1013.20,M,M,M,M,M,M,M,M,M,M,M,M,M,M,M,M,M,30.08,KP68 112153Z AUTO 03005KT 02/M05 A2991 RMK AO1 SLP132 T00171050,M
VGT,2021-03-11 21:53,-115.1933,36.2111,667.00,51.00,27.00,38.99,190.00,5.00,0.00,29.92,1014.90,10.00,M,BKN,BKN,OVC,M,6000.00,7500.00,10000.00,M,M,M,M,M,M,M,M,51.10,KVGT 112153Z 19005KT 10SM BKN060 BKN075 OVC100 11/M03 A2992 RMK AO2 SLP149 T01061028,M
LOL,2021-03-11 21:53,-118.5701,40.0684,1192.43,41.00,32.00,70.08,20.00,11.00,T,29.98,1017.20,9.00,18.00,BKN,BKN,OVC,M,1900.00,2900.00,7000.00,M,-RA,M,M,M,M,M,M,33.84,KLOL 112153Z AUTO 02011G18KT 9SM -RA BKN019 BKN029 OVC070 05/00 A2998 RMK AO2 RAE06B16SNB06E16 SLP172 P0000 T00500000,M
ELY,2021-03-11 21:53,-114.8453,39.2950,1909.00,28.90,23.00,78.30,M,M,T,29.92,1014.70,M,M,SCT,BKN,OVC,M,4600.00,6000.00,7500.00,M,M,M,M,M,M,M,M,M,KELY 112153Z AUTO SCT046 BKN060 OVC075 M02/M05 A2992 RMK AO2 SNE2056B23E40 SLP147 P0000 T10171050 $,M
05U,2021-03-11 21:55,-116.0051,39.6042,1811.23,35.60,21.20,55.41,50.00,7.00,0.00,29.93,M,10.00,M,CLR,M,M,M,M,M,M,M,M,M,M,M,M,M,M,29.17,K05U 112155Z AUTO 05007KT 10SM CLR 02/M06 A2993 RMK A01,M
RTS,2021-03-11 21:55,-119.8764,39.6682,1539.00,37.40,23.00,55.68,360.00,7.00,0.00,29.99,M,10.00,13.00,SCT,SCT,BKN,M,3400.00,4800.00,5500.00,M,M,M,M,M,M,M,M,31.36,KRTS 112155Z AUTO 36007G13KT 310V040 10SM SCT034 SCT048 BKN055 03/M05 A2999 RMK AO2,M
TMT,2021-03-11 21:55,-117.1971,39.4643,1749.34,34.00,25.50,70.73,360.00,13.00,0.00,29.92,M,10.00,M,M,M,M,M,M,M,M,M,-RA,M,M,M,M,M,M,24.13,KTMT 112155Z AUTO 36013KT 10SM -RA 01/M04 A2992 RMK AO2 T00111036,M
BAM,2021-03-11 21:55,-116.8743,40.5990,1382.36,37.40,32.00,80.65,50.00,4.00,0.00,29.99,M,10.00,M,BKN,BKN,BKN,M,900.00,2300.00,7000.00,M,M,M,M,M,M,M,M,33.73,KBAM 112155Z AUTO 05004KT 10SM BKN009 BKN023 BKN070 03/00 A2999 RMK AO1,M
BVU,2021-03-11 21:55,-114.8611,35.9475,671.00,46.40,32.00,57.00,210.00,11.00,0.00,30.01,M,9.00,16.00,SCT,BKN,BKN,M,4200.00,5500.00,7000.00,M,M,M,M,M,M,M,M,40.66,KBVU 112155Z AUTO 21011G16KT 9SM SCT042 BKN055 BKN070 08/00 A3001 RMK AO2,M
HTH,2021-03-11 21:55,-118.6315,38.5448,1282.89,41.00,17.60,38.45,330.00,9.00,0.00,29.96,M,10.00,16.00,FEW,FEW,M,M,5500.00,7000.00,M,M,M,M,M,M,M,M,M,34.70,KHTH 112155Z AUTO 33009G16KT 10SM FEW055 FEW070 05/M08 A2996 RMK A01,M
RNO,2021-03-11 21:55,-119.7711,39.4839,1341.00,40.00,21.00,46.41,340.00,9.00,T,29.99,1016.10,10.00,M,FEW,SCT,BKN,BKN,4000.00,5000.00,6500.00,15000.00,M,M,M,M,M,M,M,33.34,KRNO 112155Z 34009KT 310V030 10SM FEW040 SCT050 BKN065 BKN150 04/M06 A2999 RMK AO2 SNB24E39 SLP161 MTN TOPS OBSCD DSNT SW THRU NW SH VC SW AND W P0000 T00441061,M
MEV,2021-03-11 21:55,-119.7500,38.9963,1441.42,41.00,17.60,38.45,360.00,10.00,0.00,29.97,M,10.00,17.00,FEW,OVC,M,M,5000.00,6500.00,M,M,M,M,M,M,M,M,M,34.25,KMEV 112155Z AUTO 36010G17KT 10SM FEW050 OVC065 05/M08 A2997 RMK AO2,M
EKO,2021-03-11 21:56,-115.7860,40.8242,1367.00,41.00,24.10,50.67,70.00,5.00,0.00,29.94,1014.40,10.00,M,CLR,M,M,M,M,M,M,M,M,M,M,M,M,M,M,37.08,KEKO 112156Z AUTO 07005KT 10SM CLR 05/M04 A2994 RMK AO2 SLP144 T00501044,M
HND,2021-03-11 21:56,-115.1344,35.9729,742.79,49.00,33.00,54.24,150.00,13.00,0.00,29.98,1017.30,10.00,18.00,FEW,M,M,M,7000.00,M,M,M,M,M,M,M,M,M,M,43.22,KHND 112156Z 15013G18KT 10SM FEW070 09/01 A2998 RMK AO2 SLP173 T00940006,M
TPH,2021-03-11 21:56,-117.0904,38.0505,1654.00,30.90,25.00,78.48,120.00,3.00,0.00,29.93,1015.40,10.00,M,CLR,M,M,M,M,M,M,M,M,M,M,M,M,M,M,27.43,KTPH 112156Z AUTO 12003KT 10SM CLR M01/M04 A2993 RMK AO2 SLP154 T10061039 $,M
NFL,2021-03-11 21:56,-118.7010,39.4166,1199.00,45.00,27.00,49.02,330.00,8.00,T,29.96,1011.80,10.00,14.00,SCT,BKN,BKN,BKN,3500.00,5500.00,10000.00,18000.00,M,M,M,M,M,M,M,40.13,KNFL 112156Z 33008G14KT 10SM SCT035 BKN055 BKN100 BKN180 07/M03 A2996 RMK AO2 SNE2058 SLP118 P0000 T00721028,M
LAS,2021-03-11 21:56,-115.1634,36.0719,663.00,50.00,32.00,49.81,140.00,9.00,0.00,29.96,1014.50,10.00,M,SCT,BKN,BKN,M,4700.00,7000.00,20000.00,M,M,M,M,M,M,M,M,50.00,KLAS 112156Z 14009KT 10SM SCT047 BKN070 BKN200 10/00 A2996 RMK AO2 SLP145 CB DSNT SW VCSH SE AND W T01000000,M
WMC,2021-03-11 21:56,-117.8072,40.9019,1315.00,41.00,26.10,55.07,40.00,5.00,0.00,29.97,1015.80,10.00,M,SCT,BKN,BKN,M,2900.00,3500.00,4300.00,M,M,M,M,M,M,M,M,37.08,KWMC 112156Z AUTO 04005KT 10SM SCT029 BKN035 BKN043 05/M03 A2997 RMK AO2 SLP158 T00501033,M
LSV,2021-03-11 21:58,-115.0343,36.2362,570.00,52.30,31.60,45.01,120.00,12.00,0.00,29.96,1014.40,10.00,M,SCT,M,M,M,5500.00,M,M,M,M,M,M,M,M,M,M,52.30,KLSV 112158Z AUTO 12012KT 10SM SCT055 11/M00 A2996 RMK AO2 SLP144 T01131002 $,M
INS,2021-03-11 21:58,-115.6733,36.5872,955.00,41.50,28.80,60.36,110.00,8.00,0.00,29.94,1013.30,10.00,M,SCT,BKN,BKN,M,7000.00,11000.00,14000.00,M,M,M,M,M,M,M,M,35.82,KINS 112158Z AUTO 11008KT 10SM SCT070 BKN110 BKN140 05/M02 A2994 RMK AO2 SLP133 T00531018 $,M
INS,2021-03-11 22:03,-115.6733,36.5872,955.00,42.80,28.40,56.48,120.00,9.00,0.00,29.94,1013.30,10.00,M,BKN,BKN,M,M,7000.00,11000.00,M,M,M,M,M,M,M,M,M,36.94,KINS 112203Z AUTO 12009KT 10SM BKN070 BKN110 06/M02 A2994 RMK AO2 SLP133 $,M
LOL,2021-03-11 22:09,-118.5701,40.0684,1192.43,42.00,28.00,57.08,10.00,10.00,T,29.98,M,10.00,M,FEW,BKN,OVC,M,1800.00,3500.00,4200.00,M,M,M,M,M,M,M,M,35.63,KLOL 112209Z AUTO 01010KT 10SM FEW018 BKN035 OVC042 06/M02 A2998 RMK AO2 RAE08 P0000 T00561022,M
BVU,2021-03-11 22:15,-114.8611,35.9475,671.00,42.80,37.40,81.07,260.00,7.00,0.00,30.02,M,3.00,12.00,BKN,BKN,OVC,M,2100.00,2500.00,4000.00,M,-RA,M,M,M,M,M,M,37.94,KBVU 112215Z AUTO 26007G12KT 3SM -RA BKN021 BKN025 OVC040 06/03 A3002 RMK AO2,M
TMT,2021-03-11 22:15,-117.1971,39.4643,1749.34,33.00,26.10,75.18,360.00,8.00,0.00,29.93,M,7.00,M,M,M,M,M,M,M,M,M,-RA,M,M,M,M,M,M,25.47,KTMT 112215Z AUTO 36008KT 7SM -RA 01/M03 A2993 RMK AO2 T00061033,M
HTH,2021-03-11 22:15,-118.6315,38.5448,1282.89,42.80,19.40,38.75,350.00,11.00,0.00,29.96,M,10.00,M,FEW,FEW,M,M,5500.00,6500.00,M,M,M,M,M,M,M,M,M,36.11,KHTH 112215Z AUTO 35011KT 10SM FEW055 FEW065 06/M07 A2996 RMK A01,M
CXP,2021-03-11 22:15,-119.7326,39.1923,1431.00,42.80,23.00,45.14,350.00,14.00,0.00,29.98,M,10.00,M,FEW,OVC,M,M,4900.00,6000.00,M,M,M,M,M,M,M,M,M,35.08,KCXP 112215Z AUTO 35014KT 10SM FEW049 OVC060 06/M05 A2998 RMK AO2,M
05U,2021-03-11 22:15,-116.0051,39.6042,1811.23,35.60,23.00,59.79,30.00,7.00,0.00,29.94,M,10.00,M,CLR,M,M,M,M,M,M,M,M,M,M,M,M,M,M,29.17,K05U 112215Z AUTO 03007KT 10SM CLR 02/M05 A2994 RMK A01,M
MEV,2021-03-11 22:15,-119.7500,38.9963,1441.42,41.00,17.60,38.45,10.00,10.00,0.00,29.96,M,10.00,M,BKN,M,M,M,6500.00,M,M,M,M,M,M,M,M,M,M,34.25,KMEV 112215Z AUTO 01010KT 10SM BKN065 05/M08 A2996 RMK AO2,M
BAM,2021-03-11 22:15,-116.8743,40.5990,1382.36,37.40,32.00,80.65,50.00,6.00,0.00,29.99,M,10.00,M,BKN,BKN,BKN,M,1300.00,1800.00,7000.00,M,M,M,M,M,M,M,M,32.03,KBAM 112215Z AUTO 05006KT 10SM BKN013 BKN018 BKN070 03/00 A2999 RMK AO1,M
RTS,2021-03-11 22:15,-119.8764,39.6682,1539.00,35.60,23.00,59.79,0.00,0.00,0.00,29.99,M,9.00,M,SCT,BKN,BKN,M,3400.00,4600.00,5500.00,M,M,M,M,M,M,M,M,35.60,KRTS 112215Z AUTO 00000KT 9SM SCT034 BKN046 BKN055 02/M05 A2999 RMK AO2,M
LSV,2021-03-11 22:17,-115.0343,36.2362,570.00,51.80,33.80,50.08,130.00,13.00,0.00,29.96,1014.40,10.00,M,FEW,SCT,BKN,M,5000.00,6000.00,8000.00,M,-RA,M,M,M,M,M,M,51.80,KLSV 112217Z AUTO 13013KT 10SM -RA FEW050 SCT060 BKN080 11/01 A2996 RMK AO2 RAB17 SLP144 $,M
INS,2021-03-11 22:18,-115.6733,36.5872,955.00,42.80,28.40,56.48,120.00,10.00,0.00,29.94,1013.30,10.00,M,SCT,SCT,M,M,7000.00,20000.00,M,M,M,M,M,M,M,M,M,36.51,KINS 112218Z AUTO 12010KT 10SM SCT070 SCT200 06/M02 A2994 RMK AO2 SLP133 $,M
LSV,2021-03-11 22:26,-115.0343,36.2362,570.00,50.00,35.60,57.52,150.00,14.00,0.00,29.96,1014.40,10.00,M,FEW,SCT,M,M,5000.00,6000.00,M,M,M,M,M,M,M,M,M,50.00,KLSV 112226Z AUTO 15014KT 10SM FEW050 SCT060 10/02 A2996 RMK AO2 RAB17E26 SLP144 $,M
VGT,2021-03-11 22:32,-115.1933,36.2111,667.00,51.00,32.00,47.81,100.00,12.00,T,29.92,M,10.00,M,SCT,BKN,M,M,5000.00,8000.00,M,M,M,M,M,M,M,M,M,51.10,KVGT 112232Z 10012KT 10SM SCT050 BKN080 11/00 A2992 RMK AO2 WSHFT 2212 RAB17E26 P0000 T01060000,M
CXP,2021-03-11 22:35,-119.7326,39.1923,1431.00,41.00,19.40,41.54,350.00,6.00,0.00,29.98,M,10.00,14.00,FEW,BKN,OVC,M,5000.00,6000.00,6500.00,M,M,M,M,M,M,M,M,36.37,KCXP 112235Z AUTO 35006G14KT 10SM FEW050 BKN060 OVC065 05/M07 A2998 RMK AO2,M
RTS,2021-03-11 22:35,-119.8764,39.6682,1539.00,37.40,24.80,60.04,360.00,12.00,0.00,29.99,M,10.00,M,FEW,SCT,BKN,M,2900.00,3400.00,4300.00,M,M,M,M,M,M,M,M,28.87,KRTS 112235Z AUTO 36012KT 10SM FEW029 SCT034 BKN043 03/M04 A2999 RMK AO2,M
05U,2021-03-11 22:35,-116.0051,39.6042,1811.23,33.80,23.00,64.23,60.00,12.00,0.00,29.95,M,10.00,M,FEW,FEW,FEW,M,3700.00,5500.00,6500.00,M,M,M,M,M,M,M,M,24.29,K05U 112235Z AUTO 06012KT 10SM FEW037 FEW055 FEW065 01/M05 A2995 RMK A01,M
MEV,2021-03-11 22:35,-119.7500,38.9963,1441.42,41.00,17.60,38.45,350.00,8.00,0.00,29.97,M,10.00,17.00,BKN,M,M,M,6500.00,M,M,M,M,M,M,M,M,M,M,35.20,KMEV 112235Z AUTO 35008G17KT 10SM BKN065 05/M08 A2997 RMK AO2,M
BVU,2021-03-11 22:35,-114.8611,35.9475,671.00,42.80,37.40,81.07,130.00,8.00,0.00,30.00,M,5.00,M,BKN,BKN,M,M,2000.00,2400.00,M,M,-RA,M,M,M,M,M,M,37.42,KBVU 112235Z AUTO 13008KT 5SM -RA BKN020 BKN024 06/03 A3000 RMK AO2,M
HTH,2021-03-11 22:35,-118.6315,38.5448,1282.89,42.80,21.20,41.84,340.00,16.00,0.00,29.95,M,10.00,M,FEW,SCT,M,M,4100.00,8000.00,M,M,M,M,M,M,M,M,M,34.50,KHTH 112235Z AUTO 34016KT 310V010 10SM FEW041 SCT080 06/M06 A2995 RMK A01,M
BAM,2021-03-11 22:35,-116.8743,40.5990,1382.36,37.40,32.00,80.65,10.00,3.00,0.00,29.99,M,10.00,M,SCT,M,M,M,1500.00,M,M,M,M,M,M,M,M,M,M,34.86,KBAM 112235Z AUTO 01003KT 10SM SCT015 03/00 A2999 RMK AO1,M
TMT,2021-03-11 22:35,-117.1971,39.4643,1749.34,32.70,25.70,75.14,30.00,10.00,0.00,29.94,M,10.00,14.00,M,M,M,M,M,M,M,M,-SN,M,M,M,M,M,M,23.85,KTMT 112235Z AUTO 03010G14KT 10SM -SN 00/M03 A2994 RMK AO2 T00041035,M
INS,2021-03-11 22:48,-115.6733,36.5872,955.00,41.00,28.40,60.54,130.00,12.00,0.00,29.94,1013.60,10.00,M,SCT,SCT,BKN,M,1900.00,2500.00,3700.00,M,M,M,M,M,M,M,M,33.46,KINS 112248Z AUTO 13012KT 10SM SCT019 SCT025 BKN037 05/M02 A2994 RMK AO2 SLP136 $,M
CXP,2021-03-11 22:50,-119.7326,39.1923,1431.00,42.80,21.20,41.84,330.00,13.00,0.00,29.98,M,10.00,M,BKN,OVC,M,M,5500.00,6500.00,M,M,M,M,M,M,M,M,M,35.40,KCXP 112250Z AUTO 33013KT 10SM BKN055 OVC065 06/M06 A2998 RMK AO2,M
P68,2021-03-11 22:53,-116.0056,39.6014,1993.00,30.00,25.00,81.40,60.00,11.00,0.00,29.93,1015.50,M,M,M,M,M,M,M,M,M,M,M,M,M,M,M,M,M,19.94,KP68 112253Z AUTO 06011KT M01/M04 A2993 RMK AO1 SLP155 T10111039,M
VGT,2021-03-11 22:53,-115.1933,36.2111,667.00,51.00,32.00,47.81,130.00,8.00,T,29.93,1015.30,10.00,M,CLR,M,M,M,M,M,M,M,M,M,M,M,M,M,M,51.10,KVGT 112253Z 13008KT 10SM CLR 11/00 A2993 RMK AO2 WSHFT 2212 LTG DSNT NE RAB17E26 SLP153 P0000 T01060000,M
LOL,2021-03-11 22:53,-118.5701,40.0684,1192.43,44.00,27.00,50.73,40.00,15.00,T,29.98,1017.20,10.00,M,SCT,BKN,OVC,M,3900.00,7500.00,9000.00,M,M,M,M,M,M,M,M,36.47,KLOL 112253Z AUTO 04015KT 10SM SCT039 BKN075 OVC090 07/M03 A2998 RMK AO2 RAE08 SLP172 P0000 T00671028,M
ELY,2021-03-11 22:53,-114.8453,39.2950,1909.00,28.90,21.90,74.76,M,M,0.16,29.94,1015.90,M,M,SCT,OVC,M,M,8000.00,10000.00,M,M,M,M,M,M,M,M,M,M,KELY 112253Z AUTO SCT080 OVC100 M02/M06 A2994 RMK AO2 SNB07E28 SLP159 P0016 T10171056 $,M
RTS,2021-03-11 22:55,-119.8764,39.6682,1539.00,35.60,26.60,69.46,360.00,12.00,0.00,30.00,M,10.00,M,FEW,FEW,SCT,M,3100.00,4800.00,5500.00,M,M,M,M,M,M,M,M,26.58,KRTS 112255Z AUTO 36012KT 10SM FEW031 FEW048 SCT055 02/M03 A3000 RMK AO2,M
05U,2021-03-11 22:55,-116.0051,39.6042,1811.23,30.20,24.80,80.07,60.00,10.00,0.00,29.96,M,9.00,M,FEW,FEW,BKN,M,2100.00,2600.00,3700.00,M,M,M,M,M,M,M,M,20.71,K05U 112255Z AUTO 06010KT 9SM FEW021 FEW026 BKN037 M01/M04 A2996 RMK A01,M
MEV,2021-03-11 22:55,-119.7500,38.9963,1441.42,42.80,17.60,35.87,340.00,11.00,0.00,29.96,M,10.00,M,OVC,M,M,M,6500.00,M,M,M,M,M,M,M,M,M,M,36.11,KMEV 112255Z AUTO 34011KT 10SM OVC065 06/M08 A2996 RMK AO2,M
TMT,2021-03-11 22:55,-117.1971,39.4643,1749.34,32.00,27.00,81.55,50.00,7.00,0.00,29.95,M,7.00,M,M,M,M,M,M,M,M,M,-SN,M,M,M,M,M,M,24.78,KTMT 112255Z AUTO 05007KT 7SM -SN 00/M03 A2995 RMK AO2 T00001028,M
BAM,2021-03-11 22:55,-116.8743,40.5990,1382.36,37.40,32.00,80.65,20.00,4.00,0.00,30.00,M,10.00,M,SCT,SCT,M,M,1500.00,2100.00,M,M,M,M,M,M,M,M,M,33.73,KBAM 112255Z AUTO 02004KT 10SM SCT015 SCT021 03/00 A3000 RMK AO1,M
HTH,2021-03-11 22:55,-118.6315,38.5448,1282.89,42.80,21.20,41.84,340.00,10.00,0.00,29.96,M,10.00,19.00,SCT,SCT,BKN,M,4200.00,4700.00,8000.00,M,M,M,M,M,M,M,M,36.51,KHTH 112255Z AUTO 34010G19KT 10SM SCT042 SCT047 BKN080 06/M06 A2996 RMK A01,M
BVU,2021-03-11 22:55,-114.8611,35.9475,671.00,42.80,35.60,75.50,80.00,4.00,0.00,30.00,M,10.00,M,FEW,FEW,M,M,1900.00,2400.00,M,M,M,M,M,M,M,M,M,40.03,KBVU 112255Z AUTO 08004KT 10SM FEW019 FEW024 06/02 A3000 RMK AO2,M
RNO,2021-03-11 22:55,-119.7711,39.4839,1341.00,42.00,21.00,42.62,50.00,6.00,0.00,29.98,1015.70,10.00,M,FEW,SCT,BKN,BKN,4000.00,5000.00,6500.00,20000.00,M,M,M,M,M,M,M,37.69,KRNO 112255Z 05006KT 10SM FEW040 SCT050 BKN065 BKN200 06/M06 A2998 RMK AO2 SLP157 MTN TOPS OBSCD DSNT SW THRU NW SH VC SE AND SW AND NW T00561061,M
LAS,2021-03-11 22:56,-115.1634,36.0719,663.00,50.00,30.90,47.64,110.00,9.00,0.00,29.96,1014.60,10.00,M,FEW,FEW,BKN,M,2000.00,4700.00,18000.00,M,M,M,M,M,M,M,M,50.00,KLAS 112256Z 11009KT 10SM FEW020 FEW047 BKN180 10/M01 A2996 RMK AO2 LTG DSNT N SLP146 VCSH N AND E CB DSNT N-E-SE AND W T01001006,M
EKO,2021-03-11 22:56,-115.7860,40.8242,1367.00,41.00,21.90,46.19,360.00,6.00,0.00,29.94,1014.60,10.00,M,FEW,BKN,BKN,M,3900.00,6000.00,8000.00,M,M,M,M,M,M,M,M,36.37,KEKO 112256Z AUTO 36006KT 10SM FEW039 BKN060 BKN080 05/M06 A2994 RMK AO2 SLP146 T00501056,M
TPH,2021-03-11 22:56,-117.0904,38.0505,1654.00,30.90,23.00,72.18,0.00,0.00,0.00,29.94,1015.70,10.00,M,CLR,M,M,M,M,M,M,M,M,M,M,M,M,M,M,30.90,KTPH 112256Z AUTO 00000KT 10SM CLR M01/M05 A2994 RMK AO2 SLP157 T10061050 $,M
NFL,2021-03-11 22:56,-118.7010,39.4166,1199.00,45.00,28.00,51.08,320.00,11.00,0.00,29.96,1011.80,10.00,M,SCT,BKN,BKN,BKN,3000.00,5000.00,10000.00,25000.00,M,M,M,M,M,M,M,38.89,KNFL 112256Z 32011KT 10SM SCT030 BKN050 BKN100 BKN250 07/M02 A2996 RMK AO2 SLP118 SH VC ALQDS T00721022,M
WMC,2021-03-11 22:56,-117.8072,40.9019,1315.00,43.00,26.10,50.98,40.00,11.00,0.00,29.98,1015.90,10.00,M,FEW,SCT,M,M,3400.00,4500.00,M,M,M,M,M,M,M,M,M,36.37,KWMC 112256Z AUTO 04011KT 10SM FEW034 SCT045 06/M03 A2998 RMK AO2 SLP159 T00611033,M
HND,2021-03-11 22:56,-115.1344,35.9729,742.79,51.00,30.00,44.09,150.00,12.00,0.00,29.97,1016.90,10.00,M,FEW,M,M,M,8500.00,M,M,M,M,M,M,M,M,M,M,51.10,KHND 112256Z 15012KT 10SM FEW085 11/M01 A2997 RMK AO2 LTG DSNT N SLP169 T01061011,M
LSV,2021-03-11 22:58,-115.0343,36.2362,570.00,51.60,33.60,50.05,150.00,8.00,T,29.96,1014.40,10.00,M,FEW,M,M,M,20000.00,M,M,M,M,M,M,M,M,M,M,51.60,KLSV 112258Z AUTO 15008KT 10SM FEW200 11/01 A2996 RMK AO2 RAB17E26 SLP144 P0000 T01090009 $,M
INS,2021-03-11 22:58,-115.6733,36.5872,955.00,41.40,27.70,57.92,120.00,7.00,0.00,29.95,1013.90,10.00,M,SCT,SCT,SCT,BKN,1700.00,2200.00,4200.00,8000.00,M,M,M,M,M,M,M,36.24,KINS 112258Z AUTO 12007KT 10SM SCT017 SCT022 SCT042 BKN080 05/M02 A2995 RMK AO2 SLP139 T00521024 $,M
CXP,2021-03-11 23:10,-119.7326,39.1923,1431.00,41.00,19.40,41.54,350.00,7.00,0.00,29.98,M,10.00,16.00,FEW,SCT,OVC,M,4900.00,5500.00,7000.00,M,M,M,M,M,M,M,M,35.75,KCXP 112310Z AUTO 35007G16KT 10SM FEW049 SCT055 OVC070 05/M07 A2998 RMK AO2,M
BAM,2021-03-11 23:15,-116.8743,40.5990,1382.36,37.40,32.00,80.65,350.00,4.00,0.00,30.00,M,10.00,M,BKN,BKN,M,M,1600.00,2300.00,M,M,M,M,M,M,M,M,M,33.73,KBAM 112315Z AUTO 35004KT 10SM BKN016 BKN023 03/00 A3000 RMK AO1,M
BVU,2021-03-11 23:15,-114.8611,35.9475,671.00,44.60,35.60,70.48,120.00,8.00,0.00,30.00,M,10.00,M,BKN,M,M,M,8000.00,M,M,M,M,M,M,M,M,M,M,39.63,KBVU 112315Z AUTO 12008KT 10SM BKN080 07/02 A3000 RMK AO2,M
TMT,2021-03-11 23:15,-117.1971,39.4643,1749.34,32.70,27.00,79.29,40.00,9.00,0.00,29.95,M,10.00,M,M,M,M,M,M,M,M,M,M,M,M,M,M,M,M,24.38,KTMT 112315Z AUTO 04009KT 10SM 00/M03 A2995 RMK AO2 T00041028,M
MEV,2021-03-11 23:15,-119.7500,38.9963,1441.42,42.80,19.40,38.75,10.00,15.00,0.00,29.97,M,10.00,20.00,FEW,FEW,OVC,M,4600.00,5000.00,7000.00,M,M,M,M,M,M,M,M,34.78,KMEV 112315Z AUTO 01015G20KT 10SM FEW046 FEW050 OVC070 06/M07 A2997 RMK AO2,M
HTH,2021-03-11 23:15,-118.6315,38.5448,1282.89,42.80,17.60,35.87,340.00,13.00,0.00,29.96,M,10.00,M,FEW,SCT,M,M,4700.00,6500.00,M,M,M,M,M,M,M,M,M,35.40,KHTH 112315Z AUTO 34013KT 10SM FEW047 SCT065 06/M08 A2996 RMK A01,M
05U,2021-03-11 23:15,-116.0051,39.6042,1811.23,30.20,26.60,86.28,60.00,9.00,0.00,29.96,M,2.00,M,FEW,FEW,SCT,M,500.00,2200.00,3400.00,M,BR,M,M,M,M,M,M,21.28,K05U 112315Z AUTO 06009KT 2SM BR FEW005 FEW022 SCT034 M01/M03 A2996 RMK A01,M
RTS,2021-03-11 23:15,-119.8764,39.6682,1539.00,37.40,26.60,64.70,10.00,11.00,0.00,30.00,M,10.00,M,FEW,SCT,M,M,6500.00,9000.00,M,M,M,M,M,M,M,M,M,29.29,KRTS 112315Z AUTO 01011KT 10SM FEW065 SCT090 03/M03 A3000 RMK AO2,M
05U,2021-03-11 23:35,-116.0051,39.6042,1811.23,30.20,26.60,86.28,20.00,10.00,0.00,29.96,M,1.50,M,SCT,M,M,M,400.00,M,M,M,BR,M,M,M,M,M,M,20.71,K05U 112335Z AUTO 02010KT 1 1/2SM BR SCT004 M01/M03 A2996 RMK A01,M
BAM,2021-03-11 23:35,-116.8743,40.5990,1382.36,39.20,32.00,75.16,60.00,5.00,0.00,30.00,M,10.00,M,BKN,M,M,M,1600.00,M,M,M,M,M,M,M,M,M,M,34.95,KBAM 112335Z AUTO 06005KT 10SM BKN016 04/00 A3000 RMK AO1,M
TMT,2021-03-11 23:35,-117.1971,39.4643,1749.34,33.00,26.10,75.78,30.00,8.00,0.00,29.95,M,10.00,M,M,M,M,M,M,M,M,M,M,M,M,M,M,M,M,25.22,KTMT 112335Z AUTO 03008KT 10SM 01/M03 A2995 RMK AO2 T00051033,M
BVU,2021-03-11 23:35,-114.8611,35.9475,671.00,44.60,35.60,70.48,110.00,10.00,0.00,30.00,M,10.00,M,FEW,SCT,M,M,6500.00,8000.00,M,M,M,M,M,M,M,M,M,38.77,KBVU 112335Z AUTO 11010KT 10SM FEW065 SCT080 07/02 A3000 RMK AO2,M
CXP,2021-03-11 23:35,-119.7326,39.1923,1431.00,42.80,19.40,38.75,360.00,15.00,0.00,29.98,M,10.00,M,FEW,BKN,M,M,5000.00,7000.00,M,M,M,M,M,M,M,M,M,34.78,KCXP 112335Z AUTO 36015KT 10SM FEW050 BKN070 06/M07 A2998 RMK AO2,M
RTS,2021-03-11 23:35,-119.8764,39.6682,1539.00,37.40,24.80,60.04,350.00,13.00,0.00,30.00,M,10.00,M,FEW,SCT,BKN,M,2500.00,2900.00,9000.00,M,M,M,M,M,M,M,M,28.49,KRTS 112335Z AUTO 35013KT 10SM FEW025 SCT029 BKN090 03/M04 A3000 RMK AO2,M
MEV,2021-03-11 23:35,-119.7500,38.9963,1441.42,41.00,17.60,38.45,330.00,5.00,0.00,29.97,M,10.00,11.00,OVC,M,M,M,6500.00,M,M,M,M,M,M,M,M,M,M,37.08,KMEV 112335Z AUTO 33005G11KT 10SM OVC065 05/M08 A2997 RMK AO2,M
HTH,2021-03-11 23:35,-118.6315,38.5448,1282.89,42.80,21.20,41.84,340.00,13.00,0.00,29.96,M,10.00,20.00,FEW,M,M,M,4700.00,M,M,M,M,M,M,M,M,M,M,35.40,KHTH 112335Z AUTO 34013G20KT 10SM FEW047 06/M06 A2996 RMK A01,M
INS,2021-03-11 23:48,-115.6733,36.5872,955.00,41.00,28.40,60.54,130.00,11.00,0.00,29.95,1013.90,10.00,M,SCT,SCT,M,M,7000.00,8000.00,M,M,M,M,M,M,M,M,M,33.84,KINS 112348Z AUTO 13011KT 10SM SCT070 SCT080 05/M02 A2995 RMK AO2 SLP139 $,M
P68,2021-03-11 23:53,-116.0056,39.6014,1993.00,30.00,27.00,88.44,20.00,9.00,0.00,29.94,1015.50,M,M,M,M,M,M,M,M,M,M,M,M,M,M,M,M,M,21.03,KP68 112353Z AUTO 02009KT M01/M03 A2994 RMK AO1 SLP155 T10111028 10022 21017 53006,M
VGT,2021-03-11 23:53,-115.1933,36.2111,667.00,49.00,33.00,54.24,140.00,10.00,T,29.93,1015.70,10.00,M,BKN,OVC,M,M,5500.00,7000.00,M,M,-RA,M,M,M,M,M,M,44.16,KVGT 112353Z 14010KT 10SM -RA BKN055 OVC070 09/01 A2993 RMK AO2 RAB42 SLP157 P0000 60000 T00940006 10117 20089 53001,M
LOL,2021-03-11 23:53,-118.5701,40.0684,1192.43,43.00,26.10,50.98,40.00,15.00,0.00,29.98,1017.40,10.00,M,FEW,BKN,OVC,M,4000.00,7500.00,9000.00,M,M,M,M,M,M,M,M,35.04,KLOL 112353Z AUTO 04015KT 10SM FEW040 BKN075 OVC090 06/M03 A2998 RMK AO2 SLP174 60000 T00611033 10067 20028 55000,M
ELY,2021-03-11 23:53,-114.8453,39.2950,1909.00,32.00,21.90,65.92,M,M,0.00,29.94,1016.00,M,M,FEW,BKN,M,M,3700.00,11000.00,M,M,M,M,M,M,M,M,M,M,KELY 112353Z AUTO FEW037 BKN110 00/M06 A2994 RMK AO2 SLP160 60018 T00001056 10006 21017 51007 $,M
RTS,2021-03-11 23:55,-119.8764,39.6682,1539.00,33.80,30.20,86.49,350.00,16.00,0.00,30.01,M,2.50,22.00,FEW,SCT,BKN,M,300.00,3100.00,4500.00,M,-DZ,M,M,M,M,M,M,22.76,KRTS 112355Z AUTO 35016G22KT 2 1/2SM -DZ FEW003 SCT031 BKN045 01/M01 A3001 RMK AO2,M
MEV,2021-03-11 23:55,-119.7500,38.9963,1441.42,41.00,17.60,38.45,350.00,12.00,0.00,29.97,M,10.00,20.00,FEW,SCT,BKN,M,2100.00,4800.00,6000.00,M,M,M,M,M,M,M,M,33.46,KMEV 112355Z AUTO 35012G20KT 10SM FEW021 SCT048 BKN060 05/M08 A2997 RMK AO2,M
HTH,2021-03-11 23:55,-118.6315,38.5448,1282.89,44.60,19.40,36.18,330.00,15.00,0.00,29.96,M,10.00,21.00,CLR,M,M,M,M,M,M,M,M,M,M,M,M,M,M,37.11,KHTH 112355Z AUTO 33015G21KT 10SM CLR 07/M07 A2996 RMK A01,M
TMT,2021-03-11 23:55,-117.1971,39.4643,1749.34,33.30,26.10,74.58,10.00,10.00,0.00,29.95,M,10.00,M,M,M,M,M,M,M,M,M,M,M,M,M,M,M,M,24.60,KTMT 112355Z AUTO 01010KT 10SM 01/M03 A2995 RMK AO2 T00071033 10040 21005,M
BAM,2021-03-11 23:55,-116.8743,40.5990,1382.36,37.40,32.00,80.65,20.00,5.00,0.00,30.00,M,10.00,M,SCT,M,M,M,1600.00,M,M,M,M,M,M,M,M,M,M,32.81,KBAM 112355Z AUTO 02005KT 10SM SCT016 03/00 A3000 RMK AO1,M
BVU,2021-03-11 23:55,-114.8611,35.9475,671.00,44.60,35.60,70.48,130.00,8.00,0.00,30.01,M,10.00,M,FEW,SCT,M,M,7000.00,8500.00,M,M,M,M,M,M,M,M,M,39.63,KBVU 112355Z AUTO 13008KT 10SM FEW070 SCT085 07/02 A3001 RMK AO2,M
CXP,2021-03-11 23:55,-119.7326,39.1923,1431.00,42.80,19.40,38.75,340.00,15.00,0.00,29.98,M,10.00,M,FEW,FEW,FEW,M,5000.00,7000.00,8000.00,M,M,M,M,M,M,M,M,34.78,KCXP 112355Z AUTO 34015KT 10SM FEW050 FEW070 FEW080 06/M07 A2998 RMK AO2,M
05U,2021-03-11 23:55,-116.0051,39.6042,1811.23,30.20,26.60,86.28,20.00,8.00,0.00,29.96,M,9.00,M,CLR,M,M,M,M,M,M,M,M,M,M,M,M,M,M,21.90,K05U 112355Z AUTO 02008KT 9SM CLR M01/M03 A2996 RMK A01,M
RNO,2021-03-11 23:55,-119.7711,39.4839,1341.00,38.00,27.00,64.49,340.00,5.00,T,30.00,1016.60,10.00,M,SCT,BKN,OVC,M,3000.00,4000.00,6500.00,M,M,M,M,M,26.00,360.00,2021-03-11 23:16,33.40,KRNO 112355Z 34005KT 10SM SCT030 BKN040 OVC065 03/M03 A3000 RMK AO2 PK WND 36026/2316 SNB31E44 SLP166 SH VC ALQDS P0000 60000 T00331028 10061 20017 55001,M
TPH,2021-03-11 23:56,-117.0904,38.0505,1654.00,30.90,23.00,72.18,0.00,0.00,0.00,29.94,1015.60,10.00,M,CLR,M,M,M,M,M,M,M,M,M,M,M,M,M,M,30.90,KTPH 112356Z AUTO 00000KT 10SM CLR M01/M05 A2994 RMK AO2 SLP156 60000 T10061050 10011 21017 56001 $,M
EKO,2021-03-11 23:56,-115.7860,40.8242,1367.00,38.00,25.00,59.36,40.00,16.00,0.00,29.96,1015.90,10.00,M,FEW,FEW,M,M,5000.00,12000.00,M,M,M,M,M,M,26.00,50.00,2021-03-11 23:26,28.11,KEKO 112356Z AUTO 04016KT 10SM FEW050 FEW120 03/M04 A2996 RMK AO2 PK WND 05026/2326 SLP159 60001 T00331039 10061 21006 53004,M
HND,2021-03-11 23:56,-115.1344,35.9729,742.79,49.00,28.90,45.75,170.00,9.00,0.00,29.97,1017.00,10.00,M,SCT,M,M,M,8000.00,M,M,M,M,M,M,M,M,M,M,44.53,KHND 112356Z 17009KT 10SM SCT080 09/M02 A2997 RMK AO2 SLP170 60000 T00941017 10111 20067 55003,M
LAS,2021-03-11 23:56,-115.1634,36.0719,663.00,49.00,28.90,45.75,90.00,10.00,0.00,29.97,1014.80,10.00,M,SCT,SCT,BKN,M,5000.00,6500.00,16000.00,M,M,M,M,M,M,M,M,44.16,KLAS 112356Z 09010KT 10SM SCT050 SCT065 BKN160 09/M02 A2997 RMK AO2 SLP148 VCSH W-N CB DSNT E AND W-N T00941017 10117 20072 55002,M
WMC,2021-03-11 23:56,-117.8072,40.9019,1315.00,43.00,28.00,55.14,10.00,13.00,0.00,29.99,1016.10,10.00,20.00,BKN,OVC,M,M,3000.00,3900.00,M,M,M,M,M,M,M,M,M,35.66,KWMC 112356Z AUTO 01013G20KT 10SM BKN030 OVC039 06/M02 A2999 RMK AO2 SLP161 60002 T00611022 10072 20006 53003,M
NFL,2021-03-11 23:56,-118.7010,39.4166,1199.00,39.00,32.00,75.75,310.00,14.00,0.01,29.98,1012.30,10.00,M,SCT,BKN,OVC,M,3000.00,5000.00,10000.00,M,M,M,M,M,26.00,340.00,2021-03-11 23:15,30.19,KNFL 112356Z 31014KT 10SM SCT030 BKN050 OVC100 04/00 A2998 RMK AO2 PK WND 34026/2315 RAB2259E36 SLP123 SH VC ALQDS P0001 60001 T00390000 10083 20033 55002,M
LSV,2021-03-11 23:58,-115.0343,36.2362,570.00,50.70,29.70,44.21,130.00,8.00,0.00,29.97,1014.80,10.00,M,CLR,M,M,M,M,M,M,M,M,M,M,M,M,M,M,50.70,KLSV 112358Z AUTO 13008KT 10SM CLR 10/M01 A2997 RMK AO2 SLP148 60000 T01041013 10116 20090 55001 $,M
INS,2021-03-11 23:58,-115.6733,36.5872,955.00,42.00,28.90,59.68,110.00,11.00,0.00,29.94,1013.60,10.00,M,FEW,SCT,M,M,7000.00,17000.00,M,M,M,M,M,M,M,M,M,34.98,KINS 112358Z AUTO 11011KT 10SM FEW070 SCT170 06/M02 A2994 RMK AO2 SLP136 T00551017 10085 20050 55004 $,M
