station,valid,lon,lat,elevation,tmpf,dwpf,relh,drct,sknt,p01i,alti,mslp,vsby,gust,skyc1,skyc2,skyc3,skyc4,skyl1,skyl2,skyl3,skyl4,wxcodes,ice_accretion_1hr,ice_accretion_3hr,ice_accretion_6hr,peak_wind_gust,peak_wind_drct,peak_wind_time,feel,metar,snowdepth
05U,2023-07-25 00:10,-116.0051,39.6042,1811.23,86.00,44.60,23.59,M,M,0.00,30.26,M,10.00,M,M,M,M,M,M,M,M,M,M,M,M,M,M,M,M,83.07,K05U 250010Z AUTO 10SM 30/07 A3026 RMK A01,M
BVU,2023-07-25 00:15,-114.8611,35.9475,671.00,109.40,39.20,9.38,250.00,8.00,0.00,29.89,M,10.00,17.00,CLR,M,M,M,M,M,M,M,M,M,M,M,M,M,M,103.33,KBVU 250015Z AUTO 25008G17KT 230V300 10SM CLR 43/04 A2989 RMK AO2,M
CXP,2023-07-25 00:15,-119.7326,39.1923,1431.00,87.80,24.80,10.12,M,6.00,0.00,30.19,M,10.00,19.00,CLR,M,M,M,M,M,M,M,M,M,M,M,M,M,M,83.56,KCXP 250015Z AUTO VRB06G19KT 10SM CLR 31/M04 A3019 RMK AO2,M
RTS,2023-07-25 00:15,-119.8764,39.6682,1539.00,86.00,17.60,7.90,230.00,15.00,0.00,30.21,M,10.00,20.00,CLR,M,M,M,M,M,M,M,M,M,M,M,M,M,M,81.85,KRTS 250015Z AUTO 23015G20KT 10SM CLR 30/M08 A3021 RMK AO2,M
MEV,2023-07-25 00:15,-119.7500,38.9963,1441.42,87.80,19.40,8.06,230.00,13.00,0.00,30.18,M,10.00,25.00,CLR,M,M,M,M,M,M,M,M,M,M,M,M,M,M,83.23,KMEV 250015Z AUTO 23013G25KT 10SM CLR 31/M07 A3018 RMK AO2,M
HTH,2023-07-25 00:15,-118.6315,38.5448,1282.89,95.00,32.00,10.85,190.00,10.00,0.00,30.11,M,10.00,18.00,CLR,M,M,M,M,M,M,M,M,M,M,M,M,M,M,89.71,KHTH 250015Z AUTO 19010G18KT 10SM CLR 35/M00 A3011 RMK A01,M
TMT,2023-07-25 00:15,-117.1971,39.4643,1749.34,72.70,48.60,42.46,270.00,7.00,0.00,30.30,M,M,22.00,SCT,OVC,M,M,6000.00,10000.00,M,M,M,M,M,M,M,M,M,72.70,KTMT 250015Z AUTO 27007G22KT SCT060 OVC100 23/09 A3030 RMK AO2 T02260092 PWINO,M
10U,2023-07-25 00:15,-116.1876,41.9532,1637.00,82.40,46.40,28.36,190.00,17.00,0.00,30.16,M,10.00,24.00,CLR,M,M,M,M,M,M,M,M,M,M,M,M,M,M,80.64,K10U 250015Z AUTO 19017G24KT 10SM CLR 28/08 A3016 RMK AO2,M
BAM,2023-07-25 00:15,-116.8743,40.5990,1382.36,91.40,46.40,21.29,220.00,8.00,0.00,30.11,M,10.00,M,SCT,M,M,M,10000.00,M,M,M,M,M,M,M,M,M,M,87.86,KBAM 250015Z AUTO 22008KT 10SM SCT100 33/08 A3011 RMK AO1,M
TPH,2023-07-25 00:18,-117.0904,38.0505,1654.00,90.00,45.00,21.10,240.00,13.00,0.00,30.19,M,10.00,18.00,SCT,M,M,M,11000.00,M,M,M,VCTS,M,M,M,M,M,M,86.45,KTPH 250018Z AUTO 24013G18KT 10SM VCTS SCT110 32/07 A3019 RMK AO2 LTG DSNT W AND NW T03220072 $,M
TPH,2023-07-25 00:26,-117.0904,38.0505,1654.00,90.00,45.00,21.10,200.00,13.00,0.00,30.20,M,10.00,20.00,BKN,M,M,M,11000.00,M,M,M,TS,M,M,M,M,M,M,86.45,KTPH 250026Z AUTO 20013G20KT 10SM TS BKN110 32/07 A3020 RMK AO2 LTG DSNT W AND NW TSB20 T03220072 $,M
05U,2023-07-25 00:30,-116.0051,39.6042,1811.23,86.00,42.80,22.02,M,M,0.00,30.25,M,10.00,M,M,M,M,M,M,M,M,M,M,M,M,M,M,M,M,82.95,K05U 250030Z AUTO 10SM 30/06 A3025 RMK A01,M
BVU,2023-07-25 00:35,-114.8611,35.9475,671.00,109.40,37.40,8.74,230.00,16.00,0.00,29.89,M,10.00,21.00,CLR,M,M,M,M,M,M,M,M,M,M,M,M,M,M,102.93,KBVU 250035Z AUTO 23016G21KT 10SM CLR 43/03 A2989 RMK AO2,M
CXP,2023-07-25 00:35,-119.7326,39.1923,1431.00,87.80,24.80,10.12,260.00,10.00,0.00,30.19,M,10.00,18.00,CLR,M,M,M,M,M,M,M,M,M,M,M,M,M,M,83.56,KCXP 250035Z AUTO 26010G18KT 230V290 10SM CLR 31/M04 A3019 RMK AO2,M
RTS,2023-07-25 00:35,-119.8764,39.6682,1539.00,84.20,14.00,7.16,220.00,14.00,0.00,30.21,M,10.00,25.00,CLR,M,M,M,M,M,M,M,M,M,M,M,M,M,M,80.44,KRTS 250035Z AUTO 22014G25KT 10SM CLR 29/M10 A3021 RMK AO2,M
MEV,2023-07-25 00:35,-119.7500,38.9963,1441.42,87.80,19.40,8.06,240.00,12.00,0.00,30.18,M,10.00,M,CLR,M,M,M,M,M,M,M,M,M,M,M,M,M,M,83.23,KMEV 250035Z AUTO 24012KT 10SM CLR 31/M07 A3018 RMK AO2,M
HTH,2023-07-25 00:35,-118.6315,38.5448,1282.89,93.20,28.40,9.91,260.00,8.00,0.00,30.11,M,10.00,17.00,CLR,M,M,M,M,M,M,M,M,M,M,M,M,M,M,87.89,KHTH 250035Z AUTO 26008G17KT 10SM CLR 34/M02 A3011 RMK A01,M
10U,2023-07-25 00:35,-116.1876,41.9532,1637.00,86.00,46.40,25.26,180.00,15.00,0.00,30.15,M,10.00,25.00,CLR,M,M,M,M,M,M,M,M,M,M,M,M,M,M,83.22,K10U 250035Z AUTO 18015G25KT 150V210 10SM CLR 30/08 A3015 RMK AO2,M
BAM,2023-07-25 00:35,-116.8743,40.5990,1382.36,91.40,44.60,19.89,210.00,5.00,0.00,30.11,M,10.00,M,CLR,M,M,M,M,M,M,M,M,M,M,M,M,M,M,87.68,KBAM 250035Z AUTO 21005KT 10SM CLR 33/07 A3011 RMK AO1,M
TMT,2023-07-25 00:35,-117.1971,39.4643,1749.34,71.20,51.40,49.58,170.00,7.00,0.00,30.32,M,M,M,SCT,SCT,OVC,M,4400.00,6000.00,10000.00,M,M,M,M,M,M,M,M,71.20,KTMT 250035Z AUTO 17007KT SCT044 SCT060 OVC100 22/11 A3032 RMK AO2 LTG DSNT SE T02180108 PWINO,M
05U,2023-07-25 00:50,-116.0051,39.6042,1811.23,86.00,42.80,22.02,M,M,0.00,30.25,M,10.00,M,M,M,M,M,M,M,M,M,M,M,M,M,M,M,M,82.95,K05U 250050Z AUTO 10SM 30/06 A3025 RMK A01,M
P68,2023-07-25 00:53,-116.0056,39.6014,1993.00,87.00,42.00,20.68,260.00,10.00,0.00,30.22,1013.90,M,19.00,M,M,M,M,M,M,M,M,M,M,M,M,M,M,M,83.70,KP68 250053Z AUTO 26010G19KT 31/06 A3022 RMK AO1 SLP139 T03060056,M
DRA,2023-07-25 00:53,-116.0278,36.6206,1009.00,102.00,41.00,12.52,260.00,7.00,0.00,30.00,1010.00,10.00,16.00,CLR,M,M,M,M,M,M,M,M,M,M,M,M,M,M,97.21,KDRA 250053Z AUTO 26007G16KT 10SM CLR 39/05 A3000 RMK AO2 SLP100 T03890050,M
ELY,2023-07-25 00:53,-114.8453,39.2950,1909.00,86.00,41.00,20.54,280.00,12.00,0.00,30.24,1012.60,10.00,19.00,FEW,M,M,M,10000.00,M,M,M,M,M,M,M,M,M,M,82.86,KELY 250053Z AUTO 28012G19KT 10SM FEW100 30/05 A3024 RMK AO2 SLP126 T03000050,M
VGT,2023-07-25 00:53,-115.1933,36.2111,667.00,109.00,43.00,10.99,220.00,12.00,0.00,29.89,1010.20,10.00,M,CLR,M,M,M,M,M,M,M,M,M,M,M,M,M,M,103.94,KVGT 250053Z 22012KT 10SM CLR 43/06 A2989 RMK AO2 SLP102 T04280061,M
LOL,2023-07-25 00:53,-118.5701,40.0684,1192.43,93.00,23.00,7.97,260.00,12.00,0.00,30.06,1013.10,10.00,24.00,CLR,M,M,M,M,M,M,M,M,M,M,M,28.00,230.00,2023-07-25 00:17,87.27,KLOL 250053Z AUTO 26012G24KT 10SM CLR 34/M05 A3006 RMK AO2 PK WND 23028/0017 SLP131 T03391050,M
BVU,2023-07-25 00:55,-114.8611,35.9475,671.00,107.60,37.40,9.21,230.00,8.00,0.00,29.89,M,10.00,17.00,CLR,M,M,M,M,M,M,M,M,M,M,M,M,M,M,101.34,KBVU 250055Z AUTO 23008G17KT 10SM CLR 42/03 A2989 RMK AO2,M
CXP,2023-07-25 00:55,-119.7326,39.1923,1431.00,87.80,24.80,10.12,250.00,11.00,0.00,30.19,M,10.00,19.00,CLR,M,M,M,M,M,M,M,M,M,M,M,M,M,M,83.56,KCXP 250055Z AUTO 25011G19KT 10SM CLR 31/M04 A3019 RMK AO2,M
RNO,2023-07-25 00:55,-119.7711,39.4839,1341.00,90.00,19.00,7.39,270.00,12.00,0.00,30.14,1014.50,10.00,21.00,SCT,M,M,M,25000.00,M,M,M,M,M,M,M,M,M,M,84.81,KRNO 250055Z 27012G21KT 10SM SCT250 32/M07 A3014 RMK AO2 SLP145 T03221072,M
LSV,2023-07-25 00:55,-115.0343,36.2362,570.00,107.80,39.40,9.91,160.00,9.00,0.00,29.83,1007.10,10.00,20.00,CLR,M,M,M,M,M,M,M,M,M,M,M,M,M,M,101.95,KLSV 250055Z AUTO 16009G20KT 10SM CLR 42/04 A2983 RMK AO2 SLP071 T04210041 $,M
RTS,2023-07-25 00:55,-119.8764,39.6682,1539.00,80.60,14.00,8.04,230.00,12.00,0.00,30.22,M,10.00,22.00,CLR,M,M,M,M,M,M,M,M,M,M,M,M,M,M,78.25,KRTS 250055Z AUTO 23012G22KT 10SM CLR 27/M10 A3022 RMK AO2,M
MEV,2023-07-25 00:55,-119.7500,38.9963,1441.42,87.80,21.20,8.70,230.00,13.00,0.00,30.18,M,10.00,25.00,CLR,M,M,M,M,M,M,M,M,M,M,M,M,M,M,83.33,KMEV 250055Z AUTO 23013G25KT 10SM CLR 31/M06 A3018 RMK AO2,M
HTH,2023-07-25 00:55,-118.6315,38.5448,1282.89,93.20,26.60,9.21,320.00,8.00,0.00,30.11,M,10.00,16.00,CLR,M,M,M,M,M,M,M,M,M,M,M,M,M,M,87.72,KHTH 250055Z AUTO 32008G16KT 10SM CLR 34/M03 A3011 RMK A01,M
TMT,2023-07-25 00:55,-117.1971,39.4643,1749.34,67.30,55.60,66.09,140.00,16.00,0.01,30.28,M,M,M,BKN,M,M,M,9000.00,M,M,M,M,M,M,M,M,M,M,67.30,KTMT 250055Z AUTO 14016KT BKN090 20/13 A3028 RMK AO2 P0001 T01960131 PWINO,M
BAM,2023-07-25 00:55,-116.8743,40.5990,1382.36,91.40,42.80,18.56,230.00,13.00,0.00,30.10,M,10.00,M,CLR,M,M,M,M,M,M,M,M,M,M,M,M,M,M,87.52,KBAM 250055Z AUTO 23013KT 10SM CLR 33/06 A3010 RMK AO1,M
10U,2023-07-25 00:55,-116.1876,41.9532,1637.00,84.20,44.60,24.99,190.00,15.00,0.00,30.15,M,10.00,26.00,CLR,M,M,M,M,M,M,M,M,M,M,M,M,M,M,81.73,K10U 250055Z AUTO 19015G26KT 10SM CLR 29/07 A3015 RMK AO2,M
INS,2023-07-25 00:55,-115.6733,36.5872,955.00,101.70,35.00,9.98,270.00,10.00,0.00,29.97,1009.30,10.00,M,CLR,M,M,M,M,M,M,M,M,M,M,M,M,M,M,95.77,KINS 250055Z AUTO 27010KT 10SM CLR 39/02 A2997 RMK AO2 SLP093 T03870016 $,M
EKO,2023-07-25 00:56,-115.7860,40.8242,1367.00,83.00,51.00,33.04,0.00,0.00,0.00,30.18,1015.40,10.00,M,CLR,M,M,M,M,M,M,M,M,M,M,M,M,M,M,81.51,KEKO 250056Z AUTO 00000KT 10SM CLR 28/11 A3018 RMK AO2 SLP154 T02830106,M
WMC,2023-07-25 00:56,-117.8072,40.9019,1315.00,94.00,23.00,7.73,250.00,16.00,0.00,30.06,1011.90,10.00,27.00,CLR,M,M,M,M,M,M,M,M,M,M,M,28.00,240.00,2023-07-25 00:14,88.02,KWMC 250056Z AUTO 25016G27KT 10SM CLR 34/M05 A3006 RMK AO2 PK WND 24028/0014 SLP119 T03441050,M
NFL,2023-07-25 00:56,-118.7010,39.4166,1199.00,95.00,27.00,8.85,280.00,15.00,0.00,30.09,1015.50,10.00,22.00,SCT,SCT,BKN,BKN,8000.00,15000.00,18000.00,25000.00,M,M,M,M,M,M,M,89.12,KNFL 250056Z 28015G22KT 10SM SCT080 SCT150 BKN180 BKN250 35/M03 A3009 RMK AO2 SLP155 CB DSNT E-SE T03501028,M
HND,2023-07-25 00:56,-115.1344,35.9729,742.79,106.00,46.00,13.46,260.00,10.00,0.00,29.95,1012.10,10.00,16.00,CLR,M,M,M,M,M,M,M,M,M,M,M,M,M,M,102.07,KHND 250056Z 26010G16KT 10SM CLR 41/08 A2995 RMK AO2 SLP121 T04110078,M
TPH,2023-07-25 00:56,-117.0904,38.0505,1654.00,76.00,57.00,51.76,190.00,14.00,T,30.26,1017.00,9.00,26.00,OVC,M,M,M,10000.00,M,M,M,-TSRA,M,M,M,33.00,190.00,2023-07-25 00:33,76.00,KTPH 250056Z AUTO 19014G26KT 9SM -TSRA OVC100 24/14 A3026 RMK AO2 PK WND 19033/0033 LTG DSNT NW-NE RAB36 TSB20 PRESRR SLP170 P0000 T02440139 $,M
LAS,2023-07-25 00:56,-115.1634,36.0719,663.00,106.00,42.00,11.55,190.00,11.00,0.00,29.89,1008.90,10.00,20.00,FEW,FEW,SCT,M,12000.00,20000.00,25000.00,M,M,M,M,M,M,M,M,100.99,KLAS 250056Z 19011G20KT 10SM FEW120 FEW200 SCT250 41/06 A2989 RMK AO2 SLP089 T04110056,M
LSV,2023-07-25 01:00,-115.0343,36.2362,570.00,107.60,39.20,9.89,180.00,19.00,0.00,29.83,1007.10,10.00,M,CLR,M,M,M,M,M,M,M,M,M,M,M,M,M,M,101.73,KLSV 250100Z AUTO 18019KT 10SM CLR 42/04 A2983 RMK AO2 WSHFT 0057 SLP071 $,M
LOL,2023-07-25 01:06,-118.5701,40.0684,1192.43,93.00,22.00,7.64,260.00,19.00,0.00,30.06,M,10.00,M,CLR,M,M,M,M,M,M,M,M,M,M,M,M,M,M,87.20,KLOL 250106Z AUTO 26019KT 10SM CLR 34/M06 A3006 RMK AO2 WSHFT 0046 T03391056,M
05U,2023-07-25 01:10,-116.0051,39.6042,1811.23,86.00,42.80,22.02,M,M,0.00,30.25,M,10.00,M,M,M,M,M,M,M,M,M,M,M,M,M,M,M,M,82.95,K05U 250110Z AUTO 10SM 30/06 A3025 RMK A01,M
LSV,2023-07-25 01:11,-115.0343,36.2362,570.00,109.40,41.00,10.06,170.00,15.00,0.00,29.83,1007.00,10.00,M,CLR,M,M,M,M,M,M,M,M,M,M,M,M,M,M,103.77,KLSV 250111Z AUTO 17015KT 10SM CLR 43/05 A2983 RMK AO2 WSHFT 06 SLP070 $,M
BVU,2023-07-25 01:15,-114.8611,35.9475,671.00,107.60,37.40,9.21,240.00,14.00,0.00,29.89,M,10.00,M,CLR,M,M,M,M,M,M,M,M,M,M,M,M,M,M,101.34,KBVU 250115Z AUTO 24014KT 10SM CLR 42/03 A2989 RMK AO2,M
CXP,2023-07-25 01:15,-119.7326,39.1923,1431.00,86.00,30.20,13.38,270.00,10.00,0.00,30.19,M,10.00,M,CLR,M,M,M,M,M,M,M,M,M,M,M,M,M,M,82.64,KCXP 250115Z AUTO 27010KT 10SM CLR 30/M01 A3019 RMK AO2,M
RTS,2023-07-25 01:15,-119.8764,39.6682,1539.00,80.60,14.00,8.04,240.00,16.00,0.00,30.22,M,10.00,22.00,CLR,M,M,M,M,M,M,M,M,M,M,M,M,M,M,78.25,KRTS 250115Z AUTO 24016G22KT 10SM CLR 27/M10 A3022 RMK AO2,M
MEV,2023-07-25 01:15,-119.7500,38.9963,1441.42,87.80,21.20,8.70,220.00,16.00,0.00,30.18,M,10.00,M,CLR,M,M,M,M,M,M,M,M,M,M,M,M,M,M,83.33,KMEV 250115Z AUTO 22016KT 10SM CLR 31/M06 A3018 RMK AO2,M
HTH,2023-07-25 01:15,-118.6315,38.5448,1282.89,93.20,26.60,9.21,330.00,6.00,0.00,30.11,M,10.00,M,CLR,M,M,M,M,M,M,M,M,M,M,M,M,M,M,87.72,KHTH 250115Z AUTO 33006KT 10SM CLR 34/M03 A3011 RMK A01,M
TMT,2023-07-25 01:15,-117.1971,39.4643,1749.34,71.60,52.70,51.31,140.00,10.00,0.00,30.27,M,M,M,SCT,M,M,M,9000.00,M,M,M,M,M,M,M,M,M,M,71.60,KTMT 250115Z AUTO 14010KT SCT090 22/12 A3027 RMK AO2 T02200115 PWINO,M
10U,2023-07-25 01:15,-116.1876,41.9532,1637.00,84.20,42.80,23.33,190.00,14.00,0.00,30.15,M,10.00,22.00,CLR,M,M,M,M,M,M,M,M,M,M,M,M,M,M,81.61,K10U 250115Z AUTO 19014G22KT 10SM CLR 29/06 A3015 RMK AO2,M
BAM,2023-07-25 01:15,-116.8743,40.5990,1382.36,91.40,42.80,18.56,250.00,9.00,0.00,30.10,M,10.00,M,CLR,M,M,M,M,M,M,M,M,M,M,M,M,M,M,87.52,KBAM 250115Z AUTO 25009KT 10SM CLR 33/06 A3010 RMK AO1,M
TPH,2023-07-25 01:17,-117.0904,38.0505,1654.00,76.00,55.00,48.14,340.00,14.00,0.01,30.25,M,8.00,21.00,FEW,SCT,OVC,M,3700.00,5500.00,10000.00,M,-RA,M,M,M,27.00,230.00,2023-07-25 00:57,76.00,KTPH 250117Z AUTO 34014G21KT 8SM -RA FEW037 SCT055 OVC100 24/13 A3025 RMK AO2 PK WND 23027/0057 LTG DSNT ALQDS TSE16 P0001 T02440128 $,M
INS,2023-07-25 01:20,-115.6733,36.5872,955.00,102.20,35.60,10.07,230.00,10.00,0.00,29.97,1009.30,10.00,M,CLR,M,M,M,M,M,M,M,M,M,M,M,M,M,M,96.30,KINS 250120Z AUTO 23010KT 10SM CLR 39/02 A2997 RMK AO2 WSHFT 11 SLP093 $,M
TPH,2023-07-25 01:26,-117.0904,38.0505,1654.00,78.00,57.00,48.44,360.00,13.00,0.01,30.24,M,10.00,22.00,SCT,SCT,BKN,M,3300.00,5000.00,10000.00,M,-RA,M,M,M,27.00,230.00,2023-07-25 00:57,78.00,KTPH 250126Z AUTO 36013G22KT 10SM -RA SCT033 SCT050 BKN100 26/14 A3024 RMK AO2 PK WND 23027/0057 WSHFT 0106 LTG DSNT W-NE TSE16 P0001 T02560139 $,M
05U,2023-07-25 01:30,-116.0051,39.6042,1811.23,84.20,44.60,24.99,M,M,0.00,30.27,M,9.00,M,M,M,M,M,M,M,M,M,M,M,M,M,M,M,M,81.73,K05U 250130Z AUTO 9SM 29/07 A3027 RMK A01,M
BVU,2023-07-25 01:35,-114.8611,35.9475,671.00,107.60,37.40,9.21,240.00,10.00,0.00,29.89,M,10.00,M,CLR,M,M,M,M,M,M,M,M,M,M,M,M,M,M,101.34,KBVU 250135Z AUTO 24010KT 10SM CLR 42/03 A2989 RMK AO2,M
CXP,2023-07-25 01:35,-119.7326,39.1923,1431.00,86.00,28.40,12.44,270.00,11.00,0.00,30.19,M,10.00,M,CLR,M,M,M,M,M,M,M,M,M,M,M,M,M,M,82.54,KCXP 250135Z AUTO 27011KT 10SM CLR 30/M02 A3019 RMK AO2,M
RTS,2023-07-25 01:35,-119.8764,39.6682,1539.00,82.40,15.80,8.20,240.00,17.00,0.00,30.22,M,10.00,23.00,CLR,M,M,M,M,M,M,M,M,M,M,M,M,M,M,79.28,KRTS 250135Z AUTO 24017G23KT 10SM CLR 28/M09 A3022 RMK AO2,M
MEV,2023-07-25 01:35,-119.7500,38.9963,1441.42,86.00,19.40,8.53,250.00,11.00,0.00,30.18,M,10.00,M,CLR,M,M,M,M,M,M,M,M,M,M,M,M,M,M,81.94,KMEV 250135Z AUTO 25011KT 10SM CLR 30/M07 A3018 RMK AO2,M
HTH,2023-07-25 01:35,-118.6315,38.5448,1282.89,93.20,26.60,9.21,M,5.00,0.00,30.11,M,10.00,13.00,CLR,M,M,M,M,M,M,M,M,M,M,M,M,M,M,87.72,KHTH 250135Z AUTO VRB05G13KT 10SM CLR 34/M03 A3011 RMK A01,M
TMT,2023-07-25 01:35,-117.1971,39.4643,1749.34,71.20,55.00,56.58,160.00,5.00,0.00,30.27,M,M,M,CLR,M,M,M,M,M,M,M,M,M,M,M,M,M,M,71.20,KTMT 250135Z AUTO 16005KT CLR 22/13 A3027 RMK AO2 T02180128 PWINO,M
10U,2023-07-25 01:35,-116.1876,41.9532,1637.00,84.20,42.80,23.33,200.00,14.00,0.00,30.14,M,10.00,22.00,CLR,M,M,M,M,M,M,M,M,M,M,M,M,M,M,81.61,K10U 250135Z AUTO 20014G22KT 10SM CLR 29/06 A3014 RMK AO2,M
BAM,2023-07-25 01:35,-116.8743,40.5990,1382.36,91.40,42.80,18.56,220.00,9.00,0.00,30.09,M,10.00,M,CLR,M,M,M,M,M,M,M,M,M,M,M,M,M,M,87.52,KBAM 250135Z AUTO 22009KT 10SM CLR 33/06 A3009 RMK AO1,M
05U,2023-07-25 01:50,-116.0051,39.6042,1811.23,80.60,46.40,30.07,M,M,0.00,30.29,M,10.00,M,M,M,M,M,M,M,M,M,M,M,M,M,M,M,M,79.56,K05U 250150Z AUTO 10SM 27/08 A3029 RMK A01,M
P68,2023-07-25 01:53,-116.0056,39.6014,1993.00,78.00,46.00,32.26,260.00,23.00,0.00,30.28,1016.30,M,33.00,M,M,M,M,M,M,M,M,M,M,M,M,38.00,260.00,2023-07-25 01:30,78.00,KP68 250153Z AUTO 26023G33KT 26/08 A3028 RMK AO1 PK WND 26038/0130 PRESRR SLP163 T02560078,M
DRA,2023-07-25 01:53,-116.0278,36.6206,1009.00,100.00,41.00,13.30,210.00,4.00,0.00,30.00,1009.80,10.00,M,CLR,M,M,M,M,M,M,M,M,M,M,M,M,M,M,95.42,KDRA 250153Z AUTO 21004KT 10SM CLR 38/05 A3000 RMK AO2 SLP098 T03780050,M
ELY,2023-07-25 01:53,-114.8453,39.2950,1909.00,84.00,39.00,20.27,280.00,12.00,0.00,30.25,1012.90,10.00,M,CLR,M,M,M,M,M,M,M,M,M,M,M,M,M,M,81.29,KELY 250153Z AUTO 28012KT 10SM CLR 29/04 A3025 RMK AO2 SLP129 T02890039,M
VGT,2023-07-25 01:53,-115.1933,36.2111,667.00,108.00,44.00,11.76,240.00,13.00,0.00,29.89,1010.20,10.00,M,CLR,M,M,M,M,M,M,M,M,M,M,M,M,M,M,103.33,KVGT 250153Z 24013KT 10SM CLR 42/07 A2989 RMK AO2 SLP102 T04220067,M
LOL,2023-07-25 01:53,-118.5701,40.0684,1192.43,90.00,19.00,7.39,280.00,22.00,0.00,30.07,1013.70,10.00,M,CLR,M,M,M,M,M,M,M,M,M,M,M,28.00,280.00,2023-07-25 01:51,84.81,KLOL 250153Z AUTO 28022KT 10SM CLR 32/M07 A3007 RMK AO2 PK WND 28028/0151 WSHFT 0046 SLP137 T03221072,M
BVU,2023-07-25 01:55,-114.8611,35.9475,671.00,107.60,37.40,9.21,240.00,11.00,0.00,29.89,M,10.00,M,CLR,M,M,M,M,M,M,M,M,M,M,M,M,M,M,101.34,KBVU 250155Z AUTO 24011KT 10SM CLR 42/03 A2989 RMK AO2,M
CXP,2023-07-25 01:55,-119.7326,39.1923,1431.00,84.20,33.80,16.39,260.00,10.00,0.00,30.19,M,10.00,17.00,CLR,M,M,M,M,M,M,M,M,M,M,M,M,M,M,81.30,KCXP 250155Z AUTO 26010G17KT 10SM CLR 29/01 A3019 RMK AO2,M
RNO,2023-07-25 01:55,-119.7711,39.4839,1341.00,86.00,20.00,8.75,270.00,13.00,0.00,30.16,1015.00,10.00,23.00,SCT,M,M,M,25000.00,M,M,M,M,M,M,M,M,M,M,81.97,KRNO 250155Z 27013G23KT 10SM SCT250 30/M07 A3016 RMK AO2 SLP150 T03001067,M
LSV,2023-07-25 01:55,-115.0343,36.2362,570.00,106.70,41.00,10.89,140.00,14.00,0.00,29.84,1007.30,10.00,M,CLR,M,M,M,M,M,M,M,M,M,M,M,M,M,M,101.36,KLSV 250155Z AUTO 14014KT 10SM CLR 42/05 A2984 RMK AO2 SLP073 T04150051 $,M
RTS,2023-07-25 01:55,-119.8764,39.6682,1539.00,78.80,15.80,9.23,240.00,15.00,0.00,30.23,M,10.00,21.00,CLR,M,M,M,M,M,M,M,M,M,M,M,M,M,M,78.80,KRTS 250155Z AUTO 24015G21KT 10SM CLR 26/M09 A3023 RMK AO2,M
MEV,2023-07-25 01:55,-119.7500,38.9963,1441.42,86.00,19.40,8.53,240.00,8.00,0.00,30.18,M,10.00,M,CLR,M,M,M,M,M,M,M,M,M,M,M,M,M,M,81.94,KMEV 250155Z AUTO 24008KT 10SM CLR 30/M07 A3018 RMK AO2,M
HTH,2023-07-25 01:55,-118.6315,38.5448,1282.89,93.20,24.80,8.54,10.00,6.00,0.00,30.11,M,10.00,M,CLR,M,M,M,M,M,M,M,M,M,M,M,M,M,M,87.56,KHTH 250155Z AUTO 01006KT 10SM CLR 34/M04 A3011 RMK A01,M
TMT,2023-07-25 01:55,-117.1971,39.4643,1749.34,71.80,54.30,54.04,240.00,6.00,0.00,30.27,M,M,M,CLR,M,M,M,M,M,M,M,M,M,M,M,M,M,M,71.80,KTMT 250155Z AUTO 24006KT CLR 22/12 A3027 RMK AO2 T02210124 PWINO,M
BAM,2023-07-25 01:55,-116.8743,40.5990,1382.36,89.60,41.00,18.33,220.00,9.00,0.00,30.09,M,10.00,M,CLR,M,M,M,M,M,M,M,M,M,M,M,M,M,M,85.82,KBAM 250155Z AUTO 22009KT 10SM CLR 32/05 A3009 RMK AO1,M
10U,2023-07-25 01:55,-116.1876,41.9532,1637.00,82.40,42.80,24.72,200.00,12.00,0.00,30.14,M,10.00,19.00,CLR,M,M,M,M,M,M,M,M,M,M,M,M,M,M,80.39,K10U 250155Z AUTO 20012G19KT 10SM CLR 28/06 A3014 RMK AO2,M
INS,2023-07-25 01:55,-115.6733,36.5872,955.00,100.40,34.00,9.98,250.00,10.00,0.00,29.98,1009.60,10.00,M,CLR,M,M,M,M,M,M,M,M,M,M,M,M,M,M,94.50,KINS 250155Z AUTO 25010KT 10SM CLR 38/01 A2998 RMK AO2 SLP096 T03800011 $,M
EKO,2023-07-25 01:56,-115.7860,40.8242,1367.00,81.00,51.00,35.25,100.00,6.00,0.00,30.16,1014.70,10.00,M,CLR,M,M,M,M,M,M,M,M,M,M,M,M,M,M,80.22,KEKO 250156Z AUTO 10006KT 10SM CLR 27/11 A3016 RMK AO2 SLP147 T02720106,M
WMC,2023-07-25 01:56,-117.8072,40.9019,1315.00,93.00,12.00,4.96,250.00,20.00,0.00,30.06,1011.80,10.00,29.00,CLR,M,M,M,M,M,M,M,M,M,M,M,30.00,240.00,2023-07-25 01:26,86.68,KWMC 250156Z AUTO 25020G29KT 10SM CLR 34/M11 A3006 RMK AO2 PK WND 24030/0126 SLP118 T03391111,M
NFL,2023-07-25 01:56,-118.7010,39.4166,1199.00,92.00,27.00,9.71,270.00,18.00,0.00,30.09,1015.60,10.00,25.00,FEW,SCT,SCT,SCT,8000.00,15000.00,18000.00,25000.00,M,M,M,M,M,M,M,86.85,KNFL 250156Z 27018G25KT 10SM FEW080 SCT150 SCT180 SCT250 33/M03 A3009 RMK AO2 SLP156 T03331028,M
HND,2023-07-25 01:56,-115.1344,35.9729,742.79,104.00,44.00,13.24,220.00,13.00,0.00,29.95,1012.10,10.00,M,CLR,M,M,M,M,M,M,M,M,M,M,M,M,M,M,99.70,KHND 250156Z 22013KT 10SM CLR 40/07 A2995 RMK AO2 SLP121 T04000067,M
TPH,2023-07-25 01:56,-117.0904,38.0505,1654.00,75.00,55.00,49.78,M,M,0.01,30.23,1015.60,10.00,M,FEW,M,M,M,11000.00,M,M,M,M,M,M,M,27.00,230.00,2023-07-25 00:57,75.00,KTPH 250156Z AUTO 10SM FEW110 24/13 A3023 RMK AO2 PK WND 23027/0057 WSHFT 0106 LTG DSNT ALQDS RAE31 TSE16 SLP156 P0001 T02390128 $,M
LAS,2023-07-25 01:56,-115.1634,36.0719,663.00,106.00,41.00,11.12,200.00,8.00,0.00,29.90,1009.10,10.00,M,FEW,FEW,SCT,M,12000.00,20000.00,25000.00,M,M,M,M,M,M,M,M,100.73,KLAS 250156Z 20008KT 10SM FEW120 FEW200 SCT250 41/05 A2990 RMK AO2 SLP091 T04110050,M
05U,2023-07-25 02:10,-116.0051,39.6042,1811.23,77.00,44.60,31.62,M,M,0.00,30.31,M,10.00,M,M,M,M,M,M,M,M,M,M,M,M,M,M,M,M,77.00,K05U 250210Z AUTO 10SM 25/07 A3031 RMK A01,M
BVU,2023-07-25 02:15,-114.8611,35.9475,671.00,105.80,37.40,9.72,260.00,11.00,0.00,29.90,M,10.00,M,CLR,M,M,M,M,M,M,M,M,M,M,M,M,M,M,99.76,KBVU 250215Z AUTO 26011KT 10SM CLR 41/03 A2990 RMK AO2,M
CXP,2023-07-25 02:15,-119.7326,39.1923,1431.00,82.40,33.80,17.38,270.00,14.00,0.00,30.20,M,10.00,M,CLR,M,M,M,M,M,M,M,M,M,M,M,M,M,M,80.03,KCXP 250215Z AUTO 27014KT 10SM CLR 28/01 A3020 RMK AO2,M
RTS,2023-07-25 02:15,-119.8764,39.6682,1539.00,77.00,15.80,9.79,250.00,12.00,0.00,30.23,M,10.00,17.00,CLR,M,M,M,M,M,M,M,M,M,M,M,M,M,M,77.00,KRTS 250215Z AUTO 25012G17KT 10SM CLR 25/M09 A3023 RMK AO2,M
MEV,2023-07-25 02:15,-119.7500,38.9963,1441.42,84.20,19.40,9.04,250.00,9.00,0.00,30.18,M,10.00,M,CLR,M,M,M,M,M,M,M,M,M,M,M,M,M,M,80.68,KMEV 250215Z AUTO 25009KT 10SM CLR 29/M07 A3018 RMK AO2,M
HTH,2023-07-25 02:15,-118.6315,38.5448,1282.89,91.40,24.80,9.04,270.00,7.00,0.00,30.12,M,10.00,M,CLR,M,M,M,M,M,M,M,M,M,M,M,M,M,M,86.21,KHTH 250215Z AUTO 27007KT 10SM CLR 33/M04 A3012 RMK A01,M
10U,2023-07-25 02:15,-116.1876,41.9532,1637.00,82.40,42.80,24.72,190.00,9.00,0.00,30.14,M,10.00,M,CLR,M,M,M,M,M,M,M,M,M,M,M,M,M,M,80.39,K10U 250215Z AUTO 19009KT 10SM CLR 28/06 A3014 RMK AO2,M
BAM,2023-07-25 02:15,-116.8743,40.5990,1382.36,89.60,41.00,18.33,220.00,9.00,0.00,30.10,M,10.00,M,CLR,M,M,M,M,M,M,M,M,M,M,M,M,M,M,85.82,KBAM 250215Z AUTO 22009KT 10SM CLR 32/05 A3010 RMK AO1,M
TMT,2023-07-25 02:15,-117.1971,39.4643,1749.34,72.00,54.50,54.07,240.00,6.00,0.00,30.28,M,M,M,CLR,M,M,M,M,M,M,M,M,M,M,M,M,M,M,72.00,KTMT 250215Z AUTO 24006KT CLR 22/13 A3028 RMK AO2 T02220125 PWINO,M
05U,2023-07-25 02:30,-116.0051,39.6042,1811.23,75.20,44.60,33.57,M,M,0.00,30.31,M,10.00,M,M,M,M,M,M,M,M,M,M,M,M,M,M,M,M,75.20,K05U 250230Z AUTO 10SM 24/07 A3031 RMK A01,M
BVU,2023-07-25 02:35,-114.8611,35.9475,671.00,104.00,37.40,10.25,250.00,10.00,0.00,29.90,M,10.00,M,CLR,M,M,M,M,M,M,M,M,M,M,M,M,M,M,98.19,KBVU 250235Z AUTO 25010KT 10SM CLR 40/03 A2990 RMK AO2,M
CXP,2023-07-25 02:35,-119.7326,39.1923,1431.00,82.40,35.60,18.67,270.00,10.00,0.00,30.20,M,10.00,M,CLR,M,M,M,M,M,M,M,M,M,M,M,M,M,M,80.08,KCXP 250235Z AUTO 27010KT 10SM CLR 28/02 A3020 RMK AO2,M
RTS,2023-07-25 02:35,-119.8764,39.6682,1539.00,78.80,15.80,9.23,250.00,9.00,0.00,30.23,M,10.00,M,CLR,M,M,M,M,M,M,M,M,M,M,M,M,M,M,78.80,KRTS 250235Z AUTO 25009KT 10SM CLR 26/M09 A3023 RMK AO2,M
MEV,2023-07-25 02:35,-119.7500,38.9963,1441.42,80.60,26.60,13.75,230.00,5.00,0.00,30.19,M,10.00,11.00,CLR,M,M,M,M,M,M,M,M,M,M,M,M,M,M,78.68,KMEV 250235Z AUTO 23005G11KT 10SM CLR 27/M03 A3019 RMK AO2,M
HTH,2023-07-25 02:35,-118.6315,38.5448,1282.89,91.40,23.00,8.38,290.00,11.00,0.00,30.12,M,10.00,M,CLR,M,M,M,M,M,M,M,M,M,M,M,M,M,M,86.08,KHTH 250235Z AUTO 29011KT 10SM CLR 33/M05 A3012 RMK A01,M
10U,2023-07-25 02:35,-116.1876,41.9532,1637.00,80.60,44.60,28.08,180.00,9.00,0.00,30.14,M,10.00,M,CLR,M,M,M,M,M,M,M,M,M,M,M,M,M,M,79.42,K10U 250235Z AUTO 18009KT 10SM CLR 27/07 A3014 RMK AO2,M
BAM,2023-07-25 02:35,-116.8743,40.5990,1382.36,87.80,42.80,20.79,220.00,16.00,0.00,30.11,M,10.00,23.00,CLR,M,M,M,M,M,M,M,M,M,M,M,M,M,M,84.40,KBAM 250235Z AUTO 22016G23KT 10SM CLR 31/06 A3011 RMK AO1,M
TMT,2023-07-25 02:35,-117.1971,39.4643,1749.34,72.00,53.00,51.18,200.00,8.00,0.00,30.28,M,M,M,CLR,M,M,M,M,M,M,M,M,M,M,M,M,M,M,72.00,KTMT 250235Z AUTO 20008KT CLR 22/12 A3028 RMK AO2 T02220116 PWINO,M
05U,2023-07-25 02:50,-116.0051,39.6042,1811.23,75.20,44.60,33.57,M,M,0.00,30.31,M,10.00,M,M,M,M,M,M,M,M,M,M,M,M,M,M,M,M,75.20,K05U 250250Z AUTO 10SM 24/07 A3031 RMK A01,M
P68,2023-07-25 02:53,-116.0056,39.6014,1993.00,74.00,45.00,35.48,120.00,9.00,0.00,30.28,1016.30,M,M,M,M,M,M,M,M,M,M,M,M,M,M,35.00,260.00,2023-07-25 01:55,74.00,KP68 250253Z AUTO 12009KT 23/07 A3028 RMK AO1 PK WND 26035/0155 SLP163 T02330072 53013,M
DRA,2023-07-25 02:53,-116.0278,36.6206,1009.00,98.00,42.00,14.68,200.00,7.00,0.00,30.01,1010.00,10.00,15.00,CLR,M,M,M,M,M,M,M,M,M,M,M,M,M,M,93.63,KDRA 250253Z AUTO 20007G15KT 10SM CLR 37/06 A3001 RMK AO2 SLP100 T03670056 55003,M
ELY,2023-07-25 02:53,-114.8453,39.2950,1909.00,78.00,41.00,26.64,280.00,8.00,0.00,30.27,1013.50,10.00,M,FEW,M,M,M,12000.00,M,M,M,M,M,M,M,M,M,M,78.00,KELY 250253Z AUTO 28008KT 10SM FEW120 26/05 A3027 RMK AO2 SLP135 T02560050 53007,M
VGT,2023-07-25 02:53,-115.1933,36.2111,667.00,106.00,45.00,12.96,230.00,9.00,0.00,29.90,1010.70,10.00,M,CLR,M,M,M,M,M,M,M,M,M,M,M,M,M,M,101.83,KVGT 250253Z 23009KT 10SM CLR 41/07 A2990 RMK AO2 SLP107 T04110072 53000,M
LOL,2023-07-25 02:53,-118.5701,40.0684,1192.43,86.00,19.00,8.39,280.00,14.00,0.00,30.09,1014.10,10.00,M,CLR,M,M,M,M,M,M,M,M,M,M,M,29.00,280.00,2023-07-25 01:54,81.92,KLOL 250253Z AUTO 28014KT 10SM CLR 30/M07 A3009 RMK AO2 PK WND 28029/0154 SLP141 T03001072 53010,M
BVU,2023-07-25 02:55,-114.8611,35.9475,671.00,104.00,37.40,10.25,240.00,7.00,0.00,29.91,M,10.00,M,CLR,M,M,M,M,M,M,M,M,M,M,M,M,M,M,98.19,KBVU 250255Z AUTO 24007KT 10SM CLR 40/03 A2991 RMK AO2,M
CXP,2023-07-25 02:55,-119.7326,39.1923,1431.00,80.60,35.60,19.79,270.00,10.00,0.00,30.21,M,10.00,15.00,CLR,M,M,M,M,M,M,M,M,M,M,M,M,M,M,78.94,KCXP 250255Z AUTO 27010G15KT 10SM CLR 27/02 A3021 RMK AO2,M
RNO,2023-07-25 02:55,-119.7711,39.4839,1341.00,83.00,21.00,10.06,290.00,12.00,0.00,30.17,1015.20,10.00,M,SCT,M,M,M,25000.00,M,M,M,M,M,M,M,M,M,M,79.94,KRNO 250255Z 29012KT 10SM SCT250 28/M06 A3017 RMK AO2 SLP152 T02831061 53005,M
RTS,2023-07-25 02:55,-119.8764,39.6682,1539.00,77.00,17.60,10.59,240.00,11.00,0.00,30.23,M,10.00,M,CLR,M,M,M,M,M,M,M,M,M,M,M,M,M,M,77.00,KRTS 250255Z AUTO 24011KT 10SM CLR 25/M08 A3023 RMK AO2,M
MEV,2023-07-25 02:55,-119.7500,38.9963,1441.42,78.80,24.80,13.54,0.00,0.00,0.00,30.19,M,10.00,M,CLR,M,M,M,M,M,M,M,M,M,M,M,M,M,M,78.80,KMEV 250255Z AUTO 00000KT 10SM CLR 26/M04 A3019 RMK AO2,M
HTH,2023-07-25 02:55,-118.6315,38.5448,1282.89,87.80,23.00,9.39,290.00,9.00,0.00,30.13,M,10.00,M,CLR,M,M,M,M,M,M,M,M,M,M,M,M,M,M,83.43,KHTH 250255Z AUTO 29009KT 10SM CLR 31/M05 A3013 RMK A01,M
TMT,2023-07-25 02:55,-117.1971,39.4643,1749.34,69.60,54.00,57.61,200.00,5.00,0.00,30.28,M,M,M,CLR,M,M,M,M,M,M,M,M,M,M,M,M,M,M,69.60,KTMT 250255Z AUTO 20005KT CLR 21/12 A3028 RMK AO2 60001 T02090123 PWINO,M
BAM,2023-07-25 02:55,-116.8743,40.5990,1382.36,87.80,42.80,20.79,210.00,17.00,0.00,30.11,M,10.00,22.00,CLR,M,M,M,M,M,M,M,M,M,M,M,M,M,M,84.40,KBAM 250255Z AUTO 21017G22KT 10SM CLR 31/06 A3011 RMK AO1,M
10U,2023-07-25 02:55,-116.1876,41.9532,1637.00,78.80,44.60,29.79,190.00,7.00,0.00,30.14,M,10.00,M,CLR,M,M,M,M,M,M,M,M,M,M,M,M,M,M,78.80,K10U 250255Z AUTO 19007KT 10SM CLR 26/07 A3014 RMK AO2,M
INS,2023-07-25 02:55,-115.6733,36.5872,955.00,98.00,34.30,10.86,230.00,11.00,0.00,29.99,1009.80,10.00,M,CLR,M,M,M,M,M,M,M,M,M,M,M,M,M,M,92.52,KINS 250255Z AUTO 23011KT 10SM CLR 37/01 A2999 RMK AO2 SLP098 T03660013 55000 $,M
LSV,2023-07-25 02:55,-115.0343,36.2362,570.00,104.40,39.40,10.95,40.00,1.00,0.00,29.85,1007.60,10.00,M,CLR,M,M,M,M,M,M,M,M,M,M,M,M,M,M,98.95,KLSV 250255Z COR AUTO 04001KT 10SM CLR 40/04 A2985 RMK AO2 SLP076 T04020041 53001 $ COR 0332,M
EKO,2023-07-25 02:56,-115.7860,40.8242,1367.00,79.00,51.00,37.64,80.00,3.00,0.00,30.16,1014.70,10.00,M,CLR,M,M,M,M,M,M,M,M,M,M,M,M,M,M,79.00,KEKO 250256Z AUTO 08003KT 10SM CLR 26/11 A3016 RMK AO2 SLP147 T02610106 56012,M
WMC,2023-07-25 02:56,-117.8072,40.9019,1315.00,86.00,12.00,6.18,260.00,15.00,0.00,30.08,1012.90,10.00,24.00,CLR,M,M,M,M,M,M,M,M,M,M,M,28.00,270.00,2023-07-25 02:03,81.64,KWMC 250256Z AUTO 26015G24KT 10SM CLR 30/M11 A3008 RMK AO2 PK WND 27028/0203 SLP129 T03001111 53008,M
NFL,2023-07-25 02:56,-118.7010,39.4166,1199.00,86.00,26.00,11.27,270.00,15.00,0.00,30.10,1016.00,10.00,20.00,FEW,SCT,SCT,M,8000.00,15000.00,25000.00,M,M,M,M,M,M,M,M,82.35,KNFL 250256Z 27015G20KT 10SM FEW080 SCT150 SCT250 30/M03 A3010 RMK AO2 SLP160 T03001033 53005,M
HND,2023-07-25 02:56,-115.1344,35.9729,742.79,102.00,45.00,14.60,220.00,10.00,0.00,29.97,1012.50,10.00,M,CLR,M,M,M,M,M,M,M,M,M,M,M,M,M,M,97.95,KHND 250256Z 22010KT 10SM CLR 39/07 A2997 RMK AO2 SLP125 T03890072 53001,M
TPH,2023-07-25 02:56,-117.0904,38.0505,1654.00,76.00,52.00,43.13,M,M,0.00,30.24,1016.00,10.00,M,BKN,M,M,M,10000.00,M,M,M,M,M,M,M,M,M,M,76.00,KTPH 250256Z AUTO 10SM BKN100 24/11 A3024 RMK AO2 LTG DSNT SW AND W SLP160 60001 T02440111 51010 $,M
LAS,2023-07-25 02:56,-115.1634,36.0719,663.00,104.00,42.00,12.26,200.00,9.00,0.00,29.91,1009.40,10.00,M,FEW,FEW,M,M,12000.00,20000.00,M,M,M,M,M,M,M,M,M,99.21,KLAS 250256Z 20009KT 10SM FEW120 FEW200 40/06 A2991 RMK AO2 SLP094 T04000056 55001,M
05U,2023-07-25 03:10,-116.0051,39.6042,1811.23,73.40,44.60,35.66,M,M,0.00,30.31,M,10.00,M,M,M,M,M,M,M,M,M,M,M,M,M,M,M,M,73.40,K05U 250310Z AUTO 10SM 23/07 A3031 RMK A01,M
BVU,2023-07-25 03:15,-114.8611,35.9475,671.00,102.20,37.40,10.81,240.00,6.00,0.00,29.91,M,10.00,M,CLR,M,M,M,M,M,M,M,M,M,M,M,M,M,M,96.63,KBVU 250315Z AUTO 24006KT 10SM CLR 39/03 A2991 RMK AO2,M
CXP,2023-07-25 03:15,-119.7326,39.1923,1431.00,78.80,35.60,21.00,280.00,8.00,0.00,30.21,M,10.00,M,CLR,M,M,M,M,M,M,M,M,M,M,M,M,M,M,78.80,KCXP 250315Z AUTO 28008KT 10SM CLR 26/02 A3021 RMK AO2,M
RTS,2023-07-25 03:15,-119.8764,39.6682,1539.00,77.00,15.80,9.79,240.00,11.00,0.00,30.24,M,10.00,18.00,CLR,M,M,M,M,M,M,M,M,M,M,M,M,M,M,77.00,KRTS 250315Z AUTO 24011G18KT 10SM CLR 25/M09 A3024 RMK AO2,M
MEV,2023-07-25 03:15,-119.7500,38.9963,1441.42,77.00,28.40,16.67,0.00,0.00,0.00,30.20,M,10.00,M,CLR,M,M,M,M,M,M,M,M,M,M,M,M,M,M,77.00,KMEV 250315Z AUTO 00000KT 10SM CLR 25/M02 A3020 RMK AO2,M
HTH,2023-07-25 03:15,-118.6315,38.5448,1282.89,87.80,24.80,10.12,270.00,7.00,0.00,30.14,M,10.00,M,CLR,M,M,M,M,M,M,M,M,M,M,M,M,M,M,83.56,KHTH 250315Z AUTO 27007KT 10SM CLR 31/M04 A3014 RMK A01,M
TMT,2023-07-25 03:15,-117.1971,39.4643,1749.34,66.00,54.30,65.93,0.00,0.00,0.00,30.28,M,M,M,CLR,M,M,M,M,M,M,M,M,M,M,M,M,M,M,66.00,KTMT 250315Z AUTO 00000KT CLR 19/12 A3028 RMK AO2 T01880124 PWINO,M
10U,2023-07-25 03:15,-116.1876,41.9532,1637.00,78.80,44.60,29.79,200.00,8.00,0.00,30.15,M,10.00,M,CLR,M,M,M,M,M,M,M,M,M,M,M,M,M,M,78.80,K10U 250315Z AUTO 20008KT 10SM CLR 26/07 A3015 RMK AO2,M
BAM,2023-07-25 03:15,-116.8743,40.5990,1382.36,86.00,42.80,22.02,220.00,15.00,0.00,30.12,M,10.00,19.00,CLR,M,M,M,M,M,M,M,M,M,M,M,M,M,M,82.95,KBAM 250315Z AUTO 22015G19KT 10SM CLR 30/06 A3012 RMK AO1,M
05U,2023-07-25 03:30,-116.0051,39.6042,1811.23,71.60,44.60,37.89,M,M,0.00,30.31,M,10.00,M,M,M,M,M,M,M,M,M,M,M,M,M,M,M,M,71.60,K05U 250330Z AUTO 10SM 22/07 A3031 RMK A01,M
BVU,2023-07-25 03:35,-114.8611,35.9475,671.00,100.40,39.20,12.25,220.00,5.00,0.00,29.92,M,10.00,M,CLR,M,M,M,M,M,M,M,M,M,M,M,M,M,M,95.43,KBVU 250335Z AUTO 22005KT 10SM CLR 38/04 A2992 RMK AO2,M
CXP,2023-07-25 03:35,-119.7326,39.1923,1431.00,77.00,35.60,22.28,290.00,10.00,0.00,30.22,M,10.00,M,CLR,M,M,M,M,M,M,M,M,M,M,M,M,M,M,77.00,KCXP 250335Z AUTO 29010KT 10SM CLR 25/02 A3022 RMK AO2,M
RTS,2023-07-25 03:35,-119.8764,39.6682,1539.00,75.20,14.00,9.61,240.00,13.00,0.00,30.24,M,10.00,19.00,CLR,M,M,M,M,M,M,M,M,M,M,M,M,M,M,75.20,KRTS 250335Z AUTO 24013G19KT 10SM CLR 24/M10 A3024 RMK AO2,M
MEV,2023-07-25 03:35,-119.7500,38.9963,1441.42,73.40,23.00,15.03,170.00,5.00,0.00,30.21,M,10.00,M,CLR,M,M,M,M,M,M,M,M,M,M,M,M,M,M,73.40,KMEV 250335Z AUTO 17005KT 10SM CLR 23/M05 A3021 RMK AO2,M
HTH,2023-07-25 03:35,-118.6315,38.5448,1282.89,86.00,23.00,9.94,270.00,10.00,0.00,30.14,M,10.00,M,CLR,M,M,M,M,M,M,M,M,M,M,M,M,M,M,82.14,KHTH 250335Z AUTO 27010KT 10SM CLR 30/M05 A3014 RMK A01,M
10U,2023-07-25 03:35,-116.1876,41.9532,1637.00,77.00,44.60,31.62,180.00,8.00,0.00,30.15,M,10.00,M,CLR,M,M,M,M,M,M,M,M,M,M,M,M,M,M,77.00,K10U 250335Z AUTO 18008KT 10SM CLR 25/07 A3015 RMK AO2,M
BAM,2023-07-25 03:35,-116.8743,40.5990,1382.36,86.00,42.80,22.02,220.00,14.00,0.00,30.13,M,10.00,19.00,CLR,M,M,M,M,M,M,M,M,M,M,M,M,M,M,82.95,KBAM 250335Z AUTO 22014G19KT 10SM CLR 30/06 A3013 RMK AO1,M
TMT,2023-07-25 03:35,-117.1971,39.4643,1749.34,67.30,52.70,59.44,220.00,7.00,0.00,30.28,M,M,M,CLR,M,M,M,M,M,M,M,M,M,M,M,M,M,M,67.30,KTMT 250335Z AUTO 22007KT CLR 20/12 A3028 RMK AO2 T01960115 PWINO,M
05U,2023-07-25 03:50,-116.0051,39.6042,1811.23,69.80,46.40,43.13,M,M,0.00,30.31,M,10.00,M,M,M,M,M,M,M,M,M,M,M,M,M,M,M,M,69.80,K05U 250350Z AUTO 10SM 21/08 A3031 RMK A01,M
P68,2023-07-25 03:53,-116.0056,39.6014,1993.00,70.00,47.00,43.82,170.00,8.00,0.00,30.29,1017.00,M,M,M,M,M,M,M,M,M,M,M,M,M,M,M,M,M,70.00,KP68 250353Z AUTO 17008KT 21/08 A3029 RMK AO1 SLP170 T02110083,M
DRA,2023-07-25 03:53,-116.0278,36.6206,1009.00,95.00,41.00,15.49,180.00,6.00,0.00,30.03,1010.70,10.00,M,CLR,M,M,M,M,M,M,M,M,M,M,M,M,M,M,90.70,KDRA 250353Z AUTO 18006KT 10SM CLR 35/05 A3003 RMK AO2 SLP107 T03500050,M
ELY,2023-07-25 03:53,-114.8453,39.2950,1909.00,74.00,46.00,36.85,300.00,11.00,T,30.32,1014.90,10.00,20.00,SCT,M,M,M,10000.00,M,M,M,-RA,M,M,M,30.00,290.00,2023-07-25 03:32,74.00,KELY 250353Z AUTO 30011G20KT 10SM -RA SCT100 23/08 A3032 RMK AO2 PK WND 29030/0332 RAB33 SLP149 P0000 T02330078,M
VGT,2023-07-25 03:53,-115.1933,36.2111,667.00,104.00,45.00,13.75,220.00,6.00,0.00,29.92,1011.40,10.00,M,CLR,M,M,M,M,M,M,M,M,M,M,M,M,M,M,99.90,KVGT 250353Z AUTO 22006KT 10SM CLR 40/07 A2992 RMK AO2 SLP114 T04000072,M
LOL,2023-07-25 03:53,-118.5701,40.0684,1192.43,81.00,20.00,10.29,260.00,9.00,0.00,30.11,1014.70,10.00,M,CLR,M,M,M,M,M,M,M,M,M,M,M,M,M,M,78.57,KLOL 250353Z AUTO 26009KT 10SM CLR 27/M07 A3011 RMK AO2 SLP147 T02721067,M
BVU,2023-07-25 03:55,-114.8611,35.9475,671.00,100.40,39.20,12.25,240.00,7.00,0.00,29.93,M,10.00,M,CLR,M,M,M,M,M,M,M,M,M,M,M,M,M,M,95.43,KBVU 250355Z AUTO 24007KT 10SM CLR 38/04 A2993 RMK AO2,M
CXP,2023-07-25 03:55,-119.7326,39.1923,1431.00,77.00,33.80,20.74,290.00,8.00,0.00,30.23,M,10.00,M,CLR,M,M,M,M,M,M,M,M,M,M,M,M,M,M,77.00,KCXP 250355Z AUTO 29008KT 10SM CLR 25/01 A3023 RMK AO2,M
RNO,2023-07-25 03:55,-119.7711,39.4839,1341.00,80.00,23.00,12.07,270.00,11.00,0.00,30.19,1015.90,10.00,M,FEW,M,M,M,25000.00,M,M,M,M,M,M,M,M,M,M,78.19,KRNO 250355Z 27011KT 10SM FEW250 27/M05 A3019 RMK AO2 SLP159 T02671050,M
LSV,2023-07-25 03:55,-115.0343,36.2362,570.00,M,M,M,M,M,0.00,M,M,M,M,M,M,M,M,M,M,M,M,M,M,M,M,M,M,M,M,KLSV 250355Z AUTO M M M M M M RMK AO2 SLPNO RVRNO $,M
RTS,2023-07-25 03:55,-119.8764,39.6682,1539.00,73.40,17.60,11.94,290.00,8.00,0.00,30.25,M,10.00,14.00,CLR,M,M,M,M,M,M,M,M,M,M,M,M,M,M,73.40,KRTS 250355Z AUTO 29008G14KT 260V340 10SM CLR 23/M08 A3025 RMK AO2,M
MEV,2023-07-25 03:55,-119.7500,38.9963,1441.42,71.60,24.80,17.22,200.00,4.00,0.00,30.21,M,10.00,M,CLR,M,M,M,M,M,M,M,M,M,M,M,M,M,M,71.60,KMEV 250355Z AUTO 20004KT 10SM CLR 22/M04 A3021 RMK AO2,M
HTH,2023-07-25 03:55,-118.6315,38.5448,1282.89,86.00,21.20,9.21,270.00,9.00,0.00,30.15,M,10.00,15.00,CLR,M,M,M,M,M,M,M,M,M,M,M,M,M,M,82.04,KHTH 250355Z AUTO 27009G15KT 10SM CLR 30/M06 A3015 RMK A01,M
TMT,2023-07-25 03:55,-117.1971,39.4643,1749.34,62.80,53.00,70.31,0.00,0.00,0.00,30.29,M,M,M,CLR,M,M,M,M,M,M,M,M,M,M,M,M,M,M,62.80,KTMT 250355Z AUTO 00000KT CLR 17/12 A3029 RMK AO2 T01710116 PWINO,M
BAM,2023-07-25 03:55,-116.8743,40.5990,1382.36,82.40,42.80,24.72,230.00,13.00,0.00,30.14,M,10.00,17.00,CLR,M,M,M,M,M,M,M,M,M,M,M,M,M,M,80.39,KBAM 250355Z AUTO 23013G17KT 10SM CLR 28/06 A3014 RMK AO1,M
10U,2023-07-25 03:55,-116.1876,41.9532,1637.00,77.00,44.60,31.62,210.00,6.00,0.00,30.16,M,10.00,12.00,FEW,M,M,M,7000.00,M,M,M,M,M,M,M,M,M,M,77.00,K10U 250355Z AUTO 21006G12KT 10SM FEW070 25/07 A3016 RMK AO2,M
INS,2023-07-25 03:55,-115.6733,36.5872,955.00,96.00,35.20,11.96,190.00,6.00,0.00,30.01,1010.20,10.00,M,CLR,M,M,M,M,M,M,M,M,M,M,M,M,M,M,91.00,KINS 250355Z AUTO 19006KT 10SM CLR 36/02 A3001 RMK AO2 SLP102 T03560018 $,M
EKO,2023-07-25 03:56,-115.7860,40.8242,1367.00,77.00,51.00,40.21,60.00,6.00,0.00,30.18,1015.30,10.00,M,CLR,M,M,M,M,M,M,M,M,M,M,M,M,M,M,77.00,KEKO 250356Z AUTO 06006KT 10SM CLR 25/11 A3018 RMK AO2 SLP153 T02500106,M
WMC,2023-07-25 03:56,-117.8072,40.9019,1315.00,80.00,11.00,7.18,240.00,11.00,0.00,30.11,1014.20,10.00,M,CLR,M,M,M,M,M,M,M,M,M,M,M,M,M,M,77.54,KWMC 250356Z AUTO 24011KT 10SM CLR 27/M12 A3011 RMK AO2 SLP142 T02671117,M
NFL,2023-07-25 03:56,-118.7010,39.4166,1199.00,78.00,30.00,17.22,260.00,7.00,0.00,30.12,1016.60,10.00,M,FEW,FEW,FEW,M,8000.00,15000.00,25000.00,M,M,M,M,M,M,M,M,78.00,KNFL 250356Z 26007KT 10SM FEW080 FEW150 FEW250 26/M01 A3012 RMK AO2 SLP166 T02561011,M
HND,2023-07-25 03:56,-115.1344,35.9729,742.79,99.00,45.00,15.98,220.00,8.00,0.00,29.98,1012.90,10.00,M,CLR,M,M,M,M,M,M,M,M,M,M,M,M,M,M,95.00,KHND 250356Z AUTO 22008KT 10SM CLR 37/07 A2998 RMK AO2 SLP129 T03720072,M
TPH,2023-07-25 03:56,-117.0904,38.0505,1654.00,74.00,55.00,51.47,M,M,T,30.26,1017.80,10.00,M,BKN,M,M,M,10000.00,M,M,M,-RA,M,M,M,M,M,M,74.00,KTPH 250356Z AUTO 10SM -RA BKN100 23/13 A3026 RMK AO2 LTG DSNT SW AND W RAB37 SLP178 P0000 T02330128 $,M
LAS,2023-07-25 03:56,-115.1634,36.0719,663.00,102.00,43.00,13.52,220.00,6.00,0.00,29.93,1010.00,10.00,M,FEW,FEW,M,M,12000.00,20000.00,M,M,M,M,M,M,M,M,M,97.60,KLAS 250356Z 22006KT 10SM FEW120 FEW200 39/06 A2993 RMK AO2 SLP100 T03890061,M
LSV,2023-07-25 03:58,-115.0343,36.2362,570.00,96.80,42.80,15.71,169.00,10.00,0.00,29.85,M,10.00,M,CLR,M,M,M,M,M,M,M,M,M,M,M,M,M,M,92.57,KLSV 250358Z 16910KT 10SM CLR 36/06 A2985 RMK WND DATA ESTMD ALSTG ESTMD SLPNO RVRNO $,M
05U,2023-07-25 04:10,-116.0051,39.6042,1811.23,69.80,46.40,43.13,M,M,0.00,30.32,M,10.00,M,M,M,M,M,M,M,M,M,M,M,M,M,M,M,M,69.80,K05U 250410Z AUTO 10SM 21/08 A3032 RMK A01,M
BVU,2023-07-25 04:15,-114.8611,35.9475,671.00,98.60,39.20,12.94,0.00,0.00,0.00,29.94,M,10.00,M,CLR,M,M,M,M,M,M,M,M,M,M,M,M,M,M,93.89,KBVU 250415Z AUTO 00000KT 10SM CLR 37/04 A2994 RMK AO2,M
CXP,2023-07-25 04:15,-119.7326,39.1923,1431.00,75.20,35.60,23.66,280.00,7.00,0.00,30.23,M,10.00,M,CLR,M,M,M,M,M,M,M,M,M,M,M,M,M,M,75.20,KCXP 250415Z AUTO 28007KT 10SM CLR 24/02 A3023 RMK AO2,M
RTS,2023-07-25 04:15,-119.8764,39.6682,1539.00,69.80,17.60,13.49,330.00,8.00,0.00,30.26,M,10.00,M,CLR,M,M,M,M,M,M,M,M,M,M,M,M,M,M,69.80,KRTS 250415Z AUTO 33008KT 10SM CLR 21/M08 A3026 RMK AO2,M
MEV,2023-07-25 04:15,-119.7500,38.9963,1441.42,71.60,23.00,15.97,240.00,5.00,0.00,30.22,M,10.00,M,CLR,M,M,M,M,M,M,M,M,M,M,M,M,M,M,71.60,KMEV 250415Z AUTO 24005KT 10SM CLR 22/M05 A3022 RMK AO2,M
HTH,2023-07-25 04:15,-118.6315,38.5448,1282.89,86.00,19.40,8.53,M,4.00,0.00,30.16,M,10.00,12.00,CLR,M,M,M,M,M,M,M,M,M,M,M,M,M,M,81.94,KHTH 250415Z AUTO VRB04G12KT 10SM CLR 30/M07 A3016 RMK A01,M
TMT,2023-07-25 04:15,-117.1971,39.4643,1749.34,63.70,53.00,68.12,0.00,0.00,0.00,30.30,M,M,M,CLR,M,M,M,M,M,M,M,M,M,M,M,M,M,M,63.70,KTMT 250415Z AUTO 00000KT CLR 18/12 A3030 RMK AO2 T01760117 PWINO,M
10U,2023-07-25 04:15,-116.1876,41.9532,1637.00,77.00,44.60,31.62,190.00,11.00,0.00,30.16,M,10.00,M,FEW,M,M,M,7000.00,M,M,M,M,M,M,M,M,M,M,77.00,K10U 250415Z AUTO 19011KT 10SM FEW070 25/07 A3016 RMK AO2,M
BAM,2023-07-25 04:15,-116.8743,40.5990,1382.36,82.40,42.80,24.72,220.00,14.00,0.00,30.15,M,10.00,17.00,CLR,M,M,M,M,M,M,M,M,M,M,M,M,M,M,80.39,KBAM 250415Z AUTO 22014G17KT 10SM CLR 28/06 A3015 RMK AO1,M
05U,2023-07-25 04:30,-116.0051,39.6042,1811.23,69.80,46.40,43.13,M,M,0.00,30.33,M,10.00,M,M,M,M,M,M,M,M,M,M,M,M,M,M,M,M,69.80,K05U 250430Z AUTO 10SM 21/08 A3033 RMK A01,M
BVU,2023-07-25 04:35,-114.8611,35.9475,671.00,98.60,39.20,12.94,180.00,3.00,0.00,29.94,M,10.00,M,CLR,M,M,M,M,M,M,M,M,M,M,M,M,M,M,93.89,KBVU 250435Z AUTO 18003KT 10SM CLR 37/04 A2994 RMK AO2,M
CXP,2023-07-25 04:35,-119.7326,39.1923,1431.00,75.20,35.60,23.66,290.00,7.00,0.00,30.24,M,10.00,M,CLR,M,M,M,M,M,M,M,M,M,M,M,M,M,M,75.20,KCXP 250435Z AUTO 29007KT 10SM CLR 24/02 A3024 RMK AO2,M
RTS,2023-07-25 04:35,-119.8764,39.6682,1539.00,68.00,17.60,14.35,310.00,6.00,0.00,30.27,M,10.00,M,CLR,M,M,M,M,M,M,M,M,M,M,M,M,M,M,68.00,KRTS 250435Z AUTO 31006KT 10SM CLR 20/M08 A3027 RMK AO2,M
MEV,2023-07-25 04:35,-119.7500,38.9963,1441.42,66.20,28.40,24.04,0.00,0.00,0.00,30.22,M,10.00,M,CLR,M,M,M,M,M,M,M,M,M,M,M,M,M,M,66.20,KMEV 250435Z AUTO 00000KT 10SM CLR 19/M02 A3022 RMK AO2,M
HTH,2023-07-25 04:35,-118.6315,38.5448,1282.89,87.80,19.40,8.06,M,4.00,0.00,30.17,M,10.00,11.00,CLR,M,M,M,M,M,M,M,M,M,M,M,M,M,M,83.23,KHTH 250435Z AUTO VRB04G11KT 10SM CLR 31/M07 A3017 RMK A01,M
10U,2023-07-25 04:35,-116.1876,41.9532,1637.00,77.00,44.60,31.62,200.00,9.00,0.00,30.18,M,10.00,M,CLR,M,M,M,M,M,M,M,M,M,M,M,M,M,M,77.00,K10U 250435Z AUTO 20009KT 10SM CLR 25/07 A3018 RMK AO2,M
BAM,2023-07-25 04:35,-116.8743,40.5990,1382.36,82.40,42.80,24.72,220.00,12.00,0.00,30.16,M,10.00,18.00,CLR,M,M,M,M,M,M,M,M,M,M,M,M,M,M,80.39,KBAM 250435Z AUTO 22012G18KT 10SM CLR 28/06 A3016 RMK AO1,M
TMT,2023-07-25 04:35,-117.1971,39.4643,1749.34,62.80,52.00,67.77,0.00,0.00,0.00,30.31,M,M,M,CLR,M,M,M,M,M,M,M,M,M,M,M,M,M,M,62.80,KTMT 250435Z AUTO 00000KT CLR 17/11 A3031 RMK AO2 T01710112 PWINO,M
05U,2023-07-25 04:50,-116.0051,39.6042,1811.23,68.00,48.20,49.10,M,M,0.00,30.33,M,10.00,M,M,M,M,M,M,M,M,M,M,M,M,M,M,M,M,68.00,K05U 250450Z AUTO 10SM 20/09 A3033 RMK A01,M
P68,2023-07-25 04:53,-116.0056,39.6014,1993.00,69.00,47.00,45.35,0.00,0.00,0.00,30.30,1017.20,M,M,M,M,M,M,M,M,M,M,M,M,M,M,M,M,M,69.00,KP68 250453Z AUTO 00000KT 21/08 A3030 RMK AO1 SLP172 T02060083,M
DRA,2023-07-25 04:53,-116.0278,36.6206,1009.00,93.00,41.00,16.48,160.00,3.00,0.00,30.05,1011.20,10.00,M,CLR,M,M,M,M,M,M,M,M,M,M,M,M,M,M,88.85,KDRA 250453Z AUTO 16003KT 10SM CLR 34/05 A3005 RMK AO2 SLP112 T03390050,M
ELY,2023-07-25 04:53,-114.8453,39.2950,1909.00,72.00,46.00,39.42,260.00,9.00,T,30.34,1015.60,10.00,M,BKN,M,M,M,10000.00,M,M,M,M,M,M,M,M,M,M,72.00,KELY 250453Z AUTO 26009KT 10SM BKN100 22/08 A3034 RMK AO2 RAE0356 SLP156 P0000 T02220078,M
VGT,2023-07-25 04:53,-115.1933,36.2111,667.00,102.00,45.00,14.60,230.00,5.00,0.00,29.94,1012.00,10.00,M,CLR,M,M,M,M,M,M,M,M,M,M,M,M,M,M,97.95,KVGT 250453Z AUTO 23005KT 10SM CLR 39/07 A2994 RMK AO2 SLP120 T03890072,M
LOL,2023-07-25 04:53,-118.5701,40.0684,1192.43,78.00,22.00,12.36,280.00,10.00,0.00,30.14,1015.70,10.00,M,CLR,M,M,M,M,M,M,M,M,M,M,M,M,M,M,78.00,KLOL 250453Z AUTO 28010KT 10SM CLR 26/M06 A3014 RMK AO2 SLP157 T02561056,M
BVU,2023-07-25 04:55,-114.8611,35.9475,671.00,95.00,46.40,19.04,0.00,0.00,0.00,29.95,M,10.00,M,CLR,M,M,M,M,M,M,M,M,M,M,M,M,M,M,91.29,KBVU 250455Z AUTO 00000KT 10SM CLR 35/08 A2995 RMK AO2,M
CXP,2023-07-25 04:55,-119.7326,39.1923,1431.00,71.60,37.40,28.68,0.00,0.00,0.00,30.24,M,10.00,M,CLR,M,M,M,M,M,M,M,M,M,M,M,M,M,M,71.60,KCXP 250455Z AUTO 00000KT 10SM CLR 22/03 A3024 RMK AO2,M
RNO,2023-07-25 04:55,-119.7711,39.4839,1341.00,77.00,24.00,13.89,0.00,0.00,0.00,30.21,1016.50,10.00,M,CLR,M,M,M,M,M,M,M,M,M,M,M,M,M,M,77.00,KRNO 250455Z 00000KT 10SM CLR 25/M04 A3021 RMK AO2 SLP165 T02501044,M
LSV,2023-07-25 04:55,-115.0343,36.2362,570.00,95.00,51.80,23.30,160.00,6.00,0.00,29.88,M,10.00,M,CLR,M,M,M,M,M,M,M,M,M,M,M,M,M,M,92.26,KLSV 250455Z 16006KT 10SM CLR 35/11 A2988 RMK ALSTG ESTMD SLPNO RVRNO $,M
RTS,2023-07-25 04:55,-119.8764,39.6682,1539.00,66.20,17.60,15.27,280.00,7.00,0.00,30.27,M,10.00,M,CLR,M,M,M,M,M,M,M,M,M,M,M,M,M,M,66.20,KRTS 250455Z AUTO 28007KT 10SM CLR 19/M08 A3027 RMK AO2,M
MEV,2023-07-25 04:55,-119.7500,38.9963,1441.42,62.60,32.00,31.56,0.00,0.00,0.00,30.23,M,10.00,M,CLR,M,M,M,M,M,M,M,M,M,M,M,M,M,M,62.60,KMEV 250455Z AUTO 00000KT 10SM CLR 17/00 A3023 RMK AO2,M
HTH,2023-07-25 04:55,-118.6315,38.5448,1282.89,86.00,19.40,8.53,0.00,0.00,0.00,30.17,M,10.00,13.00,CLR,M,M,M,M,M,M,M,M,M,M,M,M,M,M,81.94,KHTH 250455Z AUTO 00000G13KT 10SM CLR 30/M07 A3017 RMK A01,M
TMT,2023-07-25 04:55,-117.1971,39.4643,1749.34,60.00,54.00,80.53,270.00,5.00,0.00,30.31,M,M,M,CLR,M,M,M,M,M,M,M,M,M,M,M,M,M,M,60.00,KTMT 250455Z AUTO 27005KT CLR 16/12 A3031 RMK AO2 T01550123 PWINO,M
BAM,2023-07-25 04:55,-116.8743,40.5990,1382.36,80.60,39.20,22.81,230.00,11.00,0.00,30.17,M,10.00,M,CLR,M,M,M,M,M,M,M,M,M,M,M,M,M,M,79.10,KBAM 250455Z AUTO 23011KT 10SM CLR 27/04 A3017 RMK AO1,M
10U,2023-07-25 04:55,-116.1876,41.9532,1637.00,75.20,42.80,31.34,200.00,9.00,0.00,30.19,M,10.00,M,CLR,M,M,M,M,M,M,M,M,M,M,M,M,M,M,75.20,K10U 250455Z AUTO 20009KT 10SM CLR 24/06 A3019 RMK AO2,M
INS,2023-07-25 04:55,-115.6733,36.5872,955.00,95.40,36.70,12.93,180.00,8.00,0.00,30.02,1010.60,10.00,M,CLR,M,M,M,M,M,M,M,M,M,M,M,M,M,M,90.77,KINS 250455Z AUTO 18008KT 10SM CLR 35/03 A3002 RMK AO2 SLP106 T03520026 $,M
EKO,2023-07-25 04:56,-115.7860,40.8242,1367.00,76.00,50.00,40.05,290.00,4.00,0.00,30.19,1015.90,10.00,M,CLR,M,M,M,M,M,M,M,M,M,M,M,M,M,M,76.00,KEKO 250456Z AUTO 29004KT 10SM CLR 24/10 A3019 RMK AO2 SLP159 T02440100,M
WMC,2023-07-25 04:56,-117.8072,40.9019,1315.00,80.00,15.00,8.57,240.00,10.00,0.00,30.14,1014.50,10.00,M,CLR,M,M,M,M,M,M,M,M,M,M,M,M,M,M,77.72,KWMC 250456Z AUTO 24010KT 10SM CLR 27/M09 A3014 RMK AO2 SLP145 T02671094,M
NFL,2023-07-25 04:56,-118.7010,39.4166,1199.00,78.00,30.00,17.22,320.00,7.00,0.00,30.14,1017.30,10.00,M,FEW,M,M,M,25000.00,M,M,M,M,M,M,M,M,M,M,78.00,KNFL 250456Z 32007KT 10SM FEW250 26/M01 A3014 RMK AO2 SLP173 T02561011,M
HND,2023-07-25 04:56,-115.1344,35.9729,742.79,97.00,45.00,16.98,200.00,7.00,0.00,30.00,1013.70,10.00,M,CLR,M,M,M,M,M,M,M,M,M,M,M,M,M,M,93.04,KHND 250456Z AUTO 20007KT 10SM CLR 36/07 A3000 RMK AO2 SLP137 T03610072,M
TPH,2023-07-25 04:56,-117.0904,38.0505,1654.00,72.00,54.00,53.09,30.00,6.00,T,30.27,1017.80,10.00,M,CLR,M,M,M,M,M,M,M,M,M,M,M,M,M,M,72.00,KTPH 250456Z AUTO 03006KT 10SM CLR 22/12 A3027 RMK AO2 RAE0359 SLP178 P0000 T02220122 $,M
LAS,2023-07-25 04:56,-115.1634,36.0719,663.00,100.00,44.00,14.92,210.00,6.00,0.00,29.95,1010.60,10.00,M,FEW,M,M,M,20000.00,M,M,M,M,M,M,M,M,M,M,95.83,KLAS 250456Z 21006KT 10SM FEW200 38/07 A2995 RMK AO2 SLP106 T03780067,M
05U,2023-07-25 05:10,-116.0051,39.6042,1811.23,68.00,46.40,45.88,M,M,0.00,30.33,M,10.00,M,M,M,M,M,M,M,M,M,M,M,M,M,M,M,M,68.00,K05U 250510Z AUTO 10SM 20/08 A3033 RMK A01,M
BVU,2023-07-25 05:15,-114.8611,35.9475,671.00,95.00,44.60,17.78,0.00,0.00,0.00,29.95,M,10.00,M,CLR,M,M,M,M,M,M,M,M,M,M,M,M,M,M,91.06,KBVU 250515Z AUTO 00000KT 10SM CLR 35/07 A2995 RMK AO2,M
CXP,2023-07-25 05:15,-119.7326,39.1923,1431.00,69.80,37.40,30.49,0.00,0.00,0.00,30.25,M,10.00,M,CLR,M,M,M,M,M,M,M,M,M,M,M,M,M,M,69.80,KCXP 250515Z AUTO 00000KT 10SM CLR 21/03 A3025 RMK AO2,M
RTS,2023-07-25 05:15,-119.8764,39.6682,1539.00,68.00,19.40,15.50,240.00,9.00,0.00,30.27,M,10.00,M,CLR,M,M,M,M,M,M,M,M,M,M,M,M,M,M,68.00,KRTS 250515Z AUTO 24009KT 10SM CLR 20/M07 A3027 RMK AO2,M
MEV,2023-07-25 05:15,-119.7500,38.9963,1441.42,62.60,30.20,29.35,220.00,3.00,0.00,30.24,M,10.00,M,CLR,M,M,M,M,M,M,M,M,M,M,M,M,M,M,62.60,KMEV 250515Z AUTO 22003KT 10SM CLR 17/M01 A3024 RMK AO2,M
HTH,2023-07-25 05:15,-118.6315,38.5448,1282.89,86.00,19.40,8.53,220.00,11.00,0.00,30.18,M,10.00,M,CLR,M,M,M,M,M,M,M,M,M,M,M,M,M,M,81.94,KHTH 250515Z AUTO 22011KT 10SM CLR 30/M07 A3018 RMK A01,M
TMT,2023-07-25 05:15,-117.1971,39.4643,1749.34,60.60,53.60,77.69,230.00,6.00,0.00,30.31,M,M,M,CLR,M,M,M,M,M,M,M,M,M,M,M,M,M,M,60.60,KTMT 250515Z AUTO 23006KT CLR 16/12 A3031 RMK AO2 T01590120 PWINO,M
10U,2023-07-25 05:15,-116.1876,41.9532,1637.00,73.40,42.80,33.29,180.00,7.00,0.00,30.19,M,10.00,M,CLR,M,M,M,M,M,M,M,M,M,M,M,M,M,M,73.40,K10U 250515Z AUTO 18007KT 10SM CLR 23/06 A3019 RMK AO2,M
BAM,2023-07-25 05:15,-116.8743,40.5990,1382.36,78.80,37.40,22.54,230.00,9.00,0.00,30.17,M,10.00,M,CLR,M,M,M,M,M,M,M,M,M,M,M,M,M,M,78.80,KBAM 250515Z AUTO 23009KT 10SM CLR 26/03 A3017 RMK AO1,M
05U,2023-07-25 05:30,-116.0051,39.6042,1811.23,66.20,46.40,48.83,M,M,0.00,30.33,M,10.00,M,M,M,M,M,M,M,M,M,M,M,M,M,M,M,M,66.20,K05U 250530Z AUTO 10SM 19/08 A3033 RMK A01,M
BVU,2023-07-25 05:35,-114.8611,35.9475,671.00,91.40,48.20,22.78,0.00,0.00,0.00,29.96,M,10.00,M,CLR,M,M,M,M,M,M,M,M,M,M,M,M,M,M,88.09,KBVU 250535Z AUTO 00000KT 10SM CLR 33/09 A2996 RMK AO2,M
CXP,2023-07-25 05:35,-119.7326,39.1923,1431.00,69.80,35.60,28.39,0.00,0.00,0.00,30.25,M,10.00,M,CLR,M,M,M,M,M,M,M,M,M,M,M,M,M,M,69.80,KCXP 250535Z AUTO 00000KT 10SM CLR 21/02 A3025 RMK AO2,M
RTS,2023-07-25 05:35,-119.8764,39.6682,1539.00,68.00,21.20,16.74,0.00,0.00,0.00,30.26,M,10.00,M,CLR,M,M,M,M,M,M,M,M,M,M,M,M,M,M,68.00,KRTS 250535Z AUTO 00000KT 10SM CLR 20/M06 A3026 RMK AO2,M
MEV,2023-07-25 05:35,-119.7500,38.9963,1441.42,60.80,32.00,33.64,0.00,0.00,0.00,30.24,M,10.00,M,CLR,M,M,M,M,M,M,M,M,M,M,M,M,M,M,60.80,KMEV 250535Z AUTO 00000KT 10SM CLR 16/00 A3024 RMK AO2,M
HTH,2023-07-25 05:35,-118.6315,38.5448,1282.89,84.20,19.40,9.04,240.00,7.00,0.00,30.18,M,10.00,M,CLR,M,M,M,M,M,M,M,M,M,M,M,M,M,M,80.68,KHTH 250535Z AUTO 24007KT 10SM CLR 29/M07 A3018 RMK A01,M
10U,2023-07-25 05:35,-116.1876,41.9532,1637.00,69.80,37.40,30.49,190.00,9.00,0.00,30.19,M,10.00,M,FEW,FEW,M,M,7000.00,8500.00,M,M,M,M,M,M,M,M,M,69.80,K10U 250535Z AUTO 19009KT 10SM FEW070 FEW085 21/03 A3019 RMK AO2,M
BAM,2023-07-25 05:35,-116.8743,40.5990,1382.36,77.00,37.40,23.93,220.00,9.00,0.00,30.18,M,10.00,M,CLR,M,M,M,M,M,M,M,M,M,M,M,M,M,M,77.00,KBAM 250535Z AUTO 22009KT 10SM CLR 25/03 A3018 RMK AO1,M
TMT,2023-07-25 05:35,-117.1971,39.4643,1749.34,61.30,53.00,74.13,250.00,7.00,0.00,30.31,M,M,M,CLR,M,M,M,M,M,M,M,M,M,M,M,M,M,M,61.30,KTMT 250535Z AUTO 25007KT CLR 16/12 A3031 RMK AO2 T01630116 PWINO,M
05U,2023-07-25 05:50,-116.0051,39.6042,1811.23,64.40,46.40,51.98,M,M,0.00,30.32,M,10.00,M,M,M,M,M,M,M,M,M,M,M,M,M,M,M,M,64.40,K05U 250550Z AUTO 10SM 18/08 A3032 RMK A01,M
P68,2023-07-25 05:53,-116.0056,39.6014,1993.00,64.00,47.00,53.92,130.00,5.00,0.00,30.30,1017.10,M,M,M,M,M,M,M,M,M,M,M,M,M,M,M,M,M,64.00,KP68 250553Z AUTO 13005KT 18/08 A3030 RMK AO1 SLP171 T01780083 10306 20178 50005,M
DRA,2023-07-25 05:53,-116.0278,36.6206,1009.00,89.00,41.00,18.68,20.00,3.00,0.00,30.05,1011.30,10.00,M,CLR,M,M,M,M,M,M,M,M,M,M,M,M,M,M,85.30,KDRA 250553Z AUTO 02003KT 10SM CLR 32/05 A3005 RMK AO2 SLP113 T03170050 10400 20317 51011,M
ELY,2023-07-25 05:53,-114.8453,39.2950,1909.00,68.00,45.00,43.51,230.00,6.00,0.00,30.33,1015.80,10.00,M,SCT,M,M,M,10000.00,M,M,M,M,M,M,M,M,M,M,68.00,KELY 250553Z AUTO 23006KT 10SM SCT100 20/07 A3033 RMK AO2 SLP158 60000 T02000072 10311 20200 50018,M
VGT,2023-07-25 05:53,-115.1933,36.2111,667.00,100.00,46.00,16.10,0.00,0.00,0.00,29.94,1012.10,10.00,M,CLR,M,M,M,M,M,M,M,M,M,M,M,M,M,M,96.16,KVGT 250553Z AUTO 00000KT 10SM CLR 38/08 A2994 RMK AO2 SLP121 T03780078 10433 20378 51014,M
LOL,2023-07-25 05:53,-118.5701,40.0684,1192.43,76.00,20.00,12.13,260.00,9.00,0.00,30.15,1016.00,10.00,M,CLR,M,M,M,M,M,M,M,M,M,M,M,M,M,M,76.00,KLOL 250553Z AUTO 26009KT 10SM CLR 24/M07 A3015 RMK AO2 SLP160 T02441067 10361 20239 51018,M
BVU,2023-07-25 05:55,-114.8611,35.9475,671.00,91.40,46.40,21.29,0.00,0.00,0.00,29.96,M,10.00,M,CLR,M,M,M,M,M,M,M,M,M,M,M,M,M,M,87.86,KBVU 250555Z AUTO 00000KT 10SM CLR 33/08 A2996 RMK AO2,M
CXP,2023-07-25 05:55,-119.7326,39.1923,1431.00,69.80,35.60,28.39,0.00,0.00,0.00,30.26,M,10.00,M,CLR,M,M,M,M,M,M,M,M,M,M,M,M,M,M,69.80,KCXP 250555Z AUTO 00000KT 10SM CLR 21/02 A3026 RMK AO2,M
RNO,2023-07-25 05:55,-119.7711,39.4839,1341.00,75.00,25.00,15.48,240.00,5.00,0.00,30.21,1016.60,10.00,M,FEW,M,M,M,25000.00,M,M,M,M,M,M,M,M,M,M,75.00,KRNO 250555Z 24005KT 10SM FEW250 24/M04 A3021 RMK AO2 SLP166 T02391039 10328 20239 51014,M
LSV,2023-07-25 05:55,-115.0343,36.2362,570.00,97.50,43.70,15.92,150.00,8.00,0.00,29.89,1008.90,10.00,M,CLR,M,M,M,M,M,M,M,M,M,M,M,M,M,M,93.36,KLSV 250555Z 15008KT 10SM CLR 36/07 A2989 RMK SLP089 T03640065 10427 20363 $,M
RTS,2023-07-25 05:55,-119.8764,39.6682,1539.00,66.20,21.20,17.81,40.00,7.00,0.00,30.27,M,10.00,M,CLR,M,M,M,M,M,M,M,M,M,M,M,M,M,M,66.20,KRTS 250555Z AUTO 04007KT 10SM CLR 19/M06 A3027 RMK AO2,M
MEV,2023-07-25 05:55,-119.7500,38.9963,1441.42,57.20,33.80,41.13,100.00,4.00,0.00,30.24,M,10.00,M,CLR,M,M,M,M,M,M,M,M,M,M,M,M,M,M,57.20,KMEV 250555Z AUTO 10004KT 10SM CLR 14/01 A3024 RMK AO2,M
HTH,2023-07-25 05:55,-118.6315,38.5448,1282.89,82.40,23.00,11.16,150.00,8.00,0.00,30.18,M,10.00,M,CLR,M,M,M,M,M,M,M,M,M,M,M,M,M,M,79.67,KHTH 250555Z AUTO 15008KT 10SM CLR 28/M05 A3018 RMK A01,M
BAM,2023-07-25 05:55,-116.8743,40.5990,1382.36,73.40,35.60,25.13,220.00,8.00,0.00,30.19,M,10.00,M,CLR,M,M,M,M,M,M,M,M,M,M,M,M,M,M,73.40,KBAM 250555Z AUTO 22008KT 10SM CLR 23/02 A3019 RMK AO1,M
TMT,2023-07-25 05:55,-117.1971,39.4643,1749.34,59.00,52.00,77.55,170.00,7.00,0.00,30.32,M,M,M,CLR,M,M,M,M,M,M,M,M,M,M,M,M,M,M,59.00,KTMT 250555Z AUTO 17007KT CLR 15/11 A3032 RMK AO2 60001 T01510112 10230 20151 PWINO,M
10U,2023-07-25 05:55,-116.1876,41.9532,1637.00,69.80,37.40,30.49,180.00,9.00,0.00,30.20,M,10.00,M,SCT,BKN,M,M,7500.00,8500.00,M,M,M,M,M,M,M,M,M,69.80,K10U 250555Z AUTO 18009KT 10SM SCT075 BKN085 21/03 A3020 RMK AO2,M
INS,2023-07-25 05:55,-115.6733,36.5872,955.00,95.50,37.00,13.05,160.00,9.00,0.00,30.03,1010.90,10.00,M,CLR,M,M,M,M,M,M,M,M,M,M,M,M,M,M,90.89,KINS 250555Z AUTO 16009KT 10SM CLR 35/03 A3003 RMK AO2 SLP109 T03530027 10391 20352 51011 $,M
EKO,2023-07-25 05:56,-115.7860,40.8242,1367.00,72.00,51.00,47.54,M,3.00,0.00,30.21,1016.50,10.00,M,CLR,M,M,M,M,M,M,M,M,M,M,M,M,M,M,72.00,KEKO 250556Z AUTO VRB03KT 10SM CLR 22/11 A3021 RMK AO2 SLP165 T02220106 10289 20222 51015,M
WMC,2023-07-25 05:56,-117.8072,40.9019,1315.00,77.00,17.00,10.32,230.00,9.00,0.00,30.15,1014.90,10.00,M,CLR,M,M,M,M,M,M,M,M,M,M,M,M,M,M,77.00,KWMC 250556Z AUTO 23009KT 10SM CLR 25/M08 A3015 RMK AO2 SLP149 T02501083 10372 20250 51020,M
NFL,2023-07-25 05:56,-118.7010,39.4166,1199.00,74.00,27.00,17.39,300.00,7.00,0.00,30.16,1017.70,10.00,M,FEW,M,M,M,25000.00,M,M,M,M,M,M,M,M,M,M,74.00,KNFL 250556Z 30007KT 10SM FEW250 23/M03 A3016 RMK AO2 SLP177 T02331028 10356 20233 51017,M
HND,2023-07-25 05:56,-115.1344,35.9729,742.79,94.00,45.00,18.62,170.00,6.00,0.00,30.01,1013.80,10.00,M,CLR,M,M,M,M,M,M,M,M,M,M,M,M,M,M,90.15,KHND 250556Z AUTO 17006KT 10SM CLR 34/07 A3001 RMK AO2 SLP138 T03440072 10422 20344 51013,M
TPH,2023-07-25 05:56,-117.0904,38.0505,1654.00,69.00,53.00,56.69,20.00,5.00,0.00,30.27,1017.60,10.00,M,CLR,M,M,M,M,M,M,M,M,M,M,M,M,M,M,69.00,KTPH 250556Z AUTO 02005KT 10SM CLR 21/12 A3027 RMK AO2 SLP176 60001 T02060117 10322 20206 50010 $,M
LAS,2023-07-25 05:56,-115.1634,36.0719,663.00,98.00,44.00,15.86,200.00,3.00,0.00,29.95,1010.70,10.00,M,FEW,M,M,M,20000.00,M,M,M,M,M,M,M,M,M,M,93.88,KLAS 250556Z 20003KT 10SM FEW200 37/07 A2995 RMK AO2 SLP107 T03670067 10422 20367 51013,M
05U,2023-07-25 06:10,-116.0051,39.6042,1811.23,62.60,44.60,51.72,M,M,0.00,30.32,M,10.00,M,M,M,M,M,M,M,M,M,M,M,M,M,M,M,M,62.60,K05U 250610Z AUTO 10SM 17/07 A3032 RMK A01,M
BVU,2023-07-25 06:15,-114.8611,35.9475,671.00,91.40,44.60,19.89,0.00,0.00,0.00,29.96,M,10.00,M,CLR,M,M,M,M,M,M,M,M,M,M,M,M,M,M,87.68,KBVU 250615Z AUTO 00000KT 10SM CLR 33/07 A2996 RMK AO2,M
CXP,2023-07-25 06:15,-119.7326,39.1923,1431.00,69.80,35.60,28.39,360.00,4.00,0.00,30.25,M,10.00,M,CLR,M,M,M,M,M,M,M,M,M,M,M,M,M,M,69.80,KCXP 250615Z AUTO 36004KT 10SM CLR 21/02 A3025 RMK AO2,M
RTS,2023-07-25 06:15,-119.8764,39.6682,1539.00,66.20,15.80,14.13,360.00,6.00,0.00,30.27,M,10.00,M,CLR,M,M,M,M,M,M,M,M,M,M,M,M,M,M,66.20,KRTS 250615Z AUTO 36006KT 10SM CLR 19/M09 A3027 RMK AO2,M
MEV,2023-07-25 06:15,-119.7500,38.9963,1441.42,59.00,30.20,33.35,150.00,7.00,0.00,30.24,M,10.00,M,CLR,M,M,M,M,M,M,M,M,M,M,M,M,M,M,59.00,KMEV 250615Z AUTO 15007KT 10SM CLR 15/M01 A3024 RMK AO2,M
HTH,2023-07-25 06:15,-118.6315,38.5448,1282.89,80.60,23.00,11.83,180.00,6.00,0.00,30.18,M,10.00,M,CLR,M,M,M,M,M,M,M,M,M,M,M,M,M,M,78.80,KHTH 250615Z AUTO 18006KT 10SM CLR 27/M05 A3018 RMK A01,M
10U,2023-07-25 06:15,-116.1876,41.9532,1637.00,68.00,33.80,28.11,180.00,9.00,0.00,30.20,M,10.00,M,FEW,M,M,M,8000.00,M,M,M,M,M,M,M,M,M,M,68.00,K10U 250615Z AUTO 18009KT 10SM FEW080 20/01 A3020 RMK AO2,M
BAM,2023-07-25 06:15,-116.8743,40.5990,1382.36,73.40,33.80,23.39,210.00,9.00,0.00,30.19,M,10.00,M,CLR,M,M,M,M,M,M,M,M,M,M,M,M,M,M,73.40,KBAM 250615Z AUTO 21009KT 10SM CLR 23/01 A3019 RMK AO1,M
TMT,2023-07-25 06:15,-117.1971,39.4643,1749.34,56.50,50.40,79.97,180.00,6.00,0.00,30.32,M,M,M,CLR,M,M,M,M,M,M,M,M,M,M,M,M,M,M,56.50,KTMT 250615Z AUTO 18006KT CLR 14/10 A3032 RMK AO2 T01360102 PWINO,M
05U,2023-07-25 06:30,-116.0051,39.6042,1811.23,60.80,44.60,55.12,M,M,0.00,30.32,M,10.00,M,M,M,M,M,M,M,M,M,M,M,M,M,M,M,M,60.80,K05U 250630Z AUTO 10SM 16/07 A3032 RMK A01,M
BVU,2023-07-25 06:35,-114.8611,35.9475,671.00,89.60,46.40,22.53,330.00,3.00,0.00,29.96,M,10.00,M,CLR,M,M,M,M,M,M,M,M,M,M,M,M,M,M,86.24,KBVU 250635Z AUTO 33003KT 10SM CLR 32/08 A2996 RMK AO2,M
CXP,2023-07-25 06:35,-119.7326,39.1923,1431.00,66.20,35.60,32.14,0.00,0.00,0.00,30.25,M,10.00,M,CLR,M,M,M,M,M,M,M,M,M,M,M,M,M,M,66.20,KCXP 250635Z AUTO 00000KT 10SM CLR 19/02 A3025 RMK AO2,M
RTS,2023-07-25 06:35,-119.8764,39.6682,1539.00,66.20,15.80,14.13,M,5.00,0.00,30.27,M,10.00,M,CLR,M,M,M,M,M,M,M,M,M,M,M,M,M,M,66.20,KRTS 250635Z AUTO VRB05KT 10SM CLR 19/M09 A3027 RMK AO2,M
MEV,2023-07-25 06:35,-119.7500,38.9963,1441.42,59.00,32.00,35.87,150.00,9.00,0.00,30.24,M,10.00,M,CLR,M,M,M,M,M,M,M,M,M,M,M,M,M,M,59.00,KMEV 250635Z AUTO 15009KT 10SM CLR 15/M00 A3024 RMK AO2,M
HTH,2023-07-25 06:35,-118.6315,38.5448,1282.89,78.80,26.60,14.59,0.00,0.00,0.00,30.18,M,10.00,M,CLR,M,M,M,M,M,M,M,M,M,M,M,M,M,M,78.80,KHTH 250635Z AUTO 00000KT 10SM CLR 26/M03 A3018 RMK A01,M
TMT,2023-07-25 06:35,-117.1971,39.4643,1749.34,52.50,49.30,88.82,160.00,5.00,0.00,30.32,M,M,M,M,M,M,M,M,M,M,M,M,M,M,M,M,M,M,52.50,KTMT 250635Z AUTO 16005KT 11/10 A3032 RMK AO2 T01140096 PWINO,M
10U,2023-07-25 06:35,-116.1876,41.9532,1637.00,64.40,30.20,27.55,180.00,9.00,0.00,30.21,M,10.00,M,CLR,M,M,M,M,M,M,M,M,M,M,M,M,M,M,64.40,K10U 250635Z AUTO 18009KT 10SM CLR 18/M01 A3021 RMK AO2,M
BAM,2023-07-25 06:35,-116.8743,40.5990,1382.36,71.60,33.80,24.86,230.00,7.00,0.00,30.19,M,10.00,M,CLR,M,M,M,M,M,M,M,M,M,M,M,M,M,M,71.60,KBAM 250635Z AUTO 23007KT 10SM CLR 22/01 A3019 RMK AO1,M
05U,2023-07-25 06:50,-116.0051,39.6042,1811.23,59.00,44.60,58.77,M,M,0.00,30.32,M,10.00,M,M,M,M,M,M,M,M,M,M,M,M,M,M,M,M,59.00,K05U 250650Z AUTO 10SM 15/07 A3032 RMK A01,M
P68,2023-07-25 06:53,-116.0056,39.6014,1993.00,60.00,46.00,59.80,170.00,6.00,0.00,30.30,1017.80,M,M,M,M,M,M,M,M,M,M,M,M,M,M,M,M,M,60.00,KP68 250653Z AUTO 17006KT 16/08 A3030 RMK AO1 SLP178 T01560078,M
DRA,2023-07-25 06:53,-116.0278,36.6206,1009.00,90.00,42.00,18.81,280.00,4.00,0.00,30.05,1011.40,10.00,M,CLR,M,M,M,M,M,M,M,M,M,M,M,M,M,M,86.22,KDRA 250653Z AUTO 28004KT 10SM CLR 32/06 A3005 RMK AO2 SLP114 T03220056,M
ELY,2023-07-25 06:53,-114.8453,39.2950,1909.00,64.00,44.00,48.12,170.00,6.00,0.00,30.33,1015.90,10.00,M,CLR,M,M,M,M,M,M,M,M,M,M,M,M,M,M,64.00,KELY 250653Z AUTO 17006KT 10SM CLR 18/07 A3033 RMK AO2 SLP159 T01780067,M
VGT,2023-07-25 06:53,-115.1933,36.2111,667.00,99.00,46.00,16.60,60.00,4.00,0.00,29.95,1012.30,10.00,M,CLR,M,M,M,M,M,M,M,M,M,M,M,M,M,M,95.17,KVGT 250653Z AUTO 06004KT 10SM CLR 37/08 A2995 RMK AO2 SLP123 T03720078,M
LOL,2023-07-25 06:53,-118.5701,40.0684,1192.43,65.00,21.00,18.41,M,4.00,0.00,30.15,1016.60,10.00,M,CLR,M,M,M,M,M,M,M,M,M,M,M,M,M,M,65.00,KLOL 250653Z AUTO VRB04KT 10SM CLR 18/M06 A3015 RMK AO2 SLP166 T01831061,M
BVU,2023-07-25 06:55,-114.8611,35.9475,671.00,91.40,41.00,17.32,320.00,6.00,0.00,29.96,M,10.00,M,CLR,M,M,M,M,M,M,M,M,M,M,M,M,M,M,87.40,KBVU 250655Z AUTO 32006KT 10SM CLR 33/05 A2996 RMK AO2,M
CXP,2023-07-25 06:55,-119.7326,39.1923,1431.00,64.40,37.40,36.74,0.00,0.00,0.00,30.25,M,10.00,M,CLR,M,M,M,M,M,M,M,M,M,M,M,M,M,M,64.40,KCXP 250655Z AUTO 00000KT 10SM CLR 18/03 A3025 RMK AO2,M
RNO,2023-07-25 06:55,-119.7711,39.4839,1341.00,73.00,27.00,17.99,300.00,5.00,0.00,30.22,1016.80,10.00,M,CLR,M,M,M,M,M,M,M,M,M,M,M,M,M,M,73.00,KRNO 250655Z 30005KT 10SM CLR 23/M03 A3022 RMK AO2 SLP168 T02281028,M
LSV,2023-07-25 06:55,-115.0343,36.2362,570.00,M,M,M,M,M,0.00,29.90,M,M,M,M,M,M,M,M,M,M,M,M,M,M,M,M,M,M,M,KLSV 250655Z AUTO M M M M M A2990 RMK AO2 SLPNO ALSTG ESTMD RVRNO $,M
RTS,2023-07-25 06:55,-119.8764,39.6682,1539.00,62.60,15.80,16.02,320.00,8.00,0.00,30.27,M,10.00,M,CLR,M,M,M,M,M,M,M,M,M,M,M,M,M,M,62.60,KRTS 250655Z AUTO 32008KT 10SM CLR 17/M09 A3027 RMK AO2,M
MEV,2023-07-25 06:55,-119.7500,38.9963,1441.42,59.00,32.00,35.87,150.00,11.00,0.00,30.24,M,10.00,M,CLR,M,M,M,M,M,M,M,M,M,M,M,M,M,M,59.00,KMEV 250655Z AUTO 15011KT 10SM CLR 15/M00 A3024 RMK AO2,M
HTH,2023-07-25 06:55,-118.6315,38.5448,1282.89,73.40,26.60,17.46,0.00,0.00,0.00,30.18,M,10.00,M,CLR,M,M,M,M,M,M,M,M,M,M,M,M,M,M,73.40,KHTH 250655Z AUTO 00000KT 10SM CLR 23/M03 A3018 RMK A01,M
BAM,2023-07-25 06:55,-116.8743,40.5990,1382.36,68.00,35.60,30.20,230.00,5.00,0.00,30.19,M,10.00,M,CLR,M,M,M,M,M,M,M,M,M,M,M,M,M,M,68.00,KBAM 250655Z AUTO 23005KT 10SM CLR 20/02 A3019 RMK AO1,M
TMT,2023-07-25 06:55,-117.1971,39.4643,1749.34,57.70,49.30,73.51,290.00,3.00,0.00,30.32,M,M,M,CLR,M,M,M,M,M,M,M,M,M,M,M,M,M,M,57.70,KTMT 250655Z AUTO 29003KT CLR 14/10 A3032 RMK AO2 T01430096 PWINO,M
10U,2023-07-25 06:55,-116.1876,41.9532,1637.00,66.20,24.80,20.72,180.00,9.00,0.00,30.20,M,10.00,M,CLR,M,M,M,M,M,M,M,M,M,M,M,M,M,M,66.20,K10U 250655Z AUTO 18009KT 10SM CLR 19/M04 A3020 RMK AO2,M
INS,2023-07-25 06:55,-115.6733,36.5872,955.00,92.00,37.80,15.00,340.00,8.00,0.00,30.03,1010.90,10.00,M,CLR,M,M,M,M,M,M,M,M,M,M,M,M,M,M,87.77,KINS 250655Z AUTO 34008KT 10SM CLR 33/03 A3003 RMK AO2 SLP109 T03340032 $,M
EKO,2023-07-25 06:56,-115.7860,40.8242,1367.00,68.00,50.00,52.51,0.00,0.00,0.00,30.22,1017.00,10.00,M,CLR,M,M,M,M,M,M,M,M,M,M,M,M,M,M,68.00,KEKO 250656Z AUTO 00000KT 10SM CLR 20/10 A3022 RMK AO2 SLP170 T02000100,M
WMC,2023-07-25 06:56,-117.8072,40.9019,1315.00,71.00,20.00,14.35,340.00,3.00,0.00,30.16,1015.60,10.00,M,CLR,M,M,M,M,M,M,M,M,M,M,M,M,M,M,71.00,KWMC 250656Z AUTO 34003KT 10SM CLR 22/M07 A3016 RMK AO2 SLP156 T02171067,M
NFL,2023-07-25 06:56,-118.7010,39.4166,1199.00,68.00,28.00,22.23,330.00,7.00,0.00,30.16,1017.90,10.00,M,FEW,M,M,M,25000.00,M,M,M,M,M,M,M,M,M,M,68.00,KNFL 250656Z 33007KT 10SM FEW250 20/M02 A3016 RMK AO2 SLP179 T02001022,M
HND,2023-07-25 06:56,-115.1344,35.9729,742.79,93.00,44.00,18.49,190.00,7.00,0.00,30.01,1013.80,10.00,M,CLR,M,M,M,M,M,M,M,M,M,M,M,M,M,M,89.10,KHND 250656Z AUTO 19007KT 10SM CLR 34/07 A3001 RMK AO2 SLP138 T03390067 404280283,M
TPH,2023-07-25 06:56,-117.0904,38.0505,1654.00,68.00,50.00,52.51,350.00,10.00,0.00,30.27,1017.20,10.00,M,CLR,M,M,M,M,M,M,M,M,M,M,M,M,M,M,68.00,KTPH 250656Z AUTO 35010KT 10SM CLR 20/10 A3027 RMK AO2 SLP172 T02000100 $,M
LAS,2023-07-25 06:56,-115.1634,36.0719,663.00,96.00,45.00,17.51,190.00,4.00,0.00,29.95,1010.70,10.00,M,CLR,M,M,M,M,M,M,M,M,M,M,M,M,M,M,92.07,KLAS 250656Z 19004KT 10SM CLR 36/07 A2995 RMK AO2 SLP107 T03560072,M
LSV,2023-07-25 07:00,-115.0343,36.2362,570.00,98.60,46.40,17.05,170.00,6.00,0.00,29.90,1007.70,10.00,M,CLR,M,M,M,M,M,M,M,M,M,M,M,M,M,M,94.84,KLSV 250700Z 17006KT 10SM CLR 37/08 A2990 RMK SLP077 ALSTG ESTMD RVRNO $,M
05U,2023-07-25 07:10,-116.0051,39.6042,1811.23,60.80,44.60,55.12,M,M,0.00,30.33,M,10.00,M,M,M,M,M,M,M,M,M,M,M,M,M,M,M,M,60.80,K05U 250710Z AUTO 10SM 16/07 A3033 RMK A01,M
BVU,2023-07-25 07:15,-114.8611,35.9475,671.00,89.60,44.60,21.04,310.00,5.00,0.00,29.96,M,10.00,M,CLR,M,M,M,M,M,M,M,M,M,M,M,M,M,M,86.07,KBVU 250715Z AUTO 31005KT 10SM CLR 32/07 A2996 RMK AO2,M
CXP,2023-07-25 07:15,-119.7326,39.1923,1431.00,62.60,35.60,36.45,0.00,0.00,0.00,30.25,M,10.00,M,CLR,M,M,M,M,M,M,M,M,M,M,M,M,M,M,62.60,KCXP 250715Z AUTO 00000KT 10SM CLR 17/02 A3025 RMK AO2,M
RTS,2023-07-25 07:15,-119.8764,39.6682,1539.00,59.00,17.60,19.68,290.00,6.00,0.00,30.27,M,10.00,M,CLR,M,M,M,M,M,M,M,M,M,M,M,M,M,M,59.00,KRTS 250715Z AUTO 29006KT 10SM CLR 15/M08 A3027 RMK AO2,M
MEV,2023-07-25 07:15,-119.7500,38.9963,1441.42,57.20,32.00,38.26,170.00,8.00,0.00,30.24,M,10.00,M,CLR,M,M,M,M,M,M,M,M,M,M,M,M,M,M,57.20,KMEV 250715Z AUTO 17008KT 10SM CLR 14/00 A3024 RMK AO2,M
HTH,2023-07-25 07:15,-118.6315,38.5448,1282.89,77.00,24.80,14.37,200.00,8.00,0.00,30.18,M,10.00,M,M,M,M,M,M,M,M,M,M,M,M,M,M,M,M,77.00,KHTH 250715Z AUTO 20008KT 10SM 25/M04 A3018 RMK A01,M
10U,2023-07-25 07:15,-116.1876,41.9532,1637.00,64.40,21.20,18.96,190.00,6.00,0.00,30.21,M,10.00,M,CLR,M,M,M,M,M,M,M,M,M,M,M,M,M,M,64.40,K10U 250715Z AUTO 19006KT 10SM CLR 18/M06 A3021 RMK AO2,M
BAM,2023-07-25 07:15,-116.8743,40.5990,1382.36,64.40,33.80,31.85,250.00,5.00,0.00,30.19,M,10.00,M,CLR,M,M,M,M,M,M,M,M,M,M,M,M,M,M,64.40,KBAM 250715Z AUTO 25005KT 10SM CLR 18/01 A3019 RMK AO1,M
TMT,2023-07-25 07:15,-117.1971,39.4643,1749.34,54.50,51.00,87.93,250.00,6.00,0.00,30.32,M,M,M,M,M,M,M,M,M,M,M,M,M,M,M,M,M,M,54.50,KTMT 250715Z AUTO 25006KT 13/11 A3032 RMK AO2 T01250105 PWINO,M
05U,2023-07-25 07:30,-116.0051,39.6042,1811.23,59.00,44.60,58.77,M,M,0.00,30.32,M,10.00,M,M,M,M,M,M,M,M,M,M,M,M,M,M,M,M,59.00,K05U 250730Z AUTO 10SM 15/07 A3032 RMK A01,M
BVU,2023-07-25 07:35,-114.8611,35.9475,671.00,89.60,39.20,17.09,300.00,6.00,0.00,29.96,M,10.00,M,CLR,M,M,M,M,M,M,M,M,M,M,M,M,M,M,85.73,KBVU 250735Z AUTO 30006KT 10SM CLR 32/04 A2996 RMK AO2,M
CXP,2023-07-25 07:35,-119.7326,39.1923,1431.00,62.60,35.60,36.45,330.00,3.00,0.00,30.25,M,10.00,M,CLR,M,M,M,M,M,M,M,M,M,M,M,M,M,M,62.60,KCXP 250735Z AUTO 33003KT 10SM CLR 17/02 A3025 RMK AO2,M
RTS,2023-07-25 07:35,-119.8764,39.6682,1539.00,55.40,17.60,22.41,320.00,5.00,0.00,30.27,M,10.00,M,CLR,M,M,M,M,M,M,M,M,M,M,M,M,M,M,55.40,KRTS 250735Z AUTO 32005KT 10SM CLR 13/M08 A3027 RMK AO2,M
MEV,2023-07-25 07:35,-119.7500,38.9963,1441.42,55.40,33.80,43.90,0.00,0.00,0.00,30.23,M,10.00,11.00,CLR,M,M,M,M,M,M,M,M,M,M,M,M,M,M,55.40,KMEV 250735Z AUTO 00000G11KT 10SM CLR 13/01 A3023 RMK AO2,M
HTH,2023-07-25 07:35,-118.6315,38.5448,1282.89,77.00,24.80,14.37,M,M,0.00,30.18,M,10.00,M,M,M,M,M,M,M,M,M,M,M,M,M,M,M,M,77.00,KHTH 250735Z AUTO 210KT 10SM 25/M04 A3018 RMK A01,M
TMT,2023-07-25 07:35,-117.1971,39.4643,1749.34,55.00,50.50,84.76,240.00,7.00,0.00,30.32,M,M,M,M,M,M,M,M,M,M,M,M,M,M,M,M,M,M,55.00,KTMT 250735Z AUTO 24007KT 13/10 A3032 RMK AO2 T01270103 PWINO,M
10U,2023-07-25 07:35,-116.1876,41.9532,1637.00,57.20,26.60,30.69,260.00,5.00,0.00,30.22,M,10.00,M,CLR,M,M,M,M,M,M,M,M,M,M,M,M,M,M,57.20,K10U 250735Z AUTO 26005KT 10SM CLR 14/M03 A3022 RMK AO2,M
BAM,2023-07-25 07:35,-116.8743,40.5990,1382.36,62.60,32.00,31.56,250.00,6.00,0.00,30.19,M,10.00,M,CLR,M,M,M,M,M,M,M,M,M,M,M,M,M,M,62.60,KBAM 250735Z AUTO 25006KT 10SM CLR 17/00 A3019 RMK AO1,M
05U,2023-07-25 07:50,-116.0051,39.6042,1811.23,55.40,42.80,62.46,M,M,0.00,30.33,M,10.00,M,M,M,M,M,M,M,M,M,M,M,M,M,M,M,M,55.40,K05U 250750Z AUTO 10SM 13/06 A3033 RMK A01,M
P68,2023-07-25 07:53,-116.0056,39.6014,1993.00,55.00,43.00,63.86,350.00,3.00,0.00,30.31,1019.50,M,M,M,M,M,M,M,M,M,M,M,M,M,M,M,M,M,55.00,KP68 250753Z AUTO 35003KT 13/06 A3031 RMK AO1 SLP195 T01280061 403060128,M
DRA,2023-07-25 07:53,-116.0278,36.6206,1009.00,89.00,42.00,19.41,20.00,3.00,0.00,30.05,1011.50,10.00,M,CLR,M,M,M,M,M,M,M,M,M,M,M,M,M,M,85.36,KDRA 250753Z AUTO 02003KT 10SM CLR 32/06 A3005 RMK AO2 SLP115 T03170056 404000261,M
ELY,2023-07-25 07:53,-114.8453,39.2950,1909.00,61.00,45.00,55.57,180.00,7.00,0.00,30.33,1015.90,10.00,M,CLR,M,M,M,M,M,M,M,M,M,M,M,M,M,M,61.00,KELY 250753Z AUTO 18007KT 10SM CLR 16/07 A3033 RMK AO2 SLP159 T01610072 403220156,M
VGT,2023-07-25 07:53,-115.1933,36.2111,667.00,95.00,46.00,18.76,140.00,6.00,0.00,29.95,1012.30,10.00,M,CLR,M,M,M,M,M,M,M,M,M,M,M,M,M,M,91.23,KVGT 250753Z AUTO 14006KT 10SM CLR 35/08 A2995 RMK AO2 SLP123 T03500078 404390306,M
LOL,2023-07-25 07:53,-118.5701,40.0684,1192.43,68.00,19.00,15.24,280.00,4.00,0.00,30.15,1016.50,10.00,M,CLR,M,M,M,M,M,M,M,M,M,M,M,M,M,M,68.00,KLOL 250753Z AUTO 28004KT 10SM CLR 20/M07 A3015 RMK AO2 SLP165 T02001072 403670167,M
BVU,2023-07-25 07:55,-114.8611,35.9475,671.00,91.40,39.20,16.15,310.00,4.00,0.00,29.96,M,10.00,M,CLR,M,M,M,M,M,M,M,M,M,M,M,M,M,M,87.30,KBVU 250755Z AUTO 31004KT 10SM CLR 33/04 A2996 RMK AO2,M
CXP,2023-07-25 07:55,-119.7326,39.1923,1431.00,60.80,33.80,36.16,0.00,0.00,0.00,30.25,M,10.00,M,CLR,M,M,M,M,M,M,M,M,M,M,M,M,M,M,60.80,KCXP 250755Z AUTO 00000KT 10SM CLR 16/01 A3025 RMK AO2,M
RNO,2023-07-25 07:55,-119.7711,39.4839,1341.00,69.00,29.00,22.37,0.00,0.00,0.00,30.22,1016.90,10.00,M,CLR,M,M,M,M,M,M,M,M,M,M,M,M,M,M,69.00,KRNO 250755Z 00000KT 10SM CLR 21/M02 A3022 RMK AO2 SLP169 T02061017 403500194,M
LSV,2023-07-25 07:55,-115.0343,36.2362,570.00,M,M,M,M,M,0.00,29.90,M,M,M,M,M,M,M,M,M,M,M,M,M,M,M,M,M,M,M,KLSV 250755Z AUTO M M M M M A2990 RMK AO2 SLPNO ALSTG ESTMD 404410294 RVRNO $,M
RTS,2023-07-25 07:55,-119.8764,39.6682,1539.00,55.40,19.40,24.21,320.00,8.00,0.00,30.26,M,10.00,M,CLR,M,M,M,M,M,M,M,M,M,M,M,M,M,M,55.40,KRTS 250755Z AUTO 32008KT 10SM CLR 13/M07 A3026 RMK AO2,M
MEV,2023-07-25 07:55,-119.7500,38.9963,1441.42,57.20,32.00,38.26,0.00,0.00,0.00,30.23,M,10.00,M,CLR,M,M,M,M,M,M,M,M,M,M,M,M,M,M,57.20,KMEV 250755Z AUTO 00000KT 10SM CLR 14/M00 A3023 RMK AO2,M
HTH,2023-07-25 07:55,-118.6315,38.5448,1282.89,71.60,30.20,21.50,130.00,10.00,0.00,30.18,M,10.00,M,M,M,M,M,M,M,M,M,M,M,M,M,M,M,M,71.60,KHTH 250755Z AUTO 13010KT 10SM 22/M01 A3018 RMK A01,M
BAM,2023-07-25 07:55,-116.8743,40.5990,1382.36,62.60,32.00,31.56,260.00,9.00,0.00,30.20,M,10.00,M,CLR,M,M,M,M,M,M,M,M,M,M,M,M,M,M,62.60,KBAM 250755Z AUTO 26009KT 10SM CLR 17/00 A3020 RMK AO1,M
TMT,2023-07-25 07:55,-117.1971,39.4643,1749.34,51.60,48.40,88.78,270.00,5.00,0.00,30.32,M,M,M,M,M,M,M,M,M,M,M,M,M,M,M,M,M,M,51.60,KTMT 250755Z AUTO 27005KT 11/09 A3032 RMK AO2 T01090091 402980109 PWINO,M
10U,2023-07-25 07:55,-116.1876,41.9532,1637.00,55.40,26.60,32.76,0.00,0.00,0.00,30.22,M,10.00,M,CLR,M,M,M,M,M,M,M,M,M,M,M,M,M,M,55.40,K10U 250755Z AUTO 00000KT 10SM CLR 13/M03 A3022 RMK AO2,M
INS,2023-07-25 07:55,-115.6733,36.5872,955.00,85.00,37.00,18.14,330.00,6.00,0.00,30.04,1011.40,10.00,M,CLR,M,M,M,M,M,M,M,M,M,M,M,M,M,M,81.96,KINS 250755Z AUTO 33006KT 10SM CLR 30/03 A3004 RMK AO2 SLP114 T02950027 403960247 $,M
EKO,2023-07-25 07:56,-115.7860,40.8242,1367.00,66.00,45.00,46.62,0.00,0.00,0.00,30.22,1017.40,10.00,M,CLR,M,M,M,M,M,M,M,M,M,M,M,M,M,M,66.00,KEKO 250756Z AUTO 00000KT 10SM CLR 19/07 A3022 RMK AO2 SLP174 T01890072 403000183,M
WMC,2023-07-25 07:56,-117.8072,40.9019,1315.00,65.00,21.00,18.41,290.00,4.00,0.00,30.17,1016.30,10.00,M,CLR,M,M,M,M,M,M,M,M,M,M,M,M,M,M,65.00,KWMC 250756Z AUTO 29004KT 10SM CLR 18/M06 A3017 RMK AO2 SLP163 T01831061 403720167,M
NFL,2023-07-25 07:56,-118.7010,39.4166,1199.00,69.00,29.00,22.37,60.00,6.00,0.00,30.17,1018.00,10.00,M,CLR,M,M,M,M,M,M,M,M,M,M,M,M,M,M,69.00,KNFL 250756Z AUTO 06006KT 10SM CLR 21/M02 A3017 RMK AO2 SLP180 T02061017 403720189,M
HND,2023-07-25 07:56,-115.1344,35.9729,742.79,91.00,45.00,20.45,210.00,7.00,0.00,30.00,1013.80,10.00,M,CLR,M,M,M,M,M,M,M,M,M,M,M,M,M,M,87.35,KHND 250756Z AUTO 21007KT 10SM CLR 33/07 A3000 RMK AO2 SLP138 T03280072,M
TPH,2023-07-25 07:56,-117.0904,38.0505,1654.00,66.00,51.00,58.40,340.00,9.00,0.00,30.28,1017.30,10.00,M,CLR,M,M,M,M,M,M,M,M,M,M,M,M,M,M,66.00,KTPH 250756Z AUTO 34009KT 10SM CLR 19/11 A3028 RMK AO2 SLP173 T01890106 403390178 $,M
LAS,2023-07-25 07:56,-115.1634,36.0719,663.00,94.00,43.00,17.25,200.00,7.00,0.00,29.95,1010.70,10.00,M,CLR,M,M,M,M,M,M,M,M,M,M,M,M,M,M,89.94,KLAS 250756Z 20007KT 10SM CLR 34/06 A2995 RMK AO2 SLP107 T03440061 404280306,M
LSV,2023-07-25 08:00,-115.0343,36.2362,570.00,96.80,44.60,16.83,160.00,7.00,0.00,29.90,1007.70,10.00,M,CLR,M,M,M,M,M,M,M,M,M,M,M,M,M,M,92.79,KLSV 250800Z 16007KT 10SM CLR 36/07 A2990 RMK A02A SLP077 ALSTG ESTMD RVRNO $,M
05U,2023-07-25 08:10,-116.0051,39.6042,1811.23,55.40,42.80,62.46,M,M,0.00,30.33,M,10.00,M,M,M,M,M,M,M,M,M,M,M,M,M,M,M,M,55.40,K05U 250810Z AUTO 10SM 13/06 A3033 RMK A01,M
BVU,2023-07-25 08:15,-114.8611,35.9475,671.00,89.60,41.00,18.33,290.00,6.00,0.00,29.96,M,10.00,M,CLR,M,M,M,M,M,M,M,M,M,M,M,M,M,M,85.82,KBVU 250815Z AUTO 29006KT 10SM CLR 32/05 A2996 RMK AO2,M
CXP,2023-07-25 08:15,-119.7326,39.1923,1431.00,60.80,32.00,33.64,0.00,0.00,0.00,30.25,M,10.00,M,CLR,M,M,M,M,M,M,M,M,M,M,M,M,M,M,60.80,KCXP 250815Z AUTO 00000KT 10SM CLR 16/M00 A3025 RMK AO2,M
RTS,2023-07-25 08:15,-119.8764,39.6682,1539.00,55.40,17.60,22.41,360.00,5.00,0.00,30.27,M,10.00,M,CLR,M,M,M,M,M,M,M,M,M,M,M,M,M,M,55.40,KRTS 250815Z AUTO 36005KT 10SM CLR 13/M08 A3027 RMK AO2,M
MEV,2023-07-25 08:15,-119.7500,38.9963,1441.42,55.40,32.00,40.84,110.00,5.00,0.00,30.24,M,10.00,M,CLR,M,M,M,M,M,M,M,M,M,M,M,M,M,M,55.40,KMEV 250815Z AUTO 11005KT 10SM CLR 13/00 A3024 RMK AO2,M
HTH,2023-07-25 08:15,-118.6315,38.5448,1282.89,73.40,24.80,16.20,180.00,9.00,0.00,30.19,M,10.00,M,CLR,M,M,M,M,M,M,M,M,M,M,M,M,M,M,73.40,KHTH 250815Z AUTO 18009KT 10SM CLR 23/M04 A3019 RMK A01,M
10U,2023-07-25 08:15,-116.1876,41.9532,1637.00,55.40,26.60,32.76,140.00,6.00,0.00,30.23,M,10.00,M,CLR,M,M,M,M,M,M,M,M,M,M,M,M,M,M,55.40,K10U 250815Z AUTO 14006KT 10SM CLR 13/M03 A3023 RMK AO2,M
BAM,2023-07-25 08:15,-116.8743,40.5990,1382.36,69.80,30.20,22.86,250.00,9.00,0.00,30.20,M,10.00,M,CLR,M,M,M,M,M,M,M,M,M,M,M,M,M,M,69.80,KBAM 250815Z AUTO 25009KT 10SM CLR 21/M01 A3020 RMK AO1,M
TMT,2023-07-25 08:15,-117.1971,39.4643,1749.34,53.20,49.60,87.54,250.00,8.00,0.00,30.33,M,M,M,M,M,M,M,M,M,M,M,M,M,M,M,M,M,M,53.20,KTMT 250815Z AUTO 25008KT 12/10 A3033 RMK AO2 T01180098 PWINO,M
05U,2023-07-25 08:30,-116.0051,39.6042,1811.23,53.60,44.60,71.45,M,M,0.00,30.34,M,10.00,M,M,M,M,M,M,M,M,M,M,M,M,M,M,M,M,53.60,K05U 250830Z AUTO 10SM 12/07 A3034 RMK A01,M
BVU,2023-07-25 08:35,-114.8611,35.9475,671.00,91.40,41.00,17.32,0.00,0.00,0.00,29.96,M,10.00,M,CLR,M,M,M,M,M,M,M,M,M,M,M,M,M,M,87.40,KBVU 250835Z AUTO 00000KT 10SM CLR 33/05 A2996 RMK AO2,M
CXP,2023-07-25 08:35,-119.7326,39.1923,1431.00,59.00,33.80,38.56,0.00,0.00,0.00,30.25,M,10.00,M,CLR,M,M,M,M,M,M,M,M,M,M,M,M,M,M,59.00,KCXP 250835Z AUTO 00000KT 10SM CLR 15/01 A3025 RMK AO2,M
RTS,2023-07-25 08:35,-119.8764,39.6682,1539.00,53.60,17.60,23.93,350.00,5.00,0.00,30.26,M,10.00,M,CLR,M,M,M,M,M,M,M,M,M,M,M,M,M,M,53.60,KRTS 250835Z AUTO 35005KT 10SM CLR 12/M08 A3026 RMK AO2,M
MEV,2023-07-25 08:35,-119.7500,38.9963,1441.42,53.60,32.00,43.61,0.00,0.00,0.00,30.24,M,10.00,M,CLR,M,M,M,M,M,M,M,M,M,M,M,M,M,M,53.60,KMEV 250835Z AUTO 00000KT 10SM CLR 12/M00 A3024 RMK AO2,M
HTH,2023-07-25 08:35,-118.6315,38.5448,1282.89,73.40,26.60,17.46,M,5.00,0.00,30.19,M,10.00,M,CLR,M,M,M,M,M,M,M,M,M,M,M,M,M,M,73.40,KHTH 250835Z AUTO VRB05KT 10SM CLR 23/M03 A3019 RMK A01,M
TMT,2023-07-25 08:35,-117.1971,39.4643,1749.34,52.70,49.00,87.19,170.00,4.00,0.00,30.33,M,M,M,M,M,M,M,M,M,M,M,M,M,M,M,M,M,M,52.70,KTMT 250835Z AUTO 17004KT 12/09 A3033 RMK AO2 T01150094 PWINO,M
10U,2023-07-25 08:35,-116.1876,41.9532,1637.00,50.00,24.80,37.08,90.00,4.00,0.00,30.24,M,10.00,M,CLR,M,M,M,M,M,M,M,M,M,M,M,M,M,M,50.00,K10U 250835Z AUTO 09004KT 10SM CLR 10/M04 A3024 RMK AO2,M
BAM,2023-07-25 08:35,-116.8743,40.5990,1382.36,68.00,30.20,24.32,250.00,9.00,0.00,30.20,M,10.00,M,CLR,M,M,M,M,M,M,M,M,M,M,M,M,M,M,68.00,KBAM 250835Z AUTO 25009KT 10SM CLR 20/M01 A3020 RMK AO1,M
05U,2023-07-25 08:50,-116.0051,39.6042,1811.23,53.60,42.80,66.70,M,M,0.00,30.34,M,10.00,M,M,M,M,M,M,M,M,M,M,M,M,M,M,M,M,53.60,K05U 250850Z AUTO 10SM 12/06 A3034 RMK A01,M
P68,2023-07-25 08:53,-116.0056,39.6014,1993.00,54.00,43.00,66.24,150.00,4.00,0.00,30.32,1020.00,M,M,M,M,M,M,M,M,M,M,M,M,M,M,M,M,M,54.00,KP68 250853Z AUTO 15004KT 12/06 A3032 RMK AO1 SLP200 T01220061 53004,M
DRA,2023-07-25 08:53,-116.0278,36.6206,1009.00,86.00,43.00,22.19,40.00,10.00,0.00,30.05,1011.50,10.00,M,CLR,M,M,M,M,M,M,M,M,M,M,M,M,M,M,82.97,KDRA 250853Z AUTO 04010KT 10SM CLR 30/06 A3005 RMK AO2 SLP115 T03000061 51003,M
ELY,2023-07-25 08:53,-114.8453,39.2950,1909.00,61.00,45.00,55.57,180.00,13.00,0.00,30.33,1015.80,10.00,M,CLR,M,M,M,M,M,M,M,M,M,M,M,M,M,M,61.00,KELY 250853Z AUTO 18013KT 10SM CLR 16/07 A3033 RMK AO2 SLP158 T01610072 58001,M
VGT,2023-07-25 08:53,-115.1933,36.2111,667.00,92.00,46.00,20.58,0.00,0.00,0.00,29.95,1012.20,10.00,M,CLR,M,M,M,M,M,M,M,M,M,M,M,M,M,M,88.38,KVGT 250853Z AUTO 00000KT 10SM CLR 33/08 A2995 RMK AO2 SLP122 T03330078 50001,M
LOL,2023-07-25 08:53,-118.5701,40.0684,1192.43,58.00,28.00,31.59,50.00,7.00,0.00,30.17,1017.30,10.00,M,CLR,M,M,M,M,M,M,M,M,M,M,M,M,M,M,58.00,KLOL 250853Z AUTO 05007KT 10SM CLR 14/M02 A3017 RMK AO2 SLP173 T01441022 53006,M
BVU,2023-07-25 08:55,-114.8611,35.9475,671.00,86.00,48.20,27.03,0.00,0.00,0.00,29.95,M,10.00,M,CLR,M,M,M,M,M,M,M,M,M,M,M,M,M,M,83.40,KBVU 250855Z AUTO 00000KT 10SM CLR 30/09 A2995 RMK AO2,M
CXP,2023-07-25 08:55,-119.7326,39.1923,1431.00,57.20,35.60,44.19,0.00,0.00,0.00,30.25,M,10.00,M,CLR,M,M,M,M,M,M,M,M,M,M,M,M,M,M,57.20,KCXP 250855Z AUTO 00000KT 10SM CLR 14/02 A3025 RMK AO2,M
RNO,2023-07-25 08:55,-119.7711,39.4839,1341.00,65.00,32.00,29.02,0.00,0.00,0.00,30.22,1017.10,10.00,M,CLR,M,M,M,M,M,M,M,M,M,M,M,M,M,M,65.00,KRNO 250855Z 00000KT 10SM CLR 18/00 A3022 RMK AO2 SLP171 T01830000 52002,M
RTS,2023-07-25 08:55,-119.8764,39.6682,1539.00,57.20,19.40,22.68,360.00,6.00,0.00,30.27,M,10.00,M,CLR,M,M,M,M,M,M,M,M,M,M,M,M,M,M,57.20,KRTS 250855Z AUTO 36006KT 10SM CLR 14/M07 A3027 RMK AO2,M
MEV,2023-07-25 08:55,-119.7500,38.9963,1441.42,50.00,32.00,49.81,0.00,0.00,0.00,30.24,M,10.00,M,CLR,M,M,M,M,M,M,M,M,M,M,M,M,M,M,50.00,KMEV 250855Z AUTO 00000KT 10SM CLR 10/00 A3024 RMK AO2,M
HTH,2023-07-25 08:55,-118.6315,38.5448,1282.89,71.60,30.20,21.50,190.00,5.00,0.00,30.19,M,10.00,M,CLR,M,M,M,M,M,M,M,M,M,M,M,M,M,M,71.60,KHTH 250855Z AUTO 19005KT 10SM CLR 22/M01 A3019 RMK A01,M
BAM,2023-07-25 08:55,-116.8743,40.5990,1382.36,68.00,30.20,24.32,240.00,10.00,0.00,30.21,M,10.00,M,CLR,M,M,M,M,M,M,M,M,M,M,M,M,M,M,68.00,KBAM 250855Z AUTO 24010KT 10SM CLR 20/M01 A3021 RMK AO1,M
TMT,2023-07-25 08:55,-117.1971,39.4643,1749.34,46.20,44.20,92.68,180.00,4.00,0.00,30.33,M,M,M,M,M,M,M,M,M,M,M,M,M,M,M,M,M,M,44.00,KTMT 250855Z AUTO 18004KT 08/07 A3033 RMK AO2 T00790068 PWINO,M
10U,2023-07-25 08:55,-116.1876,41.9532,1637.00,53.60,24.80,32.46,120.00,6.00,0.00,30.24,M,10.00,M,CLR,M,M,M,M,M,M,M,M,M,M,M,M,M,M,53.60,K10U 250855Z AUTO 12006KT 10SM CLR 12/M04 A3024 RMK AO2,M
INS,2023-07-25 08:55,-115.6733,36.5872,955.00,85.50,38.50,18.94,0.00,0.00,0.00,30.05,1011.70,10.00,M,CLR,M,M,M,M,M,M,M,M,M,M,M,M,M,M,82.38,KINS 250855Z AUTO 00000KT 10SM CLR 30/04 A3005 RMK AO2 SLP117 T02970036 52007 $,M
EKO,2023-07-25 08:56,-115.7860,40.8242,1367.00,63.00,44.00,49.84,0.00,0.00,0.00,30.23,1018.40,10.00,M,CLR,M,M,M,M,M,M,M,M,M,M,M,M,M,M,63.00,KEKO 250856Z AUTO 00000KT 10SM CLR 17/07 A3023 RMK AO2 SLP184 T01720067 53007,M
WMC,2023-07-25 08:56,-117.8072,40.9019,1315.00,68.00,19.00,15.24,0.00,0.00,0.00,30.18,1016.40,10.00,M,CLR,M,M,M,M,M,M,M,M,M,M,M,M,M,M,68.00,KWMC 250856Z AUTO 00000KT 10SM CLR 20/M07 A3018 RMK AO2 SLP164 T02001072 51009,M
NFL,2023-07-25 08:56,-118.7010,39.4166,1199.00,63.00,31.00,29.89,0.00,0.00,0.00,30.17,1018.20,10.00,M,CLR,M,M,M,M,M,M,M,M,M,M,M,M,M,M,63.00,KNFL 250856Z AUTO 00000KT 10SM CLR 17/M01 A3017 RMK AO2 SLP182 T01721006 53005,M
HND,2023-07-25 08:56,-115.1344,35.9729,742.79,92.00,46.00,20.58,180.00,9.00,0.00,30.01,1013.80,10.00,M,CLR,M,M,M,M,M,M,M,M,M,M,M,M,M,M,88.38,KHND 250856Z AUTO 18009KT 10SM CLR 33/08 A3001 RMK AO2 SLP138 T03330078 53001,M
TPH,2023-07-25 08:56,-117.0904,38.0505,1654.00,66.00,48.00,52.22,360.00,10.00,0.00,30.27,1016.90,10.00,M,BKN,M,M,M,11000.00,M,M,M,M,M,M,M,M,M,M,66.00,KTPH 250856Z AUTO 36010KT 10SM BKN110 19/09 A3027 RMK AO2 SLP169 T01890089 50001 $,M
LAS,2023-07-25 08:56,-115.1634,36.0719,663.00,93.00,45.00,19.21,190.00,4.00,0.00,29.96,1010.90,10.00,M,SCT,M,M,M,20000.00,M,M,M,M,M,M,M,M,M,M,89.20,KLAS 250856Z 19004KT 10SM SCT200 34/07 A2996 RMK AO2 SLP109 T03390072 53002,M
LSV,2023-07-25 09:00,-115.0343,36.2362,570.00,93.20,44.60,18.80,270.00,1.00,0.00,29.91,1007.70,10.00,M,CLR,M,M,M,M,M,M,M,M,M,M,M,M,M,M,89.34,KLSV 250900Z 27001KT 10SM CLR 34/07 A2991 RMK A02A SLP077 ALSTG ESTMD RVRNO $,M
05U,2023-07-25 09:10,-116.0051,39.6042,1811.23,53.60,41.00,62.23,M,M,0.00,30.34,M,10.00,M,M,M,M,M,M,M,M,M,M,M,M,M,M,M,M,53.60,K05U 250910Z AUTO 10SM 12/05 A3034 RMK A01,M
BVU,2023-07-25 09:15,-114.8611,35.9475,671.00,87.80,46.40,23.85,330.00,5.00,0.00,29.96,M,10.00,M,CLR,M,M,M,M,M,M,M,M,M,M,M,M,M,M,84.68,KBVU 250915Z AUTO 33005KT 10SM CLR 31/08 A2996 RMK AO2,M
CXP,2023-07-25 09:15,-119.7326,39.1923,1431.00,57.20,35.60,44.19,0.00,0.00,0.00,30.25,M,10.00,M,CLR,M,M,M,M,M,M,M,M,M,M,M,M,M,M,57.20,KCXP 250915Z AUTO 00000KT 10SM CLR 14/02 A3025 RMK AO2,M
RTS,2023-07-25 09:15,-119.8764,39.6682,1539.00,57.20,19.40,22.68,350.00,6.00,0.00,30.26,M,10.00,M,CLR,M,M,M,M,M,M,M,M,M,M,M,M,M,M,57.20,KRTS 250915Z AUTO 35006KT 10SM CLR 14/M07 A3026 RMK AO2,M
MEV,2023-07-25 09:15,-119.7500,38.9963,1441.42,53.60,33.80,46.88,140.00,5.00,0.00,30.24,M,10.00,M,CLR,M,M,M,M,M,M,M,M,M,M,M,M,M,M,53.60,KMEV 250915Z AUTO 14005KT 10SM CLR 12/01 A3024 RMK AO2,M
HTH,2023-07-25 09:15,-118.6315,38.5448,1282.89,71.60,28.40,19.98,0.00,0.00,0.00,30.19,M,10.00,M,CLR,M,M,M,M,M,M,M,M,M,M,M,M,M,M,71.60,KHTH 250915Z AUTO 00000KT 10SM CLR 22/M02 A3019 RMK A01,M
10U,2023-07-25 09:15,-116.1876,41.9532,1637.00,53.60,23.00,30.11,180.00,7.00,0.00,30.24,M,10.00,M,CLR,M,M,M,M,M,M,M,M,M,M,M,M,M,M,53.60,K10U 250915Z AUTO 18007KT 10SM CLR 12/M05 A3024 RMK AO2,M
BAM,2023-07-25 09:15,-116.8743,40.5990,1382.36,60.80,30.20,31.28,180.00,4.00,0.00,30.21,M,10.00,M,CLR,M,M,M,M,M,M,M,M,M,M,M,M,M,M,60.80,KBAM 250915Z AUTO 18004KT 10SM CLR 16/M01 A3021 RMK AO1,M
TMT,2023-07-25 09:15,-117.1971,39.4643,1749.34,47.70,45.00,90.30,0.00,0.00,0.00,30.33,M,M,M,M,M,M,M,M,M,M,M,M,M,M,M,M,M,M,47.70,KTMT 250915Z AUTO 00000KT 09/07 A3033 RMK AO2 T00870072 PWINO,M
05U,2023-07-25 09:30,-116.0051,39.6042,1811.23,53.60,41.00,62.23,M,M,0.00,30.34,M,10.00,M,M,M,M,M,M,M,M,M,M,M,M,M,M,M,M,53.60,K05U 250930Z AUTO 10SM 12/05 A3034 RMK A01,M
BVU,2023-07-25 09:35,-114.8611,35.9475,671.00,87.80,48.20,25.52,0.00,0.00,0.00,29.96,M,10.00,M,CLR,M,M,M,M,M,M,M,M,M,M,M,M,M,M,84.87,KBVU 250935Z AUTO 00000KT 10SM CLR 31/09 A2996 RMK AO2,M
CXP,2023-07-25 09:35,-119.7326,39.1923,1431.00,55.40,37.40,50.64,0.00,0.00,0.00,30.25,M,10.00,M,CLR,M,M,M,M,M,M,M,M,M,M,M,M,M,M,55.40,KCXP 250935Z AUTO 00000KT 10SM CLR 13/03 A3025 RMK AO2,M
RTS,2023-07-25 09:35,-119.8764,39.6682,1539.00,55.40,19.40,24.21,0.00,0.00,0.00,30.26,M,10.00,M,CLR,M,M,M,M,M,M,M,M,M,M,M,M,M,M,55.40,KRTS 250935Z AUTO 00000KT 10SM CLR 13/M07 A3026 RMK AO2,M
MEV,2023-07-25 09:35,-119.7500,38.9963,1441.42,48.20,32.00,53.27,0.00,0.00,0.00,30.24,M,10.00,M,CLR,M,M,M,M,M,M,M,M,M,M,M,M,M,M,48.20,KMEV 250935Z AUTO 00000KT 10SM CLR 09/M00 A3024 RMK AO2,M
HTH,2023-07-25 09:35,-118.6315,38.5448,1282.89,71.60,28.40,19.98,160.00,4.00,0.00,30.19,M,10.00,M,CLR,M,M,M,M,M,M,M,M,M,M,M,M,M,M,71.60,KHTH 250935Z AUTO 16004KT 10SM CLR 22/M02 A3019 RMK A01,M
TMT,2023-07-25 09:35,-117.1971,39.4643,1749.34,47.00,45.00,92.71,0.00,0.00,0.00,30.33,M,M,M,M,M,M,M,M,M,M,M,M,M,M,M,M,M,M,47.00,KTMT 250935Z AUTO 00000KT 08/07 A3033 RMK AO2 T00840072 PWINO,M
10U,2023-07-25 09:35,-116.1876,41.9532,1637.00,55.40,21.20,26.13,190.00,7.00,0.00,30.24,M,10.00,M,CLR,M,M,M,M,M,M,M,M,M,M,M,M,M,M,55.40,K10U 250935Z AUTO 19007KT 10SM CLR 13/M06 A3024 RMK AO2,M
BAM,2023-07-25 09:35,-116.8743,40.5990,1382.36,57.20,28.40,33.05,0.00,0.00,0.00,30.22,M,10.00,M,CLR,M,M,M,M,M,M,M,M,M,M,M,M,M,M,57.20,KBAM 250935Z AUTO 00000KT 10SM CLR 14/M02 A3022 RMK AO1,M
05U,2023-07-25 09:50,-116.0051,39.6042,1811.23,55.40,41.00,58.27,M,M,0.00,30.34,M,10.00,M,M,M,M,M,M,M,M,M,M,M,M,M,M,M,M,55.40,K05U 250950Z AUTO 10SM 13/05 A3034 RMK A01,M
P68,2023-07-25 09:53,-116.0056,39.6014,1993.00,53.00,41.00,63.61,0.00,0.00,0.00,30.32,1019.10,M,M,M,M,M,M,M,M,M,M,M,M,M,M,M,M,M,53.00,KP68 250953Z AUTO 00000KT 12/05 A3032 RMK AO1 SLP191 T01170050,M
DRA,2023-07-25 09:53,-116.0278,36.6206,1009.00,83.00,42.00,23.51,M,5.00,0.00,30.06,1011.70,10.00,M,CLR,M,M,M,M,M,M,M,M,M,M,M,M,M,M,80.74,KDRA 250953Z AUTO VRB05KT 10SM CLR 28/06 A3006 RMK AO2 SLP117 T02830056,M
ELY,2023-07-25 09:53,-114.8453,39.2950,1909.00,59.00,44.00,57.44,180.00,7.00,0.00,30.33,1016.50,10.00,M,OVC,M,M,M,10000.00,M,M,M,M,M,M,M,M,M,M,59.00,KELY 250953Z AUTO 18007KT 10SM OVC100 15/07 A3033 RMK AO2 SLP165 T01500067,M
VGT,2023-07-25 09:53,-115.1933,36.2111,667.00,93.00,45.00,19.21,320.00,4.00,0.00,29.96,1012.50,10.00,M,CLR,M,M,M,M,M,M,M,M,M,M,M,M,M,M,89.20,KVGT 250953Z AUTO 32004KT 10SM CLR 34/07 A2996 RMK AO2 SLP125 T03390072,M
LOL,2023-07-25 09:53,-118.5701,40.0684,1192.43,58.00,25.00,27.91,40.00,6.00,0.00,30.17,1017.40,10.00,M,CLR,M,M,M,M,M,M,M,M,M,M,M,M,M,M,58.00,KLOL 250953Z AUTO 04006KT 10SM CLR 14/M04 A3017 RMK AO2 SLP174 T01441039,M
BVU,2023-07-25 09:55,-114.8611,35.9475,671.00,86.00,50.00,28.90,0.00,0.00,0.00,29.96,M,10.00,M,CLR,M,M,M,M,M,M,M,M,M,M,M,M,M,M,83.62,KBVU 250955Z AUTO 00000KT 10SM CLR 30/10 A2996 RMK AO2,M
CXP,2023-07-25 09:55,-119.7326,39.1923,1431.00,57.20,35.60,44.19,0.00,0.00,0.00,30.25,M,10.00,M,CLR,M,M,M,M,M,M,M,M,M,M,M,M,M,M,57.20,KCXP 250955Z AUTO 00000KT 10SM CLR 14/02 A3025 RMK AO2,M
RNO,2023-07-25 09:55,-119.7711,39.4839,1341.00,62.00,31.00,30.96,200.00,3.00,0.00,30.22,1017.60,10.00,M,CLR,M,M,M,M,M,M,M,M,M,M,M,M,M,M,62.00,KRNO 250955Z 20003KT 10SM CLR 17/M01 A3022 RMK AO2 SLP176 T01671006,M
RTS,2023-07-25 09:55,-119.8764,39.6682,1539.00,55.40,19.40,24.21,360.00,4.00,0.00,30.27,M,10.00,M,CLR,M,M,M,M,M,M,M,M,M,M,M,M,M,M,55.40,KRTS 250955Z AUTO 36004KT 10SM CLR 13/M07 A3027 RMK AO2,M
MEV,2023-07-25 09:55,-119.7500,38.9963,1441.42,50.00,30.20,46.31,130.00,4.00,0.00,30.24,M,10.00,M,CLR,M,M,M,M,M,M,M,M,M,M,M,M,M,M,50.00,KMEV 250955Z AUTO 13004KT 10SM CLR 10/M01 A3024 RMK AO2,M
HTH,2023-07-25 09:55,-118.6315,38.5448,1282.89,69.80,30.20,22.86,170.00,7.00,0.00,30.19,M,10.00,M,CLR,M,M,M,M,M,M,M,M,M,M,M,M,M,M,69.80,KHTH 250955Z AUTO 17007KT 10SM CLR 21/M01 A3019 RMK A01,M
TMT,2023-07-25 09:55,-117.1971,39.4643,1749.34,48.00,45.00,89.29,200.00,4.00,0.00,30.33,M,M,M,M,M,M,M,M,M,M,M,M,M,M,M,M,M,M,46.10,KTMT 250955Z AUTO 20004KT 09/07 A3033 RMK AO2 T00880073 PWINO,M
BAM,2023-07-25 09:55,-116.8743,40.5990,1382.36,55.40,28.40,35.28,170.00,4.00,0.00,30.22,M,10.00,M,CLR,M,M,M,M,M,M,M,M,M,M,M,M,M,M,55.40,KBAM 250955Z AUTO 17004KT 10SM CLR 13/M02 A3022 RMK AO1,M
10U,2023-07-25 09:55,-116.1876,41.9532,1637.00,53.60,23.00,30.11,210.00,8.00,0.00,30.25,M,10.00,M,CLR,M,M,M,M,M,M,M,M,M,M,M,M,M,M,53.60,K10U 250955Z AUTO 21008KT 10SM CLR 12/M05 A3025 RMK AO2,M
INS,2023-07-25 09:55,-115.6733,36.5872,955.00,81.30,39.00,22.12,250.00,3.00,0.00,30.05,1011.90,10.00,M,CLR,M,M,M,M,M,M,M,M,M,M,M,M,M,M,79.51,KINS 250955Z AUTO 25003KT 10SM CLR 27/04 A3005 RMK AO2 SLP119 T02740038 $,M
LSV,2023-07-25 09:55,-115.0343,36.2362,570.00,M,M,M,0.00,0.00,0.00,29.91,1008.20,10.00,M,CLR,M,M,M,M,M,M,M,M,M,M,M,M,M,M,M,KLSV 250955Z 00000KT 10SM CLR A2991 RMK AO2A SLP082 ALSTG ESTMD RVRNO $,M
EKO,2023-07-25 09:56,-115.7860,40.8242,1367.00,58.00,44.00,59.54,0.00,0.00,0.00,30.23,1019.80,10.00,M,CLR,M,M,M,M,M,M,M,M,M,M,M,M,M,M,58.00,KEKO 250956Z AUTO 00000KT 10SM CLR 14/07 A3023 RMK AO2 SLP198 T01440067,M
WMC,2023-07-25 09:56,-117.8072,40.9019,1315.00,67.00,21.00,17.18,300.00,3.00,0.00,30.19,1016.60,10.00,M,CLR,M,M,M,M,M,M,M,M,M,M,M,M,M,M,67.00,KWMC 250956Z AUTO 30003KT 10SM CLR 19/M06 A3019 RMK AO2 SLP166 T01941061,M
NFL,2023-07-25 09:56,-118.7010,39.4166,1199.00,63.00,31.00,29.89,130.00,6.00,0.00,30.17,1018.10,10.00,M,CLR,M,M,M,M,M,M,M,M,M,M,M,M,M,M,63.00,KNFL 250956Z AUTO 13006KT 10SM CLR 17/M01 A3017 RMK AO2 SLP181 T01721006,M
HND,2023-07-25 09:56,-115.1344,35.9729,742.79,91.00,46.00,21.24,200.00,8.00,0.00,30.01,1014.00,10.00,M,CLR,M,M,M,M,M,M,M,M,M,M,M,M,M,M,87.45,KHND 250956Z AUTO 20008KT 10SM CLR 33/08 A3001 RMK AO2 SLP140 T03280078,M
TPH,2023-07-25 09:56,-117.0904,38.0505,1654.00,64.00,47.00,53.92,360.00,11.00,0.00,30.27,1016.80,10.00,M,CLR,M,M,M,M,M,M,M,M,M,M,M,M,M,M,64.00,KTPH 250956Z AUTO 36011KT 10SM CLR 18/08 A3027 RMK AO2 SLP168 T01780083 $,M
LAS,2023-07-25 09:56,-115.1634,36.0719,663.00,93.00,45.00,19.21,200.00,7.00,0.00,29.96,1010.90,10.00,M,BKN,M,M,M,20000.00,M,M,M,M,M,M,M,M,M,M,89.20,KLAS 250956Z 20007KT 10SM BKN200 34/07 A2996 RMK AO2 SLP109 T03390072,M
05U,2023-07-25 10:10,-116.0051,39.6042,1811.23,51.80,42.80,71.26,M,M,0.00,30.34,M,10.00,M,M,M,M,M,M,M,M,M,M,M,M,M,M,M,M,51.80,K05U 251010Z AUTO 10SM 11/06 A3034 RMK A01,M
BVU,2023-07-25 10:15,-114.8611,35.9475,671.00,86.00,50.00,28.90,0.00,0.00,0.00,29.96,M,10.00,M,CLR,M,M,M,M,M,M,M,M,M,M,M,M,M,M,83.62,KBVU 251015Z AUTO 00000KT 10SM CLR 30/10 A2996 RMK AO2,M
CXP,2023-07-25 10:15,-119.7326,39.1923,1431.00,53.60,37.40,54.07,0.00,0.00,0.00,30.25,M,10.00,M,CLR,M,M,M,M,M,M,M,M,M,M,M,M,M,M,53.60,KCXP 251015Z AUTO 00000KT 10SM CLR 12/03 A3025 RMK AO2,M
RTS,2023-07-25 10:15,-119.8764,39.6682,1539.00,55.40,17.60,22.41,360.00,9.00,0.00,30.26,M,10.00,M,CLR,M,M,M,M,M,M,M,M,M,M,M,M,M,M,55.40,KRTS 251015Z AUTO 36009KT 10SM CLR 13/M08 A3026 RMK AO2,M
MEV,2023-07-25 10:15,-119.7500,38.9963,1441.42,46.40,30.20,53.00,0.00,0.00,0.00,30.24,M,10.00,M,CLR,M,M,M,M,M,M,M,M,M,M,M,M,M,M,46.40,KMEV 251015Z AUTO 00000KT 10SM CLR 08/M01 A3024 RMK AO2,M
HTH,2023-07-25 10:15,-118.6315,38.5448,1282.89,68.00,28.40,22.59,230.00,4.00,0.00,30.19,M,10.00,M,CLR,M,M,M,M,M,M,M,M,M,M,M,M,M,M,68.00,KHTH 251015Z AUTO 23004KT 10SM CLR 20/M02 A3019 RMK A01,M
10U,2023-07-25 10:15,-116.1876,41.9532,1637.00,53.60,23.00,30.11,210.00,6.00,0.00,30.25,M,10.00,M,CLR,M,M,M,M,M,M,M,M,M,M,M,M,M,M,53.60,K10U 251015Z AUTO 21006KT 10SM CLR 12/M05 A3025 RMK AO2,M
BAM,2023-07-25 10:15,-116.8743,40.5990,1382.36,53.60,28.40,37.67,180.00,4.00,0.00,30.22,M,10.00,M,CLR,M,M,M,M,M,M,M,M,M,M,M,M,M,M,53.60,KBAM 251015Z AUTO 18004KT 10SM CLR 12/M02 A3022 RMK AO1,M
TMT,2023-07-25 10:15,-117.1971,39.4643,1749.34,45.30,43.00,91.60,0.00,0.00,0.00,30.33,M,M,M,M,M,M,M,M,M,M,M,M,M,M,M,M,M,M,45.30,KTMT 251015Z AUTO 00000KT 07/06 A3033 RMK AO2 T00740062 PWINO,M
05U,2023-07-25 10:30,-116.0051,39.6042,1811.23,51.80,41.00,66.48,M,M,0.00,30.34,M,10.00,M,M,M,M,M,M,M,M,M,M,M,M,M,M,M,M,51.80,K05U 251030Z AUTO 10SM 11/05 A3034 RMK A01,M
BVU,2023-07-25 10:35,-114.8611,35.9475,671.00,86.00,48.20,27.03,0.00,0.00,0.00,29.96,M,10.00,M,CLR,M,M,M,M,M,M,M,M,M,M,M,M,M,M,83.40,KBVU 251035Z AUTO 00000KT 10SM CLR 30/09 A2996 RMK AO2,M
CXP,2023-07-25 10:35,-119.7326,39.1923,1431.00,55.40,37.40,50.64,0.00,0.00,0.00,30.25,M,10.00,M,CLR,M,M,M,M,M,M,M,M,M,M,M,M,M,M,55.40,KCXP 251035Z AUTO 00000KT 10SM CLR 13/03 A3025 RMK AO2,M
RTS,2023-07-25 10:35,-119.8764,39.6682,1539.00,55.40,21.20,26.13,340.00,9.00,0.00,30.26,M,10.00,M,CLR,M,M,M,M,M,M,M,M,M,M,M,M,M,M,55.40,KRTS 251035Z AUTO 34009KT 10SM CLR 13/M06 A3026 RMK AO2,M
MEV,2023-07-25 10:35,-119.7500,38.9963,1441.42,46.40,32.00,57.00,130.00,3.00,0.00,30.24,M,10.00,M,CLR,M,M,M,M,M,M,M,M,M,M,M,M,M,M,45.15,KMEV 251035Z AUTO 13003KT 10SM CLR 08/00 A3024 RMK AO2,M
HTH,2023-07-25 10:35,-118.6315,38.5448,1282.89,64.40,32.00,29.63,0.00,0.00,0.00,30.19,M,10.00,M,CLR,M,M,M,M,M,M,M,M,M,M,M,M,M,M,64.40,KHTH 251035Z AUTO 00000KT 10SM CLR 18/M00 A3019 RMK A01,M
TMT,2023-07-25 10:35,-117.1971,39.4643,1749.34,49.30,44.40,83.13,220.00,3.00,0.00,30.33,M,M,M,M,M,M,M,M,M,M,M,M,M,M,M,M,M,M,48.47,KTMT 251035Z AUTO 22003KT 10/07 A3033 RMK AO2 T00960069 PWINO,M
10U,2023-07-25 10:35,-116.1876,41.9532,1637.00,51.80,23.00,32.17,0.00,0.00,0.00,30.25,M,10.00,M,CLR,M,M,M,M,M,M,M,M,M,M,M,M,M,M,51.80,K10U 251035Z AUTO 00000KT 10SM CLR 11/M05 A3025 RMK AO2,M
BAM,2023-07-25 10:35,-116.8743,40.5990,1382.36,51.80,26.60,37.38,140.00,8.00,0.00,30.22,M,10.00,M,CLR,M,M,M,M,M,M,M,M,M,M,M,M,M,M,51.80,KBAM 251035Z AUTO 14008KT 10SM CLR 11/M03 A3022 RMK AO1,M
05U,2023-07-25 10:50,-116.0051,39.6042,1811.23,51.80,41.00,66.48,M,M,0.00,30.34,M,10.00,M,M,M,M,M,M,M,M,M,M,M,M,M,M,M,M,51.80,K05U 251050Z AUTO 10SM 11/05 A3034 RMK A01,M
P68,2023-07-25 10:53,-116.0056,39.6014,1993.00,52.00,41.00,66.00,180.00,4.00,0.00,30.32,1018.80,M,M,M,M,M,M,M,M,M,M,M,M,M,M,M,M,M,52.00,KP68 251053Z AUTO 18004KT 11/05 A3032 RMK AO1 SLP188 T01110050,M
DRA,2023-07-25 10:53,-116.0278,36.6206,1009.00,80.00,41.00,24.94,0.00,0.00,0.00,30.06,1012.00,10.00,M,CLR,M,M,M,M,M,M,M,M,M,M,M,M,M,M,78.87,KDRA 251053Z AUTO 00000KT 10SM CLR 27/05 A3006 RMK AO2 SLP120 T02670050,M
ELY,2023-07-25 10:53,-114.8453,39.2950,1909.00,55.00,44.00,66.36,200.00,8.00,0.00,30.33,1016.50,10.00,M,FEW,M,M,M,12000.00,M,M,M,M,M,M,M,M,M,M,55.00,KELY 251053Z AUTO 20008KT 10SM FEW120 13/07 A3033 RMK AO2 SLP165 T01280067,M
VGT,2023-07-25 10:53,-115.1933,36.2111,667.00,90.00,48.00,23.63,310.00,3.00,0.00,29.95,1012.50,10.00,M,CLR,M,M,M,M,M,M,M,M,M,M,M,M,M,M,86.78,KVGT 251053Z AUTO 31003KT 10SM CLR 32/09 A2995 RMK AO2 SLP125 T03220089,M
LOL,2023-07-25 10:53,-118.5701,40.0684,1192.43,56.00,22.00,26.45,0.00,0.00,0.00,30.18,1017.60,10.00,M,CLR,M,M,M,M,M,M,M,M,M,M,M,M,M,M,56.00,KLOL 251053Z AUTO 00000KT 10SM CLR 13/M06 A3018 RMK AO2 SLP176 T01331056,M
BVU,2023-07-25 10:55,-114.8611,35.9475,671.00,86.00,50.00,28.90,20.00,3.00,0.00,29.96,M,10.00,M,CLR,M,M,M,M,M,M,M,M,M,M,M,M,M,M,83.62,KBVU 251055Z AUTO 02003KT 10SM CLR 30/10 A2996 RMK AO2,M
CXP,2023-07-25 10:55,-119.7326,39.1923,1431.00,53.60,35.60,50.36,0.00,0.00,0.00,30.25,M,10.00,M,CLR,M,M,M,M,M,M,M,M,M,M,M,M,M,M,53.60,KCXP 251055Z AUTO 00000KT 10SM CLR 12/02 A3025 RMK AO2,M
RNO,2023-07-25 10:55,-119.7711,39.4839,1341.00,60.00,30.00,31.92,210.00,3.00,0.00,30.22,1017.80,10.00,M,CLR,M,M,M,M,M,M,M,M,M,M,M,M,M,M,60.00,KRNO 251055Z 21003KT 10SM CLR 16/M01 A3022 RMK AO2 SLP178 T01561011,M
RTS,2023-07-25 10:55,-119.8764,39.6682,1539.00,53.60,19.40,25.85,210.00,5.00,0.00,30.26,M,10.00,M,CLR,M,M,M,M,M,M,M,M,M,M,M,M,M,M,53.60,KRTS 251055Z AUTO 21005KT 10SM CLR 12/M07 A3026 RMK AO2,M
MEV,2023-07-25 10:55,-119.7500,38.9963,1441.42,48.20,33.80,57.26,0.00,0.00,0.00,30.24,M,10.00,M,CLR,M,M,M,M,M,M,M,M,M,M,M,M,M,M,48.20,KMEV 251055Z AUTO 00000KT 10SM CLR 09/01 A3024 RMK AO2,M
HTH,2023-07-25 10:55,-118.6315,38.5448,1282.89,64.40,30.20,27.55,0.00,0.00,0.00,30.20,M,10.00,M,CLR,M,M,M,M,M,M,M,M,M,M,M,M,M,M,64.40,KHTH 251055Z AUTO 00000KT 10SM CLR 18/M01 A3020 RMK A01,M
TMT,2023-07-25 10:55,-117.1971,39.4643,1749.34,41.00,39.40,93.97,130.00,5.00,0.00,30.33,M,M,M,M,M,M,M,M,M,M,M,M,M,M,M,M,M,M,37.08,KTMT 251055Z AUTO 13005KT 05/04 A3033 RMK AO2 T00500041 PWINO,M
BAM,2023-07-25 10:55,-116.8743,40.5990,1382.36,53.60,26.60,34.98,160.00,7.00,0.00,30.23,M,10.00,M,CLR,M,M,M,M,M,M,M,M,M,M,M,M,M,M,53.60,KBAM 251055Z AUTO 16007KT 10SM CLR 12/M03 A3023 RMK AO1,M
10U,2023-07-25 10:55,-116.1876,41.9532,1637.00,50.00,21.20,31.87,180.00,3.00,0.00,30.25,M,10.00,M,CLR,M,M,M,M,M,M,M,M,M,M,M,M,M,M,50.00,K10U 251055Z AUTO 18003KT 10SM CLR 10/M06 A3025 RMK AO2,M
INS,2023-07-25 10:55,-115.6733,36.5872,955.00,82.20,39.60,21.99,280.00,3.00,0.00,30.05,1011.70,10.00,M,CLR,M,M,M,M,M,M,M,M,M,M,M,M,M,M,80.10,KINS 251055Z AUTO 28003KT 10SM CLR 28/04 A3005 RMK AO2 SLP117 T02790042 $,M
LSV,2023-07-25 10:55,-115.0343,36.2362,570.00,M,M,M,M,M,0.00,29.91,M,M,M,M,M,M,M,M,M,M,M,M,M,M,M,M,M,M,M,KLSV 251055Z AUTO M M M M M A2991 RMK AO2 SLPNO ALSTG ESTMD RVRNO $,M
EKO,2023-07-25 10:56,-115.7860,40.8242,1367.00,56.00,46.00,69.05,0.00,0.00,0.00,30.24,1019.70,10.00,M,CLR,M,M,M,M,M,M,M,M,M,M,M,M,M,M,56.00,KEKO 251056Z AUTO 00000KT 10SM CLR 13/08 A3024 RMK AO2 SLP197 T01330078,M
WMC,2023-07-25 10:56,-117.8072,40.9019,1315.00,62.00,19.00,18.79,200.00,4.00,0.00,30.20,1017.10,10.00,M,CLR,M,M,M,M,M,M,M,M,M,M,M,M,M,M,62.00,KWMC 251056Z AUTO 20004KT 10SM CLR 17/M07 A3020 RMK AO2 SLP171 T01671072,M
NFL,2023-07-25 10:56,-118.7010,39.4166,1199.00,59.00,31.00,34.45,230.00,6.00,0.00,30.17,1018.10,10.00,M,CLR,M,M,M,M,M,M,M,M,M,M,M,M,M,M,59.00,KNFL 251056Z AUTO 23006KT 10SM CLR 15/M01 A3017 RMK AO2 SLP181 T01501006,M
HND,2023-07-25 10:56,-115.1344,35.9729,742.79,91.00,47.00,22.05,180.00,9.00,0.00,30.01,1013.90,10.00,M,CLR,M,M,M,M,M,M,M,M,M,M,M,M,M,M,87.57,KHND 251056Z AUTO 18009KT 10SM CLR 33/08 A3001 RMK AO2 SLP139 T03280083,M
TPH,2023-07-25 10:56,-117.0904,38.0505,1654.00,61.00,47.00,59.94,340.00,8.00,0.00,30.27,1016.80,10.00,M,CLR,M,M,M,M,M,M,M,M,M,M,M,M,M,M,61.00,KTPH 251056Z AUTO 34008KT 10SM CLR 16/08 A3027 RMK AO2 SLP168 T01610083 $,M
LAS,2023-07-25 10:56,-115.1634,36.0719,663.00,92.00,46.00,20.58,180.00,7.00,0.00,29.96,1011.00,10.00,M,BKN,M,M,M,20000.00,M,M,M,M,M,M,M,M,M,M,88.38,KLAS 251056Z 18007KT 10SM BKN200 33/08 A2996 RMK AO2 SLP110 T03330078,M
LSV,2023-07-25 11:09,-115.0343,36.2362,570.00,87.80,44.60,22.27,20.00,3.00,0.00,29.92,1010.10,10.00,M,CLR,M,M,M,M,M,M,M,M,M,M,M,M,M,M,84.53,KLSV 251109Z 02003KT 10SM CLR 31/07 A2992 RMK SLP101 RVRNO $,M
05U,2023-07-25 11:10,-116.0051,39.6042,1811.23,51.80,41.00,66.48,M,M,0.00,30.34,M,10.00,M,M,M,M,M,M,M,M,M,M,M,M,M,M,M,M,51.80,K05U 251110Z AUTO 10SM 11/05 A3034 RMK A01,M
BVU,2023-07-25 11:15,-114.8611,35.9475,671.00,86.00,50.00,28.90,0.00,0.00,0.00,29.96,M,10.00,M,CLR,M,M,M,M,M,M,M,M,M,M,M,M,M,M,83.62,KBVU 251115Z AUTO 00000KT 10SM CLR 30/10 A2996 RMK AO2,M
CXP,2023-07-25 11:15,-119.7326,39.1923,1431.00,51.80,35.60,53.81,0.00,0.00,0.00,30.24,M,10.00,M,CLR,M,M,M,M,M,M,M,M,M,M,M,M,M,M,51.80,KCXP 251115Z AUTO 00000KT 10SM CLR 11/02 A3024 RMK AO2,M
RTS,2023-07-25 11:15,-119.8764,39.6682,1539.00,50.00,19.40,29.52,0.00,0.00,0.00,30.26,M,10.00,M,CLR,M,M,M,M,M,M,M,M,M,M,M,M,M,M,50.00,KRTS 251115Z AUTO 00000KT 10SM CLR 10/M07 A3026 RMK AO2,M
MEV,2023-07-25 11:15,-119.7500,38.9963,1441.42,44.60,30.20,56.74,140.00,3.00,0.00,30.23,M,10.00,M,CLR,M,M,M,M,M,M,M,M,M,M,M,M,M,M,43.09,KMEV 251115Z AUTO 14003KT 10SM CLR 07/M01 A3023 RMK AO2,M
HTH,2023-07-25 11:15,-118.6315,38.5448,1282.89,68.00,30.20,24.32,0.00,0.00,0.00,30.19,M,10.00,M,CLR,M,M,M,M,M,M,M,M,M,M,M,M,M,M,68.00,KHTH 251115Z AUTO 00000KT 10SM CLR 20/M01 A3019 RMK A01,M
TMT,2023-07-25 11:15,-117.1971,39.4643,1749.34,43.00,41.70,95.12,120.00,3.00,0.00,30.32,M,M,M,M,M,M,M,M,M,M,M,M,M,M,M,M,M,M,41.26,KTMT 251115Z AUTO 12003KT 06/05 A3032 RMK AO2 T00610054 PWINO,M
10U,2023-07-25 11:15,-116.1876,41.9532,1637.00,55.40,21.20,26.13,150.00,4.00,0.00,30.26,M,10.00,M,CLR,M,M,M,M,M,M,M,M,M,M,M,M,M,M,55.40,K10U 251115Z AUTO 15004KT 10SM CLR 13/M06 A3026 RMK AO2,M
BAM,2023-07-25 11:15,-116.8743,40.5990,1382.36,53.60,28.40,37.67,160.00,7.00,0.00,30.23,M,10.00,M,CLR,M,M,M,M,M,M,M,M,M,M,M,M,M,M,53.60,KBAM 251115Z AUTO 16007KT 10SM CLR 12/M02 A3023 RMK AO1,M
05U,2023-07-25 11:30,-116.0051,39.6042,1811.23,51.80,41.00,66.48,M,M,0.00,30.34,M,10.00,M,M,M,M,M,M,M,M,M,M,M,M,M,M,M,M,51.80,K05U 251130Z AUTO 10SM 11/05 A3034 RMK A01,M
BVU,2023-07-25 11:35,-114.8611,35.9475,671.00,86.00,50.00,28.90,0.00,0.00,0.00,29.97,M,10.00,M,CLR,M,M,M,M,M,M,M,M,M,M,M,M,M,M,83.62,KBVU 251135Z AUTO 00000KT 10SM CLR 30/10 A2997 RMK AO2,M
CXP,2023-07-25 11:35,-119.7326,39.1923,1431.00,51.80,37.40,57.77,0.00,0.00,0.00,30.25,M,10.00,M,CLR,M,M,M,M,M,M,M,M,M,M,M,M,M,M,51.80,KCXP 251135Z AUTO 00000KT 10SM CLR 11/03 A3025 RMK AO2,M
RTS,2023-07-25 11:35,-119.8764,39.6682,1539.00,51.80,17.60,25.56,300.00,3.00,0.00,30.26,M,10.00,M,CLR,M,M,M,M,M,M,M,M,M,M,M,M,M,M,51.80,KRTS 251135Z AUTO 30003KT 10SM CLR 11/M08 A3026 RMK AO2,M
MEV,2023-07-25 11:35,-119.7500,38.9963,1441.42,42.80,32.00,65.38,M,4.00,0.00,30.23,M,10.00,M,CLR,M,M,M,M,M,M,M,M,M,M,M,M,M,M,40.03,KMEV 251135Z AUTO VRB04KT 10SM CLR 06/00 A3023 RMK AO2,M
HTH,2023-07-25 11:35,-118.6315,38.5448,1282.89,66.20,32.00,27.83,270.00,4.00,0.00,30.19,M,10.00,M,CLR,M,M,M,M,M,M,M,M,M,M,M,M,M,M,66.20,KHTH 251135Z AUTO 27004KT 10SM CLR 19/M00 A3019 RMK A01,M
10U,2023-07-25 11:35,-116.1876,41.9532,1637.00,50.00,23.00,34.39,0.00,0.00,0.00,30.26,M,10.00,M,CLR,M,M,M,M,M,M,M,M,M,M,M,M,M,M,50.00,K10U 251135Z AUTO 00000KT 10SM CLR 10/M05 A3026 RMK AO2,M
BAM,2023-07-25 11:35,-116.8743,40.5990,1382.36,55.40,28.40,35.28,90.00,4.00,0.00,30.23,M,10.00,M,CLR,M,M,M,M,M,M,M,M,M,M,M,M,M,M,55.40,KBAM 251135Z AUTO 09004KT 10SM CLR 13/M02 A3023 RMK AO1,M
TMT,2023-07-25 11:35,-117.1971,39.4643,1749.34,43.50,41.70,93.32,0.00,0.00,0.00,30.33,M,M,M,M,M,M,M,M,M,M,M,M,M,M,M,M,M,M,43.50,KTMT 251135Z AUTO 00000KT 06/05 A3033 RMK AO2 T00640054 PWINO,M
05U,2023-07-25 11:50,-116.0051,39.6042,1811.23,53.60,41.00,62.23,M,M,0.00,30.34,M,10.00,M,M,M,M,M,M,M,M,M,M,M,M,M,M,M,M,53.60,K05U 251150Z AUTO 10SM 12/05 A3034 RMK A01,M
P68,2023-07-25 11:53,-116.0056,39.6014,1993.00,55.00,40.00,56.88,180.00,8.00,0.00,30.32,1018.30,M,M,M,M,M,M,M,M,M,M,M,M,M,M,M,M,M,55.00,KP68 251153Z AUTO 18008KT 13/04 A3032 RMK AO1 SLP183 T01280044 10183 20106 50000,M
DRA,2023-07-25 11:53,-116.0278,36.6206,1009.00,77.00,41.00,27.53,100.00,4.00,0.00,30.07,1012.30,10.00,M,CLR,M,M,M,M,M,M,M,M,M,M,M,M,M,M,77.00,KDRA 251153Z AUTO 10004KT 10SM CLR 25/05 A3007 RMK AO2 SLP123 T02500050 10333 20250 52004,M
ELY,2023-07-25 11:53,-114.8453,39.2950,1909.00,54.00,43.00,66.24,180.00,9.00,0.00,30.34,1016.90,10.00,M,CLR,M,M,M,M,M,M,M,M,M,M,M,M,M,M,54.00,KELY 251153Z AUTO 18009KT 10SM CLR 12/06 A3034 RMK AO2 SLP169 T01220061 10200 20122 53002,M
VGT,2023-07-25 11:53,-115.1933,36.2111,667.00,90.00,46.00,21.91,0.00,0.00,0.00,29.97,1012.90,10.00,M,CLR,M,M,M,M,M,M,M,M,M,M,M,M,M,M,86.55,KVGT 251153Z AUTO 00000KT 10SM CLR 32/08 A2997 RMK AO2 SLP129 T03220078 10383 20306 53006,M
LOL,2023-07-25 11:53,-118.5701,40.0684,1192.43,49.00,23.00,35.69,110.00,4.00,0.00,30.18,1018.20,10.00,M,CLR,M,M,M,M,M,M,M,M,M,M,M,M,M,M,47.27,KLOL 251153Z AUTO 11004KT 10SM CLR 09/M05 A3018 RMK AO2 SLP182 T00941050 10244 20089 52004,M
BVU,2023-07-25 11:55,-114.8611,35.9475,671.00,86.00,48.20,27.03,60.00,7.00,0.00,29.97,M,10.00,M,CLR,M,M,M,M,M,M,M,M,M,M,M,M,M,M,83.40,KBVU 251155Z AUTO 06007KT 10SM CLR 30/09 A2997 RMK AO2,M
CXP,2023-07-25 11:55,-119.7326,39.1923,1431.00,51.80,39.20,61.99,0.00,0.00,0.00,30.25,M,10.00,M,CLR,M,M,M,M,M,M,M,M,M,M,M,M,M,M,51.80,KCXP 251155Z AUTO 00000KT 10SM CLR 11/04 A3025 RMK AO2,M
RNO,2023-07-25 11:55,-119.7711,39.4839,1341.00,61.00,29.00,29.57,280.00,4.00,0.00,30.22,1017.80,10.00,M,CLR,M,M,M,M,M,M,M,M,M,M,M,M,M,M,61.00,KRNO 251155Z 28004KT 10SM CLR 16/M02 A3022 RMK AO2 SLP178 T01611017 10239 20150 50001,M
RTS,2023-07-25 11:55,-119.8764,39.6682,1539.00,48.20,17.60,29.23,0.00,0.00,0.00,30.26,M,10.00,M,CLR,M,M,M,M,M,M,M,M,M,M,M,M,M,M,48.20,KRTS 251155Z AUTO 00000KT 10SM CLR 09/M08 A3026 RMK AO2,M
MEV,2023-07-25 11:55,-119.7500,38.9963,1441.42,46.40,30.20,53.00,0.00,0.00,0.00,30.23,M,10.00,M,CLR,M,M,M,M,M,M,M,M,M,M,M,M,M,M,46.40,KMEV 251155Z AUTO 00000KT 10SM CLR 08/M01 A3023 RMK AO2,M
HTH,2023-07-25 11:55,-118.6315,38.5448,1282.89,64.40,33.80,31.85,290.00,3.00,0.00,30.20,M,10.00,M,CLR,M,M,M,M,M,M,M,M,M,M,M,M,M,M,64.40,KHTH 251155Z AUTO 29003KT 10SM CLR 18/01 A3020 RMK A01,M
TMT,2023-07-25 11:55,-117.1971,39.4643,1749.34,43.00,41.00,92.58,0.00,0.00,0.00,30.33,M,M,M,M,M,M,M,M,M,M,M,M,M,M,M,M,M,M,43.00,KTMT 251155Z AUTO 00000KT 06/05 A3033 RMK AO2 70013 T00610049 10145 20048 PWINO,M
LSV,2023-07-25 11:55,-115.0343,36.2362,570.00,M,M,M,M,M,0.00,M,M,10.00,M,M,M,M,M,M,M,M,M,M,M,M,M,M,M,M,M,KLSV 251155Z AUTO M 10SM M M M RMK AO2 SLPNO 10367 20295 FZRANO $,M
BAM,2023-07-25 11:55,-116.8743,40.5990,1382.36,53.60,32.00,43.61,120.00,3.00,0.00,30.23,M,10.00,M,CLR,M,M,M,M,M,M,M,M,M,M,M,M,M,M,53.60,KBAM 251155Z AUTO 12003KT 10SM CLR 12/00 A3023 RMK AO1,M
10U,2023-07-25 11:55,-116.1876,41.9532,1637.00,51.80,23.00,32.17,170.00,6.00,0.00,30.26,M,10.00,M,CLR,M,M,M,M,M,M,M,M,M,M,M,M,M,M,51.80,K10U 251155Z AUTO 17006KT 10SM CLR 11/M05 A3026 RMK AO2,M
INS,2023-07-25 11:55,-115.6733,36.5872,955.00,78.00,38.30,23.98,80.00,3.00,0.00,30.06,1012.20,10.00,M,CLR,M,M,M,M,M,M,M,M,M,M,M,M,M,M,78.00,KINS 251155Z AUTO 08003KT 10SM CLR 26/04 A3006 RMK AO2 SLP122 T02560035 10353 20256 53003 $,M
EKO,2023-07-25 11:56,-115.7860,40.8242,1367.00,51.00,44.00,76.85,180.00,3.00,0.00,30.25,1019.80,10.00,M,CLR,M,M,M,M,M,M,M,M,M,M,M,M,M,M,51.00,KEKO 251156Z AUTO 18003KT 10SM CLR 11/07 A3025 RMK AO2 SLP198 T01060067 10222 20106 53006,M
WMC,2023-07-25 11:56,-117.8072,40.9019,1315.00,54.00,19.00,25.04,0.00,0.00,0.00,30.20,1017.50,10.00,M,CLR,M,M,M,M,M,M,M,M,M,M,M,M,M,M,54.00,KWMC 251156Z AUTO 00000KT 10SM CLR 12/M07 A3020 RMK AO2 SLP175 T01221072 10250 20111 51006,M
NFL,2023-07-25 11:56,-118.7010,39.4166,1199.00,60.00,36.00,40.61,180.00,3.00,0.00,30.17,1018.10,10.00,M,CLR,M,M,M,M,M,M,M,M,M,M,M,M,M,M,60.00,KNFL 251156Z AUTO 18003KT 10SM CLR 16/02 A3017 RMK AO2 SLP181 T01560022 10239 20144 56001,M
HND,2023-07-25 11:56,-115.1344,35.9729,742.79,87.00,46.00,24.10,210.00,6.00,0.00,30.02,1014.30,10.00,M,CLR,M,M,M,M,M,M,M,M,M,M,M,M,M,M,83.98,KHND 251156Z AUTO 21006KT 10SM CLR 31/08 A3002 RMK AO2 SLP143 T03060078 10344 20306 53003,M
TPH,2023-07-25 11:56,-117.0904,38.0505,1654.00,60.00,45.00,57.58,350.00,11.00,0.00,30.27,1017.00,10.00,M,CLR,M,M,M,M,M,M,M,M,M,M,M,M,M,M,60.00,KTPH 251156Z AUTO 35011KT 10SM CLR 16/07 A3027 RMK AO2 SLP170 70001 T01560072 10206 20150 58001 $,M
LAS,2023-07-25 11:56,-115.1634,36.0719,663.00,91.00,46.00,21.24,200.00,6.00,0.00,29.96,1011.30,10.00,M,SCT,M,M,M,20000.00,M,M,M,M,M,M,M,M,M,M,87.45,KLAS 251156Z 20006KT 10SM SCT200 33/08 A2996 RMK AO2 SLP113 T03280078 10367 20328 53003,M
LSV,2023-07-25 11:57,-115.0343,36.2362,570.00,86.00,44.60,23.59,350.00,3.00,0.00,29.97,1008.80,10.00,M,CLR,M,M,M,M,M,M,M,M,M,M,M,M,M,M,83.07,KLSV 251157Z 35003KT 10SM CLR 30/07 A2997 RMK A02A SLP088 10380 20304 52005 $,M
05U,2023-07-25 12:10,-116.0051,39.6042,1811.23,53.60,41.00,62.23,M,M,0.00,30.34,M,10.00,M,M,M,M,M,M,M,M,M,M,M,M,M,M,M,M,53.60,K05U 251210Z AUTO 10SM 12/05 A3034 RMK A01,M
BVU,2023-07-25 12:15,-114.8611,35.9475,671.00,86.00,50.00,28.90,90.00,6.00,0.00,29.97,M,10.00,M,CLR,M,M,M,M,M,M,M,M,M,M,M,M,M,M,83.62,KBVU 251215Z AUTO 09006KT 10SM CLR 30/10 A2997 RMK AO2,M
CXP,2023-07-25 12:15,-119.7326,39.1923,1431.00,51.80,37.40,57.77,0.00,0.00,0.00,30.25,M,10.00,M,CLR,M,M,M,M,M,M,M,M,M,M,M,M,M,M,51.80,KCXP 251215Z AUTO 00000KT 10SM CLR 11/03 A3025 RMK AO2,M
RTS,2023-07-25 12:15,-119.8764,39.6682,1539.00,48.20,17.60,29.23,0.00,0.00,0.00,30.26,M,10.00,M,CLR,M,M,M,M,M,M,M,M,M,M,M,M,M,M,48.20,KRTS 251215Z AUTO 00000KT 10SM CLR 09/M08 A3026 RMK AO2,M
MEV,2023-07-25 12:15,-119.7500,38.9963,1441.42,44.60,30.20,56.74,0.00,0.00,0.00,30.24,M,10.00,M,CLR,M,M,M,M,M,M,M,M,M,M,M,M,M,M,44.60,KMEV 251215Z AUTO 00000KT 10SM CLR 07/M01 A3024 RMK AO2,M
HTH,2023-07-25 12:15,-118.6315,38.5448,1282.89,64.40,33.80,31.85,0.00,0.00,0.00,30.20,M,10.00,M,CLR,M,M,M,M,M,M,M,M,M,M,M,M,M,M,64.40,KHTH 251215Z AUTO 00000KT 10SM CLR 18/01 A3020 RMK A01,M
TMT,2023-07-25 12:15,-117.1971,39.4643,1749.34,42.80,41.00,93.30,0.00,0.00,0.00,30.32,M,M,M,M,M,M,M,M,M,M,M,M,M,M,M,M,M,M,42.80,KTMT 251215Z AUTO 00000KT 06/05 A3032 RMK AO2 T00600049 PWINO,M
10U,2023-07-25 12:15,-116.1876,41.9532,1637.00,50.00,21.20,31.87,0.00,0.00,0.00,30.27,M,10.00,M,CLR,M,M,M,M,M,M,M,M,M,M,M,M,M,M,50.00,K10U 251215Z AUTO 00000KT 10SM CLR 10/M06 A3027 RMK AO2,M
BAM,2023-07-25 12:15,-116.8743,40.5990,1382.36,51.80,30.20,43.32,140.00,4.00,0.00,30.23,M,10.00,M,CLR,M,M,M,M,M,M,M,M,M,M,M,M,M,M,51.80,KBAM 251215Z AUTO 14004KT 10SM CLR 11/M01 A3023 RMK AO1,M
05U,2023-07-25 12:30,-116.0051,39.6042,1811.23,53.60,41.00,62.23,M,M,0.00,30.35,M,10.00,M,M,M,M,M,M,M,M,M,M,M,M,M,M,M,M,53.60,K05U 251230Z AUTO 10SM 12/05 A3035 RMK A01,M
BVU,2023-07-25 12:35,-114.8611,35.9475,671.00,84.20,51.80,32.73,70.00,3.00,0.00,29.98,M,10.00,M,CLR,M,M,M,M,M,M,M,M,M,M,M,M,M,M,82.48,KBVU 251235Z AUTO 07003KT 10SM CLR 29/11 A2998 RMK AO2,M
CXP,2023-07-25 12:35,-119.7326,39.1923,1431.00,50.00,37.40,61.76,0.00,0.00,0.00,30.25,M,10.00,M,CLR,M,M,M,M,M,M,M,M,M,M,M,M,M,M,50.00,KCXP 251235Z AUTO 00000KT 10SM CLR 10/03 A3025 RMK AO2,M
RTS,2023-07-25 12:35,-119.8764,39.6682,1539.00,44.60,17.60,33.49,340.00,3.00,0.00,30.26,M,10.00,M,CLR,M,M,M,M,M,M,M,M,M,M,M,M,M,M,43.09,KRTS 251235Z AUTO 34003KT 10SM CLR 07/M08 A3026 RMK AO2,M
MEV,2023-07-25 12:35,-119.7500,38.9963,1441.42,41.00,30.20,65.16,80.00,4.00,0.00,30.24,M,10.00,M,CLR,M,M,M,M,M,M,M,M,M,M,M,M,M,M,37.93,KMEV 251235Z AUTO 08004KT 10SM CLR 05/M01 A3024 RMK AO2,M
HTH,2023-07-25 12:35,-118.6315,38.5448,1282.89,62.60,33.80,33.93,0.00,0.00,0.00,30.20,M,10.00,M,CLR,M,M,M,M,M,M,M,M,M,M,M,M,M,M,62.60,KHTH 251235Z AUTO 00000KT 10SM CLR 17/01 A3020 RMK A01,M
TMT,2023-07-25 12:35,-117.1971,39.4643,1749.34,38.30,37.20,95.77,100.00,3.00,0.00,30.33,M,M,M,M,M,M,M,M,M,M,M,M,M,M,M,M,M,M,35.89,KTMT 251235Z AUTO 10003KT 04/03 A3033 RMK AO2 T00350029 PWINO,M
10U,2023-07-25 12:35,-116.1876,41.9532,1637.00,46.40,23.00,39.36,0.00,0.00,0.00,30.27,M,10.00,M,CLR,M,M,M,M,M,M,M,M,M,M,M,M,M,M,46.40,K10U 251235Z AUTO 00000KT 10SM CLR 08/M05 A3027 RMK AO2,M
BAM,2023-07-25 12:35,-116.8743,40.5990,1382.36,50.00,32.00,49.81,30.00,4.00,0.00,30.24,M,10.00,M,CLR,M,M,M,M,M,M,M,M,M,M,M,M,M,M,50.00,KBAM 251235Z AUTO 03004KT 10SM CLR 10/00 A3024 RMK AO1,M
05U,2023-07-25 12:50,-116.0051,39.6042,1811.23,51.80,39.20,61.99,M,M,0.00,30.35,M,10.00,M,M,M,M,M,M,M,M,M,M,M,M,M,M,M,M,51.80,K05U 251250Z AUTO 10SM 11/04 A3035 RMK A01,M
P68,2023-07-25 12:53,-116.0056,39.6014,1993.00,52.00,41.00,66.00,210.00,7.00,0.00,30.33,1018.80,M,M,M,M,M,M,M,M,M,M,M,M,M,M,M,M,M,52.00,KP68 251253Z AUTO 21007KT 11/05 A3033 RMK AO1 SLP188 T01110050,M
DRA,2023-07-25 12:53,-116.0278,36.6206,1009.00,78.00,41.00,26.64,50.00,3.00,0.00,30.08,1012.80,10.00,M,CLR,M,M,M,M,M,M,M,M,M,M,M,M,M,M,78.00,KDRA 251253Z AUTO 05003KT 10SM CLR 26/05 A3008 RMK AO2 SLP128 T02560050,M
ELY,2023-07-25 12:53,-114.8453,39.2950,1909.00,54.00,43.00,66.24,160.00,6.00,0.00,30.35,1017.60,10.00,M,CLR,M,M,M,M,M,M,M,M,M,M,M,M,M,M,54.00,KELY 251253Z AUTO 16006KT 10SM CLR 12/06 A3035 RMK AO2 SLP176 T01220061,M
VGT,2023-07-25 12:53,-115.1933,36.2111,667.00,89.00,45.00,21.77,290.00,3.00,0.00,29.99,1013.80,10.00,M,CLR,M,M,M,M,M,M,M,M,M,M,M,M,M,M,85.58,KVGT 251253Z 29003KT 10SM CLR 32/07 A2999 RMK AO2 SLP138 T03170072,M
LOL,2023-07-25 12:53,-118.5701,40.0684,1192.43,50.00,25.00,37.39,340.00,3.00,0.00,30.18,1018.60,10.00,M,CLR,M,M,M,M,M,M,M,M,M,M,M,M,M,M,50.00,KLOL 251253Z AUTO 34003KT 10SM CLR 10/M04 A3018 RMK AO2 SLP186 T01001039,M
BVU,2023-07-25 12:55,-114.8611,35.9475,671.00,84.20,50.00,30.62,60.00,4.00,0.00,29.99,M,10.00,M,CLR,M,M,M,M,M,M,M,M,M,M,M,M,M,M,82.24,KBVU 251255Z AUTO 06004KT 10SM CLR 29/10 A2999 RMK AO2,M
CXP,2023-07-25 12:55,-119.7326,39.1923,1431.00,50.00,37.40,61.76,0.00,0.00,0.00,30.26,M,10.00,M,CLR,M,M,M,M,M,M,M,M,M,M,M,M,M,M,50.00,KCXP 251255Z AUTO 00000KT 10SM CLR 10/03 A3026 RMK AO2,M
RNO,2023-07-25 12:55,-119.7711,39.4839,1341.00,59.00,31.00,34.45,0.00,0.00,0.00,30.23,1018.30,10.00,M,FEW,M,M,M,18000.00,M,M,M,M,M,M,M,M,M,M,59.00,KRNO 251255Z 00000KT 10SM FEW180 15/M01 A3023 RMK AO2 SLP183 T01501006,M
RTS,2023-07-25 12:55,-119.8764,39.6682,1539.00,44.60,19.40,36.18,0.00,0.00,0.00,30.27,M,10.00,M,CLR,M,M,M,M,M,M,M,M,M,M,M,M,M,M,44.60,KRTS 251255Z AUTO 00000KT 10SM CLR 07/M07 A3027 RMK AO2,M
MEV,2023-07-25 12:55,-119.7500,38.9963,1441.42,42.80,30.20,60.79,0.00,0.00,0.00,30.25,M,10.00,M,CLR,M,M,M,M,M,M,M,M,M,M,M,M,M,M,42.80,KMEV 251255Z AUTO 00000KT 10SM CLR 06/M01 A3025 RMK AO2,M
HTH,2023-07-25 12:55,-118.6315,38.5448,1282.89,62.60,33.80,33.93,0.00,0.00,0.00,30.21,M,10.00,M,CLR,M,M,M,M,M,M,M,M,M,M,M,M,M,M,62.60,KHTH 251255Z AUTO 00000KT 10SM CLR 17/01 A3021 RMK A01,M
TMT,2023-07-25 12:55,-117.1971,39.4643,1749.34,37.20,36.00,95.37,110.00,3.00,0.00,30.34,M,M,M,M,M,M,M,M,M,M,M,M,M,M,M,M,M,M,34.63,KTMT 251255Z AUTO 11003KT 03/02 A3034 RMK AO2 T00290022 PWINO,M
BAM,2023-07-25 12:55,-116.8743,40.5990,1382.36,50.00,32.00,49.81,80.00,4.00,0.00,30.24,M,10.00,M,CLR,M,M,M,M,M,M,M,M,M,M,M,M,M,M,50.00,KBAM 251255Z AUTO 08004KT 10SM CLR 10/00 A3024 RMK AO1,M
10U,2023-07-25 12:55,-116.1876,41.9532,1637.00,48.20,23.00,36.78,160.00,6.00,0.00,30.28,M,10.00,M,CLR,M,M,M,M,M,M,M,M,M,M,M,M,M,M,45.04,K10U 251255Z AUTO 16006KT 10SM CLR 09/M05 A3028 RMK AO2,M
INS,2023-07-25 12:55,-115.6733,36.5872,955.00,77.70,39.00,24.89,0.00,0.00,0.00,30.07,1012.70,10.00,M,CLR,M,M,M,M,M,M,M,M,M,M,M,M,M,M,77.70,KINS 251255Z AUTO 00000KT 10SM CLR 25/04 A3007 RMK AO2 SLP127 T02540039 $,M
LSV,2023-07-25 12:55,-115.0343,36.2362,570.00,83.00,42.60,24.06,50.00,4.00,0.00,29.95,1011.30,10.00,M,SCT,M,M,M,20000.00,M,M,M,M,M,M,M,M,M,M,80.77,KLSV 251255Z 05004KT 10SM SCT200 28/06 A2995 RMK SLP113 T02840059 FZRANO $,M
EKO,2023-07-25 12:56,-115.7860,40.8242,1367.00,50.00,43.00,76.76,0.00,0.00,0.00,30.27,1020.30,10.00,M,CLR,M,M,M,M,M,M,M,M,M,M,M,M,M,M,50.00,KEKO 251256Z AUTO 00000KT 10SM CLR 10/06 A3027 RMK AO2 SLP203 T01000061,M
WMC,2023-07-25 12:56,-117.8072,40.9019,1315.00,51.00,23.00,33.13,150.00,8.00,0.00,30.21,1018.20,10.00,M,CLR,M,M,M,M,M,M,M,M,M,M,M,M,M,M,51.00,KWMC 251256Z AUTO 15008KT 10SM CLR 11/M05 A3021 RMK AO2 SLP182 T01061050,M
NFL,2023-07-25 12:56,-118.7010,39.4166,1199.00,52.00,35.00,52.15,20.00,4.00,0.00,30.19,1018.60,10.00,M,CLR,M,M,M,M,M,M,M,M,M,M,M,M,M,M,52.00,KNFL 251256Z AUTO 02004KT 10SM CLR 11/02 A3019 RMK AO2 SLP186 T01110017,M
HND,2023-07-25 12:56,-115.1344,35.9729,742.79,87.00,46.00,24.10,210.00,9.00,0.00,30.04,1015.00,10.00,M,CLR,M,M,M,M,M,M,M,M,M,M,M,M,M,M,83.98,KHND 251256Z 21009KT 10SM CLR 31/08 A3004 RMK AO2 SLP150 T03060078,M
TPH,2023-07-25 12:56,-117.0904,38.0505,1654.00,60.00,44.00,55.42,360.00,6.00,0.00,30.29,1019.10,10.00,M,CLR,M,M,M,M,M,M,M,M,M,M,M,M,M,M,60.00,KTPH 251256Z AUTO 36006KT 10SM CLR 16/07 A3029 RMK AO2 SLP191 T01560067 $,M
LAS,2023-07-25 12:56,-115.1634,36.0719,663.00,91.00,46.00,21.24,0.00,0.00,0.00,29.99,1012.20,10.00,M,FEW,M,M,M,20000.00,M,M,M,M,M,M,M,M,M,M,87.45,KLAS 251256Z 00000KT 10SM FEW200 33/08 A2999 RMK AO2 SLP122 T03280078,M
LSV,2023-07-25 13:00,-115.0343,36.2362,570.00,82.40,42.80,24.72,40.00,5.00,0.00,29.95,1011.30,10.00,M,SCT,M,M,M,20000.00,M,M,M,M,M,M,M,M,M,M,80.39,KLSV 251300Z 04005KT 10SM SCT200 28/06 A2995 RMK SLP113 $,M
05U,2023-07-25 13:10,-116.0051,39.6042,1811.23,53.60,41.00,62.23,M,M,0.00,30.36,M,10.00,M,M,M,M,M,M,M,M,M,M,M,M,M,M,M,M,53.60,K05U 251310Z AUTO 10SM 12/05 A3036 RMK A01,M
BVU,2023-07-25 13:15,-114.8611,35.9475,671.00,84.20,51.80,32.73,0.00,0.00,0.00,30.00,M,10.00,M,CLR,M,M,M,M,M,M,M,M,M,M,M,M,M,M,82.48,KBVU 251315Z AUTO 00000KT 10SM CLR 29/11 A3000 RMK AO2,M
CXP,2023-07-25 13:15,-119.7326,39.1923,1431.00,51.80,35.60,53.81,0.00,0.00,0.00,30.26,M,10.00,M,CLR,M,M,M,M,M,M,M,M,M,M,M,M,M,M,51.80,KCXP 251315Z AUTO 00000KT 10SM CLR 11/02 A3026 RMK AO2,M
RTS,2023-07-25 13:15,-119.8764,39.6682,1539.00,48.20,19.40,31.57,340.00,3.00,0.00,30.27,M,10.00,M,CLR,M,M,M,M,M,M,M,M,M,M,M,M,M,M,47.21,KRTS 251315Z AUTO 34003KT 10SM CLR 09/M07 A3027 RMK AO2,M
MEV,2023-07-25 13:15,-119.7500,38.9963,1441.42,41.00,28.40,60.54,0.00,0.00,0.00,30.25,M,10.00,M,CLR,M,M,M,M,M,M,M,M,M,M,M,M,M,M,41.00,KMEV 251315Z AUTO 00000KT 10SM CLR 05/M02 A3025 RMK AO2,M
HTH,2023-07-25 13:15,-118.6315,38.5448,1282.89,66.20,33.80,29.92,260.00,4.00,0.00,30.22,M,10.00,M,CLR,M,M,M,M,M,M,M,M,M,M,M,M,M,M,66.20,KHTH 251315Z AUTO 26004KT 10SM CLR 19/01 A3022 RMK A01,M
TMT,2023-07-25 13:15,-117.1971,39.4643,1749.34,40.30,39.40,96.56,0.00,0.00,0.00,30.34,M,M,M,M,M,M,M,M,M,M,M,M,M,M,M,M,M,M,40.30,KTMT 251315Z AUTO 00000KT 05/04 A3034 RMK AO2 T00460041 PWINO,M
10U,2023-07-25 13:15,-116.1876,41.9532,1637.00,51.80,24.80,34.69,0.00,0.00,0.00,30.28,M,10.00,M,CLR,M,M,M,M,M,M,M,M,M,M,M,M,M,M,51.80,K10U 251315Z AUTO 00000KT 10SM CLR 11/M04 A3028 RMK AO2,M
BAM,2023-07-25 13:15,-116.8743,40.5990,1382.36,50.00,32.00,49.81,170.00,3.00,0.00,30.26,M,10.00,M,CLR,M,M,M,M,M,M,M,M,M,M,M,M,M,M,50.00,KBAM 251315Z AUTO 17003KT 10SM CLR 10/00 A3026 RMK AO1,M
05U,2023-07-25 13:30,-116.0051,39.6042,1811.23,57.20,41.00,54.60,M,M,0.00,30.36,M,10.00,M,M,M,M,M,M,M,M,M,M,M,M,M,M,M,M,57.20,K05U 251330Z AUTO 10SM 14/05 A3036 RMK A01,M
BVU,2023-07-25 13:35,-114.8611,35.9475,671.00,86.00,50.00,28.90,0.00,0.00,0.00,30.00,M,10.00,M,CLR,M,M,M,M,M,M,M,M,M,M,M,M,M,M,83.62,KBVU 251335Z AUTO 00000KT 10SM CLR 30/10 A3000 RMK AO2,M
CXP,2023-07-25 13:35,-119.7326,39.1923,1431.00,51.80,37.40,57.77,0.00,0.00,0.00,30.26,M,10.00,M,CLR,M,M,M,M,M,M,M,M,M,M,M,M,M,M,51.80,KCXP 251335Z AUTO 00000KT 10SM CLR 11/03 A3026 RMK AO2,M
RTS,2023-07-25 13:35,-119.8764,39.6682,1539.00,46.40,21.20,36.48,0.00,0.00,0.00,30.27,M,10.00,M,CLR,M,M,M,M,M,M,M,M,M,M,M,M,M,M,46.40,KRTS 251335Z AUTO 00000KT 10SM CLR 08/M06 A3027 RMK AO2,M
MEV,2023-07-25 13:35,-119.7500,38.9963,1441.42,41.00,32.00,70.08,120.00,6.00,0.00,30.25,M,10.00,M,CLR,M,M,M,M,M,M,M,M,M,M,M,M,M,M,36.37,KMEV 251335Z AUTO 12006KT 10SM CLR 05/M00 A3025 RMK AO2,M
HTH,2023-07-25 13:35,-118.6315,38.5448,1282.89,66.20,35.60,32.14,210.00,4.00,0.00,30.22,M,10.00,M,CLR,M,M,M,M,M,M,M,M,M,M,M,M,M,M,66.20,KHTH 251335Z AUTO 21004KT 10SM CLR 19/02 A3022 RMK A01,M
10U,2023-07-25 13:35,-116.1876,41.9532,1637.00,55.40,26.60,32.76,0.00,0.00,0.00,30.29,M,10.00,M,CLR,M,M,M,M,M,M,M,M,M,M,M,M,M,M,55.40,K10U 251335Z AUTO 00000KT 10SM CLR 13/M03 A3029 RMK AO2,M
BAM,2023-07-25 13:35,-116.8743,40.5990,1382.36,53.60,32.00,43.61,0.00,0.00,0.00,30.26,M,10.00,M,CLR,M,M,M,M,M,M,M,M,M,M,M,M,M,M,53.60,KBAM 251335Z AUTO 00000KT 10SM CLR 12/00 A3026 RMK AO1,M
TMT,2023-07-25 13:35,-117.1971,39.4643,1749.34,45.00,42.40,90.53,0.00,0.00,0.00,30.35,M,M,M,M,M,M,M,M,M,M,M,M,M,M,M,M,M,M,45.00,KTMT 251335Z AUTO 00000KT 07/06 A3035 RMK AO2 T00720058 PWINO,M
05U,2023-07-25 13:50,-116.0051,39.6042,1811.23,62.60,42.80,48.28,M,M,0.00,30.36,M,10.00,M,M,M,M,M,M,M,M,M,M,M,M,M,M,M,M,62.60,K05U 251350Z AUTO 10SM 17/06 A3036 RMK A01,M
P68,2023-07-25 13:53,-116.0056,39.6014,1993.00,62.00,43.00,49.69,190.00,4.00,0.00,30.33,1018.90,M,M,M,M,M,M,M,M,M,M,M,M,M,M,M,M,M,62.00,KP68 251353Z AUTO 19004KT 17/06 A3033 RMK AO1 SLP189 T01670061,M
DRA,2023-07-25 13:53,-116.0278,36.6206,1009.00,80.00,42.00,25.93,0.00,0.00,0.00,30.10,1013.50,10.00,M,CLR,M,M,M,M,M,M,M,M,M,M,M,M,M,M,78.92,KDRA 251353Z AUTO 00000KT 10SM CLR 27/06 A3010 RMK AO2 SLP135 T02670056,M
ELY,2023-07-25 13:53,-114.8453,39.2950,1909.00,59.00,44.00,57.44,180.00,8.00,0.00,30.36,1017.60,10.00,M,CLR,M,M,M,M,M,M,M,M,M,M,M,M,M,M,59.00,KELY 251353Z AUTO 18008KT 10SM CLR 15/07 A3036 RMK AO2 SLP176 T01500067,M
VGT,2023-07-25 13:53,-115.1933,36.2111,667.00,90.00,46.00,21.91,320.00,6.00,0.00,30.01,1014.40,10.00,M,CLR,M,M,M,M,M,M,M,M,M,M,M,M,M,M,86.55,KVGT 251353Z 32006KT 10SM CLR 32/08 A3001 RMK AO2 SLP144 T03220078,M
LOL,2023-07-25 13:53,-118.5701,40.0684,1192.43,54.00,29.00,38.05,0.00,0.00,0.00,30.20,1018.90,9.00,M,CLR,M,M,M,M,M,M,M,M,M,M,M,M,M,M,54.00,KLOL 251353Z AUTO 00000KT 9SM CLR 12/M02 A3020 RMK AO2 SLP189 T01221017,M
BVU,2023-07-25 13:55,-114.8611,35.9475,671.00,87.80,51.80,29.18,0.00,0.00,0.00,30.01,M,10.00,M,CLR,M,M,M,M,M,M,M,M,M,M,M,M,M,M,85.39,KBVU 251355Z AUTO 00000KT 10SM CLR 31/11 A3001 RMK AO2,M
CXP,2023-07-25 13:55,-119.7326,39.1923,1431.00,55.40,37.40,50.64,0.00,0.00,0.00,30.27,M,10.00,M,CLR,M,M,M,M,M,M,M,M,M,M,M,M,M,M,55.40,KCXP 251355Z AUTO 00000KT 10SM CLR 13/03 A3027 RMK AO2,M
RNO,2023-07-25 13:55,-119.7711,39.4839,1341.00,59.00,34.00,38.87,0.00,0.00,0.00,30.24,1018.70,10.00,M,FEW,M,M,M,18000.00,M,M,M,M,M,M,M,M,M,M,59.00,KRNO 251355Z 00000KT 10SM FEW180 15/01 A3024 RMK AO2 SLP187 T01500011,M
LSV,2023-07-25 13:55,-115.0343,36.2362,570.00,86.70,44.40,22.89,50.00,5.00,0.00,29.97,1011.90,10.00,M,SCT,M,M,M,20000.00,M,M,M,M,M,M,M,M,M,M,83.61,KLSV 251355Z 05005KT 10SM SCT200 30/07 A2997 RMK AO2A SLP119 T03040069 $,M
RTS,2023-07-25 13:55,-119.8764,39.6682,1539.00,50.00,30.20,46.31,0.00,0.00,0.00,30.27,M,10.00,M,CLR,M,M,M,M,M,M,M,M,M,M,M,M,M,M,50.00,KRTS 251355Z AUTO 00000KT 10SM CLR 10/M01 A3027 RMK AO2,M
MEV,2023-07-25 13:55,-119.7500,38.9963,1441.42,48.20,30.20,49.53,110.00,3.00,0.00,30.25,M,10.00,M,CLR,M,M,M,M,M,M,M,M,M,M,M,M,M,M,47.21,KMEV 251355Z AUTO 11003KT 10SM CLR 09/M01 A3025 RMK AO2,M
HTH,2023-07-25 13:55,-118.6315,38.5448,1282.89,68.00,35.60,30.20,230.00,5.00,0.00,30.22,M,10.00,M,CLR,M,M,M,M,M,M,M,M,M,M,M,M,M,M,68.00,KHTH 251355Z AUTO 23005KT 10SM CLR 20/02 A3022 RMK A01,M
10U,2023-07-25 13:55,-116.1876,41.9532,1637.00,59.00,28.40,30.98,0.00,0.00,0.00,30.29,M,10.00,M,CLR,M,M,M,M,M,M,M,M,M,M,M,M,M,M,59.00,K10U 251355Z AUTO 00000KT 10SM CLR 15/M02 A3029 RMK AO2,M
BAM,2023-07-25 13:55,-116.8743,40.5990,1382.36,60.80,32.00,33.64,0.00,0.00,0.00,30.26,M,10.00,M,CLR,M,M,M,M,M,M,M,M,M,M,M,M,M,M,60.80,KBAM 251355Z AUTO 00000KT 10SM CLR 16/00 A3026 RMK AO1,M
TMT,2023-07-25 13:55,-117.1971,39.4643,1749.34,48.60,44.00,84.04,0.00,0.00,0.00,30.35,M,M,M,CLR,M,M,M,M,M,M,M,M,M,M,M,M,M,M,48.60,KTMT 251355Z AUTO 00000KT CLR 09/07 A3035 RMK AO2 T00920067 PWINO,M
INS,2023-07-25 13:55,-115.6733,36.5872,955.00,78.30,38.50,23.93,0.00,0.00,0.00,30.09,1013.40,10.00,M,CLR,M,M,M,M,M,M,M,M,M,M,M,M,M,M,78.30,KINS 251355Z AUTO 00000KT 10SM CLR 26/04 A3009 RMK AO2 SLP134 T02570036 $,M
EKO,2023-07-25 13:56,-115.7860,40.8242,1367.00,56.00,44.00,63.99,0.00,0.00,0.00,30.28,1020.40,10.00,M,CLR,M,M,M,M,M,M,M,M,M,M,M,M,M,M,56.00,KEKO 251356Z AUTO 00000KT 10SM CLR 13/07 A3028 RMK AO2 SLP204 T01330067,M
WMC,2023-07-25 13:56,-117.8072,40.9019,1315.00,58.00,19.00,21.66,170.00,6.00,0.00,30.23,1018.50,10.00,M,CLR,M,M,M,M,M,M,M,M,M,M,M,M,M,M,58.00,KWMC 251356Z AUTO 17006KT 10SM CLR 14/M07 A3023 RMK AO2 SLP185 T01441072,M
NFL,2023-07-25 13:56,-118.7010,39.4166,1199.00,63.00,35.00,35.10,0.00,0.00,0.00,30.19,1018.80,9.00,M,CLR,M,M,M,M,M,M,M,M,M,M,M,M,M,M,63.00,KNFL 251356Z AUTO 00000KT 9SM CLR 17/02 A3019 RMK AO2 SLP188 T01720017,M
HND,2023-07-25 13:56,-115.1344,35.9729,742.79,90.00,48.00,23.63,190.00,7.00,0.00,30.06,1015.70,10.00,M,CLR,M,M,M,M,M,M,M,M,M,M,M,M,M,M,86.78,KHND 251356Z 19007KT 10SM CLR 32/09 A3006 RMK AO2 SLP157 T03220089,M
TPH,2023-07-25 13:56,-117.0904,38.0505,1654.00,64.00,47.00,53.92,M,M,0.00,30.30,1019.10,10.00,M,CLR,M,M,M,M,M,M,M,M,M,M,M,M,M,M,64.00,KTPH 251356Z AUTO 10SM CLR 18/08 A3030 RMK AO2 SLP191 T01780083 $,M
LAS,2023-07-25 13:56,-115.1634,36.0719,663.00,92.00,47.00,21.38,280.00,3.00,0.00,30.01,1012.90,10.00,M,FEW,M,M,M,20000.00,M,M,M,M,M,M,M,M,M,M,88.49,KLAS 251356Z 28003KT 10SM FEW200 33/08 A3001 RMK AO2 SLP129 T03330083,M
05U,2023-07-25 14:10,-116.0051,39.6042,1811.23,64.40,41.00,42.28,M,M,0.00,30.36,M,10.00,M,M,M,M,M,M,M,M,M,M,M,M,M,M,M,M,64.40,K05U 251410Z AUTO 10SM 18/05 A3036 RMK A01,M
BVU,2023-07-25 14:15,-114.8611,35.9475,671.00,89.60,51.80,27.56,0.00,0.00,0.00,30.01,M,10.00,M,CLR,M,M,M,M,M,M,M,M,M,M,M,M,M,M,87.00,KBVU 251415Z AUTO 00000KT 10SM CLR 32/11 A3001 RMK AO2,M
CXP,2023-07-25 14:15,-119.7326,39.1923,1431.00,57.20,39.20,50.91,0.00,0.00,0.00,30.27,M,10.00,M,CLR,M,M,M,M,M,M,M,M,M,M,M,M,M,M,57.20,KCXP 251415Z AUTO 00000KT 10SM CLR 14/04 A3027 RMK AO2,M
RTS,2023-07-25 14:15,-119.8764,39.6682,1539.00,55.40,23.00,28.20,0.00,0.00,0.00,30.27,M,10.00,M,CLR,M,M,M,M,M,M,M,M,M,M,M,M,M,M,55.40,KRTS 251415Z AUTO 00000KT 10SM CLR 13/M05 A3027 RMK AO2,M
MEV,2023-07-25 14:15,-119.7500,38.9963,1441.42,51.80,32.00,46.59,0.00,0.00,0.00,30.26,M,10.00,M,CLR,M,M,M,M,M,M,M,M,M,M,M,M,M,M,51.80,KMEV 251415Z AUTO 00000KT 10SM CLR 11/M00 A3026 RMK AO2,M
HTH,2023-07-25 14:15,-118.6315,38.5448,1282.89,71.60,37.40,28.68,0.00,0.00,0.00,30.23,M,10.00,M,CLR,M,M,M,M,M,M,M,M,M,M,M,M,M,M,71.60,KHTH 251415Z AUTO 00000KT 10SM CLR 22/03 A3023 RMK A01,M
10U,2023-07-25 14:15,-116.1876,41.9532,1637.00,64.40,30.20,27.55,170.00,4.00,0.00,30.29,M,10.00,M,CLR,M,M,M,M,M,M,M,M,M,M,M,M,M,M,64.40,K10U 251415Z AUTO 17004KT 10SM CLR 18/M01 A3029 RMK AO2,M
BAM,2023-07-25 14:15,-116.8743,40.5990,1382.36,64.40,33.80,31.85,50.00,3.00,0.00,30.27,M,10.00,M,CLR,M,M,M,M,M,M,M,M,M,M,M,M,M,M,64.40,KBAM 251415Z AUTO 05003KT 10SM CLR 18/01 A3027 RMK AO1,M
TMT,2023-07-25 14:15,-117.1971,39.4643,1749.34,50.00,44.80,82.23,0.00,0.00,0.00,30.35,M,M,M,CLR,M,M,M,M,M,M,M,M,M,M,M,M,M,M,50.00,KTMT 251415Z AUTO 00000KT CLR 10/07 A3035 RMK AO2 T01000071 PWINO,M
05U,2023-07-25 14:30,-116.0051,39.6042,1811.23,66.20,44.60,45.60,M,M,0.00,30.37,M,10.00,M,M,M,M,M,M,M,M,M,M,M,M,M,M,M,M,66.20,K05U 251430Z AUTO 10SM 19/07 A3037 RMK A01,M
BVU,2023-07-25 14:35,-114.8611,35.9475,671.00,91.40,53.60,27.83,0.00,0.00,0.00,30.01,M,10.00,M,CLR,M,M,M,M,M,M,M,M,M,M,M,M,M,M,89.08,KBVU 251435Z AUTO 00000KT 10SM CLR 33/12 A3001 RMK AO2,M
CXP,2023-07-25 14:35,-119.7326,39.1923,1431.00,60.80,33.80,36.16,0.00,0.00,0.00,30.28,M,10.00,M,CLR,M,M,M,M,M,M,M,M,M,M,M,M,M,M,60.80,KCXP 251435Z AUTO 00000KT 10SM CLR 16/01 A3028 RMK AO2,M
RTS,2023-07-25 14:35,-119.8764,39.6682,1539.00,57.20,23.00,26.42,0.00,0.00,0.00,30.27,M,10.00,M,CLR,M,M,M,M,M,M,M,M,M,M,M,M,M,M,57.20,KRTS 251435Z AUTO 00000KT 10SM CLR 14/M05 A3027 RMK AO2,M
MEV,2023-07-25 14:35,-119.7500,38.9963,1441.42,55.40,33.80,43.90,0.00,0.00,0.00,30.27,M,9.00,M,CLR,M,M,M,M,M,M,M,M,M,M,M,M,M,M,55.40,KMEV 251435Z AUTO 00000KT 9SM CLR 13/01 A3027 RMK AO2,M
HTH,2023-07-25 14:35,-118.6315,38.5448,1282.89,71.60,39.20,30.77,0.00,0.00,0.00,30.23,M,10.00,M,CLR,M,M,M,M,M,M,M,M,M,M,M,M,M,M,71.60,KHTH 251435Z AUTO 00000KT 10SM CLR 22/04 A3023 RMK A01,M
10U,2023-07-25 14:35,-116.1876,41.9532,1637.00,66.20,28.40,24.04,0.00,0.00,0.00,30.29,M,10.00,M,CLR,M,M,M,M,M,M,M,M,M,M,M,M,M,M,66.20,K10U 251435Z AUTO 00000KT 10SM CLR 19/M02 A3029 RMK AO2,M
BAM,2023-07-25 14:35,-116.8743,40.5990,1382.36,68.00,37.40,32.43,70.00,3.00,0.00,30.27,M,10.00,M,CLR,M,M,M,M,M,M,M,M,M,M,M,M,M,M,68.00,KBAM 251435Z AUTO 07003KT 10SM CLR 20/03 A3027 RMK AO1,M
TMT,2023-07-25 14:35,-117.1971,39.4643,1749.34,52.70,45.70,77.00,0.00,0.00,0.00,30.35,M,M,M,CLR,M,M,M,M,M,M,M,M,M,M,M,M,M,M,52.70,KTMT 251435Z AUTO 00000KT CLR 12/08 A3035 RMK AO2 T01150076 PWINO,M
05U,2023-07-25 14:50,-116.0051,39.6042,1811.23,69.80,42.80,37.61,M,M,0.00,30.36,M,10.00,M,M,M,M,M,M,M,M,M,M,M,M,M,M,M,M,69.80,K05U 251450Z AUTO 10SM 21/06 A3036 RMK A01,M
P68,2023-07-25 14:53,-116.0056,39.6014,1993.00,68.00,44.00,41.88,220.00,4.00,0.00,30.34,1018.90,M,M,M,M,M,M,M,M,M,M,M,M,M,M,M,M,M,68.00,KP68 251453Z AUTO 22004KT 20/07 A3034 RMK AO1 SLP189 T02000067 51006,M
DRA,2023-07-25 14:53,-116.0278,36.6206,1009.00,86.00,44.00,23.05,0.00,0.00,0.00,30.12,1013.90,10.00,M,CLR,M,M,M,M,M,M,M,M,M,M,M,M,M,M,83.03,KDRA 251453Z AUTO 00000KT 10SM CLR 30/07 A3012 RMK AO2 SLP139 T03000067 53016,M
ELY,2023-07-25 14:53,-114.8453,39.2950,1909.00,68.00,45.00,43.51,180.00,6.00,0.00,30.37,1017.50,10.00,M,CLR,M,M,M,M,M,M,M,M,M,M,M,M,M,M,68.00,KELY 251453Z AUTO 18006KT 10SM CLR 20/07 A3037 RMK AO2 SLP175 T02000072 51008,M
VGT,2023-07-25 14:53,-115.1933,36.2111,667.00,95.00,46.00,18.76,20.00,3.00,0.00,30.02,1014.70,10.00,M,CLR,M,M,M,M,M,M,M,M,M,M,M,M,M,M,91.23,KVGT 251453Z 02003KT 10SM CLR 35/08 A3002 RMK AO2 SLP147 T03500078 51018,M
LOL,2023-07-25 14:53,-118.5701,40.0684,1192.43,65.00,29.00,25.69,0.00,0.00,0.00,30.21,1018.90,10.00,M,CLR,M,M,M,M,M,M,M,M,M,M,M,M,M,M,65.00,KLOL 251453Z AUTO 00000KT 10SM CLR 18/M02 A3021 RMK AO2 SLP189 T01831017 53007,M
BVU,2023-07-25 14:55,-114.8611,35.9475,671.00,95.00,46.40,19.04,0.00,0.00,0.00,30.02,M,10.00,M,CLR,M,M,M,M,M,M,M,M,M,M,M,M,M,M,91.29,KBVU 251455Z AUTO 00000KT 10SM CLR 35/08 A3002 RMK AO2,M
CXP,2023-07-25 14:55,-119.7326,39.1923,1431.00,62.60,32.00,31.56,0.00,0.00,0.00,30.28,M,10.00,M,CLR,M,M,M,M,M,M,M,M,M,M,M,M,M,M,62.60,KCXP 251455Z AUTO 00000KT 10SM CLR 17/00 A3028 RMK AO2,M
RNO,2023-07-25 14:55,-119.7711,39.4839,1341.00,65.00,32.00,29.02,0.00,0.00,0.00,30.24,1018.70,10.00,M,FEW,M,M,M,18000.00,M,M,M,M,M,M,M,M,M,M,65.00,KRNO 251455Z 00000KT 10SM FEW180 18/00 A3024 RMK AO2 SLP187 T01830000 51005,M
LSV,2023-07-25 14:55,-115.0343,36.2362,570.00,95.00,43.00,16.73,70.00,5.00,0.00,29.97,M,10.00,M,CLR,M,M,M,M,M,M,M,M,M,M,M,M,M,M,90.88,KLSV 251455Z AUTO 07005KT 10SM CLR 35/06 A2997 RMK AO2 SLPNO T03490062 $,M
RTS,2023-07-25 14:55,-119.8764,39.6682,1539.00,60.80,37.40,41.71,140.00,3.00,0.00,30.28,M,9.00,M,CLR,M,M,M,M,M,M,M,M,M,M,M,M,M,M,60.80,KRTS 251455Z AUTO 14003KT 9SM CLR 16/03 A3028 RMK AO2,M
MEV,2023-07-25 14:55,-119.7500,38.9963,1441.42,57.20,33.80,41.13,20.00,3.00,0.00,30.26,M,10.00,M,CLR,M,M,M,M,M,M,M,M,M,M,M,M,M,M,57.20,KMEV 251455Z AUTO 02003KT 10SM CLR 14/01 A3026 RMK AO2,M
HTH,2023-07-25 14:55,-118.6315,38.5448,1282.89,73.40,39.20,28.96,0.00,0.00,0.00,30.23,M,10.00,M,CLR,M,M,M,M,M,M,M,M,M,M,M,M,M,M,73.40,KHTH 251455Z AUTO 00000KT 10SM CLR 23/04 A3023 RMK A01,M
TMT,2023-07-25 14:55,-117.1971,39.4643,1749.34,56.30,45.70,67.53,0.00,0.00,0.00,30.35,M,M,M,CLR,M,M,M,M,M,M,M,M,M,M,M,M,M,M,56.30,KTMT 251455Z AUTO 00000KT CLR 14/08 A3035 RMK AO2 T01350076 PWINO,M
10U,2023-07-25 14:55,-116.1876,41.9532,1637.00,68.00,28.40,22.59,0.00,0.00,0.00,30.29,M,10.00,M,CLR,M,M,M,M,M,M,M,M,M,M,M,M,M,M,68.00,K10U 251455Z AUTO 00000KT 10SM CLR 20/M02 A3029 RMK AO2,M
BAM,2023-07-25 14:55,-116.8743,40.5990,1382.36,69.80,37.40,30.49,0.00,0.00,0.00,30.26,M,10.00,M,CLR,M,M,M,M,M,M,M,M,M,M,M,M,M,M,69.80,KBAM 251455Z AUTO 00000KT 10SM CLR 21/03 A3026 RMK AO1,M
INS,2023-07-25 14:55,-115.6733,36.5872,955.00,83.70,39.60,20.95,0.00,0.00,0.00,30.10,1013.60,10.00,M,CLR,M,M,M,M,M,M,M,M,M,M,M,M,M,M,81.10,KINS 251455Z AUTO 00000KT 10SM CLR 29/04 A3010 RMK AO2 SLP136 T02870042 52013 $,M
EKO,2023-07-25 14:56,-115.7860,40.8242,1367.00,65.00,45.00,48.28,0.00,0.00,0.00,30.29,1020.20,10.00,M,CLR,M,M,M,M,M,M,M,M,M,M,M,M,M,M,65.00,KEKO 251456Z AUTO 00000KT 10SM CLR 18/07 A3029 RMK AO2 SLP202 T01830072 51009,M
WMC,2023-07-25 14:56,-117.8072,40.9019,1315.00,67.00,24.00,19.49,150.00,5.00,0.00,30.23,1018.60,10.00,M,CLR,M,M,M,M,M,M,M,M,M,M,M,M,M,M,67.00,KWMC 251456Z AUTO 15005KT 10SM CLR 19/M04 A3023 RMK AO2 SLP186 T01941044 51009,M
NFL,2023-07-25 14:56,-118.7010,39.4166,1199.00,72.00,39.00,30.12,180.00,3.00,0.00,30.20,1019.10,10.00,M,SCT,M,M,M,15000.00,M,M,M,M,M,M,M,M,M,M,72.00,KNFL 251456Z 18003KT 10SM SCT150 22/04 A3020 RMK AO2 SLP191 T02220039 51009,M
HND,2023-07-25 14:56,-115.1344,35.9729,742.79,93.00,48.00,21.51,220.00,7.00,0.00,30.07,1015.90,10.00,M,CLR,M,M,M,M,M,M,M,M,M,M,M,M,M,M,89.58,KHND 251456Z 22007KT 10SM CLR 34/09 A3007 RMK AO2 SLP159 T03390089 51015,M
TPH,2023-07-25 14:56,-117.0904,38.0505,1654.00,69.00,50.00,50.74,0.00,0.00,0.00,30.31,1018.80,10.00,M,CLR,M,M,M,M,M,M,M,M,M,M,M,M,M,M,69.00,KTPH 251456Z AUTO 00000KT 10SM CLR 21/10 A3031 RMK AO2 SLP188 T02060100 51012 $,M
LAS,2023-07-25 14:56,-115.1634,36.0719,663.00,95.00,48.00,20.22,0.00,0.00,0.00,30.03,1013.30,10.00,M,FEW,M,M,M,20000.00,M,M,M,M,M,M,M,M,M,M,91.53,KLAS 251456Z 00000KT 10SM FEW200 35/09 A3003 RMK AO2 SLP133 T03500089 51020,M
05U,2023-07-25 15:10,-116.0051,39.6042,1811.23,73.40,44.60,35.66,M,M,0.00,30.36,M,10.00,M,M,M,M,M,M,M,M,M,M,M,M,M,M,M,M,73.40,K05U 251510Z AUTO 10SM 23/07 A3036 RMK A01,M
BVU,2023-07-25 15:15,-114.8611,35.9475,671.00,96.80,44.60,16.83,0.00,0.00,0.00,30.02,M,10.00,M,CLR,M,M,M,M,M,M,M,M,M,M,M,M,M,M,92.79,KBVU 251515Z AUTO 00000KT 10SM CLR 36/07 A3002 RMK AO2,M
CXP,2023-07-25 15:15,-119.7326,39.1923,1431.00,66.20,30.20,25.88,0.00,0.00,0.00,30.28,M,10.00,M,CLR,M,M,M,M,M,M,M,M,M,M,M,M,M,M,66.20,KCXP 251515Z AUTO 00000KT 10SM CLR 19/M01 A3028 RMK AO2,M
RTS,2023-07-25 15:15,-119.8764,39.6682,1539.00,62.60,35.60,36.45,0.00,0.00,0.00,30.28,M,10.00,M,CLR,M,M,M,M,M,M,M,M,M,M,M,M,M,M,62.60,KRTS 251515Z AUTO 00000KT 10SM CLR 17/02 A3028 RMK AO2,M
MEV,2023-07-25 15:15,-119.7500,38.9963,1441.42,60.80,32.00,33.64,0.00,0.00,0.00,30.27,M,8.00,M,CLR,M,M,M,M,M,M,M,M,M,M,M,M,M,M,60.80,KMEV 251515Z AUTO 00000KT 8SM CLR 16/M00 A3027 RMK AO2,M
HTH,2023-07-25 15:15,-118.6315,38.5448,1282.89,73.40,41.00,31.05,0.00,0.00,0.00,30.23,M,10.00,M,CLR,M,M,M,M,M,M,M,M,M,M,M,M,M,M,73.40,KHTH 251515Z AUTO 00000KT 10SM CLR 23/05 A3023 RMK A01,M
10U,2023-07-25 15:15,-116.1876,41.9532,1637.00,71.60,26.60,18.55,0.00,0.00,0.00,30.30,M,10.00,M,CLR,M,M,M,M,M,M,M,M,M,M,M,M,M,M,71.60,K10U 251515Z AUTO 00000KT 10SM CLR 22/M03 A3030 RMK AO2,M
BAM,2023-07-25 15:15,-116.8743,40.5990,1382.36,73.40,37.40,26.98,70.00,5.00,0.00,30.27,M,10.00,M,CLR,M,M,M,M,M,M,M,M,M,M,M,M,M,M,73.40,KBAM 251515Z AUTO 07005KT 10SM CLR 23/03 A3027 RMK AO1,M
TMT,2023-07-25 15:15,-117.1971,39.4643,1749.34,59.00,46.00,61.98,0.00,0.00,0.00,30.35,M,M,M,CLR,M,M,M,M,M,M,M,M,M,M,M,M,M,M,59.00,KTMT 251515Z AUTO 00000KT CLR 15/08 A3035 RMK AO2 T01500077 PWINO,M
05U,2023-07-25 15:30,-116.0051,39.6042,1811.23,75.20,46.40,35.94,M,M,0.00,30.36,M,10.00,M,M,M,M,M,M,M,M,M,M,M,M,M,M,M,M,75.20,K05U 251530Z AUTO 10SM 24/08 A3036 RMK A01,M
HTH,2023-07-25 15:30,-118.6315,38.5448,1282.89,73.40,39.20,28.96,0.00,0.00,0.00,30.23,M,10.00,M,CLR,M,M,M,M,M,M,M,M,M,M,M,M,M,M,73.40,KHTH 251530Z AUTO 00000KT 10SM CLR 23/04 A3023 RMK A01,M
BVU,2023-07-25 15:35,-114.8611,35.9475,671.00,96.80,44.60,16.83,0.00,0.00,0.00,30.02,M,10.00,M,CLR,M,M,M,M,M,M,M,M,M,M,M,M,M,M,92.79,KBVU 251535Z AUTO 00000KT 10SM CLR 36/07 A3002 RMK AO2,M
CXP,2023-07-25 15:35,-119.7326,39.1923,1431.00,68.00,30.20,24.32,0.00,0.00,0.00,30.27,M,10.00,M,CLR,M,M,M,M,M,M,M,M,M,M,M,M,M,M,68.00,KCXP 251535Z AUTO 00000KT 10SM CLR 20/M01 A3027 RMK AO2,M
RTS,2023-07-25 15:35,-119.8764,39.6682,1539.00,68.00,30.20,24.32,0.00,0.00,0.00,30.28,M,10.00,M,CLR,M,M,M,M,M,M,M,M,M,M,M,M,M,M,68.00,KRTS 251535Z AUTO 00000KT 10SM CLR 20/M01 A3028 RMK AO2,M
MEV,2023-07-25 15:35,-119.7500,38.9963,1441.42,64.40,28.40,25.60,0.00,0.00,0.00,30.26,M,10.00,M,CLR,M,M,M,M,M,M,M,M,M,M,M,M,M,M,64.40,KMEV 251535Z AUTO 00000KT 10SM CLR 18/M02 A3026 RMK AO2,M
TMT,2023-07-25 15:35,-117.1971,39.4643,1749.34,62.00,46.20,56.13,0.00,0.00,0.00,30.35,M,M,M,CLR,M,M,M,M,M,M,M,M,M,M,M,M,M,M,62.00,KTMT 251535Z AUTO 00000KT CLR 17/08 A3035 RMK AO2 T01670079 PWINO,M
BAM,2023-07-25 15:35,-116.8743,40.5990,1382.36,73.40,37.40,26.98,80.00,3.00,0.00,30.26,M,10.00,M,CLR,M,M,M,M,M,M,M,M,M,M,M,M,M,M,73.40,KBAM 251535Z AUTO 08003KT 10SM CLR 23/03 A3026 RMK AO1,M
05U,2023-07-25 15:50,-116.0051,39.6042,1811.23,75.20,46.40,35.94,M,M,0.00,30.36,M,10.00,M,M,M,M,M,M,M,M,M,M,M,M,M,M,M,M,75.20,K05U 251550Z AUTO 10SM 24/08 A3036 RMK A01,M
P68,2023-07-25 15:53,-116.0056,39.6014,1993.00,73.00,46.00,38.11,90.00,3.00,0.00,30.34,1018.60,M,M,M,M,M,M,M,M,M,M,M,M,M,M,M,M,M,73.00,KP68 251553Z AUTO 09003KT 23/08 A3034 RMK AO1 SLP186 T02280078,M
DRA,2023-07-25 15:53,-116.0278,36.6206,1009.00,92.00,44.00,19.08,0.00,0.00,0.00,30.11,1013.40,10.00,M,CLR,M,M,M,M,M,M,M,M,M,M,M,M,M,M,88.17,KDRA 251553Z AUTO 00000KT 10SM CLR 33/07 A3011 RMK AO2 SLP134 T03330067,M
ELY,2023-07-25 15:53,-114.8453,39.2950,1909.00,76.00,46.00,34.47,190.00,4.00,0.00,30.36,1016.70,10.00,M,CLR,M,M,M,M,M,M,M,M,M,M,M,M,M,M,76.00,KELY 251553Z AUTO 19004KT 10SM CLR 24/08 A3036 RMK AO2 SLP167 T02440078,M
VGT,2023-07-25 15:53,-115.1933,36.2111,667.00,98.00,46.00,17.11,140.00,4.00,0.00,30.02,1014.70,10.00,M,CLR,M,M,M,M,M,M,M,M,M,M,M,M,M,M,94.18,KVGT 251553Z 14004KT 10SM CLR 37/08 A3002 RMK AO2 SLP147 T03670078,M
LOL,2023-07-25 15:53,-118.5701,40.0684,1192.43,74.00,30.00,19.67,70.00,4.00,0.00,30.20,1018.50,10.00,M,CLR,M,M,M,M,M,M,M,M,M,M,M,M,M,M,74.00,KLOL 251553Z AUTO 07004KT 10SM CLR 23/M01 A3020 RMK AO2 SLP185 T02331011,M
BVU,2023-07-25 15:55,-114.8611,35.9475,671.00,98.60,44.60,15.93,0.00,0.00,0.00,30.02,M,10.00,M,CLR,M,M,M,M,M,M,M,M,M,M,M,M,M,M,94.55,KBVU 251555Z AUTO 00000KT 10SM CLR 37/07 A3002 RMK AO2,M
CXP,2023-07-25 15:55,-119.7326,39.1923,1431.00,69.80,28.40,21.24,0.00,0.00,0.00,30.27,M,10.00,M,CLR,M,M,M,M,M,M,M,M,M,M,M,M,M,M,69.80,KCXP 251555Z AUTO 00000KT 10SM CLR 21/M02 A3027 RMK AO2,M
RNO,2023-07-25 15:55,-119.7711,39.4839,1341.00,71.00,30.00,21.77,0.00,0.00,0.00,30.24,1018.40,10.00,M,FEW,M,M,M,18000.00,M,M,M,M,M,M,M,M,M,M,71.00,KRNO 251555Z 00000KT 10SM FEW180 22/M01 A3024 RMK AO2 SLP184 T02171011,M
LSV,2023-07-25 15:55,-115.0343,36.2362,570.00,100.00,44.00,14.92,30.00,7.00,0.00,29.97,M,10.00,M,CLR,M,M,M,M,M,M,M,M,M,M,M,M,M,M,95.83,KLSV 251555Z AUTO 03007KT 10SM CLR 38/07 A2997 RMK AO2 SLPNO T03780067 $,M
RTS,2023-07-25 15:55,-119.8764,39.6682,1539.00,69.80,32.00,24.59,0.00,0.00,0.00,30.28,M,10.00,M,CLR,M,M,M,M,M,M,M,M,M,M,M,M,M,M,69.80,KRTS 251555Z AUTO 00000KT 10SM CLR 21/00 A3028 RMK AO2,M
MEV,2023-07-25 15:55,-119.7500,38.9963,1441.42,68.00,30.20,24.32,0.00,0.00,0.00,30.26,M,10.00,M,CLR,M,M,M,M,M,M,M,M,M,M,M,M,M,M,68.00,KMEV 251555Z AUTO 00000KT 10SM CLR 20/M01 A3026 RMK AO2,M
HTH,2023-07-25 15:55,-118.6315,38.5448,1282.89,75.20,35.60,23.66,300.00,3.00,0.00,30.23,M,10.00,M,CLR,M,M,M,M,M,M,M,M,M,M,M,M,M,M,75.20,KHTH 251555Z AUTO 30003KT 10SM CLR 24/02 A3023 RMK A01,M
TMT,2023-07-25 15:55,-117.1971,39.4643,1749.34,64.00,46.20,52.32,0.00,0.00,0.00,30.35,M,M,M,CLR,M,M,M,M,M,M,M,M,M,M,M,M,M,M,64.00,KTMT 251555Z AUTO 00000KT CLR 18/08 A3035 RMK AO2 T01780079 PWINO,M
BAM,2023-07-25 15:55,-116.8743,40.5990,1382.36,77.00,37.40,23.93,0.00,0.00,0.00,30.26,M,10.00,M,CLR,M,M,M,M,M,M,M,M,M,M,M,M,M,M,77.00,KBAM 251555Z AUTO 00000KT 10SM CLR 25/03 A3026 RMK AO1,M
10U,2023-07-25 15:55,-116.1876,41.9532,1637.00,73.40,24.80,16.20,200.00,9.00,0.00,30.29,M,10.00,M,CLR,M,M,M,M,M,M,M,M,M,M,M,M,M,M,73.40,K10U 251555Z AUTO 20009KT 10SM CLR 23/M04 A3029 RMK AO2,M
INS,2023-07-25 15:55,-115.6733,36.5872,955.00,91.00,41.50,17.88,0.00,0.00,0.00,30.09,1013.10,10.00,M,CLR,M,M,M,M,M,M,M,M,M,M,M,M,M,M,87.07,KINS 251555Z AUTO 00000KT 10SM CLR 33/05 A3009 RMK AO2 SLP131 T03280053 $,M
EKO,2023-07-25 15:56,-115.7860,40.8242,1367.00,74.00,43.00,32.87,0.00,0.00,0.00,30.28,1019.40,10.00,M,CLR,M,M,M,M,M,M,M,M,M,M,M,M,M,M,74.00,KEKO 251556Z AUTO 00000KT 10SM CLR 23/06 A3028 RMK AO2 SLP194 T02330061,M
WMC,2023-07-25 15:56,-117.8072,40.9019,1315.00,75.00,25.00,15.48,0.00,0.00,0.00,30.23,1018.40,10.00,M,CLR,M,M,M,M,M,M,M,M,M,M,M,M,M,M,75.00,KWMC 251556Z AUTO 00000KT 10SM CLR 24/M04 A3023 RMK AO2 SLP184 T02391039,M
NFL,2023-07-25 15:56,-118.7010,39.4166,1199.00,78.00,39.00,24.65,210.00,3.00,0.00,30.20,1019.00,10.00,M,FEW,M,M,M,15000.00,M,M,M,M,M,M,M,M,M,M,78.00,KNFL 251556Z AUTO 21003KT 10SM FEW150 26/04 A3020 RMK AO2 SLP190 T02560039,M
HND,2023-07-25 15:56,-115.1344,35.9729,742.79,98.00,48.00,18.45,210.00,6.00,0.00,30.07,1016.00,10.00,M,CLR,M,M,M,M,M,M,M,M,M,M,M,M,M,M,94.53,KHND 251556Z 21006KT 10SM CLR 37/09 A3007 RMK AO2 SLP160 T03670089,M
TPH,2023-07-25 15:56,-117.0904,38.0505,1654.00,75.00,50.00,41.41,0.00,0.00,0.00,30.30,1018.20,10.00,M,CLR,M,M,M,M,M,M,M,M,M,M,M,M,M,M,75.00,KTPH 251556Z AUTO 00000KT 10SM CLR 24/10 A3030 RMK AO2 SLP182 T02390100 $,M
LAS,2023-07-25 15:56,-115.1634,36.0719,663.00,96.00,47.00,18.89,80.00,4.00,0.00,30.03,1013.40,10.00,M,FEW,FEW,M,M,13000.00,20000.00,M,M,M,M,M,M,M,M,M,92.36,KLAS 251556Z 08004KT 10SM FEW130 FEW200 36/08 A3003 RMK AO2 SLP134 T03560083,M
05U,2023-07-25 16:10,-116.0051,39.6042,1811.23,77.00,46.40,33.85,M,M,0.00,30.36,M,10.00,M,M,M,M,M,M,M,M,M,M,M,M,M,M,M,M,77.00,K05U 251610Z AUTO 10SM 25/08 A3036 RMK A01,M
BVU,2023-07-25 16:15,-114.8611,35.9475,671.00,100.40,44.60,15.08,0.00,0.00,0.00,30.02,M,10.00,M,CLR,M,M,M,M,M,M,M,M,M,M,M,M,M,M,96.31,KBVU 251615Z AUTO 00000KT 10SM CLR 38/07 A3002 RMK AO2,M
CXP,2023-07-25 16:15,-119.7326,39.1923,1431.00,71.60,28.40,19.98,0.00,0.00,0.00,30.27,M,10.00,M,CLR,M,M,M,M,M,M,M,M,M,M,M,M,M,M,71.60,KCXP 251615Z AUTO 00000KT 10SM CLR 22/M02 A3027 RMK AO2,M
RTS,2023-07-25 16:15,-119.8764,39.6682,1539.00,71.60,23.00,15.97,0.00,0.00,0.00,30.28,M,10.00,M,CLR,M,M,M,M,M,M,M,M,M,M,M,M,M,M,71.60,KRTS 251615Z AUTO 00000KT 10SM CLR 22/M05 A3028 RMK AO2,M
MEV,2023-07-25 16:15,-119.7500,38.9963,1441.42,69.80,33.80,26.43,210.00,4.00,0.00,30.25,M,10.00,M,CLR,M,M,M,M,M,M,M,M,M,M,M,M,M,M,69.80,KMEV 251615Z AUTO 21004KT 10SM CLR 21/01 A3025 RMK AO2,M
HTH,2023-07-25 16:15,-118.6315,38.5448,1282.89,77.00,33.80,20.74,M,4.00,0.00,30.23,M,10.00,M,CLR,M,M,M,M,M,M,M,M,M,M,M,M,M,M,77.00,KHTH 251615Z AUTO VRB04KT 10SM CLR 25/01 A3023 RMK A01,M
TMT,2023-07-25 16:15,-117.1971,39.4643,1749.34,67.50,43.50,41.80,0.00,0.00,0.00,30.34,M,M,M,CLR,M,M,M,M,M,M,M,M,M,M,M,M,M,M,67.50,KTMT 251615Z AUTO 00000KT CLR 20/06 A3034 RMK AO2 T01970064 PWINO,M
10U,2023-07-25 16:15,-116.1876,41.9532,1637.00,75.20,26.60,16.43,220.00,9.00,0.00,30.29,M,10.00,M,CLR,M,M,M,M,M,M,M,M,M,M,M,M,M,M,75.20,K10U 251615Z AUTO 22009KT 200V260 10SM CLR 24/M03 A3029 RMK AO2,M
BAM,2023-07-25 16:15,-116.8743,40.5990,1382.36,78.80,32.00,18.18,50.00,4.00,0.00,30.25,M,10.00,M,CLR,M,M,M,M,M,M,M,M,M,M,M,M,M,M,78.80,KBAM 251615Z AUTO 05004KT 10SM CLR 26/00 A3025 RMK AO1,M
05U,2023-07-25 16:30,-116.0051,39.6042,1811.23,78.80,44.60,29.79,0.00,0.00,0.00,30.36,M,10.00,M,M,M,M,M,M,M,M,M,M,M,M,M,M,M,M,78.80,K05U 251630Z AUTO 00000KT 10SM 26/07 A3036 RMK A01,M
BVU,2023-07-25 16:35,-114.8611,35.9475,671.00,100.40,42.80,14.08,M,3.00,0.00,30.01,M,10.00,M,CLR,M,M,M,M,M,M,M,M,M,M,M,M,M,M,96.04,KBVU 251635Z AUTO VRB03KT 10SM CLR 38/06 A3001 RMK AO2,M
CXP,2023-07-25 16:35,-119.7326,39.1923,1431.00,75.20,28.40,17.70,0.00,0.00,0.00,30.26,M,10.00,M,CLR,M,M,M,M,M,M,M,M,M,M,M,M,M,M,75.20,KCXP 251635Z AUTO 00000KT 10SM CLR 24/M02 A3026 RMK AO2,M
RTS,2023-07-25 16:35,-119.8764,39.6682,1539.00,73.40,21.20,13.93,130.00,4.00,0.00,30.27,M,10.00,M,CLR,M,M,M,M,M,M,M,M,M,M,M,M,M,M,73.40,KRTS 251635Z AUTO 13004KT 10SM CLR 23/M06 A3027 RMK AO2,M
MEV,2023-07-25 16:35,-119.7500,38.9963,1441.42,71.60,33.80,24.86,210.00,4.00,0.00,30.25,M,10.00,M,CLR,M,M,M,M,M,M,M,M,M,M,M,M,M,M,71.60,KMEV 251635Z AUTO 21004KT 10SM CLR 22/01 A3025 RMK AO2,M
HTH,2023-07-25 16:35,-118.6315,38.5448,1282.89,77.00,33.80,20.74,340.00,5.00,0.00,30.22,M,10.00,M,CLR,M,M,M,M,M,M,M,M,M,M,M,M,M,M,77.00,KHTH 251635Z AUTO 34005KT 10SM CLR 25/01 A3022 RMK A01,M
10U,2023-07-25 16:35,-116.1876,41.9532,1637.00,77.00,26.60,15.48,230.00,9.00,0.00,30.29,M,10.00,M,CLR,M,M,M,M,M,M,M,M,M,M,M,M,M,M,77.00,K10U 251635Z AUTO 23009KT 10SM CLR 25/M03 A3029 RMK AO2,M
BAM,2023-07-25 16:35,-116.8743,40.5990,1382.36,80.60,30.20,15.94,0.00,0.00,0.00,30.25,M,10.00,M,CLR,M,M,M,M,M,M,M,M,M,M,M,M,M,M,78.77,KBAM 251635Z AUTO 00000KT 10SM CLR 27/M01 A3025 RMK AO1,M
TMT,2023-07-25 16:35,-117.1971,39.4643,1749.34,68.70,46.00,44.12,0.00,0.00,0.00,30.34,M,M,M,CLR,M,M,M,M,M,M,M,M,M,M,M,M,M,M,68.70,KTMT 251635Z AUTO 00000KT CLR 20/08 A3034 RMK AO2 T02040078 PWINO,M
05U,2023-07-25 16:50,-116.0051,39.6042,1811.23,80.60,42.80,26.22,0.00,0.00,0.00,30.36,M,10.00,M,M,M,M,M,M,M,M,M,M,M,M,M,M,M,M,79.30,K05U 251650Z AUTO 00000KT 10SM 27/06 A3036 RMK A01,M
P68,2023-07-25 16:53,-116.0056,39.6014,1993.00,79.00,41.00,25.78,0.00,0.00,0.00,30.33,1018.00,M,M,M,M,M,M,M,M,M,M,M,M,M,M,M,M,M,79.00,KP68 251653Z AUTO 00000KT 26/05 A3033 RMK AO1 SLP180 T02610050,M
DRA,2023-07-25 16:53,-116.0278,36.6206,1009.00,96.00,44.00,16.86,M,4.00,0.00,30.11,1013.40,10.00,M,CLR,M,M,M,M,M,M,M,M,M,M,M,M,M,M,91.95,KDRA 251653Z AUTO VRB04KT 10SM CLR 36/07 A3011 RMK AO2 SLP134 T03560067,M
ELY,2023-07-25 16:53,-114.8453,39.2950,1909.00,81.00,45.00,28.15,M,4.00,0.00,30.35,1016.10,10.00,M,CLR,M,M,M,M,M,M,M,M,M,M,M,M,M,M,79.68,KELY 251653Z AUTO VRB04KT 10SM CLR 27/07 A3035 RMK AO2 SLP161 T02720072,M
VGT,2023-07-25 16:53,-115.1933,36.2111,667.00,102.00,47.00,15.74,M,M,0.00,30.01,1014.40,10.00,M,CLR,M,M,M,M,M,M,M,M,M,M,M,M,M,M,98.36,KVGT 251653Z 10SM CLR 39/08 A3001 RMK AO2 SLP144 T03890083,M
LOL,2023-07-25 16:53,-118.5701,40.0684,1192.43,80.00,26.00,13.68,0.00,0.00,0.00,30.20,1018.20,10.00,M,CLR,M,M,M,M,M,M,M,M,M,M,M,M,M,M,78.34,KLOL 251653Z AUTO 00000KT 10SM CLR 27/M03 A3020 RMK AO2 SLP182 T02671033,M
BVU,2023-07-25 16:55,-114.8611,35.9475,671.00,102.20,42.80,13.34,0.00,0.00,0.00,30.01,M,10.00,M,CLR,M,M,M,M,M,M,M,M,M,M,M,M,M,M,97.76,KBVU 251655Z AUTO 00000KT 10SM CLR 39/06 A3001 RMK AO2,M
CXP,2023-07-25 16:55,-119.7326,39.1923,1431.00,77.00,26.60,15.48,0.00,0.00,0.00,30.26,M,9.00,M,CLR,M,M,M,M,M,M,M,M,M,M,M,M,M,M,77.00,KCXP 251655Z AUTO 00000KT 9SM CLR 25/M03 A3026 RMK AO2,M
RNO,2023-07-25 16:55,-119.7711,39.4839,1341.00,76.00,31.00,19.16,0.00,0.00,0.00,30.23,1017.80,10.00,M,FEW,M,M,M,18000.00,M,M,M,M,M,M,M,M,M,M,76.00,KRNO 251655Z 00000KT 10SM FEW180 24/M01 A3023 RMK AO2 SLP178 T02441006,M
RTS,2023-07-25 16:55,-119.8764,39.6682,1539.00,75.20,21.20,13.11,110.00,6.00,0.00,30.27,M,10.00,M,CLR,M,M,M,M,M,M,M,M,M,M,M,M,M,M,75.20,KRTS 251655Z AUTO 11006KT 10SM CLR 24/M06 A3027 RMK AO2,M
MEV,2023-07-25 16:55,-119.7500,38.9963,1441.42,73.40,33.80,23.39,0.00,0.00,0.00,30.24,M,9.00,M,CLR,M,M,M,M,M,M,M,M,M,M,M,M,M,M,73.40,KMEV 251655Z AUTO 00000KT 9SM CLR 23/01 A3024 RMK AO2,M
HTH,2023-07-25 16:55,-118.6315,38.5448,1282.89,78.80,33.80,19.55,330.00,6.00,0.00,30.22,M,10.00,M,CLR,M,M,M,M,M,M,M,M,M,M,M,M,M,M,78.80,KHTH 251655Z AUTO 33006KT 10SM CLR 26/01 A3022 RMK A01,M
BAM,2023-07-25 16:55,-116.8743,40.5990,1382.36,82.40,30.20,15.03,0.00,0.00,0.00,30.24,M,10.00,M,CLR,M,M,M,M,M,M,M,M,M,M,M,M,M,M,79.97,KBAM 251655Z AUTO 00000KT 10SM CLR 28/M01 A3024 RMK AO1,M
TMT,2023-07-25 16:55,-117.1971,39.4643,1749.34,70.70,46.00,41.20,0.00,0.00,0.00,30.34,M,M,M,CLR,M,M,M,M,M,M,M,M,M,M,M,M,M,M,70.70,KTMT 251655Z AUTO 00000KT CLR 22/08 A3034 RMK AO2 T02150077 PWINO,M
10U,2023-07-25 16:55,-116.1876,41.9532,1637.00,77.00,26.60,15.48,210.00,8.00,0.00,30.29,M,10.00,M,CLR,M,M,M,M,M,M,M,M,M,M,M,M,M,M,77.00,K10U 251655Z AUTO 21008KT 10SM CLR 25/M03 A3029 RMK AO2,M
INS,2023-07-25 16:55,-115.6733,36.5872,955.00,95.00,40.00,14.90,220.00,4.00,0.00,30.09,1013.00,10.00,M,CLR,M,M,M,M,M,M,M,M,M,M,M,M,M,M,90.62,KINS 251655Z AUTO 22004KT 10SM CLR 35/05 A3009 RMK AO2 SLP130 T03500045 $,M
LSV,2023-07-25 16:55,-115.0343,36.2362,570.00,104.00,43.50,12.99,130.00,4.00,0.00,29.97,M,10.00,M,CLR,M,M,M,M,M,M,M,M,M,M,M,M,M,M,99.60,KLSV 251655Z AUTO 13004KT 10SM CLR 40/06 A2997 RMK AO2 SLPNO T04010064 $,M
EKO,2023-07-25 16:56,-115.7860,40.8242,1367.00,80.00,35.00,19.71,M,3.00,0.00,30.27,1018.70,10.00,M,CLR,M,M,M,M,M,M,M,M,M,M,M,M,M,M,78.63,KEKO 251656Z AUTO VRB03KT 10SM CLR 27/02 A3027 RMK AO2 SLP187 T02670017,M
WMC,2023-07-25 16:56,-117.8072,40.9019,1315.00,83.00,24.00,11.41,360.00,5.00,0.00,30.22,1017.50,10.00,M,CLR,M,M,M,M,M,M,M,M,M,M,M,M,M,M,80.13,KWMC 251656Z AUTO 36005KT 10SM CLR 28/M04 A3022 RMK AO2 SLP175 T02831044,M
NFL,2023-07-25 16:56,-118.7010,39.4166,1199.00,81.00,36.00,19.85,M,3.00,0.00,30.19,1018.70,10.00,M,FEW,M,M,M,15000.00,M,M,M,M,M,M,M,M,M,M,79.20,KNFL 251656Z VRB03KT 10SM FEW150 27/02 A3019 RMK AO2 SLP187 T02720022,M
HND,2023-07-25 16:56,-115.1344,35.9729,742.79,102.00,48.00,16.35,280.00,5.00,0.00,30.06,1015.60,10.00,M,CLR,M,M,M,M,M,M,M,M,M,M,M,M,M,M,98.58,KHND 251656Z 28005KT 10SM CLR 39/09 A3006 RMK AO2 SLP156 T03890089,M
TPH,2023-07-25 16:56,-117.0904,38.0505,1654.00,80.00,47.00,31.37,M,M,0.00,30.30,1017.80,10.00,M,CLR,M,M,M,M,M,M,M,M,M,M,M,M,M,M,79.28,KTPH 251656Z AUTO 10SM CLR 27/08 A3030 RMK AO2 SLP178 T02670083 $,M
LAS,2023-07-25 16:56,-115.1634,36.0719,663.00,100.00,47.00,16.72,0.00,0.00,0.00,30.02,1013.10,10.00,M,FEW,FEW,M,M,13000.00,20000.00,M,M,M,M,M,M,M,M,M,96.35,KLAS 251656Z 00000KT 10SM FEW130 FEW200 38/08 A3002 RMK AO2 SLP131 T03780083,M
05U,2023-07-25 17:10,-116.0051,39.6042,1811.23,82.40,32.00,16.17,0.00,0.00,0.00,30.35,M,10.00,M,M,M,M,M,M,M,M,M,M,M,M,M,M,M,M,80.00,K05U 251710Z AUTO 00000KT 10SM 28/M00 A3035 RMK A01,M
BVU,2023-07-25 17:15,-114.8611,35.9475,671.00,102.20,44.60,14.29,M,5.00,0.00,30.01,M,10.00,11.00,CLR,M,M,M,M,M,M,M,M,M,M,M,M,M,M,98.07,KBVU 251715Z AUTO VRB05G11KT 10SM CLR 39/07 A3001 RMK AO2,M
CXP,2023-07-25 17:15,-119.7326,39.1923,1431.00,78.80,24.80,13.54,0.00,0.00,0.00,30.25,M,10.00,M,CLR,M,M,M,M,M,M,M,M,M,M,M,M,M,M,78.80,KCXP 251715Z AUTO 00000KT 10SM CLR 26/M04 A3025 RMK AO2,M
RTS,2023-07-25 17:15,-119.8764,39.6682,1539.00,77.00,21.20,12.35,90.00,5.00,0.00,30.27,M,10.00,M,CLR,M,M,M,M,M,M,M,M,M,M,M,M,M,M,77.00,KRTS 251715Z AUTO 09005KT 10SM CLR 25/M06 A3027 RMK AO2,M
MEV,2023-07-25 17:15,-119.7500,38.9963,1441.42,75.20,33.80,22.02,M,3.00,0.00,30.24,M,10.00,M,CLR,M,M,M,M,M,M,M,M,M,M,M,M,M,M,75.20,KMEV 251715Z AUTO VRB03KT 10SM CLR 24/01 A3024 RMK AO2,M
HTH,2023-07-25 17:15,-118.6315,38.5448,1282.89,80.60,32.00,17.14,360.00,5.00,0.00,30.22,M,10.00,M,CLR,M,M,M,M,M,M,M,M,M,M,M,M,M,M,78.82,KHTH 251715Z AUTO 36005KT 10SM CLR 27/00 A3022 RMK A01,M
TMT,2023-07-25 17:15,-117.1971,39.4643,1749.34,73.40,43.50,34.19,0.00,0.00,0.00,30.33,M,M,M,CLR,M,M,M,M,M,M,M,M,M,M,M,M,M,M,73.40,KTMT 251715Z AUTO 00000KT CLR 23/06 A3033 RMK AO2 T02300064 PWINO,M
10U,2023-07-25 17:15,-116.1876,41.9532,1637.00,78.80,24.80,13.54,230.00,7.00,0.00,30.28,M,10.00,13.00,CLR,M,M,M,M,M,M,M,M,M,M,M,M,M,M,78.80,K10U 251715Z AUTO 23007G13KT 10SM CLR 26/M04 A3028 RMK AO2,M
BAM,2023-07-25 17:15,-116.8743,40.5990,1382.36,82.40,28.40,13.96,0.00,0.00,0.00,30.24,M,10.00,M,CLR,M,M,M,M,M,M,M,M,M,M,M,M,M,M,79.94,KBAM 251715Z AUTO 00000KT 10SM CLR 28/M02 A3024 RMK AO1,M
05U,2023-07-25 17:30,-116.0051,39.6042,1811.23,84.20,30.20,14.18,360.00,5.00,0.00,30.35,M,10.00,M,M,M,M,M,M,M,M,M,M,M,M,M,M,M,M,81.26,K05U 251730Z AUTO 36005KT 10SM 29/M01 A3035 RMK A01,M
BVU,2023-07-25 17:35,-114.8611,35.9475,671.00,104.00,44.60,13.54,0.00,0.00,0.00,30.01,M,10.00,M,CLR,M,M,M,M,M,M,M,M,M,M,M,M,M,M,99.82,KBVU 251735Z AUTO 00000KT 10SM CLR 40/07 A3001 RMK AO2,M
CXP,2023-07-25 17:35,-119.7326,39.1923,1431.00,78.80,26.60,14.59,0.00,0.00,0.00,30.25,M,10.00,M,CLR,M,M,M,M,M,M,M,M,M,M,M,M,M,M,78.80,KCXP 251735Z AUTO 00000KT 10SM CLR 26/M03 A3025 RMK AO2,M
RTS,2023-07-25 17:35,-119.8764,39.6682,1539.00,78.80,21.20,11.64,130.00,5.00,0.00,30.27,M,10.00,M,CLR,M,M,M,M,M,M,M,M,M,M,M,M,M,M,78.80,KRTS 251735Z AUTO 13005KT 10SM CLR 26/M06 A3027 RMK AO2,M
MEV,2023-07-25 17:35,-119.7500,38.9963,1441.42,78.80,26.60,14.59,0.00,0.00,0.00,30.23,M,10.00,M,CLR,M,M,M,M,M,M,M,M,M,M,M,M,M,M,78.80,KMEV 251735Z AUTO 00000KT 10SM CLR 26/M03 A3023 RMK AO2,M
HTH,2023-07-25 17:35,-118.6315,38.5448,1282.89,82.40,32.00,16.17,M,5.00,0.00,30.22,M,10.00,M,CLR,M,M,M,M,M,M,M,M,M,M,M,M,M,M,80.00,KHTH 251735Z AUTO VRB05KT 10SM CLR 28/M00 A3022 RMK A01,M
TMT,2023-07-25 17:35,-117.1971,39.4643,1749.34,77.00,42.00,28.62,0.00,0.00,0.00,30.33,M,M,M,CLR,M,M,M,M,M,M,M,M,M,M,M,M,M,M,77.00,KTMT 251735Z AUTO 00000KT CLR 25/06 A3033 RMK AO2 T02500056 PWINO,M
10U,2023-07-25 17:35,-116.1876,41.9532,1637.00,80.60,23.00,11.83,210.00,8.00,0.00,30.28,M,10.00,13.00,CLR,M,M,M,M,M,M,M,M,M,M,M,M,M,M,78.80,K10U 251735Z AUTO 21008G13KT 180V240 10SM CLR 27/M05 A3028 RMK AO2,M
BAM,2023-07-25 17:35,-116.8743,40.5990,1382.36,86.00,23.00,9.94,210.00,6.00,0.00,30.24,M,10.00,M,CLR,M,M,M,M,M,M,M,M,M,M,M,M,M,M,82.14,KBAM 251735Z AUTO 21006KT 10SM CLR 30/M05 A3024 RMK AO1,M
05U,2023-07-25 17:50,-116.0051,39.6042,1811.23,86.00,28.40,12.44,0.00,0.00,0.00,30.35,M,10.00,M,M,M,M,M,M,M,M,M,M,M,M,M,M,M,M,82.54,K05U 251750Z AUTO 00000KT 10SM 30/M02 A3035 RMK A01,M
P68,2023-07-25 17:53,-116.0056,39.6014,1993.00,83.00,27.00,12.93,M,3.00,0.00,30.31,1017.60,M,M,M,M,M,M,M,M,M,M,M,M,M,M,M,M,M,80.35,KP68 251753Z AUTO VRB03KT 28/M03 A3031 RMK AO1 SLP176 T02831028 10289 20111 58007,M
DRA,2023-07-25 17:53,-116.0278,36.6206,1009.00,102.00,43.00,13.52,230.00,12.00,0.00,30.10,1012.90,10.00,19.00,CLR,M,M,M,M,M,M,M,M,M,M,M,M,M,M,97.60,KDRA 251753Z AUTO 23012G19KT 10SM CLR 39/06 A3010 RMK AO2 SLP129 T03890061 10389 20244 58006,M
ELY,2023-07-25 17:53,-114.8453,39.2950,1909.00,84.00,43.00,23.66,M,5.00,0.00,30.34,1015.90,10.00,M,CLR,M,M,M,M,M,M,M,M,M,M,M,M,M,M,81.48,KELY 251753Z AUTO VRB05KT 10SM CLR 29/06 A3034 RMK AO2 SLP159 T02890061 10300 20122 57009,M
VGT,2023-07-25 17:53,-115.1933,36.2111,667.00,104.00,47.00,14.83,M,6.00,0.00,30.01,1014.40,10.00,M,CLR,M,M,M,M,M,M,M,M,M,M,M,M,M,M,100.35,KVGT 251753Z VRB06KT 10SM CLR 40/08 A3001 RMK AO2 SLP144 T04000083 10400 20311 56003,M
LOL,2023-07-25 17:53,-118.5701,40.0684,1192.43,85.00,25.00,11.16,70.00,4.00,0.00,30.18,1017.40,10.00,M,CLR,M,M,M,M,M,M,M,M,M,M,M,M,M,M,81.57,KLOL 251753Z AUTO 07004KT 10SM CLR 29/M04 A3018 RMK AO2 SLP174 T02941039 10294 20078 58007,M
BVU,2023-07-25 17:55,-114.8611,35.9475,671.00,104.00,44.60,13.54,200.00,4.00,0.00,30.00,M,10.00,M,CLR,M,M,M,M,M,M,M,M,M,M,M,M,M,M,99.82,KBVU 251755Z AUTO 20004KT 10SM CLR 40/07 A3000 RMK AO2,M
CXP,2023-07-25 17:55,-119.7326,39.1923,1431.00,80.60,26.60,13.75,0.00,0.00,0.00,30.24,M,10.00,M,CLR,M,M,M,M,M,M,M,M,M,M,M,M,M,M,78.68,KCXP 251755Z AUTO 00000KT 10SM CLR 27/M03 A3024 RMK AO2,M
RNO,2023-07-25 17:55,-119.7711,39.4839,1341.00,83.00,26.00,12.41,0.00,0.00,0.00,30.21,1017.00,10.00,M,FEW,M,M,M,12000.00,M,M,M,M,M,M,M,M,M,M,80.27,KRNO 251755Z 00000KT 10SM FEW120 28/M03 A3021 RMK AO2 SLP170 T02831033 10283 20144 58008,M
LSV,2023-07-25 17:55,-115.0343,36.2362,570.00,108.70,44.80,11.88,0.00,0.00,0.00,29.97,1011.50,10.00,M,FEW,FEW,M,M,18000.00,21000.00,M,M,M,M,M,M,M,M,M,104.20,KLSV 251755Z AUTO 00000KT 10SM FEW180 FEW210 43/07 A2997 RMK AO2 SLP115 T04260071 10426 20284 58002 $,M
RTS,2023-07-25 17:55,-119.8764,39.6682,1539.00,80.60,19.40,10.16,M,3.00,0.00,30.26,M,10.00,M,CLR,M,M,M,M,M,M,M,M,M,M,M,M,M,M,78.56,KRTS 251755Z AUTO VRB03KT 10SM CLR 27/M07 A3026 RMK AO2,M
MEV,2023-07-25 17:55,-119.7500,38.9963,1441.42,80.60,28.40,14.81,0.00,0.00,0.00,30.23,M,10.00,M,CLR,M,M,M,M,M,M,M,M,M,M,M,M,M,M,78.72,KMEV 251755Z AUTO 00000KT 10SM CLR 27/M02 A3023 RMK AO2,M
HTH,2023-07-25 17:55,-118.6315,38.5448,1282.89,84.20,30.20,14.18,340.00,6.00,0.00,30.21,M,10.00,M,CLR,M,M,M,M,M,M,M,M,M,M,M,M,M,M,81.26,KHTH 251755Z AUTO 34006KT 10SM CLR 29/M01 A3021 RMK A01,M
TMT,2023-07-25 17:55,-117.1971,39.4643,1749.34,79.30,25.00,13.43,0.00,0.00,0.00,30.33,M,M,M,CLR,M,M,M,M,M,M,M,M,M,M,M,M,M,M,79.30,KTMT 251755Z AUTO 00000KT CLR 26/M04 A3033 RMK AO2 T02631038 10263 20029 PWINO,M
BAM,2023-07-25 17:55,-116.8743,40.5990,1382.36,87.80,23.00,9.39,170.00,7.00,0.00,30.24,M,10.00,M,CLR,M,M,M,M,M,M,M,M,M,M,M,M,M,M,83.43,KBAM 251755Z AUTO 17007KT 10SM CLR 31/M05 A3024 RMK AO1,M
10U,2023-07-25 17:55,-116.1876,41.9532,1637.00,80.60,19.40,10.16,200.00,13.00,0.00,30.28,M,10.00,M,CLR,M,M,M,M,M,M,M,M,M,M,M,M,M,M,78.56,K10U 251755Z AUTO 20013KT 10SM CLR 27/M07 A3028 RMK AO2,M
INS,2023-07-25 17:55,-115.6733,36.5872,955.00,99.00,37.60,12.00,0.00,0.00,0.00,30.08,1012.50,10.00,M,CLR,M,M,M,M,M,M,M,M,M,M,M,M,M,M,93.92,KINS 251755Z AUTO 00000KT 10SM CLR 37/03 A3008 RMK AO2 SLP125 T03730031 10373 20246 57005 $,M
EKO,2023-07-25 17:56,-115.7860,40.8242,1367.00,84.00,32.00,15.35,230.00,6.00,0.00,30.27,1018.40,10.00,M,CLR,M,M,M,M,M,M,M,M,M,M,M,M,M,M,81.13,KEKO 251756Z AUTO 23006KT 10SM CLR 29/00 A3027 RMK AO2 SLP184 T02890000 10294 20094 58007,M
WMC,2023-07-25 17:56,-117.8072,40.9019,1315.00,86.00,20.00,8.75,280.00,5.00,0.00,30.21,1017.20,10.00,M,CLR,M,M,M,M,M,M,M,M,M,M,M,M,M,M,81.97,KWMC 251756Z AUTO 28005KT 10SM CLR 30/M07 A3021 RMK AO2 SLP172 T03001067 10306 20100 58006,M
NFL,2023-07-25 17:56,-118.7010,39.4166,1199.00,85.00,35.00,16.76,M,3.00,0.00,30.18,1018.40,10.00,M,SCT,SCT,M,M,15000.00,20000.00,M,M,M,M,M,M,M,M,M,81.91,KNFL 251756Z VRB03KT 10SM SCT150 SCT200 29/02 A3018 RMK AO2 SLP184 T02940017 10300 20100 58006,M
HND,2023-07-25 17:56,-115.1344,35.9729,742.79,104.00,47.00,14.83,0.00,0.00,0.00,30.06,1015.60,10.00,M,CLR,M,M,M,M,M,M,M,M,M,M,M,M,M,M,100.35,KHND 251756Z 00000KT 10SM CLR 40/08 A3006 RMK AO2 SLP156 T04000083 10400 20300 58003,M
TPH,2023-07-25 17:56,-117.0904,38.0505,1654.00,84.00,47.00,27.55,M,3.00,0.00,30.29,1017.30,10.00,M,CLR,M,M,M,M,M,M,M,M,M,M,M,M,M,M,81.78,KTPH 251756Z AUTO VRB03KT 10SM CLR 29/08 A3029 RMK AO2 SLP173 T02890083 10294 20150 58006 $,M
LAS,2023-07-25 17:56,-115.1634,36.0719,663.00,102.00,47.00,15.74,M,4.00,0.00,30.01,1012.90,10.00,M,FEW,FEW,M,M,13000.00,20000.00,M,M,M,M,M,M,M,M,M,98.36,KLAS 251756Z VRB04KT 10SM FEW130 FEW200 39/08 A3001 RMK AO2 SLP129 T03890083 10389 20322 58003,M
05U,2023-07-25 18:10,-116.0051,39.6042,1811.23,87.80,30.20,12.64,360.00,4.00,0.00,30.34,M,10.00,M,M,M,M,M,M,M,M,M,M,M,M,M,M,M,M,84.01,K05U 251810Z AUTO 36004KT 10SM 31/M01 A3034 RMK A01,M
BVU,2023-07-25 18:15,-114.8611,35.9475,671.00,104.00,44.60,13.54,0.00,0.00,0.00,30.00,M,10.00,10.00,CLR,M,M,M,M,M,M,M,M,M,M,M,M,M,M,99.82,KBVU 251815Z AUTO 00000G10KT 10SM CLR 40/07 A3000 RMK AO2,M
CXP,2023-07-25 18:15,-119.7326,39.1923,1431.00,84.20,24.80,11.35,0.00,0.00,0.00,30.24,M,10.00,M,CLR,M,M,M,M,M,M,M,M,M,M,M,M,M,M,81.00,KCXP 251815Z AUTO 00000KT 10SM CLR 29/M04 A3024 RMK AO2,M
RTS,2023-07-25 18:15,-119.8764,39.6682,1539.00,84.20,14.00,7.16,210.00,6.00,0.00,30.26,M,10.00,M,CLR,M,M,M,M,M,M,M,M,M,M,M,M,M,M,80.44,KRTS 251815Z AUTO 21006KT 10SM CLR 29/M10 A3026 RMK AO2,M
MEV,2023-07-25 18:15,-119.7500,38.9963,1441.42,84.20,24.80,11.35,0.00,0.00,0.00,30.22,M,10.00,M,CLR,M,M,M,M,M,M,M,M,M,M,M,M,M,M,81.00,KMEV 251815Z AUTO 00000KT 10SM CLR 29/M04 A3022 RMK AO2,M
HTH,2023-07-25 18:15,-118.6315,38.5448,1282.89,84.20,28.40,13.18,340.00,5.00,0.00,30.20,M,10.00,M,CLR,M,M,M,M,M,M,M,M,M,M,M,M,M,M,81.25,KHTH 251815Z AUTO 34005KT 10SM CLR 29/M02 A3020 RMK A01,M
TMT,2023-07-25 18:15,-117.1971,39.4643,1749.34,81.00,29.50,15.29,340.00,4.00,0.00,30.32,M,M,M,CLR,M,M,M,M,M,M,M,M,M,M,M,M,M,M,79.01,KTMT 251815Z AUTO 34004KT CLR 27/M01 A3032 RMK AO2 T02731014 PWINO,M
10U,2023-07-25 18:15,-116.1876,41.9532,1637.00,82.40,19.40,9.58,180.00,13.00,0.00,30.27,M,10.00,M,CLR,M,M,M,M,M,M,M,M,M,M,M,M,M,M,79.45,K10U 251815Z AUTO 18013KT 10SM CLR 28/M07 A3027 RMK AO2,M
BAM,2023-07-25 18:15,-116.8743,40.5990,1382.36,89.60,23.00,8.87,220.00,7.00,0.00,30.23,M,10.00,15.00,CLR,M,M,M,M,M,M,M,M,M,M,M,M,M,M,84.75,KBAM 251815Z AUTO 22007G15KT 10SM CLR 32/M05 A3023 RMK AO1,M
05U,2023-07-25 18:30,-116.0051,39.6042,1811.23,87.80,32.00,13.59,360.00,3.00,0.00,30.33,M,10.00,M,M,M,M,M,M,M,M,M,M,M,M,M,M,M,M,84.08,K05U 251830Z AUTO 36003KT 10SM 31/M00 A3033 RMK A01,M
BVU,2023-07-25 18:35,-114.8611,35.9475,671.00,104.00,44.60,13.54,M,5.00,0.00,30.00,M,10.00,M,CLR,M,M,M,M,M,M,M,M,M,M,M,M,M,M,99.82,KBVU 251835Z AUTO VRB05KT 10SM CLR 40/07 A3000 RMK AO2,M
CXP,2023-07-25 18:35,-119.7326,39.1923,1431.00,87.80,23.00,9.39,M,3.00,0.00,30.23,M,10.00,M,CLR,M,M,M,M,M,M,M,M,M,M,M,M,M,M,83.43,KCXP 251835Z AUTO VRB03KT 10SM CLR 31/M05 A3023 RMK AO2,M
RTS,2023-07-25 18:35,-119.8764,39.6682,1539.00,84.20,12.20,6.61,260.00,9.00,0.00,30.25,M,10.00,M,CLR,M,M,M,M,M,M,M,M,M,M,M,M,M,M,80.37,KRTS 251835Z AUTO 26009KT 10SM CLR 29/M11 A3025 RMK AO2,M
MEV,2023-07-25 18:35,-119.7500,38.9963,1441.42,86.00,28.40,12.44,0.00,0.00,0.00,30.22,M,10.00,M,CLR,M,M,M,M,M,M,M,M,M,M,M,M,M,M,82.54,KMEV 251835Z AUTO 00000KT 10SM CLR 30/M02 A3022 RMK AO2,M
HTH,2023-07-25 18:35,-118.6315,38.5448,1282.89,86.00,26.60,11.55,340.00,8.00,0.00,30.20,M,10.00,M,CLR,M,M,M,M,M,M,M,M,M,M,M,M,M,M,82.39,KHTH 251835Z AUTO 34008KT 10SM CLR 30/M03 A3020 RMK A01,M
10U,2023-07-25 18:35,-116.1876,41.9532,1637.00,82.40,17.60,8.87,220.00,12.00,0.00,30.27,M,10.00,19.00,CLR,M,M,M,M,M,M,M,M,M,M,M,M,M,M,79.36,K10U 251835Z AUTO 22012G19KT 10SM CLR 28/M08 A3027 RMK AO2,M
BAM,2023-07-25 18:35,-116.8743,40.5990,1382.36,89.60,23.00,8.87,230.00,4.00,0.00,30.23,M,10.00,M,CLR,M,M,M,M,M,M,M,M,M,M,M,M,M,M,84.75,KBAM 251835Z AUTO 23004KT 10SM CLR 32/M05 A3023 RMK AO1,M
TMT,2023-07-25 18:35,-117.1971,39.4643,1749.34,81.00,28.00,14.38,0.00,0.00,0.00,30.32,M,M,M,CLR,M,M,M,M,M,M,M,M,M,M,M,M,M,M,78.98,KTMT 251835Z AUTO 00000KT CLR 27/M02 A3032 RMK AO2 T02731022 PWINO,M
05U,2023-07-25 18:50,-116.0051,39.6042,1811.23,87.80,33.80,14.61,360.00,4.00,0.00,30.33,M,10.00,M,M,M,M,M,M,M,M,M,M,M,M,M,M,M,M,84.10,K05U 251850Z AUTO 36004KT 10SM 31/01 A3033 RMK A01,M
P68,2023-07-25 18:53,-116.0056,39.6014,1993.00,85.00,31.00,14.28,0.00,0.00,0.00,30.30,1017.10,M,M,M,M,M,M,M,M,M,M,M,M,M,M,M,M,M,81.87,KP68 251853Z AUTO 00000KT 29/M01 A3030 RMK AO1 SLP171 T02941006,M
DRA,2023-07-25 18:53,-116.0278,36.6206,1009.00,103.00,37.00,10.39,210.00,10.00,0.00,30.09,1012.60,10.00,23.00,CLR,M,M,M,M,M,M,M,M,M,M,M,M,M,M,97.24,KDRA 251853Z AUTO 21010G23KT 10SM CLR 39/03 A3009 RMK AO2 SLP126 T03940028,M
ELY,2023-07-25 18:53,-114.8453,39.2950,1909.00,89.00,41.00,18.68,M,M,0.00,30.33,1015.30,10.00,M,FEW,M,M,M,10000.00,M,M,M,M,M,M,M,M,M,M,85.30,KELY 251853Z AUTO 10SM FEW100 32/05 A3033 RMK AO2 SLP153 T03170050,M
VGT,2023-07-25 18:53,-115.1933,36.2111,667.00,106.00,49.00,15.07,M,5.00,0.00,30.00,1013.70,10.00,M,CLR,M,M,M,M,M,M,M,M,M,M,M,M,M,M,102.88,KVGT 251853Z VRB05KT 10SM CLR 41/09 A3000 RMK AO2 SLP137 T04110094,M
LOL,2023-07-25 18:53,-118.5701,40.0684,1192.43,88.00,22.00,8.94,250.00,6.00,0.00,30.17,1017.40,10.00,M,CLR,M,M,M,M,M,M,M,M,M,M,M,M,M,M,83.52,KLOL 251853Z AUTO 25006KT 10SM CLR 31/M06 A3017 RMK AO2 SLP174 T03111056,M
BVU,2023-07-25 18:55,-114.8611,35.9475,671.00,105.80,44.60,12.84,M,3.00,0.00,29.99,M,10.00,M,CLR,M,M,M,M,M,M,M,M,M,M,M,M,M,M,101.53,KBVU 251855Z AUTO VRB03KT 10SM CLR 41/07 A2999 RMK AO2,M
CXP,2023-07-25 18:55,-119.7326,39.1923,1431.00,87.80,21.20,8.70,0.00,0.00,0.00,30.23,M,10.00,M,CLR,M,M,M,M,M,M,M,M,M,M,M,M,M,M,83.33,KCXP 251855Z AUTO 00000KT 10SM CLR 31/M06 A3023 RMK AO2,M
RNO,2023-07-25 18:55,-119.7711,39.4839,1341.00,89.00,24.00,9.42,0.00,0.00,0.00,30.19,1016.10,10.00,M,FEW,M,M,M,12000.00,M,M,M,M,M,M,M,M,M,M,84.38,KRNO 251855Z 00000KT 10SM FEW120 32/M04 A3019 RMK AO2 SLP161 T03171044,M
RTS,2023-07-25 18:55,-119.8764,39.6682,1539.00,86.00,12.20,6.24,250.00,9.00,0.00,30.25,M,10.00,M,CLR,M,M,M,M,M,M,M,M,M,M,M,M,M,M,81.64,KRTS 251855Z AUTO 25009KT 200V290 10SM CLR 30/M11 A3025 RMK AO2,M
MEV,2023-07-25 18:55,-119.7500,38.9963,1441.42,87.80,19.40,8.06,0.00,0.00,0.00,30.21,M,9.00,M,CLR,M,M,M,M,M,M,M,M,M,M,M,M,M,M,83.23,KMEV 251855Z AUTO 00000KT 9SM CLR 31/M07 A3021 RMK AO2,M
HTH,2023-07-25 18:55,-118.6315,38.5448,1282.89,87.80,26.60,10.91,340.00,4.00,0.00,30.19,M,10.00,10.00,CLR,M,M,M,M,M,M,M,M,M,M,M,M,M,M,83.69,KHTH 251855Z AUTO 34004G10KT 10SM CLR 31/M03 A3019 RMK A01,M
LSV,2023-07-25 18:55,-115.0343,36.2362,570.00,109.20,45.30,11.93,160.00,6.00,0.00,29.95,M,10.00,M,CLR,M,M,M,M,M,M,M,M,M,M,M,M,M,M,104.81,KLSV 251855Z AUTO 16006KT 10SM CLR 43/07 A2995 RMK AO2 SLPNO T04290074 $,M
BAM,2023-07-25 18:55,-116.8743,40.5990,1382.36,91.40,19.40,7.19,250.00,13.00,0.00,30.21,M,10.00,M,CLR,M,M,M,M,M,M,M,M,M,M,M,M,M,M,85.86,KBAM 251855Z AUTO 25013KT 10SM CLR 33/M07 A3021 RMK AO1,M
10U,2023-07-25 18:55,-116.1876,41.9532,1637.00,84.20,17.60,8.37,230.00,13.00,0.00,30.27,M,10.00,19.00,CLR,M,M,M,M,M,M,M,M,M,M,M,M,M,M,80.59,K10U 251855Z AUTO 23013G19KT 200V260 10SM CLR 29/M08 A3027 RMK AO2,M
EKO,2023-07-25 18:56,-115.7860,40.8242,1367.00,88.00,30.00,12.46,220.00,8.00,0.00,30.25,1017.90,10.00,M,CLR,M,M,M,M,M,M,M,M,M,M,M,M,M,M,84.13,KEKO 251856Z AUTO 22008KT 10SM CLR 31/M01 A3025 RMK AO2 SLP179 T03111011,M
WMC,2023-07-25 18:56,-117.8072,40.9019,1315.00,89.00,20.00,7.96,150.00,7.00,0.00,30.20,1016.90,10.00,M,CLR,M,M,M,M,M,M,M,M,M,M,M,M,M,M,84.13,KWMC 251856Z AUTO 15007KT 10SM CLR 32/M07 A3020 RMK AO2 SLP169 T03171067,M
NFL,2023-07-25 18:56,-118.7010,39.4166,1199.00,90.00,31.00,12.18,350.00,3.00,0.00,30.16,1017.90,10.00,M,SCT,SCT,M,M,15000.00,20000.00,M,M,M,M,M,M,M,M,M,85.73,KNFL 251856Z COR 35003KT 10SM SCT150 SCT200 32/M01 A3016 RMK AO2 SLP179 T03221006,M
HND,2023-07-25 18:56,-115.1344,35.9729,742.79,106.00,47.00,13.98,M,3.00,0.00,30.04,1015.00,10.00,M,CLR,M,M,M,M,M,M,M,M,M,M,M,M,M,M,102.32,KHND 251856Z VRB03KT 10SM CLR 41/08 A3004 RMK AO2 SLP150 T04110083,M
TPH,2023-07-25 18:56,-117.0904,38.0505,1654.00,88.00,46.00,23.34,M,6.00,0.00,30.28,1016.60,10.00,M,CLR,M,M,M,M,M,M,M,M,M,M,M,M,M,M,84.81,KTPH 251856Z AUTO VRB06KT 10SM CLR 31/08 A3028 RMK AO2 SLP166 T03110078 $,M
LAS,2023-07-25 18:56,-115.1634,36.0719,663.00,106.00,46.00,13.46,M,3.00,0.00,30.00,1012.30,10.00,M,FEW,FEW,SCT,M,13000.00,16000.00,20000.00,M,M,M,M,M,M,M,M,102.07,KLAS 251856Z VRB03KT 10SM FEW130 FEW160 SCT200 41/08 A3000 RMK AO2 SLP123 CB DSNT SE ACSL DSNT NW T04110078,M
05U,2023-07-25 19:10,-116.0051,39.6042,1811.23,87.80,33.80,14.61,M,M,0.00,30.32,M,10.00,M,M,M,M,M,M,M,M,M,M,M,M,M,M,M,M,84.10,K05U 251910Z AUTO 10SM 31/01 A3032 RMK A01,M
BVU,2023-07-25 19:15,-114.8611,35.9475,671.00,105.80,46.40,13.75,M,4.00,0.00,29.99,M,10.00,M,CLR,M,M,M,M,M,M,M,M,M,M,M,M,M,M,101.97,KBVU 251915Z AUTO VRB04KT 10SM CLR 41/08 A2999 RMK AO2,M
CXP,2023-07-25 19:15,-119.7326,39.1923,1431.00,91.40,19.40,7.19,200.00,9.00,0.00,30.22,M,10.00,18.00,CLR,M,M,M,M,M,M,M,M,M,M,M,M,M,M,85.86,KCXP 251915Z AUTO 20009G18KT 160V220 10SM CLR 33/M07 A3022 RMK AO2,M
RTS,2023-07-25 19:15,-119.8764,39.6682,1539.00,87.80,15.80,6.90,240.00,16.00,0.00,30.24,M,10.00,M,CLR,M,M,M,M,M,M,M,M,M,M,M,M,M,M,83.07,KRTS 251915Z AUTO 24016KT 10SM CLR 31/M09 A3024 RMK AO2,M
MEV,2023-07-25 19:15,-119.7500,38.9963,1441.42,89.60,12.20,5.57,M,3.00,0.00,30.21,M,10.00,M,CLR,M,M,M,M,M,M,M,M,M,M,M,M,M,M,84.23,KMEV 251915Z AUTO VRB03KT 10SM CLR 32/M11 A3021 RMK AO2,M
HTH,2023-07-25 19:15,-118.6315,38.5448,1282.89,87.80,24.80,10.12,0.00,0.00,0.00,30.18,M,10.00,M,CLR,M,M,M,M,M,M,M,M,M,M,M,M,M,M,83.56,KHTH 251915Z AUTO 00000KT 10SM CLR 31/M04 A3018 RMK A01,M
TMT,2023-07-25 19:15,-117.1971,39.4643,1749.34,83.50,32.50,15.92,290.00,4.00,0.00,30.31,M,M,M,CLR,M,M,M,M,M,M,M,M,M,M,M,M,M,M,80.77,KTMT 251915Z AUTO 29004KT CLR 29/00 A3031 RMK AO2 T02860003 PWINO,M
10U,2023-07-25 19:15,-116.1876,41.9532,1637.00,86.00,17.60,7.90,210.00,15.00,0.00,30.26,M,10.00,M,CLR,M,M,M,M,M,M,M,M,M,M,M,M,M,M,81.85,K10U 251915Z AUTO 21015KT 10SM CLR 30/M08 A3026 RMK AO2,M
BAM,2023-07-25 19:15,-116.8743,40.5990,1382.36,91.40,17.60,6.66,280.00,10.00,0.00,30.21,M,10.00,18.00,CLR,M,M,M,M,M,M,M,M,M,M,M,M,M,M,85.76,KBAM 251915Z AUTO 28010G18KT 10SM CLR 33/M08 A3021 RMK AO1,M
05U,2023-07-25 19:30,-116.0051,39.6042,1811.23,89.60,33.80,13.80,M,M,0.00,30.31,M,10.00,M,M,M,M,M,M,M,M,M,M,M,M,M,M,M,M,85.59,K05U 251930Z AUTO 10SM 32/01 A3031 RMK A01,M
BVU,2023-07-25 19:35,-114.8611,35.9475,671.00,107.60,46.40,13.04,M,3.00,0.00,29.98,M,10.00,11.00,CLR,M,M,M,M,M,M,M,M,M,M,M,M,M,M,103.71,KBVU 251935Z AUTO VRB03G11KT 10SM CLR 42/08 A2998 RMK AO2,M
CXP,2023-07-25 19:35,-119.7326,39.1923,1431.00,89.60,17.60,7.05,M,5.00,0.00,30.22,M,10.00,11.00,CLR,M,M,M,M,M,M,M,M,M,M,M,M,M,M,84.45,KCXP 251935Z AUTO VRB05G11KT 10SM CLR 32/M08 A3022 RMK AO2,M
RTS,2023-07-25 19:35,-119.8764,39.6682,1539.00,87.80,15.80,6.90,220.00,8.00,0.00,30.24,M,10.00,15.00,CLR,M,M,M,M,M,M,M,M,M,M,M,M,M,M,83.07,KRTS 251935Z AUTO 22008G15KT 10SM CLR 31/M09 A3024 RMK AO2,M
MEV,2023-07-25 19:35,-119.7500,38.9963,1441.42,89.60,15.80,6.52,M,5.00,0.00,30.20,M,9.00,M,M,M,M,M,M,M,M,M,M,M,M,M,M,M,M,84.37,KMEV 251935Z AUTO VRB05KT 9SM 32/M09 A3020 RMK AO2,M
HTH,2023-07-25 19:35,-118.6315,38.5448,1282.89,89.60,26.60,10.30,M,4.00,0.00,30.17,M,10.00,M,CLR,M,M,M,M,M,M,M,M,M,M,M,M,M,M,85.02,KHTH 251935Z AUTO VRB04KT 10SM CLR 32/M03 A3017 RMK A01,M
TMT,2023-07-25 19:35,-117.1971,39.4643,1749.34,84.00,33.80,16.50,260.00,3.00,0.00,30.30,M,M,M,CLR,M,M,M,M,M,M,M,M,M,M,M,M,M,M,81.16,KTMT 251935Z AUTO 26003KT CLR 29/01 A3030 RMK AO2 T02880010 PWINO,M
BAM,2023-07-25 19:35,-116.8743,40.5990,1382.36,91.40,15.80,6.16,210.00,7.00,0.00,30.21,M,10.00,15.00,CLR,M,M,M,M,M,M,M,M,M,M,M,M,M,M,85.68,KBAM 251935Z AUTO 21007G15KT 10SM CLR 33/M09 A3021 RMK AO1,M
05U,2023-07-25 19:50,-116.0051,39.6042,1811.23,89.60,33.80,13.80,M,M,0.00,30.30,M,10.00,M,M,M,M,M,M,M,M,M,M,M,M,M,M,M,M,85.59,K05U 251950Z AUTO 10SM 32/01 A3030 RMK A01,M
P68,2023-07-25 19:53,-116.0056,39.6014,1993.00,89.00,33.00,13.62,M,5.00,0.00,30.27,1016.40,M,M,M,M,M,M,M,M,M,M,M,M,M,M,M,M,M,85.08,KP68 251953Z AUTO VRB05KT 32/01 A3027 RMK AO1 SLP164 T03170006,M
DRA,2023-07-25 19:53,-116.0278,36.6206,1009.00,103.00,38.00,10.81,M,M,0.00,30.08,1012.30,10.00,M,CLR,M,M,M,M,M,M,M,M,M,M,M,M,M,M,97.44,KDRA 251953Z AUTO 10SM CLR 39/03 A3008 RMK AO2 SLP123 T03940033,M
ELY,2023-07-25 19:53,-114.8453,39.2950,1909.00,89.00,41.00,18.68,240.00,10.00,0.00,30.31,1015.20,10.00,22.00,FEW,M,M,M,11000.00,M,M,M,M,M,M,M,26.00,220.00,2023-07-25 19:19,85.30,KELY 251953Z AUTO 24010G22KT 210V280 10SM FEW110 32/05 A3031 RMK AO2 PK WND 22026/1919 SLP152 T03170050,M
VGT,2023-07-25 19:53,-115.1933,36.2111,667.00,108.00,46.00,12.69,M,3.00,0.00,29.98,1013.20,10.00,M,CLR,M,M,M,M,M,M,M,M,M,M,M,M,M,M,103.95,KVGT 251953Z VRB03KT 10SM CLR 42/08 A2998 RMK AO2 SLP132 T04220078,M
LOL,2023-07-25 19:53,-118.5701,40.0684,1192.43,91.00,19.00,7.16,210.00,9.00,0.00,30.15,1016.40,10.00,16.00,CLR,M,M,M,M,M,M,M,M,M,M,M,M,M,M,85.54,KLOL 251953Z AUTO 21009G16KT 10SM CLR 33/M07 A3015 RMK AO2 SLP164 T03281072,M
BVU,2023-07-25 19:55,-114.8611,35.9475,671.00,107.60,44.60,12.18,330.00,8.00,0.00,29.97,M,10.00,M,CLR,M,M,M,M,M,M,M,M,M,M,M,M,M,M,103.15,KBVU 251955Z AUTO 33008KT 10SM CLR 42/07 A2997 RMK AO2,M
CXP,2023-07-25 19:55,-119.7326,39.1923,1431.00,93.20,19.40,6.80,250.00,8.00,0.00,30.22,M,10.00,16.00,CLR,M,M,M,M,M,M,M,M,M,M,M,M,M,M,87.18,KCXP 251955Z AUTO 25008G16KT 200V260 10SM CLR 34/M07 A3022 RMK AO2,M
RNO,2023-07-25 19:55,-119.7711,39.4839,1341.00,92.00,20.00,7.24,M,4.00,0.00,30.17,1015.50,10.00,M,FEW,M,M,M,14000.00,M,M,M,M,M,M,M,M,M,M,86.33,KRNO 251955Z VRB04KT 10SM FEW140 33/M07 A3017 RMK AO2 SLP155 T03331067,M
RTS,2023-07-25 19:55,-119.8764,39.6682,1539.00,87.80,10.40,5.44,260.00,17.00,0.00,30.23,M,10.00,M,CLR,M,M,M,M,M,M,M,M,M,M,M,M,M,M,82.88,KRTS 251955Z AUTO 26017KT 10SM CLR 31/M12 A3023 RMK AO2,M
MEV,2023-07-25 19:55,-119.7500,38.9963,1441.42,91.40,17.60,6.66,200.00,7.00,0.00,30.20,M,10.00,13.00,CLR,M,M,M,M,M,M,M,M,M,M,M,M,M,M,85.76,KMEV 251955Z AUTO 20007G13KT 10SM CLR 33/M08 A3020 RMK AO2,M
HTH,2023-07-25 19:55,-118.6315,38.5448,1282.89,91.40,28.40,10.48,350.00,6.00,0.00,30.16,M,10.00,M,CLR,M,M,M,M,M,M,M,M,M,M,M,M,M,M,86.53,KHTH 251955Z AUTO 35006KT 10SM CLR 33/M02 A3016 RMK A01,M
LSV,2023-07-25 19:55,-115.0343,36.2362,570.00,111.20,44.40,10.88,0.00,0.00,0.00,29.93,M,10.00,M,CLR,M,M,M,M,M,M,M,M,M,M,M,M,M,M,106.38,KLSV 251955Z AUTO 00000KT 10SM CLR 44/07 A2993 RMK AO2 SLPNO T04400069 $,M
TMT,2023-07-25 19:55,-117.1971,39.4643,1749.34,84.40,34.00,16.42,220.00,3.00,0.00,30.29,M,M,M,CLR,M,M,M,M,M,M,M,M,M,M,M,M,M,M,81.45,KTMT 251955Z AUTO 22003KT CLR 29/01 A3029 RMK AO2 T02910011 PWINO,M
BAM,2023-07-25 19:55,-116.8743,40.5990,1382.36,93.20,17.60,6.30,280.00,4.00,0.00,30.20,M,10.00,M,CLR,M,M,M,M,M,M,M,M,M,M,M,M,M,M,87.08,KBAM 251955Z AUTO 28004KT 10SM CLR 34/M08 A3020 RMK AO1,M
10U,2023-07-25 19:55,-116.1876,41.9532,1637.00,87.80,12.20,5.89,230.00,15.00,0.00,30.25,M,10.00,23.00,CLR,M,M,M,M,M,M,M,M,M,M,M,M,M,M,82.93,K10U 251955Z AUTO 23015G23KT 200V260 10SM CLR 31/M11 A3025 RMK AO2,M
INS,2023-07-25 19:55,-115.6733,36.5872,955.00,102.00,37.60,10.96,70.00,7.00,0.00,30.05,1011.70,10.00,M,SCT,BKN,M,M,13000.00,16000.00,M,M,M,M,M,M,M,M,M,96.49,KINS 251955Z AUTO 07007KT 10SM SCT130 BKN160 39/03 A3005 RMK AO2 SLP117 T03890031 $,M
EKO,2023-07-25 19:56,-115.7860,40.8242,1367.00,91.00,25.00,9.23,220.00,7.00,0.00,30.23,1017.10,10.00,21.00,CLR,M,M,M,M,M,M,M,M,M,M,M,M,M,M,85.93,KEKO 251956Z AUTO 22007G21KT 10SM CLR 33/M04 A3023 RMK AO2 SLP171 T03281039,M
WMC,2023-07-25 19:56,-117.8072,40.9019,1315.00,94.00,13.00,5.03,250.00,12.00,0.00,30.18,1016.30,10.00,24.00,CLR,M,M,M,M,M,M,M,M,M,M,M,M,M,M,87.44,KWMC 251956Z AUTO 25012G24KT 10SM CLR 34/M11 A3018 RMK AO2 SLP163 T03441106,M
NFL,2023-07-25 19:56,-118.7010,39.4166,1199.00,93.00,21.00,7.33,M,6.00,0.00,30.15,1017.40,10.00,M,SCT,SCT,M,M,15000.00,20000.00,M,M,M,M,M,M,M,M,M,87.13,KNFL 251956Z VRB06KT 10SM SCT150 SCT200 34/M06 A3015 RMK AO2 SLP174 T03391061,M
HND,2023-07-25 19:56,-115.1344,35.9729,742.79,108.00,45.00,12.22,180.00,11.00,0.00,30.02,1014.30,10.00,17.00,CLR,M,M,M,M,M,M,M,M,M,M,M,M,M,M,103.63,KHND 251956Z 18011G17KT 10SM CLR 42/07 A3002 RMK AO2 SLP143 T04220072,M
TPH,2023-07-25 19:56,-117.0904,38.0505,1654.00,91.00,48.00,22.90,M,6.00,0.00,30.26,1015.90,10.00,M,CLR,M,M,M,M,M,M,M,M,M,M,M,M,M,M,87.69,KTPH 251956Z AUTO VRB06KT 10SM CLR 33/09 A3026 RMK AO2 SLP159 T03280089 $,M
LAS,2023-07-25 19:56,-115.1634,36.0719,663.00,108.00,42.00,10.89,M,5.00,0.00,29.98,1011.60,10.00,M,FEW,FEW,SCT,M,13000.00,16000.00,20000.00,M,M,M,M,M,M,M,M,102.77,KLAS 251956Z VRB05KT 10SM FEW130 FEW160 SCT200 42/06 A2998 RMK AO2 SLP116 CB DSNT SE TCU DSNT S T04220056,M
05U,2023-07-25 20:10,-116.0051,39.6042,1811.23,91.40,35.60,14.02,360.00,7.00,0.00,30.29,M,9.00,M,M,M,M,M,M,M,M,M,M,M,M,M,M,M,M,87.17,K05U 252010Z AUTO 36007KT 9SM 33/02 A3029 RMK A01,M
BVU,2023-07-25 20:15,-114.8611,35.9475,671.00,109.40,44.60,11.55,190.00,7.00,0.00,29.97,M,10.00,14.00,CLR,M,M,M,M,M,M,M,M,M,M,M,M,M,M,104.78,KBVU 252015Z AUTO 19007G14KT 10SM CLR 43/07 A2997 RMK AO2,M
CXP,2023-07-25 20:15,-119.7326,39.1923,1431.00,91.40,15.80,6.16,260.00,11.00,0.00,30.22,M,10.00,21.00,CLR,M,M,M,M,M,M,M,M,M,M,M,M,M,M,85.68,KCXP 252015Z AUTO 26011G21KT 10SM CLR 33/M09 A3022 RMK AO2,M
RTS,2023-07-25 20:15,-119.8764,39.6682,1539.00,89.60,8.60,4.74,240.00,20.00,0.00,30.24,M,10.00,25.00,CLR,M,M,M,M,M,M,M,M,M,M,M,M,M,M,84.12,KRTS 252015Z AUTO 24020G25KT 10SM CLR 32/M13 A3024 RMK AO2,M
MEV,2023-07-25 20:15,-119.7500,38.9963,1441.42,91.40,19.40,7.19,210.00,7.00,0.00,30.20,M,10.00,M,CLR,M,M,M,M,M,M,M,M,M,M,M,M,M,M,85.86,KMEV 252015Z AUTO 21007KT 120V270 10SM CLR 33/M07 A3020 RMK AO2,M
HTH,2023-07-25 20:15,-118.6315,38.5448,1282.89,91.40,28.40,10.48,320.00,8.00,0.00,30.15,M,10.00,M,CLR,M,M,M,M,M,M,M,M,M,M,M,M,M,M,86.53,KHTH 252015Z AUTO 32008KT 10SM CLR 33/M02 A3015 RMK A01,M
TMT,2023-07-25 20:15,-117.1971,39.4643,1749.34,86.00,35.20,16.36,250.00,4.00,0.00,30.29,M,M,M,CLR,M,M,M,M,M,M,M,M,M,M,M,M,M,M,82.68,KTMT 252015Z AUTO 25004KT CLR 30/02 A3029 RMK AO2 T03000018 PWINO,M
BAM,2023-07-25 20:15,-116.8743,40.5990,1382.36,95.00,15.80,5.51,260.00,7.00,0.00,30.19,M,10.00,M,CLR,M,M,M,M,M,M,M,M,M,M,M,M,M,M,88.29,KBAM 252015Z AUTO 26007KT 210V270 10SM CLR 35/M09 A3019 RMK AO1,M
10U,2023-07-25 20:15,-116.1876,41.9532,1637.00,87.80,12.20,5.89,240.00,13.00,0.00,30.25,M,10.00,22.00,CLR,M,M,M,M,M,M,M,M,M,M,M,M,M,M,82.93,K10U 252015Z AUTO 24013G22KT 10SM CLR 31/M11 A3025 RMK AO2,M
05U,2023-07-25 20:30,-116.0051,39.6042,1811.23,87.80,35.60,15.70,M,M,0.00,30.29,M,10.00,M,SCT,M,M,M,11000.00,M,M,M,M,M,M,M,M,M,M,84.12,K05U 252030Z AUTO 10SM SCT110 31/02 A3029 RMK A01,M
BVU,2023-07-25 20:35,-114.8611,35.9475,671.00,105.80,44.60,12.84,150.00,6.00,0.00,29.96,M,10.00,M,CLR,M,M,M,M,M,M,M,M,M,M,M,M,M,M,101.53,KBVU 252035Z AUTO 15006KT 10SM CLR 41/07 A2996 RMK AO2 LTG DSNT S AND SW,M
CXP,2023-07-25 20:35,-119.7326,39.1923,1431.00,91.40,19.40,7.19,260.00,11.00,0.00,30.21,M,10.00,M,CLR,M,M,M,M,M,M,M,M,M,M,M,M,M,M,85.86,KCXP 252035Z AUTO 26011KT 220V300 10SM CLR 33/M07 A3021 RMK AO2,M
RTS,2023-07-25 20:35,-119.8764,39.6682,1539.00,89.60,12.20,5.57,240.00,12.00,0.00,30.24,M,10.00,23.00,CLR,M,M,M,M,M,M,M,M,M,M,M,M,M,M,84.23,KRTS 252035Z AUTO 24012G23KT 10SM CLR 32/M11 A3024 RMK AO2,M
MEV,2023-07-25 20:35,-119.7500,38.9963,1441.42,91.40,17.60,6.66,M,5.00,0.00,30.20,M,10.00,13.00,CLR,M,M,M,M,M,M,M,M,M,M,M,M,M,M,85.76,KMEV 252035Z AUTO VRB05G13KT 10SM CLR 33/M08 A3020 RMK AO2,M
HTH,2023-07-25 20:35,-118.6315,38.5448,1282.89,91.40,28.40,10.48,360.00,7.00,0.00,30.14,M,10.00,M,CLR,M,M,M,M,M,M,M,M,M,M,M,M,M,M,86.53,KHTH 252035Z AUTO 36007KT 330V030 10SM CLR 33/M02 A3014 RMK A01,M
TMT,2023-07-25 20:35,-117.1971,39.4643,1749.34,88.00,35.60,15.60,260.00,4.00,0.00,30.28,M,M,M,CLR,M,M,M,M,M,M,M,M,M,M,M,M,M,M,84.29,KTMT 252035Z AUTO 26004KT CLR 31/02 A3028 RMK AO2 T03110020 PWINO,M
BAM,2023-07-25 20:35,-116.8743,40.5990,1382.36,95.00,15.80,5.51,200.00,9.00,0.00,30.19,M,10.00,17.00,CLR,M,M,M,M,M,M,M,M,M,M,M,M,M,M,88.29,KBAM 252035Z AUTO 20009G17KT 10SM CLR 35/M09 A3019 RMK AO1,M
10U,2023-07-25 20:35,-116.1876,41.9532,1637.00,87.80,10.40,5.44,210.00,18.00,0.00,30.25,M,10.00,25.00,CLR,M,M,M,M,M,M,M,M,M,M,M,M,M,M,82.88,K10U 252035Z AUTO 21018G25KT 10SM CLR 31/M12 A3025 RMK AO2,M
05U,2023-07-25 20:50,-116.0051,39.6042,1811.23,93.20,35.60,13.25,M,M,0.00,30.29,M,10.00,M,FEW,M,M,M,11000.00,M,M,M,M,M,M,M,M,M,M,88.76,K05U 252050Z AUTO 10SM FEW110 34/02 A3029 RMK A01,M
P68,2023-07-25 20:53,-116.0056,39.6014,1993.00,91.00,36.00,14.42,M,4.00,0.00,30.26,1015.70,M,14.00,M,M,M,M,M,M,M,M,M,M,M,M,M,M,M,86.83,KP68 252053Z AUTO VRB04G14KT 33/02 A3026 RMK AO1 SLP157 T03280022 56016,M
DRA,2023-07-25 20:53,-116.0278,36.6206,1009.00,105.00,39.00,10.59,210.00,7.00,0.00,30.06,1011.70,10.00,21.00,CLR,M,M,M,M,M,M,M,M,M,M,M,M,M,M,99.39,KDRA 252053Z AUTO 21007G21KT 10SM CLR 41/04 A3006 RMK AO2 SLP117 T04060039 58010,M
ELY,2023-07-25 20:53,-114.8453,39.2950,1909.00,89.00,39.00,17.28,190.00,14.00,0.00,30.30,1014.70,10.00,20.00,CLR,M,M,M,M,M,M,M,M,M,M,M,30.00,240.00,2023-07-25 20:28,85.21,KELY 252053Z AUTO 19014G20KT 10SM CLR 32/04 A3030 RMK AO2 PK WND 24030/2028 SLP147 T03170039 58010,M
VGT,2023-07-25 20:53,-115.1933,36.2111,667.00,110.00,45.00,11.53,M,M,0.00,29.94,1012.00,10.00,M,CLR,M,M,M,M,M,M,M,M,M,M,M,M,M,M,105.45,KVGT 252053Z 10SM CLR 43/07 A2994 RMK AO2 SLP120 T04330072 58022,M
LOL,2023-07-25 20:53,-118.5701,40.0684,1192.43,91.00,20.00,7.47,0.00,0.00,0.00,30.13,1016.30,10.00,M,CLR,M,M,M,M,M,M,M,M,M,M,M,M,M,M,85.60,KLOL 252053Z AUTO 00000KT 10SM CLR 33/M07 A3013 RMK AO2 SLP163 T03281067 58015,M
BVU,2023-07-25 20:55,-114.8611,35.9475,671.00,104.00,48.20,15.52,160.00,19.00,0.00,29.95,M,10.00,M,CLR,M,M,M,M,M,M,M,M,M,M,M,M,M,M,100.65,KBVU 252055Z AUTO 16019KT 10SM CLR 40/09 A2995 RMK AO2,M
CXP,2023-07-25 20:55,-119.7326,39.1923,1431.00,91.40,15.80,6.16,270.00,7.00,0.00,30.21,M,10.00,18.00,CLR,M,M,M,M,M,M,M,M,M,M,M,M,M,M,85.68,KCXP 252055Z AUTO 27007G18KT 240V300 10SM CLR 33/M09 A3021 RMK AO2,M
RNO,2023-07-25 20:55,-119.7711,39.4839,1341.00,96.00,18.00,5.88,250.00,11.00,0.00,30.16,1014.90,10.00,21.00,FEW,M,M,M,14000.00,M,M,M,M,M,M,M,M,M,M,89.24,KRNO 252055Z 25011G21KT 10SM FEW140 36/M08 A3016 RMK AO2 SLP149 T03561078 56016,M
RTS,2023-07-25 20:55,-119.8764,39.6682,1539.00,89.60,12.20,5.57,250.00,16.00,0.00,30.23,M,10.00,22.00,CLR,M,M,M,M,M,M,M,M,M,M,M,M,M,M,84.23,KRTS 252055Z AUTO 25016G22KT 10SM CLR 32/M11 A3023 RMK AO2,M
MEV,2023-07-25 20:55,-119.7500,38.9963,1441.42,93.20,17.60,6.30,M,4.00,0.00,30.19,M,10.00,17.00,CLR,M,M,M,M,M,M,M,M,M,M,M,M,M,M,87.08,KMEV 252055Z AUTO VRB04G17KT 10SM CLR 34/M08 A3019 RMK AO2,M
HTH,2023-07-25 20:55,-118.6315,38.5448,1282.89,93.20,30.20,10.67,M,6.00,0.00,30.14,M,10.00,12.00,CLR,M,M,M,M,M,M,M,M,M,M,M,M,M,M,88.09,KHTH 252055Z AUTO VRB06G12KT 290V350 10SM CLR 34/M01 A3014 RMK A01,M
LSV,2023-07-25 20:55,-115.0343,36.2362,570.00,111.00,42.00,9.98,140.00,4.00,0.00,29.90,M,10.00,M,CLR,M,M,M,M,M,M,M,M,M,M,M,M,M,M,105.50,KLSV 252055Z AUTO 14004KT 10SM CLR 44/06 A2990 RMK AO2 SLPNO T04390055 57022 $,M
BAM,2023-07-25 20:55,-116.8743,40.5990,1382.36,96.80,17.60,5.63,220.00,13.00,0.00,30.18,M,10.00,19.00,CLR,M,M,M,M,M,M,M,M,M,M,M,M,M,M,89.88,KBAM 252055Z AUTO 22013G19KT 10SM CLR 36/M08 A3018 RMK AO1,M
TMT,2023-07-25 20:55,-117.1971,39.4643,1749.34,87.40,35.00,15.53,0.00,0.00,0.00,30.27,M,M,M,SCT,M,M,M,100.00,M,M,M,M,M,M,M,M,M,M,83.79,KTMT 252055Z AUTO 00000KT SCT001 31/02 A3027 RMK AO2 T03080017 PWINO,M
10U,2023-07-25 20:55,-116.1876,41.9532,1637.00,87.80,6.80,4.63,240.00,19.00,0.00,30.24,M,10.00,24.00,CLR,M,M,M,M,M,M,M,M,M,M,M,M,M,M,82.78,K10U 252055Z AUTO 24019G24KT 10SM CLR 31/M14 A3024 RMK AO2,M
INS,2023-07-25 20:55,-115.6733,36.5872,955.00,102.00,35.00,9.89,220.00,4.00,0.00,30.03,1011.00,10.00,M,OVC,M,M,M,17000.00,M,M,M,M,M,M,M,M,M,M,96.03,KINS 252055Z AUTO 22004KT 10SM OVC170 39/02 A3003 RMK AO2 SLP110 T03890017 57017 $,M
EKO,2023-07-25 20:56,-115.7860,40.8242,1367.00,93.00,29.00,10.22,220.00,9.00,0.00,30.22,1016.60,10.00,M,CLR,M,M,M,M,M,M,M,M,M,M,M,M,M,M,87.80,KEKO 252056Z AUTO 22009KT 10SM CLR 34/M02 A3022 RMK AO2 SLP166 T03391017 58015,M
WMC,2023-07-25 20:56,-117.8072,40.9019,1315.00,94.00,13.00,5.03,230.00,8.00,0.00,30.16,1015.60,10.00,21.00,CLR,M,M,M,M,M,M,M,M,M,M,M,26.00,240.00,2023-07-25 20:24,87.44,KWMC 252056Z AUTO 23008G21KT 10SM CLR 34/M11 A3016 RMK AO2 PK WND 24026/2024 SLP156 T03441106 58015,M
NFL,2023-07-25 20:56,-118.7010,39.4166,1199.00,95.00,21.00,6.89,0.00,0.00,0.00,30.13,1016.80,10.00,M,SCT,SCT,M,M,15000.00,20000.00,M,M,M,M,M,M,M,M,M,88.61,KNFL 252056Z 00000KT 10SM SCT150 SCT200 35/M06 A3013 RMK AO2 SLP168 T03501061 58017,M
HND,2023-07-25 20:56,-115.1344,35.9729,742.79,109.00,45.00,11.87,210.00,11.00,0.00,30.00,1013.30,10.00,16.00,CLR,M,M,M,M,M,M,M,M,M,M,M,M,M,M,104.54,KHND 252056Z 21011G16KT 170V240 10SM CLR 43/07 A3000 RMK AO2 SLP133 T04280072 58019,M
TPH,2023-07-25 20:56,-117.0904,38.0505,1654.00,92.00,49.00,23.04,240.00,8.00,0.00,30.23,1015.00,10.00,M,CLR,M,M,M,M,M,M,M,M,M,M,M,M,M,M,88.77,KTPH 252056Z AUTO 24008KT 10SM CLR 33/09 A3023 RMK AO2 SLP150 T03330094 58016 $,M
LAS,2023-07-25 20:56,-115.1634,36.0719,663.00,110.00,40.00,9.51,M,3.00,0.00,29.95,1010.60,10.00,18.00,FEW,FEW,SCT,M,13000.00,16000.00,20000.00,M,M,M,M,M,M,M,M,104.06,KLAS 252056Z VRB03G18KT 10SM FEW130 FEW160 SCT200 43/04 A2995 RMK AO2 SLP106 VIRGA DSNT SE CB DSNT N AND SE T04330044 58020,M
LAS,2023-07-25 21:00,-115.1634,36.0719,663.00,111.00,41.00,9.60,230.00,6.00,0.00,29.95,M,10.00,18.00,FEW,FEW,SCT,M,13000.00,16000.00,20000.00,M,M,M,M,M,M,M,M,105.24,KLAS 252100Z 23006G18KT 10SM FEW130 FEW160 SCT200 44/05 A2995 RMK AO2 VIRGA DSNT E CB DSNT SE T04390050,M
05U,2023-07-25 21:10,-116.0051,39.6042,1811.23,89.60,35.60,14.83,0.00,0.00,0.00,30.28,M,10.00,M,CLR,M,M,M,M,M,M,M,M,M,M,M,M,M,M,85.62,K05U 252110Z AUTO 00000KT 10SM CLR 32/02 A3028 RMK A01,M
BVU,2023-07-25 21:15,-114.8611,35.9475,671.00,104.00,42.80,12.64,130.00,10.00,0.00,29.95,M,10.00,M,CLR,M,M,M,M,M,M,M,M,M,M,M,M,M,M,99.42,KBVU 252115Z AUTO 13010KT 10SM CLR 40/06 A2995 RMK AO2,M
CXP,2023-07-25 21:15,-119.7326,39.1923,1431.00,91.40,14.00,5.69,260.00,12.00,0.00,30.21,M,10.00,19.00,CLR,M,M,M,M,M,M,M,M,M,M,M,M,M,M,85.60,KCXP 252115Z AUTO 26012G19KT 230V290 10SM CLR 33/M10 A3021 RMK AO2,M
RTS,2023-07-25 21:15,-119.8764,39.6682,1539.00,89.60,10.40,5.14,230.00,17.00,0.00,30.22,M,10.00,23.00,CLR,M,M,M,M,M,M,M,M,M,M,M,M,M,M,84.17,KRTS 252115Z AUTO 23017G23KT 10SM CLR 32/M12 A3022 RMK AO2,M
MEV,2023-07-25 21:15,-119.7500,38.9963,1441.42,93.20,17.60,6.30,240.00,10.00,0.00,30.18,M,10.00,17.00,CLR,M,M,M,M,M,M,M,M,M,M,M,M,M,M,87.08,KMEV 252115Z AUTO 24010G17KT 10SM CLR 34/M08 A3018 RMK AO2,M
HTH,2023-07-25 21:15,-118.6315,38.5448,1282.89,95.00,30.20,10.09,M,6.00,0.00,30.12,M,10.00,12.00,CLR,M,M,M,M,M,M,M,M,M,M,M,M,M,M,89.48,KHTH 252115Z AUTO VRB06G12KT 10SM CLR 35/M01 A3012 RMK A01,M
BAM,2023-07-25 21:15,-116.8743,40.5990,1382.36,96.80,19.40,6.09,260.00,13.00,0.00,30.17,M,10.00,M,CLR,M,M,M,M,M,M,M,M,M,M,M,M,M,M,89.99,KBAM 252115Z AUTO 26013KT 10SM CLR 36/M07 A3017 RMK AO1,M
TMT,2023-07-25 21:15,-117.1971,39.4643,1749.34,89.20,37.00,15.87,230.00,7.00,0.00,30.26,M,M,M,CLR,M,M,M,M,M,M,M,M,M,M,M,M,M,M,85.32,KTMT 252115Z AUTO 23007KT CLR 32/03 A3026 RMK AO2 T03180028 PWINO,M
10U,2023-07-25 21:15,-116.1876,41.9532,1637.00,87.80,6.80,4.63,230.00,14.00,0.00,30.23,M,10.00,25.00,CLR,M,M,M,M,M,M,M,M,M,M,M,M,M,M,82.78,K10U 252115Z AUTO 23014G25KT 10SM CLR 31/M14 A3023 RMK AO2,M
05U,2023-07-25 21:30,-116.0051,39.6042,1811.23,87.80,37.40,16.86,M,M,0.00,30.29,M,10.00,M,FEW,FEW,BKN,M,7500.00,9500.00,11000.00,M,M,M,M,M,M,M,M,84.16,K05U 252130Z AUTO 10SM FEW075 FEW095 BKN110 31/03 A3029 RMK A01,M
BVU,2023-07-25 21:35,-114.8611,35.9475,671.00,104.00,46.40,14.50,150.00,16.00,0.00,29.95,M,10.00,21.00,CLR,M,M,M,M,M,M,M,VCTS,M,M,M,M,M,M,100.21,KBVU 252135Z AUTO 15016G21KT 10SM VCTS CLR 40/08 A2995 RMK AO2 LTG DSNT SE AND S,M
CXP,2023-07-25 21:35,-119.7326,39.1923,1431.00,91.40,15.80,6.16,260.00,13.00,0.00,30.20,M,10.00,21.00,CLR,M,M,M,M,M,M,M,M,M,M,M,M,M,M,85.68,KCXP 252135Z AUTO 26013G21KT 10SM CLR 33/M09 A3020 RMK AO2,M
RTS,2023-07-25 21:35,-119.8764,39.6682,1539.00,89.60,8.60,4.74,230.00,15.00,0.00,30.22,M,10.00,M,CLR,M,M,M,M,M,M,M,M,M,M,M,M,M,M,84.12,KRTS 252135Z AUTO 23015KT 10SM CLR 32/M13 A3022 RMK AO2,M
MEV,2023-07-25 21:35,-119.7500,38.9963,1441.42,93.20,15.80,5.82,220.00,13.00,0.00,30.18,M,10.00,19.00,CLR,M,M,M,M,M,M,M,M,M,M,M,M,M,M,86.99,KMEV 252135Z AUTO 22013G19KT 10SM CLR 34/M09 A3018 RMK AO2,M
HTH,2023-07-25 21:35,-118.6315,38.5448,1282.89,95.00,32.00,10.85,M,6.00,0.00,30.12,M,10.00,15.00,CLR,M,M,M,M,M,M,M,M,M,M,M,M,M,M,89.71,KHTH 252135Z AUTO VRB06G15KT 10SM CLR 35/M00 A3012 RMK A01,M
BAM,2023-07-25 21:35,-116.8743,40.5990,1382.36,96.80,19.40,6.09,210.00,15.00,0.00,30.17,M,10.00,22.00,CLR,M,M,M,M,M,M,M,M,M,M,M,M,M,M,89.99,KBAM 252135Z AUTO 21015G22KT 10SM CLR 36/M07 A3017 RMK AO1,M
TMT,2023-07-25 21:35,-117.1971,39.4643,1749.34,89.60,37.80,16.18,210.00,6.00,0.00,30.26,M,M,M,CLR,M,M,M,M,M,M,M,M,M,M,M,M,M,M,85.68,KTMT 252135Z AUTO 21006KT CLR 32/03 A3026 RMK AO2 T03200032 PWINO,M
10U,2023-07-25 21:35,-116.1876,41.9532,1637.00,89.60,8.60,4.74,210.00,15.00,0.00,30.23,M,10.00,24.00,CLR,M,M,M,M,M,M,M,M,M,M,M,M,M,M,84.12,K10U 252135Z AUTO 21015G24KT 10SM CLR 32/M13 A3023 RMK AO2,M
05U,2023-07-25 21:50,-116.0051,39.6042,1811.23,75.20,48.20,38.46,M,M,0.00,30.29,M,8.00,M,FEW,SCT,OVC,M,2700.00,7500.00,11000.00,M,M,M,M,M,M,M,M,75.20,K05U 252150Z AUTO 8SM FEW027 SCT075 OVC110 24/09 A3029 RMK A01,M
P68,2023-07-25 21:53,-116.0056,39.6014,1993.00,76.00,48.00,37.17,20.00,14.00,0.00,30.27,1017.80,M,27.00,M,M,M,M,M,M,M,M,M,M,M,M,27.00,340.00,2023-07-25 21:44,76.00,KP68 252153Z AUTO 02014G27KT 24/09 A3027 RMK AO1 PK WND 34027/2144 WSHFT 2139 SLP178 T02440089,M
DRA,2023-07-25 21:53,-116.0278,36.6206,1009.00,106.00,40.00,10.69,230.00,14.00,0.00,30.04,1011.10,10.00,22.00,CLR,M,M,M,M,M,M,M,M,M,M,M,26.00,220.00,2023-07-25 20:56,100.50,KDRA 252153Z AUTO 23014G22KT 10SM CLR 41/04 A3004 RMK AO2 PK WND 22026/2056 SLP111 T04110044,M
ELY,2023-07-25 21:53,-114.8453,39.2950,1909.00,91.00,36.00,14.42,200.00,16.00,0.00,30.28,1013.90,10.00,23.00,CLR,M,M,M,M,M,M,M,M,M,M,M,M,M,M,86.83,KELY 252153Z AUTO 20016G23KT 10SM CLR 33/02 A3028 RMK AO2 SLP139 T03280022,M
VGT,2023-07-25 21:53,-115.1933,36.2111,667.00,112.00,41.00,9.33,180.00,15.00,0.00,29.92,1011.20,10.00,M,CLR,M,M,M,M,M,M,M,M,M,M,M,M,M,M,106.29,KVGT 252153Z 18015KT 10SM CLR 44/05 A2992 RMK AO2 SLP112 T04440050,M
LOL,2023-07-25 21:53,-118.5701,40.0684,1192.43,94.00,20.00,6.81,200.00,10.00,0.00,30.11,1015.60,10.00,19.00,CLR,M,M,M,M,M,M,M,M,M,M,M,M,M,M,87.81,KLOL 252153Z AUTO 20010G19KT 10SM CLR 34/M07 A3011 RMK AO2 SLP156 T03441067,M
BVU,2023-07-25 21:55,-114.8611,35.9475,671.00,105.80,42.80,11.98,120.00,13.00,0.00,29.94,M,10.00,M,CLR,M,M,M,M,M,M,M,M,M,M,M,M,M,M,101.02,KBVU 252155Z AUTO 12013KT 10SM CLR 41/06 A2994 RMK AO2,M
CXP,2023-07-25 21:55,-119.7326,39.1923,1431.00,91.40,17.60,6.66,250.00,8.00,0.00,30.20,M,10.00,18.00,CLR,M,M,M,M,M,M,M,M,M,M,M,M,M,M,85.76,KCXP 252155Z AUTO 25008G18KT 200V290 10SM CLR 33/M08 A3020 RMK AO2,M
RNO,2023-07-25 21:55,-119.7711,39.4839,1341.00,96.00,20.00,6.40,170.00,11.00,0.00,30.15,1014.90,10.00,21.00,FEW,M,M,M,15000.00,M,M,M,M,M,M,M,M,M,M,89.37,KRNO 252155Z 17011G21KT 10SM FEW150 36/M07 A3015 RMK AO2 SLP149 T03561067,M
RTS,2023-07-25 21:55,-119.8764,39.6682,1539.00,89.60,8.60,4.74,230.00,16.00,0.00,30.22,M,10.00,21.00,CLR,M,M,M,M,M,M,M,M,M,M,M,M,M,M,84.12,KRTS 252155Z AUTO 23016G21KT 10SM CLR 32/M13 A3022 RMK AO2,M
MEV,2023-07-25 21:55,-119.7500,38.9963,1441.42,93.20,17.60,6.30,210.00,10.00,0.00,30.18,M,10.00,20.00,CLR,M,M,M,M,M,M,M,M,M,M,M,M,M,M,87.08,KMEV 252155Z AUTO 21010G20KT 10SM CLR 34/M08 A3018 RMK AO2,M
HTH,2023-07-25 21:55,-118.6315,38.5448,1282.89,95.00,32.00,10.85,330.00,9.00,0.00,30.11,M,10.00,M,CLR,M,M,M,M,M,M,M,M,M,M,M,M,M,M,89.71,KHTH 252155Z AUTO 33009KT 10SM CLR 35/00 A3011 RMK A01,M
TMT,2023-07-25 21:55,-117.1971,39.4643,1749.34,89.00,36.00,15.36,0.00,0.00,0.00,30.25,M,M,M,CLR,M,M,M,M,M,M,M,M,M,M,M,M,M,M,85.12,KTMT 252155Z AUTO 00000KT CLR 32/02 A3025 RMK AO2 LTG DSNT SE T03160023 PWINO,M
BAM,2023-07-25 21:55,-116.8743,40.5990,1382.36,96.80,15.80,5.21,240.00,8.00,0.00,30.16,M,10.00,19.00,CLR,M,M,M,M,M,M,M,M,M,M,M,M,M,M,89.78,KBAM 252155Z AUTO 24008G19KT 10SM CLR 36/M09 A3016 RMK AO1,M
LSV,2023-07-25 21:55,-115.0343,36.2362,570.00,114.00,35.00,6.96,200.00,13.00,0.00,29.87,M,10.00,M,SCT,M,M,M,20000.00,M,M,M,M,M,M,M,M,M,M,106.56,KLSV 252155Z COR 20013KT 10SM SCT200 46/02 A2987 RMK AO2A SLPNO T04560017 $ COR 2204,M
10U,2023-07-25 21:55,-116.1876,41.9532,1637.00,89.60,8.60,4.74,230.00,16.00,0.00,30.23,M,10.00,25.00,CLR,M,M,M,M,M,M,M,M,M,M,M,M,M,M,84.12,K10U 252155Z AUTO 23016G25KT 10SM CLR 32/M13 A3023 RMK AO2,M
INS,2023-07-25 21:55,-115.6733,36.5872,955.00,105.00,28.60,6.99,200.00,9.00,0.00,30.01,1010.40,10.00,17.00,BKN,M,M,M,16000.00,M,M,M,M,M,M,M,M,M,M,97.68,KINS 252155Z AUTO 20009G17KT 10SM BKN160 41/M02 A3001 RMK AO2 SLP104 T04061019 $,M
EKO,2023-07-25 21:56,-115.7860,40.8242,1367.00,94.00,32.00,11.19,230.00,12.00,0.00,30.19,1015.90,10.00,22.00,CLR,M,M,M,M,M,M,M,M,M,M,M,M,M,M,88.93,KEKO 252156Z AUTO 23012G22KT 10SM CLR 34/00 A3019 RMK AO2 SLP159 T03440000,M
WMC,2023-07-25 21:56,-117.8072,40.9019,1315.00,96.00,12.00,4.52,240.00,12.00,0.00,30.14,1014.80,10.00,24.00,CLR,M,M,M,M,M,M,M,M,M,M,M,M,M,M,88.94,KWMC 252156Z AUTO 24012G24KT 10SM CLR 36/M11 A3014 RMK AO2 SLP148 T03561111,M
NFL,2023-07-25 21:56,-118.7010,39.4166,1199.00,97.00,19.00,5.95,290.00,5.00,0.00,30.11,1016.10,10.00,M,FEW,SCT,SCT,M,7000.00,15000.00,22000.00,M,M,M,M,M,M,M,M,90.13,KNFL 252156Z 29005KT 10SM FEW070 SCT150 SCT220 36/M07 A3011 RMK AO2 SLP161 T03611072,M
HND,2023-07-25 21:56,-115.1344,35.9729,742.79,109.00,44.00,11.42,M,4.00,0.00,29.98,1012.70,10.00,16.00,CLR,M,M,M,M,M,M,M,M,M,M,M,M,M,M,104.23,KHND 252156Z VRB04G16KT 10SM CLR 43/07 A2998 RMK AO2 SLP127 T04280067,M
TPH,2023-07-25 21:56,-117.0904,38.0505,1654.00,93.00,51.00,24.06,170.00,9.00,0.00,30.21,1014.20,10.00,25.00,CLR,M,M,M,M,M,M,M,M,M,M,M,M,M,M,90.09,KTPH 252156Z AUTO 17009G25KT 10SM CLR 34/11 A3021 RMK AO2 SLP142 T03390106,M
LAS,2023-07-25 21:56,-115.1634,36.0719,663.00,109.00,41.00,10.18,200.00,7.00,0.00,29.93,1010.00,10.00,M,FEW,FEW,SCT,M,13000.00,16000.00,20000.00,M,M,M,M,M,M,M,M,103.41,KLAS 252156Z 20007KT 10SM FEW130 FEW160 SCT200 43/05 A2993 RMK AO2 SLP100 CB DSNT N AND E-S T04280050,M
LSV,2023-07-25 21:56,-115.0343,36.2362,570.00,114.80,35.60,6.97,280.00,5.00,0.00,29.87,M,10.00,M,CLR,M,M,M,M,M,M,M,M,M,M,M,M,M,M,107.28,KLSV 252156Z 28005KT 10SM CLR 46/02 A2987 RMK SLPNO FZRANO $,M
P68,2023-07-25 21:57,-116.0056,39.6014,1993.00,78.00,47.00,33.50,M,6.00,0.00,30.29,M,M,25.00,M,M,M,M,M,M,M,M,M,M,M,M,M,M,M,78.00,KP68 252157Z AUTO VRB06G25KT 26/08 A3029 RMK AO1 WSHFT 2140 T02560083,M
LSV,2023-07-25 22:00,-115.0343,36.2362,570.00,114.80,35.60,6.97,200.00,13.00,0.00,29.86,M,10.00,M,SCT,M,M,M,20000.00,M,M,M,M,M,M,M,M,M,M,107.28,KLSV 252200Z COR 20013KT 10SM SCT200 46/02 A2986 RMK AO2A WSHFT 2158 SLPNO $ COR 2202,M
05U,2023-07-25 22:10,-116.0051,39.6042,1811.23,80.60,42.80,26.22,M,M,0.00,30.29,M,10.00,M,FEW,M,M,M,11000.00,M,M,M,M,M,M,M,M,M,M,79.30,K05U 252210Z AUTO 10SM FEW110 27/06 A3029 RMK A01,M
INS,2023-07-25 22:10,-115.6733,36.5872,955.00,105.80,28.40,6.77,180.00,16.00,0.00,30.00,1009.90,10.00,19.00,FEW,M,M,M,16000.00,M,M,M,M,M,M,M,M,M,M,98.33,KINS 252210Z AUTO 18016G19KT 10SM FEW160 41/M02 A3000 RMK AO2 WSHFT 05 SLP099 $,M
BVU,2023-07-25 22:15,-114.8611,35.9475,671.00,105.80,41.00,11.18,M,6.00,0.00,29.93,M,10.00,12.00,CLR,M,M,M,M,M,M,M,M,M,M,M,M,M,M,100.56,KBVU 252215Z AUTO VRB06G12KT 10SM CLR 41/05 A2993 RMK AO2 LTG DSNT E,M
CXP,2023-07-25 22:15,-119.7326,39.1923,1431.00,93.20,17.60,6.30,250.00,10.00,0.00,30.20,M,10.00,18.00,CLR,M,M,M,M,M,M,M,M,M,M,M,M,M,M,87.08,KCXP 252215Z AUTO 25010G18KT 10SM CLR 34/M08 A3020 RMK AO2,M
RTS,2023-07-25 22:15,-119.8764,39.6682,1539.00,89.60,10.40,5.14,230.00,17.00,0.00,30.22,M,10.00,M,CLR,M,M,M,M,M,M,M,M,M,M,M,M,M,M,84.17,KRTS 252215Z AUTO 23017KT 10SM CLR 32/M12 A3022 RMK AO2,M
MEV,2023-07-25 22:15,-119.7500,38.9963,1441.42,93.20,21.20,7.34,260.00,9.00,0.00,30.18,M,10.00,18.00,CLR,M,M,M,M,M,M,M,M,M,M,M,M,M,M,87.29,KMEV 252215Z AUTO 26009G18KT 10SM CLR 34/M06 A3018 RMK AO2,M
HTH,2023-07-25 22:15,-118.6315,38.5448,1282.89,95.00,33.80,11.67,330.00,10.00,0.00,30.10,M,10.00,M,CLR,M,M,M,M,M,M,M,M,M,M,M,M,M,M,89.97,KHTH 252215Z AUTO 33010KT 10SM CLR 35/01 A3010 RMK A01,M
BAM,2023-07-25 22:15,-116.8743,40.5990,1382.36,96.80,17.60,5.63,240.00,14.00,0.00,30.16,M,10.00,19.00,CLR,M,M,M,M,M,M,M,M,M,M,M,M,M,M,89.88,KBAM 252215Z AUTO 24014G19KT 10SM CLR 36/M08 A3016 RMK AO1,M
TMT,2023-07-25 22:15,-117.1971,39.4643,1749.34,91.20,37.20,15.02,260.00,10.00,0.00,30.25,M,M,19.00,CLR,M,M,M,M,M,M,M,M,M,M,M,M,M,M,87.05,KTMT 252215Z AUTO 26010G19KT CLR 33/03 A3025 RMK AO2 LTG DSNT SE T03290029 PWINO,M
10U,2023-07-25 22:15,-116.1876,41.9532,1637.00,87.80,8.60,5.02,250.00,18.00,0.00,30.22,M,10.00,29.00,CLR,M,M,M,M,M,M,M,M,M,M,M,M,M,M,82.82,K10U 252215Z AUTO 25018G29KT 10SM CLR 31/M13 A3022 RMK AO2,M
05U,2023-07-25 22:30,-116.0051,39.6042,1811.23,80.60,48.20,32.18,M,M,0.00,30.28,M,10.00,M,CLR,M,M,M,M,M,M,M,M,M,M,M,M,M,M,79.71,K05U 252230Z AUTO 10SM CLR 27/09 A3028 RMK A01,M
LSV,2023-07-25 22:34,-115.0343,36.2362,570.00,113.00,44.60,10.41,160.00,12.00,0.00,29.85,M,10.00,21.00,SCT,M,M,M,16000.00,M,M,M,M,M,M,M,M,M,M,108.13,KLSV 252234Z AUTO 16012G21KT 10SM SCT160 45/07 A2985 RMK AO2 WSHFT 28 SLPNO $,M
BVU,2023-07-25 22:35,-114.8611,35.9475,671.00,105.80,41.00,11.18,110.00,4.00,0.00,29.92,M,10.00,M,CLR,M,M,M,M,M,M,M,M,M,M,M,M,M,M,100.56,KBVU 252235Z AUTO 11004KT 10SM CLR 41/05 A2992 RMK AO2,M
CXP,2023-07-25 22:35,-119.7326,39.1923,1431.00,91.40,21.20,7.77,230.00,10.00,0.00,30.19,M,10.00,16.00,CLR,M,M,M,M,M,M,M,M,M,M,M,M,M,M,85.96,KCXP 252235Z AUTO 23010G16KT 200V280 10SM CLR 33/M06 A3019 RMK AO2,M
RTS,2023-07-25 22:35,-119.8764,39.6682,1539.00,89.60,8.60,4.74,220.00,15.00,0.00,30.22,M,10.00,M,CLR,M,M,M,M,M,M,M,M,M,M,M,M,M,M,84.12,KRTS 252235Z AUTO 22015KT 10SM CLR 32/M13 A3022 RMK AO2,M
MEV,2023-07-25 22:35,-119.7500,38.9963,1441.42,93.20,23.00,7.92,260.00,8.00,0.00,30.17,M,10.00,M,CLR,M,M,M,M,M,M,M,M,M,M,M,M,M,M,87.42,KMEV 252235Z AUTO 26008KT 10SM CLR 34/M05 A3017 RMK AO2,M
HTH,2023-07-25 22:35,-118.6315,38.5448,1282.89,95.00,30.20,10.09,340.00,11.00,0.00,30.10,M,10.00,M,CLR,M,M,M,M,M,M,M,M,M,M,M,M,M,M,89.48,KHTH 252235Z AUTO 34011KT 10SM CLR 35/M01 A3010 RMK A01,M
BAM,2023-07-25 22:35,-116.8743,40.5990,1382.36,96.80,19.40,6.09,260.00,12.00,0.00,30.15,M,10.00,15.00,CLR,M,M,M,M,M,M,M,M,M,M,M,M,M,M,89.99,KBAM 252235Z AUTO 26012G15KT 10SM CLR 36/M07 A3015 RMK AO1,M
10U,2023-07-25 22:35,-116.1876,41.9532,1637.00,89.60,8.60,4.74,230.00,19.00,0.00,30.22,M,10.00,M,CLR,M,M,M,M,M,M,M,M,M,M,M,M,M,M,84.12,K10U 252235Z AUTO 23019KT 10SM CLR 32/M13 A3022 RMK AO2,M
05U,2023-07-25 22:50,-116.0051,39.6042,1811.23,78.80,51.80,39.02,M,M,0.00,30.29,M,10.00,M,SCT,M,M,M,11000.00,M,M,M,M,M,M,M,M,M,M,78.80,K05U 252250Z AUTO 10SM SCT110 26/11 A3029 RMK A01,M
INS,2023-07-25 22:51,-115.6733,36.5872,955.00,105.80,30.20,7.29,250.00,10.00,0.00,29.99,1009.70,10.00,21.00,SCT,M,M,M,15000.00,M,M,M,M,M,M,M,M,M,M,98.56,KINS 252251Z AUTO 25010G21KT 10SM SCT150 41/M01 A2999 RMK AO2 WSHFT 45 SLP097 $,M
P68,2023-07-25 22:53,-116.0056,39.6014,1993.00,78.00,53.00,41.88,140.00,3.00,0.00,30.26,1017.50,M,M,M,M,M,M,M,M,M,M,M,M,M,M,M,M,M,78.00,KP68 252253Z AUTO 14003KT 26/12 A3026 RMK AO1 WSHFT 2140 SLP175 T02560117,M
DRA,2023-07-25 22:53,-116.0278,36.6206,1009.00,106.00,39.00,10.28,200.00,11.00,0.00,30.02,1010.30,10.00,23.00,CLR,M,M,M,M,M,M,M,M,M,M,M,29.00,240.00,2023-07-25 21:55,100.27,KDRA 252253Z AUTO 20011G23KT 10SM CLR 41/04 A3002 RMK AO2 PK WND 24029/2155 SLP103 T04110039,M
ELY,2023-07-25 22:53,-114.8453,39.2950,1909.00,91.00,32.00,12.29,210.00,18.00,0.00,30.26,1013.70,10.00,27.00,CLR,M,M,M,M,M,M,M,M,M,M,M,27.00,210.00,2023-07-25 22:50,86.61,KELY 252253Z AUTO 21018G27KT 10SM CLR 33/00 A3026 RMK AO2 PK WND 21027/2250 SLP137 T03280000,M
VGT,2023-07-25 22:53,-115.1933,36.2111,667.00,111.00,41.00,9.60,180.00,11.00,0.00,29.90,1010.50,10.00,15.00,CLR,M,M,M,M,M,M,M,M,M,M,M,M,M,M,105.24,KVGT 252253Z 18011G15KT 10SM CLR 44/05 A2990 RMK AO2 SLP105 T04390050,M
LOL,2023-07-25 22:53,-118.5701,40.0684,1192.43,95.00,22.00,7.18,190.00,11.00,0.00,30.08,1014.60,10.00,21.00,CLR,M,M,M,M,M,M,M,M,M,M,M,M,M,M,88.68,KLOL 252253Z AUTO 19011G21KT 10SM CLR 35/M06 A3008 RMK AO2 SLP146 T03501056,M
BVU,2023-07-25 22:55,-114.8611,35.9475,671.00,105.80,39.20,10.43,160.00,13.00,0.00,29.91,M,10.00,22.00,CLR,M,M,M,M,M,M,M,M,M,M,M,M,M,M,100.14,KBVU 252255Z AUTO 16013G22KT 130V190 10SM CLR 41/04 A2991 RMK AO2,M
CXP,2023-07-25 22:55,-119.7326,39.1923,1431.00,91.40,21.20,7.77,250.00,12.00,0.00,30.19,M,10.00,M,CLR,M,M,M,M,M,M,M,M,M,M,M,M,M,M,85.96,KCXP 252255Z AUTO 25012KT 10SM CLR 33/M06 A3019 RMK AO2,M
RNO,2023-07-25 22:55,-119.7711,39.4839,1341.00,96.00,16.00,5.39,240.00,14.00,0.00,30.14,1014.60,10.00,19.00,FEW,M,M,M,15000.00,M,M,M,M,M,M,M,M,M,M,89.13,KRNO 252255Z 24014G19KT 10SM FEW150 36/M09 A3014 RMK AO2 SLP146 T03561089,M
RTS,2023-07-25 22:55,-119.8764,39.6682,1539.00,89.60,10.40,5.14,240.00,9.00,0.00,30.21,M,10.00,20.00,CLR,M,M,M,M,M,M,M,M,M,M,M,M,M,M,84.17,KRTS 252255Z AUTO 24009G20KT 10SM CLR 32/M12 A3021 RMK AO2,M
MEV,2023-07-25 22:55,-119.7500,38.9963,1441.42,93.20,23.00,7.92,240.00,5.00,0.00,30.17,M,10.00,M,CLR,M,M,M,M,M,M,M,M,M,M,M,M,M,M,87.42,KMEV 252255Z AUTO 24005KT 10SM CLR 34/M05 A3017 RMK AO2,M
HTH,2023-07-25 22:55,-118.6315,38.5448,1282.89,95.00,30.20,10.09,330.00,9.00,0.00,30.09,M,10.00,M,CLR,M,M,M,M,M,M,M,M,M,M,M,M,M,M,89.48,KHTH 252255Z AUTO 33009KT 10SM CLR 35/M01 A3009 RMK A01,M
TMT,2023-07-25 22:55,-117.1971,39.4643,1749.34,89.40,36.00,15.16,250.00,13.00,0.00,30.24,M,M,19.00,CLR,M,M,M,M,M,M,M,M,M,M,M,M,M,M,85.46,KTMT 252255Z AUTO 25013G19KT CLR 32/02 A3024 RMK AO2 LTG DSNT SE T03190023 PWINO,M
LSV,2023-07-25 22:55,-115.0343,36.2362,570.00,111.20,42.00,9.92,110.00,9.00,0.00,29.84,1007.30,10.00,M,FEW,M,M,M,16000.00,M,M,M,M,M,M,M,M,M,M,105.69,KLSV 252255Z AUTO 11009KT 10SM FEW160 44/06 A2984 RMK AO2 SLP073 T04400056 $,M
BAM,2023-07-25 22:55,-116.8743,40.5990,1382.36,96.80,15.80,5.21,270.00,14.00,0.00,30.14,M,10.00,22.00,CLR,M,M,M,M,M,M,M,M,M,M,M,M,M,M,89.78,KBAM 252255Z AUTO 27014G22KT 10SM CLR 36/M09 A3014 RMK AO1,M
10U,2023-07-25 22:55,-116.1876,41.9532,1637.00,89.60,10.40,5.14,240.00,17.00,0.00,30.21,M,10.00,28.00,CLR,M,M,M,M,M,M,M,M,M,M,M,M,M,M,84.17,K10U 252255Z AUTO 24017G28KT 10SM CLR 32/M12 A3021 RMK AO2,M
INS,2023-07-25 22:55,-115.6733,36.5872,955.00,105.80,32.40,7.96,250.00,10.00,0.00,29.99,1009.50,10.00,20.00,SCT,M,M,M,15000.00,M,M,M,M,M,M,M,M,M,M,98.88,KINS 252255Z AUTO 25010G20KT 10SM SCT150 41/00 A2999 RMK AO2 SLP095 T04100002 $,M
EKO,2023-07-25 22:56,-115.7860,40.8242,1367.00,93.00,26.00,9.04,260.00,12.00,0.00,30.17,1015.40,10.00,17.00,CLR,M,M,M,M,M,M,M,M,M,M,M,M,M,M,87.51,KEKO 252256Z AUTO 26012G17KT 10SM CLR 34/M03 A3017 RMK AO2 SLP154 T03391033,M
WMC,2023-07-25 22:56,-117.8072,40.9019,1315.00,96.00,11.00,4.33,200.00,9.00,0.00,30.11,1014.30,10.00,21.00,CLR,M,M,M,M,M,M,M,M,M,M,M,26.00,270.00,2023-07-25 22:18,88.90,KWMC 252256Z AUTO 20009G21KT 10SM CLR 36/M12 A3011 RMK AO2 PK WND 27026/2218 SLP143 T03561117,M
NFL,2023-07-25 22:56,-118.7010,39.4166,1199.00,98.00,25.00,7.43,350.00,9.00,0.00,30.08,1015.40,10.00,M,SCT,SCT,SCT,M,7000.00,15000.00,22000.00,M,M,M,M,M,M,M,M,91.42,KNFL 252256Z 35009KT 10SM SCT070 SCT150 SCT220 37/M04 A3008 RMK AO2 SLP154 T03671039,M
HND,2023-07-25 22:56,-115.1344,35.9729,742.79,108.00,46.00,12.69,130.00,8.00,0.00,29.95,1011.80,10.00,M,CLR,M,M,M,M,M,M,M,M,M,M,M,M,M,M,103.95,KHND 252256Z 13008KT 10SM CLR 42/08 A2995 RMK AO2 SLP118 T04220078,M
TPH,2023-07-25 22:56,-117.0904,38.0505,1654.00,93.00,50.00,23.18,200.00,8.00,0.00,30.20,1014.10,10.00,M,CLR,M,M,M,M,M,M,M,M,M,M,M,M,M,M,89.90,KTPH 252256Z AUTO 20008KT 10SM CLR 34/10 A3020 RMK AO2 SLP141 T03390100,M
LAS,2023-07-25 22:56,-115.1634,36.0719,663.00,109.00,40.00,9.79,M,3.00,0.00,29.90,1009.10,10.00,M,FEW,FEW,SCT,M,13000.00,16000.00,20000.00,M,M,M,M,M,M,M,M,103.16,KLAS 252256Z VRB03KT 10SM FEW130 FEW160 SCT200 43/04 A2990 RMK AO2 SLP091 CB DSNT N AND E-S T04280044,M
05U,2023-07-25 23:10,-116.0051,39.6042,1811.23,78.80,41.00,25.95,M,M,0.00,30.28,M,7.00,M,FEW,FEW,SCT,M,2800.00,6000.00,12000.00,M,M,M,M,M,M,M,M,78.80,K05U 252310Z AUTO 7SM FEW028 FEW060 SCT120 26/05 A3028 RMK A01,M
BVU,2023-07-25 23:15,-114.8611,35.9475,671.00,109.40,37.40,8.74,220.00,6.00,0.00,29.91,M,10.00,25.00,CLR,M,M,M,M,M,M,M,M,M,M,M,M,M,M,102.93,KBVU 252315Z AUTO 22006G25KT 10SM CLR 43/03 A2991 RMK AO2,M
CXP,2023-07-25 23:15,-119.7326,39.1923,1431.00,91.40,23.00,8.38,240.00,10.00,0.00,30.18,M,10.00,17.00,CLR,M,M,M,M,M,M,M,M,M,M,M,M,M,M,86.08,KCXP 252315Z AUTO 24010G17KT 10SM CLR 33/M05 A3018 RMK AO2,M
RTS,2023-07-25 23:15,-119.8764,39.6682,1539.00,89.60,12.20,5.57,240.00,14.00,0.00,30.21,M,10.00,M,CLR,M,M,M,M,M,M,M,M,M,M,M,M,M,M,84.23,KRTS 252315Z AUTO 24014KT 10SM CLR 32/M11 A3021 RMK AO2,M
MEV,2023-07-25 23:15,-119.7500,38.9963,1441.42,93.20,24.80,8.54,270.00,11.00,0.00,30.16,M,10.00,18.00,CLR,M,M,M,M,M,M,M,M,M,M,M,M,M,M,87.56,KMEV 252315Z AUTO 27011G18KT 10SM CLR 34/M04 A3016 RMK AO2,M
HTH,2023-07-25 23:15,-118.6315,38.5448,1282.89,95.00,28.40,9.38,320.00,12.00,0.00,30.08,M,10.00,M,CLR,M,M,M,M,M,M,M,M,M,M,M,M,M,M,89.27,KHTH 252315Z AUTO 32012KT 10SM CLR 35/M02 A3008 RMK A01,M
TMT,2023-07-25 23:15,-117.1971,39.4643,1749.34,88.30,35.00,15.09,260.00,9.00,0.00,30.23,M,M,M,CLR,M,M,M,M,M,M,M,M,M,M,M,M,M,M,84.52,KTMT 252315Z AUTO 26009KT CLR 31/02 A3023 RMK AO2 T03130017 PWINO,M
BAM,2023-07-25 23:15,-116.8743,40.5990,1382.36,96.80,15.80,5.21,270.00,13.00,0.00,30.13,M,10.00,17.00,CLR,M,M,M,M,M,M,M,M,M,M,M,M,M,M,89.78,KBAM 252315Z AUTO 27013G17KT 10SM CLR 36/M09 A3013 RMK AO1,M
10U,2023-07-25 23:15,-116.1876,41.9532,1637.00,89.60,10.40,5.14,240.00,14.00,0.00,30.21,M,10.00,25.00,CLR,M,M,M,M,M,M,M,M,M,M,M,M,M,M,84.17,K10U 252315Z AUTO 24014G25KT 10SM CLR 32/M12 A3021 RMK AO2,M
INS,2023-07-25 23:25,-115.6733,36.5872,955.00,105.80,32.00,7.84,210.00,18.00,0.00,29.98,1009.30,10.00,28.00,SCT,M,M,M,15000.00,M,M,M,M,M,M,M,M,M,M,98.82,KINS 252325Z AUTO 21018G28KT 10SM SCT150 41/00 A2998 RMK AO2 WSHFT 14 SLP093 $,M
05U,2023-07-25 23:30,-116.0051,39.6042,1811.23,80.60,44.60,28.08,M,M,0.00,30.28,M,10.00,M,FEW,FEW,M,M,9000.00,12000.00,M,M,M,M,M,M,M,M,M,79.42,K05U 252330Z AUTO 10SM FEW090 FEW120 27/07 A3028 RMK A01,M
BVU,2023-07-25 23:35,-114.8611,35.9475,671.00,107.60,41.00,10.60,170.00,6.00,0.00,29.90,M,10.00,14.00,CLR,M,M,M,M,M,M,M,M,M,M,M,M,M,M,102.16,KBVU 252335Z AUTO 17006G14KT 10SM CLR 42/05 A2990 RMK AO2,M
CXP,2023-07-25 23:35,-119.7326,39.1923,1431.00,91.40,26.60,9.74,250.00,10.00,0.00,30.18,M,10.00,19.00,CLR,M,M,M,M,M,M,M,M,M,M,M,M,M,M,86.36,KCXP 252335Z AUTO 25010G19KT 220V280 10SM CLR 33/M03 A3018 RMK AO2,M
RTS,2023-07-25 23:35,-119.8764,39.6682,1539.00,89.60,10.40,5.14,220.00,15.00,0.00,30.21,M,10.00,22.00,CLR,M,M,M,M,M,M,M,M,M,M,M,M,M,M,84.17,KRTS 252335Z AUTO 22015G22KT 10SM CLR 32/M12 A3021 RMK AO2,M
MEV,2023-07-25 23:35,-119.7500,38.9963,1441.42,93.20,24.80,8.54,260.00,15.00,0.00,30.16,M,10.00,M,CLR,M,M,M,M,M,M,M,M,M,M,M,M,M,M,87.56,KMEV 252335Z AUTO 26015KT 10SM CLR 34/M04 A3016 RMK AO2,M
HTH,2023-07-25 23:35,-118.6315,38.5448,1282.89,95.00,26.60,8.71,320.00,10.00,0.00,30.08,M,10.00,M,CLR,M,M,M,M,M,M,M,M,M,M,M,M,M,M,89.08,KHTH 252335Z AUTO 32010KT 10SM CLR 35/M03 A3008 RMK A01,M
INS,2023-07-25 23:35,-115.6733,36.5872,955.00,105.80,28.40,6.77,230.00,15.00,0.00,29.97,1009.00,10.00,25.00,FEW,M,M,M,15000.00,M,M,M,M,M,M,M,M,M,M,98.33,KINS 252335Z AUTO 23015G25KT 10SM FEW150 41/M02 A2997 RMK AO2 WSHFT 28 SLP090 $,M
BAM,2023-07-25 23:35,-116.8743,40.5990,1382.36,96.80,19.40,6.09,240.00,10.00,0.00,30.13,M,10.00,15.00,CLR,M,M,M,M,M,M,M,M,M,M,M,M,M,M,89.99,KBAM 252335Z AUTO 24010G15KT 10SM CLR 36/M07 A3013 RMK AO1,M
TMT,2023-07-25 23:35,-117.1971,39.4643,1749.34,88.00,36.00,15.85,260.00,10.00,0.00,30.23,M,M,M,CLR,M,M,M,M,M,M,M,M,M,M,M,M,M,M,84.29,KTMT 252335Z AUTO 26010KT CLR 31/02 A3023 RMK AO2 T03120023 PWINO,M
05U,2023-07-25 23:50,-116.0051,39.6042,1811.23,80.60,46.40,30.07,M,M,0.00,30.27,M,10.00,M,CLR,M,M,M,M,M,M,M,M,M,M,M,M,M,M,79.56,K05U 252350Z AUTO 10SM CLR 27/08 A3027 RMK A01,M
P68,2023-07-25 23:53,-116.0056,39.6014,1993.00,80.00,45.00,29.08,100.00,5.00,0.00,30.24,1016.00,M,M,M,M,M,M,M,M,M,M,M,M,M,M,M,M,M,79.13,KP68 252353Z AUTO 10005KT 27/07 A3024 RMK AO1 SLP160 T02670072 10333 20239 58005,M
DRA,2023-07-25 23:53,-116.0278,36.6206,1009.00,105.00,39.00,10.59,270.00,6.00,0.00,30.00,1009.80,10.00,23.00,CLR,M,M,M,M,M,M,M,M,M,M,M,26.00,240.00,2023-07-25 23:37,99.39,KDRA 252353Z AUTO 27006G23KT 10SM CLR 41/04 A3000 RMK AO2 PK WND 24026/2337 SLP098 T04060039 10417 20383 56020,M
ELY,2023-07-25 23:53,-114.8453,39.2950,1909.00,90.00,35.00,14.30,210.00,15.00,0.00,30.24,1013.30,10.00,21.00,CLR,M,M,M,M,M,M,M,M,M,M,M,27.00,190.00,2023-07-25 23:18,85.95,KELY 252353Z AUTO 21015G21KT 10SM CLR 32/02 A3024 RMK AO2 PK WND 19027/2318 LTG DSNT E-SW SLP133 T03220017 10339 20289 56016,M
VGT,2023-07-25 23:53,-115.1933,36.2111,667.00,110.00,45.00,11.53,190.00,7.00,0.00,29.88,1010.00,10.00,16.00,CLR,M,M,M,M,M,M,M,M,M,M,M,M,M,M,105.45,KVGT 252353Z 19007G16KT 10SM CLR 43/07 A2988 RMK AO2 SLP100 T04330072 10450 20400 56020,M
LOL,2023-07-25 23:53,-118.5701,40.0684,1192.43,96.00,22.00,6.97,190.00,9.00,0.00,30.06,1014.20,10.00,M,CLR,M,M,M,M,M,M,M,M,M,M,M,M,M,M,89.51,KLOL 252353Z AUTO 19009KT 10SM CLR 36/M06 A3006 RMK AO2 SLP142 T03561056 10361 20289 58021,M
BVU,2023-07-25 23:55,-114.8611,35.9475,671.00,107.60,41.00,10.60,M,3.00,0.00,29.89,M,10.00,M,CLR,M,M,M,M,M,M,M,M,M,M,M,M,M,M,102.16,KBVU 252355Z AUTO VRB03KT 10SM CLR 42/05 A2989 RMK AO2,M
CXP,2023-07-25 23:55,-119.7326,39.1923,1431.00,91.40,24.80,9.04,270.00,15.00,0.00,30.18,M,10.00,23.00,CLR,M,M,M,M,M,M,M,M,M,M,M,M,M,M,86.21,KCXP 252355Z AUTO 27015G23KT 10SM CLR 33/M04 A3018 RMK AO2,M
RNO,2023-07-25 23:55,-119.7711,39.4839,1341.00,95.00,14.00,5.09,270.00,12.00,0.00,30.13,1014.20,10.00,22.00,FEW,M,M,M,15000.00,M,M,M,M,M,M,M,M,M,M,88.20,KRNO 252355Z 27012G22KT 10SM FEW150 35/M10 A3013 RMK AO2 SLP142 T03501100 10361 20289 58008,M
RTS,2023-07-25 23:55,-119.8764,39.6682,1539.00,89.60,12.20,5.57,240.00,10.00,0.00,30.21,M,10.00,19.00,CLR,M,M,M,M,M,M,M,M,M,M,M,M,M,M,84.23,KRTS 252355Z AUTO 24010G19KT 10SM CLR 32/M11 A3021 RMK AO2,M
MEV,2023-07-25 23:55,-119.7500,38.9963,1441.42,91.40,23.00,8.38,280.00,13.00,0.00,30.16,M,10.00,20.00,CLR,M,M,M,M,M,M,M,M,M,M,M,M,M,M,86.08,KMEV 252355Z AUTO 28013G20KT 10SM CLR 33/M05 A3016 RMK AO2,M
HTH,2023-07-25 23:55,-118.6315,38.5448,1282.89,95.00,26.60,8.71,310.00,10.00,0.00,30.07,M,10.00,M,CLR,M,M,M,M,M,M,M,M,M,M,M,M,M,M,89.08,KHTH 252355Z AUTO 31010KT 10SM CLR 35/M03 A3007 RMK A01,M
TMT,2023-07-25 23:55,-117.1971,39.4643,1749.34,88.00,38.00,17.15,290.00,8.00,0.00,30.22,M,M,M,CLR,M,M,M,M,M,M,M,M,M,M,M,M,M,M,84.35,KTMT 252355Z AUTO 29008KT CLR 31/03 A3022 RMK AO2 LTG DSNT SE T03110034 10332 20263 PWINO,M
BAM,2023-07-25 23:55,-116.8743,40.5990,1382.36,96.80,19.40,6.09,280.00,13.00,0.00,30.12,M,10.00,17.00,CLR,M,M,M,M,M,M,M,M,M,M,M,M,M,M,89.99,KBAM 252355Z AUTO 28013G17KT 230V290 10SM CLR 36/M07 A3012 RMK AO1,M
10U,2023-07-25 23:55,-116.1876,41.9532,1637.00,89.60,10.40,5.14,250.00,15.00,0.00,30.20,M,10.00,22.00,CLR,M,M,M,M,M,M,M,M,M,M,M,M,M,M,84.17,K10U 252355Z AUTO 25015G22KT 10SM CLR 32/M12 A3020 RMK AO2,M
INS,2023-07-25 23:55,-115.6733,36.5872,955.00,105.30,28.80,6.98,220.00,18.00,0.00,29.97,1009.10,10.00,22.00,CLR,M,M,M,M,M,M,M,M,M,M,M,28.00,240.00,2023-07-25 23:22,97.95,KINS 252355Z AUTO 22018G22KT 10SM CLR 41/M02 A2997 RMK AO2 PK WND 24028/22 SLP091 T04071018 10413 20373 57020 $,M
LSV,2023-07-25 23:55,-115.0343,36.2362,570.00,111.00,39.00,8.89,160.00,6.00,0.00,29.83,M,10.00,M,CLR,M,M,M,M,M,M,M,M,M,M,M,M,M,M,104.75,KLSV 252355Z AUTO 16006KT 10SM CLR 44/04 A2983 RMK AO2 SLPNO T04380039 10465 20427 57023 $,M
EKO,2023-07-25 23:56,-115.7860,40.8242,1367.00,94.00,22.00,7.41,260.00,11.00,0.00,30.16,1015.30,10.00,17.00,CLR,M,M,M,M,M,M,M,M,M,M,M,M,M,M,87.94,KEKO 252356Z AUTO 26011G17KT 10SM CLR 34/M06 A3016 RMK AO2 SLP153 T03441056 10356 20289 56017,M
WMC,2023-07-25 23:56,-117.8072,40.9019,1315.00,97.00,11.00,4.20,270.00,14.00,0.00,30.10,1014.30,10.00,23.00,CLR,M,M,M,M,M,M,M,M,M,M,M,26.00,250.00,2023-07-25 23:32,89.73,KWMC 252356Z AUTO 27014G23KT 10SM CLR 36/M12 A3010 RMK AO2 PK WND 25026/2332 SLP143 T03611117 10367 20300 56017,M
NFL,2023-07-25 23:56,-118.7010,39.4166,1199.00,98.00,25.00,7.43,10.00,7.00,0.00,30.06,1014.80,10.00,M,SCT,SCT,SCT,M,7000.00,15000.00,22000.00,M,M,M,M,M,M,M,M,91.42,KNFL 252356Z 01007KT 340V040 10SM SCT070 SCT150 SCT220 37/M04 A3006 RMK AO2 SLP148 T03671039 10372 20294 57020,M
HND,2023-07-25 23:56,-115.1344,35.9729,742.79,110.00,41.00,9.89,270.00,7.00,0.00,29.93,1011.20,10.00,14.00,CLR,M,M,M,M,M,M,M,M,M,M,M,M,M,M,104.31,KHND 252356Z 27007G14KT 10SM CLR 43/05 A2993 RMK AO2 SLP112 T04330050 10444 20394 58021,M
TPH,2023-07-25 23:56,-117.0904,38.0505,1654.00,95.00,52.00,23.47,190.00,18.00,0.00,30.18,1013.10,10.00,24.00,CLR,M,M,M,M,M,M,M,M,M,M,M,M,M,M,92.31,KTPH 252356Z AUTO 19018G24KT 10SM CLR 35/11 A3018 RMK AO2 SLP131 T03500111 10356 20289 56017,M
LAS,2023-07-25 23:56,-115.1634,36.0719,663.00,110.00,37.00,8.46,210.00,8.00,0.00,29.88,1008.30,10.00,18.00,FEW,FEW,SCT,M,13000.00,16000.00,20000.00,M,M,M,M,M,M,M,M,103.39,KLAS 252356Z 21008G18KT 10SM FEW130 FEW160 SCT200 43/03 A2988 RMK AO2 SLP083 CB DSNT NE-SE T04330028 10444 20389 58023,M
