station,valid,lon,lat,elevation,tmpf,dwpf,relh,drct,sknt,p01i,alti,mslp,vsby,gust,skyc1,skyc2,skyc3,skyc4,skyl1,skyl2,skyl3,skyl4,wxcodes,ice_accretion_1hr,ice_accretion_3hr,ice_accretion_6hr,peak_wind_gust,peak_wind_drct,peak_wind_time,feel,metar,snowdepth
INS,2023-08-18 00:03,-115.6733,36.5872,955.00,100.40,28.40,7.95,210.00,12.00,0.00,29.85,1005.30,10.00,17.00,BKN,M,M,M,13000.00,M,M,M,M,M,M,M,M,M,M,93.77,KINS 180003Z AUTO 21012G17KT 10SM BKN130 38/M02 A2985 RMK AO2 WSHFT 2350 SLP053 $,M
05U,2023-08-18 00:10,-116.0051,39.6042,1811.23,86.00,46.40,25.26,M,M,0.00,30.12,M,10.00,M,M,M,M,M,M,M,M,M,M,M,M,M,M,M,M,83.22,K05U 180010Z AUTO 10SM 30/08 A3012 RMK A01,M
BVU,2023-08-18 00:15,-114.8611,35.9475,671.00,104.00,46.40,14.50,120.00,10.00,0.00,29.78,M,10.00,M,CLR,M,M,M,M,M,M,M,M,M,M,M,M,M,M,100.21,KBVU 180015Z AUTO 12010KT 10SM CLR 40/08 A2978 RMK AO2,M
CXP,2023-08-18 00:15,-119.7326,39.1923,1431.00,80.60,53.60,39.30,150.00,4.00,0.00,30.04,M,10.00,M,CLR,M,M,M,M,M,M,M,M,M,M,M,M,M,M,80.29,KCXP 180015Z AUTO 15004KT 10SM CLR 27/12 A3004 RMK AO2 LTG DSNT NE-SE,M
RTS,2023-08-18 00:15,-119.8764,39.6682,1539.00,86.00,39.20,19.15,230.00,10.00,0.00,30.03,M,10.00,17.00,FEW,M,M,M,10000.00,M,M,M,M,M,M,M,M,M,M,82.79,KRTS 180015Z AUTO 23010G17KT 10SM FEW100 30/04 A3003 RMK AO2,M
MEV,2023-08-18 00:15,-119.7500,38.9963,1441.42,82.40,48.20,30.35,M,5.00,0.00,30.03,M,10.00,M,FEW,M,M,M,11000.00,M,M,M,M,M,M,M,M,M,M,80.80,KMEV 180015Z AUTO VRB05KT 10SM FEW110 28/09 A3003 RMK AO2 LTG DSNT NE AND SE,M
HTH,2023-08-18 00:15,-118.6315,38.5448,1282.89,91.40,41.00,17.32,340.00,9.00,0.00,29.95,M,10.00,M,CLR,M,M,M,M,M,M,M,M,M,M,M,M,M,M,87.40,KHTH 180015Z AUTO 34009KT 10SM CLR 33/05 A2995 RMK A01,M
10U,2023-08-18 00:15,-116.1876,41.9532,1637.00,87.80,46.40,23.85,M,6.00,0.00,30.01,M,10.00,M,FEW,M,M,M,9000.00,M,M,M,M,M,M,M,M,M,M,84.68,K10U 180015Z AUTO VRB06KT 10SM FEW090 31/08 A3001 RMK AO2 LTG DSNT SE AND SW,M
BAM,2023-08-18 00:15,-116.8743,40.5990,1382.36,78.80,59.00,50.69,0.00,0.00,0.00,30.01,M,10.00,M,CLR,M,M,M,M,M,M,M,M,M,M,M,M,M,M,78.80,KBAM 180015Z AUTO 00000KT 10SM CLR 26/15 A3001 RMK AO1,M
TMT,2023-08-18 00:15,-117.1971,39.4643,1749.34,73.80,57.20,56.12,0.00,0.00,0.00,30.11,M,M,M,BKN,M,M,M,11000.00,M,M,M,M,M,M,M,M,M,M,73.80,KTMT 180015Z AUTO 00000KT BKN110 23/14 A3011 RMK AO2 LTG DSNT N T02320140 PWINO,M
RNO,2023-08-18 00:17,-119.7711,39.4839,1341.00,88.00,45.00,22.47,170.00,15.00,T,29.98,M,10.00,21.00,SCT,BKN,M,M,10000.00,20000.00,M,M,TS,M,M,M,M,M,M,84.72,KRNO 180017Z 17015G21KT 10SM TS SCT100CB BKN200 31/07 A2998 RMK AO2 WSHFT 2359 RAE05 OCNL LTGIC NE TS NE MOV N P0000 T03110072,M
RNO,2023-08-18 00:29,-119.7711,39.4839,1341.00,86.00,45.00,23.95,50.00,13.00,T,29.99,M,10.00,19.00,SCT,BKN,M,M,10000.00,20000.00,M,M,M,M,M,M,M,M,M,83.10,KRNO 180029Z COR 05013G19KT 10SM SCT100 BKN200 30/07 A2999 RMK AO2 WSHFT 2359 RAE05 TSE29 CB DSNT NE P0000 T03000072,M
HTH,2023-08-18 00:30,-118.6315,38.5448,1282.89,91.40,42.80,18.56,310.00,12.00,0.00,29.94,M,10.00,M,CLR,M,M,M,M,M,M,M,M,M,M,M,M,M,M,87.52,KHTH 180030Z AUTO 31012KT 10SM CLR 33/06 A2994 RMK A01,M
BVU,2023-08-18 00:35,-114.8611,35.9475,671.00,104.00,46.40,14.50,120.00,14.00,0.00,29.78,M,10.00,22.00,CLR,M,M,M,M,M,M,M,M,M,M,M,M,M,M,100.21,KBVU 180035Z AUTO 12014G22KT 080V170 10SM CLR 40/08 A2978 RMK AO2,M
CXP,2023-08-18 00:35,-119.7326,39.1923,1431.00,80.60,55.40,41.97,80.00,6.00,0.00,30.04,M,10.00,M,FEW,M,M,M,11000.00,M,M,M,M,M,M,M,M,M,M,80.53,KCXP 180035Z AUTO 08006KT 10SM FEW110 27/13 A3004 RMK AO2,M
RTS,2023-08-18 00:35,-119.8764,39.6682,1539.00,87.80,39.20,18.09,220.00,11.00,0.00,30.04,M,10.00,19.00,FEW,FEW,M,M,10000.00,12000.00,M,M,M,M,M,M,M,M,M,84.22,KRTS 180035Z AUTO 22011G19KT 10SM FEW100 FEW120 31/04 A3004 RMK AO2,M
05U,2023-08-18 00:35,-116.0051,39.6042,1811.23,82.40,44.60,26.49,M,M,0.00,30.12,M,10.00,M,M,M,M,M,M,M,M,M,M,M,M,M,M,M,M,80.50,K05U 180035Z AUTO 10SM 28/07 A3012 RMK A01,M
MEV,2023-08-18 00:35,-119.7500,38.9963,1441.42,82.40,46.40,28.36,70.00,3.00,0.00,30.03,M,10.00,M,CLR,M,M,M,M,M,M,M,M,M,M,M,M,M,M,80.64,KMEV 180035Z AUTO 07003KT 10SM CLR 28/08 A3003 RMK AO2,M
10U,2023-08-18 00:35,-116.1876,41.9532,1637.00,86.00,46.40,25.26,220.00,8.00,0.00,30.02,M,10.00,M,BKN,BKN,M,M,9000.00,12000.00,M,M,M,M,M,M,M,M,M,83.22,K10U 180035Z AUTO 22008KT 10SM BKN090 BKN120 30/08 A3002 RMK AO2 LTG DSNT SE-W,M
BAM,2023-08-18 00:35,-116.8743,40.5990,1382.36,82.40,59.00,45.07,170.00,3.00,0.00,30.01,M,10.00,M,CLR,M,M,M,M,M,M,M,M,M,M,M,M,M,M,82.46,KBAM 180035Z AUTO 17003KT 10SM CLR 28/15 A3001 RMK AO1,M
TMT,2023-08-18 00:35,-117.1971,39.4643,1749.34,76.00,57.00,51.76,0.00,0.00,0.00,30.10,M,M,M,SCT,M,M,M,11000.00,M,M,M,M,M,M,M,M,M,M,76.00,KTMT 180035Z AUTO 00000KT SCT110 25/14 A3010 RMK AO2 T02450139 PWINO,M
NFL,2023-08-18 00:48,-118.7010,39.4166,1199.00,84.00,49.00,29.69,250.00,30.00,T,29.95,M,4.00,47.00,SCT,SCT,BKN,BKN,7000.00,12000.00,18000.00,25000.00,BLDU SQ,M,M,M,47.00,260.00,2023-08-18 00:42,81.98,KNFL 180048Z 25030G47KT 4SM BLDU SQ SCT070 SCT120 BKN180 BKN250 29/09 A2995 RMK AO2 PK WND 26047/0042 RAB43E45 P0000 T02890094,M
05U,2023-08-18 00:50,-116.0051,39.6042,1811.23,80.60,44.60,28.08,M,M,0.00,30.12,M,10.00,M,M,M,M,M,M,M,M,M,M,M,M,M,M,M,M,79.42,K05U 180050Z AUTO 10SM 27/07 A3012 RMK A01,M
HTH,2023-08-18 00:50,-118.6315,38.5448,1282.89,87.80,41.00,19.40,270.00,12.00,0.00,29.96,M,10.00,M,CLR,M,M,M,M,M,M,M,M,M,M,M,M,M,M,84.30,KHTH 180050Z AUTO 27012KT 10SM CLR 31/05 A2996 RMK A01,M
P68,2023-08-18 00:53,-116.0056,39.6014,1993.00,82.00,45.00,27.24,M,4.00,0.00,30.10,1010.40,M,M,M,M,M,M,M,M,M,M,M,M,M,M,M,M,M,80.28,KP68 180053Z AUTO VRB04KT 28/07 A3010 RMK AO1 SLP104 T02780072,M
DRA,2023-08-18 00:53,-116.0278,36.6206,1009.00,99.00,38.00,12.19,210.00,10.00,0.00,29.88,1006.00,10.00,23.00,CLR,M,M,M,M,M,M,M,M,M,M,M,26.00,240.00,2023-08-17 23:56,93.99,KDRA 180053Z AUTO 21010G23KT 10SM CLR 37/03 A2988 RMK AO2 PK WND 24026/2356 SLP060 T03720033,M
ELY,2023-08-18 00:53,-114.8453,39.2950,1909.00,80.00,45.00,29.08,150.00,14.00,0.00,30.12,1010.00,10.00,M,BKN,M,M,M,12000.00,M,M,M,M,M,M,M,M,M,M,79.13,KELY 180053Z AUTO 15014KT 10SM BKN120 27/07 A3012 RMK AO2 SLP100 T02670072,M
VGT,2023-08-18 00:53,-115.1933,36.2111,667.00,104.00,46.00,14.28,170.00,7.00,0.00,29.77,1006.40,10.00,M,CLR,M,M,M,M,M,M,M,M,M,M,M,M,M,M,100.12,KVGT 180053Z 17007KT 10SM CLR 40/08 A2977 RMK AO2 SLP064 T04000078,M
LOL,2023-08-18 00:53,-118.5701,40.0684,1192.43,91.00,42.00,18.23,120.00,4.00,0.00,29.91,1008.10,10.00,M,CLR,M,M,M,M,M,M,M,M,M,M,M,M,M,M,87.11,KLOL 180053Z AUTO 12004KT 10SM CLR 33/06 A2991 RMK AO2 SLP081 T03280056,M
BVU,2023-08-18 00:55,-114.8611,35.9475,671.00,104.00,44.60,13.54,120.00,13.00,0.00,29.77,M,10.00,M,CLR,M,M,M,M,M,M,M,M,M,M,M,M,M,M,99.82,KBVU 180055Z AUTO 12013KT 10SM CLR 40/07 A2977 RMK AO2,M
CXP,2023-08-18 00:55,-119.7326,39.1923,1431.00,80.60,51.80,36.79,120.00,3.00,0.00,30.04,M,10.00,M,BKN,M,M,M,11000.00,M,M,M,M,M,M,M,M,M,M,80.08,KCXP 180055Z AUTO 12003KT 10SM BKN110 27/11 A3004 RMK AO2,M
RNO,2023-08-18 00:55,-119.7711,39.4839,1341.00,87.00,46.00,24.10,90.00,5.00,T,29.98,1009.00,10.00,M,SCT,BKN,M,M,10000.00,22000.00,M,M,M,M,M,M,M,M,M,83.98,KRNO 180055Z COR 09005KT 10SM SCT100CB BKN220 31/08 A2998 RMK AO2 WSHFT 2359 RAE05 TSE29 SLP090 CBMAM NE THRU E MOV N P0000 T03060078,M
RTS,2023-08-18 00:55,-119.8764,39.6682,1539.00,82.40,41.00,23.07,210.00,7.00,0.00,30.04,M,10.00,M,CLR,M,M,M,M,M,M,M,M,M,M,M,M,M,M,80.29,KRTS 180055Z AUTO 21007KT 120V240 10SM CLR 28/05 A3004 RMK AO2,M
MEV,2023-08-18 00:55,-119.7500,38.9963,1441.42,82.40,46.40,28.36,70.00,3.00,0.00,30.03,M,10.00,M,CLR,M,M,M,M,M,M,M,M,M,M,M,M,M,M,80.64,KMEV 180055Z AUTO 07003KT 10SM CLR 28/08 A3003 RMK AO2,M
BAM,2023-08-18 00:55,-116.8743,40.5990,1382.36,82.40,55.40,39.58,180.00,5.00,0.00,30.00,M,10.00,M,CLR,M,M,M,M,M,M,M,M,M,M,M,M,M,M,81.75,KBAM 180055Z AUTO 18005KT 10SM CLR 28/13 A3000 RMK AO1,M
TMT,2023-08-18 00:55,-117.1971,39.4643,1749.34,76.50,55.00,47.35,60.00,5.00,0.00,30.10,M,M,M,CLR,M,M,M,M,M,M,M,M,M,M,M,M,M,M,76.50,KTMT 180055Z AUTO 06005KT CLR 25/13 A3010 RMK AO2 T02470127 PWINO,M
10U,2023-08-18 00:55,-116.1876,41.9532,1637.00,77.00,53.60,44.25,200.00,23.00,0.00,30.04,M,10.00,34.00,FEW,FEW,OVC,M,1100.00,5000.00,9000.00,M,VCTS,M,M,M,M,M,M,77.00,K10U 180055Z AUTO 20023G34KT 10SM VCTS FEW011 FEW050 OVC090 25/12 A3004 RMK AO2 LTG DSNT ALQDS,M
INS,2023-08-18 00:55,-115.6733,36.5872,955.00,99.70,28.00,7.99,200.00,14.00,0.00,29.85,1005.30,10.00,M,CLR,M,M,M,M,M,M,M,M,M,M,M,26.00,220.00,2023-08-18 00:24,93.13,KINS 180055Z AUTO 20014KT 10SM CLR 38/M02 A2985 RMK AO2 PK WND 22026/24 SLP053 T03761023 $,M
LSV,2023-08-18 00:55,-115.0343,36.2362,570.00,105.00,48.00,14.95,150.00,7.00,0.00,29.72,1003.50,10.00,M,CLR,M,M,M,M,M,M,M,M,M,M,M,M,M,M,101.60,KLSV 180055Z AUTO 15007KT 10SM CLR 41/09 A2972 RMK AO2 SLP035 T04050088 $,M
EKO,2023-08-18 00:56,-115.7860,40.8242,1367.00,76.00,61.00,59.72,200.00,4.00,0.01,30.05,1012.40,10.00,M,SCT,M,M,M,11000.00,M,M,M,M,M,M,M,M,M,M,76.00,KEKO 180056Z AUTO 20004KT 10SM SCT110 24/16 A3005 RMK AO2 RAB07E19 SLP124 P0001 T02440161,M
WMC,2023-08-18 00:56,-117.8072,40.9019,1315.00,93.00,43.00,17.80,250.00,10.00,0.00,29.93,1007.90,10.00,M,FEW,M,M,M,11000.00,M,M,M,M,M,M,M,M,M,M,89.00,KWMC 180056Z AUTO 25010KT 10SM FEW110 34/06 A2993 RMK AO2 SLP079 T03390061,M
NFL,2023-08-18 00:56,-118.7010,39.4166,1199.00,83.00,50.00,31.83,260.00,24.00,T,29.95,1011.40,4.00,38.00,SCT,BKN,BKN,BKN,7000.00,12000.00,18000.00,25000.00,BLDU,M,M,M,47.00,260.00,2023-08-18 00:42,81.39,KNFL 180056Z 26024G38KT 4SM BLDU SCT070 BKN120 BKN180 BKN250 28/10 A2995 RMK AO2 PK WND 26047/0042 RAB43E45 SLP114 P0000 T02830100,M
HND,2023-08-18 00:56,-115.1344,35.9729,742.79,M,M,M,M,M,0.00,M,M,M,M,M,M,M,M,M,M,M,M,M,M,M,M,M,M,M,M,KHND 180056Z RMK AO2 SLPNO $,M
TPH,2023-08-18 00:56,-117.0904,38.0505,1654.00,90.00,46.00,21.91,210.00,20.00,0.00,30.04,1008.40,10.00,28.00,FEW,M,M,M,12000.00,M,M,M,M,M,M,M,28.00,210.00,2023-08-18 00:55,86.55,KTPH 180056Z AUTO 21020G28KT 10SM FEW120 32/08 A3004 RMK AO2 PK WND 21028/0055 SLP084 T03220078,M
LAS,2023-08-18 00:56,-115.1634,36.0719,663.00,103.00,44.00,13.64,210.00,4.00,0.00,29.78,1005.00,10.00,M,SCT,SCT,M,M,12000.00,20000.00,M,M,M,M,M,M,M,M,M,98.74,KLAS 180056Z 21004KT 10SM SCT120 SCT200 39/07 A2978 RMK AO2 SLP050 T03940067,M
05U,2023-08-18 01:10,-116.0051,39.6042,1811.23,80.60,51.80,36.79,M,M,0.00,30.12,M,10.00,M,M,M,M,M,M,M,M,M,M,M,M,M,M,M,M,80.08,K05U 180110Z AUTO 10SM 27/11 A3012 RMK A01,M
HTH,2023-08-18 01:10,-118.6315,38.5448,1282.89,89.60,41.00,18.33,360.00,8.00,0.00,29.97,M,10.00,15.00,CLR,M,M,M,M,M,M,M,M,M,M,M,M,M,M,85.82,KHTH 180110Z AUTO 36008G15KT 320V030 10SM CLR 32/05 A2997 RMK A01,M
BVU,2023-08-18 01:15,-114.8611,35.9475,671.00,102.20,44.60,14.29,120.00,7.00,0.00,29.77,M,10.00,16.00,CLR,M,M,M,M,M,M,M,M,M,M,M,M,M,M,98.07,KBVU 180115Z AUTO 12007G16KT 10SM CLR 39/07 A2977 RMK AO2,M
CXP,2023-08-18 01:15,-119.7326,39.1923,1431.00,80.60,48.20,32.18,0.00,0.00,0.00,30.04,M,10.00,M,FEW,M,M,M,11000.00,M,M,M,M,M,M,M,M,M,M,79.71,KCXP 180115Z AUTO 00000KT 10SM FEW110 27/09 A3004 RMK AO2,M
RTS,2023-08-18 01:15,-119.8764,39.6682,1539.00,82.40,41.00,23.07,180.00,6.00,0.00,30.05,M,10.00,M,CLR,M,M,M,M,M,M,M,M,M,M,M,M,M,M,80.29,KRTS 180115Z AUTO 18006KT 10SM CLR 28/05 A3005 RMK AO2,M
MEV,2023-08-18 01:15,-119.7500,38.9963,1441.42,82.40,48.20,30.35,70.00,4.00,0.00,30.03,M,10.00,M,CLR,M,M,M,M,M,M,M,M,M,M,M,M,M,M,80.80,KMEV 180115Z AUTO 07004KT 10SM CLR 28/09 A3003 RMK AO2,M
10U,2023-08-18 01:15,-116.1876,41.9532,1637.00,73.40,55.40,53.29,150.00,21.00,0.00,30.10,M,8.00,30.00,FEW,FEW,BKN,M,700.00,2700.00,7500.00,M,VCTS RA,M,M,M,M,M,M,73.40,K10U 180115Z AUTO 15021G30KT 8SM VCTS RA FEW007 FEW027 BKN075 23/13 A3010 RMK AO2 LTG DSNT ALQDS,M
BAM,2023-08-18 01:15,-116.8743,40.5990,1382.36,80.60,59.00,47.79,180.00,4.00,0.00,29.99,M,10.00,M,CLR,M,M,M,M,M,M,M,M,M,M,M,M,M,M,81.11,KBAM 180115Z AUTO 18004KT 10SM CLR 27/15 A2999 RMK AO1,M
TMT,2023-08-18 01:15,-117.1971,39.4643,1749.34,77.00,53.00,43.29,60.00,3.00,0.00,30.08,M,M,M,CLR,M,M,M,M,M,M,M,M,M,M,M,M,M,M,77.00,KTMT 180115Z AUTO 06003KT CLR 25/12 A3008 RMK AO2 LTG DSNT SW T02510117 PWINO,M
05U,2023-08-18 01:30,-116.0051,39.6042,1811.23,80.60,55.40,41.97,M,M,0.00,30.11,M,10.00,M,M,M,M,M,M,M,M,M,M,M,M,M,M,M,M,80.53,K05U 180130Z AUTO 10SM 27/13 A3011 RMK A01,M
BVU,2023-08-18 01:35,-114.8611,35.9475,671.00,102.20,44.60,14.29,150.00,4.00,0.00,29.77,M,10.00,M,CLR,M,M,M,M,M,M,M,M,M,M,M,M,M,M,98.07,KBVU 180135Z AUTO 15004KT 10SM CLR 39/07 A2977 RMK AO2,M
CXP,2023-08-18 01:35,-119.7326,39.1923,1431.00,82.40,50.00,32.46,0.00,0.00,0.00,30.04,M,10.00,M,FEW,M,M,M,11000.00,M,M,M,VCTS,M,M,M,M,M,M,80.99,KCXP 180135Z AUTO 00000KT 10SM VCTS FEW110 28/10 A3004 RMK AO2 LTG DSNT SE,M
RTS,2023-08-18 01:35,-119.8764,39.6682,1539.00,82.40,41.00,23.07,260.00,12.00,0.00,30.04,M,10.00,M,BKN,BKN,M,M,9000.00,11000.00,M,M,M,M,M,M,M,M,M,80.29,KRTS 180135Z AUTO 26012KT 10SM BKN090 BKN110 28/05 A3004 RMK AO2,M
MEV,2023-08-18 01:35,-119.7500,38.9963,1441.42,82.40,44.60,26.49,0.00,0.00,0.00,30.02,M,10.00,M,CLR,M,M,M,M,M,M,M,VCTS,M,M,M,M,M,M,80.50,KMEV 180135Z AUTO 00000KT 10SM VCTS CLR 28/07 A3002 RMK AO2 LTG DSNT E AND NW,M
HTH,2023-08-18 01:35,-118.6315,38.5448,1282.89,86.00,42.80,22.02,10.00,15.00,0.00,29.96,M,10.00,M,FEW,M,M,M,12000.00,M,M,M,M,M,M,M,M,M,M,82.95,KHTH 180135Z AUTO 01015KT 10SM FEW120 30/06 A2996 RMK A01,M
10U,2023-08-18 01:35,-116.1876,41.9532,1637.00,66.20,60.80,82.74,140.00,10.00,0.00,30.12,M,5.00,21.00,FEW,BKN,M,M,3100.00,7500.00,M,M,VCTS RA,M,M,M,M,M,M,66.20,K10U 180135Z AUTO 14010G21KT 5SM VCTS RA FEW031 BKN075 19/16 A3012 RMK AO2 LTG DSNT NW-E,M
BAM,2023-08-18 01:35,-116.8743,40.5990,1382.36,80.60,60.80,50.95,70.00,5.00,0.00,29.99,M,10.00,M,CLR,M,M,M,M,M,M,M,M,M,M,M,M,M,M,81.46,KBAM 180135Z AUTO 07005KT 10SM CLR 27/16 A2999 RMK AO1,M
TMT,2023-08-18 01:35,-117.1971,39.4643,1749.34,74.50,55.20,50.98,30.00,3.00,0.00,30.08,M,M,M,CLR,M,M,M,M,M,M,M,M,M,M,M,M,M,M,74.50,KTMT 180135Z AUTO 03003KT CLR 24/13 A3008 RMK AO2 LTG DSNT SW T02360129 PWINO,M
05U,2023-08-18 01:50,-116.0051,39.6042,1811.23,78.80,51.80,39.02,M,M,0.00,30.11,M,10.00,M,M,M,M,M,M,M,M,M,M,M,M,M,M,M,M,78.80,K05U 180150Z AUTO 10SM 26/11 A3011 RMK A01,M
P68,2023-08-18 01:53,-116.0056,39.6014,1993.00,79.00,53.00,40.52,40.00,7.00,0.00,30.08,1009.90,M,M,M,M,M,M,M,M,M,M,M,M,M,M,M,M,M,79.00,KP68 180153Z AUTO 04007KT 26/12 A3008 RMK AO1 SLP099 T02610117,M
DRA,2023-08-18 01:53,-116.0278,36.6206,1009.00,97.00,36.00,11.98,240.00,11.00,0.00,29.88,1006.10,10.00,20.00,CLR,M,M,M,M,M,M,M,M,M,M,M,M,M,M,91.96,KDRA 180153Z AUTO 24011G20KT 10SM CLR 36/02 A2988 RMK AO2 SLP061 T03610022,M
ELY,2023-08-18 01:53,-114.8453,39.2950,1909.00,77.00,46.00,33.34,190.00,9.00,T,30.12,1010.10,10.00,M,FEW,M,M,M,10000.00,M,M,M,M,M,M,M,37.00,130.00,2023-08-18 01:24,77.00,KELY 180153Z AUTO 19009KT 10SM FEW100 25/08 A3012 RMK AO2 PK WND 13037/0124 LTG DSNT N RAB25E35 SLP101 P0000 T02500078,M
VGT,2023-08-18 01:53,-115.1933,36.2111,667.00,105.00,46.00,13.86,0.00,0.00,0.00,29.77,1006.40,10.00,M,CLR,M,M,M,M,M,M,M,M,M,M,M,M,M,M,101.10,KVGT 180153Z 00000KT 10SM CLR 41/08 A2977 RMK AO2 SLP064 T04060078,M
LOL,2023-08-18 01:53,-118.5701,40.0684,1192.43,87.00,45.00,23.20,240.00,26.00,0.00,29.92,1008.80,9.00,35.00,CLR,M,M,M,M,M,M,M,M,M,M,M,35.00,240.00,2023-08-18 01:53,83.90,KLOL 180153Z AUTO 24026G35KT 9SM CLR 31/07 A2992 RMK AO2 PK WND 24035/0153 LTG DSNT W AND NW SLP088 T03060072,M
BVU,2023-08-18 01:55,-114.8611,35.9475,671.00,102.20,46.40,15.30,140.00,8.00,0.00,29.77,M,10.00,M,CLR,M,M,M,M,M,M,M,M,M,M,M,M,M,M,98.43,KBVU 180155Z AUTO 14008KT 10SM CLR 39/08 A2977 RMK AO2,M
CXP,2023-08-18 01:55,-119.7326,39.1923,1431.00,82.40,50.00,32.46,0.00,0.00,0.00,30.03,M,10.00,M,FEW,M,M,M,11000.00,M,M,M,M,M,M,M,M,M,M,80.99,KCXP 180155Z AUTO 00000KT 10SM FEW110 28/10 A3003 RMK AO2 LTG DSNT E AND S,M
RNO,2023-08-18 01:55,-119.7711,39.4839,1341.00,88.00,45.00,22.47,280.00,11.00,0.00,29.97,1008.80,10.00,16.00,SCT,BKN,M,M,9500.00,20000.00,M,M,M,M,M,M,M,M,M,84.72,KRNO 180155Z 28011G16KT 10SM SCT095 BKN200 31/07 A2997 RMK AO2 LTG DSNT N AND SE AND S SLP088 CB DSNT NW T03110072,M
RTS,2023-08-18 01:55,-119.8764,39.6682,1539.00,84.20,42.80,23.33,270.00,12.00,0.00,30.04,M,10.00,17.00,OVC,M,M,M,9000.00,M,M,M,M,M,M,M,M,M,M,81.61,KRTS 180155Z AUTO 27012G17KT 10SM OVC090 29/06 A3004 RMK AO2,M
MEV,2023-08-18 01:55,-119.7500,38.9963,1441.42,68.00,51.80,56.13,330.00,16.00,0.00,30.03,M,0.25,32.00,BKN,OVC,M,M,500.00,3100.00,M,M,-TSRA HZ,M,M,M,M,M,M,68.00,KMEV 180155Z AUTO 33016G32KT 1/4SM -TSRA HZ BKN005 OVC031 20/11 A3003 RMK AO2,M
HTH,2023-08-18 01:55,-118.6315,38.5448,1282.89,86.00,42.80,22.02,350.00,8.00,0.00,29.96,M,10.00,13.00,CLR,M,M,M,M,M,M,M,M,M,M,M,M,M,M,82.95,KHTH 180155Z AUTO 35008G13KT 10SM CLR 30/06 A2996 RMK A01,M
10U,2023-08-18 01:55,-116.1876,41.9532,1637.00,64.40,60.80,88.09,100.00,10.00,0.00,30.11,M,7.00,M,FEW,FEW,FEW,M,3200.00,7500.00,10000.00,M,-RA,M,M,M,M,M,M,64.40,K10U 180155Z AUTO 10010KT 7SM -RA FEW032 FEW075 FEW100 18/16 A3011 RMK AO2,M
BAM,2023-08-18 01:55,-116.8743,40.5990,1382.36,80.60,57.20,44.80,80.00,3.00,0.00,29.99,M,10.00,M,CLR,M,M,M,M,M,M,M,M,M,M,M,M,M,M,80.81,KBAM 180155Z AUTO 08003KT 10SM CLR 27/14 A2999 RMK AO1,M
TMT,2023-08-18 01:55,-117.1971,39.4643,1749.34,72.00,57.70,60.71,300.00,5.00,0.00,30.09,M,M,M,BKN,M,M,M,11000.00,M,M,M,M,M,M,M,M,M,M,72.00,KTMT 180155Z AUTO 30005KT BKN110 22/14 A3009 RMK AO2 T02220143 PWINO,M
INS,2023-08-18 01:55,-115.6733,36.5872,955.00,97.70,26.40,7.95,190.00,16.00,0.00,29.85,1005.50,10.00,M,CLR,M,M,M,M,M,M,M,M,M,M,M,M,M,M,91.30,KINS 180155Z AUTO 19016KT 10SM CLR 37/M03 A2985 RMK AO2 SLP055 T03651031 $,M
LSV,2023-08-18 01:55,-115.0343,36.2362,570.00,103.60,43.00,12.89,130.00,7.00,0.00,29.72,1003.50,10.00,M,CLR,M,M,M,M,M,M,M,M,M,M,M,M,M,M,99.12,KLSV 180155Z AUTO 13007KT 10SM CLR 40/06 A2972 RMK AO2 SLP035 T03980062 $,M
EKO,2023-08-18 01:56,-115.7860,40.8242,1367.00,77.00,59.00,53.80,110.00,4.00,0.00,30.04,1011.60,10.00,M,CLR,M,M,M,M,M,M,M,M,M,M,M,M,M,M,77.00,KEKO 180156Z AUTO 11004KT 10SM CLR 25/15 A3004 RMK AO2 LTG DSNT S SLP116 T02500150,M
WMC,2023-08-18 01:56,-117.8072,40.9019,1315.00,90.00,41.00,18.10,270.00,13.00,0.00,29.92,1007.80,8.00,M,CLR,M,M,M,M,M,M,M,M,M,M,M,M,M,M,86.16,KWMC 180156Z AUTO 27013KT 8SM CLR 32/05 A2992 RMK AO2 SLP078 T03220050,M
NFL,2023-08-18 01:56,-118.7010,39.4166,1199.00,83.00,46.00,27.39,280.00,18.00,0.00,29.94,1011.00,10.00,30.00,SCT,BKN,BKN,BKN,7000.00,12000.00,18000.00,25000.00,M,M,M,M,31.00,240.00,2023-08-18 00:57,81.00,KNFL 180156Z 28018G30KT 10SM SCT070 BKN120 BKN180 BKN250 28/08 A2994 RMK AO2 PK WND 24031/0057 SLP110 T02830078,M
HND,2023-08-18 01:56,-115.1344,35.9729,742.79,M,M,M,M,M,0.00,M,M,M,M,M,M,M,M,M,M,M,M,M,M,M,M,M,M,M,M,KHND 180156Z RMK AO2 SLPNO $,M
TPH,2023-08-18 01:56,-117.0904,38.0505,1654.00,86.00,43.00,22.19,200.00,12.00,0.00,30.04,1008.70,10.00,M,CLR,M,M,M,M,M,M,M,M,M,M,M,M,M,M,82.97,KTPH 180156Z AUTO 20012KT 10SM CLR 30/06 A3004 RMK AO2 SLP087 T03000061,M
LAS,2023-08-18 01:56,-115.1634,36.0719,663.00,103.00,40.00,11.69,240.00,6.00,0.00,29.78,1005.10,10.00,M,FEW,SCT,SCT,M,12000.00,15000.00,20000.00,M,M,M,M,M,M,M,M,97.86,KLAS 180156Z 24006KT 10SM FEW120 SCT150 SCT200 39/04 A2978 RMK AO2 SLP051 T03940044,M
LOL,2023-08-18 01:58,-118.5701,40.0684,1192.43,84.00,48.00,28.60,260.00,22.00,0.00,29.93,M,5.00,35.00,FEW,M,M,M,800.00,M,M,M,HZ,M,M,M,31.00,250.00,2023-08-18 01:55,81.87,KLOL 180158Z AUTO 26022G35KT 5SM HZ FEW008 29/09 A2993 RMK AO2 PK WND 25031/0155 WSHFT 0144 LTG DSNT W AND NW PRESRR T02890089,M
LOL,2023-08-18 02:06,-118.5701,40.0684,1192.43,81.00,50.00,33.97,270.00,31.00,0.00,29.93,M,1.75,37.00,SCT,M,M,M,700.00,M,M,M,HZ,M,M,M,37.00,270.00,2023-08-18 02:03,80.12,KLOL 180206Z AUTO 27031G37KT 1 3/4SM HZ SCT007 27/10 A2993 RMK AO2 PK WND 27037/0203 WSHFT 0144 LTG DSNT W AND NW T02720100,M
HTH,2023-08-18 02:10,-118.6315,38.5448,1282.89,84.20,42.80,23.33,340.00,10.00,0.00,29.96,M,10.00,M,CLR,M,M,M,M,M,M,M,M,M,M,M,M,M,M,81.61,KHTH 180210Z AUTO 34010KT 10SM CLR 29/06 A2996 RMK A01,M
BVU,2023-08-18 02:15,-114.8611,35.9475,671.00,102.20,46.40,15.30,140.00,6.00,0.00,29.77,M,10.00,13.00,CLR,M,M,M,M,M,M,M,M,M,M,M,M,M,M,98.43,KBVU 180215Z AUTO 14006G13KT 10SM CLR 39/08 A2977 RMK AO2,M
CXP,2023-08-18 02:15,-119.7326,39.1923,1431.00,82.40,48.20,30.35,M,4.00,0.00,30.04,M,10.00,M,FEW,FEW,BKN,M,6000.00,7500.00,10000.00,M,M,M,M,M,M,M,M,80.80,KCXP 180215Z AUTO VRB04KT 10SM FEW060 FEW075 BKN100 28/09 A3004 RMK AO2,M
RTS,2023-08-18 02:15,-119.8764,39.6682,1539.00,82.40,42.80,24.72,250.00,15.00,0.00,30.05,M,10.00,M,BKN,BKN,M,M,9000.00,11000.00,M,M,M,M,M,M,M,M,M,80.39,KRTS 180215Z AUTO 25015KT 10SM BKN090 BKN110 28/06 A3005 RMK AO2,M
05U,2023-08-18 02:15,-116.0051,39.6042,1811.23,75.20,55.40,50.17,M,M,0.00,30.11,M,10.00,M,M,M,M,M,M,M,M,M,M,M,M,M,M,M,M,75.20,K05U 180215Z AUTO 10SM 24/13 A3011 RMK A01,M
MEV,2023-08-18 02:15,-119.7500,38.9963,1441.42,69.80,53.60,56.38,350.00,10.00,0.00,30.03,M,10.00,24.00,FEW,BKN,OVC,M,500.00,9500.00,12000.00,M,M,M,M,M,M,M,M,69.80,KMEV 180215Z AUTO 35010G24KT 10SM FEW005 BKN095 OVC120 21/12 A3003 RMK AO2 LTG DSNT N AND S,M
10U,2023-08-18 02:15,-116.1876,41.9532,1637.00,64.40,60.80,88.09,90.00,7.00,0.00,30.07,M,9.00,M,BKN,M,M,M,11000.00,M,M,M,-RA,M,M,M,M,M,M,64.40,K10U 180215Z AUTO 09007KT 9SM -RA BKN110 18/16 A3007 RMK AO2 LTG DSNT NE AND NW,M
BAM,2023-08-18 02:15,-116.8743,40.5990,1382.36,78.80,59.00,50.69,0.00,0.00,0.00,29.99,M,10.00,M,CLR,M,M,M,M,M,M,M,M,M,M,M,M,M,M,78.80,KBAM 180215Z AUTO 00000KT 10SM CLR 26/15 A2999 RMK AO1,M
TMT,2023-08-18 02:15,-117.1971,39.4643,1749.34,72.00,58.60,62.71,200.00,5.00,0.00,30.10,M,M,M,OVC,M,M,M,10000.00,M,M,M,M,M,M,M,M,M,M,72.00,KTMT 180215Z AUTO 20005KT OVC100 22/15 A3010 RMK AO2 LTG DSNT NE T02220148 PWINO,M
LOL,2023-08-18 02:19,-118.5701,40.0684,1192.43,80.00,49.00,33.81,270.00,25.00,0.00,29.93,M,3.00,37.00,SCT,M,M,M,500.00,M,M,M,HZ,M,M,M,38.00,270.00,2023-08-18 02:07,79.46,KLOL 180219Z AUTO 27025G37KT 3SM HZ SCT005 27/09 A2993 RMK AO2 PK WND 27038/0207 WSHFT 0144 LTG DSNT NW T02670094,M
05U,2023-08-18 02:30,-116.0051,39.6042,1811.23,71.60,59.00,64.48,M,M,0.00,30.11,M,10.00,M,M,M,M,M,M,M,M,M,M,M,M,M,M,M,M,71.60,K05U 180230Z AUTO 10SM 22/15 A3011 RMK A01,M
HTH,2023-08-18 02:30,-118.6315,38.5448,1282.89,82.40,42.80,24.72,360.00,12.00,0.00,29.96,M,10.00,M,SCT,M,M,M,12000.00,M,M,M,M,M,M,M,M,M,M,80.39,KHTH 180230Z AUTO 36012KT 10SM SCT120 28/06 A2996 RMK A01,M
BVU,2023-08-18 02:35,-114.8611,35.9475,671.00,100.40,46.40,16.15,0.00,0.00,0.00,29.77,M,10.00,M,CLR,M,M,M,M,M,M,M,M,M,M,M,M,M,M,96.63,KBVU 180235Z AUTO 00000KT 10SM CLR 38/08 A2977 RMK AO2,M
CXP,2023-08-18 02:35,-119.7326,39.1923,1431.00,75.20,55.40,50.17,200.00,7.00,0.00,30.06,M,10.00,15.00,FEW,SCT,OVC,M,4100.00,7500.00,10000.00,M,-RA,M,M,M,M,M,M,75.20,KCXP 180235Z AUTO 20007G15KT 170V230 10SM -RA FEW041 SCT075 OVC100 24/13 A3006 RMK AO2,M
RTS,2023-08-18 02:35,-119.8764,39.6682,1539.00,80.60,42.80,26.22,270.00,10.00,0.00,30.06,M,10.00,M,SCT,SCT,M,M,9000.00,12000.00,M,M,M,M,M,M,M,M,M,79.30,KRTS 180235Z AUTO 27010KT 10SM SCT090 SCT120 27/06 A3006 RMK AO2,M
MEV,2023-08-18 02:35,-119.7500,38.9963,1441.42,68.00,57.20,68.35,0.00,0.00,0.00,30.04,M,10.00,10.00,BKN,BKN,M,M,9000.00,11000.00,M,M,M,M,M,M,M,M,M,68.00,KMEV 180235Z AUTO 00000G10KT 10SM BKN090 BKN110 20/14 A3004 RMK AO2,M
10U,2023-08-18 02:35,-116.1876,41.9532,1637.00,64.40,60.80,88.09,120.00,7.00,0.00,30.07,M,10.00,M,FEW,M,M,M,11000.00,M,M,M,M,M,M,M,M,M,M,64.40,K10U 180235Z AUTO 12007KT 10SM FEW110 18/16 A3007 RMK AO2 LTG DSNT N AND NE,M
BAM,2023-08-18 02:35,-116.8743,40.5990,1382.36,77.00,59.00,53.80,110.00,4.00,0.00,29.99,M,10.00,M,CLR,M,M,M,M,M,M,M,M,M,M,M,M,M,M,77.00,KBAM 180235Z AUTO 11004KT 10SM CLR 25/15 A2999 RMK AO1,M
TMT,2023-08-18 02:35,-117.1971,39.4643,1749.34,70.50,52.00,51.91,90.00,6.00,0.01,30.09,M,M,M,SCT,SCT,BKN,M,3100.00,6000.00,12000.00,M,M,M,M,M,M,M,M,70.50,KTMT 180235Z AUTO 09006KT SCT031 SCT060 BKN120 21/11 A3009 RMK AO2 P0001 T02140111 PWINO,M
RNO,2023-08-18 02:41,-119.7711,39.4839,1341.00,86.00,47.00,25.83,310.00,8.00,0.00,29.99,M,10.00,20.00,SCT,BKN,M,M,11000.00,21000.00,M,M,TS,M,M,M,28.00,270.00,2023-08-18 01:58,83.28,KRNO 180241Z 31008G20KT 10SM TS SCT110CB BKN210 30/08 A2999 RMK AO2 PK WND 27028/0158 LTG DSNT N TSB41 OCNL LTGIC E TS E MOV N T03000083,M
HTH,2023-08-18 02:50,-118.6315,38.5448,1282.89,80.60,44.60,28.08,320.00,5.00,0.00,29.96,M,10.00,M,FEW,M,M,M,12000.00,M,M,M,M,M,M,M,M,M,M,79.42,KHTH 180250Z AUTO 32005KT 10SM FEW120 27/07 A2996 RMK A01,M
P68,2023-08-18 02:53,-116.0056,39.6014,1993.00,70.00,56.00,61.11,290.00,3.00,0.00,30.10,1010.80,M,M,M,M,M,M,M,M,M,M,M,M,M,M,M,M,M,70.00,KP68 180253Z AUTO 29003KT 21/13 A3010 RMK AO1 SLP108 T02110133 53003,M
DRA,2023-08-18 02:53,-116.0278,36.6206,1009.00,93.00,36.00,13.55,240.00,8.00,0.00,29.89,1006.30,10.00,M,CLR,M,M,M,M,M,M,M,M,M,M,M,M,M,M,88.59,KDRA 180253Z AUTO 24008KT 10SM CLR 34/02 A2989 RMK AO2 SLP063 T03390022 55001,M
ELY,2023-08-18 02:53,-114.8453,39.2950,1909.00,76.00,44.00,31.95,230.00,10.00,T,30.15,1010.30,10.00,21.00,FEW,SCT,OVC,M,6000.00,7500.00,9500.00,M,-RA,M,M,M,38.00,250.00,2023-08-18 02:38,76.00,KELY 180253Z AUTO 23010G21KT 10SM -RA FEW060 SCT075 OVC095 24/07 A3015 RMK AO2 PK WND 25038/0238 RAB32 SLP103 P0000 60000 T02440067 53009,M
VGT,2023-08-18 02:53,-115.1933,36.2111,667.00,103.00,40.00,11.69,260.00,9.00,0.00,29.78,1006.60,10.00,M,CLR,M,M,M,M,M,M,M,M,M,M,M,M,M,M,97.86,KVGT 180253Z 26009KT 10SM CLR 39/04 A2978 RMK AO2 SLP066 T03940044 53001,M
LOL,2023-08-18 02:53,-118.5701,40.0684,1192.43,80.00,47.00,31.37,300.00,24.00,0.00,29.93,1009.50,9.00,32.00,CLR,M,M,M,M,M,M,M,M,M,M,M,39.00,280.00,2023-08-18 02:32,79.28,KLOL 180253Z AUTO 30024G32KT 9SM CLR 27/08 A2993 RMK AO2 PK WND 28039/0232 WSHFT 0144 SLP095 T02670083 53003,M
BVU,2023-08-18 02:55,-114.8611,35.9475,671.00,98.60,48.20,18.25,0.00,0.00,0.00,29.78,M,10.00,M,CLR,M,M,M,M,M,M,M,M,M,M,M,M,M,M,95.17,KBVU 180255Z AUTO 00000KT 10SM CLR 37/09 A2978 RMK AO2,M
CXP,2023-08-18 02:55,-119.7326,39.1923,1431.00,73.40,55.40,53.29,0.00,0.00,0.00,30.06,M,10.00,M,FEW,SCT,BKN,M,4600.00,9000.00,11000.00,M,M,M,M,M,M,M,M,73.40,KCXP 180255Z AUTO 00000KT 10SM FEW046 SCT090 BKN110 23/13 A3006 RMK AO2,M
RNO,2023-08-18 02:55,-119.7711,39.4839,1341.00,85.00,46.00,25.69,280.00,10.00,0.00,30.00,1009.70,10.00,19.00,SCT,BKN,M,M,11000.00,21000.00,M,M,TS,M,M,M,28.00,270.00,2023-08-18 01:58,82.42,KRNO 180255Z 28010G19KT 10SM TS SCT110CB BKN210 29/08 A3000 RMK AO2 PK WND 27028/0158 TSB41 SLP097 OCNL LTGIC E TS E MOV N 60000 T02940078 53007,M
RTS,2023-08-18 02:55,-119.8764,39.6682,1539.00,80.60,42.80,26.22,240.00,6.00,0.00,30.07,M,10.00,M,SCT,BKN,M,M,9500.00,12000.00,M,M,M,M,M,M,M,M,M,79.30,KRTS 180255Z AUTO 24006KT 10SM SCT095 BKN120 27/06 A3007 RMK AO2,M
05U,2023-08-18 02:55,-116.0051,39.6042,1811.23,69.80,55.40,60.21,M,M,0.00,30.12,M,10.00,M,M,M,M,M,M,M,M,M,M,M,M,M,M,M,M,69.80,K05U 180255Z AUTO 10SM 21/13 A3012 RMK A01,M
MEV,2023-08-18 02:55,-119.7500,38.9963,1441.42,66.20,59.00,77.60,0.00,0.00,0.00,30.04,M,10.00,M,BKN,BKN,M,M,9000.00,11000.00,M,M,M,M,M,M,M,M,M,66.20,KMEV 180255Z AUTO 00000KT 10SM BKN090 BKN110 19/15 A3004 RMK AO2,M
BAM,2023-08-18 02:55,-116.8743,40.5990,1382.36,73.40,59.00,60.67,0.00,0.00,0.00,29.99,M,10.00,M,CLR,M,M,M,M,M,M,M,M,M,M,M,M,M,M,73.40,KBAM 180255Z AUTO 00000KT 10SM CLR 23/15 A2999 RMK AO1,M
TMT,2023-08-18 02:55,-117.1971,39.4643,1749.34,72.50,50.00,45.04,0.00,0.00,0.01,30.08,M,M,M,SCT,M,M,M,12000.00,M,M,M,M,M,M,M,M,M,M,72.50,KTMT 180255Z AUTO 00000KT SCT120 23/10 A3008 RMK AO2 P0001 60001 T02250099 PWINO,M
10U,2023-08-18 02:55,-116.1876,41.9532,1637.00,64.40,59.00,82.62,130.00,9.00,0.00,30.06,M,10.00,M,FEW,M,M,M,10000.00,M,M,M,M,M,M,M,M,M,M,64.40,K10U 180255Z AUTO 13009KT 10SM FEW100 18/15 A3006 RMK AO2,M
INS,2023-08-18 02:55,-115.6733,36.5872,955.00,95.00,30.00,10.01,200.00,11.00,0.00,29.87,1006.00,10.00,M,SCT,M,M,M,14000.00,M,M,M,M,M,M,M,M,M,M,89.45,KINS 180255Z AUTO 20011KT 10SM SCT140 35/M01 A2987 RMK AO2 SLP060 T03501012 53004 $,M
LSV,2023-08-18 02:55,-115.0343,36.2362,570.00,101.00,46.60,15.98,160.00,7.00,0.00,29.73,1003.80,10.00,M,SCT,M,M,M,15000.00,M,M,M,M,M,M,M,M,M,M,97.27,KLSV 180255Z AUTO 16007KT 10SM SCT150 38/08 A2973 RMK AO2 SLP038 T03840081 55001 $,M
EKO,2023-08-18 02:56,-115.7860,40.8242,1367.00,75.00,60.00,59.59,70.00,3.00,0.00,30.06,1012.30,10.00,M,FEW,M,M,M,11000.00,M,M,M,M,M,M,M,M,M,M,75.00,KEKO 180256Z AUTO 07003KT 10SM FEW110 24/16 A3006 RMK AO2 SLP123 60001 T02390156 53005,M
WMC,2023-08-18 02:56,-117.8072,40.9019,1315.00,82.00,41.00,23.37,230.00,7.00,0.00,29.93,1008.30,10.00,M,CLR,M,M,M,M,M,M,M,M,M,M,M,M,M,M,80.04,KWMC 180256Z AUTO 23007KT 10SM CLR 28/05 A2993 RMK AO2 SLP083 T02780050 55006,M
HND,2023-08-18 02:56,-115.1344,35.9729,742.79,M,M,M,M,M,0.00,M,M,M,M,M,M,M,M,M,M,M,M,M,M,M,M,M,M,M,M,KHND 180256Z RMK AO2 SLPNO 6//// $,M
TPH,2023-08-18 02:56,-117.0904,38.0505,1654.00,82.00,40.00,22.48,190.00,11.00,0.00,30.05,1009.10,10.00,M,CLR,M,M,M,M,M,M,M,M,M,M,M,M,M,M,79.99,KTPH 180256Z AUTO 19011KT 10SM CLR 28/04 A3005 RMK AO2 SLP091 T02780044 53002,M
LAS,2023-08-18 02:56,-115.1634,36.0719,663.00,101.00,40.00,12.41,240.00,6.00,0.00,29.79,1005.30,10.00,M,FEW,SCT,SCT,M,12000.00,15000.00,20000.00,M,M,M,M,M,M,M,M,96.12,KLAS 180256Z 24006KT 10SM FEW120 SCT150 SCT200 38/04 A2979 RMK AO2 SLP053 T03830044 53001,M
NFL,2023-08-18 02:56,-118.7010,39.4166,1199.00,78.00,49.00,36.11,260.00,10.00,0.00,29.95,1011.60,10.00,19.00,SCT,BKN,BKN,BKN,7000.00,12000.00,18000.00,25000.00,M,M,M,M,26.00,290.00,2023-08-18 01:59,78.00,KNFL 180256Z 26010G19KT 10SM SCT070 BKN120 BKN180 BKN250 26/09 A2995 RMK AO2 PK WND 29026/0159 SLP116 60000 T02560094 51009,M
05U,2023-08-18 03:10,-116.0051,39.6042,1811.23,68.00,53.60,59.97,M,M,0.00,30.13,M,10.00,M,M,M,M,M,M,M,M,M,M,M,M,M,M,M,M,68.00,K05U 180310Z AUTO 10SM 20/12 A3013 RMK A01,M
BVU,2023-08-18 03:15,-114.8611,35.9475,671.00,95.00,51.80,23.30,0.00,0.00,0.00,29.78,M,10.00,M,CLR,M,M,M,M,M,M,M,M,M,M,M,M,M,M,92.26,KBVU 180315Z AUTO 00000KT 10SM CLR 35/11 A2978 RMK AO2,M
CXP,2023-08-18 03:15,-119.7326,39.1923,1431.00,73.40,55.40,53.29,0.00,0.00,0.00,30.05,M,10.00,M,SCT,M,M,M,11000.00,M,M,M,M,M,M,M,M,M,M,73.40,KCXP 180315Z AUTO 00000KT 10SM SCT110 23/13 A3005 RMK AO2,M
RTS,2023-08-18 03:15,-119.8764,39.6682,1539.00,77.00,44.60,31.62,70.00,10.00,0.00,30.07,M,10.00,16.00,BKN,OVC,M,M,8500.00,11000.00,M,M,M,M,M,M,M,M,M,77.00,KRTS 180315Z AUTO 07010G16KT 10SM BKN085 OVC110 25/07 A3007 RMK AO2,M
MEV,2023-08-18 03:15,-119.7500,38.9963,1441.42,68.00,60.80,77.75,0.00,0.00,0.00,30.04,M,10.00,M,FEW,BKN,M,M,4800.00,9000.00,M,M,M,M,M,M,M,M,M,68.00,KMEV 180315Z AUTO 00000KT 10SM FEW048 BKN090 20/16 A3004 RMK AO2,M
HTH,2023-08-18 03:15,-118.6315,38.5448,1282.89,80.60,48.20,32.18,40.00,4.00,0.00,29.97,M,10.00,M,CLR,M,M,M,M,M,M,M,M,M,M,M,M,M,M,79.71,KHTH 180315Z AUTO 04004KT 10SM CLR 27/09 A2997 RMK A01,M
10U,2023-08-18 03:15,-116.1876,41.9532,1637.00,64.40,59.00,82.62,130.00,11.00,0.00,30.07,M,10.00,M,CLR,M,M,M,M,M,M,M,M,M,M,M,M,M,M,64.40,K10U 180315Z AUTO 13011KT 10SM CLR 18/15 A3007 RMK AO2,M
BAM,2023-08-18 03:15,-116.8743,40.5990,1382.36,71.60,59.00,64.48,100.00,4.00,0.00,29.99,M,10.00,M,CLR,M,M,M,M,M,M,M,M,M,M,M,M,M,M,71.60,KBAM 180315Z AUTO 10004KT 10SM CLR 22/15 A2999 RMK AO1,M
TMT,2023-08-18 03:15,-117.1971,39.4643,1749.34,66.20,56.50,70.93,80.00,3.00,0.00,30.08,M,M,M,BKN,M,M,M,12000.00,M,M,M,M,M,M,M,M,M,M,66.20,KTMT 180315Z AUTO 08003KT BKN120 19/14 A3008 RMK AO2 LTG DSNT W T01900136 PWINO,M
HTH,2023-08-18 03:30,-118.6315,38.5448,1282.89,80.60,42.80,26.22,M,6.00,0.00,29.98,M,10.00,M,CLR,M,M,M,M,M,M,M,M,M,M,M,M,M,M,79.30,KHTH 180330Z AUTO VRB06KT 10SM CLR 27/06 A2998 RMK A01,M
BVU,2023-08-18 03:35,-114.8611,35.9475,671.00,93.20,51.80,24.63,0.00,0.00,0.00,29.79,M,10.00,M,CLR,M,M,M,M,M,M,M,M,M,M,M,M,M,M,90.45,KBVU 180335Z AUTO 00000KT 10SM CLR 34/11 A2979 RMK AO2,M
CXP,2023-08-18 03:35,-119.7326,39.1923,1431.00,73.40,57.20,56.88,0.00,0.00,0.00,30.06,M,10.00,M,FEW,M,M,M,12000.00,M,M,M,M,M,M,M,M,M,M,73.40,KCXP 180335Z AUTO 00000KT 10SM FEW120 23/14 A3006 RMK AO2,M
RNO,2023-08-18 03:35,-119.7711,39.4839,1341.00,81.00,47.00,30.36,360.00,10.00,0.00,30.01,M,10.00,M,SCT,BKN,M,M,10000.00,20000.00,M,M,M,M,M,M,M,M,M,79.84,KRNO 180335Z 36010KT 10SM SCT100 BKN200 27/08 A3001 RMK AO2 TSE33 FRQ LTG DSNT NE T02720083,M
RTS,2023-08-18 03:35,-119.8764,39.6682,1539.00,75.20,46.40,35.94,80.00,6.00,0.00,30.07,M,10.00,12.00,OVC,M,M,M,8500.00,M,M,M,M,M,M,M,M,M,M,75.20,KRTS 180335Z AUTO 08006G12KT 10SM OVC085 24/08 A3007 RMK AO2,M
05U,2023-08-18 03:35,-116.0051,39.6042,1811.23,66.20,51.80,59.74,M,M,0.00,30.13,M,10.00,M,M,M,M,M,M,M,M,M,M,M,M,M,M,M,M,66.20,K05U 180335Z AUTO 10SM 19/11 A3013 RMK A01,M
MEV,2023-08-18 03:35,-119.7500,38.9963,1441.42,68.00,60.80,77.75,160.00,10.00,0.00,30.05,M,10.00,M,FEW,SCT,BKN,M,5000.00,8000.00,9000.00,M,M,M,M,M,M,M,M,68.00,KMEV 180335Z AUTO 16010KT 10SM FEW050 SCT080 BKN090 20/16 A3005 RMK AO2 LTG DSNT N AND SE,M
10U,2023-08-18 03:35,-116.1876,41.9532,1637.00,62.60,59.00,88.00,130.00,11.00,0.00,30.07,M,10.00,M,CLR,M,M,M,M,M,M,M,M,M,M,M,M,M,M,62.60,K10U 180335Z AUTO 13011KT 10SM CLR 17/15 A3007 RMK AO2,M
BAM,2023-08-18 03:35,-116.8743,40.5990,1382.36,69.80,59.00,68.55,60.00,6.00,0.00,30.00,M,10.00,M,CLR,M,M,M,M,M,M,M,M,M,M,M,M,M,M,69.80,KBAM 180335Z AUTO 06006KT 10SM CLR 21/15 A3000 RMK AO1,M
TMT,2023-08-18 03:35,-117.1971,39.4643,1749.34,65.00,55.60,71.58,0.00,0.00,0.00,30.09,M,M,M,SCT,M,M,M,12000.00,M,M,M,M,M,M,M,M,M,M,65.00,KTMT 180335Z AUTO 00000KT SCT120 18/13 A3009 RMK AO2 LTG DSNT W T01840131 PWINO,M
05U,2023-08-18 03:50,-116.0051,39.6042,1811.23,68.00,51.80,56.13,M,M,0.00,30.14,M,10.00,M,M,M,M,M,M,M,M,M,M,M,M,M,M,M,M,68.00,K05U 180350Z AUTO 10SM 20/11 A3014 RMK A01,M
P68,2023-08-18 03:53,-116.0056,39.6014,1993.00,68.00,52.00,56.55,110.00,3.00,0.00,30.11,1011.10,M,M,M,M,M,M,M,M,M,M,M,M,M,M,M,M,M,68.00,KP68 180353Z AUTO 11003KT 20/11 A3011 RMK AO1 SLP111 T02000111,M
DRA,2023-08-18 03:53,-116.0278,36.6206,1009.00,89.00,35.00,14.76,210.00,5.00,0.00,29.90,1006.70,10.00,M,CLR,M,M,M,M,M,M,M,M,M,M,M,M,M,M,85.10,KDRA 180353Z AUTO 21005KT 10SM CLR 32/02 A2990 RMK AO2 SLP067 T03170017,M
ELY,2023-08-18 03:53,-114.8453,39.2950,1909.00,69.00,50.00,50.74,220.00,6.00,T,30.15,1010.20,10.00,M,FEW,M,M,M,11000.00,M,M,M,M,M,M,M,M,M,M,69.00,KELY 180353Z AUTO 22006KT 10SM FEW110 21/10 A3015 RMK AO2 RAE0254 SLP102 P0000 T02060100,M
VGT,2023-08-18 03:53,-115.1933,36.2111,667.00,100.00,40.00,12.79,260.00,5.00,0.00,29.80,1007.20,10.00,M,CLR,M,M,M,M,M,M,M,M,M,M,M,M,M,M,95.26,KVGT 180353Z 26005KT 10SM CLR 38/04 A2980 RMK AO2 SLP072 T03780044,M
LOL,2023-08-18 03:53,-118.5701,40.0684,1192.43,78.00,47.00,33.50,20.00,9.00,0.00,29.96,1010.50,10.00,M,CLR,M,M,M,M,M,M,M,M,M,M,M,29.00,310.00,2023-08-18 03:33,78.00,KLOL 180353Z AUTO 02009KT 10SM CLR 26/08 A2996 RMK AO2 PK WND 31029/0333 SLP105 T02560083,M
BVU,2023-08-18 03:55,-114.8611,35.9475,671.00,93.20,53.60,26.31,0.00,0.00,0.00,29.80,M,10.00,M,CLR,M,M,M,M,M,M,M,M,M,M,M,M,M,M,90.86,KBVU 180355Z AUTO 00000KT 10SM CLR 34/12 A2980 RMK AO2,M
CXP,2023-08-18 03:55,-119.7326,39.1923,1431.00,71.60,57.20,60.44,90.00,3.00,0.00,30.06,M,10.00,M,CLR,M,M,M,M,M,M,M,M,M,M,M,M,M,M,71.60,KCXP 180355Z AUTO 09003KT 10SM CLR 22/14 A3006 RMK AO2,M
RNO,2023-08-18 03:55,-119.7711,39.4839,1341.00,80.00,47.00,31.37,10.00,9.00,0.00,30.02,1010.30,10.00,M,SCT,BKN,M,M,10000.00,20000.00,M,M,M,M,M,M,M,M,M,79.28,KRNO 180355Z 01009KT 10SM SCT100 BKN200 27/08 A3002 RMK AO2 TSE33 SLP103 OCNL LTG DSNT NE T02670083,M
RTS,2023-08-18 03:55,-119.8764,39.6682,1539.00,75.20,44.60,33.57,90.00,7.00,0.00,30.08,M,10.00,M,BKN,BKN,M,M,8500.00,11000.00,M,M,M,M,M,M,M,M,M,75.20,KRTS 180355Z AUTO 09007KT 10SM BKN085 BKN110 24/07 A3008 RMK AO2,M
MEV,2023-08-18 03:55,-119.7500,38.9963,1441.42,68.00,59.00,72.92,280.00,5.00,0.00,30.04,M,10.00,M,SCT,BKN,OVC,M,2900.00,7500.00,9000.00,M,-RA,M,M,M,M,M,M,68.00,KMEV 180355Z AUTO 28005KT 10SM -RA SCT029 BKN075 OVC090 20/15 A3004 RMK AO2,M
HTH,2023-08-18 03:55,-118.6315,38.5448,1282.89,80.60,46.40,30.07,20.00,10.00,0.00,29.99,M,10.00,M,CLR,M,M,M,M,M,M,M,M,M,M,M,M,M,M,79.56,KHTH 180355Z AUTO 02010KT 10SM CLR 27/08 A2999 RMK A01,M
BAM,2023-08-18 03:55,-116.8743,40.5990,1382.36,68.00,59.00,72.92,70.00,5.00,0.00,30.00,M,10.00,M,CLR,M,M,M,M,M,M,M,M,M,M,M,M,M,M,68.00,KBAM 180355Z AUTO 07005KT 10SM CLR 20/15 A3000 RMK AO1,M
TMT,2023-08-18 03:55,-117.1971,39.4643,1749.34,63.00,55.00,75.11,290.00,8.00,0.00,30.10,M,M,M,SCT,M,M,M,12000.00,M,M,M,M,M,M,M,M,M,M,63.00,KTMT 180355Z AUTO 29008KT SCT120 17/13 A3010 RMK AO2 LTG DSNT NW T01730127 PWINO,M
10U,2023-08-18 03:55,-116.1876,41.9532,1637.00,62.60,57.20,82.50,130.00,4.00,0.00,30.08,M,10.00,M,CLR,M,M,M,M,M,M,M,M,M,M,M,M,M,M,62.60,K10U 180355Z AUTO 13004KT 10SM CLR 17/14 A3008 RMK AO2,M
INS,2023-08-18 03:55,-115.6733,36.5872,955.00,92.30,30.20,10.97,180.00,8.00,0.00,29.88,1006.20,10.00,M,SCT,M,M,M,13000.00,M,M,M,M,M,M,M,M,M,M,87.40,KINS 180355Z AUTO 18008KT 10SM SCT130 34/M01 A2988 RMK AO2 SLP062 T03351010 $,M
LSV,2023-08-18 03:55,-115.0343,36.2362,570.00,100.00,38.00,11.83,220.00,6.00,0.00,29.75,1004.30,10.00,M,CLR,M,M,M,M,M,M,M,M,M,M,M,M,M,M,94.85,KLSV 180355Z AUTO 22006KT 10SM CLR 38/03 A2975 RMK AO2 SLP043 T03770034 $,M
EKO,2023-08-18 03:56,-115.7860,40.8242,1367.00,71.00,57.00,61.24,10.00,6.00,T,30.06,1012.00,10.00,M,CLR,M,M,M,M,M,M,M,M,M,M,M,M,M,M,71.00,KEKO 180356Z AUTO 01006KT 10SM CLR 22/14 A3006 RMK AO2 RAB18E29 SLP120 P0000 T02170139,M
WMC,2023-08-18 03:56,-117.8072,40.9019,1315.00,73.00,41.00,31.47,240.00,10.00,0.00,29.96,1009.70,10.00,M,CLR,M,M,M,M,M,M,M,M,M,M,M,M,M,M,73.00,KWMC 180356Z AUTO 24010KT 10SM CLR 23/05 A2996 RMK AO2 SLP097 T02280050,M
NFL,2023-08-18 03:56,-118.7010,39.4166,1199.00,76.00,49.00,38.59,130.00,5.00,0.00,29.96,1011.90,10.00,M,FEW,SCT,BKN,M,7000.00,12000.00,25000.00,M,M,M,M,M,M,M,M,76.00,KNFL 180356Z 13005KT 10SM FEW070 SCT120 BKN250 24/09 A2996 RMK AO2 SLP119 T02440094,M
HND,2023-08-18 03:56,-115.1344,35.9729,742.79,M,M,M,M,M,0.00,M,M,M,M,M,M,M,M,M,M,M,M,M,M,M,M,M,M,M,M,KHND 180356Z AUTO RMK AO2 SLPNO PWINO FZRANO $,M
TPH,2023-08-18 03:56,-117.0904,38.0505,1654.00,75.00,34.00,22.35,210.00,3.00,0.00,30.07,1009.80,10.00,M,CLR,M,M,M,M,M,M,M,M,M,M,M,M,M,M,75.00,KTPH 180356Z AUTO 21003KT 10SM CLR 24/01 A3007 RMK AO2 SLP098 T02390011,M
LAS,2023-08-18 03:56,-115.1634,36.0719,663.00,99.00,40.00,13.18,250.00,4.00,0.00,29.80,1005.90,10.00,M,FEW,FEW,M,M,12000.00,15000.00,M,M,M,M,M,M,M,M,M,94.36,KLAS 180356Z 25004KT 10SM FEW120 FEW150 37/04 A2980 RMK AO2 SLP059 T03720044,M
05U,2023-08-18 04:10,-116.0051,39.6042,1811.23,68.00,51.80,56.13,M,M,0.00,30.15,M,10.00,M,M,M,M,M,M,M,M,M,M,M,M,M,M,M,M,68.00,K05U 180410Z AUTO 10SM 20/11 A3015 RMK A01,M
BVU,2023-08-18 04:15,-114.8611,35.9475,671.00,93.20,50.00,23.04,140.00,4.00,0.00,29.81,M,10.00,M,CLR,M,M,M,M,M,M,M,M,M,M,M,M,M,M,90.10,KBVU 180415Z AUTO 14004KT 10SM CLR 34/10 A2981 RMK AO2,M
CXP,2023-08-18 04:15,-119.7326,39.1923,1431.00,71.60,55.40,56.63,0.00,0.00,0.00,30.06,M,10.00,M,FEW,SCT,M,M,8000.00,10000.00,M,M,M,M,M,M,M,M,M,71.60,KCXP 180415Z AUTO 00000KT 10SM FEW080 SCT100 22/13 A3006 RMK AO2,M
RTS,2023-08-18 04:15,-119.8764,39.6682,1539.00,75.20,44.60,33.57,120.00,6.00,0.00,30.09,M,10.00,11.00,CLR,M,M,M,M,M,M,M,M,M,M,M,M,M,M,75.20,KRTS 180415Z AUTO 12006G11KT 10SM CLR 24/07 A3009 RMK AO2,M
MEV,2023-08-18 04:15,-119.7500,38.9963,1441.42,66.20,59.00,77.60,250.00,7.00,0.00,30.05,M,10.00,M,FEW,FEW,SCT,M,3000.00,3900.00,7500.00,M,M,M,M,M,M,M,M,66.20,KMEV 180415Z AUTO 25007KT 10SM FEW030 FEW039 SCT075 19/15 A3005 RMK AO2,M
HTH,2023-08-18 04:15,-118.6315,38.5448,1282.89,78.80,44.60,29.79,0.00,0.00,0.00,30.01,M,10.00,M,CLR,M,M,M,M,M,M,M,M,M,M,M,M,M,M,78.80,KHTH 180415Z AUTO 00000KT 10SM CLR 26/07 A3001 RMK A01,M
10U,2023-08-18 04:15,-116.1876,41.9532,1637.00,62.60,57.20,82.50,130.00,5.00,0.00,30.08,M,10.00,M,CLR,M,M,M,M,M,M,M,M,M,M,M,M,M,M,62.60,K10U 180415Z AUTO 13005KT 10SM CLR 17/14 A3008 RMK AO2,M
BAM,2023-08-18 04:15,-116.8743,40.5990,1382.36,68.00,59.00,72.92,0.00,0.00,0.00,30.01,M,10.00,M,CLR,M,M,M,M,M,M,M,M,M,M,M,M,M,M,68.00,KBAM 180415Z AUTO 00000KT 10SM CLR 20/15 A3001 RMK AO1,M
TMT,2023-08-18 04:15,-117.1971,39.4643,1749.34,63.30,55.40,75.41,200.00,4.00,0.00,30.12,M,M,M,BKN,M,M,M,10000.00,M,M,M,M,M,M,M,M,M,M,63.30,KTMT 180415Z AUTO 20004KT BKN100 17/13 A3012 RMK AO2 T01740130 PWINO,M
05U,2023-08-18 04:30,-116.0051,39.6042,1811.23,66.20,50.00,55.88,M,M,0.00,30.15,M,10.00,M,M,M,M,M,M,M,M,M,M,M,M,M,M,M,M,66.20,K05U 180430Z AUTO 10SM 19/10 A3015 RMK A01,M
BVU,2023-08-18 04:35,-114.8611,35.9475,671.00,91.40,53.60,27.83,0.00,0.00,0.00,29.81,M,10.00,M,CLR,M,M,M,M,M,M,M,M,M,M,M,M,M,M,89.08,KBVU 180435Z AUTO 00000KT 10SM CLR 33/12 A2981 RMK AO2,M
CXP,2023-08-18 04:35,-119.7326,39.1923,1431.00,69.80,57.20,64.26,160.00,5.00,0.00,30.07,M,10.00,M,FEW,FEW,M,M,8000.00,10000.00,M,M,M,M,M,M,M,M,M,69.80,KCXP 180435Z AUTO 16005KT 10SM FEW080 FEW100 21/14 A3007 RMK AO2,M
RTS,2023-08-18 04:35,-119.8764,39.6682,1539.00,71.60,46.40,40.57,0.00,0.00,0.00,30.09,M,10.00,M,CLR,M,M,M,M,M,M,M,M,M,M,M,M,M,M,71.60,KRTS 180435Z AUTO 00000KT 10SM CLR 22/08 A3009 RMK AO2,M
MEV,2023-08-18 04:35,-119.7500,38.9963,1441.42,64.40,57.20,77.45,120.00,6.00,0.00,30.06,M,10.00,M,CLR,M,M,M,M,M,M,M,M,M,M,M,M,M,M,64.40,KMEV 180435Z AUTO 12006KT 10SM CLR 18/14 A3006 RMK AO2,M
HTH,2023-08-18 04:35,-118.6315,38.5448,1282.89,78.80,44.60,29.79,0.00,0.00,0.00,30.00,M,10.00,M,CLR,M,M,M,M,M,M,M,M,M,M,M,M,M,M,78.80,KHTH 180435Z AUTO 00000KT 10SM CLR 26/07 A3000 RMK A01,M
10U,2023-08-18 04:35,-116.1876,41.9532,1637.00,62.60,57.20,82.50,120.00,9.00,0.00,30.08,M,10.00,M,CLR,M,M,M,M,M,M,M,M,M,M,M,M,M,M,62.60,K10U 180435Z AUTO 12009KT 10SM CLR 17/14 A3008 RMK AO2,M
BAM,2023-08-18 04:35,-116.8743,40.5990,1382.36,69.80,57.20,64.26,0.00,0.00,0.00,30.02,M,10.00,M,CLR,M,M,M,M,M,M,M,M,M,M,M,M,M,M,69.80,KBAM 180435Z AUTO 00000KT 10SM CLR 21/14 A3002 RMK AO1,M
TMT,2023-08-18 04:35,-117.1971,39.4643,1749.34,65.30,53.40,65.37,330.00,7.00,0.00,30.11,M,M,M,SCT,BKN,M,M,10000.00,12000.00,M,M,M,M,M,M,M,M,M,65.30,KTMT 180435Z AUTO 33007KT SCT100 BKN120 19/12 A3011 RMK AO2 T01850119 PWINO,M
05U,2023-08-18 04:50,-116.0051,39.6042,1811.23,64.40,51.80,63.60,M,M,0.00,30.16,M,10.00,M,M,M,M,M,M,M,M,M,M,M,M,M,M,M,M,64.40,K05U 180450Z AUTO 10SM 18/11 A3016 RMK A01,M
P68,2023-08-18 04:53,-116.0056,39.6014,1993.00,64.00,51.00,62.62,0.00,0.00,0.00,30.13,1011.80,M,M,M,M,M,M,M,M,M,M,M,M,M,M,M,M,M,64.00,KP68 180453Z AUTO 00000KT 18/11 A3013 RMK AO1 SLP118 T01780106,M
DRA,2023-08-18 04:53,-116.0278,36.6206,1009.00,84.00,34.00,16.63,90.00,5.00,0.00,29.92,1007.10,10.00,M,CLR,M,M,M,M,M,M,M,M,M,M,M,M,M,M,81.16,KDRA 180453Z AUTO 09005KT 10SM CLR 29/01 A2992 RMK AO2 SLP071 T02890011,M
ELY,2023-08-18 04:53,-114.8453,39.2950,1909.00,65.00,50.00,58.26,160.00,7.00,0.00,30.16,1010.20,10.00,M,BKN,M,M,M,11000.00,M,M,M,M,M,M,M,M,M,M,65.00,KELY 180453Z AUTO 16007KT 10SM BKN110 18/10 A3016 RMK AO2 SLP102 T01830100,M
VGT,2023-08-18 04:53,-115.1933,36.2111,667.00,98.00,42.00,14.68,240.00,3.00,0.00,29.81,1007.60,10.00,M,CLR,M,M,M,M,M,M,M,M,M,M,M,M,M,M,93.63,KVGT 180453Z AUTO 24003KT 10SM CLR 37/06 A2981 RMK AO2 SLP076 T03670056,M
LOL,2023-08-18 04:53,-118.5701,40.0684,1192.43,73.00,47.00,39.58,70.00,9.00,0.00,29.98,1011.00,10.00,M,CLR,M,M,M,M,M,M,M,M,M,M,M,M,M,M,73.00,KLOL 180453Z AUTO 07009KT 10SM CLR 23/08 A2998 RMK AO2 SLP110 T02280083,M
BVU,2023-08-18 04:55,-114.8611,35.9475,671.00,91.40,46.40,21.29,0.00,0.00,0.00,29.82,M,10.00,M,CLR,M,M,M,M,M,M,M,M,M,M,M,M,M,M,87.86,KBVU 180455Z AUTO 00000KT 10SM CLR 33/08 A2982 RMK AO2,M
CXP,2023-08-18 04:55,-119.7326,39.1923,1431.00,68.00,59.00,72.92,0.00,0.00,0.00,30.07,M,10.00,M,CLR,M,M,M,M,M,M,M,M,M,M,M,M,M,M,68.00,KCXP 180455Z AUTO 00000KT 10SM CLR 20/15 A3007 RMK AO2,M
RNO,2023-08-18 04:55,-119.7711,39.4839,1341.00,76.00,47.00,35.80,350.00,5.00,0.00,30.03,1010.90,10.00,M,SCT,BKN,M,M,10000.00,22000.00,M,M,M,M,M,M,M,M,M,76.00,KRNO 180455Z 35005KT 10SM SCT100 BKN220 24/08 A3003 RMK AO2 SLP109 T02440083,M
RTS,2023-08-18 04:55,-119.8764,39.6682,1539.00,71.60,46.40,40.57,0.00,0.00,0.00,30.09,M,10.00,M,CLR,M,M,M,M,M,M,M,M,M,M,M,M,M,M,71.60,KRTS 180455Z AUTO 00000KT 10SM CLR 22/08 A3009 RMK AO2,M
MEV,2023-08-18 04:55,-119.7500,38.9963,1441.42,62.60,57.20,82.50,90.00,6.00,0.00,30.06,M,10.00,M,FEW,M,M,M,3500.00,M,M,M,M,M,M,M,M,M,M,62.60,KMEV 180455Z AUTO 09006KT 10SM FEW035 17/14 A3006 RMK AO2,M
HTH,2023-08-18 04:55,-118.6315,38.5448,1282.89,77.00,48.20,36.22,220.00,4.00,0.00,30.02,M,10.00,M,FEW,M,M,M,12000.00,M,M,M,M,M,M,M,M,M,M,77.00,KHTH 180455Z AUTO 22004KT 10SM FEW120 25/09 A3002 RMK A01,M
BAM,2023-08-18 04:55,-116.8743,40.5990,1382.36,69.80,55.40,60.21,60.00,5.00,0.00,30.02,M,10.00,M,CLR,M,M,M,M,M,M,M,M,M,M,M,M,M,M,69.80,KBAM 180455Z AUTO 06005KT 10SM CLR 21/13 A3002 RMK AO1,M
TMT,2023-08-18 04:55,-117.1971,39.4643,1749.34,62.20,55.00,77.26,190.00,6.00,0.00,30.14,M,M,M,SCT,M,M,M,12000.00,M,M,M,M,M,M,M,M,M,M,62.20,KTMT 180455Z AUTO 19006KT SCT120 17/13 A3014 RMK AO2 LTG DSNT N T01680127 PWINO,M
10U,2023-08-18 04:55,-116.1876,41.9532,1637.00,62.60,57.20,82.50,120.00,12.00,0.00,30.08,M,10.00,M,CLR,M,M,M,M,M,M,M,M,M,M,M,M,M,M,62.60,K10U 180455Z AUTO 12012KT 10SM CLR 17/14 A3008 RMK AO2,M
INS,2023-08-18 04:55,-115.6733,36.5872,955.00,91.20,33.40,12.92,180.00,5.00,0.00,29.90,1006.70,10.00,M,FEW,M,M,M,13000.00,M,M,M,M,M,M,M,M,M,M,86.93,KINS 180455Z AUTO 18005KT 10SM FEW130 33/01 A2990 RMK AO2 SLP067 T03290008 $,M
LSV,2023-08-18 04:55,-115.0343,36.2362,570.00,95.50,38.70,13.95,0.00,0.00,0.00,29.76,1004.70,10.00,M,CLR,M,M,M,M,M,M,M,M,M,M,M,M,M,M,90.99,KLSV 180455Z AUTO 00000KT 10SM CLR 35/04 A2976 RMK AO2 SLP047 T03530037 $,M
EKO,2023-08-18 04:56,-115.7860,40.8242,1367.00,66.00,59.00,78.14,0.00,0.00,0.00,30.06,1012.20,10.00,M,CLR,M,M,M,M,M,M,M,M,M,M,M,M,M,M,66.00,KEKO 180456Z AUTO 00000KT 10SM CLR 19/15 A3006 RMK AO2 SLP122 T01890150,M
WMC,2023-08-18 04:56,-117.8072,40.9019,1315.00,77.00,49.00,37.33,270.00,17.00,0.00,30.00,1010.30,10.00,27.00,CLR,M,M,M,M,M,M,M,M,M,M,M,29.00,290.00,2023-08-18 04:30,77.00,KWMC 180456Z AUTO 27017G27KT 10SM CLR 25/09 A3000 RMK AO2 PK WND 29029/0430 SLP103 T02500094,M
NFL,2023-08-18 04:56,-118.7010,39.4166,1199.00,74.00,47.00,38.27,20.00,5.00,0.00,29.99,1012.70,10.00,M,FEW,SCT,SCT,M,7000.00,12000.00,25000.00,M,M,M,M,M,M,M,M,74.00,KNFL 180456Z 02005KT 10SM FEW070 SCT120 SCT250 23/08 A2999 RMK AO2 SLP127 OCNL LTGIC DSNT S CB DSNT S T02330083,M
HND,2023-08-18 04:56,-115.1344,35.9729,742.79,M,M,M,M,M,0.00,M,M,M,M,M,M,M,M,M,M,M,M,M,M,M,M,M,M,M,M,KHND 180456Z AUTO RMK AO2 SLPNO PWINO FZRANO $,M
TPH,2023-08-18 04:56,-117.0904,38.0505,1654.00,74.00,33.00,22.20,180.00,5.00,0.00,30.09,1010.50,10.00,M,CLR,M,M,M,M,M,M,M,M,M,M,M,M,M,M,74.00,KTPH 180456Z AUTO 18005KT 10SM CLR 23/01 A3009 RMK AO2 SLP105 T02330006,M
LAS,2023-08-18 04:56,-115.1634,36.0719,663.00,96.00,40.00,14.45,200.00,5.00,0.00,29.82,1006.30,10.00,M,FEW,FEW,M,M,12000.00,15000.00,M,M,M,M,M,M,M,M,M,91.55,KLAS 180456Z 20005KT 10SM FEW120 FEW150 36/04 A2982 RMK AO2 SLP063 T03560044,M
BVU,2023-08-18 05:15,-114.8611,35.9475,671.00,91.40,44.60,19.89,320.00,3.00,0.00,29.82,M,10.00,M,CLR,M,M,M,M,M,M,M,M,M,M,M,M,M,M,87.68,KBVU 180515Z AUTO 32003KT 10SM CLR 33/07 A2982 RMK AO2,M
CXP,2023-08-18 05:15,-119.7326,39.1923,1431.00,68.00,59.00,72.92,330.00,4.00,0.00,30.07,M,10.00,M,CLR,M,M,M,M,M,M,M,M,M,M,M,M,M,M,68.00,KCXP 180515Z AUTO 33004KT 10SM CLR 20/15 A3007 RMK AO2,M
RTS,2023-08-18 05:15,-119.8764,39.6682,1539.00,68.00,44.60,42.85,290.00,5.00,0.00,30.09,M,10.00,M,CLR,M,M,M,M,M,M,M,M,M,M,M,M,M,M,68.00,KRTS 180515Z AUTO 29005KT 10SM CLR 20/07 A3009 RMK AO2,M
05U,2023-08-18 05:15,-116.0051,39.6042,1811.23,62.60,51.80,67.75,M,M,0.00,30.16,M,10.00,M,M,M,M,M,M,M,M,M,M,M,M,M,M,M,M,62.60,K05U 180515Z AUTO 10SM 17/11 A3016 RMK A01,M
MEV,2023-08-18 05:15,-119.7500,38.9963,1441.42,62.60,55.40,77.29,120.00,7.00,0.00,30.07,M,10.00,M,CLR,M,M,M,M,M,M,M,M,M,M,M,M,M,M,62.60,KMEV 180515Z AUTO 12007KT 10SM CLR 17/13 A3007 RMK AO2,M
HTH,2023-08-18 05:15,-118.6315,38.5448,1282.89,78.80,46.40,31.90,M,4.00,0.00,30.02,M,10.00,M,M,M,M,M,M,M,M,M,M,M,M,M,M,M,M,78.80,KHTH 180515Z AUTO VRB04KT 10SM 26/08 A3002 RMK A01,M
10U,2023-08-18 05:15,-116.1876,41.9532,1637.00,62.60,57.20,82.50,120.00,12.00,0.00,30.08,M,10.00,M,SCT,M,M,M,6500.00,M,M,M,M,M,M,M,M,M,M,62.60,K10U 180515Z AUTO 12012KT 10SM SCT065 17/14 A3008 RMK AO2,M
BAM,2023-08-18 05:15,-116.8743,40.5990,1382.36,68.00,55.40,64.04,110.00,4.00,0.00,30.02,M,10.00,M,CLR,M,M,M,M,M,M,M,M,M,M,M,M,M,M,68.00,KBAM 180515Z AUTO 11004KT 10SM CLR 20/13 A3002 RMK AO1,M
TMT,2023-08-18 05:15,-117.1971,39.4643,1749.34,60.80,54.00,78.27,0.00,0.00,0.00,30.14,M,M,M,CLR,M,M,M,M,M,M,M,M,M,M,M,M,M,M,60.80,KTMT 180515Z AUTO 00000KT CLR 16/12 A3014 RMK AO2 T01600123 PWINO,M
05U,2023-08-18 05:30,-116.0051,39.6042,1811.23,62.60,50.00,63.38,M,M,0.00,30.16,M,10.00,M,M,M,M,M,M,M,M,M,M,M,M,M,M,M,M,62.60,K05U 180530Z AUTO 10SM 17/10 A3016 RMK A01,M
BVU,2023-08-18 05:35,-114.8611,35.9475,671.00,89.60,48.20,24.11,320.00,6.00,0.00,29.82,M,10.00,M,CLR,M,M,M,M,M,M,M,M,M,M,M,M,M,M,86.44,KBVU 180535Z AUTO 32006KT 10SM CLR 32/09 A2982 RMK AO2,M
CXP,2023-08-18 05:35,-119.7326,39.1923,1431.00,68.00,59.00,72.92,0.00,0.00,0.00,30.08,M,10.00,M,CLR,M,M,M,M,M,M,M,M,M,M,M,M,M,M,68.00,KCXP 180535Z AUTO 00000KT 10SM CLR 20/15 A3008 RMK AO2,M
RTS,2023-08-18 05:35,-119.8764,39.6682,1539.00,66.20,44.60,45.60,0.00,0.00,0.00,30.09,M,10.00,M,CLR,M,M,M,M,M,M,M,M,M,M,M,M,M,M,66.20,KRTS 180535Z AUTO 00000KT 10SM CLR 19/07 A3009 RMK AO2,M
MEV,2023-08-18 05:35,-119.7500,38.9963,1441.42,62.60,55.40,77.29,0.00,0.00,0.00,30.07,M,9.00,M,FEW,FEW,FEW,M,3400.00,4200.00,5000.00,M,M,M,M,M,M,M,M,62.60,KMEV 180535Z AUTO 00000KT 9SM FEW034 FEW042 FEW050 17/13 A3007 RMK AO2,M
HTH,2023-08-18 05:35,-118.6315,38.5448,1282.89,77.00,48.20,36.22,190.00,3.00,0.00,30.02,M,10.00,M,M,M,M,M,M,M,M,M,M,M,M,M,M,M,M,77.00,KHTH 180535Z AUTO 19003KT 10SM 25/09 A3002 RMK A01,M
10U,2023-08-18 05:35,-116.1876,41.9532,1637.00,62.60,57.20,82.50,120.00,8.00,0.00,30.07,M,10.00,13.00,FEW,M,M,M,7000.00,M,M,M,M,M,M,M,M,M,M,62.60,K10U 180535Z AUTO 12008G13KT 10SM FEW070 17/14 A3007 RMK AO2,M
BAM,2023-08-18 05:35,-116.8743,40.5990,1382.36,68.00,55.40,64.04,90.00,5.00,0.00,30.01,M,10.00,M,CLR,M,M,M,M,M,M,M,M,M,M,M,M,M,M,68.00,KBAM 180535Z AUTO 09005KT 10SM CLR 20/13 A3001 RMK AO1,M
TMT,2023-08-18 05:35,-117.1971,39.4643,1749.34,59.00,53.00,80.46,160.00,6.00,0.00,30.14,M,M,M,SCT,M,M,M,12000.00,M,M,M,M,M,M,M,M,M,M,59.00,KTMT 180535Z AUTO 16006KT SCT120 15/12 A3014 RMK AO2 T01500117 PWINO,M
P68,2023-08-18 05:53,-116.0056,39.6014,1993.00,61.00,50.00,67.06,200.00,3.00,0.00,30.13,1011.60,M,M,M,M,M,M,M,M,M,M,M,M,M,M,M,M,M,61.00,KP68 180553Z AUTO 20003KT 16/10 A3013 RMK AO1 SLP116 T01610100 10300 20161 51010,M
DRA,2023-08-18 05:53,-116.0278,36.6206,1009.00,82.00,34.00,17.74,110.00,6.00,0.00,29.92,1007.30,10.00,M,CLR,M,M,M,M,M,M,M,M,M,M,M,M,M,M,79.77,KDRA 180553Z AUTO 11006KT 10SM CLR 28/01 A2992 RMK AO2 SLP073 T02780011 10389 20278 51010,M
ELY,2023-08-18 05:53,-114.8453,39.2950,1909.00,65.00,48.00,54.07,210.00,9.00,0.00,30.16,1010.20,10.00,M,CLR,M,M,M,M,M,M,M,M,M,M,M,M,M,M,65.00,KELY 180553Z AUTO 21009KT 10SM CLR 18/09 A3016 RMK AO2 SLP102 60000 T01830089 10278 20172 50003,M
VGT,2023-08-18 05:53,-115.1933,36.2111,667.00,95.00,42.00,16.10,10.00,3.00,0.00,29.82,1007.90,10.00,M,CLR,M,M,M,M,M,M,M,M,M,M,M,M,M,M,90.79,KVGT 180553Z AUTO 01003KT 10SM CLR 35/06 A2982 RMK AO2 SLP079 T03500056 10411 20350 51012,M
LOL,2023-08-18 05:53,-118.5701,40.0684,1192.43,75.00,46.00,35.64,50.00,7.00,0.00,29.98,1010.30,10.00,M,CLR,M,M,M,M,M,M,M,M,M,M,M,M,M,M,75.00,KLOL 180553Z AUTO 05007KT 10SM CLR 24/08 A2998 RMK AO2 SLP103 T02390078 10333 20228 50013,M
BVU,2023-08-18 05:55,-114.8611,35.9475,671.00,89.60,41.00,18.33,290.00,4.00,0.00,29.82,M,10.00,M,CLR,M,M,M,M,M,M,M,M,M,M,M,M,M,M,85.82,KBVU 180555Z AUTO 29004KT 10SM CLR 32/05 A2982 RMK AO2,M
CXP,2023-08-18 05:55,-119.7326,39.1923,1431.00,68.00,59.00,72.92,320.00,4.00,0.00,30.08,M,10.00,M,CLR,M,M,M,M,M,M,M,M,M,M,M,M,M,M,68.00,KCXP 180555Z AUTO 32004KT 10SM CLR 20/15 A3008 RMK AO2,M
RNO,2023-08-18 05:55,-119.7711,39.4839,1341.00,74.00,48.00,39.74,110.00,5.00,0.00,30.03,1010.90,10.00,M,SCT,SCT,M,M,10000.00,21000.00,M,M,M,M,M,M,M,M,M,74.00,KRNO 180555Z 11005KT 10SM SCT100 SCT210 23/09 A3003 RMK AO2 SLP109 60000 T02330089 10317 20233 50010,M
RTS,2023-08-18 05:55,-119.8764,39.6682,1539.00,66.20,44.60,45.60,0.00,0.00,0.00,30.09,M,10.00,M,CLR,M,M,M,M,M,M,M,M,M,M,M,M,M,M,66.20,KRTS 180555Z AUTO 00000KT 10SM CLR 19/07 A3009 RMK AO2,M
05U,2023-08-18 05:55,-116.0051,39.6042,1811.23,60.80,50.00,67.54,M,M,0.00,30.16,M,10.00,M,M,M,M,M,M,M,M,M,M,M,M,M,M,M,M,60.80,K05U 180555Z AUTO 10SM 16/10 A3016 RMK A01,M
MEV,2023-08-18 05:55,-119.7500,38.9963,1441.42,64.40,55.40,72.56,0.00,0.00,0.00,30.07,M,10.00,M,FEW,FEW,M,M,4500.00,5000.00,M,M,M,M,M,M,M,M,M,64.40,KMEV 180555Z AUTO 00000KT 10SM FEW045 FEW050 18/13 A3007 RMK AO2,M
HTH,2023-08-18 05:55,-118.6315,38.5448,1282.89,77.00,48.20,36.22,210.00,5.00,0.00,30.02,M,10.00,M,M,M,M,M,M,M,M,M,M,M,M,M,M,M,M,77.00,KHTH 180555Z AUTO 21005KT 10SM 25/09 A3002 RMK A01,M
BAM,2023-08-18 05:55,-116.8743,40.5990,1382.36,68.00,55.40,64.04,0.00,0.00,0.00,30.02,M,10.00,M,CLR,M,M,M,M,M,M,M,M,M,M,M,M,M,M,68.00,KBAM 180555Z AUTO 00000KT 10SM CLR 20/13 A3002 RMK AO1,M
TMT,2023-08-18 05:55,-117.1971,39.4643,1749.34,58.30,53.20,83.11,210.00,6.00,0.00,30.15,M,M,M,SCT,M,M,M,12000.00,M,M,M,M,M,M,M,M,M,M,58.30,KTMT 180555Z AUTO 21006KT SCT120 15/12 A3015 RMK AO2 60001 T01460118 10251 20146 PWINO,M
10U,2023-08-18 05:55,-116.1876,41.9532,1637.00,62.60,57.20,82.50,120.00,12.00,0.00,30.06,M,10.00,M,CLR,M,M,M,M,M,M,M,M,M,M,M,M,M,M,62.60,K10U 180555Z AUTO 12012KT 10SM CLR 17/14 A3006 RMK AO2,M
INS,2023-08-18 05:55,-115.6733,36.5872,955.00,86.00,34.30,15.79,250.00,6.00,0.00,29.90,1006.90,10.00,M,CLR,M,M,M,M,M,M,M,M,M,M,M,M,M,M,82.67,KINS 180555Z AUTO 25006KT 10SM CLR 30/01 A2990 RMK AO2 SLP069 T02990013 10387 20296 51010 $,M
LSV,2023-08-18 05:55,-115.0343,36.2362,570.00,89.60,39.00,16.95,0.00,0.00,0.00,29.77,1005.00,10.00,M,CLR,M,M,M,M,M,M,M,M,M,M,M,M,M,M,85.72,KLSV 180555Z AUTO 00000KT 10SM CLR 32/04 A2977 RMK AO2 SLP050 T03200039 10413 20320 51012 $,M
EKO,2023-08-18 05:56,-115.7860,40.8242,1367.00,65.00,58.00,78.06,80.00,3.00,0.00,30.06,1012.00,10.00,M,CLR,M,M,M,M,M,M,M,M,M,M,M,M,M,M,65.00,KEKO 180556Z AUTO 08003KT 10SM CLR 18/14 A3006 RMK AO2 SLP120 60001 T01830144 10261 20183 50001,M
WMC,2023-08-18 05:56,-117.8072,40.9019,1315.00,75.00,49.00,39.90,M,3.00,0.00,30.02,1010.80,10.00,M,FEW,M,M,M,12000.00,M,M,M,M,M,M,M,M,M,M,75.00,KWMC 180556Z AUTO VRB03KT 10SM FEW120 24/09 A3002 RMK AO2 SLP108 T02390094 10344 20228 51026,M
NFL,2023-08-18 05:56,-118.7010,39.4166,1199.00,72.00,46.00,39.42,M,5.00,0.00,30.01,1013.30,10.00,M,SCT,BKN,BKN,M,7000.00,12000.00,25000.00,M,M,M,M,M,M,M,M,72.00,KNFL 180556Z VRB05KT 10SM SCT070 BKN120 BKN250 22/08 A3001 RMK AO2 SLP133 OCNL LTGIC DSNT SE CB DSNT SE 60000 T02220078 10339 20222 53018,M
HND,2023-08-18 05:56,-115.1344,35.9729,742.79,M,M,M,M,M,0.00,M,M,M,M,M,M,M,M,M,M,M,M,M,M,M,M,M,M,M,M,KHND 180556Z AUTO RMK AO2 SLPNO 6//// PWINO FZRANO $,M
TPH,2023-08-18 05:56,-117.0904,38.0505,1654.00,66.00,30.00,25.85,60.00,3.00,0.00,30.10,1011.10,10.00,M,CLR,M,M,M,M,M,M,M,M,M,M,M,M,M,M,66.00,KTPH 180556Z AUTO 06003KT 10SM CLR 19/M01 A3010 RMK AO2 SLP111 T01891011 10333 20189 51012,M
LAS,2023-08-18 05:56,-115.1634,36.0719,663.00,94.00,41.00,15.97,200.00,6.00,0.00,29.82,1006.50,10.00,M,FEW,M,M,M,15000.00,M,M,M,M,M,M,M,M,M,M,89.77,KLAS 180556Z 20006KT 10SM FEW150 34/05 A2982 RMK AO2 SLP065 T03440050 10400 20344 51011,M
05U,2023-08-18 06:10,-116.0051,39.6042,1811.23,59.00,48.20,67.33,M,M,0.00,30.16,M,10.00,M,M,M,M,M,M,M,M,M,M,M,M,M,M,M,M,59.00,K05U 180610Z AUTO 10SM 15/09 A3016 RMK A01,M
BVU,2023-08-18 06:15,-114.8611,35.9475,671.00,89.60,41.00,18.33,310.00,4.00,0.00,29.83,M,10.00,M,CLR,M,M,M,M,M,M,M,M,M,M,M,M,M,M,85.82,KBVU 180615Z AUTO 31004KT 10SM CLR 32/05 A2983 RMK AO2,M
CXP,2023-08-18 06:15,-119.7326,39.1923,1431.00,68.00,55.40,64.04,0.00,0.00,0.00,30.07,M,10.00,M,CLR,M,M,M,M,M,M,M,M,M,M,M,M,M,M,68.00,KCXP 180615Z AUTO 00000KT 10SM CLR 20/13 A3007 RMK AO2,M
RTS,2023-08-18 06:15,-119.8764,39.6682,1539.00,64.40,42.80,45.32,300.00,4.00,0.00,30.09,M,10.00,M,CLR,M,M,M,M,M,M,M,M,M,M,M,M,M,M,64.40,KRTS 180615Z AUTO 30004KT 10SM CLR 18/06 A3009 RMK AO2,M
MEV,2023-08-18 06:15,-119.7500,38.9963,1441.42,62.60,55.40,77.29,80.00,4.00,0.00,30.06,M,10.00,M,CLR,M,M,M,M,M,M,M,M,M,M,M,M,M,M,62.60,KMEV 180615Z AUTO 08004KT 10SM CLR 17/13 A3006 RMK AO2,M
BAM,2023-08-18 06:15,-116.8743,40.5990,1382.36,68.00,57.20,68.35,230.00,6.00,0.00,30.03,M,10.00,M,BKN,M,M,M,12000.00,M,M,M,M,M,M,M,M,M,M,68.00,KBAM 180615Z AUTO 23006KT 10SM BKN120 20/14 A3003 RMK AO1,M
HTH,2023-08-18 06:15,-118.6315,38.5448,1282.89,75.20,50.00,41.14,240.00,5.00,0.00,30.02,M,10.00,M,SCT,BKN,BKN,M,6000.00,7000.00,8500.00,M,M,M,M,M,M,M,M,75.20,KHTH 180615Z AUTO 24005KT 10SM SCT060 BKN070 BKN085 24/10 A3002 RMK A01,M
10U,2023-08-18 06:15,-116.1876,41.9532,1637.00,62.60,55.40,77.29,120.00,7.00,0.00,30.06,M,10.00,M,CLR,M,M,M,M,M,M,M,M,M,M,M,M,M,M,62.60,K10U 180615Z AUTO 12007KT 10SM CLR 17/13 A3006 RMK AO2,M
TMT,2023-08-18 06:15,-117.1971,39.4643,1749.34,59.40,53.60,81.08,220.00,3.00,0.00,30.14,M,M,M,SCT,M,M,M,12000.00,M,M,M,M,M,M,M,M,M,M,59.40,KTMT 180615Z AUTO 22003KT SCT120 15/12 A3014 RMK AO2 LTG DSNT N T01520120 PWINO,M
BVU,2023-08-18 06:35,-114.8611,35.9475,671.00,87.80,42.80,20.79,320.00,5.00,0.00,29.83,M,10.00,M,CLR,M,M,M,M,M,M,M,M,M,M,M,M,M,M,84.40,KBVU 180635Z AUTO 32005KT 10SM CLR 31/06 A2983 RMK AO2,M
CXP,2023-08-18 06:35,-119.7326,39.1923,1431.00,68.00,55.40,64.04,0.00,0.00,0.00,30.08,M,10.00,M,CLR,M,M,M,M,M,M,M,M,M,M,M,M,M,M,68.00,KCXP 180635Z AUTO 00000KT 10SM CLR 20/13 A3008 RMK AO2,M
RTS,2023-08-18 06:35,-119.8764,39.6682,1539.00,66.20,42.80,42.57,300.00,6.00,0.00,30.09,M,10.00,M,CLR,M,M,M,M,M,M,M,M,M,M,M,M,M,M,66.20,KRTS 180635Z AUTO 30006KT 10SM CLR 19/06 A3009 RMK AO2,M
05U,2023-08-18 06:35,-116.0051,39.6042,1811.23,57.20,48.20,71.83,M,M,0.00,30.15,M,10.00,M,M,M,M,M,M,M,M,M,M,M,M,M,M,M,M,57.20,K05U 180635Z AUTO 10SM 14/09 A3015 RMK A01,M
MEV,2023-08-18 06:35,-119.7500,38.9963,1441.42,59.00,53.60,82.25,110.00,5.00,0.00,30.07,M,10.00,M,FEW,FEW,M,M,4900.00,5500.00,M,M,M,M,M,M,M,M,M,59.00,KMEV 180635Z AUTO 11005KT 10SM FEW049 FEW055 15/12 A3007 RMK AO2,M
HTH,2023-08-18 06:35,-118.6315,38.5448,1282.89,73.40,53.60,49.90,260.00,4.00,0.00,30.03,M,10.00,M,FEW,FEW,SCT,M,4700.00,6500.00,12000.00,M,M,M,M,M,M,M,M,73.40,KHTH 180635Z AUTO 26004KT 10SM FEW047 FEW065 SCT120 23/12 A3003 RMK A01,M
10U,2023-08-18 06:35,-116.1876,41.9532,1637.00,62.60,55.40,77.29,130.00,7.00,0.00,30.08,M,10.00,M,FEW,M,M,M,6000.00,M,M,M,M,M,M,M,M,M,M,62.60,K10U 180635Z AUTO 13007KT 10SM FEW060 17/13 A3008 RMK AO2,M
BAM,2023-08-18 06:35,-116.8743,40.5990,1382.36,68.00,55.40,64.04,20.00,6.00,0.00,30.04,M,10.00,M,SCT,M,M,M,12000.00,M,M,M,M,M,M,M,M,M,M,68.00,KBAM 180635Z AUTO 02006KT 10SM SCT120 20/13 A3004 RMK AO1,M
TMT,2023-08-18 06:35,-117.1971,39.4643,1749.34,56.70,52.70,86.44,0.00,0.00,0.00,30.15,M,M,M,M,M,M,M,M,M,M,M,M,M,M,M,M,M,M,56.70,KTMT 180635Z AUTO 00000KT 14/12 A3015 RMK AO2 T01370115 PWINO,M
05U,2023-08-18 06:50,-116.0051,39.6042,1811.23,57.20,50.00,76.82,M,M,0.00,30.15,M,10.00,M,M,M,M,M,M,M,M,M,M,M,M,M,M,M,M,57.20,K05U 180650Z AUTO 10SM 14/10 A3015 RMK A01,M
HTH,2023-08-18 06:50,-118.6315,38.5448,1282.89,71.60,51.80,49.64,120.00,4.00,0.00,30.03,M,10.00,M,CLR,M,M,M,M,M,M,M,M,M,M,M,M,M,M,71.60,KHTH 180650Z AUTO 12004KT 10SM CLR 22/11 A3003 RMK A01,M
P68,2023-08-18 06:53,-116.0056,39.6014,1993.00,58.00,49.00,71.91,200.00,4.00,0.00,30.13,1011.30,M,M,M,M,M,M,M,M,M,M,M,M,M,M,M,M,M,58.00,KP68 180653Z AUTO 20004KT 14/09 A3013 RMK AO1 SLP113 T01440094,M
DRA,2023-08-18 06:53,-116.0278,36.6206,1009.00,80.00,34.00,18.94,0.00,0.00,0.00,29.93,1007.50,10.00,M,CLR,M,M,M,M,M,M,M,M,M,M,M,M,M,M,78.59,KDRA 180653Z AUTO 00000KT 10SM CLR 27/01 A2993 RMK AO2 SLP075 T02670011,M
ELY,2023-08-18 06:53,-114.8453,39.2950,1909.00,63.00,47.00,55.85,190.00,9.00,0.00,30.16,1010.60,10.00,M,CLR,M,M,M,M,M,M,M,M,M,M,M,M,M,M,63.00,KELY 180653Z AUTO 19009KT 10SM CLR 17/08 A3016 RMK AO2 SLP106 T01720083,M
VGT,2023-08-18 06:53,-115.1933,36.2111,667.00,94.00,43.00,17.25,0.00,0.00,0.00,29.83,1008.20,10.00,M,CLR,M,M,M,M,M,M,M,M,M,M,M,M,M,M,89.94,KVGT 180653Z AUTO 00000KT 10SM CLR 34/06 A2983 RMK AO2 SLP082 T03440061,M
LOL,2023-08-18 06:53,-118.5701,40.0684,1192.43,67.00,46.00,46.78,190.00,7.00,0.00,29.99,1011.40,10.00,M,SCT,M,M,M,12000.00,M,M,M,M,M,M,M,M,M,M,67.00,KLOL 180653Z AUTO 19007KT 10SM SCT120 19/08 A2999 RMK AO2 LTG DSNT SE SLP114 T01940078,M
BVU,2023-08-18 06:55,-114.8611,35.9475,671.00,87.80,42.80,20.79,0.00,0.00,0.00,29.83,M,10.00,M,CLR,M,M,M,M,M,M,M,M,M,M,M,M,M,M,84.40,KBVU 180655Z AUTO 00000KT 10SM CLR 31/06 A2983 RMK AO2,M
CXP,2023-08-18 06:55,-119.7326,39.1923,1431.00,68.00,55.40,64.04,0.00,0.00,0.00,30.08,M,10.00,M,CLR,M,M,M,M,M,M,M,M,M,M,M,M,M,M,68.00,KCXP 180655Z AUTO 00000KT 10SM CLR 20/13 A3008 RMK AO2,M
RNO,2023-08-18 06:55,-119.7711,39.4839,1341.00,73.00,48.00,41.10,350.00,3.00,0.00,30.04,1011.10,10.00,M,FEW,M,M,M,10000.00,M,M,M,M,M,M,M,M,M,M,73.00,KRNO 180655Z 35003KT 10SM FEW100 23/09 A3004 RMK AO2 SLP111 T02280089,M
RTS,2023-08-18 06:55,-119.8764,39.6682,1539.00,68.00,44.60,42.85,330.00,3.00,0.00,30.10,M,10.00,M,CLR,M,M,M,M,M,M,M,M,M,M,M,M,M,M,68.00,KRTS 180655Z AUTO 33003KT 10SM CLR 20/07 A3010 RMK AO2,M
MEV,2023-08-18 06:55,-119.7500,38.9963,1441.42,57.20,53.60,87.74,110.00,6.00,0.00,30.07,M,10.00,M,FEW,SCT,SCT,M,4000.00,5000.00,5500.00,M,M,M,M,M,M,M,M,57.20,KMEV 180655Z AUTO 11006KT 10SM FEW040 SCT050 SCT055 14/12 A3007 RMK AO2,M
BAM,2023-08-18 06:55,-116.8743,40.5990,1382.36,66.20,55.40,68.15,80.00,4.00,0.00,30.04,M,10.00,M,CLR,M,M,M,M,M,M,M,M,M,M,M,M,M,M,66.20,KBAM 180655Z AUTO 08004KT 10SM CLR 19/13 A3004 RMK AO1,M
TMT,2023-08-18 06:55,-117.1971,39.4643,1749.34,58.00,53.20,84.01,0.00,0.00,0.00,30.14,M,M,M,CLR,M,M,M,M,M,M,M,M,M,M,M,M,M,M,58.00,KTMT 180655Z AUTO 00000KT CLR 14/12 A3014 RMK AO2 T01440118 PWINO,M
10U,2023-08-18 06:55,-116.1876,41.9532,1637.00,64.40,55.40,72.56,130.00,9.00,0.00,30.07,M,10.00,16.00,FEW,M,M,M,6000.00,M,M,M,M,M,M,M,M,M,M,64.40,K10U 180655Z AUTO 13009G16KT 10SM FEW060 18/13 A3007 RMK AO2,M
INS,2023-08-18 06:55,-115.6733,36.5872,955.00,84.20,34.70,16.99,0.00,0.00,0.00,29.91,1007.20,10.00,M,CLR,M,M,M,M,M,M,M,M,M,M,M,M,M,M,81.32,KINS 180655Z AUTO 00000KT 10SM CLR 29/02 A2991 RMK AO2 SLP072 T02900015 $,M
LSV,2023-08-18 06:55,-115.0343,36.2362,570.00,87.80,41.70,19.93,220.00,9.00,0.00,29.78,1005.40,10.00,M,CLR,M,M,M,M,M,M,M,M,M,M,M,M,M,M,84.34,KLSV 180655Z AUTO 22009KT 10SM CLR 31/05 A2978 RMK AO2 SLP054 T03100054 $,M
EKO,2023-08-18 06:56,-115.7860,40.8242,1367.00,64.00,57.00,77.97,80.00,4.00,0.00,30.06,1011.80,10.00,M,CLR,M,M,M,M,M,M,M,M,M,M,M,M,M,M,64.00,KEKO 180656Z AUTO 08004KT 10SM CLR 18/14 A3006 RMK AO2 SLP118 T01780139,M
WMC,2023-08-18 06:56,-117.8072,40.9019,1315.00,74.00,49.00,41.26,110.00,3.00,0.00,30.02,1010.80,10.00,M,BKN,M,M,M,10000.00,M,M,M,M,M,M,M,M,M,M,74.00,KWMC 180656Z AUTO 11003KT 10SM BKN100 23/09 A3002 RMK AO2 SLP108 T02330094,M
NFL,2023-08-18 06:56,-118.7010,39.4166,1199.00,75.00,51.00,42.98,200.00,6.00,0.00,30.02,1013.60,10.00,M,FEW,SCT,BKN,M,5500.00,7000.00,9000.00,M,M,M,M,M,M,M,M,75.00,KNFL 180656Z AUTO 20006KT 10SM FEW055 SCT070 BKN090 24/11 A3002 RMK AO2 SLP136 T02390106,M
HND,2023-08-18 06:56,-115.1344,35.9729,742.79,M,M,M,M,M,0.00,M,M,M,M,M,M,M,M,M,M,M,M,M,M,M,M,M,M,M,M,KHND 180656Z AUTO RMK AO2 SLPNO PWINO FZRANO $,M
TPH,2023-08-18 06:56,-117.0904,38.0505,1654.00,67.00,32.00,27.07,20.00,4.00,0.00,30.10,1010.80,10.00,M,CLR,M,M,M,M,M,M,M,M,M,M,M,M,M,M,67.00,KTPH 180656Z AUTO 02004KT 10SM CLR 19/00 A3010 RMK AO2 SLP108 T01940000,M
LAS,2023-08-18 06:56,-115.1634,36.0719,663.00,93.00,39.00,15.24,210.00,6.00,0.00,29.84,1006.80,10.00,M,CLR,M,M,M,M,M,M,M,M,M,M,M,M,M,M,88.73,KLAS 180656Z 21006KT 10SM CLR 34/04 A2984 RMK AO2 SLP068 T03390039,M
LOL,2023-08-18 07:03,-118.5701,40.0684,1192.43,68.00,47.00,46.93,160.00,9.00,0.00,30.00,M,10.00,M,BKN,M,M,M,12000.00,M,M,M,VCTS,M,M,M,M,M,M,68.00,KLOL 180703Z AUTO 16009KT 10SM VCTS BKN120 20/08 A3000 RMK AO2 LTG DSNT SE T02000083,M
05U,2023-08-18 07:10,-116.0051,39.6042,1811.23,55.40,48.20,76.66,M,M,0.00,30.16,M,10.00,M,M,M,M,M,M,M,M,M,M,M,M,M,M,M,M,55.40,K05U 180710Z AUTO 10SM 13/09 A3016 RMK A01,M
BVU,2023-08-18 07:15,-114.8611,35.9475,671.00,87.80,46.40,23.85,0.00,0.00,0.00,29.83,M,10.00,M,CLR,M,M,M,M,M,M,M,M,M,M,M,M,M,M,84.68,KBVU 180715Z AUTO 00000KT 10SM CLR 31/08 A2983 RMK AO2,M
CXP,2023-08-18 07:15,-119.7326,39.1923,1431.00,66.20,55.40,68.15,0.00,0.00,0.00,30.09,M,10.00,M,CLR,M,M,M,M,M,M,M,M,M,M,M,M,M,M,66.20,KCXP 180715Z AUTO 00000KT 10SM CLR 19/13 A3009 RMK AO2,M
RTS,2023-08-18 07:15,-119.8764,39.6682,1539.00,68.00,44.60,42.85,0.00,0.00,0.00,30.10,M,10.00,M,CLR,M,M,M,M,M,M,M,M,M,M,M,M,M,M,68.00,KRTS 180715Z AUTO 00000KT 10SM CLR 20/07 A3010 RMK AO2,M
MEV,2023-08-18 07:15,-119.7500,38.9963,1441.42,59.00,53.60,82.25,0.00,0.00,0.00,30.08,M,10.00,M,FEW,SCT,SCT,M,4100.00,4600.00,5000.00,M,M,M,M,M,M,M,M,59.00,KMEV 180715Z AUTO 00000KT 10SM FEW041 SCT046 SCT050 15/12 A3008 RMK AO2,M
BAM,2023-08-18 07:15,-116.8743,40.5990,1382.36,66.20,57.20,72.74,0.00,0.00,0.00,30.06,M,10.00,M,BKN,M,M,M,11000.00,M,M,M,M,M,M,M,M,M,M,66.20,KBAM 180715Z AUTO 00000KT 10SM BKN110 19/14 A3006 RMK AO1,M
HTH,2023-08-18 07:15,-118.6315,38.5448,1282.89,73.40,50.00,43.69,280.00,4.00,0.00,30.04,M,10.00,M,CLR,M,M,M,M,M,M,M,M,M,M,M,M,M,M,73.40,KHTH 180715Z AUTO 28004KT 10SM CLR 23/10 A3004 RMK A01,M
10U,2023-08-18 07:15,-116.1876,41.9532,1637.00,62.60,55.40,77.29,130.00,6.00,0.00,30.07,M,10.00,M,CLR,M,M,M,M,M,M,M,M,M,M,M,M,M,M,62.60,K10U 180715Z AUTO 13006KT 10SM CLR 17/13 A3007 RMK AO2,M
TMT,2023-08-18 07:15,-117.1971,39.4643,1749.34,55.40,51.60,87.00,0.00,0.00,0.00,30.15,M,M,M,M,M,M,M,M,M,M,M,M,M,M,M,M,M,M,55.40,KTMT 180715Z AUTO 00000KT 13/11 A3015 RMK AO2 T01300109 PWINO,M
LOL,2023-08-18 07:30,-118.5701,40.0684,1192.43,71.00,48.00,43.98,140.00,9.00,0.00,30.03,M,10.00,M,OVC,M,M,M,11000.00,M,M,M,M,M,M,M,M,M,M,71.00,KLOL 180730Z AUTO 14009KT 10SM OVC110 22/09 A3003 RMK AO2 LTG DSNT NE-SE T02170089,M
BVU,2023-08-18 07:35,-114.8611,35.9475,671.00,91.40,41.00,17.32,0.00,0.00,0.00,29.83,M,10.00,M,CLR,M,M,M,M,M,M,M,M,M,M,M,M,M,M,87.40,KBVU 180735Z AUTO 00000KT 10SM CLR 33/05 A2983 RMK AO2,M
CXP,2023-08-18 07:35,-119.7326,39.1923,1431.00,66.20,55.40,68.15,0.00,0.00,0.00,30.09,M,10.00,M,CLR,M,M,M,M,M,M,M,M,M,M,M,M,M,M,66.20,KCXP 180735Z AUTO 00000KT 10SM CLR 19/13 A3009 RMK AO2,M
RTS,2023-08-18 07:35,-119.8764,39.6682,1539.00,66.20,44.60,45.60,0.00,0.00,0.00,30.11,M,10.00,M,CLR,M,M,M,M,M,M,M,M,M,M,M,M,M,M,66.20,KRTS 180735Z AUTO 00000KT 10SM CLR 19/07 A3011 RMK AO2,M
05U,2023-08-18 07:35,-116.0051,39.6042,1811.23,55.40,48.20,76.66,M,M,0.00,30.15,M,10.00,M,M,M,M,M,M,M,M,M,M,M,M,M,M,M,M,55.40,K05U 180735Z AUTO 10SM 13/09 A3015 RMK A01,M
MEV,2023-08-18 07:35,-119.7500,38.9963,1441.42,60.80,53.60,77.14,230.00,3.00,0.00,30.08,M,10.00,M,SCT,SCT,M,M,4500.00,12000.00,M,M,M,M,M,M,M,M,M,60.80,KMEV 180735Z AUTO 23003KT 10SM SCT045 SCT120 16/12 A3008 RMK AO2,M
HTH,2023-08-18 07:35,-118.6315,38.5448,1282.89,71.60,51.80,49.64,270.00,6.00,0.00,30.04,M,10.00,M,CLR,M,M,M,M,M,M,M,M,M,M,M,M,M,M,71.60,KHTH 180735Z AUTO 27006KT 10SM CLR 22/11 A3004 RMK A01,M
10U,2023-08-18 07:35,-116.1876,41.9532,1637.00,62.60,55.40,77.29,130.00,6.00,0.00,30.07,M,10.00,M,CLR,M,M,M,M,M,M,M,M,M,M,M,M,M,M,62.60,K10U 180735Z AUTO 13006KT 10SM CLR 17/13 A3007 RMK AO2,M
BAM,2023-08-18 07:35,-116.8743,40.5990,1382.36,68.00,57.20,68.35,0.00,0.00,0.00,30.07,M,10.00,M,BKN,M,M,M,11000.00,M,M,M,M,M,M,M,M,M,M,68.00,KBAM 180735Z AUTO 00000KT 10SM BKN110 20/14 A3007 RMK AO1,M
TMT,2023-08-18 07:35,-117.1971,39.4643,1749.34,51.80,50.00,93.55,140.00,4.00,0.00,30.16,M,M,M,M,M,M,M,M,M,M,M,M,M,M,M,M,M,M,51.80,KTMT 180735Z AUTO 14004KT 11/10 A3016 RMK AO2 T01100100 PWINO,M
05U,2023-08-18 07:50,-116.0051,39.6042,1811.23,57.20,48.20,71.83,M,M,0.00,30.15,M,10.00,M,M,M,M,M,M,M,M,M,M,M,M,M,M,M,M,57.20,K05U 180750Z AUTO 10SM 14/09 A3015 RMK A01,M
P68,2023-08-18 07:53,-116.0056,39.6014,1993.00,57.00,48.00,71.81,190.00,5.00,0.00,30.13,1011.60,M,M,M,M,M,M,M,M,M,M,M,M,M,M,M,M,M,57.00,KP68 180753Z AUTO 19005KT 14/09 A3013 RMK AO1 SLP116 T01390089 403060128,M
DRA,2023-08-18 07:53,-116.0278,36.6206,1009.00,79.00,33.00,18.80,0.00,0.00,0.00,29.92,1007.30,10.00,M,CLR,M,M,M,M,M,M,M,M,M,M,M,M,M,M,79.00,KDRA 180753Z AUTO 00000KT 10SM CLR 26/01 A2992 RMK AO2 SLP073 T02610006 403940222,M
ELY,2023-08-18 07:53,-114.8453,39.2950,1909.00,58.00,46.00,64.24,200.00,9.00,0.00,30.16,1010.60,10.00,M,CLR,M,M,M,M,M,M,M,M,M,M,M,M,M,M,58.00,KELY 180753Z AUTO 20009KT 10SM CLR 14/08 A3016 RMK AO2 SLP106 T01440078 403170128,M
VGT,2023-08-18 07:53,-115.1933,36.2111,667.00,90.00,41.00,18.10,0.00,0.00,0.00,29.82,1007.90,10.00,M,CLR,M,M,M,M,M,M,M,M,M,M,M,M,M,M,86.16,KVGT 180753Z AUTO 00000KT 10SM CLR 32/05 A2982 RMK AO2 SLP079 T03220050 404170283,M
LOL,2023-08-18 07:53,-118.5701,40.0684,1192.43,72.00,51.00,47.54,70.00,3.00,0.00,30.02,1012.30,10.00,M,FEW,BKN,M,M,8500.00,11000.00,M,M,M,M,M,M,M,M,M,72.00,KLOL 180753Z AUTO 07003KT 10SM FEW085 BKN110 22/11 A3002 RMK AO2 LTG DSNT NE AND E SLP123 T02220106 403330183,M
BVU,2023-08-18 07:55,-114.8611,35.9475,671.00,86.00,46.40,25.26,340.00,4.00,0.00,29.83,M,10.00,M,CLR,M,M,M,M,M,M,M,M,M,M,M,M,M,M,83.22,KBVU 180755Z AUTO 34004KT 10SM CLR 30/08 A2983 RMK AO2,M
CXP,2023-08-18 07:55,-119.7326,39.1923,1431.00,64.40,55.40,72.56,0.00,0.00,0.00,30.09,M,10.00,M,FEW,M,M,M,12000.00,M,M,M,M,M,M,M,M,M,M,64.40,KCXP 180755Z AUTO 00000KT 10SM FEW120 18/13 A3009 RMK AO2,M
RNO,2023-08-18 07:55,-119.7711,39.4839,1341.00,71.00,49.00,45.66,170.00,3.00,0.00,30.05,1011.50,10.00,M,SCT,M,M,M,11000.00,M,M,M,M,M,M,M,M,M,M,71.00,KRNO 180755Z 17003KT 10SM SCT110 22/09 A3005 RMK AO2 SLP115 T02170094 403440194,M
RTS,2023-08-18 07:55,-119.8764,39.6682,1539.00,66.20,44.60,45.60,0.00,0.00,0.00,30.11,M,10.00,M,CLR,M,M,M,M,M,M,M,M,M,M,M,M,M,M,66.20,KRTS 180755Z AUTO 00000KT 10SM CLR 19/07 A3011 RMK AO2,M
MEV,2023-08-18 07:55,-119.7500,38.9963,1441.42,59.00,53.60,82.25,0.00,0.00,0.00,30.08,M,10.00,M,FEW,SCT,SCT,M,3800.00,4600.00,12000.00,M,M,M,M,M,M,M,M,59.00,KMEV 180755Z AUTO 00000KT 10SM FEW038 SCT046 SCT120 15/12 A3008 RMK AO2,M
BAM,2023-08-18 07:55,-116.8743,40.5990,1382.36,68.00,59.00,72.92,100.00,9.00,0.00,30.03,M,10.00,M,SCT,BKN,M,M,8500.00,11000.00,M,M,M,M,M,M,M,M,M,68.00,KBAM 180755Z AUTO 10009KT 10SM SCT085 BKN110 20/15 A3003 RMK AO1,M
HTH,2023-08-18 07:55,-118.6315,38.5448,1282.89,71.60,51.80,49.64,300.00,6.00,0.00,30.04,M,10.00,M,CLR,M,M,M,M,M,M,M,M,M,M,M,M,M,M,71.60,KHTH 180755Z AUTO 30006KT 10SM CLR 22/11 A3004 RMK A01,M
TMT,2023-08-18 07:55,-117.1971,39.4643,1749.34,50.70,48.70,92.82,150.00,5.00,0.00,30.16,M,M,M,M,M,M,M,M,M,M,M,M,M,M,M,M,M,M,50.70,KTMT 180755Z AUTO 15005KT 10/09 A3016 RMK AO2 T01040093 402870104 PWINO,M
10U,2023-08-18 07:55,-116.1876,41.9532,1637.00,60.80,55.40,82.37,150.00,6.00,0.00,30.07,M,10.00,M,SCT,M,M,M,5500.00,M,M,M,M,M,M,M,M,M,M,60.80,K10U 180755Z AUTO 15006KT 10SM SCT055 16/13 A3007 RMK AO2,M
INS,2023-08-18 07:55,-115.6733,36.5872,955.00,83.50,35.40,17.87,0.00,0.00,0.00,29.91,1007.10,10.00,M,FEW,M,M,M,14000.00,M,M,M,M,M,M,M,M,M,M,80.83,KINS 180755Z AUTO 00000KT 10SM FEW140 29/02 A2991 RMK AO2 SLP071 T02860019 403880218 $,M
LSV,2023-08-18 07:55,-115.0343,36.2362,570.00,90.00,41.00,18.10,0.00,0.00,0.00,29.77,1005.00,10.00,M,CLR,M,M,M,M,M,M,M,M,M,M,M,M,M,M,86.16,KLSV 180755Z AUTO 00000KT 10SM CLR 32/05 A2977 RMK AO2 SLP050 T03230049 404190262 $,M
EKO,2023-08-18 07:56,-115.7860,40.8242,1367.00,59.00,55.00,86.56,180.00,4.00,0.00,30.07,1012.50,10.00,M,CLR,M,M,M,M,M,M,M,M,M,M,M,M,M,M,59.00,KEKO 180756Z AUTO 18004KT 10SM CLR 15/13 A3007 RMK AO2 SLP125 T01500128 403280150,M
WMC,2023-08-18 07:56,-117.8072,40.9019,1315.00,71.00,49.00,45.66,0.00,0.00,0.00,30.00,1010.30,10.00,M,CLR,M,M,M,M,M,M,M,M,M,M,M,M,M,M,71.00,KWMC 180756Z AUTO 00000KT 10SM CLR 22/09 A3000 RMK AO2 SLP103 T02170094 403440183,M
NFL,2023-08-18 07:56,-118.7010,39.4166,1199.00,68.00,51.00,54.50,160.00,5.00,0.00,30.01,1013.30,10.00,M,CLR,M,M,M,M,M,M,M,M,M,M,M,M,M,M,68.00,KNFL 180756Z AUTO 16005KT 10SM CLR 20/11 A3001 RMK AO2 SLP133 T02000106 403440200,M
HND,2023-08-18 07:56,-115.1344,35.9729,742.79,M,M,M,M,M,0.00,M,M,M,M,M,M,M,M,M,M,M,M,M,M,M,M,M,M,M,M,KHND 180756Z AUTO RMK AO2 SLPNO PWINO FZRANO $,M
TPH,2023-08-18 07:56,-117.0904,38.0505,1654.00,65.00,32.00,29.02,360.00,4.00,0.00,30.10,1011.20,10.00,M,CLR,M,M,M,M,M,M,M,M,M,M,M,M,M,M,65.00,KTPH 180756Z AUTO 36004KT 10SM CLR 18/00 A3010 RMK AO2 SLP112 T01830000 403330172,M
LAS,2023-08-18 07:56,-115.1634,36.0719,663.00,92.00,34.00,12.91,200.00,6.00,0.00,29.83,1006.60,10.00,M,FEW,M,M,M,14000.00,M,M,M,M,M,M,M,M,M,M,87.64,KLAS 180756Z 20006KT 10SM FEW140 33/01 A2983 RMK AO2 SLP066 T03330011 404060289,M
BVU,2023-08-18 08:15,-114.8611,35.9475,671.00,87.80,44.60,22.27,0.00,0.00,0.00,29.82,M,10.00,M,CLR,M,M,M,M,M,M,M,M,M,M,M,M,M,M,84.53,KBVU 180815Z AUTO 00000KT 10SM CLR 31/07 A2982 RMK AO2,M
CXP,2023-08-18 08:15,-119.7326,39.1923,1431.00,62.60,57.20,82.50,0.00,0.00,0.00,30.09,M,10.00,M,SCT,M,M,M,12000.00,M,M,M,M,M,M,M,M,M,M,62.60,KCXP 180815Z AUTO 00000KT 10SM SCT120 17/14 A3009 RMK AO2,M
RTS,2023-08-18 08:15,-119.8764,39.6682,1539.00,60.80,42.80,51.45,350.00,5.00,0.00,30.11,M,10.00,M,CLR,M,M,M,M,M,M,M,M,M,M,M,M,M,M,60.80,KRTS 180815Z AUTO 35005KT 10SM CLR 16/06 A3011 RMK AO2,M
05U,2023-08-18 08:15,-116.0051,39.6042,1811.23,53.60,46.40,76.50,M,M,0.00,30.15,M,10.00,M,M,M,M,M,M,M,M,M,M,M,M,M,M,M,M,53.60,K05U 180815Z AUTO 10SM 12/08 A3015 RMK A01,M
MEV,2023-08-18 08:15,-119.7500,38.9963,1441.42,55.40,53.60,93.65,90.00,3.00,0.00,30.08,M,10.00,M,FEW,FEW,BKN,M,3800.00,5000.00,12000.00,M,M,M,M,M,M,M,M,55.40,KMEV 180815Z AUTO 09003KT 10SM FEW038 FEW050 BKN120 13/12 A3008 RMK AO2,M
HTH,2023-08-18 08:15,-118.6315,38.5448,1282.89,71.60,51.80,49.64,290.00,4.00,0.00,30.04,M,10.00,M,CLR,M,M,M,M,M,M,M,M,M,M,M,M,M,M,71.60,KHTH 180815Z AUTO 29004KT 10SM CLR 22/11 A3004 RMK A01,M
10U,2023-08-18 08:15,-116.1876,41.9532,1637.00,60.80,55.40,82.37,140.00,6.00,0.00,30.07,M,10.00,M,FEW,M,M,M,5500.00,M,M,M,M,M,M,M,M,M,M,60.80,K10U 180815Z AUTO 14006KT 10SM FEW055 16/13 A3007 RMK AO2,M
BAM,2023-08-18 08:15,-116.8743,40.5990,1382.36,68.00,59.00,72.92,0.00,0.00,0.00,30.04,M,10.00,M,SCT,M,M,M,11000.00,M,M,M,M,M,M,M,M,M,M,68.00,KBAM 180815Z AUTO 00000KT 10SM SCT110 20/15 A3004 RMK AO1,M
TMT,2023-08-18 08:15,-117.1971,39.4643,1749.34,50.70,48.60,92.47,150.00,6.00,0.00,30.15,M,M,M,M,M,M,M,M,M,M,M,M,M,M,M,M,M,M,50.70,KTMT 180815Z AUTO 15006KT 10/09 A3015 RMK AO2 T01040092 PWINO,M
05U,2023-08-18 08:30,-116.0051,39.6042,1811.23,55.40,46.40,71.64,M,M,0.00,30.15,M,10.00,M,M,M,M,M,M,M,M,M,M,M,M,M,M,M,M,55.40,K05U 180830Z AUTO 10SM 13/08 A3015 RMK A01,M
BVU,2023-08-18 08:35,-114.8611,35.9475,671.00,84.20,44.60,24.99,340.00,5.00,0.00,29.82,M,10.00,M,CLR,M,M,M,M,M,M,M,M,M,M,M,M,M,M,81.73,KBVU 180835Z AUTO 34005KT 10SM CLR 29/07 A2982 RMK AO2,M
CXP,2023-08-18 08:35,-119.7326,39.1923,1431.00,62.60,57.20,82.50,0.00,0.00,0.00,30.09,M,10.00,M,SCT,M,M,M,12000.00,M,M,M,M,M,M,M,M,M,M,62.60,KCXP 180835Z AUTO 00000KT 10SM SCT120 17/14 A3009 RMK AO2,M
RTS,2023-08-18 08:35,-119.8764,39.6682,1539.00,60.80,42.80,51.45,350.00,6.00,0.00,30.10,M,10.00,M,CLR,M,M,M,M,M,M,M,M,M,M,M,M,M,M,60.80,KRTS 180835Z AUTO 35006KT 10SM CLR 16/06 A3010 RMK AO2,M
MEV,2023-08-18 08:35,-119.7500,38.9963,1441.42,55.40,53.60,93.65,100.00,3.00,0.00,30.08,M,10.00,M,OVC,M,M,M,11000.00,M,M,M,M,M,M,M,M,M,M,55.40,KMEV 180835Z AUTO 10003KT 10SM OVC110 13/12 A3008 RMK AO2,M
HTH,2023-08-18 08:35,-118.6315,38.5448,1282.89,69.80,53.60,56.38,330.00,5.00,0.00,30.04,M,10.00,M,CLR,M,M,M,M,M,M,M,M,M,M,M,M,M,M,69.80,KHTH 180835Z AUTO 33005KT 10SM CLR 21/12 A3004 RMK A01,M
10U,2023-08-18 08:35,-116.1876,41.9532,1637.00,59.00,53.60,82.25,170.00,6.00,0.00,30.07,M,10.00,M,CLR,M,M,M,M,M,M,M,M,M,M,M,M,M,M,59.00,K10U 180835Z AUTO 17006KT 10SM CLR 15/12 A3007 RMK AO2,M
BAM,2023-08-18 08:35,-116.8743,40.5990,1382.36,64.40,59.00,82.62,230.00,7.00,0.00,30.04,M,10.00,M,SCT,M,M,M,12000.00,M,M,M,M,M,M,M,M,M,M,64.40,KBAM 180835Z AUTO 23007KT 10SM SCT120 18/15 A3004 RMK AO1,M
TMT,2023-08-18 08:35,-117.1971,39.4643,1749.34,51.00,49.00,92.83,0.00,0.00,0.00,30.15,M,M,M,M,M,M,M,M,M,M,M,M,M,M,M,M,M,M,51.00,KTMT 180835Z AUTO 00000KT 11/09 A3015 RMK AO2 T01050094 PWINO,M
P68,2023-08-18 08:53,-116.0056,39.6014,1993.00,53.00,46.00,77.03,150.00,6.00,0.00,30.12,1011.60,M,M,M,M,M,M,M,M,M,M,M,M,M,M,M,M,M,53.00,KP68 180853Z AUTO 15006KT 12/08 A3012 RMK AO1 SLP116 T01170078 58004,M
DRA,2023-08-18 08:53,-116.0278,36.6206,1009.00,80.00,33.00,18.20,M,3.00,0.00,29.92,1007.10,10.00,M,CLR,M,M,M,M,M,M,M,M,M,M,M,M,M,M,78.56,KDRA 180853Z AUTO VRB03KT 10SM CLR 27/01 A2992 RMK AO2 SLP071 T02670006 50000,M
ELY,2023-08-18 08:53,-114.8453,39.2950,1909.00,55.00,46.00,71.60,330.00,3.00,0.00,30.17,1010.80,10.00,M,CLR,M,M,M,M,M,M,M,M,M,M,M,M,M,M,55.00,KELY 180853Z AUTO 33003KT 10SM CLR 13/08 A3017 RMK AO2 SLP108 T01280078 51002,M
VGT,2023-08-18 08:53,-115.1933,36.2111,667.00,89.00,44.00,20.96,0.00,0.00,0.00,29.82,1008.00,10.00,M,CLR,M,M,M,M,M,M,M,M,M,M,M,M,M,M,85.50,KVGT 180853Z AUTO 00000KT 10SM CLR 32/07 A2982 RMK AO2 SLP080 T03170067 58001,M
LOL,2023-08-18 08:53,-118.5701,40.0684,1192.43,73.00,49.00,42.67,320.00,3.00,0.00,29.99,1010.80,10.00,M,FEW,FEW,SCT,M,7000.00,10000.00,12000.00,M,M,M,M,M,M,M,M,73.00,KLOL 180853Z AUTO 32003KT 10SM FEW070 FEW100 SCT120 23/09 A2999 RMK AO2 SLP108 T02280094 50005,M
BVU,2023-08-18 08:55,-114.8611,35.9475,671.00,84.20,46.40,26.76,350.00,3.00,0.00,29.83,M,10.00,M,CLR,M,M,M,M,M,M,M,M,M,M,M,M,M,M,81.87,KBVU 180855Z AUTO 35003KT 10SM CLR 29/08 A2983 RMK AO2,M
CXP,2023-08-18 08:55,-119.7326,39.1923,1431.00,62.60,57.20,82.50,0.00,0.00,0.00,30.09,M,10.00,M,FEW,M,M,M,12000.00,M,M,M,M,M,M,M,M,M,M,62.60,KCXP 180855Z AUTO 00000KT 10SM FEW120 17/14 A3009 RMK AO2,M
RNO,2023-08-18 08:55,-119.7711,39.4839,1341.00,68.00,50.00,52.51,180.00,3.00,0.00,30.05,1011.40,10.00,M,FEW,M,M,M,11000.00,M,M,M,M,M,M,M,M,M,M,68.00,KRNO 180855Z 18003KT 10SM FEW110 20/10 A3005 RMK AO2 SLP114 T02000100 50004,M
RTS,2023-08-18 08:55,-119.8764,39.6682,1539.00,60.80,42.80,51.45,350.00,6.00,0.00,30.10,M,10.00,M,FEW,M,M,M,12000.00,M,M,M,M,M,M,M,M,M,M,60.80,KRTS 180855Z AUTO 35006KT 10SM FEW120 16/06 A3010 RMK AO2,M
05U,2023-08-18 08:55,-116.0051,39.6042,1811.23,51.80,44.60,76.34,M,M,0.00,30.14,M,10.00,M,M,M,M,M,M,M,M,M,M,M,M,M,M,M,M,51.80,K05U 180855Z AUTO 10SM 11/07 A3014 RMK A01,M
MEV,2023-08-18 08:55,-119.7500,38.9963,1441.42,55.40,53.60,93.65,120.00,6.00,0.00,30.08,M,10.00,M,BKN,M,M,M,11000.00,M,M,M,M,M,M,M,M,M,M,55.40,KMEV 180855Z AUTO 12006KT 10SM BKN110 13/12 A3008 RMK AO2,M
BAM,2023-08-18 08:55,-116.8743,40.5990,1382.36,64.40,55.40,72.56,250.00,9.00,0.00,30.05,M,10.00,M,SCT,M,M,M,11000.00,M,M,M,M,M,M,M,M,M,M,64.40,KBAM 180855Z AUTO 25009KT 10SM SCT110 18/13 A3005 RMK AO1,M
HTH,2023-08-18 08:55,-118.6315,38.5448,1282.89,68.00,51.80,56.13,0.00,0.00,0.00,30.04,M,10.00,M,CLR,M,M,M,M,M,M,M,M,M,M,M,M,M,M,68.00,KHTH 180855Z AUTO 00000KT 10SM CLR 20/11 A3004 RMK A01,M
TMT,2023-08-18 08:55,-117.1971,39.4643,1749.34,51.40,48.40,89.44,330.00,6.00,0.00,30.14,M,M,M,M,M,M,M,M,M,M,M,M,M,M,M,M,M,M,51.40,KTMT 180855Z AUTO 33006KT 11/09 A3014 RMK AO2 T01080091 PWINO,M
10U,2023-08-18 08:55,-116.1876,41.9532,1637.00,59.00,53.60,82.25,210.00,5.00,0.00,30.07,M,10.00,M,CLR,M,M,M,M,M,M,M,M,M,M,M,M,M,M,59.00,K10U 180855Z AUTO 21005KT 10SM CLR 15/12 A3007 RMK AO2,M
INS,2023-08-18 08:55,-115.6733,36.5872,955.00,78.80,33.00,18.93,0.00,0.00,0.00,29.90,1007.00,10.00,M,CLR,M,M,M,M,M,M,M,M,M,M,M,M,M,M,78.80,KINS 180855Z AUTO 00000KT 10SM CLR 26/01 A2990 RMK AO2 SLP070 T02600006 50001 $,M
LSV,2023-08-18 08:55,-115.0343,36.2362,570.00,88.30,39.40,17.94,210.00,3.00,0.00,29.77,1005.20,10.00,M,CLR,M,M,M,M,M,M,M,M,M,M,M,M,M,M,84.64,KLSV 180855Z AUTO 21003KT 10SM CLR 31/04 A2977 RMK AO2 SLP052 T03130041 50002 $,M
EKO,2023-08-18 08:56,-115.7860,40.8242,1367.00,59.00,56.00,89.76,250.00,4.00,0.00,30.07,1012.60,10.00,M,FEW,M,M,M,12000.00,M,M,M,M,M,M,M,M,M,M,59.00,KEKO 180856Z AUTO 25004KT 10SM FEW120 15/13 A3007 RMK AO2 SLP126 T01500133 53004,M
WMC,2023-08-18 08:56,-117.8072,40.9019,1315.00,66.00,48.00,52.22,200.00,7.00,0.00,30.03,1011.40,10.00,M,BKN,M,M,M,11000.00,M,M,M,M,M,M,M,M,M,M,66.00,KWMC 180856Z AUTO 20007KT 10SM BKN110 19/09 A3003 RMK AO2 LTG DSNT S SLP114 T01890089 53003,M
NFL,2023-08-18 08:56,-118.7010,39.4166,1199.00,68.00,52.00,56.55,260.00,3.00,0.00,30.00,1013.00,10.00,M,CLR,M,M,M,M,M,M,M,M,M,M,M,M,M,M,68.00,KNFL 180856Z AUTO 26003KT 10SM CLR 20/11 A3000 RMK AO2 SLP130 T02000111 58003,M
HND,2023-08-18 08:56,-115.1344,35.9729,742.79,M,M,M,M,M,0.00,M,M,M,M,M,M,M,M,M,M,M,M,M,M,M,M,M,M,M,M,KHND 180856Z AUTO RMK AO2 SLPNO 6//// PWINO FZRANO $,M
TPH,2023-08-18 08:56,-117.0904,38.0505,1654.00,60.00,30.00,31.92,20.00,6.00,0.00,30.09,1010.80,10.00,M,CLR,M,M,M,M,M,M,M,M,M,M,M,M,M,M,60.00,KTPH 180856Z AUTO 02006KT 10SM CLR 16/M01 A3009 RMK AO2 SLP108 T01561011 58001,M
LAS,2023-08-18 08:56,-115.1634,36.0719,663.00,91.00,36.00,14.42,190.00,7.00,0.00,29.82,1006.50,10.00,M,FEW,SCT,M,M,15000.00,25000.00,M,M,M,M,M,M,M,M,M,86.83,KLAS 180856Z 19007KT 10SM FEW150 SCT250 33/02 A2982 RMK AO2 SLP065 T03280022 50000,M
05U,2023-08-18 09:10,-116.0051,39.6042,1811.23,57.20,48.20,71.83,M,M,0.00,30.15,M,10.00,M,M,M,M,M,M,M,M,M,M,M,M,M,M,M,M,57.20,K05U 180910Z AUTO 10SM 14/09 A3015 RMK A01,M
BVU,2023-08-18 09:15,-114.8611,35.9475,671.00,87.80,39.20,18.09,0.00,0.00,0.00,29.83,M,10.00,M,CLR,M,M,M,M,M,M,M,M,M,M,M,M,M,M,84.22,KBVU 180915Z AUTO 00000KT 10SM CLR 31/04 A2983 RMK AO2,M
CXP,2023-08-18 09:15,-119.7326,39.1923,1431.00,60.80,57.20,87.92,0.00,0.00,0.00,30.09,M,10.00,M,SCT,M,M,M,12000.00,M,M,M,M,M,M,M,M,M,M,60.80,KCXP 180915Z AUTO 00000KT 10SM SCT120 16/14 A3009 RMK AO2,M
RTS,2023-08-18 09:15,-119.8764,39.6682,1539.00,62.60,44.60,51.72,0.00,0.00,0.00,30.09,M,10.00,M,FEW,M,M,M,12000.00,M,M,M,M,M,M,M,M,M,M,62.60,KRTS 180915Z AUTO 00000KT 10SM FEW120 17/07 A3009 RMK AO2,M
MEV,2023-08-18 09:15,-119.7500,38.9963,1441.42,55.40,53.60,93.65,110.00,7.00,0.00,30.08,M,10.00,M,SCT,M,M,M,11000.00,M,M,M,M,M,M,M,M,M,M,55.40,KMEV 180915Z AUTO 11007KT 10SM SCT110 13/12 A3008 RMK AO2,M
BAM,2023-08-18 09:15,-116.8743,40.5990,1382.36,64.40,55.40,72.56,230.00,7.00,0.00,30.04,M,10.00,M,BKN,M,M,M,11000.00,M,M,M,M,M,M,M,M,M,M,64.40,KBAM 180915Z AUTO 23007KT 10SM BKN110 18/13 A3004 RMK AO1,M
HTH,2023-08-18 09:15,-118.6315,38.5448,1282.89,69.80,53.60,56.38,0.00,0.00,0.00,30.04,M,10.00,M,CLR,M,M,M,M,M,M,M,M,M,M,M,M,M,M,69.80,KHTH 180915Z AUTO 00000KT 10SM CLR 21/12 A3004 RMK A01,M
10U,2023-08-18 09:15,-116.1876,41.9532,1637.00,55.40,53.60,93.65,170.00,4.00,0.00,30.07,M,10.00,M,CLR,M,M,M,M,M,M,M,M,M,M,M,M,M,M,55.40,K10U 180915Z AUTO 17004KT 10SM CLR 13/12 A3007 RMK AO2,M
TMT,2023-08-18 09:15,-117.1971,39.4643,1749.34,51.80,49.50,91.82,320.00,5.00,0.00,30.14,M,M,M,M,M,M,M,M,M,M,M,M,M,M,M,M,M,M,51.80,KTMT 180915Z AUTO 32005KT 11/10 A3014 RMK AO2 T01100097 PWINO,M
BVU,2023-08-18 09:35,-114.8611,35.9475,671.00,86.00,48.20,27.03,90.00,6.00,0.00,29.83,M,10.00,M,CLR,M,M,M,M,M,M,M,M,M,M,M,M,M,M,83.40,KBVU 180935Z AUTO 09006KT 10SM CLR 30/09 A2983 RMK AO2,M
CXP,2023-08-18 09:35,-119.7326,39.1923,1431.00,62.60,57.20,82.50,0.00,0.00,0.00,30.09,M,10.00,M,FEW,M,M,M,12000.00,M,M,M,M,M,M,M,M,M,M,62.60,KCXP 180935Z AUTO 00000KT 10SM FEW120 17/14 A3009 RMK AO2,M
RTS,2023-08-18 09:35,-119.8764,39.6682,1539.00,57.20,42.80,58.52,0.00,0.00,0.00,30.09,M,10.00,M,CLR,M,M,M,M,M,M,M,M,M,M,M,M,M,M,57.20,KRTS 180935Z AUTO 00000KT 10SM CLR 14/06 A3009 RMK AO2,M
05U,2023-08-18 09:35,-116.0051,39.6042,1811.23,59.00,46.40,62.92,M,M,0.00,30.14,M,10.00,M,M,M,M,M,M,M,M,M,M,M,M,M,M,M,M,59.00,K05U 180935Z AUTO 10SM 15/08 A3014 RMK A01,M
MEV,2023-08-18 09:35,-119.7500,38.9963,1441.42,55.40,53.60,93.65,170.00,5.00,0.00,30.07,M,10.00,M,BKN,M,M,M,11000.00,M,M,M,M,M,M,M,M,M,M,55.40,KMEV 180935Z AUTO 17005KT 10SM BKN110 13/12 A3007 RMK AO2,M
BAM,2023-08-18 09:35,-116.8743,40.5990,1382.36,66.20,53.60,63.82,230.00,6.00,0.00,30.05,M,10.00,M,SCT,M,M,M,11000.00,M,M,M,M,M,M,M,M,M,M,66.20,KBAM 180935Z AUTO 23006KT 10SM SCT110 19/12 A3005 RMK AO1,M
HTH,2023-08-18 09:35,-118.6315,38.5448,1282.89,68.00,53.60,59.97,0.00,0.00,0.00,30.04,M,10.00,M,CLR,M,M,M,M,M,M,M,M,M,M,M,M,M,M,68.00,KHTH 180935Z AUTO 00000KT 10SM CLR 20/12 A3004 RMK A01,M
10U,2023-08-18 09:35,-116.1876,41.9532,1637.00,57.20,51.80,82.12,150.00,6.00,0.00,30.08,M,10.00,M,SCT,M,M,M,6000.00,M,M,M,M,M,M,M,M,M,M,57.20,K10U 180935Z AUTO 15006KT 10SM SCT060 14/11 A3008 RMK AO2,M
TMT,2023-08-18 09:35,-117.1971,39.4643,1749.34,52.00,49.00,89.46,0.00,0.00,0.00,30.15,M,M,M,M,M,M,M,M,M,M,M,M,M,M,M,M,M,M,52.00,KTMT 180935Z AUTO 00000KT 11/10 A3015 RMK AO2 T01110095 PWINO,M
05U,2023-08-18 09:50,-116.0051,39.6042,1811.23,53.60,46.40,76.50,M,M,0.00,30.15,M,10.00,M,M,M,M,M,M,M,M,M,M,M,M,M,M,M,M,53.60,K05U 180950Z AUTO 10SM 12/08 A3015 RMK A01,M
HTH,2023-08-18 09:50,-118.6315,38.5448,1282.89,68.00,51.80,56.13,200.00,4.00,0.00,30.04,M,10.00,M,CLR,M,M,M,M,M,M,M,M,M,M,M,M,M,M,68.00,KHTH 180950Z AUTO 20004KT 10SM CLR 20/11 A3004 RMK A01,M
P68,2023-08-18 09:53,-116.0056,39.6014,1993.00,53.00,46.00,77.03,0.00,0.00,0.00,30.12,1012.00,M,M,M,M,M,M,M,M,M,M,M,M,M,M,M,M,M,53.00,KP68 180953Z AUTO 00000KT 12/08 A3012 RMK AO1 SLP120 T01170078,M
DRA,2023-08-18 09:53,-116.0278,36.6206,1009.00,79.00,31.00,17.35,30.00,7.00,0.00,29.92,1007.20,10.00,M,CLR,M,M,M,M,M,M,M,M,M,M,M,M,M,M,79.00,KDRA 180953Z AUTO 03007KT 10SM CLR 26/M01 A2992 RMK AO2 SLP072 T02611006,M
ELY,2023-08-18 09:53,-114.8453,39.2950,1909.00,54.00,45.00,71.50,60.00,5.00,0.00,30.16,1010.80,10.00,M,FEW,M,M,M,12000.00,M,M,M,M,M,M,M,M,M,M,54.00,KELY 180953Z AUTO 06005KT 10SM FEW120 12/07 A3016 RMK AO2 SLP108 T01220072,M
VGT,2023-08-18 09:53,-115.1933,36.2111,667.00,87.00,44.00,22.33,M,3.00,0.00,29.83,1008.30,10.00,M,CLR,M,M,M,M,M,M,M,M,M,M,M,M,M,M,83.82,KVGT 180953Z AUTO VRB03KT 10SM CLR 31/07 A2983 RMK AO2 SLP083 T03060067,M
LOL,2023-08-18 09:53,-118.5701,40.0684,1192.43,66.00,49.00,54.21,160.00,4.00,0.00,30.00,1011.40,10.00,M,FEW,M,M,M,12000.00,M,M,M,M,M,M,M,M,M,M,66.00,KLOL 180953Z AUTO 16004KT 10SM FEW120 19/09 A3000 RMK AO2 SLP114 T01890094,M
BVU,2023-08-18 09:55,-114.8611,35.9475,671.00,84.20,44.60,24.99,0.00,0.00,0.00,29.84,M,10.00,M,CLR,M,M,M,M,M,M,M,M,M,M,M,M,M,M,81.73,KBVU 180955Z AUTO 00000KT 10SM CLR 29/07 A2984 RMK AO2,M
CXP,2023-08-18 09:55,-119.7326,39.1923,1431.00,60.80,55.40,82.37,320.00,5.00,0.00,30.09,M,10.00,M,CLR,M,M,M,M,M,M,M,M,M,M,M,M,M,M,60.80,KCXP 180955Z AUTO 32005KT 10SM CLR 16/13 A3009 RMK AO2,M
RNO,2023-08-18 09:55,-119.7711,39.4839,1341.00,69.00,49.00,48.88,300.00,3.00,0.00,30.04,1010.90,10.00,M,FEW,M,M,M,12000.00,M,M,M,M,M,M,M,M,M,M,69.00,KRNO 180955Z 30003KT 10SM FEW120 21/09 A3004 RMK AO2 SLP109 T02060094,M
RTS,2023-08-18 09:55,-119.8764,39.6682,1539.00,59.00,42.80,54.86,0.00,0.00,0.00,30.09,M,10.00,M,FEW,M,M,M,12000.00,M,M,M,M,M,M,M,M,M,M,59.00,KRTS 180955Z AUTO 00000KT 10SM FEW120 15/06 A3009 RMK AO2,M
MEV,2023-08-18 09:55,-119.7500,38.9963,1441.42,55.40,53.60,93.65,110.00,4.00,0.00,30.08,M,10.00,M,FEW,FEW,SCT,M,5500.00,6500.00,11000.00,M,M,M,M,M,M,M,M,55.40,KMEV 180955Z AUTO 11004KT 10SM FEW055 FEW065 SCT110 13/12 A3008 RMK AO2,M
BAM,2023-08-18 09:55,-116.8743,40.5990,1382.36,62.60,55.40,77.29,140.00,4.00,0.00,30.04,M,10.00,M,CLR,M,M,M,M,M,M,M,M,M,M,M,M,M,M,62.60,KBAM 180955Z AUTO 14004KT 10SM CLR 17/13 A3004 RMK AO1,M
TMT,2023-08-18 09:55,-117.1971,39.4643,1749.34,48.60,47.50,95.96,150.00,6.00,0.00,30.15,M,M,M,M,M,M,M,M,M,M,M,M,M,M,M,M,M,M,45.52,KTMT 180955Z AUTO 15006KT 09/09 A3015 RMK AO2 T00920086 PWINO,M
10U,2023-08-18 09:55,-116.1876,41.9532,1637.00,57.20,53.60,87.74,0.00,0.00,0.00,30.08,M,10.00,M,FEW,M,M,M,6000.00,M,M,M,M,M,M,M,M,M,M,57.20,K10U 180955Z AUTO 00000KT 10SM FEW060 14/12 A3008 RMK AO2,M
INS,2023-08-18 09:55,-115.6733,36.5872,955.00,76.60,32.50,19.95,0.00,0.00,0.00,29.91,1007.40,10.00,M,CLR,M,M,M,M,M,M,M,M,M,M,M,M,M,M,76.60,KINS 180955Z AUTO 00000KT 10SM CLR 25/00 A2991 RMK AO2 SLP074 T02480003 $,M
LSV,2023-08-18 09:55,-115.0343,36.2362,570.00,88.50,35.00,14.99,190.00,4.00,0.00,29.78,1005.40,10.00,M,CLR,M,M,M,M,M,M,M,M,M,M,M,M,M,M,84.69,KLSV 180955Z AUTO 19004KT 10SM CLR 31/02 A2978 RMK AO2 SLP054 T03140016 $,M
EKO,2023-08-18 09:56,-115.7860,40.8242,1367.00,60.00,56.00,86.61,0.00,0.00,0.00,30.07,1012.80,10.00,M,CLR,M,M,M,M,M,M,M,M,M,M,M,M,M,M,60.00,KEKO 180956Z AUTO 00000KT 10SM CLR 16/13 A3007 RMK AO2 SLP128 T01560133,M
WMC,2023-08-18 09:56,-117.8072,40.9019,1315.00,73.00,49.00,42.67,280.00,8.00,0.00,30.04,1011.20,10.00,M,BKN,OVC,M,M,9500.00,12000.00,M,M,M,M,M,M,M,M,M,73.00,KWMC 180956Z AUTO 28008KT 10SM BKN095 OVC120 23/09 A3004 RMK AO2 LTG DSNT NW SLP112 T02280094,M
HND,2023-08-18 09:56,-115.1344,35.9729,742.79,M,M,M,M,M,0.00,M,M,M,M,M,M,M,M,M,M,M,M,M,M,M,M,M,M,M,M,KHND 180956Z AUTO RMK AO2 SLPNO PWINO FZRANO $,M
TPH,2023-08-18 09:56,-117.0904,38.0505,1654.00,60.00,34.00,37.50,350.00,11.00,0.00,30.09,1010.60,10.00,M,CLR,M,M,M,M,M,M,M,M,M,M,M,M,M,M,60.00,KTPH 180956Z AUTO 35011KT 10SM CLR 16/01 A3009 RMK AO2 SLP106 T01560011,M
LAS,2023-08-18 09:56,-115.1634,36.0719,663.00,89.00,35.00,14.76,190.00,4.00,0.00,29.83,1006.80,10.00,M,BKN,M,M,M,22000.00,M,M,M,M,M,M,M,M,M,M,85.10,KLAS 180956Z 19004KT 10SM BKN220 32/02 A2983 RMK AO2 SLP068 T03170017,M
05U,2023-08-18 10:10,-116.0051,39.6042,1811.23,51.80,44.60,76.34,M,M,0.00,30.15,M,10.00,M,M,M,M,M,M,M,M,M,M,M,M,M,M,M,M,51.80,K05U 181010Z AUTO 10SM 11/07 A3015 RMK A01,M
BVU,2023-08-18 10:15,-114.8611,35.9475,671.00,86.00,41.00,20.54,50.00,4.00,0.00,29.85,M,10.00,M,CLR,M,M,M,M,M,M,M,M,M,M,M,M,M,M,82.86,KBVU 181015Z AUTO 05004KT 10SM CLR 30/05 A2985 RMK AO2,M
CXP,2023-08-18 10:15,-119.7326,39.1923,1431.00,62.60,55.40,77.29,0.00,0.00,0.00,30.09,M,10.00,M,CLR,M,M,M,M,M,M,M,M,M,M,M,M,M,M,62.60,KCXP 181015Z AUTO 00000KT 10SM CLR 17/13 A3009 RMK AO2,M
RTS,2023-08-18 10:15,-119.8764,39.6682,1539.00,59.00,42.80,54.86,0.00,0.00,0.00,30.09,M,10.00,M,CLR,M,M,M,M,M,M,M,M,M,M,M,M,M,M,59.00,KRTS 181015Z AUTO 00000KT 10SM CLR 15/06 A3009 RMK AO2,M
MEV,2023-08-18 10:15,-119.7500,38.9963,1441.42,57.20,51.80,82.12,0.00,0.00,0.00,30.07,M,10.00,M,SCT,SCT,M,M,5500.00,11000.00,M,M,M,M,M,M,M,M,M,57.20,KMEV 181015Z AUTO 00000KT 10SM SCT055 SCT110 14/11 A3007 RMK AO2,M
BAM,2023-08-18 10:15,-116.8743,40.5990,1382.36,64.40,53.60,67.95,210.00,4.00,0.00,30.04,M,10.00,M,CLR,M,M,M,M,M,M,M,M,M,M,M,M,M,M,64.40,KBAM 181015Z AUTO 21004KT 10SM CLR 18/12 A3004 RMK AO1,M
HTH,2023-08-18 10:15,-118.6315,38.5448,1282.89,68.00,51.80,56.13,220.00,5.00,0.00,30.04,M,10.00,M,CLR,M,M,M,M,M,M,M,M,M,M,M,M,M,M,68.00,KHTH 181015Z AUTO 22005KT 10SM CLR 20/11 A3004 RMK A01,M
10U,2023-08-18 10:15,-116.1876,41.9532,1637.00,57.20,53.60,87.74,130.00,3.00,0.00,30.08,M,10.00,M,FEW,M,M,M,6000.00,M,M,M,M,M,M,M,M,M,M,57.20,K10U 181015Z AUTO 13003KT 10SM FEW060 14/12 A3008 RMK AO2,M
TMT,2023-08-18 10:15,-117.1971,39.4643,1749.34,50.00,48.20,93.50,150.00,6.00,0.00,30.15,M,M,M,M,M,M,M,M,M,M,M,M,M,M,M,M,M,M,50.00,KTMT 181015Z AUTO 15006KT 10/09 A3015 RMK AO2 T01000090 PWINO,M
CXP,2023-08-18 10:35,-119.7326,39.1923,1431.00,60.80,55.40,82.37,0.00,0.00,0.00,30.09,M,10.00,M,CLR,M,M,M,M,M,M,M,M,M,M,M,M,M,M,60.80,KCXP 181035Z AUTO 00000KT 10SM CLR 16/13 A3009 RMK AO2,M
BVU,2023-08-18 10:35,-114.8611,35.9475,671.00,86.00,39.20,19.15,0.00,0.00,0.00,29.85,M,10.00,M,CLR,M,M,M,M,M,M,M,M,M,M,M,M,M,M,82.79,KBVU 181035Z AUTO 00000KT 10SM CLR 30/04 A2985 RMK AO2,M
RTS,2023-08-18 10:35,-119.8764,39.6682,1539.00,59.00,42.80,54.86,0.00,0.00,0.00,30.09,M,10.00,M,CLR,M,M,M,M,M,M,M,M,M,M,M,M,M,M,59.00,KRTS 181035Z AUTO 00000KT 10SM CLR 15/06 A3009 RMK AO2,M
05U,2023-08-18 10:35,-116.0051,39.6042,1811.23,51.80,44.60,76.34,M,M,0.00,30.15,M,10.00,M,M,M,M,M,M,M,M,M,M,M,M,M,M,M,M,51.80,K05U 181035Z AUTO 10SM 11/07 A3015 RMK A01,M
MEV,2023-08-18 10:35,-119.7500,38.9963,1441.42,55.40,51.80,87.65,270.00,3.00,0.00,30.08,M,10.00,M,SCT,SCT,M,M,6000.00,11000.00,M,M,M,M,M,M,M,M,M,55.40,KMEV 181035Z AUTO 27003KT 10SM SCT060 SCT110 13/11 A3008 RMK AO2,M
HTH,2023-08-18 10:35,-118.6315,38.5448,1282.89,66.20,51.80,59.74,190.00,5.00,0.00,30.04,M,10.00,M,M,M,M,M,M,M,M,M,M,M,M,M,M,M,M,66.20,KHTH 181035Z AUTO 19005KT 10SM 19/11 A3004 RMK A01,M
10U,2023-08-18 10:35,-116.1876,41.9532,1637.00,57.20,53.60,87.74,160.00,3.00,0.00,30.08,M,10.00,M,FEW,SCT,M,M,6000.00,12000.00,M,M,M,M,M,M,M,M,M,57.20,K10U 181035Z AUTO 16003KT 10SM FEW060 SCT120 14/12 A3008 RMK AO2,M
BAM,2023-08-18 10:35,-116.8743,40.5990,1382.36,62.60,53.60,72.38,0.00,0.00,0.00,30.05,M,10.00,M,CLR,M,M,M,M,M,M,M,M,M,M,M,M,M,M,62.60,KBAM 181035Z AUTO 00000KT 10SM CLR 17/12 A3005 RMK AO1,M
TMT,2023-08-18 10:35,-117.1971,39.4643,1749.34,49.00,47.50,94.53,160.00,5.00,0.00,30.15,M,M,M,M,M,M,M,M,M,M,M,M,M,M,M,M,M,M,46.58,KTMT 181035Z AUTO 16005KT 10/09 A3015 RMK AO2 T00950086 PWINO,M
05U,2023-08-18 10:50,-116.0051,39.6042,1811.23,50.00,42.80,76.18,M,M,0.00,30.15,M,10.00,M,M,M,M,M,M,M,M,M,M,M,M,M,M,M,M,50.00,K05U 181050Z AUTO 10SM 10/06 A3015 RMK A01,M
P68,2023-08-18 10:53,-116.0056,39.6014,1993.00,51.00,43.00,73.97,190.00,5.00,0.00,30.13,1012.20,M,M,M,M,M,M,M,M,M,M,M,M,M,M,M,M,M,51.00,KP68 181053Z AUTO 19005KT 11/06 A3013 RMK AO1 SLP122 T01060061,M
DRA,2023-08-18 10:53,-116.0278,36.6206,1009.00,82.00,30.00,15.10,M,4.00,0.00,29.92,1007.20,10.00,M,CLR,M,M,M,M,M,M,M,M,M,M,M,M,M,M,79.69,KDRA 181053Z AUTO VRB04KT 10SM CLR 28/M01 A2992 RMK AO2 SLP072 T02781011,M
ELY,2023-08-18 10:53,-114.8453,39.2950,1909.00,52.00,44.00,74.07,M,3.00,0.00,30.17,1011.20,10.00,M,CLR,M,M,M,M,M,M,M,M,M,M,M,M,M,M,52.00,KELY 181053Z AUTO VRB03KT 10SM CLR 11/07 A3017 RMK AO2 SLP112 T01110067,M
VGT,2023-08-18 10:53,-115.1933,36.2111,667.00,85.00,42.00,22.05,140.00,3.00,0.00,29.84,1008.90,10.00,M,CLR,M,M,M,M,M,M,M,M,M,M,M,M,M,M,82.15,KVGT 181053Z AUTO 14003KT 10SM CLR 29/06 A2984 RMK AO2 SLP089 T02940056,M
LOL,2023-08-18 10:53,-118.5701,40.0684,1192.43,64.00,48.00,55.99,0.00,0.00,0.00,30.00,1011.60,10.00,M,CLR,M,M,M,M,M,M,M,M,M,M,M,M,M,M,64.00,KLOL 181053Z AUTO 00000KT 10SM CLR 18/09 A3000 RMK AO2 SLP116 T01780089,M
BVU,2023-08-18 10:55,-114.8611,35.9475,671.00,87.80,37.40,16.86,150.00,7.00,0.00,29.86,M,10.00,M,CLR,M,M,M,M,M,M,M,M,M,M,M,M,M,M,84.16,KBVU 181055Z AUTO 15007KT 10SM CLR 31/03 A2986 RMK AO2,M
CXP,2023-08-18 10:55,-119.7326,39.1923,1431.00,60.80,55.40,82.37,0.00,0.00,0.00,30.09,M,10.00,M,CLR,M,M,M,M,M,M,M,M,M,M,M,M,M,M,60.80,KCXP 181055Z AUTO 00000KT 10SM CLR 16/13 A3009 RMK AO2,M
RNO,2023-08-18 10:55,-119.7711,39.4839,1341.00,68.00,48.00,48.73,280.00,4.00,0.00,30.04,1011.10,10.00,M,CLR,M,M,M,M,M,M,M,M,M,M,M,M,M,M,68.00,KRNO 181055Z 28004KT 10SM CLR 20/09 A3004 RMK AO2 SLP111 T02000089,M
RTS,2023-08-18 10:55,-119.8764,39.6682,1539.00,55.40,41.00,58.27,310.00,4.00,0.00,30.09,M,10.00,M,CLR,M,M,M,M,M,M,M,M,M,M,M,M,M,M,55.40,KRTS 181055Z AUTO 31004KT 10SM CLR 13/05 A3009 RMK AO2,M
MEV,2023-08-18 10:55,-119.7500,38.9963,1441.42,53.60,51.80,93.60,0.00,0.00,0.00,30.07,M,10.00,M,FEW,SCT,M,M,5000.00,6000.00,M,M,M,M,M,M,M,M,M,53.60,KMEV 181055Z AUTO 00000KT 10SM FEW050 SCT060 12/11 A3007 RMK AO2,M
BAM,2023-08-18 10:55,-116.8743,40.5990,1382.36,60.80,53.60,77.14,0.00,0.00,0.00,30.05,M,10.00,M,CLR,M,M,M,M,M,M,M,M,M,M,M,M,M,M,60.80,KBAM 181055Z AUTO 00000KT 10SM CLR 16/12 A3005 RMK AO1,M
HTH,2023-08-18 10:55,-118.6315,38.5448,1282.89,66.20,51.80,59.74,180.00,5.00,0.00,30.04,M,10.00,M,CLR,M,M,M,M,M,M,M,M,M,M,M,M,M,M,66.20,KHTH 181055Z AUTO 18005KT 10SM CLR 19/11 A3004 RMK A01,M
TMT,2023-08-18 10:55,-117.1971,39.4643,1749.34,51.40,48.00,88.11,310.00,4.00,0.00,30.16,M,M,M,M,M,M,M,M,M,M,M,M,M,M,M,M,M,M,51.40,KTMT 181055Z AUTO 31004KT 11/09 A3016 RMK AO2 T01080088 PWINO,M
10U,2023-08-18 10:55,-116.1876,41.9532,1637.00,55.40,53.60,93.65,0.00,0.00,0.00,30.07,M,10.00,M,FEW,M,M,M,11000.00,M,M,M,M,M,M,M,M,M,M,55.40,K10U 181055Z AUTO 00000KT 10SM FEW110 13/12 A3007 RMK AO2,M
INS,2023-08-18 10:55,-115.6733,36.5872,955.00,76.00,32.00,19.95,0.00,0.00,0.00,29.92,1007.70,10.00,M,CLR,M,M,M,M,M,M,M,M,M,M,M,M,M,M,76.00,KINS 181055Z AUTO 00000KT 10SM CLR 24/00 A2992 RMK AO2 SLP077 T02440000 $,M
LSV,2023-08-18 10:55,-115.0343,36.2362,570.00,87.60,35.80,15.92,170.00,4.00,0.00,29.80,1006.10,10.00,M,FEW,M,M,M,13000.00,M,M,M,M,M,M,M,M,M,M,83.96,KLSV 181055Z AUTO 17004KT 10SM FEW130 31/02 A2980 RMK AO2 SLP061 T03090021 $,M
EKO,2023-08-18 10:56,-115.7860,40.8242,1367.00,60.00,56.00,86.61,200.00,3.00,0.00,30.07,1013.90,10.00,M,FEW,M,M,M,10000.00,M,M,M,M,M,M,M,M,M,M,60.00,KEKO 181056Z AUTO 20003KT 10SM FEW100 16/13 A3007 RMK AO2 SLP139 T01560133,M
WMC,2023-08-18 10:56,-117.8072,40.9019,1315.00,70.00,52.00,52.80,110.00,4.00,T,30.00,1009.90,10.00,M,FEW,SCT,M,M,4600.00,11000.00,M,M,M,M,M,M,32.00,210.00,2023-08-18 10:11,70.00,KWMC 181056Z AUTO 11004KT 10SM FEW046 SCT110 21/11 A3000 RMK AO2 PK WND 21032/1011 LTG DSNT N RAB05E51 SLP099 P0000 T02110111,M
NFL,2023-08-18 10:56,-118.7010,39.4166,1199.00,63.00,51.00,64.85,150.00,4.00,0.00,30.00,1013.00,10.00,M,CLR,M,M,M,M,M,M,M,M,M,M,M,M,M,M,63.00,KNFL 181056Z AUTO 15004KT 10SM CLR 17/11 A3000 RMK AO2 SLP130 T01720106,M
HND,2023-08-18 10:56,-115.1344,35.9729,742.79,M,M,M,M,M,0.00,M,M,M,M,M,M,M,M,M,M,M,M,M,M,M,M,M,M,M,M,KHND 181056Z AUTO RMK AO2 SLPNO PWINO FZRANO $,M
TPH,2023-08-18 10:56,-117.0904,38.0505,1654.00,59.00,35.00,40.45,330.00,7.00,0.00,30.11,1011.20,10.00,M,CLR,M,M,M,M,M,M,M,M,M,M,M,M,M,M,59.00,KTPH 181056Z AUTO 33007KT 10SM CLR 15/02 A3011 RMK AO2 SLP112 T01500017,M
LAS,2023-08-18 10:56,-115.1634,36.0719,663.00,89.00,32.00,13.09,180.00,7.00,0.00,29.84,1007.20,10.00,M,SCT,BKN,M,M,13000.00,22000.00,M,M,M,M,M,M,M,M,M,85.07,KLAS 181056Z 18007KT 10SM SCT130 BKN220 32/00 A2984 RMK AO2 SLP072 ACC N-NE T03170000,M
BVU,2023-08-18 11:15,-114.8611,35.9475,671.00,87.80,46.40,23.85,120.00,7.00,0.00,29.86,M,10.00,M,CLR,M,M,M,M,M,M,M,M,M,M,M,M,M,M,84.68,KBVU 181115Z AUTO 12007KT 10SM CLR 31/08 A2986 RMK AO2,M
CXP,2023-08-18 11:15,-119.7326,39.1923,1431.00,60.80,55.40,82.37,0.00,0.00,0.00,30.09,M,10.00,M,CLR,M,M,M,M,M,M,M,M,M,M,M,M,M,M,60.80,KCXP 181115Z AUTO 00000KT 10SM CLR 16/13 A3009 RMK AO2,M
RTS,2023-08-18 11:15,-119.8764,39.6682,1539.00,55.40,42.80,62.46,340.00,7.00,0.00,30.09,M,10.00,M,CLR,M,M,M,M,M,M,M,M,M,M,M,M,M,M,55.40,KRTS 181115Z AUTO 34007KT 10SM CLR 13/06 A3009 RMK AO2,M
05U,2023-08-18 11:15,-116.0051,39.6042,1811.23,50.00,42.80,76.18,M,M,0.00,30.16,M,10.00,M,M,M,M,M,M,M,M,M,M,M,M,M,M,M,M,50.00,K05U 181115Z AUTO 10SM 10/06 A3016 RMK A01,M
MEV,2023-08-18 11:15,-119.7500,38.9963,1441.42,51.80,50.00,93.55,80.00,5.00,0.00,30.07,M,10.00,M,FEW,SCT,M,M,4800.00,5500.00,M,M,M,M,M,M,M,M,M,51.80,KMEV 181115Z AUTO 08005KT 10SM FEW048 SCT055 11/10 A3007 RMK AO2,M
BAM,2023-08-18 11:15,-116.8743,40.5990,1382.36,60.80,53.60,77.14,0.00,0.00,0.00,30.05,M,10.00,M,CLR,M,M,M,M,M,M,M,M,M,M,M,M,M,M,60.80,KBAM 181115Z AUTO 00000KT 10SM CLR 16/12 A3005 RMK AO1,M
HTH,2023-08-18 11:15,-118.6315,38.5448,1282.89,66.20,51.80,59.74,180.00,4.00,0.00,30.03,M,10.00,M,CLR,M,M,M,M,M,M,M,M,M,M,M,M,M,M,66.20,KHTH 181115Z AUTO 18004KT 10SM CLR 19/11 A3003 RMK A01,M
10U,2023-08-18 11:15,-116.1876,41.9532,1637.00,57.20,53.60,87.74,0.00,0.00,0.00,30.07,M,10.00,M,CLR,M,M,M,M,M,M,M,M,M,M,M,M,M,M,57.20,K10U 181115Z AUTO 00000KT 10SM CLR 14/12 A3007 RMK AO2,M
TMT,2023-08-18 11:15,-117.1971,39.4643,1749.34,48.20,46.80,94.87,310.00,5.00,0.00,30.16,M,M,M,M,M,M,M,M,M,M,M,M,M,M,M,M,M,M,45.63,KTMT 181115Z AUTO 31005KT 09/08 A3016 RMK AO2 T00900082 PWINO,M
05U,2023-08-18 11:30,-116.0051,39.6042,1811.23,51.80,44.60,76.34,M,M,0.00,30.16,M,10.00,M,M,M,M,M,M,M,M,M,M,M,M,M,M,M,M,51.80,K05U 181130Z AUTO 10SM 11/07 A3016 RMK A01,M
BVU,2023-08-18 11:35,-114.8611,35.9475,671.00,87.80,50.00,27.29,140.00,6.00,0.00,29.86,M,10.00,M,CLR,M,M,M,M,M,M,M,M,M,M,M,M,M,M,85.11,KBVU 181135Z AUTO 14006KT 10SM CLR 31/10 A2986 RMK AO2,M
CXP,2023-08-18 11:35,-119.7326,39.1923,1431.00,59.00,55.40,87.83,0.00,0.00,0.00,30.08,M,10.00,M,CLR,M,M,M,M,M,M,M,M,M,M,M,M,M,M,59.00,KCXP 181135Z AUTO 00000KT 10SM CLR 15/13 A3008 RMK AO2,M
RTS,2023-08-18 11:35,-119.8764,39.6682,1539.00,53.60,42.80,66.70,350.00,5.00,0.00,30.09,M,10.00,M,CLR,M,M,M,M,M,M,M,M,M,M,M,M,M,M,53.60,KRTS 181135Z AUTO 35005KT 10SM CLR 12/06 A3009 RMK AO2,M
MEV,2023-08-18 11:35,-119.7500,38.9963,1441.42,53.60,50.00,87.56,0.00,0.00,0.00,30.07,M,10.00,M,FEW,SCT,M,M,4800.00,5500.00,M,M,M,M,M,M,M,M,M,53.60,KMEV 181135Z AUTO 00000KT 10SM FEW048 SCT055 12/10 A3007 RMK AO2,M
BAM,2023-08-18 11:35,-116.8743,40.5990,1382.36,60.80,53.60,77.14,0.00,0.00,0.00,30.05,M,10.00,M,CLR,M,M,M,M,M,M,M,M,M,M,M,M,M,M,60.80,KBAM 181135Z AUTO 00000KT 10SM CLR 16/12 A3005 RMK AO1,M
HTH,2023-08-18 11:35,-118.6315,38.5448,1282.89,64.40,53.60,67.95,200.00,5.00,0.00,30.03,M,10.00,M,CLR,M,M,M,M,M,M,M,M,M,M,M,M,M,M,64.40,KHTH 181135Z AUTO 20005KT 10SM CLR 18/12 A3003 RMK A01,M
10U,2023-08-18 11:35,-116.1876,41.9532,1637.00,57.20,53.60,87.74,200.00,4.00,0.00,30.07,M,10.00,M,CLR,M,M,M,M,M,M,M,M,M,M,M,M,M,M,57.20,K10U 181135Z AUTO 20004KT 10SM CLR 14/12 A3007 RMK AO2,M
TMT,2023-08-18 11:35,-117.1971,39.4643,1749.34,48.40,46.00,91.36,0.00,0.00,0.00,30.15,M,M,M,M,M,M,M,M,M,M,M,M,M,M,M,M,M,M,48.40,KTMT 181135Z AUTO 00000KT 09/08 A3015 RMK AO2 T00910078 PWINO,M
P68,2023-08-18 11:53,-116.0056,39.6014,1993.00,52.00,45.00,76.94,180.00,3.00,0.00,30.14,1012.10,M,M,M,M,M,M,M,M,M,M,M,M,M,M,M,M,M,52.00,KP68 181153Z AUTO 18003KT 11/07 A3014 RMK AO1 SLP121 T01110072 10161 20100 53004,M
DRA,2023-08-18 11:53,-116.0278,36.6206,1009.00,79.00,30.00,16.66,40.00,7.00,0.00,29.93,1007.50,10.00,M,CLR,M,M,M,M,M,M,M,M,M,M,M,M,M,M,79.00,KDRA 181153Z AUTO 04007KT 10SM CLR 26/M01 A2993 RMK AO2 SLP075 T02611011 10294 20256 53002,M
ELY,2023-08-18 11:53,-114.8453,39.2950,1909.00,50.00,43.00,76.76,170.00,6.00,0.00,30.17,1012.30,10.00,M,CLR,M,M,M,M,M,M,M,M,M,M,M,M,M,M,50.00,KELY 181153Z AUTO 17006KT 10SM CLR 10/06 A3017 RMK AO2 SLP123 T01000061 10178 20089 53002,M
VGT,2023-08-18 11:53,-115.1933,36.2111,667.00,86.00,41.00,20.54,50.00,5.00,0.00,29.85,1009.10,10.00,M,CLR,M,M,M,M,M,M,M,M,M,M,M,M,M,M,82.86,KVGT 181153Z AUTO 05005KT 10SM CLR 30/05 A2985 RMK AO2 SLP091 T03000050 10350 20294 51010,M
LOL,2023-08-18 11:53,-118.5701,40.0684,1192.43,61.00,46.00,57.72,300.00,5.00,0.00,29.99,1011.20,10.00,M,CLR,M,M,M,M,M,M,M,M,M,M,M,M,M,M,61.00,KLOL 181153Z AUTO 30005KT 10SM CLR 16/08 A2999 RMK AO2 SLP112 T01610078 10233 20161 50000,M
BVU,2023-08-18 11:55,-114.8611,35.9475,671.00,87.80,50.00,27.29,180.00,8.00,0.00,29.86,M,10.00,M,CLR,M,M,M,M,M,M,M,M,M,M,M,M,M,M,85.11,KBVU 181155Z AUTO 18008KT 10SM CLR 31/10 A2986 RMK AO2,M
CXP,2023-08-18 11:55,-119.7326,39.1923,1431.00,59.00,53.60,82.25,0.00,0.00,0.00,30.08,M,10.00,M,CLR,M,M,M,M,M,M,M,M,M,M,M,M,M,M,59.00,KCXP 181155Z AUTO 00000KT 10SM CLR 15/12 A3008 RMK AO2,M
RNO,2023-08-18 11:55,-119.7711,39.4839,1341.00,67.00,48.00,50.44,250.00,5.00,0.00,30.04,1011.20,10.00,M,CLR,M,M,M,M,M,M,M,M,M,M,M,M,M,M,67.00,KRNO 181155Z 25005KT 10SM CLR 19/09 A3004 RMK AO2 SLP112 T01940089 10233 20194 58003,M
RTS,2023-08-18 11:55,-119.8764,39.6682,1539.00,57.20,44.60,62.69,340.00,3.00,0.00,30.08,M,10.00,M,CLR,M,M,M,M,M,M,M,M,M,M,M,M,M,M,57.20,KRTS 181155Z AUTO 34003KT 10SM CLR 14/07 A3008 RMK AO2,M
05U,2023-08-18 11:55,-116.0051,39.6042,1811.23,51.80,44.60,76.34,M,M,0.00,30.16,M,10.00,M,M,M,M,M,M,M,M,M,M,M,M,M,M,M,M,51.80,K05U 181155Z AUTO 10SM 11/07 A3016 RMK A01,M
MEV,2023-08-18 11:55,-119.7500,38.9963,1441.42,51.80,50.00,93.55,130.00,4.00,0.00,30.07,M,10.00,M,FEW,M,M,M,5000.00,M,M,M,M,M,M,M,M,M,M,51.80,KMEV 181155Z AUTO 13004KT 10SM FEW050 11/10 A3007 RMK AO2,M
BAM,2023-08-18 11:55,-116.8743,40.5990,1382.36,59.00,53.60,82.25,150.00,4.00,0.00,30.05,M,10.00,M,CLR,M,M,M,M,M,M,M,M,M,M,M,M,M,M,59.00,KBAM 181155Z AUTO 15004KT 10SM CLR 15/12 A3005 RMK AO1,M
HTH,2023-08-18 11:55,-118.6315,38.5448,1282.89,64.40,51.80,63.60,220.00,6.00,0.00,30.03,M,10.00,M,CLR,M,M,M,M,M,M,M,M,M,M,M,M,M,M,64.40,KHTH 181155Z AUTO 22006KT 10SM CLR 18/11 A3003 RMK A01,M
TMT,2023-08-18 11:55,-117.1971,39.4643,1749.34,45.30,44.40,96.63,60.00,3.00,0.00,30.15,M,M,M,M,M,M,M,M,M,M,M,M,M,M,M,M,M,M,43.89,KTMT 181155Z AUTO 06003KT 07/07 A3015 RMK AO2 70007 T00740069 10152 20074 PWINO,M
10U,2023-08-18 11:55,-116.1876,41.9532,1637.00,55.40,51.80,87.65,190.00,4.00,0.00,30.08,M,10.00,M,BKN,M,M,M,11000.00,M,M,M,M,M,M,M,M,M,M,55.40,K10U 181155Z AUTO 19004KT 10SM BKN110 13/11 A3008 RMK AO2,M
INS,2023-08-18 11:55,-115.6733,36.5872,955.00,74.50,34.00,22.73,0.00,0.00,0.00,29.92,1007.70,10.00,M,SCT,M,M,M,16000.00,M,M,M,M,M,M,M,M,M,M,74.50,KINS 181155Z AUTO 00000KT 10SM SCT160 24/01 A2992 RMK AO2 SLP077 T02360012 10300 20231 51005 $,M
LSV,2023-08-18 11:55,-115.0343,36.2362,570.00,86.00,36.00,16.89,30.00,5.00,0.00,29.81,1006.40,10.00,M,CLR,M,M,M,M,M,M,M,M,M,M,M,M,M,M,82.70,KLSV 181155Z AUTO 03005KT 10SM CLR 30/02 A2981 RMK AO2 SLP064 T03000023 10328 20300 52012 $,M
EKO,2023-08-18 11:56,-115.7860,40.8242,1367.00,58.00,55.00,89.72,50.00,3.00,0.00,30.08,1013.80,10.00,M,FEW,M,M,M,12000.00,M,M,M,M,M,M,M,M,M,M,58.00,KEKO 181156Z AUTO 05003KT 10SM FEW120 14/13 A3008 RMK AO2 SLP138 70020 T01440128 10189 20139 53001,M
WMC,2023-08-18 11:56,-117.8072,40.9019,1315.00,67.00,50.00,54.35,150.00,7.00,0.00,30.01,1010.40,10.00,M,FEW,M,M,M,11000.00,M,M,M,M,M,M,M,M,M,M,67.00,KWMC 181156Z AUTO 15007KT 10SM FEW110 19/10 A3001 RMK AO2 SLP104 60000 T01940100 10239 20183 55006,M
NFL,2023-08-18 11:56,-118.7010,39.4166,1199.00,61.00,50.00,67.06,150.00,8.00,0.00,30.00,1012.90,10.00,M,CLR,M,M,M,M,M,M,M,M,M,M,M,M,M,M,61.00,KNFL 181156Z AUTO 15008KT 10SM CLR 16/10 A3000 RMK AO2 SLP129 T01610100 10244 20156 58001,M
HND,2023-08-18 11:56,-115.1344,35.9729,742.79,M,M,M,M,M,0.00,M,M,M,M,M,M,M,M,M,M,M,M,M,M,M,M,M,M,M,M,KHND 181156Z AUTO RMK AO2 SLPNO 6//// 7//// PWINO FZRANO $,M
TPH,2023-08-18 11:56,-117.0904,38.0505,1654.00,58.00,35.00,41.92,360.00,9.00,0.00,30.10,1011.10,10.00,M,CLR,M,M,M,M,M,M,M,M,M,M,M,M,M,M,58.00,KTPH 181156Z AUTO 36009KT 10SM CLR 14/02 A3010 RMK AO2 SLP111 T01440017 10200 20139 50003,M
LAS,2023-08-18 11:56,-115.1634,36.0719,663.00,88.00,33.00,14.06,160.00,4.00,0.00,29.86,1007.70,10.00,M,FEW,BKN,BKN,M,15000.00,18000.00,25000.00,M,M,M,M,M,M,M,M,84.25,KLAS 181156Z 16004KT 10SM FEW150 BKN180 BKN250 31/01 A2986 RMK AO2 SLP077 T03110006 10344 20306 53011,M
BVU,2023-08-18 12:15,-114.8611,35.9475,671.00,84.20,48.20,28.63,M,5.00,0.00,29.88,M,10.00,M,CLR,M,M,M,M,M,M,M,M,M,M,M,M,M,M,82.04,KBVU 181215Z AUTO VRB05KT 10SM CLR 29/09 A2988 RMK AO2,M
CXP,2023-08-18 12:15,-119.7326,39.1923,1431.00,59.00,53.60,82.25,0.00,0.00,0.00,30.08,M,10.00,M,CLR,M,M,M,M,M,M,M,M,M,M,M,M,M,M,59.00,KCXP 181215Z AUTO 00000KT 10SM CLR 15/12 A3008 RMK AO2,M
RTS,2023-08-18 12:15,-119.8764,39.6682,1539.00,51.80,42.80,71.26,0.00,0.00,0.00,30.08,M,10.00,M,CLR,M,M,M,M,M,M,M,M,M,M,M,M,M,M,51.80,KRTS 181215Z AUTO 00000KT 10SM CLR 11/06 A3008 RMK AO2,M
05U,2023-08-18 12:15,-116.0051,39.6042,1811.23,50.00,44.60,81.61,M,M,0.00,30.16,M,10.00,M,M,M,M,M,M,M,M,M,M,M,M,M,M,M,M,50.00,K05U 181215Z AUTO 10SM 10/07 A3016 RMK A01,M
MEV,2023-08-18 12:15,-119.7500,38.9963,1441.42,53.60,50.00,87.56,90.00,4.00,0.00,30.07,M,10.00,M,FEW,M,M,M,5500.00,M,M,M,M,M,M,M,M,M,M,53.60,KMEV 181215Z AUTO 09004KT 10SM FEW055 12/10 A3007 RMK AO2,M
BAM,2023-08-18 12:15,-116.8743,40.5990,1382.36,55.40,53.60,93.65,160.00,6.00,0.00,30.05,M,10.00,M,CLR,M,M,M,M,M,M,M,M,M,M,M,M,M,M,55.40,KBAM 181215Z AUTO 16006KT 10SM CLR 13/12 A3005 RMK AO1,M
HTH,2023-08-18 12:15,-118.6315,38.5448,1282.89,66.20,51.80,59.74,220.00,6.00,0.00,30.03,M,10.00,M,CLR,M,M,M,M,M,M,M,M,M,M,M,M,M,M,66.20,KHTH 181215Z AUTO 22006KT 10SM CLR 19/11 A3003 RMK A01,M
10U,2023-08-18 12:15,-116.1876,41.9532,1637.00,59.00,53.60,82.25,180.00,6.00,0.00,30.09,M,10.00,M,SCT,M,M,M,11000.00,M,M,M,M,M,M,M,M,M,M,59.00,K10U 181215Z AUTO 18006KT 10SM SCT110 15/12 A3009 RMK AO2,M
TMT,2023-08-18 12:15,-117.1971,39.4643,1749.34,45.00,44.00,96.26,0.00,0.00,0.00,30.15,M,M,M,M,M,M,M,M,M,M,M,M,M,M,M,M,M,M,45.00,KTMT 181215Z AUTO 00000KT 07/07 A3015 RMK AO2 T00720066 PWINO,M
HTH,2023-08-18 12:30,-118.6315,38.5448,1282.89,64.40,53.60,67.95,210.00,4.00,0.00,30.03,M,10.00,M,CLR,M,M,M,M,M,M,M,M,M,M,M,M,M,M,64.40,KHTH 181230Z AUTO 21004KT 10SM CLR 18/12 A3003 RMK A01,M
BVU,2023-08-18 12:35,-114.8611,35.9475,671.00,86.00,44.60,23.59,0.00,0.00,0.00,29.89,M,10.00,M,CLR,M,M,M,M,M,M,M,M,M,M,M,M,M,M,83.07,KBVU 181235Z AUTO 00000KT 10SM CLR 30/07 A2989 RMK AO2,M
CXP,2023-08-18 12:35,-119.7326,39.1923,1431.00,57.20,53.60,87.74,0.00,0.00,0.00,30.08,M,10.00,M,CLR,M,M,M,M,M,M,M,M,M,M,M,M,M,M,57.20,KCXP 181235Z AUTO 00000KT 10SM CLR 14/12 A3008 RMK AO2,M
RTS,2023-08-18 12:35,-119.8764,39.6682,1539.00,53.60,42.80,66.70,330.00,4.00,0.00,30.09,M,10.00,M,CLR,M,M,M,M,M,M,M,M,M,M,M,M,M,M,53.60,KRTS 181235Z AUTO 33004KT 10SM CLR 12/06 A3009 RMK AO2,M
05U,2023-08-18 12:35,-116.0051,39.6042,1811.23,46.40,41.00,81.34,M,M,0.00,30.16,M,10.00,M,M,M,M,M,M,M,M,M,M,M,M,M,M,M,M,M,K05U 181235Z AUTO 10SM 08/05 A3016 RMK A01,M
MEV,2023-08-18 12:35,-119.7500,38.9963,1441.42,51.80,48.20,87.47,130.00,6.00,0.00,30.07,M,10.00,M,FEW,M,M,M,5000.00,M,M,M,M,M,M,M,M,M,M,51.80,KMEV 181235Z AUTO 13006KT 10SM FEW050 11/09 A3007 RMK AO2,M
10U,2023-08-18 12:35,-116.1876,41.9532,1637.00,57.20,53.60,87.74,190.00,6.00,0.00,30.09,M,10.00,M,BKN,M,M,M,11000.00,M,M,M,M,M,M,M,M,M,M,57.20,K10U 181235Z AUTO 19006KT 10SM BKN110 14/12 A3009 RMK AO2,M
BAM,2023-08-18 12:35,-116.8743,40.5990,1382.36,57.20,53.60,87.74,170.00,5.00,0.00,30.05,M,10.00,M,CLR,M,M,M,M,M,M,M,M,M,M,M,M,M,M,57.20,KBAM 181235Z AUTO 17005KT 10SM CLR 14/12 A3005 RMK AO1,M
TMT,2023-08-18 12:35,-117.1971,39.4643,1749.34,44.00,42.60,94.78,0.00,0.00,0.00,30.16,M,M,M,M,M,M,M,M,M,M,M,M,M,M,M,M,M,M,44.00,KTMT 181235Z AUTO 00000KT 07/06 A3016 RMK AO2 T00660059 PWINO,M
05U,2023-08-18 12:50,-116.0051,39.6042,1811.23,46.40,41.00,81.34,M,M,0.00,30.17,M,10.00,M,M,M,M,M,M,M,M,M,M,M,M,M,M,M,M,M,K05U 181250Z AUTO 10SM 08/05 A3017 RMK A01,M
P68,2023-08-18 12:53,-116.0056,39.6014,1993.00,48.00,42.00,79.60,0.00,0.00,0.00,30.14,1013.40,M,M,M,M,M,M,M,M,M,M,M,M,M,M,M,M,M,48.00,KP68 181253Z AUTO 00000KT 09/06 A3014 RMK AO1 SLP134 T00890056,M
DRA,2023-08-18 12:53,-116.0278,36.6206,1009.00,85.00,27.00,12.12,220.00,4.00,0.00,29.92,1007.20,10.00,M,FEW,FEW,SCT,M,6500.00,8500.00,12000.00,M,M,M,M,M,M,M,M,81.72,KDRA 181253Z AUTO 22004KT 10SM FEW065 FEW085 SCT120 29/M03 A2992 RMK AO2 SLP072 T02941028,M
ELY,2023-08-18 12:53,-114.8453,39.2950,1909.00,52.00,43.00,71.28,190.00,7.00,0.00,30.18,1012.50,10.00,M,CLR,M,M,M,M,M,M,M,M,M,M,M,M,M,M,52.00,KELY 181253Z AUTO 19007KT 10SM CLR 11/06 A3018 RMK AO2 SLP125 T01110061,M
VGT,2023-08-18 12:53,-115.1933,36.2111,667.00,85.00,41.00,21.21,0.00,0.00,0.00,29.87,1009.90,10.00,M,CLR,M,M,M,M,M,M,M,M,M,M,M,M,M,M,82.10,KVGT 181253Z 00000KT 10SM CLR 29/05 A2987 RMK AO2 SLP099 T02940050,M
LOL,2023-08-18 12:53,-118.5701,40.0684,1192.43,58.00,47.00,66.71,80.00,5.00,0.00,29.99,1011.60,10.00,M,CLR,M,M,M,M,M,M,M,M,M,M,M,M,M,M,58.00,KLOL 181253Z AUTO 08005KT 10SM CLR 14/08 A2999 RMK AO2 SLP116 T01440083,M
BVU,2023-08-18 12:55,-114.8611,35.9475,671.00,84.20,42.80,23.33,0.00,0.00,0.00,29.89,M,10.00,M,CLR,M,M,M,M,M,M,M,M,M,M,M,M,M,M,81.61,KBVU 181255Z AUTO 00000KT 10SM CLR 29/06 A2989 RMK AO2 LTG DSNT SW,M
CXP,2023-08-18 12:55,-119.7326,39.1923,1431.00,57.20,53.60,87.74,0.00,0.00,0.00,30.08,M,10.00,M,CLR,M,M,M,M,M,M,M,M,M,M,M,M,M,M,57.20,KCXP 181255Z AUTO 00000KT 10SM CLR 14/12 A3008 RMK AO2,M
RNO,2023-08-18 12:55,-119.7711,39.4839,1341.00,65.00,47.00,52.07,250.00,5.00,0.00,30.04,1011.40,10.00,M,CLR,M,M,M,M,M,M,M,M,M,M,M,M,M,M,65.00,KRNO 181255Z 25005KT 10SM CLR 18/08 A3004 RMK AO2 SLP114 T01830083,M
RTS,2023-08-18 12:55,-119.8764,39.6682,1539.00,53.60,42.80,66.70,350.00,6.00,0.00,30.09,M,10.00,M,CLR,M,M,M,M,M,M,M,M,M,M,M,M,M,M,53.60,KRTS 181255Z AUTO 35006KT 10SM CLR 12/06 A3009 RMK AO2,M
MEV,2023-08-18 12:55,-119.7500,38.9963,1441.42,50.00,48.20,93.50,140.00,6.00,0.00,30.07,M,10.00,M,CLR,M,M,M,M,M,M,M,M,M,M,M,M,M,M,50.00,KMEV 181255Z AUTO 14006KT 10SM CLR 10/09 A3007 RMK AO2,M
HTH,2023-08-18 12:55,-118.6315,38.5448,1282.89,60.80,50.00,67.54,0.00,0.00,0.00,30.04,M,10.00,M,CLR,M,M,M,M,M,M,M,M,M,M,M,M,M,M,60.80,KHTH 181255Z AUTO 00000KT 10SM CLR 16/10 A3004 RMK A01,M
LSV,2023-08-18 12:55,-115.0343,36.2362,570.00,84.40,40.00,20.80,150.00,10.00,0.00,29.83,1007.20,10.00,M,CLR,M,M,M,M,M,M,M,M,M,M,M,M,M,M,81.62,KLSV 181255Z AUTO 15010KT 10SM CLR 29/05 A2983 RMK AO2 SLP072 T02910045 $,M
BAM,2023-08-18 12:55,-116.8743,40.5990,1382.36,55.40,53.60,93.65,190.00,3.00,0.00,30.06,M,10.00,M,CLR,M,M,M,M,M,M,M,M,M,M,M,M,M,M,55.40,KBAM 181255Z AUTO 19003KT 10SM CLR 13/12 A3006 RMK AO1,M
TMT,2023-08-18 12:55,-117.1971,39.4643,1749.34,42.80,42.40,98.47,0.00,0.00,0.00,30.16,M,M,M,M,M,M,M,M,M,M,M,M,M,M,M,M,M,M,42.80,KTMT 181255Z AUTO 00000KT 06/06 A3016 RMK AO2 T00600058 PWINO,M
10U,2023-08-18 12:55,-116.1876,41.9532,1637.00,57.20,53.60,87.74,170.00,3.00,0.00,30.10,M,10.00,M,FEW,M,M,M,12000.00,M,M,M,M,M,M,M,M,M,M,57.20,K10U 181255Z AUTO 17003KT 10SM FEW120 14/12 A3010 RMK AO2,M
INS,2023-08-18 12:55,-115.6733,36.5872,955.00,74.30,34.00,22.88,0.00,0.00,0.00,29.93,1008.10,10.00,M,OVC,M,M,M,15000.00,M,M,M,M,M,M,M,M,M,M,74.30,KINS 181255Z AUTO 00000KT 10SM OVC150 24/01 A2993 RMK AO2 SLP081 T02350012 $,M
EKO,2023-08-18 12:56,-115.7860,40.8242,1367.00,58.00,54.00,86.51,60.00,4.00,0.00,30.09,1014.00,10.00,M,CLR,M,M,M,M,M,M,M,M,M,M,M,M,M,M,58.00,KEKO 181256Z AUTO 06004KT 10SM CLR 14/12 A3009 RMK AO2 SLP140 T01440122,M
WMC,2023-08-18 12:56,-117.8072,40.9019,1315.00,61.00,48.00,62.23,230.00,5.00,0.00,30.01,1011.10,9.00,M,CLR,M,M,M,M,M,M,M,M,M,M,M,M,M,M,61.00,KWMC 181256Z AUTO 23005KT 9SM CLR 16/09 A3001 RMK AO2 SLP111 T01610089,M
NFL,2023-08-18 12:56,-118.7010,39.4166,1199.00,61.00,51.00,69.60,140.00,5.00,0.00,30.00,1012.90,10.00,M,CLR,M,M,M,M,M,M,M,M,M,M,M,M,M,M,61.00,KNFL 181256Z AUTO 14005KT 10SM CLR 16/11 A3000 RMK AO2 SLP129 T01610106,M
HND,2023-08-18 12:56,-115.1344,35.9729,742.79,M,M,M,M,M,0.00,M,M,M,M,M,M,M,M,M,M,M,M,M,M,M,M,M,M,M,M,KHND 181256Z AUTO RMK AO2 SLPNO PWINO FZRANO $,M
TPH,2023-08-18 12:56,-117.0904,38.0505,1654.00,56.00,35.00,45.06,350.00,7.00,0.00,30.11,1011.90,10.00,M,CLR,M,M,M,M,M,M,M,M,M,M,M,M,M,M,56.00,KTPH 181256Z AUTO 35007KT 10SM CLR 13/02 A3011 RMK AO2 SLP119 T01330017,M
LAS,2023-08-18 12:56,-115.1634,36.0719,663.00,89.00,32.00,13.09,190.00,8.00,0.00,29.88,1008.40,10.00,M,FEW,BKN,OVC,M,12000.00,17000.00,25000.00,M,M,M,M,M,M,M,M,85.07,KLAS 181256Z 19008KT 10SM FEW120 BKN170 OVC250 32/00 A2988 RMK AO2 SLP084 ACC ALQDS T03170000,M
BVU,2023-08-18 13:15,-114.8611,35.9475,671.00,84.20,46.40,26.76,0.00,0.00,0.00,29.91,M,10.00,M,CLR,M,M,M,M,M,M,M,M,M,M,M,M,M,M,81.87,KBVU 181315Z AUTO 00000KT 10SM CLR 29/08 A2991 RMK AO2,M
CXP,2023-08-18 13:15,-119.7326,39.1923,1431.00,57.20,55.40,93.69,0.00,0.00,0.00,30.09,M,10.00,M,CLR,M,M,M,M,M,M,M,M,M,M,M,M,M,M,57.20,KCXP 181315Z AUTO 00000KT 10SM CLR 14/13 A3009 RMK AO2,M
RTS,2023-08-18 13:15,-119.8764,39.6682,1539.00,53.60,42.80,66.70,360.00,5.00,0.00,30.09,M,10.00,M,CLR,M,M,M,M,M,M,M,M,M,M,M,M,M,M,53.60,KRTS 181315Z AUTO 36005KT 10SM CLR 12/06 A3009 RMK AO2,M
05U,2023-08-18 13:15,-116.0051,39.6042,1811.23,46.40,41.00,81.34,M,M,0.00,30.18,M,10.00,M,M,M,M,M,M,M,M,M,M,M,M,M,M,M,M,M,K05U 181315Z AUTO 10SM 08/05 A3018 RMK A01,M
MEV,2023-08-18 13:15,-119.7500,38.9963,1441.42,51.80,50.00,93.55,0.00,0.00,0.00,30.08,M,10.00,M,CLR,M,M,M,M,M,M,M,M,M,M,M,M,M,M,51.80,KMEV 181315Z AUTO 00000KT 10SM CLR 11/10 A3008 RMK AO2,M
BAM,2023-08-18 13:15,-116.8743,40.5990,1382.36,59.00,53.60,82.25,0.00,0.00,0.00,30.07,M,10.00,M,CLR,M,M,M,M,M,M,M,M,M,M,M,M,M,M,59.00,KBAM 181315Z AUTO 00000KT 10SM CLR 15/12 A3007 RMK AO1,M
HTH,2023-08-18 13:15,-118.6315,38.5448,1282.89,62.60,51.80,67.75,180.00,3.00,0.00,30.04,M,10.00,M,CLR,M,M,M,M,M,M,M,M,M,M,M,M,M,M,62.60,KHTH 181315Z AUTO 18003KT 10SM CLR 17/11 A3004 RMK A01,M
10U,2023-08-18 13:15,-116.1876,41.9532,1637.00,55.40,51.80,87.65,0.00,0.00,0.00,30.10,M,10.00,M,CLR,M,M,M,M,M,M,M,M,M,M,M,M,M,M,55.40,K10U 181315Z AUTO 00000KT 10SM CLR 13/11 A3010 RMK AO2,M
TMT,2023-08-18 13:15,-117.1971,39.4643,1749.34,44.60,43.00,94.07,0.00,0.00,0.00,30.16,M,M,M,M,M,M,M,M,M,M,M,M,M,M,M,M,M,M,44.60,KTMT 181315Z AUTO 00000KT 07/06 A3016 RMK AO2 T00700061 PWINO,M
05U,2023-08-18 13:30,-116.0051,39.6042,1811.23,48.20,42.80,81.47,M,M,0.00,30.18,M,10.00,M,M,M,M,M,M,M,M,M,M,M,M,M,M,M,M,M,K05U 181330Z AUTO 10SM 09/06 A3018 RMK A01,M
BVU,2023-08-18 13:35,-114.8611,35.9475,671.00,87.80,51.80,29.18,230.00,7.00,0.00,29.91,M,10.00,13.00,CLR,M,M,M,M,M,M,M,M,M,M,M,M,M,M,85.39,KBVU 181335Z AUTO 23007G13KT 10SM CLR 31/11 A2991 RMK AO2,M
CXP,2023-08-18 13:35,-119.7326,39.1923,1431.00,57.20,55.40,93.69,320.00,3.00,0.00,30.09,M,10.00,M,CLR,M,M,M,M,M,M,M,M,M,M,M,M,M,M,57.20,KCXP 181335Z AUTO 32003KT 10SM CLR 14/13 A3009 RMK AO2,M
RTS,2023-08-18 13:35,-119.8764,39.6682,1539.00,53.60,42.80,66.70,320.00,5.00,0.00,30.09,M,10.00,M,CLR,M,M,M,M,M,M,M,M,M,M,M,M,M,M,53.60,KRTS 181335Z AUTO 32005KT 10SM CLR 12/06 A3009 RMK AO2,M
MEV,2023-08-18 13:35,-119.7500,38.9963,1441.42,51.80,48.20,87.47,140.00,3.00,0.00,30.08,M,10.00,M,CLR,M,M,M,M,M,M,M,M,M,M,M,M,M,M,51.80,KMEV 181335Z AUTO 14003KT 10SM CLR 11/09 A3008 RMK AO2,M
BAM,2023-08-18 13:35,-116.8743,40.5990,1382.36,57.20,53.60,87.74,60.00,4.00,0.00,30.07,M,10.00,M,CLR,M,M,M,M,M,M,M,M,M,M,M,M,M,M,57.20,KBAM 181335Z AUTO 06004KT 10SM CLR 14/12 A3007 RMK AO1,M
HTH,2023-08-18 13:35,-118.6315,38.5448,1282.89,62.60,51.80,67.75,180.00,4.00,0.00,30.05,M,10.00,M,CLR,M,M,M,M,M,M,M,M,M,M,M,M,M,M,62.60,KHTH 181335Z AUTO 18004KT 10SM CLR 17/11 A3005 RMK A01,M
10U,2023-08-18 13:35,-116.1876,41.9532,1637.00,55.40,51.80,87.65,M,5.00,0.00,30.10,M,10.00,M,CLR,M,M,M,M,M,M,M,M,M,M,M,M,M,M,55.40,K10U 181335Z AUTO VRB05KT 10SM CLR 13/11 A3010 RMK AO2 LTG DSNT NW,M
TMT,2023-08-18 13:35,-117.1971,39.4643,1749.34,45.00,43.50,94.44,0.00,0.00,0.00,30.16,M,M,M,M,M,M,M,M,M,M,M,M,M,M,M,M,M,M,45.00,KTMT 181335Z AUTO 00000KT 07/06 A3016 RMK AO2 T00720064 PWINO,M
NFL,2023-08-18 13:40,-118.7010,39.4166,1199.00,61.00,50.00,67.06,0.00,0.00,0.00,30.01,M,10.00,M,SCT,M,M,M,24000.00,M,M,M,M,M,M,M,M,M,M,61.00,KNFL 181340Z 00000KT 10SM SCT240 16/10 A3001 RMK AO2 T01610100,M
P68,2023-08-18 13:53,-116.0056,39.6014,1993.00,52.00,43.00,71.28,0.00,0.00,0.00,30.15,1013.40,M,M,M,M,M,M,M,M,M,M,M,M,M,M,M,M,M,52.00,KP68 181353Z AUTO 00000KT 11/06 A3015 RMK AO1 SLP134 T01110061,M
DRA,2023-08-18 13:53,-116.0278,36.6206,1009.00,80.00,29.00,15.48,300.00,3.00,0.00,29.95,1008.30,10.00,M,BKN,M,M,M,11000.00,M,M,M,M,M,M,M,M,M,M,78.43,KDRA 181353Z AUTO 30003KT 10SM BKN110 27/M02 A2995 RMK AO2 SLP083 T02671017,M
ELY,2023-08-18 13:53,-114.8453,39.2950,1909.00,55.00,44.00,66.36,160.00,7.00,0.00,30.19,1012.90,10.00,M,CLR,M,M,M,M,M,M,M,M,M,M,M,M,M,M,55.00,KELY 181353Z AUTO 16007KT 10SM CLR 13/07 A3019 RMK AO2 SLP129 T01280067,M
VGT,2023-08-18 13:53,-115.1933,36.2111,667.00,85.00,41.00,21.21,0.00,0.00,0.00,29.90,1010.80,10.00,M,CLR,M,M,M,M,M,M,M,M,M,M,M,M,M,M,82.10,KVGT 181353Z 00000KT 10SM CLR 29/05 A2990 RMK AO2 SLP108 T02940050,M
LOL,2023-08-18 13:53,-118.5701,40.0684,1192.43,58.00,46.00,64.24,0.00,0.00,0.00,30.01,1012.30,10.00,M,CLR,M,M,M,M,M,M,M,M,M,M,M,M,M,M,58.00,KLOL 181353Z AUTO 00000KT 10SM CLR 14/08 A3001 RMK AO2 SLP123 T01440078,M
BVU,2023-08-18 13:55,-114.8611,35.9475,671.00,87.80,53.60,31.17,190.00,9.00,0.00,29.92,M,10.00,M,CLR,M,M,M,M,M,M,M,M,M,M,M,M,M,M,85.72,KBVU 181355Z AUTO 19009KT 10SM CLR 31/12 A2992 RMK AO2,M
CXP,2023-08-18 13:55,-119.7326,39.1923,1431.00,59.00,53.60,82.25,0.00,0.00,0.00,30.09,M,10.00,M,CLR,M,M,M,M,M,M,M,M,M,M,M,M,M,M,59.00,KCXP 181355Z AUTO 00000KT 10SM CLR 15/12 A3009 RMK AO2,M
RNO,2023-08-18 13:55,-119.7711,39.4839,1341.00,65.00,47.00,52.07,0.00,0.00,0.00,30.05,1011.80,10.00,M,CLR,M,M,M,M,M,M,M,M,M,M,M,M,M,M,65.00,KRNO 181355Z 00000KT 10SM CLR 18/08 A3005 RMK AO2 SLP118 T01830083,M
RTS,2023-08-18 13:55,-119.8764,39.6682,1539.00,53.60,42.80,66.70,0.00,0.00,0.00,30.09,M,10.00,M,CLR,M,M,M,M,M,M,M,M,M,M,M,M,M,M,53.60,KRTS 181355Z AUTO 00000KT 10SM CLR 12/06 A3009 RMK AO2,M
05U,2023-08-18 13:55,-116.0051,39.6042,1811.23,53.60,42.80,66.70,M,M,0.00,30.18,M,10.00,M,M,M,M,M,M,M,M,M,M,M,M,M,M,M,M,53.60,K05U 181355Z AUTO 10SM 12/06 A3018 RMK A01,M
MEV,2023-08-18 13:55,-119.7500,38.9963,1441.42,51.80,50.00,93.55,130.00,4.00,0.00,30.08,M,10.00,M,CLR,M,M,M,M,M,M,M,M,M,M,M,M,M,M,51.80,KMEV 181355Z AUTO 13004KT 10SM CLR 11/10 A3008 RMK AO2,M
BAM,2023-08-18 13:55,-116.8743,40.5990,1382.36,59.00,53.60,82.25,50.00,4.00,0.00,30.07,M,10.00,M,CLR,M,M,M,M,M,M,M,M,M,M,M,M,M,M,59.00,KBAM 181355Z AUTO 05004KT 10SM CLR 15/12 A3007 RMK AO1,M
HTH,2023-08-18 13:55,-118.6315,38.5448,1282.89,64.40,51.80,63.60,210.00,4.00,0.00,30.05,M,10.00,M,CLR,M,M,M,M,M,M,M,M,M,M,M,M,M,M,64.40,KHTH 181355Z AUTO 21004KT 10SM CLR 18/11 A3005 RMK A01,M
10U,2023-08-18 13:55,-116.1876,41.9532,1637.00,59.00,53.60,82.25,0.00,0.00,0.00,30.11,M,10.00,M,CLR,M,M,M,M,M,M,M,VCTS,M,M,M,M,M,M,59.00,K10U 181355Z AUTO 00000KT 10SM VCTS CLR 15/12 A3011 RMK AO2 LTG DSNT NW,M
LSV,2023-08-18 13:55,-115.0343,36.2362,570.00,89.80,54.00,29.70,140.00,21.00,0.00,29.85,1007.80,9.00,28.00,SCT,M,M,M,17000.00,M,M,M,M,M,M,M,28.00,130.00,2023-08-18 13:43,87.63,KLSV 181355Z AUTO 14021G28KT 9SM SCT170 32/12 A2985 RMK AO2 PK WND 13028/43 SLP078 T03210123 $,M
TMT,2023-08-18 13:55,-117.1971,39.4643,1749.34,46.40,46.00,98.50,0.00,0.00,0.00,30.16,M,M,M,M,M,M,M,M,M,M,M,M,M,M,M,M,M,M,46.40,KTMT 181355Z AUTO 00000KT 08/08 A3016 RMK AO2 T00800077 PWINO,M
INS,2023-08-18 13:55,-115.6733,36.5872,955.00,76.60,33.80,21.02,110.00,7.00,0.00,29.95,1008.70,10.00,M,FEW,M,M,M,15000.00,M,M,M,M,M,M,M,M,M,M,76.60,KINS 181355Z AUTO 11007KT 10SM FEW150 25/01 A2995 RMK AO2 LTG DSNT SW SLP087 T02480010 $,M
EKO,2023-08-18 13:56,-115.7860,40.8242,1367.00,56.00,53.00,89.64,0.00,0.00,0.00,30.11,1014.70,10.00,M,CLR,M,M,M,M,M,M,M,M,M,M,M,M,M,M,56.00,KEKO 181356Z AUTO 00000KT 10SM CLR 13/12 A3011 RMK AO2 SLP147 T01330117,M
WMC,2023-08-18 13:56,-117.8072,40.9019,1315.00,65.00,51.00,60.47,0.00,0.00,0.00,30.03,1011.30,10.00,M,CLR,M,M,M,M,M,M,M,M,M,M,M,M,M,M,65.00,KWMC 181356Z AUTO 00000KT 10SM CLR 18/11 A3003 RMK AO2 SLP113 T01830106,M
NFL,2023-08-18 13:56,-118.7010,39.4166,1199.00,63.00,51.00,64.85,0.00,0.00,0.00,30.01,1013.30,10.00,M,SCT,M,M,M,24000.00,M,M,M,M,M,M,M,M,M,M,63.00,KNFL 181356Z 00000KT 10SM SCT240 17/11 A3001 RMK AO2 SLP133 T01720106,M
HND,2023-08-18 13:56,-115.1344,35.9729,742.79,M,M,M,M,M,0.00,M,M,M,M,M,M,M,M,M,M,M,M,M,M,M,M,M,M,M,M,KHND 181356Z RMK AO2 SLPNO $,M
TPH,2023-08-18 13:56,-117.0904,38.0505,1654.00,60.00,34.00,37.50,360.00,8.00,0.00,30.12,1012.20,10.00,M,CLR,M,M,M,M,M,M,M,M,M,M,M,M,M,M,60.00,KTPH 181356Z AUTO 36008KT 10SM CLR 16/01 A3012 RMK AO2 SLP122 T01560011,M
LAS,2023-08-18 13:56,-115.1634,36.0719,663.00,88.00,32.00,13.51,190.00,8.00,0.00,29.91,1009.40,10.00,16.00,SCT,BKN,OVC,M,12000.00,17000.00,25000.00,M,M,M,M,M,M,M,M,84.24,KLAS 181356Z 19008G16KT 10SM SCT120 BKN170 OVC250 31/00 A2991 RMK AO2 SLP094 VIRGA DSNT S ACC ALQDS T03110000,M
05U,2023-08-18 14:10,-116.0051,39.6042,1811.23,55.40,42.80,62.46,M,M,0.00,30.18,M,10.00,M,M,M,M,M,M,M,M,M,M,M,M,M,M,M,M,55.40,K05U 181410Z AUTO 10SM 13/06 A3018 RMK A01,M
BVU,2023-08-18 14:15,-114.8611,35.9475,671.00,86.00,53.60,33.01,230.00,8.00,0.00,29.93,M,10.00,M,CLR,M,M,M,M,M,M,M,M,M,M,M,M,M,M,84.18,KBVU 181415Z AUTO 23008KT 10SM CLR 30/12 A2993 RMK AO2 LTG DSNT SW,M
CXP,2023-08-18 14:15,-119.7326,39.1923,1431.00,60.80,51.80,72.20,0.00,0.00,0.00,30.10,M,10.00,M,CLR,M,M,M,M,M,M,M,M,M,M,M,M,M,M,60.80,KCXP 181415Z AUTO 00000KT 10SM CLR 16/11 A3010 RMK AO2,M
RTS,2023-08-18 14:15,-119.8764,39.6682,1539.00,57.20,42.80,58.52,0.00,0.00,0.00,30.10,M,10.00,M,CLR,M,M,M,M,M,M,M,M,M,M,M,M,M,M,57.20,KRTS 181415Z AUTO 00000KT 10SM CLR 14/06 A3010 RMK AO2,M
MEV,2023-08-18 14:15,-119.7500,38.9963,1441.42,53.60,51.80,93.60,0.00,0.00,0.00,30.09,M,10.00,M,CLR,M,M,M,M,M,M,M,M,M,M,M,M,M,M,53.60,KMEV 181415Z AUTO 00000KT 10SM CLR 12/11 A3009 RMK AO2,M
HTH,2023-08-18 14:15,-118.6315,38.5448,1282.89,68.00,51.80,56.13,0.00,0.00,0.00,30.05,M,10.00,M,CLR,M,M,M,M,M,M,M,M,M,M,M,M,M,M,68.00,KHTH 181415Z AUTO 00000KT 10SM CLR 20/11 A3005 RMK A01,M
10U,2023-08-18 14:15,-116.1876,41.9532,1637.00,62.60,53.60,72.38,110.00,4.00,0.00,30.10,M,10.00,M,CLR,M,M,M,M,M,M,M,M,M,M,M,M,M,M,62.60,K10U 181415Z AUTO 11004KT 10SM CLR 17/12 A3010 RMK AO2,M
BAM,2023-08-18 14:15,-116.8743,40.5990,1382.36,62.60,53.60,72.38,0.00,0.00,0.00,30.08,M,10.00,M,CLR,M,M,M,M,M,M,M,M,M,M,M,M,M,M,62.60,KBAM 181415Z AUTO 00000KT 10SM CLR 17/12 A3008 RMK AO1,M
TMT,2023-08-18 14:15,-117.1971,39.4643,1749.34,50.00,48.60,94.91,0.00,0.00,0.00,30.16,M,M,M,M,M,M,M,M,M,M,M,M,M,M,M,M,M,M,50.00,KTMT 181415Z AUTO 00000KT 10/09 A3016 RMK AO2 T01010092 PWINO,M
BVU,2023-08-18 14:35,-114.8611,35.9475,671.00,87.80,55.40,33.29,230.00,11.00,0.00,29.93,M,10.00,18.00,CLR,M,M,M,M,M,M,M,M,M,M,M,M,M,M,86.11,KBVU 181435Z AUTO 23011G18KT 10SM CLR 31/13 A2993 RMK AO2,M
CXP,2023-08-18 14:35,-119.7326,39.1923,1431.00,62.60,51.80,67.75,0.00,0.00,0.00,30.10,M,10.00,M,CLR,M,M,M,M,M,M,M,M,M,M,M,M,M,M,62.60,KCXP 181435Z AUTO 00000KT 10SM CLR 17/11 A3010 RMK AO2,M
RTS,2023-08-18 14:35,-119.8764,39.6682,1539.00,60.80,44.60,55.12,0.00,0.00,0.00,30.10,M,10.00,M,CLR,M,M,M,M,M,M,M,M,M,M,M,M,M,M,60.80,KRTS 181435Z AUTO 00000KT 10SM CLR 16/07 A3010 RMK AO2,M
05U,2023-08-18 14:35,-116.0051,39.6042,1811.23,62.60,46.40,55.37,M,M,0.00,30.18,M,10.00,M,M,M,M,M,M,M,M,M,M,M,M,M,M,M,M,62.60,K05U 181435Z AUTO 10SM 17/08 A3018 RMK A01,M
MEV,2023-08-18 14:35,-119.7500,38.9963,1441.42,57.20,51.80,82.12,0.00,0.00,0.00,30.09,M,10.00,M,CLR,M,M,M,M,M,M,M,M,M,M,M,M,M,M,57.20,KMEV 181435Z AUTO 00000KT 10SM CLR 14/11 A3009 RMK AO2,M
BAM,2023-08-18 14:35,-116.8743,40.5990,1382.36,64.40,55.40,72.56,0.00,0.00,0.00,30.08,M,10.00,M,CLR,M,M,M,M,M,M,M,M,M,M,M,M,M,M,64.40,KBAM 181435Z AUTO 00000KT 10SM CLR 18/13 A3008 RMK AO1,M
HTH,2023-08-18 14:35,-118.6315,38.5448,1282.89,68.00,50.00,52.51,0.00,0.00,0.00,30.05,M,10.00,M,CLR,M,M,M,M,M,M,M,M,M,M,M,M,M,M,68.00,KHTH 181435Z AUTO 00000KT 10SM CLR 20/10 A3005 RMK A01,M
10U,2023-08-18 14:35,-116.1876,41.9532,1637.00,66.20,53.60,63.82,110.00,5.00,0.00,30.10,M,10.00,M,FEW,M,M,M,10000.00,M,M,M,M,M,M,M,M,M,M,66.20,K10U 181435Z AUTO 11005KT 10SM FEW100 19/12 A3010 RMK AO2,M
TMT,2023-08-18 14:35,-117.1971,39.4643,1749.34,51.40,49.00,91.47,0.00,0.00,0.00,30.16,M,M,M,M,M,M,M,M,M,M,M,M,M,M,M,M,M,M,51.40,KTMT 181435Z AUTO 00000KT 11/10 A3016 RMK AO2 T01080095 PWINO,M
HND,2023-08-18 14:47,-115.1344,35.9729,742.79,M,M,M,M,M,0.00,M,M,M,M,M,M,M,M,M,M,M,M,VCTS,M,M,M,M,M,M,M,KHND 181447Z VCTS RMK AO2 LTG DSNT S-W TSB41 $,M
05U,2023-08-18 14:50,-116.0051,39.6042,1811.23,64.40,48.20,55.63,M,M,0.00,30.18,M,10.00,M,M,M,M,M,M,M,M,M,M,M,M,M,M,M,M,64.40,K05U 181450Z AUTO 10SM 18/09 A3018 RMK A01,M
P68,2023-08-18 14:53,-116.0056,39.6014,1993.00,62.00,48.00,60.07,0.00,0.00,0.00,30.15,1013.40,M,M,M,M,M,M,M,M,M,M,M,M,M,M,M,M,M,62.00,KP68 181453Z AUTO 00000KT 17/09 A3015 RMK AO1 SLP134 T01670089 50005,M
DRA,2023-08-18 14:53,-116.0278,36.6206,1009.00,78.00,47.00,33.50,180.00,4.00,0.04,29.98,1009.90,10.00,M,FEW,SCT,M,M,3500.00,11000.00,M,M,M,M,M,M,M,M,M,78.00,KDRA 181453Z AUTO 18004KT 10SM FEW035 SCT110 26/08 A2998 RMK AO2 RAB36E49 SLP099 P0004 60004 T02560083 53017,M
ELY,2023-08-18 14:53,-114.8453,39.2950,1909.00,67.00,47.00,48.58,150.00,6.00,0.00,30.19,1011.40,10.00,M,CLR,M,M,M,M,M,M,M,M,M,M,M,M,M,M,67.00,KELY 181453Z AUTO 15006KT 10SM CLR 19/08 A3019 RMK AO2 SLP114 T01940083 50004,M
VGT,2023-08-18 14:53,-115.1933,36.2111,667.00,90.00,35.00,14.30,200.00,5.00,0.00,29.92,1011.30,10.00,M,BKN,M,M,M,11000.00,M,M,M,M,M,M,M,M,M,M,85.95,KVGT 181453Z 20005KT 10SM BKN110 32/02 A2992 RMK AO2 LTG DSNT S AND SW SLP113 T03220017 51021,M
LOL,2023-08-18 14:53,-118.5701,40.0684,1192.43,67.00,51.00,56.41,0.00,0.00,0.00,30.01,1012.20,10.00,M,CLR,M,M,M,M,M,M,M,M,M,M,M,M,M,M,67.00,KLOL 181453Z AUTO 00000KT 10SM CLR 19/11 A3001 RMK AO2 SLP122 T01940106 51006,M
BVU,2023-08-18 14:55,-114.8611,35.9475,671.00,89.60,55.40,31.45,200.00,13.00,0.00,29.94,M,10.00,M,CLR,M,M,M,M,M,M,M,M,M,M,M,M,M,M,87.78,KBVU 181455Z AUTO 20013KT 10SM CLR 32/13 A2994 RMK AO2,M
CXP,2023-08-18 14:55,-119.7326,39.1923,1431.00,64.40,51.80,63.60,0.00,0.00,0.00,30.10,M,10.00,M,CLR,M,M,M,M,M,M,M,M,M,M,M,M,M,M,64.40,KCXP 181455Z AUTO 00000KT 10SM CLR 18/11 A3010 RMK AO2,M
RNO,2023-08-18 14:55,-119.7711,39.4839,1341.00,68.00,48.00,48.73,0.00,0.00,0.00,30.06,1012.00,10.00,M,FEW,M,M,M,10000.00,M,M,M,M,M,M,M,M,M,M,68.00,KRNO 181455Z 00000KT 10SM FEW100 20/09 A3006 RMK AO2 SLP120 T02000089 53007,M
RTS,2023-08-18 14:55,-119.8764,39.6682,1539.00,62.60,46.40,55.37,0.00,0.00,0.00,30.10,M,10.00,M,CLR,M,M,M,M,M,M,M,M,M,M,M,M,M,M,62.60,KRTS 181455Z AUTO 00000KT 10SM CLR 17/08 A3010 RMK AO2,M
MEV,2023-08-18 14:55,-119.7500,38.9963,1441.42,59.00,53.60,82.25,0.00,0.00,0.00,30.09,M,10.00,M,CLR,M,M,M,M,M,M,M,M,M,M,M,M,M,M,59.00,KMEV 181455Z AUTO 00000KT 10SM CLR 15/12 A3009 RMK AO2,M
BAM,2023-08-18 14:55,-116.8743,40.5990,1382.36,68.00,55.40,64.04,0.00,0.00,0.00,30.08,M,10.00,M,CLR,M,M,M,M,M,M,M,M,M,M,M,M,M,M,68.00,KBAM 181455Z AUTO 00000KT 10SM CLR 20/13 A3008 RMK AO1,M
HTH,2023-08-18 14:55,-118.6315,38.5448,1282.89,69.80,51.80,52.77,0.00,0.00,0.00,30.05,M,10.00,M,CLR,M,M,M,M,M,M,M,M,M,M,M,M,M,M,69.80,KHTH 181455Z AUTO 00000KT 10SM CLR 21/11 A3005 RMK A01,M
TMT,2023-08-18 14:55,-117.1971,39.4643,1749.34,54.00,49.30,84.07,0.00,0.00,0.00,30.16,M,M,M,CLR,M,M,M,M,M,M,M,M,M,M,M,M,M,M,54.00,KTMT 181455Z AUTO 00000KT CLR 12/10 A3016 RMK AO2 T01230096 PWINO,M
10U,2023-08-18 14:55,-116.1876,41.9532,1637.00,68.00,55.40,64.04,120.00,8.00,0.00,30.09,M,10.00,M,CLR,M,M,M,M,M,M,M,M,M,M,M,M,M,M,68.00,K10U 181455Z AUTO 12008KT 10SM CLR 20/13 A3009 RMK AO2,M
INS,2023-08-18 14:55,-115.6733,36.5872,955.00,86.40,35.00,16.03,0.00,0.00,0.00,29.96,1008.80,10.00,M,FEW,FEW,M,M,11000.00,16000.00,M,M,M,M,M,M,M,M,M,82.99,KINS 181455Z AUTO 00000KT 10SM FEW110 FEW160 30/02 A2996 RMK AO2 SLP088 T03020016 52013 $,M
LSV,2023-08-18 14:55,-115.0343,36.2362,570.00,89.80,55.00,30.80,150.00,16.00,0.00,29.88,1008.90,10.00,M,FEW,M,M,M,12000.00,M,M,M,M,M,M,M,30.00,140.00,2023-08-18 14:08,87.87,KLSV 181455Z AUTO 15016KT 10SM FEW120 32/13 A2988 RMK AO2 PK WND 14030/08 SLP089 T03210128 52022 $,M
EKO,2023-08-18 14:56,-115.7860,40.8242,1367.00,63.00,56.00,77.89,0.00,0.00,0.00,30.12,1014.60,10.00,M,CLR,M,M,M,M,M,M,M,M,M,M,M,M,M,M,63.00,KEKO 181456Z AUTO 00000KT 10SM CLR 17/13 A3012 RMK AO2 SLP146 T01720133 51011,M
WMC,2023-08-18 14:56,-117.8072,40.9019,1315.00,71.00,48.00,43.98,170.00,5.00,0.00,30.03,1011.80,10.00,M,CLR,M,M,M,M,M,M,M,M,M,M,M,M,M,M,71.00,KWMC 181456Z AUTO 17005KT 10SM CLR 22/09 A3003 RMK AO2 SLP118 T02170089 53008,M
HND,2023-08-18 14:56,-115.1344,35.9729,742.79,M,M,M,M,M,0.00,M,M,M,M,M,M,M,M,M,M,M,M,VCTS,M,M,M,M,M,M,M,KHND 181456Z VCTS RMK AO2 LTG DSNT S-NW TSB41 SLPNO 6//// $,M
TPH,2023-08-18 14:56,-117.0904,38.0505,1654.00,67.00,35.00,30.53,360.00,9.00,0.00,30.13,1012.00,10.00,M,CLR,M,M,M,M,M,M,M,M,M,M,M,M,M,M,67.00,KTPH 181456Z AUTO 36009KT 10SM CLR 19/02 A3013 RMK AO2 SLP120 T01940017 51007,M
LAS,2023-08-18 14:56,-115.1634,36.0719,663.00,89.00,44.00,20.96,180.00,10.00,0.00,29.92,1010.10,10.00,M,SCT,BKN,OVC,M,12000.00,17000.00,25000.00,M,M,M,M,M,M,M,M,85.50,KLAS 181456Z 18010KT 10SM SCT120 BKN170 OVC250 32/07 A2992 RMK AO2 LTG DSNT S-W SLP101 CB DSNT S AND W ACC NE-SE VCSH W T03170067 51021,M
NFL,2023-08-18 14:56,-118.7010,39.4166,1199.00,71.00,52.00,51.03,170.00,4.00,0.00,30.01,1013.30,10.00,M,SCT,M,M,M,12000.00,M,M,M,M,M,M,M,M,M,M,71.00,KNFL 181456Z 17004KT 10SM SCT120 22/11 A3001 RMK AO2 SLP133 T02170111 53005,M
HTH,2023-08-18 15:10,-118.6315,38.5448,1282.89,71.60,51.80,49.64,0.00,0.00,0.00,30.05,M,10.00,M,CLR,M,M,M,M,M,M,M,M,M,M,M,M,M,M,71.60,KHTH 181510Z AUTO 00000KT 10SM CLR 22/11 A3005 RMK A01,M
BVU,2023-08-18 15:15,-114.8611,35.9475,671.00,89.60,55.40,31.45,180.00,16.00,0.00,29.94,M,10.00,M,CLR,M,M,M,M,M,M,M,M,M,M,M,M,M,M,87.78,KBVU 181515Z AUTO 18016KT 10SM CLR 32/13 A2994 RMK AO2,M
CXP,2023-08-18 15:15,-119.7326,39.1923,1431.00,64.40,51.80,63.60,0.00,0.00,0.00,30.10,M,10.00,M,FEW,M,M,M,10000.00,M,M,M,M,M,M,M,M,M,M,64.40,KCXP 181515Z AUTO 00000KT 10SM FEW100 18/11 A3010 RMK AO2,M
05U,2023-08-18 15:15,-116.0051,39.6042,1811.23,68.00,48.20,49.10,M,M,0.00,30.18,M,10.00,M,M,M,M,M,M,M,M,M,M,M,M,M,M,M,M,68.00,K05U 181515Z AUTO 10SM 20/09 A3018 RMK A01,M
RTS,2023-08-18 15:15,-119.8764,39.6682,1539.00,64.40,48.20,55.63,0.00,0.00,0.00,30.11,M,10.00,M,CLR,M,M,M,M,M,M,M,M,M,M,M,M,M,M,64.40,KRTS 181515Z AUTO 00000KT 10SM CLR 18/09 A3011 RMK AO2,M
MEV,2023-08-18 15:15,-119.7500,38.9963,1441.42,60.80,53.60,77.14,0.00,0.00,0.00,30.09,M,10.00,M,CLR,M,M,M,M,M,M,M,M,M,M,M,M,M,M,60.80,KMEV 181515Z AUTO 00000KT 10SM CLR 16/12 A3009 RMK AO2,M
BAM,2023-08-18 15:15,-116.8743,40.5990,1382.36,69.80,53.60,56.38,0.00,0.00,0.00,30.08,M,10.00,M,CLR,M,M,M,M,M,M,M,M,M,M,M,M,M,M,69.80,KBAM 181515Z AUTO 00000KT 10SM CLR 21/12 A3008 RMK AO1,M
10U,2023-08-18 15:15,-116.1876,41.9532,1637.00,69.80,53.60,56.38,120.00,7.00,0.00,30.10,M,10.00,M,CLR,M,M,M,M,M,M,M,M,M,M,M,M,M,M,69.80,K10U 181515Z AUTO 12007KT 10SM CLR 21/12 A3010 RMK AO2,M
TMT,2023-08-18 15:15,-117.1971,39.4643,1749.34,57.70,49.60,74.34,0.00,0.00,0.00,30.16,M,M,M,CLR,M,M,M,M,M,M,M,M,M,M,M,M,M,M,57.70,KTMT 181515Z AUTO 00000KT CLR 14/10 A3016 RMK AO2 T01430098 PWINO,M
VGT,2023-08-18 15:16,-115.1933,36.2111,667.00,91.00,38.00,15.60,290.00,3.00,0.00,29.92,M,10.00,M,BKN,M,M,M,11000.00,M,M,M,VCTS,M,M,M,M,M,M,86.90,KVGT 181516Z 29003KT 10SM VCTS BKN110 33/03 A2992 RMK AO2 LTG DSNT S T03280033,M
HND,2023-08-18 15:26,-115.1344,35.9729,742.79,86.00,51.80,30.90,230.00,10.00,0.00,29.97,M,9.00,M,M,M,M,M,M,M,M,M,TS,M,M,M,M,M,M,83.87,KHND 181526Z 23010KT 9SM TS 30/11 A2997 RMK AO2 LTG DSNT S AND NW TSE25B26,M
LAS,2023-08-18 15:30,-115.1634,36.0719,663.00,87.00,49.00,26.97,180.00,8.00,T,29.94,M,10.00,17.00,SCT,BKN,BKN,M,12000.00,17000.00,25000.00,M,-TSRA,M,M,M,M,M,M,84.30,KLAS 181530Z 18008G17KT 10SM -TSRA SCT120CB BKN170 BKN250 31/09 A2994 RMK AO2 LTG DSNT S RAB23 TSB29 OCNL LTGIC S TS S MOV N P0000 T03060094,M
05U,2023-08-18 15:30,-116.0051,39.6042,1811.23,71.60,48.20,43.42,M,M,0.00,30.18,M,10.00,M,M,M,M,M,M,M,M,M,M,M,M,M,M,M,M,71.60,K05U 181530Z AUTO 10SM 22/09 A3018 RMK A01,M
BVU,2023-08-18 15:35,-114.8611,35.9475,671.00,89.60,55.40,31.45,190.00,10.00,0.00,29.94,M,10.00,M,CLR,M,M,M,M,M,M,M,M,M,M,M,M,M,M,87.78,KBVU 181535Z AUTO 19010KT 10SM CLR 32/13 A2994 RMK AO2 LTG DSNT W,M
CXP,2023-08-18 15:35,-119.7326,39.1923,1431.00,66.20,51.80,59.74,0.00,0.00,0.00,30.10,M,10.00,M,CLR,M,M,M,M,M,M,M,M,M,M,M,M,M,M,66.20,KCXP 181535Z AUTO 00000KT 10SM CLR 19/11 A3010 RMK AO2,M
RTS,2023-08-18 15:35,-119.8764,39.6682,1539.00,68.00,46.40,45.88,0.00,0.00,0.00,30.10,M,10.00,M,CLR,M,M,M,M,M,M,M,M,M,M,M,M,M,M,68.00,KRTS 181535Z AUTO 00000KT 10SM CLR 20/08 A3010 RMK AO2,M
MEV,2023-08-18 15:35,-119.7500,38.9963,1441.42,62.60,53.60,72.38,0.00,0.00,0.00,30.09,M,10.00,M,CLR,M,M,M,M,M,M,M,M,M,M,M,M,M,M,62.60,KMEV 181535Z AUTO 00000KT 10SM CLR 17/12 A3009 RMK AO2,M
BAM,2023-08-18 15:35,-116.8743,40.5990,1382.36,71.60,53.60,53.03,0.00,0.00,0.00,30.08,M,10.00,M,CLR,M,M,M,M,M,M,M,M,M,M,M,M,M,M,71.60,KBAM 181535Z AUTO 00000KT 10SM CLR 22/12 A3008 RMK AO1,M
HTH,2023-08-18 15:35,-118.6315,38.5448,1282.89,71.60,51.80,49.64,0.00,0.00,0.00,30.05,M,10.00,M,CLR,M,M,M,M,M,M,M,M,M,M,M,M,M,M,71.60,KHTH 181535Z AUTO 00000KT 10SM CLR 22/11 A3005 RMK A01,M
10U,2023-08-18 15:35,-116.1876,41.9532,1637.00,71.60,53.60,53.03,130.00,7.00,0.00,30.10,M,10.00,M,CLR,M,M,M,M,M,M,M,M,M,M,M,M,M,M,71.60,K10U 181535Z AUTO 13007KT 10SM CLR 22/12 A3010 RMK AO2,M
TMT,2023-08-18 15:35,-117.1971,39.4643,1749.34,61.00,51.00,69.60,0.00,0.00,0.00,30.16,M,M,M,CLR,M,M,M,M,M,M,M,M,M,M,M,M,M,M,61.00,KTMT 181535Z AUTO 00000KT CLR 16/11 A3016 RMK AO2 T01620106 PWINO,M
VGT,2023-08-18 15:37,-115.1933,36.2111,667.00,91.00,39.00,16.23,350.00,4.00,0.00,29.92,M,10.00,M,SCT,M,M,M,11000.00,M,M,M,M,M,M,M,M,M,M,86.94,KVGT 181537Z 35004KT 10SM SCT110 33/04 A2992 RMK AO2 LTG DSNT S T03280039,M
VGT,2023-08-18 15:48,-115.1933,36.2111,667.00,91.40,44.60,19.89,200.00,9.00,0.00,29.93,M,10.00,M,SCT,M,M,M,12000.00,M,M,M,VCTS,M,M,M,M,M,M,87.68,KVGT 181548Z 20009KT 10SM VCTS SCT120 33/07 A2993 RMK AO2 LTG DSNT S,M
05U,2023-08-18 15:50,-116.0051,39.6042,1811.23,71.60,46.40,40.57,M,M,0.00,30.18,M,10.00,M,M,M,M,M,M,M,M,M,M,M,M,M,M,M,M,71.60,K05U 181550Z AUTO 10SM 22/08 A3018 RMK A01,M
P68,2023-08-18 15:53,-116.0056,39.6014,1993.00,70.00,48.00,45.50,0.00,0.00,0.00,30.15,1012.70,M,M,M,M,M,M,M,M,M,M,M,M,M,M,M,M,M,70.00,KP68 181553Z AUTO 00000KT 21/09 A3015 RMK AO1 SLP127 T02110089,M
DRA,2023-08-18 15:53,-116.0278,36.6206,1009.00,81.00,46.00,29.23,90.00,6.00,T,30.00,1010.40,10.00,M,FEW,SCT,BKN,M,6000.00,7500.00,10000.00,M,-RA,M,M,M,M,M,M,79.76,KDRA 181553Z AUTO 09006KT 10SM -RA FEW060 SCT075 BKN100 27/08 A3000 RMK AO2 RAB50 SLP104 P0000 T02720078,M
ELY,2023-08-18 15:53,-114.8453,39.2950,1909.00,73.00,48.00,41.10,180.00,5.00,0.00,30.19,1011.80,10.00,M,CLR,M,M,M,M,M,M,M,M,M,M,M,M,M,M,73.00,KELY 181553Z AUTO 18005KT 10SM CLR 23/09 A3019 RMK AO2 SLP118 T02280089,M
VGT,2023-08-18 15:53,-115.1933,36.2111,667.00,90.00,44.00,20.31,210.00,9.00,0.00,29.93,1012.00,10.00,M,FEW,SCT,M,M,9500.00,12000.00,M,M,VCTS,M,M,M,M,M,M,86.37,KVGT 181553Z 21009KT 10SM VCTS FEW095 SCT120 32/07 A2993 RMK AO2 LTG DSNT S SLP120 T03220067,M
LOL,2023-08-18 15:53,-118.5701,40.0684,1192.43,73.00,52.00,47.69,150.00,4.00,0.00,30.01,1012.10,10.00,M,CLR,M,M,M,M,M,M,M,M,M,M,M,M,M,M,73.00,KLOL 181553Z AUTO 15004KT 10SM CLR 23/11 A3001 RMK AO2 SLP121 T02280111,M
BVU,2023-08-18 15:55,-114.8611,35.9475,671.00,91.40,55.40,29.72,190.00,12.00,0.00,29.94,M,10.00,M,CLR,M,M,M,M,M,M,M,VCTS,M,M,M,M,M,M,89.53,KBVU 181555Z AUTO 19012KT 10SM VCTS CLR 33/13 A2994 RMK AO2 LTG DSNT W AND NW,M
CXP,2023-08-18 15:55,-119.7326,39.1923,1431.00,68.00,50.00,52.51,0.00,0.00,0.00,30.10,M,10.00,M,CLR,M,M,M,M,M,M,M,M,M,M,M,M,M,M,68.00,KCXP 181555Z AUTO 00000KT 10SM CLR 20/10 A3010 RMK AO2,M
RNO,2023-08-18 15:55,-119.7711,39.4839,1341.00,72.00,48.00,42.51,0.00,0.00,0.00,30.05,1011.90,10.00,M,FEW,M,M,M,10000.00,M,M,M,M,M,M,M,M,M,M,72.00,KRNO 181555Z 00000KT 10SM FEW100 22/09 A3005 RMK AO2 SLP119 T02220089,M
RTS,2023-08-18 15:55,-119.8764,39.6682,1539.00,69.80,46.40,43.13,0.00,0.00,0.00,30.10,M,10.00,M,CLR,M,M,M,M,M,M,M,M,M,M,M,M,M,M,69.80,KRTS 181555Z AUTO 00000KT 10SM CLR 21/08 A3010 RMK AO2,M
MEV,2023-08-18 15:55,-119.7500,38.9963,1441.42,64.40,53.60,67.95,0.00,0.00,0.00,30.08,M,10.00,M,FEW,M,M,M,10000.00,M,M,M,M,M,M,M,M,M,M,64.40,KMEV 181555Z AUTO 00000KT 10SM FEW100 18/12 A3008 RMK AO2,M
HTH,2023-08-18 15:55,-118.6315,38.5448,1282.89,73.40,50.00,43.69,0.00,0.00,0.00,30.05,M,10.00,M,CLR,M,M,M,M,M,M,M,M,M,M,M,M,M,M,73.40,KHTH 181555Z AUTO 00000KT 10SM CLR 23/10 A3005 RMK A01,M
BAM,2023-08-18 15:55,-116.8743,40.5990,1382.36,73.40,53.60,49.90,10.00,3.00,0.00,30.07,M,10.00,M,CLR,M,M,M,M,M,M,M,M,M,M,M,M,M,M,73.40,KBAM 181555Z AUTO 01003KT 10SM CLR 23/12 A3007 RMK AO1,M
TMT,2023-08-18 15:55,-117.1971,39.4643,1749.34,64.40,51.80,63.60,0.00,0.00,0.00,30.15,M,M,M,CLR,M,M,M,M,M,M,M,M,M,M,M,M,M,M,64.40,KTMT 181555Z AUTO 00000KT CLR 18/11 A3015 RMK AO2 T01800110 PWINO,M
10U,2023-08-18 15:55,-116.1876,41.9532,1637.00,73.40,53.60,49.90,120.00,5.00,0.00,30.11,M,10.00,M,CLR,M,M,M,M,M,M,M,M,M,M,M,M,M,M,73.40,K10U 181555Z AUTO 12005KT 10SM CLR 23/12 A3011 RMK AO2,M
INS,2023-08-18 15:55,-115.6733,36.5872,955.00,84.20,31.50,14.95,310.00,8.00,0.00,29.99,1010.10,10.00,M,FEW,SCT,BKN,M,10000.00,13000.00,17000.00,M,M,M,M,M,M,M,M,81.27,KINS 181555Z AUTO 31008KT 10SM FEW100 SCT130 BKN170 29/M00 A2999 RMK AO2 SLP101 T02901003 $,M
LSV,2023-08-18 15:55,-115.0343,36.2362,570.00,92.00,55.20,28.96,150.00,14.00,0.00,29.89,1009.20,10.00,M,FEW,M,M,M,16000.00,M,M,M,VCTS,M,M,M,M,M,M,90.07,KLSV 181555Z AUTO 15014KT 10SM VCTS FEW160 33/13 A2989 RMK AO2 SLP092 T03340129 $,M
EKO,2023-08-18 15:56,-115.7860,40.8242,1367.00,69.00,56.00,63.24,0.00,0.00,0.00,30.11,1014.30,10.00,M,CLR,M,M,M,M,M,M,M,M,M,M,M,M,M,M,69.00,KEKO 181556Z AUTO 00000KT 10SM CLR 21/13 A3011 RMK AO2 SLP143 T02060133,M
WMC,2023-08-18 15:56,-117.8072,40.9019,1315.00,78.00,50.00,37.48,M,4.00,0.00,30.03,1011.80,10.00,M,CLR,M,M,M,M,M,M,M,M,M,M,M,M,M,M,78.00,KWMC 181556Z AUTO VRB04KT 10SM CLR 26/10 A3003 RMK AO2 SLP118 T02560100,M
HND,2023-08-18 15:56,-115.1344,35.9729,742.79,87.00,54.00,32.45,160.00,7.00,0.00,29.98,M,10.00,M,FEW,SCT,M,M,6000.00,10000.00,M,M,TS,M,M,M,M,M,M,85.10,KHND 181556Z AUTO 16007KT 10SM TS FEW060 SCT100 31/12 A2998 RMK AO2 TSE25B26RAB28E38 SLPNO T03060122,M
TPH,2023-08-18 15:56,-117.0904,38.0505,1654.00,72.00,33.00,23.75,0.00,0.00,0.00,30.13,1012.40,10.00,M,CLR,M,M,M,M,M,M,M,M,M,M,M,M,M,M,72.00,KTPH 181556Z AUTO 00000KT 10SM CLR 22/01 A3013 RMK AO2 SLP124 T02220006,M
LAS,2023-08-18 15:56,-115.1634,36.0719,663.00,80.00,59.00,48.74,120.00,5.00,T,29.94,1010.80,10.00,M,SCT,BKN,BKN,M,12000.00,17000.00,25000.00,M,TS,M,M,M,M,M,M,80.68,KLAS 181556Z 12005KT 10SM TS SCT120CB BKN170 BKN250 27/15 A2994 RMK AO2 LTG DSNT S RAB23E56 TSB29 SLP108 OCNL LTGIC OHD-N TS OHD-N MOV N P0000 T02670150,M
NFL,2023-08-18 15:56,-118.7010,39.4166,1199.00,76.00,52.00,43.13,M,3.00,0.00,30.02,1013.40,10.00,M,SCT,M,M,M,12000.00,M,M,M,M,M,M,M,M,M,M,76.00,KNFL 181556Z VRB03KT 10SM SCT120 24/11 A3002 RMK AO2 SLP134 T02440111,M
HTH,2023-08-18 16:10,-118.6315,38.5448,1282.89,75.20,50.00,41.14,0.00,0.00,0.00,30.05,M,10.00,M,CLR,M,M,M,M,M,M,M,M,M,M,M,M,M,M,75.20,KHTH 181610Z AUTO 00000KT 10SM CLR 24/10 A3005 RMK A01,M
VGT,2023-08-18 16:13,-115.1933,36.2111,667.00,89.00,45.00,21.77,190.00,4.00,0.00,29.93,M,10.00,M,FEW,BKN,M,M,10000.00,12000.00,M,M,M,M,M,M,M,M,M,85.58,KVGT 181613Z 19004KT 10SM FEW100 BKN120 32/07 A2993 RMK AO2 LTG DSNT N T03170072,M
HND,2023-08-18 16:13,-115.1344,35.9729,742.79,86.00,59.00,40.14,170.00,9.00,0.00,29.99,M,10.00,M,FEW,M,M,M,11000.00,M,M,M,M,M,M,M,M,M,M,85.47,KHND 181613Z AUTO 17009KT 10SM FEW110 30/15 A2999 RMK AO2 LTG DSNT N TSE07,M
LAS,2023-08-18 16:13,-115.1634,36.0719,663.00,84.00,56.00,38.42,180.00,4.00,0.00,29.94,M,10.00,M,SCT,BKN,BKN,M,12000.00,17000.00,25000.00,M,M,M,M,M,M,M,M,83.05,KLAS 181613Z 18004KT 10SM SCT120 BKN170 BKN250 29/13 A2994 RMK AO2 LTG DSNT N TSE12 TS DSIPTD VIRGA DSNT ALQDS TCU DSNT SE ACC DSNT ALQDS T02890133,M
BVU,2023-08-18 16:15,-114.8611,35.9475,671.00,91.40,55.40,29.72,200.00,14.00,0.00,29.94,M,10.00,M,CLR,M,M,M,M,M,M,M,M,M,M,M,M,M,M,89.53,KBVU 181615Z AUTO 20014KT 10SM CLR 33/13 A2994 RMK AO2,M
CXP,2023-08-18 16:15,-119.7326,39.1923,1431.00,68.00,51.80,56.13,0.00,0.00,0.00,30.09,M,10.00,M,FEW,M,M,M,10000.00,M,M,M,M,M,M,M,M,M,M,68.00,KCXP 181615Z AUTO 00000KT 10SM FEW100 20/11 A3009 RMK AO2,M
RTS,2023-08-18 16:15,-119.8764,39.6682,1539.00,71.60,46.40,40.57,0.00,0.00,0.00,30.10,M,10.00,M,CLR,M,M,M,M,M,M,M,M,M,M,M,M,M,M,71.60,KRTS 181615Z AUTO 00000KT 10SM CLR 22/08 A3010 RMK AO2,M
05U,2023-08-18 16:15,-116.0051,39.6042,1811.23,73.40,46.40,38.18,M,M,0.00,30.18,M,10.00,M,M,M,M,M,M,M,M,M,M,M,M,M,M,M,M,73.40,K05U 181615Z AUTO 10SM 23/08 A3018 RMK A01,M
MEV,2023-08-18 16:15,-119.7500,38.9963,1441.42,66.20,53.60,63.82,0.00,0.00,0.00,30.08,M,10.00,M,CLR,M,M,M,M,M,M,M,M,M,M,M,M,M,M,66.20,KMEV 181615Z AUTO 00000KT 10SM CLR 19/12 A3008 RMK AO2,M
10U,2023-08-18 16:15,-116.1876,41.9532,1637.00,77.00,51.80,41.42,190.00,6.00,0.00,30.10,M,10.00,M,CLR,M,M,M,M,M,M,M,M,M,M,M,M,M,M,77.00,K10U 181615Z AUTO 19006KT 10SM CLR 25/11 A3010 RMK AO2,M
BAM,2023-08-18 16:15,-116.8743,40.5990,1382.36,77.00,55.40,47.25,30.00,4.00,0.00,30.07,M,10.00,M,CLR,M,M,M,M,M,M,M,M,M,M,M,M,M,M,77.00,KBAM 181615Z AUTO 03004KT 10SM CLR 25/13 A3007 RMK AO1,M
TMT,2023-08-18 16:15,-117.1971,39.4643,1749.34,66.20,51.00,57.99,0.00,0.00,0.00,30.15,M,M,M,CLR,M,M,M,M,M,M,M,M,M,M,M,M,M,M,66.20,KTMT 181615Z AUTO 00000KT CLR 19/11 A3015 RMK AO2 T01900106 PWINO,M
LSV,2023-08-18 16:28,-115.0343,36.2362,570.00,91.40,53.60,27.83,190.00,8.00,0.00,29.90,1009.60,10.00,M,SCT,M,M,M,12000.00,M,M,M,-RA,M,M,M,M,M,M,89.08,KLSV 181628Z AUTO 19008KT 10SM -RA SCT120 33/12 A2990 RMK AO2 RAB28 SLP096 $,M
05U,2023-08-18 16:30,-116.0051,39.6042,1811.23,73.40,46.40,38.18,M,M,0.00,30.18,M,10.00,M,M,M,M,M,M,M,M,M,M,M,M,M,M,M,M,73.40,K05U 181630Z AUTO 10SM 23/08 A3018 RMK A01,M
BVU,2023-08-18 16:35,-114.8611,35.9475,671.00,87.80,59.00,37.90,200.00,9.00,0.00,29.95,M,10.00,14.00,CLR,M,M,M,M,M,M,M,M,M,M,M,M,M,M,87.12,KBVU 181635Z AUTO 20009G14KT 10SM CLR 31/15 A2995 RMK AO2,M
CXP,2023-08-18 16:35,-119.7326,39.1923,1431.00,69.80,50.00,49.37,M,3.00,0.00,30.09,M,10.00,M,CLR,M,M,M,M,M,M,M,M,M,M,M,M,M,M,69.80,KCXP 181635Z AUTO VRB03KT 10SM CLR 21/10 A3009 RMK AO2,M
RTS,2023-08-18 16:35,-119.8764,39.6682,1539.00,73.40,46.40,38.18,0.00,0.00,0.00,30.10,M,10.00,M,CLR,M,M,M,M,M,M,M,M,M,M,M,M,M,M,73.40,KRTS 181635Z AUTO 00000KT 10SM CLR 23/08 A3010 RMK AO2,M
MEV,2023-08-18 16:35,-119.7500,38.9963,1441.42,68.00,51.80,56.13,0.00,0.00,0.00,30.08,M,10.00,M,FEW,M,M,M,9500.00,M,M,M,M,M,M,M,M,M,M,68.00,KMEV 181635Z AUTO 00000KT 10SM FEW095 20/11 A3008 RMK AO2,M
HTH,2023-08-18 16:35,-118.6315,38.5448,1282.89,75.20,50.00,41.14,290.00,5.00,0.00,30.05,M,10.00,M,CLR,M,M,M,M,M,M,M,M,M,M,M,M,M,M,75.20,KHTH 181635Z AUTO 29005KT 10SM CLR 24/10 A3005 RMK A01,M
10U,2023-08-18 16:35,-116.1876,41.9532,1637.00,77.00,50.00,38.74,210.00,7.00,0.00,30.10,M,10.00,M,CLR,M,M,M,M,M,M,M,M,M,M,M,M,M,M,77.00,K10U 181635Z AUTO 21007KT 10SM CLR 25/10 A3010 RMK AO2,M
BAM,2023-08-18 16:35,-116.8743,40.5990,1382.36,78.80,53.60,41.69,0.00,0.00,0.00,30.06,M,10.00,M,CLR,M,M,M,M,M,M,M,M,M,M,M,M,M,M,78.80,KBAM 181635Z AUTO 00000KT 10SM CLR 26/12 A3006 RMK AO1,M
TMT,2023-08-18 16:35,-117.1971,39.4643,1749.34,68.00,50.70,53.89,0.00,0.00,0.00,30.15,M,M,M,CLR,M,M,M,M,M,M,M,M,M,M,M,M,M,M,68.00,KTMT 181635Z AUTO 00000KT CLR 20/10 A3015 RMK AO2 T02000104 PWINO,M
LSV,2023-08-18 16:42,-115.0343,36.2362,570.00,87.80,60.80,40.41,210.00,7.00,0.00,29.90,1009.70,10.00,M,FEW,M,M,M,12000.00,M,M,M,M,M,M,M,M,M,M,87.75,KLSV 181642Z AUTO 21007KT 10SM FEW120 31/16 A2990 RMK AO2 RAB28E42 SLP097 $,M
P68,2023-08-18 16:53,-116.0056,39.6014,1993.00,75.00,47.00,37.01,70.00,4.00,0.00,30.15,1012.30,M,M,M,M,M,M,M,M,M,M,M,M,M,M,M,M,M,75.00,KP68 181653Z AUTO 07004KT 24/08 A3015 RMK AO1 SLP123 T02390083,M
DRA,2023-08-18 16:53,-116.0278,36.6206,1009.00,89.00,37.00,15.97,230.00,5.00,T,30.00,1010.40,10.00,M,CLR,M,M,M,M,M,M,M,M,M,M,M,M,M,M,85.15,KDRA 181653Z AUTO 23005KT 10SM CLR 32/03 A3000 RMK AO2 RAE00 SLP104 P0000 T03170028,M
ELY,2023-08-18 16:53,-114.8453,39.2950,1909.00,79.00,38.00,22.93,200.00,5.00,0.00,30.19,1011.40,10.00,M,CLR,M,M,M,M,M,M,M,M,M,M,M,M,M,M,79.00,KELY 181653Z AUTO 20005KT 10SM CLR 26/03 A3019 RMK AO2 SLP114 T02610033,M
VGT,2023-08-18 16:53,-115.1933,36.2111,667.00,89.00,48.00,24.39,170.00,3.00,0.00,29.95,1012.50,10.00,M,CLR,M,M,M,M,M,M,M,M,M,M,M,M,M,M,85.89,KVGT 181653Z 17003KT 10SM CLR 32/09 A2995 RMK AO2 SLP125 T03170089,M
LOL,2023-08-18 16:53,-118.5701,40.0684,1192.43,79.00,50.00,36.27,M,5.00,0.00,30.01,1012.10,10.00,M,CLR,M,M,M,M,M,M,M,M,M,M,M,M,M,M,79.00,KLOL 181653Z AUTO VRB05KT 10SM CLR 26/10 A3001 RMK AO2 SLP121 T02610100,M
BVU,2023-08-18 16:55,-114.8611,35.9475,671.00,89.60,55.40,31.45,160.00,11.00,0.00,29.95,M,10.00,M,CLR,M,M,M,M,M,M,M,M,M,M,M,M,M,M,87.78,KBVU 181655Z AUTO 16011KT 10SM CLR 32/13 A2995 RMK AO2,M
CXP,2023-08-18 16:55,-119.7326,39.1923,1431.00,71.60,50.00,46.43,0.00,0.00,0.00,30.09,M,10.00,M,CLR,M,M,M,M,M,M,M,M,M,M,M,M,M,M,71.60,KCXP 181655Z AUTO 00000KT 10SM CLR 22/10 A3009 RMK AO2,M
RNO,2023-08-18 16:55,-119.7711,39.4839,1341.00,76.00,48.00,37.17,0.00,0.00,0.00,30.05,1011.60,10.00,M,FEW,M,M,M,10000.00,M,M,M,M,M,M,M,M,M,M,76.00,KRNO 181655Z 00000KT 10SM FEW100 24/09 A3005 RMK AO2 SLP116 T02440089,M
RTS,2023-08-18 16:55,-119.8764,39.6682,1539.00,75.20,46.40,35.94,0.00,0.00,0.00,30.10,M,10.00,M,CLR,M,M,M,M,M,M,M,M,M,M,M,M,M,M,75.20,KRTS 181655Z AUTO 00000KT 10SM CLR 24/08 A3010 RMK AO2,M
05U,2023-08-18 16:55,-116.0051,39.6042,1811.23,77.00,48.20,36.22,M,M,0.00,30.17,M,10.00,M,M,M,M,M,M,M,M,M,M,M,M,M,M,M,M,77.00,K05U 181655Z AUTO 10SM 25/09 A3017 RMK A01,M
MEV,2023-08-18 16:55,-119.7500,38.9963,1441.42,69.80,53.60,56.38,0.00,0.00,0.00,30.08,M,10.00,M,FEW,M,M,M,10000.00,M,M,M,M,M,M,M,M,M,M,69.80,KMEV 181655Z AUTO 00000KT 10SM FEW100 21/12 A3008 RMK AO2,M
HTH,2023-08-18 16:55,-118.6315,38.5448,1282.89,77.00,48.20,36.22,M,4.00,0.00,30.05,M,10.00,M,CLR,M,M,M,M,M,M,M,M,M,M,M,M,M,M,77.00,KHTH 181655Z AUTO VRB04KT 10SM CLR 25/09 A3005 RMK A01,M
BAM,2023-08-18 16:55,-116.8743,40.5990,1382.36,80.60,53.60,39.30,80.00,4.00,0.00,30.06,M,10.00,M,CLR,M,M,M,M,M,M,M,M,M,M,M,M,M,M,80.29,KBAM 181655Z AUTO 08004KT 10SM CLR 27/12 A3006 RMK AO1,M
TMT,2023-08-18 16:55,-117.1971,39.4643,1749.34,70.00,51.30,51.45,240.00,3.00,0.00,30.15,M,M,M,CLR,M,M,M,M,M,M,M,M,M,M,M,M,M,M,70.00,KTMT 181655Z AUTO 24003KT CLR 21/11 A3015 RMK AO2 T02120107 PWINO,M
10U,2023-08-18 16:55,-116.1876,41.9532,1637.00,78.80,48.20,34.13,200.00,9.00,0.00,30.10,M,10.00,M,CLR,M,M,M,M,M,M,M,M,M,M,M,M,M,M,78.80,K10U 181655Z AUTO 20009KT 10SM CLR 26/09 A3010 RMK AO2,M
INS,2023-08-18 16:55,-115.6733,36.5872,955.00,85.30,35.40,16.87,120.00,6.00,0.00,30.00,1010.50,10.00,M,BKN,M,M,M,17000.00,M,M,M,M,M,M,M,M,M,M,82.15,KINS 181655Z AUTO 12006KT 10SM BKN170 30/02 A3000 RMK AO2 SLP105 T02960019 $,M
LSV,2023-08-18 16:55,-115.0343,36.2362,570.00,86.40,57.00,36.88,250.00,4.00,T,29.91,1010.10,10.00,M,CLR,M,M,M,M,M,M,M,M,M,M,M,M,M,M,85.27,KLSV 181655Z AUTO 25004KT 10SM CLR 30/14 A2991 RMK AO2 RAB28E42 SLP101 P0000 T03020139 $,M
EKO,2023-08-18 16:56,-115.7860,40.8242,1367.00,75.00,56.00,51.62,M,3.00,0.00,30.10,1013.80,10.00,M,CLR,M,M,M,M,M,M,M,M,M,M,M,M,M,M,75.00,KEKO 181656Z AUTO VRB03KT 10SM CLR 24/13 A3010 RMK AO2 SLP138 T02390133,M
WMC,2023-08-18 16:56,-117.8072,40.9019,1315.00,81.00,50.00,33.97,40.00,4.00,0.00,30.03,1011.30,10.00,M,CLR,M,M,M,M,M,M,M,M,M,M,M,M,M,M,80.12,KWMC 181656Z AUTO 04004KT 10SM CLR 27/10 A3003 RMK AO2 SLP113 T02720100,M
NFL,2023-08-18 16:56,-118.7010,39.4166,1199.00,79.00,50.00,36.27,180.00,4.00,0.00,30.02,1013.60,10.00,M,SCT,M,M,M,12000.00,M,M,M,M,M,M,M,M,M,M,79.00,KNFL 181656Z 18004KT 10SM SCT120 26/10 A3002 RMK AO2 SLP136 T02610100,M
HND,2023-08-18 16:56,-115.1344,35.9729,742.79,89.00,59.00,36.49,170.00,13.00,0.00,29.99,M,10.00,M,CLR,M,M,M,M,M,M,M,M,M,M,M,M,M,M,88.27,KHND 181656Z AUTO 17013KT 10SM CLR 32/15 A2999 RMK AO2 TSE07 SLPNO T03170150,M
TPH,2023-08-18 16:56,-117.0904,38.0505,1654.00,79.00,38.00,22.93,150.00,8.00,0.00,30.14,1012.10,10.00,M,CLR,M,M,M,M,M,M,M,M,M,M,M,M,M,M,79.00,KTPH 181656Z AUTO 15008KT 10SM CLR 26/03 A3014 RMK AO2 SLP121 T02610033,M
LAS,2023-08-18 16:56,-115.1634,36.0719,663.00,87.00,59.00,38.88,180.00,6.00,0.00,29.95,1011.10,10.00,M,SCT,BKN,BKN,M,12000.00,17000.00,25000.00,M,M,M,M,M,M,M,M,86.37,KLAS 181656Z 18006KT 10SM SCT120 BKN170 BKN250 31/15 A2995 RMK AO2 TSE12 SLP111 ACC DSNT ALQDS T03060150,M
05U,2023-08-18 17:10,-116.0051,39.6042,1811.23,78.80,44.60,29.79,M,M,0.00,30.18,M,10.00,M,M,M,M,M,M,M,M,M,M,M,M,M,M,M,M,78.80,K05U 181710Z AUTO 10SM 26/07 A3018 RMK A01,M
BVU,2023-08-18 17:15,-114.8611,35.9475,671.00,89.60,57.20,33.56,130.00,9.00,0.00,29.96,M,10.00,M,CLR,M,M,M,M,M,M,M,M,M,M,M,M,M,M,88.28,KBVU 181715Z AUTO 13009KT 10SM CLR 32/14 A2996 RMK AO2,M
CXP,2023-08-18 17:15,-119.7326,39.1923,1431.00,73.40,51.80,46.71,M,4.00,0.00,30.09,M,10.00,M,CLR,M,M,M,M,M,M,M,M,M,M,M,M,M,M,73.40,KCXP 181715Z AUTO VRB04KT 10SM CLR 23/11 A3009 RMK AO2,M
RTS,2023-08-18 17:15,-119.8764,39.6682,1539.00,75.20,46.40,35.94,90.00,4.00,0.00,30.10,M,10.00,M,CLR,M,M,M,M,M,M,M,M,M,M,M,M,M,M,75.20,KRTS 181715Z AUTO 09004KT 10SM CLR 24/08 A3010 RMK AO2,M
MEV,2023-08-18 17:15,-119.7500,38.9963,1441.42,71.60,51.80,49.64,0.00,0.00,0.00,30.08,M,10.00,M,CLR,M,M,M,M,M,M,M,M,M,M,M,M,M,M,71.60,KMEV 181715Z AUTO 00000KT 10SM CLR 22/11 A3008 RMK AO2,M
HTH,2023-08-18 17:15,-118.6315,38.5448,1282.89,78.80,46.40,31.90,0.00,0.00,0.00,30.04,M,10.00,M,CLR,M,M,M,M,M,M,M,M,M,M,M,M,M,M,78.80,KHTH 181715Z AUTO 00000KT 10SM CLR 26/08 A3004 RMK A01,M
10U,2023-08-18 17:15,-116.1876,41.9532,1637.00,80.60,48.20,32.18,210.00,9.00,0.00,30.10,M,10.00,16.00,CLR,M,M,M,M,M,M,M,M,M,M,M,M,M,M,79.71,K10U 181715Z AUTO 21009G16KT 10SM CLR 27/09 A3010 RMK AO2,M
BAM,2023-08-18 17:15,-116.8743,40.5990,1382.36,82.40,51.80,34.69,50.00,3.00,0.00,30.06,M,10.00,M,CLR,M,M,M,M,M,M,M,M,M,M,M,M,M,M,81.20,KBAM 181715Z AUTO 05003KT 10SM CLR 28/11 A3006 RMK AO1,M
TMT,2023-08-18 17:15,-117.1971,39.4643,1749.34,71.20,51.60,49.94,0.00,0.00,0.00,30.15,M,M,M,CLR,M,M,M,M,M,M,M,M,M,M,M,M,M,M,71.20,KTMT 181715Z AUTO 00000KT CLR 22/11 A3015 RMK AO2 T02180109 PWINO,M
BVU,2023-08-18 17:35,-114.8611,35.9475,671.00,91.40,53.60,27.83,190.00,12.00,0.00,29.96,M,10.00,M,CLR,M,M,M,M,M,M,M,M,M,M,M,M,M,M,89.08,KBVU 181735Z AUTO 19012KT 10SM CLR 33/12 A2996 RMK AO2,M
CXP,2023-08-18 17:35,-119.7326,39.1923,1431.00,75.20,51.80,43.97,0.00,0.00,0.00,30.09,M,10.00,M,FEW,M,M,M,10000.00,M,M,M,M,M,M,M,M,M,M,75.20,KCXP 181735Z AUTO 00000KT 10SM FEW100 24/11 A3009 RMK AO2,M
RTS,2023-08-18 17:35,-119.8764,39.6682,1539.00,77.00,46.40,33.85,160.00,5.00,0.00,30.10,M,10.00,M,CLR,M,M,M,M,M,M,M,M,M,M,M,M,M,M,77.00,KRTS 181735Z AUTO 16005KT 10SM CLR 25/08 A3010 RMK AO2,M
05U,2023-08-18 17:35,-116.0051,39.6042,1811.23,80.60,42.80,26.22,M,M,0.00,30.17,M,10.00,M,M,M,M,M,M,M,M,M,M,M,M,M,M,M,M,79.30,K05U 181735Z AUTO 10SM 27/06 A3017 RMK A01,M
MEV,2023-08-18 17:35,-119.7500,38.9963,1441.42,71.60,51.80,49.64,0.00,0.00,0.00,30.08,M,10.00,M,FEW,M,M,M,10000.00,M,M,M,M,M,M,M,M,M,M,71.60,KMEV 181735Z AUTO 00000KT 10SM FEW100 22/11 A3008 RMK AO2,M
HTH,2023-08-18 17:35,-118.6315,38.5448,1282.89,80.60,50.00,34.41,320.00,5.00,0.00,30.05,M,10.00,M,CLR,M,M,M,M,M,M,M,M,M,M,M,M,M,M,79.88,KHTH 181735Z AUTO 32005KT 10SM CLR 27/10 A3005 RMK A01,M
10U,2023-08-18 17:35,-116.1876,41.9532,1637.00,80.60,46.40,30.07,210.00,10.00,0.00,30.10,M,10.00,16.00,CLR,M,M,M,M,M,M,M,M,M,M,M,M,M,M,79.56,K10U 181735Z AUTO 21010G16KT 10SM CLR 27/08 A3010 RMK AO2,M
BAM,2023-08-18 17:35,-116.8743,40.5990,1382.36,82.40,51.80,34.69,0.00,0.00,0.00,30.06,M,10.00,M,CLR,M,M,M,M,M,M,M,M,M,M,M,M,M,M,81.20,KBAM 181735Z AUTO 00000KT 10SM CLR 28/11 A3006 RMK AO1,M
TMT,2023-08-18 17:35,-117.1971,39.4643,1749.34,72.70,51.80,47.82,0.00,0.00,0.00,30.15,M,M,M,CLR,M,M,M,M,M,M,M,M,M,M,M,M,M,M,72.70,KTMT 181735Z AUTO 00000KT CLR 23/11 A3015 RMK AO2 T02260110 PWINO,M
05U,2023-08-18 17:50,-116.0051,39.6042,1811.23,82.40,44.60,26.49,M,M,0.00,30.17,M,10.00,M,M,M,M,M,M,M,M,M,M,M,M,M,M,M,M,80.50,K05U 181750Z AUTO 10SM 28/07 A3017 RMK A01,M
P68,2023-08-18 17:53,-116.0056,39.6014,1993.00,79.00,43.00,27.84,M,4.00,0.00,30.14,1012.10,M,M,M,M,M,M,M,M,M,M,M,M,M,M,M,M,M,79.00,KP68 181753Z AUTO VRB04KT 26/06 A3014 RMK AO1 SLP121 T02610061 10267 20072 58004,M
DRA,2023-08-18 17:53,-116.0278,36.6206,1009.00,94.00,28.00,9.51,220.00,7.00,0.00,30.01,1010.50,10.00,M,FEW,M,M,M,12000.00,M,M,M,M,M,M,M,M,M,M,88.46,KDRA 181753Z AUTO 22007KT 190V260 10SM FEW120 34/M02 A3001 RMK AO2 SLP105 60004 T03441022 10344 20244 51008,M
ELY,2023-08-18 17:53,-114.8453,39.2950,1909.00,80.00,36.00,20.51,M,4.00,0.00,30.19,1011.30,10.00,M,BKN,BKN,M,M,10000.00,11000.00,M,M,M,M,M,M,M,M,M,78.66,KELY 181753Z AUTO VRB04KT 10SM BKN100 BKN110 27/02 A3019 RMK AO2 SLP113 T02670022 10272 20100 52001,M
VGT,2023-08-18 17:53,-115.1933,36.2111,667.00,91.00,56.00,30.76,160.00,8.00,0.00,29.95,1012.70,10.00,M,CLR,M,M,M,M,M,M,M,M,M,M,M,M,M,M,89.30,KVGT 181753Z 16008KT 10SM CLR 33/13 A2995 RMK AO2 SLP127 T03280133 10333 20289 52006,M
LOL,2023-08-18 17:53,-118.5701,40.0684,1192.43,82.00,47.00,29.39,220.00,6.00,0.00,30.01,1011.80,10.00,M,CLR,M,M,M,M,M,M,M,M,M,M,M,M,M,M,80.44,KLOL 181753Z AUTO 22006KT 10SM CLR 28/08 A3001 RMK AO2 SLP118 T02780083 10283 20122 52001,M
BVU,2023-08-18 17:55,-114.8611,35.9475,671.00,91.40,55.40,29.72,190.00,12.00,0.00,29.96,M,10.00,M,CLR,M,M,M,M,M,M,M,M,M,M,M,M,M,M,89.53,KBVU 181755Z AUTO 19012KT 10SM CLR 33/13 A2996 RMK AO2,M
CXP,2023-08-18 17:55,-119.7326,39.1923,1431.00,77.00,51.80,41.42,0.00,0.00,0.00,30.09,M,10.00,M,FEW,M,M,M,10000.00,M,M,M,M,M,M,M,M,M,M,77.00,KCXP 181755Z AUTO 00000KT 10SM FEW100 25/11 A3009 RMK AO2,M
RNO,2023-08-18 17:55,-119.7711,39.4839,1341.00,82.00,49.00,31.68,M,3.00,0.00,30.05,1011.40,10.00,M,SCT,M,M,M,10000.00,M,M,M,M,M,M,M,M,M,M,80.62,KRNO 181755Z VRB03KT 10SM SCT100 28/09 A3005 RMK AO2 SLP114 T02780094 10278 20178 56003,M
RTS,2023-08-18 17:55,-119.8764,39.6682,1539.00,77.00,44.60,31.62,120.00,5.00,0.00,30.10,M,10.00,M,CLR,M,M,M,M,M,M,M,M,M,M,M,M,M,M,77.00,KRTS 181755Z AUTO 12005KT 10SM CLR 25/07 A3010 RMK AO2,M
MEV,2023-08-18 17:55,-119.7500,38.9963,1441.42,73.40,53.60,49.90,0.00,0.00,0.00,30.08,M,10.00,M,BKN,M,M,M,10000.00,M,M,M,M,M,M,M,M,M,M,73.40,KMEV 181755Z AUTO 00000KT 10SM BKN100 23/12 A3008 RMK AO2,M
BAM,2023-08-18 17:55,-116.8743,40.5990,1382.36,84.20,51.80,32.73,50.00,3.00,0.00,30.05,M,10.00,M,CLR,M,M,M,M,M,M,M,M,M,M,M,M,M,M,82.48,KBAM 181755Z AUTO 05003KT 10SM CLR 29/11 A3005 RMK AO1,M
HTH,2023-08-18 17:55,-118.6315,38.5448,1282.89,80.60,48.20,32.18,360.00,5.00,0.00,30.05,M,10.00,M,CLR,M,M,M,M,M,M,M,M,M,M,M,M,M,M,79.71,KHTH 181755Z AUTO 36005KT 10SM CLR 27/09 A3005 RMK A01,M
TMT,2023-08-18 17:55,-117.1971,39.4643,1749.34,75.20,52.70,45.45,0.00,0.00,0.00,30.14,M,M,M,CLR,M,M,M,M,M,M,M,M,M,M,M,M,M,M,75.20,KTMT 181755Z AUTO 00000KT CLR 24/12 A3014 RMK AO2 T02400115 10240 20055 PWINO,M
10U,2023-08-18 17:55,-116.1876,41.9532,1637.00,82.40,46.40,28.36,200.00,11.00,0.00,30.10,M,10.00,M,CLR,M,M,M,M,M,M,M,M,M,M,M,M,M,M,80.64,K10U 181755Z AUTO 20011KT 10SM CLR 28/08 A3010 RMK AO2,M
INS,2023-08-18 17:55,-115.6733,36.5872,955.00,89.00,33.60,13.96,120.00,5.00,0.00,30.00,1010.50,10.00,M,SCT,M,M,M,17000.00,M,M,M,M,M,M,M,M,M,M,85.08,KINS 181755Z AUTO 12005KT 10SM SCT170 32/01 A3000 RMK AO2 SLP105 T03170009 10317 20225 50013 $,M
LSV,2023-08-18 17:55,-115.0343,36.2362,570.00,93.00,57.00,29.96,150.00,12.00,0.00,29.91,1010.10,10.00,M,FEW,SCT,SCT,M,16000.00,19000.00,21000.00,M,M,M,M,M,M,M,M,91.64,KLSV 181755Z AUTO 15012KT 10SM FEW160 SCT190 SCT210 34/14 A2991 RMK AO2 SLP101 60000 T03390139 10339 20290 50009 $,M
EKO,2023-08-18 17:56,-115.7860,40.8242,1367.00,82.00,51.00,34.12,270.00,4.00,0.00,30.09,1013.10,10.00,M,CLR,M,M,M,M,M,M,M,M,M,M,M,M,M,M,80.84,KEKO 181756Z AUTO 27004KT 10SM CLR 28/11 A3009 RMK AO2 SLP131 T02780106 10278 20128 58007,M
WMC,2023-08-18 17:56,-117.8072,40.9019,1315.00,87.00,47.00,25.02,M,4.00,0.00,30.03,1011.00,10.00,M,CLR,M,M,M,M,M,M,M,M,M,M,M,M,M,M,84.08,KWMC 181756Z AUTO VRB04KT 10SM CLR 31/08 A3003 RMK AO2 SLP110 T03060083 10306 20161 57002,M
NFL,2023-08-18 17:56,-118.7010,39.4166,1199.00,83.00,48.00,29.54,M,4.00,0.00,30.01,1013.40,10.00,M,SCT,SCT,M,M,8000.00,11000.00,M,M,M,M,M,M,M,M,M,81.18,KNFL 181756Z VRB04KT 10SM SCT080 SCT110 28/09 A3001 RMK AO2 SLP134 T02830089 10283 20156 50001,M
HND,2023-08-18 17:56,-115.1344,35.9729,742.79,91.00,58.00,33.06,190.00,10.00,0.00,29.99,M,10.00,M,CLR,M,M,M,M,M,M,M,M,M,M,M,M,M,M,89.92,KHND 181756Z 19010KT 10SM CLR 33/14 A2999 RMK AO2 LTG DSNT S SLPNO 6//// T03280144,M
TPH,2023-08-18 17:56,-117.0904,38.0505,1654.00,82.00,41.00,23.37,150.00,10.00,0.00,30.15,1012.90,10.00,17.00,CLR,M,M,M,M,M,M,M,M,M,M,M,M,M,M,80.04,KTPH 181756Z AUTO 15010G17KT 10SM CLR 28/05 A3015 RMK AO2 SLP129 T02780050 10283 20133 53005,M
LAS,2023-08-18 17:56,-115.1634,36.0719,663.00,91.00,58.00,33.06,180.00,7.00,0.00,29.96,1011.30,10.00,M,SCT,BKN,BKN,M,12000.00,17000.00,25000.00,M,M,M,M,M,M,M,M,89.92,KLAS 181756Z 18007KT 10SM SCT120 BKN170 BKN250 33/14 A2996 RMK AO2 SLP113 VIRGA DSNT E-SE ACC DSNT ALQDS 60000 T03280144 10328 20267 51010,M
BVU,2023-08-18 18:15,-114.8611,35.9475,671.00,91.40,57.20,31.72,180.00,12.00,0.00,29.96,M,10.00,19.00,CLR,M,M,M,M,M,M,M,M,M,M,M,M,M,M,90.06,KBVU 181815Z AUTO 18012G19KT 10SM CLR 33/14 A2996 RMK AO2,M
CXP,2023-08-18 18:15,-119.7326,39.1923,1431.00,80.60,50.00,34.41,0.00,0.00,0.00,30.08,M,10.00,M,CLR,M,M,M,M,M,M,M,M,M,M,M,M,M,M,79.88,KCXP 181815Z AUTO 00000KT 10SM CLR 27/10 A3008 RMK AO2,M
RTS,2023-08-18 18:15,-119.8764,39.6682,1539.00,78.80,42.80,27.81,110.00,5.00,0.00,30.10,M,10.00,M,FEW,M,M,M,11000.00,M,M,M,M,M,M,M,M,M,M,78.80,KRTS 181815Z AUTO 11005KT 10SM FEW110 26/06 A3010 RMK AO2,M
05U,2023-08-18 18:15,-116.0051,39.6042,1811.23,80.60,41.00,24.46,M,M,0.00,30.17,M,10.00,M,M,M,M,M,M,M,M,M,M,M,M,M,M,M,M,79.20,K05U 181815Z AUTO 10SM 27/05 A3017 RMK A01,M
MEV,2023-08-18 18:15,-119.7500,38.9963,1441.42,73.40,48.20,40.85,0.00,0.00,0.00,30.07,M,10.00,M,FEW,SCT,M,M,10000.00,12000.00,M,M,M,M,M,M,M,M,M,73.40,KMEV 181815Z AUTO 00000KT 10SM FEW100 SCT120 23/09 A3007 RMK AO2,M
HTH,2023-08-18 18:15,-118.6315,38.5448,1282.89,82.40,48.20,30.35,M,5.00,0.00,30.04,M,10.00,M,CLR,M,M,M,M,M,M,M,M,M,M,M,M,M,M,80.80,KHTH 181815Z AUTO VRB05KT 10SM CLR 28/09 A3004 RMK A01,M
BAM,2023-08-18 18:15,-116.8743,40.5990,1382.36,87.80,51.80,29.18,80.00,5.00,0.00,30.05,M,10.00,M,CLR,M,M,M,M,M,M,M,M,M,M,M,M,M,M,85.39,KBAM 181815Z AUTO 08005KT 10SM CLR 31/11 A3005 RMK AO1,M
TMT,2023-08-18 18:15,-117.1971,39.4643,1749.34,77.00,50.40,39.32,0.00,0.00,0.00,30.14,M,M,M,CLR,M,M,M,M,M,M,M,M,M,M,M,M,M,M,77.00,KTMT 181815Z AUTO 00000KT CLR 25/10 A3014 RMK AO2 T02510102 PWINO,M
05U,2023-08-18 18:30,-116.0051,39.6042,1811.23,84.20,39.20,20.29,M,M,0.00,30.16,M,10.00,M,M,M,M,M,M,M,M,M,M,M,M,M,M,M,M,81.44,K05U 181830Z AUTO 10SM 29/04 A3016 RMK A01,M
BVU,2023-08-18 18:35,-114.8611,35.9475,671.00,91.40,57.20,31.72,200.00,13.00,0.00,29.95,M,10.00,M,CLR,M,M,M,M,M,M,M,VCTS,M,M,M,M,M,M,90.06,KBVU 181835Z AUTO 20013KT 10SM VCTS CLR 33/14 A2995 RMK AO2 LTG DSNT S AND SW,M
CXP,2023-08-18 18:35,-119.7326,39.1923,1431.00,80.60,50.00,34.41,230.00,4.00,0.00,30.08,M,10.00,11.00,CLR,M,M,M,M,M,M,M,M,M,M,M,M,M,M,79.88,KCXP 181835Z AUTO 23004G11KT 10SM CLR 27/10 A3008 RMK AO2,M
RTS,2023-08-18 18:35,-119.8764,39.6682,1539.00,78.80,42.80,27.81,M,5.00,0.00,30.10,M,10.00,M,SCT,M,M,M,11000.00,M,M,M,M,M,M,M,M,M,M,78.80,KRTS 181835Z AUTO VRB05KT 10SM SCT110 26/06 A3010 RMK AO2,M
MEV,2023-08-18 18:35,-119.7500,38.9963,1441.42,73.40,50.00,43.69,0.00,0.00,0.00,30.07,M,10.00,M,BKN,M,M,M,12000.00,M,M,M,M,M,M,M,M,M,M,73.40,KMEV 181835Z AUTO 00000KT 10SM BKN120 23/10 A3007 RMK AO2,M
BAM,2023-08-18 18:35,-116.8743,40.5990,1382.36,87.80,51.80,29.18,360.00,6.00,0.00,30.05,M,10.00,M,CLR,M,M,M,M,M,M,M,M,M,M,M,M,M,M,85.39,KBAM 181835Z AUTO 36006KT 10SM CLR 31/11 A3005 RMK AO1,M
HTH,2023-08-18 18:35,-118.6315,38.5448,1282.89,84.20,46.40,26.76,360.00,7.00,0.00,30.04,M,10.00,M,CLR,M,M,M,M,M,M,M,M,M,M,M,M,M,M,81.87,KHTH 181835Z AUTO 36007KT 10SM CLR 29/08 A3004 RMK A01,M
10U,2023-08-18 18:35,-116.1876,41.9532,1637.00,84.20,44.60,24.99,220.00,9.00,0.00,30.10,M,10.00,16.00,CLR,M,M,M,M,M,M,M,M,M,M,M,M,M,M,81.73,K10U 181835Z AUTO 22009G16KT 10SM CLR 29/07 A3010 RMK AO2,M
TMT,2023-08-18 18:35,-117.1971,39.4643,1749.34,80.00,42.80,26.74,260.00,3.00,0.00,30.13,M,M,M,CLR,M,M,M,M,M,M,M,M,M,M,M,M,M,M,78.96,KTMT 181835Z AUTO 26003KT CLR 27/06 A3013 RMK AO2 T02660060 PWINO,M
ELY,2023-08-18 18:38,-114.8453,39.2950,1909.00,82.00,36.00,19.21,210.00,15.00,0.00,30.18,M,10.00,20.00,BKN,M,M,M,11000.00,M,M,M,M,M,M,M,M,M,M,79.83,KELY 181838Z AUTO 21015G20KT 10SM BKN110 28/02 A3018 RMK AO2 WSHFT 1818 T02780022,M
HND,2023-08-18 18:42,-115.1344,35.9729,742.79,91.40,57.20,31.72,160.00,10.00,0.00,29.99,M,10.00,M,CLR,M,M,M,M,M,M,M,VCTS,M,M,M,M,M,M,90.06,KHND 181842Z 16010KT 10SM VCTS CLR 33/14 A2999 RMK AO2 LTG DSNT S TSB36,M
05U,2023-08-18 18:50,-116.0051,39.6042,1811.23,84.20,35.60,17.61,M,M,0.00,30.15,M,10.00,M,M,M,M,M,M,M,M,M,M,M,M,M,M,M,M,81.34,K05U 181850Z AUTO 10SM 29/02 A3015 RMK A01,M
P68,2023-08-18 18:53,-116.0056,39.6014,1993.00,85.00,35.00,16.76,160.00,19.00,0.00,30.12,1011.10,M,26.00,M,M,M,M,M,M,M,M,M,M,M,M,26.00,150.00,2023-08-18 18:53,81.91,KP68 181853Z AUTO 16019G26KT 29/02 A3012 RMK AO1 PK WND 15026/1853 SLP111 T02940017,M
DRA,2023-08-18 18:53,-116.0278,36.6206,1009.00,95.00,31.00,10.42,M,M,0.00,29.99,1009.70,10.00,M,FEW,M,M,M,11000.00,M,M,M,M,M,M,M,M,M,M,89.58,KDRA 181853Z AUTO 10SM FEW110 35/M01 A2999 RMK AO2 SLP097 T03501006,M
ELY,2023-08-18 18:53,-114.8453,39.2950,1909.00,81.00,37.00,20.65,200.00,14.00,0.00,30.19,1011.40,10.00,19.00,SCT,M,M,M,12000.00,M,M,M,M,M,M,M,M,M,M,79.24,KELY 181853Z AUTO 20014G19KT 10SM SCT120 27/03 A3019 RMK AO2 WSHFT 1818 SLP114 T02720028,M
VGT,2023-08-18 18:53,-115.1933,36.2111,667.00,94.00,56.00,28.01,160.00,9.00,0.00,29.94,1012.20,10.00,M,CLR,M,M,M,M,M,M,M,M,M,M,M,M,M,M,92.36,KVGT 181853Z 16009KT 10SM CLR 34/13 A2994 RMK AO2 LTG DSNT SE AND S SLP122 T03440133,M
LOL,2023-08-18 18:53,-118.5701,40.0684,1192.43,86.00,48.00,26.82,M,6.00,0.00,30.00,1011.40,10.00,M,CLR,M,M,M,M,M,M,M,M,M,M,M,M,M,M,83.38,KLOL 181853Z AUTO VRB06KT 10SM CLR 30/09 A3000 RMK AO2 SLP114 T03000089,M
BVU,2023-08-18 18:55,-114.8611,35.9475,671.00,91.40,57.20,31.72,180.00,11.00,0.00,29.95,M,10.00,M,CLR,M,M,M,M,M,M,M,M,M,M,M,M,M,M,90.06,KBVU 181855Z AUTO 18011KT 10SM CLR 33/14 A2995 RMK AO2 LTG DSNT S-W,M
CXP,2023-08-18 18:55,-119.7326,39.1923,1431.00,82.40,46.40,28.36,M,3.00,0.00,30.07,M,10.00,M,CLR,M,M,M,M,M,M,M,M,M,M,M,M,M,M,80.64,KCXP 181855Z AUTO VRB03KT 10SM CLR 28/08 A3007 RMK AO2,M
RNO,2023-08-18 18:55,-119.7711,39.4839,1341.00,87.00,46.00,24.10,M,3.00,0.00,30.03,1010.60,10.00,M,SCT,M,M,M,10000.00,M,M,M,M,M,M,M,M,M,M,83.98,KRNO 181855Z VRB03KT 10SM SCT100 31/08 A3003 RMK AO2 SLP106 T03060078,M
LSV,2023-08-18 18:55,-115.0343,36.2362,570.00,95.00,56.70,27.86,160.00,10.00,0.00,29.90,1009.80,10.00,M,FEW,SCT,M,M,14000.00,19000.00,M,M,M,M,M,M,M,M,M,93.65,KLSV 181855Z 16010KT 10SM FEW140 SCT190 35/14 A2990 RMK AO2A LTG DSNT S-SW SLP098 T03500137 $,M
RTS,2023-08-18 18:55,-119.8764,39.6682,1539.00,80.60,41.00,24.46,M,3.00,0.00,30.10,M,10.00,M,SCT,M,M,M,10000.00,M,M,M,M,M,M,M,M,M,M,79.20,KRTS 181855Z AUTO VRB03KT 10SM SCT100 27/05 A3010 RMK AO2,M
MEV,2023-08-18 18:55,-119.7500,38.9963,1441.42,75.20,50.00,41.14,0.00,0.00,0.00,30.07,M,10.00,M,SCT,M,M,M,12000.00,M,M,M,M,M,M,M,M,M,M,75.20,KMEV 181855Z AUTO 00000KT 10SM SCT120 24/10 A3007 RMK AO2,M
HTH,2023-08-18 18:55,-118.6315,38.5448,1282.89,84.20,46.40,26.76,350.00,6.00,0.00,30.03,M,10.00,M,CLR,M,M,M,M,M,M,M,M,M,M,M,M,M,M,81.87,KHTH 181855Z AUTO 35006KT 10SM CLR 29/08 A3003 RMK A01,M
BAM,2023-08-18 18:55,-116.8743,40.5990,1382.36,87.80,50.00,27.29,350.00,3.00,0.00,30.04,M,10.00,M,CLR,M,M,M,M,M,M,M,M,M,M,M,M,M,M,85.11,KBAM 181855Z AUTO 35003KT 10SM CLR 31/10 A3004 RMK AO1,M
TMT,2023-08-18 18:55,-117.1971,39.4643,1749.34,82.00,43.30,25.53,150.00,4.00,0.00,30.12,M,M,M,CLR,M,M,M,M,M,M,M,M,M,M,M,M,M,M,80.17,KTMT 181855Z AUTO 15004KT CLR 28/06 A3012 RMK AO2 T02770063 PWINO,M
10U,2023-08-18 18:55,-116.1876,41.9532,1637.00,84.20,44.60,24.99,M,4.00,0.00,30.09,M,10.00,12.00,CLR,M,M,M,M,M,M,M,M,M,M,M,M,M,M,81.73,K10U 181855Z AUTO VRB04G12KT 10SM CLR 29/07 A3009 RMK AO2,M
INS,2023-08-18 18:55,-115.6733,36.5872,955.00,91.40,35.40,13.91,80.00,13.00,0.00,29.98,1009.80,10.00,16.00,SCT,M,M,M,17000.00,M,M,M,M,M,M,M,M,M,M,87.17,KINS 181855Z AUTO 08013G16KT 10SM SCT170 33/02 A2998 RMK AO2 SLP098 T03300019 $,M
EKO,2023-08-18 18:56,-115.7860,40.8242,1367.00,85.00,52.00,32.14,0.00,0.00,0.00,30.07,1012.10,10.00,M,CLR,M,M,M,M,M,M,M,M,M,M,M,M,M,M,83.11,KEKO 181856Z AUTO 00000KT 10SM CLR 29/11 A3007 RMK AO2 SLP121 T02940111,M
WMC,2023-08-18 18:56,-117.8072,40.9019,1315.00,89.00,39.00,17.28,250.00,4.00,0.00,30.02,1010.50,10.00,M,CLR,M,M,M,M,M,M,M,M,M,M,M,M,M,M,85.21,KWMC 181856Z AUTO 25004KT 10SM CLR 32/04 A3002 RMK AO2 SLP105 T03170039,M
HND,2023-08-18 18:56,-115.1344,35.9729,742.79,90.00,58.00,34.11,160.00,12.00,T,29.98,M,9.00,16.00,FEW,BKN,M,M,5500.00,10000.00,M,M,-TSRA,M,M,M,M,M,M,88.92,KHND 181856Z 16012G16KT 9SM -TSRA FEW055 BKN100 32/14 A2998 RMK AO2 LTG DSNT SE AND S TSB36RAB56 SLPNO P0000 T03220144,M
TPH,2023-08-18 18:56,-117.0904,38.0505,1654.00,86.00,44.00,23.05,170.00,15.00,0.00,30.13,1011.70,10.00,26.00,CLR,M,M,M,M,M,M,M,M,M,M,M,26.00,210.00,2023-08-18 18:33,83.03,KTPH 181856Z AUTO 17015G26KT 10SM CLR 30/07 A3013 RMK AO2 PK WND 21026/1833 SLP117 T03000067,M
LAS,2023-08-18 18:56,-115.1634,36.0719,663.00,92.00,56.00,29.81,160.00,6.00,0.00,29.94,1010.80,10.00,M,SCT,BKN,BKN,M,12000.00,17000.00,25000.00,M,M,M,M,M,M,M,M,90.30,KLAS 181856Z 16006KT 10SM SCT120 BKN170 BKN250 33/13 A2994 RMK AO2 LTG DSNT SE-SW SLP108 CB DSNT SE-SW ACC DSNT W-N T03330133,M
NFL,2023-08-18 18:56,-118.7010,39.4166,1199.00,86.00,49.00,27.85,0.00,0.00,0.00,30.00,1012.90,10.00,M,SCT,SCT,M,M,8000.00,11000.00,M,M,M,M,M,M,M,M,M,83.49,KNFL 181856Z 00000KT 10SM SCT080 SCT110 30/09 A3000 RMK AO2 SLP129 TCU DSNT SW-W T03000094,M
VGT,2023-08-18 19:07,-115.1933,36.2111,667.00,93.00,55.00,27.87,140.00,8.00,0.00,29.94,M,10.00,M,CLR,M,M,M,M,M,M,M,VCTS,M,M,M,M,M,M,91.03,KVGT 181907Z 14008KT 10SM VCTS CLR 34/13 A2994 RMK AO2 LTG DSNT SE-SW T03390128,M
LAS,2023-08-18 19:08,-115.1634,36.0719,663.00,91.00,57.00,31.89,140.00,7.00,0.00,29.94,M,10.00,M,SCT,BKN,BKN,M,12000.00,17000.00,25000.00,M,TS,M,M,M,M,M,M,89.59,KLAS 181908Z 14007KT 10SM TS SCT120CB BKN170 BKN250 33/14 A2994 RMK AO2 LTG DSNT SE AND SW TSB08 OCNL LTGICCC SW-W TS SW-W MOV N T03280139,M
BVU,2023-08-18 19:15,-114.8611,35.9475,671.00,89.60,59.00,35.81,160.00,9.00,0.00,29.95,M,10.00,M,CLR,M,M,M,M,M,M,M,M,M,M,M,M,M,M,88.86,KBVU 181915Z AUTO 16009KT 10SM CLR 32/15 A2995 RMK AO2 LTG DSNT S AND W,M
CXP,2023-08-18 19:15,-119.7326,39.1923,1431.00,82.40,42.80,24.72,0.00,0.00,0.00,30.06,M,10.00,M,CLR,M,M,M,M,M,M,M,M,M,M,M,M,M,M,80.39,KCXP 181915Z AUTO 00000KT 10SM CLR 28/06 A3006 RMK AO2,M
RTS,2023-08-18 19:15,-119.8764,39.6682,1539.00,80.60,39.20,22.81,M,4.00,0.00,30.08,M,10.00,M,SCT,M,M,M,11000.00,M,M,M,M,M,M,M,M,M,M,79.10,KRTS 181915Z AUTO VRB04KT 10SM SCT110 27/04 A3008 RMK AO2,M
05U,2023-08-18 19:15,-116.0051,39.6042,1811.23,87.80,35.60,15.70,M,M,0.00,30.15,M,10.00,M,M,M,M,M,M,M,M,M,M,M,M,M,M,M,M,84.12,K05U 181915Z AUTO 10SM 31/02 A3015 RMK A01,M
MEV,2023-08-18 19:15,-119.7500,38.9963,1441.42,73.40,57.20,56.88,210.00,7.00,0.00,30.07,M,10.00,M,CLR,M,M,M,M,M,M,M,M,M,M,M,M,M,M,73.40,KMEV 181915Z AUTO 21007KT 10SM CLR 23/14 A3007 RMK AO2,M
HTH,2023-08-18 19:15,-118.6315,38.5448,1282.89,86.00,44.60,23.59,320.00,7.00,0.00,30.02,M,10.00,12.00,CLR,M,M,M,M,M,M,M,M,M,M,M,M,M,M,83.07,KHTH 181915Z AUTO 32007G12KT 300V360 10SM CLR 30/07 A3002 RMK A01,M
10U,2023-08-18 19:15,-116.1876,41.9532,1637.00,86.00,44.60,23.59,220.00,11.00,0.00,30.09,M,10.00,18.00,CLR,M,M,M,M,M,M,M,M,M,M,M,M,M,M,83.07,K10U 181915Z AUTO 22011G18KT 10SM CLR 30/07 A3009 RMK AO2,M
BAM,2023-08-18 19:15,-116.8743,40.5990,1382.36,87.80,51.80,29.18,30.00,3.00,0.00,30.04,M,10.00,M,CLR,M,M,M,M,M,M,M,M,M,M,M,M,M,M,85.39,KBAM 181915Z AUTO 03003KT 10SM CLR 31/11 A3004 RMK AO1,M
TMT,2023-08-18 19:15,-117.1971,39.4643,1749.34,82.60,43.30,25.04,220.00,9.00,0.00,30.12,M,M,M,CLR,M,M,M,M,M,M,M,M,M,M,M,M,M,M,80.55,KTMT 181915Z AUTO 22009KT CLR 28/06 A3012 RMK AO2 T02810063 PWINO,M
05U,2023-08-18 19:30,-116.0051,39.6042,1811.23,89.60,35.60,14.83,M,M,0.00,30.15,M,10.00,M,M,M,M,M,M,M,M,M,M,M,M,M,M,M,M,85.62,K05U 181930Z AUTO 10SM 32/02 A3015 RMK A01,M
BVU,2023-08-18 19:35,-114.8611,35.9475,671.00,86.00,62.60,45.61,0.00,0.00,0.00,29.95,M,9.00,M,FEW,SCT,BKN,M,4000.00,5500.00,8000.00,M,VCTS,M,M,M,M,M,M,86.72,KBVU 181935Z AUTO 00000KT 9SM VCTS FEW040 SCT055 BKN080 30/17 A2995 RMK AO2 LTG DSNT SE AND S,M
CXP,2023-08-18 19:35,-119.7326,39.1923,1431.00,84.20,41.00,21.76,190.00,4.00,0.00,30.06,M,10.00,M,CLR,M,M,M,M,M,M,M,M,M,M,M,M,M,M,81.52,KCXP 181935Z AUTO 19004KT 10SM CLR 29/05 A3006 RMK AO2,M
RTS,2023-08-18 19:35,-119.8764,39.6682,1539.00,82.40,33.80,17.38,200.00,8.00,0.00,30.08,M,10.00,M,CLR,M,M,M,M,M,M,M,M,M,M,M,M,M,M,80.03,KRTS 181935Z AUTO 20008KT 10SM CLR 28/01 A3008 RMK AO2,M
MEV,2023-08-18 19:35,-119.7500,38.9963,1441.42,73.40,53.60,49.90,270.00,5.00,0.00,30.06,M,10.00,M,SCT,M,M,M,11000.00,M,M,M,M,M,M,M,M,M,M,73.40,KMEV 181935Z AUTO 27005KT 10SM SCT110 23/12 A3006 RMK AO2,M
HTH,2023-08-18 19:35,-118.6315,38.5448,1282.89,87.80,42.80,20.79,330.00,9.00,0.00,30.01,M,10.00,M,CLR,M,M,M,M,M,M,M,M,M,M,M,M,M,M,84.40,KHTH 181935Z AUTO 33009KT 10SM CLR 31/06 A3001 RMK A01,M
10U,2023-08-18 19:35,-116.1876,41.9532,1637.00,86.00,42.80,22.02,200.00,11.00,0.00,30.08,M,10.00,19.00,CLR,M,M,M,M,M,M,M,M,M,M,M,M,M,M,82.95,K10U 181935Z AUTO 20011G19KT 10SM CLR 30/06 A3008 RMK AO2,M
BAM,2023-08-18 19:35,-116.8743,40.5990,1382.36,89.60,46.40,22.53,190.00,6.00,0.00,30.03,M,10.00,M,CLR,M,M,M,M,M,M,M,M,M,M,M,M,M,M,86.24,KBAM 181935Z AUTO 19006KT 10SM CLR 32/08 A3003 RMK AO1,M
TMT,2023-08-18 19:35,-117.1971,39.4643,1749.34,84.00,41.70,22.50,220.00,7.00,0.00,30.11,M,M,M,CLR,M,M,M,M,M,M,M,M,M,M,M,M,M,M,81.41,KTMT 181935Z AUTO 22007KT CLR 29/05 A3011 RMK AO2 T02880054 PWINO,M
VGT,2023-08-18 19:37,-115.1933,36.2111,667.00,93.00,56.00,28.90,150.00,8.00,0.00,29.93,M,10.00,M,SCT,M,M,M,10000.00,M,M,M,M,M,M,M,M,M,M,91.32,KVGT 181937Z 15008KT 10SM SCT100 34/13 A2993 RMK AO2 LTG DSNT SE T03390133,M
HND,2023-08-18 19:37,-115.1344,35.9729,742.79,91.40,59.00,33.84,110.00,8.00,T,29.98,M,10.00,M,SCT,M,M,M,11000.00,M,M,M,M,M,M,M,M,M,M,90.68,KHND 181937Z 11008KT 10SM SCT110 33/15 A2998 RMK AO2 LTG DSNT SE TSE31RAE12 P0000,M
LAS,2023-08-18 19:40,-115.1634,36.0719,663.00,89.00,60.00,37.82,130.00,7.00,T,29.94,M,10.00,M,SCT,BKN,BKN,M,12000.00,17000.00,25000.00,M,M,M,M,M,M,M,M,88.63,KLAS 181940Z 13007KT 10SM SCT120 BKN170 BKN250 32/16 A2994 RMK AO2 LTG DSNT SE RAB25E35 TSB08E40 TS MOV N P0000 T03170156,M
HTH,2023-08-18 19:50,-118.6315,38.5448,1282.89,87.80,42.80,20.79,0.00,0.00,0.00,30.01,M,10.00,11.00,CLR,M,M,M,M,M,M,M,M,M,M,M,M,M,M,84.40,KHTH 181950Z AUTO 00000G11KT 10SM CLR 31/06 A3001 RMK A01,M
P68,2023-08-18 19:53,-116.0056,39.6014,1993.00,85.00,35.00,16.76,180.00,17.00,0.00,30.11,1010.80,M,28.00,M,M,M,M,M,M,M,M,M,M,M,M,29.00,190.00,2023-08-18 19:19,81.91,KP68 181953Z AUTO 18017G28KT 29/02 A3011 RMK AO1 PK WND 19029/1919 SLP108 T02940017,M
DRA,2023-08-18 19:53,-116.0278,36.6206,1009.00,98.00,32.00,9.90,230.00,11.00,0.00,29.96,1008.70,10.00,22.00,SCT,M,M,M,10000.00,M,M,M,M,M,M,M,M,M,M,92.19,KDRA 181953Z AUTO 23011G22KT 10SM SCT100 37/00 A2996 RMK AO2 SLP087 T03670000,M
ELY,2023-08-18 19:53,-114.8453,39.2950,1909.00,82.00,39.00,21.62,190.00,11.00,0.00,30.18,1011.40,10.00,18.00,SCT,M,M,M,12000.00,M,M,M,M,M,M,M,M,M,M,79.94,KELY 181953Z AUTO 19011G18KT 10SM SCT120 28/04 A3018 RMK AO2 SLP114 T02780039,M
VGT,2023-08-18 19:53,-115.1933,36.2111,667.00,93.00,57.00,29.96,130.00,13.00,T,29.93,1012.10,10.00,19.00,FEW,BKN,BKN,M,4600.00,9000.00,11000.00,M,-RA,M,M,M,M,M,M,91.64,KVGT 181953Z 13013G19KT 10SM -RA FEW046 BKN090 BKN110 34/14 A2993 RMK AO2 RAB44 SLP121 P0000 T03390139,M
LOL,2023-08-18 19:53,-118.5701,40.0684,1192.43,89.00,44.00,20.96,170.00,6.00,0.00,29.97,1010.20,10.00,M,CLR,M,M,M,M,M,M,M,M,M,M,M,M,M,M,85.50,KLOL 181953Z AUTO 17006KT 10SM CLR 32/07 A2997 RMK AO2 SLP102 T03170067,M
BVU,2023-08-18 19:55,-114.8611,35.9475,671.00,84.20,62.60,48.32,200.00,7.00,0.00,29.95,M,9.00,14.00,FEW,SCT,BKN,M,2400.00,5500.00,10000.00,M,M,M,M,M,M,M,M,85.03,KBVU 181955Z AUTO 20007G14KT 9SM FEW024 SCT055 BKN100 29/17 A2995 RMK AO2,M
CXP,2023-08-18 19:55,-119.7326,39.1923,1431.00,82.40,41.00,23.07,200.00,3.00,0.00,30.06,M,10.00,M,FEW,M,M,M,11000.00,M,M,M,M,M,M,M,M,M,M,80.29,KCXP 181955Z AUTO 20003KT 10SM FEW110 28/05 A3006 RMK AO2,M
INS,2023-08-18 19:55,-115.6733,36.5872,955.00,93.60,45.00,18.86,100.00,12.00,0.00,29.96,1009.10,10.00,M,FEW,M,M,M,17000.00,M,M,M,M,M,M,M,M,M,M,89.77,KINS 181955Z AUTO 10012KT 10SM FEW170 34/07 A2996 RMK AO2 SLP091 T03420073 $,M
RNO,2023-08-18 19:55,-119.7711,39.4839,1341.00,88.00,43.00,20.82,80.00,5.00,0.00,30.01,1009.70,10.00,M,SCT,M,M,M,10000.00,M,M,M,M,M,M,M,M,M,M,84.58,KRNO 181955Z 08005KT 10SM SCT100 31/06 A3001 RMK AO2 SLP097 TCU DSNT N AND S T03110061,M
RTS,2023-08-18 19:55,-119.8764,39.6682,1539.00,82.40,33.80,17.38,M,6.00,0.00,30.07,M,10.00,M,CLR,M,M,M,M,M,M,M,M,M,M,M,M,M,M,80.03,KRTS 181955Z AUTO VRB06KT 10SM CLR 28/01 A3007 RMK AO2,M
05U,2023-08-18 19:55,-116.0051,39.6042,1811.23,86.00,35.60,16.63,M,M,0.00,30.14,M,10.00,M,M,M,M,M,M,M,M,M,M,M,M,M,M,M,M,82.69,K05U 181955Z AUTO 10SM 30/02 A3014 RMK A01,M
MEV,2023-08-18 19:55,-119.7500,38.9963,1441.42,73.40,57.20,56.88,230.00,7.00,0.00,30.06,M,9.00,M,BKN,BKN,M,M,10000.00,12000.00,M,M,M,M,M,M,M,M,M,73.40,KMEV 181955Z AUTO 23007KT 9SM BKN100 BKN120 23/14 A3006 RMK AO2,M
BAM,2023-08-18 19:55,-116.8743,40.5990,1382.36,91.40,41.00,17.32,280.00,5.00,0.00,30.02,M,10.00,19.00,CLR,M,M,M,M,M,M,M,M,M,M,M,M,M,M,87.40,KBAM 181955Z AUTO 28005G19KT 10SM CLR 33/05 A3002 RMK AO1,M
TMT,2023-08-18 19:55,-117.1971,39.4643,1749.34,86.00,37.00,17.57,220.00,18.00,0.00,30.11,M,M,21.00,CLR,M,M,M,M,M,M,M,M,M,M,M,M,M,M,82.72,KTMT 181955Z AUTO 22018G21KT CLR 30/03 A3011 RMK AO2 T02990027 PWINO,M
10U,2023-08-18 19:55,-116.1876,41.9532,1637.00,87.80,39.20,18.09,240.00,10.00,0.00,30.07,M,10.00,17.00,CLR,M,M,M,M,M,M,M,M,M,M,M,M,M,M,84.22,K10U 181955Z AUTO 24010G17KT 10SM CLR 31/04 A3007 RMK AO2,M
LSV,2023-08-18 19:55,-115.0343,36.2362,570.00,91.00,58.00,33.06,180.00,7.00,0.00,29.90,1009.80,10.00,M,BKN,M,M,M,18000.00,M,M,M,M,M,M,M,M,M,M,89.92,KLSV 181955Z 18007KT 10SM BKN180 33/14 A2990 RMK AO2A SLP098 T03280144 $,M
EKO,2023-08-18 19:56,-115.7860,40.8242,1367.00,87.00,47.00,25.02,240.00,8.00,0.00,30.05,1011.50,10.00,14.00,FEW,M,M,M,11000.00,M,M,M,M,M,M,M,M,M,M,84.08,KEKO 181956Z AUTO 24008G14KT 10SM FEW110 31/08 A3005 RMK AO2 SLP115 T03060083,M
WMC,2023-08-18 19:56,-117.8072,40.9019,1315.00,89.00,36.00,15.36,0.00,0.00,0.00,29.99,1010.00,10.00,M,CLR,M,M,M,M,M,M,M,M,M,M,M,M,M,M,85.12,KWMC 181956Z AUTO 00000KT 10SM CLR 32/02 A2999 RMK AO2 SLP100 T03170022,M
HND,2023-08-18 19:56,-115.1344,35.9729,742.79,91.00,60.00,35.51,140.00,5.00,T,29.97,M,10.00,M,CLR,M,M,M,M,M,M,M,M,M,M,M,M,M,M,90.65,KHND 181956Z 14005KT 10SM CLR 33/16 A2997 RMK AO2 TSE31RAE12 SLPNO P0000 T03280156,M
TPH,2023-08-18 19:56,-117.0904,38.0505,1654.00,87.00,44.00,22.33,210.00,15.00,0.00,30.11,1011.40,10.00,25.00,CLR,M,M,M,M,M,M,M,M,M,M,M,29.00,200.00,2023-08-18 19:27,83.82,KTPH 181956Z AUTO 21015G25KT 10SM CLR 31/07 A3011 RMK AO2 PK WND 20029/1927 SLP114 T03060067,M
LAS,2023-08-18 19:56,-115.1634,36.0719,663.00,91.00,59.00,34.27,110.00,7.00,T,29.94,1010.70,10.00,M,SCT,BKN,BKN,M,11000.00,17000.00,25000.00,M,M,M,M,M,M,M,M,90.27,KLAS 181956Z 11007KT 10SM SCT110 BKN170 BKN250 33/15 A2994 RMK AO2 RAB25E35 TSB08E40 SLP107 TCU DSNT NW-N SHRA DSNT N P0000 T03280150,M
NFL,2023-08-18 19:56,-118.7010,39.4166,1199.00,90.00,45.00,21.10,0.00,0.00,0.00,29.98,1012.30,10.00,M,SCT,SCT,M,M,8000.00,12000.00,M,M,M,M,M,M,M,M,M,86.45,KNFL 181956Z 00000KT 10SM SCT080 SCT120 32/07 A2998 RMK AO2 SLP123 TCU DSNT SW-NW T03220072,M
INS,2023-08-18 19:56,-115.6733,36.5872,955.00,93.20,44.60,18.80,90.00,15.00,0.00,29.96,1009.10,10.00,M,FEW,M,M,M,17000.00,M,M,M,M,M,M,M,M,M,M,89.34,KINS 181956Z AUTO 09015KT 10SM FEW170 34/07 A2996 RMK AO2 WSHFT 48 SLP091 $,M
LSV,2023-08-18 20:01,-115.0343,36.2362,570.00,89.60,57.20,33.56,180.00,13.00,0.00,29.90,1009.80,9.00,M,FEW,FEW,M,M,6500.00,8000.00,M,M,-RA,M,M,M,M,M,M,88.28,KLSV 182001Z 18013KT 9SM -RA FEW065 FEW080 32/14 A2990 RMK AO2A RAB01 SLP098 $,M
05U,2023-08-18 20:10,-116.0051,39.6042,1811.23,86.00,35.60,16.63,M,M,0.00,30.13,M,10.00,M,M,M,M,M,M,M,M,M,M,M,M,M,M,M,M,82.69,K05U 182010Z AUTO 10SM 30/02 A3013 RMK A01,M
LSV,2023-08-18 20:12,-115.0343,36.2362,570.00,89.60,62.60,40.69,160.00,6.00,0.00,29.89,1009.50,10.00,M,FEW,BKN,M,M,10000.00,18000.00,M,M,M,M,M,M,M,M,M,90.32,KLSV 182012Z 16006KT 10SM FEW100 BKN180 32/17 A2989 RMK AO2A RAB01E12 SLP095 $,M
BVU,2023-08-18 20:15,-114.8611,35.9475,671.00,87.80,62.60,43.07,M,5.00,0.00,29.94,M,10.00,M,CLR,M,M,M,M,M,M,M,M,M,M,M,M,M,M,88.48,KBVU 182015Z AUTO VRB05KT 10SM CLR 31/17 A2994 RMK AO2,M
CXP,2023-08-18 20:15,-119.7326,39.1923,1431.00,80.60,50.00,34.41,170.00,8.00,0.00,30.06,M,10.00,M,SCT,M,M,M,11000.00,M,M,M,M,M,M,M,M,M,M,79.88,KCXP 182015Z AUTO 17008KT 10SM SCT110 27/10 A3006 RMK AO2,M
RTS,2023-08-18 20:15,-119.8764,39.6682,1539.00,84.20,35.60,17.61,170.00,7.00,0.00,30.06,M,10.00,13.00,CLR,M,M,M,M,M,M,M,M,M,M,M,M,M,M,81.34,KRTS 182015Z AUTO 17007G13KT 10SM CLR 29/02 A3006 RMK AO2,M
MEV,2023-08-18 20:15,-119.7500,38.9963,1441.42,71.60,55.40,56.63,200.00,7.00,0.00,30.07,M,10.00,17.00,BKN,M,M,M,9500.00,M,M,M,M,M,M,M,M,M,M,71.60,KMEV 182015Z AUTO 20007G17KT 10SM BKN095 22/13 A3007 RMK AO2,M
BAM,2023-08-18 20:15,-116.8743,40.5990,1382.36,91.40,42.80,18.56,170.00,5.00,0.00,30.01,M,10.00,17.00,CLR,M,M,M,M,M,M,M,M,M,M,M,M,M,M,87.52,KBAM 182015Z AUTO 17005G17KT 10SM CLR 33/06 A3001 RMK AO1,M
HTH,2023-08-18 20:15,-118.6315,38.5448,1282.89,87.80,42.80,20.79,M,5.00,0.00,30.00,M,10.00,M,CLR,M,M,M,M,M,M,M,M,M,M,M,M,M,M,84.40,KHTH 182015Z AUTO VRB05KT 10SM CLR 31/06 A3000 RMK A01,M
10U,2023-08-18 20:15,-116.1876,41.9532,1637.00,87.80,37.40,16.86,230.00,10.00,0.00,30.07,M,10.00,21.00,FEW,M,M,M,10000.00,M,M,M,M,M,M,M,M,M,M,84.16,K10U 182015Z AUTO 23010G21KT 170V270 10SM FEW100 31/03 A3007 RMK AO2,M
TMT,2023-08-18 20:15,-117.1971,39.4643,1749.34,87.00,35.00,15.72,230.00,16.00,0.00,30.10,M,M,22.00,SCT,M,M,M,12000.00,M,M,M,M,M,M,M,M,M,M,83.47,KTMT 182015Z AUTO 23016G22KT SCT120 31/02 A3010 RMK AO2 T03050017 PWINO,M
BVU,2023-08-18 20:35,-114.8611,35.9475,671.00,91.40,59.00,33.84,150.00,11.00,0.00,29.93,M,10.00,M,CLR,M,M,M,M,M,M,M,M,M,M,M,M,M,M,90.68,KBVU 182035Z AUTO 15011KT 10SM CLR 33/15 A2993 RMK AO2,M
CXP,2023-08-18 20:35,-119.7326,39.1923,1431.00,80.60,48.20,32.18,180.00,8.00,0.00,30.06,M,10.00,M,FEW,M,M,M,11000.00,M,M,M,M,M,M,M,M,M,M,79.71,KCXP 182035Z AUTO 18008KT 10SM FEW110 27/09 A3006 RMK AO2,M
RTS,2023-08-18 20:35,-119.8764,39.6682,1539.00,84.20,35.60,17.61,180.00,9.00,0.00,30.06,M,10.00,M,CLR,M,M,M,M,M,M,M,M,M,M,M,M,M,M,81.34,KRTS 182035Z AUTO 18009KT 10SM CLR 29/02 A3006 RMK AO2,M
05U,2023-08-18 20:35,-116.0051,39.6042,1811.23,87.80,35.60,15.70,M,M,0.00,30.13,M,10.00,M,M,M,M,M,M,M,M,M,M,M,M,M,M,M,M,84.12,K05U 182035Z AUTO 10SM 31/02 A3013 RMK A01,M
MEV,2023-08-18 20:35,-119.7500,38.9963,1441.42,75.20,51.80,43.97,240.00,7.00,0.00,30.04,M,10.00,M,FEW,SCT,SCT,M,2700.00,9500.00,11000.00,M,-RA,M,M,M,M,M,M,75.20,KMEV 182035Z AUTO 24007KT 10SM -RA FEW027 SCT095 SCT110 24/11 A3004 RMK AO2 LTG DSNT E AND SE,M
BAM,2023-08-18 20:35,-116.8743,40.5990,1382.36,91.40,42.80,18.56,190.00,11.00,0.00,30.00,M,10.00,15.00,CLR,M,M,M,M,M,M,M,M,M,M,M,M,M,M,87.52,KBAM 182035Z AUTO 19011G15KT 160V220 10SM CLR 33/06 A3000 RMK AO1,M
HTH,2023-08-18 20:35,-118.6315,38.5448,1282.89,89.60,42.80,19.64,320.00,9.00,0.00,29.98,M,10.00,15.00,CLR,M,M,M,M,M,M,M,M,M,M,M,M,M,M,85.93,KHTH 182035Z AUTO 32009G15KT 10SM CLR 32/06 A2998 RMK A01,M
10U,2023-08-18 20:35,-116.1876,41.9532,1637.00,87.80,35.60,15.70,M,9.00,0.00,30.06,M,10.00,21.00,FEW,M,M,M,11000.00,M,M,M,M,M,M,M,M,M,M,84.12,K10U 182035Z AUTO VRB09G21KT 10SM FEW110 31/02 A3006 RMK AO2,M
TMT,2023-08-18 20:35,-117.1971,39.4643,1749.34,87.00,33.30,14.69,230.00,15.00,0.00,30.10,M,M,20.00,SCT,M,M,M,12000.00,M,M,M,M,M,M,M,M,M,M,83.44,KTMT 182035Z AUTO 23015G20KT SCT120 31/01 A3010 RMK AO2 T03050007 PWINO,M
05U,2023-08-18 20:50,-116.0051,39.6042,1811.23,86.00,35.60,16.63,M,M,0.00,30.13,M,10.00,M,M,M,M,M,M,M,M,M,M,M,M,M,M,M,M,82.69,K05U 182050Z AUTO 10SM 30/02 A3013 RMK A01,M
P68,2023-08-18 20:53,-116.0056,39.6014,1993.00,84.00,36.00,18.01,210.00,15.00,0.00,30.10,1010.90,M,24.00,M,M,M,M,M,M,M,M,M,M,M,M,30.00,180.00,2023-08-18 20:19,81.20,KP68 182053Z AUTO 21015G24KT 29/02 A3010 RMK AO1 PK WND 18030/2019 SLP109 T02890022 56011,M
DRA,2023-08-18 20:53,-116.0278,36.6206,1009.00,95.00,35.00,12.24,M,5.00,0.00,29.95,1008.30,10.00,31.00,SCT,M,M,M,12000.00,M,M,M,M,M,M,M,31.00,210.00,2023-08-18 20:45,90.15,KDRA 182053Z AUTO VRB05G31KT 10SM SCT120 35/02 A2995 RMK AO2 PK WND 21031/2045 SLP083 T03500017 56019,M
ELY,2023-08-18 20:53,-114.8453,39.2950,1909.00,83.00,39.00,20.93,210.00,13.00,0.00,30.17,1011.40,10.00,21.00,BKN,M,M,M,11000.00,M,M,M,M,M,M,M,M,M,M,80.60,KELY 182053Z AUTO 21013G21KT 10SM BKN110 28/04 A3017 RMK AO2 SLP114 T02830039 58006,M
VGT,2023-08-18 20:53,-115.1933,36.2111,667.00,95.00,58.00,29.20,100.00,11.00,T,29.92,1011.60,10.00,M,CLR,M,M,M,M,M,M,M,M,M,M,M,M,M,M,94.11,KVGT 182053Z 10011KT 10SM CLR 35/14 A2992 RMK AO2 RAE07 SLP116 P0000 60000 T03500144 58010,M
LOL,2023-08-18 20:53,-118.5701,40.0684,1192.43,91.00,42.00,18.23,M,M,0.00,29.95,1009.30,10.00,M,CLR,M,M,M,M,M,M,M,M,M,M,M,M,M,M,87.11,KLOL 182053Z AUTO 10SM CLR 33/06 A2995 RMK AO2 SLP093 T03280056 58019,M
BVU,2023-08-18 20:55,-114.8611,35.9475,671.00,93.20,53.60,26.31,140.00,11.00,0.00,29.92,M,10.00,M,CLR,M,M,M,M,M,M,M,M,M,M,M,M,M,M,90.86,KBVU 182055Z AUTO 14011KT 10SM CLR 34/12 A2992 RMK AO2,M
CXP,2023-08-18 20:55,-119.7326,39.1923,1431.00,82.40,46.40,28.36,190.00,13.00,0.00,30.05,M,10.00,M,CLR,M,M,M,M,M,M,M,VCTS,M,M,M,M,M,M,80.64,KCXP 182055Z AUTO 19013KT 10SM VCTS CLR 28/08 A3005 RMK AO2 LTG DSNT SE,M
RNO,2023-08-18 20:55,-119.7711,39.4839,1341.00,89.00,37.00,15.97,190.00,9.00,0.00,29.99,1009.30,10.00,17.00,SCT,BKN,M,M,10000.00,18000.00,M,M,M,M,M,M,M,M,M,85.15,KRNO 182055Z 19009G17KT 10SM SCT100 BKN180 32/03 A2999 RMK AO2 LTG DSNT SE-W SLP093 TCU DSNT ALQDS T03170028 57017,M
RTS,2023-08-18 20:55,-119.8764,39.6682,1539.00,86.00,35.60,16.63,170.00,9.00,0.00,30.05,M,10.00,15.00,CLR,M,M,M,M,M,M,M,M,M,M,M,M,M,M,82.69,KRTS 182055Z AUTO 17009G15KT 10SM CLR 30/02 A3005 RMK AO2,M
MEV,2023-08-18 20:55,-119.7500,38.9963,1441.42,82.40,46.40,28.36,250.00,10.00,0.00,30.04,M,10.00,M,CLR,M,M,M,M,M,M,M,M,M,M,M,M,M,M,80.64,KMEV 182055Z AUTO 25010KT 10SM CLR 28/08 A3004 RMK AO2,M
HTH,2023-08-18 20:55,-118.6315,38.5448,1282.89,87.80,41.00,19.40,M,4.00,0.00,29.98,M,10.00,M,CLR,M,M,M,M,M,M,M,M,M,M,M,M,M,M,84.30,KHTH 182055Z AUTO VRB04KT 10SM CLR 31/05 A2998 RMK A01,M
BAM,2023-08-18 20:55,-116.8743,40.5990,1382.36,91.40,39.20,16.15,250.00,7.00,0.00,29.99,M,10.00,10.00,CLR,M,M,M,M,M,M,M,M,M,M,M,M,M,M,87.30,KBAM 182055Z AUTO 25007G10KT 200V270 10SM CLR 33/04 A2999 RMK AO1,M
TMT,2023-08-18 20:55,-117.1971,39.4643,1749.34,86.00,31.30,13.99,230.00,16.00,0.00,30.09,M,M,22.00,CLR,M,M,M,M,M,M,M,M,M,M,M,M,M,M,82.64,KTMT 182055Z AUTO 23016G22KT CLR 30/00 A3009 RMK AO2 T03001004 PWINO,M
10U,2023-08-18 20:55,-116.1876,41.9532,1637.00,87.80,33.80,14.61,240.00,12.00,0.00,30.05,M,10.00,21.00,FEW,M,M,M,11000.00,M,M,M,M,M,M,M,M,M,M,84.10,K10U 182055Z AUTO 24012G21KT 10SM FEW110 31/01 A3005 RMK AO2,M
INS,2023-08-18 20:55,-115.6733,36.5872,955.00,94.00,46.80,19.94,100.00,25.00,0.00,29.95,1008.70,10.00,29.00,BKN,BKN,M,M,16000.00,18000.00,M,M,M,M,M,M,30.00,100.00,2023-08-18 20:52,90.37,KINS 182055Z AUTO 10025G29KT 10SM BKN160 BKN180 35/08 A2995 RMK AO2 PK WND 10030/52 SLP087 T03450082 57015 $,M
LSV,2023-08-18 20:55,-115.0343,36.2362,570.00,96.00,55.40,25.77,70.00,3.00,T,29.87,1008.60,10.00,M,FEW,BKN,M,M,14000.00,20000.00,M,M,M,M,M,M,M,M,M,94.28,KLSV 182055Z 07003KT 10SM FEW140 BKN200 36/13 A2987 RMK AO2A RAB01E12RAB15E18 SLP086 P0000 60000 T03550130 56011 $,M
EKO,2023-08-18 20:56,-115.7860,40.8242,1367.00,88.00,45.00,22.47,310.00,8.00,0.00,30.03,1010.90,10.00,25.00,FEW,M,M,M,10000.00,M,M,M,M,M,M,M,29.00,260.00,2023-08-18 20:46,84.72,KEKO 182056Z AUTO 31008G25KT 270V360 10SM FEW100 31/07 A3003 RMK AO2 PK WND 26029/2046 SLP109 T03110072 56018,M
WMC,2023-08-18 20:56,-117.8072,40.9019,1315.00,94.00,37.00,13.66,240.00,9.00,0.00,29.97,1009.20,10.00,17.00,CLR,M,M,M,M,M,M,M,M,M,M,M,M,M,M,89.53,KWMC 182056Z AUTO 24009G17KT 10SM CLR 34/03 A2997 RMK AO2 SLP092 T03440028 58016,M
HND,2023-08-18 20:56,-115.1344,35.9729,742.79,94.00,59.00,31.21,140.00,8.00,0.00,29.95,M,10.00,M,CLR,M,M,M,M,M,M,M,M,M,M,M,M,M,M,93.42,KHND 182056Z 14008KT 10SM CLR 34/15 A2995 RMK AO2 LTG DSNT S AND SW SLPNO 60000 T03440150 58015,M
TPH,2023-08-18 20:56,-117.0904,38.0505,1654.00,88.00,45.00,22.47,190.00,19.00,0.00,30.09,1011.00,10.00,32.00,CLR,M,M,M,M,M,M,M,M,M,M,M,32.00,180.00,2023-08-18 20:54,84.72,KTPH 182056Z AUTO 19019G32KT 10SM CLR 31/07 A3009 RMK AO2 PK WND 18032/2054 SLP110 T03110072 58016,M
LAS,2023-08-18 20:56,-115.1634,36.0719,663.00,93.00,58.00,31.06,110.00,7.00,0.00,29.92,1010.00,10.00,M,SCT,SCT,BKN,M,11000.00,17000.00,25000.00,M,M,M,M,M,M,M,M,91.98,KLAS 182056Z 11007KT 10SM SCT110 SCT170 BKN250 34/14 A2992 RMK AO2 LTG DSNT S SLP100 CB DSNT S 60000 T03390144 58013,M
NFL,2023-08-18 20:56,-118.7010,39.4166,1199.00,90.00,41.00,18.10,M,5.00,0.00,29.96,1011.70,10.00,M,SCT,SCT,M,M,8000.00,15000.00,M,M,M,M,M,M,M,M,M,86.16,KNFL 182056Z VRB05KT 10SM SCT080 SCT150 32/05 A2996 RMK AO2 SLP117 CB DSNT SW MOV N TCU DSNT W-NW T03220050 58017,M
05U,2023-08-18 21:10,-116.0051,39.6042,1811.23,84.20,35.60,17.61,M,M,0.00,30.13,M,10.00,M,M,M,M,M,M,M,M,M,M,M,M,M,M,M,M,81.34,K05U 182110Z AUTO 10SM 29/02 A3013 RMK A01,M
BVU,2023-08-18 21:15,-114.8611,35.9475,671.00,93.20,53.60,26.31,150.00,10.00,0.00,29.91,M,10.00,M,CLR,M,M,M,M,M,M,M,M,M,M,M,M,M,M,90.86,KBVU 182115Z AUTO 15010KT 10SM CLR 34/12 A2991 RMK AO2,M
CXP,2023-08-18 21:15,-119.7326,39.1923,1431.00,86.00,44.60,23.59,160.00,5.00,0.00,30.05,M,10.00,12.00,CLR,M,M,M,M,M,M,M,TS,M,M,M,M,M,M,83.07,KCXP 182115Z AUTO 16005G12KT 10SM TS CLR 30/07 A3005 RMK AO2 LTG DSNT E AND SE AND W,M
RTS,2023-08-18 21:15,-119.8764,39.6682,1539.00,86.00,35.60,16.63,200.00,8.00,0.00,30.04,M,10.00,15.00,CLR,M,M,M,M,M,M,M,M,M,M,M,M,M,M,82.69,KRTS 182115Z AUTO 20008G15KT 10SM CLR 30/02 A3004 RMK AO2,M
MEV,2023-08-18 21:15,-119.7500,38.9963,1441.42,82.40,39.20,21.51,230.00,4.00,0.00,30.04,M,10.00,M,CLR,M,M,M,M,M,M,M,TS,M,M,M,M,M,M,80.21,KMEV 182115Z AUTO 23004KT 10SM TS CLR 28/04 A3004 RMK AO2 LTG DSNT E AND W AND NW,M
BAM,2023-08-18 21:15,-116.8743,40.5990,1382.36,96.80,37.40,12.73,190.00,11.00,0.00,29.99,M,10.00,20.00,CLR,M,M,M,M,M,M,M,M,M,M,M,M,M,M,92.04,KBAM 182115Z AUTO 19011G20KT 10SM CLR 36/03 A2999 RMK AO1,M
HTH,2023-08-18 21:15,-118.6315,38.5448,1282.89,89.60,37.40,15.92,M,5.00,0.00,29.97,M,10.00,M,CLR,M,M,M,M,M,M,M,M,M,M,M,M,M,M,85.67,KHTH 182115Z AUTO VRB05KT 10SM CLR 32/03 A2997 RMK A01,M
10U,2023-08-18 21:15,-116.1876,41.9532,1637.00,87.80,33.80,14.61,230.00,15.00,0.00,30.05,M,10.00,20.00,SCT,M,M,M,11000.00,M,M,M,M,M,M,M,M,M,M,84.10,K10U 182115Z AUTO 23015G20KT 10SM SCT110 31/01 A3005 RMK AO2,M
TMT,2023-08-18 21:15,-117.1971,39.4643,1749.34,86.40,31.30,13.82,210.00,15.00,0.00,30.09,M,M,22.00,SCT,M,M,M,12000.00,M,M,M,M,M,M,M,M,M,M,82.95,KTMT 182115Z AUTO 21015G22KT SCT120 30/00 A3009 RMK AO2 T03021004 PWINO,M
EKO,2023-08-18 21:27,-115.7860,40.8242,1367.00,89.00,46.00,22.61,220.00,6.00,0.00,30.02,M,10.00,M,FEW,M,M,M,11000.00,M,M,M,VCTS,M,M,M,M,M,M,85.67,KEKO 182127Z AUTO 22006KT 10SM VCTS FEW110 32/08 A3002 RMK AO2 LTG DSNT N AND NE T03170078,M
05U,2023-08-18 21:30,-116.0051,39.6042,1811.23,84.20,33.80,16.39,M,M,0.00,30.13,M,10.00,M,M,M,M,M,M,M,M,M,M,M,M,M,M,M,M,81.30,K05U 182130Z AUTO 10SM 29/01 A3013 RMK A01,M
BVU,2023-08-18 21:35,-114.8611,35.9475,671.00,93.20,51.80,24.63,120.00,10.00,0.00,29.90,M,10.00,M,CLR,M,M,M,M,M,M,M,M,M,M,M,M,M,M,90.45,KBVU 182135Z AUTO 12010KT 10SM CLR 34/11 A2990 RMK AO2,M
CXP,2023-08-18 21:35,-119.7326,39.1923,1431.00,86.00,42.80,22.02,M,5.00,0.00,30.05,M,10.00,12.00,FEW,M,M,M,10000.00,M,M,M,M,M,M,M,M,M,M,82.95,KCXP 182135Z AUTO VRB05G12KT 10SM FEW100 30/06 A3005 RMK AO2,M
RTS,2023-08-18 21:35,-119.8764,39.6682,1539.00,84.20,35.60,17.61,230.00,8.00,0.00,30.05,M,10.00,M,CLR,M,M,M,M,M,M,M,M,M,M,M,M,M,M,81.34,KRTS 182135Z AUTO 23008KT 10SM CLR 29/02 A3005 RMK AO2,M
HTH,2023-08-18 21:35,-118.6315,38.5448,1282.89,91.40,35.60,14.02,280.00,8.00,0.00,29.96,M,10.00,M,CLR,M,M,M,M,M,M,M,M,M,M,M,M,M,M,87.17,KHTH 182135Z AUTO 28008KT 260V320 10SM CLR 33/02 A2996 RMK A01,M
10U,2023-08-18 21:35,-116.1876,41.9532,1637.00,87.80,33.80,14.61,210.00,13.00,0.00,30.04,M,10.00,28.00,SCT,M,M,M,11000.00,M,M,M,M,M,M,M,M,M,M,84.10,K10U 182135Z AUTO 21013G28KT 10SM SCT110 31/01 A3004 RMK AO2,M
BAM,2023-08-18 21:35,-116.8743,40.5990,1382.36,95.00,37.40,13.46,250.00,13.00,0.00,29.98,M,10.00,18.00,CLR,M,M,M,M,M,M,M,M,M,M,M,M,M,M,90.46,KBAM 182135Z AUTO 25013G18KT 10SM CLR 35/03 A2998 RMK AO1,M
TMT,2023-08-18 21:35,-117.1971,39.4643,1749.34,87.00,30.60,13.18,230.00,14.00,0.00,30.08,M,M,21.00,CLR,M,M,M,M,M,M,M,M,M,M,M,M,M,M,83.43,KTMT 182135Z AUTO 23014G21KT CLR 31/M01 A3008 RMK AO2 T03051008 PWINO,M
MEV,2023-08-18 21:35,-119.7500,38.9963,1441.42,80.60,48.20,32.18,70.00,11.00,0.00,30.04,M,10.00,19.00,CLR,M,M,M,M,M,M,M,M,M,M,M,M,M,M,79.71,KMEV 182135Z AUTO 07011G19KT 10SM CLR 27/09 A3004 RMK AO2,M
05U,2023-08-18 21:50,-116.0051,39.6042,1811.23,87.80,32.00,13.59,M,M,0.00,30.12,M,10.00,M,M,M,M,M,M,M,M,M,M,M,M,M,M,M,M,84.08,K05U 182150Z AUTO 10SM 31/M00 A3012 RMK A01,M
EKO,2023-08-18 21:52,-115.7860,40.8242,1367.00,86.00,46.40,25.26,230.00,9.00,0.00,30.01,M,10.00,14.00,FEW,FEW,M,M,6500.00,11000.00,M,M,M,M,M,M,M,M,M,83.22,KEKO 182152Z AUTO 23009G14KT 10SM FEW065 FEW110 30/08 A3001 RMK AO2,M
P68,2023-08-18 21:53,-116.0056,39.6014,1993.00,85.00,30.00,13.71,190.00,15.00,0.00,30.09,1010.40,M,27.00,M,M,M,M,M,M,M,M,M,M,M,M,28.00,200.00,2023-08-18 21:43,81.86,KP68 182153Z AUTO 19015G27KT 29/M01 A3009 RMK AO1 PK WND 20028/2143 SLP104 T02941011,M
DRA,2023-08-18 21:53,-116.0278,36.6206,1009.00,98.00,41.00,14.13,160.00,11.00,0.00,29.92,1007.40,10.00,23.00,BKN,M,M,M,12000.00,M,M,M,M,M,M,M,M,M,M,93.52,KDRA 182153Z AUTO 16011G23KT 10SM BKN120 37/05 A2992 RMK AO2 SLP074 T03670050,M
ELY,2023-08-18 21:53,-114.8453,39.2950,1909.00,82.00,40.00,22.48,210.00,12.00,0.00,30.15,1010.90,10.00,20.00,FEW,M,M,M,12000.00,M,M,M,M,M,M,M,M,M,M,79.99,KELY 182153Z AUTO 21012G20KT 10SM FEW120 28/04 A3015 RMK AO2 LTG DSNT SE SLP109 T02780044,M
VGT,2023-08-18 21:53,-115.1933,36.2111,667.00,97.00,55.00,24.63,100.00,9.00,0.00,29.88,1010.50,10.00,16.00,CLR,M,M,M,M,M,M,M,M,M,M,M,M,M,M,95.23,KVGT 182153Z 10009G16KT 10SM CLR 36/13 A2988 RMK AO2 LTG DSNT SW SLP105 T03610128,M
LOL,2023-08-18 21:53,-118.5701,40.0684,1192.43,92.00,37.00,14.54,190.00,7.00,0.00,29.93,1009.00,10.00,M,FEW,M,M,M,12000.00,M,M,M,M,M,M,M,M,M,M,87.74,KLOL 182153Z AUTO 19007KT 10SM FEW120 33/03 A2993 RMK AO2 SLP090 T03330028,M
BVU,2023-08-18 21:55,-114.8611,35.9475,671.00,95.00,51.80,23.30,100.00,8.00,0.00,29.89,M,10.00,15.00,CLR,M,M,M,M,M,M,M,M,M,M,M,M,M,M,92.26,KBVU 182155Z AUTO 10008G15KT 10SM CLR 35/11 A2989 RMK AO2,M
CXP,2023-08-18 21:55,-119.7326,39.1923,1431.00,84.20,42.80,23.33,110.00,11.00,0.00,30.05,M,10.00,17.00,CLR,M,M,M,M,M,M,M,M,M,M,M,M,M,M,81.61,KCXP 182155Z AUTO 11011G17KT 10SM CLR 29/06 A3005 RMK AO2,M
RTS,2023-08-18 21:55,-119.8764,39.6682,1539.00,82.40,35.60,18.67,200.00,7.00,0.00,30.05,M,10.00,12.00,CLR,M,M,M,M,M,M,M,M,M,M,M,M,M,M,80.08,KRTS 182155Z AUTO 20007G12KT 10SM CLR 28/02 A3005 RMK AO2,M
RNO,2023-08-18 21:55,-119.7711,39.4839,1341.00,89.00,39.00,17.28,190.00,12.00,0.00,29.99,1009.30,10.00,22.00,BKN,BKN,M,M,10000.00,18000.00,M,M,M,M,M,M,M,M,M,85.21,KRNO 182155Z COR 19012G22KT 10SM BKN100CB BKN180 32/04 A2999 RMK AO2 LTG DSNT SE-W SLP093 CB W MOV N CB DSNT SE SH VC W T03170039,M
BAM,2023-08-18 21:55,-116.8743,40.5990,1382.36,95.00,37.40,13.46,230.00,11.00,0.00,29.97,M,10.00,15.00,SCT,M,M,M,12000.00,M,M,M,M,M,M,M,M,M,M,90.46,KBAM 182155Z AUTO 23011G15KT 10SM SCT120 35/03 A2997 RMK AO1,M
TMT,2023-08-18 21:55,-117.1971,39.4643,1749.34,88.00,31.50,13.24,230.00,12.00,0.00,30.08,M,M,16.00,CLR,M,M,M,M,M,M,M,M,M,M,M,M,M,M,84.24,KTMT 182155Z AUTO 23012G16KT CLR 31/00 A3008 RMK AO2 T03111003 PWINO,M
10U,2023-08-18 21:55,-116.1876,41.9532,1637.00,87.80,33.80,14.61,260.00,11.00,0.00,30.04,M,10.00,22.00,FEW,M,M,M,11000.00,M,M,M,M,M,M,M,M,M,M,84.10,K10U 182155Z AUTO 26011G22KT 10SM FEW110 31/01 A3004 RMK AO2,M
INS,2023-08-18 21:55,-115.6733,36.5872,955.00,92.30,49.00,22.83,110.00,21.00,0.00,29.92,1008.00,10.00,25.00,BKN,M,M,M,12000.00,M,M,M,M,M,M,M,29.00,110.00,2023-08-18 20:54,89.06,KINS 182155Z AUTO 11021G25KT 10SM BKN120 34/10 A2992 RMK AO2 PK WND 11029/2054 SLP080 T03350095 $,M
LSV,2023-08-18 21:55,-115.0343,36.2362,570.00,97.00,53.00,22.90,80.00,4.00,0.00,29.85,1007.90,10.00,M,FEW,M,M,M,20000.00,M,M,M,M,M,M,M,M,M,M,94.64,KLSV 182155Z AUTO 08004KT 10SM FEW200 36/12 A2985 RMK AO2 SLP079 T03620117 $,M
EKO,2023-08-18 21:56,-115.7860,40.8242,1367.00,86.00,46.00,24.88,240.00,6.00,0.00,30.01,1010.40,10.00,14.00,FEW,FEW,M,M,6500.00,11000.00,M,M,M,M,M,M,M,M,M,83.19,KEKO 182156Z AUTO 24006G14KT 10SM FEW065 FEW110 30/08 A3001 RMK AO2 SLP104 T03000078,M
WMC,2023-08-18 21:56,-117.8072,40.9019,1315.00,92.00,36.00,13.98,M,M,0.00,29.95,1008.20,10.00,M,BKN,M,M,M,12000.00,M,M,M,M,M,M,M,M,M,M,87.71,KWMC 182156Z AUTO 10SM BKN120 33/02 A2995 RMK AO2 SLP082 T03330022,M
NFL,2023-08-18 21:56,-118.7010,39.4166,1199.00,92.00,41.00,17.00,M,5.00,0.00,29.94,1011.00,10.00,M,SCT,SCT,M,M,8000.00,15000.00,M,M,M,M,M,M,M,M,M,87.94,KNFL 182156Z VRB05KT 10SM SCT080 SCT150 33/05 A2994 RMK AO2 SLP110 CB DSNT W MOV N TCU DSNT S AND NW T03330050,M
HND,2023-08-18 21:56,-115.1344,35.9729,742.79,M,M,M,M,M,0.00,M,M,M,M,M,M,M,M,M,M,M,M,VCTS,M,M,M,M,M,M,M,KHND 182156Z VCTS RMK AO2 LTG DSNT SW TSB55 SLPNO $,M
TPH,2023-08-18 21:56,-117.0904,38.0505,1654.00,89.00,46.00,22.61,190.00,20.00,0.00,30.07,1010.00,10.00,30.00,CLR,M,M,M,M,M,M,M,M,M,M,M,31.00,210.00,2023-08-18 21:36,85.67,KTPH 182156Z AUTO 19020G30KT 10SM CLR 32/08 A3007 RMK AO2 PK WND 21031/2136 SLP100 T03170078,M
LAS,2023-08-18 21:56,-115.1634,36.0719,663.00,95.00,54.00,25.26,M,4.00,0.00,29.88,1008.80,10.00,M,SCT,SCT,BKN,M,11000.00,17000.00,22000.00,M,M,M,M,M,M,M,M,92.82,KLAS 182156Z VRB04KT 10SM SCT110 SCT170 BKN220 35/12 A2988 RMK AO2 LTG DSNT SW SLP088 CB DSNT SW-W T03500122,M
BVU,2023-08-18 22:15,-114.8611,35.9475,671.00,96.80,50.00,20.62,140.00,5.00,0.00,29.87,M,10.00,13.00,FEW,M,M,M,11000.00,M,M,M,M,M,M,M,M,M,M,93.71,KBVU 182215Z AUTO 14005G13KT 10SM FEW110 36/10 A2987 RMK AO2,M
CXP,2023-08-18 22:15,-119.7326,39.1923,1431.00,80.60,42.80,26.22,M,6.00,0.00,30.06,M,10.00,M,BKN,M,M,M,9500.00,M,M,M,M,M,M,M,M,M,M,79.30,KCXP 182215Z AUTO VRB06KT 10SM BKN095 27/06 A3006 RMK AO2,M
RTS,2023-08-18 22:15,-119.8764,39.6682,1539.00,82.40,37.40,20.04,240.00,14.00,0.00,30.07,M,10.00,19.00,CLR,M,M,M,M,M,M,M,M,M,M,M,M,M,M,80.14,KRTS 182215Z AUTO 24014G19KT 10SM CLR 28/03 A3007 RMK AO2,M
05U,2023-08-18 22:15,-116.0051,39.6042,1811.23,86.00,30.20,13.38,M,M,0.00,30.11,M,10.00,M,M,M,M,M,M,M,M,M,M,M,M,M,M,M,M,82.64,K05U 182215Z AUTO 10SM 30/M01 A3011 RMK A01,M
MEV,2023-08-18 22:15,-119.7500,38.9963,1441.42,82.40,46.40,28.36,280.00,9.00,0.00,30.04,M,10.00,M,CLR,M,M,M,M,M,M,M,M,M,M,M,M,M,M,80.64,KMEV 182215Z AUTO 28009KT 250V310 10SM CLR 28/08 A3004 RMK AO2,M
HTH,2023-08-18 22:15,-118.6315,38.5448,1282.89,91.40,33.80,13.05,M,6.00,0.00,29.95,M,10.00,M,CLR,M,M,M,M,M,M,M,M,M,M,M,M,M,M,87.13,KHTH 182215Z AUTO VRB06KT 10SM CLR 33/01 A2995 RMK A01,M
10U,2023-08-18 22:15,-116.1876,41.9532,1637.00,87.80,33.80,14.61,220.00,9.00,0.00,30.03,M,10.00,24.00,SCT,M,M,M,11000.00,M,M,M,M,M,M,M,M,M,M,84.10,K10U 182215Z AUTO 22009G24KT 200V260 10SM SCT110 31/01 A3003 RMK AO2,M
BAM,2023-08-18 22:15,-116.8743,40.5990,1382.36,95.00,37.40,13.46,260.00,5.00,0.00,29.96,M,10.00,15.00,SCT,M,M,M,12000.00,M,M,M,M,M,M,M,M,M,M,90.46,KBAM 182215Z AUTO 26005G15KT 10SM SCT120 35/03 A2996 RMK AO1,M
TMT,2023-08-18 22:15,-117.1971,39.4643,1749.34,87.60,30.70,12.98,230.00,10.00,0.00,30.07,M,M,24.00,CLR,M,M,M,M,M,M,M,M,M,M,M,M,M,M,83.91,KTMT 182215Z AUTO 23010G24KT CLR 31/M01 A3007 RMK AO2 T03091007 PWINO,M
HND,2023-08-18 22:16,-115.1344,35.9729,742.79,M,M,M,M,M,0.00,M,M,M,M,M,M,M,M,M,M,M,M,M,M,M,M,M,M,M,M,KHND 182216Z RMK AO2 LTG DSNT SW AND W TSE10 $,M
HND,2023-08-18 22:26,-115.1344,35.9729,742.79,M,M,M,M,M,0.00,M,M,M,M,M,M,M,M,M,M,M,M,TS,M,M,M,M,M,M,M,KHND 182226Z TS RMK AO2 LTG DSNT SW AND W TSE10B20 $,M
LAS,2023-08-18 22:29,-115.1634,36.0719,663.00,95.00,55.00,26.19,80.00,3.00,0.00,29.87,M,10.00,M,SCT,SCT,BKN,M,12000.00,17000.00,22000.00,M,TS,M,M,M,M,M,M,93.10,KLAS 182229Z 08003KT 10SM TS SCT120CB SCT170 BKN220 35/13 A2987 RMK AO2 LTG DSNT SW AND W TSB23 OCNL LTGICCCCG S-W TS S-W MOV N T03500128,M
05U,2023-08-18 22:30,-116.0051,39.6042,1811.23,86.00,33.80,15.48,M,M,0.00,30.10,M,10.00,M,M,M,M,M,M,M,M,M,M,M,M,M,M,M,M,82.66,K05U 182230Z AUTO 10SM 30/01 A3010 RMK A01,M
BVU,2023-08-18 22:35,-114.8611,35.9475,671.00,96.80,51.80,22.04,110.00,8.00,0.00,29.86,M,10.00,13.00,FEW,M,M,M,11000.00,M,M,M,VCTS,M,M,M,M,M,M,94.12,KBVU 182235Z AUTO 11008G13KT 10SM VCTS FEW110 36/11 A2986 RMK AO2 LTG DSNT W,M
CXP,2023-08-18 22:35,-119.7326,39.1923,1431.00,80.60,42.80,26.22,50.00,13.00,0.00,30.05,M,10.00,22.00,SCT,M,M,M,9500.00,M,M,M,M,M,M,M,M,M,M,79.30,KCXP 182235Z AUTO 05013G22KT 10SM SCT095 27/06 A3005 RMK AO2,M
RTS,2023-08-18 22:35,-119.8764,39.6682,1539.00,77.00,44.60,31.62,270.00,16.00,0.00,30.07,M,10.00,22.00,FEW,M,M,M,9500.00,M,M,M,-DZ,M,M,M,M,M,M,77.00,KRTS 182235Z AUTO 27016G22KT 10SM -DZ FEW095 25/07 A3007 RMK AO2,M
MEV,2023-08-18 22:35,-119.7500,38.9963,1441.42,82.40,46.40,28.36,280.00,12.00,0.00,30.03,M,10.00,M,CLR,M,M,M,M,M,M,M,M,M,M,M,M,M,M,80.64,KMEV 182235Z AUTO 28012KT 10SM CLR 28/08 A3003 RMK AO2,M
HTH,2023-08-18 22:35,-118.6315,38.5448,1282.89,91.40,32.00,12.14,M,6.00,0.00,29.94,M,10.00,13.00,CLR,M,M,M,M,M,M,M,M,M,M,M,M,M,M,86.91,KHTH 182235Z AUTO VRB06G13KT 10SM CLR 33/00 A2994 RMK A01,M
10U,2023-08-18 22:35,-116.1876,41.9532,1637.00,87.80,32.00,13.59,250.00,14.00,0.00,30.03,M,10.00,21.00,CLR,M,M,M,M,M,M,M,M,M,M,M,M,M,M,84.08,K10U 182235Z AUTO 25014G21KT 10SM CLR 31/00 A3003 RMK AO2,M
BAM,2023-08-18 22:35,-116.8743,40.5990,1382.36,95.00,37.40,13.46,250.00,12.00,0.00,29.96,M,10.00,17.00,SCT,M,M,M,12000.00,M,M,M,M,M,M,M,M,M,M,90.46,KBAM 182235Z AUTO 25012G17KT 10SM SCT120 35/03 A2996 RMK AO1,M
TMT,2023-08-18 22:35,-117.1971,39.4643,1749.34,87.40,29.70,12.54,240.00,10.00,0.00,30.06,M,M,21.00,CLR,M,M,M,M,M,M,M,M,M,M,M,M,M,M,83.67,KTMT 182235Z AUTO 24010G21KT CLR 31/M01 A3006 RMK AO2 T03081013 PWINO,M
EKO,2023-08-18 22:39,-115.7860,40.8242,1367.00,89.00,45.00,21.77,0.00,0.00,0.00,30.00,M,10.00,M,CLR,M,M,M,M,M,M,M,TS,M,M,M,M,M,M,85.58,KEKO 182239Z AUTO 00000KT 10SM TS CLR 32/07 A3000 RMK AO2 TSB33 T03170072,M
LAS,2023-08-18 22:39,-115.1634,36.0719,663.00,95.00,55.00,26.19,M,4.00,0.00,29.86,M,10.00,M,SCT,SCT,BKN,M,12000.00,17000.00,22000.00,M,M,M,M,M,M,M,M,93.10,KLAS 182239Z VRB04KT 10SM SCT120CB SCT170 BKN220 35/13 A2986 RMK AO2 LTG DSNT S-W TSB23E38 OCNL LTGICCCCG S-W TS S-W MOV N T03500128,M
LAS,2023-08-18 22:46,-115.1634,36.0719,663.00,95.00,55.00,26.19,140.00,5.00,0.00,29.86,M,10.00,M,SCT,SCT,BKN,M,12000.00,17000.00,22000.00,M,TS,M,M,M,M,M,M,93.10,KLAS 182246Z 14005KT 10SM TS SCT120CB SCT170 BKN220 35/13 A2986 RMK AO2 LTG DSNT S-W TSB23E38B40 OCNL LTGICCCCG S-W TS S-W MOV N T03500128,M
P68,2023-08-18 22:53,-116.0056,39.6014,1993.00,84.00,32.00,15.35,210.00,9.00,0.00,30.07,1010.00,M,18.00,M,M,M,M,M,M,M,M,M,M,M,M,M,M,M,81.13,KP68 182253Z AUTO 21009G18KT 29/00 A3007 RMK AO1 SLP100 T02890000,M
DRA,2023-08-18 22:53,-116.0278,36.6206,1009.00,99.00,38.00,12.19,M,M,0.00,29.89,1006.20,10.00,M,CLR,M,M,M,M,M,M,M,M,M,M,M,M,M,M,93.99,KDRA 182253Z AUTO 10SM CLR 37/03 A2989 RMK AO2 SLP062 T03720033,M
ELY,2023-08-18 22:53,-114.8453,39.2950,1909.00,81.00,40.00,23.22,220.00,10.00,0.00,30.13,1010.70,10.00,M,BKN,M,M,M,11000.00,M,M,M,M,M,M,M,M,M,M,79.38,KELY 182253Z AUTO 22010KT 10SM BKN110 27/04 A3013 RMK AO2 SLP107 T02720044,M
VGT,2023-08-18 22:53,-115.1933,36.2111,667.00,96.00,54.00,24.49,110.00,7.00,T,29.86,1009.70,10.00,14.00,FEW,SCT,M,M,4600.00,11000.00,M,M,VCTS,M,M,M,M,M,M,93.86,KVGT 182253Z 11007G14KT 10SM VCTS FEW046 SCT110 36/12 A2986 RMK AO2 LTG DSNT S-W RAB27E36 SLP097 P0000 T03560122,M
LOL,2023-08-18 22:53,-118.5701,40.0684,1192.43,92.00,35.00,13.43,M,4.00,0.00,29.91,1008.40,10.00,M,CLR,M,M,M,M,M,M,M,M,M,M,M,M,M,M,87.68,KLOL 182253Z AUTO VRB04KT 10SM CLR 33/02 A2991 RMK AO2 SLP084 T03330017,M
EKO,2023-08-18 22:54,-115.7860,40.8242,1367.00,87.80,44.60,22.27,M,4.00,0.00,29.99,M,10.00,M,FEW,M,M,M,12000.00,M,M,M,M,M,M,M,M,M,M,84.53,KEKO 182254Z AUTO VRB04KT 10SM FEW120 31/07 A2999 RMK AO2 TSB33E48,M
BVU,2023-08-18 22:55,-114.8611,35.9475,671.00,96.80,51.80,22.04,110.00,12.00,0.00,29.85,M,10.00,M,FEW,M,M,M,11000.00,M,M,M,M,M,M,M,M,M,M,94.12,KBVU 182255Z AUTO 11012KT 10SM FEW110 36/11 A2985 RMK AO2 LTG DSNT SW AND NW,M
CXP,2023-08-18 22:55,-119.7326,39.1923,1431.00,82.40,41.00,23.07,70.00,8.00,0.00,30.04,M,10.00,18.00,CLR,M,M,M,M,M,M,M,M,M,M,M,M,M,M,80.29,KCXP 182255Z AUTO 07008G18KT 10SM CLR 28/05 A3004 RMK AO2,M
RNO,2023-08-18 22:55,-119.7711,39.4839,1341.00,80.00,52.00,37.79,160.00,11.00,0.02,30.02,1011.10,10.00,M,BKN,BKN,M,M,9500.00,18000.00,M,M,-RA,M,M,M,27.00,270.00,2023-08-18 22:18,79.75,KRNO 182255Z 16011KT 10SM -RA BKN095 BKN180 27/11 A3002 RMK AO2 PK WND 27027/2218 WSHFT 2143 LTG DSNT N AND NE RAB41 SLP111 P0002 T02670111,M
RTS,2023-08-18 22:55,-119.8764,39.6682,1539.00,78.80,44.60,29.79,260.00,17.00,0.00,30.07,M,10.00,M,CLR,M,M,M,M,M,M,M,M,M,M,M,M,M,M,78.80,KRTS 182255Z AUTO 26017KT 10SM CLR 26/07 A3007 RMK AO2,M
05U,2023-08-18 22:55,-116.0051,39.6042,1811.23,86.00,33.80,15.48,M,M,0.00,30.10,M,10.00,M,M,M,M,M,M,M,M,M,M,M,M,M,M,M,M,82.66,K05U 182255Z AUTO 10SM 30/01 A3010 RMK A01,M
MEV,2023-08-18 22:55,-119.7500,38.9963,1441.42,78.80,48.20,34.13,320.00,7.00,0.00,30.03,M,10.00,12.00,CLR,M,M,M,M,M,M,M,M,M,M,M,M,M,M,78.80,KMEV 182255Z AUTO 32007G12KT 10SM CLR 26/09 A3003 RMK AO2,M
HTH,2023-08-18 22:55,-118.6315,38.5448,1282.89,89.60,32.00,12.84,270.00,6.00,0.00,29.93,M,10.00,M,CLR,M,M,M,M,M,M,M,M,M,M,M,M,M,M,85.54,KHTH 182255Z AUTO 27006KT 10SM CLR 32/M00 A2993 RMK A01,M
BAM,2023-08-18 22:55,-116.8743,40.5990,1382.36,95.00,37.40,13.46,260.00,13.00,0.00,29.95,M,10.00,19.00,CLR,M,M,M,M,M,M,M,M,M,M,M,M,M,M,90.46,KBAM 182255Z AUTO 26013G19KT 10SM CLR 35/03 A2995 RMK AO1,M
TMT,2023-08-18 22:55,-117.1971,39.4643,1749.34,87.30,29.70,12.58,230.00,9.00,0.00,30.06,M,M,18.00,CLR,M,M,M,M,M,M,M,M,M,M,M,M,M,M,83.59,KTMT 182255Z AUTO 23009G18KT CLR 31/M01 A3006 RMK AO2 T03071013 PWINO,M
10U,2023-08-18 22:55,-116.1876,41.9532,1637.00,87.80,33.80,14.61,230.00,18.00,0.00,30.02,M,10.00,25.00,SCT,M,M,M,11000.00,M,M,M,M,M,M,M,M,M,M,84.10,K10U 182255Z AUTO 23018G25KT 10SM SCT110 31/01 A3002 RMK AO2,M
INS,2023-08-18 22:55,-115.6733,36.5872,955.00,93.40,48.70,21.81,120.00,15.00,0.00,29.89,1007.00,10.00,23.00,BKN,OVC,M,M,12000.00,15000.00,M,M,M,M,M,M,28.00,90.00,2023-08-18 22:10,90.07,KINS 182255Z AUTO 12015G23KT 10SM BKN120 OVC150 34/09 A2989 RMK AO2 PK WND 09028/10 LTG DSNT SE SLP070 T03410093 $,M
LSV,2023-08-18 22:55,-115.0343,36.2362,570.00,97.00,53.00,22.90,90.00,10.00,0.00,29.81,1006.70,10.00,M,SCT,M,M,M,15000.00,M,M,M,M,M,M,M,M,M,M,94.64,KLSV 182255Z AUTO 09010KT 10SM SCT150 36/12 A2981 RMK AO2 LTG DSNT SW SLP067 T03620117 $,M
EKO,2023-08-18 22:56,-115.7860,40.8242,1367.00,86.00,45.00,23.95,190.00,5.00,0.00,29.99,1009.60,10.00,M,FEW,M,M,M,11000.00,M,M,M,M,M,M,M,M,M,M,83.10,KEKO 182256Z AUTO 19005KT 10SM FEW110 30/07 A2999 RMK AO2 TSB33E48 SLP096 T03000072,M
WMC,2023-08-18 22:56,-117.8072,40.9019,1315.00,93.00,36.00,13.55,M,M,0.00,29.93,1007.60,10.00,M,FEW,M,M,M,12000.00,M,M,M,M,M,M,M,M,M,M,88.59,KWMC 182256Z AUTO 10SM FEW120 34/02 A2993 RMK AO2 SLP076 T03390022,M
HND,2023-08-18 22:56,-115.1344,35.9729,742.79,M,M,M,M,M,0.00,M,M,M,M,M,M,M,M,M,M,M,M,TS,M,M,M,M,M,M,M,KHND 182256Z TS RMK AO2 LTG DSNT SW-NW TSE10B20 SLPNO $,M
TPH,2023-08-18 22:56,-117.0904,38.0505,1654.00,88.00,46.00,23.34,180.00,20.00,0.00,30.06,1009.80,10.00,29.00,CLR,M,M,M,M,M,M,M,M,M,M,M,31.00,180.00,2023-08-18 22:36,84.81,KTPH 182256Z AUTO 18020G29KT 10SM CLR 31/08 A3006 RMK AO2 PK WND 18031/2236 SLP098 T03110078,M
LAS,2023-08-18 22:56,-115.1634,36.0719,663.00,93.00,57.00,29.96,270.00,15.00,0.00,29.87,1008.50,10.00,20.00,SCT,SCT,BKN,M,12000.00,17000.00,22000.00,M,TS,M,M,M,M,M,M,91.64,KLAS 182256Z 27015G20KT 10SM TS SCT120CB SCT170 BKN220 34/14 A2987 RMK AO2 LTG DSNT SW-NW TSB23E38B40 SLP085 OCNL LTGICCCCG S-W-NW TS S-W-NW MOV N T03390139,M
NFL,2023-08-18 22:56,-118.7010,39.4166,1199.00,94.00,39.00,14.78,280.00,10.00,0.00,29.91,1010.40,10.00,18.00,SCT,SCT,M,M,8000.00,15000.00,M,M,M,M,M,M,M,M,M,89.64,KNFL 182256Z 28010G18KT 10SM SCT080 SCT150 34/04 A2991 RMK AO2 SLP104 CB DSNT NW MOV N TCU DSNT S-SW T03440039,M
05U,2023-08-18 23:10,-116.0051,39.6042,1811.23,87.80,33.80,14.61,M,M,0.00,30.09,M,10.00,M,M,M,M,M,M,M,M,M,M,M,M,M,M,M,M,84.10,K05U 182310Z AUTO 10SM 31/01 A3009 RMK A01,M
LAS,2023-08-18 23:13,-115.1634,36.0719,663.00,84.00,62.00,47.61,180.00,12.00,T,29.89,M,10.00,27.00,SCT,SCT,BKN,M,12000.00,17000.00,22000.00,M,TSRA,M,M,M,35.00,240.00,2023-08-18 22:59,84.64,KLAS 182313Z COR 18012G27KT 10SM TSRA SCT120CB SCT170 BKN220 29/17 A2989 RMK AO2 PK WND 24035/2259 WSHFT 2255 LTG DSNT S-NW RAB05 OCNL LTGICCCCG S-W-NW TS S-W-NW MOV N P0000 T02890167,M
BVU,2023-08-18 23:15,-114.8611,35.9475,671.00,96.80,51.80,22.04,90.00,9.00,0.00,29.84,M,10.00,17.00,BKN,M,M,M,11000.00,M,M,M,M,M,M,M,M,M,M,94.12,KBVU 182315Z AUTO 09009G17KT 10SM BKN110 36/11 A2984 RMK AO2 LTG DSNT W AND NW,M
CXP,2023-08-18 23:15,-119.7326,39.1923,1431.00,82.40,42.80,24.72,M,5.00,0.00,30.03,M,10.00,13.00,CLR,M,M,M,M,M,M,M,M,M,M,M,M,M,M,80.39,KCXP 182315Z AUTO VRB05G13KT 10SM CLR 28/06 A3003 RMK AO2,M
VGT,2023-08-18 23:15,-115.1933,36.2111,667.00,94.00,59.00,31.21,220.00,15.00,T,29.86,M,1.50,24.00,FEW,SCT,M,M,7000.00,11000.00,M,M,-TSRA,M,M,M,M,M,M,93.42,KVGT 182315Z 22015G24KT 1 1/2SM -TSRA FEW070 SCT110 34/15 A2986 RMK AO2 LTG DSNT S-W RAB2258 TSB15 P0000 T03440150,M
RTS,2023-08-18 23:15,-119.8764,39.6682,1539.00,78.80,41.00,25.95,250.00,16.00,0.00,30.07,M,10.00,23.00,SCT,M,M,M,10000.00,M,M,M,M,M,M,M,M,M,M,78.80,KRTS 182315Z AUTO 25016G23KT 10SM SCT100 26/05 A3007 RMK AO2,M
MEV,2023-08-18 23:15,-119.7500,38.9963,1441.42,80.60,44.60,28.08,270.00,6.00,0.00,30.02,M,10.00,M,BKN,M,M,M,10000.00,M,M,M,M,M,M,M,M,M,M,79.42,KMEV 182315Z AUTO 27006KT 10SM BKN100 27/07 A3002 RMK AO2,M
BAM,2023-08-18 23:15,-116.8743,40.5990,1382.36,96.80,35.60,11.86,270.00,7.00,0.00,29.94,M,10.00,23.00,SCT,M,M,M,12000.00,M,M,M,M,M,M,M,M,M,M,91.72,KBAM 182315Z AUTO 27007G23KT 10SM SCT120 36/02 A2994 RMK AO1,M
HTH,2023-08-18 23:15,-118.6315,38.5448,1282.89,89.60,30.20,11.94,250.00,6.00,0.00,29.92,M,10.00,M,CLR,M,M,M,M,M,M,M,M,M,M,M,M,M,M,85.34,KHTH 182315Z AUTO 25006KT 10SM CLR 32/M01 A2992 RMK A01,M
10U,2023-08-18 23:15,-116.1876,41.9532,1637.00,89.60,32.00,12.84,260.00,15.00,0.00,30.01,M,10.00,M,SCT,M,M,M,12000.00,M,M,M,M,M,M,M,M,M,M,85.54,K10U 182315Z AUTO 26015KT 10SM SCT120 32/00 A3001 RMK AO2,M
TMT,2023-08-18 23:15,-117.1971,39.4643,1749.34,86.70,29.70,12.83,230.00,9.00,0.00,30.05,M,M,14.00,CLR,M,M,M,M,M,M,M,M,M,M,M,M,M,M,83.16,KTMT 182315Z AUTO 23009G14KT CLR 30/M01 A3005 RMK AO2 T03041013 PWINO,M
LAS,2023-08-18 23:20,-115.1634,36.0719,663.00,83.00,61.00,47.47,110.00,11.00,0.16,29.89,M,10.00,21.00,BKN,BKN,BKN,M,10000.00,17000.00,22000.00,M,TSRA,M,M,M,35.00,240.00,2023-08-18 22:59,83.46,KLAS 182320Z 11011G21KT 10SM TSRA BKN100CB BKN170 BKN220 28/16 A2989 RMK AO2 PK WND 24035/2259 WSHFT 2255 LTG DSNT S-NW RAB05 VIS LWR S-W-N OCNL LTGICCCCG ALQDS TS ALQDS MOV N P0016 T02830161,M
VGT,2023-08-18 23:30,-115.1933,36.2111,667.00,85.00,68.00,56.84,220.00,16.00,T,29.86,M,10.00,M,FEW,M,M,M,11000.00,M,M,M,-TSRA,M,M,M,M,M,M,88.30,KVGT 182330Z 22016KT 10SM -TSRA FEW110 29/20 A2986 RMK AO2 LTG DSNT S AND W RAB2258 TSB15 P0000 T02940200,M
BVU,2023-08-18 23:35,-114.8611,35.9475,671.00,95.00,51.80,23.30,70.00,7.00,0.00,29.84,M,10.00,M,BKN,M,M,M,11000.00,M,M,M,M,M,M,M,M,M,M,92.26,KBVU 182335Z AUTO 07007KT 10SM BKN110 35/11 A2984 RMK AO2 LTG DSNT SW,M
CXP,2023-08-18 23:35,-119.7326,39.1923,1431.00,80.60,41.00,24.46,0.00,0.00,0.00,30.03,M,10.00,10.00,FEW,M,M,M,11000.00,M,M,M,M,M,M,M,M,M,M,79.20,KCXP 182335Z AUTO 00000G10KT 10SM FEW110 27/05 A3003 RMK AO2,M
RTS,2023-08-18 23:35,-119.8764,39.6682,1539.00,80.60,41.00,24.46,280.00,9.00,0.00,30.06,M,10.00,M,SCT,M,M,M,9500.00,M,M,M,M,M,M,M,M,M,M,79.20,KRTS 182335Z AUTO 28009KT 250V310 10SM SCT095 27/05 A3006 RMK AO2,M
05U,2023-08-18 23:35,-116.0051,39.6042,1811.23,87.80,30.20,12.64,M,M,0.00,30.09,M,10.00,M,M,M,M,M,M,M,M,M,M,M,M,M,M,M,M,84.01,K05U 182335Z AUTO 10SM 31/M01 A3009 RMK A01,M
MEV,2023-08-18 23:35,-119.7500,38.9963,1441.42,80.60,46.40,30.07,310.00,11.00,0.00,30.02,M,10.00,M,SCT,M,M,M,9500.00,M,M,M,M,M,M,M,M,M,M,79.56,KMEV 182335Z AUTO 31011KT 10SM SCT095 27/08 A3002 RMK AO2,M
HTH,2023-08-18 23:35,-118.6315,38.5448,1282.89,89.60,30.20,11.94,0.00,0.00,0.00,29.91,M,10.00,M,CLR,M,M,M,M,M,M,M,M,M,M,M,M,M,M,85.34,KHTH 182335Z AUTO 00000KT 10SM CLR 32/M01 A2991 RMK A01,M
10U,2023-08-18 23:35,-116.1876,41.9532,1637.00,87.80,32.00,13.59,270.00,8.00,0.00,30.01,M,10.00,14.00,FEW,M,M,M,12000.00,M,M,M,M,M,M,M,M,M,M,84.08,K10U 182335Z AUTO 27008G14KT 230V300 10SM FEW120 31/00 A3001 RMK AO2,M
BAM,2023-08-18 23:35,-116.8743,40.5990,1382.36,95.00,35.60,12.53,240.00,15.00,0.00,29.94,M,10.00,M,SCT,M,M,M,12000.00,M,M,M,M,M,M,M,M,M,M,90.25,KBAM 182335Z AUTO 24015KT 10SM SCT120 35/02 A2994 RMK AO1,M
TMT,2023-08-18 23:35,-117.1971,39.4643,1749.34,86.70,29.70,12.83,250.00,6.00,0.00,30.05,M,M,M,CLR,M,M,M,M,M,M,M,M,M,M,M,M,M,M,83.16,KTMT 182335Z AUTO 25006KT CLR 30/M01 A3005 RMK AO2 T03041013 PWINO,M
LAS,2023-08-18 23:40,-115.1634,36.0719,663.00,82.00,64.00,54.50,50.00,12.00,0.26,29.86,M,10.00,21.00,BKN,BKN,BKN,M,10000.00,17000.00,22000.00,M,-TSRA,M,M,M,35.00,240.00,2023-08-18 22:59,83.47,KLAS 182340Z 05012G21KT 10SM -TSRA BKN100CB BKN170 BKN220 28/18 A2986 RMK AO2 PK WND 24035/2259 WSHFT 2320 LTG DSNT N AND S AND SW RAB05 OCNL LTGICCCCG ALQDS TS ALQDS MOV N P0026 T02780178,M
LSV,2023-08-18 23:46,-115.0343,36.2362,570.00,95.00,51.80,23.30,160.00,6.00,0.00,29.81,1006.70,10.00,M,FEW,BKN,M,M,5000.00,13000.00,M,M,-RA,M,M,M,M,M,M,92.26,KLSV 182346Z AUTO 16006KT 10SM -RA FEW050 BKN130 35/11 A2981 RMK AO2 RAB46 SLP067 $,M
VGT,2023-08-18 23:48,-115.1933,36.2111,667.00,84.20,69.80,62.03,200.00,9.00,0.01,29.86,M,10.00,M,FEW,SCT,M,M,9500.00,12000.00,M,M,VCTS -RA,M,M,M,M,M,M,88.43,KVGT 182348Z 20009KT 10SM VCTS -RA FEW095 SCT120 29/21 A2986 RMK AO2 LTG DSNT N AND S RAB2258 TSB15E42 P0001,M
05U,2023-08-18 23:50,-116.0051,39.6042,1811.23,86.00,35.60,16.63,M,M,0.00,30.08,M,10.00,M,M,M,M,M,M,M,M,M,M,M,M,M,M,M,M,82.69,K05U 182350Z AUTO 10SM 30/02 A3008 RMK A01,M
P68,2023-08-18 23:53,-116.0056,39.6014,1993.00,86.00,35.00,16.23,180.00,11.00,0.00,30.05,1009.20,M,20.00,M,M,M,M,M,M,M,M,M,M,M,M,M,M,M,82.68,KP68 182353Z AUTO 18011G20KT 30/02 A3005 RMK AO1 SLP092 T03000017 10306 20261 58014,M
DRA,2023-08-18 23:53,-116.0278,36.6206,1009.00,97.00,35.00,11.51,220.00,12.00,0.00,29.87,1005.80,10.00,20.00,CLR,M,M,M,M,M,M,M,M,M,M,M,28.00,170.00,2023-08-18 23:17,91.79,KDRA 182353Z AUTO 22012G20KT 10SM CLR 36/02 A2987 RMK AO2 PK WND 17028/2317 SLP058 T03610017 10383 20328 56022,M
ELY,2023-08-18 23:53,-114.8453,39.2950,1909.00,82.00,39.00,21.62,170.00,8.00,0.00,30.12,1010.40,10.00,M,CLR,M,M,M,M,M,M,M,M,M,M,M,M,M,M,79.94,KELY 182353Z AUTO 17008KT 10SM CLR 28/04 A3012 RMK AO2 SLP104 T02780039 10300 20267 56014,M
VGT,2023-08-18 23:53,-115.1933,36.2111,667.00,84.00,70.00,62.86,220.00,8.00,0.03,29.86,1010.20,9.00,M,FEW,BKN,M,M,9500.00,12000.00,M,M,VCTS -RA,M,M,M,M,M,M,88.31,KVGT 182353Z 22008KT 9SM VCTS -RA FEW095 BKN120 29/21 A2986 RMK AO2 LTG DSNT N AND S RAB2258 TSB15E42 SLP102 P0003 60003 T02890211 10367 20289 56007,M
LOL,2023-08-18 23:53,-118.5701,40.0684,1192.43,91.00,34.00,13.32,260.00,6.00,0.00,29.89,1008.00,10.00,M,CLR,M,M,M,M,M,M,M,M,M,M,M,M,M,M,86.79,KLOL 182353Z AUTO 26006KT 10SM CLR 33/01 A2989 RMK AO2 SLP080 T03280011 10339 20283 58018,M
BVU,2023-08-18 23:55,-114.8611,35.9475,671.00,95.00,51.80,23.30,70.00,5.00,0.00,29.83,M,10.00,M,OVC,M,M,M,11000.00,M,M,M,M,M,M,M,M,M,M,92.26,KBVU 182355Z AUTO 07005KT 10SM OVC110 35/11 A2983 RMK AO2,M
CXP,2023-08-18 23:55,-119.7326,39.1923,1431.00,82.40,42.80,24.72,260.00,8.00,0.00,30.03,M,10.00,15.00,BKN,M,M,M,10000.00,M,M,M,M,M,M,M,M,M,M,80.39,KCXP 182355Z AUTO 26008G15KT 10SM BKN100 28/06 A3003 RMK AO2,M
RNO,2023-08-18 23:55,-119.7711,39.4839,1341.00,83.00,46.00,27.39,30.00,5.00,T,30.00,1010.10,10.00,M,FEW,SCT,M,M,10000.00,16000.00,M,M,M,M,M,M,M,M,M,81.00,KRNO 182355Z 03005KT 10SM FEW100 SCT160 28/08 A3000 RMK AO2 RAE00 SLP101 CB DSNT N THRU NE P0000 60002 T02830078 10328 20261 50003,M
RTS,2023-08-18 23:55,-119.8764,39.6682,1539.00,78.80,41.00,25.95,270.00,11.00,0.00,30.07,M,10.00,M,CLR,M,M,M,M,M,M,M,M,M,M,M,M,M,M,78.80,KRTS 182355Z AUTO 27011KT 10SM CLR 26/05 A3007 RMK AO2,M
MEV,2023-08-18 23:55,-119.7500,38.9963,1441.42,80.60,44.60,28.08,310.00,11.00,0.00,30.03,M,10.00,M,SCT,M,M,M,11000.00,M,M,M,M,M,M,M,M,M,M,79.42,KMEV 182355Z AUTO 31011KT 10SM SCT110 27/07 A3003 RMK AO2,M
HTH,2023-08-18 23:55,-118.6315,38.5448,1282.89,87.80,37.40,16.86,350.00,8.00,0.00,29.91,M,10.00,M,CLR,M,M,M,M,M,M,M,M,M,M,M,M,M,M,84.16,KHTH 182355Z AUTO 35008KT 10SM CLR 31/03 A2991 RMK A01,M
BAM,2023-08-18 23:55,-116.8743,40.5990,1382.36,95.00,35.60,12.53,300.00,4.00,0.00,29.93,M,10.00,14.00,CLR,M,M,M,M,M,M,M,M,M,M,M,M,M,M,90.25,KBAM 182355Z AUTO 30004G14KT 10SM CLR 35/02 A2993 RMK AO1,M
TMT,2023-08-18 23:55,-117.1971,39.4643,1749.34,87.00,29.50,12.60,190.00,7.00,0.00,30.05,M,M,17.00,CLR,M,M,M,M,M,M,M,M,M,M,M,M,M,M,83.36,KTMT 182355Z AUTO 19007G17KT CLR 31/M01 A3005 RMK AO2 T03061014 10316 20241 PWINO,M
10U,2023-08-18 23:55,-116.1876,41.9532,1637.00,87.80,32.00,13.59,250.00,11.00,0.00,30.01,M,10.00,18.00,FEW,M,M,M,12000.00,M,M,M,M,M,M,M,M,M,M,84.08,K10U 182355Z AUTO 25011G18KT 220V280 10SM FEW120 31/00 A3001 RMK AO2,M
INS,2023-08-18 23:55,-115.6733,36.5872,955.00,91.00,49.00,23.77,120.00,19.00,0.00,29.88,1006.80,10.00,M,FEW,SCT,M,M,13000.00,21000.00,M,M,M,M,M,M,30.00,90.00,2023-08-18 22:58,87.83,KINS 182355Z AUTO 12019KT 10SM FEW130 SCT210 33/10 A2988 RMK AO2 PK WND 09030/2258 SLP068 T03270095 10348 20318 56021 $,M
LSV,2023-08-18 23:55,-115.0343,36.2362,570.00,94.00,55.80,27.81,210.00,7.00,0.01,29.81,1006.80,7.00,M,FEW,BKN,M,M,5000.00,13000.00,M,M,RA,M,M,M,M,M,M,92.30,KLSV 182355Z AUTO 21007KT 7SM RA FEW050 BKN130 34/13 A2981 RMK AO2 RAB46 SLP068 P0001 60001 T03440132 10373 20319 57021 $,M
EKO,2023-08-18 23:56,-115.7860,40.8242,1367.00,89.00,43.00,20.17,220.00,7.00,0.00,29.97,1008.70,10.00,M,FEW,M,M,M,11000.00,M,M,M,M,M,M,M,M,M,M,85.42,KEKO 182356Z AUTO 22007KT 10SM FEW110 32/06 A2997 RMK AO2 SLP087 T03170061 10322 20272 56013,M
WMC,2023-08-18 23:56,-117.8072,40.9019,1315.00,94.00,35.00,12.62,310.00,7.00,0.00,29.91,1007.00,10.00,M,SCT,M,M,M,12000.00,M,M,M,M,M,M,M,M,M,M,89.36,KWMC 182356Z AUTO 31007KT 10SM SCT120 34/02 A2991 RMK AO2 SLP070 T03440017 10350 20300 56018,M
NFL,2023-08-18 23:56,-118.7010,39.4166,1199.00,90.00,43.00,19.55,280.00,15.00,0.00,29.90,1009.90,10.00,23.00,SCT,SCT,M,M,8000.00,15000.00,M,M,M,M,M,M,29.00,270.00,2023-08-18 23:29,86.29,KNFL 182356Z 28015G23KT 10SM SCT080 SCT150 32/06 A2990 RMK AO2 PK WND 27029/2329 SLP099 CB DSNT S AND W-NW T03220061 10350 20283 56018,M
HND,2023-08-18 23:56,-115.1344,35.9729,742.79,M,M,M,M,M,0.00,M,M,M,M,M,M,M,M,M,M,M,M,VCTS,M,M,M,M,M,M,M,KHND 182356Z VCTS RMK AO2 LTG DSNT N AND S SLPNO 6//// $,M
TPH,2023-08-18 23:56,-117.0904,38.0505,1654.00,88.00,45.00,22.47,180.00,15.00,0.00,30.04,1009.30,10.00,27.00,CLR,M,M,M,M,M,M,M,M,M,M,M,30.00,190.00,2023-08-18 23:03,84.72,KTPH 182356Z AUTO 18015G27KT 10SM CLR 31/07 A3004 RMK AO2 PK WND 19030/2303 SLP093 T03110072 10322 20283 56015,M
LAS,2023-08-18 23:56,-115.1634,36.0719,663.00,83.00,62.60,50.23,340.00,9.00,0.26,29.86,1008.20,10.00,M,FEW,BKN,BKN,BKN,4900.00,10000.00,17000.00,22000.00,TS,M,M,M,35.00,240.00,2023-08-18 22:59,83.94,KLAS 182356Z 34009KT 10SM TS FEW049 BKN100CB BKN170 BKN220 28/17 A2986 RMK AO2 PK WND 24035/2259 WSHFT 2335 LTG DSNT N AND SE AND S RAB05E42 SLP082 OCNL LTGICCCCG OHD-ALQDS TS OHD-ALQDS MOV N VCSH ALQDS P0026 60026 T0283,M
