station,valid,lon,lat,elevation,tmpf,dwpf,relh,drct,sknt,p01i,alti,mslp,vsby,gust,skyc1,skyc2,skyc3,skyc4,skyl1,skyl2,skyl3,skyl4,wxcodes,ice_accretion_1hr,ice_accretion_3hr,ice_accretion_6hr,peak_wind_gust,peak_wind_drct,peak_wind_time,feel,metar,snowdepth
LAS,2024-07-14 00:04,-115.1634,36.0719,663.00,97.00,57.00,26.49,350.00,5.00,0.04,29.92,M,4.00,36.00,FEW,SCT,BKN,M,3100.00,8000.00,11000.00,M,TSRA,M,M,M,M,M,M,95.92,KLAS 140004Z 35005G36KT 4SM TSRA FEW031 SCT080 BKN110 36/14 A2992 RMK AO2 TSB2359 P0004 T03610139 $,M
VGT,2024-07-14 00:05,-115.1933,36.2111,667.00,106.00,50.00,15.64,340.00,10.00,T,29.90,M,10.00,M,FEW,M,M,M,3700.00,M,M,M,TS,M,M,M,M,M,M,103.18,KVGT 140005Z 34010KT 10SM TS FEW037 41/10 A2990 RMK AO2 RAE2357 TSB05 P0000 T04110100,M
HND,2024-07-14 00:05,-115.1344,35.9729,742.79,98.60,55.40,23.81,70.00,4.00,T,29.94,M,10.00,M,CLR,M,M,M,M,M,M,M,VCTS,M,M,M,M,M,M,97.09,KHND 140005Z 07004KT 10SM VCTS CLR 37/13 A2994 RMK AO2 LTG DSNT N TSB2359RAE2359 P0000,M
BVU,2024-07-14 00:15,-114.8611,35.9475,671.00,105.80,46.40,13.75,80.00,8.00,0.00,29.87,M,10.00,13.00,CLR,M,M,M,M,M,M,M,M,M,M,M,M,M,M,101.97,KBVU 140015Z AUTO 08008G13KT 060V120 10SM CLR 41/08 A2987 RMK AO2 LTG DSNT E AND SE,M
CXP,2024-07-14 00:15,-119.7326,39.1923,1431.00,87.80,37.40,16.86,240.00,12.00,0.00,30.15,M,10.00,20.00,CLR,M,M,M,M,M,M,M,M,M,M,M,M,M,M,84.16,KCXP 140015Z AUTO 24012G20KT 210V290 10SM CLR 31/03 A3015 RMK AO2,M
RTS,2024-07-14 00:15,-119.8764,39.6682,1539.00,86.00,35.60,16.63,290.00,8.00,0.00,30.19,M,10.00,M,SCT,M,M,M,10000.00,M,M,M,M,M,M,M,M,M,M,82.69,KRTS 140015Z AUTO 29008KT 10SM SCT100 30/02 A3019 RMK AO2,M
05U,2024-07-14 00:15,-116.0051,39.6042,1811.23,91.40,35.60,14.02,0.00,0.00,0.00,30.21,M,10.00,10.00,M,M,M,M,M,M,M,M,M,M,M,M,M,M,M,87.17,K05U 140015Z AUTO 00000G10KT 10SM 33/02 A3021 RMK A01,M
MEV,2024-07-14 00:15,-119.7500,38.9963,1441.42,82.40,41.00,23.07,230.00,15.00,0.00,30.19,M,10.00,24.00,CLR,M,M,M,M,M,M,M,M,M,M,M,M,M,M,80.29,KMEV 140015Z AUTO 23015G24KT 10SM CLR 28/05 A3019 RMK AO2,M
BAM,2024-07-14 00:15,-116.8743,40.5990,1382.36,98.60,37.40,12.05,150.00,15.00,0.00,30.07,M,10.00,19.00,CLR,M,M,M,M,M,M,M,M,M,M,M,M,M,M,93.54,KBAM 140015Z AUTO 15015G19KT 10SM CLR 37/03 A3007 RMK AO1,M
HTH,2024-07-14 00:15,-118.6315,38.5448,1282.89,100.40,28.40,7.95,110.00,4.00,0.00,30.03,M,10.00,M,CLR,M,M,M,M,M,M,M,M,M,M,M,M,M,M,93.77,KHTH 140015Z AUTO 11004KT 10SM CLR 38/M02 A3003 RMK A01,M
TMT,2024-07-14 00:15,-117.1971,39.4643,1749.34,85.00,42.60,22.56,160.00,9.00,0.00,30.21,M,10.00,14.00,SCT,M,M,M,12000.00,M,M,M,M,M,M,M,M,M,M,82.18,KTMT 140015Z AUTO 16009G14KT 10SM SCT120 30/06 A3021 RMK AO2 T02950059,M
VGT,2024-07-14 00:20,-115.1933,36.2111,667.00,99.00,59.00,26.78,80.00,12.00,T,29.90,M,2.50,28.00,FEW,FEW,SCT,M,6500.00,8000.00,11000.00,M,VCTS -RA,M,M,M,28.00,110.00,2024-07-14 00:18,98.97,KVGT 140020Z 08012G28KT 2 1/2SM VCTS -RA FEW065 FEW080 SCT110 37/15 A2990 RMK AO2 PK WND 11028/0018 VIS 1/2V5 LTG DSNT SW RAE2357B17 TSB05E20 P0000 T03720150,M
LAS,2024-07-14 00:25,-115.1634,36.0719,663.00,101.00,57.00,23.46,20.00,4.00,0.04,29.91,M,10.00,M,FEW,FEW,M,M,2800.00,10000.00,M,M,TS,M,M,M,M,M,M,100.35,KLAS 140025Z 02004KT 10SM TS FEW028 FEW100 38/14 A2991 RMK AO2 RAE13 TSB2359 P0004 T03830139 $,M
VGT,2024-07-14 00:28,-115.1933,36.2111,667.00,100.00,56.00,23.32,10.00,8.00,T,29.89,M,10.00,16.00,FEW,SCT,M,M,3500.00,11000.00,M,M,VCTS -RA,M,M,M,28.00,110.00,2024-07-14 00:18,98.84,KVGT 140028Z 01008G16KT 10SM VCTS -RA FEW035 SCT110 38/13 A2989 RMK AO2 PK WND 11028/0018 RAE2357B17 TSB05E20 P0000 T03780133,M
BVU,2024-07-14 00:35,-114.8611,35.9475,671.00,105.80,46.40,13.75,0.00,0.00,0.00,29.88,M,10.00,M,CLR,M,M,M,M,M,M,M,M,M,M,M,M,M,M,101.97,KBVU 140035Z AUTO 00000KT 10SM CLR 41/08 A2988 RMK AO2 LTG DSNT E,M
CXP,2024-07-14 00:35,-119.7326,39.1923,1431.00,87.80,35.60,15.70,200.00,7.00,0.00,30.16,M,10.00,M,CLR,M,M,M,M,M,M,M,VCTS,M,M,M,M,M,M,84.12,KCXP 140035Z AUTO 20007KT 170V230 10SM VCTS CLR 31/02 A3016 RMK AO2 LTG DSNT SW AND W,M
VGT,2024-07-14 00:35,-115.1933,36.2111,667.00,102.00,53.00,19.68,20.00,10.00,T,29.89,M,10.00,M,FEW,FEW,SCT,M,6500.00,8000.00,11000.00,M,M,M,M,M,28.00,110.00,2024-07-14 00:18,99.96,KVGT 140035Z 02010KT 10SM FEW065 FEW080 SCT110 39/12 A2989 RMK AO2 PK WND 11028/0018 LTG DSNT S AND SW RAE2357B17E32 TSB05E20 P0000 T03890117,M
HND,2024-07-14 00:35,-115.1344,35.9729,742.79,100.40,57.20,24.06,120.00,4.00,T,29.93,M,9.00,M,FEW,M,M,M,4000.00,M,M,M,-RA,M,M,M,M,M,M,99.77,KHND 140035Z 12004KT 9SM -RA FEW040 38/14 A2993 RMK AO2 LTG DSNT SW AND NW TSB2359E29RAE2359B32 P0000,M
RTS,2024-07-14 00:35,-119.8764,39.6682,1539.00,86.00,37.40,17.85,330.00,10.00,0.00,30.20,M,10.00,16.00,FEW,SCT,BKN,M,5500.00,7000.00,10000.00,M,M,M,M,M,M,M,M,82.73,KRTS 140035Z AUTO 33010G16KT 10SM FEW055 SCT070 BKN100 30/03 A3020 RMK AO2,M
LAS,2024-07-14 00:35,-115.1634,36.0719,663.00,100.00,65.00,32.11,120.00,6.00,0.04,29.91,M,10.00,M,FEW,BKN,M,M,3000.00,10000.00,M,M,M,M,M,M,M,M,M,103.60,KLAS 140035Z 12006KT 10SM FEW030 BKN100 38/18 A2991 RMK AO2 LTG DSNT S AND W RAE13 TSB2359E29 P0004 T03780183 $,M
05U,2024-07-14 00:35,-116.0051,39.6042,1811.23,91.40,35.60,14.02,90.00,3.00,0.00,30.22,M,10.00,M,M,M,M,M,M,M,M,M,M,M,M,M,M,M,M,87.17,K05U 140035Z AUTO 09003KT 10SM 33/02 A3022 RMK A01,M
MEV,2024-07-14 00:35,-119.7500,38.9963,1441.42,80.60,42.80,26.22,230.00,7.00,0.00,30.19,M,10.00,17.00,CLR,M,M,M,M,M,M,M,VCTS,M,M,M,M,M,M,79.30,KMEV 140035Z AUTO 23007G17KT 10SM VCTS CLR 27/06 A3019 RMK AO2 LTG DSNT W,M
BAM,2024-07-14 00:35,-116.8743,40.5990,1382.36,98.60,37.40,12.05,140.00,11.00,0.00,30.07,M,10.00,M,CLR,M,M,M,M,M,M,M,M,M,M,M,M,M,M,93.54,KBAM 140035Z AUTO 14011KT 10SM CLR 37/03 A3007 RMK AO1,M
HTH,2024-07-14 00:35,-118.6315,38.5448,1282.89,96.80,37.40,12.73,350.00,13.00,0.00,30.02,M,10.00,M,CLR,M,M,M,M,M,M,M,M,M,M,M,M,M,M,92.04,KHTH 140035Z AUTO 35013KT 10SM CLR 36/03 A3002 RMK A01,M
TMT,2024-07-14 00:35,-117.1971,39.4643,1749.34,84.00,38.30,19.72,130.00,22.00,0.00,30.21,M,10.00,29.00,SCT,M,M,M,12000.00,M,M,M,M,M,M,M,M,M,M,81.27,KTMT 140035Z AUTO 13022G29KT 10SM SCT120 29/04 A3021 RMK AO2 T02880035,M
P68,2024-07-14 00:53,-116.0056,39.6014,1993.00,86.00,38.00,18.28,210.00,17.00,0.00,30.20,1013.20,M,31.00,M,M,M,M,M,M,M,M,M,M,M,M,31.00,190.00,2024-07-14 00:51,82.75,KP68 140053Z AUTO 21017G31KT 30/03 A3020 RMK AO1 PK WND 19031/0051 SLP132 T03000033,M
DRA,2024-07-14 00:53,-116.0278,36.6206,1009.00,94.00,49.00,21.65,260.00,10.00,0.00,30.05,1011.70,10.00,20.00,CLR,M,M,M,M,M,M,M,M,M,M,M,M,M,M,90.71,KDRA 140053Z AUTO 26010G20KT 10SM CLR 34/09 A3005 RMK AO2 PRESRR SLP117 T03440094,M
ELY,2024-07-14 00:53,-114.8453,39.2950,1909.00,80.00,42.00,25.93,230.00,16.00,T,30.33,1016.30,10.00,30.00,FEW,OVC,M,M,9000.00,11000.00,M,M,-RA,M,M,M,36.00,150.00,2024-07-14 00:12,78.92,KELY 140053Z AUTO 23016G30KT 10SM -RA FEW090 OVC110 27/06 A3033 RMK AO2 PK WND 15036/0012 RAB03 SLP163 P0000 T02670056,M
VGT,2024-07-14 00:53,-115.1933,36.2111,667.00,103.00,53.00,19.10,70.00,8.00,T,29.88,1010.20,10.00,M,CLR,M,M,M,M,M,M,M,M,M,M,M,28.00,110.00,2024-07-14 00:18,101.03,KVGT 140053Z 07008KT 10SM CLR 39/12 A2988 RMK AO2 PK WND 11028/0018 LTG DSNT W RAE2357B17E32 TSB05E20 SLP102 P0000 T03940117,M
LOL,2024-07-14 00:53,-118.5701,40.0684,1192.43,100.00,34.00,10.10,230.00,19.00,0.00,29.96,1009.20,10.00,25.00,CLR,M,M,M,M,M,M,M,M,M,M,M,M,M,M,94.16,KLOL 140053Z AUTO 23019G25KT 10SM CLR 38/01 A2996 RMK AO2 SLP092 T03780011,M
BVU,2024-07-14 00:55,-114.8611,35.9475,671.00,104.00,46.40,14.50,330.00,17.00,0.00,29.87,M,10.00,M,CLR,M,M,M,M,M,M,M,M,M,M,M,M,M,M,100.21,KBVU 140055Z AUTO 33017KT 10SM CLR 40/08 A2987 RMK AO2 LTG DSNT E AND W,M
CXP,2024-07-14 00:55,-119.7326,39.1923,1431.00,86.00,39.20,19.15,220.00,11.00,0.00,30.18,M,10.00,21.00,CLR,M,M,M,M,M,M,M,M,M,M,M,M,M,M,82.79,KCXP 140055Z AUTO 22011G21KT 10SM CLR 30/04 A3018 RMK AO2 LTG DSNT W,M
RNO,2024-07-14 00:55,-119.7711,39.4839,1341.00,86.00,48.00,26.82,200.00,8.00,T,30.13,1013.60,10.00,M,SCT,BKN,BKN,M,8000.00,12000.00,16000.00,M,M,M,M,M,M,M,M,83.38,KRNO 140055Z 20008KT 10SM SCT080 BKN120 BKN160 30/09 A3013 RMK AO2 RAB02E21 SLP136 CB DSNT NW THRU N P0000 T03000089 $,M
RTS,2024-07-14 00:55,-119.8764,39.6682,1539.00,86.00,35.60,16.63,320.00,8.00,0.00,30.19,M,10.00,M,CLR,M,M,M,M,M,M,M,M,M,M,M,M,M,M,82.69,KRTS 140055Z AUTO 32008KT 10SM CLR 30/02 A3019 RMK AO2,M
05U,2024-07-14 00:55,-116.0051,39.6042,1811.23,87.80,37.40,16.86,360.00,18.00,0.00,30.22,M,10.00,24.00,M,M,M,M,M,M,M,M,M,M,M,M,M,M,M,84.16,K05U 140055Z AUTO 36018G24KT 10SM 31/03 A3022 RMK A01,M
MEV,2024-07-14 00:55,-119.7500,38.9963,1441.42,78.80,44.60,29.79,250.00,25.00,0.00,30.20,M,9.00,M,CLR,M,M,M,M,M,M,M,M,M,M,M,M,M,M,78.80,KMEV 140055Z AUTO 25025KT 9SM CLR 26/07 A3020 RMK AO2 LTG DSNT W AND NW,M
BAM,2024-07-14 00:55,-116.8743,40.5990,1382.36,96.80,37.40,12.73,140.00,10.00,0.00,30.06,M,10.00,M,CLR,M,M,M,M,M,M,M,M,M,M,M,M,M,M,92.04,KBAM 140055Z AUTO 14010KT 10SM CLR 36/03 A3006 RMK AO1,M
HTH,2024-07-14 00:55,-118.6315,38.5448,1282.89,93.20,37.40,14.23,340.00,22.00,0.00,30.02,M,10.00,34.00,CLR,M,M,M,M,M,M,M,M,M,M,M,M,M,M,88.83,KHTH 140055Z AUTO 34022G34KT 10SM CLR 34/03 A3002 RMK A01,M
TMT,2024-07-14 00:55,-117.1971,39.4643,1749.34,84.00,38.70,20.03,140.00,27.00,0.00,30.21,M,10.00,35.00,SCT,BKN,BKN,M,4900.00,10000.00,12000.00,M,M,M,M,M,M,M,M,81.28,KTMT 140055Z AUTO 14027G35KT 10SM SCT049 BKN100 BKN120 29/04 A3021 RMK AO2 T02880037,M
INS,2024-07-14 00:55,-115.6733,36.5872,955.00,99.00,41.40,13.92,20.00,11.00,0.00,29.99,1009.20,10.00,M,FEW,M,M,M,15000.00,M,M,M,M,M,M,M,M,M,M,94.52,KINS 140055Z AUTO 02011KT 10SM FEW150 37/05 A2999 RMK AO2 SLP092 T03720052 $,M
LSV,2024-07-14 00:55,-115.0343,36.2362,570.00,101.30,54.00,20.85,280.00,9.00,0.00,29.83,1006.90,10.00,M,CLR,M,M,M,M,M,M,M,M,M,M,M,M,M,M,99.54,KLSV 140055Z AUTO 28009KT 10SM CLR 39/12 A2983 RMK AO2 LTG DSNT E SLP069 T03850122 $,M
EKO,2024-07-14 00:56,-115.7860,40.8242,1367.00,91.00,40.00,16.87,40.00,14.00,0.00,30.12,1013.20,10.00,23.00,CLR,M,M,M,M,M,M,M,M,M,M,M,M,M,M,86.99,KEKO 140056Z AUTO 04014G23KT 10SM CLR 33/04 A3012 RMK AO2 SLP132 T03280044,M
WMC,2024-07-14 00:56,-117.8072,40.9019,1315.00,102.00,30.00,8.09,190.00,4.00,0.00,30.00,1009.80,10.00,M,CLR,M,M,M,M,M,M,M,M,M,M,M,M,M,M,95.31,KWMC 140056Z AUTO 19004KT 10SM CLR 39/M01 A3000 RMK AO2 SLP098 T03891011,M
NFL,2024-07-14 00:56,-118.7010,39.4166,1199.00,94.00,45.00,18.62,270.00,26.00,0.00,30.01,1013.10,4.00,36.00,CLR,M,M,M,M,M,M,M,HZ,M,M,M,36.00,270.00,2024-07-14 00:53,90.15,KNFL 140056Z AUTO 27026G36KT 4SM HZ CLR 34/07 A3001 RMK AO2 PK WND 27036/0053 SLP131 T03440072,M
HND,2024-07-14 00:56,-115.1344,35.9729,742.79,100.00,54.00,21.68,0.00,0.00,T,29.95,1012.00,10.00,M,CLR,M,M,M,M,M,M,M,VCTS,M,M,M,M,M,M,98.14,KHND 140056Z 00000KT 10SM VCTS CLR 38/12 A2995 RMK AO2 LTG DSNT NW TSB2359E29B55RAE2359B32E45 SLP120 P0000 T03780122,M
TPH,2024-07-14 00:56,-117.0904,38.0505,1654.00,83.00,47.00,28.45,90.00,13.00,T,30.28,1017.00,10.00,22.00,FEW,M,M,M,11000.00,M,M,M,M,M,M,M,38.00,90.00,2024-07-14 00:15,81.09,KTPH 140056Z AUTO 09013G22KT 10SM FEW110 28/08 A3028 RMK AO2 PK WND 09038/0015 RAE2357B15E28 SLP170 P0000 T02830083,M
LAS,2024-07-14 00:56,-115.1634,36.0719,663.00,98.00,67.00,36.57,0.00,0.00,0.05,29.90,1009.20,10.00,M,FEW,BKN,M,M,3000.00,10000.00,M,M,TS,M,M,M,M,M,M,102.66,KLAS 140056Z 00000KT 10SM TS FEW030 BKN100 37/19 A2990 RMK AO2 LTG DSNT NW RAE13B37E52 TSB2359E29B56 SLP092 P0005 T03670194 $,M
LAS,2024-07-14 00:58,-115.1634,36.0719,663.00,98.00,66.00,35.33,330.00,3.00,0.00,29.90,M,10.00,M,FEW,BKN,M,M,3000.00,10000.00,M,M,M,M,M,M,M,M,M,101.90,KLAS 140058Z 33003KT 10SM FEW030 BKN100 37/19 A2990 RMK AO2 LTG DSNT NW T03670189 $,M
P68,2024-07-14 00:59,-116.0056,39.6014,1993.00,86.00,38.00,18.28,210.00,21.00,0.00,30.20,M,M,31.00,M,M,M,M,M,M,M,M,M,M,M,M,31.00,190.00,2024-07-14 00:58,82.75,KP68 140059Z AUTO 21021G31KT 30/03 A3020 RMK AO1 PK WND 19031/0058 WSHFT 0042 T03000033,M
LOL,2024-07-14 01:06,-118.5701,40.0684,1192.43,100.00,34.00,10.10,300.00,13.00,0.00,29.98,M,10.00,M,CLR,M,M,M,M,M,M,M,M,M,M,M,M,M,M,94.16,KLOL 140106Z AUTO 30013KT 10SM CLR 38/01 A2998 RMK AO2 WSHFT 0046 T03780011,M
INS,2024-07-14 01:11,-115.6733,36.5872,955.00,96.80,41.00,14.66,270.00,6.00,0.00,30.03,1010.60,10.00,M,FEW,FEW,SCT,BKN,4400.00,10000.00,12000.00,15000.00,-RA,M,M,M,M,M,M,92.39,KINS 140111Z AUTO 27006KT 10SM -RA FEW044 FEW100 SCT120 BKN150 36/05 A3003 RMK AO2 LTG DSNT NE RAB11 PRESRR SLP106 $,M
BVU,2024-07-14 01:15,-114.8611,35.9475,671.00,102.20,46.40,15.30,340.00,13.00,0.00,29.88,M,10.00,M,CLR,M,M,M,M,M,M,M,M,M,M,M,M,M,M,98.43,KBVU 140115Z AUTO 34013KT 10SM CLR 39/08 A2988 RMK AO2,M
CXP,2024-07-14 01:15,-119.7326,39.1923,1431.00,82.40,41.00,23.07,M,3.00,0.00,30.20,M,10.00,12.00,CLR,M,M,M,M,M,M,M,VCTS,M,M,M,M,M,M,80.29,KCXP 140115Z AUTO VRB03G12KT 10SM VCTS CLR 28/05 A3020 RMK AO2 LTG DSNT W,M
RTS,2024-07-14 01:15,-119.8764,39.6682,1539.00,82.40,39.20,21.51,330.00,11.00,0.00,30.22,M,10.00,M,BKN,M,M,M,11000.00,M,M,M,M,M,M,M,M,M,M,80.21,KRTS 140115Z AUTO 33011KT 10SM BKN110 28/04 A3022 RMK AO2,M
05U,2024-07-14 01:15,-116.0051,39.6042,1811.23,86.00,37.40,17.85,10.00,12.00,0.00,30.25,M,10.00,21.00,M,M,M,M,M,M,M,M,M,M,M,M,M,M,M,82.73,K05U 140115Z AUTO 01012G21KT 10SM 30/03 A3025 RMK A01,M
MEV,2024-07-14 01:15,-119.7500,38.9963,1441.42,77.00,46.40,33.85,260.00,19.00,0.00,30.20,M,9.00,35.00,CLR,M,M,M,M,M,M,M,VCTS,M,M,M,M,M,M,77.00,KMEV 140115Z AUTO 26019G35KT 9SM VCTS CLR 25/08 A3020 RMK AO2 LTG DSNT NW,M
BAM,2024-07-14 01:15,-116.8743,40.5990,1382.36,98.60,35.60,11.23,140.00,10.00,0.00,30.06,M,10.00,M,CLR,M,M,M,M,M,M,M,M,M,M,M,M,M,M,93.23,KBAM 140115Z AUTO 14010KT 10SM CLR 37/02 A3006 RMK AO1,M
HTH,2024-07-14 01:15,-118.6315,38.5448,1282.89,93.20,37.40,14.23,350.00,12.00,0.00,30.04,M,10.00,22.00,CLR,M,M,M,M,M,M,M,M,M,M,M,M,M,M,88.83,KHTH 140115Z AUTO 35012G22KT 10SM CLR 34/03 A3004 RMK A01,M
TMT,2024-07-14 01:15,-117.1971,39.4643,1749.34,80.00,41.40,25.33,110.00,21.00,0.00,30.22,M,10.00,34.00,SCT,BKN,M,M,10000.00,12000.00,M,M,M,M,M,M,M,M,M,78.89,KTMT 140115Z AUTO 11021G34KT 10SM SCT100 BKN120 27/05 A3022 RMK AO2 T02660052,M
VGT,2024-07-14 01:16,-115.1933,36.2111,667.00,102.00,54.00,20.42,0.00,0.00,0.00,29.90,M,10.00,M,CLR,M,M,M,M,M,M,M,VCTS,M,M,M,M,M,M,100.30,KVGT 140116Z 00000KT 10SM VCTS CLR 39/12 A2990 RMK AO2 LTG DSNT S T03890122,M
LAS,2024-07-14 01:16,-115.1634,36.0719,663.00,98.00,65.00,34.12,190.00,5.00,0.00,29.92,M,10.00,M,FEW,BKN,M,M,3000.00,10000.00,M,M,TS,M,M,M,M,M,M,101.19,KLAS 140116Z 19005KT 10SM TS FEW030 BKN100 37/18 A2992 RMK AO2 LTG DSNT SW TSB10 T03670183 $,M
INS,2024-07-14 01:23,-115.6733,36.5872,955.00,87.80,53.60,31.17,240.00,25.00,0.00,30.04,1011.10,8.00,40.00,FEW,FEW,BKN,BKN,4200.00,5500.00,9500.00,12000.00,M,M,M,M,M,M,M,85.72,KINS 140123Z AUTO 24025G40KT 8SM FEW042 FEW055 BKN095 BKN120 OVC150 31/12 A3004 RMK AO2 RAB11E23 SLP111 $,M
DRA,2024-07-14 01:30,-116.0278,36.6206,1009.00,83.00,59.00,44.20,140.00,22.00,T,30.11,M,7.00,43.00,FEW,BKN,M,M,7000.00,12000.00,M,M,-RA SQ,M,M,M,43.00,150.00,2024-07-14 01:27,82.94,KDRA 140130Z AUTO 14022G43KT 7SM -RA SQ FEW070 BKN120 28/15 A3011 RMK AO2 PK WND 15043/0127 RAB28 PRESRR P0000 T02830150,M
BVU,2024-07-14 01:35,-114.8611,35.9475,671.00,102.20,46.40,15.30,330.00,7.00,0.00,29.89,M,10.00,M,CLR,M,M,M,M,M,M,M,M,M,M,M,M,M,M,98.43,KBVU 140135Z AUTO 33007KT 10SM CLR 39/08 A2989 RMK AO2,M
CXP,2024-07-14 01:35,-119.7326,39.1923,1431.00,80.60,42.80,26.22,0.00,0.00,0.00,30.21,M,10.00,M,FEW,M,M,M,12000.00,M,M,M,M,M,M,M,M,M,M,79.30,KCXP 140135Z AUTO 00000KT 10SM FEW120 27/06 A3021 RMK AO2,M
RTS,2024-07-14 01:35,-119.8764,39.6682,1539.00,82.40,39.20,21.51,300.00,9.00,0.00,30.22,M,10.00,18.00,FEW,FEW,BKN,M,4700.00,8000.00,11000.00,M,M,M,M,M,M,M,M,80.21,KRTS 140135Z AUTO 30009G18KT 240V330 10SM FEW047 FEW080 BKN110 28/04 A3022 RMK AO2,M
05U,2024-07-14 01:35,-116.0051,39.6042,1811.23,82.40,44.60,26.49,310.00,30.00,0.00,30.29,M,6.00,36.00,M,M,M,M,M,M,M,M,HZ,M,M,M,M,M,M,80.50,K05U 140135Z AUTO 31030G36KT 6SM HZ 28/07 A3029 RMK A01,M
MEV,2024-07-14 01:35,-119.7500,38.9963,1441.42,75.20,46.40,35.94,280.00,13.00,0.00,30.20,M,10.00,24.00,FEW,M,M,M,10000.00,M,M,M,M,M,M,M,M,M,M,75.20,KMEV 140135Z AUTO 28013G24KT 10SM FEW100 24/08 A3020 RMK AO2,M
BAM,2024-07-14 01:35,-116.8743,40.5990,1382.36,98.60,35.60,11.23,130.00,8.00,0.00,30.06,M,10.00,M,CLR,M,M,M,M,M,M,M,M,M,M,M,M,M,M,93.23,KBAM 140135Z AUTO 13008KT 10SM CLR 37/02 A3006 RMK AO1,M
HTH,2024-07-14 01:35,-118.6315,38.5448,1282.89,93.20,35.60,13.25,240.00,8.00,0.00,30.06,M,10.00,17.00,CLR,M,M,M,M,M,M,M,M,M,M,M,M,M,M,88.76,KHTH 140135Z AUTO 24008G17KT 10SM CLR 34/02 A3006 RMK A01,M
TMT,2024-07-14 01:35,-117.1971,39.4643,1749.34,79.00,43.70,28.60,120.00,26.00,0.00,30.21,M,10.00,31.00,SCT,M,M,M,12000.00,M,M,M,M,M,M,M,M,M,M,79.00,KTMT 140135Z AUTO 12026G31KT 10SM SCT120 26/07 A3021 RMK AO2 T02610065,M
HND,2024-07-14 01:37,-115.1344,35.9729,742.79,96.80,53.60,23.55,350.00,5.00,0.00,29.96,M,10.00,M,CLR,M,M,M,M,M,M,M,M,M,M,M,M,M,M,94.59,KHND 140137Z 35005KT 10SM CLR 36/12 A2996 RMK AO2 LTG DSNT N AND NW TSE31,M
DRA,2024-07-14 01:37,-116.0278,36.6206,1009.00,83.00,57.00,41.14,110.00,10.00,0.01,30.12,M,6.00,56.00,FEW,FEW,BKN,M,7500.00,9500.00,11000.00,M,RA,M,M,M,56.00,170.00,2024-07-14 01:31,82.49,KDRA 140137Z AUTO 11010G56KT 6SM RA FEW075 FEW095 BKN110 28/14 A3012 RMK AO2 PK WND 17056/0131 RAB28 P0001 T02830139,M
P68,2024-07-14 01:40,-116.0056,39.6014,1993.00,78.00,45.00,31.06,140.00,27.00,0.00,30.27,M,M,46.00,M,M,M,M,M,M,M,M,M,M,M,M,46.00,160.00,2024-07-14 01:34,78.00,KP68 140140Z AUTO 14027G46KT 26/07 A3027 RMK AO1 PK WND 16046/0134 WSHFT 0123 T02560072,M
LAS,2024-07-14 01:41,-115.1634,36.0719,663.00,95.00,58.00,29.20,290.00,17.00,0.00,29.94,M,9.00,22.00,BKN,BKN,M,M,3000.00,10000.00,M,M,TS,M,M,M,26.00,240.00,2024-07-14 01:21,94.11,KLAS 140141Z 29017G22KT 9SM TS BKN030 BKN100 35/14 A2994 RMK AO2 PK WND 24026/0121 WSHFT 0121 LTG DSNT W-N TSB10 T03500144 $,M
VGT,2024-07-14 01:43,-115.1933,36.2111,667.00,97.00,60.00,29.49,300.00,9.00,0.02,29.93,M,8.00,23.00,FEW,FEW,M,M,4500.00,9000.00,M,M,-TSRA,M,M,M,30.00,240.00,2024-07-14 01:31,97.17,KVGT 140143Z 30009G23KT 8SM -TSRA FEW045 FEW090 36/16 A2993 RMK AO2 PK WND 24030/0131 LTG DSNT ALQDS RAB30 TSB37 P0002 T03610156,M
HND,2024-07-14 01:46,-115.1344,35.9729,742.79,95.00,55.40,26.58,300.00,6.00,0.00,29.98,M,10.00,M,CLR,M,M,M,M,M,M,M,TS,M,M,M,M,M,M,93.22,KHND 140146Z 30006KT 10SM TS CLR 35/13 A2998 RMK AO2 LTG DSNT N AND NW TSE31B40,M
LSV,2024-07-14 01:49,-115.0343,36.2362,570.00,100.40,53.60,21.11,240.00,14.00,0.00,29.86,1007.80,10.00,M,FEW,FEW,SCT,M,5500.00,13000.00,19000.00,M,TS,M,M,M,M,M,M,98.44,KLSV 140149Z AUTO 24014KT 10SM TS FEW055 FEW130 SCT190 38/12 A2986 RMK AO2 TSB49 SLP078 $,M
INS,2024-07-14 01:52,-115.6733,36.5872,955.00,84.20,51.80,32.73,240.00,20.00,0.00,30.08,1012.80,10.00,28.00,OVC,M,M,M,13000.00,M,M,M,TS,M,M,M,M,M,M,82.48,KINS 140152Z AUTO 24020G28KT 10SM TS OVC130 29/11 A3008 RMK AO2 RAB11E23 TSB52 PRESRR SLP128 $,M
P68,2024-07-14 01:53,-116.0056,39.6014,1993.00,77.00,48.00,35.95,140.00,24.00,0.00,30.27,1016.40,M,44.00,M,M,M,M,M,M,M,M,M,M,M,M,46.00,160.00,2024-07-14 01:34,77.00,KP68 140153Z AUTO 14024G44KT 25/09 A3027 RMK AO1 PK WND 16046/0134 WSHFT 0123 SLP164 T02500089,M
ELY,2024-07-14 01:53,-114.8453,39.2950,1909.00,78.00,45.00,31.06,330.00,9.00,T,30.34,1016.70,10.00,M,FEW,M,M,M,11000.00,M,M,M,M,M,M,M,M,M,M,78.00,KELY 140153Z AUTO 33009KT 10SM FEW110 26/07 A3034 RMK AO2 RAE0057 SLP167 P0000 T02560072,M
VGT,2024-07-14 01:53,-115.1933,36.2111,667.00,93.00,58.00,31.06,260.00,22.00,0.02,29.94,1012.20,10.00,38.00,FEW,M,M,M,9500.00,M,M,M,TS,M,M,M,38.00,270.00,2024-07-14 01:46,91.98,KVGT 140153Z 26022G38KT 10SM TS FEW095 34/14 A2994 RMK AO2 PK WND 27038/0146 LTG DSNT ALQDS RAB30E48 TSB37 SLP122 P0002 T03390144,M
LOL,2024-07-14 01:53,-118.5701,40.0684,1192.43,98.00,35.00,11.16,290.00,14.00,T,29.99,1010.10,10.00,23.00,CLR,M,M,M,M,M,M,M,M,M,M,M,M,M,M,92.63,KLOL 140153Z AUTO 29014G23KT 10SM CLR 37/02 A2999 RMK AO2 WSHFT 0046 RAB41E50 SLP101 P0000 T03670017,M
BVU,2024-07-14 01:55,-114.8611,35.9475,671.00,102.20,48.20,16.37,330.00,9.00,0.00,29.89,M,10.00,M,CLR,M,M,M,M,M,M,M,M,M,M,M,M,M,M,98.83,KBVU 140155Z AUTO 33009KT 10SM CLR 39/09 A2989 RMK AO2 LTG DSNT E AND NW,M
CXP,2024-07-14 01:55,-119.7326,39.1923,1431.00,82.40,41.00,23.07,310.00,11.00,0.00,30.21,M,10.00,18.00,FEW,SCT,SCT,M,8500.00,10000.00,12000.00,M,M,M,M,M,M,M,M,80.29,KCXP 140155Z AUTO 31011G18KT 270V340 10SM FEW085 SCT100 SCT120 28/05 A3021 RMK AO2,M
INS,2024-07-14 01:55,-115.6733,36.5872,955.00,85.00,52.50,32.74,240.00,17.00,0.16,30.09,1013.10,10.00,28.00,OVC,M,M,M,13000.00,M,M,M,TS,M,M,M,40.00,230.00,2024-07-14 01:19,83.19,KINS 140155Z AUTO 24017G28KT 10SM TS OVC130 29/11 A3009 RMK AO2 PK WND 23040/19 RAB11E23 TSB52 SLP131 P0016 T02940114 $,M
RNO,2024-07-14 01:55,-119.7711,39.4839,1341.00,86.00,47.00,25.83,270.00,14.00,0.00,30.15,1014.60,10.00,25.00,SCT,BKN,BKN,M,8000.00,14000.00,18000.00,M,M,M,M,M,28.00,300.00,2024-07-14 01:45,83.28,KRNO 140155Z 27014G25KT 10SM SCT080 BKN140 BKN180 30/08 A3015 RMK AO2 PK WND 30028/0145 SLP146 OCNL LTGCG DSNT W T03000083 $,M
RTS,2024-07-14 01:55,-119.8764,39.6682,1539.00,80.60,44.60,28.08,260.00,19.00,0.00,30.22,M,10.00,31.00,FEW,M,M,M,10000.00,M,M,M,M,M,M,M,M,M,M,79.42,KRTS 140155Z AUTO 26019G31KT 10SM FEW100 27/07 A3022 RMK AO2,M
05U,2024-07-14 01:55,-116.0051,39.6042,1811.23,77.00,48.20,36.22,300.00,18.00,0.00,30.30,M,9.00,34.00,M,M,M,M,M,M,M,M,M,M,M,M,M,M,M,77.00,K05U 140155Z AUTO 30018G34KT 9SM 25/09 A3030 RMK A01,M
MEV,2024-07-14 01:55,-119.7500,38.9963,1441.42,77.00,46.40,33.85,220.00,10.00,0.00,30.21,M,10.00,23.00,FEW,FEW,SCT,M,4900.00,6500.00,10000.00,M,M,M,M,M,M,M,M,77.00,KMEV 140155Z AUTO 22010G23KT 190V250 10SM FEW049 FEW065 SCT100 25/08 A3021 RMK AO2,M
BAM,2024-07-14 01:55,-116.8743,40.5990,1382.36,96.80,35.60,11.86,130.00,6.00,0.00,30.07,M,10.00,M,CLR,M,M,M,M,M,M,M,M,M,M,M,M,M,M,91.72,KBAM 140155Z AUTO 13006KT 10SM CLR 36/02 A3007 RMK AO1,M
HTH,2024-07-14 01:55,-118.6315,38.5448,1282.89,93.20,39.20,15.27,M,4.00,0.00,30.11,M,10.00,14.00,CLR,M,M,M,M,M,M,M,M,M,M,M,M,M,M,88.92,KHTH 140155Z AUTO VRB04G14KT 10SM CLR 34/04 A3011 RMK A01,M
TMT,2024-07-14 01:55,-117.1971,39.4643,1749.34,80.00,42.00,25.93,150.00,21.00,0.00,30.24,M,10.00,27.00,SCT,M,M,M,12000.00,M,M,M,M,M,M,M,M,M,M,78.92,KTMT 140155Z AUTO 15021G27KT 10SM SCT120 27/06 A3024 RMK AO2 T02660056,M
LSV,2024-07-14 01:55,-115.0343,36.2362,570.00,100.80,51.00,18.95,250.00,19.00,0.00,29.87,1008.20,10.00,23.00,FEW,SCT,BKN,M,5500.00,13000.00,19000.00,M,TS,M,M,M,26.00,240.00,2024-07-14 01:55,98.09,KLSV 140155Z AUTO 25019G23KT 10SM TS FEW055 SCT130 BKN190 38/11 A2987 RMK AO2 PK WND 24026/55 TSB49 SLP082 T03820105 $,M
EKO,2024-07-14 01:56,-115.7860,40.8242,1367.00,89.00,42.00,19.41,60.00,5.00,0.00,30.14,1013.80,10.00,M,CLR,M,M,M,M,M,M,M,M,M,M,M,M,M,M,85.36,KEKO 140156Z AUTO 06005KT 10SM CLR 32/06 A3014 RMK AO2 SLP138 T03170056,M
WMC,2024-07-14 01:56,-117.8072,40.9019,1315.00,97.00,33.00,10.63,170.00,7.00,0.00,30.01,1010.10,10.00,M,CLR,M,M,M,M,M,M,M,M,M,M,M,M,M,M,91.49,KWMC 140156Z AUTO 17007KT 10SM CLR 36/01 A3001 RMK AO2 SLP101 T03610006,M
HND,2024-07-14 01:56,-115.1344,35.9729,742.79,95.00,55.00,26.19,300.00,15.00,0.00,29.99,1013.60,10.00,21.00,CLR,M,M,M,M,M,M,M,VCTS,M,M,M,M,M,M,93.10,KHND 140156Z 30015G21KT 10SM VCTS CLR 35/13 A2999 RMK AO2 LTG DSNT N AND NW TSE31B40 SLP136 T03500128,M
TPH,2024-07-14 01:56,-117.0904,38.0505,1654.00,80.00,47.00,31.37,100.00,15.00,0.00,30.25,1015.80,10.00,23.00,CLR,M,M,M,M,M,M,M,M,M,M,M,26.00,80.00,2024-07-14 01:07,79.28,KTPH 140156Z AUTO 10015G23KT 10SM CLR 27/08 A3025 RMK AO2 PK WND 08026/0107 SLP158 T02670083,M
LAS,2024-07-14 01:56,-115.1634,36.0719,663.00,92.00,59.00,33.21,270.00,16.00,0.00,29.95,1011.00,9.00,24.00,BKN,BKN,M,M,3000.00,10000.00,M,M,TS,M,M,M,26.00,240.00,2024-07-14 01:21,91.30,KLAS 140156Z 27016G24KT 9SM TS BKN030 BKN100 33/15 A2995 RMK AO2 PK WND 24026/0121 WSHFT 0121 LTG DSNT ALQDS TSB10 SLP110 T03330150 $,M
INS,2024-07-14 01:56,-115.6733,36.5872,955.00,84.20,53.60,34.97,240.00,14.00,0.00,30.08,1012.80,10.00,28.00,OVC,M,M,M,13000.00,M,M,M,-TSRA,M,M,M,M,M,M,82.76,KINS 140156Z AUTO 24014G28KT 10SM -TSRA OVC130 29/12 A3008 RMK AO2 RAB56 SLP128 $,M
LSV,2024-07-14 02:04,-115.0343,36.2362,570.00,100.40,50.00,18.48,280.00,19.00,0.00,29.87,1008.10,10.00,29.00,BKN,BKN,M,M,13000.00,19000.00,M,M,VCTS,M,M,M,M,M,M,97.42,KLSV 140204Z AUTO 28019G29KT 10SM VCTS BKN130 BKN190 38/10 A2987 RMK AO2 TSE04 SLP081 $,M
LSV,2024-07-14 02:05,-115.0343,36.2362,570.00,100.40,50.00,18.48,280.00,19.00,0.00,29.87,1008.10,10.00,29.00,BKN,BKN,M,M,13000.00,19000.00,M,M,VCTS,M,M,M,M,M,M,97.42,KLSV 140205Z AUTO 28019G29KT 10SM VCTS BKN130 BKN190 38/10 A2987 RMK AO2 WSHFT 0150 TSE04 SLP081 $,M
INS,2024-07-14 02:07,-115.6733,36.5872,955.00,82.40,57.20,42.25,270.00,8.00,0.00,30.07,1012.40,10.00,M,SCT,BKN,OVC,M,8000.00,12000.00,15000.00,M,-RA,M,M,M,M,M,M,82.08,KINS 140207Z AUTO 27008KT 10SM -RA SCT080 BKN120 OVC150 28/14 A3007 RMK AO2 RAB0156 TSE07 SLP124 $,M
INS,2024-07-14 02:13,-115.6733,36.5872,955.00,84.20,55.40,37.35,270.00,8.00,0.00,30.07,1012.30,10.00,M,FEW,BKN,OVC,M,8000.00,11000.00,14000.00,M,M,M,M,M,M,M,M,83.09,KINS 140213Z AUTO 27008KT 10SM FEW080 BKN110 OVC140 29/13 A3007 RMK AO2 RAB0156E13 TSE07 SLP123 $,M
HND,2024-07-14 02:14,-115.1344,35.9729,742.79,91.40,62.60,38.45,300.00,8.00,T,29.99,M,10.00,M,CLR,M,M,M,M,M,M,M,-RA,M,M,M,M,M,M,92.23,KHND 140214Z 30008KT 10SM -RA CLR 33/17 A2999 RMK AO2 LTG DSNT N AND NW TSE08RAB10 P0000,M
BVU,2024-07-14 02:15,-114.8611,35.9475,671.00,100.40,48.20,17.28,340.00,13.00,0.00,29.90,M,10.00,22.00,CLR,M,M,M,M,M,M,M,M,M,M,M,M,M,M,97.00,KBVU 140215Z AUTO 34013G22KT 10SM CLR 38/09 A2990 RMK AO2,M
CXP,2024-07-14 02:15,-119.7326,39.1923,1431.00,80.60,42.80,26.22,300.00,6.00,0.00,30.21,M,10.00,15.00,CLR,M,M,M,M,M,M,M,M,M,M,M,M,M,M,79.30,KCXP 140215Z AUTO 30006G15KT 10SM CLR 27/06 A3021 RMK AO2,M
RTS,2024-07-14 02:15,-119.8764,39.6682,1539.00,80.60,42.80,26.22,240.00,20.00,0.00,30.22,M,10.00,27.00,CLR,M,M,M,M,M,M,M,M,M,M,M,M,M,M,79.30,KRTS 140215Z AUTO 24020G27KT 10SM CLR 27/06 A3022 RMK AO2,M
05U,2024-07-14 02:15,-116.0051,39.6042,1811.23,77.00,46.40,33.85,300.00,20.00,0.00,30.32,M,10.00,25.00,M,M,M,M,M,M,M,M,M,M,M,M,M,M,M,77.00,K05U 140215Z AUTO 30020G25KT 10SM 25/08 A3032 RMK A01,M
MEV,2024-07-14 02:15,-119.7500,38.9963,1441.42,78.80,44.60,29.79,250.00,9.00,0.00,30.22,M,10.00,28.00,FEW,FEW,M,M,8000.00,10000.00,M,M,M,M,M,M,M,M,M,78.80,KMEV 140215Z AUTO 25009G28KT 10SM FEW080 FEW100 26/07 A3022 RMK AO2,M
BAM,2024-07-14 02:15,-116.8743,40.5990,1382.36,96.80,35.60,11.86,140.00,4.00,0.00,30.07,M,10.00,M,CLR,M,M,M,M,M,M,M,M,M,M,M,M,M,M,91.72,KBAM 140215Z AUTO 14004KT 10SM CLR 36/02 A3007 RMK AO1,M
HTH,2024-07-14 02:15,-118.6315,38.5448,1282.89,89.60,46.40,22.53,110.00,20.00,0.00,30.14,M,10.00,29.00,BKN,M,M,M,12000.00,M,M,M,M,M,M,M,M,M,M,86.24,KHTH 140215Z AUTO 11020G29KT 10SM BKN120 32/08 A3014 RMK A01,M
TMT,2024-07-14 02:15,-117.1971,39.4643,1749.34,79.00,42.00,26.79,200.00,10.00,0.00,30.25,M,10.00,17.00,CLR,M,M,M,M,M,M,M,M,M,M,M,M,M,M,79.00,KTMT 140215Z AUTO 20010G17KT 10SM CLR 26/06 A3025 RMK AO2 T02610055,M
DRA,2024-07-14 02:17,-116.0278,36.6206,1009.00,88.00,51.00,28.15,M,6.00,T,30.05,M,10.00,27.00,FEW,FEW,M,M,3800.00,10000.00,M,M,M,M,M,M,27.00,190.00,2024-07-14 02:11,85.43,KDRA 140217Z AUTO VRB06G27KT 10SM FEW038 FEW100 31/11 A3005 RMK AO2 PK WND 19027/0211 WSHFT 0200 RAE06 P0000 T03110106,M
VGT,2024-07-14 02:20,-115.1933,36.2111,667.00,95.00,57.00,28.16,320.00,16.00,0.00,29.95,M,10.00,M,FEW,M,M,M,9000.00,M,M,M,VCTS,M,M,M,27.00,270.00,2024-07-14 01:54,93.75,KVGT 140220Z 32016KT 10SM VCTS FEW090 35/14 A2995 RMK AO2 PK WND 27027/0154 LTG DSNT ALQDS TSE14 T03500139,M
HND,2024-07-14 02:30,-115.1344,35.9729,742.79,84.20,66.20,54.80,M,6.00,0.02,30.00,M,10.00,M,FEW,SCT,M,M,4600.00,12000.00,M,M,VCTS -RA,M,M,M,M,M,M,86.50,KHND 140230Z VRB06KT 10SM VCTS -RA FEW046 SCT120 29/19 A3000 RMK AO2 LTG DSNT N AND S AND SW TSE08B24RAB10 P0002,M
BVU,2024-07-14 02:35,-114.8611,35.9475,671.00,98.60,48.20,18.25,330.00,21.00,0.00,29.91,M,10.00,M,CLR,M,M,M,M,M,M,M,M,M,M,M,M,M,M,95.17,KBVU 140235Z AUTO 33021KT 10SM CLR 37/09 A2991 RMK AO2 LTG DSNT SE AND SW,M
CXP,2024-07-14 02:35,-119.7326,39.1923,1431.00,80.60,44.60,28.08,160.00,4.00,0.00,30.22,M,10.00,14.00,CLR,M,M,M,M,M,M,M,M,M,M,M,M,M,M,79.42,KCXP 140235Z AUTO 16004G14KT 10SM CLR 27/07 A3022 RMK AO2,M
RTS,2024-07-14 02:35,-119.8764,39.6682,1539.00,80.60,41.00,24.46,250.00,20.00,0.00,30.23,M,10.00,25.00,CLR,M,M,M,M,M,M,M,M,M,M,M,M,M,M,79.20,KRTS 140235Z AUTO 25020G25KT 10SM CLR 27/05 A3023 RMK AO2,M
05U,2024-07-14 02:35,-116.0051,39.6042,1811.23,77.00,46.40,33.85,300.00,17.00,0.00,30.31,M,10.00,23.00,M,M,M,M,M,M,M,M,M,M,M,M,M,M,M,77.00,K05U 140235Z AUTO 30017G23KT 10SM 25/08 A3031 RMK A01,M
MEV,2024-07-14 02:35,-119.7500,38.9963,1441.42,77.00,46.40,33.85,110.00,6.00,0.00,30.22,M,10.00,M,FEW,M,M,M,11000.00,M,M,M,M,M,M,M,M,M,M,77.00,KMEV 140235Z AUTO 11006KT 10SM FEW110 25/08 A3022 RMK AO2,M
BAM,2024-07-14 02:35,-116.8743,40.5990,1382.36,95.00,37.40,13.46,120.00,5.00,0.00,30.07,M,10.00,M,CLR,M,M,M,M,M,M,M,M,M,M,M,M,M,M,90.46,KBAM 140235Z AUTO 12005KT 10SM CLR 35/03 A3007 RMK AO1,M
HTH,2024-07-14 02:35,-118.6315,38.5448,1282.89,86.00,46.40,25.26,110.00,14.00,0.00,30.16,M,9.00,M,FEW,M,M,M,12000.00,M,M,M,M,M,M,M,M,M,M,83.22,KHTH 140235Z AUTO 11014KT 9SM FEW120 30/08 A3016 RMK A01,M
TMT,2024-07-14 02:35,-117.1971,39.4643,1749.34,79.00,42.00,26.79,210.00,3.00,0.00,30.25,M,10.00,M,CLR,M,M,M,M,M,M,M,M,M,M,M,M,M,M,79.00,KTMT 140235Z AUTO 21003KT 10SM CLR 26/06 A3025 RMK AO2 T02620056,M
VGT,2024-07-14 02:37,-115.1933,36.2111,667.00,94.00,55.00,27.02,350.00,18.00,0.00,29.95,M,10.00,27.00,CLR,M,M,M,M,M,M,M,TS,M,M,M,27.00,340.00,2024-07-14 02:37,92.06,KVGT 140237Z 35018G27KT 10SM TS CLR 34/13 A2995 RMK AO2 PK WND 34027/0237 LTG DSNT N AND S AND SW TSE14B31 T03440128,M
LSV,2024-07-14 02:51,-115.0343,36.2362,570.00,95.00,53.60,24.89,330.00,16.00,0.00,29.91,1009.60,10.00,24.00,BKN,M,M,M,13000.00,M,M,M,VCTS -DZ,M,M,M,M,M,M,92.71,KLSV 140251Z AUTO 33016G24KT 10SM VCTS -DZ BKN130 35/12 A2991 RMK AO2 DZB51 TSE04 SLP096 $,M
P68,2024-07-14 02:53,-116.0056,39.6014,1993.00,78.00,46.00,32.26,130.00,13.00,0.00,30.30,1016.20,M,23.00,M,M,M,M,M,M,M,M,M,M,M,M,31.00,140.00,2024-07-14 02:22,78.00,KP68 140253Z AUTO 13013G23KT 26/08 A3030 RMK AO1 PK WND 14031/0222 SLP162 T02560078 53032,M
DRA,2024-07-14 02:53,-116.0278,36.6206,1009.00,82.00,57.00,42.49,110.00,11.00,T,30.08,1012.90,10.00,M,CLR,M,M,M,M,M,M,M,M,M,M,M,27.00,190.00,2024-07-14 02:11,81.75,KDRA 140253Z AUTO 11011KT 10SM CLR 28/14 A3008 RMK AO2 PK WND 19027/0211 WSHFT 0200 RAE06 SLP129 P0000 60001 T02780139 50022,M
ELY,2024-07-14 02:53,-114.8453,39.2950,1909.00,73.00,47.00,39.58,30.00,4.00,0.00,30.37,1017.10,10.00,M,CLR,M,M,M,M,M,M,M,M,M,M,M,M,M,M,73.00,KELY 140253Z AUTO 03004KT 10SM CLR 23/08 A3037 RMK AO2 SLP171 60000 T02280083 51037,M
VGT,2024-07-14 02:53,-115.1933,36.2111,667.00,89.00,61.00,39.18,320.00,20.00,0.02,29.96,1013.10,7.00,31.00,FEW,FEW,M,M,5500.00,11000.00,M,M,-TSRA,M,M,M,31.00,280.00,2024-07-14 02:51,89.01,KVGT 140253Z 32020G31KT 7SM -TSRA FEW055 FEW110 32/16 A2996 RMK AO2 PK WND 28031/0251 LTG DSNT ALQDS RAB52 TSE14B31 SLP131 P0002 60004 T03170161 53022,M
LOL,2024-07-14 02:53,-118.5701,40.0684,1192.43,93.00,39.00,15.24,250.00,19.00,0.00,30.04,1012.00,10.00,25.00,CLR,M,M,M,M,M,M,M,M,M,M,M,36.00,270.00,2024-07-14 01:55,88.73,KLOL 140253Z AUTO 25019G25KT 10SM CLR 34/04 A3004 RMK AO2 PK WND 27036/0155 PRESRR SLP120 60000 T03390039 53021,M
BVU,2024-07-14 02:55,-114.8611,35.9475,671.00,96.80,50.00,20.62,330.00,15.00,0.00,29.93,M,10.00,24.00,CLR,M,M,M,M,M,M,M,VCTS,M,M,M,M,M,M,93.71,KBVU 140255Z AUTO 33015G24KT 10SM VCTS CLR 36/10 A2993 RMK AO2 LTG DSNT SE AND W AND NW,M
CXP,2024-07-14 02:55,-119.7326,39.1923,1431.00,80.60,44.60,28.08,210.00,8.00,0.00,30.21,M,10.00,13.00,CLR,M,M,M,M,M,M,M,M,M,M,M,M,M,M,79.42,KCXP 140255Z AUTO 21008G13KT 10SM CLR 27/07 A3021 RMK AO2,M
RNO,2024-07-14 02:55,-119.7711,39.4839,1341.00,84.00,42.00,22.77,250.00,12.00,0.00,30.16,1015.00,10.00,22.00,SCT,BKN,BKN,M,8000.00,14000.00,18000.00,M,M,M,M,M,30.00,300.00,2024-07-14 02:32,81.42,KRNO 140255Z 25012G22KT 10SM SCT080 BKN140 BKN180 29/06 A3016 RMK AO2 PK WND 30030/0232 SLP150 60000 T02890056 53006 $,M
RTS,2024-07-14 02:55,-119.8764,39.6682,1539.00,78.80,41.00,25.95,240.00,14.00,0.00,30.24,M,10.00,19.00,CLR,M,M,M,M,M,M,M,M,M,M,M,M,M,M,78.80,KRTS 140255Z AUTO 24014G19KT 10SM CLR 26/05 A3024 RMK AO2,M
05U,2024-07-14 02:55,-116.0051,39.6042,1811.23,77.00,46.40,33.85,300.00,8.00,0.00,30.32,M,10.00,18.00,M,M,M,M,M,M,M,M,M,M,M,M,M,M,M,77.00,K05U 140255Z AUTO 30008G18KT 10SM 25/08 A3032 RMK A01,M
MEV,2024-07-14 02:55,-119.7500,38.9963,1441.42,73.40,48.20,40.85,200.00,7.00,0.00,30.21,M,10.00,M,FEW,SCT,BKN,M,6500.00,8000.00,12000.00,M,M,M,M,M,M,M,M,73.40,KMEV 140255Z AUTO 20007KT 10SM FEW065 SCT080 BKN120 23/09 A3021 RMK AO2,M
BAM,2024-07-14 02:55,-116.8743,40.5990,1382.36,91.40,37.40,15.05,110.00,7.00,0.00,30.08,M,10.00,M,CLR,M,M,M,M,M,M,M,M,M,M,M,M,M,M,87.23,KBAM 140255Z AUTO 11007KT 10SM CLR 33/03 A3008 RMK AO1,M
HTH,2024-07-14 02:55,-118.6315,38.5448,1282.89,84.20,51.80,32.73,130.00,13.00,0.00,30.18,M,9.00,M,BKN,M,M,M,12000.00,M,M,M,M,M,M,M,M,M,M,82.48,KHTH 140255Z AUTO 13013KT 9SM BKN120 29/11 A3018 RMK A01,M
TMT,2024-07-14 02:55,-117.1971,39.4643,1749.34,78.00,43.70,29.55,220.00,7.00,0.00,30.25,M,10.00,M,CLR,M,M,M,M,M,M,M,M,M,M,M,M,M,M,78.00,KTMT 140255Z AUTO 22007KT 10SM CLR 26/07 A3025 RMK AO2 T02560065,M
INS,2024-07-14 02:55,-115.6733,36.5872,955.00,86.40,53.00,31.88,90.00,15.00,T,30.10,1013.10,10.00,21.00,BKN,OVC,M,M,13000.00,19000.00,M,M,M,M,M,M,M,M,M,84.40,KINS 140255Z AUTO 09015G21KT 10SM BKN130 OVC190 30/12 A3010 RMK AO2 LTG DSNT NE RAB0156E13 TSE07 SLP131 P0000 60016 T03020117 53030 $,M
LSV,2024-07-14 02:55,-115.0343,36.2362,570.00,94.60,56.50,28.00,330.00,13.00,T,29.91,1009.60,10.00,24.00,BKN,M,M,M,13000.00,M,M,M,VCTS -RA,M,M,M,33.00,260.00,2024-07-14 01:55,93.15,KLSV 140255Z AUTO 33013G24KT 10SM VCTS -RA BKN130 35/14 A2991 RMK AO2 PK WND 26033/0155 DZB51E53RAB53 TSE04 SLP096 P0000 60000 T03480136 53025 $,M
EKO,2024-07-14 02:56,-115.7860,40.8242,1367.00,88.00,40.00,18.54,360.00,4.00,0.00,30.16,1014.10,10.00,M,CLR,M,M,M,M,M,M,M,M,M,M,M,M,M,M,84.42,KEKO 140256Z AUTO 36004KT 10SM CLR 31/04 A3016 RMK AO2 SLP141 T03110044 53011,M
WMC,2024-07-14 02:56,-117.8072,40.9019,1315.00,93.00,33.00,12.02,190.00,7.00,0.00,30.02,1010.00,10.00,M,CLR,M,M,M,M,M,M,M,M,M,M,M,M,M,M,88.28,KWMC 140256Z AUTO 19007KT 10SM CLR 34/01 A3002 RMK AO2 SLP100 T03390006 55001,M
HND,2024-07-14 02:56,-115.1344,35.9729,742.79,87.00,65.00,48.05,200.00,9.00,0.02,30.01,1014.60,10.00,M,FEW,SCT,SCT,M,6500.00,10000.00,12000.00,M,TS,M,M,M,M,M,M,88.81,KHND 140256Z 20009KT 10SM TS FEW065 SCT100 SCT120 31/18 A3001 RMK AO2 LTG DSNT W-NE TSE08B24RAB10E40 SLP146 P0002 60002 T03060183 53022,M
TPH,2024-07-14 02:56,-117.0904,38.0505,1654.00,79.00,48.00,33.66,160.00,12.00,0.00,30.28,1016.50,10.00,M,CLR,M,M,M,M,M,M,M,M,M,M,M,M,M,M,79.00,KTPH 140256Z AUTO 16012KT 10SM CLR 26/09 A3028 RMK AO2 SLP165 60000 T02610089 53007,M
LAS,2024-07-14 02:56,-115.1634,36.0719,663.00,88.00,65.00,46.55,290.00,10.00,T,29.98,1012.00,9.00,M,BKN,BKN,M,M,3000.00,10000.00,M,M,-TSRA,M,M,M,28.00,270.00,2024-07-14 01:59,89.85,KLAS 140256Z 29010KT 9SM -TSRA BKN030 BKN100 31/18 A2998 RMK AO2 PK WND 27028/0159 LTG DSNT ALQDS RAB28 TSE21E24B25 SLP120 P0000 60005 T03110183 53019 $,M
NFL,2024-07-14 02:56,-118.7010,39.4166,1199.00,89.00,44.00,20.96,260.00,22.00,0.00,30.07,1014.90,8.00,37.00,FEW,M,M,M,11000.00,M,M,M,M,M,M,M,37.00,270.00,2024-07-14 02:50,85.50,KNFL 140256Z AUTO 26022G37KT 8SM FEW110 32/07 A3007 RMK AO2 PK WND 27037/0250 SLP149 T03170067 53023,M
LSV,2024-07-14 03:00,-115.0343,36.2362,570.00,95.00,55.40,26.58,340.00,10.00,0.00,29.91,1009.50,10.00,M,BKN,M,M,M,13000.00,M,M,M,-TSRA,M,M,M,M,M,M,93.22,KLSV 140300Z AUTO 34010KT 10SM -TSRA BKN130 35/13 A2991 RMK AO2 TSB00 SLP095 $,M
LSV,2024-07-14 03:04,-115.0343,36.2362,570.00,95.00,55.40,26.58,330.00,12.00,0.00,29.92,1009.90,10.00,M,BKN,M,M,M,13000.00,M,M,M,TS,M,M,M,M,M,M,93.22,KLSV 140304Z AUTO 33012KT 10SM TS BKN130 35/13 A2992 RMK AO2 RAE02DZB02E04 TSB00 SLP099 $,M
BVU,2024-07-14 03:15,-114.8611,35.9475,671.00,95.00,51.80,23.30,320.00,22.00,0.00,29.95,M,10.00,28.00,CLR,M,M,M,M,M,M,M,M,M,M,M,M,M,M,92.26,KBVU 140315Z AUTO 32022G28KT 10SM CLR 35/11 A2995 RMK AO2,M
CXP,2024-07-14 03:15,-119.7326,39.1923,1431.00,78.80,44.60,29.79,0.00,0.00,0.00,30.22,M,10.00,13.00,FEW,FEW,BKN,M,4800.00,8000.00,11000.00,M,M,M,M,M,M,M,M,78.80,KCXP 140315Z AUTO 00000G13KT 10SM FEW048 FEW080 BKN110 26/07 A3022 RMK AO2,M
LSV,2024-07-14 03:15,-115.0343,36.2362,570.00,93.20,55.40,28.10,330.00,11.00,0.00,29.92,1010.00,10.00,M,BKN,M,M,M,13000.00,M,M,M,VCTS,M,M,M,M,M,M,91.35,KLSV 140315Z AUTO 33011KT 10SM VCTS BKN130 34/13 A2992 RMK AO2 RAE02DZB02E04 TSB00E15 SLP100 $,M
RTS,2024-07-14 03:15,-119.8764,39.6682,1539.00,78.80,41.00,25.95,290.00,9.00,0.00,30.24,M,10.00,14.00,CLR,M,M,M,M,M,M,M,M,M,M,M,M,M,M,78.80,KRTS 140315Z AUTO 29009G14KT 10SM CLR 26/05 A3024 RMK AO2,M
05U,2024-07-14 03:15,-116.0051,39.6042,1811.23,77.00,46.40,33.85,300.00,19.00,0.00,30.31,M,10.00,M,M,M,M,M,M,M,M,M,M,M,M,M,M,M,M,77.00,K05U 140315Z AUTO 30019KT 10SM 25/08 A3031 RMK A01,M
MEV,2024-07-14 03:15,-119.7500,38.9963,1441.42,73.40,48.20,40.85,150.00,7.00,0.00,30.22,M,10.00,M,CLR,M,M,M,M,M,M,M,M,M,M,M,M,M,M,73.40,KMEV 140315Z AUTO 15007KT 10SM CLR 23/09 A3022 RMK AO2,M
BAM,2024-07-14 03:15,-116.8743,40.5990,1382.36,89.60,37.40,15.92,130.00,7.00,0.00,30.08,M,10.00,M,CLR,M,M,M,M,M,M,M,M,M,M,M,M,M,M,85.67,KBAM 140315Z AUTO 13007KT 10SM CLR 32/03 A3008 RMK AO1,M
HTH,2024-07-14 03:15,-118.6315,38.5448,1282.89,84.20,50.00,30.62,160.00,10.00,0.00,30.19,M,10.00,16.00,OVC,M,M,M,11000.00,M,M,M,M,M,M,M,M,M,M,82.24,KHTH 140315Z AUTO 16010G16KT 10SM OVC110 29/10 A3019 RMK A01,M
TMT,2024-07-14 03:15,-117.1971,39.4643,1749.34,77.00,44.60,31.62,220.00,9.00,0.00,30.27,M,10.00,M,CLR,M,M,M,M,M,M,M,M,M,M,M,M,M,M,77.00,KTMT 140315Z AUTO 22009KT 10SM CLR 25/07 A3027 RMK AO2 T02510070,M
EKO,2024-07-14 03:26,-115.7860,40.8242,1367.00,83.00,46.00,27.39,170.00,15.00,0.00,30.19,M,10.00,33.00,CLR,M,M,M,M,M,M,M,M,M,M,M,33.00,170.00,2024-07-14 03:19,81.00,KEKO 140326Z AUTO 17015G33KT 10SM CLR 28/08 A3019 RMK AO2 PK WND 17033/0319 WSHFT 0306 T02830078,M
VGT,2024-07-14 03:28,-115.1933,36.2111,667.00,84.00,66.00,54.77,270.00,17.00,0.04,30.02,M,10.00,M,FEW,SCT,SCT,M,5500.00,8000.00,12000.00,M,VCTS -RA,M,M,M,32.00,340.00,2024-07-14 02:57,86.20,KVGT 140328Z AUTO 27017KT 10SM VCTS -RA FEW055 SCT080 SCT120 29/19 A3002 RMK AO2 PK WND 34032/0257 LTG DSNT N AND SE AND S TSE22 PRESRR P0004 T02890189,M
TPH,2024-07-14 03:28,-117.0904,38.0505,1654.00,78.00,49.00,36.11,220.00,16.00,0.00,30.29,M,10.00,26.00,CLR,M,M,M,M,M,M,M,M,M,M,M,26.00,210.00,2024-07-14 03:25,78.00,KTPH 140328Z AUTO 22016G26KT 10SM CLR 26/09 A3029 RMK AO2 PK WND 21026/0325 WSHFT 0308 T02560094,M
BVU,2024-07-14 03:35,-114.8611,35.9475,671.00,93.20,53.60,26.31,340.00,28.00,0.00,29.94,M,10.00,M,FEW,SCT,BKN,M,4800.00,6000.00,7500.00,M,M,M,M,M,M,M,M,90.86,KBVU 140335Z AUTO 34028KT 10SM FEW048 SCT060 BKN075 34/12 A2994 RMK AO2,M
CXP,2024-07-14 03:35,-119.7326,39.1923,1431.00,78.80,44.60,29.79,180.00,9.00,0.00,30.23,M,10.00,16.00,FEW,SCT,BKN,M,4900.00,9500.00,11000.00,M,M,M,M,M,M,M,M,78.80,KCXP 140335Z AUTO 18009G16KT 10SM FEW049 SCT095 BKN110 26/07 A3023 RMK AO2,M
RTS,2024-07-14 03:35,-119.8764,39.6682,1539.00,78.80,41.00,25.95,280.00,10.00,0.00,30.23,M,10.00,16.00,CLR,M,M,M,M,M,M,M,M,M,M,M,M,M,M,78.80,KRTS 140335Z AUTO 28010G16KT 10SM CLR 26/05 A3023 RMK AO2,M
05U,2024-07-14 03:35,-116.0051,39.6042,1811.23,77.00,44.60,31.62,300.00,14.00,0.00,30.31,M,10.00,M,M,M,M,M,M,M,M,M,M,M,M,M,M,M,M,77.00,K05U 140335Z AUTO 30014KT 10SM 25/07 A3031 RMK A01,M
MEV,2024-07-14 03:35,-119.7500,38.9963,1441.42,71.60,48.20,43.42,170.00,9.00,0.00,30.21,M,10.00,M,CLR,M,M,M,M,M,M,M,M,M,M,M,M,M,M,71.60,KMEV 140335Z AUTO 17009KT 10SM CLR 22/09 A3021 RMK AO2,M
BAM,2024-07-14 03:35,-116.8743,40.5990,1382.36,87.80,41.00,19.40,90.00,8.00,0.00,30.09,M,10.00,M,CLR,M,M,M,M,M,M,M,M,M,M,M,M,M,M,84.30,KBAM 140335Z AUTO 09008KT 10SM CLR 31/05 A3009 RMK AO1,M
HTH,2024-07-14 03:35,-118.6315,38.5448,1282.89,82.40,53.60,37.07,150.00,21.00,0.00,30.21,M,9.00,29.00,SCT,SCT,OVC,M,8000.00,9000.00,11000.00,M,M,M,M,M,M,M,M,81.46,KHTH 140335Z AUTO 15021G29KT 9SM SCT080 SCT090 OVC110 28/12 A3021 RMK A01,M
TMT,2024-07-14 03:35,-117.1971,39.4643,1749.34,77.70,44.00,30.19,240.00,13.00,0.00,30.28,M,10.00,18.00,CLR,M,M,M,M,M,M,M,M,M,M,M,M,M,M,77.70,KTMT 140335Z AUTO 24013G18KT 10SM CLR 25/07 A3028 RMK AO2 T02540066,M
LSV,2024-07-14 03:38,-115.0343,36.2362,570.00,93.20,59.00,31.99,250.00,19.00,0.00,29.96,1011.30,10.00,36.00,BKN,M,M,M,13000.00,M,M,M,-RA,M,M,M,M,M,M,92.57,KLSV 140338Z AUTO 25019G36KT 10SM -RA BKN130 34/15 A2996 RMK AO2 RAE02DZB02E04RAB38 TSB00E15 PRESRR SLP113 $,M
LAS,2024-07-14 03:41,-115.1634,36.0719,663.00,89.00,61.00,39.18,340.00,15.00,0.01,29.99,M,9.00,24.00,BKN,BKN,M,M,3000.00,8000.00,M,M,TS,M,M,M,M,M,M,89.01,KLAS 140341Z 34015G24KT 9SM TS BKN030 BKN080 32/16 A2999 RMK AO2 WSHFT 0321 LTG DSNT N RAE39 TSE13B14 P0001 T03170161 $,M
HND,2024-07-14 03:46,-115.1344,35.9729,742.79,82.40,66.20,58.08,30.00,9.00,0.01,30.02,M,10.00,23.00,FEW,SCT,SCT,M,5500.00,7000.00,9500.00,M,-RA,M,M,M,M,M,M,84.63,KHND 140346Z AUTO 03009G23KT 350V070 10SM -RA FEW055 SCT070 SCT095 28/19 A3002 RMK AO2 LTG DSNT N AND NE TSE40RAB00 P0001,M
LSV,2024-07-14 03:46,-115.0343,36.2362,570.00,87.80,62.60,43.07,290.00,20.00,0.00,29.94,1010.70,7.00,36.00,FEW,SCT,M,M,2700.00,12000.00,M,M,VCTS RA,M,M,M,M,M,M,88.48,KLSV 140346Z AUTO 29020G36KT 7SM VCTS RA FEW027 SCT120 31/17 A2994 RMK AO2 WSHFT 39 RAE02DZB02E04RAB38 TSB00E15 PRESFR SLP107 $,M
VGT,2024-07-14 03:51,-115.1933,36.2111,667.00,87.80,62.60,43.07,330.00,18.00,0.04,29.97,M,10.00,25.00,SCT,BKN,BKN,M,6000.00,7500.00,9000.00,M,TS,M,M,M,32.00,340.00,2024-07-14 02:57,88.48,KVGT 140351Z AUTO 33018G25KT 10SM TS SCT060 BKN075 BKN090 31/17 A2997 RMK AO2 PK WND 34032/0257 LTG DSNT N AND SE AND NW RAE42 TSE22B45 P0004,M
P68,2024-07-14 03:53,-116.0056,39.6014,1993.00,77.00,44.00,30.90,130.00,12.00,0.00,30.29,1015.70,M,M,M,M,M,M,M,M,M,M,M,M,M,M,27.00,140.00,2024-07-14 03:14,77.00,KP68 140353Z AUTO 13012KT 25/07 A3029 RMK AO1 PK WND 14027/0314 SLP157 T02500067,M
DRA,2024-07-14 03:53,-116.0278,36.6206,1009.00,82.00,55.00,39.52,100.00,8.00,0.00,30.10,1013.40,10.00,M,CLR,M,M,M,M,M,M,M,M,M,M,M,M,M,M,81.40,KDRA 140353Z AUTO 10008KT 10SM CLR 28/13 A3010 RMK AO2 SLP134 T02780128,M
ELY,2024-07-14 03:53,-114.8453,39.2950,1909.00,72.00,46.00,39.42,M,M,0.00,30.36,1016.40,10.00,M,FEW,M,M,M,12000.00,M,M,M,M,M,M,M,M,M,M,72.00,KELY 140353Z AUTO 10SM FEW120 22/08 A3036 RMK AO2 SLP164 T02220078,M
VGT,2024-07-14 03:53,-115.1933,36.2111,667.00,87.00,63.00,44.80,330.00,18.00,0.04,29.97,1013.30,10.00,26.00,SCT,BKN,BKN,M,5500.00,7500.00,9000.00,M,TS,M,M,M,32.00,340.00,2024-07-14 02:57,87.86,KVGT 140353Z AUTO 33018G26KT 10SM TS SCT055 BKN075 BKN090 31/17 A2997 RMK AO2 PK WND 34032/0257 LTG DSNT N AND SE AND NW RAE42 TSE22B45 SLP133 P0004 T03060172,M
LOL,2024-07-14 03:53,-118.5701,40.0684,1192.43,93.00,39.00,15.24,320.00,15.00,T,30.08,1012.90,10.00,24.00,CLR,M,M,M,M,M,M,M,M,M,M,M,32.00,270.00,2024-07-14 03:20,88.73,KLOL 140353Z AUTO 32015G24KT 10SM CLR 34/04 A3008 RMK AO2 PK WND 27032/0320 RAB10E25 SLP129 P0000 T03390039,M
BVU,2024-07-14 03:55,-114.8611,35.9475,671.00,91.40,55.40,29.72,330.00,22.00,0.00,29.96,M,10.00,27.00,FEW,FEW,SCT,M,5000.00,6000.00,9000.00,M,M,M,M,M,M,M,M,89.53,KBVU 140355Z AUTO 33022G27KT 10SM FEW050 FEW060 SCT090 33/13 A2996 RMK AO2 LTG DSNT N AND NW,M
CXP,2024-07-14 03:55,-119.7326,39.1923,1431.00,78.80,44.60,29.79,0.00,0.00,0.00,30.24,M,7.00,M,FEW,SCT,BKN,M,5000.00,6500.00,7500.00,M,M,M,M,M,M,M,M,78.80,KCXP 140355Z AUTO 00000KT 7SM FEW050 SCT065 BKN075 26/07 A3024 RMK AO2,M
RNO,2024-07-14 03:55,-119.7711,39.4839,1341.00,83.00,45.00,26.37,130.00,5.00,0.00,30.18,1015.50,10.00,M,SCT,BKN,BKN,M,8000.00,14000.00,18000.00,M,M,M,M,M,M,M,M,80.93,KRNO 140355Z 13005KT 10SM SCT080 BKN140 BKN180 28/07 A3018 RMK AO2 SLP155 SH VC S T02830072 $,M
RTS,2024-07-14 03:55,-119.8764,39.6682,1539.00,78.80,41.00,25.95,300.00,6.00,0.00,30.22,M,10.00,14.00,SCT,M,M,M,12000.00,M,M,M,M,M,M,M,M,M,M,78.80,KRTS 140355Z AUTO 30006G14KT 10SM SCT120 26/05 A3022 RMK AO2,M
05U,2024-07-14 03:55,-116.0051,39.6042,1811.23,77.00,42.80,29.51,290.00,12.00,0.00,30.32,M,10.00,M,M,M,M,M,M,M,M,M,M,M,M,M,M,M,M,77.00,K05U 140355Z AUTO 29012KT 10SM 25/06 A3032 RMK A01,M
MEV,2024-07-14 03:55,-119.7500,38.9963,1441.42,73.40,48.20,40.85,230.00,10.00,0.00,30.21,M,10.00,M,CLR,M,M,M,M,M,M,M,M,M,M,M,M,M,M,73.40,KMEV 140355Z AUTO 23010KT 10SM CLR 23/09 A3021 RMK AO2,M
BAM,2024-07-14 03:55,-116.8743,40.5990,1382.36,89.60,41.00,18.33,50.00,10.00,0.00,30.10,M,10.00,17.00,CLR,M,M,M,M,M,M,M,M,M,M,M,M,M,M,85.82,KBAM 140355Z AUTO 05010G17KT 10SM CLR 32/05 A3010 RMK AO1,M
HTH,2024-07-14 03:55,-118.6315,38.5448,1282.89,77.00,55.40,47.25,100.00,7.00,0.00,30.24,M,10.00,18.00,FEW,BKN,OVC,M,3300.00,7500.00,11000.00,M,M,M,M,M,M,M,M,77.00,KHTH 140355Z AUTO 10007G18KT 060V150 10SM FEW033 BKN075 OVC110 25/13 A3024 RMK A01,M
TMT,2024-07-14 03:55,-117.1971,39.4643,1749.34,76.30,44.40,32.11,220.00,5.00,0.00,30.29,M,10.00,10.00,CLR,M,M,M,M,M,M,M,M,M,M,M,M,M,M,76.30,KTMT 140355Z AUTO 22005G10KT 10SM CLR 25/07 A3029 RMK AO2 T02460069,M
INS,2024-07-14 03:55,-115.6733,36.5872,955.00,86.00,53.40,32.77,130.00,7.00,0.00,30.10,1013.10,10.00,M,SCT,M,M,M,17000.00,M,M,M,M,M,M,M,M,M,M,84.15,KINS 140355Z AUTO 13007KT 10SM SCT170 30/12 A3010 RMK AO2 LTG DSNT NE SLP131 T02990119 $,M
LSV,2024-07-14 03:55,-115.0343,36.2362,570.00,84.00,63.70,50.55,320.00,22.00,0.09,29.92,1010.10,7.00,M,FEW,BKN,M,M,1700.00,12000.00,M,M,VCTS -RA,M,M,M,36.00,250.00,2024-07-14 03:38,85.25,KLSV 140355Z AUTO 32022KT 7SM VCTS -RA FEW017 BKN120 29/18 A2992 RMK AO2 PK WND 25036/38 RAE02DZB02E04RAB38 TSB00E15 PRESFR SLP101 P0009 T02880176 $,M
EKO,2024-07-14 03:56,-115.7860,40.8242,1367.00,83.00,45.00,26.37,170.00,13.00,0.00,30.21,1015.80,10.00,25.00,CLR,M,M,M,M,M,M,M,M,M,M,M,33.00,170.00,2024-07-14 03:19,80.93,KEKO 140356Z AUTO 17013G25KT 10SM CLR 28/07 A3021 RMK AO2 PK WND 17033/0319 WSHFT 0306 SLP158 T02830072,M
WMC,2024-07-14 03:56,-117.8072,40.9019,1315.00,94.00,35.00,12.62,260.00,10.00,T,30.09,1012.20,10.00,26.00,FEW,SCT,BKN,M,7000.00,9000.00,11000.00,M,-RA,M,M,M,32.00,230.00,2024-07-14 03:37,89.36,KWMC 140356Z AUTO 26010G26KT 10SM -RA FEW070 SCT090 BKN110 34/02 A3009 RMK AO2 PK WND 23032/0337 RAB40 SLP122 P0000 T03440017,M
NFL,2024-07-14 03:56,-118.7010,39.4166,1199.00,87.00,44.00,22.33,230.00,11.00,0.00,30.15,1017.60,10.00,20.00,CLR,M,M,M,M,M,M,M,M,M,M,M,30.00,250.00,2024-07-14 02:59,83.82,KNFL 140356Z AUTO 23011G20KT 10SM CLR 31/07 A3015 RMK AO2 PK WND 25030/0259 SLP176 T03060067,M
HND,2024-07-14 03:56,-115.1344,35.9729,742.79,84.00,62.00,47.61,50.00,10.00,0.02,30.03,1015.10,10.00,M,FEW,SCT,BKN,M,5500.00,7500.00,9000.00,M,RA,M,M,M,M,M,M,84.64,KHND 140356Z AUTO 05010KT 10SM RA FEW055 SCT075 BKN090 29/17 A3003 RMK AO2 LTG DSNT NW-NE TSE40RAB00 SLP151 P0002 T02890167,M
TPH,2024-07-14 03:56,-117.0904,38.0505,1654.00,77.00,49.00,37.33,230.00,12.00,0.00,30.30,1016.50,10.00,27.00,CLR,M,M,M,M,M,M,M,M,M,M,M,27.00,230.00,2024-07-14 03:37,77.00,KTPH 140356Z AUTO 23012G27KT 10SM CLR 25/09 A3030 RMK AO2 PK WND 23027/0337 WSHFT 0308 SLP165 T02500094,M
LAS,2024-07-14 03:56,-115.1634,36.0719,663.00,88.00,62.00,41.90,360.00,13.00,0.01,29.99,1012.20,8.00,M,FEW,SCT,BKN,M,3000.00,7000.00,11000.00,M,-TSRA,M,M,M,M,M,M,88.43,KLAS 140356Z 36013KT 8SM -TSRA FEW030 SCT070 BKN110 31/17 A2999 RMK AO2 WSHFT 0321 LTG DSNT NW-E RAE39B49 TSE13B14 SLP122 P0001 T03110167 $,M
LSV,2024-07-14 04:01,-115.0343,36.2362,570.00,86.00,62.60,45.61,320.00,15.00,0.00,29.94,1010.70,10.00,M,FEW,BKN,BKN,M,1700.00,13000.00,15000.00,M,M,M,M,M,M,M,M,86.72,KLSV 140401Z AUTO 32015KT 10SM FEW017 BKN130 BKN150 30/17 A2994 RMK AO2 LTG DSNT NW-N RAE01 PRESRR SLP107 $,M
VGT,2024-07-14 04:06,-115.1933,36.2111,667.00,88.00,61.00,40.44,350.00,13.00,0.00,30.00,M,10.00,20.00,FEW,SCT,BKN,M,6000.00,7500.00,9000.00,M,M,M,M,M,M,M,M,88.02,KVGT 140406Z AUTO 35013G20KT 10SM FEW060 SCT075 BKN090 31/16 A3000 RMK AO2 LTG DSNT N AND W TSE00 T03110161,M
BVU,2024-07-14 04:15,-114.8611,35.9475,671.00,89.60,55.40,31.45,340.00,15.00,0.00,29.97,M,10.00,28.00,FEW,M,M,M,9000.00,M,M,M,M,M,M,M,M,M,M,87.78,KBVU 140415Z AUTO 34015G28KT 10SM FEW090 32/13 A2997 RMK AO2,M
CXP,2024-07-14 04:15,-119.7326,39.1923,1431.00,78.80,44.60,29.79,160.00,4.00,0.00,30.24,M,9.00,M,FEW,SCT,BKN,M,5000.00,7000.00,12000.00,M,M,M,M,M,M,M,M,78.80,KCXP 140415Z AUTO 16004KT 9SM FEW050 SCT070 BKN120 26/07 A3024 RMK AO2,M
RTS,2024-07-14 04:15,-119.8764,39.6682,1539.00,77.00,41.00,27.53,100.00,4.00,0.00,30.24,M,10.00,M,SCT,M,M,M,11000.00,M,M,M,M,M,M,M,M,M,M,77.00,KRTS 140415Z AUTO 10004KT 10SM SCT110 25/05 A3024 RMK AO2,M
05U,2024-07-14 04:15,-116.0051,39.6042,1811.23,78.80,42.80,27.81,320.00,6.00,0.00,30.33,M,10.00,12.00,M,M,M,M,M,M,M,M,M,M,M,M,M,M,M,78.80,K05U 140415Z AUTO 32006G12KT 10SM 26/06 A3033 RMK A01,M
MEV,2024-07-14 04:15,-119.7500,38.9963,1441.42,71.60,48.20,43.42,0.00,0.00,0.00,30.21,M,10.00,M,CLR,M,M,M,M,M,M,M,M,M,M,M,M,M,M,71.60,KMEV 140415Z AUTO 00000KT 10SM CLR 22/09 A3021 RMK AO2,M
BAM,2024-07-14 04:15,-116.8743,40.5990,1382.36,87.80,41.00,19.40,30.00,5.00,0.00,30.13,M,10.00,M,CLR,M,M,M,M,M,M,M,M,M,M,M,M,M,M,84.30,KBAM 140415Z AUTO 03005KT 10SM CLR 31/05 A3013 RMK AO1,M
HTH,2024-07-14 04:15,-118.6315,38.5448,1282.89,77.00,53.60,44.25,100.00,8.00,0.00,30.25,M,10.00,M,M,M,M,M,M,M,M,M,M,M,M,M,M,M,M,77.00,KHTH 140415Z AUTO 10008KT 10SM 25/12 A3025 RMK A01,M
TMT,2024-07-14 04:15,-117.1971,39.4643,1749.34,75.00,44.00,33.03,170.00,7.00,0.00,30.30,M,10.00,M,CLR,M,M,M,M,M,M,M,M,M,M,M,M,M,M,75.00,KTMT 140415Z AUTO 17007KT 10SM CLR 24/07 A3030 RMK AO2 T02380066,M
LSV,2024-07-14 04:34,-115.0343,36.2362,570.00,86.00,62.60,45.61,340.00,10.00,0.00,29.95,1011.00,10.00,M,SCT,M,M,M,13000.00,M,M,M,-DZ,M,M,M,M,M,M,86.72,KLSV 140434Z AUTO 34010KT 10SM -DZ SCT130 30/17 A2995 RMK AO2 LTG DSNT N AND S AND W RAE01DZB34 SLP110 $,M
BVU,2024-07-14 04:35,-114.8611,35.9475,671.00,86.00,59.00,40.14,340.00,14.00,0.00,29.96,M,8.00,22.00,FEW,SCT,BKN,M,900.00,4900.00,7000.00,M,-RA,M,M,M,M,M,M,85.47,KBVU 140435Z AUTO 34014G22KT 8SM -RA FEW009 SCT049 BKN070 30/15 A2996 RMK AO2,M
CXP,2024-07-14 04:35,-119.7326,39.1923,1431.00,77.00,46.40,33.85,0.00,0.00,0.00,30.24,M,10.00,M,FEW,M,M,M,12000.00,M,M,M,M,M,M,M,M,M,M,77.00,KCXP 140435Z AUTO 00000KT 10SM FEW120 25/08 A3024 RMK AO2,M
RTS,2024-07-14 04:35,-119.8764,39.6682,1539.00,78.80,41.00,25.95,0.00,0.00,0.00,30.24,M,10.00,M,SCT,M,M,M,11000.00,M,M,M,M,M,M,M,M,M,M,78.80,KRTS 140435Z AUTO 00000KT 10SM SCT110 26/05 A3024 RMK AO2,M
05U,2024-07-14 04:35,-116.0051,39.6042,1811.23,78.80,42.80,27.81,0.00,0.00,0.00,30.33,M,10.00,M,M,M,M,M,M,M,M,M,M,M,M,M,M,M,M,78.80,K05U 140435Z AUTO 00000KT 10SM 26/06 A3033 RMK A01,M
MEV,2024-07-14 04:35,-119.7500,38.9963,1441.42,71.60,50.00,46.43,50.00,6.00,0.00,30.21,M,10.00,M,FEW,SCT,BKN,M,4300.00,6000.00,10000.00,M,M,M,M,M,M,M,M,71.60,KMEV 140435Z AUTO 05006KT 10SM FEW043 SCT060 BKN100 22/10 A3021 RMK AO2,M
BAM,2024-07-14 04:35,-116.8743,40.5990,1382.36,91.40,39.20,16.15,330.00,15.00,0.00,30.14,M,10.00,20.00,SCT,BKN,M,M,10000.00,12000.00,M,M,M,M,M,M,M,M,M,87.30,KBAM 140435Z AUTO 33015G20KT 10SM SCT100 BKN120 33/04 A3014 RMK AO1,M
HTH,2024-07-14 04:35,-118.6315,38.5448,1282.89,M,M,M,M,M,0.00,30.25,M,M,M,M,M,M,M,M,M,M,M,M,M,M,M,M,M,M,M,KHTH 140435Z AUTO A3025 RMK A01,M
TMT,2024-07-14 04:35,-117.1971,39.4643,1749.34,77.00,43.70,30.55,180.00,6.00,0.00,30.31,M,10.00,M,SCT,M,M,M,12000.00,M,M,M,M,M,M,M,M,M,M,77.00,KTMT 140435Z AUTO 18006KT 10SM SCT120 25/07 A3031 RMK AO2 T02490065,M
VGT,2024-07-14 04:38,-115.1933,36.2111,667.00,87.00,62.00,43.25,330.00,16.00,0.00,29.98,M,10.00,M,SCT,BKN,M,M,9000.00,11000.00,M,M,TS,M,M,M,26.00,320.00,2024-07-14 04:23,87.44,KVGT 140438Z AUTO 33016KT 10SM TS SCT090 BKN110 31/17 A2998 RMK AO2 PK WND 32026/0423 LTG DSNT N AND NW TSE00B32 T03060167,M
LSV,2024-07-14 04:43,-115.0343,36.2362,570.00,87.80,62.60,43.07,330.00,8.00,0.00,29.94,1010.60,10.00,M,SCT,M,M,M,13000.00,M,M,M,M,M,M,M,M,M,M,88.48,KLSV 140443Z AUTO 33008KT 10SM SCT130 31/17 A2994 RMK AO2 LTG DSNT SE-S AND W RAE01DZB34E43 SLP106 $,M
05U,2024-07-14 04:50,-116.0051,39.6042,1811.23,77.00,42.80,29.51,60.00,8.00,0.00,30.34,M,8.00,19.00,M,M,M,M,M,M,M,M,M,M,M,M,M,M,M,77.00,K05U 140450Z AUTO 06008G19KT 8SM 25/06 A3034 RMK A01,M
P68,2024-07-14 04:53,-116.0056,39.6014,1993.00,78.00,44.00,29.90,230.00,8.00,0.00,30.32,1016.50,M,21.00,M,M,M,M,M,M,M,M,M,M,M,M,M,M,M,78.00,KP68 140453Z AUTO 23008G21KT 160V250 26/07 A3032 RMK AO1 SLP165 T02560067,M
DRA,2024-07-14 04:53,-116.0278,36.6206,1009.00,81.00,56.00,42.34,70.00,6.00,0.00,30.11,1013.70,10.00,M,CLR,M,M,M,M,M,M,M,M,M,M,M,M,M,M,80.88,KDRA 140453Z AUTO 07006KT 10SM CLR 27/13 A3011 RMK AO2 SLP137 T02720133,M
ELY,2024-07-14 04:53,-114.8453,39.2950,1909.00,67.00,45.00,45.04,300.00,6.00,0.00,30.36,1016.80,10.00,M,CLR,M,M,M,M,M,M,M,M,M,M,M,M,M,M,67.00,KELY 140453Z AUTO 30006KT 10SM CLR 19/07 A3036 RMK AO2 SLP168 T01940072,M
VGT,2024-07-14 04:53,-115.1933,36.2111,667.00,88.00,60.00,39.03,310.00,13.00,0.00,29.99,1014.20,10.00,23.00,FEW,SCT,M,M,9000.00,11000.00,M,M,M,M,M,M,26.00,320.00,2024-07-14 04:23,87.65,KVGT 140453Z AUTO 31013G23KT 10SM FEW090 SCT110 31/16 A2999 RMK AO2 PK WND 32026/0423 LTG DSNT N-SE TSE00B32E47 SLP142 T03110156,M
LOL,2024-07-14 04:53,-118.5701,40.0684,1192.43,88.00,42.00,20.03,M,M,0.00,30.14,1014.90,10.00,M,FEW,M,M,M,10000.00,M,M,M,M,M,M,M,36.00,330.00,2024-07-14 04:00,84.52,KLOL 140453Z AUTO 10SM FEW100 31/06 A3014 RMK AO2 PK WND 33036/0400 PRESRR SLP149 T03110056,M
BVU,2024-07-14 04:55,-114.8611,35.9475,671.00,87.80,57.20,35.53,310.00,13.00,0.00,29.98,M,10.00,M,FEW,SCT,SCT,M,3400.00,5000.00,7500.00,M,VCTS,M,M,M,M,M,M,86.58,KBVU 140455Z AUTO 31013KT 10SM VCTS FEW034 SCT050 SCT075 31/14 A2998 RMK AO2 LTG DSNT ALQDS,M
CXP,2024-07-14 04:55,-119.7326,39.1923,1431.00,77.00,46.40,33.85,60.00,4.00,0.00,30.23,M,10.00,M,FEW,M,M,M,12000.00,M,M,M,M,M,M,M,M,M,M,77.00,KCXP 140455Z AUTO 06004KT 10SM FEW120 25/08 A3023 RMK AO2,M
RNO,2024-07-14 04:55,-119.7711,39.4839,1341.00,82.00,46.00,28.30,190.00,9.00,0.00,30.20,1015.90,10.00,M,SCT,BKN,BKN,M,8000.00,14000.00,18000.00,M,M,M,M,M,M,M,M,80.36,KRNO 140455Z 19009KT 10SM SCT080 BKN140 BKN180 28/08 A3020 RMK AO2 SLP159 T02780078 $,M
RTS,2024-07-14 04:55,-119.8764,39.6682,1539.00,77.00,42.80,29.51,70.00,8.00,0.00,30.24,M,10.00,M,FEW,M,M,M,11000.00,M,M,M,M,M,M,M,M,M,M,77.00,KRTS 140455Z AUTO 07008KT 10SM FEW110 25/06 A3024 RMK AO2,M
MEV,2024-07-14 04:55,-119.7500,38.9963,1441.42,69.80,50.00,49.37,180.00,6.00,0.00,30.22,M,10.00,M,FEW,SCT,BKN,M,4300.00,6000.00,8000.00,M,M,M,M,M,M,M,M,69.80,KMEV 140455Z AUTO 18006KT 10SM FEW043 SCT060 BKN080 21/10 A3022 RMK AO2,M
BAM,2024-07-14 04:55,-116.8743,40.5990,1382.36,91.40,39.20,16.15,60.00,3.00,0.00,30.16,M,10.00,26.00,SCT,BKN,OVC,M,5500.00,9000.00,11000.00,M,M,M,M,M,M,M,M,87.30,KBAM 140455Z AUTO 06003G26KT 10SM SCT055 BKN090 OVC110 33/04 A3016 RMK AO1,M
HTH,2024-07-14 04:55,-118.6315,38.5448,1282.89,71.60,60.80,68.75,120.00,7.00,0.00,30.25,M,7.00,M,M,M,M,M,M,M,M,M,M,M,M,M,M,M,M,71.60,KHTH 140455Z AUTO 12007KT 7SM 22/16 A3025 RMK A01,M
TMT,2024-07-14 04:55,-117.1971,39.4643,1749.34,73.00,43.50,34.65,190.00,7.00,0.00,30.31,M,10.00,M,SCT,M,M,M,12000.00,M,M,M,M,M,M,M,M,M,M,73.00,KTMT 140455Z AUTO 19007KT 10SM SCT120 23/06 A3031 RMK AO2 T02270064,M
INS,2024-07-14 04:55,-115.6733,36.5872,955.00,86.00,51.00,30.00,90.00,13.00,0.00,30.12,1013.70,10.00,M,FEW,SCT,BKN,OVC,9000.00,13000.00,15000.00,20000.00,M,M,M,M,M,M,M,83.75,KINS 140455Z AUTO 09013KT 10SM FEW090 SCT130 BKN150 OVC200 30/11 A3012 RMK AO2 SLP137 T03010106 $,M
LSV,2024-07-14 04:55,-115.0343,36.2362,570.00,89.80,58.50,34.95,320.00,8.00,T,29.93,1010.20,10.00,M,BKN,M,M,M,13000.00,M,M,M,M,M,M,M,M,M,M,88.89,KLSV 140455Z AUTO 32008KT 10SM BKN130 32/15 A2993 RMK AO2 LTG DSNT NW-N RAE01DZB34E43 SLP102 P0000 T03210147 $,M
EKO,2024-07-14 04:56,-115.7860,40.8242,1367.00,82.00,45.00,27.24,180.00,15.00,0.00,30.20,1015.20,10.00,24.00,CLR,M,M,M,M,M,M,M,M,M,M,M,28.00,170.00,2024-07-14 04:34,80.28,KEKO 140456Z AUTO 18015G24KT 10SM CLR 28/07 A3020 RMK AO2 PK WND 17028/0434 SLP152 T02780072,M
WMC,2024-07-14 04:56,-117.8072,40.9019,1315.00,91.00,38.00,15.60,340.00,12.00,T,30.11,1012.80,10.00,M,CLR,M,M,M,M,M,M,M,M,M,M,M,32.00,290.00,2024-07-14 04:07,86.90,KWMC 140456Z AUTO 34012KT 10SM CLR 33/03 A3011 RMK AO2 PK WND 29032/0407 RAE20 SLP128 P0000 T03280033,M
NFL,2024-07-14 04:56,-118.7010,39.4166,1199.00,85.00,47.00,26.67,180.00,9.00,0.00,30.18,1018.30,10.00,M,SCT,OVC,M,M,9000.00,12000.00,M,M,M,M,M,M,M,M,M,82.51,KNFL 140456Z AUTO 18009KT 10SM SCT090 OVC120 29/08 A3018 RMK AO2 SLP183 T02940083,M
HND,2024-07-14 04:56,-115.1344,35.9729,742.79,80.00,71.00,74.06,160.00,6.00,0.04,30.05,1015.90,10.00,M,CLR,M,M,M,M,M,M,M,VCTS,M,M,M,M,M,M,83.46,KHND 140456Z AUTO 16006KT 10SM VCTS CLR 27/22 A3005 RMK AO2 LTG DSNT N-SE TSB55RAE31 SLP159 P0004 T02670217,M
TPH,2024-07-14 04:56,-117.0904,38.0505,1654.00,76.00,49.00,38.59,280.00,6.00,0.00,30.33,1017.50,10.00,16.00,FEW,SCT,OVC,M,6000.00,9000.00,11000.00,M,M,M,M,M,M,M,M,76.00,KTPH 140456Z AUTO 28006G16KT 10SM FEW060 SCT090 OVC110 24/09 A3033 RMK AO2 SLP175 T02440094,M
LAS,2024-07-14 04:56,-115.1634,36.0719,663.00,90.00,58.00,34.11,330.00,15.00,0.01,30.01,1012.80,10.00,24.00,FEW,SCT,BKN,M,4800.00,7000.00,9000.00,M,M,M,M,M,M,M,M,88.92,KLAS 140456Z 33015G24KT 10SM FEW048 SCT070 BKN090 32/14 A3001 RMK AO2 LTG DSNT N AND SE AND S RAE34 TSE51 SLP128 P0001 T03220144 $,M
BVU,2024-07-14 05:15,-114.8611,35.9475,671.00,87.80,55.40,33.29,300.00,13.00,0.00,29.99,M,10.00,M,CLR,M,M,M,M,M,M,M,M,M,M,M,M,M,M,86.11,KBVU 140515Z AUTO 30013KT 10SM CLR 31/13 A2999 RMK AO2,M
CXP,2024-07-14 05:15,-119.7326,39.1923,1431.00,77.00,46.40,33.85,160.00,3.00,0.00,30.24,M,10.00,M,FEW,BKN,M,M,8000.00,12000.00,M,M,M,M,M,M,M,M,M,77.00,KCXP 140515Z AUTO 16003KT 10SM FEW080 BKN120 25/08 A3024 RMK AO2,M
RTS,2024-07-14 05:15,-119.8764,39.6682,1539.00,77.00,41.00,27.53,120.00,8.00,0.00,30.26,M,10.00,M,BKN,M,M,M,10000.00,M,M,M,M,M,M,M,M,M,M,77.00,KRTS 140515Z AUTO 12008KT 10SM BKN100 25/05 A3026 RMK AO2,M
05U,2024-07-14 05:15,-116.0051,39.6042,1811.23,80.60,39.20,22.81,280.00,7.00,0.00,30.34,M,10.00,14.00,M,M,M,M,M,M,M,M,M,M,M,M,M,M,M,79.10,K05U 140515Z AUTO 28007G14KT 240V300 10SM 27/04 A3034 RMK A01,M
MEV,2024-07-14 05:15,-119.7500,38.9963,1441.42,71.60,50.00,46.43,140.00,8.00,0.00,30.24,M,10.00,M,FEW,FEW,SCT,M,3700.00,6000.00,10000.00,M,M,M,M,M,M,M,M,71.60,KMEV 140515Z AUTO 14008KT 10SM FEW037 FEW060 SCT100 22/10 A3024 RMK AO2,M
BAM,2024-07-14 05:15,-116.8743,40.5990,1382.36,89.60,41.00,18.33,90.00,10.00,0.00,30.15,M,10.00,20.00,SCT,SCT,SCT,M,7500.00,8500.00,11000.00,M,M,M,M,M,M,M,M,85.82,KBAM 140515Z AUTO 09010G20KT 10SM SCT075 SCT085 SCT110 32/05 A3015 RMK AO1,M
HTH,2024-07-14 05:15,-118.6315,38.5448,1282.89,71.60,60.80,68.75,130.00,8.00,0.00,30.26,M,10.00,M,FEW,SCT,BKN,M,4100.00,6000.00,7500.00,M,M,M,M,M,M,M,M,71.60,KHTH 140515Z AUTO 13008KT 10SM FEW041 SCT060 BKN075 22/16 A3026 RMK A01,M
TMT,2024-07-14 05:15,-117.1971,39.4643,1749.34,73.80,43.50,33.73,170.00,6.00,0.00,30.31,M,10.00,M,BKN,M,M,M,12000.00,M,M,M,M,M,M,M,M,M,M,73.80,KTMT 140515Z AUTO 17006KT 10SM BKN120 23/06 A3031 RMK AO2 T02320064,M
HND,2024-07-14 05:16,-115.1344,35.9729,742.79,80.60,69.80,69.71,150.00,6.00,0.00,30.06,M,10.00,M,CLR,M,M,M,M,M,M,M,M,M,M,M,M,M,M,83.90,KHND 140516Z AUTO 15006KT 10SM CLR 27/21 A3006 RMK AO2 TSE10,M
BVU,2024-07-14 05:35,-114.8611,35.9475,671.00,89.60,53.60,29.45,320.00,12.00,0.00,29.98,M,10.00,M,CLR,M,M,M,M,M,M,M,M,M,M,M,M,M,M,87.36,KBVU 140535Z AUTO 32012KT 10SM CLR 32/12 A2998 RMK AO2,M
CXP,2024-07-14 05:35,-119.7326,39.1923,1431.00,75.20,46.40,35.94,0.00,0.00,0.00,30.26,M,10.00,M,FEW,M,M,M,12000.00,M,M,M,M,M,M,M,M,M,M,75.20,KCXP 140535Z AUTO 00000KT 10SM FEW120 24/08 A3026 RMK AO2,M
RTS,2024-07-14 05:35,-119.8764,39.6682,1539.00,77.00,44.60,31.62,260.00,15.00,0.00,30.26,M,10.00,25.00,FEW,SCT,OVC,M,5500.00,8000.00,11000.00,M,M,M,M,M,M,M,M,77.00,KRTS 140535Z AUTO 26015G25KT 10SM FEW055 SCT080 OVC110 25/07 A3026 RMK AO2,M
05U,2024-07-14 05:35,-116.0051,39.6042,1811.23,78.80,41.00,25.95,0.00,0.00,0.00,30.33,M,10.00,M,M,M,M,M,M,M,M,M,M,M,M,M,M,M,M,78.80,K05U 140535Z AUTO 00000KT 10SM 26/05 A3033 RMK A01,M
MEV,2024-07-14 05:35,-119.7500,38.9963,1441.42,69.80,50.00,49.37,210.00,4.00,0.00,30.24,M,10.00,M,CLR,M,M,M,M,M,M,M,M,M,M,M,M,M,M,69.80,KMEV 140535Z AUTO 21004KT 10SM CLR 21/10 A3024 RMK AO2,M
BAM,2024-07-14 05:35,-116.8743,40.5990,1382.36,89.60,41.00,18.33,210.00,12.00,0.00,30.16,M,10.00,20.00,CLR,M,M,M,M,M,M,M,M,M,M,M,M,M,M,85.82,KBAM 140535Z AUTO 21012G20KT 10SM CLR 32/05 A3016 RMK AO1,M
HTH,2024-07-14 05:35,-118.6315,38.5448,1282.89,73.40,59.00,60.67,240.00,5.00,0.00,30.26,M,10.00,M,FEW,SCT,OVC,M,6000.00,7500.00,12000.00,M,M,M,M,M,M,M,M,73.40,KHTH 140535Z AUTO 24005KT 10SM FEW060 SCT075 OVC120 23/15 A3026 RMK A01,M
TMT,2024-07-14 05:35,-117.1971,39.4643,1749.34,74.70,45.00,34.66,220.00,15.00,0.00,30.34,M,10.00,19.00,OVC,M,M,M,12000.00,M,M,M,M,M,M,M,M,M,M,74.70,KTMT 140535Z AUTO 22015G19KT 10SM OVC120 24/07 A3034 RMK AO2 T02370072,M
HND,2024-07-14 05:47,-115.1344,35.9729,742.79,82.40,64.40,54.55,0.00,0.00,0.00,30.06,M,10.00,M,CLR,M,M,M,M,M,M,M,VCTS,M,M,M,M,M,M,83.98,KHND 140547Z AUTO 00000KT 10SM VCTS CLR 28/18 A3006 RMK AO2 TSE10B41,M
LSV,2024-07-14 05:48,-115.0343,36.2362,570.00,86.00,64.40,48.58,200.00,14.00,0.00,29.97,1011.70,10.00,M,FEW,M,M,M,18000.00,M,M,M,TS,M,M,M,M,M,M,87.49,KLSV 140548Z AUTO 20014KT 10SM TS FEW180 30/18 A2997 RMK AO2 TSB48 SLP117 $,M
LAS,2024-07-14 05:49,-115.1634,36.0719,663.00,88.00,63.00,43.40,110.00,4.00,0.00,30.03,M,10.00,M,FEW,SCT,BKN,M,4800.00,7000.00,9000.00,M,TS,M,M,M,M,M,M,88.86,KLAS 140549Z 11004KT 10SM TS FEW048CB SCT070 BKN090 31/17 A3003 RMK AO2 TSE41B47 OCNL LGTIC OHD MOV N TS OHD MOV N T03110172 $,M
P68,2024-07-14 05:53,-116.0056,39.6014,1993.00,78.00,42.00,27.69,190.00,8.00,0.00,30.30,1015.40,M,M,M,M,M,M,M,M,M,M,M,M,M,M,M,M,M,78.00,KP68 140553Z AUTO 19008KT 26/06 A3030 RMK AO1 SLP154 T02560056 10339 20250 50002,M
DRA,2024-07-14 05:53,-116.0278,36.6206,1009.00,83.00,53.00,35.56,20.00,4.00,0.00,30.12,1013.80,10.00,M,CLR,M,M,M,M,M,M,M,M,M,M,M,M,M,M,81.78,KDRA 140553Z AUTO 02004KT 10SM CLR 28/12 A3012 RMK AO2 SLP138 60001 T02830117 10350 20267 51012,M
ELY,2024-07-14 05:53,-114.8453,39.2950,1909.00,65.00,44.00,46.47,280.00,4.00,0.00,30.36,1016.50,10.00,M,CLR,M,M,M,M,M,M,M,M,M,M,M,M,M,M,65.00,KELY 140553Z AUTO 28004KT 10SM CLR 18/07 A3036 RMK AO2 SLP165 60000 T01830067 10294 20183 56001,M
VGT,2024-07-14 05:53,-115.1933,36.2111,667.00,89.00,57.00,33.96,320.00,12.00,0.00,30.01,1014.70,10.00,M,CLR,M,M,M,M,M,M,M,VCTS,M,M,M,M,M,M,87.64,KVGT 140553Z AUTO 32012KT 10SM VCTS CLR 32/14 A3001 RMK AO2 LTG DSNT SE SLP147 60008 T03170139 10411 20278 53015,M
LOL,2024-07-14 05:53,-118.5701,40.0684,1192.43,82.00,47.00,29.39,220.00,11.00,0.00,30.14,1014.90,10.00,M,CLR,M,M,M,M,M,M,M,M,M,M,M,27.00,240.00,2024-07-14 05:21,80.44,KLOL 140553Z AUTO 22011KT 10SM CLR 28/08 A3014 RMK AO2 PK WND 24027/0521 SLP149 60000 T02780083 10406 20278 50029,M
BVU,2024-07-14 05:55,-114.8611,35.9475,671.00,89.60,51.80,27.56,350.00,9.00,0.00,29.98,M,10.00,M,CLR,M,M,M,M,M,M,M,M,M,M,M,M,M,M,87.00,KBVU 140555Z AUTO 35009KT 10SM CLR 32/11 A2998 RMK AO2 LTG DSNT N AND NW,M
CXP,2024-07-14 05:55,-119.7326,39.1923,1431.00,75.20,46.40,35.94,0.00,0.00,0.00,30.26,M,10.00,M,CLR,M,M,M,M,M,M,M,M,M,M,M,M,M,M,75.20,KCXP 140555Z AUTO 00000KT 10SM CLR 24/08 A3026 RMK AO2,M
RNO,2024-07-14 05:55,-119.7711,39.4839,1341.00,81.00,46.00,29.23,30.00,5.00,0.00,30.20,1015.80,10.00,M,SCT,BKN,BKN,M,11000.00,14000.00,18000.00,M,M,M,M,M,M,M,M,79.76,KRNO 140555Z 03005KT 10SM SCT110 BKN140 BKN180 27/08 A3020 RMK AO2 SLP158 60000 T02720078 10317 20272 51012 $,M
RTS,2024-07-14 05:55,-119.8764,39.6682,1539.00,77.00,44.60,31.62,360.00,9.00,0.00,30.24,M,10.00,M,FEW,SCT,BKN,M,2400.00,7000.00,11000.00,M,M,M,M,M,M,M,M,77.00,KRTS 140555Z AUTO 36009KT 10SM FEW024 SCT070 BKN110 25/07 A3024 RMK AO2,M
05U,2024-07-14 05:55,-116.0051,39.6042,1811.23,77.00,41.00,27.53,350.00,6.00,0.00,30.33,M,10.00,M,M,M,M,M,M,M,M,M,M,M,M,M,M,M,M,77.00,K05U 140555Z AUTO 35006KT 10SM 25/05 A3033 RMK A01,M
MEV,2024-07-14 05:55,-119.7500,38.9963,1441.42,69.80,50.00,49.37,330.00,6.00,0.00,30.24,M,10.00,M,FEW,FEW,SCT,M,3900.00,4700.00,5500.00,M,M,M,M,M,M,M,M,69.80,KMEV 140555Z AUTO 33006KT 10SM FEW039 FEW047 SCT055 21/10 A3024 RMK AO2,M
BAM,2024-07-14 05:55,-116.8743,40.5990,1382.36,87.80,42.80,20.79,210.00,18.00,0.00,30.17,M,10.00,28.00,CLR,M,M,M,M,M,M,M,M,M,M,M,M,M,M,84.40,KBAM 140555Z AUTO 21018G28KT 10SM CLR 31/06 A3017 RMK AO1,M
HTH,2024-07-14 05:55,-118.6315,38.5448,1282.89,73.40,60.80,64.69,0.00,0.00,0.00,30.26,M,10.00,M,BKN,M,M,M,12000.00,M,M,M,M,M,M,M,M,M,M,73.40,KHTH 140555Z AUTO 00000KT 10SM BKN120 23/16 A3026 RMK A01,M
TMT,2024-07-14 05:55,-117.1971,39.4643,1749.34,73.00,50.00,44.29,210.00,19.00,0.00,30.35,M,10.00,25.00,OVC,M,M,M,11000.00,M,M,M,M,M,M,M,M,M,M,73.00,KTMT 140555Z AUTO 21019G25KT 10SM OVC110 23/10 A3035 RMK AO2 T02280099 10303 20225,M
INS,2024-07-14 05:55,-115.6733,36.5872,955.00,84.70,52.30,32.81,190.00,4.00,0.00,30.11,1013.30,10.00,M,CLR,M,M,M,M,M,M,M,M,M,M,M,M,M,M,82.93,KINS 140555Z AUTO 19004KT 10SM CLR 29/11 A3011 RMK AO2 SLP133 60016 T02930113 10374 20280 53003 $,M
LSV,2024-07-14 05:55,-115.0343,36.2362,570.00,84.60,65.00,51.89,230.00,17.00,0.00,29.97,1011.70,10.00,M,FEW,FEW,M,M,13000.00,17000.00,M,M,TS,M,M,M,M,M,M,86.36,KLSV 140555Z AUTO 23017KT 10SM TS FEW130 FEW170 29/18 A2997 RMK AO2 TSB48 SLP117 60009 T02920183 10413 20287 52018 $,M
EKO,2024-07-14 05:56,-115.7860,40.8242,1367.00,79.00,46.00,31.21,M,4.00,0.00,30.22,1015.80,10.00,M,CLR,M,M,M,M,M,M,M,M,M,M,M,M,M,M,79.00,KEKO 140556Z AUTO VRB04KT 10SM CLR 26/08 A3022 RMK AO2 SLP158 T02610078 10361 20256 51019,M
WMC,2024-07-14 05:56,-117.8072,40.9019,1315.00,85.00,37.00,18.14,250.00,8.00,T,30.12,1013.10,10.00,M,CLR,M,M,M,M,M,M,M,-RA,M,M,M,M,M,M,81.96,KWMC 140556Z AUTO 25008KT 10SM -RA CLR 29/03 A3012 RMK AO2 RAB20E29B53 SLP131 P0000 60000 T02940028 10394 20289 51030,M
NFL,2024-07-14 05:56,-118.7010,39.4166,1199.00,82.00,49.00,31.68,160.00,13.00,0.00,30.18,1018.40,10.00,21.00,BKN,OVC,M,M,9000.00,11000.00,M,M,M,M,M,M,27.00,170.00,2024-07-14 05:09,80.62,KNFL 140556Z AUTO 16013G21KT 10SM BKN090 OVC110 28/09 A3018 RMK AO2 PK WND 17027/0509 SLP184 T02780094 10389 20267 51035,M
HND,2024-07-14 05:56,-115.1344,35.9729,742.79,82.00,67.00,60.49,150.00,4.00,0.00,30.06,1015.90,10.00,M,CLR,M,M,M,M,M,M,M,M,M,M,M,M,M,M,84.52,KHND 140556Z AUTO 15004KT 10SM CLR 28/19 A3006 RMK AO2 LTG DSNT N TSE10B41E56 SLP159 60008 T02780194 10389 20256 51014,M
TPH,2024-07-14 05:56,-117.0904,38.0505,1654.00,73.00,48.00,41.10,250.00,5.00,T,30.30,1016.70,10.00,M,FEW,M,M,M,11000.00,M,M,M,M,M,M,M,M,M,M,73.00,KTPH 140556Z AUTO 25005KT 10SM FEW110 23/09 A3030 RMK AO2 RAB02E14 SLP167 P0000 60000 T02280089 10289 20228 50008,M
LAS,2024-07-14 05:56,-115.1634,36.0719,663.00,88.00,63.00,43.40,210.00,4.00,0.00,30.02,1013.40,10.00,M,FEW,SCT,BKN,M,4800.00,7000.00,9000.00,M,TS,M,M,M,M,M,M,88.86,KLAS 140556Z 21004KT 10SM TS FEW048CB SCT070 BKN090 31/17 A3002 RMK AO2 TSE41B47 SLP134 OCNL LGTIC OHD MOV N TS OHD MOV N 60007 T03110172 10389 20300 53015 $,M
LSV,2024-07-14 06:03,-115.0343,36.2362,570.00,86.00,62.60,45.61,310.00,6.00,0.00,29.95,1010.90,10.00,M,FEW,M,M,M,14000.00,M,M,M,M,M,M,M,M,M,M,86.72,KLSV 140603Z AUTO 31006KT 10SM FEW140 30/17 A2995 RMK AO2 LTG DSNT N TSE03 PRESFR SLP109 $,M
LAS,2024-07-14 06:07,-115.1634,36.0719,663.00,87.00,64.00,46.40,0.00,0.00,0.00,30.01,M,10.00,M,FEW,SCT,BKN,M,4800.00,7000.00,9000.00,M,M,M,M,M,M,M,M,88.32,KLAS 140607Z 00000KT 10SM FEW048 SCT070 BKN090 31/18 A3001 RMK AO2 TSE01 LGT DSNT NE-SE T03060178 $,M
VGT,2024-07-14 06:12,-115.1933,36.2111,667.00,90.00,57.00,32.91,10.00,9.00,0.00,30.01,M,10.00,M,CLR,M,M,M,M,M,M,M,M,M,M,M,M,M,M,88.61,KVGT 140612Z AUTO 01009KT 10SM CLR 32/14 A3001 RMK AO2 T03220139,M
BVU,2024-07-14 06:15,-114.8611,35.9475,671.00,87.80,57.20,35.53,100.00,5.00,0.00,30.00,M,10.00,M,CLR,M,M,M,M,M,M,M,M,M,M,M,M,M,M,86.58,KBVU 140615Z AUTO 10005KT 10SM CLR 31/14 A3000 RMK AO2,M
CXP,2024-07-14 06:15,-119.7326,39.1923,1431.00,75.20,46.40,35.94,0.00,0.00,0.00,30.25,M,10.00,M,CLR,M,M,M,M,M,M,M,M,M,M,M,M,M,M,75.20,KCXP 140615Z AUTO 00000KT 10SM CLR 24/08 A3025 RMK AO2,M
RTS,2024-07-14 06:15,-119.8764,39.6682,1539.00,77.00,42.80,29.51,40.00,4.00,0.00,30.26,M,10.00,M,FEW,FEW,SCT,M,5000.00,8000.00,11000.00,M,M,M,M,M,M,M,M,77.00,KRTS 140615Z AUTO 04004KT 10SM FEW050 FEW080 SCT110 25/06 A3026 RMK AO2,M
05U,2024-07-14 06:15,-116.0051,39.6042,1811.23,78.80,42.80,27.81,340.00,8.00,0.00,30.32,M,10.00,13.00,M,M,M,M,M,M,M,M,M,M,M,M,M,M,M,78.80,K05U 140615Z AUTO 34008G13KT 10SM 26/06 A3032 RMK A01,M
MEV,2024-07-14 06:15,-119.7500,38.9963,1441.42,68.00,50.00,52.51,360.00,6.00,0.00,30.24,M,10.00,M,BKN,BKN,BKN,M,4100.00,4700.00,5500.00,M,M,M,M,M,M,M,M,68.00,KMEV 140615Z AUTO 36006KT 10SM BKN041 BKN047 BKN055 20/10 A3024 RMK AO2,M
BAM,2024-07-14 06:15,-116.8743,40.5990,1382.36,87.80,42.80,20.79,220.00,16.00,0.00,30.16,M,10.00,23.00,CLR,M,M,M,M,M,M,M,M,M,M,M,M,M,M,84.40,KBAM 140615Z AUTO 22016G23KT 10SM CLR 31/06 A3016 RMK AO1,M
HTH,2024-07-14 06:15,-118.6315,38.5448,1282.89,73.40,57.20,56.88,0.00,0.00,0.00,30.26,M,10.00,M,SCT,BKN,M,M,9500.00,12000.00,M,M,M,M,M,M,M,M,M,73.40,KHTH 140615Z AUTO 00000KT 10SM SCT095 BKN120 23/14 A3026 RMK A01,M
TMT,2024-07-14 06:15,-117.1971,39.4643,1749.34,71.80,50.40,46.81,210.00,14.00,0.00,30.35,M,10.00,20.00,OVC,M,M,M,11000.00,M,M,M,M,M,M,M,M,M,M,71.80,KTMT 140615Z AUTO 21014G20KT 10SM OVC110 22/10 A3035 RMK AO2 T02210102,M
BVU,2024-07-14 06:35,-114.8611,35.9475,671.00,86.00,57.20,37.62,0.00,0.00,0.00,30.00,M,10.00,M,CLR,M,M,M,M,M,M,M,M,M,M,M,M,M,M,84.97,KBVU 140635Z AUTO 00000KT 10SM CLR 30/14 A3000 RMK AO2,M
CXP,2024-07-14 06:35,-119.7326,39.1923,1431.00,73.40,46.40,38.18,M,3.00,0.00,30.25,M,10.00,M,CLR,M,M,M,M,M,M,M,M,M,M,M,M,M,M,73.40,KCXP 140635Z AUTO VRB03KT 10SM CLR 23/08 A3025 RMK AO2,M
RTS,2024-07-14 06:35,-119.8764,39.6682,1539.00,77.00,44.60,31.62,80.00,6.00,0.00,30.26,M,10.00,M,CLR,M,M,M,M,M,M,M,M,M,M,M,M,M,M,77.00,KRTS 140635Z AUTO 08006KT 10SM CLR 25/07 A3026 RMK AO2,M
05U,2024-07-14 06:35,-116.0051,39.6042,1811.23,75.20,42.80,31.34,340.00,9.00,0.00,30.32,M,10.00,M,M,M,M,M,M,M,M,M,M,M,M,M,M,M,M,75.20,K05U 140635Z AUTO 34009KT 10SM 24/06 A3032 RMK A01,M
MEV,2024-07-14 06:35,-119.7500,38.9963,1441.42,69.80,48.20,46.16,340.00,5.00,0.00,30.23,M,10.00,M,FEW,SCT,BKN,M,2900.00,3400.00,4000.00,M,M,M,M,M,M,M,M,69.80,KMEV 140635Z AUTO 34005KT 10SM FEW029 SCT034 BKN040 21/09 A3023 RMK AO2,M
BAM,2024-07-14 06:35,-116.8743,40.5990,1382.36,86.00,44.60,23.59,220.00,15.00,0.00,30.16,M,10.00,M,CLR,M,M,M,M,M,M,M,M,M,M,M,M,M,M,83.07,KBAM 140635Z AUTO 22015KT 10SM CLR 30/07 A3016 RMK AO1,M
HTH,2024-07-14 06:35,-118.6315,38.5448,1282.89,73.40,60.80,64.69,130.00,4.00,0.00,30.26,M,10.00,M,SCT,BKN,OVC,M,6000.00,7500.00,11000.00,M,M,M,M,M,M,M,M,73.40,KHTH 140635Z AUTO 13004KT 10SM SCT060 BKN075 OVC110 23/16 A3026 RMK A01,M
TMT,2024-07-14 06:35,-117.1971,39.4643,1749.34,70.50,51.00,50.03,230.00,12.00,0.00,30.35,M,10.00,16.00,BKN,M,M,M,11000.00,M,M,M,M,M,M,M,M,M,M,70.50,KTMT 140635Z AUTO 23012G16KT 10SM BKN110 21/11 A3035 RMK AO2 T02140105,M
P68,2024-07-14 06:53,-116.0056,39.6014,1993.00,75.00,44.00,33.03,180.00,13.00,0.00,30.30,1015.20,M,M,M,M,M,M,M,M,M,M,M,M,M,M,M,M,M,75.00,KP68 140653Z AUTO 18013KT 24/07 A3030 RMK AO1 SLP152 T02390067,M
DRA,2024-07-14 06:53,-116.0278,36.6206,1009.00,78.00,58.00,50.22,100.00,10.00,0.00,30.11,1013.60,10.00,M,CLR,M,M,M,M,M,M,M,M,M,M,M,M,M,M,78.00,KDRA 140653Z AUTO 10010KT 10SM CLR 26/14 A3011 RMK AO2 SLP136 T02560144,M
ELY,2024-07-14 06:53,-114.8453,39.2950,1909.00,60.00,46.00,59.80,160.00,7.00,0.00,30.36,1017.20,10.00,M,CLR,M,M,M,M,M,M,M,M,M,M,M,M,M,M,60.00,KELY 140653Z AUTO 16007KT 10SM CLR 16/08 A3036 RMK AO2 SLP172 T01560078,M
VGT,2024-07-14 06:53,-115.1933,36.2111,667.00,88.00,58.00,36.34,320.00,16.00,0.00,29.99,1013.80,10.00,23.00,CLR,M,M,M,M,M,M,M,M,M,M,M,M,M,M,86.99,KVGT 140653Z AUTO 32016G23KT 10SM CLR 31/14 A2999 RMK AO2 SLP138 T03110144,M
LOL,2024-07-14 06:53,-118.5701,40.0684,1192.43,81.00,46.00,29.23,220.00,13.00,0.00,30.14,1015.10,10.00,M,CLR,M,M,M,M,M,M,M,M,M,M,M,M,M,M,79.76,KLOL 140653Z AUTO 22013KT 10SM CLR 27/08 A3014 RMK AO2 SLP151 T02720078,M
BVU,2024-07-14 06:55,-114.8611,35.9475,671.00,84.20,59.00,42.52,0.00,0.00,0.00,30.00,M,10.00,M,CLR,M,M,M,M,M,M,M,M,M,M,M,M,M,M,83.92,KBVU 140655Z AUTO 00000KT 10SM CLR 29/15 A3000 RMK AO2,M
CXP,2024-07-14 06:55,-119.7326,39.1923,1431.00,73.40,46.40,38.18,0.00,0.00,0.00,30.25,M,10.00,M,CLR,M,M,M,M,M,M,M,M,M,M,M,M,M,M,73.40,KCXP 140655Z AUTO 00000KT 10SM CLR 23/08 A3025 RMK AO2,M
RNO,2024-07-14 06:55,-119.7711,39.4839,1341.00,79.00,49.00,34.94,80.00,5.00,0.00,30.22,1016.40,10.00,M,FEW,BKN,M,M,11000.00,18000.00,M,M,M,M,M,M,M,M,M,79.00,KRNO 140655Z 08005KT 10SM FEW110 BKN180 26/09 A3022 RMK AO2 SLP164 T02610094 $,M
RTS,2024-07-14 06:55,-119.8764,39.6682,1539.00,77.00,42.80,29.51,M,3.00,0.00,30.27,M,10.00,M,CLR,M,M,M,M,M,M,M,M,M,M,M,M,M,M,77.00,KRTS 140655Z AUTO VRB03KT 10SM CLR 25/06 A3027 RMK AO2,M
05U,2024-07-14 06:55,-116.0051,39.6042,1811.23,75.20,42.80,31.34,340.00,11.00,0.00,30.32,M,10.00,M,M,M,M,M,M,M,M,M,M,M,M,M,M,M,M,75.20,K05U 140655Z AUTO 34011KT 10SM 24/06 A3032 RMK A01,M
MEV,2024-07-14 06:55,-119.7500,38.9963,1441.42,69.80,48.20,46.16,10.00,4.00,0.00,30.23,M,10.00,M,SCT,BKN,BKN,M,3500.00,4200.00,4700.00,M,M,M,M,M,M,M,M,69.80,KMEV 140655Z AUTO 01004KT 10SM SCT035 BKN042 BKN047 21/09 A3023 RMK AO2,M
BAM,2024-07-14 06:55,-116.8743,40.5990,1382.36,86.00,44.60,23.59,220.00,15.00,0.00,30.17,M,10.00,20.00,CLR,M,M,M,M,M,M,M,M,M,M,M,M,M,M,83.07,KBAM 140655Z AUTO 22015G20KT 10SM CLR 30/07 A3017 RMK AO1,M
HTH,2024-07-14 06:55,-118.6315,38.5448,1282.89,75.20,57.20,53.55,0.00,0.00,0.00,30.24,M,10.00,M,FEW,BKN,BKN,M,6500.00,7500.00,9000.00,M,M,M,M,M,M,M,M,75.20,KHTH 140655Z AUTO 00000KT 10SM FEW065 BKN075 BKN090 24/14 A3024 RMK A01,M
TMT,2024-07-14 06:55,-117.1971,39.4643,1749.34,70.30,51.00,50.37,230.00,12.00,0.00,30.35,M,10.00,M,SCT,M,M,M,11000.00,M,M,M,M,M,M,M,M,M,M,70.30,KTMT 140655Z AUTO 23012KT 10SM SCT110 21/11 A3035 RMK AO2 T02130105,M
INS,2024-07-14 06:55,-115.6733,36.5872,955.00,80.40,56.50,43.97,260.00,8.00,0.00,30.10,1013.10,10.00,M,CLR,M,M,M,M,M,M,M,M,M,M,M,M,M,M,80.57,KINS 140655Z AUTO 26008KT 10SM CLR 27/14 A3010 RMK AO2 SLP131 T02690136 $,M
LSV,2024-07-14 06:55,-115.0343,36.2362,570.00,85.30,64.00,48.99,120.00,7.00,0.00,29.94,1010.60,10.00,M,CLR,M,M,M,M,M,M,M,M,M,M,M,M,M,M,86.62,KLSV 140655Z AUTO 12007KT 10SM CLR 30/18 A2994 RMK AO2 TSE03 SLP106 T02960177 $,M
EKO,2024-07-14 06:56,-115.7860,40.8242,1367.00,80.00,46.00,30.20,280.00,8.00,0.00,30.22,1015.40,10.00,M,CLR,M,M,M,M,M,M,M,M,M,M,M,M,M,M,79.20,KEKO 140656Z AUTO 28008KT 10SM CLR 27/08 A3022 RMK AO2 SLP154 T02670078,M
WMC,2024-07-14 06:56,-117.8072,40.9019,1315.00,85.00,38.00,18.87,360.00,4.00,T,30.13,1013.40,10.00,M,CLR,M,M,M,M,M,M,M,-RA,M,M,M,M,M,M,81.99,KWMC 140656Z AUTO 36004KT 10SM -RA CLR 29/03 A3013 RMK AO2 RAE27B47 SLP134 P0000 T02940033,M
HND,2024-07-14 06:56,-115.1344,35.9729,742.79,81.00,66.00,60.37,200.00,7.00,0.00,30.05,1015.90,10.00,M,CLR,M,M,M,M,M,M,M,M,M,M,M,M,M,M,83.11,KHND 140656Z AUTO 20007KT 10SM CLR 27/19 A3005 RMK AO2 SLP159 T02720189 404170256,M
TPH,2024-07-14 06:56,-117.0904,38.0505,1654.00,74.00,49.00,41.26,70.00,4.00,0.00,30.32,1016.70,10.00,M,CLR,M,M,M,M,M,M,M,M,M,M,M,M,M,M,74.00,KTPH 140656Z AUTO 07004KT 10SM CLR 23/09 A3032 RMK AO2 SLP167 T02330094,M
LAS,2024-07-14 06:56,-115.1634,36.0719,663.00,86.00,62.00,44.65,160.00,7.00,0.00,30.01,1013.00,10.00,M,FEW,FEW,SCT,M,8000.00,14000.00,22000.00,M,M,M,M,M,M,M,M,86.48,KLAS 140656Z 16007KT 10SM FEW080 FEW140 SCT220 30/17 A3001 RMK AO2 TSE01 SLP130 LGT DSNT NE-SE T03000167 $,M
BVU,2024-07-14 07:15,-114.8611,35.9475,671.00,82.40,60.80,48.05,0.00,0.00,0.00,30.01,M,10.00,M,CLR,M,M,M,M,M,M,M,M,M,M,M,M,M,M,82.90,KBVU 140715Z AUTO 00000KT 10SM CLR 28/16 A3001 RMK AO2,M
CXP,2024-07-14 07:15,-119.7326,39.1923,1431.00,73.40,46.40,38.18,0.00,0.00,0.00,30.25,M,10.00,M,CLR,M,M,M,M,M,M,M,M,M,M,M,M,M,M,73.40,KCXP 140715Z AUTO 00000KT 10SM CLR 23/08 A3025 RMK AO2,M
RTS,2024-07-14 07:15,-119.8764,39.6682,1539.00,77.00,42.80,29.51,130.00,6.00,0.00,30.28,M,10.00,M,FEW,M,M,M,10000.00,M,M,M,M,M,M,M,M,M,M,77.00,KRTS 140715Z AUTO 13006KT 10SM FEW100 25/06 A3028 RMK AO2,M
05U,2024-07-14 07:15,-116.0051,39.6042,1811.23,73.40,44.60,35.66,340.00,10.00,0.00,30.32,M,10.00,M,M,M,M,M,M,M,M,M,M,M,M,M,M,M,M,73.40,K05U 140715Z AUTO 34010KT 10SM 23/07 A3032 RMK A01,M
MEV,2024-07-14 07:15,-119.7500,38.9963,1441.42,69.80,48.20,46.16,350.00,4.00,0.00,30.23,M,10.00,M,SCT,BKN,M,M,3800.00,4600.00,M,M,M,M,M,M,M,M,M,69.80,KMEV 140715Z AUTO 35004KT 10SM SCT038 BKN046 21/09 A3023 RMK AO2,M
BAM,2024-07-14 07:15,-116.8743,40.5990,1382.36,86.00,44.60,23.59,220.00,14.00,0.00,30.18,M,10.00,19.00,CLR,M,M,M,M,M,M,M,M,M,M,M,M,M,M,83.07,KBAM 140715Z AUTO 22014G19KT 10SM CLR 30/07 A3018 RMK AO1,M
HTH,2024-07-14 07:15,-118.6315,38.5448,1282.89,73.40,57.20,56.88,0.00,0.00,0.00,30.24,M,10.00,M,FEW,BKN,OVC,M,6500.00,7500.00,11000.00,M,M,M,M,M,M,M,M,73.40,KHTH 140715Z AUTO 00000KT 10SM FEW065 BKN075 OVC110 23/14 A3024 RMK A01,M
TMT,2024-07-14 07:15,-117.1971,39.4643,1749.34,70.30,51.00,50.37,230.00,10.00,0.00,30.35,M,10.00,M,BKN,M,M,M,11000.00,M,M,M,M,M,M,M,M,M,M,70.30,KTMT 140715Z AUTO 23010KT 10SM BKN110 21/11 A3035 RMK AO2 T02130105,M
BVU,2024-07-14 07:35,-114.8611,35.9475,671.00,86.00,57.20,37.62,0.00,0.00,0.00,30.01,M,10.00,M,CLR,M,M,M,M,M,M,M,M,M,M,M,M,M,M,84.97,KBVU 140735Z AUTO 00000KT 10SM CLR 30/14 A3001 RMK AO2,M
CXP,2024-07-14 07:35,-119.7326,39.1923,1431.00,73.40,46.40,38.18,0.00,0.00,0.00,30.25,M,10.00,M,CLR,M,M,M,M,M,M,M,M,M,M,M,M,M,M,73.40,KCXP 140735Z AUTO 00000KT 10SM CLR 23/08 A3025 RMK AO2,M
RTS,2024-07-14 07:35,-119.8764,39.6682,1539.00,75.20,44.60,33.57,140.00,6.00,0.00,30.27,M,10.00,M,CLR,M,M,M,M,M,M,M,M,M,M,M,M,M,M,75.20,KRTS 140735Z AUTO 14006KT 10SM CLR 24/07 A3027 RMK AO2,M
05U,2024-07-14 07:35,-116.0051,39.6042,1811.23,73.40,44.60,35.66,320.00,9.00,0.00,30.33,M,10.00,M,M,M,M,M,M,M,M,M,M,M,M,M,M,M,M,73.40,K05U 140735Z AUTO 32009KT 10SM 23/07 A3033 RMK A01,M
MEV,2024-07-14 07:35,-119.7500,38.9963,1441.42,66.20,50.00,55.88,180.00,7.00,0.00,30.23,M,10.00,M,SCT,BKN,M,M,3900.00,4500.00,M,M,M,M,M,M,M,M,M,66.20,KMEV 140735Z AUTO 18007KT 10SM SCT039 BKN045 19/10 A3023 RMK AO2,M
BAM,2024-07-14 07:35,-116.8743,40.5990,1382.36,84.20,44.60,24.99,220.00,12.00,0.00,30.17,M,10.00,17.00,CLR,M,M,M,M,M,M,M,M,M,M,M,M,M,M,81.73,KBAM 140735Z AUTO 22012G17KT 10SM CLR 29/07 A3017 RMK AO1,M
HTH,2024-07-14 07:35,-118.6315,38.5448,1282.89,73.40,59.00,60.67,90.00,5.00,0.00,30.24,M,10.00,M,FEW,SCT,OVC,M,6500.00,7500.00,11000.00,M,M,M,M,M,M,M,M,73.40,KHTH 140735Z AUTO 09005KT 10SM FEW065 SCT075 OVC110 23/15 A3024 RMK A01,M
TMT,2024-07-14 07:35,-117.1971,39.4643,1749.34,69.00,51.00,52.66,250.00,8.00,0.00,30.35,M,10.00,M,OVC,M,M,M,11000.00,M,M,M,M,M,M,M,M,M,M,69.00,KTMT 140735Z AUTO 25008KT 10SM OVC110 21/11 A3035 RMK AO2 T02050106,M
P68,2024-07-14 07:53,-116.0056,39.6014,1993.00,72.00,44.00,36.54,250.00,8.00,0.00,30.31,1015.90,M,M,M,M,M,M,M,M,M,M,M,M,M,M,M,M,M,72.00,KP68 140753Z AUTO 25008KT 22/07 A3031 RMK AO1 SLP159 T02220067 403560172,M
DRA,2024-07-14 07:53,-116.0278,36.6206,1009.00,76.00,55.00,48.14,270.00,3.00,0.00,30.10,1013.80,10.00,M,CLR,M,M,M,M,M,M,M,M,M,M,M,M,M,M,76.00,KDRA 140753Z AUTO 27003KT 10SM CLR 24/13 A3010 RMK AO2 SLP138 T02440128 404060244,M
ELY,2024-07-14 07:53,-114.8453,39.2950,1909.00,62.00,44.00,51.63,200.00,11.00,0.00,30.36,1016.40,10.00,M,FEW,M,M,M,11000.00,M,M,M,M,M,M,M,M,M,M,62.00,KELY 140753Z AUTO 20011KT 10SM FEW110 17/07 A3036 RMK AO2 SLP164 T01670067 403670150,M
VGT,2024-07-14 07:53,-115.1933,36.2111,667.00,88.00,58.00,36.34,310.00,8.00,0.00,30.01,1014.70,10.00,M,CLR,M,M,M,M,M,M,M,M,M,M,M,M,M,M,86.99,KVGT 140753Z AUTO 31008KT 10SM CLR 31/14 A3001 RMK AO2 SLP147 T03110144 404220278,M
LOL,2024-07-14 07:53,-118.5701,40.0684,1192.43,79.00,49.00,34.94,260.00,4.00,0.00,30.15,1015.50,10.00,M,SCT,SCT,M,M,10000.00,12000.00,M,M,M,M,M,M,M,M,M,79.00,KLOL 140753Z AUTO 26004KT 10SM SCT100 SCT120 26/09 A3015 RMK AO2 SLP155 T02610094 404110200,M
BVU,2024-07-14 07:55,-114.8611,35.9475,671.00,84.20,55.40,37.35,280.00,3.00,0.00,30.00,M,10.00,M,CLR,M,M,M,M,M,M,M,M,M,M,M,M,M,M,83.09,KBVU 140755Z AUTO 28003KT 10SM CLR 29/13 A3000 RMK AO2,M
CXP,2024-07-14 07:55,-119.7326,39.1923,1431.00,69.80,50.00,49.37,70.00,3.00,0.00,30.25,M,10.00,M,CLR,M,M,M,M,M,M,M,M,M,M,M,M,M,M,69.80,KCXP 140755Z AUTO 07003KT 10SM CLR 21/10 A3025 RMK AO2,M
RNO,2024-07-14 07:55,-119.7711,39.4839,1341.00,77.00,48.00,35.95,180.00,5.00,0.00,30.21,1015.80,10.00,M,FEW,SCT,M,M,11000.00,18000.00,M,M,M,M,M,M,M,M,M,77.00,KRNO 140755Z 18005KT 10SM FEW110 SCT180 25/09 A3021 RMK AO2 SLP158 T02500089 403940239 $,M
RTS,2024-07-14 07:55,-119.8764,39.6682,1539.00,73.40,44.60,35.66,0.00,0.00,0.00,30.26,M,10.00,M,CLR,M,M,M,M,M,M,M,M,M,M,M,M,M,M,73.40,KRTS 140755Z AUTO 00000KT 10SM CLR 23/07 A3026 RMK AO2,M
05U,2024-07-14 07:55,-116.0051,39.6042,1811.23,71.60,42.80,35.37,90.00,4.00,0.00,30.33,M,10.00,M,M,M,M,M,M,M,M,M,M,M,M,M,M,M,M,71.60,K05U 140755Z AUTO 09004KT 10SM 22/06 A3033 RMK A01,M
MEV,2024-07-14 07:55,-119.7500,38.9963,1441.42,64.40,51.80,63.60,170.00,6.00,0.00,30.22,M,10.00,M,SCT,BKN,M,M,3400.00,4100.00,M,M,M,M,M,M,M,M,M,64.40,KMEV 140755Z AUTO 17006KT 10SM SCT034 BKN041 18/11 A3022 RMK AO2,M
BAM,2024-07-14 07:55,-116.8743,40.5990,1382.36,84.20,44.60,24.99,230.00,11.00,0.00,30.17,M,10.00,20.00,CLR,M,M,M,M,M,M,M,M,M,M,M,M,M,M,81.73,KBAM 140755Z AUTO 23011G20KT 10SM CLR 29/07 A3017 RMK AO1,M
HTH,2024-07-14 07:55,-118.6315,38.5448,1282.89,73.40,59.00,60.67,140.00,6.00,0.00,30.22,M,10.00,M,OVC,M,M,M,11000.00,M,M,M,M,M,M,M,M,M,M,73.40,KHTH 140755Z AUTO 14006KT 10SM OVC110 23/15 A3022 RMK A01,M
TMT,2024-07-14 07:55,-117.1971,39.4643,1749.34,69.00,51.30,53.24,230.00,8.00,0.00,30.34,M,10.00,M,SCT,M,M,M,12000.00,M,M,M,M,M,M,M,M,M,M,69.00,KTMT 140755Z AUTO 23008KT 10SM SCT120 21/11 A3034 RMK AO2 T02060107 403580112,M
INS,2024-07-14 07:55,-115.6733,36.5872,955.00,77.70,56.50,48.05,260.00,7.00,0.00,30.10,1013.40,10.00,M,CLR,M,M,M,M,M,M,M,M,M,M,M,M,M,M,77.70,KINS 140755Z AUTO 26007KT 10SM CLR 25/14 A3010 RMK AO2 SLP134 T02540136 404020253 $,M
LSV,2024-07-14 07:55,-115.0343,36.2362,570.00,85.30,62.80,46.97,200.00,4.00,0.00,29.96,1011.30,10.00,M,OVC,M,M,M,13000.00,M,M,M,M,M,M,M,M,M,M,86.13,KLSV 140755Z AUTO 20004KT 10SM OVC130 30/17 A2996 RMK AO2 SLP113 T02960171 404310287 $,M
EKO,2024-07-14 07:56,-115.7860,40.8242,1367.00,77.00,45.00,32.10,190.00,6.00,0.00,30.20,1015.10,10.00,M,CLR,M,M,M,M,M,M,M,M,M,M,M,M,M,M,77.00,KEKO 140756Z AUTO 19006KT 10SM CLR 25/07 A3020 RMK AO2 SLP151 T02500072 403780189,M
WMC,2024-07-14 07:56,-117.8072,40.9019,1315.00,83.00,42.00,23.51,180.00,5.00,T,30.14,1013.50,5.00,M,BKN,M,M,M,3500.00,M,M,M,-RA,M,M,M,M,M,M,80.74,KWMC 140756Z AUTO 18005KT 5SM -RA BKN035 28/06 A3014 RMK AO2 SLP135 P0000 T02830056 404170167,M
HND,2024-07-14 07:56,-115.1344,35.9729,742.79,80.00,64.00,58.17,210.00,8.00,0.00,30.05,1016.10,10.00,M,CLR,M,M,M,M,M,M,M,M,M,M,M,M,M,M,81.62,KHND 140756Z AUTO 21008KT 10SM CLR 27/18 A3005 RMK AO2 SLP161 T02670178,M
TPH,2024-07-14 07:56,-117.0904,38.0505,1654.00,71.00,50.00,47.39,360.00,12.00,0.00,30.30,1016.60,10.00,M,CLR,M,M,M,M,M,M,M,M,M,M,M,M,M,M,71.00,KTPH 140756Z AUTO 36012KT 10SM CLR 22/10 A3030 RMK AO2 SLP166 T02170100 403610200,M
LAS,2024-07-14 07:56,-115.1634,36.0719,663.00,85.00,62.00,46.11,0.00,0.00,0.00,30.02,1013.50,10.00,M,FEW,SCT,M,M,14000.00,22000.00,M,M,M,M,M,M,M,M,M,85.55,KLAS 140756Z 00000KT 10SM FEW140 SCT220 29/17 A3002 RMK AO2 SLP135 T02940167 404330294 $,M
NFL,2024-07-14 07:56,-118.7010,39.4166,1199.00,79.00,51.00,37.64,170.00,13.00,0.00,30.16,1017.70,10.00,M,FEW,BKN,M,M,9500.00,12000.00,M,M,M,M,M,M,M,M,M,79.00,KNFL 140756Z AUTO 17013KT 10SM FEW095 BKN120 26/11 A3016 RMK AO2 SLP177 T02610106 404000233,M
BVU,2024-07-14 08:15,-114.8611,35.9475,671.00,86.00,53.60,33.01,280.00,4.00,0.00,30.00,M,10.00,M,CLR,M,M,M,M,M,M,M,M,M,M,M,M,M,M,84.18,KBVU 140815Z AUTO 28004KT 10SM CLR 30/12 A3000 RMK AO2,M
CXP,2024-07-14 08:15,-119.7326,39.1923,1431.00,71.60,48.20,43.42,0.00,0.00,0.00,30.24,M,10.00,M,CLR,M,M,M,M,M,M,M,M,M,M,M,M,M,M,71.60,KCXP 140815Z AUTO 00000KT 10SM CLR 22/09 A3024 RMK AO2,M
RTS,2024-07-14 08:15,-119.8764,39.6682,1539.00,71.60,42.80,35.37,310.00,4.00,0.00,30.26,M,10.00,M,CLR,M,M,M,M,M,M,M,M,M,M,M,M,M,M,71.60,KRTS 140815Z AUTO 31004KT 10SM CLR 22/06 A3026 RMK AO2,M
05U,2024-07-14 08:15,-116.0051,39.6042,1811.23,73.40,44.60,35.66,0.00,0.00,0.00,30.33,M,10.00,M,M,M,M,M,M,M,M,M,M,M,M,M,M,M,M,73.40,K05U 140815Z AUTO 00000KT 10SM 23/07 A3033 RMK A01,M
MEV,2024-07-14 08:15,-119.7500,38.9963,1441.42,64.40,51.80,63.60,0.00,0.00,0.00,30.22,M,10.00,M,FEW,SCT,BKN,M,2900.00,3700.00,4800.00,M,M,M,M,M,M,M,M,64.40,KMEV 140815Z AUTO 00000KT 10SM FEW029 SCT037 BKN048 18/11 A3022 RMK AO2,M
BAM,2024-07-14 08:15,-116.8743,40.5990,1382.36,82.40,44.60,26.49,230.00,13.00,0.00,30.17,M,10.00,19.00,CLR,M,M,M,M,M,M,M,M,M,M,M,M,M,M,80.50,KBAM 140815Z AUTO 23013G19KT 10SM CLR 28/07 A3017 RMK AO1,M
HTH,2024-07-14 08:15,-118.6315,38.5448,1282.89,75.20,57.20,53.55,200.00,5.00,0.00,30.22,M,10.00,M,OVC,M,M,M,11000.00,M,M,M,M,M,M,M,M,M,M,75.20,KHTH 140815Z AUTO 20005KT 10SM OVC110 24/14 A3022 RMK A01,M
TMT,2024-07-14 08:15,-117.1971,39.4643,1749.34,68.40,51.80,55.37,240.00,6.00,0.00,30.33,M,10.00,M,SCT,M,M,M,12000.00,M,M,M,M,M,M,M,M,M,M,68.40,KTMT 140815Z AUTO 24006KT 10SM SCT120 20/11 A3033 RMK AO2 T02020110,M
BVU,2024-07-14 08:35,-114.8611,35.9475,671.00,87.80,53.60,31.17,0.00,0.00,0.00,30.00,M,10.00,M,CLR,M,M,M,M,M,M,M,M,M,M,M,M,M,M,85.72,KBVU 140835Z AUTO 00000KT 10SM CLR 31/12 A3000 RMK AO2,M
CXP,2024-07-14 08:35,-119.7326,39.1923,1431.00,71.60,48.20,43.42,0.00,0.00,0.00,30.23,M,10.00,M,CLR,M,M,M,M,M,M,M,M,M,M,M,M,M,M,71.60,KCXP 140835Z AUTO 00000KT 10SM CLR 22/09 A3023 RMK AO2,M
RTS,2024-07-14 08:35,-119.8764,39.6682,1539.00,69.80,42.80,37.61,0.00,0.00,0.00,30.25,M,10.00,M,CLR,M,M,M,M,M,M,M,M,M,M,M,M,M,M,69.80,KRTS 140835Z AUTO 00000KT 10SM CLR 21/06 A3025 RMK AO2,M
05U,2024-07-14 08:35,-116.0051,39.6042,1811.23,75.20,42.80,31.34,0.00,0.00,0.00,30.33,M,10.00,10.00,M,M,M,M,M,M,M,M,M,M,M,M,M,M,M,75.20,K05U 140835Z AUTO 00000G10KT 10SM 24/06 A3033 RMK A01,M
MEV,2024-07-14 08:35,-119.7500,38.9963,1441.42,62.60,50.00,63.38,0.00,0.00,0.00,30.23,M,10.00,M,SCT,BKN,M,M,3800.00,4700.00,M,M,M,M,M,M,M,M,M,62.60,KMEV 140835Z AUTO 00000KT 10SM SCT038 BKN047 17/10 A3023 RMK AO2,M
BAM,2024-07-14 08:35,-116.8743,40.5990,1382.36,82.40,44.60,26.49,230.00,19.00,0.00,30.17,M,10.00,26.00,CLR,M,M,M,M,M,M,M,M,M,M,M,M,M,M,80.50,KBAM 140835Z AUTO 23019G26KT 10SM CLR 28/07 A3017 RMK AO1,M
HTH,2024-07-14 08:35,-118.6315,38.5448,1282.89,75.20,55.40,50.17,210.00,5.00,0.00,30.20,M,10.00,M,SCT,BKN,OVC,M,6500.00,8000.00,12000.00,M,M,M,M,M,M,M,M,75.20,KHTH 140835Z AUTO 21005KT 10SM SCT065 BKN080 OVC120 24/13 A3020 RMK A01,M
TMT,2024-07-14 08:35,-117.1971,39.4643,1749.34,68.00,51.80,56.13,220.00,6.00,0.00,30.32,M,10.00,M,SCT,M,M,M,12000.00,M,M,M,M,M,M,M,M,M,M,68.00,KTMT 140835Z AUTO 22006KT 10SM SCT120 20/11 A3032 RMK AO2 T02000110,M
P68,2024-07-14 08:53,-116.0056,39.6014,1993.00,73.00,44.00,35.32,210.00,4.00,0.00,30.31,1016.00,M,M,M,M,M,M,M,M,M,M,M,M,M,M,M,M,M,73.00,KP68 140853Z AUTO 21004KT 23/07 A3031 RMK AO1 SLP160 T02280067 53001,M
DRA,2024-07-14 08:53,-116.0278,36.6206,1009.00,78.00,54.00,43.44,M,4.00,0.00,30.10,1013.90,10.00,M,CLR,M,M,M,M,M,M,M,M,M,M,M,M,M,M,78.00,KDRA 140853Z AUTO VRB04KT 10SM CLR 26/12 A3010 RMK AO2 SLP139 T02560122 57006,M
ELY,2024-07-14 08:53,-114.8453,39.2950,1909.00,64.00,44.00,48.12,210.00,9.00,0.00,30.34,1015.40,10.00,M,CLR,M,M,M,M,M,M,M,M,M,M,M,M,M,M,64.00,KELY 140853Z AUTO 21009KT 10SM CLR 18/07 A3034 RMK AO2 SLP154 T01780067 58006,M
VGT,2024-07-14 08:53,-115.1933,36.2111,667.00,87.00,58.00,37.51,330.00,8.00,0.00,30.00,1014.30,10.00,M,CLR,M,M,M,M,M,M,M,M,M,M,M,M,M,M,86.07,KVGT 140853Z AUTO 33008KT 10SM CLR 31/14 A3000 RMK AO2 SLP143 T03060144 56005,M
LOL,2024-07-14 08:53,-118.5701,40.0684,1192.43,77.00,49.00,37.33,150.00,7.00,0.00,30.14,1015.00,10.00,M,SCT,M,M,M,12000.00,M,M,M,M,M,M,M,M,M,M,77.00,KLOL 140853Z AUTO 15007KT 10SM SCT120 25/09 A3014 RMK AO2 SLP150 T02500094 50000,M
BVU,2024-07-14 08:55,-114.8611,35.9475,671.00,87.80,53.60,31.17,10.00,6.00,0.00,30.00,M,10.00,M,CLR,M,M,M,M,M,M,M,M,M,M,M,M,M,M,85.72,KBVU 140855Z AUTO 01006KT 10SM CLR 31/12 A3000 RMK AO2,M
CXP,2024-07-14 08:55,-119.7326,39.1923,1431.00,69.80,48.20,46.16,0.00,0.00,0.00,30.23,M,10.00,M,CLR,M,M,M,M,M,M,M,M,M,M,M,M,M,M,69.80,KCXP 140855Z AUTO 00000KT 10SM CLR 21/09 A3023 RMK AO2,M
RNO,2024-07-14 08:55,-119.7711,39.4839,1341.00,76.00,47.00,35.80,170.00,4.00,0.00,30.19,1015.30,10.00,M,BKN,M,M,M,20000.00,M,M,M,M,M,M,M,M,M,M,76.00,KRNO 140855Z 17004KT 10SM BKN200 24/08 A3019 RMK AO2 SLP153 T02440083 58003 $,M
RTS,2024-07-14 08:55,-119.8764,39.6682,1539.00,69.80,42.80,37.61,M,3.00,0.00,30.24,M,10.00,M,CLR,M,M,M,M,M,M,M,M,M,M,M,M,M,M,69.80,KRTS 140855Z AUTO VRB03KT 10SM CLR 21/06 A3024 RMK AO2,M
05U,2024-07-14 08:55,-116.0051,39.6042,1811.23,73.40,42.80,33.29,0.00,0.00,0.00,30.33,M,10.00,M,M,M,M,M,M,M,M,M,M,M,M,M,M,M,M,73.40,K05U 140855Z AUTO 00000KT 10SM 23/06 A3033 RMK A01,M
MEV,2024-07-14 08:55,-119.7500,38.9963,1441.42,64.40,51.80,63.60,230.00,4.00,0.00,30.22,M,10.00,M,FEW,SCT,SCT,M,3900.00,4600.00,5500.00,M,M,M,M,M,M,M,M,64.40,KMEV 140855Z AUTO 23004KT 10SM FEW039 SCT046 SCT055 18/11 A3022 RMK AO2,M
BAM,2024-07-14 08:55,-116.8743,40.5990,1382.36,80.60,46.40,30.07,230.00,17.00,0.00,30.17,M,10.00,24.00,CLR,M,M,M,M,M,M,M,M,M,M,M,M,M,M,79.56,KBAM 140855Z AUTO 23017G24KT 10SM CLR 27/08 A3017 RMK AO1,M
HTH,2024-07-14 08:55,-118.6315,38.5448,1282.89,75.20,55.40,50.17,210.00,6.00,0.00,30.20,M,10.00,M,FEW,BKN,OVC,M,6000.00,7000.00,11000.00,M,M,M,M,M,M,M,M,75.20,KHTH 140855Z AUTO 21006KT 10SM FEW060 BKN070 OVC110 24/13 A3020 RMK A01,M
TMT,2024-07-14 08:55,-117.1971,39.4643,1749.34,66.00,51.30,59.05,0.00,0.00,0.00,30.31,M,10.00,M,SCT,M,M,M,12000.00,M,M,M,M,M,M,M,M,M,M,66.00,KTMT 140855Z AUTO 00000KT 10SM SCT120 19/11 A3031 RMK AO2 T01890107,M
INS,2024-07-14 08:55,-115.6733,36.5872,955.00,76.60,55.40,47.88,270.00,5.00,0.00,30.09,1013.10,10.00,M,FEW,M,M,M,15000.00,M,M,M,M,M,M,M,M,M,M,76.60,KINS 140855Z AUTO 27005KT 10SM FEW150 25/13 A3009 RMK AO2 SLP131 T02480130 57007 $,M
LSV,2024-07-14 08:55,-115.0343,36.2362,570.00,85.60,63.00,46.85,0.00,0.00,0.00,29.95,1010.90,10.00,M,CLR,M,M,M,M,M,M,M,M,M,M,M,M,M,M,86.50,KLSV 140855Z AUTO 00000KT 10SM CLR 30/17 A2995 RMK AO2 SLP109 T02980172 55006 $,M
EKO,2024-07-14 08:56,-115.7860,40.8242,1367.00,71.00,46.00,40.78,160.00,5.00,0.00,30.19,1015.40,10.00,M,CLR,M,M,M,M,M,M,M,M,M,M,M,M,M,M,71.00,KEKO 140856Z AUTO 16005KT 10SM CLR 22/08 A3019 RMK AO2 SLP154 T02170078 58007,M
WMC,2024-07-14 08:56,-117.8072,40.9019,1315.00,82.00,43.00,25.24,160.00,10.00,T,30.13,1013.40,10.00,M,BKN,M,M,M,3800.00,M,M,M,-RA,M,M,M,M,M,M,80.15,KWMC 140856Z AUTO 16010KT 10SM -RA BKN038 28/06 A3013 RMK AO2 SLP134 P0000 60000 T02780061 50004,M
HND,2024-07-14 08:56,-115.1344,35.9729,742.79,78.00,64.00,62.12,180.00,4.00,0.00,30.05,1015.80,10.00,M,CLR,M,M,M,M,M,M,M,M,M,M,M,M,M,M,78.00,KHND 140856Z AUTO 18004KT 10SM CLR 26/18 A3005 RMK AO2 SLP158 T02560178 56001,M
TPH,2024-07-14 08:56,-117.0904,38.0505,1654.00,66.00,50.00,56.27,30.00,7.00,0.00,30.29,1016.80,10.00,M,CLR,M,M,M,M,M,M,M,M,M,M,M,M,M,M,66.00,KTPH 140856Z AUTO 03007KT 10SM CLR 19/10 A3029 RMK AO2 SLP168 T01890100 58003,M
LAS,2024-07-14 08:56,-115.1634,36.0719,663.00,85.00,61.00,44.50,210.00,4.00,0.00,30.01,1013.10,10.00,M,FEW,FEW,M,M,14000.00,22000.00,M,M,M,M,M,M,M,M,M,85.21,KLAS 140856Z 21004KT 10SM FEW140 FEW220 29/16 A3001 RMK AO2 SLP131 T02940161 58004 $,M
NFL,2024-07-14 08:56,-118.7010,39.4166,1199.00,84.00,46.00,26.52,220.00,10.00,0.00,30.13,1016.70,10.00,M,FEW,FEW,BKN,M,6000.00,7500.00,11000.00,M,M,M,M,M,31.00,200.00,2024-07-14 08:36,81.69,KNFL 140856Z AUTO 22010KT 10SM FEW060 FEW075 BKN110 29/08 A3013 RMK AO2 PK WND 20031/0836 SLP167 T02890078 58017,M
BVU,2024-07-14 09:15,-114.8611,35.9475,671.00,84.20,55.40,37.35,0.00,0.00,0.00,29.99,M,10.00,M,CLR,M,M,M,M,M,M,M,M,M,M,M,M,M,M,83.09,KBVU 140915Z AUTO 00000KT 10SM CLR 29/13 A2999 RMK AO2,M
CXP,2024-07-14 09:15,-119.7326,39.1923,1431.00,71.60,46.40,40.57,0.00,0.00,0.00,30.23,M,10.00,M,CLR,M,M,M,M,M,M,M,M,M,M,M,M,M,M,71.60,KCXP 140915Z AUTO 00000KT 10SM CLR 22/08 A3023 RMK AO2,M
RTS,2024-07-14 09:15,-119.8764,39.6682,1539.00,68.00,42.80,40.00,30.00,7.00,0.00,30.24,M,10.00,M,CLR,M,M,M,M,M,M,M,M,M,M,M,M,M,M,68.00,KRTS 140915Z AUTO 03007KT 10SM CLR 20/06 A3024 RMK AO2,M
05U,2024-07-14 09:15,-116.0051,39.6042,1811.23,71.60,42.80,35.37,0.00,0.00,0.00,30.33,M,10.00,M,M,M,M,M,M,M,M,M,M,M,M,M,M,M,M,71.60,K05U 140915Z AUTO 00000KT 10SM 22/06 A3033 RMK A01,M
MEV,2024-07-14 09:15,-119.7500,38.9963,1441.42,62.60,51.80,67.75,0.00,0.00,0.00,30.22,M,10.00,M,FEW,SCT,M,M,3900.00,4800.00,M,M,M,M,M,M,M,M,M,62.60,KMEV 140915Z AUTO 00000KT 10SM FEW039 SCT048 17/11 A3022 RMK AO2,M
BAM,2024-07-14 09:15,-116.8743,40.5990,1382.36,80.60,46.40,30.07,230.00,15.00,0.00,30.17,M,10.00,23.00,CLR,M,M,M,M,M,M,M,M,M,M,M,M,M,M,79.56,KBAM 140915Z AUTO 23015G23KT 10SM CLR 27/08 A3017 RMK AO1,M
HTH,2024-07-14 09:15,-118.6315,38.5448,1282.89,75.20,55.40,50.17,140.00,5.00,0.00,30.19,M,10.00,M,FEW,SCT,BKN,M,6000.00,7000.00,8500.00,M,M,M,M,M,M,M,M,75.20,KHTH 140915Z AUTO 14005KT 10SM FEW060 SCT070 BKN085 24/13 A3019 RMK A01,M
TMT,2024-07-14 09:15,-117.1971,39.4643,1749.34,64.60,50.70,60.64,110.00,3.00,0.00,30.29,M,10.00,M,SCT,M,M,M,12000.00,M,M,M,M,M,M,M,M,M,M,64.60,KTMT 140915Z AUTO 11003KT 10SM SCT120 18/10 A3029 RMK AO2 T01810104,M
BVU,2024-07-14 09:35,-114.8611,35.9475,671.00,84.20,55.40,37.35,300.00,4.00,0.00,29.99,M,10.00,M,CLR,M,M,M,M,M,M,M,M,M,M,M,M,M,M,83.09,KBVU 140935Z AUTO 30004KT 10SM CLR 29/13 A2999 RMK AO2,M
CXP,2024-07-14 09:35,-119.7326,39.1923,1431.00,68.00,48.20,49.10,0.00,0.00,0.00,30.22,M,10.00,M,CLR,M,M,M,M,M,M,M,M,M,M,M,M,M,M,68.00,KCXP 140935Z AUTO 00000KT 10SM CLR 20/09 A3022 RMK AO2,M
RTS,2024-07-14 09:35,-119.8764,39.6682,1539.00,69.80,42.80,37.61,0.00,0.00,0.00,30.24,M,10.00,M,CLR,M,M,M,M,M,M,M,M,M,M,M,M,M,M,69.80,KRTS 140935Z AUTO 00000KT 10SM CLR 21/06 A3024 RMK AO2,M
05U,2024-07-14 09:35,-116.0051,39.6042,1811.23,69.80,42.80,37.61,0.00,0.00,0.00,30.32,M,10.00,M,M,M,M,M,M,M,M,M,M,M,M,M,M,M,M,69.80,K05U 140935Z AUTO 00000KT 10SM 21/06 A3032 RMK A01,M
MEV,2024-07-14 09:35,-119.7500,38.9963,1441.42,60.80,50.00,67.54,60.00,4.00,0.00,30.22,M,10.00,M,FEW,SCT,M,M,3800.00,4600.00,M,M,M,M,M,M,M,M,M,60.80,KMEV 140935Z AUTO 06004KT 10SM FEW038 SCT046 16/10 A3022 RMK AO2,M
BAM,2024-07-14 09:35,-116.8743,40.5990,1382.36,80.60,46.40,30.07,220.00,17.00,0.00,30.16,M,10.00,23.00,CLR,M,M,M,M,M,M,M,M,M,M,M,M,M,M,79.56,KBAM 140935Z AUTO 22017G23KT 10SM CLR 27/08 A3016 RMK AO1,M
HTH,2024-07-14 09:35,-118.6315,38.5448,1282.89,75.20,53.60,46.98,170.00,4.00,0.00,30.19,M,10.00,M,FEW,FEW,BKN,M,7500.00,9000.00,11000.00,M,M,M,M,M,M,M,M,75.20,KHTH 140935Z AUTO 17004KT 10SM FEW075 FEW090 BKN110 24/12 A3019 RMK A01,M
TMT,2024-07-14 09:35,-117.1971,39.4643,1749.34,65.00,50.40,59.14,0.00,0.00,0.00,30.28,M,10.00,M,SCT,BKN,M,M,9500.00,12000.00,M,M,M,M,M,M,M,M,M,65.00,KTMT 140935Z AUTO 00000KT 10SM SCT095 BKN120 18/10 A3028 RMK AO2 T01840102,M
P68,2024-07-14 09:53,-116.0056,39.6014,1993.00,69.00,44.00,40.47,220.00,3.00,0.00,30.29,1015.80,M,M,M,M,M,M,M,M,M,M,M,M,M,M,M,M,M,69.00,KP68 140953Z AUTO 22003KT 21/07 A3029 RMK AO1 SLP158 T02060067,M
DRA,2024-07-14 09:53,-116.0278,36.6206,1009.00,76.00,54.00,46.42,40.00,4.00,0.00,30.09,1013.80,10.00,M,CLR,M,M,M,M,M,M,M,M,M,M,M,M,M,M,76.00,KDRA 140953Z AUTO 04004KT 10SM CLR 24/12 A3009 RMK AO2 SLP138 T02440122,M
ELY,2024-07-14 09:53,-114.8453,39.2950,1909.00,58.00,44.00,59.54,M,3.00,0.00,30.35,1016.00,10.00,M,CLR,M,M,M,M,M,M,M,M,M,M,M,M,M,M,58.00,KELY 140953Z AUTO VRB03KT 10SM CLR 14/07 A3035 RMK AO2 SLP160 T01440067,M
VGT,2024-07-14 09:53,-115.1933,36.2111,667.00,86.00,57.00,37.35,320.00,7.00,0.00,30.00,1014.20,10.00,M,CLR,M,M,M,M,M,M,M,M,M,M,M,M,M,M,84.92,KVGT 140953Z AUTO 32007KT 10SM CLR 30/14 A3000 RMK AO2 SLP142 T03000139,M
LOL,2024-07-14 09:53,-118.5701,40.0684,1192.43,77.00,49.00,37.33,160.00,4.00,0.00,30.12,1014.50,10.00,M,CLR,M,M,M,M,M,M,M,M,M,M,M,M,M,M,77.00,KLOL 140953Z AUTO 16004KT 10SM CLR 25/09 A3012 RMK AO2 SLP145 T02500094,M
BVU,2024-07-14 09:55,-114.8611,35.9475,671.00,84.20,55.40,37.35,310.00,8.00,0.00,29.99,M,10.00,M,CLR,M,M,M,M,M,M,M,M,M,M,M,M,M,M,83.09,KBVU 140955Z AUTO 31008KT 10SM CLR 29/13 A2999 RMK AO2,M
CXP,2024-07-14 09:55,-119.7326,39.1923,1431.00,68.00,48.20,49.10,0.00,0.00,0.00,30.22,M,10.00,M,CLR,M,M,M,M,M,M,M,M,M,M,M,M,M,M,68.00,KCXP 140955Z AUTO 00000KT 10SM CLR 20/09 A3022 RMK AO2,M
RNO,2024-07-14 09:55,-119.7711,39.4839,1341.00,76.00,46.00,34.47,270.00,4.00,0.00,30.18,1014.80,10.00,M,BKN,M,M,M,20000.00,M,M,M,M,M,M,M,M,M,M,76.00,KRNO 140955Z 27004KT 10SM BKN200 24/08 A3018 RMK AO2 SLP148 T02440078 $,M
RTS,2024-07-14 09:55,-119.8764,39.6682,1539.00,69.80,42.80,37.61,0.00,0.00,0.00,30.23,M,10.00,M,CLR,M,M,M,M,M,M,M,M,M,M,M,M,M,M,69.80,KRTS 140955Z AUTO 00000KT 10SM CLR 21/06 A3023 RMK AO2,M
05U,2024-07-14 09:55,-116.0051,39.6042,1811.23,68.00,42.80,40.00,0.00,0.00,0.00,30.31,M,10.00,M,M,M,M,M,M,M,M,M,M,M,M,M,M,M,M,68.00,K05U 140955Z AUTO 00000KT 10SM 20/06 A3031 RMK A01,M
MEV,2024-07-14 09:55,-119.7500,38.9963,1441.42,60.80,51.80,72.20,100.00,5.00,0.00,30.21,M,10.00,M,SCT,SCT,M,M,3900.00,4500.00,M,M,M,M,M,M,M,M,M,60.80,KMEV 140955Z AUTO 10005KT 10SM SCT039 SCT045 16/11 A3021 RMK AO2,M
BAM,2024-07-14 09:55,-116.8743,40.5990,1382.36,80.60,46.40,30.07,220.00,16.00,0.00,30.16,M,10.00,20.00,CLR,M,M,M,M,M,M,M,M,M,M,M,M,M,M,79.56,KBAM 140955Z AUTO 22016G20KT 10SM CLR 27/08 A3016 RMK AO1,M
HTH,2024-07-14 09:55,-118.6315,38.5448,1282.89,75.20,53.60,46.98,130.00,8.00,0.00,30.18,M,10.00,M,FEW,M,M,M,12000.00,M,M,M,M,M,M,M,M,M,M,75.20,KHTH 140955Z AUTO 13008KT 10SM FEW120 24/12 A3018 RMK A01,M
TMT,2024-07-14 09:55,-117.1971,39.4643,1749.34,63.50,49.30,59.82,0.00,0.00,0.00,30.28,M,10.00,M,SCT,M,M,M,10000.00,M,M,M,M,M,M,M,M,M,M,63.50,KTMT 140955Z AUTO 00000KT 10SM SCT100 18/10 A3028 RMK AO2 T01750096,M
INS,2024-07-14 09:55,-115.6733,36.5872,955.00,76.60,55.00,47.19,250.00,6.00,0.00,30.09,1013.30,10.00,M,CLR,M,M,M,M,M,M,M,M,M,M,M,M,M,M,76.60,KINS 140955Z AUTO 25006KT 10SM CLR 25/13 A3009 RMK AO2 SLP133 T02480127 $,M
LSV,2024-07-14 09:55,-115.0343,36.2362,570.00,83.50,62.20,48.73,330.00,6.00,0.00,29.95,1010.90,10.00,M,CLR,M,M,M,M,M,M,M,M,M,M,M,M,M,M,84.26,KLSV 140955Z AUTO 33006KT 10SM CLR 29/17 A2995 RMK AO2 SLP109 T02860168 $,M
EKO,2024-07-14 09:56,-115.7860,40.8242,1367.00,74.00,45.00,35.48,260.00,6.00,0.00,30.20,1015.30,10.00,M,CLR,M,M,M,M,M,M,M,M,M,M,M,M,M,M,74.00,KEKO 140956Z AUTO 26006KT 10SM CLR 23/07 A3020 RMK AO2 SLP153 T02330072,M
WMC,2024-07-14 09:56,-117.8072,40.9019,1315.00,80.00,43.00,26.94,170.00,10.00,T,30.13,1013.20,10.00,M,CLR,M,M,M,M,M,M,M,-RA,M,M,M,M,M,M,78.97,KWMC 140956Z AUTO 17010KT 10SM -RA CLR 27/06 A3013 RMK AO2 SLP132 P0000 T02670061,M
HND,2024-07-14 09:56,-115.1344,35.9729,742.79,77.00,65.00,66.50,170.00,4.00,0.00,30.05,1015.70,10.00,M,CLR,M,M,M,M,M,M,M,M,M,M,M,M,M,M,77.00,KHND 140956Z AUTO 17004KT 10SM CLR 25/18 A3005 RMK AO2 SLP157 T02500183,M
TPH,2024-07-14 09:56,-117.0904,38.0505,1654.00,65.00,50.00,58.26,350.00,8.00,0.00,30.28,1016.40,10.00,M,CLR,M,M,M,M,M,M,M,M,M,M,M,M,M,M,65.00,KTPH 140956Z AUTO 35008KT 10SM CLR 18/10 A3028 RMK AO2 SLP164 T01830100,M
LAS,2024-07-14 09:56,-115.1634,36.0719,663.00,84.00,63.00,49.32,240.00,3.00,0.00,30.01,1013.00,10.00,M,FEW,FEW,M,M,14000.00,22000.00,M,M,M,M,M,M,M,M,M,84.99,KLAS 140956Z 24003KT 10SM FEW140 FEW220 29/17 A3001 RMK AO2 SLP130 T02890172 $,M
NFL,2024-07-14 09:56,-118.7010,39.4166,1199.00,78.00,52.00,40.36,170.00,11.00,0.00,30.12,1016.70,10.00,M,FEW,SCT,BKN,M,8000.00,9000.00,11000.00,M,M,M,M,M,M,M,M,78.00,KNFL 140956Z AUTO 17011KT 10SM FEW080 SCT090 BKN110 26/11 A3012 RMK AO2 SLP167 T02560111,M
BVU,2024-07-14 10:15,-114.8611,35.9475,671.00,84.20,55.40,37.35,280.00,6.00,0.00,29.99,M,10.00,M,CLR,M,M,M,M,M,M,M,M,M,M,M,M,M,M,83.09,KBVU 141015Z AUTO 28006KT 10SM CLR 29/13 A2999 RMK AO2,M
CXP,2024-07-14 10:15,-119.7326,39.1923,1431.00,68.00,48.20,49.10,0.00,0.00,0.00,30.22,M,10.00,M,CLR,M,M,M,M,M,M,M,M,M,M,M,M,M,M,68.00,KCXP 141015Z AUTO 00000KT 10SM CLR 20/09 A3022 RMK AO2,M
RTS,2024-07-14 10:15,-119.8764,39.6682,1539.00,66.20,42.80,42.57,320.00,4.00,0.00,30.23,M,10.00,M,CLR,M,M,M,M,M,M,M,M,M,M,M,M,M,M,66.20,KRTS 141015Z AUTO 32004KT 10SM CLR 19/06 A3023 RMK AO2,M
05U,2024-07-14 10:15,-116.0051,39.6042,1811.23,68.00,42.80,40.00,0.00,0.00,0.00,30.31,M,10.00,M,M,M,M,M,M,M,M,M,M,M,M,M,M,M,M,68.00,K05U 141015Z AUTO 00000KT 10SM 20/06 A3031 RMK A01,M
MEV,2024-07-14 10:15,-119.7500,38.9963,1441.42,62.60,53.60,72.38,100.00,6.00,0.00,30.21,M,10.00,M,FEW,FEW,M,M,4100.00,4700.00,M,M,M,M,M,M,M,M,M,62.60,KMEV 141015Z AUTO 10006KT 10SM FEW041 FEW047 17/12 A3021 RMK AO2,M
BAM,2024-07-14 10:15,-116.8743,40.5990,1382.36,80.60,46.40,30.07,220.00,13.00,0.00,30.16,M,10.00,M,CLR,M,M,M,M,M,M,M,M,M,M,M,M,M,M,79.56,KBAM 141015Z AUTO 22013KT 10SM CLR 27/08 A3016 RMK AO1,M
HTH,2024-07-14 10:15,-118.6315,38.5448,1282.89,73.40,53.60,49.90,130.00,12.00,0.00,30.18,M,10.00,M,CLR,M,M,M,M,M,M,M,M,M,M,M,M,M,M,73.40,KHTH 141015Z AUTO 13012KT 10SM CLR 23/12 A3018 RMK A01,M
TMT,2024-07-14 10:15,-117.1971,39.4643,1749.34,63.00,49.30,60.88,0.00,0.00,0.00,30.28,M,10.00,M,CLR,M,M,M,M,M,M,M,M,M,M,M,M,M,M,63.00,KTMT 141015Z AUTO 00000KT 10SM CLR 17/10 A3028 RMK AO2 T01720096,M
05U,2024-07-14 10:30,-116.0051,39.6042,1811.23,66.20,44.60,45.60,0.00,0.00,0.00,30.32,M,10.00,M,M,M,M,M,M,M,M,M,M,M,M,M,M,M,M,66.20,K05U 141030Z AUTO 00000KT 10SM 19/07 A3032 RMK A01,M
MEV,2024-07-14 10:35,-119.7500,38.9963,1441.42,62.60,51.80,67.75,110.00,6.00,0.00,30.21,M,10.00,M,FEW,FEW,FEW,M,4000.00,5000.00,12000.00,M,M,M,M,M,M,M,M,62.60,KMEV 141035Z AUTO 11006KT 10SM FEW040 FEW050 FEW120 17/11 A3021 RMK AO2,M
BVU,2024-07-14 10:35,-114.8611,35.9475,671.00,82.40,55.40,39.58,250.00,4.00,0.00,30.00,M,10.00,M,CLR,M,M,M,M,M,M,M,M,M,M,M,M,M,M,81.75,KBVU 141035Z AUTO 25004KT 10SM CLR 28/13 A3000 RMK AO2,M
CXP,2024-07-14 10:35,-119.7326,39.1923,1431.00,68.00,48.20,49.10,0.00,0.00,0.00,30.22,M,10.00,M,CLR,M,M,M,M,M,M,M,M,M,M,M,M,M,M,68.00,KCXP 141035Z AUTO 00000KT 10SM CLR 20/09 A3022 RMK AO2,M
RTS,2024-07-14 10:35,-119.8764,39.6682,1539.00,66.20,42.80,42.57,10.00,4.00,0.00,30.23,M,10.00,M,CLR,M,M,M,M,M,M,M,M,M,M,M,M,M,M,66.20,KRTS 141035Z AUTO 01004KT 10SM CLR 19/06 A3023 RMK AO2,M
BAM,2024-07-14 10:35,-116.8743,40.5990,1382.36,77.00,48.20,36.22,240.00,12.00,0.00,30.16,M,10.00,M,CLR,M,M,M,M,M,M,M,M,M,M,M,M,M,M,77.00,KBAM 141035Z AUTO 24012KT 10SM CLR 25/09 A3016 RMK AO1,M
HTH,2024-07-14 10:35,-118.6315,38.5448,1282.89,73.40,53.60,49.90,130.00,14.00,0.00,30.18,M,10.00,M,CLR,M,M,M,M,M,M,M,M,M,M,M,M,M,M,73.40,KHTH 141035Z AUTO 13014KT 10SM CLR 23/12 A3018 RMK A01,M
TMT,2024-07-14 10:35,-117.1971,39.4643,1749.34,61.70,50.50,66.65,270.00,6.00,0.00,30.28,M,10.00,M,CLR,M,M,M,M,M,M,M,M,M,M,M,M,M,M,61.70,KTMT 141035Z AUTO 27006KT 10SM CLR 17/10 A3028 RMK AO2 T01650103,M
05U,2024-07-14 10:50,-116.0051,39.6042,1811.23,68.00,44.60,42.85,0.00,0.00,0.00,30.32,M,10.00,M,M,M,M,M,M,M,M,M,M,M,M,M,M,M,M,68.00,K05U 141050Z AUTO 00000KT 10SM 20/07 A3032 RMK A01,M
P68,2024-07-14 10:53,-116.0056,39.6014,1993.00,67.00,45.00,45.04,120.00,6.00,0.00,30.29,1015.80,M,M,M,M,M,M,M,M,M,M,M,M,M,M,M,M,M,67.00,KP68 141053Z AUTO 12006KT 19/07 A3029 RMK AO1 SLP158 T01940072,M
DRA,2024-07-14 10:53,-116.0278,36.6206,1009.00,74.00,56.00,53.37,M,3.00,0.00,30.09,1013.90,10.00,M,CLR,M,M,M,M,M,M,M,M,M,M,M,M,M,M,74.00,KDRA 141053Z AUTO VRB03KT 10SM CLR 23/13 A3009 RMK AO2 SLP139 T02330133,M
ELY,2024-07-14 10:53,-114.8453,39.2950,1909.00,59.00,45.00,59.67,180.00,6.00,0.00,30.35,1016.10,10.00,M,FEW,M,M,M,11000.00,M,M,M,M,M,M,M,M,M,M,59.00,KELY 141053Z AUTO 18006KT 10SM FEW110 15/07 A3035 RMK AO2 SLP161 T01500072,M
VGT,2024-07-14 10:53,-115.1933,36.2111,667.00,86.00,56.00,36.03,310.00,6.00,0.00,30.00,1014.30,10.00,M,CLR,M,M,M,M,M,M,M,M,M,M,M,M,M,M,84.68,KVGT 141053Z AUTO 31006KT 10SM CLR 30/13 A3000 RMK AO2 SLP143 T03000133,M
LOL,2024-07-14 10:53,-118.5701,40.0684,1192.43,75.00,48.00,38.43,190.00,3.00,0.00,30.11,1014.00,10.00,M,SCT,M,M,M,12000.00,M,M,M,M,M,M,M,M,M,M,75.00,KLOL 141053Z AUTO 19003KT 10SM SCT120 24/09 A3011 RMK AO2 SLP140 T02390089,M
BVU,2024-07-14 10:55,-114.8611,35.9475,671.00,82.40,55.40,39.58,290.00,4.00,0.00,30.00,M,10.00,M,CLR,M,M,M,M,M,M,M,M,M,M,M,M,M,M,81.75,KBVU 141055Z AUTO 29004KT 10SM CLR 28/13 A3000 RMK AO2,M
CXP,2024-07-14 10:55,-119.7326,39.1923,1431.00,68.00,48.20,49.10,330.00,4.00,0.00,30.22,M,10.00,M,FEW,M,M,M,12000.00,M,M,M,M,M,M,M,M,M,M,68.00,KCXP 141055Z AUTO 33004KT 10SM FEW120 20/09 A3022 RMK AO2,M
RNO,2024-07-14 10:55,-119.7711,39.4839,1341.00,74.00,46.00,36.85,270.00,6.00,0.00,30.18,1015.00,10.00,M,FEW,SCT,M,M,12000.00,20000.00,M,M,M,M,M,M,M,M,M,74.00,KRNO 141055Z 27006KT 10SM FEW120 SCT200 23/08 A3018 RMK AO2 SLP150 T02330078 $,M
RTS,2024-07-14 10:55,-119.8764,39.6682,1539.00,66.20,42.80,42.57,20.00,4.00,0.00,30.23,M,10.00,M,CLR,M,M,M,M,M,M,M,M,M,M,M,M,M,M,66.20,KRTS 141055Z AUTO 02004KT 10SM CLR 19/06 A3023 RMK AO2,M
MEV,2024-07-14 10:55,-119.7500,38.9963,1441.42,62.60,51.80,67.75,0.00,0.00,0.00,30.21,M,10.00,M,FEW,SCT,SCT,M,3700.00,4300.00,12000.00,M,M,M,M,M,M,M,M,62.60,KMEV 141055Z AUTO 00000KT 10SM FEW037 SCT043 SCT120 17/11 A3021 RMK AO2,M
BAM,2024-07-14 10:55,-116.8743,40.5990,1382.36,77.00,48.20,36.22,250.00,6.00,0.00,30.16,M,10.00,M,CLR,M,M,M,M,M,M,M,M,M,M,M,M,M,M,77.00,KBAM 141055Z AUTO 25006KT 10SM CLR 25/09 A3016 RMK AO1,M
HTH,2024-07-14 10:55,-118.6315,38.5448,1282.89,73.40,51.80,46.71,120.00,8.00,0.00,30.18,M,10.00,M,CLR,M,M,M,M,M,M,M,M,M,M,M,M,M,M,73.40,KHTH 141055Z AUTO 12008KT 10SM CLR 23/11 A3018 RMK A01,M
TMT,2024-07-14 10:55,-117.1971,39.4643,1749.34,62.80,51.00,65.31,210.00,8.00,0.00,30.29,M,10.00,M,CLR,M,M,M,M,M,M,M,M,M,M,M,M,M,M,62.80,KTMT 141055Z AUTO 21008KT 10SM CLR 17/11 A3029 RMK AO2 T01710105,M
INS,2024-07-14 10:55,-115.6733,36.5872,955.00,75.60,54.00,47.04,270.00,7.00,0.00,30.09,1013.10,10.00,M,CLR,M,M,M,M,M,M,M,M,M,M,M,M,M,M,75.60,KINS 141055Z AUTO 27007KT 10SM CLR 24/12 A3009 RMK AO2 SLP131 T02420122 $,M
LSV,2024-07-14 10:55,-115.0343,36.2362,570.00,82.40,62.00,50.14,270.00,3.00,0.00,29.96,1011.30,10.00,M,CLR,M,M,M,M,M,M,M,M,M,M,M,M,M,M,83.23,KLSV 141055Z AUTO 27003KT 10SM CLR 28/17 A2996 RMK AO2 SLP113 T02800166 $,M
EKO,2024-07-14 10:56,-115.7860,40.8242,1367.00,71.00,45.00,39.27,190.00,4.00,0.00,30.21,1016.20,10.00,M,CLR,M,M,M,M,M,M,M,M,M,M,M,M,M,M,71.00,KEKO 141056Z AUTO 19004KT 10SM CLR 22/07 A3021 RMK AO2 SLP162 T02170072,M
WMC,2024-07-14 10:56,-117.8072,40.9019,1315.00,78.00,44.00,29.90,190.00,9.00,T,30.13,1013.70,10.00,M,CLR,M,M,M,M,M,M,M,-RA,M,M,M,M,M,M,78.00,KWMC 141056Z AUTO 19009KT 10SM -RA CLR 26/07 A3013 RMK AO2 SLP137 P0000 T02560067,M
HND,2024-07-14 10:56,-115.1344,35.9729,742.79,77.00,63.00,62.00,160.00,5.00,0.00,30.06,1016.20,10.00,M,CLR,M,M,M,M,M,M,M,M,M,M,M,M,M,M,77.00,KHND 141056Z AUTO 16005KT 10SM CLR 25/17 A3006 RMK AO2 SLP162 T02500172,M
TPH,2024-07-14 10:56,-117.0904,38.0505,1654.00,64.00,50.00,60.34,360.00,4.00,0.00,30.28,1017.30,10.00,M,CLR,M,M,M,M,M,M,M,M,M,M,M,M,M,M,64.00,KTPH 141056Z AUTO 36004KT 10SM CLR 18/10 A3028 RMK AO2 SLP173 T01780100,M
LAS,2024-07-14 10:56,-115.1634,36.0719,663.00,83.00,61.00,47.47,210.00,5.00,0.00,30.02,1013.40,10.00,M,FEW,SCT,M,M,14000.00,22000.00,M,M,M,M,M,M,M,M,M,83.46,KLAS 141056Z 21005KT 10SM FEW140 SCT220 28/16 A3002 RMK AO2 SLP134 T02830161 $,M
NFL,2024-07-14 10:56,-118.7010,39.4166,1199.00,77.00,53.00,43.29,170.00,12.00,0.00,30.12,1016.60,10.00,M,CLR,M,M,M,M,M,M,M,M,M,M,M,M,M,M,77.00,KNFL 141056Z AUTO 17012KT 10SM CLR 25/12 A3012 RMK AO2 SLP166 T02500117,M
BVU,2024-07-14 11:15,-114.8611,35.9475,671.00,82.40,53.60,37.07,0.00,0.00,0.00,30.00,M,10.00,M,CLR,M,M,M,M,M,M,M,M,M,M,M,M,M,M,81.46,KBVU 141115Z AUTO 00000KT 10SM CLR 28/12 A3000 RMK AO2,M
CXP,2024-07-14 11:15,-119.7326,39.1923,1431.00,69.80,48.20,46.16,0.00,0.00,0.00,30.22,M,10.00,M,FEW,M,M,M,12000.00,M,M,M,M,M,M,M,M,M,M,69.80,KCXP 141115Z AUTO 00000KT 10SM FEW120 21/09 A3022 RMK AO2,M
RTS,2024-07-14 11:15,-119.8764,39.6682,1539.00,64.40,42.80,45.32,340.00,6.00,0.00,30.23,M,10.00,M,CLR,M,M,M,M,M,M,M,M,M,M,M,M,M,M,64.40,KRTS 141115Z AUTO 34006KT 10SM CLR 18/06 A3023 RMK AO2,M
05U,2024-07-14 11:15,-116.0051,39.6042,1811.23,66.20,44.60,45.60,0.00,0.00,0.00,30.32,M,10.00,M,M,M,M,M,M,M,M,M,M,M,M,M,M,M,M,66.20,K05U 141115Z AUTO 00000KT 10SM 19/07 A3032 RMK A01,M
MEV,2024-07-14 11:15,-119.7500,38.9963,1441.42,62.60,50.00,63.38,240.00,5.00,0.00,30.21,M,10.00,M,FEW,FEW,SCT,M,3700.00,4500.00,12000.00,M,M,M,M,M,M,M,M,62.60,KMEV 141115Z AUTO 24005KT 10SM FEW037 FEW045 SCT120 17/10 A3021 RMK AO2,M
BAM,2024-07-14 11:15,-116.8743,40.5990,1382.36,77.00,50.00,38.74,240.00,5.00,0.00,30.16,M,10.00,M,CLR,M,M,M,M,M,M,M,M,M,M,M,M,M,M,77.00,KBAM 141115Z AUTO 24005KT 10SM CLR 25/10 A3016 RMK AO1,M
HTH,2024-07-14 11:15,-118.6315,38.5448,1282.89,71.60,53.60,53.03,130.00,7.00,0.00,30.19,M,10.00,M,CLR,M,M,M,M,M,M,M,M,M,M,M,M,M,M,71.60,KHTH 141115Z AUTO 13007KT 10SM CLR 22/12 A3019 RMK A01,M
TMT,2024-07-14 11:15,-117.1971,39.4643,1749.34,63.30,51.00,64.17,230.00,4.00,0.00,30.29,M,10.00,M,CLR,M,M,M,M,M,M,M,M,M,M,M,M,M,M,63.30,KTMT 141115Z AUTO 23004KT 10SM CLR 17/11 A3029 RMK AO2 T01740105,M
05U,2024-07-14 11:30,-116.0051,39.6042,1811.23,66.20,44.60,45.60,0.00,0.00,0.00,30.32,M,10.00,M,M,M,M,M,M,M,M,M,M,M,M,M,M,M,M,66.20,K05U 141130Z AUTO 00000KT 10SM 19/07 A3032 RMK A01,M
BVU,2024-07-14 11:35,-114.8611,35.9475,671.00,80.60,55.40,41.97,0.00,0.00,0.00,30.00,M,10.00,M,CLR,M,M,M,M,M,M,M,M,M,M,M,M,M,M,80.53,KBVU 141135Z AUTO 00000KT 10SM CLR 27/13 A3000 RMK AO2,M
CXP,2024-07-14 11:35,-119.7326,39.1923,1431.00,69.80,48.20,46.16,0.00,0.00,0.00,30.22,M,10.00,M,CLR,M,M,M,M,M,M,M,M,M,M,M,M,M,M,69.80,KCXP 141135Z AUTO 00000KT 10SM CLR 21/09 A3022 RMK AO2,M
RTS,2024-07-14 11:35,-119.8764,39.6682,1539.00,66.20,42.80,42.57,0.00,0.00,0.00,30.23,M,10.00,M,CLR,M,M,M,M,M,M,M,M,M,M,M,M,M,M,66.20,KRTS 141135Z AUTO 00000KT 10SM CLR 19/06 A3023 RMK AO2,M
MEV,2024-07-14 11:35,-119.7500,38.9963,1441.42,60.80,50.00,67.54,0.00,0.00,0.00,30.21,M,10.00,M,CLR,M,M,M,M,M,M,M,M,M,M,M,M,M,M,60.80,KMEV 141135Z AUTO 00000KT 10SM CLR 16/10 A3021 RMK AO2,M
BAM,2024-07-14 11:35,-116.8743,40.5990,1382.36,75.20,50.00,41.14,0.00,0.00,0.00,30.17,M,10.00,M,CLR,M,M,M,M,M,M,M,M,M,M,M,M,M,M,75.20,KBAM 141135Z AUTO 00000KT 10SM CLR 24/10 A3017 RMK AO1,M
HTH,2024-07-14 11:35,-118.6315,38.5448,1282.89,69.80,55.40,60.21,110.00,8.00,0.00,30.19,M,10.00,M,CLR,M,M,M,M,M,M,M,M,M,M,M,M,M,M,69.80,KHTH 141135Z AUTO 11008KT 10SM CLR 21/13 A3019 RMK A01,M
TMT,2024-07-14 11:35,-117.1971,39.4643,1749.34,61.30,51.00,68.86,200.00,4.00,0.00,30.29,M,10.00,M,CLR,M,M,M,M,M,M,M,M,M,M,M,M,M,M,61.30,KTMT 141135Z AUTO 20004KT 10SM CLR 16/11 A3029 RMK AO2 T01630105,M
05U,2024-07-14 11:50,-116.0051,39.6042,1811.23,69.80,42.80,37.61,0.00,0.00,0.00,30.31,M,10.00,M,M,M,M,M,M,M,M,M,M,M,M,M,M,M,M,69.80,K05U 141150Z AUTO 00000KT 10SM 21/06 A3031 RMK A01,M
P68,2024-07-14 11:53,-116.0056,39.6014,1993.00,70.00,44.00,39.11,180.00,7.00,0.00,30.29,1015.30,M,M,M,M,M,M,M,M,M,M,M,M,M,M,M,M,M,70.00,KP68 141153Z AUTO 18007KT 21/07 A3029 RMK AO1 SLP153 T02110067 10267 20189 56005,M
DRA,2024-07-14 11:53,-116.0278,36.6206,1009.00,72.00,54.00,53.09,0.00,0.00,0.00,30.10,1014.30,10.00,M,CLR,M,M,M,M,M,M,M,M,M,M,M,M,M,M,72.00,KDRA 141153Z AUTO 00000KT 10SM CLR 22/12 A3010 RMK AO2 SLP143 70002 T02220122 10289 20217 53002,M
ELY,2024-07-14 11:53,-114.8453,39.2950,1909.00,66.00,44.00,44.88,210.00,12.00,0.00,30.35,1016.40,10.00,M,CLR,M,M,M,M,M,M,M,M,M,M,M,M,M,M,66.00,KELY 141153Z AUTO 21012KT 10SM CLR 19/07 A3035 RMK AO2 SLP164 T01890067 10189 20139 51003,M
VGT,2024-07-14 11:53,-115.1933,36.2111,667.00,84.00,58.00,41.29,340.00,4.00,0.00,30.01,1014.80,10.00,M,CLR,M,M,M,M,M,M,M,M,M,M,M,M,M,M,83.50,KVGT 141153Z AUTO 34004KT 10SM CLR 29/14 A3001 RMK AO2 SLP148 70008 T02890144 10322 20289 53004,M
LOL,2024-07-14 11:53,-118.5701,40.0684,1192.43,79.00,47.00,32.41,M,3.00,0.00,30.12,1014.20,10.00,M,OVC,M,M,M,12000.00,M,M,M,M,M,M,M,M,M,M,79.00,KLOL 141153Z AUTO VRB03KT 10SM OVC120 26/08 A3012 RMK AO2 SLP142 T02610083 10278 20233 55005,M
BVU,2024-07-14 11:55,-114.8611,35.9475,671.00,80.60,57.20,44.80,0.00,0.00,0.00,30.00,M,10.00,M,CLR,M,M,M,M,M,M,M,M,M,M,M,M,M,M,80.81,KBVU 141155Z AUTO 00000KT 10SM CLR 27/14 A3000 RMK AO2,M
CXP,2024-07-14 11:55,-119.7326,39.1923,1431.00,68.00,48.20,49.10,0.00,0.00,0.00,30.23,M,10.00,M,FEW,M,M,M,12000.00,M,M,M,M,M,M,M,M,M,M,68.00,KCXP 141155Z AUTO 00000KT 10SM FEW120 20/09 A3023 RMK AO2,M
RNO,2024-07-14 11:55,-119.7711,39.4839,1341.00,73.00,47.00,39.58,290.00,5.00,0.00,30.19,1015.90,10.00,M,FEW,SCT,M,M,12000.00,20000.00,M,M,M,M,M,M,M,M,M,73.00,KRNO 141155Z 29005KT 10SM FEW120 SCT200 23/08 A3019 RMK AO2 SLP159 70002 T02280083 10278 20228 55001 $,M
RTS,2024-07-14 11:55,-119.8764,39.6682,1539.00,62.60,42.80,48.28,290.00,4.00,0.00,30.23,M,10.00,M,SCT,M,M,M,12000.00,M,M,M,M,M,M,M,M,M,M,62.60,KRTS 141155Z AUTO 29004KT 10SM SCT120 17/06 A3023 RMK AO2,M
MEV,2024-07-14 11:55,-119.7500,38.9963,1441.42,60.80,51.80,72.20,70.00,5.00,0.00,30.21,M,10.00,M,CLR,M,M,M,M,M,M,M,M,M,M,M,M,M,M,60.80,KMEV 141155Z AUTO 07005KT 10SM CLR 16/11 A3021 RMK AO2,M
BAM,2024-07-14 11:55,-116.8743,40.5990,1382.36,77.00,50.00,38.74,210.00,3.00,0.00,30.17,M,10.00,M,CLR,M,M,M,M,M,M,M,M,M,M,M,M,M,M,77.00,KBAM 141155Z AUTO 21003KT 10SM CLR 25/10 A3017 RMK AO1,M
HTH,2024-07-14 11:55,-118.6315,38.5448,1282.89,69.80,51.80,52.77,150.00,6.00,0.00,30.19,M,10.00,M,CLR,M,M,M,M,M,M,M,M,M,M,M,M,M,M,69.80,KHTH 141155Z AUTO 15006KT 10SM CLR 21/11 A3019 RMK A01,M
TMT,2024-07-14 11:55,-117.1971,39.4643,1749.34,60.40,50.50,69.79,200.00,6.00,0.00,30.30,M,10.00,M,CLR,M,M,M,M,M,M,M,M,M,M,M,M,M,M,60.40,KTMT 141155Z AUTO 20006KT 10SM CLR 16/10 A3030 RMK AO2 T01580103 10226 20158,M
INS,2024-07-14 11:55,-115.6733,36.5872,955.00,73.40,56.70,55.86,0.00,0.00,0.00,30.09,1013.10,10.00,M,FEW,M,M,M,15000.00,M,M,M,M,M,M,M,M,M,M,73.40,KINS 141155Z AUTO 00000KT 10SM FEW150 23/14 A3009 RMK AO2 SLP131 70016 T02300137 10294 20227 53001 $,M
LSV,2024-07-14 11:55,-115.0343,36.2362,570.00,82.00,60.80,48.68,290.00,4.00,0.00,29.96,1011.30,10.00,M,FEW,M,M,M,15000.00,M,M,M,M,M,M,M,M,M,M,82.57,KLSV 141155Z AUTO 29004KT 10SM FEW150 28/16 A2996 RMK AO2 SLP113 70009 T02770160 10310 20272 52005 $,M
EKO,2024-07-14 11:56,-115.7860,40.8242,1367.00,72.00,45.00,37.96,0.00,0.00,0.00,30.22,1016.00,10.00,M,CLR,M,M,M,M,M,M,M,M,M,M,M,M,M,M,72.00,KEKO 141156Z AUTO 00000KT 10SM CLR 22/07 A3022 RMK AO2 SLP160 T02220072 10267 20194 53006,M
WMC,2024-07-14 11:56,-117.8072,40.9019,1315.00,76.00,44.00,31.95,200.00,7.00,T,30.13,1013.80,10.00,M,CLR,M,M,M,M,M,M,M,-RA,M,M,M,M,M,M,76.00,KWMC 141156Z AUTO 20007KT 10SM -RA CLR 24/07 A3013 RMK AO2 SLP138 P0000 60000 T02440067 10311 20244 53000,M
HND,2024-07-14 11:56,-115.1344,35.9729,742.79,76.00,62.00,61.87,170.00,6.00,0.00,30.06,1016.30,10.00,M,CLR,M,M,M,M,M,M,M,M,M,M,M,M,M,M,76.00,KHND 141156Z AUTO 17006KT 10SM CLR 24/17 A3006 RMK AO2 SLP163 70008 T02440167 10278 20244 53001,M
TPH,2024-07-14 11:56,-117.0904,38.0505,1654.00,61.00,48.00,62.23,330.00,5.00,0.00,30.29,1018.50,10.00,M,CLR,M,M,M,M,M,M,M,M,M,M,M,M,M,M,61.00,KTPH 141156Z AUTO 33005KT 10SM CLR 16/09 A3029 RMK AO2 SLP185 T01610089 10239 20161 55001,M
LAS,2024-07-14 11:56,-115.1634,36.0719,663.00,83.00,59.00,44.20,190.00,4.00,0.00,30.02,1013.60,10.00,M,FEW,M,M,M,14000.00,M,M,M,M,M,M,M,M,M,M,82.94,KLAS 141156Z 19004KT 10SM FEW140 28/15 A3002 RMK AO2 SLP136 70008 T02830150 10311 20278 50003 $,M
NFL,2024-07-14 11:56,-118.7010,39.4166,1199.00,76.00,54.00,46.42,180.00,11.00,0.00,30.14,1017.10,10.00,M,OVC,M,M,M,12000.00,M,M,M,M,M,M,M,M,M,M,76.00,KNFL 141156Z AUTO 18011KT 10SM OVC120 24/12 A3014 RMK AO2 SLP171 T02440122 10300 20244 53004,M
BVU,2024-07-14 12:15,-114.8611,35.9475,671.00,78.80,59.00,50.69,0.00,0.00,0.00,30.00,M,10.00,M,CLR,M,M,M,M,M,M,M,M,M,M,M,M,M,M,78.80,KBVU 141215Z AUTO 00000KT 10SM CLR 26/15 A3000 RMK AO2,M
CXP,2024-07-14 12:15,-119.7326,39.1923,1431.00,69.80,48.20,46.16,0.00,0.00,0.00,30.23,M,10.00,M,SCT,M,M,M,12000.00,M,M,M,M,M,M,M,M,M,M,69.80,KCXP 141215Z AUTO 00000KT 10SM SCT120 21/09 A3023 RMK AO2,M
RTS,2024-07-14 12:15,-119.8764,39.6682,1539.00,66.20,42.80,42.57,0.00,0.00,0.00,30.24,M,10.00,M,BKN,M,M,M,12000.00,M,M,M,M,M,M,M,M,M,M,66.20,KRTS 141215Z AUTO 00000KT 10SM BKN120 19/06 A3024 RMK AO2,M
05U,2024-07-14 12:15,-116.0051,39.6042,1811.23,64.40,42.80,45.32,0.00,0.00,0.00,30.32,M,10.00,M,M,M,M,M,M,M,M,M,M,M,M,M,M,M,M,64.40,K05U 141215Z AUTO 00000KT 10SM 18/06 A3032 RMK A01,M
MEV,2024-07-14 12:15,-119.7500,38.9963,1441.42,62.60,51.80,67.75,0.00,0.00,0.00,30.22,M,10.00,M,CLR,M,M,M,M,M,M,M,M,M,M,M,M,M,M,62.60,KMEV 141215Z AUTO 00000KT 10SM CLR 17/11 A3022 RMK AO2,M
BAM,2024-07-14 12:15,-116.8743,40.5990,1382.36,73.40,50.00,43.69,0.00,0.00,0.00,30.17,M,10.00,M,SCT,M,M,M,10000.00,M,M,M,M,M,M,M,M,M,M,73.40,KBAM 141215Z AUTO 00000KT 10SM SCT100 23/10 A3017 RMK AO1,M
HTH,2024-07-14 12:15,-118.6315,38.5448,1282.89,68.00,51.80,56.13,140.00,7.00,0.00,30.19,M,10.00,M,CLR,M,M,M,M,M,M,M,M,M,M,M,M,M,M,68.00,KHTH 141215Z AUTO 14007KT 10SM CLR 20/11 A3019 RMK A01,M
TMT,2024-07-14 12:15,-117.1971,39.4643,1749.34,60.60,50.00,68.02,0.00,0.00,0.00,30.30,M,10.00,M,CLR,M,M,M,M,M,M,M,M,M,M,M,M,M,M,60.60,KTMT 141215Z AUTO 00000KT 10SM CLR 16/10 A3030 RMK AO2 T01590100,M
CXP,2024-07-14 12:30,-119.7326,39.1923,1431.00,69.80,48.20,46.16,0.00,0.00,0.00,30.23,M,10.00,M,FEW,M,M,M,12000.00,M,M,M,M,M,M,M,M,M,M,69.80,KCXP 141230Z AUTO 00000KT 10SM FEW120 21/09 A3023 RMK AO2,M
BVU,2024-07-14 12:35,-114.8611,35.9475,671.00,78.80,59.00,50.69,0.00,0.00,0.00,30.01,M,10.00,M,CLR,M,M,M,M,M,M,M,M,M,M,M,M,M,M,78.80,KBVU 141235Z AUTO 00000KT 10SM CLR 26/15 A3001 RMK AO2,M
RTS,2024-07-14 12:35,-119.8764,39.6682,1539.00,62.60,42.80,48.28,340.00,4.00,0.00,30.24,M,10.00,M,SCT,M,M,M,12000.00,M,M,M,M,M,M,M,M,M,M,62.60,KRTS 141235Z AUTO 34004KT 10SM SCT120 17/06 A3024 RMK AO2,M
05U,2024-07-14 12:35,-116.0051,39.6042,1811.23,62.60,42.80,48.28,0.00,0.00,0.00,30.32,M,10.00,M,M,M,M,M,M,M,M,M,M,M,M,M,M,M,M,62.60,K05U 141235Z AUTO 00000KT 10SM 17/06 A3032 RMK A01,M
MEV,2024-07-14 12:35,-119.7500,38.9963,1441.42,62.60,50.00,63.38,260.00,3.00,0.00,30.22,M,10.00,M,CLR,M,M,M,M,M,M,M,M,M,M,M,M,M,M,62.60,KMEV 141235Z AUTO 26003KT 10SM CLR 17/10 A3022 RMK AO2,M
BAM,2024-07-14 12:35,-116.8743,40.5990,1382.36,73.40,50.00,43.69,120.00,7.00,0.00,30.17,M,10.00,M,SCT,M,M,M,11000.00,M,M,M,M,M,M,M,M,M,M,73.40,KBAM 141235Z AUTO 12007KT 10SM SCT110 23/10 A3017 RMK AO1,M
HTH,2024-07-14 12:35,-118.6315,38.5448,1282.89,69.80,51.80,52.77,150.00,6.00,0.00,30.20,M,10.00,M,CLR,M,M,M,M,M,M,M,M,M,M,M,M,M,M,69.80,KHTH 141235Z AUTO 15006KT 10SM CLR 21/11 A3020 RMK A01,M
TMT,2024-07-14 12:35,-117.1971,39.4643,1749.34,58.30,49.00,71.14,170.00,3.00,0.00,30.31,M,10.00,M,CLR,M,M,M,M,M,M,M,M,M,M,M,M,M,M,58.30,KTMT 141235Z AUTO 17003KT 10SM CLR 15/10 A3031 RMK AO2 T01460095,M
05U,2024-07-14 12:50,-116.0051,39.6042,1811.23,62.60,41.00,45.04,0.00,0.00,0.00,30.32,M,10.00,M,M,M,M,M,M,M,M,M,M,M,M,M,M,M,M,62.60,K05U 141250Z AUTO 00000KT 10SM 17/05 A3032 RMK A01,M
P68,2024-07-14 12:53,-116.0056,39.6014,1993.00,63.00,42.00,46.16,170.00,7.00,0.00,30.30,1016.80,M,M,M,M,M,M,M,M,M,M,M,M,M,M,M,M,M,63.00,KP68 141253Z AUTO 17007KT 17/06 A3030 RMK AO1 SLP168 T01720056,M
DRA,2024-07-14 12:53,-116.0278,36.6206,1009.00,71.00,54.00,54.92,0.00,0.00,0.00,30.11,1014.60,10.00,M,CLR,M,M,M,M,M,M,M,M,M,M,M,M,M,M,71.00,KDRA 141253Z AUTO 00000KT 10SM CLR 22/12 A3011 RMK AO2 SLP146 T02170122,M
ELY,2024-07-14 12:53,-114.8453,39.2950,1909.00,63.00,44.00,49.84,110.00,5.00,0.00,30.35,1017.00,10.00,M,CLR,M,M,M,M,M,M,M,M,M,M,M,M,M,M,63.00,KELY 141253Z AUTO 11005KT 10SM CLR 17/07 A3035 RMK AO2 SLP170 T01720067,M
VGT,2024-07-14 12:53,-115.1933,36.2111,667.00,84.00,57.00,39.83,270.00,4.00,0.00,30.02,1015.10,10.00,M,CLR,M,M,M,M,M,M,M,M,M,M,M,M,M,M,83.26,KVGT 141253Z AUTO 27004KT 10SM CLR 29/14 A3002 RMK AO2 SLP151 T02890139,M
LOL,2024-07-14 12:53,-118.5701,40.0684,1192.43,80.00,46.00,30.20,280.00,8.00,0.00,30.13,1014.80,10.00,M,FEW,SCT,M,M,8500.00,11000.00,M,M,M,M,M,M,M,M,M,79.20,KLOL 141253Z AUTO 28008KT 10SM FEW085 SCT110 27/08 A3013 RMK AO2 SLP148 T02670078,M
BVU,2024-07-14 12:55,-114.8611,35.9475,671.00,78.80,59.00,50.69,0.00,0.00,0.00,30.02,M,10.00,M,CLR,M,M,M,M,M,M,M,M,M,M,M,M,M,M,78.80,KBVU 141255Z AUTO 00000KT 10SM CLR 26/15 A3002 RMK AO2,M
CXP,2024-07-14 12:55,-119.7326,39.1923,1431.00,68.00,48.20,49.10,0.00,0.00,0.00,30.23,M,10.00,M,CLR,M,M,M,M,M,M,M,M,M,M,M,M,M,M,68.00,KCXP 141255Z AUTO 00000KT 10SM CLR 20/09 A3023 RMK AO2,M
RNO,2024-07-14 12:55,-119.7711,39.4839,1341.00,73.00,47.00,39.58,190.00,3.00,0.00,30.19,1016.20,10.00,M,SCT,BKN,M,M,12000.00,20000.00,M,M,M,M,M,M,M,M,M,73.00,KRNO 141255Z 19003KT 10SM SCT120 BKN200 23/08 A3019 RMK AO2 SLP162 T02280083 $,M
RTS,2024-07-14 12:55,-119.8764,39.6682,1539.00,64.40,42.80,45.32,350.00,4.00,0.00,30.24,M,10.00,M,CLR,M,M,M,M,M,M,M,M,M,M,M,M,M,M,64.40,KRTS 141255Z AUTO 35004KT 10SM CLR 18/06 A3024 RMK AO2,M
MEV,2024-07-14 12:55,-119.7500,38.9963,1441.42,59.00,50.00,72.01,130.00,3.00,0.00,30.22,M,10.00,M,BKN,M,M,M,11000.00,M,M,M,M,M,M,M,M,M,M,59.00,KMEV 141255Z AUTO 13003KT 10SM BKN110 15/10 A3022 RMK AO2,M
BAM,2024-07-14 12:55,-116.8743,40.5990,1382.36,71.60,50.00,46.43,160.00,5.00,0.00,30.18,M,10.00,M,BKN,M,M,M,11000.00,M,M,M,M,M,M,M,M,M,M,71.60,KBAM 141255Z AUTO 16005KT 10SM BKN110 22/10 A3018 RMK AO1,M
HTH,2024-07-14 12:55,-118.6315,38.5448,1282.89,68.00,51.80,56.13,150.00,6.00,0.00,30.20,M,10.00,M,CLR,M,M,M,M,M,M,M,M,M,M,M,M,M,M,68.00,KHTH 141255Z AUTO 15006KT 10SM CLR 20/11 A3020 RMK A01,M
TMT,2024-07-14 12:55,-117.1971,39.4643,1749.34,54.70,47.00,75.17,120.00,4.00,0.00,30.31,M,10.00,M,CLR,M,M,M,M,M,M,M,M,M,M,M,M,M,M,54.70,KTMT 141255Z AUTO 12004KT 10SM CLR 13/08 A3031 RMK AO2 T01260084,M
INS,2024-07-14 12:55,-115.6733,36.5872,955.00,73.00,56.30,55.80,270.00,3.00,0.00,30.10,1013.40,10.00,M,FEW,M,M,M,14000.00,M,M,M,M,M,M,M,M,M,M,73.00,KINS 141255Z AUTO 27003KT 10SM FEW140 23/14 A3010 RMK AO2 SLP134 T02270135 $,M
LSV,2024-07-14 12:55,-115.0343,36.2362,570.00,81.30,62.00,51.96,270.00,4.00,0.00,29.97,1011.80,10.00,M,CLR,M,M,M,M,M,M,M,M,M,M,M,M,M,M,82.29,KLSV 141255Z AUTO 27004KT 10SM CLR 27/17 A2997 RMK AO2 SLP118 T02740166 $,M
EKO,2024-07-14 12:56,-115.7860,40.8242,1367.00,70.00,46.00,42.20,30.00,3.00,0.00,30.23,1016.80,10.00,M,SCT,M,M,M,12000.00,M,M,M,M,M,M,M,M,M,M,70.00,KEKO 141256Z AUTO 03003KT 10SM SCT120 21/08 A3023 RMK AO2 SLP168 T02110078,M
WMC,2024-07-14 12:56,-117.8072,40.9019,1315.00,77.00,44.00,30.90,210.00,7.00,T,30.14,1014.10,10.00,M,FEW,M,M,M,12000.00,M,M,M,-RA,M,M,M,M,M,M,77.00,KWMC 141256Z AUTO 21007KT 10SM -RA FEW120 25/07 A3014 RMK AO2 SLP141 P0000 T02500067,M
NFL,2024-07-14 12:56,-118.7010,39.4166,1199.00,76.00,55.00,48.14,180.00,14.00,T,30.16,1017.70,10.00,M,OVC,M,M,M,11000.00,M,M,M,M,M,M,M,M,M,M,76.00,KNFL 141256Z AUTO 18014KT 10SM OVC110 24/13 A3016 RMK AO2 RAB46E55 SLP177 P0000 T02440128,M
HND,2024-07-14 12:56,-115.1344,35.9729,742.79,77.00,60.00,55.75,200.00,8.00,0.00,30.07,1016.50,10.00,M,CLR,M,M,M,M,M,M,M,M,M,M,M,M,M,M,77.00,KHND 141256Z AUTO 20008KT 10SM CLR 25/16 A3007 RMK AO2 SLP165 T02500156,M
TPH,2024-07-14 12:56,-117.0904,38.0505,1654.00,62.00,49.00,62.36,340.00,9.00,0.00,30.30,1018.40,10.00,M,CLR,M,M,M,M,M,M,M,M,M,M,M,M,M,M,62.00,KTPH 141256Z AUTO 34009KT 10SM CLR 17/09 A3030 RMK AO2 SLP184 T01670094,M
LAS,2024-07-14 12:56,-115.1634,36.0719,663.00,82.00,61.00,49.03,210.00,6.00,0.00,30.03,1013.90,10.00,M,FEW,FEW,M,M,8000.00,14000.00,M,M,M,M,M,M,M,M,M,82.62,KLAS 141256Z 21006KT 10SM FEW080 FEW140 28/16 A3003 RMK AO2 SLP139 TCU DSNT S-SW T02780161 $,M
05U,2024-07-14 13:05,-116.0051,39.6042,1811.23,62.60,41.00,45.04,0.00,0.00,0.00,30.32,M,10.00,M,M,M,M,M,M,M,M,M,M,M,M,M,M,M,M,62.60,K05U 141305Z AUTO 00000KT 10SM 17/05 A3032 RMK A01,M
BVU,2024-07-14 13:15,-114.8611,35.9475,671.00,80.60,59.00,47.79,0.00,0.00,0.00,30.03,M,10.00,M,CLR,M,M,M,M,M,M,M,M,M,M,M,M,M,M,81.11,KBVU 141315Z AUTO 00000KT 10SM CLR 27/15 A3003 RMK AO2,M
CXP,2024-07-14 13:15,-119.7326,39.1923,1431.00,68.00,50.00,52.51,0.00,0.00,0.00,30.23,M,10.00,M,CLR,M,M,M,M,M,M,M,M,M,M,M,M,M,M,68.00,KCXP 141315Z AUTO 00000KT 10SM CLR 20/10 A3023 RMK AO2 LTG DSNT S,M
RTS,2024-07-14 13:15,-119.8764,39.6682,1539.00,64.40,42.80,45.32,0.00,0.00,0.00,30.25,M,10.00,M,FEW,M,M,M,12000.00,M,M,M,M,M,M,M,M,M,M,64.40,KRTS 141315Z AUTO 00000KT 10SM FEW120 18/06 A3025 RMK AO2,M
MEV,2024-07-14 13:15,-119.7500,38.9963,1441.42,60.80,53.60,77.14,80.00,6.00,0.00,30.22,M,10.00,M,OVC,M,M,M,11000.00,M,M,M,M,M,M,M,M,M,M,60.80,KMEV 141315Z AUTO 08006KT 10SM OVC110 16/12 A3022 RMK AO2 LTG DSNT S,M
BAM,2024-07-14 13:15,-116.8743,40.5990,1382.36,73.40,50.00,43.69,170.00,3.00,0.00,30.19,M,10.00,M,SCT,M,M,M,12000.00,M,M,M,M,M,M,M,M,M,M,73.40,KBAM 141315Z AUTO 17003KT 10SM SCT120 23/10 A3019 RMK AO1,M
HTH,2024-07-14 13:15,-118.6315,38.5448,1282.89,68.00,51.80,56.13,120.00,6.00,0.00,30.21,M,10.00,M,CLR,M,M,M,M,M,M,M,M,M,M,M,M,M,M,68.00,KHTH 141315Z AUTO 12006KT 10SM CLR 20/11 A3021 RMK A01,M
TMT,2024-07-14 13:15,-117.1971,39.4643,1749.34,57.00,47.50,70.47,0.00,0.00,0.00,30.31,M,10.00,M,CLR,M,M,M,M,M,M,M,M,M,M,M,M,M,M,57.00,KTMT 141315Z AUTO 00000KT 10SM CLR 14/09 A3031 RMK AO2 T01380086,M
05U,2024-07-14 13:25,-116.0051,39.6042,1811.23,64.40,42.80,45.32,0.00,0.00,0.00,30.32,M,10.00,M,M,M,M,M,M,M,M,M,M,M,M,M,M,M,M,64.40,K05U 141325Z AUTO 00000KT 10SM 18/06 A3032 RMK A01,M
BVU,2024-07-14 13:35,-114.8611,35.9475,671.00,82.40,57.20,42.25,0.00,0.00,0.00,30.04,M,10.00,M,CLR,M,M,M,M,M,M,M,M,M,M,M,M,M,M,82.08,KBVU 141335Z AUTO 00000KT 10SM CLR 28/14 A3004 RMK AO2,M
CXP,2024-07-14 13:35,-119.7326,39.1923,1431.00,66.20,50.00,55.88,180.00,5.00,0.00,30.24,M,10.00,M,FEW,M,M,M,12000.00,M,M,M,M,M,M,M,M,M,M,66.20,KCXP 141335Z AUTO 18005KT 10SM FEW120 19/10 A3024 RMK AO2,M
RTS,2024-07-14 13:35,-119.8764,39.6682,1539.00,66.20,46.40,48.83,0.00,0.00,0.00,30.25,M,10.00,M,SCT,M,M,M,12000.00,M,M,M,M,M,M,M,M,M,M,66.20,KRTS 141335Z AUTO 00000KT 10SM SCT120 19/08 A3025 RMK AO2,M
MEV,2024-07-14 13:35,-119.7500,38.9963,1441.42,62.60,51.80,67.75,0.00,0.00,0.00,30.23,M,10.00,M,BKN,M,M,M,11000.00,M,M,M,M,M,M,M,M,M,M,62.60,KMEV 141335Z AUTO 00000KT 10SM BKN110 17/11 A3023 RMK AO2,M
BAM,2024-07-14 13:35,-116.8743,40.5990,1382.36,77.00,50.00,38.74,150.00,4.00,0.00,30.19,M,10.00,M,SCT,M,M,M,12000.00,M,M,M,M,M,M,M,M,M,M,77.00,KBAM 141335Z AUTO 15004KT 10SM SCT120 25/10 A3019 RMK AO1,M
HTH,2024-07-14 13:35,-118.6315,38.5448,1282.89,69.80,50.00,49.37,130.00,6.00,0.00,30.21,M,10.00,M,CLR,M,M,M,M,M,M,M,M,M,M,M,M,M,M,69.80,KHTH 141335Z AUTO 13006KT 10SM CLR 21/10 A3021 RMK A01,M
TMT,2024-07-14 13:35,-117.1971,39.4643,1749.34,58.00,48.20,69.79,0.00,0.00,0.00,30.31,M,10.00,M,CLR,M,M,M,M,M,M,M,M,M,M,M,M,M,M,58.00,KTMT 141335Z AUTO 00000KT 10SM CLR 15/09 A3031 RMK AO2 T01450090,M
05U,2024-07-14 13:45,-116.0051,39.6042,1811.23,66.20,42.80,42.57,0.00,0.00,0.00,30.33,M,10.00,M,M,M,M,M,M,M,M,M,M,M,M,M,M,M,M,66.20,K05U 141345Z AUTO 00000KT 10SM 19/06 A3033 RMK A01,M
P68,2024-07-14 13:53,-116.0056,39.6014,1993.00,67.00,44.00,43.35,220.00,5.00,0.00,30.31,1017.60,M,M,M,M,M,M,M,M,M,M,M,M,M,M,M,M,M,67.00,KP68 141353Z AUTO 22005KT 19/07 A3031 RMK AO1 SLP176 T01940067,M
DRA,2024-07-14 13:53,-116.0278,36.6206,1009.00,75.00,57.00,53.52,100.00,4.00,0.00,30.13,1015.30,10.00,M,CLR,M,M,M,M,M,M,M,M,M,M,M,M,M,M,75.00,KDRA 141353Z AUTO 10004KT 10SM CLR 24/14 A3013 RMK AO2 SLP153 T02390139,M
ELY,2024-07-14 13:53,-114.8453,39.2950,1909.00,67.00,45.00,45.04,140.00,8.00,0.00,30.35,1016.90,10.00,M,CLR,M,M,M,M,M,M,M,M,M,M,M,M,M,M,67.00,KELY 141353Z AUTO 14008KT 10SM CLR 19/07 A3035 RMK AO2 SLP169 T01940072,M
VGT,2024-07-14 13:53,-115.1933,36.2111,667.00,86.00,59.00,40.14,0.00,0.00,0.00,30.05,1016.10,10.00,M,FEW,M,M,M,11000.00,M,M,M,M,M,M,M,M,M,M,85.47,KVGT 141353Z 00000KT 10SM FEW110 30/15 A3005 RMK AO2 SLP161 T03000150,M
LOL,2024-07-14 13:53,-118.5701,40.0684,1192.43,76.00,52.00,43.13,200.00,6.00,0.00,30.17,1016.40,10.00,M,SCT,OVC,M,M,9000.00,11000.00,M,M,M,M,M,M,M,M,M,76.00,KLOL 141353Z AUTO 20006KT 10SM SCT090 OVC110 24/11 A3017 RMK AO2 SLP164 T02440111,M
BVU,2024-07-14 13:55,-114.8611,35.9475,671.00,84.20,57.20,39.86,0.00,0.00,0.00,30.05,M,10.00,M,CLR,M,M,M,M,M,M,M,M,M,M,M,M,M,M,83.47,KBVU 141355Z AUTO 00000KT 10SM CLR 29/14 A3005 RMK AO2,M
CXP,2024-07-14 13:55,-119.7326,39.1923,1431.00,68.00,50.00,52.51,0.00,0.00,0.00,30.25,M,10.00,M,BKN,M,M,M,12000.00,M,M,M,M,M,M,M,M,M,M,68.00,KCXP 141355Z AUTO 00000KT 10SM BKN120 20/10 A3025 RMK AO2,M
RNO,2024-07-14 13:55,-119.7711,39.4839,1341.00,74.00,48.00,39.74,0.00,0.00,0.00,30.21,1016.70,10.00,M,BKN,M,M,M,12000.00,M,M,M,M,M,M,M,M,M,M,74.00,KRNO 141355Z 00000KT 10SM BKN120 23/09 A3021 RMK AO2 SLP167 VIRGA W TCU DSNT S T02330089 $,M
RTS,2024-07-14 13:55,-119.8764,39.6682,1539.00,68.00,46.40,45.88,0.00,0.00,0.00,30.26,M,10.00,M,BKN,M,M,M,11000.00,M,M,M,M,M,M,M,M,M,M,68.00,KRTS 141355Z AUTO 00000KT 10SM BKN110 20/08 A3026 RMK AO2,M
MEV,2024-07-14 13:55,-119.7500,38.9963,1441.42,64.40,51.80,63.60,0.00,0.00,0.00,30.23,M,10.00,M,OVC,M,M,M,11000.00,M,M,M,M,M,M,M,M,M,M,64.40,KMEV 141355Z AUTO 00000KT 10SM OVC110 18/11 A3023 RMK AO2 LTG DSNT S,M
BAM,2024-07-14 13:55,-116.8743,40.5990,1382.36,77.00,50.00,38.74,180.00,4.00,0.00,30.20,M,10.00,M,SCT,M,M,M,12000.00,M,M,M,M,M,M,M,M,M,M,77.00,KBAM 141355Z AUTO 18004KT 10SM SCT120 25/10 A3020 RMK AO1,M
HTH,2024-07-14 13:55,-118.6315,38.5448,1282.89,73.40,48.20,40.85,130.00,4.00,0.00,30.21,M,10.00,M,CLR,M,M,M,M,M,M,M,M,M,M,M,M,M,M,73.40,KHTH 141355Z AUTO 13004KT 10SM CLR 23/09 A3021 RMK A01,M
TMT,2024-07-14 13:55,-117.1971,39.4643,1749.34,61.70,49.50,64.21,0.00,0.00,0.00,30.31,M,10.00,M,CLR,M,M,M,M,M,M,M,M,M,M,M,M,M,M,61.70,KTMT 141355Z AUTO 00000KT 10SM CLR 17/10 A3031 RMK AO2 T01650097,M
INS,2024-07-14 13:55,-115.6733,36.5872,955.00,76.30,56.30,49.97,280.00,4.00,0.00,30.12,1014.80,10.00,M,CLR,M,M,M,M,M,M,M,M,M,M,M,M,M,M,76.30,KINS 141355Z AUTO 28004KT 10SM CLR 25/14 A3012 RMK AO2 SLP148 T02460135 $,M
LSV,2024-07-14 13:55,-115.0343,36.2362,570.00,82.80,64.40,53.85,260.00,4.00,0.00,30.00,1012.80,10.00,M,CLR,M,M,M,M,M,M,M,M,M,M,M,M,M,M,84.36,KLSV 141355Z AUTO 26004KT 10SM CLR 28/18 A3000 RMK AO2 SLP128 T02820180 $,M
EKO,2024-07-14 13:56,-115.7860,40.8242,1367.00,71.00,48.00,43.98,0.00,0.00,0.00,30.23,1017.00,10.00,M,CLR,M,M,M,M,M,M,M,M,M,M,M,M,M,M,71.00,KEKO 141356Z AUTO 00000KT 10SM CLR 22/09 A3023 RMK AO2 SLP170 T02170089,M
WMC,2024-07-14 13:56,-117.8072,40.9019,1315.00,81.00,44.00,27.09,190.00,8.00,T,30.16,1014.90,10.00,M,BKN,OVC,M,M,8500.00,11000.00,M,M,-RA,M,M,M,M,M,M,79.61,KWMC 141356Z AUTO 19008KT 10SM -RA BKN085 OVC110 27/07 A3016 RMK AO2 SLP149 P0000 T02720067,M
HND,2024-07-14 13:56,-115.1344,35.9729,742.79,81.00,62.00,52.48,170.00,6.00,0.00,30.09,1017.40,10.00,M,CLR,M,M,M,M,M,M,M,M,M,M,M,M,M,M,82.04,KHND 141356Z 17006KT 10SM CLR 27/17 A3009 RMK AO2 SLP174 T02720167,M
TPH,2024-07-14 13:56,-117.0904,38.0505,1654.00,65.00,50.00,58.26,350.00,11.00,0.00,30.30,1018.60,10.00,M,CLR,M,M,M,M,M,M,M,M,M,M,M,M,M,M,65.00,KTPH 141356Z AUTO 35011KT 10SM CLR 18/10 A3030 RMK AO2 SLP186 T01830100,M
LAS,2024-07-14 13:56,-115.1634,36.0719,663.00,86.00,59.00,40.14,0.00,0.00,0.00,30.06,1014.90,10.00,M,SCT,M,M,M,14000.00,M,M,M,M,M,M,M,M,M,M,85.47,KLAS 141356Z 00000KT 10SM SCT140 30/15 A3006 RMK AO2 SLP149 T03000150 $,M
NFL,2024-07-14 13:56,-118.7010,39.4166,1199.00,72.00,61.00,68.31,360.00,3.00,T,30.17,1018.10,10.00,M,OVC,M,M,M,10000.00,M,M,M,M,M,M,M,M,M,M,72.00,KNFL 141356Z AUTO 36003KT 10SM OVC100 22/16 A3017 RMK AO2 RAB30E46 SLP181 P0000 T02220161,M
05U,2024-07-14 14:00,-116.0051,39.6042,1811.23,69.80,44.60,40.29,30.00,6.00,0.00,30.33,M,10.00,M,M,M,M,M,M,M,M,M,M,M,M,M,M,M,M,69.80,K05U 141400Z AUTO 03006KT 10SM 21/07 A3033 RMK A01,M
BVU,2024-07-14 14:15,-114.8611,35.9475,671.00,84.20,57.20,39.86,10.00,4.00,0.00,30.05,M,10.00,M,CLR,M,M,M,M,M,M,M,M,M,M,M,M,M,M,83.47,KBVU 141415Z AUTO 01004KT 10SM CLR 29/14 A3005 RMK AO2,M
CXP,2024-07-14 14:15,-119.7326,39.1923,1431.00,69.80,50.00,49.37,0.00,0.00,0.00,30.26,M,10.00,M,OVC,M,M,M,12000.00,M,M,M,M,M,M,M,M,M,M,69.80,KCXP 141415Z AUTO 00000KT 10SM OVC120 21/10 A3026 RMK AO2,M
RTS,2024-07-14 14:15,-119.8764,39.6682,1539.00,68.00,44.60,42.85,0.00,0.00,0.00,30.27,M,10.00,M,FEW,FEW,OVC,M,5000.00,6000.00,10000.00,M,M,M,M,M,M,M,M,68.00,KRTS 141415Z AUTO 00000KT 10SM FEW050 FEW060 OVC100 20/07 A3027 RMK AO2,M
MEV,2024-07-14 14:15,-119.7500,38.9963,1441.42,66.20,51.80,59.74,0.00,0.00,0.00,30.24,M,10.00,M,OVC,M,M,M,11000.00,M,M,M,M,M,M,M,M,M,M,66.20,KMEV 141415Z AUTO 00000KT 10SM OVC110 19/11 A3024 RMK AO2,M
BAM,2024-07-14 14:15,-116.8743,40.5990,1382.36,77.00,50.00,38.74,190.00,5.00,0.00,30.20,M,10.00,M,SCT,M,M,M,12000.00,M,M,M,M,M,M,M,M,M,M,77.00,KBAM 141415Z AUTO 19005KT 10SM SCT120 25/10 A3020 RMK AO1,M
HTH,2024-07-14 14:15,-118.6315,38.5448,1282.89,73.40,50.00,43.69,160.00,5.00,0.00,30.21,M,10.00,M,CLR,M,M,M,M,M,M,M,M,M,M,M,M,M,M,73.40,KHTH 141415Z AUTO 16005KT 10SM CLR 23/10 A3021 RMK A01,M
TMT,2024-07-14 14:15,-117.1971,39.4643,1749.34,63.50,51.00,63.72,240.00,3.00,0.00,30.32,M,10.00,M,CLR,M,M,M,M,M,M,M,M,M,M,M,M,M,M,63.50,KTMT 141415Z AUTO 24003KT 10SM CLR 18/11 A3032 RMK AO2 T01750105,M
05U,2024-07-14 14:30,-116.0051,39.6042,1811.23,75.20,44.60,33.57,0.00,0.00,0.00,30.34,M,10.00,M,M,M,M,M,M,M,M,M,M,M,M,M,M,M,M,75.20,K05U 141430Z AUTO 00000KT 10SM 24/07 A3034 RMK A01,M
BVU,2024-07-14 14:35,-114.8611,35.9475,671.00,87.80,55.40,33.29,0.00,0.00,0.00,30.04,M,10.00,M,CLR,M,M,M,M,M,M,M,M,M,M,M,M,M,M,86.11,KBVU 141435Z AUTO 00000KT 10SM CLR 31/13 A3004 RMK AO2,M
CXP,2024-07-14 14:35,-119.7326,39.1923,1431.00,69.80,48.20,46.16,0.00,0.00,0.00,30.26,M,10.00,M,BKN,M,M,M,11000.00,M,M,M,M,M,M,M,M,M,M,69.80,KCXP 141435Z AUTO 00000KT 10SM BKN110 21/09 A3026 RMK AO2,M
RTS,2024-07-14 14:35,-119.8764,39.6682,1539.00,68.00,44.60,42.85,280.00,3.00,0.00,30.28,M,10.00,M,OVC,M,M,M,9500.00,M,M,M,M,M,M,M,M,M,M,68.00,KRTS 141435Z AUTO 28003KT 10SM OVC095 20/07 A3028 RMK AO2,M
MEV,2024-07-14 14:35,-119.7500,38.9963,1441.42,68.00,51.80,56.13,0.00,0.00,0.00,30.25,M,10.00,M,SCT,M,M,M,11000.00,M,M,M,M,M,M,M,M,M,M,68.00,KMEV 141435Z AUTO 00000KT 10SM SCT110 20/11 A3025 RMK AO2,M
BAM,2024-07-14 14:35,-116.8743,40.5990,1382.36,78.80,50.00,36.51,240.00,6.00,0.00,30.21,M,10.00,M,SCT,M,M,M,12000.00,M,M,M,M,M,M,M,M,M,M,78.80,KBAM 141435Z AUTO 24006KT 10SM SCT120 26/10 A3021 RMK AO1,M
HTH,2024-07-14 14:35,-118.6315,38.5448,1282.89,77.00,51.80,41.42,0.00,0.00,0.00,30.22,M,10.00,M,M,M,M,M,M,M,M,M,M,M,M,M,M,M,M,77.00,KHTH 141435Z AUTO 00000KT 10SM 25/11 A3022 RMK A01,M
TMT,2024-07-14 14:35,-117.1971,39.4643,1749.34,66.00,51.00,58.40,250.00,3.00,0.00,30.33,M,10.00,M,CLR,M,M,M,M,M,M,M,M,M,M,M,M,M,M,66.00,KTMT 141435Z AUTO 25003KT 10SM CLR 19/11 A3033 RMK AO2 T01890105,M
05U,2024-07-14 14:50,-116.0051,39.6042,1811.23,77.00,44.60,31.62,0.00,0.00,0.00,30.34,M,10.00,M,M,M,M,M,M,M,M,M,M,M,M,M,M,M,M,77.00,K05U 141450Z AUTO 00000KT 10SM 25/07 A3034 RMK A01,M
DRA,2024-07-14 14:53,-116.0278,36.6206,1009.00,80.00,53.00,39.21,0.00,0.00,0.00,30.15,1016.10,10.00,M,CLR,M,M,M,M,M,M,M,M,M,M,M,M,M,M,79.87,KDRA 141453Z AUTO 00000KT 10SM CLR 27/12 A3015 RMK AO2 SLP161 T02670117 53013,M
ELY,2024-07-14 14:53,-114.8453,39.2950,1909.00,73.00,46.00,38.11,190.00,9.00,0.00,30.35,1017.00,10.00,M,CLR,M,M,M,M,M,M,M,M,M,M,M,M,M,M,73.00,KELY 141453Z AUTO 19009KT 10SM CLR 23/08 A3035 RMK AO2 SLP170 T02280078 53000,M
VGT,2024-07-14 14:53,-115.1933,36.2111,667.00,90.00,59.00,35.36,0.00,0.00,0.00,30.06,1016.60,10.00,M,CLR,M,M,M,M,M,M,M,M,M,M,M,M,M,M,89.26,KVGT 141453Z 00000KT 10SM CLR 32/15 A3006 RMK AO2 SLP166 T03220150 53016,M
LOL,2024-07-14 14:53,-118.5701,40.0684,1192.43,76.00,56.00,49.92,0.00,0.00,T,30.18,1016.90,10.00,M,FEW,FEW,OVC,M,5500.00,7500.00,11000.00,M,M,M,M,M,M,M,M,76.00,KLOL 141453Z AUTO 00000KT 10SM FEW055 FEW075 OVC110 24/13 A3018 RMK AO2 RAB17E42 SLP169 P0000 60000 T02440133 51018,M
BVU,2024-07-14 14:55,-114.8611,35.9475,671.00,91.40,53.60,27.83,20.00,3.00,0.00,30.04,M,10.00,M,CLR,M,M,M,M,M,M,M,M,M,M,M,M,M,M,89.08,KBVU 141455Z AUTO 02003KT 10SM CLR 33/12 A3004 RMK AO2,M
CXP,2024-07-14 14:55,-119.7326,39.1923,1431.00,71.60,50.00,46.43,0.00,0.00,0.00,30.27,M,10.00,M,BKN,M,M,M,11000.00,M,M,M,M,M,M,M,M,M,M,71.60,KCXP 141455Z AUTO 00000KT 10SM BKN110 22/10 A3027 RMK AO2 LTG DSNT S,M
RNO,2024-07-14 14:55,-119.7711,39.4839,1341.00,74.00,49.00,41.26,280.00,6.00,T,30.24,1017.80,10.00,M,BKN,OVC,M,M,5000.00,10000.00,M,M,-RA,M,M,M,M,M,M,74.00,KRNO 141455Z 28006KT 10SM -RA BKN050 OVC100 23/09 A3024 RMK AO2 RAB53 SLP178 P0000 60000 T02330094 53015 $,M
RTS,2024-07-14 14:55,-119.8764,39.6682,1539.00,69.80,48.20,46.16,280.00,5.00,0.00,30.29,M,10.00,M,OVC,M,M,M,9000.00,M,M,M,M,M,M,M,M,M,M,69.80,KRTS 141455Z AUTO 28005KT 10SM OVC090 21/09 A3029 RMK AO2,M
MEV,2024-07-14 14:55,-119.7500,38.9963,1441.42,69.80,51.80,52.77,0.00,0.00,0.00,30.26,M,10.00,M,SCT,M,M,M,12000.00,M,M,M,M,M,M,M,M,M,M,69.80,KMEV 141455Z AUTO 00000KT 10SM SCT120 21/11 A3026 RMK AO2 LTG DSNT S,M
BAM,2024-07-14 14:55,-116.8743,40.5990,1382.36,82.40,50.00,32.46,230.00,7.00,0.00,30.21,M,10.00,M,BKN,M,M,M,12000.00,M,M,M,M,M,M,M,M,M,M,80.99,KBAM 141455Z AUTO 23007KT 10SM BKN120 28/10 A3021 RMK AO1,M
HTH,2024-07-14 14:55,-118.6315,38.5448,1282.89,77.00,51.80,41.42,210.00,3.00,0.00,30.22,M,10.00,M,CLR,M,M,M,M,M,M,M,M,M,M,M,M,M,M,77.00,KHTH 141455Z AUTO 21003KT 10SM CLR 25/11 A3022 RMK A01,M
TMT,2024-07-14 14:55,-117.1971,39.4643,1749.34,68.00,50.70,53.89,210.00,3.00,0.00,30.33,M,10.00,M,CLR,M,M,M,M,M,M,M,M,M,M,M,M,M,M,68.00,KTMT 141455Z AUTO 21003KT 10SM CLR 20/10 A3033 RMK AO2 T02010104,M
INS,2024-07-14 14:55,-115.6733,36.5872,955.00,82.00,55.20,39.81,30.00,3.00,0.00,30.13,1014.70,10.00,M,FEW,BKN,M,M,15000.00,17000.00,M,M,M,M,M,M,M,M,M,81.43,KINS 141455Z AUTO 03003KT 10SM FEW150 BKN170 28/13 A3013 RMK AO2 SLP147 T02770129 52012 $,M
LSV,2024-07-14 14:55,-115.0343,36.2362,570.00,85.30,60.30,42.99,0.00,0.00,0.00,30.02,1013.60,10.00,M,CLR,M,M,M,M,M,M,M,M,M,M,M,M,M,M,85.25,KLSV 141455Z AUTO 00000KT 10SM CLR 30/16 A3002 RMK AO2 SLP136 T02960157 52016 $,M
EKO,2024-07-14 14:56,-115.7860,40.8242,1367.00,75.00,49.00,39.90,0.00,0.00,0.00,30.24,1016.90,10.00,M,CLR,M,M,M,M,M,M,M,M,M,M,M,M,M,M,75.00,KEKO 141456Z AUTO 00000KT 10SM CLR 24/09 A3024 RMK AO2 SLP169 T02390094 51005,M
WMC,2024-07-14 14:56,-117.8072,40.9019,1315.00,85.00,46.00,25.69,180.00,8.00,T,30.18,1015.40,10.00,M,FEW,M,M,M,12000.00,M,M,M,-RA,M,M,M,M,M,M,82.42,KWMC 141456Z AUTO 18008KT 10SM -RA FEW120 29/08 A3018 RMK AO2 SLP154 P0000 60000 T02940078 53014,M
NFL,2024-07-14 14:56,-118.7010,39.4166,1199.00,78.00,58.00,50.22,160.00,8.00,T,30.18,1018.40,10.00,M,CLR,M,M,M,M,M,M,M,M,M,M,M,M,M,M,78.00,KNFL 141456Z AUTO 16008KT 10SM CLR 26/14 A3018 RMK AO2 RAB06E19 SLP184 P0000 60000 T02560144 51014,M
HND,2024-07-14 14:56,-115.1344,35.9729,742.79,85.00,60.00,42.95,180.00,5.00,0.00,30.10,1018.00,10.00,M,CLR,M,M,M,M,M,M,M,M,M,M,M,M,M,M,84.89,KHND 141456Z 18005KT 10SM CLR 29/16 A3010 RMK AO2 SLP180 T02940156 53014,M
TPH,2024-07-14 14:56,-117.0904,38.0505,1654.00,73.00,49.00,42.67,40.00,5.00,0.00,30.32,1018.40,10.00,M,CLR,M,M,M,M,M,M,M,M,M,M,M,M,M,M,73.00,KTPH 141456Z AUTO 04005KT 10SM CLR 23/09 A3032 RMK AO2 SLP184 T02280094 53008,M
LAS,2024-07-14 14:56,-115.1634,36.0719,663.00,90.00,59.00,35.36,0.00,0.00,0.00,30.07,1015.30,10.00,M,BKN,M,M,M,12000.00,M,M,M,M,M,M,M,M,M,M,89.26,KLAS 141456Z 00000KT 10SM BKN120 32/15 A3007 RMK AO2 SLP153 T03220150 53016 $,M
05U,2024-07-14 15:05,-116.0051,39.6042,1811.23,78.80,44.60,29.79,0.00,0.00,0.00,30.35,M,10.00,M,M,M,M,M,M,M,M,M,M,M,M,M,M,M,M,78.80,K05U 141505Z AUTO 00000KT 10SM 26/07 A3035 RMK A01,M
BVU,2024-07-14 15:15,-114.8611,35.9475,671.00,93.20,55.40,28.10,40.00,6.00,0.00,30.04,M,10.00,M,CLR,M,M,M,M,M,M,M,M,M,M,M,M,M,M,91.35,KBVU 141515Z AUTO 04006KT 10SM CLR 34/13 A3004 RMK AO2,M
CXP,2024-07-14 15:15,-119.7326,39.1923,1431.00,73.40,50.00,43.69,0.00,0.00,0.00,30.28,M,10.00,M,BKN,M,M,M,11000.00,M,M,M,M,M,M,M,M,M,M,73.40,KCXP 141515Z AUTO 00000KT 10SM BKN110 23/10 A3028 RMK AO2,M
RTS,2024-07-14 15:15,-119.8764,39.6682,1539.00,73.40,48.20,40.85,260.00,11.00,0.00,30.30,M,10.00,M,BKN,M,M,M,9000.00,M,M,M,M,M,M,M,M,M,M,73.40,KRTS 141515Z AUTO 26011KT 10SM BKN090 23/09 A3030 RMK AO2,M
MEV,2024-07-14 15:15,-119.7500,38.9963,1441.42,71.60,51.80,49.64,0.00,0.00,0.00,30.27,M,10.00,M,BKN,BKN,M,M,10000.00,12000.00,M,M,M,M,M,M,M,M,M,71.60,KMEV 141515Z AUTO 00000KT 10SM BKN100 BKN120 22/11 A3027 RMK AO2,M
BAM,2024-07-14 15:15,-116.8743,40.5990,1382.36,84.20,48.20,28.63,220.00,4.00,0.00,30.21,M,10.00,M,BKN,M,M,M,11000.00,M,M,M,M,M,M,M,M,M,M,82.04,KBAM 141515Z AUTO 22004KT 10SM BKN110 29/09 A3021 RMK AO1,M
HTH,2024-07-14 15:15,-118.6315,38.5448,1282.89,78.80,51.80,39.02,0.00,0.00,0.00,30.22,M,10.00,M,CLR,M,M,M,M,M,M,M,M,M,M,M,M,M,M,78.80,KHTH 141515Z AUTO 00000KT 10SM CLR 26/11 A3022 RMK A01,M
TMT,2024-07-14 15:15,-117.1971,39.4643,1749.34,70.00,51.60,52.03,240.00,4.00,0.00,30.34,M,10.00,M,CLR,M,M,M,M,M,M,M,M,M,M,M,M,M,M,70.00,KTMT 141515Z AUTO 24004KT 10SM CLR 21/11 A3034 RMK AO2 T02120109,M
05U,2024-07-14 15:25,-116.0051,39.6042,1811.23,80.60,44.60,28.08,0.00,0.00,0.00,30.35,M,10.00,M,M,M,M,M,M,M,M,M,M,M,M,M,M,M,M,79.42,K05U 141525Z AUTO 00000KT 10SM 27/07 A3035 RMK A01,M
BVU,2024-07-14 15:35,-114.8611,35.9475,671.00,91.40,57.20,31.72,60.00,6.00,0.00,30.05,M,10.00,M,CLR,M,M,M,M,M,M,M,M,M,M,M,M,M,M,90.06,KBVU 141535Z AUTO 06006KT 10SM CLR 33/14 A3005 RMK AO2,M
CXP,2024-07-14 15:35,-119.7326,39.1923,1431.00,73.40,50.00,43.69,0.00,0.00,0.00,30.29,M,10.00,M,BKN,M,M,M,10000.00,M,M,M,M,M,M,M,M,M,M,73.40,KCXP 141535Z AUTO 00000KT 10SM BKN100 23/10 A3029 RMK AO2,M
RTS,2024-07-14 15:35,-119.8764,39.6682,1539.00,73.40,48.20,40.85,280.00,12.00,0.00,30.31,M,10.00,M,BKN,M,M,M,9000.00,M,M,M,M,M,M,M,M,M,M,73.40,KRTS 141535Z AUTO 28012KT 10SM BKN090 23/09 A3031 RMK AO2,M
MEV,2024-07-14 15:35,-119.7500,38.9963,1441.42,68.00,55.40,64.04,0.00,0.00,0.00,30.28,M,7.00,11.00,SCT,M,M,M,10000.00,M,M,M,-RA,M,M,M,M,M,M,68.00,KMEV 141535Z AUTO 00000G11KT 7SM -RA SCT100 20/13 A3028 RMK AO2,M
BAM,2024-07-14 15:35,-116.8743,40.5990,1382.36,84.20,48.20,28.63,210.00,6.00,0.00,30.21,M,10.00,M,BKN,M,M,M,11000.00,M,M,M,M,M,M,M,M,M,M,82.04,KBAM 141535Z AUTO 21006KT 10SM BKN110 29/09 A3021 RMK AO1,M
HTH,2024-07-14 15:35,-118.6315,38.5448,1282.89,80.60,50.00,34.41,80.00,6.00,0.00,30.23,M,10.00,M,CLR,M,M,M,M,M,M,M,M,M,M,M,M,M,M,79.88,KHTH 141535Z AUTO 08006KT 10SM CLR 27/10 A3023 RMK A01,M
TMT,2024-07-14 15:35,-117.1971,39.4643,1749.34,73.80,48.70,41.07,220.00,5.00,0.00,30.33,M,10.00,M,CLR,M,M,M,M,M,M,M,M,M,M,M,M,M,M,73.80,KTMT 141535Z AUTO 22005KT 10SM CLR 23/09 A3033 RMK AO2 T02320093,M
05U,2024-07-14 15:45,-116.0051,39.6042,1811.23,82.40,44.60,26.49,0.00,0.00,0.00,30.34,M,10.00,M,M,M,M,M,M,M,M,M,M,M,M,M,M,M,M,80.50,K05U 141545Z AUTO 00000KT 10SM 28/07 A3034 RMK A01,M
P68,2024-07-14 15:53,-116.0056,39.6014,1993.00,80.00,45.00,29.08,290.00,5.00,0.00,30.31,1016.70,M,M,M,M,M,M,M,M,M,M,M,M,M,M,M,M,M,79.13,KP68 141553Z AUTO 29005KT 27/07 A3031 RMK AO1 SLP167 T02670072,M
DRA,2024-07-14 15:53,-116.0278,36.6206,1009.00,86.00,52.00,31.13,0.00,0.00,0.00,30.14,1015.60,10.00,M,FEW,M,M,M,12000.00,M,M,M,M,M,M,M,M,M,M,83.91,KDRA 141553Z AUTO 00000KT 10SM FEW120 30/11 A3014 RMK AO2 SLP156 T03000111,M
ELY,2024-07-14 15:53,-114.8453,39.2950,1909.00,80.00,45.00,29.08,210.00,9.00,0.00,30.34,1015.90,10.00,M,CLR,M,M,M,M,M,M,M,M,M,M,M,M,M,M,79.13,KELY 141553Z AUTO 21009KT 10SM CLR 27/07 A3034 RMK AO2 SLP159 T02670072,M
VGT,2024-07-14 15:53,-115.1933,36.2111,667.00,93.00,56.00,28.90,310.00,5.00,0.00,30.05,1016.40,10.00,M,CLR,M,M,M,M,M,M,M,M,M,M,M,M,M,M,91.32,KVGT 141553Z 31005KT 10SM CLR 34/13 A3005 RMK AO2 SLP164 T03390133,M
LOL,2024-07-14 15:53,-118.5701,40.0684,1192.43,74.00,56.00,53.37,70.00,7.00,T,30.19,1017.50,10.00,M,FEW,OVC,M,M,9000.00,11000.00,M,M,-RA,M,M,M,M,M,M,74.00,KLOL 141553Z AUTO 07007KT 10SM -RA FEW090 OVC110 23/13 A3019 RMK AO2 RAB07 SLP175 P0000 T02330133,M
BVU,2024-07-14 15:55,-114.8611,35.9475,671.00,93.20,57.20,29.99,60.00,5.00,0.00,30.04,M,10.00,M,CLR,M,M,M,M,M,M,M,M,M,M,M,M,M,M,91.91,KBVU 141555Z AUTO 06005KT 10SM CLR 34/14 A3004 RMK AO2,M
CXP,2024-07-14 15:55,-119.7326,39.1923,1431.00,73.40,51.80,46.71,M,4.00,0.00,30.30,M,10.00,M,FEW,SCT,OVC,M,5500.00,7500.00,10000.00,M,M,M,M,M,M,M,M,73.40,KCXP 141555Z AUTO VRB04KT 10SM FEW055 SCT075 OVC100 23/11 A3030 RMK AO2,M
RNO,2024-07-14 15:55,-119.7711,39.4839,1341.00,76.00,51.00,41.57,M,4.00,T,30.27,1018.70,10.00,M,BKN,M,M,M,5000.00,M,M,M,-RA,M,M,M,M,M,M,76.00,KRNO 141555Z VRB04KT 10SM -RA BKN050 24/11 A3027 RMK AO2 RAE03B50 SLP187 P0000 T02440106 $,M
RTS,2024-07-14 15:55,-119.8764,39.6682,1539.00,71.60,48.20,43.42,280.00,9.00,0.00,30.31,M,10.00,15.00,OVC,M,M,M,8500.00,M,M,M,M,M,M,M,M,M,M,71.60,KRTS 141555Z AUTO 28009G15KT 10SM OVC085 22/09 A3031 RMK AO2,M
MEV,2024-07-14 15:55,-119.7500,38.9963,1441.42,69.80,55.40,60.21,150.00,3.00,0.00,30.29,M,10.00,M,FEW,M,M,M,10000.00,M,M,M,M,M,M,M,M,M,M,69.80,KMEV 141555Z AUTO 15003KT 10SM FEW100 21/13 A3029 RMK AO2,M
BAM,2024-07-14 15:55,-116.8743,40.5990,1382.36,86.00,46.40,25.26,230.00,10.00,0.00,30.21,M,10.00,15.00,SCT,M,M,M,11000.00,M,M,M,M,M,M,M,M,M,M,83.22,KBAM 141555Z AUTO 23010G15KT 10SM SCT110 30/08 A3021 RMK AO1,M
HTH,2024-07-14 15:55,-118.6315,38.5448,1282.89,82.40,50.00,32.46,90.00,7.00,0.00,30.22,M,10.00,M,CLR,M,M,M,M,M,M,M,M,M,M,M,M,M,M,80.99,KHTH 141555Z AUTO 09007KT 10SM CLR 28/10 A3022 RMK A01,M
TMT,2024-07-14 15:55,-117.1971,39.4643,1749.34,74.50,50.00,42.11,0.00,0.00,0.00,30.33,M,10.00,M,CLR,M,M,M,M,M,M,M,M,M,M,M,M,M,M,74.50,KTMT 141555Z AUTO 00000KT 10SM CLR 24/10 A3033 RMK AO2 T02360099,M
INS,2024-07-14 15:55,-115.6733,36.5872,955.00,82.80,51.40,33.75,0.00,0.00,0.00,30.13,1014.70,10.00,M,FEW,SCT,M,M,16000.00,18000.00,M,M,M,M,M,M,M,M,M,81.42,KINS 141555Z AUTO 00000KT 10SM FEW160 SCT180 28/11 A3013 RMK AO2 SLP147 T02820108 $,M
LSV,2024-07-14 15:55,-115.0343,36.2362,570.00,89.60,58.30,34.92,0.00,0.00,0.00,30.00,1013.00,10.00,M,CLR,M,M,M,M,M,M,M,M,M,M,M,M,M,M,88.62,KLSV 141555Z AUTO 00000KT 10SM CLR 32/15 A3000 RMK AO2 SLP130 T03200146 $,M
EKO,2024-07-14 15:56,-115.7860,40.8242,1367.00,82.00,49.00,31.68,280.00,3.00,0.00,30.23,1016.70,10.00,M,CLR,M,M,M,M,M,M,M,M,M,M,M,M,M,M,80.62,KEKO 141556Z AUTO 28003KT 10SM CLR 28/09 A3023 RMK AO2 SLP167 T02780094,M
WMC,2024-07-14 15:56,-117.8072,40.9019,1315.00,85.00,45.00,24.73,250.00,13.00,T,30.19,1015.60,10.00,20.00,FEW,M,M,M,11000.00,M,M,M,-RA,M,M,M,M,M,M,82.34,KWMC 141556Z AUTO 25013G20KT 10SM -RA FEW110 29/07 A3019 RMK AO2 SLP156 P0000 T02940072,M
HND,2024-07-14 15:56,-115.1344,35.9729,742.79,92.00,54.00,27.72,0.00,0.00,0.00,30.10,1017.60,10.00,M,CLR,M,M,M,M,M,M,M,M,M,M,M,M,M,M,89.76,KHND 141556Z 00000KT 10SM CLR 33/12 A3010 RMK AO2 SLP176 T03330122,M
TPH,2024-07-14 15:56,-117.0904,38.0505,1654.00,76.00,49.00,38.59,0.00,0.00,0.00,30.32,1018.40,10.00,M,CLR,M,M,M,M,M,M,M,M,M,M,M,M,M,M,76.00,KTPH 141556Z AUTO 00000KT 10SM CLR 24/09 A3032 RMK AO2 SLP184 T02440094,M
LAS,2024-07-14 15:56,-115.1634,36.0719,663.00,92.00,58.00,32.04,200.00,4.00,0.00,30.06,1015.10,10.00,M,FEW,SCT,M,M,12000.00,16000.00,M,M,M,M,M,M,M,M,M,90.94,KLAS 141556Z 20004KT 10SM FEW120 SCT160 33/14 A3006 RMK AO2 SLP151 T03330144 $,M
NFL,2024-07-14 15:56,-118.7010,39.4166,1199.00,84.00,54.00,35.72,180.00,11.00,0.00,30.19,1018.70,10.00,M,BKN,M,M,M,12000.00,M,M,M,M,M,M,M,M,M,M,82.67,KNFL 141556Z AUTO 18011KT 10SM BKN120 29/12 A3019 RMK AO2 SLP187 T02890122,M
05U,2024-07-14 16:05,-116.0051,39.6042,1811.23,82.40,42.80,24.72,0.00,0.00,0.00,30.34,M,10.00,M,M,M,M,M,M,M,M,M,M,M,M,M,M,M,M,80.39,K05U 141605Z AUTO 00000KT 10SM 28/06 A3034 RMK A01,M
BVU,2024-07-14 16:15,-114.8611,35.9475,671.00,93.20,55.40,28.10,0.00,0.00,0.00,30.04,M,10.00,M,CLR,M,M,M,M,M,M,M,M,M,M,M,M,M,M,91.35,KBVU 141615Z AUTO 00000KT 10SM CLR 34/13 A3004 RMK AO2,M
CXP,2024-07-14 16:15,-119.7326,39.1923,1431.00,68.00,60.80,77.75,0.00,0.00,0.00,30.30,M,7.00,M,FEW,SCT,OVC,M,5000.00,6500.00,8000.00,M,-RA,M,M,M,M,M,M,68.00,KCXP 141615Z AUTO 00000KT 7SM -RA FEW050 SCT065 OVC080 20/16 A3030 RMK AO2,M
RTS,2024-07-14 16:15,-119.8764,39.6682,1539.00,71.60,48.20,43.42,260.00,6.00,0.00,30.31,M,10.00,M,OVC,M,M,M,8500.00,M,M,M,M,M,M,M,M,M,M,71.60,KRTS 141615Z AUTO 26006KT 10SM OVC085 22/09 A3031 RMK AO2,M
MEV,2024-07-14 16:15,-119.7500,38.9963,1441.42,73.40,53.60,49.90,0.00,0.00,0.00,30.29,M,10.00,M,FEW,BKN,M,M,7000.00,10000.00,M,M,M,M,M,M,M,M,M,73.40,KMEV 141615Z AUTO 00000KT 10SM FEW070 BKN100 23/12 A3029 RMK AO2,M
BAM,2024-07-14 16:15,-116.8743,40.5990,1382.36,87.80,48.20,25.52,230.00,10.00,0.00,30.20,M,10.00,15.00,CLR,M,M,M,M,M,M,M,M,M,M,M,M,M,M,84.87,KBAM 141615Z AUTO 23010G15KT 10SM CLR 31/09 A3020 RMK AO1,M
HTH,2024-07-14 16:15,-118.6315,38.5448,1282.89,82.40,48.20,30.35,0.00,0.00,0.00,30.22,M,10.00,M,CLR,M,M,M,M,M,M,M,M,M,M,M,M,M,M,80.80,KHTH 141615Z AUTO 00000KT 10SM CLR 28/09 A3022 RMK A01,M
TMT,2024-07-14 16:15,-117.1971,39.4643,1749.34,77.00,49.00,37.33,220.00,6.00,0.00,30.33,M,10.00,M,CLR,M,M,M,M,M,M,M,M,M,M,M,M,M,M,77.00,KTMT 141615Z AUTO 22006KT 10SM CLR 25/10 A3033 RMK AO2 T02500095,M
05U,2024-07-14 16:30,-116.0051,39.6042,1811.23,84.20,42.80,23.33,0.00,0.00,0.00,30.33,M,10.00,10.00,M,M,M,M,M,M,M,M,M,M,M,M,M,M,M,81.61,K05U 141630Z AUTO 00000G10KT 10SM 29/06 A3033 RMK A01,M
BVU,2024-07-14 16:35,-114.8611,35.9475,671.00,95.00,53.60,24.89,0.00,0.00,0.00,30.04,M,10.00,M,CLR,M,M,M,M,M,M,M,M,M,M,M,M,M,M,92.71,KBVU 141635Z AUTO 00000KT 10SM CLR 35/12 A3004 RMK AO2,M
CXP,2024-07-14 16:35,-119.7326,39.1923,1431.00,71.60,57.20,60.44,0.00,0.00,0.00,30.31,M,10.00,M,BKN,OVC,M,M,6500.00,8000.00,M,M,M,M,M,M,M,M,M,71.60,KCXP 141635Z AUTO 00000KT 10SM BKN065 OVC080 22/14 A3031 RMK AO2,M
RTS,2024-07-14 16:35,-119.8764,39.6682,1539.00,73.40,46.40,38.18,300.00,7.00,0.00,30.32,M,10.00,M,BKN,M,M,M,9000.00,M,M,M,M,M,M,M,M,M,M,73.40,KRTS 141635Z AUTO 30007KT 10SM BKN090 23/08 A3032 RMK AO2,M
MEV,2024-07-14 16:35,-119.7500,38.9963,1441.42,73.40,53.60,49.90,330.00,5.00,0.00,30.29,M,8.00,M,FEW,SCT,BKN,M,5500.00,6500.00,10000.00,M,-RA,M,M,M,M,M,M,73.40,KMEV 141635Z AUTO 33005KT 8SM -RA FEW055 SCT065 BKN100 23/12 A3029 RMK AO2,M
BAM,2024-07-14 16:35,-116.8743,40.5990,1382.36,87.80,48.20,25.52,230.00,12.00,0.00,30.20,M,10.00,M,CLR,M,M,M,M,M,M,M,M,M,M,M,M,M,M,84.87,KBAM 141635Z AUTO 23012KT 10SM CLR 31/09 A3020 RMK AO1,M
HTH,2024-07-14 16:35,-118.6315,38.5448,1282.89,84.20,48.20,28.63,M,5.00,0.00,30.22,M,10.00,M,CLR,M,M,M,M,M,M,M,M,M,M,M,M,M,M,82.04,KHTH 141635Z AUTO VRB05KT 10SM CLR 29/09 A3022 RMK A01,M
TMT,2024-07-14 16:35,-117.1971,39.4643,1749.34,79.30,47.50,32.71,200.00,4.00,0.00,30.32,M,10.00,M,CLR,M,M,M,M,M,M,M,M,M,M,M,M,M,M,79.30,KTMT 141635Z AUTO 20004KT 10SM CLR 26/09 A3032 RMK AO2 T02630086,M
DRA,2024-07-14 16:53,-116.0278,36.6206,1009.00,91.00,50.00,24.68,0.00,0.00,0.00,30.14,1015.10,10.00,M,CLR,M,M,M,M,M,M,M,M,M,M,M,M,M,M,87.99,KDRA 141653Z AUTO 00000KT 10SM CLR 33/10 A3014 RMK AO2 SLP151 T03280100,M
ELY,2024-07-14 16:53,-114.8453,39.2950,1909.00,84.00,37.00,18.74,220.00,11.00,0.00,30.33,1015.70,10.00,20.00,CLR,M,M,M,M,M,M,M,M,M,M,M,M,M,M,81.23,KELY 141653Z AUTO 22011G20KT 10SM CLR 29/03 A3033 RMK AO2 SLP157 T02890028,M
VGT,2024-07-14 16:53,-115.1933,36.2111,667.00,97.00,55.00,24.63,0.00,0.00,0.00,30.05,1016.10,10.00,M,CLR,M,M,M,M,M,M,M,M,M,M,M,M,M,M,95.23,KVGT 141653Z 00000KT 10SM CLR 36/13 A3005 RMK AO2 SLP161 T03610128,M
LOL,2024-07-14 16:53,-118.5701,40.0684,1192.43,74.00,57.00,55.34,50.00,4.00,T,30.21,1018.20,10.00,M,FEW,OVC,M,M,7500.00,11000.00,M,M,M,M,M,M,M,M,M,74.00,KLOL 141653Z AUTO 05004KT 10SM FEW075 OVC110 23/14 A3021 RMK AO2 RAE53 SLP182 P0000 T02330139,M
BVU,2024-07-14 16:55,-114.8611,35.9475,671.00,96.80,53.60,23.55,0.00,0.00,0.00,30.04,M,10.00,M,CLR,M,M,M,M,M,M,M,M,M,M,M,M,M,M,94.59,KBVU 141655Z AUTO 00000KT 10SM CLR 36/12 A3004 RMK AO2,M
CXP,2024-07-14 16:55,-119.7326,39.1923,1431.00,73.40,51.80,46.71,0.00,0.00,0.02,30.31,M,10.00,M,SCT,SCT,SCT,M,6500.00,7500.00,9000.00,M,M,M,M,M,M,M,M,73.40,KCXP 141655Z AUTO 00000KT 10SM SCT065 SCT075 SCT090 23/11 A3031 RMK AO2 P0002,M
RNO,2024-07-14 16:55,-119.7711,39.4839,1341.00,78.00,52.00,40.36,220.00,6.00,T,30.28,1019.20,10.00,M,BKN,M,M,M,5000.00,M,M,M,-RA,M,M,M,M,M,M,78.00,KRNO 141655Z 22006KT 10SM -RA BKN050 26/11 A3028 RMK AO2 RAE00B55 SLP192 P0000 T02560111 $,M
RTS,2024-07-14 16:55,-119.8764,39.6682,1539.00,73.40,46.40,38.18,310.00,4.00,0.00,30.32,M,10.00,M,FEW,BKN,M,M,7500.00,9500.00,M,M,M,M,M,M,M,M,M,73.40,KRTS 141655Z AUTO 31004KT 10SM FEW075 BKN095 23/08 A3032 RMK AO2,M
05U,2024-07-14 16:55,-116.0051,39.6042,1811.23,86.00,42.80,22.02,M,6.00,0.00,30.33,M,10.00,M,M,M,M,M,M,M,M,M,M,M,M,M,M,M,M,82.95,K05U 141655Z AUTO VRB06KT 10SM 30/06 A3033 RMK A01,M
MEV,2024-07-14 16:55,-119.7500,38.9963,1441.42,73.40,53.60,49.90,M,3.00,0.00,30.29,M,10.00,M,FEW,M,M,M,6000.00,M,M,M,M,M,M,M,M,M,M,73.40,KMEV 141655Z AUTO VRB03KT 10SM FEW060 23/12 A3029 RMK AO2,M
BAM,2024-07-14 16:55,-116.8743,40.5990,1382.36,89.60,46.40,22.53,220.00,9.00,0.00,30.20,M,10.00,M,CLR,M,M,M,M,M,M,M,M,M,M,M,M,M,M,86.24,KBAM 141655Z AUTO 22009KT 10SM CLR 32/08 A3020 RMK AO1,M
HTH,2024-07-14 16:55,-118.6315,38.5448,1282.89,84.20,48.20,28.63,70.00,4.00,0.00,30.22,M,10.00,M,CLR,M,M,M,M,M,M,M,M,M,M,M,M,M,M,82.04,KHTH 141655Z AUTO 07004KT 10SM CLR 29/09 A3022 RMK A01,M
TMT,2024-07-14 16:55,-117.1971,39.4643,1749.34,80.20,47.00,31.16,240.00,9.00,0.00,30.33,M,10.00,15.00,CLR,M,M,M,M,M,M,M,M,M,M,M,M,M,M,79.39,KTMT 141655Z AUTO 24009G15KT 10SM CLR 27/08 A3033 RMK AO2 T02680083,M
INS,2024-07-14 16:55,-115.6733,36.5872,955.00,88.70,49.30,25.84,0.00,0.00,0.00,30.12,1014.00,10.00,M,CLR,M,M,M,M,M,M,M,M,M,M,M,M,M,M,85.79,KINS 141655Z AUTO 00000KT 10SM CLR 32/10 A3012 RMK AO2 SLP140 T03150096 $,M
LSV,2024-07-14 16:55,-115.0343,36.2362,570.00,93.70,54.70,26.97,0.00,0.00,0.00,30.00,1012.80,10.00,M,CLR,M,M,M,M,M,M,M,M,M,M,M,M,M,M,91.66,KLSV 141655Z AUTO 00000KT 10SM CLR 34/13 A3000 RMK AO2 SLP128 T03430126 $,M
EKO,2024-07-14 16:56,-115.7860,40.8242,1367.00,86.00,48.00,26.82,240.00,7.00,0.00,30.23,1016.30,10.00,M,CLR,M,M,M,M,M,M,M,M,M,M,M,M,M,M,83.38,KEKO 141656Z AUTO 24007KT 10SM CLR 30/09 A3023 RMK AO2 SLP163 T03000089,M
WMC,2024-07-14 16:56,-117.8072,40.9019,1315.00,87.00,47.00,25.02,250.00,16.00,T,30.19,1015.90,10.00,25.00,SCT,M,M,M,11000.00,M,M,M,-RA,M,M,M,30.00,240.00,2024-07-14 16:37,84.08,KWMC 141656Z AUTO 25016G25KT 10SM -RA SCT110 31/08 A3019 RMK AO2 PK WND 24030/1637 SLP159 P0000 T03060083,M
HND,2024-07-14 16:56,-115.1344,35.9729,742.79,95.00,56.00,27.16,M,3.00,0.00,30.09,1017.40,10.00,M,CLR,M,M,M,M,M,M,M,M,M,M,M,M,M,M,93.41,KHND 141656Z VRB03KT 10SM CLR 35/13 A3009 RMK AO2 SLP174 T03500133,M
TPH,2024-07-14 16:56,-117.0904,38.0505,1654.00,80.00,48.00,32.57,130.00,3.00,0.00,30.31,1017.80,10.00,M,CLR,M,M,M,M,M,M,M,M,M,M,M,M,M,M,79.37,KTPH 141656Z AUTO 13003KT 10SM CLR 27/09 A3031 RMK AO2 SLP178 T02670089,M
LAS,2024-07-14 16:56,-115.1634,36.0719,663.00,97.00,56.00,25.55,0.00,0.00,0.00,30.06,1014.70,10.00,M,FEW,SCT,M,M,12000.00,16000.00,M,M,M,M,M,M,M,M,M,95.56,KLAS 141656Z 00000KT 10SM FEW120 SCT160 36/13 A3006 RMK AO2 SLP147 T03610133 $,M
BVU,2024-07-14 17:15,-114.8611,35.9475,671.00,96.80,51.80,22.04,0.00,0.00,0.00,30.03,M,10.00,M,CLR,M,M,M,M,M,M,M,M,M,M,M,M,M,M,94.12,KBVU 141715Z AUTO 00000KT 10SM CLR 36/11 A3003 RMK AO2 LTG DSNT S AND SW,M
CXP,2024-07-14 17:15,-119.7326,39.1923,1431.00,75.20,51.80,43.97,310.00,8.00,0.00,30.31,M,10.00,M,FEW,FEW,M,M,9500.00,12000.00,M,M,M,M,M,M,M,M,M,75.20,KCXP 141715Z AUTO 31008KT 290V360 10SM FEW095 FEW120 24/11 A3031 RMK AO2,M
RTS,2024-07-14 17:15,-119.8764,39.6682,1539.00,73.40,46.40,38.18,0.00,0.00,0.00,30.33,M,10.00,M,OVC,M,M,M,10000.00,M,M,M,M,M,M,M,M,M,M,73.40,KRTS 141715Z AUTO 00000KT 10SM OVC100 23/08 A3033 RMK AO2,M
05U,2024-07-14 17:15,-116.0051,39.6042,1811.23,87.80,42.80,20.79,70.00,8.00,0.00,30.33,M,10.00,M,M,M,M,M,M,M,M,M,M,M,M,M,M,M,M,84.40,K05U 141715Z AUTO 07008KT 10SM 31/06 A3033 RMK A01,M
MEV,2024-07-14 17:15,-119.7500,38.9963,1441.42,75.20,53.60,46.98,0.00,0.00,0.00,30.29,M,10.00,M,FEW,M,M,M,12000.00,M,M,M,M,M,M,M,M,M,M,75.20,KMEV 141715Z AUTO 00000KT 10SM FEW120 24/12 A3029 RMK AO2,M
BAM,2024-07-14 17:15,-116.8743,40.5990,1382.36,89.60,46.40,22.53,230.00,11.00,0.00,30.20,M,10.00,M,CLR,M,M,M,M,M,M,M,M,M,M,M,M,M,M,86.24,KBAM 141715Z AUTO 23011KT 10SM CLR 32/08 A3020 RMK AO1,M
HTH,2024-07-14 17:15,-118.6315,38.5448,1282.89,84.20,48.20,28.63,0.00,0.00,0.00,30.22,M,10.00,M,CLR,M,M,M,M,M,M,M,M,M,M,M,M,M,M,82.04,KHTH 141715Z AUTO 00000KT 10SM CLR 29/09 A3022 RMK A01,M
TMT,2024-07-14 17:15,-117.1971,39.4643,1749.34,81.70,48.00,30.81,200.00,11.00,0.00,30.32,M,10.00,14.00,CLR,M,M,M,M,M,M,M,M,M,M,M,M,M,M,80.34,KTMT 141715Z AUTO 20011G14KT 10SM CLR 28/09 A3032 RMK AO2 T02760088,M
05U,2024-07-14 17:30,-116.0051,39.6042,1811.23,87.80,42.80,20.79,50.00,11.00,0.00,30.32,M,10.00,M,M,M,M,M,M,M,M,M,M,M,M,M,M,M,M,84.40,K05U 141730Z AUTO 05011KT 10SM 31/06 A3032 RMK A01,M
BVU,2024-07-14 17:35,-114.8611,35.9475,671.00,98.60,51.80,20.87,0.00,0.00,0.00,30.03,M,10.00,M,CLR,M,M,M,M,M,M,M,M,M,M,M,M,M,M,96.00,KBVU 141735Z AUTO 00000KT 10SM CLR 37/11 A3003 RMK AO2,M
CXP,2024-07-14 17:35,-119.7326,39.1923,1431.00,75.20,50.00,41.14,330.00,11.00,0.00,30.30,M,10.00,17.00,FEW,FEW,SCT,M,5500.00,6500.00,10000.00,M,M,M,M,M,M,M,M,75.20,KCXP 141735Z AUTO 33011G17KT 10SM FEW055 FEW065 SCT100 24/10 A3030 RMK AO2,M
RTS,2024-07-14 17:35,-119.8764,39.6682,1539.00,73.40,46.40,38.18,140.00,5.00,0.00,30.33,M,10.00,M,BKN,M,M,M,11000.00,M,M,M,M,M,M,M,M,M,M,73.40,KRTS 141735Z AUTO 14005KT 10SM BKN110 23/08 A3033 RMK AO2,M
MEV,2024-07-14 17:35,-119.7500,38.9963,1441.42,77.00,51.80,41.42,0.00,0.00,0.00,30.29,M,10.00,M,FEW,M,M,M,11000.00,M,M,M,M,M,M,M,M,M,M,77.00,KMEV 141735Z AUTO 00000KT 10SM FEW110 25/11 A3029 RMK AO2,M
BAM,2024-07-14 17:35,-116.8743,40.5990,1382.36,91.40,46.40,21.29,230.00,7.00,0.00,30.20,M,10.00,14.00,CLR,M,M,M,M,M,M,M,M,M,M,M,M,M,M,87.86,KBAM 141735Z AUTO 23007G14KT 200V260 10SM CLR 33/08 A3020 RMK AO1,M
HTH,2024-07-14 17:35,-118.6315,38.5448,1282.89,86.00,46.40,25.26,0.00,0.00,0.00,30.22,M,10.00,10.00,CLR,M,M,M,M,M,M,M,M,M,M,M,M,M,M,83.22,KHTH 141735Z AUTO 00000G10KT 10SM CLR 30/08 A3022 RMK A01,M
TMT,2024-07-14 17:35,-117.1971,39.4643,1749.34,81.50,47.00,29.87,230.00,10.00,0.00,30.32,M,10.00,15.00,CLR,M,M,M,M,M,M,M,M,M,M,M,M,M,M,80.13,KTMT 141735Z AUTO 23010G15KT 10SM CLR 28/08 A3032 RMK AO2 T02750083,M
RTS,2024-07-14 17:40,-119.8764,39.6682,1539.00,73.40,46.40,38.18,140.00,6.00,0.00,30.33,M,10.00,M,BKN,M,M,M,10000.00,M,M,M,M,M,M,M,M,M,M,73.40,KRTS 141740Z AUTO 14006KT 10SM BKN100 23/08 A3033 RMK AO2,M
05U,2024-07-14 17:40,-116.0051,39.6042,1811.23,87.80,41.00,19.40,M,6.00,0.00,30.32,M,10.00,13.00,M,M,M,M,M,M,M,M,M,M,M,M,M,M,M,84.30,K05U 141740Z AUTO VRB06G13KT 10SM 31/05 A3032 RMK A01,M
MEV,2024-07-14 17:40,-119.7500,38.9963,1441.42,77.00,51.80,41.42,M,3.00,0.00,30.28,M,10.00,M,FEW,M,M,M,11000.00,M,M,M,M,M,M,M,M,M,M,77.00,KMEV 141740Z AUTO VRB03KT 10SM FEW110 25/11 A3028 RMK AO2,M
CXP,2024-07-14 17:50,-119.7326,39.1923,1431.00,75.20,51.80,43.97,330.00,10.00,0.00,30.30,M,10.00,M,FEW,FEW,M,M,10000.00,12000.00,M,M,M,M,M,M,M,M,M,75.20,KCXP 141750Z AUTO 33010KT 10SM FEW100 FEW120 24/11 A3030 RMK AO2,M
P68,2024-07-14 17:53,-116.0056,39.6014,1993.00,85.00,41.00,21.21,270.00,14.00,0.00,30.29,1015.30,M,20.00,M,M,M,M,M,M,M,M,M,M,M,M,M,M,M,82.10,KP68 141753Z AUTO 27014G20KT 29/05 A3029 RMK AO1 SLP153 T02940050 10300 20167 58008,M
DRA,2024-07-14 17:53,-116.0278,36.6206,1009.00,96.00,49.00,20.36,M,5.00,0.00,30.12,1014.30,10.00,M,CLR,M,M,M,M,M,M,M,M,M,M,M,M,M,M,92.70,KDRA 141753Z AUTO VRB05KT 10SM CLR 36/09 A3012 RMK AO2 SLP143 T03560094 10356 20211 58007,M
ELY,2024-07-14 17:53,-114.8453,39.2950,1909.00,86.00,36.00,16.89,190.00,14.00,0.00,30.33,1015.70,10.00,23.00,CLR,M,M,M,M,M,M,M,M,M,M,M,29.00,210.00,2024-07-14 17:37,82.70,KELY 141753Z AUTO 19014G23KT 10SM CLR 30/02 A3033 RMK AO2 PK WND 21029/1737 SLP157 T03000022 10306 20161 56006,M
VGT,2024-07-14 17:53,-115.1933,36.2111,667.00,99.00,54.00,22.35,0.00,0.00,0.00,30.04,1015.60,10.00,M,CLR,M,M,M,M,M,M,M,M,M,M,M,M,M,M,97.06,KVGT 141753Z 00000KT 10SM CLR 37/12 A3004 RMK AO2 SLP156 T03720122 10372 20283 58007,M
LOL,2024-07-14 17:53,-118.5701,40.0684,1192.43,76.00,60.00,57.64,50.00,7.00,0.00,30.22,1019.00,10.00,M,BKN,M,M,M,10000.00,M,M,M,M,M,M,M,M,M,M,76.00,KLOL 141753Z AUTO 05007KT 10SM BKN100 24/16 A3022 RMK AO2 SLP190 60000 T02440156 10278 20228 53012,M
BVU,2024-07-14 17:55,-114.8611,35.9475,671.00,98.60,50.00,19.52,M,6.00,0.00,30.03,M,10.00,M,CLR,M,M,M,M,M,M,M,M,M,M,M,M,M,M,95.56,KBVU 141755Z AUTO VRB06KT 10SM CLR 37/10 A3003 RMK AO2,M
RNO,2024-07-14 17:55,-119.7711,39.4839,1341.00,77.00,53.00,43.29,260.00,7.00,T,30.29,1019.60,10.00,M,BKN,M,M,M,5000.00,M,M,M,M,M,M,M,M,M,M,77.00,KRNO 141755Z 26007KT 10SM BKN050 25/12 A3029 RMK AO2 RAE15 SLP196 P0000 60000 T02500117 10261 20228 51015 $,M
BAM,2024-07-14 17:55,-116.8743,40.5990,1382.36,91.40,46.40,21.29,260.00,10.00,0.00,30.20,M,10.00,M,CLR,M,M,M,M,M,M,M,M,M,M,M,M,M,M,87.86,KBAM 141755Z AUTO 26010KT 10SM CLR 33/08 A3020 RMK AO1,M
HTH,2024-07-14 17:55,-118.6315,38.5448,1282.89,87.80,46.40,23.85,350.00,11.00,0.00,30.21,M,10.00,M,FEW,M,M,M,10000.00,M,M,M,M,M,M,M,M,M,M,84.68,KHTH 141755Z AUTO 35011KT 10SM FEW100 31/08 A3021 RMK A01,M
TMT,2024-07-14 17:55,-117.1971,39.4643,1749.34,82.60,46.00,27.75,260.00,11.00,0.00,30.32,M,10.00,15.00,CLR,M,M,M,M,M,M,M,M,M,M,M,M,M,M,80.74,KTMT 141755Z AUTO 26011G15KT 190V270 10SM CLR 28/08 A3032 RMK AO2 T02810078 10283 20124,M
INS,2024-07-14 17:55,-115.6733,36.5872,955.00,93.00,47.00,20.72,130.00,3.00,0.00,30.11,1013.50,10.00,M,FEW,M,M,M,16000.00,M,M,M,M,M,M,M,M,M,M,89.44,KINS 141755Z AUTO 13003KT 10SM FEW160 34/08 A3011 RMK AO2 SLP135 T03380084 10338 20226 58008 $,M
LSV,2024-07-14 17:55,-115.0343,36.2362,570.00,99.30,51.00,19.83,0.00,0.00,0.00,29.98,1012.20,10.00,M,FEW,M,M,M,20000.00,M,M,M,M,M,M,M,M,M,M,96.53,KLSV 141755Z AUTO 00000KT 10SM FEW200 37/11 A2998 RMK AO2 SLP122 T03740106 10375 20266 57011 $,M
EKO,2024-07-14 17:56,-115.7860,40.8242,1367.00,89.00,47.00,23.49,260.00,7.00,0.00,30.22,1016.00,10.00,M,CLR,M,M,M,M,M,M,M,M,M,M,M,M,M,M,85.77,KEKO 141756Z AUTO 26007KT 10SM CLR 32/08 A3022 RMK AO2 SLP160 T03170083 10322 20189 58006,M
WMC,2024-07-14 17:56,-117.8072,40.9019,1315.00,87.00,48.00,25.98,250.00,19.00,T,30.21,1016.70,10.00,32.00,BKN,M,M,M,11000.00,M,M,M,M,M,M,M,32.00,230.00,2024-07-14 17:54,84.18,KWMC 141756Z AUTO 25019G32KT 10SM BKN110 31/09 A3021 RMK AO2 PK WND 23032/1754 RAE38 SLP167 P0000 60000 T03060089 10306 20244 53008,M
NFL,2024-07-14 17:56,-118.7010,39.4166,1199.00,90.00,49.00,24.53,290.00,13.00,0.00,30.20,1018.90,10.00,M,CLR,M,M,M,M,M,M,M,M,M,M,M,M,M,M,86.91,KNFL 141756Z AUTO 29013KT 10SM CLR 32/09 A3020 RMK AO2 SLP189 60000 T03220094 10322 20217 51004,M
HND,2024-07-14 17:56,-115.1344,35.9729,742.79,98.00,55.00,23.89,0.00,0.00,0.00,30.08,1017.00,10.00,M,CLR,M,M,M,M,M,M,M,M,M,M,M,M,M,M,96.31,KHND 141756Z 00000KT 10SM CLR 37/13 A3008 RMK AO2 SLP170 T03670128 10367 20244 58007,M
TPH,2024-07-14 17:56,-117.0904,38.0505,1654.00,84.00,47.00,27.55,200.00,6.00,0.00,30.31,1017.60,10.00,15.00,CLR,M,M,M,M,M,M,M,M,M,M,M,M,M,M,81.78,KTPH 141756Z AUTO 20006G15KT 10SM CLR 29/08 A3031 RMK AO2 SLP176 T02890083 10289 20161 58002,M
LAS,2024-07-14 17:56,-115.1634,36.0719,663.00,99.00,54.00,22.35,M,3.00,0.00,30.05,1014.40,10.00,M,FEW,FEW,M,M,10000.00,14000.00,M,M,M,M,M,M,M,M,M,97.06,KLAS 141756Z VRB03KT 10SM FEW100 FEW140 37/12 A3005 RMK AO2 SLP144 T03720122 10378 20278 58006 $,M
BVU,2024-07-14 18:15,-114.8611,35.9475,671.00,100.40,50.00,18.48,0.00,0.00,0.00,30.03,M,10.00,M,CLR,M,M,M,M,M,M,M,M,M,M,M,M,M,M,97.42,KBVU 141815Z AUTO 00000KT 10SM CLR 38/10 A3003 RMK AO2,M
CXP,2024-07-14 18:15,-119.7326,39.1923,1431.00,78.80,51.80,39.02,320.00,9.00,0.00,30.30,M,10.00,M,CLR,M,M,M,M,M,M,M,M,M,M,M,M,M,M,78.80,KCXP 141815Z AUTO 32009KT 10SM CLR 26/11 A3030 RMK AO2,M
05U,2024-07-14 18:15,-116.0051,39.6042,1811.23,87.80,41.00,19.40,30.00,11.00,0.00,30.31,M,10.00,17.00,M,M,M,M,M,M,M,M,M,M,M,M,M,M,M,84.30,K05U 141815Z AUTO 03011G17KT 360V060 10SM 31/05 A3031 RMK A01,M
BAM,2024-07-14 18:15,-116.8743,40.5990,1382.36,91.40,46.40,21.29,250.00,7.00,0.00,30.20,M,10.00,M,CLR,M,M,M,M,M,M,M,M,M,M,M,M,M,M,87.86,KBAM 141815Z AUTO 25007KT 10SM CLR 33/08 A3020 RMK AO1,M
HTH,2024-07-14 18:15,-118.6315,38.5448,1282.89,87.80,44.60,22.27,360.00,7.00,0.00,30.21,M,10.00,15.00,FEW,M,M,M,10000.00,M,M,M,M,M,M,M,M,M,M,84.53,KHTH 141815Z AUTO 36007G15KT 10SM FEW100 31/07 A3021 RMK A01,M
TMT,2024-07-14 18:15,-117.1971,39.4643,1749.34,83.30,46.00,27.13,260.00,8.00,0.00,30.31,M,10.00,18.00,CLR,M,M,M,M,M,M,M,M,M,M,M,M,M,M,81.20,KTMT 141815Z AUTO 26008G18KT 10SM CLR 29/08 A3031 RMK AO2 T02850077,M
CXP,2024-07-14 18:30,-119.7326,39.1923,1431.00,78.80,51.80,39.02,300.00,8.00,0.00,30.29,M,10.00,M,CLR,M,M,M,M,M,M,M,M,M,M,M,M,M,M,78.80,KCXP 141830Z AUTO 30008KT 10SM CLR 26/11 A3029 RMK AO2,M
05U,2024-07-14 18:30,-116.0051,39.6042,1811.23,87.80,39.20,18.09,50.00,17.00,0.00,30.31,M,10.00,22.00,M,M,M,M,M,M,M,M,M,M,M,M,M,M,M,84.22,K05U 141830Z AUTO 05017G22KT 10SM 31/04 A3031 RMK A01,M
BVU,2024-07-14 18:35,-114.8611,35.9475,671.00,100.40,50.00,18.48,0.00,0.00,0.00,30.02,M,10.00,M,CLR,M,M,M,M,M,M,M,M,M,M,M,M,M,M,97.42,KBVU 141835Z AUTO 00000KT 10SM CLR 38/10 A3002 RMK AO2,M
BAM,2024-07-14 18:35,-116.8743,40.5990,1382.36,95.00,46.40,19.04,280.00,8.00,0.00,30.20,M,10.00,15.00,SCT,M,M,M,10000.00,M,M,M,M,M,M,M,M,M,M,91.29,KBAM 141835Z AUTO 28008G15KT 250V310 10SM SCT100 35/08 A3020 RMK AO1,M
HTH,2024-07-14 18:35,-118.6315,38.5448,1282.89,77.00,55.40,47.25,230.00,30.00,0.00,30.27,M,7.00,39.00,SCT,BKN,M,M,8000.00,9000.00,M,M,M,M,M,M,M,M,M,77.00,KHTH 141835Z AUTO 23030G39KT 7SM SCT080 BKN090 25/13 A3027 RMK A01,M
TMT,2024-07-14 18:35,-117.1971,39.4643,1749.34,85.50,46.00,25.28,260.00,11.00,0.00,30.31,M,10.00,19.00,CLR,M,M,M,M,M,M,M,M,M,M,M,M,M,M,82.80,KTMT 141835Z AUTO 26011G19KT 10SM CLR 30/08 A3031 RMK AO2 T02970077,M
05U,2024-07-14 18:50,-116.0051,39.6042,1811.23,91.40,41.00,17.32,40.00,11.00,0.00,30.30,M,10.00,M,M,M,M,M,M,M,M,M,M,M,M,M,M,M,M,87.40,K05U 141850Z AUTO 04011KT 360V070 10SM 33/05 A3030 RMK A01,M
P68,2024-07-14 18:53,-116.0056,39.6014,1993.00,88.00,41.00,19.28,250.00,12.00,0.00,30.28,1014.90,M,22.00,M,M,M,M,M,M,M,M,M,M,M,M,M,M,M,84.46,KP68 141853Z AUTO 25012G22KT 31/05 A3028 RMK AO1 SLP149 T03110050,M
DRA,2024-07-14 18:53,-116.0278,36.6206,1009.00,99.00,47.00,17.23,240.00,7.00,0.00,30.11,1014.10,10.00,M,CLR,M,M,M,M,M,M,M,M,M,M,M,M,M,M,95.35,KDRA 141853Z AUTO 24007KT 210V270 10SM CLR 37/08 A3011 RMK AO2 SLP141 T03720083,M
ELY,2024-07-14 18:53,-114.8453,39.2950,1909.00,89.00,37.00,15.97,210.00,15.00,0.00,30.32,1015.30,10.00,24.00,CLR,M,M,M,M,M,M,M,M,M,M,M,28.00,190.00,2024-07-14 18:12,85.15,KELY 141853Z AUTO 21015G24KT 10SM CLR 32/03 A3032 RMK AO2 PK WND 19028/1812 SLP153 T03170028,M
VGT,2024-07-14 18:53,-115.1933,36.2111,667.00,102.00,53.00,19.68,M,3.00,0.00,30.02,1015.10,10.00,M,CLR,M,M,M,M,M,M,M,M,M,M,M,M,M,M,99.96,KVGT 141853Z VRB03KT 10SM CLR 39/12 A3002 RMK AO2 LTG DSNT S SLP151 T03890117,M
LOL,2024-07-14 18:53,-118.5701,40.0684,1192.43,81.00,55.00,40.83,40.00,9.00,T,30.22,1018.60,10.00,M,FEW,SCT,BKN,M,3000.00,3500.00,11000.00,M,-RA,M,M,M,M,M,M,80.73,KLOL 141853Z AUTO 04009KT 10SM -RA FEW030 SCT035 BKN110 27/13 A3022 RMK AO2 RAB12E21B47 SLP186 P0000 T02720128,M
BVU,2024-07-14 18:55,-114.8611,35.9475,671.00,102.20,50.00,17.51,M,5.00,0.00,30.01,M,10.00,M,CLR,M,M,M,M,M,M,M,M,M,M,M,M,M,M,99.28,KBVU 141855Z AUTO VRB05KT 10SM CLR 39/10 A3001 RMK AO2,M
CXP,2024-07-14 18:55,-119.7326,39.1923,1431.00,82.40,50.00,32.46,320.00,9.00,0.00,30.29,M,10.00,M,FEW,M,M,M,12000.00,M,M,M,M,M,M,M,M,M,M,80.99,KCXP 141855Z AUTO 32009KT 10SM FEW120 28/10 A3029 RMK AO2,M
RNO,2024-07-14 18:55,-119.7711,39.4839,1341.00,77.00,55.00,46.57,330.00,10.00,T,30.27,1019.00,10.00,M,BKN,M,M,M,5000.00,M,M,M,M,M,M,M,M,M,M,77.00,KRNO 141855Z 33010KT 10SM BKN050 25/13 A3027 RMK AO2 RAB00E55 SLP190 P0000 T02500128 $,M
RTS,2024-07-14 18:55,-119.8764,39.6682,1539.00,71.60,48.20,43.42,110.00,7.00,0.00,30.34,M,10.00,M,CLR,M,M,M,M,M,M,M,M,M,M,M,M,M,M,71.60,KRTS 141855Z AUTO 11007KT 10SM CLR 22/09 A3034 RMK AO2,M
MEV,2024-07-14 18:55,-119.7500,38.9963,1441.42,82.40,46.40,28.36,M,4.00,0.00,30.28,M,10.00,M,FEW,M,M,M,11000.00,M,M,M,M,M,M,M,M,M,M,80.64,KMEV 141855Z AUTO VRB04KT 10SM FEW110 28/08 A3028 RMK AO2,M
BAM,2024-07-14 18:55,-116.8743,40.5990,1382.36,91.40,44.60,19.89,0.00,0.00,0.00,30.19,M,10.00,M,SCT,M,M,M,11000.00,M,M,M,M,M,M,M,M,M,M,87.68,KBAM 141855Z AUTO 00000KT 10SM SCT110 33/07 A3019 RMK AO1,M
HTH,2024-07-14 18:55,-118.6315,38.5448,1282.89,68.00,55.40,64.04,270.00,11.00,0.39,30.27,M,5.00,19.00,FEW,SCT,BKN,M,500.00,4500.00,8500.00,M,HZ,M,M,M,M,M,M,68.00,KHTH 141855Z AUTO 27011G19KT 5SM HZ FEW005 SCT045 BKN085 20/13 A3027 RMK A01 P0039,M
TMT,2024-07-14 18:55,-117.1971,39.4643,1749.34,85.00,45.30,25.01,240.00,14.00,0.00,30.30,M,10.00,18.00,CLR,M,M,M,M,M,M,M,M,M,M,M,M,M,M,82.36,KTMT 141855Z AUTO 24014G18KT 10SM CLR 30/07 A3030 RMK AO2 T02950074,M
INS,2024-07-14 18:55,-115.6733,36.5872,955.00,97.50,43.70,15.92,0.00,0.00,0.00,30.10,1013.30,10.00,M,CLR,M,M,M,M,M,M,M,M,M,M,M,M,M,M,93.36,KINS 141855Z AUTO 00000KT 10SM CLR 36/07 A3010 RMK AO2 SLP133 T03640065 $,M
LSV,2024-07-14 18:55,-115.0343,36.2362,570.00,102.00,49.00,16.97,230.00,5.00,0.00,29.96,1011.40,10.00,M,CLR,M,M,M,M,M,M,M,M,M,M,M,M,M,M,98.82,KLSV 141855Z AUTO 23005KT 10SM CLR 39/09 A2996 RMK AO2 SLP114 T03890094 $,M
EKO,2024-07-14 18:56,-115.7860,40.8242,1367.00,92.00,46.00,20.58,M,M,0.00,30.20,1015.10,10.00,M,CLR,M,M,M,M,M,M,M,M,M,M,M,M,M,M,88.38,KEKO 141856Z AUTO 10SM CLR 33/08 A3020 RMK AO2 SLP151 T03330078,M
WMC,2024-07-14 18:56,-117.8072,40.9019,1315.00,90.00,48.00,23.63,280.00,20.00,0.00,30.21,1016.70,10.00,29.00,CLR,M,M,M,M,M,M,M,M,M,M,M,32.00,240.00,2024-07-14 18:16,86.78,KWMC 141856Z AUTO 28020G29KT 10SM CLR 32/09 A3021 RMK AO2 PK WND 24032/1816 SLP167 T03220089,M
HND,2024-07-14 18:56,-115.1344,35.9729,742.79,99.00,56.00,24.04,0.00,0.00,0.00,30.07,1016.60,10.00,M,CLR,M,M,M,M,M,M,M,M,M,M,M,M,M,M,97.74,KHND 141856Z 00000KT 10SM CLR 37/13 A3007 RMK AO2 LTG DSNT S SLP166 T03720133,M
TPH,2024-07-14 18:56,-117.0904,38.0505,1654.00,87.00,46.00,24.10,210.00,7.00,0.00,30.28,1016.30,10.00,M,CLR,M,M,M,M,M,M,M,M,M,M,M,M,M,M,83.98,KTPH 141856Z AUTO 21007KT 150V240 10SM CLR 31/08 A3028 RMK AO2 SLP163 T03060078,M
LAS,2024-07-14 18:56,-115.1634,36.0719,663.00,101.00,53.00,20.28,0.00,0.00,0.00,30.04,1013.90,10.00,M,FEW,M,M,M,10000.00,M,M,M,M,M,M,M,M,M,M,98.89,KLAS 141856Z 00000KT 10SM FEW100 38/12 A3004 RMK AO2 LTG DSNT S SLP139 T03830117 $,M
NFL,2024-07-14 18:56,-118.7010,39.4166,1199.00,90.00,48.00,23.63,M,5.00,0.00,30.19,1018.60,10.00,18.00,CLR,M,M,M,M,M,M,M,M,M,M,M,M,M,M,86.78,KNFL 141856Z AUTO VRB05G18KT 10SM CLR 32/09 A3019 RMK AO2 SLP186 T03220089,M
05U,2024-07-14 19:05,-116.0051,39.6042,1811.23,89.60,39.20,17.09,20.00,10.00,0.00,30.29,M,10.00,M,M,M,M,M,M,M,M,M,M,M,M,M,M,M,M,85.73,K05U 141905Z AUTO 02010KT 10SM 32/04 A3029 RMK A01,M
BVU,2024-07-14 19:15,-114.8611,35.9475,671.00,104.00,50.00,16.59,170.00,8.00,0.00,30.01,M,10.00,14.00,CLR,M,M,M,M,M,M,M,M,M,M,M,M,M,M,101.14,KBVU 141915Z AUTO 17008G14KT 10SM CLR 40/10 A3001 RMK AO2,M
CXP,2024-07-14 19:15,-119.7326,39.1923,1431.00,84.20,46.40,26.76,330.00,8.00,0.00,30.29,M,10.00,M,CLR,M,M,M,M,M,M,M,M,M,M,M,M,M,M,81.87,KCXP 141915Z AUTO 33008KT 300V010 10SM CLR 29/08 A3029 RMK AO2,M
RTS,2024-07-14 19:15,-119.8764,39.6682,1539.00,73.40,50.00,43.69,90.00,5.00,0.00,30.33,M,10.00,M,CLR,M,M,M,M,M,M,M,M,M,M,M,M,M,M,73.40,KRTS 141915Z AUTO 09005KT 10SM CLR 23/10 A3033 RMK AO2,M
MEV,2024-07-14 19:15,-119.7500,38.9963,1441.42,82.40,46.40,28.36,0.00,0.00,0.00,30.28,M,10.00,M,FEW,M,M,M,11000.00,M,M,M,M,M,M,M,M,M,M,80.64,KMEV 141915Z AUTO 00000KT 10SM FEW110 28/08 A3028 RMK AO2,M
BAM,2024-07-14 19:15,-116.8743,40.5990,1382.36,93.20,44.60,18.80,300.00,7.00,0.00,30.19,M,10.00,M,CLR,M,M,M,M,M,M,M,M,M,M,M,M,M,M,89.34,KBAM 141915Z AUTO 30007KT 270V330 10SM CLR 34/07 A3019 RMK AO1,M
HTH,2024-07-14 19:15,-118.6315,38.5448,1282.89,M,M,M,340.00,5.00,0.00,30.24,M,M,M,M,M,M,M,M,M,M,M,M,M,M,M,M,M,M,M,KHTH 141915Z AUTO 34005KT A3024 RMK A01,M
TMT,2024-07-14 19:15,-117.1971,39.4643,1749.34,86.50,45.00,23.57,260.00,8.00,0.00,30.29,M,10.00,17.00,CLR,M,M,M,M,M,M,M,M,M,M,M,M,M,M,83.50,KTMT 141915Z AUTO 26008G17KT 10SM CLR 30/07 A3029 RMK AO2 T03030073,M
05U,2024-07-14 19:25,-116.0051,39.6042,1811.23,87.80,41.00,19.40,90.00,9.00,0.00,30.29,M,10.00,19.00,M,M,M,M,M,M,M,M,M,M,M,M,M,M,M,84.30,K05U 141925Z AUTO 09009G19KT 10SM 31/05 A3029 RMK A01,M
P68,2024-07-14 19:28,-116.0056,39.6014,1993.00,86.00,42.00,21.35,280.00,10.00,0.00,30.26,M,M,21.00,M,M,M,M,M,M,M,M,M,M,M,M,M,M,M,82.91,KP68 141928Z AUTO 28010G21KT 30/06 A3026 RMK AO1 WSHFT 1911 T03000056,M
BVU,2024-07-14 19:35,-114.8611,35.9475,671.00,104.00,46.40,14.50,220.00,8.00,0.00,30.01,M,10.00,15.00,CLR,M,M,M,M,M,M,M,M,M,M,M,M,M,M,100.21,KBVU 141935Z AUTO 22008G15KT 10SM CLR 40/08 A3001 RMK AO2,M
CXP,2024-07-14 19:35,-119.7326,39.1923,1431.00,84.20,46.40,26.76,340.00,7.00,0.00,30.29,M,10.00,13.00,CLR,M,M,M,M,M,M,M,M,M,M,M,M,M,M,81.87,KCXP 141935Z AUTO 34007G13KT 320V020 10SM CLR 29/08 A3029 RMK AO2,M
RTS,2024-07-14 19:35,-119.8764,39.6682,1539.00,73.40,48.20,40.85,0.00,0.00,0.00,30.32,M,10.00,M,CLR,M,M,M,M,M,M,M,M,M,M,M,M,M,M,73.40,KRTS 141935Z AUTO 00000KT 10SM CLR 23/09 A3032 RMK AO2,M
MEV,2024-07-14 19:35,-119.7500,38.9963,1441.42,82.40,46.40,28.36,0.00,0.00,0.00,30.28,M,10.00,M,SCT,M,M,M,11000.00,M,M,M,M,M,M,M,M,M,M,80.64,KMEV 141935Z AUTO 00000KT 10SM SCT110 28/08 A3028 RMK AO2,M
BAM,2024-07-14 19:35,-116.8743,40.5990,1382.36,91.40,46.40,21.29,330.00,7.00,0.00,30.19,M,10.00,14.00,BKN,M,M,M,10000.00,M,M,M,M,M,M,M,M,M,M,87.86,KBAM 141935Z AUTO 33007G14KT 300V360 10SM BKN100 33/08 A3019 RMK AO1,M
HTH,2024-07-14 19:35,-118.6315,38.5448,1282.89,73.40,60.80,64.69,20.00,10.00,0.00,30.24,M,M,M,M,M,M,M,M,M,M,M,M,M,M,M,M,M,M,73.40,KHTH 141935Z AUTO 02010KT 23/16 A3024 RMK A01,M
TMT,2024-07-14 19:35,-117.1971,39.4643,1749.34,85.00,44.00,23.80,220.00,10.00,0.00,30.29,M,10.00,14.00,CLR,M,M,M,M,M,M,M,M,M,M,M,M,M,M,82.27,KTMT 141935Z AUTO 22010G14KT 10SM CLR 29/07 A3029 RMK AO2 T02940066,M
05U,2024-07-14 19:40,-116.0051,39.6042,1811.23,89.60,39.20,17.09,80.00,11.00,0.00,30.28,M,10.00,20.00,M,M,M,M,M,M,M,M,M,M,M,M,M,M,M,85.73,K05U 141940Z AUTO 08011G20KT 10SM 32/04 A3028 RMK A01,M
HND,2024-07-14 19:42,-115.1344,35.9729,742.79,93.20,55.40,28.10,210.00,20.00,0.00,30.08,M,10.00,M,CLR,M,M,M,M,M,M,M,M,M,M,M,30.00,190.00,2024-07-14 19:26,91.35,KHND 141942Z 21020KT 10SM CLR 34/13 A3008 RMK AO2 PK WND 19030/1926 WSHFT 1922 LTG DSNT NW,M
VGT,2024-07-14 19:46,-115.1933,36.2111,667.00,103.00,52.00,18.41,200.00,12.00,0.00,30.02,M,10.00,M,CLR,M,M,M,M,M,M,M,VCTS,M,M,M,M,M,M,100.70,KVGT 141946Z 20012KT 10SM VCTS CLR 39/11 A3002 RMK AO2 LTG DSNT SW T03940111,M
P68,2024-07-14 19:53,-116.0056,39.6014,1993.00,88.00,40.00,18.54,270.00,6.00,0.00,30.26,1014.50,M,21.00,M,M,M,M,M,M,M,M,M,M,M,M,M,M,M,84.42,KP68 141953Z AUTO 27006G21KT 31/04 A3026 RMK AO1 WSHFT 1911 SLP145 T03110044,M
DRA,2024-07-14 19:53,-116.0278,36.6206,1009.00,101.00,46.00,15.62,220.00,12.00,0.00,30.09,1013.40,10.00,17.00,CLR,M,M,M,M,M,M,M,M,M,M,M,M,M,M,97.16,KDRA 141953Z AUTO 22012G17KT 10SM CLR 38/08 A3009 RMK AO2 SLP134 T03830078,M
ELY,2024-07-14 19:53,-114.8453,39.2950,1909.00,90.00,30.00,11.70,190.00,17.00,0.00,30.30,1014.70,10.00,29.00,CLR,M,M,M,M,M,M,M,M,M,M,M,34.00,200.00,2024-07-14 18:56,85.63,KELY 141953Z AUTO 19017G29KT 10SM CLR 32/M01 A3030 RMK AO2 PK WND 20034/1856 SLP147 T03221011,M
VGT,2024-07-14 19:53,-115.1933,36.2111,667.00,102.00,52.00,18.97,250.00,22.00,0.00,30.02,1015.20,10.00,31.00,CLR,M,M,M,M,M,M,M,VCTS,M,M,M,31.00,250.00,2024-07-14 19:52,99.65,KVGT 141953Z 25022G31KT 10SM VCTS CLR 39/11 A3002 RMK AO2 PK WND 25031/1952 WSHFT 1939 SLP152 T03890111,M
LOL,2024-07-14 19:53,-118.5701,40.0684,1192.43,87.00,55.00,33.65,10.00,10.00,T,30.19,1017.60,10.00,22.00,CLR,M,M,M,M,M,M,M,M,M,M,M,M,M,M,85.31,KLOL 141953Z AUTO 01010G22KT 10SM CLR 31/13 A3019 RMK AO2 RAE1856 SLP176 P0000 T03060128,M
BVU,2024-07-14 19:55,-114.8611,35.9475,671.00,102.20,50.00,17.51,240.00,19.00,0.00,30.01,M,10.00,24.00,CLR,M,M,M,M,M,M,M,M,M,M,M,M,M,M,99.28,KBVU 141955Z AUTO 24019G24KT 10SM CLR 39/10 A3001 RMK AO2,M
CXP,2024-07-14 19:55,-119.7326,39.1923,1431.00,84.20,46.40,26.76,0.00,0.00,0.00,30.28,M,10.00,10.00,FEW,M,M,M,12000.00,M,M,M,M,M,M,M,M,M,M,81.87,KCXP 141955Z AUTO 00000G10KT 10SM FEW120 29/08 A3028 RMK AO2,M
VGT,2024-07-14 19:55,-115.1933,36.2111,667.00,101.00,52.00,19.55,250.00,21.00,0.00,30.02,M,10.00,31.00,CLR,M,M,M,M,M,M,M,M,M,M,M,27.00,220.00,2024-07-14 19:54,98.59,KVGT 141955Z 25021G31KT 10SM CLR 38/11 A3002 RMK AO2 PK WND 22027/1954 WSHFT 1940 T03830111,M
RNO,2024-07-14 19:55,-119.7711,39.4839,1341.00,81.00,50.00,33.97,240.00,5.00,0.00,30.26,1018.90,10.00,M,BKN,BKN,M,M,5000.00,10000.00,M,M,M,M,M,M,M,M,M,80.12,KRNO 141955Z 24005KT 10SM BKN050 BKN100 27/10 A3026 RMK AO2 SLP189 T02720100 $,M
RTS,2024-07-14 19:55,-119.8764,39.6682,1539.00,77.00,46.40,33.85,M,5.00,0.00,30.31,M,10.00,M,CLR,M,M,M,M,M,M,M,M,M,M,M,M,M,M,77.00,KRTS 141955Z AUTO VRB05KT 10SM CLR 25/08 A3031 RMK AO2,M
MEV,2024-07-14 19:55,-119.7500,38.9963,1441.42,82.40,48.20,30.35,0.00,0.00,0.00,30.28,M,10.00,M,FEW,M,M,M,11000.00,M,M,M,M,M,M,M,M,M,M,80.80,KMEV 141955Z AUTO 00000KT 10SM FEW110 28/09 A3028 RMK AO2,M
BAM,2024-07-14 19:55,-116.8743,40.5990,1382.36,93.20,46.40,20.13,340.00,12.00,0.00,30.17,M,10.00,16.00,BKN,M,M,M,11000.00,M,M,M,M,M,M,M,M,M,M,89.55,KBAM 141955Z AUTO 34012G16KT 10SM BKN110 34/08 A3017 RMK AO1,M
HTH,2024-07-14 19:55,-118.6315,38.5448,1282.89,75.20,60.80,60.90,340.00,6.00,0.00,30.24,M,10.00,M,M,M,M,M,M,M,M,M,M,M,M,M,M,M,M,75.20,KHTH 141955Z AUTO 34006KT 10SM 24/16 A3024 RMK A01,M
TMT,2024-07-14 19:55,-117.1971,39.4643,1749.34,84.60,44.60,24.67,220.00,7.00,0.00,30.29,M,10.00,M,SCT,M,M,M,11000.00,M,M,M,M,M,M,M,M,M,M,82.02,KTMT 141955Z AUTO 22007KT 10SM SCT110 29/07 A3029 RMK AO2 T02920070,M
INS,2024-07-14 19:55,-115.6733,36.5872,955.00,98.40,42.80,14.96,140.00,14.00,0.00,30.08,1012.60,10.00,M,SCT,SCT,BKN,M,12000.00,14000.00,20000.00,M,M,M,M,M,M,M,M,94.11,KINS 141955Z AUTO 14014KT 10SM SCT120 SCT140 BKN200 37/06 A3008 RMK AO2 SLP126 T03690060 $,M
LSV,2024-07-14 19:55,-115.0343,36.2362,570.00,105.30,44.40,12.93,230.00,12.00,0.00,29.96,1011.30,10.00,16.00,FEW,FEW,M,M,13000.00,18000.00,M,M,M,M,M,M,M,M,M,101.02,KLSV 141955Z 23012G16KT 10SM FEW130 FEW180 41/07 A2996 RMK AO2A LTG DSNT SW SLP113 T04070069 $,M
EKO,2024-07-14 19:56,-115.7860,40.8242,1367.00,94.00,47.00,20.09,230.00,8.00,0.00,30.18,1014.40,10.00,M,CLR,M,M,M,M,M,M,M,M,M,M,M,M,M,M,90.40,KEKO 141956Z AUTO 23008KT 10SM CLR 34/08 A3018 RMK AO2 SLP144 T03440083,M
WMC,2024-07-14 19:56,-117.8072,40.9019,1315.00,84.00,48.00,28.60,280.00,16.00,0.00,30.22,1017.40,10.00,30.00,SCT,M,M,M,11000.00,M,M,M,M,M,M,M,33.00,270.00,2024-07-14 19:39,81.87,KWMC 141956Z AUTO 28016G30KT 10SM SCT110 29/09 A3022 RMK AO2 PK WND 27033/1939 SLP174 T02890089,M
HND,2024-07-14 19:56,-115.1344,35.9729,742.79,94.00,54.00,26.05,230.00,18.00,0.00,30.07,1016.80,10.00,22.00,CLR,M,M,M,M,M,M,M,M,M,M,M,30.00,190.00,2024-07-14 19:26,91.78,KHND 141956Z 23018G22KT 10SM CLR 34/12 A3007 RMK AO2 PK WND 19030/1926 WSHFT 1922 SLP168 T03440122,M
TPH,2024-07-14 19:56,-117.0904,38.0505,1654.00,89.00,41.00,18.68,210.00,6.00,0.00,30.26,1015.60,10.00,20.00,BKN,M,M,M,10000.00,M,M,M,M,M,M,M,M,M,M,85.30,KTPH 141956Z AUTO 21006G20KT 10SM BKN100 32/05 A3026 RMK AO2 SLP156 T03170050,M
LAS,2024-07-14 19:56,-115.1634,36.0719,663.00,98.00,53.00,22.21,220.00,14.00,T,30.04,1014.20,10.00,23.00,SCT,BKN,M,M,10000.00,12000.00,M,M,M,M,M,M,33.00,200.00,2024-07-14 19:31,95.69,KLAS 141956Z 22014G23KT 10SM SCT100 BKN120 37/12 A3004 RMK AO2 PK WND 20033/1931 RAB25E42 SLP142 P0000 T03670117 $,M
NFL,2024-07-14 19:56,-118.7010,39.4166,1199.00,91.00,47.00,22.05,280.00,11.00,0.00,30.19,1018.70,10.00,M,CLR,M,M,M,M,M,M,M,M,M,M,M,M,M,M,87.57,KNFL 141956Z AUTO 28011KT 10SM CLR 33/08 A3019 RMK AO2 SLP187 T03280083,M
VGT,2024-07-14 20:09,-115.1933,36.2111,667.00,100.00,47.00,16.72,270.00,18.00,0.00,30.02,M,10.00,33.00,CLR,M,M,M,M,M,M,M,M,M,M,M,33.00,270.00,2024-07-14 20:00,96.35,KVGT 142009Z 27018G33KT 10SM CLR 38/08 A3002 RMK AO2 PK WND 27033/2000 WSHFT 1949 LTG DSNT NW T03780083,M
05U,2024-07-14 20:10,-116.0051,39.6042,1811.23,87.80,41.00,19.40,80.00,11.00,0.00,30.28,M,10.00,19.00,M,M,M,M,M,M,M,M,M,M,M,M,M,M,M,84.30,K05U 142010Z AUTO 08011G19KT 040V100 10SM 31/05 A3028 RMK A01,M
BVU,2024-07-14 20:15,-114.8611,35.9475,671.00,96.80,59.00,28.63,210.00,14.00,0.00,30.02,M,10.00,21.00,FEW,FEW,SCT,M,4700.00,6000.00,7000.00,M,M,M,M,M,M,M,M,96.50,KBVU 142015Z AUTO 21014G21KT 10SM FEW047 FEW060 SCT070 36/15 A3002 RMK AO2,M
CXP,2024-07-14 20:15,-119.7326,39.1923,1431.00,82.40,44.60,26.49,0.00,0.00,0.00,30.28,M,10.00,M,BKN,M,M,M,11000.00,M,M,M,M,M,M,M,M,M,M,80.50,KCXP 142015Z AUTO 00000KT 10SM BKN110 28/07 A3028 RMK AO2,M
RTS,2024-07-14 20:15,-119.8764,39.6682,1539.00,77.00,46.40,33.85,290.00,4.00,0.00,30.31,M,10.00,M,FEW,M,M,M,9500.00,M,M,M,M,M,M,M,M,M,M,77.00,KRTS 142015Z AUTO 29004KT 10SM FEW095 25/08 A3031 RMK AO2,M
MEV,2024-07-14 20:15,-119.7500,38.9963,1441.42,82.40,50.00,32.46,270.00,7.00,0.00,30.28,M,10.00,M,FEW,M,M,M,11000.00,M,M,M,M,M,M,M,M,M,M,80.99,KMEV 142015Z AUTO 27007KT 10SM FEW110 28/10 A3028 RMK AO2,M
BAM,2024-07-14 20:15,-116.8743,40.5990,1382.36,91.40,46.40,21.29,340.00,11.00,0.00,30.17,M,10.00,M,SCT,SCT,M,M,10000.00,12000.00,M,M,M,M,M,M,M,M,M,87.86,KBAM 142015Z AUTO 34011KT 10SM SCT100 SCT120 33/08 A3017 RMK AO1,M
HTH,2024-07-14 20:15,-118.6315,38.5448,1282.89,77.00,57.20,50.43,350.00,7.00,0.00,30.24,M,10.00,M,CLR,M,M,M,M,M,M,M,M,M,M,M,M,M,M,77.00,KHTH 142015Z AUTO 35007KT 10SM CLR 25/14 A3024 RMK A01,M
TMT,2024-07-14 20:15,-117.1971,39.4643,1749.34,85.50,46.20,25.47,120.00,8.00,0.00,30.27,M,10.00,M,CLR,M,M,M,M,M,M,M,M,M,M,M,M,M,M,82.82,KTMT 142015Z AUTO 12008KT 10SM CLR 30/08 A3027 RMK AO2 T02970079,M
05U,2024-07-14 20:30,-116.0051,39.6042,1811.23,89.60,39.20,17.09,80.00,9.00,0.00,30.28,M,10.00,16.00,M,M,M,M,M,M,M,M,M,M,M,M,M,M,M,85.73,K05U 142030Z AUTO 08009G16KT 10SM 32/04 A3028 RMK A01,M
BVU,2024-07-14 20:35,-114.8611,35.9475,671.00,98.60,53.60,22.29,250.00,4.00,0.00,30.00,M,10.00,M,CLR,M,M,M,M,M,M,M,M,M,M,M,M,M,M,96.51,KBVU 142035Z AUTO 25004KT 10SM CLR 37/12 A3000 RMK AO2,M
CXP,2024-07-14 20:35,-119.7326,39.1923,1431.00,82.40,44.60,26.49,0.00,0.00,0.00,30.28,M,10.00,M,BKN,OVC,M,M,10000.00,12000.00,M,M,M,M,M,M,M,M,M,80.50,KCXP 142035Z AUTO 00000KT 10SM BKN100 OVC120 28/07 A3028 RMK AO2,M
RTS,2024-07-14 20:35,-119.8764,39.6682,1539.00,77.00,48.20,36.22,190.00,8.00,0.00,30.31,M,10.00,M,FEW,FEW,FEW,M,3000.00,4000.00,4600.00,M,-DZ,M,M,M,M,M,M,77.00,KRTS 142035Z AUTO 19008KT 10SM -DZ FEW030 FEW040 FEW046 25/09 A3031 RMK AO2,M
MEV,2024-07-14 20:35,-119.7500,38.9963,1441.42,84.20,50.00,30.62,240.00,10.00,0.00,30.28,M,10.00,M,FEW,M,M,M,12000.00,M,M,M,M,M,M,M,M,M,M,82.24,KMEV 142035Z AUTO 24010KT 10SM FEW120 29/10 A3028 RMK AO2,M
BAM,2024-07-14 20:35,-116.8743,40.5990,1382.36,93.20,50.00,23.04,330.00,16.00,0.00,30.17,M,10.00,19.00,SCT,M,M,M,11000.00,M,M,M,M,M,M,M,M,M,M,90.10,KBAM 142035Z AUTO 33016G19KT 10SM SCT110 34/10 A3017 RMK AO1,M
HTH,2024-07-14 20:35,-118.6315,38.5448,1282.89,80.60,55.40,41.97,330.00,13.00,0.00,30.25,M,10.00,M,CLR,M,M,M,M,M,M,M,M,M,M,M,M,M,M,80.53,KHTH 142035Z AUTO 33013KT 10SM CLR 27/13 A3025 RMK A01,M
TMT,2024-07-14 20:35,-117.1971,39.4643,1749.34,82.20,48.00,30.32,180.00,11.00,0.00,30.28,M,10.00,16.00,BKN,M,M,M,9500.00,M,M,M,M,M,M,M,M,M,M,80.65,KTMT 142035Z AUTO 18011G16KT 10SM BKN095 28/09 A3028 RMK AO2 T02790088,M
05U,2024-07-14 20:50,-116.0051,39.6042,1811.23,89.60,41.00,18.33,90.00,11.00,0.00,30.27,M,10.00,22.00,M,M,M,M,M,M,M,M,M,M,M,M,M,M,M,85.82,K05U 142050Z AUTO 09011G22KT 10SM 32/05 A3027 RMK A01,M
P68,2024-07-14 20:53,-116.0056,39.6014,1993.00,90.00,41.00,18.10,290.00,14.00,0.00,30.25,1013.80,M,19.00,M,M,M,M,M,M,M,M,M,M,M,M,M,M,M,86.16,KP68 142053Z AUTO 29014G19KT 32/05 A3025 RMK AO1 SLP138 T03220050 58012,M
DRA,2024-07-14 20:53,-116.0278,36.6206,1009.00,103.00,47.00,15.28,250.00,10.00,0.00,30.07,1012.50,10.00,17.00,CLR,M,M,M,M,M,M,M,M,M,M,M,M,M,M,99.35,KDRA 142053Z AUTO 25010G17KT 10SM CLR 39/08 A3007 RMK AO2 SLP125 T03940083 58016,M
ELY,2024-07-14 20:53,-114.8453,39.2950,1909.00,91.00,32.00,12.29,210.00,16.00,0.00,30.29,1013.70,10.00,26.00,CLR,M,M,M,M,M,M,M,M,M,M,M,31.00,190.00,2024-07-14 20:11,86.61,KELY 142053Z AUTO 21016G26KT 10SM CLR 33/00 A3029 RMK AO2 PK WND 19031/2011 SLP137 T03280000 58013,M
VGT,2024-07-14 20:53,-115.1933,36.2111,667.00,100.00,51.00,19.42,230.00,13.00,T,29.99,1014.20,10.00,M,CLR,M,M,M,M,M,M,M,M,M,M,M,33.00,270.00,2024-07-14 20:00,97.26,KVGT 142053Z 23013KT 10SM CLR 38/11 A2999 RMK AO2 PK WND 27033/2000 WSHFT 1949 RAB23E33 SLP142 P0000 60000 T03780106 58014,M
LOL,2024-07-14 20:53,-118.5701,40.0684,1192.43,89.00,48.00,24.39,M,6.00,0.00,30.18,1017.10,10.00,18.00,CLR,M,M,M,M,M,M,M,M,M,M,M,M,M,M,85.89,KLOL 142053Z AUTO VRB06G18KT 10SM CLR 32/09 A3018 RMK AO2 LTG DSNT S SLP171 60000 T03170089 58013,M
BVU,2024-07-14 20:55,-114.8611,35.9475,671.00,100.40,51.80,19.76,230.00,6.00,0.00,30.00,M,10.00,M,CLR,M,M,M,M,M,M,M,M,M,M,M,M,M,M,97.90,KBVU 142055Z AUTO 23006KT 10SM CLR 38/11 A3000 RMK AO2,M
CXP,2024-07-14 20:55,-119.7326,39.1923,1431.00,82.40,46.40,28.36,220.00,5.00,0.00,30.28,M,10.00,M,OVC,M,M,M,10000.00,M,M,M,M,M,M,M,M,M,M,80.64,KCXP 142055Z AUTO 22005KT 10SM OVC100 28/08 A3028 RMK AO2,M
RNO,2024-07-14 20:55,-119.7711,39.4839,1341.00,82.00,48.00,30.51,40.00,6.00,0.00,30.26,1018.80,10.00,M,OVC,M,M,M,5000.00,M,M,M,M,M,M,M,M,M,M,80.53,KRNO 142055Z 04006KT 10SM OVC050 28/09 A3026 RMK AO2 SLP188 60000 T02780089 56007 $,M
RTS,2024-07-14 20:55,-119.8764,39.6682,1539.00,78.80,46.40,31.90,0.00,0.00,0.00,30.31,M,10.00,M,FEW,M,M,M,4000.00,M,M,M,M,M,M,M,M,M,M,78.80,KRTS 142055Z AUTO 00000KT 10SM FEW040 26/08 A3031 RMK AO2,M
MEV,2024-07-14 20:55,-119.7500,38.9963,1441.42,82.40,48.20,30.35,240.00,8.00,0.00,30.28,M,10.00,M,FEW,M,M,M,12000.00,M,M,M,M,M,M,M,M,M,M,80.80,KMEV 142055Z AUTO 24008KT 10SM FEW120 28/09 A3028 RMK AO2,M
BAM,2024-07-14 20:55,-116.8743,40.5990,1382.36,93.20,48.20,21.54,330.00,14.00,0.00,30.17,M,10.00,M,CLR,M,M,M,M,M,M,M,M,M,M,M,M,M,M,89.80,KBAM 142055Z AUTO 33014KT 10SM CLR 34/09 A3017 RMK AO1,M
HTH,2024-07-14 20:55,-118.6315,38.5448,1282.89,80.60,53.60,39.30,350.00,19.00,0.00,30.24,M,10.00,25.00,CLR,M,M,M,M,M,M,M,M,M,M,M,M,M,M,80.29,KHTH 142055Z AUTO 35019G25KT 10SM CLR 27/12 A3024 RMK A01,M
TMT,2024-07-14 20:55,-117.1971,39.4643,1749.34,71.80,56.70,58.96,140.00,9.00,0.00,30.27,M,10.00,16.00,SCT,SCT,OVC,M,2400.00,5500.00,9500.00,M,+RA,M,M,M,M,M,M,71.80,KTMT 142055Z AUTO 14009G16KT 10SM +RA SCT024 SCT055 OVC095 22/14 A3027 RMK AO2 T02210137,M
INS,2024-07-14 20:55,-115.6733,36.5872,955.00,95.00,46.20,18.90,120.00,17.00,0.00,30.08,1012.80,10.00,23.00,BKN,M,M,M,12000.00,M,M,M,M,M,M,M,31.00,130.00,2024-07-14 20:32,91.26,KINS 142055Z AUTO 12017G23KT 10SM BKN120 35/08 A3008 RMK AO2 PK WND 13031/32 SLP128 T03500079 56009 $,M
LSV,2024-07-14 20:55,-115.0343,36.2362,570.00,103.00,42.60,12.92,220.00,9.00,0.00,29.94,1010.60,10.00,M,FEW,FEW,SCT,SCT,10000.00,13000.00,16000.00,18000.00,M,M,M,M,28.00,250.00,2024-07-14 20:10,98.48,KLSV 142055Z 22009KT 10SM FEW100 FEW130 SCT160 SCT180 40/06 A2994 RMK AO2A PK WND 25028/10 LTG DSNT S SLP106 T03950059 57013 $,M
EKO,2024-07-14 20:56,-115.7860,40.8242,1367.00,95.00,45.00,18.06,240.00,16.00,0.00,30.17,1014.30,10.00,22.00,CLR,M,M,M,M,M,M,M,M,M,M,M,M,M,M,91.10,KEKO 142056Z AUTO 24016G22KT 10SM CLR 35/07 A3017 RMK AO2 SLP143 T03500072 56015,M
WMC,2024-07-14 20:56,-117.8072,40.9019,1315.00,87.00,46.00,24.10,290.00,17.00,0.00,30.22,1017.10,10.00,26.00,FEW,M,M,M,10000.00,M,M,M,M,M,M,M,27.00,290.00,2024-07-14 19:57,83.98,KWMC 142056Z AUTO 29017G26KT 10SM FEW100 31/08 A3022 RMK AO2 PK WND 29027/1957 SLP171 T03060078 50002,M
HND,2024-07-14 20:56,-115.1344,35.9729,742.79,100.00,52.00,20.15,210.00,13.00,0.00,30.06,1016.20,10.00,M,CLR,M,M,M,M,M,M,M,M,M,M,M,M,M,M,97.53,KHND 142056Z 21013KT 10SM CLR 38/11 A3006 RMK AO2 WSHFT 2040 LTG DSNT SE SLP162 T03780111 58007,M
TPH,2024-07-14 20:56,-117.0904,38.0505,1654.00,90.00,42.00,18.81,230.00,8.00,0.00,30.24,1015.30,10.00,M,BKN,M,M,M,10000.00,M,M,M,M,M,M,M,M,M,M,86.22,KTPH 142056Z AUTO 23008KT 10SM BKN100 32/06 A3024 RMK AO2 SLP153 T03220056 56021,M
LAS,2024-07-14 20:56,-115.1634,36.0719,663.00,102.00,46.00,15.16,250.00,7.00,0.00,30.02,1013.40,10.00,M,SCT,BKN,M,M,10000.00,12000.00,M,M,M,M,M,M,M,M,M,98.15,KLAS 142056Z 25007KT 10SM SCT100 BKN120 39/08 A3002 RMK AO2 LTG DSNT SE SLP134 SH DSNT SE AND S 60000 T03890078 58009 $,M
NFL,2024-07-14 20:56,-118.7010,39.4166,1199.00,78.00,52.00,40.36,190.00,24.00,0.00,30.25,1020.40,8.00,35.00,SCT,BKN,M,M,3300.00,9500.00,M,M,M,M,M,M,45.00,220.00,2024-07-14 20:19,78.00,KNFL 142056Z AUTO 19024G35KT 8SM SCT033 BKN095 26/11 A3025 RMK AO2 PK WND 22045/2019 SLP204 T02560111 53016,M
05U,2024-07-14 21:05,-116.0051,39.6042,1811.23,91.40,39.20,16.15,M,4.00,0.00,30.26,M,10.00,15.00,M,M,M,M,M,M,M,M,M,M,M,M,M,M,M,87.30,K05U 142105Z AUTO VRB04G15KT 10SM 33/04 A3026 RMK A01,M
BVU,2024-07-14 21:15,-114.8611,35.9475,671.00,100.40,48.20,17.28,210.00,20.00,0.00,30.00,M,10.00,M,CLR,M,M,M,M,M,M,M,M,M,M,M,M,M,M,97.00,KBVU 142115Z AUTO 21020KT 10SM CLR 38/09 A3000 RMK AO2 LTG DSNT S,M
CXP,2024-07-14 21:15,-119.7326,39.1923,1431.00,82.40,46.40,28.36,320.00,7.00,0.00,30.29,M,10.00,M,OVC,M,M,M,10000.00,M,M,M,M,M,M,M,M,M,M,80.64,KCXP 142115Z AUTO 32007KT 10SM OVC100 28/08 A3029 RMK AO2,M
RTS,2024-07-14 21:15,-119.8764,39.6682,1539.00,78.80,46.40,31.90,M,6.00,0.00,30.31,M,10.00,12.00,CLR,M,M,M,M,M,M,M,M,M,M,M,M,M,M,78.80,KRTS 142115Z AUTO VRB06G12KT 10SM CLR 26/08 A3031 RMK AO2,M
MEV,2024-07-14 21:15,-119.7500,38.9963,1441.42,80.60,50.00,34.41,230.00,7.00,0.00,30.28,M,10.00,M,SCT,M,M,M,11000.00,M,M,M,M,M,M,M,M,M,M,79.88,KMEV 142115Z AUTO 23007KT 10SM SCT110 27/10 A3028 RMK AO2,M
BAM,2024-07-14 21:15,-116.8743,40.5990,1382.36,93.20,50.00,23.04,340.00,15.00,0.00,30.17,M,10.00,18.00,CLR,M,M,M,M,M,M,M,M,M,M,M,M,M,M,90.10,KBAM 142115Z AUTO 34015G18KT 10SM CLR 34/10 A3017 RMK AO1,M
HTH,2024-07-14 21:15,-118.6315,38.5448,1282.89,78.80,50.00,36.51,340.00,16.00,0.00,30.24,M,10.00,24.00,CLR,M,M,M,M,M,M,M,M,M,M,M,M,M,M,78.80,KHTH 142115Z AUTO 34016G24KT 10SM CLR 26/10 A3024 RMK A01,M
TMT,2024-07-14 21:15,-117.1971,39.4643,1749.34,74.00,57.20,55.74,230.00,21.00,0.00,30.32,M,10.00,29.00,SCT,SCT,BKN,M,2200.00,6000.00,9000.00,M,-RA,M,M,M,M,M,M,74.00,KTMT 142115Z AUTO 23021G29KT 10SM -RA SCT022 SCT060 BKN090 23/14 A3032 RMK AO2 T02330140,M
05U,2024-07-14 21:20,-116.0051,39.6042,1811.23,93.20,39.20,15.27,40.00,7.00,0.00,30.26,M,10.00,16.00,M,M,M,M,M,M,M,M,M,M,M,M,M,M,M,88.92,K05U 142120Z AUTO 04007G16KT 020V110 10SM 34/04 A3026 RMK A01,M
BVU,2024-07-14 21:35,-114.8611,35.9475,671.00,98.60,50.00,19.52,200.00,13.00,0.00,30.00,M,10.00,22.00,CLR,M,M,M,M,M,M,M,M,M,M,M,M,M,M,95.56,KBVU 142135Z AUTO 20013G22KT 10SM CLR 37/10 A3000 RMK AO2,M
CXP,2024-07-14 21:35,-119.7326,39.1923,1431.00,82.40,48.20,30.35,M,3.00,0.00,30.29,M,9.00,M,FEW,BKN,M,M,6000.00,11000.00,M,M,M,M,M,M,M,M,M,80.80,KCXP 142135Z AUTO VRB03KT 9SM FEW060 BKN110 28/09 A3029 RMK AO2,M
RTS,2024-07-14 21:35,-119.8764,39.6682,1539.00,78.80,46.40,31.90,110.00,5.00,0.00,30.31,M,10.00,M,CLR,M,M,M,M,M,M,M,M,M,M,M,M,M,M,78.80,KRTS 142135Z AUTO 11005KT 10SM CLR 26/08 A3031 RMK AO2,M
MEV,2024-07-14 21:35,-119.7500,38.9963,1441.42,80.60,50.00,34.41,250.00,10.00,0.00,30.29,M,10.00,M,BKN,M,M,M,11000.00,M,M,M,M,M,M,M,M,M,M,79.88,KMEV 142135Z AUTO 25010KT 10SM BKN110 27/10 A3029 RMK AO2,M
BAM,2024-07-14 21:35,-116.8743,40.5990,1382.36,91.40,50.00,24.37,340.00,16.00,0.00,30.17,M,10.00,M,CLR,M,M,M,M,M,M,M,M,M,M,M,M,M,M,88.36,KBAM 142135Z AUTO 34016KT 10SM CLR 33/10 A3017 RMK AO1,M
HTH,2024-07-14 21:35,-118.6315,38.5448,1282.89,78.80,50.00,36.51,360.00,9.00,0.00,30.26,M,10.00,16.00,CLR,M,M,M,M,M,M,M,M,M,M,M,M,M,M,78.80,KHTH 142135Z AUTO 36009G16KT 10SM CLR 26/10 A3026 RMK A01,M
TMT,2024-07-14 21:35,-117.1971,39.4643,1749.34,64.60,55.20,71.53,250.00,18.00,0.00,30.34,M,5.00,31.00,SCT,BKN,OVC,M,1900.00,4000.00,9000.00,M,RA,M,M,M,M,M,M,64.60,KTMT 142135Z AUTO 25018G31KT 5SM RA SCT019 BKN040 OVC090 18/13 A3034 RMK AO2 T01810129,M
05U,2024-07-14 21:35,-116.0051,39.6042,1811.23,91.40,37.40,15.05,90.00,6.00,0.00,30.25,M,10.00,M,M,M,M,M,M,M,M,M,M,M,M,M,M,M,M,87.23,K05U 142135Z AUTO 09006KT 10SM 33/03 A3025 RMK A01,M
P68,2024-07-14 21:53,-116.0056,39.6014,1993.00,89.00,34.00,14.18,200.00,6.00,0.00,30.21,1013.10,M,21.00,M,M,M,M,M,M,M,M,M,M,M,M,M,M,M,85.09,KP68 142153Z AUTO 20006G21KT 32/01 A3021 RMK AO1 SLP131 T03170011,M
DRA,2024-07-14 21:53,-116.0278,36.6206,1009.00,101.00,45.00,15.04,M,4.00,0.00,30.06,1012.10,10.00,15.00,CLR,M,M,M,M,M,M,M,M,M,M,M,M,M,M,96.97,KDRA 142153Z AUTO VRB04G15KT 10SM CLR 38/07 A3006 RMK AO2 SLP121 T03830072,M
ELY,2024-07-14 21:53,-114.8453,39.2950,1909.00,92.00,32.00,11.91,220.00,15.00,0.00,30.26,1013.40,10.00,28.00,CLR,M,M,M,M,M,M,M,M,M,M,M,29.00,210.00,2024-07-14 21:05,87.38,KELY 142153Z AUTO 22015G28KT 180V280 10SM CLR 33/00 A3026 RMK AO2 PK WND 21029/2105 SLP134 T03330000,M
VGT,2024-07-14 21:53,-115.1933,36.2111,667.00,104.00,46.00,14.28,180.00,13.00,0.00,29.99,1014.00,10.00,19.00,CLR,M,M,M,M,M,M,M,M,M,M,M,M,M,M,100.12,KVGT 142153Z 18013G19KT 10SM CLR 40/08 A2999 RMK AO2 SLP140 T04000078,M
LOL,2024-07-14 21:53,-118.5701,40.0684,1192.43,84.00,49.00,29.69,M,M,0.00,30.22,1018.80,1.25,M,FEW,SCT,M,M,800.00,10000.00,M,M,HZ,M,M,M,33.00,170.00,2024-07-14 21:53,81.98,KLOL 142153Z AUTO 1 1/4SM HZ FEW008 SCT100 29/09 A3022 RMK AO2 PK WND 17033/2153 LTG DSNT SE PRESRR SLP188 T02890094,M
BVU,2024-07-14 21:55,-114.8611,35.9475,671.00,102.20,42.80,13.34,220.00,9.00,0.00,29.98,M,10.00,16.00,CLR,M,M,M,M,M,M,M,M,M,M,M,M,M,M,97.76,KBVU 142155Z AUTO 22009G16KT 10SM CLR 39/06 A2998 RMK AO2,M
CXP,2024-07-14 21:55,-119.7326,39.1923,1431.00,82.40,48.20,30.35,M,5.00,0.00,30.29,M,10.00,M,BKN,M,M,M,11000.00,M,M,M,M,M,M,M,M,M,M,80.80,KCXP 142155Z AUTO VRB05KT 10SM BKN110 28/09 A3029 RMK AO2,M
RNO,2024-07-14 21:55,-119.7711,39.4839,1341.00,83.00,48.00,29.54,110.00,6.00,0.00,30.25,1018.30,10.00,M,BKN,OVC,M,M,6000.00,10000.00,M,M,M,M,M,M,M,M,M,81.18,KRNO 142155Z 11006KT 10SM BKN060 OVC100 28/09 A3025 RMK AO2 SLP183 T02830089 $,M
RTS,2024-07-14 21:55,-119.8764,39.6682,1539.00,80.60,46.40,30.07,140.00,6.00,0.00,30.30,M,10.00,M,CLR,M,M,M,M,M,M,M,M,M,M,M,M,M,M,79.56,KRTS 142155Z AUTO 14006KT 10SM CLR 27/08 A3030 RMK AO2,M
MEV,2024-07-14 21:55,-119.7500,38.9963,1441.42,78.80,48.20,34.13,280.00,11.00,0.00,30.29,M,10.00,M,BKN,M,M,M,11000.00,M,M,M,M,M,M,M,M,M,M,78.80,KMEV 142155Z AUTO 28011KT 10SM BKN110 26/09 A3029 RMK AO2,M
BAM,2024-07-14 21:55,-116.8743,40.5990,1382.36,93.20,50.00,23.04,340.00,17.00,0.00,30.16,M,10.00,22.00,CLR,M,M,M,M,M,M,M,M,M,M,M,M,M,M,90.10,KBAM 142155Z AUTO 34017G22KT 10SM CLR 34/10 A3016 RMK AO1,M
HTH,2024-07-14 21:55,-118.6315,38.5448,1282.89,80.60,50.00,34.41,0.00,0.00,0.00,30.26,M,10.00,M,FEW,M,M,M,8000.00,M,M,M,M,M,M,M,M,M,M,79.88,KHTH 142155Z AUTO 00000KT 10SM FEW080 27/10 A3026 RMK A01,M
TMT,2024-07-14 21:55,-117.1971,39.4643,1749.34,66.20,55.00,67.17,150.00,8.00,0.00,30.39,M,10.00,18.00,SCT,SCT,OVC,M,3100.00,4000.00,8500.00,M,M,M,M,M,M,M,M,66.20,KTMT 142155Z AUTO 15008G18KT 10SM SCT031 SCT040 OVC085 19/13 A3039 RMK AO2 T01900128,M
INS,2024-07-14 21:55,-115.6733,36.5872,955.00,100.80,42.80,13.91,110.00,11.00,0.00,30.05,1011.60,10.00,M,CLR,M,M,M,M,M,M,M,M,M,M,M,M,M,M,96.42,KINS 142155Z AUTO 11011KT 10SM CLR 38/06 A3005 RMK AO2 SLP116 T03820060 $,M
LSV,2024-07-14 21:55,-115.0343,36.2362,570.00,103.60,41.00,11.94,240.00,11.00,0.00,29.93,1010.40,10.00,M,FEW,M,M,M,19000.00,M,M,M,M,M,M,M,M,M,M,98.61,KLSV 142155Z AUTO 24011KT 10SM FEW190 40/05 A2993 RMK AO2 SLP104 T03980050 $,M
EKO,2024-07-14 21:56,-115.7860,40.8242,1367.00,96.00,44.00,16.86,240.00,11.00,0.00,30.15,1013.50,10.00,21.00,CLR,M,M,M,M,M,M,M,M,M,M,M,M,M,M,91.95,KEKO 142156Z AUTO 24011G21KT 10SM CLR 36/07 A3015 RMK AO2 SLP135 T03560067,M
WMC,2024-07-14 21:56,-117.8072,40.9019,1315.00,85.00,47.00,26.67,270.00,11.00,0.00,30.21,1017.20,10.00,20.00,BKN,M,M,M,11000.00,M,M,M,M,M,M,M,M,M,M,82.51,KWMC 142156Z AUTO 27011G20KT 10SM BKN110 29/08 A3021 RMK AO2 SLP172 T02940083,M
HND,2024-07-14 21:56,-115.1344,35.9729,742.79,98.00,51.00,20.63,230.00,10.00,0.00,30.04,1015.70,10.00,17.00,CLR,M,M,M,M,M,M,M,M,M,M,M,M,M,M,95.17,KHND 142156Z 23010G17KT 10SM CLR 37/11 A3004 RMK AO2 SLP157 T03670106,M
TPH,2024-07-14 21:56,-117.0904,38.0505,1654.00,93.00,36.00,13.55,190.00,10.00,0.00,30.22,1014.40,10.00,21.00,CLR,M,M,M,M,M,M,M,M,M,M,M,M,M,M,88.59,KTPH 142156Z AUTO 19010G21KT 10SM CLR 34/02 A3022 RMK AO2 SLP144 T03390022,M
LAS,2024-07-14 21:56,-115.1634,36.0719,663.00,102.00,50.00,17.62,200.00,8.00,0.00,30.00,1012.90,10.00,18.00,SCT,BKN,M,M,10000.00,12000.00,M,M,M,M,M,M,M,M,M,99.07,KLAS 142156Z 20008G18KT 10SM SCT100 BKN120 39/10 A3000 RMK AO2 SLP129 CB DSNT NE ACC DSNT E T03890100 $,M
NFL,2024-07-14 21:56,-118.7010,39.4166,1199.00,76.00,58.00,53.66,70.00,14.00,T,30.23,1019.80,8.00,19.00,OVC,M,M,M,10000.00,M,M,M,-RA,M,M,M,31.00,200.00,2024-07-14 21:02,76.00,KNFL 142156Z AUTO 07014G19KT 8SM -RA OVC100 24/14 A3023 RMK AO2 PK WND 20031/2102 RAB40 SLP198 P0000 T02440144,M
LOL,2024-07-14 22:00,-118.5701,40.0684,1192.43,79.00,52.00,39.06,180.00,28.00,0.00,30.20,M,0.25,41.00,BKN,BKN,M,M,800.00,10000.00,M,M,HZ,M,M,M,41.00,190.00,2024-07-14 22:00,79.00,KLOL 142200Z AUTO 18028G41KT 1/4SM HZ BKN008 BKN100 26/11 A3020 RMK AO2 PK WND 19041/2200 T02610111,M
05U,2024-07-14 22:10,-116.0051,39.6042,1811.23,89.60,35.60,14.83,0.00,0.00,0.00,30.23,M,10.00,14.00,M,M,M,M,M,M,M,M,M,M,M,M,M,M,M,85.62,K05U 142210Z AUTO 00000G14KT 10SM 32/02 A3023 RMK A01,M
LOL,2024-07-14 22:13,-118.5701,40.0684,1192.43,76.00,53.00,44.75,180.00,29.00,0.00,30.22,M,0.50,41.00,BKN,OVC,M,M,800.00,10000.00,M,M,TS HZ,M,M,M,45.00,180.00,2024-07-14 22:01,76.00,KLOL 142213Z AUTO 18029G41KT 1/2SM TS HZ BKN008 OVC100 24/12 A3022 RMK AO2 PK WND 18045/2201 LTG DSNT SE AND S TSB09 T02440117,M
BVU,2024-07-14 22:15,-114.8611,35.9475,671.00,102.20,42.80,13.34,0.00,0.00,0.00,29.97,M,10.00,M,CLR,M,M,M,M,M,M,M,M,M,M,M,M,M,M,97.76,KBVU 142215Z AUTO 00000KT 10SM CLR 39/06 A2997 RMK AO2,M
CXP,2024-07-14 22:15,-119.7326,39.1923,1431.00,82.40,48.20,30.35,240.00,5.00,0.00,30.28,M,10.00,M,BKN,M,M,M,11000.00,M,M,M,M,M,M,M,M,M,M,80.80,KCXP 142215Z AUTO 24005KT 10SM BKN110 28/09 A3028 RMK AO2,M
RTS,2024-07-14 22:15,-119.8764,39.6682,1539.00,78.80,44.60,29.79,0.00,0.00,0.00,30.30,M,10.00,M,CLR,M,M,M,M,M,M,M,M,M,M,M,M,M,M,78.80,KRTS 142215Z AUTO 00000KT 10SM CLR 26/07 A3030 RMK AO2,M
MEV,2024-07-14 22:15,-119.7500,38.9963,1441.42,78.80,46.40,31.90,280.00,11.00,0.00,30.28,M,10.00,M,OVC,M,M,M,11000.00,M,M,M,M,M,M,M,M,M,M,78.80,KMEV 142215Z AUTO 28011KT 10SM OVC110 26/08 A3028 RMK AO2,M
BAM,2024-07-14 22:15,-116.8743,40.5990,1382.36,89.60,50.00,25.79,330.00,17.00,0.00,30.17,M,10.00,23.00,SCT,M,M,M,11000.00,M,M,M,M,M,M,M,M,M,M,86.70,KBAM 142215Z AUTO 33017G23KT 10SM SCT110 32/10 A3017 RMK AO1,M
HTH,2024-07-14 22:15,-118.6315,38.5448,1282.89,80.60,48.20,32.18,280.00,6.00,0.00,30.25,M,10.00,M,FEW,FEW,SCT,M,4400.00,5500.00,8000.00,M,M,M,M,M,M,M,M,79.71,KHTH 142215Z AUTO 28006KT 10SM FEW044 FEW055 SCT080 27/09 A3025 RMK A01,M
TMT,2024-07-14 22:15,-117.1971,39.4643,1749.34,64.40,54.30,69.71,10.00,3.00,0.00,30.37,M,7.00,15.00,SCT,SCT,OVC,M,5000.00,6500.00,8500.00,M,-RA,M,M,M,M,M,M,64.40,KTMT 142215Z AUTO 01003G15KT 7SM -RA SCT050 SCT065 OVC085 18/12 A3037 RMK AO2 T01800124,M
LOL,2024-07-14 22:30,-118.5701,40.0684,1192.43,79.00,55.00,43.59,160.00,24.00,T,30.22,M,0.50,37.00,VV ,M,M,M,600.00,M,M,M,VCTS HZ,M,M,M,45.00,180.00,2024-07-14 22:01,79.00,KLOL 142230Z AUTO 16024G37KT 1/2SM VCTS HZ VV006 26/13 A3022 RMK AO2 PK WND 18045/2201 RAB15E29 TSB09E24 P0000 T02610128,M
05U,2024-07-14 22:30,-116.0051,39.6042,1811.23,89.60,33.80,13.80,60.00,5.00,0.00,30.22,M,10.00,15.00,M,M,M,M,M,M,M,M,M,M,M,M,M,M,M,85.59,K05U 142230Z AUTO 06005G15KT 10SM 32/01 A3022 RMK A01,M
BVU,2024-07-14 22:35,-114.8611,35.9475,671.00,102.20,44.60,14.29,180.00,8.00,0.00,29.96,M,10.00,M,CLR,M,M,M,M,M,M,M,M,M,M,M,M,M,M,98.07,KBVU 142235Z AUTO 18008KT 10SM CLR 39/07 A2996 RMK AO2,M
CXP,2024-07-14 22:35,-119.7326,39.1923,1431.00,80.60,48.20,32.18,240.00,8.00,0.00,30.28,M,10.00,14.00,BKN,M,M,M,11000.00,M,M,M,M,M,M,M,M,M,M,79.71,KCXP 142235Z AUTO 24008G14KT 210V270 10SM BKN110 27/09 A3028 RMK AO2,M
RTS,2024-07-14 22:35,-119.8764,39.6682,1539.00,80.60,44.60,28.08,0.00,0.00,0.00,30.29,M,10.00,M,FEW,M,M,M,9500.00,M,M,M,M,M,M,M,M,M,M,79.42,KRTS 142235Z AUTO 00000KT 10SM FEW095 27/07 A3029 RMK AO2,M
MEV,2024-07-14 22:35,-119.7500,38.9963,1441.42,80.60,46.40,30.07,280.00,9.00,0.00,30.27,M,10.00,M,OVC,M,M,M,11000.00,M,M,M,M,M,M,M,M,M,M,79.56,KMEV 142235Z AUTO 28009KT 10SM OVC110 27/08 A3027 RMK AO2,M
BAM,2024-07-14 22:35,-116.8743,40.5990,1382.36,86.00,50.00,28.90,350.00,7.00,0.00,30.20,M,10.00,M,BKN,M,M,M,10000.00,M,M,M,M,M,M,M,M,M,M,83.62,KBAM 142235Z AUTO 35007KT 10SM BKN100 30/10 A3020 RMK AO1,M
HTH,2024-07-14 22:35,-118.6315,38.5448,1282.89,80.60,48.20,32.18,290.00,9.00,0.00,30.24,M,10.00,M,CLR,M,M,M,M,M,M,M,M,M,M,M,M,M,M,79.71,KHTH 142235Z AUTO 29009KT 10SM CLR 27/09 A3024 RMK A01,M
TMT,2024-07-14 22:35,-117.1971,39.4643,1749.34,69.80,57.40,64.73,20.00,4.00,0.00,30.34,M,10.00,M,SCT,SCT,BKN,M,3300.00,5000.00,8500.00,M,-RA,M,M,M,M,M,M,69.80,KTMT 142235Z AUTO 02004KT 10SM -RA SCT033 SCT050 BKN085 21/14 A3034 RMK AO2 T02100141,M
LOL,2024-07-14 22:39,-118.5701,40.0684,1192.43,79.00,55.00,43.59,150.00,23.00,T,30.22,M,0.50,36.00,VV ,M,M,M,500.00,M,M,M,HZ,M,M,M,45.00,180.00,2024-07-14 22:01,79.00,KLOL 142239Z AUTO 15023G36KT 1/2SM HZ VV005 26/13 A3022 RMK AO2 PK WND 18045/2201 LTG DSNT SE RAB15E29 TSB09E24 P0000 T02610128,M
LOL,2024-07-14 22:44,-118.5701,40.0684,1192.43,80.00,56.00,43.75,160.00,23.00,T,30.22,M,1.00,33.00,VV ,M,M,M,400.00,M,M,M,HZ,M,M,M,45.00,180.00,2024-07-14 22:01,80.24,KLOL 142244Z AUTO 16023G33KT 1SM HZ VV004 27/13 A3022 RMK AO2 PK WND 18045/2201 LTG DSNT SE RAB15E29 TSB09E24 P0000 T02670133,M
TPH,2024-07-14 22:44,-117.0904,38.0505,1654.00,82.00,49.00,31.68,310.00,32.00,0.00,30.23,M,5.00,48.00,FEW,SCT,M,M,1800.00,12000.00,M,M,HZ,M,M,M,48.00,310.00,2024-07-14 22:42,80.62,KTPH 142244Z AUTO 31032G48KT 5SM HZ FEW018 SCT120 28/09 A3023 RMK AO2 PK WND 31048/2242 WSHFT 2224 LTG DSNT SW T02780094,M
LOL,2024-07-14 22:50,-118.5701,40.0684,1192.43,80.60,55.40,41.97,160.00,25.00,T,30.21,M,0.75,35.00,VV ,M,M,M,300.00,M,M,M,HZ,M,M,M,45.00,180.00,2024-07-14 22:01,80.53,KLOL 142250Z AUTO 16025G35KT 3/4SM HZ VV003 27/13 A3021 RMK AO2 PK WND 18045/2201 RAB15E29 TSB09E24 P0000,M
05U,2024-07-14 22:50,-116.0051,39.6042,1811.23,89.60,35.60,14.83,70.00,6.00,0.00,30.22,M,10.00,15.00,M,M,M,M,M,M,M,M,M,M,M,M,M,M,M,85.62,K05U 142250Z AUTO 07006G15KT 10SM 32/02 A3022 RMK A01,M
P68,2024-07-14 22:53,-116.0056,39.6014,1993.00,89.00,36.00,15.36,260.00,12.00,0.00,30.19,1012.50,M,20.00,M,M,M,M,M,M,M,M,M,M,M,M,M,M,M,85.12,KP68 142253Z AUTO 26012G20KT 32/02 A3019 RMK AO1 SLP125 T03170022,M
DRA,2024-07-14 22:53,-116.0278,36.6206,1009.00,94.00,51.00,23.33,280.00,25.00,0.00,30.05,1012.30,10.00,33.00,SCT,M,M,M,12000.00,M,M,M,M,M,M,M,33.00,280.00,2024-07-14 22:53,91.08,KDRA 142253Z AUTO 28025G33KT 10SM SCT120 34/11 A3005 RMK AO2 PK WND 28033/2253 SLP123 T03440106,M
ELY,2024-07-14 22:53,-114.8453,39.2950,1909.00,88.00,36.00,15.85,210.00,14.00,0.00,30.24,1013.00,10.00,25.00,CLR,M,M,M,M,M,M,M,M,M,M,M,27.00,230.00,2024-07-14 22:40,84.29,KELY 142253Z AUTO 21014G25KT 10SM CLR 31/02 A3024 RMK AO2 PK WND 23027/2240 WSHFT 2232 SLP130 T03110022,M
VGT,2024-07-14 22:53,-115.1933,36.2111,667.00,103.00,48.00,15.87,210.00,7.00,0.00,29.96,1012.90,10.00,M,CLR,M,M,M,M,M,M,M,M,M,M,M,M,M,M,99.59,KVGT 142253Z 21007KT 10SM CLR 39/09 A2996 RMK AO2 SLP129 T03940089,M
LOL,2024-07-14 22:53,-118.5701,40.0684,1192.43,80.00,55.00,42.19,160.00,22.00,T,30.21,1018.80,0.75,35.00,VV ,M,M,M,300.00,M,M,M,HZ,M,M,M,45.00,180.00,2024-07-14 22:01,80.11,KLOL 142253Z AUTO 16022G35KT 3/4SM HZ VV003 27/13 A3021 RMK AO2 PK WND 18045/2201 RAB15E29 TSB09E24 SLP188 P0000 T02670128,M
BVU,2024-07-14 22:55,-114.8611,35.9475,671.00,104.00,41.00,11.79,210.00,10.00,0.00,29.95,M,10.00,M,CLR,M,M,M,M,M,M,M,M,M,M,M,M,M,M,98.97,KBVU 142255Z AUTO 21010KT 10SM CLR 40/05 A2995 RMK AO2,M
CXP,2024-07-14 22:55,-119.7326,39.1923,1431.00,80.60,46.40,30.07,260.00,6.00,0.00,30.28,M,10.00,17.00,BKN,M,M,M,12000.00,M,M,M,M,M,M,M,M,M,M,79.56,KCXP 142255Z AUTO 26006G17KT 10SM BKN120 27/08 A3028 RMK AO2,M
RNO,2024-07-14 22:55,-119.7711,39.4839,1341.00,85.00,48.00,27.70,80.00,3.00,0.00,30.23,1017.50,10.00,M,SCT,BKN,BKN,M,7000.00,13000.00,19000.00,M,M,M,M,M,M,M,M,82.61,KRNO 142255Z 08003KT 10SM SCT070 BKN130 BKN190 29/09 A3023 RMK AO2 SLP175 T02940089 $,M
RTS,2024-07-14 22:55,-119.8764,39.6682,1539.00,80.60,44.60,28.08,M,4.00,0.00,30.29,M,10.00,M,CLR,M,M,M,M,M,M,M,M,M,M,M,M,M,M,79.42,KRTS 142255Z AUTO VRB04KT 10SM CLR 27/07 A3029 RMK AO2,M
MEV,2024-07-14 22:55,-119.7500,38.9963,1441.42,80.60,44.60,28.08,300.00,9.00,0.00,30.27,M,10.00,M,OVC,M,M,M,11000.00,M,M,M,M,M,M,M,M,M,M,79.42,KMEV 142255Z AUTO 30009KT 10SM OVC110 27/07 A3027 RMK AO2,M
BAM,2024-07-14 22:55,-116.8743,40.5990,1382.36,66.20,59.00,77.60,280.00,14.00,0.00,30.26,M,0.50,34.00,SCT,BKN,OVC,M,300.00,1600.00,2900.00,M,M,M,M,M,M,M,M,66.20,KBAM 142255Z AUTO 28014G34KT 1/2SM SCT003 BKN016 OVC029 19/15 A3026 RMK AO1,M
HTH,2024-07-14 22:55,-118.6315,38.5448,1282.89,82.40,48.20,30.35,320.00,9.00,0.00,30.22,M,10.00,M,CLR,M,M,M,M,M,M,M,M,M,M,M,M,M,M,80.80,KHTH 142255Z AUTO 32009KT 10SM CLR 28/09 A3022 RMK A01,M
TMT,2024-07-14 22:55,-117.1971,39.4643,1749.34,73.60,53.00,48.49,350.00,5.00,0.00,30.35,M,10.00,M,CLR,M,M,M,M,M,M,M,M,M,M,M,M,M,M,73.60,KTMT 142255Z AUTO 35005KT 10SM CLR 23/12 A3035 RMK AO2 T02310116,M
INS,2024-07-14 22:55,-115.6733,36.5872,955.00,100.20,42.40,13.95,110.00,9.00,0.00,30.02,1010.60,10.00,M,FEW,M,M,M,23000.00,M,M,M,M,M,M,M,M,M,M,95.79,KINS 142255Z AUTO 11009KT 10SM FEW230 38/06 A3002 RMK AO2 SLP106 T03790058 $,M
LSV,2024-07-14 22:55,-115.0343,36.2362,570.00,104.00,41.00,11.79,230.00,11.00,0.00,29.90,1009.40,10.00,M,FEW,M,M,M,20000.00,M,M,M,M,M,M,M,M,M,M,98.97,KLSV 142255Z AUTO 23011KT 10SM FEW200 40/05 A2990 RMK AO2 SLP094 T03990051 $,M
EKO,2024-07-14 22:56,-115.7860,40.8242,1367.00,93.00,43.00,17.80,230.00,12.00,0.00,30.12,1012.90,10.00,25.00,SCT,M,M,M,11000.00,M,M,M,M,M,M,M,M,M,M,89.00,KEKO 142256Z AUTO 23012G25KT 10SM SCT110 34/06 A3012 RMK AO2 LTG DSNT SE AND W SLP129 T03390061,M
WMC,2024-07-14 22:56,-117.8072,40.9019,1315.00,89.00,47.00,23.49,330.00,10.00,0.00,30.19,1016.20,10.00,22.00,CLR,M,M,M,M,M,M,M,M,M,M,M,M,M,M,85.77,KWMC 142256Z AUTO 33010G22KT 10SM CLR 32/08 A3019 RMK AO2 SLP162 T03170083,M
HND,2024-07-14 22:56,-115.1344,35.9729,742.79,102.00,48.00,16.35,220.00,10.00,0.00,30.01,1014.50,10.00,M,CLR,M,M,M,M,M,M,M,M,M,M,M,M,M,M,98.58,KHND 142256Z 22010KT 10SM CLR 39/09 A3001 RMK AO2 SLP145 T03890089,M
TPH,2024-07-14 22:56,-117.0904,38.0505,1654.00,79.00,48.00,33.66,310.00,31.00,0.00,30.23,1016.30,7.00,47.00,FEW,M,M,M,12000.00,M,M,M,M,M,M,M,48.00,310.00,2024-07-14 22:42,79.00,KTPH 142256Z AUTO 31031G47KT 7SM FEW120 26/09 A3023 RMK AO2 PK WND 31048/2242 WSHFT 2224 SLP163 T02610089,M
LAS,2024-07-14 22:56,-115.1634,36.0719,663.00,105.00,45.00,13.35,200.00,9.00,0.00,29.97,1011.70,10.00,16.00,SCT,BKN,M,M,10000.00,12000.00,M,M,M,M,M,M,M,M,M,100.87,KLAS 142256Z 20009G16KT 10SM SCT100 BKN120 41/07 A2997 RMK AO2 SLP117 T04060072 $,M
NFL,2024-07-14 22:56,-118.7010,39.4166,1199.00,82.00,51.00,34.12,70.00,9.00,T,30.19,1018.70,10.00,M,CLR,M,M,M,M,M,M,M,M,M,M,M,M,M,M,80.84,KNFL 142256Z AUTO 07009KT 10SM CLR 28/11 A3019 RMK AO2 RAE02 SLP187 P0000 T02780106,M
DRA,2024-07-14 22:59,-116.0278,36.6206,1009.00,92.00,52.00,25.76,300.00,17.00,0.00,30.05,M,10.00,35.00,SCT,M,M,M,12000.00,M,M,M,M,M,M,M,35.00,280.00,2024-07-14 22:55,89.31,KDRA 142259Z AUTO 30017G35KT 10SM SCT120 33/11 A3005 RMK AO2 PK WND 28035/2255 WSHFT 2242 T03330111,M
05U,2024-07-14 23:00,-116.0051,39.6042,1811.23,89.60,35.60,14.83,60.00,10.00,0.00,30.22,M,10.00,M,M,M,M,M,M,M,M,M,M,M,M,M,M,M,M,85.62,K05U 142300Z AUTO 06010KT 10SM 32/02 A3022 RMK A01,M
EKO,2024-07-14 23:06,-115.7860,40.8242,1367.00,91.00,42.00,18.23,260.00,12.00,0.00,30.12,M,10.00,19.00,SCT,M,M,M,11000.00,M,M,M,M,M,M,M,M,M,M,87.11,KEKO 142306Z AUTO 26012G19KT 10SM SCT110 33/06 A3012 RMK AO2 WSHFT 2246 LTG DSNT SE-W T03280056,M
LOL,2024-07-14 23:09,-118.5701,40.0684,1192.43,82.00,54.00,38.11,150.00,21.00,0.00,30.20,M,1.25,32.00,OVC,M,M,M,400.00,M,M,M,HZ,M,M,M,32.00,160.00,2024-07-14 23:02,81.24,KLOL 142309Z AUTO 15021G32KT 1 1/4SM HZ OVC004 28/12 A3020 RMK AO2 PK WND 16032/2302 T02780122,M
BVU,2024-07-14 23:15,-114.8611,35.9475,671.00,104.00,39.20,11.00,220.00,10.00,0.00,29.95,M,10.00,16.00,CLR,M,M,M,M,M,M,M,M,M,M,M,M,M,M,98.56,KBVU 142315Z AUTO 22010G16KT 10SM CLR 40/04 A2995 RMK AO2,M
CXP,2024-07-14 23:15,-119.7326,39.1923,1431.00,80.60,42.80,26.22,260.00,8.00,0.00,30.28,M,10.00,14.00,BKN,M,M,M,12000.00,M,M,M,M,M,M,M,M,M,M,79.30,KCXP 142315Z AUTO 26008G14KT 10SM BKN120 27/06 A3028 RMK AO2,M
LOL,2024-07-14 23:15,-118.5701,40.0684,1192.43,80.00,54.00,40.67,150.00,20.00,0.00,30.20,M,3.00,M,BKN,M,M,M,400.00,M,M,M,HZ,M,M,M,32.00,160.00,2024-07-14 23:02,79.98,KLOL 142315Z AUTO 15020KT 3SM HZ BKN004 27/12 A3020 RMK AO2 PK WND 16032/2302 LTG DSNT NE T02670122,M
RTS,2024-07-14 23:15,-119.8764,39.6682,1539.00,80.60,44.60,28.08,170.00,3.00,0.00,30.29,M,10.00,M,SCT,SCT,M,M,8000.00,10000.00,M,M,M,M,M,M,M,M,M,79.42,KRTS 142315Z AUTO 17003KT 10SM SCT080 SCT100 27/07 A3029 RMK AO2,M
MEV,2024-07-14 23:15,-119.7500,38.9963,1441.42,80.60,42.80,26.22,310.00,10.00,0.00,30.26,M,10.00,M,BKN,M,M,M,12000.00,M,M,M,M,M,M,M,M,M,M,79.30,KMEV 142315Z AUTO 31010KT 10SM BKN120 27/06 A3026 RMK AO2,M
BAM,2024-07-14 23:15,-116.8743,40.5990,1382.36,68.00,57.20,68.35,270.00,5.00,0.00,30.28,M,1.50,16.00,SCT,BKN,OVC,M,1200.00,3300.00,6500.00,M,M,M,M,M,M,M,M,68.00,KBAM 142315Z AUTO 27005G16KT 1 1/2SM SCT012 BKN033 OVC065 20/14 A3028 RMK AO1,M
HTH,2024-07-14 23:15,-118.6315,38.5448,1282.89,84.20,50.00,30.62,320.00,10.00,0.00,30.22,M,10.00,M,CLR,M,M,M,M,M,M,M,M,M,M,M,M,M,M,82.24,KHTH 142315Z AUTO 32010KT 10SM CLR 29/10 A3022 RMK A01,M
TMT,2024-07-14 23:15,-117.1971,39.4643,1749.34,72.00,57.00,59.20,60.00,3.00,0.00,30.34,M,10.00,M,CLR,M,M,M,M,M,M,M,M,M,M,M,M,M,M,72.00,KTMT 142315Z AUTO 06003KT 10SM CLR 22/14 A3034 RMK AO2 T02220138,M
05U,2024-07-14 23:20,-116.0051,39.6042,1811.23,87.80,37.40,16.86,50.00,18.00,0.00,30.23,M,10.00,24.00,M,M,M,M,M,M,M,M,M,M,M,M,M,M,M,84.16,K05U 142320Z AUTO 05018G24KT 10SM 31/03 A3023 RMK A01,M
LOL,2024-07-14 23:31,-118.5701,40.0684,1192.43,80.00,54.00,40.67,140.00,15.00,0.00,30.19,M,10.00,24.00,SCT,M,M,M,400.00,M,M,M,M,M,M,M,32.00,160.00,2024-07-14 23:02,79.98,KLOL 142331Z AUTO 14015G24KT 10SM SCT004 27/12 A3019 RMK AO2 PK WND 16032/2302 T02670122,M
BVU,2024-07-14 23:35,-114.8611,35.9475,671.00,104.00,39.20,11.00,200.00,10.00,0.00,29.94,M,10.00,15.00,CLR,M,M,M,M,M,M,M,M,M,M,M,M,M,M,98.56,KBVU 142335Z AUTO 20010G15KT 10SM CLR 40/04 A2994 RMK AO2,M
CXP,2024-07-14 23:35,-119.7326,39.1923,1431.00,78.80,41.00,25.95,260.00,9.00,0.00,30.27,M,10.00,17.00,OVC,M,M,M,11000.00,M,M,M,M,M,M,M,M,M,M,78.80,KCXP 142335Z AUTO 26009G17KT 10SM OVC110 26/05 A3027 RMK AO2,M
RTS,2024-07-14 23:35,-119.8764,39.6682,1539.00,73.40,46.40,38.18,300.00,24.00,0.00,30.31,M,10.00,39.00,FEW,BKN,BKN,M,6500.00,7500.00,9500.00,M,M,M,M,M,M,M,M,73.40,KRTS 142335Z AUTO 30024G39KT 10SM FEW065 BKN075 BKN095 23/08 A3031 RMK AO2,M
MEV,2024-07-14 23:35,-119.7500,38.9963,1441.42,82.40,42.80,24.72,320.00,11.00,0.00,30.26,M,10.00,19.00,FEW,M,M,M,12000.00,M,M,M,M,M,M,M,M,M,M,80.39,KMEV 142335Z AUTO 32011G19KT 10SM FEW120 28/06 A3026 RMK AO2,M
BAM,2024-07-14 23:35,-116.8743,40.5990,1382.36,64.40,60.80,88.09,230.00,14.00,0.00,30.32,M,5.00,19.00,SCT,OVC,M,M,6000.00,9000.00,M,M,M,M,M,M,M,M,M,64.40,KBAM 142335Z AUTO 23014G19KT 5SM SCT060 OVC090 18/16 A3032 RMK AO1,M
HTH,2024-07-14 23:35,-118.6315,38.5448,1282.89,82.40,48.20,30.35,320.00,7.00,0.00,30.22,M,10.00,M,CLR,M,M,M,M,M,M,M,M,M,M,M,M,M,M,80.80,KHTH 142335Z AUTO 32007KT 10SM CLR 28/09 A3022 RMK A01,M
TMT,2024-07-14 23:35,-117.1971,39.4643,1749.34,71.20,54.70,55.96,350.00,5.00,0.00,30.34,M,10.00,M,CLR,M,M,M,M,M,M,M,M,M,M,M,M,M,M,71.20,KTMT 142335Z AUTO 35005KT 10SM CLR 22/13 A3034 RMK AO2 T02180126,M
P68,2024-07-14 23:53,-116.0056,39.6014,1993.00,84.00,46.00,26.52,310.00,21.00,0.00,30.22,1013.70,M,33.00,M,M,M,M,M,M,M,M,M,M,M,M,46.00,280.00,2024-07-14 23:25,81.69,KP68 142353Z AUTO 31021G33KT 29/08 A3022 RMK AO1 PK WND 28046/2325 SLP137 T02890078 10328 20272 55008,M
DRA,2024-07-14 23:53,-116.0278,36.6206,1009.00,97.00,47.00,18.32,250.00,21.00,0.00,30.04,1011.80,10.00,31.00,BKN,M,M,M,12000.00,M,M,M,M,M,M,M,35.00,280.00,2024-07-14 22:55,93.35,KDRA 142353Z AUTO 25021G31KT 10SM BKN120 36/08 A3004 RMK AO2 PK WND 28035/2255 WSHFT 2242 SLP118 T03610083 10394 20333 56012,M
ELY,2024-07-14 23:53,-114.8453,39.2950,1909.00,87.00,33.00,14.52,200.00,16.00,0.00,30.23,1012.00,10.00,22.00,CLR,M,M,M,M,M,M,M,M,M,M,M,32.00,240.00,2024-07-14 22:57,83.44,KELY 142353Z AUTO 20016G22KT 10SM CLR 31/01 A3023 RMK AO2 PK WND 24032/2257 SLP120 T03060006 10333 20300 56008,M
VGT,2024-07-14 23:53,-115.1933,36.2111,667.00,106.00,43.00,12.01,170.00,12.00,0.00,29.93,1012.10,10.00,16.00,CLR,M,M,M,M,M,M,M,M,M,M,M,M,M,M,101.25,KVGT 142353Z 17012G16KT 10SM CLR 41/06 A2993 RMK AO2 SLP121 60000 T04110061 10411 20372 58019,M
LOL,2024-07-14 23:53,-118.5701,40.0684,1192.43,81.00,56.00,42.34,150.00,11.00,0.00,30.18,1017.40,10.00,M,CLR,M,M,M,M,M,M,M,M,M,M,M,32.00,160.00,2024-07-14 23:02,80.88,KLOL 142353Z AUTO 15011KT 10SM CLR 27/13 A3018 RMK AO2 PK WND 16032/2302 SLP174 60000 T02720133 10328 20233 50001,M
BVU,2024-07-14 23:55,-114.8611,35.9475,671.00,105.80,39.20,10.43,210.00,10.00,0.00,29.93,M,10.00,16.00,CLR,M,M,M,M,M,M,M,M,M,M,M,M,M,M,100.14,KBVU 142355Z AUTO 21010G16KT 10SM CLR 41/04 A2993 RMK AO2,M
CXP,2024-07-14 23:55,-119.7326,39.1923,1431.00,80.60,41.00,24.46,300.00,8.00,0.00,30.26,M,10.00,M,OVC,M,M,M,11000.00,M,M,M,M,M,M,M,M,M,M,79.20,KCXP 142355Z AUTO 30008KT 10SM OVC110 27/05 A3026 RMK AO2,M
RTS,2024-07-14 23:55,-119.8764,39.6682,1539.00,64.40,53.60,67.95,330.00,16.00,0.01,30.33,M,3.00,30.00,FEW,SCT,BKN,M,3600.00,4800.00,6000.00,M,-RA,M,M,M,M,M,M,64.40,KRTS 142355Z AUTO 33016G30KT 3SM -RA FEW036 SCT048 BKN060 18/12 A3033 RMK AO2 P0001,M
05U,2024-07-14 23:55,-116.0051,39.6042,1811.23,84.20,46.40,26.76,100.00,14.00,0.00,30.25,M,9.00,28.00,M,M,M,M,M,M,M,M,M,M,M,M,M,M,M,81.87,K05U 142355Z AUTO 10014G28KT 9SM 29/08 A3025 RMK A01,M
MEV,2024-07-14 23:55,-119.7500,38.9963,1441.42,82.40,42.80,24.72,330.00,10.00,0.00,30.25,M,10.00,M,CLR,M,M,M,M,M,M,M,M,M,M,M,M,M,M,80.39,KMEV 142355Z AUTO 33010KT 10SM CLR 28/06 A3025 RMK AO2,M
BAM,2024-07-14 23:55,-116.8743,40.5990,1382.36,66.20,62.60,88.18,250.00,11.00,0.00,30.32,M,7.00,M,OVC,M,M,M,10000.00,M,M,M,M,M,M,M,M,M,M,66.20,KBAM 142355Z AUTO 25011KT 7SM OVC100 19/17 A3032 RMK AO1,M
HTH,2024-07-14 23:55,-118.6315,38.5448,1282.89,82.40,50.00,32.46,280.00,8.00,0.00,30.23,M,10.00,M,FEW,FEW,FEW,M,5500.00,7000.00,8000.00,M,M,M,M,M,M,M,M,80.99,KHTH 142355Z AUTO 28008KT 10SM FEW055 FEW070 FEW080 28/10 A3023 RMK A01,M
TMT,2024-07-14 23:55,-117.1971,39.4643,1749.34,73.00,55.40,54.01,40.00,10.00,0.00,30.34,M,10.00,M,CLR,M,M,M,M,M,M,M,M,M,M,M,M,M,M,73.00,KTMT 142355Z AUTO 04010KT 10SM CLR 23/13 A3034 RMK AO2 T02270130 10303 20180,M
RNO,2024-07-14 23:55,-119.7711,39.4839,1341.00,87.00,48.00,25.98,320.00,15.00,0.00,30.22,1017.10,10.00,25.00,BKN,BKN,M,M,11000.00,19000.00,M,M,M,M,M,M,M,M,M,84.18,KRNO 142355Z COR 32015G25KT 10SM BKN110 BKN190 31/09 A3022 RMK AO2 SLP171 CB DSNT W THRU N 60000 T03060089 10311 20239 58013 $,M
INS,2024-07-14 23:55,-115.6733,36.5872,955.00,100.20,38.50,11.99,100.00,7.00,0.00,30.00,1009.90,10.00,M,SCT,M,M,M,19000.00,M,M,M,M,M,M,M,M,M,M,95.12,KINS 142355Z AUTO 10007KT 10SM SCT190 38/04 A3000 RMK AO2 SLP099 T03790036 10386 20338 57024 $,M
LSV,2024-07-14 23:55,-115.0343,36.2362,570.00,104.70,37.20,9.96,190.00,7.00,0.00,29.88,1008.70,10.00,M,CLR,M,M,M,M,M,M,M,M,M,M,M,M,M,M,98.76,KLSV 142355Z AUTO 19007KT 10SM CLR 40/03 A2988 RMK AO2 SLP087 T04040029 10410 20374 57019 $,M
EKO,2024-07-14 23:56,-115.7860,40.8242,1367.00,85.00,46.00,25.69,260.00,29.00,0.00,30.16,1014.50,6.00,44.00,FEW,M,M,M,11000.00,M,M,M,HZ,M,M,M,46.00,250.00,2024-07-14 23:34,82.42,KEKO 142356Z AUTO 26029G44KT 6SM HZ FEW110 29/08 A3016 RMK AO2 PK WND 25046/2334 WSHFT 2246 LTG DSNT N AND NE AND S SLP145 T02940078 10356 20289 55002,M
WMC,2024-07-14 23:56,-117.8072,40.9019,1315.00,86.00,45.00,23.95,260.00,15.00,0.00,30.20,1016.80,10.00,23.00,SCT,M,M,M,12000.00,M,M,M,M,M,M,M,27.00,320.00,2024-07-14 23:11,83.10,KWMC 142356Z AUTO 26015G23KT 10SM SCT120 30/07 A3020 RMK AO2 PK WND 32027/2311 SLP168 T03000072 10322 20283 55006,M
NFL,2024-07-14 23:56,-118.7010,39.4166,1199.00,87.00,49.00,26.97,50.00,8.00,0.00,30.18,1018.40,10.00,M,CLR,M,M,M,M,M,M,M,M,M,M,M,M,M,M,84.30,KNFL 142356Z AUTO 05008KT 10SM CLR 31/09 A3018 RMK AO2 SLP184 60000 T03060094 10339 20239 56020,M
HND,2024-07-14 23:56,-115.1344,35.9729,742.79,103.00,47.00,15.28,210.00,9.00,0.00,29.99,1013.80,10.00,M,CLR,M,M,M,M,M,M,M,M,M,M,M,M,M,M,99.35,KHND 142356Z 21009KT 10SM CLR 39/08 A2999 RMK AO2 SLP138 T03940083 10394 20333 58022,M
TPH,2024-07-14 23:56,-117.0904,38.0505,1654.00,80.00,45.00,29.08,320.00,26.00,T,30.24,1016.80,10.00,37.00,CLR,M,M,M,M,M,M,M,M,M,M,M,44.00,300.00,2024-07-14 23:27,79.13,KTPH 142356Z AUTO 32026G37KT 10SM CLR 27/07 A3024 RMK AO2 PK WND 30044/2327 RAB03E25 SLP168 P0000 60000 T02670072 10344 20256 53001,M
LAS,2024-07-14 23:56,-115.1634,36.0719,663.00,106.00,43.00,12.01,190.00,9.00,0.00,29.95,1011.00,10.00,M,FEW,SCT,BKN,M,10000.00,12000.00,17000.00,M,M,M,M,M,M,M,M,101.25,KLAS 142356Z 19009KT 10SM FEW100 SCT120 BKN170 41/06 A2995 RMK AO2 SLP110 60000 T04110061 10411 20361 58022 $,M
