station,valid,lon,lat,elevation,tmpf,dwpf,relh,drct,sknt,p01i,alti,mslp,vsby,gust,skyc1,skyc2,skyc3,skyc4,skyl1,skyl2,skyl3,skyl4,wxcodes,ice_accretion_1hr,ice_accretion_3hr,ice_accretion_6hr,peak_wind_gust,peak_wind_drct,peak_wind_time,feel,metar,snowdepth
05U,2024-03-30 00:10,-116.0051,39.6042,1811.23,M,M,M,340.00,13.00,0.00,29.70,M,9.00,M,FEW,BKN,BKN,M,2800.00,3700.00,4300.00,M,M,M,M,M,M,M,M,M,K05U 300010Z AUTO 34013KT 9SM FEW028 BKN037 BKN043 A2970 RMK A01,M
BAM,2024-03-30 00:10,-116.8743,40.5990,1382.36,53.60,28.40,37.67,120.00,9.00,0.00,29.65,M,10.00,M,BKN,M,M,M,8000.00,M,M,M,M,M,M,M,M,M,M,53.60,KBAM 300010Z AUTO 12009KT 10SM BKN080 12/M02 A2965 RMK AO1,M
BVU,2024-03-30 00:15,-114.8611,35.9475,671.00,71.60,14.00,10.85,180.00,20.00,0.00,29.67,M,10.00,28.00,CLR,M,M,M,M,M,M,M,M,M,M,M,M,M,M,71.60,KBVU 300015Z AUTO 18020G28KT 10SM CLR 22/M10 A2967 RMK AO2,M
CXP,2024-03-30 00:15,-119.7326,39.1923,1431.00,44.60,26.60,48.96,200.00,9.00,0.00,29.66,M,10.00,M,SCT,BKN,M,M,3700.00,4500.00,M,M,M,M,M,M,M,M,M,39.18,KCXP 300015Z AUTO 20009KT 10SM SCT037 BKN045 07/M03 A2966 RMK AO2,M
RTS,2024-03-30 00:15,-119.8764,39.6682,1539.00,42.80,24.80,48.67,200.00,6.00,0.00,29.65,M,10.00,M,CLR,M,M,M,M,M,M,M,M,M,M,M,M,M,M,38.54,KRTS 300015Z AUTO 20006KT 10SM CLR 06/M04 A2965 RMK AO2,M
MEV,2024-03-30 00:15,-119.7500,38.9963,1441.42,44.60,26.60,48.96,220.00,5.00,0.00,29.64,M,10.00,M,FEW,M,M,M,4300.00,M,M,M,M,M,M,M,M,M,M,41.36,KMEV 300015Z AUTO 22005KT 10SM FEW043 07/M03 A2964 RMK AO2,M
HTH,2024-03-30 00:15,-118.6315,38.5448,1282.89,53.60,19.40,25.85,190.00,9.00,0.00,29.63,M,10.00,14.00,BKN,BKN,M,M,9000.00,11000.00,M,M,M,M,M,M,M,M,M,53.60,KHTH 300015Z AUTO 19009G14KT 10SM BKN090 BKN110 12/M07 A2963 RMK A01,M
TMT,2024-03-30 00:15,-117.1971,39.4643,1749.34,45.50,24.80,43.91,190.00,11.00,0.00,29.66,M,10.00,16.00,SCT,OVC,M,M,4600.00,5000.00,M,M,M,M,M,M,M,M,M,39.53,KTMT 300015Z AUTO 19011G16KT 10SM SCT046 OVC050 08/M04 A2966 RMK AO2 T00751040,M
10U,2024-03-30 00:15,-116.1876,41.9532,1637.00,46.40,23.00,39.36,100.00,11.00,0.00,29.70,M,10.00,M,BKN,M,M,M,6000.00,M,M,M,M,M,M,M,M,M,M,40.66,K10U 300015Z AUTO 10011KT 10SM BKN060 08/M05 A2970 RMK AO2,M
05U,2024-03-30 00:30,-116.0051,39.6042,1811.23,44.60,30.20,56.74,320.00,7.00,0.00,29.70,M,10.00,M,FEW,SCT,BKN,M,2800.00,4000.00,4900.00,M,M,M,M,M,M,M,M,40.14,K05U 300030Z AUTO 32007KT 10SM FEW028 SCT040 BKN049 07/M01 A2970 RMK A01,M
BAM,2024-03-30 00:30,-116.8743,40.5990,1382.36,51.80,28.40,40.25,150.00,8.00,0.00,29.65,M,10.00,M,SCT,BKN,OVC,M,6500.00,7500.00,9000.00,M,M,M,M,M,M,M,M,51.80,KBAM 300030Z AUTO 15008KT 10SM SCT065 BKN075 OVC090 11/M02 A2965 RMK AO1,M
BVU,2024-03-30 00:35,-114.8611,35.9475,671.00,71.60,14.00,10.85,180.00,20.00,0.00,29.67,M,10.00,25.00,CLR,M,M,M,M,M,M,M,M,M,M,M,M,M,M,71.60,KBVU 300035Z AUTO 18020G25KT 10SM CLR 22/M10 A2967 RMK AO2,M
CXP,2024-03-30 00:35,-119.7326,39.1923,1431.00,42.80,28.40,56.48,150.00,4.00,0.00,29.67,M,10.00,11.00,FEW,SCT,BKN,M,2100.00,3200.00,3900.00,M,-RA,M,M,M,M,M,M,40.03,KCXP 300035Z AUTO 15004G11KT 10SM -RA FEW021 SCT032 BKN039 06/M02 A2967 RMK AO2,M
RTS,2024-03-30 00:35,-119.8764,39.6682,1539.00,42.80,24.80,48.67,190.00,4.00,0.00,29.65,M,10.00,10.00,CLR,M,M,M,M,M,M,M,M,M,M,M,M,M,M,40.03,KRTS 300035Z AUTO 19004G10KT 10SM CLR 06/M04 A2965 RMK AO2,M
MEV,2024-03-30 00:35,-119.7500,38.9963,1441.42,44.60,26.60,48.96,180.00,7.00,0.00,29.65,M,10.00,M,BKN,BKN,M,M,5000.00,6000.00,M,M,M,M,M,M,M,M,M,40.14,KMEV 300035Z AUTO 18007KT 10SM BKN050 BKN060 07/M03 A2965 RMK AO2,M
HTH,2024-03-30 00:35,-118.6315,38.5448,1282.89,51.80,23.00,32.17,120.00,9.00,0.00,29.62,M,10.00,M,BKN,BKN,M,M,9500.00,11000.00,M,M,M,M,M,M,M,M,M,51.80,KHTH 300035Z AUTO 12009KT 10SM BKN095 BKN110 11/M05 A2962 RMK A01,M
TMT,2024-03-30 00:35,-117.1971,39.4643,1749.34,43.30,27.30,52.96,190.00,6.00,0.00,29.67,M,10.00,13.00,SCT,BKN,OVC,M,3900.00,4800.00,5000.00,M,M,M,M,M,M,M,M,39.14,KTMT 300035Z AUTO 19006G13KT 10SM SCT039 BKN048 OVC050 06/M03 A2967 RMK AO2 T00631026,M
10U,2024-03-30 00:35,-116.1876,41.9532,1637.00,44.60,21.20,39.06,90.00,8.00,0.00,29.70,M,10.00,14.00,BKN,M,M,M,6000.00,M,M,M,M,M,M,M,M,M,M,39.63,K10U 300035Z AUTO 09008G14KT 10SM BKN060 07/M06 A2970 RMK AO2,M
05U,2024-03-30 00:50,-116.0051,39.6042,1811.23,M,M,M,340.00,8.00,0.00,29.70,M,10.00,M,SCT,BKN,OVC,M,4500.00,5500.00,8500.00,M,M,M,M,M,M,M,M,M,K05U 300050Z AUTO 34008KT 10SM SCT045 BKN055 OVC085 A2970 RMK A01,M
BAM,2024-03-30 00:50,-116.8743,40.5990,1382.36,51.80,30.20,43.32,150.00,9.00,0.00,29.67,M,10.00,M,OVC,M,M,M,6500.00,M,M,M,M,M,M,M,M,M,M,51.80,KBAM 300050Z AUTO 15009KT 10SM OVC065 11/M01 A2967 RMK AO1,M
P68,2024-03-30 00:53,-116.0056,39.6014,1993.00,45.00,29.00,53.22,180.00,8.00,0.00,29.67,1003.40,M,M,M,M,M,M,M,M,M,M,M,M,M,M,M,M,M,40.13,KP68 300053Z AUTO 18008KT 07/M02 A2967 RMK AO1 SLP034 T00721017,M
DRA,2024-03-30 00:53,-116.0278,36.6206,1009.00,60.00,23.00,23.90,190.00,21.00,0.00,29.68,1002.60,10.00,30.00,OVC,M,M,M,11000.00,M,M,M,M,M,M,M,31.00,200.00,2024-03-30 00:21,60.00,KDRA 300053Z AUTO 19021G30KT 10SM OVC110 16/M05 A2968 RMK AO2 PK WND 20031/0021 SLP026 T01561050,M
ELY,2024-03-30 00:53,-114.8453,39.2950,1909.00,38.00,34.00,85.35,160.00,16.00,0.01,29.72,1005.20,10.00,24.00,BKN,OVC,M,M,4500.00,6000.00,M,M,-RA,M,M,M,M,M,M,28.24,KELY 300053Z AUTO 16016G24KT 10SM -RA BKN045 OVC060 03/01 A2972 RMK AO2 RAB2354E12B42 SLP052 P0001 T00330011,M
VGT,2024-03-30 00:53,-115.1933,36.2111,667.00,71.00,21.00,14.98,230.00,10.00,0.00,29.66,1004.90,10.00,20.00,CLR,M,M,M,M,M,M,M,M,M,M,M,M,M,M,71.00,KVGT 300053Z 23010G20KT 10SM CLR 22/M06 A2966 RMK AO2 SLP049 T02171061,M
LOL,2024-03-30 00:53,-118.5701,40.0684,1192.43,47.00,28.00,47.36,20.00,9.00,0.00,29.66,1004.90,10.00,M,FEW,OVC,M,M,5500.00,7500.00,M,M,M,M,M,M,M,M,M,42.17,KLOL 300053Z AUTO 02009KT 10SM FEW055 OVC075 08/M02 A2966 RMK AO2 SLP049 T00831022,M
BVU,2024-03-30 00:55,-114.8611,35.9475,671.00,69.80,17.60,13.49,180.00,22.00,0.00,29.67,M,10.00,M,CLR,M,M,M,M,M,M,M,M,M,M,M,M,M,M,69.80,KBVU 300055Z AUTO 18022KT 10SM CLR 21/M08 A2967 RMK AO2,M
CXP,2024-03-30 00:55,-119.7326,39.1923,1431.00,42.80,30.20,60.79,140.00,6.00,0.00,29.66,M,10.00,M,SCT,SCT,BKN,M,1700.00,2100.00,2800.00,M,-RA,M,M,M,M,M,M,38.54,KCXP 300055Z AUTO 14006KT 10SM -RA SCT017 SCT021 BKN028 06/M01 A2966 RMK AO2,M
RNO,2024-03-30 00:55,-119.7711,39.4839,1341.00,45.00,28.00,51.08,210.00,13.00,0.00,29.64,1002.90,10.00,22.00,SCT,OVC,M,M,4000.00,7000.00,M,M,M,M,M,M,26.00,230.00,2024-03-30 00:43,38.22,KRNO 300055Z 21013G22KT 10SM SCT040 OVC070 07/M02 A2964 RMK AO2 PK WND 23026/0043 SLP029 T00721022,M
RTS,2024-03-30 00:55,-119.8764,39.6682,1539.00,42.80,24.80,48.67,150.00,8.00,0.00,29.65,M,10.00,M,FEW,M,M,M,4700.00,M,M,M,M,M,M,M,M,M,M,37.42,KRTS 300055Z AUTO 15008KT 10SM FEW047 06/M04 A2965 RMK AO2,M
MEV,2024-03-30 00:55,-119.7500,38.9963,1441.42,42.80,28.40,56.48,190.00,11.00,0.00,29.64,M,10.00,17.00,FEW,BKN,OVC,M,2800.00,3500.00,5000.00,M,M,M,M,M,M,M,M,36.11,KMEV 300055Z AUTO 19011G17KT 10SM FEW028 BKN035 OVC050 06/M02 A2964 RMK AO2,M
HTH,2024-03-30 00:55,-118.6315,38.5448,1282.89,53.60,23.00,30.11,140.00,10.00,0.00,29.62,M,10.00,M,FEW,M,M,M,11000.00,M,M,M,M,M,M,M,M,M,M,53.60,KHTH 300055Z AUTO 14010KT 10SM FEW110 12/M05 A2962 RMK A01,M
TMT,2024-03-30 00:55,-117.1971,39.4643,1749.34,43.70,28.20,54.12,220.00,14.00,0.00,29.68,M,10.00,20.00,OVC,M,M,M,4400.00,M,M,M,M,M,M,M,M,M,M,36.24,KTMT 300055Z AUTO 22014G20KT 10SM OVC044 07/M02 A2968 RMK AO2 T00651021,M
10U,2024-03-30 00:55,-116.1876,41.9532,1637.00,44.60,21.20,39.06,80.00,10.00,0.00,29.70,M,10.00,15.00,FEW,SCT,M,M,6500.00,7500.00,M,M,M,M,M,M,M,M,M,38.77,K10U 300055Z AUTO 08010G15KT 10SM FEW065 SCT075 07/M06 A2970 RMK AO2,M
INS,2024-03-30 00:55,-115.6733,36.5872,955.00,63.30,15.00,15.10,210.00,11.00,0.00,29.68,M,10.00,21.00,SCT,BKN,M,M,10000.00,13000.00,M,M,M,M,M,M,28.00,160.00,2024-03-30 00:00,63.30,KINS 300055Z AUTO 21011G21KT 10SM SCT100 BKN130 17/M09 A2968 RMK AO2 PK WND 16028/00 SLPNO T01741095 $,M
LSV,2024-03-30 00:55,-115.0343,36.2362,570.00,71.60,16.30,12.00,250.00,15.00,0.00,29.62,M,10.00,M,SCT,M,M,M,13000.00,M,M,M,M,M,M,M,M,M,M,71.60,KLSV 300055Z AUTO 25015KT 10SM SCT130 22/M09 A2962 RMK AO2 SLPNO T02201087,M
EKO,2024-03-30 00:56,-115.7860,40.8242,1367.00,45.00,29.00,53.22,50.00,9.00,0.00,29.68,1005.00,10.00,M,OVC,M,M,M,5000.00,M,M,M,M,M,M,M,M,M,M,39.68,KEKO 300056Z AUTO 05009KT 10SM OVC050 07/M02 A2968 RMK AO2 SLP050 T00721017,M
WMC,2024-03-30 00:56,-117.8072,40.9019,1315.00,45.00,29.00,53.22,300.00,8.00,T,29.69,1005.60,10.00,M,BKN,OVC,M,M,4200.00,5500.00,M,M,M,M,M,M,M,M,M,40.13,KWMC 300056Z AUTO 30008KT 10SM BKN042 OVC055 07/M02 A2969 RMK AO2 RAB33E42 SLP056 P0000 T00721017,M
NFL,2024-03-30 00:56,-118.7010,39.4166,1199.00,53.00,24.00,32.10,200.00,9.00,0.00,29.62,1001.60,10.00,M,SCT,BKN,BKN,M,5000.00,7000.00,10000.00,M,M,M,M,M,M,M,M,53.00,KNFL 300056Z 20009KT 10SM SCT050 BKN070 BKN100 12/M04 A2962 RMK AO2 SLP016 VIRGA VC ALQDS T01171044,M
HND,2024-03-30 00:56,-115.1344,35.9729,742.79,69.00,23.00,17.45,230.00,11.00,0.00,29.69,1005.90,10.00,M,CLR,M,M,M,M,M,M,M,M,M,M,M,M,M,M,69.00,KHND 300056Z 23011KT 10SM CLR 21/M05 A2969 RMK AO2 SLP059 T02061050,M
TPH,2024-03-30 00:56,-117.0904,38.0505,1654.00,50.00,21.00,31.60,210.00,14.00,0.00,29.66,1003.00,10.00,24.00,BKN,OVC,M,M,8000.00,9500.00,M,M,M,M,M,M,33.00,190.00,2024-03-30 00:00,50.00,KTPH 300056Z AUTO 21014G24KT 10SM BKN080 OVC095 10/M06 A2966 RMK AO2 PK WND 19033/0000 SLP030 T01001061,M
LAS,2024-03-30 00:56,-115.1634,36.0719,663.00,68.00,22.00,17.31,220.00,12.00,0.00,29.66,1003.30,10.00,21.00,BKN,BKN,BKN,M,10000.00,14000.00,25000.00,M,M,M,M,M,M,M,M,68.00,KLAS 300056Z 22012G21KT 10SM BKN100 BKN140 BKN250 20/M06 A2966 RMK AO2 SLP033 ACSL ALQDS T02001056,M
INS,2024-03-30 00:56,-115.6733,36.5872,955.00,62.60,15.80,16.02,220.00,13.00,0.00,29.68,M,10.00,21.00,SCT,BKN,M,M,10000.00,14000.00,M,M,M,M,M,M,M,M,M,62.60,KINS 300056Z AUTO 22013G21KT 10SM SCT100 BKN140 17/M09 A2968 RMK AO2 WSHFT 43 SLPNO $,M
05U,2024-03-30 01:10,-116.0051,39.6042,1811.23,44.60,28.40,52.72,360.00,10.00,0.00,29.70,M,10.00,M,FEW,BKN,OVC,M,4400.00,5000.00,6500.00,M,M,M,M,M,M,M,M,38.77,K05U 300110Z AUTO 36010KT 10SM FEW044 BKN050 OVC065 07/M02 A2970 RMK A01,M
BAM,2024-03-30 01:10,-116.8743,40.5990,1382.36,48.20,32.00,53.27,240.00,14.00,0.00,29.68,M,10.00,20.00,SCT,BKN,OVC,M,3400.00,5000.00,5500.00,M,M,M,M,M,M,M,M,42.04,KBAM 300110Z AUTO 24014G20KT 10SM SCT034 BKN050 OVC055 09/00 A2968 RMK AO1,M
BVU,2024-03-30 01:15,-114.8611,35.9475,671.00,69.80,17.60,13.49,180.00,20.00,0.00,29.67,M,10.00,26.00,CLR,M,M,M,M,M,M,M,M,M,M,M,M,M,M,69.80,KBVU 300115Z AUTO 18020G26KT 10SM CLR 21/M08 A2967 RMK AO2,M
CXP,2024-03-30 01:15,-119.7326,39.1923,1431.00,41.00,32.00,70.08,100.00,9.00,0.00,29.66,M,10.00,M,BKN,BKN,M,M,1800.00,2700.00,M,M,-RA,M,M,M,M,M,M,34.70,KCXP 300115Z AUTO 10009KT 10SM -RA BKN018 BKN027 05/M00 A2966 RMK AO2,M
RTS,2024-03-30 01:15,-119.8764,39.6682,1539.00,41.00,26.60,56.22,160.00,12.00,0.00,29.65,M,10.00,M,FEW,SCT,BKN,M,2000.00,3400.00,4500.00,M,M,M,M,M,M,M,M,33.46,KRTS 300115Z AUTO 16012KT 10SM FEW020 SCT034 BKN045 05/M03 A2965 RMK AO2,M
MEV,2024-03-30 01:15,-119.7500,38.9963,1441.42,41.00,32.00,70.08,110.00,9.00,0.00,29.65,M,10.00,M,FEW,BKN,OVC,M,2000.00,2800.00,3600.00,M,-RA,M,M,M,M,M,M,34.70,KMEV 300115Z AUTO 11009KT 10SM -RA FEW020 BKN028 OVC036 05/M00 A2965 RMK AO2,M
HTH,2024-03-30 01:15,-118.6315,38.5448,1282.89,53.60,23.00,30.11,180.00,7.00,0.00,29.62,M,10.00,13.00,CLR,M,M,M,M,M,M,M,M,M,M,M,M,M,M,53.60,KHTH 300115Z AUTO 18007G13KT 10SM CLR 12/M05 A2962 RMK A01,M
TMT,2024-03-30 01:15,-117.1971,39.4643,1749.34,41.00,30.70,66.49,200.00,11.00,0.00,29.68,M,10.00,17.00,SCT,BKN,OVC,M,2900.00,4000.00,4800.00,M,M,M,M,M,M,M,M,33.84,KTMT 300115Z AUTO 20011G17KT 10SM SCT029 BKN040 OVC048 05/M01 A2968 RMK AO2 T00511007,M
10U,2024-03-30 01:15,-116.1876,41.9532,1637.00,42.80,26.60,52.45,70.00,12.00,0.00,29.70,M,10.00,M,BKN,BKN,M,M,6500.00,7500.00,M,M,M,M,M,M,M,M,M,35.75,K10U 300115Z AUTO 07012KT 10SM BKN065 BKN075 06/M03 A2970 RMK AO2,M
05U,2024-03-30 01:30,-116.0051,39.6042,1811.23,44.60,28.40,52.72,350.00,9.00,0.00,29.70,M,10.00,M,BKN,OVC,M,M,5000.00,6000.00,M,M,M,M,M,M,M,M,M,39.18,K05U 300130Z AUTO 35009KT 10SM BKN050 OVC060 07/M02 A2970 RMK A01,M
BAM,2024-03-30 01:30,-116.8743,40.5990,1382.36,44.60,35.60,70.48,230.00,9.00,0.00,29.69,M,10.00,M,SCT,BKN,OVC,M,2900.00,4300.00,5000.00,M,M,M,M,M,M,M,M,39.18,KBAM 300130Z AUTO 23009KT 10SM SCT029 BKN043 OVC050 07/02 A2969 RMK AO1,M
INS,2024-03-30 01:34,-115.6733,36.5872,955.00,62.60,15.80,16.02,220.00,11.00,0.00,29.67,M,10.00,20.00,BKN,M,M,M,14000.00,M,M,M,M,M,M,M,M,M,M,62.60,KINS 300134Z AUTO 22011G20KT 10SM BKN140 17/M09 A2967 RMK AO2 WSHFT 29 SLPNO $,M
BVU,2024-03-30 01:35,-114.8611,35.9475,671.00,69.80,17.60,13.49,180.00,19.00,0.00,29.67,M,10.00,25.00,CLR,M,M,M,M,M,M,M,M,M,M,M,M,M,M,69.80,KBVU 300135Z AUTO 18019G25KT 10SM CLR 21/M08 A2967 RMK AO2,M
CXP,2024-03-30 01:35,-119.7326,39.1923,1431.00,41.00,32.00,70.08,170.00,4.00,0.00,29.66,M,10.00,M,SCT,BKN,M,M,1800.00,2300.00,M,M,-RA,M,M,M,M,M,M,37.93,KCXP 300135Z AUTO 17004KT 10SM -RA SCT018 BKN023 05/00 A2966 RMK AO2,M
RTS,2024-03-30 01:35,-119.8764,39.6682,1539.00,39.20,28.40,64.93,180.00,14.00,0.00,29.65,M,10.00,M,FEW,SCT,BKN,M,1800.00,2600.00,3200.00,M,M,M,M,M,M,M,M,30.44,KRTS 300135Z AUTO 18014KT 10SM FEW018 SCT026 BKN032 04/M02 A2965 RMK AO2,M
MEV,2024-03-30 01:35,-119.7500,38.9963,1441.42,39.20,32.00,75.16,90.00,4.00,0.00,29.65,M,9.00,M,FEW,BKN,OVC,M,2100.00,2700.00,3500.00,M,-RA,M,M,M,M,M,M,35.83,KMEV 300135Z AUTO 09004KT 9SM -RA FEW021 BKN027 OVC035 04/M00 A2965 RMK AO2,M
HTH,2024-03-30 01:35,-118.6315,38.5448,1282.89,51.80,21.20,29.82,150.00,4.00,0.00,29.61,M,10.00,M,CLR,M,M,M,M,M,M,M,M,M,M,M,M,M,M,51.80,KHTH 300135Z AUTO 15004KT 10SM CLR 11/M06 A2961 RMK A01,M
TMT,2024-03-30 01:35,-117.1971,39.4643,1749.34,39.70,32.00,73.71,200.00,9.00,0.00,29.68,M,10.00,M,SCT,BKN,OVC,M,2700.00,3700.00,5000.00,M,-RA,M,M,M,M,M,M,33.09,KTMT 300135Z AUTO 20009KT 10SM -RA SCT027 BKN037 OVC050 04/00 A2968 RMK AO2 T00430000,M
10U,2024-03-30 01:35,-116.1876,41.9532,1637.00,42.80,26.60,52.45,60.00,10.00,0.00,29.70,M,10.00,17.00,BKN,BKN,M,M,6500.00,8000.00,M,M,M,M,M,M,M,M,M,36.51,K10U 300135Z AUTO 06010G17KT 10SM BKN065 BKN080 06/M03 A2970 RMK AO2,M
05U,2024-03-30 01:50,-116.0051,39.6042,1811.23,42.80,28.40,56.48,340.00,7.00,0.00,29.69,M,10.00,M,SCT,OVC,M,M,5500.00,7500.00,M,M,M,M,M,M,M,M,M,37.94,K05U 300150Z AUTO 34007KT 10SM SCT055 OVC075 06/M02 A2969 RMK A01,M
BAM,2024-03-30 01:50,-116.8743,40.5990,1382.36,44.60,37.40,75.68,220.00,8.00,0.00,29.69,M,10.00,M,SCT,BKN,OVC,M,3000.00,4200.00,6500.00,M,M,M,M,M,M,M,M,39.63,KBAM 300150Z AUTO 22008KT 10SM SCT030 BKN042 OVC065 07/03 A2969 RMK AO1,M
P68,2024-03-30 01:53,-116.0056,39.6014,1993.00,43.00,28.00,55.14,170.00,10.00,0.00,29.67,1003.40,M,M,M,M,M,M,M,M,M,M,M,M,M,M,M,M,M,36.76,KP68 300153Z AUTO 17010KT 06/M02 A2967 RMK AO1 SLP034 T00611022,M
DRA,2024-03-30 01:53,-116.0278,36.6206,1009.00,59.00,23.00,24.76,200.00,13.00,0.00,29.68,1002.80,10.00,23.00,BKN,M,M,M,12000.00,M,M,M,M,M,M,M,29.00,180.00,2024-03-30 01:04,59.00,KDRA 300153Z AUTO 20013G23KT 10SM BKN120 15/M05 A2968 RMK AO2 PK WND 18029/0104 SLP028 T01501050,M
ELY,2024-03-30 01:53,-114.8453,39.2950,1909.00,36.00,33.00,88.73,160.00,13.00,T,29.72,1005.70,9.00,25.00,BKN,BKN,OVC,M,3200.00,4800.00,7000.00,M,-RA,M,M,M,26.00,150.00,2024-03-30 01:41,26.69,KELY 300153Z AUTO 16013G25KT 9SM -RA BKN032 BKN048 OVC070 02/01 A2972 RMK AO2 PK WND 15026/0141 SLP057 P0000 T00220006,M
VGT,2024-03-30 01:53,-115.1933,36.2111,667.00,69.00,24.00,18.19,240.00,10.00,0.00,29.66,1004.90,10.00,M,CLR,M,M,M,M,M,M,M,M,M,M,M,M,M,M,69.00,KVGT 300153Z 24010KT 10SM CLR 21/M04 A2966 RMK AO2 SLP049 T02061044,M
LOL,2024-03-30 01:53,-118.5701,40.0684,1192.43,45.00,29.00,53.22,30.00,12.00,0.00,29.65,1004.70,10.00,M,OVC,M,M,M,7000.00,M,M,M,M,M,M,M,M,M,M,38.55,KLOL 300153Z AUTO 03012KT 10SM OVC070 07/M02 A2965 RMK AO2 SLP047 T00721017,M
BVU,2024-03-30 01:55,-114.8611,35.9475,671.00,68.00,17.60,14.35,190.00,12.00,0.00,29.67,M,10.00,19.00,CLR,M,M,M,M,M,M,M,M,M,M,M,M,M,M,68.00,KBVU 300155Z AUTO 19012G19KT 10SM CLR 20/M08 A2967 RMK AO2,M
CXP,2024-03-30 01:55,-119.7326,39.1923,1431.00,39.20,33.80,80.79,260.00,3.00,0.00,29.66,M,10.00,M,FEW,SCT,M,M,2000.00,2500.00,M,M,-RA,M,M,M,M,M,M,36.92,KCXP 300155Z AUTO 26003KT 10SM -RA FEW020 SCT025 04/01 A2966 RMK AO2,M
RNO,2024-03-30 01:55,-119.7711,39.4839,1341.00,41.00,34.00,75.94,200.00,9.00,T,29.65,1003.50,10.00,M,OVC,M,M,M,5000.00,M,M,M,M,M,M,M,M,M,M,34.70,KRNO 300155Z 20009KT 10SM OVC050 05/01 A2965 RMK AO2 RAB14E25 SLP035 P0000 T00500011,M
RTS,2024-03-30 01:55,-119.8764,39.6682,1539.00,37.40,32.00,80.65,170.00,10.00,0.00,29.65,M,9.00,M,SCT,SCT,BKN,M,2600.00,3100.00,3700.00,M,-DZ,M,M,M,M,M,M,29.74,KRTS 300155Z AUTO 17010KT 9SM -DZ SCT026 SCT031 BKN037 03/M00 A2965 RMK AO2,M
MEV,2024-03-30 01:55,-119.7500,38.9963,1441.42,39.20,32.00,75.16,0.00,0.00,0.00,29.65,M,9.00,M,SCT,BKN,OVC,M,2300.00,2900.00,3500.00,M,-RA,M,M,M,M,M,M,39.20,KMEV 300155Z AUTO 00000KT 9SM -RA SCT023 BKN029 OVC035 04/00 A2965 RMK AO2,M
HTH,2024-03-30 01:55,-118.6315,38.5448,1282.89,51.80,24.80,34.69,140.00,7.00,0.00,29.61,M,10.00,M,FEW,BKN,M,M,8000.00,10000.00,M,M,M,M,M,M,M,M,M,51.80,KHTH 300155Z AUTO 14007KT 10SM FEW080 BKN100 11/M04 A2961 RMK A01,M
TMT,2024-03-30 01:55,-117.1971,39.4643,1749.34,39.60,32.00,74.00,180.00,7.00,0.00,29.68,M,10.00,M,SCT,BKN,OVC,M,2700.00,4000.00,5000.00,M,M,M,M,M,M,M,M,34.04,KTMT 300155Z AUTO 18007KT 10SM SCT027 BKN040 OVC050 04/00 A2968 RMK AO2 T00420000,M
10U,2024-03-30 01:55,-116.1876,41.9532,1637.00,41.00,26.60,56.22,60.00,12.00,0.00,29.70,M,10.00,M,BKN,OVC,M,M,6500.00,7500.00,M,M,M,M,M,M,M,M,M,33.46,K10U 300155Z AUTO 06012KT 10SM BKN065 OVC075 05/M03 A2970 RMK AO2,M
INS,2024-03-30 01:55,-115.6733,36.5872,955.00,63.00,16.00,15.93,200.00,11.00,0.00,29.67,M,10.00,16.00,OVC,M,M,M,13000.00,M,M,M,M,M,M,M,M,M,M,63.00,KINS 300155Z AUTO 20011G16KT 10SM OVC130 17/M09 A2967 RMK AO2 SLPNO T01731088 $,M
LSV,2024-03-30 01:55,-115.0343,36.2362,570.00,69.40,19.80,15.03,240.00,13.00,0.00,29.62,M,10.00,M,CLR,M,M,M,M,M,M,M,M,M,M,M,M,M,M,69.40,KLSV 300155Z AUTO 24013KT 10SM CLR 21/M07 A2962 RMK AO2 SLPNO T02081068,M
EKO,2024-03-30 01:56,-115.7860,40.8242,1367.00,42.00,33.00,70.19,20.00,10.00,T,29.68,1005.60,10.00,M,OVC,M,M,M,3100.00,M,M,M,-RA,M,M,M,M,M,M,35.51,KEKO 300156Z AUTO 02010KT 10SM -RA OVC031 06/01 A2968 RMK AO2 RAB19 SLP056 P0000 T00560006,M
WMC,2024-03-30 01:56,-117.8072,40.9019,1315.00,42.00,33.00,70.19,310.00,6.00,T,29.69,1005.90,10.00,M,OVC,M,M,M,3800.00,M,M,M,-RA,M,M,M,M,M,M,37.57,KWMC 300156Z AUTO 31006KT 10SM -RA OVC038 06/01 A2969 RMK AO2 RAB02E26B46 SLP059 P0000 T00560006,M
NFL,2024-03-30 01:56,-118.7010,39.4166,1199.00,51.00,26.00,37.55,250.00,3.00,0.00,29.62,1001.60,10.00,M,SCT,BKN,OVC,M,4500.00,7000.00,9000.00,M,M,M,M,M,M,M,M,51.00,KNFL 300156Z 25003KT 10SM SCT045 BKN070 OVC090 11/M03 A2962 RMK AO2 SLP016 VIRGA VC ALQDS T01061033,M
HND,2024-03-30 01:56,-115.1344,35.9729,742.79,67.00,20.00,16.46,190.00,16.00,0.00,29.69,1005.80,10.00,M,CLR,M,M,M,M,M,M,M,M,M,M,M,M,M,M,67.00,KHND 300156Z 19016KT 10SM CLR 19/M07 A2969 RMK AO2 SLP058 T01941067,M
TPH,2024-03-30 01:56,-117.0904,38.0505,1654.00,49.00,19.00,30.12,190.00,13.00,0.00,29.66,1002.90,10.00,23.00,OVC,M,M,M,7000.00,M,M,M,M,M,M,M,M,M,M,43.35,KTPH 300156Z AUTO 19013G23KT 10SM OVC070 09/M07 A2966 RMK AO2 SLP029 T00941072,M
LAS,2024-03-30 01:56,-115.1634,36.0719,663.00,66.00,24.00,20.18,230.00,10.00,0.00,29.66,1003.30,10.00,M,BKN,BKN,BKN,M,10000.00,14000.00,25000.00,M,M,M,M,M,M,M,M,66.00,KLAS 300156Z 23010KT 10SM BKN100 BKN140 BKN250 19/M04 A2966 RMK AO2 SLP033 ACSL ALQDS T01891044,M
EKO,2024-03-30 02:04,-115.7860,40.8242,1367.00,41.00,34.00,75.94,360.00,9.00,T,29.69,M,9.00,M,BKN,OVC,M,M,2700.00,3700.00,M,M,-RA,M,M,M,M,M,M,34.70,KEKO 300204Z AUTO 36009KT 9SM -RA BKN027 OVC037 05/01 A2969 RMK AO2 P0000 T00500011,M
05U,2024-03-30 02:10,-116.0051,39.6042,1811.23,42.80,28.40,56.48,350.00,10.00,0.00,29.69,M,10.00,M,FEW,SCT,OVC,M,4700.00,6500.00,7500.00,M,M,M,M,M,M,M,M,36.51,K05U 300210Z AUTO 35010KT 10SM FEW047 SCT065 OVC075 06/M02 A2969 RMK A01,M
BAM,2024-03-30 02:10,-116.8743,40.5990,1382.36,42.80,37.40,81.07,250.00,4.00,0.00,29.69,M,10.00,M,SCT,BKN,OVC,M,3600.00,4300.00,7500.00,M,M,M,M,M,M,M,M,40.03,KBAM 300210Z AUTO 25004KT 10SM SCT036 BKN043 OVC075 06/03 A2969 RMK AO1,M
BVU,2024-03-30 02:15,-114.8611,35.9475,671.00,68.00,12.20,11.34,200.00,15.00,0.00,29.67,M,10.00,21.00,CLR,M,M,M,M,M,M,M,M,M,M,M,M,M,M,68.00,KBVU 300215Z AUTO 20015G21KT 10SM CLR 20/M11 A2967 RMK AO2,M
CXP,2024-03-30 02:15,-119.7326,39.1923,1431.00,37.40,33.80,86.69,300.00,5.00,0.00,29.66,M,8.00,M,BKN,M,M,M,2900.00,M,M,M,-RA,M,M,M,M,M,M,32.81,KCXP 300215Z AUTO 30005KT 8SM -RA BKN029 03/01 A2966 RMK AO2,M
RTS,2024-03-30 02:15,-119.8764,39.6682,1539.00,37.40,32.00,80.65,140.00,10.00,0.00,29.65,M,7.00,M,SCT,M,M,M,2300.00,M,M,M,-DZ,M,M,M,M,M,M,29.74,KRTS 300215Z AUTO 14010KT 7SM -DZ SCT023 03/00 A2965 RMK AO2,M
MEV,2024-03-30 02:15,-119.7500,38.9963,1441.42,39.20,33.80,80.79,260.00,4.00,0.00,29.64,M,7.00,M,BKN,BKN,M,M,2800.00,4100.00,M,M,-RA,M,M,M,M,M,M,35.83,KMEV 300215Z AUTO 26004KT 7SM -RA BKN028 BKN041 04/01 A2964 RMK AO2,M
HTH,2024-03-30 02:15,-118.6315,38.5448,1282.89,51.80,23.00,32.17,210.00,7.00,0.00,29.61,M,10.00,M,FEW,SCT,OVC,M,6500.00,7500.00,10000.00,M,M,M,M,M,M,M,M,51.80,KHTH 300215Z AUTO 21007KT 10SM FEW065 SCT075 OVC100 11/M05 A2961 RMK A01,M
TMT,2024-03-30 02:15,-117.1971,39.4643,1749.34,39.00,33.00,78.86,160.00,4.00,0.00,29.68,M,10.00,M,SCT,OVC,M,M,2700.00,4000.00,M,M,M,M,M,M,M,M,M,35.59,KTMT 300215Z AUTO 16004KT 10SM SCT027 OVC040 04/01 A2968 RMK AO2 T00380005,M
10U,2024-03-30 02:15,-116.1876,41.9532,1637.00,41.00,26.60,56.22,50.00,9.00,0.00,29.70,M,10.00,M,OVC,M,M,M,6500.00,M,M,M,M,M,M,M,M,M,M,34.70,K10U 300215Z AUTO 05009KT 10SM OVC065 05/M03 A2970 RMK AO2,M
05U,2024-03-30 02:30,-116.0051,39.6042,1811.23,M,M,M,360.00,11.00,0.00,29.70,M,10.00,M,FEW,SCT,OVC,M,4300.00,5000.00,6500.00,M,M,M,M,M,M,M,M,M,K05U 300230Z AUTO 36011KT 10SM FEW043 SCT050 OVC065 A2970 RMK A01,M
BAM,2024-03-30 02:30,-116.8743,40.5990,1382.36,42.80,35.60,75.50,0.00,0.00,0.00,29.69,M,10.00,M,SCT,SCT,OVC,M,4900.00,6500.00,9000.00,M,M,M,M,M,M,M,M,42.80,KBAM 300230Z AUTO 00000KT 10SM SCT049 SCT065 OVC090 06/02 A2969 RMK AO1,M
BVU,2024-03-30 02:35,-114.8611,35.9475,671.00,66.20,8.60,10.27,170.00,8.00,0.00,29.67,M,10.00,17.00,CLR,M,M,M,M,M,M,M,M,M,M,M,M,M,M,66.20,KBVU 300235Z AUTO 17008G17KT 10SM CLR 19/M13 A2967 RMK AO2,M
CXP,2024-03-30 02:35,-119.7326,39.1923,1431.00,37.40,33.80,86.69,310.00,4.00,0.00,29.66,M,8.00,M,BKN,M,M,M,3000.00,M,M,M,UP,M,M,M,M,M,M,33.73,KCXP 300235Z AUTO 31004KT 8SM UP BKN030 03/01 A2966 RMK AO2,M
RTS,2024-03-30 02:35,-119.8764,39.6682,1539.00,37.40,32.00,80.65,150.00,6.00,0.00,29.65,M,10.00,M,FEW,M,M,M,2000.00,M,M,M,-DZ,M,M,M,M,M,M,32.03,KRTS 300235Z AUTO 15006KT 10SM -DZ FEW020 03/00 A2965 RMK AO2,M
MEV,2024-03-30 02:35,-119.7500,38.9963,1441.42,37.40,33.80,86.69,0.00,0.00,0.00,29.64,M,10.00,M,SCT,BKN,OVC,M,1800.00,2600.00,4100.00,M,M,M,M,M,M,M,M,37.40,KMEV 300235Z AUTO 00000KT 10SM SCT018 BKN026 OVC041 03/01 A2964 RMK AO2,M
HTH,2024-03-30 02:35,-118.6315,38.5448,1282.89,51.80,23.00,32.17,210.00,12.00,0.00,29.61,M,10.00,M,FEW,BKN,OVC,M,6000.00,7000.00,7500.00,M,M,M,M,M,M,M,M,51.80,KHTH 300235Z AUTO 21012KT 10SM FEW060 BKN070 OVC075 11/M05 A2961 RMK A01,M
TMT,2024-03-30 02:35,-117.1971,39.4643,1749.34,38.50,33.00,80.41,160.00,4.00,0.00,29.68,M,10.00,M,OVC,M,M,M,4000.00,M,M,M,M,M,M,M,M,M,M,35.01,KTMT 300235Z AUTO 16004KT 10SM OVC040 04/01 A2968 RMK AO2 T00360005,M
10U,2024-03-30 02:35,-116.1876,41.9532,1637.00,41.00,26.60,56.22,70.00,8.00,0.00,29.71,M,10.00,M,FEW,OVC,M,M,5500.00,6500.00,M,M,M,M,M,M,M,M,M,35.20,K10U 300235Z AUTO 07008KT 10SM FEW055 OVC065 05/M03 A2971 RMK AO2,M
05U,2024-03-30 02:50,-116.0051,39.6042,1811.23,M,M,M,20.00,12.00,0.00,29.70,M,10.00,M,FEW,BKN,OVC,M,2900.00,3600.00,4600.00,M,M,M,M,M,M,M,M,M,K05U 300250Z AUTO 02012KT 350V050 10SM FEW029 BKN036 OVC046 A2970 RMK A01,M
BAM,2024-03-30 02:50,-116.8743,40.5990,1382.36,42.80,37.40,81.07,360.00,5.00,0.00,29.69,M,10.00,M,SCT,BKN,OVC,M,4400.00,7000.00,8000.00,M,M,M,M,M,M,M,M,39.22,KBAM 300250Z AUTO 36005KT 10SM SCT044 BKN070 OVC080 06/03 A2969 RMK AO1,M
P68,2024-03-30 02:53,-116.0056,39.6014,1993.00,43.00,26.00,50.77,180.00,12.00,0.00,29.67,1002.90,M,20.00,M,M,M,M,M,M,M,M,M,M,M,M,M,M,M,36.00,KP68 300253Z AUTO 18012G20KT 06/M03 A2967 RMK AO1 SLP029 T00611033 55000,M
DRA,2024-03-30 02:53,-116.0278,36.6206,1009.00,59.00,23.00,24.76,210.00,13.00,0.00,29.67,1002.20,10.00,M,OVC,M,M,M,10000.00,M,M,M,M,M,M,M,M,M,M,59.00,KDRA 300253Z AUTO 21013KT 10SM OVC100 15/M05 A2967 RMK AO2 SLP022 T01501050 58005,M
ELY,2024-03-30 02:53,-114.8453,39.2950,1909.00,37.00,33.00,85.29,140.00,13.00,T,29.71,1005.10,10.00,M,SCT,OVC,M,M,5000.00,7000.00,M,M,M,M,M,M,M,M,M,27.97,KELY 300253Z AUTO 14013KT 10SM SCT050 OVC070 03/01 A2971 RMK AO2 RAE0157 SLP051 P0000 60001 T00280006 58003,M
VGT,2024-03-30 02:53,-115.1933,36.2111,667.00,67.00,25.00,20.32,170.00,5.00,0.00,29.65,1004.60,10.00,M,CLR,M,M,M,M,M,M,M,M,M,M,M,M,M,M,67.00,KVGT 300253Z 17005KT 10SM CLR 19/M04 A2965 RMK AO2 SLP046 T01941039 58006,M
LOL,2024-03-30 02:53,-118.5701,40.0684,1192.43,42.00,29.00,59.69,30.00,8.00,0.00,29.65,1004.60,10.00,M,CLR,M,M,M,M,M,M,M,M,M,M,M,M,M,M,36.43,KLOL 300253Z AUTO 03008KT 10SM CLR 06/M02 A2965 RMK AO2 SLP046 T00561017 58002,M
BVU,2024-03-30 02:55,-114.8611,35.9475,671.00,66.20,5.00,8.73,180.00,13.00,0.00,29.67,M,10.00,M,CLR,M,M,M,M,M,M,M,M,M,M,M,M,M,M,66.20,KBVU 300255Z AUTO 18013KT 10SM CLR 19/M15 A2967 RMK AO2,M
CXP,2024-03-30 02:55,-119.7326,39.1923,1431.00,37.40,33.80,86.69,310.00,4.00,0.00,29.66,M,9.00,M,OVC,M,M,M,3400.00,M,M,M,UP,M,M,M,M,M,M,33.73,KCXP 300255Z AUTO 31004KT 9SM UP OVC034 03/01 A2966 RMK AO2,M
RNO,2024-03-30 02:55,-119.7711,39.4839,1341.00,39.00,34.00,82.08,190.00,6.00,T,29.65,1003.30,10.00,M,SCT,OVC,M,M,2800.00,4000.00,M,M,-RA,M,M,M,M,M,M,33.96,KRNO 300255Z 19006KT 10SM -RA SCT028 OVC040 04/01 A2965 RMK AO2 RAB15 SLP033 P0000 60000 T00390011 50002,M
RTS,2024-03-30 02:55,-119.8764,39.6682,1539.00,35.60,33.80,93.08,150.00,7.00,0.00,29.65,M,10.00,M,BKN,BKN,M,M,2300.00,3900.00,M,M,-DZ,M,M,M,M,M,M,29.17,KRTS 300255Z AUTO 15007KT 10SM -DZ BKN023 BKN039 02/01 A2965 RMK AO2,M
MEV,2024-03-30 02:55,-119.7500,38.9963,1441.42,37.40,33.80,86.69,240.00,4.00,0.00,29.64,M,9.00,M,OVC,M,M,M,1900.00,M,M,M,-RA,M,M,M,M,M,M,33.73,KMEV 300255Z AUTO 24004KT 9SM -RA OVC019 03/01 A2964 RMK AO2,M
HTH,2024-03-30 02:55,-118.6315,38.5448,1282.89,50.00,23.00,34.39,200.00,12.00,0.00,29.61,M,10.00,M,OVC,M,M,M,7000.00,M,M,M,M,M,M,M,M,M,M,50.00,KHTH 300255Z AUTO 20012KT 10SM OVC070 10/M05 A2961 RMK A01,M
TMT,2024-03-30 02:55,-117.1971,39.4643,1749.34,36.70,33.40,87.70,160.00,3.00,0.00,29.68,M,10.00,M,SCT,BKN,OVC,M,2500.00,3700.00,4500.00,M,UP,M,M,M,M,M,M,34.06,KTMT 300255Z AUTO 16003KT 10SM UP SCT025 BKN037 OVC045 03/01 A2968 RMK AO2 T00260008,M
10U,2024-03-30 02:55,-116.1876,41.9532,1637.00,41.00,30.20,65.16,140.00,11.00,0.00,29.71,M,10.00,17.00,BKN,OVC,M,M,4800.00,6500.00,M,M,M,M,M,M,M,M,M,33.84,K10U 300255Z AUTO 14011G17KT 10SM BKN048 OVC065 05/M01 A2971 RMK AO2,M
INS,2024-03-30 02:55,-115.6733,36.5872,955.00,62.20,17.00,17.12,0.00,0.00,0.00,29.66,M,10.00,M,OVC,M,M,M,13000.00,M,M,M,M,M,M,M,M,M,M,62.20,KINS 300255Z AUTO 00000KT 10SM OVC130 17/M08 A2966 RMK AO2 SLPNO T01681084 58004 $,M
LSV,2024-03-30 02:55,-115.0343,36.2362,570.00,67.50,21.00,16.88,190.00,6.00,0.00,29.62,M,10.00,M,CLR,M,M,M,M,M,M,M,M,M,M,M,M,M,M,67.50,KLSV 300255Z AUTO 19006KT 10SM CLR 20/M06 A2962 RMK AO2 SLPNO T01971061 55002,M
EKO,2024-03-30 02:56,-115.7860,40.8242,1367.00,39.00,33.00,78.86,10.00,3.00,0.04,29.70,1006.00,6.00,M,BKN,OVC,M,M,1900.00,2600.00,M,M,-RA,M,M,M,M,M,M,36.69,KEKO 300256Z AUTO 01003KT 6SM -RA BKN019 OVC026 04/01 A2970 RMK AO2 SLP060 P0004 60004 T00390006 53008,M
WMC,2024-03-30 02:56,-117.8072,40.9019,1315.00,41.00,33.00,72.96,40.00,7.00,T,29.69,1005.40,10.00,M,SCT,BKN,OVC,M,2600.00,6000.00,9000.00,M,M,M,M,M,M,M,M,35.75,KWMC 300256Z AUTO 04007KT 10SM SCT026 BKN060 OVC090 05/01 A2969 RMK AO2 RAE17 SLP054 P0000 60000 T00500006 50004,M
NFL,2024-03-30 02:56,-118.7010,39.4166,1199.00,48.00,29.00,47.52,340.00,7.00,0.00,29.62,1001.40,10.00,M,SCT,BKN,OVC,M,4500.00,7000.00,9000.00,M,M,M,M,M,M,M,M,44.28,KNFL 300256Z 34007KT 10SM SCT045 BKN070 OVC090 09/M02 A2962 RMK AO2 SLP014 VIRGA VC ALQDS T00891017 58002,M
HND,2024-03-30 02:56,-115.1344,35.9729,742.79,66.00,13.00,12.58,170.00,10.00,0.00,29.69,1005.70,10.00,M,CLR,M,M,M,M,M,M,M,M,M,M,M,M,M,M,66.00,KHND 300256Z 17010KT 10SM CLR 19/M11 A2969 RMK AO2 SLP057 T01891106 58003,M
TPH,2024-03-30 02:56,-117.0904,38.0505,1654.00,46.00,16.00,29.63,180.00,9.00,0.00,29.66,1002.80,10.00,M,OVC,M,M,M,7500.00,M,M,M,M,M,M,M,M,M,M,40.92,KTPH 300256Z AUTO 18009KT 10SM OVC075 08/M09 A2966 RMK AO2 SLP028 T00781089 50000,M
LAS,2024-03-30 02:56,-115.1634,36.0719,663.00,66.00,17.00,14.98,180.00,9.00,0.00,29.65,1002.80,10.00,M,FEW,SCT,BKN,M,10000.00,14000.00,22000.00,M,M,M,M,M,M,M,M,66.00,KLAS 300256Z 18009KT 10SM FEW100 SCT140 BKN220 19/M08 A2965 RMK AO2 SLP028 T01891083 58004,M
05U,2024-03-30 03:10,-116.0051,39.6042,1811.23,M,M,M,10.00,7.00,0.00,29.70,M,10.00,M,FEW,SCT,BKN,M,3200.00,3800.00,4300.00,M,M,M,M,M,M,M,M,M,K05U 300310Z AUTO 01007KT 340V040 10SM FEW032 SCT038 BKN043 A2970 RMK A01,M
BVU,2024-03-30 03:15,-114.8611,35.9475,671.00,66.20,5.00,8.73,170.00,14.00,0.00,29.68,M,10.00,20.00,CLR,M,M,M,M,M,M,M,M,M,M,M,M,M,M,66.20,KBVU 300315Z AUTO 17014G20KT 10SM CLR 19/M15 A2968 RMK AO2,M
CXP,2024-03-30 03:15,-119.7326,39.1923,1431.00,37.40,33.80,86.69,310.00,3.00,0.00,29.65,M,10.00,M,BKN,OVC,M,M,3700.00,4500.00,M,M,-RA,M,M,M,M,M,M,34.86,KCXP 300315Z AUTO 31003KT 10SM -RA BKN037 OVC045 03/01 A2965 RMK AO2,M
RTS,2024-03-30 03:15,-119.8764,39.6682,1539.00,35.60,33.80,93.08,150.00,7.00,0.00,29.65,M,8.00,M,FEW,BKN,BKN,M,700.00,2100.00,2500.00,M,-DZ,M,M,M,M,M,M,29.17,KRTS 300315Z AUTO 15007KT 8SM -DZ FEW007 BKN021 BKN025 02/01 A2965 RMK AO2,M
MEV,2024-03-30 03:15,-119.7500,38.9963,1441.42,37.40,33.80,86.69,300.00,4.00,0.00,29.63,M,9.00,M,SCT,BKN,OVC,M,1300.00,2000.00,3300.00,M,UP,M,M,M,M,M,M,33.73,KMEV 300315Z AUTO 30004KT 9SM UP SCT013 BKN020 OVC033 03/01 A2963 RMK AO2,M
HTH,2024-03-30 03:15,-118.6315,38.5448,1282.89,50.00,24.80,37.08,190.00,7.00,0.00,29.61,M,10.00,M,BKN,OVC,M,M,7500.00,9000.00,M,M,M,M,M,M,M,M,M,50.00,KHTH 300315Z AUTO 19007KT 10SM BKN075 OVC090 10/M04 A2961 RMK A01,M
TMT,2024-03-30 03:15,-117.1971,39.4643,1749.34,35.40,32.70,89.78,170.00,3.00,0.00,29.67,M,10.00,M,SCT,SCT,BKN,M,2500.00,3600.00,5000.00,M,M,M,M,M,M,M,M,32.58,KTMT 300315Z AUTO 17003KT 10SM SCT025 SCT036 BKN050 02/00 A2967 RMK AO2 T00190004,M
10U,2024-03-30 03:15,-116.1876,41.9532,1637.00,39.20,30.20,69.88,130.00,12.00,0.00,29.71,M,10.00,18.00,SCT,BKN,OVC,M,4600.00,6000.00,7000.00,M,M,M,M,M,M,M,M,31.17,K10U 300315Z AUTO 13012G18KT 10SM SCT046 BKN060 OVC070 04/M01 A2971 RMK AO2,M
EKO,2024-03-30 03:20,-115.7860,40.8242,1367.00,37.00,33.00,85.29,50.00,3.00,0.04,29.70,M,5.00,M,BKN,OVC,M,M,900.00,1600.00,M,M,-RA BR,M,M,M,M,M,M,34.40,KEKO 300320Z AUTO 05003KT 5SM -RA BR BKN009 OVC016 03/01 A2970 RMK AO2 P0004 T00280006,M
05U,2024-03-30 03:30,-116.0051,39.6042,1811.23,M,M,M,360.00,7.00,0.00,29.70,M,10.00,M,FEW,SCT,OVC,M,3600.00,4100.00,6000.00,M,M,M,M,M,M,M,M,M,K05U 300330Z AUTO 36007KT 10SM FEW036 SCT041 OVC060 A2970 RMK A01,M
BAM,2024-03-30 03:30,-116.8743,40.5990,1382.36,41.00,37.40,86.89,350.00,6.00,0.00,29.69,M,10.00,M,BKN,OVC,M,M,3900.00,4400.00,M,M,M,M,M,M,M,M,M,36.37,KBAM 300330Z AUTO 35006KT 10SM BKN039 OVC044 05/03 A2969 RMK AO1,M
RNO,2024-03-30 03:34,-119.7711,39.4839,1341.00,39.00,34.00,82.08,170.00,5.00,0.02,29.64,M,10.00,M,OVC,M,M,M,2800.00,M,M,M,-RA,M,M,M,M,M,M,34.71,KRNO 300334Z 17005KT 10SM -RA OVC028 04/01 A2964 RMK AO2 P0002 T00390011,M
BVU,2024-03-30 03:35,-114.8611,35.9475,671.00,66.20,12.20,12.06,180.00,14.00,0.00,29.68,M,10.00,21.00,CLR,M,M,M,M,M,M,M,M,M,M,M,M,M,M,66.20,KBVU 300335Z AUTO 18014G21KT 10SM CLR 19/M11 A2968 RMK AO2,M
CXP,2024-03-30 03:35,-119.7326,39.1923,1431.00,37.40,33.80,86.69,0.00,0.00,0.00,29.65,M,10.00,M,BKN,OVC,M,M,3300.00,4100.00,M,M,-RA,M,M,M,M,M,M,37.40,KCXP 300335Z AUTO 00000KT 10SM -RA BKN033 OVC041 03/01 A2965 RMK AO2,M
RTS,2024-03-30 03:35,-119.8764,39.6682,1539.00,35.60,33.80,93.08,140.00,6.00,0.00,29.65,M,7.00,M,SCT,SCT,BKN,M,600.00,1100.00,2100.00,M,-RA,M,M,M,M,M,M,29.87,KRTS 300335Z AUTO 14006KT 7SM -RA SCT006 SCT011 BKN021 02/01 A2965 RMK AO2,M
MEV,2024-03-30 03:35,-119.7500,38.9963,1441.42,37.40,33.80,86.69,320.00,4.00,0.00,29.64,M,10.00,M,FEW,BKN,OVC,M,1200.00,2900.00,3300.00,M,UP,M,M,M,M,M,M,33.73,KMEV 300335Z AUTO 32004KT 10SM UP FEW012 BKN029 OVC033 03/01 A2964 RMK AO2,M
HTH,2024-03-30 03:35,-118.6315,38.5448,1282.89,50.00,23.00,34.39,190.00,7.00,0.00,29.61,M,10.00,M,FEW,BKN,OVC,M,8000.00,9500.00,11000.00,M,M,M,M,M,M,M,M,50.00,KHTH 300335Z AUTO 19007KT 10SM FEW080 BKN095 OVC110 10/M05 A2961 RMK A01,M
TMT,2024-03-30 03:35,-117.1971,39.4643,1749.34,33.30,32.00,94.91,120.00,4.00,0.00,29.67,M,10.00,M,SCT,M,M,M,7500.00,M,M,M,M,M,M,M,M,M,M,28.94,KTMT 300335Z AUTO 12004KT 10SM SCT075 01/00 A2967 RMK AO2 T00071001,M
10U,2024-03-30 03:35,-116.1876,41.9532,1637.00,39.20,30.20,69.88,100.00,7.00,0.00,29.71,M,10.00,13.00,FEW,BKN,OVC,M,1600.00,4500.00,6500.00,M,M,M,M,M,M,M,M,33.56,K10U 300335Z AUTO 10007G13KT 10SM FEW016 BKN045 OVC065 04/M01 A2971 RMK AO2,M
EKO,2024-03-30 03:45,-115.7860,40.8242,1367.00,35.00,32.00,88.68,360.00,3.00,0.10,29.70,M,2.50,M,SCT,OVC,M,M,800.00,1200.00,M,M,+RA BR,M,M,M,M,M,M,32.12,KEKO 300345Z AUTO 36003KT 2 1/2SM +RA BR SCT008 OVC012 02/00 A2970 RMK AO2 P0010 T00170000,M
05U,2024-03-30 03:50,-116.0051,39.6042,1811.23,M,M,M,340.00,6.00,0.00,29.70,M,10.00,M,FEW,BKN,OVC,M,5000.00,6500.00,7500.00,M,M,M,M,M,M,M,M,M,K05U 300350Z AUTO 34006KT 10SM FEW050 BKN065 OVC075 A2970 RMK A01,M
BAM,2024-03-30 03:50,-116.8743,40.5990,1382.36,41.00,37.40,86.89,340.00,6.00,0.00,29.71,M,10.00,M,OVC,M,M,M,3500.00,M,M,M,M,M,M,M,M,M,M,36.37,KBAM 300350Z AUTO 34006KT 10SM OVC035 05/03 A2971 RMK AO1,M
EKO,2024-03-30 03:53,-115.7860,40.8242,1367.00,35.60,33.80,93.08,0.00,0.00,0.12,29.70,M,4.00,M,FEW,BKN,OVC,M,700.00,1600.00,3300.00,M,-RA BR,M,M,M,M,M,M,35.60,KEKO 300353Z AUTO 00000KT 4SM -RA BR FEW007 BKN016 OVC033 02/01 A2970 RMK AO2 P0012,M
P68,2024-03-30 03:53,-116.0056,39.6014,1993.00,40.00,27.00,59.41,160.00,7.00,0.00,29.67,1002.70,M,M,M,M,M,M,M,M,M,M,M,M,M,M,M,M,M,34.53,KP68 300353Z AUTO 16007KT 04/M03 A2967 RMK AO1 SLP027 T00441028,M
DRA,2024-03-30 03:53,-116.0278,36.6206,1009.00,56.00,28.00,33.96,210.00,11.00,0.00,29.67,1002.40,10.00,M,BKN,M,M,M,11000.00,M,M,M,M,M,M,M,M,M,M,56.00,KDRA 300353Z AUTO 21011KT 10SM BKN110 13/M02 A2967 RMK AO2 SLP024 T01331022,M
ELY,2024-03-30 03:53,-114.8453,39.2950,1909.00,37.00,31.00,78.69,160.00,17.00,0.00,29.72,1004.60,10.00,23.00,FEW,BKN,M,M,4500.00,6000.00,M,M,M,M,M,M,M,M,M,26.63,KELY 300353Z AUTO 16017G23KT 10SM FEW045 BKN060 03/M01 A2972 RMK AO2 SLP046 T00281006,M
VGT,2024-03-30 03:53,-115.1933,36.2111,667.00,66.00,23.00,19.35,220.00,10.00,0.00,29.66,1005.00,10.00,M,CLR,M,M,M,M,M,M,M,M,M,M,M,M,M,M,66.00,KVGT 300353Z AUTO 22010KT 10SM CLR 19/M05 A2966 RMK AO2 SLP050 T01891050,M
LOL,2024-03-30 03:53,-118.5701,40.0684,1192.43,40.00,30.00,67.18,40.00,11.00,0.00,29.65,1004.40,10.00,M,CLR,M,M,M,M,M,M,M,M,M,M,M,M,M,M,32.58,KLOL 300353Z AUTO 04011KT 10SM CLR 04/M01 A2965 RMK AO2 SLP044 T00441011,M
EKO,2024-03-30 03:54,-115.7860,40.8242,1367.00,35.00,33.00,92.32,0.00,0.00,0.12,29.70,1006.00,5.00,M,FEW,BKN,OVC,M,700.00,1600.00,3100.00,M,-RA BR,M,M,M,M,M,M,35.00,KEKO 300354Z AUTO 00000KT 5SM -RA BR FEW007 BKN016 OVC031 02/01 A2970 RMK AO2 SLP060 P0012 T00170006,M
BVU,2024-03-30 03:55,-114.8611,35.9475,671.00,66.20,14.00,13.06,190.00,19.00,0.00,29.68,M,10.00,24.00,CLR,M,M,M,M,M,M,M,M,M,M,M,M,M,M,66.20,KBVU 300355Z AUTO 19019G24KT 10SM CLR 19/M10 A2968 RMK AO2,M
CXP,2024-03-30 03:55,-119.7326,39.1923,1431.00,37.40,33.80,86.69,0.00,0.00,0.00,29.66,M,7.00,M,FEW,OVC,M,M,1700.00,3200.00,M,M,-RA,M,M,M,M,M,M,37.40,KCXP 300355Z AUTO 00000KT 7SM -RA FEW017 OVC032 03/01 A2966 RMK AO2,M
RNO,2024-03-30 03:55,-119.7711,39.4839,1341.00,39.00,34.00,82.08,190.00,3.00,0.04,29.64,1003.20,9.00,M,OVC,M,M,M,2400.00,M,M,M,-RA,M,M,M,M,M,M,36.69,KRNO 300355Z 19003KT 9SM -RA OVC024 04/01 A2964 RMK AO2 SLP032 P0004 T00390011 $,M
RTS,2024-03-30 03:55,-119.8764,39.6682,1539.00,35.60,33.80,93.08,110.00,5.00,0.02,29.65,M,9.00,M,BKN,OVC,M,M,500.00,1100.00,M,M,-DZ,M,M,M,M,M,M,30.67,KRTS 300355Z AUTO 11005KT 9SM -DZ BKN005 OVC011 02/01 A2965 RMK AO2 P0002,M
MEV,2024-03-30 03:55,-119.7500,38.9963,1441.42,35.60,33.80,93.08,320.00,4.00,0.00,29.64,M,9.00,M,BKN,BKN,OVC,M,1200.00,2800.00,3200.00,M,UP,M,M,M,M,M,M,31.62,KMEV 300355Z AUTO 32004KT 9SM UP BKN012 BKN028 OVC032 02/01 A2964 RMK AO2,M
HTH,2024-03-30 03:55,-118.6315,38.5448,1282.89,50.00,23.00,34.39,230.00,5.00,0.00,29.61,M,10.00,M,SCT,OVC,M,M,7500.00,11000.00,M,M,M,M,M,M,M,M,M,50.00,KHTH 300355Z AUTO 23005KT 10SM SCT075 OVC110 10/M05 A2961 RMK A01,M
TMT,2024-03-30 03:55,-117.1971,39.4643,1749.34,34.50,32.00,90.46,0.00,0.00,0.00,29.68,M,10.00,M,BKN,M,M,M,6500.00,M,M,M,M,M,M,M,M,M,M,34.50,KTMT 300355Z AUTO 00000KT 10SM BKN065 01/00 A2968 RMK AO2 T00140000,M
10U,2024-03-30 03:55,-116.1876,41.9532,1637.00,39.20,30.20,69.88,90.00,6.00,0.00,29.71,M,10.00,M,BKN,OVC,M,M,3600.00,4500.00,M,M,M,M,M,M,M,M,M,34.20,K10U 300355Z AUTO 09006KT 10SM BKN036 OVC045 04/M01 A2971 RMK AO2,M
INS,2024-03-30 03:55,-115.6733,36.5872,955.00,61.00,19.60,19.97,250.00,12.00,0.00,29.66,M,10.00,M,OVC,M,M,M,12000.00,M,M,M,M,M,M,M,M,M,M,61.00,KINS 300355Z AUTO 25012KT 10SM OVC120 16/M07 A2966 RMK AO2 SLPNO T01611069 $,M
LSV,2024-03-30 03:55,-115.0343,36.2362,570.00,68.00,9.30,9.96,220.00,15.00,0.00,29.63,M,10.00,M,CLR,M,M,M,M,M,M,M,M,M,M,M,M,M,M,68.00,KLSV 300355Z AUTO 22015KT 10SM CLR 20/M13 A2963 RMK AO2 SLPNO T02001126,M
WMC,2024-03-30 03:56,-117.8072,40.9019,1315.00,37.00,32.00,81.93,350.00,4.00,0.00,29.69,1005.10,10.00,M,FEW,SCT,M,M,5000.00,7500.00,M,M,M,M,M,M,M,M,M,33.26,KWMC 300356Z AUTO 35004KT 10SM FEW050 SCT075 03/00 A2969 RMK AO2 SLP051 T00280000,M
NFL,2024-03-30 03:56,-118.7010,39.4166,1199.00,47.00,29.00,49.34,10.00,11.00,T,29.62,1001.60,10.00,18.00,FEW,BKN,OVC,M,3000.00,5000.00,7000.00,M,-RA,M,M,M,M,M,M,41.42,KNFL 300356Z 01011G18KT 10SM -RA FEW030 BKN050 OVC070 08/M02 A2962 RMK AO2 RAB53 SLP016 SH VC ALQDS P0000 T00831017,M
HND,2024-03-30 03:56,-115.1344,35.9729,742.79,62.00,23.00,22.26,210.00,11.00,0.00,29.71,1006.60,10.00,M,CLR,M,M,M,M,M,M,M,M,M,M,M,M,M,M,62.00,KHND 300356Z AUTO 21011KT 10SM CLR 17/M05 A2971 RMK AO2 SLP066 T01671050,M
TPH,2024-03-30 03:56,-117.0904,38.0505,1654.00,46.00,17.00,30.94,140.00,12.00,0.00,29.66,1002.60,10.00,M,OVC,M,M,M,7000.00,M,M,M,M,M,M,M,M,M,M,39.82,KTPH 300356Z AUTO 14012KT 10SM OVC070 08/M08 A2966 RMK AO2 SLP026 T00781083,M
LAS,2024-03-30 03:56,-115.1634,36.0719,663.00,62.00,23.00,22.26,230.00,15.00,0.00,29.67,1003.50,10.00,25.00,FEW,SCT,BKN,M,10000.00,14000.00,22000.00,M,M,M,M,M,M,M,M,62.00,KLAS 300356Z 23015G25KT 10SM FEW100 SCT140 BKN220 17/M05 A2967 RMK AO2 SLP035 T01671050,M
LSV,2024-03-30 04:01,-115.0343,36.2362,570.00,66.20,15.80,14.13,220.00,13.00,0.00,29.64,M,10.00,M,CLR,M,M,M,M,M,M,M,M,M,M,M,M,M,M,66.20,KLSV 300401Z AUTO 22013KT 10SM CLR 19/M09 A2964 RMK AO2 WSHFT 0348 SLPNO,M
05U,2024-03-30 04:10,-116.0051,39.6042,1811.23,M,M,M,320.00,8.00,0.00,29.69,M,10.00,13.00,BKN,OVC,M,M,6500.00,7500.00,M,M,M,M,M,M,M,M,M,M,K05U 300410Z AUTO 32008G13KT 10SM BKN065 OVC075 A2969 RMK A01,M
BAM,2024-03-30 04:10,-116.8743,40.5990,1382.36,41.00,37.40,86.89,330.00,6.00,0.00,29.71,M,10.00,M,OVC,M,M,M,3500.00,M,M,M,M,M,M,M,M,M,M,36.37,KBAM 300410Z AUTO 33006KT 10SM OVC035 05/03 A2971 RMK AO1,M
BVU,2024-03-30 04:15,-114.8611,35.9475,671.00,66.20,15.80,14.13,190.00,16.00,0.00,29.69,M,10.00,21.00,CLR,M,M,M,M,M,M,M,M,M,M,M,M,M,M,66.20,KBVU 300415Z AUTO 19016G21KT 10SM CLR 19/M09 A2969 RMK AO2,M
CXP,2024-03-30 04:15,-119.7326,39.1923,1431.00,37.40,33.80,86.69,0.00,0.00,0.00,29.65,M,7.00,M,FEW,OVC,M,M,1700.00,3200.00,M,M,-RA,M,M,M,M,M,M,37.40,KCXP 300415Z AUTO 00000KT 7SM -RA FEW017 OVC032 03/01 A2965 RMK AO2,M
RTS,2024-03-30 04:15,-119.8764,39.6682,1539.00,35.60,33.80,93.08,100.00,4.00,0.00,29.65,M,6.00,M,OVC,M,M,M,500.00,M,M,M,-RA,M,M,M,M,M,M,31.62,KRTS 300415Z AUTO 10004KT 6SM -RA OVC005 02/01 A2965 RMK AO2,M
MEV,2024-03-30 04:15,-119.7500,38.9963,1441.42,35.60,33.80,93.08,0.00,0.00,0.00,29.65,M,9.00,M,SCT,BKN,OVC,M,800.00,1200.00,2500.00,M,-RA,M,M,M,M,M,M,35.60,KMEV 300415Z AUTO 00000KT 9SM -RA SCT008 BKN012 OVC025 02/01 A2965 RMK AO2,M
HTH,2024-03-30 04:15,-118.6315,38.5448,1282.89,50.00,24.80,37.08,0.00,0.00,0.00,29.61,M,10.00,M,SCT,BKN,OVC,M,5000.00,7500.00,9000.00,M,M,M,M,M,M,M,M,50.00,KHTH 300415Z AUTO 00000KT 10SM SCT050 BKN075 OVC090 10/M04 A2961 RMK A01,M
TMT,2024-03-30 04:15,-117.1971,39.4643,1749.34,32.00,30.40,93.73,190.00,5.00,0.00,29.68,M,10.00,M,BKN,M,M,M,6500.00,M,M,M,M,M,M,M,M,M,M,26.40,KTMT 300415Z AUTO 19005KT 10SM BKN065 00/M01 A2968 RMK AO2 T00001009,M
10U,2024-03-30 04:15,-116.1876,41.9532,1637.00,41.00,28.40,60.54,130.00,11.00,0.00,29.71,M,10.00,M,BKN,BKN,OVC,M,3600.00,4200.00,5500.00,M,M,M,M,M,M,M,M,33.84,K10U 300415Z AUTO 13011KT 10SM BKN036 BKN042 OVC055 05/M02 A2971 RMK AO2,M
05U,2024-03-30 04:30,-116.0051,39.6042,1811.23,M,M,M,320.00,7.00,0.00,29.69,M,10.00,M,OVC,M,M,M,6000.00,M,M,M,M,M,M,M,M,M,M,M,K05U 300430Z AUTO 32007KT 10SM OVC060 A2969 RMK A01,M
BAM,2024-03-30 04:30,-116.8743,40.5990,1382.36,41.00,37.40,86.89,330.00,5.00,0.00,29.71,M,10.00,M,SCT,BKN,OVC,M,2000.00,3700.00,4200.00,M,M,M,M,M,M,M,M,37.08,KBAM 300430Z AUTO 33005KT 10SM SCT020 BKN037 OVC042 05/03 A2971 RMK AO1,M
BVU,2024-03-30 04:35,-114.8611,35.9475,671.00,64.40,17.60,16.26,210.00,9.00,0.00,29.69,M,10.00,M,CLR,M,M,M,M,M,M,M,M,M,M,M,M,M,M,64.40,KBVU 300435Z AUTO 21009KT 10SM CLR 18/M08 A2969 RMK AO2,M
CXP,2024-03-30 04:35,-119.7326,39.1923,1431.00,37.40,33.80,86.69,0.00,0.00,0.00,29.66,M,6.00,M,SCT,OVC,M,M,900.00,3100.00,M,M,-RA BR,M,M,M,M,M,M,37.40,KCXP 300435Z AUTO 00000KT 6SM -RA BR SCT009 OVC031 03/01 A2966 RMK AO2,M
RTS,2024-03-30 04:35,-119.8764,39.6682,1539.00,33.80,33.80,100.00,0.00,0.00,0.00,29.65,M,4.00,M,OVC,M,M,M,400.00,M,M,M,-SN,M,M,M,M,M,M,33.80,KRTS 300435Z AUTO 00000KT 4SM -SN OVC004 01/01 A2965 RMK AO2,M
MEV,2024-03-30 04:35,-119.7500,38.9963,1441.42,35.60,33.80,93.08,290.00,3.00,0.00,29.65,M,9.00,M,OVC,M,M,M,700.00,M,M,M,-RA,M,M,M,M,M,M,32.80,KMEV 300435Z AUTO 29003KT 9SM -RA OVC007 02/01 A2965 RMK AO2,M
HTH,2024-03-30 04:35,-118.6315,38.5448,1282.89,50.00,24.80,37.08,120.00,8.00,0.00,29.61,M,10.00,M,SCT,BKN,OVC,M,5000.00,6000.00,7500.00,M,M,M,M,M,M,M,M,50.00,KHTH 300435Z AUTO 12008KT 10SM SCT050 BKN060 OVC075 10/M04 A2961 RMK A01,M
TMT,2024-03-30 04:35,-117.1971,39.4643,1749.34,32.70,30.70,92.24,170.00,5.00,0.00,29.68,M,10.00,M,BKN,M,M,M,6500.00,M,M,M,M,M,M,M,M,M,M,27.23,KTMT 300435Z AUTO 17005KT 10SM BKN065 00/M01 A2968 RMK AO2 T00041007,M
10U,2024-03-30 04:35,-116.1876,41.9532,1637.00,39.20,30.20,69.88,130.00,11.00,0.00,29.71,M,10.00,M,FEW,SCT,BKN,M,3300.00,3800.00,4400.00,M,M,M,M,M,M,M,M,31.57,K10U 300435Z AUTO 13011KT 10SM FEW033 SCT038 BKN044 04/M01 A2971 RMK AO2,M
EKO,2024-03-30 04:47,-115.7860,40.8242,1367.00,34.00,32.00,92.29,210.00,4.00,0.05,29.71,M,2.50,M,BKN,OVC,M,M,400.00,1800.00,M,M,-SN BR,M,M,M,M,M,M,29.76,KEKO 300447Z AUTO 21004KT 2 1/2SM -SN BR BKN004 OVC018 01/00 A2971 RMK AO2 RAE39SNB39 P0005 T00110000,M
05U,2024-03-30 04:50,-116.0051,39.6042,1811.23,M,M,M,0.00,0.00,0.00,29.69,M,10.00,M,OVC,M,M,M,6000.00,M,M,M,M,M,M,M,M,M,M,M,K05U 300450Z AUTO 00000KT 10SM OVC060 A2969 RMK A01,M
BAM,2024-03-30 04:50,-116.8743,40.5990,1382.36,41.00,37.40,86.89,340.00,5.00,0.00,29.70,M,10.00,M,BKN,BKN,OVC,M,2000.00,2700.00,4600.00,M,M,M,M,M,M,M,M,37.08,KBAM 300450Z AUTO 34005KT 10SM BKN020 BKN027 OVC046 05/03 A2970 RMK AO1,M
P68,2024-03-30 04:53,-116.0056,39.6014,1993.00,35.00,26.00,69.39,0.00,0.00,0.00,29.67,1002.60,M,M,M,M,M,M,M,M,M,M,M,M,M,M,M,M,M,35.00,KP68 300453Z AUTO 00000KT 02/M03 A2967 RMK AO1 SLP026 T00171033,M
DRA,2024-03-30 04:53,-116.0278,36.6206,1009.00,56.00,27.00,32.59,190.00,16.00,0.00,29.68,1002.40,10.00,25.00,OVC,M,M,M,9500.00,M,M,M,M,M,M,M,M,M,M,56.00,KDRA 300453Z AUTO 19016G25KT 10SM OVC095 13/M03 A2968 RMK AO2 SLP024 T01331028,M
ELY,2024-03-30 04:53,-114.8453,39.2950,1909.00,37.00,28.00,69.63,160.00,14.00,0.00,29.72,1004.50,10.00,23.00,FEW,SCT,BKN,M,7000.00,9000.00,11000.00,M,M,M,M,M,M,M,M,27.61,KELY 300453Z AUTO 16014G23KT 10SM FEW070 SCT090 BKN110 03/M02 A2972 RMK AO2 SLP045 T00281022,M
VGT,2024-03-30 04:53,-115.1933,36.2111,667.00,64.00,24.00,21.64,200.00,8.00,0.00,29.68,1005.50,10.00,M,CLR,M,M,M,M,M,M,M,M,M,M,M,M,M,M,64.00,KVGT 300453Z AUTO 20008KT 10SM CLR 18/M04 A2968 RMK AO2 SLP055 T01781044,M
LOL,2024-03-30 04:53,-118.5701,40.0684,1192.43,40.00,32.00,72.85,30.00,12.00,0.00,29.65,1003.90,10.00,M,FEW,SCT,M,M,7000.00,11000.00,M,M,M,M,M,M,M,M,M,32.18,KLOL 300453Z AUTO 03012KT 10SM FEW070 SCT110 04/00 A2965 RMK AO2 SLP039 T00440000,M
EKO,2024-03-30 04:54,-115.7860,40.8242,1367.00,33.80,32.00,93.03,180.00,4.08,M,29.71,M,1.00,M,BKN,BKN,OVC,M,400.00,1099.00,1400.00,M,-SN BR,M,M,M,M,M,M,29.43,SPECI KEKO 300454Z 18004KT 1SM -SN BR BKN004 BKN011 OVC014 01/00 A2971 RMK AO2 RAE39SNB39 P0007 FIBI,M
BVU,2024-03-30 04:55,-114.8611,35.9475,671.00,62.60,17.60,17.32,210.00,9.00,0.00,29.69,M,10.00,M,CLR,M,M,M,M,M,M,M,M,M,M,M,M,M,M,62.60,KBVU 300455Z AUTO 21009KT 10SM CLR 17/M08 A2969 RMK AO2,M
CXP,2024-03-30 04:55,-119.7326,39.1923,1431.00,35.60,33.80,93.08,240.00,3.00,0.01,29.66,M,6.00,M,BKN,OVC,M,M,800.00,2900.00,M,M,-RA BR,M,M,M,M,M,M,32.80,KCXP 300455Z AUTO 24003KT 6SM -RA BR BKN008 OVC029 02/01 A2966 RMK AO2 P0001,M
RNO,2024-03-30 04:55,-119.7711,39.4839,1341.00,38.00,34.00,85.35,170.00,3.00,0.05,29.66,1003.50,9.00,M,OVC,M,M,M,1800.00,M,M,M,-RA,M,M,M,M,M,M,35.55,KRNO 300455Z 17003KT 9SM -RA OVC018 03/01 A2966 RMK AO2 SLP035 P0005 T00330011 $,M
RTS,2024-03-30 04:55,-119.8764,39.6682,1539.00,33.80,32.00,93.03,100.00,4.00,0.03,29.65,M,2.50,M,OVC,M,M,M,400.00,M,M,M,-SN,M,M,M,M,M,M,29.52,KRTS 300455Z AUTO 10004KT 2 1/2SM -SN OVC004 01/00 A2965 RMK AO2 P0003,M
MEV,2024-03-30 04:55,-119.7500,38.9963,1441.42,35.60,33.80,93.08,0.00,0.00,0.02,29.65,M,9.00,M,OVC,M,M,M,700.00,M,M,M,UP,M,M,M,M,M,M,35.60,KMEV 300455Z AUTO 00000KT 9SM UP OVC007 02/01 A2965 RMK AO2 P0002,M
HTH,2024-03-30 04:55,-118.6315,38.5448,1282.89,50.00,24.80,37.08,100.00,9.00,0.00,29.60,M,10.00,M,BKN,OVC,M,M,5000.00,6000.00,M,M,M,M,M,M,M,M,M,50.00,KHTH 300455Z AUTO 10009KT 10SM BKN050 OVC060 10/M04 A2960 RMK A01,M
TMT,2024-03-30 04:55,-117.1971,39.4643,1749.34,31.00,29.30,93.32,180.00,4.00,0.00,29.67,M,10.00,M,SCT,SCT,M,M,5500.00,7000.00,M,M,M,M,M,M,M,M,M,26.25,KTMT 300455Z AUTO 18004KT 10SM SCT055 SCT070 00/M01 A2967 RMK AO2 T10051015,M
10U,2024-03-30 04:55,-116.1876,41.9532,1637.00,37.40,32.00,80.65,130.00,10.00,0.00,29.71,M,10.00,M,BKN,OVC,M,M,3600.00,4300.00,M,M,M,M,M,M,M,M,M,29.74,K10U 300455Z AUTO 13010KT 10SM BKN036 OVC043 03/M00 A2971 RMK AO2,M
INS,2024-03-30 04:55,-115.6733,36.5872,955.00,58.00,20.30,22.90,260.00,8.00,0.00,29.66,M,10.00,M,OVC,M,M,M,11000.00,M,M,M,M,M,M,M,M,M,M,58.00,KINS 300455Z AUTO 26008KT 10SM OVC110 14/M06 A2966 RMK AO2 SLPNO T01441065 $,M
LSV,2024-03-30 04:55,-115.0343,36.2362,570.00,64.00,22.00,19.89,220.00,9.00,0.00,29.65,M,10.00,M,BKN,M,M,M,13000.00,M,M,M,M,M,M,M,M,M,M,64.00,KLSV 300455Z AUTO 22009KT 10SM BKN130 18/M05 A2965 RMK AO2 SLPNO T01781055,M
EKO,2024-03-30 04:56,-115.7860,40.8242,1367.00,33.00,32.00,96.06,180.00,3.00,0.08,29.71,1006.00,1.00,M,SCT,BKN,OVC,M,400.00,900.00,1400.00,M,-SN BR,M,M,M,M,M,M,29.83,KEKO 300456Z AUTO 18003KT 1SM -SN BR SCT004 BKN009 OVC014 01/00 A2971 RMK AO2 RAE39SNB39 SLP060 P0008 T00060000,M
WMC,2024-03-30 04:56,-117.8072,40.9019,1315.00,33.00,28.00,81.63,320.00,4.00,0.00,29.69,1005.00,10.00,M,CLR,M,M,M,M,M,M,M,M,M,M,M,M,M,M,28.59,KWMC 300456Z AUTO 32004KT 10SM CLR 01/M02 A2969 RMK AO2 SLP050 T00061022,M
NFL,2024-03-30 04:56,-118.7010,39.4166,1199.00,46.00,30.00,53.37,20.00,9.00,T,29.63,1001.70,10.00,M,FEW,BKN,OVC,M,3000.00,5000.00,7000.00,M,M,M,M,M,M,M,M,40.92,KNFL 300456Z 02009KT 10SM FEW030 BKN050 OVC070 08/M01 A2963 RMK AO2 RAE27 SLP017 SH VC ALQDS P0000 T00781011,M
HND,2024-03-30 04:56,-115.1344,35.9729,742.79,61.00,24.00,24.05,190.00,8.00,0.00,29.73,1007.00,10.00,M,CLR,M,M,M,M,M,M,M,M,M,M,M,M,M,M,61.00,KHND 300456Z AUTO 19008KT 10SM CLR 16/M04 A2973 RMK AO2 SLP070 T01611044,M
TPH,2024-03-30 04:56,-117.0904,38.0505,1654.00,44.00,19.00,36.39,170.00,16.00,0.00,29.66,1001.90,10.00,M,CLR,M,M,M,M,M,M,M,M,M,M,M,26.00,150.00,2024-03-30 04:23,36.06,KTPH 300456Z AUTO 17016KT 10SM CLR 07/M07 A2966 RMK AO2 PK WND 15026/0423 SLP019 T00671072,M
LAS,2024-03-30 04:56,-115.1634,36.0719,663.00,62.00,24.00,23.21,200.00,10.00,0.00,29.68,1003.70,10.00,18.00,SCT,SCT,OVC,M,10000.00,14000.00,22000.00,M,M,M,M,M,26.00,240.00,2024-03-30 04:22,62.00,KLAS 300456Z 20010G18KT 10SM SCT100 SCT140 OVC220 17/M04 A2968 RMK AO2 PK WND 24026/0422 SLP037 T01671044,M
EKO,2024-03-30 05:07,-115.7860,40.8242,1367.00,33.00,32.00,96.06,0.00,0.00,0.03,29.70,M,1.50,M,SCT,BKN,OVC,M,400.00,1000.00,2500.00,M,-SN BR,M,M,M,M,M,M,33.00,KEKO 300507Z AUTO 00000KT 1 1/2SM -SN BR SCT004 BKN010 OVC025 01/00 A2970 RMK AO2 P0003 T00060000,M
05U,2024-03-30 05:10,-116.0051,39.6042,1811.23,M,M,M,0.00,0.00,0.00,29.69,M,10.00,M,BKN,OVC,M,M,6000.00,7000.00,M,M,M,M,M,M,M,M,M,M,K05U 300510Z AUTO 00000KT 10SM BKN060 OVC070 A2969 RMK A01,M
BAM,2024-03-30 05:10,-116.8743,40.5990,1382.36,41.00,37.40,86.89,0.00,0.00,0.00,29.71,M,10.00,M,OVC,M,M,M,2000.00,M,M,M,M,M,M,M,M,M,M,41.00,KBAM 300510Z AUTO 00000KT 10SM OVC020 05/03 A2971 RMK AO1,M
EKO,2024-03-30 05:12,-115.7860,40.8242,1367.00,33.00,32.00,96.06,0.00,0.00,0.03,29.70,M,3.00,M,FEW,BKN,OVC,M,300.00,1000.00,2300.00,M,-SN BR,M,M,M,M,M,M,33.00,KEKO 300512Z AUTO 00000KT 3SM -SN BR FEW003 BKN010 OVC023 01/00 A2970 RMK AO2 P0003 T00060000,M
BVU,2024-03-30 05:15,-114.8611,35.9475,671.00,64.40,19.40,17.56,200.00,16.00,0.00,29.69,M,10.00,23.00,SCT,M,M,M,12000.00,M,M,M,M,M,M,M,M,M,M,64.40,KBVU 300515Z AUTO 20016G23KT 10SM SCT120 18/M07 A2969 RMK AO2,M
CXP,2024-03-30 05:15,-119.7326,39.1923,1431.00,35.60,33.80,93.08,0.00,0.00,0.00,29.66,M,6.00,M,BKN,OVC,M,M,700.00,2900.00,M,M,UP BR,M,M,M,M,M,M,35.60,KCXP 300515Z AUTO 00000KT 6SM UP BR BKN007 OVC029 02/01 A2966 RMK AO2,M
RTS,2024-03-30 05:15,-119.8764,39.6682,1539.00,32.00,32.00,100.00,120.00,3.00,0.00,29.65,M,3.00,M,BKN,M,M,M,600.00,M,M,M,-SN,M,M,M,M,M,M,28.69,KRTS 300515Z AUTO 12003KT 3SM -SN BKN006 00/00 A2965 RMK AO2,M
MEV,2024-03-30 05:15,-119.7500,38.9963,1441.42,33.80,32.00,93.03,0.00,0.00,0.00,29.64,M,5.00,M,OVC,M,M,M,700.00,M,M,M,-SN BR,M,M,M,M,M,M,33.80,KMEV 300515Z AUTO 00000KT 5SM -SN BR OVC007 01/00 A2964 RMK AO2,M
HTH,2024-03-30 05:15,-118.6315,38.5448,1282.89,50.00,24.80,37.08,130.00,4.00,0.00,29.60,M,10.00,M,BKN,BKN,OVC,M,5000.00,7500.00,12000.00,M,M,M,M,M,M,M,M,50.00,KHTH 300515Z AUTO 13004KT 10SM BKN050 BKN075 OVC120 10/M04 A2960 RMK A01,M
TMT,2024-03-30 05:15,-117.1971,39.4643,1749.34,31.50,30.00,94.10,310.00,3.00,0.00,29.68,M,10.00,M,SCT,BKN,M,M,6000.00,7000.00,M,M,M,M,M,M,M,M,M,28.12,KTMT 300515Z AUTO 31003KT 10SM SCT060 BKN070 00/M01 A2968 RMK AO2 T10031011,M
10U,2024-03-30 05:15,-116.1876,41.9532,1637.00,37.40,32.00,80.65,140.00,6.00,0.00,29.71,M,10.00,M,BKN,OVC,M,M,3400.00,4100.00,M,M,M,M,M,M,M,M,M,32.03,K10U 300515Z AUTO 14006KT 10SM BKN034 OVC041 03/00 A2971 RMK AO2,M
EKO,2024-03-30 05:20,-115.7860,40.8242,1367.00,33.00,32.00,96.06,0.00,0.00,0.03,29.70,M,6.00,M,FEW,SCT,OVC,M,300.00,1600.00,2300.00,M,-SN BR,M,M,M,M,M,M,33.00,KEKO 300520Z AUTO 00000KT 6SM -SN BR FEW003 SCT016 OVC023 01/00 A2970 RMK AO2 P0003 T00060000,M
05U,2024-03-30 05:30,-116.0051,39.6042,1811.23,M,M,M,0.00,0.00,0.00,29.69,M,10.00,M,OVC,M,M,M,6500.00,M,M,M,M,M,M,M,M,M,M,M,K05U 300530Z AUTO 00000KT 10SM OVC065 A2969 RMK A01,M
BAM,2024-03-30 05:30,-116.8743,40.5990,1382.36,41.00,37.40,86.89,320.00,3.00,0.00,29.70,M,10.00,M,OVC,M,M,M,2000.00,M,M,M,M,M,M,M,M,M,M,38.98,KBAM 300530Z AUTO 32003KT 10SM OVC020 05/03 A2970 RMK AO1,M
BVU,2024-03-30 05:35,-114.8611,35.9475,671.00,62.60,19.40,18.71,200.00,13.00,0.00,29.69,M,10.00,20.00,FEW,M,M,M,12000.00,M,M,M,M,M,M,M,M,M,M,62.60,KBVU 300535Z AUTO 20013G20KT 10SM FEW120 17/M07 A2969 RMK AO2,M
CXP,2024-03-30 05:35,-119.7326,39.1923,1431.00,35.60,33.80,93.08,0.00,0.00,0.00,29.66,M,6.00,M,SCT,BKN,M,M,600.00,2900.00,M,M,UP BR,M,M,M,M,M,M,35.60,KCXP 300535Z AUTO 00000KT 6SM UP BR SCT006 BKN029 02/01 A2966 RMK AO2,M
RTS,2024-03-30 05:35,-119.8764,39.6682,1539.00,32.00,32.00,100.00,120.00,4.00,0.00,29.65,M,1.50,M,BKN,OVC,M,M,200.00,700.00,M,M,-SN,M,M,M,M,M,M,27.42,KRTS 300535Z AUTO 12004KT 1 1/2SM -SN BKN002 OVC007 00/00 A2965 RMK AO2,M
MEV,2024-03-30 05:35,-119.7500,38.9963,1441.42,33.80,32.00,93.03,240.00,4.00,0.00,29.65,M,3.00,M,OVC,M,M,M,500.00,M,M,M,-SN BR,M,M,M,M,M,M,29.52,KMEV 300535Z AUTO 24004KT 3SM -SN BR OVC005 01/00 A2965 RMK AO2,M
HTH,2024-03-30 05:35,-118.6315,38.5448,1282.89,48.20,24.80,39.66,120.00,4.00,0.00,29.60,M,10.00,M,FEW,BKN,OVC,M,5500.00,8000.00,12000.00,M,M,M,M,M,M,M,M,46.34,KHTH 300535Z AUTO 12004KT 10SM FEW055 BKN080 OVC120 09/M04 A2960 RMK A01,M
TMT,2024-03-30 05:35,-117.1971,39.4643,1749.34,32.00,30.60,94.50,20.00,4.00,0.00,29.67,M,10.00,M,BKN,M,M,M,6000.00,M,M,M,M,M,M,M,M,M,M,27.42,KTMT 300535Z AUTO 02004KT 10SM BKN060 00/M01 A2967 RMK AO2 T10011008,M
10U,2024-03-30 05:35,-116.1876,41.9532,1637.00,35.60,32.00,86.59,120.00,4.00,0.00,29.70,M,10.00,M,FEW,BKN,M,M,500.00,3100.00,M,M,UP,M,M,M,M,M,M,31.62,K10U 300535Z AUTO 12004KT 10SM UP FEW005 BKN031 02/00 A2970 RMK AO2,M
RNO,2024-03-30 05:39,-119.7711,39.4839,1341.00,37.00,33.00,85.29,0.00,0.00,0.05,29.64,M,9.00,M,OVC,M,M,M,1300.00,M,M,M,-RA,M,M,M,M,M,M,37.00,KRNO 300539Z 00000KT 9SM -RA OVC013 03/01 A2964 RMK AO2 P0005 T00280006 $,M
EKO,2024-03-30 05:42,-115.7860,40.8242,1367.00,33.00,32.00,96.06,30.00,4.00,0.06,29.69,M,2.00,M,BKN,OVC,M,M,1600.00,2300.00,M,M,-SN BR,M,M,M,M,M,M,28.59,KEKO 300542Z AUTO 03004KT 2SM -SN BR BKN016 OVC023 01/00 A2969 RMK AO2 VIS 1 1/4V3 P0006 T00060000,M
EKO,2024-03-30 05:47,-115.7860,40.8242,1367.00,33.00,32.00,96.06,60.00,3.00,0.07,29.70,M,3.00,M,FEW,SCT,OVC,M,300.00,700.00,1800.00,M,-SN BR,M,M,M,M,M,M,29.83,KEKO 300547Z AUTO 06003KT 3SM -SN BR FEW003 SCT007 OVC018 01/00 A2970 RMK AO2 P0007 T00060000,M
05U,2024-03-30 05:50,-116.0051,39.6042,1811.23,M,M,M,60.00,3.00,0.00,29.69,M,10.00,M,BKN,OVC,M,M,6500.00,7500.00,M,M,M,M,M,M,M,M,M,M,K05U 300550Z AUTO 06003KT 10SM BKN065 OVC075 A2969 RMK A01,M
BAM,2024-03-30 05:50,-116.8743,40.5990,1382.36,39.20,37.40,93.19,20.00,3.00,0.00,29.69,M,10.00,M,SCT,SCT,OVC,M,2000.00,4800.00,9000.00,M,M,M,M,M,M,M,M,36.92,KBAM 300550Z AUTO 02003KT 10SM SCT020 SCT048 OVC090 04/03 A2969 RMK AO1,M
P68,2024-03-30 05:53,-116.0056,39.6014,1993.00,31.00,26.00,81.48,260.00,5.00,0.00,29.67,1002.60,M,M,M,M,M,M,M,M,M,M,M,M,M,M,M,M,M,25.21,KP68 300553Z AUTO 26005KT M01/M03 A2967 RMK AO1 SLP026 T10061033 10072 21006 56001,M
DRA,2024-03-30 05:53,-116.0278,36.6206,1009.00,54.00,28.00,36.52,200.00,15.00,0.00,29.68,1002.40,10.00,23.00,OVC,M,M,M,10000.00,M,M,M,M,M,M,M,M,M,M,54.00,KDRA 300553Z AUTO 20015G23KT 10SM OVC100 12/M02 A2968 RMK AO2 SLP024 T01221022 10161 20122 51003,M
ELY,2024-03-30 05:53,-114.8453,39.2950,1909.00,37.00,27.00,66.82,170.00,14.00,0.00,29.72,1003.60,10.00,23.00,FEW,M,M,M,6500.00,M,M,M,M,M,M,M,27.00,160.00,2024-03-30 05:43,27.61,KELY 300553Z AUTO 17014G23KT 10SM FEW065 03/M03 A2972 RMK AO2 PK WND 16027/0543 SLP036 60001 T00281028 10039 20022 51002,M
VGT,2024-03-30 05:53,-115.1933,36.2111,667.00,64.00,23.00,20.75,160.00,4.00,0.00,29.68,1005.60,10.00,M,CLR,M,M,M,M,M,M,M,M,M,M,M,M,M,M,64.00,KVGT 300553Z AUTO 16004KT 10SM CLR 18/M05 A2968 RMK AO2 SLP056 T01781050 10222 20172 51011,M
LOL,2024-03-30 05:53,-118.5701,40.0684,1192.43,40.00,33.00,75.84,30.00,16.00,0.00,29.64,1003.50,10.00,22.00,BKN,OVC,M,M,6500.00,8000.00,M,M,M,M,M,M,M,M,M,30.85,KLOL 300553Z AUTO 03016G22KT 10SM BKN065 OVC080 04/01 A2964 RMK AO2 SLP035 T00440006 10100 20044 58002,M
BVU,2024-03-30 05:55,-114.8611,35.9475,671.00,62.60,21.20,20.20,190.00,13.00,0.00,29.70,M,10.00,M,CLR,M,M,M,M,M,M,M,M,M,M,M,M,M,M,62.60,KBVU 300555Z AUTO 19013KT 10SM CLR 17/M06 A2970 RMK AO2,M
CXP,2024-03-30 05:55,-119.7326,39.1923,1431.00,35.60,33.80,93.08,0.00,0.00,0.04,29.66,M,6.00,M,FEW,BKN,M,M,600.00,1600.00,M,M,UP BR,M,M,M,M,M,M,35.60,KCXP 300555Z AUTO 00000KT 6SM UP BR FEW006 BKN016 02/01 A2966 RMK AO2 P0004,M
RNO,2024-03-30 05:55,-119.7711,39.4839,1341.00,36.00,33.00,88.73,0.00,0.00,0.07,29.64,1003.00,8.00,M,OVC,M,M,M,1300.00,M,M,M,RA,M,M,M,M,M,M,36.00,KRNO 300555Z 00000KT 8SM RA OVC013 02/01 A2964 RMK AO2 SLP030 P0007 60016 T00220006 10089 20022 58001 $,M
RTS,2024-03-30 05:55,-119.8764,39.6682,1539.00,32.00,32.00,100.00,110.00,4.00,0.02,29.64,M,1.25,M,OVC,M,M,M,200.00,M,M,M,-SN,M,M,M,M,M,M,27.42,KRTS 300555Z AUTO 11004KT 1 1/4SM -SN OVC002 00/00 A2964 RMK AO2 P0002,M
MEV,2024-03-30 05:55,-119.7500,38.9963,1441.42,32.00,32.00,100.00,0.00,0.00,0.03,29.64,M,2.00,M,OVC,M,M,M,600.00,M,M,M,-SN BR,M,M,M,M,M,M,32.00,KMEV 300555Z AUTO 00000KT 2SM -SN BR OVC006 00/M00 A2964 RMK AO2 P0003,M
HTH,2024-03-30 05:55,-118.6315,38.5448,1282.89,48.20,26.60,42.73,110.00,8.00,0.00,29.60,M,10.00,M,BKN,OVC,M,M,6500.00,8000.00,M,M,M,M,M,M,M,M,M,44.07,KHTH 300555Z AUTO 11008KT 10SM BKN065 OVC080 09/M03 A2960 RMK A01,M
TMT,2024-03-30 05:55,-117.1971,39.4643,1749.34,30.00,28.60,94.45,80.00,6.00,0.00,29.67,M,10.00,M,SCT,M,M,M,6500.00,M,M,M,M,M,M,M,M,M,M,23.12,KTMT 300555Z AUTO 08006KT 10SM SCT065 M01/M02 A2967 RMK AO2 T10121019 10080 21012,M
10U,2024-03-30 05:55,-116.1876,41.9532,1637.00,35.60,33.80,93.08,0.00,0.00,0.00,29.70,M,10.00,M,FEW,SCT,BKN,M,500.00,2300.00,3100.00,M,-RA,M,M,M,M,M,M,35.60,K10U 300555Z AUTO 00000KT 10SM -RA FEW005 SCT023 BKN031 02/01 A2970 RMK AO2,M
INS,2024-03-30 05:55,-115.6733,36.5872,955.00,58.00,20.30,22.90,100.00,4.00,0.00,29.66,1001.50,10.00,M,SCT,OVC,M,M,9000.00,11000.00,M,M,M,M,M,M,M,M,M,58.00,KINS 300555Z AUTO 10004KT 10SM SCT090 OVC110 14/M06 A2966 RMK AO2 SLP015 T01441065 10180 20138 55002 $,M
LSV,2024-03-30 05:55,-115.0343,36.2362,570.00,63.50,23.00,21.11,190.00,5.00,0.00,29.66,1003.00,10.00,M,BKN,M,M,M,13000.00,M,M,M,M,M,M,M,M,M,M,63.50,KLSV 300555Z AUTO 19005KT 10SM BKN130 18/M05 A2966 RMK AO2 SLP030 T01751051 10223 20175 52011,M
EKO,2024-03-30 05:56,-115.7860,40.8242,1367.00,34.00,32.00,92.29,0.00,0.00,0.07,29.69,1004.90,10.00,M,FEW,SCT,OVC,M,300.00,1500.00,2200.00,M,M,M,M,M,M,M,M,34.00,KEKO 300556Z AUTO 00000KT 10SM FEW003 SCT015 OVC022 01/00 A2969 RMK AO2 RAB51E54SNE55 SLP049 P0007 60031 T00110000 10094 20006 58002,M
WMC,2024-03-30 05:56,-117.8072,40.9019,1315.00,37.00,33.00,85.29,70.00,9.00,0.00,29.67,1004.20,10.00,M,CLR,M,M,M,M,M,M,M,M,M,M,M,M,M,M,29.73,KWMC 300556Z AUTO 07009KT 10SM CLR 03/01 A2967 RMK AO2 SLP042 60000 T00280006 10089 20000 58003,M
NFL,2024-03-30 05:56,-118.7010,39.4166,1199.00,45.00,32.00,60.11,0.00,0.00,0.00,29.63,1001.90,10.00,M,SCT,BKN,OVC,M,3500.00,5000.00,7000.00,M,M,M,M,M,M,M,M,45.00,KNFL 300556Z 00000KT 10SM SCT035 BKN050 OVC070 07/00 A2963 RMK AO2 SLP019 SH VC ALQDS 60000 T00720000 10122 20072 51006,M
HND,2024-03-30 05:56,-115.1344,35.9729,742.79,60.00,23.00,23.90,190.00,12.00,0.00,29.71,1006.40,10.00,M,CLR,M,M,M,M,M,M,M,M,M,M,M,M,M,M,60.00,KHND 300556Z AUTO 19012KT 10SM CLR 16/M05 A2971 RMK AO2 SLP064 T01561050 10211 20156 50008,M
TPH,2024-03-30 05:56,-117.0904,38.0505,1654.00,43.00,20.00,39.46,130.00,8.00,0.00,29.66,1001.90,10.00,M,SCT,OVC,M,M,6500.00,9500.00,M,M,M,M,M,M,M,M,M,37.66,KTPH 300556Z AUTO 13008KT 10SM SCT065 OVC095 06/M07 A2966 RMK AO2 SLP019 T00611067 10106 20061 58001,M
LAS,2024-03-30 05:56,-115.1634,36.0719,663.00,61.00,24.00,24.05,180.00,6.00,0.00,29.69,1004.00,10.00,M,SCT,BKN,OVC,M,10000.00,14000.00,22000.00,M,M,M,M,M,M,M,M,61.00,KLAS 300556Z 18006KT 10SM SCT100 BKN140 OVC220 16/M04 A2969 RMK AO2 SLP040 T01611044 10206 20161 51012,M
EKO,2024-03-30 06:10,-115.7860,40.8242,1367.00,34.00,32.00,92.29,90.00,5.00,0.00,29.69,M,10.00,M,BKN,BKN,OVC,M,300.00,1400.00,7500.00,M,M,M,M,M,M,M,M,28.77,KEKO 300610Z AUTO 09005KT 10SM BKN003 BKN014 OVC075 01/00 A2969 RMK AO2 T00110000,M
05U,2024-03-30 06:10,-116.0051,39.6042,1811.23,M,M,M,0.00,0.00,0.00,29.69,M,10.00,M,BKN,M,M,M,7000.00,M,M,M,M,M,M,M,M,M,M,M,K05U 300610Z AUTO 00000KT 10SM BKN070 A2969 RMK A01,M
BAM,2024-03-30 06:10,-116.8743,40.5990,1382.36,37.40,37.40,100.00,70.00,5.00,0.00,29.69,M,10.00,M,OVC,M,M,M,9000.00,M,M,M,M,M,M,M,M,M,M,32.81,KBAM 300610Z AUTO 07005KT 10SM OVC090 03/03 A2969 RMK AO1,M
BVU,2024-03-30 06:15,-114.8611,35.9475,671.00,62.60,19.40,18.71,180.00,14.00,0.00,29.70,M,10.00,20.00,FEW,M,M,M,12000.00,M,M,M,M,M,M,M,M,M,M,62.60,KBVU 300615Z AUTO 18014G20KT 10SM FEW120 17/M07 A2970 RMK AO2,M
CXP,2024-03-30 06:15,-119.7326,39.1923,1431.00,35.60,33.80,93.08,0.00,0.00,0.00,29.66,M,5.00,M,SCT,OVC,M,M,500.00,1400.00,M,M,-RA BR,M,M,M,M,M,M,35.60,KCXP 300615Z AUTO 00000KT 5SM -RA BR SCT005 OVC014 02/01 A2966 RMK AO2,M
RTS,2024-03-30 06:15,-119.8764,39.6682,1539.00,32.00,32.00,100.00,120.00,3.00,0.00,29.64,M,1.25,M,OVC,M,M,M,200.00,M,M,M,-SN,M,M,M,M,M,M,28.69,KRTS 300615Z AUTO 12003KT 1 1/4SM -SN OVC002 00/00 A2964 RMK AO2,M
MEV,2024-03-30 06:15,-119.7500,38.9963,1441.42,32.00,32.00,100.00,0.00,0.00,0.00,29.65,M,1.75,M,OVC,M,M,M,500.00,M,M,M,-SN BR,M,M,M,M,M,M,32.00,KMEV 300615Z AUTO 00000KT 1 3/4SM -SN BR OVC005 00/M00 A2965 RMK AO2,M
HTH,2024-03-30 06:15,-118.6315,38.5448,1282.89,46.40,32.00,57.00,310.00,14.00,0.00,29.61,M,10.00,21.00,BKN,OVC,M,M,6000.00,7000.00,M,M,M,M,M,M,M,M,M,39.72,KHTH 300615Z AUTO 31014G21KT 10SM BKN060 OVC070 08/00 A2961 RMK A01,M
TMT,2024-03-30 06:15,-117.1971,39.4643,1749.34,30.00,29.00,96.00,60.00,3.00,0.00,29.66,M,10.00,M,CLR,M,M,M,M,M,M,M,M,M,M,M,M,M,M,26.40,KTMT 300615Z AUTO 06003KT 10SM CLR M01/M02 A2966 RMK AO2 T10121017,M
10U,2024-03-30 06:15,-116.1876,41.9532,1637.00,35.60,32.00,86.59,0.00,0.00,0.00,29.70,M,10.00,M,SCT,BKN,OVC,M,2500.00,3000.00,4300.00,M,M,M,M,M,M,M,M,35.60,K10U 300615Z AUTO 00000KT 10SM SCT025 BKN030 OVC043 02/00 A2970 RMK AO2,M
RNO,2024-03-30 06:22,-119.7711,39.4839,1341.00,35.00,32.00,88.68,0.00,0.00,0.04,29.64,M,2.50,M,FEW,OVC,M,M,800.00,1500.00,M,M,-SN BR,M,M,M,M,M,M,35.00,KRNO 300622Z 00000KT 2 1/2SM R17R/3500VP6000FT -SN BR FEW008 OVC015 02/00 A2964 RMK AO2 RAE22SNB22 P0004 T00170000 $,M
05U,2024-03-30 06:30,-116.0051,39.6042,1811.23,M,M,M,0.00,0.00,0.00,29.69,M,10.00,M,BKN,M,M,M,7000.00,M,M,M,M,M,M,M,M,M,M,M,K05U 300630Z AUTO 00000KT 10SM BKN070 A2969 RMK A01,M
BAM,2024-03-30 06:30,-116.8743,40.5990,1382.36,37.40,35.60,93.14,80.00,4.00,0.00,29.69,M,10.00,M,BKN,M,M,M,9000.00,M,M,M,M,M,M,M,M,M,M,33.73,KBAM 300630Z AUTO 08004KT 10SM BKN090 03/02 A2969 RMK AO1,M
BVU,2024-03-30 06:35,-114.8611,35.9475,671.00,62.60,17.60,17.32,170.00,14.00,0.00,29.69,M,10.00,M,FEW,M,M,M,12000.00,M,M,M,M,M,M,M,M,M,M,62.60,KBVU 300635Z AUTO 17014KT 10SM FEW120 17/M08 A2969 RMK AO2,M
CXP,2024-03-30 06:35,-119.7326,39.1923,1431.00,33.80,32.00,93.03,0.00,0.00,0.00,29.66,M,3.00,M,BKN,BKN,BKN,M,500.00,1100.00,1600.00,M,-SN BR,M,M,M,M,M,M,33.80,KCXP 300635Z AUTO 00000KT 3SM -SN BR BKN005 BKN011 BKN016 01/00 A2966 RMK AO2,M
RTS,2024-03-30 06:35,-119.8764,39.6682,1539.00,32.00,32.00,100.00,150.00,3.00,0.00,29.65,M,1.00,M,OVC,M,M,M,200.00,M,M,M,-SN,M,M,M,M,M,M,28.69,KRTS 300635Z AUTO 15003KT 1SM -SN OVC002 00/00 A2965 RMK AO2,M
MEV,2024-03-30 06:35,-119.7500,38.9963,1441.42,32.00,32.00,100.00,0.00,0.00,0.00,29.64,M,2.00,M,BKN,OVC,M,M,500.00,1300.00,M,M,-SN BR,M,M,M,M,M,M,32.00,KMEV 300635Z AUTO 00000KT 2SM -SN BR BKN005 OVC013 00/M00 A2964 RMK AO2,M
HTH,2024-03-30 06:35,-118.6315,38.5448,1282.89,44.60,33.80,65.61,330.00,19.00,0.00,29.61,M,10.00,26.00,OVC,M,M,M,6000.00,M,M,M,M,M,M,M,M,M,M,36.10,KHTH 300635Z AUTO 33019G26KT 10SM OVC060 07/01 A2961 RMK A01,M
TMT,2024-03-30 06:35,-117.1971,39.4643,1749.34,29.00,28.80,99.19,40.00,5.00,0.00,29.66,M,10.00,M,CLR,M,M,M,M,M,M,M,M,M,M,M,M,M,M,22.83,KTMT 300635Z AUTO 04005KT 10SM CLR M02/M02 A2966 RMK AO2 T10161018,M
10U,2024-03-30 06:35,-116.1876,41.9532,1637.00,35.60,33.80,93.08,0.00,0.00,0.00,29.70,M,10.00,M,OVC,M,M,M,3000.00,M,M,M,M,M,M,M,M,M,M,35.60,K10U 300635Z AUTO 00000KT 10SM OVC030 02/01 A2970 RMK AO2,M
05U,2024-03-30 06:50,-116.0051,39.6042,1811.23,M,M,M,0.00,0.00,0.00,29.69,M,10.00,M,FEW,SCT,BKN,M,5500.00,7000.00,7500.00,M,M,M,M,M,M,M,M,M,K05U 300650Z AUTO 00000KT 10SM FEW055 SCT070 BKN075 A2969 RMK A01,M
BAM,2024-03-30 06:50,-116.8743,40.5990,1382.36,37.40,35.60,93.14,60.00,4.00,0.00,29.69,M,10.00,M,BKN,M,M,M,8000.00,M,M,M,M,M,M,M,M,M,M,33.73,KBAM 300650Z AUTO 06004KT 10SM BKN080 03/02 A2969 RMK AO1,M
P68,2024-03-30 06:53,-116.0056,39.6014,1993.00,30.00,27.00,88.44,0.00,0.00,0.00,29.66,1002.50,M,M,M,M,M,M,M,M,M,M,M,M,M,M,M,M,M,30.00,KP68 300653Z AUTO 00000KT M01/M03 A2966 RMK AO1 SLP025 T10111028,M
DRA,2024-03-30 06:53,-116.0278,36.6206,1009.00,53.00,28.00,37.88,230.00,11.00,0.00,29.68,1002.30,10.00,23.00,OVC,M,M,M,9000.00,M,M,M,M,M,M,M,28.00,200.00,2024-03-30 06:03,53.00,KDRA 300653Z AUTO 23011G23KT 10SM OVC090 12/M02 A2968 RMK AO2 PK WND 20028/0603 SLP023 T01171022,M
ELY,2024-03-30 06:53,-114.8453,39.2950,1909.00,34.00,30.00,85.11,160.00,13.00,0.00,29.73,1004.10,10.00,25.00,SCT,SCT,M,M,4000.00,12000.00,M,M,M,M,M,M,28.00,150.00,2024-03-30 05:56,24.13,KELY 300653Z AUTO 16013G25KT 10SM SCT040 SCT120 01/M01 A2973 RMK AO2 PK WND 15028/0556 SLP041 T00111011,M
VGT,2024-03-30 06:53,-115.1933,36.2111,667.00,63.00,25.00,23.36,170.00,10.00,0.00,29.68,1005.30,10.00,M,CLR,M,M,M,M,M,M,M,M,M,M,M,M,M,M,63.00,KVGT 300653Z AUTO 17010KT 10SM CLR 17/M04 A2968 RMK AO2 SLP053 T01721039,M
LOL,2024-03-30 06:53,-118.5701,40.0684,1192.43,40.00,33.00,75.84,30.00,12.00,0.00,29.64,1003.50,10.00,M,OVC,M,M,M,5500.00,M,M,M,M,M,M,M,M,M,M,32.18,KLOL 300653Z AUTO 03012KT 10SM OVC055 04/01 A2964 RMK AO2 SLP035 T00440006,M
BVU,2024-03-30 06:55,-114.8611,35.9475,671.00,62.60,17.60,17.32,180.00,13.00,0.00,29.69,M,10.00,M,CLR,M,M,M,M,M,M,M,M,M,M,M,M,M,M,62.60,KBVU 300655Z AUTO 18013KT 10SM CLR 17/M08 A2969 RMK AO2,M
CXP,2024-03-30 06:55,-119.7326,39.1923,1431.00,33.80,32.00,93.03,0.00,0.00,0.04,29.66,M,4.00,M,FEW,BKN,M,M,400.00,1200.00,M,M,-SN BR,M,M,M,M,M,M,33.80,KCXP 300655Z AUTO 00000KT 4SM -SN BR FEW004 BKN012 01/00 A2966 RMK AO2 P0004,M
RNO,2024-03-30 06:55,-119.7711,39.4839,1341.00,34.00,32.00,92.29,0.00,0.00,0.11,29.65,1003.30,1.00,M,SCT,OVC,M,M,500.00,1100.00,M,M,-SN BR,M,M,M,M,M,M,34.00,KRNO 300655Z 00000KT 1SM R17R/P6000FT -SN BR SCT005 OVC011 01/00 A2965 RMK AO2 RAE22SNB22 SLP033 P0011 T00110000 $,M
RTS,2024-03-30 06:55,-119.8764,39.6682,1539.00,32.00,32.00,100.00,0.00,0.00,0.00,29.65,M,1.25,M,OVC,M,M,M,200.00,M,M,M,-SN,M,M,M,M,M,M,32.00,KRTS 300655Z AUTO 00000KT 1 1/4SM -SN OVC002 00/00 A2965 RMK AO2,M
MEV,2024-03-30 06:55,-119.7500,38.9963,1441.42,32.00,32.00,100.00,0.00,0.00,0.03,29.64,M,2.00,M,OVC,M,M,M,400.00,M,M,M,-SN BR,M,M,M,M,M,M,32.00,KMEV 300655Z AUTO 00000KT 2SM -SN BR OVC004 00/00 A2964 RMK AO2 P0003,M
HTH,2024-03-30 06:55,-118.6315,38.5448,1282.89,42.80,33.80,70.28,330.00,12.00,0.00,29.61,M,10.00,17.00,BKN,OVC,M,M,5500.00,7000.00,M,M,M,M,M,M,M,M,M,35.75,KHTH 300655Z AUTO 33012G17KT 10SM BKN055 OVC070 06/01 A2961 RMK A01,M
TMT,2024-03-30 06:55,-117.1971,39.4643,1749.34,29.00,28.80,99.19,320.00,3.00,0.00,29.66,M,10.00,M,CLR,M,M,M,M,M,M,M,M,M,M,M,M,M,M,25.26,KTMT 300655Z AUTO 32003KT 10SM CLR M02/M02 A2966 RMK AO2 T10161018,M
10U,2024-03-30 06:55,-116.1876,41.9532,1637.00,35.60,32.00,86.59,310.00,6.00,0.00,29.70,M,10.00,M,FEW,OVC,M,M,1200.00,2800.00,M,M,M,M,M,M,M,M,M,29.87,K10U 300655Z AUTO 31006KT 10SM FEW012 OVC028 02/00 A2970 RMK AO2,M
INS,2024-03-30 06:55,-115.6733,36.5872,955.00,59.50,18.30,19.92,60.00,6.00,0.00,29.66,1001.30,10.00,M,OVC,M,M,M,12000.00,M,M,M,M,M,M,M,M,M,M,59.50,KINS 300655Z AUTO 06006KT 10SM OVC120 15/M08 A2966 RMK AO2 SLP013 T01531076 $,M
LSV,2024-03-30 06:55,-115.0343,36.2362,570.00,63.00,20.00,18.93,190.00,4.00,0.00,29.66,1002.90,10.00,M,BKN,M,M,M,13000.00,M,M,M,M,M,M,M,M,M,M,63.00,KLSV 300655Z AUTO 19004KT 10SM BKN130 17/M07 A2966 RMK AO2 SLP029 T01731066,M
EKO,2024-03-30 06:56,-115.7860,40.8242,1367.00,34.00,32.00,92.29,70.00,4.00,0.00,29.69,1004.80,10.00,M,BKN,OVC,M,M,300.00,8000.00,M,M,M,M,M,M,M,M,M,29.76,KEKO 300656Z AUTO 07004KT 10SM BKN003 OVC080 01/00 A2969 RMK AO2 SLP048 T00110000,M
WMC,2024-03-30 06:56,-117.8072,40.9019,1315.00,38.00,33.00,82.00,70.00,5.00,0.00,29.66,1003.50,10.00,M,CLR,M,M,M,M,M,M,M,M,M,M,M,M,M,M,33.52,KWMC 300656Z AUTO 07005KT 10SM CLR 03/01 A2966 RMK AO2 SLP035 T00330006,M
NFL,2024-03-30 06:56,-118.7010,39.4166,1199.00,44.00,37.00,76.22,110.00,3.00,T,29.63,1001.80,10.00,M,OVC,M,M,M,3500.00,M,M,M,-RA,M,M,M,M,M,M,42.41,KNFL 300656Z AUTO 11003KT 10SM -RA OVC035 07/03 A2963 RMK AO2 RAB41 SLP018 P0000 T00670028,M
HND,2024-03-30 06:56,-115.1344,35.9729,742.79,59.00,21.00,22.76,210.00,9.00,0.00,29.71,1006.40,10.00,M,CLR,M,M,M,M,M,M,M,M,M,M,M,M,M,M,59.00,KHND 300656Z AUTO 21009KT 10SM CLR 15/M06 A2971 RMK AO2 SLP064 T01501061 402280111,M
TPH,2024-03-30 06:56,-117.0904,38.0505,1654.00,42.00,21.00,42.78,170.00,11.00,0.00,29.65,1001.80,10.00,M,BKN,OVC,M,M,7000.00,9000.00,M,M,M,M,M,M,M,M,M,35.10,KTPH 300656Z AUTO 17011KT 10SM BKN070 OVC090 06/M06 A2965 RMK AO2 SLP018 T00561061,M
LAS,2024-03-30 06:56,-115.1634,36.0719,663.00,59.00,23.00,24.76,220.00,5.00,0.00,29.68,1003.90,10.00,M,FEW,BKN,OVC,M,10000.00,14000.00,22000.00,M,M,M,M,M,M,M,M,59.00,KLAS 300656Z 22005KT 10SM FEW100 BKN140 OVC220 15/M05 A2968 RMK AO2 SLP039 T01501050,M
RNO,2024-03-30 07:01,-119.7711,39.4839,1341.00,34.00,32.00,92.29,0.00,0.00,T,29.65,M,0.75,M,FEW,OVC,M,M,500.00,900.00,M,M,-SN BR,M,M,M,M,M,M,34.00,KRNO 300701Z 00000KT 3/4SM R17R/P6000FT -SN BR FEW005 OVC009 01/00 A2965 RMK AO2 SFC VIS 1 P0000 T00110000 $,M
05U,2024-03-30 07:10,-116.0051,39.6042,1811.23,M,M,M,0.00,0.00,0.00,29.69,M,10.00,M,OVC,M,M,M,7000.00,M,M,M,M,M,M,M,M,M,M,M,K05U 300710Z AUTO 00000KT 10SM OVC070 A2969 RMK A01,M
EKO,2024-03-30 07:11,-115.7860,40.8242,1367.00,34.00,32.00,92.29,100.00,4.00,0.00,29.68,M,10.00,M,SCT,OVC,M,M,300.00,9000.00,M,M,M,M,M,M,M,M,M,29.76,KEKO 300711Z AUTO 10004KT 10SM SCT003 OVC090 01/00 A2968 RMK AO2 T00110000,M
BVU,2024-03-30 07:15,-114.8611,35.9475,671.00,62.60,15.80,16.02,190.00,13.00,0.00,29.69,M,10.00,M,CLR,M,M,M,M,M,M,M,M,M,M,M,M,M,M,62.60,KBVU 300715Z AUTO 19013KT 10SM CLR 17/M09 A2969 RMK AO2,M
CXP,2024-03-30 07:15,-119.7326,39.1923,1431.00,33.80,33.80,100.00,0.00,0.00,0.00,29.65,M,5.00,M,OVC,M,M,M,1100.00,M,M,M,-SN BR,M,M,M,M,M,M,33.80,KCXP 300715Z AUTO 00000KT 5SM -SN BR OVC011 01/01 A2965 RMK AO2,M
RTS,2024-03-30 07:15,-119.8764,39.6682,1539.00,32.00,32.00,100.00,0.00,0.00,0.00,29.65,M,1.25,M,OVC,M,M,M,200.00,M,M,M,-SN,M,M,M,M,M,M,32.00,KRTS 300715Z AUTO 00000KT 1 1/4SM -SN OVC002 00/00 A2965 RMK AO2,M
MEV,2024-03-30 07:15,-119.7500,38.9963,1441.42,32.00,32.00,100.00,0.00,0.00,0.00,29.64,M,1.50,M,OVC,M,M,M,300.00,M,M,M,-SN BR,M,M,M,M,M,M,32.00,KMEV 300715Z AUTO 00000KT 1 1/2SM -SN BR OVC003 00/M00 A2964 RMK AO2,M
HTH,2024-03-30 07:15,-118.6315,38.5448,1282.89,42.80,33.80,70.28,350.00,9.00,0.00,29.62,M,10.00,14.00,FEW,SCT,BKN,M,4500.00,6500.00,8000.00,M,M,M,M,M,M,M,M,36.94,KHTH 300715Z AUTO 35009G14KT 10SM FEW045 SCT065 BKN080 06/01 A2962 RMK A01,M
TMT,2024-03-30 07:15,-117.1971,39.4643,1749.34,29.30,29.00,98.78,310.00,4.00,0.00,29.65,M,10.00,M,CLR,M,M,M,M,M,M,M,M,M,M,M,M,M,M,24.27,KTMT 300715Z AUTO 31004KT 10SM CLR M01/M02 A2965 RMK AO2 T10151017,M
10U,2024-03-30 07:15,-116.1876,41.9532,1637.00,33.80,33.80,100.00,310.00,4.00,0.00,29.69,M,10.00,M,OVC,M,M,M,2600.00,M,M,M,M,M,M,M,M,M,M,29.52,K10U 300715Z AUTO 31004KT 10SM OVC026 01/01 A2969 RMK AO2,M
BAM,2024-03-30 07:15,-116.8743,40.5990,1382.36,37.40,35.60,93.14,20.00,6.00,0.00,29.68,M,10.00,M,SCT,SCT,M,M,2900.00,8000.00,M,M,M,M,M,M,M,M,M,32.03,KBAM 300715Z AUTO 02006KT 10SM SCT029 SCT080 03/02 A2968 RMK AO1,M
RNO,2024-03-30 07:18,-119.7711,39.4839,1341.00,33.00,32.00,96.06,0.00,0.00,0.03,29.65,M,1.00,M,VV ,M,M,M,500.00,M,M,M,-SN BR,M,M,M,M,M,M,33.00,KRNO 300718Z 00000KT 1SM R17R/1200VP6000FT -SN BR VV005 01/00 A2965 RMK AO2 P0003 T00060000 $,M
05U,2024-03-30 07:30,-116.0051,39.6042,1811.23,M,M,M,0.00,0.00,0.00,29.69,M,10.00,M,OVC,M,M,M,7000.00,M,M,M,M,M,M,M,M,M,M,M,K05U 300730Z AUTO 00000KT 10SM OVC070 A2969 RMK A01,M
BVU,2024-03-30 07:35,-114.8611,35.9475,671.00,62.60,15.80,16.02,190.00,13.00,0.00,29.69,M,10.00,M,CLR,M,M,M,M,M,M,M,M,M,M,M,M,M,M,62.60,KBVU 300735Z AUTO 19013KT 10SM CLR 17/M09 A2969 RMK AO2,M
CXP,2024-03-30 07:35,-119.7326,39.1923,1431.00,33.80,32.00,93.03,0.00,0.00,0.00,29.65,M,1.50,M,OVC,M,M,M,300.00,M,M,M,-SN BR,M,M,M,M,M,M,33.80,KCXP 300735Z AUTO 00000KT 1 1/2SM -SN BR OVC003 01/00 A2965 RMK AO2 VIS 3/4V3,M
RTS,2024-03-30 07:35,-119.8764,39.6682,1539.00,32.00,32.00,100.00,0.00,0.00,0.00,29.65,M,1.00,M,OVC,M,M,M,200.00,M,M,M,-SN,M,M,M,M,M,M,32.00,KRTS 300735Z AUTO 00000KT 1SM -SN OVC002 00/00 A2965 RMK AO2,M
MEV,2024-03-30 07:35,-119.7500,38.9963,1441.42,32.00,32.00,100.00,190.00,3.00,0.00,29.65,M,1.50,M,OVC,M,M,M,300.00,M,M,M,-SN BR,M,M,M,M,M,M,28.69,KMEV 300735Z AUTO 19003KT 1 1/2SM -SN BR OVC003 00/M00 A2965 RMK AO2,M
HTH,2024-03-30 07:35,-118.6315,38.5448,1282.89,42.80,33.80,70.28,350.00,6.00,0.00,29.62,M,10.00,13.00,BKN,BKN,OVC,M,8000.00,9000.00,11000.00,M,M,M,M,M,M,M,M,38.54,KHTH 300735Z AUTO 35006G13KT 10SM BKN080 BKN090 OVC110 06/01 A2962 RMK A01,M
BAM,2024-03-30 07:35,-116.8743,40.5990,1382.36,37.40,35.60,93.14,20.00,7.00,0.00,29.68,M,10.00,M,SCT,M,M,M,2900.00,M,M,M,M,M,M,M,M,M,M,31.36,KBAM 300735Z AUTO 02007KT 10SM SCT029 03/02 A2968 RMK AO1,M
TMT,2024-03-30 07:35,-117.1971,39.4643,1749.34,29.00,28.00,95.99,0.00,0.00,0.00,29.65,M,10.00,M,CLR,M,M,M,M,M,M,M,M,M,M,M,M,M,M,29.00,KTMT 300735Z AUTO 00000KT 10SM CLR M02/M02 A2965 RMK AO2 T10171022,M
10U,2024-03-30 07:35,-116.1876,41.9532,1637.00,33.80,32.00,93.03,300.00,5.00,0.00,29.69,M,10.00,M,BKN,BKN,OVC,M,2300.00,4000.00,4700.00,M,M,M,M,M,M,M,M,28.53,K10U 300735Z AUTO 30005KT 10SM BKN023 BKN040 OVC047 01/00 A2969 RMK AO2,M
RNO,2024-03-30 07:48,-119.7711,39.4839,1341.00,33.00,31.00,92.25,0.00,0.00,0.07,29.64,M,1.00,M,BKN,OVC,M,M,300.00,700.00,M,M,-SN BR,M,M,M,M,M,M,33.00,KRNO 300748Z 00000KT 1SM R17R/P6000FT -SN BR BKN003 OVC007 01/M01 A2964 RMK AO2 P0007 T00061006 $,M
05U,2024-03-30 07:50,-116.0051,39.6042,1811.23,M,M,M,290.00,4.00,0.00,29.69,M,10.00,M,FEW,OVC,M,M,5500.00,6500.00,M,M,M,M,M,M,M,M,M,M,K05U 300750Z AUTO 29004KT 10SM FEW055 OVC065 A2969 RMK A01,M
P68,2024-03-30 07:53,-116.0056,39.6014,1993.00,32.00,28.00,84.98,140.00,6.00,0.00,29.67,1002.00,M,M,M,M,M,M,M,M,M,M,M,M,M,M,M,M,M,25.53,KP68 300753Z AUTO 14006KT 00/M02 A2967 RMK AO1 SLP020 T00001022 400891044,M
DRA,2024-03-30 07:53,-116.0278,36.6206,1009.00,53.00,26.00,34.88,230.00,16.00,0.00,29.67,1001.70,10.00,24.00,OVC,M,M,M,9000.00,M,M,M,M,M,M,M,M,M,M,53.00,KDRA 300753Z AUTO 23016G24KT 10SM OVC090 12/M03 A2967 RMK AO2 SLP017 T01171033 401890067,M
ELY,2024-03-30 07:53,-114.8453,39.2950,1909.00,34.00,30.00,85.11,160.00,10.00,T,29.72,1005.20,10.00,M,BKN,BKN,OVC,M,5500.00,6500.00,11000.00,M,M,M,M,M,M,M,M,25.48,KELY 300753Z AUTO 16010KT 10SM BKN055 BKN065 OVC110 01/M01 A2972 RMK AO2 UPB26E49 SLP052 P0000 T00111011 400781011,M
VGT,2024-03-30 07:53,-115.1933,36.2111,667.00,62.00,25.00,24.20,200.00,4.00,0.00,29.69,1005.50,10.00,M,CLR,M,M,M,M,M,M,M,M,M,M,M,M,M,M,62.00,KVGT 300753Z AUTO 20004KT 10SM CLR 17/M04 A2969 RMK AO2 SLP055 T01671039 402330128,M
LOL,2024-03-30 07:53,-118.5701,40.0684,1192.43,40.00,33.00,75.84,40.00,11.00,T,29.64,1003.30,10.00,M,BKN,OVC,M,M,5000.00,7000.00,M,M,-RA,M,M,M,M,M,M,32.58,KLOL 300753Z AUTO 04011KT 10SM -RA BKN050 OVC070 04/01 A2964 RMK AO2 RAB41 SLP033 P0000 T00440006 401001033,M
BVU,2024-03-30 07:55,-114.8611,35.9475,671.00,62.60,15.80,16.02,190.00,9.00,0.00,29.69,M,10.00,15.00,CLR,M,M,M,M,M,M,M,M,M,M,M,M,M,M,62.60,KBVU 300755Z AUTO 19009G15KT 10SM CLR 17/M09 A2969 RMK AO2,M
CXP,2024-03-30 07:55,-119.7326,39.1923,1431.00,33.80,32.00,93.03,0.00,0.00,0.03,29.66,M,2.00,M,OVC,M,M,M,300.00,M,M,M,-SN BR,M,M,M,M,M,M,33.80,KCXP 300755Z AUTO 00000KT 2SM -SN BR OVC003 01/00 A2966 RMK AO2 P0003,M
RNO,2024-03-30 07:55,-119.7711,39.4839,1341.00,33.00,31.00,92.25,0.00,0.00,0.07,29.64,1003.20,1.00,M,VV ,M,M,M,500.00,M,M,M,-SN BR,M,M,M,M,M,M,33.00,KRNO 300755Z 00000KT 1SM R17R/P6000FT -SN BR VV005 01/M01 A2964 RMK AO2 SLP032 P0007 T00061006 400940006 $,M
RTS,2024-03-30 07:55,-119.8764,39.6682,1539.00,32.00,32.00,100.00,0.00,0.00,0.01,29.64,M,1.25,M,OVC,M,M,M,200.00,M,M,M,-SN,M,M,M,M,M,M,32.00,KRTS 300755Z AUTO 00000KT 1 1/4SM -SN OVC002 00/00 A2964 RMK AO2 P0001,M
MEV,2024-03-30 07:55,-119.7500,38.9963,1441.42,32.00,32.00,100.00,230.00,3.00,0.02,29.64,M,2.00,M,M,M,M,M,M,M,M,M,-SN BR,M,M,M,M,M,M,28.69,KMEV 300755Z AUTO 23003KT 2SM -SN BR 00/M00 A2964 RMK AO2 P0002 VIS 1 1/2V3,M
HTH,2024-03-30 07:55,-118.6315,38.5448,1282.89,42.80,33.80,70.28,340.00,6.00,0.00,29.62,M,10.00,M,SCT,OVC,M,M,6000.00,7500.00,M,M,M,M,M,M,M,M,M,38.54,KHTH 300755Z AUTO 34006KT 10SM SCT060 OVC075 06/01 A2962 RMK A01,M
TMT,2024-03-30 07:55,-117.1971,39.4643,1749.34,29.00,28.40,97.57,0.00,0.00,0.00,29.66,M,10.00,M,CLR,M,M,M,M,M,M,M,M,M,M,M,M,M,M,29.00,KTMT 300755Z AUTO 00000KT 10SM CLR M02/M02 A2966 RMK AO2 T10171020 400931060,M
10U,2024-03-30 07:55,-116.1876,41.9532,1637.00,33.80,32.00,93.03,0.00,0.00,0.00,29.69,M,10.00,M,SCT,OVC,M,M,2200.00,4400.00,M,M,M,M,M,M,M,M,M,33.80,K10U 300755Z AUTO 00000KT 10SM SCT022 OVC044 01/00 A2969 RMK AO2,M
BAM,2024-03-30 07:55,-116.8743,40.5990,1382.36,37.40,35.60,93.14,30.00,8.00,0.00,29.68,M,10.00,M,BKN,M,M,M,2700.00,M,M,M,M,M,M,M,M,M,M,30.76,KBAM 300755Z AUTO 03008KT 10SM BKN027 03/02 A2968 RMK AO1,M
INS,2024-03-30 07:55,-115.6733,36.5872,955.00,56.70,20.30,24.00,30.00,6.00,0.00,29.66,1001.30,10.00,M,OVC,M,M,M,9000.00,M,M,M,M,M,M,M,M,M,M,56.70,KINS 300755Z AUTO 03006KT 10SM OVC090 14/M06 A2966 RMK AO2 SLP013 T01371065 401950098 $,M
LSV,2024-03-30 07:55,-115.0343,36.2362,570.00,62.00,21.60,20.98,240.00,6.00,0.00,29.66,1002.90,10.00,M,OVC,M,M,M,12000.00,M,M,M,M,M,M,M,M,M,M,62.00,KLSV 300755Z AUTO 24006KT 10SM OVC120 17/M06 A2966 RMK AO2 SLP029 T01661058 402280151,M
EKO,2024-03-30 07:56,-115.7860,40.8242,1367.00,35.00,33.00,92.32,90.00,4.00,0.00,29.68,1004.00,10.00,M,OVC,M,M,M,9500.00,M,M,M,M,M,M,M,M,M,M,30.92,KEKO 300756Z AUTO 09004KT 10SM OVC095 02/01 A2968 RMK AO2 SLP040 T00170006 401111017,M
WMC,2024-03-30 07:56,-117.8072,40.9019,1315.00,33.00,29.00,85.04,150.00,4.00,0.00,29.67,1003.90,10.00,M,CLR,M,M,M,M,M,M,M,M,M,M,M,M,M,M,28.59,KWMC 300756Z AUTO 15004KT 10SM CLR 01/M02 A2967 RMK AO2 SLP039 T00061017 401171033,M
NFL,2024-03-30 07:56,-118.7010,39.4166,1199.00,43.00,38.00,82.37,340.00,3.00,0.01,29.62,1001.40,10.00,M,FEW,SCT,OVC,M,5500.00,7000.00,8500.00,M,M,M,M,M,M,M,M,41.26,KNFL 300756Z AUTO 34003KT 10SM FEW055 SCT070 OVC085 06/03 A2962 RMK AO2 RAE31 SLP014 P0001 T00610033 401281006,M
HND,2024-03-30 07:56,-115.1344,35.9729,742.79,59.00,23.00,24.76,190.00,8.00,0.00,29.72,1006.50,10.00,M,SCT,M,M,M,12000.00,M,M,M,M,M,M,M,M,M,M,59.00,KHND 300756Z AUTO 19008KT 10SM SCT120 15/M05 A2972 RMK AO2 SLP065 T01501050,M
TPH,2024-03-30 07:56,-117.0904,38.0505,1654.00,42.00,22.00,44.63,130.00,10.00,0.00,29.66,1001.60,10.00,M,OVC,M,M,M,6000.00,M,M,M,M,M,M,M,M,M,M,35.51,KTPH 300756Z AUTO 13010KT 10SM OVC060 06/M06 A2966 RMK AO2 SLP016 T00561056 401281006,M
LAS,2024-03-30 07:56,-115.1634,36.0719,663.00,59.00,23.00,24.76,230.00,5.00,0.00,29.69,1004.10,10.00,M,FEW,BKN,OVC,M,10000.00,14000.00,22000.00,M,M,M,M,M,M,M,M,59.00,KLAS 300756Z 23005KT 10SM FEW100 BKN140 OVC220 15/M05 A2969 RMK AO2 SLP041 T01501050 402170122,M
05U,2024-03-30 08:10,-116.0051,39.6042,1811.23,M,M,M,300.00,5.00,0.00,29.69,M,10.00,M,FEW,OVC,M,M,5500.00,6500.00,M,M,M,M,M,M,M,M,M,M,K05U 300810Z AUTO 30005KT 10SM FEW055 OVC065 A2969 RMK A01,M
BVU,2024-03-30 08:15,-114.8611,35.9475,671.00,62.60,15.80,16.02,190.00,9.00,0.00,29.69,M,10.00,16.00,CLR,M,M,M,M,M,M,M,M,M,M,M,M,M,M,62.60,KBVU 300815Z AUTO 19009G16KT 10SM CLR 17/M09 A2969 RMK AO2,M
CXP,2024-03-30 08:15,-119.7326,39.1923,1431.00,33.80,32.00,93.03,0.00,0.00,0.00,29.65,M,2.00,M,OVC,M,M,M,300.00,M,M,M,-SN BR,M,M,M,M,M,M,33.80,KCXP 300815Z AUTO 00000KT 2SM -SN BR OVC003 01/00 A2965 RMK AO2 VIS 1 1/2V3,M
RTS,2024-03-30 08:15,-119.8764,39.6682,1539.00,32.00,32.00,100.00,240.00,6.00,0.00,29.65,M,0.50,M,OVC,M,M,M,200.00,M,M,M,-SN,M,M,M,M,M,M,25.53,KRTS 300815Z AUTO 24006KT 1/2SM -SN OVC002 00/00 A2965 RMK AO2,M
MEV,2024-03-30 08:15,-119.7500,38.9963,1441.42,32.00,32.00,100.00,220.00,3.00,0.00,29.64,M,1.00,M,OVC,M,M,M,400.00,M,M,M,-SN BR,M,M,M,M,M,M,28.69,KMEV 300815Z AUTO 22003KT 1SM -SN BR OVC004 00/M00 A2964 RMK AO2,M
HTH,2024-03-30 08:15,-118.6315,38.5448,1282.89,42.80,33.80,70.28,340.00,7.00,0.00,29.62,M,10.00,M,FEW,SCT,BKN,M,3900.00,5000.00,6500.00,M,M,M,M,M,M,M,M,37.94,KHTH 300815Z AUTO 34007KT 10SM FEW039 SCT050 BKN065 06/01 A2962 RMK A01,M
TMT,2024-03-30 08:15,-117.1971,39.4643,1749.34,29.00,28.60,98.38,0.00,0.00,0.00,29.65,M,10.00,M,CLR,M,M,M,M,M,M,M,M,M,M,M,M,M,M,29.00,KTMT 300815Z AUTO 00000KT 10SM CLR M02/M02 A2965 RMK AO2 T10161019,M
10U,2024-03-30 08:15,-116.1876,41.9532,1637.00,33.80,32.00,93.03,0.00,0.00,0.00,29.69,M,10.00,M,SCT,BKN,OVC,M,3300.00,4400.00,7500.00,M,M,M,M,M,M,M,M,33.80,K10U 300815Z AUTO 00000KT 10SM SCT033 BKN044 OVC075 01/00 A2969 RMK AO2,M
BAM,2024-03-30 08:15,-116.8743,40.5990,1382.36,37.40,35.60,93.14,30.00,5.00,0.00,29.68,M,10.00,M,BKN,M,M,M,2700.00,M,M,M,M,M,M,M,M,M,M,32.81,KBAM 300815Z AUTO 03005KT 10SM BKN027 03/02 A2968 RMK AO1,M
RNO,2024-03-30 08:17,-119.7711,39.4839,1341.00,34.00,31.00,88.63,0.00,0.00,0.02,29.65,M,1.00,M,FEW,OVC,M,M,400.00,1000.00,M,M,-SN BR,M,M,M,M,M,M,34.00,KRNO 300817Z 00000KT 1SM R17R/P6000FT -SN BR FEW004 OVC010 01/M01 A2965 RMK AO2 P0002 T00111006 $,M
RNO,2024-03-30 08:20,-119.7711,39.4839,1341.00,34.00,31.00,88.63,260.00,3.00,0.02,29.65,M,2.00,M,OVC,M,M,M,900.00,M,M,M,-SN BR,M,M,M,M,M,M,30.97,KRNO 300820Z 26003KT 2SM -SN BR OVC009 01/M01 A2965 RMK AO2 P0002 T00111006 $,M
RNO,2024-03-30 08:28,-119.7711,39.4839,1341.00,34.00,31.00,88.63,290.00,3.00,0.02,29.65,M,2.00,M,FEW,BKN,OVC,M,700.00,1300.00,2300.00,M,-SN BR,M,M,M,M,M,M,30.97,KRNO 300828Z 29003KT 2SM -SN BR FEW007 BKN013 OVC023 01/M01 A2965 RMK AO2 P0002 T00111006 $,M
EKO,2024-03-30 08:29,-115.7860,40.8242,1367.00,35.00,32.00,88.68,40.00,3.00,0.00,29.67,M,10.00,M,BKN,OVC,M,M,1600.00,9500.00,M,M,M,M,M,M,M,M,M,32.12,KEKO 300829Z AUTO 04003KT 10SM BKN016 OVC095 02/00 A2967 RMK AO2 T00170000,M
05U,2024-03-30 08:30,-116.0051,39.6042,1811.23,M,M,M,340.00,6.00,0.00,29.69,M,10.00,M,FEW,BKN,OVC,M,5500.00,7000.00,8000.00,M,M,M,M,M,M,M,M,M,K05U 300830Z AUTO 34006KT 10SM FEW055 BKN070 OVC080 A2969 RMK A01,M
BVU,2024-03-30 08:35,-114.8611,35.9475,671.00,60.80,15.80,17.07,190.00,12.00,0.00,29.69,M,10.00,M,CLR,M,M,M,M,M,M,M,M,M,M,M,M,M,M,60.80,KBVU 300835Z AUTO 19012KT 10SM CLR 16/M09 A2969 RMK AO2,M
CXP,2024-03-30 08:35,-119.7326,39.1923,1431.00,33.80,32.00,93.03,0.00,0.00,0.00,29.65,M,1.50,M,OVC,M,M,M,300.00,M,M,M,-SN BR,M,M,M,M,M,M,33.80,KCXP 300835Z AUTO 00000KT 1 1/2SM -SN BR OVC003 01/00 A2965 RMK AO2,M
RNO,2024-03-30 08:35,-119.7711,39.4839,1341.00,34.00,31.00,88.63,0.00,0.00,0.03,29.65,M,2.00,M,FEW,BKN,OVC,M,700.00,1900.00,2500.00,M,-SN BR,M,M,M,M,M,M,34.00,KRNO 300835Z 00000KT 2SM -SN BR FEW007 BKN019 OVC025 01/M01 A2965 RMK AO2 P0003 T00111006 $,M
RTS,2024-03-30 08:35,-119.8764,39.6682,1539.00,32.00,32.00,100.00,0.00,0.00,0.00,29.65,M,1.00,M,OVC,M,M,M,200.00,M,M,M,-SN,M,M,M,M,M,M,32.00,KRTS 300835Z AUTO 00000KT 1SM -SN OVC002 00/00 A2965 RMK AO2,M
MEV,2024-03-30 08:35,-119.7500,38.9963,1441.42,32.00,32.00,100.00,0.00,0.00,0.00,29.65,M,1.25,M,OVC,M,M,M,300.00,M,M,M,-SN BR,M,M,M,M,M,M,32.00,KMEV 300835Z AUTO 00000KT 1 1/4SM -SN BR OVC003 00/00 A2965 RMK AO2,M
HTH,2024-03-30 08:35,-118.6315,38.5448,1282.89,42.80,33.80,70.28,360.00,5.00,0.00,29.61,M,10.00,M,BKN,OVC,M,M,5500.00,6500.00,M,M,M,M,M,M,M,M,M,39.22,KHTH 300835Z AUTO 36005KT 10SM BKN055 OVC065 06/01 A2961 RMK A01,M
TMT,2024-03-30 08:35,-117.1971,39.4643,1749.34,28.40,28.00,98.37,200.00,5.00,0.00,29.66,M,10.00,M,CLR,M,M,M,M,M,M,M,M,M,M,M,M,M,M,22.12,KTMT 300835Z AUTO 20005KT 10SM CLR M02/M02 A2966 RMK AO2 T10201023,M
10U,2024-03-30 08:35,-116.1876,41.9532,1637.00,33.80,32.00,93.03,0.00,0.00,0.00,29.68,M,10.00,M,BKN,BKN,OVC,M,3300.00,4400.00,7500.00,M,M,M,M,M,M,M,M,33.80,K10U 300835Z AUTO 00000KT 10SM BKN033 BKN044 OVC075 01/00 A2968 RMK AO2,M
BAM,2024-03-30 08:35,-116.8743,40.5990,1382.36,37.40,35.60,93.14,10.00,5.00,0.00,29.68,M,10.00,M,SCT,BKN,M,M,2700.00,8000.00,M,M,M,M,M,M,M,M,M,32.81,KBAM 300835Z AUTO 01005KT 10SM SCT027 BKN080 03/02 A2968 RMK AO1,M
05U,2024-03-30 08:50,-116.0051,39.6042,1811.23,39.20,26.60,60.29,330.00,11.00,0.00,29.69,M,10.00,19.00,BKN,OVC,M,M,5500.00,6500.00,M,M,M,M,M,M,M,M,M,31.57,K05U 300850Z AUTO 33011G19KT 10SM BKN055 OVC065 04/M03 A2969 RMK A01,M
P68,2024-03-30 08:53,-116.0056,39.6014,1993.00,39.00,27.00,61.78,160.00,11.00,0.00,29.67,1001.90,M,22.00,M,M,M,M,M,M,M,M,M,M,M,M,M,M,M,31.31,KP68 300853Z AUTO 16011G22KT 04/M03 A2967 RMK AO1 SLP019 T00391028 55000,M
DRA,2024-03-30 08:53,-116.0278,36.6206,1009.00,51.00,26.00,37.55,230.00,16.00,0.00,29.68,1002.10,10.00,M,OVC,M,M,M,8000.00,M,M,M,M,M,M,M,26.00,250.00,2024-03-30 08:19,51.00,KDRA 300853Z AUTO 23016KT 10SM OVC080 11/M03 A2968 RMK AO2 PK WND 25026/0819 SLP021 T01061033 55000,M
ELY,2024-03-30 08:53,-114.8453,39.2950,1909.00,34.00,30.00,85.11,170.00,11.00,0.00,29.72,1004.80,10.00,M,BKN,M,M,M,11000.00,M,M,M,M,M,M,M,M,M,M,24.99,KELY 300853Z AUTO 17011KT 10SM BKN110 01/M01 A2972 RMK AO2 SLP048 60000 T00111011 50000,M
VGT,2024-03-30 08:53,-115.1933,36.2111,667.00,61.00,26.00,26.14,170.00,7.00,0.00,29.68,1005.10,10.00,M,CLR,M,M,M,M,M,M,M,M,M,M,M,M,M,M,61.00,KVGT 300853Z AUTO 17007KT 10SM CLR 16/M03 A2968 RMK AO2 SLP051 T01611033 58002,M
LOL,2024-03-30 08:53,-118.5701,40.0684,1192.43,39.00,33.00,78.86,20.00,12.00,T,29.63,1002.90,10.00,M,OVC,M,M,M,4600.00,M,M,M,-RA,M,M,M,M,M,M,30.91,KLOL 300853Z AUTO 02012KT 10SM -RA OVC046 04/01 A2963 RMK AO2 RAE0759B39 SLP029 P0000 60000 T00390006 58003,M
BVU,2024-03-30 08:55,-114.8611,35.9475,671.00,60.80,15.80,17.07,180.00,14.00,0.00,29.69,M,10.00,19.00,CLR,M,M,M,M,M,M,M,M,M,M,M,M,M,M,60.80,KBVU 300855Z AUTO 18014G19KT 10SM CLR 16/M09 A2969 RMK AO2,M
CXP,2024-03-30 08:55,-119.7326,39.1923,1431.00,32.00,32.00,100.00,0.00,0.00,0.05,29.66,M,0.75,M,OVC,M,M,M,400.00,M,M,M,-SN BR,M,M,M,M,M,M,32.00,KCXP 300855Z AUTO 00000KT 3/4SM -SN BR OVC004 00/00 A2966 RMK AO2 P0005,M
RNO,2024-03-30 08:55,-119.7711,39.4839,1341.00,34.00,32.00,92.29,0.00,0.00,0.05,29.65,1003.20,2.00,M,FEW,OVC,M,M,500.00,1900.00,M,M,-SN BR,M,M,M,M,M,M,34.00,KRNO 300855Z 00000KT 2SM -SN BR FEW005 OVC019 01/00 A2965 RMK AO2 SLP032 P0005 60023 T00110000 51001 $,M
RTS,2024-03-30 08:55,-119.8764,39.6682,1539.00,32.00,32.00,100.00,280.00,3.00,0.00,29.65,M,1.25,M,OVC,M,M,M,200.00,M,M,M,-SN,M,M,M,M,M,M,28.69,KRTS 300855Z AUTO 28003KT 1 1/4SM -SN OVC002 00/00 A2965 RMK AO2,M
MEV,2024-03-30 08:55,-119.7500,38.9963,1441.42,32.00,32.00,100.00,170.00,5.00,0.06,29.65,M,1.50,M,OVC,M,M,M,300.00,M,M,M,-SN BR,M,M,M,M,M,M,26.40,KMEV 300855Z AUTO 17005KT 1 1/2SM -SN BR OVC003 00/00 A2965 RMK AO2 P0006,M
HTH,2024-03-30 08:55,-118.6315,38.5448,1282.89,42.80,33.80,70.28,350.00,7.00,0.00,29.60,M,10.00,M,BKN,OVC,M,M,6000.00,7000.00,M,M,M,M,M,M,M,M,M,37.94,KHTH 300855Z AUTO 35007KT 10SM BKN060 OVC070 06/01 A2960 RMK A01,M
TMT,2024-03-30 08:55,-117.1971,39.4643,1749.34,29.00,28.40,97.57,240.00,5.00,0.00,29.65,M,10.00,M,CLR,M,M,M,M,M,M,M,M,M,M,M,M,M,M,22.83,KTMT 300855Z AUTO 24005KT 10SM CLR M02/M02 A2965 RMK AO2 T10171020,M
10U,2024-03-30 08:55,-116.1876,41.9532,1637.00,33.80,32.00,93.03,0.00,0.00,0.00,29.68,M,10.00,M,SCT,OVC,M,M,3200.00,7500.00,M,M,M,M,M,M,M,M,M,33.80,K10U 300855Z AUTO 00000KT 10SM SCT032 OVC075 01/00 A2968 RMK AO2,M
BAM,2024-03-30 08:55,-116.8743,40.5990,1382.36,37.40,35.60,93.14,20.00,6.00,0.00,29.67,M,10.00,M,BKN,M,M,M,8000.00,M,M,M,M,M,M,M,M,M,M,32.03,KBAM 300855Z AUTO 02006KT 10SM BKN080 03/02 A2967 RMK AO1,M
INS,2024-03-30 08:55,-115.6733,36.5872,955.00,57.40,17.80,21.02,120.00,7.00,0.00,29.65,1001.00,10.00,M,OVC,M,M,M,9500.00,M,M,M,M,M,M,M,M,M,M,57.40,KINS 300855Z AUTO 12007KT 10SM OVC095 14/M08 A2965 RMK AO2 SLP010 T01411079 55002 $,M
LSV,2024-03-30 08:55,-115.0343,36.2362,570.00,62.00,21.60,20.98,190.00,5.00,0.00,29.65,1002.50,10.00,M,OVC,M,M,M,12000.00,M,M,M,M,M,M,M,M,M,M,62.00,KLSV 300855Z AUTO 19005KT 10SM OVC120 17/M06 A2965 RMK AO2 SLP025 T01661058 55001,M
EKO,2024-03-30 08:56,-115.7860,40.8242,1367.00,35.00,33.00,92.32,90.00,3.00,0.00,29.67,1003.80,10.00,M,OVC,M,M,M,1600.00,M,M,M,M,M,M,M,M,M,M,32.12,KEKO 300856Z AUTO 09003KT 10SM OVC016 02/01 A2967 RMK AO2 SLP038 T00170006 56005,M
WMC,2024-03-30 08:56,-117.8072,40.9019,1315.00,32.00,29.00,88.53,0.00,0.00,0.00,29.66,1003.90,10.00,M,OVC,M,M,M,8000.00,M,M,M,M,M,M,M,M,M,M,32.00,KWMC 300856Z AUTO 00000KT 10SM OVC080 00/M02 A2966 RMK AO2 SLP039 T00001017 56003,M
NFL,2024-03-30 08:56,-118.7010,39.4166,1199.00,43.00,37.00,79.19,310.00,3.00,0.00,29.62,1001.50,10.00,M,FEW,SCT,OVC,M,5500.00,7000.00,9000.00,M,M,M,M,M,M,M,M,41.26,KNFL 300856Z AUTO 31003KT 10SM FEW055 SCT070 OVC090 06/03 A2962 RMK AO2 SLP015 60001 T00610028 55004,M
HND,2024-03-30 08:56,-115.1344,35.9729,742.79,56.00,24.00,28.77,0.00,0.00,0.00,29.71,1006.40,10.00,M,CLR,M,M,M,M,M,M,M,M,M,M,M,M,M,M,56.00,KHND 300856Z AUTO 00000KT 10SM CLR 13/M04 A2971 RMK AO2 SLP064 T01331044 50000,M
TPH,2024-03-30 08:56,-117.0904,38.0505,1654.00,41.00,23.00,48.39,150.00,6.00,0.00,29.65,1001.40,10.00,M,OVC,M,M,M,5500.00,M,M,M,M,M,M,M,M,M,M,36.37,KTPH 300856Z AUTO 15006KT 10SM OVC055 05/M05 A2965 RMK AO2 SLP014 T00501050 58001,M
LAS,2024-03-30 08:56,-115.1634,36.0719,663.00,58.00,23.00,25.67,M,3.00,0.00,29.69,1004.00,10.00,M,FEW,BKN,OVC,M,10000.00,14000.00,22000.00,M,M,M,M,M,M,M,M,58.00,KLAS 300856Z VRB03KT 10SM FEW100 BKN140 OVC220 14/M05 A2969 RMK AO2 SLP040 T01441050 53000,M
RNO,2024-03-30 09:03,-119.7711,39.4839,1341.00,33.00,31.00,92.25,0.00,0.00,0.01,29.65,M,1.00,M,SCT,OVC,M,M,500.00,1400.00,M,M,-SN BR,M,M,M,M,M,M,33.00,KRNO 300903Z 00000KT 1SM R17R/6000VP6000FT -SN BR SCT005 OVC014 01/M01 A2965 RMK AO2 P0001 T00061006 $,M
05U,2024-03-30 09:10,-116.0051,39.6042,1811.23,M,M,M,330.00,8.00,0.00,29.69,M,10.00,13.00,BKN,OVC,M,M,5500.00,7000.00,M,M,M,M,M,M,M,M,M,M,K05U 300910Z AUTO 33008G13KT 10SM BKN055 OVC070 A2969 RMK A01,M
BVU,2024-03-30 09:15,-114.8611,35.9475,671.00,60.80,15.80,17.07,170.00,17.00,0.00,29.69,M,10.00,M,CLR,M,M,M,M,M,M,M,M,M,M,M,M,M,M,60.80,KBVU 300915Z AUTO 17017KT 10SM CLR 16/M09 A2969 RMK AO2,M
CXP,2024-03-30 09:15,-119.7326,39.1923,1431.00,32.00,32.00,100.00,40.00,5.00,0.00,29.64,M,1.25,M,OVC,M,M,M,300.00,M,M,M,-SN BR,M,M,M,M,M,M,26.40,KCXP 300915Z AUTO 04005KT 1 1/4SM -SN BR OVC003 00/00 A2964 RMK AO2,M
RTS,2024-03-30 09:15,-119.8764,39.6682,1539.00,32.00,32.00,100.00,0.00,0.00,0.00,29.65,M,1.25,M,OVC,M,M,M,200.00,M,M,M,-SN,M,M,M,M,M,M,32.00,KRTS 300915Z AUTO 00000KT 1 1/4SM -SN OVC002 00/00 A2965 RMK AO2,M
MEV,2024-03-30 09:15,-119.7500,38.9963,1441.42,32.00,32.00,100.00,0.00,0.00,0.00,29.64,M,0.75,M,OVC,M,M,M,300.00,M,M,M,-SN BR,M,M,M,M,M,M,32.00,KMEV 300915Z AUTO 00000KT 3/4SM -SN BR OVC003 00/M00 A2964 RMK AO2,M
HTH,2024-03-30 09:15,-118.6315,38.5448,1282.89,42.80,33.80,70.28,330.00,5.00,0.00,29.61,M,10.00,M,FEW,BKN,OVC,M,5000.00,7000.00,9500.00,M,M,M,M,M,M,M,M,39.22,KHTH 300915Z AUTO 33005KT 10SM FEW050 BKN070 OVC095 06/01 A2961 RMK A01,M
10U,2024-03-30 09:15,-116.1876,41.9532,1637.00,32.00,30.20,92.97,0.00,0.00,0.00,29.68,M,10.00,M,OVC,M,M,M,7000.00,M,M,M,M,M,M,M,M,M,M,32.00,K10U 300915Z AUTO 00000KT 10SM OVC070 M00/M01 A2968 RMK AO2,M
BAM,2024-03-30 09:15,-116.8743,40.5990,1382.36,37.40,35.60,93.14,10.00,6.00,0.00,29.67,M,10.00,M,SCT,M,M,M,8000.00,M,M,M,M,M,M,M,M,M,M,32.03,KBAM 300915Z AUTO 01006KT 10SM SCT080 03/02 A2967 RMK AO1,M
TMT,2024-03-30 09:15,-117.1971,39.4643,1749.34,29.00,28.40,97.57,260.00,5.00,0.00,29.65,M,10.00,M,CLR,M,M,M,M,M,M,M,M,M,M,M,M,M,M,22.83,KTMT 300915Z AUTO 26005KT 10SM CLR M02/M02 A2965 RMK AO2 T10161020,M
05U,2024-03-30 09:30,-116.0051,39.6042,1811.23,M,M,M,320.00,10.00,0.00,29.68,M,10.00,M,OVC,M,M,M,5000.00,M,M,M,M,M,M,M,M,M,M,M,K05U 300930Z AUTO 32010KT 10SM OVC050 A2968 RMK A01,M
BVU,2024-03-30 09:35,-114.8611,35.9475,671.00,60.80,15.80,17.07,170.00,19.00,0.00,29.68,M,10.00,26.00,CLR,M,M,M,M,M,M,M,M,M,M,M,M,M,M,60.80,KBVU 300935Z AUTO 17019G26KT 10SM CLR 16/M09 A2968 RMK AO2,M
CXP,2024-03-30 09:35,-119.7326,39.1923,1431.00,32.00,32.00,100.00,0.00,0.00,0.00,29.64,M,2.00,M,BKN,OVC,M,M,300.00,900.00,M,M,-SN BR,M,M,M,M,M,M,32.00,KCXP 300935Z AUTO 00000KT 2SM -SN BR BKN003 OVC009 00/00 A2964 RMK AO2 VIS 1 1/2V2 1/2,M
RTS,2024-03-30 09:35,-119.8764,39.6682,1539.00,32.00,32.00,100.00,320.00,3.00,0.00,29.65,M,2.00,M,BKN,BKN,M,M,200.00,2100.00,M,M,-SN,M,M,M,M,M,M,28.69,KRTS 300935Z AUTO 32003KT 2SM -SN BKN002 BKN021 00/00 A2965 RMK AO2,M
MEV,2024-03-30 09:35,-119.7500,38.9963,1441.42,32.00,32.00,100.00,0.00,0.00,0.00,29.63,M,2.50,M,OVC,M,M,M,400.00,M,M,M,-SN BR,M,M,M,M,M,M,32.00,KMEV 300935Z AUTO 00000KT 2 1/2SM -SN BR OVC004 00/M00 A2963 RMK AO2,M
HTH,2024-03-30 09:35,-118.6315,38.5448,1282.89,42.80,33.80,70.28,0.00,0.00,0.00,29.61,M,10.00,M,FEW,SCT,OVC,M,5500.00,6000.00,7000.00,M,M,M,M,M,M,M,M,42.80,KHTH 300935Z AUTO 00000KT 10SM FEW055 SCT060 OVC070 06/01 A2961 RMK A01,M
10U,2024-03-30 09:35,-116.1876,41.9532,1637.00,30.20,30.20,100.00,270.00,3.00,0.00,29.68,M,10.00,M,OVC,M,M,M,7000.00,M,M,M,M,M,M,M,M,M,M,26.63,K10U 300935Z AUTO 27003KT 10SM OVC070 M01/M01 A2968 RMK AO2,M
BAM,2024-03-30 09:35,-116.8743,40.5990,1382.36,35.60,35.60,100.00,10.00,5.00,0.00,29.67,M,10.00,M,SCT,SCT,M,M,1300.00,8500.00,M,M,M,M,M,M,M,M,M,30.67,KBAM 300935Z AUTO 01005KT 10SM SCT013 SCT085 02/02 A2967 RMK AO1,M
TMT,2024-03-30 09:35,-117.1971,39.4643,1749.34,29.00,28.40,97.57,250.00,3.00,0.00,29.65,M,10.00,M,CLR,M,M,M,M,M,M,M,M,M,M,M,M,M,M,25.26,KTMT 300935Z AUTO 25003KT 10SM CLR M02/M02 A2965 RMK AO2 T10171020,M
RNO,2024-03-30 09:39,-119.7711,39.4839,1341.00,33.00,32.00,96.06,0.00,0.00,0.04,29.64,M,1.00,M,FEW,BKN,OVC,M,400.00,1500.00,2000.00,M,-SN BR,M,M,M,M,M,M,33.00,KRNO 300939Z COR 00000KT 1SM R17R/P6000FT -SN BR FEW004 BKN015 OVC020 01/00 A2964 RMK AO2 SNE28B33 P0004 T00060000 $,M
05U,2024-03-30 09:50,-116.0051,39.6042,1811.23,M,M,M,320.00,13.00,0.00,29.67,M,10.00,M,SCT,OVC,M,M,5500.00,10000.00,M,M,M,M,M,M,M,M,M,M,K05U 300950Z AUTO 32013KT 10SM SCT055 OVC100 A2967 RMK A01,M
RNO,2024-03-30 09:51,-119.7711,39.4839,1341.00,33.80,30.20,86.49,0.00,0.00,0.05,29.64,M,1.75,M,FEW,OVC,M,M,400.00,1600.00,M,M,-SN BR,M,M,M,M,M,M,33.80,KRNO 300951Z 00000KT 1 3/4SM -SN BR FEW004 OVC016 01/M01 A2964 RMK AO2 UPB28E33SNE28B33 P0005 $,M
P68,2024-03-30 09:53,-116.0056,39.6014,1993.00,38.00,28.00,66.94,160.00,14.00,0.00,29.65,1000.90,M,M,M,M,M,M,M,M,M,M,M,M,M,M,M,M,M,28.90,KP68 300953Z AUTO 16014KT 03/M02 A2965 RMK AO1 SLP009 T00331022,M
DRA,2024-03-30 09:53,-116.0278,36.6206,1009.00,50.00,26.00,38.97,230.00,11.00,0.00,29.66,1001.80,10.00,M,OVC,M,M,M,8000.00,M,M,M,M,M,M,M,M,M,M,50.00,KDRA 300953Z AUTO 23011KT 10SM OVC080 10/M03 A2966 RMK AO2 SLP018 T01001033,M
ELY,2024-03-30 09:53,-114.8453,39.2950,1909.00,34.00,30.00,85.11,160.00,13.00,T,29.71,1004.70,10.00,21.00,SCT,OVC,M,M,4100.00,7000.00,M,M,M,M,M,M,M,M,M,24.13,KELY 300953Z AUTO 16013G21KT 10SM SCT041 OVC070 01/M01 A2971 RMK AO2 UPB19E32 SLP047 P0000 T00111011,M
VGT,2024-03-30 09:53,-115.1933,36.2111,667.00,61.00,25.00,25.07,170.00,10.00,0.00,29.67,1004.80,10.00,M,CLR,M,M,M,M,M,M,M,M,M,M,M,M,M,M,61.00,KVGT 300953Z AUTO 17010KT 10SM CLR 16/M04 A2967 RMK AO2 SLP048 T01611039,M
LOL,2024-03-30 09:53,-118.5701,40.0684,1192.43,39.00,33.00,78.86,20.00,12.00,T,29.62,1002.70,10.00,M,BKN,OVC,M,M,4800.00,6500.00,M,M,-RA,M,M,M,M,M,M,30.91,KLOL 300953Z AUTO 02012KT 10SM -RA BKN048 OVC065 04/01 A2962 RMK AO2 RAE04B52 SLP027 P0000 T00390006,M
BVU,2024-03-30 09:55,-114.8611,35.9475,671.00,60.80,15.80,17.07,160.00,21.00,0.00,29.68,M,10.00,27.00,CLR,M,M,M,M,M,M,M,M,M,M,M,M,M,M,60.80,KBVU 300955Z AUTO 16021G27KT 10SM CLR 16/M09 A2968 RMK AO2,M
CXP,2024-03-30 09:55,-119.7326,39.1923,1431.00,32.00,32.00,100.00,0.00,0.00,0.07,29.64,M,2.00,M,BKN,BKN,OVC,M,500.00,800.00,6000.00,M,-SN BR,M,M,M,M,M,M,32.00,KCXP 300955Z AUTO 00000KT 2SM -SN BR BKN005 BKN008 OVC060 00/00 A2964 RMK AO2 P0007 VIS 1 1/4V4,M
RNO,2024-03-30 09:55,-119.7711,39.4839,1341.00,33.00,31.00,92.25,0.00,0.00,0.05,29.63,1002.50,1.75,M,OVC,M,M,M,1600.00,M,M,M,-SN BR,M,M,M,M,M,M,33.00,KRNO 300955Z COR 00000KT 1 3/4SM -SN BR OVC016 01/M01 A2963 RMK AO2 SNE28B33 SLP025 P0005 T00061006 $,M
RTS,2024-03-30 09:55,-119.8764,39.6682,1539.00,32.00,32.00,100.00,330.00,6.00,0.00,29.63,M,1.25,M,OVC,M,M,M,200.00,M,M,M,-SN,M,M,M,M,M,M,25.53,KRTS 300955Z AUTO 33006KT 1 1/4SM -SN OVC002 00/00 A2963 RMK AO2,M
MEV,2024-03-30 09:55,-119.7500,38.9963,1441.42,32.00,32.00,100.00,0.00,0.00,0.01,29.64,M,10.00,M,SCT,BKN,OVC,M,500.00,1100.00,4500.00,M,M,M,M,M,M,M,M,32.00,KMEV 300955Z AUTO 00000KT 10SM SCT005 BKN011 OVC045 00/00 A2964 RMK AO2 P0001,M
HTH,2024-03-30 09:55,-118.6315,38.5448,1282.89,42.80,35.60,75.50,0.00,0.00,0.00,29.61,M,10.00,M,BKN,BKN,OVC,M,3400.00,4700.00,6000.00,M,M,M,M,M,M,M,M,42.80,KHTH 300955Z AUTO 00000KT 10SM BKN034 BKN047 OVC060 06/02 A2961 RMK A01,M
10U,2024-03-30 09:55,-116.1876,41.9532,1637.00,30.20,30.20,100.00,280.00,3.00,0.00,29.67,M,10.00,M,SCT,BKN,M,M,6500.00,8000.00,M,M,M,M,M,M,M,M,M,26.63,K10U 300955Z AUTO 28003KT 10SM SCT065 BKN080 M01/M01 A2967 RMK AO2,M
BAM,2024-03-30 09:55,-116.8743,40.5990,1382.36,35.60,35.60,100.00,360.00,6.00,0.00,29.67,M,10.00,M,SCT,M,M,M,8500.00,M,M,M,M,M,M,M,M,M,M,29.87,KBAM 300955Z AUTO 36006KT 10SM SCT085 02/02 A2967 RMK AO1,M
TMT,2024-03-30 09:55,-117.1971,39.4643,1749.34,28.00,27.00,95.97,150.00,3.00,0.00,29.64,M,10.00,M,SCT,SCT,SCT,M,700.00,6000.00,7000.00,M,M,M,M,M,M,M,M,24.12,KTMT 300955Z AUTO 15003KT 10SM SCT007 SCT060 SCT070 M02/M03 A2964 RMK AO2 T10231027,M
INS,2024-03-30 09:55,-115.6733,36.5872,955.00,56.30,20.00,24.04,300.00,5.00,0.00,29.64,1000.40,10.00,M,OVC,M,M,M,9000.00,M,M,M,M,M,M,M,26.00,100.00,2024-03-30 09:41,56.30,KINS 300955Z AUTO 30005KT 10SM OVC090 14/M07 A2964 RMK AO2 PK WND 10026/41 SLP004 T01351067 $,M
LSV,2024-03-30 09:55,-115.0343,36.2362,570.00,60.80,21.70,21.99,160.00,4.00,0.00,29.64,1002.20,10.00,M,FEW,OVC,M,M,12000.00,14000.00,M,M,M,M,M,M,M,M,M,60.80,KLSV 300955Z AUTO 16004KT 10SM FEW120 OVC140 16/M06 A2964 RMK AO2 SLP022 T01601057,M
EKO,2024-03-30 09:56,-115.7860,40.8242,1367.00,34.00,32.00,92.29,0.00,0.00,0.00,29.67,1004.00,10.00,M,FEW,BKN,BKN,M,500.00,1700.00,8000.00,M,M,M,M,M,M,M,M,34.00,KEKO 300956Z AUTO 00000KT 10SM FEW005 BKN017 BKN080 01/00 A2967 RMK AO2 SLP040 T00110000,M
WMC,2024-03-30 09:56,-117.8072,40.9019,1315.00,33.00,30.00,88.58,150.00,4.00,0.00,29.67,1003.90,10.00,M,FEW,OVC,M,M,4500.00,7000.00,M,M,M,M,M,M,M,M,M,28.59,KWMC 300956Z AUTO 15004KT 10SM FEW045 OVC070 01/M01 A2967 RMK AO2 SLP039 T00061011,M
NFL,2024-03-30 09:56,-118.7010,39.4166,1199.00,41.00,36.00,82.22,350.00,4.00,0.00,29.60,1001.00,10.00,M,FEW,SCT,OVC,M,3000.00,6500.00,9500.00,M,M,M,M,M,M,M,M,37.93,KNFL 300956Z AUTO 35004KT 10SM FEW030 SCT065 OVC095 05/02 A2960 RMK AO2 SLP010 T00500022,M
HND,2024-03-30 09:56,-115.1344,35.9729,742.79,57.00,25.00,28.93,0.00,0.00,0.00,29.70,1006.00,10.00,M,CLR,M,M,M,M,M,M,M,M,M,M,M,M,M,M,57.00,KHND 300956Z AUTO 00000KT 10SM CLR 14/M04 A2970 RMK AO2 SLP060 T01391039,M
TPH,2024-03-30 09:56,-117.0904,38.0505,1654.00,40.00,24.00,52.45,150.00,15.00,0.00,29.64,1000.80,10.00,21.00,SCT,BKN,M,M,6000.00,12000.00,M,M,M,M,M,M,M,M,M,31.15,KTPH 300956Z AUTO 15015G21KT 10SM SCT060 BKN120 04/M04 A2964 RMK AO2 SLP008 T00441044,M
LAS,2024-03-30 09:56,-115.1634,36.0719,663.00,58.00,24.00,26.77,200.00,7.00,0.00,29.68,1003.60,10.00,M,FEW,BKN,OVC,M,10000.00,14000.00,22000.00,M,M,M,M,M,M,M,M,58.00,KLAS 300956Z 20007KT 10SM FEW100 BKN140 OVC220 14/M04 A2968 RMK AO2 SLP036 T01441044,M
EKO,2024-03-30 10:08,-115.7860,40.8242,1367.00,34.00,31.00,88.63,0.00,0.00,0.00,29.67,M,10.00,M,SCT,BKN,M,M,1800.00,8000.00,M,M,M,M,M,M,M,M,M,34.00,KEKO 301008Z AUTO 00000KT 10SM SCT018 BKN080 01/M01 A2967 RMK AO2 T00111006,M
05U,2024-03-30 10:10,-116.0051,39.6042,1811.23,37.40,30.20,74.98,310.00,11.00,0.00,29.67,M,10.00,M,SCT,OVC,M,M,5500.00,9500.00,M,M,M,M,M,M,M,M,M,29.29,K05U 301010Z AUTO 31011KT 10SM SCT055 OVC095 03/M01 A2967 RMK A01,M
BVU,2024-03-30 10:15,-114.8611,35.9475,671.00,60.80,15.80,17.07,160.00,22.00,0.00,29.68,M,10.00,27.00,FEW,M,M,M,12000.00,M,M,M,M,M,M,M,M,M,M,60.80,KBVU 301015Z AUTO 16022G27KT 10SM FEW120 16/M09 A2968 RMK AO2,M
CXP,2024-03-30 10:15,-119.7326,39.1923,1431.00,32.00,32.00,100.00,0.00,0.00,0.00,29.64,M,6.00,M,BKN,BKN,OVC,M,500.00,800.00,6000.00,M,BR,M,M,M,M,M,M,32.00,KCXP 301015Z AUTO 00000KT 6SM BR BKN005 BKN008 OVC060 00/00 A2964 RMK AO2,M
RTS,2024-03-30 10:15,-119.8764,39.6682,1539.00,32.00,32.00,100.00,350.00,4.00,0.00,29.63,M,1.50,M,OVC,M,M,M,200.00,M,M,M,-SN,M,M,M,M,M,M,27.42,KRTS 301015Z AUTO 35004KT 1 1/2SM -SN OVC002 00/00 A2963 RMK AO2,M
MEV,2024-03-30 10:15,-119.7500,38.9963,1441.42,32.00,32.00,100.00,310.00,4.00,0.00,29.62,M,8.00,M,FEW,BKN,OVC,M,1500.00,3000.00,3700.00,M,-SN,M,M,M,M,M,M,27.42,KMEV 301015Z AUTO 31004KT 8SM -SN FEW015 BKN030 OVC037 00/00 A2962 RMK AO2,M
HTH,2024-03-30 10:15,-118.6315,38.5448,1282.89,42.80,35.60,75.50,290.00,3.00,0.00,29.61,M,10.00,M,BKN,OVC,M,M,3200.00,3900.00,M,M,M,M,M,M,M,M,M,41.03,KHTH 301015Z AUTO 29003KT 10SM BKN032 OVC039 06/02 A2961 RMK A01,M
10U,2024-03-30 10:15,-116.1876,41.9532,1637.00,30.20,30.20,100.00,0.00,0.00,0.00,29.67,M,10.00,M,BKN,M,M,M,7500.00,M,M,M,M,M,M,M,M,M,M,30.20,K10U 301015Z AUTO 00000KT 10SM BKN075 M01/M01 A2967 RMK AO2,M
BAM,2024-03-30 10:15,-116.8743,40.5990,1382.36,35.60,35.60,100.00,350.00,6.00,0.00,29.67,M,10.00,M,SCT,SCT,M,M,1300.00,8500.00,M,M,M,M,M,M,M,M,M,29.87,KBAM 301015Z AUTO 35006KT 10SM SCT013 SCT085 02/02 A2967 RMK AO1,M
TMT,2024-03-30 10:15,-117.1971,39.4643,1749.34,27.00,26.20,96.75,110.00,4.00,0.00,29.63,M,10.00,M,SCT,BKN,BKN,M,200.00,700.00,6000.00,M,M,M,M,M,M,M,M,21.58,KTMT 301015Z AUTO 11004KT 10SM SCT002 BKN007 BKN060 M03/M03 A2963 RMK AO2 T10281032,M
EKO,2024-03-30 10:24,-115.7860,40.8242,1367.00,33.00,32.00,96.06,0.00,0.00,0.00,29.67,M,10.00,M,FEW,SCT,M,M,500.00,7500.00,M,M,M,M,M,M,M,M,M,33.00,KEKO 301024Z AUTO 00000KT 10SM FEW005 SCT075 01/00 A2967 RMK AO2 T00060000,M
05U,2024-03-30 10:30,-116.0051,39.6042,1811.23,37.40,30.20,74.98,300.00,14.00,0.00,29.67,M,10.00,M,BKN,OVC,M,M,6000.00,9000.00,M,M,M,M,M,M,M,M,M,28.12,K05U 301030Z AUTO 30014KT 10SM BKN060 OVC090 03/M01 A2967 RMK A01,M
BVU,2024-03-30 10:35,-114.8611,35.9475,671.00,60.80,15.80,17.07,170.00,11.00,0.00,29.67,M,10.00,20.00,FEW,M,M,M,12000.00,M,M,M,M,M,M,M,M,M,M,60.80,KBVU 301035Z AUTO 17011G20KT 10SM FEW120 16/M09 A2967 RMK AO2,M
CXP,2024-03-30 10:35,-119.7326,39.1923,1431.00,33.80,32.00,93.03,0.00,0.00,0.00,29.63,M,8.00,M,OVC,M,M,M,500.00,M,M,M,M,M,M,M,M,M,M,33.80,KCXP 301035Z AUTO 00000KT 8SM OVC005 01/00 A2963 RMK AO2,M
RTS,2024-03-30 10:35,-119.8764,39.6682,1539.00,32.00,32.00,100.00,0.00,0.00,0.00,29.63,M,6.00,M,SCT,SCT,SCT,M,200.00,1700.00,2500.00,M,-SN,M,M,M,M,M,M,32.00,KRTS 301035Z AUTO 00000KT 6SM -SN SCT002 SCT017 SCT025 00/00 A2963 RMK AO2,M
MEV,2024-03-30 10:35,-119.7500,38.9963,1441.42,32.00,32.00,100.00,290.00,4.00,0.00,29.62,M,1.00,M,BKN,OVC,M,M,200.00,2700.00,M,M,-SN BR,M,M,M,M,M,M,27.42,KMEV 301035Z AUTO 29004KT 1SM -SN BR BKN002 OVC027 00/M00 A2962 RMK AO2 VIS 1/2V2,M
HTH,2024-03-30 10:35,-118.6315,38.5448,1282.89,42.80,35.60,75.50,330.00,3.00,0.00,29.61,M,10.00,M,FEW,BKN,OVC,M,2700.00,4200.00,4700.00,M,M,M,M,M,M,M,M,41.03,KHTH 301035Z AUTO 33003KT 10SM FEW027 BKN042 OVC047 06/02 A2961 RMK A01,M
10U,2024-03-30 10:35,-116.1876,41.9532,1637.00,30.20,30.20,100.00,0.00,0.00,0.00,29.67,M,10.00,M,OVC,M,M,M,7500.00,M,M,M,M,M,M,M,M,M,M,30.20,K10U 301035Z AUTO 00000KT 10SM OVC075 M01/M01 A2967 RMK AO2,M
BAM,2024-03-30 10:35,-116.8743,40.5990,1382.36,35.60,35.60,100.00,350.00,6.00,0.00,29.66,M,10.00,M,CLR,M,M,M,M,M,M,M,M,M,M,M,M,M,M,29.87,KBAM 301035Z AUTO 35006KT 10SM CLR 02/02 A2966 RMK AO1,M
TMT,2024-03-30 10:35,-117.1971,39.4643,1749.34,27.50,26.60,96.36,0.00,0.00,0.00,29.64,M,10.00,M,SCT,BKN,BKN,M,200.00,700.00,6000.00,M,M,M,M,M,M,M,M,27.50,KTMT 301035Z AUTO 00000KT 10SM SCT002 BKN007 BKN060 M02/M03 A2964 RMK AO2 T10251030,M
05U,2024-03-30 10:50,-116.0051,39.6042,1811.23,37.40,30.20,74.98,300.00,10.00,0.00,29.67,M,10.00,M,OVC,M,M,M,5500.00,M,M,M,M,M,M,M,M,M,M,29.74,K05U 301050Z AUTO 30010KT 10SM OVC055 03/M01 A2967 RMK A01,M
P68,2024-03-30 10:53,-116.0056,39.6014,1993.00,36.00,30.00,78.60,140.00,11.00,0.00,29.64,1001.00,M,M,M,M,M,M,M,M,M,M,M,M,M,M,M,M,M,27.52,KP68 301053Z AUTO 14011KT 02/M01 A2964 RMK AO1 SLP010 T00221011,M
DRA,2024-03-30 10:53,-116.0278,36.6206,1009.00,50.00,27.00,40.62,250.00,12.00,0.00,29.65,1001.50,10.00,M,BKN,BKN,M,M,9000.00,11000.00,M,M,M,M,M,M,M,M,M,50.00,KDRA 301053Z AUTO 25012KT 10SM BKN090 BKN110 10/M03 A2965 RMK AO2 SLP015 T01001028,M
ELY,2024-03-30 10:53,-114.8453,39.2950,1909.00,33.00,30.00,88.58,160.00,12.00,0.00,29.70,1004.10,10.00,M,OVC,M,M,M,5000.00,M,M,M,M,M,M,M,M,M,M,23.27,KELY 301053Z AUTO 16012KT 10SM OVC050 01/M01 A2970 RMK AO2 SLP041 T00061011,M
VGT,2024-03-30 10:53,-115.1933,36.2111,667.00,60.00,24.00,24.92,190.00,11.00,0.00,29.66,1004.40,10.00,M,FEW,M,M,M,11000.00,M,M,M,M,M,M,M,M,M,M,60.00,KVGT 301053Z AUTO 19011KT 10SM FEW110 16/M04 A2966 RMK AO2 SLP044 T01561044,M
LOL,2024-03-30 10:53,-118.5701,40.0684,1192.43,39.00,33.00,78.86,30.00,11.00,T,29.62,1002.50,10.00,M,BKN,BKN,BKN,M,4100.00,5000.00,6500.00,M,M,M,M,M,M,M,M,31.31,KLOL 301053Z AUTO 03011KT 10SM BKN041 BKN050 BKN065 04/01 A2962 RMK AO2 RAE05 SLP025 P0000 T00390006,M
BVU,2024-03-30 10:55,-114.8611,35.9475,671.00,60.80,17.60,18.46,170.00,14.00,0.00,29.66,M,10.00,M,FEW,M,M,M,11000.00,M,M,M,M,M,M,M,M,M,M,60.80,KBVU 301055Z AUTO 17014KT 10SM FEW110 16/M08 A2966 RMK AO2,M
CXP,2024-03-30 10:55,-119.7326,39.1923,1431.00,33.80,32.00,93.03,0.00,0.00,0.00,29.64,M,7.00,M,OVC,M,M,M,600.00,M,M,M,M,M,M,M,M,M,M,33.80,KCXP 301055Z AUTO 00000KT 7SM OVC006 01/00 A2964 RMK AO2,M
RNO,2024-03-30 10:55,-119.7711,39.4839,1341.00,34.00,32.00,92.29,0.00,0.00,0.02,29.63,1002.50,1.75,M,SCT,BKN,OVC,M,200.00,2700.00,4800.00,M,-SN BR,M,M,M,M,M,M,34.00,KRNO 301055Z COR 00000KT 1 3/4SM -SN BR SCT002 BKN027 OVC048 01/00 A2963 RMK AO2 SNE16B23 SLP025 P0002 T00110000 $,M
RTS,2024-03-30 10:55,-119.8764,39.6682,1539.00,32.00,32.00,100.00,70.00,5.00,0.00,29.62,M,2.50,M,SCT,SCT,SCT,M,300.00,2000.00,2500.00,M,-SN,M,M,M,M,M,M,26.40,KRTS 301055Z AUTO 07005KT 2 1/2SM -SN SCT003 SCT020 SCT025 00/00 A2962 RMK AO2,M
MEV,2024-03-30 10:55,-119.7500,38.9963,1441.42,32.00,32.00,100.00,330.00,3.00,0.00,29.62,M,3.00,M,BKN,OVC,M,M,300.00,3700.00,M,M,-SN BR,M,M,M,M,M,M,28.69,KMEV 301055Z AUTO 33003KT 3SM -SN BR BKN003 OVC037 00/00 A2962 RMK AO2,M
HTH,2024-03-30 10:55,-118.6315,38.5448,1282.89,42.80,37.40,81.07,0.00,0.00,0.00,29.61,M,10.00,M,FEW,BKN,OVC,M,2200.00,2800.00,4500.00,M,M,M,M,M,M,M,M,42.80,KHTH 301055Z AUTO 00000KT 10SM FEW022 BKN028 OVC045 06/03 A2961 RMK A01,M
10U,2024-03-30 10:55,-116.1876,41.9532,1637.00,32.00,30.20,92.97,250.00,4.00,0.00,29.67,M,10.00,M,OVC,M,M,M,7500.00,M,M,M,M,M,M,M,M,M,M,27.42,K10U 301055Z AUTO 25004KT 10SM OVC075 M00/M01 A2967 RMK AO2,M
BAM,2024-03-30 10:55,-116.8743,40.5990,1382.36,35.60,35.60,100.00,360.00,5.00,0.00,29.65,M,10.00,M,CLR,M,M,M,M,M,M,M,M,M,M,M,M,M,M,30.67,KBAM 301055Z AUTO 36005KT 10SM CLR 02/02 A2965 RMK AO1,M
TMT,2024-03-30 10:55,-117.1971,39.4643,1749.34,28.40,28.00,98.37,0.00,0.00,0.00,29.64,M,10.00,M,OVC,M,M,M,200.00,M,M,M,M,M,M,M,M,M,M,28.40,KTMT 301055Z AUTO 00000KT 10SM OVC002 M02/M02 A2964 RMK AO2 T10201023,M
INS,2024-03-30 10:55,-115.6733,36.5872,955.00,56.00,20.70,25.03,110.00,5.00,0.00,29.64,1000.60,10.00,M,OVC,M,M,M,9500.00,M,M,M,M,M,M,M,M,M,M,56.00,KINS 301055Z AUTO 11005KT 10SM OVC095 13/M06 A2964 RMK AO2 SLP006 T01331063 $,M
LSV,2024-03-30 10:55,-115.0343,36.2362,570.00,60.60,19.20,19.91,200.00,5.00,0.00,29.63,1001.90,10.00,M,BKN,BKN,M,M,12000.00,14000.00,M,M,M,M,M,M,M,M,M,60.60,KLSV 301055Z AUTO 20005KT 10SM BKN120 BKN140 16/M07 A2963 RMK AO2 SLP019 T01591071,M
EKO,2024-03-30 10:56,-115.7860,40.8242,1367.00,33.00,32.00,96.06,0.00,0.00,0.00,29.66,1003.80,10.00,M,FEW,OVC,M,M,100.00,7000.00,M,M,M,M,M,M,M,M,M,33.00,KEKO 301056Z AUTO 00000KT 10SM FEW001 OVC070 01/00 A2966 RMK AO2 SLP038 T00060000,M
WMC,2024-03-30 10:56,-117.8072,40.9019,1315.00,37.00,34.00,88.78,40.00,8.00,T,29.64,1002.60,10.00,M,BKN,BKN,OVC,M,3900.00,7000.00,8000.00,M,-RA,M,M,M,M,M,M,30.27,KWMC 301056Z AUTO 04008KT 10SM -RA BKN039 BKN070 OVC080 03/01 A2964 RMK AO2 UPB34E39RAB39 SLP026 P0000 T00280011,M
NFL,2024-03-30 10:56,-118.7010,39.4166,1199.00,41.00,36.00,82.22,360.00,4.00,T,29.60,1000.80,10.00,M,BKN,OVC,M,M,2900.00,4700.00,M,M,M,M,M,M,M,M,M,37.93,KNFL 301056Z AUTO 36004KT 10SM BKN029 OVC047 05/02 A2960 RMK AO2 RAB37E47 SLP008 P0000 T00500022,M
HND,2024-03-30 10:56,-115.1344,35.9729,742.79,57.00,22.00,25.51,140.00,4.00,0.00,29.68,1005.20,10.00,M,OVC,M,M,M,12000.00,M,M,M,M,M,M,M,M,M,M,57.00,KHND 301056Z AUTO 14004KT 10SM OVC120 14/M06 A2968 RMK AO2 SLP052 T01391056,M
TPH,2024-03-30 10:56,-117.0904,38.0505,1654.00,40.00,25.00,54.69,160.00,12.00,0.00,29.64,1001.10,10.00,17.00,FEW,BKN,OVC,M,5500.00,8000.00,10000.00,M,M,M,M,M,M,M,M,32.18,KTPH 301056Z AUTO 16012G17KT 10SM FEW055 BKN080 OVC100 04/M04 A2964 RMK AO2 SLP011 T00441039,M
LAS,2024-03-30 10:56,-115.1634,36.0719,663.00,57.00,24.00,27.75,0.00,0.00,0.00,29.66,1003.00,10.00,M,FEW,BKN,OVC,M,10000.00,14000.00,22000.00,M,M,M,M,M,M,M,M,57.00,KLAS 301056Z 00000KT 10SM FEW100 BKN140 OVC220 14/M04 A2966 RMK AO2 SLP030 T01391044,M
05U,2024-03-30 11:10,-116.0051,39.6042,1811.23,37.40,30.20,74.98,310.00,12.00,0.00,29.67,M,10.00,M,FEW,OVC,M,M,2900.00,5000.00,M,M,M,M,M,M,M,M,M,28.87,K05U 301110Z AUTO 31012KT 10SM FEW029 OVC050 03/M01 A2967 RMK A01,M
BVU,2024-03-30 11:15,-114.8611,35.9475,671.00,59.00,17.60,19.68,160.00,18.00,0.00,29.66,M,10.00,M,BKN,M,M,M,11000.00,M,M,M,M,M,M,M,M,M,M,59.00,KBVU 301115Z AUTO 16018KT 10SM BKN110 15/M08 A2966 RMK AO2,M
CXP,2024-03-30 11:15,-119.7326,39.1923,1431.00,33.80,33.80,100.00,0.00,0.00,0.00,29.64,M,8.00,M,OVC,M,M,M,400.00,M,M,M,M,M,M,M,M,M,M,33.80,KCXP 301115Z AUTO 00000KT 8SM OVC004 01/01 A2964 RMK AO2,M
RTS,2024-03-30 11:15,-119.8764,39.6682,1539.00,32.00,32.00,100.00,140.00,6.00,0.00,29.63,M,2.00,M,BKN,BKN,BKN,M,200.00,2100.00,2600.00,M,-SN,M,M,M,M,M,M,25.53,KRTS 301115Z AUTO 14006KT 2SM -SN BKN002 BKN021 BKN026 00/00 A2963 RMK AO2,M
MEV,2024-03-30 11:15,-119.7500,38.9963,1441.42,32.00,32.00,100.00,0.00,0.00,0.00,29.63,M,2.50,M,FEW,BKN,OVC,M,300.00,700.00,3600.00,M,-SN BR,M,M,M,M,M,M,32.00,KMEV 301115Z AUTO 00000KT 2 1/2SM -SN BR FEW003 BKN007 OVC036 00/00 A2963 RMK AO2 VIS 1 1/2V4,M
HTH,2024-03-30 11:15,-118.6315,38.5448,1282.89,41.00,37.40,86.89,0.00,0.00,0.00,29.61,M,9.00,M,OVC,M,M,M,2700.00,M,M,M,M,M,M,M,M,M,M,41.00,KHTH 301115Z AUTO 00000KT 9SM OVC027 05/03 A2961 RMK A01,M
10U,2024-03-30 11:15,-116.1876,41.9532,1637.00,32.00,30.20,92.97,0.00,0.00,0.00,29.68,M,10.00,M,FEW,FEW,OVC,M,3900.00,5000.00,7500.00,M,M,M,M,M,M,M,M,32.00,K10U 301115Z AUTO 00000KT 10SM FEW039 FEW050 OVC075 M00/M01 A2968 RMK AO2,M
BAM,2024-03-30 11:15,-116.8743,40.5990,1382.36,35.60,35.60,100.00,350.00,6.00,0.00,29.66,M,10.00,M,CLR,M,M,M,M,M,M,M,M,M,M,M,M,M,M,29.87,KBAM 301115Z AUTO 35006KT 10SM CLR 02/02 A2966 RMK AO1,M
TMT,2024-03-30 11:15,-117.1971,39.4643,1749.34,28.00,27.30,97.16,0.00,0.00,0.00,29.64,M,10.00,M,OVC,M,M,M,200.00,M,M,M,M,M,M,M,M,M,M,28.00,KTMT 301115Z AUTO 00000KT 10SM OVC002 M02/M03 A2964 RMK AO2 T10221026,M
05U,2024-03-30 11:30,-116.0051,39.6042,1811.23,35.60,30.20,80.51,300.00,14.00,0.00,29.67,M,10.00,19.00,FEW,SCT,BKN,M,1600.00,2300.00,3000.00,M,M,M,M,M,M,M,M,25.80,K05U 301130Z AUTO 30014G19KT 10SM FEW016 SCT023 BKN030 02/M01 A2967 RMK A01,M
BVU,2024-03-30 11:35,-114.8611,35.9475,671.00,59.00,17.60,19.68,150.00,15.00,0.00,29.67,M,10.00,M,SCT,M,M,M,11000.00,M,M,M,M,M,M,M,M,M,M,59.00,KBVU 301135Z AUTO 15015KT 10SM SCT110 15/M08 A2967 RMK AO2,M
CXP,2024-03-30 11:35,-119.7326,39.1923,1431.00,33.80,33.80,100.00,0.00,0.00,0.00,29.64,M,9.00,M,OVC,M,M,M,600.00,M,M,M,-RA,M,M,M,M,M,M,33.80,KCXP 301135Z AUTO 00000KT 9SM -RA OVC006 01/01 A2964 RMK AO2,M
RTS,2024-03-30 11:35,-119.8764,39.6682,1539.00,32.00,32.00,100.00,0.00,0.00,0.00,29.62,M,9.00,M,BKN,BKN,OVC,M,200.00,1300.00,2100.00,M,M,M,M,M,M,M,M,32.00,KRTS 301135Z AUTO 00000KT 9SM BKN002 BKN013 OVC021 00/00 A2962 RMK AO2,M
MEV,2024-03-30 11:35,-119.7500,38.9963,1441.42,32.00,32.00,100.00,30.00,6.00,0.00,29.60,M,5.00,M,BKN,OVC,M,M,700.00,1700.00,M,M,UP BR,M,M,M,M,M,M,25.53,KMEV 301135Z AUTO 03006KT 5SM UP BR BKN007 OVC017 00/00 A2960 RMK AO2,M
HTH,2024-03-30 11:35,-118.6315,38.5448,1282.89,41.00,37.40,86.89,150.00,10.00,0.00,29.60,M,4.00,M,SCT,OVC,M,M,2000.00,2600.00,M,M,HZ,M,M,M,M,M,M,34.25,KHTH 301135Z AUTO 15010KT 4SM HZ SCT020 OVC026 05/03 A2960 RMK A01,M
10U,2024-03-30 11:35,-116.1876,41.9532,1637.00,32.00,30.20,92.97,0.00,0.00,0.00,29.68,M,10.00,M,FEW,FEW,OVC,M,4100.00,5500.00,7000.00,M,M,M,M,M,M,M,M,32.00,K10U 301135Z AUTO 00000KT 10SM FEW041 FEW055 OVC070 M00/M01 A2968 RMK AO2,M
BAM,2024-03-30 11:35,-116.8743,40.5990,1382.36,35.60,33.80,93.08,360.00,6.00,0.00,29.66,M,0.50,M,BKN,M,M,M,100.00,M,M,M,M,M,M,M,M,M,M,29.87,KBAM 301135Z AUTO 36006KT 1/2SM BKN001 02/01 A2966 RMK AO1,M
TMT,2024-03-30 11:35,-117.1971,39.4643,1749.34,27.30,26.60,97.15,100.00,3.00,0.00,29.63,M,10.00,M,OVC,M,M,M,200.00,M,M,M,M,M,M,M,M,M,M,23.32,KTMT 301135Z AUTO 10003KT 10SM OVC002 M03/M03 A2963 RMK AO2 T10261030,M
RNO,2024-03-30 11:43,-119.7711,39.4839,1341.00,34.00,32.00,92.29,220.00,4.00,T,29.62,M,3.00,M,BKN,OVC,M,M,400.00,1300.00,M,M,BR,M,M,M,M,M,M,29.76,KRNO 301143Z 22004KT 3SM BR BKN004 OVC013 01/00 A2962 RMK AO2 SNE41 P0000 T00110000 $,M
05U,2024-03-30 11:50,-116.0051,39.6042,1811.23,35.60,32.00,86.59,300.00,10.00,0.00,29.68,M,10.00,M,FEW,BKN,OVC,M,2500.00,3600.00,5500.00,M,M,M,M,M,M,M,M,27.48,K05U 301150Z AUTO 30010KT 10SM FEW025 BKN036 OVC055 02/M00 A2968 RMK A01,M
RNO,2024-03-30 11:51,-119.7711,39.4839,1341.00,35.60,32.00,86.59,230.00,4.00,T,29.63,M,3.00,M,SCT,BKN,OVC,M,400.00,900.00,1300.00,M,BR,M,M,M,M,M,M,31.62,KRNO 301151Z 23004KT 3SM BR SCT004 BKN009 OVC013 02/00 A2963 RMK AO2 SNE41 P0000 $,M
P68,2024-03-30 11:53,-116.0056,39.6014,1993.00,36.00,31.00,81.86,140.00,12.00,0.00,29.65,1001.50,M,M,M,M,M,M,M,M,M,M,M,M,M,M,M,M,M,27.09,KP68 301153Z AUTO 14012KT 02/M01 A2965 RMK AO1 SLP015 T00221006 10044 21011 55004,M
DRA,2024-03-30 11:53,-116.0278,36.6206,1009.00,51.00,26.00,37.55,0.00,0.00,0.00,29.64,1001.20,10.00,M,BKN,BKN,BKN,M,6000.00,9000.00,12000.00,M,M,M,M,M,M,M,M,51.00,KDRA 301153Z AUTO 00000KT 10SM BKN060 BKN090 BKN120 11/M03 A2964 RMK AO2 SLP012 T01061033 10122 20100 56010,M
ELY,2024-03-30 11:53,-114.8453,39.2950,1909.00,33.00,29.00,85.04,210.00,6.00,T,29.70,1003.90,10.00,M,FEW,OVC,M,M,4000.00,5500.00,M,M,M,M,M,M,M,M,M,26.73,KELY 301153Z AUTO 21006KT 10SM FEW040 OVC055 01/M02 A2970 RMK AO2 SNB1059E33 SLP039 P0000 60000 70010 T00061017 10028 20006 56007,M
VGT,2024-03-30 11:53,-115.1933,36.2111,667.00,60.00,24.00,24.92,180.00,6.00,0.00,29.65,1004.30,10.00,M,SCT,M,M,M,12000.00,M,M,M,M,M,M,M,M,M,M,60.00,KVGT 301153Z AUTO 18006KT 10SM SCT120 16/M04 A2965 RMK AO2 SLP043 T01561044 10178 20156 56008,M
LOL,2024-03-30 11:53,-118.5701,40.0684,1192.43,38.00,33.00,82.00,30.00,9.00,0.00,29.61,1002.20,10.00,M,BKN,OVC,M,M,5500.00,7500.00,M,M,M,M,M,M,M,M,M,30.97,KLOL 301153Z AUTO 03009KT 10SM BKN055 OVC075 03/01 A2961 RMK AO2 SLP022 60000 T00330006 10044 20033 57006,M
BVU,2024-03-30 11:55,-114.8611,35.9475,671.00,59.00,17.60,19.68,150.00,16.00,0.00,29.67,M,10.00,M,BKN,M,M,M,12000.00,M,M,M,M,M,M,M,M,M,M,59.00,KBVU 301155Z AUTO 15016KT 10SM BKN120 15/M08 A2967 RMK AO2,M
CXP,2024-03-30 11:55,-119.7326,39.1923,1431.00,33.80,33.80,100.00,0.00,0.00,0.00,29.62,M,9.00,M,BKN,OVC,M,M,800.00,1400.00,M,M,UP,M,M,M,M,M,M,33.80,KCXP 301155Z AUTO 00000KT 9SM UP BKN008 OVC014 01/01 A2962 RMK AO2,M
RNO,2024-03-30 11:55,-119.7711,39.4839,1341.00,35.00,32.00,88.68,260.00,3.00,T,29.62,1001.90,3.00,M,SCT,SCT,OVC,M,400.00,900.00,1300.00,M,M,M,M,M,M,M,M,32.12,KRNO 301155Z 26003KT 3SM SCT004 SCT009 OVC013 02/00 A2962 RMK AO2 SFC VIS 6 SNE41 SLP019 4/001 P0000 60030 70046 T00170000 10017 20006 58002 $,1
RTS,2024-03-30 11:55,-119.8764,39.6682,1539.00,32.00,32.00,100.00,240.00,4.00,0.03,29.63,M,9.00,M,BKN,OVC,M,M,300.00,1300.00,M,M,M,M,M,M,M,M,M,27.42,KRTS 301155Z AUTO 24004KT 9SM BKN003 OVC013 00/00 A2963 RMK AO2 P0003,M
MEV,2024-03-30 11:55,-119.7500,38.9963,1441.42,32.00,32.00,100.00,360.00,4.00,0.00,29.60,M,10.00,M,FEW,BKN,OVC,M,700.00,2000.00,11000.00,M,M,M,M,M,M,M,M,27.42,KMEV 301155Z AUTO 36004KT 10SM FEW007 BKN020 OVC110 M00/M00 A2960 RMK AO2,M
HTH,2024-03-30 11:55,-118.6315,38.5448,1282.89,41.00,33.80,75.33,210.00,7.00,0.02,29.61,M,5.00,12.00,OVC,M,M,M,2200.00,M,M,M,HZ,M,M,M,M,M,M,35.75,KHTH 301155Z AUTO 21007G12KT 5SM HZ OVC022 05/01 A2961 RMK A01 P0002,M
10U,2024-03-30 11:55,-116.1876,41.9532,1637.00,32.00,30.20,92.97,0.00,0.00,0.00,29.68,M,10.00,M,FEW,SCT,OVC,M,5000.00,6000.00,7500.00,M,M,M,M,M,M,M,M,32.00,K10U 301155Z AUTO 00000KT 10SM FEW050 SCT060 OVC075 M00/M01 A2968 RMK AO2,M
BAM,2024-03-30 11:55,-116.8743,40.5990,1382.36,35.60,33.80,93.08,20.00,9.00,0.00,29.65,M,10.00,M,SCT,M,M,M,100.00,M,M,M,M,M,M,M,M,M,M,27.99,KBAM 301155Z AUTO 02009KT 10SM SCT001 02/01 A2965 RMK AO1,M
TMT,2024-03-30 11:55,-117.1971,39.4643,1749.34,27.70,27.00,97.16,0.00,0.00,0.00,29.62,M,10.00,M,OVC,M,M,M,400.00,M,M,M,M,M,M,M,M,M,M,27.70,KTMT 301155Z AUTO 00000KT 10SM OVC004 M02/M03 A2962 RMK AO2 T10241028 11009 21030,M
INS,2024-03-30 11:55,-115.6733,36.5872,955.00,55.00,21.60,26.97,130.00,9.00,0.00,29.63,1000.30,10.00,16.00,BKN,OVC,M,M,9000.00,10000.00,M,M,M,M,M,M,M,M,M,55.00,KINS 301155Z AUTO 13009G16KT 10SM BKN090 OVC100 13/M06 A2963 RMK AO2 SLP003 T01271058 10153 20127 55005 $,M
LSV,2024-03-30 11:55,-115.0343,36.2362,570.00,61.00,17.20,18.01,180.00,7.00,0.00,29.63,1001.90,10.00,M,FEW,M,M,M,13000.00,M,M,M,M,M,M,M,M,M,M,61.00,KLSV 301155Z AUTO 18007KT 10SM FEW130 16/M08 A2963 RMK AO2 SLP019 T01611082 10181 20155 57007,M
EKO,2024-03-30 11:56,-115.7860,40.8242,1367.00,33.00,31.00,92.25,70.00,3.00,0.00,29.66,1003.80,10.00,M,FEW,M,M,M,7000.00,M,M,M,M,M,M,M,M,M,M,29.83,KEKO 301156Z AUTO 07003KT 10SM FEW070 01/M01 A2966 RMK AO2 SLP038 70031 T00061006 10017 20006 56004,M
WMC,2024-03-30 11:56,-117.8072,40.9019,1315.00,37.00,33.00,85.29,320.00,3.00,T,29.64,1002.70,10.00,M,BKN,BKN,OVC,M,6500.00,8000.00,10000.00,M,M,M,M,M,M,M,M,34.40,KWMC 301156Z AUTO 32003KT 10SM BKN065 BKN080 OVC100 03/01 A2964 RMK AO2 RAE1059 SLP027 P0000 60000 T00280006 10033 21006 58008,M
NFL,2024-03-30 11:56,-118.7010,39.4166,1199.00,41.00,37.00,85.54,270.00,5.00,T,29.61,1001.10,10.00,M,OVC,M,M,M,2700.00,M,M,M,M,M,M,M,M,M,M,37.08,KNFL 301156Z AUTO 27005KT 10SM OVC027 05/03 A2961 RMK AO2 RAB44E55 SLP011 P0000 60001 70001 T00500028 10072 20050 55004,M
HND,2024-03-30 11:56,-115.1344,35.9729,742.79,57.00,21.00,24.45,160.00,8.00,0.00,29.68,1005.30,10.00,M,CLR,M,M,M,M,M,M,M,M,M,M,M,M,M,M,57.00,KHND 301156Z AUTO 16008KT 10SM CLR 14/M06 A2968 RMK AO2 SLP053 T01391061 10156 20133 55010,M
TPH,2024-03-30 11:56,-117.0904,38.0505,1654.00,40.00,26.00,57.01,160.00,13.00,0.00,29.62,1000.50,10.00,M,BKN,OVC,M,M,4900.00,5500.00,M,M,M,M,M,M,M,M,M,31.82,KTPH 301156Z AUTO 16013KT 10SM BKN049 OVC055 04/M03 A2962 RMK AO2 SLP005 T00441033 10067 20033 57009,M
LAS,2024-03-30 11:56,-115.1634,36.0719,663.00,57.00,23.00,26.61,0.00,0.00,0.00,29.66,1003.10,10.00,M,SCT,OVC,M,M,14000.00,22000.00,M,M,M,M,M,M,M,M,M,57.00,KLAS 301156Z 00000KT 10SM SCT140 OVC220 14/M05 A2966 RMK AO2 SLP031 T01391050 10161 20139 55008,M
RNO,2024-03-30 12:04,-119.7711,39.4839,1341.00,35.00,32.00,88.68,0.00,0.00,0.00,29.61,M,6.00,M,BKN,OVC,M,M,900.00,1300.00,M,M,M,M,M,M,M,M,M,35.00,KRNO 301204Z 00000KT 6SM BKN009 OVC013 02/00 A2961 RMK AO2 CIG 004V013 T00170000 $,M
05U,2024-03-30 12:10,-116.0051,39.6042,1811.23,M,M,M,300.00,10.00,0.00,29.68,M,10.00,M,SCT,BKN,OVC,M,2400.00,3800.00,5500.00,M,M,M,M,M,M,M,M,M,K05U 301210Z AUTO 30010KT 10SM SCT024 BKN038 OVC055 A2968 RMK A01,M
BVU,2024-03-30 12:15,-114.8611,35.9475,671.00,57.20,17.60,20.99,150.00,17.00,0.00,29.67,M,10.00,M,BKN,M,M,M,12000.00,M,M,M,M,M,M,M,M,M,M,57.20,KBVU 301215Z AUTO 15017KT 10SM BKN120 14/M08 A2967 RMK AO2,M
CXP,2024-03-30 12:15,-119.7326,39.1923,1431.00,33.80,33.80,100.00,0.00,0.00,0.00,29.63,M,6.00,M,FEW,OVC,M,M,900.00,1300.00,M,M,UP BR,M,M,M,M,M,M,33.80,KCXP 301215Z AUTO 00000KT 6SM UP BR FEW009 OVC013 01/01 A2963 RMK AO2,M
RTS,2024-03-30 12:15,-119.8764,39.6682,1539.00,32.00,32.00,100.00,0.00,0.00,0.00,29.62,M,8.00,M,OVC,M,M,M,300.00,M,M,M,M,M,M,M,M,M,M,32.00,KRTS 301215Z AUTO 00000KT 8SM OVC003 00/00 A2962 RMK AO2,M
MEV,2024-03-30 12:15,-119.7500,38.9963,1441.42,32.00,32.00,100.00,0.00,0.00,0.00,29.61,M,10.00,M,BKN,BKN,OVC,M,2000.00,2600.00,11000.00,M,M,M,M,M,M,M,M,32.00,KMEV 301215Z AUTO 00000KT 10SM BKN020 BKN026 OVC110 00/00 A2961 RMK AO2,M
HTH,2024-03-30 12:15,-118.6315,38.5448,1282.89,41.00,35.60,80.93,130.00,6.00,0.00,29.60,M,9.00,M,OVC,M,M,M,2400.00,M,M,M,M,M,M,M,M,M,M,36.37,KHTH 301215Z AUTO 13006KT 9SM OVC024 05/02 A2960 RMK A01,M
10U,2024-03-30 12:15,-116.1876,41.9532,1637.00,32.00,30.20,92.97,0.00,0.00,0.00,29.67,M,10.00,M,FEW,SCT,OVC,M,4100.00,6000.00,7500.00,M,M,M,M,M,M,M,M,32.00,K10U 301215Z AUTO 00000KT 10SM FEW041 SCT060 OVC075 M00/M01 A2967 RMK AO2,M
BAM,2024-03-30 12:15,-116.8743,40.5990,1382.36,33.80,33.80,100.00,10.00,4.00,0.00,29.67,M,7.00,M,CLR,M,M,M,M,M,M,M,M,M,M,M,M,M,M,29.52,KBAM 301215Z AUTO 01004KT 7SM CLR 01/01 A2967 RMK AO1,M
TMT,2024-03-30 12:15,-117.1971,39.4643,1749.34,28.60,28.00,97.57,0.00,0.00,0.00,29.63,M,3.00,M,OVC,M,M,M,200.00,M,M,M,BR,M,M,M,M,M,M,28.60,KTMT 301215Z AUTO 00000KT 3SM BR OVC002 M02/M02 A2963 RMK AO2 T10191023,M
05U,2024-03-30 12:30,-116.0051,39.6042,1811.23,M,M,M,300.00,8.00,0.00,29.68,M,10.00,M,BKN,BKN,OVC,M,2400.00,3900.00,7500.00,M,M,M,M,M,M,M,M,M,K05U 301230Z AUTO 30008KT 10SM BKN024 BKN039 OVC075 A2968 RMK A01,M
NFL,2024-03-30 12:34,-118.7010,39.4166,1199.00,40.00,37.00,88.92,310.00,6.00,T,29.61,M,10.00,M,SCT,BKN,OVC,M,2800.00,4400.00,7500.00,M,M,M,M,M,M,M,M,35.17,KNFL 301234Z AUTO 31006KT 10SM SCT028 BKN044 OVC075 04/03 A2961 RMK AO2 RAB00E16 P0000 T00440028,M
BVU,2024-03-30 12:35,-114.8611,35.9475,671.00,57.20,19.40,22.68,150.00,12.00,0.00,29.68,M,10.00,M,BKN,M,M,M,12000.00,M,M,M,M,M,M,M,M,M,M,57.20,KBVU 301235Z AUTO 15012KT 10SM BKN120 14/M07 A2968 RMK AO2,M
CXP,2024-03-30 12:35,-119.7326,39.1923,1431.00,33.80,33.80,100.00,0.00,0.00,0.00,29.63,M,7.00,M,OVC,M,M,M,1400.00,M,M,M,M,M,M,M,M,M,M,33.80,KCXP 301235Z AUTO 00000KT 7SM OVC014 01/01 A2963 RMK AO2,M
RTS,2024-03-30 12:35,-119.8764,39.6682,1539.00,32.00,32.00,100.00,0.00,0.00,0.00,29.62,M,10.00,M,BKN,OVC,M,M,300.00,1000.00,M,M,M,M,M,M,M,M,M,32.00,KRTS 301235Z AUTO 00000KT 10SM BKN003 OVC010 00/00 A2962 RMK AO2,M
MEV,2024-03-30 12:35,-119.7500,38.9963,1441.42,32.00,32.00,100.00,340.00,4.00,0.00,29.61,M,10.00,M,SCT,BKN,OVC,M,2000.00,2600.00,7500.00,M,M,M,M,M,M,M,M,27.42,KMEV 301235Z AUTO 34004KT 10SM SCT020 BKN026 OVC075 M00/M00 A2961 RMK AO2,M
HTH,2024-03-30 12:35,-118.6315,38.5448,1282.89,41.00,35.60,80.93,140.00,7.00,0.00,29.62,M,10.00,M,BKN,OVC,M,M,2100.00,2600.00,M,M,M,M,M,M,M,M,M,35.75,KHTH 301235Z AUTO 14007KT 10SM BKN021 OVC026 05/02 A2962 RMK A01,M
10U,2024-03-30 12:35,-116.1876,41.9532,1637.00,32.00,30.20,92.97,0.00,0.00,0.00,29.67,M,10.00,M,FEW,FEW,OVC,M,4300.00,6000.00,7500.00,M,M,M,M,M,M,M,M,32.00,K10U 301235Z AUTO 00000KT 10SM FEW043 FEW060 OVC075 M00/M01 A2967 RMK AO2,M
BAM,2024-03-30 12:35,-116.8743,40.5990,1382.36,33.80,33.80,100.00,10.00,5.00,0.00,29.65,M,10.00,M,CLR,M,M,M,M,M,M,M,M,M,M,M,M,M,M,28.53,KBAM 301235Z AUTO 01005KT 10SM CLR 01/01 A2965 RMK AO1,M
TMT,2024-03-30 12:35,-117.1971,39.4643,1749.34,29.00,29.00,100.00,0.00,0.00,0.00,29.62,M,0.50,M,OVC,M,M,M,200.00,M,M,M,FZFG,M,M,M,M,M,M,29.00,KTMT 301235Z AUTO 00000KT 1/2SM FZFG OVC002 M02/M02 A2962 RMK AO2 T10161017,M
TPH,2024-03-30 12:47,-117.0904,38.0505,1654.00,39.00,27.00,61.78,120.00,8.00,0.00,29.61,M,10.00,M,BKN,BKN,OVC,M,2900.00,3900.00,6500.00,M,M,M,M,M,M,M,M,32.74,KTPH 301247Z AUTO 12008KT 10SM BKN029 BKN039 OVC065 04/M03 A2961 RMK AO2 T00391028,M
05U,2024-03-30 12:50,-116.0051,39.6042,1811.23,M,M,M,300.00,9.00,0.00,29.67,M,10.00,M,FEW,SCT,BKN,M,2200.00,2800.00,6000.00,M,M,M,M,M,M,M,M,M,K05U 301250Z AUTO 30009KT 10SM FEW022 SCT028 BKN060 A2967 RMK A01,M
P68,2024-03-30 12:53,-116.0056,39.6014,1993.00,36.00,31.00,81.86,130.00,10.00,0.00,29.64,1001.00,M,M,M,M,M,M,M,M,M,M,M,M,M,M,M,M,M,27.98,KP68 301253Z AUTO 13010KT 02/M01 A2964 RMK AO1 SLP010 T00221006,M
DRA,2024-03-30 12:53,-116.0278,36.6206,1009.00,50.00,27.00,40.62,30.00,4.00,0.00,29.63,1000.80,10.00,M,OVC,M,M,M,8000.00,M,M,M,M,M,M,M,M,M,M,50.00,KDRA 301253Z AUTO 03004KT 10SM OVC080 10/M03 A2963 RMK AO2 SLP008 T01001028,M
ELY,2024-03-30 12:53,-114.8453,39.2950,1909.00,33.00,29.00,85.04,190.00,6.00,0.00,29.69,1003.80,10.00,M,BKN,OVC,M,M,4900.00,5500.00,M,M,M,M,M,M,M,M,M,26.73,KELY 301253Z AUTO 19006KT 10SM BKN049 OVC055 01/M02 A2969 RMK AO2 SLP038 T00061017,M
VGT,2024-03-30 12:53,-115.1933,36.2111,667.00,59.00,24.00,25.82,120.00,6.00,0.00,29.65,1004.30,10.00,M,OVC,M,M,M,11000.00,M,M,M,M,M,M,M,M,M,M,59.00,KVGT 301253Z 12006KT 10SM OVC110 15/M04 A2965 RMK AO2 SLP043 T01501044,M
LOL,2024-03-30 12:53,-118.5701,40.0684,1192.43,39.00,33.00,78.86,30.00,13.00,T,29.61,1002.40,10.00,M,OVC,M,M,M,5000.00,M,M,M,-RA,M,M,M,M,M,M,30.54,KLOL 301253Z AUTO 03013KT 10SM -RA OVC050 04/01 A2961 RMK AO2 RAB13 SLP024 P0000 T00390006,M
BVU,2024-03-30 12:55,-114.8611,35.9475,671.00,55.40,19.40,24.21,160.00,6.00,0.00,29.68,M,10.00,13.00,BKN,M,M,M,11000.00,M,M,M,M,M,M,M,M,M,M,55.40,KBVU 301255Z AUTO 16006G13KT 10SM BKN110 13/M07 A2968 RMK AO2,M
CXP,2024-03-30 12:55,-119.7326,39.1923,1431.00,33.80,33.80,100.00,320.00,3.00,0.00,29.63,M,10.00,M,OVC,M,M,M,1300.00,M,M,M,M,M,M,M,M,M,M,30.75,KCXP 301255Z AUTO 32003KT 10SM OVC013 01/01 A2963 RMK AO2,M
RNO,2024-03-30 12:55,-119.7711,39.4839,1341.00,36.00,33.00,88.73,250.00,4.00,0.00,29.63,1002.40,6.00,M,BKN,OVC,M,M,600.00,1500.00,M,M,BR,M,M,M,M,M,M,32.09,KRNO 301255Z 25004KT 6SM BR BKN006 OVC015 02/01 A2963 RMK AO2 SLP024 T00220006 $,M
RTS,2024-03-30 12:55,-119.8764,39.6682,1539.00,32.00,32.00,100.00,260.00,5.00,0.03,29.63,M,10.00,M,FEW,OVC,M,M,400.00,1100.00,M,M,M,M,M,M,M,M,M,26.40,KRTS 301255Z AUTO 26005KT 10SM FEW004 OVC011 00/00 A2963 RMK AO2 P0003,M
MEV,2024-03-30 12:55,-119.7500,38.9963,1441.42,32.00,32.00,100.00,0.00,0.00,0.00,29.60,M,10.00,M,FEW,OVC,M,M,2000.00,7500.00,M,M,M,M,M,M,M,M,M,32.00,KMEV 301255Z AUTO 00000KT 10SM FEW020 OVC075 00/M00 A2960 RMK AO2,M
HTH,2024-03-30 12:55,-118.6315,38.5448,1282.89,39.20,35.60,86.79,130.00,7.00,0.02,29.62,M,5.00,13.00,OVC,M,M,M,1800.00,M,M,M,BR,M,M,M,M,M,M,33.56,KHTH 301255Z AUTO 13007G13KT 5SM BR OVC018 04/02 A2962 RMK A01 P0002,M
10U,2024-03-30 12:55,-116.1876,41.9532,1637.00,32.00,32.00,100.00,0.00,0.00,0.00,29.67,M,10.00,M,SCT,OVC,M,M,6500.00,7500.00,M,M,M,M,M,M,M,M,M,32.00,K10U 301255Z AUTO 00000KT 10SM SCT065 OVC075 00/M00 A2967 RMK AO2,M
BAM,2024-03-30 12:55,-116.8743,40.5990,1382.36,35.60,33.80,93.08,360.00,4.00,0.00,29.66,M,10.00,M,CLR,M,M,M,M,M,M,M,M,M,M,M,M,M,M,31.62,KBAM 301255Z AUTO 36004KT 10SM CLR 02/01 A2966 RMK AO1,M
TMT,2024-03-30 12:55,-117.1971,39.4643,1749.34,30.00,30.00,100.00,0.00,0.00,0.00,29.62,M,0.50,M,OVC,M,M,M,200.00,M,M,M,FZFG,M,M,M,M,M,M,30.00,KTMT 301255Z AUTO 00000KT 1/2SM FZFG OVC002 M01/M01 A2962 RMK AO2 T10121012,M
INS,2024-03-30 12:55,-115.6733,36.5872,955.00,54.00,21.70,28.09,140.00,6.00,0.00,29.63,1000.50,10.00,M,BKN,OVC,M,M,7500.00,9000.00,M,M,M,M,M,M,M,M,M,54.00,KINS 301255Z AUTO 14006KT 10SM BKN075 OVC090 12/M06 A2963 RMK AO2 SLP005 T01231057 $,M
LSV,2024-03-30 12:55,-115.0343,36.2362,570.00,60.30,16.50,17.92,150.00,11.00,0.00,29.63,1001.90,10.00,M,FEW,M,M,M,12000.00,M,M,M,M,M,M,M,M,M,M,60.30,KLSV 301255Z AUTO 15011KT 10SM FEW120 16/M09 A2963 RMK AO2 SLP019 T01571086,M
EKO,2024-03-30 12:56,-115.7860,40.8242,1367.00,34.00,31.00,88.63,80.00,5.00,0.00,29.66,1004.00,10.00,M,BKN,M,M,M,7000.00,M,M,M,M,M,M,M,M,M,M,28.77,KEKO 301256Z AUTO 08005KT 10SM BKN070 01/M01 A2966 RMK AO2 SLP040 T00111006,M
WMC,2024-03-30 12:56,-117.8072,40.9019,1315.00,38.00,34.00,85.35,30.00,8.00,0.00,29.63,1002.80,10.00,M,BKN,BKN,BKN,M,6000.00,8000.00,12000.00,M,M,M,M,M,M,M,M,31.50,KWMC 301256Z AUTO 03008KT 10SM BKN060 BKN080 BKN120 03/01 A2963 RMK AO2 SLP028 T00330011,M
NFL,2024-03-30 12:56,-118.7010,39.4166,1199.00,40.00,37.00,88.92,300.00,8.00,T,29.61,1001.30,10.00,M,SCT,BKN,OVC,M,3000.00,3500.00,5000.00,M,M,M,M,M,M,M,M,33.97,KNFL 301256Z AUTO 30008KT 10SM SCT030 BKN035 OVC050 04/03 A2961 RMK AO2 RAB00E16 SLP013 P0000 T00440028,M
HND,2024-03-30 12:56,-115.1344,35.9729,742.79,55.00,20.00,25.20,190.00,10.00,0.00,29.68,1005.50,10.00,M,CLR,M,M,M,M,M,M,M,M,M,M,M,M,M,M,55.00,KHND 301256Z AUTO 19010KT 10SM CLR 13/M07 A2968 RMK AO2 SLP055 T01281067,M
TPH,2024-03-30 12:56,-117.0904,38.0505,1654.00,39.00,25.00,56.86,130.00,13.00,0.00,29.61,1000.40,10.00,M,OVC,M,M,M,3000.00,M,M,M,M,M,M,M,M,M,M,30.54,KTPH 301256Z AUTO 13013KT 10SM OVC030 04/M04 A2961 RMK AO2 SLP004 T00391039,M
LAS,2024-03-30 12:56,-115.1634,36.0719,663.00,56.00,23.00,27.59,160.00,5.00,0.00,29.66,1003.10,10.00,M,SCT,OVC,M,M,14000.00,22000.00,M,M,M,M,M,M,M,M,M,56.00,KLAS 301256Z 16005KT 10SM SCT140 OVC220 13/M05 A2966 RMK AO2 SLP031 T01331050,M
RNO,2024-03-30 13:07,-119.7711,39.4839,1341.00,36.00,33.00,88.73,0.00,0.00,0.00,29.63,M,10.00,M,SCT,OVC,M,M,700.00,1200.00,M,M,M,M,M,M,M,M,M,36.00,KRNO 301307Z 00000KT 10SM SCT007 OVC012 02/01 A2963 RMK AO2 T00220006 $,M
05U,2024-03-30 13:10,-116.0051,39.6042,1811.23,M,M,M,300.00,10.00,0.00,29.67,M,10.00,M,FEW,BKN,OVC,M,2600.00,3300.00,4700.00,M,M,M,M,M,M,M,M,M,K05U 301310Z AUTO 30010KT 10SM FEW026 BKN033 OVC047 A2967 RMK A01,M
BVU,2024-03-30 13:15,-114.8611,35.9475,671.00,55.40,19.40,24.21,160.00,6.00,0.00,29.68,M,10.00,M,OVC,M,M,M,11000.00,M,M,M,M,M,M,M,M,M,M,55.40,KBVU 301315Z AUTO 16006KT 10SM OVC110 13/M07 A2968 RMK AO2,M
CXP,2024-03-30 13:15,-119.7326,39.1923,1431.00,33.80,33.80,100.00,330.00,5.00,0.00,29.62,M,10.00,M,OVC,M,M,M,1200.00,M,M,M,M,M,M,M,M,M,M,28.53,KCXP 301315Z AUTO 33005KT 10SM OVC012 01/01 A2962 RMK AO2,M
RTS,2024-03-30 13:15,-119.8764,39.6682,1539.00,32.00,32.00,100.00,280.00,4.00,0.00,29.63,M,10.00,M,BKN,OVC,M,M,1100.00,1700.00,M,M,M,M,M,M,M,M,M,27.42,KRTS 301315Z AUTO 28004KT 10SM BKN011 OVC017 00/00 A2963 RMK AO2,M
MEV,2024-03-30 13:15,-119.7500,38.9963,1441.42,30.20,30.20,100.00,0.00,0.00,0.00,29.62,M,10.00,M,OVC,M,M,M,7500.00,M,M,M,M,M,M,M,M,M,M,30.20,KMEV 301315Z AUTO 00000KT 10SM OVC075 M01/M01 A2962 RMK AO2,M
HTH,2024-03-30 13:15,-118.6315,38.5448,1282.89,39.20,35.60,86.79,120.00,5.00,0.00,29.62,M,9.00,M,OVC,M,M,M,1900.00,M,M,M,M,M,M,M,M,M,M,34.95,KHTH 301315Z AUTO 12005KT 9SM OVC019 04/02 A2962 RMK A01,M
10U,2024-03-30 13:15,-116.1876,41.9532,1637.00,32.00,32.00,100.00,0.00,0.00,0.00,29.68,M,10.00,M,BKN,OVC,M,M,7000.00,7500.00,M,M,M,M,M,M,M,M,M,32.00,K10U 301315Z AUTO 00000KT 10SM BKN070 OVC075 00/M00 A2968 RMK AO2,M
BAM,2024-03-30 13:15,-116.8743,40.5990,1382.36,35.60,33.80,93.08,10.00,4.00,0.00,29.67,M,10.00,M,SCT,M,M,M,10000.00,M,M,M,M,M,M,M,M,M,M,31.62,KBAM 301315Z AUTO 01004KT 10SM SCT100 02/01 A2967 RMK AO1,M
TMT,2024-03-30 13:15,-117.1971,39.4643,1749.34,30.00,30.00,100.00,0.00,0.00,0.00,29.62,M,0.50,M,OVC,M,M,M,200.00,M,M,M,FZFG,M,M,M,M,M,M,30.00,KTMT 301315Z AUTO 00000KT 1/2SM FZFG OVC002 M01/M01 A2962 RMK AO2 T10111011,M
NFL,2024-03-30 13:24,-118.7010,39.4166,1199.00,39.00,36.00,88.87,310.00,8.00,T,29.61,M,8.00,M,SCT,OVC,M,M,1500.00,2500.00,M,M,RA,M,M,M,M,M,M,32.74,KNFL 301324Z 31008KT 8SM RA SCT015 OVC025 04/02 A2961 RMK AO2 RAB1258 P0000 T00390022,M
05U,2024-03-30 13:30,-116.0051,39.6042,1811.23,M,M,M,300.00,9.00,0.00,29.67,M,10.00,M,SCT,BKN,BKN,M,3200.00,3700.00,6500.00,M,M,M,M,M,M,M,M,M,K05U 301330Z AUTO 30009KT 10SM SCT032 BKN037 BKN065 A2967 RMK A01,M
BVU,2024-03-30 13:35,-114.8611,35.9475,671.00,55.40,19.40,24.21,210.00,7.00,0.00,29.68,M,10.00,M,OVC,M,M,M,10000.00,M,M,M,M,M,M,M,M,M,M,55.40,KBVU 301335Z AUTO 21007KT 170V240 10SM OVC100 13/M07 A2968 RMK AO2,M
CXP,2024-03-30 13:35,-119.7326,39.1923,1431.00,33.80,33.80,100.00,0.00,0.00,0.00,29.62,M,9.00,M,OVC,M,M,M,1200.00,M,M,M,M,M,M,M,M,M,M,33.80,KCXP 301335Z AUTO 00000KT 9SM OVC012 01/01 A2962 RMK AO2,M
RTS,2024-03-30 13:35,-119.8764,39.6682,1539.00,32.00,32.00,100.00,330.00,4.00,0.00,29.63,M,10.00,M,FEW,OVC,M,M,900.00,1500.00,M,M,-RA,M,M,M,M,M,M,27.42,KRTS 301335Z AUTO 33004KT 10SM -RA FEW009 OVC015 00/00 A2963 RMK AO2,M
MEV,2024-03-30 13:35,-119.7500,38.9963,1441.42,30.20,30.20,100.00,0.00,0.00,0.00,29.61,M,9.00,M,FEW,FEW,BKN,M,3200.00,4300.00,7000.00,M,M,M,M,M,M,M,M,30.20,KMEV 301335Z AUTO 00000KT 9SM FEW032 FEW043 BKN070 M01/M01 A2961 RMK AO2,M
HTH,2024-03-30 13:35,-118.6315,38.5448,1282.89,39.20,35.60,86.79,150.00,5.00,0.00,29.63,M,8.00,M,OVC,M,M,M,2000.00,M,M,M,M,M,M,M,M,M,M,34.95,KHTH 301335Z AUTO 15005KT 8SM OVC020 04/02 A2963 RMK A01,M
10U,2024-03-30 13:35,-116.1876,41.9532,1637.00,33.80,32.00,93.03,M,4.00,0.00,29.68,M,10.00,M,FEW,SCT,OVC,M,1700.00,6000.00,7000.00,M,M,M,M,M,M,M,M,29.52,K10U 301335Z AUTO VRB04KT 10SM FEW017 SCT060 OVC070 01/00 A2968 RMK AO2,M
BAM,2024-03-30 13:35,-116.8743,40.5990,1382.36,35.60,33.80,93.08,10.00,6.00,0.00,29.65,M,10.00,M,SCT,M,M,M,10000.00,M,M,M,M,M,M,M,M,M,M,29.87,KBAM 301335Z AUTO 01006KT 10SM SCT100 02/01 A2965 RMK AO1,M
TMT,2024-03-30 13:35,-117.1971,39.4643,1749.34,30.00,30.00,100.00,140.00,4.00,0.00,29.62,M,0.50,M,OVC,M,M,M,200.00,M,M,M,FZFG,M,M,M,M,M,M,25.08,KTMT 301335Z AUTO 14004KT 1/2SM FZFG OVC002 M01/M01 A2962 RMK AO2 T10121012,M
05U,2024-03-30 13:50,-116.0051,39.6042,1811.23,M,M,M,310.00,8.00,0.00,29.67,M,10.00,M,FEW,SCT,M,M,3700.00,6000.00,M,M,M,M,M,M,M,M,M,M,K05U 301350Z AUTO 31008KT 10SM FEW037 SCT060 A2967 RMK A01,M
P68,2024-03-30 13:53,-116.0056,39.6014,1993.00,36.00,30.00,78.60,140.00,10.00,0.00,29.65,1001.40,M,M,M,M,M,M,M,M,M,M,M,M,M,M,M,M,M,27.98,KP68 301353Z AUTO 14010KT 02/M01 A2965 RMK AO1 SLP014 T00221011,M
DRA,2024-03-30 13:53,-116.0278,36.6206,1009.00,49.00,36.00,60.66,330.00,6.00,T,29.62,1000.60,10.00,M,SCT,OVC,M,M,5500.00,7000.00,M,M,-RA,M,M,M,M,M,M,46.00,KDRA 301353Z AUTO 33006KT 10SM -RA SCT055 OVC070 09/02 A2962 RMK AO2 RAB25E29B53 SLP006 P0000 T00940022,M
ELY,2024-03-30 13:53,-114.8453,39.2950,1909.00,33.00,28.00,81.63,170.00,11.00,0.00,29.69,1004.20,10.00,M,OVC,M,M,M,5500.00,M,M,M,M,M,M,M,M,M,M,23.73,KELY 301353Z AUTO 17011KT 10SM OVC055 01/M02 A2969 RMK AO2 SLP042 T00061022,M
VGT,2024-03-30 13:53,-115.1933,36.2111,667.00,58.00,23.00,25.67,140.00,8.00,0.00,29.66,1004.80,10.00,M,CLR,M,M,M,M,M,M,M,M,M,M,M,M,M,M,58.00,KVGT 301353Z 14008KT 10SM CLR 14/M05 A2966 RMK AO2 SLP048 T01441050,M
RNO,2024-03-30 13:53,-119.7711,39.4839,1341.00,35.60,33.80,93.08,120.00,3.00,0.00,29.63,M,10.00,M,BKN,OVC,M,M,700.00,1000.00,M,M,M,M,M,M,M,M,M,32.80,KRNO 301353Z 12003KT 10SM BKN007 OVC010 02/01 A2963 RMK AO2 CIG 005V009 $,M
LOL,2024-03-30 13:53,-118.5701,40.0684,1192.43,38.00,35.00,88.83,20.00,9.00,T,29.63,1003.20,10.00,M,FEW,OVC,M,M,3900.00,5000.00,M,M,-RA,M,M,M,M,M,M,30.97,KLOL 301353Z AUTO 02009KT 10SM -RA FEW039 OVC050 03/02 A2963 RMK AO2 SLP032 P0000 T00330017,M
TPH,2024-03-30 13:54,-117.0904,38.0505,1654.00,39.20,26.60,60.29,170.00,16.00,0.00,29.63,M,10.00,22.00,OVC,M,M,M,2900.00,M,M,M,M,M,M,M,M,M,M,29.80,KTPH 301354Z AUTO 17016G22KT 10SM OVC029 04/M03 A2963 RMK AO2,M
BVU,2024-03-30 13:55,-114.8611,35.9475,671.00,57.20,19.40,22.68,140.00,12.00,0.00,29.68,M,10.00,M,OVC,M,M,M,10000.00,M,M,M,M,M,M,M,M,M,M,57.20,KBVU 301355Z AUTO 14012KT 10SM OVC100 14/M07 A2968 RMK AO2,M
CXP,2024-03-30 13:55,-119.7326,39.1923,1431.00,33.80,33.80,100.00,0.00,0.00,0.00,29.62,M,9.00,M,OVC,M,M,M,1200.00,M,M,M,M,M,M,M,M,M,M,33.80,KCXP 301355Z AUTO 00000KT 9SM OVC012 01/01 A2962 RMK AO2,M
RNO,2024-03-30 13:55,-119.7711,39.4839,1341.00,35.00,33.00,92.32,110.00,3.00,0.00,29.62,1002.60,10.00,M,OVC,M,M,M,1000.00,M,M,M,M,M,M,M,M,M,M,32.12,KRNO 301355Z 11003KT 10SM OVC010 02/01 A2962 RMK AO2 CIG 005V013 SLP026 T00170006 $,M
RTS,2024-03-30 13:55,-119.8764,39.6682,1539.00,32.00,32.00,100.00,20.00,4.00,0.02,29.63,M,10.00,M,OVC,M,M,M,1400.00,M,M,M,-RA,M,M,M,M,M,M,27.42,KRTS 301355Z AUTO 02004KT 10SM -RA OVC014 00/00 A2963 RMK AO2 P0002,M
MEV,2024-03-30 13:55,-119.7500,38.9963,1441.42,30.20,30.20,100.00,0.00,0.00,0.00,29.61,M,8.00,M,FEW,SCT,M,M,3200.00,4300.00,M,M,M,M,M,M,M,M,M,30.20,KMEV 301355Z AUTO 00000KT 8SM FEW032 SCT043 M01/M01 A2961 RMK AO2,M
HTH,2024-03-30 13:55,-118.6315,38.5448,1282.89,37.40,33.80,86.69,100.00,3.00,0.04,29.64,M,5.00,M,OVC,M,M,M,1900.00,M,M,M,BR,M,M,M,M,M,M,34.86,KHTH 301355Z AUTO 10003KT 5SM BR OVC019 03/01 A2964 RMK A01 P0004,M
10U,2024-03-30 13:55,-116.1876,41.9532,1637.00,33.80,32.00,93.03,0.00,0.00,0.00,29.69,M,10.00,M,FEW,BKN,OVC,M,1600.00,5500.00,7500.00,M,M,M,M,M,M,M,M,33.80,K10U 301355Z AUTO 00000KT 10SM FEW016 BKN055 OVC075 01/00 A2969 RMK AO2,M
BAM,2024-03-30 13:55,-116.8743,40.5990,1382.36,35.60,33.80,93.08,360.00,7.00,0.00,29.66,M,10.00,M,SCT,M,M,M,10000.00,M,M,M,M,M,M,M,M,M,M,29.17,KBAM 301355Z AUTO 36007KT 10SM SCT100 02/01 A2966 RMK AO1,M
TMT,2024-03-30 13:55,-117.1971,39.4643,1749.34,30.00,30.00,100.00,160.00,3.00,0.00,29.62,M,0.25,M,OVC,M,M,M,200.00,M,M,M,FZFG,M,M,M,M,M,M,26.40,KTMT 301355Z AUTO 16003KT 1/4SM FZFG OVC002 M01/M01 A2962 RMK AO2 T10111011,M
INS,2024-03-30 13:55,-115.6733,36.5872,955.00,54.50,19.40,25.01,130.00,17.00,0.00,29.62,1000.20,10.00,M,BKN,OVC,M,M,8000.00,9500.00,M,M,M,M,M,M,28.00,100.00,2024-03-30 13:51,54.50,KINS 301355Z AUTO 13017KT 10SM BKN080 OVC095 13/M07 A2962 RMK AO2 PK WND 10028/51 SLP002 T01251070 $,M
LSV,2024-03-30 13:55,-115.0343,36.2362,570.00,59.40,18.30,19.99,150.00,6.00,0.00,29.64,1002.40,10.00,M,OVC,M,M,M,12000.00,M,M,M,M,M,M,M,M,M,M,59.40,KLSV 301355Z AUTO 15006KT 10SM OVC120 15/M08 A2964 RMK AO2 SLP024 T01521076,M
EKO,2024-03-30 13:56,-115.7860,40.8242,1367.00,35.00,32.00,88.68,80.00,5.00,0.00,29.67,1004.70,10.00,M,OVC,M,M,M,7000.00,M,M,M,M,M,M,M,M,M,M,29.96,KEKO 301356Z AUTO 08005KT 10SM OVC070 02/00 A2967 RMK AO2 SLP047 T00170000,M
WMC,2024-03-30 13:56,-117.8072,40.9019,1315.00,37.00,33.00,85.29,40.00,7.00,0.00,29.65,1003.60,10.00,M,FEW,BKN,M,M,6000.00,8000.00,M,M,M,M,M,M,M,M,M,30.87,KWMC 301356Z AUTO 04007KT 10SM FEW060 BKN080 03/01 A2965 RMK AO2 SLP036 T00280006,M
NFL,2024-03-30 13:56,-118.7010,39.4166,1199.00,36.00,34.00,92.35,260.00,11.00,0.01,29.63,1001.90,8.00,M,SCT,OVC,M,M,1500.00,2500.00,M,M,RA,M,M,M,M,M,M,27.52,KNFL 301356Z 26011KT 8SM RA SCT015 OVC025 02/01 A2963 RMK AO2 RAB1258 SLP019 P0001 T00220011,M
HND,2024-03-30 13:56,-115.1344,35.9729,742.79,55.00,23.00,28.61,170.00,13.00,0.00,29.68,1005.50,10.00,18.00,BKN,M,M,M,12000.00,M,M,M,M,M,M,M,M,M,M,55.00,KHND 301356Z 17013G18KT 10SM BKN120 13/M05 A2968 RMK AO2 SLP055 T01281050,M
TPH,2024-03-30 13:56,-117.0904,38.0505,1654.00,38.00,27.00,64.24,170.00,16.00,0.00,29.63,1001.10,10.00,M,OVC,M,M,M,2900.00,M,M,M,M,M,M,M,M,M,M,28.24,KTPH 301356Z AUTO 17016KT 10SM OVC029 03/M03 A2963 RMK AO2 SLP011 T00331028,M
LAS,2024-03-30 13:56,-115.1634,36.0719,663.00,55.00,22.00,27.43,170.00,6.00,0.00,29.66,1003.20,10.00,M,SCT,BKN,M,M,14000.00,22000.00,M,M,M,M,M,M,M,M,M,55.00,KLAS 301356Z 17006KT 10SM SCT140 BKN220 13/M06 A2966 RMK AO2 SLP032 T01281056,M
RNO,2024-03-30 14:03,-119.7711,39.4839,1341.00,35.00,33.00,92.32,100.00,3.00,0.00,29.63,M,10.00,M,BKN,OVC,M,M,800.00,1200.00,M,M,M,M,M,M,M,M,M,32.12,KRNO 301403Z 10003KT 10SM BKN008 OVC012 02/01 A2963 RMK AO2 CIG 005V010 T00170006 $,M
05U,2024-03-30 14:10,-116.0051,39.6042,1811.23,M,M,M,320.00,6.00,0.00,29.68,M,10.00,M,BKN,BKN,M,M,4100.00,6000.00,M,M,M,M,M,M,M,M,M,M,K05U 301410Z AUTO 32006KT 10SM BKN041 BKN060 A2968 RMK A01,M
NFL,2024-03-30 14:12,-118.7010,39.4166,1199.00,34.00,32.00,92.29,250.00,14.00,T,29.64,M,6.00,M,SCT,BKN,OVC,M,1000.00,1500.00,2500.00,M,-SN BR,M,M,M,M,M,M,23.74,KNFL 301412Z 25014KT 6SM -SN BR SCT010 BKN015 OVC025 01/00 A2964 RMK AO2 RAE11SNB11 P0000 T00110000,M
BVU,2024-03-30 14:15,-114.8611,35.9475,671.00,57.20,21.20,24.49,130.00,8.00,0.00,29.68,M,10.00,13.00,OVC,M,M,M,9500.00,M,M,M,M,M,M,M,M,M,M,57.20,KBVU 301415Z AUTO 13008G13KT 10SM OVC095 14/M06 A2968 RMK AO2,M
CXP,2024-03-30 14:15,-119.7326,39.1923,1431.00,33.80,33.80,100.00,0.00,0.00,0.00,29.64,M,9.00,M,OVC,M,M,M,1100.00,M,M,M,M,M,M,M,M,M,M,33.80,KCXP 301415Z AUTO 00000KT 9SM OVC011 01/01 A2964 RMK AO2,M
RTS,2024-03-30 14:15,-119.8764,39.6682,1539.00,32.00,32.00,100.00,0.00,0.00,0.00,29.64,M,10.00,M,BKN,OVC,M,M,800.00,1300.00,M,M,-RA,M,M,M,M,M,M,32.00,KRTS 301415Z AUTO 00000KT 10SM -RA BKN008 OVC013 00/00 A2964 RMK AO2,M
MEV,2024-03-30 14:15,-119.7500,38.9963,1441.42,30.20,30.20,100.00,120.00,3.00,0.00,29.62,M,10.00,M,SCT,BKN,M,M,2100.00,4200.00,M,M,M,M,M,M,M,M,M,26.63,KMEV 301415Z AUTO 12003KT 10SM SCT021 BKN042 M01/M01 A2962 RMK AO2,M
HTH,2024-03-30 14:15,-118.6315,38.5448,1282.89,39.20,35.60,86.79,0.00,0.00,0.00,29.64,M,9.00,M,SCT,OVC,M,M,1300.00,2100.00,M,M,M,M,M,M,M,M,M,39.20,KHTH 301415Z AUTO 00000KT 9SM SCT013 OVC021 04/02 A2964 RMK A01,M
10U,2024-03-30 14:15,-116.1876,41.9532,1637.00,33.80,32.00,93.03,10.00,6.00,0.00,29.69,M,10.00,M,BKN,OVC,M,M,5000.00,6500.00,M,M,M,M,M,M,M,M,M,27.70,K10U 301415Z AUTO 01006KT 10SM BKN050 OVC065 01/00 A2969 RMK AO2,M
BAM,2024-03-30 14:15,-116.8743,40.5990,1382.36,35.60,35.60,100.00,20.00,4.00,0.00,29.67,M,10.00,M,SCT,M,M,M,10000.00,M,M,M,M,M,M,M,M,M,M,31.62,KBAM 301415Z AUTO 02004KT 10SM SCT100 02/02 A2967 RMK AO1,M
TMT,2024-03-30 14:15,-117.1971,39.4643,1749.34,30.20,30.20,100.00,0.00,0.00,0.00,29.64,M,0.50,M,OVC,M,M,M,200.00,M,M,M,FZFG,M,M,M,M,M,M,30.20,KTMT 301415Z AUTO 00000KT 1/2SM FZFG OVC002 M01/M01 A2964 RMK AO2 T10101010,M
LOL,2024-03-30 14:25,-118.5701,40.0684,1192.43,38.00,35.00,88.83,50.00,8.00,T,29.63,M,10.00,M,BKN,OVC,M,M,2800.00,3400.00,M,M,-RA,M,M,M,M,M,M,31.50,KLOL 301425Z AUTO 05008KT 10SM -RA BKN028 OVC034 03/02 A2963 RMK AO2 P0000 T00330017,M
CXP,2024-03-30 14:30,-119.7326,39.1923,1431.00,33.80,33.80,100.00,0.00,0.00,0.00,29.65,M,8.00,M,BKN,OVC,M,M,1200.00,1700.00,M,M,M,M,M,M,M,M,M,33.80,KCXP 301430Z AUTO 00000KT 8SM BKN012 OVC017 01/01 A2965 RMK AO2,M
DRA,2024-03-30 14:30,-116.0278,36.6206,1009.00,50.00,30.00,45.93,230.00,14.00,T,29.64,M,10.00,M,BKN,OVC,M,M,7000.00,8500.00,M,M,M,M,M,M,M,M,M,50.00,KDRA 301430Z AUTO 23014KT 10SM BKN070 OVC085 10/M01 A2964 RMK AO2 WSHFT 1413 RAE05 P0000 T01001011,M
05U,2024-03-30 14:30,-116.0051,39.6042,1811.23,M,M,M,300.00,7.00,0.00,29.68,M,10.00,M,BKN,BKN,BKN,M,4000.00,4600.00,9500.00,M,M,M,M,M,M,M,M,M,K05U 301430Z AUTO 30007KT 10SM BKN040 BKN046 BKN095 A2968 RMK A01,M
BVU,2024-03-30 14:35,-114.8611,35.9475,671.00,57.20,21.20,24.49,130.00,7.00,0.00,29.68,M,10.00,M,OVC,M,M,M,10000.00,M,M,M,M,M,M,M,M,M,M,57.20,KBVU 301435Z AUTO 13007KT 10SM OVC100 14/M06 A2968 RMK AO2,M
RTS,2024-03-30 14:35,-119.8764,39.6682,1539.00,32.00,32.00,100.00,270.00,3.00,0.00,29.64,M,10.00,M,BKN,OVC,M,M,400.00,800.00,M,M,M,M,M,M,M,M,M,28.69,KRTS 301435Z AUTO 27003KT 10SM BKN004 OVC008 00/00 A2964 RMK AO2,M
MEV,2024-03-30 14:35,-119.7500,38.9963,1441.42,32.00,32.00,100.00,0.00,0.00,0.00,29.63,M,10.00,M,BKN,BKN,OVC,M,1800.00,2300.00,4200.00,M,M,M,M,M,M,M,M,32.00,KMEV 301435Z AUTO 00000KT 10SM BKN018 BKN023 OVC042 M00/M00 A2963 RMK AO2,M
HTH,2024-03-30 14:35,-118.6315,38.5448,1282.89,37.40,35.60,93.14,300.00,4.00,0.00,29.66,M,10.00,M,SCT,OVC,M,M,1200.00,2000.00,M,M,M,M,M,M,M,M,M,33.73,KHTH 301435Z AUTO 30004KT 10SM SCT012 OVC020 03/02 A2966 RMK A01,M
10U,2024-03-30 14:35,-116.1876,41.9532,1637.00,33.80,32.00,93.03,10.00,4.00,0.00,29.70,M,10.00,M,BKN,OVC,M,M,5500.00,6500.00,M,M,M,M,M,M,M,M,M,29.52,K10U 301435Z AUTO 01004KT 10SM BKN055 OVC065 01/00 A2970 RMK AO2,M
BAM,2024-03-30 14:35,-116.8743,40.5990,1382.36,35.60,35.60,100.00,360.00,7.00,0.00,29.67,M,10.00,M,SCT,M,M,M,8000.00,M,M,M,M,M,M,M,M,M,M,29.17,KBAM 301435Z AUTO 36007KT 10SM SCT080 02/02 A2967 RMK AO1,M
TMT,2024-03-30 14:35,-117.1971,39.4643,1749.34,30.20,30.20,100.00,0.00,0.00,0.00,29.64,M,0.50,M,OVC,M,M,M,200.00,M,M,M,FZFG,M,M,M,M,M,M,30.20,KTMT 301435Z AUTO 00000KT 1/2SM FZFG OVC002 M01/M01 A2964 RMK AO2 T10101010,M
TPH,2024-03-30 14:41,-117.0904,38.0505,1654.00,35.00,32.00,88.68,170.00,12.00,T,29.65,M,8.00,M,BKN,OVC,M,M,900.00,2000.00,M,M,-SN,M,M,M,M,M,M,25.82,KTPH 301441Z AUTO 17012KT 8SM -SN BKN009 OVC020 02/00 A2965 RMK AO2 UPB35E40SNB40 CIG 007V013 P0000 T00170000,M
05U,2024-03-30 14:50,-116.0051,39.6042,1811.23,M,M,M,290.00,8.00,0.00,29.68,M,10.00,M,OVC,M,M,M,4000.00,M,M,M,M,M,M,M,M,M,M,M,K05U 301450Z AUTO 29008KT 10SM OVC040 A2968 RMK A01,M
P68,2024-03-30 14:53,-116.0056,39.6014,1993.00,38.00,30.00,72.64,130.00,7.00,0.00,29.65,1001.40,M,M,M,M,M,M,M,M,M,M,M,M,M,M,M,M,M,32.09,KP68 301453Z AUTO 13007KT 03/M01 A2965 RMK AO1 SLP014 T00331011 53000,M
DRA,2024-03-30 14:53,-116.0278,36.6206,1009.00,51.00,30.00,44.26,240.00,12.00,T,29.64,1001.20,10.00,M,BKN,OVC,M,M,6000.00,8000.00,M,M,M,M,M,M,M,M,M,51.00,KDRA 301453Z AUTO 24012KT 10SM BKN060 OVC080 11/M01 A2964 RMK AO2 WSHFT 1413 RAE05 SLP012 P0000 60000 T01061011 55001,M
ELY,2024-03-30 14:53,-114.8453,39.2950,1909.00,33.00,28.00,81.63,180.00,15.00,0.00,29.69,1004.10,10.00,24.00,CLR,M,M,M,M,M,M,M,M,M,M,M,M,M,M,22.08,KELY 301453Z AUTO 18015G24KT 10SM CLR 01/M02 A2969 RMK AO2 SLP041 T00061022 56001,M
VGT,2024-03-30 14:53,-115.1933,36.2111,667.00,58.00,23.00,25.67,110.00,6.00,0.00,29.67,1005.20,10.00,M,BKN,M,M,M,12000.00,M,M,M,M,M,M,M,M,M,M,58.00,KVGT 301453Z 11006KT 10SM BKN120 14/M05 A2967 RMK AO2 SLP052 T01441050 53006,M
LOL,2024-03-30 14:53,-118.5701,40.0684,1192.43,39.00,36.00,88.87,20.00,9.00,T,29.64,1003.70,10.00,M,FEW,OVC,M,M,2800.00,6000.00,M,M,M,M,M,M,M,M,M,32.22,KLOL 301453Z AUTO 02009KT 10SM FEW028 OVC060 04/02 A2964 RMK AO2 RAE38 SLP037 P0000 60000 T00390022 53009,M
BVU,2024-03-30 14:55,-114.8611,35.9475,671.00,57.20,23.00,26.42,160.00,5.00,0.00,29.68,M,10.00,M,SCT,M,M,M,10000.00,M,M,M,M,M,M,M,M,M,M,57.20,KBVU 301455Z AUTO 16005KT 10SM SCT100 14/M05 A2968 RMK AO2,M
CXP,2024-03-30 14:55,-119.7326,39.1923,1431.00,33.80,33.80,100.00,0.00,0.00,0.00,29.66,M,1.25,M,FEW,OVC,M,M,400.00,1400.00,M,M,UP BR,M,M,M,M,M,M,33.80,KCXP 301455Z AUTO 00000KT 1 1/4SM UP BR FEW004 OVC014 01/01 A2966 RMK AO2,M
RNO,2024-03-30 14:55,-119.7711,39.4839,1341.00,36.00,33.00,88.73,0.00,0.00,0.00,29.64,1003.40,8.00,M,FEW,OVC,M,M,700.00,1400.00,M,M,M,M,M,M,M,M,M,36.00,KRNO 301455Z 00000KT 8SM FEW007 OVC014 02/01 A2964 RMK AO2 SLP034 T00220006 53004 $,M
RTS,2024-03-30 14:55,-119.8764,39.6682,1539.00,32.00,32.00,100.00,270.00,3.00,0.03,29.65,M,10.00,M,SCT,OVC,M,M,500.00,1000.00,M,M,M,M,M,M,M,M,M,28.69,KRTS 301455Z AUTO 27003KT 10SM SCT005 OVC010 00/00 A2965 RMK AO2 P0003,M
MEV,2024-03-30 14:55,-119.7500,38.9963,1441.42,32.00,32.00,100.00,210.00,3.00,0.00,29.64,M,10.00,M,OVC,M,M,M,1800.00,M,M,M,M,M,M,M,M,M,M,28.69,KMEV 301455Z AUTO 21003KT 10SM OVC018 M00/M00 A2964 RMK AO2,M
HTH,2024-03-30 14:55,-118.6315,38.5448,1282.89,37.40,35.60,93.14,330.00,6.00,0.01,29.65,M,10.00,M,BKN,OVC,M,M,1400.00,2000.00,M,M,M,M,M,M,M,M,M,32.03,KHTH 301455Z AUTO 33006KT 10SM BKN014 OVC020 03/02 A2965 RMK A01 P0001,M
10U,2024-03-30 14:55,-116.1876,41.9532,1637.00,35.60,33.80,93.08,20.00,5.00,0.00,29.70,M,10.00,M,SCT,OVC,M,M,6000.00,8500.00,M,M,M,M,M,M,M,M,M,30.67,K10U 301455Z AUTO 02005KT 10SM SCT060 OVC085 02/01 A2970 RMK AO2,M
BAM,2024-03-30 14:55,-116.8743,40.5990,1382.36,37.40,35.60,93.14,350.00,7.00,0.00,29.67,M,10.00,M,BKN,M,M,M,8500.00,M,M,M,M,M,M,M,M,M,M,31.36,KBAM 301455Z AUTO 35007KT 10SM BKN085 03/02 A2967 RMK AO1,M
TMT,2024-03-30 14:55,-117.1971,39.4643,1749.34,30.60,30.60,100.00,0.00,0.00,0.00,29.64,M,2.00,M,OVC,M,M,M,200.00,M,M,M,BR,M,M,M,M,M,M,30.60,KTMT 301455Z AUTO 00000KT 2SM BR OVC002 M01/M01 A2964 RMK AO2 VIS 1V5 T10081008,M
INS,2024-03-30 14:55,-115.6733,36.5872,955.00,54.00,17.00,22.98,130.00,15.00,0.00,29.64,1001.00,10.00,22.00,FEW,BKN,OVC,M,4800.00,7500.00,9500.00,M,M,M,M,M,29.00,110.00,2024-03-30 14:34,54.00,KINS 301455Z AUTO 13015G22KT 10SM FEW048 BKN075 OVC095 12/M08 A2964 RMK AO2 PK WND 11029/34 SLP010 T01231083 53002 $,M
LSV,2024-03-30 14:55,-115.0343,36.2362,570.00,59.50,20.70,22.07,140.00,6.00,0.00,29.65,1002.80,10.00,M,FEW,FEW,M,M,9500.00,12000.00,M,M,M,M,M,M,M,M,M,59.50,KLSV 301455Z AUTO 14006KT 10SM FEW095 FEW120 15/M06 A2965 RMK AO2 SLP028 T01531063 53006,M
EKO,2024-03-30 14:56,-115.7860,40.8242,1367.00,37.00,33.00,85.29,80.00,6.00,0.00,29.69,1005.30,10.00,M,BKN,OVC,M,M,7500.00,9500.00,M,M,M,M,M,M,M,M,M,31.55,KEKO 301456Z AUTO 08006KT 10SM BKN075 OVC095 03/01 A2969 RMK AO2 SLP053 T00280006 53007,M
WMC,2024-03-30 14:56,-117.8072,40.9019,1315.00,39.00,34.00,82.08,60.00,7.00,0.00,29.66,1003.80,10.00,M,SCT,BKN,M,M,9000.00,11000.00,M,M,M,M,M,M,M,M,M,33.31,KWMC 301456Z AUTO 06007KT 10SM SCT090 BKN110 04/01 A2966 RMK AO2 SLP038 T00390011 53006,M
HND,2024-03-30 14:56,-115.1344,35.9729,742.79,55.00,25.00,31.11,170.00,12.00,0.00,29.69,1005.90,10.00,M,SCT,M,M,M,12000.00,M,M,M,M,M,M,M,M,M,M,55.00,KHND 301456Z 17012KT 10SM SCT120 13/M04 A2969 RMK AO2 SLP059 T01281039 53004,M
TPH,2024-03-30 14:56,-117.0904,38.0505,1654.00,34.00,33.00,96.08,170.00,10.00,T,29.65,1002.70,5.00,M,BKN,OVC,M,M,700.00,1300.00,M,M,-SN BR,M,M,M,M,M,M,25.48,KTPH 301456Z AUTO 17010KT 5SM -SN BR BKN007 OVC013 01/01 A2965 RMK AO2 UPB35E40SNB40 SLP027 P0000 60000 T00110006 53010,M
LAS,2024-03-30 14:56,-115.1634,36.0719,663.00,56.00,24.00,28.77,170.00,6.00,0.00,29.67,1003.50,10.00,M,SCT,BKN,M,M,8000.00,15000.00,M,M,M,M,M,M,M,M,M,56.00,KLAS 301456Z 17006KT 10SM SCT080 BKN150 13/M04 A2967 RMK AO2 SLP035 T01331044 53002,M
NFL,2024-03-30 14:56,-118.7010,39.4166,1199.00,34.00,32.00,92.29,280.00,7.00,0.05,29.65,1002.50,2.50,M,SCT,OVC,M,M,800.00,1200.00,M,M,-SN BR,M,M,M,M,M,M,27.22,KNFL 301456Z COR 28007KT 2 1/2SM -SN BR SCT008 OVC012 01/00 A2965 RMK AO2 RAE11SNB11 SLP025 P0005 60006 T00110000 53014,M
05U,2024-03-30 15:10,-116.0051,39.6042,1811.23,39.20,30.20,69.88,320.00,12.00,0.00,29.68,M,10.00,M,FEW,BKN,OVC,M,2800.00,3500.00,4000.00,M,M,M,M,M,M,M,M,31.17,K05U 301510Z AUTO 32012KT 10SM FEW028 BKN035 OVC040 04/M01 A2968 RMK A01,M
BVU,2024-03-30 15:15,-114.8611,35.9475,671.00,57.20,23.00,26.42,210.00,5.00,0.00,29.69,M,10.00,M,BKN,M,M,M,9500.00,M,M,M,M,M,M,M,M,M,M,57.20,KBVU 301515Z AUTO 21005KT 10SM BKN095 14/M05 A2969 RMK AO2,M
CXP,2024-03-30 15:15,-119.7326,39.1923,1431.00,33.80,33.80,100.00,0.00,0.00,0.00,29.64,M,1.75,M,FEW,OVC,M,M,300.00,1200.00,M,M,BR,M,M,M,M,M,M,33.80,KCXP 301515Z AUTO 00000KT 1 3/4SM BR FEW003 OVC012 01/01 A2964 RMK AO2,M
RTS,2024-03-30 15:15,-119.8764,39.6682,1539.00,32.00,32.00,100.00,300.00,3.00,0.00,29.65,M,10.00,M,OVC,M,M,M,1100.00,M,M,M,M,M,M,M,M,M,M,28.69,KRTS 301515Z AUTO 30003KT 10SM OVC011 00/00 A2965 RMK AO2,M
MEV,2024-03-30 15:15,-119.7500,38.9963,1441.42,32.00,32.00,100.00,240.00,3.00,0.00,29.63,M,9.00,M,OVC,M,M,M,1600.00,M,M,M,M,M,M,M,M,M,M,28.69,KMEV 301515Z AUTO 24003KT 9SM OVC016 00/00 A2963 RMK AO2,M
HTH,2024-03-30 15:15,-118.6315,38.5448,1282.89,37.40,35.60,93.14,330.00,5.00,0.00,29.65,M,10.00,M,OVC,M,M,M,1700.00,M,M,M,M,M,M,M,M,M,M,32.81,KHTH 301515Z AUTO 33005KT 10SM OVC017 03/02 A2965 RMK A01,M
BAM,2024-03-30 15:15,-116.8743,40.5990,1382.36,37.40,35.60,93.14,340.00,7.00,0.00,29.68,M,10.00,M,OVC,M,M,M,9000.00,M,M,M,M,M,M,M,M,M,M,31.36,KBAM 301515Z AUTO 34007KT 10SM OVC090 03/02 A2968 RMK AO1,M
TMT,2024-03-30 15:15,-117.1971,39.4643,1749.34,30.60,30.60,100.00,0.00,0.00,0.00,29.64,M,2.00,M,OVC,M,M,M,200.00,M,M,M,BR,M,M,M,M,M,M,30.60,KTMT 301515Z AUTO 00000KT 2SM BR OVC002 M01/M01 A2964 RMK AO2 T10081008,M
10U,2024-03-30 15:15,-116.1876,41.9532,1637.00,37.40,33.80,86.69,20.00,5.00,0.00,29.70,M,10.00,M,FEW,OVC,M,M,6000.00,8000.00,M,M,M,M,M,M,M,M,M,32.81,K10U 301515Z AUTO 02005KT 10SM FEW060 OVC080 03/01 A2970 RMK AO2,M
NFL,2024-03-30 15:24,-118.7010,39.4166,1199.00,34.00,33.00,96.08,280.00,4.00,0.03,29.65,M,4.00,M,SCT,OVC,M,M,1000.00,1700.00,M,M,-RASN BR,M,M,M,M,M,M,29.76,KNFL 301524Z 28004KT 4SM -RASN BR SCT010 OVC017 01/01 A2965 RMK AO2 RAB24 P0003 T00110006,M
TPH,2024-03-30 15:30,-117.0904,38.0505,1654.00,35.00,33.00,92.32,180.00,10.00,T,29.66,M,8.00,M,OVC,M,M,M,600.00,M,M,M,-SN,M,M,M,M,M,M,26.73,KTPH 301530Z AUTO 18010KT 8SM -SN OVC006 02/01 A2966 RMK AO2 P0000 T00170006,M
05U,2024-03-30 15:30,-116.0051,39.6042,1811.23,39.20,30.20,69.88,310.00,11.00,0.00,29.67,M,10.00,18.00,FEW,BKN,M,M,2700.00,3500.00,M,M,M,M,M,M,M,M,M,31.57,K05U 301530Z AUTO 31011G18KT 10SM FEW027 BKN035 04/M01 A2967 RMK A01,M
INS,2024-03-30 15:32,-115.6733,36.5872,955.00,55.40,19.40,24.21,140.00,11.00,0.00,29.63,1000.50,10.00,16.00,FEW,BKN,OVC,M,4900.00,7000.00,9000.00,M,M,M,M,M,M,M,M,55.40,KINS 301532Z AUTO 14011G16KT 10SM FEW049 BKN070 OVC090 13/M07 A2963 RMK AO2 WSHFT 29 SLP005 $,M
BVU,2024-03-30 15:35,-114.8611,35.9475,671.00,57.20,24.80,28.48,180.00,6.00,0.00,29.69,M,10.00,M,BKN,BKN,M,M,10000.00,12000.00,M,M,M,M,M,M,M,M,M,57.20,KBVU 301535Z AUTO 18006KT 10SM BKN100 BKN120 14/M04 A2969 RMK AO2,M
CXP,2024-03-30 15:35,-119.7326,39.1923,1431.00,35.60,35.60,100.00,0.00,0.00,0.00,29.65,M,4.00,M,SCT,OVC,M,M,400.00,1200.00,M,M,BR,M,M,M,M,M,M,35.60,KCXP 301535Z AUTO 00000KT 4SM BR SCT004 OVC012 02/02 A2965 RMK AO2,M
RTS,2024-03-30 15:35,-119.8764,39.6682,1539.00,32.00,32.00,100.00,310.00,5.00,0.00,29.66,M,9.00,M,OVC,M,M,M,1100.00,M,M,M,-UP,M,M,M,M,M,M,26.40,KRTS 301535Z AUTO 31005KT 9SM -UP OVC011 00/00 A2966 RMK AO2,M
MEV,2024-03-30 15:35,-119.7500,38.9963,1441.42,32.00,32.00,100.00,0.00,0.00,0.00,29.63,M,6.00,M,BKN,OVC,M,M,500.00,1200.00,M,M,BR,M,M,M,M,M,M,32.00,KMEV 301535Z AUTO 00000KT 6SM BR BKN005 OVC012 00/00 A2963 RMK AO2,M
HTH,2024-03-30 15:35,-118.6315,38.5448,1282.89,37.40,35.60,93.14,340.00,5.00,0.00,29.66,M,10.00,M,OVC,M,M,M,1700.00,M,M,M,M,M,M,M,M,M,M,32.81,KHTH 301535Z AUTO 34005KT 10SM OVC017 03/02 A2966 RMK A01,M
TMT,2024-03-30 15:35,-117.1971,39.4643,1749.34,31.00,31.00,100.00,0.00,0.00,0.00,29.64,M,2.00,M,OVC,M,M,M,200.00,M,M,M,BR,M,M,M,M,M,M,31.00,KTMT 301535Z AUTO 00000KT 2SM BR OVC002 M01/M01 A2964 RMK AO2 T10061006,M
10U,2024-03-30 15:35,-116.1876,41.9532,1637.00,37.40,33.80,86.69,M,4.00,0.00,29.70,M,10.00,M,FEW,SCT,M,M,6000.00,8000.00,M,M,M,M,M,M,M,M,M,33.73,K10U 301535Z AUTO VRB04KT 10SM FEW060 SCT080 03/01 A2970 RMK AO2,M
BAM,2024-03-30 15:35,-116.8743,40.5990,1382.36,39.20,35.60,86.79,350.00,9.00,0.00,29.67,M,10.00,M,OVC,M,M,M,8000.00,M,M,M,M,M,M,M,M,M,M,32.47,KBAM 301535Z AUTO 35009KT 10SM OVC080 04/02 A2967 RMK AO1,M
TPH,2024-03-30 15:41,-117.0904,38.0505,1654.00,35.00,33.00,92.32,180.00,11.00,0.01,29.66,M,3.00,M,BKN,OVC,M,M,800.00,1200.00,M,M,-SN BR,M,M,M,M,M,M,26.26,KTPH 301541Z AUTO 18011KT 3SM -SN BR BKN008 OVC012 02/01 A2966 RMK AO2 P0001 T00170006,M
TPH,2024-03-30 15:46,-117.0904,38.0505,1654.00,34.00,32.00,92.29,180.00,10.00,0.01,29.66,M,1.75,M,OVC,M,M,M,800.00,M,M,M,-SN BR,M,M,M,M,M,M,25.48,KTPH 301546Z AUTO 18010KT 1 3/4SM -SN BR OVC008 01/00 A2966 RMK AO2 P0001 T00110000,M
05U,2024-03-30 15:50,-116.0051,39.6042,1811.23,M,M,M,310.00,12.00,0.00,29.67,M,10.00,M,SCT,M,M,M,3600.00,M,M,M,M,M,M,M,M,M,M,M,K05U 301550Z AUTO 31012KT 10SM SCT036 A2967 RMK A01,M
P68,2024-03-30 15:53,-116.0056,39.6014,1993.00,38.00,29.00,69.74,150.00,11.00,0.00,29.64,1001.50,M,19.00,M,M,M,M,M,M,M,M,M,M,M,M,M,M,M,30.05,KP68 301553Z AUTO 15011G19KT 03/M02 A2964 RMK AO1 SLP015 T00331017,M
DRA,2024-03-30 15:53,-116.0278,36.6206,1009.00,46.00,38.00,73.47,230.00,10.00,0.02,29.68,1002.90,7.00,17.00,BKN,OVC,M,M,3600.00,4700.00,M,M,-RA,M,M,M,M,M,M,40.52,KDRA 301553Z AUTO 23010G17KT 7SM -RA BKN036 OVC047 08/03 A2968 RMK AO2 RAB23 SLP029 P0002 T00780033,M
ELY,2024-03-30 15:53,-114.8453,39.2950,1909.00,37.00,30.00,75.56,170.00,14.00,0.00,29.70,1003.50,10.00,21.00,CLR,M,M,M,M,M,M,M,M,M,M,M,M,M,M,27.61,KELY 301553Z AUTO 17014G21KT 10SM CLR 03/M01 A2970 RMK AO2 SLP035 T00281011,M
VGT,2024-03-30 15:53,-115.1933,36.2111,667.00,59.00,26.00,28.07,170.00,6.00,0.00,29.67,1005.30,10.00,M,OVC,M,M,M,8000.00,M,M,M,M,M,M,M,M,M,M,59.00,KVGT 301553Z 17006KT 10SM OVC080 15/M03 A2967 RMK AO2 SLP053 T01501033,M
LOL,2024-03-30 15:53,-118.5701,40.0684,1192.43,40.00,37.00,88.92,20.00,8.00,0.01,29.65,1004.20,10.00,M,BKN,OVC,M,M,4100.00,5000.00,M,M,-RA,M,M,M,M,M,M,33.97,KLOL 301553Z AUTO 02008KT 10SM -RA BKN041 OVC050 04/03 A2965 RMK AO2 RAB1458 SLP042 P0001 T00440028,M
BVU,2024-03-30 15:55,-114.8611,35.9475,671.00,57.20,24.80,28.48,170.00,9.00,0.00,29.68,M,10.00,M,BKN,BKN,M,M,9500.00,12000.00,M,M,M,M,M,M,M,M,M,57.20,KBVU 301555Z AUTO 17009KT 10SM BKN095 BKN120 14/M04 A2968 RMK AO2,M
CXP,2024-03-30 15:55,-119.7326,39.1923,1431.00,35.60,35.60,100.00,0.00,0.00,0.00,29.65,M,10.00,M,SCT,OVC,M,M,400.00,1100.00,M,M,M,M,M,M,M,M,M,35.60,KCXP 301555Z AUTO 00000KT 10SM SCT004 OVC011 02/02 A2965 RMK AO2,M
RNO,2024-03-30 15:55,-119.7711,39.4839,1341.00,38.00,34.00,85.35,330.00,4.00,0.00,29.64,1003.30,10.00,M,OVC,M,M,M,800.00,M,M,M,M,M,M,M,M,M,M,34.43,KRNO 301555Z 33004KT 10SM OVC008 03/01 A2964 RMK AO2 SLP033 T00330011 $,M
RTS,2024-03-30 15:55,-119.8764,39.6682,1539.00,32.00,32.00,100.00,330.00,4.00,0.03,29.64,M,10.00,M,OVC,M,M,M,1200.00,M,M,M,M,M,M,M,M,M,M,27.42,KRTS 301555Z AUTO 33004KT 10SM OVC012 00/00 A2964 RMK AO2 P0003,M
MEV,2024-03-30 15:55,-119.7500,38.9963,1441.42,32.00,32.00,100.00,160.00,4.00,0.00,29.64,M,9.00,M,BKN,OVC,M,M,400.00,800.00,M,M,M,M,M,M,M,M,M,27.42,KMEV 301555Z AUTO 16004KT 9SM BKN004 OVC008 00/00 A2964 RMK AO2,M
HTH,2024-03-30 15:55,-118.6315,38.5448,1282.89,37.40,37.40,100.00,330.00,4.00,0.00,29.67,M,10.00,M,BKN,OVC,M,M,1500.00,2100.00,M,M,M,M,M,M,M,M,M,33.73,KHTH 301555Z AUTO 33004KT 10SM BKN015 OVC021 03/03 A2967 RMK A01,M
10U,2024-03-30 15:55,-116.1876,41.9532,1637.00,41.00,33.80,75.33,M,4.00,0.00,29.70,M,10.00,M,CLR,M,M,M,M,M,M,M,M,M,M,M,M,M,M,37.93,K10U 301555Z AUTO VRB04KT 10SM CLR 05/01 A2970 RMK AO2,M
BAM,2024-03-30 15:55,-116.8743,40.5990,1382.36,39.20,37.40,93.19,360.00,7.00,0.00,29.67,M,10.00,M,OVC,M,M,M,8000.00,M,M,M,M,M,M,M,M,M,M,33.56,KBAM 301555Z AUTO 36007KT 10SM OVC080 04/03 A2967 RMK AO1,M
TMT,2024-03-30 15:55,-117.1971,39.4643,1749.34,32.00,32.00,100.00,190.00,4.00,0.00,29.65,M,0.50,M,OVC,M,M,M,200.00,M,M,M,FG,M,M,M,M,M,M,27.42,KTMT 301555Z AUTO 19004KT 1/2SM FG OVC002 00/00 A2965 RMK AO2 T10011001,M
INS,2024-03-30 15:55,-115.6733,36.5872,955.00,54.50,19.40,25.01,120.00,16.00,0.00,29.64,1000.80,10.00,19.00,OVC,M,M,M,6000.00,M,M,M,M,M,M,M,M,M,M,54.50,KINS 301555Z AUTO 12016G19KT 10SM OVC060 13/M07 A2964 RMK AO2 SLP008 T01251070 $,M
LSV,2024-03-30 15:55,-115.0343,36.2362,570.00,59.50,23.70,25.05,170.00,10.00,0.00,29.65,1002.80,10.00,M,SCT,M,M,M,9500.00,M,M,M,M,M,M,M,M,M,M,59.50,KLSV 301555Z AUTO 17010KT 10SM SCT095 15/M05 A2965 RMK AO2 SLP028 T01531046,M
EKO,2024-03-30 15:56,-115.7860,40.8242,1367.00,38.00,34.00,85.35,90.00,5.00,0.00,29.68,1005.30,10.00,M,OVC,M,M,M,8500.00,M,M,M,M,M,M,M,M,M,M,33.52,KEKO 301556Z AUTO 09005KT 10SM OVC085 03/01 A2968 RMK AO2 SLP053 T00330011,M
WMC,2024-03-30 15:56,-117.8072,40.9019,1315.00,42.00,35.00,76.03,50.00,7.00,0.00,29.66,1003.90,10.00,M,FEW,BKN,BKN,M,1300.00,7000.00,10000.00,M,M,M,M,M,M,M,M,36.97,KWMC 301556Z AUTO 05007KT 10SM FEW013 BKN070 BKN100 06/02 A2966 RMK AO2 SLP039 T00560017,M
HND,2024-03-30 15:56,-115.1344,35.9729,742.79,57.00,28.00,32.75,170.00,13.00,0.00,29.69,1005.70,10.00,18.00,SCT,BKN,M,M,10000.00,12000.00,M,M,M,M,M,M,M,M,M,57.00,KHND 301556Z 17013G18KT 10SM SCT100 BKN120 14/M02 A2969 RMK AO2 SLP057 T01391022,M
TPH,2024-03-30 15:56,-117.0904,38.0505,1654.00,34.00,33.00,96.08,170.00,9.00,0.02,29.66,1003.10,2.50,M,BKN,OVC,M,M,800.00,1500.00,M,M,-SN BR,M,M,M,M,M,M,26.00,KTPH 301556Z AUTO 17009KT 2 1/2SM -SN BR BKN008 OVC015 01/01 A2966 RMK AO2 SLP031 P0002 T00110006,M
LAS,2024-03-30 15:56,-115.1634,36.0719,663.00,56.00,27.00,32.59,160.00,9.00,0.00,29.67,1003.70,10.00,17.00,BKN,M,M,M,10000.00,M,M,M,M,M,M,M,M,M,M,56.00,KLAS 301556Z 16009G17KT 10SM BKN100 13/M03 A2967 RMK AO2 SLP037 T01331028,M
NFL,2024-03-30 15:56,-118.7010,39.4166,1199.00,35.00,34.00,96.09,360.00,4.00,0.08,29.66,1002.60,5.00,M,SCT,OVC,M,M,1000.00,1700.00,M,M,-RASN BR,M,M,M,M,M,M,30.92,KNFL 301556Z COR 36004KT 5SM -RASN BR SCT010 OVC017 02/01 A2966 RMK AO2 RAB24 SLP026 P0008 T00170011,M
TPH,2024-03-30 16:03,-117.0904,38.0505,1654.00,35.00,33.00,92.32,160.00,9.00,T,29.66,M,3.00,M,BKN,OVC,M,M,900.00,1500.00,M,M,-SN BR,M,M,M,M,M,M,27.24,KTPH 301603Z AUTO 16009KT 3SM -SN BR BKN009 OVC015 02/01 A2966 RMK AO2 P0000 T00170006,M
INS,2024-03-30 16:05,-115.6733,36.5872,955.00,55.40,23.00,28.20,130.00,12.00,0.00,29.65,1001.40,10.00,M,FEW,OVC,M,M,3400.00,6000.00,M,M,M,M,M,M,M,M,M,55.40,KINS 301605Z AUTO 13012KT 10SM FEW034 OVC060 13/M05 A2965 RMK AO2 WSHFT 02 SLP014 $,M
05U,2024-03-30 16:10,-116.0051,39.6042,1811.23,39.20,30.20,69.88,310.00,15.00,0.00,29.67,M,10.00,21.00,BKN,BKN,M,M,3300.00,4000.00,M,M,M,M,M,M,M,M,M,30.11,K05U 301610Z AUTO 31015G21KT 10SM BKN033 BKN040 04/M01 A2967 RMK A01,M
INS,2024-03-30 16:12,-115.6733,36.5872,955.00,55.40,24.80,30.40,120.00,10.00,0.00,29.65,1001.40,10.00,M,SCT,OVC,M,M,3300.00,6000.00,M,M,-RA,M,M,M,M,M,M,55.40,KINS 301612Z AUTO 12010KT 10SM -RA SCT033 OVC060 13/M04 A2965 RMK AO2 RAB12 SLP014 $,M
BVU,2024-03-30 16:15,-114.8611,35.9475,671.00,59.00,23.00,24.76,160.00,13.00,0.00,29.68,M,10.00,M,OVC,M,M,M,9000.00,M,M,M,M,M,M,M,M,M,M,59.00,KBVU 301615Z AUTO 16013KT 10SM OVC090 15/M05 A2968 RMK AO2,M
CXP,2024-03-30 16:15,-119.7326,39.1923,1431.00,35.60,35.60,100.00,0.00,0.00,0.00,29.65,M,5.00,M,OVC,M,M,M,1000.00,M,M,M,UP BR,M,M,M,M,M,M,35.60,KCXP 301615Z AUTO 00000KT 5SM UP BR OVC010 02/02 A2965 RMK AO2,M
RTS,2024-03-30 16:15,-119.8764,39.6682,1539.00,32.00,32.00,100.00,320.00,5.00,0.00,29.65,M,10.00,M,OVC,M,M,M,1300.00,M,M,M,M,M,M,M,M,M,M,26.40,KRTS 301615Z AUTO 32005KT 10SM OVC013 00/00 A2965 RMK AO2,M
MEV,2024-03-30 16:15,-119.7500,38.9963,1441.42,32.00,32.00,100.00,0.00,0.00,0.00,29.64,M,10.00,M,OVC,M,M,M,700.00,M,M,M,M,M,M,M,M,M,M,32.00,KMEV 301615Z AUTO 00000KT 10SM OVC007 00/00 A2964 RMK AO2,M
HTH,2024-03-30 16:15,-118.6315,38.5448,1282.89,37.40,35.60,93.14,330.00,5.00,0.00,29.65,M,10.00,M,SCT,OVC,M,M,1300.00,1900.00,M,M,M,M,M,M,M,M,M,32.81,KHTH 301615Z AUTO 33005KT 10SM SCT013 OVC019 03/02 A2965 RMK A01,M
10U,2024-03-30 16:15,-116.1876,41.9532,1637.00,41.00,33.80,75.33,140.00,3.00,0.00,29.69,M,10.00,M,SCT,M,M,M,6000.00,M,M,M,M,M,M,M,M,M,M,38.98,K10U 301615Z AUTO 14003KT 10SM SCT060 05/01 A2969 RMK AO2,M
BAM,2024-03-30 16:15,-116.8743,40.5990,1382.36,39.20,37.40,93.19,10.00,6.00,0.00,29.67,M,10.00,M,OVC,M,M,M,9000.00,M,M,M,M,M,M,M,M,M,M,34.20,KBAM 301615Z AUTO 01006KT 10SM OVC090 04/03 A2967 RMK AO1,M
TMT,2024-03-30 16:15,-117.1971,39.4643,1749.34,32.00,32.00,100.00,220.00,4.00,0.00,29.66,M,4.00,M,OVC,M,M,M,200.00,M,M,M,-SN,M,M,M,M,M,M,27.42,KTMT 301615Z AUTO 22004KT 4SM -SN OVC002 00/00 A2966 RMK AO2 T00000000,M
LOL,2024-03-30 16:24,-118.5701,40.0684,1192.43,40.00,37.00,88.92,M,4.00,0.01,29.66,M,10.00,M,BKN,OVC,M,M,2200.00,3000.00,M,M,-RA,M,M,M,M,M,M,36.76,KLOL 301624Z AUTO VRB04KT 10SM -RA BKN022 OVC030 04/03 A2966 RMK AO2 P0001 T00440028,M
INS,2024-03-30 16:27,-115.6733,36.5872,955.00,53.60,28.40,37.67,300.00,10.00,0.00,29.66,1001.70,10.00,19.00,FEW,SCT,BKN,OVC,2100.00,3400.00,4400.00,5500.00,M,M,M,M,M,M,M,53.60,KINS 301627Z AUTO 30010G19KT 10SM FEW021 SCT034 BKN044 OVC055 12/M02 A2966 RMK AO2 RAB12E27 SLP017 $,M
TPH,2024-03-30 16:30,-117.0904,38.0505,1654.00,34.00,33.00,96.08,130.00,7.00,0.01,29.65,M,1.75,M,OVC,M,M,M,700.00,M,M,M,-SN BR,M,M,M,M,M,M,27.22,KTPH 301630Z AUTO 13007KT 1 3/4SM -SN BR OVC007 01/01 A2965 RMK AO2 P0001 T00110006,M
05U,2024-03-30 16:30,-116.0051,39.6042,1811.23,39.20,30.20,69.88,310.00,12.00,0.00,29.68,M,10.00,17.00,BKN,BKN,OVC,M,3100.00,3700.00,4600.00,M,M,M,M,M,M,M,M,31.17,K05U 301630Z AUTO 31012G17KT 10SM BKN031 BKN037 OVC046 04/M01 A2968 RMK A01,M
BVU,2024-03-30 16:35,-114.8611,35.9475,671.00,59.00,23.00,24.76,170.00,17.00,0.00,29.68,M,10.00,M,OVC,M,M,M,8500.00,M,M,M,M,M,M,M,M,M,M,59.00,KBVU 301635Z AUTO 17017KT 10SM OVC085 15/M05 A2968 RMK AO2,M
CXP,2024-03-30 16:35,-119.7326,39.1923,1431.00,35.60,33.80,93.08,0.00,0.00,0.00,29.64,M,7.00,M,OVC,M,M,M,900.00,M,M,M,UP,M,M,M,M,M,M,35.60,KCXP 301635Z AUTO 00000KT 7SM UP OVC009 02/01 A2964 RMK AO2,M
RTS,2024-03-30 16:35,-119.8764,39.6682,1539.00,32.00,32.00,100.00,290.00,4.00,0.00,29.65,M,10.00,M,BKN,M,M,M,1300.00,M,M,M,M,M,M,M,M,M,M,27.42,KRTS 301635Z AUTO 29004KT 10SM BKN013 00/00 A2965 RMK AO2,M
MEV,2024-03-30 16:35,-119.7500,38.9963,1441.42,33.80,32.00,93.03,0.00,0.00,0.00,29.63,M,10.00,M,OVC,M,M,M,800.00,M,M,M,M,M,M,M,M,M,M,33.80,KMEV 301635Z AUTO 00000KT 10SM OVC008 01/00 A2963 RMK AO2,M
HTH,2024-03-30 16:35,-118.6315,38.5448,1282.89,37.40,37.40,100.00,320.00,5.00,0.00,29.65,M,10.00,M,SCT,OVC,M,M,700.00,1600.00,M,M,M,M,M,M,M,M,M,32.81,KHTH 301635Z AUTO 32005KT 10SM SCT007 OVC016 03/03 A2965 RMK A01,M
10U,2024-03-30 16:35,-116.1876,41.9532,1637.00,42.80,33.80,70.28,130.00,10.00,0.00,29.69,M,10.00,M,SCT,BKN,M,M,2100.00,6000.00,M,M,M,M,M,M,M,M,M,36.51,K10U 301635Z AUTO 13010KT 10SM SCT021 BKN060 06/01 A2969 RMK AO2,M
BAM,2024-03-30 16:35,-116.8743,40.5990,1382.36,41.00,37.40,86.89,350.00,6.00,0.00,29.67,M,10.00,M,BKN,M,M,M,9000.00,M,M,M,M,M,M,M,M,M,M,36.37,KBAM 301635Z AUTO 35006KT 10SM BKN090 05/03 A2967 RMK AO1,M
TMT,2024-03-30 16:35,-117.1971,39.4643,1749.34,32.70,32.00,97.22,0.00,0.00,0.00,29.65,M,1.75,M,BKN,OVC,M,M,400.00,2000.00,M,M,-SN,M,M,M,M,M,M,32.70,KTMT 301635Z AUTO 00000KT 1 3/4SM -SN BKN004 OVC020 00/00 A2965 RMK AO2 T00040001,M
TPH,2024-03-30 16:36,-117.0904,38.0505,1654.00,34.00,33.00,96.08,120.00,9.00,0.02,29.65,M,1.50,M,BKN,OVC,M,M,400.00,800.00,M,M,-SN BR,M,M,M,M,M,M,26.00,KTPH 301636Z AUTO 12009KT 1 1/2SM -SN BR BKN004 OVC008 01/01 A2965 RMK AO2 P0002 T00110006,M
LOL,2024-03-30 16:46,-118.5701,40.0684,1192.43,39.00,36.00,88.87,320.00,7.00,0.03,29.66,M,5.00,M,FEW,BKN,OVC,M,800.00,1400.00,2100.00,M,-RA BR,M,M,M,M,M,M,33.31,KLOL 301646Z AUTO 32007KT 5SM -RA BR FEW008 BKN014 OVC021 04/02 A2966 RMK AO2 P0003 T00390022,M
LSV,2024-03-30 16:49,-115.0343,36.2362,570.00,59.00,26.60,28.77,140.00,8.00,0.00,29.66,1003.30,10.00,16.00,FEW,M,M,M,8500.00,M,M,M,-RA,M,M,M,M,M,M,59.00,KLSV 301649Z AUTO 14008G16KT 10SM -RA FEW085 15/M03 A2966 RMK AO2 RAB49 SLP033,M
05U,2024-03-30 16:50,-116.0051,39.6042,1811.23,39.20,30.20,69.88,320.00,13.00,0.00,29.69,M,10.00,M,FEW,BKN,OVC,M,3100.00,3900.00,4600.00,M,M,M,M,M,M,M,M,30.79,K05U 301650Z AUTO 32013KT 10SM FEW031 BKN039 OVC046 04/M01 A2969 RMK A01,M
P68,2024-03-30 16:53,-116.0056,39.6014,1993.00,38.00,30.00,72.64,160.00,14.00,0.00,29.66,1002.60,M,M,M,M,M,M,M,M,M,M,M,M,M,M,26.00,150.00,2024-03-30 16:18,28.90,KP68 301653Z AUTO 16014KT 03/M01 A2966 RMK AO1 PK WND 15026/1618 SLP026 T00331011,M
DRA,2024-03-30 16:53,-116.0278,36.6206,1009.00,45.00,40.00,82.51,M,5.00,0.06,29.68,1002.90,6.00,M,OVC,M,M,M,3000.00,M,M,M,RA,M,M,M,M,M,M,41.83,KDRA 301653Z AUTO VRB05KT 6SM RA OVC030 07/04 A2968 RMK AO2 SLP029 P0006 T00720044,M
ELY,2024-03-30 16:53,-114.8453,39.2950,1909.00,37.00,29.00,72.54,180.00,16.00,0.00,29.70,1003.60,10.00,M,FEW,BKN,OVC,M,6500.00,8000.00,11000.00,M,M,M,M,M,M,M,M,26.94,KELY 301653Z AUTO 18016KT 10SM FEW065 BKN080 OVC110 03/M02 A2970 RMK AO2 SLP036 T00281017,M
VGT,2024-03-30 16:53,-115.1933,36.2111,667.00,58.00,31.00,35.70,0.00,0.00,T,29.67,1005.40,10.00,M,OVC,M,M,M,7000.00,M,M,M,M,M,M,M,M,M,M,58.00,KVGT 301653Z 00000KT 10SM OVC070 14/M01 A2967 RMK AO2 RAB15E52 SLP054 P0000 T01441006,M
LOL,2024-03-30 16:53,-118.5701,40.0684,1192.43,39.00,36.00,88.87,320.00,7.00,0.03,29.66,1004.70,5.00,M,BKN,OVC,M,M,1400.00,2100.00,M,M,RA BR,M,M,M,M,M,M,33.31,KLOL 301653Z AUTO 32007KT 5SM RA BR BKN014 OVC021 04/02 A2966 RMK AO2 SLP047 P0003 T00390022,M
INS,2024-03-30 16:54,-115.6733,36.5872,955.00,50.00,35.60,57.52,330.00,12.00,0.00,29.66,1002.10,10.00,25.00,BKN,OVC,M,M,4100.00,5500.00,M,M,-RA,M,M,M,M,M,M,50.00,KINS 301654Z AUTO 33012G25KT 10SM -RA BKN041 OVC055 10/02 A2966 RMK AO2 RAB12E27RAB54 SLP021 $,M
BVU,2024-03-30 16:55,-114.8611,35.9475,671.00,59.00,23.00,24.76,170.00,17.00,0.00,29.67,M,10.00,23.00,OVC,M,M,M,9000.00,M,M,M,M,M,M,M,M,M,M,59.00,KBVU 301655Z AUTO 17017G23KT 10SM OVC090 15/M05 A2967 RMK AO2,M
CXP,2024-03-30 16:55,-119.7326,39.1923,1431.00,35.60,33.80,93.08,0.00,0.00,0.00,29.64,M,3.00,M,OVC,M,M,M,700.00,M,M,M,UP BR,M,M,M,M,M,M,35.60,KCXP 301655Z AUTO 00000KT 3SM UP BR OVC007 02/01 A2964 RMK AO2,M
RNO,2024-03-30 16:55,-119.7711,39.4839,1341.00,38.00,34.00,85.35,330.00,7.00,0.00,29.64,1003.20,10.00,M,OVC,M,M,M,900.00,M,M,M,M,M,M,M,M,M,M,32.09,KRNO 301655Z 33007KT 10SM OVC009 03/01 A2964 RMK AO2 SLP032 T00330011 $,M
LSV,2024-03-30 16:55,-115.0343,36.2362,570.00,58.60,30.40,34.10,150.00,6.00,T,29.66,1003.30,10.00,16.00,FEW,M,M,M,8500.00,M,M,M,-RA,M,M,M,M,M,M,58.60,KLSV 301655Z AUTO 15006G16KT 10SM -RA FEW085 15/M01 A2966 RMK AO2 RAB49 SLP033 P0000 T01481009,M
RTS,2024-03-30 16:55,-119.8764,39.6682,1539.00,32.00,32.00,100.00,0.00,0.00,0.03,29.65,M,10.00,M,BKN,M,M,M,1300.00,M,M,M,M,M,M,M,M,M,M,32.00,KRTS 301655Z AUTO 00000KT 10SM BKN013 00/00 A2965 RMK AO2 P0003,M
MEV,2024-03-30 16:55,-119.7500,38.9963,1441.42,33.80,33.80,100.00,0.00,0.00,0.00,29.63,M,10.00,M,OVC,M,M,M,900.00,M,M,M,M,M,M,M,M,M,M,33.80,KMEV 301655Z AUTO 00000KT 10SM OVC009 01/01 A2963 RMK AO2,M
HTH,2024-03-30 16:55,-118.6315,38.5448,1282.89,37.40,37.40,100.00,350.00,6.00,0.00,29.63,M,10.00,M,BKN,OVC,M,M,700.00,1500.00,M,M,M,M,M,M,M,M,M,32.03,KHTH 301655Z AUTO 35006KT 10SM BKN007 OVC015 03/03 A2963 RMK A01,M
10U,2024-03-30 16:55,-116.1876,41.9532,1637.00,44.60,33.80,65.61,120.00,11.00,0.00,29.70,M,10.00,M,SCT,SCT,M,M,2400.00,6500.00,M,M,M,M,M,M,M,M,M,38.39,K10U 301655Z AUTO 12011KT 10SM SCT024 SCT065 07/01 A2970 RMK AO2,M
BAM,2024-03-30 16:55,-116.8743,40.5990,1382.36,41.00,37.40,86.89,350.00,8.00,0.00,29.67,M,10.00,M,CLR,M,M,M,M,M,M,M,M,M,M,M,M,M,M,35.20,KBAM 301655Z AUTO 35008KT 10SM CLR 05/03 A2967 RMK AO1,M
TMT,2024-03-30 16:55,-117.1971,39.4643,1749.34,33.30,32.00,94.91,0.00,0.00,0.00,29.66,M,7.00,M,BKN,OVC,M,M,400.00,1900.00,M,M,M,M,M,M,M,M,M,33.30,KTMT 301655Z AUTO 00000KT 7SM BKN004 OVC019 01/00 A2966 RMK AO2 T00070001,M
INS,2024-03-30 16:55,-115.6733,36.5872,955.00,49.60,36.30,60.02,330.00,11.00,T,29.66,1002.10,10.00,25.00,BKN,OVC,M,M,4100.00,5500.00,M,M,-RA,M,M,M,M,M,M,44.71,KINS 301655Z AUTO 33011G25KT 10SM -RA BKN041 OVC055 10/02 A2966 RMK AO2 RAB12E27RAB54 SLP021 P0000 T00980024 $,M
EKO,2024-03-30 16:56,-115.7860,40.8242,1367.00,42.00,35.00,76.03,50.00,6.00,0.00,29.68,1004.90,10.00,M,BKN,BKN,M,M,6000.00,8000.00,M,M,M,M,M,M,M,M,M,37.57,KEKO 301656Z AUTO 05006KT 10SM BKN060 BKN080 06/02 A2968 RMK AO2 SLP049 T00560017,M
WMC,2024-03-30 16:56,-117.8072,40.9019,1315.00,44.00,35.00,70.42,40.00,13.00,0.00,29.66,1004.20,10.00,21.00,FEW,BKN,BKN,M,6500.00,8000.00,9500.00,M,M,M,M,M,M,M,M,36.94,KWMC 301656Z AUTO 04013G21KT 10SM FEW065 BKN080 BKN095 07/02 A2966 RMK AO2 SLP042 T00670017,M
HND,2024-03-30 16:56,-115.1344,35.9729,742.79,57.00,32.00,38.54,160.00,21.00,T,29.68,1005.60,10.00,25.00,FEW,BKN,OVC,M,3600.00,6000.00,8500.00,M,-RA,M,M,M,M,M,M,57.00,KHND 301656Z 16021G25KT 10SM -RA FEW036 BKN060 OVC085 14/00 A2968 RMK AO2 RAB28 SLP056 P0000 T01390000,M
TPH,2024-03-30 16:56,-117.0904,38.0505,1654.00,33.00,33.00,100.00,130.00,6.00,0.03,29.66,1003.40,1.25,M,OVC,M,M,M,300.00,M,M,M,-SN BR,M,M,M,M,M,M,26.73,KTPH 301656Z AUTO 13006KT 1 1/4SM -SN BR OVC003 01/01 A2966 RMK AO2 SLP034 P0003 T00060006,M
LAS,2024-03-30 16:56,-115.1634,36.0719,663.00,57.00,29.00,34.12,170.00,7.00,T,29.67,1003.60,10.00,M,SCT,OVC,M,M,7000.00,9000.00,M,M,M,M,M,M,M,M,M,57.00,KLAS 301656Z 17007KT 10SM SCT070 OVC090 14/M02 A2967 RMK AO2 RAB36E45 SLP036 P0000 T01391017,M
NFL,2024-03-30 16:56,-118.7010,39.4166,1199.00,38.00,36.00,92.42,50.00,10.00,0.08,29.65,1002.30,5.00,M,FEW,SCT,OVC,M,1000.00,1500.00,2000.00,M,-RA BR,M,M,M,M,M,M,30.49,KNFL 301656Z COR 05010KT 5SM -RA BR FEW010 SCT015 OVC020 03/02 A2965 RMK AO2 SNE50 SLP023 P0008 T00330022,M
LSV,2024-03-30 16:56,-115.0343,36.2362,570.00,59.00,30.20,33.35,150.00,6.00,0.00,29.66,1003.30,10.00,16.00,CLR,M,M,M,M,M,M,M,M,M,M,M,M,M,M,59.00,KLSV 301656Z AUTO 15006G16KT 10SM CLR 15/M01 A2966 RMK AO2 RAE56 SLP033,M
LOL,2024-03-30 17:05,-118.5701,40.0684,1192.43,39.00,36.00,88.87,310.00,11.00,0.02,29.66,M,5.00,M,FEW,FEW,OVC,M,800.00,1200.00,1700.00,M,-RA BR,M,M,M,M,M,M,31.31,KLOL 301705Z AUTO 31011KT 5SM -RA BR FEW008 FEW012 OVC017 04/02 A2966 RMK AO2 P0002 T00390022,M
DRA,2024-03-30 17:07,-116.0278,36.6206,1009.00,45.00,40.00,82.51,0.00,0.00,0.02,29.69,M,4.00,M,BKN,OVC,M,M,2900.00,3500.00,M,M,RA,M,M,M,M,M,M,45.00,KDRA 301707Z AUTO 00000KT 4SM RA BKN029 OVC035 07/04 A2969 RMK AO2 P0002 T00720044,M
05U,2024-03-30 17:10,-116.0051,39.6042,1811.23,39.20,32.00,75.16,320.00,10.00,0.00,29.69,M,10.00,M,FEW,SCT,M,M,3900.00,4600.00,M,M,M,M,M,M,M,M,M,32.00,K05U 301710Z AUTO 32010KT 10SM FEW039 SCT046 04/M00 A2969 RMK A01,M
TPH,2024-03-30 17:12,-117.0904,38.0505,1654.00,34.00,34.00,100.00,140.00,11.00,0.01,29.66,M,2.50,M,OVC,M,M,M,300.00,M,M,M,-SN BR,M,M,M,M,M,M,24.99,KTPH 301712Z AUTO 14011KT 2 1/2SM -SN BR OVC003 01/01 A2966 RMK AO2 P0001 T00110011,M
BVU,2024-03-30 17:15,-114.8611,35.9475,671.00,59.00,23.00,24.76,170.00,18.00,0.00,29.68,M,10.00,23.00,FEW,SCT,BKN,M,6000.00,7000.00,8000.00,M,M,M,M,M,M,M,M,59.00,KBVU 301715Z AUTO 17018G23KT 10SM FEW060 SCT070 BKN080 15/M05 A2968 RMK AO2,M
CXP,2024-03-30 17:15,-119.7326,39.1923,1431.00,37.40,35.60,93.14,0.00,0.00,0.00,29.64,M,1.50,M,OVC,M,M,M,600.00,M,M,M,-RA BR,M,M,M,M,M,M,37.40,KCXP 301715Z AUTO 00000KT 1 1/2SM -RA BR OVC006 03/02 A2964 RMK AO2,M
RTS,2024-03-30 17:15,-119.8764,39.6682,1539.00,33.80,32.00,93.03,300.00,3.00,0.00,29.65,M,10.00,M,OVC,M,M,M,1300.00,M,M,M,M,M,M,M,M,M,M,30.75,KRTS 301715Z AUTO 30003KT 10SM OVC013 01/00 A2965 RMK AO2,M
MEV,2024-03-30 17:15,-119.7500,38.9963,1441.42,35.60,33.80,93.08,0.00,0.00,0.00,29.62,M,10.00,M,BKN,OVC,M,M,1000.00,1400.00,M,M,M,M,M,M,M,M,M,35.60,KMEV 301715Z AUTO 00000KT 10SM BKN010 OVC014 02/01 A2962 RMK AO2,M
HTH,2024-03-30 17:15,-118.6315,38.5448,1282.89,37.40,35.60,93.14,280.00,3.00,0.00,29.66,M,10.00,M,BKN,OVC,M,M,700.00,1200.00,M,M,M,M,M,M,M,M,M,34.86,KHTH 301715Z AUTO 28003KT 10SM BKN007 OVC012 03/02 A2966 RMK A01,M
10U,2024-03-30 17:15,-116.1876,41.9532,1637.00,46.40,33.80,61.28,110.00,8.00,0.00,29.69,M,10.00,15.00,FEW,M,M,M,2600.00,M,M,M,M,M,M,M,M,M,M,41.85,K10U 301715Z AUTO 11008G15KT 080V140 10SM FEW026 08/01 A2969 RMK AO2,M
BAM,2024-03-30 17:15,-116.8743,40.5990,1382.36,41.00,37.40,86.89,340.00,4.00,0.00,29.68,M,10.00,M,CLR,M,M,M,M,M,M,M,M,M,M,M,M,M,M,37.93,KBAM 301715Z AUTO 34004KT 10SM CLR 05/03 A2968 RMK AO1,M
TMT,2024-03-30 17:15,-117.1971,39.4643,1749.34,34.00,32.00,92.29,0.00,0.00,0.00,29.66,M,10.00,M,SCT,SCT,OVC,M,400.00,1700.00,3700.00,M,M,M,M,M,M,M,M,34.00,KTMT 301715Z AUTO 00000KT 10SM SCT004 SCT017 OVC037 01/00 A2966 RMK AO2 T00120001,M
ELY,2024-03-30 17:22,-114.8453,39.2950,1909.00,34.00,30.00,85.11,180.00,12.00,T,29.71,M,2.00,24.00,BKN,OVC,M,M,2900.00,4700.00,M,M,-SN BR,M,M,M,26.00,170.00,2024-03-30 17:07,24.55,KELY 301722Z AUTO 18012G24KT 2SM -SN BR BKN029 OVC047 01/M01 A2971 RMK AO2 PK WND 17026/1707 SNB08 P0000 T00111011,M
TPH,2024-03-30 17:26,-117.0904,38.0505,1654.00,35.00,33.00,92.32,140.00,10.00,0.02,29.65,M,2.50,M,OVC,M,M,M,500.00,M,M,M,-SN BR,M,M,M,M,M,M,26.73,KTPH 301726Z AUTO 14010KT 2 1/2SM -SN BR OVC005 02/01 A2965 RMK AO2 P0002 T00170006,M
ELY,2024-03-30 17:30,-114.8453,39.2950,1909.00,34.00,31.00,88.63,180.00,13.00,T,29.72,M,1.75,21.00,BKN,OVC,M,M,2500.00,3200.00,M,M,-SN BR,M,M,M,26.00,170.00,2024-03-30 17:07,24.13,KELY 301730Z AUTO 18013G21KT 1 3/4SM -SN BR BKN025 OVC032 01/M01 A2972 RMK AO2 PK WND 17026/1707 SNB08 P0000 T00111006,M
05U,2024-03-30 17:30,-116.0051,39.6042,1811.23,39.20,32.00,75.16,320.00,10.00,0.00,29.69,M,10.00,M,FEW,FEW,SCT,M,1900.00,3100.00,4600.00,M,M,M,M,M,M,M,M,32.00,K05U 301730Z AUTO 32010KT 10SM FEW019 FEW031 SCT046 04/M00 A2969 RMK A01,M
BVU,2024-03-30 17:35,-114.8611,35.9475,671.00,60.80,23.00,23.23,180.00,13.00,0.00,29.69,M,10.00,21.00,BKN,OVC,M,M,6000.00,8000.00,M,M,M,M,M,M,M,M,M,60.80,KBVU 301735Z AUTO 18013G21KT 10SM BKN060 OVC080 16/M05 A2969 RMK AO2,M
CXP,2024-03-30 17:35,-119.7326,39.1923,1431.00,37.40,35.60,93.14,320.00,6.00,0.00,29.64,M,9.00,M,SCT,OVC,M,M,600.00,1100.00,M,M,UP,M,M,M,M,M,M,32.03,KCXP 301735Z AUTO 32006KT 9SM UP SCT006 OVC011 03/02 A2964 RMK AO2,M
RTS,2024-03-30 17:35,-119.8764,39.6682,1539.00,33.80,32.00,93.03,290.00,3.00,0.00,29.65,M,10.00,M,OVC,M,M,M,1300.00,M,M,M,M,M,M,M,M,M,M,30.75,KRTS 301735Z AUTO 29003KT 10SM OVC013 01/00 A2965 RMK AO2,M
MEV,2024-03-30 17:35,-119.7500,38.9963,1441.42,35.60,33.80,93.08,210.00,5.00,0.00,29.64,M,10.00,M,BKN,OVC,M,M,700.00,1100.00,M,M,M,M,M,M,M,M,M,30.67,KMEV 301735Z AUTO 21005KT 10SM BKN007 OVC011 02/01 A2964 RMK AO2,M
HTH,2024-03-30 17:35,-118.6315,38.5448,1282.89,37.40,35.60,93.14,0.00,0.00,0.00,29.66,M,10.00,M,FEW,SCT,OVC,M,800.00,1300.00,1900.00,M,M,M,M,M,M,M,M,37.40,KHTH 301735Z AUTO 00000KT 10SM FEW008 SCT013 OVC019 03/02 A2966 RMK A01,M
10U,2024-03-30 17:35,-116.1876,41.9532,1637.00,46.40,33.80,61.28,130.00,13.00,0.00,29.70,M,10.00,M,SCT,BKN,M,M,2800.00,3400.00,M,M,M,M,M,M,M,M,M,40.02,K10U 301735Z AUTO 13013KT 10SM SCT028 BKN034 08/01 A2970 RMK AO2,M
BAM,2024-03-30 17:35,-116.8743,40.5990,1382.36,42.80,37.40,81.07,350.00,6.00,0.00,29.69,M,10.00,M,SCT,BKN,BKN,M,900.00,6000.00,7000.00,M,M,M,M,M,M,M,M,38.54,KBAM 301735Z AUTO 35006KT 10SM SCT009 BKN060 BKN070 06/03 A2969 RMK AO1,M
TMT,2024-03-30 17:35,-117.1971,39.4643,1749.34,35.20,32.70,90.49,0.00,0.00,0.00,29.66,M,10.00,M,SCT,BKN,OVC,M,800.00,3200.00,3900.00,M,M,M,M,M,M,M,M,35.20,KTMT 301735Z AUTO 00000KT 10SM SCT008 BKN032 OVC039 02/00 A2966 RMK AO2 T00180004,M
TPH,2024-03-30 17:40,-117.0904,38.0505,1654.00,35.00,34.00,96.09,140.00,12.00,0.03,29.66,M,3.00,M,BKN,OVC,M,M,700.00,1100.00,M,M,-SN BR,M,M,M,M,M,M,25.82,KTPH 301740Z AUTO 14012KT 3SM -SN BR BKN007 OVC011 02/01 A2966 RMK AO2 P0003 T00170011,M
INS,2024-03-30 17:46,-115.6733,36.5872,955.00,50.00,39.20,66.27,310.00,10.00,0.00,29.68,1002.80,10.00,M,FEW,BKN,OVC,M,3400.00,4700.00,6000.00,M,M,M,M,M,M,M,M,50.00,KINS 301746Z AUTO 31010KT 10SM FEW034 BKN047 OVC060 10/04 A2968 RMK AO2 RAE46 SLP028 $,M
05U,2024-03-30 17:50,-116.0051,39.6042,1811.23,41.00,32.00,70.08,320.00,9.00,0.00,29.69,M,10.00,M,SCT,BKN,BKN,M,1900.00,2700.00,3600.00,M,M,M,M,M,M,M,M,34.70,K05U 301750Z AUTO 32009KT 10SM SCT019 BKN027 BKN036 05/00 A2969 RMK A01,M
P68,2024-03-30 17:53,-116.0056,39.6014,1993.00,41.00,32.00,70.08,160.00,12.00,0.00,29.66,1002.90,M,M,M,M,M,M,M,M,M,M,M,M,M,M,M,M,M,33.46,KP68 301753Z AUTO 16012KT 05/00 A2966 RMK AO1 SLP029 T00500000 10050 20022 53003,M
DRA,2024-03-30 17:53,-116.0278,36.6206,1009.00,44.00,40.00,85.71,230.00,4.00,0.13,29.70,1003.90,3.00,M,FEW,OVC,M,M,2400.00,3000.00,M,M,RA BR,M,M,M,M,M,M,41.43,KDRA 301753Z AUTO 23004KT 3SM RA BR FEW024 OVC030 07/04 A2970 RMK AO2 SLP039 P0013 60021 T00670044 10106 20067 51019,M
ELY,2024-03-30 17:53,-114.8453,39.2950,1909.00,33.00,31.00,92.25,190.00,12.00,0.01,29.72,1005.10,0.75,M,VV ,M,M,M,1600.00,M,M,M,-SN BR,M,M,M,26.00,170.00,2024-03-30 17:07,23.27,KELY 301753Z AUTO 19012KT 3/4SM -SN BR VV016 01/M01 A2972 RMK AO2 PK WND 17026/1707 SNB08 SLP051 P0001 60001 T00061006 10028 20000 53008,M
VGT,2024-03-30 17:53,-115.1933,36.2111,667.00,58.00,36.00,43.62,210.00,12.00,T,29.69,1006.10,10.00,15.00,OVC,M,M,M,6000.00,M,M,M,-RA,M,M,M,M,M,M,58.00,KVGT 301753Z 21012G15KT 10SM -RA OVC060 14/02 A2969 RMK AO2 RAB1659 SLP061 P0000 60000 T01440022 10156 20139 53007,M
LOL,2024-03-30 17:53,-118.5701,40.0684,1192.43,38.00,36.00,92.42,320.00,6.00,0.05,29.67,1005.00,8.00,M,OVC,M,M,M,1800.00,M,M,M,-RA,M,M,M,M,M,M,32.76,KLOL 301753Z AUTO 32006KT 8SM -RA OVC018 03/02 A2967 RMK AO2 SLP050 P0005 60009 T00330022 10044 20033 51008,M
BVU,2024-03-30 17:55,-114.8611,35.9475,671.00,60.80,26.60,26.98,190.00,13.00,0.00,29.70,M,10.00,M,OVC,M,M,M,6000.00,M,M,M,M,M,M,M,M,M,M,60.80,KBVU 301755Z AUTO 19013KT 10SM OVC060 16/M03 A2970 RMK AO2,M
CXP,2024-03-30 17:55,-119.7326,39.1923,1431.00,39.20,35.60,86.79,330.00,5.00,0.00,29.65,M,10.00,M,OVC,M,M,M,1000.00,M,M,M,M,M,M,M,M,M,M,34.95,KCXP 301755Z AUTO 33005KT 10SM OVC010 04/02 A2965 RMK AO2,M
RNO,2024-03-30 17:55,-119.7711,39.4839,1341.00,40.00,34.00,78.94,M,6.00,0.00,29.65,1003.50,10.00,M,OVC,M,M,M,1200.00,M,M,M,M,M,M,M,M,M,M,35.17,KRNO 301755Z VRB06KT 10SM OVC012 04/01 A2965 RMK AO2 SLP035 T00440011 10044 20017 53001 $,M
RTS,2024-03-30 17:55,-119.8764,39.6682,1539.00,33.80,32.00,93.03,0.00,0.00,0.07,29.66,M,10.00,M,OVC,M,M,M,1300.00,M,M,M,M,M,M,M,M,M,M,33.80,KRTS 301755Z AUTO 00000KT 10SM OVC013 01/00 A2966 RMK AO2 P0007,M
MEV,2024-03-30 17:55,-119.7500,38.9963,1441.42,37.40,35.60,93.14,240.00,4.00,0.00,29.64,M,10.00,M,FEW,OVC,M,M,700.00,1200.00,M,M,M,M,M,M,M,M,M,33.73,KMEV 301755Z AUTO 24004KT 10SM FEW007 OVC012 03/02 A2964 RMK AO2,M
HTH,2024-03-30 17:55,-118.6315,38.5448,1282.89,39.20,35.60,86.79,0.00,0.00,0.00,29.66,M,10.00,M,BKN,OVC,M,M,1500.00,1900.00,M,M,M,M,M,M,M,M,M,39.20,KHTH 301755Z AUTO 00000KT 10SM BKN015 OVC019 04/02 A2966 RMK A01,M
10U,2024-03-30 17:55,-116.1876,41.9532,1637.00,46.40,33.80,61.28,120.00,10.00,0.00,29.70,M,10.00,17.00,FEW,BKN,M,M,2800.00,3600.00,M,M,M,M,M,M,M,M,M,41.03,K10U 301755Z AUTO 12010G17KT 090V150 10SM FEW028 BKN036 08/01 A2970 RMK AO2,M
BAM,2024-03-30 17:55,-116.8743,40.5990,1382.36,44.60,39.20,81.20,10.00,4.00,0.00,29.68,M,10.00,M,SCT,BKN,OVC,M,1100.00,4800.00,6000.00,M,M,M,M,M,M,M,M,42.13,KBAM 301755Z AUTO 01004KT 10SM SCT011 BKN048 OVC060 07/04 A2968 RMK AO1,M
TMT,2024-03-30 17:55,-117.1971,39.4643,1749.34,36.50,33.00,86.99,0.00,0.00,0.00,29.65,M,10.00,M,SCT,SCT,SCT,M,800.00,3200.00,3800.00,M,M,M,M,M,M,M,M,36.50,KTMT 301755Z AUTO 00000KT 10SM SCT008 SCT032 SCT038 03/01 A2965 RMK AO2 T00250005 10025 21025,M
INS,2024-03-30 17:55,-115.6733,36.5872,955.00,51.00,39.40,64.35,310.00,13.00,T,29.68,1002.60,10.00,M,FEW,BKN,OVC,M,3400.00,4500.00,5500.00,M,M,M,M,M,M,M,M,51.00,KINS 301755Z AUTO 31013KT 10SM FEW034 BKN045 OVC055 11/04 A2968 RMK AO2 RAE46 SLP026 P0000 60000 T01060041 10130 20094 52014 $,M
LSV,2024-03-30 17:55,-115.0343,36.2362,570.00,56.50,38.50,50.80,190.00,4.00,T,29.67,1003.60,10.00,M,CLR,M,M,M,M,M,M,M,M,M,M,M,M,M,M,56.50,KLSV 301755Z AUTO 19004KT 10SM CLR 14/04 A2967 RMK AO2 RAE1656 SLP036 P0000 60000 T01360036 10161 20136 53007,M
EKO,2024-03-30 17:56,-115.7860,40.8242,1367.00,45.00,36.00,70.53,50.00,9.00,0.00,29.68,1004.40,10.00,M,FEW,BKN,OVC,M,1700.00,5000.00,9500.00,M,M,M,M,M,M,M,M,39.68,KEKO 301756Z AUTO 05009KT 10SM FEW017 BKN050 OVC095 07/02 A2968 RMK AO2 SLP044 T00720022 10072 20006 56003,M
WMC,2024-03-30 17:56,-117.8072,40.9019,1315.00,47.00,34.00,60.38,40.00,12.00,0.00,29.66,1003.70,10.00,23.00,FEW,BKN,OVC,M,4900.00,7500.00,8500.00,M,M,M,M,M,M,M,M,41.09,KWMC 301756Z AUTO 04012G23KT 10SM FEW049 BKN075 OVC085 08/01 A2966 RMK AO2 SLP037 T00830011 10089 20028 50001,M
HND,2024-03-30 17:56,-115.1344,35.9729,742.79,56.00,34.00,43.30,150.00,12.00,T,29.69,1006.20,10.00,20.00,OVC,M,M,M,6000.00,M,M,M,-RA,M,M,M,29.00,170.00,2024-03-30 16:57,56.00,KHND 301756Z 15012G20KT 10SM -RA OVC060 13/01 A2969 RMK AO2 PK WND 17029/1657 SLP062 P0000 60000 T01330011 10144 20122 53000,M
TPH,2024-03-30 17:56,-117.0904,38.0505,1654.00,36.00,34.00,92.35,140.00,13.00,0.05,29.66,1003.10,4.00,M,BKN,OVC,M,M,700.00,1100.00,M,M,-RA BR,M,M,M,M,M,M,26.69,KTPH 301756Z AUTO 14013KT 4SM -RA BR BKN007 OVC011 02/01 A2966 RMK AO2 RAB45SNE45 SLP031 P0005 60010 T00220011 10044 20006 50003,M
LAS,2024-03-30 17:56,-115.1634,36.0719,663.00,57.00,38.00,48.93,M,5.00,T,29.68,1003.90,10.00,M,OVC,M,M,M,6500.00,M,M,M,-RA,M,M,M,M,M,M,57.00,KLAS 301756Z VRB05KT 10SM -RA OVC065 14/03 A2968 RMK AO2 RAB17 SLP039 P0000 60000 T01390033 10139 20128 53002,M
NFL,2024-03-30 17:56,-118.7010,39.4166,1199.00,39.00,37.00,92.45,50.00,13.00,0.02,29.64,1002.20,10.00,M,SCT,BKN,OVC,M,1300.00,2000.00,4000.00,M,M,M,M,M,M,M,M,30.54,KNFL 301756Z COR 05013KT 10SM SCT013 BKN020 OVC040 04/03 A2964 RMK AO2 RAE46 SLP022 SH VC NE P0002 60024 T00390028 10050 20006 58003,M
ELY,2024-03-30 18:07,-114.8453,39.2950,1909.00,34.00,32.00,92.29,190.00,10.00,0.01,29.72,M,1.25,M,BKN,OVC,M,M,1700.00,2800.00,M,M,-SN BR,M,M,M,M,M,M,25.48,KELY 301807Z AUTO 19010KT 1 1/4SM -SN BR BKN017 OVC028 01/00 A2972 RMK AO2 P0001 T00110000,M
05U,2024-03-30 18:10,-116.0051,39.6042,1811.23,41.00,32.00,70.08,320.00,12.00,0.00,29.69,M,10.00,18.00,FEW,FEW,FEW,M,1900.00,3000.00,4600.00,M,M,M,M,M,M,M,M,33.46,K05U 301810Z AUTO 32012G18KT 10SM FEW019 FEW030 FEW046 05/M00 A2969 RMK A01,M
ELY,2024-03-30 18:12,-114.8453,39.2950,1909.00,34.00,32.00,92.29,180.00,10.00,0.01,29.72,M,2.00,M,OVC,M,M,M,1700.00,M,M,M,-SN BR,M,M,M,M,M,M,25.48,KELY 301812Z AUTO 18010KT 2SM -SN BR OVC017 01/00 A2972 RMK AO2 P0001 T00110000,M
BVU,2024-03-30 18:15,-114.8611,35.9475,671.00,60.80,26.60,26.98,170.00,14.00,0.00,29.69,M,10.00,M,OVC,M,M,M,6000.00,M,M,M,M,M,M,M,M,M,M,60.80,KBVU 301815Z AUTO 17014KT 10SM OVC060 16/M03 A2969 RMK AO2,M
CXP,2024-03-30 18:15,-119.7326,39.1923,1431.00,39.20,35.60,86.79,70.00,6.00,0.00,29.65,M,10.00,M,OVC,M,M,M,1000.00,M,M,M,M,M,M,M,M,M,M,34.20,KCXP 301815Z AUTO 07006KT 10SM OVC010 04/02 A2965 RMK AO2,M
INS,2024-03-30 18:15,-115.6733,36.5872,955.00,51.80,39.20,61.99,290.00,11.00,0.00,29.68,1002.60,10.00,M,BKN,OVC,M,M,4400.00,5500.00,M,M,-RA,M,M,M,M,M,M,51.80,KINS 301815Z AUTO 29011KT 10SM -RA BKN044 OVC055 11/04 A2968 RMK AO2 RAB15 SLP026 $,M
RTS,2024-03-30 18:15,-119.8764,39.6682,1539.00,33.80,32.00,93.03,0.00,0.00,0.00,29.66,M,10.00,M,OVC,M,M,M,1300.00,M,M,M,M,M,M,M,M,M,M,33.80,KRTS 301815Z AUTO 00000KT 10SM OVC013 01/00 A2966 RMK AO2,M
MEV,2024-03-30 18:15,-119.7500,38.9963,1441.42,37.40,35.60,93.14,M,5.00,0.00,29.63,M,10.00,M,FEW,BKN,OVC,M,900.00,1300.00,1900.00,M,M,M,M,M,M,M,M,32.81,KMEV 301815Z AUTO VRB05KT 10SM FEW009 BKN013 OVC019 03/02 A2963 RMK AO2,M
HTH,2024-03-30 18:15,-118.6315,38.5448,1282.89,39.20,35.60,86.79,0.00,0.00,0.00,29.66,M,10.00,M,BKN,BKN,M,M,1500.00,4800.00,M,M,M,M,M,M,M,M,M,39.20,KHTH 301815Z AUTO 00000KT 10SM BKN015 BKN048 04/02 A2966 RMK A01,M
TMT,2024-03-30 18:15,-117.1971,39.4643,1749.34,38.00,33.00,82.00,330.00,4.00,0.00,29.65,M,10.00,M,CLR,M,M,M,M,M,M,M,M,M,M,M,M,M,M,34.43,KTMT 301815Z AUTO 33004KT 10SM CLR 03/01 A2965 RMK AO2 T00340006,M
10U,2024-03-30 18:15,-116.1876,41.9532,1637.00,46.40,33.80,61.28,110.00,10.00,0.00,29.70,M,10.00,16.00,FEW,SCT,M,M,2900.00,3600.00,M,M,M,M,M,M,M,M,M,41.03,K10U 301815Z AUTO 11010G16KT 10SM FEW029 SCT036 08/01 A2970 RMK AO2,M
BAM,2024-03-30 18:15,-116.8743,40.5990,1382.36,46.40,39.20,75.84,80.00,4.00,0.00,29.69,M,10.00,M,BKN,OVC,M,M,4100.00,5000.00,M,M,M,M,M,M,M,M,M,44.24,KBAM 301815Z AUTO 08004KT 10SM BKN041 OVC050 08/04 A2969 RMK AO1,M
TPH,2024-03-30 18:17,-117.0904,38.0505,1654.00,35.00,34.00,96.09,140.00,13.00,0.02,29.66,M,2.50,M,BKN,OVC,M,M,700.00,1200.00,M,M,-SN BR,M,M,M,M,M,M,25.41,KTPH 301817Z AUTO 14013KT 2 1/2SM -SN BR BKN007 OVC012 02/01 A2966 RMK AO2 RAE04SNB04 P0002 T00170011,M
INS,2024-03-30 18:28,-115.6733,36.5872,955.00,50.00,39.20,66.27,280.00,11.00,0.00,29.68,1002.80,10.00,M,BKN,OVC,M,M,4200.00,5000.00,M,M,M,M,M,M,M,M,M,50.00,KINS 301828Z AUTO 28011KT 10SM BKN042 OVC050 10/04 A2968 RMK AO2 RAB15E28 SLP028 $,M
05U,2024-03-30 18:30,-116.0051,39.6042,1811.23,42.80,32.00,65.38,330.00,14.00,0.00,29.68,M,10.00,M,FEW,FEW,FEW,M,2500.00,4000.00,4600.00,M,M,M,M,M,M,M,M,35.08,K05U 301830Z AUTO 33014KT 10SM FEW025 FEW040 FEW046 06/00 A2968 RMK A01,M
TPH,2024-03-30 18:34,-117.0904,38.0505,1654.00,35.00,34.00,96.09,140.00,14.00,0.03,29.66,M,2.50,M,BKN,OVC,M,M,600.00,1200.00,M,M,-SN BR,M,M,M,M,M,M,25.03,KTPH 301834Z AUTO 14014KT 2 1/2SM -SN BR BKN006 OVC012 02/01 A2966 RMK AO2 RAE04SNB04 P0003 T00170011,M
BVU,2024-03-30 18:35,-114.8611,35.9475,671.00,60.80,30.20,31.28,180.00,17.00,0.00,29.67,M,10.00,25.00,OVC,M,M,M,7000.00,M,M,M,M,M,M,M,M,M,M,60.80,KBVU 301835Z AUTO 18017G25KT 10SM OVC070 16/M01 A2967 RMK AO2,M
CXP,2024-03-30 18:35,-119.7326,39.1923,1431.00,39.20,35.60,86.79,50.00,10.00,0.00,29.66,M,9.00,M,BKN,OVC,M,M,1200.00,2000.00,M,M,-RA,M,M,M,M,M,M,32.00,KCXP 301835Z AUTO 05010KT 9SM -RA BKN012 OVC020 04/02 A2966 RMK AO2,M
RTS,2024-03-30 18:35,-119.8764,39.6682,1539.00,35.60,32.00,86.59,0.00,0.00,0.00,29.66,M,10.00,M,OVC,M,M,M,1200.00,M,M,M,M,M,M,M,M,M,M,35.60,KRTS 301835Z AUTO 00000KT 10SM OVC012 02/M00 A2966 RMK AO2,M
MEV,2024-03-30 18:35,-119.7500,38.9963,1441.42,37.40,33.80,86.69,M,4.00,0.00,29.64,M,10.00,M,BKN,OVC,M,M,900.00,1400.00,M,M,M,M,M,M,M,M,M,33.73,KMEV 301835Z AUTO VRB04KT 10SM BKN009 OVC014 03/01 A2964 RMK AO2,M
HTH,2024-03-30 18:35,-118.6315,38.5448,1282.89,39.20,35.60,86.79,340.00,6.00,0.00,29.62,M,10.00,M,FEW,BKN,BKN,M,1500.00,2100.00,3300.00,M,M,M,M,M,M,M,M,34.20,KHTH 301835Z AUTO 34006KT 10SM FEW015 BKN021 BKN033 04/02 A2962 RMK A01,M
TMT,2024-03-30 18:35,-117.1971,39.4643,1749.34,39.40,32.00,74.57,240.00,3.00,0.00,29.64,M,10.00,M,SCT,SCT,M,M,1600.00,6000.00,M,M,M,M,M,M,M,M,M,37.15,KTMT 301835Z AUTO 24003KT 10SM SCT016 SCT060 04/00 A2964 RMK AO2 T00410000,M
10U,2024-03-30 18:35,-116.1876,41.9532,1637.00,46.40,33.80,61.28,100.00,11.00,0.00,29.69,M,10.00,M,FEW,FEW,M,M,3200.00,3800.00,M,M,M,M,M,M,M,M,M,40.66,K10U 301835Z AUTO 10011KT 10SM FEW032 FEW038 08/01 A2969 RMK AO2,M
BAM,2024-03-30 18:35,-116.8743,40.5990,1382.36,46.40,37.40,70.68,0.00,0.00,0.00,29.68,M,10.00,M,OVC,M,M,M,3900.00,M,M,M,M,M,M,M,M,M,M,46.40,KBAM 301835Z AUTO 00000KT 10SM OVC039 08/03 A2968 RMK AO1,M
ELY,2024-03-30 18:37,-114.8453,39.2950,1909.00,37.00,34.00,88.78,180.00,14.00,0.02,29.71,M,7.00,19.00,BKN,BKN,OVC,M,2600.00,3400.00,4500.00,M,-SN,M,M,M,M,M,M,27.61,KELY 301837Z AUTO 18014G19KT 7SM -SN BKN026 BKN034 OVC045 03/01 A2971 RMK AO2 P0002 T00280011,M
INS,2024-03-30 18:40,-115.6733,36.5872,955.00,51.80,39.20,61.99,280.00,12.00,0.00,29.67,1002.30,10.00,M,BKN,OVC,M,M,3600.00,4900.00,M,M,-RA,M,M,M,M,M,M,51.80,KINS 301840Z AUTO 28012KT 10SM -RA BKN036 OVC049 11/04 A2967 RMK AO2 RAB15E28RAB40 SLP023 $,M
TPH,2024-03-30 18:46,-117.0904,38.0505,1654.00,36.00,35.00,96.11,140.00,13.00,0.04,29.66,M,5.00,M,BKN,OVC,M,M,500.00,1100.00,M,M,-RA BR,M,M,M,M,M,M,26.69,KTPH 301846Z AUTO 14013KT 5SM -RA BR BKN005 OVC011 02/02 A2966 RMK AO2 RAE04B46SNB04E46 P0004 T00220017,M
INS,2024-03-30 18:50,-115.6733,36.5872,955.00,51.80,37.40,57.77,280.00,13.00,0.00,29.67,1002.30,10.00,M,BKN,OVC,M,M,3300.00,4100.00,M,M,M,M,M,M,M,M,M,51.80,KINS 301850Z AUTO 28013KT 10SM BKN033 OVC041 11/03 A2967 RMK AO2 RAB15E28RAB40E50 SLP023 $,M
LOL,2024-03-30 18:50,-118.5701,40.0684,1192.43,39.20,35.60,86.79,0.00,0.00,0.03,29.67,M,9.00,M,SCT,OVC,M,M,2100.00,3800.00,M,M,-RA,M,M,M,M,M,M,39.20,KLOL 301850Z AUTO 00000KT 9SM -RA SCT021 OVC038 04/02 A2967 RMK AO2 P0003,M
05U,2024-03-30 18:50,-116.0051,39.6042,1811.23,44.60,32.00,61.03,320.00,13.00,0.00,29.68,M,10.00,18.00,FEW,M,M,M,4300.00,M,M,M,M,M,M,M,M,M,M,37.71,K05U 301850Z AUTO 32013G18KT 10SM FEW043 07/00 A2968 RMK A01,M
P68,2024-03-30 18:53,-116.0056,39.6014,1993.00,42.00,32.00,67.42,160.00,11.00,0.00,29.65,1002.40,M,M,M,M,M,M,M,M,M,M,M,M,M,M,M,M,M,35.10,KP68 301853Z AUTO 16011KT 06/00 A2965 RMK AO1 SLP024 T00560000,M
DRA,2024-03-30 18:53,-116.0278,36.6206,1009.00,44.00,41.00,89.11,230.00,8.00,0.12,29.70,1003.80,7.00,M,FEW,OVC,M,M,2900.00,3500.00,M,M,-RA,M,M,M,M,M,M,38.90,KDRA 301853Z AUTO 23008KT 7SM -RA FEW029 OVC035 07/05 A2970 RMK AO2 SLP038 P0012 T00670050,M
ELY,2024-03-30 18:53,-114.8453,39.2950,1909.00,38.00,34.00,85.35,170.00,13.00,0.02,29.71,1004.30,10.00,M,FEW,BKN,OVC,M,1600.00,4000.00,4900.00,M,M,M,M,M,M,M,M,29.26,KELY 301853Z AUTO 17013KT 10SM FEW016 BKN040 OVC049 03/01 A2971 RMK AO2 RAB40E53SNE40 SLP043 P0002 T00330011,M
VGT,2024-03-30 18:53,-115.1933,36.2111,667.00,58.00,37.00,45.38,0.00,0.00,T,29.67,1005.30,10.00,M,OVC,M,M,M,6000.00,M,M,M,-RA,M,M,M,M,M,M,58.00,KVGT 301853Z 00000KT 10SM -RA OVC060 14/03 A2967 RMK AO2 SLP053 P0000 T01440028,M
LOL,2024-03-30 18:53,-118.5701,40.0684,1192.43,39.00,36.00,88.87,0.00,0.00,0.03,29.67,1005.00,7.00,M,SCT,BKN,OVC,M,2100.00,3300.00,4100.00,M,-RA,M,M,M,M,M,M,39.00,KLOL 301853Z AUTO 00000KT 7SM -RA SCT021 BKN033 OVC041 04/02 A2967 RMK AO2 SLP050 P0003 T00390022,M
BVU,2024-03-30 18:55,-114.8611,35.9475,671.00,62.60,30.20,29.35,170.00,21.00,0.00,29.66,M,10.00,30.00,SCT,BKN,M,M,7500.00,9500.00,M,M,M,M,M,M,M,M,M,62.60,KBVU 301855Z AUTO 17021G30KT 10SM SCT075 BKN095 17/M01 A2966 RMK AO2,M
CXP,2024-03-30 18:55,-119.7326,39.1923,1431.00,39.20,35.60,86.79,70.00,9.00,0.00,29.66,M,10.00,M,SCT,SCT,BKN,M,1200.00,2100.00,2500.00,M,-RA,M,M,M,M,M,M,32.47,KCXP 301855Z AUTO 07009KT 10SM -RA SCT012 SCT021 BKN025 04/02 A2966 RMK AO2,M
RNO,2024-03-30 18:55,-119.7711,39.4839,1341.00,40.00,34.00,78.94,340.00,4.00,T,29.66,1004.10,6.00,M,OVC,M,M,M,1800.00,M,M,M,-RA,M,M,M,M,M,M,36.76,KRNO 301855Z 34004KT 6SM -RA OVC018 04/01 A2966 RMK AO2 RAB32 SLP041 P0000 T00440011 $,M
RTS,2024-03-30 18:55,-119.8764,39.6682,1539.00,35.60,32.00,86.59,0.00,0.00,0.08,29.66,M,10.00,M,OVC,M,M,M,1000.00,M,M,M,M,M,M,M,M,M,M,35.60,KRTS 301855Z AUTO 00000KT 10SM OVC010 02/M00 A2966 RMK AO2 P0008,M
MEV,2024-03-30 18:55,-119.7500,38.9963,1441.42,37.40,33.80,86.69,260.00,4.00,0.00,29.64,M,10.00,M,BKN,OVC,M,M,1100.00,1600.00,M,M,M,M,M,M,M,M,M,33.73,KMEV 301855Z AUTO 26004KT 10SM BKN011 OVC016 03/01 A2964 RMK AO2,M
HTH,2024-03-30 18:55,-118.6315,38.5448,1282.89,41.00,35.60,80.93,330.00,5.00,0.00,29.65,M,10.00,M,FEW,BKN,OVC,M,1400.00,2000.00,4000.00,M,M,M,M,M,M,M,M,37.08,KHTH 301855Z AUTO 33005KT 10SM FEW014 BKN020 OVC040 05/02 A2965 RMK A01,M
10U,2024-03-30 18:55,-116.1876,41.9532,1637.00,46.40,33.80,61.28,120.00,10.00,0.00,29.69,M,10.00,18.00,FEW,M,M,M,3100.00,M,M,M,M,M,M,M,M,M,M,41.03,K10U 301855Z AUTO 12010G18KT 10SM FEW031 08/01 A2969 RMK AO2,M
BAM,2024-03-30 18:55,-116.8743,40.5990,1382.36,46.40,37.40,70.68,80.00,3.00,0.00,29.67,M,10.00,M,SCT,OVC,M,M,3200.00,3900.00,M,M,M,M,M,M,M,M,M,45.15,KBAM 301855Z AUTO 08003KT 10SM SCT032 OVC039 08/03 A2967 RMK AO1,M
TMT,2024-03-30 18:55,-117.1971,39.4643,1749.34,40.30,32.00,72.01,190.00,3.00,0.00,29.64,M,10.00,M,SCT,SCT,M,M,4700.00,6000.00,M,M,M,M,M,M,M,M,M,38.18,KTMT 301855Z AUTO 19003KT 10SM SCT047 SCT060 05/00 A2964 RMK AO2 T00460000,M
INS,2024-03-30 18:55,-115.6733,36.5872,955.00,51.00,37.60,59.98,270.00,14.00,T,29.67,1002.30,10.00,M,OVC,M,M,M,3300.00,M,M,M,M,M,M,M,M,M,M,51.00,KINS 301855Z AUTO 27014KT 10SM OVC033 11/03 A2967 RMK AO2 RAB15E28RAB40E50 SLP023 P0000 T01050031 $,M
LSV,2024-03-30 18:55,-115.0343,36.2362,570.00,59.00,37.20,44.12,170.00,13.00,0.00,29.64,1002.60,10.00,M,BKN,M,M,M,6500.00,M,M,M,M,M,M,M,M,M,M,59.00,KLSV 301855Z AUTO 17013KT 10SM BKN065 15/03 A2964 RMK AO2 SLP026 T01510029,M
EKO,2024-03-30 18:56,-115.7860,40.8242,1367.00,45.00,35.00,67.78,70.00,4.00,0.00,29.68,1004.60,10.00,M,BKN,OVC,M,M,5000.00,6000.00,M,M,M,M,M,M,M,M,M,42.60,KEKO 301856Z AUTO 07004KT 10SM BKN050 OVC060 07/02 A2968 RMK AO2 SLP046 T00720017,M
WMC,2024-03-30 18:56,-117.8072,40.9019,1315.00,51.00,35.00,54.12,40.00,17.00,0.00,29.62,1001.90,10.00,23.00,FEW,M,M,M,9500.00,M,M,M,M,M,M,M,M,M,M,51.00,KWMC 301856Z AUTO 04017G23KT 10SM FEW095 11/02 A2962 RMK AO2 SLP019 T01060017,M
NFL,2024-03-30 18:56,-118.7010,39.4166,1199.00,40.00,37.00,88.92,50.00,11.00,0.00,29.64,1002.20,10.00,M,SCT,BKN,OVC,M,1300.00,3500.00,5000.00,M,M,M,M,M,M,M,M,32.58,KNFL 301856Z 05011KT 10SM SCT013 BKN035 OVC050 04/03 A2964 RMK AO2 SLP022 T00440028,M
HND,2024-03-30 18:56,-115.1344,35.9729,742.79,56.00,39.00,52.75,150.00,14.00,T,29.67,1005.50,10.00,19.00,OVC,M,M,M,6500.00,M,M,M,-RA,M,M,M,26.00,160.00,2024-03-30 18:24,56.00,KHND 301856Z 15014G19KT 10SM -RA OVC065 13/04 A2967 RMK AO2 PK WND 16026/1824 RAE00B32 SLP055 P0000 T01330039,M
TPH,2024-03-30 18:56,-117.0904,38.0505,1654.00,37.00,35.00,92.39,140.00,12.00,0.04,29.66,1003.30,9.00,18.00,BKN,OVC,M,M,700.00,1100.00,M,M,-RA,M,M,M,M,M,M,28.37,KTPH 301856Z AUTO 14012G18KT 9SM -RA BKN007 OVC011 03/02 A2966 RMK AO2 RAE04B46SNB04E46 SLP033 P0004 T00280017,M
LAS,2024-03-30 18:56,-115.1634,36.0719,663.00,58.00,35.00,41.92,60.00,4.00,T,29.66,1003.20,10.00,M,OVC,M,M,M,6000.00,M,M,M,M,M,M,M,M,M,M,58.00,KLAS 301856Z 06004KT 10SM OVC060 14/02 A2966 RMK AO2 RAE09 SLP032 P0000 T01440017,M
RNO,2024-03-30 19:04,-119.7711,39.4839,1341.00,39.00,34.00,82.08,50.00,6.00,T,29.66,M,3.00,M,BKN,OVC,M,M,1400.00,2000.00,M,M,-RA,M,M,M,M,M,M,33.96,KRNO 301904Z 05006KT 3SM -RA BKN014 OVC020 04/01 A2966 RMK AO2 P0000 T00390011 $,M
INS,2024-03-30 19:05,-115.6733,36.5872,955.00,50.00,37.40,61.76,270.00,14.00,0.00,29.67,1002.30,10.00,M,BKN,OVC,M,M,2600.00,3300.00,M,M,M,M,M,M,M,M,M,50.00,KINS 301905Z AUTO 27014KT 10SM BKN026 OVC033 10/03 A2967 RMK AO2 BKN V FEW SLP023 $,M
INS,2024-03-30 19:06,-115.6733,36.5872,955.00,50.00,37.40,61.76,260.00,14.00,0.00,29.67,1002.30,10.00,M,BKN,OVC,M,M,2600.00,3300.00,M,M,-RA,M,M,M,M,M,M,50.00,KINS 301906Z AUTO 26014KT 10SM -RA BKN026 OVC033 10/03 A2967 RMK AO2 RAB05 BKN V SCT SLP023 $,M
LOL,2024-03-30 19:08,-118.5701,40.0684,1192.43,39.00,36.00,88.87,0.00,0.00,0.01,29.67,M,6.00,M,FEW,BKN,OVC,M,2100.00,2800.00,3900.00,M,-RA BR,M,M,M,M,M,M,39.00,KLOL 301908Z AUTO 00000KT 6SM -RA BR FEW021 BKN028 OVC039 04/02 A2967 RMK AO2 P0001 T00390022,M
05U,2024-03-30 19:10,-116.0051,39.6042,1811.23,42.80,32.00,65.38,M,M,0.00,29.68,M,10.00,M,BKN,BKN,BKN,M,2200.00,4500.00,5000.00,M,M,M,M,M,M,M,M,M,K05U 301910Z AUTO 13/08333313KT 10SM BKN022 BKN045 BKN050 06/M00 A2968 RMK A01,M
BVU,2024-03-30 19:15,-114.8611,35.9475,671.00,64.40,30.20,27.55,170.00,22.00,0.00,29.65,M,10.00,28.00,SCT,SCT,M,M,7000.00,9500.00,M,M,M,M,M,M,M,M,M,64.40,KBVU 301915Z AUTO 17022G28KT 10SM SCT070 SCT095 18/M01 A2965 RMK AO2,M
CXP,2024-03-30 19:15,-119.7326,39.1923,1431.00,41.00,35.60,80.93,50.00,8.00,0.00,29.64,M,10.00,16.00,FEW,SCT,BKN,M,1400.00,1800.00,2600.00,M,M,M,M,M,M,M,M,35.20,KCXP 301915Z AUTO 05008G16KT 10SM FEW014 SCT018 BKN026 05/02 A2964 RMK AO2,M
RTS,2024-03-30 19:15,-119.8764,39.6682,1539.00,35.60,32.00,86.59,330.00,3.00,0.00,29.67,M,6.00,M,SCT,M,M,M,900.00,M,M,M,-DZ,M,M,M,M,M,M,32.80,KRTS 301915Z AUTO 33003KT 6SM -DZ SCT009 02/00 A2967 RMK AO2,M
MEV,2024-03-30 19:15,-119.7500,38.9963,1441.42,39.20,35.60,86.79,0.00,0.00,0.00,29.62,M,10.00,M,FEW,SCT,BKN,M,1200.00,1600.00,2300.00,M,M,M,M,M,M,M,M,39.20,KMEV 301915Z AUTO 00000KT 10SM FEW012 SCT016 BKN023 04/02 A2962 RMK AO2,M
HTH,2024-03-30 19:15,-118.6315,38.5448,1282.89,41.00,35.60,80.93,330.00,7.00,0.00,29.65,M,10.00,M,FEW,FEW,OVC,M,1300.00,1900.00,3400.00,M,M,M,M,M,M,M,M,35.75,KHTH 301915Z AUTO 33007KT 10SM FEW013 FEW019 OVC034 05/02 A2965 RMK A01,M
TMT,2024-03-30 19:15,-117.1971,39.4643,1749.34,40.60,32.00,71.17,0.00,0.00,0.00,29.64,M,10.00,M,SCT,BKN,BKN,M,2400.00,3500.00,4700.00,M,M,M,M,M,M,M,M,40.60,KTMT 301915Z AUTO 00000KT 10SM SCT024 BKN035 BKN047 05/00 A2964 RMK AO2 T00480000,M
10U,2024-03-30 19:15,-116.1876,41.9532,1637.00,46.40,33.80,61.28,80.00,8.00,0.00,29.69,M,10.00,16.00,FEW,SCT,M,M,3000.00,4100.00,M,M,M,M,M,M,M,M,M,41.85,K10U 301915Z AUTO 08008G16KT 10SM FEW030 SCT041 08/01 A2969 RMK AO2,M
BAM,2024-03-30 19:15,-116.8743,40.5990,1382.36,48.20,37.40,66.05,40.00,5.00,0.00,29.67,M,10.00,M,BKN,OVC,M,M,2600.00,3400.00,M,M,M,M,M,M,M,M,M,45.63,KBAM 301915Z AUTO 04005KT 10SM BKN026 OVC034 09/03 A2967 RMK AO1,M
RNO,2024-03-30 19:21,-119.7711,39.4839,1341.00,40.00,35.00,82.15,340.00,6.00,0.02,29.65,M,5.00,M,FEW,BKN,OVC,M,1000.00,1300.00,2000.00,M,-RA,M,M,M,M,M,M,35.17,KRNO 301921Z 34006KT 5SM -RA FEW010 BKN013 OVC020 04/02 A2965 RMK AO2 P0002 T00440017 $,M
INS,2024-03-30 19:26,-115.6733,36.5872,955.00,48.20,41.00,76.01,250.00,12.00,0.00,29.68,1002.80,10.00,M,OVC,M,M,M,3000.00,M,M,M,-RA,M,M,M,M,M,M,42.62,KINS 301926Z AUTO 25012KT 10SM -RA OVC030 09/05 A2968 RMK AO2 RAB05 SLP028 $,M
LSV,2024-03-30 19:26,-115.0343,36.2362,570.00,60.80,35.60,38.85,180.00,17.00,0.00,29.62,1001.80,10.00,M,FEW,M,M,M,4700.00,M,M,M,-RA,M,M,M,M,M,M,60.80,KLSV 301926Z AUTO 18017KT 10SM -RA FEW047 16/02 A2962 RMK AO2 RAB26 SLP018 CHINO RWY03R $,M
05U,2024-03-30 19:30,-116.0051,39.6042,1811.23,42.80,32.00,65.38,330.00,16.00,0.00,29.68,M,10.00,M,FEW,OVC,M,M,2300.00,6000.00,M,M,M,M,M,M,M,M,M,34.50,K05U 301930Z AUTO 33016KT 10SM FEW023 OVC060 06/M00 A2968 RMK A01,M
RNO,2024-03-30 19:31,-119.7711,39.4839,1341.00,41.00,36.00,82.22,310.00,7.00,0.03,29.64,M,10.00,M,FEW,BKN,OVC,M,1000.00,1900.00,2700.00,M,-RA,M,M,M,M,M,M,35.75,KRNO 301931Z 31007KT 10SM -RA FEW010 BKN019 OVC027 05/02 A2964 RMK AO2 P0003 T00500022 $,M
LSV,2024-03-30 19:32,-115.0343,36.2362,570.00,60.80,37.40,41.71,180.00,15.00,0.00,29.62,1001.90,10.00,M,CLR,M,M,M,M,M,M,M,M,M,M,M,M,M,M,60.80,KLSV 301932Z AUTO 18015KT 10SM CLR 16/03 A2962 RMK AO2 RAB26E32 SLP019 CHINO RWY03R $,M
BVU,2024-03-30 19:35,-114.8611,35.9475,671.00,64.40,30.20,27.55,180.00,25.00,0.00,29.64,M,10.00,31.00,BKN,M,M,M,7000.00,M,M,M,M,M,M,M,M,M,M,64.40,KBVU 301935Z AUTO 18025G31KT 10SM BKN070 18/M01 A2964 RMK AO2,M
CXP,2024-03-30 19:35,-119.7326,39.1923,1431.00,41.00,35.60,80.93,40.00,8.00,0.00,29.64,M,10.00,M,BKN,BKN,OVC,M,1800.00,2600.00,4600.00,M,-RA,M,M,M,M,M,M,35.20,KCXP 301935Z AUTO 04008KT 10SM -RA BKN018 BKN026 OVC046 05/02 A2964 RMK AO2,M
RTS,2024-03-30 19:35,-119.8764,39.6682,1539.00,33.80,33.80,100.00,320.00,5.00,0.00,29.65,M,4.00,M,CLR,M,M,M,M,M,M,M,+UP,M,M,M,M,M,M,28.53,KRTS 301935Z AUTO 32005KT 4SM +UP CLR 01/01 A2965 RMK AO2,M
MEV,2024-03-30 19:35,-119.7500,38.9963,1441.42,35.60,35.60,100.00,350.00,6.00,0.00,29.62,M,3.00,11.00,FEW,BKN,OVC,M,500.00,1500.00,5000.00,M,-RA BR,M,M,M,M,M,M,29.87,KMEV 301935Z AUTO 35006G11KT 3SM -RA BR FEW005 BKN015 OVC050 02/02 A2962 RMK AO2,M
HTH,2024-03-30 19:35,-118.6315,38.5448,1282.89,41.00,37.40,86.89,340.00,9.00,0.00,29.63,M,10.00,M,BKN,OVC,M,M,2900.00,3300.00,M,M,M,M,M,M,M,M,M,34.70,KHTH 301935Z AUTO 34009KT 10SM BKN029 OVC033 05/03 A2963 RMK A01,M
10U,2024-03-30 19:35,-116.1876,41.9532,1637.00,46.40,33.80,61.28,120.00,12.00,0.00,29.69,M,10.00,M,SCT,SCT,SCT,M,2800.00,3400.00,4100.00,M,M,M,M,M,M,M,M,40.33,K10U 301935Z AUTO 12012KT 070V130 10SM SCT028 SCT034 SCT041 08/01 A2969 RMK AO2,M
BAM,2024-03-30 19:35,-116.8743,40.5990,1382.36,50.00,37.40,61.76,110.00,11.00,0.00,29.65,M,10.00,M,SCT,BKN,OVC,M,2400.00,2900.00,7000.00,M,M,M,M,M,M,M,M,50.00,KBAM 301935Z AUTO 11011KT 10SM SCT024 BKN029 OVC070 10/03 A2965 RMK AO1,M
TMT,2024-03-30 19:35,-117.1971,39.4643,1749.34,40.50,32.40,72.61,160.00,4.00,0.00,29.64,M,10.00,M,SCT,OVC,M,M,2400.00,3300.00,M,M,M,M,M,M,M,M,M,37.35,KTMT 301935Z AUTO 16004KT 10SM SCT024 OVC033 05/00 A2964 RMK AO2 T00470002,M
TPH,2024-03-30 19:36,-117.0904,38.0505,1654.00,35.00,34.00,96.09,210.00,10.00,0.02,29.66,M,2.50,M,FEW,SCT,OVC,M,500.00,900.00,1500.00,M,-SN BR,M,M,M,M,M,M,26.73,KTPH 301936Z AUTO 21010KT 2 1/2SM -SN BR FEW005 SCT009 OVC015 02/01 A2966 RMK AO2 RAE26SNB26 P0002 T00170011,M
EKO,2024-03-30 19:38,-115.7860,40.8242,1367.00,45.00,35.00,67.78,0.00,0.00,T,29.67,M,10.00,M,BKN,BKN,OVC,M,2600.00,3400.00,4200.00,M,-RA,M,M,M,M,M,M,45.00,KEKO 301938Z AUTO 00000KT 10SM -RA BKN026 BKN034 OVC042 07/02 A2967 RMK AO2 RAB31 P0000 T00720017,M
ELY,2024-03-30 19:44,-114.8453,39.2950,1909.00,36.00,33.00,88.73,170.00,14.00,T,29.70,M,5.00,22.00,FEW,BKN,OVC,M,1500.00,2800.00,4800.00,M,-SN BR,M,M,M,M,M,M,26.32,KELY 301944Z AUTO 17014G22KT 5SM -SN BR FEW015 BKN028 OVC048 02/01 A2970 RMK AO2 RAB07E43SNB43 P0000 T00220006,M
TPH,2024-03-30 19:48,-117.0904,38.0505,1654.00,35.00,34.00,96.09,200.00,10.00,0.04,29.67,M,2.00,M,SCT,SCT,OVC,M,500.00,800.00,1300.00,M,-SN BR,M,M,M,M,M,M,26.73,KTPH 301948Z AUTO 20010KT 2SM -SN BR SCT005 SCT008 OVC013 02/01 A2967 RMK AO2 RAE26SNB26 P0004 T00170011,M
05U,2024-03-30 19:50,-116.0051,39.6042,1811.23,41.00,32.00,70.08,330.00,10.00,0.00,29.68,M,9.00,17.00,FEW,BKN,OVC,M,1900.00,2300.00,6000.00,M,M,M,M,M,M,M,M,34.25,K05U 301950Z AUTO 33010G17KT 9SM FEW019 BKN023 OVC060 05/00 A2968 RMK A01,M
P68,2024-03-30 19:53,-116.0056,39.6014,1993.00,39.00,32.00,75.75,170.00,10.00,0.00,29.65,1002.50,M,18.00,M,M,M,M,M,M,M,M,M,M,M,M,M,M,M,31.75,KP68 301953Z AUTO 17010G18KT 04/00 A2965 RMK AO1 SLP025 T00390000,M
DRA,2024-03-30 19:53,-116.0278,36.6206,1009.00,43.00,40.00,89.06,190.00,11.00,0.08,29.70,1004.00,6.00,M,BKN,OVC,M,M,3000.00,3600.00,M,M,RA BR,M,M,M,M,M,M,36.37,KDRA 301953Z AUTO 19011KT 6SM RA BR BKN030 OVC036 06/04 A2970 RMK AO2 SLP040 P0008 T00610044,M
ELY,2024-03-30 19:53,-114.8453,39.2950,1909.00,36.00,33.00,88.73,170.00,13.00,T,29.70,1004.20,4.00,20.00,FEW,BKN,OVC,M,1800.00,2600.00,4000.00,M,-SN BR,M,M,M,M,M,M,26.69,KELY 301953Z AUTO 17013G20KT 4SM -SN BR FEW018 BKN026 OVC040 02/01 A2970 RMK AO2 RAB07E43SNB43 SLP042 P0000 T00220006,M
VGT,2024-03-30 19:53,-115.1933,36.2111,667.00,56.00,40.00,54.85,0.00,0.00,0.03,29.65,1004.70,8.00,M,OVC,M,M,M,6000.00,M,M,M,-RA,M,M,M,M,M,M,56.00,KVGT 301953Z 00000KT 8SM -RA OVC060 13/04 A2965 RMK AO2 SLP047 P0003 T01330044,M
LOL,2024-03-30 19:53,-118.5701,40.0684,1192.43,40.00,37.00,88.92,280.00,4.00,0.05,29.65,1004.40,8.00,M,BKN,OVC,M,M,3500.00,4700.00,M,M,-RA,M,M,M,M,M,M,36.76,KLOL 301953Z AUTO 28004KT 8SM -RA BKN035 OVC047 04/03 A2965 RMK AO2 SLP044 P0005 T00440028,M
EKO,2024-03-30 19:54,-115.7860,40.8242,1367.00,44.60,35.60,70.48,80.00,4.08,M,29.66,M,9.00,M,SCT,BKN,OVC,M,2598.00,3300.00,3900.00,M,-RA,M,M,M,M,M,M,42.06,SPECI KEKO 301954Z 08004KT 9SM -RA SCT026 BKN033 OVC039 07/02 A2966 RMK AO2 RAB31 P0000 FIBI,M
BVU,2024-03-30 19:55,-114.8611,35.9475,671.00,64.40,30.20,27.55,180.00,23.00,0.00,29.63,M,10.00,28.00,BKN,M,M,M,7000.00,M,M,M,M,M,M,M,M,M,M,64.40,KBVU 301955Z AUTO 18023G28KT 10SM BKN070 18/M01 A2963 RMK AO2,M
CXP,2024-03-30 19:55,-119.7326,39.1923,1431.00,42.80,35.60,75.50,40.00,9.00,0.00,29.63,M,10.00,16.00,BKN,BKN,OVC,M,1900.00,2600.00,4500.00,M,M,M,M,M,M,M,M,36.94,KCXP 301955Z AUTO 04009G16KT 10SM BKN019 BKN026 OVC045 06/02 A2963 RMK AO2,M
RNO,2024-03-30 19:55,-119.7711,39.4839,1341.00,41.00,36.00,82.22,330.00,7.00,0.03,29.63,1003.30,10.00,M,BKN,OVC,M,M,1800.00,2800.00,M,M,M,M,M,M,M,M,M,35.75,KRNO 301955Z 33007KT 10SM BKN018 OVC028 05/02 A2963 RMK AO2 RAE45 SLP033 P0003 T00500022 $,M
RTS,2024-03-30 19:55,-119.8764,39.6682,1539.00,33.80,33.80,100.00,340.00,5.00,0.08,29.65,M,2.50,M,FEW,M,M,M,1300.00,M,M,M,-SN,M,M,M,M,M,M,28.53,KRTS 301955Z AUTO 34005KT 2 1/2SM -SN FEW013 01/01 A2965 RMK AO2 P0008,M
MEV,2024-03-30 19:55,-119.7500,38.9963,1441.42,37.40,35.60,93.14,330.00,6.00,0.01,29.62,M,3.00,M,SCT,BKN,BKN,M,700.00,1700.00,2100.00,M,UP BR,M,M,M,M,M,M,32.03,KMEV 301955Z AUTO 33006KT 3SM UP BR SCT007 BKN017 BKN021 03/02 A2962 RMK AO2 P0001,M
HTH,2024-03-30 19:55,-118.6315,38.5448,1282.89,41.00,37.40,86.89,340.00,8.00,0.00,29.62,M,10.00,M,BKN,OVC,M,M,2900.00,3500.00,M,M,M,M,M,M,M,M,M,35.20,KHTH 301955Z AUTO 34008KT 10SM BKN029 OVC035 05/03 A2962 RMK A01,M
TMT,2024-03-30 19:55,-117.1971,39.4643,1749.34,40.00,32.00,72.85,0.00,0.00,0.00,29.64,M,10.00,M,SCT,OVC,M,M,2200.00,3100.00,M,M,-RA,M,M,M,M,M,M,40.00,KTMT 301955Z AUTO 00000KT 10SM -RA SCT022 OVC031 05/00 A2964 RMK AO2 T00450001,M
10U,2024-03-30 19:55,-116.1876,41.9532,1637.00,46.40,33.80,61.28,120.00,12.00,0.00,29.69,M,10.00,19.00,FEW,FEW,BKN,M,2900.00,5000.00,6500.00,M,M,M,M,M,M,M,M,40.33,K10U 301955Z AUTO 12012G19KT 10SM FEW029 FEW050 BKN065 08/01 A2969 RMK AO2,M
BAM,2024-03-30 19:55,-116.8743,40.5990,1382.36,50.00,35.60,57.52,110.00,12.00,0.00,29.64,M,10.00,M,SCT,BKN,OVC,M,2900.00,3700.00,7000.00,M,M,M,M,M,M,M,M,50.00,KBAM 301955Z AUTO 11012KT 10SM SCT029 BKN037 OVC070 10/02 A2964 RMK AO1,M
INS,2024-03-30 19:55,-115.6733,36.5872,955.00,47.70,41.50,78.96,250.00,15.00,0.02,29.67,1002.70,10.00,M,FEW,SCT,OVC,M,1600.00,2500.00,3000.00,M,-RA,M,M,M,M,M,M,41.13,KINS 301955Z AUTO 25015KT 10SM -RA FEW016 SCT025 OVC030 09/05 A2967 RMK AO2 RAB05 SLP027 P0002 T00870053 $,M
LSV,2024-03-30 19:55,-115.0343,36.2362,570.00,61.00,37.80,42.07,190.00,14.00,T,29.61,1001.60,10.00,M,CLR,M,M,M,M,M,M,M,M,M,M,M,M,M,M,61.00,KLSV 301955Z AUTO 19014KT 10SM CLR 16/03 A2961 RMK AO2 RAB26E32 SLP016 P0000 T01610032 $,M
EKO,2024-03-30 19:56,-115.7860,40.8242,1367.00,45.00,35.00,67.78,M,3.00,T,29.66,1003.90,8.00,M,FEW,BKN,OVC,M,2600.00,3300.00,3900.00,M,-RA,M,M,M,M,M,M,43.55,KEKO 301956Z AUTO VRB03KT 8SM -RA FEW026 BKN033 OVC039 07/02 A2966 RMK AO2 RAB31 SLP039 P0000 T00720017,M
WMC,2024-03-30 19:56,-117.8072,40.9019,1315.00,51.00,32.00,47.99,30.00,12.00,0.00,29.63,1002.60,10.00,M,BKN,OVC,M,M,6000.00,10000.00,M,M,M,M,M,M,M,M,M,51.00,KWMC 301956Z AUTO 03012KT 10SM BKN060 OVC100 11/00 A2963 RMK AO2 SLP026 T01060000,M
NFL,2024-03-30 19:56,-118.7010,39.4166,1199.00,43.00,37.00,79.19,20.00,7.00,0.00,29.65,1002.30,10.00,M,SCT,BKN,OVC,M,1200.00,2500.00,3500.00,M,M,M,M,M,M,M,M,38.19,KNFL 301956Z 02007KT 10SM SCT012 BKN025 OVC035 06/03 A2965 RMK AO2 SLP023 T00610028,M
HND,2024-03-30 19:56,-115.1344,35.9729,742.79,61.00,38.00,42.40,170.00,16.00,0.02,29.66,1004.80,10.00,M,FEW,OVC,M,M,4500.00,6000.00,M,M,M,M,M,M,27.00,180.00,2024-03-30 19:40,61.00,KHND 301956Z 17016KT 10SM FEW045 OVC060 16/03 A2966 RMK AO2 PK WND 18027/1940 RAE29 SLP048 P0002 T01610033,M
TPH,2024-03-30 19:56,-117.0904,38.0505,1654.00,35.00,34.00,96.09,190.00,10.00,0.04,29.65,1003.10,3.00,M,SCT,OVC,M,M,400.00,1300.00,M,M,-SN BR,M,M,M,M,M,M,26.73,KTPH 301956Z AUTO 19010KT 3SM -SN BR SCT004 OVC013 02/01 A2965 RMK AO2 RAE26SNB26 SLP031 P0004 T00170011,M
LAS,2024-03-30 19:56,-115.1634,36.0719,663.00,60.00,38.00,43.94,190.00,11.00,T,29.64,1002.40,10.00,19.00,OVC,M,M,M,6000.00,M,M,M,M,M,M,M,M,M,M,60.00,KLAS 301956Z 19011G19KT 10SM OVC060 16/03 A2964 RMK AO2 RAB08E27 SLP024 P0000 T01560033,M
INS,2024-03-30 20:00,-115.6733,36.5872,955.00,48.20,41.00,76.01,260.00,16.00,0.00,29.68,1003.00,9.00,M,FEW,BKN,OVC,M,1800.00,2500.00,3000.00,M,-RA,M,M,M,M,M,M,41.53,KINS 302000Z AUTO 26016KT 9SM -RA FEW018 BKN025 OVC030 09/05 A2968 RMK AO2 BKN V SCT SLP030 $,M
TPH,2024-03-30 20:03,-117.0904,38.0505,1654.00,36.00,34.00,92.35,200.00,11.00,T,29.65,M,5.00,M,BKN,OVC,M,M,400.00,1200.00,M,M,-SN BR,M,M,M,M,M,M,27.52,KTPH 302003Z AUTO 20011KT 5SM -SN BR BKN004 OVC012 02/01 A2965 RMK AO2 P0000 T00220011,M
ELY,2024-03-30 20:07,-114.8453,39.2950,1909.00,36.00,33.00,88.73,170.00,13.00,0.01,29.70,M,5.00,M,FEW,BKN,OVC,M,800.00,2300.00,3000.00,M,-RA BR,M,M,M,M,M,M,26.69,KELY 302007Z AUTO 17013KT 5SM -RA BR FEW008 BKN023 OVC030 02/01 A2970 RMK AO2 RAB1954SNE05 P0001 T00220006,M
05U,2024-03-30 20:10,-116.0051,39.6042,1811.23,42.80,32.00,65.38,320.00,10.00,0.00,29.66,M,10.00,M,FEW,SCT,OVC,M,2100.00,2900.00,4500.00,M,M,M,M,M,M,M,M,36.51,K05U 302010Z AUTO 32010KT 10SM FEW021 SCT029 OVC045 06/00 A2966 RMK A01,M
LSV,2024-03-30 20:11,-115.0343,36.2362,570.00,60.80,37.40,41.71,230.00,11.00,0.00,29.61,1001.60,10.00,24.00,CLR,M,M,M,M,M,M,M,M,M,M,M,M,M,M,60.80,KLSV 302011Z AUTO 23011G24KT 10SM CLR 16/03 A2961 RMK AO2 WSHFT 06 SLP016 $,M
BVU,2024-03-30 20:15,-114.8611,35.9475,671.00,64.40,30.20,27.55,180.00,18.00,0.00,29.63,M,10.00,28.00,BKN,M,M,M,7000.00,M,M,M,M,M,M,M,M,M,M,64.40,KBVU 302015Z AUTO 18018G28KT 10SM BKN070 18/M01 A2963 RMK AO2,M
CXP,2024-03-30 20:15,-119.7326,39.1923,1431.00,41.00,37.40,86.89,40.00,12.00,0.00,29.62,M,9.00,17.00,BKN,OVC,M,M,1700.00,2100.00,M,M,-RA,M,M,M,M,M,M,33.46,KCXP 302015Z AUTO 04012G17KT 9SM -RA BKN017 OVC021 05/03 A2962 RMK AO2,M
RTS,2024-03-30 20:15,-119.8764,39.6682,1539.00,33.80,33.80,100.00,0.00,0.00,0.00,29.65,M,3.00,M,FEW,SCT,M,M,500.00,1300.00,M,M,-SN,M,M,M,M,M,M,33.80,KRTS 302015Z AUTO 00000KT 3SM -SN FEW005 SCT013 01/01 A2965 RMK AO2,M
MEV,2024-03-30 20:15,-119.7500,38.9963,1441.42,35.60,33.80,93.08,270.00,7.00,0.00,29.61,M,3.00,M,BKN,BKN,M,M,800.00,1300.00,M,M,-SN BR,M,M,M,M,M,M,29.17,KMEV 302015Z AUTO 27007KT 3SM -SN BR BKN008 BKN013 02/01 A2961 RMK AO2,M
HTH,2024-03-30 20:15,-118.6315,38.5448,1282.89,42.80,37.40,81.07,330.00,11.00,0.00,29.61,M,10.00,M,FEW,SCT,OVC,M,1300.00,3300.00,4100.00,M,M,M,M,M,M,M,M,36.11,KHTH 302015Z AUTO 33011KT 10SM FEW013 SCT033 OVC041 06/03 A2961 RMK A01,M
TMT,2024-03-30 20:15,-117.1971,39.4643,1749.34,40.00,33.60,77.69,0.00,0.00,0.00,29.64,M,10.00,M,SCT,OVC,M,M,2000.00,3100.00,M,M,-RA,M,M,M,M,M,M,40.00,KTMT 302015Z AUTO 00000KT 10SM -RA SCT020 OVC031 05/01 A2964 RMK AO2 T00450009,M
10U,2024-03-30 20:15,-116.1876,41.9532,1637.00,46.40,32.00,57.00,100.00,10.00,0.00,29.69,M,10.00,16.00,FEW,SCT,BKN,M,5000.00,6000.00,7500.00,M,M,M,M,M,M,M,M,41.03,K10U 302015Z AUTO 10010G16KT 10SM FEW050 SCT060 BKN075 08/00 A2969 RMK AO2,M
BAM,2024-03-30 20:15,-116.8743,40.5990,1382.36,50.00,35.60,57.52,130.00,8.00,0.00,29.64,M,10.00,15.00,SCT,OVC,M,M,3300.00,7000.00,M,M,M,M,M,M,M,M,M,50.00,KBAM 302015Z AUTO 13008G15KT 10SM SCT033 OVC070 10/02 A2964 RMK AO1,M
TPH,2024-03-30 20:18,-117.0904,38.0505,1654.00,37.00,35.00,92.39,190.00,10.00,0.01,29.65,M,9.00,M,BKN,OVC,M,M,500.00,1600.00,M,M,UP,M,M,M,M,M,M,29.24,KTPH 302018Z AUTO 19010KT 9SM UP BKN005 OVC016 03/02 A2965 RMK AO2 UPB17SNE17 P0001 T00280017,M
DRA,2024-03-30 20:21,-116.0278,36.6206,1009.00,43.00,40.00,89.06,220.00,8.00,0.04,29.71,M,5.00,M,SCT,OVC,M,M,1800.00,2900.00,M,M,RA BR,M,M,M,M,M,M,37.66,KDRA 302021Z AUTO 22008KT 5SM RA BR SCT018 OVC029 06/04 A2971 RMK AO2 P0004 T00610044,M
05U,2024-03-30 20:30,-116.0051,39.6042,1811.23,42.80,30.20,60.79,320.00,13.00,0.00,29.67,M,10.00,20.00,FEW,OVC,M,M,3900.00,4800.00,M,M,M,M,M,M,M,M,M,35.40,K05U 302030Z AUTO 32013G20KT 10SM FEW039 OVC048 06/M01 A2967 RMK A01,M
NFL,2024-03-30 20:34,-118.7010,39.4166,1199.00,43.00,38.00,82.37,20.00,11.00,0.00,29.61,M,10.00,M,OVC,M,M,M,1400.00,M,M,M,M,M,M,M,M,M,M,36.37,KNFL 302034Z 02011KT 10SM OVC014 06/03 A2961 RMK AO2 T00610033,M
BVU,2024-03-30 20:35,-114.8611,35.9475,671.00,62.60,32.00,31.56,190.00,27.00,0.00,29.63,M,10.00,34.00,OVC,M,M,M,7000.00,M,M,M,M,M,M,M,M,M,M,62.60,KBVU 302035Z AUTO 19027G34KT 10SM OVC070 17/00 A2963 RMK AO2,M
CXP,2024-03-30 20:35,-119.7326,39.1923,1431.00,41.00,35.60,80.93,50.00,8.00,0.00,29.62,M,10.00,M,BKN,OVC,M,M,1600.00,2100.00,M,M,M,M,M,M,M,M,M,35.20,KCXP 302035Z AUTO 05008KT 10SM BKN016 OVC021 05/02 A2962 RMK AO2,M
RTS,2024-03-30 20:35,-119.8764,39.6682,1539.00,33.80,33.80,100.00,290.00,6.00,0.00,29.63,M,5.00,M,FEW,BKN,BKN,M,500.00,1900.00,2600.00,M,-DZ,M,M,M,M,M,M,27.70,KRTS 302035Z AUTO 29006KT 5SM -DZ FEW005 BKN019 BKN026 01/01 A2963 RMK AO2,M
MEV,2024-03-30 20:35,-119.7500,38.9963,1441.42,33.80,32.00,93.03,240.00,8.00,0.00,29.60,M,1.00,M,BKN,OVC,M,M,600.00,1000.00,M,M,-SN BR,M,M,M,M,M,M,26.33,KMEV 302035Z AUTO 24008KT 1SM -SN BR BKN006 OVC010 01/00 A2960 RMK AO2,M
HTH,2024-03-30 20:35,-118.6315,38.5448,1282.89,41.00,37.40,86.89,330.00,9.00,0.00,29.62,M,10.00,M,FEW,OVC,M,M,1300.00,4300.00,M,M,M,M,M,M,M,M,M,34.70,KHTH 302035Z AUTO 33009KT 10SM FEW013 OVC043 05/03 A2962 RMK A01,M
TMT,2024-03-30 20:35,-117.1971,39.4643,1749.34,39.70,34.00,79.87,270.00,4.00,0.00,29.62,M,10.00,M,BKN,BKN,OVC,M,1700.00,2200.00,2900.00,M,-RA,M,M,M,M,M,M,36.41,KTMT 302035Z AUTO 27004KT 10SM -RA BKN017 BKN022 OVC029 04/01 A2962 RMK AO2 T00430011,M
10U,2024-03-30 20:35,-116.1876,41.9532,1637.00,46.40,32.00,57.00,80.00,11.00,0.00,29.68,M,10.00,17.00,BKN,BKN,M,M,6000.00,7500.00,M,M,M,M,M,M,M,M,M,40.66,K10U 302035Z AUTO 08011G17KT 10SM BKN060 BKN075 08/00 A2968 RMK AO2,M
BAM,2024-03-30 20:35,-116.8743,40.5990,1382.36,50.00,35.60,57.52,110.00,13.00,0.00,29.64,M,10.00,M,SCT,BKN,OVC,M,3000.00,7000.00,9000.00,M,M,M,M,M,M,M,M,50.00,KBAM 302035Z AUTO 11013KT 10SM SCT030 BKN070 OVC090 10/02 A2964 RMK AO1,M
ELY,2024-03-30 20:37,-114.8453,39.2950,1909.00,38.00,36.00,92.42,170.00,9.00,0.02,29.68,M,10.00,M,SCT,BKN,OVC,M,900.00,3000.00,3900.00,M,-RA,M,M,M,M,M,M,30.97,KELY 302037Z AUTO 17009KT 10SM -RA SCT009 BKN030 OVC039 03/02 A2968 RMK AO2 RAB1954SNE05 P0002 T00330022,M
LSV,2024-03-30 20:37,-115.0343,36.2362,570.00,59.00,42.80,54.86,290.00,13.00,0.00,29.61,1001.60,10.00,M,FEW,M,M,M,6500.00,M,M,M,-RA,M,M,M,M,M,M,59.00,KLSV 302037Z AUTO 29013KT 10SM -RA FEW065 15/06 A2961 RMK AO2 RAB37 SLP016 $,M
LSV,2024-03-30 20:43,-115.0343,36.2362,570.00,59.00,44.60,58.77,290.00,12.00,0.00,29.62,1001.90,10.00,M,FEW,M,M,M,6500.00,M,M,M,M,M,M,M,M,M,M,59.00,KLSV 302043Z AUTO 29012KT 10SM FEW065 15/07 A2962 RMK AO2 RAB37E43 SLP019 $,M
TPH,2024-03-30 20:44,-117.0904,38.0505,1654.00,37.00,35.00,92.39,190.00,12.00,0.01,29.65,M,10.00,M,BKN,OVC,M,M,800.00,1300.00,M,M,M,M,M,M,M,M,M,28.37,KTPH 302044Z AUTO 19012KT 10SM BKN008 OVC013 03/02 A2965 RMK AO2 UPB17E33SNE17 P0001 T00280017,M
LSV,2024-03-30 20:49,-115.0343,36.2362,570.00,57.20,44.60,62.69,280.00,14.00,0.00,29.62,1002.00,10.00,M,CLR,M,M,M,M,M,M,M,-RA,M,M,M,M,M,M,57.20,KLSV 302049Z AUTO 28014KT 10SM -RA CLR 14/07 A2962 RMK AO2 RAB37E43RAB49 SLP020 $,M
INS,2024-03-30 20:50,-115.6733,36.5872,955.00,46.40,41.00,81.34,260.00,8.00,0.00,29.70,1003.70,5.00,M,BKN,BKN,OVC,M,400.00,2500.00,3700.00,M,RA,M,M,M,M,M,M,41.85,KINS 302050Z AUTO 26008KT 5SM RA BKN004 BKN025 OVC037 08/05 A2970 RMK AO2 BKN004 V SCT SLP037 $,M
05U,2024-03-30 20:50,-116.0051,39.6042,1811.23,44.60,32.00,61.03,290.00,13.00,0.00,29.65,M,10.00,M,SCT,BKN,OVC,M,2600.00,4900.00,7000.00,M,M,M,M,M,M,M,M,37.71,K05U 302050Z AUTO 29013KT 10SM SCT026 BKN049 OVC070 07/M00 A2965 RMK A01,M
TPH,2024-03-30 20:51,-117.0904,38.0505,1654.00,37.40,35.60,93.14,190.00,11.00,0.01,29.66,M,10.00,M,SCT,BKN,OVC,M,800.00,1300.00,1900.00,M,M,M,M,M,M,M,M,29.29,KTPH 302051Z AUTO 19011KT 10SM SCT008 BKN013 OVC019 03/02 A2966 RMK AO2 UPB17E33SNE17 P0001,M
P68,2024-03-30 20:53,-116.0056,39.6014,1993.00,43.00,31.00,62.31,130.00,13.00,0.00,29.62,1000.30,M,18.00,M,M,M,M,M,M,M,M,M,M,M,M,M,M,M,35.66,KP68 302053Z AUTO 13013G18KT 06/M01 A2962 RMK AO1 SLP003 T00611006 58012,M
DRA,2024-03-30 20:53,-116.0278,36.6206,1009.00,42.00,40.00,92.55,220.00,12.00,0.10,29.72,1004.80,5.00,19.00,FEW,BKN,OVC,M,700.00,1800.00,2600.00,M,RA BR,M,M,M,M,M,M,34.73,KDRA 302053Z AUTO 22012G19KT 5SM RA BR FEW007 BKN018 OVC026 06/04 A2972 RMK AO2 SLP048 P0010 60030 T00560044 53007,M
ELY,2024-03-30 20:53,-114.8453,39.2950,1909.00,39.00,35.00,85.42,170.00,12.00,0.02,29.67,1002.70,10.00,M,SCT,BKN,OVC,M,1200.00,4100.00,6000.00,M,M,M,M,M,M,M,M,30.91,KELY 302053Z AUTO 17012KT 10SM SCT012 BKN041 OVC060 04/02 A2967 RMK AO2 RAB1954E41SNE05 SLP027 P0002 60004 T00390017 58014,M
VGT,2024-03-30 20:53,-115.1933,36.2111,667.00,55.00,46.00,71.60,260.00,7.00,0.07,29.66,1005.20,10.00,M,FEW,OVC,M,M,3600.00,5000.00,M,M,-RA,M,M,M,M,M,M,55.00,KVGT 302053Z 26007KT 10SM -RA FEW036 OVC050 13/08 A2966 RMK AO2 SLP052 P0007 60010 T01280078 55011,M
LOL,2024-03-30 20:53,-118.5701,40.0684,1192.43,41.00,37.00,85.54,340.00,5.00,0.02,29.63,1003.50,6.00,M,OVC,M,M,M,3200.00,M,M,M,-RA BR,M,M,M,M,M,M,37.08,KLOL 302053Z AUTO 34005KT 6SM -RA BR OVC032 05/03 A2963 RMK AO2 PRESFR SLP035 P0002 60010 T00500028 58013,M
BVU,2024-03-30 20:55,-114.8611,35.9475,671.00,62.60,33.80,33.93,210.00,25.00,0.00,29.63,M,10.00,33.00,OVC,M,M,M,6500.00,M,M,M,M,M,M,M,M,M,M,62.60,KBVU 302055Z AUTO 21025G33KT 10SM OVC065 17/01 A2963 RMK AO2,M
CXP,2024-03-30 20:55,-119.7326,39.1923,1431.00,41.00,33.80,75.33,40.00,9.00,0.00,29.61,M,10.00,M,BKN,BKN,OVC,M,2000.00,2400.00,3100.00,M,-RA,M,M,M,M,M,M,34.70,KCXP 302055Z AUTO 04009KT 10SM -RA BKN020 BKN024 OVC031 05/01 A2961 RMK AO2,M
RNO,2024-03-30 20:55,-119.7711,39.4839,1341.00,44.00,36.00,73.27,310.00,6.00,T,29.60,1001.80,10.00,M,BKN,BKN,OVC,M,1800.00,2600.00,4300.00,M,M,M,M,M,M,M,M,39.98,KRNO 302055Z 31006KT 10SM BKN018 BKN026 OVC043 07/02 A2960 RMK AO2 RAB1956E12 SLP018 P0000 60003 T00670022 58013 $,M
LSV,2024-03-30 20:55,-115.0343,36.2362,570.00,56.30,46.00,68.30,270.00,13.00,0.01,29.63,1002.40,8.00,M,CLR,M,M,M,M,M,M,M,-RA,M,M,M,M,M,M,56.30,KLSV 302055Z AUTO 27013KT 8SM -RA CLR 14/08 A2963 RMK AO2 RAB37E43RAB49 SLP024 P0001 60001 T01350077 55015 $,M
RTS,2024-03-30 20:55,-119.8764,39.6682,1539.00,33.80,33.80,100.00,270.00,6.00,0.06,29.63,M,4.00,M,FEW,BKN,BKN,M,300.00,1700.00,2500.00,M,-SN,M,M,M,M,M,M,27.70,KRTS 302055Z AUTO 27006KT 4SM -SN FEW003 BKN017 BKN025 01/01 A2963 RMK AO2 P0006,M
MEV,2024-03-30 20:55,-119.7500,38.9963,1441.42,32.00,32.00,100.00,200.00,8.00,0.12,29.60,M,1.00,M,BKN,OVC,M,M,400.00,900.00,M,M,-SN BR,M,M,M,M,M,M,24.11,KMEV 302055Z AUTO 20008KT 1SM -SN BR BKN004 OVC009 00/M00 A2960 RMK AO2 P0012,M
HTH,2024-03-30 20:55,-118.6315,38.5448,1282.89,42.80,37.40,81.07,330.00,10.00,0.00,29.60,M,10.00,M,FEW,BKN,OVC,M,1300.00,4100.00,5500.00,M,M,M,M,M,M,M,M,36.51,KHTH 302055Z AUTO 33010KT 10SM FEW013 BKN041 OVC055 06/03 A2960 RMK A01,M
TMT,2024-03-30 20:55,-117.1971,39.4643,1749.34,40.30,34.00,78.03,260.00,5.00,0.00,29.61,M,10.00,M,SCT,BKN,OVC,M,1700.00,3200.00,4100.00,M,M,M,M,M,M,M,M,36.25,KTMT 302055Z AUTO 26005KT 10SM SCT017 BKN032 OVC041 05/01 A2961 RMK AO2 T00460011,M
10U,2024-03-30 20:55,-116.1876,41.9532,1637.00,46.40,33.80,61.28,70.00,10.00,0.00,29.67,M,10.00,15.00,BKN,M,M,M,6000.00,M,M,M,M,M,M,M,M,M,M,41.03,K10U 302055Z AUTO 07010G15KT 10SM BKN060 08/01 A2967 RMK AO2,M
BAM,2024-03-30 20:55,-116.8743,40.5990,1382.36,50.00,35.60,57.52,100.00,12.00,0.00,29.64,M,10.00,M,SCT,SCT,BKN,M,3200.00,5000.00,7000.00,M,M,M,M,M,M,M,M,50.00,KBAM 302055Z AUTO 10012KT 080V140 10SM SCT032 SCT050 BKN070 10/02 A2964 RMK AO1,M
INS,2024-03-30 20:55,-115.6733,36.5872,955.00,46.20,41.00,81.96,260.00,9.00,0.12,29.70,1003.70,5.00,M,BKN,BKN,BKN,OVC,400.00,2300.00,3000.00,3700.00,RA,M,M,M,M,M,M,41.17,KINS 302055Z AUTO 26009KT 5SM RA BKN004 BKN023 BKN030 OVC037 08/05 A2970 RMK AO2 BKN004 V SCT SLP037 P0012 60014 T00790050 53006 $,M
EKO,2024-03-30 20:56,-115.7860,40.8242,1367.00,48.00,35.00,60.52,330.00,3.00,T,29.64,1002.80,10.00,M,BKN,M,M,M,7000.00,M,M,M,M,M,M,M,M,M,M,46.98,KEKO 302056Z AUTO 33003KT 10SM BKN070 09/02 A2964 RMK AO2 RAE06 SLP028 P0000 60000 T00890017 58011,M
WMC,2024-03-30 20:56,-117.8072,40.9019,1315.00,51.00,34.00,52.00,20.00,10.00,0.00,29.61,1002.00,10.00,M,BKN,M,M,M,7000.00,M,M,M,M,M,M,M,M,M,M,51.00,KWMC 302056Z AUTO 02010KT 10SM BKN070 11/01 A2961 RMK AO2 SLP020 T01060011 56015,M
LSV,2024-03-30 20:56,-115.0343,36.2362,570.00,55.40,46.40,71.64,270.00,12.00,0.00,29.63,1002.40,8.00,M,CLR,M,M,M,M,M,M,M,M,M,M,M,M,M,M,55.40,KLSV 302056Z AUTO 27012KT 8SM CLR 13/08 A2963 RMK AO2 RAE55 SLP024 $,M
NFL,2024-03-30 20:56,-118.7010,39.4166,1199.00,43.00,37.00,79.19,10.00,13.00,0.00,29.57,1000.00,10.00,M,OVC,M,M,M,1400.00,M,M,M,M,M,M,M,M,M,M,35.66,KNFL 302056Z 01013KT 10SM OVC014 06/03 A2957 RMK AO2 PRESFR SLP000 T00610028 58021,M
HND,2024-03-30 20:56,-115.1344,35.9729,742.79,53.00,47.00,80.00,240.00,17.00,0.01,29.68,1006.00,10.00,25.00,BKN,BKN,M,M,2500.00,4500.00,M,M,-RA,M,M,M,29.00,180.00,2024-03-30 20:01,53.00,KHND 302056Z 24017G25KT 10SM -RA BKN025 BKN045 12/08 A2968 RMK AO2 PK WND 18029/2001 RAB08 SLP060 P0001 60003 T01170083 55005,M
TPH,2024-03-30 20:56,-117.0904,38.0505,1654.00,38.00,35.00,88.83,180.00,8.00,0.01,29.65,1002.90,10.00,M,SCT,BKN,OVC,M,800.00,1300.00,1800.00,M,-RA,M,M,M,M,M,M,31.50,KTPH 302056Z AUTO 18008KT 10SM -RA SCT008 BKN013 OVC018 03/02 A2965 RMK AO2 UPB17E33RAB56SNE17 SLP029 P0001 60009 T00330017 56003,M
LAS,2024-03-30 20:56,-115.1634,36.0719,663.00,54.00,43.00,66.24,250.00,15.00,T,29.66,1003.60,8.00,22.00,FEW,BKN,OVC,M,3900.00,4900.00,6000.00,M,-RA,M,M,M,30.00,220.00,2024-03-30 20:34,54.00,KLAS 302056Z 25015G22KT 8SM -RA FEW039 BKN049 OVC060 12/06 A2966 RMK AO2 PK WND 22030/2034 RAB07 SLP036 P0000 60000 T01220061 55005,M
LSV,2024-03-30 20:57,-115.0343,36.2362,570.00,55.40,46.40,71.64,270.00,11.00,0.00,29.63,1002.40,8.00,M,CLR,M,M,M,M,M,M,M,-RA,M,M,M,M,M,M,55.40,KLSV 302057Z AUTO 27011KT 8SM -RA CLR 13/08 A2963 RMK AO2 RAE55RAB57 SLP024 $,M
LSV,2024-03-30 21:03,-115.0343,36.2362,570.00,55.40,46.40,71.64,240.00,11.00,0.00,29.63,1002.40,9.00,16.00,CLR,M,M,M,M,M,M,M,M,M,M,M,M,M,M,55.40,KLSV 302103Z AUTO 24011G16KT 9SM CLR 13/08 A2963 RMK AO2 RAE2055RAB2057E03 SLP024 $,M
HND,2024-03-30 21:03,-115.1344,35.9729,742.79,53.60,44.60,71.45,240.00,15.00,T,29.68,M,10.00,21.00,OVC,M,M,M,4500.00,M,M,M,-RA,M,M,M,M,M,M,53.60,KHND 302103Z 24015G21KT 10SM -RA OVC045 12/07 A2968 RMK AO2 P0000,M
05U,2024-03-30 21:10,-116.0051,39.6042,1811.23,44.60,32.00,61.03,280.00,14.00,0.00,29.65,M,10.00,20.00,SCT,SCT,BKN,M,2500.00,3200.00,8500.00,M,M,M,M,M,M,M,M,37.40,K05U 302110Z AUTO 28014G20KT 10SM SCT025 SCT032 BKN085 07/00 A2965 RMK A01,M
TPH,2024-03-30 21:11,-117.0904,38.0505,1654.00,38.00,35.00,88.83,170.00,10.00,T,29.67,M,10.00,M,SCT,BKN,OVC,M,1200.00,1800.00,4800.00,M,M,M,M,M,M,M,M,30.49,KTPH 302111Z AUTO 17010KT 10SM SCT012 BKN018 OVC048 03/02 A2967 RMK AO2 RAE05 P0000 T00330017,M
LSV,2024-03-30 21:13,-115.0343,36.2362,570.00,57.20,46.40,67.12,260.00,16.00,0.00,29.63,1002.40,10.00,M,CLR,M,M,M,M,M,M,M,M,M,M,M,M,M,M,57.20,KLSV 302113Z AUTO 26016KT 10SM CLR 14/08 A2963 RMK AO2 WSHFT 06 RAE2055RAB2057E03 SLP024 $,M
BVU,2024-03-30 21:15,-114.8611,35.9475,671.00,60.80,35.60,38.85,200.00,27.00,0.00,29.64,M,10.00,32.00,OVC,M,M,M,6000.00,M,M,M,M,M,M,M,M,M,M,60.80,KBVU 302115Z AUTO 20027G32KT 10SM OVC060 16/02 A2964 RMK AO2,M
CXP,2024-03-30 21:15,-119.7326,39.1923,1431.00,41.00,35.60,80.93,40.00,8.00,0.00,29.62,M,10.00,M,SCT,BKN,OVC,M,1800.00,2200.00,4900.00,M,M,M,M,M,M,M,M,35.20,KCXP 302115Z AUTO 04008KT 10SM SCT018 BKN022 OVC049 05/02 A2962 RMK AO2 LTG DSNT S,M
INS,2024-03-30 21:15,-115.6733,36.5872,955.00,46.40,41.00,81.34,290.00,11.00,0.00,29.70,1003.70,10.00,M,SCT,BKN,OVC,M,400.00,2600.00,3800.00,M,-RA,M,M,M,M,M,M,40.66,KINS 302115Z AUTO 29011KT 10SM -RA SCT004 BKN026 OVC038 08/05 A2970 RMK AO2 BKN V OVC SLP037 $,M
RTS,2024-03-30 21:15,-119.8764,39.6682,1539.00,33.80,33.80,100.00,260.00,6.00,0.00,29.63,M,2.00,M,FEW,SCT,M,M,300.00,1900.00,M,M,-SN,M,M,M,M,M,M,27.70,KRTS 302115Z AUTO 26006KT 2SM -SN FEW003 SCT019 01/01 A2963 RMK AO2,M
MEV,2024-03-30 21:15,-119.7500,38.9963,1441.42,33.80,33.80,100.00,260.00,6.00,0.00,29.60,M,7.00,M,FEW,SCT,BKN,M,900.00,1400.00,5000.00,M,UP,M,M,M,M,M,M,27.70,KMEV 302115Z AUTO 26006KT 7SM UP FEW009 SCT014 BKN050 01/01 A2960 RMK AO2 LTG DSNT S,M
HTH,2024-03-30 21:15,-118.6315,38.5448,1282.89,42.80,35.60,75.50,340.00,10.00,0.00,29.60,M,10.00,M,BKN,OVC,M,M,4200.00,5000.00,M,M,M,M,M,M,M,M,M,36.51,KHTH 302115Z AUTO 34010KT 10SM BKN042 OVC050 06/02 A2960 RMK A01,M
TMT,2024-03-30 21:15,-117.1971,39.4643,1749.34,41.00,34.30,76.85,290.00,4.00,0.00,29.61,M,10.00,M,BKN,BKN,OVC,M,2100.00,2600.00,3900.00,M,M,M,M,M,M,M,M,37.93,KTMT 302115Z AUTO 29004KT 10SM BKN021 BKN026 OVC039 05/01 A2961 RMK AO2 T00510013,M
10U,2024-03-30 21:15,-116.1876,41.9532,1637.00,48.20,33.80,57.26,70.00,12.00,0.00,29.67,M,10.00,M,OVC,M,M,M,5500.00,M,M,M,M,M,M,M,M,M,M,42.62,K10U 302115Z AUTO 07012KT 10SM OVC055 09/01 A2967 RMK AO2,M
BAM,2024-03-30 21:15,-116.8743,40.5990,1382.36,50.00,35.60,57.52,80.00,8.00,0.00,29.64,M,10.00,M,SCT,BKN,OVC,M,3200.00,5000.00,5500.00,M,M,M,M,M,M,M,M,50.00,KBAM 302115Z AUTO 08008KT 10SM SCT032 BKN050 OVC055 10/02 A2964 RMK AO1,M
LSV,2024-03-30 21:16,-115.0343,36.2362,570.00,57.20,44.60,62.69,260.00,15.00,0.00,29.63,1002.40,10.00,21.00,CLR,M,M,M,M,M,M,M,-RA,M,M,M,M,M,M,57.20,KLSV 302116Z AUTO 26015G21KT 10SM -RA CLR 14/07 A2963 RMK AO2 RAE2055RAB2057E03RAB16 SLP024 $,M
TPH,2024-03-30 21:24,-117.0904,38.0505,1654.00,38.00,35.00,88.83,130.00,8.00,T,29.66,M,10.00,M,FEW,BKN,OVC,M,1200.00,4300.00,5000.00,M,UP,M,M,M,M,M,M,31.50,KTPH 302124Z AUTO 13008KT 10SM UP FEW012 BKN043 OVC050 03/02 A2966 RMK AO2 RAE05UPB20 P0000 T00330017,M
05U,2024-03-30 21:30,-116.0051,39.6042,1811.23,42.80,32.00,65.38,280.00,12.00,0.00,29.64,M,9.00,M,FEW,FEW,SCT,M,2600.00,3000.00,8500.00,M,M,M,M,M,M,M,M,35.75,K05U 302130Z AUTO 28012KT 9SM FEW026 FEW030 SCT085 06/00 A2964 RMK A01,M
BVU,2024-03-30 21:35,-114.8611,35.9475,671.00,57.20,42.80,58.52,240.00,18.00,0.00,29.66,M,10.00,27.00,BKN,OVC,M,M,4800.00,6000.00,M,M,M,M,M,M,M,M,M,57.20,KBVU 302135Z AUTO 24018G27KT 10SM BKN048 OVC060 14/06 A2966 RMK AO2,M
CXP,2024-03-30 21:35,-119.7326,39.1923,1431.00,41.00,35.60,80.93,30.00,9.00,0.00,29.62,M,9.00,M,SCT,BKN,OVC,M,1800.00,3700.00,5500.00,M,-RA,M,M,M,M,M,M,34.70,KCXP 302135Z AUTO 03009KT 9SM -RA SCT018 BKN037 OVC055 05/02 A2962 RMK AO2,M
RTS,2024-03-30 21:35,-119.8764,39.6682,1539.00,33.80,33.80,100.00,260.00,6.00,0.00,29.63,M,3.00,M,SCT,SCT,SCT,M,1400.00,2000.00,2400.00,M,+UP,M,M,M,M,M,M,27.70,KRTS 302135Z AUTO 26006KT 3SM +UP SCT014 SCT020 SCT024 01/01 A2963 RMK AO2,M
MEV,2024-03-30 21:35,-119.7500,38.9963,1441.42,35.60,35.60,100.00,310.00,9.00,0.00,29.61,M,10.00,M,SCT,BKN,OVC,M,3300.00,4100.00,5000.00,M,UP,M,M,M,M,M,M,27.99,KMEV 302135Z AUTO 31009KT 10SM UP SCT033 BKN041 OVC050 02/02 A2961 RMK AO2,M
HTH,2024-03-30 21:35,-118.6315,38.5448,1282.89,42.80,35.60,75.50,350.00,9.00,0.00,29.61,M,10.00,M,BKN,OVC,M,M,4300.00,5000.00,M,M,M,M,M,M,M,M,M,36.94,KHTH 302135Z AUTO 35009KT 10SM BKN043 OVC050 06/02 A2961 RMK A01,M
TMT,2024-03-30 21:35,-117.1971,39.4643,1749.34,41.00,34.00,75.94,270.00,4.00,0.00,29.61,M,10.00,M,BKN,OVC,M,M,2100.00,3400.00,M,M,M,M,M,M,M,M,M,37.93,KTMT 302135Z AUTO 27004KT 10SM BKN021 OVC034 05/01 A2961 RMK AO2 T00500011,M
10U,2024-03-30 21:35,-116.1876,41.9532,1637.00,46.40,33.80,61.28,50.00,15.00,0.00,29.66,M,10.00,M,BKN,BKN,M,M,5000.00,6000.00,M,M,M,M,M,M,M,M,M,39.45,K10U 302135Z AUTO 05015KT 10SM BKN050 BKN060 08/01 A2966 RMK AO2,M
BAM,2024-03-30 21:35,-116.8743,40.5990,1382.36,50.00,35.60,57.52,90.00,5.00,0.00,29.62,M,10.00,M,SCT,BKN,OVC,M,3400.00,4400.00,5000.00,M,M,M,M,M,M,M,M,50.00,KBAM 302135Z AUTO 09005KT 10SM SCT034 BKN044 OVC050 10/02 A2962 RMK AO1,M
ELY,2024-03-30 21:37,-114.8453,39.2950,1909.00,38.00,35.00,88.83,190.00,13.00,T,29.66,M,10.00,24.00,BKN,OVC,M,M,2900.00,4000.00,M,M,-RA,M,M,M,26.00,180.00,2024-03-30 21:25,29.26,KELY 302137Z AUTO 19013G24KT 10SM -RA BKN029 OVC040 03/02 A2966 RMK AO2 PK WND 18026/2125 RAB08 P0000 T00330017,M
ELY,2024-03-30 21:45,-114.8453,39.2950,1909.00,41.00,38.00,88.97,180.00,17.00,T,29.65,M,10.00,24.00,FEW,OVC,M,M,1200.00,3700.00,M,M,-RA,M,M,M,26.00,180.00,2024-03-30 21:25,31.87,KELY 302145Z AUTO 18017G24KT 10SM -RA FEW012 OVC037 05/03 A2965 RMK AO2 PK WND 18026/2125 RAB08 P0000 T00500033,M
LSV,2024-03-30 21:46,-115.0343,36.2362,570.00,55.40,42.80,62.46,230.00,15.00,0.00,29.64,1002.70,10.00,M,BKN,M,M,M,3900.00,M,M,M,-RA,M,M,M,M,M,M,55.40,KLSV 302146Z AUTO 23015KT 10SM -RA BKN039 13/06 A2964 RMK AO2 RAE2055RAB2057E03RAB16 SLP027 $,M
LSV,2024-03-30 21:50,-115.0343,36.2362,570.00,53.60,42.80,66.70,230.00,13.00,0.00,29.64,1002.80,10.00,M,BKN,M,M,M,3900.00,M,M,M,M,M,M,M,M,M,M,53.60,KLSV 302150Z AUTO 23013KT 10SM BKN039 12/06 A2964 RMK AO2 RAE2055RAB2057E03RAB16E50 SLP028 $,M
05U,2024-03-30 21:50,-116.0051,39.6042,1811.23,44.60,33.80,65.61,300.00,12.00,0.00,29.63,M,9.00,M,FEW,SCT,SCT,M,2200.00,2800.00,4200.00,M,M,M,M,M,M,M,M,38.04,K05U 302150Z AUTO 30012KT 9SM FEW022 SCT028 SCT042 07/01 A2963 RMK A01,M
P68,2024-03-30 21:53,-116.0056,39.6014,1993.00,42.00,32.00,67.42,120.00,14.00,0.00,29.61,999.90,M,19.00,M,M,M,M,M,M,M,M,M,M,M,M,M,M,M,34.05,KP68 302153Z AUTO 12014G19KT 06/00 A2961 RMK AO1 SLP999 T00560000,M
DRA,2024-03-30 21:53,-116.0278,36.6206,1009.00,41.00,38.00,88.97,M,3.00,0.14,29.73,1005.40,5.00,M,BKN,OVC,M,M,1500.00,2100.00,M,M,RA BR,M,M,M,M,M,M,38.98,KDRA 302153Z AUTO VRB03KT 5SM RA BR BKN015 OVC021 05/03 A2973 RMK AO2 SLP054 P0014 T00500033,M
ELY,2024-03-30 21:53,-114.8453,39.2950,1909.00,40.00,36.00,85.48,180.00,18.00,T,29.66,1002.10,10.00,26.00,FEW,BKN,OVC,M,1400.00,3000.00,4000.00,M,-RA,M,M,M,26.00,180.00,2024-03-30 21:25,30.28,KELY 302153Z AUTO 18018G26KT 10SM -RA FEW014 BKN030 OVC040 04/02 A2966 RMK AO2 PK WND 18026/2125 RAB08 SLP021 P0000 T00440022,M
VGT,2024-03-30 21:53,-115.1933,36.2111,667.00,54.00,42.00,63.74,240.00,8.00,0.01,29.66,1005.30,10.00,M,OVC,M,M,M,7000.00,M,M,M,M,M,M,M,M,M,M,54.00,KVGT 302153Z 24008KT 10SM OVC070 12/06 A2966 RMK AO2 RAE43 SLP053 P0001 T01220056,M
LOL,2024-03-30 21:53,-118.5701,40.0684,1192.43,44.00,39.00,82.44,40.00,9.00,0.02,29.61,1002.70,10.00,M,FEW,SCT,OVC,M,4000.00,4900.00,7000.00,M,M,M,M,M,M,M,M,38.44,KLOL 302153Z AUTO 04009KT 10SM FEW040 SCT049 OVC070 07/04 A2961 RMK AO2 RAE37 SLP027 P0002 T00670039,M
BVU,2024-03-30 21:55,-114.8611,35.9475,671.00,55.40,41.00,58.27,240.00,17.00,0.00,29.67,M,10.00,23.00,BKN,BKN,M,M,5000.00,6000.00,M,M,M,M,M,M,M,M,M,55.40,KBVU 302155Z AUTO 24017G23KT 10SM BKN050 BKN060 13/05 A2967 RMK AO2,M
CXP,2024-03-30 21:55,-119.7326,39.1923,1431.00,41.00,35.60,80.93,50.00,10.00,0.00,29.62,M,10.00,15.00,FEW,SCT,OVC,M,1600.00,3600.00,5000.00,M,M,M,M,M,M,M,M,34.25,KCXP 302155Z AUTO 05010G15KT 10SM FEW016 SCT036 OVC050 05/02 A2962 RMK AO2,M
RNO,2024-03-30 21:55,-119.7711,39.4839,1341.00,45.00,36.00,70.53,10.00,12.00,T,29.61,1002.00,10.00,17.00,BKN,BKN,OVC,M,2000.00,2400.00,4800.00,M,-RA,M,M,M,M,M,M,38.55,KRNO 302155Z 01012G17KT 320V050 10SM -RA BKN020 BKN024 OVC048 07/02 A2961 RMK AO2 RAB35 SLP020 P0000 T00720022 $,M
LSV,2024-03-30 21:55,-115.0343,36.2362,570.00,54.30,43.00,65.52,230.00,12.00,0.02,29.64,1002.80,10.00,M,BKN,M,M,M,3900.00,M,M,M,M,M,M,M,M,M,M,54.30,KLSV 302155Z AUTO 23012KT 10SM BKN039 12/06 A2964 RMK AO2 RAE2055RAB2057E03RAB16E50 SLP028 P0002 T01240062 $,M
RTS,2024-03-30 21:55,-119.8764,39.6682,1539.00,33.80,33.80,100.00,260.00,5.00,0.07,29.63,M,5.00,M,BKN,BKN,M,M,1300.00,2700.00,M,M,-DZ,M,M,M,M,M,M,28.53,KRTS 302155Z AUTO 26005KT 5SM -DZ BKN013 BKN027 01/01 A2963 RMK AO2 P0007,M
MEV,2024-03-30 21:55,-119.7500,38.9963,1441.42,35.60,33.80,93.08,270.00,5.00,0.04,29.61,M,4.00,M,FEW,SCT,BKN,M,1400.00,2100.00,3400.00,M,UP BR,M,M,M,M,M,M,30.67,KMEV 302155Z AUTO 27005KT 4SM UP BR FEW014 SCT021 BKN034 02/01 A2961 RMK AO2 P0004,M
HTH,2024-03-30 21:55,-118.6315,38.5448,1282.89,42.80,35.60,75.50,360.00,11.00,0.00,29.60,M,10.00,M,BKN,BKN,OVC,M,4200.00,4800.00,5500.00,M,M,M,M,M,M,M,M,36.11,KHTH 302155Z AUTO 36011KT 10SM BKN042 BKN048 OVC055 06/02 A2960 RMK A01,M
TMT,2024-03-30 21:55,-117.1971,39.4643,1749.34,40.60,34.30,78.05,250.00,6.00,0.00,29.61,M,10.00,M,BKN,BKN,OVC,M,2000.00,2900.00,3700.00,M,M,M,M,M,M,M,M,35.89,KTMT 302155Z AUTO 25006KT 10SM BKN020 BKN029 OVC037 05/01 A2961 RMK AO2 T00480013,M
10U,2024-03-30 21:55,-116.1876,41.9532,1637.00,46.40,33.80,61.28,80.00,10.00,0.00,29.66,M,10.00,15.00,BKN,BKN,M,M,5000.00,5500.00,M,M,M,M,M,M,M,M,M,41.03,K10U 302155Z AUTO 08010G15KT 10SM BKN050 BKN055 08/01 A2966 RMK AO2,M
BAM,2024-03-30 21:55,-116.8743,40.5990,1382.36,51.80,35.60,53.81,60.00,7.00,0.00,29.61,M,10.00,M,BKN,BKN,OVC,M,3400.00,4400.00,4900.00,M,M,M,M,M,M,M,M,51.80,KBAM 302155Z AUTO 06007KT 10SM BKN034 BKN044 OVC049 11/02 A2961 RMK AO1,M
INS,2024-03-30 21:55,-115.6733,36.5872,955.00,45.30,38.50,76.94,290.00,17.00,0.07,29.70,1003.90,10.00,M,FEW,SCT,M,M,400.00,1900.00,M,M,-RA,M,M,M,M,M,M,37.50,KINS 302155Z AUTO 29017KT 10SM -RA FEW004 SCT019 07/04 A2970 RMK AO2 SLP039 P0007 T00740036 $,M
EKO,2024-03-30 21:56,-115.7860,40.8242,1367.00,49.00,34.00,56.02,0.00,0.00,0.00,29.62,1002.20,10.00,M,OVC,M,M,M,6500.00,M,M,M,M,M,M,M,M,M,M,49.00,KEKO 302156Z AUTO 00000KT 10SM OVC065 09/01 A2962 RMK AO2 SLP022 T00940011,M
WMC,2024-03-30 21:56,-117.8072,40.9019,1315.00,53.00,33.00,46.41,50.00,13.00,0.00,29.58,1000.80,10.00,M,BKN,BKN,M,M,7000.00,8500.00,M,M,M,M,M,M,M,M,M,53.00,KWMC 302156Z AUTO 05013KT 10SM BKN070 BKN085 12/01 A2958 RMK AO2 SLP008 T01170006,M
NFL,2024-03-30 21:56,-118.7010,39.4166,1199.00,44.00,37.00,76.22,350.00,9.00,0.00,29.59,1000.70,10.00,M,OVC,M,M,M,1400.00,M,M,M,M,M,M,M,M,M,M,38.44,KNFL 302156Z 35009KT 10SM OVC014 07/03 A2959 RMK AO2 SLP007 T00670028,M
HND,2024-03-30 21:56,-115.1344,35.9729,742.79,50.00,40.00,68.37,210.00,13.00,0.01,29.71,1007.30,10.00,M,FEW,OVC,M,M,2000.00,6000.00,M,M,-RA,M,M,M,M,M,M,50.00,KHND 302156Z 21013KT 10SM -RA FEW020 OVC060 10/04 A2971 RMK AO2 SLP073 P0001 T01000044,M
TPH,2024-03-30 21:56,-117.0904,38.0505,1654.00,38.00,34.00,85.35,110.00,9.00,T,29.63,1002.50,10.00,M,FEW,BKN,OVC,M,1100.00,5500.00,7000.00,M,M,M,M,M,M,M,M,30.97,KTPH 302156Z AUTO 11009KT 10SM FEW011 BKN055 OVC070 03/01 A2963 RMK AO2 RAE05B29E30UPB20E29 SLP025 P0000 T00330011,M
LAS,2024-03-30 21:56,-115.1634,36.0719,663.00,50.00,37.00,60.79,230.00,15.00,T,29.67,1004.10,10.00,23.00,FEW,OVC,M,M,4500.00,6500.00,M,M,M,M,M,M,27.00,260.00,2024-03-30 21:25,50.00,KLAS 302156Z 23015G23KT 10SM FEW045 OVC065 10/03 A2967 RMK AO2 PK WND 26027/2125 RAE44 SLP041 P0000 T01000028,M
LSV,2024-03-30 21:56,-115.0343,36.2362,570.00,53.60,42.80,66.70,230.00,13.00,0.00,29.64,1002.80,10.00,M,BKN,M,M,M,3900.00,M,M,M,-RA,M,M,M,M,M,M,53.60,KLSV 302156Z AUTO 23013KT 10SM -RA BKN039 12/06 A2964 RMK AO2 RAB54 SLP028 $,M
DRA,2024-03-30 21:58,-116.0278,36.6206,1009.00,41.00,38.00,88.97,220.00,7.00,0.02,29.73,M,4.00,M,BKN,OVC,M,M,1300.00,2100.00,M,M,RA BR,M,M,M,M,M,M,35.75,KDRA 302158Z AUTO 22007KT 4SM RA BR BKN013 OVC021 05/03 A2973 RMK AO2 P0002 T00500033,M
NFL,2024-03-30 22:03,-118.7010,39.4166,1199.00,44.00,37.00,76.22,350.00,6.00,0.00,29.61,M,10.00,M,FEW,OVC,M,M,1600.00,2300.00,M,M,M,M,M,M,M,M,M,39.98,KNFL 302203Z 35006KT 10SM FEW016 OVC023 07/03 A2961 RMK AO2 T00670028,M
LSV,2024-03-30 22:06,-115.0343,36.2362,570.00,53.60,42.80,66.70,230.00,10.00,0.00,29.63,1002.50,10.00,M,SCT,M,M,M,4000.00,M,M,M,-RA,M,M,M,M,M,M,53.60,KLSV 302206Z AUTO 23010KT 10SM -RA SCT040 12/06 A2963 RMK AO2 RAB2154 SLP025 $,M
05U,2024-03-30 22:10,-116.0051,39.6042,1811.23,42.80,32.00,65.38,280.00,11.00,0.00,29.63,M,10.00,M,FEW,BKN,OVC,M,2300.00,2900.00,9000.00,M,M,M,M,M,M,M,M,36.11,K05U 302210Z AUTO 28011KT 10SM FEW023 BKN029 OVC090 06/00 A2963 RMK A01,M
LSV,2024-03-30 22:11,-115.0343,36.2362,570.00,55.40,42.80,62.46,210.00,11.00,0.00,29.63,1002.40,10.00,M,FEW,M,M,M,4000.00,M,M,M,M,M,M,M,M,M,M,55.40,KLSV 302211Z AUTO 21011KT 10SM FEW040 13/06 A2963 RMK AO2 RAB2154E11 SLP024 $,M
BVU,2024-03-30 22:15,-114.8611,35.9475,671.00,53.60,41.00,62.23,230.00,13.00,0.00,29.67,M,9.00,19.00,FEW,FEW,SCT,M,3400.00,4500.00,5000.00,M,M,M,M,M,M,M,M,53.60,KBVU 302215Z AUTO 23013G19KT 9SM FEW034 FEW045 SCT050 12/05 A2967 RMK AO2,M
CXP,2024-03-30 22:15,-119.7326,39.1923,1431.00,41.00,35.60,80.93,40.00,9.00,0.00,29.62,M,10.00,M,SCT,SCT,OVC,M,1700.00,3500.00,5500.00,M,M,M,M,M,M,M,M,34.70,KCXP 302215Z AUTO 04009KT 10SM SCT017 SCT035 OVC055 05/02 A2962 RMK AO2,M
RTS,2024-03-30 22:15,-119.8764,39.6682,1539.00,33.80,33.80,100.00,240.00,4.00,0.00,29.63,M,2.50,M,SCT,M,M,M,1300.00,M,M,M,-SN,M,M,M,M,M,M,29.52,KRTS 302215Z AUTO 24004KT 2 1/2SM -SN SCT013 01/01 A2963 RMK AO2,M
MEV,2024-03-30 22:15,-119.7500,38.9963,1441.42,35.60,33.80,93.08,230.00,6.00,0.00,29.61,M,10.00,M,BKN,BKN,BKN,M,1600.00,2100.00,3800.00,M,UP,M,M,M,M,M,M,29.87,KMEV 302215Z AUTO 23006KT 10SM UP BKN016 BKN021 BKN038 02/01 A2961 RMK AO2,M
HTH,2024-03-30 22:15,-118.6315,38.5448,1282.89,42.80,35.60,75.50,330.00,11.00,0.00,29.59,M,10.00,M,SCT,BKN,OVC,M,3900.00,4400.00,6500.00,M,M,M,M,M,M,M,M,36.11,KHTH 302215Z AUTO 33011KT 10SM SCT039 BKN044 OVC065 06/02 A2959 RMK A01,M
10U,2024-03-30 22:15,-116.1876,41.9532,1637.00,46.40,33.80,61.28,50.00,13.00,0.00,29.66,M,10.00,M,OVC,M,M,M,5000.00,M,M,M,M,M,M,M,M,M,M,40.02,K10U 302215Z AUTO 05013KT 10SM OVC050 08/01 A2966 RMK AO2,M
BAM,2024-03-30 22:15,-116.8743,40.5990,1382.36,51.80,37.40,57.77,60.00,9.00,0.00,29.60,M,10.00,M,BKN,BKN,BKN,M,3400.00,4500.00,5500.00,M,M,M,M,M,M,M,M,51.80,KBAM 302215Z AUTO 06009KT 10SM BKN034 BKN045 BKN055 11/03 A2960 RMK AO1,M
TMT,2024-03-30 22:15,-117.1971,39.4643,1749.34,40.50,34.00,77.42,240.00,8.00,0.00,29.62,M,10.00,M,SCT,SCT,OVC,M,1900.00,2900.00,4300.00,M,M,M,M,M,M,M,M,34.58,KTMT 302215Z AUTO 24008KT 10SM SCT019 SCT029 OVC043 05/01 A2962 RMK AO2 T00470011,M
INS,2024-03-30 22:26,-115.6733,36.5872,955.00,44.60,39.20,81.20,320.00,14.00,0.00,29.71,1004.30,10.00,M,OVC,M,M,M,5500.00,M,M,M,M,M,M,M,M,M,M,37.40,KINS 302226Z AUTO 32014KT 10SM OVC055 07/04 A2971 RMK AO2 RAE26 SLP043 $,M
DRA,2024-03-30 22:26,-116.0278,36.6206,1009.00,40.00,38.00,92.49,200.00,5.00,0.06,29.73,M,8.00,M,SCT,OVC,M,M,1400.00,2200.00,M,M,RA,M,M,M,M,M,M,35.90,KDRA 302226Z AUTO 20005KT 8SM RA SCT014 OVC022 04/03 A2973 RMK AO2 P0006 T00440033,M
05U,2024-03-30 22:30,-116.0051,39.6042,1811.23,42.80,32.00,65.38,300.00,11.00,0.00,29.64,M,10.00,M,BKN,BKN,OVC,M,2700.00,4200.00,6500.00,M,M,M,M,M,M,M,M,36.11,K05U 302230Z AUTO 30011KT 10SM BKN027 BKN042 OVC065 06/00 A2964 RMK A01,M
BVU,2024-03-30 22:35,-114.8611,35.9475,671.00,51.80,37.40,57.77,240.00,13.00,0.00,29.68,M,10.00,19.00,FEW,BKN,M,M,4500.00,6000.00,M,M,M,M,M,M,M,M,M,51.80,KBVU 302235Z AUTO 24013G19KT 10SM FEW045 BKN060 11/03 A2968 RMK AO2,M
CXP,2024-03-30 22:35,-119.7326,39.1923,1431.00,41.00,35.60,80.93,70.00,7.00,0.00,29.62,M,10.00,M,SCT,BKN,OVC,M,1800.00,2600.00,5500.00,M,-RA,M,M,M,M,M,M,35.75,KCXP 302235Z AUTO 07007KT 10SM -RA SCT018 BKN026 OVC055 05/02 A2962 RMK AO2,M
RTS,2024-03-30 22:35,-119.8764,39.6682,1539.00,33.80,33.80,100.00,230.00,3.00,0.00,29.64,M,2.00,M,CLR,M,M,M,M,M,M,M,-SN,M,M,M,M,M,M,30.75,KRTS 302235Z AUTO 23003KT 2SM -SN CLR 01/01 A2964 RMK AO2,M
MEV,2024-03-30 22:35,-119.7500,38.9963,1441.42,35.60,33.80,93.08,250.00,10.00,0.00,29.61,M,5.00,M,OVC,M,M,M,2000.00,M,M,M,-RA BR,M,M,M,M,M,M,27.48,KMEV 302235Z AUTO 25010KT 5SM -RA BR OVC020 02/01 A2961 RMK AO2,M
HTH,2024-03-30 22:35,-118.6315,38.5448,1282.89,42.80,35.60,75.50,320.00,9.00,0.00,29.59,M,10.00,M,BKN,BKN,OVC,M,3800.00,4400.00,6500.00,M,M,M,M,M,M,M,M,36.94,KHTH 302235Z AUTO 32009KT 10SM BKN038 BKN044 OVC065 06/02 A2959 RMK A01,M
10U,2024-03-30 22:35,-116.1876,41.9532,1637.00,46.40,35.60,65.83,50.00,13.00,0.00,29.66,M,10.00,18.00,FEW,OVC,M,M,4300.00,5500.00,M,M,M,M,M,M,M,M,M,40.02,K10U 302235Z AUTO 05013G18KT 10SM FEW043 OVC055 08/02 A2966 RMK AO2,M
BAM,2024-03-30 22:35,-116.8743,40.5990,1382.36,51.80,35.60,53.81,90.00,7.00,0.00,29.60,M,10.00,M,SCT,SCT,BKN,M,3500.00,4700.00,10000.00,M,M,M,M,M,M,M,M,51.80,KBAM 302235Z AUTO 09007KT 10SM SCT035 SCT047 BKN100 11/02 A2960 RMK AO1,M
TMT,2024-03-30 22:35,-117.1971,39.4643,1749.34,39.00,34.30,83.07,240.00,11.00,0.00,29.62,M,10.00,M,BKN,BKN,OVC,M,1600.00,3200.00,4200.00,M,M,M,M,M,M,M,M,31.31,KTMT 302235Z AUTO 24011KT 10SM BKN016 BKN032 OVC042 04/01 A2962 RMK AO2 T00390013,M
INS,2024-03-30 22:36,-115.6733,36.5872,955.00,44.60,39.20,81.20,320.00,18.00,0.00,29.69,1003.60,10.00,M,SCT,OVC,M,M,4900.00,5500.00,M,M,-RA,M,M,M,M,M,M,36.34,KINS 302236Z AUTO 32018KT 10SM -RA SCT049 OVC055 07/04 A2969 RMK AO2 RAE26RAB36 PRESFR SLP036 $,M
NFL,2024-03-30 22:44,-118.7010,39.4166,1199.00,46.00,39.00,76.40,350.00,11.00,0.00,29.59,M,10.00,M,SCT,SCT,OVC,M,2500.00,3200.00,6000.00,M,M,M,M,M,M,M,M,40.16,KNFL 302244Z AUTO 35011KT 10SM SCT025 SCT032 OVC060 08/04 A2959 RMK AO2 T00780039,M
05U,2024-03-30 22:50,-116.0051,39.6042,1811.23,42.80,32.00,65.38,310.00,13.00,0.00,29.64,M,10.00,M,SCT,BKN,OVC,M,2200.00,2600.00,6500.00,M,M,M,M,M,M,M,M,35.40,K05U 302250Z AUTO 31013KT 10SM SCT022 BKN026 OVC065 06/00 A2964 RMK A01,M
P68,2024-03-30 22:53,-116.0056,39.6014,1993.00,41.00,33.00,72.96,140.00,14.00,0.00,29.62,1000.70,M,21.00,M,M,M,M,M,M,M,M,M,M,M,M,M,M,M,32.76,KP68 302253Z AUTO 14014G21KT 05/01 A2962 RMK AO1 SLP007 T00500006,M
DRA,2024-03-30 22:53,-116.0278,36.6206,1009.00,40.00,38.00,92.49,220.00,3.00,0.10,29.73,1005.30,7.00,M,FEW,BKN,OVC,M,1400.00,2200.00,4100.00,M,-RA,M,M,M,M,M,M,37.83,KDRA 302253Z AUTO 22003KT 7SM -RA FEW014 BKN022 OVC041 04/03 A2973 RMK AO2 SLP053 P0010 T00440033,M
ELY,2024-03-30 22:53,-114.8453,39.2950,1909.00,38.00,32.00,78.77,180.00,16.00,T,29.65,1002.30,10.00,24.00,FEW,SCT,BKN,M,2900.00,7000.00,9500.00,M,M,M,M,M,29.00,180.00,2024-03-30 22:15,28.24,KELY 302253Z AUTO 18016G24KT 10SM FEW029 SCT070 BKN095 03/00 A2965 RMK AO2 PK WND 18029/2215 RAE31 SLP023 P0000 T00330000,M
VGT,2024-03-30 22:53,-115.1933,36.2111,667.00,52.00,44.00,74.07,320.00,12.00,0.03,29.68,1006.10,10.00,M,SCT,BKN,OVC,M,3000.00,4900.00,9000.00,M,-RA,M,M,M,M,M,M,52.00,KVGT 302253Z 32012KT 10SM -RA SCT030 BKN049 OVC090 11/07 A2968 RMK AO2 RAB2158 SLP061 P0003 T01110067,M
LOL,2024-03-30 22:53,-118.5701,40.0684,1192.43,44.00,40.00,85.71,30.00,9.00,0.00,29.59,1001.90,10.00,M,FEW,BKN,M,M,6500.00,10000.00,M,M,M,M,M,M,M,M,M,38.44,KLOL 302253Z AUTO 03009KT 10SM FEW065 BKN100 07/04 A2959 RMK AO2 SLP019 T00670044,M
INS,2024-03-30 22:54,-115.6733,36.5872,955.00,46.40,39.20,75.84,310.00,16.00,0.00,29.71,1004.10,10.00,M,SCT,OVC,M,M,4900.00,6000.00,M,M,M,M,M,M,M,M,M,39.19,KINS 302254Z AUTO 31016KT 10SM SCT049 OVC060 08/04 A2971 RMK AO2 RAE26RAB36E54 PRESRR SLP041 $,M
BVU,2024-03-30 22:55,-114.8611,35.9475,671.00,51.80,37.40,57.77,220.00,11.00,0.00,29.69,M,10.00,18.00,FEW,OVC,M,M,4800.00,5500.00,M,M,M,M,M,M,M,M,M,51.80,KBVU 302255Z AUTO 22011G18KT 10SM FEW048 OVC055 11/03 A2969 RMK AO2,M
CXP,2024-03-30 22:55,-119.7326,39.1923,1431.00,41.00,35.60,80.93,50.00,8.00,0.00,29.62,M,10.00,13.00,FEW,SCT,OVC,M,1800.00,2800.00,4500.00,M,M,M,M,M,M,M,M,35.20,KCXP 302255Z AUTO 05008G13KT 10SM FEW018 SCT028 OVC045 05/02 A2962 RMK AO2,M
RNO,2024-03-30 22:55,-119.7711,39.4839,1341.00,41.00,36.00,82.22,330.00,7.00,T,29.62,1002.50,7.00,M,SCT,BKN,OVC,M,1600.00,2500.00,3500.00,M,RA,M,M,M,M,M,M,35.75,KRNO 302255Z 33007KT 7SM RA SCT016 BKN025 OVC035 05/02 A2962 RMK AO2 SLP025 P0000 T00500022 $,M
RTS,2024-03-30 22:55,-119.8764,39.6682,1539.00,33.80,33.80,100.00,260.00,6.00,0.07,29.63,M,4.00,M,CLR,M,M,M,M,M,M,M,-SN,M,M,M,M,M,M,27.70,KRTS 302255Z AUTO 26006KT 4SM -SN CLR 01/01 A2963 RMK AO2 P0007,M
MEV,2024-03-30 22:55,-119.7500,38.9963,1441.42,33.80,32.00,93.03,210.00,9.00,0.01,29.61,M,2.00,M,FEW,FEW,OVC,M,500.00,1000.00,1900.00,M,-SN BR,M,M,M,M,M,M,25.75,KMEV 302255Z AUTO 21009KT 2SM -SN BR FEW005 FEW010 OVC019 01/00 A2961 RMK AO2 P0001 VIS 1 1/4V4,M
HTH,2024-03-30 22:55,-118.6315,38.5448,1282.89,41.00,35.60,80.93,300.00,8.00,0.00,29.60,M,8.00,M,FEW,SCT,OVC,M,2600.00,3100.00,3800.00,M,M,M,M,M,M,M,M,35.20,KHTH 302255Z AUTO 30008KT 8SM FEW026 SCT031 OVC038 05/02 A2960 RMK A01,M
10U,2024-03-30 22:55,-116.1876,41.9532,1637.00,44.60,33.80,65.61,50.00,13.00,0.00,29.66,M,10.00,M,SCT,OVC,M,M,5500.00,11000.00,M,M,M,M,M,M,M,M,M,37.71,K10U 302255Z AUTO 05013KT 10SM SCT055 OVC110 07/01 A2966 RMK AO2,M
BAM,2024-03-30 22:55,-116.8743,40.5990,1382.36,51.80,35.60,53.81,130.00,7.00,0.00,29.61,M,10.00,M,BKN,BKN,OVC,M,3700.00,4700.00,6500.00,M,M,M,M,M,M,M,M,51.80,KBAM 302255Z AUTO 13007KT 10SM BKN037 BKN047 OVC065 11/02 A2961 RMK AO1,M
TMT,2024-03-30 22:55,-117.1971,39.4643,1749.34,37.40,35.00,90.94,240.00,11.00,0.00,29.62,M,10.00,M,SCT,BKN,OVC,M,1600.00,2700.00,3200.00,M,-RA,M,M,M,M,M,M,29.29,KTMT 302255Z AUTO 24011KT 10SM -RA SCT016 BKN027 OVC032 03/02 A2962 RMK AO2 T00300016,M
INS,2024-03-30 22:55,-115.6733,36.5872,955.00,45.70,38.50,75.78,310.00,16.00,T,29.71,1004.10,10.00,M,SCT,OVC,M,M,4900.00,6000.00,M,M,M,M,M,M,M,M,M,38.27,KINS 302255Z AUTO 31016KT 10SM SCT049 OVC060 08/04 A2971 RMK AO2 RAE26RAB36E54 SLP041 P0000 T00760036 $,M
LSV,2024-03-30 22:55,-115.0343,36.2362,570.00,54.00,44.20,69.35,270.00,12.00,T,29.64,1002.80,10.00,M,FEW,FEW,M,M,3000.00,20000.00,M,M,M,M,M,M,M,M,M,54.00,KLSV 302255Z AUTO 27012KT 10SM FEW030 FEW200 12/07 A2964 RMK AO2 RAB2154E11 SLP028 P0000 T01230068 $,M
EKO,2024-03-30 22:56,-115.7860,40.8242,1367.00,48.00,36.00,62.97,200.00,7.00,0.00,29.60,1001.50,10.00,M,BKN,OVC,M,M,5000.00,7000.00,M,M,M,M,M,M,M,M,M,44.28,KEKO 302256Z AUTO 20007KT 10SM BKN050 OVC070 09/02 A2960 RMK AO2 SLP015 T00890022,M
WMC,2024-03-30 22:56,-117.8072,40.9019,1315.00,51.00,33.00,49.96,50.00,14.00,0.00,29.58,1000.50,10.00,21.00,FEW,BKN,OVC,M,4900.00,6500.00,9500.00,M,M,M,M,M,M,M,M,51.00,KWMC 302256Z AUTO 05014G21KT 10SM FEW049 BKN065 OVC095 11/01 A2958 RMK AO2 SLP005 T01060006,M
NFL,2024-03-30 22:56,-118.7010,39.4166,1199.00,45.00,38.00,76.31,350.00,9.00,0.00,29.59,1000.50,10.00,M,FEW,SCT,BKN,M,2800.00,5000.00,6000.00,M,M,M,M,M,M,M,M,39.68,KNFL 302256Z AUTO 35009KT 10SM FEW028 SCT050 BKN060 07/03 A2959 RMK AO2 SLP005 T00720033,M
HND,2024-03-30 22:56,-115.1344,35.9729,742.79,50.00,39.00,65.75,220.00,8.00,T,29.72,1007.70,10.00,M,FEW,BKN,OVC,M,3900.00,4600.00,6000.00,M,-RA,M,M,M,M,M,M,50.00,KHND 302256Z 22008KT 10SM -RA FEW039 BKN046 OVC060 10/04 A2972 RMK AO2 RAE16B52 SLP077 P0000 T01000039,M
TPH,2024-03-30 22:56,-117.0904,38.0505,1654.00,39.00,32.00,75.75,110.00,16.00,0.00,29.60,1001.20,10.00,M,FEW,BKN,BKN,M,1600.00,7500.00,10000.00,M,M,M,M,M,M,M,M,29.54,KTPH 302256Z AUTO 11016KT 10SM FEW016 BKN075 BKN100 04/00 A2960 RMK AO2 SLP012 T00390000,M
LAS,2024-03-30 22:56,-115.1634,36.0719,663.00,51.00,35.00,54.12,240.00,11.00,T,29.69,1004.80,10.00,M,FEW,BKN,OVC,M,4000.00,6500.00,8000.00,M,M,M,M,M,M,M,M,51.00,KLAS 302256Z 24011KT 10SM FEW040 BKN065 OVC080 11/02 A2969 RMK AO2 RAB2159E17 SLP048 P0000 T01060017,M
LSV,2024-03-30 23:01,-115.0343,36.2362,570.00,53.60,42.80,66.70,280.00,13.00,0.00,29.65,1003.20,10.00,M,FEW,M,M,M,3000.00,M,M,M,-RA,M,M,M,M,M,M,53.60,KLSV 302301Z AUTO 28013KT 10SM -RA FEW030 12/06 A2965 RMK AO2 RAB01 SLP032 $,M
DRA,2024-03-30 23:07,-116.0278,36.6206,1009.00,41.00,37.00,85.54,90.00,6.00,T,29.72,M,10.00,M,BKN,BKN,OVC,M,3200.00,4200.00,4900.00,M,M,M,M,M,M,M,M,36.37,KDRA 302307Z AUTO 09006KT 10SM BKN032 BKN042 OVC049 05/03 A2972 RMK AO2 RAE06 P0000 T00500028,M
05U,2024-03-30 23:10,-116.0051,39.6042,1811.23,41.00,33.80,75.33,310.00,12.00,0.00,29.65,M,10.00,M,SCT,SCT,BKN,M,2100.00,2600.00,4600.00,M,M,M,M,M,M,M,M,33.46,K05U 302310Z AUTO 31012KT 10SM SCT021 SCT026 BKN046 05/01 A2965 RMK A01,M
LSV,2024-03-30 23:14,-115.0343,36.2362,570.00,53.60,41.00,62.23,290.00,13.00,0.00,29.65,1003.20,10.00,M,CLR,M,M,M,M,M,M,M,M,M,M,M,M,M,M,53.60,KLSV 302314Z AUTO 29013KT 10SM CLR 12/05 A2965 RMK AO2 RAB01E14 SLP032 $,M
BVU,2024-03-30 23:15,-114.8611,35.9475,671.00,50.00,41.00,71.07,210.00,14.00,0.00,29.70,M,10.00,M,SCT,BKN,OVC,M,4300.00,4800.00,5500.00,M,M,M,M,M,M,M,M,50.00,KBVU 302315Z AUTO 21014KT 10SM SCT043 BKN048 OVC055 10/05 A2970 RMK AO2,M
CXP,2024-03-30 23:15,-119.7326,39.1923,1431.00,41.00,35.60,80.93,330.00,4.00,0.00,29.62,M,10.00,M,BKN,BKN,OVC,M,1700.00,2500.00,4400.00,M,M,M,M,M,M,M,M,37.93,KCXP 302315Z AUTO 33004KT 10SM BKN017 BKN025 OVC044 05/02 A2962 RMK AO2,M
RTS,2024-03-30 23:15,-119.8764,39.6682,1539.00,33.80,33.80,100.00,280.00,5.00,0.00,29.63,M,3.00,M,FEW,M,M,M,300.00,M,M,M,-SN,M,M,M,M,M,M,28.53,KRTS 302315Z AUTO 28005KT 3SM -SN FEW003 01/01 A2963 RMK AO2,M
MEV,2024-03-30 23:15,-119.7500,38.9963,1441.42,32.00,32.00,100.00,160.00,11.00,0.00,29.63,M,0.25,16.00,OVC,M,M,M,400.00,M,M,M,SN FG,M,M,M,M,M,M,22.47,KMEV 302315Z AUTO 16011G16KT 1/4SM SN FG OVC004 00/M00 A2963 RMK AO2,M
HTH,2024-03-30 23:15,-118.6315,38.5448,1282.89,39.20,35.60,86.79,290.00,8.00,0.00,29.59,M,3.00,M,FEW,SCT,M,M,2600.00,3400.00,M,M,HZ,M,M,M,M,M,M,32.98,KHTH 302315Z AUTO 29008KT 3SM HZ FEW026 SCT034 04/02 A2959 RMK A01,M
10U,2024-03-30 23:15,-116.1876,41.9532,1637.00,46.40,35.60,65.83,40.00,15.00,0.00,29.65,M,10.00,M,OVC,M,M,M,11000.00,M,M,M,M,M,M,M,M,M,M,39.45,K10U 302315Z AUTO 04015KT 10SM OVC110 08/02 A2965 RMK AO2,M
BAM,2024-03-30 23:15,-116.8743,40.5990,1382.36,51.80,35.60,53.81,130.00,9.00,0.00,29.61,M,10.00,M,SCT,BKN,OVC,M,3900.00,5500.00,6500.00,M,M,M,M,M,M,M,M,51.80,KBAM 302315Z AUTO 13009KT 10SM SCT039 BKN055 OVC065 11/02 A2961 RMK AO1,M
TMT,2024-03-30 23:15,-117.1971,39.4643,1749.34,38.00,35.20,89.53,240.00,7.00,0.00,29.62,M,10.00,M,BKN,BKN,M,M,2800.00,3400.00,M,M,M,M,M,M,M,M,M,32.09,KTMT 302315Z AUTO 24007KT 10SM BKN028 BKN034 03/02 A2962 RMK AO2 T00340018,M
RTS,2024-03-30 23:20,-119.8764,39.6682,1539.00,33.80,33.80,100.00,280.00,4.00,0.00,29.63,M,3.00,M,FEW,M,M,M,300.00,M,M,M,-SN,M,M,M,M,M,M,29.52,KRTS 302320Z AUTO 28004KT 3SM -SN FEW003 01/01 A2963 RMK AO2,M
INS,2024-03-30 23:22,-115.6733,36.5872,955.00,44.60,37.40,75.68,320.00,13.00,0.00,29.72,1004.60,10.00,M,FEW,BKN,BKN,OVC,2200.00,3500.00,6000.00,7000.00,-RA,M,M,M,M,M,M,37.71,KINS 302322Z AUTO 32013KT 10SM -RA FEW022 BKN035 BKN060 OVC070 07/03 A2972 RMK AO2 RAB22 SLP046 $,M
05U,2024-03-30 23:30,-116.0051,39.6042,1811.23,41.00,33.80,75.33,310.00,11.00,0.00,29.64,M,9.00,M,FEW,M,M,M,4700.00,M,M,M,M,M,M,M,M,M,M,33.84,K05U 302330Z AUTO 31011KT 9SM FEW047 05/01 A2964 RMK A01,M
BVU,2024-03-30 23:35,-114.8611,35.9475,671.00,46.40,41.00,81.34,210.00,12.00,0.00,29.71,M,3.00,22.00,SCT,BKN,OVC,M,2900.00,4100.00,4900.00,M,-RA,M,M,M,M,M,M,40.33,KBVU 302335Z AUTO 21012G22KT 3SM -RA SCT029 BKN041 OVC049 08/05 A2971 RMK AO2,M
CXP,2024-03-30 23:35,-119.7326,39.1923,1431.00,39.20,35.60,86.79,340.00,9.00,0.00,29.63,M,10.00,M,OVC,M,M,M,1700.00,M,M,M,M,M,M,M,M,M,M,32.47,KCXP 302335Z AUTO 34009KT 10SM OVC017 04/02 A2963 RMK AO2,M
MEV,2024-03-30 23:35,-119.7500,38.9963,1441.42,32.00,32.00,100.00,190.00,7.00,0.00,29.64,M,1.00,M,OVC,M,M,M,300.00,M,M,M,-SN BR,M,M,M,M,M,M,24.78,KMEV 302335Z AUTO 19007KT 1SM -SN BR OVC003 00/M00 A2964 RMK AO2 LTG DSNT SE VIS 1/2V1 1/2,M
HTH,2024-03-30 23:35,-118.6315,38.5448,1282.89,39.20,35.60,86.79,350.00,6.00,0.00,29.59,M,10.00,M,CLR,M,M,M,M,M,M,M,M,M,M,M,M,M,M,34.20,KHTH 302335Z AUTO 35006KT 10SM CLR 04/02 A2959 RMK A01,M
10U,2024-03-30 23:35,-116.1876,41.9532,1637.00,46.40,33.80,61.28,50.00,16.00,0.00,29.64,M,10.00,M,SCT,M,M,M,11000.00,M,M,M,M,M,M,M,M,M,M,39.19,K10U 302335Z AUTO 05016KT 10SM SCT110 08/01 A2964 RMK AO2,M
BAM,2024-03-30 23:35,-116.8743,40.5990,1382.36,48.20,41.00,76.01,110.00,11.00,0.00,29.61,M,10.00,M,SCT,BKN,OVC,M,3300.00,4200.00,5500.00,M,M,M,M,M,M,M,M,42.94,KBAM 302335Z AUTO 11011KT 10SM SCT033 BKN042 OVC055 09/05 A2961 RMK AO1,M
TMT,2024-03-30 23:35,-117.1971,39.4643,1749.34,38.50,34.00,83.70,230.00,3.00,0.00,29.60,M,10.00,M,SCT,BKN,M,M,1100.00,2800.00,M,M,M,M,M,M,M,M,M,36.12,KTMT 302335Z AUTO 23003KT 10SM SCT011 BKN028 04/01 A2960 RMK AO2 T00360012,M
ELY,2024-03-30 23:37,-114.8453,39.2950,1909.00,35.00,32.00,88.68,170.00,14.00,T,29.66,M,8.00,21.00,BKN,OVC,M,M,2800.00,3500.00,M,M,-SN,M,M,M,M,M,M,25.03,KELY 302337Z AUTO 17014G21KT 8SM -SN BKN028 OVC035 02/00 A2966 RMK AO2 RAB07E31SNB31 P0000 T00170000,M
INS,2024-03-30 23:38,-115.6733,36.5872,955.00,44.60,37.40,75.68,320.00,12.00,0.00,29.71,1004.30,10.00,M,SCT,BKN,OVC,M,3300.00,5000.00,6500.00,M,M,M,M,M,M,M,M,38.04,KINS 302338Z AUTO 32012KT 10SM SCT033 BKN050 OVC065 07/03 A2971 RMK AO2 RAB22E38 SLP043 $,M
RNO,2024-03-30 23:43,-119.7711,39.4839,1341.00,38.00,34.00,85.35,290.00,14.00,0.04,29.63,M,2.50,M,SCT,BKN,OVC,M,1200.00,1800.00,2500.00,M,+RA BR,M,M,M,M,M,M,28.90,KRNO 302343Z 29014KT 2 1/2SM +RA BR SCT012 BKN018 OVC025 03/01 A2963 RMK AO2 P0004 T00330011 $,M
LSV,2024-03-30 23:47,-115.0343,36.2362,570.00,53.60,39.20,58.02,240.00,15.00,0.00,29.66,1003.50,10.00,22.00,CLR,M,M,M,M,M,M,M,M,M,M,M,M,M,M,53.60,KLSV 302347Z AUTO 24015G22KT 10SM CLR 12/04 A2966 RMK AO2 WSHFT 40 RAB01E14 SLP035 $,M
RNO,2024-03-30 23:49,-119.7711,39.4839,1341.00,37.40,33.80,86.69,290.00,10.00,0.06,29.63,M,2.00,M,FEW,OVC,M,M,700.00,1500.00,M,M,-SNRA,M,M,M,M,M,M,29.74,KRNO 302349Z 29010KT 2SM -SNRA FEW007 OVC015 03/01 A2963 RMK AO2 SNB48 P0006 $,M
05U,2024-03-30 23:50,-116.0051,39.6042,1811.23,41.00,33.80,75.33,300.00,14.00,0.00,29.64,M,10.00,M,CLR,M,M,M,M,M,M,M,M,M,M,M,M,M,M,32.76,K05U 302350Z AUTO 30014KT 10SM CLR 05/01 A2964 RMK A01,M
P68,2024-03-30 23:53,-116.0056,39.6014,1993.00,40.00,33.00,75.84,140.00,16.00,0.00,29.61,1000.60,M,21.00,M,M,M,M,M,M,M,M,M,M,M,M,M,M,M,30.85,KP68 302353Z AUTO 14016G21KT 04/01 A2961 RMK AO1 SLP006 T00440006 10061 20039 56003,M
DRA,2024-03-30 23:53,-116.0278,36.6206,1009.00,42.00,36.00,79.11,0.00,0.00,0.01,29.66,1002.90,10.00,M,BKN,OVC,M,M,3800.00,4700.00,M,M,-RA,M,M,M,M,M,M,42.00,KDRA 302353Z AUTO 00000KT 10SM -RA BKN038 OVC047 06/02 A2966 RMK AO2 RAE06B45 PRESFR SLP029 P0001 60055 T00560022 10072 20044 58017,M
ELY,2024-03-30 23:53,-114.8453,39.2950,1909.00,35.00,32.00,88.68,170.00,15.00,T,29.67,1003.60,7.00,22.00,BKN,OVC,M,M,2600.00,3300.00,M,M,-SN,M,M,M,M,M,M,24.67,KELY 302353Z AUTO 17015G22KT 7SM -SN BKN026 OVC033 02/00 A2967 RMK AO2 RAB07E31SNB31 SLP036 P0000 60004 T00170000 10050 20006 55001,M
VGT,2024-03-30 23:53,-115.1933,36.2111,667.00,51.00,41.00,68.48,320.00,14.00,0.02,29.69,1006.60,10.00,25.00,FEW,BKN,OVC,M,4300.00,5000.00,6500.00,M,-RA,M,M,M,26.00,310.00,2024-03-30 23:29,51.00,KVGT 302353Z 32014G25KT 10SM -RA FEW043 BKN050 OVC065 11/05 A2969 RMK AO2 PK WND 31026/2329 SLP066 P0002 60016 T01060050 10150 20100 53011,M
LOL,2024-03-30 23:53,-118.5701,40.0684,1192.43,45.00,40.00,82.51,20.00,11.00,0.00,29.56,1001.10,10.00,M,FEW,BKN,M,M,6000.00,8000.00,M,M,M,M,M,M,M,M,M,38.89,KLOL 302353Z AUTO 02011KT 10SM FEW060 BKN080 07/04 A2956 RMK AO2 PRESFR SLP011 60012 T00720044 10072 20033 58019,M
LSV,2024-03-30 23:53,-115.0343,36.2362,570.00,53.60,41.00,62.23,240.00,12.00,0.00,29.66,1003.50,10.00,M,CLR,M,M,M,M,M,M,M,-RA,M,M,M,M,M,M,53.60,KLSV 302353Z AUTO 24012KT 10SM -RA CLR 12/05 A2966 RMK AO2 RAB01E14RAB53 SLP035 $,M
BVU,2024-03-30 23:55,-114.8611,35.9475,671.00,46.40,41.00,81.34,220.00,14.00,0.00,29.71,M,7.00,21.00,SCT,OVC,M,M,3000.00,4000.00,M,M,-RA,M,M,M,M,M,M,39.72,KBVU 302355Z AUTO 22014G21KT 7SM -RA SCT030 OVC040 08/05 A2971 RMK AO2,M
CXP,2024-03-30 23:55,-119.7326,39.1923,1431.00,37.40,32.00,80.65,320.00,7.00,0.00,29.63,M,10.00,15.00,BKN,OVC,M,M,1800.00,2500.00,M,M,M,M,M,M,M,M,M,31.36,KCXP 302355Z AUTO 32007G15KT 300V360 10SM BKN018 OVC025 03/00 A2963 RMK AO2,M
RNO,2024-03-30 23:55,-119.7711,39.4839,1341.00,36.00,33.00,88.73,290.00,8.00,0.07,29.63,1003.30,2.00,M,SCT,OVC,M,M,700.00,1200.00,M,M,-SNRA BR,M,M,M,M,M,M,29.04,KRNO 302355Z 29008KT 2SM -SNRA BR SCT007 OVC012 02/01 A2963 RMK AO2 SNB48 SLP033 P0007 60010 T00220006 10072 20022 53008 $,M
MEV,2024-03-30 23:55,-119.7500,38.9963,1441.42,32.00,32.00,100.00,190.00,6.00,0.06,29.64,M,0.50,M,OVC,M,M,M,300.00,M,M,M,-SN BR,M,M,M,M,M,M,25.53,KMEV 302355Z AUTO 19006KT 1/2SM -SN BR OVC003 00/M00 A2964 RMK AO2 P0006,M
HTH,2024-03-30 23:55,-118.6315,38.5448,1282.89,39.20,35.60,86.79,0.00,0.00,0.03,29.60,M,10.00,M,BKN,M,M,M,4300.00,M,M,M,M,M,M,M,M,M,M,39.20,KHTH 302355Z AUTO 00000KT 10SM BKN043 04/02 A2960 RMK A01 P0003,M
10U,2024-03-30 23:55,-116.1876,41.9532,1637.00,46.40,35.60,65.83,40.00,14.00,0.00,29.65,M,10.00,21.00,SCT,BKN,BKN,M,4300.00,5000.00,5500.00,M,M,M,M,M,M,M,M,39.72,K10U 302355Z AUTO 04014G21KT 10SM SCT043 BKN050 BKN055 08/02 A2965 RMK AO2,M
BAM,2024-03-30 23:55,-116.8743,40.5990,1382.36,50.00,39.20,66.27,90.00,9.00,0.00,29.61,M,10.00,M,SCT,SCT,OVC,M,4600.00,6000.00,7000.00,M,M,M,M,M,M,M,M,50.00,KBAM 302355Z AUTO 09009KT 10SM SCT046 SCT060 OVC070 10/04 A2961 RMK AO1,M
TMT,2024-03-30 23:55,-117.1971,39.4643,1749.34,39.00,33.30,79.81,210.00,3.00,0.00,29.61,M,10.00,M,SCT,OVC,M,M,1100.00,2800.00,M,M,M,M,M,M,M,M,M,36.69,KTMT 302355Z AUTO 21003KT 10SM SCT011 OVC028 04/01 A2961 RMK AO2 T00380007 10052 20026,M
INS,2024-03-30 23:55,-115.6733,36.5872,955.00,45.70,37.00,71.44,300.00,6.00,T,29.71,1004.30,10.00,M,FEW,BKN,BKN,M,3500.00,4900.00,6000.00,M,M,M,M,M,M,M,M,42.03,KINS 302355Z AUTO 30006KT 10SM FEW035 BKN049 BKN060 08/03 A2971 RMK AO2 RAB22E38 SLP043 P0000 60021 T00760027 10116 20066 50001 $,M
LSV,2024-03-30 23:55,-115.0343,36.2362,570.00,52.70,41.00,64.32,250.00,14.00,0.02,29.66,1003.50,10.00,M,CLR,M,M,M,M,M,M,M,-RA,M,M,M,M,M,M,52.70,KLSV 302355Z AUTO 25014KT 10SM -RA CLR 12/05 A2966 RMK AO2 RAB01E14RAB53 SLP035 P0002 60005 T01150051 10163 20115 52011 $,M
EKO,2024-03-30 23:56,-115.7860,40.8242,1367.00,47.00,36.00,65.38,210.00,9.00,0.00,29.61,1002.10,10.00,M,BKN,OVC,M,M,7500.00,9000.00,M,M,M,M,M,M,M,M,M,42.17,KEKO 302356Z AUTO 21009KT 10SM BKN075 OVC090 08/02 A2961 RMK AO2 SLP021 60000 T00830022 10094 20072 55009,M
WMC,2024-03-30 23:56,-117.8072,40.9019,1315.00,50.00,33.00,51.85,50.00,14.00,0.00,29.59,1000.80,10.00,M,FEW,OVC,M,M,4900.00,6000.00,M,M,M,M,M,M,M,M,M,50.00,KWMC 302356Z AUTO 05014KT 10SM FEW049 OVC060 10/01 A2959 RMK AO2 SLP008 T01000006 10122 20083 55007,M
NFL,2024-03-30 23:56,-118.7010,39.4166,1199.00,47.00,38.00,70.74,340.00,7.00,0.00,29.58,1000.20,10.00,M,SCT,BKN,OVC,M,1800.00,2300.00,9000.00,M,M,M,M,M,M,M,M,43.06,KNFL 302356Z AUTO 34007KT 10SM SCT018 BKN023 OVC090 08/03 A2958 RMK AO2 SLP002 T00830033 10089 20050 50002,M
HND,2024-03-30 23:56,-115.1344,35.9729,742.79,49.00,39.00,68.25,240.00,9.00,0.01,29.75,1008.50,10.00,M,BKN,OVC,M,M,4900.00,6000.00,M,M,-RA,M,M,M,M,M,M,44.65,KHND 302356Z 24009KT 10SM -RA BKN049 OVC060 09/04 A2975 RMK AO2 PRESRR SLP085 P0001 60005 T00940039 10161 20083 51021,M
TPH,2024-03-30 23:56,-117.0904,38.0505,1654.00,37.00,33.00,85.29,150.00,16.00,0.00,29.63,1002.20,10.00,24.00,SCT,BKN,BKN,M,1700.00,2400.00,12000.00,M,M,M,M,M,26.00,150.00,2024-03-30 23:38,26.94,KTPH 302356Z AUTO 15016G24KT 10SM SCT017 BKN024 BKN120 03/01 A2963 RMK AO2 PK WND 15026/2338 SLP022 60009 T00280006 10039 20017 55007,M
LAS,2024-03-30 23:56,-115.1634,36.0719,663.00,49.00,43.00,79.68,M,4.00,T,29.71,1005.40,10.00,M,FEW,BKN,OVC,M,3000.00,5500.00,7500.00,M,M,M,M,M,M,M,M,47.27,KLAS 302356Z VRB04KT 10SM FEW030 BKN055 OVC075 09/06 A2971 RMK AO2 RAB00E51 SLP054 P0000 60000 T00940061 10156 20094 53016,M
