station,valid,lon,lat,elevation,tmpf,dwpf,relh,drct,sknt,p01i,alti,mslp,vsby,gust,skyc1,skyc2,skyc3,skyc4,skyl1,skyl2,skyl3,skyl4,wxcodes,ice_accretion_1hr,ice_accretion_3hr,ice_accretion_6hr,peak_wind_gust,peak_wind_drct,peak_wind_time,feel,metar,snowdepth
LOL,2025-03-06 00:00,-118.5701,40.0684,1192.43,36.00,34.00,92.35,50.00,5.00,0.01,29.74,M,5.00,M,SCT,BKN,OVC,M,600.00,2300.00,2900.00,M,-RA BR,M,M,M,M,M,M,31.15,KLOL 060000Z AUTO 05005KT 5SM -RA BR SCT006 BKN023 OVC029 02/01 A2974 RMK AO2 P0001 T00220011,M
10U,2025-03-06 00:00,-116.1876,41.9532,1637.00,35.60,33.80,93.08,100.00,5.00,0.00,29.75,M,8.00,M,SCT,M,M,M,2000.00,M,M,M,-SN,M,M,M,M,M,M,30.67,K10U 060000Z AUTO 10005KT 8SM -SN SCT020 02/01 A2975 RMK AO2,M
LSV,2025-03-06 00:02,-115.0343,36.2362,570.00,68.00,21.20,16.74,190.00,16.00,0.00,29.68,1004.10,10.00,24.00,OVC,M,M,M,9000.00,M,M,M,M,M,M,M,M,M,M,68.00,KLSV 060002Z 19016G24KT 10SM OVC090 20/M06 A2968 RMK AO2A WSHFT 00 SLP041 $,M
TMT,2025-03-06 00:10,-117.1971,39.4643,1749.34,35.80,34.00,93.09,110.00,3.00,0.00,29.71,M,10.00,M,OVC,M,M,M,900.00,M,M,M,-RA,M,M,M,M,M,M,33.03,KTMT 060010Z AUTO 11003KT 10SM -RA OVC009 02/01 A2971 RMK AO2 T00210012,M
BVU,2025-03-06 00:15,-114.8611,35.9475,671.00,66.20,23.00,19.22,180.00,17.00,0.00,29.74,M,10.00,25.00,OVC,M,M,M,8000.00,M,M,M,M,M,M,M,M,M,M,66.20,KBVU 060015Z AUTO 18017G25KT 10SM OVC080 19/M05 A2974 RMK AO2,M
BAM,2025-03-06 00:15,-116.8743,40.5990,1382.36,35.60,35.60,100.00,340.00,7.00,0.00,29.72,M,7.00,M,SCT,BKN,OVC,M,1800.00,3800.00,4500.00,M,M,M,M,M,M,M,M,29.17,KBAM 060015Z AUTO 34007KT 7SM SCT018 BKN038 OVC045 02/02 A2972 RMK AO1,M
CXP,2025-03-06 00:15,-119.7326,39.1923,1431.00,37.40,35.60,93.14,0.00,0.00,0.00,29.77,M,9.00,M,FEW,SCT,BKN,M,800.00,1400.00,2000.00,M,-RA,M,M,M,M,M,M,37.40,KCXP 060015Z AUTO 00000KT 9SM -RA FEW008 SCT014 BKN020 03/02 A2977 RMK AO2,M
RTS,2025-03-06 00:15,-119.8764,39.6682,1539.00,35.60,32.00,86.59,300.00,10.00,0.00,29.76,M,M,M,M,M,M,M,M,M,M,M,-DZ,M,M,M,M,M,M,27.48,KRTS 060015Z AUTO 30010KT -DZ 02/00 A2976 RMK AO2,M
MEV,2025-03-06 00:15,-119.7500,38.9963,1441.42,37.40,35.60,93.14,170.00,4.00,0.00,29.75,M,10.00,M,OVC,M,M,M,900.00,M,M,M,-RA,M,M,M,M,M,M,33.73,KMEV 060015Z AUTO 17004KT 10SM -RA OVC009 03/02 A2975 RMK AO2,M
HTH,2025-03-06 00:15,-118.6315,38.5448,1282.89,39.20,39.20,100.00,320.00,7.00,0.00,29.75,M,4.00,M,SCT,BKN,M,M,700.00,1300.00,M,M,BR,M,M,M,M,M,M,33.56,KHTH 060015Z AUTO 32007KT 4SM BR SCT007 BKN013 04/04 A2975 RMK A01,M
10U,2025-03-06 00:20,-116.1876,41.9532,1637.00,35.60,33.80,93.08,0.00,0.00,0.00,29.73,M,6.00,M,FEW,M,M,M,2000.00,M,M,M,-SN,M,M,M,M,M,M,35.60,K10U 060020Z AUTO 00000KT 6SM -SN FEW020 02/01 A2973 RMK AO2,M
TMT,2025-03-06 00:30,-117.1971,39.4643,1749.34,35.40,34.00,94.58,120.00,3.00,0.00,29.70,M,10.00,M,OVC,M,M,M,900.00,M,M,M,-RA,M,M,M,M,M,M,32.58,KTMT 060030Z AUTO 12003KT 10SM -RA OVC009 02/01 A2970 RMK AO2 T00190012,M
BVU,2025-03-06 00:35,-114.8611,35.9475,671.00,64.40,23.00,20.46,170.00,16.00,0.00,29.74,M,10.00,22.00,SCT,M,M,M,8000.00,M,M,M,M,M,M,M,M,M,M,64.40,KBVU 060035Z AUTO 17016G22KT 10SM SCT080 18/M05 A2974 RMK AO2,M
BAM,2025-03-06 00:35,-116.8743,40.5990,1382.36,35.60,35.60,100.00,320.00,7.00,0.00,29.71,M,5.00,M,BKN,BKN,OVC,M,1600.00,2800.00,3800.00,M,M,M,M,M,M,M,M,29.17,KBAM 060035Z AUTO 32007KT 5SM BKN016 BKN028 OVC038 02/02 A2971 RMK AO1,M
CXP,2025-03-06 00:35,-119.7326,39.1923,1431.00,37.40,35.60,93.14,0.00,0.00,0.00,29.76,M,6.00,M,FEW,FEW,SCT,M,1300.00,2200.00,2900.00,M,-RA BR,M,M,M,M,M,M,37.40,KCXP 060035Z AUTO 00000KT 6SM -RA BR FEW013 FEW022 SCT029 03/02 A2976 RMK AO2,M
RTS,2025-03-06 00:35,-119.8764,39.6682,1539.00,35.60,32.00,86.59,290.00,8.00,0.00,29.76,M,M,M,CLR,M,M,M,M,M,M,M,M,M,M,M,M,M,M,28.55,KRTS 060035Z AUTO 29008KT CLR 02/M00 A2976 RMK AO2,M
MEV,2025-03-06 00:35,-119.7500,38.9963,1441.42,37.40,35.60,93.14,180.00,4.00,0.00,29.75,M,10.00,M,SCT,BKN,BKN,M,900.00,1300.00,1800.00,M,-RA,M,M,M,M,M,M,33.73,KMEV 060035Z AUTO 18004KT 10SM -RA SCT009 BKN013 BKN018 03/02 A2975 RMK AO2,M
HTH,2025-03-06 00:35,-118.6315,38.5448,1282.89,39.20,39.20,100.00,330.00,7.00,0.00,29.74,M,2.50,M,BKN,OVC,M,M,700.00,1300.00,M,M,BR,M,M,M,M,M,M,33.56,KHTH 060035Z AUTO 33007KT 2 1/2SM BR BKN007 OVC013 04/04 A2974 RMK A01,M
EKO,2025-03-06 00:40,-115.7860,40.8242,1367.00,36.00,35.00,96.11,40.00,7.00,0.01,29.70,M,9.00,M,FEW,BKN,OVC,M,700.00,1100.00,2500.00,M,-RA,M,M,M,M,M,M,29.65,KEKO 060040Z AUTO 04007KT 9SM -RA FEW007 BKN011 OVC025 02/02 A2970 RMK AO2 RAE07B35UPB07E35 P0001 T00220017,M
10U,2025-03-06 00:40,-116.1876,41.9532,1637.00,35.60,32.00,86.59,0.00,0.00,0.00,29.72,M,5.00,M,CLR,M,M,M,M,M,M,M,-SN,M,M,M,M,M,M,35.60,K10U 060040Z AUTO 00000KT 5SM -SN CLR 02/00 A2972 RMK AO2,M
MEV,2025-03-06 00:45,-119.7500,38.9963,1441.42,37.40,35.60,93.14,190.00,5.00,0.00,29.75,M,10.00,M,FEW,SCT,BKN,M,800.00,1400.00,1800.00,M,-RA,M,M,M,M,M,M,32.81,KMEV 060045Z AUTO 19005KT 10SM -RA FEW008 SCT014 BKN018 03/02 A2975 RMK AO2,M
RTS,2025-03-06 00:45,-119.8764,39.6682,1539.00,35.60,32.00,86.59,310.00,7.00,0.00,29.76,M,M,M,M,M,M,M,M,M,M,M,-DZ,M,M,M,M,M,M,29.17,KRTS 060045Z AUTO 31007KT -DZ 02/M00 A2976 RMK AO2,M
TMT,2025-03-06 00:50,-117.1971,39.4643,1749.34,34.70,33.80,96.47,110.00,3.00,0.00,29.70,M,10.00,M,BKN,OVC,M,M,1100.00,2000.00,M,M,-RA,M,M,M,M,M,M,31.78,KTMT 060050Z AUTO 11003KT 10SM -RA BKN011 OVC020 02/01 A2970 RMK AO2 T00150010,M
DRA,2025-03-06 00:53,-116.0278,36.6206,1009.00,50.00,42.00,73.87,190.00,8.00,0.01,29.76,1006.30,10.00,15.00,BKN,OVC,M,M,3800.00,4900.00,M,M,-RA,M,M,M,M,M,M,50.00,KDRA 060053Z AUTO 19008G15KT 10SM -RA BKN038 OVC049 10/06 A2976 RMK AO2 SLP063 P0001 T01000056,M
ELY,2025-03-06 00:53,-114.8453,39.2950,1909.00,46.00,36.00,67.90,170.00,18.00,T,29.70,1001.60,8.00,29.00,FEW,BKN,OVC,M,2100.00,3200.00,5500.00,M,-RA,M,M,M,29.00,170.00,2025-03-06 00:32,38.18,KELY 060053Z AUTO 17018G29KT 8SM -RA FEW021 BKN032 OVC055 08/02 A2970 RMK AO2 PK WND 17029/0032 SLP016 P0000 T00780022,M
VGT,2025-03-06 00:53,-115.1933,36.2111,667.00,60.00,36.00,40.61,250.00,14.00,T,29.76,1008.90,10.00,23.00,OVC,M,M,M,8000.00,M,M,M,M,M,M,M,28.00,250.00,2025-03-06 00:13,60.00,KVGT 060053Z 25014G23KT 10SM OVC080 16/02 A2976 RMK AO2 PK WND 25028/0013 RAB2356E06B38E49 SLP089 P0000 T01560022 $,M
LOL,2025-03-06 00:53,-118.5701,40.0684,1192.43,35.00,34.00,96.09,0.00,0.00,0.04,29.72,1007.30,6.00,M,SCT,OVC,M,M,600.00,2400.00,M,M,-RA BR,M,M,M,M,M,M,35.00,KLOL 060053Z AUTO 00000KT 6SM -RA BR SCT006 OVC024 02/01 A2972 RMK AO2 SLP073 P0004 T00170011,M
P68,2025-03-06 00:53,-116.0056,39.6014,1993.00,36.00,33.00,88.73,120.00,10.00,0.00,29.69,1004.20,M,M,M,M,M,M,M,M,M,M,M,M,M,M,M,M,M,27.98,KP68 060053Z AUTO 12010KT 02/01 A2969 RMK AO1 SLP042 T00220006,M
LSV,2025-03-06 00:54,-115.0343,36.2362,570.00,63.00,34.00,33.72,290.00,20.00,T,29.71,1005.20,10.00,M,OVC,M,M,M,8000.00,M,M,M,-RA,M,M,M,M,M,M,63.00,KLSV 060054Z 29020KT 10SM -RA OVC080 17/01 A2971 RMK AO2A RAB54 SLP052 P0000 T01720012 $,M
BVU,2025-03-06 00:55,-114.8611,35.9475,671.00,64.40,21.20,18.96,170.00,12.00,0.00,29.74,M,10.00,20.00,FEW,M,M,M,11000.00,M,M,M,M,M,M,M,M,M,M,64.40,KBVU 060055Z AUTO 17012G20KT 10SM FEW110 18/M06 A2974 RMK AO2,M
RNO,2025-03-06 00:55,-119.7711,39.4839,1341.00,38.00,35.00,88.83,20.00,5.00,0.02,29.75,1006.90,10.00,M,BKN,OVC,M,M,3200.00,4500.00,M,M,-RA,M,M,M,M,M,M,33.52,KRNO 060055Z 02005KT 10SM -RA BKN032 OVC045 03/02 A2975 RMK AO2 SLP069 P0002 T00330017 $,M
BAM,2025-03-06 00:55,-116.8743,40.5990,1382.36,35.60,33.80,93.08,320.00,7.00,0.00,29.70,M,7.00,M,OVC,M,M,M,1400.00,M,M,M,M,M,M,M,M,M,M,29.17,KBAM 060055Z AUTO 32007KT 7SM OVC014 02/01 A2970 RMK AO1,M
CXP,2025-03-06 00:55,-119.7326,39.1923,1431.00,37.40,33.80,86.69,0.00,0.00,0.01,29.76,M,3.00,M,SCT,BKN,BKN,M,800.00,1400.00,2800.00,M,-RA BR,M,M,M,M,M,M,37.40,KCXP 060055Z AUTO 00000KT 3SM -RA BR SCT008 BKN014 BKN028 03/01 A2976 RMK AO2 P0001,M
HTH,2025-03-06 00:55,-118.6315,38.5448,1282.89,39.20,37.40,93.19,350.00,5.00,0.01,29.74,M,4.00,M,FEW,OVC,M,M,800.00,1200.00,M,M,BR,M,M,M,M,M,M,34.95,KHTH 060055Z AUTO 35005KT 4SM BR FEW008 OVC012 04/03 A2974 RMK A01 P0001,M
INS,2025-03-06 00:55,-115.6733,36.5872,955.00,47.70,43.30,84.62,360.00,9.00,0.07,29.77,1007.10,7.00,M,SCT,SCT,M,M,400.00,4000.00,M,M,RA,M,M,M,M,M,M,43.04,KINS 060055Z AUTO 36009KT 7SM RA SCT004 SCT040 09/06 A2977 RMK AO2 SLP071 P0007 T00870063 $,M
EKO,2025-03-06 00:56,-115.7860,40.8242,1367.00,36.00,35.00,96.11,50.00,7.00,0.01,29.69,1006.50,9.00,M,FEW,BKN,OVC,M,1200.00,2000.00,2500.00,M,-RA,M,M,M,M,M,M,29.65,KEKO 060056Z AUTO 05007KT 9SM -RA FEW012 BKN020 OVC025 02/02 A2969 RMK AO2 RAE07B35UPB07E35 SLP065 P0001 T00220017,M
HND,2025-03-06 00:56,-115.1344,35.9729,742.79,58.00,34.00,40.28,270.00,13.00,0.00,29.78,1009.90,10.00,17.00,OVC,M,M,M,8000.00,M,M,M,M,M,M,M,M,M,M,58.00,KHND 060056Z 27013G17KT 10SM OVC080 14/01 A2978 RMK AO2 SLP099 T01440011 $,M
TPH,2025-03-06 00:56,-117.0904,38.0505,1654.00,39.00,31.00,72.75,160.00,10.00,0.00,29.71,1005.40,10.00,M,OVC,M,M,M,1800.00,M,M,M,M,M,M,M,M,M,M,31.75,KTPH 060056Z AUTO 16010KT 10SM OVC018 04/M01 A2971 RMK AO2 SLP054 T00391006 $,M
LAS,2025-03-06 00:56,-115.1634,36.0719,663.00,60.00,34.00,37.50,250.00,11.00,0.00,29.77,1007.30,10.00,23.00,BKN,BKN,OVC,M,8000.00,9500.00,15000.00,M,M,M,M,M,M,M,M,60.00,KLAS 060056Z 25011G23KT 10SM BKN080 BKN095 OVC150 16/01 A2977 RMK AO2 SLP073 VCSH T01560011,M
WMC,2025-03-06 00:56,-117.8072,40.9019,1315.00,M,M,M,M,M,0.00,29.70,M,M,M,M,M,M,M,M,M,M,M,M,M,M,M,M,M,M,M,KWMC 060056Z AUTO A2970 RMK AO2 SLPNO PWINO FZRANO TSNO,M
NFL,2025-03-06 00:57,-118.7010,39.4166,1199.00,39.00,36.00,88.87,310.00,8.00,0.03,29.73,1004.70,7.00,M,OVC,M,M,M,1200.00,M,M,M,-RA,M,M,M,M,M,M,32.74,KNFL 060057Z 31008KT 7SM -RA OVC012 04/02 A2973 RMK AO2 SLP047 WR// P0003 T00390022,M
10U,2025-03-06 01:00,-116.1876,41.9532,1637.00,33.80,32.00,93.03,0.00,0.00,0.00,29.71,M,2.50,M,CLR,M,M,M,M,M,M,M,-SN,M,M,M,M,M,M,33.80,K10U 060100Z AUTO 00000KT 2 1/2SM -SN CLR 01/00 A2971 RMK AO2,M
LOL,2025-03-06 01:01,-118.5701,40.0684,1192.43,35.00,34.00,96.09,80.00,3.00,T,29.72,M,6.00,M,BKN,OVC,M,M,600.00,2200.00,M,M,-RA BR,M,M,M,M,M,M,32.12,KLOL 060101Z AUTO 08003KT 6SM -RA BR BKN006 OVC022 02/01 A2972 RMK AO2 P0000 T00170011,M
INS,2025-03-06 01:10,-115.6733,36.5872,955.00,48.20,42.80,81.47,360.00,5.00,0.00,29.77,1007.10,7.00,M,BKN,BKN,OVC,M,400.00,900.00,5000.00,M,RA,M,M,M,M,M,M,45.63,KINS 060110Z AUTO 36005KT 7SM RA BKN004 BKN009 OVC050 09/06 A2977 RMK AO2 CIG 004V050 BKN004 V SCT SLP071 $,M
TMT,2025-03-06 01:10,-117.1971,39.4643,1749.34,34.70,33.80,96.47,80.00,3.00,0.00,29.68,M,10.00,M,SCT,BKN,OVC,M,1100.00,2000.00,3400.00,M,-RA,M,M,M,M,M,M,31.78,KTMT 060110Z AUTO 08003KT 10SM -RA SCT011 BKN020 OVC034 02/01 A2968 RMK AO2 T00150010,M
BVU,2025-03-06 01:15,-114.8611,35.9475,671.00,64.40,23.00,20.46,190.00,11.00,0.00,29.75,M,10.00,18.00,SCT,BKN,M,M,8000.00,11000.00,M,M,M,M,M,M,M,M,M,64.40,KBVU 060115Z AUTO 19011G18KT 10SM SCT080 BKN110 18/M05 A2975 RMK AO2,M
BAM,2025-03-06 01:15,-116.8743,40.5990,1382.36,35.60,33.80,93.08,320.00,8.00,0.00,29.69,M,5.00,M,SCT,OVC,M,M,300.00,1200.00,M,M,M,M,M,M,M,M,M,28.55,KBAM 060115Z AUTO 32008KT 5SM SCT003 OVC012 02/01 A2969 RMK AO1,M
CXP,2025-03-06 01:15,-119.7326,39.1923,1431.00,35.60,33.80,93.08,0.00,0.00,0.00,29.76,M,4.00,M,BKN,BKN,M,M,900.00,1400.00,M,M,UP BR,M,M,M,M,M,M,35.60,KCXP 060115Z AUTO 00000KT 4SM UP BR BKN009 BKN014 02/01 A2976 RMK AO2,M
RTS,2025-03-06 01:15,-119.8764,39.6682,1539.00,33.80,32.00,93.03,300.00,15.00,0.00,29.76,M,M,M,M,M,M,M,M,M,M,M,-SN,M,M,M,M,M,M,23.11,KRTS 060115Z AUTO 30015KT -SN 01/M00 A2976 RMK AO2,M
MEV,2025-03-06 01:15,-119.7500,38.9963,1441.42,37.40,33.80,86.69,260.00,6.00,0.00,29.74,M,10.00,12.00,FEW,SCT,BKN,M,1300.00,3100.00,3700.00,M,M,M,M,M,M,M,M,32.03,KMEV 060115Z AUTO 26006G12KT 10SM FEW013 SCT031 BKN037 03/01 A2974 RMK AO2,M
HTH,2025-03-06 01:15,-118.6315,38.5448,1282.89,39.20,37.40,93.19,330.00,6.00,0.00,29.74,M,10.00,M,OVC,M,M,M,1200.00,M,M,M,M,M,M,M,M,M,M,34.20,KHTH 060115Z AUTO 33006KT 10SM OVC012 04/03 A2974 RMK A01,M
10U,2025-03-06 01:20,-116.1876,41.9532,1637.00,33.80,32.00,93.03,0.00,0.00,0.00,29.70,M,2.00,M,SCT,M,M,M,400.00,M,M,M,-SN,M,M,M,M,M,M,33.80,K10U 060120Z AUTO 00000KT 2SM -SN SCT004 01/00 A2970 RMK AO2,M
NFL,2025-03-06 01:25,-118.7010,39.4166,1199.00,40.00,36.00,85.48,300.00,5.00,0.01,29.72,M,9.00,M,FEW,OVC,M,M,1200.00,4100.00,M,M,M,M,M,M,M,M,M,35.90,KNFL 060125Z 30005KT 9SM FEW012 OVC041 04/02 A2972 RMK AO2 RAE22 WR// P0001 T00440022,M
RTS,2025-03-06 01:25,-119.8764,39.6682,1539.00,33.80,30.20,86.49,310.00,12.00,0.00,29.76,M,M,18.00,M,M,M,M,M,M,M,M,-SN,M,M,M,M,M,M,24.29,KRTS 060125Z AUTO 31012G18KT -SN 01/M01 A2976 RMK AO2,M
MEV,2025-03-06 01:25,-119.7500,38.9963,1441.42,37.40,33.80,86.69,270.00,7.00,0.00,29.74,M,10.00,M,BKN,OVC,M,M,3500.00,4400.00,M,M,M,M,M,M,M,M,M,31.36,KMEV 060125Z AUTO 27007KT 10SM BKN035 OVC044 03/01 A2974 RMK AO2,M
EKO,2025-03-06 01:28,-115.7860,40.8242,1367.00,35.00,34.00,96.09,40.00,8.00,0.01,29.68,M,10.00,M,FEW,BKN,OVC,M,600.00,2000.00,3200.00,M,-RA,M,M,M,M,M,M,27.81,KEKO 060128Z AUTO 04008KT 10SM -RA FEW006 BKN020 OVC032 02/01 A2968 RMK AO2 UPB04E25 P0001 T00170011,M
LOL,2025-03-06 01:29,-118.5701,40.0684,1192.43,35.00,34.00,96.09,110.00,3.00,0.01,29.72,M,10.00,M,SCT,SCT,OVC,M,600.00,1100.00,3500.00,M,-RA,M,M,M,M,M,M,32.12,KLOL 060129Z AUTO 11003KT 10SM -RA SCT006 SCT011 OVC035 02/01 A2972 RMK AO2 P0001 T00170011,M
TMT,2025-03-06 01:30,-117.1971,39.4643,1749.34,34.00,33.80,99.20,70.00,3.00,0.00,29.68,M,10.00,M,SCT,BKN,OVC,M,1300.00,2800.00,3500.00,M,-RA,M,M,M,M,M,M,30.97,KTMT 060130Z AUTO 07003KT 10SM -RA SCT013 BKN028 OVC035 01/01 A2968 RMK AO2 T00120010,M
LSV,2025-03-06 01:34,-115.0343,36.2362,570.00,60.80,35.60,38.85,280.00,13.00,0.00,29.74,1006.40,10.00,M,OVC,M,M,M,7500.00,M,M,M,M,M,M,M,M,M,M,60.80,KLSV 060134Z COR 28013KT 10SM OVC075 16/02 A2974 RMK AO2A RAE35 SLP064 $ COR 0140,M
BVU,2025-03-06 01:35,-114.8611,35.9475,671.00,64.40,23.00,20.46,190.00,12.00,0.00,29.75,M,10.00,17.00,OVC,M,M,M,8000.00,M,M,M,M,M,M,M,M,M,M,64.40,KBVU 060135Z AUTO 19012G17KT 10SM OVC080 18/M05 A2975 RMK AO2,M
BAM,2025-03-06 01:35,-116.8743,40.5990,1382.36,35.60,33.80,93.08,330.00,7.00,0.00,29.69,M,7.00,M,SCT,OVC,M,M,300.00,1200.00,M,M,M,M,M,M,M,M,M,29.17,KBAM 060135Z AUTO 33007KT 7SM SCT003 OVC012 02/01 A2969 RMK AO1,M
CXP,2025-03-06 01:35,-119.7326,39.1923,1431.00,35.60,33.80,93.08,0.00,0.00,0.00,29.75,M,9.00,M,FEW,SCT,OVC,M,800.00,2900.00,4800.00,M,-RA,M,M,M,M,M,M,35.60,KCXP 060135Z AUTO 00000KT 9SM -RA FEW008 SCT029 OVC048 02/01 A2975 RMK AO2,M
HTH,2025-03-06 01:35,-118.6315,38.5448,1282.89,39.20,37.40,93.19,340.00,7.00,0.00,29.74,M,10.00,M,BKN,OVC,M,M,1500.00,4000.00,M,M,M,M,M,M,M,M,M,33.56,KHTH 060135Z AUTO 34007KT 10SM BKN015 OVC040 04/03 A2974 RMK A01,M
10U,2025-03-06 01:40,-116.1876,41.9532,1637.00,33.80,32.00,93.03,0.00,0.00,0.00,29.69,M,4.00,M,FEW,M,M,M,400.00,M,M,M,-SN,M,M,M,M,M,M,33.80,K10U 060140Z AUTO 00000KT 4SM -SN FEW004 01/00 A2969 RMK AO2,M
NFL,2025-03-06 01:43,-118.7010,39.4166,1199.00,39.00,36.00,88.87,290.00,6.00,0.01,29.72,M,8.00,M,BKN,OVC,M,M,1400.00,4500.00,M,M,-RA,M,M,M,M,M,M,33.96,KNFL 060143Z 29006KT 8SM -RA BKN014 OVC045 04/02 A2972 RMK AO2 RAE22B39 WR// P0001 T00390022,M
INS,2025-03-06 01:45,-115.6733,36.5872,955.00,46.40,42.80,87.19,340.00,4.00,0.00,29.77,1007.10,9.00,M,SCT,BKN,BKN,BKN,400.00,2200.00,3600.00,4300.00,-RA,M,M,M,M,M,M,44.24,KINS 060145Z AUTO 34004KT 9SM -RA SCT004 BKN022 BKN036 BKN043 OVC050 08/06 A2977 RMK AO2 CIG 004V028 SLP071 $,M
INS,2025-03-06 01:50,-115.6733,36.5872,955.00,46.40,42.80,87.19,350.00,5.00,0.00,29.77,1007.10,9.00,M,SCT,SCT,BKN,OVC,400.00,2300.00,3600.00,4300.00,RA,M,M,M,M,M,M,43.50,KINS 060150Z AUTO 35005KT 9SM RA SCT004 SCT023 BKN036 OVC043 08/06 A2977 RMK AO2 SLP071 $,M
TMT,2025-03-06 01:50,-117.1971,39.4643,1749.34,33.40,33.30,99.60,70.00,3.00,0.00,29.67,M,10.00,M,SCT,BKN,OVC,M,1500.00,3000.00,3700.00,M,-DZ,M,M,M,M,M,M,30.29,KTMT 060150Z AUTO 07003KT 10SM -DZ SCT015 BKN030 OVC037 01/01 A2967 RMK AO2 T00080007,M
P68,2025-03-06 01:53,-116.0056,39.6014,1993.00,37.00,32.00,81.93,120.00,9.00,0.00,29.66,1003.40,M,M,M,M,M,M,M,M,M,M,M,M,M,M,M,M,M,29.73,KP68 060153Z AUTO 12009KT 03/00 A2966 RMK AO1 SLP034 T00280000,M
DRA,2025-03-06 01:53,-116.0278,36.6206,1009.00,50.00,43.00,76.76,160.00,8.00,0.02,29.75,1005.80,10.00,M,OVC,M,M,M,3700.00,M,M,M,-RA,M,M,M,M,M,M,50.00,KDRA 060153Z AUTO 16008KT 10SM -RA OVC037 10/06 A2975 RMK AO2 SLP058 P0002 T01000061,M
ELY,2025-03-06 01:53,-114.8453,39.2950,1909.00,45.00,35.00,67.78,180.00,17.00,0.01,29.70,1002.60,5.00,25.00,OVC,M,M,M,3900.00,M,M,M,-RA,M,M,M,37.00,170.00,2025-03-06 01:04,37.11,KELY 060153Z AUTO 18017G25KT 5SM -RA OVC039 07/02 A2970 RMK AO2 PK WND 17037/0104 SLP026 P0001 T00720017,M
VGT,2025-03-06 01:53,-115.1933,36.2111,667.00,56.00,42.00,59.26,240.00,12.00,T,29.78,1009.80,10.00,M,OVC,M,M,M,6000.00,M,M,M,-RA,M,M,M,M,M,M,56.00,KVGT 060153Z 24012KT 10SM -RA OVC060 13/06 A2978 RMK AO2 RAB24 SLP098 P0000 T01330056 $,M
LOL,2025-03-06 01:53,-118.5701,40.0684,1192.43,35.00,33.00,92.32,60.00,3.00,0.01,29.71,1006.80,10.00,M,OVC,M,M,M,4300.00,M,M,M,-RA,M,M,M,M,M,M,32.12,KLOL 060153Z AUTO 06003KT 10SM -RA OVC043 02/01 A2971 RMK AO2 SLP068 P0001 T00170006,M
BVU,2025-03-06 01:55,-114.8611,35.9475,671.00,62.60,24.80,23.50,180.00,14.00,0.00,29.76,M,10.00,M,OVC,M,M,M,8000.00,M,M,M,M,M,M,M,M,M,M,62.60,KBVU 060155Z AUTO 18014KT 10SM OVC080 17/M04 A2976 RMK AO2,M
RNO,2025-03-06 01:55,-119.7711,39.4839,1341.00,37.00,33.00,85.29,320.00,3.00,T,29.75,1006.60,10.00,M,BKN,OVC,M,M,3100.00,4800.00,M,M,-RA,M,M,M,M,M,M,34.40,KRNO 060155Z 32003KT 10SM -RA BKN031 OVC048 03/01 A2975 RMK AO2 RAE10B29 SLP066 P0000 T00280006 $,M
BAM,2025-03-06 01:55,-116.8743,40.5990,1382.36,33.80,33.80,100.00,330.00,6.00,0.00,29.68,M,10.00,M,OVC,M,M,M,1200.00,M,M,M,M,M,M,M,M,M,M,27.70,KBAM 060155Z AUTO 33006KT 10SM OVC012 01/01 A2968 RMK AO1,M
CXP,2025-03-06 01:55,-119.7326,39.1923,1431.00,37.40,35.60,93.14,0.00,0.00,0.03,29.75,M,10.00,M,SCT,BKN,OVC,M,2700.00,4500.00,5000.00,M,M,M,M,M,M,M,M,37.40,KCXP 060155Z AUTO 00000KT 10SM SCT027 BKN045 OVC050 03/02 A2975 RMK AO2 P0003,M
RTS,2025-03-06 01:55,-119.8764,39.6682,1539.00,33.80,30.20,86.49,340.00,7.00,0.00,29.74,M,M,M,M,M,M,M,M,M,M,M,M,M,M,M,M,M,M,26.97,KRTS 060155Z AUTO 34007KT 01/M01 A2974 RMK AO2,M
MEV,2025-03-06 01:55,-119.7500,38.9963,1441.42,37.40,32.00,80.65,220.00,7.00,0.00,29.74,M,10.00,M,FEW,SCT,BKN,M,3100.00,4000.00,4800.00,M,M,M,M,M,M,M,M,31.36,KMEV 060155Z AUTO 22007KT 10SM FEW031 SCT040 BKN048 03/00 A2974 RMK AO2,M
HTH,2025-03-06 01:55,-118.6315,38.5448,1282.89,39.20,37.40,93.19,310.00,4.00,0.00,29.73,M,10.00,M,OVC,M,M,M,1500.00,M,M,M,M,M,M,M,M,M,M,35.83,KHTH 060155Z AUTO 31004KT 10SM OVC015 04/03 A2973 RMK A01,M
INS,2025-03-06 01:55,-115.6733,36.5872,955.00,46.40,43.30,88.87,320.00,4.00,0.11,29.76,1006.80,10.00,M,SCT,SCT,BKN,OVC,400.00,3600.00,4400.00,5000.00,-RA,M,M,M,M,M,M,44.24,KINS 060155Z AUTO 32004KT 10SM -RA SCT004 SCT036 BKN044 OVC050 08/06 A2976 RMK AO2 SLP068 P0011 T00800063 $,M
LSV,2025-03-06 01:55,-115.0343,36.2362,570.00,60.00,36.70,41.75,250.00,15.00,T,29.74,1006.40,10.00,19.00,OVC,M,M,M,6000.00,M,M,M,M,M,M,M,M,M,M,60.00,KLSV 060155Z 25015G19KT 10SM OVC060 16/03 A2974 RMK AO2A RAB0054E0135 SLP064 P0000 T01550026 $,M
EKO,2025-03-06 01:56,-115.7860,40.8242,1367.00,35.00,34.00,96.09,40.00,4.00,0.02,29.67,1006.10,10.00,M,SCT,BKN,OVC,M,700.00,1800.00,3300.00,M,UP,M,M,M,M,M,M,30.92,KEKO 060156Z AUTO 04004KT 10SM UP SCT007 BKN018 OVC033 02/01 A2967 RMK AO2 RAE40UPB04E25B40 SLP061 P0002 T00170011,M
HND,2025-03-06 01:56,-115.1344,35.9729,742.79,59.00,32.00,35.87,M,5.00,0.00,29.79,1010.30,10.00,M,OVC,M,M,M,7000.00,M,M,M,M,M,M,M,M,M,M,59.00,KHND 060156Z VRB05KT 10SM OVC070 15/00 A2979 RMK AO2 SLP103 T01500000 $,M
TPH,2025-03-06 01:56,-117.0904,38.0505,1654.00,38.00,31.00,75.65,160.00,12.00,0.00,29.69,1005.00,10.00,M,OVC,M,M,M,1600.00,M,M,M,M,M,M,M,M,M,M,29.64,KTPH 060156Z AUTO 16012KT 10SM OVC016 03/M01 A2969 RMK AO2 SLP050 T00331006 $,M
LAS,2025-03-06 01:56,-115.1634,36.0719,663.00,56.00,37.00,48.77,240.00,15.00,T,29.79,1008.20,10.00,29.00,BKN,BKN,OVC,M,7000.00,9500.00,15000.00,M,M,M,M,M,29.00,260.00,2025-03-06 01:47,56.00,KLAS 060156Z 24015G29KT 10SM BKN070 BKN095 OVC150 13/03 A2979 RMK AO2 PK WND 26029/0147 RAB23E32 SLP082 VCSH P0000 T01330028,M
WMC,2025-03-06 01:56,-117.8072,40.9019,1315.00,M,M,M,M,M,0.00,29.69,M,M,M,M,M,M,M,M,M,M,M,M,M,M,M,M,M,M,M,KWMC 060156Z AUTO A2969 RMK AO2 SLPNO PWINO FZRANO TSNO,M
NFL,2025-03-06 01:57,-118.7010,39.4166,1199.00,40.00,37.00,88.92,280.00,6.00,0.01,29.72,1004.50,10.00,M,BKN,OVC,M,M,1200.00,1900.00,M,M,-RA,M,M,M,M,M,M,35.17,KNFL 060157Z 28006KT 10SM -RA BKN012 OVC019 04/03 A2972 RMK AO2 RAE22B39 SLP045 WR// P0001 T00440028,M
LSV,2025-03-06 02:00,-115.0343,36.2362,570.00,59.00,37.40,44.47,270.00,15.00,0.00,29.74,1006.40,10.00,M,OVC,M,M,M,6500.00,M,M,M,-RA,M,M,M,M,M,M,59.00,KLSV 060200Z 27015KT 10SM -RA OVC065 15/03 A2974 RMK AO2A RAB00 SLP064 $,M
10U,2025-03-06 02:00,-116.1876,41.9532,1637.00,33.80,32.00,93.03,0.00,0.00,0.00,29.68,M,9.00,M,SCT,BKN,M,M,300.00,700.00,M,M,-SN,M,M,M,M,M,M,33.80,K10U 060200Z AUTO 00000KT 9SM -SN SCT003 BKN007 01/00 A2968 RMK AO2,M
EKO,2025-03-06 02:07,-115.7860,40.8242,1367.00,35.00,34.00,96.09,50.00,6.00,T,29.67,M,10.00,M,BKN,OVC,M,M,500.00,1800.00,M,M,UP,M,M,M,M,M,M,29.14,KEKO 060207Z AUTO 05006KT 10SM UP BKN005 OVC018 02/01 A2967 RMK AO2 CIG 004V009 P0000 T00170011,M
TPH,2025-03-06 02:10,-117.0904,38.0505,1654.00,38.00,31.00,75.65,170.00,10.00,0.00,29.69,M,10.00,M,OVC,M,M,M,1400.00,M,M,M,M,M,M,M,M,M,M,30.49,KTPH 060210Z AUTO 17010KT 10SM OVC014 03/M01 A2969 RMK AO2 T00331006 $,M
TMT,2025-03-06 02:10,-117.1971,39.4643,1749.34,33.30,33.00,98.80,0.00,0.00,0.00,29.67,M,10.00,M,OVC,M,M,M,1300.00,M,M,M,-DZ,M,M,M,M,M,M,33.30,KTMT 060210Z AUTO 00000KT 10SM -DZ OVC013 01/01 A2967 RMK AO2 T00070006,M
NFL,2025-03-06 02:12,-118.7010,39.4166,1199.00,40.00,36.00,85.48,280.00,5.00,T,29.72,M,10.00,M,FEW,BKN,OVC,M,1200.00,1800.00,3800.00,M,-RA,M,M,M,M,M,M,35.90,KNFL 060212Z 28005KT 10SM -RA FEW012 BKN018 OVC038 04/02 A2972 RMK AO2 WR// P0000 T00440022,M
BVU,2025-03-06 02:15,-114.8611,35.9475,671.00,60.80,30.20,31.28,280.00,6.00,0.00,29.76,M,10.00,12.00,BKN,OVC,M,M,7000.00,9000.00,M,M,M,M,M,M,M,M,M,60.80,KBVU 060215Z AUTO 28006G12KT 10SM BKN070 OVC090 16/M01 A2976 RMK AO2,M
BAM,2025-03-06 02:15,-116.8743,40.5990,1382.36,33.80,33.80,100.00,320.00,6.00,0.00,29.68,M,5.00,M,OVC,M,M,M,1200.00,M,M,M,M,M,M,M,M,M,M,27.70,KBAM 060215Z AUTO 32006KT 5SM OVC012 01/01 A2968 RMK AO1,M
CXP,2025-03-06 02:15,-119.7326,39.1923,1431.00,37.40,35.60,93.14,210.00,4.00,0.00,29.75,M,10.00,M,FEW,SCT,BKN,M,2700.00,4400.00,4900.00,M,M,M,M,M,M,M,M,33.73,KCXP 060215Z AUTO 21004KT 10SM FEW027 SCT044 BKN049 03/02 A2975 RMK AO2,M
RTS,2025-03-06 02:15,-119.8764,39.6682,1539.00,33.80,30.20,86.49,0.00,0.00,0.00,29.74,M,M,M,M,M,M,M,M,M,M,M,M,M,M,M,M,M,M,33.80,KRTS 060215Z AUTO 00000KT 01/M01 A2974 RMK AO2,M
MEV,2025-03-06 02:15,-119.7500,38.9963,1441.42,35.60,30.20,80.51,240.00,12.00,0.00,29.73,M,10.00,M,FEW,BKN,OVC,M,4700.00,5500.00,6500.00,M,M,M,M,M,M,M,M,26.58,KMEV 060215Z AUTO 24012KT 10SM FEW047 BKN055 OVC065 02/M01 A2973 RMK AO2,M
HTH,2025-03-06 02:15,-118.6315,38.5448,1282.89,39.20,37.40,93.19,310.00,5.00,0.00,29.73,M,10.00,M,OVC,M,M,M,1600.00,M,M,M,M,M,M,M,M,M,M,34.95,KHTH 060215Z AUTO 31005KT 10SM OVC016 04/03 A2973 RMK A01,M
LOL,2025-03-06 02:16,-118.5701,40.0684,1192.43,35.00,33.00,92.32,0.00,0.00,0.01,29.71,M,10.00,M,FEW,SCT,OVC,M,600.00,1900.00,3700.00,M,-RA,M,M,M,M,M,M,35.00,KLOL 060216Z AUTO 00000KT 10SM -RA FEW006 SCT019 OVC037 02/01 A2971 RMK AO2 P0001 T00170006,M
10U,2025-03-06 02:20,-116.1876,41.9532,1637.00,33.80,32.00,93.03,0.00,0.00,0.00,29.68,M,3.00,M,OVC,M,M,M,300.00,M,M,M,-SN,M,M,M,M,M,M,33.80,K10U 060220Z AUTO 00000KT 3SM -SN OVC003 01/00 A2968 RMK AO2,M
NFL,2025-03-06 02:27,-118.7010,39.4166,1199.00,40.00,37.00,88.92,270.00,6.00,0.01,29.71,M,9.00,M,SCT,BKN,OVC,M,1700.00,2400.00,3700.00,M,-RA,M,M,M,M,M,M,35.17,KNFL 060227Z 27006KT 9SM -RA SCT017 BKN024 OVC037 04/03 A2971 RMK AO2 WR// P0001 T00440028,M
LOL,2025-03-06 02:30,-118.5701,40.0684,1192.43,34.00,34.00,100.00,0.00,0.00,0.02,29.70,M,8.00,M,FEW,SCT,OVC,M,800.00,1900.00,2700.00,M,-RA,M,M,M,M,M,M,34.00,KLOL 060230Z AUTO 00000KT 8SM -RA FEW008 SCT019 OVC027 01/01 A2970 RMK AO2 P0002 T00110011,M
TMT,2025-03-06 02:30,-117.1971,39.4643,1749.34,33.30,33.00,98.80,310.00,4.00,0.00,29.66,M,10.00,M,SCT,OVC,M,M,200.00,1100.00,M,M,-DZ,M,M,M,M,M,M,28.94,KTMT 060230Z AUTO 31004KT 10SM -DZ SCT002 OVC011 01/01 A2966 RMK AO2 T00070006,M
ELY,2025-03-06 02:31,-114.8453,39.2950,1909.00,46.00,35.00,65.26,180.00,12.00,0.01,29.70,M,3.00,23.00,BKN,OVC,M,M,2500.00,3400.00,M,M,-RA,M,M,M,M,M,M,39.82,KELY 060231Z AUTO 18012G23KT 3SM -RA BKN025 OVC034 08/02 A2970 RMK AO2 P0001 T00780017,M
BVU,2025-03-06 02:35,-114.8611,35.9475,671.00,60.80,28.40,29.06,260.00,6.00,0.00,29.76,M,10.00,M,OVC,M,M,M,6500.00,M,M,M,M,M,M,M,M,M,M,60.80,KBVU 060235Z AUTO 26006KT 10SM OVC065 16/M02 A2976 RMK AO2,M
BAM,2025-03-06 02:35,-116.8743,40.5990,1382.36,33.80,33.80,100.00,320.00,5.00,0.00,29.68,M,7.00,M,OVC,M,M,M,1200.00,M,M,M,M,M,M,M,M,M,M,28.53,KBAM 060235Z AUTO 32005KT 7SM OVC012 01/01 A2968 RMK AO1,M
CXP,2025-03-06 02:35,-119.7326,39.1923,1431.00,35.60,33.80,93.08,60.00,3.00,0.00,29.74,M,10.00,M,SCT,BKN,OVC,M,4800.00,6000.00,7000.00,M,M,M,M,M,M,M,M,32.80,KCXP 060235Z AUTO 06003KT 10SM SCT048 BKN060 OVC070 02/01 A2974 RMK AO2,M
RTS,2025-03-06 02:35,-119.8764,39.6682,1539.00,33.80,30.20,86.49,0.00,0.00,0.00,29.73,M,M,M,SCT,OVC,M,M,3900.00,4800.00,M,M,M,M,M,M,M,M,M,33.80,KRTS 060235Z AUTO 00000KT SCT039 OVC048 01/M01 A2973 RMK AO2,M
MEV,2025-03-06 02:35,-119.7500,38.9963,1441.42,35.60,30.20,80.51,300.00,4.00,0.00,29.73,M,10.00,11.00,SCT,BKN,OVC,M,3900.00,4500.00,6500.00,M,M,M,M,M,M,M,M,31.62,KMEV 060235Z AUTO 30004G11KT 10SM SCT039 BKN045 OVC065 02/M01 A2973 RMK AO2,M
HTH,2025-03-06 02:35,-118.6315,38.5448,1282.89,39.20,35.60,86.79,280.00,5.00,0.00,29.73,M,10.00,M,OVC,M,M,M,1600.00,M,M,M,M,M,M,M,M,M,M,34.95,KHTH 060235Z AUTO 28005KT 10SM OVC016 04/02 A2973 RMK A01,M
LSV,2025-03-06 02:39,-115.0343,36.2362,570.00,57.20,41.00,54.60,M,3.00,0.00,29.74,1006.50,10.00,M,OVC,M,M,M,6500.00,M,M,M,M,M,M,M,M,M,M,57.20,KLSV 060239Z VRB03KT 10SM OVC065 14/05 A2974 RMK RAB00E38 SLP065 $,M
10U,2025-03-06 02:40,-116.1876,41.9532,1637.00,33.80,32.00,93.03,0.00,0.00,0.00,29.67,M,2.50,M,OVC,M,M,M,300.00,M,M,M,-SN,M,M,M,M,M,M,33.80,K10U 060240Z AUTO 00000KT 2 1/2SM -SN OVC003 01/00 A2967 RMK AO2,M
NFL,2025-03-06 02:43,-118.7010,39.4166,1199.00,39.00,36.00,88.87,290.00,10.00,0.01,29.71,M,9.00,M,BKN,OVC,M,M,1400.00,2300.00,M,M,-RA,M,M,M,M,M,M,31.75,KNFL 060243Z 29010KT 9SM -RA BKN014 OVC023 04/02 A2971 RMK AO2 WR// P0001 T00390022,M
INS,2025-03-06 02:45,-115.6733,36.5872,955.00,46.40,42.80,87.19,340.00,6.00,0.00,29.74,1006.10,10.00,M,SCT,OVC,M,M,4700.00,6000.00,M,M,M,M,M,M,M,M,M,42.87,KINS 060245Z AUTO 34006KT 10SM SCT047 OVC060 08/06 A2974 RMK AO2 RAE33DZB33E45 SLP061 $,M
INS,2025-03-06 02:48,-115.6733,36.5872,955.00,46.40,42.80,87.19,350.00,6.00,0.00,29.74,1005.90,10.00,M,SCT,OVC,M,M,4700.00,6000.00,M,M,-DZ,M,M,M,M,M,M,42.87,KINS 060248Z AUTO 35006KT 10SM -DZ SCT047 OVC060 08/06 A2974 RMK AO2 RAB0155E33DZB33E45DZB48 SLP059 $,M
TMT,2025-03-06 02:50,-117.1971,39.4643,1749.34,33.00,33.00,100.00,340.00,3.00,0.00,29.65,M,7.00,M,SCT,OVC,M,M,400.00,1100.00,M,M,-SN,M,M,M,M,M,M,29.83,KTMT 060250Z AUTO 34003KT 7SM -SN SCT004 OVC011 01/01 A2965 RMK AO2 T00050005,M
P68,2025-03-06 02:53,-116.0056,39.6014,1993.00,36.00,33.00,88.73,140.00,9.00,0.00,29.63,1002.40,M,M,M,M,M,M,M,M,M,M,M,M,M,M,M,M,M,28.49,KP68 060253Z AUTO 14009KT 02/01 A2963 RMK AO1 SLP024 T00220006 58020,M
DRA,2025-03-06 02:53,-116.0278,36.6206,1009.00,50.00,43.00,76.76,170.00,13.00,0.03,29.72,1004.70,10.00,24.00,OVC,M,M,M,4700.00,M,M,M,-RA,M,M,M,M,M,M,50.00,KDRA 060253Z AUTO 17013G24KT 10SM -RA OVC047 10/06 A2972 RMK AO2 SLP047 P0003 60006 T01000061 58020,M
ELY,2025-03-06 02:53,-114.8453,39.2950,1909.00,45.00,35.00,67.78,170.00,14.00,0.01,29.67,1002.00,4.00,M,OVC,M,M,M,3200.00,M,M,M,-RA,M,M,M,M,M,M,37.92,KELY 060253Z AUTO 17014KT 4SM -RA OVC032 07/02 A2967 RMK AO2 PRESFR SLP020 P0001 60002 T00720017 56021,M
VGT,2025-03-06 02:53,-115.1933,36.2111,667.00,54.00,43.00,66.24,240.00,7.00,0.01,29.77,1009.50,10.00,M,OVC,M,M,M,6000.00,M,M,M,-RA,M,M,M,M,M,M,54.00,KVGT 060253Z 24007KT 10SM -RA OVC060 12/06 A2977 RMK AO2 SLP095 P0001 60001 T01220061 50004 $,M
LOL,2025-03-06 02:53,-118.5701,40.0684,1192.43,35.00,34.00,96.09,0.00,0.00,0.02,29.70,1006.40,9.00,M,OVC,M,M,M,2900.00,M,M,M,-RA,M,M,M,M,M,M,35.00,KLOL 060253Z AUTO 00000KT 9SM -RA OVC029 02/01 A2970 RMK AO2 SLP064 P0002 60007 T00170011 56012,M
BVU,2025-03-06 02:55,-114.8611,35.9475,671.00,60.80,28.40,29.06,230.00,6.00,0.00,29.76,M,10.00,11.00,BKN,OVC,M,M,6000.00,7500.00,M,M,M,M,M,M,M,M,M,60.80,KBVU 060255Z AUTO 23006G11KT 10SM BKN060 OVC075 16/M02 A2976 RMK AO2,M
CXP,2025-03-06 02:55,-119.7326,39.1923,1431.00,35.60,35.60,100.00,170.00,4.00,0.00,29.74,M,10.00,M,FEW,SCT,OVC,M,700.00,6500.00,7500.00,M,M,M,M,M,M,M,M,31.62,KCXP 060255Z AUTO 17004KT 10SM FEW007 SCT065 OVC075 02/02 A2974 RMK AO2,M
RNO,2025-03-06 02:55,-119.7711,39.4839,1341.00,37.00,33.00,85.29,40.00,7.00,T,29.72,1006.00,10.00,M,BKN,OVC,M,M,5000.00,8500.00,M,M,M,M,M,M,M,M,M,30.87,KRNO 060255Z 04007KT 10SM BKN050 OVC085 03/01 A2972 RMK AO2 RAE05 SLP060 P0000 60002 T00280006 58012 $,M
RTS,2025-03-06 02:55,-119.8764,39.6682,1539.00,33.80,28.40,80.36,0.00,0.00,0.00,29.73,M,M,M,SCT,BKN,OVC,M,3900.00,4900.00,6000.00,M,M,M,M,M,M,M,M,33.80,KRTS 060255Z AUTO 00000KT SCT039 BKN049 OVC060 01/M02 A2973 RMK AO2,M
MEV,2025-03-06 02:55,-119.7500,38.9963,1441.42,35.60,30.20,80.51,0.00,0.00,0.00,29.72,M,10.00,M,FEW,SCT,OVC,M,3700.00,4400.00,7000.00,M,M,M,M,M,M,M,M,35.60,KMEV 060255Z AUTO 00000KT 10SM FEW037 SCT044 OVC070 02/M01 A2972 RMK AO2,M
BAM,2025-03-06 02:55,-116.8743,40.5990,1382.36,33.80,33.80,100.00,330.00,4.00,0.00,29.67,M,2.50,M,SCT,OVC,M,M,300.00,1200.00,M,M,M,M,M,M,M,M,M,29.52,KBAM 060255Z AUTO 33004KT 2 1/2SM SCT003 OVC012 01/01 A2967 RMK AO1,M
HTH,2025-03-06 02:55,-118.6315,38.5448,1282.89,39.20,35.60,86.79,290.00,3.00,0.00,29.73,M,10.00,M,OVC,M,M,M,1700.00,M,M,M,M,M,M,M,M,M,M,36.92,KHTH 060255Z AUTO 29003KT 10SM OVC017 04/02 A2973 RMK A01,M
INS,2025-03-06 02:55,-115.6733,36.5872,955.00,46.20,42.80,87.85,330.00,4.00,0.01,29.74,1005.90,10.00,M,FEW,SCT,OVC,M,2400.00,4700.00,6000.00,M,-DZ,M,M,M,M,M,M,44.00,KINS 060255Z AUTO 33004KT 10SM -DZ FEW024 SCT047 OVC060 08/06 A2974 RMK AO2 DZE0155RAB0155E33DZB33E45DZB48 SLP059 P0001 60019 T00790060 57012 $,M
LSV,2025-03-06 02:55,-115.0343,36.2362,570.00,57.00,41.40,55.85,180.00,4.00,T,29.75,1006.90,10.00,M,OVC,M,M,M,6500.00,M,M,M,M,M,M,M,M,M,M,57.00,KLSV 060255Z 18004KT 10SM OVC065 14/05 A2975 RMK AO2A RAB00E38 SLP069 P0000 60000 T01380052 51017 $,M
WMC,2025-03-06 02:56,-117.8072,40.9019,1315.00,M,M,M,M,M,0.00,29.67,M,M,M,M,M,M,M,M,M,M,M,M,M,M,M,M,M,M,M,KWMC 060256Z AUTO A2967 RMK AO2 SLPNO 57015 PWINO FZRANO TSNO,M
EKO,2025-03-06 02:56,-115.7860,40.8242,1367.00,35.00,34.00,96.09,60.00,5.00,0.01,29.65,1004.80,10.00,M,OVC,M,M,M,600.00,M,M,M,M,M,M,M,M,M,M,29.96,KEKO 060256Z AUTO 06005KT 10SM OVC006 02/01 A2965 RMK AO2 UPE51 SLP048 P0001 60004 T00170011 56023,M
HND,2025-03-06 02:56,-115.1344,35.9729,742.79,56.00,36.00,46.88,230.00,11.00,0.00,29.79,1010.30,10.00,M,FEW,BKN,OVC,M,6000.00,8000.00,10000.00,M,M,M,M,M,M,M,M,56.00,KHND 060256Z 23011KT 10SM FEW060 BKN080 OVC100 13/02 A2979 RMK AO2 SLP103 T01330022 51005 $,M
TPH,2025-03-06 02:56,-117.0904,38.0505,1654.00,38.00,31.00,75.65,190.00,15.00,0.00,29.68,1004.70,10.00,22.00,BKN,OVC,M,M,1100.00,2000.00,M,M,M,M,M,M,M,M,M,28.56,KTPH 060256Z AUTO 19015G22KT 10SM BKN011 OVC020 03/M01 A2968 RMK AO2 CIG 008V013 SLP047 T00331006 56012 $,M
LAS,2025-03-06 02:56,-115.1634,36.0719,663.00,55.00,39.00,54.70,230.00,14.00,T,29.78,1008.00,10.00,26.00,BKN,OVC,M,M,6500.00,9500.00,M,M,M,M,M,M,29.00,250.00,2025-03-06 02:34,55.00,KLAS 060256Z 23014G26KT 10SM BKN065 OVC095 13/04 A2978 RMK AO2 PK WND 25029/0234 RAB34E52 SLP080 P0000 60000 T01280039 50004,M
NFL,2025-03-06 02:57,-118.7010,39.4166,1199.00,39.00,35.00,85.42,300.00,12.00,0.01,29.71,1004.20,8.00,M,BKN,BKN,OVC,M,1400.00,2300.00,3000.00,M,-RA,M,M,M,M,M,M,30.91,KNFL 060257Z 30012KT 8SM -RA BKN014 BKN023 OVC030 04/02 A2971 RMK AO2 SLP042 WR// P0001 60005 T00390017 56010,M
10U,2025-03-06 03:00,-116.1876,41.9532,1637.00,32.00,32.00,100.00,340.00,3.00,0.00,29.66,M,2.00,M,OVC,M,M,M,300.00,M,M,M,-SN,M,M,M,M,M,M,28.69,K10U 060300Z AUTO 34003KT 2SM -SN OVC003 00/M00 A2966 RMK AO2,M
INS,2025-03-06 03:02,-115.6733,36.5872,955.00,46.40,42.80,87.19,350.00,3.00,0.00,29.74,1005.90,10.00,M,FEW,FEW,SCT,OVC,2200.00,2800.00,4600.00,6000.00,M,M,M,M,M,M,M,45.15,KINS 060302Z AUTO 35003KT 10SM FEW022 FEW028 SCT046 OVC060 08/06 A2974 RMK AO2 DZE02 SLP059 $,M
TPH,2025-03-06 03:03,-117.0904,38.0505,1654.00,38.00,31.00,75.65,200.00,17.00,0.00,29.68,M,10.00,22.00,BKN,OVC,M,M,900.00,2000.00,M,M,M,M,M,M,M,M,M,27.94,KTPH 060303Z AUTO 20017G22KT 10SM BKN009 OVC020 03/M01 A2968 RMK AO2 CIG 007V012 T00331006 $,M
RTS,2025-03-06 03:05,-119.8764,39.6682,1539.00,33.80,30.20,86.49,0.00,0.00,0.00,29.73,M,M,M,FEW,SCT,OVC,M,3700.00,4500.00,5500.00,M,M,M,M,M,M,M,M,33.80,KRTS 060305Z AUTO 00000KT FEW037 SCT045 OVC055 01/M01 A2973 RMK AO2,M
MEV,2025-03-06 03:05,-119.7500,38.9963,1441.42,35.60,32.00,86.59,50.00,5.00,0.00,29.72,M,10.00,M,FEW,OVC,M,M,4500.00,7000.00,M,M,M,M,M,M,M,M,M,30.67,KMEV 060305Z AUTO 05005KT 10SM FEW045 OVC070 02/00 A2972 RMK AO2,M
TMT,2025-03-06 03:10,-117.1971,39.4643,1749.34,33.00,33.00,100.00,0.00,0.00,0.00,29.65,M,5.00,M,SCT,OVC,M,M,600.00,1100.00,M,M,-SN,M,M,M,M,M,M,33.00,KTMT 060310Z AUTO 00000KT 5SM -SN SCT006 OVC011 01/01 A2965 RMK AO2 T00050005,M
BVU,2025-03-06 03:15,-114.8611,35.9475,671.00,59.00,35.60,41.42,260.00,7.00,0.00,29.76,M,8.00,14.00,FEW,BKN,OVC,M,3000.00,4300.00,5500.00,M,-RA,M,M,M,M,M,M,59.00,KBVU 060315Z AUTO 26007G14KT 8SM -RA FEW030 BKN043 OVC055 15/02 A2976 RMK AO2,M
BAM,2025-03-06 03:15,-116.8743,40.5990,1382.36,33.80,33.80,100.00,330.00,3.00,0.00,29.67,M,2.50,M,BKN,OVC,M,M,300.00,1400.00,M,M,M,M,M,M,M,M,M,30.75,KBAM 060315Z AUTO 33003KT 2 1/2SM BKN003 OVC014 01/01 A2967 RMK AO1,M
CXP,2025-03-06 03:15,-119.7326,39.1923,1431.00,35.60,33.80,93.08,0.00,0.00,0.00,29.73,M,10.00,M,FEW,SCT,OVC,M,700.00,1200.00,7500.00,M,M,M,M,M,M,M,M,35.60,KCXP 060315Z AUTO 00000KT 10SM FEW007 SCT012 OVC075 02/01 A2973 RMK AO2 LTG DSNT W,M
HTH,2025-03-06 03:15,-118.6315,38.5448,1282.89,39.20,35.60,86.79,300.00,5.00,0.00,29.73,M,10.00,M,OVC,M,M,M,1800.00,M,M,M,M,M,M,M,M,M,M,34.95,KHTH 060315Z AUTO 30005KT 10SM OVC018 04/02 A2973 RMK A01,M
10U,2025-03-06 03:20,-116.1876,41.9532,1637.00,33.80,32.00,93.03,330.00,3.00,0.00,29.65,M,3.00,M,OVC,M,M,M,200.00,M,M,M,-SN,M,M,M,M,M,M,30.75,K10U 060320Z AUTO 33003KT 3SM -SN OVC002 01/00 A2965 RMK AO2,M
LOL,2025-03-06 03:25,-118.5701,40.0684,1192.43,34.00,33.00,96.08,140.00,3.00,0.01,29.68,M,10.00,M,OVC,M,M,M,3200.00,M,M,M,-RA,M,M,M,M,M,M,30.97,KLOL 060325Z AUTO 14003KT 10SM -RA OVC032 01/01 A2968 RMK AO2 P0001 T00110006,M
MEV,2025-03-06 03:25,-119.7500,38.9963,1441.42,35.60,32.00,86.59,110.00,4.00,0.00,29.72,M,10.00,M,FEW,OVC,M,M,4600.00,7000.00,M,M,M,M,M,M,M,M,M,31.62,KMEV 060325Z AUTO 11004KT 10SM FEW046 OVC070 02/M00 A2972 RMK AO2,M
RTS,2025-03-06 03:25,-119.8764,39.6682,1539.00,33.80,30.20,86.49,0.00,0.00,0.00,29.72,M,M,M,SCT,BKN,OVC,M,3900.00,5500.00,7000.00,M,M,M,M,M,M,M,M,33.80,KRTS 060325Z AUTO 00000KT SCT039 BKN055 OVC070 01/M01 A2972 RMK AO2,M
TPH,2025-03-06 03:27,-117.0904,38.0505,1654.00,38.00,31.00,75.65,200.00,10.00,T,29.68,M,10.00,M,OVC,M,M,M,600.00,M,M,M,-RA,M,M,M,M,M,M,30.49,KTPH 060327Z AUTO 20010KT 10SM -RA OVC006 03/M01 A2968 RMK AO2 RAB26 CIG 005V008 P0000 T00331006 $,M
INS,2025-03-06 03:30,-115.6733,36.5872,955.00,46.40,42.80,87.19,0.00,0.00,0.00,29.73,1005.50,10.00,M,FEW,FEW,BKN,OVC,1900.00,4500.00,6500.00,8000.00,-RA,M,M,M,M,M,M,46.40,KINS 060330Z AUTO 00000KT 10SM -RA FEW019 FEW045 BKN065 OVC080 08/06 A2973 RMK AO2 DZB0255E02RAB30 SLP055 $,M
TMT,2025-03-06 03:30,-117.1971,39.4643,1749.34,32.00,32.00,100.00,0.00,0.00,0.00,29.64,M,4.00,M,OVC,M,M,M,800.00,M,M,M,-SN,M,M,M,M,M,M,32.00,KTMT 060330Z AUTO 00000KT 4SM -SN OVC008 00/00 A2964 RMK AO2 T00010001,M
NFL,2025-03-06 03:34,-118.7010,39.4166,1199.00,38.00,35.00,88.83,310.00,5.00,0.02,29.71,M,6.00,M,SCT,OVC,M,M,1100.00,2300.00,M,M,-RA BR,M,M,M,M,M,M,33.52,KNFL 060334Z 31005KT 6SM -RA BR SCT011 OVC023 03/02 A2971 RMK AO2 WR// P0002 T00330017,M
BVU,2025-03-06 03:35,-114.8611,35.9475,671.00,57.20,35.60,44.19,180.00,8.00,0.00,29.76,M,10.00,M,FEW,SCT,OVC,M,2700.00,3200.00,4400.00,M,-DZ,M,M,M,M,M,M,57.20,KBVU 060335Z AUTO 18008KT 10SM -DZ FEW027 SCT032 OVC044 14/02 A2976 RMK AO2,M
BAM,2025-03-06 03:35,-116.8743,40.5990,1382.36,33.80,33.80,100.00,0.00,0.00,0.00,29.65,M,2.50,M,BKN,OVC,M,M,300.00,900.00,M,M,M,M,M,M,M,M,M,33.80,KBAM 060335Z AUTO 00000KT 2 1/2SM BKN003 OVC009 01/01 A2965 RMK AO1,M
CXP,2025-03-06 03:35,-119.7326,39.1923,1431.00,35.60,33.80,93.08,0.00,0.00,0.00,29.73,M,10.00,M,BKN,SCT,OVC,M,1000.00,2000.00,7000.00,M,M,M,M,M,M,M,M,35.60,KCXP 060335Z AUTO 00000KT 10SM BKN010 SCT020 OVC070 02/01 A2973 RMK AO2,M
HTH,2025-03-06 03:35,-118.6315,38.5448,1282.89,39.20,35.60,86.79,300.00,6.00,0.00,29.72,M,10.00,M,OVC,M,M,M,1900.00,M,M,M,M,M,M,M,M,M,M,34.20,KHTH 060335Z AUTO 30006KT 10SM OVC019 04/02 A2972 RMK A01,M
LSV,2025-03-06 03:36,-115.0343,36.2362,570.00,57.20,39.20,50.91,230.00,11.00,0.00,29.73,1005.90,10.00,M,OVC,M,M,M,6000.00,M,M,M,-RA,M,M,M,M,M,M,57.20,KLSV 060336Z 23011KT 10SM -RA OVC060 14/04 A2973 RMK AO2A RAB36 SLP059 $,M
10U,2025-03-06 03:40,-116.1876,41.9532,1637.00,33.80,32.00,93.03,350.00,3.00,0.00,29.64,M,2.50,M,BKN,OVC,M,M,200.00,700.00,M,M,-SN,M,M,M,M,M,M,30.75,K10U 060340Z AUTO 35003KT 2 1/2SM -SN BKN002 OVC007 01/00 A2964 RMK AO2,M
EKO,2025-03-06 03:43,-115.7860,40.8242,1367.00,35.00,34.00,96.09,50.00,5.00,0.00,29.62,M,10.00,M,SCT,OVC,M,M,700.00,1700.00,M,M,M,M,M,M,M,M,M,29.96,KEKO 060343Z AUTO 05005KT 10SM SCT007 OVC017 02/01 A2962 RMK AO2 T00170011,M
INS,2025-03-06 03:47,-115.6733,36.5872,955.00,46.40,42.80,87.19,0.00,0.00,0.00,29.72,1005.00,10.00,M,FEW,SCT,OVC,M,4500.00,5500.00,7500.00,M,M,M,M,M,M,M,M,46.40,KINS 060347Z AUTO 00000KT 10SM FEW045 SCT055 OVC075 08/06 A2972 RMK AO2 RAE0255DZB0255E02RAB30E42DZB42E47 SLP050 $,M
TMT,2025-03-06 03:50,-117.1971,39.4643,1749.34,32.00,32.00,100.00,220.00,5.00,0.00,29.64,M,4.00,M,BKN,OVC,M,M,600.00,1600.00,M,M,-SN,M,M,M,M,M,M,26.40,KTMT 060350Z AUTO 22005KT 4SM -SN BKN006 OVC016 00/00 A2964 RMK AO2 T00010001,M
P68,2025-03-06 03:53,-116.0056,39.6014,1993.00,36.00,33.00,88.73,160.00,7.00,0.00,29.61,1001.20,M,M,M,M,M,M,M,M,M,M,M,M,M,M,M,M,M,29.65,KP68 060353Z AUTO 16007KT 02/01 A2961 RMK AO1 SLP012 T00220006,M
DRA,2025-03-06 03:53,-116.0278,36.6206,1009.00,50.00,42.00,73.87,180.00,13.00,0.01,29.71,1004.10,10.00,25.00,BKN,BKN,OVC,M,3600.00,4800.00,11000.00,M,M,M,M,M,M,M,M,50.00,KDRA 060353Z AUTO 18013G25KT 10SM BKN036 BKN048 OVC110 10/06 A2971 RMK AO2 RAE16B36E45 SLP041 P0001 T01000056,M
ELY,2025-03-06 03:53,-114.8453,39.2950,1909.00,45.00,36.00,70.53,180.00,16.00,T,29.66,1001.30,3.00,M,BKN,OVC,M,M,3300.00,4300.00,M,M,-RA,M,M,M,30.00,180.00,2025-03-06 03:31,37.36,KELY 060353Z AUTO 18016KT 3SM -RA BKN033 OVC043 07/02 A2966 RMK AO2 PK WND 18030/0331 SLP013 P0000 T00720022,M
VGT,2025-03-06 03:53,-115.1933,36.2111,667.00,53.00,43.00,68.71,180.00,10.00,0.02,29.75,1008.60,10.00,M,SCT,BKN,OVC,M,6000.00,7500.00,10000.00,M,M,M,M,M,M,M,M,53.00,KVGT 060353Z 18010KT 10SM SCT060 BKN075 OVC100 12/06 A2975 RMK AO2 RAE47 SLP086 P0002 T01170061 $,M
LOL,2025-03-06 03:53,-118.5701,40.0684,1192.43,35.00,34.00,96.09,0.00,0.00,0.01,29.68,1005.70,10.00,M,BKN,OVC,M,M,4600.00,7000.00,M,M,-RA,M,M,M,M,M,M,35.00,KLOL 060353Z AUTO 00000KT 10SM -RA BKN046 OVC070 02/01 A2968 RMK AO2 SLP057 P0001 T00170011,M
BVU,2025-03-06 03:55,-114.8611,35.9475,671.00,57.20,37.40,47.44,230.00,8.00,0.00,29.75,M,10.00,M,FEW,SCT,OVC,M,3100.00,4500.00,5000.00,M,-DZ,M,M,M,M,M,M,57.20,KBVU 060355Z AUTO 23008KT 10SM -DZ FEW031 SCT045 OVC050 14/03 A2975 RMK AO2,M
RNO,2025-03-06 03:55,-119.7711,39.4839,1341.00,36.00,32.00,85.23,20.00,6.00,0.00,29.71,1005.70,10.00,M,SCT,OVC,M,M,4500.00,9000.00,M,M,M,M,M,M,M,M,M,30.35,KRNO 060355Z 02006KT 10SM SCT045 OVC090 02/00 A2971 RMK AO2 SLP057 T00220000 $,M
BAM,2025-03-06 03:55,-116.8743,40.5990,1382.36,33.80,33.80,100.00,0.00,0.00,0.00,29.65,M,2.50,M,OVC,M,M,M,300.00,M,M,M,M,M,M,M,M,M,M,33.80,KBAM 060355Z AUTO 00000KT 2 1/2SM OVC003 01/01 A2965 RMK AO1,M
CXP,2025-03-06 03:55,-119.7326,39.1923,1431.00,35.60,33.80,93.08,0.00,0.00,0.00,29.72,M,10.00,M,FEW,BKN,OVC,M,1100.00,6500.00,7500.00,M,M,M,M,M,M,M,M,35.60,KCXP 060355Z AUTO 00000KT 10SM FEW011 BKN065 OVC075 02/01 A2972 RMK AO2,M
HTH,2025-03-06 03:55,-118.6315,38.5448,1282.89,39.20,35.60,86.79,310.00,8.00,0.00,29.72,M,8.00,M,OVC,M,M,M,1900.00,M,M,M,M,M,M,M,M,M,M,32.98,KHTH 060355Z AUTO 31008KT 8SM OVC019 04/02 A2972 RMK A01,M
INS,2025-03-06 03:55,-115.6733,36.5872,955.00,47.00,43.30,86.88,0.00,0.00,T,29.71,1004.70,10.00,M,FEW,BKN,BKN,M,5500.00,7000.00,9000.00,M,M,M,M,M,M,M,M,47.00,KINS 060355Z AUTO 00000KT 10SM FEW055 BKN070 BKN090 08/06 A2971 RMK AO2 DZB0255E02RAB30E42DZB42E47 SLP047 P0000 T00830063 $,M
LSV,2025-03-06 03:55,-115.0343,36.2362,570.00,55.00,43.30,64.60,210.00,11.00,T,29.73,1005.90,10.00,M,OVC,M,M,M,5500.00,M,M,M,-RA,M,M,M,M,M,M,55.00,KLSV 060355Z COR 21011KT 10SM -RA OVC055 13/06 A2973 RMK AO2A RAB36 SLP059 P0000 T01270063 $ COR 0403,M
EKO,2025-03-06 03:56,-115.7860,40.8242,1367.00,35.00,34.00,96.09,80.00,3.00,0.00,29.62,1003.90,10.00,M,BKN,OVC,M,M,1700.00,2300.00,M,M,M,M,M,M,M,M,M,32.12,KEKO 060356Z AUTO 08003KT 10SM BKN017 OVC023 02/01 A2962 RMK AO2 SLP039 T00170011,M
WMC,2025-03-06 03:56,-117.8072,40.9019,1315.00,M,M,M,M,M,0.00,29.64,M,M,M,M,M,M,M,M,M,M,M,M,M,M,M,M,M,M,M,KWMC 060356Z AUTO A2964 RMK AO2 SLPNO PWINO FZRANO TSNO,M
HND,2025-03-06 03:56,-115.1344,35.9729,742.79,55.00,37.00,50.58,200.00,14.00,0.00,29.77,1009.30,10.00,M,SCT,OVC,M,M,8000.00,10000.00,M,M,M,M,M,M,M,M,M,55.00,KHND 060356Z 20014KT 10SM SCT080 OVC100 13/03 A2977 RMK AO2 SLP093 T01280028 $,M
TPH,2025-03-06 03:56,-117.0904,38.0505,1654.00,37.00,31.00,78.69,210.00,12.00,T,29.67,1003.90,6.00,M,FEW,BKN,OVC,M,500.00,900.00,1300.00,M,-RA,M,M,M,M,M,M,28.37,KTPH 060356Z AUTO 21012KT 6SM -RA FEW005 BKN009 OVC013 03/M01 A2967 RMK AO2 RAB26UPB45E50 SLP039 P0000 T00281006 $,M
LAS,2025-03-06 03:56,-115.1634,36.0719,663.00,54.00,41.00,61.32,220.00,8.00,T,29.76,1007.20,10.00,M,BKN,OVC,M,M,6500.00,8000.00,M,M,-RA,M,M,M,27.00,220.00,2025-03-06 03:01,54.00,KLAS 060356Z 22008KT 10SM -RA BKN065 OVC080 12/05 A2976 RMK AO2 PK WND 22027/0301 RAB21 SLP072 P0000 T01220050,M
NFL,2025-03-06 03:57,-118.7010,39.4166,1199.00,38.00,35.00,88.83,310.00,5.00,0.03,29.70,1004.00,7.00,M,SCT,OVC,M,M,1400.00,2200.00,M,M,-RA,M,M,M,M,M,M,33.52,KNFL 060357Z 31005KT 7SM -RA SCT014 OVC022 03/02 A2970 RMK AO2 SLP040 WR// P0003 T00330017,M
10U,2025-03-06 04:00,-116.1876,41.9532,1637.00,33.80,32.00,93.03,350.00,5.00,0.00,29.63,M,2.00,M,OVC,M,M,M,300.00,M,M,M,-SN,M,M,M,M,M,M,28.53,K10U 060400Z AUTO 35005KT 2SM -SN OVC003 01/00 A2963 RMK AO2,M
LSV,2025-03-06 04:07,-115.0343,36.2362,570.00,55.40,42.80,62.46,190.00,6.00,0.00,29.72,1005.60,10.00,M,OVC,M,M,M,5500.00,M,M,M,M,M,M,M,M,M,M,55.40,KLSV 060407Z 19006KT 10SM OVC055 13/06 A2972 RMK AO2A RAE0355RAB0359E05DZB05E07 SLP056 $,M
TMT,2025-03-06 04:10,-117.1971,39.4643,1749.34,32.00,32.00,100.00,200.00,7.00,0.00,29.64,M,5.00,M,SCT,BKN,OVC,M,600.00,1600.00,2400.00,M,-SN,M,M,M,M,M,M,24.78,KTMT 060410Z AUTO 20007KT 5SM -SN SCT006 BKN016 OVC024 00/00 A2964 RMK AO2 T00000000,M
EKO,2025-03-06 04:14,-115.7860,40.8242,1367.00,35.00,35.00,100.00,70.00,5.00,0.00,29.61,M,10.00,M,BKN,OVC,M,M,1300.00,2400.00,M,M,M,M,M,M,M,M,M,29.96,KEKO 060414Z AUTO 07005KT 10SM BKN013 OVC024 02/02 A2961 RMK AO2 T00170017,M
BVU,2025-03-06 04:15,-114.8611,35.9475,671.00,57.20,39.20,50.91,220.00,7.00,0.00,29.75,M,10.00,M,FEW,BKN,OVC,M,3000.00,5000.00,7000.00,M,M,M,M,M,M,M,M,57.20,KBVU 060415Z AUTO 22007KT 10SM FEW030 BKN050 OVC070 14/04 A2975 RMK AO2,M
NFL,2025-03-06 04:15,-118.7010,39.4166,1199.00,38.00,35.00,88.83,310.00,3.00,T,29.70,M,10.00,M,BKN,OVC,M,M,1100.00,2600.00,M,M,-RA,M,M,M,M,M,M,35.55,KNFL 060415Z 31003KT 10SM -RA BKN011 OVC026 03/02 A2970 RMK AO2 P0000 T00330017,M
BAM,2025-03-06 04:15,-116.8743,40.5990,1382.36,33.80,33.80,100.00,0.00,0.00,0.00,29.64,M,7.00,M,OVC,M,M,M,300.00,M,M,M,M,M,M,M,M,M,M,33.80,KBAM 060415Z AUTO 00000KT 7SM OVC003 01/01 A2964 RMK AO1,M
CXP,2025-03-06 04:15,-119.7326,39.1923,1431.00,35.60,33.80,93.08,270.00,3.00,0.00,29.72,M,10.00,M,OVC,M,M,M,7000.00,M,M,M,M,M,M,M,M,M,M,32.80,KCXP 060415Z AUTO 27003KT 10SM OVC070 02/01 A2972 RMK AO2,M
RTS,2025-03-06 04:15,-119.8764,39.6682,1539.00,33.80,32.00,93.03,120.00,4.00,0.00,29.71,M,M,M,M,M,M,M,M,M,M,M,M,M,M,M,M,M,M,29.52,KRTS 060415Z AUTO 12004KT 01/00 A2971 RMK AO2,M
MEV,2025-03-06 04:15,-119.7500,38.9963,1441.42,35.60,33.80,93.08,220.00,4.00,0.00,29.71,M,10.00,M,FEW,BKN,OVC,M,3600.00,6000.00,7000.00,M,M,M,M,M,M,M,M,31.62,KMEV 060415Z AUTO 22004KT 10SM FEW036 BKN060 OVC070 02/01 A2971 RMK AO2,M
HTH,2025-03-06 04:15,-118.6315,38.5448,1282.89,37.40,35.60,93.14,310.00,6.00,0.00,29.71,M,9.00,M,OVC,M,M,M,1800.00,M,M,M,M,M,M,M,M,M,M,32.03,KHTH 060415Z AUTO 31006KT 9SM OVC018 03/02 A2971 RMK A01,M
LSV,2025-03-06 04:16,-115.0343,36.2362,570.00,55.40,42.80,62.46,200.00,3.00,0.00,29.72,1005.60,10.00,M,OVC,M,M,M,5500.00,M,M,M,-RA,M,M,M,M,M,M,55.40,KLSV 060416Z 20003KT 10SM -RA OVC055 13/06 A2972 RMK AO2A RAB0359E05DZB05E07RAB16 SLP056 $,M
10U,2025-03-06 04:20,-116.1876,41.9532,1637.00,32.00,32.00,100.00,350.00,5.00,0.00,29.62,M,2.50,M,OVC,M,M,M,300.00,M,M,M,-SN,M,M,M,M,M,M,26.40,K10U 060420Z AUTO 35005KT 2 1/2SM -SN OVC003 00/M00 A2962 RMK AO2,M
LSV,2025-03-06 04:26,-115.0343,36.2362,570.00,55.40,42.80,62.46,0.00,0.00,0.00,29.72,1005.60,10.00,M,OVC,M,M,M,6000.00,M,M,M,M,M,M,M,M,M,M,55.40,KLSV 060426Z 00000KT 10SM OVC060 13/06 A2972 RMK AO2A RAE0355RAB0359E05DZB05E07RAB16E17DZB17E25RAB25E26 SLP056 $,M
TMT,2025-03-06 04:30,-117.1971,39.4643,1749.34,32.00,32.00,100.00,210.00,8.00,0.00,29.64,M,3.00,M,SCT,OVC,M,M,700.00,1400.00,M,M,-SN,M,M,M,M,M,M,24.11,KTMT 060430Z AUTO 21008KT 3SM -SN SCT007 OVC014 00/00 A2964 RMK AO2 T00000000,M
BVU,2025-03-06 04:35,-114.8611,35.9475,671.00,55.40,39.20,54.34,210.00,6.00,0.00,29.74,M,10.00,M,OVC,M,M,M,6500.00,M,M,M,M,M,M,M,M,M,M,55.40,KBVU 060435Z AUTO 21006KT 10SM OVC065 13/04 A2974 RMK AO2,M
BAM,2025-03-06 04:35,-116.8743,40.5990,1382.36,33.80,33.80,100.00,0.00,0.00,0.00,29.64,M,10.00,M,OVC,M,M,M,300.00,M,M,M,M,M,M,M,M,M,M,33.80,KBAM 060435Z AUTO 00000KT 10SM OVC003 01/01 A2964 RMK AO1,M
CXP,2025-03-06 04:35,-119.7326,39.1923,1431.00,35.60,33.80,93.08,0.00,0.00,0.00,29.72,M,10.00,M,FEW,OVC,M,M,5000.00,7000.00,M,M,M,M,M,M,M,M,M,35.60,KCXP 060435Z AUTO 00000KT 10SM FEW050 OVC070 02/01 A2972 RMK AO2,M
RTS,2025-03-06 04:35,-119.8764,39.6682,1539.00,33.80,32.00,93.03,120.00,3.00,0.00,29.71,M,M,M,M,M,M,M,M,M,M,M,M,M,M,M,M,M,M,30.75,KRTS 060435Z AUTO 12003KT 01/00 A2971 RMK AO2,M
MEV,2025-03-06 04:35,-119.7500,38.9963,1441.42,35.60,33.80,93.08,0.00,0.00,0.00,29.71,M,10.00,M,FEW,SCT,BKN,M,3100.00,3800.00,4300.00,M,M,M,M,M,M,M,M,35.60,KMEV 060435Z AUTO 00000KT 10SM FEW031 SCT038 BKN043 02/01 A2971 RMK AO2,M
HTH,2025-03-06 04:35,-118.6315,38.5448,1282.89,37.40,35.60,93.14,320.00,7.00,0.00,29.72,M,8.00,13.00,OVC,M,M,M,1700.00,M,M,M,M,M,M,M,M,M,M,31.36,KHTH 060435Z AUTO 32007G13KT 8SM OVC017 03/02 A2972 RMK A01,M
10U,2025-03-06 04:40,-116.1876,41.9532,1637.00,32.00,32.00,100.00,360.00,4.00,0.00,29.61,M,2.50,M,OVC,M,M,M,400.00,M,M,M,-SN,M,M,M,M,M,M,27.42,K10U 060440Z AUTO 36004KT 2 1/2SM -SN OVC004 00/00 A2961 RMK AO2,M
NFL,2025-03-06 04:45,-118.7010,39.4166,1199.00,38.00,35.00,88.83,290.00,6.00,0.01,29.70,M,9.00,M,SCT,SCT,OVC,M,1100.00,1600.00,3000.00,M,-RA,M,M,M,M,M,M,32.76,KNFL 060445Z 29006KT 9SM -RA SCT011 SCT016 OVC030 03/02 A2970 RMK AO2 P0001 T00330017,M
TMT,2025-03-06 04:50,-117.1971,39.4643,1749.34,32.00,32.00,100.00,210.00,7.00,0.00,29.64,M,4.00,M,SCT,BKN,OVC,M,800.00,1200.00,2100.00,M,-SN,M,M,M,M,M,M,24.78,KTMT 060450Z AUTO 21007KT 4SM -SN SCT008 BKN012 OVC021 00/00 A2964 RMK AO2 T00000000,M
P68,2025-03-06 04:53,-116.0056,39.6014,1993.00,35.00,33.00,92.32,150.00,7.00,0.00,29.59,1000.50,M,M,M,M,M,M,M,M,M,M,M,M,M,M,M,M,M,28.44,KP68 060453Z AUTO 15007KT 02/01 A2959 RMK AO1 SLP005 T00170006,M
DRA,2025-03-06 04:53,-116.0278,36.6206,1009.00,50.00,42.00,73.87,190.00,19.00,T,29.68,1002.80,10.00,27.00,OVC,M,M,M,3300.00,M,M,M,M,M,M,M,29.00,180.00,2025-03-06 04:36,50.00,KDRA 060453Z AUTO 19019G27KT 10SM OVC033 10/06 A2968 RMK AO2 PK WND 18029/0436 RAB05E18 SLP028 P0000 T01000056,M
ELY,2025-03-06 04:53,-114.8453,39.2950,1909.00,45.00,36.00,70.53,170.00,15.00,0.01,29.64,1000.00,10.00,26.00,BKN,OVC,M,M,4400.00,5000.00,M,M,-RA,M,M,M,33.00,160.00,2025-03-06 04:23,37.63,KELY 060453Z AUTO 17015G26KT 10SM -RA BKN044 OVC050 07/02 A2964 RMK AO2 PK WND 16033/0423 SLP000 P0001 T00720022,M
VGT,2025-03-06 04:53,-115.1933,36.2111,667.00,55.00,43.00,63.86,140.00,7.00,T,29.72,1007.50,10.00,16.00,FEW,BKN,OVC,M,6000.00,8000.00,10000.00,M,-RA,M,M,M,M,M,M,55.00,KVGT 060453Z AUTO 14007G16KT 10SM -RA FEW060 BKN080 OVC100 13/06 A2972 RMK AO2 RAB52 SLP075 P0000 T01280061 $,M
LOL,2025-03-06 04:53,-118.5701,40.0684,1192.43,35.00,34.00,96.09,40.00,3.00,T,29.67,1005.30,10.00,M,OVC,M,M,M,4900.00,M,M,M,-RA,M,M,M,M,M,M,32.12,KLOL 060453Z AUTO 04003KT 10SM -RA OVC049 02/01 A2967 RMK AO2 SLP053 P0000 T00170011,M
BVU,2025-03-06 04:55,-114.8611,35.9475,671.00,55.40,41.00,58.27,190.00,3.00,0.00,29.74,M,10.00,M,OVC,M,M,M,6500.00,M,M,M,M,M,M,M,M,M,M,55.40,KBVU 060455Z AUTO 19003KT 10SM OVC065 13/05 A2974 RMK AO2,M
RNO,2025-03-06 04:55,-119.7711,39.4839,1341.00,36.00,32.00,85.23,10.00,3.00,0.00,29.70,1005.40,10.00,M,SCT,OVC,M,M,4500.00,8500.00,M,M,M,M,M,M,M,M,M,33.26,KRNO 060455Z 01003KT 10SM SCT045 OVC085 02/00 A2970 RMK AO2 SLP054 T00220000 $,M
BAM,2025-03-06 04:55,-116.8743,40.5990,1382.36,33.80,33.80,100.00,0.00,0.00,0.00,29.63,M,7.00,M,OVC,M,M,M,300.00,M,M,M,M,M,M,M,M,M,M,33.80,KBAM 060455Z AUTO 00000KT 7SM OVC003 01/01 A2963 RMK AO1,M
CXP,2025-03-06 04:55,-119.7326,39.1923,1431.00,35.60,33.80,93.08,0.00,0.00,0.00,29.71,M,10.00,M,OVC,M,M,M,6500.00,M,M,M,M,M,M,M,M,M,M,35.60,KCXP 060455Z AUTO 00000KT 10SM OVC065 02/01 A2971 RMK AO2,M
RTS,2025-03-06 04:55,-119.8764,39.6682,1539.00,33.80,32.00,93.03,0.00,0.00,0.00,29.71,M,M,M,M,M,M,M,M,M,M,M,-SN,M,M,M,M,M,M,33.80,KRTS 060455Z AUTO 00000KT -SN 01/00 A2971 RMK AO2,M
MEV,2025-03-06 04:55,-119.7500,38.9963,1441.42,35.60,33.80,93.08,0.00,0.00,0.00,29.70,M,10.00,M,FEW,OVC,M,M,4300.00,6000.00,M,M,M,M,M,M,M,M,M,35.60,KMEV 060455Z AUTO 00000KT 10SM FEW043 OVC060 02/01 A2970 RMK AO2,M
HTH,2025-03-06 04:55,-118.6315,38.5448,1282.89,37.40,35.60,93.14,360.00,13.00,0.00,29.71,M,6.00,M,OVC,M,M,M,1700.00,M,M,M,BR,M,M,M,M,M,M,28.49,KHTH 060455Z AUTO 36013KT 6SM BR OVC017 03/02 A2971 RMK A01,M
INS,2025-03-06 04:55,-115.6733,36.5872,955.00,49.00,40.00,70.96,90.00,17.00,0.00,29.69,1003.60,10.00,M,SCT,OVC,M,M,6500.00,10000.00,M,M,M,M,M,M,M,M,M,42.35,KINS 060455Z AUTO 09017KT 10SM SCT065 OVC100 10/05 A2969 RMK AO2 SLP036 T00950045 $,M
LSV,2025-03-06 04:55,-115.0343,36.2362,570.00,55.00,44.00,66.36,60.00,6.00,T,29.70,1004.80,10.00,M,OVC,M,M,M,7000.00,M,M,M,M,M,M,M,M,M,M,55.00,KLSV 060455Z 06006KT 10SM OVC070 13/07 A2970 RMK AO2A RAB0359E05DZB05E07RAB16E17DZB17E25RAB25E26 SLP048 P0000 T01280066 $,M
EKO,2025-03-06 04:56,-115.7860,40.8242,1367.00,36.00,35.00,96.11,40.00,5.00,T,29.59,1002.50,10.00,M,OVC,M,M,M,1200.00,M,M,M,M,M,M,M,M,M,M,31.15,KEKO 060456Z AUTO 04005KT 10SM OVC012 02/02 A2959 RMK AO2 UPB18E47 SLP025 P0000 T00220017,M
WMC,2025-03-06 04:56,-117.8072,40.9019,1315.00,M,M,M,M,M,0.00,29.63,M,M,M,M,M,M,M,M,M,M,M,M,M,M,M,M,M,M,M,KWMC 060456Z AUTO A2963 RMK AO2 SLPNO PWINO FZRANO TSNO,M
HND,2025-03-06 04:56,-115.1344,35.9729,742.79,55.00,38.00,52.60,190.00,13.00,T,29.76,1008.50,10.00,M,BKN,BKN,OVC,M,6000.00,8000.00,10000.00,M,-RA,M,M,M,M,M,M,55.00,KHND 060456Z AUTO 19013KT 10SM -RA BKN060 BKN080 OVC100 13/03 A2976 RMK AO2 RAB33 SLP085 P0000 T01280033 $,M
TPH,2025-03-06 04:56,-117.0904,38.0505,1654.00,34.00,31.00,88.63,270.00,6.00,0.08,29.66,1003.60,7.00,M,BKN,OVC,M,M,800.00,2400.00,M,M,-RA,M,M,M,M,M,M,27.94,KTPH 060456Z AUTO 27006KT 7SM -RA BKN008 OVC024 01/M01 A2966 RMK AO2 CIG 006V011 SLP036 P0008 T00111006 $,M
LAS,2025-03-06 04:56,-115.1634,36.0719,663.00,56.00,39.00,52.75,200.00,11.00,T,29.74,1006.20,10.00,M,BKN,OVC,M,M,6500.00,9000.00,M,M,-RA,M,M,M,M,M,M,56.00,KLAS 060456Z 20011KT 10SM -RA BKN065 OVC090 13/04 A2974 RMK AO2 RAE03B55 SLP062 P0000 T01330039,M
NFL,2025-03-06 04:57,-118.7010,39.4166,1199.00,38.00,35.00,88.83,280.00,7.00,0.01,29.70,1003.80,9.00,M,SCT,SCT,OVC,M,1100.00,1600.00,3000.00,M,-RA,M,M,M,M,M,M,32.09,KNFL 060457Z 28007KT 9SM -RA SCT011 SCT016 OVC030 03/02 A2970 RMK AO2 SLP038 P0001 T00330017,M
10U,2025-03-06 05:00,-116.1876,41.9532,1637.00,32.00,32.00,100.00,360.00,4.00,0.00,29.61,M,4.00,M,SCT,BKN,OVC,M,200.00,500.00,2900.00,M,-SN,M,M,M,M,M,M,27.42,K10U 060500Z AUTO 36004KT 4SM -SN SCT002 BKN005 OVC029 00/00 A2961 RMK AO2,M
TPH,2025-03-06 05:10,-117.0904,38.0505,1654.00,34.00,31.00,88.63,280.00,6.00,0.01,29.66,M,6.00,M,SCT,SCT,OVC,M,800.00,1200.00,2100.00,M,-SN BR,M,M,M,M,M,M,27.94,KTPH 060510Z AUTO 28006KT 6SM -SN BR SCT008 SCT012 OVC021 01/M01 A2966 RMK AO2 RAE00SNB00 P0001 T00111006 $,M
HTH,2025-03-06 05:10,-118.6315,38.5448,1282.89,35.60,35.60,100.00,360.00,15.00,0.00,29.71,M,5.00,M,OVC,M,M,M,1700.00,M,M,M,BR,M,M,M,M,M,M,25.45,KHTH 060510Z AUTO 36015KT 5SM BR OVC017 02/02 A2971 RMK A01,M
TMT,2025-03-06 05:10,-117.1971,39.4643,1749.34,32.00,32.00,100.00,200.00,8.00,0.00,29.64,M,7.00,M,SCT,OVC,M,M,1200.00,2300.00,M,M,-SN,M,M,M,M,M,M,24.11,KTMT 060510Z AUTO 20008KT 7SM -SN SCT012 OVC023 00/00 A2964 RMK AO2 T00001001,M
BVU,2025-03-06 05:15,-114.8611,35.9475,671.00,55.40,41.00,58.27,0.00,0.00,0.00,29.73,M,10.00,M,OVC,M,M,M,7000.00,M,M,M,M,M,M,M,M,M,M,55.40,KBVU 060515Z AUTO 00000KT 10SM OVC070 13/05 A2973 RMK AO2,M
BAM,2025-03-06 05:15,-116.8743,40.5990,1382.36,33.80,33.80,100.00,0.00,0.00,0.00,29.63,M,4.00,M,OVC,M,M,M,500.00,M,M,M,M,M,M,M,M,M,M,33.80,KBAM 060515Z AUTO 00000KT 4SM OVC005 01/01 A2963 RMK AO1,M
CXP,2025-03-06 05:15,-119.7326,39.1923,1431.00,35.60,33.80,93.08,0.00,0.00,0.00,29.71,M,10.00,M,SCT,BKN,OVC,M,3200.00,5500.00,7000.00,M,M,M,M,M,M,M,M,35.60,KCXP 060515Z AUTO 00000KT 10SM SCT032 BKN055 OVC070 02/01 A2971 RMK AO2,M
RTS,2025-03-06 05:15,-119.8764,39.6682,1539.00,33.80,32.00,93.03,0.00,0.00,0.00,29.70,M,M,M,M,M,M,M,M,M,M,M,-SN,M,M,M,M,M,M,33.80,KRTS 060515Z AUTO 00000KT -SN 01/00 A2970 RMK AO2,M
MEV,2025-03-06 05:15,-119.7500,38.9963,1441.42,33.80,32.00,93.03,0.00,0.00,0.00,29.70,M,10.00,M,FEW,SCT,OVC,M,3600.00,4400.00,6500.00,M,M,M,M,M,M,M,M,33.80,KMEV 060515Z AUTO 00000KT 10SM FEW036 SCT044 OVC065 01/00 A2970 RMK AO2,M
10U,2025-03-06 05:20,-116.1876,41.9532,1637.00,32.00,32.00,100.00,360.00,6.00,0.00,29.59,M,3.00,M,BKN,BKN,OVC,M,200.00,600.00,2000.00,M,-SN,M,M,M,M,M,M,25.53,K10U 060520Z AUTO 36006KT 3SM -SN BKN002 BKN006 OVC020 00/00 A2959 RMK AO2,M
TMT,2025-03-06 05:30,-117.1971,39.4643,1749.34,32.00,31.60,98.40,200.00,7.00,0.00,29.64,M,4.00,M,OVC,M,M,M,2100.00,M,M,M,-SN,M,M,M,M,M,M,24.78,KTMT 060530Z AUTO 20007KT 4SM -SN OVC021 00/00 A2964 RMK AO2 T00001002,M
BVU,2025-03-06 05:35,-114.8611,35.9475,671.00,55.40,41.00,58.27,130.00,6.00,0.00,29.72,M,10.00,M,OVC,M,M,M,7000.00,M,M,M,M,M,M,M,M,M,M,55.40,KBVU 060535Z AUTO 13006KT 10SM OVC070 13/05 A2972 RMK AO2,M
BAM,2025-03-06 05:35,-116.8743,40.5990,1382.36,33.80,33.80,100.00,0.00,0.00,0.00,29.62,M,2.00,M,OVC,M,M,M,500.00,M,M,M,M,M,M,M,M,M,M,33.80,KBAM 060535Z AUTO 00000KT 2SM OVC005 01/01 A2962 RMK AO1,M
CXP,2025-03-06 05:35,-119.7326,39.1923,1431.00,35.60,33.80,93.08,0.00,0.00,0.00,29.71,M,10.00,M,BKN,BKN,OVC,M,3100.00,4300.00,6500.00,M,M,M,M,M,M,M,M,35.60,KCXP 060535Z AUTO 00000KT 10SM BKN031 BKN043 OVC065 02/01 A2971 RMK AO2 LTG DSNT SW AND W,M
RTS,2025-03-06 05:35,-119.8764,39.6682,1539.00,33.80,33.80,100.00,0.00,0.00,0.00,29.70,M,M,M,BKN,BKN,OVC,M,800.00,2400.00,4200.00,M,-SN,M,M,M,M,M,M,33.80,KRTS 060535Z AUTO 00000KT -SN BKN008 BKN024 OVC042 01/01 A2970 RMK AO2,M
MEV,2025-03-06 05:35,-119.7500,38.9963,1441.42,35.60,32.00,86.59,0.00,0.00,0.00,29.70,M,10.00,M,FEW,BKN,OVC,M,2700.00,3400.00,5500.00,M,M,M,M,M,M,M,M,35.60,KMEV 060535Z AUTO 00000KT 10SM FEW027 BKN034 OVC055 02/00 A2970 RMK AO2 LTG DSNT SW AND NW,M
HTH,2025-03-06 05:35,-118.6315,38.5448,1282.89,35.60,35.60,100.00,340.00,6.00,0.00,29.70,M,10.00,12.00,SCT,BKN,OVC,M,1700.00,2200.00,2700.00,M,M,M,M,M,M,M,M,29.87,KHTH 060535Z AUTO 34006G12KT 10SM SCT017 BKN022 OVC027 02/02 A2970 RMK A01,M
10U,2025-03-06 05:40,-116.1876,41.9532,1637.00,32.00,32.00,100.00,350.00,3.00,0.00,29.59,M,4.00,M,BKN,BKN,OVC,M,200.00,600.00,3000.00,M,-SN,M,M,M,M,M,M,28.69,K10U 060540Z AUTO 35003KT 4SM -SN BKN002 BKN006 OVC030 00/00 A2959 RMK AO2,M
TMT,2025-03-06 05:50,-117.1971,39.4643,1749.34,32.00,31.60,98.40,220.00,6.00,0.00,29.62,M,2.50,M,SCT,BKN,OVC,M,1000.00,1400.00,2100.00,M,-SN,M,M,M,M,M,M,25.53,KTMT 060550Z AUTO 22006KT 2 1/2SM -SN SCT010 BKN014 OVC021 00/00 A2962 RMK AO2 T00001002,M
P68,2025-03-06 05:53,-116.0056,39.6014,1993.00,35.00,33.00,92.32,190.00,3.00,0.00,29.57,999.20,M,M,M,M,M,M,M,M,M,M,M,M,M,M,M,M,M,32.12,KP68 060553Z AUTO 19003KT 02/01 A2957 RMK AO1 SLP992 T00170006 10033 20017 58019,M
DRA,2025-03-06 05:53,-116.0278,36.6206,1009.00,51.00,41.00,68.48,200.00,19.00,0.00,29.66,1002.00,10.00,30.00,SCT,BKN,M,M,4300.00,12000.00,M,M,M,M,M,M,31.00,200.00,2025-03-06 04:56,51.00,KDRA 060553Z AUTO 20019G30KT 10SM SCT043 BKN120 11/05 A2966 RMK AO2 PK WND 20031/0456 SLP020 60007 T01060050 10106 20089 58018,M
ELY,2025-03-06 05:53,-114.8453,39.2950,1909.00,47.00,35.00,62.84,200.00,12.00,T,29.61,998.00,10.00,M,OVC,M,M,M,3200.00,M,M,M,M,M,M,M,26.00,170.00,2025-03-06 05:09,41.09,KELY 060553Z AUTO 20012KT 10SM OVC032 08/02 A2961 RMK AO2 PK WND 17026/0509 RAE11 SLP980 P0000 60003 T00830017 10094 20067 58017,M
VGT,2025-03-06 05:53,-115.1933,36.2111,667.00,54.00,44.00,68.82,160.00,7.00,T,29.70,1006.70,10.00,M,SCT,OVC,M,M,6500.00,9500.00,M,M,M,M,M,M,M,M,M,54.00,KVGT 060553Z AUTO 16007KT 10SM SCT065 OVC095 12/07 A2970 RMK AO2 RAE49 SLP067 P0000 60003 T01220067 10167 20117 58022 $,M
LOL,2025-03-06 05:53,-118.5701,40.0684,1192.43,35.00,34.00,96.09,0.00,0.00,0.01,29.65,1004.70,10.00,M,OVC,M,M,M,2900.00,M,M,M,-RA,M,M,M,M,M,M,35.00,KLOL 060553Z AUTO 00000KT 10SM -RA OVC029 02/01 A2965 RMK AO2 SLP047 P0001 60009 T00170011 10033 20011 56014,M
BVU,2025-03-06 05:55,-114.8611,35.9475,671.00,55.40,39.20,54.34,0.00,0.00,0.00,29.72,M,10.00,M,FEW,SCT,OVC,M,4400.00,6000.00,7000.00,M,M,M,M,M,M,M,M,55.40,KBVU 060555Z AUTO 00000KT 10SM FEW044 SCT060 OVC070 13/04 A2972 RMK AO2,M
RNO,2025-03-06 05:55,-119.7711,39.4839,1341.00,36.00,33.00,88.73,20.00,3.00,0.00,29.69,1005.00,10.00,M,BKN,OVC,M,M,4000.00,7000.00,M,M,M,M,M,M,M,M,M,33.26,KRNO 060555Z 02003KT 10SM BKN040 OVC070 02/01 A2969 RMK AO2 SLP050 60002 T00220006 10039 20022 58010 $,M
BAM,2025-03-06 05:55,-116.8743,40.5990,1382.36,33.80,33.80,100.00,0.00,0.00,0.00,29.61,M,1.50,M,OVC,M,M,M,300.00,M,M,M,M,M,M,M,M,M,M,33.80,KBAM 060555Z AUTO 00000KT 1 1/2SM OVC003 01/01 A2961 RMK AO1,M
CXP,2025-03-06 05:55,-119.7326,39.1923,1431.00,35.60,32.00,86.59,M,3.00,0.00,29.71,M,10.00,M,SCT,BKN,OVC,M,1100.00,2900.00,4600.00,M,-RA,M,M,M,M,M,M,32.80,KCXP 060555Z AUTO VRB03KT 10SM -RA SCT011 BKN029 OVC046 02/00 A2971 RMK AO2,M
RTS,2025-03-06 05:55,-119.8764,39.6682,1539.00,32.00,32.00,100.00,300.00,7.00,0.00,29.70,M,M,M,M,M,M,M,M,M,M,M,-SN,M,M,M,M,M,M,24.78,KRTS 060555Z AUTO 30007KT -SN 00/00 A2970 RMK AO2,M
MEV,2025-03-06 05:55,-119.7500,38.9963,1441.42,33.80,32.00,93.03,0.00,0.00,0.00,29.68,M,10.00,M,FEW,SCT,BKN,M,3600.00,5500.00,6500.00,M,M,M,M,M,M,M,M,33.80,KMEV 060555Z AUTO 00000KT 10SM FEW036 SCT055 BKN065 01/00 A2968 RMK AO2,M
HTH,2025-03-06 05:55,-118.6315,38.5448,1282.89,35.60,35.60,100.00,330.00,9.00,0.00,29.70,M,10.00,M,BKN,OVC,M,M,1700.00,2400.00,M,M,M,M,M,M,M,M,M,27.99,KHTH 060555Z AUTO 33009KT 10SM BKN017 OVC024 02/02 A2970 RMK A01,M
INS,2025-03-06 05:55,-115.6733,36.5872,955.00,48.70,40.00,71.76,100.00,9.00,0.00,29.67,1002.90,10.00,M,BKN,OVC,M,M,5500.00,10000.00,M,M,M,M,M,M,27.00,80.00,2025-03-06 05:12,44.28,KINS 060555Z AUTO 10009KT 10SM BKN055 OVC100 09/05 A2967 RMK AO2 PK WND 08027/12 SLP029 60019 T00930045 10096 20077 57023 $,M
LSV,2025-03-06 05:55,-115.0343,36.2362,570.00,55.20,44.80,67.92,40.00,4.00,0.00,29.67,1003.70,10.00,M,OVC,M,M,M,6000.00,M,M,M,M,M,M,M,M,M,M,55.20,KLSV 060555Z 04004KT 10SM OVC060 13/07 A2967 RMK AO2A SLP037 60000 T01290071 10200 20127 57025 $,M
EKO,2025-03-06 05:56,-115.7860,40.8242,1367.00,36.00,35.00,96.11,20.00,4.00,0.01,29.57,1001.30,10.00,M,BKN,OVC,M,M,1200.00,2100.00,M,M,UP,M,M,M,M,M,M,32.09,KEKO 060556Z AUTO 02004KT 10SM UP BKN012 OVC021 02/02 A2957 RMK AO2 UPB27E30B55RAB30E55 SLP013 P0001 60005 T00220017 10028 20017 56023,M
WMC,2025-03-06 05:56,-117.8072,40.9019,1315.00,M,M,M,M,M,0.00,29.62,M,M,M,M,M,M,M,M,M,M,M,M,M,M,M,M,M,M,M,KWMC 060556Z AUTO A2962 RMK AO2 SLPNO 56015 PWINO FZRANO TSNO,M
HND,2025-03-06 05:56,-115.1344,35.9729,742.79,57.00,34.00,41.76,190.00,9.00,T,29.72,1007.20,10.00,M,BKN,OVC,M,M,6500.00,9000.00,M,M,M,M,M,M,M,M,M,57.00,KHND 060556Z AUTO 19009KT 10SM BKN065 OVC090 14/01 A2972 RMK AO2 RAE32 SLP072 P0000 60000 T01390011 10161 20128 58023 $,M
TPH,2025-03-06 05:56,-117.0904,38.0505,1654.00,33.00,31.00,92.25,360.00,5.00,0.04,29.63,1002.70,4.00,M,OVC,M,M,M,2500.00,M,M,M,-SN BR,M,M,M,M,M,M,27.58,KTPH 060556Z AUTO 36005KT 4SM -SN BR OVC025 01/M01 A2963 RMK AO2 RAE00SNB00 SLP027 P0004 60012 T00061006 10044 20006 58010 $,M
LAS,2025-03-06 05:56,-115.1634,36.0719,663.00,57.00,37.00,47.04,200.00,8.00,T,29.70,1004.80,10.00,M,FEW,SCT,OVC,M,6000.00,8000.00,9000.00,M,M,M,M,M,M,M,M,57.00,KLAS 060556Z 20008KT 10SM FEW060 SCT080 OVC090 14/03 A2970 RMK AO2 RAE06 SLP048 VCSH P0000 60000 T01390028 10172 20122 58025,M
NFL,2025-03-06 05:57,-118.7010,39.4166,1199.00,37.00,34.00,88.78,280.00,6.00,T,29.68,1003.40,10.00,M,FEW,OVC,M,M,3900.00,7000.00,M,M,M,M,M,M,M,M,M,31.55,KNFL 060557Z 28006KT 10SM FEW039 OVC070 03/01 A2968 RMK AO2 RAE15UPB15E18 SLP034 P0000 60009 T00280011 10044 20028 58008,M
10U,2025-03-06 06:00,-116.1876,41.9532,1637.00,32.00,32.00,100.00,350.00,5.00,0.00,29.58,M,5.00,M,FEW,SCT,OVC,M,200.00,800.00,2600.00,M,-SN,M,M,M,M,M,M,26.40,K10U 060600Z AUTO 35005KT 5SM -SN FEW002 SCT008 OVC026 00/00 A2958 RMK AO2,M
LOL,2025-03-06 06:05,-118.5701,40.0684,1192.43,36.00,34.00,92.35,0.00,0.00,T,29.65,M,10.00,M,OVC,M,M,M,3400.00,M,M,M,-RA,M,M,M,M,M,M,36.00,KLOL 060605Z AUTO 00000KT 10SM -RA OVC034 02/01 A2965 RMK AO2 P0000 T00220011,M
RTS,2025-03-06 06:05,-119.8764,39.6682,1539.00,32.00,32.00,100.00,320.00,9.00,0.00,29.69,M,M,14.00,M,M,M,M,M,M,M,M,-SN,M,M,M,M,M,M,23.51,KRTS 060605Z AUTO 32009G14KT -SN M00/M00 A2969 RMK AO2,M
MEV,2025-03-06 06:05,-119.7500,38.9963,1441.42,33.80,32.00,93.03,340.00,3.00,0.00,29.69,M,10.00,M,FEW,OVC,M,M,6000.00,7500.00,M,M,M,M,M,M,M,M,M,30.75,KMEV 060605Z AUTO 34003KT 10SM FEW060 OVC075 01/M00 A2969 RMK AO2,M
TMT,2025-03-06 06:10,-117.1971,39.4643,1749.34,32.00,31.00,96.04,220.00,6.00,0.00,29.62,M,2.50,M,BKN,OVC,M,M,1200.00,2100.00,M,M,-SN,M,M,M,M,M,M,25.53,KTMT 060610Z AUTO 22006KT 2 1/2SM -SN BKN012 OVC021 00/00 A2962 RMK AO2 T00001005,M
TPH,2025-03-06 06:12,-117.0904,38.0505,1654.00,33.00,31.00,92.25,360.00,6.00,0.01,29.63,M,2.00,M,OVC,M,M,M,2300.00,M,M,M,-SN BR,M,M,M,M,M,M,26.73,KTPH 060612Z AUTO 36006KT 2SM -SN BR OVC023 01/M01 A2963 RMK AO2 P0001 T00061006 $,M
BVU,2025-03-06 06:15,-114.8611,35.9475,671.00,57.20,37.40,47.44,220.00,9.00,0.00,29.70,M,10.00,M,FEW,FEW,OVC,M,4600.00,5500.00,7000.00,M,M,M,M,M,M,M,M,57.20,KBVU 060615Z AUTO 22009KT 200V280 10SM FEW046 FEW055 OVC070 14/03 A2970 RMK AO2,M
ELY,2025-03-06 06:15,-114.8453,39.2950,1909.00,48.00,35.00,60.52,180.00,13.00,0.00,29.60,M,10.00,23.00,OVC,M,M,M,2900.00,M,M,M,M,M,M,M,M,M,M,42.07,KELY 060615Z AUTO 18013G23KT 10SM OVC029 09/02 A2960 RMK AO2 T00890017,M
BAM,2025-03-06 06:15,-116.8743,40.5990,1382.36,33.80,33.80,100.00,0.00,0.00,0.00,29.61,M,1.50,M,BKN,OVC,M,M,300.00,700.00,M,M,M,M,M,M,M,M,M,33.80,KBAM 060615Z AUTO 00000KT 1 1/2SM BKN003 OVC007 01/01 A2961 RMK AO1,M
CXP,2025-03-06 06:15,-119.7326,39.1923,1431.00,33.80,30.20,86.49,230.00,4.00,0.00,29.70,M,10.00,M,SCT,BKN,OVC,M,700.00,5500.00,6500.00,M,M,M,M,M,M,M,M,29.52,KCXP 060615Z AUTO 23004KT 10SM SCT007 BKN055 OVC065 01/M01 A2970 RMK AO2,M
HTH,2025-03-06 06:15,-118.6315,38.5448,1282.89,37.40,33.80,86.69,330.00,4.00,0.00,29.69,M,10.00,M,BKN,BKN,OVC,M,1800.00,2700.00,4500.00,M,M,M,M,M,M,M,M,33.73,KHTH 060615Z AUTO 33004KT 10SM BKN018 BKN027 OVC045 03/01 A2969 RMK A01,M
10U,2025-03-06 06:20,-116.1876,41.9532,1637.00,32.00,32.00,100.00,360.00,4.00,0.00,29.57,M,4.00,M,SCT,BKN,OVC,M,700.00,2100.00,4500.00,M,-SN,M,M,M,M,M,M,27.42,K10U 060620Z AUTO 36004KT 4SM -SN SCT007 BKN021 OVC045 00/M00 A2957 RMK AO2,M
TPH,2025-03-06 06:23,-117.0904,38.0505,1654.00,33.00,31.00,92.25,10.00,7.00,0.02,29.62,M,1.50,M,OVC,M,M,M,1900.00,M,M,M,-SN BR,M,M,M,M,M,M,26.00,KTPH 060623Z AUTO 01007KT 1 1/2SM -SN BR OVC019 01/M01 A2962 RMK AO2 P0002 T00061006 $,M
TMT,2025-03-06 06:30,-117.1971,39.4643,1749.34,32.00,31.00,96.04,220.00,4.00,0.00,29.62,M,5.00,M,OVC,M,M,M,2500.00,M,M,M,-SN,M,M,M,M,M,M,27.42,KTMT 060630Z AUTO 22004KT 5SM -SN OVC025 00/00 A2962 RMK AO2 T00001005,M
BVU,2025-03-06 06:35,-114.8611,35.9475,671.00,57.20,33.80,41.13,190.00,15.00,0.00,29.69,M,10.00,M,SCT,BKN,OVC,M,4800.00,5500.00,7000.00,M,M,M,M,M,M,M,M,57.20,KBVU 060635Z AUTO 19015KT 10SM SCT048 BKN055 OVC070 14/01 A2969 RMK AO2,M
BAM,2025-03-06 06:35,-116.8743,40.5990,1382.36,33.80,33.80,100.00,0.00,0.00,0.00,29.61,M,2.00,M,BKN,BKN,OVC,M,300.00,900.00,1400.00,M,M,M,M,M,M,M,M,33.80,KBAM 060635Z AUTO 00000KT 2SM BKN003 BKN009 OVC014 01/01 A2961 RMK AO1,M
CXP,2025-03-06 06:35,-119.7326,39.1923,1431.00,33.80,30.20,86.49,350.00,5.00,0.00,29.70,M,10.00,M,FEW,BKN,OVC,M,4900.00,6000.00,7500.00,M,M,M,M,M,M,M,M,28.53,KCXP 060635Z AUTO 35005KT 10SM FEW049 BKN060 OVC075 01/M01 A2970 RMK AO2,M
RTS,2025-03-06 06:35,-119.8764,39.6682,1539.00,32.00,30.20,92.97,330.00,6.00,0.00,29.69,M,M,M,M,M,M,M,M,M,M,M,-SN,M,M,M,M,M,M,25.53,KRTS 060635Z AUTO 33006KT -SN M00/M01 A2969 RMK AO2,M
MEV,2025-03-06 06:35,-119.7500,38.9963,1441.42,33.80,32.00,93.03,20.00,5.00,0.00,29.68,M,10.00,M,BKN,OVC,M,M,7500.00,9500.00,M,M,M,M,M,M,M,M,M,28.53,KMEV 060635Z AUTO 02005KT 10SM BKN075 OVC095 01/M00 A2968 RMK AO2,M
HTH,2025-03-06 06:35,-118.6315,38.5448,1282.89,37.40,33.80,86.69,270.00,5.00,0.00,29.69,M,10.00,M,BKN,BKN,OVC,M,2000.00,4600.00,6000.00,M,M,M,M,M,M,M,M,32.81,KHTH 060635Z AUTO 27005KT 10SM BKN020 BKN046 OVC060 03/01 A2969 RMK A01,M
TPH,2025-03-06 06:37,-117.0904,38.0505,1654.00,33.00,31.00,92.25,350.00,7.00,0.03,29.62,M,1.50,M,OVC,M,M,M,1400.00,M,M,M,-SN BR,M,M,M,M,M,M,26.00,KTPH 060637Z AUTO 35007KT 1 1/2SM -SN BR OVC014 01/M01 A2962 RMK AO2 P0003 T00061006 $,M
10U,2025-03-06 06:40,-116.1876,41.9532,1637.00,32.00,32.00,100.00,350.00,4.00,0.00,29.56,M,10.00,M,FEW,SCT,BKN,M,700.00,2100.00,2800.00,M,UP,M,M,M,M,M,M,27.42,K10U 060640Z AUTO 35004KT 10SM UP FEW007 SCT021 BKN028 00/M00 A2956 RMK AO2,M
LSV,2025-03-06 06:43,-115.0343,36.2362,570.00,55.40,42.80,62.46,30.00,7.00,0.00,29.65,1003.10,10.00,M,FEW,M,M,M,6500.00,M,M,M,-RA,M,M,M,M,M,M,55.40,KLSV 060643Z AUTO 03007KT 10SM -RA FEW065 13/06 A2965 RMK AO2 RAB43 SLP031 $,M
LSV,2025-03-06 06:44,-115.0343,36.2362,570.00,55.40,42.80,62.46,30.00,6.00,0.00,29.64,1002.70,10.00,M,CLR,M,M,M,M,M,M,M,M,M,M,M,M,M,M,55.40,KLSV 060644Z AUTO 03006KT 10SM CLR 13/06 A2964 RMK AO2 RAB43E43 SLP027 $,M
RNO,2025-03-06 06:47,-119.7711,39.4839,1341.00,36.00,32.00,85.23,320.00,3.00,T,29.68,M,10.00,M,BKN,BKN,OVC,M,1600.00,4000.00,7000.00,M,M,M,M,M,M,M,M,33.26,KRNO 060647Z 32003KT 10SM BKN016 BKN040 OVC070 02/00 A2968 RMK AO2 RAB02E14 P0000 T00220000 $,M
EKO,2025-03-06 06:49,-115.7860,40.8242,1367.00,35.00,34.00,96.09,50.00,3.00,0.03,29.55,M,6.00,M,OVC,M,M,M,900.00,M,M,M,-RA BR,M,M,M,M,M,M,32.12,KEKO 060649Z AUTO 05003KT 6SM -RA BR OVC009 02/01 A2955 RMK AO2 UPE0559RAB0559 CIG 007V012 P0003 T00170011,M
TMT,2025-03-06 06:50,-117.1971,39.4643,1749.34,32.00,31.60,98.40,230.00,4.00,0.00,29.61,M,5.00,M,SCT,OVC,M,M,1900.00,2500.00,M,M,-SN,M,M,M,M,M,M,27.42,KTMT 060650Z AUTO 23004KT 5SM -SN SCT019 OVC025 00/00 A2961 RMK AO2 T00001002,M
ELY,2025-03-06 06:51,-114.8453,39.2950,1909.00,46.40,35.60,65.83,180.00,14.00,T,29.58,M,7.00,28.00,FEW,OVC,M,M,3000.00,3700.00,M,M,-RA,M,M,M,28.00,160.00,2025-03-06 06:44,39.72,KELY 060651Z AUTO 18014G28KT 7SM -RA FEW030 OVC037 08/02 A2958 RMK AO2 PK WND 16028/0644 RAB33 P0000,M
P68,2025-03-06 06:53,-116.0056,39.6014,1993.00,34.00,33.00,96.08,0.00,0.00,0.01,29.55,998.60,M,M,M,M,M,M,M,M,M,M,M,M,M,M,M,M,M,34.00,KP68 060653Z AUTO 00000KT 01/01 A2955 RMK AO1 SLP986 P0001 T00110006,M
DRA,2025-03-06 06:53,-116.0278,36.6206,1009.00,50.00,42.00,73.87,180.00,20.00,0.00,29.62,1000.70,10.00,31.00,BKN,BKN,BKN,M,8000.00,9500.00,11000.00,M,M,M,M,M,31.00,180.00,2025-03-06 06:37,50.00,KDRA 060653Z AUTO 18020G31KT 10SM BKN080 BKN095 BKN110 10/06 A2962 RMK AO2 PK WND 18031/0637 SLP007 T01000056,M
ELY,2025-03-06 06:53,-114.8453,39.2950,1909.00,47.00,35.00,62.84,180.00,13.00,T,29.58,997.20,7.00,28.00,OVC,M,M,M,3500.00,M,M,M,-RA,M,M,M,28.00,160.00,2025-03-06 06:44,40.79,KELY 060653Z AUTO 18013G28KT 7SM -RA OVC035 08/02 A2958 RMK AO2 PK WND 16028/0644 RAB33 SLP972 P0000 T00830017,M
VGT,2025-03-06 06:53,-115.1933,36.2111,667.00,57.00,40.00,52.90,170.00,14.00,T,29.66,1005.20,10.00,19.00,OVC,M,M,M,6500.00,M,M,M,-RA,M,M,M,M,M,M,57.00,KVGT 060653Z AUTO 17014G19KT 10SM -RA OVC065 14/04 A2966 RMK AO2 RAB05E21B41 SLP052 P0000 T01390044 $,M
LOL,2025-03-06 06:53,-118.5701,40.0684,1192.43,36.00,34.00,92.35,M,3.00,T,29.65,1004.30,10.00,M,FEW,SCT,OVC,M,1900.00,2800.00,5500.00,M,M,M,M,M,M,M,M,33.26,KLOL 060653Z AUTO VRB03KT 10SM FEW019 SCT028 OVC055 02/01 A2965 RMK AO2 RAE44 SLP043 P0000 T00220011,M
BVU,2025-03-06 06:55,-114.8611,35.9475,671.00,57.20,32.00,38.26,170.00,14.00,0.00,29.68,M,10.00,M,FEW,SCT,OVC,M,4500.00,5500.00,6500.00,M,M,M,M,M,M,M,M,57.20,KBVU 060655Z AUTO 17014KT 10SM FEW045 SCT055 OVC065 14/00 A2968 RMK AO2,M
RNO,2025-03-06 06:55,-119.7711,39.4839,1341.00,36.00,33.00,88.73,340.00,4.00,T,29.68,1004.80,10.00,M,BKN,OVC,M,M,1600.00,6000.00,M,M,M,M,M,M,M,M,M,32.09,KRNO 060655Z 34004KT 10SM BKN016 OVC060 02/01 A2968 RMK AO2 RAB02E14 SLP048 P0000 T00220006 $,M
BAM,2025-03-06 06:55,-116.8743,40.5990,1382.36,33.80,33.80,100.00,0.00,0.00,0.00,29.60,M,3.00,M,OVC,M,M,M,800.00,M,M,M,M,M,M,M,M,M,M,33.80,KBAM 060655Z AUTO 00000KT 3SM OVC008 01/01 A2960 RMK AO1,M
CXP,2025-03-06 06:55,-119.7326,39.1923,1431.00,35.60,30.20,80.51,0.00,0.00,0.00,29.69,M,10.00,M,BKN,OVC,M,M,6000.00,7000.00,M,M,M,M,M,M,M,M,M,35.60,KCXP 060655Z AUTO 00000KT 10SM BKN060 OVC070 02/M01 A2969 RMK AO2,M
RTS,2025-03-06 06:55,-119.8764,39.6682,1539.00,32.00,30.20,92.97,320.00,7.00,0.00,29.69,M,M,M,M,M,M,M,M,M,M,M,-SN,M,M,M,M,M,M,24.78,KRTS 060655Z AUTO 32007KT -SN M00/M01 A2969 RMK AO2,M
MEV,2025-03-06 06:55,-119.7500,38.9963,1441.42,33.80,32.00,93.03,70.00,5.00,0.00,29.67,M,10.00,M,OVC,M,M,M,7000.00,M,M,M,M,M,M,M,M,M,M,28.53,KMEV 060655Z AUTO 07005KT 10SM OVC070 01/M00 A2967 RMK AO2,M
HTH,2025-03-06 06:55,-118.6315,38.5448,1282.89,37.40,35.60,93.14,250.00,6.00,0.00,29.68,M,10.00,M,BKN,BKN,OVC,M,2200.00,3100.00,6000.00,M,M,M,M,M,M,M,M,32.03,KHTH 060655Z AUTO 25006KT 10SM BKN022 BKN031 OVC060 03/02 A2968 RMK A01,M
INS,2025-03-06 06:55,-115.6733,36.5872,955.00,48.60,41.00,74.88,170.00,3.00,0.00,29.64,1001.60,10.00,M,BKN,OVC,M,M,4600.00,5500.00,M,M,M,M,M,M,M,M,M,47.67,KINS 060655Z AUTO 17003KT 10SM BKN046 OVC055 09/05 A2964 RMK AO2 SLP016 T00920050 $,M
LSV,2025-03-06 06:55,-115.0343,36.2362,570.00,57.00,41.00,54.99,90.00,4.00,T,29.64,1002.60,10.00,M,CLR,M,M,M,M,M,M,M,M,M,M,M,M,M,M,57.00,KLSV 060655Z AUTO 09004KT 10SM CLR 14/05 A2964 RMK AO2 RAB43E43 SLP026 P0000 T01390050 $,M
EKO,2025-03-06 06:56,-115.7860,40.8242,1367.00,35.00,34.00,96.09,10.00,3.00,0.03,29.55,1000.70,8.00,M,OVC,M,M,M,1000.00,M,M,M,-RA,M,M,M,M,M,M,32.12,KEKO 060656Z AUTO 01003KT 8SM -RA OVC010 02/01 A2955 RMK AO2 UPE0559RAB0559 CIG 007V014 SLP007 P0003 T00170011,M
WMC,2025-03-06 06:56,-117.8072,40.9019,1315.00,M,M,M,M,M,0.00,29.61,M,M,M,M,M,M,M,M,M,M,M,M,M,M,M,M,M,M,M,KWMC 060656Z AUTO A2961 RMK AO2 SLPNO PWINO FZRANO TSNO,M
HND,2025-03-06 06:56,-115.1344,35.9729,742.79,56.00,36.00,46.88,210.00,9.00,T,29.70,1006.20,10.00,M,BKN,BKN,OVC,M,6000.00,7000.00,9000.00,M,-RA,M,M,M,M,M,M,56.00,KHND 060656Z AUTO 21009KT 10SM -RA BKN060 BKN070 OVC090 13/02 A2970 RMK AO2 RAB08 SLP062 P0000 T01330022 401890056 $,M
TPH,2025-03-06 06:56,-117.0904,38.0505,1654.00,32.00,31.00,96.04,340.00,6.00,0.04,29.62,1002.10,1.75,M,OVC,M,M,M,1300.00,M,M,M,-SN BR,M,M,M,M,M,M,25.53,KTPH 060656Z AUTO 34006KT 1 3/4SM -SN BR OVC013 00/M01 A2962 RMK AO2 SLP021 P0004 T00001006 $,M
LAS,2025-03-06 06:56,-115.1634,36.0719,663.00,57.00,38.00,48.93,190.00,7.00,T,29.68,1004.10,10.00,M,BKN,OVC,M,M,6500.00,8000.00,M,M,-RA,M,M,M,M,M,M,57.00,KLAS 060656Z 19007KT 10SM -RA BKN065 OVC080 14/03 A2968 RMK AO2 RAB49 SLP041 MTNS OBSCURED DSNT SW-NW P0000 T01390033,M
NFL,2025-03-06 06:57,-118.7010,39.4166,1199.00,37.00,34.00,88.78,290.00,4.00,0.01,29.67,1003.10,8.00,M,OVC,M,M,M,3100.00,M,M,M,UP,M,M,M,M,M,M,33.26,KNFL 060657Z 29004KT 8SM UP OVC031 03/01 A2967 RMK AO2 UPB02E11B52RAB11E52 SLP031 P0001 T00280011,M
10U,2025-03-06 07:00,-116.1876,41.9532,1637.00,32.00,32.00,100.00,360.00,4.00,0.00,29.56,M,10.00,M,FEW,OVC,M,M,700.00,2700.00,M,M,UP,M,M,M,M,M,M,27.42,K10U 060700Z AUTO 36004KT 10SM UP FEW007 OVC027 00/M00 A2956 RMK AO2,M
RTS,2025-03-06 07:05,-119.8764,39.6682,1539.00,32.00,30.20,92.97,310.00,4.00,0.00,29.69,M,M,M,M,M,M,M,M,M,M,M,-SN,M,M,M,M,M,M,27.42,KRTS 060705Z AUTO 31004KT -SN M00/M01 A2969 RMK AO2,M
MEV,2025-03-06 07:05,-119.7500,38.9963,1441.42,33.80,32.00,93.03,80.00,4.00,0.00,29.67,M,10.00,M,OVC,M,M,M,7000.00,M,M,M,M,M,M,M,M,M,M,29.52,KMEV 060705Z AUTO 08004KT 10SM OVC070 01/M00 A2967 RMK AO2,M
TPH,2025-03-06 07:06,-117.0904,38.0505,1654.00,33.00,31.00,92.25,340.00,6.00,T,29.61,M,3.00,M,OVC,M,M,M,1600.00,M,M,M,-SN BR,M,M,M,M,M,M,26.73,KTPH 060706Z AUTO 34006KT 3SM -SN BR OVC016 01/M01 A2961 RMK AO2 P0000 T00061006 $,M
LSV,2025-03-06 07:07,-115.0343,36.2362,570.00,57.20,41.00,54.60,190.00,6.00,0.00,29.63,1002.30,10.00,M,FEW,M,M,M,6000.00,M,M,M,-RA,M,M,M,M,M,M,57.20,KLSV 060707Z AUTO 19006KT 10SM -RA FEW060 14/05 A2963 RMK AO2 RAB07 SLP023 $,M
TMT,2025-03-06 07:10,-117.1971,39.4643,1749.34,32.00,31.50,98.00,230.00,3.00,0.00,29.62,M,5.00,M,OVC,M,M,M,2500.00,M,M,M,-SN,M,M,M,M,M,M,28.69,KTMT 060710Z AUTO 23003KT 5SM -SN OVC025 00/00 A2962 RMK AO2 T00001003,M
ELY,2025-03-06 07:13,-114.8453,39.2950,1909.00,48.00,35.00,60.52,170.00,13.00,T,29.58,M,5.00,20.00,OVC,M,M,M,2700.00,M,M,M,-RA,M,M,M,M,M,M,42.07,KELY 060713Z AUTO 17013G20KT 5SM -RA OVC027 09/02 A2958 RMK AO2 P0000 T00890017,M
INS,2025-03-06 07:14,-115.6733,36.5872,955.00,48.20,41.00,76.01,0.00,0.00,0.00,29.63,1001.10,10.00,M,BKN,OVC,M,M,4100.00,5000.00,M,M,-DZ,M,M,M,M,M,M,48.20,KINS 060714Z AUTO 00000KT 10SM -DZ BKN041 OVC050 09/05 A2963 RMK AO2 DZB14 SLP011 $,M
BVU,2025-03-06 07:15,-114.8611,35.9475,671.00,59.00,30.20,33.35,170.00,14.00,0.00,29.66,M,10.00,M,OVC,M,M,M,6000.00,M,M,M,M,M,M,M,M,M,M,59.00,KBVU 060715Z AUTO 17014KT 10SM OVC060 15/M01 A2966 RMK AO2,M
BAM,2025-03-06 07:15,-116.8743,40.5990,1382.36,33.80,33.80,100.00,0.00,0.00,0.00,29.60,M,2.50,M,OVC,M,M,M,600.00,M,M,M,M,M,M,M,M,M,M,33.80,KBAM 060715Z AUTO 00000KT 2 1/2SM OVC006 01/01 A2960 RMK AO1,M
CXP,2025-03-06 07:15,-119.7326,39.1923,1431.00,35.60,28.40,74.80,0.00,0.00,0.00,29.69,M,10.00,M,BKN,BKN,OVC,M,6000.00,6500.00,7500.00,M,M,M,M,M,M,M,M,35.60,KCXP 060715Z AUTO 00000KT 10SM BKN060 BKN065 OVC075 02/M02 A2969 RMK AO2,M
HTH,2025-03-06 07:15,-118.6315,38.5448,1282.89,37.40,35.60,93.14,300.00,5.00,0.00,29.67,M,10.00,M,SCT,BKN,OVC,M,2300.00,2700.00,3700.00,M,M,M,M,M,M,M,M,32.81,KHTH 060715Z AUTO 30005KT 10SM SCT023 BKN027 OVC037 03/02 A2967 RMK A01,M
10U,2025-03-06 07:20,-116.1876,41.9532,1637.00,32.00,32.00,100.00,330.00,4.00,0.00,29.55,M,5.00,M,BKN,OVC,M,M,2100.00,2600.00,M,M,-SN,M,M,M,M,M,M,27.42,K10U 060720Z AUTO 33004KT 5SM -SN BKN021 OVC026 00/M00 A2955 RMK AO2,M
LSV,2025-03-06 07:25,-115.0343,36.2362,570.00,59.00,39.20,47.72,190.00,13.00,0.00,29.62,1001.90,10.00,M,SCT,M,M,M,6000.00,M,M,M,M,M,M,M,M,M,M,59.00,KLSV 060725Z AUTO 19013KT 10SM SCT060 15/04 A2962 RMK AO2 RAE0655RAB07E25 SLP019 $,M
TMT,2025-03-06 07:30,-117.1971,39.4643,1749.34,32.00,31.00,96.04,230.00,3.00,0.00,29.61,M,4.00,M,OVC,M,M,M,2500.00,M,M,M,-SN,M,M,M,M,M,M,28.69,KTMT 060730Z AUTO 23003KT 4SM -SN OVC025 00/M01 A2961 RMK AO2 T00001006,M
BVU,2025-03-06 07:35,-114.8611,35.9475,671.00,57.20,35.60,44.19,170.00,15.00,0.00,29.66,M,10.00,M,SCT,OVC,M,M,4600.00,6000.00,M,M,M,M,M,M,M,M,M,57.20,KBVU 060735Z AUTO 17015KT 10SM SCT046 OVC060 14/02 A2966 RMK AO2,M
BAM,2025-03-06 07:35,-116.8743,40.5990,1382.36,33.80,33.80,100.00,0.00,0.00,0.00,29.60,M,4.00,M,OVC,M,M,M,400.00,M,M,M,M,M,M,M,M,M,M,33.80,KBAM 060735Z AUTO 00000KT 4SM OVC004 01/01 A2960 RMK AO1,M
CXP,2025-03-06 07:35,-119.7326,39.1923,1431.00,35.60,28.40,74.80,0.00,0.00,0.00,29.69,M,10.00,M,FEW,OVC,M,M,6000.00,7000.00,M,M,M,M,M,M,M,M,M,35.60,KCXP 060735Z AUTO 00000KT 10SM FEW060 OVC070 02/M02 A2969 RMK AO2,M
RTS,2025-03-06 07:35,-119.8764,39.6682,1539.00,30.20,26.60,86.28,310.00,9.00,0.00,29.69,M,M,M,SCT,BKN,OVC,M,2600.00,4700.00,7500.00,M,M,M,M,M,M,M,M,21.28,KRTS 060735Z AUTO 31009KT SCT026 BKN047 OVC075 M01/M03 A2969 RMK AO2,M
MEV,2025-03-06 07:35,-119.7500,38.9963,1441.42,33.80,30.20,86.49,0.00,0.00,0.00,29.67,M,10.00,M,FEW,OVC,M,M,6000.00,7000.00,M,M,M,M,M,M,M,M,M,33.80,KMEV 060735Z AUTO 00000KT 10SM FEW060 OVC070 01/M01 A2967 RMK AO2,M
HTH,2025-03-06 07:35,-118.6315,38.5448,1282.89,37.40,33.80,86.69,230.00,3.00,0.00,29.67,M,10.00,M,BKN,BKN,OVC,M,2400.00,3100.00,3700.00,M,M,M,M,M,M,M,M,34.86,KHTH 060735Z AUTO 23003KT 10SM BKN024 BKN031 OVC037 03/01 A2967 RMK A01,M
LSV,2025-03-06 07:37,-115.0343,36.2362,570.00,57.20,41.00,54.60,210.00,8.00,0.00,29.62,1001.90,10.00,M,BKN,M,M,M,6000.00,M,M,M,-RA,M,M,M,M,M,M,57.20,KLSV 060737Z AUTO 21008KT 10SM -RA BKN060 14/05 A2962 RMK AO2 RAB07E25RAB37 SLP019 $,M
10U,2025-03-06 07:40,-116.1876,41.9532,1637.00,32.00,32.00,100.00,340.00,3.00,0.00,29.55,M,8.00,M,BKN,OVC,M,M,800.00,2100.00,M,M,-SN,M,M,M,M,M,M,28.69,K10U 060740Z AUTO 34003KT 8SM -SN BKN008 OVC021 00/M00 A2955 RMK AO2,M
INS,2025-03-06 07:44,-115.6733,36.5872,955.00,50.00,41.00,71.07,140.00,4.00,0.00,29.63,1001.10,10.00,M,SCT,BKN,OVC,M,3900.00,4900.00,6000.00,M,M,M,M,M,M,M,M,50.00,KINS 060744Z AUTO 14004KT 10SM SCT039 BKN049 OVC060 10/05 A2963 RMK AO2 DZE0655DZB14E18RAB18E41DZB41E44 SLP011 $,M
MEV,2025-03-06 07:45,-119.7500,38.9963,1441.42,33.80,30.20,86.49,0.00,0.00,0.00,29.67,M,10.00,M,OVC,M,M,M,7500.00,M,M,M,M,M,M,M,M,M,M,33.80,KMEV 060745Z AUTO 00000KT 10SM OVC075 01/M01 A2967 RMK AO2,M
RTS,2025-03-06 07:45,-119.8764,39.6682,1539.00,30.20,26.60,86.28,280.00,8.00,0.00,29.69,M,M,M,BKN,BKN,OVC,M,2600.00,3600.00,7500.00,M,M,M,M,M,M,M,M,21.90,KRTS 060745Z AUTO 28008KT BKN026 BKN036 OVC075 M01/M03 A2969 RMK AO2,M
CXP,2025-03-06 07:50,-119.7326,39.1923,1431.00,35.60,26.60,69.46,180.00,5.00,0.00,29.68,M,10.00,M,FEW,BKN,OVC,M,5000.00,6000.00,7000.00,M,M,M,M,M,M,M,M,30.67,KCXP 060750Z AUTO 18005KT 10SM FEW050 BKN060 OVC070 02/M03 A2968 RMK AO2,M
TMT,2025-03-06 07:50,-117.1971,39.4643,1749.34,32.00,30.20,92.97,230.00,5.00,0.00,29.61,M,10.00,M,SCT,SCT,OVC,M,2300.00,2700.00,4200.00,M,M,M,M,M,M,M,M,26.40,KTMT 060750Z AUTO 23005KT 10SM SCT023 SCT027 OVC042 00/M01 A2961 RMK AO2 T00001010,M
LSV,2025-03-06 07:52,-115.0343,36.2362,570.00,57.20,41.00,54.60,240.00,7.00,0.00,29.61,1001.60,10.00,M,BKN,M,M,M,6000.00,M,M,M,M,M,M,M,M,M,M,57.20,KLSV 060752Z AUTO 24007KT 10SM BKN060 14/05 A2961 RMK AO2 RAE0655RAB07E25RAB37E52 SLP016 $,M
P68,2025-03-06 07:53,-116.0056,39.6014,1993.00,33.00,32.00,96.06,240.00,7.00,0.02,29.54,998.40,M,M,M,M,M,M,M,M,M,M,M,M,M,M,M,M,M,26.00,KP68 060753Z AUTO 24007KT 01/00 A2954 RMK AO1 SLP984 P0002 T00060000 400501017,M
DRA,2025-03-06 07:53,-116.0278,36.6206,1009.00,48.00,41.00,76.58,180.00,26.00,T,29.60,999.90,10.00,37.00,BKN,OVC,M,M,5000.00,6500.00,M,M,-RA,M,M,M,37.00,170.00,2025-03-06 07:51,39.31,KDRA 060753Z AUTO 18026G37KT 10SM -RA BKN050 OVC065 09/05 A2960 RMK AO2 PK WND 17037/0751 RAB32 SLP999 P0000 T00890050 401500028,M
ELY,2025-03-06 07:53,-114.8453,39.2950,1909.00,47.00,35.00,62.84,170.00,13.00,T,29.56,994.50,3.00,21.00,OVC,M,M,M,2200.00,M,M,M,-RA,M,M,M,M,M,M,40.79,KELY 060753Z AUTO 17013G21KT 3SM -RA OVC022 08/02 A2956 RMK AO2 SLP945 P0000 T00830017 401221006,M
VGT,2025-03-06 07:53,-115.1933,36.2111,667.00,55.00,41.00,59.13,180.00,9.00,T,29.64,1004.40,10.00,M,BKN,OVC,M,M,7000.00,9000.00,M,M,M,M,M,M,M,M,M,55.00,KVGT 060753Z AUTO 18009KT 10SM BKN070 OVC090 13/05 A2964 RMK AO2 RAE21 SLP044 P0000 T01280050 401940072 $,M
LOL,2025-03-06 07:53,-118.5701,40.0684,1192.43,37.00,30.00,75.56,340.00,13.00,T,29.64,1004.10,10.00,21.00,BKN,OVC,M,M,4200.00,5000.00,M,M,UP,M,M,M,M,M,M,27.97,KLOL 060753Z AUTO 34013G21KT 10SM UP BKN042 OVC050 03/M01 A2964 RMK AO2 RAB42E50UPB50SNB43E44 SLP041 P0000 T00281011 400500011,M
BVU,2025-03-06 07:55,-114.8611,35.9475,671.00,55.40,39.20,54.34,180.00,10.00,0.00,29.65,M,10.00,M,FEW,BKN,OVC,M,500.00,4800.00,5500.00,M,M,M,M,M,M,M,M,55.40,KBVU 060755Z AUTO 18010KT 10SM FEW005 BKN048 OVC055 13/04 A2965 RMK AO2,M
RNO,2025-03-06 07:55,-119.7711,39.4839,1341.00,35.00,29.00,78.51,350.00,8.00,T,29.67,1004.40,10.00,M,SCT,OVC,M,M,1600.00,6000.00,M,M,M,M,M,M,M,M,M,27.81,KRNO 060755Z 35008KT 10SM SCT016 OVC060 02/M02 A2967 RMK AO2 UPB06E07RAB10E32 SLP044 P0000 T00171017 400610017 $,M
BAM,2025-03-06 07:55,-116.8743,40.5990,1382.36,33.80,33.80,100.00,270.00,3.00,0.00,29.60,M,7.00,M,BKN,OVC,M,M,400.00,800.00,M,M,M,M,M,M,M,M,M,30.75,KBAM 060755Z AUTO 27003KT 7SM BKN004 OVC008 01/01 A2960 RMK AO1,M
HTH,2025-03-06 07:55,-118.6315,38.5448,1282.89,37.40,35.60,93.14,250.00,4.00,0.00,29.67,M,10.00,M,BKN,OVC,M,M,2300.00,3000.00,M,M,M,M,M,M,M,M,M,33.73,KHTH 060755Z AUTO 25004KT 10SM BKN023 OVC030 03/02 A2967 RMK A01,M
INS,2025-03-06 07:55,-115.6733,36.5872,955.00,48.60,42.00,77.83,0.00,0.00,0.01,29.62,1000.80,10.00,M,BKN,OVC,M,M,4300.00,5000.00,M,M,M,M,M,M,M,M,M,48.60,KINS 060755Z AUTO 00000KT 10SM BKN043 OVC050 09/06 A2962 RMK AO2 DZB14E18RAB18E41DZB41E44 SLP008 P0001 T00920056 401480019 $,M
LSV,2025-03-06 07:55,-115.0343,36.2362,570.00,56.50,42.80,60.02,240.00,7.00,T,29.61,1001.60,10.00,M,BKN,M,M,M,6000.00,M,M,M,M,M,M,M,M,M,M,56.50,KLSV 060755Z AUTO 24007KT 10SM BKN060 14/06 A2961 RMK AO2 RAE0655RAB07E25RAB37E52 SLP016 P0000 T01360060 402050085 $,M
EKO,2025-03-06 07:56,-115.7860,40.8242,1367.00,34.00,33.00,96.08,0.00,0.00,0.03,29.53,1000.30,7.00,M,SCT,BKN,OVC,M,600.00,1000.00,2500.00,M,-SN,M,M,M,M,M,M,34.00,KEKO 060756Z AUTO 00000KT 7SM -SN SCT006 BKN010 OVC025 01/01 A2953 RMK AO2 RAE00UPB00E05SNB05 SLP003 P0003 T00110006 400441022,M
WMC,2025-03-06 07:56,-117.8072,40.9019,1315.00,M,M,M,M,M,0.00,29.60,M,M,M,M,M,M,M,M,M,M,M,M,M,M,M,M,M,M,M,KWMC 060756Z AUTO A2960 RMK AO2 SLPNO PWINO FZRANO TSNO,M
HND,2025-03-06 07:56,-115.1344,35.9729,742.79,54.00,41.00,61.32,190.00,11.00,T,29.67,1005.40,10.00,M,FEW,OVC,M,M,4900.00,7000.00,M,M,-RA,M,M,M,M,M,M,54.00,KHND 060756Z AUTO 19011KT 10SM -RA FEW049 OVC070 12/05 A2967 RMK AO2 SLP054 P0000 T01220050 $,M
TPH,2025-03-06 07:56,-117.0904,38.0505,1654.00,33.00,31.00,92.25,330.00,6.00,T,29.61,1001.80,2.50,M,OVC,M,M,M,2600.00,M,M,M,-SN BR,M,M,M,M,M,M,26.73,KTPH 060756Z AUTO 33006KT 2 1/2SM -SN BR OVC026 01/M01 A2961 RMK AO2 SLP018 P0000 T00061006 400671011 $,M
LAS,2025-03-06 07:56,-115.1634,36.0719,663.00,56.00,40.00,54.85,190.00,6.00,T,29.66,1003.20,10.00,M,SCT,BKN,OVC,M,5500.00,9000.00,11000.00,M,M,M,M,M,M,M,M,56.00,KLAS 060756Z 19006KT 10SM SCT055 BKN090 OVC110 13/04 A2966 RMK AO2 RAE16 SLP032 TOPS OF MTNS OBSCURED DSNT W-NW P0000 T01330044 401890089,M
NFL,2025-03-06 07:57,-118.7010,39.4166,1199.00,37.00,35.00,92.39,0.00,0.00,0.01,29.67,1002.90,9.00,M,SCT,OVC,M,M,2300.00,3300.00,M,M,M,M,M,M,M,M,M,37.00,KNFL 060757Z AUTO 00000KT 9SM SCT023 OVC033 03/02 A2967 RMK AO2 UPE40 SLP029 P0001 T00280017 400720028,M
TPH,2025-03-06 08:00,-117.0904,38.0505,1654.00,33.00,31.00,92.25,340.00,6.00,T,29.61,M,3.00,M,OVC,M,M,M,3200.00,M,M,M,-SN BR,M,M,M,M,M,M,26.73,KTPH 060800Z AUTO 34006KT 3SM -SN BR OVC032 01/M01 A2961 RMK AO2 P0000 T00061006 $,M
10U,2025-03-06 08:00,-116.1876,41.9532,1637.00,32.00,32.00,100.00,0.00,0.00,0.00,29.54,M,7.00,M,BKN,OVC,M,M,800.00,1700.00,M,M,UP,M,M,M,M,M,M,32.00,K10U 060800Z AUTO 00000KT 7SM UP BKN008 OVC017 00/00 A2954 RMK AO2,M
INS,2025-03-06 08:03,-115.6733,36.5872,955.00,48.20,42.80,81.47,250.00,5.00,0.00,29.62,1000.80,10.00,M,FEW,BKN,OVC,M,1200.00,4000.00,4800.00,M,-DZ,M,M,M,M,M,M,45.63,KINS 060803Z AUTO 25005KT 10SM -DZ FEW012 BKN040 OVC048 09/06 A2962 RMK AO2 DZB03 SLP008 $,M
NFL,2025-03-06 08:09,-118.7010,39.4166,1199.00,37.00,34.00,88.78,0.00,0.00,0.00,29.67,M,10.00,M,BKN,OVC,M,M,2300.00,3100.00,M,M,M,M,M,M,M,M,M,37.00,KNFL 060809Z AUTO 00000KT 10SM BKN023 OVC031 03/01 A2967 RMK AO2 T00280011,M
TMT,2025-03-06 08:10,-117.1971,39.4643,1749.34,32.00,30.20,92.97,240.00,5.00,0.00,29.60,M,10.00,M,BKN,BKN,OVC,M,3100.00,3800.00,4400.00,M,M,M,M,M,M,M,M,26.40,KTMT 060810Z AUTO 24005KT 10SM BKN031 BKN038 OVC044 00/M01 A2960 RMK AO2 T10011010,M
BVU,2025-03-06 08:15,-114.8611,35.9475,671.00,55.40,41.00,58.27,180.00,9.00,0.00,29.65,M,10.00,M,OVC,M,M,M,5000.00,M,M,M,-DZ,M,M,M,M,M,M,55.40,KBVU 060815Z AUTO 18009KT 10SM -DZ OVC050 13/05 A2965 RMK AO2,M
BAM,2025-03-06 08:15,-116.8743,40.5990,1382.36,33.80,33.80,100.00,250.00,3.00,0.00,29.59,M,10.00,M,SCT,BKN,OVC,M,400.00,1000.00,5000.00,M,M,M,M,M,M,M,M,30.75,KBAM 060815Z AUTO 25003KT 10SM SCT004 BKN010 OVC050 01/01 A2959 RMK AO1,M
CXP,2025-03-06 08:15,-119.7326,39.1923,1431.00,35.60,23.00,59.79,240.00,6.00,0.00,29.68,M,10.00,13.00,BKN,BKN,OVC,M,4800.00,5500.00,7000.00,M,M,M,M,M,M,M,M,29.87,KCXP 060815Z AUTO 24006G13KT 10SM BKN048 BKN055 OVC070 02/M05 A2968 RMK AO2,M
RTS,2025-03-06 08:15,-119.8764,39.6682,1539.00,30.20,28.40,92.92,260.00,8.00,0.00,29.69,M,M,M,M,M,M,M,M,M,M,M,-SN,M,M,M,M,M,M,21.90,KRTS 060815Z AUTO 26008KT -SN M01/M02 A2969 RMK AO2,M
MEV,2025-03-06 08:15,-119.7500,38.9963,1441.42,33.80,30.20,86.49,M,3.00,0.00,29.67,M,10.00,M,FEW,SCT,BKN,M,4600.00,6000.00,7500.00,M,M,M,M,M,M,M,M,30.75,KMEV 060815Z AUTO VRB03KT 10SM FEW046 SCT060 BKN075 01/M01 A2967 RMK AO2,M
HTH,2025-03-06 08:15,-118.6315,38.5448,1282.89,37.40,33.80,86.69,250.00,4.00,0.00,29.67,M,10.00,M,FEW,OVC,M,M,2300.00,3100.00,M,M,M,M,M,M,M,M,M,33.73,KHTH 060815Z AUTO 25004KT 10SM FEW023 OVC031 03/01 A2967 RMK A01,M
10U,2025-03-06 08:20,-116.1876,41.9532,1637.00,32.00,32.00,100.00,0.00,0.00,0.00,29.54,M,3.00,M,FEW,BKN,OVC,M,300.00,700.00,1700.00,M,-SN,M,M,M,M,M,M,32.00,K10U 060820Z AUTO 00000KT 3SM -SN FEW003 BKN007 OVC017 00/M00 A2954 RMK AO2,M
LSV,2025-03-06 08:23,-115.0343,36.2362,570.00,57.20,41.00,54.60,210.00,12.00,0.00,29.59,1000.90,10.00,M,SCT,M,M,M,6000.00,M,M,M,-RA,M,M,M,M,M,M,57.20,KLSV 060823Z AUTO 21012KT 10SM -RA SCT060 14/05 A2959 RMK AO2 RAB23 SLP009 $,M
ELY,2025-03-06 08:30,-114.8453,39.2950,1909.00,46.00,35.00,65.26,160.00,13.00,T,29.55,M,2.00,23.00,OVC,M,M,M,2100.00,M,M,M,-RA,M,M,M,M,M,M,39.50,KELY 060830Z AUTO 16013G23KT 2SM -RA OVC021 08/02 A2955 RMK AO2 P0000 T00780017,M
TMT,2025-03-06 08:30,-117.1971,39.4643,1749.34,32.00,30.00,92.22,230.00,4.00,0.00,29.61,M,10.00,M,BKN,OVC,M,M,2400.00,3100.00,M,M,M,M,M,M,M,M,M,27.42,KTMT 060830Z AUTO 23004KT 10SM BKN024 OVC031 00/M01 A2961 RMK AO2 T10011011,M
LSV,2025-03-06 08:33,-115.0343,36.2362,570.00,57.20,41.00,54.60,190.00,13.00,0.00,29.60,1001.10,10.00,M,SCT,M,M,M,5500.00,M,M,M,-RA,M,M,M,M,M,M,57.20,KLSV 060833Z AUTO 19013KT 10SM -RA SCT055 14/05 A2960 RMK AO2 WSHFT 25 RAE0755RAB23 SLP011 $,M
LSV,2025-03-06 08:34,-115.0343,36.2362,570.00,57.20,41.00,54.60,190.00,14.00,0.00,29.60,1001.10,10.00,M,FEW,M,M,M,5500.00,M,M,M,M,M,M,M,M,M,M,57.20,KLSV 060834Z AUTO 19014KT 10SM FEW055 14/05 A2960 RMK AO2 RAE0755RAB23E34 SLP011 $,M
BVU,2025-03-06 08:35,-114.8611,35.9475,671.00,53.60,42.80,66.70,160.00,11.00,0.00,29.64,M,6.00,M,FEW,OVC,M,M,3800.00,5000.00,M,M,-RA,M,M,M,M,M,M,53.60,KBVU 060835Z AUTO 16011KT 6SM -RA FEW038 OVC050 12/06 A2964 RMK AO2,M
BAM,2025-03-06 08:35,-116.8743,40.5990,1382.36,33.80,33.80,100.00,240.00,5.00,0.00,29.58,M,10.00,M,SCT,OVC,M,M,1000.00,2600.00,M,M,M,M,M,M,M,M,M,28.53,KBAM 060835Z AUTO 24005KT 10SM SCT010 OVC026 01/01 A2958 RMK AO1,M
CXP,2025-03-06 08:35,-119.7326,39.1923,1431.00,35.60,24.80,64.46,210.00,7.00,0.00,29.68,M,10.00,M,OVC,M,M,M,4600.00,M,M,M,M,M,M,M,M,M,M,29.17,KCXP 060835Z AUTO 21007KT 10SM OVC046 02/M04 A2968 RMK AO2,M
RTS,2025-03-06 08:35,-119.8764,39.6682,1539.00,30.20,28.40,92.92,270.00,8.00,0.00,29.69,M,M,14.00,M,M,M,M,M,M,M,M,-SN,M,M,M,M,M,M,21.90,KRTS 060835Z AUTO 27008G14KT -SN M01/M02 A2969 RMK AO2,M
MEV,2025-03-06 08:35,-119.7500,38.9963,1441.42,35.60,23.00,59.79,310.00,5.00,0.00,29.67,M,10.00,M,BKN,BKN,OVC,M,5000.00,6000.00,7500.00,M,M,M,M,M,M,M,M,30.67,KMEV 060835Z AUTO 31005KT 10SM BKN050 BKN060 OVC075 02/M05 A2967 RMK AO2,M
HTH,2025-03-06 08:35,-118.6315,38.5448,1282.89,37.40,33.80,86.69,240.00,5.00,0.00,29.66,M,10.00,M,OVC,M,M,M,3200.00,M,M,M,M,M,M,M,M,M,M,32.81,KHTH 060835Z AUTO 24005KT 10SM OVC032 03/01 A2966 RMK A01,M
10U,2025-03-06 08:40,-116.1876,41.9532,1637.00,32.00,32.00,100.00,350.00,3.00,0.00,29.54,M,5.00,M,BKN,OVC,M,M,600.00,1700.00,M,M,UP,M,M,M,M,M,M,28.69,K10U 060840Z AUTO 35003KT 5SM UP BKN006 OVC017 00/M00 A2954 RMK AO2,M
ELY,2025-03-06 08:46,-114.8453,39.2950,1909.00,46.00,35.00,65.26,160.00,14.00,0.01,29.54,M,3.00,22.00,OVC,M,M,M,2000.00,M,M,M,-RA,M,M,M,M,M,M,39.21,KELY 060846Z AUTO 16014G22KT 3SM -RA OVC020 08/02 A2954 RMK AO2 P0001 T00780017,M
TMT,2025-03-06 08:50,-117.1971,39.4643,1749.34,31.50,30.20,94.87,210.00,3.00,0.00,29.60,M,7.00,M,OVC,M,M,M,2200.00,M,M,M,-SN,M,M,M,M,M,M,28.12,KTMT 060850Z AUTO 21003KT 7SM -SN OVC022 00/M01 A2960 RMK AO2 T10031010,M
LSV,2025-03-06 08:52,-115.0343,36.2362,570.00,55.40,42.80,62.46,210.00,11.00,0.00,29.59,1000.90,10.00,M,FEW,M,M,M,5500.00,M,M,M,-RA,M,M,M,M,M,M,55.40,KLSV 060852Z AUTO 21011KT 10SM -RA FEW055 13/06 A2959 RMK AO2 RAB23E34RAB52 SLP009 $,M
P68,2025-03-06 08:53,-116.0056,39.6014,1993.00,33.00,32.00,96.06,220.00,6.00,0.00,29.53,998.00,M,M,M,M,M,M,M,M,M,M,M,M,M,M,M,M,M,26.73,KP68 060853Z AUTO 22006KT 01/00 A2953 RMK AO1 SLP980 60003 T00060000 56009,M
DRA,2025-03-06 08:53,-116.0278,36.6206,1009.00,49.00,35.00,58.30,180.00,20.00,T,29.58,999.60,10.00,33.00,SCT,BKN,OVC,M,7500.00,9000.00,11000.00,M,M,M,M,M,35.00,170.00,2025-03-06 08:07,41.72,KDRA 060853Z AUTO 18020G33KT 10SM SCT075 BKN090 OVC110 09/02 A2958 RMK AO2 PK WND 17035/0807 RAE04 SLP996 P0000 60000 T00940017 56025,M
ELY,2025-03-06 08:53,-114.8453,39.2950,1909.00,47.00,36.00,65.38,170.00,13.00,0.01,29.54,994.60,4.00,22.00,BKN,BKN,OVC,M,2000.00,2800.00,3400.00,M,-RA,M,M,M,M,M,M,40.79,KELY 060853Z AUTO 17013G22KT 4SM -RA BKN020 BKN028 OVC034 08/02 A2954 RMK AO2 SLP946 P0001 60001 T00830022 58013,M
VGT,2025-03-06 08:53,-115.1933,36.2111,667.00,54.00,43.00,66.24,180.00,9.00,T,29.62,1003.70,10.00,M,SCT,BKN,OVC,M,6000.00,8000.00,10000.00,M,M,M,M,M,M,M,M,54.00,KVGT 060853Z AUTO 18009KT 10SM SCT060 BKN080 OVC100 12/06 A2962 RMK AO2 RAB25E47 SLP037 P0000 60000 T01220061 56025 $,M
LOL,2025-03-06 08:53,-118.5701,40.0684,1192.43,35.00,33.00,92.32,170.00,6.00,T,29.64,1004.30,10.00,M,OVC,M,M,M,3400.00,M,M,M,-RA,M,M,M,M,M,M,29.14,KLOL 060853Z AUTO 17006KT 10SM -RA OVC034 02/01 A2964 RMK AO2 UPE0755RAB42 SLP043 P0000 60000 T00170006 56004,M
NFL,2025-03-06 08:53,-118.7010,39.4166,1199.00,35.60,33.80,93.08,240.00,10.00,0.03,29.67,M,4.00,M,BKN,BKN,OVC,M,800.00,1400.00,1900.00,M,RA BR,M,M,M,M,M,M,27.48,KNFL 060853Z AUTO 24010KT 4SM RA BR BKN008 BKN014 OVC019 02/01 A2967 RMK AO2 UPB20E49RAB49 P0003,M
BVU,2025-03-06 08:55,-114.8611,35.9475,671.00,53.60,41.00,62.23,160.00,12.00,0.00,29.63,M,9.00,M,OVC,M,M,M,4900.00,M,M,M,-RA,M,M,M,M,M,M,53.60,KBVU 060855Z AUTO 16012KT 9SM -RA OVC049 12/05 A2963 RMK AO2,M
RNO,2025-03-06 08:55,-119.7711,39.4839,1341.00,34.00,27.00,75.26,320.00,10.00,0.00,29.67,1004.50,10.00,19.00,SCT,OVC,M,M,2000.00,6000.00,M,M,M,M,M,M,M,M,M,25.48,KRNO 060855Z 32010G19KT 10SM SCT020 OVC060 01/M03 A2967 RMK AO2 SLP045 60000 T00111028 56005 $,M
BAM,2025-03-06 08:55,-116.8743,40.5990,1382.36,33.80,33.80,100.00,230.00,4.00,0.00,29.58,M,10.00,M,OVC,M,M,M,2600.00,M,M,M,M,M,M,M,M,M,M,29.52,KBAM 060855Z AUTO 23004KT 10SM OVC026 01/01 A2958 RMK AO1,M
CXP,2025-03-06 08:55,-119.7326,39.1923,1431.00,33.80,26.60,74.63,190.00,9.00,0.00,29.68,M,10.00,M,OVC,M,M,M,4600.00,M,M,M,M,M,M,M,M,M,M,25.75,KCXP 060855Z AUTO 19009KT 10SM OVC046 01/M03 A2968 RMK AO2,M
RTS,2025-03-06 08:55,-119.8764,39.6682,1539.00,30.20,28.40,92.92,240.00,8.00,0.00,29.68,M,M,M,M,M,M,M,M,M,M,M,-SN,M,M,M,M,M,M,21.90,KRTS 060855Z AUTO 24008KT -SN M01/M02 A2968 RMK AO2,M
MEV,2025-03-06 08:55,-119.7500,38.9963,1441.42,33.80,26.60,74.63,160.00,4.00,0.00,29.67,M,10.00,M,SCT,BKN,OVC,M,5000.00,6000.00,7000.00,M,M,M,M,M,M,M,M,29.52,KMEV 060855Z AUTO 16004KT 10SM SCT050 BKN060 OVC070 01/M03 A2967 RMK AO2,M
HTH,2025-03-06 08:55,-118.6315,38.5448,1282.89,37.40,33.80,86.69,250.00,5.00,0.00,29.66,M,10.00,M,BKN,OVC,M,M,3200.00,7500.00,M,M,M,M,M,M,M,M,M,32.81,KHTH 060855Z AUTO 25005KT 10SM BKN032 OVC075 03/01 A2966 RMK A01,M
INS,2025-03-06 08:55,-115.6733,36.5872,955.00,47.30,42.40,82.99,10.00,4.00,0.01,29.62,1000.80,10.00,M,FEW,OVC,M,M,2400.00,3300.00,M,M,-RA,M,M,M,M,M,M,45.29,KINS 060855Z AUTO 01004KT 10SM -RA FEW024 OVC033 09/06 A2962 RMK AO2 DZE0755DZB03E05RAB05E33DZB33E35RAB35 SLP008 P0001 60002 T00850058 56017 $,M
LSV,2025-03-06 08:55,-115.0343,36.2362,570.00,56.00,43.00,61.59,200.00,9.00,T,29.59,1000.90,10.00,M,FEW,M,M,M,5500.00,M,M,M,-RA,M,M,M,M,M,M,56.00,KLSV 060855Z AUTO 20009KT 10SM -RA FEW055 13/06 A2959 RMK AO2 RAB23E34RAB52 SLP009 P0000 60000 T01330062 57025 $,M
WMC,2025-03-06 08:56,-117.8072,40.9019,1315.00,M,M,M,M,M,0.00,29.59,M,M,M,M,M,M,M,M,M,M,M,M,M,M,M,M,M,M,M,KWMC 060856Z AUTO A2959 RMK AO2 SLPNO 57009 PWINO FZRANO TSNO,M
HND,2025-03-06 08:56,-115.1344,35.9729,742.79,51.00,44.00,76.85,190.00,13.00,T,29.66,1004.90,10.00,M,BKN,OVC,M,M,6000.00,7500.00,M,M,-RA,M,M,M,M,M,M,51.00,KHND 060856Z AUTO 19013KT 10SM -RA BKN060 OVC075 11/07 A2966 RMK AO2 SLP049 P0000 60000 T01060067 56021 $,M
TPH,2025-03-06 08:56,-117.0904,38.0505,1654.00,32.00,29.00,88.53,320.00,13.00,T,29.59,1001.30,5.00,M,OVC,M,M,M,5500.00,M,M,M,-SN BR,M,M,M,M,M,M,21.57,KTPH 060856Z AUTO 32013KT 5SM -SN BR OVC055 00/M02 A2959 RMK AO2 SLP013 P0000 60004 T00001017 58006 $,M
LAS,2025-03-06 08:56,-115.1634,36.0719,663.00,54.00,44.00,68.82,180.00,8.00,T,29.64,1002.60,10.00,M,SCT,BKN,OVC,M,4700.00,6000.00,7500.00,M,-RA,M,M,M,M,M,M,54.00,KLAS 060856Z 18008KT 10SM -RA SCT047 BKN060 OVC075 12/07 A2964 RMK AO2 RAB0757E07B51 SLP026 TOPS OF MTNS OBSCURED DSNT W-NW P0000 60000 T01220067 56021,M
NFL,2025-03-06 08:57,-118.7010,39.4166,1199.00,34.00,31.00,88.63,250.00,10.00,0.03,29.67,1002.90,2.00,M,FEW,BKN,OVC,M,500.00,1000.00,1600.00,M,-SN BR,M,M,M,M,M,M,25.48,KNFL 060857Z AUTO 25010KT 2SM -SN BR FEW005 BKN010 OVC016 01/M01 A2967 RMK AO2 UPB20E49RAB49E54SNB54 SLP029 P0003 60005 T00111006 56005,M
10U,2025-03-06 09:00,-116.1876,41.9532,1637.00,32.00,32.00,100.00,330.00,4.00,0.00,29.53,M,3.00,M,BKN,OVC,M,M,600.00,1700.00,M,M,-SN,M,M,M,M,M,M,27.42,K10U 060900Z AUTO 33004KT 3SM -SN BKN006 OVC017 00/M00 A2953 RMK AO2,M
NFL,2025-03-06 09:05,-118.7010,39.4166,1199.00,33.00,31.00,92.25,280.00,8.00,0.01,29.67,M,1.25,M,SCT,OVC,M,M,500.00,1000.00,M,M,-SN BR,M,M,M,M,M,M,25.34,KNFL 060905Z AUTO 28008KT 1 1/4SM -SN BR SCT005 OVC010 01/M01 A2967 RMK AO2 P0001 T00061006,M
TMT,2025-03-06 09:10,-117.1971,39.4643,1749.34,31.30,30.20,95.64,220.00,5.00,0.00,29.59,M,5.00,M,SCT,BKN,OVC,M,600.00,2000.00,3500.00,M,-SN,M,M,M,M,M,M,25.56,KTMT 060910Z AUTO 22005KT 5SM -SN SCT006 BKN020 OVC035 00/M01 A2959 RMK AO2 T10041010,M
NFL,2025-03-06 09:13,-118.7010,39.4166,1199.00,33.00,32.00,96.06,270.00,10.00,0.02,29.66,M,2.00,M,BKN,OVC,M,M,500.00,1000.00,M,M,-SN BR,M,M,M,M,M,M,24.22,KNFL 060913Z AUTO 27010KT 2SM -SN BR BKN005 OVC010 01/00 A2966 RMK AO2 P0002 T00060000,M
BVU,2025-03-06 09:15,-114.8611,35.9475,671.00,53.60,42.80,66.70,170.00,10.00,0.00,29.63,M,5.00,20.00,FEW,OVC,M,M,3400.00,4800.00,M,M,-RA,M,M,M,M,M,M,53.60,KBVU 060915Z AUTO 17010G20KT 5SM -RA FEW034 OVC048 12/06 A2963 RMK AO2,M
BAM,2025-03-06 09:15,-116.8743,40.5990,1382.36,33.80,33.80,100.00,250.00,3.00,0.00,29.58,M,10.00,M,OVC,M,M,M,2600.00,M,M,M,M,M,M,M,M,M,M,30.75,KBAM 060915Z AUTO 25003KT 10SM OVC026 01/01 A2958 RMK AO1,M
CXP,2025-03-06 09:15,-119.7326,39.1923,1431.00,35.60,24.80,64.46,210.00,6.00,0.00,29.68,M,10.00,12.00,BKN,OVC,M,M,4100.00,4800.00,M,M,M,M,M,M,M,M,M,29.87,KCXP 060915Z AUTO 21006G12KT 10SM BKN041 OVC048 02/M04 A2968 RMK AO2,M
RTS,2025-03-06 09:15,-119.8764,39.6682,1539.00,30.20,28.40,92.92,250.00,6.00,0.00,29.67,M,M,M,M,M,M,M,M,M,M,M,M,M,M,M,M,M,M,23.36,KRTS 060915Z AUTO 25006KT M01/M02 A2967 RMK AO2,M
MEV,2025-03-06 09:15,-119.7500,38.9963,1441.42,33.80,26.60,74.63,190.00,7.00,0.00,29.66,M,10.00,M,FEW,SCT,BKN,M,5000.00,6500.00,9000.00,M,M,M,M,M,M,M,M,26.97,KMEV 060915Z AUTO 19007KT 10SM FEW050 SCT065 BKN090 01/M03 A2966 RMK AO2,M
HTH,2025-03-06 09:15,-118.6315,38.5448,1282.89,37.40,33.80,86.69,250.00,4.00,0.00,29.66,M,10.00,M,FEW,SCT,OVC,M,3300.00,7500.00,9500.00,M,M,M,M,M,M,M,M,33.73,KHTH 060915Z AUTO 25004KT 10SM FEW033 SCT075 OVC095 03/01 A2966 RMK A01,M
10U,2025-03-06 09:20,-116.1876,41.9532,1637.00,32.00,32.00,100.00,330.00,4.00,0.00,29.53,M,4.00,M,SCT,OVC,M,M,500.00,1600.00,M,M,-SN,M,M,M,M,M,M,27.42,K10U 060920Z AUTO 33004KT 4SM -SN SCT005 OVC016 00/M00 A2953 RMK AO2,M
LSV,2025-03-06 09:21,-115.0343,36.2362,570.00,55.40,44.60,66.91,200.00,16.00,0.00,29.58,1000.60,10.00,M,SCT,M,M,M,5000.00,M,M,M,M,M,M,M,M,M,M,55.40,KLSV 060921Z AUTO 20016KT 10SM SCT050 13/07 A2958 RMK AO2 RAE21 SLP006 $,M
NFL,2025-03-06 09:23,-118.7010,39.4166,1199.00,33.00,32.00,96.06,270.00,11.00,0.03,29.66,M,1.75,M,SCT,OVC,M,M,500.00,1000.00,M,M,-SN BR,M,M,M,M,M,M,23.73,KNFL 060923Z AUTO 27011KT 1 3/4SM -SN BR SCT005 OVC010 01/00 A2966 RMK AO2 P0003 T00060000,M
LSV,2025-03-06 09:27,-115.0343,36.2362,570.00,55.40,44.60,66.91,200.00,17.00,0.00,29.58,1000.60,10.00,M,SCT,M,M,M,5000.00,M,M,M,-RA,M,M,M,M,M,M,55.40,KLSV 060927Z AUTO 20017KT 10SM -RA SCT050 13/07 A2958 RMK AO2 RAE21RAB27 SLP006 $,M
TMT,2025-03-06 09:30,-117.1971,39.4643,1749.34,31.00,29.30,93.32,230.00,6.00,0.00,29.58,M,10.00,M,BKN,BKN,OVC,M,2200.00,3400.00,4900.00,M,M,M,M,M,M,M,M,24.33,KTMT 060930Z AUTO 23006KT 10SM BKN022 BKN034 OVC049 M01/M01 A2958 RMK AO2 T10061015,M
BVU,2025-03-06 09:35,-114.8611,35.9475,671.00,51.80,42.80,71.26,160.00,15.00,0.00,29.62,M,5.00,M,FEW,OVC,M,M,3400.00,4500.00,M,M,-RA,M,M,M,M,M,M,51.80,KBVU 060935Z AUTO 16015KT 5SM -RA FEW034 OVC045 11/06 A2962 RMK AO2,M
BAM,2025-03-06 09:35,-116.8743,40.5990,1382.36,33.80,33.80,100.00,250.00,7.00,0.00,29.57,M,10.00,M,BKN,OVC,M,M,2600.00,3500.00,M,M,M,M,M,M,M,M,M,26.97,KBAM 060935Z AUTO 25007KT 10SM BKN026 OVC035 01/01 A2957 RMK AO1,M
CXP,2025-03-06 09:35,-119.7326,39.1923,1431.00,33.80,24.80,69.25,0.00,0.00,0.00,29.67,M,10.00,M,BKN,OVC,M,M,4100.00,4600.00,M,M,M,M,M,M,M,M,M,33.80,KCXP 060935Z AUTO 00000KT 10SM BKN041 OVC046 01/M04 A2967 RMK AO2,M
RTS,2025-03-06 09:35,-119.8764,39.6682,1539.00,30.20,26.60,86.28,260.00,6.00,0.00,29.66,M,M,M,M,M,M,M,M,M,M,M,M,M,M,M,M,M,M,23.36,KRTS 060935Z AUTO 26006KT M01/M03 A2966 RMK AO2,M
MEV,2025-03-06 09:35,-119.7500,38.9963,1441.42,33.80,21.20,59.53,M,6.00,0.00,29.65,M,10.00,M,FEW,BKN,M,M,4700.00,9000.00,M,M,M,M,M,M,M,M,M,27.70,KMEV 060935Z AUTO VRB06KT 10SM FEW047 BKN090 01/M06 A2965 RMK AO2,M
HTH,2025-03-06 09:35,-118.6315,38.5448,1282.89,37.40,32.00,80.65,260.00,4.00,0.00,29.65,M,10.00,M,FEW,SCT,OVC,M,4500.00,7500.00,9500.00,M,M,M,M,M,M,M,M,33.73,KHTH 060935Z AUTO 26004KT 10SM FEW045 SCT075 OVC095 03/00 A2965 RMK A01,M
ELY,2025-03-06 09:37,-114.8453,39.2950,1909.00,46.00,36.00,67.90,180.00,14.00,T,29.51,M,7.00,24.00,SCT,OVC,M,M,1600.00,3400.00,M,M,-RA,M,M,M,M,M,M,39.21,KELY 060937Z AUTO 18014G24KT 7SM -RA SCT016 OVC034 08/02 A2951 RMK AO2 RAE01B20 P0000 T00780022 TSNO,M
LSV,2025-03-06 09:37,-115.0343,36.2362,570.00,53.60,44.60,71.45,190.00,15.00,0.00,29.58,1000.60,10.00,M,BKN,M,M,M,4900.00,M,M,M,-RA,M,M,M,M,M,M,53.60,KLSV 060937Z AUTO 19015KT 10SM -RA BKN049 12/07 A2958 RMK AO2 RAE21RAB27 SLP006 $,M
NFL,2025-03-06 09:38,-118.7010,39.4166,1199.00,33.00,31.00,92.25,260.00,10.00,0.03,29.65,M,2.00,M,FEW,SCT,OVC,M,500.00,1100.00,2100.00,M,-SN BR,M,M,M,M,M,M,24.22,KNFL 060938Z AUTO 26010KT 2SM -SN BR FEW005 SCT011 OVC021 01/M01 A2965 RMK AO2 P0003 T00061006,M
10U,2025-03-06 09:40,-116.1876,41.9532,1637.00,32.00,32.00,100.00,340.00,7.00,0.00,29.52,M,4.00,M,BKN,OVC,M,M,500.00,1500.00,M,M,-SN,M,M,M,M,M,M,24.78,K10U 060940Z AUTO 34007KT 4SM -SN BKN005 OVC015 00/M00 A2952 RMK AO2,M
INS,2025-03-06 09:46,-115.6733,36.5872,955.00,48.20,39.20,70.88,120.00,5.00,0.00,29.58,999.80,10.00,M,FEW,SCT,BKN,BKN,4600.00,6000.00,7000.00,9000.00,M,M,M,M,M,M,M,45.63,KINS 060946Z AUTO 12005KT 10SM FEW046 SCT060 BKN070 BKN090 OVC140 09/04 A2958 RMK AO2 RAE11DZB11E27RAB27E41DZB41E46 SLP998 $,M
LSV,2025-03-06 09:47,-115.0343,36.2362,570.00,53.60,46.40,76.50,190.00,13.00,0.00,29.58,1000.60,10.00,M,FEW,M,M,M,4800.00,M,M,M,-RA,M,M,M,M,M,M,53.60,KLSV 060947Z AUTO 19013KT 10SM -RA FEW048 12/08 A2958 RMK AO2 RAE21RAB27 SLP006 $,M
TMT,2025-03-06 09:50,-117.1971,39.4643,1749.34,30.60,29.30,94.85,230.00,6.00,0.00,29.58,M,10.00,M,BKN,OVC,M,M,2200.00,3000.00,M,M,M,M,M,M,M,M,M,23.84,KTMT 060950Z AUTO 23006KT 10SM BKN022 OVC030 M01/M01 A2958 RMK AO2 T10081015,M
P68,2025-03-06 09:53,-116.0056,39.6014,1993.00,32.00,31.00,96.04,240.00,8.00,0.01,29.52,998.00,M,M,M,M,M,M,M,M,M,M,M,M,M,M,M,M,M,24.11,KP68 060953Z AUTO 24008KT 00/M01 A2952 RMK AO1 SLP980 P0001 T00001006,M
DRA,2025-03-06 09:53,-116.0278,36.6206,1009.00,48.00,35.00,60.52,190.00,19.00,0.00,29.55,998.60,10.00,30.00,BKN,OVC,M,M,9500.00,12000.00,M,M,M,M,M,M,32.00,170.00,2025-03-06 08:56,40.60,KDRA 060953Z AUTO 19019G30KT 10SM BKN095 OVC120 09/02 A2955 RMK AO2 PK WND 17032/0856 SLP986 T00890017,M
ELY,2025-03-06 09:53,-114.8453,39.2950,1909.00,48.00,35.00,60.52,200.00,11.00,T,29.50,993.00,10.00,M,FEW,OVC,M,M,1800.00,3400.00,M,M,-RA,M,M,M,M,M,M,42.69,KELY 060953Z AUTO 20011KT 10SM -RA FEW018 OVC034 09/02 A2950 RMK AO2 RAE01B20 SLP930 P0000 T00890017,M
VGT,2025-03-06 09:53,-115.1933,36.2111,667.00,51.00,45.00,79.84,190.00,9.00,0.03,29.60,1003.10,7.00,M,OVC,M,M,M,4800.00,M,M,M,-RA,M,M,M,M,M,M,51.00,KVGT 060953Z AUTO 19009KT 7SM -RA OVC048 11/07 A2960 RMK AO2 RAB28 SLP031 P0003 T01060072 $,M
LOL,2025-03-06 09:53,-118.5701,40.0684,1192.43,34.00,33.00,96.08,160.00,5.00,T,29.62,1003.70,10.00,M,BKN,OVC,M,M,6000.00,7000.00,M,M,M,M,M,M,M,M,M,28.77,KLOL 060953Z AUTO 16005KT 10SM BKN060 OVC070 01/01 A2962 RMK AO2 RAE10 SLP037 P0000 T00110006,M
BVU,2025-03-06 09:55,-114.8611,35.9475,671.00,50.00,44.60,81.61,240.00,8.00,0.00,29.61,M,10.00,M,FEW,SCT,OVC,M,2800.00,3500.00,4600.00,M,-DZ,M,M,M,M,M,M,50.00,KBVU 060955Z AUTO 24008KT 10SM -DZ FEW028 SCT035 OVC046 10/07 A2961 RMK AO2,M
RNO,2025-03-06 09:55,-119.7711,39.4839,1341.00,33.00,27.00,78.34,110.00,3.00,0.00,29.65,1004.00,10.00,M,FEW,SCT,OVC,M,2000.00,6000.00,11000.00,M,M,M,M,M,M,M,M,29.83,KRNO 060955Z 11003KT 10SM FEW020 SCT060 OVC110 01/M03 A2965 RMK AO2 SLP040 T00061028 $,M
BAM,2025-03-06 09:55,-116.8743,40.5990,1382.36,33.80,33.80,100.00,260.00,7.00,0.00,29.57,M,10.00,M,SCT,OVC,M,M,2900.00,3500.00,M,M,M,M,M,M,M,M,M,26.97,KBAM 060955Z AUTO 26007KT 10SM SCT029 OVC035 01/01 A2957 RMK AO1,M
CXP,2025-03-06 09:55,-119.7326,39.1923,1431.00,33.80,26.60,74.63,20.00,6.00,0.00,29.67,M,10.00,M,FEW,BKN,OVC,M,3000.00,4300.00,6000.00,M,M,M,M,M,M,M,M,27.70,KCXP 060955Z AUTO 02006KT 10SM FEW030 BKN043 OVC060 01/M03 A2967 RMK AO2,M
RTS,2025-03-06 09:55,-119.8764,39.6682,1539.00,30.20,26.60,86.28,300.00,3.00,0.00,29.66,M,M,M,M,M,M,M,M,M,M,M,M,M,M,M,M,M,M,26.63,KRTS 060955Z AUTO 30003KT M01/M03 A2966 RMK AO2,M
MEV,2025-03-06 09:55,-119.7500,38.9963,1441.42,32.00,24.80,74.44,0.00,0.00,0.00,29.65,M,10.00,12.00,FEW,SCT,SCT,M,4700.00,5500.00,9000.00,M,M,M,M,M,M,M,M,32.00,KMEV 060955Z AUTO 00000G12KT 10SM FEW047 SCT055 SCT090 00/M04 A2965 RMK AO2,M
HTH,2025-03-06 09:55,-118.6315,38.5448,1282.89,35.60,32.00,86.59,310.00,6.00,0.00,29.64,M,10.00,M,FEW,FEW,OVC,M,4800.00,7500.00,10000.00,M,M,M,M,M,M,M,M,29.87,KHTH 060955Z AUTO 31006KT 10SM FEW048 FEW075 OVC100 02/00 A2964 RMK A01,M
INS,2025-03-06 09:55,-115.6733,36.5872,955.00,49.00,38.70,67.45,190.00,3.00,T,29.57,999.20,10.00,M,FEW,FEW,BKN,BKN,4600.00,6000.00,8000.00,9500.00,M,M,M,M,M,M,M,48.12,KINS 060955Z AUTO 19003KT 10SM FEW046 FEW060 BKN080 BKN095 OVC140 10/04 A2957 RMK AO2 RAB0855E11DZB11E27RAB27E41DZB41E46 SLP992 P0000 T00950037 $,M
LSV,2025-03-06 09:55,-115.0343,36.2362,570.00,53.40,46.00,75.91,200.00,16.00,0.03,29.57,1000.20,10.00,M,FEW,M,M,M,4800.00,M,M,M,-RA,M,M,M,M,M,M,53.40,KLSV 060955Z AUTO 20016KT 10SM -RA FEW048 12/08 A2957 RMK AO2 RAE21RAB27 SLP002 P0003 T01190078 $,M
EKO,2025-03-06 09:56,-115.7860,40.8242,1367.00,33.00,33.00,100.00,210.00,7.00,0.01,29.51,999.40,9.00,M,FEW,BKN,OVC,M,1400.00,2700.00,3600.00,M,-SN,M,M,M,M,M,M,26.00,KEKO 060956Z AUTO 21007KT 9SM -SN FEW014 BKN027 OVC036 01/01 A2951 RMK AO2 SNE14B25 SLP994 P0001 T00060006,M
WMC,2025-03-06 09:56,-117.8072,40.9019,1315.00,M,M,M,M,M,0.00,29.58,M,M,M,M,M,M,M,M,M,M,M,M,M,M,M,M,M,M,M,KWMC 060956Z AUTO A2958 RMK AO2 SLPNO PWINO FZRANO TSNO,M
HND,2025-03-06 09:56,-115.1344,35.9729,742.79,49.00,43.00,79.68,210.00,14.00,0.03,29.63,1004.30,10.00,M,OVC,M,M,M,4700.00,M,M,M,-RA,M,M,M,M,M,M,43.08,KHND 060956Z AUTO 21014KT 10SM -RA OVC047 09/06 A2963 RMK AO2 SLP043 P0003 T00940061 $,M
TPH,2025-03-06 09:56,-117.0904,38.0505,1654.00,31.00,28.00,88.48,310.00,11.00,T,29.58,1001.10,7.00,M,OVC,M,M,M,4700.00,M,M,M,-SN,M,M,M,M,M,M,21.20,KTPH 060956Z AUTO 31011KT 7SM -SN OVC047 M01/M02 A2958 RMK AO2 SLP011 P0000 T10061022 $,M
LAS,2025-03-06 09:56,-115.1634,36.0719,663.00,52.00,41.00,66.00,210.00,10.00,0.01,29.62,1002.00,10.00,26.00,OVC,M,M,M,5500.00,M,M,M,M,M,M,M,26.00,190.00,2025-03-06 09:49,52.00,KLAS 060956Z 21010G26KT 10SM OVC055 11/05 A2962 RMK AO2 PK WND 19026/0949 RAE56 SLP020 MTNS OBSCURED DSNT S-W-N P0001 T01110050,M
NFL,2025-03-06 09:57,-118.7010,39.4166,1199.00,33.00,32.00,96.06,260.00,7.00,0.04,29.65,1002.30,2.50,M,BKN,OVC,M,M,1900.00,3500.00,M,M,-SN BR,M,M,M,M,M,M,26.00,KNFL 060957Z AUTO 26007KT 2 1/2SM -SN BR BKN019 OVC035 01/00 A2965 RMK AO2 SLP023 P0004 T00060000,M
10U,2025-03-06 10:00,-116.1876,41.9532,1637.00,32.00,30.20,92.97,350.00,6.00,0.00,29.52,M,5.00,M,SCT,OVC,M,M,600.00,1400.00,M,M,-SN,M,M,M,M,M,M,25.53,K10U 061000Z AUTO 35006KT 5SM -SN SCT006 OVC014 M00/M01 A2952 RMK AO2,M
LSV,2025-03-06 10:01,-115.0343,36.2362,570.00,53.60,46.40,76.50,210.00,17.00,0.00,29.57,1000.20,10.00,21.00,CLR,M,M,M,M,M,M,M,M,M,M,M,M,M,M,53.60,KLSV 061001Z AUTO 21017G21KT 10SM CLR 12/08 A2957 RMK AO2 RAE01 SLP002 $,M
RTS,2025-03-06 10:05,-119.8764,39.6682,1539.00,28.40,26.60,92.86,320.00,5.00,0.00,29.65,M,M,M,M,M,M,M,M,M,M,M,M,M,M,M,M,M,M,22.12,KRTS 061005Z AUTO 32005KT M02/M03 A2965 RMK AO2,M
MEV,2025-03-06 10:05,-119.7500,38.9963,1441.42,33.80,21.20,59.53,0.00,0.00,0.00,29.64,M,10.00,M,SCT,BKN,BKN,M,3500.00,4800.00,6000.00,M,M,M,M,M,M,M,M,33.80,KMEV 061005Z AUTO 00000KT 10SM SCT035 BKN048 BKN060 01/M06 A2964 RMK AO2,M
EKO,2025-03-06 10:08,-115.7860,40.8242,1367.00,33.00,33.00,100.00,220.00,8.00,T,29.51,M,9.00,M,FEW,OVC,M,M,1400.00,3600.00,M,M,M,M,M,M,M,M,M,25.34,KEKO 061008Z AUTO 22008KT 9SM FEW014 OVC036 01/01 A2951 RMK AO2 SNE03 P0000 T00060006,M
TMT,2025-03-06 10:10,-117.1971,39.4643,1749.34,30.60,29.00,93.69,200.00,4.00,0.00,29.58,M,10.00,M,SCT,BKN,OVC,M,2400.00,3600.00,5000.00,M,M,M,M,M,M,M,M,25.79,KTMT 061010Z AUTO 20004KT 10SM SCT024 BKN036 OVC050 M01/M02 A2958 RMK AO2 T10081016,M
LSV,2025-03-06 10:12,-115.0343,36.2362,570.00,53.60,44.60,71.45,220.00,17.00,0.00,29.57,1000.20,10.00,M,CLR,M,M,M,M,M,M,M,-RA,M,M,M,M,M,M,53.60,KLSV 061012Z AUTO 22017KT 10SM -RA CLR 12/07 A2957 RMK AO2 RAB0955E01RAB12 SLP002 $,M
NFL,2025-03-06 10:13,-118.7010,39.4166,1199.00,33.00,32.00,96.06,240.00,6.00,T,29.64,M,4.00,M,OVC,M,M,M,3000.00,M,M,M,-SN BR,M,M,M,M,M,M,26.73,KNFL 061013Z AUTO 24006KT 4SM -SN BR OVC030 01/00 A2964 RMK AO2 P0000 T00060000,M
BVU,2025-03-06 10:15,-114.8611,35.9475,671.00,51.80,44.60,76.34,200.00,8.00,0.00,29.61,M,3.00,16.00,BKN,BKN,OVC,M,2900.00,3400.00,4600.00,M,-RA,M,M,M,M,M,M,51.80,KBVU 061015Z AUTO 20008G16KT 3SM -RA BKN029 BKN034 OVC046 11/07 A2961 RMK AO2,M
BAM,2025-03-06 10:15,-116.8743,40.5990,1382.36,33.80,33.80,100.00,270.00,6.00,0.00,29.56,M,10.00,M,SCT,OVC,M,M,2600.00,3500.00,M,M,M,M,M,M,M,M,M,27.70,KBAM 061015Z AUTO 27006KT 10SM SCT026 OVC035 01/01 A2956 RMK AO1,M
CXP,2025-03-06 10:15,-119.7326,39.1923,1431.00,33.80,26.60,74.63,0.00,0.00,0.00,29.66,M,10.00,M,FEW,SCT,BKN,M,3500.00,4300.00,4800.00,M,M,M,M,M,M,M,M,33.80,KCXP 061015Z AUTO 00000KT 10SM FEW035 SCT043 BKN048 01/M03 A2966 RMK AO2,M
HTH,2025-03-06 10:15,-118.6315,38.5448,1282.89,35.60,32.00,86.59,310.00,5.00,0.00,29.63,M,10.00,M,BKN,BKN,OVC,M,4100.00,5000.00,10000.00,M,M,M,M,M,M,M,M,30.67,KHTH 061015Z AUTO 31005KT 10SM BKN041 BKN050 OVC100 02/00 A2963 RMK A01,M
LSV,2025-03-06 10:18,-115.0343,36.2362,570.00,51.80,44.60,76.34,220.00,14.00,0.00,29.57,1000.20,10.00,M,CLR,M,M,M,M,M,M,M,M,M,M,M,M,M,M,51.80,KLSV 061018Z AUTO 22014KT 10SM CLR 11/07 A2957 RMK AO2 RAB0955E01RAB12E18 SLP002 $,M
ELY,2025-03-06 10:19,-114.8453,39.2950,1909.00,47.00,35.00,62.84,160.00,16.00,T,29.48,M,2.50,24.00,FEW,OVC,M,M,1800.00,2500.00,M,M,-RA,M,M,M,M,M,M,39.97,KELY 061019Z AUTO 16016G24KT 2 1/2SM -RA FEW018 OVC025 08/02 A2948 RMK AO2 RAE0954B11 P0000 T00830017,M
10U,2025-03-06 10:20,-116.1876,41.9532,1637.00,32.00,30.20,92.97,350.00,6.00,0.00,29.51,M,9.00,M,SCT,OVC,M,M,700.00,1200.00,M,M,-SN,M,M,M,M,M,M,25.53,K10U 061020Z AUTO 35006KT 9SM -SN SCT007 OVC012 M00/M01 A2951 RMK AO2,M
LSV,2025-03-06 10:23,-115.0343,36.2362,570.00,51.80,44.60,76.34,210.00,13.00,0.00,29.57,1000.20,10.00,M,FEW,M,M,M,3700.00,M,M,M,-RA,M,M,M,M,M,M,51.80,KLSV 061023Z AUTO 21013KT 10SM -RA FEW037 11/07 A2957 RMK AO2 RAE01RAB12E18RAB23 SLP002 $,M
TMT,2025-03-06 10:30,-117.1971,39.4643,1749.34,30.20,29.00,95.23,240.00,4.00,0.00,29.57,M,10.00,M,SCT,BKN,OVC,M,2000.00,3900.00,4900.00,M,M,M,M,M,M,M,M,25.32,KTMT 061030Z AUTO 24004KT 10SM SCT020 BKN039 OVC049 M01/M02 A2957 RMK AO2 T10101016,M
ELY,2025-03-06 10:33,-114.8453,39.2950,1909.00,46.00,35.00,65.26,170.00,13.00,0.01,29.47,M,5.00,M,OVC,M,M,M,2000.00,M,M,M,-RA,M,M,M,M,M,M,39.50,KELY 061033Z AUTO 17013KT 5SM -RA OVC020 08/02 A2947 RMK AO2 RAE0954B11 P0001 T00780017,M
BVU,2025-03-06 10:35,-114.8611,35.9475,671.00,50.00,46.40,87.37,250.00,10.00,0.00,29.61,M,3.00,M,FEW,BKN,OVC,M,2100.00,2700.00,3100.00,M,RA,M,M,M,M,M,M,50.00,KBVU 061035Z AUTO 25010KT 3SM RA FEW021 BKN027 OVC031 10/08 A2961 RMK AO2,M
BAM,2025-03-06 10:35,-116.8743,40.5990,1382.36,33.80,33.80,100.00,280.00,4.00,0.00,29.56,M,10.00,M,SCT,OVC,M,M,2400.00,3700.00,M,M,M,M,M,M,M,M,M,29.52,KBAM 061035Z AUTO 28004KT 10SM SCT024 OVC037 01/01 A2956 RMK AO1,M
CXP,2025-03-06 10:35,-119.7326,39.1923,1431.00,33.80,24.80,69.25,200.00,10.00,0.00,29.65,M,10.00,M,FEW,BKN,OVC,M,3800.00,4700.00,5500.00,M,M,M,M,M,M,M,M,25.23,KCXP 061035Z AUTO 20010KT 10SM FEW038 BKN047 OVC055 01/M04 A2965 RMK AO2,M
RTS,2025-03-06 10:35,-119.8764,39.6682,1539.00,28.40,26.60,92.86,330.00,4.00,0.00,29.64,M,M,M,BKN,BKN,OVC,M,4000.00,4600.00,5000.00,M,M,M,M,M,M,M,M,23.22,KRTS 061035Z AUTO 33004KT BKN040 BKN046 OVC050 M02/M03 A2964 RMK AO2,M
MEV,2025-03-06 10:35,-119.7500,38.9963,1441.42,30.20,21.20,68.83,140.00,4.00,0.00,29.64,M,10.00,M,FEW,SCT,BKN,M,3700.00,4500.00,5000.00,M,M,M,M,M,M,M,M,25.32,KMEV 061035Z AUTO 14004KT 10SM FEW037 SCT045 BKN050 M01/M06 A2964 RMK AO2,M
HTH,2025-03-06 10:35,-118.6315,38.5448,1282.89,35.60,32.00,86.59,300.00,6.00,0.00,29.63,M,10.00,M,FEW,BKN,BKN,M,4000.00,5000.00,12000.00,M,M,M,M,M,M,M,M,29.87,KHTH 061035Z AUTO 30006KT 10SM FEW040 BKN050 BKN120 02/00 A2963 RMK A01,M
10U,2025-03-06 10:40,-116.1876,41.9532,1637.00,32.00,30.20,92.97,340.00,5.00,0.00,29.50,M,2.00,M,FEW,BKN,OVC,M,300.00,700.00,1200.00,M,-SN,M,M,M,M,M,M,26.40,K10U 061040Z AUTO 34005KT 2SM -SN FEW003 BKN007 OVC012 M00/M01 A2950 RMK AO2,M
LSV,2025-03-06 10:42,-115.0343,36.2362,570.00,51.80,42.80,71.26,220.00,18.00,0.00,29.57,1000.20,10.00,22.00,SCT,M,M,M,3400.00,M,M,M,M,M,M,M,M,M,M,51.80,KLSV 061042Z AUTO 22018G22KT 10SM SCT034 11/06 A2957 RMK AO2 RAE01RAB12E18RAB23E42 SLP002 $,M
TMT,2025-03-06 10:50,-117.1971,39.4643,1749.34,30.20,28.40,92.92,250.00,4.00,0.00,29.57,M,10.00,M,BKN,BKN,OVC,M,2800.00,4100.00,4900.00,M,M,M,M,M,M,M,M,25.32,KTMT 061050Z AUTO 25004KT 10SM BKN028 BKN041 OVC049 M01/M02 A2957 RMK AO2 T10101020,M
LSV,2025-03-06 10:51,-115.0343,36.2362,570.00,51.80,44.60,76.34,190.00,9.00,0.00,29.56,1000.00,9.00,22.00,SCT,M,M,M,3400.00,M,M,M,-RA,M,M,M,M,M,M,51.80,KLSV 061051Z AUTO 19009G22KT 9SM -RA SCT034 11/07 A2956 RMK AO2 RAB0955E01RAB12E18RAB23E42RAB51 SLP000 $,M
P68,2025-03-06 10:53,-116.0056,39.6014,1993.00,31.00,30.00,96.02,210.00,3.00,0.01,29.50,997.80,M,M,M,M,M,M,M,M,M,M,M,M,M,M,M,M,M,27.55,KP68 061053Z AUTO 21003KT M01/M01 A2950 RMK AO1 SLP978 P0001 T10061011,M
ELY,2025-03-06 10:53,-114.8453,39.2950,1909.00,47.00,35.00,62.84,170.00,15.00,0.01,29.47,M,2.50,23.00,OVC,M,M,M,1600.00,M,M,M,-RA,M,M,M,M,M,M,40.23,KELY 061053Z AUTO 17015G23KT 2 1/2SM -RA OVC016 08/02 A2947 RMK AO2 RAE0954B11 SLPNO P0001 T00830017,M
DRA,2025-03-06 10:53,-116.0278,36.6206,1009.00,48.00,33.00,55.87,200.00,17.00,0.00,29.54,998.30,10.00,27.00,CLR,M,M,M,M,M,M,M,M,M,M,M,28.00,190.00,2025-03-06 10:14,41.04,KDRA 061053Z AUTO 20017G27KT 10SM CLR 09/01 A2954 RMK AO2 PK WND 19028/1014 SLP983 T00890006,M
VGT,2025-03-06 10:53,-115.1933,36.2111,667.00,51.00,42.00,71.18,160.00,7.00,T,29.57,1002.10,10.00,M,FEW,BKN,OVC,M,4600.00,7000.00,9000.00,M,-RA,M,M,M,M,M,M,51.00,KVGT 061053Z AUTO 16007KT 10SM -RA FEW046 BKN070 OVC090 11/06 A2957 RMK AO2 SLP021 P0000 T01060056 $,M
LOL,2025-03-06 10:53,-118.5701,40.0684,1192.43,34.00,33.00,96.08,210.00,7.00,0.00,29.60,1003.20,10.00,M,OVC,M,M,M,5000.00,M,M,M,M,M,M,M,M,M,M,27.22,KLOL 061053Z AUTO 21007KT 10SM OVC050 01/01 A2960 RMK AO2 SLP032 T00110006,M
BVU,2025-03-06 10:55,-114.8611,35.9475,671.00,48.20,42.80,81.47,230.00,15.00,0.00,29.60,M,5.00,21.00,FEW,BKN,OVC,M,2200.00,3100.00,4700.00,M,-RA,M,M,M,M,M,M,41.78,KBVU 061055Z AUTO 23015G21KT 5SM -RA FEW022 BKN031 OVC047 09/06 A2960 RMK AO2,M
RNO,2025-03-06 10:55,-119.7711,39.4839,1341.00,33.00,27.00,78.34,0.00,0.00,0.00,29.63,1003.30,10.00,M,FEW,BKN,M,M,6000.00,12000.00,M,M,M,M,M,M,M,M,M,33.00,KRNO 061055Z 00000KT 10SM FEW060 BKN120 01/M03 A2963 RMK AO2 SLP033 T00061028 $,M
BAM,2025-03-06 10:55,-116.8743,40.5990,1382.36,33.80,33.80,100.00,260.00,5.00,0.00,29.55,M,10.00,M,SCT,BKN,OVC,M,900.00,2200.00,3500.00,M,M,M,M,M,M,M,M,28.53,KBAM 061055Z AUTO 26005KT 10SM SCT009 BKN022 OVC035 01/01 A2955 RMK AO1,M
CXP,2025-03-06 10:55,-119.7326,39.1923,1431.00,33.80,24.80,69.25,200.00,8.00,0.00,29.65,M,10.00,15.00,FEW,BKN,OVC,M,3500.00,4200.00,5500.00,M,M,M,M,M,M,M,M,26.33,KCXP 061055Z AUTO 20008G15KT 10SM FEW035 BKN042 OVC055 01/M04 A2965 RMK AO2,M
RTS,2025-03-06 10:55,-119.8764,39.6682,1539.00,30.20,26.60,86.28,330.00,3.00,0.00,29.64,M,M,M,M,M,M,M,M,M,M,M,M,M,M,M,M,M,M,26.63,KRTS 061055Z AUTO 33003KT M01/M03 A2964 RMK AO2,M
MEV,2025-03-06 10:55,-119.7500,38.9963,1441.42,30.20,23.00,74.26,110.00,5.00,0.00,29.63,M,10.00,M,FEW,SCT,SCT,M,4500.00,5000.00,6000.00,M,M,M,M,M,M,M,M,24.26,KMEV 061055Z AUTO 11005KT 10SM FEW045 SCT050 SCT060 M01/M05 A2963 RMK AO2,M
HTH,2025-03-06 10:55,-118.6315,38.5448,1282.89,35.60,33.80,93.08,310.00,6.00,0.00,29.62,M,10.00,M,FEW,SCT,BKN,M,4500.00,9500.00,12000.00,M,M,M,M,M,M,M,M,29.87,KHTH 061055Z AUTO 31006KT 10SM FEW045 SCT095 BKN120 02/01 A2962 RMK A01,M
INS,2025-03-06 10:55,-115.6733,36.5872,955.00,50.70,28.00,41.24,170.00,11.00,0.00,29.51,997.20,10.00,21.00,CLR,M,M,M,M,M,M,M,M,M,M,M,27.00,220.00,2025-03-06 10:40,50.70,KINS 061055Z AUTO 17011G21KT 10SM CLR 10/M02 A2951 RMK AO2 PK WND 22027/40 SLP972 T01041023 $,M
LSV,2025-03-06 10:55,-115.0343,36.2362,570.00,50.70,45.50,82.28,190.00,9.00,0.05,29.55,999.60,9.00,M,SCT,M,M,M,3400.00,M,M,M,-RA,M,M,M,M,M,M,50.70,KLSV 061055Z AUTO 19009KT 9SM -RA SCT034 10/08 A2955 RMK AO2 RAB0955E01RAB12E18RAB23E42RAB51 SLP996 P0005 T01040075 $,M
EKO,2025-03-06 10:56,-115.7860,40.8242,1367.00,33.00,33.00,100.00,210.00,8.00,T,29.49,998.70,10.00,M,OVC,M,M,M,6500.00,M,M,M,M,M,M,M,M,M,M,25.34,KEKO 061056Z AUTO 21008KT 10SM OVC065 01/01 A2949 RMK AO2 SNE03 SLP987 P0000 T00060006,M
HND,2025-03-06 10:56,-115.1344,35.9729,742.79,47.00,42.00,82.65,190.00,19.00,0.04,29.60,1003.10,10.00,23.00,FEW,BKN,OVC,M,4300.00,7000.00,9500.00,M,-RA,M,M,M,M,M,M,39.27,KHND 061056Z AUTO 19019G23KT 10SM -RA FEW043 BKN070 OVC095 08/06 A2960 RMK AO2 SLP031 P0004 T00830056 $,M
TPH,2025-03-06 10:56,-117.0904,38.0505,1654.00,31.00,26.00,81.48,320.00,13.00,T,29.56,1000.50,9.00,20.00,SCT,SCT,OVC,M,5500.00,7500.00,8500.00,M,M,M,M,M,M,M,M,20.29,KTPH 061056Z AUTO 32013G20KT 9SM SCT055 SCT075 OVC085 M01/M03 A2956 RMK AO2 SNE53 SLP005 P0000 T10061033 $,M
LAS,2025-03-06 10:56,-115.1634,36.0719,663.00,51.00,40.00,65.87,200.00,11.00,T,29.59,1001.10,10.00,18.00,BKN,OVC,M,M,6000.00,8000.00,M,M,-RA,M,M,M,M,M,M,51.00,KLAS 061056Z 20011G18KT 10SM -RA BKN060 OVC080 11/04 A2959 RMK AO2 RAB22 SLP011 VIS LWR NE MTNS OBSCURED DSNT W-N P0000 T01060044,M
NFL,2025-03-06 10:57,-118.7010,39.4166,1199.00,34.00,31.00,88.63,230.00,6.00,T,29.62,1001.50,10.00,M,OVC,M,M,M,6000.00,M,M,M,M,M,M,M,M,M,M,27.94,KNFL 061057Z AUTO 23006KT 10SM OVC060 01/M01 A2962 RMK AO2 SNE30 SLP015 P0000 T00111006,M
10U,2025-03-06 11:00,-116.1876,41.9532,1637.00,32.00,30.20,92.97,320.00,5.00,0.00,29.50,M,4.00,M,BKN,OVC,M,M,700.00,1700.00,M,M,-SN,M,M,M,M,M,M,26.40,K10U 061100Z AUTO 32005KT 4SM -SN BKN007 OVC017 M00/M01 A2950 RMK AO2,M
ELY,2025-03-06 11:04,-114.8453,39.2950,1909.00,47.00,35.00,62.84,180.00,12.00,0.01,29.47,M,3.00,20.00,OVC,M,M,M,1600.00,M,M,M,-RA,M,M,M,M,M,M,41.09,KELY 061104Z AUTO 18012G20KT 3SM -RA OVC016 08/02 A2947 RMK AO2 P0001 T00830017,M
LSV,2025-03-06 11:07,-115.0343,36.2362,570.00,51.80,44.60,76.34,170.00,10.00,0.00,29.54,999.20,10.00,M,FEW,M,M,M,3300.00,M,M,M,M,M,M,M,M,M,M,51.80,KLSV 061107Z AUTO 17010KT 10SM FEW033 11/07 A2954 RMK AO2 RAE07 SLP992 $,M
TMT,2025-03-06 11:10,-117.1971,39.4643,1749.34,30.00,28.40,93.68,200.00,3.00,0.00,29.56,M,10.00,M,SCT,OVC,M,M,2200.00,2800.00,M,M,M,M,M,M,M,M,M,26.40,KTMT 061110Z AUTO 20003KT 10SM SCT022 OVC028 M01/M02 A2956 RMK AO2 T10111020,M
BVU,2025-03-06 11:15,-114.8611,35.9475,671.00,48.20,42.80,81.47,220.00,17.00,0.00,29.60,M,9.00,23.00,FEW,BKN,OVC,M,3100.00,4100.00,4800.00,M,-RA,M,M,M,M,M,M,41.30,KBVU 061115Z AUTO 22017G23KT 9SM -RA FEW031 BKN041 OVC048 09/06 A2960 RMK AO2,M
BAM,2025-03-06 11:15,-116.8743,40.5990,1382.36,33.80,33.80,100.00,280.00,5.00,0.00,29.55,M,10.00,M,SCT,SCT,OVC,M,900.00,2200.00,2900.00,M,M,M,M,M,M,M,M,28.53,KBAM 061115Z AUTO 28005KT 10SM SCT009 SCT022 OVC029 01/01 A2955 RMK AO1,M
CXP,2025-03-06 11:15,-119.7326,39.1923,1431.00,32.00,23.00,69.04,210.00,7.00,0.00,29.64,M,10.00,M,FEW,SCT,BKN,M,3400.00,4400.00,5000.00,M,M,M,M,M,M,M,M,24.78,KCXP 061115Z AUTO 21007KT 10SM FEW034 SCT044 BKN050 00/M05 A2964 RMK AO2,M
RTS,2025-03-06 11:15,-119.8764,39.6682,1539.00,30.20,26.60,86.28,320.00,4.00,0.00,29.64,M,M,M,M,M,M,M,M,M,M,M,M,M,M,M,M,M,M,25.32,KRTS 061115Z AUTO 32004KT M01/M03 A2964 RMK AO2,M
MEV,2025-03-06 11:15,-119.7500,38.9963,1441.42,28.40,23.00,79.92,100.00,4.00,0.00,29.63,M,10.00,M,FEW,FEW,SCT,M,4000.00,4500.00,5000.00,M,M,M,M,M,M,M,M,23.22,KMEV 061115Z AUTO 10004KT 10SM FEW040 FEW045 SCT050 M02/M05 A2963 RMK AO2,M
HTH,2025-03-06 11:15,-118.6315,38.5448,1282.89,35.60,33.80,93.08,320.00,7.00,0.00,29.62,M,10.00,M,SCT,BKN,OVC,M,4200.00,5500.00,12000.00,M,M,M,M,M,M,M,M,29.17,KHTH 061115Z AUTO 32007KT 10SM SCT042 BKN055 OVC120 02/01 A2962 RMK A01,M
10U,2025-03-06 11:20,-116.1876,41.9532,1637.00,30.20,30.20,100.00,310.00,5.00,0.00,29.50,M,4.00,M,SCT,BKN,OVC,M,600.00,900.00,2000.00,M,-SN,M,M,M,M,M,M,24.26,K10U 061120Z AUTO 31005KT 4SM -SN SCT006 BKN009 OVC020 M01/M01 A2950 RMK AO2,M
RTS,2025-03-06 11:25,-119.8764,39.6682,1539.00,30.20,26.60,86.28,300.00,3.00,0.00,29.63,M,M,M,M,M,M,M,M,M,M,M,M,M,M,M,M,M,M,26.63,KRTS 061125Z AUTO 30003KT M01/M03 A2963 RMK AO2,M
MEV,2025-03-06 11:25,-119.7500,38.9963,1441.42,28.40,23.00,79.92,110.00,8.00,0.00,29.63,M,10.00,M,FEW,FEW,SCT,M,4200.00,5000.00,11000.00,M,M,M,M,M,M,M,M,19.68,KMEV 061125Z AUTO 11008KT 10SM FEW042 FEW050 SCT110 M02/M05 A2963 RMK AO2,M
EKO,2025-03-06 11:28,-115.7860,40.8242,1367.00,33.00,32.00,96.06,200.00,8.00,0.00,29.48,M,10.00,M,BKN,BKN,OVC,M,1700.00,2500.00,7000.00,M,M,M,M,M,M,M,M,25.34,KEKO 061128Z AUTO 20008KT 10SM BKN017 BKN025 OVC070 01/00 A2948 RMK AO2 T00060000,M
TMT,2025-03-06 11:30,-117.1971,39.4643,1749.34,30.00,28.40,93.68,200.00,4.00,0.00,29.56,M,10.00,M,OVC,M,M,M,2600.00,M,M,M,M,M,M,M,M,M,M,25.08,KTMT 061130Z AUTO 20004KT 10SM OVC026 M01/M02 A2956 RMK AO2 T10121020,M
BVU,2025-03-06 11:35,-114.8611,35.9475,671.00,48.20,42.80,81.47,200.00,15.00,0.00,29.59,M,10.00,M,FEW,BKN,OVC,M,3000.00,4000.00,6000.00,M,M,M,M,M,M,M,M,41.78,KBVU 061135Z AUTO 20015KT 10SM FEW030 BKN040 OVC060 09/06 A2959 RMK AO2,M
BAM,2025-03-06 11:35,-116.8743,40.5990,1382.36,33.80,33.80,100.00,300.00,3.00,0.00,29.55,M,10.00,M,SCT,OVC,M,M,1600.00,2900.00,M,M,M,M,M,M,M,M,M,30.75,KBAM 061135Z AUTO 30003KT 10SM SCT016 OVC029 01/01 A2955 RMK AO1,M
CXP,2025-03-06 11:35,-119.7326,39.1923,1431.00,33.80,21.20,59.53,230.00,8.00,0.00,29.64,M,10.00,M,FEW,BKN,OVC,M,3600.00,4300.00,6500.00,M,M,M,M,M,M,M,M,26.33,KCXP 061135Z AUTO 23008KT 10SM FEW036 BKN043 OVC065 01/M06 A2964 RMK AO2,M
HTH,2025-03-06 11:35,-118.6315,38.5448,1282.89,33.80,33.80,100.00,290.00,4.00,0.00,29.63,M,10.00,M,SCT,OVC,M,M,4100.00,5000.00,M,M,M,M,M,M,M,M,M,29.52,KHTH 061135Z AUTO 29004KT 10SM SCT041 OVC050 01/01 A2963 RMK A01,M
10U,2025-03-06 11:40,-116.1876,41.9532,1637.00,30.20,30.20,100.00,320.00,4.00,0.00,29.49,M,3.00,M,FEW,BKN,OVC,M,300.00,700.00,1700.00,M,-SN,M,M,M,M,M,M,25.32,K10U 061140Z AUTO 32004KT 3SM -SN FEW003 BKN007 OVC017 M01/M01 A2949 RMK AO2,M
MEV,2025-03-06 11:45,-119.7500,38.9963,1441.42,28.40,23.00,79.92,50.00,4.00,0.00,29.63,M,10.00,M,FEW,SCT,BKN,M,6000.00,9500.00,12000.00,M,M,M,M,M,M,M,M,23.22,KMEV 061145Z AUTO 05004KT 10SM FEW060 SCT095 BKN120 M02/M05 A2963 RMK AO2,M
RTS,2025-03-06 11:45,-119.8764,39.6682,1539.00,30.20,26.60,86.28,340.00,3.00,0.00,29.63,M,M,M,M,M,M,M,M,M,M,M,M,M,M,M,M,M,M,26.63,KRTS 061145Z AUTO 34003KT M01/M03 A2963 RMK AO2,M
TMT,2025-03-06 11:50,-117.1971,39.4643,1749.34,30.40,28.20,91.41,230.00,3.00,0.00,29.56,M,10.00,M,OVC,M,M,M,2600.00,M,M,M,-RA,M,M,M,M,M,M,26.86,KTMT 061150Z AUTO 23003KT 10SM -RA OVC026 M01/M02 A2956 RMK AO2 T10091021,M
DRA,2025-03-06 11:53,-116.0278,36.6206,1009.00,46.00,32.00,57.87,190.00,19.00,0.00,29.53,998.10,10.00,31.00,CLR,M,M,M,M,M,M,M,M,M,M,M,36.00,200.00,2025-03-06 11:23,37.95,KDRA 061153Z AUTO 19019G31KT 10SM CLR 08/00 A2953 RMK AO2 PK WND 20036/1123 SLP981 60000 70018 T00780000 10106 20078 56016,M
ELY,2025-03-06 11:53,-114.8453,39.2950,1909.00,48.00,36.00,62.97,200.00,8.00,0.03,29.45,991.50,4.00,M,FEW,OVC,M,M,1200.00,1600.00,M,M,-RA,M,M,M,M,M,M,43.82,KELY 061153Z AUTO 20008KT 4SM -RA FEW012 OVC016 09/02 A2945 RMK AO2 SLP915 P0003 60005 70009 T00890022 10100 20072 56025,M
VGT,2025-03-06 11:53,-115.1933,36.2111,667.00,51.00,39.00,63.36,230.00,8.00,T,29.54,1001.30,10.00,M,CLR,M,M,M,M,M,M,M,M,M,M,M,M,M,M,51.00,KVGT 061153Z AUTO 23008KT 10SM CLR 11/04 A2954 RMK AO2 RAE03 SLP013 P0000 60003 70006 T01060039 10139 20100 58025 $,M
LOL,2025-03-06 11:53,-118.5701,40.0684,1192.43,34.00,32.00,92.29,240.00,3.00,0.00,29.59,1003.10,10.00,M,OVC,M,M,M,6500.00,M,M,M,M,M,M,M,M,M,M,30.97,KLOL 061153Z AUTO 24003KT 10SM OVC065 01/00 A2959 RMK AO2 SLP031 60000 70035 T00110000 10028 20011 56013,M
BVU,2025-03-06 11:55,-114.8611,35.9475,671.00,48.20,42.80,81.47,190.00,8.00,0.00,29.59,M,10.00,14.00,SCT,BKN,OVC,M,4600.00,7000.00,8000.00,M,M,M,M,M,M,M,M,44.07,KBVU 061155Z AUTO 19008G14KT 10SM SCT046 BKN070 OVC080 09/06 A2959 RMK AO2,M
RNO,2025-03-06 11:55,-119.7711,39.4839,1341.00,32.00,29.00,88.53,220.00,4.00,0.00,29.63,1003.30,10.00,M,FEW,BKN,M,M,6000.00,12000.00,M,M,M,M,M,M,M,M,M,27.42,KRNO 061155Z 22004KT 10SM FEW060 BKN120 00/M02 A2963 RMK AO2 SLP033 60000 70018 T00001017 10022 20000 56013 $,M
BAM,2025-03-06 11:55,-116.8743,40.5990,1382.36,33.80,33.80,100.00,0.00,0.00,0.00,29.55,M,10.00,M,SCT,OVC,M,M,1400.00,2900.00,M,M,M,M,M,M,M,M,M,33.80,KBAM 061155Z AUTO 00000KT 10SM SCT014 OVC029 01/01 A2955 RMK AO1,M
CXP,2025-03-06 11:55,-119.7326,39.1923,1431.00,33.80,19.40,55.14,230.00,7.00,0.00,29.64,M,10.00,M,SCT,BKN,OVC,M,4300.00,5000.00,6000.00,M,M,M,M,M,M,M,M,26.97,KCXP 061155Z AUTO 23007KT 10SM SCT043 BKN050 OVC060 01/M07 A2964 RMK AO2,M
HTH,2025-03-06 11:55,-118.6315,38.5448,1282.89,33.80,33.80,100.00,290.00,4.00,0.00,29.63,M,10.00,M,FEW,SCT,BKN,M,3900.00,4500.00,5000.00,M,M,M,M,M,M,M,M,29.52,KHTH 061155Z AUTO 29004KT 10SM FEW039 SCT045 BKN050 01/01 A2963 RMK A01,M
INS,2025-03-06 11:55,-115.6733,36.5872,955.00,50.00,24.60,36.77,180.00,22.00,0.00,29.49,996.70,10.00,32.00,CLR,M,M,M,M,M,M,M,M,M,M,M,37.00,210.00,2025-03-06 11:39,50.00,KINS 061155Z AUTO 18022G32KT 10SM CLR 10/M04 A2949 RMK AO2 PK WND 21037/39 SLP967 60002 70022 T00991041 10108 20083 57040 $,M
LSV,2025-03-06 11:55,-115.0343,36.2362,570.00,51.80,42.00,69.10,180.00,17.00,0.01,29.52,998.60,10.00,M,CLR,M,M,M,M,M,M,M,M,M,M,M,M,M,M,51.80,KLSV 061155Z AUTO 18017KT 10SM CLR 11/06 A2952 RMK AO2 RAE07 SLP986 P0001 60009 70009 T01100055 10147 20104 57023 $,M
EKO,2025-03-06 11:56,-115.7860,40.8242,1367.00,33.00,32.00,96.06,220.00,8.00,0.00,29.48,998.80,10.00,M,SCT,BKN,OVC,M,1800.00,2800.00,4300.00,M,M,M,M,M,M,M,M,25.34,KEKO 061156Z AUTO 22008KT 10SM SCT018 BKN028 OVC043 01/00 A2948 RMK AO2 SLP988 60009 70020 T00060000 10022 20006 56013,M
HND,2025-03-06 11:56,-115.1344,35.9729,742.79,48.00,38.00,68.13,210.00,20.00,T,29.57,1002.40,10.00,25.00,CLR,M,M,M,M,M,M,M,M,M,M,M,27.00,220.00,2025-03-06 11:44,40.39,KHND 061156Z AUTO 21020G25KT 10SM CLR 09/03 A2957 RMK AO2 PK WND 22027/1144 RAE05 SLP024 P0000 60007 70007 T00890033 10139 20083 58025 $,M
TPH,2025-03-06 11:56,-117.0904,38.0505,1654.00,31.00,27.00,84.92,M,M,T,29.55,1000.10,5.00,M,SCT,OVC,M,M,2800.00,10000.00,M,M,-SN BR,M,M,M,M,M,M,M,KTPH 061156Z AUTO 5SM -SN BR SCT028 OVC100 M01/M03 A2955 RMK AO2 SNB16E34B50 SLP001 P0000 60004 70016 T10061028 10006 21006 56014 $,M
LAS,2025-03-06 11:56,-115.1634,36.0719,663.00,50.00,37.00,60.79,220.00,9.00,T,29.57,1000.20,10.00,18.00,FEW,FEW,BKN,M,6000.00,8000.00,15000.00,M,M,M,M,M,M,M,M,50.00,KLAS 061156Z 22009G18KT 10SM FEW060 FEW080 BKN150 10/03 A2957 RMK AO2 RAE08 SLP002 P0000 60001 70001 T01000028 10139 20100 58022,M
WMC,2025-03-06 11:56,-117.8072,40.9019,1315.00,M,M,M,M,M,0.00,29.56,M,M,M,M,M,M,M,M,M,M,M,M,M,M,M,M,M,M,M,KWMC 061156Z AUTO A2956 RMK AO2 SLPNO 56009 PWINO FZRANO TSNO,M
NFL,2025-03-06 11:57,-118.7010,39.4166,1199.00,35.00,31.00,85.17,270.00,5.00,0.00,29.61,1001.30,10.00,M,OVC,M,M,M,6000.00,M,M,M,M,M,M,M,M,M,M,29.96,KNFL 061157Z AUTO 27005KT 10SM OVC060 02/M01 A2961 RMK AO2 SLP013 60009 70038 T00171006 10028 20006 56016,M
10U,2025-03-06 12:00,-116.1876,41.9532,1637.00,30.20,30.20,100.00,320.00,3.00,0.00,29.49,M,4.00,M,SCT,OVC,M,M,400.00,1000.00,M,M,-SN,M,M,M,M,M,M,26.63,K10U 061200Z AUTO 32003KT 4SM -SN SCT004 OVC010 M01/M01 A2949 RMK AO2,M
EKO,2025-03-06 12:10,-115.7860,40.8242,1367.00,33.00,32.00,96.06,210.00,8.00,0.00,29.48,M,10.00,M,FEW,SCT,OVC,M,1600.00,2900.00,3600.00,M,M,M,M,M,M,M,M,25.34,KEKO 061210Z AUTO 21008KT 10SM FEW016 SCT029 OVC036 01/00 A2948 RMK AO2 T00060000,M
TMT,2025-03-06 12:10,-117.1971,39.4643,1749.34,30.40,28.40,92.16,250.00,3.00,0.00,29.56,M,10.00,M,OVC,M,M,M,2600.00,M,M,M,M,M,M,M,M,M,M,26.86,KTMT 061210Z AUTO 25003KT 10SM OVC026 M01/M02 A2956 RMK AO2 T10091020,M
BVU,2025-03-06 12:15,-114.8611,35.9475,671.00,48.20,42.80,81.47,170.00,8.00,0.00,29.58,M,10.00,M,FEW,SCT,OVC,M,6500.00,7500.00,11000.00,M,M,M,M,M,M,M,M,44.07,KBVU 061215Z AUTO 17008KT 10SM FEW065 SCT075 OVC110 09/06 A2958 RMK AO2,M
BAM,2025-03-06 12:15,-116.8743,40.5990,1382.36,35.60,33.80,93.08,0.00,0.00,0.00,29.55,M,10.00,M,SCT,BKN,OVC,M,1400.00,2500.00,3100.00,M,M,M,M,M,M,M,M,35.60,KBAM 061215Z AUTO 00000KT 10SM SCT014 BKN025 OVC031 02/01 A2955 RMK AO1,M
CXP,2025-03-06 12:15,-119.7326,39.1923,1431.00,33.80,19.40,55.14,200.00,11.00,0.00,29.64,M,10.00,M,FEW,BKN,OVC,M,4200.00,5500.00,12000.00,M,M,M,M,M,M,M,M,24.74,KCXP 061215Z AUTO 20011KT 10SM FEW042 BKN055 OVC120 01/M07 A2964 RMK AO2,M
RTS,2025-03-06 12:15,-119.8764,39.6682,1539.00,28.40,26.60,92.86,300.00,4.00,0.00,29.63,M,M,M,M,M,M,M,M,M,M,M,M,M,M,M,M,M,M,23.22,KRTS 061215Z AUTO 30004KT M02/M03 A2963 RMK AO2,M
MEV,2025-03-06 12:15,-119.7500,38.9963,1441.42,30.20,19.40,63.75,0.00,0.00,0.00,29.63,M,10.00,M,OVC,M,M,M,11000.00,M,M,M,M,M,M,M,M,M,M,30.20,KMEV 061215Z AUTO 00000KT 10SM OVC110 M01/M07 A2963 RMK AO2,M
HTH,2025-03-06 12:15,-118.6315,38.5448,1282.89,33.80,32.00,93.03,0.00,0.00,0.00,29.62,M,10.00,M,CLR,M,M,M,M,M,M,M,M,M,M,M,M,M,M,33.80,KHTH 061215Z AUTO 00000KT 10SM CLR 01/00 A2962 RMK A01,M
10U,2025-03-06 12:20,-116.1876,41.9532,1637.00,30.20,30.20,100.00,280.00,3.00,0.00,29.49,M,3.00,M,BKN,OVC,M,M,300.00,1000.00,M,M,-SN,M,M,M,M,M,M,26.63,K10U 061220Z AUTO 28003KT 3SM -SN BKN003 OVC010 M01/M01 A2949 RMK AO2,M
ELY,2025-03-06 12:24,-114.8453,39.2950,1909.00,49.00,36.00,60.66,240.00,8.00,0.01,29.45,M,4.00,M,SCT,OVC,M,M,800.00,2000.00,M,M,-RA,M,M,M,M,M,M,45.05,KELY 061224Z AUTO 24008KT 4SM -RA SCT008 OVC020 09/02 A2945 RMK AO2 P0001 T00940022,M
ELY,2025-03-06 12:29,-114.8453,39.2950,1909.00,48.00,36.00,62.97,240.00,8.00,0.01,29.45,M,2.50,M,SCT,BKN,OVC,M,1000.00,1400.00,2000.00,M,-RA,M,M,M,M,M,M,43.82,KELY 061229Z AUTO 24008KT 2 1/2SM -RA SCT010 BKN014 OVC020 09/02 A2945 RMK AO2 VIS 2 1/2V4 P0001 T00890022,M
TMT,2025-03-06 12:30,-117.1971,39.4643,1749.34,30.20,27.30,88.81,260.00,5.00,0.00,29.56,M,7.00,M,BKN,OVC,M,M,2400.00,3000.00,M,M,-SN,M,M,M,M,M,M,24.26,KTMT 061230Z AUTO 26005KT 7SM -SN BKN024 OVC030 M01/M03 A2956 RMK AO2 T10101026,M
BVU,2025-03-06 12:35,-114.8611,35.9475,671.00,50.00,41.00,71.07,220.00,9.00,0.00,29.57,M,10.00,M,FEW,FEW,BKN,M,5500.00,8500.00,11000.00,M,M,M,M,M,M,M,M,50.00,KBVU 061235Z AUTO 22009KT 10SM FEW055 FEW085 BKN110 10/05 A2957 RMK AO2,M
BAM,2025-03-06 12:35,-116.8743,40.5990,1382.36,33.80,33.80,100.00,280.00,4.00,0.00,29.55,M,10.00,M,SCT,BKN,OVC,M,1100.00,1600.00,2500.00,M,M,M,M,M,M,M,M,29.52,KBAM 061235Z AUTO 28004KT 10SM SCT011 BKN016 OVC025 01/01 A2955 RMK AO1,M
CXP,2025-03-06 12:35,-119.7326,39.1923,1431.00,32.00,19.40,59.27,190.00,12.00,0.00,29.64,M,10.00,17.00,FEW,SCT,BKN,M,4100.00,5000.00,11000.00,M,M,M,M,M,M,M,M,22.00,KCXP 061235Z AUTO 19012G17KT 10SM FEW041 SCT050 BKN110 00/M07 A2964 RMK AO2,M
RTS,2025-03-06 12:35,-119.8764,39.6682,1539.00,30.20,24.80,80.07,280.00,5.00,0.00,29.63,M,M,M,SCT,SCT,OVC,M,4100.00,5500.00,10000.00,M,M,M,M,M,M,M,M,24.26,KRTS 061235Z AUTO 28005KT SCT041 SCT055 OVC100 M01/M04 A2963 RMK AO2,M
MEV,2025-03-06 12:35,-119.7500,38.9963,1441.42,28.40,21.20,74.08,50.00,3.00,0.00,29.63,M,10.00,M,OVC,M,M,M,11000.00,M,M,M,M,M,M,M,M,M,M,24.57,KMEV 061235Z AUTO 05003KT 10SM OVC110 M02/M06 A2963 RMK AO2,M
HTH,2025-03-06 12:35,-118.6315,38.5448,1282.89,33.80,32.00,93.03,250.00,3.00,0.00,29.62,M,10.00,M,CLR,M,M,M,M,M,M,M,M,M,M,M,M,M,M,30.75,KHTH 061235Z AUTO 25003KT 10SM CLR 01/00 A2962 RMK A01,M
ELY,2025-03-06 12:37,-114.8453,39.2950,1909.00,38.00,35.00,88.83,250.00,9.00,0.02,29.44,M,1.25,M,FEW,BKN,OVC,M,800.00,1400.00,2100.00,M,-RA BR,M,M,M,M,M,M,30.97,KELY 061237Z AUTO 25009KT 1 1/4SM -RA BR FEW008 BKN014 OVC021 03/02 A2944 RMK AO2 P0002 T00330017,M
10U,2025-03-06 12:40,-116.1876,41.9532,1637.00,30.20,30.20,100.00,310.00,3.00,0.00,29.49,M,1.00,M,OVC,M,M,M,300.00,M,M,M,-SN,M,M,M,M,M,M,26.63,K10U 061240Z AUTO 31003KT 1SM -SN OVC003 M01/M01 A2949 RMK AO2,M
TMT,2025-03-06 12:50,-117.1971,39.4643,1749.34,29.30,27.50,92.89,230.00,10.00,0.00,29.55,M,5.00,M,SCT,BKN,OVC,M,2400.00,3100.00,4200.00,M,-SN,M,M,M,M,M,M,19.58,KTMT 061250Z AUTO 23010KT 5SM -SN SCT024 BKN031 OVC042 M01/M02 A2955 RMK AO2 T10151025,M
DRA,2025-03-06 12:53,-116.0278,36.6206,1009.00,44.00,31.00,59.97,200.00,22.00,0.00,29.53,998.20,10.00,34.00,CLR,M,M,M,M,M,M,M,M,M,M,M,34.00,190.00,2025-03-06 12:47,34.65,KDRA 061253Z AUTO 20022G34KT 10SM CLR 07/M01 A2953 RMK AO2 PK WND 19034/1247 SLP982 T00671006,M
VGT,2025-03-06 12:53,-115.1933,36.2111,667.00,51.00,32.00,47.99,240.00,12.00,0.00,29.54,1001.50,10.00,19.00,CLR,M,M,M,M,M,M,M,M,M,M,M,M,M,M,51.00,KVGT 061253Z AUTO 24012G19KT 10SM CLR 11/00 A2954 RMK AO2 SLP015 T01060000 $,M
LOL,2025-03-06 12:53,-118.5701,40.0684,1192.43,34.00,31.00,88.63,0.00,0.00,0.00,29.59,1003.10,10.00,M,SCT,OVC,M,M,7500.00,9500.00,M,M,M,M,M,M,M,M,M,34.00,KLOL 061253Z AUTO 00000KT 10SM SCT075 OVC095 01/M01 A2959 RMK AO2 SLP031 T00111006,M
P68,2025-03-06 12:53,-116.0056,39.6014,1993.00,31.00,29.00,92.19,230.00,6.00,0.00,29.48,996.90,M,M,M,M,M,M,M,M,M,M,M,M,M,M,M,M,M,24.33,KP68 061253Z AUTO 23006KT M01/M02 A2948 RMK AO1 SLP969 T10061017 $,M
ELY,2025-03-06 12:53,-114.8453,39.2950,1909.00,48.00,35.00,60.52,190.00,12.00,0.05,29.44,991.60,1.00,20.00,BKN,OVC,M,M,900.00,1600.00,M,M,-RA,M,M,M,M,M,M,42.37,KELY 061253Z AUTO 19012G20KT 1SM -RA BKN009 OVC016 09/02 A2944 RMK AO2 SNB38E47 SLP916 P0005 T00890017,M
BVU,2025-03-06 12:55,-114.8611,35.9475,671.00,50.00,37.40,61.76,200.00,13.00,0.00,29.57,M,10.00,20.00,FEW,FEW,FEW,M,5500.00,8000.00,12000.00,M,M,M,M,M,M,M,M,50.00,KBVU 061255Z AUTO 20013G20KT 10SM FEW055 FEW080 FEW120 10/03 A2957 RMK AO2,M
RNO,2025-03-06 12:55,-119.7711,39.4839,1341.00,32.00,28.00,84.98,200.00,4.00,0.00,29.63,1003.40,10.00,M,SCT,BKN,M,M,12000.00,18000.00,M,M,M,M,M,M,M,M,M,27.42,KRNO 061255Z 20004KT 10SM SCT120 BKN180 00/M02 A2963 RMK AO2 SLP034 T00001022 $,M
BAM,2025-03-06 12:55,-116.8743,40.5990,1382.36,33.80,33.80,100.00,0.00,0.00,0.00,29.55,M,10.00,M,SCT,SCT,OVC,M,1000.00,1600.00,2600.00,M,M,M,M,M,M,M,M,33.80,KBAM 061255Z AUTO 00000KT 10SM SCT010 SCT016 OVC026 01/01 A2955 RMK AO1,M
CXP,2025-03-06 12:55,-119.7326,39.1923,1431.00,33.80,19.40,55.14,230.00,8.00,0.00,29.64,M,10.00,13.00,SCT,BKN,M,M,4400.00,5000.00,M,M,M,M,M,M,M,M,M,26.33,KCXP 061255Z AUTO 23008G13KT 10SM SCT044 BKN050 01/M07 A2964 RMK AO2,M
RTS,2025-03-06 12:55,-119.8764,39.6682,1539.00,30.20,24.80,80.07,280.00,7.00,0.00,29.64,M,M,M,FEW,FEW,OVC,M,3200.00,4100.00,9500.00,M,M,M,M,M,M,M,M,22.59,KRTS 061255Z AUTO 28007KT FEW032 FEW041 OVC095 M01/M04 A2964 RMK AO2,M
MEV,2025-03-06 12:55,-119.7500,38.9963,1441.42,26.60,21.20,79.77,40.00,5.00,0.00,29.63,M,10.00,M,BKN,M,M,M,11000.00,M,M,M,M,M,M,M,M,M,M,19.98,KMEV 061255Z AUTO 04005KT 10SM BKN110 M03/M06 A2963 RMK AO2,M
HTH,2025-03-06 12:55,-118.6315,38.5448,1282.89,32.00,32.00,100.00,240.00,4.00,0.00,29.62,M,10.00,M,CLR,M,M,M,M,M,M,M,M,M,M,M,M,M,M,27.42,KHTH 061255Z AUTO 24004KT 10SM CLR 00/00 A2962 RMK A01,M
INS,2025-03-06 12:55,-115.6733,36.5872,955.00,48.00,21.00,34.05,190.00,16.00,0.00,29.50,997.20,10.00,23.00,CLR,M,M,M,M,M,M,M,M,M,M,M,34.00,210.00,2025-03-06 12:02,41.27,KINS 061255Z AUTO 19016G23KT 10SM CLR 09/M06 A2950 RMK AO2 PK WND 21034/02 SLP972 T00881062 $,M
LSV,2025-03-06 12:55,-115.0343,36.2362,570.00,50.40,37.00,59.89,190.00,15.00,0.00,29.52,998.70,10.00,M,CLR,M,M,M,M,M,M,M,M,M,M,M,M,M,M,50.40,KLSV 061255Z AUTO 19015KT 10SM CLR 10/03 A2952 RMK AO2 SLP987 T01020028 $,M
EKO,2025-03-06 12:56,-115.7860,40.8242,1367.00,33.00,33.00,100.00,210.00,8.00,T,29.47,998.40,8.00,M,FEW,OVC,M,M,1700.00,3900.00,M,M,-SN,M,M,M,M,M,M,25.34,KEKO 061256Z AUTO 21008KT 8SM -SN FEW017 OVC039 01/01 A2947 RMK AO2 SNB48 SLP984 P0000 T00060006,M
HND,2025-03-06 12:56,-115.1344,35.9729,742.79,47.00,33.00,58.01,220.00,18.00,0.00,29.58,1002.60,10.00,27.00,CLR,M,M,M,M,M,M,M,M,M,M,M,33.00,220.00,2025-03-06 12:19,39.49,KHND 061256Z AUTO 22018G27KT 10SM CLR 08/01 A2958 RMK AO2 PK WND 22033/1219 SLP026 T00830006 $,M
TPH,2025-03-06 12:56,-117.0904,38.0505,1654.00,31.00,26.00,81.48,320.00,18.00,T,29.54,1000.20,10.00,25.00,BKN,M,M,M,12000.00,M,M,M,M,M,M,M,27.00,320.00,2025-03-06 12:06,18.43,KTPH 061256Z AUTO 32018G25KT 10SM BKN120 M01/M03 A2954 RMK AO2 PK WND 32027/1206 SNE12 SLP002 P0000 T10061033 $,M
LAS,2025-03-06 12:56,-115.1634,36.0719,663.00,49.00,33.00,53.82,200.00,9.00,0.00,29.58,1000.80,10.00,27.00,FEW,FEW,M,M,8000.00,15000.00,M,M,M,M,M,M,29.00,220.00,2025-03-06 12:26,44.65,KLAS 061256Z 20009G27KT 170V230 10SM FEW080 FEW150 09/01 A2958 RMK AO2 PK WND 22029/1226 SLP008 T00940006,M
WMC,2025-03-06 12:56,-117.8072,40.9019,1315.00,M,M,M,M,M,0.00,29.56,M,M,M,M,M,M,M,M,M,M,M,M,M,M,M,M,M,M,M,KWMC 061256Z AUTO A2956 RMK AO2 SLPNO PWINO FZRANO TSNO,M
NFL,2025-03-06 12:57,-118.7010,39.4166,1199.00,34.00,31.00,88.63,250.00,6.00,0.00,29.61,1001.30,10.00,M,OVC,M,M,M,7000.00,M,M,M,M,M,M,M,M,M,M,27.94,KNFL 061257Z AUTO 25006KT 10SM OVC070 01/M01 A2961 RMK AO2 SLP013 T00111006,M
10U,2025-03-06 13:00,-116.1876,41.9532,1637.00,30.20,30.20,100.00,0.00,0.00,0.00,29.49,M,3.00,M,OVC,M,M,M,200.00,M,M,M,-SN,M,M,M,M,M,M,30.20,K10U 061300Z AUTO 00000KT 3SM -SN OVC002 M01/M01 A2949 RMK AO2,M
ELY,2025-03-06 13:01,-114.8453,39.2950,1909.00,47.00,35.00,62.84,200.00,7.00,T,29.44,M,2.00,M,BKN,BKN,OVC,M,900.00,1400.00,6000.00,M,-RA,M,M,M,M,M,M,43.06,KELY 061301Z AUTO 20007KT 2SM -RA BKN009 BKN014 OVC060 08/02 A2944 RMK AO2 P0000 T00830017,M
ELY,2025-03-06 13:09,-114.8453,39.2950,1909.00,45.00,36.00,70.53,170.00,6.00,0.01,29.44,M,8.00,M,SCT,BKN,BKN,M,800.00,2600.00,5500.00,M,-RA,M,M,M,M,M,M,41.19,KELY 061309Z AUTO 17006KT 8SM -RA SCT008 BKN026 BKN055 07/02 A2944 RMK AO2 P0001 T00720022,M
TMT,2025-03-06 13:10,-117.1971,39.4643,1749.34,29.30,27.50,92.89,230.00,8.00,0.00,29.55,M,10.00,M,BKN,BKN,OVC,M,3400.00,4000.00,4900.00,M,-SN,M,M,M,M,M,M,20.79,KTMT 061310Z AUTO 23008KT 10SM -SN BKN034 BKN040 OVC049 M01/M02 A2955 RMK AO2 T10151025,M
EKO,2025-03-06 13:13,-115.7860,40.8242,1367.00,33.00,32.00,96.06,220.00,9.00,T,29.47,M,7.00,M,BKN,OVC,M,M,1700.00,3700.00,M,M,-SN,M,M,M,M,M,M,24.76,KEKO 061313Z AUTO 22009KT 7SM -SN BKN017 OVC037 01/00 A2947 RMK AO2 P0000 T00060000,M
BVU,2025-03-06 13:15,-114.8611,35.9475,671.00,48.20,35.60,61.52,210.00,18.00,0.00,29.57,M,10.00,27.00,CLR,M,M,M,M,M,M,M,M,M,M,M,M,M,M,41.07,KBVU 061315Z AUTO 21018G27KT 10SM CLR 09/02 A2957 RMK AO2,M
BAM,2025-03-06 13:15,-116.8743,40.5990,1382.36,33.80,33.80,100.00,240.00,3.00,0.00,29.55,M,10.00,M,OVC,M,M,M,2800.00,M,M,M,M,M,M,M,M,M,M,30.75,KBAM 061315Z AUTO 24003KT 10SM OVC028 01/01 A2955 RMK AO1,M
CXP,2025-03-06 13:15,-119.7326,39.1923,1431.00,32.00,19.40,59.27,200.00,6.00,0.00,29.64,M,10.00,M,FEW,SCT,BKN,M,3900.00,4800.00,11000.00,M,M,M,M,M,M,M,M,25.53,KCXP 061315Z AUTO 20006KT 10SM FEW039 SCT048 BKN110 00/M07 A2964 RMK AO2,M
RTS,2025-03-06 13:15,-119.8764,39.6682,1539.00,28.40,23.00,79.92,290.00,7.00,0.00,29.63,M,M,M,SCT,OVC,M,M,4200.00,9000.00,M,M,M,M,M,M,M,M,M,20.39,KRTS 061315Z AUTO 29007KT SCT042 OVC090 M02/M05 A2963 RMK AO2,M
MEV,2025-03-06 13:15,-119.7500,38.9963,1441.42,26.60,21.20,79.77,70.00,6.00,0.00,29.63,M,10.00,M,OVC,M,M,M,11000.00,M,M,M,M,M,M,M,M,M,M,19.03,KMEV 061315Z AUTO 07006KT 10SM OVC110 M03/M06 A2963 RMK AO2,M
HTH,2025-03-06 13:15,-118.6315,38.5448,1282.89,32.00,32.00,100.00,230.00,5.00,0.00,29.62,M,10.00,M,FEW,M,M,M,11000.00,M,M,M,M,M,M,M,M,M,M,26.40,KHTH 061315Z AUTO 23005KT 10SM FEW110 00/M00 A2962 RMK A01,M
10U,2025-03-06 13:20,-116.1876,41.9532,1637.00,30.20,30.20,100.00,80.00,4.00,0.00,29.49,M,1.50,M,OVC,M,M,M,200.00,M,M,M,-SN,M,M,M,M,M,M,25.32,K10U 061320Z AUTO 08004KT 1 1/2SM -SN OVC002 M01/M01 A2949 RMK AO2,M
TMT,2025-03-06 13:30,-117.1971,39.4643,1749.34,29.30,27.00,90.99,240.00,9.00,0.00,29.56,M,10.00,M,BKN,OVC,M,M,2400.00,3200.00,M,M,M,M,M,M,M,M,M,20.16,KTMT 061330Z AUTO 24009KT 10SM BKN024 OVC032 M01/M03 A2956 RMK AO2 T10151028,M
BVU,2025-03-06 13:35,-114.8611,35.9475,671.00,48.20,33.80,57.26,210.00,17.00,0.00,29.59,M,10.00,25.00,CLR,M,M,M,M,M,M,M,M,M,M,M,M,M,M,41.30,KBVU 061335Z AUTO 21017G25KT 10SM CLR 09/01 A2959 RMK AO2,M
BAM,2025-03-06 13:35,-116.8743,40.5990,1382.36,33.80,32.00,93.03,0.00,0.00,0.00,29.55,M,10.00,M,SCT,BKN,OVC,M,1200.00,2000.00,2800.00,M,M,M,M,M,M,M,M,33.80,KBAM 061335Z AUTO 00000KT 10SM SCT012 BKN020 OVC028 01/00 A2955 RMK AO1,M
CXP,2025-03-06 13:35,-119.7326,39.1923,1431.00,32.00,19.40,59.27,200.00,7.00,0.00,29.64,M,10.00,M,BKN,M,M,M,11000.00,M,M,M,M,M,M,M,M,M,M,24.78,KCXP 061335Z AUTO 20007KT 10SM BKN110 M00/M07 A2964 RMK AO2,M
RTS,2025-03-06 13:35,-119.8764,39.6682,1539.00,30.20,23.00,74.26,290.00,6.00,0.00,29.64,M,M,M,FEW,BKN,OVC,M,3900.00,6000.00,9500.00,M,M,M,M,M,M,M,M,23.36,KRTS 061335Z AUTO 29006KT FEW039 BKN060 OVC095 M01/M05 A2964 RMK AO2,M
MEV,2025-03-06 13:35,-119.7500,38.9963,1441.42,26.60,23.00,86.07,40.00,8.00,0.00,29.63,M,10.00,M,BKN,M,M,M,11000.00,M,M,M,M,M,M,M,M,M,M,17.46,KMEV 061335Z AUTO 04008KT 10SM BKN110 M03/M05 A2963 RMK AO2,M
HTH,2025-03-06 13:35,-118.6315,38.5448,1282.89,32.00,30.20,92.97,180.00,5.00,0.00,29.62,M,10.00,M,BKN,BKN,M,M,8000.00,11000.00,M,M,M,M,M,M,M,M,M,26.40,KHTH 061335Z AUTO 18005KT 10SM BKN080 BKN110 00/M01 A2962 RMK A01,M
10U,2025-03-06 13:40,-116.1876,41.9532,1637.00,30.20,30.20,100.00,80.00,6.00,0.00,29.48,M,3.00,M,BKN,OVC,M,M,300.00,1100.00,M,M,-SN,M,M,M,M,M,M,23.36,K10U 061340Z AUTO 08006KT 3SM -SN BKN003 OVC011 M01/M01 A2948 RMK AO2,M
TMT,2025-03-06 13:50,-117.1971,39.4643,1749.34,29.30,26.80,90.25,240.00,9.00,0.00,29.56,M,10.00,M,SCT,BKN,OVC,M,2200.00,3500.00,4100.00,M,M,M,M,M,M,M,M,20.16,KTMT 061350Z AUTO 24009KT 10SM SCT022 BKN035 OVC041 M01/M03 A2956 RMK AO2 T10151029,M
DRA,2025-03-06 13:53,-116.0278,36.6206,1009.00,43.00,31.00,62.31,220.00,10.00,T,29.54,998.70,10.00,25.00,FEW,BKN,M,M,3500.00,4300.00,M,M,M,M,M,M,34.00,210.00,2025-03-06 12:54,36.76,KDRA 061353Z AUTO 22010G25KT 10SM FEW035 BKN043 06/M01 A2954 RMK AO2 PK WND 21034/1254 RAB25E32 SLP987 P0000 T00611006,M
ELY,2025-03-06 13:53,-114.8453,39.2950,1909.00,39.00,34.00,82.08,270.00,5.00,0.01,29.44,993.10,9.00,M,BKN,BKN,OVC,M,800.00,1200.00,2700.00,M,-RA,T,M,M,M,M,M,34.71,KELY 061353Z AUTO 27005KT 9SM -RA BKN008 BKN012 OVC027 04/01 A2944 RMK AO2 RAE10B51 SLP931 P0001 I1000 T00390011,M
VGT,2025-03-06 13:53,-115.1933,36.2111,667.00,49.00,31.00,49.65,220.00,17.00,0.00,29.53,1001.20,10.00,31.00,CLR,M,M,M,M,M,M,M,M,M,M,M,31.00,220.00,2025-03-06 13:50,42.35,KVGT 061353Z AUTO 22017G31KT 10SM CLR 09/M01 A2953 RMK AO2 PK WND 22031/1350 SLP012 T00941006 $,M
LOL,2025-03-06 13:53,-118.5701,40.0684,1192.43,33.00,31.00,92.25,230.00,5.00,0.00,29.60,1003.50,10.00,M,FEW,OVC,M,M,3400.00,4400.00,M,M,M,M,M,M,M,M,M,27.58,KLOL 061353Z AUTO 23005KT 10SM FEW034 OVC044 01/M01 A2960 RMK AO2 SLP035 T00061006,M
P68,2025-03-06 13:53,-116.0056,39.6014,1993.00,31.00,27.00,84.92,0.00,0.00,0.00,29.47,996.60,M,M,M,M,M,M,M,M,M,M,M,M,M,M,M,M,M,31.00,KP68 061353Z AUTO 00000KT M01/M03 A2947 RMK AO1 SLP966 T10061028 $,M
EKO,2025-03-06 13:54,-115.7860,40.8242,1367.00,33.80,32.00,93.03,230.00,9.00,T,29.47,M,8.00,M,OVC,M,M,M,1400.00,M,M,M,M,M,M,M,M,M,M,25.75,KEKO 061354Z AUTO 23009KT 8SM OVC014 01/00 A2947 RMK AO2 SNE48 P0000,M
BVU,2025-03-06 13:55,-114.8611,35.9475,671.00,48.20,32.00,53.27,210.00,20.00,0.00,29.59,M,10.00,M,CLR,M,M,M,M,M,M,M,M,M,M,M,M,M,M,40.66,KBVU 061355Z AUTO 21020KT 10SM CLR 09/M00 A2959 RMK AO2,M
RNO,2025-03-06 13:55,-119.7711,39.4839,1341.00,31.00,28.00,88.48,140.00,3.00,0.00,29.63,1003.60,10.00,M,FEW,BKN,BKN,M,6000.00,12000.00,18000.00,M,M,M,M,M,M,M,M,27.55,KRNO 061355Z 14003KT 10SM FEW060 BKN120 BKN180 M01/M02 A2963 RMK AO2 SLP036 T10061022 $,M
BAM,2025-03-06 13:55,-116.8743,40.5990,1382.36,33.80,32.00,93.03,0.00,0.00,0.00,29.55,M,10.00,M,SCT,BKN,OVC,M,1400.00,2000.00,3000.00,M,M,M,M,M,M,M,M,33.80,KBAM 061355Z AUTO 00000KT 10SM SCT014 BKN020 OVC030 01/00 A2955 RMK AO1,M
CXP,2025-03-06 13:55,-119.7326,39.1923,1431.00,32.00,21.20,63.99,320.00,4.00,0.00,29.65,M,10.00,M,SCT,M,M,M,11000.00,M,M,M,M,M,M,M,M,M,M,27.42,KCXP 061355Z AUTO 32004KT 10SM SCT110 M00/M06 A2965 RMK AO2,M
RTS,2025-03-06 13:55,-119.8764,39.6682,1539.00,28.40,23.00,79.92,280.00,8.00,0.00,29.63,M,M,M,BKN,OVC,M,M,6000.00,6500.00,M,M,M,M,M,M,M,M,M,19.68,KRTS 061355Z AUTO 28008KT BKN060 OVC065 M02/M05 A2963 RMK AO2,M
MEV,2025-03-06 13:55,-119.7500,38.9963,1441.42,26.60,21.20,79.77,70.00,7.00,0.00,29.63,M,10.00,M,FEW,M,M,M,11000.00,M,M,M,M,M,M,M,M,M,M,18.20,KMEV 061355Z AUTO 07007KT 10SM FEW110 M03/M06 A2963 RMK AO2,M
HTH,2025-03-06 13:55,-118.6315,38.5448,1282.89,33.80,28.40,80.36,0.00,0.00,0.00,29.63,M,10.00,M,BKN,OVC,M,M,9000.00,11000.00,M,M,M,M,M,M,M,M,M,33.80,KHTH 061355Z AUTO 00000KT 10SM BKN090 OVC110 01/M02 A2963 RMK A01,M
INS,2025-03-06 13:55,-115.6733,36.5872,955.00,46.80,22.50,37.96,190.00,18.00,0.00,29.49,997.10,10.00,33.00,CLR,M,M,M,M,M,M,M,M,M,M,M,40.00,210.00,2025-03-06 13:38,39.23,KINS 061355Z AUTO 19018G33KT 10SM CLR 08/M05 A2949 RMK AO2 PK WND 21040/38 SLP971 T00821053 $,M
LSV,2025-03-06 13:55,-115.0343,36.2362,570.00,49.00,34.00,56.02,200.00,18.00,0.00,29.52,998.90,10.00,M,CLR,M,M,M,M,M,M,M,M,M,M,M,M,M,M,42.13,KLSV 061355Z AUTO 20018KT 10SM CLR 10/01 A2952 RMK AO2 SLP989 T00950012 $,M
EKO,2025-03-06 13:56,-115.7860,40.8242,1367.00,33.00,32.00,96.06,230.00,10.00,T,29.47,998.50,8.00,M,OVC,M,M,M,1400.00,M,M,M,M,M,M,M,M,M,M,24.22,KEKO 061356Z AUTO 23010KT 8SM OVC014 01/00 A2947 RMK AO2 SNE48 SLP985 P0000 T00060000,M
HND,2025-03-06 13:56,-115.1344,35.9729,742.79,45.00,33.00,62.58,210.00,15.00,0.00,29.60,1003.70,10.00,21.00,CLR,M,M,M,M,M,M,M,M,M,M,M,31.00,220.00,2025-03-06 13:09,37.63,KHND 061356Z AUTO 21015G21KT 10SM CLR 07/01 A2960 RMK AO2 PK WND 22031/1309 SLP037 T00720006 $,M
TPH,2025-03-06 13:56,-117.0904,38.0505,1654.00,31.00,25.00,78.16,340.00,17.00,0.00,29.56,1000.60,10.00,24.00,FEW,M,M,M,12000.00,M,M,M,M,M,M,M,M,M,M,18.77,KTPH 061356Z AUTO 34017G24KT 10SM FEW120 M01/M04 A2956 RMK AO2 SLP006 T10061039 $,M
LAS,2025-03-06 13:56,-115.1634,36.0719,663.00,47.00,32.00,55.73,220.00,10.00,0.00,29.60,1001.60,10.00,17.00,FEW,FEW,M,M,6000.00,15000.00,M,M,M,M,M,M,27.00,230.00,2025-03-06 13:01,41.78,KLAS 061356Z 22010G17KT 10SM FEW060 FEW150 08/00 A2960 RMK AO2 PK WND 23027/1301 SLP016 T00830000,M
WMC,2025-03-06 13:56,-117.8072,40.9019,1315.00,M,M,M,M,M,0.00,29.56,M,M,M,M,M,M,M,M,M,M,M,M,M,M,M,M,M,M,M,KWMC 061356Z AUTO A2956 RMK AO2 SLPNO PWINO FZRANO TSNO $,M
NFL,2025-03-06 13:57,-118.7010,39.4166,1199.00,35.00,30.00,81.78,270.00,6.00,0.00,29.62,1001.40,10.00,M,OVC,M,M,M,6000.00,M,M,M,M,M,M,M,M,M,M,29.14,KNFL 061357Z AUTO 27006KT 10SM OVC060 02/M01 A2962 RMK AO2 SLP014 T00171011,M
10U,2025-03-06 14:00,-116.1876,41.9532,1637.00,30.20,30.20,100.00,60.00,6.00,0.00,29.49,M,1.50,M,OVC,M,M,M,300.00,M,M,M,-SN,M,M,M,M,M,M,23.36,K10U 061400Z AUTO 06006KT 1 1/2SM -SN OVC003 M01/M01 A2949 RMK AO2,M
ELY,2025-03-06 14:07,-114.8453,39.2950,1909.00,36.00,34.00,92.35,270.00,4.00,T,29.44,M,1.75,M,OVC,M,M,M,1200.00,M,M,M,-SN BR,M,M,M,M,M,M,32.09,KELY 061407Z AUTO 27004KT 1 3/4SM -SN BR OVC012 02/01 A2944 RMK AO2 RAE1355SNB1355 P0000 T00220011,M
TMT,2025-03-06 14:10,-117.1971,39.4643,1749.34,29.00,26.60,90.61,230.00,8.00,0.00,29.57,M,10.00,M,BKN,OVC,M,M,3700.00,4300.00,M,M,M,M,M,M,M,M,M,20.42,KTMT 061410Z AUTO 23008KT 10SM BKN037 OVC043 M02/M03 A2957 RMK AO2 T10171030,M
RTS,2025-03-06 14:15,-119.8764,39.6682,1539.00,28.40,23.00,79.92,280.00,7.00,0.00,29.64,M,M,M,BKN,OVC,M,M,6000.00,7000.00,M,M,M,M,M,M,M,M,M,20.39,KRTS 061415Z AUTO 28007KT BKN060 OVC070 M02/M05 A2964 RMK AO2,M
BVU,2025-03-06 14:15,-114.8611,35.9475,671.00,46.40,30.20,53.00,230.00,19.00,0.00,29.60,M,10.00,M,CLR,M,M,M,M,M,M,M,M,M,M,M,M,M,M,38.48,KBVU 061415Z AUTO 23019KT 10SM CLR 08/M01 A2960 RMK AO2,M
BAM,2025-03-06 14:15,-116.8743,40.5990,1382.36,33.80,32.00,93.03,230.00,4.00,0.00,29.55,M,10.00,M,SCT,BKN,OVC,M,1400.00,2000.00,3000.00,M,M,M,M,M,M,M,M,29.52,KBAM 061415Z AUTO 23004KT 10SM SCT014 BKN020 OVC030 01/00 A2955 RMK AO1,M
CXP,2025-03-06 14:15,-119.7326,39.1923,1431.00,32.00,19.40,59.27,220.00,4.00,0.00,29.65,M,10.00,M,FEW,M,M,M,10000.00,M,M,M,M,M,M,M,M,M,M,27.42,KCXP 061415Z AUTO 22004KT 10SM FEW100 M00/M07 A2965 RMK AO2,M
MEV,2025-03-06 14:15,-119.7500,38.9963,1441.42,26.60,21.20,79.77,80.00,7.00,0.00,29.64,M,10.00,M,FEW,M,M,M,12000.00,M,M,M,M,M,M,M,M,M,M,18.20,KMEV 061415Z AUTO 08007KT 10SM FEW120 M03/M06 A2964 RMK AO2,M
HTH,2025-03-06 14:15,-118.6315,38.5448,1282.89,33.80,28.40,80.36,280.00,5.00,0.00,29.62,M,10.00,M,BKN,BKN,M,M,9500.00,12000.00,M,M,M,M,M,M,M,M,M,28.53,KHTH 061415Z AUTO 28005KT 10SM BKN095 BKN120 01/M02 A2962 RMK A01,M
ELY,2025-03-06 14:16,-114.8453,39.2950,1909.00,37.00,34.00,88.78,280.00,4.00,T,29.42,M,1.50,M,SCT,OVC,M,M,800.00,1300.00,M,M,-SN BR,M,M,M,M,M,M,33.26,KELY 061416Z AUTO 28004KT 1 1/2SM -SN BR SCT008 OVC013 03/01 A2942 RMK AO2 RAE1355SNB1355 P0000 T00280011,M
EKO,2025-03-06 14:19,-115.7860,40.8242,1367.00,33.00,32.00,96.06,240.00,12.00,T,29.46,M,6.00,M,SCT,BKN,OVC,M,1300.00,3600.00,5500.00,M,-SN BR,M,M,M,M,M,M,23.27,KEKO 061419Z AUTO 24012KT 6SM -SN BR SCT013 BKN036 OVC055 01/00 A2946 RMK AO2 SNB09 P0000 T00060000,M
10U,2025-03-06 14:20,-116.1876,41.9532,1637.00,28.40,28.40,100.00,20.00,9.00,0.00,29.50,M,0.50,M,OVC,M,M,M,200.00,M,M,M,-SN,M,M,M,M,M,M,19.04,K10U 061420Z AUTO 02009KT 1/2SM -SN OVC002 M02/M02 A2950 RMK AO2,M
ELY,2025-03-06 14:26,-114.8453,39.2950,1909.00,37.00,33.00,85.29,280.00,6.00,T,29.42,M,2.50,M,SCT,BKN,OVC,M,1100.00,1600.00,2200.00,M,-SN BR,M,M,M,M,M,M,31.55,KELY 061426Z AUTO 28006KT 2 1/2SM -SN BR SCT011 BKN016 OVC022 03/01 A2942 RMK AO2 RAE1355SNB1355 P0000 T00280006,M
INS,2025-03-06 14:27,-115.6733,36.5872,955.00,46.40,23.00,39.36,230.00,22.00,0.00,29.51,997.70,10.00,31.00,CLR,M,M,M,M,M,M,M,M,M,M,M,M,M,M,37.86,KINS 061427Z AUTO 23022G31KT 10SM CLR 08/M05 A2951 RMK AO2 WSHFT 13 SLP977 $,M
INS,2025-03-06 14:30,-115.6733,36.5872,955.00,46.40,24.80,42.44,280.00,15.00,0.00,29.52,998.10,10.00,31.00,CLR,M,M,M,M,M,M,M,M,M,M,M,M,M,M,39.45,KINS 061430Z AUTO 28015G31KT 10SM CLR 08/M04 A2952 RMK AO2 WSHFT 27 SLP981 $,M
TMT,2025-03-06 14:30,-117.1971,39.4643,1749.34,28.80,26.60,91.35,230.00,7.00,0.00,29.56,M,10.00,M,SCT,BKN,OVC,M,2200.00,3500.00,4200.00,M,-SN,M,M,M,M,M,M,20.88,KTMT 061430Z AUTO 23007KT 10SM -SN SCT022 BKN035 OVC042 M02/M03 A2956 RMK AO2 T10181030,M
ELY,2025-03-06 14:31,-114.8453,39.2950,1909.00,38.00,33.00,82.00,290.00,6.00,T,29.42,M,1.50,M,FEW,SCT,OVC,M,900.00,1400.00,2000.00,M,-SN,M,M,M,M,M,M,32.76,KELY 061431Z AUTO 29006KT 1 1/2SM -SN FEW009 SCT014 OVC020 03/01 A2942 RMK AO2 RAE1355SNB1355 P0000 T00330006,M
BVU,2025-03-06 14:35,-114.8611,35.9475,671.00,46.40,32.00,57.00,220.00,16.00,0.00,29.61,M,10.00,M,CLR,M,M,M,M,M,M,M,M,M,M,M,M,M,M,39.19,KBVU 061435Z AUTO 22016KT 10SM CLR 08/M00 A2961 RMK AO2,M
BAM,2025-03-06 14:35,-116.8743,40.5990,1382.36,33.80,32.00,93.03,250.00,3.00,0.00,29.55,M,10.00,M,BKN,BKN,OVC,M,1400.00,2000.00,2800.00,M,M,M,M,M,M,M,M,30.75,KBAM 061435Z AUTO 25003KT 10SM BKN014 BKN020 OVC028 01/00 A2955 RMK AO1,M
CXP,2025-03-06 14:35,-119.7326,39.1923,1431.00,32.00,19.40,59.27,170.00,4.00,0.00,29.65,M,10.00,M,CLR,M,M,M,M,M,M,M,M,M,M,M,M,M,M,27.42,KCXP 061435Z AUTO 17004KT 10SM CLR M00/M07 A2965 RMK AO2,M
RTS,2025-03-06 14:35,-119.8764,39.6682,1539.00,28.40,23.00,79.92,300.00,6.00,0.00,29.64,M,M,M,BKN,OVC,M,M,5500.00,7000.00,M,M,M,M,M,M,M,M,M,21.19,KRTS 061435Z AUTO 30006KT BKN055 OVC070 M02/M05 A2964 RMK AO2,M
MEV,2025-03-06 14:35,-119.7500,38.9963,1441.42,24.80,21.20,85.96,90.00,7.00,0.00,29.64,M,10.00,M,CLR,M,M,M,M,M,M,M,M,M,M,M,M,M,M,16.00,KMEV 061435Z AUTO 09007KT 10SM CLR M04/M06 A2964 RMK AO2,M
HTH,2025-03-06 14:35,-118.6315,38.5448,1282.89,32.00,28.40,86.39,240.00,5.00,0.00,29.63,M,10.00,M,CLR,M,M,M,M,M,M,M,M,M,M,M,M,M,M,26.40,KHTH 061435Z AUTO 24005KT 10SM CLR 00/M02 A2963 RMK A01,M
ELY,2025-03-06 14:38,-114.8453,39.2950,1909.00,36.00,33.00,88.73,290.00,7.00,0.01,29.42,M,1.00,M,FEW,OVC,M,M,1400.00,2000.00,M,M,-SN BR,M,M,M,M,M,M,29.65,KELY 061438Z AUTO 29007KT 1SM -SN BR FEW014 OVC020 02/01 A2942 RMK AO2 RAE1355SNB1355 P0001 T00220006,M
10U,2025-03-06 14:40,-116.1876,41.9532,1637.00,28.40,28.40,100.00,360.00,9.00,0.00,29.50,M,0.50,M,OVC,M,M,M,200.00,M,M,M,-SN,M,M,M,M,M,M,19.04,K10U 061440Z AUTO 36009KT 1/2SM -SN OVC002 M02/M02 A2950 RMK AO2,M
NFL,2025-03-06 14:42,-118.7010,39.4166,1199.00,34.00,31.00,88.63,230.00,6.00,0.00,29.62,M,10.00,M,FEW,BKN,BKN,BKN,4000.00,6000.00,8000.00,13000.00,M,M,M,M,M,M,M,27.94,KNFL 061442Z 23006KT 10SM FEW040 BKN060 BKN080 BKN130 01/M01 A2962 RMK AO2 WR// T00111006,M
ELY,2025-03-06 14:44,-114.8453,39.2950,1909.00,37.00,34.00,88.78,300.00,7.00,0.01,29.43,M,2.00,M,FEW,BKN,OVC,M,1500.00,2000.00,4000.00,M,-SN BR,M,M,M,M,M,M,30.87,KELY 061444Z AUTO 30007KT 2SM -SN BR FEW015 BKN020 OVC040 03/01 A2943 RMK AO2 RAE1355SNB1355 P0001 T00280011,M
ELY,2025-03-06 14:50,-114.8453,39.2950,1909.00,39.20,33.80,80.79,310.00,9.00,0.01,29.43,M,1.25,M,FEW,BKN,OVC,M,1500.00,2500.00,3800.00,M,-SN,M,M,M,M,M,M,32.47,KELY 061450Z AUTO 31009KT 1 1/4SM -SN FEW015 BKN025 OVC038 04/01 A2943 RMK AO2 RAE1355SNB1355 P0001,M
TMT,2025-03-06 14:50,-117.1971,39.4643,1749.34,29.00,26.80,91.36,240.00,6.00,0.00,29.57,M,10.00,M,BKN,BKN,OVC,M,2900.00,3600.00,4400.00,M,M,M,M,M,M,M,M,21.92,KTMT 061450Z AUTO 24006KT 10SM BKN029 BKN036 OVC044 M02/M03 A2957 RMK AO2 T10171029,M
P68,2025-03-06 14:53,-116.0056,39.6014,1993.00,30.00,26.00,84.85,290.00,9.00,0.00,29.48,997.10,M,M,M,M,M,M,M,M,M,M,M,M,M,M,M,M,M,21.03,KP68 061453Z AUTO 29009KT M01/M03 A2948 RMK AO1 SLP971 T10111033 55001 $,M
DRA,2025-03-06 14:53,-116.0278,36.6206,1009.00,44.00,29.00,55.29,230.00,17.00,T,29.58,999.90,10.00,23.00,FEW,BKN,BKN,M,3800.00,4900.00,6500.00,M,M,M,M,M,26.00,190.00,2025-03-06 14:25,35.80,KDRA 061453Z AUTO 23017G23KT 10SM FEW038 BKN049 BKN065 07/M02 A2958 RMK AO2 PK WND 19026/1425 RAB26E42 SLP999 P0000 60000 T00671017 53016,M
ELY,2025-03-06 14:53,-114.8453,39.2950,1909.00,39.00,33.00,78.86,300.00,8.00,0.01,29.42,992.60,1.00,M,FEW,BKN,OVC,M,1500.00,2300.00,3800.00,M,-SN,M,T,M,M,M,M,32.74,KELY 061453Z AUTO 30008KT 1SM -SN FEW015 BKN023 OVC038 04/01 A2942 RMK AO2 RAE1355SNB1355 SLP926 P0001 60007 I3000 T00390006 58004,M
VGT,2025-03-06 14:53,-115.1933,36.2111,667.00,49.00,29.00,45.77,210.00,20.00,0.00,29.53,1001.30,10.00,30.00,CLR,M,M,M,M,M,M,M,M,M,M,M,32.00,230.00,2025-03-06 14:00,41.72,KVGT 061453Z 21020G30KT 10SM CLR 09/M02 A2953 RMK AO2 PK WND 23032/1400 SLP013 T00941017 58003 $,M
LOL,2025-03-06 14:53,-118.5701,40.0684,1192.43,33.00,31.00,92.25,220.00,6.00,0.00,29.60,1003.60,10.00,M,BKN,OVC,M,M,5500.00,7000.00,M,M,M,M,M,M,M,M,M,26.73,KLOL 061453Z AUTO 22006KT 10SM BKN055 OVC070 01/M01 A2960 RMK AO2 SLP036 T00061006 53001,M
BVU,2025-03-06 14:55,-114.8611,35.9475,671.00,46.40,30.20,53.00,220.00,22.00,0.00,29.60,M,10.00,29.00,CLR,M,M,M,M,M,M,M,M,M,M,M,M,M,M,37.86,KBVU 061455Z AUTO 22022G29KT 10SM CLR 08/M01 A2960 RMK AO2,M
RNO,2025-03-06 14:55,-119.7711,39.4839,1341.00,31.00,27.00,84.92,0.00,0.00,0.00,29.64,1004.00,10.00,M,SCT,BKN,BKN,M,6000.00,10000.00,18000.00,M,M,M,M,M,M,M,M,31.00,KRNO 061455Z 00000KT 10SM SCT060 BKN100 BKN180 M01/M03 A2964 RMK AO2 SLP040 T10061028 53004 $,M
BAM,2025-03-06 14:55,-116.8743,40.5990,1382.36,33.80,33.80,100.00,250.00,5.00,0.00,29.55,M,10.00,M,BKN,OVC,M,M,1400.00,2800.00,M,M,M,M,M,M,M,M,M,28.53,KBAM 061455Z AUTO 25005KT 10SM BKN014 OVC028 01/01 A2955 RMK AO1,M
CXP,2025-03-06 14:55,-119.7326,39.1923,1431.00,32.00,21.20,63.99,0.00,0.00,0.00,29.65,M,10.00,M,CLR,M,M,M,M,M,M,M,M,M,M,M,M,M,M,32.00,KCXP 061455Z AUTO 00000KT 10SM CLR M00/M06 A2965 RMK AO2,M
RTS,2025-03-06 14:55,-119.8764,39.6682,1539.00,28.40,23.00,79.92,290.00,6.00,0.00,29.65,M,M,M,BKN,OVC,M,M,5000.00,6000.00,M,M,M,M,M,M,M,M,M,21.19,KRTS 061455Z AUTO 29006KT BKN050 OVC060 M02/M05 A2965 RMK AO2,M
MEV,2025-03-06 14:55,-119.7500,38.9963,1441.42,26.60,21.20,79.77,110.00,7.00,0.00,29.65,M,10.00,M,CLR,M,M,M,M,M,M,M,M,M,M,M,M,M,M,18.20,KMEV 061455Z AUTO 11007KT 10SM CLR M03/M06 A2965 RMK AO2,M
HTH,2025-03-06 14:55,-118.6315,38.5448,1282.89,32.00,28.40,86.39,210.00,6.00,0.00,29.63,M,10.00,M,CLR,M,M,M,M,M,M,M,M,M,M,M,M,M,M,25.53,KHTH 061455Z AUTO 21006KT 10SM CLR 00/M02 A2963 RMK A01,M
INS,2025-03-06 14:55,-115.6733,36.5872,955.00,42.30,31.00,64.01,310.00,24.00,0.00,29.55,999.30,10.00,31.00,BKN,M,M,M,5500.00,M,M,M,M,M,M,M,34.00,210.00,2025-03-06 14:16,31.95,KINS 061455Z AUTO 31024G31KT 10SM BKN055 06/M01 A2955 RMK AO2 PK WND 21034/16 PRESRR SLP993 T00571006 50019 $,M
LSV,2025-03-06 14:55,-115.0343,36.2362,570.00,49.00,32.70,53.17,210.00,14.00,0.00,29.54,999.70,10.00,M,CLR,M,M,M,M,M,M,M,M,M,M,M,26.00,200.00,2025-03-06 14:21,43.08,KLSV 061455Z AUTO 21014KT 10SM CLR 10/00 A2954 RMK AO2 PK WND 20026/21 SLP997 T00950004 53008 $,M
EKO,2025-03-06 14:56,-115.7860,40.8242,1367.00,33.00,31.00,92.25,240.00,11.00,T,29.46,998.30,10.00,18.00,SCT,OVC,M,M,6000.00,9000.00,M,M,M,M,M,M,M,M,M,23.73,KEKO 061456Z AUTO 24011G18KT 10SM SCT060 OVC090 01/M01 A2946 RMK AO2 SNB09E39 SLP983 P0000 60000 T00061006 58003,M
WMC,2025-03-06 14:56,-117.8072,40.9019,1315.00,M,M,M,M,M,0.00,29.57,M,M,M,M,M,M,M,M,M,M,M,M,M,M,M,M,M,M,M,KWMC 061456Z AUTO A2957 RMK AO2 SLPNO 53003 PWINO FZRANO TSNO $,M
HND,2025-03-06 14:56,-115.1344,35.9729,742.79,46.00,28.00,49.18,210.00,15.00,0.00,29.62,1004.30,10.00,M,CLR,M,M,M,M,M,M,M,M,M,M,M,27.00,210.00,2025-03-06 14:02,38.93,KHND 061456Z 21015KT 10SM CLR 08/M02 A2962 RMK AO2 PK WND 21027/1402 SLP043 T00781022 53014 $,M
TPH,2025-03-06 14:56,-117.0904,38.0505,1654.00,30.00,24.00,78.07,350.00,15.00,0.00,29.56,1000.90,10.00,M,SCT,OVC,M,M,7500.00,12000.00,M,M,M,M,M,M,M,M,M,18.19,KTPH 061456Z AUTO 35015KT 10SM SCT075 OVC120 M01/M04 A2956 RMK AO2 SLP009 60000 T10111044 53003 $,M
LAS,2025-03-06 14:56,-115.1634,36.0719,663.00,48.00,29.00,47.52,200.00,17.00,0.00,29.58,1000.90,10.00,32.00,FEW,FEW,M,M,6000.00,10000.00,M,M,M,M,M,M,32.00,200.00,2025-03-06 14:52,41.04,KLAS 061456Z 20017G32KT 10SM FEW060 FEW100 09/M02 A2958 RMK AO2 PK WND 20032/1452 SLP009 T00891017 50003,M
NFL,2025-03-06 14:57,-118.7010,39.4166,1199.00,34.00,31.00,88.63,240.00,5.00,0.00,29.62,1001.50,10.00,M,FEW,BKN,BKN,BKN,4000.00,6000.00,8000.00,13000.00,M,M,M,M,M,M,M,28.77,KNFL 061457Z 24005KT 10SM FEW040 BKN060 BKN080 BKN130 01/M01 A2962 RMK AO2 SLP015 WR// T00111006 53002,M
10U,2025-03-06 15:00,-116.1876,41.9532,1637.00,30.20,28.40,92.92,360.00,11.00,0.00,29.51,M,1.00,M,OVC,M,M,M,300.00,M,M,M,-SN,M,M,M,M,M,M,20.19,K10U 061500Z AUTO 36011KT 1SM -SN OVC003 M01/M02 A2951 RMK AO2,M
ELY,2025-03-06 15:01,-114.8453,39.2950,1909.00,36.00,33.00,88.73,300.00,8.00,T,29.43,M,2.00,M,FEW,BKN,OVC,M,1500.00,2300.00,3800.00,M,-SN BR,M,M,M,M,M,M,29.04,KELY 061501Z AUTO 30008KT 2SM -SN BR FEW015 BKN023 OVC038 02/01 A2943 RMK AO2 P0000 T00220006,M
MEV,2025-03-06 15:05,-119.7500,38.9963,1441.42,24.80,21.20,85.96,70.00,7.00,0.00,29.65,M,10.00,M,CLR,M,M,M,M,M,M,M,M,M,M,M,M,M,M,16.00,KMEV 061505Z AUTO 07007KT 10SM CLR M04/M06 A2965 RMK AO2,M
RTS,2025-03-06 15:05,-119.8764,39.6682,1539.00,28.40,23.00,79.92,270.00,9.00,0.00,29.65,M,M,M,BKN,OVC,M,M,5000.00,6500.00,M,M,M,M,M,M,M,M,M,19.04,KRTS 061505Z AUTO 27009KT BKN050 OVC065 M02/M05 A2965 RMK AO2,M
ELY,2025-03-06 15:07,-114.8453,39.2950,1909.00,35.00,33.00,92.32,300.00,6.00,T,29.43,M,1.25,M,FEW,BKN,OVC,M,1000.00,2100.00,3800.00,M,-SN BR,M,M,M,M,M,M,29.14,KELY 061507Z AUTO 30006KT 1 1/4SM -SN BR FEW010 BKN021 OVC038 02/01 A2943 RMK AO2 P0000 T00170006,M
CXP,2025-03-06 15:10,-119.7326,39.1923,1431.00,32.00,19.40,59.27,0.00,0.00,0.00,29.66,M,10.00,M,CLR,M,M,M,M,M,M,M,M,M,M,M,M,M,M,32.00,KCXP 061510Z AUTO 00000KT 10SM CLR 00/M07 A2966 RMK AO2,M
TMT,2025-03-06 15:10,-117.1971,39.4643,1749.34,29.00,26.80,91.36,250.00,4.00,0.00,29.57,M,10.00,M,SCT,BKN,OVC,M,2300.00,3100.00,3700.00,M,M,M,M,M,M,M,M,23.92,KTMT 061510Z AUTO 25004KT 10SM SCT023 BKN031 OVC037 M02/M03 A2957 RMK AO2 T10171029,M
ELY,2025-03-06 15:13,-114.8453,39.2950,1909.00,37.00,33.00,85.29,300.00,8.00,T,29.43,M,0.50,M,BKN,BKN,OVC,M,1100.00,1600.00,2800.00,M,-SN FG,M,M,M,M,M,M,30.27,KELY 061513Z AUTO 30008KT 1/2SM -SN FG BKN011 BKN016 OVC028 03/01 A2943 RMK AO2 P0000 T00280006,M
BVU,2025-03-06 15:15,-114.8611,35.9475,671.00,48.20,28.40,46.02,220.00,20.00,0.00,29.60,M,10.00,27.00,CLR,M,M,M,M,M,M,M,M,M,M,M,M,M,M,40.66,KBVU 061515Z AUTO 22020G27KT 10SM CLR 09/M02 A2960 RMK AO2,M
BAM,2025-03-06 15:15,-116.8743,40.5990,1382.36,33.80,32.00,93.03,260.00,6.00,0.00,29.55,M,10.00,M,BKN,OVC,M,M,1400.00,2600.00,M,M,M,M,M,M,M,M,M,27.70,KBAM 061515Z AUTO 26006KT 10SM BKN014 OVC026 01/00 A2955 RMK AO1,M
HTH,2025-03-06 15:15,-118.6315,38.5448,1282.89,33.80,28.40,80.36,220.00,6.00,0.00,29.64,M,10.00,M,CLR,M,M,M,M,M,M,M,M,M,M,M,M,M,M,27.70,KHTH 061515Z AUTO 22006KT 10SM CLR 01/M02 A2964 RMK A01,M
10U,2025-03-06 15:20,-116.1876,41.9532,1637.00,28.40,28.40,100.00,360.00,9.00,0.00,29.51,M,1.25,M,SCT,M,M,M,300.00,M,M,M,-SN,M,M,M,M,M,M,19.04,K10U 061520Z AUTO 36009KT 1 1/4SM -SN SCT003 M02/M02 A2951 RMK AO2,M
ELY,2025-03-06 15:21,-114.8453,39.2950,1909.00,37.00,33.00,85.29,300.00,8.00,0.01,29.42,M,0.75,M,SCT,BKN,OVC,M,900.00,2100.00,3800.00,M,-SN BR,M,M,M,M,M,M,30.27,KELY 061521Z AUTO 30008KT 3/4SM -SN BR SCT009 BKN021 OVC038 03/01 A2942 RMK AO2 P0001 T00280006,M
DRA,2025-03-06 15:23,-116.0278,36.6206,1009.00,40.00,34.00,78.94,310.00,17.00,0.00,29.61,M,10.00,27.00,OVC,M,M,M,4000.00,M,M,M,M,M,M,M,27.00,290.00,2025-03-06 15:23,30.56,KDRA 061523Z AUTO 31017G27KT 10SM OVC040 04/01 A2961 RMK AO2 PK WND 29027/1523 WSHFT 1506 T00440011,M
ELY,2025-03-06 15:27,-114.8453,39.2950,1909.00,36.00,33.00,88.73,280.00,9.00,0.01,29.42,M,0.75,M,SCT,BKN,OVC,M,1100.00,3000.00,3800.00,M,-SN BR,M,M,M,M,M,M,28.49,KELY 061527Z AUTO 28009KT 3/4SM -SN BR SCT011 BKN030 OVC038 02/01 A2942 RMK AO2 P0001 T00220006,M
TMT,2025-03-06 15:30,-117.1971,39.4643,1749.34,29.30,26.80,90.25,240.00,6.00,0.00,29.57,M,10.00,M,BKN,OVC,M,M,2300.00,3000.00,M,M,M,M,M,M,M,M,M,22.28,KTMT 061530Z AUTO 24006KT 10SM BKN023 OVC030 M01/M03 A2957 RMK AO2 T10151029,M
ELY,2025-03-06 15:34,-114.8453,39.2950,1909.00,36.00,33.00,88.73,300.00,7.00,0.01,29.43,M,0.75,M,BKN,BKN,OVC,M,1100.00,3000.00,3800.00,M,-SN BR,M,M,M,M,M,M,29.65,KELY 061534Z AUTO 30007KT 3/4SM -SN BR BKN011 BKN030 OVC038 02/01 A2943 RMK AO2 P0001 T00220006,M
BVU,2025-03-06 15:35,-114.8611,35.9475,671.00,48.20,30.20,49.53,220.00,24.00,0.00,29.60,M,10.00,M,CLR,M,M,M,M,M,M,M,M,M,M,M,M,M,M,39.91,KBVU 061535Z AUTO 22024KT 10SM CLR 09/M01 A2960 RMK AO2,M
EKO,2025-03-06 15:35,-115.7860,40.8242,1367.00,33.00,31.00,92.25,250.00,13.00,0.00,29.47,M,10.00,M,BKN,BKN,OVC,M,1600.00,2700.00,4800.00,M,M,M,M,M,M,M,M,22.85,KEKO 061535Z AUTO 25013KT 10SM BKN016 BKN027 OVC048 01/M01 A2947 RMK AO2 T00061006,M
BAM,2025-03-06 15:35,-116.8743,40.5990,1382.36,33.80,32.00,93.03,260.00,7.00,0.00,29.55,M,10.00,M,OVC,M,M,M,2000.00,M,M,M,M,M,M,M,M,M,M,26.97,KBAM 061535Z AUTO 26007KT 10SM OVC020 01/00 A2955 RMK AO1,M
CXP,2025-03-06 15:35,-119.7326,39.1923,1431.00,33.80,21.20,59.53,0.00,0.00,0.00,29.67,M,10.00,M,CLR,M,M,M,M,M,M,M,M,M,M,M,M,M,M,33.80,KCXP 061535Z AUTO 00000KT 10SM CLR 01/M06 A2967 RMK AO2,M
MEV,2025-03-06 15:35,-119.7500,38.9963,1441.42,28.40,23.00,79.92,70.00,4.00,0.00,29.66,M,10.00,M,SCT,BKN,BKN,M,4600.00,5000.00,12000.00,M,M,M,M,M,M,M,M,23.22,KMEV 061535Z AUTO 07004KT 10SM SCT046 BKN050 BKN120 M02/M05 A2966 RMK AO2,M
HTH,2025-03-06 15:35,-118.6315,38.5448,1282.89,33.80,28.40,80.36,200.00,3.00,0.00,29.64,M,10.00,M,CLR,M,M,M,M,M,M,M,M,M,M,M,M,M,M,30.75,KHTH 061535Z AUTO 20003KT 10SM CLR 01/M02 A2964 RMK A01,M
10U,2025-03-06 15:40,-116.1876,41.9532,1637.00,30.20,28.40,92.92,360.00,9.00,0.00,29.51,M,2.00,M,CLR,M,M,M,M,M,M,M,-SN,M,M,M,M,M,M,21.28,K10U 061540Z AUTO 36009KT 2SM -SN CLR M01/M02 A2951 RMK AO2,M
ELY,2025-03-06 15:45,-114.8453,39.2950,1909.00,37.00,33.00,85.29,290.00,10.00,0.02,29.42,M,0.25,M,BKN,BKN,OVC,M,900.00,2800.00,3800.00,M,+SN FG,M,M,M,M,M,M,29.24,KELY 061545Z AUTO 29010KT 1/4SM +SN FG BKN009 BKN028 OVC038 03/01 A2942 RMK AO2 P0002 T00280006,M
TMT,2025-03-06 15:50,-117.1971,39.4643,1749.34,29.70,26.40,87.33,240.00,7.00,0.00,29.58,M,10.00,M,BKN,OVC,M,M,2600.00,3400.00,M,M,M,M,M,M,M,M,M,21.98,KTMT 061550Z AUTO 24007KT 10SM BKN026 OVC034 M01/M03 A2958 RMK AO2 T10131031,M
P68,2025-03-06 15:53,-116.0056,39.6014,1993.00,30.00,26.00,84.85,280.00,10.00,0.00,29.49,997.50,M,15.00,M,M,M,M,M,M,M,M,M,M,M,M,M,M,M,20.46,KP68 061553Z AUTO 28010G15KT M01/M03 A2949 RMK AO1 SLP975 T10111033 $,M
DRA,2025-03-06 15:53,-116.0278,36.6206,1009.00,39.00,34.00,82.08,270.00,16.00,0.01,29.62,1001.60,10.00,24.00,OVC,M,M,M,3500.00,M,M,M,-RA,M,M,M,27.00,290.00,2025-03-06 15:23,29.54,KDRA 061553Z AUTO 27016G24KT 10SM -RA OVC035 04/01 A2962 RMK AO2 PK WND 29027/1523 WSHFT 1506 RAB31 SLP016 P0001 T00390011,M
ELY,2025-03-06 15:53,-114.8453,39.2950,1909.00,36.00,33.00,88.73,290.00,10.00,0.02,29.43,992.90,0.25,M,BKN,OVC,M,M,900.00,2900.00,M,M,SN FG,M,M,M,M,M,M,27.98,KELY 061553Z AUTO 29010KT 1/4SM SN FG BKN009 OVC029 02/01 A2943 RMK AO2 SLP929 P0002 T00220006,M
VGT,2025-03-06 15:53,-115.1933,36.2111,667.00,51.00,28.00,40.78,220.00,18.00,0.00,29.55,1002.00,10.00,25.00,CLR,M,M,M,M,M,M,M,M,M,M,M,31.00,200.00,2025-03-06 15:06,51.00,KVGT 061553Z 22018G25KT 10SM CLR 11/M02 A2955 RMK AO2 PK WND 20031/1506 SLP020 T01061022 $,M
LOL,2025-03-06 15:53,-118.5701,40.0684,1192.43,35.00,32.00,88.68,230.00,8.00,0.00,29.61,1003.60,10.00,M,OVC,M,M,M,3900.00,M,M,M,M,M,M,M,M,M,M,27.81,KLOL 061553Z AUTO 23008KT 10SM OVC039 02/00 A2961 RMK AO2 SLP036 T00170000,M
BVU,2025-03-06 15:55,-114.8611,35.9475,671.00,50.00,28.40,43.03,210.00,25.00,0.00,29.60,M,10.00,30.00,CLR,M,M,M,M,M,M,M,M,M,M,M,M,M,M,50.00,KBVU 061555Z AUTO 21025G30KT 10SM CLR 10/M02 A2960 RMK AO2,M
INS,2025-03-06 15:55,-115.6733,36.5872,955.00,40.60,34.00,77.12,300.00,19.00,0.00,29.61,1001.40,10.00,29.00,SCT,OVC,M,M,4200.00,5000.00,M,M,M,M,M,M,31.00,340.00,2025-03-06 15:10,30.81,KINS 061555Z AUTO 30019G29KT 10SM SCT042 OVC050 05/01 A2961 RMK AO2 PK WND 34031/10 SLP014 T00480011 $,M
RNO,2025-03-06 15:55,-119.7711,39.4839,1341.00,32.00,28.00,84.98,180.00,3.00,0.00,29.66,1004.50,10.00,M,BKN,BKN,M,M,7500.00,12000.00,M,M,M,M,M,M,M,M,M,28.69,KRNO 061555Z 18003KT 10SM BKN075 BKN120 00/M02 A2966 RMK AO2 SLP045 T00001022,M
BAM,2025-03-06 15:55,-116.8743,40.5990,1382.36,33.80,32.00,93.03,250.00,7.00,0.00,29.55,M,10.00,M,OVC,M,M,M,1800.00,M,M,M,M,M,M,M,M,M,M,26.97,KBAM 061555Z AUTO 25007KT 10SM OVC018 01/00 A2955 RMK AO1,M
CXP,2025-03-06 15:55,-119.7326,39.1923,1431.00,33.80,21.20,59.53,0.00,0.00,0.00,29.67,M,10.00,M,FEW,SCT,M,M,5000.00,5500.00,M,M,M,M,M,M,M,M,M,33.80,KCXP 061555Z AUTO 00000KT 10SM FEW050 SCT055 01/M06 A2967 RMK AO2,M
MEV,2025-03-06 15:55,-119.7500,38.9963,1441.42,28.40,21.20,74.08,0.00,0.00,0.00,29.67,M,10.00,M,SCT,SCT,M,M,4200.00,4900.00,M,M,M,M,M,M,M,M,M,28.40,KMEV 061555Z AUTO 00000KT 10SM SCT042 SCT049 M02/M06 A2967 RMK AO2,M
HTH,2025-03-06 15:55,-118.6315,38.5448,1282.89,35.60,28.40,74.80,210.00,4.00,0.00,29.65,M,10.00,M,CLR,M,M,M,M,M,M,M,M,M,M,M,M,M,M,31.62,KHTH 061555Z AUTO 21004KT 10SM CLR 02/M02 A2965 RMK A01,M
LSV,2025-03-06 15:55,-115.0343,36.2362,570.00,51.00,31.00,46.09,200.00,16.00,0.00,29.54,999.70,10.00,26.00,CLR,M,M,M,M,M,M,M,M,M,M,M,27.00,210.00,2025-03-06 15:35,51.00,KLSV 061555Z AUTO 20016G26KT 10SM CLR 11/M01 A2954 RMK AO2 PK WND 21027/35 SLP997 T01051006 $,M
EKO,2025-03-06 15:56,-115.7860,40.8242,1367.00,34.00,31.00,88.63,260.00,8.00,0.00,29.47,998.40,10.00,M,FEW,BKN,OVC,M,1600.00,2900.00,3600.00,M,M,M,M,M,M,M,M,26.58,KEKO 061556Z AUTO 26008KT 10SM FEW016 BKN029 OVC036 01/M01 A2947 RMK AO2 SLP984 T00111006,M
WMC,2025-03-06 15:56,-117.8072,40.9019,1315.00,M,M,M,M,M,0.00,29.58,M,M,M,M,M,M,M,M,M,M,M,M,M,M,M,M,M,M,M,KWMC 061556Z AUTO A2958 RMK AO2 SLPNO PWINO FZRANO TSNO $,M
HND,2025-03-06 15:56,-115.1344,35.9729,742.79,47.00,29.00,49.34,220.00,26.00,0.00,29.57,1002.60,10.00,39.00,CLR,M,M,M,M,M,M,M,M,M,M,M,39.00,220.00,2025-03-06 15:49,37.95,KHND 061556Z 22026G39KT 10SM CLR 08/M02 A2957 RMK AO2 PK WND 22039/1549 SLP026 T00831017 $,M
TPH,2025-03-06 15:56,-117.0904,38.0505,1654.00,30.00,23.00,74.87,M,M,0.00,29.57,1001.50,10.00,M,FEW,M,M,M,11000.00,M,M,M,M,M,M,M,27.00,310.00,2025-03-06 15:30,M,KTPH 061556Z AUTO 10SM FEW110 M01/M05 A2957 RMK AO2 PK WND 31027/1530 SLP015 T10111050 $,M
LAS,2025-03-06 15:56,-115.1634,36.0719,663.00,51.00,25.00,36.03,260.00,15.00,0.00,29.62,1002.40,10.00,25.00,FEW,FEW,M,M,5500.00,10000.00,M,M,M,M,M,M,35.00,190.00,2025-03-06 15:06,51.00,KLAS 061556Z 26015G25KT 10SM FEW055 FEW100 11/M04 A2962 RMK AO2 PK WND 19035/1506 SLP024 T01061039,M
INS,2025-03-06 15:57,-115.6733,36.5872,955.00,41.00,33.80,75.33,300.00,21.00,0.00,29.60,1001.10,10.00,25.00,SCT,OVC,M,M,4200.00,5000.00,M,M,-DZ,M,M,M,M,M,M,30.86,KINS 061557Z AUTO 30021G25KT 10SM -DZ SCT042 OVC050 05/01 A2960 RMK AO2 DZB57 SLP011 $,M
NFL,2025-03-06 15:57,-118.7010,39.4166,1199.00,35.00,30.00,81.78,250.00,6.00,0.00,29.64,1002.00,10.00,M,SCT,SCT,BKN,BKN,2500.00,6000.00,9000.00,14000.00,M,M,M,M,M,M,M,29.14,KNFL 061557Z 25006KT 10SM SCT025 SCT060 BKN090 BKN140 02/M01 A2964 RMK AO2 SLP020 WR// T00171011,M
10U,2025-03-06 16:00,-116.1876,41.9532,1637.00,30.20,28.40,92.92,340.00,8.00,0.00,29.51,M,1.50,M,SCT,SCT,M,M,700.00,3000.00,M,M,-SN,M,M,M,M,M,M,21.90,K10U 061600Z AUTO 34008KT 1 1/2SM -SN SCT007 SCT030 M01/M02 A2951 RMK AO2,M
DRA,2025-03-06 16:01,-116.0278,36.6206,1009.00,40.00,33.00,75.84,230.00,14.00,T,29.62,M,9.00,24.00,BKN,OVC,M,M,2800.00,3700.00,M,M,-RA,M,M,M,M,M,M,31.47,KDRA 061601Z AUTO 23014G24KT 9SM -RA BKN028 OVC037 04/01 A2962 RMK AO2 WSHFT 1547 P0000 T00440006,M
MEV,2025-03-06 16:05,-119.7500,38.9963,1441.42,28.40,23.00,79.92,100.00,5.00,0.00,29.67,M,10.00,M,SCT,SCT,SCT,M,3600.00,4200.00,5000.00,M,M,M,M,M,M,M,M,22.12,KMEV 061605Z AUTO 10005KT 10SM SCT036 SCT042 SCT050 M02/M05 A2967 RMK AO2,M
EKO,2025-03-06 16:09,-115.7860,40.8242,1367.00,34.00,31.00,88.63,260.00,6.00,0.00,29.47,M,10.00,M,BKN,OVC,M,M,3400.00,11000.00,M,M,M,M,M,M,M,M,M,27.94,KEKO 061609Z AUTO 26006KT 10SM BKN034 OVC110 01/M01 A2947 RMK AO2 T00111006,M
CXP,2025-03-06 16:10,-119.7326,39.1923,1431.00,33.80,21.20,59.53,160.00,4.00,0.00,29.67,M,10.00,M,FEW,FEW,M,M,4700.00,5500.00,M,M,M,M,M,M,M,M,M,29.52,KCXP 061610Z AUTO 16004KT 10SM FEW047 FEW055 01/M06 A2967 RMK AO2,M
TMT,2025-03-06 16:10,-117.1971,39.4643,1749.34,29.30,26.00,87.31,230.00,9.00,0.00,29.58,M,10.00,M,BKN,OVC,M,M,2600.00,3500.00,M,M,M,M,M,M,M,M,M,20.16,KTMT 061610Z AUTO 23009KT 10SM BKN026 OVC035 M01/M03 A2958 RMK AO2 T10151033,M
VGT,2025-03-06 16:14,-115.1933,36.2111,667.00,53.00,29.00,39.47,300.00,18.00,0.00,29.57,M,10.00,28.00,CLR,M,M,M,M,M,M,M,M,M,M,M,28.00,300.00,2025-03-06 16:11,53.00,KVGT 061614Z 30018G28KT 10SM CLR 12/M02 A2957 RMK AO2 PK WND 30028/1611 WSHFT 1554 T01171017 $,M
BVU,2025-03-06 16:15,-114.8611,35.9475,671.00,50.00,30.20,46.31,220.00,18.00,0.00,29.62,M,10.00,30.00,CLR,M,M,M,M,M,M,M,M,M,M,M,M,M,M,50.00,KBVU 061615Z AUTO 22018G30KT 10SM CLR 10/M01 A2962 RMK AO2,M
BAM,2025-03-06 16:15,-116.8743,40.5990,1382.36,33.80,32.00,93.03,250.00,6.00,0.00,29.56,M,10.00,M,OVC,M,M,M,1600.00,M,M,M,M,M,M,M,M,M,M,27.70,KBAM 061615Z AUTO 25006KT 10SM OVC016 01/00 A2956 RMK AO1,M
HTH,2025-03-06 16:15,-118.6315,38.5448,1282.89,37.40,26.60,64.70,0.00,0.00,0.00,29.65,M,10.00,M,CLR,M,M,M,M,M,M,M,M,M,M,M,M,M,M,37.40,KHTH 061615Z AUTO 00000KT 10SM CLR 03/M03 A2965 RMK A01,M
ELY,2025-03-06 16:17,-114.8453,39.2950,1909.00,39.00,33.00,78.86,310.00,5.00,0.03,29.43,M,0.50,M,VV ,M,M,M,900.00,M,M,M,SN,M,M,M,M,M,M,34.71,KELY 061617Z AUTO 31005KT 1/2SM SN VV009 04/01 A2943 RMK AO2 P0003 T00390006,M
10U,2025-03-06 16:20,-116.1876,41.9532,1637.00,30.20,28.40,92.92,350.00,8.00,0.00,29.51,M,0.75,M,SCT,SCT,M,M,500.00,900.00,M,M,-SN,M,M,M,M,M,M,21.90,K10U 061620Z AUTO 35008KT 3/4SM -SN SCT005 SCT009 M01/M02 A2951 RMK AO2,M
RTS,2025-03-06 16:25,-119.8764,39.6682,1539.00,30.20,24.80,80.07,290.00,10.00,0.00,29.67,M,M,M,M,M,M,M,M,M,M,M,M,M,M,M,M,M,M,20.71,KRTS 061625Z AUTO 29010KT M01/M04 A2967 RMK AO2 PWINO,M
MEV,2025-03-06 16:25,-119.7500,38.9963,1441.42,32.00,23.00,69.04,0.00,0.00,0.00,29.67,M,10.00,M,FEW,FEW,M,M,3700.00,4300.00,M,M,M,M,M,M,M,M,M,32.00,KMEV 061625Z AUTO 00000KT 10SM FEW037 FEW043 M00/M05 A2967 RMK AO2,M
LOL,2025-03-06 16:26,-118.5701,40.0684,1192.43,36.00,32.00,85.23,250.00,7.00,T,29.62,M,10.00,M,BKN,OVC,M,M,2600.00,3400.00,M,M,UP,M,M,M,M,M,M,29.65,KLOL 061626Z AUTO 25007KT 10SM UP BKN026 OVC034 02/00 A2962 RMK AO2 RAB18E19UPB19 P0000 T00220000,M
TMT,2025-03-06 16:30,-117.1971,39.4643,1749.34,30.00,25.30,82.42,230.00,9.00,0.00,29.58,M,10.00,M,OVC,M,M,M,3000.00,M,M,M,M,M,M,M,M,M,M,21.03,KTMT 061630Z AUTO 23009KT 10SM OVC030 M01/M04 A2958 RMK AO2 T10121037,M
CXP,2025-03-06 16:30,-119.7326,39.1923,1431.00,35.60,21.20,55.41,0.00,0.00,0.00,29.68,M,10.00,M,CLR,M,M,M,M,M,M,M,M,M,M,M,M,M,M,35.60,KCXP 061630Z AUTO 00000KT 10SM CLR 02/M06 A2968 RMK AO2,M
LSV,2025-03-06 16:33,-115.0343,36.2362,570.00,53.60,30.20,40.54,240.00,18.00,0.00,29.54,999.50,10.00,30.00,CLR,M,M,M,M,M,M,M,M,M,M,M,M,M,M,53.60,KLSV 061633Z AUTO 24018G30KT 10SM CLR 12/M01 A2954 RMK AO2 WSHFT 19 SLP995 $,M
BVU,2025-03-06 16:35,-114.8611,35.9475,671.00,50.00,28.40,43.03,230.00,21.00,0.00,29.63,M,10.00,M,CLR,M,M,M,M,M,M,M,M,M,M,M,M,M,M,50.00,KBVU 061635Z AUTO 23021KT 10SM CLR 10/M02 A2963 RMK AO2,M
BAM,2025-03-06 16:35,-116.8743,40.5990,1382.36,35.60,32.00,86.59,290.00,3.00,0.00,29.56,M,5.00,M,BKN,OVC,M,M,1000.00,1400.00,M,M,M,M,M,M,M,M,M,32.80,KBAM 061635Z AUTO 29003KT 5SM BKN010 OVC014 02/00 A2956 RMK AO1,M
HTH,2025-03-06 16:35,-118.6315,38.5448,1282.89,37.40,21.20,51.61,0.00,0.00,0.00,29.65,M,10.00,M,CLR,M,M,M,M,M,M,M,M,M,M,M,M,M,M,37.40,KHTH 061635Z AUTO 00000KT 10SM CLR 03/M06 A2965 RMK A01,M
LSV,2025-03-06 16:36,-115.0343,36.2362,570.00,55.40,28.40,35.28,290.00,16.00,0.00,29.54,999.50,10.00,30.00,CLR,M,M,M,M,M,M,M,M,M,M,M,M,M,M,55.40,KLSV 061636Z AUTO 29016G30KT 10SM CLR 13/M02 A2954 RMK AO2 WSHFT 33 SLP995 $,M
10U,2025-03-06 16:40,-116.1876,41.9532,1637.00,30.20,28.40,92.92,350.00,11.00,0.00,29.51,M,1.75,M,VV ,M,M,M,700.00,M,M,M,-SN,M,M,M,M,M,M,20.19,K10U 061640Z AUTO 35011KT 1 3/4SM -SN VV007 M01/M02 A2951 RMK AO2,M
INS,2025-03-06 16:42,-115.6733,36.5872,955.00,41.00,33.80,75.33,280.00,11.00,0.00,29.63,1002.10,10.00,M,BKN,BKN,OVC,M,1100.00,3500.00,4600.00,M,-RA,M,M,M,M,M,M,33.84,KINS 061642Z AUTO 28011KT 10SM -RA BKN011 BKN035 OVC046 05/01 A2963 RMK AO2 DZE1555DZB1557E08RAB08E19DZB19E25RAB25 CIG 011V046 BKN011 V SCT SLP021 $,M
TMT,2025-03-06 16:50,-117.1971,39.4643,1749.34,30.00,25.30,82.42,220.00,8.00,0.00,29.58,M,10.00,M,OVC,M,M,M,3000.00,M,M,M,M,M,M,M,M,M,M,21.65,KTMT 061650Z AUTO 22008KT 10SM OVC030 M01/M04 A2958 RMK AO2 T10121037,M
ELY,2025-03-06 16:51,-114.8453,39.2950,1909.00,35.60,33.80,93.08,360.00,5.00,0.06,29.43,M,0.50,M,VV ,M,M,M,1000.00,M,M,M,SN FG,M,M,M,M,M,M,30.67,KELY 061651Z AUTO 36005KT 1/2SM SN FG VV010 02/01 A2943 RMK AO2 RAB36E41 P0006,M
P68,2025-03-06 16:53,-116.0056,39.6014,1993.00,31.00,28.00,88.48,280.00,12.00,0.00,29.49,997.80,M,18.00,M,M,M,M,M,M,M,M,M,M,M,M,M,M,M,20.73,KP68 061653Z AUTO 28012G18KT M01/M02 A2949 RMK AO1 SLP978 T10061022,M
DRA,2025-03-06 16:53,-116.0278,36.6206,1009.00,38.00,33.00,82.00,210.00,12.00,0.02,29.65,1002.70,6.00,M,OVC,M,M,M,1700.00,M,M,M,-RA,M,M,M,M,M,M,29.64,KDRA 061653Z AUTO 21012KT 6SM -RA OVC017 03/01 A2965 RMK AO2 WSHFT 1547 RAE17B24 SLP027 P0002 T00330006,M
ELY,2025-03-06 16:53,-114.8453,39.2950,1909.00,36.00,34.00,92.35,40.00,6.00,0.06,29.43,993.00,0.50,M,FEW,OVC,M,M,700.00,1100.00,M,M,SN FG,M,M,M,M,M,M,30.35,KELY 061653Z AUTO 04006KT 1/2SM SN FG FEW007 OVC011 02/01 A2943 RMK AO2 RAB36E41 SLP930 P0006 T00220011,M
VGT,2025-03-06 16:53,-115.1933,36.2111,667.00,51.00,34.00,52.00,300.00,15.00,0.00,29.61,1003.90,10.00,28.00,CLR,M,M,M,M,M,M,M,M,M,M,M,32.00,280.00,2025-03-06 16:25,51.00,KVGT 061653Z 30015G28KT 10SM CLR 11/01 A2961 RMK AO2 PK WND 28032/1625 WSHFT 1554 SLP039 T01060011,M
LOL,2025-03-06 16:53,-118.5701,40.0684,1192.43,35.00,32.00,88.68,250.00,4.00,T,29.62,1004.10,5.00,M,BKN,OVC,M,M,1800.00,3100.00,M,M,-SN BR,M,M,M,M,M,M,30.92,KLOL 061653Z AUTO 25004KT 5SM -SN BR BKN018 OVC031 02/00 A2962 RMK AO2 RAB18E19B29E31UPB19E29SNB31 SLP041 P0000 T00170000,M
BVU,2025-03-06 16:55,-114.8611,35.9475,671.00,51.80,28.40,40.25,240.00,17.00,0.00,29.63,M,10.00,26.00,CLR,M,M,M,M,M,M,M,M,M,M,M,M,M,M,51.80,KBVU 061655Z AUTO 24017G26KT 10SM CLR 11/M02 A2963 RMK AO2,M
RNO,2025-03-06 16:55,-119.7711,39.4839,1341.00,37.00,23.00,56.57,330.00,14.00,0.00,29.67,1004.40,10.00,M,BKN,BKN,M,M,7000.00,12000.00,M,M,M,M,M,M,M,M,M,27.61,KRNO 061655Z 33014KT 10SM BKN070 BKN120 03/M05 A2967 RMK AO2 SLP044 SH DSNT N T00281050,M
BAM,2025-03-06 16:55,-116.8743,40.5990,1382.36,33.80,33.80,100.00,300.00,8.00,0.00,29.56,M,5.00,M,BKN,BKN,OVC,M,1000.00,1500.00,2600.00,M,M,M,M,M,M,M,M,26.33,KBAM 061655Z AUTO 30008KT 5SM BKN010 BKN015 OVC026 01/01 A2956 RMK AO1,M
CXP,2025-03-06 16:55,-119.7326,39.1923,1431.00,37.40,21.20,51.61,M,4.00,0.00,29.68,M,10.00,M,SCT,BKN,M,M,5500.00,6500.00,M,M,M,M,M,M,M,M,M,33.73,KCXP 061655Z AUTO VRB04KT 10SM SCT055 BKN065 03/M06 A2968 RMK AO2,M
RTS,2025-03-06 16:55,-119.8764,39.6682,1539.00,32.00,24.80,74.44,300.00,12.00,0.00,29.68,M,M,M,SCT,M,M,M,4700.00,M,M,M,M,M,M,M,M,M,M,22.00,KRTS 061655Z AUTO 30012KT SCT047 00/M04 A2968 RMK AO2,M
MEV,2025-03-06 16:55,-119.7500,38.9963,1441.42,35.60,21.20,55.41,110.00,5.00,0.00,29.67,M,10.00,M,CLR,M,M,M,M,M,M,M,M,M,M,M,M,M,M,30.67,KMEV 061655Z AUTO 11005KT 10SM CLR 02/M06 A2967 RMK AO2,M
HTH,2025-03-06 16:55,-118.6315,38.5448,1282.89,39.20,19.40,44.55,0.00,0.00,0.00,29.66,M,10.00,M,CLR,M,M,M,M,M,M,M,M,M,M,M,M,M,M,39.20,KHTH 061655Z AUTO 00000KT 10SM CLR 04/M07 A2966 RMK A01,M
INS,2025-03-06 16:55,-115.6733,36.5872,955.00,42.30,33.00,69.39,240.00,13.00,T,29.62,1001.50,10.00,M,BKN,OVC,M,M,1100.00,3500.00,M,M,-RA,M,M,M,M,M,M,34.76,KINS 061655Z AUTO 24013KT 10SM -RA BKN011 OVC035 06/01 A2962 RMK AO2 RAE1555DZB1557E08RAB08E19DZB19E25RAB25 SLP015 P0000 T00570005 $,M
LSV,2025-03-06 16:55,-115.0343,36.2362,570.00,54.70,31.00,40.23,300.00,18.00,0.00,29.57,1000.60,10.00,26.00,BKN,M,M,M,10000.00,M,M,M,M,M,M,M,30.00,200.00,2025-03-06 16:29,54.70,KLSV 061655Z 30018G26KT 10SM BKN100 13/M01 A2957 RMK AO2A PK WND 20030/29 PRESRR SLP006 T01261006 $,M
EKO,2025-03-06 16:56,-115.7860,40.8242,1367.00,34.00,31.00,88.63,240.00,9.00,0.00,29.47,998.30,10.00,M,OVC,M,M,M,9000.00,M,M,M,M,M,M,M,M,M,M,26.00,KEKO 061656Z AUTO 24009KT 10SM OVC090 01/M01 A2947 RMK AO2 SLP983 T00111006,M
WMC,2025-03-06 16:56,-117.8072,40.9019,1315.00,M,M,M,M,M,0.00,29.59,M,M,M,M,M,M,M,M,M,M,M,M,M,M,M,M,M,M,M,KWMC 061656Z AUTO A2959 RMK AO2 SLPNO PWINO FZRANO TSNO,M
HND,2025-03-06 16:56,-115.1344,35.9729,742.79,49.00,29.00,45.77,220.00,24.00,0.00,29.63,1004.50,10.00,28.00,CLR,M,M,M,M,M,M,M,M,M,M,M,38.00,220.00,2025-03-06 15:57,40.99,KHND 061656Z 22024G28KT 10SM CLR 09/M02 A2963 RMK AO2 PK WND 22038/1557 SLP045 T00941017 $,M
TPH,2025-03-06 16:56,-117.0904,38.0505,1654.00,32.00,24.00,72.00,M,M,0.00,29.59,1002.30,10.00,M,BKN,M,M,M,9000.00,M,M,M,M,M,M,M,M,M,M,M,KTPH 061656Z AUTO 10SM BKN090 00/M04 A2959 RMK AO2 SLP023 T00001044,M
LAS,2025-03-06 16:56,-115.1634,36.0719,663.00,53.00,24.00,32.10,230.00,8.00,0.00,29.62,1002.30,10.00,15.00,FEW,FEW,M,M,5500.00,10000.00,M,M,M,M,M,M,29.00,220.00,2025-03-06 16:23,53.00,KLAS 061656Z 23008G15KT 10SM FEW055 FEW100 12/M04 A2962 RMK AO2 PK WND 22029/1623 SLP023 T01171044,M
NFL,2025-03-06 16:57,-118.7010,39.4166,1199.00,38.00,28.00,66.94,270.00,12.00,0.00,29.65,1002.20,10.00,M,SCT,BKN,BKN,M,3000.00,6000.00,9000.00,M,M,M,M,M,M,M,M,29.64,KNFL 061657Z 27012KT 10SM SCT030 BKN060 BKN090 03/M02 A2965 RMK AO2 SLP022 T00331022,M
INS,2025-03-06 17:00,-115.6733,36.5872,955.00,42.80,32.00,65.38,230.00,14.00,0.00,29.62,1001.50,10.00,M,SCT,BKN,BKN,OVC,1100.00,3500.00,5000.00,7000.00,-DZ,M,M,M,M,M,M,35.08,KINS 061700Z AUTO 23014KT 10SM -DZ SCT011 BKN035 BKN050 OVC070 06/00 A2962 RMK AO2 RAE1659DZB1659 SLP015 $,M
10U,2025-03-06 17:00,-116.1876,41.9532,1637.00,30.20,28.40,92.92,340.00,8.00,0.00,29.52,M,1.25,M,BKN,M,M,M,500.00,M,M,M,-SN,M,M,M,M,M,M,21.90,K10U 061700Z AUTO 34008KT 1 1/4SM -SN BKN005 M01/M02 A2952 RMK AO2,M
INS,2025-03-06 17:04,-115.6733,36.5872,955.00,42.80,32.00,65.38,230.00,17.00,0.00,29.62,1001.50,10.00,22.00,SCT,SCT,OVC,M,1100.00,3600.00,7000.00,M,M,M,M,M,M,M,M,34.22,KINS 061704Z AUTO 23017G22KT 10SM SCT011 SCT036 OVC070 06/00 A2962 RMK AO2 DZE1655RAB1655E1659DZB1659E04 SLP015 $,M
TMT,2025-03-06 17:10,-117.1971,39.4643,1749.34,30.00,24.80,80.73,230.00,12.00,0.00,29.59,M,10.00,M,OVC,M,M,M,3000.00,M,M,M,M,M,M,M,M,M,M,19.46,KTMT 061710Z AUTO 23012KT 10SM OVC030 M01/M04 A2959 RMK AO2 T10111040,M
INS,2025-03-06 17:14,-115.6733,36.5872,955.00,44.60,32.00,61.03,230.00,21.00,0.00,29.63,1001.90,10.00,M,FEW,SCT,SCT,OVC,1100.00,4100.00,5000.00,7000.00,-DZ,M,M,M,M,M,M,35.66,KINS 061714Z AUTO 23021KT 10SM -DZ FEW011 SCT041 SCT050 OVC070 07/00 A2963 RMK AO2 RAB1655E1659DZB1659E04DZB14 SLP019 $,M
BVU,2025-03-06 17:15,-114.8611,35.9475,671.00,51.80,28.40,40.25,250.00,20.00,0.00,29.63,M,10.00,M,CLR,M,M,M,M,M,M,M,M,M,M,M,M,M,M,51.80,KBVU 061715Z AUTO 25020KT 10SM CLR 11/M02 A2963 RMK AO2,M
BAM,2025-03-06 17:15,-116.8743,40.5990,1382.36,35.60,32.00,86.59,310.00,10.00,0.00,29.56,M,7.00,M,SCT,BKN,OVC,M,1400.00,2000.00,2600.00,M,M,M,M,M,M,M,M,27.48,KBAM 061715Z AUTO 31010KT 7SM SCT014 BKN020 OVC026 02/00 A2956 RMK AO1,M
CXP,2025-03-06 17:15,-119.7326,39.1923,1431.00,37.40,19.40,47.80,0.00,0.00,0.00,29.69,M,10.00,M,BKN,M,M,M,5000.00,M,M,M,M,M,M,M,M,M,M,37.40,KCXP 061715Z AUTO 00000KT 10SM BKN050 03/M07 A2969 RMK AO2,M
RTS,2025-03-06 17:15,-119.8764,39.6682,1539.00,32.00,24.80,74.44,300.00,13.00,0.00,29.68,M,M,M,SCT,M,M,M,4800.00,M,M,M,M,M,M,M,M,M,M,21.57,KRTS 061715Z AUTO 30013KT SCT048 00/M04 A2968 RMK AO2,M
MEV,2025-03-06 17:15,-119.7500,38.9963,1441.42,35.60,21.20,55.41,100.00,5.00,0.00,29.68,M,10.00,M,CLR,M,M,M,M,M,M,M,M,M,M,M,M,M,M,30.67,KMEV 061715Z AUTO 10005KT 10SM CLR 02/M06 A2968 RMK AO2,M
HTH,2025-03-06 17:15,-118.6315,38.5448,1282.89,39.20,19.40,44.55,0.00,0.00,0.00,29.66,M,10.00,M,FEW,M,M,M,8000.00,M,M,M,M,M,M,M,M,M,M,39.20,KHTH 061715Z AUTO 00000KT 10SM FEW080 04/M07 A2966 RMK A01,M
10U,2025-03-06 17:20,-116.1876,41.9532,1637.00,30.20,28.40,92.92,340.00,11.00,0.00,29.52,M,1.50,M,BKN,M,M,M,600.00,M,M,M,-SN,M,M,M,M,M,M,20.19,K10U 061720Z AUTO 34011KT 1 1/2SM -SN BKN006 M01/M02 A2952 RMK AO2,M
LOL,2025-03-06 17:24,-118.5701,40.0684,1192.43,37.00,32.00,81.93,230.00,7.00,0.01,29.62,M,10.00,M,FEW,SCT,OVC,M,3000.00,3700.00,5000.00,M,M,M,M,M,M,M,M,30.87,KLOL 061724Z AUTO 23007KT 10SM FEW030 SCT037 OVC050 03/00 A2962 RMK AO2 RAB06E24SNE06 P0001 T00280000,M
ELY,2025-03-06 17:30,-114.8453,39.2950,1909.00,39.00,34.00,82.08,M,3.00,0.02,29.43,M,1.25,M,FEW,OVC,M,M,800.00,1500.00,M,M,-SN,M,M,M,M,M,M,36.69,KELY 061730Z AUTO VRB03KT 1 1/4SM -SN FEW008 OVC015 04/01 A2943 RMK AO2 RAB18E22 P0002 T00390011,M
CXP,2025-03-06 17:30,-119.7326,39.1923,1431.00,37.40,19.40,47.80,0.00,0.00,0.00,29.69,M,10.00,M,SCT,SCT,M,M,5000.00,5500.00,M,M,M,M,M,M,M,M,M,37.40,KCXP 061730Z AUTO 00000KT 10SM SCT050 SCT055 03/M07 A2969 RMK AO2,M
TMT,2025-03-06 17:30,-117.1971,39.4643,1749.34,30.60,25.00,79.44,230.00,11.00,0.00,29.59,M,10.00,M,OVC,M,M,M,3000.00,M,M,M,M,M,M,M,M,M,M,20.70,KTMT 061730Z AUTO 23011KT 10SM OVC030 M01/M04 A2959 RMK AO2 T10081039,M
ELY,2025-03-06 17:34,-114.8453,39.2950,1909.00,40.00,34.00,78.94,M,4.00,0.02,29.43,M,2.00,M,FEW,BKN,OVC,M,800.00,1500.00,2600.00,M,-RA,M,M,M,M,M,M,36.76,KELY 061734Z AUTO VRB04KT 2SM -RA FEW008 BKN015 OVC026 04/01 A2943 RMK AO2 VIS 1 1/4V4 RAB18E22B33SNE33 P0002 T00440011,M
BVU,2025-03-06 17:35,-114.8611,35.9475,671.00,51.80,26.60,37.38,240.00,23.00,0.00,29.63,M,10.00,32.00,CLR,M,M,M,M,M,M,M,M,M,M,M,M,M,M,51.80,KBVU 061735Z AUTO 24023G32KT 10SM CLR 11/M03 A2963 RMK AO2,M
BAM,2025-03-06 17:35,-116.8743,40.5990,1382.36,33.80,33.80,100.00,320.00,11.00,0.00,29.57,M,4.00,M,BKN,OVC,M,M,2200.00,3000.00,M,M,M,M,M,M,M,M,M,24.74,KBAM 061735Z AUTO 32011KT 4SM BKN022 OVC030 01/01 A2957 RMK AO1,M
RTS,2025-03-06 17:35,-119.8764,39.6682,1539.00,33.80,26.60,74.63,290.00,16.00,0.00,29.68,M,M,M,FEW,M,M,M,5000.00,M,M,M,M,M,M,M,M,M,M,22.76,KRTS 061735Z AUTO 29016KT FEW050 01/M03 A2968 RMK AO2,M
MEV,2025-03-06 17:35,-119.7500,38.9963,1441.42,35.60,19.40,51.33,0.00,0.00,0.00,29.68,M,10.00,M,FEW,M,M,M,7500.00,M,M,M,M,M,M,M,M,M,M,35.60,KMEV 061735Z AUTO 00000KT 10SM FEW075 02/M07 A2968 RMK AO2,M
HTH,2025-03-06 17:35,-118.6315,38.5448,1282.89,39.20,19.40,44.55,0.00,0.00,0.00,29.66,M,10.00,M,SCT,M,M,M,8000.00,M,M,M,M,M,M,M,M,M,M,39.20,KHTH 061735Z AUTO 00000KT 10SM SCT080 04/M07 A2966 RMK A01,M
DRA,2025-03-06 17:37,-116.0278,36.6206,1009.00,38.00,34.00,85.35,220.00,11.00,0.04,29.67,M,8.00,23.00,OVC,M,M,M,1400.00,M,M,M,-RA,M,M,M,M,M,M,30.05,KDRA 061737Z AUTO 22011G23KT 8SM -RA OVC014 03/01 A2967 RMK AO2 P0004 T00330011,M
10U,2025-03-06 17:40,-116.1876,41.9532,1637.00,30.20,28.40,92.92,350.00,12.00,0.00,29.52,M,0.75,M,SCT,SCT,M,M,600.00,1300.00,M,M,-SN,M,M,M,M,M,M,19.71,K10U 061740Z AUTO 35012KT 3/4SM -SN SCT006 SCT013 M01/M02 A2952 RMK AO2,M
DRA,2025-03-06 17:43,-116.0278,36.6206,1009.00,39.00,35.00,85.42,230.00,16.00,0.04,29.66,M,10.00,23.00,FEW,BKN,OVC,M,1100.00,1700.00,3200.00,M,-RA,M,M,M,M,M,M,29.54,KDRA 061743Z AUTO 23016G23KT 10SM -RA FEW011 BKN017 OVC032 04/02 A2966 RMK AO2 P0004 T00390017,M
ELY,2025-03-06 17:43,-114.8453,39.2950,1909.00,40.00,32.00,72.85,340.00,9.00,0.02,29.43,M,6.00,M,FEW,BKN,OVC,M,800.00,2800.00,4900.00,M,-RA,M,M,M,M,M,M,33.46,KELY 061743Z AUTO 34009KT 6SM -RA FEW008 BKN028 OVC049 04/00 A2943 RMK AO2 RAB18E22B33SNE33 P0002 T00440000,M
INS,2025-03-06 17:46,-115.6733,36.5872,955.00,44.60,33.80,65.61,250.00,16.00,0.00,29.62,1001.50,10.00,M,SCT,BKN,OVC,M,3800.00,7000.00,8000.00,M,M,M,M,M,M,M,M,36.84,KINS 061746Z AUTO 25016KT 10SM SCT038 BKN070 OVC080 07/01 A2962 RMK AO2 DZE1655RAB1655E1659DZB1659E04DZB14E21RAB21E40DZB40E46 SLP015 $,M
TMT,2025-03-06 17:50,-117.1971,39.4643,1749.34,31.00,25.50,79.80,230.00,11.00,0.00,29.59,M,10.00,M,OVC,M,M,M,3200.00,M,M,M,M,M,M,M,M,M,M,21.20,KTMT 061750Z AUTO 23011KT 10SM OVC032 00/M04 A2959 RMK AO2 T10051036,M
P68,2025-03-06 17:53,-116.0056,39.6014,1993.00,32.00,27.00,81.55,280.00,15.00,0.00,29.50,997.80,M,22.00,M,M,M,M,M,M,M,M,M,M,M,M,M,M,M,20.78,KP68 061753Z AUTO 28015G22KT 00/M03 A2950 RMK AO1 SLP978 T00001028 10000 21011 51007,M
DRA,2025-03-06 17:53,-116.0278,36.6206,1009.00,39.00,33.00,78.86,210.00,20.00,0.04,29.66,1003.00,10.00,32.00,FEW,BKN,OVC,M,1100.00,2100.00,3400.00,M,-RA,M,M,M,32.00,210.00,2025-03-06 17:48,28.44,KDRA 061753Z AUTO 21020G32KT 10SM -RA FEW011 BKN021 OVC034 04/01 A2966 RMK AO2 PK WND 21032/1748 SLP030 P0004 60007 T00390006 10078 20033 51025,M
ELY,2025-03-06 17:53,-114.8453,39.2950,1909.00,40.00,33.00,75.84,30.00,3.00,0.02,29.43,992.10,9.00,21.00,FEW,BKN,OVC,M,800.00,4500.00,5500.00,M,M,M,M,T,M,M,M,37.83,KELY 061753Z AUTO 03003G21KT 9SM FEW008 BKN045 OVC055 04/01 A2943 RMK AO2 RAB18E22B33E48SNE33 SLP921 P0002 60017 I6000 T00440006 10100 20017 51001,M
VGT,2025-03-06 17:53,-115.1933,36.2111,667.00,53.00,24.00,32.10,270.00,15.00,0.00,29.64,1004.80,10.00,25.00,CLR,M,M,M,M,M,M,M,M,M,M,M,M,M,M,53.00,KVGT 061753Z 27015G25KT 10SM CLR 12/M04 A2964 RMK AO2 SLP048 T01171044 10122 20089 53033,M
LOL,2025-03-06 17:53,-118.5701,40.0684,1192.43,38.00,32.00,78.77,260.00,5.00,0.01,29.63,1004.00,10.00,M,SCT,BKN,OVC,M,1900.00,3400.00,4700.00,M,M,M,M,M,M,M,M,33.52,KLOL 061753Z AUTO 26005KT 10SM SCT019 BKN034 OVC047 03/00 A2963 RMK AO2 RAB06E24SNE06 SLP040 P0001 60001 T00330000 10033 20006 51009,M
BVU,2025-03-06 17:55,-114.8611,35.9475,671.00,53.60,26.60,34.98,260.00,20.00,0.00,29.64,M,10.00,32.00,CLR,M,M,M,M,M,M,M,M,M,M,M,M,M,M,53.60,KBVU 061755Z AUTO 26020G32KT 10SM CLR 12/M03 A2964 RMK AO2,M
RNO,2025-03-06 17:55,-119.7711,39.4839,1341.00,38.00,21.00,49.98,310.00,14.00,0.00,29.68,1004.70,10.00,21.00,BKN,BKN,M,M,6000.00,11000.00,M,M,M,M,M,M,27.00,290.00,2025-03-06 17:27,28.90,KRNO 061755Z 31014G21KT 10SM BKN060 BKN110 03/M06 A2968 RMK AO2 PK WND 29027/1727 SLP047 SH DSNT N THRU NE T00331061 10039 21011 51010,M
BAM,2025-03-06 17:55,-116.8743,40.5990,1382.36,35.60,33.80,93.08,320.00,8.00,0.00,29.57,M,3.00,M,SCT,BKN,OVC,M,1000.00,1800.00,3200.00,M,M,M,M,M,M,M,M,28.55,KBAM 061755Z AUTO 32008KT 3SM SCT010 BKN018 OVC032 02/01 A2957 RMK AO1,M
CXP,2025-03-06 17:55,-119.7326,39.1923,1431.00,39.20,21.20,48.10,0.00,0.00,0.00,29.70,M,10.00,M,BKN,BKN,M,M,5500.00,6500.00,M,M,M,M,M,M,M,M,M,39.20,KCXP 061755Z AUTO 00000KT 10SM BKN055 BKN065 04/M06 A2970 RMK AO2,M
RTS,2025-03-06 17:55,-119.8764,39.6682,1539.00,33.80,26.60,74.63,290.00,14.00,0.00,29.69,M,M,M,BKN,M,M,M,5500.00,M,M,M,M,M,M,M,M,M,M,23.48,KRTS 061755Z AUTO 29014KT BKN055 01/M03 A2969 RMK AO2,M
MEV,2025-03-06 17:55,-119.7500,38.9963,1441.42,37.40,19.40,47.80,0.00,0.00,0.00,29.69,M,10.00,M,FEW,FEW,SCT,M,4800.00,6000.00,7500.00,M,M,M,M,M,M,M,M,37.40,KMEV 061755Z AUTO 00000KT 10SM FEW048 FEW060 SCT075 03/M07 A2969 RMK AO2,M
HTH,2025-03-06 17:55,-118.6315,38.5448,1282.89,41.00,19.40,41.54,0.00,0.00,0.00,29.66,M,10.00,M,CLR,M,M,M,M,M,M,M,M,M,M,M,M,M,M,41.00,KHTH 061755Z AUTO 00000KT 10SM CLR 05/M07 A2966 RMK A01,M
INS,2025-03-06 17:55,-115.6733,36.5872,955.00,46.00,31.60,56.95,240.00,21.00,T,29.63,1001.70,10.00,31.00,FEW,SCT,BKN,OVC,3000.00,7000.00,8500.00,16000.00,M,M,M,M,31.00,220.00,2025-03-06 17:51,37.53,KINS 061755Z AUTO 24021G31KT 10SM FEW030 SCT070 BKN085 OVC160 08/M00 A2963 RMK AO2 PK WND 22031/51 RAB1655E1659DZB1659E04DZB14E21RAB21E40DZB40E46 SLP017 P0000 60000 T00781002 10098 20039 51024 $,M
LSV,2025-03-06 17:55,-115.0343,36.2362,570.00,55.00,30.00,38.21,270.00,10.00,0.00,29.61,1001.90,10.00,16.00,BKN,M,M,M,9000.00,M,M,M,M,M,M,M,28.00,290.00,2025-03-06 17:01,55.00,KLSV 061755Z COR AUTO 27010G16KT 10SM BKN090 13/M01 A2961 RMK AO2 PK WND 29028/01 SLP019 T01281012 10130 20091 53020 $ COR 1800,M
EKO,2025-03-06 17:56,-115.7860,40.8242,1367.00,35.00,30.00,81.78,250.00,10.00,0.00,29.48,998.30,10.00,M,OVC,M,M,M,4300.00,M,M,M,M,M,M,M,M,M,M,26.73,KEKO 061756Z AUTO 25010KT 10SM OVC043 02/M01 A2948 RMK AO2 SLP983 60000 T00171011 10017 20006 51004,M
HND,2025-03-06 17:56,-115.1344,35.9729,742.79,51.00,27.00,39.14,240.00,21.00,0.00,29.65,1005.20,10.00,27.00,SCT,M,M,M,5500.00,M,M,M,M,M,M,M,27.00,240.00,2025-03-06 17:54,51.00,KHND 061756Z 24021G27KT 10SM SCT055 11/M03 A2965 RMK AO2 PK WND 24027/1754 SLP052 T01061028 10106 20072 53010 $,M
TPH,2025-03-06 17:56,-117.0904,38.0505,1654.00,35.00,25.00,66.57,M,M,0.00,29.60,1002.30,10.00,M,CLR,M,M,M,M,M,M,M,M,M,M,M,M,M,M,M,KTPH 061756Z AUTO 10SM CLR 02/M04 A2960 RMK AO2 SLP023 60000 T00171039 10017 21011 51012,M
LAS,2025-03-06 17:56,-115.1634,36.0719,663.00,53.00,25.00,33.46,260.00,16.00,0.00,29.65,1003.30,10.00,27.00,FEW,SCT,M,M,6500.00,10000.00,M,M,M,M,M,M,28.00,230.00,2025-03-06 17:45,53.00,KLAS 061756Z 26016G27KT 10SM FEW065 SCT100 12/M04 A2965 RMK AO2 PK WND 23028/1745 SLP033 T01171039 10122 20083 51024,M
WMC,2025-03-06 17:56,-117.8072,40.9019,1315.00,M,M,M,M,M,0.00,29.60,M,M,M,M,M,M,M,M,M,M,M,M,M,M,M,M,M,M,M,KWMC 061756Z AUTO A2960 RMK AO2 SLPNO 52009 PWINO FZRANO TSNO,M
NFL,2025-03-06 17:57,-118.7010,39.4166,1199.00,39.00,28.00,64.37,260.00,11.00,0.00,29.65,1002.50,9.00,M,SCT,OVC,M,M,3000.00,5000.00,M,M,M,M,M,M,M,M,M,31.31,KNFL 061757Z 26011KT 9SM SCT030 OVC050 04/M02 A2965 RMK AO2 SLP025 T00391022 10039 20011 51010,M
10U,2025-03-06 18:00,-116.1876,41.9532,1637.00,30.20,28.40,92.92,350.00,13.00,0.00,29.52,M,0.50,M,BKN,M,M,M,300.00,M,M,M,-SN,M,M,M,M,M,M,19.26,K10U 061800Z AUTO 35013KT 1/2SM -SN BKN003 M01/M02 A2952 RMK AO2,M
TMT,2025-03-06 18:10,-117.1971,39.4643,1749.34,31.00,25.30,79.14,230.00,13.00,0.00,29.59,M,10.00,M,BKN,OVC,M,M,3200.00,4400.00,M,M,M,M,M,M,M,M,M,20.29,KTMT 061810Z AUTO 23013KT 10SM BKN032 OVC044 00/M04 A2959 RMK AO2 T10051037,M
BVU,2025-03-06 18:15,-114.8611,35.9475,671.00,53.60,26.60,34.98,240.00,21.00,0.00,29.65,M,10.00,31.00,FEW,M,M,M,5500.00,M,M,M,M,M,M,M,M,M,M,53.60,KBVU 061815Z AUTO 24021G31KT 10SM FEW055 12/M03 A2965 RMK AO2,M
BAM,2025-03-06 18:15,-116.8743,40.5990,1382.36,33.80,32.00,93.03,310.00,11.00,0.00,29.58,M,1.75,M,SCT,BKN,OVC,M,600.00,1200.00,2400.00,M,M,M,M,M,M,M,M,24.74,KBAM 061815Z AUTO 31011KT 1 3/4SM SCT006 BKN012 OVC024 01/00 A2958 RMK AO1,M
CXP,2025-03-06 18:15,-119.7326,39.1923,1431.00,39.20,21.20,48.10,0.00,0.00,0.00,29.70,M,10.00,M,OVC,M,M,M,6500.00,M,M,M,M,M,M,M,M,M,M,39.20,KCXP 061815Z AUTO 00000KT 10SM OVC065 04/M06 A2970 RMK AO2,M
RTS,2025-03-06 18:15,-119.8764,39.6682,1539.00,33.80,26.60,74.63,300.00,13.00,0.00,29.69,M,M,M,BKN,BKN,M,M,5500.00,8000.00,M,M,-RA,M,M,M,M,M,M,23.87,KRTS 061815Z AUTO 30013KT -RA BKN055 BKN080 01/M03 A2969 RMK AO2,M
MEV,2025-03-06 18:15,-119.7500,38.9963,1441.42,39.20,21.20,48.10,200.00,8.00,0.00,29.69,M,10.00,M,SCT,SCT,M,M,6000.00,7500.00,M,M,M,M,M,M,M,M,M,32.98,KMEV 061815Z AUTO 20008KT 10SM SCT060 SCT075 04/M06 A2969 RMK AO2,M
HTH,2025-03-06 18:15,-118.6315,38.5448,1282.89,42.80,19.40,38.75,130.00,3.00,0.00,29.66,M,10.00,M,SCT,M,M,M,6500.00,M,M,M,M,M,M,M,M,M,M,41.03,KHTH 061815Z AUTO 13003KT 10SM SCT065 06/M07 A2966 RMK A01,M
LOL,2025-03-06 18:17,-118.5701,40.0684,1192.43,39.00,33.00,78.86,320.00,14.00,T,29.63,M,10.00,M,FEW,BKN,OVC,M,1900.00,2600.00,3400.00,M,-RA,M,M,M,M,M,M,30.19,KLOL 061817Z AUTO 32014KT 10SM -RA FEW019 BKN026 OVC034 04/01 A2963 RMK AO2 WSHFT 1800 RAB13 P0000 T00390006,M
ELY,2025-03-06 18:19,-114.8453,39.2950,1909.00,41.00,32.00,70.08,M,6.00,T,29.43,M,2.00,M,BKN,BKN,OVC,M,3600.00,4700.00,5500.00,M,-RA,M,M,M,M,M,M,36.37,KELY 061819Z AUTO VRB06KT 2SM -RA BKN036 BKN047 OVC055 05/00 A2943 RMK AO2 VIS 1 1/2V3 RAB1755 P0000 T00500000,M
10U,2025-03-06 18:20,-116.1876,41.9532,1637.00,30.20,28.40,92.92,350.00,14.00,0.00,29.52,M,0.75,M,BKN,M,M,M,300.00,M,M,M,-SN,M,M,M,M,M,M,18.84,K10U 061820Z AUTO 35014KT 3/4SM -SN BKN003 M01/M02 A2952 RMK AO2,M
LOL,2025-03-06 18:26,-118.5701,40.0684,1192.43,39.00,33.00,78.86,320.00,13.00,T,29.64,M,10.00,M,SCT,BKN,OVC,M,2600.00,3300.00,4200.00,M,-RA,M,M,M,M,M,M,30.54,KLOL 061826Z AUTO 32013KT 10SM -RA SCT026 BKN033 OVC042 04/01 A2964 RMK AO2 WSHFT 1800 RAB13 P0000 T00390006,M
DRA,2025-03-06 18:29,-116.0278,36.6206,1009.00,36.00,33.00,88.73,210.00,17.00,0.01,29.68,M,2.50,M,OVC,M,M,M,1300.00,M,M,M,-SN BR,M,M,M,29.00,220.00,2025-03-06 18:10,25.32,KDRA 061829Z AUTO 21017KT 2 1/2SM -SN BR OVC013 02/01 A2968 RMK AO2 PK WND 22029/1810 RAE11SNB11 P0001 T00220006,M
ELY,2025-03-06 18:29,-114.8453,39.2950,1909.00,41.00,32.00,70.08,M,5.00,T,29.44,M,6.00,M,FEW,OVC,M,M,1300.00,3400.00,M,M,-RA,M,M,M,M,M,M,37.08,KELY 061829Z AUTO VRB05KT 6SM -RA FEW013 OVC034 05/00 A2944 RMK AO2 RAB1755 P0000 T00500000,M
TMT,2025-03-06 18:30,-117.1971,39.4643,1749.34,32.00,25.70,77.28,230.00,12.00,0.00,29.60,M,10.00,17.00,BKN,OVC,M,M,2800.00,3400.00,M,M,M,M,M,M,M,M,M,22.00,KTMT 061830Z AUTO 23012G17KT 10SM BKN028 OVC034 00/M03 A2960 RMK AO2 T10011035,M
BVU,2025-03-06 18:35,-114.8611,35.9475,671.00,53.60,26.60,34.98,240.00,23.00,0.00,29.65,M,10.00,28.00,FEW,M,M,M,5500.00,M,M,M,M,M,M,M,M,M,M,53.60,KBVU 061835Z AUTO 24023G28KT 10SM FEW055 12/M03 A2965 RMK AO2,M
NFL,2025-03-06 18:35,-118.7010,39.4166,1199.00,37.00,30.00,75.56,280.00,14.00,T,29.67,M,3.00,M,BKN,OVC,M,M,2500.00,3000.00,M,M,-SN,M,M,M,M,M,M,27.61,KNFL 061835Z 28014KT 3SM -SN BKN025 OVC030 03/M01 A2967 RMK AO2 SNB20 P0000 T00281011,M
BAM,2025-03-06 18:35,-116.8743,40.5990,1382.36,33.80,33.80,100.00,320.00,12.00,0.00,29.58,M,3.00,M,SCT,SCT,OVC,M,1400.00,2300.00,2800.00,M,M,M,M,M,M,M,M,24.29,KBAM 061835Z AUTO 32012KT 3SM SCT014 SCT023 OVC028 01/01 A2958 RMK AO1,M
CXP,2025-03-06 18:35,-119.7326,39.1923,1431.00,39.20,21.20,48.10,0.00,0.00,0.00,29.70,M,10.00,M,FEW,FEW,OVC,M,4300.00,4900.00,6500.00,M,M,M,M,M,M,M,M,39.20,KCXP 061835Z AUTO 00000KT 10SM FEW043 FEW049 OVC065 04/M06 A2970 RMK AO2,M
RTS,2025-03-06 18:35,-119.8764,39.6682,1539.00,33.80,24.80,69.25,290.00,12.00,0.00,29.70,M,M,19.00,BKN,BKN,M,M,5000.00,8000.00,M,M,M,M,M,M,M,M,M,24.29,KRTS 061835Z AUTO 29012G19KT BKN050 BKN080 01/M04 A2970 RMK AO2,M
MEV,2025-03-06 18:35,-119.7500,38.9963,1441.42,41.00,23.00,48.39,250.00,10.00,0.00,29.69,M,10.00,M,SCT,SCT,SCT,M,4800.00,6500.00,7500.00,M,M,M,M,M,M,M,M,34.25,KMEV 061835Z AUTO 25010KT 10SM SCT048 SCT065 SCT075 05/M05 A2969 RMK AO2,M
HTH,2025-03-06 18:35,-118.6315,38.5448,1282.89,42.80,17.60,35.87,0.00,0.00,0.00,29.66,M,10.00,M,BKN,M,M,M,6500.00,M,M,M,M,M,M,M,M,M,M,42.80,KHTH 061835Z AUTO 00000KT 10SM BKN065 06/M08 A2966 RMK A01,M
ELY,2025-03-06 18:37,-114.8453,39.2950,1909.00,42.00,33.00,70.19,330.00,7.00,T,29.44,M,8.00,M,FEW,BKN,OVC,M,1300.00,2900.00,3900.00,M,M,M,M,M,M,M,M,36.97,KELY 061837Z AUTO 33007KT 8SM FEW013 BKN029 OVC039 06/01 A2944 RMK AO2 RAB1755E30 P0000 T00560006,M
DRA,2025-03-06 18:40,-116.0278,36.6206,1009.00,38.00,35.00,88.83,210.00,16.00,0.03,29.68,M,5.00,M,OVC,M,M,M,1100.00,M,M,M,-SN BR,M,M,M,29.00,220.00,2025-03-06 18:10,28.24,KDRA 061840Z AUTO 21016KT 5SM -SN BR OVC011 03/02 A2968 RMK AO2 PK WND 22029/1810 RAE11SNB11 P0003 T00330017,M
10U,2025-03-06 18:40,-116.1876,41.9532,1637.00,30.20,28.40,92.92,340.00,14.00,0.00,29.53,M,0.75,M,BKN,M,M,M,400.00,M,M,M,-SN,M,M,M,M,M,M,18.84,K10U 061840Z AUTO 34014KT 3/4SM -SN BKN004 M01/M02 A2953 RMK AO2,M
EKO,2025-03-06 18:41,-115.7860,40.8242,1367.00,36.00,30.00,78.60,250.00,12.00,0.00,29.48,M,10.00,M,BKN,OVC,M,M,2900.00,3600.00,M,M,M,M,M,M,M,M,M,27.09,KEKO 061841Z AUTO 25012KT 10SM BKN029 OVC036 02/M01 A2948 RMK AO2 T00221011,M
ELY,2025-03-06 18:46,-114.8453,39.2950,1909.00,M,M,M,320.00,13.00,T,29.44,M,10.00,17.00,SCT,BKN,OVC,M,3000.00,3700.00,5500.00,M,M,M,M,M,M,M,M,M,KELY 061846Z AUTO 32013G17KT 10SM SCT030 BKN037 OVC055 A2944 RMK AO2 RAB1755E30 P0000 $,M
CXP,2025-03-06 18:50,-119.7326,39.1923,1431.00,39.20,19.40,44.55,0.00,0.00,0.00,29.70,M,10.00,11.00,FEW,FEW,OVC,M,4300.00,5000.00,6000.00,M,M,M,M,M,M,M,M,39.20,KCXP 061850Z AUTO 00000G11KT 10SM FEW043 FEW050 OVC060 04/M07 A2970 RMK AO2,M
TMT,2025-03-06 18:50,-117.1971,39.4643,1749.34,31.50,25.70,78.86,240.00,14.00,0.00,29.60,M,10.00,M,OVC,M,M,M,3000.00,M,M,M,-SN,M,M,M,M,M,M,20.52,KTMT 061850Z AUTO 24014KT 10SM -SN OVC030 00/M03 A2960 RMK AO2 T10031035,M
DRA,2025-03-06 18:51,-116.0278,36.6206,1009.00,39.20,35.60,86.79,220.00,17.00,0.03,29.69,M,10.00,23.00,BKN,BKN,OVC,M,1900.00,5500.00,6500.00,M,M,M,M,M,29.00,220.00,2025-03-06 18:10,29.51,KDRA 061851Z AUTO 22017G23KT 10SM BKN019 BKN055 OVC065 04/02 A2969 RMK AO2 PK WND 22029/1810 RAE11B46E50SNB11E46 P0003,M
P68,2025-03-06 18:53,-116.0056,39.6014,1993.00,33.00,27.00,78.34,280.00,16.00,0.00,29.50,997.80,M,23.00,M,M,M,M,M,M,M,M,M,M,M,M,26.00,270.00,2025-03-06 18:34,21.72,KP68 061853Z AUTO 28016G23KT 01/M03 A2950 RMK AO1 PK WND 27026/1834 SLP978 T00061028,M
DRA,2025-03-06 18:53,-116.0278,36.6206,1009.00,38.00,36.00,92.42,220.00,14.00,0.03,29.69,1004.10,10.00,23.00,BKN,BKN,OVC,M,2100.00,6000.00,7500.00,M,M,M,M,M,29.00,220.00,2025-03-06 18:10,28.90,KDRA 061853Z AUTO 22014G23KT 10SM BKN021 BKN060 OVC075 03/02 A2969 RMK AO2 PK WND 22029/1810 RAE11B46E50SNB11E46 SLP041 P0003 T00330022,M
ELY,2025-03-06 18:53,-114.8453,39.2950,1909.00,M,M,M,330.00,16.00,T,29.44,M,10.00,M,FEW,SCT,OVC,M,2800.00,3600.00,5500.00,M,M,M,M,M,M,M,M,M,KELY 061853Z AUTO 33016KT 10SM FEW028 SCT036 OVC055 A2944 RMK AO2 RAB1755E30 SLPNO P0000 $,M
VGT,2025-03-06 18:53,-115.1933,36.2111,667.00,55.00,24.00,29.83,240.00,18.00,0.00,29.64,1004.60,10.00,27.00,SCT,M,M,M,8500.00,M,M,M,M,M,M,M,27.00,230.00,2025-03-06 18:46,55.00,KVGT 061853Z 24018G27KT 10SM SCT085 13/M04 A2964 RMK AO2 PK WND 23027/1846 SLP046 T01281044,M
LOL,2025-03-06 18:53,-118.5701,40.0684,1192.43,39.00,32.00,75.75,350.00,14.00,T,29.65,1004.50,10.00,19.00,OVC,M,M,M,4200.00,M,M,M,M,M,M,M,M,M,M,30.19,KLOL 061853Z AUTO 35014G19KT 10SM OVC042 04/00 A2965 RMK AO2 WSHFT 1800 RAB13E37 SLP045 P0000 T00390000,M
BVU,2025-03-06 18:55,-114.8611,35.9475,671.00,55.40,26.60,32.76,240.00,18.00,0.00,29.67,M,10.00,26.00,FEW,M,M,M,5500.00,M,M,M,M,M,M,M,M,M,M,55.40,KBVU 061855Z AUTO 24018G26KT 10SM FEW055 13/M03 A2967 RMK AO2,M
RNO,2025-03-06 18:55,-119.7711,39.4839,1341.00,39.00,22.00,50.14,300.00,11.00,0.00,29.69,1005.20,10.00,M,BKN,OVC,M,M,4500.00,9000.00,M,M,M,M,M,M,M,M,M,31.31,KRNO 061855Z 30011KT 10SM BKN045 OVC090 04/M06 A2969 RMK AO2 SLP052 SH VC T00391056,M
BAM,2025-03-06 18:55,-116.8743,40.5990,1382.36,33.80,32.00,93.03,290.00,9.00,0.00,29.59,M,1.50,M,SCT,BKN,OVC,M,700.00,1300.00,2000.00,M,M,M,M,M,M,M,M,25.75,KBAM 061855Z AUTO 29009KT 1 1/2SM SCT007 BKN013 OVC020 01/00 A2959 RMK AO1 VIS 1/2V5,M
RTS,2025-03-06 18:55,-119.8764,39.6682,1539.00,35.60,26.60,69.46,300.00,14.00,0.00,29.70,M,M,20.00,SCT,BKN,M,M,4800.00,5500.00,M,M,-RA,M,M,M,M,M,M,25.80,KRTS 061855Z AUTO 30014G20KT -RA SCT048 BKN055 02/M03 A2970 RMK AO2,M
MEV,2025-03-06 18:55,-119.7500,38.9963,1441.42,39.20,23.00,51.89,260.00,12.00,0.00,29.69,M,10.00,M,FEW,M,M,M,4800.00,M,M,M,M,M,M,M,M,M,M,31.17,KMEV 061855Z AUTO 26012KT 10SM FEW048 04/M05 A2969 RMK AO2,M
HTH,2025-03-06 18:55,-118.6315,38.5448,1282.89,42.80,19.40,38.75,M,6.00,0.00,29.66,M,10.00,M,BKN,OVC,M,M,6500.00,7500.00,M,M,M,M,M,M,M,M,M,38.54,KHTH 061855Z AUTO VRB06KT 10SM BKN065 OVC075 06/M07 A2966 RMK A01,M
INS,2025-03-06 18:55,-115.6733,36.5872,955.00,47.00,32.00,55.73,250.00,27.00,0.00,29.64,1002.00,10.00,32.00,OVC,M,M,M,9000.00,M,M,M,M,M,M,M,35.00,250.00,2025-03-06 18:38,37.79,KINS 061855Z AUTO 25027G32KT 10SM OVC090 08/00 A2964 RMK AO2 PK WND 25035/38 SLP020 T00830000 $,M
LSV,2025-03-06 18:55,-115.0343,36.2362,570.00,54.70,22.30,28.08,250.00,13.00,0.00,29.61,1001.90,10.00,19.00,BKN,M,M,M,8000.00,M,M,M,M,M,M,M,M,M,M,54.70,KLSV 061855Z 25013G19KT 10SM BKN080 13/M05 A2961 RMK AO2A SLP019 T01261054 $,M
EKO,2025-03-06 18:56,-115.7860,40.8242,1367.00,35.00,31.00,85.17,250.00,10.00,T,29.49,998.80,8.00,M,BKN,OVC,M,M,2700.00,3600.00,M,M,-SN,M,M,M,M,M,M,26.73,KEKO 061856Z AUTO 25010KT 8SM -SN BKN027 OVC036 02/M01 A2949 RMK AO2 SNB43 SLP988 P0000 T00171006,M
WMC,2025-03-06 18:56,-117.8072,40.9019,1315.00,M,M,M,M,M,0.00,29.62,M,M,M,M,M,M,M,M,M,M,M,M,M,M,M,M,M,M,M,KWMC 061856Z AUTO A2962 RMK AO2 SLPNO PWINO FZRANO TSNO,M
HND,2025-03-06 18:56,-115.1344,35.9729,742.79,50.00,26.00,38.97,240.00,16.00,0.00,29.68,1006.30,10.00,25.00,SCT,M,M,M,6500.00,M,M,M,M,M,M,M,29.00,240.00,2025-03-06 18:02,50.00,KHND 061856Z 24016G25KT 10SM SCT065 10/M03 A2968 RMK AO2 PK WND 24029/1802 SLP063 T01001033 $,M
TPH,2025-03-06 18:56,-117.0904,38.0505,1654.00,38.00,25.00,59.13,M,M,0.00,29.61,1002.30,10.00,M,FEW,FEW,FEW,M,3300.00,5500.00,7000.00,M,M,M,M,M,M,M,M,M,KTPH 061856Z AUTO 10SM FEW033 FEW055 FEW070 03/M04 A2961 RMK AO2 SLP023 T00331039 $,M
LAS,2025-03-06 18:56,-115.1634,36.0719,663.00,53.00,25.00,33.46,250.00,18.00,0.00,29.66,1003.70,10.00,28.00,FEW,SCT,M,M,6500.00,10000.00,M,M,M,M,M,M,31.00,270.00,2025-03-06 18:20,53.00,KLAS 061856Z 25018G28KT 10SM FEW065 SCT100 12/M04 A2966 RMK AO2 PK WND 27031/1820 SLP037 T01171039,M
NFL,2025-03-06 18:57,-118.7010,39.4166,1199.00,36.00,31.00,81.86,270.00,11.00,T,29.68,1003.20,2.00,M,OVC,M,M,M,1700.00,M,M,M,-SN,M,M,M,M,M,M,27.52,KNFL 061857Z 27011KT 2SM -SN OVC017 02/M01 A2968 RMK AO2 SNB20 SLP032 P0000 T00221006,M
DRA,2025-03-06 18:58,-116.0278,36.6206,1009.00,39.00,36.00,88.87,220.00,13.00,0.00,29.69,M,10.00,21.00,FEW,BKN,OVC,M,700.00,2100.00,7000.00,M,M,M,M,M,M,M,M,30.54,KDRA 061858Z AUTO 22013G21KT 10SM FEW007 BKN021 OVC070 04/02 A2969 RMK AO2 T00390022,M
10U,2025-03-06 19:00,-116.1876,41.9532,1637.00,30.20,26.60,86.28,350.00,12.00,0.00,29.53,M,1.75,19.00,SCT,SCT,M,M,400.00,1700.00,M,M,-SN,M,M,M,M,M,M,19.71,K10U 061900Z AUTO 35012G19KT 1 3/4SM -SN SCT004 SCT017 M01/M03 A2953 RMK AO2,M
NFL,2025-03-06 19:03,-118.7010,39.4166,1199.00,36.00,32.00,85.23,300.00,11.00,T,29.68,M,1.75,M,OVC,M,M,M,1700.00,M,M,M,-SN BR,M,M,M,M,M,M,27.52,KNFL 061903Z 30011KT 1 3/4SM -SN BR OVC017 02/00 A2968 RMK AO2 WR// P0000 T00220000,M
EKO,2025-03-06 19:04,-115.7860,40.8242,1367.00,35.00,31.00,85.17,250.00,9.00,T,29.49,M,7.00,M,FEW,OVC,M,M,2400.00,3200.00,M,M,-SN,M,M,M,M,M,M,27.24,KEKO 061904Z AUTO 25009KT 7SM -SN FEW024 OVC032 02/M01 A2949 RMK AO2 P0000 T00171006,M
TMT,2025-03-06 19:10,-117.1971,39.4643,1749.34,31.60,26.20,80.19,230.00,13.00,0.00,29.61,M,10.00,M,SCT,OVC,M,M,2000.00,3000.00,M,M,-SN,M,M,M,M,M,M,21.06,KTMT 061910Z AUTO 23013KT 10SM -SN SCT020 OVC030 00/M03 A2961 RMK AO2 T10021032,M
BVU,2025-03-06 19:15,-114.8611,35.9475,671.00,55.40,26.60,32.76,230.00,12.00,0.00,29.67,M,10.00,26.00,SCT,SCT,M,M,6000.00,7000.00,M,M,M,M,M,M,M,M,M,55.40,KBVU 061915Z AUTO 23012G26KT 10SM SCT060 SCT070 13/M03 A2967 RMK AO2,M
BAM,2025-03-06 19:15,-116.8743,40.5990,1382.36,35.60,33.80,93.08,310.00,10.00,0.00,29.59,M,10.00,M,SCT,BKN,OVC,M,900.00,1900.00,3200.00,M,M,M,M,M,M,M,M,27.48,KBAM 061915Z AUTO 31010KT 10SM SCT009 BKN019 OVC032 02/01 A2959 RMK AO1,M
CXP,2025-03-06 19:15,-119.7326,39.1923,1431.00,39.20,21.20,48.10,330.00,4.00,0.00,29.71,M,10.00,M,BKN,M,M,M,5500.00,M,M,M,M,M,M,M,M,M,M,35.83,KCXP 061915Z AUTO 33004KT 10SM BKN055 04/M06 A2971 RMK AO2,M
RTS,2025-03-06 19:15,-119.8764,39.6682,1539.00,33.80,26.60,74.63,300.00,15.00,0.00,29.71,M,M,M,FEW,M,M,M,4800.00,M,M,M,-SN,M,M,M,M,M,M,23.11,KRTS 061915Z AUTO 30015KT -SN FEW048 01/M03 A2971 RMK AO2,M
MEV,2025-03-06 19:15,-119.7500,38.9963,1441.42,41.00,23.00,48.39,270.00,11.00,0.00,29.69,M,10.00,M,CLR,M,M,M,M,M,M,M,M,M,M,M,M,M,M,33.84,KMEV 061915Z AUTO 27011KT 240V300 10SM CLR 05/M05 A2969 RMK AO2,M
HTH,2025-03-06 19:15,-118.6315,38.5448,1282.89,44.60,17.60,33.49,340.00,6.00,0.00,29.67,M,10.00,M,BKN,BKN,M,M,6000.00,7000.00,M,M,M,M,M,M,M,M,M,40.71,KHTH 061915Z AUTO 34006KT 10SM BKN060 BKN070 07/M08 A2967 RMK A01,M
NFL,2025-03-06 19:17,-118.7010,39.4166,1199.00,36.00,32.00,85.23,300.00,12.00,0.01,29.68,M,2.50,M,OVC,M,M,M,1400.00,M,M,M,-SN BR,M,M,M,M,M,M,27.09,KNFL 061917Z 30012KT 2 1/2SM -SN BR OVC014 02/00 A2968 RMK AO2 WR// P0001 T00220000,M
NFL,2025-03-06 19:20,-118.7010,39.4166,1199.00,36.00,32.00,85.23,300.00,12.00,0.01,29.68,M,1.50,M,OVC,M,M,M,1400.00,M,M,M,-SN BR,M,M,M,M,M,M,27.09,KNFL 061920Z 30012KT 1 1/2SM -SN BR OVC014 02/00 A2968 RMK AO2 WR// P0001 T00220000,M
10U,2025-03-06 19:20,-116.1876,41.9532,1637.00,30.20,28.40,92.92,350.00,13.00,0.00,29.54,M,1.75,19.00,OVC,M,M,M,2000.00,M,M,M,-SN,M,M,M,M,M,M,19.26,K10U 061920Z AUTO 35013G19KT 1 3/4SM -SN OVC020 M01/M02 A2954 RMK AO2,M
DRA,2025-03-06 19:28,-116.0278,36.6206,1009.00,40.00,36.00,85.48,230.00,12.00,0.00,29.69,M,10.00,M,FEW,BKN,OVC,M,900.00,3200.00,9000.00,M,M,M,M,M,M,M,M,32.18,KDRA 061928Z AUTO 23012KT 10SM FEW009 BKN032 OVC090 04/02 A2969 RMK AO2 T00440022,M
TMT,2025-03-06 19:30,-117.1971,39.4643,1749.34,31.60,25.70,78.54,230.00,12.00,0.00,29.61,M,10.00,16.00,SCT,OVC,M,M,2000.00,2800.00,M,M,-SN,M,M,M,M,M,M,21.49,KTMT 061930Z AUTO 23012G16KT 10SM -SN SCT020 OVC028 00/M03 A2961 RMK AO2 T10021035,M
CXP,2025-03-06 19:30,-119.7326,39.1923,1431.00,39.20,21.20,48.10,340.00,4.00,0.00,29.71,M,10.00,10.00,FEW,BKN,M,M,4500.00,5500.00,M,M,M,M,M,M,M,M,M,35.83,KCXP 061930Z AUTO 34004G10KT 10SM FEW045 BKN055 04/M06 A2971 RMK AO2,M
EKO,2025-03-06 19:33,-115.7860,40.8242,1367.00,36.00,31.00,81.86,250.00,10.00,T,29.49,M,10.00,M,SCT,OVC,M,M,2000.00,2800.00,M,M,M,M,M,M,M,M,M,27.98,KEKO 061933Z AUTO 25010KT 10SM SCT020 OVC028 02/M01 A2949 RMK AO2 SNE09 P0000 T00221006,M
NFL,2025-03-06 19:33,-118.7010,39.4166,1199.00,36.00,33.00,88.73,290.00,13.00,0.01,29.68,M,1.50,M,SCT,OVC,M,M,1000.00,1400.00,M,M,-SN BR,M,M,M,M,M,M,26.69,KNFL 061933Z 29013KT 1 1/2SM -SN BR SCT010 OVC014 02/01 A2968 RMK AO2 WR// P0001 T00220006,M
BVU,2025-03-06 19:35,-114.8611,35.9475,671.00,57.20,26.60,30.69,240.00,17.00,0.00,29.67,M,10.00,25.00,BKN,BKN,M,M,6000.00,7000.00,M,M,M,M,M,M,M,M,M,57.20,KBVU 061935Z AUTO 24017G25KT 10SM BKN060 BKN070 14/M03 A2967 RMK AO2,M
BAM,2025-03-06 19:35,-116.8743,40.5990,1382.36,35.60,33.80,93.08,320.00,9.00,0.00,29.59,M,10.00,M,SCT,BKN,OVC,M,1200.00,2400.00,3400.00,M,M,M,M,M,M,M,M,27.99,KBAM 061935Z AUTO 32009KT 10SM SCT012 BKN024 OVC034 02/01 A2959 RMK AO1,M
RTS,2025-03-06 19:35,-119.8764,39.6682,1539.00,33.80,30.20,86.49,300.00,12.00,0.00,29.72,M,M,M,CLR,M,M,M,M,M,M,M,-SN,M,M,M,M,M,M,24.29,KRTS 061935Z AUTO 30012KT -SN CLR 01/M01 A2972 RMK AO2,M
MEV,2025-03-06 19:35,-119.7500,38.9963,1441.42,41.00,23.00,48.39,260.00,9.00,0.00,29.69,M,10.00,16.00,FEW,M,M,M,5500.00,M,M,M,M,M,M,M,M,M,M,34.70,KMEV 061935Z AUTO 26009G16KT 230V290 10SM FEW055 05/M05 A2969 RMK AO2,M
HTH,2025-03-06 19:35,-118.6315,38.5448,1282.89,44.60,17.60,33.49,310.00,13.00,0.00,29.66,M,10.00,M,BKN,BKN,M,M,6000.00,12000.00,M,M,M,M,M,M,M,M,M,37.71,KHTH 061935Z AUTO 31013KT 280V350 10SM BKN060 BKN120 07/M08 A2966 RMK A01,M
10U,2025-03-06 19:40,-116.1876,41.9532,1637.00,30.20,28.40,92.92,350.00,13.00,0.00,29.54,M,1.25,19.00,BKN,M,M,M,2200.00,M,M,M,-SN,M,M,M,M,M,M,19.26,K10U 061940Z AUTO 35013G19KT 1 1/4SM -SN BKN022 M01/M02 A2954 RMK AO2,M
NFL,2025-03-06 19:44,-118.7010,39.4166,1199.00,36.00,34.00,92.35,280.00,14.00,0.01,29.68,M,2.00,M,SCT,BKN,OVC,M,700.00,1700.00,3200.00,M,-SN BR,M,M,M,M,M,M,26.32,KNFL 061944Z 28014KT 2SM -SN BR SCT007 BKN017 OVC032 02/01 A2968 RMK AO2 WR// P0001 T00220011,M
MEV,2025-03-06 19:45,-119.7500,38.9963,1441.42,41.00,23.00,48.39,290.00,12.00,0.00,29.70,M,10.00,M,FEW,FEW,M,M,4400.00,5500.00,M,M,M,M,M,M,M,M,M,33.46,KMEV 061945Z AUTO 29012KT 10SM FEW044 FEW055 05/M05 A2970 RMK AO2,M
RTS,2025-03-06 19:45,-119.8764,39.6682,1539.00,33.80,30.20,86.49,300.00,14.00,0.00,29.72,M,M,20.00,CLR,M,M,M,M,M,M,M,-RA,M,M,M,M,M,M,23.48,KRTS 061945Z AUTO 30014G20KT -RA CLR 01/M01 A2972 RMK AO2,M
CXP,2025-03-06 19:50,-119.7326,39.1923,1431.00,39.20,23.00,51.89,0.00,0.00,0.00,29.71,M,10.00,10.00,FEW,SCT,SCT,M,4300.00,5000.00,6000.00,M,M,M,M,M,M,M,M,39.20,KCXP 061950Z AUTO 00000G10KT 10SM FEW043 SCT050 SCT060 04/M05 A2971 RMK AO2,M
TMT,2025-03-06 19:50,-117.1971,39.4643,1749.34,31.00,26.00,81.48,220.00,14.00,0.00,29.62,M,4.00,19.00,OVC,M,M,M,2500.00,M,M,M,-SN,M,M,M,M,M,M,19.87,KTMT 061950Z AUTO 22014G19KT 4SM -SN OVC025 00/M03 A2962 RMK AO2 T10051033,M
P68,2025-03-06 19:53,-116.0056,39.6014,1993.00,34.00,27.00,75.26,280.00,16.00,0.00,29.52,998.50,M,26.00,M,M,M,M,M,M,M,M,M,M,M,M,28.00,280.00,2025-03-06 18:59,23.03,KP68 061953Z AUTO 28016G26KT 01/M03 A2952 RMK AO1 PK WND 28028/1859 SLP985 T00111028,M
DRA,2025-03-06 19:53,-116.0278,36.6206,1009.00,44.00,35.00,70.42,230.00,8.00,0.00,29.68,1003.40,10.00,M,FEW,SCT,OVC,M,4900.00,8500.00,11000.00,M,M,M,M,M,M,M,M,38.90,KDRA 061953Z AUTO 23008KT 10SM FEW049 SCT085 OVC110 07/02 A2968 RMK AO2 SLP034 T00670017,M
ELY,2025-03-06 19:53,-114.8453,39.2950,1909.00,M,M,M,300.00,8.00,0.00,29.46,M,5.00,M,FEW,BKN,OVC,M,1800.00,3600.00,4700.00,M,HZ,M,M,M,M,M,M,M,KELY 061953Z AUTO 30008KT 5SM HZ FEW018 BKN036 OVC047 A2946 RMK AO2 SLPNO $,M
VGT,2025-03-06 19:53,-115.1933,36.2111,667.00,54.00,25.00,32.26,250.00,18.00,0.00,29.64,1004.70,10.00,26.00,OVC,M,M,M,7000.00,M,M,M,M,M,M,M,28.00,240.00,2025-03-06 19:36,54.00,KVGT 061953Z 25018G26KT 10SM OVC070 12/M04 A2964 RMK AO2 PK WND 24028/1936 SLP047 T01221039,M
LOL,2025-03-06 19:53,-118.5701,40.0684,1192.43,39.00,32.00,75.75,360.00,17.00,T,29.66,1005.10,10.00,23.00,SCT,SCT,OVC,M,2600.00,3700.00,4700.00,M,M,M,M,M,M,M,M,29.25,KLOL 061953Z AUTO 36017G23KT 10SM SCT026 SCT037 OVC047 04/00 A2966 RMK AO2 RAB1854E04B40E50 SLP051 P0000 T00390000,M
BVU,2025-03-06 19:55,-114.8611,35.9475,671.00,57.20,24.80,28.48,240.00,21.00,0.00,29.67,M,10.00,29.00,BKN,BKN,BKN,M,6000.00,7000.00,8000.00,M,M,M,M,M,M,M,M,57.20,KBVU 061955Z AUTO 24021G29KT 10SM BKN060 BKN070 BKN080 14/M04 A2967 RMK AO2,M
RNO,2025-03-06 19:55,-119.7711,39.4839,1341.00,39.00,25.00,56.86,260.00,10.00,0.00,29.71,1006.00,10.00,17.00,BKN,OVC,M,M,4000.00,8500.00,M,M,M,M,M,M,M,M,M,31.75,KRNO 061955Z 26010G17KT 10SM BKN040 OVC085 04/M04 A2971 RMK AO2 SLP060 SH VC T00391039,M
BAM,2025-03-06 19:55,-116.8743,40.5990,1382.36,35.60,33.80,93.08,320.00,9.00,0.00,29.60,M,10.00,14.00,SCT,BKN,OVC,M,1000.00,2400.00,3200.00,M,M,M,M,M,M,M,M,27.99,KBAM 061955Z AUTO 32009G14KT 10SM SCT010 BKN024 OVC032 02/01 A2960 RMK AO1,M
HTH,2025-03-06 19:55,-118.6315,38.5448,1282.89,44.60,19.40,36.18,350.00,13.00,0.00,29.67,M,10.00,19.00,SCT,BKN,BKN,M,6500.00,8000.00,12000.00,M,M,M,M,M,M,M,M,37.71,KHTH 061955Z AUTO 35013G19KT 10SM SCT065 BKN080 BKN120 07/M07 A2967 RMK A01,M
INS,2025-03-06 19:55,-115.6733,36.5872,955.00,47.00,25.50,42.71,230.00,19.00,0.00,29.66,1002.70,10.00,M,OVC,M,M,M,7500.00,M,M,M,M,M,M,M,32.00,250.00,2025-03-06 19:02,39.27,KINS 061955Z AUTO 23019KT 10SM OVC075 08/M04 A2966 RMK AO2 PK WND 25032/02 SLP027 T00831036 $,M
LSV,2025-03-06 19:55,-115.0343,36.2362,570.00,55.20,22.60,27.93,210.00,15.00,0.00,29.61,1001.90,10.00,M,SCT,BKN,M,M,8500.00,16000.00,M,M,M,M,M,M,M,M,M,55.20,KLSV 061955Z 21015KT 10SM SCT085 BKN160 13/M05 A2961 RMK AO2A SLP019 T01291052 $,M
EKO,2025-03-06 19:56,-115.7860,40.8242,1367.00,36.00,31.00,81.86,310.00,5.00,T,29.50,999.20,8.00,M,SCT,BKN,OVC,M,1600.00,2200.00,2900.00,M,-SN,M,M,M,M,M,M,31.15,KEKO 061956Z AUTO 31005KT 8SM -SN SCT016 BKN022 OVC029 02/M01 A2950 RMK AO2 SNE09B38 SLP992 P0000 T00221006,M
WMC,2025-03-06 19:56,-117.8072,40.9019,1315.00,M,M,M,M,M,0.00,29.64,M,M,M,M,M,M,M,M,M,M,M,M,M,M,M,M,M,M,M,KWMC 061956Z AUTO A2964 RMK AO2 SLPNO PWINO FZRANO TSNO,M
HND,2025-03-06 19:56,-115.1344,35.9729,742.79,52.00,27.00,37.72,260.00,20.00,0.00,29.68,1006.30,10.00,25.00,SCT,M,M,M,6000.00,M,M,M,M,M,M,M,28.00,230.00,2025-03-06 19:02,52.00,KHND 061956Z 26020G25KT 10SM SCT060 11/M03 A2968 RMK AO2 PK WND 23028/1902 SLP063 T01111028 $,M
TPH,2025-03-06 19:56,-117.0904,38.0505,1654.00,39.00,24.00,54.54,M,M,0.00,29.60,1001.90,10.00,M,CLR,M,M,M,M,M,M,M,M,M,M,M,M,M,M,M,KTPH 061956Z AUTO 10SM CLR 04/M04 A2960 RMK AO2 SLP019 T00391044 $,M
LAS,2025-03-06 19:56,-115.1634,36.0719,663.00,55.00,24.00,29.83,240.00,20.00,0.00,29.68,1004.10,10.00,32.00,SCT,SCT,M,M,6500.00,10000.00,M,M,M,M,M,M,32.00,260.00,2025-03-06 19:33,55.00,KLAS 061956Z 24020G32KT 10SM SCT065 SCT100 13/M04 A2968 RMK AO2 PK WND 26032/1933 SLP041 VIRGA DSNT W-NW T01281044,M
NFL,2025-03-06 19:57,-118.7010,39.4166,1199.00,37.00,34.00,88.78,280.00,12.00,0.02,29.68,1003.40,2.50,21.00,SCT,BKN,OVC,M,1000.00,1700.00,2500.00,M,-RASN BR,M,M,M,M,M,M,28.37,KNFL 061957Z 28012G21KT 2 1/2SM -RASN BR SCT010 BKN017 OVC025 03/01 A2968 RMK AO2 RAB55 SLP034 WR// P0002 T00280011,M
10U,2025-03-06 20:00,-116.1876,41.9532,1637.00,30.20,28.40,92.92,340.00,12.00,0.00,29.54,M,1.75,M,VV ,M,M,M,700.00,M,M,M,-SN,M,M,M,M,M,M,19.71,K10U 062000Z AUTO 34012KT 1 3/4SM -SN VV007 M01/M02 A2954 RMK AO2,M
TMT,2025-03-06 20:10,-117.1971,39.4643,1749.34,31.00,26.60,83.53,230.00,12.00,0.00,29.62,M,4.00,M,OVC,M,M,M,2500.00,M,M,M,-SN,M,M,M,M,M,M,20.73,KTMT 062010Z AUTO 23012KT 4SM -SN OVC025 00/M03 A2962 RMK AO2 T10051030,M
ELY,2025-03-06 20:13,-114.8453,39.2950,1909.00,M,M,M,290.00,9.00,0.00,29.46,M,1.75,M,SCT,SCT,OVC,M,1700.00,2200.00,3700.00,M,BR,M,M,M,M,M,M,M,KELY 062013Z AUTO 29009KT 1 3/4SM BR SCT017 SCT022 OVC037 A2946 RMK AO2 $,M
BVU,2025-03-06 20:15,-114.8611,35.9475,671.00,57.20,24.80,28.48,250.00,18.00,0.00,29.67,M,10.00,28.00,SCT,SCT,M,M,6500.00,8000.00,M,M,M,M,M,M,M,M,M,57.20,KBVU 062015Z AUTO 25018G28KT 10SM SCT065 SCT080 14/M04 A2967 RMK AO2,M
NFL,2025-03-06 20:15,-118.7010,39.4166,1199.00,37.00,34.00,88.78,270.00,14.00,T,29.68,M,3.00,M,SCT,BKN,OVC,M,1000.00,1700.00,2500.00,M,-RASN BR,M,M,M,M,M,M,27.61,KNFL 062015Z 27014KT 3SM -RASN BR SCT010 BKN017 OVC025 03/01 A2968 RMK AO2 WR// P0000 T00280011,M
BAM,2025-03-06 20:15,-116.8743,40.5990,1382.36,37.40,33.80,86.69,330.00,14.00,0.00,29.60,M,10.00,M,SCT,BKN,OVC,M,1000.00,2500.00,3300.00,M,M,M,M,M,M,M,M,28.12,KBAM 062015Z AUTO 33014KT 10SM SCT010 BKN025 OVC033 03/01 A2960 RMK AO1,M
CXP,2025-03-06 20:15,-119.7326,39.1923,1431.00,39.20,24.80,55.95,320.00,10.00,0.00,29.71,M,10.00,M,FEW,SCT,SCT,M,3400.00,4300.00,4900.00,M,M,M,M,M,M,M,M,32.00,KCXP 062015Z AUTO 32010KT 10SM FEW034 SCT043 SCT049 04/M04 A2971 RMK AO2,M
RTS,2025-03-06 20:15,-119.8764,39.6682,1539.00,33.80,30.20,86.49,290.00,16.00,0.00,29.73,M,M,M,FEW,FEW,M,M,1600.00,2200.00,M,M,-SN,M,M,M,M,M,M,22.76,KRTS 062015Z AUTO 29016KT -SN FEW016 FEW022 01/M01 A2973 RMK AO2,M
MEV,2025-03-06 20:15,-119.7500,38.9963,1441.42,41.00,21.20,44.85,290.00,9.00,0.00,29.70,M,10.00,M,FEW,M,M,M,4500.00,M,M,M,M,M,M,M,M,M,M,34.70,KMEV 062015Z AUTO 29009KT 10SM FEW045 05/M06 A2970 RMK AO2,M
HTH,2025-03-06 20:15,-118.6315,38.5448,1282.89,44.60,19.40,36.18,340.00,12.00,0.00,29.67,M,10.00,20.00,SCT,SCT,M,M,6000.00,8500.00,M,M,M,M,M,M,M,M,M,38.04,KHTH 062015Z AUTO 34012G20KT 10SM SCT060 SCT085 07/M07 A2967 RMK A01,M
EKO,2025-03-06 20:18,-115.7860,40.8242,1367.00,35.00,30.00,81.78,280.00,8.00,T,29.50,M,10.00,M,FEW,SCT,OVC,M,1500.00,2200.00,3700.00,M,M,M,M,M,M,M,M,27.81,KEKO 062018Z AUTO 28008KT 10SM FEW015 SCT022 OVC037 02/M01 A2950 RMK AO2 SNE08 P0000 T00171011,M
10U,2025-03-06 20:20,-116.1876,41.9532,1637.00,30.20,28.40,92.92,340.00,9.00,0.00,29.54,M,2.50,M,FEW,FEW,SCT,M,600.00,1200.00,3400.00,M,-SN,M,M,M,M,M,M,21.28,K10U 062020Z AUTO 34009KT 2 1/2SM -SN FEW006 FEW012 SCT034 M01/M02 A2954 RMK AO2,M
ELY,2025-03-06 20:22,-114.8453,39.2950,1909.00,M,M,M,290.00,11.00,0.00,29.46,M,1.00,M,BKN,BKN,OVC,M,1300.00,2000.00,3500.00,M,BR,M,M,M,M,M,M,M,KELY 062022Z AUTO 29011KT 1SM BR BKN013 BKN020 OVC035 A2946 RMK AO2 $,M
RNO,2025-03-06 20:25,-119.7711,39.4839,1341.00,40.00,25.00,54.69,310.00,11.00,T,29.71,M,10.00,18.00,BKN,OVC,M,M,3500.00,8000.00,M,M,-SN,M,M,M,M,M,M,32.58,KRNO 062025Z 31011G18KT 10SM -SN BKN035 OVC080 04/M04 A2971 RMK AO2 SNB25 P0000 T00441039,M
NFL,2025-03-06 20:30,-118.7010,39.4166,1199.00,38.00,34.00,85.35,280.00,18.00,0.01,29.68,M,5.00,23.00,SCT,BKN,OVC,M,1000.00,2000.00,3000.00,M,-RA BR,M,M,M,M,M,M,27.65,KNFL 062030Z 28018G23KT 5SM -RA BR SCT010 BKN020 OVC030 03/01 A2968 RMK AO2 SNE30 WR// P0001 T00330011,M
TMT,2025-03-06 20:30,-117.1971,39.4643,1749.34,31.50,26.80,82.53,240.00,12.00,0.00,29.62,M,5.00,M,BKN,OVC,M,M,2500.00,2900.00,M,M,-SN,M,M,M,M,M,M,21.37,KTMT 062030Z AUTO 24012KT 5SM -SN BKN025 OVC029 00/M03 A2962 RMK AO2 T10031029,M
ELY,2025-03-06 20:32,-114.8453,39.2950,1909.00,M,M,M,300.00,11.00,0.00,29.47,M,1.00,M,SCT,OVC,M,M,1100.00,1800.00,M,M,BR,M,M,M,M,M,M,M,KELY 062032Z AUTO 30011KT 1SM BR SCT011 OVC018 A2947 RMK AO2 $,M
BVU,2025-03-06 20:35,-114.8611,35.9475,671.00,57.20,24.80,28.48,240.00,21.00,0.00,29.67,M,10.00,29.00,BKN,BKN,BKN,M,6500.00,7500.00,9000.00,M,M,M,M,M,M,M,M,57.20,KBVU 062035Z AUTO 24021G29KT 10SM BKN065 BKN075 BKN090 14/M04 A2967 RMK AO2,M
BAM,2025-03-06 20:35,-116.8743,40.5990,1382.36,37.40,32.00,80.65,340.00,15.00,0.00,29.60,M,10.00,20.00,SCT,BKN,OVC,M,1300.00,3300.00,5000.00,M,M,M,M,M,M,M,M,27.78,KBAM 062035Z AUTO 34015G20KT 10SM SCT013 BKN033 OVC050 03/00 A2960 RMK AO1,M
CXP,2025-03-06 20:35,-119.7326,39.1923,1431.00,39.20,24.80,55.95,300.00,6.00,0.00,29.72,M,10.00,M,FEW,FEW,SCT,M,3200.00,3900.00,4400.00,M,M,M,M,M,M,M,M,34.20,KCXP 062035Z AUTO 30006KT 10SM FEW032 FEW039 SCT044 04/M04 A2972 RMK AO2,M
RTS,2025-03-06 20:35,-119.8764,39.6682,1539.00,33.80,32.00,93.03,280.00,13.00,0.00,29.73,M,M,M,M,M,M,M,M,M,M,M,-SN,M,M,M,M,M,M,23.87,KRTS 062035Z AUTO 28013KT -SN 01/M00 A2973 RMK AO2,M
MEV,2025-03-06 20:35,-119.7500,38.9963,1441.42,41.00,21.20,44.85,290.00,8.00,0.00,29.70,M,10.00,14.00,FEW,M,M,M,4100.00,M,M,M,M,M,M,M,M,M,M,35.20,KMEV 062035Z AUTO 29008G14KT 10SM FEW041 05/M06 A2970 RMK AO2,M
HTH,2025-03-06 20:35,-118.6315,38.5448,1282.89,44.60,19.40,36.18,350.00,19.00,0.00,29.66,M,10.00,M,SCT,M,M,M,6000.00,M,M,M,M,M,M,M,M,M,M,36.10,KHTH 062035Z AUTO 35019KT 10SM SCT060 07/M07 A2966 RMK A01,M
RNO,2025-03-06 20:38,-119.7711,39.4839,1341.00,40.00,27.00,59.41,320.00,15.00,T,29.71,M,9.00,25.00,BKN,OVC,M,M,3500.00,8000.00,M,M,-SN,M,M,M,M,M,M,31.15,KRNO 062038Z 32015G25KT 9SM -SN BKN035 OVC080 04/M03 A2971 RMK AO2 WSHFT 2022 SNB25 P0000 T00441028,M
10U,2025-03-06 20:40,-116.1876,41.9532,1637.00,32.00,28.40,86.39,330.00,9.00,0.00,29.55,M,4.00,15.00,FEW,SCT,M,M,1200.00,3800.00,M,M,-SN,M,M,M,M,M,M,23.51,K10U 062040Z AUTO 33009G15KT 4SM -SN FEW012 SCT038 M00/M02 A2955 RMK AO2,M
LSV,2025-03-06 20:43,-115.0343,36.2362,570.00,57.20,24.80,28.48,280.00,10.00,0.00,29.62,1002.20,10.00,18.00,BKN,M,M,M,7000.00,M,M,M,M,M,M,M,M,M,M,57.20,KLSV 062043Z AUTO 28010G18KT 10SM BKN070 14/M04 A2962 RMK AO2 WSHFT 38 SLP022 $,M
TMT,2025-03-06 20:50,-117.1971,39.4643,1749.34,31.50,27.70,85.65,230.00,12.00,0.00,29.62,M,4.00,M,SCT,BKN,OVC,M,1500.00,2200.00,2800.00,M,-SN,M,M,M,M,M,M,21.37,KTMT 062050Z AUTO 23012KT 4SM -SN SCT015 BKN022 OVC028 00/M02 A2962 RMK AO2 T10031024,M
P68,2025-03-06 20:53,-116.0056,39.6014,1993.00,36.00,29.00,75.46,270.00,11.00,0.00,29.52,998.20,M,21.00,M,M,M,M,M,M,M,M,M,M,M,M,26.00,280.00,2025-03-06 20:04,27.52,KP68 062053Z AUTO 27011G21KT 02/M02 A2952 RMK AO1 PK WND 28026/2004 SLP982 T00221017 50005,M
DRA,2025-03-06 20:53,-116.0278,36.6206,1009.00,48.00,33.00,55.87,230.00,13.00,0.00,29.67,1002.90,10.00,22.00,CLR,M,M,M,M,M,M,M,M,M,M,M,M,M,M,42.07,KDRA 062053Z AUTO 23013G22KT 10SM CLR 09/01 A2967 RMK AO2 SLP029 60003 T00890006 58005,M
ELY,2025-03-06 20:53,-114.8453,39.2950,1909.00,M,M,M,310.00,8.00,0.00,29.47,M,1.00,M,FEW,BKN,OVC,M,1000.00,1900.00,2600.00,M,BR,M,M,M,M,M,M,M,KELY 062053Z AUTO 31008KT 1SM BR FEW010 BKN019 OVC026 A2947 RMK AO2 SLPNO 60000 51013 $,M
VGT,2025-03-06 20:53,-115.1933,36.2111,667.00,56.00,26.00,31.27,240.00,13.00,0.00,29.65,1005.10,10.00,22.00,OVC,M,M,M,7500.00,M,M,M,M,M,M,M,27.00,230.00,2025-03-06 20:04,56.00,KVGT 062053Z 24013G22KT 10SM OVC075 13/M03 A2965 RMK AO2 PK WND 23027/2004 SLP051 T01331033 53004,M
LOL,2025-03-06 20:53,-118.5701,40.0684,1192.43,40.00,31.00,69.97,360.00,11.00,T,29.67,1005.40,10.00,20.00,OVC,M,M,M,4900.00,M,M,M,M,M,M,M,M,M,M,32.58,KLOL 062053Z AUTO 36011G20KT 10SM OVC049 04/M01 A2967 RMK AO2 RAB09E15 SLP054 P0000 60000 T00441006 51013,M
BVU,2025-03-06 20:55,-114.8611,35.9475,671.00,55.40,23.00,28.20,230.00,18.00,0.00,29.67,M,10.00,25.00,BKN,BKN,BKN,M,7000.00,8000.00,9000.00,M,M,M,M,M,M,M,M,55.40,KBVU 062055Z AUTO 23018G25KT 10SM BKN070 BKN080 BKN090 13/M05 A2967 RMK AO2,M
RNO,2025-03-06 20:55,-119.7711,39.4839,1341.00,40.00,27.00,59.41,320.00,13.00,T,29.72,1006.10,9.00,M,BKN,OVC,M,M,3500.00,8000.00,M,M,M,M,M,M,M,M,M,31.82,KRNO 062055Z 32013KT 9SM BKN035 OVC080 04/M03 A2972 RMK AO2 WSHFT 2022 SNB25E54 SLP061 SH VC ALQDS P0000 60000 T00441028 51012,M
BAM,2025-03-06 20:55,-116.8743,40.5990,1382.36,37.40,32.00,80.65,320.00,12.00,0.00,29.60,M,10.00,16.00,SCT,BKN,OVC,M,1700.00,3000.00,5500.00,M,M,M,M,M,M,M,M,28.87,KBAM 062055Z AUTO 32012G16KT 10SM SCT017 BKN030 OVC055 03/00 A2960 RMK AO1,M
CXP,2025-03-06 20:55,-119.7326,39.1923,1431.00,41.00,24.80,52.17,M,4.00,0.00,29.72,M,10.00,10.00,SCT,SCT,M,M,4400.00,5500.00,M,M,M,M,M,M,M,M,M,37.93,KCXP 062055Z AUTO VRB04G10KT 10SM SCT044 SCT055 05/M04 A2972 RMK AO2,M
RTS,2025-03-06 20:55,-119.8764,39.6682,1539.00,33.80,30.20,86.49,290.00,12.00,0.00,29.73,M,M,M,FEW,FEW,M,M,1500.00,2200.00,M,M,-SN,M,M,M,M,M,M,24.29,KRTS 062055Z AUTO 29012KT -SN FEW015 FEW022 01/M01 A2973 RMK AO2,M
MEV,2025-03-06 20:55,-119.7500,38.9963,1441.42,41.00,21.20,44.85,280.00,7.00,0.00,29.70,M,10.00,17.00,FEW,SCT,M,M,3600.00,4300.00,M,M,M,M,M,M,M,M,M,35.75,KMEV 062055Z AUTO 28007G17KT 10SM FEW036 SCT043 05/M06 A2970 RMK AO2,M
HTH,2025-03-06 20:55,-118.6315,38.5448,1282.89,44.60,21.20,39.06,350.00,15.00,0.00,29.67,M,10.00,22.00,CLR,M,M,M,M,M,M,M,M,M,M,M,M,M,M,37.11,KHTH 062055Z AUTO 35015G22KT 10SM CLR 07/M06 A2967 RMK A01,M
INS,2025-03-06 20:55,-115.6733,36.5872,955.00,50.40,23.00,33.88,240.00,14.00,0.00,29.65,1002.40,10.00,M,BKN,BKN,M,M,8500.00,10000.00,M,M,M,M,M,M,27.00,260.00,2025-03-06 20:04,50.40,KINS 062055Z AUTO 24014KT 10SM BKN085 BKN100 10/M05 A2965 RMK AO2 PK WND 26027/04 SLP024 T01021050 50007 $,M
LSV,2025-03-06 20:55,-115.0343,36.2362,570.00,55.00,28.60,36.09,330.00,14.00,0.00,29.62,1002.30,10.00,20.00,M,M,M,M,M,M,M,M,-SHRA,M,M,M,M,M,M,55.00,KLSV 062055Z COR 33014G20KT -SHRA 10SM BKN070 13/M02 A2962 RMK AO2A SLP023 T01281019 50006 $ COR 2101,M
EKO,2025-03-06 20:56,-115.7860,40.8242,1367.00,35.00,30.00,81.78,310.00,5.00,T,29.51,999.90,10.00,M,FEW,OVC,M,M,2600.00,3500.00,M,M,M,M,M,M,M,M,M,29.96,KEKO 062056Z AUTO 31005KT 10SM FEW026 OVC035 02/M01 A2951 RMK AO2 SNE08 SLP999 P0000 60000 T00171011 53009,M
WMC,2025-03-06 20:56,-117.8072,40.9019,1315.00,M,M,M,M,M,0.00,29.65,M,M,M,M,M,M,M,M,M,M,M,M,M,M,M,M,M,M,M,KWMC 062056Z AUTO A2965 RMK AO2 SLPNO 51015 PWINO FZRANO TSNO,M
HND,2025-03-06 20:56,-115.1344,35.9729,742.79,52.00,28.00,39.30,260.00,14.00,0.00,29.70,1006.90,10.00,M,OVC,M,M,M,7000.00,M,M,M,M,M,M,M,26.00,280.00,2025-03-06 20:24,52.00,KHND 062056Z 26014KT 10SM OVC070 11/M02 A2970 RMK AO2 PK WND 28026/2024 SLP069 T01111022 51015 $,M
TPH,2025-03-06 20:56,-117.0904,38.0505,1654.00,41.00,25.00,52.61,310.00,23.00,0.00,29.60,1001.70,10.00,35.00,CLR,M,M,M,M,M,M,M,M,M,M,M,37.00,290.00,2025-03-06 20:38,30.41,KTPH 062056Z AUTO 31023G35KT 10SM CLR 05/M04 A2960 RMK AO2 PK WND 29037/2038 SLP017 T00501039 51000 $,M
LAS,2025-03-06 20:56,-115.1634,36.0719,663.00,54.00,25.00,32.26,250.00,13.00,0.00,29.69,1004.50,10.00,21.00,SCT,SCT,M,M,6500.00,9000.00,M,M,M,M,M,M,32.00,240.00,2025-03-06 19:58,54.00,KLAS 062056Z 25013G21KT 10SM SCT065 SCT090 12/M04 A2969 RMK AO2 PK WND 24032/1958 SLP045 VIRGA DSNT SW-NW-N T01221039 51011,M
NFL,2025-03-06 20:57,-118.7010,39.4166,1199.00,37.00,34.00,88.78,290.00,18.00,0.01,29.68,1003.40,4.00,24.00,SCT,OVC,M,M,1400.00,2200.00,M,M,-RA BR,M,M,M,M,M,M,26.33,KNFL 062057Z 29018G24KT 4SM -RA BR SCT014 OVC022 03/01 A2968 RMK AO2 SNE30 SLP034 WR// P0001 60003 T00280011 50008,M
DRA,2025-03-06 21:00,-116.0278,36.6206,1009.00,48.00,33.00,55.87,240.00,15.00,0.00,29.67,M,10.00,20.00,CLR,M,M,M,M,M,M,M,M,M,M,M,M,M,M,41.52,KDRA 062100Z AUTO 24015G20KT 10SM CLR 09/01 A2967 RMK AO2 WSHFT 2043 T00890006,M
10U,2025-03-06 21:00,-116.1876,41.9532,1637.00,33.80,28.40,80.36,330.00,9.00,0.00,29.55,M,10.00,16.00,FEW,SCT,BKN,M,2100.00,3400.00,4500.00,M,-UP,M,M,M,M,M,M,25.75,K10U 062100Z AUTO 33009G16KT 300V360 10SM -UP FEW021 SCT034 BKN045 01/M02 A2955 RMK AO2,M
LSV,2025-03-06 21:01,-115.0343,36.2362,570.00,55.40,28.40,35.28,320.00,12.00,0.00,29.63,1002.60,10.00,20.00,BKN,M,M,M,6500.00,M,M,M,-RA,M,M,M,M,M,M,55.40,KLSV 062101Z 32012G20KT 10SM -RA BKN065 13/M02 A2963 RMK AO2A RAB01 SLP026 $,M
LSV,2025-03-06 21:10,-115.0343,36.2362,570.00,55.40,26.60,32.76,320.00,7.00,0.00,29.63,1002.60,10.00,M,BKN,M,M,M,6500.00,M,M,M,M,M,M,M,M,M,M,55.40,KLSV 062110Z AUTO 32007KT 10SM BKN065 13/M03 A2963 RMK AO2 RAB01E10 SLP026 $,M
TMT,2025-03-06 21:10,-117.1971,39.4643,1749.34,31.00,28.60,90.69,230.00,10.00,0.00,29.62,M,2.00,M,BKN,OVC,M,M,1100.00,1600.00,M,M,-SN,M,M,M,M,M,M,21.71,KTMT 062110Z AUTO 23010KT 2SM -SN BKN011 OVC016 00/M02 A2962 RMK AO2 VIS 1 1/4V3 T10051019,M
LSV,2025-03-06 21:12,-115.0343,36.2362,570.00,55.40,26.60,32.76,320.00,7.00,0.00,29.63,1002.60,10.00,M,BKN,M,M,M,6500.00,M,M,M,-RA,M,M,M,M,M,M,55.40,KLSV 062112Z AUTO 32007KT 10SM -RA BKN065 13/M03 A2963 RMK AO2 RAB01E10RAB12 SLP026 $,M
BVU,2025-03-06 21:15,-114.8611,35.9475,671.00,55.40,23.00,28.20,240.00,15.00,0.00,29.67,M,10.00,25.00,FEW,BKN,M,M,7000.00,8500.00,M,M,M,M,M,M,M,M,M,55.40,KBVU 062115Z AUTO 24015G25KT 10SM FEW070 BKN085 13/M05 A2967 RMK AO2,M
BAM,2025-03-06 21:15,-116.8743,40.5990,1382.36,35.60,32.00,86.59,330.00,11.00,0.00,29.61,M,10.00,M,BKN,OVC,M,M,1400.00,1900.00,M,M,M,M,M,M,M,M,M,27.02,KBAM 062115Z AUTO 33011KT 10SM BKN014 OVC019 02/00 A2961 RMK AO1,M
CXP,2025-03-06 21:15,-119.7326,39.1923,1431.00,41.00,23.00,48.39,270.00,5.00,0.00,29.72,M,10.00,10.00,FEW,BKN,M,M,4200.00,5000.00,M,M,M,M,M,M,M,M,M,37.08,KCXP 062115Z AUTO 27005G10KT 10SM FEW042 BKN050 05/M05 A2972 RMK AO2,M
RTS,2025-03-06 21:15,-119.8764,39.6682,1539.00,35.60,28.40,74.80,310.00,12.00,0.00,29.74,M,M,17.00,SCT,SCT,SCT,M,1700.00,3000.00,3600.00,M,-SN,M,M,M,M,M,M,26.58,KRTS 062115Z AUTO 31012G17KT -SN SCT017 SCT030 SCT036 02/M02 A2974 RMK AO2,M
MEV,2025-03-06 21:15,-119.7500,38.9963,1441.42,41.00,21.20,44.85,280.00,9.00,0.00,29.70,M,10.00,M,FEW,SCT,M,M,5000.00,6000.00,M,M,M,M,M,M,M,M,M,34.70,KMEV 062115Z AUTO 28009KT 10SM FEW050 SCT060 05/M06 A2970 RMK AO2,M
HTH,2025-03-06 21:15,-118.6315,38.5448,1282.89,42.80,23.00,45.14,10.00,17.00,0.00,29.68,M,10.00,25.00,CLR,M,M,M,M,M,M,M,M,M,M,M,M,M,M,34.22,KHTH 062115Z AUTO 01017G25KT 10SM CLR 06/M05 A2968 RMK A01,M
10U,2025-03-06 21:20,-116.1876,41.9532,1637.00,33.80,26.60,74.63,330.00,10.00,0.00,29.55,M,10.00,M,FEW,BKN,OVC,M,2300.00,4800.00,7000.00,M,M,M,M,M,M,M,M,25.23,K10U 062120Z AUTO 33010KT 10SM FEW023 BKN048 OVC070 01/M03 A2955 RMK AO2,M
ELY,2025-03-06 21:22,-114.8453,39.2950,1909.00,M,M,M,340.00,8.00,0.00,29.49,M,2.00,M,SCT,BKN,OVC,M,2200.00,2800.00,3700.00,M,BR,M,M,M,M,M,M,M,KELY 062122Z AUTO 34008KT 2SM BR SCT022 BKN028 OVC037 A2949 RMK AO2 $,M
LSV,2025-03-06 21:22,-115.0343,36.2362,570.00,55.40,24.80,30.40,290.00,7.00,0.00,29.64,1003.00,10.00,M,BKN,M,M,M,6500.00,M,M,M,M,M,M,M,M,M,M,55.40,KLSV 062122Z AUTO 29007KT 10SM BKN065 13/M04 A2964 RMK AO2 RAE2055RAB01E10RAB12E22 SLP030 $,M
RTS,2025-03-06 21:25,-119.8764,39.6682,1539.00,35.60,28.40,74.80,300.00,13.00,0.00,29.74,M,M,M,SCT,BKN,BKN,M,1800.00,2500.00,3100.00,M,-RA,M,M,M,M,M,M,26.18,KRTS 062125Z AUTO 30013KT -RA SCT018 BKN025 BKN031 02/M02 A2974 RMK AO2,M
MEV,2025-03-06 21:25,-119.7500,38.9963,1441.42,41.00,23.00,48.39,260.00,16.00,0.00,29.71,M,10.00,22.00,SCT,M,M,M,6000.00,M,M,M,M,M,M,M,M,M,M,32.15,KMEV 062125Z AUTO 26016G22KT 10SM SCT060 05/M05 A2971 RMK AO2,M
NFL,2025-03-06 21:27,-118.7010,39.4166,1199.00,37.00,33.00,85.29,310.00,14.00,0.04,29.69,M,1.00,22.00,OVC,M,M,M,1300.00,M,M,M,RASN BR,M,M,M,M,M,M,27.61,KNFL 062127Z 31014G22KT 1SM RASN BR OVC013 03/01 A2969 RMK AO2 UPB05E08SNB19 WR// P0004 T00280006,M
EKO,2025-03-06 21:28,-115.7860,40.8242,1367.00,35.00,32.00,88.68,300.00,6.00,T,29.52,M,5.00,M,SCT,BKN,OVC,M,1700.00,2700.00,3600.00,M,-SN BR,M,M,M,M,M,M,29.14,KEKO 062128Z AUTO 30006KT 5SM -SN BR SCT017 BKN027 OVC036 02/00 A2952 RMK AO2 SNB05 P0000 T00170000,M
TMT,2025-03-06 21:30,-117.1971,39.4643,1749.34,31.00,29.00,92.19,220.00,11.00,0.00,29.63,M,1.75,16.00,BKN,OVC,M,M,1200.00,1600.00,M,M,-SN,M,M,M,M,M,M,21.20,KTMT 062130Z AUTO 22011G16KT 1 3/4SM -SN BKN012 OVC016 M01/M02 A2963 RMK AO2 T10061016,M
ELY,2025-03-06 21:33,-114.8453,39.2950,1909.00,M,M,M,330.00,9.00,0.00,29.49,M,4.00,M,BKN,OVC,M,M,2600.00,3600.00,M,M,HZ,M,M,M,M,M,M,M,KELY 062133Z AUTO 33009KT 4SM HZ BKN026 OVC036 A2949 RMK AO2 $,M
EKO,2025-03-06 21:34,-115.7860,40.8242,1367.00,34.00,30.00,85.11,300.00,5.00,T,29.52,M,1.75,M,FEW,BKN,OVC,M,1500.00,2300.00,3600.00,M,-SN BR,M,M,M,M,M,M,28.77,KEKO 062134Z AUTO 30005KT 1 3/4SM -SN BR FEW015 BKN023 OVC036 01/M01 A2952 RMK AO2 SNB05 P0000 T00111011,M
NFL,2025-03-06 21:34,-118.7010,39.4166,1199.00,34.00,32.00,92.29,330.00,9.00,0.06,29.70,M,0.25,22.00,OVC,M,M,M,1000.00,M,M,M,SN FG,M,M,M,M,M,M,26.00,KNFL 062134Z 33009G22KT 1/4SM SN FG OVC010 01/00 A2970 RMK AO2 RAE34UPB05E08SNB19 WR// P0006 T00110000,M
BVU,2025-03-06 21:35,-114.8611,35.9475,671.00,55.40,21.20,26.13,240.00,16.00,0.00,29.67,M,10.00,26.00,FEW,BKN,M,M,7000.00,8500.00,M,M,M,M,M,M,M,M,M,55.40,KBVU 062135Z AUTO 24016G26KT 10SM FEW070 BKN085 13/M06 A2967 RMK AO2,M
BAM,2025-03-06 21:35,-116.8743,40.5990,1382.36,35.60,32.00,86.59,330.00,15.00,0.00,29.62,M,10.00,M,SCT,OVC,M,M,1500.00,2100.00,M,M,M,M,M,M,M,M,M,25.45,KBAM 062135Z AUTO 33015KT 10SM SCT015 OVC021 02/00 A2962 RMK AO1,M
CXP,2025-03-06 21:35,-119.7326,39.1923,1431.00,41.00,24.80,52.17,330.00,9.00,0.00,29.73,M,10.00,M,SCT,SCT,M,M,4400.00,5500.00,M,M,M,M,M,M,M,M,M,34.70,KCXP 062135Z AUTO 33009KT 10SM SCT044 SCT055 05/M04 A2973 RMK AO2,M
HTH,2025-03-06 21:35,-118.6315,38.5448,1282.89,42.80,26.60,52.45,360.00,21.00,0.00,29.69,M,10.00,27.00,CLR,M,M,M,M,M,M,M,M,M,M,M,M,M,M,33.26,KHTH 062135Z AUTO 36021G27KT 10SM CLR 06/M03 A2969 RMK A01,M
10U,2025-03-06 21:40,-116.1876,41.9532,1637.00,33.80,28.40,80.36,310.00,10.00,0.00,29.56,M,10.00,M,OVC,M,M,M,5000.00,M,M,M,M,M,M,M,M,M,M,25.23,K10U 062140Z AUTO 31010KT 10SM OVC050 01/M02 A2956 RMK AO2,M
NFL,2025-03-06 21:44,-118.7010,39.4166,1199.00,34.00,32.00,92.29,320.00,8.00,0.07,29.70,M,5.00,M,SCT,OVC,M,M,1000.00,1800.00,M,M,-RASN,M,M,M,M,M,M,26.58,KNFL 062144Z 32008KT 5SM -RASN SCT010 OVC018 01/00 A2970 RMK AO2 RAE34B44UPB05E08SNB19 VIS SE-S 2 1/2 WR// P0007 T00110000,M
EKO,2025-03-06 21:47,-115.7860,40.8242,1367.00,34.00,31.00,88.63,300.00,6.00,T,29.53,M,2.50,M,FEW,OVC,M,M,1500.00,2300.00,M,M,-SN BR,M,M,M,M,M,M,27.94,KEKO 062147Z AUTO 30006KT 2 1/2SM -SN BR FEW015 OVC023 01/M01 A2953 RMK AO2 SNB05 P0000 T00111006,M
NFL,2025-03-06 21:48,-118.7010,39.4166,1199.00,35.00,33.00,92.32,320.00,8.00,0.07,29.70,M,5.00,M,FEW,BKN,OVC,M,600.00,2000.00,3600.00,M,-RASN,M,M,M,M,M,M,27.81,KNFL 062148Z 32008KT 5SM -RASN FEW006 BKN020 OVC036 02/01 A2970 RMK AO2 RAE34B44UPB05E08SNB19 VIS SE-S 2 1/2 WR// P0007 T00170006,M
TMT,2025-03-06 21:50,-117.1971,39.4643,1749.34,32.00,30.00,92.22,230.00,13.00,0.00,29.63,M,7.00,M,SCT,BKN,OVC,M,1400.00,2300.00,4300.00,M,-SN,M,M,M,M,M,M,21.57,KTMT 062150Z AUTO 23013KT 7SM -SN SCT014 BKN023 OVC043 00/M01 A2963 RMK AO2 T10011011,M
P68,2025-03-06 21:53,-116.0056,39.6014,1993.00,35.00,27.00,72.32,290.00,9.00,0.00,29.55,999.30,M,18.00,M,M,M,M,M,M,M,M,M,M,M,M,27.00,290.00,2025-03-06 21:03,27.24,KP68 062153Z AUTO 29009G18KT 02/M03 A2955 RMK AO1 PK WND 29027/2103 SLP993 T00171028,M
DRA,2025-03-06 21:53,-116.0278,36.6206,1009.00,50.00,30.00,45.93,230.00,10.00,0.00,29.67,1002.70,10.00,19.00,CLR,M,M,M,M,M,M,M,M,M,M,M,M,M,M,50.00,KDRA 062153Z AUTO 23010G19KT 10SM CLR 10/M01 A2967 RMK AO2 WSHFT 2043 SLP027 T01001011,M
ELY,2025-03-06 21:53,-114.8453,39.2950,1909.00,M,M,M,330.00,9.00,0.00,29.50,M,6.00,M,BKN,BKN,OVC,M,2700.00,3400.00,4500.00,M,HZ,M,M,M,M,M,M,M,KELY 062153Z AUTO 33009KT 6SM HZ BKN027 BKN034 OVC045 A2950 RMK AO2 SLPNO $,M
VGT,2025-03-06 21:53,-115.1933,36.2111,667.00,55.00,25.00,31.11,270.00,9.00,T,29.67,1005.90,10.00,20.00,OVC,M,M,M,6500.00,M,M,M,M,M,M,M,M,M,M,55.00,KVGT 062153Z 27009G20KT 10SM OVC065 13/M04 A2967 RMK AO2 RAB38E48 SLP059 P0000 T01281039,M
LOL,2025-03-06 21:53,-118.5701,40.0684,1192.43,40.00,30.00,67.18,350.00,12.00,0.00,29.69,1006.30,10.00,M,SCT,BKN,OVC,M,2700.00,3400.00,5500.00,M,M,M,M,M,M,M,M,32.18,KLOL 062153Z AUTO 35012KT 10SM SCT027 BKN034 OVC055 04/M01 A2969 RMK AO2 SLP063 T00441011,M
EKO,2025-03-06 21:54,-115.7860,40.8242,1367.00,33.80,30.20,86.49,270.00,8.00,T,29.53,M,4.00,M,OVC,M,M,M,2300.00,M,M,M,-SN BR,M,M,M,M,M,M,26.33,KEKO 062154Z AUTO 27008KT 4SM -SN BR OVC023 01/M01 A2953 RMK AO2 SNB05 P0000,M
BVU,2025-03-06 21:55,-114.8611,35.9475,671.00,57.20,23.00,26.42,220.00,20.00,0.00,29.67,M,10.00,26.00,SCT,BKN,M,M,7000.00,8000.00,M,M,M,M,M,M,M,M,M,57.20,KBVU 062155Z AUTO 22020G26KT 10SM SCT070 BKN080 14/M05 A2967 RMK AO2,M
RNO,2025-03-06 21:55,-119.7711,39.4839,1341.00,40.00,27.00,59.41,320.00,14.00,0.00,29.74,1006.80,10.00,23.00,FEW,BKN,OVC,M,2500.00,5500.00,9000.00,M,M,M,M,M,26.00,330.00,2025-03-06 21:20,31.47,KRNO 062155Z 32014G23KT 10SM FEW025 BKN055 OVC090 04/M03 A2974 RMK AO2 PK WND 33026/2120 SLP068 T00441028,M
BAM,2025-03-06 21:55,-116.8743,40.5990,1382.36,35.60,32.00,86.59,330.00,14.00,0.00,29.63,M,7.00,23.00,OVC,M,M,M,1800.00,M,M,M,M,M,M,M,M,M,M,25.80,KBAM 062155Z AUTO 33014G23KT 7SM OVC018 02/00 A2963 RMK AO1,M
CXP,2025-03-06 21:55,-119.7326,39.1923,1431.00,39.20,24.80,55.95,10.00,12.00,0.00,29.75,M,8.00,M,SCT,BKN,BKN,M,2700.00,3400.00,3900.00,M,-RA,M,M,M,M,M,M,31.17,KCXP 062155Z AUTO 01012KT 8SM -RA SCT027 BKN034 BKN039 04/M04 A2975 RMK AO2,M
LSV,2025-03-06 21:55,-115.0343,36.2362,570.00,56.00,25.00,30.00,250.00,18.00,T,29.64,1003.10,10.00,22.00,BKN,M,M,M,7000.00,M,M,M,M,M,M,M,M,M,M,56.00,KLSV 062155Z AUTO 25018G22KT 10SM BKN070 13/M04 A2964 RMK AO2 RAB01E10RAB12E22 SLP031 P0000 T01341038 $,M
RTS,2025-03-06 21:55,-119.8764,39.6682,1539.00,35.60,28.40,74.80,300.00,11.00,0.00,29.75,M,M,16.00,SCT,BKN,OVC,M,1900.00,2500.00,4400.00,M,-RA,M,M,M,M,M,M,27.02,KRTS 062155Z AUTO 30011G16KT -RA SCT019 BKN025 OVC044 02/M02 A2975 RMK AO2,M
MEV,2025-03-06 21:55,-119.7500,38.9963,1441.42,41.00,23.00,48.39,260.00,7.00,0.00,29.72,M,10.00,M,FEW,SCT,M,M,6000.00,7000.00,M,M,M,M,M,M,M,M,M,35.75,KMEV 062155Z AUTO 26007KT 10SM FEW060 SCT070 05/M05 A2972 RMK AO2,M
HTH,2025-03-06 21:55,-118.6315,38.5448,1282.89,42.80,26.60,52.45,360.00,21.00,0.00,29.70,M,10.00,M,CLR,M,M,M,M,M,M,M,M,M,M,M,M,M,M,33.26,KHTH 062155Z AUTO 36021KT 10SM CLR 06/M03 A2970 RMK A01,M
INS,2025-03-06 21:55,-115.6733,36.5872,955.00,51.40,24.00,34.05,260.00,13.00,0.00,29.65,1002.20,10.00,M,CLR,M,M,M,M,M,M,M,M,M,M,M,M,M,M,51.40,KINS 062155Z AUTO 26013KT 10SM CLR 11/M04 A2965 RMK AO2 SLP022 T01081044 $,M
EKO,2025-03-06 21:56,-115.7860,40.8242,1367.00,34.00,31.00,88.63,290.00,8.00,T,29.53,1000.70,3.00,M,OVC,M,M,M,2300.00,M,M,M,-SN BR,M,M,M,M,M,M,26.58,KEKO 062156Z AUTO 29008KT 3SM -SN BR OVC023 01/M01 A2953 RMK AO2 SNB05 SLP007 P0000 T00111006,M
WMC,2025-03-06 21:56,-117.8072,40.9019,1315.00,M,M,M,M,M,0.00,29.66,M,M,M,M,M,M,M,M,M,M,M,M,M,M,M,M,M,M,M,KWMC 062156Z AUTO A2966 RMK AO2 SLPNO PWINO FZRANO TSNO,M
HND,2025-03-06 21:56,-115.1344,35.9729,742.79,53.00,28.00,37.88,230.00,16.00,T,29.70,1007.10,10.00,22.00,FEW,SCT,M,M,3600.00,10000.00,M,M,M,M,M,M,M,M,M,53.00,KHND 062156Z 23016G22KT 10SM FEW036 SCT100 12/M02 A2970 RMK AO2 RAB26E45 SLP071 P0000 T01171022 $,M
TPH,2025-03-06 21:56,-117.0904,38.0505,1654.00,41.00,24.00,50.46,320.00,19.00,0.00,29.62,1002.60,10.00,30.00,BKN,M,M,M,9500.00,M,M,M,M,M,M,M,36.00,310.00,2025-03-06 21:02,31.34,KTPH 062156Z AUTO 32019G30KT 10SM BKN095 05/M04 A2962 RMK AO2 PK WND 31036/2102 SLP026 T00501044 $,M
LAS,2025-03-06 21:56,-115.1634,36.0719,663.00,55.00,24.00,29.83,260.00,15.00,0.00,29.69,1004.60,10.00,26.00,SCT,BKN,BKN,M,6000.00,10000.00,16000.00,M,M,M,M,M,26.00,260.00,2025-03-06 21:52,55.00,KLAS 062156Z 26015G26KT 10SM SCT060 BKN100 BKN160 13/M04 A2969 RMK AO2 PK WND 26026/2152 SLP046 VIRGA DSNT ALQDS T01281044,M
LSV,2025-03-06 21:56,-115.0343,36.2362,570.00,55.40,24.80,30.40,270.00,16.00,0.00,29.64,1003.10,10.00,22.00,BKN,M,M,M,7000.00,M,M,M,M,M,M,M,M,M,M,55.40,KLSV 062156Z AUTO 27016G22KT 10SM BKN070 13/M04 A2964 RMK AO2 WSHFT 49 SLP031 $,M
NFL,2025-03-06 21:57,-118.7010,39.4166,1199.00,37.00,35.00,92.39,310.00,7.00,0.07,29.70,1004.00,5.00,M,FEW,BKN,OVC,M,800.00,2400.00,3600.00,M,-RASN,M,M,M,M,M,M,30.87,KNFL 062157Z 31007KT 5SM -RASN FEW008 BKN024 OVC036 03/02 A2970 RMK AO2 RAE34B44UPB05E08SNB19 SLP040 VIS SE-S 2 1/2 WR// P0007 T00280017,M
10U,2025-03-06 22:00,-116.1876,41.9532,1637.00,33.80,28.40,80.36,310.00,10.00,0.00,29.57,M,10.00,M,FEW,OVC,M,M,3400.00,5500.00,M,M,M,M,M,M,M,M,M,25.23,K10U 062200Z AUTO 31010KT 10SM FEW034 OVC055 01/M02 A2957 RMK AO2,M
LSV,2025-03-06 22:02,-115.0343,36.2362,570.00,55.40,24.80,30.40,320.00,17.00,0.00,29.64,1003.10,10.00,22.00,BKN,M,M,M,6500.00,M,M,M,M,M,M,M,M,M,M,55.40,KLSV 062202Z AUTO 32017G22KT 10SM BKN065 13/M04 A2964 RMK AO2 WSHFT 2156 SLP031 $,M
ELY,2025-03-06 22:03,-114.8453,39.2950,1909.00,M,M,M,340.00,8.00,0.00,29.50,M,9.00,M,FEW,BKN,OVC,M,2700.00,4400.00,5000.00,M,M,M,M,M,M,M,M,M,KELY 062203Z AUTO 34008KT 9SM FEW027 BKN044 OVC050 A2950 RMK AO2 $,M
LSV,2025-03-06 22:04,-115.0343,36.2362,570.00,53.60,26.60,34.98,330.00,17.00,0.00,29.64,1003.10,10.00,22.00,BKN,M,M,M,6500.00,M,M,M,-RA,M,M,M,M,M,M,53.60,KLSV 062204Z AUTO 33017G22KT 10SM -RA BKN065 12/M03 A2964 RMK AO2 RAB04 SLP031 $,M
RNO,2025-03-06 22:09,-119.7711,39.4839,1341.00,38.00,29.00,69.74,330.00,19.00,T,29.74,M,2.00,26.00,BKN,OVC,M,M,2400.00,6000.00,M,M,-SN,M,M,M,26.00,330.00,2025-03-06 22:08,27.37,KRNO 062209Z 33019G26KT 2SM -SN BKN024 OVC060 03/M02 A2974 RMK AO2 PK WND 33026/2208 SNB07 P0000 T00331017,M
LSV,2025-03-06 22:10,-115.0343,36.2362,570.00,53.60,28.40,37.67,290.00,18.00,0.00,29.64,1003.10,10.00,20.00,BKN,M,M,M,6500.00,M,M,M,-RA,M,M,M,M,M,M,53.60,KLSV 062210Z AUTO 29018G20KT 10SM -RA BKN065 12/M02 A2964 RMK AO2 WSHFT 05 RAB04 SLP031 $,M
TMT,2025-03-06 22:10,-117.1971,39.4643,1749.34,32.00,30.60,94.50,220.00,12.00,0.00,29.64,M,10.00,M,SCT,BKN,OVC,M,900.00,3000.00,5000.00,M,M,M,M,M,M,M,M,22.00,KTMT 062210Z AUTO 22012KT 10SM SCT009 BKN030 OVC050 00/M01 A2964 RMK AO2 T00001008,M
BVU,2025-03-06 22:15,-114.8611,35.9475,671.00,57.20,23.00,26.42,250.00,21.00,0.00,29.67,M,10.00,M,SCT,BKN,BKN,M,7000.00,8000.00,10000.00,M,M,M,M,M,M,M,M,57.20,KBVU 062215Z AUTO 25021KT 10SM SCT070 BKN080 BKN100 14/M05 A2967 RMK AO2,M
BAM,2025-03-06 22:15,-116.8743,40.5990,1382.36,35.60,32.00,86.59,330.00,17.00,0.00,29.64,M,7.00,21.00,BKN,OVC,M,M,1600.00,2400.00,M,M,M,M,M,M,M,M,M,24.79,KBAM 062215Z AUTO 33017G21KT 7SM BKN016 OVC024 02/00 A2964 RMK AO1,M
CXP,2025-03-06 22:15,-119.7326,39.1923,1431.00,37.40,28.40,69.67,340.00,7.00,0.00,29.76,M,7.00,13.00,FEW,BKN,BKN,M,2000.00,2800.00,3600.00,M,-SN,M,M,M,M,M,M,31.36,KCXP 062215Z AUTO 34007G13KT 7SM -SN FEW020 BKN028 BKN036 03/M02 A2976 RMK AO2,M
RTS,2025-03-06 22:15,-119.8764,39.6682,1539.00,35.60,26.60,69.46,330.00,13.00,0.00,29.76,M,M,M,SCT,BKN,OVC,M,2000.00,2500.00,6000.00,M,M,M,M,M,M,M,M,26.18,KRTS 062215Z AUTO 33013KT SCT020 BKN025 OVC060 02/M03 A2976 RMK AO2,M
MEV,2025-03-06 22:15,-119.7500,38.9963,1441.42,41.00,21.20,44.85,290.00,7.00,0.00,29.72,M,10.00,M,FEW,BKN,M,M,4900.00,6000.00,M,M,M,M,M,M,M,M,M,35.75,KMEV 062215Z AUTO 29007KT 250V320 10SM FEW049 BKN060 05/M06 A2972 RMK AO2,M
HTH,2025-03-06 22:15,-118.6315,38.5448,1282.89,41.00,26.60,56.22,360.00,14.00,0.00,29.71,M,10.00,21.00,FEW,M,M,M,4600.00,M,M,M,M,M,M,M,M,M,M,32.76,KHTH 062215Z AUTO 36014G21KT 10SM FEW046 05/M03 A2971 RMK A01,M
LSV,2025-03-06 22:16,-115.0343,36.2362,570.00,53.60,28.40,37.67,210.00,16.00,0.00,29.64,1003.10,10.00,24.00,BKN,M,M,M,6500.00,M,M,M,-RA,M,M,M,M,M,M,53.60,KLSV 062216Z AUTO 21016G24KT 10SM -RA BKN065 12/M02 A2964 RMK AO2 WSHFT 13 RAE2155RAB04E11DZB11E13RAB13 SLP031 $,M
10U,2025-03-06 22:20,-116.1876,41.9532,1637.00,33.80,28.40,80.36,320.00,10.00,0.00,29.57,M,10.00,M,FEW,BKN,OVC,M,2800.00,3300.00,6000.00,M,M,M,M,M,M,M,M,25.23,K10U 062220Z AUTO 32010KT 10SM FEW028 BKN033 OVC060 01/M02 A2957 RMK AO2,M
INS,2025-03-06 22:21,-115.6733,36.5872,955.00,51.80,23.00,32.17,290.00,12.00,0.00,29.65,1002.20,10.00,M,CLR,M,M,M,M,M,M,M,M,M,M,M,M,M,M,51.80,KINS 062221Z AUTO 29012KT 10SM CLR 11/M05 A2965 RMK AO2 WSHFT 13 SLP022 $,M
RNO,2025-03-06 22:22,-119.7711,39.4839,1341.00,38.00,30.00,72.64,310.00,13.00,T,29.75,M,9.00,22.00,BKN,OVC,M,M,3500.00,7000.00,M,M,-SN,M,M,M,26.00,330.00,2025-03-06 22:08,29.26,KRNO 062222Z 31013G22KT 9SM -SN BKN035 OVC070 03/M01 A2975 RMK AO2 PK WND 33026/2208 SNB07 P0000 T00331011,M
LSV,2025-03-06 22:23,-115.0343,36.2362,570.00,53.60,24.80,32.46,220.00,15.00,0.00,29.64,1003.10,10.00,24.00,SCT,M,M,M,6500.00,M,M,M,M,M,M,M,M,M,M,53.60,KLSV 062223Z AUTO 22015G24KT 10SM SCT065 12/M04 A2964 RMK AO2 RAE2155RAB04E11DZB11E13RAB13E23 SLP031 $,M
TMT,2025-03-06 22:30,-117.1971,39.4643,1749.34,32.00,30.00,92.22,220.00,11.00,0.00,29.64,M,10.00,M,SCT,BKN,OVC,M,900.00,1700.00,3800.00,M,M,M,M,M,M,M,M,22.47,KTMT 062230Z AUTO 22011KT 10SM SCT009 BKN017 OVC038 00/M01 A2964 RMK AO2 T00001012,M
RNO,2025-03-06 22:32,-119.7711,39.4839,1341.00,38.00,30.00,72.64,320.00,13.00,T,29.75,M,2.00,M,OVC,M,M,M,2900.00,M,M,M,-SN,M,M,M,26.00,330.00,2025-03-06 22:08,29.26,KRNO 062232Z 32013KT 2SM -SN OVC029 03/M01 A2975 RMK AO2 PK WND 33026/2208 SNB07 P0000 T00331011,M
BVU,2025-03-06 22:35,-114.8611,35.9475,671.00,55.40,23.00,28.20,250.00,13.00,0.00,29.68,M,10.00,22.00,SCT,BKN,M,M,8000.00,10000.00,M,M,M,M,M,M,M,M,M,55.40,KBVU 062235Z AUTO 25013G22KT 10SM SCT080 BKN100 13/M05 A2968 RMK AO2,M
EKO,2025-03-06 22:35,-115.7860,40.8242,1367.00,34.00,31.00,88.63,270.00,5.00,T,29.55,M,2.50,M,BKN,OVC,M,M,2900.00,3800.00,M,M,-SN BR,M,M,M,M,M,M,28.77,KEKO 062235Z AUTO 27005KT 2 1/2SM -SN BR BKN029 OVC038 01/M01 A2955 RMK AO2 P0000 T00111006,M
BAM,2025-03-06 22:35,-116.8743,40.5990,1382.36,33.80,32.00,93.03,340.00,11.00,0.00,29.65,M,4.00,M,SCT,SCT,OVC,M,1000.00,1600.00,3200.00,M,M,M,M,M,M,M,M,24.74,KBAM 062235Z AUTO 34011KT 4SM SCT010 SCT016 OVC032 01/00 A2965 RMK AO1,M
CXP,2025-03-06 22:35,-119.7326,39.1923,1431.00,37.40,28.40,69.67,350.00,11.00,0.00,29.76,M,2.50,17.00,FEW,FEW,SCT,M,2000.00,2700.00,3600.00,M,-RA HZ,M,M,M,M,M,M,29.29,KCXP 062235Z AUTO 35011G17KT 2 1/2SM -RA HZ FEW020 FEW027 SCT036 03/M02 A2976 RMK AO2 VIS 1 3/4V4,M
RTS,2025-03-06 22:35,-119.8764,39.6682,1539.00,35.60,28.40,74.80,330.00,12.00,0.00,29.76,M,M,M,BKN,BKN,OVC,M,2200.00,3500.00,4500.00,M,M,M,M,M,M,M,M,26.58,KRTS 062235Z AUTO 33012KT BKN022 BKN035 OVC045 02/M02 A2976 RMK AO2,M
MEV,2025-03-06 22:35,-119.7500,38.9963,1441.42,41.00,24.80,52.17,360.00,14.00,0.00,29.73,M,10.00,M,FEW,SCT,BKN,M,3300.00,4000.00,4700.00,M,M,M,M,M,M,M,M,32.76,KMEV 062235Z AUTO 36014KT 10SM FEW033 SCT040 BKN047 05/M04 A2973 RMK AO2,M
HTH,2025-03-06 22:35,-118.6315,38.5448,1282.89,41.00,28.40,60.54,20.00,14.00,0.00,29.71,M,10.00,M,FEW,SCT,SCT,M,4400.00,5000.00,5500.00,M,M,M,M,M,M,M,M,32.76,KHTH 062235Z AUTO 02014KT 10SM FEW044 SCT050 SCT055 05/M02 A2971 RMK A01,M
ELY,2025-03-06 22:38,-114.8453,39.2950,1909.00,M,M,M,310.00,8.00,0.00,29.52,M,10.00,M,BKN,OVC,M,M,2900.00,3700.00,M,M,M,M,M,M,M,M,M,M,KELY 062238Z AUTO 31008KT 10SM BKN029 OVC037 A2952 RMK AO2 $,M
EKO,2025-03-06 22:40,-115.7860,40.8242,1367.00,34.00,31.00,88.63,280.00,9.00,T,29.55,M,3.00,M,OVC,M,M,M,3300.00,M,M,M,-SN BR,M,M,M,M,M,M,26.00,KEKO 062240Z AUTO 28009KT 3SM -SN BR OVC033 01/M01 A2955 RMK AO2 P0000 T00111006,M
10U,2025-03-06 22:40,-116.1876,41.9532,1637.00,33.80,28.40,80.36,330.00,10.00,0.00,29.57,M,10.00,M,SCT,SCT,BKN,M,3100.00,3800.00,7000.00,M,M,M,M,M,M,M,M,25.23,K10U 062240Z AUTO 33010KT 10SM SCT031 SCT038 BKN070 01/M02 A2957 RMK AO2,M
RNO,2025-03-06 22:45,-119.7711,39.4839,1341.00,37.00,32.00,81.93,310.00,11.00,T,29.77,M,3.00,M,BKN,OVC,M,M,2900.00,5500.00,M,M,-SN,M,M,M,26.00,330.00,2025-03-06 22:08,28.79,KRNO 062245Z 31011KT 3SM -SN BKN029 OVC055 03/00 A2977 RMK AO2 PK WND 33026/2208 SNB07 P0000 T00280000,M
NFL,2025-03-06 22:46,-118.7010,39.4166,1199.00,39.00,35.00,85.42,330.00,11.00,T,29.71,M,10.00,M,FEW,OVC,M,M,1000.00,3000.00,M,M,M,M,M,M,M,M,M,31.31,KNFL 062246Z 33011KT 10SM FEW010 OVC030 04/02 A2971 RMK AO2 RAE40SNE40 WR// P0000 T00390017,M
LSV,2025-03-06 22:48,-115.0343,36.2362,570.00,55.40,24.80,30.40,270.00,17.00,0.00,29.64,1003.10,10.00,25.00,CLR,M,M,M,M,M,M,M,M,M,M,M,M,M,M,55.40,KLSV 062248Z AUTO 27017G25KT 10SM CLR 13/M04 A2964 RMK AO2 WSHFT 34 RAB04E11DZB11E13RAB13E23 SLP031 $,M
TMT,2025-03-06 22:50,-117.1971,39.4643,1749.34,32.00,30.00,92.22,250.00,12.00,0.00,29.65,M,10.00,15.00,SCT,BKN,OVC,M,1100.00,2200.00,3700.00,M,M,M,M,M,M,M,M,22.00,KTMT 062250Z AUTO 25012G15KT 10SM SCT011 BKN022 OVC037 00/M01 A2965 RMK AO2 T00001011,M
RNO,2025-03-06 22:52,-119.7711,39.4839,1341.00,37.40,30.20,74.98,320.00,11.00,0.01,29.77,M,8.00,M,BKN,OVC,M,M,3500.00,7000.00,M,M,-SN,M,M,M,26.00,330.00,2025-03-06 22:08,29.29,KRNO 062252Z 32011KT 8SM -SN BKN035 OVC070 03/M01 A2977 RMK AO2 PK WND 33026/2208 SNB07 P0001,M
P68,2025-03-06 22:53,-116.0056,39.6014,1993.00,36.00,27.00,69.51,300.00,12.00,0.00,29.56,999.90,M,18.00,M,M,M,M,M,M,M,M,M,M,M,M,M,M,M,27.09,KP68 062253Z AUTO 30012G18KT 02/M03 A2956 RMK AO1 SLP999 T00221028,M
DRA,2025-03-06 22:53,-116.0278,36.6206,1009.00,51.00,27.00,39.14,210.00,17.00,0.00,29.66,1002.50,10.00,22.00,CLR,M,M,M,M,M,M,M,M,M,M,M,26.00,220.00,2025-03-06 22:02,51.00,KDRA 062253Z AUTO 21017G22KT 10SM CLR 11/M03 A2966 RMK AO2 PK WND 22026/2202 SLP025 T01061028,M
ELY,2025-03-06 22:53,-114.8453,39.2950,1909.00,M,M,M,350.00,7.00,0.00,29.52,M,5.00,M,FEW,BKN,OVC,M,2100.00,2700.00,3500.00,M,HZ,M,M,M,M,M,M,M,KELY 062253Z AUTO 35007KT 5SM HZ FEW021 BKN027 OVC035 A2952 RMK AO2 SLPNO $,M
VGT,2025-03-06 22:53,-115.1933,36.2111,667.00,57.00,24.00,27.75,230.00,11.00,0.00,29.66,1005.60,10.00,22.00,BKN,M,M,M,7000.00,M,M,M,M,M,M,M,M,M,M,57.00,KVGT 062253Z 23011G22KT 10SM BKN070 14/M04 A2966 RMK AO2 SLP056 T01391044,M
LOL,2025-03-06 22:53,-118.5701,40.0684,1192.43,41.00,27.00,57.15,330.00,17.00,0.00,29.71,1006.80,10.00,24.00,FEW,OVC,M,M,3700.00,7000.00,M,M,M,M,M,M,M,M,M,31.87,KLOL 062253Z AUTO 33017G24KT 10SM FEW037 OVC070 05/M03 A2971 RMK AO2 SLP068 T00501028,M
BVU,2025-03-06 22:55,-114.8611,35.9475,671.00,55.40,24.80,30.40,250.00,18.00,0.00,29.68,M,10.00,M,SCT,BKN,BKN,M,7500.00,8500.00,11000.00,M,M,M,M,M,M,M,M,55.40,KBVU 062255Z AUTO 25018KT 10SM SCT075 BKN085 BKN110 13/M04 A2968 RMK AO2,M
RNO,2025-03-06 22:55,-119.7711,39.4839,1341.00,38.00,31.00,75.65,320.00,12.00,0.01,29.77,1008.10,9.00,17.00,BKN,OVC,M,M,3500.00,7000.00,M,M,-SN,M,M,M,26.00,330.00,2025-03-06 22:08,29.64,KRNO 062255Z 32012G17KT 9SM -SN BKN035 OVC070 03/M01 A2977 RMK AO2 PK WND 33026/2208 UPB54E55SNB07E54B55 SLP081 P0001 T00331006,M
BAM,2025-03-06 22:55,-116.8743,40.5990,1382.36,33.80,32.00,93.03,330.00,14.00,0.00,29.67,M,1.75,M,BKN,OVC,M,M,800.00,1400.00,M,M,M,M,M,M,M,M,M,23.48,KBAM 062255Z AUTO 33014KT 1 3/4SM BKN008 OVC014 01/00 A2967 RMK AO1,M
CXP,2025-03-06 22:55,-119.7326,39.1923,1431.00,37.40,28.40,69.67,320.00,13.00,0.00,29.77,M,10.00,20.00,FEW,SCT,BKN,M,1700.00,2800.00,3400.00,M,M,M,M,M,M,M,M,28.49,KCXP 062255Z AUTO 32013G20KT 10SM FEW017 SCT028 BKN034 03/M02 A2977 RMK AO2,M
RTS,2025-03-06 22:55,-119.8764,39.6682,1539.00,35.60,26.60,69.46,350.00,13.00,0.00,29.77,M,M,19.00,SCT,BKN,OVC,M,2300.00,3300.00,4200.00,M,M,M,M,M,M,M,M,26.18,KRTS 062255Z AUTO 35013G19KT SCT023 BKN033 OVC042 02/M03 A2977 RMK AO2,M
MEV,2025-03-06 22:55,-119.7500,38.9963,1441.42,37.40,32.00,80.65,20.00,14.00,0.00,29.75,M,10.00,19.00,FEW,FEW,BKN,M,2700.00,3100.00,4200.00,M,M,M,M,M,M,M,M,28.12,KMEV 062255Z AUTO 02014G19KT 10SM FEW027 FEW031 BKN042 03/M00 A2975 RMK AO2,M
HTH,2025-03-06 22:55,-118.6315,38.5448,1282.89,41.00,28.40,60.54,20.00,15.00,0.00,29.72,M,10.00,20.00,FEW,SCT,SCT,M,3000.00,3700.00,4300.00,M,M,M,M,M,M,M,M,32.45,KHTH 062255Z AUTO 02015G20KT 10SM FEW030 SCT037 SCT043 05/M02 A2972 RMK A01,M
INS,2025-03-06 22:55,-115.6733,36.5872,955.00,53.00,16.00,22.82,260.00,12.00,0.00,29.65,1002.00,10.00,M,CLR,M,M,M,M,M,M,M,M,M,M,M,27.00,270.00,2025-03-06 22:01,53.00,KINS 062255Z AUTO 26012KT 10SM CLR 12/M09 A2965 RMK AO2 PK WND 27027/01 SLP020 T01161089 $,M
LSV,2025-03-06 22:55,-115.0343,36.2362,570.00,55.00,27.00,33.79,230.00,10.00,T,29.64,1003.10,10.00,25.00,FEW,M,M,M,16000.00,M,M,M,M,M,M,M,M,M,M,55.00,KLSV 062255Z AUTO 23010G25KT 10SM FEW160 13/M03 A2964 RMK AO2 RAB04E11DZB11E13RAB13E23 SLP031 P0000 T01271028 $,M
EKO,2025-03-06 22:56,-115.7860,40.8242,1367.00,34.00,31.00,88.63,290.00,9.00,T,29.56,1001.60,3.00,M,OVC,M,M,M,3300.00,M,M,M,-SN BR,M,M,M,M,M,M,26.00,KEKO 062256Z AUTO 29009KT 3SM -SN BR OVC033 01/M01 A2956 RMK AO2 SLP016 P0000 T00111006,M
HND,2025-03-06 22:56,-115.1344,35.9729,742.79,54.00,26.00,33.63,260.00,12.00,0.00,29.71,1007.30,10.00,M,FEW,BKN,M,M,7000.00,11000.00,M,M,M,M,M,M,M,M,M,54.00,KHND 062256Z 26012KT 10SM FEW070 BKN110 12/M03 A2971 RMK AO2 SLP073 T01221033 $,M
TPH,2025-03-06 22:56,-117.0904,38.0505,1654.00,39.00,26.00,59.27,320.00,20.00,T,29.62,1003.00,7.00,31.00,FEW,BKN,M,M,1500.00,9500.00,M,M,-SN,M,M,M,31.00,300.00,2025-03-06 22:54,28.44,KTPH 062256Z AUTO 32020G31KT 7SM -SN FEW015 BKN095 04/M03 A2962 RMK AO2 PK WND 30031/2254 SNB46 SLP030 P0000 T00391033 $,M
LAS,2025-03-06 22:56,-115.1634,36.0719,663.00,55.00,26.00,32.42,230.00,12.00,0.00,29.69,1004.70,10.00,18.00,FEW,FEW,BKN,M,6000.00,10000.00,16000.00,M,M,M,M,M,M,M,M,55.00,KLAS 062256Z 23012G18KT 10SM FEW060 FEW100 BKN160 13/M03 A2969 RMK AO2 SLP047 VIRGA DSNT ALQDS T01281033,M
WMC,2025-03-06 22:56,-117.8072,40.9019,1315.00,M,M,M,M,M,0.00,29.67,M,M,M,M,M,M,M,M,M,M,M,M,M,M,M,M,M,M,M,KWMC 062256Z AUTO A2967 RMK AO2 SLPNO PWINO FZRANO TSNO,M
NFL,2025-03-06 22:57,-118.7010,39.4166,1199.00,39.00,34.00,82.08,340.00,16.00,0.01,29.72,1004.50,6.00,25.00,FEW,BKN,OVC,M,1900.00,4600.00,6000.00,M,-RA,M,M,M,M,M,M,29.54,KNFL 062257Z 34016G25KT 6SM -RA FEW019 BKN046 OVC060 04/01 A2972 RMK AO2 RAE40B55SNE40 SLP045 WR// P0001 T00390011,M
10U,2025-03-06 23:00,-116.1876,41.9532,1637.00,35.60,26.60,69.46,330.00,11.00,0.00,29.58,M,10.00,M,FEW,FEW,SCT,M,3800.00,4400.00,7000.00,M,M,M,M,M,M,M,M,27.02,K10U 062300Z AUTO 33011KT 10SM FEW038 FEW044 SCT070 02/M03 A2958 RMK AO2,M
RNO,2025-03-06 23:04,-119.7711,39.4839,1341.00,36.00,31.00,81.86,320.00,11.00,T,29.78,M,1.50,M,OVC,M,M,M,2500.00,M,M,M,-SN,M,M,M,M,M,M,27.52,KRNO 062304Z 32011KT 1 1/2SM -SN OVC025 02/M01 A2978 RMK AO2 P0000 T00221006,M
EKO,2025-03-06 23:05,-115.7860,40.8242,1367.00,34.00,30.00,85.11,290.00,8.00,T,29.56,M,2.50,M,OVC,M,M,M,3400.00,M,M,M,-SN BR,M,M,M,M,M,M,26.58,KEKO 062305Z AUTO 29008KT 2 1/2SM -SN BR OVC034 01/M01 A2956 RMK AO2 P0000 T00111011,M
RTS,2025-03-06 23:05,-119.8764,39.6682,1539.00,33.80,26.60,74.63,330.00,7.00,0.00,29.77,M,M,20.00,FEW,BKN,BKN,M,2400.00,3200.00,4100.00,M,-SN,M,M,M,M,M,M,26.97,KRTS 062305Z AUTO 33007G20KT -SN FEW024 BKN032 BKN041 01/M03 A2977 RMK AO2,M
MEV,2025-03-06 23:05,-119.7500,38.9963,1441.42,37.40,30.20,74.98,20.00,15.00,0.00,29.75,M,10.00,M,FEW,FEW,SCT,M,2700.00,3100.00,4300.00,M,M,M,M,M,M,M,M,27.78,KMEV 062305Z AUTO 02015KT 10SM FEW027 FEW031 SCT043 03/M01 A2975 RMK AO2,M
TMT,2025-03-06 23:10,-117.1971,39.4643,1749.34,32.00,29.50,90.36,250.00,8.00,0.00,29.66,M,10.00,M,SCT,BKN,OVC,M,2200.00,3000.00,4400.00,M,M,M,M,M,M,M,M,24.11,KTMT 062310Z AUTO 25008KT 10SM SCT022 BKN030 OVC044 00/M01 A2966 RMK AO2 T00001014,M
EKO,2025-03-06 23:14,-115.7860,40.8242,1367.00,34.00,30.00,85.11,300.00,9.00,T,29.57,M,3.00,M,BKN,OVC,M,M,3500.00,4300.00,M,M,-SN BR,M,M,M,M,M,M,26.00,KEKO 062314Z AUTO 30009KT 3SM -SN BR BKN035 OVC043 01/M01 A2957 RMK AO2 P0000 T00111011,M
BVU,2025-03-06 23:15,-114.8611,35.9475,671.00,55.40,24.80,30.40,250.00,12.00,0.00,29.69,M,10.00,17.00,FEW,SCT,BKN,M,5500.00,7000.00,9000.00,M,M,M,M,M,M,M,M,55.40,KBVU 062315Z AUTO 25012G17KT 10SM FEW055 SCT070 BKN090 13/M04 A2969 RMK AO2,M
BAM,2025-03-06 23:15,-116.8743,40.5990,1382.36,33.80,32.00,93.03,330.00,10.00,0.00,29.68,M,0.75,M,OVC,M,M,M,700.00,M,M,M,M,M,M,M,M,M,M,25.23,KBAM 062315Z AUTO 33010KT 3/4SM OVC007 01/00 A2968 RMK AO1,M
CXP,2025-03-06 23:15,-119.7326,39.1923,1431.00,35.60,30.20,80.51,330.00,12.00,0.00,29.78,M,6.00,18.00,SCT,SCT,SCT,M,2800.00,3400.00,4100.00,M,UP HZ,M,M,M,M,M,M,26.58,KCXP 062315Z AUTO 33012G18KT 6SM UP HZ SCT028 SCT034 SCT041 02/M01 A2978 RMK AO2,M
HTH,2025-03-06 23:15,-118.6315,38.5448,1282.89,39.20,28.40,64.93,350.00,13.00,0.00,29.74,M,8.00,20.00,FEW,SCT,SCT,M,2400.00,3200.00,3800.00,M,M,M,M,M,M,M,M,30.79,KHTH 062315Z AUTO 35013G20KT 8SM FEW024 SCT032 SCT038 04/M02 A2974 RMK A01,M
ELY,2025-03-06 23:18,-114.8453,39.2950,1909.00,M,M,M,350.00,7.00,0.00,29.54,M,5.00,M,SCT,OVC,M,M,2700.00,3300.00,M,M,HZ,M,M,M,M,M,M,M,KELY 062318Z AUTO 35007KT 5SM HZ SCT027 OVC033 A2954 RMK AO2 $,M
INS,2025-03-06 23:19,-115.6733,36.5872,955.00,53.60,14.00,20.46,260.00,10.00,0.00,29.66,1002.30,10.00,21.00,CLR,M,M,M,M,M,M,M,M,M,M,M,M,M,M,53.60,KINS 062319Z AUTO 26010G21KT 10SM CLR 12/M10 A2966 RMK AO2 WSHFT 09 SLP023 $,M
10U,2025-03-06 23:20,-116.1876,41.9532,1637.00,35.60,26.60,69.46,340.00,7.00,0.00,29.58,M,10.00,15.00,BKN,BKN,M,M,4100.00,7000.00,M,M,M,M,M,M,M,M,M,29.17,K10U 062320Z AUTO 34007G15KT 10SM BKN041 BKN070 02/M03 A2958 RMK AO2,M
RNO,2025-03-06 23:21,-119.7711,39.4839,1341.00,37.00,31.00,78.69,320.00,11.00,T,29.78,M,9.00,M,BKN,OVC,M,M,3500.00,7500.00,M,M,-SN,M,M,M,M,M,M,28.79,KRNO 062321Z 32011KT 9SM -SN BKN035 OVC075 03/M01 A2978 RMK AO2 P0000 T00281006,M
ELY,2025-03-06 23:26,-114.8453,39.2950,1909.00,M,M,M,320.00,7.00,0.00,29.54,M,8.00,M,BKN,BKN,OVC,M,2700.00,3200.00,4100.00,M,M,M,M,M,M,M,M,M,KELY 062326Z AUTO 32007KT 8SM BKN027 BKN032 OVC041 A2954 RMK AO2 $,M
ELY,2025-03-06 23:30,-114.8453,39.2950,1909.00,M,M,M,310.00,12.00,0.00,29.55,M,1.75,17.00,BKN,BKN,OVC,M,2500.00,3200.00,4100.00,M,BR,M,M,M,M,M,M,M,KELY 062330Z AUTO 31012G17KT 1 3/4SM BR BKN025 BKN032 OVC041 A2955 RMK AO2 $,M
TMT,2025-03-06 23:30,-117.1971,39.4643,1749.34,32.00,27.70,83.94,350.00,13.00,0.00,29.67,M,10.00,M,SCT,BKN,OVC,M,1600.00,2400.00,4100.00,M,M,M,M,M,M,M,M,21.57,KTMT 062330Z AUTO 35013KT 10SM SCT016 BKN024 OVC041 00/M02 A2967 RMK AO2 T00001024,M
RNO,2025-03-06 23:32,-119.7711,39.4839,1341.00,37.00,31.00,78.69,330.00,4.00,T,29.79,M,9.00,M,BKN,BKN,M,M,3500.00,7500.00,M,M,M,M,M,M,M,M,M,33.26,KRNO 062332Z 33004KT 9SM BKN035 BKN075 03/M01 A2979 RMK AO2 SNE29 P0000 T00281006,M
ELY,2025-03-06 23:33,-114.8453,39.2950,1909.00,M,M,M,300.00,10.00,0.00,29.55,M,0.75,17.00,BKN,BKN,OVC,M,2000.00,2700.00,4000.00,M,BR,M,M,M,M,M,M,M,KELY 062333Z AUTO 30010G17KT 3/4SM BR BKN020 BKN027 OVC040 A2955 RMK AO2 $,M
BVU,2025-03-06 23:35,-114.8611,35.9475,671.00,57.20,23.00,26.42,230.00,19.00,0.00,29.68,M,10.00,24.00,FEW,SCT,M,M,6500.00,9000.00,M,M,M,M,M,M,M,M,M,57.20,KBVU 062335Z AUTO 23019G24KT 10SM FEW065 SCT090 14/M05 A2968 RMK AO2,M
BAM,2025-03-06 23:35,-116.8743,40.5990,1382.36,33.80,33.80,100.00,330.00,11.00,0.00,29.68,M,1.50,M,BKN,OVC,M,M,500.00,1000.00,M,M,M,M,M,M,M,M,M,24.74,KBAM 062335Z AUTO 33011KT 1 1/2SM BKN005 OVC010 01/01 A2968 RMK AO1,M
CXP,2025-03-06 23:35,-119.7326,39.1923,1431.00,35.60,30.20,80.51,330.00,11.00,0.00,29.78,M,6.00,19.00,FEW,FEW,SCT,M,2900.00,3600.00,10000.00,M,UP HZ,M,M,M,M,M,M,27.02,KCXP 062335Z AUTO 33011G19KT 6SM UP HZ FEW029 FEW036 SCT100 02/M01 A2978 RMK AO2,M
RTS,2025-03-06 23:35,-119.8764,39.6682,1539.00,37.40,24.80,60.04,340.00,9.00,0.00,29.78,M,M,14.00,FEW,SCT,M,M,2800.00,6500.00,M,M,M,M,M,M,M,M,M,30.23,KRTS 062335Z AUTO 34009G14KT FEW028 SCT065 03/M04 A2978 RMK AO2,M
MEV,2025-03-06 23:35,-119.7500,38.9963,1441.42,35.60,32.00,86.59,360.00,13.00,0.00,29.78,M,2.50,19.00,FEW,SCT,M,M,3000.00,3800.00,M,M,-SN BR,M,M,M,M,M,M,26.18,KMEV 062335Z AUTO 36013G19KT 2 1/2SM -SN BR FEW030 SCT038 02/M00 A2978 RMK AO2,M
HTH,2025-03-06 23:35,-118.6315,38.5448,1282.89,37.40,30.20,74.98,20.00,13.00,0.00,29.75,M,6.00,M,FEW,M,M,M,2400.00,M,M,M,HZ,M,M,M,M,M,M,28.49,KHTH 062335Z AUTO 02013KT 6SM HZ FEW024 03/M01 A2975 RMK A01,M
10U,2025-03-06 23:40,-116.1876,41.9532,1637.00,35.60,26.60,69.46,330.00,10.00,0.00,29.59,M,10.00,15.00,OVC,M,M,M,4100.00,M,M,M,M,M,M,M,M,M,M,27.48,K10U 062340Z AUTO 33010G15KT 10SM OVC041 02/M03 A2959 RMK AO2,M
ELY,2025-03-06 23:41,-114.8453,39.2950,1909.00,M,M,M,290.00,6.00,0.00,29.55,M,1.50,M,SCT,BKN,OVC,M,2100.00,2900.00,5000.00,M,BR,M,M,M,M,M,M,M,KELY 062341Z AUTO 29006KT 1 1/2SM BR SCT021 BKN029 OVC050 A2955 RMK AO2 $,M
ELY,2025-03-06 23:43,-114.8453,39.2950,1909.00,M,M,M,290.00,7.00,0.00,29.55,M,4.00,M,SCT,BKN,OVC,M,2100.00,3100.00,5000.00,M,HZ,M,M,M,M,M,M,M,KELY 062343Z AUTO 29007KT 4SM HZ SCT021 BKN031 OVC050 A2955 RMK AO2 $,M
TMT,2025-03-06 23:50,-117.1971,39.4643,1749.34,31.00,27.70,87.40,340.00,16.00,0.00,29.68,M,5.00,M,SCT,BKN,OVC,M,1200.00,2600.00,3600.00,M,-SN,M,M,M,M,M,M,19.11,KTMT 062350Z AUTO 34016KT 5SM -SN SCT012 BKN026 OVC036 00/M02 A2968 RMK AO2 T10051024,M
P68,2025-03-06 23:53,-116.0056,39.6014,1993.00,34.00,30.00,85.11,350.00,8.00,0.00,29.60,1001.30,M,M,M,M,M,M,M,M,M,M,M,M,M,M,27.00,300.00,2025-03-06 23:08,26.58,KP68 062353Z AUTO 35008KT 01/M01 A2960 RMK AO1 PK WND 30027/2308 SLP013 T00111011 10033 20000 53021,M
DRA,2025-03-06 23:53,-116.0278,36.6206,1009.00,51.00,25.00,36.03,230.00,14.00,0.00,29.68,1003.10,10.00,25.00,FEW,M,M,M,6000.00,M,M,M,M,M,M,M,M,M,M,51.00,KDRA 062353Z AUTO 23014G25KT 10SM FEW060 11/M04 A2968 RMK AO2 SLP031 60003 T01061039 10111 20022 53002,M
ELY,2025-03-06 23:53,-114.8453,39.2950,1909.00,M,M,M,290.00,9.00,0.00,29.56,M,10.00,M,FEW,BKN,OVC,M,1700.00,3400.00,5000.00,M,M,M,M,M,M,M,M,M,KELY 062353Z AUTO 29009KT 10SM FEW017 BKN034 OVC050 A2956 RMK AO2 SLPNO 60000 53025 $,M
VGT,2025-03-06 23:53,-115.1933,36.2111,667.00,56.00,22.00,26.45,230.00,16.00,0.00,29.67,1005.90,10.00,23.00,FEW,M,M,M,10000.00,M,M,M,M,M,M,M,M,M,M,56.00,KVGT 062353Z 23016G23KT 10SM FEW100 13/M06 A2967 RMK AO2 SLP059 60000 T01331056 10139 20117 51006,M
LOL,2025-03-06 23:53,-118.5701,40.0684,1192.43,40.00,28.00,61.91,340.00,11.00,0.00,29.74,1008.00,10.00,M,FEW,BKN,OVC,M,5500.00,8000.00,9000.00,M,M,M,M,M,26.00,320.00,2025-03-06 23:15,32.58,KLOL 062353Z AUTO 34011KT 10SM FEW055 BKN080 OVC090 04/M02 A2974 RMK AO2 PK WND 32026/2315 SLP080 60000 T00441022 10056 20033 53022,M
BVU,2025-03-06 23:55,-114.8611,35.9475,671.00,55.40,21.20,26.13,240.00,12.00,0.00,29.69,M,10.00,20.00,FEW,FEW,M,M,7000.00,11000.00,M,M,M,M,M,M,M,M,M,55.40,KBVU 062355Z AUTO 24012G20KT 10SM FEW070 FEW110 13/M06 A2969 RMK AO2,M
RNO,2025-03-06 23:55,-119.7711,39.4839,1341.00,39.00,30.00,69.85,320.00,9.00,T,29.79,1008.80,10.00,M,BKN,BKN,M,M,4600.00,9000.00,M,M,M,M,M,M,M,M,M,32.22,KRNO 062355Z 32009KT 10SM BKN046 BKN090 04/M01 A2979 RMK AO2 SNE29 SLP088 P0000 60001 T00391011 10050 20022 51016,M
BAM,2025-03-06 23:55,-116.8743,40.5990,1382.36,33.80,33.80,100.00,350.00,4.00,0.00,29.69,M,3.00,M,SCT,BKN,OVC,M,500.00,800.00,6000.00,M,M,M,M,M,M,M,M,29.52,KBAM 062355Z AUTO 35004KT 3SM SCT005 BKN008 OVC060 01/01 A2969 RMK AO1,M
CXP,2025-03-06 23:55,-119.7326,39.1923,1431.00,35.60,30.20,80.51,340.00,12.00,0.00,29.80,M,1.25,18.00,SCT,SCT,BKN,M,300.00,4300.00,10000.00,M,-SN HZ,M,M,M,M,M,M,26.58,KCXP 062355Z AUTO 34012G18KT 1 1/4SM -SN HZ SCT003 SCT043 BKN100 02/M01 A2980 RMK AO2 VIS 1/2V3,M
RTS,2025-03-06 23:55,-119.8764,39.6682,1539.00,39.20,24.80,55.95,320.00,11.00,0.00,29.79,M,M,17.00,FEW,SCT,M,M,3300.00,6000.00,M,M,M,M,M,M,M,M,M,31.57,KRTS 062355Z AUTO 32011G17KT FEW033 SCT060 04/M04 A2979 RMK AO2,M
MEV,2025-03-06 23:55,-119.7500,38.9963,1441.42,33.80,32.00,93.03,350.00,9.00,0.00,29.79,M,0.25,14.00,OVC,M,M,M,300.00,M,M,M,SN FG,M,M,M,M,M,M,25.75,KMEV 062355Z AUTO 35009G14KT 1/4SM SN FG OVC003 01/M00 A2979 RMK AO2,M
HTH,2025-03-06 23:55,-118.6315,38.5448,1282.89,37.40,33.80,86.69,10.00,14.00,0.00,29.75,M,6.00,M,CLR,M,M,M,M,M,M,M,BR,M,M,M,M,M,M,28.12,KHTH 062355Z AUTO 01014KT 6SM BR CLR 03/01 A2975 RMK A01,M
INS,2025-03-06 23:55,-115.6733,36.5872,955.00,52.50,14.70,21.97,250.00,11.00,0.00,29.67,1002.90,10.00,M,SCT,M,M,M,7500.00,M,M,M,M,M,M,M,26.00,250.00,2025-03-06 23:07,52.50,KINS 062355Z AUTO 25011KT 10SM SCT075 11/M10 A2967 RMK AO2 PK WND 25026/07 SLP029 T01141096 10119 20072 50005 $,M
LSV,2025-03-06 23:55,-115.0343,36.2362,570.00,57.00,21.60,25.08,220.00,16.00,0.00,29.64,1003.00,10.00,24.00,FEW,M,M,M,16000.00,M,M,M,M,M,M,M,M,M,M,57.00,KLSV 062355Z 22016G24KT 10SM FEW160 14/M06 A2964 RMK AO2A SLP030 60000 T01391058 10143 20117 51006 $,M
EKO,2025-03-06 23:56,-115.7860,40.8242,1367.00,34.00,29.00,81.71,310.00,8.00,T,29.59,1002.80,10.00,M,OVC,M,M,M,4600.00,M,M,M,M,M,M,M,M,M,M,26.58,KEKO 062356Z AUTO 31008KT 10SM OVC046 01/M02 A2959 RMK AO2 SNE34 SLP028 P0000 60000 T00111017 10022 20006 53018,M
HND,2025-03-06 23:56,-115.1344,35.9729,742.79,54.00,26.00,33.63,250.00,15.00,0.00,29.71,1007.40,10.00,M,FEW,M,M,M,12000.00,M,M,M,M,M,M,M,M,M,M,54.00,KHND 062356Z 25015KT 10SM FEW120 12/M03 A2971 RMK AO2 SLP074 60000 T01221033 10128 20094 53004 $,M
TPH,2025-03-06 23:56,-117.0904,38.0505,1654.00,40.00,26.00,57.01,310.00,25.00,T,29.63,1003.10,10.00,34.00,SCT,M,M,M,9000.00,M,M,M,M,M,M,M,34.00,300.00,2025-03-06 23:47,28.64,KTPH 062356Z AUTO 31025G34KT 10SM SCT090 04/M03 A2963 RMK AO2 PK WND 30034/2347 SNE2259 SLP031 P0000 60000 T00441033 10050 20017 51009 $,M
LAS,2025-03-06 23:56,-115.1634,36.0719,663.00,55.00,24.00,29.83,220.00,17.00,0.00,29.69,1004.90,10.00,28.00,FEW,FEW,SCT,M,6500.00,10000.00,16000.00,M,M,M,M,M,28.00,210.00,2025-03-06 23:49,55.00,KLAS 062356Z 22017G28KT 10SM FEW065 FEW100 SCT160 13/M04 A2969 RMK AO2 PK WND 21028/2349 SLP049 T01281044 10133 20111 53003,M
WMC,2025-03-06 23:56,-117.8072,40.9019,1315.00,M,M,M,M,M,0.00,29.69,M,M,M,M,M,M,M,M,M,M,M,M,M,M,M,M,M,M,M,KWMC 062356Z AUTO A2969 RMK AO2 SLPNO 53012 PWINO FZRANO TSNO,M
NFL,2025-03-06 23:57,-118.7010,39.4166,1199.00,41.00,33.00,72.96,330.00,17.00,T,29.75,1005.30,10.00,23.00,FEW,BKN,OVC,M,2000.00,4500.00,5500.00,M,M,M,M,M,M,M,M,31.87,KNFL 062357Z 33017G23KT 10SM FEW020 BKN045 OVC055 05/01 A2975 RMK AO2 RAE07 SLP053 P0000 60011 T00500006 10050 20011 53019,M
