station,valid,lon,lat,elevation,tmpf,dwpf,relh,drct,sknt,p01i,alti,mslp,vsby,gust,skyc1,skyc2,skyc3,skyc4,skyl1,skyl2,skyl3,skyl4,wxcodes,ice_accretion_1hr,ice_accretion_3hr,ice_accretion_6hr,peak_wind_gust,peak_wind_drct,peak_wind_time,feel,metar,snowdepth
05U,2022-07-25 00:10,-116.0051,39.6042,1811.23,89.60,33.80,13.80,0.00,0.00,0.00,30.12,M,10.00,M,CLR,M,M,M,M,M,M,M,M,M,M,M,M,M,M,85.59,K05U 250010Z AUTO 00000KT 10SM CLR 32/01 A3012 RMK A01,M
BVU,2022-07-25 00:15,-114.8611,35.9475,671.00,M,M,M,M,M,0.00,M,M,M,M,M,M,M,M,M,M,M,M,M,M,M,M,M,M,M,M,KBVU 250015Z AUTO RMK AO2 PNO PWINO TSNO,M
MEV,2022-07-25 00:15,-119.7500,38.9963,1441.42,93.20,35.60,13.25,270.00,13.00,0.00,30.00,M,3.00,19.00,CLR,M,M,M,M,M,M,M,HZ,M,M,M,M,M,M,88.76,KMEV 250015Z AUTO 27013G19KT 3SM HZ CLR 34/02 A3000 RMK AO2,M
BAM,2022-07-25 00:15,-116.8743,40.5990,1382.36,M,M,M,320.00,5.00,0.00,30.00,M,10.00,M,CLR,M,M,M,M,M,M,M,M,M,M,M,M,M,M,M,KBAM 250015Z AUTO 32005KT 10SM CLR A3000 RMK AO1,M
RTS,2022-07-25 00:15,-119.8764,39.6682,1539.00,93.20,21.20,7.34,M,4.00,0.00,30.06,M,10.00,14.00,CLR,M,M,M,M,M,M,M,M,M,M,M,M,M,M,87.29,KRTS 250015Z AUTO VRB04G14KT 10SM CLR 34/M06 A3006 RMK AO2,M
TMT,2022-07-25 00:15,-117.1971,39.4643,1749.34,M,M,M,240.00,3.00,0.00,30.07,M,10.00,M,CLR,M,M,M,M,M,M,M,M,M,M,M,M,M,M,M,KTMT 250015Z AUTO 24003KT 10SM CLR A3007 RMK AO2,M
HTH,2022-07-25 00:15,-118.6315,38.5448,1282.89,98.60,21.20,6.22,330.00,14.00,0.00,29.92,M,10.00,M,CLR,M,M,M,M,M,M,M,M,M,M,M,M,M,M,91.61,KHTH 250015Z AUTO 33014KT 10SM CLR 37/M06 A2992 RMK A01,M
CXP,2022-07-25 00:15,-119.7326,39.1923,1431.00,96.80,24.80,7.65,320.00,9.00,0.00,30.00,M,10.00,M,CLR,M,M,M,M,M,M,M,M,M,M,M,M,M,M,90.40,KCXP 250015Z AUTO 32009KT 10SM CLR 36/M04 A3000 RMK AO2,M
ELY,2022-07-25 00:19,-114.8453,39.2950,1909.00,73.00,53.00,49.66,230.00,12.00,T,30.19,M,9.00,M,BKN,OVC,M,M,9000.00,11000.00,M,M,-RA,M,M,M,M,M,M,73.00,KELY 250019Z AUTO 23012KT 9SM -RA BKN090 OVC110 23/12 A3019 RMK AO2 LTG DSNT SW AND W P0000 T02280117,M
CXP,2022-07-25 00:30,-119.7326,39.1923,1431.00,96.80,24.80,7.65,320.00,7.00,0.00,30.00,M,10.00,12.00,CLR,M,M,M,M,M,M,M,M,M,M,M,M,M,M,90.40,KCXP 250030Z AUTO 32007G12KT 290V350 10SM CLR 36/M04 A3000 RMK AO2,M
BVU,2022-07-25 00:35,-114.8611,35.9475,671.00,M,M,M,M,M,0.00,M,M,M,M,M,M,M,M,M,M,M,M,M,M,M,M,M,M,M,M,KBVU 250035Z AUTO RMK AO2 PNO PWINO TSNO,M
RTS,2022-07-25 00:35,-119.8764,39.6682,1539.00,93.20,21.20,7.34,130.00,5.00,0.00,30.05,M,10.00,M,CLR,M,M,M,M,M,M,M,M,M,M,M,M,M,M,87.29,KRTS 250035Z AUTO 13005KT 10SM CLR 34/M06 A3005 RMK AO2,M
05U,2022-07-25 00:35,-116.0051,39.6042,1811.23,87.80,32.00,13.59,0.00,0.00,0.00,30.11,M,10.00,M,CLR,M,M,M,M,M,M,M,M,M,M,M,M,M,M,84.08,K05U 250035Z AUTO 00000KT 10SM CLR 31/00 A3011 RMK A01,M
MEV,2022-07-25 00:35,-119.7500,38.9963,1441.42,91.40,35.60,14.02,280.00,13.00,0.00,29.99,M,3.00,19.00,CLR,M,M,M,M,M,M,M,HZ,M,M,M,M,M,M,87.17,KMEV 250035Z AUTO 28013G19KT 3SM HZ CLR 33/02 A2999 RMK AO2,M
BAM,2022-07-25 00:35,-116.8743,40.5990,1382.36,M,M,M,340.00,12.00,0.00,30.00,M,10.00,M,CLR,M,M,M,M,M,M,M,M,M,M,M,M,M,M,M,KBAM 250035Z AUTO 34012KT 10SM CLR A3000 RMK AO1,M
HTH,2022-07-25 00:35,-118.6315,38.5448,1282.89,98.60,21.20,6.22,330.00,14.00,0.00,29.92,M,10.00,19.00,CLR,M,M,M,M,M,M,M,M,M,M,M,M,M,M,91.61,KHTH 250035Z AUTO 33014G19KT 10SM CLR 37/M06 A2992 RMK A01,M
TMT,2022-07-25 00:35,-117.1971,39.4643,1749.34,M,M,M,160.00,8.00,0.00,30.07,M,10.00,M,CLR,M,M,M,M,M,M,M,M,M,M,M,M,M,M,M,KTMT 250035Z AUTO 16008KT 10SM CLR A3007 RMK AO2,M
ELY,2022-07-25 00:42,-114.8453,39.2950,1909.00,69.00,57.00,65.35,170.00,10.00,T,30.19,M,10.00,M,OVC,M,M,M,10000.00,M,M,M,VCTS,M,M,M,M,M,M,69.10,KELY 250042Z AUTO 17010KT 10SM VCTS OVC100 21/14 A3019 RMK AO2 LTG DSNT W RAE40 P0000 T02060139,M
LSV,2022-07-25 00:46,-115.0343,36.2362,570.00,104.00,53.60,18.95,130.00,14.00,0.00,29.75,1004.50,10.00,M,FEW,SCT,M,M,12000.00,15000.00,M,M,M,M,M,M,M,M,M,102.31,KLSV 250046Z 13014KT 10SM FEW120 SCT150 40/12 A2975 RMK AO2A WSHFT 39 SLP045 $,M
VGT,2022-07-25 00:53,-115.1933,36.2111,667.00,106.00,51.00,16.29,150.00,12.00,0.00,29.77,1006.30,10.00,19.00,CLR,M,M,M,M,M,M,M,M,M,M,M,M,M,M,103.54,KVGT 250053Z 15012G19KT 10SM CLR 41/11 A2977 RMK AO2 SLP063 T04110106,M
ELY,2022-07-25 00:53,-114.8453,39.2950,1909.00,68.00,57.00,67.86,170.00,6.00,T,30.19,1012.10,10.00,16.00,OVC,M,M,M,10000.00,M,M,M,M,M,M,M,M,M,M,68.00,KELY 250053Z AUTO 17006G16KT 10SM OVC100 20/14 A3019 RMK AO2 LTG DSNT W RAE40 SLP121 P0000 T02000139,M
LOL,2022-07-25 00:53,-118.5701,40.0684,1192.43,99.00,24.10,6.94,120.00,5.00,0.00,29.92,1008.90,10.00,M,CLR,M,M,M,M,M,M,M,M,M,M,M,M,M,M,92.17,KLOL 250053Z AUTO 12005KT 10SM CLR 37/M04 A2992 RMK AO2 SLP089 T03721044,M
P68,2022-07-25 00:53,-116.0056,39.6014,1993.00,88.00,35.00,15.29,110.00,4.00,0.00,30.08,1010.20,M,M,M,M,M,M,M,M,M,M,M,M,M,M,M,M,M,84.28,KP68 250053Z AUTO 11004KT 31/02 A3008 RMK AO1 SLP102 T03110017,M
DRA,2022-07-25 00:53,-116.0278,36.6206,1009.00,100.00,44.00,14.98,230.00,12.00,0.00,29.87,1005.40,10.00,21.00,FEW,M,M,M,11000.00,M,M,M,M,M,M,M,30.00,210.00,2022-07-25 00:42,95.84,KDRA 250053Z AUTO 23012G21KT 10SM FEW110 38/07 A2987 RMK AO2 PK WND 21030/0042 SLP054 T03780067,M
CXP,2022-07-25 00:55,-119.7326,39.1923,1431.00,95.00,28.40,9.38,290.00,12.00,0.00,29.99,M,9.00,M,CLR,M,M,M,M,M,M,M,M,M,M,M,M,M,M,89.27,KCXP 250055Z AUTO 29012KT 9SM CLR 35/M02 A2999 RMK AO2,M
RTS,2022-07-25 00:55,-119.8764,39.6682,1539.00,93.20,21.20,7.34,M,6.00,0.00,30.04,M,10.00,M,CLR,M,M,M,M,M,M,M,M,M,M,M,M,M,M,87.29,KRTS 250055Z AUTO VRB06KT 10SM CLR 34/M06 A3004 RMK AO2,M
05U,2022-07-25 00:55,-116.0051,39.6042,1811.23,87.80,33.80,14.61,0.00,0.00,0.00,30.11,M,10.00,M,CLR,M,M,M,M,M,M,M,M,M,M,M,M,M,M,84.10,K05U 250055Z AUTO 00000KT 10SM CLR 31/01 A3011 RMK A01,M
MEV,2022-07-25 00:55,-119.7500,38.9963,1441.42,91.40,35.60,14.02,270.00,14.00,0.00,29.99,M,4.00,M,CLR,M,M,M,M,M,M,M,HZ,M,M,M,M,M,M,87.17,KMEV 250055Z AUTO 27014KT 4SM HZ CLR 33/02 A2999 RMK AO2,M
BAM,2022-07-25 00:55,-116.8743,40.5990,1382.36,M,M,M,330.00,10.00,0.00,29.99,M,10.00,M,CLR,M,M,M,M,M,M,M,M,M,M,M,M,M,M,M,KBAM 250055Z AUTO 33010KT 10SM CLR A2999 RMK AO1,M
HTH,2022-07-25 00:55,-118.6315,38.5448,1282.89,98.60,21.20,6.22,330.00,13.00,0.00,29.91,M,10.00,M,CLR,M,M,M,M,M,M,M,M,M,M,M,M,M,M,91.61,KHTH 250055Z AUTO 33013KT 10SM CLR 37/M06 A2991 RMK A01,M
RNO,2022-07-25 00:55,-119.7711,39.4839,1341.00,97.00,28.90,9.00,290.00,3.00,0.00,29.97,1008.50,10.00,M,SCT,M,M,M,10000.00,M,M,M,M,M,M,M,M,M,M,90.97,KRNO 250055Z 29003KT 10SM SCT100 36/M02 A2997 RMK AO2 SLP085 HZ ALQDS T03611017,M
BVU,2022-07-25 00:55,-114.8611,35.9475,671.00,M,M,M,M,M,0.00,M,M,M,M,M,M,M,M,M,M,M,M,M,M,M,M,M,M,M,M,KBVU 250055Z AUTO RMK AO2 PNO PWINO TSNO,M
TMT,2022-07-25 00:55,-117.1971,39.4643,1749.34,M,M,M,190.00,5.00,0.00,30.06,M,10.00,M,CLR,M,M,M,M,M,M,M,M,M,M,M,M,M,M,M,KTMT 250055Z AUTO 19005KT 10SM CLR A3006 RMK AO2,M
HND,2022-07-25 00:56,-115.1344,35.9729,742.79,102.00,55.00,21.17,240.00,10.00,0.00,29.83,1008.20,10.00,14.00,CLR,M,M,M,M,M,M,M,M,M,M,M,M,M,M,100.66,KHND 250056Z 24010G14KT 210V270 10SM CLR 39/13 A2983 RMK AO2 SLP082 T03890128 PNO $,M
WMC,2022-07-25 00:56,-117.8072,40.9019,1315.00,98.00,23.00,6.82,330.00,11.00,0.00,29.98,1010.10,10.00,M,CLR,M,M,M,M,M,M,M,M,M,M,M,M,M,M,91.33,KWMC 250056Z AUTO 33011KT 10SM CLR 37/M05 A2998 RMK AO2 SLP101 T03671050,M
EKO,2022-07-25 00:56,-115.7860,40.8242,1367.00,96.00,24.10,7.59,330.00,12.00,0.00,30.01,1009.70,10.00,17.00,CLR,M,M,M,M,M,M,M,M,M,M,M,M,M,M,89.76,KEKO 250056Z AUTO 33012G17KT 10SM CLR 36/M04 A3001 RMK AO2 SLP097 T03561044,M
TPH,2022-07-25 00:56,-117.0904,38.0505,1654.00,93.00,35.00,13.07,180.00,7.00,0.00,30.04,1007.90,10.00,M,CLR,M,M,M,M,M,M,M,M,M,M,M,M,M,M,88.56,KTPH 250056Z AUTO 18007KT 10SM CLR 34/02 A3004 RMK AO2 SLP079 T03390017,M
LAS,2022-07-25 00:56,-115.1634,36.0719,663.00,103.00,51.00,17.86,200.00,7.00,0.00,29.79,1005.30,10.00,M,FEW,SCT,M,M,12000.00,23000.00,M,M,M,M,M,M,M,M,M,100.32,KLAS 250056Z 20007KT 10SM FEW120 SCT230 39/11 A2979 RMK AO2 SLP053 CB DSNT E T03940106,M
NFL,2022-07-25 00:56,-118.7010,39.4166,1199.00,100.00,21.00,5.91,320.00,6.00,0.00,29.91,1010.20,10.00,M,FEW,M,M,M,11000.00,M,M,M,M,M,M,M,M,M,M,92.76,KNFL 250056Z AUTO 32006KT 10SM FEW110 38/M06 A2991 RMK AO2 SLP102 T03781061,M
LSV,2022-07-25 00:58,-115.0343,36.2362,570.00,104.70,54.00,18.91,140.00,15.00,0.00,29.75,1004.50,10.00,20.00,FEW,SCT,M,M,12000.00,15000.00,M,M,M,M,M,M,M,M,M,103.25,KLSV 250058Z 14015G20KT 10SM FEW120 SCT150 40/12 A2975 RMK AO2A SLP045 T04040123 $,M
INS,2022-07-25 00:58,-115.6733,36.5872,955.00,98.60,44.60,15.93,90.00,7.00,0.00,29.85,1005.10,10.00,M,FEW,M,M,M,11000.00,M,M,M,M,M,M,M,M,M,M,94.55,KINS 250058Z AUTO 09007KT 10SM FEW110 37/07 A2985 RMK AO2 SLP051 T03700070 $,M
ELY,2022-07-25 01:00,-114.8453,39.2950,1909.00,68.00,57.00,67.86,200.00,8.00,T,30.18,M,10.00,M,OVC,M,M,M,10000.00,M,M,M,VCTS -RA,M,M,M,M,M,M,68.00,KELY 250100Z AUTO 20008KT 10SM VCTS -RA OVC100 20/14 A3018 RMK AO2 LTG DSNT S RAB00 P0000 T02000139,M
CXP,2022-07-25 01:10,-119.7326,39.1923,1431.00,95.00,30.20,10.09,290.00,9.00,0.00,29.99,M,7.00,18.00,CLR,M,M,M,M,M,M,M,M,M,M,M,M,M,M,89.48,KCXP 250110Z AUTO 29009G18KT 7SM CLR 35/M01 A2999 RMK AO2,M
BAM,2022-07-25 01:15,-116.8743,40.5990,1382.36,M,M,M,330.00,11.00,0.00,29.99,M,10.00,M,CLR,M,M,M,M,M,M,M,M,M,M,M,M,M,M,M,KBAM 250115Z AUTO 33011KT 10SM CLR A2999 RMK AO1,M
TMT,2022-07-25 01:15,-117.1971,39.4643,1749.34,M,M,M,200.00,5.00,0.00,30.05,M,10.00,M,CLR,M,M,M,M,M,M,M,M,M,M,M,M,M,M,M,KTMT 250115Z AUTO 20005KT 10SM CLR A3005 RMK AO2,M
BVU,2022-07-25 01:15,-114.8611,35.9475,671.00,M,M,M,M,M,0.00,M,M,M,M,M,M,M,M,M,M,M,M,M,M,M,M,M,M,M,M,KBVU 250115Z AUTO RMK AO2 PNO PWINO TSNO,M
HTH,2022-07-25 01:15,-118.6315,38.5448,1282.89,98.60,21.20,6.22,330.00,13.00,0.00,29.90,M,10.00,M,CLR,M,M,M,M,M,M,M,M,M,M,M,M,M,M,91.61,KHTH 250115Z AUTO 33013KT 10SM CLR 37/M06 A2990 RMK A01,M
RTS,2022-07-25 01:15,-119.8764,39.6682,1539.00,91.40,21.20,7.77,M,4.00,0.00,30.04,M,10.00,M,CLR,M,M,M,M,M,M,M,M,M,M,M,M,M,M,85.96,KRTS 250115Z AUTO VRB04KT 10SM CLR 33/M06 A3004 RMK AO2,M
05U,2022-07-25 01:15,-116.0051,39.6042,1811.23,86.00,44.60,23.59,130.00,16.00,0.00,30.10,M,10.00,M,CLR,M,M,M,M,M,M,M,M,M,M,M,M,M,M,83.07,K05U 250115Z AUTO 13016KT 10SM CLR 30/07 A3010 RMK A01,M
MEV,2022-07-25 01:15,-119.7500,38.9963,1441.42,89.60,35.60,14.83,280.00,15.00,0.00,29.99,M,4.00,20.00,CLR,M,M,M,M,M,M,M,HZ,M,M,M,M,M,M,85.62,KMEV 250115Z AUTO 28015G20KT 4SM HZ CLR 32/02 A2999 RMK AO2,M
CXP,2022-07-25 01:30,-119.7326,39.1923,1431.00,93.20,32.00,11.48,290.00,14.00,0.00,29.99,M,7.00,M,CLR,M,M,M,M,M,M,M,M,M,M,M,M,M,M,88.31,KCXP 250130Z AUTO 29014KT 7SM CLR 34/M00 A2999 RMK AO2,M
ELY,2022-07-25 01:33,-114.8453,39.2950,1909.00,72.00,51.00,47.72,250.00,6.00,T,30.20,M,10.00,20.00,OVC,M,M,M,11000.00,M,M,M,VCTS,M,M,M,28.00,210.00,2022-07-25 01:15,72.00,KELY 250133Z AUTO 25006G20KT 10SM VCTS OVC110 22/11 A3020 RMK AO2 PK WND 21028/0115 WSHFT 0113 RAB00E32 P0000 T02220106,M
TMT,2022-07-25 01:35,-117.1971,39.4643,1749.34,M,M,M,220.00,5.00,0.00,30.05,M,10.00,M,CLR,M,M,M,M,M,M,M,M,M,M,M,M,M,M,M,KTMT 250135Z AUTO 22005KT 10SM CLR A3005 RMK AO2,M
05U,2022-07-25 01:35,-116.0051,39.6042,1811.23,82.40,44.60,26.49,140.00,16.00,0.00,30.10,M,10.00,21.00,CLR,M,M,M,M,M,M,M,M,M,M,M,M,M,M,80.50,K05U 250135Z AUTO 14016G21KT 10SM CLR 28/07 A3010 RMK A01,M
RTS,2022-07-25 01:35,-119.8764,39.6682,1539.00,91.40,21.20,7.77,0.00,0.00,0.00,30.04,M,10.00,M,CLR,M,M,M,M,M,M,M,M,M,M,M,M,M,M,85.96,KRTS 250135Z AUTO 00000KT 10SM CLR 33/M06 A3004 RMK AO2,M
HTH,2022-07-25 01:35,-118.6315,38.5448,1282.89,96.80,21.20,6.57,320.00,11.00,0.00,29.91,M,10.00,M,CLR,M,M,M,M,M,M,M,M,M,M,M,M,M,M,90.11,KHTH 250135Z AUTO 32011KT 10SM CLR 36/M06 A2991 RMK A01,M
BAM,2022-07-25 01:35,-116.8743,40.5990,1382.36,M,M,M,330.00,10.00,0.00,29.99,M,10.00,M,CLR,M,M,M,M,M,M,M,M,M,M,M,M,M,M,M,KBAM 250135Z AUTO 33010KT 10SM CLR A2999 RMK AO1,M
MEV,2022-07-25 01:35,-119.7500,38.9963,1441.42,89.60,37.40,15.92,270.00,13.00,0.00,29.99,M,4.00,20.00,CLR,M,M,M,M,M,M,M,HZ,M,M,M,M,M,M,85.67,KMEV 250135Z AUTO 27013G20KT 4SM HZ CLR 32/03 A2999 RMK AO2,M
BVU,2022-07-25 01:35,-114.8611,35.9475,671.00,M,M,M,M,M,0.00,M,M,M,M,M,M,M,M,M,M,M,M,M,M,M,M,M,M,M,M,KBVU 250135Z AUTO RMK AO2 PNO PWINO TSNO,M
ELY,2022-07-25 01:46,-114.8453,39.2950,1909.00,72.00,54.00,53.09,200.00,3.00,T,30.21,M,10.00,M,FEW,FEW,BKN,M,6500.00,8000.00,11000.00,M,M,M,M,M,28.00,210.00,2022-07-25 01:15,72.00,KELY 250146Z AUTO 20003KT 10SM FEW065 FEW080 BKN110 22/12 A3021 RMK AO2 PK WND 21028/0115 WSHFT 0113 LTG DSNT SE RAB00E32 P0000 T02220122,M
ELY,2022-07-25 01:53,-114.8453,39.2950,1909.00,71.00,53.00,52.96,0.00,0.00,T,30.20,1012.20,10.00,M,FEW,FEW,BKN,M,6500.00,8000.00,11000.00,M,M,M,M,M,28.00,210.00,2022-07-25 01:15,71.10,KELY 250153Z AUTO 00000KT 10SM FEW065 FEW080 BKN110 22/12 A3020 RMK AO2 PK WND 21028/0115 WSHFT 0113 LTG DSNT SE RAB00E32 SLP122 P0000 T02170117,M
LOL,2022-07-25 01:53,-118.5701,40.0684,1192.43,99.00,25.00,7.21,40.00,5.00,0.00,29.91,1008.30,10.00,M,CLR,M,M,M,M,M,M,M,M,M,M,M,M,M,M,92.25,KLOL 250153Z AUTO 04005KT 10SM CLR 37/M04 A2991 RMK AO2 SLP083 T03721039,M
VGT,2022-07-25 01:53,-115.1933,36.2111,667.00,102.00,55.00,21.17,150.00,16.00,0.00,29.77,1006.50,10.00,M,CLR,M,M,M,M,M,M,M,M,M,M,M,M,M,M,100.66,KVGT 250153Z 15016KT 10SM CLR 39/13 A2977 RMK AO2 SLP065 T03890128,M
P68,2022-07-25 01:53,-116.0056,39.6014,1993.00,82.00,44.00,26.33,130.00,15.00,0.00,30.08,1010.20,M,M,M,M,M,M,M,M,M,M,M,M,M,M,M,M,M,80.22,KP68 250153Z AUTO 13015KT 28/07 A3008 RMK AO1 SLP102 T02780067,M
DRA,2022-07-25 01:53,-116.0278,36.6206,1009.00,99.00,44.00,15.44,210.00,12.00,0.00,29.86,1005.20,10.00,18.00,CLR,M,M,M,M,M,M,M,M,M,M,M,M,M,M,94.87,KDRA 250153Z AUTO 21012G18KT 10SM CLR 37/07 A2986 RMK AO2 SLP052 T03720067,M
HTH,2022-07-25 01:55,-118.6315,38.5448,1282.89,96.80,21.20,6.57,320.00,11.00,0.00,29.90,M,10.00,M,CLR,M,M,M,M,M,M,M,M,M,M,M,M,M,M,90.11,KHTH 250155Z AUTO 32011KT 10SM CLR 36/M06 A2990 RMK A01,M
TMT,2022-07-25 01:55,-117.1971,39.4643,1749.34,M,M,M,0.00,0.00,0.00,30.06,M,10.00,M,CLR,M,M,M,M,M,M,M,M,M,M,M,M,M,M,M,KTMT 250155Z AUTO 00000KT 10SM CLR A3006 RMK AO2,M
05U,2022-07-25 01:55,-116.0051,39.6042,1811.23,82.40,42.80,24.72,130.00,12.00,0.00,30.10,M,10.00,18.00,CLR,M,M,M,M,M,M,M,M,M,M,M,M,M,M,80.39,K05U 250155Z AUTO 13012G18KT 10SM CLR 28/06 A3010 RMK A01,M
RNO,2022-07-25 01:55,-119.7711,39.4839,1341.00,95.00,30.00,10.01,0.00,0.00,0.00,29.96,1008.00,10.00,M,FEW,M,M,M,10000.00,M,M,M,M,M,M,M,M,M,M,89.45,KRNO 250155Z 00000KT 10SM FEW100 35/M01 A2996 RMK AO2 SLP080 FU S THRU NW T03501011,M
RTS,2022-07-25 01:55,-119.8764,39.6682,1539.00,91.40,21.20,7.77,0.00,0.00,0.00,30.04,M,10.00,M,CLR,M,M,M,M,M,M,M,M,M,M,M,M,M,M,85.96,KRTS 250155Z AUTO 00000KT 10SM CLR 33/M06 A3004 RMK AO2,M
CXP,2022-07-25 01:55,-119.7326,39.1923,1431.00,91.40,32.00,12.14,300.00,14.00,0.00,29.99,M,6.00,M,CLR,M,M,M,M,M,M,M,HZ,M,M,M,M,M,M,86.91,KCXP 250155Z AUTO 30014KT 6SM HZ CLR 33/00 A2999 RMK AO2,M
BVU,2022-07-25 01:55,-114.8611,35.9475,671.00,M,M,M,M,M,0.00,M,M,M,M,M,M,M,M,M,M,M,M,M,M,M,M,M,M,M,M,KBVU 250155Z AUTO RMK AO2 PNO PWINO TSNO,M
MEV,2022-07-25 01:55,-119.7500,38.9963,1441.42,87.80,35.60,15.70,270.00,11.00,0.00,29.99,M,4.00,18.00,CLR,M,M,M,M,M,M,M,HZ,M,M,M,M,M,M,84.12,KMEV 250155Z AUTO 27011G18KT 4SM HZ CLR 31/02 A2999 RMK AO2,M
BAM,2022-07-25 01:55,-116.8743,40.5990,1382.36,M,M,M,330.00,9.00,0.00,29.98,M,10.00,M,CLR,M,M,M,M,M,M,M,M,M,M,M,M,M,M,M,KBAM 250155Z AUTO 33009KT 10SM CLR A2998 RMK AO1,M
NFL,2022-07-25 01:56,-118.7010,39.4166,1199.00,99.00,26.10,7.55,350.00,5.00,0.00,29.90,1009.80,10.00,M,FEW,M,M,M,11000.00,M,M,M,M,M,M,M,M,M,M,92.35,KNFL 250156Z AUTO 35005KT 10SM FEW110 37/M03 A2990 RMK AO2 SLP098 T03721033,M
EKO,2022-07-25 01:56,-115.7860,40.8242,1367.00,93.00,23.00,7.97,330.00,9.00,0.00,30.01,1009.50,10.00,M,CLR,M,M,M,M,M,M,M,M,M,M,M,M,M,M,87.27,KEKO 250156Z AUTO 33009KT 10SM CLR 34/M05 A3001 RMK AO2 SLP095 T03391050,M
WMC,2022-07-25 01:56,-117.8072,40.9019,1315.00,96.00,24.10,7.59,350.00,7.00,0.00,29.97,1009.60,10.00,16.00,CLR,M,M,M,M,M,M,M,M,M,M,M,M,M,M,89.76,KWMC 250156Z AUTO 35007G16KT 10SM CLR 36/M04 A2997 RMK AO2 SLP096 T03561044,M
HND,2022-07-25 01:56,-115.1344,35.9729,742.79,100.00,57.00,24.18,150.00,18.00,0.00,29.83,1008.10,10.00,M,CLR,M,M,M,M,M,M,M,M,M,M,M,M,M,M,99.24,KHND 250156Z 15018KT 10SM CLR 38/14 A2983 RMK AO2 SLP081 T03780139 PNO $,M
LAS,2022-07-25 01:56,-115.1634,36.0719,663.00,101.00,54.00,21.10,160.00,4.00,0.00,29.78,1005.20,10.00,M,FEW,SCT,M,M,12000.00,23000.00,M,M,M,M,M,M,M,M,M,99.11,KLAS 250156Z 16004KT 10SM FEW120 SCT230 38/12 A2978 RMK AO2 SLP052 CB DSNT E T03830122,M
TPH,2022-07-25 01:56,-117.0904,38.0505,1654.00,91.00,35.00,13.91,200.00,8.00,0.00,30.04,1007.70,10.00,M,CLR,M,M,M,M,M,M,M,M,M,M,M,M,M,M,86.81,KTPH 250156Z AUTO 20008KT 10SM CLR 33/02 A3004 RMK AO2 SLP077 T03280017,M
LSV,2022-07-25 01:58,-115.0343,36.2362,570.00,102.00,56.00,21.88,140.00,16.00,0.00,29.75,1004.50,10.00,22.00,FEW,SCT,M,M,10000.00,15000.00,M,M,M,M,M,M,M,M,M,101.01,KLSV 250158Z 14016G22KT 10SM FEW100 SCT150 39/13 A2975 RMK AO2A SLP045 T03890133 $,M
INS,2022-07-25 01:58,-115.6733,36.5872,955.00,97.50,46.80,17.90,120.00,14.00,0.00,29.84,1004.80,10.00,M,SCT,M,M,M,12000.00,M,M,M,M,M,M,M,M,M,M,93.81,KINS 250158Z AUTO 12014KT 10SM SCT120 36/08 A2984 RMK AO2 SLP048 T03640082 $,M
BAM,2022-07-25 02:15,-116.8743,40.5990,1382.36,M,M,M,340.00,8.00,0.00,29.98,M,10.00,M,CLR,M,M,M,M,M,M,M,M,M,M,M,M,M,M,M,KBAM 250215Z AUTO 34008KT 10SM CLR A2998 RMK AO1,M
MEV,2022-07-25 02:15,-119.7500,38.9963,1441.42,86.00,37.40,17.85,280.00,10.00,0.00,30.00,M,5.00,15.00,CLR,M,M,M,M,M,M,M,HZ,M,M,M,M,M,M,82.73,KMEV 250215Z AUTO 28010G15KT 5SM HZ CLR 30/03 A3000 RMK AO2,M
05U,2022-07-25 02:15,-116.0051,39.6042,1811.23,80.60,42.80,26.22,140.00,12.00,0.00,30.10,M,10.00,M,CLR,M,M,M,M,M,M,M,M,M,M,M,M,M,M,79.30,K05U 250215Z AUTO 14012KT 10SM CLR 27/06 A3010 RMK A01,M
CXP,2022-07-25 02:15,-119.7326,39.1923,1431.00,91.40,33.80,13.05,290.00,13.00,0.00,30.00,M,6.00,M,CLR,M,M,M,M,M,M,M,HZ,M,M,M,M,M,M,87.13,KCXP 250215Z AUTO 29013KT 6SM HZ CLR 33/01 A3000 RMK AO2,M
BVU,2022-07-25 02:15,-114.8611,35.9475,671.00,M,M,M,M,M,0.00,M,M,M,M,M,M,M,M,M,M,M,M,M,M,M,M,M,M,M,M,KBVU 250215Z AUTO RMK AO2 PNO PWINO TSNO,M
RTS,2022-07-25 02:15,-119.8764,39.6682,1539.00,91.40,17.60,6.66,350.00,10.00,0.00,30.04,M,10.00,M,CLR,M,M,M,M,M,M,M,M,M,M,M,M,M,M,85.76,KRTS 250215Z AUTO 35010KT 10SM CLR 33/M08 A3004 RMK AO2,M
TMT,2022-07-25 02:15,-117.1971,39.4643,1749.34,M,M,M,230.00,4.00,0.00,30.06,M,10.00,M,CLR,M,M,M,M,M,M,M,M,M,M,M,M,M,M,M,KTMT 250215Z AUTO 23004KT 10SM CLR A3006 RMK AO2,M
HTH,2022-07-25 02:15,-118.6315,38.5448,1282.89,96.80,24.80,7.65,320.00,12.00,0.00,29.90,M,10.00,M,CLR,M,M,M,M,M,M,M,M,M,M,M,M,M,M,90.40,KHTH 250215Z AUTO 32012KT 10SM CLR 36/M04 A2990 RMK A01,M
CXP,2022-07-25 02:30,-119.7326,39.1923,1431.00,89.60,35.60,14.83,300.00,12.00,0.00,30.00,M,5.00,M,CLR,M,M,M,M,M,M,M,HZ,M,M,M,M,M,M,85.62,KCXP 250230Z AUTO 30012KT 5SM HZ CLR 32/02 A3000 RMK AO2,M
05U,2022-07-25 02:30,-116.0051,39.6042,1811.23,80.60,42.80,26.22,140.00,10.00,0.00,30.10,M,10.00,M,CLR,M,M,M,M,M,M,M,M,M,M,M,M,M,M,79.30,K05U 250230Z AUTO 14010KT 10SM CLR 27/06 A3010 RMK A01,M
HTH,2022-07-25 02:35,-118.6315,38.5448,1282.89,95.00,26.60,8.71,320.00,12.00,0.00,29.91,M,10.00,M,CLR,M,M,M,M,M,M,M,M,M,M,M,M,M,M,89.08,KHTH 250235Z AUTO 32012KT 10SM CLR 35/M03 A2991 RMK A01,M
TMT,2022-07-25 02:35,-117.1971,39.4643,1749.34,M,M,M,160.00,4.00,0.00,30.06,M,10.00,M,CLR,M,M,M,M,M,M,M,M,M,M,M,M,M,M,M,KTMT 250235Z AUTO 16004KT 10SM CLR A3006 RMK AO2,M
MEV,2022-07-25 02:35,-119.7500,38.9963,1441.42,86.00,35.60,16.63,270.00,12.00,0.00,30.00,M,5.00,18.00,CLR,M,M,M,M,M,M,M,HZ,M,M,M,M,M,M,82.69,KMEV 250235Z AUTO 27012G18KT 5SM HZ CLR 30/02 A3000 RMK AO2,M
RTS,2022-07-25 02:35,-119.8764,39.6682,1539.00,87.80,33.80,14.61,310.00,14.00,0.00,30.05,M,7.00,M,CLR,M,M,M,M,M,M,M,M,M,M,M,M,M,M,84.10,KRTS 250235Z AUTO 31014KT 7SM CLR 31/01 A3005 RMK AO2,M
BVU,2022-07-25 02:35,-114.8611,35.9475,671.00,M,M,M,M,M,0.00,M,M,M,M,M,M,M,M,M,M,M,M,M,M,M,M,M,M,M,M,KBVU 250235Z AUTO RMK AO2 PNO PWINO TSNO,M
BAM,2022-07-25 02:35,-116.8743,40.5990,1382.36,M,M,M,340.00,6.00,0.00,29.99,M,10.00,M,CLR,M,M,M,M,M,M,M,M,M,M,M,M,M,M,M,KBAM 250235Z AUTO 34006KT 10SM CLR A2999 RMK AO1,M
LOL,2022-07-25 02:53,-118.5701,40.0684,1192.43,92.00,34.00,12.95,50.00,6.00,0.00,29.91,1008.10,10.00,M,CLR,M,M,M,M,M,M,M,M,M,M,M,M,M,M,87.56,KLOL 250253Z AUTO 05006KT 10SM CLR 33/01 A2991 RMK AO2 SLP081 T03330011 55007,M
VGT,2022-07-25 02:53,-115.1933,36.2111,667.00,101.00,55.00,21.89,140.00,19.00,0.00,29.80,1007.50,10.00,25.00,CLR,M,M,M,M,M,M,M,M,M,M,M,M,M,M,99.46,KVGT 250253Z 14019G25KT 10SM CLR 38/13 A2980 RMK AO2 SLP075 T03830128 53006,M
P68,2022-07-25 02:53,-116.0056,39.6014,1993.00,78.00,43.00,28.68,140.00,8.00,0.00,30.08,1009.60,M,M,M,M,M,M,M,M,M,M,M,M,M,M,M,M,M,78.10,KP68 250253Z AUTO 14008KT 26/06 A3008 RMK AO1 SLP096 T02560061 55003,M
ELY,2022-07-25 02:53,-114.8453,39.2950,1909.00,66.00,56.00,69.88,240.00,10.00,T,30.21,1012.50,10.00,M,OVC,M,M,M,10000.00,M,M,M,M,M,M,M,M,M,M,66.00,KELY 250253Z AUTO 24010KT 10SM OVC100 19/13 A3021 RMK AO2 RAB0158E11 SLP125 P0000 60000 T01890133 53006,M
DRA,2022-07-25 02:53,-116.0278,36.6206,1009.00,96.00,44.00,16.87,190.00,12.00,0.00,29.88,1005.80,10.00,M,CLR,M,M,M,M,M,M,M,M,M,M,M,M,M,M,92.05,KDRA 250253Z AUTO 19012KT 10SM CLR 36/07 A2988 RMK AO2 SLP058 T03560067 55001,M
RTS,2022-07-25 02:55,-119.8764,39.6682,1539.00,84.20,35.60,17.61,310.00,9.00,0.00,30.06,M,7.00,M,CLR,M,M,M,M,M,M,M,M,M,M,M,M,M,M,81.34,KRTS 250255Z AUTO 31009KT 7SM CLR 29/02 A3006 RMK AO2,M
BVU,2022-07-25 02:55,-114.8611,35.9475,671.00,M,M,M,M,M,0.00,M,M,M,M,M,M,M,M,M,M,M,M,M,M,M,M,M,M,M,M,KBVU 250255Z AUTO RMK AO2 PNO PWINO TSNO,M
CXP,2022-07-25 02:55,-119.7326,39.1923,1431.00,87.80,33.80,14.61,310.00,10.00,0.00,30.01,M,6.00,M,CLR,M,M,M,M,M,M,M,HZ,M,M,M,M,M,M,84.10,KCXP 250255Z AUTO 31010KT 6SM HZ CLR 31/01 A3001 RMK AO2,M
RNO,2022-07-25 02:55,-119.7711,39.4839,1341.00,92.00,41.00,17.05,280.00,11.00,0.00,29.97,1008.50,5.00,M,CLR,M,M,M,M,M,M,M,FU,M,M,M,M,M,M,87.85,KRNO 250255Z 28011KT 5SM FU CLR 33/05 A2997 RMK AO2 SLP085 T03330050 55002,M
05U,2022-07-25 02:55,-116.0051,39.6042,1811.23,78.80,42.80,27.81,140.00,8.00,0.00,30.11,M,10.00,M,CLR,M,M,M,M,M,M,M,M,M,M,M,M,M,M,78.80,K05U 250255Z AUTO 14008KT 10SM CLR 26/06 A3011 RMK A01,M
MEV,2022-07-25 02:55,-119.7500,38.9963,1441.42,84.20,35.60,17.61,280.00,12.00,0.00,30.01,M,5.00,18.00,CLR,M,M,M,M,M,M,M,HZ,M,M,M,M,M,M,81.34,KMEV 250255Z AUTO 28012G18KT 5SM HZ CLR 29/02 A3001 RMK AO2,M
BAM,2022-07-25 02:55,-116.8743,40.5990,1382.36,M,M,M,340.00,7.00,0.00,29.99,M,10.00,M,CLR,M,M,M,M,M,M,M,M,M,M,M,M,M,M,M,KBAM 250255Z AUTO 34007KT 10SM CLR A2999 RMK AO1,M
HTH,2022-07-25 02:55,-118.6315,38.5448,1282.89,93.20,30.20,10.67,320.00,10.00,0.00,29.92,M,10.00,M,CLR,M,M,M,M,M,M,M,M,M,M,M,M,M,M,88.09,KHTH 250255Z AUTO 32010KT 10SM CLR 34/M01 A2992 RMK A01,M
TMT,2022-07-25 02:55,-117.1971,39.4643,1749.34,M,M,M,310.00,4.00,0.00,30.07,M,10.00,M,CLR,M,M,M,M,M,M,M,M,M,M,M,M,M,M,M,KTMT 250255Z AUTO 31004KT 10SM CLR A3007 RMK AO2,M
EKO,2022-07-25 02:56,-115.7860,40.8242,1367.00,90.00,24.10,9.17,350.00,7.00,0.00,30.02,1009.90,10.00,M,CLR,M,M,M,M,M,M,M,M,M,M,M,M,M,M,85.12,KEKO 250256Z AUTO 35007KT 10SM CLR 32/M04 A3002 RMK AO2 SLP099 T03221044 55000,M
TPH,2022-07-25 02:56,-117.0904,38.0505,1654.00,88.00,35.00,15.29,190.00,10.00,0.00,30.05,1008.00,10.00,M,CLR,M,M,M,M,M,M,M,M,M,M,M,M,M,M,84.28,KTPH 250256Z AUTO 19010KT 10SM CLR 31/02 A3005 RMK AO2 SLP080 T03110017 55002,M
HND,2022-07-25 02:56,-115.1344,35.9729,742.79,97.00,57.00,26.49,160.00,18.00,0.00,29.86,1009.10,10.00,M,CLR,M,M,M,M,M,M,M,M,M,M,M,M,M,M,95.92,KHND 250256Z 16018KT 10SM CLR 36/14 A2986 RMK AO2 SLP091 6//// T03610139 53007 PNO $,M
LAS,2022-07-25 02:56,-115.1634,36.0719,663.00,98.00,56.00,24.61,150.00,9.00,0.00,29.82,1006.40,10.00,21.00,FEW,SCT,M,M,12000.00,23000.00,M,M,M,M,M,M,M,M,M,96.72,KLAS 250256Z 15009G21KT 10SM FEW120 SCT230 37/13 A2982 RMK AO2 SLP064 T03670133 53007,M
WMC,2022-07-25 02:56,-117.8072,40.9019,1315.00,89.00,25.00,9.79,350.00,6.00,0.00,29.98,1009.70,10.00,M,CLR,M,M,M,M,M,M,M,M,M,M,M,M,M,M,84.52,KWMC 250256Z AUTO 35006KT 10SM CLR 32/M04 A2998 RMK AO2 SLP097 T03171039 55001,M
NFL,2022-07-25 02:56,-118.7010,39.4166,1199.00,91.00,30.00,11.33,10.00,6.00,0.00,29.90,1010.00,10.00,M,FEW,M,M,M,11000.00,M,M,M,M,M,M,M,M,M,M,86.38,KNFL 250256Z AUTO 01006KT 10SM FEW110 33/M01 A2990 RMK AO2 SLP100 T03281011 55008,M
INS,2022-07-25 02:58,-115.6733,36.5872,955.00,95.20,50.40,21.98,120.00,18.00,0.00,29.86,1005.50,10.00,24.00,SCT,M,M,M,13000.00,M,M,M,M,M,M,M,M,M,M,92.17,KINS 250258Z AUTO 12018G24KT 10SM SCT130 35/10 A2986 RMK AO2 SLP055 T03510102 53000 $,M
LSV,2022-07-25 02:58,-115.0343,36.2362,570.00,100.00,56.50,23.82,150.00,16.00,0.00,29.79,1005.70,10.00,M,SCT,SCT,M,M,12000.00,18000.00,M,M,M,M,M,M,M,M,M,98.93,KLSV 250258Z 15016KT 10SM SCT120 SCT180 38/14 A2979 RMK AO2A SLP057 T03770136 53009 $,M
RTS,2022-07-25 03:15,-119.8764,39.6682,1539.00,82.40,37.40,20.04,290.00,9.00,0.00,30.06,M,7.00,M,CLR,M,M,M,M,M,M,M,M,M,M,M,M,M,M,80.14,KRTS 250315Z AUTO 29009KT 7SM CLR 28/03 A3006 RMK AO2,M
TMT,2022-07-25 03:15,-117.1971,39.4643,1749.34,M,M,M,20.00,3.00,0.00,30.07,M,10.00,M,CLR,M,M,M,M,M,M,M,M,M,M,M,M,M,M,M,KTMT 250315Z AUTO 02003KT 10SM CLR A3007 RMK AO2,M
HTH,2022-07-25 03:15,-118.6315,38.5448,1282.89,91.40,39.20,16.15,330.00,10.00,0.00,29.92,M,10.00,16.00,CLR,M,M,M,M,M,M,M,M,M,M,M,M,M,M,87.30,KHTH 250315Z AUTO 33010G16KT 10SM CLR 33/04 A2992 RMK A01,M
BAM,2022-07-25 03:15,-116.8743,40.5990,1382.36,M,M,M,340.00,7.00,0.00,29.99,M,10.00,M,CLR,M,M,M,M,M,M,M,M,M,M,M,M,M,M,M,KBAM 250315Z AUTO 34007KT 10SM CLR A2999 RMK AO1,M
MEV,2022-07-25 03:15,-119.7500,38.9963,1441.42,84.20,33.80,16.39,270.00,11.00,0.00,30.02,M,6.00,M,CLR,M,M,M,M,M,M,M,HZ,M,M,M,M,M,M,81.30,KMEV 250315Z AUTO 27011KT 6SM HZ CLR 29/01 A3002 RMK AO2,M
BVU,2022-07-25 03:15,-114.8611,35.9475,671.00,M,M,M,M,M,0.00,M,M,M,M,M,M,M,M,M,M,M,M,M,M,M,M,M,M,M,M,KBVU 250315Z AUTO RMK AO2 PNO PWINO TSNO,M
CXP,2022-07-25 03:15,-119.7326,39.1923,1431.00,86.00,33.80,15.48,270.00,4.00,0.00,30.02,M,6.00,M,CLR,M,M,M,M,M,M,M,HZ,M,M,M,M,M,M,82.66,KCXP 250315Z AUTO 27004KT 6SM HZ CLR 30/01 A3002 RMK AO2,M
05U,2022-07-25 03:15,-116.0051,39.6042,1811.23,77.00,41.00,27.53,0.00,0.00,0.00,30.11,M,10.00,M,CLR,M,M,M,M,M,M,M,M,M,M,M,M,M,M,77.00,K05U 250315Z AUTO 00000KT 10SM CLR 25/05 A3011 RMK A01,M
BVU,2022-07-25 03:35,-114.8611,35.9475,671.00,M,M,M,M,M,0.00,M,M,M,M,M,M,M,M,M,M,M,M,M,M,M,M,M,M,M,M,KBVU 250335Z AUTO RMK AO2 PNO PWINO TSNO,M
RTS,2022-07-25 03:35,-119.8764,39.6682,1539.00,80.60,37.40,21.25,270.00,10.00,0.00,30.07,M,7.00,M,CLR,M,M,M,M,M,M,M,M,M,M,M,M,M,M,79.02,KRTS 250335Z AUTO 27010KT 7SM CLR 27/03 A3007 RMK AO2,M
05U,2022-07-25 03:35,-116.0051,39.6042,1811.23,77.00,41.00,27.53,0.00,0.00,0.00,30.12,M,10.00,M,CLR,M,M,M,M,M,M,M,M,M,M,M,M,M,M,77.00,K05U 250335Z AUTO 00000KT 10SM CLR 25/05 A3012 RMK A01,M
TMT,2022-07-25 03:35,-117.1971,39.4643,1749.34,M,M,M,300.00,4.00,0.00,30.08,M,10.00,M,CLR,M,M,M,M,M,M,M,M,M,M,M,M,M,M,M,KTMT 250335Z AUTO 30004KT 10SM CLR A3008 RMK AO2,M
BAM,2022-07-25 03:35,-116.8743,40.5990,1382.36,M,M,M,340.00,7.00,0.00,29.99,M,10.00,M,CLR,M,M,M,M,M,M,M,M,M,M,M,M,M,M,M,KBAM 250335Z AUTO 34007KT 10SM CLR A2999 RMK AO1,M
MEV,2022-07-25 03:35,-119.7500,38.9963,1441.42,80.60,35.60,19.79,0.00,0.00,0.00,30.03,M,6.00,M,CLR,M,M,M,M,M,M,M,HZ,M,M,M,M,M,M,78.94,KMEV 250335Z AUTO 00000KT 6SM HZ CLR 27/02 A3003 RMK AO2,M
HTH,2022-07-25 03:35,-118.6315,38.5448,1282.89,89.60,37.40,15.92,330.00,11.00,0.00,29.94,M,10.00,M,CLR,M,M,M,M,M,M,M,M,M,M,M,M,M,M,85.67,KHTH 250335Z AUTO 33011KT 10SM CLR 32/03 A2994 RMK A01,M
CXP,2022-07-25 03:35,-119.7326,39.1923,1431.00,84.20,37.40,18.91,130.00,6.00,0.00,30.03,M,5.00,M,CLR,M,M,M,M,M,M,M,HZ,M,M,M,M,M,M,81.38,KCXP 250335Z AUTO 13006KT 5SM HZ CLR 29/03 A3003 RMK AO2,M
ELY,2022-07-25 03:53,-114.8453,39.2950,1909.00,64.00,57.00,77.97,190.00,14.00,0.02,30.18,1011.20,10.00,M,OVC,M,M,M,12000.00,M,M,M,M,M,M,M,M,M,M,64.00,KELY 250353Z AUTO 19014KT 10SM OVC120 18/14 A3018 RMK AO2 RAB0257E18 SLP112 P0002 T01780139,M
DRA,2022-07-25 03:53,-116.0278,36.6206,1009.00,94.00,45.00,18.68,190.00,14.00,0.00,29.90,1006.60,10.00,20.00,CLR,M,M,M,M,M,M,M,M,M,M,M,M,M,M,90.05,KDRA 250353Z AUTO 19014G20KT 10SM CLR 34/07 A2990 RMK AO2 SLP066 T03440072,M
LOL,2022-07-25 03:53,-118.5701,40.0684,1192.43,84.00,27.00,12.52,10.00,7.00,0.00,29.93,1008.40,10.00,M,CLR,M,M,M,M,M,M,M,M,M,M,M,M,M,M,81.03,KLOL 250353Z AUTO 01007KT 10SM CLR 29/M03 A2993 RMK AO2 SLP084 T02891028,M
VGT,2022-07-25 03:53,-115.1933,36.2111,667.00,99.00,56.00,23.95,150.00,15.00,0.00,29.83,1008.40,10.00,M,CLR,M,M,M,M,M,M,M,M,M,M,M,M,M,M,97.71,KVGT 250353Z 15015KT 10SM CLR 37/13 A2983 RMK AO2 SLP084 T03720133,M
P68,2022-07-25 03:53,-116.0056,39.6014,1993.00,75.00,40.00,28.20,150.00,7.00,0.00,30.10,1009.80,M,M,M,M,M,M,M,M,M,M,M,M,M,M,M,M,M,75.00,KP68 250353Z AUTO 15007KT 24/04 A3010 RMK AO1 SLP098 T02390044,M
05U,2022-07-25 03:55,-116.0051,39.6042,1811.23,73.40,39.20,28.96,0.00,0.00,0.00,30.12,M,10.00,M,CLR,M,M,M,M,M,M,M,M,M,M,M,M,M,M,73.40,K05U 250355Z AUTO 00000KT 10SM CLR 23/04 A3012 RMK A01,M
TMT,2022-07-25 03:55,-117.1971,39.4643,1749.34,M,M,M,360.00,8.00,0.00,30.08,M,10.00,M,CLR,M,M,M,M,M,M,M,M,M,M,M,M,M,M,M,KTMT 250355Z AUTO 36008KT 10SM CLR A3008 RMK AO2,M
RTS,2022-07-25 03:55,-119.8764,39.6682,1539.00,80.60,37.40,21.25,280.00,10.00,0.00,30.07,M,8.00,M,CLR,M,M,M,M,M,M,M,M,M,M,M,M,M,M,79.02,KRTS 250355Z AUTO 28010KT 8SM CLR 27/03 A3007 RMK AO2,M
RNO,2022-07-25 03:55,-119.7711,39.4839,1341.00,87.00,40.00,19.01,300.00,14.00,0.00,29.99,1009.10,5.00,M,CLR,M,M,M,M,M,M,M,FU,M,M,M,M,M,M,83.68,KRNO 250355Z 30014KT 5SM FU CLR 31/04 A2999 RMK AO2 SLP091 T03060044,M
BAM,2022-07-25 03:55,-116.8743,40.5990,1382.36,M,M,M,350.00,9.00,0.00,30.00,M,10.00,M,CLR,M,M,M,M,M,M,M,M,M,M,M,M,M,M,M,KBAM 250355Z AUTO 35009KT 10SM CLR A3000 RMK AO1,M
CXP,2022-07-25 03:55,-119.7326,39.1923,1431.00,82.40,37.40,20.04,100.00,6.00,0.00,30.04,M,7.00,M,CLR,M,M,M,M,M,M,M,M,M,M,M,M,M,M,80.14,KCXP 250355Z AUTO 10006KT 7SM CLR 28/03 A3004 RMK AO2,M
HTH,2022-07-25 03:55,-118.6315,38.5448,1282.89,89.60,35.60,14.83,330.00,9.00,0.00,29.95,M,10.00,14.00,CLR,M,M,M,M,M,M,M,M,M,M,M,M,M,M,85.62,KHTH 250355Z AUTO 33009G14KT 10SM CLR 32/02 A2995 RMK A01,M
BVU,2022-07-25 03:55,-114.8611,35.9475,671.00,M,M,M,M,M,0.00,M,M,M,M,M,M,M,M,M,M,M,M,M,M,M,M,M,M,M,M,KBVU 250355Z AUTO RMK AO2 PNO PWINO TSNO,M
MEV,2022-07-25 03:55,-119.7500,38.9963,1441.42,78.80,37.40,22.54,190.00,4.00,0.00,30.04,M,8.00,M,SCT,M,M,M,3100.00,M,M,M,M,M,M,M,M,M,M,78.80,KMEV 250355Z AUTO 19004KT 8SM SCT031 26/03 A3004 RMK AO2,M
EKO,2022-07-25 03:56,-115.7860,40.8242,1367.00,84.00,24.10,11.10,50.00,10.00,0.00,30.05,1010.80,10.00,M,CLR,M,M,M,M,M,M,M,M,M,M,M,M,M,M,80.82,KEKO 250356Z AUTO 05010KT 10SM CLR 29/M04 A3005 RMK AO2 SLP108 T02891044,M
TPH,2022-07-25 03:56,-117.0904,38.0505,1654.00,83.00,33.00,16.62,190.00,8.00,0.00,30.07,1008.70,10.00,M,CLR,M,M,M,M,M,M,M,M,M,M,M,M,M,M,80.36,KTPH 250356Z AUTO 19008KT 10SM CLR 28/01 A3007 RMK AO2 SLP087 T02830006,M
NFL,2022-07-25 03:56,-118.7010,39.4166,1199.00,82.00,30.00,15.10,350.00,5.00,0.00,29.92,1010.40,10.00,M,CLR,M,M,M,M,M,M,M,M,M,M,M,M,M,M,79.69,KNFL 250356Z AUTO 35005KT 10SM CLR 28/M01 A2992 RMK AO2 SLP104 T02781011,M
HND,2022-07-25 03:56,-115.1344,35.9729,742.79,95.00,60.00,31.47,150.00,16.00,0.00,29.89,1010.00,10.00,21.00,CLR,M,M,M,M,M,M,M,M,M,M,M,M,M,M,94.98,KHND 250356Z AUTO 15016G21KT 10SM CLR 35/16 A2989 RMK AO2 SLP100 T03500156 PNO $,M
WMC,2022-07-25 03:56,-117.8072,40.9019,1315.00,84.00,26.10,12.06,50.00,6.00,0.00,30.00,1010.00,10.00,M,CLR,M,M,M,M,M,M,M,M,M,M,M,M,M,M,80.96,KWMC 250356Z AUTO 05006KT 10SM CLR 29/M03 A3000 RMK AO2 SLP100 T02891033,M
LAS,2022-07-25 03:56,-115.1634,36.0719,663.00,97.00,57.00,26.49,170.00,11.00,0.00,29.84,1007.10,10.00,25.00,FEW,SCT,M,M,12000.00,23000.00,M,M,M,M,M,M,M,M,M,95.92,KLAS 250356Z 17011G25KT 10SM FEW120 SCT230 36/14 A2984 RMK AO2 SLP071 T03610139,M
INS,2022-07-25 03:58,-115.6733,36.5872,955.00,93.60,50.20,22.93,140.00,17.00,0.00,29.89,1006.40,10.00,M,SCT,M,M,M,12000.00,M,M,M,M,M,M,M,M,M,M,90.53,KINS 250358Z AUTO 14017KT 10SM SCT120 34/10 A2989 RMK AO2 SLP064 T03420101 $,M
LSV,2022-07-25 03:58,-115.0343,36.2362,570.00,96.80,59.00,28.63,150.00,12.00,0.00,29.81,M,10.00,M,SCT,M,M,M,20000.00,M,M,M,M,M,M,M,M,M,M,96.50,KLSV 250358Z 15012KT 10SM SCT200 36/15 A2981 RMK AO2A SLPNO ALSTG ESTMD RVRNO $,M
CXP,2022-07-25 04:15,-119.7326,39.1923,1431.00,82.40,37.40,20.04,130.00,3.00,0.00,30.05,M,7.00,M,CLR,M,M,M,M,M,M,M,M,M,M,M,M,M,M,80.14,KCXP 250415Z AUTO 13003KT 7SM CLR 28/03 A3005 RMK AO2,M
MEV,2022-07-25 04:15,-119.7500,38.9963,1441.42,69.80,41.00,35.09,120.00,7.00,0.00,30.04,M,8.00,M,FEW,SCT,SCT,M,3300.00,4700.00,5500.00,M,M,M,M,M,M,M,M,69.80,KMEV 250415Z AUTO 12007KT 8SM FEW033 SCT047 SCT055 21/05 A3004 RMK AO2,M
BVU,2022-07-25 04:15,-114.8611,35.9475,671.00,M,M,M,M,M,0.00,M,M,M,M,M,M,M,M,M,M,M,M,M,M,M,M,M,M,M,M,KBVU 250415Z AUTO RMK AO2 PNO PWINO TSNO,M
BAM,2022-07-25 04:15,-116.8743,40.5990,1382.36,M,M,M,50.00,3.00,0.00,30.01,M,10.00,M,CLR,M,M,M,M,M,M,M,M,M,M,M,M,M,M,M,KBAM 250415Z AUTO 05003KT 10SM CLR A3001 RMK AO1,M
HTH,2022-07-25 04:15,-118.6315,38.5448,1282.89,89.60,39.20,17.09,M,3.00,0.00,29.97,M,10.00,M,CLR,M,M,M,M,M,M,M,M,M,M,M,M,M,M,85.73,KHTH 250415Z AUTO VRB03KT 10SM CLR 32/04 A2997 RMK A01,M
TMT,2022-07-25 04:15,-117.1971,39.4643,1749.34,M,M,M,10.00,8.00,0.00,30.09,M,10.00,M,CLR,M,M,M,M,M,M,M,M,M,M,M,M,M,M,M,KTMT 250415Z AUTO 01008KT 10SM CLR A3009 RMK AO2,M
05U,2022-07-25 04:15,-116.0051,39.6042,1811.23,73.40,41.00,31.05,0.00,0.00,0.00,30.13,M,10.00,M,CLR,M,M,M,M,M,M,M,M,M,M,M,M,M,M,73.40,K05U 250415Z AUTO 00000KT 10SM CLR 23/05 A3013 RMK A01,M
RTS,2022-07-25 04:15,-119.8764,39.6682,1539.00,78.80,37.40,22.54,270.00,11.00,0.00,30.08,M,8.00,M,CLR,M,M,M,M,M,M,M,M,M,M,M,M,M,M,78.80,KRTS 250415Z AUTO 27011KT 8SM CLR 26/03 A3008 RMK AO2,M
CXP,2022-07-25 04:30,-119.7326,39.1923,1431.00,80.60,37.40,21.25,0.00,0.00,0.00,30.05,M,7.00,M,CLR,M,M,M,M,M,M,M,M,M,M,M,M,M,M,79.02,KCXP 250430Z AUTO 00000KT 7SM CLR 27/03 A3005 RMK AO2,M
BAM,2022-07-25 04:35,-116.8743,40.5990,1382.36,M,M,M,60.00,10.00,0.00,30.02,M,10.00,15.00,CLR,M,M,M,M,M,M,M,M,M,M,M,M,M,M,M,KBAM 250435Z AUTO 06010G15KT 10SM CLR A3002 RMK AO1,M
RTS,2022-07-25 04:35,-119.8764,39.6682,1539.00,77.00,37.40,23.93,290.00,6.00,0.00,30.09,M,8.00,M,CLR,M,M,M,M,M,M,M,M,M,M,M,M,M,M,77.00,KRTS 250435Z AUTO 29006KT 8SM CLR 25/03 A3009 RMK AO2,M
05U,2022-07-25 04:35,-116.0051,39.6042,1811.23,71.60,41.00,33.00,130.00,3.00,0.00,30.14,M,10.00,M,CLR,M,M,M,M,M,M,M,M,M,M,M,M,M,M,71.60,K05U 250435Z AUTO 13003KT 10SM CLR 22/05 A3014 RMK A01,M
MEV,2022-07-25 04:35,-119.7500,38.9963,1441.42,71.60,39.20,30.77,210.00,4.00,0.00,30.05,M,8.00,M,FEW,FEW,SCT,M,3300.00,4200.00,4900.00,M,M,M,M,M,M,M,M,71.60,KMEV 250435Z AUTO 21004KT 8SM FEW033 FEW042 SCT049 22/04 A3005 RMK AO2,M
BVU,2022-07-25 04:35,-114.8611,35.9475,671.00,M,M,M,M,M,0.00,M,M,M,M,M,M,M,M,M,M,M,M,M,M,M,M,M,M,M,M,KBVU 250435Z AUTO RMK AO2 PNO PWINO TSNO,M
HTH,2022-07-25 04:35,-118.6315,38.5448,1282.89,89.60,35.60,14.83,250.00,3.00,0.00,29.97,M,10.00,M,CLR,M,M,M,M,M,M,M,M,M,M,M,M,M,M,85.62,KHTH 250435Z AUTO 25003KT 10SM CLR 32/02 A2997 RMK A01,M
TMT,2022-07-25 04:35,-117.1971,39.4643,1749.34,M,M,M,20.00,7.00,0.00,30.11,M,10.00,M,CLR,M,M,M,M,M,M,M,M,M,M,M,M,M,M,M,KTMT 250435Z AUTO 02007KT 10SM CLR A3011 RMK AO2,M
LOL,2022-07-25 04:53,-118.5701,40.0684,1192.43,83.00,21.90,10.48,50.00,8.00,0.00,29.95,1009.00,10.00,M,CLR,M,M,M,M,M,M,M,M,M,M,M,M,M,M,79.93,KLOL 250453Z AUTO 05008KT 10SM CLR 28/M06 A2995 RMK AO2 SLP090 T02831056,M
ELY,2022-07-25 04:53,-114.8453,39.2950,1909.00,64.00,55.00,72.52,190.00,12.00,0.00,30.19,1011.40,10.00,M,BKN,M,M,M,12000.00,M,M,M,M,M,M,M,M,M,M,64.00,KELY 250453Z AUTO 19012KT 10SM BKN120 18/13 A3019 RMK AO2 SLP114 T01780128,M
DRA,2022-07-25 04:53,-116.0278,36.6206,1009.00,93.00,46.00,19.95,180.00,10.00,0.00,29.91,1006.80,10.00,M,CLR,M,M,M,M,M,M,M,M,M,M,M,M,M,M,89.31,KDRA 250453Z AUTO 18010KT 10SM CLR 34/08 A2991 RMK AO2 SLP068 T03390078,M
VGT,2022-07-25 04:53,-115.1933,36.2111,667.00,97.00,58.00,27.36,160.00,16.00,0.00,29.86,1009.20,10.00,23.00,CLR,M,M,M,M,M,M,M,M,M,M,M,M,M,M,96.26,KVGT 250453Z AUTO 16016G23KT 10SM CLR 36/14 A2986 RMK AO2 SLP092 T03610144,M
P68,2022-07-25 04:53,-116.0056,39.6014,1993.00,76.00,40.00,27.37,150.00,8.00,0.00,30.12,1010.00,M,M,M,M,M,M,M,M,M,M,M,M,M,M,M,M,M,75.90,KP68 250453Z AUTO 15008KT 24/04 A3012 RMK AO1 SLP100 T02440044,M
MEV,2022-07-25 04:55,-119.7500,38.9963,1441.42,68.00,39.20,34.80,170.00,6.00,0.00,30.05,M,8.00,M,FEW,FEW,SCT,M,3200.00,4000.00,4800.00,M,M,M,M,M,M,M,M,68.00,KMEV 250455Z AUTO 17006KT 8SM FEW032 FEW040 SCT048 20/04 A3005 RMK AO2,M
05U,2022-07-25 04:55,-116.0051,39.6042,1811.23,75.20,39.20,27.26,0.00,0.00,0.00,30.14,M,10.00,M,CLR,M,M,M,M,M,M,M,M,M,M,M,M,M,M,75.20,K05U 250455Z AUTO 00000KT 10SM CLR 24/04 A3014 RMK A01,M
RTS,2022-07-25 04:55,-119.8764,39.6682,1539.00,77.00,37.40,23.93,290.00,8.00,0.00,30.09,M,9.00,M,CLR,M,M,M,M,M,M,M,M,M,M,M,M,M,M,77.00,KRTS 250455Z AUTO 29008KT 9SM CLR 25/03 A3009 RMK AO2,M
CXP,2022-07-25 04:55,-119.7326,39.1923,1431.00,78.80,37.40,22.54,0.00,0.00,0.00,30.06,M,6.00,M,CLR,M,M,M,M,M,M,M,HZ,M,M,M,M,M,M,78.80,KCXP 250455Z AUTO 00000KT 6SM HZ CLR 26/03 A3006 RMK AO2,M
BVU,2022-07-25 04:55,-114.8611,35.9475,671.00,M,M,M,M,M,0.00,M,M,M,M,M,M,M,M,M,M,M,M,M,M,M,M,M,M,M,M,KBVU 250455Z AUTO RMK AO2 PNO PWINO TSNO,M
TMT,2022-07-25 04:55,-117.1971,39.4643,1749.34,M,M,M,30.00,6.00,0.00,30.11,M,10.00,M,CLR,M,M,M,M,M,M,M,M,M,M,M,M,M,M,M,KTMT 250455Z AUTO 03006KT 10SM CLR A3011 RMK AO2,M
RNO,2022-07-25 04:55,-119.7711,39.4839,1341.00,85.00,40.00,20.39,290.00,11.00,0.00,30.01,1009.80,6.00,M,CLR,M,M,M,M,M,M,M,FU,M,M,M,M,M,M,81.98,KRNO 250455Z 29011KT 6SM FU CLR 29/04 A3001 RMK AO2 SLP098 T02940044,M
HTH,2022-07-25 04:55,-118.6315,38.5448,1282.89,89.60,30.20,11.94,M,3.00,0.00,29.97,M,10.00,M,FEW,FEW,SCT,M,3200.00,4800.00,8500.00,M,M,M,M,M,M,M,M,85.34,KHTH 250455Z AUTO VRB03KT 10SM FEW032 FEW048 SCT085 32/M01 A2997 RMK A01,M
BAM,2022-07-25 04:55,-116.8743,40.5990,1382.36,M,M,M,70.00,15.00,0.00,30.03,M,10.00,M,CLR,M,M,M,M,M,M,M,M,M,M,M,M,M,M,M,KBAM 250455Z AUTO 07015KT 10SM CLR A3003 RMK AO1,M
WMC,2022-07-25 04:56,-117.8072,40.9019,1315.00,82.00,26.10,12.87,50.00,12.00,0.00,30.02,1010.70,10.00,M,CLR,M,M,M,M,M,M,M,M,M,M,M,M,M,M,79.62,KWMC 250456Z AUTO 05012KT 10SM CLR 28/M03 A3002 RMK AO2 SLP107 T02781033,M
EKO,2022-07-25 04:56,-115.7860,40.8242,1367.00,80.00,25.00,13.08,50.00,8.00,0.00,30.08,1011.90,10.00,M,CLR,M,M,M,M,M,M,M,M,M,M,M,M,M,M,78.42,KEKO 250456Z AUTO 05008KT 10SM CLR 27/M04 A3008 RMK AO2 SLP119 T02671039,M
NFL,2022-07-25 04:56,-118.7010,39.4166,1199.00,78.00,30.90,17.80,340.00,6.00,0.00,29.93,1010.80,10.00,M,CLR,M,M,M,M,M,M,M,M,M,M,M,M,M,M,78.10,KNFL 250456Z AUTO 34006KT 10SM CLR 26/M01 A2993 RMK AO2 SLP108 T02561006,M
HND,2022-07-25 04:56,-115.1344,35.9729,742.79,92.00,57.00,31.00,160.00,15.00,0.00,29.91,1010.60,10.00,22.00,CLR,M,M,M,M,M,M,M,M,M,M,M,M,M,M,90.50,KHND 250456Z AUTO 16015G22KT 10SM CLR 33/14 A2991 RMK AO2 SLP106 T03330139 PNO $,M
TPH,2022-07-25 04:56,-117.0904,38.0505,1654.00,78.00,30.00,17.16,200.00,6.00,0.00,30.09,1009.70,10.00,M,CLR,M,M,M,M,M,M,M,M,M,M,M,M,M,M,78.10,KTPH 250456Z AUTO 20006KT 10SM CLR 26/M01 A3009 RMK AO2 SLP097 T02561011,M
LAS,2022-07-25 04:56,-115.1634,36.0719,663.00,94.00,57.00,29.14,170.00,10.00,0.00,29.86,1008.00,10.00,18.00,FEW,SCT,M,M,12000.00,23000.00,M,M,M,M,M,M,M,M,M,92.58,KLAS 250456Z 17010G18KT 10SM FEW120 SCT230 34/14 A2986 RMK AO2 SLP080 T03440139,M
INS,2022-07-25 04:58,-115.6733,36.5872,955.00,91.00,52.20,26.85,130.00,13.00,0.00,29.91,1007.00,10.00,M,CLR,M,M,M,M,M,M,M,M,M,M,M,M,M,M,88.29,KINS 250458Z AUTO 13013KT 10SM CLR 33/11 A2991 RMK AO2 SLP070 T03270112 $,M
LSV,2022-07-25 04:58,-115.0343,36.2362,570.00,96.80,59.00,28.63,140.00,14.00,0.00,29.83,M,10.00,M,SCT,M,M,M,20000.00,M,M,M,M,M,M,M,M,M,M,96.50,KLSV 250458Z 14014KT 10SM SCT200 36/15 A2983 RMK AO2A SLPNO ALSTG ESTMD $,M
05U,2022-07-25 05:10,-116.0051,39.6042,1811.23,71.60,41.00,33.00,0.00,0.00,0.00,30.15,M,10.00,M,CLR,M,M,M,M,M,M,M,M,M,M,M,M,M,M,71.60,K05U 250510Z AUTO 00000KT 10SM CLR 22/05 A3015 RMK A01,M
HTH,2022-07-25 05:15,-118.6315,38.5448,1282.89,87.80,37.40,16.86,340.00,5.00,0.00,29.97,M,10.00,M,SCT,SCT,SCT,M,3400.00,4800.00,6000.00,M,M,M,M,M,M,M,M,84.16,KHTH 250515Z AUTO 34005KT 10SM SCT034 SCT048 SCT060 31/03 A2997 RMK A01,M
BAM,2022-07-25 05:15,-116.8743,40.5990,1382.36,M,M,M,40.00,11.00,0.00,30.04,M,10.00,22.00,CLR,M,M,M,M,M,M,M,M,M,M,M,M,M,M,M,KBAM 250515Z AUTO 04011G22KT 10SM CLR A3004 RMK AO1,M
CXP,2022-07-25 05:15,-119.7326,39.1923,1431.00,77.00,37.40,23.93,0.00,0.00,0.00,30.06,M,7.00,M,CLR,M,M,M,M,M,M,M,M,M,M,M,M,M,M,77.00,KCXP 250515Z AUTO 00000KT 7SM CLR 25/03 A3006 RMK AO2,M
MEV,2022-07-25 05:15,-119.7500,38.9963,1441.42,64.40,37.40,36.74,120.00,9.00,0.00,30.06,M,8.00,M,FEW,FEW,SCT,M,3400.00,3900.00,5000.00,M,M,M,M,M,M,M,M,64.40,KMEV 250515Z AUTO 12009KT 8SM FEW034 FEW039 SCT050 18/03 A3006 RMK AO2,M
RTS,2022-07-25 05:15,-119.8764,39.6682,1539.00,77.00,37.40,23.93,280.00,10.00,0.00,30.09,M,9.00,M,CLR,M,M,M,M,M,M,M,M,M,M,M,M,M,M,77.00,KRTS 250515Z AUTO 28010KT 9SM CLR 25/03 A3009 RMK AO2,M
BVU,2022-07-25 05:15,-114.8611,35.9475,671.00,M,M,M,M,M,0.00,M,M,M,M,M,M,M,M,M,M,M,M,M,M,M,M,M,M,M,M,KBVU 250515Z AUTO RMK AO2 PNO PWINO TSNO,M
TMT,2022-07-25 05:15,-117.1971,39.4643,1749.34,M,M,M,20.00,7.00,0.00,30.12,M,10.00,M,CLR,M,M,M,M,M,M,M,M,M,M,M,M,M,M,M,KTMT 250515Z AUTO 02007KT 10SM CLR A3012 RMK AO2,M
05U,2022-07-25 05:30,-116.0051,39.6042,1811.23,69.80,41.00,35.09,0.00,0.00,0.00,30.15,M,10.00,M,CLR,M,M,M,M,M,M,M,M,M,M,M,M,M,M,69.80,K05U 250530Z AUTO 00000KT 10SM CLR 21/05 A3015 RMK A01,M
BVU,2022-07-25 05:35,-114.8611,35.9475,671.00,M,M,M,M,M,0.00,M,M,M,M,M,M,M,M,M,M,M,M,M,M,M,M,M,M,M,M,KBVU 250535Z AUTO RMK AO2 PNO PWINO TSNO,M
CXP,2022-07-25 05:35,-119.7326,39.1923,1431.00,77.00,35.60,22.28,0.00,0.00,0.00,30.07,M,7.00,M,CLR,M,M,M,M,M,M,M,M,M,M,M,M,M,M,77.00,KCXP 250535Z AUTO 00000KT 7SM CLR 25/02 A3007 RMK AO2,M
RTS,2022-07-25 05:35,-119.8764,39.6682,1539.00,75.20,35.60,23.66,280.00,9.00,0.00,30.09,M,10.00,M,CLR,M,M,M,M,M,M,M,M,M,M,M,M,M,M,75.20,KRTS 250535Z AUTO 28009KT 10SM CLR 24/02 A3009 RMK AO2,M
MEV,2022-07-25 05:35,-119.7500,38.9963,1441.42,66.20,35.60,32.14,110.00,9.00,0.00,30.06,M,7.00,M,FEW,SCT,M,M,4400.00,5000.00,M,M,M,M,M,M,M,M,M,66.20,KMEV 250535Z AUTO 11009KT 7SM FEW044 SCT050 19/02 A3006 RMK AO2,M
BAM,2022-07-25 05:35,-116.8743,40.5990,1382.36,M,M,M,30.00,9.00,0.00,30.05,M,10.00,M,CLR,M,M,M,M,M,M,M,M,M,M,M,M,M,M,M,KBAM 250535Z AUTO 03009KT 10SM CLR A3005 RMK AO1,M
HTH,2022-07-25 05:35,-118.6315,38.5448,1282.89,86.00,32.00,14.40,320.00,4.00,0.00,29.98,M,10.00,M,CLR,M,M,M,M,M,M,M,M,M,M,M,M,M,M,82.64,KHTH 250535Z AUTO 32004KT 10SM CLR 30/00 A2998 RMK A01,M
TMT,2022-07-25 05:35,-117.1971,39.4643,1749.34,M,M,M,30.00,8.00,0.00,30.12,M,10.00,M,CLR,M,M,M,M,M,M,M,M,M,M,M,M,M,M,M,KTMT 250535Z AUTO 03008KT 10SM CLR A3012 RMK AO2,M
05U,2022-07-25 05:50,-116.0051,39.6042,1811.23,66.20,41.00,39.72,0.00,0.00,0.00,30.15,M,10.00,M,CLR,M,M,M,M,M,M,M,M,M,M,M,M,M,M,66.20,K05U 250550Z AUTO 00000KT 10SM CLR 19/05 A3015 RMK A01,M
P68,2022-07-25 05:53,-116.0056,39.6014,1993.00,67.00,40.00,37.14,0.00,0.00,0.00,30.13,1010.60,M,M,M,M,M,M,M,M,M,M,M,M,M,M,M,M,M,66.90,KP68 250553Z AUTO 00000KT 19/04 A3013 RMK AO1 SLP106 T01940044 10317 20189 51014,M
ELY,2022-07-25 05:53,-114.8453,39.2950,1909.00,64.00,52.00,64.97,210.00,11.00,0.00,30.19,1011.20,10.00,M,SCT,M,M,M,12000.00,M,M,M,M,M,M,M,M,M,M,64.00,KELY 250553Z AUTO 21011KT 10SM SCT120 18/11 A3019 RMK AO2 SLP112 60002 T01780111 10250 20172 56004,M
DRA,2022-07-25 05:53,-116.0278,36.6206,1009.00,91.00,47.00,21.97,M,4.00,0.00,29.92,1006.90,10.00,M,CLR,M,M,M,M,M,M,M,M,M,M,M,M,M,M,87.55,KDRA 250553Z AUTO VRB04KT 10SM CLR 33/08 A2992 RMK AO2 SLP069 T03280083 10389 20328 51013,M
VGT,2022-07-25 05:53,-115.1933,36.2111,667.00,95.00,55.00,26.19,160.00,12.00,0.00,29.86,1009.30,10.00,M,CLR,M,M,M,M,M,M,M,M,M,M,M,M,M,M,93.10,KVGT 250553Z AUTO 16012KT 10SM CLR 35/13 A2986 RMK AO2 SLP093 T03500128 10411 20350 51018,M
LOL,2022-07-25 05:53,-118.5701,40.0684,1192.43,81.00,23.00,11.68,60.00,4.00,0.00,29.95,1008.90,10.00,M,CLR,M,M,M,M,M,M,M,M,M,M,M,M,M,M,78.75,KLOL 250553Z AUTO 06004KT 10SM CLR 27/M05 A2995 RMK AO2 SLP089 T02721050 10383 20244 51011,M
RNO,2022-07-25 05:55,-119.7711,39.4839,1341.00,83.00,40.00,21.75,M,5.00,0.00,30.03,1010.10,6.00,M,CLR,M,M,M,M,M,M,M,FU,M,M,M,M,M,M,80.57,KRNO 250555Z VRB05KT 6SM FU CLR 28/04 A3003 RMK AO2 SLP101 T02830044 10372 20283 51016,M
RTS,2022-07-25 05:55,-119.8764,39.6682,1539.00,75.20,35.60,23.66,290.00,11.00,0.00,30.09,M,9.00,M,CLR,M,M,M,M,M,M,M,M,M,M,M,M,M,M,75.20,KRTS 250555Z AUTO 29011KT 9SM CLR 24/02 A3009 RMK AO2,M
TMT,2022-07-25 05:55,-117.1971,39.4643,1749.34,M,M,M,10.00,6.00,0.00,30.11,M,10.00,M,CLR,M,M,M,M,M,M,M,M,M,M,M,M,M,M,M,KTMT 250555Z AUTO 01006KT 10SM CLR A3011 RMK AO2,M
HTH,2022-07-25 05:55,-118.6315,38.5448,1282.89,86.00,32.00,14.40,360.00,8.00,0.00,29.97,M,10.00,M,SCT,M,M,M,11000.00,M,M,M,M,M,M,M,M,M,M,82.64,KHTH 250555Z AUTO 36008KT 10SM SCT110 30/M00 A2997 RMK A01,M
BVU,2022-07-25 05:55,-114.8611,35.9475,671.00,M,M,M,M,M,0.00,M,M,M,M,M,M,M,M,M,M,M,M,M,M,M,M,M,M,M,M,KBVU 250555Z AUTO RMK AO2 PNO PWINO TSNO,M
CXP,2022-07-25 05:55,-119.7326,39.1923,1431.00,75.20,35.60,23.66,0.00,0.00,0.00,30.07,M,7.00,M,CLR,M,M,M,M,M,M,M,M,M,M,M,M,M,M,75.20,KCXP 250555Z AUTO 00000KT 7SM CLR 24/02 A3007 RMK AO2,M
MEV,2022-07-25 05:55,-119.7500,38.9963,1441.42,66.20,35.60,32.14,110.00,8.00,0.00,30.06,M,7.00,M,FEW,SCT,SCT,M,3100.00,4200.00,4700.00,M,M,M,M,M,M,M,M,66.20,KMEV 250555Z AUTO 11008KT 7SM FEW031 SCT042 SCT047 19/02 A3006 RMK AO2,M
BAM,2022-07-25 05:55,-116.8743,40.5990,1382.36,M,M,M,40.00,9.00,0.00,30.05,M,10.00,16.00,CLR,M,M,M,M,M,M,M,M,M,M,M,M,M,M,M,KBAM 250555Z AUTO 04009G16KT 10SM CLR A3005 RMK AO1,M
HND,2022-07-25 05:56,-115.1344,35.9729,742.79,91.00,54.00,28.60,160.00,16.00,0.00,29.91,1010.60,10.00,21.00,CLR,M,M,M,M,M,M,M,M,M,M,M,M,M,M,88.78,KHND 250556Z AUTO 16016G21KT 10SM CLR 33/12 A2991 RMK AO2 SLP106 6//// T03280122 10400 20328 51014 PNO $,M
LAS,2022-07-25 05:56,-115.1634,36.0719,663.00,93.00,53.00,26.00,160.00,8.00,0.00,29.86,1007.80,10.00,18.00,FEW,SCT,M,M,12000.00,24000.00,M,M,M,M,M,M,M,M,M,90.54,KLAS 250556Z 16008G18KT 10SM FEW120 SCT240 34/12 A2986 RMK AO2 SLP078 T03390117 10400 20339 50014,M
WMC,2022-07-25 05:56,-117.8072,40.9019,1315.00,81.00,21.00,10.73,50.00,13.00,0.00,30.03,1010.70,10.00,23.00,CLR,M,M,M,M,M,M,M,M,M,M,M,M,M,M,78.63,KWMC 250556Z AUTO 05013G23KT 10SM CLR 27/M06 A3003 RMK AO2 SLP107 T02721061 10378 20272 51015,M
EKO,2022-07-25 05:56,-115.7860,40.8242,1367.00,78.00,27.00,15.17,30.00,9.00,0.00,30.09,1012.00,10.00,M,CLR,M,M,M,M,M,M,M,M,M,M,M,M,M,M,78.10,KEKO 250556Z AUTO 03009KT 10SM CLR 26/M03 A3009 RMK AO2 SLP120 T02561028 10356 20256 51022,M
TPH,2022-07-25 05:56,-117.0904,38.0505,1654.00,76.00,30.00,18.46,M,3.00,0.00,30.09,1009.60,10.00,M,CLR,M,M,M,M,M,M,M,M,M,M,M,M,M,M,75.90,KTPH 250556Z AUTO VRB03KT 10SM CLR 24/M01 A3009 RMK AO2 SLP096 T02441011 10356 20244 51013,M
NFL,2022-07-25 05:56,-118.7010,39.4166,1199.00,78.00,30.00,17.16,350.00,8.00,0.00,29.94,1011.10,10.00,M,CLR,M,M,M,M,M,M,M,M,M,M,M,M,M,M,78.10,KNFL 250556Z AUTO 35008KT 10SM CLR 26/M01 A2994 RMK AO2 SLP111 T02561011 10383 20244 51011,M
LSV,2022-07-25 05:58,-115.0343,36.2362,570.00,93.20,57.20,29.99,170.00,12.00,0.00,29.83,M,10.00,M,FEW,M,M,M,20000.00,M,M,M,M,M,M,M,M,M,M,91.91,KLSV 250558Z 17012KT 10SM FEW200 34/14 A2983 RMK AO2A SLPNO ALSTG ESTMD 10406 20377 $,M
INS,2022-07-25 05:58,-115.6733,36.5872,955.00,89.00,54.50,30.92,130.00,16.00,0.00,29.91,1006.90,10.00,M,CLR,M,M,M,M,M,M,M,M,M,M,M,M,M,M,87.09,KINS 250558Z AUTO 13016KT 10SM CLR 32/13 A2991 RMK AO2 SLP069 T03170125 10380 20317 51016 $,M
05U,2022-07-25 06:10,-116.0051,39.6042,1811.23,66.20,39.20,37.03,0.00,0.00,0.00,30.15,M,10.00,M,CLR,M,M,M,M,M,M,M,M,M,M,M,M,M,M,66.20,K05U 250610Z AUTO 00000KT 10SM CLR 19/04 A3015 RMK A01,M
HTH,2022-07-25 06:15,-118.6315,38.5448,1282.89,86.00,30.20,13.38,350.00,8.00,0.00,29.97,M,10.00,M,FEW,SCT,BKN,M,7500.00,8500.00,11000.00,M,M,M,M,M,M,M,M,82.64,KHTH 250615Z AUTO 35008KT 10SM FEW075 SCT085 BKN110 30/M01 A2997 RMK A01,M
BVU,2022-07-25 06:15,-114.8611,35.9475,671.00,M,M,M,M,M,0.00,M,M,M,M,M,M,M,M,M,M,M,M,M,M,M,M,M,M,M,M,KBVU 250615Z AUTO RMK AO2 PNO PWINO TSNO,M
RTS,2022-07-25 06:15,-119.8764,39.6682,1539.00,75.20,35.60,23.66,290.00,6.00,0.00,30.10,M,9.00,12.00,CLR,M,M,M,M,M,M,M,M,M,M,M,M,M,M,75.20,KRTS 250615Z AUTO 29006G12KT 9SM CLR 24/02 A3010 RMK AO2,M
MEV,2022-07-25 06:15,-119.7500,38.9963,1441.42,64.40,33.80,31.85,110.00,8.00,0.00,30.07,M,7.00,M,FEW,SCT,M,M,3200.00,4300.00,M,M,M,M,M,M,M,M,M,64.40,KMEV 250615Z AUTO 11008KT 7SM FEW032 SCT043 18/01 A3007 RMK AO2,M
BAM,2022-07-25 06:15,-116.8743,40.5990,1382.36,M,M,M,50.00,11.00,0.00,30.05,M,10.00,17.00,CLR,M,M,M,M,M,M,M,M,M,M,M,M,M,M,M,KBAM 250615Z AUTO 05011G17KT 10SM CLR A3005 RMK AO1,M
TMT,2022-07-25 06:15,-117.1971,39.4643,1749.34,M,M,M,10.00,4.00,0.00,30.12,M,10.00,M,CLR,M,M,M,M,M,M,M,M,M,M,M,M,M,M,M,KTMT 250615Z AUTO 01004KT 10SM CLR A3012 RMK AO2 LTG DSNT SE,M
CXP,2022-07-25 06:15,-119.7326,39.1923,1431.00,73.40,35.60,25.13,0.00,0.00,0.00,30.07,M,7.00,M,CLR,M,M,M,M,M,M,M,M,M,M,M,M,M,M,73.40,KCXP 250615Z AUTO 00000KT 7SM CLR 23/02 A3007 RMK AO2,M
MEV,2022-07-25 06:35,-119.7500,38.9963,1441.42,66.20,37.40,34.51,120.00,6.00,0.00,30.07,M,7.00,M,FEW,FEW,FEW,M,3100.00,4700.00,5500.00,M,M,M,M,M,M,M,M,66.20,KMEV 250635Z AUTO 12006KT 7SM FEW031 FEW047 FEW055 19/03 A3007 RMK AO2,M
BAM,2022-07-25 06:35,-116.8743,40.5990,1382.36,M,M,M,50.00,13.00,0.00,30.06,M,10.00,M,CLR,M,M,M,M,M,M,M,M,M,M,M,M,M,M,M,KBAM 250635Z AUTO 05013KT 10SM CLR A3006 RMK AO1,M
HTH,2022-07-25 06:35,-118.6315,38.5448,1282.89,86.00,28.40,12.44,360.00,9.00,0.00,29.97,M,10.00,M,FEW,FEW,M,M,7500.00,11000.00,M,M,M,M,M,M,M,M,M,82.54,KHTH 250635Z AUTO 36009KT 10SM FEW075 FEW110 30/M02 A2997 RMK A01,M
BVU,2022-07-25 06:35,-114.8611,35.9475,671.00,M,M,M,M,M,0.00,M,M,M,M,M,M,M,M,M,M,M,M,M,M,M,M,M,M,M,M,KBVU 250635Z AUTO RMK AO2 PNO PWINO TSNO,M
CXP,2022-07-25 06:35,-119.7326,39.1923,1431.00,75.20,37.40,25.40,0.00,0.00,0.00,30.08,M,7.00,M,CLR,M,M,M,M,M,M,M,M,M,M,M,M,M,M,75.20,KCXP 250635Z AUTO 00000KT 7SM CLR 24/03 A3008 RMK AO2,M
TMT,2022-07-25 06:35,-117.1971,39.4643,1749.34,M,M,M,20.00,6.00,0.00,30.12,M,10.00,M,CLR,M,M,M,M,M,M,M,M,M,M,M,M,M,M,M,KTMT 250635Z AUTO 02006KT 10SM CLR A3012 RMK AO2,M
RTS,2022-07-25 06:35,-119.8764,39.6682,1539.00,71.60,35.60,26.71,260.00,5.00,0.00,30.10,M,9.00,11.00,CLR,M,M,M,M,M,M,M,M,M,M,M,M,M,M,71.60,KRTS 250635Z AUTO 26005G11KT 9SM CLR 22/02 A3010 RMK AO2,M
05U,2022-07-25 06:35,-116.0051,39.6042,1811.23,68.00,41.00,37.32,0.00,0.00,0.00,30.15,M,10.00,M,CLR,M,M,M,M,M,M,M,M,M,M,M,M,M,M,68.00,K05U 250635Z AUTO 00000KT 10SM CLR 20/05 A3015 RMK A01,M
DRA,2022-07-25 06:53,-116.0278,36.6206,1009.00,89.00,51.00,27.29,230.00,7.00,0.00,29.91,1006.70,10.00,17.00,CLR,M,M,M,M,M,M,M,M,M,M,M,M,M,M,86.42,KDRA 250653Z AUTO 23007G17KT 10SM CLR 32/11 A2991 RMK AO2 SLP067 T03170106,M
P68,2022-07-25 06:53,-116.0056,39.6014,1993.00,70.00,42.00,36.36,120.00,9.00,0.00,30.13,1010.30,M,M,M,M,M,M,M,M,M,M,M,M,M,M,M,M,M,70.00,KP68 250653Z AUTO 12009KT 21/06 A3013 RMK AO1 SLP103 T02110056,M
ELY,2022-07-25 06:53,-114.8453,39.2950,1909.00,63.00,50.00,62.49,210.00,9.00,0.00,30.19,1011.20,10.00,M,FEW,M,M,M,11000.00,M,M,M,M,M,M,M,M,M,M,63.00,KELY 250653Z AUTO 21009KT 10SM FEW110 17/10 A3019 RMK AO2 SLP112 T01720100 402940172,M
LOL,2022-07-25 06:53,-118.5701,40.0684,1192.43,77.00,26.10,15.16,40.00,10.00,0.00,29.96,1009.30,10.00,M,CLR,M,M,M,M,M,M,M,M,M,M,M,M,M,M,77.00,KLOL 250653Z AUTO 04010KT 10SM CLR 25/M03 A2996 RMK AO2 SLP093 T02501033,M
VGT,2022-07-25 06:53,-115.1933,36.2111,667.00,94.00,53.00,25.28,160.00,9.00,0.00,29.86,1009.40,10.00,M,CLR,M,M,M,M,M,M,M,M,M,M,M,M,M,M,91.45,KVGT 250653Z AUTO 16009KT 10SM CLR 34/12 A2986 RMK AO2 SLP094 T03440117,M
MEV,2022-07-25 06:55,-119.7500,38.9963,1441.42,66.20,35.60,32.14,120.00,7.00,0.00,30.07,M,8.00,M,FEW,FEW,SCT,M,3000.00,4600.00,5500.00,M,M,M,M,M,M,M,M,66.20,KMEV 250655Z AUTO 12007KT 8SM FEW030 FEW046 SCT055 19/02 A3007 RMK AO2,M
05U,2022-07-25 06:55,-116.0051,39.6042,1811.23,68.00,41.00,37.32,0.00,0.00,0.00,30.15,M,10.00,M,CLR,M,M,M,M,M,M,M,M,M,M,M,M,M,M,68.00,K05U 250655Z AUTO 00000KT 10SM CLR 20/05 A3015 RMK A01,M
RTS,2022-07-25 06:55,-119.8764,39.6682,1539.00,71.60,35.60,26.71,260.00,8.00,0.00,30.10,M,10.00,M,CLR,M,M,M,M,M,M,M,M,M,M,M,M,M,M,71.60,KRTS 250655Z AUTO 26008KT 10SM CLR 22/02 A3010 RMK AO2,M
BVU,2022-07-25 06:55,-114.8611,35.9475,671.00,M,M,M,M,M,0.00,M,M,M,M,M,M,M,M,M,M,M,M,M,M,M,M,M,M,M,M,KBVU 250655Z AUTO RMK AO2 PNO PWINO TSNO,M
CXP,2022-07-25 06:55,-119.7326,39.1923,1431.00,71.60,37.40,28.68,330.00,3.00,0.00,30.08,M,7.00,M,CLR,M,M,M,M,M,M,M,M,M,M,M,M,M,M,71.60,KCXP 250655Z AUTO 33003KT 7SM CLR 22/03 A3008 RMK AO2,M
RNO,2022-07-25 06:55,-119.7711,39.4839,1341.00,81.00,40.00,23.13,250.00,6.00,0.00,30.04,1010.40,6.00,M,CLR,M,M,M,M,M,M,M,FU,M,M,M,M,M,M,79.37,KRNO 250655Z 25006KT 6SM FU CLR 27/04 A3004 RMK AO2 SLP104 T02720044,M
TMT,2022-07-25 06:55,-117.1971,39.4643,1749.34,M,M,M,10.00,12.00,0.00,30.12,M,10.00,M,CLR,M,M,M,M,M,M,M,M,M,M,M,M,M,M,M,KTMT 250655Z AUTO 01012KT 10SM CLR A3012 RMK AO2,M
HTH,2022-07-25 06:55,-118.6315,38.5448,1282.89,86.00,28.40,12.44,300.00,6.00,0.00,29.97,M,10.00,M,CLR,M,M,M,M,M,M,M,M,M,M,M,M,M,M,82.54,KHTH 250655Z AUTO 30006KT 10SM CLR 30/M02 A2997 RMK A01,M
BAM,2022-07-25 06:55,-116.8743,40.5990,1382.36,M,M,M,90.00,4.00,0.00,30.07,M,10.00,M,CLR,M,M,M,M,M,M,M,M,M,M,M,M,M,M,M,KBAM 250655Z AUTO 09004KT 10SM CLR A3007 RMK AO1,M
EKO,2022-07-25 06:56,-115.7860,40.8242,1367.00,74.00,28.90,18.87,50.00,7.00,0.00,30.10,1012.20,10.00,M,CLR,M,M,M,M,M,M,M,M,M,M,M,M,M,M,73.90,KEKO 250656Z AUTO 05007KT 10SM CLR 23/M02 A3010 RMK AO2 SLP122 T02331017,M
LAS,2022-07-25 06:56,-115.1634,36.0719,663.00,92.00,53.00,26.90,170.00,6.00,0.00,29.87,1008.00,10.00,M,FEW,BKN,M,M,12000.00,24000.00,M,M,M,M,M,M,M,M,M,89.45,KLAS 250656Z 17006KT 10SM FEW120 BKN240 33/12 A2987 RMK AO2 SLP080 T03330117,M
WMC,2022-07-25 06:56,-117.8072,40.9019,1315.00,78.00,21.90,12.26,40.00,16.00,0.00,30.04,1010.90,10.00,25.00,CLR,M,M,M,M,M,M,M,M,M,M,M,27.00,60.00,2022-07-25 06:29,78.10,KWMC 250656Z AUTO 04016G25KT 10SM CLR 26/M06 A3004 RMK AO2 PK WND 06027/0629 SLP109 T02561056,M
TPH,2022-07-25 06:56,-117.0904,38.0505,1654.00,75.00,30.00,19.02,110.00,4.00,0.00,30.10,1009.30,10.00,M,CLR,M,M,M,M,M,M,M,M,M,M,M,M,M,M,75.00,KTPH 250656Z AUTO 11004KT 10SM CLR 24/M01 A3010 RMK AO2 SLP093 T02391011,M
HND,2022-07-25 06:56,-115.1344,35.9729,742.79,91.00,54.00,28.60,170.00,12.00,0.00,29.91,1010.60,10.00,20.00,CLR,M,M,M,M,M,M,M,M,M,M,M,M,M,M,88.78,KHND 250656Z AUTO 17012G20KT 10SM CLR 33/12 A2991 RMK AO2 SLP106 T03280122 404060289 PNO $,M
NFL,2022-07-25 06:56,-118.7010,39.4166,1199.00,79.00,28.00,15.35,130.00,3.00,0.00,29.94,1011.20,10.00,M,CLR,M,M,M,M,M,M,M,M,M,M,M,M,M,M,79.00,KNFL 250656Z AUTO 13003KT 10SM CLR 26/M02 A2994 RMK AO2 SLP112 T02611022,M
LSV,2022-07-25 06:58,-115.0343,36.2362,570.00,93.20,53.60,26.31,160.00,14.00,0.00,29.84,M,10.00,M,FEW,M,M,M,20000.00,M,M,M,M,M,M,M,M,M,M,90.86,KLSV 250658Z 16014KT 10SM FEW200 34/12 A2984 RMK AO2A SLPNO ALSTG ESTMD $,M
INS,2022-07-25 06:58,-115.6733,36.5872,955.00,87.80,54.00,31.75,120.00,17.00,0.00,29.91,1006.90,10.00,M,SCT,M,M,M,16000.00,M,M,M,M,M,M,M,M,M,M,85.82,KINS 250658Z AUTO 12017KT 10SM SCT160 31/12 A2991 RMK AO2 SLP069 T03100123 $,M
MEV,2022-07-25 07:15,-119.7500,38.9963,1441.42,64.40,35.60,34.22,120.00,5.00,0.00,30.07,M,8.00,M,FEW,FEW,SCT,M,3000.00,4500.00,5500.00,M,M,M,M,M,M,M,M,64.40,KMEV 250715Z AUTO 12005KT 8SM FEW030 FEW045 SCT055 18/02 A3007 RMK AO2,M
05U,2022-07-25 07:15,-116.0051,39.6042,1811.23,64.40,39.20,39.43,0.00,0.00,0.00,30.15,M,10.00,M,CLR,M,M,M,M,M,M,M,M,M,M,M,M,M,M,64.40,K05U 250715Z AUTO 00000KT 10SM CLR 18/04 A3015 RMK A01,M
CXP,2022-07-25 07:15,-119.7326,39.1923,1431.00,71.60,37.40,28.68,0.00,0.00,0.00,30.08,M,7.00,M,CLR,M,M,M,M,M,M,M,M,M,M,M,M,M,M,71.60,KCXP 250715Z AUTO 00000KT 7SM CLR 22/03 A3008 RMK AO2,M
RTS,2022-07-25 07:15,-119.8764,39.6682,1539.00,71.60,35.60,26.71,300.00,5.00,0.00,30.10,M,10.00,M,CLR,M,M,M,M,M,M,M,M,M,M,M,M,M,M,71.60,KRTS 250715Z AUTO 30005KT 10SM CLR 22/02 A3010 RMK AO2,M
BVU,2022-07-25 07:15,-114.8611,35.9475,671.00,M,M,M,M,M,0.00,M,M,M,M,M,M,M,M,M,M,M,M,M,M,M,M,M,M,M,M,KBVU 250715Z AUTO RMK AO2 PNO PWINO TSNO,M
BAM,2022-07-25 07:15,-116.8743,40.5990,1382.36,M,M,M,140.00,4.00,0.00,30.07,M,10.00,M,CLR,M,M,M,M,M,M,M,M,M,M,M,M,M,M,M,KBAM 250715Z AUTO 14004KT 10SM CLR A3007 RMK AO1,M
HTH,2022-07-25 07:15,-118.6315,38.5448,1282.89,84.20,33.80,16.39,280.00,5.00,0.00,29.97,M,10.00,M,CLR,M,M,M,M,M,M,M,M,M,M,M,M,M,M,81.30,KHTH 250715Z AUTO 28005KT 10SM CLR 29/01 A2997 RMK A01,M
TMT,2022-07-25 07:15,-117.1971,39.4643,1749.34,M,M,M,30.00,9.00,0.00,30.12,M,10.00,M,CLR,M,M,M,M,M,M,M,M,M,M,M,M,M,M,M,KTMT 250715Z AUTO 03009KT 10SM CLR A3012 RMK AO2,M
BVU,2022-07-25 07:35,-114.8611,35.9475,671.00,M,M,M,M,M,0.00,M,M,M,M,M,M,M,M,M,M,M,M,M,M,M,M,M,M,M,M,KBVU 250735Z AUTO RMK AO2 PNO PWINO TSNO,M
RTS,2022-07-25 07:35,-119.8764,39.6682,1539.00,71.60,35.60,26.71,290.00,4.00,0.00,30.10,M,9.00,M,CLR,M,M,M,M,M,M,M,M,M,M,M,M,M,M,71.60,KRTS 250735Z AUTO 29004KT 9SM CLR 22/02 A3010 RMK AO2,M
05U,2022-07-25 07:35,-116.0051,39.6042,1811.23,64.40,39.20,39.43,0.00,0.00,0.00,30.16,M,10.00,M,CLR,M,M,M,M,M,M,M,M,M,M,M,M,M,M,64.40,K05U 250735Z AUTO 00000KT 10SM CLR 18/04 A3016 RMK A01,M
MEV,2022-07-25 07:35,-119.7500,38.9963,1441.42,64.40,39.20,39.43,0.00,0.00,0.00,30.07,M,8.00,M,SCT,SCT,M,M,4700.00,5000.00,M,M,M,M,M,M,M,M,M,64.40,KMEV 250735Z AUTO 00000KT 8SM SCT047 SCT050 18/04 A3007 RMK AO2,M
BAM,2022-07-25 07:35,-116.8743,40.5990,1382.36,M,M,M,90.00,3.00,0.00,30.07,M,10.00,M,CLR,M,M,M,M,M,M,M,M,M,M,M,M,M,M,M,KBAM 250735Z AUTO 09003KT 10SM CLR A3007 RMK AO1,M
HTH,2022-07-25 07:35,-118.6315,38.5448,1282.89,84.20,35.60,17.61,330.00,6.00,0.00,29.97,M,10.00,M,CLR,M,M,M,M,M,M,M,M,M,M,M,M,M,M,81.34,KHTH 250735Z AUTO 33006KT 10SM CLR 29/02 A2997 RMK A01,M
TMT,2022-07-25 07:35,-117.1971,39.4643,1749.34,M,M,M,40.00,7.00,0.00,30.12,M,10.00,M,CLR,M,M,M,M,M,M,M,M,M,M,M,M,M,M,M,KTMT 250735Z AUTO 04007KT 10SM CLR A3012 RMK AO2,M
CXP,2022-07-25 07:35,-119.7326,39.1923,1431.00,69.80,37.40,30.49,0.00,0.00,0.00,30.08,M,7.00,M,CLR,M,M,M,M,M,M,M,M,M,M,M,M,M,M,69.80,KCXP 250735Z AUTO 00000KT 7SM CLR 21/03 A3008 RMK AO2,M
P68,2022-07-25 07:53,-116.0056,39.6014,1993.00,64.00,38.00,38.00,10.00,5.00,0.00,30.14,1011.30,M,M,M,M,M,M,M,M,M,M,M,M,M,M,M,M,M,64.00,KP68 250753Z AUTO 01005KT 18/03 A3014 RMK AO1 SLP113 T01780033 403440094,M
VGT,2022-07-25 07:53,-115.1933,36.2111,667.00,93.00,53.00,26.00,150.00,7.00,0.00,29.86,1009.40,10.00,M,CLR,M,M,M,M,M,M,M,M,M,M,M,M,M,M,90.54,KVGT 250753Z AUTO 15007KT 10SM CLR 34/12 A2986 RMK AO2 SLP094 T03390117 404170300,M
ELY,2022-07-25 07:53,-114.8453,39.2950,1909.00,61.00,50.00,67.06,190.00,7.00,0.00,30.19,1011.50,10.00,M,FEW,M,M,M,11000.00,M,M,M,M,M,M,M,M,M,M,61.00,KELY 250753Z AUTO 19007KT 10SM FEW110 16/10 A3019 RMK AO2 SLP115 T01610100,M
LOL,2022-07-25 07:53,-118.5701,40.0684,1192.43,77.00,24.10,13.95,40.00,10.00,0.00,29.97,1009.50,10.00,M,CLR,M,M,M,M,M,M,M,M,M,M,M,M,M,M,77.00,KLOL 250753Z AUTO 04010KT 10SM CLR 25/M04 A2997 RMK AO2 SLP095 T02501044 403830094,M
DRA,2022-07-25 07:53,-116.0278,36.6206,1009.00,89.00,52.00,28.21,230.00,12.00,0.00,29.93,1007.10,10.00,18.00,CLR,M,M,M,M,M,M,M,M,M,M,M,M,M,M,86.58,KDRA 250753Z AUTO 23012G18KT 10SM CLR 32/11 A2993 RMK AO2 SLP071 T03170111 404000256,M
RTS,2022-07-25 07:55,-119.8764,39.6682,1539.00,69.80,35.60,28.39,M,5.00,0.00,30.10,M,10.00,M,CLR,M,M,M,M,M,M,M,M,M,M,M,M,M,M,69.80,KRTS 250755Z AUTO VRB05KT 10SM CLR 21/02 A3010 RMK AO2,M
TMT,2022-07-25 07:55,-117.1971,39.4643,1749.34,M,M,M,40.00,5.00,0.00,30.13,M,10.00,M,CLR,M,M,M,M,M,M,M,M,M,M,M,M,M,M,M,KTMT 250755Z AUTO 04005KT 10SM CLR A3013 RMK AO2,M
HTH,2022-07-25 07:55,-118.6315,38.5448,1282.89,82.40,39.20,21.51,0.00,0.00,0.00,29.97,M,10.00,M,CLR,M,M,M,M,M,M,M,M,M,M,M,M,M,M,80.21,KHTH 250755Z AUTO 00000KT 10SM CLR 28/04 A2997 RMK A01,M
BAM,2022-07-25 07:55,-116.8743,40.5990,1382.36,M,M,M,350.00,5.00,0.00,30.07,M,10.00,M,CLR,M,M,M,M,M,M,M,M,M,M,M,M,M,M,M,KBAM 250755Z AUTO 35005KT 10SM CLR A3007 RMK AO1,M
MEV,2022-07-25 07:55,-119.7500,38.9963,1441.42,64.40,37.40,36.74,120.00,5.00,0.00,30.07,M,8.00,M,FEW,SCT,M,M,4100.00,4800.00,M,M,M,M,M,M,M,M,M,64.40,KMEV 250755Z AUTO 12005KT 8SM FEW041 SCT048 18/03 A3007 RMK AO2,M
05U,2022-07-25 07:55,-116.0051,39.6042,1811.23,64.40,37.40,36.74,0.00,0.00,0.00,30.17,M,10.00,M,CLR,M,M,M,M,M,M,M,M,M,M,M,M,M,M,64.40,K05U 250755Z AUTO 00000KT 10SM CLR 18/03 A3017 RMK A01,M
CXP,2022-07-25 07:55,-119.7326,39.1923,1431.00,69.80,39.20,32.72,0.00,0.00,0.00,30.08,M,7.00,M,CLR,M,M,M,M,M,M,M,M,M,M,M,M,M,M,69.80,KCXP 250755Z AUTO 00000KT 7SM CLR 21/04 A3008 RMK AO2,M
BVU,2022-07-25 07:55,-114.8611,35.9475,671.00,M,M,M,M,M,0.00,M,M,M,M,M,M,M,M,M,M,M,M,M,M,M,M,M,M,M,M,KBVU 250755Z AUTO RMK AO2 PNO PWINO TSNO,M
RNO,2022-07-25 07:55,-119.7711,39.4839,1341.00,78.00,39.00,24.56,290.00,4.00,0.00,30.04,1010.40,6.00,M,FEW,M,M,M,16000.00,M,M,M,FU,M,M,M,M,M,M,78.10,KRNO 250755Z 29004KT 6SM FU FEW160 26/04 A3004 RMK AO2 SLP104 T02560039 403720161,M
WMC,2022-07-25 07:56,-117.8072,40.9019,1315.00,75.00,28.00,17.53,50.00,15.00,0.00,30.04,1011.10,10.00,23.00,CLR,M,M,M,M,M,M,M,M,M,M,M,28.00,40.00,2022-07-25 07:09,75.00,KWMC 250756Z AUTO 05015G23KT 10SM CLR 24/M02 A3004 RMK AO2 PK WND 04028/0709 SLP111 T02391022 403780089,M
HND,2022-07-25 07:56,-115.1344,35.9729,742.79,90.00,58.00,33.99,170.00,12.00,0.00,29.91,1010.60,10.00,M,CLR,M,M,M,M,M,M,M,M,M,M,M,M,M,M,88.89,KHND 250756Z AUTO 17012KT 10SM CLR 32/14 A2991 RMK AO2 SLP106 T03220144 PNO $,M
EKO,2022-07-25 07:56,-115.7860,40.8242,1367.00,67.00,28.00,23.09,0.00,0.00,0.00,30.11,1012.80,10.00,M,CLR,M,M,M,M,M,M,M,M,M,M,M,M,M,M,66.90,KEKO 250756Z AUTO 00000KT 10SM CLR 19/M02 A3011 RMK AO2 SLP128 T01941022 403670122,M
TPH,2022-07-25 07:56,-117.0904,38.0505,1654.00,74.00,30.00,19.73,0.00,0.00,0.00,30.10,1009.60,10.00,M,FEW,M,M,M,12000.00,M,M,M,M,M,M,M,M,M,M,73.90,KTPH 250756Z AUTO 00000KT 10SM FEW120 23/M01 A3010 RMK AO2 SLP096 T02331011 403560183,M
LAS,2022-07-25 07:56,-115.1634,36.0719,663.00,91.00,54.00,28.60,170.00,5.00,0.00,29.87,1008.00,10.00,M,FEW,BKN,M,M,20000.00,25000.00,M,M,M,M,M,M,M,M,M,88.78,KLAS 250756Z 17005KT 10SM FEW200 BKN250 33/12 A2987 RMK AO2 SLP080 T03280122 404060300,M
NFL,2022-07-25 07:56,-118.7010,39.4166,1199.00,77.00,30.00,17.80,300.00,5.00,0.00,29.96,1011.70,10.00,M,CLR,M,M,M,M,M,M,M,M,M,M,M,M,M,M,77.00,KNFL 250756Z AUTO 30005KT 10SM CLR 25/M01 A2996 RMK AO2 SLP117 T02501011 403830150,M
INS,2022-07-25 07:58,-115.6733,36.5872,955.00,87.00,50.70,28.83,110.00,10.00,0.00,29.91,1006.90,10.00,M,OVC,M,M,M,17000.00,M,M,M,M,M,M,M,M,M,M,84.45,KINS 250758Z AUTO 11010KT 10SM OVC170 31/10 A2991 RMK AO2 SLP069 T03050104 403860249 $,M
LSV,2022-07-25 07:58,-115.0343,36.2362,570.00,91.40,53.60,27.83,140.00,12.00,0.00,29.84,M,10.00,16.00,FEW,M,M,M,20000.00,M,M,M,M,M,M,M,M,M,M,89.08,KLSV 250758Z 14012G16KT 10SM FEW200 33/12 A2984 RMK AO2A SLPNO ALSTG ESTMD 404140303 $,M
CXP,2022-07-25 08:15,-119.7326,39.1923,1431.00,69.80,39.20,32.72,0.00,0.00,0.00,30.08,M,7.00,M,CLR,M,M,M,M,M,M,M,M,M,M,M,M,M,M,69.80,KCXP 250815Z AUTO 00000KT 7SM CLR 21/04 A3008 RMK AO2,M
RTS,2022-07-25 08:15,-119.8764,39.6682,1539.00,69.80,33.80,26.43,300.00,6.00,0.00,30.10,M,10.00,M,CLR,M,M,M,M,M,M,M,M,M,M,M,M,M,M,69.80,KRTS 250815Z AUTO 30006KT 10SM CLR 21/01 A3010 RMK AO2,M
05U,2022-07-25 08:15,-116.0051,39.6042,1811.23,64.40,33.80,31.85,0.00,0.00,0.00,30.17,M,10.00,M,CLR,M,M,M,M,M,M,M,M,M,M,M,M,M,M,64.40,K05U 250815Z AUTO 00000KT 10SM CLR 18/01 A3017 RMK A01,M
MEV,2022-07-25 08:15,-119.7500,38.9963,1441.42,60.80,39.20,44.76,110.00,4.00,0.00,30.07,M,8.00,M,FEW,FEW,SCT,M,3100.00,4000.00,4900.00,M,M,M,M,M,M,M,M,60.80,KMEV 250815Z AUTO 11004KT 8SM FEW031 FEW040 SCT049 16/04 A3007 RMK AO2,M
BAM,2022-07-25 08:15,-116.8743,40.5990,1382.36,M,M,M,350.00,6.00,0.00,30.07,M,10.00,M,CLR,M,M,M,M,M,M,M,M,M,M,M,M,M,M,M,KBAM 250815Z AUTO 35006KT 10SM CLR A3007 RMK AO1,M
HTH,2022-07-25 08:15,-118.6315,38.5448,1282.89,82.40,35.60,18.67,0.00,0.00,0.00,29.97,M,10.00,M,CLR,M,M,M,M,M,M,M,M,M,M,M,M,M,M,80.08,KHTH 250815Z AUTO 00000KT 10SM CLR 28/02 A2997 RMK A01,M
TMT,2022-07-25 08:15,-117.1971,39.4643,1749.34,66.40,24.60,20.41,20.00,6.00,0.00,30.12,M,10.00,M,CLR,M,M,M,M,M,M,M,M,M,M,M,M,M,M,66.40,KTMT 250815Z AUTO 02006KT 10SM CLR 19/M04 A3012 RMK AO2 T01911041,M
RTS,2022-07-25 08:35,-119.8764,39.6682,1539.00,68.00,33.80,28.11,320.00,7.00,0.00,30.10,M,10.00,M,CLR,M,M,M,M,M,M,M,M,M,M,M,M,M,M,68.00,KRTS 250835Z AUTO 32007KT 10SM CLR 20/01 A3010 RMK AO2,M
CXP,2022-07-25 08:35,-119.7326,39.1923,1431.00,69.80,39.20,32.72,0.00,0.00,0.00,30.08,M,7.00,M,CLR,M,M,M,M,M,M,M,M,M,M,M,M,M,M,69.80,KCXP 250835Z AUTO 00000KT 7SM CLR 21/04 A3008 RMK AO2,M
05U,2022-07-25 08:35,-116.0051,39.6042,1811.23,62.60,37.40,39.14,0.00,0.00,0.00,30.17,M,10.00,M,CLR,M,M,M,M,M,M,M,M,M,M,M,M,M,M,62.60,K05U 250835Z AUTO 00000KT 10SM CLR 17/03 A3017 RMK A01,M
HTH,2022-07-25 08:35,-118.6315,38.5448,1282.89,84.20,26.60,12.23,M,6.00,0.00,29.97,M,10.00,M,CLR,M,M,M,M,M,M,M,M,M,M,M,M,M,M,81.13,KHTH 250835Z AUTO VRB06KT 10SM CLR 29/M03 A2997 RMK A01,M
TMT,2022-07-25 08:35,-117.1971,39.4643,1749.34,68.20,24.10,18.78,360.00,8.00,0.00,30.12,M,10.00,M,CLR,M,M,M,M,M,M,M,M,M,M,M,M,M,M,68.20,KTMT 250835Z AUTO 36008KT 10SM CLR 20/M04 A3012 RMK AO2 T02011044,M
BAM,2022-07-25 08:35,-116.8743,40.5990,1382.36,M,M,M,30.00,4.00,0.00,30.08,M,10.00,M,CLR,M,M,M,M,M,M,M,M,M,M,M,M,M,M,M,KBAM 250835Z AUTO 03004KT 10SM CLR A3008 RMK AO1,M
MEV,2022-07-25 08:35,-119.7500,38.9963,1441.42,60.80,37.40,41.71,130.00,4.00,0.00,30.07,M,8.00,M,FEW,SCT,M,M,3200.00,4900.00,M,M,M,M,M,M,M,M,M,60.80,KMEV 250835Z AUTO 13004KT 8SM FEW032 SCT049 16/03 A3007 RMK AO2,M
BVU,2022-07-25 08:35,-114.8611,35.9475,671.00,M,M,M,M,M,0.00,M,M,M,M,M,M,M,M,M,M,M,M,M,M,M,M,M,M,M,M,KBVU 250835Z AUTO RMK AO2 PNO PWINO TSNO,M
P68,2022-07-25 08:53,-116.0056,39.6014,1993.00,62.00,38.00,40.62,M,5.00,0.00,30.15,1011.50,M,M,M,M,M,M,M,M,M,M,M,M,M,M,M,M,M,62.10,KP68 250853Z AUTO VRB05KT 17/03 A3015 RMK AO1 SLP115 T01670033 53007,M
DRA,2022-07-25 08:53,-116.0278,36.6206,1009.00,88.00,54.00,31.43,210.00,18.00,0.00,29.93,1007.20,10.00,25.00,CLR,M,M,M,M,M,M,M,M,M,M,M,27.00,210.00,2022-07-25 08:40,85.98,KDRA 250853Z AUTO 21018G25KT 10SM CLR 31/12 A2993 RMK AO2 PK WND 21027/0840 SLP072 T03110122 53003,M
ELY,2022-07-25 08:53,-114.8453,39.2950,1909.00,66.00,48.00,52.22,210.00,9.00,0.00,30.19,1011.10,10.00,M,CLR,M,M,M,M,M,M,M,M,M,M,M,M,M,M,66.00,KELY 250853Z AUTO 21009KT 10SM CLR 19/09 A3019 RMK AO2 SLP111 T01890089 56001,M
VGT,2022-07-25 08:53,-115.1933,36.2111,667.00,93.00,55.00,27.87,120.00,9.00,0.00,29.86,1009.40,10.00,M,CLR,M,M,M,M,M,M,M,M,M,M,M,M,M,M,91.03,KVGT 250853Z AUTO 12009KT 10SM CLR 34/13 A2986 RMK AO2 SLP094 T03390128 52002,M
LOL,2022-07-25 08:53,-118.5701,40.0684,1192.43,76.00,21.90,13.19,40.00,9.00,0.00,29.98,1009.70,10.00,M,CLR,M,M,M,M,M,M,M,M,M,M,M,M,M,M,75.90,KLOL 250853Z AUTO 04009KT 10SM CLR 24/M06 A2998 RMK AO2 SLP097 T02441056 51008,M
BVU,2022-07-25 08:55,-114.8611,35.9475,671.00,M,M,M,M,M,0.00,M,M,M,M,M,M,M,M,M,M,M,M,M,M,M,M,M,M,M,M,KBVU 250855Z AUTO RMK AO2 PNO PWINO TSNO,M
CXP,2022-07-25 08:55,-119.7326,39.1923,1431.00,69.80,37.40,30.49,320.00,4.00,0.00,30.08,M,7.00,M,CLR,M,M,M,M,M,M,M,M,M,M,M,M,M,M,69.80,KCXP 250855Z AUTO 32004KT 7SM CLR 21/03 A3008 RMK AO2,M
TMT,2022-07-25 08:55,-117.1971,39.4643,1749.34,M,M,M,60.00,6.00,0.00,30.13,M,10.00,M,CLR,M,M,M,M,M,M,M,M,M,M,M,M,M,M,M,KTMT 250855Z AUTO 06006KT 10SM CLR A3013 RMK AO2,M
RTS,2022-07-25 08:55,-119.8764,39.6682,1539.00,68.00,33.80,28.11,330.00,5.00,0.00,30.11,M,9.00,M,CLR,M,M,M,M,M,M,M,M,M,M,M,M,M,M,68.00,KRTS 250855Z AUTO 33005KT 9SM CLR 20/01 A3011 RMK AO2,M
05U,2022-07-25 08:55,-116.0051,39.6042,1811.23,60.80,37.40,41.71,0.00,0.00,0.00,30.18,M,10.00,M,CLR,M,M,M,M,M,M,M,M,M,M,M,M,M,M,60.80,K05U 250855Z AUTO 00000KT 10SM CLR 16/03 A3018 RMK A01,M
BAM,2022-07-25 08:55,-116.8743,40.5990,1382.36,M,M,M,300.00,3.00,0.00,30.08,M,10.00,M,CLR,M,M,M,M,M,M,M,M,M,M,M,M,M,M,M,KBAM 250855Z AUTO 30003KT 10SM CLR A3008 RMK AO1,M
MEV,2022-07-25 08:55,-119.7500,38.9963,1441.42,60.80,37.40,41.71,130.00,8.00,0.00,30.07,M,8.00,M,FEW,SCT,SCT,M,3100.00,4300.00,5500.00,M,M,M,M,M,M,M,M,60.80,KMEV 250855Z AUTO 13008KT 8SM FEW031 SCT043 SCT055 16/03 A3007 RMK AO2,M
HTH,2022-07-25 08:55,-118.6315,38.5448,1282.89,82.40,28.40,13.96,220.00,5.00,0.00,29.98,M,10.00,M,CLR,M,M,M,M,M,M,M,M,M,M,M,M,M,M,79.94,KHTH 250855Z AUTO 22005KT 10SM CLR 28/M02 A2998 RMK A01,M
RNO,2022-07-25 08:55,-119.7711,39.4839,1341.00,75.00,40.00,28.20,0.00,0.00,0.00,30.05,1010.80,6.00,M,SCT,M,M,M,16000.00,M,M,M,FU,M,M,M,M,M,M,75.00,KRNO 250855Z 00000KT 6SM FU SCT160 24/04 A3005 RMK AO2 SLP108 T02390044 51007,M
LAS,2022-07-25 08:56,-115.1634,36.0719,663.00,91.00,57.00,31.89,160.00,7.00,0.00,29.87,1008.10,10.00,M,FEW,BKN,M,M,12000.00,17000.00,M,M,M,M,M,M,M,M,M,89.59,KLAS 250856Z 16007KT 10SM FEW120 BKN170 33/14 A2987 RMK AO2 SLP081 T03280139 51002,M
NFL,2022-07-25 08:56,-118.7010,39.4166,1199.00,73.00,33.00,23.06,300.00,4.00,0.00,29.97,1012.00,10.00,M,CLR,M,M,M,M,M,M,M,M,M,M,M,M,M,M,73.00,KNFL 250856Z AUTO 30004KT 10SM CLR 23/01 A2997 RMK AO2 SLP120 T02280006 53009,M
EKO,2022-07-25 08:56,-115.7860,40.8242,1367.00,61.00,28.90,29.45,270.00,3.00,0.00,30.12,1013.50,10.00,M,CLR,M,M,M,M,M,M,M,M,M,M,M,M,M,M,61.00,KEKO 250856Z AUTO 27003KT 10SM CLR 16/M02 A3012 RMK AO2 SLP135 T01611017 51007,M
TPH,2022-07-25 08:56,-117.0904,38.0505,1654.00,73.00,32.00,22.06,80.00,4.00,0.00,30.11,1009.90,10.00,M,FEW,M,M,M,12000.00,M,M,M,M,M,M,M,M,M,M,73.00,KTPH 250856Z AUTO 08004KT 10SM FEW120 23/00 A3011 RMK AO2 SLP099 T02280000 53006,M
WMC,2022-07-25 08:56,-117.8072,40.9019,1315.00,74.00,28.90,18.87,50.00,17.00,0.00,30.05,1011.30,10.00,25.00,CLR,M,M,M,M,M,M,M,M,M,M,M,27.00,50.00,2022-07-25 08:16,73.90,KWMC 250856Z AUTO 05017G25KT 10SM CLR 23/M02 A3005 RMK AO2 PK WND 05027/0816 SLP113 T02331017 51006,M
HND,2022-07-25 08:56,-115.1344,35.9729,742.79,89.00,60.00,37.83,170.00,9.00,0.00,29.91,1010.80,10.00,M,CLR,M,M,M,M,M,M,M,M,M,M,M,M,M,M,88.76,KHND 250856Z AUTO 17009KT 10SM CLR 32/16 A2991 RMK AO2 SLP108 6//// T03170156 53001 PNO $,M
INS,2022-07-25 08:58,-115.6733,36.5872,955.00,86.50,50.50,28.98,0.00,0.00,0.00,29.92,1007.40,10.00,M,BKN,OVC,M,M,11000.00,16000.00,M,M,M,M,M,M,M,M,M,84.09,KINS 250858Z AUTO 00000KT 10SM BKN110 OVC160 30/10 A2992 RMK AO2 SLP074 T03030103 53002 $,M
LSV,2022-07-25 08:58,-115.0343,36.2362,570.00,91.40,55.40,29.72,160.00,6.00,0.00,29.85,M,10.00,M,FEW,SCT,M,M,20000.00,25000.00,M,M,M,M,M,M,M,M,M,89.53,KLSV 250858Z 16006KT 10SM FEW200 SCT250 33/13 A2985 RMK AO2A SLPNO ALSTG ESTMD $,M
CXP,2022-07-25 09:15,-119.7326,39.1923,1431.00,68.00,37.40,32.43,0.00,0.00,0.00,30.08,M,7.00,M,CLR,M,M,M,M,M,M,M,M,M,M,M,M,M,M,68.00,KCXP 250915Z AUTO 00000KT 7SM CLR 20/03 A3008 RMK AO2,M
BAM,2022-07-25 09:15,-116.8743,40.5990,1382.36,M,M,M,10.00,5.00,0.00,30.08,M,10.00,M,CLR,M,M,M,M,M,M,M,M,M,M,M,M,M,M,M,KBAM 250915Z AUTO 01005KT 10SM CLR A3008 RMK AO1,M
BVU,2022-07-25 09:15,-114.8611,35.9475,671.00,M,M,M,M,M,0.00,M,M,M,M,M,M,M,M,M,M,M,M,M,M,M,M,M,M,M,M,KBVU 250915Z AUTO RMK AO2 PNO PWINO TSNO,M
MEV,2022-07-25 09:15,-119.7500,38.9963,1441.42,60.80,37.40,41.71,120.00,5.00,0.00,30.07,M,8.00,M,FEW,FEW,SCT,M,4000.00,4500.00,5000.00,M,M,M,M,M,M,M,M,60.80,KMEV 250915Z AUTO 12005KT 8SM FEW040 FEW045 SCT050 16/03 A3007 RMK AO2,M
RTS,2022-07-25 09:15,-119.8764,39.6682,1539.00,66.20,32.00,27.83,340.00,6.00,0.00,30.11,M,10.00,M,CLR,M,M,M,M,M,M,M,M,M,M,M,M,M,M,66.20,KRTS 250915Z AUTO 34006KT 10SM CLR 19/00 A3011 RMK AO2,M
TMT,2022-07-25 09:15,-117.1971,39.4643,1749.34,63.00,24.10,22.50,110.00,3.00,0.00,30.13,M,10.00,M,CLR,M,M,M,M,M,M,M,M,M,M,M,M,M,M,63.00,KTMT 250915Z AUTO 11003KT 10SM CLR 17/M04 A3013 RMK AO2 T01721044,M
HTH,2022-07-25 09:15,-118.6315,38.5448,1282.89,80.60,28.40,14.81,200.00,6.00,0.00,29.98,M,10.00,M,CLR,M,M,M,M,M,M,M,M,M,M,M,M,M,M,78.72,KHTH 250915Z AUTO 20006KT 10SM CLR 27/M02 A2998 RMK A01,M
05U,2022-07-25 09:15,-116.0051,39.6042,1811.23,59.00,37.40,44.47,0.00,0.00,0.00,30.18,M,10.00,M,CLR,M,M,M,M,M,M,M,M,M,M,M,M,M,M,59.00,K05U 250915Z AUTO 00000KT 10SM CLR 15/03 A3018 RMK A01,M
BAM,2022-07-25 09:35,-116.8743,40.5990,1382.36,M,M,M,340.00,6.00,0.00,30.08,M,10.00,M,CLR,M,M,M,M,M,M,M,M,M,M,M,M,M,M,M,KBAM 250935Z AUTO 34006KT 10SM CLR A3008 RMK AO1,M
MEV,2022-07-25 09:35,-119.7500,38.9963,1441.42,60.80,41.00,48.00,0.00,0.00,0.00,30.07,M,9.00,M,SCT,SCT,SCT,M,3000.00,3600.00,4900.00,M,M,M,M,M,M,M,M,60.80,KMEV 250935Z AUTO 00000KT 9SM SCT030 SCT036 SCT049 16/05 A3007 RMK AO2,M
TMT,2022-07-25 09:35,-117.1971,39.4643,1749.34,58.30,25.00,27.61,0.00,0.00,0.00,30.14,M,10.00,M,CLR,M,M,M,M,M,M,M,M,M,M,M,M,M,M,58.30,KTMT 250935Z AUTO 00000KT 10SM CLR 15/M04 A3014 RMK AO2 T01461039,M
05U,2022-07-25 09:35,-116.0051,39.6042,1811.23,59.00,35.60,41.42,0.00,0.00,0.00,30.18,M,10.00,M,CLR,M,M,M,M,M,M,M,M,M,M,M,M,M,M,59.00,K05U 250935Z AUTO 00000KT 10SM CLR 15/02 A3018 RMK A01,M
RTS,2022-07-25 09:35,-119.8764,39.6682,1539.00,64.40,32.00,29.63,330.00,4.00,0.00,30.12,M,10.00,M,CLR,M,M,M,M,M,M,M,M,M,M,M,M,M,M,64.40,KRTS 250935Z AUTO 33004KT 10SM CLR 18/00 A3012 RMK AO2,M
BVU,2022-07-25 09:35,-114.8611,35.9475,671.00,M,M,M,M,M,0.00,M,M,M,M,M,M,M,M,M,M,M,M,M,M,M,M,M,M,M,M,KBVU 250935Z AUTO RMK AO2 PNO PWINO TSNO,M
CXP,2022-07-25 09:35,-119.7326,39.1923,1431.00,68.00,37.40,32.43,0.00,0.00,0.00,30.08,M,7.00,M,CLR,M,M,M,M,M,M,M,M,M,M,M,M,M,M,68.00,KCXP 250935Z AUTO 00000KT 7SM CLR 20/03 A3008 RMK AO2,M
HTH,2022-07-25 09:35,-118.6315,38.5448,1282.89,78.80,28.40,15.71,250.00,4.00,0.00,29.99,M,10.00,M,FEW,M,M,M,4000.00,M,M,M,M,M,M,M,M,M,M,78.80,KHTH 250935Z AUTO 25004KT 10SM FEW040 26/M02 A2999 RMK A01,M
ELY,2022-07-25 09:53,-114.8453,39.2950,1909.00,59.00,50.00,72.01,160.00,6.00,0.00,30.20,1011.70,10.00,M,CLR,M,M,M,M,M,M,M,M,M,M,M,M,M,M,59.00,KELY 250953Z AUTO 16006KT 10SM CLR 15/10 A3020 RMK AO2 SLP117 T01500100,M
VGT,2022-07-25 09:53,-115.1933,36.2111,667.00,92.00,58.00,32.03,130.00,8.00,0.00,29.87,1009.50,10.00,M,CLR,M,M,M,M,M,M,M,M,M,M,M,M,M,M,90.80,KVGT 250953Z AUTO 13008KT 10SM CLR 33/14 A2987 RMK AO2 SLP095 T03330144,M
DRA,2022-07-25 09:53,-116.0278,36.6206,1009.00,87.00,56.00,34.66,210.00,11.00,0.00,29.94,1007.40,10.00,19.00,CLR,M,M,M,M,M,M,M,M,M,M,M,28.00,190.00,2022-07-25 09:07,85.61,KDRA 250953Z AUTO 21011G19KT 10SM CLR 31/13 A2994 RMK AO2 PK WND 19028/0907 SLP074 T03060133,M
P68,2022-07-25 09:53,-116.0056,39.6014,1993.00,58.00,35.00,42.24,0.00,0.00,0.00,30.16,1011.90,M,M,M,M,M,M,M,M,M,M,M,M,M,M,M,M,M,57.90,KP68 250953Z AUTO 00000KT 14/02 A3016 RMK AO1 SLP119 T01440017,M
LOL,2022-07-25 09:53,-118.5701,40.0684,1192.43,75.00,26.10,16.21,20.00,7.00,0.00,30.00,1010.40,10.00,M,CLR,M,M,M,M,M,M,M,M,M,M,M,M,M,M,75.00,KLOL 250953Z AUTO 02007KT 10SM CLR 24/M03 A3000 RMK AO2 SLP104 T02391033,M
CXP,2022-07-25 09:55,-119.7326,39.1923,1431.00,66.20,39.20,37.03,0.00,0.00,0.00,30.09,M,7.00,M,CLR,M,M,M,M,M,M,M,M,M,M,M,M,M,M,66.20,KCXP 250955Z AUTO 00000KT 7SM CLR 19/04 A3009 RMK AO2,M
BAM,2022-07-25 09:55,-116.8743,40.5990,1382.36,M,M,M,310.00,6.00,0.00,30.09,M,10.00,M,CLR,M,M,M,M,M,M,M,M,M,M,M,M,M,M,M,KBAM 250955Z AUTO 31006KT 10SM CLR A3009 RMK AO1,M
HTH,2022-07-25 09:55,-118.6315,38.5448,1282.89,77.00,30.20,17.94,240.00,6.00,0.00,30.00,M,10.00,M,M,M,M,M,M,M,M,M,M,M,M,M,M,M,M,77.00,KHTH 250955Z AUTO 24006KT 10SM 25/M01 A3000 RMK A01,M
TMT,2022-07-25 09:55,-117.1971,39.4643,1749.34,56.30,25.20,29.92,330.00,3.00,0.00,30.14,M,10.00,M,CLR,M,M,M,M,M,M,M,M,M,M,M,M,M,M,56.30,KTMT 250955Z AUTO 33003KT 10SM CLR 14/M04 A3014 RMK AO2 T01351038,M
BVU,2022-07-25 09:55,-114.8611,35.9475,671.00,M,M,M,M,M,0.00,M,M,M,M,M,M,M,M,M,M,M,M,M,M,M,M,M,M,M,M,KBVU 250955Z AUTO RMK AO2 PNO PWINO TSNO,M
RTS,2022-07-25 09:55,-119.8764,39.6682,1539.00,64.40,33.80,31.85,330.00,7.00,0.00,30.12,M,8.00,M,CLR,M,M,M,M,M,M,M,M,M,M,M,M,M,M,64.40,KRTS 250955Z AUTO 33007KT 8SM CLR 18/01 A3012 RMK AO2,M
05U,2022-07-25 09:55,-116.0051,39.6042,1811.23,59.00,35.60,41.42,0.00,0.00,0.00,30.18,M,10.00,M,CLR,M,M,M,M,M,M,M,M,M,M,M,M,M,M,59.00,K05U 250955Z AUTO 00000KT 10SM CLR 15/02 A3018 RMK A01,M
MEV,2022-07-25 09:55,-119.7500,38.9963,1441.42,59.00,39.20,47.72,130.00,4.00,0.00,30.08,M,9.00,M,SCT,SCT,M,M,3100.00,4900.00,M,M,M,M,M,M,M,M,M,59.00,KMEV 250955Z AUTO 13004KT 9SM SCT031 SCT049 15/04 A3008 RMK AO2,M
RNO,2022-07-25 09:55,-119.7711,39.4839,1341.00,74.00,40.00,29.26,330.00,3.00,0.00,30.06,1011.10,6.00,M,FEW,M,M,M,16000.00,M,M,M,FU,M,M,M,M,M,M,73.90,KRNO 250955Z 33003KT 6SM FU FEW160 23/04 A3006 RMK AO2 SLP111 T02330044,M
HND,2022-07-25 09:56,-115.1344,35.9729,742.79,88.00,60.00,39.17,170.00,10.00,0.00,29.92,1011.00,10.00,M,SCT,M,M,M,12000.00,M,M,M,M,M,M,M,M,M,M,87.69,KHND 250956Z AUTO 17010KT 10SM SCT120 31/16 A2992 RMK AO2 SLP110 T03110156 PNO $,M
WMC,2022-07-25 09:56,-117.8072,40.9019,1315.00,72.00,30.00,21.04,60.00,10.00,0.00,30.06,1011.90,10.00,M,CLR,M,M,M,M,M,M,M,M,M,M,M,30.00,40.00,2022-07-25 09:07,72.00,KWMC 250956Z AUTO 06010KT 10SM CLR 22/M01 A3006 RMK AO2 PK WND 04030/0907 SLP119 T02221011,M
EKO,2022-07-25 09:56,-115.7860,40.8242,1367.00,59.00,28.90,31.63,210.00,3.00,0.00,30.12,1013.80,10.00,M,CLR,M,M,M,M,M,M,M,M,M,M,M,M,M,M,59.00,KEKO 250956Z AUTO 21003KT 10SM CLR 15/M02 A3012 RMK AO2 SLP138 T01501017,M
LAS,2022-07-25 09:56,-115.1634,36.0719,663.00,90.00,59.00,35.36,170.00,6.00,0.00,29.87,1008.20,10.00,M,FEW,BKN,BKN,M,8000.00,11000.00,18000.00,M,M,M,M,M,M,M,M,89.26,KLAS 250956Z 17006KT 10SM FEW080 BKN110 BKN180 32/15 A2987 RMK AO2 SLP082 T03220150,M
TPH,2022-07-25 09:56,-117.0904,38.0505,1654.00,69.00,39.00,33.25,90.00,8.00,0.00,30.12,1010.50,10.00,M,CLR,M,M,M,M,M,M,M,M,M,M,M,M,M,M,69.10,KTPH 250956Z AUTO 09008KT 10SM CLR 21/04 A3012 RMK AO2 SLP105 T02060039,M
NFL,2022-07-25 09:56,-118.7010,39.4166,1199.00,67.00,28.90,23.95,0.00,0.00,0.00,29.98,1012.40,10.00,M,CLR,M,M,M,M,M,M,M,M,M,M,M,M,M,M,66.90,KNFL 250956Z AUTO 00000KT 10SM CLR 19/M02 A2998 RMK AO2 SLP124 T01941017,M
INS,2022-07-25 09:58,-115.6733,36.5872,955.00,85.80,50.70,29.86,0.00,0.00,0.00,29.93,1007.90,10.00,M,BKN,OVC,M,M,11000.00,13000.00,M,M,M,M,M,M,M,M,M,83.55,KINS 250958Z AUTO 00000KT 10SM BKN110 OVC130 30/10 A2993 RMK AO2 SLP079 T02990104 $,M
LSV,2022-07-25 09:58,-115.0343,36.2362,570.00,92.00,59.70,33.95,160.00,9.00,0.00,29.85,1007.70,10.00,M,BKN,BKN,M,M,17000.00,19000.00,M,M,M,M,M,M,M,M,M,91.68,KLSV 250958Z 16009KT 10SM BKN170 BKN190 33/15 A2985 RMK AO2A SLP077 T03340154 $,M
BAM,2022-07-25 10:15,-116.8743,40.5990,1382.36,M,M,M,300.00,6.00,0.00,30.09,M,10.00,M,CLR,M,M,M,M,M,M,M,M,M,M,M,M,M,M,M,KBAM 251015Z AUTO 30006KT 10SM CLR A3009 RMK AO1,M
MEV,2022-07-25 10:15,-119.7500,38.9963,1441.42,57.20,37.40,47.44,0.00,0.00,0.00,30.08,M,9.00,M,FEW,SCT,M,M,3100.00,4400.00,M,M,M,M,M,M,M,M,M,57.20,KMEV 251015Z AUTO 00000KT 9SM FEW031 SCT044 14/03 A3008 RMK AO2,M
05U,2022-07-25 10:15,-116.0051,39.6042,1811.23,57.20,35.60,44.19,0.00,0.00,0.00,30.19,M,10.00,M,CLR,M,M,M,M,M,M,M,M,M,M,M,M,M,M,57.20,K05U 251015Z AUTO 00000KT 10SM CLR 14/02 A3019 RMK A01,M
RTS,2022-07-25 10:15,-119.8764,39.6682,1539.00,59.00,32.00,35.87,340.00,9.00,0.00,30.12,M,9.00,M,CLR,M,M,M,M,M,M,M,M,M,M,M,M,M,M,59.00,KRTS 251015Z AUTO 34009KT 9SM CLR 15/M00 A3012 RMK AO2,M
CXP,2022-07-25 10:15,-119.7326,39.1923,1431.00,64.40,39.20,39.43,0.00,0.00,0.00,30.09,M,7.00,M,CLR,M,M,M,M,M,M,M,M,M,M,M,M,M,M,64.40,KCXP 251015Z AUTO 00000KT 7SM CLR 18/04 A3009 RMK AO2,M
BVU,2022-07-25 10:15,-114.8611,35.9475,671.00,M,M,M,M,M,0.00,M,M,M,M,M,M,M,M,M,M,M,M,M,M,M,M,M,M,M,M,KBVU 251015Z AUTO RMK AO2 PNO PWINO TSNO,M
TMT,2022-07-25 10:15,-117.1971,39.4643,1749.34,54.70,24.60,30.93,0.00,0.00,0.00,30.15,M,10.00,M,CLR,M,M,M,M,M,M,M,M,M,M,M,M,M,M,54.70,KTMT 251015Z AUTO 00000KT 10SM CLR 13/M04 A3015 RMK AO2 T01261041,M
HTH,2022-07-25 10:15,-118.6315,38.5448,1282.89,77.00,28.40,16.67,240.00,5.00,0.00,30.00,M,10.00,M,M,M,M,M,M,M,M,M,M,M,M,M,M,M,M,77.00,KHTH 251015Z AUTO 24005KT 10SM 25/M02 A3000 RMK A01,M
BVU,2022-07-25 10:35,-114.8611,35.9475,671.00,M,M,M,M,M,0.00,M,M,M,M,M,M,M,M,M,M,M,M,M,M,M,M,M,M,M,M,KBVU 251035Z AUTO RMK AO2 PNO PWINO TSNO,M
CXP,2022-07-25 10:35,-119.7326,39.1923,1431.00,62.60,42.80,48.28,70.00,5.00,0.00,30.09,M,6.00,M,CLR,M,M,M,M,M,M,M,HZ,M,M,M,M,M,M,62.60,KCXP 251035Z AUTO 07005KT 6SM HZ CLR 17/06 A3009 RMK AO2,M
RTS,2022-07-25 10:35,-119.8764,39.6682,1539.00,60.80,32.00,33.64,340.00,7.00,0.00,30.13,M,9.00,M,CLR,M,M,M,M,M,M,M,M,M,M,M,M,M,M,60.80,KRTS 251035Z AUTO 34007KT 9SM CLR 16/00 A3013 RMK AO2,M
05U,2022-07-25 10:35,-116.0051,39.6042,1811.23,57.20,33.80,41.13,0.00,0.00,0.00,30.19,M,10.00,M,CLR,M,M,M,M,M,M,M,M,M,M,M,M,M,M,57.20,K05U 251035Z AUTO 00000KT 10SM CLR 14/01 A3019 RMK A01,M
MEV,2022-07-25 10:35,-119.7500,38.9963,1441.42,59.00,39.20,47.72,0.00,0.00,0.00,30.08,M,9.00,M,FEW,FEW,SCT,M,3000.00,4300.00,5500.00,M,M,M,M,M,M,M,M,59.00,KMEV 251035Z AUTO 00000KT 9SM FEW030 FEW043 SCT055 15/04 A3008 RMK AO2,M
BAM,2022-07-25 10:35,-116.8743,40.5990,1382.36,M,M,M,330.00,6.00,0.00,30.10,M,10.00,M,CLR,M,M,M,M,M,M,M,M,M,M,M,M,M,M,M,KBAM 251035Z AUTO 33006KT 10SM CLR A3010 RMK AO1,M
HTH,2022-07-25 10:35,-118.6315,38.5448,1282.89,75.20,28.40,17.70,230.00,6.00,0.00,30.00,M,10.00,M,FEW,FEW,M,M,3900.00,4500.00,M,M,M,M,M,M,M,M,M,75.20,KHTH 251035Z AUTO 23006KT 10SM FEW039 FEW045 24/M02 A3000 RMK A01,M
TMT,2022-07-25 10:35,-117.1971,39.4643,1749.34,56.00,26.60,31.94,140.00,4.00,0.00,30.15,M,10.00,M,CLR,M,M,M,M,M,M,M,M,M,M,M,M,M,M,56.10,KTMT 251035Z AUTO 14004KT 10SM CLR 13/M03 A3015 RMK AO2 T01341030,M
VGT,2022-07-25 10:53,-115.1933,36.2111,667.00,91.00,59.00,34.27,120.00,9.00,0.00,29.87,1009.60,10.00,M,CLR,M,M,M,M,M,M,M,M,M,M,M,M,M,M,90.27,KVGT 251053Z AUTO 12009KT 10SM CLR 33/15 A2987 RMK AO2 SLP096 T03280150,M
LOL,2022-07-25 10:53,-118.5701,40.0684,1192.43,72.00,28.00,19.39,30.00,7.00,0.00,30.01,1010.90,10.00,M,CLR,M,M,M,M,M,M,M,M,M,M,M,M,M,M,72.00,KLOL 251053Z AUTO 03007KT 10SM CLR 22/M02 A3001 RMK AO2 SLP109 T02221022,M
DRA,2022-07-25 10:53,-116.0278,36.6206,1009.00,86.00,56.00,35.90,140.00,4.00,0.00,29.94,1007.70,10.00,M,CLR,M,M,M,M,M,M,M,M,M,M,M,M,M,M,84.66,KDRA 251053Z AUTO 14004KT 10SM CLR 30/13 A2994 RMK AO2 SLP077 T03000133,M
P68,2022-07-25 10:53,-116.0056,39.6014,1993.00,61.00,34.00,36.19,0.00,0.00,0.00,30.17,1012.30,M,M,M,M,M,M,M,M,M,M,M,M,M,M,M,M,M,61.00,KP68 251053Z AUTO 00000KT 16/01 A3017 RMK AO1 SLP123 T01610011,M
ELY,2022-07-25 10:53,-114.8453,39.2950,1909.00,57.00,48.00,71.81,0.00,0.00,0.00,30.21,1012.80,10.00,M,CLR,M,M,M,M,M,M,M,M,M,M,M,M,M,M,57.00,KELY 251053Z AUTO 00000KT 10SM CLR 14/09 A3021 RMK AO2 SLP128 T01390089,M
CXP,2022-07-25 10:55,-119.7326,39.1923,1431.00,64.40,39.20,39.43,0.00,0.00,0.00,30.10,M,7.00,M,CLR,M,M,M,M,M,M,M,M,M,M,M,M,M,M,64.40,KCXP 251055Z AUTO 00000KT 7SM CLR 18/04 A3010 RMK AO2,M
RNO,2022-07-25 10:55,-119.7711,39.4839,1341.00,71.00,41.00,33.57,230.00,3.00,0.00,30.07,1011.20,6.00,M,FEW,M,M,M,16000.00,M,M,M,FU,M,M,M,M,M,M,71.10,KRNO 251055Z 23003KT 6SM FU FEW160 22/05 A3007 RMK AO2 SLP112 T02170050,M
RTS,2022-07-25 10:55,-119.8764,39.6682,1539.00,62.60,33.80,33.93,340.00,7.00,0.00,30.13,M,10.00,M,CLR,M,M,M,M,M,M,M,M,M,M,M,M,M,M,62.60,KRTS 251055Z AUTO 34007KT 10SM CLR 17/01 A3013 RMK AO2,M
05U,2022-07-25 10:55,-116.0051,39.6042,1811.23,60.80,33.80,36.16,0.00,0.00,0.00,30.19,M,10.00,M,CLR,M,M,M,M,M,M,M,M,M,M,M,M,M,M,60.80,K05U 251055Z AUTO 00000KT 10SM CLR 16/01 A3019 RMK A01,M
MEV,2022-07-25 10:55,-119.7500,38.9963,1441.42,53.60,37.40,54.07,60.00,3.00,0.00,30.09,M,9.00,M,FEW,FEW,SCT,M,3000.00,3800.00,5500.00,M,M,M,M,M,M,M,M,53.60,KMEV 251055Z AUTO 06003KT 9SM FEW030 FEW038 SCT055 12/03 A3009 RMK AO2,M
BAM,2022-07-25 10:55,-116.8743,40.5990,1382.36,M,M,M,340.00,6.00,0.00,30.10,M,10.00,M,CLR,M,M,M,M,M,M,M,M,M,M,M,M,M,M,M,KBAM 251055Z AUTO 34006KT 10SM CLR A3010 RMK AO1,M
HTH,2022-07-25 10:55,-118.6315,38.5448,1282.89,77.00,32.00,19.30,260.00,4.00,0.00,30.01,M,10.00,M,CLR,M,M,M,M,M,M,M,M,M,M,M,M,M,M,77.00,KHTH 251055Z AUTO 26004KT 10SM CLR 25/M00 A3001 RMK A01,M
TMT,2022-07-25 10:55,-117.1971,39.4643,1749.34,56.80,27.50,32.32,170.00,5.00,0.00,30.16,M,10.00,M,CLR,M,M,M,M,M,M,M,M,M,M,M,M,M,M,56.80,KTMT 251055Z AUTO 17005KT 10SM CLR 14/M02 A3016 RMK AO2 T01381025,M
BVU,2022-07-25 10:55,-114.8611,35.9475,671.00,M,M,M,M,M,0.00,M,M,M,M,M,M,M,M,M,M,M,M,M,M,M,M,M,M,M,M,KBVU 251055Z AUTO RMK AO2 PNO PWINO TSNO,M
HND,2022-07-25 10:56,-115.1344,35.9729,742.79,87.00,61.00,41.62,180.00,9.00,0.00,29.92,1011.10,10.00,M,FEW,M,M,M,11000.00,M,M,M,M,M,M,M,M,M,M,87.15,KHND 251056Z AUTO 18009KT 10SM FEW110 31/16 A2992 RMK AO2 SLP111 T03060161 PNO $,M
WMC,2022-07-25 10:56,-117.8072,40.9019,1315.00,71.00,30.00,21.69,20.00,11.00,0.00,30.08,1012.30,10.00,M,CLR,M,M,M,M,M,M,M,M,M,M,M,M,M,M,71.10,KWMC 251056Z AUTO 02011KT 10SM CLR 22/M01 A3008 RMK AO2 SLP123 T02171011,M
TPH,2022-07-25 10:56,-117.0904,38.0505,1654.00,70.00,43.00,37.64,0.00,0.00,0.00,30.12,1010.30,10.00,M,CLR,M,M,M,M,M,M,M,M,M,M,M,M,M,M,70.00,KTPH 251056Z AUTO 00000KT 10SM CLR 21/06 A3012 RMK AO2 SLP103 T02110061,M
LAS,2022-07-25 10:56,-115.1634,36.0719,663.00,89.00,60.00,37.83,170.00,7.00,0.00,29.88,1008.40,10.00,M,FEW,SCT,BKN,M,11000.00,15000.00,18000.00,M,M,M,M,M,M,M,M,88.76,KLAS 251056Z 17007KT 10SM FEW110 SCT150 BKN180 32/16 A2988 RMK AO2 SLP084 T03170156,M
EKO,2022-07-25 10:56,-115.7860,40.8242,1367.00,56.00,33.00,41.92,0.00,0.00,0.00,30.13,1014.30,10.00,M,CLR,M,M,M,M,M,M,M,M,M,M,M,M,M,M,55.90,KEKO 251056Z AUTO 00000KT 10SM CLR 13/01 A3013 RMK AO2 SLP143 T01330006,M
NFL,2022-07-25 10:56,-118.7010,39.4166,1199.00,68.00,27.00,21.33,0.00,0.00,0.00,29.99,1012.80,10.00,M,CLR,M,M,M,M,M,M,M,M,M,M,M,M,M,M,68.00,KNFL 251056Z AUTO 00000KT 10SM CLR 20/M03 A2999 RMK AO2 SLP128 T02001028,M
INS,2022-07-25 10:58,-115.6733,36.5872,955.00,84.70,50.70,30.93,100.00,11.00,0.00,29.94,1008.10,10.00,M,OVC,M,M,M,14000.00,M,M,M,M,M,M,M,M,M,M,82.70,KINS 251058Z AUTO 10011KT 10SM OVC140 29/10 A2994 RMK AO2 SLP081 T02930104 $,M
LSV,2022-07-25 10:58,-115.0343,36.2362,570.00,91.20,60.40,35.79,140.00,9.00,0.00,29.85,1007.70,10.00,M,BKN,BKN,BKN,OVC,11000.00,14000.00,16000.00,19000.00,M,M,M,M,M,M,M,91.02,KLSV 251058Z AUTO 14009KT 10SM BKN110 BKN140 BKN160 OVC190 33/16 A2985 RMK AO2 SLP077 T03290158 $,M
INS,2022-07-25 11:12,-115.6733,36.5872,955.00,84.20,57.20,39.86,100.00,15.00,0.00,29.94,1008.10,10.00,M,BKN,OVC,M,M,12000.00,14000.00,M,M,-RA,M,M,M,M,M,M,83.47,KINS 251112Z AUTO 10015KT 10SM -RA BKN120 OVC140 29/14 A2994 RMK AO2 RAB12 SLP081 $,M
TMT,2022-07-25 11:15,-117.1971,39.4643,1749.34,56.50,27.30,32.40,190.00,4.00,0.00,30.16,M,10.00,M,CLR,M,M,M,M,M,M,M,M,M,M,M,M,M,M,56.50,KTMT 251115Z AUTO 19004KT 10SM CLR 14/M03 A3016 RMK AO2 T01361026,M
BVU,2022-07-25 11:15,-114.8611,35.9475,671.00,M,M,M,M,M,0.00,M,M,M,M,M,M,M,M,M,M,M,M,M,M,M,M,M,M,M,M,KBVU 251115Z AUTO RMK AO2 PNO PWINO TSNO,M
CXP,2022-07-25 11:15,-119.7326,39.1923,1431.00,64.40,37.40,36.74,0.00,0.00,0.00,30.10,M,7.00,M,CLR,M,M,M,M,M,M,M,M,M,M,M,M,M,M,64.40,KCXP 251115Z AUTO 00000KT 7SM CLR 18/03 A3010 RMK AO2,M
INS,2022-07-25 11:15,-115.6733,36.5872,955.00,82.40,62.60,51.21,110.00,14.00,0.00,29.94,1008.10,10.00,M,FEW,BKN,OVC,M,300.00,12000.00,14000.00,M,-RA,M,M,M,M,M,M,83.41,KINS 251115Z AUTO 11014KT 10SM -RA FEW003 BKN120 OVC140 28/17 A2994 RMK AO2 RAB12 SLP081 $,M
RTS,2022-07-25 11:15,-119.8764,39.6682,1539.00,64.40,33.80,31.85,340.00,6.00,0.00,30.13,M,9.00,M,CLR,M,M,M,M,M,M,M,M,M,M,M,M,M,M,64.40,KRTS 251115Z AUTO 34006KT 9SM CLR 18/01 A3013 RMK AO2,M
05U,2022-07-25 11:15,-116.0051,39.6042,1811.23,60.80,35.60,38.85,0.00,0.00,0.00,30.19,M,10.00,M,CLR,M,M,M,M,M,M,M,M,M,M,M,M,M,M,60.80,K05U 251115Z AUTO 00000KT 10SM CLR 16/02 A3019 RMK A01,M
MEV,2022-07-25 11:15,-119.7500,38.9963,1441.42,53.60,37.40,54.07,0.00,0.00,0.00,30.09,M,8.00,M,FEW,FEW,M,M,4900.00,5500.00,M,M,M,M,M,M,M,M,M,53.60,KMEV 251115Z AUTO 00000KT 8SM FEW049 FEW055 12/03 A3009 RMK AO2,M
BAM,2022-07-25 11:15,-116.8743,40.5990,1382.36,M,M,M,350.00,6.00,0.00,30.10,M,10.00,M,CLR,M,M,M,M,M,M,M,M,M,M,M,M,M,M,M,KBAM 251115Z AUTO 35006KT 10SM CLR A3010 RMK AO1,M
HTH,2022-07-25 11:15,-118.6315,38.5448,1282.89,77.00,30.20,17.94,270.00,8.00,0.00,30.01,M,10.00,M,CLR,M,M,M,M,M,M,M,M,M,M,M,M,M,M,77.00,KHTH 251115Z AUTO 27008KT 10SM CLR 25/M01 A3001 RMK A01,M
05U,2022-07-25 11:30,-116.0051,39.6042,1811.23,62.60,33.80,33.93,0.00,0.00,0.00,30.19,M,10.00,M,CLR,M,M,M,M,M,M,M,M,M,M,M,M,M,M,62.60,K05U 251130Z AUTO 00000KT 10SM CLR 17/01 A3019 RMK A01,M
BVU,2022-07-25 11:35,-114.8611,35.9475,671.00,M,M,M,M,M,0.00,M,M,M,M,M,M,M,M,M,M,M,M,M,M,M,M,M,M,M,M,KBVU 251135Z AUTO RMK AO2 PNO PWINO TSNO,M
HTH,2022-07-25 11:35,-118.6315,38.5448,1282.89,77.00,33.80,20.74,300.00,8.00,0.00,30.01,M,10.00,M,FEW,M,M,M,3800.00,M,M,M,M,M,M,M,M,M,M,77.00,KHTH 251135Z AUTO 30008KT 10SM FEW038 25/01 A3001 RMK A01,M
BAM,2022-07-25 11:35,-116.8743,40.5990,1382.36,M,M,M,100.00,3.00,0.00,30.10,M,10.00,M,CLR,M,M,M,M,M,M,M,M,M,M,M,M,M,M,M,KBAM 251135Z AUTO 10003KT 10SM CLR A3010 RMK AO1,M
MEV,2022-07-25 11:35,-119.7500,38.9963,1441.42,53.60,37.40,54.07,220.00,3.00,0.00,30.10,M,9.00,M,FEW,SCT,BKN,M,3000.00,4800.00,5500.00,M,M,M,M,M,M,M,M,53.60,KMEV 251135Z AUTO 22003KT 9SM FEW030 SCT048 BKN055 12/03 A3010 RMK AO2,M
RTS,2022-07-25 11:35,-119.8764,39.6682,1539.00,62.60,33.80,33.93,330.00,8.00,0.00,30.12,M,10.00,M,CLR,M,M,M,M,M,M,M,M,M,M,M,M,M,M,62.60,KRTS 251135Z AUTO 33008KT 10SM CLR 17/01 A3012 RMK AO2,M
CXP,2022-07-25 11:35,-119.7326,39.1923,1431.00,62.60,39.20,42.00,0.00,0.00,0.00,30.10,M,7.00,M,CLR,M,M,M,M,M,M,M,M,M,M,M,M,M,M,62.60,KCXP 251135Z AUTO 00000KT 7SM CLR 17/04 A3010 RMK AO2,M
TMT,2022-07-25 11:35,-117.1971,39.4643,1749.34,56.00,27.30,33.11,200.00,3.00,0.00,30.16,M,10.00,M,CLR,M,M,M,M,M,M,M,M,M,M,M,M,M,M,55.90,KTMT 251135Z AUTO 20003KT 10SM CLR 13/M03 A3016 RMK AO2 T01331026,M
INS,2022-07-25 11:39,-115.6733,36.5872,955.00,80.60,62.60,54.30,60.00,6.00,0.00,29.94,1008.10,10.00,M,FEW,BKN,BKN,OVC,300.00,10000.00,13000.00,15000.00,M,M,M,M,M,M,M,81.84,KINS 251139Z AUTO 06006KT 10SM FEW003 BKN100 BKN130 OVC150 27/17 A2994 RMK AO2 RAB12E39 SLP081 $,M
P68,2022-07-25 11:53,-116.0056,39.6014,1993.00,66.00,30.90,26.81,80.00,3.00,0.00,30.17,1011.90,M,M,M,M,M,M,M,M,M,M,M,M,M,M,M,M,M,66.00,KP68 251153Z AUTO 08003KT 19/M01 A3017 RMK AO1 SLP119 T01891006 10211 20139 53004,M
LOL,2022-07-25 11:53,-118.5701,40.0684,1192.43,72.00,28.90,20.12,30.00,8.00,0.00,30.01,1011.00,10.00,M,CLR,M,M,M,M,M,M,M,M,M,M,M,M,M,M,72.00,KLOL 251153Z AUTO 03008KT 10SM CLR 22/M02 A3001 RMK AO2 SLP110 T02221017 10267 20222 51010,M
DRA,2022-07-25 11:53,-116.0278,36.6206,1009.00,85.00,56.00,37.18,60.00,7.00,0.00,29.95,1007.80,10.00,M,BKN,M,M,M,11000.00,M,M,M,M,M,M,M,M,M,M,83.74,KDRA 251153Z AUTO 06007KT 10SM BKN110 29/13 A2995 RMK AO2 SLP078 T02940133 10333 20294 51006,M
ELY,2022-07-25 11:53,-114.8453,39.2950,1909.00,52.00,48.00,86.17,180.00,5.00,0.00,30.21,1013.80,10.00,M,CLR,M,M,M,M,M,M,M,M,M,M,M,M,M,M,52.00,KELY 251153Z AUTO 18005KT 10SM CLR 11/09 A3021 RMK AO2 SLP138 70002 T01110089 10194 20111 51006,M
VGT,2022-07-25 11:53,-115.1933,36.2111,667.00,90.00,60.00,36.77,120.00,9.00,0.00,29.87,1009.80,10.00,M,CLR,M,M,M,M,M,M,M,M,M,M,M,M,M,M,89.66,KVGT 251153Z AUTO 12009KT 10SM CLR 32/16 A2987 RMK AO2 LTG DSNT NW SLP098 T03220156 10350 20322 53003,M
INS,2022-07-25 11:54,-115.6733,36.5872,955.00,80.60,62.60,54.30,100.00,10.00,0.00,29.96,1008.80,10.00,M,BKN,BKN,OVC,M,9500.00,13000.00,15000.00,M,M,M,M,M,M,M,M,81.84,KINS 251154Z AUTO 10010KT 10SM BKN095 BKN130 OVC150 27/17 A2996 RMK AO2 RAB12E39 PRESRR SLP088 $,M
RNO,2022-07-25 11:55,-119.7711,39.4839,1341.00,72.00,40.00,31.20,260.00,5.00,0.00,30.08,1011.70,6.00,M,SCT,M,M,M,16000.00,M,M,M,FU,M,M,M,M,M,M,72.00,KRNO 251155Z 26005KT 6SM FU SCT160 22/04 A3008 RMK AO2 SLP117 T02220044 10283 20217 53008,M
TMT,2022-07-25 11:55,-117.1971,39.4643,1749.34,56.70,27.70,32.70,270.00,3.00,0.00,30.16,M,10.00,M,CLR,M,M,M,M,M,M,M,M,M,M,M,M,M,M,56.70,KTMT 251155Z AUTO 27003KT 10SM CLR 14/M02 A3016 RMK AO2 T01371024,M
RTS,2022-07-25 11:55,-119.8764,39.6682,1539.00,60.80,32.00,33.64,350.00,5.00,0.00,30.13,M,10.00,M,CLR,M,M,M,M,M,M,M,M,M,M,M,M,M,M,60.80,KRTS 251155Z AUTO 35005KT 10SM CLR 16/00 A3013 RMK AO2,M
05U,2022-07-25 11:55,-116.0051,39.6042,1811.23,64.40,32.00,29.63,0.00,0.00,0.00,30.20,M,10.00,M,CLR,M,M,M,M,M,M,M,M,M,M,M,M,M,M,64.40,K05U 251155Z AUTO 00000KT 10SM CLR 18/M00 A3020 RMK A01,M
MEV,2022-07-25 11:55,-119.7500,38.9963,1441.42,50.00,35.60,57.52,110.00,4.00,0.00,30.10,M,9.00,M,FEW,SCT,SCT,M,3000.00,4300.00,4900.00,M,M,M,M,M,M,M,M,50.00,KMEV 251155Z AUTO 11004KT 9SM FEW030 SCT043 SCT049 10/02 A3010 RMK AO2,M
BAM,2022-07-25 11:55,-116.8743,40.5990,1382.36,M,M,M,80.00,4.00,0.00,30.10,M,10.00,M,CLR,M,M,M,M,M,M,M,M,M,M,M,M,M,M,M,KBAM 251155Z AUTO 08004KT 10SM CLR A3010 RMK AO1,M
HTH,2022-07-25 11:55,-118.6315,38.5448,1282.89,77.00,32.00,19.30,300.00,9.00,0.00,30.02,M,10.00,M,CLR,M,M,M,M,M,M,M,M,M,M,M,M,M,M,77.00,KHTH 251155Z AUTO 30009KT 10SM CLR 25/00 A3002 RMK A01,M
BVU,2022-07-25 11:55,-114.8611,35.9475,671.00,M,M,M,M,M,0.00,M,M,M,M,M,M,M,M,M,M,M,M,M,M,M,M,M,M,M,M,KBVU 251155Z AUTO RMK AO2 PNO PWINO TSNO,M
CXP,2022-07-25 11:55,-119.7326,39.1923,1431.00,60.80,39.20,44.76,0.00,0.00,0.00,30.11,M,8.00,M,CLR,M,M,M,M,M,M,M,M,M,M,M,M,M,M,60.80,KCXP 251155Z AUTO 00000KT 8SM CLR 16/04 A3011 RMK AO2,M
LAS,2022-07-25 11:56,-115.1634,36.0719,663.00,88.00,61.00,40.44,170.00,5.00,0.00,29.88,1008.50,10.00,M,FEW,FEW,BKN,M,11000.00,15000.00,18000.00,M,M,M,M,M,M,M,M,88.02,KLAS 251156Z 17005KT 10SM FEW110 FEW150 BKN180 31/16 A2988 RMK AO2 SLP085 T03110161 10339 20311 52004,M
EKO,2022-07-25 11:56,-115.7860,40.8242,1367.00,57.00,28.00,32.75,0.00,0.00,0.00,30.14,1014.50,10.00,M,CLR,M,M,M,M,M,M,M,M,M,M,M,M,M,M,57.00,KEKO 251156Z AUTO 00000KT 10SM CLR 14/M02 A3014 RMK AO2 SLP145 T01391022 10256 20117 51007,M
WMC,2022-07-25 11:56,-117.8072,40.9019,1315.00,70.00,30.90,23.36,50.00,10.00,0.00,30.08,1012.50,10.00,M,CLR,M,M,M,M,M,M,M,M,M,M,M,M,M,M,70.00,KWMC 251156Z AUTO 05010KT 10SM CLR 21/M01 A3008 RMK AO2 SLP125 T02111006 10272 20211 51010,M
NFL,2022-07-25 11:56,-118.7010,39.4166,1199.00,63.00,33.00,32.53,270.00,6.00,0.00,30.01,1013.20,10.00,M,CLR,M,M,M,M,M,M,M,M,M,M,M,M,M,M,63.00,KNFL 251156Z AUTO 27006KT 10SM CLR 17/01 A3001 RMK AO2 SLP132 T01720006 10272 20167 52012,M
HND,2022-07-25 11:56,-115.1344,35.9729,742.79,86.00,61.00,43.10,170.00,10.00,0.00,29.92,1011.20,10.00,M,CLR,M,M,M,M,M,M,M,M,M,M,M,M,M,M,86.12,KHND 251156Z AUTO 17010KT 10SM CLR 30/16 A2992 RMK AO2 SLP112 6//// 7//// T03000161 10328 20300 51004 PNO $,M
TPH,2022-07-25 11:56,-117.0904,38.0505,1654.00,71.00,46.00,40.65,0.00,0.00,0.00,30.13,1010.50,10.00,M,CLR,M,M,M,M,M,M,M,M,M,M,M,M,M,M,71.10,KTPH 251156Z AUTO 00000KT 10SM CLR 22/08 A3013 RMK AO2 SLP105 T02170078 10250 20206 53004,M
LSV,2022-07-25 11:58,-115.0343,36.2362,570.00,90.00,60.80,37.70,130.00,11.00,0.00,29.86,1008.10,10.00,M,SCT,M,M,M,17000.00,M,M,M,M,M,M,M,M,M,M,89.94,KLSV 251158Z AUTO 13011KT 10SM SCT170 32/16 A2986 RMK AO2 SLP081 T03220160 10337 20322 $,M
INS,2022-07-25 11:58,-115.6733,36.5872,955.00,80.20,61.50,52.92,100.00,9.00,T,29.96,1008.80,10.00,M,BKN,BKN,OVC,M,9500.00,13000.00,15000.00,M,M,M,M,M,M,M,M,81.28,KINS 251158Z AUTO 10009KT 10SM BKN095 BKN130 OVC150 27/16 A2996 RMK AO2 RAB12E39 SLP088 P0000 60000 T02680164 10317 20262 52012 $,M
INS,2022-07-25 12:07,-115.6733,36.5872,955.00,80.60,62.60,54.30,70.00,13.00,0.00,29.97,1009.30,10.00,18.00,OVC,M,M,M,9500.00,M,M,M,-RA,M,M,M,M,M,M,81.84,KINS 251207Z AUTO 07013G18KT 10SM -RA OVC095 27/17 A2997 RMK AO2 RAB02 SLP093 $,M
05U,2022-07-25 12:10,-116.0051,39.6042,1811.23,64.40,32.00,29.63,0.00,0.00,0.00,30.20,M,10.00,M,CLR,M,M,M,M,M,M,M,M,M,M,M,M,M,M,64.40,K05U 251210Z AUTO 00000KT 10SM CLR 18/00 A3020 RMK A01,M
INS,2022-07-25 12:12,-115.6733,36.5872,955.00,78.80,62.60,57.60,70.00,12.00,0.00,29.97,1009.30,10.00,18.00,BKN,OVC,M,M,10000.00,12000.00,M,M,-RA,M,M,M,M,M,M,78.80,KINS 251212Z AUTO 07012G18KT 10SM -RA BKN100 OVC120 26/17 A2997 RMK AO2 RAB02 SLP093 $,M
BVU,2022-07-25 12:15,-114.8611,35.9475,671.00,M,M,M,M,M,0.00,M,M,M,M,M,M,M,M,M,M,M,M,M,M,M,M,M,M,M,M,KBVU 251215Z AUTO RMK AO2 PNO PWINO TSNO,M
CXP,2022-07-25 12:15,-119.7326,39.1923,1431.00,62.60,39.20,42.00,0.00,0.00,0.00,30.11,M,7.00,M,CLR,M,M,M,M,M,M,M,M,M,M,M,M,M,M,62.60,KCXP 251215Z AUTO 00000KT 7SM CLR 17/04 A3011 RMK AO2,M
BAM,2022-07-25 12:15,-116.8743,40.5990,1382.36,M,M,M,50.00,5.00,0.00,30.11,M,10.00,M,CLR,M,M,M,M,M,M,M,M,M,M,M,M,M,M,M,KBAM 251215Z AUTO 05005KT 10SM CLR A3011 RMK AO1,M
TMT,2022-07-25 12:15,-117.1971,39.4643,1749.34,56.00,28.40,34.64,0.00,0.00,0.00,30.17,M,10.00,M,SCT,M,M,M,12000.00,M,M,M,M,M,M,M,M,M,M,55.90,KTMT 251215Z AUTO 00000KT 10SM SCT120 13/M02 A3017 RMK AO2 T01331020,M
HTH,2022-07-25 12:15,-118.6315,38.5448,1282.89,77.00,35.60,22.28,300.00,10.00,0.00,30.03,M,10.00,M,FEW,M,M,M,4300.00,M,M,M,M,M,M,M,M,M,M,77.00,KHTH 251215Z AUTO 30010KT 10SM FEW043 25/02 A3003 RMK A01,M
RTS,2022-07-25 12:15,-119.8764,39.6682,1539.00,60.80,32.00,33.64,360.00,7.00,0.00,30.13,M,10.00,M,CLR,M,M,M,M,M,M,M,M,M,M,M,M,M,M,60.80,KRTS 251215Z AUTO 36007KT 10SM CLR 16/00 A3013 RMK AO2,M
MEV,2022-07-25 12:15,-119.7500,38.9963,1441.42,51.80,37.40,57.77,90.00,4.00,0.00,30.10,M,10.00,M,FEW,FEW,SCT,M,2900.00,3800.00,4500.00,M,M,M,M,M,M,M,M,51.80,KMEV 251215Z AUTO 09004KT 10SM FEW029 FEW038 SCT045 11/03 A3010 RMK AO2,M
INS,2022-07-25 12:16,-115.6733,36.5872,955.00,78.80,60.80,54.05,60.00,11.00,0.00,29.97,1009.30,10.00,M,BKN,OVC,M,M,10000.00,12000.00,M,M,M,M,M,M,M,M,M,78.80,KINS 251216Z AUTO 06011KT 10SM BKN100 OVC120 26/16 A2997 RMK AO2 RAB02E16 SLP093 $,M
05U,2022-07-25 12:30,-116.0051,39.6042,1811.23,64.40,33.80,31.85,0.00,0.00,0.00,30.20,M,10.00,M,CLR,M,M,M,M,M,M,M,M,M,M,M,M,M,M,64.40,K05U 251230Z AUTO 00000KT 10SM CLR 18/01 A3020 RMK A01,M
CXP,2022-07-25 12:30,-119.7326,39.1923,1431.00,60.80,39.20,44.76,0.00,0.00,0.00,30.11,M,8.00,M,CLR,M,M,M,M,M,M,M,M,M,M,M,M,M,M,60.80,KCXP 251230Z AUTO 00000KT 8SM CLR 16/04 A3011 RMK AO2,M
MEV,2022-07-25 12:35,-119.7500,38.9963,1441.42,50.00,37.40,61.76,110.00,5.00,0.00,30.11,M,10.00,M,FEW,SCT,M,M,3900.00,4800.00,M,M,M,M,M,M,M,M,M,50.00,KMEV 251235Z AUTO 11005KT 10SM FEW039 SCT048 10/03 A3011 RMK AO2,M
TMT,2022-07-25 12:35,-117.1971,39.4643,1749.34,55.00,28.40,35.80,210.00,3.00,0.00,30.18,M,10.00,M,SCT,M,M,M,12000.00,M,M,M,M,M,M,M,M,M,M,55.00,KTMT 251235Z AUTO 21003KT 10SM SCT120 13/M02 A3018 RMK AO2 T01281020,M
BAM,2022-07-25 12:35,-116.8743,40.5990,1382.36,M,M,M,0.00,0.00,0.00,30.12,M,10.00,M,CLR,M,M,M,M,M,M,M,M,M,M,M,M,M,M,M,KBAM 251235Z AUTO 00000KT 10SM CLR A3012 RMK AO1,M
HTH,2022-07-25 12:35,-118.6315,38.5448,1282.89,77.00,33.80,20.74,290.00,11.00,0.00,30.03,M,10.00,16.00,FEW,M,M,M,4300.00,M,M,M,M,M,M,M,M,M,M,77.00,KHTH 251235Z AUTO 29011G16KT 10SM FEW043 25/01 A3003 RMK A01,M
RTS,2022-07-25 12:35,-119.8764,39.6682,1539.00,62.60,32.00,31.56,340.00,6.00,0.00,30.14,M,10.00,M,CLR,M,M,M,M,M,M,M,M,M,M,M,M,M,M,62.60,KRTS 251235Z AUTO 34006KT 10SM CLR 17/00 A3014 RMK AO2,M
BVU,2022-07-25 12:35,-114.8611,35.9475,671.00,M,M,M,M,M,0.00,M,M,M,M,M,M,M,M,M,M,M,M,M,M,M,M,M,M,M,M,KBVU 251235Z AUTO RMK AO2 PNO PWINO TSNO,M
INS,2022-07-25 12:48,-115.6733,36.5872,955.00,77.00,62.60,61.13,350.00,10.00,0.00,30.00,1010.40,10.00,M,SCT,OVC,M,M,10000.00,12000.00,M,M,-RA,M,M,M,M,M,M,77.00,KINS 251248Z AUTO 35010KT 10SM -RA SCT100 OVC120 25/17 A3000 RMK AO2 RAB02E16RAB48 SLP104 $,M
05U,2022-07-25 12:50,-116.0051,39.6042,1811.23,62.60,33.80,33.93,0.00,0.00,0.00,30.20,M,10.00,M,CLR,M,M,M,M,M,M,M,M,M,M,M,M,M,M,62.60,K05U 251250Z AUTO 00000KT 10SM CLR 17/01 A3020 RMK A01,M
ELY,2022-07-25 12:53,-114.8453,39.2950,1909.00,53.00,49.00,85.59,170.00,6.00,0.00,30.22,1014.90,10.00,M,CLR,M,M,M,M,M,M,M,M,M,M,M,M,M,M,53.10,KELY 251253Z AUTO 17006KT 10SM CLR 12/09 A3022 RMK AO2 SLP149 T01170094,M
LOL,2022-07-25 12:53,-118.5701,40.0684,1192.43,72.00,28.90,20.12,50.00,7.00,0.00,30.03,1011.50,10.00,M,CLR,M,M,M,M,M,M,M,M,M,M,M,M,M,M,72.00,KLOL 251253Z AUTO 05007KT 10SM CLR 22/M02 A3003 RMK AO2 SLP115 T02221017,M
VGT,2022-07-25 12:53,-115.1933,36.2111,667.00,88.00,60.00,39.17,100.00,8.00,0.00,29.91,1011.00,10.00,M,CLR,M,M,M,M,M,M,M,M,M,M,M,M,M,M,87.69,KVGT 251253Z 10008KT 10SM CLR 31/16 A2991 RMK AO2 SLP110 T03110156,M
DRA,2022-07-25 12:53,-116.0278,36.6206,1009.00,84.00,56.00,38.28,90.00,10.00,T,29.99,1009.40,10.00,M,OVC,M,M,M,10000.00,M,M,M,M,M,M,M,M,M,M,83.03,KDRA 251253Z AUTO 09010KT 10SM OVC100 29/13 A2999 RMK AO2 RAB29E38 SLP094 P0000 T02890133,M
P68,2022-07-25 12:53,-116.0056,39.6014,1993.00,64.00,35.00,34.02,0.00,0.00,0.00,30.18,1012.50,M,M,M,M,M,M,M,M,M,M,M,M,M,M,M,M,M,64.00,KP68 251253Z AUTO 00000KT 18/02 A3018 RMK AO1 SLP125 T01780017,M
HTH,2022-07-25 12:55,-118.6315,38.5448,1282.89,77.00,32.00,19.30,310.00,10.00,0.00,30.04,M,10.00,M,CLR,M,M,M,M,M,M,M,M,M,M,M,M,M,M,77.00,KHTH 251255Z AUTO 31010KT 10SM CLR 25/M00 A3004 RMK A01,M
TMT,2022-07-25 12:55,-117.1971,39.4643,1749.34,54.30,27.50,35.39,200.00,3.00,0.00,30.18,M,10.00,M,CLR,M,M,M,M,M,M,M,M,M,M,M,M,M,M,54.30,KTMT 251255Z AUTO 20003KT 10SM CLR 12/M02 A3018 RMK AO2 T01241025,M
BVU,2022-07-25 12:55,-114.8611,35.9475,671.00,M,M,M,M,M,0.00,M,M,M,M,M,M,M,M,M,M,M,M,M,M,M,M,M,M,M,M,KBVU 251255Z AUTO RMK AO2 PNO PWINO TSNO,M
RNO,2022-07-25 12:55,-119.7711,39.4839,1341.00,67.00,41.00,38.76,0.00,0.00,0.00,30.09,1012.40,6.00,M,FEW,M,M,M,16000.00,M,M,M,FU,M,M,M,M,M,M,66.90,KRNO 251255Z 00000KT 6SM FU FEW160 19/05 A3009 RMK AO2 SLP124 T01940050,M
CXP,2022-07-25 12:55,-119.7326,39.1923,1431.00,60.80,37.40,41.71,0.00,0.00,0.00,30.12,M,6.00,M,CLR,M,M,M,M,M,M,M,HZ,M,M,M,M,M,M,60.80,KCXP 251255Z AUTO 00000KT 6SM HZ CLR 16/03 A3012 RMK AO2,M
RTS,2022-07-25 12:55,-119.8764,39.6682,1539.00,59.00,32.00,35.87,350.00,7.00,0.00,30.14,M,9.00,M,CLR,M,M,M,M,M,M,M,M,M,M,M,M,M,M,59.00,KRTS 251255Z AUTO 35007KT 9SM CLR 15/00 A3014 RMK AO2,M
MEV,2022-07-25 12:55,-119.7500,38.9963,1441.42,51.80,37.40,57.77,100.00,3.00,0.00,30.11,M,9.00,M,CLR,M,M,M,M,M,M,M,M,M,M,M,M,M,M,51.80,KMEV 251255Z AUTO 10003KT 9SM CLR 11/03 A3011 RMK AO2,M
BAM,2022-07-25 12:55,-116.8743,40.5990,1382.36,M,M,M,10.00,7.00,0.00,30.11,M,10.00,M,CLR,M,M,M,M,M,M,M,M,M,M,M,M,M,M,M,KBAM 251255Z AUTO 01007KT 10SM CLR A3011 RMK AO1,M
HND,2022-07-25 12:56,-115.1344,35.9729,742.79,85.00,61.00,44.65,160.00,9.00,0.00,29.95,1012.10,10.00,M,CLR,M,M,M,M,M,M,M,M,M,M,M,M,M,M,85.12,KHND 251256Z AUTO 16009KT 10SM CLR 29/16 A2995 RMK AO2 SLP121 T02940161 PNO $,M
EKO,2022-07-25 12:56,-115.7860,40.8242,1367.00,54.00,28.90,37.89,20.00,3.00,0.00,30.15,1014.90,10.00,M,CLR,M,M,M,M,M,M,M,M,M,M,M,M,M,M,54.00,KEKO 251256Z AUTO 02003KT 10SM CLR 12/M02 A3015 RMK AO2 SLP149 T01221017,M
WMC,2022-07-25 12:56,-117.8072,40.9019,1315.00,70.00,30.90,23.36,50.00,10.00,0.00,30.10,1013.00,10.00,M,CLR,M,M,M,M,M,M,M,M,M,M,M,M,M,M,70.00,KWMC 251256Z AUTO 05010KT 10SM CLR 21/M01 A3010 RMK AO2 SLP130 T02111006,M
LAS,2022-07-25 12:56,-115.1634,36.0719,663.00,87.00,61.00,41.62,160.00,3.00,0.00,29.91,1009.60,10.00,M,FEW,FEW,BKN,M,11000.00,15000.00,22000.00,M,M,M,M,M,M,M,M,87.15,KLAS 251256Z 16003KT 10SM FEW110 FEW150 BKN220 31/16 A2991 RMK AO2 SLP096 ACC DSNT N-E-SE T03060161,M
TPH,2022-07-25 12:56,-117.0904,38.0505,1654.00,65.00,41.00,41.55,0.00,0.00,0.00,30.14,1011.60,10.00,M,CLR,M,M,M,M,M,M,M,M,M,M,M,M,M,M,64.90,KTPH 251256Z AUTO 00000KT 10SM CLR 18/05 A3014 RMK AO2 SLP116 T01830050,M
NFL,2022-07-25 12:56,-118.7010,39.4166,1199.00,66.00,28.90,24.71,280.00,5.00,0.00,30.02,1013.60,10.00,M,CLR,M,M,M,M,M,M,M,M,M,M,M,M,M,M,66.00,KNFL 251256Z AUTO 28005KT 10SM CLR 19/M02 A3002 RMK AO2 SLP136 T01891017,M
INS,2022-07-25 12:58,-115.6733,36.5872,955.00,77.40,61.30,57.62,360.00,6.00,T,30.00,1010.40,10.00,M,FEW,SCT,BKN,OVC,4700.00,9500.00,12000.00,19000.00,-RA,M,M,M,M,M,M,77.40,KINS 251258Z AUTO 36006KT 10SM -RA FEW047 SCT095 BKN120 OVC190 25/16 A3000 RMK AO2 RAB02E16RAB48 SLP104 P0000 T02520163 $,M
LSV,2022-07-25 12:58,-115.0343,36.2362,570.00,88.70,61.20,39.84,110.00,7.00,0.00,29.89,1009.20,9.00,M,CLR,M,M,M,M,M,M,M,M,M,M,M,M,M,M,88.79,KLSV 251258Z AUTO 11007KT 9SM CLR 32/16 A2989 RMK AO2 SLP092 T03150162 $,M
INS,2022-07-25 13:00,-115.6733,36.5872,955.00,77.00,62.60,61.13,360.00,7.00,0.00,30.00,1010.40,10.00,M,SCT,BKN,BKN,BKN,10000.00,12000.00,15000.00,19000.00,M,M,M,M,M,M,M,77.00,KINS 251300Z AUTO 36007KT 10SM SCT100 BKN120 BKN150 BKN190 25/17 A3000 RMK AO2 RAE00 SLP104 $,M
05U,2022-07-25 13:10,-116.0051,39.6042,1811.23,64.40,35.60,34.22,0.00,0.00,0.00,30.21,M,10.00,M,CLR,M,M,M,M,M,M,M,M,M,M,M,M,M,M,64.40,K05U 251310Z AUTO 00000KT 10SM CLR 18/02 A3021 RMK A01,M
RTS,2022-07-25 13:15,-119.8764,39.6682,1539.00,59.00,32.00,35.87,350.00,6.00,0.00,30.14,M,9.00,M,CLR,M,M,M,M,M,M,M,M,M,M,M,M,M,M,59.00,KRTS 251315Z AUTO 35006KT 9SM CLR 15/00 A3014 RMK AO2,M
MEV,2022-07-25 13:15,-119.7500,38.9963,1441.42,51.80,37.40,57.77,200.00,3.00,0.00,30.12,M,9.00,M,CLR,M,M,M,M,M,M,M,M,M,M,M,M,M,M,51.80,KMEV 251315Z AUTO 20003KT 9SM CLR 11/03 A3012 RMK AO2,M
BAM,2022-07-25 13:15,-116.8743,40.5990,1382.36,M,M,M,70.00,6.00,0.00,30.12,M,10.00,M,CLR,M,M,M,M,M,M,M,M,M,M,M,M,M,M,M,KBAM 251315Z AUTO 07006KT 10SM CLR A3012 RMK AO1,M
HTH,2022-07-25 13:15,-118.6315,38.5448,1282.89,75.20,30.20,19.05,290.00,8.00,0.00,30.05,M,10.00,M,CLR,M,M,M,M,M,M,M,M,M,M,M,M,M,M,75.20,KHTH 251315Z AUTO 29008KT 10SM CLR 24/M01 A3005 RMK A01,M
TMT,2022-07-25 13:15,-117.1971,39.4643,1749.34,53.20,27.50,36.84,190.00,4.00,0.00,30.18,M,10.00,M,CLR,M,M,M,M,M,M,M,M,M,M,M,M,M,M,53.20,KTMT 251315Z AUTO 19004KT 10SM CLR 12/M02 A3018 RMK AO2 T01181025,M
BVU,2022-07-25 13:15,-114.8611,35.9475,671.00,M,M,M,M,M,0.00,M,M,M,M,M,M,M,M,M,M,M,M,M,M,M,M,M,M,M,M,KBVU 251315Z AUTO RMK AO2 PNO PWINO TSNO,M
CXP,2022-07-25 13:15,-119.7326,39.1923,1431.00,60.80,39.20,44.76,0.00,0.00,0.00,30.13,M,7.00,M,CLR,M,M,M,M,M,M,M,M,M,M,M,M,M,M,60.80,KCXP 251315Z AUTO 00000KT 7SM CLR 16/04 A3013 RMK AO2,M
INS,2022-07-25 13:28,-115.6733,36.5872,955.00,77.00,62.60,61.13,0.00,0.00,0.00,30.02,1011.10,10.00,M,SCT,BKN,OVC,M,10000.00,12000.00,16000.00,M,-RA,M,M,M,M,M,M,77.00,KINS 251328Z AUTO 00000KT 10SM -RA SCT100 BKN120 OVC160 25/17 A3002 RMK AO2 RAE00RAB28 SLP111 $,M
05U,2022-07-25 13:30,-116.0051,39.6042,1811.23,64.40,33.80,31.85,0.00,0.00,0.00,30.22,M,10.00,M,CLR,M,M,M,M,M,M,M,M,M,M,M,M,M,M,64.40,K05U 251330Z AUTO 00000KT 10SM CLR 18/01 A3022 RMK A01,M
CXP,2022-07-25 13:30,-119.7326,39.1923,1431.00,62.60,39.20,42.00,0.00,0.00,0.00,30.13,M,7.00,M,CLR,M,M,M,M,M,M,M,M,M,M,M,M,M,M,62.60,KCXP 251330Z AUTO 00000KT 7SM CLR 17/04 A3013 RMK AO2,M
INS,2022-07-25 13:33,-115.6733,36.5872,955.00,77.00,62.60,61.13,0.00,0.00,0.00,30.03,1011.50,10.00,M,BKN,BKN,OVC,M,9500.00,13000.00,16000.00,M,-RA,M,M,M,M,M,M,77.00,KINS 251333Z AUTO 00000KT 10SM -RA BKN095 BKN130 OVC160 25/17 A3003 RMK AO2 RAE00RAB28 SLP115 $,M
MEV,2022-07-25 13:35,-119.7500,38.9963,1441.42,51.80,35.60,53.81,120.00,3.00,0.00,30.12,M,7.00,M,CLR,M,M,M,M,M,M,M,M,M,M,M,M,M,M,51.80,KMEV 251335Z AUTO 12003KT 7SM CLR 11/02 A3012 RMK AO2,M
TMT,2022-07-25 13:35,-117.1971,39.4643,1749.34,51.80,27.90,39.43,0.00,0.00,0.00,30.19,M,10.00,M,CLR,M,M,M,M,M,M,M,M,M,M,M,M,M,M,51.80,KTMT 251335Z AUTO 00000KT 10SM CLR 11/M02 A3019 RMK AO2 T01101023,M
HTH,2022-07-25 13:35,-118.6315,38.5448,1282.89,77.00,30.20,17.94,290.00,8.00,0.00,30.06,M,10.00,M,CLR,M,M,M,M,M,M,M,M,M,M,M,M,M,M,77.00,KHTH 251335Z AUTO 29008KT 10SM CLR 25/M01 A3006 RMK A01,M
BAM,2022-07-25 13:35,-116.8743,40.5990,1382.36,M,M,M,50.00,5.00,0.00,30.12,M,10.00,M,CLR,M,M,M,M,M,M,M,M,M,M,M,M,M,M,M,KBAM 251335Z AUTO 05005KT 10SM CLR A3012 RMK AO1,M
RTS,2022-07-25 13:35,-119.8764,39.6682,1539.00,59.00,32.00,35.87,360.00,6.00,0.00,30.15,M,9.00,M,CLR,M,M,M,M,M,M,M,M,M,M,M,M,M,M,59.00,KRTS 251335Z AUTO 36006KT 9SM CLR 15/00 A3015 RMK AO2,M
BVU,2022-07-25 13:35,-114.8611,35.9475,671.00,M,M,M,M,M,0.00,M,M,M,M,M,M,M,M,M,M,M,M,M,M,M,M,M,M,M,M,KBVU 251335Z AUTO RMK AO2 PNO PWINO TSNO,M
INS,2022-07-25 13:48,-115.6733,36.5872,955.00,77.00,64.40,65.12,0.00,0.00,0.00,30.04,1011.80,10.00,M,BKN,OVC,M,M,10000.00,12000.00,M,M,-RA,M,M,M,M,M,M,77.00,KINS 251348Z AUTO 00000KT 10SM -RA BKN100 OVC120 25/18 A3004 RMK AO2 RAE00RAB28E48DZB48 SLP118 $,M
INS,2022-07-25 13:50,-115.6733,36.5872,955.00,77.00,64.40,65.12,0.00,0.00,0.00,30.04,1011.80,10.00,M,BKN,OVC,M,M,10000.00,11000.00,M,M,M,M,M,M,M,M,M,77.00,KINS 251350Z AUTO 00000KT 10SM BKN100 OVC110 25/18 A3004 RMK AO2 RAE00RAB28E48DZB48E50 SLP118 $,M
05U,2022-07-25 13:50,-116.0051,39.6042,1811.23,64.40,35.60,34.22,0.00,0.00,0.00,30.22,M,10.00,M,CLR,M,M,M,M,M,M,M,M,M,M,M,M,M,M,64.40,K05U 251350Z AUTO 00000KT 10SM CLR 18/02 A3022 RMK A01,M
P68,2022-07-25 13:53,-116.0056,39.6014,1993.00,64.00,37.00,36.68,120.00,3.00,0.00,30.19,1013.50,M,M,M,M,M,M,M,M,M,M,M,M,M,M,M,M,M,64.00,KP68 251353Z AUTO 12003KT 18/03 A3019 RMK AO1 SLP135 T01780028,M
VGT,2022-07-25 13:53,-115.1933,36.2111,667.00,89.00,60.00,37.83,70.00,10.00,0.00,29.94,1012.20,10.00,M,BKN,M,M,M,11000.00,M,M,M,M,M,M,M,M,M,M,88.76,KVGT 251353Z 07010KT 10SM BKN110 32/16 A2994 RMK AO2 SLP122 T03170156,M
LOL,2022-07-25 13:53,-118.5701,40.0684,1192.43,73.00,30.00,20.34,360.00,9.00,0.00,30.04,1012.10,10.00,M,CLR,M,M,M,M,M,M,M,M,M,M,M,M,M,M,73.00,KLOL 251353Z AUTO 36009KT 10SM CLR 23/M01 A3004 RMK AO2 SLP121 T02281011,M
DRA,2022-07-25 13:53,-116.0278,36.6206,1009.00,76.00,66.00,71.41,90.00,7.00,0.03,30.03,1011.30,10.00,15.00,SCT,M,M,M,12000.00,M,M,M,-RA,M,M,M,M,M,M,75.90,KDRA 251353Z AUTO 09007G15KT 10SM -RA SCT120 24/19 A3003 RMK AO2 RAB16 SLP113 P0003 T02440189,M
ELY,2022-07-25 13:53,-114.8453,39.2950,1909.00,59.00,52.00,77.55,180.00,5.00,0.00,30.23,1014.40,10.00,M,CLR,M,M,M,M,M,M,M,M,M,M,M,M,M,M,59.00,KELY 251353Z AUTO 18005KT 10SM CLR 15/11 A3023 RMK AO2 SLP144 T01500111,M
BVU,2022-07-25 13:55,-114.8611,35.9475,671.00,M,M,M,M,M,0.00,M,M,M,M,M,M,M,M,M,M,M,M,M,M,M,M,M,M,M,M,KBVU 251355Z AUTO RMK AO2 PNO PWINO TSNO,M
CXP,2022-07-25 13:55,-119.7326,39.1923,1431.00,64.40,37.40,36.74,0.00,0.00,0.00,30.14,M,7.00,M,CLR,M,M,M,M,M,M,M,M,M,M,M,M,M,M,64.40,KCXP 251355Z AUTO 00000KT 7SM CLR 18/03 A3014 RMK AO2,M
MEV,2022-07-25 13:55,-119.7500,38.9963,1441.42,53.60,37.40,54.07,80.00,3.00,0.00,30.13,M,8.00,M,CLR,M,M,M,M,M,M,M,M,M,M,M,M,M,M,53.60,KMEV 251355Z AUTO 08003KT 8SM CLR 12/03 A3013 RMK AO2,M
HTH,2022-07-25 13:55,-118.6315,38.5448,1282.89,78.80,30.20,16.90,310.00,7.00,0.00,30.06,M,10.00,M,M,M,M,M,M,M,M,M,M,M,M,M,M,M,M,78.80,KHTH 251355Z AUTO 31007KT 10SM 26/M01 A3006 RMK A01,M
BAM,2022-07-25 13:55,-116.8743,40.5990,1382.36,M,M,M,20.00,4.00,0.00,30.13,M,10.00,M,CLR,M,M,M,M,M,M,M,M,M,M,M,M,M,M,M,KBAM 251355Z AUTO 02004KT 10SM CLR A3013 RMK AO1,M
TMT,2022-07-25 13:55,-117.1971,39.4643,1749.34,53.00,28.80,39.29,270.00,3.00,0.00,30.19,M,10.00,M,CLR,M,M,M,M,M,M,M,M,M,M,M,M,M,M,52.90,KTMT 251355Z AUTO 27003KT 10SM CLR 12/M02 A3019 RMK AO2 T01161018,M
RNO,2022-07-25 13:55,-119.7711,39.4839,1341.00,69.00,41.00,35.94,210.00,3.00,0.00,30.10,1012.90,6.00,M,FEW,M,M,M,16000.00,M,M,M,FU,M,M,M,M,M,M,69.10,KRNO 251355Z 21003KT 6SM FU FEW160 21/05 A3010 RMK AO2 SLP129 T02060050,M
INS,2022-07-25 13:55,-115.6733,36.5872,955.00,77.00,64.40,65.12,280.00,4.00,0.00,30.04,1011.80,10.00,M,BKN,OVC,M,M,9500.00,12000.00,M,M,M,M,M,M,M,M,M,77.00,KINS 251355Z AUTO 28004KT 10SM BKN095 OVC120 25/18 A3004 RMK AO2 RAE00RAB28E48DZB48E50 SLP118 $,M
RTS,2022-07-25 13:55,-119.8764,39.6682,1539.00,62.60,33.80,33.93,340.00,7.00,0.00,30.15,M,8.00,M,CLR,M,M,M,M,M,M,M,M,M,M,M,M,M,M,62.60,KRTS 251355Z AUTO 34007KT 8SM CLR 17/01 A3015 RMK AO2,M
TPH,2022-07-25 13:56,-117.0904,38.0505,1654.00,68.00,43.00,40.31,10.00,5.00,0.00,30.16,1012.20,10.00,M,CLR,M,M,M,M,M,M,M,M,M,M,M,M,M,M,68.00,KTPH 251356Z AUTO 01005KT 10SM CLR 20/06 A3016 RMK AO2 SLP122 T02000061,M
EKO,2022-07-25 13:56,-115.7860,40.8242,1367.00,60.00,30.00,31.80,0.00,0.00,0.00,30.16,1015.20,10.00,M,CLR,M,M,M,M,M,M,M,M,M,M,M,M,M,M,60.10,KEKO 251356Z AUTO 00000KT 10SM CLR 16/M01 A3016 RMK AO2 SLP152 T01561011,M
WMC,2022-07-25 13:56,-117.8072,40.9019,1315.00,70.00,30.90,23.36,40.00,10.00,0.00,30.10,1013.50,10.00,M,CLR,M,M,M,M,M,M,M,M,M,M,M,M,M,M,70.00,KWMC 251356Z AUTO 04010KT 10SM CLR 21/M01 A3010 RMK AO2 SLP135 T02111006,M
HND,2022-07-25 13:56,-115.1344,35.9729,742.79,86.00,61.00,43.10,170.00,8.00,0.00,29.97,1013.00,10.00,M,CLR,M,M,M,M,M,M,M,M,M,M,M,M,M,M,86.12,KHND 251356Z 17008KT 10SM CLR 30/16 A2997 RMK AO2 SLP130 T03000161 PNO $,M
LAS,2022-07-25 13:56,-115.1634,36.0719,663.00,87.00,61.00,41.62,0.00,0.00,0.00,29.94,1010.50,10.00,M,FEW,SCT,BKN,M,12000.00,15000.00,22000.00,M,M,M,M,M,M,M,M,87.15,KLAS 251356Z 00000KT 10SM FEW120 SCT150 BKN220 31/16 A2994 RMK AO2 SLP105 ACC DSNT ALQDS T03060161,M
NFL,2022-07-25 13:56,-118.7010,39.4166,1199.00,65.00,33.00,30.44,160.00,4.00,0.00,30.04,1014.10,9.00,M,CLR,M,M,M,M,M,M,M,M,M,M,M,M,M,M,64.90,KNFL 251356Z AUTO 16004KT 9SM CLR 18/01 A3004 RMK AO2 SLP141 T01830006,M
INS,2022-07-25 13:58,-115.6733,36.5872,955.00,76.50,64.20,65.75,270.00,5.00,T,30.04,1011.80,10.00,M,BKN,OVC,M,M,9500.00,12000.00,M,M,M,M,M,M,M,M,M,76.50,KINS 251358Z AUTO 27005KT 10SM BKN095 OVC120 25/18 A3004 RMK AO2 RAE00RAB28E48DZB48E50 SLP118 P0000 T02470179 $,M
LSV,2022-07-25 13:58,-115.0343,36.2362,570.00,88.50,61.70,40.81,50.00,8.00,0.00,29.92,1010.30,10.00,M,OVC,M,M,M,10000.00,M,M,M,M,M,M,M,M,M,M,88.80,KLSV 251358Z AUTO 05008KT 10SM OVC100 31/17 A2992 RMK AO2 SLP103 T03140165 $,M
05U,2022-07-25 14:10,-116.0051,39.6042,1811.23,64.40,35.60,34.22,0.00,0.00,0.00,30.22,M,10.00,M,CLR,M,M,M,M,M,M,M,M,M,M,M,M,M,M,64.40,K05U 251410Z AUTO 00000KT 10SM CLR 18/02 A3022 RMK A01,M
CXP,2022-07-25 14:15,-119.7326,39.1923,1431.00,64.40,39.20,39.43,0.00,0.00,0.00,30.14,M,7.00,M,CLR,M,M,M,M,M,M,M,M,M,M,M,M,M,M,64.40,KCXP 251415Z AUTO 00000KT 7SM CLR 18/04 A3014 RMK AO2,M
RTS,2022-07-25 14:15,-119.8764,39.6682,1539.00,64.40,33.80,31.85,10.00,5.00,0.00,30.15,M,8.00,M,CLR,M,M,M,M,M,M,M,M,M,M,M,M,M,M,64.40,KRTS 251415Z AUTO 01005KT 8SM CLR 18/01 A3015 RMK AO2,M
HTH,2022-07-25 14:15,-118.6315,38.5448,1282.89,78.80,28.40,15.71,310.00,6.00,0.00,30.07,M,10.00,M,CLR,M,M,M,M,M,M,M,M,M,M,M,M,M,M,78.80,KHTH 251415Z AUTO 31006KT 10SM CLR 26/M02 A3007 RMK A01,M
TMT,2022-07-25 14:15,-117.1971,39.4643,1749.34,56.50,28.60,34.18,200.00,9.00,0.00,30.20,M,10.00,M,CLR,M,M,M,M,M,M,M,M,M,M,M,M,M,M,56.50,KTMT 251415Z AUTO 20009KT 10SM CLR 14/M02 A3020 RMK AO2 T01361019,M
BAM,2022-07-25 14:15,-116.8743,40.5990,1382.36,M,M,M,0.00,0.00,0.00,30.13,M,10.00,M,CLR,M,M,M,M,M,M,M,M,M,M,M,M,M,M,M,KBAM 251415Z AUTO 00000KT 10SM CLR A3013 RMK AO1,M
MEV,2022-07-25 14:15,-119.7500,38.9963,1441.42,59.00,37.40,44.47,120.00,3.00,0.00,30.13,M,8.00,M,CLR,M,M,M,M,M,M,M,M,M,M,M,M,M,M,59.00,KMEV 251415Z AUTO 12003KT 8SM CLR 15/03 A3013 RMK AO2,M
BVU,2022-07-25 14:15,-114.8611,35.9475,671.00,M,M,M,M,M,0.00,M,M,M,M,M,M,M,M,M,M,M,M,M,M,M,M,M,M,M,M,KBVU 251415Z AUTO RMK AO2 PNO PWINO TSNO,M
RTS,2022-07-25 14:35,-119.8764,39.6682,1539.00,69.80,33.80,26.43,0.00,0.00,0.00,30.15,M,9.00,M,CLR,M,M,M,M,M,M,M,M,M,M,M,M,M,M,69.80,KRTS 251435Z AUTO 00000KT 9SM CLR 21/01 A3015 RMK AO2,M
BVU,2022-07-25 14:35,-114.8611,35.9475,671.00,M,M,M,M,M,0.00,M,M,M,M,M,M,M,M,M,M,M,M,M,M,M,M,M,M,M,M,KBVU 251435Z AUTO RMK AO2 PNO PWINO TSNO,M
CXP,2022-07-25 14:35,-119.7326,39.1923,1431.00,66.20,39.20,37.03,0.00,0.00,0.00,30.15,M,7.00,M,CLR,M,M,M,M,M,M,M,M,M,M,M,M,M,M,66.20,KCXP 251435Z AUTO 00000KT 7SM CLR 19/04 A3015 RMK AO2,M
05U,2022-07-25 14:35,-116.0051,39.6042,1811.23,66.20,32.00,27.83,0.00,0.00,0.00,30.23,M,10.00,M,CLR,M,M,M,M,M,M,M,M,M,M,M,M,M,M,66.20,K05U 251435Z AUTO 00000KT 10SM CLR 19/M00 A3023 RMK A01,M
MEV,2022-07-25 14:35,-119.7500,38.9963,1441.42,64.40,37.40,36.74,0.00,0.00,0.00,30.13,M,8.00,M,CLR,M,M,M,M,M,M,M,M,M,M,M,M,M,M,64.40,KMEV 251435Z AUTO 00000KT 8SM CLR 18/03 A3013 RMK AO2,M
BAM,2022-07-25 14:35,-116.8743,40.5990,1382.36,M,M,M,360.00,4.00,0.00,30.13,M,10.00,M,CLR,M,M,M,M,M,M,M,M,M,M,M,M,M,M,M,KBAM 251435Z AUTO 36004KT 10SM CLR A3013 RMK AO1,M
HTH,2022-07-25 14:35,-118.6315,38.5448,1282.89,80.60,32.00,17.14,320.00,8.00,0.00,30.07,M,10.00,M,CLR,M,M,M,M,M,M,M,M,M,M,M,M,M,M,78.82,KHTH 251435Z AUTO 32008KT 10SM CLR 27/M00 A3007 RMK A01,M
TMT,2022-07-25 14:35,-117.1971,39.4643,1749.34,M,M,M,190.00,6.00,0.00,30.20,M,10.00,M,CLR,M,M,M,M,M,M,M,M,M,M,M,M,M,M,M,KTMT 251435Z AUTO 19006KT 10SM CLR A3020 RMK AO2,M
NFL,2022-07-25 14:41,-118.7010,39.4166,1199.00,69.00,34.00,27.29,0.00,0.00,0.00,30.05,M,10.00,M,SCT,M,M,M,15000.00,M,M,M,M,M,M,M,M,M,M,69.10,KNFL 251441Z 00000KT 10SM SCT150 21/01 A3005 RMK AO2 T02060011,M
INS,2022-07-25 14:47,-115.6733,36.5872,955.00,73.40,64.40,73.44,20.00,11.00,0.00,30.08,1013.50,10.00,M,OVC,M,M,M,8000.00,M,M,M,M,M,M,M,M,M,M,73.40,KINS 251447Z AUTO 02011KT 10SM OVC080 23/18 A3008 RMK AO2 SLP135 $,M
P68,2022-07-25 14:53,-116.0056,39.6014,1993.00,68.00,32.00,26.15,110.00,3.00,0.00,30.20,1013.70,M,M,M,M,M,M,M,M,M,M,M,M,M,M,M,M,M,68.00,KP68 251453Z AUTO 11003KT 20/00 A3020 RMK AO1 SLP137 T02000000 51008,M
DRA,2022-07-25 14:53,-116.0278,36.6206,1009.00,76.00,66.00,71.41,110.00,9.00,T,30.07,1012.80,10.00,M,FEW,BKN,OVC,M,7000.00,10000.00,12000.00,M,-RA,M,M,M,M,M,M,75.90,KDRA 251453Z AUTO 11009KT 10SM -RA FEW070 BKN100 OVC120 24/19 A3007 RMK AO2 SLP128 P0000 60003 T02440189 51037,M
LOL,2022-07-25 14:53,-118.5701,40.0684,1192.43,77.00,30.90,18.46,10.00,8.00,0.00,30.05,1012.20,10.00,M,CLR,M,M,M,M,M,M,M,M,M,M,M,M,M,M,77.00,KLOL 251453Z AUTO 01008KT 10SM CLR 25/M01 A3005 RMK AO2 SLP122 T02501006 51010,M
VGT,2022-07-25 14:53,-115.1933,36.2111,667.00,91.00,61.00,36.80,50.00,9.00,0.00,29.96,1012.90,10.00,M,SCT,BKN,M,M,9000.00,10000.00,M,M,M,M,M,M,M,M,M,91.06,KVGT 251453Z 05009KT 10SM SCT090 BKN100 33/16 A2996 RMK AO2 SLP129 T03280161 51027,M
ELY,2022-07-25 14:53,-114.8453,39.2950,1909.00,66.00,53.00,63.10,160.00,9.00,0.00,30.23,1014.40,10.00,M,CLR,M,M,M,M,M,M,M,M,M,M,M,M,M,M,66.00,KELY 251453Z AUTO 16009KT 10SM CLR 19/12 A3023 RMK AO2 SLP144 T01890117 52006,M
05U,2022-07-25 14:55,-116.0051,39.6042,1811.23,68.00,32.00,26.15,0.00,0.00,0.00,30.23,M,10.00,M,CLR,M,M,M,M,M,M,M,M,M,M,M,M,M,M,68.00,K05U 251455Z AUTO 00000KT 10SM CLR 20/M00 A3023 RMK A01,M
BAM,2022-07-25 14:55,-116.8743,40.5990,1382.36,M,M,M,360.00,5.00,0.00,30.13,M,10.00,M,CLR,M,M,M,M,M,M,M,M,M,M,M,M,M,M,M,KBAM 251455Z AUTO 36005KT 10SM CLR A3013 RMK AO1,M
MEV,2022-07-25 14:55,-119.7500,38.9963,1441.42,66.20,35.60,32.14,0.00,0.00,0.00,30.13,M,7.00,M,CLR,M,M,M,M,M,M,M,M,M,M,M,M,M,M,66.20,KMEV 251455Z AUTO 00000KT 7SM CLR 19/02 A3013 RMK AO2,M
HTH,2022-07-25 14:55,-118.6315,38.5448,1282.89,80.60,33.80,18.42,330.00,9.00,0.00,30.07,M,10.00,M,CLR,M,M,M,M,M,M,M,M,M,M,M,M,M,M,78.88,KHTH 251455Z AUTO 33009KT 10SM CLR 27/01 A3007 RMK A01,M
TMT,2022-07-25 14:55,-117.1971,39.4643,1749.34,M,M,M,200.00,3.00,0.00,30.20,M,10.00,M,CLR,M,M,M,M,M,M,M,M,M,M,M,M,M,M,M,KTMT 251455Z AUTO 20003KT 10SM CLR A3020 RMK AO2,M
RNO,2022-07-25 14:55,-119.7711,39.4839,1341.00,73.00,41.00,31.47,0.00,0.00,0.00,30.11,1012.90,6.00,M,FEW,M,M,M,20000.00,M,M,M,FU,M,M,M,M,M,M,73.00,KRNO 251455Z 00000KT 6SM FU FEW200 23/05 A3011 RMK AO2 SLP129 T02280050 51008,M
RTS,2022-07-25 14:55,-119.8764,39.6682,1539.00,71.60,33.80,24.86,340.00,3.00,0.00,30.15,M,10.00,M,CLR,M,M,M,M,M,M,M,M,M,M,M,M,M,M,71.60,KRTS 251455Z AUTO 34003KT 10SM CLR 22/01 A3015 RMK AO2,M
CXP,2022-07-25 14:55,-119.7326,39.1923,1431.00,68.00,37.40,32.43,0.00,0.00,0.00,30.15,M,7.00,M,CLR,M,M,M,M,M,M,M,M,M,M,M,M,M,M,68.00,KCXP 251455Z AUTO 00000KT 7SM CLR 20/03 A3015 RMK AO2,M
BVU,2022-07-25 14:55,-114.8611,35.9475,671.00,M,M,M,M,M,0.00,M,M,M,M,M,M,M,M,M,M,M,M,M,M,M,M,M,M,M,M,KBVU 251455Z AUTO RMK AO2 PNO PWINO TSNO,M
NFL,2022-07-25 14:56,-118.7010,39.4166,1199.00,73.00,33.00,23.06,0.00,0.00,0.00,30.05,1014.40,10.00,M,SCT,M,M,M,15000.00,M,M,M,M,M,M,M,M,M,M,73.00,KNFL 251456Z 00000KT 10SM SCT150 23/01 A3005 RMK AO2 SLP144 T02280006 51012,M
WMC,2022-07-25 14:56,-117.8072,40.9019,1315.00,75.00,33.00,21.56,40.00,10.00,0.00,30.09,1013.20,10.00,M,CLR,M,M,M,M,M,M,M,M,M,M,M,M,M,M,75.00,KWMC 251456Z AUTO 04010KT 10SM CLR 24/01 A3009 RMK AO2 SLP132 T02390006 50003,M
EKO,2022-07-25 14:56,-115.7860,40.8242,1367.00,67.00,30.00,25.05,80.00,4.00,0.00,30.16,1014.80,10.00,M,CLR,M,M,M,M,M,M,M,M,M,M,M,M,M,M,66.90,KEKO 251456Z AUTO 08004KT 10SM CLR 19/M01 A3016 RMK AO2 SLP148 T01941011 50006,M
LAS,2022-07-25 14:56,-115.1634,36.0719,663.00,88.00,61.00,40.44,70.00,7.00,0.00,29.96,1011.50,10.00,M,FEW,SCT,BKN,M,10000.00,15000.00,22000.00,M,M,M,M,M,M,M,M,88.02,KLAS 251456Z 07007KT 10SM FEW100 SCT150 BKN220 31/16 A2996 RMK AO2 SLP115 VIRGA DSNT S ACC ALQDS T03110161 51026,M
HND,2022-07-25 14:56,-115.1344,35.9729,742.79,83.00,66.00,56.75,160.00,8.00,0.00,30.00,1014.10,9.00,M,FEW,SCT,BKN,M,3500.00,4700.00,7000.00,M,-RA,M,M,M,M,M,M,85.07,KHND 251456Z 16008KT 9SM -RA FEW035 SCT047 BKN070 28/19 A3000 RMK AO2 RAB47 SLP141 6//// T02830189 52023,M
TPH,2022-07-25 14:56,-117.0904,38.0505,1654.00,73.00,40.00,30.16,70.00,3.00,0.00,30.18,1012.50,10.00,M,OVC,M,M,M,11000.00,M,M,M,M,M,M,M,M,M,M,73.00,KTPH 251456Z AUTO 07003KT 10SM OVC110 23/04 A3018 RMK AO2 SLP125 T02280044 53014,M
INS,2022-07-25 14:58,-115.6733,36.5872,955.00,72.70,65.70,78.68,10.00,13.00,0.00,30.08,1013.50,10.00,M,SCT,OVC,M,M,6000.00,8000.00,M,M,M,M,M,M,M,M,M,72.70,KINS 251458Z AUTO 01013KT 10SM SCT060 OVC080 23/19 A3008 RMK AO2 SLP135 60000 T02260187 52038 $,M
LSV,2022-07-25 14:58,-115.0343,36.2362,570.00,91.00,63.30,39.91,90.00,14.00,0.00,29.94,M,10.00,M,FEW,M,M,M,9500.00,M,M,M,M,M,M,M,M,M,M,92.15,KLSV 251458Z AUTO 09014KT 10SM FEW095 33/17 A2994 RMK AO2 SLPNO T03280174 52026 $,M
LSV,2022-07-25 15:01,-115.0343,36.2362,570.00,91.40,62.60,38.45,50.00,12.00,0.00,29.94,M,10.00,20.00,CLR,M,M,M,M,M,M,M,M,M,M,M,M,M,M,92.23,KLSV 251501Z AUTO 05012G20KT 10SM CLR 33/17 A2994 RMK AO2 WSHFT 1455 SLPNO $,M
05U,2022-07-25 15:10,-116.0051,39.6042,1811.23,71.60,30.20,21.50,0.00,0.00,0.00,30.23,M,10.00,M,CLR,M,M,M,M,M,M,M,M,M,M,M,M,M,M,71.60,K05U 251510Z AUTO 00000KT 10SM CLR 22/M01 A3023 RMK A01,M
TMT,2022-07-25 15:15,-117.1971,39.4643,1749.34,M,M,M,0.00,0.00,0.00,30.20,M,10.00,M,CLR,M,M,M,M,M,M,M,M,M,M,M,M,M,M,M,KTMT 251515Z AUTO 00000KT 10SM CLR A3020 RMK AO2,M
RTS,2022-07-25 15:15,-119.8764,39.6682,1539.00,73.40,33.80,23.39,290.00,3.00,0.00,30.16,M,10.00,M,CLR,M,M,M,M,M,M,M,M,M,M,M,M,M,M,73.40,KRTS 251515Z AUTO 29003KT 10SM CLR 23/01 A3016 RMK AO2,M
CXP,2022-07-25 15:15,-119.7326,39.1923,1431.00,69.80,35.60,28.39,0.00,0.00,0.00,30.14,M,7.00,M,CLR,M,M,M,M,M,M,M,M,M,M,M,M,M,M,69.80,KCXP 251515Z AUTO 00000KT 7SM CLR 21/02 A3014 RMK AO2,M
BVU,2022-07-25 15:15,-114.8611,35.9475,671.00,M,M,M,M,M,0.00,M,M,M,M,M,M,M,M,M,M,M,M,M,M,M,M,M,M,M,M,KBVU 251515Z AUTO RMK AO2 PNO PWINO TSNO,M
MEV,2022-07-25 15:15,-119.7500,38.9963,1441.42,68.00,37.40,32.43,0.00,0.00,0.00,30.14,M,4.00,M,CLR,M,M,M,M,M,M,M,HZ,M,M,M,M,M,M,68.00,KMEV 251515Z AUTO 00000KT 4SM HZ CLR 20/03 A3014 RMK AO2,M
BAM,2022-07-25 15:15,-116.8743,40.5990,1382.36,M,M,M,350.00,6.00,0.00,30.13,M,10.00,M,CLR,M,M,M,M,M,M,M,M,M,M,M,M,M,M,M,KBAM 251515Z AUTO 35006KT 10SM CLR A3013 RMK AO1,M
HTH,2022-07-25 15:15,-118.6315,38.5448,1282.89,80.60,26.60,13.75,330.00,9.00,0.00,30.07,M,10.00,M,CLR,M,M,M,M,M,M,M,M,M,M,M,M,M,M,78.68,KHTH 251515Z AUTO 33009KT 10SM CLR 27/M03 A3007 RMK A01,M
MEV,2022-07-25 15:35,-119.7500,38.9963,1441.42,71.60,35.60,26.71,0.00,0.00,0.00,30.14,M,7.00,M,CLR,M,M,M,M,M,M,M,M,M,M,M,M,M,M,71.60,KMEV 251535Z AUTO 00000KT 7SM CLR 22/02 A3014 RMK AO2,M
BAM,2022-07-25 15:35,-116.8743,40.5990,1382.36,M,M,M,340.00,9.00,0.00,30.13,M,10.00,M,CLR,M,M,M,M,M,M,M,M,M,M,M,M,M,M,M,KBAM 251535Z AUTO 34009KT 10SM CLR A3013 RMK AO1,M
HTH,2022-07-25 15:35,-118.6315,38.5448,1282.89,82.40,23.00,11.16,320.00,11.00,0.00,30.08,M,10.00,M,CLR,M,M,M,M,M,M,M,M,M,M,M,M,M,M,79.67,KHTH 251535Z AUTO 32011KT 10SM CLR 28/M05 A3008 RMK A01,M
TMT,2022-07-25 15:35,-117.1971,39.4643,1749.34,M,M,M,0.00,0.00,0.00,30.21,M,10.00,M,CLR,M,M,M,M,M,M,M,M,M,M,M,M,M,M,M,KTMT 251535Z AUTO 00000KT 10SM CLR A3021 RMK AO2,M
CXP,2022-07-25 15:35,-119.7326,39.1923,1431.00,71.60,35.60,26.71,0.00,0.00,0.00,30.15,M,7.00,M,CLR,M,M,M,M,M,M,M,M,M,M,M,M,M,M,71.60,KCXP 251535Z AUTO 00000KT 7SM CLR 22/02 A3015 RMK AO2,M
BVU,2022-07-25 15:35,-114.8611,35.9475,671.00,M,M,M,M,M,0.00,M,M,M,M,M,M,M,M,M,M,M,M,M,M,M,M,M,M,M,M,KBVU 251535Z AUTO RMK AO2 PNO PWINO TSNO,M
RTS,2022-07-25 15:35,-119.8764,39.6682,1539.00,75.20,37.40,25.40,140.00,4.00,0.00,30.16,M,10.00,M,CLR,M,M,M,M,M,M,M,M,M,M,M,M,M,M,75.20,KRTS 251535Z AUTO 14004KT 10SM CLR 24/03 A3016 RMK AO2,M
05U,2022-07-25 15:35,-116.0051,39.6042,1811.23,73.40,30.20,20.23,0.00,0.00,0.00,30.23,M,10.00,M,CLR,M,M,M,M,M,M,M,M,M,M,M,M,M,M,73.40,K05U 251535Z AUTO 00000KT 10SM CLR 23/M01 A3023 RMK A01,M
INS,2022-07-25 15:43,-115.6733,36.5872,955.00,73.40,64.40,73.44,0.00,0.00,0.00,30.09,1013.90,10.00,M,SCT,OVC,M,M,6500.00,18000.00,M,M,M,M,M,M,M,M,M,73.40,KINS 251543Z AUTO 00000KT 10SM SCT065 OVC180 23/18 A3009 RMK AO2 SLP139 $,M
05U,2022-07-25 15:50,-116.0051,39.6042,1811.23,73.40,30.20,20.23,0.00,0.00,0.00,30.23,M,10.00,M,CLR,M,M,M,M,M,M,M,M,M,M,M,M,M,M,73.40,K05U 251550Z AUTO 00000KT 10SM CLR 23/M01 A3023 RMK A01,M
P68,2022-07-25 15:53,-116.0056,39.6014,1993.00,72.00,32.00,22.82,M,3.00,0.00,30.21,1013.80,M,M,M,M,M,M,M,M,M,M,M,M,M,M,M,M,M,72.00,KP68 251553Z AUTO VRB03KT 22/00 A3021 RMK AO1 SLP138 T02220000,M
VGT,2022-07-25 15:53,-115.1933,36.2111,667.00,91.00,61.00,36.80,30.00,5.00,0.00,29.98,1013.60,10.00,M,FEW,M,M,M,7000.00,M,M,M,M,M,M,M,M,M,M,91.06,KVGT 251553Z 03005KT 10SM FEW070 33/16 A2998 RMK AO2 SLP136 T03280161,M
LOL,2022-07-25 15:53,-118.5701,40.0684,1192.43,83.00,33.00,16.62,20.00,7.00,0.00,30.05,1012.70,10.00,M,CLR,M,M,M,M,M,M,M,M,M,M,M,M,M,M,80.36,KLOL 251553Z AUTO 02007KT 10SM CLR 28/01 A3005 RMK AO2 SLP127 T02830006,M
DRA,2022-07-25 15:53,-116.0278,36.6206,1009.00,78.00,65.00,63.90,60.00,9.00,T,30.10,1014.00,10.00,M,BKN,OVC,M,M,7000.00,9000.00,M,M,M,M,M,M,M,M,M,78.10,KDRA 251553Z AUTO 06009KT 10SM BKN070 OVC090 26/18 A3010 RMK AO2 RAE01 SLP140 P0000 T02560183,M
ELY,2022-07-25 15:53,-114.8453,39.2950,1909.00,74.00,54.00,49.79,180.00,7.00,0.00,30.23,1013.70,10.00,M,CLR,M,M,M,M,M,M,M,M,M,M,M,M,M,M,73.90,KELY 251553Z AUTO 18007KT 10SM CLR 23/12 A3023 RMK AO2 SLP137 T02330122,M
RTS,2022-07-25 15:55,-119.8764,39.6682,1539.00,77.00,35.60,22.28,0.00,0.00,0.00,30.16,M,9.00,M,CLR,M,M,M,M,M,M,M,M,M,M,M,M,M,M,77.00,KRTS 251555Z AUTO 00000KT 9SM CLR 25/02 A3016 RMK AO2,M
TMT,2022-07-25 15:55,-117.1971,39.4643,1749.34,M,M,M,0.00,0.00,0.00,30.20,M,10.00,M,CLR,M,M,M,M,M,M,M,M,M,M,M,M,M,M,M,KTMT 251555Z AUTO 00000KT 10SM CLR A3020 RMK AO2,M
HTH,2022-07-25 15:55,-118.6315,38.5448,1282.89,82.40,23.00,11.16,330.00,9.00,0.00,30.08,M,10.00,M,CLR,M,M,M,M,M,M,M,M,M,M,M,M,M,M,79.67,KHTH 251555Z AUTO 33009KT 10SM CLR 28/M05 A3008 RMK A01,M
BAM,2022-07-25 15:55,-116.8743,40.5990,1382.36,M,M,M,330.00,5.00,0.00,30.13,M,10.00,M,CLR,M,M,M,M,M,M,M,M,M,M,M,M,M,M,M,KBAM 251555Z AUTO 33005KT 10SM CLR A3013 RMK AO1,M
MEV,2022-07-25 15:55,-119.7500,38.9963,1441.42,73.40,35.60,25.13,0.00,0.00,0.00,30.14,M,5.00,M,CLR,M,M,M,M,M,M,M,HZ,M,M,M,M,M,M,73.40,KMEV 251555Z AUTO 00000KT 5SM HZ CLR 23/02 A3014 RMK AO2,M
RNO,2022-07-25 15:55,-119.7711,39.4839,1341.00,77.00,43.00,29.74,200.00,3.00,0.00,30.11,1013.30,6.00,M,FEW,M,M,M,20000.00,M,M,M,FU,M,M,M,M,M,M,77.00,KRNO 251555Z 20003KT 6SM FU FEW200 25/06 A3011 RMK AO2 SLP133 T02500061,M
CXP,2022-07-25 15:55,-119.7326,39.1923,1431.00,73.40,37.40,26.98,0.00,0.00,0.00,30.15,M,7.00,M,CLR,M,M,M,M,M,M,M,M,M,M,M,M,M,M,73.40,KCXP 251555Z AUTO 00000KT 7SM CLR 23/03 A3015 RMK AO2,M
BVU,2022-07-25 15:55,-114.8611,35.9475,671.00,M,M,M,M,M,0.00,M,M,M,M,M,M,M,M,M,M,M,M,M,M,M,M,M,M,M,M,KBVU 251555Z AUTO RMK AO2 PNO PWINO TSNO,M
NFL,2022-07-25 15:56,-118.7010,39.4166,1199.00,81.00,28.00,14.38,M,3.00,0.00,30.06,1014.70,10.00,M,SCT,M,M,M,15000.00,M,M,M,M,M,M,M,M,M,M,78.98,KNFL 251556Z VRB03KT 10SM SCT150 27/M02 A3006 RMK AO2 SLP147 T02721022,M
EKO,2022-07-25 15:56,-115.7860,40.8242,1367.00,74.00,30.00,19.73,50.00,3.00,0.00,30.16,1014.60,10.00,M,CLR,M,M,M,M,M,M,M,M,M,M,M,M,M,M,73.90,KEKO 251556Z AUTO 05003KT 10SM CLR 23/M01 A3016 RMK AO2 SLP146 T02331011,M
LAS,2022-07-25 15:56,-115.1634,36.0719,663.00,90.00,62.00,39.47,50.00,9.00,0.00,29.98,1012.00,10.00,15.00,FEW,SCT,BKN,M,10000.00,15000.00,22000.00,M,M,M,M,M,M,M,M,90.51,KLAS 251556Z 05009G15KT 10SM FEW100 SCT150 BKN220 32/17 A2998 RMK AO2 SLP120 VIRGA DSNT W ACC DSNT ALQDS T03220167,M
WMC,2022-07-25 15:56,-117.8072,40.9019,1315.00,80.00,33.00,18.21,50.00,11.00,0.00,30.10,1013.50,10.00,18.00,CLR,M,M,M,M,M,M,M,M,M,M,M,M,M,M,78.67,KWMC 251556Z AUTO 05011G18KT 10SM CLR 27/01 A3010 RMK AO2 SLP135 T02670006,M
TPH,2022-07-25 15:56,-117.0904,38.0505,1654.00,75.00,50.00,41.41,0.00,0.00,T,30.19,1013.50,10.00,M,FEW,SCT,OVC,M,7000.00,9000.00,11000.00,M,-RA,M,M,M,M,M,M,75.00,KTPH 251556Z AUTO 00000KT 10SM -RA FEW070 SCT090 OVC110 24/10 A3019 RMK AO2 RAB56 SLP135 P0000 T02390100,M
HND,2022-07-25 15:56,-115.1344,35.9729,742.79,86.00,63.00,46.25,0.00,0.00,T,30.01,1014.60,10.00,M,CLR,M,M,M,M,M,M,M,M,M,M,M,M,M,M,86.88,KHND 251556Z 00000KT 10SM CLR 30/17 A3001 RMK AO2 RAE03 SLP146 P0000 T03000172,M
LSV,2022-07-25 15:58,-115.0343,36.2362,570.00,93.40,61.50,34.75,70.00,8.00,0.00,29.95,M,10.00,M,CLR,M,M,M,M,M,M,M,M,M,M,M,M,M,M,93.87,KLSV 251558Z AUTO 07008KT 10SM CLR 34/16 A2995 RMK AO2 SLPNO T03410164 $,M
INS,2022-07-25 15:58,-115.6733,36.5872,955.00,74.00,62.80,67.82,230.00,4.00,0.00,30.10,1014.20,10.00,M,OVC,M,M,M,18000.00,M,M,M,M,M,M,M,M,M,M,74.10,KINS 251558Z AUTO 23004KT 10SM OVC180 23/17 A3010 RMK AO2 SLP142 T02340171 $,M
MEV,2022-07-25 16:15,-119.7500,38.9963,1441.42,75.20,37.40,25.40,0.00,0.00,0.00,30.13,M,3.00,M,CLR,M,M,M,M,M,M,M,HZ,M,M,M,M,M,M,75.20,KMEV 251615Z AUTO 00000KT 3SM HZ CLR 24/03 A3013 RMK AO2,M
HTH,2022-07-25 16:15,-118.6315,38.5448,1282.89,84.20,23.00,10.53,340.00,7.00,0.00,30.08,M,10.00,12.00,CLR,M,M,M,M,M,M,M,M,M,M,M,M,M,M,80.88,KHTH 251615Z AUTO 34007G12KT 10SM CLR 29/M05 A3008 RMK A01,M
TMT,2022-07-25 16:15,-117.1971,39.4643,1749.34,M,M,M,180.00,3.00,0.00,30.20,M,10.00,M,CLR,M,M,M,M,M,M,M,M,M,M,M,M,M,M,M,KTMT 251615Z AUTO 18003KT 10SM CLR A3020 RMK AO2,M
CXP,2022-07-25 16:15,-119.7326,39.1923,1431.00,77.00,35.60,22.28,0.00,0.00,0.00,30.15,M,7.00,M,CLR,M,M,M,M,M,M,M,M,M,M,M,M,M,M,77.00,KCXP 251615Z AUTO 00000KT 7SM CLR 25/02 A3015 RMK AO2,M
RTS,2022-07-25 16:15,-119.8764,39.6682,1539.00,78.80,33.80,19.55,M,3.00,0.00,30.16,M,9.00,M,CLR,M,M,M,M,M,M,M,M,M,M,M,M,M,M,78.80,KRTS 251615Z AUTO VRB03KT 9SM CLR 26/01 A3016 RMK AO2,M
05U,2022-07-25 16:15,-116.0051,39.6042,1811.23,77.00,32.00,19.30,0.00,0.00,0.00,30.23,M,10.00,M,CLR,M,M,M,M,M,M,M,M,M,M,M,M,M,M,77.00,K05U 251615Z AUTO 00000KT 10SM CLR 25/00 A3023 RMK A01,M
BAM,2022-07-25 16:15,-116.8743,40.5990,1382.36,M,M,M,330.00,4.00,0.00,30.13,M,10.00,M,CLR,M,M,M,M,M,M,M,M,M,M,M,M,M,M,M,KBAM 251615Z AUTO 33004KT 10SM CLR A3013 RMK AO1,M
BVU,2022-07-25 16:15,-114.8611,35.9475,671.00,M,M,M,M,M,0.00,M,M,M,M,M,M,M,M,M,M,M,M,M,M,M,M,M,M,M,M,KBVU 251615Z AUTO RMK AO2 PNO PWINO TSNO,M
INS,2022-07-25 16:23,-115.6733,36.5872,955.00,77.00,62.60,61.13,170.00,3.00,0.00,30.09,1013.90,10.00,M,BKN,OVC,M,M,8500.00,20000.00,M,M,M,M,M,M,M,M,M,77.00,KINS 251623Z AUTO 17003KT 10SM BKN085 OVC200 25/17 A3009 RMK AO2 LTG DSNT SW SLP139 $,M
LAS,2022-07-25 16:29,-115.1634,36.0719,663.00,90.00,62.00,39.47,360.00,8.00,0.00,29.98,M,10.00,17.00,FEW,SCT,BKN,M,10000.00,15000.00,22000.00,M,M,M,M,M,M,M,M,90.51,KLAS 251629Z 36008G17KT 10SM FEW100 SCT150 BKN220 32/17 A2998 RMK AO2 VIRGA DSNT W ACC DSNT ALQDS T03220167,M
05U,2022-07-25 16:30,-116.0051,39.6042,1811.23,78.80,33.80,19.55,0.00,0.00,0.00,30.23,M,10.00,M,CLR,M,M,M,M,M,M,M,M,M,M,M,M,M,M,78.80,K05U 251630Z AUTO 00000KT 10SM CLR 26/01 A3023 RMK A01,M
INS,2022-07-25 16:33,-115.6733,36.5872,955.00,78.80,62.60,57.60,0.00,0.00,0.00,30.09,1013.70,10.00,M,SCT,BKN,M,M,8500.00,20000.00,M,M,M,M,M,M,M,M,M,78.80,KINS 251633Z AUTO 00000KT 10SM SCT085 BKN200 26/17 A3009 RMK AO2 LTG DSNT SW SLP137 $,M
MEV,2022-07-25 16:35,-119.7500,38.9963,1441.42,77.00,37.40,23.93,0.00,0.00,0.00,30.13,M,4.00,M,CLR,M,M,M,M,M,M,M,HZ,M,M,M,M,M,M,77.00,KMEV 251635Z AUTO 00000KT 4SM HZ CLR 25/03 A3013 RMK AO2,M
TMT,2022-07-25 16:35,-117.1971,39.4643,1749.34,M,M,M,0.00,0.00,0.00,30.20,M,10.00,M,CLR,M,M,M,M,M,M,M,M,M,M,M,M,M,M,M,KTMT 251635Z AUTO 00000KT 10SM CLR A3020 RMK AO2,M
BVU,2022-07-25 16:35,-114.8611,35.9475,671.00,M,M,M,M,M,0.00,M,M,M,M,M,M,M,M,M,M,M,M,M,M,M,M,M,M,M,M,KBVU 251635Z AUTO RMK AO2 PNO PWINO TSNO,M
CXP,2022-07-25 16:35,-119.7326,39.1923,1431.00,77.00,37.40,23.93,0.00,0.00,0.00,30.14,M,7.00,M,CLR,M,M,M,M,M,M,M,M,M,M,M,M,M,M,77.00,KCXP 251635Z AUTO 00000KT 7SM CLR 25/03 A3014 RMK AO2,M
RTS,2022-07-25 16:35,-119.8764,39.6682,1539.00,80.60,30.20,15.94,240.00,3.00,0.00,30.16,M,10.00,M,CLR,M,M,M,M,M,M,M,M,M,M,M,M,M,M,78.77,KRTS 251635Z AUTO 24003KT 10SM CLR 27/M01 A3016 RMK AO2,M
BAM,2022-07-25 16:35,-116.8743,40.5990,1382.36,M,M,M,360.00,5.00,0.00,30.13,M,10.00,M,CLR,M,M,M,M,M,M,M,M,M,M,M,M,M,M,M,KBAM 251635Z AUTO 36005KT 10SM CLR A3013 RMK AO1,M
HTH,2022-07-25 16:35,-118.6315,38.5448,1282.89,86.00,21.20,9.21,320.00,9.00,0.00,30.08,M,10.00,M,CLR,M,M,M,M,M,M,M,M,M,M,M,M,M,M,82.04,KHTH 251635Z AUTO 32009KT 10SM CLR 30/M06 A3008 RMK A01,M
05U,2022-07-25 16:50,-116.0051,39.6042,1811.23,80.60,37.40,21.25,0.00,0.00,0.00,30.23,M,10.00,M,CLR,M,M,M,M,M,M,M,M,M,M,M,M,M,M,79.02,K05U 251650Z AUTO 00000KT 10SM CLR 27/03 A3023 RMK A01,M
LOL,2022-07-25 16:53,-118.5701,40.0684,1192.43,89.00,30.90,12.48,40.00,12.00,0.00,30.04,1012.10,10.00,M,CLR,M,M,M,M,M,M,M,M,M,M,M,M,M,M,85.04,KLOL 251653Z AUTO 04012KT 10SM CLR 32/M01 A3004 RMK AO2 SLP121 T03171006,M
P68,2022-07-25 16:53,-116.0056,39.6014,1993.00,78.00,37.00,22.71,20.00,7.00,0.00,30.20,1013.00,M,M,M,M,M,M,M,M,M,M,M,M,M,M,M,M,M,78.10,KP68 251653Z AUTO 02007KT 26/03 A3020 RMK AO1 SLP130 T02560028,M
ELY,2022-07-25 16:53,-114.8453,39.2950,1909.00,79.00,52.00,39.06,M,4.00,0.00,30.23,1013.00,10.00,M,CLR,M,M,M,M,M,M,M,M,M,M,M,M,M,M,79.00,KELY 251653Z AUTO VRB04KT 10SM CLR 26/11 A3023 RMK AO2 SLP130 T02610111,M
VGT,2022-07-25 16:53,-115.1933,36.2111,667.00,91.00,61.00,36.80,360.00,12.00,0.00,29.98,1013.50,10.00,M,BKN,M,M,M,11000.00,M,M,M,M,M,M,M,M,M,M,91.06,KVGT 251653Z 36012KT 10SM BKN110 33/16 A2998 RMK AO2 LTG DSNT N SLP135 T03280161,M
DRA,2022-07-25 16:53,-116.0278,36.6206,1009.00,78.00,63.00,59.78,20.00,9.00,0.00,30.09,1013.60,10.00,M,BKN,BKN,M,M,8500.00,12000.00,M,M,M,M,M,M,M,M,M,78.10,KDRA 251653Z AUTO 02009KT 10SM BKN085 BKN120 26/17 A3009 RMK AO2 SLP136 T02560172,M
BAM,2022-07-25 16:55,-116.8743,40.5990,1382.36,M,M,M,330.00,5.00,0.00,30.13,M,10.00,M,CLR,M,M,M,M,M,M,M,M,M,M,M,M,M,M,M,KBAM 251655Z AUTO 33005KT 10SM CLR A3013 RMK AO1,M
MEV,2022-07-25 16:55,-119.7500,38.9963,1441.42,78.80,35.60,21.00,0.00,0.00,0.00,30.12,M,6.00,M,CLR,M,M,M,M,M,M,M,HZ,M,M,M,M,M,M,78.80,KMEV 251655Z AUTO 00000KT 6SM HZ CLR 26/02 A3012 RMK AO2,M
RTS,2022-07-25 16:55,-119.8764,39.6682,1539.00,80.60,30.20,15.94,0.00,0.00,0.00,30.15,M,10.00,M,CLR,M,M,M,M,M,M,M,M,M,M,M,M,M,M,78.77,KRTS 251655Z AUTO 00000KT 10SM CLR 27/M01 A3015 RMK AO2,M
BVU,2022-07-25 16:55,-114.8611,35.9475,671.00,M,M,M,M,M,0.00,M,M,M,M,M,M,M,M,M,M,M,M,M,M,M,M,M,M,M,M,KBVU 251655Z AUTO RMK AO2 PNO PWINO TSNO,M
RNO,2022-07-25 16:55,-119.7711,39.4839,1341.00,83.00,41.00,22.70,0.00,0.00,0.00,30.10,1012.60,6.00,M,CLR,M,M,M,M,M,M,M,FU,M,M,M,M,M,M,80.62,KRNO 251655Z 00000KT 6SM FU CLR 28/05 A3010 RMK AO2 SLP126 T02830050,M
CXP,2022-07-25 16:55,-119.7326,39.1923,1431.00,80.60,35.60,19.79,0.00,0.00,0.00,30.13,M,7.00,M,CLR,M,M,M,M,M,M,M,M,M,M,M,M,M,M,78.94,KCXP 251655Z AUTO 00000KT 7SM CLR 27/02 A3013 RMK AO2,M
TMT,2022-07-25 16:55,-117.1971,39.4643,1749.34,M,M,M,0.00,0.00,0.00,30.20,M,10.00,M,CLR,M,M,M,M,M,M,M,M,M,M,M,M,M,M,M,KTMT 251655Z AUTO 00000KT 10SM CLR A3020 RMK AO2,M
HTH,2022-07-25 16:55,-118.6315,38.5448,1282.89,86.00,21.20,9.21,330.00,7.00,0.00,30.08,M,10.00,14.00,CLR,M,M,M,M,M,M,M,M,M,M,M,M,M,M,82.04,KHTH 251655Z AUTO 33007G14KT 10SM CLR 30/M06 A3008 RMK A01,M
HND,2022-07-25 16:56,-115.1344,35.9729,742.79,87.00,63.00,44.66,200.00,3.00,T,30.02,1014.80,10.00,M,FEW,SCT,SCT,M,3200.00,4800.00,7000.00,M,M,M,M,M,M,M,M,87.96,KHND 251656Z 20003KT 10SM FEW032 SCT048 SCT070 31/17 A3002 RMK AO2 RAB25E52 SLP148 P0000 T03060172,M
EKO,2022-07-25 16:56,-115.7860,40.8242,1367.00,80.00,28.90,15.36,0.00,0.00,0.00,30.15,1014.20,10.00,M,CLR,M,M,M,M,M,M,M,M,M,M,M,M,M,M,78.53,KEKO 251656Z AUTO 00000KT 10SM CLR 27/M02 A3015 RMK AO2 SLP142 T02671017,M
TPH,2022-07-25 16:56,-117.0904,38.0505,1654.00,78.00,54.00,43.30,160.00,8.00,T,30.19,1013.80,10.00,M,BKN,M,M,M,11000.00,M,M,M,M,M,M,M,M,M,M,78.10,KTPH 251656Z AUTO 16008KT 10SM BKN110 26/12 A3019 RMK AO2 RAE07 SLP138 P0000 T02560122,M
WMC,2022-07-25 16:56,-117.8072,40.9019,1315.00,86.00,34.00,15.60,30.00,14.00,0.00,30.09,1012.90,10.00,M,CLR,M,M,M,M,M,M,M,M,M,M,M,M,M,M,82.66,KWMC 251656Z AUTO 03014KT 10SM CLR 30/01 A3009 RMK AO2 SLP129 T03000011,M
NFL,2022-07-25 16:56,-118.7010,39.4166,1199.00,83.00,28.00,13.52,0.00,0.00,0.00,30.06,1014.70,10.00,M,SCT,M,M,M,15000.00,M,M,M,M,M,M,M,M,M,M,80.29,KNFL 251656Z 00000KT 10SM SCT150 28/M02 A3006 RMK AO2 SLP147 T02831022,M
LAS,2022-07-25 16:56,-115.1634,36.0719,663.00,91.00,62.00,38.26,30.00,4.00,0.00,29.98,1012.10,10.00,M,FEW,SCT,BKN,M,10000.00,15000.00,22000.00,M,M,M,M,M,M,M,M,91.56,KLAS 251656Z 03004KT 10SM FEW100 SCT150 BKN220 33/17 A2998 RMK AO2 SLP121 VIRGA DSNT SW CB DSNT N T03280167,M
LSV,2022-07-25 16:58,-115.0343,36.2362,570.00,96.80,62.00,31.97,40.00,3.00,0.00,29.95,M,10.00,M,CLR,M,M,M,M,M,M,M,M,M,M,M,M,M,M,98.00,KLSV 251658Z AUTO 04003KT 10SM CLR 36/17 A2995 RMK AO2 SLPNO T03600167 $,M
INS,2022-07-25 16:58,-115.6733,36.5872,955.00,80.00,61.20,52.88,0.00,0.00,0.00,30.08,1013.30,10.00,M,CLR,M,M,M,M,M,M,M,M,M,M,M,M,M,M,79.90,KINS 251658Z AUTO 00000KT 10SM CLR 27/16 A3008 RMK AO2 LTG DSNT E SLP133 T02660162 $,M
CXP,2022-07-25 17:10,-119.7326,39.1923,1431.00,82.40,35.60,18.67,0.00,0.00,0.00,30.13,M,7.00,M,CLR,M,M,M,M,M,M,M,M,M,M,M,M,M,M,80.08,KCXP 251710Z AUTO 00000KT 7SM CLR 28/02 A3013 RMK AO2,M
05U,2022-07-25 17:10,-116.0051,39.6042,1811.23,82.40,37.40,20.04,0.00,0.00,0.00,30.23,M,10.00,M,CLR,M,M,M,M,M,M,M,M,M,M,M,M,M,M,80.14,K05U 251710Z AUTO 00000KT 10SM CLR 28/03 A3023 RMK A01,M
BAM,2022-07-25 17:15,-116.8743,40.5990,1382.36,M,M,M,350.00,5.00,0.00,30.13,M,10.00,M,CLR,M,M,M,M,M,M,M,M,M,M,M,M,M,M,M,KBAM 251715Z AUTO 35005KT 10SM CLR A3013 RMK AO1,M
HTH,2022-07-25 17:15,-118.6315,38.5448,1282.89,86.00,21.20,9.21,340.00,6.00,0.00,30.08,M,10.00,12.00,CLR,M,M,M,M,M,M,M,M,M,M,M,M,M,M,82.04,KHTH 251715Z AUTO 34006G12KT 10SM CLR 30/M06 A3008 RMK A01,M
BVU,2022-07-25 17:15,-114.8611,35.9475,671.00,M,M,M,M,M,0.00,M,M,M,M,M,M,M,M,M,M,M,M,M,M,M,M,M,M,M,M,KBVU 251715Z AUTO RMK AO2 PNO PWINO TSNO,M
RTS,2022-07-25 17:15,-119.8764,39.6682,1539.00,M,M,M,M,4.00,0.00,30.15,M,M,M,M,M,M,M,M,M,M,M,M,M,M,M,M,M,M,M,KRTS 251715Z AUTO VRB04KT A3015 RMK AO2 PWINO,M
MEV,2022-07-25 17:15,-119.7500,38.9963,1441.42,82.40,35.60,18.67,0.00,0.00,0.00,30.11,M,6.00,M,CLR,M,M,M,M,M,M,M,HZ,M,M,M,M,M,M,80.08,KMEV 251715Z AUTO 00000KT 6SM HZ CLR 28/02 A3011 RMK AO2,M
TMT,2022-07-25 17:15,-117.1971,39.4643,1749.34,M,M,M,0.00,0.00,0.00,30.20,M,10.00,M,CLR,M,M,M,M,M,M,M,M,M,M,M,M,M,M,M,KTMT 251715Z AUTO 00000KT 10SM CLR A3020 RMK AO2,M
BAM,2022-07-25 17:35,-116.8743,40.5990,1382.36,M,M,M,0.00,0.00,0.00,30.13,M,10.00,M,CLR,M,M,M,M,M,M,M,M,M,M,M,M,M,M,M,KBAM 251735Z AUTO 00000KT 10SM CLR A3013 RMK AO1,M
BVU,2022-07-25 17:35,-114.8611,35.9475,671.00,M,M,M,M,M,0.00,M,M,M,M,M,M,M,M,M,M,M,M,M,M,M,M,M,M,M,M,KBVU 251735Z AUTO RMK AO2 PNO PWINO TSNO,M
CXP,2022-07-25 17:35,-119.7326,39.1923,1431.00,86.00,32.00,14.40,0.00,0.00,0.00,30.12,M,8.00,M,CLR,M,M,M,M,M,M,M,M,M,M,M,M,M,M,82.64,KCXP 251735Z AUTO 00000KT 8SM CLR 30/M00 A3012 RMK AO2,M
RTS,2022-07-25 17:35,-119.8764,39.6682,1539.00,84.20,23.00,10.53,0.00,0.00,0.00,30.15,M,10.00,M,M,M,M,M,M,M,M,M,M,M,M,M,M,M,M,80.88,KRTS 251735Z AUTO 00000KT 10SM 29/M05 A3015 RMK AO2,M
05U,2022-07-25 17:35,-116.0051,39.6042,1811.23,86.00,41.00,20.54,0.00,0.00,0.00,30.22,M,10.00,M,CLR,M,M,M,M,M,M,M,M,M,M,M,M,M,M,82.86,K05U 251735Z AUTO 00000KT 10SM CLR 30/05 A3022 RMK A01,M
MEV,2022-07-25 17:35,-119.7500,38.9963,1441.42,84.20,35.60,17.61,340.00,5.00,0.00,30.11,M,7.00,M,CLR,M,M,M,M,M,M,M,M,M,M,M,M,M,M,81.34,KMEV 251735Z AUTO 34005KT 7SM CLR 29/02 A3011 RMK AO2,M
HTH,2022-07-25 17:35,-118.6315,38.5448,1282.89,86.00,23.00,9.94,290.00,6.00,0.00,30.08,M,10.00,M,CLR,M,M,M,M,M,M,M,M,M,M,M,M,M,M,82.14,KHTH 251735Z AUTO 29006KT 10SM CLR 30/M05 A3008 RMK A01,M
TMT,2022-07-25 17:35,-117.1971,39.4643,1749.34,M,M,M,0.00,0.00,0.00,30.20,M,10.00,M,CLR,M,M,M,M,M,M,M,M,M,M,M,M,M,M,M,KTMT 251735Z AUTO 00000KT 10SM CLR A3020 RMK AO2,M
LOL,2022-07-25 17:53,-118.5701,40.0684,1192.43,92.00,28.00,10.15,0.00,0.00,0.00,30.04,1011.90,10.00,M,CLR,M,M,M,M,M,M,M,M,M,M,M,M,M,M,86.87,KLOL 251753Z AUTO 00000KT 10SM CLR 33/M02 A3004 RMK AO2 SLP119 T03331022 10333 20217 58001,M
DRA,2022-07-25 17:53,-116.0278,36.6206,1009.00,73.00,67.00,81.20,340.00,7.00,T,30.10,1014.40,5.00,M,FEW,FEW,OVC,M,4600.00,5500.00,10000.00,M,-RA,M,M,M,M,M,M,73.00,KDRA 251753Z AUTO 34007KT 5SM -RA FEW046 FEW055 OVC100 23/19 A3010 RMK AO2 RAB27 SLP144 P0000 60003 T02280194 10300 20228 51011,M
VGT,2022-07-25 17:53,-115.1933,36.2111,667.00,94.00,61.00,33.62,M,M,0.00,29.97,1013.50,10.00,M,FEW,M,M,M,11000.00,M,M,M,M,M,M,M,M,M,M,94.18,KVGT 251753Z 10SM FEW110 34/16 A2997 RMK AO2 LTG DSNT N AND SW SLP135 T03440161 10344 20311 50005,M
ELY,2022-07-25 17:53,-114.8453,39.2950,1909.00,81.00,50.00,33.97,220.00,5.00,0.00,30.23,1012.50,10.00,M,CLR,M,M,M,M,M,M,M,M,M,M,M,M,M,M,80.12,KELY 251753Z AUTO 22005KT 10SM CLR 27/10 A3023 RMK AO2 SLP125 T02720100 10278 20111 58002,M
P68,2022-07-25 17:53,-116.0056,39.6014,1993.00,85.00,41.00,21.28,10.00,5.00,0.00,30.19,1012.90,M,M,M,M,M,M,M,M,M,M,M,M,M,M,M,M,M,82.03,KP68 251753Z AUTO 01005KT 29/05 A3019 RMK AO1 SLP129 T02940050 10294 20167 58003,M
CXP,2022-07-25 17:55,-119.7326,39.1923,1431.00,87.80,28.40,11.74,M,4.00,0.00,30.12,M,10.00,M,CLR,M,M,M,M,M,M,M,M,M,M,M,M,M,M,83.84,KCXP 251755Z AUTO VRB04KT 10SM CLR 31/M02 A3012 RMK AO2,M
BVU,2022-07-25 17:55,-114.8611,35.9475,671.00,M,M,M,M,M,0.00,M,M,M,M,M,M,M,M,M,M,M,M,M,M,M,M,M,M,M,M,KBVU 251755Z AUTO RMK AO2 PNO PWINO TSNO,M
RTS,2022-07-25 17:55,-119.8764,39.6682,1539.00,84.20,26.60,12.23,140.00,6.00,0.00,30.15,M,10.00,M,CLR,M,M,M,M,M,M,M,M,M,M,M,M,M,M,81.13,KRTS 251755Z AUTO 14006KT 10SM CLR 29/M03 A3015 RMK AO2,M
05U,2022-07-25 17:55,-116.0051,39.6042,1811.23,87.80,41.00,19.40,30.00,4.00,0.00,30.22,M,10.00,M,CLR,M,M,M,M,M,M,M,M,M,M,M,M,M,M,84.30,K05U 251755Z AUTO 03004KT 10SM CLR 31/05 A3022 RMK A01,M
MEV,2022-07-25 17:55,-119.7500,38.9963,1441.42,86.00,35.60,16.63,300.00,4.00,0.00,30.10,M,8.00,M,CLR,M,M,M,M,M,M,M,M,M,M,M,M,M,M,82.69,KMEV 251755Z AUTO 30004KT 8SM CLR 30/02 A3010 RMK AO2,M
BAM,2022-07-25 17:55,-116.8743,40.5990,1382.36,M,M,M,30.00,4.00,0.00,30.13,M,10.00,M,CLR,M,M,M,M,M,M,M,M,M,M,M,M,M,M,M,KBAM 251755Z AUTO 03004KT 10SM CLR A3013 RMK AO1,M
HTH,2022-07-25 17:55,-118.6315,38.5448,1282.89,87.80,23.00,9.39,330.00,6.00,0.00,30.08,M,10.00,M,CLR,M,M,M,M,M,M,M,M,M,M,M,M,M,M,83.43,KHTH 251755Z AUTO 33006KT 10SM CLR 31/M05 A3008 RMK A01,M
TMT,2022-07-25 17:55,-117.1971,39.4643,1749.34,M,M,M,320.00,3.00,0.00,30.19,M,10.00,M,CLR,M,M,M,M,M,M,M,M,M,M,M,M,M,M,M,KTMT 251755Z AUTO 32003KT 10SM CLR A3019 RMK AO2,M
RNO,2022-07-25 17:55,-119.7711,39.4839,1341.00,88.00,35.00,15.29,0.00,0.00,0.00,30.09,1011.90,10.00,M,FEW,M,M,M,9500.00,M,M,M,M,M,M,M,M,M,M,84.28,KRNO 251755Z 00000KT 10SM FEW095 31/02 A3009 RMK AO2 SLP119 FU ALQDS T03110017 10311 20194 58006,M
NFL,2022-07-25 17:56,-118.7010,39.4166,1199.00,89.00,27.00,10.64,10.00,3.00,0.00,30.05,1014.50,10.00,M,SCT,SCT,M,M,12000.00,15000.00,M,M,M,M,M,M,M,M,M,84.68,KNFL 251756Z 01003KT 10SM SCT120 SCT150 32/M03 A3005 RMK AO2 SLP145 T03171028 10317 20150 50000,M
LAS,2022-07-25 17:56,-115.1634,36.0719,663.00,91.00,62.00,38.26,310.00,8.00,0.00,29.98,1012.10,10.00,16.00,FEW,SCT,BKN,M,9500.00,15000.00,22000.00,M,M,M,M,M,M,M,M,91.56,KLAS 251756Z 31008G16KT 10SM FEW095 SCT150 BKN220 33/17 A2998 RMK AO2 LTG DSNT W SLP121 CB DSNT N AND SW-W T03280167 10333 20306 51005,M
HND,2022-07-25 17:56,-115.1344,35.9729,742.79,92.00,63.00,38.39,0.00,0.00,0.00,30.01,1014.50,10.00,M,CLR,M,M,M,M,M,M,M,M,M,M,M,M,M,M,92.97,KHND 251756Z 00000KT 10SM CLR 33/17 A3001 RMK AO2 LTG DSNT W SLP145 6//// T03330172 10339 20283 50005,M
TPH,2022-07-25 17:56,-117.0904,38.0505,1654.00,81.00,54.00,39.37,160.00,13.00,T,30.20,1013.70,10.00,25.00,SCT,M,M,M,12000.00,M,M,M,M,M,M,M,M,M,M,80.59,KTPH 251756Z AUTO 16013G25KT 10SM SCT120 27/12 A3020 RMK AO2 RAB38E47 SLP137 P0000 60000 T02720122 10278 20183 51006,M
EKO,2022-07-25 17:56,-115.7860,40.8242,1367.00,86.00,28.00,12.23,290.00,4.00,0.00,30.14,1013.70,10.00,M,CLR,M,M,M,M,M,M,M,M,M,M,M,M,M,M,82.50,KEKO 251756Z AUTO 29004KT 10SM CLR 30/M02 A3014 RMK AO2 SLP137 T03001022 10300 20111 58005,M
WMC,2022-07-25 17:56,-117.8072,40.9019,1315.00,90.00,34.00,13.74,50.00,11.00,0.00,30.09,1012.50,10.00,M,CLR,M,M,M,M,M,M,M,M,M,M,M,M,M,M,85.93,KWMC 251756Z AUTO 05011KT 10SM CLR 32/01 A3009 RMK AO2 SLP125 T03220011 10322 20211 58003,M
LSV,2022-07-25 17:58,-115.0343,36.2362,570.00,100.00,62.00,29.00,340.00,6.00,0.00,29.94,M,10.00,M,FEW,FEW,M,M,12000.00,17000.00,M,M,M,M,M,M,M,M,M,101.73,KLSV 251758Z AUTO 34006KT 10SM FEW120 FEW170 38/17 A2994 RMK AO2 SLPNO T03780167 10379 20313 50001 $,M
INS,2022-07-25 17:58,-115.6733,36.5872,955.00,82.80,61.00,47.77,40.00,4.00,0.00,30.07,1013.00,10.00,M,SCT,SCT,M,M,11000.00,18000.00,M,M,M,M,M,M,M,M,M,83.29,KINS 251758Z AUTO 04004KT 10SM SCT110 SCT180 28/16 A3007 RMK AO2 SLP130 60000 T02820161 10282 20225 58002 $,M
DRA,2022-07-25 17:59,-116.0278,36.6206,1009.00,72.00,67.00,83.99,360.00,9.00,0.07,30.10,M,2.00,M,FEW,SCT,OVC,M,4400.00,8000.00,10000.00,M,+RA,M,M,M,M,M,M,72.00,KDRA 251759Z AUTO 36009KT 2SM +RA FEW044 SCT080 OVC100 22/19 A3010 RMK AO2 P0007 T02220194,M
DRA,2022-07-25 18:06,-116.0278,36.6206,1009.00,72.00,67.00,83.99,350.00,8.00,0.11,30.10,M,6.00,M,FEW,BKN,OVC,M,5500.00,7000.00,10000.00,M,-RA,M,M,M,M,M,M,72.00,KDRA 251806Z AUTO 35008KT 6SM -RA FEW055 BKN070 OVC100 22/19 A3010 RMK AO2 P0011 T02220194,M
05U,2022-07-25 18:15,-116.0051,39.6042,1811.23,87.80,42.80,20.79,30.00,6.00,0.00,30.21,M,10.00,M,CLR,M,M,M,M,M,M,M,M,M,M,M,M,M,M,84.40,K05U 251815Z AUTO 03006KT 10SM CLR 31/06 A3021 RMK A01,M
BVU,2022-07-25 18:15,-114.8611,35.9475,671.00,M,M,M,M,M,0.00,M,M,M,M,M,M,M,M,M,M,M,M,M,M,M,M,M,M,M,M,KBVU 251815Z AUTO RMK AO2 PNO PWINO TSNO,M
RTS,2022-07-25 18:15,-119.8764,39.6682,1539.00,86.00,26.60,11.55,150.00,7.00,0.00,30.15,M,10.00,M,CLR,M,M,M,M,M,M,M,M,M,M,M,M,M,M,82.39,KRTS 251815Z AUTO 15007KT 10SM CLR 30/M03 A3015 RMK AO2,M
MEV,2022-07-25 18:15,-119.7500,38.9963,1441.42,87.80,28.40,11.74,330.00,7.00,0.00,30.10,M,9.00,M,CLR,M,M,M,M,M,M,M,M,M,M,M,M,M,M,83.84,KMEV 251815Z AUTO 33007KT 300V360 9SM CLR 31/M02 A3010 RMK AO2,M
BAM,2022-07-25 18:15,-116.8743,40.5990,1382.36,M,M,M,310.00,4.00,0.00,30.12,M,10.00,M,CLR,M,M,M,M,M,M,M,M,M,M,M,M,M,M,M,KBAM 251815Z AUTO 31004KT 10SM CLR A3012 RMK AO1,M
HTH,2022-07-25 18:15,-118.6315,38.5448,1282.89,87.80,23.00,9.39,M,5.00,0.00,30.08,M,10.00,M,CLR,M,M,M,M,M,M,M,M,M,M,M,M,M,M,83.43,KHTH 251815Z AUTO VRB05KT 10SM CLR 31/M05 A3008 RMK A01,M
TMT,2022-07-25 18:15,-117.1971,39.4643,1749.34,M,M,M,0.00,0.00,0.00,30.19,M,10.00,M,SCT,M,M,M,12000.00,M,M,M,M,M,M,M,M,M,M,M,KTMT 251815Z AUTO 00000KT 10SM SCT120 A3019 RMK AO2,M
CXP,2022-07-25 18:15,-119.7326,39.1923,1431.00,87.80,28.40,11.74,0.00,0.00,0.00,30.11,M,10.00,M,CLR,M,M,M,M,M,M,M,M,M,M,M,M,M,M,83.84,KCXP 251815Z AUTO 00000KT 10SM CLR 31/M02 A3011 RMK AO2,M
BVU,2022-07-25 18:35,-114.8611,35.9475,671.00,M,M,M,M,M,0.00,M,M,M,M,M,M,M,M,M,M,M,M,M,M,M,M,M,M,M,M,KBVU 251835Z AUTO RMK AO2 PNO PWINO TSNO,M
CXP,2022-07-25 18:35,-119.7326,39.1923,1431.00,91.40,24.80,9.04,40.00,7.00,0.00,30.11,M,10.00,M,CLR,M,M,M,M,M,M,M,M,M,M,M,M,M,M,86.21,KCXP 251835Z AUTO 04007KT 010V070 10SM CLR 33/M04 A3011 RMK AO2,M
TMT,2022-07-25 18:35,-117.1971,39.4643,1749.34,M,M,M,290.00,3.00,0.00,30.19,M,10.00,M,SCT,M,M,M,12000.00,M,M,M,M,M,M,M,M,M,M,M,KTMT 251835Z AUTO 29003KT 10SM SCT120 A3019 RMK AO2,M
RTS,2022-07-25 18:35,-119.8764,39.6682,1539.00,86.00,26.60,11.55,0.00,0.00,0.00,30.14,M,10.00,M,CLR,M,M,M,M,M,M,M,M,M,M,M,M,M,M,82.39,KRTS 251835Z AUTO 00000KT 10SM CLR 30/M03 A3014 RMK AO2,M
05U,2022-07-25 18:35,-116.0051,39.6042,1811.23,89.60,41.00,18.33,0.00,0.00,0.00,30.21,M,10.00,M,CLR,M,M,M,M,M,M,M,M,M,M,M,M,M,M,85.82,K05U 251835Z AUTO 00000KT 10SM CLR 32/05 A3021 RMK A01,M
MEV,2022-07-25 18:35,-119.7500,38.9963,1441.42,89.60,24.80,9.56,250.00,5.00,0.00,30.10,M,10.00,M,CLR,M,M,M,M,M,M,M,M,M,M,M,M,M,M,84.88,KMEV 251835Z AUTO 25005KT 10SM CLR 32/M04 A3010 RMK AO2,M
BAM,2022-07-25 18:35,-116.8743,40.5990,1382.36,M,M,M,350.00,5.00,0.00,30.12,M,10.00,M,CLR,M,M,M,M,M,M,M,M,M,M,M,M,M,M,M,KBAM 251835Z AUTO 35005KT 10SM CLR A3012 RMK AO1,M
HTH,2022-07-25 18:35,-118.6315,38.5448,1282.89,89.60,23.00,8.87,M,3.00,0.00,30.07,M,10.00,M,CLR,M,M,M,M,M,M,M,M,M,M,M,M,M,M,84.75,KHTH 251835Z AUTO VRB03KT 10SM CLR 32/M05 A3007 RMK A01,M
ELY,2022-07-25 18:53,-114.8453,39.2950,1909.00,86.00,49.00,27.74,180.00,9.00,0.00,30.20,1011.40,10.00,19.00,CLR,M,M,M,M,M,M,M,M,M,M,M,M,M,M,83.48,KELY 251853Z AUTO 18009G19KT 10SM CLR 30/09 A3020 RMK AO2 LTG DSNT SE SLP114 T03000094,M
DRA,2022-07-25 18:53,-116.0278,36.6206,1009.00,76.00,65.00,68.73,350.00,3.00,0.11,30.08,1013.40,10.00,M,FEW,M,M,M,12000.00,M,M,M,M,M,M,M,M,M,M,75.90,KDRA 251853Z AUTO 35003KT 10SM FEW120 24/18 A3008 RMK AO2 RAE19 SLP134 P0011 T02440183,M
P68,2022-07-25 18:53,-116.0056,39.6014,1993.00,87.00,42.00,20.70,M,6.00,0.00,30.17,1011.60,M,M,M,M,M,M,M,M,M,M,M,M,M,M,M,M,M,83.79,KP68 251853Z AUTO VRB06KT 31/06 A3017 RMK AO1 SLP116 T03060056,M
LOL,2022-07-25 18:53,-118.5701,40.0684,1192.43,95.00,25.00,8.15,M,3.00,0.00,30.03,1011.40,10.00,M,CLR,M,M,M,M,M,M,M,M,M,M,M,M,M,M,88.93,KLOL 251853Z AUTO VRB03KT 10SM CLR 35/M04 A3003 RMK AO2 SLP114 T03501039,M
VGT,2022-07-25 18:53,-115.1933,36.2111,667.00,97.00,58.00,27.36,340.00,11.00,0.00,29.95,1012.50,10.00,17.00,CLR,M,M,M,M,M,M,M,M,M,M,M,M,M,M,96.26,KVGT 251853Z 34011G17KT 10SM CLR 36/14 A2995 RMK AO2 LTG DSNT N AND W SLP125 T03610144,M
CXP,2022-07-25 18:55,-119.7326,39.1923,1431.00,91.40,26.60,9.74,90.00,9.00,0.00,30.10,M,8.00,M,CLR,M,M,M,M,M,M,M,M,M,M,M,M,M,M,86.36,KCXP 251855Z AUTO 09009KT 8SM CLR 33/M03 A3010 RMK AO2,M
05U,2022-07-25 18:55,-116.0051,39.6042,1811.23,89.60,41.00,18.33,0.00,0.00,0.00,30.20,M,10.00,M,CLR,M,M,M,M,M,M,M,M,M,M,M,M,M,M,85.82,K05U 251855Z AUTO 00000KT 10SM CLR 32/05 A3020 RMK A01,M
RNO,2022-07-25 18:55,-119.7711,39.4839,1341.00,92.00,32.00,11.95,M,4.00,0.00,30.07,1011.30,10.00,M,FEW,M,M,M,10000.00,M,M,M,M,M,M,M,M,M,M,87.30,KRNO 251855Z VRB04KT 10SM FEW100 33/00 A3007 RMK AO2 SLP113 FU ALQDS T03330000,M
TMT,2022-07-25 18:55,-117.1971,39.4643,1749.34,M,M,M,270.00,5.00,0.00,30.18,M,10.00,M,CLR,M,M,M,M,M,M,M,M,M,M,M,M,M,M,M,KTMT 251855Z AUTO 27005KT 10SM CLR A3018 RMK AO2 LTG DSNT S,M
HTH,2022-07-25 18:55,-118.6315,38.5448,1282.89,89.60,23.00,8.87,20.00,6.00,0.00,30.06,M,10.00,M,CLR,M,M,M,M,M,M,M,M,M,M,M,M,M,M,84.75,KHTH 251855Z AUTO 02006KT 10SM CLR 32/M05 A3006 RMK A01,M
BAM,2022-07-25 18:55,-116.8743,40.5990,1382.36,M,M,M,50.00,6.00,0.00,30.11,M,10.00,M,CLR,M,M,M,M,M,M,M,M,M,M,M,M,M,M,M,KBAM 251855Z AUTO 05006KT 10SM CLR A3011 RMK AO1,M
MEV,2022-07-25 18:55,-119.7500,38.9963,1441.42,89.60,28.40,11.09,M,6.00,0.00,30.09,M,10.00,11.00,CLR,M,M,M,M,M,M,M,M,M,M,M,M,M,M,85.17,KMEV 251855Z AUTO VRB06G11KT 10SM CLR 32/M02 A3009 RMK AO2,M
BVU,2022-07-25 18:55,-114.8611,35.9475,671.00,M,M,M,M,M,0.00,M,M,M,M,M,M,M,M,M,M,M,M,M,M,M,M,M,M,M,M,KBVU 251855Z AUTO RMK AO2 PNO PWINO TSNO,M
RTS,2022-07-25 18:55,-119.8764,39.6682,1539.00,87.80,26.60,10.91,180.00,6.00,0.00,30.14,M,10.00,M,CLR,M,M,M,M,M,M,M,M,M,M,M,M,M,M,83.69,KRTS 251855Z AUTO 18006KT 10SM CLR 31/M03 A3014 RMK AO2,M
TPH,2022-07-25 18:56,-117.0904,38.0505,1654.00,83.00,54.00,37.01,140.00,15.00,0.00,30.19,1013.30,10.00,25.00,CLR,M,M,M,M,M,M,M,M,M,M,M,M,M,M,81.87,KTPH 251856Z AUTO 14015G25KT 10SM CLR 28/12 A3019 RMK AO2 SLP133 T02830122,M
LAS,2022-07-25 18:56,-115.1634,36.0719,663.00,94.00,62.00,34.95,0.00,0.00,0.00,29.96,1011.40,10.00,M,SCT,SCT,BKN,M,9500.00,15000.00,22000.00,M,M,M,M,M,M,M,M,94.72,KLAS 251856Z 00000KT 10SM SCT095 SCT150 BKN220 34/17 A2996 RMK AO2 LTG DSNT W SLP114 CB DSNT ALQDS T03440167,M
EKO,2022-07-25 18:56,-115.7860,40.8242,1367.00,89.00,26.10,10.25,M,3.00,0.00,30.12,1012.90,10.00,M,CLR,M,M,M,M,M,M,M,M,M,M,M,M,M,M,84.60,KEKO 251856Z AUTO VRB03KT 10SM CLR 32/M03 A3012 RMK AO2 SLP129 T03171033,M
WMC,2022-07-25 18:56,-117.8072,40.9019,1315.00,94.00,28.90,9.90,20.00,10.00,0.00,30.07,1012.00,10.00,M,CLR,M,M,M,M,M,M,M,M,M,M,M,M,M,M,88.48,KWMC 251856Z AUTO 02010KT 10SM CLR 34/M02 A3007 RMK AO2 SLP120 T03441017,M
NFL,2022-07-25 18:56,-118.7010,39.4166,1199.00,92.00,25.00,8.97,0.00,0.00,0.00,30.04,1014.00,10.00,M,FEW,SCT,SCT,M,8000.00,12000.00,15000.00,M,M,M,M,M,M,M,M,86.60,KNFL 251856Z 00000KT 10SM FEW080 SCT120 SCT150 33/M04 A3004 RMK AO2 SLP140 T03331039,M
HND,2022-07-25 18:56,-115.1344,35.9729,742.79,94.00,64.00,37.37,20.00,6.00,0.00,30.00,1013.80,10.00,M,FEW,M,M,M,6500.00,M,M,M,M,M,M,M,M,M,M,95.76,KHND 251856Z 02006KT 10SM FEW065 34/18 A3000 RMK AO2 LTG DSNT SW AND W SLP138 T03440178,M
INS,2022-07-25 18:58,-115.6733,36.5872,955.00,86.40,57.70,37.82,340.00,11.00,0.00,30.05,1012.20,10.00,M,SCT,M,M,M,10000.00,M,M,M,M,M,M,M,M,M,M,85.45,KINS 251858Z AUTO 34011KT 10SM SCT100 30/14 A3005 RMK AO2 SLP122 T03020143 $,M
LSV,2022-07-25 18:58,-115.0343,36.2362,570.00,102.60,62.00,26.82,320.00,5.00,0.00,29.92,M,10.00,M,FEW,FEW,SCT,M,11000.00,17000.00,21000.00,M,M,M,M,M,M,M,M,104.80,KLSV 251858Z AUTO 32005KT 10SM FEW110 FEW170 SCT210 39/17 A2992 RMK AO2 SLPNO T03920167 $,M
05U,2022-07-25 19:10,-116.0051,39.6042,1811.23,91.40,41.00,17.32,10.00,7.00,0.00,30.19,M,10.00,M,CLR,M,M,M,M,M,M,M,M,M,M,M,M,M,M,87.40,K05U 251910Z AUTO 01007KT 10SM CLR 33/05 A3019 RMK A01,M
MEV,2022-07-25 19:15,-119.7500,38.9963,1441.42,91.40,28.40,10.48,M,5.00,0.00,30.09,M,10.00,M,CLR,M,M,M,M,M,M,M,M,M,M,M,M,M,M,86.53,KMEV 251915Z AUTO VRB05KT 10SM CLR 33/M02 A3009 RMK AO2,M
BAM,2022-07-25 19:15,-116.8743,40.5990,1382.36,M,M,M,0.00,0.00,0.00,30.10,M,10.00,M,CLR,M,M,M,M,M,M,M,M,M,M,M,M,M,M,M,KBAM 251915Z AUTO 00000KT 10SM CLR A3010 RMK AO1,M
HTH,2022-07-25 19:15,-118.6315,38.5448,1282.89,91.40,23.00,8.38,0.00,0.00,0.00,30.05,M,10.00,M,CLR,M,M,M,M,M,M,M,M,M,M,M,M,M,M,86.08,KHTH 251915Z AUTO 00000KT 10SM CLR 33/M05 A3005 RMK A01,M
TMT,2022-07-25 19:15,-117.1971,39.4643,1749.34,M,M,M,250.00,4.00,0.00,30.18,M,10.00,M,CLR,M,M,M,M,M,M,M,M,M,M,M,M,M,M,M,KTMT 251915Z AUTO 25004KT 10SM CLR A3018 RMK AO2,M
BVU,2022-07-25 19:15,-114.8611,35.9475,671.00,M,M,M,M,M,0.00,M,M,M,M,M,M,M,M,M,M,M,M,M,M,M,M,M,M,M,M,KBVU 251915Z AUTO RMK AO2 PNO PWINO TSNO,M
CXP,2022-07-25 19:15,-119.7326,39.1923,1431.00,93.20,26.60,9.21,80.00,10.00,0.00,30.09,M,10.00,15.00,CLR,M,M,M,M,M,M,M,M,M,M,M,M,M,M,87.72,KCXP 251915Z AUTO 08010G15KT 10SM CLR 34/M03 A3009 RMK AO2,M
RTS,2022-07-25 19:15,-119.8764,39.6682,1539.00,87.80,24.80,10.12,140.00,6.00,0.00,30.13,M,10.00,M,CLR,M,M,M,M,M,M,M,M,M,M,M,M,M,M,83.56,KRTS 251915Z AUTO 14006KT 10SM CLR 31/M04 A3013 RMK AO2,M
ELY,2022-07-25 19:17,-114.8453,39.2950,1909.00,86.00,48.00,26.82,210.00,7.00,0.00,30.20,M,10.00,15.00,SCT,M,M,M,8500.00,M,M,M,VCTS,M,M,M,M,M,M,83.38,KELY 251917Z AUTO 21007G15KT 180V240 10SM VCTS SCT085 30/09 A3020 RMK AO2 LTG DSNT E-S T03000089,M
ELY,2022-07-25 19:31,-114.8453,39.2950,1909.00,85.00,47.00,26.66,M,6.00,0.00,30.19,M,10.00,M,BKN,M,M,M,9000.00,M,M,M,M,M,M,M,M,M,M,82.42,KELY 251931Z AUTO VRB06KT 10SM BKN090 29/08 A3019 RMK AO2 LTG DSNT E AND SE AND W T02940083,M
05U,2022-07-25 19:35,-116.0051,39.6042,1811.23,91.40,41.00,17.32,20.00,5.00,0.00,30.18,M,10.00,11.00,CLR,M,M,M,M,M,M,M,M,M,M,M,M,M,M,87.40,K05U 251935Z AUTO 02005G11KT 10SM CLR 33/05 A3018 RMK A01,M
RTS,2022-07-25 19:35,-119.8764,39.6682,1539.00,89.60,24.80,9.56,130.00,8.00,0.00,30.12,M,10.00,M,CLR,M,M,M,M,M,M,M,M,M,M,M,M,M,M,84.88,KRTS 251935Z AUTO 13008KT 090V150 10SM CLR 32/M04 A3012 RMK AO2,M
TMT,2022-07-25 19:35,-117.1971,39.4643,1749.34,M,M,M,280.00,4.00,0.00,30.18,M,10.00,M,CLR,M,M,M,M,M,M,M,M,M,M,M,M,M,M,M,KTMT 251935Z AUTO 28004KT 10SM CLR A3018 RMK AO2,M
HTH,2022-07-25 19:35,-118.6315,38.5448,1282.89,91.40,23.00,8.38,M,4.00,0.00,30.04,M,10.00,M,CLR,M,M,M,M,M,M,M,M,M,M,M,M,M,M,86.08,KHTH 251935Z AUTO VRB04KT 10SM CLR 33/M05 A3004 RMK A01,M
BVU,2022-07-25 19:35,-114.8611,35.9475,671.00,M,M,M,M,M,0.00,M,M,M,M,M,M,M,M,M,M,M,M,M,M,M,M,M,M,M,M,KBVU 251935Z AUTO RMK AO2 PNO PWINO TSNO,M
CXP,2022-07-25 19:35,-119.7326,39.1923,1431.00,93.20,26.60,9.21,70.00,6.00,0.00,30.09,M,10.00,13.00,CLR,M,M,M,M,M,M,M,M,M,M,M,M,M,M,87.72,KCXP 251935Z AUTO 07006G13KT 10SM CLR 34/M03 A3009 RMK AO2,M
BAM,2022-07-25 19:35,-116.8743,40.5990,1382.36,M,M,M,40.00,4.00,0.00,30.09,M,10.00,M,CLR,M,M,M,M,M,M,M,M,M,M,M,M,M,M,M,KBAM 251935Z AUTO 04004KT 10SM CLR A3009 RMK AO1,M
MEV,2022-07-25 19:35,-119.7500,38.9963,1441.42,91.40,30.20,11.28,340.00,5.00,0.00,30.07,M,10.00,12.00,CLR,M,M,M,M,M,M,M,M,M,M,M,M,M,M,86.71,KMEV 251935Z AUTO 34005G12KT 10SM CLR 33/M01 A3007 RMK AO2,M
ELY,2022-07-25 19:44,-114.8453,39.2950,1909.00,84.00,49.00,29.58,M,M,0.00,30.19,M,10.00,M,SCT,M,M,M,9000.00,M,M,M,VCTS,M,M,M,M,M,M,81.97,KELY 251944Z AUTO 10SM VCTS SCT090 29/09 A3019 RMK AO2 LTG DSNT E AND SE AND NW T02890094,M
LOL,2022-07-25 19:53,-118.5701,40.0684,1192.43,98.00,26.10,7.76,110.00,6.00,0.00,30.00,1010.50,10.00,M,CLR,M,M,M,M,M,M,M,M,M,M,M,M,M,M,91.60,KLOL 251953Z AUTO 11006KT 10SM CLR 37/M03 A3000 RMK AO2 SLP105 T03671033,M
VGT,2022-07-25 19:53,-115.1933,36.2111,667.00,98.00,58.00,26.46,300.00,9.00,0.00,29.92,1011.40,10.00,M,FEW,M,M,M,12000.00,M,M,M,M,M,M,M,M,M,M,97.49,KVGT 251953Z 30009KT 10SM FEW120 37/14 A2992 RMK AO2 LTG DSNT N AND S AND SW SLP114 T03670144,M
P68,2022-07-25 19:53,-116.0056,39.6014,1993.00,88.00,40.00,18.47,30.00,6.00,0.00,30.14,1011.10,M,M,M,M,M,M,M,M,M,M,M,M,M,M,M,M,M,84.41,KP68 251953Z AUTO 03006KT 31/04 A3014 RMK AO1 SLP111 T03110044,M
INS,2022-07-25 19:53,-115.6733,36.5872,955.00,86.00,55.40,35.25,360.00,7.00,0.00,30.01,1010.90,10.00,M,FEW,M,M,M,19000.00,M,M,M,M,M,M,M,M,M,M,84.54,KINS 251953Z AUTO 36007KT 10SM FEW190 30/13 A3001 RMK AO2 SLP109 $,M
DRA,2022-07-25 19:53,-116.0278,36.6206,1009.00,81.00,59.00,47.17,M,3.00,0.00,30.04,1012.00,10.00,M,CLR,M,M,M,M,M,M,M,M,M,M,M,M,M,M,81.40,KDRA 251953Z AUTO VRB03KT 10SM CLR 27/15 A3004 RMK AO2 SLP120 T02720150,M
ELY,2022-07-25 19:53,-114.8453,39.2950,1909.00,83.00,48.00,29.64,140.00,8.00,0.00,30.18,1011.30,10.00,M,SCT,M,M,M,8500.00,M,M,M,VCTS,M,M,M,M,M,M,81.11,KELY 251953Z AUTO 14008KT 10SM VCTS SCT085 28/09 A3018 RMK AO2 LTG DSNT E AND SE AND W SLP113 T02830089,M
RTS,2022-07-25 19:55,-119.8764,39.6682,1539.00,89.60,23.00,8.87,130.00,9.00,0.00,30.12,M,10.00,M,CLR,M,M,M,M,M,M,M,M,M,M,M,M,M,M,84.75,KRTS 251955Z AUTO 13009KT 10SM CLR 32/M05 A3012 RMK AO2,M
RNO,2022-07-25 19:55,-119.7711,39.4839,1341.00,95.00,30.90,10.38,M,5.00,0.00,30.05,1010.40,10.00,18.00,FEW,M,M,M,10000.00,M,M,M,M,M,M,M,M,M,M,89.56,KRNO 251955Z VRB05G18KT 10SM FEW100 35/M01 A3005 RMK AO2 SLP104 HZ ALQDS T03501006,M
HTH,2022-07-25 19:55,-118.6315,38.5448,1282.89,93.20,23.00,7.92,0.00,0.00,0.00,30.03,M,10.00,10.00,CLR,M,M,M,M,M,M,M,M,M,M,M,M,M,M,87.42,KHTH 251955Z AUTO 00000G10KT 10SM CLR 34/M05 A3003 RMK A01,M
BVU,2022-07-25 19:55,-114.8611,35.9475,671.00,M,M,M,M,M,0.00,M,M,M,M,M,M,M,M,M,M,M,M,M,M,M,M,M,M,M,M,KBVU 251955Z AUTO RMK AO2 PNO PWINO TSNO,M
CXP,2022-07-25 19:55,-119.7326,39.1923,1431.00,93.20,26.60,9.21,60.00,7.00,0.00,30.08,M,9.00,13.00,CLR,M,M,M,M,M,M,M,M,M,M,M,M,M,M,87.72,KCXP 251955Z AUTO 06007G13KT 350V080 9SM CLR 34/M03 A3008 RMK AO2,M
BAM,2022-07-25 19:55,-116.8743,40.5990,1382.36,M,M,M,60.00,5.00,0.00,30.08,M,10.00,M,CLR,M,M,M,M,M,M,M,M,M,M,M,M,M,M,M,KBAM 251955Z AUTO 06005KT 10SM CLR A3008 RMK AO1,M
MEV,2022-07-25 19:55,-119.7500,38.9963,1441.42,91.40,28.40,10.48,M,5.00,0.00,30.07,M,10.00,11.00,CLR,M,M,M,M,M,M,M,M,M,M,M,M,M,M,86.53,KMEV 251955Z AUTO VRB05G11KT 10SM CLR 33/M02 A3007 RMK AO2,M
TMT,2022-07-25 19:55,-117.1971,39.4643,1749.34,M,M,M,310.00,4.00,0.00,30.16,M,10.00,M,CLR,M,M,M,M,M,M,M,VCTS,M,M,M,M,M,M,M,KTMT 251955Z AUTO 31004KT 10SM VCTS CLR A3016 RMK AO2 LTG DSNT SE AND SW,M
05U,2022-07-25 19:55,-116.0051,39.6042,1811.23,89.60,41.00,18.33,0.00,0.00,0.00,30.17,M,10.00,M,CLR,M,M,M,M,M,M,M,M,M,M,M,M,M,M,85.82,K05U 251955Z AUTO 00000KT 10SM CLR 32/05 A3017 RMK A01,M
WMC,2022-07-25 19:56,-117.8072,40.9019,1315.00,96.00,27.00,8.56,60.00,7.00,0.00,30.05,1011.40,10.00,M,CLR,M,M,M,M,M,M,M,M,M,M,M,M,M,M,90.03,KWMC 251956Z AUTO 06007KT 030V100 10SM CLR 36/M03 A3005 RMK AO2 SLP114 T03561028,M
EKO,2022-07-25 19:56,-115.7860,40.8242,1367.00,94.00,27.00,9.16,M,5.00,0.00,30.09,1012.00,10.00,M,CLR,M,M,M,M,M,M,M,M,M,M,M,M,M,M,88.29,KEKO 251956Z AUTO VRB05KT 10SM CLR 34/M03 A3009 RMK AO2 SLP120 T03441028,M
NFL,2022-07-25 19:56,-118.7010,39.4166,1199.00,95.00,27.00,8.85,200.00,5.00,0.00,30.01,1013.20,10.00,M,FEW,SCT,SCT,M,8000.00,12000.00,15000.00,M,M,M,M,M,M,M,M,89.12,KNFL 251956Z 20005KT 10SM FEW080 SCT120 SCT150 35/M03 A3001 RMK AO2 SLP132 T03501028,M
HND,2022-07-25 19:56,-115.1344,35.9729,742.79,92.00,64.00,39.76,M,5.00,T,29.98,1013.30,10.00,M,CLR,M,M,M,M,M,M,M,VCTS,M,M,M,M,M,M,93.51,KHND 251956Z VRB05KT 10SM VCTS CLR 33/18 A2998 RMK AO2 LTG DSNT SW AND W TSB52RAB13E27 SLP133 P0000 T03330178,M
TPH,2022-07-25 19:56,-117.0904,38.0505,1654.00,85.00,52.00,32.24,200.00,13.00,0.00,30.17,1012.50,10.00,23.00,CLR,M,M,M,M,M,M,M,M,M,M,M,29.00,180.00,2022-07-25 19:03,83.03,KTPH 251956Z AUTO 20013G23KT 10SM CLR 29/11 A3017 RMK AO2 PK WND 18029/1903 SLP125 T02940111,M
LAS,2022-07-25 19:56,-115.1634,36.0719,663.00,92.00,61.00,35.77,190.00,5.00,0.00,29.93,1010.50,10.00,M,FEW,SCT,SCT,BKN,7000.00,10000.00,15000.00,22000.00,M,M,M,M,M,M,M,92.01,KLAS 251956Z 19005KT 10SM FEW070 SCT100 SCT150 BKN220 33/16 A2993 RMK AO2 LTG DSNT S AND SW SLP105 VIRGA SE CB DSNT ALQDS T03330161,M
INS,2022-07-25 19:58,-115.6733,36.5872,955.00,86.20,55.20,34.77,10.00,5.00,0.00,30.02,1011.30,10.00,M,FEW,M,M,M,18000.00,M,M,M,M,M,M,M,M,M,M,84.67,KINS 251958Z AUTO 01005KT 10SM FEW180 30/13 A3002 RMK AO2 SLP113 T03010129 $,M
LSV,2022-07-25 19:58,-115.0343,36.2362,570.00,102.40,60.80,25.77,300.00,7.00,0.00,29.89,M,10.00,M,CLR,M,M,M,M,M,M,M,M,M,M,M,M,M,M,103.80,KLSV 251958Z AUTO 30007KT 10SM CLR 39/16 A2989 RMK AO2 LTG DSNT SW SLPNO T03910160 $,M
ELY,2022-07-25 20:00,-114.8453,39.2950,1909.00,83.00,48.00,29.64,130.00,9.00,0.00,30.18,M,10.00,M,FEW,M,M,M,8000.00,M,M,M,M,M,M,M,M,M,M,81.11,KELY 252000Z AUTO 13009KT 10SM FEW080 28/09 A3018 RMK AO2 LTG DSNT ALQDS T02830089,M
LAS,2022-07-25 20:01,-115.1634,36.0719,663.00,92.00,61.00,35.77,320.00,4.00,0.00,29.93,M,10.00,M,FEW,SCT,SCT,BKN,7000.00,10000.00,15000.00,22000.00,TS,M,M,M,M,M,M,92.01,KLAS 252001Z 32004KT 10SM TS FEW070 SCT100 SCT150 BKN220 33/16 A2993 RMK AO2 LTG DSNT S-W TSE1959B01 OCNL LTGIC S TS S T03330161,M
LSV,2022-07-25 20:08,-115.0343,36.2362,570.00,102.20,60.80,25.93,M,5.00,0.00,29.89,M,10.00,M,FEW,SCT,M,M,12000.00,15000.00,M,M,VCTS,M,M,M,M,M,M,103.57,KLSV 252008Z VRB05KT 10SM VCTS FEW120CB SCT150 39/16 A2989 RMK LTG DSNT SW SLPNO $,M
BVU,2022-07-25 20:15,-114.8611,35.9475,671.00,M,M,M,M,M,0.00,M,M,M,M,M,M,M,M,M,M,M,M,M,M,M,M,M,M,M,M,KBVU 252015Z AUTO RMK AO2 PNO PWINO TSNO,M
CXP,2022-07-25 20:15,-119.7326,39.1923,1431.00,95.00,26.60,8.71,60.00,11.00,0.00,30.07,M,10.00,M,CLR,M,M,M,M,M,M,M,M,M,M,M,M,M,M,89.08,KCXP 252015Z AUTO 06011KT 020V120 10SM CLR 35/M03 A3007 RMK AO2,M
HTH,2022-07-25 20:15,-118.6315,38.5448,1282.89,95.00,23.00,7.49,100.00,4.00,0.00,30.02,M,10.00,M,CLR,M,M,M,M,M,M,M,M,M,M,M,M,M,M,88.76,KHTH 252015Z AUTO 10004KT 10SM CLR 35/M05 A3002 RMK A01,M
TMT,2022-07-25 20:15,-117.1971,39.4643,1749.34,M,M,M,330.00,6.00,0.00,30.15,M,10.00,M,CLR,M,M,M,M,M,M,M,M,M,M,M,M,M,M,M,KTMT 252015Z AUTO 33006KT 10SM CLR A3015 RMK AO2,M
BAM,2022-07-25 20:15,-116.8743,40.5990,1382.36,M,M,M,50.00,4.00,0.00,30.07,M,10.00,M,CLR,M,M,M,M,M,M,M,M,M,M,M,M,M,M,M,KBAM 252015Z AUTO 05004KT 10SM CLR A3007 RMK AO1,M
RTS,2022-07-25 20:15,-119.8764,39.6682,1539.00,89.60,23.00,8.87,130.00,8.00,0.00,30.11,M,10.00,M,CLR,M,M,M,M,M,M,M,M,M,M,M,M,M,M,84.75,KRTS 252015Z AUTO 13008KT 10SM CLR 32/M05 A3011 RMK AO2,M
HND,2022-07-25 20:15,-115.1344,35.9729,742.79,86.00,66.20,51.72,220.00,21.00,0.00,29.99,M,10.00,28.00,BKN,M,M,M,7000.00,M,M,M,TS SQ,M,M,M,28.00,220.00,2022-07-25 20:13,88.39,KHND 252015Z 22021G28KT 10SM TS SQ BKN070 30/19 A2999 RMK AO2 PK WND 22028/2013 LTG DSNT SW AND W,M
MEV,2022-07-25 20:15,-119.7500,38.9963,1441.42,93.20,28.40,9.91,300.00,8.00,0.00,30.06,M,10.00,M,CLR,M,M,M,M,M,M,M,M,M,M,M,M,M,M,87.89,KMEV 252015Z AUTO 30008KT 10SM CLR 34/M02 A3006 RMK AO2,M
05U,2022-07-25 20:15,-116.0051,39.6042,1811.23,89.60,39.20,17.09,0.00,0.00,0.00,30.16,M,10.00,M,CLR,M,M,M,M,M,M,M,M,M,M,M,M,M,M,85.73,K05U 252015Z AUTO 00000KT 10SM CLR 32/04 A3016 RMK A01,M
LSV,2022-07-25 20:20,-115.0343,36.2362,570.00,102.20,62.60,27.63,230.00,8.00,0.00,29.88,M,10.00,M,FEW,FEW,SCT,SCT,13000.00,15000.00,18000.00,20000.00,TS,M,M,M,M,M,M,104.63,KLSV 252020Z 23008KT 200V300 10SM TS FEW130CB FEW150 SCT180 SCT200 39/17 A2988 RMK TSB21 SLPNO $,M
HND,2022-07-25 20:28,-115.1344,35.9729,742.79,80.60,66.20,61.58,240.00,16.00,0.00,30.00,M,10.00,25.00,BKN,M,M,M,7000.00,M,M,M,TS,M,M,M,28.00,220.00,2022-07-25 20:13,82.75,KHND 252028Z 24016G25KT 10SM TS BKN070 27/19 A3000 RMK AO2 PK WND 22028/2013 WSHFT 2008 LTG DSNT W-NE,M
05U,2022-07-25 20:30,-116.0051,39.6042,1811.23,89.60,39.20,17.09,0.00,0.00,0.00,30.16,M,10.00,M,CLR,M,M,M,M,M,M,M,M,M,M,M,M,M,M,85.73,K05U 252030Z AUTO 00000KT 10SM CLR 32/04 A3016 RMK A01,M
LAS,2022-07-25 20:33,-115.1634,36.0719,663.00,86.00,64.00,47.91,220.00,22.00,0.00,29.95,M,9.00,41.00,FEW,SCT,SCT,BKN,7000.00,10000.00,15000.00,22000.00,TS,M,M,M,41.00,220.00,2022-07-25 20:26,87.31,KLAS 252033Z 22022G41KT 9SM TS FEW070CB SCT100 SCT150 BKN220 30/18 A2995 RMK AO2 PK WND 22041/2026 WSHFT 2016 LTG DSNT SW TSE1959B01 OCNL LTGIC SW TS SW MOV NW VCBLDU SW T03000178,M
ELY,2022-07-25 20:34,-114.8453,39.2950,1909.00,87.00,49.00,26.79,180.00,15.00,0.00,30.17,M,10.00,20.00,CLR,M,M,M,M,M,M,M,VCTS,M,M,M,M,M,M,84.37,KELY 252034Z AUTO 18015G20KT 10SM VCTS CLR 31/09 A3017 RMK AO2 LTG DSNT S AND NW T03060094,M
BAM,2022-07-25 20:35,-116.8743,40.5990,1382.36,M,M,M,360.00,4.00,0.00,30.06,M,10.00,M,CLR,M,M,M,M,M,M,M,M,M,M,M,M,M,M,M,KBAM 252035Z AUTO 36004KT 10SM CLR A3006 RMK AO1,M
MEV,2022-07-25 20:35,-119.7500,38.9963,1441.42,95.00,30.20,10.09,240.00,8.00,0.00,30.05,M,10.00,13.00,CLR,M,M,M,M,M,M,M,M,M,M,M,M,M,M,89.48,KMEV 252035Z AUTO 24008G13KT 220V280 10SM CLR 35/M01 A3005 RMK AO2,M
CXP,2022-07-25 20:35,-119.7326,39.1923,1431.00,95.00,26.60,8.71,M,6.00,0.00,30.06,M,10.00,17.00,CLR,M,M,M,M,M,M,M,M,M,M,M,M,M,M,89.08,KCXP 252035Z AUTO VRB06G17KT 10SM CLR 35/M03 A3006 RMK AO2,M
RTS,2022-07-25 20:35,-119.8764,39.6682,1539.00,91.40,23.00,8.38,M,6.00,0.00,30.10,M,10.00,12.00,CLR,M,M,M,M,M,M,M,M,M,M,M,M,M,M,86.08,KRTS 252035Z AUTO VRB06G12KT 10SM CLR 33/M05 A3010 RMK AO2,M
BVU,2022-07-25 20:35,-114.8611,35.9475,671.00,M,M,M,M,M,0.00,M,M,M,M,M,M,M,M,M,M,M,M,M,M,M,M,M,M,M,M,KBVU 252035Z AUTO RMK AO2 PNO PWINO TSNO,M
TMT,2022-07-25 20:35,-117.1971,39.4643,1749.34,M,M,M,330.00,6.00,0.00,30.15,M,10.00,M,CLR,M,M,M,M,M,M,M,M,M,M,M,M,M,M,M,KTMT 252035Z AUTO 33006KT 10SM CLR A3015 RMK AO2,M
HTH,2022-07-25 20:35,-118.6315,38.5448,1282.89,95.00,23.00,7.49,0.00,0.00,0.00,30.01,M,9.00,M,CLR,M,M,M,M,M,M,M,M,M,M,M,M,M,M,88.76,KHTH 252035Z AUTO 00000KT 9SM CLR 35/M05 A3001 RMK A01,M
ELY,2022-07-25 20:49,-114.8453,39.2950,1909.00,87.80,46.40,23.85,180.00,17.00,0.00,30.17,M,10.00,27.00,CLR,M,M,M,M,M,M,M,M,M,M,M,M,M,M,84.68,KELY 252049Z AUTO 18017G27KT 10SM CLR 31/08 A3017,M
LOL,2022-07-25 20:53,-118.5701,40.0684,1192.43,99.00,25.00,7.21,M,3.00,0.00,29.98,1009.70,10.00,M,CLR,M,M,M,M,M,M,M,M,M,M,M,M,M,M,92.25,KLOL 252053Z AUTO VRB03KT 10SM CLR 37/M04 A2998 RMK AO2 SLP097 T03721039 58019,M
VGT,2022-07-25 20:53,-115.1933,36.2111,667.00,93.00,61.00,34.57,210.00,27.00,0.00,29.90,1011.10,10.00,38.00,BKN,BKN,M,M,9000.00,11000.00,M,M,M,M,M,M,38.00,210.00,2022-07-25 20:53,93.20,KVGT 252053Z 21027G38KT 10SM BKN090 BKN110 34/16 A2990 RMK AO2 PK WND 21038/2053 LTG DSNT ALQDS SLP111 T03390161 56023,M
ELY,2022-07-25 20:53,-114.8453,39.2950,1909.00,87.00,47.00,24.85,180.00,19.00,0.00,30.17,1009.70,10.00,29.00,CLR,M,M,M,M,M,M,M,M,M,M,M,29.00,190.00,2022-07-25 20:53,84.15,KELY 252053Z AUTO 18019G29KT 10SM CLR 31/08 A3017 RMK AO2 PK WND 19029/2053 LTG DSNT NE SLP097 T03060083 56010,M
P68,2022-07-25 20:53,-116.0056,39.6014,1993.00,88.00,39.00,17.83,180.00,13.00,0.00,30.12,1010.70,M,18.00,M,M,M,M,M,M,M,M,M,M,M,M,M,M,M,84.38,KP68 252053Z AUTO 18013G18KT 31/04 A3012 RMK AO1 SLP107 T03110039 56019,M
DRA,2022-07-25 20:53,-116.0278,36.6206,1009.00,77.00,67.00,71.03,230.00,13.00,0.00,30.05,1012.40,10.00,22.00,FEW,M,M,M,12000.00,M,M,M,M,M,M,M,28.00,200.00,2022-07-25 20:35,77.00,KDRA 252053Z AUTO 23013G22KT 10SM FEW120 25/19 A3005 RMK AO2 PK WND 20028/2035 SLP124 60011 T02500194 55017,M
BAM,2022-07-25 20:55,-116.8743,40.5990,1382.36,M,M,M,30.00,5.00,0.00,30.05,M,10.00,M,CLR,M,M,M,M,M,M,M,M,M,M,M,M,M,M,M,KBAM 252055Z AUTO 03005KT 10SM CLR A3005 RMK AO1,M
TMT,2022-07-25 20:55,-117.1971,39.4643,1749.34,M,M,M,330.00,8.00,0.00,30.14,M,10.00,M,CLR,M,M,M,M,M,M,M,M,M,M,M,M,M,M,M,KTMT 252055Z AUTO 33008KT 10SM CLR A3014 RMK AO2 LTG DSNT S,M
MEV,2022-07-25 20:55,-119.7500,38.9963,1441.42,95.00,28.40,9.38,M,6.00,0.00,30.04,M,10.00,11.00,CLR,M,M,M,M,M,M,M,M,M,M,M,M,M,M,89.27,KMEV 252055Z AUTO VRB06G11KT 10SM CLR 35/M02 A3004 RMK AO2,M
05U,2022-07-25 20:55,-116.0051,39.6042,1811.23,89.60,39.20,17.09,170.00,11.00,0.00,30.15,M,10.00,M,CLR,M,M,M,M,M,M,M,M,M,M,M,M,M,M,85.73,K05U 252055Z AUTO 17011KT 10SM CLR 32/04 A3015 RMK A01,M
RTS,2022-07-25 20:55,-119.8764,39.6682,1539.00,93.20,23.00,7.92,M,5.00,0.00,30.10,M,10.00,M,CLR,M,M,M,M,M,M,M,M,M,M,M,M,M,M,87.42,KRTS 252055Z AUTO VRB05KT 10SM CLR 34/M05 A3010 RMK AO2,M
RNO,2022-07-25 20:55,-119.7711,39.4839,1341.00,98.00,30.90,9.44,30.00,13.00,0.00,30.02,1009.50,10.00,18.00,FEW,M,M,M,10000.00,M,M,M,M,M,M,M,M,M,M,92.13,KRNO 252055Z 03013G18KT 10SM FEW100 37/M01 A3002 RMK AO2 SLP095 HZ ALQDS T03671006 58020,M
CXP,2022-07-25 20:55,-119.7326,39.1923,1431.00,95.00,26.60,8.71,80.00,9.00,0.00,30.06,M,10.00,16.00,CLR,M,M,M,M,M,M,M,M,M,M,M,M,M,M,89.08,KCXP 252055Z AUTO 08009G16KT 050V110 10SM CLR 35/M03 A3006 RMK AO2,M
BVU,2022-07-25 20:55,-114.8611,35.9475,671.00,M,M,M,M,M,0.00,M,M,M,M,M,M,M,M,M,M,M,M,M,M,M,M,M,M,M,M,KBVU 252055Z AUTO RMK AO2 PNO PWINO TSNO,M
LSV,2022-07-25 20:55,-115.0343,36.2362,570.00,97.20,63.00,32.71,150.00,20.00,0.00,29.90,M,5.00,31.00,SCT,BKN,M,M,8000.00,11000.00,M,M,TS BLDU,M,M,M,M,M,M,99.03,KLSV 252055Z 15020G31KT 050V200 5SM TS BLDU SCT080CB BKN110 36/17 A2990 RMK LTG DSNT NE AND SW TSB20 SLPNO T03620173 55013 $,M
HTH,2022-07-25 20:55,-118.6315,38.5448,1282.89,96.80,24.80,7.65,M,4.00,0.00,30.00,M,10.00,10.00,CLR,M,M,M,M,M,M,M,M,M,M,M,M,M,M,90.40,KHTH 252055Z AUTO VRB04G10KT 10SM CLR 36/M04 A3000 RMK A01,M
HND,2022-07-25 20:56,-115.1344,35.9729,742.79,81.00,68.00,64.69,250.00,12.00,0.00,30.00,1014.50,10.00,20.00,FEW,M,M,M,6000.00,M,M,M,VCTS,M,M,M,28.00,220.00,2022-07-25 20:13,83.76,KHND 252056Z 25012G20KT 10SM VCTS FEW060 27/20 A3000 RMK AO2 PK WND 22028/2013 WSHFT 2008 LTG DSNT W-NE SLP145 60000 T02720200 55004,M
LAS,2022-07-25 20:56,-115.1634,36.0719,663.00,81.00,68.00,64.69,240.00,14.00,T,29.94,1011.20,10.00,28.00,SCT,BKN,BKN,OVC,7000.00,11000.00,15000.00,22000.00,-TSRA,M,M,M,41.00,220.00,2022-07-25 20:26,83.76,KLAS 252056Z 24014G28KT 10SM -TSRA SCT070CB BKN110 BKN150 OVC220 27/20 A2994 RMK AO2 PK WND 22041/2026 WSHFT 2016 LTG DSNT ALQDS RAB41 TSE1959B01 SLP112 OCNL LTGIC SW-W TS SW-W MOV NW CB DSNT NE-E P0000 60000 T02720200 55012,M
WMC,2022-07-25 20:56,-117.8072,40.9019,1315.00,98.00,26.10,7.76,350.00,7.00,0.00,30.03,1010.50,10.00,M,CLR,M,M,M,M,M,M,M,M,M,M,M,M,M,M,91.60,KWMC 252056Z AUTO 35007KT 290V040 10SM CLR 37/M03 A3003 RMK AO2 SLP105 T03671033 58017,M
EKO,2022-07-25 20:56,-115.7860,40.8242,1367.00,95.00,27.00,8.85,M,5.00,0.00,30.06,1011.20,10.00,M,CLR,M,M,M,M,M,M,M,M,M,M,M,M,M,M,89.12,KEKO 252056Z AUTO VRB05KT 10SM CLR 35/M03 A3006 RMK AO2 SLP112 T03501028 58025,M
TPH,2022-07-25 20:56,-117.0904,38.0505,1654.00,87.00,49.00,26.79,150.00,13.00,0.00,30.14,1011.60,10.00,22.00,CLR,M,M,M,M,M,M,M,M,M,M,M,M,M,M,84.37,KTPH 252056Z AUTO 15013G22KT 10SM CLR 31/09 A3014 RMK AO2 LTG DSNT NE SLP116 T03060094 58016,M
NFL,2022-07-25 20:56,-118.7010,39.4166,1199.00,97.00,27.00,8.32,M,4.00,0.00,29.98,1012.40,10.00,M,SCT,SCT,SCT,M,8000.00,12000.00,15000.00,M,M,M,M,M,M,M,M,90.77,KNFL 252056Z VRB04KT 10SM SCT080 SCT120 SCT150 36/M03 A2998 RMK AO2 SLP124 T03611028 58020,M
INS,2022-07-25 20:58,-115.6733,36.5872,955.00,87.30,54.70,32.97,0.00,0.00,0.00,30.00,1010.40,10.00,M,SCT,M,M,M,18000.00,M,M,M,M,M,M,M,M,M,M,85.51,KINS 252058Z AUTO 00000KT 10SM SCT180 31/13 A3000 RMK AO2 SLP104 T03070126 57023 $,M
LSV,2022-07-25 21:07,-115.0343,36.2362,570.00,89.60,60.80,38.18,30.00,7.00,0.00,29.94,M,9.00,23.00,FEW,SCT,M,M,5500.00,7500.00,M,M,-TSRA,M,M,M,M,M,M,89.54,KLSV 252107Z 03007G23KT 9SM -TSRA FEW055 SCT075 32/16 A2994 RMK RAB07 PRESRR SLPNO $,M
HND,2022-07-25 21:08,-115.1344,35.9729,742.79,80.60,66.20,61.58,260.00,13.00,0.00,30.00,M,10.00,18.00,SCT,SCT,M,M,6000.00,8000.00,M,M,M,M,M,M,M,M,M,82.75,KHND 252108Z 26013G18KT 10SM SCT060 SCT080 27/19 A3000 RMK AO2 LTG DSNT ALQDS TSE02,M
BVU,2022-07-25 21:15,-114.8611,35.9475,671.00,M,M,M,M,M,0.00,M,M,M,M,M,M,M,M,M,M,M,M,M,M,M,M,M,M,M,M,KBVU 252115Z AUTO RMK AO2 PNO PWINO TSNO,M
RTS,2022-07-25 21:15,-119.8764,39.6682,1539.00,93.20,23.00,7.92,M,5.00,0.00,30.09,M,10.00,12.00,CLR,M,M,M,M,M,M,M,M,M,M,M,M,M,M,87.42,KRTS 252115Z AUTO VRB05G12KT 10SM CLR 34/M05 A3009 RMK AO2,M
TMT,2022-07-25 21:15,-117.1971,39.4643,1749.34,M,M,M,330.00,7.00,0.00,30.13,M,10.00,M,CLR,M,M,M,M,M,M,M,M,M,M,M,M,M,M,M,KTMT 252115Z AUTO 33007KT 10SM CLR A3013 RMK AO2,M
CXP,2022-07-25 21:15,-119.7326,39.1923,1431.00,96.80,24.80,7.65,80.00,8.00,0.00,30.05,M,10.00,14.00,CLR,M,M,M,M,M,M,M,M,M,M,M,M,M,M,90.40,KCXP 252115Z AUTO 08008G14KT 10SM CLR 36/M04 A3005 RMK AO2,M
MEV,2022-07-25 21:15,-119.7500,38.9963,1441.42,96.80,26.60,8.24,M,6.00,0.00,30.03,M,10.00,13.00,CLR,M,M,M,M,M,M,M,M,M,M,M,M,M,M,90.57,KMEV 252115Z AUTO VRB06G13KT 10SM CLR 36/M03 A3003 RMK AO2,M
HTH,2022-07-25 21:15,-118.6315,38.5448,1282.89,96.80,24.80,7.65,M,4.00,0.00,29.99,M,10.00,M,CLR,M,M,M,M,M,M,M,M,M,M,M,M,M,M,90.40,KHTH 252115Z AUTO VRB04KT 10SM CLR 36/M04 A2999 RMK A01,M
05U,2022-07-25 21:15,-116.0051,39.6042,1811.23,91.40,39.20,16.15,160.00,10.00,0.00,30.15,M,10.00,M,CLR,M,M,M,M,M,M,M,M,M,M,M,M,M,M,87.30,K05U 252115Z AUTO 16010KT 10SM CLR 33/04 A3015 RMK A01,M
BAM,2022-07-25 21:15,-116.8743,40.5990,1382.36,M,M,M,360.00,9.00,0.00,30.04,M,10.00,M,CLR,M,M,M,M,M,M,M,M,M,M,M,M,M,M,M,KBAM 252115Z AUTO 36009KT 10SM CLR A3004 RMK AO1,M
LSV,2022-07-25 21:19,-115.0343,36.2362,570.00,86.00,68.00,55.04,50.00,28.00,0.00,29.94,1011.20,2.75,39.00,SCT,SCT,BKN,M,2100.00,5500.00,7500.00,M,+TSRA,M,M,M,M,M,M,89.41,KLSV 252119Z 05028G39KT 2 3/4SM +TSRA SCT021 SCT055 BKN075CB 30/20 A2994 RMK VIS 2V9 SLP112 $,M
ELY,2022-07-25 21:20,-114.8453,39.2950,1909.00,81.00,46.00,29.23,M,5.00,0.00,30.19,M,10.00,17.00,BKN,BKN,M,M,8500.00,11000.00,M,M,VCTS,M,M,M,33.00,170.00,2022-07-25 20:56,79.76,KELY 252120Z AUTO VRB05G17KT 10SM VCTS BKN085 BKN110 27/08 A3019 RMK AO2 PK WND 17033/2056 LTG DSNT NE T02720078,M
VGT,2022-07-25 21:23,-115.1933,36.2111,667.00,87.00,63.00,44.66,220.00,19.00,0.00,29.92,M,10.00,M,FEW,SCT,OVC,M,6500.00,9500.00,11000.00,M,VCTS,M,M,M,38.00,230.00,2022-07-25 21:02,87.96,KVGT 252123Z 22019KT 10SM VCTS FEW065 SCT095 OVC110 31/17 A2992 RMK AO2 PK WND 23038/2102 LTG DSNT ALQDS T03060172,M
RTS,2022-07-25 21:35,-119.8764,39.6682,1539.00,93.20,21.20,7.34,130.00,8.00,0.00,30.08,M,10.00,15.00,CLR,M,M,M,M,M,M,M,M,M,M,M,M,M,M,87.29,KRTS 252135Z AUTO 13008G15KT 10SM CLR 34/M06 A3008 RMK AO2,M
BVU,2022-07-25 21:35,-114.8611,35.9475,671.00,M,M,M,M,M,0.00,M,M,M,M,M,M,M,M,M,M,M,M,M,M,M,M,M,M,M,M,KBVU 252135Z AUTO RMK AO2 PNO PWINO TSNO,M
CXP,2022-07-25 21:35,-119.7326,39.1923,1431.00,95.00,24.80,8.08,70.00,7.00,0.00,30.04,M,10.00,12.00,CLR,M,M,M,M,M,M,M,M,M,M,M,M,M,M,88.91,KCXP 252135Z AUTO 07007G12KT 020V100 10SM CLR 35/M04 A3004 RMK AO2,M
ELY,2022-07-25 21:35,-114.8453,39.2950,1909.00,77.00,45.00,32.10,70.00,8.00,0.00,30.20,M,10.00,22.00,BKN,OVC,M,M,9000.00,11000.00,M,M,M,M,M,M,33.00,170.00,2022-07-25 20:56,77.00,KELY 252135Z AUTO 07008G22KT 10SM BKN090 OVC110 25/07 A3020 RMK AO2 PK WND 17033/2056 LTG DSNT ALQDS T02500072,M
05U,2022-07-25 21:35,-116.0051,39.6042,1811.23,89.60,39.20,17.09,140.00,13.00,0.00,30.14,M,10.00,18.00,CLR,M,M,M,M,M,M,M,M,M,M,M,M,M,M,85.73,K05U 252135Z AUTO 14013G18KT 10SM CLR 32/04 A3014 RMK A01,M
MEV,2022-07-25 21:35,-119.7500,38.9963,1441.42,96.80,28.40,8.87,300.00,11.00,0.00,30.02,M,10.00,M,CLR,M,M,M,M,M,M,M,M,M,M,M,M,M,M,90.75,KMEV 252135Z AUTO 30011KT 10SM CLR 36/M02 A3002 RMK AO2,M
BAM,2022-07-25 21:35,-116.8743,40.5990,1382.36,M,M,M,310.00,8.00,0.00,30.04,M,10.00,M,CLR,M,M,M,M,M,M,M,M,M,M,M,M,M,M,M,KBAM 252135Z AUTO 31008KT 270V330 10SM CLR A3004 RMK AO1,M
HTH,2022-07-25 21:35,-118.6315,38.5448,1282.89,96.80,26.60,8.24,40.00,7.00,0.00,29.98,M,10.00,M,CLR,M,M,M,M,M,M,M,M,M,M,M,M,M,M,90.57,KHTH 252135Z AUTO 04007KT 360V090 10SM CLR 36/M03 A2998 RMK A01,M
TMT,2022-07-25 21:35,-117.1971,39.4643,1749.34,M,M,M,320.00,5.00,0.00,30.12,M,10.00,M,CLR,M,M,M,M,M,M,M,M,M,M,M,M,M,M,M,KTMT 252135Z AUTO 32005KT 10SM CLR A3012 RMK AO2 LTG DSNT S,M
ELY,2022-07-25 21:42,-114.8453,39.2950,1909.00,74.00,51.00,44.76,30.00,11.00,T,30.20,M,6.00,M,FEW,SCT,OVC,M,8000.00,9500.00,11000.00,M,-TSRA,M,M,M,33.00,170.00,2022-07-25 20:56,73.90,KELY 252142Z AUTO 03011KT 6SM -TSRA FEW080 SCT095 OVC110 23/11 A3020 RMK AO2 PK WND 17033/2056 LTG DSNT NE AND SW AND W RAB39 TSB36 P0000 T02330106,M
LOL,2022-07-25 21:53,-118.5701,40.0684,1192.43,101.00,24.10,6.56,20.00,9.00,0.00,29.95,1008.80,10.00,M,CLR,M,M,M,M,M,M,M,M,M,M,M,M,M,M,93.76,KLOL 252153Z AUTO 02009KT 10SM CLR 38/M04 A2995 RMK AO2 SLP088 T03831044,M
VGT,2022-07-25 21:53,-115.1933,36.2111,667.00,86.00,64.00,47.91,70.00,19.00,0.00,29.96,1013.30,10.00,26.00,OVC,M,M,M,8000.00,M,M,M,VCTS,M,M,M,38.00,230.00,2022-07-25 21:02,87.31,KVGT 252153Z 07019G26KT 10SM VCTS OVC080 30/18 A2996 RMK AO2 PK WND 23038/2102 LTG DSNT N-SE SLP133 T03000178,M
P68,2022-07-25 21:53,-116.0056,39.6014,1993.00,89.00,41.00,18.62,150.00,17.00,0.00,30.11,1010.50,M,26.00,M,M,M,M,M,M,M,M,M,M,M,M,26.00,180.00,2022-07-25 21:50,85.39,KP68 252153Z AUTO 15017G26KT 32/05 A3011 RMK AO1 PK WND 18026/2150 SLP105 T03170050,M
ELY,2022-07-25 21:53,-114.8453,39.2950,1909.00,72.00,54.00,53.09,70.00,13.00,T,30.19,1012.90,7.00,M,FEW,OVC,M,M,8000.00,10000.00,M,M,VCTS -RA,M,M,M,33.00,170.00,2022-07-25 20:56,72.00,KELY 252153Z AUTO 07013KT 7SM VCTS -RA FEW080 OVC100 22/12 A3019 RMK AO2 PK WND 17033/2056 LTG DSNT SW AND W RAB39 TSB36E50 SLP129 P0000 T02220122,M
DRA,2022-07-25 21:53,-116.0278,36.6206,1009.00,78.00,62.00,57.92,250.00,14.00,0.00,30.02,1011.50,10.00,M,FEW,M,M,M,11000.00,M,M,M,M,M,M,M,M,M,M,78.10,KDRA 252153Z AUTO 25014KT 10SM FEW110 26/17 A3002 RMK AO2 SLP115 T02560167,M
HTH,2022-07-25 21:55,-118.6315,38.5448,1282.89,98.60,35.60,11.23,110.00,14.00,0.00,29.97,M,10.00,21.00,CLR,M,M,M,M,M,M,M,M,M,M,M,M,M,M,93.23,KHTH 252155Z AUTO 11014G21KT 10SM CLR 37/02 A2997 RMK A01,M
TMT,2022-07-25 21:55,-117.1971,39.4643,1749.34,M,M,M,30.00,3.00,0.00,30.11,M,10.00,M,CLR,M,M,M,M,M,M,M,M,M,M,M,M,M,M,M,KTMT 252155Z AUTO 03003KT 10SM CLR A3011 RMK AO2,M
BVU,2022-07-25 21:55,-114.8611,35.9475,671.00,M,M,M,M,M,0.00,M,M,M,M,M,M,M,M,M,M,M,M,M,M,M,M,M,M,M,M,KBVU 252155Z AUTO RMK AO2 PNO PWINO TSNO,M
CXP,2022-07-25 21:55,-119.7326,39.1923,1431.00,96.80,24.80,7.65,110.00,9.00,0.00,30.03,M,10.00,M,CLR,M,M,M,M,M,M,M,M,M,M,M,M,M,M,90.40,KCXP 252155Z AUTO 11009KT 080V140 10SM CLR 36/M04 A3003 RMK AO2,M
RNO,2022-07-25 21:55,-119.7711,39.4839,1341.00,99.00,32.00,9.60,60.00,12.00,0.00,30.00,1008.50,10.00,M,FEW,M,M,M,10000.00,M,M,M,M,M,M,M,M,M,M,93.03,KRNO 252155Z 06012KT 10SM FEW100 37/00 A3000 RMK AO2 SLP085 HZ ALQDS T03720000,M
RTS,2022-07-25 21:55,-119.8764,39.6682,1539.00,93.20,21.20,7.34,130.00,10.00,0.00,30.07,M,10.00,M,CLR,M,M,M,M,M,M,M,M,M,M,M,M,M,M,87.29,KRTS 252155Z AUTO 13010KT 10SM CLR 34/M06 A3007 RMK AO2,M
05U,2022-07-25 21:55,-116.0051,39.6042,1811.23,91.40,42.80,18.56,140.00,17.00,0.00,30.14,M,10.00,M,CLR,M,M,M,M,M,M,M,M,M,M,M,M,M,M,87.52,K05U 252155Z AUTO 14017KT 10SM CLR 33/06 A3014 RMK A01,M
MEV,2022-07-25 21:55,-119.7500,38.9963,1441.42,96.80,26.60,8.24,280.00,7.00,0.00,30.02,M,10.00,M,CLR,M,M,M,M,M,M,M,M,M,M,M,M,M,M,90.57,KMEV 252155Z AUTO 28007KT 10SM CLR 36/M03 A3002 RMK AO2,M
BAM,2022-07-25 21:55,-116.8743,40.5990,1382.36,M,M,M,330.00,6.00,0.00,30.03,M,10.00,M,CLR,M,M,M,M,M,M,M,M,M,M,M,M,M,M,M,KBAM 252155Z AUTO 33006KT 300V360 10SM CLR A3003 RMK AO1,M
NFL,2022-07-25 21:56,-118.7010,39.4166,1199.00,99.00,30.90,9.19,290.00,7.00,0.00,29.95,1011.60,10.00,M,SCT,SCT,SCT,M,8000.00,11000.00,15000.00,M,M,M,M,M,M,M,M,92.88,KNFL 252156Z 29007KT 250V310 10SM SCT080 SCT110 SCT150 37/M01 A2995 RMK AO2 SLP116 T03721006,M
LAS,2022-07-25 21:56,-115.1634,36.0719,663.00,84.00,66.00,54.77,M,5.00,0.03,29.96,1011.70,10.00,M,BKN,BKN,BKN,OVC,7000.00,8500.00,15000.00,22000.00,-TSRA,M,M,M,M,M,M,86.20,KLAS 252156Z VRB05KT 10SM -TSRA BKN070CB BKN085 BKN150 OVC220 29/19 A2996 RMK AO2 LTG DSNT ALQDS SLP117 OCNL LTGIC NW-NE TS NW-NE MOV NW VCSH NW-NE AND DSNT S CB DSNT SE-SW P0003 T02890189,M
TPH,2022-07-25 21:56,-117.0904,38.0505,1654.00,87.00,47.00,24.85,230.00,9.00,0.00,30.12,1011.00,10.00,22.00,CLR,M,M,M,M,M,M,M,M,M,M,M,M,M,M,84.15,KTPH 252156Z AUTO 23009G22KT 10SM CLR 31/08 A3012 RMK AO2 LTG DSNT NE SLP110 T03060083,M
HND,2022-07-25 21:56,-115.1344,35.9729,742.79,85.00,65.00,51.21,260.00,7.00,T,29.98,1013.90,10.00,M,FEW,M,M,M,3900.00,M,M,M,M,M,M,M,M,M,M,86.62,KHND 252156Z 26007KT 10SM FEW039 29/18 A2998 RMK AO2 LTG DSNT ALQDS TSE02RAB23E41 SLP139 P0000 T02940183,M
EKO,2022-07-25 21:56,-115.7860,40.8242,1367.00,98.00,25.00,7.41,360.00,7.00,0.00,30.04,1010.30,10.00,M,CLR,M,M,M,M,M,M,M,M,M,M,M,M,M,M,91.50,KEKO 252156Z AUTO 36007KT 10SM CLR 37/M04 A3004 RMK AO2 SLP103 T03671039,M
WMC,2022-07-25 21:56,-117.8072,40.9019,1315.00,99.00,25.00,7.21,M,5.00,0.00,30.01,1009.80,10.00,15.00,CLR,M,M,M,M,M,M,M,M,M,M,M,M,M,M,92.25,KWMC 252156Z AUTO VRB05G15KT 10SM CLR 37/M04 A3001 RMK AO2 SLP098 T03721039,M
LSV,2022-07-25 21:58,-115.0343,36.2362,570.00,75.20,71.00,87.10,70.00,14.00,0.45,29.96,1012.20,3.00,M,BKN,BKN,BKN,M,4500.00,6000.00,7500.00,M,TSRA,M,M,M,39.00,50.00,2022-07-25 21:18,75.20,KLSV 252158Z 07014KT 3SM TSRA BKN045 BKN060 BKN075CB 24/22 A2996 RMK PK WND 05039/18 LTG DSNT NE-E RAB07 TSB2020 SLP122 P0045 T02400217 $,M
INS,2022-07-25 21:58,-115.6733,36.5872,955.00,85.30,60.30,42.99,270.00,13.00,0.00,29.99,1010.20,10.00,M,OVC,M,M,M,11000.00,M,M,M,M,M,M,M,M,M,M,85.25,KINS 252158Z AUTO 27013KT 10SM OVC110 30/16 A2999 RMK AO2 SLP102 T02960157 $,M
VGT,2022-07-25 22:03,-115.1933,36.2111,667.00,82.00,68.00,62.62,70.00,18.00,T,29.96,M,4.00,M,FEW,FEW,OVC,M,4900.00,6500.00,8000.00,M,+RA,M,M,M,M,M,M,84.92,KVGT 252203Z 07018KT 4SM +RA FEW049 FEW065 OVC080 28/20 A2996 RMK AO2 LTG DSNT ALQDS RAB00 P0000 T02780200,M
VGT,2022-07-25 22:07,-115.1933,36.2111,667.00,79.00,70.00,73.97,70.00,17.00,T,29.96,M,2.50,M,FEW,OVC,M,M,6500.00,8000.00,M,M,+RA,M,M,M,M,M,M,79.00,KVGT 252207Z 07017KT 2 1/2SM +RA FEW065 OVC080 26/21 A2996 RMK AO2 WSHFT 2150 LTG DSNT ALQDS RAB00 P0000 T02610211,M
HTH,2022-07-25 22:15,-118.6315,38.5448,1282.89,98.60,35.60,11.23,110.00,9.00,0.00,29.97,M,10.00,M,CLR,M,M,M,M,M,M,M,M,M,M,M,M,M,M,93.23,KHTH 252215Z AUTO 11009KT 090V150 10SM CLR 37/02 A2997 RMK A01,M
TMT,2022-07-25 22:15,-117.1971,39.4643,1749.34,M,M,M,0.00,0.00,0.00,30.11,M,10.00,M,CLR,M,M,M,M,M,M,M,M,M,M,M,M,M,M,M,KTMT 252215Z AUTO 00000KT 10SM CLR A3011 RMK AO2,M
BAM,2022-07-25 22:15,-116.8743,40.5990,1382.36,M,M,M,350.00,10.00,0.00,30.03,M,10.00,14.00,CLR,M,M,M,M,M,M,M,M,M,M,M,M,M,M,M,KBAM 252215Z AUTO 35010G14KT 10SM CLR A3003 RMK AO1,M
MEV,2022-07-25 22:15,-119.7500,38.9963,1441.42,96.80,26.60,8.24,330.00,10.00,0.00,30.00,M,10.00,M,CLR,M,M,M,M,M,M,M,M,M,M,M,M,M,M,90.57,KMEV 252215Z AUTO 33010KT 10SM CLR 36/M03 A3000 RMK AO2,M
05U,2022-07-25 22:15,-116.0051,39.6042,1811.23,87.80,44.60,22.27,160.00,18.00,0.00,30.14,M,10.00,23.00,CLR,M,M,M,M,M,M,M,M,M,M,M,M,M,M,84.53,K05U 252215Z AUTO 16018G23KT 10SM CLR 31/07 A3014 RMK A01,M
RTS,2022-07-25 22:15,-119.8764,39.6682,1539.00,93.20,23.00,7.92,0.00,0.00,0.00,30.06,M,10.00,11.00,CLR,M,M,M,M,M,M,M,M,M,M,M,M,M,M,87.42,KRTS 252215Z AUTO 00000G11KT 10SM CLR 34/M05 A3006 RMK AO2,M
CXP,2022-07-25 22:15,-119.7326,39.1923,1431.00,96.80,26.60,8.24,M,5.00,0.00,30.02,M,10.00,M,CLR,M,M,M,M,M,M,M,M,M,M,M,M,M,M,90.57,KCXP 252215Z AUTO VRB05KT 10SM CLR 36/M03 A3002 RMK AO2,M
BVU,2022-07-25 22:15,-114.8611,35.9475,671.00,M,M,M,M,M,0.00,M,M,M,M,M,M,M,M,M,M,M,M,M,M,M,M,M,M,M,M,KBVU 252215Z AUTO RMK AO2 PNO PWINO TSNO,M
VGT,2022-07-25 22:17,-115.1933,36.2111,667.00,78.00,70.00,76.19,60.00,12.00,T,29.98,M,7.00,22.00,FEW,BKN,OVC,M,6500.00,8000.00,9000.00,M,-RA,M,M,M,M,M,M,78.10,KVGT 252217Z 06012G22KT 7SM -RA FEW065 BKN080 OVC090 26/21 A2998 RMK AO2 WSHFT 2150 LTG DSNT N AND SE RAB00 P0000 T02560211,M
VGT,2022-07-25 22:25,-115.1933,36.2111,667.00,78.00,71.00,79.10,30.00,12.00,T,29.97,M,8.00,M,FEW,BKN,OVC,M,4900.00,8000.00,9500.00,M,VCTS -RA,M,M,M,M,M,M,78.10,KVGT 252225Z 03012KT 8SM VCTS -RA FEW049 BKN080 OVC095 26/22 A2997 RMK AO2 WSHFT 2150 LTG DSNT E AND SE RAB00 P0000 T02560217,M
05U,2022-07-25 22:30,-116.0051,39.6042,1811.23,87.80,42.80,20.79,170.00,18.00,0.00,30.14,M,10.00,M,CLR,M,M,M,M,M,M,M,M,M,M,M,M,M,M,84.40,K05U 252230Z AUTO 17018KT 10SM CLR 31/06 A3014 RMK A01,M
ELY,2022-07-25 22:30,-114.8453,39.2950,1909.00,74.00,51.00,44.76,170.00,8.00,T,30.18,M,10.00,M,FEW,BKN,M,M,10000.00,12000.00,M,M,M,M,M,M,M,M,M,73.90,KELY 252230Z AUTO 17008KT 10SM FEW100 BKN120 23/11 A3018 RMK AO2 LTG DSNT SW RAE08 P0000 T02330106,M
TMT,2022-07-25 22:35,-117.1971,39.4643,1749.34,M,M,M,80.00,7.00,0.00,30.10,M,10.00,M,CLR,M,M,M,M,M,M,M,M,M,M,M,M,M,M,M,KTMT 252235Z AUTO 08007KT 10SM CLR A3010 RMK AO2,M
BAM,2022-07-25 22:35,-116.8743,40.5990,1382.36,M,M,M,340.00,11.00,0.00,30.01,M,10.00,15.00,CLR,M,M,M,M,M,M,M,M,M,M,M,M,M,M,M,KBAM 252235Z AUTO 34011G15KT 10SM CLR A3001 RMK AO1,M
MEV,2022-07-25 22:35,-119.7500,38.9963,1441.42,96.80,26.60,8.24,260.00,7.00,0.00,30.00,M,10.00,12.00,CLR,M,M,M,M,M,M,M,M,M,M,M,M,M,M,90.57,KMEV 252235Z AUTO 26007G12KT 240V300 10SM CLR 36/M03 A3000 RMK AO2,M
HTH,2022-07-25 22:35,-118.6315,38.5448,1282.89,98.60,35.60,11.23,80.00,15.00,0.00,29.96,M,10.00,M,CLR,M,M,M,M,M,M,M,M,M,M,M,M,M,M,93.23,KHTH 252235Z AUTO 08015KT 10SM CLR 37/02 A2996 RMK A01,M
RTS,2022-07-25 22:35,-119.8764,39.6682,1539.00,93.20,21.20,7.34,M,3.00,0.00,30.06,M,10.00,11.00,CLR,M,M,M,M,M,M,M,M,M,M,M,M,M,M,87.29,KRTS 252235Z AUTO VRB03G11KT 10SM CLR 34/M06 A3006 RMK AO2,M
CXP,2022-07-25 22:35,-119.7326,39.1923,1431.00,96.80,26.60,8.24,0.00,0.00,0.00,30.01,M,10.00,12.00,CLR,M,M,M,M,M,M,M,M,M,M,M,M,M,M,90.57,KCXP 252235Z AUTO 00000G12KT 10SM CLR 36/M03 A3001 RMK AO2,M
BVU,2022-07-25 22:35,-114.8611,35.9475,671.00,M,M,M,M,M,0.00,M,M,M,M,M,M,M,M,M,M,M,M,M,M,M,M,M,M,M,M,KBVU 252235Z AUTO RMK AO2 PNO PWINO TSNO,M
VGT,2022-07-25 22:40,-115.1933,36.2111,667.00,79.00,71.00,76.79,50.00,5.00,T,29.97,M,8.00,M,SCT,BKN,OVC,M,4400.00,6000.00,10000.00,M,RA,M,M,M,M,M,M,79.00,KVGT 252240Z 05005KT 8SM RA SCT044 BKN060 OVC100 26/22 A2997 RMK AO2 WSHFT 2150 LTG DSNT NE RAB00 P0000 T02610217,M
INS,2022-07-25 22:42,-115.6733,36.5872,955.00,84.20,59.00,42.52,210.00,6.00,0.00,29.99,1010.40,10.00,M,SCT,OVC,M,M,11000.00,15000.00,M,M,-RA,M,M,M,M,M,M,83.92,KINS 252242Z AUTO 21006KT 10SM -RA SCT110 OVC150 29/15 A2999 RMK AO2 RAB42 SLP104 $,M
05U,2022-07-25 22:50,-116.0051,39.6042,1811.23,87.80,42.80,20.79,150.00,15.00,0.00,30.13,M,10.00,M,CLR,M,M,M,M,M,M,M,M,M,M,M,M,M,M,84.40,K05U 252250Z AUTO 15015KT 10SM CLR 31/06 A3013 RMK A01,M
P68,2022-07-25 22:53,-116.0056,39.6014,1993.00,85.00,43.00,22.98,160.00,18.00,0.00,30.10,1010.30,M,M,M,M,M,M,M,M,M,M,M,M,M,M,29.00,150.00,2022-07-25 21:56,82.13,KP68 252253Z AUTO 16018KT 29/06 A3010 RMK AO1 PK WND 15029/2156 SLP103 T02940061,M
VGT,2022-07-25 22:53,-115.1933,36.2111,667.00,80.00,68.00,66.62,20.00,11.00,0.00,29.96,1013.60,10.00,M,SCT,SCT,BKN,M,3500.00,6000.00,10000.00,M,-RA,M,M,M,M,M,M,82.70,KVGT 252253Z 02011KT 10SM -RA SCT035 SCT060 BKN100 27/20 A2996 RMK AO2 WSHFT 2150 LTG DSNT S RAB00 SLP136 T02670200 PNO $,M
LOL,2022-07-25 22:53,-118.5701,40.0684,1192.43,101.00,24.10,6.56,M,3.00,0.00,29.93,1008.10,10.00,M,CLR,M,M,M,M,M,M,M,M,M,M,M,M,M,M,93.76,KLOL 252253Z AUTO VRB03KT 10SM CLR 38/M04 A2993 RMK AO2 SLP081 T03831044,M
DRA,2022-07-25 22:53,-116.0278,36.6206,1009.00,79.00,59.00,50.36,280.00,3.00,0.00,30.00,1010.80,10.00,M,CLR,M,M,M,M,M,M,M,M,M,M,M,M,M,M,79.00,KDRA 252253Z AUTO 28003KT 10SM CLR 26/15 A3000 RMK AO2 SLP108 T02610150,M
ELY,2022-07-25 22:53,-114.8453,39.2950,1909.00,74.00,49.00,41.24,200.00,12.00,T,30.17,1012.40,10.00,18.00,BKN,M,M,M,11000.00,M,M,M,M,M,M,M,M,M,M,73.90,KELY 252253Z AUTO 20012G18KT 10SM BKN110 23/09 A3017 RMK AO2 LTG DSNT SW RAE08 SLP124 P0000 T02330094,M
HTH,2022-07-25 22:55,-118.6315,38.5448,1282.89,98.60,35.60,11.23,M,5.00,0.00,29.95,M,10.00,14.00,CLR,M,M,M,M,M,M,M,M,M,M,M,M,M,M,93.23,KHTH 252255Z AUTO VRB05G14KT 10SM CLR 37/02 A2995 RMK A01,M
BVU,2022-07-25 22:55,-114.8611,35.9475,671.00,M,M,M,M,M,0.00,M,M,M,M,M,M,M,M,M,M,M,M,M,M,M,M,M,M,M,M,KBVU 252255Z AUTO RMK AO2 PNO PWINO TSNO,M
CXP,2022-07-25 22:55,-119.7326,39.1923,1431.00,96.80,26.60,8.24,0.00,0.00,0.00,30.01,M,10.00,M,CLR,M,M,M,M,M,M,M,M,M,M,M,M,M,M,90.57,KCXP 252255Z AUTO 00000KT 10SM CLR 36/M03 A3001 RMK AO2,M
RNO,2022-07-25 22:55,-119.7711,39.4839,1341.00,99.00,32.00,9.60,80.00,11.00,0.00,29.97,1007.90,10.00,17.00,FEW,M,M,M,12000.00,M,M,M,M,M,M,M,M,M,M,93.03,KRNO 252255Z 08011G17KT 10SM FEW120 37/00 A2997 RMK AO2 SLP079 HZ ALQDS T03720000,M
RTS,2022-07-25 22:55,-119.8764,39.6682,1539.00,95.00,23.00,7.49,50.00,6.00,0.00,30.05,M,10.00,13.00,CLR,M,M,M,M,M,M,M,M,M,M,M,M,M,M,88.76,KRTS 252255Z AUTO 05006G13KT 10SM CLR 35/M05 A3005 RMK AO2,M
MEV,2022-07-25 22:55,-119.7500,38.9963,1441.42,96.80,26.60,8.24,250.00,8.00,0.00,29.99,M,10.00,M,CLR,M,M,M,M,M,M,M,M,M,M,M,M,M,M,90.57,KMEV 252255Z AUTO 25008KT 10SM CLR 36/M03 A2999 RMK AO2,M
BAM,2022-07-25 22:55,-116.8743,40.5990,1382.36,M,M,M,340.00,13.00,0.00,30.01,M,10.00,17.00,CLR,M,M,M,M,M,M,M,M,M,M,M,M,M,M,M,KBAM 252255Z AUTO 34013G17KT 10SM CLR A3001 RMK AO1,M
TMT,2022-07-25 22:55,-117.1971,39.4643,1749.34,M,M,M,40.00,5.00,0.00,30.10,M,10.00,M,CLR,M,M,M,M,M,M,M,M,M,M,M,M,M,M,M,KTMT 252255Z AUTO 04005KT 10SM CLR A3010 RMK AO2 LTG DSNT S,M
HND,2022-07-25 22:56,-115.1344,35.9729,742.79,82.00,68.00,62.62,60.00,10.00,T,30.00,1014.40,10.00,M,FEW,BKN,M,M,4800.00,6000.00,M,M,-RA,M,M,M,M,M,M,84.92,KHND 252256Z 06010KT 10SM -RA FEW048 BKN060 28/20 A3000 RMK AO2 LTG DSNT SE RAB53 SLP144 P0000 T02780200,M
TPH,2022-07-25 22:56,-117.0904,38.0505,1654.00,90.00,45.00,21.10,0.00,0.00,0.00,30.09,1009.90,10.00,M,CLR,M,M,M,M,M,M,M,M,M,M,M,M,M,M,86.45,KTPH 252256Z AUTO 00000KT 10SM CLR 32/07 A3009 RMK AO2 SLP099 T03220072,M
LAS,2022-07-25 22:56,-115.1634,36.0719,663.00,82.00,66.00,58.43,20.00,10.00,T,29.97,1012.00,10.00,M,SCT,BKN,BKN,BKN,7000.00,8000.00,15000.00,22000.00,TS,M,M,M,M,M,M,84.15,KLAS 252256Z 02010KT 10SM TS SCT070 BKN080CB BKN150 BKN220 28/19 A2997 RMK AO2 LTG DSNT SE RAE09 SLP120 OCNL LTGIC N-NE AND SE-SW TS N-NE AND SE-SW MOV NW VCSH N-NE AND SE-SW CB DSNT ALQDS P0000 T02780189,M
EKO,2022-07-25 22:56,-115.7860,40.8242,1367.00,99.00,21.00,6.09,360.00,16.00,0.00,30.02,1009.80,10.00,20.00,CLR,M,M,M,M,M,M,M,M,M,M,M,M,M,M,91.93,KEKO 252256Z AUTO 36016G20KT 10SM CLR 37/M06 A3002 RMK AO2 SLP098 T03721061,M
WMC,2022-07-25 22:56,-117.8072,40.9019,1315.00,100.00,23.00,6.43,350.00,10.00,0.00,29.99,1009.10,10.00,M,CLR,M,M,M,M,M,M,M,M,M,M,M,M,M,M,92.91,KWMC 252256Z AUTO 35010KT 10SM CLR 38/M05 A2999 RMK AO2 SLP091 T03781050,M
NFL,2022-07-25 22:56,-118.7010,39.4166,1199.00,100.00,30.00,8.59,330.00,8.00,0.00,29.93,1010.90,10.00,M,SCT,SCT,SCT,M,8000.00,10000.00,15000.00,M,M,M,M,M,M,M,M,93.61,KNFL 252256Z 33008KT 10SM SCT080 SCT100 SCT150 38/M01 A2993 RMK AO2 SLP109 T03781011,M
LSV,2022-07-25 22:57,-115.0343,36.2362,570.00,74.70,74.70,100.00,0.00,0.00,0.36,29.94,1011.60,10.00,M,FEW,FEW,SCT,M,3100.00,6500.00,10000.00,M,TS,M,M,M,M,M,M,74.70,KLSV 252257Z 00000KT 10SM TS FEW031 FEW065 SCT100CB 24/24 A2994 RMK RAB2107E58 SLP116 P0036 T02370237 $,M
INS,2022-07-25 22:58,-115.6733,36.5872,955.00,84.40,59.40,42.86,200.00,7.00,T,29.99,1010.40,10.00,M,FEW,BKN,BKN,M,8500.00,12000.00,15000.00,M,-RA,M,M,M,M,M,M,84.19,KINS 252258Z AUTO 20007KT 10SM -RA FEW085 BKN120 BKN150 29/15 A2999 RMK AO2 RAB42 SLP104 P0000 T02910152 $,M
05U,2022-07-25 23:10,-116.0051,39.6042,1811.23,87.80,42.80,20.79,160.00,13.00,0.00,30.13,M,10.00,M,CLR,M,M,M,M,M,M,M,M,M,M,M,M,M,M,84.40,K05U 252310Z AUTO 16013KT 10SM CLR 31/06 A3013 RMK A01,M
CXP,2022-07-25 23:10,-119.7326,39.1923,1431.00,96.80,26.60,8.24,50.00,7.00,0.00,30.00,M,10.00,M,CLR,M,M,M,M,M,M,M,M,M,M,M,M,M,M,90.57,KCXP 252310Z AUTO 05007KT 10SM CLR 36/M03 A3000 RMK AO2,M
LSV,2022-07-25 23:10,-115.0343,36.2362,570.00,77.00,M,M,90.00,5.00,0.00,29.93,1011.20,10.00,M,FEW,BKN,M,M,6500.00,10000.00,M,M,M,M,M,M,M,M,M,M,KLSV 252310Z 09005KT 10SM FEW065 BKN100 25/ A2993 RMK TSE10 SLP112 $,M
INS,2022-07-25 23:12,-115.6733,36.5872,955.00,82.40,62.60,51.21,140.00,13.00,0.00,29.98,1010.10,10.00,19.00,FEW,BKN,M,M,9000.00,12000.00,M,M,M,M,M,M,M,M,M,83.41,KINS 252312Z AUTO 14013G19KT 10SM FEW090 BKN120 28/17 A2998 RMK AO2 RAE04DZB04E12 SLP101 $,M
HTH,2022-07-25 23:15,-118.6315,38.5448,1282.89,96.80,35.60,11.86,30.00,10.00,0.00,29.94,M,10.00,M,CLR,M,M,M,M,M,M,M,M,M,M,M,M,M,M,91.72,KHTH 252315Z AUTO 03010KT 360V060 10SM CLR 36/02 A2994 RMK A01,M
BVU,2022-07-25 23:15,-114.8611,35.9475,671.00,M,M,M,M,M,0.00,M,M,M,M,M,M,M,M,M,M,M,M,M,M,M,M,M,M,M,M,KBVU 252315Z AUTO RMK AO2 PNO PWINO TSNO,M
RTS,2022-07-25 23:15,-119.8764,39.6682,1539.00,95.00,23.00,7.49,M,6.00,0.00,30.04,M,10.00,M,CLR,M,M,M,M,M,M,M,M,M,M,M,M,M,M,88.76,KRTS 252315Z AUTO VRB06KT 10SM CLR 35/M05 A3004 RMK AO2,M
MEV,2022-07-25 23:15,-119.7500,38.9963,1441.42,96.80,28.40,8.87,280.00,8.00,0.00,29.98,M,10.00,M,CLR,M,M,M,M,M,M,M,M,M,M,M,M,M,M,90.75,KMEV 252315Z AUTO 28008KT 10SM CLR 36/M02 A2998 RMK AO2,M
BAM,2022-07-25 23:15,-116.8743,40.5990,1382.36,M,M,M,340.00,8.00,0.00,30.00,M,10.00,15.00,CLR,M,M,M,M,M,M,M,M,M,M,M,M,M,M,M,KBAM 252315Z AUTO 34008G15KT 10SM CLR A3000 RMK AO1,M
TMT,2022-07-25 23:15,-117.1971,39.4643,1749.34,M,M,M,20.00,4.00,0.00,30.09,M,10.00,M,CLR,M,M,M,M,M,M,M,M,M,M,M,M,M,M,M,KTMT 252315Z AUTO 02004KT 10SM CLR A3009 RMK AO2,M
INS,2022-07-25 23:18,-115.6733,36.5872,955.00,82.40,62.60,51.21,140.00,14.00,0.00,29.98,1010.20,10.00,M,FEW,BKN,M,M,5500.00,12000.00,M,M,-RA,M,M,M,M,M,M,83.41,KINS 252318Z AUTO 14014KT 10SM -RA FEW055 BKN120 28/17 A2998 RMK AO2 RAE04DZB04E12RAB18 SLP102 $,M
BVU,2022-07-25 23:35,-114.8611,35.9475,671.00,M,M,M,M,M,0.00,M,M,M,M,M,M,M,M,M,M,M,M,M,M,M,M,M,M,M,M,KBVU 252335Z AUTO RMK AO2 PNO PWINO TSNO,M
CXP,2022-07-25 23:35,-119.7326,39.1923,1431.00,96.80,28.40,8.87,M,3.00,0.00,29.99,M,10.00,10.00,CLR,M,M,M,M,M,M,M,M,M,M,M,M,M,M,90.75,KCXP 252335Z AUTO VRB03G10KT 10SM CLR 36/M02 A2999 RMK AO2,M
RTS,2022-07-25 23:35,-119.8764,39.6682,1539.00,93.20,23.00,7.92,0.00,0.00,0.00,30.03,M,10.00,M,CLR,M,M,M,M,M,M,M,M,M,M,M,M,M,M,87.42,KRTS 252335Z AUTO 00000KT 10SM CLR 34/M05 A3003 RMK AO2,M
HTH,2022-07-25 23:35,-118.6315,38.5448,1282.89,98.60,37.40,12.05,50.00,9.00,0.00,29.93,M,10.00,14.00,CLR,M,M,M,M,M,M,M,M,M,M,M,M,M,M,93.54,KHTH 252335Z AUTO 05009G14KT 10SM CLR 37/03 A2993 RMK A01,M
05U,2022-07-25 23:35,-116.0051,39.6042,1811.23,86.00,42.80,22.02,150.00,12.00,0.00,30.12,M,10.00,M,CLR,M,M,M,M,M,M,M,M,M,M,M,M,M,M,82.95,K05U 252335Z AUTO 15012KT 10SM CLR 30/06 A3012 RMK A01,M
TMT,2022-07-25 23:35,-117.1971,39.4643,1749.34,M,M,M,10.00,8.00,0.00,30.08,M,10.00,M,CLR,M,M,M,M,M,M,M,M,M,M,M,M,M,M,M,KTMT 252335Z AUTO 01008KT 10SM CLR A3008 RMK AO2,M
BAM,2022-07-25 23:35,-116.8743,40.5990,1382.36,M,M,M,320.00,10.00,0.00,30.00,M,10.00,18.00,CLR,M,M,M,M,M,M,M,M,M,M,M,M,M,M,M,KBAM 252335Z AUTO 32010G18KT 10SM CLR A3000 RMK AO1,M
MEV,2022-07-25 23:35,-119.7500,38.9963,1441.42,96.80,28.40,8.87,310.00,7.00,0.00,29.98,M,10.00,M,CLR,M,M,M,M,M,M,M,M,M,M,M,M,M,M,90.75,KMEV 252335Z AUTO 31007KT 270V330 10SM CLR 36/M02 A2998 RMK AO2,M
LOL,2022-07-25 23:53,-118.5701,40.0684,1192.43,101.00,24.10,6.56,80.00,5.00,0.00,29.91,1007.30,10.00,M,CLR,M,M,M,M,M,M,M,M,M,M,M,M,M,M,93.76,KLOL 252353Z AUTO 08005KT 10SM CLR 38/M04 A2991 RMK AO2 SLP073 T03831044 10394 20333 56022,M
ELY,2022-07-25 23:53,-114.8453,39.2950,1909.00,72.00,51.00,47.72,230.00,9.00,T,30.19,1013.60,10.00,M,OVC,M,M,M,10000.00,M,M,M,-RA,M,M,M,M,M,M,72.00,KELY 252353Z AUTO 23009KT 10SM -RA OVC100 22/11 A3019 RMK AO2 LTG DSNT NW RAB43 SLP136 P0000 60000 T02220106 10311 20217 51005,M
DRA,2022-07-25 23:53,-116.0278,36.6206,1009.00,81.00,59.00,47.17,230.00,6.00,0.00,29.99,1010.30,10.00,M,CLR,M,M,M,M,M,M,M,M,M,M,M,M,M,M,81.40,KDRA 252353Z AUTO 23006KT 10SM CLR 27/15 A2999 RMK AO2 SLP103 60011 T02720150 10283 20222 56019,M
P68,2022-07-25 23:53,-116.0056,39.6014,1993.00,85.00,42.00,22.20,160.00,12.00,0.00,30.09,1009.20,M,M,M,M,M,M,M,M,M,M,M,M,M,M,M,M,M,82.08,KP68 252353Z AUTO 16012KT 29/06 A3009 RMK AO1 SLP092 T02940056 10328 20289 58010,M
VGT,2022-07-25 23:53,-115.1933,36.2111,667.00,83.00,64.00,52.93,0.00,0.00,0.00,29.93,1012.40,10.00,M,CLR,M,M,M,M,M,M,M,M,M,M,M,M,M,M,84.32,KVGT 252353Z 00000KT 10SM CLR 28/18 A2993 RMK AO2 RAE2254 SLP124 6//// T02830178 10367 20256 50008 PNO $,M
RNO,2022-07-25 23:55,-119.7711,39.4839,1341.00,99.00,32.00,9.60,330.00,5.00,0.00,29.95,1007.10,10.00,M,SCT,M,M,M,13000.00,M,M,M,M,M,M,M,M,M,M,93.03,KRNO 252355Z 33005KT 10SM SCT130 37/00 A2995 RMK AO2 SLP071 HZ ALQDS T03720000 10383 20311 56021,M
BVU,2022-07-25 23:55,-114.8611,35.9475,671.00,M,M,M,M,M,0.00,M,M,M,M,M,M,M,M,M,M,M,M,M,M,M,M,M,M,M,M,KBVU 252355Z AUTO RMK AO2 PNO PWINO TSNO,M
MEV,2022-07-25 23:55,-119.7500,38.9963,1441.42,96.80,28.40,8.87,260.00,9.00,0.00,29.97,M,10.00,M,CLR,M,M,M,M,M,M,M,M,M,M,M,M,M,M,90.75,KMEV 252355Z AUTO 26009KT 10SM CLR 36/M02 A2997 RMK AO2,M
05U,2022-07-25 23:55,-116.0051,39.6042,1811.23,86.00,42.80,22.02,160.00,10.00,0.00,30.11,M,10.00,M,CLR,M,M,M,M,M,M,M,M,M,M,M,M,M,M,82.95,K05U 252355Z AUTO 16010KT 10SM CLR 30/06 A3011 RMK A01,M
BAM,2022-07-25 23:55,-116.8743,40.5990,1382.36,M,M,M,340.00,11.00,0.00,29.99,M,10.00,M,CLR,M,M,M,M,M,M,M,M,M,M,M,M,M,M,M,KBAM 252355Z AUTO 34011KT 10SM CLR A2999 RMK AO1,M
TMT,2022-07-25 23:55,-117.1971,39.4643,1749.34,M,M,M,310.00,4.00,0.00,30.08,M,10.00,M,CLR,M,M,M,M,M,M,M,M,M,M,M,M,M,M,M,KTMT 252355Z AUTO 31004KT 10SM CLR A3008 RMK AO2,M
HTH,2022-07-25 23:55,-118.6315,38.5448,1282.89,98.60,35.60,11.23,40.00,9.00,0.00,29.93,M,10.00,M,CLR,M,M,M,M,M,M,M,M,M,M,M,M,M,M,93.23,KHTH 252355Z AUTO 04009KT 10SM CLR 37/02 A2993 RMK A01,M
RTS,2022-07-25 23:55,-119.8764,39.6682,1539.00,93.20,23.00,7.92,M,6.00,0.00,30.03,M,10.00,14.00,CLR,M,M,M,M,M,M,M,M,M,M,M,M,M,M,87.42,KRTS 252355Z AUTO VRB06G14KT 10SM CLR 34/M05 A3003 RMK AO2,M
CXP,2022-07-25 23:55,-119.7326,39.1923,1431.00,98.60,26.60,7.80,M,5.00,0.00,29.99,M,10.00,13.00,CLR,M,M,M,M,M,M,M,M,M,M,M,M,M,M,92.07,KCXP 252355Z AUTO VRB05G13KT 10SM CLR 37/M03 A2999 RMK AO2,M
WMC,2022-07-25 23:56,-117.8072,40.9019,1315.00,99.00,24.10,6.94,20.00,12.00,0.00,29.97,1008.70,10.00,20.00,CLR,M,M,M,M,M,M,M,M,M,M,M,M,M,M,92.17,KWMC 252356Z AUTO 02012G20KT 10SM CLR 37/M04 A2997 RMK AO2 SLP087 T03721044 10383 20322 56017,M
TPH,2022-07-25 23:56,-117.0904,38.0505,1654.00,88.00,44.00,21.72,M,5.00,0.00,30.08,1009.40,10.00,14.00,CLR,M,M,M,M,M,M,M,M,M,M,M,M,M,M,84.65,KTPH 252356Z AUTO VRB05G14KT 10SM CLR 31/07 A3008 RMK AO2 SLP094 T03110067 10322 20272 56018,M
HND,2022-07-25 23:56,-115.1344,35.9729,742.79,81.00,67.00,62.28,120.00,4.00,T,29.98,1013.70,10.00,M,CLR,M,M,M,M,M,M,M,M,M,M,M,M,M,M,83.40,KHND 252356Z 12004KT 10SM CLR 27/19 A2998 RMK AO2 RAE22 SLP137 P0000 60000 T02720194 10344 20267 58008,M
NFL,2022-07-25 23:56,-118.7010,39.4166,1199.00,100.00,30.00,8.59,320.00,8.00,0.00,29.91,1010.10,10.00,M,SCT,SCT,SCT,M,8000.00,12000.00,25000.00,M,M,M,M,M,M,M,M,93.61,KNFL 252356Z 32008KT 10SM SCT080 SCT120 SCT250 38/M01 A2991 RMK AO2 SLP101 T03781011 10383 20311 56023,M
EKO,2022-07-25 23:56,-115.7860,40.8242,1367.00,97.00,23.00,7.05,300.00,8.00,0.00,30.01,1009.50,10.00,17.00,CLR,M,M,M,M,M,M,M,M,M,M,M,M,M,M,90.41,KEKO 252356Z AUTO 30008G17KT 10SM CLR 36/M05 A3001 RMK AO2 SLP095 T03611050 10372 20300 56015,M
LAS,2022-07-25 23:56,-115.1634,36.0719,663.00,82.00,67.00,60.28,100.00,3.00,0.00,29.94,1011.10,10.00,M,FEW,SCT,BKN,BKN,7000.00,8000.00,15000.00,22000.00,TS,M,M,M,M,M,M,84.48,KLAS 252356Z 10003KT 10SM TS FEW070 SCT080CB BKN150 BKN220 28/19 A2994 RMK AO2 SLP111 OCNL LTGIC SE-S TS SE-S MOV NW VCSH E-S CB DSNT N-E-S 60003 T02780194 10350 20261 58002,M
LSV,2022-07-25 23:58,-115.0343,36.2362,570.00,81.50,81.00,98.71,230.00,4.00,0.00,29.91,1010.40,10.00,M,FEW,BKN,M,M,12000.00,19000.00,M,M,M,M,M,M,M,M,M,93.78,KLSV 252358Z 23004KT 10SM FEW120 BKN190 27/27 A2991 RMK TSB2021E2310 SLP104 60081 T02750273 58007,M
INS,2022-07-25 23:58,-115.6733,36.5872,955.00,84.70,56.30,37.97,150.00,6.00,T,29.96,1009.50,10.00,M,OVC,M,M,M,12000.00,M,M,M,M,M,M,M,M,M,M,83.67,KINS 252358Z AUTO 15006KT 10SM OVC120 29/14 A2996 RMK AO2 RAE04DZB04E12RAB18E23 SLP095 P0000 60000 T02930135 10312 20277 57012 $,M
