station,valid,lon,lat,elevation,tmpf,dwpf,relh,drct,sknt,p01i,alti,mslp,vsby,gust,skyc1,skyc2,skyc3,skyc4,skyl1,skyl2,skyl3,skyl4,wxcodes,ice_accretion_1hr,ice_accretion_3hr,ice_accretion_6hr,peak_wind_gust,peak_wind_drct,peak_wind_time,feel,metar,snowdepth
10U,2023-10-01 00:00,-116.1876,41.9532,1637.00,48.20,44.60,87.28,20.00,4.00,0.00,29.82,M,10.00,M,OVC,M,M,M,2300.00,M,M,M,M,M,M,M,M,M,M,46.34,K10U 010000Z AUTO 02004KT 10SM OVC023 09/07 A2982 RMK AO2,M
05U,2023-10-01 00:10,-116.0051,39.6042,1811.23,42.80,39.20,86.99,300.00,5.00,0.00,29.87,M,7.00,M,BKN,BKN,BKN,M,3100.00,3800.00,4500.00,M,M,M,M,M,M,M,M,39.22,K05U 010010Z AUTO 30005KT 7SM BKN031 BKN038 BKN045 06/04 A2987 RMK A01,M
BVU,2023-10-01 00:15,-114.8611,35.9475,671.00,69.80,37.40,30.49,230.00,12.00,0.00,29.68,M,10.00,19.00,CLR,M,M,M,M,M,M,M,M,M,M,M,M,M,M,69.80,KBVU 010015Z AUTO 23012G19KT 10SM CLR 21/03 A2968 RMK AO2,M
CXP,2023-10-01 00:15,-119.7326,39.1923,1431.00,53.60,41.00,62.23,330.00,12.00,0.00,29.81,M,10.00,M,FEW,BKN,OVC,M,4400.00,5500.00,6500.00,M,M,M,M,M,M,M,M,53.60,KCXP 010015Z AUTO 33012KT 10SM FEW044 BKN055 OVC065 12/05 A2981 RMK AO2,M
RTS,2023-10-01 00:15,-119.8764,39.6682,1539.00,50.00,35.60,57.52,280.00,14.00,0.00,29.83,M,10.00,M,FEW,SCT,OVC,M,5500.00,7000.00,10000.00,M,M,M,M,M,M,M,M,50.00,KRTS 010015Z AUTO 28014KT 10SM FEW055 SCT070 OVC100 10/02 A2983 RMK AO2,M
MEV,2023-10-01 00:15,-119.7500,38.9963,1441.42,53.60,39.20,58.02,290.00,7.00,0.00,29.79,M,10.00,M,SCT,OVC,M,M,4600.00,5500.00,M,M,M,M,M,M,M,M,M,53.60,KMEV 010015Z AUTO 29007KT 250V320 10SM SCT046 OVC055 12/04 A2979 RMK AO2,M
BAM,2023-10-01 00:15,-116.8743,40.5990,1382.36,51.80,46.40,81.74,0.00,0.00,0.00,29.81,M,10.00,M,BKN,OVC,M,M,5000.00,6000.00,M,M,M,M,M,M,M,M,M,51.80,KBAM 010015Z AUTO 00000KT 10SM BKN050 OVC060 11/08 A2981 RMK AO1,M
HTH,2023-10-01 00:15,-118.6315,38.5448,1282.89,50.00,46.40,87.37,300.00,6.00,0.00,29.82,M,1.75,M,FEW,SCT,BKN,M,300.00,2800.00,3200.00,M,HZ,M,M,M,M,M,M,50.00,KHTH 010015Z AUTO 30006KT 1 3/4SM HZ FEW003 SCT028 BKN032 10/08 A2982 RMK A01,M
TMT,2023-10-01 00:15,-117.1971,39.4643,1749.34,47.30,40.50,77.12,0.00,0.00,0.00,29.83,M,10.00,M,BKN,OVC,M,M,7000.00,8000.00,M,M,M,M,M,M,M,M,M,47.30,KTMT 010015Z AUTO 00000KT 10SM BKN070 OVC080 09/05 A2983 RMK AO2 T00850047,M
10U,2023-10-01 00:20,-116.1876,41.9532,1637.00,48.20,44.60,87.28,30.00,5.00,0.00,29.82,M,10.00,M,OVC,M,M,M,2200.00,M,M,M,M,M,M,M,M,M,M,45.63,K10U 010020Z AUTO 03005KT 10SM OVC022 09/07 A2982 RMK AO2,M
05U,2023-10-01 00:30,-116.0051,39.6042,1811.23,41.00,39.20,93.24,280.00,5.00,0.00,29.87,M,4.00,M,FEW,BKN,BKN,M,2500.00,3100.00,3900.00,M,BR,M,M,M,M,M,M,37.08,K05U 010030Z AUTO 28005KT 4SM BR FEW025 BKN031 BKN039 05/04 A2987 RMK A01,M
BVU,2023-10-01 00:35,-114.8611,35.9475,671.00,69.80,37.40,30.49,220.00,10.00,0.00,29.68,M,10.00,M,CLR,M,M,M,M,M,M,M,M,M,M,M,M,M,M,69.80,KBVU 010035Z AUTO 22010KT 10SM CLR 21/03 A2968 RMK AO2,M
CXP,2023-10-01 00:35,-119.7326,39.1923,1431.00,51.80,41.00,66.48,340.00,11.00,0.00,29.82,M,9.00,16.00,FEW,SCT,BKN,M,4300.00,6500.00,10000.00,M,VCTS RA,M,M,M,M,M,M,51.80,KCXP 010035Z AUTO 34011G16KT 9SM VCTS RA FEW043 SCT065 BKN100 11/05 A2982 RMK AO2 LTG DSNT N,M
RTS,2023-10-01 00:35,-119.8764,39.6682,1539.00,50.00,35.60,57.52,280.00,13.00,0.00,29.83,M,10.00,M,SCT,BKN,M,M,7000.00,10000.00,M,M,M,M,M,M,M,M,M,50.00,KRTS 010035Z AUTO 28013KT 10SM SCT070 BKN100 10/02 A2983 RMK AO2,M
MEV,2023-10-01 00:35,-119.7500,38.9963,1441.42,51.80,41.00,66.48,260.00,9.00,0.00,29.80,M,10.00,M,FEW,FEW,OVC,M,3300.00,4400.00,5000.00,M,VCTS,M,M,M,M,M,M,51.80,KMEV 010035Z AUTO 26009KT 10SM VCTS FEW033 FEW044 OVC050 11/05 A2980 RMK AO2,M
BAM,2023-10-01 00:35,-116.8743,40.5990,1382.36,51.80,46.40,81.74,0.00,0.00,0.00,29.81,M,10.00,M,OVC,M,M,M,5000.00,M,M,M,M,M,M,M,M,M,M,51.80,KBAM 010035Z AUTO 00000KT 10SM OVC050 11/08 A2981 RMK AO1,M
HTH,2023-10-01 00:35,-118.6315,38.5448,1282.89,50.00,46.40,87.37,290.00,8.00,0.00,29.82,M,4.00,M,FEW,BKN,OVC,M,2800.00,3300.00,4600.00,M,BR,M,M,M,M,M,M,50.00,KHTH 010035Z AUTO 29008KT 4SM BR FEW028 BKN033 OVC046 10/08 A2982 RMK A01,M
TMT,2023-10-01 00:35,-117.1971,39.4643,1749.34,47.00,41.00,79.52,0.00,0.00,0.00,29.83,M,10.00,M,OVC,M,M,M,6000.00,M,M,M,VCTS,M,M,M,M,M,M,47.00,KTMT 010035Z AUTO 00000KT 10SM VCTS OVC060 08/05 A2983 RMK AO2 LTG DSNT NW T00830050,M
WMC,2023-10-01 00:38,-117.8072,40.9019,1315.00,51.00,46.00,82.93,50.00,7.00,0.05,29.80,M,2.50,M,BKN,OVC,M,M,3900.00,4900.00,M,M,RA,M,M,M,M,M,M,51.00,KWMC 010038Z AUTO 05007KT 2 1/2SM RA BKN039 OVC049 11/08 A2980 RMK AO2 P0005 T01060078,M
10U,2023-10-01 00:40,-116.1876,41.9532,1637.00,48.20,44.60,87.28,0.00,0.00,0.00,29.84,M,9.00,M,OVC,M,M,M,2200.00,M,M,M,-DZ,M,M,M,M,M,M,48.20,K10U 010040Z AUTO 00000KT 9SM -DZ OVC022 09/07 A2984 RMK AO2 LTG DSNT SE AND W,M
05U,2023-10-01 00:50,-116.0051,39.6042,1811.23,41.00,39.20,93.24,270.00,5.00,0.00,29.86,M,8.00,M,SCT,BKN,BKN,M,3400.00,4500.00,5500.00,M,M,M,M,M,M,M,M,37.08,K05U 010050Z AUTO 27005KT 8SM SCT034 BKN045 BKN055 05/04 A2986 RMK A01,M
P68,2023-10-01 00:53,-116.0056,39.6014,1993.00,41.00,39.00,92.52,110.00,6.00,0.03,29.84,1007.00,M,M,M,M,M,M,M,M,M,M,M,M,M,M,M,M,M,36.37,KP68 010053Z AUTO 11006KT 05/04 A2984 RMK AO1 SLP070 P0003 T00500039,M
DRA,2023-10-01 00:53,-116.0278,36.6206,1009.00,64.00,40.00,41.25,200.00,12.00,0.00,29.72,1002.70,10.00,17.00,BKN,M,M,M,6500.00,M,M,M,M,M,M,M,27.00,170.00,2023-09-30 23:56,64.00,KDRA 010053Z AUTO 20012G17KT 10SM BKN065 18/04 A2972 RMK AO2 PK WND 17027/2356 SLP027 T01780044,M
ELY,2023-10-01 00:53,-114.8453,39.2950,1909.00,54.00,32.00,42.98,180.00,3.00,0.00,29.79,1002.00,10.00,M,CLR,M,M,M,M,M,M,M,M,M,M,M,M,M,M,54.00,KELY 010053Z AUTO 18003KT 10SM CLR 12/00 A2979 RMK AO2 SLP020 T01220000,M
VGT,2023-10-01 00:53,-115.1933,36.2111,667.00,72.00,42.00,33.84,180.00,6.00,0.00,29.66,1004.00,10.00,M,CLR,M,M,M,M,M,M,M,M,M,M,M,M,M,M,72.00,KVGT 010053Z 18006KT 10SM CLR 22/06 A2966 RMK AO2 SLP040 T02220056,M
LOL,2023-10-01 00:53,-118.5701,40.0684,1192.43,54.00,43.00,66.24,140.00,4.00,T,29.77,1006.70,8.00,M,OVC,M,M,M,6000.00,M,M,M,-RA,M,M,M,M,M,M,54.00,KLOL 010053Z AUTO 14004KT 8SM -RA OVC060 12/06 A2977 RMK AO2 RAB52 SLP067 P0000 T01220061,M
BVU,2023-10-01 00:55,-114.8611,35.9475,671.00,69.80,37.40,30.49,200.00,6.00,0.00,29.67,M,10.00,M,BKN,M,M,M,11000.00,M,M,M,M,M,M,M,M,M,M,69.80,KBVU 010055Z AUTO 20006KT 10SM BKN110 21/03 A2967 RMK AO2,M
CXP,2023-10-01 00:55,-119.7326,39.1923,1431.00,51.80,42.80,71.26,340.00,6.00,0.00,29.82,M,10.00,M,FEW,BKN,OVC,M,4300.00,5000.00,10000.00,M,-RA,M,M,M,M,M,M,51.80,KCXP 010055Z AUTO 34006KT 10SM -RA FEW043 BKN050 OVC100 11/06 A2982 RMK AO2,M
RNO,2023-10-01 00:55,-119.7711,39.4839,1341.00,56.00,37.00,48.77,310.00,10.00,0.00,29.80,1006.30,10.00,M,BKN,BKN,BKN,M,6000.00,11000.00,15000.00,M,M,M,M,M,M,M,M,56.00,KRNO 010055Z 31010KT 10SM BKN060 BKN110 BKN150 13/03 A2980 RMK AO2 SLP063 SH VC N AND SE T01330028,M
RTS,2023-10-01 00:55,-119.8764,39.6682,1539.00,50.00,35.60,57.52,290.00,12.00,0.00,29.84,M,10.00,18.00,SCT,BKN,BKN,M,7000.00,10000.00,12000.00,M,M,M,M,M,M,M,M,50.00,KRTS 010055Z AUTO 29012G18KT 10SM SCT070 BKN100 BKN120 10/02 A2984 RMK AO2,M
MEV,2023-10-01 00:55,-119.7500,38.9963,1441.42,51.80,41.00,66.48,260.00,4.00,0.00,29.80,M,10.00,10.00,BKN,OVC,M,M,4600.00,5500.00,M,M,M,M,M,M,M,M,M,51.80,KMEV 010055Z AUTO 26004G10KT 10SM BKN046 OVC055 11/05 A2980 RMK AO2,M
BAM,2023-10-01 00:55,-116.8743,40.5990,1382.36,51.80,46.40,81.74,0.00,0.00,0.00,29.81,M,10.00,M,BKN,OVC,M,M,6000.00,7000.00,M,M,M,M,M,M,M,M,M,51.80,KBAM 010055Z AUTO 00000KT 10SM BKN060 OVC070 11/08 A2981 RMK AO1,M
HTH,2023-10-01 00:55,-118.6315,38.5448,1282.89,48.20,46.40,93.45,240.00,7.00,0.10,29.83,M,5.00,M,SCT,OVC,M,M,3400.00,4400.00,M,M,BR,M,M,M,M,M,M,44.53,KHTH 010055Z AUTO 24007KT 5SM BR SCT034 OVC044 09/08 A2983 RMK A01 P0010,M
TMT,2023-10-01 00:55,-117.1971,39.4643,1749.34,46.00,41.40,83.87,50.00,5.00,0.00,29.83,M,10.00,M,OVC,M,M,M,6000.00,M,M,M,M,M,M,M,M,M,M,43.02,KTMT 010055Z AUTO 05005KT 10SM OVC060 08/05 A2983 RMK AO2 T00770052,M
INS,2023-10-01 00:55,-115.6733,36.5872,955.00,67.00,35.40,31.02,240.00,8.00,0.00,29.68,1001.20,10.00,M,BKN,OVC,M,M,13000.00,18000.00,M,M,M,M,M,M,M,M,M,67.00,KINS 010055Z AUTO 24008KT 10SM BKN130 OVC180 20/02 A2968 RMK AO2 SLP012 T01950019 $,M
LSV,2023-10-01 00:55,-115.0343,36.2362,570.00,71.00,40.30,32.78,230.00,13.00,0.00,29.63,1001.60,10.00,M,CLR,M,M,M,M,M,M,M,M,M,M,M,M,M,M,71.00,KLSV 010055Z AUTO 23013KT 10SM CLR 22/05 A2963 RMK AO2 SLP016 T02160046 $,M
EKO,2023-10-01 00:56,-115.7860,40.8242,1367.00,49.00,45.00,86.00,190.00,5.00,0.02,29.81,1007.30,10.00,M,BKN,OVC,M,M,5000.00,5500.00,M,M,M,M,M,M,M,M,M,46.58,KEKO 010056Z AUTO 19005KT 10SM BKN050 OVC055 09/07 A2981 RMK AO2 RAE56 SLP073 P0002 T00940072 $,M
WMC,2023-10-01 00:56,-117.8072,40.9019,1315.00,51.00,48.00,89.42,50.00,11.00,0.09,29.79,1007.10,3.00,M,BKN,OVC,M,M,4600.00,6000.00,M,M,-RA BR,M,M,M,M,M,M,51.00,KWMC 010056Z AUTO 05011KT 3SM -RA BR BKN046 OVC060 11/09 A2979 RMK AO2 SLP071 P0009 T01060089,M
NFL,2023-10-01 00:56,-118.7010,39.4166,1199.00,50.00,46.00,86.06,0.00,0.00,0.01,29.78,1006.20,10.00,M,FEW,BKN,OVC,M,6000.00,7500.00,9000.00,M,M,M,M,M,M,M,M,50.00,KNFL 010056Z AUTO 00000KT 10SM FEW060 BKN075 OVC090 10/08 A2978 RMK AO2 SLP062 P0001 T01000078,M
HND,2023-10-01 00:56,-115.1344,35.9729,742.79,68.00,41.00,37.32,220.00,17.00,0.00,29.70,1005.50,10.00,M,CLR,M,M,M,M,M,M,M,M,M,M,M,M,M,M,68.00,KHND 010056Z 22017KT 10SM CLR 20/05 A2970 RMK AO2 SLP055 T02000050,M
TPH,2023-10-01 00:56,-117.0904,38.0505,1654.00,44.00,40.00,85.71,0.00,0.00,0.09,29.83,1007.00,10.00,M,BKN,OVC,M,M,5000.00,6500.00,M,M,-RA,M,M,M,M,M,M,44.00,KTPH 010056Z AUTO 00000KT 10SM -RA BKN050 OVC065 07/04 A2983 RMK AO2 SLP070 P0009 T00670044,M
LAS,2023-10-01 00:56,-115.1634,36.0719,663.00,69.00,41.00,36.06,200.00,11.00,0.00,29.67,1002.70,10.00,24.00,FEW,SCT,BKN,BKN,8000.00,12000.00,14000.00,20000.00,M,M,M,M,27.00,210.00,2023-10-01 00:22,69.00,KLAS 010056Z 20011G24KT 10SM FEW080 SCT120 BKN140 BKN200 21/05 A2967 RMK AO2 PK WND 21027/0022 SLP027 T02060050,M
10U,2023-10-01 01:00,-116.1876,41.9532,1637.00,48.20,44.60,87.28,20.00,6.00,0.00,29.83,M,10.00,M,OVC,M,M,M,2300.00,M,M,M,M,M,M,M,M,M,M,45.04,K10U 010100Z AUTO 02006KT 10SM OVC023 09/07 A2983 RMK AO2,M
05U,2023-10-01 01:10,-116.0051,39.6042,1811.23,41.00,39.20,93.24,260.00,4.00,0.00,29.86,M,8.00,M,SCT,BKN,OVC,M,2800.00,3400.00,5000.00,M,M,M,M,M,M,M,M,37.93,K05U 010110Z AUTO 26004KT 8SM SCT028 BKN034 OVC050 05/04 A2986 RMK A01,M
BVU,2023-10-01 01:15,-114.8611,35.9475,671.00,69.80,37.40,30.49,200.00,5.00,0.00,29.67,M,10.00,M,FEW,OVC,M,M,8000.00,11000.00,M,M,M,M,M,M,M,M,M,69.80,KBVU 010115Z AUTO 20005KT 10SM FEW080 OVC110 21/03 A2967 RMK AO2,M
CXP,2023-10-01 01:15,-119.7326,39.1923,1431.00,51.80,42.80,71.26,360.00,5.00,0.00,29.82,M,10.00,M,FEW,OVC,M,M,4400.00,5000.00,M,M,M,M,M,M,M,M,M,51.80,KCXP 010115Z AUTO 36005KT 10SM FEW044 OVC050 11/06 A2982 RMK AO2,M
RTS,2023-10-01 01:15,-119.8764,39.6682,1539.00,50.00,35.60,57.52,280.00,12.00,0.00,29.84,M,10.00,M,BKN,OVC,M,M,7000.00,9500.00,M,M,M,M,M,M,M,M,M,50.00,KRTS 010115Z AUTO 28012KT 10SM BKN070 OVC095 10/02 A2984 RMK AO2,M
MEV,2023-10-01 01:15,-119.7500,38.9963,1441.42,51.80,41.00,66.48,30.00,6.00,0.00,29.81,M,10.00,12.00,FEW,BKN,OVC,M,3700.00,4500.00,8000.00,M,M,M,M,M,M,M,M,51.80,KMEV 010115Z AUTO 03006G12KT 10SM FEW037 BKN045 OVC080 11/05 A2981 RMK AO2,M
BAM,2023-10-01 01:15,-116.8743,40.5990,1382.36,51.80,46.40,81.74,0.00,0.00,0.00,29.81,M,10.00,M,SCT,BKN,OVC,M,6500.00,7500.00,8500.00,M,M,M,M,M,M,M,M,51.80,KBAM 010115Z AUTO 00000KT 10SM SCT065 BKN075 OVC085 11/08 A2981 RMK AO1,M
HTH,2023-10-01 01:15,-118.6315,38.5448,1282.89,48.20,46.40,93.45,220.00,5.00,0.00,29.83,M,5.00,M,FEW,OVC,M,M,3300.00,4400.00,M,M,BR,M,M,M,M,M,M,45.63,KHTH 010115Z AUTO 22005KT 5SM BR FEW033 OVC044 09/08 A2983 RMK A01,M
TMT,2023-10-01 01:15,-117.1971,39.4643,1749.34,45.00,40.30,83.48,40.00,4.00,0.00,29.83,M,10.00,M,OVC,M,M,M,6000.00,M,M,M,M,M,M,M,M,M,M,42.60,KTMT 010115Z AUTO 04004KT 10SM OVC060 07/05 A2983 RMK AO2 LTG DSNT NW T00720046,M
10U,2023-10-01 01:20,-116.1876,41.9532,1637.00,48.20,44.60,87.28,360.00,6.00,0.00,29.83,M,10.00,M,OVC,M,M,M,2100.00,M,M,M,M,M,M,M,M,M,M,45.04,K10U 010120Z AUTO 36006KT 10SM OVC021 09/07 A2983 RMK AO2,M
05U,2023-10-01 01:30,-116.0051,39.6042,1811.23,41.00,39.20,93.24,300.00,3.00,0.00,29.86,M,10.00,M,SCT,BKN,BKN,M,3100.00,4000.00,4700.00,M,M,M,M,M,M,M,M,38.98,K05U 010130Z AUTO 30003KT 10SM SCT031 BKN040 BKN047 05/04 A2986 RMK A01,M
BVU,2023-10-01 01:35,-114.8611,35.9475,671.00,69.80,39.20,32.72,220.00,11.00,0.00,29.66,M,10.00,M,BKN,M,M,M,10000.00,M,M,M,M,M,M,M,M,M,M,69.80,KBVU 010135Z AUTO 22011KT 10SM BKN100 21/04 A2966 RMK AO2,M
CXP,2023-10-01 01:35,-119.7326,39.1923,1431.00,51.80,42.80,71.26,100.00,3.00,0.00,29.83,M,10.00,M,FEW,BKN,OVC,M,4300.00,5500.00,6500.00,M,M,M,M,M,M,M,M,51.80,KCXP 010135Z AUTO 10003KT 10SM FEW043 BKN055 OVC065 11/06 A2983 RMK AO2,M
RTS,2023-10-01 01:35,-119.8764,39.6682,1539.00,48.20,35.60,61.52,280.00,10.00,0.00,29.84,M,10.00,M,BKN,BKN,OVC,M,6500.00,8000.00,9000.00,M,M,M,M,M,M,M,M,43.28,KRTS 010135Z AUTO 28010KT 10SM BKN065 BKN080 OVC090 09/02 A2984 RMK AO2,M
MEV,2023-10-01 01:35,-119.7500,38.9963,1441.42,51.80,41.00,66.48,60.00,3.00,0.00,29.81,M,10.00,M,FEW,SCT,BKN,M,3400.00,4800.00,7000.00,M,M,M,M,M,M,M,M,51.80,KMEV 010135Z AUTO 06003KT 10SM FEW034 SCT048 BKN070 11/05 A2981 RMK AO2,M
BAM,2023-10-01 01:35,-116.8743,40.5990,1382.36,51.80,48.20,87.47,110.00,3.00,0.00,29.81,M,10.00,M,OVC,M,M,M,7500.00,M,M,M,M,M,M,M,M,M,M,51.80,KBAM 010135Z AUTO 11003KT 10SM OVC075 11/09 A2981 RMK AO1,M
HTH,2023-10-01 01:35,-118.6315,38.5448,1282.89,48.20,44.60,87.28,240.00,7.00,0.00,29.83,M,5.00,M,SCT,BKN,OVC,M,3500.00,4400.00,5000.00,M,HZ,M,M,M,M,M,M,44.53,KHTH 010135Z AUTO 24007KT 5SM HZ SCT035 BKN044 OVC050 09/07 A2983 RMK A01,M
TMT,2023-10-01 01:35,-117.1971,39.4643,1749.34,44.00,40.50,87.40,70.00,4.00,0.00,29.83,M,10.00,M,SCT,BKN,OVC,M,4500.00,6000.00,9500.00,M,M,M,M,M,M,M,M,41.43,KTMT 010135Z AUTO 07004KT 10SM SCT045 BKN060 OVC095 07/05 A2983 RMK AO2 T00670047,M
10U,2023-10-01 01:40,-116.1876,41.9532,1637.00,48.20,44.60,87.28,10.00,6.00,0.00,29.83,M,10.00,M,BKN,BKN,OVC,M,2100.00,2600.00,3800.00,M,M,M,M,M,M,M,M,45.04,K10U 010140Z AUTO 01006KT 10SM BKN021 BKN026 OVC038 09/07 A2983 RMK AO2,M
05U,2023-10-01 01:50,-116.0051,39.6042,1811.23,42.80,39.20,86.99,330.00,4.00,0.00,29.86,M,4.00,M,BKN,OVC,M,M,2800.00,3700.00,M,M,BR,M,M,M,M,M,M,40.03,K05U 010150Z AUTO 33004KT 4SM BR BKN028 OVC037 06/04 A2986 RMK A01,M
P68,2023-10-01 01:53,-116.0056,39.6014,1993.00,42.00,40.00,92.55,170.00,5.00,0.01,29.84,1006.80,M,M,M,M,M,M,M,M,M,M,M,M,M,M,M,M,M,38.27,KP68 010153Z AUTO 17005KT 06/04 A2984 RMK AO1 SLP068 P0001 T00560044,M
DRA,2023-10-01 01:53,-116.0278,36.6206,1009.00,63.00,41.00,44.41,200.00,12.00,0.00,29.72,1002.90,10.00,25.00,SCT,BKN,M,M,6500.00,7500.00,M,M,M,M,M,M,M,M,M,63.00,KDRA 010153Z AUTO 20012G25KT 10SM SCT065 BKN075 17/05 A2972 RMK AO2 SLP029 T01720050,M
ELY,2023-10-01 01:53,-114.8453,39.2950,1909.00,52.00,31.00,44.42,220.00,12.00,0.00,29.79,1002.90,10.00,26.00,BKN,OVC,M,M,7000.00,9000.00,M,M,M,M,M,M,26.00,220.00,2023-10-01 01:49,52.00,KELY 010153Z AUTO 22012G26KT 10SM BKN070 OVC090 11/M01 A2979 RMK AO2 PK WND 22026/0149 SLP029 T01111006,M
VGT,2023-10-01 01:53,-115.1933,36.2111,667.00,71.00,41.00,33.68,230.00,13.00,0.00,29.65,1003.80,10.00,19.00,CLR,M,M,M,M,M,M,M,M,M,M,M,M,M,M,71.00,KVGT 010153Z 23013G19KT 10SM CLR 22/05 A2965 RMK AO2 LTG DSNT S SLP038 T02170050,M
LOL,2023-10-01 01:53,-118.5701,40.0684,1192.43,52.00,44.00,74.07,200.00,7.00,0.01,29.77,1006.90,10.00,M,BKN,BKN,M,M,6000.00,8000.00,M,M,M,M,M,M,M,M,M,52.00,KLOL 010153Z AUTO 20007KT 10SM BKN060 BKN080 11/07 A2977 RMK AO2 RAE14 SLP069 P0001 T01110067,M
BVU,2023-10-01 01:55,-114.8611,35.9475,671.00,69.80,39.20,32.72,230.00,14.00,0.00,29.66,M,10.00,M,OVC,M,M,M,10000.00,M,M,M,M,M,M,M,M,M,M,69.80,KBVU 010155Z AUTO 23014KT 10SM OVC100 21/04 A2966 RMK AO2,M
CXP,2023-10-01 01:55,-119.7326,39.1923,1431.00,50.00,41.00,71.07,0.00,0.00,0.00,29.83,M,10.00,M,SCT,OVC,M,M,5500.00,7000.00,M,M,M,M,M,M,M,M,M,50.00,KCXP 010155Z AUTO 00000KT 10SM SCT055 OVC070 10/05 A2983 RMK AO2,M
INS,2023-10-01 01:55,-115.6733,36.5872,955.00,65.70,32.50,28.90,240.00,22.00,0.00,29.67,1000.90,10.00,27.00,BKN,M,M,M,17000.00,M,M,M,M,M,M,M,27.00,240.00,2023-10-01 01:49,65.70,KINS 010155Z AUTO 24022G27KT 10SM BKN170 19/00 A2967 RMK AO2 PK WND 24027/49 SLP009 T01870003 $,M
RNO,2023-10-01 01:55,-119.7711,39.4839,1341.00,54.00,40.00,58.99,290.00,7.00,0.01,29.81,1006.80,10.00,M,BKN,BKN,OVC,M,5500.00,10000.00,15000.00,M,M,M,M,M,M,M,M,54.00,KRNO 010155Z 29007KT 10SM BKN055 BKN100 OVC150 12/04 A2981 RMK AO2 RAB27E52 SLP068 P0001 T01220044,M
LSV,2023-10-01 01:55,-115.0343,36.2362,570.00,70.50,41.50,34.93,220.00,12.00,0.00,29.62,1001.20,10.00,M,SCT,M,M,M,12000.00,M,M,M,M,M,M,M,M,M,M,70.50,KLSV 010155Z AUTO 22012KT 10SM SCT120 21/05 A2962 RMK AO2 SLP012 T02140053 $,M
RTS,2023-10-01 01:55,-119.8764,39.6682,1539.00,48.20,37.40,66.05,320.00,6.00,0.00,29.84,M,10.00,14.00,BKN,OVC,M,M,6000.00,7000.00,M,M,M,M,M,M,M,M,M,45.04,KRTS 010155Z AUTO 32006G14KT 10SM BKN060 OVC070 09/03 A2984 RMK AO2,M
MEV,2023-10-01 01:55,-119.7500,38.9963,1441.42,50.00,42.80,76.18,0.00,0.00,0.00,29.81,M,10.00,M,BKN,OVC,M,M,3800.00,4600.00,M,M,M,M,M,M,M,M,M,50.00,KMEV 010155Z AUTO 00000KT 10SM BKN038 OVC046 10/06 A2981 RMK AO2,M
BAM,2023-10-01 01:55,-116.8743,40.5990,1382.36,51.80,48.20,87.47,80.00,3.00,0.00,29.81,M,10.00,M,BKN,BKN,OVC,M,4800.00,7500.00,8000.00,M,M,M,M,M,M,M,M,51.80,KBAM 010155Z AUTO 08003KT 10SM BKN048 BKN075 OVC080 11/09 A2981 RMK AO1,M
HTH,2023-10-01 01:55,-118.6315,38.5448,1282.89,48.20,44.60,87.28,260.00,7.00,0.07,29.83,M,8.00,M,FEW,OVC,M,M,3500.00,4400.00,M,M,M,M,M,M,M,M,M,44.53,KHTH 010155Z AUTO 26007KT 8SM FEW035 OVC044 09/07 A2983 RMK A01 P0007,M
TMT,2023-10-01 01:55,-117.1971,39.4643,1749.34,44.00,41.00,89.11,90.00,4.00,0.00,29.83,M,10.00,M,OVC,M,M,M,9500.00,M,M,M,M,M,M,M,M,M,M,41.43,KTMT 010155Z AUTO 09004KT 10SM OVC095 07/05 A2983 RMK AO2 T00670051,M
EKO,2023-10-01 01:56,-115.7860,40.8242,1367.00,48.00,45.00,89.29,190.00,4.00,T,29.80,1007.20,10.00,M,FEW,BKN,OVC,M,4700.00,6500.00,9500.00,M,M,M,M,M,M,M,M,46.10,KEKO 010156Z AUTO 19004KT 10SM FEW047 BKN065 OVC095 09/07 A2980 RMK AO2 RAB32E45 SLP072 P0000 T00890072 $,M
WMC,2023-10-01 01:56,-117.8072,40.9019,1315.00,49.00,45.00,86.00,360.00,6.00,0.08,29.81,1007.90,5.00,M,FEW,BKN,OVC,M,1700.00,4700.00,5500.00,M,RA BR,M,M,M,M,M,M,46.00,KWMC 010156Z AUTO 36006KT 5SM RA BR FEW017 BKN047 OVC055 09/07 A2981 RMK AO2 SLP079 P0008 T00940072,M
NFL,2023-10-01 01:56,-118.7010,39.4166,1199.00,51.00,45.00,79.84,150.00,4.00,0.00,29.78,1006.40,10.00,M,BKN,OVC,M,M,7000.00,8500.00,M,M,M,M,M,M,M,M,M,51.00,KNFL 010156Z AUTO 15004KT 10SM BKN070 OVC085 11/07 A2978 RMK AO2 SLP064 T01060072,M
HND,2023-10-01 01:56,-115.1344,35.9729,742.79,67.00,43.00,41.72,250.00,21.00,0.00,29.68,1005.00,10.00,28.00,CLR,M,M,M,M,M,M,M,M,M,M,M,28.00,240.00,2023-10-01 01:55,67.00,KHND 010156Z 25021G28KT 10SM CLR 19/06 A2968 RMK AO2 PK WND 24028/0155 LTG DSNT SE AND S SLP050 T01940061,M
TPH,2023-10-01 01:56,-117.0904,38.0505,1654.00,44.00,41.00,89.11,70.00,3.00,T,29.83,1007.30,10.00,M,OVC,M,M,M,3900.00,M,M,M,-RA,M,M,M,M,M,M,42.41,KTPH 010156Z AUTO 07003KT 10SM -RA OVC039 07/05 A2983 RMK AO2 SLP073 P0000 T00670050,M
LAS,2023-10-01 01:56,-115.1634,36.0719,663.00,69.00,41.00,36.06,230.00,17.00,0.00,29.66,1002.50,10.00,31.00,FEW,SCT,BKN,M,8000.00,14000.00,20000.00,M,M,M,M,M,31.00,240.00,2023-10-01 01:54,69.00,KLAS 010156Z 23017G31KT 10SM FEW080 SCT140 BKN200 21/05 A2966 RMK AO2 PK WND 24031/0154 LTG DSNT SE AND S SLP025 T02060050,M
10U,2023-10-01 02:00,-116.1876,41.9532,1637.00,46.40,44.60,93.40,360.00,7.00,0.00,29.83,M,7.00,M,FEW,SCT,OVC,M,2400.00,3400.00,4200.00,M,-RA,M,M,M,M,M,M,42.33,K10U 010200Z AUTO 36007KT 7SM -RA FEW024 SCT034 OVC042 08/07 A2983 RMK AO2,M
05U,2023-10-01 02:10,-116.0051,39.6042,1811.23,42.80,41.00,93.30,0.00,0.00,0.00,29.85,M,4.00,M,BKN,BKN,OVC,M,2800.00,3800.00,8500.00,M,BR,M,M,M,M,M,M,42.80,K05U 010210Z AUTO 00000KT 4SM BR BKN028 BKN038 OVC085 06/05 A2985 RMK A01,M
BVU,2023-10-01 02:15,-114.8611,35.9475,671.00,68.00,41.00,37.32,230.00,13.00,0.00,29.67,M,10.00,M,FEW,BKN,OVC,M,5500.00,7500.00,10000.00,M,M,M,M,M,M,M,M,68.00,KBVU 010215Z AUTO 23013KT 10SM FEW055 BKN075 OVC100 20/05 A2967 RMK AO2,M
CXP,2023-10-01 02:15,-119.7326,39.1923,1431.00,50.00,41.00,71.07,0.00,0.00,0.00,29.83,M,10.00,M,BKN,OVC,M,M,4200.00,7000.00,M,M,M,M,M,M,M,M,M,50.00,KCXP 010215Z AUTO 00000KT 10SM BKN042 OVC070 10/05 A2983 RMK AO2,M
RTS,2023-10-01 02:15,-119.8764,39.6682,1539.00,48.20,39.20,70.88,350.00,15.00,0.00,29.84,M,10.00,M,BKN,OVC,M,M,5000.00,6000.00,M,M,M,M,M,M,M,M,M,41.78,KRTS 010215Z AUTO 35015KT 10SM BKN050 OVC060 09/04 A2984 RMK AO2,M
MEV,2023-10-01 02:15,-119.7500,38.9963,1441.42,51.80,41.00,66.48,220.00,5.00,0.00,29.82,M,10.00,M,BKN,OVC,M,M,3700.00,4400.00,M,M,M,M,M,M,M,M,M,51.80,KMEV 010215Z AUTO 22005KT 10SM BKN037 OVC044 11/05 A2982 RMK AO2,M
BAM,2023-10-01 02:15,-116.8743,40.5990,1382.36,51.80,48.20,87.47,70.00,4.00,0.00,29.81,M,10.00,M,BKN,OVC,M,M,4600.00,9000.00,M,M,M,M,M,M,M,M,M,51.80,KBAM 010215Z AUTO 07004KT 10SM BKN046 OVC090 11/09 A2981 RMK AO1,M
HTH,2023-10-01 02:15,-118.6315,38.5448,1282.89,48.20,44.60,87.28,260.00,5.00,0.00,29.83,M,8.00,M,OVC,M,M,M,4600.00,M,M,M,M,M,M,M,M,M,M,45.63,KHTH 010215Z AUTO 26005KT 8SM OVC046 09/07 A2983 RMK A01,M
TMT,2023-10-01 02:15,-117.1971,39.4643,1749.34,44.80,42.30,90.88,130.00,3.00,0.00,29.83,M,10.00,M,OVC,M,M,M,8500.00,M,M,M,M,M,M,M,M,M,M,43.32,KTMT 010215Z AUTO 13003KT 10SM OVC085 07/06 A2983 RMK AO2 T00710057,M
10U,2023-10-01 02:20,-116.1876,41.9532,1637.00,46.40,44.60,93.40,10.00,6.00,0.00,29.83,M,5.00,12.00,FEW,BKN,OVC,M,2800.00,3800.00,4500.00,M,-RA,M,M,M,M,M,M,42.87,K10U 010220Z AUTO 01006G12KT 5SM -RA FEW028 BKN038 OVC045 08/07 A2983 RMK AO2,M
05U,2023-10-01 02:30,-116.0051,39.6042,1811.23,42.80,41.00,93.30,0.00,0.00,0.00,29.84,M,10.00,M,FEW,SCT,OVC,M,2700.00,6000.00,7500.00,M,M,M,M,M,M,M,M,42.80,K05U 010230Z AUTO 00000KT 10SM FEW027 SCT060 OVC075 06/05 A2984 RMK A01,M
BVU,2023-10-01 02:35,-114.8611,35.9475,671.00,68.00,42.80,40.00,240.00,5.00,0.00,29.67,M,10.00,M,FEW,SCT,OVC,M,3700.00,6500.00,7500.00,M,M,M,M,M,M,M,M,68.00,KBVU 010235Z AUTO 24005KT 10SM FEW037 SCT065 OVC075 20/06 A2967 RMK AO2,M
CXP,2023-10-01 02:35,-119.7326,39.1923,1431.00,50.00,42.80,76.18,120.00,3.00,0.00,29.83,M,10.00,M,OVC,M,M,M,4200.00,M,M,M,M,M,M,M,M,M,M,50.00,KCXP 010235Z AUTO 12003KT 10SM OVC042 10/06 A2983 RMK AO2,M
RTS,2023-10-01 02:35,-119.8764,39.6682,1539.00,48.20,39.20,70.88,350.00,12.00,0.00,29.85,M,10.00,M,SCT,BKN,OVC,M,3300.00,5500.00,6500.00,M,M,M,M,M,M,M,M,42.62,KRTS 010235Z AUTO 35012KT 10SM SCT033 BKN055 OVC065 09/04 A2985 RMK AO2,M
MEV,2023-10-01 02:35,-119.7500,38.9963,1441.42,50.00,41.00,71.07,40.00,5.00,0.00,29.82,M,10.00,M,FEW,BKN,OVC,M,2300.00,3500.00,4900.00,M,-RA,M,M,M,M,M,M,50.00,KMEV 010235Z AUTO 04005KT 10SM -RA FEW023 BKN035 OVC049 10/05 A2982 RMK AO2,M
BAM,2023-10-01 02:35,-116.8743,40.5990,1382.36,50.00,48.20,93.50,50.00,6.00,0.00,29.81,M,10.00,M,SCT,BKN,OVC,M,4400.00,7500.00,9000.00,M,M,M,M,M,M,M,M,50.00,KBAM 010235Z AUTO 05006KT 10SM SCT044 BKN075 OVC090 10/09 A2981 RMK AO1,M
HTH,2023-10-01 02:35,-118.6315,38.5448,1282.89,48.20,44.60,87.28,0.00,0.00,0.00,29.83,M,10.00,M,SCT,OVC,M,M,4800.00,5500.00,M,M,M,M,M,M,M,M,M,48.20,KHTH 010235Z AUTO 00000KT 10SM SCT048 OVC055 09/07 A2983 RMK A01,M
TMT,2023-10-01 02:35,-117.1971,39.4643,1749.34,44.60,42.00,90.52,0.00,0.00,0.00,29.83,M,10.00,M,OVC,M,M,M,8500.00,M,M,M,M,M,M,M,M,M,M,44.60,KTMT 010235Z AUTO 00000KT 10SM OVC085 07/06 A2983 RMK AO2 T00700056,M
10U,2023-10-01 02:40,-116.1876,41.9532,1637.00,46.40,44.60,93.40,350.00,8.00,0.00,29.84,M,8.00,M,FEW,SCT,OVC,M,1800.00,2700.00,3500.00,M,-RA,M,M,M,M,M,M,41.85,K10U 010240Z AUTO 35008KT 8SM -RA FEW018 SCT027 OVC035 08/07 A2984 RMK AO2,M
05U,2023-10-01 02:50,-116.0051,39.6042,1811.23,42.80,41.00,93.30,360.00,4.00,0.00,29.85,M,10.00,M,SCT,BKN,OVC,M,3300.00,4500.00,7000.00,M,M,M,M,M,M,M,M,40.03,K05U 010250Z AUTO 36004KT 10SM SCT033 BKN045 OVC070 06/05 A2985 RMK A01,M
P68,2023-10-01 02:53,-116.0056,39.6014,1993.00,42.00,39.00,89.01,200.00,5.00,0.02,29.82,1006.50,M,M,M,M,M,M,M,M,M,M,M,M,M,M,M,M,M,38.27,KP68 010253Z AUTO 20005KT 06/04 A2982 RMK AO1 SLP065 P0002 60006 T00560039 58005,M
DRA,2023-10-01 02:53,-116.0278,36.6206,1009.00,62.00,40.00,44.25,200.00,12.00,0.00,29.72,1002.80,10.00,M,CLR,M,M,M,M,M,M,M,M,M,M,M,M,M,M,62.00,KDRA 010253Z AUTO 20012KT 10SM CLR 17/04 A2972 RMK AO2 SLP028 T01670044 50002,M
ELY,2023-10-01 02:53,-114.8453,39.2950,1909.00,49.00,34.00,56.02,150.00,9.00,T,29.80,1002.80,10.00,M,FEW,BKN,OVC,M,5000.00,8000.00,10000.00,M,M,M,M,M,26.00,150.00,2023-10-01 02:24,44.65,KELY 010253Z AUTO 15009KT 10SM FEW050 BKN080 OVC100 09/01 A2980 RMK AO2 PK WND 15026/0224 RAB26E45 SLP028 P0000 60000 T00940011 53003,M
VGT,2023-10-01 02:53,-115.1933,36.2111,667.00,70.00,42.00,36.22,240.00,6.00,0.00,29.66,1004.20,10.00,M,FEW,M,M,M,12000.00,M,M,M,M,M,M,M,M,M,M,70.00,KVGT 010253Z 24006KT 10SM FEW120 21/06 A2966 RMK AO2 SLP042 T02110056 55001,M
LOL,2023-10-01 02:53,-118.5701,40.0684,1192.43,50.00,45.00,82.86,320.00,16.00,T,29.78,1007.30,10.00,M,FEW,BKN,OVC,M,2700.00,5500.00,7000.00,M,-RA,M,M,M,M,M,M,50.00,KLOL 010253Z AUTO 32016KT 10SM -RA FEW027 BKN055 OVC070 10/07 A2978 RMK AO2 RAB31 SLP073 P0000 60001 T01000072 53006,M
BVU,2023-10-01 02:55,-114.8611,35.9475,671.00,68.00,42.80,40.00,230.00,4.00,0.00,29.68,M,10.00,M,FEW,SCT,OVC,M,4800.00,6000.00,10000.00,M,M,M,M,M,M,M,M,68.00,KBVU 010255Z AUTO 23004KT 10SM FEW048 SCT060 OVC100 20/06 A2968 RMK AO2,M
CXP,2023-10-01 02:55,-119.7326,39.1923,1431.00,50.00,42.80,76.18,70.00,3.00,0.00,29.84,M,10.00,M,BKN,OVC,M,M,4100.00,4600.00,M,M,M,M,M,M,M,M,M,50.00,KCXP 010255Z AUTO 07003KT 10SM BKN041 OVC046 10/06 A2984 RMK AO2,M
RNO,2023-10-01 02:55,-119.7711,39.4839,1341.00,53.00,40.00,61.19,330.00,7.00,0.00,29.82,1007.30,10.00,M,BKN,BKN,OVC,M,4800.00,6500.00,9000.00,M,M,M,M,M,M,M,M,53.00,KRNO 010255Z 33007KT 10SM BKN048 BKN065 OVC090 12/04 A2982 RMK AO2 SLP073 60001 T01170044 51010,M
LSV,2023-10-01 02:55,-115.0343,36.2362,570.00,70.70,41.70,34.96,240.00,7.00,0.00,29.63,1001.60,10.00,M,CLR,M,M,M,M,M,M,M,M,M,M,M,M,M,M,70.70,KLSV 010255Z AUTO 24007KT 10SM CLR 22/05 A2963 RMK AO2 SLP016 T02150054 55001 $,M
RTS,2023-10-01 02:55,-119.8764,39.6682,1539.00,48.20,39.20,70.88,350.00,12.00,0.00,29.85,M,10.00,M,FEW,BKN,OVC,M,3100.00,3900.00,6500.00,M,M,M,M,M,M,M,M,42.62,KRTS 010255Z AUTO 35012KT 10SM FEW031 BKN039 OVC065 09/04 A2985 RMK AO2,M
MEV,2023-10-01 02:55,-119.7500,38.9963,1441.42,50.00,41.00,71.07,0.00,0.00,0.00,29.82,M,10.00,M,BKN,OVC,M,M,3400.00,4000.00,M,M,M,M,M,M,M,M,M,50.00,KMEV 010255Z AUTO 00000KT 10SM BKN034 OVC040 10/05 A2982 RMK AO2,M
BAM,2023-10-01 02:55,-116.8743,40.5990,1382.36,50.00,48.20,93.50,60.00,6.00,0.00,29.81,M,10.00,M,BKN,BKN,OVC,M,4600.00,6000.00,7000.00,M,M,M,M,M,M,M,M,50.00,KBAM 010255Z AUTO 06006KT 10SM BKN046 BKN060 OVC070 10/09 A2981 RMK AO1,M
HTH,2023-10-01 02:55,-118.6315,38.5448,1282.89,48.20,44.60,87.28,0.00,0.00,0.02,29.83,M,10.00,M,OVC,M,M,M,5500.00,M,M,M,M,M,M,M,M,M,M,48.20,KHTH 010255Z AUTO 00000KT 10SM OVC055 09/07 A2983 RMK A01 P0002,M
TMT,2023-10-01 02:55,-117.1971,39.4643,1749.34,44.60,41.40,88.45,0.00,0.00,0.00,29.83,M,10.00,M,SCT,OVC,M,M,7000.00,8500.00,M,M,M,M,M,M,M,M,M,44.60,KTMT 010255Z AUTO 00000KT 10SM SCT070 OVC085 07/05 A2983 RMK AO2 T00700052,M
INS,2023-10-01 02:55,-115.6733,36.5872,955.00,64.20,33.00,31.07,250.00,19.00,0.00,29.69,1001.80,10.00,M,BKN,OVC,M,M,10000.00,12000.00,M,M,M,M,M,M,M,M,M,64.20,KINS 010255Z AUTO 25019KT 10SM BKN100 OVC120 18/01 A2969 RMK AO2 SLP018 T01790005 53003 $,M
EKO,2023-10-01 02:56,-115.7860,40.8242,1367.00,47.00,44.00,89.24,260.00,4.00,T,29.79,1007.00,10.00,M,OVC,M,M,M,10000.00,M,M,M,M,M,M,M,M,M,M,44.94,KEKO 010256Z AUTO 26004KT 10SM OVC100 08/07 A2979 RMK AO2 RAB13E24 SLP070 P0000 60002 T00830067 58001 $,M
WMC,2023-10-01 02:56,-117.8072,40.9019,1315.00,49.00,46.00,89.33,20.00,5.00,0.12,29.81,1007.80,9.00,M,OVC,M,M,M,4600.00,M,M,M,-RA,M,M,M,M,M,M,46.58,KWMC 010256Z AUTO 02005KT 9SM -RA OVC046 09/08 A2981 RMK AO2 SLP078 P0012 60029 T00940078 50007,M
NFL,2023-10-01 02:56,-118.7010,39.4166,1199.00,52.00,45.00,76.94,140.00,3.00,0.00,29.78,1006.40,10.00,M,BKN,OVC,M,M,5500.00,7500.00,M,M,M,M,M,M,M,M,M,52.00,KNFL 010256Z AUTO 14003KT 10SM BKN055 OVC075 11/07 A2978 RMK AO2 SLP064 60001 T01110072 50005,M
HND,2023-10-01 02:56,-115.1344,35.9729,742.79,67.00,44.00,43.35,220.00,15.00,0.00,29.70,1005.40,10.00,26.00,SCT,M,M,M,11000.00,M,M,M,M,M,M,M,29.00,230.00,2023-10-01 02:32,67.00,KHND 010256Z 22015G26KT 10SM SCT110 19/07 A2970 RMK AO2 PK WND 23029/0232 SLP054 T01940067 55005,M
TPH,2023-10-01 02:56,-117.0904,38.0505,1654.00,43.00,41.00,92.58,160.00,4.00,0.02,29.83,1007.20,10.00,M,BKN,OVC,M,M,3400.00,4200.00,M,M,-RA,M,M,M,M,M,M,40.27,KTPH 010256Z AUTO 16004KT 10SM -RA BKN034 OVC042 06/05 A2983 RMK AO2 SLP072 P0002 60011 T00610050 56001,M
LAS,2023-10-01 02:56,-115.1634,36.0719,663.00,68.00,43.00,40.31,230.00,14.00,0.00,29.67,1002.90,10.00,26.00,FEW,BKN,OVC,M,7000.00,11000.00,18000.00,M,M,M,M,M,31.00,230.00,2023-10-01 02:20,68.00,KLAS 010256Z 23014G26KT 10SM FEW070 BKN110 OVC180 20/06 A2967 RMK AO2 PK WND 23031/0220 SLP029 VCSH T02000061 55002,M
10U,2023-10-01 03:00,-116.1876,41.9532,1637.00,44.60,42.80,93.35,360.00,11.00,0.00,29.84,M,6.00,M,SCT,BKN,OVC,M,1700.00,2500.00,3900.00,M,-RA,M,M,M,M,M,M,38.39,K10U 010300Z AUTO 36011KT 6SM -RA SCT017 BKN025 OVC039 07/06 A2984 RMK AO2,M
05U,2023-10-01 03:10,-116.0051,39.6042,1811.23,42.80,41.00,93.30,360.00,4.00,0.00,29.85,M,4.00,M,BKN,OVC,M,M,2600.00,3300.00,M,M,BR,M,M,M,M,M,M,40.03,K05U 010310Z AUTO 36004KT 4SM BR BKN026 OVC033 06/05 A2985 RMK A01,M
BVU,2023-10-01 03:15,-114.8611,35.9475,671.00,68.00,42.80,40.00,230.00,5.00,0.00,29.68,M,10.00,M,FEW,BKN,OVC,M,4800.00,10000.00,12000.00,M,M,M,M,M,M,M,M,68.00,KBVU 010315Z AUTO 23005KT 10SM FEW048 BKN100 OVC120 20/06 A2968 RMK AO2,M
CXP,2023-10-01 03:15,-119.7326,39.1923,1431.00,50.00,42.80,76.18,0.00,0.00,0.00,29.84,M,10.00,M,OVC,M,M,M,3800.00,M,M,M,M,M,M,M,M,M,M,50.00,KCXP 010315Z AUTO 00000KT 10SM OVC038 10/06 A2984 RMK AO2,M
RTS,2023-10-01 03:15,-119.8764,39.6682,1539.00,48.20,39.20,70.88,340.00,10.00,0.00,29.86,M,10.00,M,BKN,BKN,OVC,M,2900.00,4200.00,6500.00,M,-DZ,M,M,M,M,M,M,43.28,KRTS 010315Z AUTO 34010KT 10SM -DZ BKN029 BKN042 OVC065 09/04 A2986 RMK AO2,M
MEV,2023-10-01 03:15,-119.7500,38.9963,1441.42,50.00,42.80,76.18,320.00,5.00,0.00,29.83,M,10.00,M,OVC,M,M,M,3500.00,M,M,M,M,M,M,M,M,M,M,50.00,KMEV 010315Z AUTO 32005KT 10SM OVC035 10/06 A2983 RMK AO2,M
BAM,2023-10-01 03:15,-116.8743,40.5990,1382.36,50.00,46.40,87.37,60.00,4.00,0.00,29.81,M,10.00,M,OVC,M,M,M,4500.00,M,M,M,M,M,M,M,M,M,M,50.00,KBAM 010315Z AUTO 06004KT 10SM OVC045 10/08 A2981 RMK AO1,M
HTH,2023-10-01 03:15,-118.6315,38.5448,1282.89,48.20,44.60,87.28,0.00,0.00,0.00,29.82,M,10.00,M,OVC,M,M,M,5000.00,M,M,M,M,M,M,M,M,M,M,48.20,KHTH 010315Z AUTO 00000KT 10SM OVC050 09/07 A2982 RMK A01,M
TMT,2023-10-01 03:15,-117.1971,39.4643,1749.34,43.70,41.00,90.13,20.00,3.00,0.00,29.83,M,10.00,M,SCT,OVC,M,M,8500.00,9000.00,M,M,M,M,M,M,M,M,M,42.06,KTMT 010315Z AUTO 02003KT 10SM SCT085 OVC090 07/05 A2983 RMK AO2 T00650050,M
10U,2023-10-01 03:20,-116.1876,41.9532,1637.00,44.60,42.80,93.35,10.00,11.00,0.00,29.84,M,10.00,17.00,SCT,BKN,OVC,M,1500.00,1900.00,2900.00,M,-RA,M,M,M,M,M,M,38.39,K10U 010320Z AUTO 01011G17KT 10SM -RA SCT015 BKN019 OVC029 07/06 A2984 RMK AO2,M
05U,2023-10-01 03:30,-116.0051,39.6042,1811.23,42.80,41.00,93.30,10.00,3.00,0.00,29.85,M,5.00,M,OVC,M,M,M,2700.00,M,M,M,BR,M,M,M,M,M,M,41.03,K05U 010330Z AUTO 01003KT 5SM BR OVC027 06/05 A2985 RMK A01,M
DRA,2023-10-01 03:32,-116.0278,36.6206,1009.00,60.00,40.00,47.51,290.00,18.00,0.00,29.73,M,10.00,30.00,FEW,M,M,M,5000.00,M,M,M,M,M,M,M,30.00,300.00,2023-10-01 03:32,60.00,KDRA 010332Z AUTO 29018G30KT 10SM FEW050 16/04 A2973 RMK AO2 PK WND 30030/0332 WSHFT 0315 T01560044,M
BVU,2023-10-01 03:35,-114.8611,35.9475,671.00,66.20,44.60,45.60,260.00,11.00,0.00,29.68,M,10.00,16.00,FEW,SCT,BKN,M,3300.00,4400.00,5500.00,M,-RA,M,M,M,M,M,M,66.20,KBVU 010335Z AUTO 26011G16KT 10SM -RA FEW033 SCT044 BKN055 19/07 A2968 RMK AO2,M
CXP,2023-10-01 03:35,-119.7326,39.1923,1431.00,48.20,44.60,87.28,60.00,5.00,0.00,29.84,M,2.00,M,FEW,OVC,M,M,2400.00,3600.00,M,M,-RA HZ,M,M,M,M,M,M,45.63,KCXP 010335Z AUTO 06005KT 2SM -RA HZ FEW024 OVC036 09/07 A2984 RMK AO2 VIS 3/4V5,M
EKO,2023-10-01 03:35,-115.7860,40.8242,1367.00,47.00,44.00,89.24,100.00,3.00,0.00,29.79,M,10.00,M,BKN,BKN,OVC,M,1700.00,9000.00,12000.00,M,M,M,M,M,M,M,M,45.84,KEKO 010335Z AUTO 10003KT 10SM BKN017 BKN090 OVC120 08/07 A2979 RMK AO2 T00830067 $,M
RTS,2023-10-01 03:35,-119.8764,39.6682,1539.00,46.40,41.00,81.34,330.00,10.00,0.00,29.86,M,7.00,15.00,FEW,BKN,OVC,M,2200.00,3100.00,5500.00,M,-DZ,M,M,M,M,M,M,41.03,KRTS 010335Z AUTO 33010G15KT 7SM -DZ FEW022 BKN031 OVC055 08/05 A2986 RMK AO2,M
MEV,2023-10-01 03:35,-119.7500,38.9963,1441.42,50.00,41.00,71.07,0.00,0.00,0.00,29.83,M,10.00,M,OVC,M,M,M,3700.00,M,M,M,M,M,M,M,M,M,M,50.00,KMEV 010335Z AUTO 00000KT 10SM OVC037 10/05 A2983 RMK AO2,M
BAM,2023-10-01 03:35,-116.8743,40.5990,1382.36,50.00,46.40,87.37,0.00,0.00,0.00,29.81,M,10.00,M,OVC,M,M,M,3900.00,M,M,M,M,M,M,M,M,M,M,50.00,KBAM 010335Z AUTO 00000KT 10SM OVC039 10/08 A2981 RMK AO1,M
HTH,2023-10-01 03:35,-118.6315,38.5448,1282.89,48.20,46.40,93.45,110.00,5.00,0.00,29.82,M,10.00,M,SCT,OVC,M,M,5500.00,7000.00,M,M,M,M,M,M,M,M,M,45.63,KHTH 010335Z AUTO 11005KT 10SM SCT055 OVC070 09/08 A2982 RMK A01,M
TMT,2023-10-01 03:35,-117.1971,39.4643,1749.34,43.30,40.50,89.77,50.00,3.00,0.00,29.82,M,10.00,M,OVC,M,M,M,8500.00,M,M,M,M,M,M,M,M,M,M,41.61,KTMT 010335Z AUTO 05003KT 10SM OVC085 06/05 A2982 RMK AO2 T00630047,M
10U,2023-10-01 03:40,-116.1876,41.9532,1637.00,44.60,42.80,93.35,10.00,11.00,0.00,29.83,M,10.00,M,FEW,OVC,M,M,1400.00,2200.00,M,M,M,M,M,M,M,M,M,38.39,K10U 010340Z AUTO 01011KT 10SM FEW014 OVC022 07/06 A2983 RMK AO2,M
WMC,2023-10-01 03:42,-117.8072,40.9019,1315.00,49.00,46.00,89.33,350.00,4.00,0.04,29.81,M,6.00,M,FEW,OVC,M,M,800.00,4400.00,M,M,RA BR,M,M,M,M,M,M,47.27,KWMC 010342Z AUTO 35004KT 6SM RA BR FEW008 OVC044 09/08 A2981 RMK AO2 P0004 T00940078,M
DRA,2023-10-01 03:43,-116.0278,36.6206,1009.00,58.00,40.00,51.03,300.00,20.00,0.00,29.73,M,10.00,30.00,SCT,M,M,M,5000.00,M,M,M,M,M,M,M,30.00,300.00,2023-10-01 03:32,58.00,KDRA 010343Z AUTO 30020G30KT 10SM SCT050 14/04 A2973 RMK AO2 PK WND 30030/0332 WSHFT 0326 T01440044,M
05U,2023-10-01 03:50,-116.0051,39.6042,1811.23,42.80,41.00,93.30,0.00,0.00,0.00,29.85,M,4.00,M,OVC,M,M,M,2700.00,M,M,M,BR,M,M,M,M,M,M,42.80,K05U 010350Z AUTO 00000KT 4SM BR OVC027 06/05 A2985 RMK A01,M
P68,2023-10-01 03:53,-116.0056,39.6014,1993.00,42.00,41.00,96.21,160.00,4.00,0.09,29.82,1006.40,M,M,M,M,M,M,M,M,M,M,M,M,M,M,M,M,M,39.10,KP68 010353Z AUTO 16004KT 06/05 A2982 RMK AO1 SLP064 P0009 T00560050,M
DRA,2023-10-01 03:53,-116.0278,36.6206,1009.00,57.00,41.00,54.99,300.00,15.00,0.00,29.74,1003.80,10.00,25.00,BKN,M,M,M,5000.00,M,M,M,M,M,M,M,30.00,300.00,2023-10-01 03:32,57.00,KDRA 010353Z AUTO 30015G25KT 10SM BKN050 14/05 A2974 RMK AO2 PK WND 30030/0332 WSHFT 0326 SLP038 T01390050,M
ELY,2023-10-01 03:53,-114.8453,39.2950,1909.00,47.00,35.00,62.84,250.00,6.00,0.00,29.80,1002.40,10.00,M,OVC,M,M,M,10000.00,M,M,M,M,M,M,M,M,M,M,43.60,KELY 010353Z AUTO 25006KT 10SM OVC100 08/02 A2980 RMK AO2 SLP024 T00830017,M
VGT,2023-10-01 03:53,-115.1933,36.2111,667.00,70.00,42.00,36.22,190.00,6.00,0.00,29.66,1004.20,10.00,M,CLR,M,M,M,M,M,M,M,M,M,M,M,M,M,M,70.00,KVGT 010353Z 19006KT 10SM CLR 21/06 A2966 RMK AO2 SLP042 T02110056,M
LOL,2023-10-01 03:53,-118.5701,40.0684,1192.43,49.00,45.00,86.00,330.00,17.00,T,29.79,1007.70,10.00,M,OVC,M,M,M,4300.00,M,M,M,M,M,M,M,M,M,M,42.35,KLOL 010353Z AUTO 33017KT 10SM OVC043 09/07 A2979 RMK AO2 RAE18 SLP077 P0000 T00940072,M
BVU,2023-10-01 03:55,-114.8611,35.9475,671.00,68.00,41.00,37.32,180.00,10.00,0.00,29.69,M,10.00,M,FEW,SCT,BKN,M,3600.00,5000.00,7500.00,M,M,M,M,M,M,M,M,68.00,KBVU 010355Z AUTO 18010KT 10SM FEW036 SCT050 BKN075 20/05 A2969 RMK AO2,M
CXP,2023-10-01 03:55,-119.7326,39.1923,1431.00,48.20,44.60,87.28,0.00,0.00,0.04,29.85,M,6.00,M,SCT,OVC,M,M,3300.00,3900.00,M,M,-RA BR,M,M,M,M,M,M,48.20,KCXP 010355Z AUTO 00000KT 6SM -RA BR SCT033 OVC039 09/07 A2985 RMK AO2 P0004,M
INS,2023-10-01 03:55,-115.6733,36.5872,955.00,63.00,36.30,36.95,270.00,19.00,0.00,29.69,1002.00,10.00,24.00,OVC,M,M,M,12000.00,M,M,M,M,M,M,M,M,M,M,63.00,KINS 010355Z AUTO 27019G24KT 10SM OVC120 17/02 A2969 RMK AO2 SLP020 T01720024 $,M
RNO,2023-10-01 03:55,-119.7711,39.4839,1341.00,51.00,43.00,73.97,340.00,10.00,T,29.83,1007.50,10.00,M,SCT,BKN,OVC,M,3800.00,5000.00,6500.00,M,M,M,M,M,M,M,M,51.00,KRNO 010355Z 34010KT 10SM SCT038 BKN050 OVC065 11/06 A2983 RMK AO2 RAB17E40 SLP075 P0000 T01060061,M
RTS,2023-10-01 03:55,-119.8764,39.6682,1539.00,44.60,42.80,93.35,330.00,9.00,0.00,29.86,M,7.00,M,FEW,SCT,BKN,M,2200.00,2700.00,3700.00,M,-DZ,M,M,M,M,M,M,39.18,KRTS 010355Z AUTO 33009KT 7SM -DZ FEW022 SCT027 BKN037 07/06 A2986 RMK AO2,M
MEV,2023-10-01 03:55,-119.7500,38.9963,1441.42,48.20,41.00,76.01,0.00,0.00,0.00,29.83,M,9.00,M,FEW,OVC,M,M,2900.00,3600.00,M,M,-RA,M,M,M,M,M,M,48.20,KMEV 010355Z AUTO 00000KT 9SM -RA FEW029 OVC036 09/05 A2983 RMK AO2,M
BAM,2023-10-01 03:55,-116.8743,40.5990,1382.36,50.00,48.20,93.50,0.00,0.00,0.00,29.81,M,7.00,M,SCT,OVC,M,M,2200.00,3700.00,M,M,M,M,M,M,M,M,M,50.00,KBAM 010355Z AUTO 00000KT 7SM SCT022 OVC037 10/09 A2981 RMK AO1,M
HTH,2023-10-01 03:55,-118.6315,38.5448,1282.89,48.20,46.40,93.45,110.00,4.00,0.00,29.82,M,10.00,M,BKN,OVC,M,M,5500.00,7000.00,M,M,M,M,M,M,M,M,M,46.34,KHTH 010355Z AUTO 11004KT 10SM BKN055 OVC070 09/08 A2982 RMK A01,M
TMT,2023-10-01 03:55,-117.1971,39.4643,1749.34,43.00,40.60,91.16,50.00,3.00,0.00,29.82,M,10.00,M,SCT,BKN,OVC,M,5500.00,7000.00,8500.00,M,M,M,M,M,M,M,M,41.26,KTMT 010355Z AUTO 05003KT 10SM SCT055 BKN070 OVC085 06/05 A2982 RMK AO2 T00610048,M
LSV,2023-10-01 03:55,-115.0343,36.2362,570.00,69.40,42.80,38.12,210.00,14.00,0.00,29.63,1001.60,10.00,M,BKN,M,M,M,10000.00,M,M,M,M,M,M,M,M,M,M,69.40,KLSV 010355Z AUTO 21014KT 10SM BKN100 21/06 A2963 RMK AO2 SLP016 T02080060 $,M
EKO,2023-10-01 03:56,-115.7860,40.8242,1367.00,47.00,44.00,89.24,0.00,0.00,0.00,29.80,1007.00,10.00,M,BKN,OVC,M,M,1700.00,11000.00,M,M,M,M,M,M,M,M,M,47.00,KEKO 010356Z AUTO 00000KT 10SM BKN017 OVC110 08/07 A2980 RMK AO2 SLP070 T00830067 $,M
WMC,2023-10-01 03:56,-117.8072,40.9019,1315.00,49.00,46.00,89.33,360.00,6.00,0.06,29.81,1007.70,6.00,M,FEW,BKN,OVC,M,900.00,4200.00,5000.00,M,-RA BR,M,M,M,M,M,M,46.00,KWMC 010356Z AUTO 36006KT 6SM -RA BR FEW009 BKN042 OVC050 09/08 A2981 RMK AO2 SLP077 P0006 T00940078,M
NFL,2023-10-01 03:56,-118.7010,39.4166,1199.00,51.00,48.00,89.42,320.00,5.00,T,29.81,1007.10,10.00,M,FEW,OVC,M,M,2900.00,5000.00,M,M,M,M,M,M,M,M,M,51.00,KNFL 010356Z AUTO 32005KT 10SM FEW029 OVC050 11/09 A2981 RMK AO2 RAB0258E38 SLP071 P0000 T01060089,M
HND,2023-10-01 03:56,-115.1344,35.9729,742.79,66.00,44.00,44.88,210.00,16.00,0.00,29.71,1005.70,10.00,M,FEW,M,M,M,12000.00,M,M,M,M,M,M,M,M,M,M,66.00,KHND 010356Z AUTO 21016KT 10SM FEW120 19/07 A2971 RMK AO2 SLP057 T01890067,M
TPH,2023-10-01 03:56,-117.0904,38.0505,1654.00,42.00,40.00,92.55,0.00,0.00,T,29.83,1007.40,10.00,M,SCT,BKN,OVC,M,1000.00,1700.00,10000.00,M,M,M,M,M,M,M,M,42.00,KTPH 010356Z AUTO 00000KT 10SM SCT010 BKN017 OVC100 06/04 A2983 RMK AO2 RAE17 SLP074 P0000 T00560044,M
LAS,2023-10-01 03:56,-115.1634,36.0719,663.00,67.00,44.00,43.35,210.00,8.00,0.00,29.68,1003.20,10.00,22.00,FEW,SCT,OVC,M,7000.00,12000.00,20000.00,M,M,M,M,M,M,M,M,67.00,KLAS 010356Z 21008G22KT 10SM FEW070 SCT120 OVC200 19/07 A2968 RMK AO2 SLP032 T01940067,M
10U,2023-10-01 04:00,-116.1876,41.9532,1637.00,44.60,42.80,93.35,360.00,9.00,0.00,29.83,M,10.00,M,FEW,BKN,OVC,M,1500.00,2200.00,2800.00,M,M,M,M,M,M,M,M,39.18,K10U 010400Z AUTO 36009KT 10SM FEW015 BKN022 OVC028 07/06 A2983 RMK AO2,M
TPH,2023-10-01 04:03,-117.0904,38.0505,1654.00,42.00,40.00,92.55,240.00,3.00,0.00,29.83,M,10.00,M,BKN,OVC,M,M,1100.00,10000.00,M,M,M,M,M,M,M,M,M,40.12,KTPH 010403Z AUTO 24003KT 10SM BKN011 OVC100 06/04 A2983 RMK AO2 T00560044,M
05U,2023-10-01 04:10,-116.0051,39.6042,1811.23,42.80,41.00,93.30,280.00,3.00,0.00,29.84,M,9.00,M,OVC,M,M,M,2900.00,M,M,M,M,M,M,M,M,M,M,41.03,K05U 010410Z AUTO 28003KT 9SM OVC029 06/05 A2984 RMK A01,M
BVU,2023-10-01 04:15,-114.8611,35.9475,671.00,66.20,39.20,37.03,200.00,10.00,0.00,29.69,M,10.00,M,BKN,OVC,M,M,7500.00,10000.00,M,M,M,M,M,M,M,M,M,66.20,KBVU 010415Z AUTO 20010KT 10SM BKN075 OVC100 19/04 A2969 RMK AO2,M
CXP,2023-10-01 04:15,-119.7326,39.1923,1431.00,48.20,42.80,81.47,0.00,0.00,0.00,29.85,M,3.00,M,FEW,OVC,M,M,3100.00,3900.00,M,M,-RA HZ,M,M,M,M,M,M,48.20,KCXP 010415Z AUTO 00000KT 3SM -RA HZ FEW031 OVC039 09/06 A2985 RMK AO2,M
RTS,2023-10-01 04:15,-119.8764,39.6682,1539.00,44.60,41.00,87.09,340.00,13.00,0.00,29.86,M,10.00,M,FEW,BKN,OVC,M,2700.00,3900.00,5500.00,M,M,M,M,M,M,M,M,37.71,KRTS 010415Z AUTO 34013KT 10SM FEW027 BKN039 OVC055 07/05 A2986 RMK AO2,M
MEV,2023-10-01 04:15,-119.7500,38.9963,1441.42,48.20,44.60,87.28,230.00,5.00,0.00,29.84,M,10.00,M,FEW,OVC,M,M,2700.00,3400.00,M,M,-RA,M,M,M,M,M,M,45.63,KMEV 010415Z AUTO 23005KT 10SM -RA FEW027 OVC034 09/07 A2984 RMK AO2,M
BAM,2023-10-01 04:15,-116.8743,40.5990,1382.36,50.00,48.20,93.50,0.00,0.00,0.00,29.80,M,10.00,M,BKN,OVC,M,M,2600.00,3500.00,M,M,M,M,M,M,M,M,M,50.00,KBAM 010415Z AUTO 00000KT 10SM BKN026 OVC035 10/09 A2980 RMK AO1,M
HTH,2023-10-01 04:15,-118.6315,38.5448,1282.89,48.20,46.40,93.45,100.00,5.00,0.00,29.81,M,10.00,M,SCT,OVC,M,M,5500.00,6500.00,M,M,M,M,M,M,M,M,M,45.63,KHTH 010415Z AUTO 10005KT 10SM SCT055 OVC065 09/08 A2981 RMK A01,M
TMT,2023-10-01 04:15,-117.1971,39.4643,1749.34,43.00,40.30,90.10,0.00,0.00,0.00,29.82,M,10.00,M,BKN,OVC,M,M,5000.00,7000.00,M,M,M,M,M,M,M,M,M,43.00,KTMT 010415Z AUTO 00000KT 10SM BKN050 OVC070 06/05 A2982 RMK AO2 T00620046,M
EKO,2023-10-01 04:19,-115.7860,40.8242,1367.00,47.00,43.00,85.89,80.00,3.00,0.00,29.79,M,10.00,M,FEW,SCT,OVC,M,1800.00,2500.00,11000.00,M,M,M,M,M,M,M,M,45.84,KEKO 010419Z AUTO 08003KT 10SM FEW018 SCT025 OVC110 08/06 A2979 RMK AO2 T00830061 $,M
10U,2023-10-01 04:20,-116.1876,41.9532,1637.00,44.60,42.80,93.35,20.00,13.00,0.00,29.83,M,10.00,20.00,FEW,OVC,M,M,1400.00,3000.00,M,M,M,M,M,M,M,M,M,37.71,K10U 010420Z AUTO 02013G20KT 10SM FEW014 OVC030 07/06 A2983 RMK AO2,M
TPH,2023-10-01 04:27,-117.0904,38.0505,1654.00,42.00,41.00,96.21,0.00,0.00,0.00,29.82,M,10.00,M,SCT,SCT,BKN,M,1100.00,3300.00,4400.00,M,M,M,M,M,M,M,M,42.00,KTPH 010427Z AUTO 00000KT 10SM SCT011 SCT033 BKN044 06/05 A2982 RMK AO2 T00560050,M
05U,2023-10-01 04:30,-116.0051,39.6042,1811.23,42.80,39.20,86.99,0.00,0.00,0.00,29.83,M,10.00,M,SCT,BKN,OVC,M,2900.00,3800.00,5000.00,M,M,M,M,M,M,M,M,42.80,K05U 010430Z AUTO 00000KT 10SM SCT029 BKN038 OVC050 06/04 A2983 RMK A01,M
INS,2023-10-01 04:34,-115.6733,36.5872,955.00,57.20,41.00,54.60,260.00,22.00,0.00,29.70,1002.50,10.00,M,BKN,OVC,M,M,10000.00,12000.00,M,M,-RA,M,M,M,M,M,M,57.20,KINS 010434Z AUTO 26022KT 10SM -RA BKN100 OVC120 14/05 A2970 RMK AO2 RAB34 SLP025 $,M
BVU,2023-10-01 04:35,-114.8611,35.9475,671.00,66.20,41.00,39.72,180.00,7.00,0.00,29.70,M,10.00,M,SCT,BKN,BKN,M,7000.00,9500.00,11000.00,M,M,M,M,M,M,M,M,66.20,KBVU 010435Z AUTO 18007KT 10SM SCT070 BKN095 BKN110 19/05 A2970 RMK AO2,M
CXP,2023-10-01 04:35,-119.7326,39.1923,1431.00,48.20,44.60,87.28,0.00,0.00,0.00,29.85,M,10.00,M,BKN,OVC,M,M,3800.00,4600.00,M,M,M,M,M,M,M,M,M,48.20,KCXP 010435Z AUTO 00000KT 10SM BKN038 OVC046 09/07 A2985 RMK AO2,M
RTS,2023-10-01 04:35,-119.8764,39.6682,1539.00,44.60,41.00,87.09,320.00,12.00,0.00,29.86,M,10.00,M,FEW,BKN,OVC,M,3600.00,5000.00,5500.00,M,M,M,M,M,M,M,M,38.04,KRTS 010435Z AUTO 32012KT 10SM FEW036 BKN050 OVC055 07/05 A2986 RMK AO2,M
MEV,2023-10-01 04:35,-119.7500,38.9963,1441.42,46.40,44.60,93.40,210.00,4.00,0.00,29.84,M,6.00,M,SCT,BKN,OVC,M,1700.00,2400.00,3400.00,M,-RA BR,M,M,M,M,M,M,44.24,KMEV 010435Z AUTO 21004KT 6SM -RA BR SCT017 BKN024 OVC034 08/07 A2984 RMK AO2,M
BAM,2023-10-01 04:35,-116.8743,40.5990,1382.36,50.00,46.40,87.37,0.00,0.00,0.00,29.80,M,10.00,M,BKN,OVC,M,M,2600.00,3800.00,M,M,M,M,M,M,M,M,M,50.00,KBAM 010435Z AUTO 00000KT 10SM BKN026 OVC038 10/08 A2980 RMK AO1,M
HTH,2023-10-01 04:35,-118.6315,38.5448,1282.89,48.20,46.40,93.45,80.00,5.00,0.00,29.81,M,10.00,M,BKN,OVC,M,M,6000.00,7000.00,M,M,M,M,M,M,M,M,M,45.63,KHTH 010435Z AUTO 08005KT 10SM BKN060 OVC070 09/08 A2981 RMK A01,M
TMT,2023-10-01 04:35,-117.1971,39.4643,1749.34,43.70,41.00,90.13,0.00,0.00,0.00,29.82,M,10.00,M,OVC,M,M,M,5000.00,M,M,M,M,M,M,M,M,M,M,43.70,KTMT 010435Z AUTO 00000KT 10SM OVC050 07/05 A2982 RMK AO2 T00650050,M
10U,2023-10-01 04:40,-116.1876,41.9532,1637.00,44.60,41.00,87.09,20.00,16.00,0.00,29.83,M,10.00,21.00,SCT,OVC,M,M,1400.00,3400.00,M,M,M,M,M,M,M,M,M,36.84,K10U 010440Z AUTO 02016G21KT 10SM SCT014 OVC034 07/05 A2983 RMK AO2,M
05U,2023-10-01 04:50,-116.0051,39.6042,1811.23,41.00,39.20,93.24,40.00,4.00,0.00,29.83,M,10.00,M,SCT,BKN,OVC,M,4100.00,5000.00,6000.00,M,M,M,M,M,M,M,M,37.93,K05U 010450Z AUTO 04004KT 10SM SCT041 BKN050 OVC060 05/04 A2983 RMK A01,M
P68,2023-10-01 04:53,-116.0056,39.6014,1993.00,42.00,39.00,89.01,230.00,3.00,0.01,29.81,1005.70,M,M,M,M,M,M,M,M,M,M,M,M,M,M,M,M,M,40.12,KP68 010453Z AUTO 23003KT 06/04 A2981 RMK AO1 SLP057 P0001 T00560039,M
DRA,2023-10-01 04:53,-116.0278,36.6206,1009.00,56.00,39.00,52.75,300.00,7.00,0.00,29.74,1004.10,10.00,M,SCT,SCT,M,M,7000.00,9000.00,M,M,M,M,M,M,M,M,M,56.00,KDRA 010453Z AUTO 30007KT 10SM SCT070 SCT090 13/04 A2974 RMK AO2 SLP041 T01330039,M
ELY,2023-10-01 04:53,-114.8453,39.2950,1909.00,45.00,34.00,65.13,280.00,8.00,0.00,29.79,1002.00,10.00,M,SCT,M,M,M,10000.00,M,M,M,M,M,M,M,M,M,M,40.13,KELY 010453Z AUTO 28008KT 10SM SCT100 07/01 A2979 RMK AO2 SLP020 T00720011,M
VGT,2023-10-01 04:53,-115.1933,36.2111,667.00,69.00,43.00,38.95,210.00,12.00,0.00,29.67,1004.50,10.00,M,FEW,M,M,M,9000.00,M,M,M,M,M,M,M,M,M,M,69.00,KVGT 010453Z AUTO 21012KT 10SM FEW090 21/06 A2967 RMK AO2 SLP045 T02060061,M
LOL,2023-10-01 04:53,-118.5701,40.0684,1192.43,48.00,46.00,92.74,330.00,6.00,0.16,29.81,1008.00,4.00,M,OVC,M,M,M,4300.00,M,M,M,RA BR,M,M,M,M,M,M,44.80,KLOL 010453Z AUTO 33006KT 4SM RA BR OVC043 09/08 A2981 RMK AO2 RAB05 SLP080 P0016 T00890078,M
BVU,2023-10-01 04:55,-114.8611,35.9475,671.00,64.40,41.00,42.28,200.00,6.00,0.00,29.70,M,10.00,M,CLR,M,M,M,M,M,M,M,M,M,M,M,M,M,M,64.40,KBVU 010455Z AUTO 20006KT 10SM CLR 18/05 A2970 RMK AO2,M
CXP,2023-10-01 04:55,-119.7326,39.1923,1431.00,48.20,44.60,87.28,260.00,4.00,0.05,29.85,M,10.00,M,FEW,OVC,M,M,3300.00,5000.00,M,M,M,M,M,M,M,M,M,46.34,KCXP 010455Z AUTO 26004KT 10SM FEW033 OVC050 09/07 A2985 RMK AO2 P0005,M
INS,2023-10-01 04:55,-115.6733,36.5872,955.00,56.00,43.50,62.78,250.00,18.00,T,29.71,1003.10,10.00,M,SCT,OVC,M,M,3100.00,10000.00,M,M,-RA,M,M,M,36.00,240.00,2023-10-01 04:00,56.00,KINS 010455Z AUTO 25018KT 10SM -RA SCT031 OVC100 13/06 A2971 RMK AO2 PK WND 24036/00 RAB34 SLP031 P0000 T01330064 $,M
RNO,2023-10-01 04:55,-119.7711,39.4839,1341.00,50.00,42.00,73.87,320.00,8.00,T,29.84,1007.60,7.00,M,BKN,OVC,M,M,3500.00,4500.00,M,M,RA,M,M,M,M,M,M,50.00,KRNO 010455Z 32008KT 7SM RA BKN035 OVC045 10/06 A2984 RMK AO2 RAB32 SLP076 P0000 T01000056,M
LSV,2023-10-01 04:55,-115.0343,36.2362,570.00,68.70,43.30,39.81,210.00,14.00,0.00,29.63,1001.60,10.00,M,FEW,M,M,M,11000.00,M,M,M,M,M,M,M,M,M,M,68.70,KLSV 010455Z AUTO 21014KT 10SM FEW110 20/06 A2963 RMK AO2 SLP016 T02040063 $,M
RTS,2023-10-01 04:55,-119.8764,39.6682,1539.00,44.60,41.00,87.09,320.00,10.00,0.01,29.86,M,5.00,M,SCT,BKN,OVC,M,2300.00,4100.00,5000.00,M,RA,M,M,M,M,M,M,38.77,KRTS 010455Z AUTO 32010KT 5SM RA SCT023 BKN041 OVC050 07/05 A2986 RMK AO2 P0001,M
MEV,2023-10-01 04:55,-119.7500,38.9963,1441.42,46.40,44.60,93.40,260.00,5.00,0.04,29.84,M,3.00,M,FEW,SCT,BKN,M,500.00,1600.00,2700.00,M,-RA BR,M,M,M,M,M,M,43.50,KMEV 010455Z AUTO 26005KT 3SM -RA BR FEW005 SCT016 BKN027 08/07 A2984 RMK AO2 P0004,M
BAM,2023-10-01 04:55,-116.8743,40.5990,1382.36,50.00,46.40,87.37,310.00,3.00,0.00,29.80,M,10.00,M,SCT,BKN,OVC,M,3500.00,4300.00,5000.00,M,M,M,M,M,M,M,M,50.00,KBAM 010455Z AUTO 31003KT 10SM SCT035 BKN043 OVC050 10/08 A2980 RMK AO1,M
HTH,2023-10-01 04:55,-118.6315,38.5448,1282.89,48.20,44.60,87.28,100.00,7.00,0.00,29.81,M,10.00,M,SCT,OVC,M,M,6000.00,7000.00,M,M,M,M,M,M,M,M,M,44.53,KHTH 010455Z AUTO 10007KT 10SM SCT060 OVC070 09/07 A2981 RMK A01,M
TMT,2023-10-01 04:55,-117.1971,39.4643,1749.34,43.50,41.00,90.83,0.00,0.00,0.00,29.82,M,10.00,M,BKN,OVC,M,M,3500.00,5000.00,M,M,M,M,M,M,M,M,M,43.50,KTMT 010455Z AUTO 00000KT 10SM BKN035 OVC050 06/05 A2982 RMK AO2 T00640051,M
EKO,2023-10-01 04:56,-115.7860,40.8242,1367.00,47.00,43.00,85.89,80.00,3.00,0.00,29.79,1006.60,10.00,M,BKN,M,M,M,11000.00,M,M,M,M,M,M,M,M,M,M,45.84,KEKO 010456Z AUTO 08003KT 10SM BKN110 08/06 A2979 RMK AO2 SLP066 T00830061 $,M
WMC,2023-10-01 04:56,-117.8072,40.9019,1315.00,48.00,45.00,89.29,320.00,8.00,0.07,29.80,1007.40,8.00,M,FEW,BKN,OVC,M,1100.00,4200.00,4900.00,M,-RA,M,M,M,M,M,M,43.82,KWMC 010456Z AUTO 32008KT 8SM -RA FEW011 BKN042 OVC049 09/07 A2980 RMK AO2 SLP074 P0007 T00890072,M
NFL,2023-10-01 04:56,-118.7010,39.4166,1199.00,49.00,45.00,86.00,320.00,5.00,0.02,29.80,1007.00,10.00,M,SCT,OVC,M,M,4900.00,6000.00,M,M,M,M,M,M,M,M,M,46.58,KNFL 010456Z AUTO 32005KT 10SM SCT049 OVC060 09/07 A2980 RMK AO2 RAB0358E30 SLP070 P0002 T00940072,M
HND,2023-10-01 04:56,-115.1344,35.9729,742.79,65.00,42.00,43.04,230.00,13.00,0.00,29.72,1006.30,10.00,20.00,CLR,M,M,M,M,M,M,M,M,M,M,M,M,M,M,65.00,KHND 010456Z AUTO 23013G20KT 10SM CLR 18/06 A2972 RMK AO2 SLP063 T01830056,M
TPH,2023-10-01 04:56,-117.0904,38.0505,1654.00,42.00,41.00,96.21,0.00,0.00,0.00,29.82,1007.10,10.00,M,BKN,BKN,M,M,1700.00,4500.00,M,M,M,M,M,M,M,M,M,42.00,KTPH 010456Z AUTO 00000KT 10SM BKN017 BKN045 06/05 A2982 RMK AO2 SLP071 T00560050,M
LAS,2023-10-01 04:56,-115.1634,36.0719,663.00,67.00,42.00,40.15,240.00,13.00,0.00,29.68,1003.30,10.00,23.00,FEW,SCT,BKN,M,8000.00,10000.00,20000.00,M,M,M,M,M,30.00,210.00,2023-10-01 04:41,67.00,KLAS 010456Z 24013G23KT 10SM FEW080 SCT100 BKN200 19/06 A2968 RMK AO2 PK WND 21030/0441 SLP033 T01940056,M
10U,2023-10-01 05:00,-116.1876,41.9532,1637.00,44.60,42.80,93.35,20.00,15.00,0.00,29.83,M,10.00,21.00,OVC,M,M,M,1300.00,M,M,M,M,M,M,M,M,M,M,37.11,K10U 010500Z AUTO 02015G21KT 10SM OVC013 07/06 A2983 RMK AO2,M
TPH,2023-10-01 05:09,-117.0904,38.0505,1654.00,41.00,40.00,96.19,250.00,4.00,0.00,29.81,M,10.00,M,SCT,BKN,BKN,M,1700.00,4600.00,11000.00,M,M,M,M,M,M,M,M,37.93,KTPH 010509Z AUTO 25004KT 10SM SCT017 BKN046 BKN110 05/04 A2981 RMK AO2 T00500044,M
05U,2023-10-01 05:10,-116.0051,39.6042,1811.23,41.00,39.20,93.24,0.00,0.00,0.00,29.83,M,10.00,M,FEW,BKN,OVC,M,5000.00,6500.00,7500.00,M,M,M,M,M,M,M,M,41.00,K05U 010510Z AUTO 00000KT 10SM FEW050 BKN065 OVC075 05/04 A2983 RMK A01,M
INS,2023-10-01 05:11,-115.6733,36.5872,955.00,57.20,41.00,54.60,250.00,15.00,0.00,29.71,1002.90,10.00,M,FEW,BKN,OVC,M,2900.00,9000.00,11000.00,M,M,M,M,M,M,M,M,57.20,KINS 010511Z AUTO 25015KT 10SM FEW029 BKN090 OVC110 14/05 A2971 RMK AO2 RAE01DZB01E11 SLP029 $,M
BVU,2023-10-01 05:15,-114.8611,35.9475,671.00,64.40,41.00,42.28,230.00,12.00,0.00,29.70,M,10.00,M,CLR,M,M,M,M,M,M,M,M,M,M,M,M,M,M,64.40,KBVU 010515Z AUTO 23012KT 10SM CLR 18/05 A2970 RMK AO2 LTG DSNT E,M
CXP,2023-10-01 05:15,-119.7326,39.1923,1431.00,46.40,44.60,93.40,0.00,0.00,0.00,29.85,M,10.00,M,SCT,SCT,OVC,M,3200.00,3900.00,5000.00,M,M,M,M,M,M,M,M,46.40,KCXP 010515Z AUTO 00000KT 10SM SCT032 SCT039 OVC050 08/07 A2985 RMK AO2,M
RTS,2023-10-01 05:15,-119.8764,39.6682,1539.00,44.60,41.00,87.09,M,4.00,0.00,29.86,M,7.00,16.00,SCT,BKN,OVC,M,1300.00,2200.00,4000.00,M,-RA,M,M,M,M,M,M,42.13,KRTS 010515Z AUTO VRB04G16KT 7SM -RA SCT013 BKN022 OVC040 07/05 A2986 RMK AO2,M
MEV,2023-10-01 05:15,-119.7500,38.9963,1441.42,46.40,44.60,93.40,220.00,5.00,0.00,29.84,M,9.00,M,FEW,OVC,M,M,2200.00,2800.00,M,M,UP,M,M,M,M,M,M,43.50,KMEV 010515Z AUTO 22005KT 9SM UP FEW022 OVC028 08/07 A2984 RMK AO2,M
BAM,2023-10-01 05:15,-116.8743,40.5990,1382.36,50.00,46.40,87.37,310.00,4.00,0.00,29.80,M,10.00,M,SCT,OVC,M,M,3500.00,4600.00,M,M,M,M,M,M,M,M,M,50.00,KBAM 010515Z AUTO 31004KT 10SM SCT035 OVC046 10/08 A2980 RMK AO1,M
HTH,2023-10-01 05:15,-118.6315,38.5448,1282.89,48.20,46.40,93.45,0.00,0.00,0.00,29.81,M,10.00,M,BKN,OVC,M,M,5500.00,7500.00,M,M,M,M,M,M,M,M,M,48.20,KHTH 010515Z AUTO 00000KT 10SM BKN055 OVC075 09/08 A2981 RMK A01,M
TMT,2023-10-01 05:15,-117.1971,39.4643,1749.34,44.00,40.60,87.73,0.00,0.00,0.00,29.82,M,10.00,M,BKN,OVC,M,M,3500.00,4200.00,M,M,M,M,M,M,M,M,M,44.00,KTMT 010515Z AUTO 00000KT 10SM BKN035 OVC042 07/05 A2982 RMK AO2 T00660048,M
10U,2023-10-01 05:20,-116.1876,41.9532,1637.00,44.60,42.80,93.35,20.00,13.00,0.00,29.83,M,10.00,M,OVC,M,M,M,1200.00,M,M,M,M,M,M,M,M,M,M,37.71,K10U 010520Z AUTO 02013KT 10SM OVC012 07/06 A2983 RMK AO2,M
05U,2023-10-01 05:30,-116.0051,39.6042,1811.23,41.00,39.20,93.24,0.00,0.00,0.00,29.82,M,10.00,M,FEW,OVC,M,M,6500.00,7500.00,M,M,M,M,M,M,M,M,M,41.00,K05U 010530Z AUTO 00000KT 10SM FEW065 OVC075 05/04 A2982 RMK A01,M
BVU,2023-10-01 05:35,-114.8611,35.9475,671.00,64.40,41.00,42.28,M,M,0.00,29.70,M,10.00,M,CLR,M,M,M,M,M,M,M,M,M,M,M,M,M,M,64.40,KBVU 010535Z AUTO 13/91666714KT 10SM CLR 18/05 A2970 RMK AO2,M
CXP,2023-10-01 05:35,-119.7326,39.1923,1431.00,46.40,44.60,93.40,140.00,3.00,0.00,29.84,M,10.00,M,SCT,SCT,OVC,M,3200.00,3800.00,5000.00,M,M,M,M,M,M,M,M,45.15,KCXP 010535Z AUTO 14003KT 10SM SCT032 SCT038 OVC050 08/07 A2984 RMK AO2,M
RTS,2023-10-01 05:35,-119.8764,39.6682,1539.00,44.60,41.00,87.09,340.00,8.00,0.00,29.86,M,10.00,M,BKN,BKN,OVC,M,1300.00,2000.00,3700.00,M,-RA,M,M,M,M,M,M,39.63,KRTS 010535Z AUTO 34008KT 10SM -RA BKN013 BKN020 OVC037 07/05 A2986 RMK AO2,M
MEV,2023-10-01 05:35,-119.7500,38.9963,1441.42,46.40,42.80,87.19,0.00,0.00,0.00,29.84,M,10.00,M,BKN,OVC,M,M,2700.00,3400.00,M,M,M,M,M,M,M,M,M,46.40,KMEV 010535Z AUTO 00000KT 10SM BKN027 OVC034 08/06 A2984 RMK AO2,M
BAM,2023-10-01 05:35,-116.8743,40.5990,1382.36,48.20,46.40,93.45,320.00,3.00,0.00,29.80,M,10.00,M,BKN,OVC,M,M,3800.00,4400.00,M,M,M,M,M,M,M,M,M,47.21,KBAM 010535Z AUTO 32003KT 10SM BKN038 OVC044 09/08 A2980 RMK AO1,M
HTH,2023-10-01 05:35,-118.6315,38.5448,1282.89,48.20,46.40,93.45,290.00,5.00,0.00,29.81,M,10.00,M,BKN,OVC,M,M,5000.00,8000.00,M,M,M,M,M,M,M,M,M,45.63,KHTH 010535Z AUTO 29005KT 10SM BKN050 OVC080 09/08 A2981 RMK A01,M
TMT,2023-10-01 05:35,-117.1971,39.4643,1749.34,44.00,41.50,90.84,0.00,0.00,0.00,29.81,M,10.00,M,SCT,OVC,M,M,3700.00,4600.00,M,M,M,M,M,M,M,M,M,44.00,KTMT 010535Z AUTO 00000KT 10SM SCT037 OVC046 07/05 A2981 RMK AO2 T00660053,M
10U,2023-10-01 05:40,-116.1876,41.9532,1637.00,44.60,41.00,87.09,20.00,8.00,0.00,29.83,M,10.00,M,OVC,M,M,M,1400.00,M,M,M,M,M,M,M,M,M,M,39.63,K10U 010540Z AUTO 02008KT 10SM OVC014 07/05 A2983 RMK AO2,M
05U,2023-10-01 05:50,-116.0051,39.6042,1811.23,41.00,39.20,93.24,0.00,0.00,0.00,29.81,M,10.00,M,OVC,M,M,M,7500.00,M,M,M,M,M,M,M,M,M,M,41.00,K05U 010550Z AUTO 00000KT 10SM OVC075 05/04 A2981 RMK A01,M
P68,2023-10-01 05:53,-116.0056,39.6014,1993.00,41.00,40.00,96.19,230.00,3.00,0.00,29.78,1004.90,M,M,M,M,M,M,M,M,M,M,M,M,M,M,M,M,M,38.98,KP68 010553Z AUTO 23003KT 05/04 A2978 RMK AO1 SLP049 60016 T00500044 10056 20050 58012,M
DRA,2023-10-01 05:53,-116.0278,36.6206,1009.00,56.00,43.00,61.59,240.00,6.00,0.00,29.75,1004.10,10.00,M,OVC,M,M,M,9000.00,M,M,M,M,M,M,M,M,M,M,56.00,KDRA 010553Z AUTO 24006KT 10SM OVC090 13/06 A2975 RMK AO2 SLP041 T01330061 10189 20128 51009,M
ELY,2023-10-01 05:53,-114.8453,39.2950,1909.00,43.00,34.00,70.30,290.00,6.00,0.00,29.78,1002.00,10.00,M,CLR,M,M,M,M,M,M,M,M,M,M,M,M,M,M,38.78,KELY 010553Z AUTO 29006KT 10SM CLR 06/01 A2978 RMK AO2 SLP020 60000 T00610011 10133 20056 58006,M
VGT,2023-10-01 05:53,-115.1933,36.2111,667.00,68.00,40.00,35.90,250.00,9.00,0.00,29.68,1004.90,10.00,18.00,CLR,M,M,M,M,M,M,M,M,M,M,M,M,M,M,68.00,KVGT 010553Z AUTO 25009G18KT 10SM CLR 20/04 A2968 RMK AO2 SLP049 T02000044 10228 20200 53006,M
LOL,2023-10-01 05:53,-118.5701,40.0684,1192.43,48.00,46.00,92.74,0.00,0.00,0.12,29.80,1007.50,7.00,M,OVC,M,M,M,4700.00,M,M,M,-RA,M,M,M,M,M,M,48.00,KLOL 010553Z AUTO 00000KT 7SM -RA OVC047 09/08 A2980 RMK AO2 SLP075 P0012 60029 T00890078 10128 20089 50005,M
BVU,2023-10-01 05:55,-114.8611,35.9475,671.00,64.40,41.00,42.28,220.00,12.00,0.00,29.71,M,10.00,19.00,CLR,M,M,M,M,M,M,M,M,M,M,M,M,M,M,64.40,KBVU 010555Z AUTO 22012G19KT 10SM CLR 18/05 A2971 RMK AO2,M
CXP,2023-10-01 05:55,-119.7326,39.1923,1431.00,46.40,44.60,93.40,70.00,4.00,0.00,29.84,M,10.00,M,SCT,SCT,OVC,M,3200.00,4500.00,5500.00,M,M,M,M,M,M,M,M,44.24,KCXP 010555Z AUTO 07004KT 10SM SCT032 SCT045 OVC055 08/07 A2984 RMK AO2,M
INS,2023-10-01 05:55,-115.6733,36.5872,955.00,58.50,39.00,48.21,270.00,13.00,T,29.72,1003.20,10.00,M,OVC,M,M,M,14000.00,M,M,M,M,M,M,M,M,M,M,58.50,KINS 010555Z AUTO 27013KT 10SM OVC140 15/04 A2972 RMK AO2 RAE01DZB01E11 SLP032 P0000 60000 T01470038 10206 20131 53009 $,M
RNO,2023-10-01 05:55,-119.7711,39.4839,1341.00,50.00,43.00,76.76,310.00,6.00,0.03,29.84,1007.50,10.00,M,SCT,OVC,M,M,2900.00,3800.00,M,M,-RA,M,M,M,M,M,M,50.00,KRNO 010555Z 31006KT 10SM -RA SCT029 OVC038 10/06 A2984 RMK AO2 SLP075 P0003 60004 T01000061 10139 20100 50004,M
RTS,2023-10-01 05:55,-119.8764,39.6682,1539.00,44.60,41.00,87.09,350.00,12.00,0.00,29.86,M,10.00,M,OVC,M,M,M,1500.00,M,M,M,-DZ,M,M,M,M,M,M,38.04,KRTS 010555Z AUTO 35012KT 10SM -DZ OVC015 07/05 A2986 RMK AO2,M
MEV,2023-10-01 05:55,-119.7500,38.9963,1441.42,46.40,44.60,93.40,240.00,3.00,0.01,29.83,M,10.00,M,FEW,SCT,BKN,M,1000.00,3800.00,4900.00,M,-RA,M,M,M,M,M,M,45.15,KMEV 010555Z AUTO 24003KT 10SM -RA FEW010 SCT038 BKN049 08/07 A2983 RMK AO2 P0001,M
BAM,2023-10-01 05:55,-116.8743,40.5990,1382.36,48.20,46.40,93.45,0.00,0.00,0.00,29.80,M,10.00,M,BKN,OVC,M,M,3400.00,4100.00,M,M,M,M,M,M,M,M,M,48.20,KBAM 010555Z AUTO 00000KT 10SM BKN034 OVC041 09/08 A2980 RMK AO1,M
HTH,2023-10-01 05:55,-118.6315,38.5448,1282.89,48.20,46.40,93.45,340.00,4.00,0.00,29.81,M,10.00,M,BKN,OVC,M,M,5500.00,8000.00,M,M,M,M,M,M,M,M,M,46.34,KHTH 010555Z AUTO 34004KT 10SM BKN055 OVC080 09/08 A2981 RMK A01,M
TMT,2023-10-01 05:55,-117.1971,39.4643,1749.34,44.00,42.30,93.69,0.00,0.00,0.00,29.81,M,10.00,M,SCT,OVC,M,M,4000.00,4600.00,M,M,M,M,M,M,M,M,M,44.00,KTMT 010555Z AUTO 00000KT 10SM SCT040 OVC046 07/06 A2981 RMK AO2 T00670057 10085 20061,M
LSV,2023-10-01 05:55,-115.0343,36.2362,570.00,67.00,41.40,39.23,210.00,14.00,0.00,29.64,1001.90,10.00,M,CLR,M,M,M,M,M,M,M,M,M,M,M,M,M,M,67.00,KLSV 010555Z AUTO 21014KT 10SM CLR 20/05 A2964 RMK AO2 SLP019 T01950052 10228 20195 51002 $,M
EKO,2023-10-01 05:56,-115.7860,40.8242,1367.00,46.00,43.00,89.20,0.00,0.00,0.00,29.78,1006.40,10.00,M,FEW,BKN,BKN,M,5500.00,8500.00,10000.00,M,M,M,M,M,M,M,M,46.00,KEKO 010556Z AUTO 00000KT 10SM FEW055 BKN085 BKN100 08/06 A2978 RMK AO2 SLP064 60002 T00780061 10106 20072 58004 $,M
WMC,2023-10-01 05:56,-117.8072,40.9019,1315.00,48.00,45.00,89.29,340.00,9.00,0.05,29.79,1006.80,8.00,M,FEW,SCT,OVC,M,2200.00,3000.00,3900.00,M,-RA,M,M,M,M,M,M,43.41,KWMC 010556Z AUTO 34009KT 8SM -RA FEW022 SCT030 OVC039 09/07 A2979 RMK AO2 SLP068 P0005 60047 T00890072 10111 20089 58005,M
NFL,2023-10-01 05:56,-118.7010,39.4166,1199.00,50.00,47.00,89.37,310.00,5.00,T,29.80,1007.00,10.00,M,OVC,M,M,M,4900.00,M,M,M,M,M,M,M,M,M,M,50.00,KNFL 010556Z AUTO 31005KT 10SM OVC049 10/08 A2980 RMK AO2 RAB26E39 SLP070 P0000 60003 T01000083 10111 20094 50006,M
HND,2023-10-01 05:56,-115.1344,35.9729,742.79,64.00,43.00,46.32,220.00,14.00,0.00,29.73,1006.70,10.00,M,CLR,M,M,M,M,M,M,M,M,M,M,M,M,M,M,64.00,KHND 010556Z AUTO 22014KT 10SM CLR 18/06 A2973 RMK AO2 SLP067 T01780061 10206 20178 52012,M
TPH,2023-10-01 05:56,-117.0904,38.0505,1654.00,42.00,41.00,96.21,0.00,0.00,0.00,29.81,1007.40,10.00,M,FEW,BKN,OVC,M,1700.00,3800.00,6000.00,M,M,M,M,M,M,M,M,42.00,KTPH 010556Z AUTO 00000KT 10SM FEW017 BKN038 OVC060 06/05 A2981 RMK AO2 SLP074 60011 T00560050 10067 20050 58007,M
LAS,2023-10-01 05:56,-115.1634,36.0719,663.00,65.00,43.00,44.73,220.00,13.00,0.00,29.69,1003.80,10.00,24.00,FEW,SCT,M,M,12000.00,20000.00,M,M,M,M,M,M,M,M,M,65.00,KLAS 010556Z 22013G24KT 10SM FEW120 SCT200 18/06 A2969 RMK AO2 SLP038 T01830061 10211 20183 53007,M
10U,2023-10-01 06:00,-116.1876,41.9532,1637.00,44.60,41.00,87.09,20.00,11.00,0.00,29.81,M,10.00,M,FEW,BKN,OVC,M,1100.00,1600.00,7000.00,M,M,M,M,M,M,M,M,38.39,K10U 010600Z AUTO 02011KT 10SM FEW011 BKN016 OVC070 07/05 A2981 RMK AO2,M
TPH,2023-10-01 06:08,-117.0904,38.0505,1654.00,43.00,41.00,92.58,0.00,0.00,0.00,29.80,M,10.00,M,BKN,OVC,M,M,1700.00,3800.00,M,M,M,M,M,M,M,M,M,43.00,KTPH 010608Z AUTO 00000KT 10SM BKN017 OVC038 06/05 A2980 RMK AO2 T00610050,M
WMC,2023-10-01 06:09,-117.8072,40.9019,1315.00,47.00,45.00,92.71,340.00,9.00,0.02,29.79,M,7.00,M,FEW,BKN,OVC,M,900.00,3000.00,3600.00,M,-RA,M,M,M,M,M,M,42.17,KWMC 010609Z AUTO 34009KT 7SM -RA FEW009 BKN030 OVC036 08/07 A2979 RMK AO2 P0002 T00830072,M
05U,2023-10-01 06:10,-116.0051,39.6042,1811.23,41.00,39.20,93.24,0.00,0.00,0.00,29.80,M,10.00,M,BKN,OVC,M,M,7500.00,10000.00,M,M,M,M,M,M,M,M,M,41.00,K05U 010610Z AUTO 00000KT 10SM BKN075 OVC100 05/04 A2980 RMK A01,M
BVU,2023-10-01 06:15,-114.8611,35.9475,671.00,64.40,41.00,42.28,220.00,13.00,0.00,29.71,M,10.00,M,CLR,M,M,M,M,M,M,M,M,M,M,M,M,M,M,64.40,KBVU 010615Z AUTO 22013KT 10SM CLR 18/05 A2971 RMK AO2,M
CXP,2023-10-01 06:15,-119.7326,39.1923,1431.00,46.40,44.60,93.40,0.00,0.00,0.00,29.84,M,10.00,M,BKN,OVC,M,M,3200.00,5000.00,M,M,M,M,M,M,M,M,M,46.40,KCXP 010615Z AUTO 00000KT 10SM BKN032 OVC050 08/07 A2984 RMK AO2,M
RTS,2023-10-01 06:15,-119.8764,39.6682,1539.00,44.60,41.00,87.09,330.00,10.00,0.00,29.86,M,10.00,M,OVC,M,M,M,1500.00,M,M,M,-DZ,M,M,M,M,M,M,38.77,KRTS 010615Z AUTO 33010KT 10SM -DZ OVC015 07/05 A2986 RMK AO2,M
MEV,2023-10-01 06:15,-119.7500,38.9963,1441.42,46.40,44.60,93.40,220.00,3.00,0.00,29.83,M,10.00,M,FEW,OVC,M,M,4200.00,4900.00,M,M,-RA,M,M,M,M,M,M,45.15,KMEV 010615Z AUTO 22003KT 10SM -RA FEW042 OVC049 08/07 A2983 RMK AO2,M
BAM,2023-10-01 06:15,-116.8743,40.5990,1382.36,48.20,46.40,93.45,0.00,0.00,0.00,29.79,M,10.00,M,SCT,OVC,M,M,3400.00,4200.00,M,M,M,M,M,M,M,M,M,48.20,KBAM 010615Z AUTO 00000KT 10SM SCT034 OVC042 09/08 A2979 RMK AO1,M
HTH,2023-10-01 06:15,-118.6315,38.5448,1282.89,48.20,46.40,93.45,0.00,0.00,0.00,29.81,M,10.00,M,OVC,M,M,M,6000.00,M,M,M,M,M,M,M,M,M,M,48.20,KHTH 010615Z AUTO 00000KT 10SM OVC060 09/08 A2981 RMK A01,M
TMT,2023-10-01 06:15,-117.1971,39.4643,1749.34,43.00,42.00,96.23,0.00,0.00,0.00,29.81,M,10.00,M,BKN,OVC,M,M,4000.00,4800.00,M,M,M,M,M,M,M,M,M,43.00,KTMT 010615Z AUTO 00000KT 10SM BKN040 OVC048 06/06 A2981 RMK AO2 T00620055,M
10U,2023-10-01 06:20,-116.1876,41.9532,1637.00,44.60,41.00,87.09,10.00,12.00,0.00,29.82,M,10.00,18.00,BKN,BKN,OVC,M,1500.00,3600.00,7000.00,M,M,M,M,M,M,M,M,38.04,K10U 010620Z AUTO 01012G18KT 10SM BKN015 BKN036 OVC070 07/05 A2982 RMK AO2,M
05U,2023-10-01 06:30,-116.0051,39.6042,1811.23,39.20,39.20,100.00,300.00,6.00,0.00,29.80,M,10.00,M,FEW,SCT,BKN,M,2200.00,6500.00,7500.00,M,M,M,M,M,M,M,M,34.20,K05U 010630Z AUTO 30006KT 10SM FEW022 SCT065 BKN075 04/04 A2980 RMK A01,M
EKO,2023-10-01 06:32,-115.7860,40.8242,1367.00,44.00,42.00,92.61,240.00,3.00,0.00,29.77,M,10.00,M,BKN,OVC,M,M,1600.00,5000.00,M,M,M,M,M,M,M,M,M,42.41,KEKO 010632Z AUTO 24003KT 10SM BKN016 OVC050 07/06 A2977 RMK AO2 T00670056 $,M
BVU,2023-10-01 06:35,-114.8611,35.9475,671.00,62.60,41.00,45.04,230.00,13.00,0.00,29.70,M,10.00,M,CLR,M,M,M,M,M,M,M,M,M,M,M,M,M,M,62.60,KBVU 010635Z AUTO 23013KT 10SM CLR 17/05 A2970 RMK AO2,M
CXP,2023-10-01 06:35,-119.7326,39.1923,1431.00,48.20,44.60,87.28,140.00,5.00,0.00,29.84,M,10.00,M,FEW,BKN,OVC,M,2600.00,3200.00,5000.00,M,M,M,M,M,M,M,M,45.63,KCXP 010635Z AUTO 14005KT 10SM FEW026 BKN032 OVC050 09/07 A2984 RMK AO2,M
RTS,2023-10-01 06:35,-119.8764,39.6682,1539.00,44.60,41.00,87.09,340.00,9.00,0.00,29.86,M,10.00,M,OVC,M,M,M,1600.00,M,M,M,M,M,M,M,M,M,M,39.18,KRTS 010635Z AUTO 34009KT 10SM OVC016 07/05 A2986 RMK AO2,M
MEV,2023-10-01 06:35,-119.7500,38.9963,1441.42,44.60,44.60,100.00,0.00,0.00,0.00,29.83,M,10.00,M,BKN,BKN,OVC,M,3800.00,4600.00,5500.00,M,M,M,M,M,M,M,M,44.60,KMEV 010635Z AUTO 00000KT 10SM BKN038 BKN046 OVC055 07/07 A2983 RMK AO2,M
BAM,2023-10-01 06:35,-116.8743,40.5990,1382.36,48.20,46.40,93.45,0.00,0.00,0.00,29.79,M,10.00,M,SCT,BKN,OVC,M,800.00,3100.00,4200.00,M,M,M,M,M,M,M,M,48.20,KBAM 010635Z AUTO 00000KT 10SM SCT008 BKN031 OVC042 09/08 A2979 RMK AO1,M
HTH,2023-10-01 06:35,-118.6315,38.5448,1282.89,48.20,46.40,93.45,0.00,0.00,0.00,29.81,M,10.00,M,BKN,OVC,M,M,5500.00,6500.00,M,M,M,M,M,M,M,M,M,48.20,KHTH 010635Z AUTO 00000KT 10SM BKN055 OVC065 09/08 A2981 RMK A01,M
TMT,2023-10-01 06:35,-117.1971,39.4643,1749.34,43.30,41.70,94.03,0.00,0.00,0.00,29.81,M,10.00,M,OVC,M,M,M,3800.00,M,M,M,M,M,M,M,M,M,M,43.30,KTMT 010635Z AUTO 00000KT 10SM OVC038 06/05 A2981 RMK AO2 T00630054,M
TPH,2023-10-01 06:39,-117.0904,38.0505,1654.00,42.00,41.00,96.21,120.00,3.00,0.00,29.79,M,10.00,M,SCT,SCT,BKN,M,1600.00,3800.00,6000.00,M,M,M,M,M,M,M,M,40.12,KTPH 010639Z AUTO 12003KT 10SM SCT016 SCT038 BKN060 06/05 A2979 RMK AO2 T00560050,M
10U,2023-10-01 06:40,-116.1876,41.9532,1637.00,44.60,41.00,87.09,20.00,10.00,0.00,29.81,M,10.00,19.00,BKN,BKN,OVC,M,1400.00,2500.00,6000.00,M,M,M,M,M,M,M,M,38.77,K10U 010640Z AUTO 02010G19KT 10SM BKN014 BKN025 OVC060 07/05 A2981 RMK AO2,M
05U,2023-10-01 06:50,-116.0051,39.6042,1811.23,41.00,39.20,93.24,0.00,0.00,0.00,29.80,M,10.00,M,BKN,BKN,OVC,M,2200.00,6000.00,7000.00,M,M,M,M,M,M,M,M,41.00,K05U 010650Z AUTO 00000KT 10SM BKN022 BKN060 OVC070 05/04 A2980 RMK A01,M
P68,2023-10-01 06:53,-116.0056,39.6014,1993.00,41.00,39.00,92.52,80.00,3.00,0.00,29.77,1004.50,M,M,M,M,M,M,M,M,M,M,M,M,M,M,M,M,M,38.98,KP68 010653Z AUTO 08003KT 05/04 A2977 RMK AO1 SLP045 T00500039,M
DRA,2023-10-01 06:53,-116.0278,36.6206,1009.00,53.00,47.00,80.00,0.00,0.00,0.01,29.75,1004.20,10.00,M,FEW,OVC,M,M,4300.00,6500.00,M,M,M,M,M,M,M,M,M,53.00,KDRA 010653Z AUTO 00000KT 10SM FEW043 OVC065 12/08 A2975 RMK AO2 RAB27E43 SLP042 P0001 T01170083,M
ELY,2023-10-01 06:53,-114.8453,39.2950,1909.00,43.00,34.00,70.30,300.00,9.00,0.00,29.76,1001.20,10.00,M,SCT,M,M,M,8000.00,M,M,M,M,M,M,M,M,M,M,37.19,KELY 010653Z AUTO 30009KT 10SM SCT080 06/01 A2976 RMK AO2 SLP012 T00610011,M
VGT,2023-10-01 06:53,-115.1933,36.2111,667.00,67.00,42.00,40.15,250.00,8.00,0.00,29.70,1005.50,10.00,M,CLR,M,M,M,M,M,M,M,M,M,M,M,M,M,M,67.00,KVGT 010653Z AUTO 25008KT 10SM CLR 19/06 A2970 RMK AO2 SLP055 T01940056,M
LOL,2023-10-01 06:53,-118.5701,40.0684,1192.43,49.00,46.00,89.33,30.00,5.00,0.01,29.79,1007.20,10.00,M,OVC,M,M,M,4700.00,M,M,M,M,M,M,M,M,M,M,46.58,KLOL 010653Z AUTO 03005KT 10SM OVC047 09/08 A2979 RMK AO2 RAE04 SLP072 P0001 T00940078,M
EKO,2023-10-01 06:54,-115.7860,40.8242,1367.00,46.40,42.80,87.19,0.00,0.00,M,29.77,M,10.00,M,SCT,BKN,OVC,M,1601.00,3198.00,5000.00,M,M,M,M,M,M,M,M,46.40,SPECI KEKO 010654Z 00000KT 10SM SCT016 BKN032 OVC050 08/06 A2977 RMK AO2 $ FIBI,M
BVU,2023-10-01 06:55,-114.8611,35.9475,671.00,62.60,41.00,45.04,230.00,9.00,0.00,29.72,M,10.00,M,CLR,M,M,M,M,M,M,M,M,M,M,M,M,M,M,62.60,KBVU 010655Z AUTO 23009KT 10SM CLR 17/05 A2972 RMK AO2 LTG DSNT NE AND E,M
CXP,2023-10-01 06:55,-119.7326,39.1923,1431.00,48.20,42.80,81.47,0.00,0.00,0.00,29.84,M,10.00,M,FEW,FEW,OVC,M,2500.00,3100.00,5000.00,M,M,M,M,M,M,M,M,48.20,KCXP 010655Z AUTO 00000KT 10SM FEW025 FEW031 OVC050 09/06 A2984 RMK AO2,M
INS,2023-10-01 06:55,-115.6733,36.5872,955.00,57.40,37.40,47.10,280.00,13.00,0.00,29.74,1003.90,10.00,M,SCT,BKN,M,M,11000.00,14000.00,M,M,M,M,M,M,M,M,M,57.40,KINS 010655Z AUTO 28013KT 10SM SCT110 BKN140 14/03 A2974 RMK AO2 SLP039 T01410030 $,M
RNO,2023-10-01 06:55,-119.7711,39.4839,1341.00,49.00,43.00,79.68,330.00,10.00,T,29.83,1007.80,10.00,18.00,OVC,M,M,M,2600.00,M,M,M,-RA,M,M,M,M,M,M,44.29,KRNO 010655Z 33010G18KT 10SM -RA OVC026 09/06 A2983 RMK AO2 RAE23B48 SLP078 P0000 T00940061,M
LSV,2023-10-01 06:55,-115.0343,36.2362,570.00,66.40,41.40,40.06,230.00,12.00,0.00,29.66,1002.60,10.00,M,CLR,M,M,M,M,M,M,M,M,M,M,M,M,M,M,66.40,KLSV 010655Z AUTO 23012KT 10SM CLR 19/05 A2966 RMK AO2 SLP026 T01910052 $,M
RTS,2023-10-01 06:55,-119.8764,39.6682,1539.00,44.60,41.00,87.09,350.00,14.00,0.00,29.86,M,10.00,M,BKN,BKN,OVC,M,1600.00,2100.00,3300.00,M,M,M,M,M,M,M,M,37.40,KRTS 010655Z AUTO 35014KT 10SM BKN016 BKN021 OVC033 07/05 A2986 RMK AO2,M
MEV,2023-10-01 06:55,-119.7500,38.9963,1441.42,44.60,44.60,100.00,0.00,0.00,0.00,29.83,M,10.00,M,OVC,M,M,M,3500.00,M,M,M,M,M,M,M,M,M,M,44.60,KMEV 010655Z AUTO 00000KT 10SM OVC035 07/07 A2983 RMK AO2,M
BAM,2023-10-01 06:55,-116.8743,40.5990,1382.36,48.20,44.60,87.28,0.00,0.00,0.00,29.78,M,10.00,M,SCT,BKN,OVC,M,800.00,2600.00,3700.00,M,M,M,M,M,M,M,M,48.20,KBAM 010655Z AUTO 00000KT 10SM SCT008 BKN026 OVC037 09/07 A2978 RMK AO1,M
HTH,2023-10-01 06:55,-118.6315,38.5448,1282.89,48.20,46.40,93.45,0.00,0.00,0.00,29.80,M,10.00,M,BKN,OVC,M,M,4900.00,6500.00,M,M,M,M,M,M,M,M,M,48.20,KHTH 010655Z AUTO 00000KT 10SM BKN049 OVC065 09/08 A2980 RMK A01,M
TMT,2023-10-01 06:55,-117.1971,39.4643,1749.34,43.70,40.60,88.75,270.00,5.00,0.00,29.80,M,10.00,M,OVC,M,M,M,3200.00,M,M,M,M,M,M,M,M,M,M,40.29,KTMT 010655Z AUTO 27005KT 10SM OVC032 07/05 A2980 RMK AO2 LTG DSNT SE T00650048,M
EKO,2023-10-01 06:56,-115.7860,40.8242,1367.00,46.00,43.00,89.20,0.00,0.00,0.00,29.77,1005.80,10.00,M,SCT,BKN,OVC,M,1600.00,3200.00,5000.00,M,M,M,M,M,M,M,M,46.00,KEKO 010656Z AUTO 00000KT 10SM SCT016 BKN032 OVC050 08/06 A2977 RMK AO2 SLP058 T00780061 $,M
WMC,2023-10-01 06:56,-117.8072,40.9019,1315.00,47.00,44.00,89.24,340.00,11.00,0.06,29.78,1006.20,8.00,M,FEW,SCT,OVC,M,2800.00,3600.00,4400.00,M,-RA,M,M,M,M,M,M,41.42,KWMC 010656Z AUTO 34011KT 8SM -RA FEW028 SCT036 OVC044 08/07 A2978 RMK AO2 SLP062 P0006 T00830067,M
NFL,2023-10-01 06:56,-118.7010,39.4166,1199.00,49.00,47.00,92.77,290.00,5.00,0.01,29.80,1006.90,10.00,M,FEW,SCT,OVC,M,2500.00,3200.00,4800.00,M,-RA,M,M,M,M,M,M,46.58,KNFL 010656Z AUTO 29005KT 10SM -RA FEW025 SCT032 OVC048 09/08 A2980 RMK AO2 RAB10 SLP069 P0001 T00940083,M
HND,2023-10-01 06:56,-115.1344,35.9729,742.79,62.00,43.00,49.69,240.00,15.00,0.00,29.73,1006.90,10.00,M,CLR,M,M,M,M,M,M,M,M,M,M,M,M,M,M,62.00,KHND 010656Z AUTO 24015KT 10SM CLR 17/06 A2973 RMK AO2 SLP069 T01670061 402280167,M
TPH,2023-10-01 06:56,-117.0904,38.0505,1654.00,42.00,41.00,96.21,150.00,3.00,0.00,29.79,1007.10,10.00,M,FEW,M,M,M,6000.00,M,M,M,M,M,M,M,M,M,M,40.12,KTPH 010656Z AUTO 15003KT 10SM FEW060 06/05 A2979 RMK AO2 SLP071 T00560050,M
LAS,2023-10-01 06:56,-115.1634,36.0719,663.00,64.00,44.00,48.12,220.00,15.00,0.00,29.70,1004.20,10.00,21.00,FEW,FEW,M,M,12000.00,20000.00,M,M,M,M,M,M,M,M,M,64.00,KLAS 010656Z 22015G21KT 10SM FEW120 FEW200 18/07 A2970 RMK AO2 SLP042 T01780067,M
10U,2023-10-01 07:00,-116.1876,41.9532,1637.00,44.60,41.00,87.09,40.00,9.00,0.00,29.81,M,10.00,14.00,BKN,BKN,OVC,M,1400.00,3900.00,6000.00,M,M,M,M,M,M,M,M,39.18,K10U 010700Z AUTO 04009G14KT 10SM BKN014 BKN039 OVC060 07/05 A2981 RMK AO2,M
05U,2023-10-01 07:10,-116.0051,39.6042,1811.23,41.00,39.20,93.24,0.00,0.00,0.00,29.80,M,10.00,M,FEW,OVC,M,M,1700.00,2300.00,M,M,M,M,M,M,M,M,M,41.00,K05U 010710Z AUTO 00000KT 10SM FEW017 OVC023 05/04 A2980 RMK A01,M
BVU,2023-10-01 07:15,-114.8611,35.9475,671.00,60.80,42.80,51.45,230.00,9.00,0.00,29.72,M,10.00,M,CLR,M,M,M,M,M,M,M,M,M,M,M,M,M,M,60.80,KBVU 010715Z AUTO 23009KT 10SM CLR 16/06 A2972 RMK AO2,M
CXP,2023-10-01 07:15,-119.7326,39.1923,1431.00,48.20,44.60,87.28,80.00,3.00,0.00,29.84,M,10.00,M,OVC,M,M,M,4800.00,M,M,M,M,M,M,M,M,M,M,47.21,KCXP 010715Z AUTO 08003KT 10SM OVC048 09/07 A2984 RMK AO2,M
RTS,2023-10-01 07:15,-119.8764,39.6682,1539.00,44.60,39.20,81.20,340.00,9.00,0.00,29.86,M,10.00,17.00,FEW,SCT,OVC,M,1300.00,1900.00,3700.00,M,M,M,M,M,M,M,M,39.18,KRTS 010715Z AUTO 34009G17KT 10SM FEW013 SCT019 OVC037 07/04 A2986 RMK AO2,M
MEV,2023-10-01 07:15,-119.7500,38.9963,1441.42,44.60,44.60,100.00,170.00,3.00,0.00,29.83,M,10.00,M,SCT,OVC,M,M,2300.00,3500.00,M,M,M,M,M,M,M,M,M,43.09,KMEV 010715Z AUTO 17003KT 10SM SCT023 OVC035 07/07 A2983 RMK AO2,M
BAM,2023-10-01 07:15,-116.8743,40.5990,1382.36,48.20,44.60,87.28,0.00,0.00,0.00,29.78,M,10.00,M,BKN,BKN,OVC,M,2600.00,3500.00,5000.00,M,M,M,M,M,M,M,M,48.20,KBAM 010715Z AUTO 00000KT 10SM BKN026 BKN035 OVC050 09/07 A2978 RMK AO1,M
HTH,2023-10-01 07:15,-118.6315,38.5448,1282.89,48.20,44.60,87.28,350.00,4.00,0.00,29.81,M,10.00,M,FEW,BKN,OVC,M,2700.00,3700.00,5000.00,M,M,M,M,M,M,M,M,46.34,KHTH 010715Z AUTO 35004KT 10SM FEW027 BKN037 OVC050 09/07 A2981 RMK A01,M
TMT,2023-10-01 07:15,-117.1971,39.4643,1749.34,43.70,40.30,87.72,260.00,6.00,0.00,29.80,M,10.00,M,BKN,OVC,M,M,2500.00,3200.00,M,M,DZ,M,M,M,M,M,M,39.62,KTMT 010715Z AUTO 26006KT 10SM DZ BKN025 OVC032 07/05 A2980 RMK AO2 T00650046,M
10U,2023-10-01 07:20,-116.1876,41.9532,1637.00,44.60,41.00,87.09,10.00,8.00,0.00,29.80,M,10.00,15.00,BKN,BKN,OVC,M,1300.00,3900.00,7500.00,M,M,M,M,M,M,M,M,39.63,K10U 010720Z AUTO 01008G15KT 10SM BKN013 BKN039 OVC075 07/05 A2980 RMK AO2,M
WMC,2023-10-01 07:25,-117.8072,40.9019,1315.00,46.00,44.00,92.68,350.00,14.00,0.03,29.78,M,8.00,M,BKN,OVC,M,M,2700.00,3600.00,M,M,-RA,M,M,M,M,M,M,39.21,KWMC 010725Z AUTO 35014KT 8SM -RA BKN027 OVC036 08/07 A2978 RMK AO2 P0003 T00780067,M
05U,2023-10-01 07:30,-116.0051,39.6042,1811.23,41.00,39.20,93.24,0.00,0.00,0.00,29.80,M,10.00,M,FEW,OVC,M,M,1700.00,2500.00,M,M,M,M,M,M,M,M,M,41.00,K05U 010730Z AUTO 00000KT 10SM FEW017 OVC025 05/04 A2980 RMK A01,M
BVU,2023-10-01 07:35,-114.8611,35.9475,671.00,60.80,42.80,51.45,230.00,12.00,0.00,29.72,M,10.00,M,CLR,M,M,M,M,M,M,M,M,M,M,M,M,M,M,60.80,KBVU 010735Z AUTO 23012KT 10SM CLR 16/06 A2972 RMK AO2,M
CXP,2023-10-01 07:35,-119.7326,39.1923,1431.00,48.20,44.60,87.28,0.00,0.00,0.00,29.84,M,10.00,M,FEW,SCT,BKN,M,1700.00,2400.00,3600.00,M,-RA,M,M,M,M,M,M,48.20,KCXP 010735Z AUTO 00000KT 10SM -RA FEW017 SCT024 BKN036 09/07 A2984 RMK AO2,M
RTS,2023-10-01 07:35,-119.8764,39.6682,1539.00,42.80,39.20,86.99,330.00,6.00,0.00,29.86,M,10.00,12.00,FEW,FEW,OVC,M,1400.00,1800.00,3800.00,M,-DZ,M,M,M,M,M,M,38.54,KRTS 010735Z AUTO 33006G12KT 10SM -DZ FEW014 FEW018 OVC038 06/04 A2986 RMK AO2,M
MEV,2023-10-01 07:35,-119.7500,38.9963,1441.42,46.40,44.60,93.40,0.00,0.00,0.00,29.83,M,10.00,M,BKN,BKN,OVC,M,2200.00,3400.00,3900.00,M,M,M,M,M,M,M,M,46.40,KMEV 010735Z AUTO 00000KT 10SM BKN022 BKN034 OVC039 08/07 A2983 RMK AO2,M
BAM,2023-10-01 07:35,-116.8743,40.5990,1382.36,48.20,46.40,93.45,0.00,0.00,0.00,29.77,M,10.00,M,BKN,BKN,OVC,M,3000.00,4100.00,5000.00,M,M,M,M,M,M,M,M,48.20,KBAM 010735Z AUTO 00000KT 10SM BKN030 BKN041 OVC050 09/08 A2977 RMK AO1,M
HTH,2023-10-01 07:35,-118.6315,38.5448,1282.89,48.20,46.40,93.45,30.00,7.00,0.00,29.82,M,2.00,M,FEW,BKN,OVC,M,400.00,2900.00,3700.00,M,BR,M,M,M,M,M,M,44.53,KHTH 010735Z AUTO 03007KT 2SM BR FEW004 BKN029 OVC037 09/08 A2982 RMK A01,M
TMT,2023-10-01 07:35,-117.1971,39.4643,1749.34,43.30,41.00,91.52,0.00,0.00,0.00,29.80,M,10.00,M,SCT,BKN,OVC,M,1400.00,2100.00,2500.00,M,-RA,M,M,M,M,M,M,43.30,KTMT 010735Z AUTO 00000KT 10SM -RA SCT014 BKN021 OVC025 06/05 A2980 RMK AO2 T00630050,M
10U,2023-10-01 07:40,-116.1876,41.9532,1637.00,42.80,41.00,93.30,10.00,7.00,0.00,29.79,M,10.00,M,FEW,BKN,OVC,M,1200.00,6000.00,7500.00,M,-RA,M,M,M,M,M,M,37.94,K10U 010740Z AUTO 01007KT 10SM -RA FEW012 BKN060 OVC075 06/05 A2979 RMK AO2,M
05U,2023-10-01 07:50,-116.0051,39.6042,1811.23,41.00,39.20,93.24,0.00,0.00,0.00,29.79,M,10.00,M,SCT,OVC,M,M,1700.00,2500.00,M,M,M,M,M,M,M,M,M,41.00,K05U 010750Z AUTO 00000KT 10SM SCT017 OVC025 05/04 A2979 RMK A01,M
P68,2023-10-01 07:53,-116.0056,39.6014,1993.00,41.00,40.00,96.19,170.00,3.00,0.00,29.77,1004.70,M,M,M,M,M,M,M,M,M,M,M,M,M,M,M,M,M,38.98,KP68 010753Z AUTO 17003KT 05/04 A2977 RMK AO1 SLP047 T00500044 401440044,M
DRA,2023-10-01 07:53,-116.0278,36.6206,1009.00,53.00,44.00,71.39,220.00,6.00,0.00,29.76,1004.60,10.00,M,OVC,M,M,M,6000.00,M,M,M,M,M,M,M,M,M,M,53.00,KDRA 010753Z AUTO 22006KT 10SM OVC060 12/07 A2976 RMK AO2 SLP046 T01170067 402220111,M
ELY,2023-10-01 07:53,-114.8453,39.2950,1909.00,44.00,35.00,70.42,90.00,5.00,0.00,29.77,1001.50,10.00,M,BKN,OVC,M,M,5500.00,7000.00,M,M,M,M,M,M,M,M,M,40.65,KELY 010753Z AUTO 09005KT 10SM BKN055 OVC070 07/02 A2977 RMK AO2 SLP015 T00670017 401720056,M
VGT,2023-10-01 07:53,-115.1933,36.2111,667.00,66.00,42.00,41.57,240.00,11.00,0.00,29.70,1005.90,10.00,M,CLR,M,M,M,M,M,M,M,M,M,M,M,M,M,M,66.00,KVGT 010753Z AUTO 24011KT 10SM CLR 19/06 A2970 RMK AO2 SLP059 T01890056 402500189,M
LOL,2023-10-01 07:53,-118.5701,40.0684,1192.43,48.00,44.00,85.95,20.00,10.00,T,29.79,1007.10,10.00,M,OVC,M,M,M,4700.00,M,M,M,-RA,M,M,M,M,M,M,43.03,KLOL 010753Z AUTO 02010KT 10SM -RA OVC047 09/07 A2979 RMK AO2 RAB50 SLP071 P0000 T00890067 401670089,M
BVU,2023-10-01 07:55,-114.8611,35.9475,671.00,60.80,41.00,48.00,220.00,13.00,0.00,29.73,M,10.00,M,CLR,M,M,M,M,M,M,M,M,M,M,M,M,M,M,60.80,KBVU 010755Z AUTO 22013KT 10SM CLR 16/05 A2973 RMK AO2,M
CXP,2023-10-01 07:55,-119.7326,39.1923,1431.00,48.20,42.80,81.47,M,4.00,0.00,29.84,M,10.00,M,FEW,BKN,OVC,M,1900.00,3000.00,3600.00,M,M,M,M,M,M,M,M,46.34,KCXP 010755Z AUTO VRB04KT 10SM FEW019 BKN030 OVC036 09/06 A2984 RMK AO2,M
INS,2023-10-01 07:55,-115.6733,36.5872,955.00,56.70,37.20,47.93,280.00,14.00,0.00,29.74,1003.90,10.00,M,BKN,M,M,M,12000.00,M,M,M,M,M,M,M,M,M,M,56.70,KINS 010755Z AUTO 28014KT 10SM BKN120 14/03 A2974 RMK AO2 SLP039 T01370029 402100131 $,M
RNO,2023-10-01 07:55,-119.7711,39.4839,1341.00,48.00,42.00,79.60,330.00,10.00,T,29.83,1007.30,10.00,M,OVC,M,M,M,3000.00,M,M,M,-RA,M,M,M,M,M,M,43.03,KRNO 010755Z 33010KT 10SM -RA OVC030 09/06 A2983 RMK AO2 SLP073 P0000 T00890056 401670089,M
LSV,2023-10-01 07:55,-115.0343,36.2362,570.00,64.20,43.00,45.99,210.00,8.00,0.00,29.68,1003.40,10.00,M,CLR,M,M,M,M,M,M,M,M,M,M,M,M,M,M,64.20,KLSV 010755Z AUTO 21008KT 10SM CLR 18/06 A2968 RMK AO2 SLP034 T01790061 402450179 $,M
RTS,2023-10-01 07:55,-119.8764,39.6682,1539.00,42.80,39.20,86.99,310.00,7.00,0.00,29.86,M,10.00,13.00,BKN,BKN,OVC,M,1300.00,2000.00,3800.00,M,M,M,M,M,M,M,M,37.94,KRTS 010755Z AUTO 31007G13KT 10SM BKN013 BKN020 OVC038 06/04 A2986 RMK AO2,M
MEV,2023-10-01 07:55,-119.7500,38.9963,1441.42,46.40,42.80,87.19,0.00,0.00,0.00,29.83,M,10.00,M,FEW,SCT,OVC,M,2200.00,3300.00,4000.00,M,M,M,M,M,M,M,M,46.40,KMEV 010755Z AUTO 00000KT 10SM FEW022 SCT033 OVC040 08/06 A2983 RMK AO2,M
BAM,2023-10-01 07:55,-116.8743,40.5990,1382.36,48.20,46.40,93.45,0.00,0.00,0.00,29.77,M,10.00,M,SCT,BKN,OVC,M,600.00,3200.00,5000.00,M,M,M,M,M,M,M,M,48.20,KBAM 010755Z AUTO 00000KT 10SM SCT006 BKN032 OVC050 09/08 A2977 RMK AO1,M
HTH,2023-10-01 07:55,-118.6315,38.5448,1282.89,46.40,46.40,100.00,0.00,0.00,0.13,29.81,M,2.50,M,FEW,FEW,OVC,M,400.00,2400.00,3000.00,M,BR,M,M,M,M,M,M,46.40,KHTH 010755Z AUTO 00000KT 2 1/2SM BR FEW004 FEW024 OVC030 08/08 A2981 RMK A01 P0013,M
TMT,2023-10-01 07:55,-117.1971,39.4643,1749.34,42.80,40.00,89.75,290.00,4.00,0.00,29.80,M,10.00,M,SCT,SCT,OVC,M,1200.00,2100.00,2600.00,M,DZ,M,M,M,M,M,M,40.03,KTMT 010755Z AUTO 29004KT 10SM DZ SCT012 SCT021 OVC026 06/05 A2980 RMK AO2 T00600045 401020058,M
EKO,2023-10-01 07:56,-115.7860,40.8242,1367.00,47.00,43.00,85.89,0.00,0.00,0.00,29.75,1004.80,10.00,M,OVC,M,M,M,3300.00,M,M,M,M,M,M,M,M,M,M,47.00,KEKO 010756Z AUTO 00000KT 10SM OVC033 08/06 A2975 RMK AO2 SLP048 T00830061 401440067 $,M
WMC,2023-10-01 07:56,-117.8072,40.9019,1315.00,46.00,43.00,89.20,340.00,14.00,0.04,29.77,1006.10,10.00,21.00,BKN,OVC,M,M,2600.00,3800.00,M,M,-RA,M,M,M,M,M,M,39.21,KWMC 010756Z AUTO 34014G21KT 10SM -RA BKN026 OVC038 08/06 A2977 RMK AO2 SLP061 P0004 T00780061 401560078,M
NFL,2023-10-01 07:56,-118.7010,39.4166,1199.00,49.00,46.00,89.33,310.00,7.00,0.01,29.80,1006.80,9.00,M,SCT,OVC,M,M,3600.00,5000.00,M,M,-RA,M,M,M,M,M,M,45.50,KNFL 010756Z AUTO 31007KT 9SM -RA SCT036 OVC050 09/08 A2980 RMK AO2 RAE02B32 SLP068 P0001 T00940078 401890044,M
HND,2023-10-01 07:56,-115.1344,35.9729,742.79,61.00,44.00,53.49,220.00,17.00,0.00,29.75,1007.30,10.00,M,CLR,M,M,M,M,M,M,M,M,M,M,M,M,M,M,61.00,KHND 010756Z AUTO 22017KT 10SM CLR 16/07 A2975 RMK AO2 SLP073 T01610067,M
TPH,2023-10-01 07:56,-117.0904,38.0505,1654.00,42.00,41.00,96.21,0.00,0.00,0.00,29.79,1007.40,10.00,M,FEW,SCT,OVC,M,1600.00,5000.00,7500.00,M,M,M,M,M,M,M,M,42.00,KTPH 010756Z AUTO 00000KT 10SM FEW016 SCT050 OVC075 06/05 A2979 RMK AO2 SLP074 T00560050 401500050,M
LAS,2023-10-01 07:56,-115.1634,36.0719,663.00,62.00,44.00,51.63,210.00,6.00,0.00,29.72,1004.80,10.00,M,FEW,M,M,M,12000.00,M,M,M,M,M,M,M,30.00,220.00,2023-10-01 07:18,62.00,KLAS 010756Z 21006KT 10SM FEW120 17/07 A2972 RMK AO2 PK WND 22030/0718 SLP048 T01670067 402330167,M
10U,2023-10-01 08:00,-116.1876,41.9532,1637.00,42.80,41.00,93.30,40.00,8.00,0.00,29.79,M,9.00,M,FEW,SCT,BKN,M,1400.00,2600.00,5000.00,M,-RA,M,M,M,M,M,M,37.42,K10U 010800Z AUTO 04008KT 9SM -RA FEW014 SCT026 BKN050 06/05 A2979 RMK AO2,M
EKO,2023-10-01 08:03,-115.7860,40.8242,1367.00,47.00,42.00,82.65,0.00,0.00,0.00,29.74,M,10.00,M,FEW,OVC,M,M,800.00,3300.00,M,M,M,M,M,M,M,M,M,47.00,KEKO 010803Z AUTO 00000KT 10SM FEW008 OVC033 08/06 A2974 RMK AO2 T00830056 $,M
WMC,2023-10-01 08:07,-117.8072,40.9019,1315.00,46.00,43.00,89.20,340.00,14.00,T,29.77,M,10.00,20.00,FEW,SCT,OVC,M,2600.00,3200.00,3900.00,M,-RA,M,M,M,M,M,M,39.21,KWMC 010807Z AUTO 34014G20KT 10SM -RA FEW026 SCT032 OVC039 08/06 A2977 RMK AO2 P0000 T00780061,M
05U,2023-10-01 08:10,-116.0051,39.6042,1811.23,41.00,39.20,93.24,320.00,3.00,0.00,29.80,M,10.00,M,FEW,OVC,M,M,1700.00,2300.00,M,M,M,M,M,M,M,M,M,38.98,K05U 010810Z AUTO 32003KT 10SM FEW017 OVC023 05/04 A2980 RMK A01,M
BVU,2023-10-01 08:15,-114.8611,35.9475,671.00,60.80,42.80,51.45,230.00,13.00,0.00,29.73,M,10.00,M,CLR,M,M,M,M,M,M,M,M,M,M,M,M,M,M,60.80,KBVU 010815Z AUTO 23013KT 10SM CLR 16/06 A2973 RMK AO2,M
CXP,2023-10-01 08:15,-119.7326,39.1923,1431.00,48.20,41.00,76.01,220.00,3.00,0.00,29.84,M,10.00,M,BKN,OVC,M,M,2600.00,3200.00,M,M,M,M,M,M,M,M,M,47.21,KCXP 010815Z AUTO 22003KT 10SM BKN026 OVC032 09/05 A2984 RMK AO2,M
RTS,2023-10-01 08:15,-119.8764,39.6682,1539.00,42.80,39.20,86.99,330.00,7.00,0.00,29.86,M,10.00,M,SCT,SCT,OVC,M,1300.00,2000.00,3300.00,M,M,M,M,M,M,M,M,37.94,KRTS 010815Z AUTO 33007KT 10SM SCT013 SCT020 OVC033 06/04 A2986 RMK AO2,M
MEV,2023-10-01 08:15,-119.7500,38.9963,1441.42,46.40,44.60,93.40,230.00,3.00,0.00,29.83,M,10.00,M,SCT,BKN,OVC,M,3400.00,4000.00,4800.00,M,M,M,M,M,M,M,M,45.15,KMEV 010815Z AUTO 23003KT 10SM SCT034 BKN040 OVC048 08/07 A2983 RMK AO2,M
BAM,2023-10-01 08:15,-116.8743,40.5990,1382.36,48.20,46.40,93.45,0.00,0.00,0.00,29.77,M,10.00,M,SCT,BKN,OVC,M,800.00,1300.00,5000.00,M,M,M,M,M,M,M,M,48.20,KBAM 010815Z AUTO 00000KT 10SM SCT008 BKN013 OVC050 09/08 A2977 RMK AO1,M
HTH,2023-10-01 08:15,-118.6315,38.5448,1282.89,48.20,46.40,93.45,0.00,0.00,0.00,29.82,M,3.00,M,FEW,SCT,OVC,M,1700.00,2600.00,3100.00,M,BR,M,M,M,M,M,M,48.20,KHTH 010815Z AUTO 00000KT 3SM BR FEW017 SCT026 OVC031 09/08 A2982 RMK A01,M
TMT,2023-10-01 08:15,-117.1971,39.4643,1749.34,42.80,40.30,90.80,270.00,3.00,0.00,29.80,M,10.00,M,OVC,M,M,M,2900.00,M,M,M,-DZ,M,M,M,M,M,M,41.03,KTMT 010815Z AUTO 27003KT 10SM -DZ OVC029 06/05 A2980 RMK AO2 T00600046,M
10U,2023-10-01 08:20,-116.1876,41.9532,1637.00,42.80,41.00,93.30,20.00,9.00,0.00,29.79,M,7.00,M,FEW,BKN,OVC,M,300.00,2600.00,5500.00,M,-RA,M,M,M,M,M,M,36.94,K10U 010820Z AUTO 02009KT 7SM -RA FEW003 BKN026 OVC055 06/05 A2979 RMK AO2,M
EKO,2023-10-01 08:25,-115.7860,40.8242,1367.00,46.00,43.00,89.20,110.00,3.00,0.00,29.75,M,10.00,M,BKN,OVC,M,M,800.00,3400.00,M,M,M,M,M,M,M,M,M,44.69,KEKO 010825Z AUTO 11003KT 10SM BKN008 OVC034 08/06 A2975 RMK AO2 T00780061 $,M
05U,2023-10-01 08:30,-116.0051,39.6042,1811.23,41.00,41.00,100.00,0.00,0.00,0.00,29.79,M,10.00,M,OVC,M,M,M,2300.00,M,M,M,M,M,M,M,M,M,M,41.00,K05U 010830Z AUTO 00000KT 10SM OVC023 05/05 A2979 RMK A01,M
RNO,2023-10-01 08:31,-119.7711,39.4839,1341.00,48.00,41.00,76.58,300.00,8.00,0.01,29.84,M,10.00,M,OVC,M,M,M,2800.00,M,M,M,-RA,M,M,M,M,M,M,43.82,KRNO 010831Z 30008KT 10SM -RA OVC028 09/05 A2984 RMK AO2 P0001 T00890050,M
BVU,2023-10-01 08:35,-114.8611,35.9475,671.00,60.80,42.80,51.45,210.00,10.00,0.00,29.74,M,10.00,M,CLR,M,M,M,M,M,M,M,M,M,M,M,M,M,M,60.80,KBVU 010835Z AUTO 21010KT 10SM CLR 16/06 A2974 RMK AO2,M
CXP,2023-10-01 08:35,-119.7326,39.1923,1431.00,48.20,41.00,76.01,20.00,10.00,0.00,29.84,M,10.00,M,FEW,OVC,M,M,2300.00,2800.00,M,M,M,M,M,M,M,M,M,43.28,KCXP 010835Z AUTO 02010KT 10SM FEW023 OVC028 09/05 A2984 RMK AO2,M
EKO,2023-10-01 08:35,-115.7860,40.8242,1367.00,46.00,43.00,89.20,0.00,0.00,0.00,29.75,M,10.00,M,SCT,OVC,M,M,800.00,3400.00,M,M,M,M,M,M,M,M,M,46.00,KEKO 010835Z AUTO 00000KT 10SM SCT008 OVC034 08/06 A2975 RMK AO2 T00780061 $,M
RTS,2023-10-01 08:35,-119.8764,39.6682,1539.00,42.80,39.20,86.99,340.00,8.00,0.00,29.86,M,10.00,M,FEW,OVC,M,M,2300.00,3100.00,M,M,M,M,M,M,M,M,M,37.42,KRTS 010835Z AUTO 34008KT 10SM FEW023 OVC031 06/04 A2986 RMK AO2,M
MEV,2023-10-01 08:35,-119.7500,38.9963,1441.42,46.40,44.60,93.40,240.00,4.00,0.00,29.83,M,10.00,M,SCT,OVC,M,M,3700.00,4800.00,M,M,M,M,M,M,M,M,M,44.24,KMEV 010835Z AUTO 24004KT 10SM SCT037 OVC048 08/07 A2983 RMK AO2,M
BAM,2023-10-01 08:35,-116.8743,40.5990,1382.36,46.40,46.40,100.00,0.00,0.00,0.00,29.77,M,10.00,M,BKN,BKN,OVC,M,1300.00,1900.00,3000.00,M,M,M,M,M,M,M,M,46.40,KBAM 010835Z AUTO 00000KT 10SM BKN013 BKN019 OVC030 08/08 A2977 RMK AO1,M
HTH,2023-10-01 08:35,-118.6315,38.5448,1282.89,48.20,46.40,93.45,0.00,0.00,0.00,29.82,M,3.00,M,FEW,SCT,BKN,M,400.00,1700.00,2300.00,M,BR,M,M,M,M,M,M,48.20,KHTH 010835Z AUTO 00000KT 3SM BR FEW004 SCT017 BKN023 09/08 A2982 RMK A01,M
TMT,2023-10-01 08:35,-117.1971,39.4643,1749.34,43.00,40.30,90.10,0.00,0.00,0.00,29.80,M,10.00,M,OVC,M,M,M,2900.00,M,M,M,RA,M,M,M,M,M,M,43.00,KTMT 010835Z AUTO 00000KT 10SM RA OVC029 06/05 A2980 RMK AO2 T00610046,M
10U,2023-10-01 08:40,-116.1876,41.9532,1637.00,42.80,41.00,93.30,360.00,6.00,0.00,29.80,M,10.00,M,FEW,BKN,OVC,M,2900.00,6000.00,7500.00,M,M,M,M,M,M,M,M,38.54,K10U 010840Z AUTO 36006KT 10SM FEW029 BKN060 OVC075 06/05 A2980 RMK AO2,M
NFL,2023-10-01 08:46,-118.7010,39.4166,1199.00,49.00,46.00,89.33,290.00,6.00,0.01,29.80,M,8.00,M,FEW,BKN,OVC,M,900.00,5500.00,7000.00,M,-RA,M,M,M,M,M,M,46.00,KNFL 010846Z AUTO 29006KT 8SM -RA FEW009 BKN055 OVC070 09/08 A2980 RMK AO2 P0001 T00940078,M
05U,2023-10-01 08:50,-116.0051,39.6042,1811.23,41.00,39.20,93.24,0.00,0.00,0.00,29.79,M,10.00,M,OVC,M,M,M,2300.00,M,M,M,M,M,M,M,M,M,M,41.00,K05U 010850Z AUTO 00000KT 10SM OVC023 05/04 A2979 RMK A01,M
P68,2023-10-01 08:53,-116.0056,39.6014,1993.00,41.00,40.00,96.19,0.00,0.00,0.00,29.77,1004.70,M,M,M,M,M,M,M,M,M,M,M,M,M,M,M,M,M,41.00,KP68 010853Z AUTO 00000KT 05/04 A2977 RMK AO1 SLP047 T00500044 56005,M
DRA,2023-10-01 08:53,-116.0278,36.6206,1009.00,53.00,44.00,71.39,240.00,5.00,0.00,29.77,1005.20,10.00,M,OVC,M,M,M,7000.00,M,M,M,M,M,M,M,M,M,M,53.00,KDRA 010853Z AUTO 24005KT 10SM OVC070 12/07 A2977 RMK AO2 SLP052 60001 T01170067 53007,M
ELY,2023-10-01 08:53,-114.8453,39.2950,1909.00,42.00,38.00,85.60,0.00,0.00,T,29.76,1001.70,10.00,M,BKN,BKN,OVC,M,3100.00,3800.00,8500.00,M,M,M,M,M,M,M,M,42.00,KELY 010853Z AUTO 00000KT 10SM BKN031 BKN038 OVC085 06/03 A2976 RMK AO2 RAB0757E50 SLP017 P0000 60000 T00560033 56004,M
VGT,2023-10-01 08:53,-115.1933,36.2111,667.00,64.00,42.00,44.57,270.00,8.00,0.00,29.72,1006.40,10.00,M,CLR,M,M,M,M,M,M,M,M,M,M,M,M,M,M,64.00,KVGT 010853Z AUTO 27008KT 10SM CLR 18/06 A2972 RMK AO2 SLP064 T01780056 51013,M
LOL,2023-10-01 08:53,-118.5701,40.0684,1192.43,47.00,44.00,89.24,360.00,7.00,T,29.80,1007.60,10.00,M,BKN,OVC,M,M,5500.00,7000.00,M,M,M,M,M,M,M,M,M,43.06,KLOL 010853Z AUTO 36007KT 10SM BKN055 OVC070 08/07 A2980 RMK AO2 RAE37 SLP076 P0000 60001 T00830067 55001 TSNO,M
BVU,2023-10-01 08:55,-114.8611,35.9475,671.00,59.00,42.80,54.86,220.00,11.00,0.00,29.74,M,10.00,M,CLR,M,M,M,M,M,M,M,M,M,M,M,M,M,M,59.00,KBVU 010855Z AUTO 22011KT 10SM CLR 15/06 A2974 RMK AO2,M
CXP,2023-10-01 08:55,-119.7326,39.1923,1431.00,48.20,41.00,76.01,340.00,10.00,0.00,29.85,M,10.00,M,FEW,OVC,M,M,2100.00,2800.00,M,M,-RA,M,M,M,M,M,M,43.28,KCXP 010855Z AUTO 34010KT 10SM -RA FEW021 OVC028 09/05 A2985 RMK AO2,M
INS,2023-10-01 08:55,-115.6733,36.5872,955.00,56.70,37.20,47.93,270.00,15.00,0.00,29.74,1003.90,10.00,M,FEW,M,M,M,7500.00,M,M,M,M,M,M,M,M,M,M,56.70,KINS 010855Z AUTO 27015KT 10SM FEW075 14/03 A2974 RMK AO2 SLP039 T01370029 50007 $,M
RNO,2023-10-01 08:55,-119.7711,39.4839,1341.00,48.00,41.00,76.58,300.00,11.00,0.01,29.84,1007.60,10.00,M,OVC,M,M,M,2700.00,M,M,M,M,M,M,M,M,M,M,42.69,KRNO 010855Z 30011KT 10SM OVC027 09/05 A2984 RMK AO2 RAE39 SLP076 P0001 60001 T00890050 53002,M
RTS,2023-10-01 08:55,-119.8764,39.6682,1539.00,42.80,39.20,86.99,330.00,8.00,0.00,29.86,M,10.00,M,BKN,OVC,M,M,2600.00,3100.00,M,M,M,M,M,M,M,M,M,37.42,KRTS 010855Z AUTO 33008KT 10SM BKN026 OVC031 06/04 A2986 RMK AO2,M
MEV,2023-10-01 08:55,-119.7500,38.9963,1441.42,46.40,44.60,93.40,0.00,0.00,0.00,29.83,M,10.00,M,FEW,OVC,M,M,3700.00,4600.00,M,M,M,M,M,M,M,M,M,46.40,KMEV 010855Z AUTO 00000KT 10SM FEW037 OVC046 08/07 A2983 RMK AO2,M
BAM,2023-10-01 08:55,-116.8743,40.5990,1382.36,46.40,44.60,93.40,0.00,0.00,0.00,29.77,M,10.00,M,SCT,SCT,OVC,M,1300.00,2100.00,4800.00,M,M,M,M,M,M,M,M,46.40,KBAM 010855Z AUTO 00000KT 10SM SCT013 SCT021 OVC048 08/07 A2977 RMK AO1,M
HTH,2023-10-01 08:55,-118.6315,38.5448,1282.89,48.20,46.40,93.45,210.00,6.00,0.17,29.82,M,4.00,M,SCT,BKN,OVC,M,2200.00,2600.00,3100.00,M,BR,M,M,M,M,M,M,45.04,KHTH 010855Z AUTO 21006KT 4SM BR SCT022 BKN026 OVC031 09/08 A2982 RMK A01 P0017,M
TMT,2023-10-01 08:55,-117.1971,39.4643,1749.34,42.80,40.50,91.51,0.00,0.00,0.00,29.80,M,10.00,M,OVC,M,M,M,2700.00,M,M,M,RA,M,M,M,M,M,M,42.80,KTMT 010855Z AUTO 00000KT 10SM RA OVC027 06/05 A2980 RMK AO2 T00600047,M
LSV,2023-10-01 08:55,-115.0343,36.2362,570.00,62.80,44.00,50.19,200.00,12.00,0.00,29.69,1003.80,10.00,M,CLR,M,M,M,M,M,M,M,M,M,M,M,M,M,M,62.80,KLSV 010855Z AUTO 20012KT 10SM CLR 17/07 A2969 RMK AO2 SLP038 T01710066 52017 $,M
EKO,2023-10-01 08:56,-115.7860,40.8242,1367.00,46.00,43.00,89.20,100.00,4.00,0.00,29.75,1004.80,10.00,M,BKN,OVC,M,M,3200.00,7500.00,M,M,M,M,M,M,M,M,M,43.77,KEKO 010856Z AUTO 10004KT 10SM BKN032 OVC075 08/06 A2975 RMK AO2 SLP048 T00780061 56009 $,M
WMC,2023-10-01 08:56,-117.8072,40.9019,1315.00,45.00,43.00,92.65,340.00,16.00,0.01,29.78,1006.20,10.00,22.00,OVC,M,M,M,3000.00,M,M,M,-RA,M,M,M,M,M,M,37.36,KWMC 010856Z AUTO 34016G22KT 10SM -RA OVC030 07/06 A2978 RMK AO2 SLP062 P0001 60011 T00720061 55005,M
HND,2023-10-01 08:56,-115.1344,35.9729,742.79,59.00,44.00,57.44,200.00,18.00,0.00,29.75,1007.50,10.00,M,CLR,M,M,M,M,M,M,M,M,M,M,M,M,M,M,59.00,KHND 010856Z AUTO 20018KT 10SM CLR 15/07 A2975 RMK AO2 SLP075 T01500067 53005,M
TPH,2023-10-01 08:56,-117.0904,38.0505,1654.00,43.00,42.00,96.23,130.00,3.00,0.00,29.80,1007.40,10.00,M,BKN,BKN,OVC,M,2400.00,3200.00,5000.00,M,M,M,M,M,M,M,M,41.26,KTPH 010856Z AUTO 13003KT 10SM BKN024 BKN032 OVC050 06/06 A2980 RMK AO2 SLP074 T00610056 55002,M
LAS,2023-10-01 08:56,-115.1634,36.0719,663.00,62.00,44.00,51.63,190.00,7.00,0.00,29.73,1005.20,10.00,M,FEW,M,M,M,20000.00,M,M,M,M,M,M,M,M,M,M,62.00,KLAS 010856Z 19007KT 10SM FEW200 17/07 A2973 RMK AO2 SLP052 T01670067 53011,M
NFL,2023-10-01 08:56,-118.7010,39.4166,1199.00,49.00,47.00,92.77,290.00,5.00,0.02,29.80,1006.90,9.00,M,SCT,BKN,OVC,M,1100.00,3900.00,7000.00,M,-RA,M,M,M,M,M,M,46.58,KNFL 010856Z AUTO 29005KT 9SM -RA SCT011 BKN039 OVC070 09/08 A2980 RMK AO2 SLP069 P0002 60004 T00940083 55001,M
10U,2023-10-01 09:00,-116.1876,41.9532,1637.00,42.80,41.00,93.30,10.00,7.00,0.00,29.79,M,10.00,M,BKN,OVC,M,M,6000.00,7500.00,M,M,M,M,M,M,M,M,M,37.94,K10U 010900Z AUTO 01007KT 10SM BKN060 OVC075 06/05 A2979 RMK AO2,M
NFL,2023-10-01 09:03,-118.7010,39.4166,1199.00,49.00,47.00,92.77,290.00,5.00,T,29.80,M,9.00,M,SCT,BKN,OVC,M,900.00,2800.00,6500.00,M,-RA,M,M,M,M,M,M,46.58,KNFL 010903Z AUTO 29005KT 9SM -RA SCT009 BKN028 OVC065 09/08 A2980 RMK AO2 P0000 T00940083,M
05U,2023-10-01 09:10,-116.0051,39.6042,1811.23,41.00,41.00,100.00,0.00,0.00,0.00,29.80,M,10.00,M,OVC,M,M,M,2300.00,M,M,M,M,M,M,M,M,M,M,41.00,K05U 010910Z AUTO 00000KT 10SM OVC023 05/05 A2980 RMK A01,M
NFL,2023-10-01 09:11,-118.7010,39.4166,1199.00,49.00,47.00,92.77,300.00,5.00,T,29.80,M,10.00,M,BKN,BKN,OVC,M,900.00,1200.00,3900.00,M,-RA,M,M,M,M,M,M,46.58,KNFL 010911Z AUTO 30005KT 10SM -RA BKN009 BKN012 OVC039 09/08 A2980 RMK AO2 P0000 T00940083,M
WMC,2023-10-01 09:13,-117.8072,40.9019,1315.00,45.00,42.00,89.15,340.00,13.00,0.01,29.78,M,10.00,21.00,FEW,OVC,M,M,800.00,2800.00,M,M,-RA,M,M,M,M,M,M,38.22,KWMC 010913Z AUTO 34013G21KT 10SM -RA FEW008 OVC028 07/06 A2978 RMK AO2 P0001 T00720056,M
BVU,2023-10-01 09:15,-114.8611,35.9475,671.00,59.00,42.80,54.86,210.00,7.00,0.00,29.75,M,10.00,12.00,CLR,M,M,M,M,M,M,M,M,M,M,M,M,M,M,59.00,KBVU 010915Z AUTO 21007G12KT 10SM CLR 15/06 A2975 RMK AO2,M
CXP,2023-10-01 09:15,-119.7326,39.1923,1431.00,46.40,41.00,81.34,350.00,6.00,0.00,29.85,M,10.00,12.00,BKN,OVC,M,M,2700.00,3700.00,M,M,-RA,M,M,M,M,M,M,42.87,KCXP 010915Z AUTO 35006G12KT 10SM -RA BKN027 OVC037 08/05 A2985 RMK AO2,M
RTS,2023-10-01 09:15,-119.8764,39.6682,1539.00,42.80,39.20,86.99,310.00,6.00,0.00,29.87,M,10.00,M,OVC,M,M,M,2700.00,M,M,M,M,M,M,M,M,M,M,38.54,KRTS 010915Z AUTO 31006KT 10SM OVC027 06/04 A2987 RMK AO2,M
MEV,2023-10-01 09:15,-119.7500,38.9963,1441.42,46.40,42.80,87.19,0.00,0.00,0.00,29.84,M,10.00,M,FEW,SCT,OVC,M,2900.00,3600.00,4500.00,M,M,M,M,M,M,M,M,46.40,KMEV 010915Z AUTO 00000KT 10SM FEW029 SCT036 OVC045 08/06 A2984 RMK AO2,M
BAM,2023-10-01 09:15,-116.8743,40.5990,1382.36,46.40,44.60,93.40,0.00,0.00,0.00,29.77,M,10.00,M,BKN,BKN,OVC,M,1500.00,2800.00,4500.00,M,M,M,M,M,M,M,M,46.40,KBAM 010915Z AUTO 00000KT 10SM BKN015 BKN028 OVC045 08/07 A2977 RMK AO1,M
HTH,2023-10-01 09:15,-118.6315,38.5448,1282.89,46.40,48.20,M,210.00,6.00,0.00,29.82,M,8.00,M,SCT,BKN,OVC,M,1800.00,2900.00,3400.00,M,M,M,M,M,M,M,M,M,KHTH 010915Z AUTO 21006KT 8SM SCT018 BKN029 OVC034 08/09 A2982 RMK A01,M
TMT,2023-10-01 09:15,-117.1971,39.4643,1749.34,42.40,39.00,87.65,260.00,3.00,0.00,29.80,M,10.00,M,OVC,M,M,M,2700.00,M,M,M,RA,M,M,M,M,M,M,40.58,KTMT 010915Z AUTO 26003KT 10SM RA OVC027 06/04 A2980 RMK AO2 T00580039,M
NFL,2023-10-01 09:19,-118.7010,39.4166,1199.00,49.00,47.00,92.77,300.00,6.00,0.01,29.80,M,5.00,M,SCT,BKN,OVC,M,900.00,1200.00,2800.00,M,RA BR,M,M,M,M,M,M,46.00,KNFL 010919Z AUTO 30006KT 5SM RA BR SCT009 BKN012 OVC028 09/08 A2980 RMK AO2 P0001 T00940083,M
10U,2023-10-01 09:20,-116.1876,41.9532,1637.00,42.80,39.20,86.99,40.00,6.00,0.00,29.79,M,10.00,M,FEW,SCT,BKN,M,2500.00,3900.00,4900.00,M,-RA,M,M,M,M,M,M,38.54,K10U 010920Z AUTO 04006KT 10SM -RA FEW025 SCT039 BKN049 06/04 A2979 RMK AO2,M
05U,2023-10-01 09:30,-116.0051,39.6042,1811.23,41.00,39.20,93.24,0.00,0.00,0.00,29.79,M,10.00,M,OVC,M,M,M,2500.00,M,M,M,M,M,M,M,M,M,M,41.00,K05U 010930Z AUTO 00000KT 10SM OVC025 05/04 A2979 RMK A01,M
BVU,2023-10-01 09:35,-114.8611,35.9475,671.00,59.00,42.80,54.86,220.00,10.00,0.00,29.75,M,10.00,M,CLR,M,M,M,M,M,M,M,M,M,M,M,M,M,M,59.00,KBVU 010935Z AUTO 22010KT 10SM CLR 15/06 A2975 RMK AO2,M
CXP,2023-10-01 09:35,-119.7326,39.1923,1431.00,46.40,41.00,81.34,10.00,7.00,0.00,29.85,M,10.00,M,BKN,OVC,M,M,2900.00,3500.00,M,M,-RA,M,M,M,M,M,M,42.33,KCXP 010935Z AUTO 01007KT 10SM -RA BKN029 OVC035 08/05 A2985 RMK AO2,M
RTS,2023-10-01 09:35,-119.8764,39.6682,1539.00,42.80,37.40,81.07,330.00,8.00,0.00,29.87,M,10.00,M,OVC,M,M,M,2700.00,M,M,M,-DZ,M,M,M,M,M,M,37.42,KRTS 010935Z AUTO 33008KT 10SM -DZ OVC027 06/03 A2987 RMK AO2,M
MEV,2023-10-01 09:35,-119.7500,38.9963,1441.42,46.40,42.80,87.19,10.00,6.00,0.00,29.83,M,10.00,M,FEW,BKN,OVC,M,3000.00,3900.00,4400.00,M,M,M,M,M,M,M,M,42.87,KMEV 010935Z AUTO 01006KT 10SM FEW030 BKN039 OVC044 08/06 A2983 RMK AO2,M
BAM,2023-10-01 09:35,-116.8743,40.5990,1382.36,46.40,44.60,93.40,0.00,0.00,0.00,29.76,M,10.00,M,BKN,OVC,M,M,1000.00,1500.00,M,M,M,M,M,M,M,M,M,46.40,KBAM 010935Z AUTO 00000KT 10SM BKN010 OVC015 08/07 A2976 RMK AO1,M
HTH,2023-10-01 09:35,-118.6315,38.5448,1282.89,48.20,48.20,100.00,200.00,6.00,0.00,29.82,M,9.00,M,SCT,OVC,M,M,1800.00,3000.00,M,M,M,M,M,M,M,M,M,45.04,KHTH 010935Z AUTO 20006KT 9SM SCT018 OVC030 09/09 A2982 RMK A01,M
TMT,2023-10-01 09:35,-117.1971,39.4643,1749.34,42.00,39.60,91.12,220.00,4.00,0.00,29.80,M,10.00,M,OVC,M,M,M,2500.00,M,M,M,-DZ,M,M,M,M,M,M,39.10,KTMT 010935Z AUTO 22004KT 10SM -DZ OVC025 06/04 A2980 RMK AO2 T00550042,M
NFL,2023-10-01 09:38,-118.7010,39.4166,1199.00,49.00,46.00,89.33,340.00,7.00,0.01,29.80,M,10.00,M,FEW,SCT,OVC,M,1000.00,1800.00,3600.00,M,M,M,M,M,M,M,M,45.50,KNFL 010938Z AUTO 34007KT 10SM FEW010 SCT018 OVC036 09/08 A2980 RMK AO2 RAE35 P0001 T00940078,M
10U,2023-10-01 09:40,-116.1876,41.9532,1637.00,42.80,41.00,93.30,20.00,7.00,0.00,29.80,M,10.00,M,BKN,BKN,OVC,M,2400.00,3800.00,4600.00,M,-RA,M,M,M,M,M,M,37.94,K10U 010940Z AUTO 02007KT 10SM -RA BKN024 BKN038 OVC046 06/05 A2980 RMK AO2,M
05U,2023-10-01 09:50,-116.0051,39.6042,1811.23,42.80,41.00,93.30,0.00,0.00,0.00,29.79,M,10.00,M,SCT,OVC,M,M,2500.00,5500.00,M,M,M,M,M,M,M,M,M,42.80,K05U 010950Z AUTO 00000KT 10SM SCT025 OVC055 06/05 A2979 RMK A01,M
RNO,2023-10-01 09:52,-119.7711,39.4839,1341.00,48.20,39.20,70.88,330.00,7.00,T,29.85,M,10.00,M,OVC,M,M,M,3000.00,M,M,M,M,M,M,M,M,M,M,44.53,KRNO 010952Z 33007KT 10SM OVC030 09/04 A2985 RMK AO2 RAB06E27 P0000,M
P68,2023-10-01 09:53,-116.0056,39.6014,1993.00,42.00,40.00,92.55,180.00,3.00,0.00,29.77,1005.20,M,M,M,M,M,M,M,M,M,M,M,M,M,M,M,M,M,40.12,KP68 010953Z AUTO 18003KT 06/04 A2977 RMK AO1 SLP052 T00560044,M
DRA,2023-10-01 09:53,-116.0278,36.6206,1009.00,52.00,44.00,74.07,0.00,0.00,0.00,29.77,1005.30,10.00,M,BKN,M,M,M,6000.00,M,M,M,M,M,M,M,M,M,M,52.00,KDRA 010953Z AUTO 00000KT 10SM BKN060 11/07 A2977 RMK AO2 SLP053 T01110067,M
ELY,2023-10-01 09:53,-114.8453,39.2950,1909.00,42.00,37.00,82.30,160.00,3.00,T,29.76,1001.90,10.00,M,OVC,M,M,M,3800.00,M,M,M,-RA,M,M,M,M,M,M,40.12,KELY 010953Z AUTO 16003KT 10SM -RA OVC038 06/03 A2976 RMK AO2 RAB51 SLP019 P0000 T00560028,M
VGT,2023-10-01 09:53,-115.1933,36.2111,667.00,63.00,41.00,44.41,230.00,5.00,0.00,29.73,1007.00,10.00,M,CLR,M,M,M,M,M,M,M,M,M,M,M,M,M,M,63.00,KVGT 010953Z AUTO 23005KT 10SM CLR 17/05 A2973 RMK AO2 SLP070 T01720050,M
BVU,2023-10-01 09:55,-114.8611,35.9475,671.00,59.00,42.80,54.86,210.00,5.00,0.00,29.75,M,10.00,M,CLR,M,M,M,M,M,M,M,M,M,M,M,M,M,M,59.00,KBVU 010955Z AUTO 21005KT 10SM CLR 15/06 A2975 RMK AO2,M
CXP,2023-10-01 09:55,-119.7326,39.1923,1431.00,46.40,41.00,81.34,360.00,7.00,0.00,29.85,M,10.00,M,FEW,OVC,M,M,2700.00,3400.00,M,M,M,M,M,M,M,M,M,42.33,KCXP 010955Z AUTO 36007KT 10SM FEW027 OVC034 08/05 A2985 RMK AO2,M
INS,2023-10-01 09:55,-115.6733,36.5872,955.00,56.30,35.80,46.01,270.00,12.00,0.00,29.75,1004.20,10.00,M,CLR,M,M,M,M,M,M,M,M,M,M,M,M,M,M,56.30,KINS 010955Z AUTO 27012KT 10SM CLR 14/02 A2975 RMK AO2 SLP042 T01350021 $,M
RNO,2023-10-01 09:55,-119.7711,39.4839,1341.00,48.00,40.00,73.67,M,5.00,T,29.85,1007.80,10.00,M,OVC,M,M,M,3000.00,M,M,M,M,M,M,M,M,M,M,45.40,KRNO 010955Z VRB05KT 10SM OVC030 09/04 A2985 RMK AO2 RAB06E27 SLP078 P0000 T00890044,M
RTS,2023-10-01 09:55,-119.8764,39.6682,1539.00,42.80,37.40,81.07,330.00,10.00,0.00,29.87,M,10.00,M,OVC,M,M,M,2500.00,M,M,M,M,M,M,M,M,M,M,36.51,KRTS 010955Z AUTO 33010KT 10SM OVC025 06/03 A2987 RMK AO2,M
MEV,2023-10-01 09:55,-119.7500,38.9963,1441.42,46.40,42.80,87.19,360.00,6.00,0.00,29.83,M,10.00,M,BKN,OVC,M,M,3700.00,4500.00,M,M,M,M,M,M,M,M,M,42.87,KMEV 010955Z AUTO 36006KT 10SM BKN037 OVC045 08/06 A2983 RMK AO2,M
BAM,2023-10-01 09:55,-116.8743,40.5990,1382.36,46.40,44.60,93.40,0.00,0.00,0.00,29.76,M,10.00,M,SCT,SCT,OVC,M,1000.00,3100.00,5500.00,M,M,M,M,M,M,M,M,46.40,KBAM 010955Z AUTO 00000KT 10SM SCT010 SCT031 OVC055 08/07 A2976 RMK AO1,M
HTH,2023-10-01 09:55,-118.6315,38.5448,1282.89,48.20,46.40,93.45,200.00,5.00,0.03,29.82,M,9.00,M,FEW,BKN,OVC,M,1700.00,2600.00,3000.00,M,M,M,M,M,M,M,M,45.63,KHTH 010955Z AUTO 20005KT 9SM FEW017 BKN026 OVC030 09/08 A2982 RMK A01 P0003,M
TMT,2023-10-01 09:55,-117.1971,39.4643,1749.34,41.50,39.70,93.26,0.00,0.00,0.00,29.80,M,10.00,M,BKN,OVC,M,M,2000.00,2500.00,M,M,DZ,M,M,M,M,M,M,41.50,KTMT 010955Z AUTO 00000KT 10SM DZ BKN020 OVC025 05/04 A2980 RMK AO2 T00530043,M
LSV,2023-10-01 09:55,-115.0343,36.2362,570.00,62.00,44.60,52.82,180.00,13.00,0.00,29.71,1004.50,10.00,M,CLR,M,M,M,M,M,M,M,M,M,M,M,M,M,M,62.00,KLSV 010955Z AUTO 18013KT 10SM CLR 17/07 A2971 RMK AO2 SLP045 T01660070 $,M
EKO,2023-10-01 09:56,-115.7860,40.8242,1367.00,45.00,42.00,89.15,0.00,0.00,0.00,29.75,1005.20,10.00,M,BKN,M,M,M,3400.00,M,M,M,M,M,M,M,M,M,M,45.00,KEKO 010956Z AUTO 00000KT 10SM BKN034 07/06 A2975 RMK AO2 SLP052 T00720056 $,M
WMC,2023-10-01 09:56,-117.8072,40.9019,1315.00,45.00,42.00,89.15,340.00,14.00,0.04,29.78,1006.30,9.00,22.00,FEW,OVC,M,M,800.00,2600.00,M,M,-RA,M,M,M,26.00,340.00,2023-10-01 09:29,37.92,KWMC 010956Z AUTO 34014G22KT 9SM -RA FEW008 OVC026 07/06 A2978 RMK AO2 PK WND 34026/0929 SLP063 P0004 T00720056,M
NFL,2023-10-01 09:56,-118.7010,39.4166,1199.00,49.00,46.00,89.33,320.00,6.00,0.02,29.80,1007.00,8.00,M,FEW,SCT,OVC,M,1900.00,3300.00,4200.00,M,-RA,M,M,M,M,M,M,46.00,KNFL 010956Z AUTO 32006KT 8SM -RA FEW019 SCT033 OVC042 09/08 A2980 RMK AO2 RAE35B46 SLP070 P0002 T00940078,M
HND,2023-10-01 09:56,-115.1344,35.9729,742.79,59.00,45.00,59.67,210.00,17.00,0.00,29.76,1007.90,10.00,M,CLR,M,M,M,M,M,M,M,M,M,M,M,M,M,M,59.00,KHND 010956Z AUTO 21017KT 10SM CLR 15/07 A2976 RMK AO2 SLP079 T01500072,M
TPH,2023-10-01 09:56,-117.0904,38.0505,1654.00,44.00,42.00,92.61,0.00,0.00,0.00,29.80,1007.50,10.00,M,FEW,SCT,OVC,M,2100.00,2600.00,8000.00,M,M,M,M,M,M,M,M,44.00,KTPH 010956Z AUTO 00000KT 10SM FEW021 SCT026 OVC080 07/06 A2980 RMK AO2 SLP075 T00670056,M
LAS,2023-10-01 09:56,-115.1634,36.0719,663.00,61.00,44.00,53.49,M,6.00,0.00,29.75,1005.80,10.00,M,FEW,M,M,M,20000.00,M,M,M,M,M,M,M,M,M,M,61.00,KLAS 010956Z VRB06KT 10SM FEW200 16/07 A2975 RMK AO2 SLP058 T01610067,M
10U,2023-10-01 10:00,-116.1876,41.9532,1637.00,41.00,41.00,100.00,0.00,0.00,0.00,29.80,M,7.00,M,FEW,BKN,OVC,M,1300.00,2300.00,3700.00,M,-RA,M,M,M,M,M,M,41.00,K10U 011000Z AUTO 00000KT 7SM -RA FEW013 BKN023 OVC037 05/05 A2980 RMK AO2,M
05U,2023-10-01 10:10,-116.0051,39.6042,1811.23,41.00,41.00,100.00,0.00,0.00,0.00,29.79,M,10.00,M,FEW,SCT,OVC,M,2300.00,4800.00,6000.00,M,M,M,M,M,M,M,M,41.00,K05U 011010Z AUTO 00000KT 10SM FEW023 SCT048 OVC060 05/05 A2979 RMK A01,M
BVU,2023-10-01 10:15,-114.8611,35.9475,671.00,59.00,42.80,54.86,170.00,6.00,0.00,29.76,M,10.00,M,CLR,M,M,M,M,M,M,M,M,M,M,M,M,M,M,59.00,KBVU 011015Z AUTO 17006KT 10SM CLR 15/06 A2976 RMK AO2,M
CXP,2023-10-01 10:15,-119.7326,39.1923,1431.00,46.40,41.00,81.34,30.00,6.00,0.00,29.85,M,10.00,13.00,FEW,OVC,M,M,3000.00,3600.00,M,M,-RA,M,M,M,M,M,M,42.87,KCXP 011015Z AUTO 03006G13KT 10SM -RA FEW030 OVC036 08/05 A2985 RMK AO2,M
RTS,2023-10-01 10:15,-119.8764,39.6682,1539.00,42.80,37.40,81.07,350.00,13.00,0.00,29.87,M,10.00,M,BKN,OVC,M,M,2400.00,2800.00,M,M,M,M,M,M,M,M,M,35.40,KRTS 011015Z AUTO 35013KT 10SM BKN024 OVC028 06/03 A2987 RMK AO2,M
MEV,2023-10-01 10:15,-119.7500,38.9963,1441.42,46.40,42.80,87.19,360.00,5.00,0.00,29.84,M,10.00,M,BKN,OVC,M,M,3700.00,4700.00,M,M,-RA,M,M,M,M,M,M,43.50,KMEV 011015Z AUTO 36005KT 10SM -RA BKN037 OVC047 08/06 A2984 RMK AO2,M
BAM,2023-10-01 10:15,-116.8743,40.5990,1382.36,46.40,44.60,93.40,0.00,0.00,0.00,29.76,M,10.00,M,BKN,OVC,M,M,4200.00,5500.00,M,M,M,M,M,M,M,M,M,46.40,KBAM 011015Z AUTO 00000KT 10SM BKN042 OVC055 08/07 A2976 RMK AO1,M
HTH,2023-10-01 10:15,-118.6315,38.5448,1282.89,48.20,46.40,93.45,220.00,5.00,0.00,29.82,M,9.00,M,FEW,SCT,OVC,M,1900.00,2500.00,3300.00,M,M,M,M,M,M,M,M,45.63,KHTH 011015Z AUTO 22005KT 9SM FEW019 SCT025 OVC033 09/08 A2982 RMK A01,M
TMT,2023-10-01 10:15,-117.1971,39.4643,1749.34,41.00,39.70,95.08,0.00,0.00,0.00,29.80,M,10.00,M,OVC,M,M,M,2100.00,M,M,M,DZ,M,M,M,M,M,M,41.00,KTMT 011015Z AUTO 00000KT 10SM DZ OVC021 05/04 A2980 RMK AO2 T00510043,M
ELY,2023-10-01 10:17,-114.8453,39.2950,1909.00,42.00,38.00,85.60,180.00,5.00,T,29.77,M,10.00,M,BKN,OVC,M,M,2600.00,3600.00,M,M,M,M,M,M,M,M,M,38.27,KELY 011017Z AUTO 18005KT 10SM BKN026 OVC036 06/03 A2977 RMK AO2 RAE13 P0000 T00560033,M
10U,2023-10-01 10:20,-116.1876,41.9532,1637.00,42.80,41.00,93.30,20.00,4.00,0.00,29.80,M,7.00,M,BKN,OVC,M,M,2300.00,3500.00,M,M,-RA,M,M,M,M,M,M,40.03,K10U 011020Z AUTO 02004KT 7SM -RA BKN023 OVC035 06/05 A2980 RMK AO2,M
05U,2023-10-01 10:30,-116.0051,39.6042,1811.23,41.00,41.00,100.00,0.00,0.00,0.00,29.80,M,10.00,M,FEW,BKN,OVC,M,2300.00,4900.00,6500.00,M,M,M,M,M,M,M,M,41.00,K05U 011030Z AUTO 00000KT 10SM FEW023 BKN049 OVC065 05/05 A2980 RMK A01,M
TPH,2023-10-01 10:33,-117.0904,38.0505,1654.00,44.00,42.00,92.61,240.00,3.00,0.00,29.80,M,10.00,M,BKN,OVC,M,M,2000.00,8000.00,M,M,M,M,M,M,M,M,M,42.41,KTPH 011033Z AUTO 24003KT 10SM BKN020 OVC080 07/06 A2980 RMK AO2 T00670056,M
BVU,2023-10-01 10:35,-114.8611,35.9475,671.00,59.00,42.80,54.86,210.00,3.00,0.00,29.77,M,10.00,M,CLR,M,M,M,M,M,M,M,M,M,M,M,M,M,M,59.00,KBVU 011035Z AUTO 21003KT 10SM CLR 15/06 A2977 RMK AO2,M
CXP,2023-10-01 10:35,-119.7326,39.1923,1431.00,46.40,41.00,81.34,30.00,4.00,0.00,29.85,M,10.00,M,BKN,BKN,OVC,M,2900.00,3400.00,4000.00,M,-RA,M,M,M,M,M,M,44.24,KCXP 011035Z AUTO 03004KT 10SM -RA BKN029 BKN034 OVC040 08/05 A2985 RMK AO2,M
RTS,2023-10-01 10:35,-119.8764,39.6682,1539.00,42.80,37.40,81.07,350.00,10.00,0.00,29.87,M,10.00,17.00,OVC,M,M,M,2600.00,M,M,M,M,M,M,M,M,M,M,36.51,KRTS 011035Z AUTO 35010G17KT 10SM OVC026 06/03 A2987 RMK AO2,M
MEV,2023-10-01 10:35,-119.7500,38.9963,1441.42,46.40,42.80,87.19,360.00,5.00,0.00,29.84,M,10.00,M,BKN,OVC,M,M,3500.00,4700.00,M,M,-RA,M,M,M,M,M,M,43.50,KMEV 011035Z AUTO 36005KT 10SM -RA BKN035 OVC047 08/06 A2984 RMK AO2,M
BAM,2023-10-01 10:35,-116.8743,40.5990,1382.36,46.40,44.60,93.40,0.00,0.00,0.00,29.76,M,10.00,M,SCT,BKN,OVC,M,4400.00,5500.00,6500.00,M,M,M,M,M,M,M,M,46.40,KBAM 011035Z AUTO 00000KT 10SM SCT044 BKN055 OVC065 08/07 A2976 RMK AO1,M
HTH,2023-10-01 10:35,-118.6315,38.5448,1282.89,48.20,46.40,93.45,200.00,4.00,0.00,29.82,M,10.00,M,BKN,OVC,M,M,2700.00,3400.00,M,M,M,M,M,M,M,M,M,46.34,KHTH 011035Z AUTO 20004KT 10SM BKN027 OVC034 09/08 A2982 RMK A01,M
TMT,2023-10-01 10:35,-117.1971,39.4643,1749.34,41.00,39.70,95.08,0.00,0.00,0.00,29.81,M,7.00,M,BKN,OVC,M,M,1400.00,2100.00,M,M,DZ,M,M,M,M,M,M,41.00,KTMT 011035Z AUTO 00000KT 7SM DZ BKN014 OVC021 05/04 A2981 RMK AO2 T00500043,M
10U,2023-10-01 10:40,-116.1876,41.9532,1637.00,41.00,41.00,100.00,20.00,6.00,0.00,29.80,M,6.00,M,FEW,FEW,OVC,M,1200.00,1800.00,3400.00,M,-RA,M,M,M,M,M,M,36.37,K10U 011040Z AUTO 02006KT 6SM -RA FEW012 FEW018 OVC034 05/05 A2980 RMK AO2,M
NFL,2023-10-01 10:41,-118.7010,39.4166,1199.00,48.00,46.00,92.74,340.00,11.00,0.03,29.81,M,7.00,M,FEW,BKN,OVC,M,700.00,2400.00,4600.00,M,-RA,M,M,M,M,M,M,42.69,KNFL 011041Z AUTO 34011KT 7SM -RA FEW007 BKN024 OVC046 09/08 A2981 RMK AO2 P0003 T00890078,M
NFL,2023-10-01 10:48,-118.7010,39.4166,1199.00,48.00,45.00,89.29,340.00,10.00,0.03,29.81,M,8.00,M,FEW,BKN,OVC,M,700.00,1300.00,4400.00,M,-RA,M,M,M,M,M,M,43.03,KNFL 011048Z AUTO 34010KT 8SM -RA FEW007 BKN013 OVC044 09/07 A2981 RMK AO2 P0003 T00890072,M
05U,2023-10-01 10:50,-116.0051,39.6042,1811.23,41.00,39.20,93.24,0.00,0.00,0.00,29.80,M,10.00,M,FEW,FEW,OVC,M,2600.00,3500.00,4800.00,M,M,M,M,M,M,M,M,41.00,K05U 011050Z AUTO 00000KT 10SM FEW026 FEW035 OVC048 05/04 A2980 RMK A01,M
P68,2023-10-01 10:53,-116.0056,39.6014,1993.00,42.00,39.00,89.01,0.00,0.00,0.00,29.77,1005.40,M,M,M,M,M,M,M,M,M,M,M,M,M,M,M,M,M,42.00,KP68 011053Z AUTO 00000KT 06/04 A2977 RMK AO1 SLP054 T00560039,M
DRA,2023-10-01 10:53,-116.0278,36.6206,1009.00,52.00,44.00,74.07,0.00,0.00,0.00,29.78,1005.50,10.00,M,OVC,M,M,M,8000.00,M,M,M,M,M,M,M,M,M,M,52.00,KDRA 011053Z AUTO 00000KT 10SM OVC080 11/07 A2978 RMK AO2 SLP055 T01110067,M
ELY,2023-10-01 10:53,-114.8453,39.2950,1909.00,42.00,38.00,85.60,170.00,7.00,0.01,29.77,1002.30,10.00,M,OVC,M,M,M,2800.00,M,M,M,-RA,M,M,M,M,M,M,36.97,KELY 011053Z AUTO 17007KT 10SM -RA OVC028 06/03 A2977 RMK AO2 RAE13B20 SLP023 P0001 T00560033,M
VGT,2023-10-01 10:53,-115.1933,36.2111,667.00,62.00,44.00,51.63,190.00,4.00,0.00,29.75,1007.50,10.00,M,CLR,M,M,M,M,M,M,M,M,M,M,M,M,M,M,62.00,KVGT 011053Z AUTO 19004KT 10SM CLR 17/07 A2975 RMK AO2 SLP075 T01670067,M
BVU,2023-10-01 10:55,-114.8611,35.9475,671.00,57.20,42.80,58.52,150.00,5.00,0.00,29.77,M,10.00,M,CLR,M,M,M,M,M,M,M,M,M,M,M,M,M,M,57.20,KBVU 011055Z AUTO 15005KT 10SM CLR 14/06 A2977 RMK AO2,M
CXP,2023-10-01 10:55,-119.7326,39.1923,1431.00,46.40,39.20,75.84,10.00,8.00,0.00,29.85,M,10.00,15.00,OVC,M,M,M,3200.00,M,M,M,M,M,M,M,M,M,M,41.85,KCXP 011055Z AUTO 01008G15KT 10SM OVC032 08/04 A2985 RMK AO2,M
INS,2023-10-01 10:55,-115.6733,36.5872,955.00,55.60,36.00,47.57,10.00,3.00,0.00,29.77,1004.90,10.00,M,FEW,M,M,M,9500.00,M,M,M,M,M,M,M,M,M,M,55.60,KINS 011055Z AUTO 01003KT 10SM FEW095 13/02 A2977 RMK AO2 SLP049 T01310023 $,M
RNO,2023-10-01 10:55,-119.7711,39.4839,1341.00,48.00,40.00,73.67,330.00,8.00,T,29.85,1008.00,10.00,M,OVC,M,M,M,3400.00,M,M,M,-RA,M,M,M,M,M,M,43.82,KRNO 011055Z 33008KT 10SM -RA OVC034 09/04 A2985 RMK AO2 RAB48 SLP080 P0000 T00890044,M
LSV,2023-10-01 10:55,-115.0343,36.2362,570.00,60.80,45.00,55.96,180.00,13.00,0.00,29.71,1004.60,10.00,M,CLR,M,M,M,M,M,M,M,M,M,M,M,M,M,M,60.80,KLSV 011055Z AUTO 18013KT 10SM CLR 16/07 A2971 RMK AO2 SLP046 T01600072 $,M
RTS,2023-10-01 10:55,-119.8764,39.6682,1539.00,42.80,37.40,81.07,350.00,11.00,0.00,29.87,M,10.00,M,OVC,M,M,M,2800.00,M,M,M,M,M,M,M,M,M,M,36.11,KRTS 011055Z AUTO 35011KT 10SM OVC028 06/03 A2987 RMK AO2,M
MEV,2023-10-01 10:55,-119.7500,38.9963,1441.42,46.40,42.80,87.19,10.00,6.00,0.00,29.84,M,10.00,M,OVC,M,M,M,3600.00,M,M,M,M,M,M,M,M,M,M,42.87,KMEV 011055Z AUTO 01006KT 10SM OVC036 08/06 A2984 RMK AO2,M
BAM,2023-10-01 10:55,-116.8743,40.5990,1382.36,46.40,44.60,93.40,150.00,3.00,0.00,29.77,M,10.00,M,SCT,BKN,OVC,M,3900.00,4800.00,8500.00,M,M,M,M,M,M,M,M,45.15,KBAM 011055Z AUTO 15003KT 10SM SCT039 BKN048 OVC085 08/07 A2977 RMK AO1,M
HTH,2023-10-01 10:55,-118.6315,38.5448,1282.89,48.20,46.40,93.45,220.00,3.00,0.02,29.82,M,8.00,M,OVC,M,M,M,2500.00,M,M,M,M,M,M,M,M,M,M,47.21,KHTH 011055Z AUTO 22003KT 8SM OVC025 09/08 A2982 RMK A01 P0002,M
TMT,2023-10-01 10:55,-117.1971,39.4643,1749.34,41.00,40.30,97.32,0.00,0.00,0.01,29.81,M,7.00,M,OVC,M,M,M,1200.00,M,M,M,RA,M,M,M,M,M,M,41.00,KTMT 011055Z AUTO 00000KT 7SM RA OVC012 05/05 A2981 RMK AO2 P0001 T00510046,M
EKO,2023-10-01 10:56,-115.7860,40.8242,1367.00,44.00,42.00,92.61,190.00,3.00,0.00,29.75,1005.30,10.00,M,OVC,M,M,M,3300.00,M,M,M,M,M,M,M,M,M,M,42.41,KEKO 011056Z AUTO 19003KT 10SM OVC033 07/06 A2975 RMK AO2 SLP053 T00670056 $,M
WMC,2023-10-01 10:56,-117.8072,40.9019,1315.00,44.00,41.00,89.11,340.00,16.00,0.08,29.78,1006.90,9.00,23.00,OVC,M,M,M,2700.00,M,M,M,-RA,M,M,M,28.00,340.00,2023-10-01 10:44,36.06,KWMC 011056Z AUTO 34016G23KT 9SM -RA OVC027 07/05 A2978 RMK AO2 PK WND 34028/1044 SLP069 P0008 T00670050,M
NFL,2023-10-01 10:56,-118.7010,39.4166,1199.00,48.00,45.00,89.29,340.00,9.00,0.04,29.81,1007.20,7.00,M,FEW,BKN,OVC,M,600.00,1700.00,3700.00,M,-RA,M,M,M,M,M,M,43.41,KNFL 011056Z AUTO 34009KT 7SM -RA FEW006 BKN017 OVC037 09/07 A2981 RMK AO2 SLP072 P0004 T00890072,M
HND,2023-10-01 10:56,-115.1344,35.9729,742.79,57.00,44.00,61.72,180.00,13.00,0.00,29.78,1009.00,10.00,M,CLR,M,M,M,M,M,M,M,M,M,M,M,M,M,M,57.00,KHND 011056Z AUTO 18013KT 10SM CLR 14/07 A2978 RMK AO2 SLP090 T01390067,M
TPH,2023-10-01 10:56,-117.0904,38.0505,1654.00,45.00,41.00,85.77,250.00,3.00,0.00,29.81,1007.40,10.00,M,BKN,OVC,M,M,2200.00,4700.00,M,M,M,M,M,M,M,M,M,43.55,KTPH 011056Z AUTO 25003KT 10SM BKN022 OVC047 07/05 A2981 RMK AO2 SLP074 T00720050,M
LAS,2023-10-01 10:56,-115.1634,36.0719,663.00,60.00,44.00,55.42,180.00,6.00,0.00,29.76,1006.30,10.00,M,FEW,M,M,M,20000.00,M,M,M,M,M,M,M,M,M,M,60.00,KLAS 011056Z 18006KT 10SM FEW200 16/07 A2976 RMK AO2 SLP063 T01560067,M
10U,2023-10-01 11:00,-116.1876,41.9532,1637.00,41.00,41.00,100.00,20.00,6.00,0.00,29.80,M,7.00,M,SCT,BKN,M,M,2400.00,3200.00,M,M,-RA,M,M,M,M,M,M,36.37,K10U 011100Z AUTO 02006KT 7SM -RA SCT024 BKN032 05/05 A2980 RMK AO2,M
05U,2023-10-01 11:10,-116.0051,39.6042,1811.23,41.00,39.20,93.24,0.00,0.00,0.00,29.79,M,10.00,M,BKN,BKN,OVC,M,2400.00,3500.00,4900.00,M,M,M,M,M,M,M,M,41.00,K05U 011110Z AUTO 00000KT 10SM BKN024 BKN035 OVC049 05/04 A2979 RMK A01,M
BVU,2023-10-01 11:15,-114.8611,35.9475,671.00,59.00,42.80,54.86,190.00,7.00,0.00,29.77,M,10.00,M,CLR,M,M,M,M,M,M,M,M,M,M,M,M,M,M,59.00,KBVU 011115Z AUTO 19007KT 10SM CLR 15/06 A2977 RMK AO2,M
CXP,2023-10-01 11:15,-119.7326,39.1923,1431.00,46.40,42.80,87.19,0.00,0.00,0.00,29.86,M,9.00,M,OVC,M,M,M,3000.00,M,M,M,-RA,M,M,M,M,M,M,46.40,KCXP 011115Z AUTO 00000KT 9SM -RA OVC030 08/06 A2986 RMK AO2,M
RTS,2023-10-01 11:15,-119.8764,39.6682,1539.00,42.80,37.40,81.07,340.00,10.00,0.00,29.87,M,10.00,M,OVC,M,M,M,2900.00,M,M,M,M,M,M,M,M,M,M,36.51,KRTS 011115Z AUTO 34010KT 10SM OVC029 06/03 A2987 RMK AO2,M
MEV,2023-10-01 11:15,-119.7500,38.9963,1441.42,46.40,42.80,87.19,360.00,4.00,0.00,29.84,M,10.00,M,OVC,M,M,M,3700.00,M,M,M,M,M,M,M,M,M,M,44.24,KMEV 011115Z AUTO 36004KT 10SM OVC037 08/06 A2984 RMK AO2,M
BAM,2023-10-01 11:15,-116.8743,40.5990,1382.36,46.40,44.60,93.40,0.00,0.00,0.00,29.77,M,10.00,M,SCT,OVC,M,M,3800.00,4400.00,M,M,M,M,M,M,M,M,M,46.40,KBAM 011115Z AUTO 00000KT 10SM SCT038 OVC044 08/07 A2977 RMK AO1,M
HTH,2023-10-01 11:15,-118.6315,38.5448,1282.89,48.20,46.40,93.45,0.00,0.00,0.00,29.82,M,7.00,M,OVC,M,M,M,2700.00,M,M,M,M,M,M,M,M,M,M,48.20,KHTH 011115Z AUTO 00000KT 7SM OVC027 09/08 A2982 RMK A01,M
TMT,2023-10-01 11:15,-117.1971,39.4643,1749.34,41.00,40.30,97.32,0.00,0.00,0.00,29.81,M,5.00,M,BKN,OVC,M,M,1200.00,1800.00,M,M,RA,M,M,M,M,M,M,41.00,KTMT 011115Z AUTO 00000KT 5SM RA BKN012 OVC018 05/05 A2981 RMK AO2 T00500046,M
10U,2023-10-01 11:20,-116.1876,41.9532,1637.00,41.00,39.20,93.24,10.00,8.00,0.00,29.79,M,7.00,M,FEW,FEW,OVC,M,2400.00,2900.00,3600.00,M,-RA,M,M,M,M,M,M,35.20,K10U 011120Z AUTO 01008KT 7SM -RA FEW024 FEW029 OVC036 05/04 A2979 RMK AO2,M
05U,2023-10-01 11:30,-116.0051,39.6042,1811.23,41.00,39.20,93.24,0.00,0.00,0.00,29.80,M,10.00,M,BKN,BKN,OVC,M,2400.00,3400.00,7500.00,M,M,M,M,M,M,M,M,41.00,K05U 011130Z AUTO 00000KT 10SM BKN024 BKN034 OVC075 05/04 A2980 RMK A01,M
HTH,2023-10-01 11:30,-118.6315,38.5448,1282.89,48.20,44.60,87.28,0.00,0.00,0.00,29.82,M,3.00,M,SCT,BKN,OVC,M,2300.00,3000.00,3600.00,M,BR,M,M,M,M,M,M,48.20,KHTH 011130Z AUTO 00000KT 3SM BR SCT023 BKN030 OVC036 09/07 A2982 RMK A01,M
BVU,2023-10-01 11:35,-114.8611,35.9475,671.00,57.20,42.80,58.52,180.00,8.00,0.00,29.78,M,10.00,M,CLR,M,M,M,M,M,M,M,M,M,M,M,M,M,M,57.20,KBVU 011135Z AUTO 18008KT 10SM CLR 14/06 A2978 RMK AO2,M
CXP,2023-10-01 11:35,-119.7326,39.1923,1431.00,46.40,39.20,75.84,60.00,4.00,0.00,29.86,M,10.00,17.00,FEW,OVC,M,M,2400.00,3300.00,M,M,M,M,M,M,M,M,M,44.24,KCXP 011135Z AUTO 06004G17KT 10SM FEW024 OVC033 08/04 A2986 RMK AO2,M
RNO,2023-10-01 11:35,-119.7711,39.4839,1341.00,47.00,40.00,76.49,330.00,8.00,T,29.86,M,10.00,M,BKN,OVC,M,M,2700.00,3500.00,M,M,-RA,M,M,M,M,M,M,42.59,KRNO 011135Z 33008KT 10SM -RA BKN027 OVC035 08/04 A2986 RMK AO2 P0000 T00830044,M
NFL,2023-10-01 11:35,-118.7010,39.4166,1199.00,47.00,45.00,92.71,340.00,8.00,0.01,29.82,M,10.00,M,SCT,OVC,M,M,2800.00,3900.00,M,M,-RA,M,M,M,M,M,M,42.59,KNFL 011135Z AUTO 34008KT 10SM -RA SCT028 OVC039 08/07 A2982 RMK AO2 P0001 T00830072,M
RTS,2023-10-01 11:35,-119.8764,39.6682,1539.00,42.80,37.40,81.07,340.00,14.00,0.00,29.88,M,10.00,M,OVC,M,M,M,2900.00,M,M,M,M,M,M,M,M,M,M,35.08,KRTS 011135Z AUTO 34014KT 10SM OVC029 06/03 A2988 RMK AO2,M
MEV,2023-10-01 11:35,-119.7500,38.9963,1441.42,46.40,42.80,87.19,350.00,6.00,0.00,29.85,M,10.00,M,BKN,OVC,M,M,3000.00,3600.00,M,M,-RA,M,M,M,M,M,M,42.87,KMEV 011135Z AUTO 35006KT 10SM -RA BKN030 OVC036 08/06 A2985 RMK AO2,M
BAM,2023-10-01 11:35,-116.8743,40.5990,1382.36,46.40,44.60,93.40,0.00,0.00,0.00,29.77,M,10.00,M,OVC,M,M,M,4200.00,M,M,M,M,M,M,M,M,M,M,46.40,KBAM 011135Z AUTO 00000KT 10SM OVC042 08/07 A2977 RMK AO1,M
TMT,2023-10-01 11:35,-117.1971,39.4643,1749.34,41.00,40.50,98.08,0.00,0.00,0.00,29.81,M,5.00,M,BKN,OVC,M,M,1200.00,2000.00,M,M,-RA,M,M,M,M,M,M,41.00,KTMT 011135Z AUTO 00000KT 5SM -RA BKN012 OVC020 05/05 A2981 RMK AO2 T00500047,M
10U,2023-10-01 11:35,-116.1876,41.9532,1637.00,41.00,39.20,93.24,10.00,8.00,0.00,29.79,M,6.00,M,BKN,OVC,M,M,3300.00,3800.00,M,M,-RA,M,M,M,M,M,M,35.20,K10U 011135Z AUTO 01008KT 6SM -RA BKN033 OVC038 05/04 A2979 RMK AO2,M
05U,2023-10-01 11:50,-116.0051,39.6042,1811.23,41.00,39.20,93.24,0.00,0.00,0.00,29.80,M,10.00,M,FEW,BKN,OVC,M,2400.00,3400.00,8000.00,M,M,M,M,M,M,M,M,41.00,K05U 011150Z AUTO 00000KT 10SM FEW024 BKN034 OVC080 05/04 A2980 RMK A01,M
P68,2023-10-01 11:53,-116.0056,39.6014,1993.00,40.00,39.00,96.18,0.00,0.00,0.00,29.78,1005.80,M,M,M,M,M,M,M,M,M,M,M,M,M,M,M,M,M,40.00,KP68 011153Z AUTO 00000KT 04/04 A2978 RMK AO1 SLP058 70026 T00440039 10056 20044 53003,M
DRA,2023-10-01 11:53,-116.0278,36.6206,1009.00,54.00,43.00,66.24,280.00,8.00,0.00,29.79,1005.80,10.00,M,SCT,OVC,M,M,6000.00,8000.00,M,M,M,M,M,M,M,M,M,54.00,KDRA 011153Z AUTO 28008KT 10SM SCT060 OVC080 12/06 A2979 RMK AO2 SLP058 60001 70001 T01220061 10133 20106 53007,M
ELY,2023-10-01 11:53,-114.8453,39.2950,1909.00,40.00,37.00,88.92,160.00,13.00,0.04,29.79,1003.50,10.00,17.00,OVC,M,M,M,2100.00,M,M,M,-RA,M,M,M,M,M,M,31.82,KELY 011153Z AUTO 16013G17KT 10SM -RA OVC021 04/03 A2979 RMK AO2 SLP035 P0004 60005 70005 T00440028 10067 20044 53008,M
VGT,2023-10-01 11:53,-115.1933,36.2111,667.00,60.00,41.00,49.39,310.00,7.00,0.00,29.76,1008.10,10.00,M,CLR,M,M,M,M,M,M,M,M,M,M,M,M,M,M,60.00,KVGT 011153Z AUTO 31007KT 10SM CLR 16/05 A2976 RMK AO2 SLP081 T01560050 10200 20156 52015,M
RNO,2023-10-01 11:55,-119.7711,39.4839,1341.00,47.00,40.00,76.49,340.00,10.00,T,29.86,1008.40,10.00,M,BKN,OVC,M,M,3200.00,3900.00,M,M,M,M,M,M,M,M,M,41.78,KRNO 011155Z 34010KT 10SM BKN032 OVC039 08/04 A2986 RMK AO2 RAE44 SLP084 P0000 60001 70006 T00830044 10100 20083 53004,M
BVU,2023-10-01 11:55,-114.8611,35.9475,671.00,55.40,42.80,62.46,180.00,6.00,0.00,29.78,M,10.00,M,CLR,M,M,M,M,M,M,M,M,M,M,M,M,M,M,55.40,KBVU 011155Z AUTO 18006KT 10SM CLR 13/06 A2978 RMK AO2,M
CXP,2023-10-01 11:55,-119.7326,39.1923,1431.00,46.40,41.00,81.34,0.00,0.00,0.00,29.86,M,10.00,M,FEW,OVC,M,M,2100.00,3200.00,M,M,-RA,M,M,M,M,M,M,46.40,KCXP 011155Z AUTO 00000KT 10SM -RA FEW021 OVC032 08/05 A2986 RMK AO2,M
INS,2023-10-01 11:55,-115.6733,36.5872,955.00,54.70,38.30,53.81,190.00,6.00,0.00,29.78,1005.30,10.00,M,CLR,M,M,M,M,M,M,M,M,M,M,M,M,M,M,54.70,KINS 011155Z AUTO 19006KT 10SM CLR 13/04 A2978 RMK AO2 SLP053 T01260035 10146 20126 52013 $,M
RTS,2023-10-01 11:55,-119.8764,39.6682,1539.00,42.80,37.40,81.07,340.00,13.00,0.00,29.87,M,10.00,M,OVC,M,M,M,2900.00,M,M,M,M,M,M,M,M,M,M,35.40,KRTS 011155Z AUTO 34013KT 10SM OVC029 06/03 A2987 RMK AO2,M
MEV,2023-10-01 11:55,-119.7500,38.9963,1441.42,44.60,41.00,87.09,20.00,7.00,0.00,29.85,M,10.00,M,OVC,M,M,M,3000.00,M,M,M,-RA,M,M,M,M,M,M,40.14,KMEV 011155Z AUTO 02007KT 10SM -RA OVC030 07/05 A2985 RMK AO2,M
BAM,2023-10-01 11:55,-116.8743,40.5990,1382.36,46.40,44.60,93.40,0.00,0.00,0.00,29.77,M,10.00,M,OVC,M,M,M,4200.00,M,M,M,M,M,M,M,M,M,M,46.40,KBAM 011155Z AUTO 00000KT 10SM OVC042 08/07 A2977 RMK AO1,M
HTH,2023-10-01 11:55,-118.6315,38.5448,1282.89,48.20,46.40,93.45,0.00,0.00,0.20,29.83,M,2.50,M,FEW,SCT,BKN,M,400.00,1800.00,2500.00,M,BR,M,M,M,M,M,M,48.20,KHTH 011155Z AUTO 00000KT 2 1/2SM BR FEW004 SCT018 BKN025 09/08 A2983 RMK A01 P0020,M
TMT,2023-10-01 11:55,-117.1971,39.4643,1749.34,41.00,40.50,98.08,0.00,0.00,0.02,29.81,M,5.00,M,SCT,BKN,OVC,M,1200.00,2100.00,3200.00,M,RA,M,M,M,M,M,M,41.00,KTMT 011155Z AUTO 00000KT 5SM RA SCT012 BKN021 OVC032 05/05 A2981 RMK AO2 P0002 60003 70023 T00500047 10066 20050,M
LSV,2023-10-01 11:55,-115.0343,36.2362,570.00,60.00,45.30,58.24,200.00,12.00,0.00,29.73,1005.30,10.00,M,CLR,M,M,M,M,M,M,M,M,M,M,M,M,M,M,60.00,KLSV 011155Z AUTO 20012KT 10SM CLR 16/07 A2973 RMK AO2 SLP053 T01560074 10194 20156 52014 $,M
WMC,2023-10-01 11:56,-117.8072,40.9019,1315.00,43.00,40.00,89.06,350.00,13.00,0.03,29.79,1007.60,9.00,25.00,OVC,M,M,M,2500.00,M,M,M,-RA,M,M,M,26.00,350.00,2023-10-01 11:33,35.66,KWMC 011156Z AUTO 35013G25KT 9SM -RA OVC025 06/04 A2979 RMK AO2 PK WND 35026/1133 SLP076 P0003 60026 70095 T00610044 10089 20061 53005,M
EKO,2023-10-01 11:56,-115.7860,40.8242,1367.00,43.00,41.00,92.58,250.00,4.00,0.00,29.76,1006.10,10.00,M,OVC,M,M,M,3600.00,M,M,M,M,M,M,M,M,M,M,40.27,KEKO 011156Z AUTO 25004KT 10SM OVC036 06/05 A2976 RMK AO2 SLP061 70002 T00610050 10083 20061 53004 $,M
NFL,2023-10-01 11:56,-118.7010,39.4166,1199.00,47.00,45.00,92.71,330.00,6.00,0.02,29.82,1007.50,9.00,M,SCT,OVC,M,M,3700.00,4600.00,M,M,-RA,M,M,M,M,M,M,43.60,KNFL 011156Z AUTO 33006KT 9SM -RA SCT037 OVC046 08/07 A2982 RMK AO2 SLP075 P0002 60012 70129 T00830072 10100 20083 53006,M
HND,2023-10-01 11:56,-115.1344,35.9729,742.79,57.00,44.00,61.72,190.00,12.00,0.00,29.80,1009.60,10.00,M,CLR,M,M,M,M,M,M,M,M,M,M,M,M,M,M,57.00,KHND 011156Z AUTO 19012KT 10SM CLR 14/07 A2980 RMK AO2 SLP096 T01390067 10178 20139 53017,M
TPH,2023-10-01 11:56,-117.0904,38.0505,1654.00,45.00,42.00,89.15,310.00,4.00,0.01,29.82,1007.90,10.00,M,SCT,BKN,OVC,M,1800.00,2400.00,4400.00,M,-RA,M,M,M,M,M,M,42.60,KTPH 011156Z AUTO 31004KT 10SM -RA SCT018 BKN024 OVC044 07/06 A2982 RMK AO2 RAB28 SLP079 P0001 60001 70105 T00720056 10072 20050 53006,M
LAS,2023-10-01 11:56,-115.1634,36.0719,663.00,59.00,45.00,59.67,180.00,6.00,0.00,29.77,1006.80,10.00,M,FEW,M,M,M,20000.00,M,M,M,M,M,M,M,M,M,M,59.00,KLAS 011156Z 18006KT 10SM FEW200 15/07 A2977 RMK AO2 SLP068 T01500072 10183 20150 51014,M
10U,2023-10-01 12:00,-116.1876,41.9532,1637.00,41.00,39.20,93.24,350.00,7.00,0.00,29.79,M,6.00,M,OVC,M,M,M,3000.00,M,M,M,RA,M,M,M,M,M,M,35.75,K10U 011200Z AUTO 35007KT 6SM RA OVC030 05/04 A2979 RMK AO2,M
05U,2023-10-01 12:10,-116.0051,39.6042,1811.23,41.00,41.00,100.00,50.00,4.00,0.00,29.81,M,10.00,M,FEW,BKN,OVC,M,2600.00,3000.00,3600.00,M,M,M,M,M,M,M,M,37.93,K05U 011210Z AUTO 05004KT 10SM FEW026 BKN030 OVC036 05/05 A2981 RMK A01,M
HTH,2023-10-01 12:10,-118.6315,38.5448,1282.89,46.40,46.40,100.00,0.00,0.00,0.00,29.83,M,2.50,M,FEW,SCT,BKN,M,500.00,1500.00,2300.00,M,BR,M,M,M,M,M,M,46.40,KHTH 011210Z AUTO 00000KT 2 1/2SM BR FEW005 SCT015 BKN023 08/08 A2983 RMK A01,M
BVU,2023-10-01 12:15,-114.8611,35.9475,671.00,55.40,41.00,58.27,200.00,5.00,0.00,29.79,M,10.00,M,CLR,M,M,M,M,M,M,M,M,M,M,M,M,M,M,55.40,KBVU 011215Z AUTO 20005KT 10SM CLR 13/05 A2979 RMK AO2,M
CXP,2023-10-01 12:15,-119.7326,39.1923,1431.00,46.40,41.00,81.34,0.00,0.00,0.00,29.86,M,10.00,M,FEW,BKN,OVC,M,2200.00,3200.00,4300.00,M,-RA,M,M,M,M,M,M,46.40,KCXP 011215Z AUTO 00000KT 10SM -RA FEW022 BKN032 OVC043 08/05 A2986 RMK AO2,M
RTS,2023-10-01 12:15,-119.8764,39.6682,1539.00,42.80,37.40,81.07,350.00,15.00,0.00,29.88,M,10.00,M,OVC,M,M,M,3000.00,M,M,M,M,M,M,M,M,M,M,34.78,KRTS 011215Z AUTO 35015KT 10SM OVC030 06/03 A2988 RMK AO2,M
MEV,2023-10-01 12:15,-119.7500,38.9963,1441.42,44.60,42.80,93.35,10.00,7.00,0.00,29.85,M,7.00,M,FEW,BKN,OVC,M,2100.00,3200.00,3700.00,M,-RA,M,M,M,M,M,M,40.14,KMEV 011215Z AUTO 01007KT 7SM -RA FEW021 BKN032 OVC037 07/06 A2985 RMK AO2,M
BAM,2023-10-01 12:15,-116.8743,40.5990,1382.36,46.40,44.60,93.40,0.00,0.00,0.00,29.78,M,10.00,M,OVC,M,M,M,4200.00,M,M,M,M,M,M,M,M,M,M,46.40,KBAM 011215Z AUTO 00000KT 10SM OVC042 08/07 A2978 RMK AO1,M
TMT,2023-10-01 12:15,-117.1971,39.4643,1749.34,41.40,40.50,96.58,230.00,3.00,0.01,29.81,M,7.00,M,SCT,BKN,OVC,M,1000.00,2000.00,3200.00,M,RA,M,M,M,M,M,M,39.43,KTMT 011215Z AUTO 23003KT 7SM RA SCT010 BKN020 OVC032 05/05 A2981 RMK AO2 P0001 T00520047,M
10U,2023-10-01 12:20,-116.1876,41.9532,1637.00,41.00,39.20,93.24,M,4.00,0.00,29.80,M,7.00,11.00,OVC,M,M,M,3000.00,M,M,M,-RA,M,M,M,M,M,M,37.93,K10U 011220Z AUTO VRB04G11KT 7SM -RA OVC030 05/04 A2980 RMK AO2,M
05U,2023-10-01 12:30,-116.0051,39.6042,1811.23,41.00,41.00,100.00,50.00,3.00,0.00,29.81,M,10.00,M,BKN,OVC,M,M,2400.00,3000.00,M,M,M,M,M,M,M,M,M,38.98,K05U 011230Z AUTO 05003KT 10SM BKN024 OVC030 05/05 A2981 RMK A01,M
BVU,2023-10-01 12:35,-114.8611,35.9475,671.00,57.20,41.00,54.60,220.00,10.00,0.00,29.79,M,10.00,M,CLR,M,M,M,M,M,M,M,M,M,M,M,M,M,M,57.20,KBVU 011235Z AUTO 22010KT 10SM CLR 14/05 A2979 RMK AO2,M
CXP,2023-10-01 12:35,-119.7326,39.1923,1431.00,46.40,39.20,75.84,M,4.00,0.00,29.87,M,10.00,M,FEW,OVC,M,M,3100.00,4400.00,M,M,-RA,M,M,M,M,M,M,44.24,KCXP 011235Z AUTO VRB04KT 10SM -RA FEW031 OVC044 08/04 A2987 RMK AO2,M
RTS,2023-10-01 12:35,-119.8764,39.6682,1539.00,42.80,35.60,75.50,350.00,11.00,0.00,29.88,M,10.00,M,OVC,M,M,M,2700.00,M,M,M,M,M,M,M,M,M,M,36.11,KRTS 011235Z AUTO 35011KT 10SM OVC027 06/02 A2988 RMK AO2,M
MEV,2023-10-01 12:35,-119.7500,38.9963,1441.42,44.60,41.00,87.09,20.00,5.00,0.00,29.85,M,10.00,M,FEW,OVC,M,M,3000.00,3800.00,M,M,-RA,M,M,M,M,M,M,41.36,KMEV 011235Z AUTO 02005KT 10SM -RA FEW030 OVC038 07/05 A2985 RMK AO2,M
BAM,2023-10-01 12:35,-116.8743,40.5990,1382.36,46.40,44.60,93.40,0.00,0.00,0.00,29.79,M,10.00,M,SCT,OVC,M,M,2200.00,4200.00,M,M,M,M,M,M,M,M,M,46.40,KBAM 011235Z AUTO 00000KT 10SM SCT022 OVC042 08/07 A2979 RMK AO1,M
HTH,2023-10-01 12:35,-118.6315,38.5448,1282.89,48.20,46.40,93.45,340.00,3.00,0.00,29.84,M,7.00,M,OVC,M,M,M,1000.00,M,M,M,M,M,M,M,M,M,M,47.21,KHTH 011235Z AUTO 34003KT 7SM OVC010 09/08 A2984 RMK A01,M
TMT,2023-10-01 12:35,-117.1971,39.4643,1749.34,41.00,40.50,98.08,210.00,3.00,0.01,29.82,M,10.00,M,SCT,BKN,OVC,M,1000.00,1500.00,2100.00,M,DZ,M,M,M,M,M,M,38.98,KTMT 011235Z AUTO 21003KT 10SM DZ SCT010 BKN015 OVC021 05/05 A2982 RMK AO2 P0001 T00510047,M
ELY,2023-10-01 12:37,-114.8453,39.2950,1909.00,40.00,37.00,88.92,160.00,6.00,T,29.81,M,10.00,M,FEW,FEW,OVC,M,2100.00,2700.00,3900.00,M,-RA,M,M,M,M,M,M,35.17,KELY 011237Z AUTO 16006KT 10SM -RA FEW021 FEW027 OVC039 04/03 A2981 RMK AO2 P0000 T00440028,M
10U,2023-10-01 12:40,-116.1876,41.9532,1637.00,41.00,39.20,93.24,310.00,3.00,0.00,29.80,M,10.00,M,FEW,SCT,BKN,M,800.00,2300.00,3200.00,M,M,M,M,M,M,M,M,38.98,K10U 011240Z AUTO 31003KT 10SM FEW008 SCT023 BKN032 05/04 A2980 RMK AO2,M
TPH,2023-10-01 12:42,-117.0904,38.0505,1654.00,44.00,41.00,89.11,0.00,0.00,0.08,29.83,M,10.00,M,SCT,BKN,OVC,M,2700.00,3500.00,4700.00,M,-RA,M,M,M,M,M,M,44.00,KTPH 011242Z AUTO 00000KT 10SM -RA SCT027 BKN035 OVC047 07/05 A2983 RMK AO2 P0008 T00670050,M
05U,2023-10-01 12:50,-116.0051,39.6042,1811.23,41.00,39.20,93.24,40.00,4.00,0.00,29.82,M,10.00,M,OVC,M,M,M,2200.00,M,M,M,M,M,M,M,M,M,M,37.93,K05U 011250Z AUTO 04004KT 10SM OVC022 05/04 A2982 RMK A01,M
P68,2023-10-01 12:53,-116.0056,39.6014,1993.00,41.00,39.00,92.52,240.00,5.00,0.00,29.79,1006.30,M,M,M,M,M,M,M,M,M,M,M,M,M,M,M,M,M,37.08,KP68 011253Z AUTO 24005KT 05/04 A2979 RMK AO1 SLP063 T00500039,M
DRA,2023-10-01 12:53,-116.0278,36.6206,1009.00,54.00,43.00,66.24,270.00,6.00,0.00,29.81,1006.60,10.00,M,OVC,M,M,M,8000.00,M,M,M,M,M,M,M,M,M,M,54.00,KDRA 011253Z AUTO 27006KT 10SM OVC080 12/06 A2981 RMK AO2 SLP066 T01220061,M
ELY,2023-10-01 12:53,-114.8453,39.2950,1909.00,40.00,37.00,88.92,190.00,8.00,T,29.81,1004.70,10.00,M,BKN,BKN,OVC,M,1900.00,3500.00,4200.00,M,M,M,M,M,M,M,M,33.97,KELY 011253Z AUTO 19008KT 10SM BKN019 BKN035 OVC042 04/03 A2981 RMK AO2 RAE39 SLP047 P0000 T00440028,M
VGT,2023-10-01 12:53,-115.1933,36.2111,667.00,59.00,43.00,55.28,310.00,6.00,0.00,29.78,1008.90,10.00,M,CLR,M,M,M,M,M,M,M,M,M,M,M,M,M,M,59.00,KVGT 011253Z 31006KT 10SM CLR 15/06 A2978 RMK AO2 SLP089 T01500061,M
BVU,2023-10-01 12:55,-114.8611,35.9475,671.00,55.40,41.00,58.27,220.00,5.00,0.00,29.80,M,10.00,M,CLR,M,M,M,M,M,M,M,M,M,M,M,M,M,M,55.40,KBVU 011255Z AUTO 22005KT 10SM CLR 13/05 A2980 RMK AO2,M
CXP,2023-10-01 12:55,-119.7326,39.1923,1431.00,46.40,41.00,81.34,340.00,5.00,0.00,29.88,M,10.00,M,FEW,FEW,OVC,M,2500.00,3100.00,4400.00,M,M,M,M,M,M,M,M,43.50,KCXP 011255Z AUTO 34005KT 10SM FEW025 FEW031 OVC044 08/05 A2988 RMK AO2,M
INS,2023-10-01 12:55,-115.6733,36.5872,955.00,53.60,40.50,61.03,220.00,8.00,0.00,29.81,1006.50,10.00,M,CLR,M,M,M,M,M,M,M,M,M,M,M,M,M,M,53.60,KINS 011255Z AUTO 22008KT 10SM CLR 12/05 A2981 RMK AO2 SLP065 T01200047 $,M
RNO,2023-10-01 12:55,-119.7711,39.4839,1341.00,47.00,39.00,73.57,350.00,7.00,0.00,29.87,1008.90,10.00,M,OVC,M,M,M,3200.00,M,M,M,M,M,M,M,M,M,M,43.06,KRNO 011255Z 35007KT 10SM OVC032 08/04 A2987 RMK AO2 SLP089 T00830039 $,M
RTS,2023-10-01 12:55,-119.8764,39.6682,1539.00,42.80,35.60,75.50,350.00,12.00,0.00,29.88,M,10.00,M,OVC,M,M,M,2800.00,M,M,M,M,M,M,M,M,M,M,35.75,KRTS 011255Z AUTO 35012KT 10SM OVC028 06/02 A2988 RMK AO2,M
MEV,2023-10-01 12:55,-119.7500,38.9963,1441.42,44.60,41.00,87.09,10.00,7.00,0.01,29.86,M,10.00,M,BKN,OVC,M,M,3400.00,3900.00,M,M,UP,M,M,M,M,M,M,40.14,KMEV 011255Z AUTO 01007KT 10SM UP BKN034 OVC039 07/05 A2986 RMK AO2 P0001,M
BAM,2023-10-01 12:55,-116.8743,40.5990,1382.36,46.40,44.60,93.40,0.00,0.00,0.00,29.79,M,10.00,M,BKN,OVC,M,M,2000.00,4200.00,M,M,M,M,M,M,M,M,M,46.40,KBAM 011255Z AUTO 00000KT 10SM BKN020 OVC042 08/07 A2979 RMK AO1,M
HTH,2023-10-01 12:55,-118.6315,38.5448,1282.89,46.40,46.40,100.00,330.00,6.00,0.13,29.84,M,10.00,13.00,BKN,OVC,M,M,1000.00,2200.00,M,M,M,M,M,M,M,M,M,42.87,KHTH 011255Z AUTO 33006G13KT 10SM BKN010 OVC022 08/08 A2984 RMK A01 P0013,M
TMT,2023-10-01 12:55,-117.1971,39.4643,1749.34,41.00,40.00,96.19,210.00,5.00,0.01,29.82,M,10.00,M,SCT,SCT,OVC,M,1000.00,2100.00,3300.00,M,DZ,M,M,M,M,M,M,37.08,KTMT 011255Z AUTO 21005KT 10SM DZ SCT010 SCT021 OVC033 05/05 A2982 RMK AO2 P0001 T00510045,M
LSV,2023-10-01 12:55,-115.0343,36.2362,570.00,59.00,44.80,59.22,190.00,8.00,0.00,29.76,1006.50,10.00,M,CLR,M,M,M,M,M,M,M,M,M,M,M,M,M,M,59.00,KLSV 011255Z AUTO 19008KT 10SM CLR 15/07 A2976 RMK AO2 SLP065 T01510071 $,M
EKO,2023-10-01 12:56,-115.7860,40.8242,1367.00,44.00,42.00,92.61,220.00,3.00,0.00,29.76,1006.30,10.00,M,OVC,M,M,M,4100.00,M,M,M,M,M,M,M,M,M,M,42.41,KEKO 011256Z AUTO 22003KT 10SM OVC041 07/06 A2976 RMK AO2 SLP063 T00670056 $,M
WMC,2023-10-01 12:56,-117.8072,40.9019,1315.00,43.00,40.00,89.06,340.00,16.00,0.04,29.81,1008.20,9.00,24.00,OVC,M,M,M,2000.00,M,M,M,-RA,M,M,M,M,M,M,34.76,KWMC 011256Z AUTO 34016G24KT 9SM -RA OVC020 06/04 A2981 RMK AO2 SLP082 P0004 T00610044,M
NFL,2023-10-01 12:56,-118.7010,39.4166,1199.00,47.00,45.00,92.71,320.00,4.00,0.02,29.84,1008.00,7.00,M,OVC,M,M,M,3700.00,M,M,M,-RA,M,M,M,M,M,M,44.94,KNFL 011256Z AUTO 32004KT 7SM -RA OVC037 08/07 A2984 RMK AO2 SLP080 P0002 T00830072,M
HND,2023-10-01 12:56,-115.1344,35.9729,742.79,57.00,43.00,59.40,210.00,11.00,0.00,29.82,1010.10,10.00,M,CLR,M,M,M,M,M,M,M,M,M,M,M,M,M,M,57.00,KHND 011256Z 21011KT 10SM CLR 14/06 A2982 RMK AO2 SLP101 T01390061,M
TPH,2023-10-01 12:56,-117.0904,38.0505,1654.00,44.00,40.00,85.71,0.00,0.00,0.08,29.84,1008.50,10.00,M,BKN,OVC,M,M,3100.00,4100.00,M,M,-RA,M,M,M,M,M,M,44.00,KTPH 011256Z AUTO 00000KT 10SM -RA BKN031 OVC041 07/04 A2984 RMK AO2 SLP085 P0008 T00670044,M
LAS,2023-10-01 12:56,-115.1634,36.0719,663.00,59.00,45.00,59.67,200.00,7.00,0.00,29.79,1007.30,10.00,M,FEW,M,M,M,20000.00,M,M,M,M,M,M,M,M,M,M,59.00,KLAS 011256Z 20007KT 10SM FEW200 15/07 A2979 RMK AO2 SLP073 T01500072,M
10U,2023-10-01 13:00,-116.1876,41.9532,1637.00,41.00,39.20,93.24,340.00,4.00,0.00,29.80,M,10.00,M,BKN,OVC,M,M,2500.00,4800.00,M,M,M,M,M,M,M,M,M,37.93,K10U 011300Z AUTO 34004KT 10SM BKN025 OVC048 05/04 A2980 RMK AO2,M
05U,2023-10-01 13:10,-116.0051,39.6042,1811.23,41.00,39.20,93.24,50.00,5.00,0.00,29.82,M,10.00,M,OVC,M,M,M,2200.00,M,M,M,M,M,M,M,M,M,M,37.08,K05U 011310Z AUTO 05005KT 10SM OVC022 05/04 A2982 RMK A01,M
BVU,2023-10-01 13:15,-114.8611,35.9475,671.00,55.40,41.00,58.27,170.00,4.00,0.00,29.81,M,10.00,M,CLR,M,M,M,M,M,M,M,M,M,M,M,M,M,M,55.40,KBVU 011315Z AUTO 17004KT 10SM CLR 13/05 A2981 RMK AO2,M
CXP,2023-10-01 13:15,-119.7326,39.1923,1431.00,46.40,37.40,70.68,M,3.00,0.00,29.88,M,10.00,M,FEW,OVC,M,M,2600.00,4500.00,M,M,M,M,M,M,M,M,M,45.15,KCXP 011315Z AUTO VRB03KT 10SM FEW026 OVC045 08/03 A2988 RMK AO2,M
RTS,2023-10-01 13:15,-119.8764,39.6682,1539.00,42.80,35.60,75.50,350.00,14.00,0.00,29.89,M,10.00,M,OVC,M,M,M,2800.00,M,M,M,M,M,M,M,M,M,M,35.08,KRTS 011315Z AUTO 35014KT 10SM OVC028 06/02 A2989 RMK AO2,M
MEV,2023-10-01 13:15,-119.7500,38.9963,1441.42,44.60,41.00,87.09,20.00,8.00,0.00,29.86,M,10.00,M,OVC,M,M,M,3200.00,M,M,M,M,M,M,M,M,M,M,39.63,KMEV 011315Z AUTO 02008KT 10SM OVC032 07/05 A2986 RMK AO2,M
BAM,2023-10-01 13:15,-116.8743,40.5990,1382.36,46.40,44.60,93.40,0.00,0.00,0.00,29.79,M,10.00,M,BKN,OVC,M,M,2000.00,4100.00,M,M,M,M,M,M,M,M,M,46.40,KBAM 011315Z AUTO 00000KT 10SM BKN020 OVC041 08/07 A2979 RMK AO1,M
HTH,2023-10-01 13:15,-118.6315,38.5448,1282.89,46.40,46.40,100.00,300.00,4.00,0.00,29.85,M,6.00,12.00,SCT,OVC,M,M,700.00,2300.00,M,M,BR,M,M,M,M,M,M,44.24,KHTH 011315Z AUTO 30004G12KT 6SM BR SCT007 OVC023 08/08 A2985 RMK A01,M
TMT,2023-10-01 13:15,-117.1971,39.4643,1749.34,40.60,39.40,95.44,200.00,5.00,0.00,29.83,M,10.00,M,OVC,M,M,M,3200.00,M,M,M,DZ,M,M,M,M,M,M,36.61,KTMT 011315Z AUTO 20005KT 10SM DZ OVC032 05/04 A2983 RMK AO2 T00480041,M
10U,2023-10-01 13:20,-116.1876,41.9532,1637.00,41.00,39.20,93.24,0.00,0.00,0.00,29.81,M,10.00,M,OVC,M,M,M,2600.00,M,M,M,M,M,M,M,M,M,M,41.00,K10U 011320Z AUTO 00000KT 10SM OVC026 05/04 A2981 RMK AO2,M
05U,2023-10-01 13:30,-116.0051,39.6042,1811.23,41.00,39.20,93.24,60.00,7.00,0.00,29.82,M,10.00,M,OVC,M,M,M,2200.00,M,M,M,M,M,M,M,M,M,M,35.75,K05U 011330Z AUTO 06007KT 10SM OVC022 05/04 A2982 RMK A01,M
BVU,2023-10-01 13:35,-114.8611,35.9475,671.00,55.40,42.80,62.46,130.00,4.00,0.00,29.81,M,10.00,M,CLR,M,M,M,M,M,M,M,M,M,M,M,M,M,M,55.40,KBVU 011335Z AUTO 13004KT 10SM CLR 13/06 A2981 RMK AO2,M
CXP,2023-10-01 13:35,-119.7326,39.1923,1431.00,46.40,39.20,75.84,50.00,5.00,0.00,29.88,M,10.00,M,BKN,OVC,M,M,4700.00,5500.00,M,M,M,M,M,M,M,M,M,43.50,KCXP 011335Z AUTO 05005KT 10SM BKN047 OVC055 08/04 A2988 RMK AO2,M
RTS,2023-10-01 13:35,-119.8764,39.6682,1539.00,42.80,35.60,75.50,350.00,14.00,0.00,29.90,M,10.00,M,OVC,M,M,M,2700.00,M,M,M,M,M,M,M,M,M,M,35.08,KRTS 011335Z AUTO 35014KT 10SM OVC027 06/02 A2990 RMK AO2,M
MEV,2023-10-01 13:35,-119.7500,38.9963,1441.42,44.60,41.00,87.09,360.00,8.00,0.00,29.87,M,10.00,M,OVC,M,M,M,3200.00,M,M,M,M,M,M,M,M,M,M,39.63,KMEV 011335Z AUTO 36008KT 10SM OVC032 07/05 A2987 RMK AO2,M
BAM,2023-10-01 13:35,-116.8743,40.5990,1382.36,46.40,44.60,93.40,180.00,3.00,0.00,29.80,M,10.00,M,OVC,M,M,M,2000.00,M,M,M,M,M,M,M,M,M,M,45.15,KBAM 011335Z AUTO 18003KT 10SM OVC020 08/07 A2980 RMK AO1,M
HTH,2023-10-01 13:35,-118.6315,38.5448,1282.89,46.40,46.40,100.00,340.00,5.00,0.00,29.86,M,8.00,M,FEW,SCT,OVC,M,700.00,2400.00,3600.00,M,M,M,M,M,M,M,M,43.50,KHTH 011335Z AUTO 34005KT 8SM FEW007 SCT024 OVC036 08/08 A2986 RMK A01,M
TMT,2023-10-01 13:35,-117.1971,39.4643,1749.34,40.60,39.60,96.19,190.00,3.00,0.00,29.83,M,10.00,M,OVC,M,M,M,3000.00,M,M,M,RA,M,M,M,M,M,M,38.52,KTMT 011335Z AUTO 19003KT 10SM RA OVC030 05/04 A2983 RMK AO2 T00480042,M
10U,2023-10-01 13:40,-116.1876,41.9532,1637.00,41.00,37.40,86.89,80.00,3.00,0.00,29.81,M,10.00,M,OVC,M,M,M,2600.00,M,M,M,-DZ,M,M,M,M,M,M,38.98,K10U 011340Z AUTO 08003KT 10SM -DZ OVC026 05/03 A2981 RMK AO2,M
ELY,2023-10-01 13:41,-114.8453,39.2950,1909.00,40.00,37.00,88.92,210.00,8.00,0.00,29.82,M,10.00,M,FEW,SCT,OVC,M,2300.00,2800.00,3900.00,M,M,M,M,M,M,M,M,33.97,KELY 011341Z AUTO 21008KT 10SM FEW023 SCT028 OVC039 04/03 A2982 RMK AO2 T00440028,M
05U,2023-10-01 13:50,-116.0051,39.6042,1811.23,41.00,39.20,93.24,50.00,9.00,0.00,29.84,M,10.00,M,OVC,M,M,M,2500.00,M,M,M,M,M,M,M,M,M,M,34.70,K05U 011350Z AUTO 05009KT 10SM OVC025 05/04 A2984 RMK A01,M
P68,2023-10-01 13:53,-116.0056,39.6014,1993.00,40.00,38.00,92.49,250.00,9.00,0.00,29.81,1007.10,M,M,M,M,M,M,M,M,M,M,M,M,M,M,M,M,M,33.46,KP68 011353Z AUTO 25009KT 04/03 A2981 RMK AO1 SLP071 T00440033,M
DRA,2023-10-01 13:53,-116.0278,36.6206,1009.00,53.00,44.00,71.39,230.00,11.00,0.00,29.83,1007.40,10.00,16.00,OVC,M,M,M,9500.00,M,M,M,M,M,M,M,M,M,M,53.00,KDRA 011353Z AUTO 23011G16KT 10SM OVC095 12/07 A2983 RMK AO2 SLP074 T01170067,M
ELY,2023-10-01 13:53,-114.8453,39.2950,1909.00,39.00,36.00,88.87,200.00,9.00,0.00,29.83,1005.50,10.00,M,FEW,BKN,OVC,M,2500.00,3900.00,8500.00,M,M,M,M,M,M,M,M,32.22,KELY 011353Z AUTO 20009KT 10SM FEW025 BKN039 OVC085 04/02 A2983 RMK AO2 SLP055 T00390022,M
VGT,2023-10-01 13:53,-115.1933,36.2111,667.00,58.00,44.00,59.54,250.00,3.00,0.00,29.81,1009.80,10.00,M,CLR,M,M,M,M,M,M,M,M,M,M,M,M,M,M,58.00,KVGT 011353Z 25003KT 10SM CLR 14/07 A2981 RMK AO2 SLP098 T01440067,M
BVU,2023-10-01 13:55,-114.8611,35.9475,671.00,55.40,42.80,62.46,0.00,0.00,0.00,29.82,M,10.00,M,CLR,M,M,M,M,M,M,M,M,M,M,M,M,M,M,55.40,KBVU 011355Z AUTO 00000KT 10SM CLR 13/06 A2982 RMK AO2,M
CXP,2023-10-01 13:55,-119.7326,39.1923,1431.00,46.40,39.20,75.84,0.00,0.00,0.00,29.89,M,10.00,M,SCT,OVC,M,M,3900.00,4600.00,M,M,M,M,M,M,M,M,M,46.40,KCXP 011355Z AUTO 00000KT 10SM SCT039 OVC046 08/04 A2989 RMK AO2,M
INS,2023-10-01 13:55,-115.6733,36.5872,955.00,51.40,39.20,62.92,260.00,3.00,0.00,29.83,1007.40,10.00,M,CLR,M,M,M,M,M,M,M,M,M,M,M,M,M,M,51.40,KINS 011355Z AUTO 26003KT 10SM CLR 11/04 A2983 RMK AO2 SLP074 T01080040 $,M
RNO,2023-10-01 13:55,-119.7711,39.4839,1341.00,47.00,38.00,70.74,350.00,10.00,0.00,29.89,1009.80,10.00,M,BKN,OVC,M,M,3000.00,6000.00,M,M,M,M,M,M,M,M,M,41.78,KRNO 011355Z 35010KT 10SM BKN030 OVC060 08/03 A2989 RMK AO2 SLP098 MTN TOPS OBSCD DSNT SW THRU NW T00830033 $,M
LSV,2023-10-01 13:55,-115.0343,36.2362,570.00,59.00,44.60,58.77,180.00,9.00,0.00,29.78,1007.20,10.00,M,CLR,M,M,M,M,M,M,M,M,M,M,M,M,M,M,59.00,KLSV 011355Z AUTO 18009KT 10SM CLR 15/07 A2978 RMK AO2 SLP072 T01490070 $,M
RTS,2023-10-01 13:55,-119.8764,39.6682,1539.00,41.00,35.60,80.93,350.00,12.00,0.00,29.90,M,10.00,M,OVC,M,M,M,2700.00,M,M,M,M,M,M,M,M,M,M,33.46,KRTS 011355Z AUTO 35012KT 10SM OVC027 05/02 A2990 RMK AO2,M
MEV,2023-10-01 13:55,-119.7500,38.9963,1441.42,44.60,41.00,87.09,350.00,4.00,0.00,29.88,M,9.00,M,OVC,M,M,M,3300.00,M,M,M,-RA,M,M,M,M,M,M,42.13,KMEV 011355Z AUTO 35004KT 9SM -RA OVC033 07/05 A2988 RMK AO2,M
BAM,2023-10-01 13:55,-116.8743,40.5990,1382.36,46.40,44.60,93.40,0.00,0.00,0.00,29.80,M,10.00,M,BKN,OVC,M,M,2000.00,4300.00,M,M,M,M,M,M,M,M,M,46.40,KBAM 011355Z AUTO 00000KT 10SM BKN020 OVC043 08/07 A2980 RMK AO1,M
HTH,2023-10-01 13:55,-118.6315,38.5448,1282.89,46.40,46.40,100.00,360.00,8.00,0.02,29.86,M,10.00,M,BKN,OVC,M,M,3800.00,4500.00,M,M,M,M,M,M,M,M,M,41.85,KHTH 011355Z AUTO 36008KT 10SM BKN038 OVC045 08/08 A2986 RMK A01 P0002,M
TMT,2023-10-01 13:55,-117.1971,39.4643,1749.34,40.60,39.70,96.56,180.00,3.00,0.00,29.84,M,10.00,M,OVC,M,M,M,2600.00,M,M,M,-DZ,M,M,M,M,M,M,38.52,KTMT 011355Z AUTO 18003KT 10SM -DZ OVC026 05/04 A2984 RMK AO2 T00480043,M
EKO,2023-10-01 13:56,-115.7860,40.8242,1367.00,43.00,41.00,92.58,240.00,4.00,0.00,29.78,1006.90,10.00,M,BKN,BKN,OVC,M,3200.00,4400.00,10000.00,M,M,M,M,M,M,M,M,40.27,KEKO 011356Z AUTO 24004KT 10SM BKN032 BKN044 OVC100 06/05 A2978 RMK AO2 SLP069 T00610050 $,M
WMC,2023-10-01 13:56,-117.8072,40.9019,1315.00,42.00,39.00,89.01,340.00,13.00,0.05,29.83,1008.90,9.00,21.00,OVC,M,M,M,2200.00,M,M,M,-RA,M,M,M,M,M,M,34.38,KWMC 011356Z AUTO 34013G21KT 9SM -RA OVC022 06/04 A2983 RMK AO2 SLP089 P0005 T00560039,M
NFL,2023-10-01 13:56,-118.7010,39.4166,1199.00,47.00,44.00,89.24,340.00,7.00,0.04,29.86,1008.70,8.00,M,SCT,OVC,M,M,3400.00,4100.00,M,M,-RA,M,M,M,M,M,M,43.06,KNFL 011356Z AUTO 34007KT 8SM -RA SCT034 OVC041 08/07 A2986 RMK AO2 SLP087 P0004 T00830067,M
HND,2023-10-01 13:56,-115.1344,35.9729,742.79,56.00,43.00,61.59,170.00,7.00,0.00,29.84,1011.10,10.00,M,CLR,M,M,M,M,M,M,M,M,M,M,M,M,M,M,56.00,KHND 011356Z 17007KT 10SM CLR 13/06 A2984 RMK AO2 SLP111 T01330061,M
TPH,2023-10-01 13:56,-117.0904,38.0505,1654.00,44.00,42.00,92.61,0.00,0.00,0.03,29.86,1009.10,10.00,M,BKN,OVC,M,M,2600.00,3200.00,M,M,-RA,M,M,M,M,M,M,44.00,KTPH 011356Z AUTO 00000KT 10SM -RA BKN026 OVC032 07/06 A2986 RMK AO2 SLP091 P0003 T00670056,M
LAS,2023-10-01 13:56,-115.1634,36.0719,663.00,58.00,44.00,59.54,200.00,7.00,0.00,29.81,1008.30,10.00,M,FEW,FEW,M,M,10000.00,17000.00,M,M,M,M,M,M,M,M,M,58.00,KLAS 011356Z 20007KT 10SM FEW100 FEW170 14/07 A2981 RMK AO2 SLP083 T01440067,M
10U,2023-10-01 14:00,-116.1876,41.9532,1637.00,41.00,39.20,93.24,0.00,0.00,0.00,29.82,M,10.00,M,BKN,OVC,M,M,2300.00,2800.00,M,M,M,M,M,M,M,M,M,41.00,K10U 011400Z AUTO 00000KT 10SM BKN023 OVC028 05/04 A2982 RMK AO2,M
05U,2023-10-01 14:10,-116.0051,39.6042,1811.23,41.00,39.20,93.24,50.00,7.00,0.00,29.84,M,4.00,M,BKN,OVC,M,M,2900.00,3400.00,M,M,BR,M,M,M,M,M,M,35.75,K05U 011410Z AUTO 05007KT 4SM BR BKN029 OVC034 05/04 A2984 RMK A01,M
BVU,2023-10-01 14:15,-114.8611,35.9475,671.00,55.40,41.00,58.27,110.00,3.00,0.00,29.83,M,10.00,M,CLR,M,M,M,M,M,M,M,M,M,M,M,M,M,M,55.40,KBVU 011415Z AUTO 11003KT 10SM CLR 13/05 A2983 RMK AO2,M
CXP,2023-10-01 14:15,-119.7326,39.1923,1431.00,46.40,39.20,75.84,0.00,0.00,0.00,29.90,M,10.00,M,BKN,OVC,M,M,3700.00,4500.00,M,M,M,M,M,M,M,M,M,46.40,KCXP 011415Z AUTO 00000KT 10SM BKN037 OVC045 08/04 A2990 RMK AO2,M
RTS,2023-10-01 14:15,-119.8764,39.6682,1539.00,41.00,35.60,80.93,340.00,10.00,0.00,29.91,M,10.00,M,OVC,M,M,M,2700.00,M,M,M,M,M,M,M,M,M,M,34.25,KRTS 011415Z AUTO 34010KT 10SM OVC027 05/02 A2991 RMK AO2,M
MEV,2023-10-01 14:15,-119.7500,38.9963,1441.42,44.60,41.00,87.09,340.00,5.00,0.00,29.88,M,10.00,M,OVC,M,M,M,3200.00,M,M,M,UP,M,M,M,M,M,M,41.36,KMEV 011415Z AUTO 34005KT 10SM UP OVC032 07/05 A2988 RMK AO2,M
BAM,2023-10-01 14:15,-116.8743,40.5990,1382.36,46.40,44.60,93.40,220.00,4.00,0.00,29.81,M,10.00,M,BKN,OVC,M,M,2000.00,4300.00,M,M,M,M,M,M,M,M,M,44.24,KBAM 011415Z AUTO 22004KT 10SM BKN020 OVC043 08/07 A2981 RMK AO1,M
HTH,2023-10-01 14:15,-118.6315,38.5448,1282.89,46.40,46.40,100.00,360.00,11.00,0.00,29.87,M,9.00,M,BKN,OVC,M,M,4200.00,5000.00,M,M,M,M,M,M,M,M,M,40.66,KHTH 011415Z AUTO 36011KT 9SM BKN042 OVC050 08/08 A2987 RMK A01,M
TMT,2023-10-01 14:15,-117.1971,39.4643,1749.34,41.00,40.00,96.19,180.00,3.00,0.00,29.84,M,10.00,M,OVC,M,M,M,2300.00,M,M,M,DZ,M,M,M,M,M,M,38.98,KTMT 011415Z AUTO 18003KT 10SM DZ OVC023 05/05 A2984 RMK AO2 T00500045,M
TPH,2023-10-01 14:18,-117.0904,38.0505,1654.00,44.00,42.00,92.61,180.00,4.00,T,29.86,M,10.00,M,SCT,OVC,M,M,2700.00,3800.00,M,M,-RA,M,M,M,M,M,M,41.43,KTPH 011418Z AUTO 18004KT 10SM -RA SCT027 OVC038 07/06 A2986 RMK AO2 P0000 T00670056,M
10U,2023-10-01 14:20,-116.1876,41.9532,1637.00,41.00,39.20,93.24,0.00,0.00,0.00,29.83,M,10.00,M,SCT,OVC,M,M,2300.00,3000.00,M,M,M,M,M,M,M,M,M,41.00,K10U 011420Z AUTO 00000KT 10SM SCT023 OVC030 05/04 A2983 RMK AO2,M
05U,2023-10-01 14:30,-116.0051,39.6042,1811.23,41.00,39.20,93.24,50.00,6.00,0.00,29.85,M,10.00,M,FEW,OVC,M,M,2300.00,3100.00,M,M,M,M,M,M,M,M,M,36.37,K05U 011430Z AUTO 05006KT 10SM FEW023 OVC031 05/04 A2985 RMK A01,M
BVU,2023-10-01 14:35,-114.8611,35.9475,671.00,57.20,42.80,58.52,0.00,0.00,0.00,29.83,M,10.00,M,CLR,M,M,M,M,M,M,M,M,M,M,M,M,M,M,57.20,KBVU 011435Z AUTO 00000KT 10SM CLR 14/06 A2983 RMK AO2,M
CXP,2023-10-01 14:35,-119.7326,39.1923,1431.00,46.40,41.00,81.34,0.00,0.00,0.00,29.90,M,10.00,M,SCT,OVC,M,M,3500.00,4200.00,M,M,M,M,M,M,M,M,M,46.40,KCXP 011435Z AUTO 00000KT 10SM SCT035 OVC042 08/05 A2990 RMK AO2,M
RTS,2023-10-01 14:35,-119.8764,39.6682,1539.00,41.00,35.60,80.93,350.00,10.00,0.00,29.92,M,10.00,M,OVC,M,M,M,2800.00,M,M,M,M,M,M,M,M,M,M,34.25,KRTS 011435Z AUTO 35010KT 10SM OVC028 05/02 A2992 RMK AO2,M
MEV,2023-10-01 14:35,-119.7500,38.9963,1441.42,44.60,41.00,87.09,330.00,5.00,0.00,29.89,M,10.00,M,OVC,M,M,M,3100.00,M,M,M,M,M,M,M,M,M,M,41.36,KMEV 011435Z AUTO 33005KT 10SM OVC031 07/05 A2989 RMK AO2,M
BAM,2023-10-01 14:35,-116.8743,40.5990,1382.36,46.40,44.60,93.40,240.00,5.00,0.00,29.82,M,10.00,M,OVC,M,M,M,2000.00,M,M,M,M,M,M,M,M,M,M,43.50,KBAM 011435Z AUTO 24005KT 10SM OVC020 08/07 A2982 RMK AO1,M
HTH,2023-10-01 14:35,-118.6315,38.5448,1282.89,46.40,46.40,100.00,360.00,8.00,0.00,29.88,M,9.00,14.00,BKN,BKN,M,M,4200.00,6000.00,M,M,M,M,M,M,M,M,M,41.85,KHTH 011435Z AUTO 36008G14KT 9SM BKN042 BKN060 08/08 A2988 RMK A01,M
TMT,2023-10-01 14:35,-117.1971,39.4643,1749.34,41.40,40.30,95.83,200.00,3.00,0.00,29.85,M,10.00,M,BKN,OVC,M,M,1900.00,2400.00,M,M,-RA,M,M,M,M,M,M,39.43,KTMT 011435Z AUTO 20003KT 10SM -RA BKN019 OVC024 05/05 A2985 RMK AO2 T00520046,M
10U,2023-10-01 14:40,-116.1876,41.9532,1637.00,41.00,37.40,86.89,0.00,0.00,0.00,29.84,M,10.00,M,BKN,OVC,M,M,2600.00,3000.00,M,M,M,M,M,M,M,M,M,41.00,K10U 011440Z AUTO 00000KT 10SM BKN026 OVC030 05/03 A2984 RMK AO2,M
05U,2023-10-01 14:50,-116.0051,39.6042,1811.23,41.00,39.20,93.24,10.00,5.00,0.00,29.86,M,10.00,M,OVC,M,M,M,3300.00,M,M,M,M,M,M,M,M,M,M,37.08,K05U 011450Z AUTO 01005KT 10SM OVC033 05/04 A2986 RMK A01,M
P68,2023-10-01 14:53,-116.0056,39.6014,1993.00,42.00,39.00,89.01,210.00,4.00,0.00,29.84,1007.60,M,M,M,M,M,M,M,M,M,M,M,M,M,M,M,M,M,39.10,KP68 011453Z AUTO 21004KT 06/04 A2984 RMK AO1 SLP076 T00560039 53017,M
DRA,2023-10-01 14:53,-116.0278,36.6206,1009.00,53.00,43.00,68.71,230.00,12.00,0.00,29.85,1008.10,10.00,M,CLR,M,M,M,M,M,M,M,M,M,M,M,M,M,M,53.00,KDRA 011453Z AUTO 23012KT 10SM CLR 12/06 A2985 RMK AO2 SLP081 T01170061 53019,M
ELY,2023-10-01 14:53,-114.8453,39.2950,1909.00,41.00,36.00,82.22,190.00,13.00,0.00,29.85,1006.70,10.00,M,FEW,M,M,M,7500.00,M,M,M,M,M,M,M,M,M,M,33.10,KELY 011453Z AUTO 19013KT 10SM FEW075 05/02 A2985 RMK AO2 SLP067 60000 T00500022 53018,M
VGT,2023-10-01 14:53,-115.1933,36.2111,667.00,61.00,45.00,55.57,30.00,3.00,0.00,29.83,1010.60,10.00,M,CLR,M,M,M,M,M,M,M,M,M,M,M,M,M,M,61.00,KVGT 011453Z 03003KT 10SM CLR 16/07 A2983 RMK AO2 SLP106 T01610072 53022,M
BVU,2023-10-01 14:55,-114.8611,35.9475,671.00,59.00,42.80,54.86,130.00,3.00,0.00,29.84,M,10.00,M,CLR,M,M,M,M,M,M,M,M,M,M,M,M,M,M,59.00,KBVU 011455Z AUTO 13003KT 10SM CLR 15/06 A2984 RMK AO2,M
CXP,2023-10-01 14:55,-119.7326,39.1923,1431.00,46.40,41.00,81.34,160.00,4.00,0.00,29.91,M,10.00,M,BKN,OVC,M,M,3300.00,4200.00,M,M,M,M,M,M,M,M,M,44.24,KCXP 011455Z AUTO 16004KT 10SM BKN033 OVC042 08/05 A2991 RMK AO2,M
INS,2023-10-01 14:55,-115.6733,36.5872,955.00,55.80,40.30,55.90,250.00,4.00,0.00,29.85,1008.10,10.00,M,CLR,M,M,M,M,M,M,M,M,M,M,M,M,M,M,55.80,KINS 011455Z AUTO 25004KT 10SM CLR 13/05 A2985 RMK AO2 SLP081 T01320046 52020 $,M
RNO,2023-10-01 14:55,-119.7711,39.4839,1341.00,47.00,37.00,68.02,350.00,8.00,0.00,29.91,1010.60,10.00,M,FEW,BKN,OVC,M,2500.00,3500.00,4500.00,M,M,M,M,M,M,M,M,42.59,KRNO 011455Z 35008KT 10SM FEW025 BKN035 OVC045 08/03 A2991 RMK AO2 SLP106 T00830028 53014 $,M
LSV,2023-10-01 14:55,-115.0343,36.2362,570.00,61.50,44.20,52.95,180.00,8.00,0.00,29.81,1008.10,10.00,M,CLR,M,M,M,M,M,M,M,M,M,M,M,M,M,M,61.50,KLSV 011455Z AUTO 18008KT 10SM CLR 16/07 A2981 RMK AO2 SLP081 T01640068 52024 $,M
RTS,2023-10-01 14:55,-119.8764,39.6682,1539.00,41.00,35.60,80.93,350.00,11.00,0.00,29.92,M,10.00,16.00,OVC,M,M,M,2800.00,M,M,M,M,M,M,M,M,M,M,33.84,KRTS 011455Z AUTO 35011G16KT 10SM OVC028 05/02 A2992 RMK AO2,M
MEV,2023-10-01 14:55,-119.7500,38.9963,1441.42,44.60,41.00,87.09,360.00,5.00,0.00,29.90,M,10.00,M,FEW,OVC,M,M,2200.00,2900.00,M,M,M,M,M,M,M,M,M,41.36,KMEV 011455Z AUTO 36005KT 10SM FEW022 OVC029 07/05 A2990 RMK AO2,M
BAM,2023-10-01 14:55,-116.8743,40.5990,1382.36,46.40,46.40,100.00,240.00,4.00,0.00,29.82,M,10.00,M,OVC,M,M,M,2000.00,M,M,M,M,M,M,M,M,M,M,44.24,KBAM 011455Z AUTO 24004KT 10SM OVC020 08/08 A2982 RMK AO1,M
HTH,2023-10-01 14:55,-118.6315,38.5448,1282.89,46.40,46.40,100.00,350.00,8.00,0.00,29.89,M,10.00,M,SCT,BKN,OVC,M,2900.00,4500.00,7000.00,M,M,M,M,M,M,M,M,41.85,KHTH 011455Z AUTO 35008KT 10SM SCT029 BKN045 OVC070 08/08 A2989 RMK A01,M
TMT,2023-10-01 14:55,-117.1971,39.4643,1749.34,41.40,40.00,94.72,200.00,3.00,0.00,29.86,M,10.00,M,OVC,M,M,M,2400.00,M,M,M,-RA,M,M,M,M,M,M,39.43,KTMT 011455Z AUTO 20003KT 10SM -RA OVC024 05/04 A2986 RMK AO2 60001 T00520044,M
EKO,2023-10-01 14:56,-115.7860,40.8242,1367.00,44.00,42.00,92.61,240.00,4.00,0.00,29.80,1007.60,10.00,M,SCT,OVC,M,M,3700.00,4900.00,M,M,M,M,M,M,M,M,M,41.43,KEKO 011456Z AUTO 24004KT 10SM SCT037 OVC049 07/06 A2980 RMK AO2 SLP076 T00670056 53010 $,M
WMC,2023-10-01 14:56,-117.8072,40.9019,1315.00,42.00,39.00,89.01,340.00,11.00,0.03,29.85,1009.80,10.00,19.00,OVC,M,M,M,2400.00,M,M,M,-RA,M,M,M,M,M,M,35.10,KWMC 011456Z AUTO 34011G19KT 10SM -RA OVC024 06/04 A2985 RMK AO2 SLP098 P0003 60012 T00560039 53017,M
NFL,2023-10-01 14:56,-118.7010,39.4166,1199.00,47.00,44.00,89.24,350.00,8.00,0.02,29.88,1009.40,10.00,M,FEW,OVC,M,M,800.00,3600.00,M,M,M,M,M,M,M,M,M,42.59,KNFL 011456Z AUTO 35008KT 10SM FEW008 OVC036 08/07 A2988 RMK AO2 RAE39 SLP094 P0002 60008 T00830067 53019,M
HND,2023-10-01 14:56,-115.1344,35.9729,742.79,59.00,43.00,55.28,190.00,11.00,0.00,29.86,1011.60,10.00,M,CLR,M,M,M,M,M,M,M,M,M,M,M,M,M,M,59.00,KHND 011456Z 19011KT 10SM CLR 15/06 A2986 RMK AO2 SLP116 T01500061 53018,M
TPH,2023-10-01 14:56,-117.0904,38.0505,1654.00,45.00,43.00,92.65,190.00,6.00,T,29.88,1010.00,10.00,M,SCT,OVC,M,M,1900.00,3600.00,M,M,M,M,M,M,M,M,M,41.19,KTPH 011456Z AUTO 19006KT 10SM SCT019 OVC036 07/06 A2988 RMK AO2 RAE51 SLP100 P0000 60011 T00720061 53017,M
LAS,2023-10-01 14:56,-115.1634,36.0719,663.00,60.00,43.00,53.34,190.00,9.00,0.00,29.84,1009.00,10.00,M,FEW,FEW,M,M,10000.00,17000.00,M,M,M,M,M,M,M,M,M,60.00,KLAS 011456Z 19009KT 10SM FEW100 FEW170 16/06 A2984 RMK AO2 SLP090 T01560061 53020,M
10U,2023-10-01 15:00,-116.1876,41.9532,1637.00,41.00,37.40,86.89,0.00,0.00,0.00,29.84,M,10.00,M,OVC,M,M,M,2700.00,M,M,M,M,M,M,M,M,M,M,41.00,K10U 011500Z AUTO 00000KT 10SM OVC027 05/03 A2984 RMK AO2,M
TPH,2023-10-01 15:05,-117.0904,38.0505,1654.00,45.00,43.00,92.65,190.00,6.00,0.00,29.88,M,10.00,M,BKN,OVC,M,M,2000.00,3600.00,M,M,M,M,M,M,M,M,M,41.19,KTPH 011505Z AUTO 19006KT 10SM BKN020 OVC036 07/06 A2988 RMK AO2 T00720061,M
05U,2023-10-01 15:10,-116.0051,39.6042,1811.23,42.80,39.20,86.99,30.00,4.00,0.00,29.87,M,10.00,M,SCT,BKN,BKN,M,2500.00,3500.00,4000.00,M,M,M,M,M,M,M,M,40.03,K05U 011510Z AUTO 03004KT 10SM SCT025 BKN035 BKN040 06/04 A2987 RMK A01,M
BVU,2023-10-01 15:15,-114.8611,35.9475,671.00,60.80,41.00,48.00,180.00,4.00,0.00,29.85,M,10.00,M,CLR,M,M,M,M,M,M,M,M,M,M,M,M,M,M,60.80,KBVU 011515Z AUTO 18004KT 10SM CLR 16/05 A2985 RMK AO2,M
CXP,2023-10-01 15:15,-119.7326,39.1923,1431.00,46.40,41.00,81.34,160.00,4.00,0.00,29.92,M,10.00,M,SCT,OVC,M,M,2700.00,3400.00,M,M,M,M,M,M,M,M,M,44.24,KCXP 011515Z AUTO 16004KT 10SM SCT027 OVC034 08/05 A2992 RMK AO2,M
RTS,2023-10-01 15:15,-119.8764,39.6682,1539.00,42.80,35.60,75.50,340.00,11.00,0.00,29.93,M,10.00,M,OVC,M,M,M,2900.00,M,M,M,M,M,M,M,M,M,M,36.11,KRTS 011515Z AUTO 34011KT 10SM OVC029 06/02 A2993 RMK AO2,M
MEV,2023-10-01 15:15,-119.7500,38.9963,1441.42,44.60,41.00,87.09,350.00,6.00,0.00,29.90,M,10.00,M,OVC,M,M,M,2800.00,M,M,M,M,M,M,M,M,M,M,40.71,KMEV 011515Z AUTO 35006KT 10SM OVC028 07/05 A2990 RMK AO2,M
BAM,2023-10-01 15:15,-116.8743,40.5990,1382.36,46.40,46.40,100.00,240.00,6.00,0.00,29.83,M,10.00,M,SCT,BKN,OVC,M,2000.00,3000.00,4400.00,M,M,M,M,M,M,M,M,42.87,KBAM 011515Z AUTO 24006KT 10SM SCT020 BKN030 OVC044 08/08 A2983 RMK AO1,M
HTH,2023-10-01 15:15,-118.6315,38.5448,1282.89,46.40,42.80,87.19,350.00,8.00,0.00,29.90,M,10.00,16.00,M,M,M,M,M,M,M,M,M,M,M,M,M,M,M,41.85,KHTH 011515Z AUTO 35008G16KT 10SM 08/06 A2990 RMK A01,M
TMT,2023-10-01 15:15,-117.1971,39.4643,1749.34,42.40,41.00,94.74,210.00,6.00,0.00,29.86,M,10.00,M,BKN,OVC,M,M,2400.00,3200.00,M,M,M,M,M,M,M,M,M,38.06,KTMT 011515Z AUTO 21006KT 10SM BKN024 OVC032 06/05 A2986 RMK AO2 T00580049,M
10U,2023-10-01 15:20,-116.1876,41.9532,1637.00,41.00,37.40,86.89,280.00,3.00,0.00,29.83,M,10.00,M,BKN,BKN,OVC,M,2900.00,4700.00,5500.00,M,M,M,M,M,M,M,M,38.98,K10U 011520Z AUTO 28003KT 10SM BKN029 BKN047 OVC055 05/03 A2983 RMK AO2,M
TPH,2023-10-01 15:28,-117.0904,38.0505,1654.00,45.00,43.00,92.65,180.00,6.00,0.01,29.89,M,10.00,M,FEW,BKN,OVC,M,400.00,2100.00,3000.00,M,-RA,M,M,M,M,M,M,41.19,KTPH 011528Z AUTO 18006KT 10SM -RA FEW004 BKN021 OVC030 07/06 A2989 RMK AO2 RAB09 P0001 T00720061,M
05U,2023-10-01 15:30,-116.0051,39.6042,1811.23,42.80,39.20,86.99,20.00,5.00,0.00,29.87,M,10.00,M,OVC,M,M,M,2600.00,M,M,M,M,M,M,M,M,M,M,39.22,K05U 011530Z AUTO 02005KT 10SM OVC026 06/04 A2987 RMK A01,M
HTH,2023-10-01 15:30,-118.6315,38.5448,1282.89,46.40,42.80,87.19,360.00,8.00,0.00,29.90,M,10.00,M,M,M,M,M,M,M,M,M,M,M,M,M,M,M,M,41.85,KHTH 011530Z AUTO 36008KT 10SM 08/06 A2990 RMK A01,M
BVU,2023-10-01 15:35,-114.8611,35.9475,671.00,60.80,41.00,48.00,200.00,4.00,0.00,29.86,M,10.00,M,CLR,M,M,M,M,M,M,M,M,M,M,M,M,M,M,60.80,KBVU 011535Z AUTO 20004KT 10SM CLR 16/05 A2986 RMK AO2,M
CXP,2023-10-01 15:35,-119.7326,39.1923,1431.00,46.40,41.00,81.34,160.00,4.00,0.00,29.92,M,10.00,M,FEW,OVC,M,M,2700.00,3500.00,M,M,M,M,M,M,M,M,M,44.24,KCXP 011535Z AUTO 16004KT 10SM FEW027 OVC035 08/05 A2992 RMK AO2,M
RTS,2023-10-01 15:35,-119.8764,39.6682,1539.00,42.80,33.80,70.28,340.00,13.00,0.00,29.93,M,10.00,M,OVC,M,M,M,2900.00,M,M,M,M,M,M,M,M,M,M,35.40,KRTS 011535Z AUTO 34013KT 10SM OVC029 06/01 A2993 RMK AO2,M
MEV,2023-10-01 15:35,-119.7500,38.9963,1441.42,46.40,41.00,81.34,350.00,7.00,0.00,29.91,M,10.00,M,OVC,M,M,M,2800.00,M,M,M,M,M,M,M,M,M,M,42.33,KMEV 011535Z AUTO 35007KT 10SM OVC028 08/05 A2991 RMK AO2,M
BAM,2023-10-01 15:35,-116.8743,40.5990,1382.36,48.20,46.40,93.45,260.00,4.00,0.00,29.84,M,7.00,M,OVC,M,M,M,3000.00,M,M,M,M,M,M,M,M,M,M,46.34,KBAM 011535Z AUTO 26004KT 7SM OVC030 09/08 A2984 RMK AO1,M
TMT,2023-10-01 15:35,-117.1971,39.4643,1749.34,43.00,41.00,92.58,210.00,5.00,0.00,29.87,M,10.00,M,OVC,M,M,M,2400.00,M,M,M,M,M,M,M,M,M,M,39.46,KTMT 011535Z AUTO 21005KT 10SM OVC024 06/05 A2987 RMK AO2 T00610051,M
10U,2023-10-01 15:40,-116.1876,41.9532,1637.00,41.00,39.20,93.24,M,4.00,0.00,29.84,M,10.00,M,SCT,SCT,BKN,M,3000.00,4700.00,5500.00,M,M,M,M,M,M,M,M,37.93,K10U 011540Z AUTO VRB04KT 10SM SCT030 SCT047 BKN055 05/04 A2984 RMK AO2,M
05U,2023-10-01 15:50,-116.0051,39.6042,1811.23,42.80,39.20,86.99,20.00,4.00,0.00,29.88,M,10.00,M,OVC,M,M,M,2600.00,M,M,M,M,M,M,M,M,M,M,40.03,K05U 011550Z AUTO 02004KT 10SM OVC026 06/04 A2988 RMK A01,M
TPH,2023-10-01 15:51,-117.0904,38.0505,1654.00,44.60,44.60,100.00,180.00,6.00,0.01,29.90,M,10.00,M,BKN,BKN,OVC,M,500.00,900.00,3200.00,M,-RA,M,M,M,M,M,M,40.71,KTPH 011551Z AUTO 18006KT 10SM -RA BKN005 BKN009 OVC032 07/07 A2990 RMK AO2 RAB09 P0001,M
P68,2023-10-01 15:53,-116.0056,39.6014,1993.00,43.00,40.00,89.06,230.00,4.00,0.00,29.86,1008.10,M,M,M,M,M,M,M,M,M,M,M,M,M,M,M,M,M,40.27,KP68 011553Z AUTO 23004KT 06/04 A2986 RMK AO1 SLP081 T00610044,M
DRA,2023-10-01 15:53,-116.0278,36.6206,1009.00,58.00,44.00,59.54,230.00,12.00,0.00,29.87,1008.80,10.00,M,OVC,M,M,M,10000.00,M,M,M,M,M,M,M,M,M,M,58.00,KDRA 011553Z AUTO 23012KT 10SM OVC100 14/07 A2987 RMK AO2 SLP088 T01440067,M
ELY,2023-10-01 15:53,-114.8453,39.2950,1909.00,46.00,39.00,76.40,170.00,11.00,0.00,29.87,1006.80,10.00,17.00,BKN,OVC,M,M,4300.00,5000.00,M,M,M,M,M,M,M,M,M,40.16,KELY 011553Z AUTO 17011G17KT 10SM BKN043 OVC050 08/04 A2987 RMK AO2 SLP068 T00780039,M
VGT,2023-10-01 15:53,-115.1933,36.2111,667.00,63.00,45.00,51.78,180.00,4.00,0.00,29.85,1011.10,10.00,M,CLR,M,M,M,M,M,M,M,M,M,M,M,M,M,M,63.00,KVGT 011553Z 18004KT 10SM CLR 17/07 A2985 RMK AO2 SLP111 T01720072,M
BVU,2023-10-01 15:55,-114.8611,35.9475,671.00,62.60,41.00,45.04,200.00,3.00,0.00,29.86,M,10.00,M,CLR,M,M,M,M,M,M,M,M,M,M,M,M,M,M,62.60,KBVU 011555Z AUTO 20003KT 10SM CLR 17/05 A2986 RMK AO2,M
CXP,2023-10-01 15:55,-119.7326,39.1923,1431.00,46.40,39.20,75.84,100.00,3.00,0.00,29.93,M,10.00,M,FEW,OVC,M,M,2900.00,3500.00,M,M,M,M,M,M,M,M,M,45.15,KCXP 011555Z AUTO 10003KT 10SM FEW029 OVC035 08/04 A2993 RMK AO2,M
INS,2023-10-01 15:55,-115.6733,36.5872,955.00,58.60,40.60,51.12,0.00,0.00,0.00,29.86,1008.20,10.00,M,CLR,M,M,M,M,M,M,M,M,M,M,M,M,M,M,58.60,KINS 011555Z AUTO 00000KT 10SM CLR 15/05 A2986 RMK AO2 SLP082 T01480048 $,M
RNO,2023-10-01 15:55,-119.7711,39.4839,1341.00,47.00,36.00,65.38,10.00,9.00,0.00,29.92,1011.30,10.00,M,FEW,BKN,OVC,M,2600.00,3500.00,4500.00,M,M,M,M,M,M,M,M,42.17,KRNO 011555Z 01009KT 10SM FEW026 BKN035 OVC045 08/02 A2992 RMK AO2 SLP113 T00830022 $,M
LSV,2023-10-01 15:55,-115.0343,36.2362,570.00,64.80,44.00,46.80,180.00,8.00,0.00,29.83,1008.70,10.00,M,CLR,M,M,M,M,M,M,M,M,M,M,M,M,M,M,64.80,KLSV 011555Z AUTO 18008KT 10SM CLR 18/07 A2983 RMK AO2 SLP087 T01820067 $,M
RTS,2023-10-01 15:55,-119.8764,39.6682,1539.00,42.80,35.60,75.50,350.00,12.00,0.00,29.94,M,10.00,M,BKN,OVC,M,M,2600.00,3100.00,M,M,M,M,M,M,M,M,M,35.75,KRTS 011555Z AUTO 35012KT 10SM BKN026 OVC031 06/02 A2994 RMK AO2,M
MEV,2023-10-01 15:55,-119.7500,38.9963,1441.42,46.40,41.00,81.34,340.00,8.00,0.00,29.91,M,10.00,M,BKN,OVC,M,M,3000.00,3600.00,M,M,M,M,M,M,M,M,M,41.85,KMEV 011555Z AUTO 34008KT 10SM BKN030 OVC036 08/05 A2991 RMK AO2,M
BAM,2023-10-01 15:55,-116.8743,40.5990,1382.36,48.20,44.60,87.28,320.00,12.00,0.00,29.84,M,10.00,M,SCT,SCT,OVC,M,600.00,1100.00,3000.00,M,M,M,M,M,M,M,M,42.62,KBAM 011555Z AUTO 32012KT 10SM SCT006 SCT011 OVC030 09/07 A2984 RMK AO1,M
HTH,2023-10-01 15:55,-118.6315,38.5448,1282.89,46.40,42.80,87.19,350.00,9.00,0.00,29.91,M,8.00,14.00,BKN,BKN,M,M,2600.00,3400.00,M,M,M,M,M,M,M,M,M,41.42,KHTH 011555Z AUTO 35009G14KT 8SM BKN026 BKN034 08/06 A2991 RMK A01,M
TMT,2023-10-01 15:55,-117.1971,39.4643,1749.34,43.00,41.40,94.03,200.00,5.00,0.00,29.88,M,10.00,M,SCT,OVC,M,M,1900.00,2400.00,M,M,M,M,M,M,M,M,M,39.46,KTMT 011555Z AUTO 20005KT 10SM SCT019 OVC024 06/05 A2988 RMK AO2 T00620052,M
EKO,2023-10-01 15:56,-115.7860,40.8242,1367.00,47.00,43.00,85.89,240.00,4.00,0.00,29.82,1008.20,10.00,M,OVC,M,M,M,4900.00,M,M,M,M,M,M,M,M,M,M,44.94,KEKO 011556Z AUTO 24004KT 10SM OVC049 08/06 A2982 RMK AO2 SLP082 T00830061 $,M
WMC,2023-10-01 15:56,-117.8072,40.9019,1315.00,43.00,39.00,85.66,330.00,10.00,0.01,29.87,1010.40,10.00,M,OVC,M,M,M,2500.00,M,M,M,-RA,M,M,M,M,M,M,36.76,KWMC 011556Z AUTO 33010KT 10SM -RA OVC025 06/04 A2987 RMK AO2 SLP104 P0001 T00610039,M
NFL,2023-10-01 15:56,-118.7010,39.4166,1199.00,47.00,43.00,85.89,350.00,10.00,T,29.90,1009.80,8.00,M,BKN,OVC,M,M,3300.00,4200.00,M,M,-RA,M,M,M,M,M,M,41.78,KNFL 011556Z AUTO 35010KT 8SM -RA BKN033 OVC042 08/06 A2990 RMK AO2 RAB29 SLP098 P0000 T00830061,M
HND,2023-10-01 15:56,-115.1344,35.9729,742.79,63.00,42.00,46.16,190.00,11.00,0.00,29.88,1012.00,10.00,M,CLR,M,M,M,M,M,M,M,M,M,M,M,M,M,M,63.00,KHND 011556Z 19011KT 10SM CLR 17/06 A2988 RMK AO2 SLP120 T01720056,M
TPH,2023-10-01 15:56,-117.0904,38.0505,1654.00,45.00,44.00,96.26,180.00,7.00,0.01,29.90,1010.60,10.00,M,SCT,BKN,OVC,M,500.00,900.00,3200.00,M,-RA,M,M,M,M,M,M,40.63,KTPH 011556Z AUTO 18007KT 10SM -RA SCT005 BKN009 OVC032 07/07 A2990 RMK AO2 RAB09 CIG 007V011 SLP106 P0001 T00720067,M
LAS,2023-10-01 15:56,-115.1634,36.0719,663.00,63.00,43.00,47.97,M,6.00,0.00,29.86,1009.70,10.00,M,FEW,FEW,M,M,10000.00,17000.00,M,M,M,M,M,M,M,M,M,63.00,KLAS 011556Z VRB06KT 10SM FEW100 FEW170 17/06 A2986 RMK AO2 SLP097 T01720061,M
10U,2023-10-01 16:00,-116.1876,41.9532,1637.00,42.80,41.00,93.30,340.00,8.00,0.00,29.85,M,10.00,M,SCT,BKN,M,M,2900.00,6000.00,M,M,M,M,M,M,M,M,M,37.42,K10U 011600Z AUTO 34008KT 10SM SCT029 BKN060 06/05 A2985 RMK AO2,M
TPH,2023-10-01 16:04,-117.0904,38.0505,1654.00,46.00,44.00,92.68,180.00,8.00,T,29.90,M,10.00,M,BKN,BKN,OVC,M,500.00,900.00,3000.00,M,-RA,M,M,M,M,M,M,41.36,KTPH 011604Z AUTO 18008KT 10SM -RA BKN005 BKN009 OVC030 08/07 A2990 RMK AO2 P0000 T00780067,M
05U,2023-10-01 16:10,-116.0051,39.6042,1811.23,44.60,39.20,81.20,30.00,3.00,0.00,29.89,M,10.00,M,BKN,OVC,M,M,2900.00,3400.00,M,M,M,M,M,M,M,M,M,43.09,K05U 011610Z AUTO 03003KT 10SM BKN029 OVC034 07/04 A2989 RMK A01,M
BVU,2023-10-01 16:15,-114.8611,35.9475,671.00,62.60,41.00,45.04,M,3.00,0.00,29.86,M,10.00,M,CLR,M,M,M,M,M,M,M,M,M,M,M,M,M,M,62.60,KBVU 011615Z AUTO VRB03KT 10SM CLR 17/05 A2986 RMK AO2,M
CXP,2023-10-01 16:15,-119.7326,39.1923,1431.00,46.40,39.20,75.84,0.00,0.00,0.00,29.93,M,10.00,M,SCT,OVC,M,M,3600.00,4400.00,M,M,M,M,M,M,M,M,M,46.40,KCXP 011615Z AUTO 00000KT 10SM SCT036 OVC044 08/04 A2993 RMK AO2,M
RTS,2023-10-01 16:15,-119.8764,39.6682,1539.00,42.80,33.80,70.28,340.00,12.00,0.00,29.95,M,10.00,M,SCT,OVC,M,M,2600.00,3400.00,M,M,M,M,M,M,M,M,M,35.75,KRTS 011615Z AUTO 34012KT 10SM SCT026 OVC034 06/01 A2995 RMK AO2,M
TPH,2023-10-01 16:15,-117.0904,38.0505,1654.00,46.00,44.00,92.68,180.00,7.00,T,29.90,M,10.00,M,SCT,BKN,OVC,M,500.00,2300.00,3000.00,M,-RA,M,M,M,M,M,M,41.84,KTPH 011615Z AUTO 18007KT 10SM -RA SCT005 BKN023 OVC030 08/07 A2990 RMK AO2 P0000 T00780067,M
MEV,2023-10-01 16:15,-119.7500,38.9963,1441.42,46.40,41.00,81.34,360.00,10.00,0.00,29.92,M,10.00,M,OVC,M,M,M,3500.00,M,M,M,M,M,M,M,M,M,M,41.03,KMEV 011615Z AUTO 36010KT 10SM OVC035 08/05 A2992 RMK AO2,M
BAM,2023-10-01 16:15,-116.8743,40.5990,1382.36,46.40,44.60,93.40,320.00,13.00,0.00,29.85,M,5.00,M,SCT,OVC,M,M,600.00,1200.00,M,M,M,M,M,M,M,M,M,40.02,KBAM 011615Z AUTO 32013KT 5SM SCT006 OVC012 08/07 A2985 RMK AO1,M
HTH,2023-10-01 16:15,-118.6315,38.5448,1282.89,46.40,42.80,87.19,350.00,8.00,0.00,29.92,M,10.00,M,BKN,BKN,BKN,M,2800.00,3400.00,4100.00,M,M,M,M,M,M,M,M,41.85,KHTH 011615Z AUTO 35008KT 10SM BKN028 BKN034 BKN041 08/06 A2992 RMK A01,M
TMT,2023-10-01 16:15,-117.1971,39.4643,1749.34,43.30,41.00,91.52,230.00,8.00,0.00,29.89,M,7.00,M,OVC,M,M,M,2000.00,M,M,M,-DZ,M,M,M,M,M,M,38.03,KTMT 011615Z AUTO 23008KT 7SM -DZ OVC020 06/05 A2989 RMK AO2 T00630051,M
10U,2023-10-01 16:20,-116.1876,41.9532,1637.00,44.60,41.00,87.09,340.00,8.00,0.00,29.85,M,10.00,M,BKN,BKN,OVC,M,2500.00,3000.00,6000.00,M,M,M,M,M,M,M,M,39.63,K10U 011620Z AUTO 34008KT 10SM BKN025 BKN030 OVC060 07/05 A2985 RMK AO2,M
05U,2023-10-01 16:30,-116.0051,39.6042,1811.23,44.60,39.20,81.20,0.00,0.00,0.00,29.89,M,10.00,M,OVC,M,M,M,3100.00,M,M,M,M,M,M,M,M,M,M,44.60,K05U 011630Z AUTO 00000KT 10SM OVC031 07/04 A2989 RMK A01,M
BVU,2023-10-01 16:35,-114.8611,35.9475,671.00,64.40,41.00,42.28,160.00,5.00,0.00,29.86,M,10.00,M,CLR,M,M,M,M,M,M,M,M,M,M,M,M,M,M,64.40,KBVU 011635Z AUTO 16005KT 10SM CLR 18/05 A2986 RMK AO2,M
CXP,2023-10-01 16:35,-119.7326,39.1923,1431.00,48.20,39.20,70.88,0.00,0.00,0.00,29.93,M,10.00,M,SCT,SCT,OVC,M,2600.00,3200.00,4300.00,M,M,M,M,M,M,M,M,48.20,KCXP 011635Z AUTO 00000KT 10SM SCT026 SCT032 OVC043 09/04 A2993 RMK AO2,M
RTS,2023-10-01 16:35,-119.8764,39.6682,1539.00,44.60,33.80,65.61,350.00,12.00,0.00,29.95,M,10.00,M,FEW,OVC,M,M,2800.00,3700.00,M,M,M,M,M,M,M,M,M,38.04,KRTS 011635Z AUTO 35012KT 10SM FEW028 OVC037 07/01 A2995 RMK AO2,M
MEV,2023-10-01 16:35,-119.7500,38.9963,1441.42,46.40,41.00,81.34,350.00,9.00,0.00,29.92,M,10.00,M,OVC,M,M,M,3400.00,M,M,M,M,M,M,M,M,M,M,41.42,KMEV 011635Z AUTO 35009KT 10SM OVC034 08/05 A2992 RMK AO2,M
BAM,2023-10-01 16:35,-116.8743,40.5990,1382.36,44.60,44.60,100.00,320.00,11.00,0.00,29.87,M,5.00,17.00,SCT,OVC,M,M,600.00,1400.00,M,M,M,M,M,M,M,M,M,38.39,KBAM 011635Z AUTO 32011G17KT 5SM SCT006 OVC014 07/07 A2987 RMK AO1,M
HTH,2023-10-01 16:35,-118.6315,38.5448,1282.89,46.40,44.60,93.40,360.00,6.00,0.00,29.93,M,7.00,12.00,FEW,BKN,BKN,M,2800.00,3600.00,4100.00,M,M,M,M,M,M,M,M,42.87,KHTH 011635Z AUTO 36006G12KT 7SM FEW028 BKN036 BKN041 08/07 A2993 RMK A01,M
TMT,2023-10-01 16:35,-117.1971,39.4643,1749.34,41.40,40.00,94.72,250.00,6.00,0.01,29.90,M,2.00,M,BKN,OVC,M,M,1100.00,1800.00,M,M,-RA,M,M,M,M,M,M,36.85,KTMT 011635Z AUTO 25006KT 2SM -RA BKN011 OVC018 05/04 A2990 RMK AO2 P0001 T00520044,M
10U,2023-10-01 16:40,-116.1876,41.9532,1637.00,42.80,39.20,86.99,350.00,7.00,0.00,29.86,M,10.00,M,OVC,M,M,M,2500.00,M,M,M,-RA,M,M,M,M,M,M,37.94,K10U 011640Z AUTO 35007KT 10SM -RA OVC025 06/04 A2986 RMK AO2,M
05U,2023-10-01 16:50,-116.0051,39.6042,1811.23,44.60,39.20,81.20,0.00,0.00,0.00,29.90,M,10.00,M,OVC,M,M,M,3000.00,M,M,M,M,M,M,M,M,M,M,44.60,K05U 011650Z AUTO 00000KT 10SM OVC030 07/04 A2990 RMK A01,M
EKO,2023-10-01 16:52,-115.7860,40.8242,1367.00,48.20,42.80,81.47,210.00,6.00,0.00,29.84,M,10.00,M,BKN,BKN,OVC,M,1300.00,3100.00,5000.00,M,M,M,M,M,M,M,M,45.04,KEKO 011652Z AUTO 21006KT 10SM BKN013 BKN031 OVC050 09/06 A2984 RMK AO2 $,M
P68,2023-10-01 16:53,-116.0056,39.6014,1993.00,44.00,39.00,82.44,0.00,0.00,0.00,29.88,1008.80,M,M,M,M,M,M,M,M,M,M,M,M,M,M,M,M,M,44.00,KP68 011653Z AUTO 00000KT 07/04 A2988 RMK AO1 SLP088 T00670039,M
DRA,2023-10-01 16:53,-116.0278,36.6206,1009.00,60.00,44.00,55.42,220.00,10.00,0.00,29.88,1009.10,10.00,M,CLR,M,M,M,M,M,M,M,M,M,M,M,M,M,M,60.00,KDRA 011653Z AUTO 22010KT 10SM CLR 16/07 A2988 RMK AO2 SLP091 T01560067 $,M
ELY,2023-10-01 16:53,-114.8453,39.2950,1909.00,47.00,38.00,70.74,150.00,15.00,T,29.89,1007.70,10.00,22.00,BKN,BKN,M,M,3500.00,4900.00,M,M,M,M,M,M,M,M,M,40.23,KELY 011653Z AUTO 15015G22KT 10SM BKN035 BKN049 08/03 A2989 RMK AO2 RAB13E23 SLP077 P0000 T00830033,M
VGT,2023-10-01 16:53,-115.1933,36.2111,667.00,66.00,43.00,43.20,M,M,0.00,29.86,1011.30,10.00,M,CLR,M,M,M,M,M,M,M,M,M,M,M,M,M,M,66.00,KVGT 011653Z 10SM CLR 19/06 A2986 RMK AO2 SLP113 T01890061,M
BVU,2023-10-01 16:55,-114.8611,35.9475,671.00,66.20,41.00,39.72,180.00,5.00,0.00,29.87,M,10.00,M,CLR,M,M,M,M,M,M,M,M,M,M,M,M,M,M,66.20,KBVU 011655Z AUTO 18005KT 10SM CLR 19/05 A2987 RMK AO2,M
CXP,2023-10-01 16:55,-119.7326,39.1923,1431.00,48.20,39.20,70.88,330.00,10.00,0.00,29.94,M,10.00,M,SCT,BKN,OVC,M,2200.00,2700.00,4000.00,M,M,M,M,M,M,M,M,43.28,KCXP 011655Z AUTO 33010KT 10SM SCT022 BKN027 OVC040 09/04 A2994 RMK AO2,M
INS,2023-10-01 16:55,-115.6733,36.5872,955.00,61.30,38.70,43.12,90.00,3.00,0.00,29.87,1008.80,10.00,M,CLR,M,M,M,M,M,M,M,M,M,M,M,M,M,M,61.30,KINS 011655Z AUTO 09003KT 10SM CLR 16/04 A2987 RMK AO2 SLP088 T01630037 $,M
RNO,2023-10-01 16:55,-119.7711,39.4839,1341.00,49.00,36.00,60.66,20.00,9.00,0.00,29.93,1011.40,10.00,M,FEW,BKN,BKN,M,2500.00,3600.00,5000.00,M,M,M,M,M,M,M,M,44.65,KRNO 011655Z 02009KT 10SM FEW025 BKN036 BKN050 09/02 A2993 RMK AO2 SLP114 T00940022 $,M
RTS,2023-10-01 16:55,-119.8764,39.6682,1539.00,44.60,33.80,65.61,350.00,12.00,0.00,29.95,M,10.00,M,BKN,OVC,M,M,2800.00,3800.00,M,M,M,M,M,M,M,M,M,38.04,KRTS 011655Z AUTO 35012KT 10SM BKN028 OVC038 07/01 A2995 RMK AO2,M
MEV,2023-10-01 16:55,-119.7500,38.9963,1441.42,46.40,41.00,81.34,360.00,9.00,0.00,29.92,M,10.00,M,OVC,M,M,M,3200.00,M,M,M,M,M,M,M,M,M,M,41.42,KMEV 011655Z AUTO 36009KT 10SM OVC032 08/05 A2992 RMK AO2,M
BAM,2023-10-01 16:55,-116.8743,40.5990,1382.36,44.60,44.60,100.00,320.00,11.00,0.00,29.88,M,5.00,M,SCT,OVC,M,M,600.00,1400.00,M,M,M,M,M,M,M,M,M,38.39,KBAM 011655Z AUTO 32011KT 5SM SCT006 OVC014 07/07 A2988 RMK AO1,M
HTH,2023-10-01 16:55,-118.6315,38.5448,1282.89,48.20,42.80,81.47,10.00,7.00,0.01,29.94,M,9.00,13.00,BKN,BKN,BKN,M,2800.00,3700.00,4500.00,M,M,M,M,M,M,M,M,44.53,KHTH 011655Z AUTO 01007G13KT 9SM BKN028 BKN037 BKN045 09/06 A2994 RMK A01 P0001,M
TMT,2023-10-01 16:55,-117.1971,39.4643,1749.34,41.00,39.40,93.97,0.00,0.00,0.01,29.90,M,3.00,M,SCT,OVC,M,M,1100.00,1800.00,M,M,-RA,M,M,M,M,M,M,41.00,KTMT 011655Z AUTO 00000KT 3SM -RA SCT011 OVC018 05/04 A2990 RMK AO2 P0001 T00510041,M
LSV,2023-10-01 16:55,-115.0343,36.2362,570.00,68.00,44.20,42.20,190.00,5.00,0.00,29.83,1008.60,10.00,M,CLR,M,M,M,M,M,M,M,M,M,M,M,M,M,M,68.00,KLSV 011655Z AUTO 19005KT 10SM CLR 20/07 A2983 RMK AO2 SLP086 T02010068 $,M
EKO,2023-10-01 16:56,-115.7860,40.8242,1367.00,49.00,43.00,79.68,210.00,7.00,0.00,29.84,1008.80,10.00,M,BKN,BKN,OVC,M,1300.00,3100.00,5000.00,M,M,M,M,M,M,M,M,45.50,KEKO 011656Z AUTO 21007KT 10SM BKN013 BKN031 OVC050 09/06 A2984 RMK AO2 SLP088 T00940061 $,M
WMC,2023-10-01 16:56,-117.8072,40.9019,1315.00,44.00,39.00,82.44,340.00,12.00,T,29.89,1011.00,10.00,M,OVC,M,M,M,2600.00,M,M,M,M,M,M,M,M,M,M,37.27,KWMC 011656Z AUTO 34012KT 10SM OVC026 07/04 A2989 RMK AO2 RAE07 SLP110 P0000 T00670039,M
NFL,2023-10-01 16:56,-118.7010,39.4166,1199.00,47.00,43.00,85.89,350.00,8.00,0.01,29.92,1010.40,10.00,M,OVC,M,M,M,3000.00,M,M,M,M,M,M,M,M,M,M,42.59,KNFL 011656Z AUTO 35008KT 10SM OVC030 08/06 A2992 RMK AO2 RAE42 SLP104 P0001 T00830061,M
HND,2023-10-01 16:56,-115.1344,35.9729,742.79,65.00,40.00,39.83,220.00,11.00,0.00,29.89,1012.30,10.00,M,CLR,M,M,M,M,M,M,M,M,M,M,M,M,M,M,65.00,KHND 011656Z 22011KT 10SM CLR 18/04 A2989 RMK AO2 SLP123 T01830044,M
TPH,2023-10-01 16:56,-117.0904,38.0505,1654.00,46.00,44.00,92.68,200.00,7.00,0.01,29.91,1011.10,10.00,M,FEW,OVC,M,M,600.00,2500.00,M,M,-RA,M,M,M,M,M,M,41.84,KTPH 011656Z AUTO 20007KT 10SM -RA FEW006 OVC025 08/07 A2991 RMK AO2 SLP111 P0001 T00780067,M
LAS,2023-10-01 16:56,-115.1634,36.0719,663.00,65.00,41.00,41.41,M,4.00,0.00,29.86,1009.70,10.00,M,FEW,FEW,M,M,10000.00,22000.00,M,M,M,M,M,M,M,M,M,65.00,KLAS 011656Z VRB04KT 10SM FEW100 FEW220 18/05 A2986 RMK AO2 SLP097 T01830050,M
10U,2023-10-01 17:00,-116.1876,41.9532,1637.00,42.80,39.20,86.99,330.00,7.00,0.00,29.87,M,10.00,M,BKN,OVC,M,M,2000.00,2500.00,M,M,M,M,M,M,M,M,M,37.94,K10U 011700Z AUTO 33007KT 10SM BKN020 OVC025 06/04 A2987 RMK AO2,M
EKO,2023-10-01 17:08,-115.7860,40.8242,1367.00,49.00,43.00,79.68,230.00,7.00,0.00,29.85,M,10.00,M,SCT,BKN,OVC,M,1300.00,3100.00,5500.00,M,M,M,M,M,M,M,M,45.50,KEKO 011708Z AUTO 23007KT 10SM SCT013 BKN031 OVC055 09/06 A2985 RMK AO2 T00940061 $,M
05U,2023-10-01 17:10,-116.0051,39.6042,1811.23,44.60,39.20,81.20,0.00,0.00,0.00,29.91,M,9.00,M,BKN,OVC,M,M,2700.00,3600.00,M,M,M,M,M,M,M,M,M,44.60,K05U 011710Z AUTO 00000KT 9SM BKN027 OVC036 07/04 A2991 RMK A01,M
NFL,2023-10-01 17:11,-118.7010,39.4166,1199.00,47.00,43.00,85.89,360.00,9.00,0.00,29.92,M,7.00,M,OVC,M,M,M,2900.00,M,M,M,M,M,M,M,M,M,M,42.17,KNFL 011711Z AUTO 36009KT 7SM OVC029 08/06 A2992 RMK AO2 T00830061,M
BVU,2023-10-01 17:15,-114.8611,35.9475,671.00,66.20,39.20,37.03,200.00,6.00,0.00,29.87,M,10.00,M,CLR,M,M,M,M,M,M,M,M,M,M,M,M,M,M,66.20,KBVU 011715Z AUTO 20006KT 10SM CLR 19/04 A2987 RMK AO2,M
CXP,2023-10-01 17:15,-119.7326,39.1923,1431.00,50.00,39.20,66.27,M,5.00,0.00,29.94,M,10.00,14.00,FEW,BKN,OVC,M,2100.00,2900.00,4200.00,M,M,M,M,M,M,M,M,50.00,KCXP 011715Z AUTO VRB05G14KT 10SM FEW021 BKN029 OVC042 10/04 A2994 RMK AO2,M
RTS,2023-10-01 17:15,-119.8764,39.6682,1539.00,46.40,33.80,61.28,340.00,12.00,0.00,29.96,M,10.00,M,OVC,M,M,M,2900.00,M,M,M,M,M,M,M,M,M,M,40.33,KRTS 011715Z AUTO 34012KT 10SM OVC029 08/01 A2996 RMK AO2,M
MEV,2023-10-01 17:15,-119.7500,38.9963,1441.42,48.20,39.20,70.88,340.00,10.00,0.00,29.93,M,10.00,M,OVC,M,M,M,3200.00,M,M,M,M,M,M,M,M,M,M,43.28,KMEV 011715Z AUTO 34010KT 10SM OVC032 09/04 A2993 RMK AO2,M
BAM,2023-10-01 17:15,-116.8743,40.5990,1382.36,46.40,44.60,93.40,320.00,11.00,0.00,29.89,M,10.00,M,OVC,M,M,M,1600.00,M,M,M,M,M,M,M,M,M,M,40.66,KBAM 011715Z AUTO 32011KT 10SM OVC016 08/07 A2989 RMK AO1,M
HTH,2023-10-01 17:15,-118.6315,38.5448,1282.89,48.20,42.80,81.47,360.00,7.00,0.00,29.94,M,8.00,M,BKN,BKN,BKN,M,2600.00,3100.00,4100.00,M,M,M,M,M,M,M,M,44.53,KHTH 011715Z AUTO 36007KT 8SM BKN026 BKN031 BKN041 09/06 A2994 RMK A01,M
TMT,2023-10-01 17:15,-117.1971,39.4643,1749.34,41.40,39.60,93.26,0.00,0.00,0.00,29.91,M,7.00,M,SCT,OVC,M,M,2000.00,2600.00,M,M,M,M,M,M,M,M,M,41.40,KTMT 011715Z AUTO 00000KT 7SM SCT020 OVC026 05/04 A2991 RMK AO2 T00520042,M
10U,2023-10-01 17:20,-116.1876,41.9532,1637.00,42.80,41.00,93.30,340.00,7.00,0.00,29.87,M,10.00,M,FEW,OVC,M,M,1000.00,1900.00,M,M,M,M,M,M,M,M,M,37.94,K10U 011720Z AUTO 34007KT 10SM FEW010 OVC019 06/05 A2987 RMK AO2,M
WMC,2023-10-01 17:29,-117.8072,40.9019,1315.00,45.00,40.00,82.51,340.00,11.00,0.00,29.90,M,10.00,M,BKN,OVC,M,M,3000.00,3400.00,M,M,M,M,M,M,M,M,M,38.89,KWMC 011729Z AUTO 34011KT 10SM BKN030 OVC034 07/04 A2990 RMK AO2 T00720044,M
05U,2023-10-01 17:30,-116.0051,39.6042,1811.23,46.40,39.20,75.84,0.00,0.00,0.00,29.91,M,10.00,M,FEW,OVC,M,M,2800.00,3700.00,M,M,M,M,M,M,M,M,M,46.40,K05U 011730Z AUTO 00000KT 10SM FEW028 OVC037 08/04 A2991 RMK A01,M
BVU,2023-10-01 17:35,-114.8611,35.9475,671.00,68.00,39.20,34.80,220.00,5.00,0.00,29.87,M,10.00,M,CLR,M,M,M,M,M,M,M,M,M,M,M,M,M,M,68.00,KBVU 011735Z AUTO 22005KT 10SM CLR 20/04 A2987 RMK AO2,M
CXP,2023-10-01 17:35,-119.7326,39.1923,1431.00,48.20,39.20,70.88,M,5.00,0.00,29.95,M,10.00,M,OVC,M,M,M,2700.00,M,M,M,M,M,M,M,M,M,M,45.63,KCXP 011735Z AUTO VRB05KT 10SM OVC027 09/04 A2995 RMK AO2,M
RTS,2023-10-01 17:35,-119.8764,39.6682,1539.00,46.40,33.80,61.28,350.00,15.00,0.00,29.96,M,10.00,M,OVC,M,M,M,3000.00,M,M,M,M,M,M,M,M,M,M,39.45,KRTS 011735Z AUTO 35015KT 10SM OVC030 08/01 A2996 RMK AO2,M
MEV,2023-10-01 17:35,-119.7500,38.9963,1441.42,48.20,39.20,70.88,350.00,10.00,0.00,29.94,M,10.00,M,OVC,M,M,M,3200.00,M,M,M,M,M,M,M,M,M,M,43.28,KMEV 011735Z AUTO 35010KT 10SM OVC032 09/04 A2994 RMK AO2,M
BAM,2023-10-01 17:35,-116.8743,40.5990,1382.36,46.40,44.60,93.40,320.00,10.00,0.00,29.89,M,5.00,M,SCT,OVC,M,M,600.00,2000.00,M,M,M,M,M,M,M,M,M,41.03,KBAM 011735Z AUTO 32010KT 5SM SCT006 OVC020 08/07 A2989 RMK AO1,M
HTH,2023-10-01 17:35,-118.6315,38.5448,1282.89,48.20,42.80,81.47,360.00,8.00,0.00,29.94,M,10.00,M,SCT,SCT,BKN,M,2600.00,3100.00,4200.00,M,M,M,M,M,M,M,M,44.07,KHTH 011735Z AUTO 36008KT 10SM SCT026 SCT031 BKN042 09/06 A2994 RMK A01,M
TMT,2023-10-01 17:35,-117.1971,39.4643,1749.34,42.00,40.00,92.55,0.00,0.00,0.00,29.92,M,10.00,M,OVC,M,M,M,2900.00,M,M,M,M,M,M,M,M,M,M,42.00,KTMT 011735Z AUTO 00000KT 10SM OVC029 06/04 A2992 RMK AO2 T00560044,M
10U,2023-10-01 17:40,-116.1876,41.9532,1637.00,42.80,39.20,86.99,330.00,6.00,0.00,29.88,M,10.00,M,SCT,OVC,M,M,1200.00,2000.00,M,M,-RA,M,M,M,M,M,M,38.54,K10U 011740Z AUTO 33006KT 10SM -RA SCT012 OVC020 06/04 A2988 RMK AO2,M
05U,2023-10-01 17:50,-116.0051,39.6042,1811.23,46.40,39.20,75.84,0.00,0.00,0.00,29.91,M,10.00,M,BKN,OVC,M,M,3700.00,4200.00,M,M,M,M,M,M,M,M,M,46.40,K05U 011750Z AUTO 00000KT 10SM BKN037 OVC042 08/04 A2991 RMK A01,M
P68,2023-10-01 17:53,-116.0056,39.6014,1993.00,46.00,39.00,76.40,0.00,0.00,0.00,29.89,1008.90,M,M,M,M,M,M,M,M,M,M,M,M,M,M,M,M,M,46.00,KP68 011753Z AUTO 00000KT 08/04 A2989 RMK AO1 SLP089 T00780039 10078 20044 51015,M
DRA,2023-10-01 17:53,-116.0278,36.6206,1009.00,63.00,44.00,49.84,230.00,10.00,0.00,29.89,1009.20,10.00,14.00,FEW,M,M,M,3500.00,M,M,M,M,M,M,M,M,M,M,63.00,KDRA 011753Z AUTO 23010G14KT 10SM FEW035 17/07 A2989 RMK AO2 SLP092 T01720067 10172 20117 51011 $,M
ELY,2023-10-01 17:53,-114.8453,39.2950,1909.00,50.00,37.00,60.79,140.00,14.00,0.00,29.90,1007.90,10.00,M,SCT,BKN,M,M,3900.00,5000.00,M,M,M,M,M,M,M,M,M,50.00,KELY 011753Z AUTO 14014KT 10SM SCT039 BKN050 10/03 A2990 RMK AO2 SLP079 60000 T01000028 10100 20039 51015,M
VGT,2023-10-01 17:53,-115.1933,36.2111,667.00,68.00,41.00,37.32,140.00,8.00,0.00,29.86,1011.40,10.00,M,CLR,M,M,M,M,M,M,M,M,M,M,M,M,M,M,68.00,KVGT 011753Z 14008KT 10SM CLR 20/05 A2986 RMK AO2 SLP114 T02000050 10200 20144 51009,M
BVU,2023-10-01 17:55,-114.8611,35.9475,671.00,68.00,37.40,32.43,M,4.00,0.00,29.87,M,10.00,M,CLR,M,M,M,M,M,M,M,M,M,M,M,M,M,M,68.00,KBVU 011755Z AUTO VRB04KT 10SM CLR 20/03 A2987 RMK AO2,M
CXP,2023-10-01 17:55,-119.7326,39.1923,1431.00,50.00,37.40,61.76,330.00,8.00,0.00,29.95,M,10.00,M,BKN,OVC,M,M,2900.00,3400.00,M,M,M,M,M,M,M,M,M,50.00,KCXP 011755Z AUTO 33008KT 10SM BKN029 OVC034 10/03 A2995 RMK AO2,M
INS,2023-10-01 17:55,-115.6733,36.5872,955.00,63.70,37.60,37.95,0.00,0.00,0.00,29.87,1008.60,10.00,M,CLR,M,M,M,M,M,M,M,M,M,M,M,M,M,M,63.70,KINS 011755Z AUTO 00000KT 10SM CLR 18/03 A2987 RMK AO2 SLP086 T01760031 10176 20108 51008 $,M
RNO,2023-10-01 17:55,-119.7711,39.4839,1341.00,50.00,36.00,58.44,30.00,7.00,0.00,29.95,1012.00,10.00,M,FEW,BKN,OVC,M,2600.00,3700.00,5000.00,M,M,M,M,M,M,M,M,50.00,KRNO 011755Z 03007KT 10SM FEW026 BKN037 OVC050 10/02 A2995 RMK AO2 SLP120 T01000022 10100 20083 51012 $,M
LSV,2023-10-01 17:55,-115.0343,36.2362,570.00,72.50,42.40,33.79,180.00,3.00,0.00,29.84,1008.90,10.00,M,CLR,M,M,M,M,M,M,M,M,M,M,M,M,M,M,72.50,KLSV 011755Z AUTO 18003KT 10SM CLR 23/06 A2984 RMK AO2 SLP089 T02250058 10225 20148 51009 $,M
RTS,2023-10-01 17:55,-119.8764,39.6682,1539.00,44.60,33.80,65.61,360.00,15.00,0.00,29.96,M,10.00,M,OVC,M,M,M,2900.00,M,M,M,M,M,M,M,M,M,M,37.11,KRTS 011755Z AUTO 36015KT 10SM OVC029 07/01 A2996 RMK AO2,M
MEV,2023-10-01 17:55,-119.7500,38.9963,1441.42,48.20,39.20,70.88,330.00,9.00,0.00,29.94,M,10.00,M,OVC,M,M,M,3200.00,M,M,M,M,M,M,M,M,M,M,43.66,KMEV 011755Z AUTO 33009KT 10SM OVC032 09/04 A2994 RMK AO2,M
BAM,2023-10-01 17:55,-116.8743,40.5990,1382.36,46.40,44.60,93.40,330.00,9.00,0.00,29.89,M,7.00,M,BKN,OVC,M,M,600.00,2200.00,M,M,M,M,M,M,M,M,M,41.42,KBAM 011755Z AUTO 33009KT 7SM BKN006 OVC022 08/07 A2989 RMK AO1,M
HTH,2023-10-01 17:55,-118.6315,38.5448,1282.89,48.20,42.80,81.47,330.00,4.00,0.00,29.95,M,9.00,M,BKN,BKN,OVC,M,2800.00,3600.00,4300.00,M,M,M,M,M,M,M,M,46.34,KHTH 011755Z AUTO 33004KT 9SM BKN028 BKN036 OVC043 09/06 A2995 RMK A01,M
TMT,2023-10-01 17:55,-117.1971,39.4643,1749.34,43.50,40.30,88.39,0.00,0.00,0.00,29.92,M,10.00,M,BKN,OVC,M,M,3300.00,3900.00,M,M,M,M,M,M,M,M,M,43.50,KTMT 011755Z AUTO 00000KT 10SM BKN033 OVC039 06/05 A2992 RMK AO2 60002 T00640046 10064 20048,M
EKO,2023-10-01 17:56,-115.7860,40.8242,1367.00,51.00,44.00,76.85,200.00,7.00,T,29.86,1009.10,10.00,M,BKN,OVC,M,M,4500.00,5500.00,M,M,-RA,M,M,M,M,M,M,51.00,KEKO 011756Z AUTO 20007KT 10SM -RA BKN045 OVC055 11/07 A2986 RMK AO2 RAB19E28B54 SLP091 P0000 60000 T01060067 10106 20061 51010 $,M
WMC,2023-10-01 17:56,-117.8072,40.9019,1315.00,46.00,40.00,79.44,330.00,10.00,0.00,29.91,1011.50,10.00,18.00,OVC,M,M,M,3300.00,M,M,M,M,M,M,M,M,M,M,40.52,KWMC 011756Z AUTO 33010G18KT 10SM OVC033 08/04 A2991 RMK AO2 SLP115 60013 T00780044 10078 20056 51016,M
HND,2023-10-01 17:56,-115.1344,35.9729,742.79,67.00,39.00,35.74,190.00,5.00,0.00,29.89,1012.30,10.00,M,CLR,M,M,M,M,M,M,M,M,M,M,M,M,M,M,67.00,KHND 011756Z 19005KT 10SM CLR 19/04 A2989 RMK AO2 SLP123 T01940039 10200 20128 51009,M
TPH,2023-10-01 17:56,-117.0904,38.0505,1654.00,46.00,42.00,85.83,210.00,9.00,0.06,29.92,1011.40,2.50,M,FEW,BKN,OVC,M,1300.00,2100.00,3200.00,M,+RA BR,M,M,M,M,M,M,40.92,KTPH 011756Z AUTO 21009KT 2 1/2SM +RA BR FEW013 BKN021 OVC032 08/06 A2992 RMK AO2 VIS 1 3/4V4 SLP114 P0006 60019 T00780056 10083 20061 53007,M
LAS,2023-10-01 17:56,-115.1634,36.0719,663.00,68.00,37.00,31.92,190.00,6.00,0.00,29.86,1009.70,10.00,16.00,FEW,FEW,M,M,10000.00,22000.00,M,M,M,M,M,M,M,M,M,68.00,KLAS 011756Z 19006G16KT 10SM FEW100 FEW220 20/03 A2986 RMK AO2 SLP097 T02000028 10200 20144 51008,M
NFL,2023-10-01 17:56,-118.7010,39.4166,1199.00,47.00,43.00,85.89,10.00,7.00,T,29.93,1010.90,10.00,M,OVC,M,M,M,3200.00,M,M,M,M,M,M,M,M,M,M,43.06,KNFL 011756Z AUTO 01007KT 10SM OVC032 08/06 A2993 RMK AO2 RAB13E23 SLP109 P0000 60009 T00830061 10083 20078 53015,M
NFL,2023-10-01 17:59,-118.7010,39.4166,1199.00,47.00,43.00,85.89,10.00,6.00,0.00,29.93,M,10.00,M,SCT,BKN,OVC,M,1500.00,3200.00,4500.00,M,M,M,M,M,M,M,M,43.60,KNFL 011759Z 01006KT 10SM SCT015 BKN032 OVC045 08/06 A2993 RMK AO2 T00830061,M
10U,2023-10-01 18:00,-116.1876,41.9532,1637.00,42.80,41.00,93.30,310.00,6.00,0.00,29.88,M,10.00,M,SCT,BKN,OVC,M,900.00,1300.00,2100.00,M,-DZ,M,M,M,M,M,M,38.54,K10U 011800Z AUTO 31006KT 10SM -DZ SCT009 BKN013 OVC021 06/05 A2988 RMK AO2,M
TPH,2023-10-01 18:08,-117.0904,38.0505,1654.00,45.00,41.00,85.77,280.00,11.00,0.08,29.93,M,1.25,14.00,FEW,BKN,OVC,M,1200.00,2000.00,3300.00,M,+RA BR,M,M,M,M,M,M,38.89,KTPH 011808Z AUTO 28011G14KT 1 1/4SM +RA BR FEW012 BKN020 OVC033 07/05 A2993 RMK AO2 P0008 T00720050,M
05U,2023-10-01 18:10,-116.0051,39.6042,1811.23,48.20,39.20,70.88,0.00,0.00,0.00,29.92,M,10.00,M,BKN,OVC,M,M,3300.00,4100.00,M,M,M,M,M,M,M,M,M,48.20,K05U 011810Z AUTO 00000KT 10SM BKN033 OVC041 09/04 A2992 RMK A01,M
TPH,2023-10-01 18:14,-117.0904,38.0505,1654.00,45.00,41.00,85.77,290.00,9.00,0.09,29.93,M,3.00,M,FEW,BKN,OVC,M,1500.00,3000.00,3600.00,M,-RA BR,M,M,M,M,M,M,39.68,KTPH 011814Z AUTO 29009KT 3SM -RA BR FEW015 BKN030 OVC036 07/05 A2993 RMK AO2 P0009 T00720050,M
BVU,2023-10-01 18:15,-114.8611,35.9475,671.00,68.00,37.40,32.43,0.00,0.00,0.00,29.86,M,10.00,M,CLR,M,M,M,M,M,M,M,M,M,M,M,M,M,M,68.00,KBVU 011815Z AUTO 00000KT 10SM CLR 20/03 A2986 RMK AO2,M
CXP,2023-10-01 18:15,-119.7326,39.1923,1431.00,50.00,37.40,61.76,330.00,9.00,0.00,29.95,M,10.00,M,OVC,M,M,M,3200.00,M,M,M,M,M,M,M,M,M,M,50.00,KCXP 011815Z AUTO 33009KT 10SM OVC032 10/03 A2995 RMK AO2,M
RTS,2023-10-01 18:15,-119.8764,39.6682,1539.00,46.40,33.80,61.28,340.00,13.00,0.00,29.97,M,10.00,M,BKN,OVC,M,M,3000.00,3800.00,M,M,M,M,M,M,M,M,M,40.02,KRTS 011815Z AUTO 34013KT 10SM BKN030 OVC038 08/01 A2997 RMK AO2,M
MEV,2023-10-01 18:15,-119.7500,38.9963,1441.42,48.20,39.20,70.88,360.00,9.00,0.00,29.94,M,10.00,M,BKN,OVC,M,M,3400.00,3900.00,M,M,M,M,M,M,M,M,M,43.66,KMEV 011815Z AUTO 36009KT 10SM BKN034 OVC039 09/04 A2994 RMK AO2,M
BAM,2023-10-01 18:15,-116.8743,40.5990,1382.36,46.40,42.80,87.19,330.00,11.00,0.00,29.90,M,10.00,M,SCT,SCT,OVC,M,800.00,1900.00,2400.00,M,M,M,M,M,M,M,M,40.66,KBAM 011815Z AUTO 33011KT 10SM SCT008 SCT019 OVC024 08/06 A2990 RMK AO1,M
HTH,2023-10-01 18:15,-118.6315,38.5448,1282.89,48.20,42.80,81.47,290.00,4.00,0.00,29.95,M,7.00,M,BKN,OVC,M,M,3000.00,3500.00,M,M,M,M,M,M,M,M,M,46.34,KHTH 011815Z AUTO 29004KT 7SM BKN030 OVC035 09/06 A2995 RMK A01,M
TMT,2023-10-01 18:15,-117.1971,39.4643,1749.34,44.60,41.00,87.09,220.00,3.00,0.00,29.92,M,10.00,M,SCT,OVC,M,M,1400.00,3500.00,M,M,M,M,M,M,M,M,M,43.09,KTMT 011815Z AUTO 22003KT 10SM SCT014 OVC035 07/05 A2992 RMK AO2 T00700049,M
10U,2023-10-01 18:20,-116.1876,41.9532,1637.00,42.80,39.20,86.99,310.00,7.00,0.00,29.89,M,10.00,M,FEW,SCT,OVC,M,800.00,1300.00,2100.00,M,M,M,M,M,M,M,M,37.94,K10U 011820Z AUTO 31007KT 10SM FEW008 SCT013 OVC021 06/04 A2989 RMK AO2,M
EKO,2023-10-01 18:27,-115.7860,40.8242,1367.00,50.00,43.00,76.76,200.00,5.00,T,29.86,M,10.00,M,BKN,BKN,OVC,M,2900.00,3500.00,4700.00,M,M,M,M,M,M,M,M,50.00,KEKO 011827Z AUTO 20005KT 10SM BKN029 BKN035 OVC047 10/06 A2986 RMK AO2 RAE25 P0000 T01000061 $,M
05U,2023-10-01 18:30,-116.0051,39.6042,1811.23,48.20,39.20,70.88,0.00,0.00,0.00,29.92,M,10.00,M,BKN,OVC,M,M,3500.00,4000.00,M,M,M,M,M,M,M,M,M,48.20,K05U 011830Z AUTO 00000KT 10SM BKN035 OVC040 09/04 A2992 RMK A01,M
BVU,2023-10-01 18:35,-114.8611,35.9475,671.00,68.00,39.20,34.80,0.00,0.00,0.00,29.86,M,10.00,M,FEW,M,M,M,6500.00,M,M,M,M,M,M,M,M,M,M,68.00,KBVU 011835Z AUTO 00000KT 10SM FEW065 20/04 A2986 RMK AO2,M
CXP,2023-10-01 18:35,-119.7326,39.1923,1431.00,50.00,39.20,66.27,340.00,7.00,0.00,29.96,M,10.00,M,OVC,M,M,M,3100.00,M,M,M,M,M,M,M,M,M,M,50.00,KCXP 011835Z AUTO 34007KT 300V360 10SM OVC031 10/04 A2996 RMK AO2,M
RTS,2023-10-01 18:35,-119.8764,39.6682,1539.00,46.40,33.80,61.28,340.00,14.00,0.00,29.98,M,10.00,M,BKN,OVC,M,M,3200.00,3800.00,M,M,M,M,M,M,M,M,M,39.72,KRTS 011835Z AUTO 34014KT 10SM BKN032 OVC038 08/01 A2998 RMK AO2,M
MEV,2023-10-01 18:35,-119.7500,38.9963,1441.42,50.00,39.20,66.27,360.00,6.00,0.00,29.94,M,10.00,M,OVC,M,M,M,4000.00,M,M,M,M,M,M,M,M,M,M,50.00,KMEV 011835Z AUTO 36006KT 10SM OVC040 10/04 A2994 RMK AO2,M
BAM,2023-10-01 18:35,-116.8743,40.5990,1382.36,46.40,42.80,87.19,340.00,9.00,0.00,29.91,M,7.00,M,OVC,M,M,M,2400.00,M,M,M,M,M,M,M,M,M,M,41.42,KBAM 011835Z AUTO 34009KT 7SM OVC024 08/06 A2991 RMK AO1,M
HTH,2023-10-01 18:35,-118.6315,38.5448,1282.89,48.20,44.60,87.28,320.00,8.00,0.00,29.95,M,5.00,M,FEW,SCT,BKN,M,1700.00,2500.00,3300.00,M,HZ,M,M,M,M,M,M,44.07,KHTH 011835Z AUTO 32008KT 5SM HZ FEW017 SCT025 BKN033 09/07 A2995 RMK A01,M
TMT,2023-10-01 18:35,-117.1971,39.4643,1749.34,45.00,41.00,85.77,0.00,0.00,0.00,29.93,M,10.00,M,SCT,SCT,OVC,M,1400.00,2600.00,3200.00,M,M,M,M,M,M,M,M,45.00,KTMT 011835Z AUTO 00000KT 10SM SCT014 SCT026 OVC032 07/05 A2993 RMK AO2 T00720050,M
10U,2023-10-01 18:40,-116.1876,41.9532,1637.00,42.80,39.20,86.99,300.00,6.00,0.00,29.89,M,10.00,M,SCT,OVC,M,M,1100.00,2000.00,M,M,M,M,M,M,M,M,M,38.54,K10U 011840Z AUTO 30006KT 10SM SCT011 OVC020 06/04 A2989 RMK AO2,M
05U,2023-10-01 18:50,-116.0051,39.6042,1811.23,48.20,39.20,70.88,0.00,0.00,0.00,29.92,M,10.00,M,BKN,OVC,M,M,3700.00,4300.00,M,M,M,M,M,M,M,M,M,48.20,K05U 011850Z AUTO 00000KT 10SM BKN037 OVC043 09/04 A2992 RMK A01,M
P68,2023-10-01 18:53,-116.0056,39.6014,1993.00,48.00,40.00,73.67,70.00,4.00,0.00,29.89,1008.80,M,M,M,M,M,M,M,M,M,M,M,M,M,M,M,M,M,46.10,KP68 011853Z AUTO 07004KT 09/04 A2989 RMK AO1 SLP088 T00890044,M
DRA,2023-10-01 18:53,-116.0278,36.6206,1009.00,64.00,42.00,44.57,230.00,7.00,0.00,29.88,1009.00,10.00,M,CLR,M,M,M,M,M,M,M,M,M,M,M,M,M,M,64.00,KDRA 011853Z AUTO 23007KT 10SM CLR 18/06 A2988 RMK AO2 SLP090 T01780056 $,M
ELY,2023-10-01 18:53,-114.8453,39.2950,1909.00,53.00,35.00,50.27,130.00,13.00,0.00,29.91,1007.90,10.00,22.00,SCT,BKN,OVC,M,3700.00,4600.00,8000.00,M,M,M,M,M,M,M,M,53.00,KELY 011853Z AUTO 13013G22KT 10SM SCT037 BKN046 OVC080 12/02 A2991 RMK AO2 SLP079 T01170017,M
VGT,2023-10-01 18:53,-115.1933,36.2111,667.00,71.00,39.00,31.16,M,M,0.00,29.85,1011.00,10.00,M,CLR,M,M,M,M,M,M,M,M,M,M,M,M,M,M,71.00,KVGT 011853Z 10SM CLR 22/04 A2985 RMK AO2 SLP110 T02170039,M
LOL,2023-10-01 18:53,-118.5701,40.0684,1192.43,49.00,41.00,73.77,330.00,7.00,0.00,29.93,1012.40,10.00,M,OVC,M,M,M,3000.00,M,M,M,M,M,M,M,M,M,M,45.50,KLOL 011853Z AUTO 33007KT 10SM OVC030 09/05 A2993 RMK AO2 RAB1702B17E29 SLP124 T00940050 $,M
RTS,2023-10-01 18:55,-119.8764,39.6682,1539.00,46.40,33.80,61.28,350.00,16.00,0.00,29.98,M,10.00,M,BKN,OVC,M,M,3300.00,3900.00,M,M,M,M,M,M,M,M,M,39.19,KRTS 011855Z AUTO 35016KT 10SM BKN033 OVC039 08/01 A2998 RMK AO2,M
BVU,2023-10-01 18:55,-114.8611,35.9475,671.00,68.00,39.20,34.80,150.00,8.00,0.00,29.86,M,10.00,M,BKN,M,M,M,6000.00,M,M,M,M,M,M,M,M,M,M,68.00,KBVU 011855Z AUTO 15008KT 10SM BKN060 20/04 A2986 RMK AO2,M
CXP,2023-10-01 18:55,-119.7326,39.1923,1431.00,50.00,37.40,61.76,310.00,10.00,0.00,29.96,M,10.00,M,OVC,M,M,M,3100.00,M,M,M,M,M,M,M,M,M,M,50.00,KCXP 011855Z AUTO 31010KT 10SM OVC031 10/03 A2996 RMK AO2,M
INS,2023-10-01 18:55,-115.6733,36.5872,955.00,64.00,36.30,35.68,60.00,7.00,0.00,29.87,1008.60,10.00,M,FEW,SCT,M,M,5000.00,9500.00,M,M,M,M,M,M,M,M,M,64.00,KINS 011855Z AUTO 06007KT 10SM FEW050 SCT095 18/02 A2987 RMK AO2 SLP086 T01770024 $,M
RNO,2023-10-01 18:55,-119.7711,39.4839,1341.00,50.00,35.00,56.16,20.00,6.00,0.00,29.96,1012.50,10.00,M,FEW,BKN,OVC,M,2600.00,3600.00,4500.00,M,M,M,M,M,M,M,M,50.00,KRNO 011855Z 02006KT 10SM FEW026 BKN036 OVC045 10/02 A2996 RMK AO2 SLP125 T01000017 $,M
MEV,2023-10-01 18:55,-119.7500,38.9963,1441.42,50.00,39.20,66.27,340.00,8.00,0.00,29.95,M,10.00,M,BKN,OVC,M,M,4100.00,4900.00,M,M,M,M,M,M,M,M,M,50.00,KMEV 011855Z AUTO 34008KT 10SM BKN041 OVC049 10/04 A2995 RMK AO2,M
BAM,2023-10-01 18:55,-116.8743,40.5990,1382.36,46.40,42.80,87.19,310.00,7.00,0.00,29.91,M,5.00,M,OVC,M,M,M,2400.00,M,M,M,M,M,M,M,M,M,M,42.33,KBAM 011855Z AUTO 31007KT 5SM OVC024 08/06 A2991 RMK AO1,M
HTH,2023-10-01 18:55,-118.6315,38.5448,1282.89,48.20,44.60,87.28,310.00,8.00,0.02,29.96,M,8.00,M,FEW,FEW,SCT,M,1700.00,2500.00,4400.00,M,M,M,M,M,M,M,M,44.07,KHTH 011855Z AUTO 31008KT 8SM FEW017 FEW025 SCT044 09/07 A2996 RMK A01 P0002,M
TMT,2023-10-01 18:55,-117.1971,39.4643,1749.34,43.70,41.50,91.89,330.00,3.00,0.00,29.93,M,10.00,M,SCT,OVC,M,M,1400.00,2500.00,M,M,-RA,M,M,M,M,M,M,42.06,KTMT 011855Z AUTO 33003KT 10SM -RA SCT014 OVC025 07/05 A2993 RMK AO2 T00650053,M
LSV,2023-10-01 18:55,-115.0343,36.2362,570.00,73.40,37.40,26.98,210.00,5.00,0.00,29.83,1008.50,10.00,M,CLR,M,M,M,M,M,M,M,M,M,M,M,M,M,M,73.40,KLSV 011855Z AUTO 21005KT 10SM CLR 23/03 A2983 RMK AO2 SLP085 T02300030 $,M
TPH,2023-10-01 18:56,-117.0904,38.0505,1654.00,47.00,42.00,82.65,320.00,9.00,0.11,29.94,1011.80,10.00,M,SCT,BKN,OVC,M,3100.00,4300.00,6000.00,M,-RA,M,M,M,M,M,M,42.17,KTPH 011856Z AUTO 32009KT 10SM -RA SCT031 BKN043 OVC060 08/06 A2994 RMK AO2 SLP118 P0011 T00830056,M
EKO,2023-10-01 18:56,-115.7860,40.8242,1367.00,50.00,42.00,73.87,270.00,7.00,T,29.87,1009.80,10.00,M,FEW,BKN,OVC,M,1800.00,2600.00,3200.00,M,M,M,M,M,M,M,M,50.00,KEKO 011856Z AUTO 27007KT 10SM FEW018 BKN026 OVC032 10/06 A2987 RMK AO2 RAE25 SLP098 P0000 T01000056 $,M
WMC,2023-10-01 18:56,-117.8072,40.9019,1315.00,47.00,40.00,76.49,330.00,11.00,0.00,29.92,1012.00,10.00,M,OVC,M,M,M,3000.00,M,M,M,M,M,M,M,M,M,M,41.42,KWMC 011856Z AUTO 33011KT 10SM OVC030 08/04 A2992 RMK AO2 SLP120 T00830044,M
NFL,2023-10-01 18:56,-118.7010,39.4166,1199.00,48.00,42.00,79.60,360.00,8.00,T,29.95,1011.40,10.00,M,SCT,BKN,OVC,M,1500.00,3200.00,4500.00,M,DZ,M,M,M,M,M,M,43.82,KNFL 011856Z 36008KT 10SM DZ SCT015 BKN032 OVC045 09/06 A2995 RMK AO2 DZB52 SLP114 P0000 T00890056,M
HND,2023-10-01 18:56,-115.1344,35.9729,742.79,70.00,38.00,31.00,200.00,9.00,0.00,29.88,1011.90,10.00,M,CLR,M,M,M,M,M,M,M,M,M,M,M,M,M,M,70.00,KHND 011856Z 20009KT 10SM CLR 21/03 A2988 RMK AO2 SLP119 T02110033,M
LAS,2023-10-01 18:56,-115.1634,36.0719,663.00,70.00,37.00,29.81,200.00,10.00,0.00,29.86,1009.70,10.00,16.00,FEW,M,M,M,10000.00,M,M,M,M,M,M,M,M,M,M,70.00,KLAS 011856Z 20010G16KT 10SM FEW100 21/03 A2986 RMK AO2 SLP097 T02110028,M
10U,2023-10-01 19:00,-116.1876,41.9532,1637.00,42.80,39.20,86.99,310.00,5.00,0.00,29.90,M,10.00,M,BKN,OVC,M,M,1000.00,1500.00,M,M,-DZ,M,M,M,M,M,M,39.22,K10U 011900Z AUTO 31005KT 10SM -DZ BKN010 OVC015 06/04 A2990 RMK AO2,M
LOL,2023-10-01 19:06,-118.5701,40.0684,1192.43,48.00,41.00,76.58,320.00,6.00,0.00,29.94,M,10.00,M,OVC,M,M,M,2800.00,M,M,M,M,M,M,M,M,M,M,44.80,KLOL 011906Z AUTO 32006KT 10SM OVC028 09/05 A2994 RMK AO2 T00890050 $,M
WMC,2023-10-01 19:10,-117.8072,40.9019,1315.00,48.00,40.00,73.67,310.00,10.00,0.00,29.93,M,10.00,M,OVC,M,M,M,2900.00,M,M,M,M,M,M,M,M,M,M,43.03,KWMC 011910Z AUTO 31010KT 10SM OVC029 09/04 A2993 RMK AO2 T00890044,M
05U,2023-10-01 19:10,-116.0051,39.6042,1811.23,48.20,39.20,70.88,240.00,4.00,0.00,29.92,M,10.00,M,SCT,BKN,OVC,M,2200.00,2700.00,4000.00,M,M,M,M,M,M,M,M,46.34,K05U 011910Z AUTO 24004KT 10SM SCT022 BKN027 OVC040 09/04 A2992 RMK A01,M
BVU,2023-10-01 19:15,-114.8611,35.9475,671.00,68.00,39.20,34.80,0.00,0.00,0.00,29.85,M,10.00,10.00,BKN,BKN,M,M,6000.00,7000.00,M,M,M,M,M,M,M,M,M,68.00,KBVU 011915Z AUTO 00000G10KT 10SM BKN060 BKN070 20/04 A2985 RMK AO2,M
CXP,2023-10-01 19:15,-119.7326,39.1923,1431.00,50.00,37.40,61.76,330.00,10.00,0.00,29.97,M,10.00,M,OVC,M,M,M,3400.00,M,M,M,M,M,M,M,M,M,M,50.00,KCXP 011915Z AUTO 33010KT 10SM OVC034 10/03 A2997 RMK AO2,M
RTS,2023-10-01 19:15,-119.8764,39.6682,1539.00,46.40,33.80,61.28,360.00,13.00,0.00,29.98,M,10.00,M,OVC,M,M,M,3400.00,M,M,M,M,M,M,M,M,M,M,40.02,KRTS 011915Z AUTO 36013KT 10SM OVC034 08/01 A2998 RMK AO2,M
MEV,2023-10-01 19:15,-119.7500,38.9963,1441.42,50.00,39.20,66.27,340.00,6.00,0.00,29.95,M,10.00,M,SCT,BKN,OVC,M,2800.00,4100.00,4900.00,M,M,M,M,M,M,M,M,50.00,KMEV 011915Z AUTO 34006KT 10SM SCT028 BKN041 OVC049 10/04 A2995 RMK AO2,M
BAM,2023-10-01 19:15,-116.8743,40.5990,1382.36,46.40,44.60,93.40,320.00,7.00,0.00,29.92,M,4.00,M,SCT,OVC,M,M,1500.00,2400.00,M,M,M,M,M,M,M,M,M,42.33,KBAM 011915Z AUTO 32007KT 4SM SCT015 OVC024 08/07 A2992 RMK AO1,M
HTH,2023-10-01 19:15,-118.6315,38.5448,1282.89,48.20,44.60,87.28,310.00,8.00,0.00,29.96,M,10.00,M,BKN,M,M,M,4200.00,M,M,M,M,M,M,M,M,M,M,44.07,KHTH 011915Z AUTO 31008KT 10SM BKN042 09/07 A2996 RMK A01,M
TMT,2023-10-01 19:15,-117.1971,39.4643,1749.34,44.00,41.70,91.55,360.00,4.00,0.01,29.93,M,10.00,M,SCT,BKN,OVC,M,800.00,2400.00,3600.00,M,RA,M,M,M,M,M,M,41.43,KTMT 011915Z AUTO 36004KT 10SM RA SCT008 BKN024 OVC036 07/05 A2993 RMK AO2 P0001 T00660054,M
10U,2023-10-01 19:20,-116.1876,41.9532,1637.00,42.80,41.00,93.30,300.00,6.00,0.00,29.91,M,10.00,M,BKN,OVC,M,M,1000.00,1400.00,M,M,-RA,M,M,M,M,M,M,38.54,K10U 011920Z AUTO 30006KT 10SM -RA BKN010 OVC014 06/05 A2991 RMK AO2,M
WMC,2023-10-01 19:27,-117.8072,40.9019,1315.00,48.00,40.00,73.67,310.00,10.00,0.00,29.93,M,10.00,M,OVC,M,M,M,3000.00,M,M,M,M,M,M,M,M,M,M,43.03,KWMC 011927Z AUTO 31010KT 10SM OVC030 09/04 A2993 RMK AO2 T00890044,M
05U,2023-10-01 19:30,-116.0051,39.6042,1811.23,48.20,39.20,70.88,240.00,4.00,0.00,29.93,M,9.00,M,FEW,BKN,OVC,M,2200.00,3700.00,4300.00,M,M,M,M,M,M,M,M,46.34,K05U 011930Z AUTO 24004KT 9SM FEW022 BKN037 OVC043 09/04 A2993 RMK A01,M
BVU,2023-10-01 19:35,-114.8611,35.9475,671.00,68.00,39.20,34.80,0.00,0.00,0.00,29.85,M,10.00,10.00,FEW,SCT,M,M,6000.00,7000.00,M,M,M,M,M,M,M,M,M,68.00,KBVU 011935Z AUTO 00000G10KT 10SM FEW060 SCT070 20/04 A2985 RMK AO2,M
CXP,2023-10-01 19:35,-119.7326,39.1923,1431.00,50.00,37.40,61.76,340.00,10.00,0.00,29.97,M,10.00,M,OVC,M,M,M,3400.00,M,M,M,M,M,M,M,M,M,M,50.00,KCXP 011935Z AUTO 34010KT 10SM OVC034 10/03 A2997 RMK AO2,M
RTS,2023-10-01 19:35,-119.8764,39.6682,1539.00,46.40,33.80,61.28,340.00,11.00,0.00,29.98,M,10.00,M,SCT,SCT,SCT,M,3500.00,4300.00,8000.00,M,M,M,M,M,M,M,M,40.66,KRTS 011935Z AUTO 34011KT 10SM SCT035 SCT043 SCT080 08/01 A2998 RMK AO2,M
MEV,2023-10-01 19:35,-119.7500,38.9963,1441.42,51.80,39.20,61.99,340.00,10.00,0.00,29.95,M,10.00,M,BKN,OVC,M,M,2700.00,4000.00,M,M,M,M,M,M,M,M,M,51.80,KMEV 011935Z AUTO 34010KT 10SM BKN027 OVC040 11/04 A2995 RMK AO2,M
BAM,2023-10-01 19:35,-116.8743,40.5990,1382.36,48.20,44.60,87.28,320.00,6.00,0.00,29.93,M,3.00,M,SCT,BKN,OVC,M,1300.00,2800.00,3200.00,M,M,M,M,M,M,M,M,45.04,KBAM 011935Z AUTO 32006KT 3SM SCT013 BKN028 OVC032 09/07 A2993 RMK AO1,M
HTH,2023-10-01 19:35,-118.6315,38.5448,1282.89,48.20,44.60,87.28,310.00,9.00,0.00,29.96,M,10.00,M,BKN,M,M,M,3900.00,M,M,M,M,M,M,M,M,M,M,43.66,KHTH 011935Z AUTO 31009KT 10SM BKN039 09/07 A2996 RMK A01,M
TMT,2023-10-01 19:35,-117.1971,39.4643,1749.34,43.30,40.60,90.12,0.00,0.00,0.03,29.94,M,5.00,M,SCT,BKN,OVC,M,1000.00,1600.00,3200.00,M,RA,M,M,M,M,M,M,43.30,KTMT 011935Z AUTO 00000KT 5SM RA SCT010 BKN016 OVC032 06/05 A2994 RMK AO2 P0003 T00630048,M
10U,2023-10-01 19:40,-116.1876,41.9532,1637.00,42.80,39.20,86.99,290.00,5.00,0.00,29.91,M,10.00,M,BKN,OVC,M,M,1000.00,1300.00,M,M,-DZ,M,M,M,M,M,M,39.22,K10U 011940Z AUTO 29005KT 10SM -DZ BKN010 OVC013 06/04 A2991 RMK AO2,M
LOL,2023-10-01 19:45,-118.5701,40.0684,1192.43,49.00,41.00,73.77,330.00,7.00,0.00,29.94,M,10.00,M,SCT,OVC,M,M,2500.00,3200.00,M,M,M,M,M,M,M,M,M,45.50,KLOL 011945Z AUTO 33007KT 10SM SCT025 OVC032 09/05 A2994 RMK AO2 T00940050 $,M
05U,2023-10-01 19:50,-116.0051,39.6042,1811.23,44.60,41.00,87.09,270.00,7.00,0.00,29.93,M,1.50,M,OVC,M,M,M,2800.00,M,M,M,BR,M,M,M,M,M,M,40.14,K05U 011950Z AUTO 27007KT 1 1/2SM BR OVC028 07/05 A2993 RMK A01 VIS 1 1/4V2 1/2,M
EKO,2023-10-01 19:51,-115.7860,40.8242,1367.00,48.20,44.60,87.28,180.00,8.00,0.05,29.88,M,9.00,M,FEW,BKN,OVC,M,2400.00,3100.00,3900.00,M,-RA,M,M,M,M,M,M,44.07,KEKO 011951Z AUTO 18008KT 9SM -RA FEW024 BKN031 OVC039 09/07 A2988 RMK AO2 RAB12 P0005 $,M
P68,2023-10-01 19:53,-116.0056,39.6014,1993.00,45.00,40.00,82.51,110.00,7.00,0.03,29.91,1009.80,M,M,M,M,M,M,M,M,M,M,M,M,M,M,M,M,M,40.63,KP68 011953Z AUTO 11007KT 07/04 A2991 RMK AO1 SLP098 P0003 T00720044,M
DRA,2023-10-01 19:53,-116.0278,36.6206,1009.00,65.00,41.00,41.41,200.00,9.00,0.00,29.86,1008.40,10.00,17.00,FEW,M,M,M,4800.00,M,M,M,M,M,M,M,M,M,M,65.00,KDRA 011953Z AUTO 20009G17KT 10SM FEW048 18/05 A2986 RMK AO2 SLP084 T01830050 $,M
ELY,2023-10-01 19:53,-114.8453,39.2950,1909.00,50.00,33.00,51.85,160.00,11.00,0.00,29.92,1008.40,10.00,17.00,SCT,OVC,M,M,4100.00,5500.00,M,M,M,M,M,M,M,M,M,50.00,KELY 011953Z AUTO 16011G17KT 10SM SCT041 OVC055 10/01 A2992 RMK AO2 SLP084 T01000006,M
VGT,2023-10-01 19:53,-115.1933,36.2111,667.00,72.00,38.00,28.96,110.00,9.00,0.00,29.83,1010.40,10.00,M,SCT,M,M,M,7500.00,M,M,M,M,M,M,M,29.00,170.00,2023-10-01 19:42,72.00,KVGT 011953Z 11009KT 10SM SCT075 22/03 A2983 RMK AO2 PK WND 17029/1942 SLP104 T02220033,M
LOL,2023-10-01 19:53,-118.5701,40.0684,1192.43,48.00,41.00,76.58,320.00,7.00,0.00,29.94,1012.60,10.00,M,BKN,OVC,M,M,2700.00,3200.00,M,M,M,M,M,M,M,M,M,44.28,KLOL 011953Z AUTO 32007KT 10SM BKN027 OVC032 09/05 A2994 RMK AO2 SLP126 T00890050 $,M
BVU,2023-10-01 19:55,-114.8611,35.9475,671.00,69.80,39.20,32.72,M,4.00,0.00,29.84,M,10.00,M,SCT,M,M,M,7000.00,M,M,M,M,M,M,M,M,M,M,69.80,KBVU 011955Z AUTO VRB04KT 10SM SCT070 21/04 A2984 RMK AO2,M
CXP,2023-10-01 19:55,-119.7326,39.1923,1431.00,48.20,35.60,61.52,330.00,9.00,0.00,29.97,M,10.00,M,OVC,M,M,M,3300.00,M,M,M,M,M,M,M,M,M,M,43.66,KCXP 011955Z AUTO 33009KT 10SM OVC033 09/02 A2997 RMK AO2,M
RNO,2023-10-01 19:55,-119.7711,39.4839,1341.00,51.00,35.00,54.12,30.00,7.00,T,29.96,1012.50,10.00,M,FEW,BKN,OVC,M,2700.00,3800.00,5000.00,M,-RA,M,M,M,M,M,M,51.00,KRNO 011955Z 03007KT 10SM -RA FEW027 BKN038 OVC050 11/02 A2996 RMK AO2 RAB24 SLP125 P0000 T01060017 $,M
RTS,2023-10-01 19:55,-119.8764,39.6682,1539.00,46.40,33.80,61.28,360.00,10.00,0.00,29.98,M,10.00,M,SCT,SCT,SCT,M,3000.00,3700.00,4300.00,M,M,M,M,M,M,M,M,41.03,KRTS 011955Z AUTO 36010KT 10SM SCT030 SCT037 SCT043 08/01 A2998 RMK AO2,M
MEV,2023-10-01 19:55,-119.7500,38.9963,1441.42,51.80,39.20,61.99,360.00,15.00,0.00,29.95,M,10.00,M,OVC,M,M,M,2900.00,M,M,M,M,M,M,M,M,M,M,51.80,KMEV 011955Z AUTO 36015KT 10SM OVC029 11/04 A2995 RMK AO2,M
BAM,2023-10-01 19:55,-116.8743,40.5990,1382.36,48.20,44.60,87.28,310.00,5.00,0.00,29.93,M,7.00,M,SCT,BKN,OVC,M,1000.00,1900.00,3200.00,M,M,M,M,M,M,M,M,45.63,KBAM 011955Z AUTO 31005KT 7SM SCT010 BKN019 OVC032 09/07 A2993 RMK AO1,M
HTH,2023-10-01 19:55,-118.6315,38.5448,1282.89,50.00,44.60,81.61,330.00,9.00,0.00,29.96,M,10.00,M,BKN,M,M,M,3800.00,M,M,M,M,M,M,M,M,M,M,50.00,KHTH 011955Z AUTO 33009KT 10SM BKN038 10/07 A2996 RMK A01,M
TMT,2023-10-01 19:55,-117.1971,39.4643,1749.34,44.60,41.00,87.09,0.00,0.00,0.04,29.93,M,7.00,M,SCT,BKN,OVC,M,1600.00,2300.00,3600.00,M,-RA,M,M,M,M,M,M,44.60,KTMT 011955Z AUTO 00000KT 7SM -RA SCT016 BKN023 OVC036 07/05 A2993 RMK AO2 P0004 T00700049,M
INS,2023-10-01 19:55,-115.6733,36.5872,955.00,66.60,35.00,30.95,180.00,4.00,0.00,29.85,1007.90,10.00,M,FEW,M,M,M,6000.00,M,M,M,M,M,M,M,M,M,M,66.60,KINS 011955Z AUTO 18004KT 10SM FEW060 19/02 A2985 RMK AO2 SLP079 T01920017 $,M
LSV,2023-10-01 19:55,-115.0343,36.2362,570.00,74.70,39.40,27.94,80.00,7.00,0.00,29.81,1007.80,10.00,M,FEW,M,M,M,7500.00,M,M,M,M,M,M,M,M,M,M,74.70,KLSV 011955Z AUTO 08007KT 10SM FEW075 24/04 A2981 RMK AO2 SLP078 T02370041 $,M
EKO,2023-10-01 19:56,-115.7860,40.8242,1367.00,49.00,45.00,86.00,180.00,7.00,0.05,29.88,1010.20,10.00,M,FEW,BKN,OVC,M,2400.00,3000.00,3900.00,M,-RA,M,M,M,M,M,M,45.50,KEKO 011956Z AUTO 18007KT 10SM -RA FEW024 BKN030 OVC039 09/07 A2988 RMK AO2 RAB12 SLP102 P0005 T00940072 $,M
WMC,2023-10-01 19:56,-117.8072,40.9019,1315.00,49.00,41.00,73.77,290.00,8.00,0.00,29.93,1012.20,10.00,M,FEW,OVC,M,M,2300.00,3100.00,M,M,M,M,M,M,M,M,M,45.05,KWMC 011956Z AUTO 29008KT 10SM FEW023 OVC031 09/05 A2993 RMK AO2 SLP122 T00940050,M
NFL,2023-10-01 19:56,-118.7010,39.4166,1199.00,50.00,43.00,76.76,350.00,10.00,0.01,29.95,1011.60,8.00,M,SCT,BKN,OVC,M,1500.00,3400.00,5000.00,M,-RA,M,M,M,M,M,M,50.00,KNFL 011956Z 35010KT 8SM -RA SCT015 BKN034 OVC050 10/06 A2995 RMK AO2 DZE34RAB42 SLP116 P0001 T01000061,M
HND,2023-10-01 19:56,-115.1344,35.9729,742.79,70.00,38.00,31.00,0.00,0.00,0.00,29.86,1011.40,10.00,M,OVC,M,M,M,7000.00,M,M,M,M,M,M,M,M,M,M,70.00,KHND 011956Z 00000KT 10SM OVC070 21/03 A2986 RMK AO2 SLP114 T02110033,M
TPH,2023-10-01 19:56,-117.0904,38.0505,1654.00,51.00,44.00,76.85,40.00,4.00,T,29.93,1011.00,10.00,M,SCT,BKN,BKN,M,1800.00,3700.00,10000.00,M,M,M,M,M,M,M,M,51.00,KTPH 011956Z AUTO 04004KT 10SM SCT018 BKN037 BKN100 11/07 A2993 RMK AO2 RAE42 SLP110 P0000 T01060067,M
LAS,2023-10-01 19:56,-115.1634,36.0719,663.00,70.00,38.00,31.00,170.00,4.00,0.00,29.84,1009.00,10.00,M,FEW,M,M,M,10000.00,M,M,M,M,M,M,M,M,M,M,70.00,KLAS 011956Z 17004KT 10SM FEW100 21/03 A2984 RMK AO2 SLP090 T02110033,M
10U,2023-10-01 20:00,-116.1876,41.9532,1637.00,42.80,41.00,93.30,290.00,5.00,0.00,29.92,M,10.00,M,OVC,M,M,M,900.00,M,M,M,-RA,M,M,M,M,M,M,39.22,K10U 012000Z AUTO 29005KT 10SM -RA OVC009 06/05 A2992 RMK AO2,M
LOL,2023-10-01 20:04,-118.5701,40.0684,1192.43,49.00,42.00,76.67,330.00,7.00,0.00,29.94,M,10.00,M,FEW,OVC,M,M,2700.00,3400.00,M,M,M,M,M,M,M,M,M,45.50,KLOL 012004Z AUTO 33007KT 10SM FEW027 OVC034 09/06 A2994 RMK AO2 T00940056 $,M
TPH,2023-10-01 20:07,-117.0904,38.0505,1654.00,51.00,43.00,73.97,0.00,0.00,0.00,29.93,M,10.00,M,BKN,BKN,OVC,M,2000.00,2700.00,10000.00,M,M,M,M,M,M,M,M,51.00,KTPH 012007Z AUTO 00000KT 10SM BKN020 BKN027 OVC100 11/06 A2993 RMK AO2 T01060061,M
05U,2023-10-01 20:10,-116.0051,39.6042,1811.23,44.60,41.00,87.09,240.00,4.00,0.00,29.93,M,1.50,M,FEW,OVC,M,M,1800.00,2500.00,M,M,BR,M,M,M,M,M,M,42.13,K05U 012010Z AUTO 24004KT 1 1/2SM BR FEW018 OVC025 07/05 A2993 RMK A01,M
BVU,2023-10-01 20:15,-114.8611,35.9475,671.00,71.60,39.20,30.77,M,5.00,0.00,29.83,M,10.00,M,FEW,M,M,M,7000.00,M,M,M,M,M,M,M,M,M,M,71.60,KBVU 012015Z AUTO VRB05KT 10SM FEW070 22/04 A2983 RMK AO2,M
CXP,2023-10-01 20:15,-119.7326,39.1923,1431.00,50.00,37.40,61.76,330.00,12.00,0.00,29.97,M,10.00,M,OVC,M,M,M,3100.00,M,M,M,M,M,M,M,M,M,M,50.00,KCXP 012015Z AUTO 33012KT 10SM OVC031 10/03 A2997 RMK AO2,M
RTS,2023-10-01 20:15,-119.8764,39.6682,1539.00,50.00,33.80,53.54,10.00,10.00,0.00,29.98,M,10.00,M,SCT,BKN,M,M,3000.00,4000.00,M,M,M,M,M,M,M,M,M,50.00,KRTS 012015Z AUTO 01010KT 10SM SCT030 BKN040 10/01 A2998 RMK AO2,M
MEV,2023-10-01 20:15,-119.7500,38.9963,1441.42,50.00,37.40,61.76,340.00,14.00,0.00,29.95,M,10.00,M,OVC,M,M,M,3000.00,M,M,M,M,M,M,M,M,M,M,50.00,KMEV 012015Z AUTO 34014KT 10SM OVC030 10/03 A2995 RMK AO2,M
BAM,2023-10-01 20:15,-116.8743,40.5990,1382.36,50.00,44.60,81.61,300.00,5.00,0.00,29.93,M,10.00,M,BKN,OVC,M,M,1500.00,2100.00,M,M,M,M,M,M,M,M,M,50.00,KBAM 012015Z AUTO 30005KT 10SM BKN015 OVC021 10/07 A2993 RMK AO1,M
HTH,2023-10-01 20:15,-118.6315,38.5448,1282.89,50.00,42.80,76.18,340.00,9.00,0.00,29.96,M,10.00,M,BKN,OVC,M,M,3200.00,3900.00,M,M,M,M,M,M,M,M,M,50.00,KHTH 012015Z AUTO 34009KT 10SM BKN032 OVC039 10/06 A2996 RMK A01,M
TMT,2023-10-01 20:15,-117.1971,39.4643,1749.34,45.50,41.50,85.80,0.00,0.00,0.00,29.93,M,10.00,M,BKN,BKN,OVC,M,2100.00,2800.00,4400.00,M,M,M,M,M,M,M,M,45.50,KTMT 012015Z AUTO 00000KT 10SM BKN021 BKN028 OVC044 08/05 A2993 RMK AO2 T00750053,M
10U,2023-10-01 20:20,-116.1876,41.9532,1637.00,42.80,39.20,86.99,290.00,5.00,0.00,29.92,M,9.00,M,BKN,OVC,M,M,1000.00,1500.00,M,M,-RA,M,M,M,M,M,M,39.22,K10U 012020Z AUTO 29005KT 9SM -RA BKN010 OVC015 06/04 A2992 RMK AO2,M
05U,2023-10-01 20:30,-116.0051,39.6042,1811.23,44.60,41.00,87.09,230.00,4.00,0.00,29.93,M,2.50,M,SCT,SCT,SCT,M,2500.00,3400.00,6000.00,M,BR,M,M,M,M,M,M,42.13,K05U 012030Z AUTO 23004KT 2 1/2SM BR SCT025 SCT034 SCT060 07/05 A2993 RMK A01,M
BVU,2023-10-01 20:35,-114.8611,35.9475,671.00,69.80,39.20,32.72,0.00,0.00,0.00,29.82,M,10.00,M,SCT,M,M,M,7000.00,M,M,M,M,M,M,M,M,M,M,69.80,KBVU 012035Z AUTO 00000KT 10SM SCT070 21/04 A2982 RMK AO2,M
CXP,2023-10-01 20:35,-119.7326,39.1923,1431.00,50.00,37.40,61.76,340.00,8.00,0.00,29.97,M,10.00,14.00,OVC,M,M,M,3400.00,M,M,M,M,M,M,M,M,M,M,50.00,KCXP 012035Z AUTO 34008G14KT 10SM OVC034 10/03 A2997 RMK AO2,M
RTS,2023-10-01 20:35,-119.8764,39.6682,1539.00,48.20,33.80,57.26,350.00,5.00,0.00,29.98,M,10.00,M,SCT,BKN,BKN,M,3100.00,4000.00,8000.00,M,M,M,M,M,M,M,M,45.63,KRTS 012035Z AUTO 35005KT 10SM SCT031 BKN040 BKN080 09/01 A2998 RMK AO2,M
MEV,2023-10-01 20:35,-119.7500,38.9963,1441.42,50.00,37.40,61.76,360.00,12.00,0.00,29.95,M,10.00,M,OVC,M,M,M,2900.00,M,M,M,M,M,M,M,M,M,M,50.00,KMEV 012035Z AUTO 36012KT 10SM OVC029 10/03 A2995 RMK AO2,M
BAM,2023-10-01 20:35,-116.8743,40.5990,1382.36,50.00,44.60,81.61,300.00,5.00,0.00,29.93,M,10.00,M,OVC,M,M,M,1700.00,M,M,M,M,M,M,M,M,M,M,50.00,KBAM 012035Z AUTO 30005KT 10SM OVC017 10/07 A2993 RMK AO1,M
HTH,2023-10-01 20:35,-118.6315,38.5448,1282.89,50.00,44.60,81.61,310.00,9.00,0.00,29.96,M,10.00,M,FEW,BKN,OVC,M,1700.00,3100.00,4600.00,M,M,M,M,M,M,M,M,50.00,KHTH 012035Z AUTO 31009KT 10SM FEW017 BKN031 OVC046 10/07 A2996 RMK A01,M
TMT,2023-10-01 20:35,-117.1971,39.4643,1749.34,45.70,41.00,83.52,0.00,0.00,0.00,29.93,M,10.00,M,SCT,BKN,OVC,M,1200.00,2200.00,4400.00,M,M,M,M,M,M,M,M,45.70,KTMT 012035Z AUTO 00000KT 10SM SCT012 BKN022 OVC044 08/05 A2993 RMK AO2 T00760051,M
10U,2023-10-01 20:35,-116.1876,41.9532,1637.00,42.80,39.20,86.99,280.00,4.00,0.00,29.93,M,8.00,M,BKN,OVC,M,M,1200.00,1700.00,M,M,-RA,M,M,M,M,M,M,40.03,K10U 012035Z AUTO 28004KT 8SM -RA BKN012 OVC017 06/04 A2993 RMK AO2,M
TPH,2023-10-01 20:41,-117.0904,38.0505,1654.00,53.00,42.00,66.12,340.00,5.00,0.00,29.92,M,10.00,M,FEW,SCT,BKN,M,2300.00,4300.00,5500.00,M,M,M,M,M,M,M,M,53.00,KTPH 012041Z AUTO 34005KT 10SM FEW023 SCT043 BKN055 12/06 A2992 RMK AO2 T01170056,M
WMC,2023-10-01 20:43,-117.8072,40.9019,1315.00,49.00,41.00,73.77,290.00,7.00,0.00,29.94,M,10.00,M,BKN,OVC,M,M,2100.00,3400.00,M,M,M,M,M,M,M,M,M,45.50,KWMC 012043Z AUTO 29007KT 10SM BKN021 OVC034 09/05 A2994 RMK AO2 T00940050,M
05U,2023-10-01 20:45,-116.0051,39.6042,1811.23,44.60,41.00,87.09,300.00,4.00,0.00,29.93,M,3.00,M,SCT,BKN,BKN,M,2700.00,3300.00,3900.00,M,BR,M,M,M,M,M,M,42.13,K05U 012045Z AUTO 30004KT 3SM BR SCT027 BKN033 BKN039 07/05 A2993 RMK A01,M
P68,2023-10-01 20:53,-116.0056,39.6014,1993.00,45.00,42.00,89.15,180.00,7.00,0.12,29.91,1009.80,M,M,M,M,M,M,M,M,M,M,M,M,M,M,M,M,M,40.63,KP68 012053Z AUTO 18007KT 07/06 A2991 RMK AO1 SLP098 P0012 60015 T00720056 51005,M
DRA,2023-10-01 20:53,-116.0278,36.6206,1009.00,68.00,39.00,34.53,230.00,11.00,0.00,29.85,1007.70,10.00,17.00,CLR,M,M,M,M,M,M,M,M,M,M,M,M,M,M,68.00,KDRA 012053Z AUTO 23011G17KT 10SM CLR 20/04 A2985 RMK AO2 SLP077 T02000039 58012 $,M
ELY,2023-10-01 20:53,-114.8453,39.2950,1909.00,49.00,36.00,60.66,250.00,8.00,0.00,29.92,1008.90,10.00,17.00,SCT,BKN,OVC,M,3600.00,4300.00,5000.00,M,M,M,M,M,M,M,M,45.05,KELY 012053Z AUTO 25008G17KT 10SM SCT036 BKN043 OVC050 09/02 A2992 RMK AO2 SLP089 T00940022 51005,M
VGT,2023-10-01 20:53,-115.1933,36.2111,667.00,73.00,38.00,28.00,130.00,10.00,0.00,29.82,1009.80,10.00,M,FEW,M,M,M,8000.00,M,M,M,M,M,M,M,M,M,M,73.00,KVGT 012053Z 13010KT 10SM FEW080 23/03 A2982 RMK AO2 SLP098 T02280033 58015,M
LOL,2023-10-01 20:53,-118.5701,40.0684,1192.43,49.00,42.00,76.67,310.00,8.00,0.00,29.94,1012.70,10.00,M,OVC,M,M,M,3300.00,M,M,M,M,M,M,M,M,M,M,45.05,KLOL 012053Z AUTO 31008KT 10SM OVC033 09/06 A2994 RMK AO2 SLP127 6//// T00940056 51003 $,M
BVU,2023-10-01 20:55,-114.8611,35.9475,671.00,71.60,37.40,28.68,160.00,7.00,0.00,29.82,M,10.00,M,SCT,M,M,M,7000.00,M,M,M,M,M,M,M,M,M,M,71.60,KBVU 012055Z AUTO 16007KT 130V190 10SM SCT070 22/03 A2982 RMK AO2,M
CXP,2023-10-01 20:55,-119.7326,39.1923,1431.00,50.00,37.40,61.76,340.00,11.00,0.00,29.97,M,10.00,M,OVC,M,M,M,3600.00,M,M,M,-RA,M,M,M,M,M,M,50.00,KCXP 012055Z AUTO 34011KT 10SM -RA OVC036 10/03 A2997 RMK AO2,M
INS,2023-10-01 20:55,-115.6733,36.5872,955.00,68.50,34.00,27.86,100.00,10.00,0.00,29.83,1007.00,10.00,16.00,BKN,M,M,M,6500.00,M,M,M,M,M,M,M,M,M,M,68.50,KINS 012055Z AUTO 10010G16KT 10SM BKN065 20/01 A2983 RMK AO2 SLP070 T02030012 57012 $,M
RNO,2023-10-01 20:55,-119.7711,39.4839,1341.00,54.00,36.00,50.42,10.00,7.00,T,29.96,1012.20,10.00,M,SCT,BKN,OVC,M,3800.00,5000.00,6000.00,M,M,M,M,M,M,M,M,54.00,KRNO 012055Z 01007KT 10SM SCT038 BKN050 OVC060 12/02 A2996 RMK AO2 RAE1958 SLP122 P0000 60000 T01220022 50004 $,M
LSV,2023-10-01 20:55,-115.0343,36.2362,570.00,78.00,39.20,24.84,40.00,3.00,0.00,29.79,1007.10,10.00,M,FEW,SCT,M,M,8000.00,9000.00,M,M,M,M,M,M,M,M,M,78.00,KLSV 012055Z AUTO 04003KT 10SM FEW080 SCT090 26/04 A2979 RMK AO2 SLP071 T02550040 57015 $,M
RTS,2023-10-01 20:55,-119.8764,39.6682,1539.00,48.20,33.80,57.26,340.00,5.00,0.00,29.98,M,10.00,10.00,OVC,M,M,M,3100.00,M,M,M,M,M,M,M,M,M,M,45.63,KRTS 012055Z AUTO 34005G10KT 10SM OVC031 09/01 A2998 RMK AO2,M
MEV,2023-10-01 20:55,-119.7500,38.9963,1441.42,50.00,37.40,61.76,350.00,13.00,0.00,29.95,M,10.00,M,OVC,M,M,M,2900.00,M,M,M,M,M,M,M,M,M,M,50.00,KMEV 012055Z AUTO 35013KT 10SM OVC029 10/03 A2995 RMK AO2,M
BAM,2023-10-01 20:55,-116.8743,40.5990,1382.36,50.00,44.60,81.61,320.00,6.00,0.00,29.93,M,10.00,M,OVC,M,M,M,1900.00,M,M,M,M,M,M,M,M,M,M,50.00,KBAM 012055Z AUTO 32006KT 10SM OVC019 10/07 A2993 RMK AO1,M
HTH,2023-10-01 20:55,-118.6315,38.5448,1282.89,50.00,44.60,81.61,320.00,8.00,0.00,29.96,M,10.00,M,BKN,OVC,M,M,3500.00,4600.00,M,M,M,M,M,M,M,M,M,50.00,KHTH 012055Z AUTO 32008KT 10SM BKN035 OVC046 10/07 A2996 RMK A01,M
TMT,2023-10-01 20:55,-117.1971,39.4643,1749.34,45.70,42.00,86.81,30.00,6.00,0.00,29.94,M,10.00,M,SCT,BKN,OVC,M,1300.00,1900.00,2500.00,M,M,M,M,M,M,M,M,42.03,KTMT 012055Z AUTO 03006KT 10SM SCT013 BKN019 OVC025 08/06 A2994 RMK AO2 60004 T00760056,M
EKO,2023-10-01 20:56,-115.7860,40.8242,1367.00,50.00,45.00,82.86,190.00,6.00,0.01,29.89,1010.40,10.00,M,FEW,SCT,BKN,M,3600.00,7000.00,9500.00,M,M,M,M,M,M,M,M,50.00,KEKO 012056Z AUTO 19006KT 10SM FEW036 SCT070 BKN095 10/07 A2989 RMK AO2 RAE20 SLP104 P0001 60006 T01000072 51005 $,M
WMC,2023-10-01 20:56,-117.8072,40.9019,1315.00,49.00,40.00,70.96,300.00,7.00,0.00,29.94,1012.70,10.00,M,BKN,OVC,M,M,2300.00,3000.00,M,M,M,M,M,M,M,M,M,45.50,KWMC 012056Z AUTO 30007KT 10SM BKN023 OVC030 09/04 A2994 RMK AO2 SLP127 T00940044 51010,M
NFL,2023-10-01 20:56,-118.7010,39.4166,1199.00,51.00,42.00,71.18,310.00,5.00,T,29.95,1011.50,10.00,M,SCT,BKN,OVC,M,1500.00,3800.00,5000.00,M,M,M,M,M,M,M,M,51.00,KNFL 012056Z 31005KT 10SM SCT015 BKN038 OVC050 11/06 A2995 RMK AO2 RAE28 SLP115 P0000 60001 T01060056 50005,M
HND,2023-10-01 20:56,-115.1344,35.9729,742.79,71.00,38.00,29.96,10.00,3.00,0.00,29.84,1010.70,10.00,M,BKN,M,M,M,8000.00,M,M,M,M,M,M,M,M,M,M,71.00,KHND 012056Z 01003KT 10SM BKN080 22/03 A2984 RMK AO2 SLP107 T02170033 58016,M
TPH,2023-10-01 20:56,-117.0904,38.0505,1654.00,52.00,42.00,68.59,330.00,8.00,0.00,29.92,1010.60,10.00,M,SCT,BKN,BKN,M,2700.00,4000.00,5500.00,M,M,M,M,M,M,M,M,52.00,KTPH 012056Z AUTO 33008KT 10SM SCT027 BKN040 BKN055 11/06 A2992 RMK AO2 SLP106 60011 T01110056 50000,M
LAS,2023-10-01 20:56,-115.1634,36.0719,663.00,72.00,37.00,27.85,160.00,5.00,0.00,29.82,1008.30,10.00,M,SCT,M,M,M,7500.00,M,M,M,M,M,M,M,M,M,M,72.00,KLAS 012056Z 16005KT 10SM SCT075 22/03 A2982 RMK AO2 SLP083 T02220028 58013,M
10U,2023-10-01 21:00,-116.1876,41.9532,1637.00,42.80,41.00,93.30,270.00,4.00,0.00,29.93,M,8.00,M,SCT,OVC,M,M,1200.00,1700.00,M,M,-RA,M,M,M,M,M,M,40.03,K10U 012100Z AUTO 27004KT 8SM -RA SCT012 OVC017 06/05 A2993 RMK AO2,M
05U,2023-10-01 21:10,-116.0051,39.6042,1811.23,44.60,42.80,93.35,310.00,7.00,0.00,29.93,M,2.00,M,FEW,FEW,M,M,2800.00,3800.00,M,M,BR,M,M,M,M,M,M,40.14,K05U 012110Z AUTO 31007KT 2SM BR FEW028 FEW038 07/06 A2993 RMK A01,M
BVU,2023-10-01 21:15,-114.8611,35.9475,671.00,73.40,37.40,26.98,160.00,10.00,0.00,29.81,M,10.00,16.00,BKN,M,M,M,7000.00,M,M,M,M,M,M,M,M,M,M,73.40,KBVU 012115Z AUTO 16010G16KT 10SM BKN070 23/03 A2981 RMK AO2,M
CXP,2023-10-01 21:15,-119.7326,39.1923,1431.00,51.80,37.40,57.77,350.00,8.00,0.00,29.97,M,10.00,14.00,FEW,BKN,OVC,M,3200.00,3900.00,5500.00,M,M,M,M,M,M,M,M,51.80,KCXP 012115Z AUTO 35008G14KT 10SM FEW032 BKN039 OVC055 11/03 A2997 RMK AO2,M
RTS,2023-10-01 21:15,-119.8764,39.6682,1539.00,48.20,33.80,57.26,360.00,12.00,0.00,29.98,M,10.00,M,OVC,M,M,M,3100.00,M,M,M,M,M,M,M,M,M,M,42.62,KRTS 012115Z AUTO 36012KT 10SM OVC031 09/01 A2998 RMK AO2,M
MEV,2023-10-01 21:15,-119.7500,38.9963,1441.42,51.80,37.40,57.77,360.00,10.00,0.00,29.95,M,10.00,16.00,OVC,M,M,M,3000.00,M,M,M,M,M,M,M,M,M,M,51.80,KMEV 012115Z AUTO 36010G16KT 10SM OVC030 11/03 A2995 RMK AO2,M
BAM,2023-10-01 21:15,-116.8743,40.5990,1382.36,50.00,44.60,81.61,330.00,5.00,0.00,29.93,M,10.00,M,OVC,M,M,M,1900.00,M,M,M,M,M,M,M,M,M,M,50.00,KBAM 012115Z AUTO 33005KT 10SM OVC019 10/07 A2993 RMK AO1,M
HTH,2023-10-01 21:15,-118.6315,38.5448,1282.89,50.00,44.60,81.61,300.00,10.00,0.00,29.96,M,10.00,M,OVC,M,M,M,3700.00,M,M,M,M,M,M,M,M,M,M,50.00,KHTH 012115Z AUTO 30010KT 10SM OVC037 10/07 A2996 RMK A01,M
TMT,2023-10-01 21:15,-117.1971,39.4643,1749.34,44.40,41.70,90.16,120.00,4.00,0.00,29.94,M,10.00,M,SCT,OVC,M,M,1200.00,2100.00,M,M,M,M,M,M,M,M,M,41.90,KTMT 012115Z AUTO 12004KT 10SM SCT012 OVC021 07/05 A2994 RMK AO2 T00690054,M
10U,2023-10-01 21:20,-116.1876,41.9532,1637.00,42.80,41.00,93.30,290.00,4.00,0.00,29.94,M,4.00,M,SCT,BKN,OVC,M,1100.00,1700.00,2300.00,M,-RA,M,M,M,M,M,M,40.03,K10U 012120Z AUTO 29004KT 4SM -RA SCT011 BKN017 OVC023 06/05 A2994 RMK AO2,M
LOL,2023-10-01 21:21,-118.5701,40.0684,1192.43,49.00,42.00,76.67,320.00,9.00,0.00,29.95,M,10.00,M,BKN,OVC,M,M,2900.00,3400.00,M,M,M,M,M,M,M,M,M,44.65,KLOL 012121Z AUTO 32009KT 10SM BKN029 OVC034 09/06 A2995 RMK AO2 T00940056 $,M
05U,2023-10-01 21:30,-116.0051,39.6042,1811.23,46.40,42.80,87.19,340.00,7.00,0.00,29.94,M,6.00,M,FEW,FEW,M,M,2700.00,6500.00,M,M,BR,M,M,M,M,M,M,42.33,K05U 012130Z AUTO 34007KT 6SM BR FEW027 FEW065 08/06 A2994 RMK A01,M
BVU,2023-10-01 21:35,-114.8611,35.9475,671.00,73.40,37.40,26.98,150.00,7.00,0.00,29.81,M,10.00,16.00,SCT,SCT,M,M,7000.00,8000.00,M,M,M,M,M,M,M,M,M,73.40,KBVU 012135Z AUTO 15007G16KT 10SM SCT070 SCT080 23/03 A2981 RMK AO2,M
CXP,2023-10-01 21:35,-119.7326,39.1923,1431.00,51.80,37.40,57.77,330.00,11.00,0.00,29.97,M,10.00,M,BKN,OVC,M,M,3700.00,5500.00,M,M,M,M,M,M,M,M,M,51.80,KCXP 012135Z AUTO 33011KT 10SM BKN037 OVC055 11/03 A2997 RMK AO2,M
RTS,2023-10-01 21:35,-119.8764,39.6682,1539.00,50.00,33.80,53.54,M,6.00,0.00,29.98,M,10.00,12.00,BKN,OVC,M,M,3400.00,7500.00,M,M,M,M,M,M,M,M,M,50.00,KRTS 012135Z AUTO VRB06G12KT 10SM BKN034 OVC075 10/01 A2998 RMK AO2,M
MEV,2023-10-01 21:35,-119.7500,38.9963,1441.42,50.00,37.40,61.76,350.00,11.00,0.00,29.95,M,10.00,M,OVC,M,M,M,3200.00,M,M,M,M,M,M,M,M,M,M,50.00,KMEV 012135Z AUTO 35011KT 10SM OVC032 10/03 A2995 RMK AO2,M
BAM,2023-10-01 21:35,-116.8743,40.5990,1382.36,50.00,44.60,81.61,330.00,9.00,0.00,29.95,M,10.00,M,OVC,M,M,M,1900.00,M,M,M,M,M,M,M,M,M,M,50.00,KBAM 012135Z AUTO 33009KT 10SM OVC019 10/07 A2995 RMK AO1,M
HTH,2023-10-01 21:35,-118.6315,38.5448,1282.89,50.00,42.80,76.18,350.00,11.00,0.00,29.96,M,10.00,M,FEW,OVC,M,M,1900.00,3800.00,M,M,M,M,M,M,M,M,M,50.00,KHTH 012135Z AUTO 35011KT 10SM FEW019 OVC038 10/06 A2996 RMK A01,M
TMT,2023-10-01 21:35,-117.1971,39.4643,1749.34,43.70,40.30,87.72,130.00,3.00,0.03,29.96,M,5.00,M,OVC,M,M,M,1000.00,M,M,M,RA,M,M,M,M,M,M,42.06,KTMT 012135Z AUTO 13003KT 5SM RA OVC010 07/05 A2996 RMK AO2 P0003 T00650046,M
10U,2023-10-01 21:40,-116.1876,41.9532,1637.00,42.80,41.00,93.30,260.00,4.00,0.00,29.95,M,7.00,M,SCT,BKN,OVC,M,1000.00,1700.00,2300.00,M,-RA,M,M,M,M,M,M,40.03,K10U 012140Z AUTO 26004KT 7SM -RA SCT010 BKN017 OVC023 06/05 A2995 RMK AO2,M
LOL,2023-10-01 21:43,-118.5701,40.0684,1192.43,50.00,41.00,71.07,320.00,8.00,0.00,29.96,M,10.00,M,OVC,M,M,M,3200.00,M,M,M,M,M,M,M,M,M,M,50.00,KLOL 012143Z AUTO 32008KT 10SM OVC032 10/05 A2996 RMK AO2 T01000050 $,M
05U,2023-10-01 21:50,-116.0051,39.6042,1811.23,46.40,42.80,87.19,340.00,8.00,0.00,29.94,M,10.00,M,FEW,FEW,SCT,M,4300.00,4800.00,6000.00,M,M,M,M,M,M,M,M,41.85,K05U 012150Z AUTO 34008KT 10SM FEW043 FEW048 SCT060 08/06 A2994 RMK A01,M
P68,2023-10-01 21:53,-116.0056,39.6014,1993.00,46.00,43.00,89.20,180.00,9.00,0.07,29.91,1009.80,M,M,M,M,M,M,M,M,M,M,M,M,M,M,M,M,M,40.92,KP68 012153Z AUTO 18009KT 08/06 A2991 RMK AO1 SLP098 P0007 T00780061,M
DRA,2023-10-01 21:53,-116.0278,36.6206,1009.00,69.00,30.00,23.30,210.00,14.00,0.00,29.84,1007.50,10.00,21.00,SCT,M,M,M,7000.00,M,M,M,M,M,M,M,M,M,M,69.00,KDRA 012153Z AUTO 21014G21KT 10SM SCT070 21/M01 A2984 RMK AO2 SLP075 T02061011 $,M
ELY,2023-10-01 21:53,-114.8453,39.2950,1909.00,53.00,34.00,48.30,180.00,7.00,0.00,29.93,1008.40,10.00,M,FEW,SCT,BKN,M,3800.00,7000.00,8000.00,M,M,M,M,M,M,M,M,53.00,KELY 012153Z AUTO 18007KT 10SM FEW038 SCT070 BKN080 12/01 A2993 RMK AO2 SLP084 T01170011,M
VGT,2023-10-01 21:53,-115.1933,36.2111,667.00,73.00,38.00,28.00,0.00,0.00,0.00,29.81,1009.60,10.00,M,FEW,SCT,M,M,7500.00,10000.00,M,M,M,M,M,M,M,M,M,73.00,KVGT 012153Z 00000KT 10SM FEW075 SCT100 23/03 A2981 RMK AO2 SLP096 T02280033,M
LOL,2023-10-01 21:53,-118.5701,40.0684,1192.43,50.00,42.00,73.87,300.00,7.00,0.00,29.96,1013.40,10.00,M,BKN,OVC,M,M,3500.00,4100.00,M,M,M,M,M,M,M,M,M,50.00,KLOL 012153Z AUTO 30007KT 10SM BKN035 OVC041 10/06 A2996 RMK AO2 SLP134 T01000056 $,M
BVU,2023-10-01 21:55,-114.8611,35.9475,671.00,73.40,37.40,26.98,160.00,6.00,0.00,29.80,M,10.00,13.00,FEW,M,M,M,7500.00,M,M,M,M,M,M,M,M,M,M,73.40,KBVU 012155Z AUTO 16006G13KT 10SM FEW075 23/03 A2980 RMK AO2,M
CXP,2023-10-01 21:55,-119.7326,39.1923,1431.00,51.80,37.40,57.77,320.00,7.00,0.00,29.97,M,10.00,M,OVC,M,M,M,3400.00,M,M,M,M,M,M,M,M,M,M,51.80,KCXP 012155Z AUTO 32007KT 10SM OVC034 11/03 A2997 RMK AO2,M
INS,2023-10-01 21:55,-115.6733,36.5872,955.00,69.00,31.60,24.87,80.00,8.00,0.00,29.83,1007.00,10.00,20.00,BKN,M,M,M,7500.00,M,M,M,M,M,M,M,M,M,M,69.00,KINS 012155Z AUTO 08008G20KT 10SM BKN075 21/M00 A2983 RMK AO2 SLP070 T02051002 $,M
RNO,2023-10-01 21:55,-119.7711,39.4839,1341.00,54.00,35.00,48.46,20.00,10.00,0.00,29.96,1012.40,10.00,M,FEW,BKN,OVC,M,4000.00,5000.00,6000.00,M,M,M,M,M,M,M,M,54.00,KRNO 012155Z 02010KT 10SM FEW040 BKN050 OVC060 12/02 A2996 RMK AO2 SLP124 T01220017 $,M
LSV,2023-10-01 21:55,-115.0343,36.2362,570.00,81.30,39.00,22.12,30.00,4.00,0.00,29.78,1006.70,10.00,M,BKN,M,M,M,8000.00,M,M,M,M,M,M,M,M,M,M,79.51,KLSV 012155Z AUTO 03004KT 10SM BKN080 27/04 A2978 RMK AO2 SLP067 T02740038 $,M
RTS,2023-10-01 21:55,-119.8764,39.6682,1539.00,50.00,33.80,53.54,350.00,11.00,0.00,29.99,M,10.00,M,OVC,M,M,M,3600.00,M,M,M,M,M,M,M,M,M,M,50.00,KRTS 012155Z AUTO 35011KT 10SM OVC036 10/01 A2999 RMK AO2,M
MEV,2023-10-01 21:55,-119.7500,38.9963,1441.42,51.80,37.40,57.77,360.00,11.00,0.00,29.96,M,10.00,M,OVC,M,M,M,3200.00,M,M,M,M,M,M,M,M,M,M,51.80,KMEV 012155Z AUTO 36011KT 10SM OVC032 11/03 A2996 RMK AO2,M
BAM,2023-10-01 21:55,-116.8743,40.5990,1382.36,50.00,44.60,81.61,330.00,7.00,0.00,29.95,M,10.00,M,OVC,M,M,M,1900.00,M,M,M,M,M,M,M,M,M,M,50.00,KBAM 012155Z AUTO 33007KT 10SM OVC019 10/07 A2995 RMK AO1,M
HTH,2023-10-01 21:55,-118.6315,38.5448,1282.89,50.00,44.60,81.61,320.00,15.00,0.00,29.97,M,10.00,M,FEW,FEW,OVC,M,1800.00,2500.00,3700.00,M,M,M,M,M,M,M,M,50.00,KHTH 012155Z AUTO 32015KT 10SM FEW018 FEW025 OVC037 10/07 A2997 RMK A01,M
TMT,2023-10-01 21:55,-117.1971,39.4643,1749.34,43.00,41.00,92.58,130.00,5.00,0.09,29.96,M,3.00,M,SCT,BKN,OVC,M,1000.00,1700.00,2700.00,M,RA,M,M,M,M,M,M,39.46,KTMT 012155Z AUTO 13005KT 3SM RA SCT010 BKN017 OVC027 06/05 A2996 RMK AO2 P0009 T00610050,M
EKO,2023-10-01 21:56,-115.7860,40.8242,1367.00,54.00,44.00,68.82,270.00,11.00,T,29.91,1010.70,10.00,M,FEW,SCT,BKN,M,2900.00,3900.00,4700.00,M,M,M,M,M,M,M,M,54.00,KEKO 012156Z AUTO 27011KT 10SM FEW029 SCT039 BKN047 12/07 A2991 RMK AO2 RAB24E37 SLP107 P0000 T01220067 $,M
WMC,2023-10-01 21:56,-117.8072,40.9019,1315.00,49.00,39.00,68.25,320.00,7.00,0.00,29.96,1013.40,10.00,M,OVC,M,M,M,2600.00,M,M,M,M,M,M,M,M,M,M,45.50,KWMC 012156Z AUTO 32007KT 10SM OVC026 09/04 A2996 RMK AO2 SLP134 T00940039,M
NFL,2023-10-01 21:56,-118.7010,39.4166,1199.00,51.00,42.00,71.18,310.00,3.00,0.00,29.96,1011.70,10.00,M,SCT,BKN,OVC,M,2000.00,3800.00,5000.00,M,M,M,M,M,M,M,M,51.00,KNFL 012156Z 31003KT 10SM SCT020 BKN038 OVC050 11/06 A2996 RMK AO2 SLP117 T01060056,M
HND,2023-10-01 21:56,-115.1344,35.9729,742.79,70.00,39.00,32.24,M,3.00,0.00,29.84,1010.60,10.00,M,FEW,SCT,SCT,M,8000.00,10000.00,12000.00,M,M,M,M,M,M,M,M,70.00,KHND 012156Z VRB03KT 10SM FEW080 SCT100 SCT120 21/04 A2984 RMK AO2 SLP106 T02110039,M
TPH,2023-10-01 21:56,-117.0904,38.0505,1654.00,55.00,42.00,61.46,340.00,10.00,0.00,29.93,1010.40,10.00,M,BKN,OVC,M,M,3500.00,4700.00,M,M,M,M,M,M,M,M,M,55.00,KTPH 012156Z AUTO 34010KT 10SM BKN035 OVC047 13/06 A2993 RMK AO2 SLP104 T01280056,M
LAS,2023-10-01 21:56,-115.1634,36.0719,663.00,71.00,38.00,29.96,0.00,0.00,0.00,29.81,1008.10,10.00,M,FEW,BKN,M,M,7500.00,10000.00,M,M,M,M,M,M,M,M,M,71.00,KLAS 012156Z 00000KT 10SM FEW075 BKN100 22/03 A2981 RMK AO2 SLP081 CB DSNT NW T02170033,M
10U,2023-10-01 22:00,-116.1876,41.9532,1637.00,42.80,41.00,93.30,M,4.00,0.00,29.96,M,4.00,M,FEW,SCT,BKN,M,700.00,1100.00,1700.00,M,-RA,M,M,M,M,M,M,40.03,K10U 012200Z AUTO VRB04KT 4SM -RA FEW007 SCT011 BKN017 06/05 A2996 RMK AO2,M
05U,2023-10-01 22:10,-116.0051,39.6042,1811.23,48.20,42.80,81.47,320.00,7.00,0.00,29.94,M,7.00,M,FEW,M,M,M,4900.00,M,M,M,M,M,M,M,M,M,M,44.53,K05U 012210Z AUTO 32007KT 7SM FEW049 09/06 A2994 RMK A01,M
BVU,2023-10-01 22:15,-114.8611,35.9475,671.00,73.40,35.60,25.13,150.00,8.00,0.00,29.80,M,10.00,15.00,CLR,M,M,M,M,M,M,M,M,M,M,M,M,M,M,73.40,KBVU 012215Z AUTO 15008G15KT 10SM CLR 23/02 A2980 RMK AO2,M
CXP,2023-10-01 22:15,-119.7326,39.1923,1431.00,51.80,37.40,57.77,330.00,8.00,0.00,29.98,M,10.00,M,OVC,M,M,M,3300.00,M,M,M,M,M,M,M,M,M,M,51.80,KCXP 012215Z AUTO 33008KT 10SM OVC033 11/03 A2998 RMK AO2,M
RTS,2023-10-01 22:15,-119.8764,39.6682,1539.00,50.00,33.80,53.54,350.00,10.00,0.00,29.99,M,10.00,M,OVC,M,M,M,3700.00,M,M,M,M,M,M,M,M,M,M,50.00,KRTS 012215Z AUTO 35010KT 10SM OVC037 10/01 A2999 RMK AO2,M
MEV,2023-10-01 22:15,-119.7500,38.9963,1441.42,51.80,37.40,57.77,350.00,11.00,0.00,29.96,M,10.00,M,OVC,M,M,M,3400.00,M,M,M,M,M,M,M,M,M,M,51.80,KMEV 012215Z AUTO 35011KT 10SM OVC034 11/03 A2996 RMK AO2,M
BAM,2023-10-01 22:15,-116.8743,40.5990,1382.36,48.20,44.60,87.28,330.00,6.00,0.00,29.96,M,7.00,M,OVC,M,M,M,2100.00,M,M,M,M,M,M,M,M,M,M,45.04,KBAM 012215Z AUTO 33006KT 7SM OVC021 09/07 A2996 RMK AO1,M
HTH,2023-10-01 22:15,-118.6315,38.5448,1282.89,48.20,44.60,87.28,320.00,13.00,0.00,29.98,M,9.00,M,FEW,BKN,OVC,M,1400.00,2200.00,3600.00,M,M,M,M,M,M,M,M,42.32,KHTH 012215Z AUTO 32013KT 9SM FEW014 BKN022 OVC036 09/07 A2998 RMK A01,M
TMT,2023-10-01 22:15,-117.1971,39.4643,1749.34,43.70,42.00,93.68,140.00,4.00,0.04,29.96,M,5.00,M,BKN,OVC,M,M,2000.00,2900.00,M,M,VCTSRA,M,M,M,M,M,M,41.08,KTMT 012215Z AUTO 14004KT 5SM VCTSRA BKN020 OVC029 07/06 A2996 RMK AO2 P0004 T00650056,M
10U,2023-10-01 22:20,-116.1876,41.9532,1637.00,42.80,41.00,93.30,260.00,4.00,0.00,29.96,M,3.00,M,SCT,BKN,OVC,M,700.00,1400.00,2000.00,M,-RA,M,M,M,M,M,M,40.03,K10U 012220Z AUTO 26004KT 3SM -RA SCT007 BKN014 OVC020 06/05 A2996 RMK AO2,M
05U,2023-10-01 22:30,-116.0051,39.6042,1811.23,50.00,42.80,76.18,10.00,5.00,0.00,29.94,M,10.00,M,CLR,M,M,M,M,M,M,M,M,M,M,M,M,M,M,50.00,K05U 012230Z AUTO 01005KT 10SM CLR 10/06 A2994 RMK A01,M
BVU,2023-10-01 22:35,-114.8611,35.9475,671.00,75.20,32.00,20.49,150.00,10.00,0.00,29.80,M,10.00,17.00,CLR,M,M,M,M,M,M,M,M,M,M,M,M,M,M,75.20,KBVU 012235Z AUTO 15010G17KT 10SM CLR 24/00 A2980 RMK AO2,M
CXP,2023-10-01 22:35,-119.7326,39.1923,1431.00,51.80,37.40,57.77,60.00,4.00,0.00,29.98,M,10.00,M,BKN,BKN,OVC,M,3400.00,4400.00,5500.00,M,M,M,M,M,M,M,M,51.80,KCXP 012235Z AUTO 06004KT 10SM BKN034 BKN044 OVC055 11/03 A2998 RMK AO2,M
RTS,2023-10-01 22:35,-119.8764,39.6682,1539.00,48.20,33.80,57.26,360.00,9.00,0.00,30.00,M,10.00,M,OVC,M,M,M,3700.00,M,M,M,M,M,M,M,M,M,M,43.66,KRTS 012235Z AUTO 36009KT 10SM OVC037 09/01 A3000 RMK AO2,M
MEV,2023-10-01 22:35,-119.7500,38.9963,1441.42,53.60,37.40,54.07,350.00,10.00,0.00,29.96,M,10.00,M,OVC,M,M,M,3300.00,M,M,M,M,M,M,M,M,M,M,53.60,KMEV 012235Z AUTO 35010KT 10SM OVC033 12/03 A2996 RMK AO2,M
BAM,2023-10-01 22:35,-116.8743,40.5990,1382.36,48.20,44.60,87.28,310.00,5.00,0.00,29.96,M,10.00,M,OVC,M,M,M,2500.00,M,M,M,M,M,M,M,M,M,M,45.63,KBAM 012235Z AUTO 31005KT 10SM OVC025 09/07 A2996 RMK AO1,M
HTH,2023-10-01 22:35,-118.6315,38.5448,1282.89,50.00,44.60,81.61,310.00,12.00,0.00,29.98,M,10.00,M,FEW,SCT,OVC,M,1500.00,2300.00,3300.00,M,M,M,M,M,M,M,M,50.00,KHTH 012235Z AUTO 31012KT 10SM FEW015 SCT023 OVC033 10/07 A2998 RMK A01,M
TMT,2023-10-01 22:35,-117.1971,39.4643,1749.34,43.30,40.50,89.77,140.00,3.00,0.05,29.97,M,7.00,M,OVC,M,M,M,2000.00,M,M,M,-RA,M,M,M,M,M,M,41.61,KTMT 012235Z AUTO 14003KT 7SM -RA OVC020 06/05 A2997 RMK AO2 P0005 T00630047,M
LOL,2023-10-01 22:37,-118.5701,40.0684,1192.43,50.00,42.00,73.87,70.00,7.00,0.00,29.97,M,10.00,M,BKN,OVC,M,M,2900.00,3500.00,M,M,M,M,M,M,M,M,M,50.00,KLOL 012237Z AUTO 07007KT 10SM BKN029 OVC035 10/06 A2997 RMK AO2 T01000056 $,M
10U,2023-10-01 22:40,-116.1876,41.9532,1637.00,42.80,41.00,93.30,270.00,4.00,0.00,29.97,M,9.00,M,FEW,SCT,OVC,M,700.00,1400.00,2000.00,M,-DZ,M,M,M,M,M,M,40.03,K10U 012240Z AUTO 27004KT 9SM -DZ FEW007 SCT014 OVC020 06/05 A2997 RMK AO2,M
LOL,2023-10-01 22:49,-118.5701,40.0684,1192.43,50.00,42.80,76.18,70.00,6.00,0.00,29.97,M,10.00,M,SCT,OVC,M,M,2800.00,3300.00,M,M,M,M,M,M,M,M,M,50.00,KLOL 012249Z AUTO 07006KT 10SM SCT028 OVC033 10/06 A2997 RMK AO2 $,M
05U,2023-10-01 22:50,-116.0051,39.6042,1811.23,50.00,42.80,76.18,30.00,5.00,0.00,29.95,M,10.00,M,BKN,M,M,M,8000.00,M,M,M,M,M,M,M,M,M,M,50.00,K05U 012250Z AUTO 03005KT 10SM BKN080 10/06 A2995 RMK A01,M
P68,2023-10-01 22:53,-116.0056,39.6014,1993.00,49.00,42.00,76.67,230.00,5.00,0.01,29.92,1009.70,M,M,M,M,M,M,M,M,M,M,M,M,M,M,M,M,M,46.58,KP68 012253Z AUTO 23005KT 09/06 A2992 RMK AO1 SLP097 P0001 T00940056,M
DRA,2023-10-01 22:53,-116.0278,36.6206,1009.00,69.00,29.00,22.37,220.00,13.00,0.00,29.84,1007.60,10.00,21.00,CLR,M,M,M,M,M,M,M,M,M,M,M,M,M,M,69.00,KDRA 012253Z AUTO 22013G21KT 10SM CLR 21/M02 A2984 RMK AO2 SLP076 T02061017 $,M
ELY,2023-10-01 22:53,-114.8453,39.2950,1909.00,54.00,35.00,48.46,170.00,11.00,0.00,29.93,1008.70,10.00,M,CLR,M,M,M,M,M,M,M,M,M,M,M,M,M,M,54.00,KELY 012253Z AUTO 17011KT 10SM CLR 12/02 A2993 RMK AO2 SLP087 T01220017,M
VGT,2023-10-01 22:53,-115.1933,36.2111,667.00,75.00,39.00,27.23,60.00,10.00,0.00,29.80,1009.20,10.00,16.00,SCT,M,M,M,9000.00,M,M,M,M,M,M,M,M,M,M,75.00,KVGT 012253Z 06010G16KT 10SM SCT090 24/04 A2980 RMK AO2 SLP092 T02390039,M
LOL,2023-10-01 22:53,-118.5701,40.0684,1192.43,50.00,42.00,73.87,80.00,6.00,0.00,29.97,1013.90,10.00,M,FEW,OVC,M,M,2800.00,3500.00,M,M,M,M,M,M,M,M,M,50.00,KLOL 012253Z AUTO 08006KT 10SM FEW028 OVC035 10/06 A2997 RMK AO2 SLP139 T01000056 $,M
BVU,2023-10-01 22:55,-114.8611,35.9475,671.00,73.40,28.40,18.80,150.00,10.00,0.00,29.80,M,10.00,16.00,CLR,M,M,M,M,M,M,M,M,M,M,M,M,M,M,73.40,KBVU 012255Z AUTO 15010G16KT 10SM CLR 23/M02 A2980 RMK AO2,M
CXP,2023-10-01 22:55,-119.7326,39.1923,1431.00,51.80,37.40,57.77,10.00,4.00,0.00,29.98,M,10.00,M,SCT,SCT,OVC,M,3600.00,4300.00,5000.00,M,M,M,M,M,M,M,M,51.80,KCXP 012255Z AUTO 01004KT 10SM SCT036 SCT043 OVC050 11/03 A2998 RMK AO2,M
INS,2023-10-01 22:55,-115.6733,36.5872,955.00,68.00,30.00,24.12,80.00,10.00,0.00,29.83,1007.00,10.00,M,SCT,M,M,M,10000.00,M,M,M,M,M,M,M,M,M,M,68.00,KINS 012255Z AUTO 08010KT 10SM SCT100 20/M01 A2983 RMK AO2 SLP070 T02001012 $,M
RNO,2023-10-01 22:55,-119.7711,39.4839,1341.00,54.00,36.00,50.42,10.00,12.00,0.00,29.97,1012.70,10.00,M,OVC,M,M,M,4400.00,M,M,M,M,M,M,M,M,M,M,54.00,KRNO 012255Z 01012KT 10SM OVC044 12/02 A2997 RMK AO2 SLP127 T01220022 $,M
RTS,2023-10-01 22:55,-119.8764,39.6682,1539.00,50.00,33.80,53.54,360.00,10.00,0.00,30.00,M,10.00,M,OVC,M,M,M,3800.00,M,M,M,M,M,M,M,M,M,M,50.00,KRTS 012255Z AUTO 36010KT 10SM OVC038 10/01 A3000 RMK AO2,M
MEV,2023-10-01 22:55,-119.7500,38.9963,1441.42,51.80,37.40,57.77,10.00,10.00,0.00,29.96,M,10.00,16.00,OVC,M,M,M,3400.00,M,M,M,M,M,M,M,M,M,M,51.80,KMEV 012255Z AUTO 01010G16KT 10SM OVC034 11/03 A2996 RMK AO2,M
BAM,2023-10-01 22:55,-116.8743,40.5990,1382.36,50.00,44.60,81.61,330.00,4.00,0.00,29.97,M,10.00,M,OVC,M,M,M,2700.00,M,M,M,M,M,M,M,M,M,M,50.00,KBAM 012255Z AUTO 33004KT 10SM OVC027 10/07 A2997 RMK AO1,M
HTH,2023-10-01 22:55,-118.6315,38.5448,1282.89,50.00,44.60,81.61,320.00,12.00,0.00,29.98,M,10.00,M,OVC,M,M,M,3600.00,M,M,M,M,M,M,M,M,M,M,50.00,KHTH 012255Z AUTO 32012KT 10SM OVC036 10/07 A2998 RMK A01,M
TMT,2023-10-01 22:55,-117.1971,39.4643,1749.34,43.70,41.00,90.13,0.00,0.00,0.06,29.97,M,7.00,M,OVC,M,M,M,2100.00,M,M,M,DZ,M,M,M,M,M,M,43.70,KTMT 012255Z AUTO 00000KT 7SM DZ OVC021 07/05 A2997 RMK AO2 P0006 T00650050,M
LSV,2023-10-01 22:55,-115.0343,36.2362,570.00,77.00,39.40,25.88,0.00,0.00,0.00,29.77,1006.50,10.00,M,FEW,M,M,M,8000.00,M,M,M,M,M,M,M,M,M,M,77.00,KLSV 012255Z AUTO 00000KT 10SM FEW080 25/04 A2977 RMK AO2 SLP065 T02490041 $,M
EKO,2023-10-01 22:56,-115.7860,40.8242,1367.00,53.00,43.00,68.71,270.00,13.00,T,29.92,1011.30,10.00,M,SCT,BKN,M,M,2500.00,3200.00,M,M,M,M,M,M,M,M,M,53.00,KEKO 012256Z AUTO 27013KT 10SM SCT025 BKN032 12/06 A2992 RMK AO2 RAB18E27 SLP113 P0000 T01170061 $,M
WMC,2023-10-01 22:56,-117.8072,40.9019,1315.00,49.00,40.00,70.96,300.00,7.00,0.00,29.98,1013.90,10.00,M,OVC,M,M,M,2600.00,M,M,M,M,M,M,M,M,M,M,45.50,KWMC 012256Z AUTO 30007KT 10SM OVC026 09/04 A2998 RMK AO2 SLP139 T00940044,M
NFL,2023-10-01 22:56,-118.7010,39.4166,1199.00,51.00,43.00,73.97,M,3.00,0.00,29.97,1012.00,10.00,M,SCT,BKN,OVC,M,2000.00,3800.00,5000.00,M,M,M,M,M,M,M,M,51.00,KNFL 012256Z VRB03KT 10SM SCT020 BKN038 OVC050 11/06 A2997 RMK AO2 SLP120 T01060061,M
HND,2023-10-01 22:56,-115.1344,35.9729,742.79,73.00,39.00,29.12,290.00,5.00,T,29.83,1010.30,10.00,M,FEW,SCT,M,M,2300.00,9000.00,M,M,M,M,M,M,M,M,M,73.00,KHND 012256Z 29005KT 10SM FEW023 SCT090 23/04 A2983 RMK AO2 RAB37E49 SLP103 P0000 T02280039,M
TPH,2023-10-01 22:56,-117.0904,38.0505,1654.00,54.00,40.00,58.99,310.00,8.00,0.00,29.94,1011.00,10.00,M,FEW,BKN,M,M,4500.00,6000.00,M,M,M,M,M,M,M,M,M,54.00,KTPH 012256Z AUTO 31008KT 10SM FEW045 BKN060 12/04 A2994 RMK AO2 SLP110 T01220044,M
LAS,2023-10-01 22:56,-115.1634,36.0719,663.00,72.00,39.00,30.12,120.00,5.00,0.00,29.80,1007.70,10.00,M,FEW,SCT,M,M,5000.00,10000.00,M,M,M,M,M,M,M,M,M,72.00,KLAS 012256Z 12005KT 10SM FEW050 SCT100 22/04 A2980 RMK AO2 SLP077 ACC DSNT E-SE TCU DSNT SW CB DSNT NW T02220039,M
10U,2023-10-01 23:00,-116.1876,41.9532,1637.00,42.80,41.00,93.30,0.00,0.00,0.00,29.98,M,9.00,M,SCT,BKN,OVC,M,1300.00,1900.00,2300.00,M,M,M,M,M,M,M,M,42.80,K10U 012300Z AUTO 00000KT 9SM SCT013 BKN019 OVC023 06/05 A2998 RMK AO2,M
05U,2023-10-01 23:10,-116.0051,39.6042,1811.23,50.00,41.00,71.07,30.00,6.00,0.00,29.95,M,10.00,M,BKN,OVC,M,M,8000.00,9000.00,M,M,M,M,M,M,M,M,M,50.00,K05U 012310Z AUTO 03006KT 10SM BKN080 OVC090 10/05 A2995 RMK A01,M
BVU,2023-10-01 23:15,-114.8611,35.9475,671.00,73.40,33.80,23.39,150.00,12.00,0.00,29.80,M,10.00,M,CLR,M,M,M,M,M,M,M,M,M,M,M,M,M,M,73.40,KBVU 012315Z AUTO 15012KT 10SM CLR 23/01 A2980 RMK AO2,M
CXP,2023-10-01 23:15,-119.7326,39.1923,1431.00,51.80,39.20,61.99,70.00,6.00,0.00,29.98,M,10.00,M,BKN,OVC,M,M,3800.00,4800.00,M,M,M,M,M,M,M,M,M,51.80,KCXP 012315Z AUTO 07006KT 10SM BKN038 OVC048 11/04 A2998 RMK AO2,M
RTS,2023-10-01 23:15,-119.8764,39.6682,1539.00,48.20,33.80,57.26,350.00,13.00,0.00,30.01,M,10.00,M,OVC,M,M,M,3800.00,M,M,M,M,M,M,M,M,M,M,42.32,KRTS 012315Z AUTO 35013KT 10SM OVC038 09/01 A3001 RMK AO2,M
MEV,2023-10-01 23:15,-119.7500,38.9963,1441.42,53.60,37.40,54.07,330.00,11.00,0.00,29.97,M,10.00,M,OVC,M,M,M,3400.00,M,M,M,M,M,M,M,M,M,M,53.60,KMEV 012315Z AUTO 33011KT 10SM OVC034 12/03 A2997 RMK AO2,M
BAM,2023-10-01 23:15,-116.8743,40.5990,1382.36,50.00,44.60,81.61,340.00,4.00,0.00,29.97,M,10.00,M,SCT,OVC,M,M,1800.00,3100.00,M,M,M,M,M,M,M,M,M,50.00,KBAM 012315Z AUTO 34004KT 10SM SCT018 OVC031 10/07 A2997 RMK AO1,M
HTH,2023-10-01 23:15,-118.6315,38.5448,1282.89,50.00,44.60,81.61,310.00,10.00,0.00,29.98,M,10.00,M,BKN,BKN,OVC,M,3700.00,4800.00,10000.00,M,M,M,M,M,M,M,M,50.00,KHTH 012315Z AUTO 31010KT 10SM BKN037 BKN048 OVC100 10/07 A2998 RMK A01,M
TMT,2023-10-01 23:15,-117.1971,39.4643,1749.34,44.00,41.70,91.55,0.00,0.00,0.00,29.97,M,7.00,M,SCT,BKN,OVC,M,2000.00,2800.00,3500.00,M,RA,M,M,M,M,M,M,44.00,KTMT 012315Z AUTO 00000KT 7SM RA SCT020 BKN028 OVC035 07/05 A2997 RMK AO2 T00660054,M
10U,2023-10-01 23:20,-116.1876,41.9532,1637.00,42.80,41.00,93.30,330.00,5.00,0.00,29.98,M,10.00,M,SCT,BKN,OVC,M,800.00,1300.00,1900.00,M,M,M,M,M,M,M,M,39.22,K10U 012320Z AUTO 33005KT 10SM SCT008 BKN013 OVC019 06/05 A2998 RMK AO2,M
05U,2023-10-01 23:30,-116.0051,39.6042,1811.23,51.80,42.80,71.26,50.00,10.00,0.00,29.96,M,10.00,15.00,SCT,SCT,BKN,M,6500.00,7500.00,8500.00,M,M,M,M,M,M,M,M,51.80,K05U 012330Z AUTO 05010G15KT 10SM SCT065 SCT075 BKN085 11/06 A2996 RMK A01,M
BVU,2023-10-01 23:35,-114.8611,35.9475,671.00,73.40,33.80,23.39,150.00,10.00,0.00,29.80,M,10.00,17.00,CLR,M,M,M,M,M,M,M,M,M,M,M,M,M,M,73.40,KBVU 012335Z AUTO 15010G17KT 10SM CLR 23/01 A2980 RMK AO2,M
CXP,2023-10-01 23:35,-119.7326,39.1923,1431.00,51.80,37.40,57.77,360.00,5.00,0.00,30.00,M,10.00,M,OVC,M,M,M,3800.00,M,M,M,M,M,M,M,M,M,M,51.80,KCXP 012335Z AUTO 36005KT 10SM OVC038 11/03 A3000 RMK AO2,M
RTS,2023-10-01 23:35,-119.8764,39.6682,1539.00,48.20,33.80,57.26,350.00,11.00,0.00,30.01,M,10.00,M,BKN,M,M,M,3800.00,M,M,M,M,M,M,M,M,M,M,42.94,KRTS 012335Z AUTO 35011KT 10SM BKN038 09/01 A3001 RMK AO2,M
MEV,2023-10-01 23:35,-119.7500,38.9963,1441.42,51.80,37.40,57.77,330.00,8.00,0.00,29.97,M,10.00,M,OVC,M,M,M,3600.00,M,M,M,M,M,M,M,M,M,M,51.80,KMEV 012335Z AUTO 33008KT 10SM OVC036 11/03 A2997 RMK AO2,M
BAM,2023-10-01 23:35,-116.8743,40.5990,1382.36,50.00,44.60,81.61,330.00,6.00,0.00,29.98,M,10.00,M,SCT,OVC,M,M,1800.00,2800.00,M,M,M,M,M,M,M,M,M,50.00,KBAM 012335Z AUTO 33006KT 10SM SCT018 OVC028 10/07 A2998 RMK AO1,M
HTH,2023-10-01 23:35,-118.6315,38.5448,1282.89,50.00,42.80,76.18,320.00,10.00,0.00,29.99,M,10.00,M,FEW,BKN,OVC,M,2900.00,3600.00,5000.00,M,M,M,M,M,M,M,M,50.00,KHTH 012335Z AUTO 32010KT 10SM FEW029 BKN036 OVC050 10/06 A2999 RMK A01,M
TMT,2023-10-01 23:35,-117.1971,39.4643,1749.34,44.00,41.00,89.11,0.00,0.00,0.02,29.99,M,5.00,M,SCT,BKN,OVC,M,1500.00,2400.00,3400.00,M,RA,M,M,M,M,M,M,44.00,KTMT 012335Z AUTO 00000KT 5SM RA SCT015 BKN024 OVC034 07/05 A2999 RMK AO2 P0002 T00660051,M
10U,2023-10-01 23:40,-116.1876,41.9532,1637.00,42.80,41.00,93.30,320.00,4.00,0.00,29.99,M,10.00,M,BKN,OVC,M,M,1000.00,1500.00,M,M,M,M,M,M,M,M,M,40.03,K10U 012340Z AUTO 32004KT 10SM BKN010 OVC015 06/05 A2999 RMK AO2,M
05U,2023-10-01 23:50,-116.0051,39.6042,1811.23,48.20,39.20,70.88,60.00,12.00,0.00,29.96,M,10.00,18.00,CLR,M,M,M,M,M,M,M,M,M,M,M,M,M,M,42.62,K05U 012350Z AUTO 06012G18KT 10SM CLR 09/04 A2996 RMK A01,M
P68,2023-10-01 23:53,-116.0056,39.6014,1993.00,47.00,40.00,76.49,260.00,13.00,0.00,29.94,1010.80,M,M,M,M,M,M,M,M,M,M,M,M,M,M,M,M,M,40.79,KP68 012353Z AUTO 26013KT 08/04 A2994 RMK AO1 SLP108 60023 T00830044 10106 20067 53010,M
DRA,2023-10-01 23:53,-116.0278,36.6206,1009.00,68.00,30.00,24.12,230.00,12.00,0.00,29.85,1007.90,10.00,18.00,CLR,M,M,M,M,M,M,M,M,M,M,M,M,M,M,68.00,KDRA 012353Z AUTO 23012G18KT 10SM CLR 20/M01 A2985 RMK AO2 SLP079 T02001011 10211 20167 53001 $,M
ELY,2023-10-01 23:53,-114.8453,39.2950,1909.00,50.00,34.00,53.97,140.00,14.00,0.00,29.95,1010.20,10.00,M,BKN,M,M,M,5000.00,M,M,M,M,M,M,M,M,M,M,50.00,KELY 012353Z AUTO 14014KT 10SM BKN050 10/01 A2995 RMK AO2 SLP102 T01000011 10128 20094 53008,M
VGT,2023-10-01 23:53,-115.1933,36.2111,667.00,73.00,39.00,29.12,170.00,3.00,0.00,29.80,1009.40,10.00,M,FEW,M,M,M,9000.00,M,M,M,M,M,M,M,M,M,M,73.00,KVGT 012353Z 17003KT 10SM FEW090 23/04 A2980 RMK AO2 SLP094 T02280039 10239 20200 55004,M
WMC,2023-10-01 23:53,-117.8072,40.9019,1315.00,48.20,39.20,70.88,330.00,5.00,0.00,30.00,M,10.00,M,OVC,M,M,M,3100.00,M,M,M,M,M,M,M,M,M,M,45.63,KWMC 012353Z AUTO 33005KT 10SM OVC031 09/04 A3000 RMK AO2,M
LOL,2023-10-01 23:53,-118.5701,40.0684,1192.43,50.00,42.00,73.87,60.00,5.00,0.00,29.99,1014.80,10.00,M,OVC,M,M,M,3300.00,M,M,M,M,M,M,M,M,M,M,50.00,KLOL 012353Z AUTO 06005KT 10SM OVC033 10/06 A2999 RMK AO2 SLP148 6//// T01000056 10106 20083 53011 $,M
BVU,2023-10-01 23:55,-114.8611,35.9475,671.00,73.40,33.80,23.39,150.00,12.00,0.00,29.80,M,10.00,M,CLR,M,M,M,M,M,M,M,M,M,M,M,M,M,M,73.40,KBVU 012355Z AUTO 15012KT 10SM CLR 23/01 A2980 RMK AO2,M
CXP,2023-10-01 23:55,-119.7326,39.1923,1431.00,51.80,35.60,53.81,350.00,6.00,0.00,30.00,M,10.00,M,OVC,M,M,M,3800.00,M,M,M,M,M,M,M,M,M,M,51.80,KCXP 012355Z AUTO 35006KT 10SM OVC038 11/02 A3000 RMK AO2,M
INS,2023-10-01 23:55,-115.6733,36.5872,955.00,69.80,30.40,23.05,80.00,12.00,0.00,29.83,1007.00,10.00,M,SCT,M,M,M,8500.00,M,M,M,M,M,M,M,M,M,M,69.80,KINS 012355Z AUTO 08012KT 10SM SCT085 21/M01 A2983 RMK AO2 SLP070 T02101009 10210 20172 55002 $,M
RNO,2023-10-01 23:55,-119.7711,39.4839,1341.00,53.00,36.00,52.30,10.00,8.00,0.00,30.00,1013.70,10.00,M,OVC,M,M,M,4700.00,M,M,M,M,M,M,M,M,M,M,53.00,KRNO 012355Z 01008KT 10SM OVC047 12/02 A3000 RMK AO2 SLP137 60000 T01170022 10128 20100 53011 $,M
RTS,2023-10-01 23:55,-119.8764,39.6682,1539.00,48.20,33.80,57.26,360.00,11.00,0.00,30.03,M,10.00,M,OVC,M,M,M,3800.00,M,M,M,M,M,M,M,M,M,M,42.94,KRTS 012355Z AUTO 36011KT 10SM OVC038 09/01 A3003 RMK AO2,M
MEV,2023-10-01 23:55,-119.7500,38.9963,1441.42,51.80,37.40,57.77,360.00,8.00,0.00,29.98,M,10.00,M,OVC,M,M,M,3700.00,M,M,M,M,M,M,M,M,M,M,51.80,KMEV 012355Z AUTO 36008KT 10SM OVC037 11/03 A2998 RMK AO2,M
BAM,2023-10-01 23:55,-116.8743,40.5990,1382.36,50.00,44.60,81.61,330.00,8.00,0.00,29.99,M,10.00,M,OVC,M,M,M,3300.00,M,M,M,M,M,M,M,M,M,M,50.00,KBAM 012355Z AUTO 33008KT 10SM OVC033 10/07 A2999 RMK AO1,M
HTH,2023-10-01 23:55,-118.6315,38.5448,1282.89,50.00,42.80,76.18,310.00,10.00,0.00,29.99,M,10.00,M,BKN,OVC,M,M,2900.00,3300.00,M,M,M,M,M,M,M,M,M,50.00,KHTH 012355Z AUTO 31010KT 10SM BKN029 OVC033 10/06 A2999 RMK A01,M
TMT,2023-10-01 23:55,-117.1971,39.4643,1749.34,44.00,41.70,91.55,320.00,4.00,0.04,29.99,M,7.00,M,SCT,SCT,OVC,M,2400.00,3100.00,3800.00,M,-RA,M,M,M,M,M,M,41.43,KTMT 012355Z AUTO 32004KT 7SM -RA SCT024 SCT031 OVC038 07/05 A2999 RMK AO2 P0004 60023 T00660054 10078 20061,M
LSV,2023-10-01 23:55,-115.0343,36.2362,570.00,76.50,40.00,26.93,90.00,5.00,0.00,29.77,1006.60,10.00,M,FEW,M,M,M,8500.00,M,M,M,M,M,M,M,M,M,M,76.50,KLSV 012355Z AUTO 09005KT 10SM FEW085 25/04 A2977 RMK AO2 SLP066 T02470044 10276 20226 56007 $,M
EKO,2023-10-01 23:56,-115.7860,40.8242,1367.00,53.00,41.00,63.61,280.00,9.00,0.00,29.94,1012.20,10.00,M,FEW,SCT,M,M,3100.00,10000.00,M,M,M,M,M,M,M,M,M,53.00,KEKO 012356Z AUTO 28009KT 10SM FEW031 SCT100 12/05 A2994 RMK AO2 SLP122 60006 T01170050 10122 20083 53015 $,M
WMC,2023-10-01 23:56,-117.8072,40.9019,1315.00,49.00,39.00,68.25,350.00,7.00,0.00,30.00,1014.80,10.00,M,OVC,M,M,M,2900.00,M,M,M,M,M,M,M,M,M,M,45.50,KWMC 012356Z AUTO 35007KT 10SM OVC029 09/04 A3000 RMK AO2 SLP148 T00940039 10100 20078 51011,M
NFL,2023-10-01 23:56,-118.7010,39.4166,1199.00,52.00,42.00,68.59,330.00,5.00,0.00,29.98,1012.50,10.00,M,FEW,BKN,OVC,M,2500.00,4000.00,5000.00,M,M,M,M,M,M,M,M,52.00,KNFL 012356Z 33005KT 10SM FEW025 BKN040 OVC050 11/06 A2998 RMK AO2 SLP125 60001 T01110056 10111 20083 53010,M
HND,2023-10-01 23:56,-115.1344,35.9729,742.79,71.00,39.00,31.16,320.00,4.00,0.00,29.83,1010.40,10.00,M,CLR,M,M,M,M,M,M,M,M,M,M,M,M,M,M,71.00,KHND 012356Z 32004KT 10SM CLR 22/04 A2983 RMK AO2 SLP104 60000 T02170039 10228 20194 56004,M
TPH,2023-10-01 23:56,-117.0904,38.0505,1654.00,50.00,43.00,76.76,170.00,10.00,T,29.96,1012.10,10.00,M,FEW,BKN,OVC,M,2500.00,3600.00,7500.00,M,M,M,M,M,M,M,M,50.00,KTPH 012356Z AUTO 17010KT 10SM FEW025 BKN036 OVC075 10/06 A2996 RMK AO2 RAB15E31 SLP121 P0000 60011 T01000061 10128 20072 53012,M
LAS,2023-10-01 23:56,-115.1634,36.0719,663.00,72.00,39.00,30.12,0.00,0.00,0.00,29.81,1007.80,10.00,M,FEW,SCT,SCT,M,5000.00,10000.00,18000.00,M,M,M,M,M,M,M,M,72.00,KLAS 012356Z 00000KT 10SM FEW050 SCT100 SCT180 22/04 A2981 RMK AO2 SLP078 ACC DSNT E-SE CB DSNT SW AND W-NW SH DSNT SW AND W-NW T02220039 10233 20194 55005,M
