station,valid,lon,lat,elevation,tmpf,dwpf,relh,drct,sknt,p01i,alti,mslp,vsby,gust,skyc1,skyc2,skyc3,skyc4,skyl1,skyl2,skyl3,skyl4,wxcodes,ice_accretion_1hr,ice_accretion_3hr,ice_accretion_6hr,peak_wind_gust,peak_wind_drct,peak_wind_time,feel,metar,snowdepth
INS,2025-06-04 00:00,-115.6733,36.5872,955.00,78.80,42.80,27.85,50.00,13.00,0.00,29.86,1006.80,10.00,M,BKN,OVC,M,M,11000.00,13000.00,M,M,TS,M,M,M,M,M,M,78.80,KINS 040000Z AUTO 05013KT 10SM TS BKN110 OVC130 26/06 A2986 RMK AO2 WSHFT 2349 SLP068 $,M
INS,2025-06-04 00:01,-115.6733,36.5872,955.00,78.80,42.80,27.85,50.00,13.00,0.00,29.86,1006.80,10.00,M,BKN,OVC,M,M,11000.00,13000.00,M,M,VCTS,M,M,M,M,M,M,78.80,KINS 040001Z AUTO 05013KT 10SM VCTS BKN110 OVC130 26/06 A2986 RMK AO2 TSE01 SLP068 $,M
INS,2025-06-04 00:05,-115.6733,36.5872,955.00,78.80,42.80,27.85,100.00,15.00,0.00,29.88,1007.70,10.00,24.00,BKN,OVC,M,M,11000.00,14000.00,M,M,VCTS,M,M,M,M,M,M,78.80,KINS 040005Z AUTO 10015G24KT 10SM VCTS BKN110 OVC140 26/06 A2988 RMK AO2 WSHFT 00 TSB2355E01 PRESRR SLP077 $,M
DRA,2025-06-04 00:08,-116.0278,36.6206,1009.00,89.00,43.00,20.22,140.00,22.00,0.00,29.83,M,10.00,31.00,CLR,M,M,M,M,M,M,M,M,M,M,M,31.00,130.00,2025-06-04 00:00,85.43,KDRA 040008Z AUTO 14022G31KT 10SM CLR 32/06 A2983 RMK AO2 PK WND 13031/0000 WSHFT 2351 T03170061,M
TMT,2025-06-04 00:10,-117.1971,39.4643,1749.34,76.30,22.60,13.41,330.00,8.00,0.00,30.03,M,10.00,16.00,CLR,M,M,M,M,M,M,M,M,M,M,M,M,M,M,76.30,KTMT 040010Z AUTO 33008G16KT 280V350 10SM CLR 25/M05 A3003 RMK AO2 T02461052,M
LSV,2025-06-04 00:13,-115.0343,36.2362,570.00,89.60,44.60,21.10,300.00,22.00,0.00,29.74,1004.40,10.00,28.00,BKN,M,M,M,10000.00,M,M,M,M,M,M,M,M,M,M,86.07,KLSV 040013Z 30022G28KT 10SM BKN100CB 32/07 A2974 RMK LTG DSNT W-NE SLP044 $,M
BAM,2025-06-04 00:15,-116.8743,40.5990,1382.36,78.80,23.00,12.56,340.00,15.00,0.00,30.00,M,10.00,21.00,CLR,M,M,M,M,M,M,M,M,M,M,M,M,M,M,78.80,KBAM 040015Z AUTO 34015G21KT 10SM CLR 26/M05 A3000 RMK AO1,M
CXP,2025-06-04 00:15,-119.7326,39.1923,1431.00,84.20,33.80,16.42,250.00,5.00,0.00,29.98,M,10.00,12.00,CLR,M,M,M,M,M,M,M,M,M,M,M,M,M,M,81.30,KCXP 040015Z AUTO 25005G12KT 10SM CLR 29/01 A2998 RMK AO2,M
RTS,2025-06-04 00:15,-119.8764,39.6682,1539.00,80.60,24.80,12.77,360.00,15.00,0.00,30.03,M,10.00,21.00,CLR,M,M,M,M,M,M,M,M,M,M,M,M,M,M,78.94,KRTS 040015Z AUTO 36015G21KT 10SM CLR 27/M04 A3003 RMK AO2,M
BVU,2025-06-04 00:15,-114.8611,35.9475,671.00,91.40,33.80,13.08,240.00,11.00,0.00,29.76,M,10.00,M,CLR,M,M,M,M,M,M,M,M,M,M,M,M,M,M,87.13,KBVU 040015Z AUTO 24011KT 10SM CLR 33/01 A2976 RMK AO2 LTG DSNT ALQDS,M
MEV,2025-06-04 00:15,-119.7500,38.9963,1441.42,82.40,39.20,21.54,290.00,14.00,0.00,29.98,M,10.00,M,CLR,M,M,M,M,M,M,M,M,M,M,M,M,M,M,80.21,KMEV 040015Z AUTO 29014KT 10SM CLR 28/04 A2998 RMK AO2,M
HTH,2025-06-04 00:15,-118.6315,38.5448,1282.89,86.00,21.20,9.23,330.00,17.00,0.00,29.92,M,10.00,24.00,CLR,M,M,M,M,M,M,M,M,M,M,M,M,M,M,82.04,KHTH 040015Z AUTO 33017G24KT 10SM CLR 30/M06 A2992 RMK A01,M
VGT,2025-06-04 00:18,-115.1933,36.2111,667.00,82.00,50.00,32.94,320.00,24.00,T,29.80,M,10.00,37.00,FEW,M,M,M,3600.00,M,M,M,VCTS,M,M,M,37.00,230.00,2025-06-03 23:54,80.73,KVGT 040018Z 32024G37KT 10SM VCTS FEW036 28/10 A2980 RMK AO2 PK WND 23037/2354 WSHFT 2359 LTG DSNT W-N RAE09 P0000 T02780100,M
TMT,2025-06-04 00:30,-117.1971,39.4643,1749.34,75.70,22.00,13.34,330.00,12.00,0.00,30.03,M,10.00,19.00,CLR,M,M,M,M,M,M,M,M,M,M,M,M,M,M,75.70,KTMT 040030Z AUTO 33012G19KT 10SM CLR 24/M06 A3003 RMK AO2 T02431056,M
BVU,2025-06-04 00:35,-114.8611,35.9475,671.00,91.40,32.00,12.17,280.00,8.00,0.00,29.77,M,10.00,M,CLR,M,M,M,M,M,M,M,M,M,M,M,M,M,M,86.92,KBVU 040035Z AUTO 28008KT 10SM CLR 33/00 A2977 RMK AO2 LTG DSNT N AND SE AND NW,M
BAM,2025-06-04 00:35,-116.8743,40.5990,1382.36,78.80,23.00,12.56,330.00,14.00,0.00,30.00,M,10.00,18.00,CLR,M,M,M,M,M,M,M,M,M,M,M,M,M,M,78.80,KBAM 040035Z AUTO 33014G18KT 10SM CLR 26/M05 A3000 RMK AO1,M
CXP,2025-06-04 00:35,-119.7326,39.1923,1431.00,82.40,39.20,21.54,260.00,8.00,0.00,29.98,M,10.00,19.00,CLR,M,M,M,M,M,M,M,M,M,M,M,M,M,M,80.21,KCXP 040035Z AUTO 26008G19KT 220V280 10SM CLR 28/04 A2998 RMK AO2,M
RTS,2025-06-04 00:35,-119.8764,39.6682,1539.00,80.60,23.00,11.84,350.00,18.00,0.00,30.02,M,10.00,24.00,CLR,M,M,M,M,M,M,M,M,M,M,M,M,M,M,78.80,KRTS 040035Z AUTO 35018G24KT 10SM CLR 27/M05 A3002 RMK AO2,M
MEV,2025-06-04 00:35,-119.7500,38.9963,1441.42,82.40,39.20,21.54,290.00,14.00,0.00,29.97,M,10.00,20.00,CLR,M,M,M,M,M,M,M,M,M,M,M,M,M,M,80.21,KMEV 040035Z AUTO 29014G20KT 10SM CLR 28/04 A2997 RMK AO2,M
HTH,2025-06-04 00:35,-118.6315,38.5448,1282.89,86.00,19.40,8.54,340.00,16.00,0.00,29.92,M,10.00,22.00,CLR,M,M,M,M,M,M,M,M,M,M,M,M,M,M,81.94,KHTH 040035Z AUTO 34016G22KT 10SM CLR 30/M07 A2992 RMK A01,M
VGT,2025-06-04 00:39,-115.1933,36.2111,667.00,80.00,51.00,36.48,310.00,29.00,T,29.80,M,10.00,38.00,FEW,SCT,M,M,5500.00,7000.00,M,M,M,M,M,M,42.00,320.00,2025-06-04 00:27,79.65,KVGT 040039Z 31029G38KT 10SM FEW055 SCT070 27/11 A2980 RMK AO2 PK WND 32042/0027 WSHFT 2359 LTG DSNT W RAE09 P0000 T02670106,M
TMT,2025-06-04 00:50,-117.1971,39.4643,1749.34,75.20,21.40,13.23,320.00,11.00,0.00,30.03,M,10.00,15.00,CLR,M,M,M,M,M,M,M,M,M,M,M,M,M,M,75.20,KTMT 040050Z AUTO 32011G15KT 10SM CLR 24/M06 A3003 RMK AO2 T02401059,M
P68,2025-06-04 00:53,-116.0056,39.6014,1993.00,77.00,18.00,10.77,330.00,17.00,0.00,29.99,1009.40,M,25.00,M,M,M,M,M,M,M,M,M,M,M,M,28.00,300.00,2025-06-04 00:31,77.00,KP68 040053Z AUTO 33017G25KT 25/M08 A2999 RMK AO1 PK WND 30028/0031 SLP094 T02501078,M
DRA,2025-06-04 00:53,-116.0278,36.6206,1009.00,83.00,41.00,22.66,100.00,23.00,0.00,29.82,1005.40,10.00,33.00,CLR,M,M,M,M,M,M,M,M,M,M,M,35.00,120.00,2025-06-04 00:42,80.69,KDRA 040053Z AUTO 10023G33KT 10SM CLR 28/05 A2982 RMK AO2 PK WND 12035/0042 WSHFT 2351 SLP054 T02830050,M
ELY,2025-06-04 00:53,-114.8453,39.2950,1909.00,76.00,18.00,11.14,290.00,14.00,0.00,29.99,1008.40,10.00,20.00,CLR,M,M,M,M,M,M,M,M,M,M,M,26.00,330.00,2025-06-04 00:03,76.00,KELY 040053Z AUTO 29014G20KT 10SM CLR 24/M08 A2999 RMK AO2 PK WND 33026/0003 SLP084 T02441078,M
VGT,2025-06-04 00:53,-115.1933,36.2111,667.00,79.00,51.00,37.69,310.00,27.00,T,29.80,1008.80,10.00,40.00,FEW,SCT,SCT,M,4800.00,7000.00,8000.00,M,M,M,M,M,42.00,320.00,2025-06-04 00:27,79.00,KVGT 040053Z 31027G40KT 10SM FEW048 SCT070 SCT080 26/11 A2980 RMK AO2 PK WND 32042/0027 WSHFT 2359 LTG DSNT W RAE09 SLP088 P0000 T02610106,M
LOL,2025-06-04 00:53,-118.5701,40.0684,1192.43,83.00,23.00,10.96,330.00,7.00,0.00,29.94,1010.30,10.00,20.00,CLR,M,M,M,M,M,M,M,M,M,M,M,M,M,M,80.07,KLOL 040053Z AUTO 33007G20KT 10SM CLR 28/M05 A2994 RMK AO2 SLP103 T02831050,M
INS,2025-06-04 00:55,-115.6733,36.5872,955.00,77.00,44.80,31.90,140.00,17.00,0.00,29.84,1006.30,10.00,26.00,FEW,FEW,BKN,M,10000.00,12000.00,19000.00,M,M,M,M,M,32.00,130.00,2025-06-04 00:14,77.00,KINS 040055Z AUTO 14017G26KT 10SM FEW100 FEW120 BKN190 25/07 A2984 RMK AO2 PK WND 13032/14 LTG DSNT S AND W TSB2355E01 SLP063 T02500071 $,M
LSV,2025-06-04 00:55,-115.0343,36.2362,570.00,87.00,42.30,20.97,320.00,20.00,0.00,29.75,1004.90,10.00,M,FEW,BKN,M,M,10000.00,18000.00,M,M,M,M,M,M,33.00,330.00,2025-06-04 00:23,83.72,KLSV 040055Z 32020KT 10SM FEW100CB BKN180 31/06 A2975 RMK AO2A PK WND 33033/23 LTG DSNT W SLP049 T03050057 $,M
BVU,2025-06-04 00:55,-114.8611,35.9475,671.00,91.40,37.40,15.09,330.00,11.00,0.00,29.78,M,10.00,M,CLR,M,M,M,M,M,M,M,M,M,M,M,M,M,M,87.23,KBVU 040055Z AUTO 33011KT 10SM CLR 33/03 A2978 RMK AO2,M
RNO,2025-06-04 00:55,-119.7711,39.4839,1341.00,84.00,29.00,13.61,360.00,13.00,0.00,29.96,1009.10,10.00,23.00,FEW,M,M,M,10000.00,M,M,M,M,M,M,M,26.00,10.00,2025-06-04 00:39,81.11,KRNO 040055Z 36013G23KT 10SM FEW100 29/M02 A2996 RMK AO2 PK WND 01026/0039 SLP091 CB DSNT SE T02891017,M
BAM,2025-06-04 00:55,-116.8743,40.5990,1382.36,78.80,23.00,12.56,320.00,12.00,0.00,30.00,M,10.00,M,CLR,M,M,M,M,M,M,M,M,M,M,M,M,M,M,78.80,KBAM 040055Z AUTO 32012KT 10SM CLR 26/M05 A3000 RMK AO1,M
CXP,2025-06-04 00:55,-119.7326,39.1923,1431.00,80.60,39.20,22.84,270.00,15.00,0.00,29.99,M,10.00,M,CLR,M,M,M,M,M,M,M,M,M,M,M,M,M,M,79.11,KCXP 040055Z AUTO 27015KT 10SM CLR 27/04 A2999 RMK AO2,M
RTS,2025-06-04 00:55,-119.8764,39.6682,1539.00,78.80,23.00,12.56,340.00,17.00,0.00,30.02,M,10.00,23.00,CLR,M,M,M,M,M,M,M,M,M,M,M,M,M,M,78.80,KRTS 040055Z AUTO 34017G23KT 10SM CLR 26/M05 A3002 RMK AO2,M
MEV,2025-06-04 00:55,-119.7500,38.9963,1441.42,80.60,39.20,22.84,280.00,13.00,0.00,29.97,M,10.00,18.00,CLR,M,M,M,M,M,M,M,M,M,M,M,M,M,M,79.11,KMEV 040055Z AUTO 28013G18KT 10SM CLR 27/04 A2997 RMK AO2,M
HTH,2025-06-04 00:55,-118.6315,38.5448,1282.89,86.00,19.40,8.54,340.00,16.00,0.00,29.92,M,10.00,22.00,CLR,M,M,M,M,M,M,M,M,M,M,M,M,M,M,81.94,KHTH 040055Z AUTO 34016G22KT 10SM CLR 30/M07 A2992 RMK A01,M
EKO,2025-06-04 00:56,-115.7860,40.8242,1367.00,75.00,23.00,14.25,340.00,13.00,0.00,29.99,1012.30,10.00,19.00,CLR,M,M,M,M,M,M,M,M,M,M,M,M,M,M,75.00,KEKO 040056Z AUTO 34013G19KT 10SM CLR 24/M05 A2999 RMK AO2 SLP123 T02391050,M
WMC,2025-06-04 00:56,-117.8072,40.9019,1315.00,77.00,20.00,11.74,340.00,12.00,0.00,30.00,1012.50,10.00,20.00,CLR,M,M,M,M,M,M,M,M,M,M,M,M,M,M,77.00,KWMC 040056Z AUTO 34012G20KT 10SM CLR 25/M07 A3000 RMK AO2 SLP125 T02501067 TSNO,M
HND,2025-06-04 00:56,-115.1344,35.9729,742.79,82.00,53.00,36.80,330.00,17.00,0.00,29.85,1009.80,10.00,25.00,CLR,M,M,M,M,M,M,M,M,M,M,M,M,M,M,81.11,KHND 040056Z 33017G25KT 10SM CLR 28/12 A2985 RMK AO2 LTG DSNT NW PRESRR SLP098 T02780117 $,M
TPH,2025-06-04 00:56,-117.0904,38.0505,1654.00,82.00,31.00,15.75,320.00,17.00,0.00,29.95,1007.00,10.00,29.00,CLR,M,M,M,M,M,M,M,M,M,M,M,29.00,300.00,2025-06-04 00:48,79.71,KTPH 040056Z AUTO 32017G29KT 10SM CLR 28/M01 A2995 RMK AO2 PK WND 30029/0048 SLP070 T02781006,M
LAS,2025-06-04 00:56,-115.1634,36.0719,663.00,80.00,53.00,39.27,350.00,15.00,0.00,29.81,1007.30,10.00,29.00,FEW,SCT,SCT,OVC,3400.00,11000.00,16000.00,20000.00,M,M,M,M,34.00,340.00,2025-06-04 00:39,79.87,KLAS 040056Z 35015G29KT 10SM FEW034 SCT110CB SCT160 OVC200 27/12 A2981 RMK AO2 PK WND 34034/0039 LTG DSNT W AND NW SLP073 CB W-NW MOV E VCSH SW-NW AND DSNT N CB DSNT ALQDS T02670117 $,M
NFL,2025-06-04 00:57,-118.7010,39.4166,1199.00,86.00,19.00,8.40,350.00,10.00,0.00,29.91,1010.30,10.00,21.00,FEW,M,M,M,8000.00,M,M,M,M,M,M,M,M,M,M,81.92,KNFL 040057Z 35010G21KT 10SM FEW080 30/M07 A2991 RMK AO2 SLP103 CB DSNT SW T03001072,M
TMT,2025-06-04 01:10,-117.1971,39.4643,1749.34,75.00,22.60,14.01,320.00,10.00,0.00,30.03,M,10.00,M,CLR,M,M,M,M,M,M,M,M,M,M,M,M,M,M,75.00,KTMT 040110Z AUTO 32010KT 10SM CLR 24/M05 A3003 RMK AO2 T02391052,M
BVU,2025-06-04 01:15,-114.8611,35.9475,671.00,84.20,46.40,26.81,320.00,23.00,0.00,29.80,M,10.00,35.00,CLR,M,M,M,M,M,M,M,M,M,M,M,M,M,M,81.87,KBVU 040115Z AUTO 32023G35KT 10SM CLR 29/08 A2980 RMK AO2,M
BAM,2025-06-04 01:15,-116.8743,40.5990,1382.36,77.00,26.60,15.49,340.00,11.00,0.00,29.99,M,10.00,M,CLR,M,M,M,M,M,M,M,M,M,M,M,M,M,M,77.00,KBAM 040115Z AUTO 34011KT 10SM CLR 25/M03 A2999 RMK AO1,M
CXP,2025-06-04 01:15,-119.7326,39.1923,1431.00,80.60,41.00,24.49,260.00,9.00,0.00,29.98,M,10.00,14.00,CLR,M,M,M,M,M,M,M,M,M,M,M,M,M,M,79.20,KCXP 040115Z AUTO 26009G14KT 230V290 10SM CLR 27/05 A2998 RMK AO2,M
RTS,2025-06-04 01:15,-119.8764,39.6682,1539.00,78.80,23.00,12.56,360.00,20.00,0.00,30.01,M,10.00,28.00,CLR,M,M,M,M,M,M,M,M,M,M,M,M,M,M,78.80,KRTS 040115Z AUTO 36020G28KT 10SM CLR 26/M05 A3001 RMK AO2,M
MEV,2025-06-04 01:15,-119.7500,38.9963,1441.42,80.60,39.20,22.84,280.00,16.00,0.00,29.97,M,10.00,M,CLR,M,M,M,M,M,M,M,M,M,M,M,M,M,M,79.11,KMEV 040115Z AUTO 28016KT 10SM CLR 27/04 A2997 RMK AO2,M
HTH,2025-06-04 01:15,-118.6315,38.5448,1282.89,84.20,19.40,9.05,350.00,16.00,0.00,29.92,M,10.00,M,CLR,M,M,M,M,M,M,M,M,M,M,M,M,M,M,80.68,KHTH 040115Z AUTO 35016KT 10SM CLR 29/M07 A2992 RMK A01,M
LAS,2025-06-04 01:16,-115.1634,36.0719,663.00,82.00,50.00,32.94,330.00,26.00,0.00,29.80,M,10.00,36.00,SCT,BKN,OVC,M,11000.00,16000.00,20000.00,M,TS,M,M,M,36.00,320.00,2025-06-04 01:15,80.73,KLAS 040116Z 33026G36KT 10SM TS SCT110CB BKN160 OVC200 28/10 A2980 RMK AO2 PK WND 32036/0115 LTG DSNT W TSE11B16 OCNL LTGICCG SW-NW TS SW-NW MOV E VCSH W-N CB DSNT ALQDS T02780100 $,M
HND,2025-06-04 01:17,-115.1344,35.9729,742.79,78.80,53.60,41.75,270.00,4.00,0.00,29.86,M,10.00,M,CLR,M,M,M,M,M,M,M,VCTS,M,M,M,M,M,M,78.80,KHND 040117Z 27004KT 10SM VCTS CLR 26/12 A2986 RMK AO2 LTG DSNT NW TSB11 $,M
TMT,2025-06-04 01:30,-117.1971,39.4643,1749.34,74.30,23.50,14.89,340.00,16.00,0.00,30.03,M,10.00,20.00,CLR,M,M,M,M,M,M,M,M,M,M,M,M,M,M,74.30,KTMT 040130Z AUTO 34016G20KT 10SM CLR 24/M05 A3003 RMK AO2 T02351047,M
HND,2025-06-04 01:32,-115.1344,35.9729,742.79,78.80,51.80,39.08,0.00,0.00,0.00,29.86,M,10.00,M,CLR,M,M,M,M,M,M,M,M,M,M,M,M,M,M,78.80,KHND 040132Z 00000KT 10SM CLR 26/11 A2986 RMK AO2 LTG DSNT W AND NW TSB11E26 $,M
BVU,2025-06-04 01:35,-114.8611,35.9475,671.00,84.20,44.60,25.04,320.00,19.00,0.00,29.79,M,10.00,29.00,CLR,M,M,M,M,M,M,M,TS,M,M,M,M,M,M,81.73,KBVU 040135Z AUTO 32019G29KT 10SM TS CLR 29/07 A2979 RMK AO2 LTG DSNT S AND W,M
BAM,2025-06-04 01:35,-116.8743,40.5990,1382.36,77.00,26.60,15.49,340.00,14.00,0.00,29.99,M,10.00,M,CLR,M,M,M,M,M,M,M,M,M,M,M,M,M,M,77.00,KBAM 040135Z AUTO 34014KT 10SM CLR 25/M03 A2999 RMK AO1,M
CXP,2025-06-04 01:35,-119.7326,39.1923,1431.00,78.80,41.00,25.98,280.00,10.00,0.00,29.98,M,10.00,M,CLR,M,M,M,M,M,M,M,M,M,M,M,M,M,M,78.80,KCXP 040135Z AUTO 28010KT 10SM CLR 26/05 A2998 RMK AO2,M
RTS,2025-06-04 01:35,-119.8764,39.6682,1539.00,78.80,21.20,11.64,350.00,18.00,0.00,30.02,M,10.00,26.00,CLR,M,M,M,M,M,M,M,M,M,M,M,M,M,M,78.80,KRTS 040135Z AUTO 35018G26KT 10SM CLR 26/M06 A3002 RMK AO2,M
MEV,2025-06-04 01:35,-119.7500,38.9963,1441.42,78.80,39.20,24.22,270.00,12.00,0.00,29.97,M,10.00,19.00,CLR,M,M,M,M,M,M,M,M,M,M,M,M,M,M,78.80,KMEV 040135Z AUTO 27012G19KT 10SM CLR 26/04 A2997 RMK AO2,M
HTH,2025-06-04 01:35,-118.6315,38.5448,1282.89,84.20,19.40,9.05,360.00,13.00,0.00,29.92,M,10.00,23.00,CLR,M,M,M,M,M,M,M,M,M,M,M,M,M,M,80.68,KHTH 040135Z AUTO 36013G23KT 10SM CLR 29/M07 A2992 RMK A01,M
DRA,2025-06-04 01:43,-116.0278,36.6206,1009.00,82.00,42.00,24.33,340.00,10.00,0.00,29.86,M,10.00,19.00,OVC,M,M,M,11000.00,M,M,M,M,M,M,M,33.00,110.00,2025-06-04 00:57,80.09,KDRA 040143Z AUTO 34010G19KT 10SM OVC110 28/06 A2986 RMK AO2 PK WND 11033/0057 WSHFT 0126 T02780056,M
TMT,2025-06-04 01:50,-117.1971,39.4643,1749.34,73.20,24.00,15.78,340.00,14.00,0.00,30.03,M,10.00,19.00,CLR,M,M,M,M,M,M,M,M,M,M,M,M,M,M,73.20,KTMT 040150Z AUTO 34014G19KT 10SM CLR 23/M04 A3003 RMK AO2 T02291044,M
P68,2025-06-04 01:53,-116.0056,39.6014,1993.00,73.00,25.00,16.56,360.00,10.00,0.00,30.00,1008.80,M,20.00,M,M,M,M,M,M,M,M,M,M,M,M,M,M,M,73.00,KP68 040153Z AUTO 36010G20KT 23/M04 A3000 RMK AO1 SLP088 T02281039,M
DRA,2025-06-04 01:53,-116.0278,36.6206,1009.00,82.00,40.00,22.51,M,M,0.00,29.87,1006.60,10.00,M,BKN,OVC,M,M,10000.00,12000.00,M,M,M,M,M,M,33.00,110.00,2025-06-04 00:57,79.99,KDRA 040153Z AUTO 10SM BKN100 OVC120 28/04 A2987 RMK AO2 PK WND 11033/0057 WSHFT 0126 SLP066 T02780044,M
ELY,2025-06-04 01:53,-114.8453,39.2950,1909.00,74.00,19.00,12.43,330.00,12.00,0.00,29.99,1007.30,10.00,M,CLR,M,M,M,M,M,M,M,M,M,M,M,M,M,M,74.00,KELY 040153Z AUTO 33012KT 10SM CLR 23/M07 A2999 RMK AO2 SLP073 T02331072,M
VGT,2025-06-04 01:53,-115.1933,36.2111,667.00,82.00,48.00,30.56,230.00,6.00,T,29.77,1007.50,10.00,26.00,FEW,FEW,OVC,M,3600.00,8000.00,11000.00,M,-RA,M,M,M,36.00,310.00,2025-06-04 00:56,80.53,KVGT 040153Z 23006G26KT 10SM -RA FEW036 FEW080 OVC110 28/09 A2977 RMK AO2 PK WND 31036/0056 RAB15 PRESFR SLP075 P0000 T02780089,M
LOL,2025-06-04 01:53,-118.5701,40.0684,1192.43,81.00,24.00,12.19,10.00,15.00,0.00,29.93,1010.10,10.00,22.00,CLR,M,M,M,M,M,M,M,M,M,M,M,M,M,M,78.82,KLOL 040153Z AUTO 01015G22KT 10SM CLR 27/M04 A2993 RMK AO2 SLP101 T02721044,M
INS,2025-06-04 01:55,-115.6733,36.5872,955.00,80.80,40.60,23.96,0.00,0.00,0.00,29.83,1005.50,10.00,M,FEW,M,M,M,13000.00,M,M,M,M,M,M,M,M,M,M,79.29,KINS 040155Z AUTO 00000KT 10SM FEW130 27/05 A2983 RMK AO2 LTG DSNT SW-W SLP055 T02710048 $,M
LSV,2025-06-04 01:55,-115.0343,36.2362,570.00,85.00,45.00,24.78,290.00,9.00,0.00,29.74,1004.60,10.00,M,SCT,BKN,M,M,11000.00,18000.00,M,M,M,M,M,M,31.00,290.00,2025-06-04 01:14,82.34,KLSV 040155Z 29009KT 10SM SCT110 BKN180 29/07 A2974 RMK AO2A PK WND 29031/14 SLP046 T02940073 $,M
BVU,2025-06-04 01:55,-114.8611,35.9475,671.00,82.40,44.60,26.53,340.00,19.00,0.00,29.77,M,10.00,26.00,CLR,M,M,M,M,M,M,M,M,M,M,M,M,M,M,80.51,KBVU 040155Z AUTO 34019G26KT 10SM CLR 28/07 A2977 RMK AO2,M
RNO,2025-06-04 01:55,-119.7711,39.4839,1341.00,83.00,24.00,11.43,350.00,18.00,0.00,29.96,1009.20,10.00,25.00,FEW,M,M,M,10000.00,M,M,M,M,M,M,M,26.00,350.00,2025-06-04 01:34,80.13,KRNO 040155Z 35018G25KT 10SM FEW100 28/M04 A2996 RMK AO2 PK WND 35026/0134 SLP092 CB DSNT SE T02831044,M
BAM,2025-06-04 01:55,-116.8743,40.5990,1382.36,77.00,26.60,15.49,310.00,10.00,0.00,30.00,M,10.00,M,CLR,M,M,M,M,M,M,M,M,M,M,M,M,M,M,77.00,KBAM 040155Z AUTO 31010KT 10SM CLR 25/M03 A3000 RMK AO1,M
CXP,2025-06-04 01:55,-119.7326,39.1923,1431.00,77.00,41.00,27.57,240.00,10.00,0.00,29.99,M,10.00,16.00,CLR,M,M,M,M,M,M,M,M,M,M,M,M,M,M,77.00,KCXP 040155Z AUTO 24010G16KT 10SM CLR 25/05 A2999 RMK AO2,M
RTS,2025-06-04 01:55,-119.8764,39.6682,1539.00,77.00,24.80,14.37,360.00,17.00,0.00,30.02,M,10.00,23.00,CLR,M,M,M,M,M,M,M,M,M,M,M,M,M,M,77.00,KRTS 040155Z AUTO 36017G23KT 10SM CLR 25/M04 A3002 RMK AO2,M
MEV,2025-06-04 01:55,-119.7500,38.9963,1441.42,78.80,41.00,25.98,290.00,13.00,0.00,29.97,M,10.00,M,CLR,M,M,M,M,M,M,M,M,M,M,M,M,M,M,78.80,KMEV 040155Z AUTO 29013KT 10SM CLR 26/05 A2997 RMK AO2,M
HTH,2025-06-04 01:55,-118.6315,38.5448,1282.89,84.20,21.20,9.77,330.00,12.00,0.00,29.92,M,10.00,19.00,CLR,M,M,M,M,M,M,M,M,M,M,M,M,M,M,80.78,KHTH 040155Z AUTO 33012G19KT 10SM CLR 29/M06 A2992 RMK A01,M
EKO,2025-06-04 01:56,-115.7860,40.8242,1367.00,71.00,21.00,14.98,340.00,13.00,0.00,30.00,1012.50,10.00,M,CLR,M,M,M,M,M,M,M,M,M,M,M,M,M,M,71.00,KEKO 040156Z AUTO 34013KT 10SM CLR 22/M06 A3000 RMK AO2 SLP125 T02171061,M
WMC,2025-06-04 01:56,-117.8072,40.9019,1315.00,74.00,22.00,14.12,350.00,13.00,0.00,30.00,1012.00,10.00,M,CLR,M,M,M,M,M,M,M,M,M,M,M,M,M,M,74.00,KWMC 040156Z AUTO 35013KT 10SM CLR 23/M06 A3000 RMK AO2 SLP120 T02331056 TSNO,M
HND,2025-06-04 01:56,-115.1344,35.9729,742.79,82.00,45.00,27.29,300.00,10.00,0.00,29.84,1009.30,10.00,17.00,CLR,M,M,M,M,M,M,M,M,M,M,M,M,M,M,80.28,KHND 040156Z 30010G17KT 10SM CLR 28/07 A2984 RMK AO2 TSB11E26 SLP093 T02780072 $,M
TPH,2025-06-04 01:56,-117.0904,38.0505,1654.00,81.00,30.00,15.62,330.00,14.00,0.00,29.95,1006.50,10.00,M,CLR,M,M,M,M,M,M,M,M,M,M,M,28.00,340.00,2025-06-04 01:00,79.02,KTPH 040156Z AUTO 33014KT 10SM CLR 27/M01 A2995 RMK AO2 PK WND 34028/0100 SLP065 T02721011,M
LAS,2025-06-04 01:56,-115.1634,36.0719,663.00,81.00,50.00,34.02,260.00,16.00,T,29.80,1006.80,10.00,28.00,SCT,SCT,SCT,BKN,4700.00,7000.00,11000.00,16000.00,-TSRA,M,M,M,36.00,320.00,2025-06-04 01:15,80.12,KLAS 040156Z 26016G28KT 10SM -TSRA SCT047 SCT070 SCT110CB BKN160 OVC200 27/10 A2980 RMK AO2 PK WND 32036/0115 RAB50 TSE11B16 SLP068 OCNL LTGICCG SW-W TS SW-W MOV E CB DSNT S-W-N P0000 T02720100 $,M
NFL,2025-06-04 01:57,-118.7010,39.4166,1199.00,84.00,24.00,11.07,350.00,14.00,0.00,29.91,1010.40,10.00,21.00,CLR,M,M,M,M,M,M,M,M,M,M,M,M,M,M,80.81,KNFL 040157Z 35014G21KT 10SM CLR 29/M04 A2991 RMK AO2 SLP104 T02891044,M
TMT,2025-06-04 02:10,-117.1971,39.4643,1749.34,72.00,23.00,15.75,340.00,12.00,0.00,30.03,M,10.00,M,CLR,M,M,M,M,M,M,M,M,M,M,M,M,M,M,72.00,KTMT 040210Z AUTO 34012KT 10SM CLR 22/M05 A3003 RMK AO2 T02221049,M
LAS,2025-06-04 02:14,-115.1634,36.0719,663.00,81.00,52.00,36.64,270.00,8.00,T,29.77,M,10.00,M,FEW,SCT,SCT,BKN,4700.00,7000.00,11000.00,16000.00,-TSRA,M,M,M,M,M,M,80.34,KLAS 040214Z 27008KT 10SM -TSRA FEW047 SCT070 SCT110CB BKN160 OVC200 27/11 A2977 RMK AO2 LTG DSNT W OCNL LTGICCG SW-W TS SW-W MOV E CB DSNT S-W-N P0000 T02720111 $,M
BVU,2025-06-04 02:15,-114.8611,35.9475,671.00,82.40,44.60,26.53,330.00,13.00,0.00,29.77,M,10.00,19.00,CLR,M,M,M,M,M,M,M,TS,M,M,M,M,M,M,80.51,KBVU 040215Z AUTO 33013G19KT 10SM TS CLR 28/07 A2977 RMK AO2 LTG DSNT E,M
CXP,2025-06-04 02:15,-119.7326,39.1923,1431.00,78.80,37.40,22.57,320.00,11.00,0.00,29.99,M,10.00,18.00,SCT,M,M,M,11000.00,M,M,M,M,M,M,M,M,M,M,78.80,KCXP 040215Z AUTO 32011G18KT 10SM SCT110 26/03 A2999 RMK AO2,M
RTS,2025-06-04 02:15,-119.8764,39.6682,1539.00,77.00,24.80,14.37,350.00,16.00,0.00,30.02,M,10.00,M,CLR,M,M,M,M,M,M,M,M,M,M,M,M,M,M,77.00,KRTS 040215Z AUTO 35016KT 10SM CLR 25/M04 A3002 RMK AO2,M
MEV,2025-06-04 02:15,-119.7500,38.9963,1441.42,77.00,41.00,27.57,290.00,11.00,0.00,29.97,M,10.00,19.00,CLR,M,M,M,M,M,M,M,M,M,M,M,M,M,M,77.00,KMEV 040215Z AUTO 29011G19KT 10SM CLR 25/05 A2997 RMK AO2,M
BAM,2025-06-04 02:15,-116.8743,40.5990,1382.36,77.00,24.80,14.37,330.00,11.00,0.00,30.00,M,10.00,M,CLR,M,M,M,M,M,M,M,M,M,M,M,M,M,M,77.00,KBAM 040215Z AUTO 33011KT 10SM CLR 25/M04 A3000 RMK AO1,M
HTH,2025-06-04 02:15,-118.6315,38.5448,1282.89,82.40,21.20,10.35,330.00,13.00,0.00,29.92,M,10.00,18.00,CLR,M,M,M,M,M,M,M,M,M,M,M,M,M,M,79.56,KHTH 040215Z AUTO 33013G18KT 10SM CLR 28/M06 A2992 RMK A01,M
LAS,2025-06-04 02:24,-115.1634,36.0719,663.00,82.00,52.00,35.47,240.00,6.00,T,29.77,M,10.00,M,FEW,FEW,SCT,OVC,6500.00,11000.00,16000.00,20000.00,M,M,M,M,M,M,M,80.97,KLAS 040224Z 24006KT 10SM FEW065 FEW110 SCT160 OVC200 28/11 A2977 RMK AO2 RAE16 TSE24 TS DSIPTD P0000 T02780111 $,M
TMT,2025-06-04 02:30,-117.1971,39.4643,1749.34,71.00,22.50,15.96,350.00,12.00,0.00,30.04,M,10.00,M,CLR,M,M,M,M,M,M,M,M,M,M,M,M,M,M,71.00,KTMT 040230Z AUTO 35012KT 10SM CLR 22/M05 A3004 RMK AO2 T02161053,M
BVU,2025-06-04 02:35,-114.8611,35.9475,671.00,84.20,41.00,21.80,310.00,13.00,0.00,29.76,M,10.00,18.00,CLR,M,M,M,M,M,M,M,M,M,M,M,M,M,M,81.52,KBVU 040235Z AUTO 31013G18KT 10SM CLR 29/05 A2976 RMK AO2,M
BAM,2025-06-04 02:35,-116.8743,40.5990,1382.36,73.40,26.60,17.46,330.00,11.00,0.00,30.00,M,10.00,M,CLR,M,M,M,M,M,M,M,M,M,M,M,M,M,M,73.40,KBAM 040235Z AUTO 33011KT 10SM CLR 23/M03 A3000 RMK AO1,M
CXP,2025-06-04 02:35,-119.7326,39.1923,1431.00,77.00,41.00,27.57,300.00,6.00,0.00,30.00,M,10.00,14.00,BKN,M,M,M,11000.00,M,M,M,M,M,M,M,M,M,M,77.00,KCXP 040235Z AUTO 30006G14KT 10SM BKN110 25/05 A3000 RMK AO2,M
RTS,2025-06-04 02:35,-119.8764,39.6682,1539.00,77.00,24.80,14.37,350.00,13.00,0.00,30.02,M,10.00,18.00,CLR,M,M,M,M,M,M,M,M,M,M,M,M,M,M,77.00,KRTS 040235Z AUTO 35013G18KT 10SM CLR 25/M04 A3002 RMK AO2,M
MEV,2025-06-04 02:35,-119.7500,38.9963,1441.42,75.20,42.80,31.37,300.00,7.00,0.00,29.98,M,10.00,M,CLR,M,M,M,M,M,M,M,M,M,M,M,M,M,M,75.20,KMEV 040235Z AUTO 30007KT 10SM CLR 24/06 A2998 RMK AO2,M
HTH,2025-06-04 02:35,-118.6315,38.5448,1282.89,82.40,19.40,9.59,360.00,12.00,0.00,29.93,M,10.00,17.00,CLR,M,M,M,M,M,M,M,M,M,M,M,M,M,M,79.45,KHTH 040235Z AUTO 36012G17KT 10SM CLR 28/M07 A2993 RMK A01,M
DRA,2025-06-04 02:42,-116.0278,36.6206,1009.00,75.00,48.00,38.47,200.00,20.00,0.00,29.82,M,10.00,36.00,FEW,SCT,OVC,M,5500.00,7500.00,11000.00,M,M,M,M,M,38.00,320.00,2025-06-04 02:00,75.00,KDRA 040242Z AUTO 20020G36KT 10SM FEW055 SCT075 OVC110 24/09 A2982 RMK AO2 PK WND 32038/0200 WSHFT 0225 T02390089,M
TMT,2025-06-04 02:50,-117.1971,39.4643,1749.34,69.00,22.00,16.73,350.00,8.00,0.00,30.04,M,10.00,M,CLR,M,M,M,M,M,M,M,M,M,M,M,M,M,M,69.00,KTMT 040250Z AUTO 35008KT 10SM CLR 21/M06 A3004 RMK AO2 T02061056,M
P68,2025-06-04 02:53,-116.0056,39.6014,1993.00,66.00,25.00,21.04,350.00,11.00,0.00,30.02,1009.50,M,M,M,M,M,M,M,M,M,M,M,M,M,M,M,M,M,66.00,KP68 040253Z AUTO 35011KT 19/M04 A3002 RMK AO1 SLP095 T01891039 53003,M
DRA,2025-06-04 02:53,-116.0278,36.6206,1009.00,75.00,46.00,35.68,210.00,22.00,0.00,29.83,1005.40,10.00,35.00,FEW,FEW,BKN,M,5500.00,7500.00,11000.00,M,M,M,M,M,38.00,320.00,2025-06-04 02:00,75.00,KDRA 040253Z AUTO 21022G35KT 10SM FEW055 FEW075 BKN110 24/08 A2983 RMK AO2 PK WND 32038/0200 WSHFT 0225 SLP054 T02390078 58003,M
ELY,2025-06-04 02:53,-114.8453,39.2950,1909.00,68.00,21.00,16.59,360.00,12.00,0.00,30.01,1007.80,10.00,M,CLR,M,M,M,M,M,M,M,M,M,M,M,M,M,M,68.00,KELY 040253Z AUTO 36012KT 10SM CLR 20/M06 A3001 RMK AO2 SLP078 T02001061 53002,M
VGT,2025-06-04 02:53,-115.1933,36.2111,667.00,81.00,50.00,34.02,270.00,6.00,T,29.76,1007.00,10.00,M,CLR,M,M,M,M,M,M,M,M,M,M,M,M,M,M,80.12,KVGT 040253Z 27006KT 10SM CLR 27/10 A2976 RMK AO2 RAE06 SLP070 P0000 60000 T02720100 58007,M
LOL,2025-06-04 02:53,-118.5701,40.0684,1192.43,78.00,23.00,12.90,20.00,11.00,0.00,29.94,1010.10,10.00,M,CLR,M,M,M,M,M,M,M,M,M,M,M,M,M,M,78.00,KLOL 040253Z AUTO 02011KT 10SM CLR 26/M05 A2994 RMK AO2 SLP101 T02561050 55002,M
INS,2025-06-04 02:55,-115.6733,36.5872,955.00,76.30,46.00,34.17,0.00,0.00,0.00,29.83,1005.30,10.00,M,FEW,SCT,M,M,12000.00,21000.00,M,M,M,M,M,M,M,M,M,76.30,KINS 040255Z AUTO 00000KT 10SM FEW120 SCT210 25/08 A2983 RMK AO2 LTG DSNT SW-W SLP053 T02460077 55008 $,M
LSV,2025-06-04 02:55,-115.0343,36.2362,570.00,86.00,42.60,21.90,300.00,10.00,0.00,29.71,1003.40,10.00,M,BKN,M,M,M,17000.00,M,M,M,M,M,M,M,M,M,M,82.95,KLSV 040255Z 30010KT 10SM BKN170 30/06 A2971 RMK AO2A SLP034 T02990059 58006 $,M
BVU,2025-06-04 02:55,-114.8611,35.9475,671.00,84.20,39.20,20.33,320.00,10.00,0.00,29.75,M,10.00,M,CLR,M,M,M,M,M,M,M,M,M,M,M,M,M,M,81.44,KBVU 040255Z AUTO 32010KT 10SM CLR 29/04 A2975 RMK AO2,M
RNO,2025-06-04 02:55,-119.7711,39.4839,1341.00,80.00,27.00,14.27,360.00,12.00,0.00,29.97,1009.50,10.00,M,FEW,FEW,M,M,9000.00,14000.00,M,M,M,M,M,M,M,M,M,78.37,KRNO 040255Z 36012KT 10SM FEW090 FEW140 27/M03 A2997 RMK AO2 SLP095 T02671028 55000,M
BAM,2025-06-04 02:55,-116.8743,40.5990,1382.36,71.60,26.60,18.56,350.00,7.00,0.00,30.01,M,10.00,M,CLR,M,M,M,M,M,M,M,M,M,M,M,M,M,M,71.60,KBAM 040255Z AUTO 35007KT 10SM CLR 22/M03 A3001 RMK AO1,M
CXP,2025-06-04 02:55,-119.7326,39.1923,1431.00,77.00,41.00,27.57,290.00,7.00,0.00,30.00,M,10.00,M,FEW,M,M,M,11000.00,M,M,M,M,M,M,M,M,M,M,77.00,KCXP 040255Z AUTO 29007KT 10SM FEW110 25/05 A3000 RMK AO2,M
RTS,2025-06-04 02:55,-119.8764,39.6682,1539.00,75.20,24.80,15.26,360.00,10.00,0.00,30.02,M,10.00,M,CLR,M,M,M,M,M,M,M,M,M,M,M,M,M,M,75.20,KRTS 040255Z AUTO 36010KT 10SM CLR 24/M04 A3002 RMK AO2,M
MEV,2025-06-04 02:55,-119.7500,38.9963,1441.42,73.40,42.80,33.31,300.00,8.00,0.00,29.98,M,10.00,M,CLR,M,M,M,M,M,M,M,M,M,M,M,M,M,M,73.40,KMEV 040255Z AUTO 30008KT 10SM CLR 23/06 A2998 RMK AO2,M
HTH,2025-06-04 02:55,-118.6315,38.5448,1282.89,80.60,24.80,12.77,320.00,9.00,0.00,29.94,M,10.00,17.00,CLR,M,M,M,M,M,M,M,M,M,M,M,M,M,M,78.94,KHTH 040255Z AUTO 32009G17KT 10SM CLR 27/M04 A2994 RMK A01,M
LAS,2025-06-04 02:56,-115.1634,36.0719,663.00,82.00,48.00,30.56,100.00,7.00,T,29.78,1005.90,10.00,M,FEW,FEW,SCT,OVC,6500.00,11000.00,16000.00,20000.00,M,M,M,M,M,M,M,80.53,KLAS 040256Z 10007KT 10SM FEW065 FEW110 SCT160 OVC200 28/09 A2978 RMK AO2 RAE16 TSE24 SLP059 TS DSIPTD P0000 60000 T02780089 58002 $,M
EKO,2025-06-04 02:56,-115.7860,40.8242,1367.00,66.00,21.00,17.78,60.00,8.00,0.00,30.02,1012.90,10.00,M,CLR,M,M,M,M,M,M,M,M,M,M,M,M,M,M,66.00,KEKO 040256Z AUTO 06008KT 10SM CLR 19/M06 A3002 RMK AO2 SLP129 T01891061 53005,M
WMC,2025-06-04 02:56,-117.8072,40.9019,1315.00,70.00,23.00,16.86,350.00,11.00,0.00,30.01,1012.40,10.00,M,CLR,M,M,M,M,M,M,M,M,M,M,M,M,M,M,70.00,KWMC 040256Z AUTO 35011KT 10SM CLR 21/M05 A3001 RMK AO2 SLP124 T02111050 53002 TSNO,M
HND,2025-06-04 02:56,-115.1344,35.9729,742.79,78.00,52.00,40.42,220.00,4.00,0.00,29.82,1008.80,10.00,M,CLR,M,M,M,M,M,M,M,M,M,M,M,M,M,M,78.00,KHND 040256Z 22004KT 10SM CLR 26/11 A2982 RMK AO2 SLP088 T02560111 50009 $,M
TPH,2025-06-04 02:56,-117.0904,38.0505,1654.00,77.00,26.00,15.11,320.00,16.00,0.00,29.96,1006.80,10.00,21.00,CLR,M,M,M,M,M,M,M,M,M,M,M,M,M,M,77.00,KTPH 040256Z AUTO 32016G21KT 10SM CLR 25/M03 A2996 RMK AO2 SLP068 T02501033 55001,M
NFL,2025-06-04 02:57,-118.7010,39.4166,1199.00,79.00,25.00,13.57,10.00,8.00,0.00,29.92,1010.40,9.00,M,FEW,M,M,M,8000.00,M,M,M,M,M,M,M,M,M,M,79.00,KNFL 040257Z 01008KT 9SM FEW080 26/M04 A2992 RMK AO2 SLP104 T02611039 55004,M
TMT,2025-06-04 03:10,-117.1971,39.4643,1749.34,65.50,22.00,18.87,340.00,8.00,0.00,30.05,M,10.00,M,CLR,M,M,M,M,M,M,M,M,M,M,M,M,M,M,65.50,KTMT 040310Z AUTO 34008KT 10SM CLR 19/M06 A3005 RMK AO2 T01861056,M
BVU,2025-06-04 03:15,-114.8611,35.9475,671.00,84.20,39.20,20.33,330.00,11.00,0.00,29.76,M,10.00,M,CLR,M,M,M,M,M,M,M,M,M,M,M,M,M,M,81.44,KBVU 040315Z AUTO 33011KT 10SM CLR 29/04 A2976 RMK AO2,M
BAM,2025-06-04 03:15,-116.8743,40.5990,1382.36,69.80,26.60,19.73,30.00,9.00,0.00,30.01,M,10.00,M,CLR,M,M,M,M,M,M,M,M,M,M,M,M,M,M,69.80,KBAM 040315Z AUTO 03009KT 10SM CLR 21/M03 A3001 RMK AO1,M
CXP,2025-06-04 03:15,-119.7326,39.1923,1431.00,75.20,42.80,31.37,280.00,6.00,0.00,30.00,M,10.00,13.00,FEW,M,M,M,1600.00,M,M,M,M,M,M,M,M,M,M,75.20,KCXP 040315Z AUTO 28006G13KT 10SM FEW016 24/06 A3000 RMK AO2,M
RTS,2025-06-04 03:15,-119.8764,39.6682,1539.00,73.40,24.80,16.21,350.00,10.00,0.00,30.03,M,10.00,15.00,CLR,M,M,M,M,M,M,M,M,M,M,M,M,M,M,73.40,KRTS 040315Z AUTO 35010G15KT 10SM CLR 23/M04 A3003 RMK AO2,M
MEV,2025-06-04 03:15,-119.7500,38.9963,1441.42,73.40,42.80,33.31,330.00,8.00,0.00,29.98,M,10.00,15.00,CLR,M,M,M,M,M,M,M,M,M,M,M,M,M,M,73.40,KMEV 040315Z AUTO 33008G15KT 10SM CLR 23/06 A2998 RMK AO2,M
HTH,2025-06-04 03:15,-118.6315,38.5448,1282.89,77.00,33.80,20.76,310.00,8.00,0.00,29.94,M,10.00,M,M,M,M,M,M,M,M,M,M,M,M,M,M,M,M,77.00,KHTH 040315Z AUTO 31008KT 10SM 25/01 A2994 RMK A01,M
TMT,2025-06-04 03:30,-117.1971,39.4643,1749.34,63.00,22.00,20.59,350.00,6.00,0.00,30.05,M,10.00,M,CLR,M,M,M,M,M,M,M,M,M,M,M,M,M,M,63.00,KTMT 040330Z AUTO 35006KT 10SM CLR 17/M05 A3005 RMK AO2 T01721055,M
BVU,2025-06-04 03:35,-114.8611,35.9475,671.00,84.20,41.00,21.80,M,5.00,0.00,29.77,M,10.00,M,CLR,M,M,M,M,M,M,M,M,M,M,M,M,M,M,81.52,KBVU 040335Z AUTO VRB05KT 10SM CLR 29/05 A2977 RMK AO2,M
BAM,2025-06-04 03:35,-116.8743,40.5990,1382.36,64.40,26.60,23.77,40.00,3.00,0.00,30.02,M,10.00,M,CLR,M,M,M,M,M,M,M,M,M,M,M,M,M,M,64.40,KBAM 040335Z AUTO 04003KT 10SM CLR 18/M03 A3002 RMK AO1,M
CXP,2025-06-04 03:35,-119.7326,39.1923,1431.00,75.20,42.80,31.37,260.00,5.00,0.00,30.01,M,10.00,M,CLR,M,M,M,M,M,M,M,M,M,M,M,M,M,M,75.20,KCXP 040335Z AUTO 26005KT 10SM CLR 24/06 A3001 RMK AO2,M
RTS,2025-06-04 03:35,-119.8764,39.6682,1539.00,71.60,23.00,15.97,350.00,9.00,0.00,30.03,M,10.00,M,CLR,M,M,M,M,M,M,M,M,M,M,M,M,M,M,71.60,KRTS 040335Z AUTO 35009KT 10SM CLR 22/M05 A3003 RMK AO2,M
MEV,2025-06-04 03:35,-119.7500,38.9963,1441.42,71.60,42.80,35.40,320.00,11.00,0.00,29.98,M,10.00,M,CLR,M,M,M,M,M,M,M,M,M,M,M,M,M,M,71.60,KMEV 040335Z AUTO 32011KT 10SM CLR 22/06 A2998 RMK AO2,M
HTH,2025-06-04 03:35,-118.6315,38.5448,1282.89,75.20,33.80,22.04,320.00,8.00,0.00,29.94,M,10.00,M,CLR,M,M,M,M,M,M,M,M,M,M,M,M,M,M,75.20,KHTH 040335Z AUTO 32008KT 10SM CLR 24/01 A2994 RMK A01,M
TMT,2025-06-04 03:50,-117.1971,39.4643,1749.34,60.00,22.00,22.90,360.00,9.00,0.00,30.05,M,10.00,M,CLR,M,M,M,M,M,M,M,M,M,M,M,M,M,M,60.00,KTMT 040350Z AUTO 36009KT 10SM CLR 16/M05 A3005 RMK AO2 T01561055,M
P68,2025-06-04 03:53,-116.0056,39.6014,1993.00,62.00,20.00,19.59,340.00,8.00,0.00,30.04,1010.30,M,M,M,M,M,M,M,M,M,M,M,M,M,M,M,M,M,62.00,KP68 040353Z AUTO 34008KT 17/M07 A3004 RMK AO1 SLP103 T01671067,M
DRA,2025-06-04 03:53,-116.0278,36.6206,1009.00,74.00,47.00,38.31,230.00,33.00,0.00,29.84,1006.00,10.00,55.00,FEW,BKN,M,M,8500.00,11000.00,M,M,M,M,M,M,55.00,230.00,2025-06-04 03:45,74.00,KDRA 040353Z AUTO 23033G55KT 10SM FEW085 BKN110 23/08 A2984 RMK AO2 PK WND 23055/0345 SLP060 T02330083,M
ELY,2025-06-04 03:53,-114.8453,39.2950,1909.00,62.00,21.00,20.45,20.00,10.00,0.00,30.03,1008.30,10.00,M,CLR,M,M,M,M,M,M,M,M,M,M,M,M,M,M,62.00,KELY 040353Z AUTO 02010KT 10SM CLR 17/M06 A3003 RMK AO2 SLP083 T01671061,M
VGT,2025-06-04 03:53,-115.1933,36.2111,667.00,81.00,47.00,30.41,0.00,0.00,0.00,29.77,1007.30,10.00,M,CLR,M,M,M,M,M,M,M,M,M,M,M,M,M,M,79.84,KVGT 040353Z 00000KT 10SM CLR 27/08 A2977 RMK AO2 SLP073 T02720083,M
LOL,2025-06-04 03:53,-118.5701,40.0684,1192.43,73.00,22.00,14.60,20.00,15.00,0.00,29.96,1010.80,10.00,22.00,CLR,M,M,M,M,M,M,M,M,M,M,M,M,M,M,73.00,KLOL 040353Z AUTO 02015G22KT 10SM CLR 23/M06 A2996 RMK AO2 SLP108 T02281056,M
INS,2025-06-04 03:55,-115.6733,36.5872,955.00,77.40,42.60,28.94,250.00,5.00,0.00,29.84,1005.60,10.00,M,CLR,M,M,M,M,M,M,M,M,M,M,M,M,M,M,77.40,KINS 040355Z AUTO 25005KT 10SM CLR 25/06 A2984 RMK AO2 LTG DSNT SW SLP056 T02520059 $,M
LSV,2025-06-04 03:55,-115.0343,36.2362,570.00,84.20,42.40,23.01,200.00,5.00,0.00,29.71,1003.40,10.00,M,BKN,OVC,M,M,16000.00,20000.00,M,M,M,M,M,M,M,M,M,81.59,KLSV 040355Z 20005KT 10SM BKN160 OVC200 29/06 A2971 RMK AO2A SLP034 T02900058 $,M
BVU,2025-06-04 03:55,-114.8611,35.9475,671.00,82.40,41.00,23.10,180.00,6.00,0.00,29.78,M,10.00,M,CLR,M,M,M,M,M,M,M,M,M,M,M,M,M,M,80.29,KBVU 040355Z AUTO 18006KT 10SM CLR 28/05 A2978 RMK AO2 LTG DSNT SE,M
RNO,2025-06-04 03:55,-119.7711,39.4839,1341.00,77.00,27.00,15.75,360.00,10.00,0.00,29.98,1009.80,10.00,M,FEW,SCT,M,M,9000.00,14000.00,M,M,M,M,M,M,M,M,M,77.00,KRNO 040355Z 36010KT 10SM FEW090 SCT140 25/M03 A2998 RMK AO2 SLP098 T02501028,M
BAM,2025-06-04 03:55,-116.8743,40.5990,1382.36,62.60,26.60,25.31,0.00,0.00,0.00,30.03,M,10.00,M,CLR,M,M,M,M,M,M,M,M,M,M,M,M,M,M,62.60,KBAM 040355Z AUTO 00000KT 10SM CLR 17/M03 A3003 RMK AO1,M
CXP,2025-06-04 03:55,-119.7326,39.1923,1431.00,73.40,41.00,31.08,M,4.00,0.00,30.01,M,10.00,M,CLR,M,M,M,M,M,M,M,M,M,M,M,M,M,M,73.40,KCXP 040355Z AUTO VRB04KT 10SM CLR 23/05 A3001 RMK AO2,M
RTS,2025-06-04 03:55,-119.8764,39.6682,1539.00,69.80,23.00,16.98,340.00,11.00,0.00,30.03,M,10.00,M,CLR,M,M,M,M,M,M,M,M,M,M,M,M,M,M,69.80,KRTS 040355Z AUTO 34011KT 10SM CLR 21/M05 A3003 RMK AO2,M
MEV,2025-06-04 03:55,-119.7500,38.9963,1441.42,71.60,42.80,35.40,280.00,6.00,0.00,29.99,M,10.00,12.00,CLR,M,M,M,M,M,M,M,M,M,M,M,M,M,M,71.60,KMEV 040355Z AUTO 28006G12KT 10SM CLR 22/06 A2999 RMK AO2,M
HTH,2025-06-04 03:55,-118.6315,38.5448,1282.89,75.20,33.80,22.04,320.00,8.00,0.00,29.95,M,10.00,M,CLR,M,M,M,M,M,M,M,M,M,M,M,M,M,M,75.20,KHTH 040355Z AUTO 32008KT 10SM CLR 24/01 A2995 RMK A01,M
EKO,2025-06-04 03:56,-115.7860,40.8242,1367.00,65.00,20.00,17.64,M,5.00,0.00,30.03,1013.00,10.00,M,CLR,M,M,M,M,M,M,M,M,M,M,M,M,M,M,65.00,KEKO 040356Z AUTO VRB05KT 10SM CLR 18/M07 A3003 RMK AO2 SLP130 T01831067,M
WMC,2025-06-04 03:56,-117.8072,40.9019,1315.00,63.00,23.00,21.48,10.00,5.00,0.00,30.02,1013.20,10.00,M,CLR,M,M,M,M,M,M,M,M,M,M,M,M,M,M,63.00,KWMC 040356Z AUTO 01005KT 10SM CLR 17/M05 A3002 RMK AO2 SLP132 T01721050 TSNO,M
HND,2025-06-04 03:56,-115.1344,35.9729,742.79,77.00,53.00,43.34,190.00,8.00,0.00,29.82,1008.80,10.00,M,CLR,M,M,M,M,M,M,M,M,M,M,M,M,M,M,77.00,KHND 040356Z AUTO 19008KT 10SM CLR 25/12 A2982 RMK AO2 SLP088 T02500117 $,M
TPH,2025-06-04 03:56,-117.0904,38.0505,1654.00,72.00,21.00,14.48,300.00,11.00,0.00,29.96,1006.90,10.00,M,CLR,M,M,M,M,M,M,M,M,M,M,M,M,M,M,72.00,KTPH 040356Z AUTO 30011KT 10SM CLR 22/M06 A2996 RMK AO2 SLP069 T02221061 $,M
LAS,2025-06-04 03:56,-115.1634,36.0719,663.00,81.00,48.00,31.57,190.00,6.00,0.00,29.78,1006.10,10.00,M,BKN,BKN,M,M,16000.00,20000.00,M,M,M,M,M,M,M,M,M,79.93,KLAS 040356Z 19006KT 10SM BKN160 BKN200 27/09 A2978 RMK AO2 SLP061 T02720089 $,M
NFL,2025-06-04 03:57,-118.7010,39.4166,1199.00,74.00,26.00,16.70,20.00,9.00,0.00,29.93,1010.80,9.00,M,FEW,M,M,M,8000.00,M,M,M,M,M,M,M,M,M,M,74.00,KNFL 040357Z 02009KT 9SM FEW080 23/M03 A2993 RMK AO2 SLP108 T02331033,M
TMT,2025-06-04 04:10,-117.1971,39.4643,1749.34,62.60,22.00,20.89,10.00,10.00,0.00,30.06,M,10.00,M,CLR,M,M,M,M,M,M,M,M,M,M,M,M,M,M,62.60,KTMT 040410Z AUTO 01010KT 10SM CLR 17/M05 A3006 RMK AO2 T01701055,M
BVU,2025-06-04 04:15,-114.8611,35.9475,671.00,82.40,41.00,23.10,160.00,4.00,0.00,29.78,M,10.00,M,CLR,M,M,M,M,M,M,M,M,M,M,M,M,M,M,80.29,KBVU 040415Z AUTO 16004KT 10SM CLR 28/05 A2978 RMK AO2,M
BAM,2025-06-04 04:15,-116.8743,40.5990,1382.36,62.60,26.60,25.31,0.00,0.00,0.00,30.03,M,10.00,M,CLR,M,M,M,M,M,M,M,M,M,M,M,M,M,M,62.60,KBAM 040415Z AUTO 00000KT 10SM CLR 17/M03 A3003 RMK AO1,M
CXP,2025-06-04 04:15,-119.7326,39.1923,1431.00,71.60,41.00,33.02,330.00,4.00,0.00,30.02,M,10.00,M,CLR,M,M,M,M,M,M,M,M,M,M,M,M,M,M,71.60,KCXP 040415Z AUTO 33004KT 10SM CLR 22/05 A3002 RMK AO2,M
RTS,2025-06-04 04:15,-119.8764,39.6682,1539.00,68.00,23.00,18.06,360.00,9.00,0.00,30.04,M,10.00,M,CLR,M,M,M,M,M,M,M,M,M,M,M,M,M,M,68.00,KRTS 040415Z AUTO 36009KT 10SM CLR 20/M05 A3004 RMK AO2,M
MEV,2025-06-04 04:15,-119.7500,38.9963,1441.42,69.80,42.80,37.63,310.00,5.00,0.00,30.00,M,10.00,M,CLR,M,M,M,M,M,M,M,M,M,M,M,M,M,M,69.80,KMEV 040415Z AUTO 31005KT 10SM CLR 21/06 A3000 RMK AO2,M
HTH,2025-06-04 04:15,-118.6315,38.5448,1282.89,75.20,30.20,19.06,320.00,9.00,0.00,29.95,M,10.00,M,CLR,M,M,M,M,M,M,M,M,M,M,M,M,M,M,75.20,KHTH 040415Z AUTO 32009KT 10SM CLR 24/M01 A2995 RMK A01,M
TMT,2025-06-04 04:30,-117.1971,39.4643,1749.34,60.00,22.00,22.90,360.00,8.00,0.00,30.07,M,10.00,M,CLR,M,M,M,M,M,M,M,M,M,M,M,M,M,M,60.00,KTMT 040430Z AUTO 36008KT 10SM CLR 16/M05 A3007 RMK AO2 T01551055,M
BVU,2025-06-04 04:35,-114.8611,35.9475,671.00,82.40,42.80,24.77,0.00,0.00,0.00,29.79,M,10.00,M,CLR,M,M,M,M,M,M,M,M,M,M,M,M,M,M,80.39,KBVU 040435Z AUTO 00000KT 10SM CLR 28/06 A2979 RMK AO2 LTG DSNT SW,M
BAM,2025-06-04 04:35,-116.8743,40.5990,1382.36,62.60,23.00,21.78,0.00,0.00,0.00,30.04,M,10.00,M,CLR,M,M,M,M,M,M,M,M,M,M,M,M,M,M,62.60,KBAM 040435Z AUTO 00000KT 10SM CLR 17/M05 A3004 RMK AO1,M
CXP,2025-06-04 04:35,-119.7326,39.1923,1431.00,71.60,42.80,35.40,340.00,6.00,0.00,30.02,M,10.00,M,CLR,M,M,M,M,M,M,M,M,M,M,M,M,M,M,71.60,KCXP 040435Z AUTO 34006KT 10SM CLR 22/06 A3002 RMK AO2,M
RTS,2025-06-04 04:35,-119.8764,39.6682,1539.00,66.20,23.00,19.21,330.00,4.00,0.00,30.05,M,10.00,M,CLR,M,M,M,M,M,M,M,M,M,M,M,M,M,M,66.20,KRTS 040435Z AUTO 33004KT 10SM CLR 19/M05 A3005 RMK AO2,M
MEV,2025-06-04 04:35,-119.7500,38.9963,1441.42,69.80,42.80,37.63,330.00,4.00,0.00,30.00,M,10.00,M,CLR,M,M,M,M,M,M,M,M,M,M,M,M,M,M,69.80,KMEV 040435Z AUTO 33004KT 10SM CLR 21/06 A3000 RMK AO2,M
HTH,2025-06-04 04:35,-118.6315,38.5448,1282.89,73.40,30.20,20.24,340.00,8.00,0.00,29.96,M,10.00,M,CLR,M,M,M,M,M,M,M,M,M,M,M,M,M,M,73.40,KHTH 040435Z AUTO 34008KT 10SM CLR 23/M01 A2996 RMK A01,M
TMT,2025-06-04 04:50,-117.1971,39.4643,1749.34,55.40,22.00,27.02,350.00,6.00,0.00,30.08,M,10.00,M,CLR,M,M,M,M,M,M,M,M,M,M,M,M,M,M,55.40,KTMT 040450Z AUTO 35006KT 10SM CLR 13/M05 A3008 RMK AO2 T01301055,M
P68,2025-06-04 04:53,-116.0056,39.6014,1993.00,60.00,20.00,21.03,10.00,7.00,0.00,30.07,1011.10,M,M,M,M,M,M,M,M,M,M,M,M,M,M,M,M,M,60.00,KP68 040453Z AUTO 01007KT 340V050 16/M07 A3007 RMK AO1 SLP111 T01561067,M
DRA,2025-06-04 04:53,-116.0278,36.6206,1009.00,73.00,46.00,38.15,210.00,11.00,0.00,29.83,1005.30,10.00,25.00,CLR,M,M,M,M,M,M,M,M,M,M,M,49.00,220.00,2025-06-04 04:06,73.00,KDRA 040453Z AUTO 21011G25KT 10SM CLR 23/08 A2983 RMK AO2 PK WND 22049/0406 SLP053 T02280078 $,M
ELY,2025-06-04 04:53,-114.8453,39.2950,1909.00,60.00,18.00,19.31,360.00,10.00,0.00,30.06,1008.90,10.00,M,CLR,M,M,M,M,M,M,M,M,M,M,M,M,M,M,60.00,KELY 040453Z AUTO 36010KT 10SM CLR 16/M08 A3006 RMK AO2 SLP089 T01561078,M
VGT,2025-06-04 04:53,-115.1933,36.2111,667.00,80.00,47.00,31.41,90.00,4.00,0.00,29.80,1008.30,10.00,M,CLR,M,M,M,M,M,M,M,M,M,M,M,M,M,M,79.29,KVGT 040453Z AUTO 09004KT 10SM CLR 27/08 A2980 RMK AO2 SLP083 T02670083,M
LOL,2025-06-04 04:53,-118.5701,40.0684,1192.43,69.00,23.00,17.45,30.00,13.00,0.00,29.99,1011.80,10.00,M,CLR,M,M,M,M,M,M,M,M,M,M,M,M,M,M,69.00,KLOL 040453Z AUTO 03013KT 10SM CLR 21/M05 A2999 RMK AO2 SLP118 T02061050,M
INS,2025-06-04 04:55,-115.6733,36.5872,955.00,75.00,44.60,33.83,220.00,6.00,0.00,29.84,1005.60,10.00,M,CLR,M,M,M,M,M,M,M,M,M,M,M,M,M,M,75.00,KINS 040455Z AUTO 22006KT 10SM CLR 24/07 A2984 RMK AO2 SLP056 T02380070 $,M
LSV,2025-06-04 04:55,-115.0343,36.2362,570.00,81.50,48.00,31.06,220.00,4.00,0.00,29.75,1004.80,10.00,M,BKN,M,M,M,18000.00,M,M,M,M,M,M,M,M,M,M,80.22,KLSV 040455Z 22004KT 10SM BKN180 28/09 A2975 RMK AO2A SLP048 T02750088 $,M
BVU,2025-06-04 04:55,-114.8611,35.9475,671.00,80.60,42.80,26.26,220.00,8.00,0.00,29.80,M,10.00,M,CLR,M,M,M,M,M,M,M,M,M,M,M,M,M,M,79.31,KBVU 040455Z AUTO 22008KT 10SM CLR 27/06 A2980 RMK AO2,M
RNO,2025-06-04 04:55,-119.7711,39.4839,1341.00,74.00,26.00,16.70,340.00,8.00,0.00,30.01,1010.90,10.00,M,CLR,M,M,M,M,M,M,M,M,M,M,M,M,M,M,74.00,KRNO 040455Z 34008KT 10SM CLR 23/M03 A3001 RMK AO2 SLP109 T02331033,M
BAM,2025-06-04 04:55,-116.8743,40.5990,1382.36,62.60,23.00,21.78,0.00,0.00,0.00,30.05,M,10.00,M,CLR,M,M,M,M,M,M,M,M,M,M,M,M,M,M,62.60,KBAM 040455Z AUTO 00000KT 10SM CLR 17/M05 A3005 RMK AO1,M
CXP,2025-06-04 04:55,-119.7326,39.1923,1431.00,68.00,32.00,26.16,340.00,7.00,0.00,30.04,M,10.00,M,CLR,M,M,M,M,M,M,M,M,M,M,M,M,M,M,68.00,KCXP 040455Z AUTO 34007KT 10SM CLR 20/00 A3004 RMK AO2,M
RTS,2025-06-04 04:55,-119.8764,39.6682,1539.00,64.40,24.80,22.05,270.00,4.00,0.00,30.07,M,10.00,M,CLR,M,M,M,M,M,M,M,M,M,M,M,M,M,M,64.40,KRTS 040455Z AUTO 27004KT 10SM CLR 18/M04 A3007 RMK AO2,M
MEV,2025-06-04 04:55,-119.7500,38.9963,1441.42,62.60,41.00,45.05,0.00,0.00,0.00,30.01,M,10.00,M,CLR,M,M,M,M,M,M,M,M,M,M,M,M,M,M,62.60,KMEV 040455Z AUTO 00000KT 10SM CLR 17/05 A3001 RMK AO2,M
HTH,2025-06-04 04:55,-118.6315,38.5448,1282.89,71.60,37.40,28.69,340.00,7.00,0.00,29.97,M,10.00,M,CLR,M,M,M,M,M,M,M,M,M,M,M,M,M,M,71.60,KHTH 040455Z AUTO 34007KT 10SM CLR 22/03 A2997 RMK A01,M
EKO,2025-06-04 04:56,-115.7860,40.8242,1367.00,63.00,21.00,19.74,20.00,7.00,0.00,30.05,1013.40,10.00,M,CLR,M,M,M,M,M,M,M,M,M,M,M,M,M,M,63.00,KEKO 040456Z AUTO 02007KT 10SM CLR 17/M06 A3005 RMK AO2 SLP134 T01721061,M
WMC,2025-06-04 04:56,-117.8072,40.9019,1315.00,62.00,23.00,22.25,40.00,9.00,0.00,30.05,1013.80,10.00,M,CLR,M,M,M,M,M,M,M,M,M,M,M,M,M,M,62.00,KWMC 040456Z AUTO 04009KT 10SM CLR 17/M05 A3005 RMK AO2 SLP138 T01671050 TSNO,M
HND,2025-06-04 04:56,-115.1344,35.9729,742.79,78.00,52.00,40.42,200.00,10.00,0.00,29.85,1009.70,10.00,M,CLR,M,M,M,M,M,M,M,M,M,M,M,M,M,M,78.00,KHND 040456Z AUTO 20010KT 10SM CLR 26/11 A2985 RMK AO2 SLP097 T02560111 $,M
TPH,2025-06-04 04:56,-117.0904,38.0505,1654.00,71.00,21.00,14.98,330.00,13.00,0.00,29.99,1007.40,10.00,M,CLR,M,M,M,M,M,M,M,M,M,M,M,M,M,M,71.00,KTPH 040456Z AUTO 33013KT 10SM CLR 22/M06 A2999 RMK AO2 SLP074 T02171061 $,M
LAS,2025-06-04 04:56,-115.1634,36.0719,663.00,81.00,49.00,32.78,220.00,11.00,0.00,29.81,1007.10,10.00,M,BKN,BKN,M,M,17000.00,20000.00,M,M,M,M,M,M,M,M,M,80.02,KLAS 040456Z 22011KT 10SM BKN170 BKN200 27/09 A2981 RMK AO2 SLP071 T02720094 $,M
NFL,2025-06-04 04:57,-118.7010,39.4166,1199.00,72.00,25.00,17.13,10.00,11.00,0.00,29.96,1011.80,10.00,M,FEW,M,M,M,8000.00,M,M,M,M,M,M,M,M,M,M,72.00,KNFL 040457Z 01011KT 10SM FEW080 22/M04 A2996 RMK AO2 SLP118 T02221039,M
TMT,2025-06-04 05:10,-117.1971,39.4643,1749.34,56.00,21.60,25.99,340.00,9.00,0.00,30.08,M,10.00,M,CLR,M,M,M,M,M,M,M,M,M,M,M,M,M,M,56.00,KTMT 040510Z AUTO 34009KT 10SM CLR 13/M06 A3008 RMK AO2 T01341058,M
BVU,2025-06-04 05:15,-114.8611,35.9475,671.00,80.60,42.80,26.26,250.00,6.00,0.00,29.81,M,10.00,M,CLR,M,M,M,M,M,M,M,M,M,M,M,M,M,M,79.31,KBVU 040515Z AUTO 25006KT 10SM CLR 27/06 A2981 RMK AO2,M
BAM,2025-06-04 05:15,-116.8743,40.5990,1382.36,62.60,23.00,21.78,110.00,5.00,0.00,30.06,M,10.00,M,CLR,M,M,M,M,M,M,M,M,M,M,M,M,M,M,62.60,KBAM 040515Z AUTO 11005KT 10SM CLR 17/M05 A3006 RMK AO1,M
CXP,2025-06-04 05:15,-119.7326,39.1923,1431.00,68.00,28.40,22.60,340.00,8.00,0.00,30.04,M,10.00,M,CLR,M,M,M,M,M,M,M,M,M,M,M,M,M,M,68.00,KCXP 040515Z AUTO 34008KT 10SM CLR 20/M02 A3004 RMK AO2,M
RTS,2025-06-04 05:15,-119.8764,39.6682,1539.00,64.40,24.80,22.05,0.00,0.00,0.00,30.07,M,10.00,M,CLR,M,M,M,M,M,M,M,M,M,M,M,M,M,M,64.40,KRTS 040515Z AUTO 00000KT 10SM CLR 18/M04 A3007 RMK AO2,M
MEV,2025-06-04 05:15,-119.7500,38.9963,1441.42,60.80,42.80,51.46,0.00,0.00,0.00,30.02,M,10.00,M,CLR,M,M,M,M,M,M,M,M,M,M,M,M,M,M,60.80,KMEV 040515Z AUTO 00000KT 10SM CLR 16/06 A3002 RMK AO2,M
HTH,2025-06-04 05:15,-118.6315,38.5448,1282.89,71.60,37.40,28.69,330.00,8.00,0.00,29.97,M,10.00,M,CLR,M,M,M,M,M,M,M,M,M,M,M,M,M,M,71.60,KHTH 040515Z AUTO 33008KT 10SM CLR 22/03 A2997 RMK A01,M
RTS,2025-06-04 05:25,-119.8764,39.6682,1539.00,64.40,24.80,22.05,260.00,4.00,0.00,30.08,M,10.00,M,CLR,M,M,M,M,M,M,M,M,M,M,M,M,M,M,64.40,KRTS 040525Z AUTO 26004KT 10SM CLR 18/M04 A3008 RMK AO2,M
MEV,2025-06-04 05:25,-119.7500,38.9963,1441.42,66.20,41.00,39.73,360.00,4.00,0.00,30.02,M,10.00,M,CLR,M,M,M,M,M,M,M,M,M,M,M,M,M,M,66.20,KMEV 040525Z AUTO 36004KT 10SM CLR 19/05 A3002 RMK AO2,M
CXP,2025-06-04 05:30,-119.7326,39.1923,1431.00,71.60,26.60,18.56,340.00,8.00,0.00,30.04,M,10.00,M,CLR,M,M,M,M,M,M,M,M,M,M,M,M,M,M,71.60,KCXP 040530Z AUTO 34008KT 10SM CLR 22/M03 A3004 RMK AO2,M
TMT,2025-06-04 05:30,-117.1971,39.4643,1749.34,55.00,21.20,26.50,340.00,10.00,0.00,30.08,M,10.00,M,CLR,M,M,M,M,M,M,M,M,M,M,M,M,M,M,55.00,KTMT 040530Z AUTO 34010KT 10SM CLR 13/M06 A3008 RMK AO2 T01271060,M
BVU,2025-06-04 05:35,-114.8611,35.9475,671.00,82.40,44.60,26.53,230.00,12.00,0.00,29.81,M,10.00,M,CLR,M,M,M,M,M,M,M,M,M,M,M,M,M,M,80.51,KBVU 040535Z AUTO 23012KT 10SM CLR 28/07 A2981 RMK AO2,M
BAM,2025-06-04 05:35,-116.8743,40.5990,1382.36,62.60,23.00,21.78,0.00,0.00,0.00,30.07,M,10.00,M,CLR,M,M,M,M,M,M,M,M,M,M,M,M,M,M,62.60,KBAM 040535Z AUTO 00000KT 10SM CLR 17/M05 A3007 RMK AO1,M
HTH,2025-06-04 05:35,-118.6315,38.5448,1282.89,69.80,37.40,30.50,330.00,7.00,0.00,29.97,M,10.00,M,CLR,M,M,M,M,M,M,M,M,M,M,M,M,M,M,69.80,KHTH 040535Z AUTO 33007KT 10SM CLR 21/03 A2997 RMK A01,M
TMT,2025-06-04 05:50,-117.1971,39.4643,1749.34,54.00,21.00,27.25,340.00,10.00,0.00,30.08,M,10.00,M,CLR,M,M,M,M,M,M,M,M,M,M,M,M,M,M,54.00,KTMT 040550Z AUTO 34010KT 10SM CLR 12/M06 A3008 RMK AO2 T01231061,M
P68,2025-06-04 05:53,-116.0056,39.6014,1993.00,56.00,20.00,24.28,330.00,9.00,0.00,30.08,1011.70,M,M,M,M,M,M,M,M,M,M,M,M,M,M,M,M,M,56.00,KP68 040553Z AUTO 33009KT 13/M07 A3008 RMK AO1 SLP117 T01331067 10256 20122 51018,M
ELY,2025-06-04 05:53,-114.8453,39.2950,1909.00,55.00,17.00,22.13,320.00,5.00,0.00,30.06,1009.20,10.00,M,CLR,M,M,M,M,M,M,M,M,M,M,M,M,M,M,55.00,KELY 040553Z AUTO 32005KT 10SM CLR 13/M08 A3006 RMK AO2 SLP092 T01281083 10256 20122 51013,M
VGT,2025-06-04 05:53,-115.1933,36.2111,667.00,80.00,48.00,32.62,20.00,7.00,0.00,29.78,1007.60,10.00,M,CLR,M,M,M,M,M,M,M,M,M,M,M,M,M,M,79.37,KVGT 040553Z AUTO 02007KT 10SM CLR 27/09 A2978 RMK AO2 SLP076 60000 T02670089 10294 20261 50007,M
LOL,2025-06-04 05:53,-118.5701,40.0684,1192.43,68.00,22.00,17.31,20.00,15.00,0.00,30.00,1012.10,10.00,M,CLR,M,M,M,M,M,M,M,M,M,M,M,M,M,M,68.00,KLOL 040553Z AUTO 02015KT 10SM CLR 20/M06 A3000 RMK AO2 SLP121 T02001056 10289 20200 51018,M
INS,2025-06-04 05:55,-115.6733,36.5872,955.00,71.00,46.60,41.75,0.00,0.00,0.00,29.84,1005.40,10.00,M,CLR,M,M,M,M,M,M,M,M,M,M,M,M,M,M,71.00,KINS 040555Z AUTO 00000KT 10SM CLR 22/08 A2984 RMK AO2 SLP054 T02160081 10271 20216 51002 $,M
LSV,2025-06-04 05:55,-115.0343,36.2362,570.00,83.00,46.40,27.86,210.00,4.00,0.00,29.73,1004.00,10.00,M,SCT,BKN,M,M,15000.00,20000.00,M,M,M,M,M,M,M,M,M,81.04,KLSV 040555Z 21004KT 10SM SCT150 BKN200 28/08 A2973 RMK AO2A SLP040 T02830080 10323 20273 53008 $,M
BVU,2025-06-04 05:55,-114.8611,35.9475,671.00,80.60,46.40,30.12,220.00,11.00,0.00,29.80,M,10.00,M,CLR,M,M,M,M,M,M,M,M,M,M,M,M,M,M,79.56,KBVU 040555Z AUTO 22011KT 10SM CLR 27/08 A2980 RMK AO2,M
RNO,2025-06-04 05:55,-119.7711,39.4839,1341.00,71.00,26.00,18.47,340.00,8.00,0.00,30.03,1011.50,10.00,M,CLR,M,M,M,M,M,M,M,M,M,M,M,M,M,M,71.00,KRNO 040555Z 34008KT 10SM CLR 22/M03 A3003 RMK AO2 SLP115 T02171033 10306 20217 53019,M
BAM,2025-06-04 05:55,-116.8743,40.5990,1382.36,62.60,24.80,23.49,40.00,9.00,0.00,30.07,M,10.00,M,CLR,M,M,M,M,M,M,M,M,M,M,M,M,M,M,62.60,KBAM 040555Z AUTO 04009KT 10SM CLR 17/M04 A3007 RMK AO1,M
CXP,2025-06-04 05:55,-119.7326,39.1923,1431.00,69.80,26.60,19.73,350.00,6.00,0.00,30.04,M,10.00,M,CLR,M,M,M,M,M,M,M,M,M,M,M,M,M,M,69.80,KCXP 040555Z AUTO 35006KT 10SM CLR 21/M03 A3004 RMK AO2,M
RTS,2025-06-04 05:55,-119.8764,39.6682,1539.00,62.60,23.00,21.78,290.00,3.00,0.00,30.08,M,10.00,M,CLR,M,M,M,M,M,M,M,M,M,M,M,M,M,M,62.60,KRTS 040555Z AUTO 29003KT 10SM CLR 17/M05 A3008 RMK AO2,M
MEV,2025-06-04 05:55,-119.7500,38.9963,1441.42,64.40,39.20,39.44,360.00,8.00,0.00,30.02,M,10.00,M,CLR,M,M,M,M,M,M,M,M,M,M,M,M,M,M,64.40,KMEV 040555Z AUTO 36008KT 10SM CLR 18/04 A3002 RMK AO2,M
HTH,2025-06-04 05:55,-118.6315,38.5448,1282.89,68.00,42.80,40.02,360.00,7.00,0.00,29.97,M,10.00,M,CLR,M,M,M,M,M,M,M,M,M,M,M,M,M,M,68.00,KHTH 040555Z AUTO 36007KT 10SM CLR 20/06 A2997 RMK A01,M
EKO,2025-06-04 05:56,-115.7860,40.8242,1367.00,59.00,21.00,22.75,50.00,5.00,0.00,30.06,1013.60,10.00,M,CLR,M,M,M,M,M,M,M,M,M,M,M,M,M,M,59.00,KEKO 040556Z AUTO 05005KT 10SM CLR 15/M06 A3006 RMK AO2 SLP136 T01501061 10244 20150 51013,M
WMC,2025-06-04 05:56,-117.8072,40.9019,1315.00,61.00,21.00,21.18,50.00,8.00,0.00,30.05,1013.70,10.00,M,CLR,M,M,M,M,M,M,M,M,M,M,M,M,M,M,61.00,KWMC 040556Z AUTO 05008KT 10SM CLR 16/M06 A3005 RMK AO2 SLP137 T01611061 10261 20150 51013 TSNO,M
HND,2025-06-04 05:56,-115.1344,35.9729,742.79,76.00,52.00,43.18,180.00,13.00,0.00,29.85,1009.40,10.00,M,CLR,M,M,M,M,M,M,M,M,M,M,M,M,M,M,76.00,KHND 040556Z AUTO 18013KT 10SM CLR 24/11 A2985 RMK AO2 SLP094 T02440111 10311 20239 50009 $,M
TPH,2025-06-04 05:56,-117.0904,38.0505,1654.00,68.00,20.00,15.90,340.00,12.00,0.00,30.00,1007.90,10.00,M,CLR,M,M,M,M,M,M,M,M,M,M,M,M,M,M,68.00,KTPH 040556Z AUTO 34012KT 10SM CLR 20/M07 A3000 RMK AO2 SLP079 T02001067 10294 20200 53011 $,M
LAS,2025-06-04 05:56,-115.1634,36.0719,663.00,81.00,47.00,30.41,200.00,11.00,0.00,29.80,1006.60,10.00,M,FEW,BKN,M,M,17000.00,20000.00,M,M,M,M,M,M,M,M,M,79.84,KLAS 040556Z 20011KT 10SM FEW170 BKN200 27/08 A2980 RMK AO2 SLP066 60000 T02720083 10306 20267 50008 $,M
NFL,2025-06-04 05:57,-118.7010,39.4166,1199.00,69.00,24.00,18.19,10.00,13.00,0.00,29.98,1012.20,4.00,M,CLR,M,M,M,M,M,M,M,HZ,M,M,M,M,M,M,69.00,KNFL 040557Z 01013KT 4SM HZ CLR 21/M04 A2998 RMK AO2 SLP122 T02061044 10306 20206 52018,M
RTS,2025-06-04 06:05,-119.8764,39.6682,1539.00,60.80,24.80,25.03,320.00,3.00,0.00,30.08,M,10.00,M,CLR,M,M,M,M,M,M,M,M,M,M,M,M,M,M,60.80,KRTS 040605Z AUTO 32003KT 10SM CLR 16/M04 A3008 RMK AO2,M
MEV,2025-06-04 06:05,-119.7500,38.9963,1441.42,64.40,39.20,39.44,360.00,8.00,0.00,30.02,M,10.00,M,FEW,M,M,M,10000.00,M,M,M,M,M,M,M,M,M,M,64.40,KMEV 040605Z AUTO 36008KT 10SM FEW100 18/04 A3002 RMK AO2,M
TMT,2025-06-04 06:10,-117.1971,39.4643,1749.34,51.40,20.50,29.35,330.00,7.00,0.00,30.08,M,10.00,M,CLR,M,M,M,M,M,M,M,M,M,M,M,M,M,M,51.40,KTMT 040610Z AUTO 33007KT 10SM CLR 11/M06 A3008 RMK AO2 T01081064,M
BVU,2025-06-04 06:15,-114.8611,35.9475,671.00,80.60,46.40,30.12,220.00,12.00,0.00,29.80,M,10.00,M,CLR,M,M,M,M,M,M,M,M,M,M,M,M,M,M,79.56,KBVU 040615Z AUTO 22012KT 10SM CLR 27/08 A2980 RMK AO2,M
CXP,2025-06-04 06:15,-119.7326,39.1923,1431.00,69.80,26.60,19.73,10.00,6.00,0.00,30.05,M,10.00,12.00,CLR,M,M,M,M,M,M,M,M,M,M,M,M,M,M,69.80,KCXP 040615Z AUTO 01006G12KT 10SM CLR 21/M03 A3005 RMK AO2,M
BAM,2025-06-04 06:15,-116.8743,40.5990,1382.36,62.60,24.80,23.49,20.00,8.00,0.00,30.07,M,10.00,14.00,CLR,M,M,M,M,M,M,M,M,M,M,M,M,M,M,62.60,KBAM 040615Z AUTO 02008G14KT 360V060 10SM CLR 17/M04 A3007 RMK AO1,M
HTH,2025-06-04 06:15,-118.6315,38.5448,1282.89,68.00,37.40,32.44,340.00,8.00,0.00,29.97,M,10.00,M,CLR,M,M,M,M,M,M,M,M,M,M,M,M,M,M,68.00,KHTH 040615Z AUTO 34008KT 10SM CLR 20/03 A2997 RMK A01,M
RTS,2025-06-04 06:25,-119.8764,39.6682,1539.00,57.20,23.00,26.40,350.00,5.00,0.00,30.08,M,10.00,M,M,M,M,M,M,M,M,M,M,M,M,M,M,M,M,57.20,KRTS 040625Z AUTO 35005KT 10SM 14/M05 A3008 RMK AO2,M
TMT,2025-06-04 06:30,-117.1971,39.4643,1749.34,53.00,21.00,28.27,70.00,5.00,0.00,30.09,M,10.00,M,CLR,M,M,M,M,M,M,M,M,M,M,M,M,M,M,53.00,KTMT 040630Z AUTO 07005KT 10SM CLR 12/M06 A3009 RMK AO2 T01161062,M
BVU,2025-06-04 06:35,-114.8611,35.9475,671.00,80.60,46.40,30.12,230.00,7.00,0.00,29.81,M,10.00,13.00,CLR,M,M,M,M,M,M,M,M,M,M,M,M,M,M,79.56,KBVU 040635Z AUTO 23007G13KT 10SM CLR 27/08 A2981 RMK AO2,M
BAM,2025-06-04 06:35,-116.8743,40.5990,1382.36,62.60,24.80,23.49,10.00,9.00,0.00,30.07,M,10.00,14.00,CLR,M,M,M,M,M,M,M,M,M,M,M,M,M,M,62.60,KBAM 040635Z AUTO 01009G14KT 10SM CLR 17/M04 A3007 RMK AO1,M
CXP,2025-06-04 06:35,-119.7326,39.1923,1431.00,68.00,26.60,20.98,M,5.00,0.00,30.05,M,10.00,M,CLR,M,M,M,M,M,M,M,M,M,M,M,M,M,M,68.00,KCXP 040635Z AUTO VRB05KT 10SM CLR 20/M03 A3005 RMK AO2,M
MEV,2025-06-04 06:35,-119.7500,38.9963,1441.42,62.60,33.80,33.93,M,5.00,0.00,30.04,M,10.00,M,FEW,BKN,M,M,5000.00,10000.00,M,M,M,M,M,M,M,M,M,62.60,KMEV 040635Z AUTO VRB05KT 10SM FEW050 BKN100 17/01 A3004 RMK AO2,M
HTH,2025-06-04 06:35,-118.6315,38.5448,1282.89,68.00,23.00,18.06,350.00,11.00,0.00,29.98,M,10.00,M,FEW,M,M,M,4200.00,M,M,M,M,M,M,M,M,M,M,68.00,KHTH 040635Z AUTO 35011KT 10SM FEW042 20/M05 A2998 RMK A01,M
TMT,2025-06-04 06:50,-117.1971,39.4643,1749.34,53.20,21.00,28.06,30.00,4.00,0.00,30.10,M,10.00,M,CLR,M,M,M,M,M,M,M,M,M,M,M,M,M,M,53.20,KTMT 040650Z AUTO 03004KT 10SM CLR 12/M06 A3010 RMK AO2 T01181061,M
P68,2025-06-04 06:53,-116.0056,39.6014,1993.00,54.00,21.00,27.25,360.00,9.00,0.00,30.08,1011.60,M,M,M,M,M,M,M,M,M,M,M,M,M,M,M,M,M,54.00,KP68 040653Z AUTO 36009KT 12/M06 A3008 RMK AO1 SLP116 T01221061,M
DRA,2025-06-04 06:53,-116.0278,36.6206,1009.00,M,M,M,M,M,0.00,29.87,M,M,M,M,M,M,M,M,M,M,M,M,M,M,M,M,M,M,M,KDRA 040653Z AUTO A2987 RMK AO2 SLPNO PWINO PNO $,M
ELY,2025-06-04 06:53,-114.8453,39.2950,1909.00,54.00,21.00,27.25,M,3.00,0.00,30.07,1009.20,10.00,M,CLR,M,M,M,M,M,M,M,M,M,M,M,M,M,M,54.00,KELY 040653Z AUTO VRB03KT 10SM CLR 12/M06 A3007 RMK AO2 SLP092 T01221061,M
VGT,2025-06-04 06:53,-115.1933,36.2111,667.00,78.00,50.00,37.53,210.00,3.00,0.00,29.79,1007.80,10.00,M,CLR,M,M,M,M,M,M,M,M,M,M,M,M,M,M,78.00,KVGT 040653Z AUTO 21003KT 10SM CLR 26/10 A2979 RMK AO2 SLP078 T02560100,M
LOL,2025-06-04 06:53,-118.5701,40.0684,1192.43,66.00,22.00,18.55,20.00,12.00,0.00,30.00,1012.30,10.00,M,CLR,M,M,M,M,M,M,M,M,M,M,M,M,M,M,66.00,KLOL 040653Z AUTO 02012KT 10SM CLR 19/M06 A3000 RMK AO2 SLP123 T01891056,M
INS,2025-06-04 06:55,-115.6733,36.5872,955.00,67.60,50.40,54.06,280.00,5.00,0.00,29.85,1006.00,10.00,M,CLR,M,M,M,M,M,M,M,M,M,M,M,M,M,M,67.60,KINS 040655Z AUTO 28005KT 10SM CLR 20/10 A2985 RMK AO2 SLP060 T01980102 $,M
LSV,2025-06-04 06:55,-115.0343,36.2362,570.00,82.00,47.50,30.00,190.00,14.00,0.00,29.73,1003.80,10.00,M,SCT,M,M,M,18000.00,M,M,M,M,M,M,M,M,M,M,80.49,KLSV 040655Z 19014KT 10SM SCT180 28/09 A2973 RMK AO2A SLP038 T02780086 $,M
BVU,2025-06-04 06:55,-114.8611,35.9475,671.00,78.80,46.40,31.94,200.00,6.00,0.00,29.80,M,10.00,M,CLR,M,M,M,M,M,M,M,M,M,M,M,M,M,M,78.80,KBVU 040655Z AUTO 20006KT 10SM CLR 26/08 A2980 RMK AO2,M
RNO,2025-06-04 06:55,-119.7711,39.4839,1341.00,69.00,26.00,19.78,320.00,8.00,0.00,30.03,1011.60,10.00,M,CLR,M,M,M,M,M,M,M,M,M,M,M,M,M,M,69.00,KRNO 040655Z 32008KT 10SM CLR 21/M03 A3003 RMK AO2 SLP116 T02061033,M
BAM,2025-06-04 06:55,-116.8743,40.5990,1382.36,60.80,26.60,26.98,10.00,8.00,0.00,30.07,M,10.00,M,CLR,M,M,M,M,M,M,M,M,M,M,M,M,M,M,60.80,KBAM 040655Z AUTO 01008KT 10SM CLR 16/M03 A3007 RMK AO1,M
CXP,2025-06-04 06:55,-119.7326,39.1923,1431.00,66.20,24.80,20.72,60.00,6.00,0.00,30.06,M,10.00,M,CLR,M,M,M,M,M,M,M,M,M,M,M,M,M,M,66.20,KCXP 040655Z AUTO 06006KT 10SM CLR 19/M04 A3006 RMK AO2,M
RTS,2025-06-04 06:55,-119.8764,39.6682,1539.00,57.20,23.00,26.40,0.00,0.00,0.00,30.09,M,10.00,M,CLR,M,M,M,M,M,M,M,M,M,M,M,M,M,M,57.20,KRTS 040655Z AUTO 00000KT 10SM CLR 14/M05 A3009 RMK AO2,M
MEV,2025-06-04 06:55,-119.7500,38.9963,1441.42,59.00,35.60,41.42,0.00,0.00,0.00,30.04,M,10.00,M,FEW,FEW,FEW,M,4700.00,5000.00,10000.00,M,M,M,M,M,M,M,M,59.00,KMEV 040655Z AUTO 00000KT 10SM FEW047 FEW050 FEW100 15/02 A3004 RMK AO2,M
HTH,2025-06-04 06:55,-118.6315,38.5448,1282.89,68.00,26.60,20.98,330.00,11.00,0.00,29.98,M,10.00,M,FEW,SCT,M,M,3800.00,4700.00,M,M,M,M,M,M,M,M,M,68.00,KHTH 040655Z AUTO 33011KT 10SM FEW038 SCT047 20/M03 A2998 RMK A01,M
EKO,2025-06-04 06:56,-115.7860,40.8242,1367.00,53.00,23.00,30.76,100.00,6.00,0.00,30.07,1014.00,10.00,M,CLR,M,M,M,M,M,M,M,M,M,M,M,M,M,M,53.00,KEKO 040656Z AUTO 10006KT 10SM CLR 12/M05 A3007 RMK AO2 SLP140 T01171050,M
WMC,2025-06-04 06:56,-117.8072,40.9019,1315.00,54.00,23.00,29.65,350.00,6.00,0.00,30.06,1014.50,10.00,M,CLR,M,M,M,M,M,M,M,M,M,M,M,M,M,M,54.00,KWMC 040656Z AUTO 35006KT 10SM CLR 12/M05 A3006 RMK AO2 SLP145 T01221050 TSNO,M
HND,2025-06-04 06:56,-115.1344,35.9729,742.79,75.00,52.00,44.64,190.00,12.00,0.00,29.84,1009.30,10.00,M,CLR,M,M,M,M,M,M,M,M,M,M,M,M,M,M,75.00,KHND 040656Z AUTO 19012KT 10SM CLR 24/11 A2984 RMK AO2 SLP093 T02390111 403440233 $,M
TPH,2025-06-04 06:56,-117.0904,38.0505,1654.00,65.00,19.00,16.90,20.00,7.00,0.00,30.02,1008.60,10.00,M,M,M,M,M,M,M,M,M,M,M,M,M,M,M,M,65.00,KTPH 040656Z AUTO 02007KT 10SM 18/M07 A3002 RMK AO2 SLP086 T01831072 $,M
LAS,2025-06-04 06:56,-115.1634,36.0719,663.00,79.00,50.00,36.32,190.00,9.00,0.00,29.81,1006.70,10.00,18.00,FEW,BKN,M,M,17000.00,20000.00,M,M,M,M,M,M,M,M,M,79.00,KLAS 040656Z 19009G18KT 10SM FEW170 BKN200 26/10 A2981 RMK AO2 SLP067 T02610100 $,M
NFL,2025-06-04 06:57,-118.7010,39.4166,1199.00,66.00,24.00,20.17,10.00,11.00,0.00,29.98,1012.40,10.00,M,CLR,M,M,M,M,M,M,M,M,M,M,M,M,M,M,66.00,KNFL 040657Z AUTO 01011KT 10SM CLR 19/M04 A2998 RMK AO2 SLP124 T01891044,M
TMT,2025-06-04 07:10,-117.1971,39.4643,1749.34,54.00,21.00,27.25,40.00,3.00,0.00,30.10,M,10.00,M,CLR,M,M,M,M,M,M,M,M,M,M,M,M,M,M,54.00,KTMT 040710Z AUTO 04003KT 10SM CLR 12/M06 A3010 RMK AO2 T01221061,M
BVU,2025-06-04 07:15,-114.8611,35.9475,671.00,78.80,46.40,31.94,170.00,7.00,0.00,29.81,M,10.00,M,CLR,M,M,M,M,M,M,M,M,M,M,M,M,M,M,78.80,KBVU 040715Z AUTO 17007KT 10SM CLR 26/08 A2981 RMK AO2,M
BAM,2025-06-04 07:15,-116.8743,40.5990,1382.36,59.00,26.60,28.76,0.00,0.00,0.00,30.07,M,10.00,M,CLR,M,M,M,M,M,M,M,M,M,M,M,M,M,M,59.00,KBAM 040715Z AUTO 00000KT 10SM CLR 15/M03 A3007 RMK AO1,M
CXP,2025-06-04 07:15,-119.7326,39.1923,1431.00,66.20,24.80,20.72,140.00,4.00,0.00,30.06,M,10.00,M,CLR,M,M,M,M,M,M,M,M,M,M,M,M,M,M,66.20,KCXP 040715Z AUTO 14004KT 10SM CLR 19/M04 A3006 RMK AO2,M
RTS,2025-06-04 07:15,-119.8764,39.6682,1539.00,59.00,23.00,24.75,360.00,4.00,0.00,30.08,M,10.00,M,CLR,M,M,M,M,M,M,M,M,M,M,M,M,M,M,59.00,KRTS 040715Z AUTO 36004KT 10SM CLR 15/M05 A3008 RMK AO2,M
MEV,2025-06-04 07:15,-119.7500,38.9963,1441.42,55.40,35.60,47.15,0.00,0.00,0.00,30.04,M,10.00,M,FEW,FEW,FEW,M,3300.00,3900.00,4500.00,M,M,M,M,M,M,M,M,55.40,KMEV 040715Z AUTO 00000KT 10SM FEW033 FEW039 FEW045 13/02 A3004 RMK AO2,M
HTH,2025-06-04 07:15,-118.6315,38.5448,1282.89,68.00,24.80,19.47,320.00,13.00,0.00,29.99,M,10.00,M,CLR,M,M,M,M,M,M,M,M,M,M,M,M,M,M,68.00,KHTH 040715Z AUTO 32013KT 10SM CLR 20/M04 A2999 RMK A01,M
RTS,2025-06-04 07:25,-119.8764,39.6682,1539.00,55.40,21.20,26.12,340.00,5.00,0.00,30.09,M,10.00,M,CLR,M,M,M,M,M,M,M,M,M,M,M,M,M,M,55.40,KRTS 040725Z AUTO 34005KT 10SM CLR 13/M06 A3009 RMK AO2,M
MEV,2025-06-04 07:25,-119.7500,38.9963,1441.42,53.60,35.60,50.35,0.00,0.00,0.00,30.05,M,10.00,M,FEW,FEW,FEW,M,3300.00,3800.00,4600.00,M,M,M,M,M,M,M,M,53.60,KMEV 040725Z AUTO 00000KT 10SM FEW033 FEW038 FEW046 12/02 A3005 RMK AO2,M
TMT,2025-06-04 07:30,-117.1971,39.4643,1749.34,49.00,20.00,31.41,70.00,4.00,0.00,30.10,M,10.00,M,CLR,M,M,M,M,M,M,M,M,M,M,M,M,M,M,47.27,KTMT 040730Z AUTO 07004KT 10SM CLR 09/M07 A3010 RMK AO2 T00941067,M
BVU,2025-06-04 07:35,-114.8611,35.9475,671.00,78.80,46.40,31.94,120.00,7.00,0.00,29.81,M,10.00,M,CLR,M,M,M,M,M,M,M,M,M,M,M,M,M,M,78.80,KBVU 040735Z AUTO 12007KT 10SM CLR 26/08 A2981 RMK AO2,M
BAM,2025-06-04 07:35,-116.8743,40.5990,1382.36,55.40,26.60,32.75,0.00,0.00,0.00,30.07,M,10.00,M,CLR,M,M,M,M,M,M,M,M,M,M,M,M,M,M,55.40,KBAM 040735Z AUTO 00000KT 10SM CLR 13/M03 A3007 RMK AO1,M
CXP,2025-06-04 07:35,-119.7326,39.1923,1431.00,64.40,23.00,20.45,M,3.00,0.00,30.07,M,10.00,M,CLR,M,M,M,M,M,M,M,M,M,M,M,M,M,M,64.40,KCXP 040735Z AUTO VRB03KT 10SM CLR 18/M05 A3007 RMK AO2,M
HTH,2025-06-04 07:35,-118.6315,38.5448,1282.89,66.20,32.00,27.84,330.00,11.00,0.00,30.00,M,10.00,M,CLR,M,M,M,M,M,M,M,M,M,M,M,M,M,M,66.20,KHTH 040735Z AUTO 33011KT 10SM CLR 19/00 A3000 RMK A01,M
TMT,2025-06-04 07:50,-117.1971,39.4643,1749.34,48.40,19.60,31.58,70.00,3.00,0.00,30.10,M,10.00,M,CLR,M,M,M,M,M,M,M,M,M,M,M,M,M,M,47.44,KTMT 040750Z AUTO 07003KT 10SM CLR 09/M07 A3010 RMK AO2 T00911069,M
P68,2025-06-04 07:53,-116.0056,39.6014,1993.00,45.00,24.00,43.25,0.00,0.00,0.00,30.08,1012.00,M,M,M,M,M,M,M,M,M,M,M,M,M,M,M,M,M,45.00,KP68 040753Z AUTO 00000KT 07/M04 A3008 RMK AO1 SLP120 T00721044 402610017,M
DRA,2025-06-04 07:53,-116.0278,36.6206,1009.00,70.00,46.00,42.22,M,3.00,0.00,29.87,1006.80,10.00,M,CLR,M,M,M,M,M,M,M,M,M,M,M,M,M,M,70.00,KDRA 040753Z AUTO VRB03KT 10SM CLR 21/08 A2987 RMK AO2 SLP068 T02110078 403440183 $,M
ELY,2025-06-04 07:53,-114.8453,39.2950,1909.00,52.00,20.00,28.10,0.00,0.00,0.00,30.07,1009.40,10.00,M,CLR,M,M,M,M,M,M,M,M,M,M,M,M,M,M,52.00,KELY 040753Z AUTO 00000KT 10SM CLR 11/M07 A3007 RMK AO2 SLP094 T01111067 402560000,M
VGT,2025-06-04 07:53,-115.1933,36.2111,667.00,79.00,50.00,36.32,180.00,4.00,0.00,29.80,1007.90,10.00,M,CLR,M,M,M,M,M,M,M,M,M,M,M,M,M,M,79.00,KVGT 040753Z AUTO 18004KT 10SM CLR 26/10 A2980 RMK AO2 SLP079 T02610100 403500228,M
LOL,2025-06-04 07:53,-118.5701,40.0684,1192.43,60.00,24.00,24.91,60.00,5.00,0.00,30.02,1013.10,10.00,M,CLR,M,M,M,M,M,M,M,M,M,M,M,M,M,M,60.00,KLOL 040753Z AUTO 06005KT 10SM CLR 16/M04 A3002 RMK AO2 SLP131 T01561044 402940111,M
INS,2025-06-04 07:55,-115.6733,36.5872,955.00,68.00,50.50,53.52,0.00,0.00,0.00,29.85,1005.80,10.00,M,CLR,M,M,M,M,M,M,M,M,M,M,M,M,M,M,68.00,KINS 040755Z AUTO 00000KT 10SM CLR 20/10 A2985 RMK AO2 SLP058 T01990103 403280189 $,M
LSV,2025-06-04 07:55,-115.0343,36.2362,570.00,79.30,49.30,35.04,220.00,8.00,0.00,29.75,1004.50,10.00,M,SCT,M,M,M,12000.00,M,M,M,M,M,M,M,M,M,M,79.30,KLSV 040755Z 22008KT 10SM SCT120 26/10 A2975 RMK AO2A SLP045 T02630096 403540224 $,M
BVU,2025-06-04 07:55,-114.8611,35.9475,671.00,78.80,46.40,31.94,130.00,6.00,0.00,29.81,M,10.00,M,CLR,M,M,M,M,M,M,M,M,M,M,M,M,M,M,78.80,KBVU 040755Z AUTO 13006KT 10SM CLR 26/08 A2981 RMK AO2,M
RNO,2025-06-04 07:55,-119.7711,39.4839,1341.00,66.00,26.00,21.93,360.00,4.00,0.00,30.04,1011.90,10.00,M,CLR,M,M,M,M,M,M,M,M,M,M,M,M,M,M,66.00,KRNO 040755Z 36004KT 10SM CLR 19/M03 A3004 RMK AO2 SLP119 T01891033 403060144,M
BAM,2025-06-04 07:55,-116.8743,40.5990,1382.36,55.40,26.60,32.75,360.00,5.00,0.00,30.07,M,10.00,M,CLR,M,M,M,M,M,M,M,M,M,M,M,M,M,M,55.40,KBAM 040755Z AUTO 36005KT 10SM CLR 13/M03 A3007 RMK AO1,M
CXP,2025-06-04 07:55,-119.7326,39.1923,1431.00,66.20,23.00,19.21,40.00,10.00,0.00,30.07,M,10.00,M,CLR,M,M,M,M,M,M,M,M,M,M,M,M,M,M,66.20,KCXP 040755Z AUTO 04010KT 10SM CLR 19/M05 A3007 RMK AO2,M
RTS,2025-06-04 07:55,-119.8764,39.6682,1539.00,55.40,23.00,28.18,0.00,0.00,0.00,30.09,M,10.00,M,M,M,M,M,M,M,M,M,M,M,M,M,M,M,M,55.40,KRTS 040755Z AUTO 00000KT 10SM 13/M05 A3009 RMK AO2,M
MEV,2025-06-04 07:55,-119.7500,38.9963,1441.42,48.20,33.80,57.25,0.00,0.00,0.00,30.05,M,10.00,M,FEW,FEW,M,M,5000.00,9000.00,M,M,M,M,M,M,M,M,M,48.20,KMEV 040755Z AUTO 00000KT 10SM FEW050 FEW090 09/01 A3005 RMK AO2,M
HTH,2025-06-04 07:55,-118.6315,38.5448,1282.89,66.20,30.20,25.88,340.00,14.00,0.00,30.00,M,10.00,M,CLR,M,M,M,M,M,M,M,M,M,M,M,M,M,M,66.20,KHTH 040755Z AUTO 34014KT 10SM CLR 19/M01 A3000 RMK A01,M
EKO,2025-06-04 07:56,-115.7860,40.8242,1367.00,51.00,22.00,31.75,80.00,6.00,0.00,30.08,1014.30,10.00,M,CLR,M,M,M,M,M,M,M,M,M,M,M,M,M,M,51.00,KEKO 040756Z AUTO 08006KT 10SM CLR 11/M06 A3008 RMK AO2 SLP143 T01061056 402500033,M
WMC,2025-06-04 07:56,-117.8072,40.9019,1315.00,51.00,22.00,31.75,350.00,5.00,0.00,30.04,1013.90,10.00,M,CLR,M,M,M,M,M,M,M,M,M,M,M,M,M,M,51.00,KWMC 040756Z AUTO 35005KT 10SM CLR 11/M06 A3004 RMK AO2 SLP139 T01061056 402610056 TSNO,M
HND,2025-06-04 07:56,-115.1344,35.9729,742.79,76.00,50.00,40.10,210.00,12.00,0.00,29.84,1009.00,10.00,M,CLR,M,M,M,M,M,M,M,M,M,M,M,M,M,M,76.00,KHND 040756Z AUTO 21012KT 10SM CLR 24/10 A2984 RMK AO2 SLP090 T02440100 $,M
TPH,2025-06-04 07:56,-117.0904,38.0505,1654.00,63.00,19.00,18.13,350.00,8.00,0.00,30.02,1008.60,10.00,M,CLR,M,M,M,M,M,M,M,M,M,M,M,M,M,M,63.00,KTPH 040756Z AUTO 35008KT 10SM CLR 17/M07 A3002 RMK AO2 SLP086 T01721072 403000122 $,M
LAS,2025-06-04 07:56,-115.1634,36.0719,663.00,78.00,49.00,36.16,190.00,7.00,0.00,29.81,1006.60,10.00,M,FEW,BKN,M,M,17000.00,20000.00,M,M,M,M,M,M,M,M,M,78.00,KLAS 040756Z 19007KT 10SM FEW170 BKN200 26/09 A2981 RMK AO2 SLP066 T02560094 403500228 $,M
NFL,2025-06-04 07:57,-118.7010,39.4166,1199.00,61.00,25.00,25.06,310.00,6.00,0.00,30.00,1013.10,10.00,M,CLR,M,M,M,M,M,M,M,M,M,M,M,M,M,M,61.00,KNFL 040757Z AUTO 31006KT 10SM CLR 16/M04 A3000 RMK AO2 SLP131 T01611039 403110106,M
TMT,2025-06-04 08:10,-117.1971,39.4643,1749.34,51.40,20.30,29.10,80.00,4.00,0.00,30.10,M,10.00,M,CLR,M,M,M,M,M,M,M,M,M,M,M,M,M,M,51.40,KTMT 040810Z AUTO 08004KT 10SM CLR 11/M06 A3010 RMK AO2 T01081065,M
BVU,2025-06-04 08:15,-114.8611,35.9475,671.00,78.80,48.20,34.18,130.00,10.00,0.00,29.80,M,10.00,M,CLR,M,M,M,M,M,M,M,M,M,M,M,M,M,M,78.80,KBVU 040815Z AUTO 13010KT 10SM CLR 26/09 A2980 RMK AO2,M
BAM,2025-06-04 08:15,-116.8743,40.5990,1382.36,55.40,26.60,32.75,10.00,5.00,0.00,30.07,M,10.00,M,CLR,M,M,M,M,M,M,M,M,M,M,M,M,M,M,55.40,KBAM 040815Z AUTO 01005KT 10SM CLR 13/M03 A3007 RMK AO1,M
CXP,2025-06-04 08:15,-119.7326,39.1923,1431.00,66.20,23.00,19.21,40.00,7.00,0.00,30.07,M,10.00,M,CLR,M,M,M,M,M,M,M,M,M,M,M,M,M,M,66.20,KCXP 040815Z AUTO 04007KT 10SM CLR 19/M05 A3007 RMK AO2,M
RTS,2025-06-04 08:15,-119.8764,39.6682,1539.00,53.60,23.00,30.09,300.00,5.00,0.00,30.09,M,10.00,M,CLR,M,M,M,M,M,M,M,M,M,M,M,M,M,M,53.60,KRTS 040815Z AUTO 30005KT 10SM CLR 12/M05 A3009 RMK AO2,M
HTH,2025-06-04 08:15,-118.6315,38.5448,1282.89,66.20,32.00,27.84,350.00,7.00,0.00,30.01,M,9.00,12.00,CLR,M,M,M,M,M,M,M,M,M,M,M,M,M,M,66.20,KHTH 040815Z AUTO 35007G12KT 9SM CLR 19/00 A3001 RMK A01,M
RTS,2025-06-04 08:25,-119.8764,39.6682,1539.00,51.80,23.00,32.15,330.00,5.00,0.00,30.09,M,10.00,M,CLR,M,M,M,M,M,M,M,M,M,M,M,M,M,M,51.80,KRTS 040825Z AUTO 33005KT 10SM CLR 11/M05 A3009 RMK AO2,M
TMT,2025-06-04 08:30,-117.1971,39.4643,1749.34,44.00,18.70,35.89,40.00,3.00,0.00,30.09,M,10.00,M,CLR,M,M,M,M,M,M,M,M,M,M,M,M,M,M,42.41,KTMT 040830Z AUTO 04003KT 10SM CLR 07/M07 A3009 RMK AO2 T00661074,M
BVU,2025-06-04 08:35,-114.8611,35.9475,671.00,78.80,50.00,36.56,150.00,12.00,0.00,29.80,M,10.00,M,CLR,M,M,M,M,M,M,M,M,M,M,M,M,M,M,78.80,KBVU 040835Z AUTO 15012KT 10SM CLR 26/10 A2980 RMK AO2,M
BAM,2025-06-04 08:35,-116.8743,40.5990,1382.36,51.80,26.60,37.36,40.00,7.00,0.00,30.07,M,10.00,M,CLR,M,M,M,M,M,M,M,M,M,M,M,M,M,M,51.80,KBAM 040835Z AUTO 04007KT 10SM CLR 11/M03 A3007 RMK AO1,M
CXP,2025-06-04 08:35,-119.7326,39.1923,1431.00,62.60,24.80,23.49,0.00,0.00,0.00,30.07,M,10.00,M,CLR,M,M,M,M,M,M,M,M,M,M,M,M,M,M,62.60,KCXP 040835Z AUTO 00000KT 10SM CLR 17/M04 A3007 RMK AO2,M
HTH,2025-06-04 08:35,-118.6315,38.5448,1282.89,64.40,24.80,22.05,340.00,10.00,0.00,30.01,M,10.00,M,CLR,M,M,M,M,M,M,M,M,M,M,M,M,M,M,64.40,KHTH 040835Z AUTO 34010KT 10SM CLR 18/M04 A3001 RMK A01,M
TMT,2025-06-04 08:50,-117.1971,39.4643,1749.34,39.40,17.00,39.84,150.00,5.00,0.00,30.10,M,10.00,M,CLR,M,M,M,M,M,M,M,M,M,M,M,M,M,M,35.18,KTMT 040850Z AUTO 15005KT 10SM CLR 04/M08 A3010 RMK AO2 T00411083,M
P68,2025-06-04 08:53,-116.0056,39.6014,1993.00,40.00,25.00,54.66,150.00,4.00,0.00,30.08,1012.60,M,M,M,M,M,M,M,M,M,M,M,M,M,M,M,M,M,36.76,KP68 040853Z AUTO 15004KT 04/M04 A3008 RMK AO1 SLP126 T00441039 53000,M
DRA,2025-06-04 08:53,-116.0278,36.6206,1009.00,70.00,46.00,42.22,300.00,5.00,0.00,29.87,1006.60,10.00,M,CLR,M,M,M,M,M,M,M,M,M,M,M,M,M,M,70.00,KDRA 040853Z AUTO 30005KT 10SM CLR 21/08 A2987 RMK AO2 SLP066 6//// T02110078 $,M
ELY,2025-06-04 08:53,-114.8453,39.2950,1909.00,51.00,21.00,30.43,350.00,4.00,0.00,30.07,1009.20,10.00,M,CLR,M,M,M,M,M,M,M,M,M,M,M,M,M,M,51.00,KELY 040853Z AUTO 35004KT 10SM CLR 11/M06 A3007 RMK AO2 SLP092 T01061061 50002,M
VGT,2025-06-04 08:53,-115.1933,36.2111,667.00,75.00,50.00,41.45,100.00,5.00,0.00,29.79,1007.90,10.00,M,FEW,M,M,M,11000.00,M,M,M,M,M,M,M,M,M,M,75.00,KVGT 040853Z AUTO 10005KT 10SM FEW110 24/10 A2979 RMK AO2 SLP079 T02390100 50004,M
LOL,2025-06-04 08:53,-118.5701,40.0684,1192.43,57.00,22.00,25.50,360.00,8.00,0.00,30.02,1013.10,10.00,M,CLR,M,M,M,M,M,M,M,M,M,M,M,M,M,M,57.00,KLOL 040853Z AUTO 36008KT 10SM CLR 14/M06 A3002 RMK AO2 SLP131 T01391056 50005,M
INS,2025-06-04 08:55,-115.6733,36.5872,955.00,67.00,50.40,55.19,20.00,4.00,0.00,29.86,1006.30,10.00,M,CLR,M,M,M,M,M,M,M,M,M,M,M,M,M,M,67.00,KINS 040855Z AUTO 02004KT 10SM CLR 20/10 A2986 RMK AO2 SLP063 T01950102 51006 $,M
LSV,2025-06-04 08:55,-115.0343,36.2362,570.00,79.50,47.00,31.93,0.00,0.00,0.00,29.75,1004.50,10.00,M,FEW,M,M,M,15000.00,M,M,M,M,M,M,M,M,M,M,79.50,KLSV 040855Z 00000KT 10SM FEW150 26/08 A2975 RMK AO2A SLP045 T02640084 53006 $,M
BVU,2025-06-04 08:55,-114.8611,35.9475,671.00,77.00,51.80,41.46,180.00,11.00,0.00,29.81,M,10.00,M,CLR,M,M,M,M,M,M,M,M,M,M,M,M,M,M,77.00,KBVU 040855Z AUTO 18011KT 10SM CLR 25/11 A2981 RMK AO2,M
RNO,2025-06-04 08:55,-119.7711,39.4839,1341.00,64.00,29.00,26.60,230.00,4.00,0.00,30.05,1012.00,10.00,M,CLR,M,M,M,M,M,M,M,M,M,M,M,M,M,M,64.00,KRNO 040855Z 23004KT 10SM CLR 18/M02 A3005 RMK AO2 SLP120 T01781017 51005,M
BAM,2025-06-04 08:55,-116.8743,40.5990,1382.36,51.80,24.80,34.67,0.00,0.00,0.00,30.07,M,10.00,M,CLR,M,M,M,M,M,M,M,M,M,M,M,M,M,M,51.80,KBAM 040855Z AUTO 00000KT 10SM CLR 11/M04 A3007 RMK AO1,M
CXP,2025-06-04 08:55,-119.7326,39.1923,1431.00,62.60,23.00,21.78,330.00,3.00,0.00,30.07,M,10.00,M,CLR,M,M,M,M,M,M,M,M,M,M,M,M,M,M,62.60,KCXP 040855Z AUTO 33003KT 10SM CLR 17/M05 A3007 RMK AO2,M
RTS,2025-06-04 08:55,-119.8764,39.6682,1539.00,50.00,23.00,34.37,0.00,0.00,0.00,30.08,M,10.00,M,CLR,M,M,M,M,M,M,M,M,M,M,M,M,M,M,50.00,KRTS 040855Z AUTO 00000KT 10SM CLR 10/M05 A3008 RMK AO2,M
HTH,2025-06-04 08:55,-118.6315,38.5448,1282.89,64.40,23.00,20.45,330.00,9.00,0.00,30.01,M,10.00,M,CLR,M,M,M,M,M,M,M,M,M,M,M,M,M,M,64.40,KHTH 040855Z AUTO 33009KT 10SM CLR 18/M05 A3001 RMK A01,M
EKO,2025-06-04 08:56,-115.7860,40.8242,1367.00,43.00,26.00,50.75,260.00,5.00,0.00,30.07,1015.10,10.00,M,CLR,M,M,M,M,M,M,M,M,M,M,M,M,M,M,39.46,KEKO 040856Z AUTO 26005KT 10SM CLR 06/M03 A3007 RMK AO2 SLP151 T00611033 51004,M
WMC,2025-06-04 08:56,-117.8072,40.9019,1315.00,50.00,23.00,34.37,350.00,5.00,0.00,30.04,1013.80,10.00,M,CLR,M,M,M,M,M,M,M,M,M,M,M,M,M,M,50.00,KWMC 040856Z AUTO 35005KT 10SM CLR 10/M05 A3004 RMK AO2 SLP138 T01001050 58003 TSNO,M
HND,2025-06-04 08:56,-115.1344,35.9729,742.79,75.00,50.00,41.45,200.00,13.00,0.00,29.84,1009.20,10.00,M,CLR,M,M,M,M,M,M,M,M,M,M,M,M,M,M,75.00,KHND 040856Z AUTO 20013KT 10SM CLR 24/10 A2984 RMK AO2 SLP092 T02390100 55002 $,M
TPH,2025-06-04 08:56,-117.0904,38.0505,1654.00,60.00,18.00,19.31,10.00,10.00,0.00,30.02,1008.80,10.00,M,CLR,M,M,M,M,M,M,M,M,M,M,M,M,M,M,60.00,KTPH 040856Z AUTO 01010KT 10SM CLR 16/M08 A3002 RMK AO2 SLP088 T01561078 50006 $,M
LAS,2025-06-04 08:56,-115.1634,36.0719,663.00,77.00,49.00,37.37,190.00,12.00,0.00,29.81,1006.80,10.00,21.00,FEW,BKN,M,M,12000.00,20000.00,M,M,M,M,M,M,M,M,M,77.00,KLAS 040856Z 19012G21KT 10SM FEW120 BKN200 25/09 A2981 RMK AO2 SLP068 T02500094 53004 $,M
NFL,2025-06-04 08:57,-118.7010,39.4166,1199.00,61.00,24.00,24.04,360.00,8.00,0.00,30.00,1013.00,10.00,M,CLR,M,M,M,M,M,M,M,M,M,M,M,M,M,M,61.00,KNFL 040857Z AUTO 36008KT 10SM CLR 16/M04 A3000 RMK AO2 SLP130 T01611044 50008,M
TMT,2025-06-04 09:10,-117.1971,39.4643,1749.34,42.00,17.60,36.96,150.00,6.00,0.00,30.10,M,10.00,M,CLR,M,M,M,M,M,M,M,M,M,M,M,M,M,M,37.57,KTMT 040910Z AUTO 15006KT 10SM CLR 06/M08 A3010 RMK AO2 T00551080,M
BVU,2025-06-04 09:15,-114.8611,35.9475,671.00,75.20,50.00,41.18,180.00,5.00,0.00,29.81,M,10.00,12.00,CLR,M,M,M,M,M,M,M,M,M,M,M,M,M,M,75.20,KBVU 040915Z AUTO 18005G12KT 10SM CLR 24/10 A2981 RMK AO2,M
BAM,2025-06-04 09:15,-116.8743,40.5990,1382.36,46.40,23.00,39.33,0.00,0.00,0.00,30.07,M,10.00,M,CLR,M,M,M,M,M,M,M,M,M,M,M,M,M,M,46.40,KBAM 040915Z AUTO 00000KT 10SM CLR 08/M05 A3007 RMK AO1,M
CXP,2025-06-04 09:15,-119.7326,39.1923,1431.00,60.80,23.00,23.21,330.00,5.00,0.00,30.07,M,10.00,M,CLR,M,M,M,M,M,M,M,M,M,M,M,M,M,M,60.80,KCXP 040915Z AUTO 33005KT 10SM CLR 16/M05 A3007 RMK AO2,M
RTS,2025-06-04 09:15,-119.8764,39.6682,1539.00,51.80,23.00,32.15,0.00,0.00,0.00,30.09,M,10.00,M,CLR,M,M,M,M,M,M,M,M,M,M,M,M,M,M,51.80,KRTS 040915Z AUTO 00000KT 10SM CLR 11/M05 A3009 RMK AO2,M
HTH,2025-06-04 09:15,-118.6315,38.5448,1282.89,62.60,28.40,27.26,330.00,10.00,0.00,30.01,M,10.00,M,CLR,M,M,M,M,M,M,M,M,M,M,M,M,M,M,62.60,KHTH 040915Z AUTO 33010KT 10SM CLR 17/M02 A3001 RMK A01,M
MEV,2025-06-04 09:25,-119.7500,38.9963,1441.42,48.20,32.00,53.25,0.00,0.00,0.00,30.05,M,10.00,M,CLR,M,M,M,M,M,M,M,M,M,M,M,M,M,M,48.20,KMEV 040925Z AUTO 00000KT 10SM CLR 09/M00 A3005 RMK AO2,M
RTS,2025-06-04 09:25,-119.8764,39.6682,1539.00,51.80,23.00,32.15,0.00,0.00,0.00,30.09,M,10.00,M,CLR,M,M,M,M,M,M,M,M,M,M,M,M,M,M,51.80,KRTS 040925Z AUTO 00000KT 10SM CLR 11/M05 A3009 RMK AO2,M
TMT,2025-06-04 09:30,-117.1971,39.4643,1749.34,37.00,16.70,43.21,140.00,6.00,0.00,30.10,M,10.00,M,CLR,M,M,M,M,M,M,M,M,M,M,M,M,M,M,31.55,KTMT 040930Z AUTO 14006KT 10SM CLR 03/M08 A3010 RMK AO2 T00281085,M
BVU,2025-06-04 09:35,-114.8611,35.9475,671.00,75.20,50.00,41.18,170.00,9.00,0.00,29.81,M,10.00,M,CLR,M,M,M,M,M,M,M,M,M,M,M,M,M,M,75.20,KBVU 040935Z AUTO 17009KT 10SM CLR 24/10 A2981 RMK AO2,M
BAM,2025-06-04 09:35,-116.8743,40.5990,1382.36,50.00,24.80,37.06,270.00,3.00,0.00,30.07,M,10.00,M,CLR,M,M,M,M,M,M,M,M,M,M,M,M,M,M,50.00,KBAM 040935Z AUTO 27003KT 10SM CLR 10/M04 A3007 RMK AO1,M
CXP,2025-06-04 09:35,-119.7326,39.1923,1431.00,59.00,26.60,28.76,0.00,0.00,0.00,30.07,M,10.00,M,CLR,M,M,M,M,M,M,M,M,M,M,M,M,M,M,59.00,KCXP 040935Z AUTO 00000KT 10SM CLR 15/M03 A3007 RMK AO2,M
HTH,2025-06-04 09:35,-118.6315,38.5448,1282.89,62.60,28.40,27.26,310.00,3.00,0.00,30.02,M,10.00,M,CLR,M,M,M,M,M,M,M,M,M,M,M,M,M,M,62.60,KHTH 040935Z AUTO 31003KT 10SM CLR 17/M02 A3002 RMK A01,M
TMT,2025-06-04 09:50,-117.1971,39.4643,1749.34,38.00,17.20,42.45,220.00,6.00,0.00,30.10,M,10.00,M,CLR,M,M,M,M,M,M,M,M,M,M,M,M,M,M,32.76,KTMT 040950Z AUTO 22006KT 10SM CLR 03/M08 A3010 RMK AO2 T00331082,M
P68,2025-06-04 09:53,-116.0056,39.6014,1993.00,38.00,19.00,45.87,0.00,0.00,0.00,30.09,1012.70,M,M,M,M,M,M,M,M,M,M,M,M,M,M,M,M,M,38.00,KP68 040953Z AUTO 00000KT 03/M07 A3009 RMK AO1 SLP127 T00331072,M
DRA,2025-06-04 09:53,-116.0278,36.6206,1009.00,69.00,47.00,45.37,0.00,0.00,0.00,29.87,1006.60,10.00,M,CLR,M,M,M,M,M,M,M,M,M,M,M,M,M,M,69.00,KDRA 040953Z AUTO 00000KT 10SM CLR 21/08 A2987 RMK AO2 SLP066 T02060083 $,M
ELY,2025-06-04 09:53,-114.8453,39.2950,1909.00,50.00,21.00,31.58,40.00,10.00,0.00,30.07,1009.30,10.00,M,CLR,M,M,M,M,M,M,M,M,M,M,M,M,M,M,50.00,KELY 040953Z AUTO 04010KT 10SM CLR 10/M06 A3007 RMK AO2 SLP093 T01001061,M
VGT,2025-06-04 09:53,-115.1933,36.2111,667.00,75.00,49.00,39.94,0.00,0.00,0.00,29.80,1008.10,10.00,M,CLR,M,M,M,M,M,M,M,M,M,M,M,M,M,M,75.00,KVGT 040953Z AUTO 00000KT 10SM CLR 24/09 A2980 RMK AO2 SLP081 T02390094,M
LOL,2025-06-04 09:53,-118.5701,40.0684,1192.43,54.00,21.00,27.25,90.00,8.00,0.00,30.02,1013.30,10.00,M,CLR,M,M,M,M,M,M,M,M,M,M,M,M,M,M,54.00,KLOL 040953Z AUTO 09008KT 10SM CLR 12/M06 A3002 RMK AO2 SLP133 T01221061,M
BAM,2025-06-04 09:55,-116.8743,40.5990,1382.36,50.00,24.80,37.06,0.00,0.00,0.00,30.07,M,10.00,M,CLR,M,M,M,M,M,M,M,M,M,M,M,M,M,M,50.00,KBAM 040955Z AUTO 00000KT 10SM CLR 10/M04 A3007 RMK AO1,M
LSV,2025-06-04 09:55,-115.0343,36.2362,570.00,79.00,46.00,31.26,0.00,0.00,0.00,29.76,1004.90,10.00,M,SCT,M,M,M,15000.00,M,M,M,M,M,M,M,M,M,M,79.00,KLSV 040955Z 00000KT 10SM SCT150 26/08 A2976 RMK AO2A SLP049 T02620077 $,M
HTH,2025-06-04 09:55,-118.6315,38.5448,1282.89,64.40,30.20,27.55,330.00,10.00,0.00,30.02,M,10.00,M,CLR,M,M,M,M,M,M,M,M,M,M,M,M,M,M,64.40,KHTH 040955Z AUTO 33010KT 10SM CLR 18/M01 A3002 RMK A01,M
BVU,2025-06-04 09:55,-114.8611,35.9475,671.00,77.00,51.80,41.46,190.00,8.00,0.00,29.81,M,10.00,14.00,CLR,M,M,M,M,M,M,M,M,M,M,M,M,M,M,77.00,KBVU 040955Z AUTO 19008G14KT 10SM CLR 25/11 A2981 RMK AO2,M
INS,2025-06-04 09:55,-115.6733,36.5872,955.00,62.20,51.60,68.22,240.00,6.00,0.00,29.86,1007.00,10.00,M,CLR,M,M,M,M,M,M,M,M,M,M,M,M,M,M,62.20,KINS 040955Z AUTO 24006KT 10SM CLR 17/11 A2986 RMK AO2 SLP070 T01680109 $,M
RNO,2025-06-04 09:55,-119.7711,39.4839,1341.00,61.00,30.00,30.80,0.00,0.00,0.00,30.05,1012.20,10.00,M,CLR,M,M,M,M,M,M,M,M,M,M,M,M,M,M,61.00,KRNO 040955Z 00000KT 10SM CLR 16/M01 A3005 RMK AO2 SLP122 T01611011,M
CXP,2025-06-04 09:55,-119.7326,39.1923,1431.00,59.00,23.00,24.75,330.00,7.00,0.00,30.07,M,10.00,M,CLR,M,M,M,M,M,M,M,M,M,M,M,M,M,M,59.00,KCXP 040955Z AUTO 33007KT 10SM CLR 15/M05 A3007 RMK AO2,M
HND,2025-06-04 09:56,-115.1344,35.9729,742.79,72.00,51.00,47.58,190.00,12.00,0.00,29.84,1009.70,10.00,M,CLR,M,M,M,M,M,M,M,M,M,M,M,M,M,M,72.00,KHND 040956Z AUTO 19012KT 10SM CLR 22/11 A2984 RMK AO2 SLP097 T02220106 $,M
EKO,2025-06-04 09:56,-115.7860,40.8242,1367.00,44.00,24.00,44.93,140.00,3.00,0.00,30.07,1014.90,10.00,M,CLR,M,M,M,M,M,M,M,M,M,M,M,M,M,M,42.41,KEKO 040956Z AUTO 14003KT 10SM CLR 07/M04 A3007 RMK AO2 SLP149 T00671044,M
WMC,2025-06-04 09:56,-117.8072,40.9019,1315.00,51.00,23.00,33.11,340.00,4.00,0.00,30.06,1014.20,10.00,M,CLR,M,M,M,M,M,M,M,M,M,M,M,M,M,M,51.00,KWMC 040956Z AUTO 34004KT 10SM CLR 11/M05 A3006 RMK AO2 SLP142 T01061050 TSNO,M
TPH,2025-06-04 09:56,-117.0904,38.0505,1654.00,57.00,18.00,21.50,360.00,13.00,0.00,30.02,1008.80,10.00,M,CLR,M,M,M,M,M,M,M,M,M,M,M,M,M,M,57.00,KTPH 040956Z AUTO 36013KT 10SM CLR 14/M08 A3002 RMK AO2 SLP088 T01391078 $,M
LAS,2025-06-04 09:56,-115.1634,36.0719,663.00,77.00,48.00,36.00,200.00,8.00,0.00,29.81,1006.80,10.00,M,FEW,BKN,M,M,12000.00,20000.00,M,M,M,M,M,M,M,M,M,77.00,KLAS 040956Z 20008KT 10SM FEW120 BKN200 25/09 A2981 RMK AO2 SLP068 T02500089 $,M
NFL,2025-06-04 09:57,-118.7010,39.4166,1199.00,57.00,26.00,30.14,340.00,9.00,0.00,30.01,1013.20,10.00,M,CLR,M,M,M,M,M,M,M,M,M,M,M,M,M,M,57.00,KNFL 040957Z AUTO 34009KT 10SM CLR 14/M03 A3001 RMK AO2 SLP132 T01391033,M
TMT,2025-06-04 10:10,-117.1971,39.4643,1749.34,36.30,20.00,51.19,160.00,3.00,0.00,30.11,M,10.00,M,CLR,M,M,M,M,M,M,M,M,M,M,M,M,M,M,33.60,KTMT 041010Z AUTO 16003KT 10SM CLR 02/M07 A3011 RMK AO2 T00241067,M
BVU,2025-06-04 10:15,-114.8611,35.9475,671.00,75.20,53.60,47.03,150.00,6.00,0.00,29.81,M,10.00,M,CLR,M,M,M,M,M,M,M,M,M,M,M,M,M,M,75.20,KBVU 041015Z AUTO 15006KT 10SM CLR 24/12 A2981 RMK AO2,M
RTS,2025-06-04 10:15,-119.8764,39.6682,1539.00,46.40,21.20,36.45,M,3.00,0.00,30.09,M,10.00,M,CLR,M,M,M,M,M,M,M,M,M,M,M,M,M,M,45.15,KRTS 041015Z AUTO VRB03KT 10SM CLR 08/M06 A3009 RMK AO2,M
BAM,2025-06-04 10:15,-116.8743,40.5990,1382.36,44.60,23.00,42.11,0.00,0.00,0.00,30.07,M,10.00,M,CLR,M,M,M,M,M,M,M,M,M,M,M,M,M,M,44.60,KBAM 041015Z AUTO 00000KT 10SM CLR 07/M05 A3007 RMK AO1,M
CXP,2025-06-04 10:15,-119.7326,39.1923,1431.00,55.40,23.00,28.18,M,4.00,0.00,30.07,M,10.00,M,CLR,M,M,M,M,M,M,M,M,M,M,M,M,M,M,55.40,KCXP 041015Z AUTO VRB04KT 10SM CLR 13/M05 A3007 RMK AO2,M
MEV,2025-06-04 10:15,-119.7500,38.9963,1441.42,48.20,30.20,49.51,110.00,3.00,0.00,30.06,M,10.00,M,CLR,M,M,M,M,M,M,M,M,M,M,M,M,M,M,47.21,KMEV 041015Z AUTO 11003KT 10SM CLR 09/M01 A3006 RMK AO2,M
HTH,2025-06-04 10:15,-118.6315,38.5448,1282.89,64.40,33.80,31.86,350.00,9.00,0.00,30.02,M,10.00,M,CLR,M,M,M,M,M,M,M,M,M,M,M,M,M,M,64.40,KHTH 041015Z AUTO 35009KT 10SM CLR 18/01 A3002 RMK A01,M
TMT,2025-06-04 10:30,-117.1971,39.4643,1749.34,35.00,20.30,54.59,220.00,4.00,0.00,30.11,M,10.00,M,CLR,M,M,M,M,M,M,M,M,M,M,M,M,M,M,30.92,KTMT 041030Z AUTO 22004KT 10SM CLR 02/M06 A3011 RMK AO2 T00171065,M
BAM,2025-06-04 10:35,-116.8743,40.5990,1382.36,42.80,23.00,45.11,0.00,0.00,0.00,30.08,M,10.00,M,CLR,M,M,M,M,M,M,M,M,M,M,M,M,M,M,42.80,KBAM 041035Z AUTO 00000KT 10SM CLR 06/M05 A3008 RMK AO1,M
HTH,2025-06-04 10:35,-118.6315,38.5448,1282.89,62.60,30.20,29.34,320.00,7.00,0.00,30.02,M,10.00,M,CLR,M,M,M,M,M,M,M,M,M,M,M,M,M,M,62.60,KHTH 041035Z AUTO 32007KT 10SM CLR 17/M01 A3002 RMK A01,M
BVU,2025-06-04 10:35,-114.8611,35.9475,671.00,75.20,53.60,47.03,140.00,5.00,0.00,29.81,M,10.00,M,CLR,M,M,M,M,M,M,M,M,M,M,M,M,M,M,75.20,KBVU 041035Z AUTO 14005KT 10SM CLR 24/12 A2981 RMK AO2,M
CXP,2025-06-04 10:35,-119.7326,39.1923,1431.00,57.20,24.80,28.47,0.00,0.00,0.00,30.08,M,10.00,M,CLR,M,M,M,M,M,M,M,M,M,M,M,M,M,M,57.20,KCXP 041035Z AUTO 00000KT 10SM CLR 14/M04 A3008 RMK AO2,M
RTS,2025-06-04 10:35,-119.8764,39.6682,1539.00,46.40,21.20,36.45,0.00,0.00,0.00,30.09,M,10.00,M,M,M,M,M,M,M,M,M,M,M,M,M,M,M,M,46.40,KRTS 041035Z AUTO 00000KT 10SM 08/M06 A3009 RMK AO2,M
MEV,2025-06-04 10:35,-119.7500,38.9963,1441.42,48.20,30.20,49.51,120.00,4.00,0.00,30.06,M,10.00,M,CLR,M,M,M,M,M,M,M,M,M,M,M,M,M,M,46.34,KMEV 041035Z AUTO 12004KT 10SM CLR 09/M01 A3006 RMK AO2,M
MEV,2025-06-04 10:45,-119.7500,38.9963,1441.42,42.80,30.20,60.77,0.00,0.00,0.00,30.06,M,10.00,M,CLR,M,M,M,M,M,M,M,M,M,M,M,M,M,M,42.80,KMEV 041045Z AUTO 00000KT 10SM CLR 06/M01 A3006 RMK AO2,M
RTS,2025-06-04 10:45,-119.8764,39.6682,1539.00,46.40,21.20,36.45,0.00,0.00,0.00,30.09,M,10.00,M,CLR,M,M,M,M,M,M,M,M,M,M,M,M,M,M,46.40,KRTS 041045Z AUTO 00000KT 10SM CLR 08/M06 A3009 RMK AO2,M
TMT,2025-06-04 10:50,-117.1971,39.4643,1749.34,34.70,20.30,55.25,220.00,5.00,0.00,30.11,M,10.00,M,CLR,M,M,M,M,M,M,M,M,M,M,M,M,M,M,29.60,KTMT 041050Z AUTO 22005KT 10SM CLR 02/M06 A3011 RMK AO2 T00151065,M
VGT,2025-06-04 10:53,-115.1933,36.2111,667.00,73.00,50.00,44.33,340.00,3.00,0.00,29.80,1008.60,10.00,M,CLR,M,M,M,M,M,M,M,M,M,M,M,M,M,M,73.00,KVGT 041053Z AUTO 34003KT 10SM CLR 23/10 A2980 RMK AO2 SLP086 T02280100,M
LOL,2025-06-04 10:53,-118.5701,40.0684,1192.43,55.00,23.00,28.59,30.00,7.00,0.00,30.03,1013.40,10.00,M,CLR,M,M,M,M,M,M,M,M,M,M,M,M,M,M,55.00,KLOL 041053Z AUTO 03007KT 10SM CLR 13/M05 A3003 RMK AO2 SLP134 T01281050,M
P68,2025-06-04 10:53,-116.0056,39.6014,1993.00,39.00,18.00,42.25,0.00,0.00,0.00,30.09,1012.90,M,M,M,M,M,M,M,M,M,M,M,M,M,M,M,M,M,39.00,KP68 041053Z AUTO 00000KT 04/M08 A3009 RMK AO1 SLP129 T00391078,M
DRA,2025-06-04 10:53,-116.0278,36.6206,1009.00,68.00,47.00,46.96,350.00,7.00,0.00,29.87,1006.60,10.00,M,CLR,M,M,M,M,M,M,M,M,M,M,M,M,M,M,68.00,KDRA 041053Z AUTO 35007KT 10SM CLR 20/08 A2987 RMK AO2 SLP066 T02000083 $,M
ELY,2025-06-04 10:53,-114.8453,39.2950,1909.00,46.00,21.00,36.69,M,M,0.00,30.07,1009.70,10.00,M,CLR,M,M,M,M,M,M,M,M,M,M,M,M,M,M,M,KELY 041053Z AUTO 10SM CLR 08/M06 A3007 RMK AO2 SLP097 T00781061,M
INS,2025-06-04 10:55,-115.6733,36.5872,955.00,64.00,50.50,61.49,0.00,0.00,0.00,29.86,1007.20,10.00,M,CLR,M,M,M,M,M,M,M,M,M,M,M,M,M,M,64.00,KINS 041055Z AUTO 00000KT 10SM CLR 18/10 A2986 RMK AO2 SLP072 T01770103 $,M
LSV,2025-06-04 10:55,-115.0343,36.2362,570.00,77.70,46.20,32.87,0.00,0.00,0.00,29.76,1005.40,10.00,M,SCT,M,M,M,15000.00,M,M,M,M,M,M,M,M,M,M,77.70,KLSV 041055Z 00000KT 10SM SCT150 25/08 A2976 RMK AO2A SLP054 T02540079 $,M
BVU,2025-06-04 10:55,-114.8611,35.9475,671.00,73.40,53.60,49.95,190.00,5.00,0.00,29.81,M,10.00,M,CLR,M,M,M,M,M,M,M,M,M,M,M,M,M,M,73.40,KBVU 041055Z AUTO 19005KT 10SM CLR 23/12 A2981 RMK AO2,M
BAM,2025-06-04 10:55,-116.8743,40.5990,1382.36,42.80,21.20,41.81,0.00,0.00,0.00,30.08,M,10.00,M,CLR,M,M,M,M,M,M,M,M,M,M,M,M,M,M,42.80,KBAM 041055Z AUTO 00000KT 10SM CLR 06/M06 A3008 RMK AO1,M
RNO,2025-06-04 10:55,-119.7711,39.4839,1341.00,59.00,30.00,33.07,290.00,8.00,0.00,30.05,1012.50,10.00,M,CLR,M,M,M,M,M,M,M,M,M,M,M,M,M,M,59.00,KRNO 041055Z 29008KT 10SM CLR 15/M01 A3005 RMK AO2 SLP125 T01501011,M
CXP,2025-06-04 10:55,-119.7326,39.1923,1431.00,55.40,28.40,35.27,0.00,0.00,0.00,30.08,M,10.00,M,CLR,M,M,M,M,M,M,M,M,M,M,M,M,M,M,55.40,KCXP 041055Z AUTO 00000KT 10SM CLR 13/M02 A3008 RMK AO2,M
HTH,2025-06-04 10:55,-118.6315,38.5448,1282.89,62.60,26.60,25.31,320.00,11.00,0.00,30.03,M,10.00,M,CLR,M,M,M,M,M,M,M,M,M,M,M,M,M,M,62.60,KHTH 041055Z AUTO 32011KT 10SM CLR 17/M03 A3003 RMK A01,M
HND,2025-06-04 10:56,-115.1344,35.9729,742.79,72.00,50.00,45.84,180.00,9.00,0.00,29.85,1009.90,10.00,M,CLR,M,M,M,M,M,M,M,M,M,M,M,M,M,M,72.00,KHND 041056Z AUTO 18009KT 10SM CLR 22/10 A2985 RMK AO2 SLP099 T02220100 $,M
EKO,2025-06-04 10:56,-115.7860,40.8242,1367.00,41.00,25.00,52.58,0.00,0.00,0.00,30.08,1015.20,10.00,M,CLR,M,M,M,M,M,M,M,M,M,M,M,M,M,M,41.00,KEKO 041056Z AUTO 00000KT 10SM CLR 05/M04 A3008 RMK AO2 SLP152 T00501039,M
WMC,2025-06-04 10:56,-117.8072,40.9019,1315.00,52.00,23.00,31.91,30.00,10.00,0.00,30.06,1014.10,10.00,M,CLR,M,M,M,M,M,M,M,M,M,M,M,M,M,M,52.00,KWMC 041056Z AUTO 03010KT 10SM CLR 11/M05 A3006 RMK AO2 SLP141 T01111050 TSNO,M
TPH,2025-06-04 10:56,-117.0904,38.0505,1654.00,57.00,18.00,21.50,360.00,16.00,0.00,30.01,1008.90,10.00,M,CLR,M,M,M,M,M,M,M,M,M,M,M,M,M,M,57.00,KTPH 041056Z AUTO 36016KT 10SM CLR 14/M08 A3001 RMK AO2 SLP089 T01391078 $,M
LAS,2025-06-04 10:56,-115.1634,36.0719,663.00,74.00,49.00,41.29,220.00,7.00,0.00,29.82,1007.30,10.00,M,FEW,BKN,M,M,14000.00,22000.00,M,M,M,M,M,M,M,M,M,74.00,KLAS 041056Z 22007KT 10SM FEW140 BKN220 23/09 A2982 RMK AO2 SLP073 T02330094 $,M
NFL,2025-06-04 10:57,-118.7010,39.4166,1199.00,53.00,24.00,32.08,50.00,3.00,0.00,30.01,1013.30,10.00,M,CLR,M,M,M,M,M,M,M,M,M,M,M,M,M,M,53.00,KNFL 041057Z AUTO 05003KT 10SM CLR 12/M04 A3001 RMK AO2 SLP133 T01171044,M
TMT,2025-06-04 11:10,-117.1971,39.4643,1749.34,35.00,19.80,53.44,220.00,5.00,0.00,30.11,M,10.00,M,CLR,M,M,M,M,M,M,M,M,M,M,M,M,M,M,29.96,KTMT 041110Z AUTO 22005KT 10SM CLR 02/M07 A3011 RMK AO2 T00171068,M
BVU,2025-06-04 11:15,-114.8611,35.9475,671.00,73.40,55.40,53.33,240.00,4.00,0.00,29.81,M,10.00,M,CLR,M,M,M,M,M,M,M,M,M,M,M,M,M,M,73.40,KBVU 041115Z AUTO 24004KT 10SM CLR 23/13 A2981 RMK AO2,M
BAM,2025-06-04 11:15,-116.8743,40.5990,1382.36,42.80,23.00,45.11,70.00,3.00,0.00,30.08,M,10.00,M,CLR,M,M,M,M,M,M,M,M,M,M,M,M,M,M,41.03,KBAM 041115Z AUTO 07003KT 10SM CLR 06/M05 A3008 RMK AO1,M
CXP,2025-06-04 11:15,-119.7326,39.1923,1431.00,53.60,28.40,37.66,0.00,0.00,0.00,30.07,M,10.00,M,CLR,M,M,M,M,M,M,M,M,M,M,M,M,M,M,53.60,KCXP 041115Z AUTO 00000KT 10SM CLR 12/M02 A3007 RMK AO2,M
RTS,2025-06-04 11:15,-119.8764,39.6682,1539.00,44.60,21.20,39.03,0.00,0.00,0.00,30.09,M,10.00,M,CLR,M,M,M,M,M,M,M,M,M,M,M,M,M,M,44.60,KRTS 041115Z AUTO 00000KT 10SM CLR 07/M06 A3009 RMK AO2,M
HTH,2025-06-04 11:15,-118.6315,38.5448,1282.89,62.60,26.60,25.31,330.00,11.00,0.00,30.02,M,10.00,M,CLR,M,M,M,M,M,M,M,M,M,M,M,M,M,M,62.60,KHTH 041115Z AUTO 33011KT 10SM CLR 17/M03 A3002 RMK A01,M
TMT,2025-06-04 11:30,-117.1971,39.4643,1749.34,34.70,20.00,54.55,230.00,5.00,0.00,30.11,M,10.00,M,CLR,M,M,M,M,M,M,M,M,M,M,M,M,M,M,29.60,KTMT 041130Z AUTO 23005KT 10SM CLR 02/M07 A3011 RMK AO2 T00151066,M
BVU,2025-06-04 11:35,-114.8611,35.9475,671.00,73.40,55.40,53.33,190.00,8.00,0.00,29.82,M,10.00,M,CLR,M,M,M,M,M,M,M,M,M,M,M,M,M,M,73.40,KBVU 041135Z AUTO 19008KT 10SM CLR 23/13 A2982 RMK AO2,M
BAM,2025-06-04 11:35,-116.8743,40.5990,1382.36,42.80,23.00,45.11,10.00,5.00,0.00,30.08,M,10.00,M,CLR,M,M,M,M,M,M,M,M,M,M,M,M,M,M,39.22,KBAM 041135Z AUTO 01005KT 10SM CLR 06/M05 A3008 RMK AO1,M
CXP,2025-06-04 11:35,-119.7326,39.1923,1431.00,51.80,28.40,40.23,0.00,0.00,0.00,30.08,M,10.00,M,CLR,M,M,M,M,M,M,M,M,M,M,M,M,M,M,51.80,KCXP 041135Z AUTO 00000KT 10SM CLR 11/M02 A3008 RMK AO2,M
RTS,2025-06-04 11:35,-119.8764,39.6682,1539.00,44.60,21.20,39.03,0.00,0.00,0.00,30.09,M,10.00,M,CLR,M,M,M,M,M,M,M,M,M,M,M,M,M,M,44.60,KRTS 041135Z AUTO 00000KT 10SM CLR 07/M06 A3009 RMK AO2,M
MEV,2025-06-04 11:35,-119.7500,38.9963,1441.42,41.00,32.00,70.06,120.00,5.00,0.00,30.06,M,10.00,M,CLR,M,M,M,M,M,M,M,M,M,M,M,M,M,M,37.08,KMEV 041135Z AUTO 12005KT 10SM CLR 05/M00 A3006 RMK AO2,M
HTH,2025-06-04 11:35,-118.6315,38.5448,1282.89,62.60,26.60,25.31,320.00,9.00,0.00,30.03,M,10.00,14.00,CLR,M,M,M,M,M,M,M,M,M,M,M,M,M,M,62.60,KHTH 041135Z AUTO 32009G14KT 10SM CLR 17/M03 A3003 RMK A01,M
MEV,2025-06-04 11:40,-119.7500,38.9963,1441.42,41.00,32.00,70.06,110.00,4.00,0.00,30.06,M,10.00,M,FEW,M,M,M,5000.00,M,M,M,M,M,M,M,M,M,M,37.93,KMEV 041140Z AUTO 11004KT 10SM FEW050 05/M00 A3006 RMK AO2,M
RTS,2025-06-04 11:45,-119.8764,39.6682,1539.00,44.60,21.20,39.03,0.00,0.00,0.00,30.09,M,10.00,M,CLR,M,M,M,M,M,M,M,M,M,M,M,M,M,M,44.60,KRTS 041145Z AUTO 00000KT 10SM CLR 07/M06 A3009 RMK AO2,M
TMT,2025-06-04 11:50,-117.1971,39.4643,1749.34,29.30,15.80,56.60,220.00,3.00,0.00,30.11,M,10.00,M,CLR,M,M,M,M,M,M,M,M,M,M,M,M,M,M,25.60,KTMT 041150Z AUTO 22003KT 10SM CLR M01/M09 A3011 RMK AO2 T10151090,M
P68,2025-06-04 11:53,-116.0056,39.6014,1993.00,36.00,19.00,49.63,190.00,6.00,0.00,30.09,1013.10,M,M,M,M,M,M,M,M,M,M,M,M,M,M,M,M,M,30.35,KP68 041153Z AUTO 19006KT 02/M07 A3009 RMK AO1 SLP131 T00221072 10133 20017 50002,M
DRA,2025-06-04 11:53,-116.0278,36.6206,1009.00,67.00,47.00,48.60,30.00,5.00,0.00,29.87,1006.70,10.00,M,CLR,M,M,M,M,M,M,M,M,M,M,M,M,M,M,67.00,KDRA 041153Z AUTO 03005KT 10SM CLR 19/08 A2987 RMK AO2 SLP067 6//// 7//// T01940083 10233 20189 51001 $,M
ELY,2025-06-04 11:53,-114.8453,39.2950,1909.00,45.00,21.00,38.11,30.00,3.00,0.00,30.08,1010.20,10.00,M,CLR,M,M,M,M,M,M,M,M,M,M,M,M,M,M,43.55,KELY 041153Z AUTO 03003KT 10SM CLR 07/M06 A3008 RMK AO2 SLP102 T00721061 10128 20050 53004,M
VGT,2025-06-04 11:53,-115.1933,36.2111,667.00,72.00,48.00,42.54,330.00,7.00,0.00,29.80,1008.60,10.00,M,CLR,M,M,M,M,M,M,M,M,M,M,M,M,M,M,72.00,KVGT 041153Z AUTO 33007KT 10SM CLR 22/09 A2980 RMK AO2 SLP086 T02220089 10267 20222 51003,M
LOL,2025-06-04 11:53,-118.5701,40.0684,1192.43,53.00,22.00,29.49,10.00,5.00,0.00,30.03,1013.60,10.00,M,CLR,M,M,M,M,M,M,M,M,M,M,M,M,M,M,53.00,KLOL 041153Z AUTO 01005KT 10SM CLR 12/M06 A3003 RMK AO2 SLP136 T01171056 10200 20089 51004,M
INS,2025-06-04 11:55,-115.6733,36.5872,955.00,62.80,49.60,62.02,0.00,0.00,0.00,29.87,1007.60,10.00,M,CLR,M,M,M,M,M,M,M,M,M,M,M,M,M,M,62.80,KINS 041155Z AUTO 00000KT 10SM CLR 17/10 A2987 RMK AO2 SLP076 70011 T01710098 10234 20162 53003 $,M
LSV,2025-06-04 11:55,-115.0343,36.2362,570.00,77.00,48.60,36.82,130.00,3.00,0.00,29.76,1005.10,10.00,M,CLR,M,M,M,M,M,M,M,M,M,M,M,M,M,M,77.00,KLSV 041155Z 13003KT 10SM CLR 25/09 A2976 RMK AO2A SLP051 T02490092 10283 20246 52003 $,M
CXP,2025-06-04 11:55,-119.7326,39.1923,1431.00,53.60,24.80,32.45,0.00,0.00,0.00,30.07,M,10.00,M,CLR,M,M,M,M,M,M,M,M,M,M,M,M,M,M,53.60,KCXP 041155Z AUTO 00000KT 10SM CLR 12/M04 A3007 RMK AO2,M
BVU,2025-06-04 11:55,-114.8611,35.9475,671.00,71.60,53.60,53.07,170.00,10.00,0.00,29.82,M,10.00,M,CLR,M,M,M,M,M,M,M,M,M,M,M,M,M,M,71.60,KBVU 041155Z AUTO 17010KT 10SM CLR 22/12 A2982 RMK AO2,M
RNO,2025-06-04 11:55,-119.7711,39.4839,1341.00,57.00,30.00,35.53,290.00,5.00,0.00,30.06,1012.70,10.00,M,CLR,M,M,M,M,M,M,M,M,M,M,M,M,M,M,57.00,KRNO 041155Z 29005KT 10SM CLR 14/M01 A3006 RMK AO2 SLP127 T01391011 10217 20139 51003,M
BAM,2025-06-04 11:55,-116.8743,40.5990,1382.36,41.00,23.00,48.36,360.00,3.00,0.00,30.08,M,10.00,M,CLR,M,M,M,M,M,M,M,M,M,M,M,M,M,M,38.98,KBAM 041155Z AUTO 36003KT 10SM CLR 05/M05 A3008 RMK AO1,M
HTH,2025-06-04 11:55,-118.6315,38.5448,1282.89,62.60,26.60,25.31,320.00,10.00,0.00,30.03,M,10.00,M,CLR,M,M,M,M,M,M,M,M,M,M,M,M,M,M,62.60,KHTH 041155Z AUTO 32010KT 10SM CLR 17/M03 A3003 RMK A01,M
EKO,2025-06-04 11:56,-115.7860,40.8242,1367.00,38.00,27.00,64.22,0.00,0.00,0.00,30.08,1015.60,10.00,M,CLR,M,M,M,M,M,M,M,M,M,M,M,M,M,M,38.00,KEKO 041156Z AUTO 00000KT 10SM CLR 03/M03 A3008 RMK AO2 SLP156 T00331028 10150 20033 53002,M
WMC,2025-06-04 11:56,-117.8072,40.9019,1315.00,48.00,24.00,38.62,350.00,4.00,0.00,30.06,1014.40,10.00,M,CLR,M,M,M,M,M,M,M,M,M,M,M,M,M,M,46.10,KWMC 041156Z AUTO 35004KT 10SM CLR 09/M04 A3006 RMK AO2 SLP144 T00891044 10161 20083 51006 TSNO,M
HND,2025-06-04 11:56,-115.1344,35.9729,742.79,72.00,50.00,45.84,200.00,8.00,0.00,29.85,1010.00,10.00,M,CLR,M,M,M,M,M,M,M,M,M,M,M,M,M,M,72.00,KHND 041156Z AUTO 20008KT 10SM CLR 22/10 A2985 RMK AO2 SLP100 70010 T02220100 10244 20211 53005 $,M
TPH,2025-06-04 11:56,-117.0904,38.0505,1654.00,56.00,18.00,22.29,350.00,15.00,0.00,30.02,1009.10,10.00,M,CLR,M,M,M,M,M,M,M,M,M,M,M,M,M,M,56.00,KTPH 041156Z AUTO 35015KT 10SM CLR 13/M08 A3002 RMK AO2 SLP091 T01331078 10200 20133 53001 $,M
LAS,2025-06-04 11:56,-115.1634,36.0719,663.00,74.00,50.00,42.86,180.00,4.00,0.00,29.82,1007.50,10.00,M,FEW,SCT,M,M,12000.00,18000.00,M,M,M,M,M,M,M,M,M,74.00,KLAS 041156Z 18004KT 10SM FEW120 SCT180 23/10 A2982 RMK AO2 SLP075 T02330100 10272 20233 53004 $,M
NFL,2025-06-04 11:57,-118.7010,39.4166,1199.00,54.00,24.00,30.92,0.00,0.00,0.00,30.02,1013.60,10.00,M,CLR,M,M,M,M,M,M,M,M,M,M,M,M,M,M,54.00,KNFL 041157Z AUTO 00000KT 10SM CLR 12/M04 A3002 RMK AO2 SLP136 T01221044 10206 20111 53006,M
HTH,2025-06-04 12:05,-118.6315,38.5448,1282.89,60.80,26.60,26.98,310.00,10.00,0.00,30.03,M,10.00,M,CLR,M,M,M,M,M,M,M,M,M,M,M,M,M,M,60.80,KHTH 041205Z AUTO 31010KT 10SM CLR 16/M03 A3003 RMK A01,M
TMT,2025-06-04 12:10,-117.1971,39.4643,1749.34,32.40,17.20,53.03,0.00,0.00,0.00,30.11,M,10.00,M,CLR,M,M,M,M,M,M,M,M,M,M,M,M,M,M,32.40,KTMT 041210Z AUTO 00000KT 10SM CLR 00/M08 A3011 RMK AO2 T00021082,M
BVU,2025-06-04 12:15,-114.8611,35.9475,671.00,71.60,55.40,56.67,140.00,10.00,0.00,29.84,M,10.00,M,CLR,M,M,M,M,M,M,M,M,M,M,M,M,M,M,71.60,KBVU 041215Z AUTO 14010KT 10SM CLR 22/13 A2984 RMK AO2,M
BAM,2025-06-04 12:15,-116.8743,40.5990,1382.36,44.60,26.60,48.94,10.00,3.00,0.00,30.08,M,10.00,M,CLR,M,M,M,M,M,M,M,M,M,M,M,M,M,M,43.09,KBAM 041215Z AUTO 01003KT 10SM CLR 07/M03 A3008 RMK AO1,M
CXP,2025-06-04 12:15,-119.7326,39.1923,1431.00,53.60,26.60,34.97,0.00,0.00,0.00,30.08,M,10.00,M,CLR,M,M,M,M,M,M,M,M,M,M,M,M,M,M,53.60,KCXP 041215Z AUTO 00000KT 10SM CLR 12/M03 A3008 RMK AO2,M
RTS,2025-06-04 12:15,-119.8764,39.6682,1539.00,46.40,23.00,39.33,0.00,0.00,0.00,30.09,M,10.00,M,CLR,M,M,M,M,M,M,M,M,M,M,M,M,M,M,46.40,KRTS 041215Z AUTO 00000KT 10SM CLR 08/M05 A3009 RMK AO2,M
TMT,2025-06-04 12:30,-117.1971,39.4643,1749.34,29.00,15.60,56.80,210.00,3.00,0.00,30.11,M,10.00,M,CLR,M,M,M,M,M,M,M,M,M,M,M,M,M,M,25.26,KTMT 041230Z AUTO 21003KT 10SM CLR M02/M09 A3011 RMK AO2 T10161091,M
BVU,2025-06-04 12:35,-114.8611,35.9475,671.00,71.60,53.60,53.07,130.00,8.00,0.00,29.84,M,10.00,17.00,CLR,M,M,M,M,M,M,M,M,M,M,M,M,M,M,71.60,KBVU 041235Z AUTO 13008G17KT 10SM CLR 22/12 A2984 RMK AO2,M
BAM,2025-06-04 12:35,-116.8743,40.5990,1382.36,42.80,26.60,52.42,0.00,0.00,0.00,30.08,M,10.00,M,CLR,M,M,M,M,M,M,M,M,M,M,M,M,M,M,42.80,KBAM 041235Z AUTO 00000KT 10SM CLR 06/M03 A3008 RMK AO1,M
CXP,2025-06-04 12:35,-119.7326,39.1923,1431.00,51.80,24.80,34.67,0.00,0.00,0.00,30.08,M,10.00,M,CLR,M,M,M,M,M,M,M,M,M,M,M,M,M,M,51.80,KCXP 041235Z AUTO 00000KT 10SM CLR 11/M04 A3008 RMK AO2,M
RTS,2025-06-04 12:35,-119.8764,39.6682,1539.00,44.60,23.00,42.11,0.00,0.00,0.00,30.09,M,10.00,M,CLR,M,M,M,M,M,M,M,M,M,M,M,M,M,M,44.60,KRTS 041235Z AUTO 00000KT 10SM CLR 07/M05 A3009 RMK AO2,M
HTH,2025-06-04 12:35,-118.6315,38.5448,1282.89,60.80,28.40,29.05,310.00,9.00,0.00,30.03,M,10.00,M,CLR,M,M,M,M,M,M,M,M,M,M,M,M,M,M,60.80,KHTH 041235Z AUTO 31009KT 10SM CLR 16/M02 A3003 RMK A01,M
TMT,2025-06-04 12:50,-117.1971,39.4643,1749.34,32.00,16.00,51.17,0.00,0.00,0.00,30.11,M,10.00,M,CLR,M,M,M,M,M,M,M,M,M,M,M,M,M,M,32.00,KTMT 041250Z AUTO 00000KT 10SM CLR 00/M09 A3011 RMK AO2 T00001088,M
P68,2025-06-04 12:53,-116.0056,39.6014,1993.00,35.00,19.00,51.64,0.00,0.00,0.00,30.10,1013.70,M,M,M,M,M,M,M,M,M,M,M,M,M,M,M,M,M,35.00,KP68 041253Z AUTO 00000KT 02/M07 A3010 RMK AO1 SLP137 T00171072,M
DRA,2025-06-04 12:53,-116.0278,36.6206,1009.00,63.00,47.00,55.87,0.00,0.00,0.00,29.88,1007.50,10.00,M,CLR,M,M,M,M,M,M,M,M,M,M,M,M,M,M,63.00,KDRA 041253Z AUTO 00000KT 10SM CLR 17/08 A2988 RMK AO2 SLP075 T01720083 $,M
ELY,2025-06-04 12:53,-114.8453,39.2950,1909.00,42.00,20.00,40.97,0.00,0.00,0.00,30.09,1011.20,10.00,M,CLR,M,M,M,M,M,M,M,M,M,M,M,M,M,M,42.00,KELY 041253Z AUTO 00000KT 10SM CLR 06/M07 A3009 RMK AO2 SLP112 T00561067,M
VGT,2025-06-04 12:53,-115.1933,36.2111,667.00,71.00,49.00,45.69,310.00,6.00,0.00,29.83,1009.80,10.00,M,CLR,M,M,M,M,M,M,M,M,M,M,M,M,M,M,71.00,KVGT 041253Z 31006KT 10SM CLR 22/09 A2983 RMK AO2 SLP098 T02170094,M
LOL,2025-06-04 12:53,-118.5701,40.0684,1192.43,53.00,24.00,32.08,20.00,6.00,0.00,30.03,1013.80,10.00,M,CLR,M,M,M,M,M,M,M,M,M,M,M,M,M,M,53.00,KLOL 041253Z AUTO 02006KT 10SM CLR 12/M04 A3003 RMK AO2 SLP138 T01171044,M
INS,2025-06-04 12:55,-115.6733,36.5872,955.00,62.00,48.40,60.99,240.00,3.00,0.00,29.88,1007.90,10.00,M,CLR,M,M,M,M,M,M,M,M,M,M,M,M,M,M,62.00,KINS 041255Z AUTO 24003KT 10SM CLR 17/09 A2988 RMK AO2 SLP079 T01670091 $,M
LSV,2025-06-04 12:55,-115.0343,36.2362,570.00,75.20,48.00,38.21,0.00,0.00,0.00,29.79,1006.30,10.00,M,FEW,M,M,M,17000.00,M,M,M,M,M,M,M,M,M,M,75.20,KLSV 041255Z 00000KT 10SM FEW170 24/09 A2979 RMK AO2A SLP063 T02400088 $,M
BVU,2025-06-04 12:55,-114.8611,35.9475,671.00,71.60,53.60,53.07,M,5.00,0.00,29.85,M,10.00,14.00,CLR,M,M,M,M,M,M,M,M,M,M,M,M,M,M,71.60,KBVU 041255Z AUTO VRB05G14KT 10SM CLR 22/12 A2985 RMK AO2,M
RNO,2025-06-04 12:55,-119.7711,39.4839,1341.00,56.00,30.00,36.84,0.00,0.00,0.00,30.06,1013.00,10.00,M,FEW,FEW,M,M,6000.00,20000.00,M,M,M,M,M,M,M,M,M,56.00,KRNO 041255Z 00000KT 10SM FEW060 FEW200 13/M01 A3006 RMK AO2 SLP130 T01331011,M
BAM,2025-06-04 12:55,-116.8743,40.5990,1382.36,41.00,26.60,56.19,10.00,3.00,0.00,30.09,M,10.00,M,CLR,M,M,M,M,M,M,M,M,M,M,M,M,M,M,38.98,KBAM 041255Z AUTO 01003KT 10SM CLR 05/M03 A3009 RMK AO1,M
CXP,2025-06-04 12:55,-119.7326,39.1923,1431.00,51.80,24.80,34.67,0.00,0.00,0.00,30.08,M,10.00,M,CLR,M,M,M,M,M,M,M,M,M,M,M,M,M,M,51.80,KCXP 041255Z AUTO 00000KT 10SM CLR 11/M04 A3008 RMK AO2,M
RTS,2025-06-04 12:55,-119.8764,39.6682,1539.00,46.40,23.00,39.33,0.00,0.00,0.00,30.09,M,10.00,M,CLR,M,M,M,M,M,M,M,M,M,M,M,M,M,M,46.40,KRTS 041255Z AUTO 00000KT 10SM CLR 08/M05 A3009 RMK AO2,M
HTH,2025-06-04 12:55,-118.6315,38.5448,1282.89,60.80,30.20,31.27,310.00,10.00,0.00,30.04,M,10.00,M,CLR,M,M,M,M,M,M,M,M,M,M,M,M,M,M,60.80,KHTH 041255Z AUTO 31010KT 10SM CLR 16/M01 A3004 RMK A01,M
EKO,2025-06-04 12:56,-115.7860,40.8242,1367.00,41.00,25.00,52.58,0.00,0.00,0.00,30.08,1015.50,10.00,M,CLR,M,M,M,M,M,M,M,M,M,M,M,M,M,M,41.00,KEKO 041256Z AUTO 00000KT 10SM CLR 05/M04 A3008 RMK AO2 SLP155 T00501039,M
WMC,2025-06-04 12:56,-117.8072,40.9019,1315.00,43.00,24.00,46.69,250.00,4.00,0.00,30.07,1015.40,10.00,M,CLR,M,M,M,M,M,M,M,M,M,M,M,M,M,M,40.27,KWMC 041256Z AUTO 25004KT 10SM CLR 06/M04 A3007 RMK AO2 SLP154 T00611044 TSNO,M
HND,2025-06-04 12:56,-115.1344,35.9729,742.79,71.00,51.00,49.22,180.00,13.00,0.00,29.86,1010.40,10.00,M,CLR,M,M,M,M,M,M,M,M,M,M,M,M,M,M,71.00,KHND 041256Z 18013KT 10SM CLR 22/11 A2986 RMK AO2 SLP104 T02170106 $,M
TPH,2025-06-04 12:56,-117.0904,38.0505,1654.00,55.00,18.00,23.11,360.00,13.00,0.00,30.03,1009.90,10.00,M,CLR,M,M,M,M,M,M,M,M,M,M,M,M,M,M,55.00,KTPH 041256Z AUTO 36013KT 10SM CLR 13/M08 A3003 RMK AO2 SLP099 T01281078 $,M
LAS,2025-06-04 12:56,-115.1634,36.0719,663.00,74.00,50.00,42.86,150.00,4.00,0.00,29.84,1008.50,10.00,M,FEW,FEW,M,M,12000.00,18000.00,M,M,M,M,M,M,M,M,M,74.00,KLAS 041256Z 15004KT 10SM FEW120 FEW180 23/10 A2984 RMK AO2 SLP085 T02330100 $,M
NFL,2025-06-04 12:57,-118.7010,39.4166,1199.00,52.00,24.00,33.28,0.00,0.00,0.00,30.03,1013.70,10.00,M,CLR,M,M,M,M,M,M,M,M,M,M,M,M,M,M,52.00,KNFL 041257Z AUTO 00000KT 10SM CLR 11/M04 A3003 RMK AO2 SLP137 T01111044,M
TMT,2025-06-04 13:10,-117.1971,39.4643,1749.34,35.00,17.00,47.38,0.00,0.00,0.00,30.12,M,10.00,M,CLR,M,M,M,M,M,M,M,M,M,M,M,M,M,M,35.00,KTMT 041310Z AUTO 00000KT 10SM CLR 02/M08 A3012 RMK AO2 T00161083,M
BVU,2025-06-04 13:15,-114.8611,35.9475,671.00,71.60,53.60,53.07,M,5.00,0.00,29.86,M,10.00,18.00,CLR,M,M,M,M,M,M,M,M,M,M,M,M,M,M,71.60,KBVU 041315Z AUTO VRB05G18KT 10SM CLR 22/12 A2986 RMK AO2,M
RTS,2025-06-04 13:15,-119.8764,39.6682,1539.00,46.40,23.00,39.33,0.00,0.00,0.00,30.10,M,10.00,M,CLR,M,M,M,M,M,M,M,M,M,M,M,M,M,M,46.40,KRTS 041315Z AUTO 00000KT 10SM CLR 08/M05 A3010 RMK AO2,M
BAM,2025-06-04 13:15,-116.8743,40.5990,1382.36,41.00,26.60,56.19,40.00,5.00,0.00,30.09,M,10.00,M,CLR,M,M,M,M,M,M,M,M,M,M,M,M,M,M,37.08,KBAM 041315Z AUTO 04005KT 10SM CLR 05/M03 A3009 RMK AO1,M
CXP,2025-06-04 13:15,-119.7326,39.1923,1431.00,51.80,28.40,40.23,0.00,0.00,0.00,30.08,M,10.00,M,CLR,M,M,M,M,M,M,M,M,M,M,M,M,M,M,51.80,KCXP 041315Z AUTO 00000KT 10SM CLR 11/M02 A3008 RMK AO2,M
HTH,2025-06-04 13:15,-118.6315,38.5448,1282.89,60.80,28.40,29.05,310.00,10.00,0.00,30.04,M,10.00,M,CLR,M,M,M,M,M,M,M,M,M,M,M,M,M,M,60.80,KHTH 041315Z AUTO 31010KT 10SM CLR 16/M02 A3004 RMK A01,M
TMT,2025-06-04 13:30,-117.1971,39.4643,1749.34,38.00,19.00,45.87,0.00,0.00,0.00,30.12,M,10.00,M,CLR,M,M,M,M,M,M,M,M,M,M,M,M,M,M,38.00,KTMT 041330Z AUTO 00000KT 10SM CLR 03/M07 A3012 RMK AO2 T00341072,M
BVU,2025-06-04 13:35,-114.8611,35.9475,671.00,71.60,53.60,53.07,130.00,10.00,0.00,29.86,M,10.00,M,CLR,M,M,M,M,M,M,M,M,M,M,M,M,M,M,71.60,KBVU 041335Z AUTO 13010KT 10SM CLR 22/12 A2986 RMK AO2,M
NFL,2025-06-04 13:35,-118.7010,39.4166,1199.00,56.00,26.00,31.25,0.00,0.00,0.00,30.04,M,10.00,M,SCT,M,M,M,22000.00,M,M,M,M,M,M,M,M,M,M,56.00,KNFL 041335Z 00000KT 10SM SCT220 13/M03 A3004 RMK AO2 T01331033,M
BAM,2025-06-04 13:35,-116.8743,40.5990,1382.36,44.60,26.60,48.94,20.00,3.00,0.00,30.09,M,10.00,M,CLR,M,M,M,M,M,M,M,M,M,M,M,M,M,M,43.09,KBAM 041335Z AUTO 02003KT 10SM CLR 07/M03 A3009 RMK AO1,M
CXP,2025-06-04 13:35,-119.7326,39.1923,1431.00,53.60,26.60,34.97,0.00,0.00,0.00,30.09,M,10.00,M,CLR,M,M,M,M,M,M,M,M,M,M,M,M,M,M,53.60,KCXP 041335Z AUTO 00000KT 10SM CLR 12/M03 A3009 RMK AO2,M
RTS,2025-06-04 13:35,-119.8764,39.6682,1539.00,50.00,23.00,34.37,0.00,0.00,0.00,30.10,M,10.00,M,CLR,M,M,M,M,M,M,M,M,M,M,M,M,M,M,50.00,KRTS 041335Z AUTO 00000KT 10SM CLR 10/M05 A3010 RMK AO2,M
HTH,2025-06-04 13:35,-118.6315,38.5448,1282.89,62.60,28.40,27.26,310.00,9.00,0.00,30.05,M,10.00,M,CLR,M,M,M,M,M,M,M,M,M,M,M,M,M,M,62.60,KHTH 041335Z AUTO 31009KT 10SM CLR 17/M02 A3005 RMK A01,M
CXP,2025-06-04 13:50,-119.7326,39.1923,1431.00,55.40,26.60,32.75,0.00,0.00,0.00,30.09,M,10.00,M,CLR,M,M,M,M,M,M,M,M,M,M,M,M,M,M,55.40,KCXP 041350Z AUTO 00000KT 10SM CLR 13/M03 A3009 RMK AO2,M
TMT,2025-06-04 13:50,-117.1971,39.4643,1749.34,42.00,21.60,43.86,0.00,0.00,0.00,30.12,M,10.00,M,CLR,M,M,M,M,M,M,M,M,M,M,M,M,M,M,42.00,KTMT 041350Z AUTO 00000KT 10SM CLR 06/M06 A3012 RMK AO2 T00551058,M
P68,2025-06-04 13:53,-116.0056,39.6014,1993.00,46.00,22.00,38.28,0.00,0.00,0.00,30.10,1012.90,M,M,M,M,M,M,M,M,M,M,M,M,M,M,M,M,M,46.00,KP68 041353Z AUTO 00000KT 08/M06 A3010 RMK AO1 SLP129 T00781056,M
DRA,2025-06-04 13:53,-116.0278,36.6206,1009.00,69.00,49.00,48.91,0.00,0.00,0.00,29.90,1007.50,10.00,M,CLR,M,M,M,M,M,M,M,M,M,M,M,M,M,M,69.00,KDRA 041353Z AUTO 00000KT 10SM CLR 21/09 A2990 RMK AO2 SLP075 T02060094 $,M
ELY,2025-06-04 13:53,-114.8453,39.2950,1909.00,49.00,21.00,32.78,20.00,7.00,0.00,30.10,1010.80,10.00,M,CLR,M,M,M,M,M,M,M,M,M,M,M,M,M,M,45.50,KELY 041353Z AUTO 02007KT 10SM CLR 09/M06 A3010 RMK AO2 SLP108 T00941061,M
VGT,2025-06-04 13:53,-115.1933,36.2111,667.00,74.00,53.00,47.89,360.00,5.00,0.00,29.84,1010.00,10.00,M,CLR,M,M,M,M,M,M,M,M,M,M,M,M,M,M,74.00,KVGT 041353Z 36005KT 10SM CLR 23/12 A2984 RMK AO2 SLP100 T02330117,M
LOL,2025-06-04 13:53,-118.5701,40.0684,1192.43,58.00,25.00,27.89,40.00,12.00,0.00,30.04,1014.00,10.00,M,CLR,M,M,M,M,M,M,M,M,M,M,M,M,M,M,58.00,KLOL 041353Z AUTO 04012KT 10SM CLR 14/M04 A3004 RMK AO2 SLP140 T01441039,M
INS,2025-06-04 13:55,-115.6733,36.5872,955.00,65.50,50.00,57.28,0.00,0.00,0.00,29.89,1007.80,10.00,M,CLR,M,M,M,M,M,M,M,M,M,M,M,M,M,M,65.50,KINS 041355Z AUTO 00000KT 10SM CLR 19/10 A2989 RMK AO2 SLP078 T01860099 $,M
LSV,2025-06-04 13:55,-115.0343,36.2362,570.00,77.40,50.00,38.28,140.00,7.00,0.00,29.80,1006.60,10.00,M,FEW,M,M,M,18000.00,M,M,M,M,M,M,M,M,M,M,77.40,KLSV 041355Z 14007KT 10SM FEW180 25/10 A2980 RMK AO2A SLP066 T02520099 $,M
BAM,2025-06-04 13:55,-116.8743,40.5990,1382.36,50.00,28.40,43.01,10.00,4.00,0.00,30.10,M,10.00,M,CLR,M,M,M,M,M,M,M,M,M,M,M,M,M,M,50.00,KBAM 041355Z AUTO 01004KT 10SM CLR 10/M02 A3010 RMK AO1,M
BVU,2025-06-04 13:55,-114.8611,35.9475,671.00,73.40,53.60,49.95,170.00,7.00,0.00,29.86,M,10.00,M,CLR,M,M,M,M,M,M,M,M,M,M,M,M,M,M,73.40,KBVU 041355Z AUTO 17007KT 10SM CLR 23/12 A2986 RMK AO2,M
RNO,2025-06-04 13:55,-119.7711,39.4839,1341.00,58.00,32.00,37.17,0.00,0.00,0.00,30.07,1013.10,10.00,M,FEW,M,M,M,20000.00,M,M,M,M,M,M,M,M,M,M,58.00,KRNO 041355Z 00000KT 10SM FEW200 14/00 A3007 RMK AO2 SLP131 T01440000,M
RTS,2025-06-04 13:55,-119.8764,39.6682,1539.00,51.80,24.80,34.67,350.00,5.00,0.00,30.10,M,10.00,M,CLR,M,M,M,M,M,M,M,M,M,M,M,M,M,M,51.80,KRTS 041355Z AUTO 35005KT 10SM CLR 11/M04 A3010 RMK AO2,M
HTH,2025-06-04 13:55,-118.6315,38.5448,1282.89,62.60,30.20,29.34,300.00,9.00,0.00,30.05,M,10.00,M,CLR,M,M,M,M,M,M,M,M,M,M,M,M,M,M,62.60,KHTH 041355Z AUTO 30009KT 10SM CLR 17/M01 A3005 RMK A01,M
EKO,2025-06-04 13:56,-115.7860,40.8242,1367.00,47.00,26.00,43.58,0.00,0.00,0.00,30.09,1015.50,10.00,M,CLR,M,M,M,M,M,M,M,M,M,M,M,M,M,M,47.00,KEKO 041356Z AUTO 00000KT 10SM CLR 08/M03 A3009 RMK AO2 SLP155 T00831033,M
WMC,2025-06-04 13:56,-117.8072,40.9019,1315.00,52.00,25.00,34.70,260.00,3.00,0.00,30.09,1015.50,10.00,M,CLR,M,M,M,M,M,M,M,M,M,M,M,M,M,M,52.00,KWMC 041356Z AUTO 26003KT 10SM CLR 11/M04 A3009 RMK AO2 SLP155 T01111039 TSNO,M
HND,2025-06-04 13:56,-115.1344,35.9729,742.79,73.00,51.00,46.00,170.00,11.00,0.00,29.88,1010.90,10.00,18.00,CLR,M,M,M,M,M,M,M,M,M,M,M,M,M,M,73.00,KHND 041356Z 17011G18KT 10SM CLR 23/11 A2988 RMK AO2 SLP109 T02280106 $,M
TPH,2025-06-04 13:56,-117.0904,38.0505,1654.00,59.00,21.00,22.75,350.00,9.00,0.00,30.04,1010.10,10.00,M,CLR,M,M,M,M,M,M,M,M,M,M,M,M,M,M,59.00,KTPH 041356Z AUTO 35009KT 10SM CLR 15/M06 A3004 RMK AO2 SLP101 T01501061 $,M
LAS,2025-06-04 13:56,-115.1634,36.0719,663.00,76.00,50.00,40.10,0.00,0.00,0.00,29.86,1008.80,10.00,M,FEW,FEW,M,M,12000.00,18000.00,M,M,M,M,M,M,M,M,M,76.00,KLAS 041356Z 00000KT 10SM FEW120 FEW180 24/10 A2986 RMK AO2 SLP088 T02440100 $,M
NFL,2025-06-04 13:57,-118.7010,39.4166,1199.00,58.00,26.00,29.08,0.00,0.00,0.00,30.04,1014.20,10.00,M,FEW,M,M,M,24000.00,M,M,M,M,M,M,M,M,M,M,58.00,KNFL 041357Z 00000KT 10SM FEW240 14/M03 A3004 RMK AO2 SLP142 T01441033,M
TMT,2025-06-04 14:10,-117.1971,39.4643,1749.34,46.60,22.30,37.90,0.00,0.00,0.00,30.12,M,10.00,M,CLR,M,M,M,M,M,M,M,M,M,M,M,M,M,M,46.60,KTMT 041410Z AUTO 00000KT 10SM CLR 08/M05 A3012 RMK AO2 T00811054,M
RTS,2025-06-04 14:15,-119.8764,39.6682,1539.00,55.40,24.80,30.39,340.00,3.00,0.00,30.10,M,10.00,M,CLR,M,M,M,M,M,M,M,M,M,M,M,M,M,M,55.40,KRTS 041415Z AUTO 34003KT 10SM CLR 13/M04 A3010 RMK AO2,M
HTH,2025-06-04 14:15,-118.6315,38.5448,1282.89,64.40,30.20,27.55,320.00,9.00,0.00,30.04,M,10.00,M,CLR,M,M,M,M,M,M,M,M,M,M,M,M,M,M,64.40,KHTH 041415Z AUTO 32009KT 10SM CLR 18/M01 A3004 RMK A01,M
BVU,2025-06-04 14:15,-114.8611,35.9475,671.00,73.40,53.60,49.95,120.00,7.00,0.00,29.85,M,10.00,M,CLR,M,M,M,M,M,M,M,M,M,M,M,M,M,M,73.40,KBVU 041415Z AUTO 12007KT 10SM CLR 23/12 A2985 RMK AO2,M
BAM,2025-06-04 14:15,-116.8743,40.5990,1382.36,53.60,30.20,40.53,20.00,5.00,0.00,30.10,M,10.00,M,CLR,M,M,M,M,M,M,M,M,M,M,M,M,M,M,53.60,KBAM 041415Z AUTO 02005KT 10SM CLR 12/M01 A3010 RMK AO1,M
CXP,2025-06-04 14:15,-119.7326,39.1923,1431.00,57.20,26.60,30.68,0.00,0.00,0.00,30.09,M,10.00,M,CLR,M,M,M,M,M,M,M,M,M,M,M,M,M,M,57.20,KCXP 041415Z AUTO 00000KT 10SM CLR 14/M03 A3009 RMK AO2,M
TMT,2025-06-04 14:30,-117.1971,39.4643,1749.34,50.00,24.00,35.84,0.00,0.00,0.00,30.12,M,10.00,M,CLR,M,M,M,M,M,M,M,M,M,M,M,M,M,M,50.00,KTMT 041430Z AUTO 00000KT 10SM CLR 10/M04 A3012 RMK AO2 T01011045,M
BVU,2025-06-04 14:35,-114.8611,35.9475,671.00,75.20,51.80,44.02,150.00,5.00,0.00,29.85,M,10.00,M,CLR,M,M,M,M,M,M,M,M,M,M,M,M,M,M,75.20,KBVU 041435Z AUTO 15005KT 10SM CLR 24/11 A2985 RMK AO2,M
BAM,2025-06-04 14:35,-116.8743,40.5990,1382.36,53.60,30.20,40.53,30.00,4.00,0.00,30.10,M,10.00,M,CLR,M,M,M,M,M,M,M,M,M,M,M,M,M,M,53.60,KBAM 041435Z AUTO 03004KT 10SM CLR 12/M01 A3010 RMK AO1,M
CXP,2025-06-04 14:35,-119.7326,39.1923,1431.00,59.00,28.40,30.98,0.00,0.00,0.00,30.09,M,10.00,M,CLR,M,M,M,M,M,M,M,M,M,M,M,M,M,M,59.00,KCXP 041435Z AUTO 00000KT 10SM CLR 15/M02 A3009 RMK AO2,M
RTS,2025-06-04 14:35,-119.8764,39.6682,1539.00,59.00,24.80,26.69,0.00,0.00,0.00,30.10,M,10.00,M,CLR,M,M,M,M,M,M,M,M,M,M,M,M,M,M,59.00,KRTS 041435Z AUTO 00000KT 10SM CLR 15/M04 A3010 RMK AO2,M
HTH,2025-06-04 14:35,-118.6315,38.5448,1282.89,64.40,26.60,23.77,320.00,14.00,0.00,30.05,M,10.00,M,CLR,M,M,M,M,M,M,M,M,M,M,M,M,M,M,64.40,KHTH 041435Z AUTO 32014KT 10SM CLR 18/M03 A3005 RMK A01,M
RTS,2025-06-04 14:45,-119.8764,39.6682,1539.00,59.00,23.00,24.75,0.00,0.00,0.00,30.10,M,10.00,M,CLR,M,M,M,M,M,M,M,M,M,M,M,M,M,M,59.00,KRTS 041445Z AUTO 00000KT 10SM CLR 15/M05 A3010 RMK AO2,M
CXP,2025-06-04 14:50,-119.7326,39.1923,1431.00,60.80,28.40,29.05,0.00,0.00,0.00,30.08,M,10.00,M,CLR,M,M,M,M,M,M,M,M,M,M,M,M,M,M,60.80,KCXP 041450Z AUTO 00000KT 10SM CLR 16/M02 A3008 RMK AO2,M
TMT,2025-06-04 14:50,-117.1971,39.4643,1749.34,53.60,24.00,31.38,0.00,0.00,0.00,30.12,M,10.00,M,CLR,M,M,M,M,M,M,M,M,M,M,M,M,M,M,53.60,KTMT 041450Z AUTO 00000KT 10SM CLR 12/M04 A3012 RMK AO2 T01201044,M
P68,2025-06-04 14:53,-116.0056,39.6014,1993.00,55.00,24.00,29.82,10.00,7.00,0.00,30.10,1012.70,M,M,M,M,M,M,M,M,M,M,M,M,M,M,M,M,M,55.00,KP68 041453Z AUTO 01007KT 13/M04 A3010 RMK AO1 SLP127 T01281044 51003,M
DRA,2025-06-04 14:53,-116.0278,36.6206,1009.00,74.00,49.00,41.29,280.00,3.00,0.00,29.91,1008.00,10.00,M,CLR,M,M,M,M,M,M,M,M,M,M,M,M,M,M,74.00,KDRA 041453Z AUTO 28003KT 10SM CLR 23/09 A2991 RMK AO2 SLP080 T02330094 51011 $,M
ELY,2025-06-04 14:53,-114.8453,39.2950,1909.00,53.00,22.00,29.49,10.00,8.00,0.00,30.10,1010.90,10.00,M,CLR,M,M,M,M,M,M,M,M,M,M,M,M,M,M,53.00,KELY 041453Z AUTO 01008KT 10SM CLR 12/M06 A3010 RMK AO2 SLP109 T01171056 50005,M
VGT,2025-06-04 14:53,-115.1933,36.2111,667.00,77.00,52.00,41.77,50.00,4.00,0.00,29.85,1010.20,10.00,M,CLR,M,M,M,M,M,M,M,M,M,M,M,M,M,M,77.00,KVGT 041453Z 05004KT 10SM CLR 25/11 A2985 RMK AO2 SLP102 T02500111 51015,M
LOL,2025-06-04 14:53,-118.5701,40.0684,1192.43,62.00,27.00,26.29,30.00,16.00,0.00,30.04,1013.90,10.00,M,CLR,M,M,M,M,M,M,M,M,M,M,M,M,M,M,62.00,KLOL 041453Z AUTO 03016KT 10SM CLR 17/M03 A3004 RMK AO2 SLP139 T01671028 50003,M
INS,2025-06-04 14:55,-115.6733,36.5872,955.00,73.20,48.00,40.86,250.00,4.00,0.00,29.90,1007.90,10.00,M,CLR,M,M,M,M,M,M,M,M,M,M,M,M,M,M,73.20,KINS 041455Z AUTO 25004KT 10SM CLR 23/09 A2990 RMK AO2 SLP079 T02290089 52009 $,M
LSV,2025-06-04 14:55,-115.0343,36.2362,570.00,79.00,50.50,37.00,130.00,7.00,0.00,29.81,1006.80,10.00,M,FEW,M,M,M,22000.00,M,M,M,M,M,M,M,M,M,M,79.00,KLSV 041455Z 13007KT 10SM FEW220 26/10 A2981 RMK AO2A SLP068 T02610103 51015 $,M
HTH,2025-06-04 14:55,-118.6315,38.5448,1282.89,66.20,26.60,22.32,320.00,13.00,0.00,30.04,M,10.00,M,CLR,M,M,M,M,M,M,M,M,M,M,M,M,M,M,66.20,KHTH 041455Z AUTO 32013KT 10SM CLR 19/M03 A3004 RMK A01,M
BVU,2025-06-04 14:55,-114.8611,35.9475,671.00,75.20,51.80,44.02,0.00,0.00,0.00,29.85,M,10.00,M,CLR,M,M,M,M,M,M,M,M,M,M,M,M,M,M,75.20,KBVU 041455Z AUTO 00000KT 10SM CLR 24/11 A2985 RMK AO2,M
RNO,2025-06-04 14:55,-119.7711,39.4839,1341.00,62.00,29.00,28.54,0.00,0.00,0.00,30.07,1013.00,10.00,M,CLR,M,M,M,M,M,M,M,M,M,M,M,M,M,M,62.00,KRNO 041455Z 00000KT 10SM CLR 17/M02 A3007 RMK AO2 SLP130 T01671017 50003,M
BAM,2025-06-04 14:55,-116.8743,40.5990,1382.36,55.40,30.20,37.96,20.00,4.00,0.00,30.10,M,10.00,M,CLR,M,M,M,M,M,M,M,M,M,M,M,M,M,M,55.40,KBAM 041455Z AUTO 02004KT 10SM CLR 13/M01 A3010 RMK AO1,M
TPH,2025-06-04 14:56,-117.0904,38.0505,1654.00,65.00,22.00,19.20,360.00,9.00,0.00,30.04,1009.80,10.00,M,CLR,M,M,M,M,M,M,M,M,M,M,M,M,M,M,65.00,KTPH 041456Z AUTO 36009KT 10SM CLR 18/M06 A3004 RMK AO2 SLP098 T01831056 51006 $,M
EKO,2025-06-04 14:56,-115.7860,40.8242,1367.00,53.00,27.00,36.34,0.00,0.00,0.00,30.09,1015.30,10.00,M,CLR,M,M,M,M,M,M,M,M,M,M,M,M,M,M,53.00,KEKO 041456Z AUTO 00000KT 10SM CLR 12/M03 A3009 RMK AO2 SLP153 T01171028 50002,M
WMC,2025-06-04 14:56,-117.8072,40.9019,1315.00,56.00,25.00,29.98,0.00,0.00,0.00,30.09,1015.40,10.00,M,CLR,M,M,M,M,M,M,M,M,M,M,M,M,M,M,56.00,KWMC 041456Z AUTO 00000KT 10SM CLR 13/M04 A3009 RMK AO2 SLP154 T01331039 50006 TSNO,M
HND,2025-06-04 14:56,-115.1344,35.9729,742.79,77.00,49.00,37.37,220.00,5.00,0.00,29.89,1011.30,10.00,M,CLR,M,M,M,M,M,M,M,M,M,M,M,M,M,M,77.00,KHND 041456Z 22005KT 10SM CLR 25/09 A2989 RMK AO2 SLP113 T02500094 53011 $,M
LAS,2025-06-04 14:56,-115.1634,36.0719,663.00,77.00,50.00,38.79,300.00,4.00,0.00,29.86,1009.00,10.00,M,FEW,M,M,M,12000.00,M,M,M,M,M,M,M,M,M,M,77.00,KLAS 041456Z 30004KT 10SM FEW120 25/10 A2986 RMK AO2 SLP090 T02500100 51013 $,M
NFL,2025-06-04 14:57,-118.7010,39.4166,1199.00,63.00,25.00,23.36,20.00,5.00,0.00,30.04,1014.30,10.00,M,SCT,M,M,M,22000.00,M,M,M,M,M,M,M,M,M,M,63.00,KNFL 041457Z 02005KT 10SM SCT220 17/M04 A3004 RMK AO2 SLP143 T01721039 52007,M
TMT,2025-06-04 15:10,-117.1971,39.4643,1749.34,54.50,23.50,29.74,320.00,3.00,0.00,30.12,M,10.00,M,CLR,M,M,M,M,M,M,M,M,M,M,M,M,M,M,54.50,KTMT 041510Z AUTO 32003KT 10SM CLR 13/M05 A3012 RMK AO2 T01251047,M
CXP,2025-06-04 15:15,-119.7326,39.1923,1431.00,64.40,28.40,25.60,0.00,0.00,0.00,30.08,M,10.00,M,CLR,M,M,M,M,M,M,M,M,M,M,M,M,M,M,64.40,KCXP 041515Z AUTO 00000KT 10SM CLR 18/M02 A3008 RMK AO2,M
RTS,2025-06-04 15:15,-119.8764,39.6682,1539.00,60.80,24.80,25.03,0.00,0.00,0.00,30.10,M,10.00,M,CLR,M,M,M,M,M,M,M,M,M,M,M,M,M,M,60.80,KRTS 041515Z AUTO 00000KT 10SM CLR 16/M04 A3010 RMK AO2,M
HTH,2025-06-04 15:15,-118.6315,38.5448,1282.89,66.20,28.40,24.04,330.00,12.00,0.00,30.04,M,10.00,M,CLR,M,M,M,M,M,M,M,M,M,M,M,M,M,M,66.20,KHTH 041515Z AUTO 33012KT 10SM CLR 19/M02 A3004 RMK A01,M
BVU,2025-06-04 15:15,-114.8611,35.9475,671.00,77.00,50.00,38.79,270.00,3.00,0.00,29.85,M,10.00,M,CLR,M,M,M,M,M,M,M,M,M,M,M,M,M,M,77.00,KBVU 041515Z AUTO 27003KT 10SM CLR 25/10 A2985 RMK AO2,M
BAM,2025-06-04 15:15,-116.8743,40.5990,1382.36,55.40,30.20,37.96,10.00,3.00,0.00,30.10,M,10.00,M,CLR,M,M,M,M,M,M,M,M,M,M,M,M,M,M,55.40,KBAM 041515Z AUTO 01003KT 10SM CLR 13/M01 A3010 RMK AO1,M
RTS,2025-06-04 15:25,-119.8764,39.6682,1539.00,60.80,26.60,26.98,0.00,0.00,0.00,30.10,M,10.00,M,CLR,M,M,M,M,M,M,M,M,M,M,M,M,M,M,60.80,KRTS 041525Z AUTO 00000KT 10SM CLR 16/M03 A3010 RMK AO2,M
CXP,2025-06-04 15:30,-119.7326,39.1923,1431.00,64.40,24.80,22.05,0.00,0.00,0.00,30.08,M,10.00,M,CLR,M,M,M,M,M,M,M,M,M,M,M,M,M,M,64.40,KCXP 041530Z AUTO 00000KT 10SM CLR 18/M04 A3008 RMK AO2,M
TMT,2025-06-04 15:30,-117.1971,39.4643,1749.34,56.30,24.30,28.80,0.00,0.00,0.00,30.11,M,10.00,M,CLR,M,M,M,M,M,M,M,M,M,M,M,M,M,M,56.30,KTMT 041530Z AUTO 00000KT 10SM CLR 14/M04 A3011 RMK AO2 T01351043,M
HTH,2025-06-04 15:35,-118.6315,38.5448,1282.89,66.20,26.60,22.32,330.00,14.00,0.00,30.04,M,10.00,M,CLR,M,M,M,M,M,M,M,M,M,M,M,M,M,M,66.20,KHTH 041535Z AUTO 33014KT 10SM CLR 19/M03 A3004 RMK A01,M
BVU,2025-06-04 15:35,-114.8611,35.9475,671.00,78.80,48.20,34.18,0.00,0.00,0.00,29.85,M,10.00,M,CLR,M,M,M,M,M,M,M,M,M,M,M,M,M,M,78.80,KBVU 041535Z AUTO 00000KT 10SM CLR 26/09 A2985 RMK AO2,M
BAM,2025-06-04 15:35,-116.8743,40.5990,1382.36,59.00,30.20,33.34,40.00,3.00,0.00,30.10,M,10.00,M,CLR,M,M,M,M,M,M,M,M,M,M,M,M,M,M,59.00,KBAM 041535Z AUTO 04003KT 10SM CLR 15/M01 A3010 RMK AO1,M
TMT,2025-06-04 15:50,-117.1971,39.4643,1749.34,57.20,24.00,27.53,0.00,0.00,0.00,30.11,M,10.00,M,CLR,M,M,M,M,M,M,M,M,M,M,M,M,M,M,57.20,KTMT 041550Z AUTO 00000KT 10SM CLR 14/M04 A3011 RMK AO2 T01401045,M
P68,2025-06-04 15:53,-116.0056,39.6014,1993.00,57.00,25.00,28.92,340.00,6.00,0.00,30.09,1012.70,M,M,M,M,M,M,M,M,M,M,M,M,M,M,M,M,M,57.00,KP68 041553Z AUTO 34006KT 14/M04 A3009 RMK AO1 SLP127 T01391039,M
DRA,2025-06-04 15:53,-116.0278,36.6206,1009.00,77.00,49.00,37.37,250.00,3.00,0.00,29.91,1008.10,10.00,M,CLR,M,M,M,M,M,M,M,M,M,M,M,M,M,M,77.00,KDRA 041553Z AUTO 25003KT 10SM CLR 25/09 A2991 RMK AO2 SLP081 T02500094,M
ELY,2025-06-04 15:53,-114.8453,39.2950,1909.00,57.00,22.00,25.50,10.00,9.00,0.00,30.09,1010.80,10.00,M,CLR,M,M,M,M,M,M,M,M,M,M,M,M,M,M,57.00,KELY 041553Z AUTO 01009KT 10SM CLR 14/M06 A3009 RMK AO2 SLP108 T01391056,M
VGT,2025-06-04 15:53,-115.1933,36.2111,667.00,79.00,49.00,34.99,0.00,0.00,0.00,29.86,1010.40,10.00,M,CLR,M,M,M,M,M,M,M,M,M,M,M,M,M,M,79.00,KVGT 041553Z 00000KT 10SM CLR 26/09 A2986 RMK AO2 SLP104 T02610094,M
LOL,2025-06-04 15:53,-118.5701,40.0684,1192.43,66.00,27.00,22.85,30.00,16.00,0.00,30.04,1013.90,10.00,M,CLR,M,M,M,M,M,M,M,M,M,M,M,M,M,M,66.00,KLOL 041553Z AUTO 03016KT 10SM CLR 19/M03 A3004 RMK AO2 SLP139 T01891028,M
INS,2025-06-04 15:55,-115.6733,36.5872,955.00,76.30,46.00,34.17,0.00,0.00,0.00,29.90,1007.70,10.00,M,CLR,M,M,M,M,M,M,M,M,M,M,M,M,M,M,76.30,KINS 041555Z AUTO 00000KT 10SM CLR 25/08 A2990 RMK AO2 SLP077 T02460077 $,M
LSV,2025-06-04 15:55,-115.0343,36.2362,570.00,80.40,49.50,34.05,0.00,0.00,0.00,29.81,1006.80,10.00,M,FEW,M,M,M,25000.00,M,M,M,M,M,M,M,M,M,M,79.73,KLSV 041555Z 00000KT 10SM FEW250 27/10 A2981 RMK AO2A SLP068 T02690097 $,M
BVU,2025-06-04 15:55,-114.8611,35.9475,671.00,80.60,48.20,32.23,M,4.00,0.00,29.85,M,10.00,M,CLR,M,M,M,M,M,M,M,M,M,M,M,M,M,M,79.72,KBVU 041555Z AUTO VRB04KT 10SM CLR 27/09 A2985 RMK AO2,M
RNO,2025-06-04 15:55,-119.7711,39.4839,1341.00,67.00,27.00,22.08,90.00,3.00,0.00,30.06,1012.80,10.00,M,CLR,M,M,M,M,M,M,M,M,M,M,M,M,M,M,67.00,KRNO 041555Z 09003KT 10SM CLR 19/M03 A3006 RMK AO2 SLP128 T01941028,M
BAM,2025-06-04 15:55,-116.8743,40.5990,1382.36,59.00,30.20,33.34,0.00,0.00,0.00,30.10,M,10.00,M,CLR,M,M,M,M,M,M,M,M,M,M,M,M,M,M,59.00,KBAM 041555Z AUTO 00000KT 10SM CLR 15/M01 A3010 RMK AO1,M
CXP,2025-06-04 15:55,-119.7326,39.1923,1431.00,68.00,23.00,18.06,70.00,7.00,0.00,30.08,M,10.00,M,CLR,M,M,M,M,M,M,M,M,M,M,M,M,M,M,68.00,KCXP 041555Z AUTO 07007KT 10SM CLR 20/M05 A3008 RMK AO2,M
RTS,2025-06-04 15:55,-119.8764,39.6682,1539.00,62.60,23.00,21.78,M,3.00,0.00,30.10,M,10.00,M,CLR,M,M,M,M,M,M,M,M,M,M,M,M,M,M,62.60,KRTS 041555Z AUTO VRB03KT 10SM CLR 17/M05 A3010 RMK AO2,M
HTH,2025-06-04 15:55,-118.6315,38.5448,1282.89,68.00,24.80,19.47,330.00,13.00,0.00,30.04,M,10.00,M,CLR,M,M,M,M,M,M,M,M,M,M,M,M,M,M,68.00,KHTH 041555Z AUTO 33013KT 10SM CLR 20/M04 A3004 RMK A01,M
EKO,2025-06-04 15:56,-115.7860,40.8242,1367.00,58.00,27.00,30.31,180.00,4.00,0.00,30.08,1014.60,10.00,M,CLR,M,M,M,M,M,M,M,M,M,M,M,M,M,M,58.00,KEKO 041556Z AUTO 18004KT 10SM CLR 14/M03 A3008 RMK AO2 SLP146 T01441028,M
WMC,2025-06-04 15:56,-117.8072,40.9019,1315.00,62.00,27.00,26.29,M,M,0.00,30.08,1015.20,10.00,M,CLR,M,M,M,M,M,M,M,M,M,M,M,M,M,M,62.00,KWMC 041556Z AUTO 10SM CLR 17/M03 A3008 RMK AO2 SLP152 T01671028 TSNO,M
HND,2025-06-04 15:56,-115.1344,35.9729,742.79,80.00,49.00,33.86,230.00,5.00,0.00,29.89,1011.20,10.00,M,CLR,M,M,M,M,M,M,M,M,M,M,M,M,M,M,79.46,KHND 041556Z 23005KT 10SM CLR 27/09 A2989 RMK AO2 SLP112 T02670094 $,M
TPH,2025-06-04 15:56,-117.0904,38.0505,1654.00,68.00,21.00,16.59,M,M,0.00,30.04,1010.10,10.00,M,M,M,M,M,M,M,M,M,M,M,M,M,M,M,M,68.00,KTPH 041556Z AUTO 10SM 20/M06 A3004 RMK AO2 SLP101 T02001061 $,M
LAS,2025-06-04 15:56,-115.1634,36.0719,663.00,79.00,50.00,36.32,340.00,3.00,0.00,29.87,1009.00,10.00,M,FEW,M,M,M,12000.00,M,M,M,M,M,M,M,M,M,M,79.00,KLAS 041556Z 34003KT 10SM FEW120 26/10 A2987 RMK AO2 SLP090 T02610100 $,M
NFL,2025-06-04 15:57,-118.7010,39.4166,1199.00,68.00,25.00,19.63,20.00,8.00,0.00,30.04,1014.10,10.00,M,SCT,M,M,M,22000.00,M,M,M,M,M,M,M,M,M,M,68.00,KNFL 041557Z 02008KT 10SM SCT220 20/M04 A3004 RMK AO2 SLP141 T02001039,M
TMT,2025-06-04 16:10,-117.1971,39.4643,1749.34,58.60,24.00,26.18,150.00,3.00,0.00,30.11,M,10.00,M,CLR,M,M,M,M,M,M,M,M,M,M,M,M,M,M,58.60,KTMT 041610Z AUTO 15003KT 10SM CLR 15/M04 A3011 RMK AO2 T01481045,M
BVU,2025-06-04 16:15,-114.8611,35.9475,671.00,80.60,46.40,30.12,0.00,0.00,0.00,29.85,M,10.00,M,CLR,M,M,M,M,M,M,M,M,M,M,M,M,M,M,79.56,KBVU 041615Z AUTO 00000KT 10SM CLR 27/08 A2985 RMK AO2,M
BAM,2025-06-04 16:15,-116.8743,40.5990,1382.36,60.80,30.20,31.27,350.00,3.00,0.00,30.09,M,10.00,M,CLR,M,M,M,M,M,M,M,M,M,M,M,M,M,M,60.80,KBAM 041615Z AUTO 35003KT 10SM CLR 16/M01 A3009 RMK AO1,M
CXP,2025-06-04 16:15,-119.7326,39.1923,1431.00,68.00,23.00,18.06,70.00,9.00,0.00,30.08,M,10.00,M,CLR,M,M,M,M,M,M,M,M,M,M,M,M,M,M,68.00,KCXP 041615Z AUTO 07009KT 030V100 10SM CLR 20/M05 A3008 RMK AO2,M
RTS,2025-06-04 16:15,-119.8764,39.6682,1539.00,64.40,24.80,22.05,150.00,6.00,0.00,30.09,M,10.00,M,CLR,M,M,M,M,M,M,M,M,M,M,M,M,M,M,64.40,KRTS 041615Z AUTO 15006KT 10SM CLR 18/M04 A3009 RMK AO2,M
HTH,2025-06-04 16:15,-118.6315,38.5448,1282.89,69.80,23.00,16.98,330.00,16.00,0.00,30.04,M,10.00,M,CLR,M,M,M,M,M,M,M,M,M,M,M,M,M,M,69.80,KHTH 041615Z AUTO 33016KT 10SM CLR 21/M05 A3004 RMK A01,M
CXP,2025-06-04 16:30,-119.7326,39.1923,1431.00,69.80,23.00,16.98,50.00,9.00,0.00,30.07,M,10.00,M,CLR,M,M,M,M,M,M,M,M,M,M,M,M,M,M,69.80,KCXP 041630Z AUTO 05009KT 10SM CLR 21/M05 A3007 RMK AO2,M
TMT,2025-06-04 16:30,-117.1971,39.4643,1749.34,60.30,24.30,24.95,0.00,0.00,0.00,30.10,M,10.00,M,CLR,M,M,M,M,M,M,M,M,M,M,M,M,M,M,60.30,KTMT 041630Z AUTO 00000KT 10SM CLR 16/M04 A3010 RMK AO2 T01571043,M
BVU,2025-06-04 16:35,-114.8611,35.9475,671.00,82.40,44.60,26.53,0.00,0.00,0.00,29.84,M,10.00,M,CLR,M,M,M,M,M,M,M,M,M,M,M,M,M,M,80.51,KBVU 041635Z AUTO 00000KT 10SM CLR 28/07 A2984 RMK AO2,M
BAM,2025-06-04 16:35,-116.8743,40.5990,1382.36,62.60,30.20,29.34,350.00,4.00,0.00,30.09,M,10.00,M,CLR,M,M,M,M,M,M,M,M,M,M,M,M,M,M,62.60,KBAM 041635Z AUTO 35004KT 10SM CLR 17/M01 A3009 RMK AO1,M
RTS,2025-06-04 16:35,-119.8764,39.6682,1539.00,64.40,23.00,20.45,80.00,6.00,0.00,30.09,M,10.00,M,CLR,M,M,M,M,M,M,M,M,M,M,M,M,M,M,64.40,KRTS 041635Z AUTO 08006KT 10SM CLR 18/M05 A3009 RMK AO2,M
HTH,2025-06-04 16:35,-118.6315,38.5448,1282.89,69.80,24.80,18.31,320.00,13.00,0.00,30.04,M,10.00,M,CLR,M,M,M,M,M,M,M,M,M,M,M,M,M,M,69.80,KHTH 041635Z AUTO 32013KT 10SM CLR 21/M04 A3004 RMK A01,M
CXP,2025-06-04 16:50,-119.7326,39.1923,1431.00,69.80,23.00,16.98,80.00,10.00,0.00,30.06,M,10.00,M,CLR,M,M,M,M,M,M,M,M,M,M,M,M,M,M,69.80,KCXP 041650Z AUTO 08010KT 040V100 10SM CLR 21/M05 A3006 RMK AO2,M
TMT,2025-06-04 16:50,-117.1971,39.4643,1749.34,61.30,24.60,24.39,0.00,0.00,0.00,30.10,M,10.00,M,CLR,M,M,M,M,M,M,M,M,M,M,M,M,M,M,61.30,KTMT 041650Z AUTO 00000KT 10SM CLR 16/M04 A3010 RMK AO2 T01631041,M
P68,2025-06-04 16:53,-116.0056,39.6014,1993.00,61.00,23.00,23.05,50.00,5.00,0.00,30.08,1012.10,M,M,M,M,M,M,M,M,M,M,M,M,M,M,M,M,M,61.00,KP68 041653Z AUTO 05005KT 16/M05 A3008 RMK AO1 SLP121 T01611050,M
DRA,2025-06-04 16:53,-116.0278,36.6206,1009.00,79.00,47.00,32.46,250.00,6.00,0.00,29.91,1008.10,10.00,M,CLR,M,M,M,M,M,M,M,M,M,M,M,M,M,M,79.00,KDRA 041653Z AUTO 25006KT 10SM CLR 26/08 A2991 RMK AO2 SLP081 T02610083,M
ELY,2025-06-04 16:53,-114.8453,39.2950,1909.00,61.00,23.00,23.05,M,6.00,0.00,30.08,1010.10,10.00,M,CLR,M,M,M,M,M,M,M,M,M,M,M,M,M,M,61.00,KELY 041653Z AUTO VRB06KT 10SM CLR 16/M05 A3008 RMK AO2 SLP101 T01611050,M
VGT,2025-06-04 16:53,-115.1933,36.2111,667.00,82.00,48.00,30.56,M,3.00,0.00,29.85,1010.10,10.00,M,CLR,M,M,M,M,M,M,M,M,M,M,M,M,M,M,80.53,KVGT 041653Z VRB03KT 10SM CLR 28/09 A2985 RMK AO2 SLP101 T02780089,M
LOL,2025-06-04 16:53,-118.5701,40.0684,1192.43,70.00,26.00,19.11,40.00,12.00,0.00,30.03,1013.60,10.00,M,CLR,M,M,M,M,M,M,M,M,M,M,M,M,M,M,70.00,KLOL 041653Z AUTO 04012KT 10SM CLR 21/M03 A3003 RMK AO2 SLP136 T02111033,M
INS,2025-06-04 16:55,-115.6733,36.5872,955.00,78.80,44.80,30.06,0.00,0.00,0.00,29.89,1007.40,10.00,M,CLR,M,M,M,M,M,M,M,M,M,M,M,M,M,M,78.80,KINS 041655Z AUTO 00000KT 10SM CLR 26/07 A2989 RMK AO2 SLP074 T02600071 $,M
LSV,2025-06-04 16:55,-115.0343,36.2362,570.00,83.70,48.00,28.93,0.00,0.00,0.00,29.80,1006.50,10.00,M,FEW,M,M,M,25000.00,M,M,M,M,M,M,M,M,M,M,81.66,KLSV 041655Z 00000KT 10SM FEW250 29/09 A2980 RMK AO2A SLP065 T02870089 $,M
BVU,2025-06-04 16:55,-114.8611,35.9475,671.00,84.20,46.40,26.81,250.00,6.00,0.00,29.83,M,10.00,M,CLR,M,M,M,M,M,M,M,M,M,M,M,M,M,M,81.87,KBVU 041655Z AUTO 25006KT 10SM CLR 29/08 A2983 RMK AO2,M
RNO,2025-06-04 16:55,-119.7711,39.4839,1341.00,70.00,25.00,18.33,M,6.00,0.00,30.04,1012.10,10.00,M,CLR,M,M,M,M,M,M,M,M,M,M,M,M,M,M,70.00,KRNO 041655Z VRB06KT 10SM CLR 21/M04 A3004 RMK AO2 SLP121 T02111039,M
BAM,2025-06-04 16:55,-116.8743,40.5990,1382.36,64.40,32.00,29.63,340.00,3.00,0.00,30.09,M,10.00,M,CLR,M,M,M,M,M,M,M,M,M,M,M,M,M,M,64.40,KBAM 041655Z AUTO 34003KT 10SM CLR 18/00 A3009 RMK AO1,M
RTS,2025-06-04 16:55,-119.8764,39.6682,1539.00,66.20,23.00,19.21,120.00,6.00,0.00,30.08,M,10.00,M,CLR,M,M,M,M,M,M,M,M,M,M,M,M,M,M,66.20,KRTS 041655Z AUTO 12006KT 10SM CLR 19/M05 A3008 RMK AO2,M
HTH,2025-06-04 16:55,-118.6315,38.5448,1282.89,71.60,24.80,17.22,310.00,13.00,0.00,30.03,M,10.00,M,CLR,M,M,M,M,M,M,M,M,M,M,M,M,M,M,71.60,KHTH 041655Z AUTO 31013KT 10SM CLR 22/M04 A3003 RMK A01,M
EKO,2025-06-04 16:56,-115.7860,40.8242,1367.00,63.00,28.00,26.44,160.00,3.00,0.00,30.06,1013.70,10.00,M,CLR,M,M,M,M,M,M,M,M,M,M,M,M,M,M,63.00,KEKO 041656Z AUTO 16003KT 10SM CLR 17/M02 A3006 RMK AO2 SLP137 T01721022,M
WMC,2025-06-04 16:56,-117.8072,40.9019,1315.00,66.00,28.00,23.82,M,3.00,0.00,30.07,1014.60,10.00,M,CLR,M,M,M,M,M,M,M,M,M,M,M,M,M,M,66.00,KWMC 041656Z AUTO VRB03KT 10SM CLR 19/M02 A3007 RMK AO2 SLP146 T01891022 TSNO,M
HND,2025-06-04 16:56,-115.1344,35.9729,742.79,83.00,49.00,30.72,M,4.00,0.00,29.88,1010.70,10.00,M,CLR,M,M,M,M,M,M,M,M,M,M,M,M,M,M,81.28,KHND 041656Z VRB04KT 10SM CLR 28/09 A2988 RMK AO2 SLP107 T02830094 $,M
TPH,2025-06-04 16:56,-117.0904,38.0505,1654.00,70.00,22.00,16.16,0.00,0.00,0.00,30.03,1009.50,10.00,M,CLR,M,M,M,M,M,M,M,M,M,M,M,M,M,M,70.00,KTPH 041656Z AUTO 00000KT 10SM CLR 21/M06 A3003 RMK AO2 SLP095 T02111056 $,M
LAS,2025-06-04 16:56,-115.1634,36.0719,663.00,81.00,50.00,34.02,0.00,0.00,0.00,29.86,1008.70,10.00,M,FEW,FEW,M,M,12000.00,15000.00,M,M,M,M,M,M,M,M,M,80.12,KLAS 041656Z 00000KT 10SM FEW120 FEW150 27/10 A2986 RMK AO2 SLP087 T02720100 $,M
NFL,2025-06-04 16:57,-118.7010,39.4166,1199.00,72.00,25.00,17.13,330.00,4.00,0.00,30.03,1013.80,10.00,M,FEW,M,M,M,22000.00,M,M,M,M,M,M,M,M,M,M,72.00,KNFL 041657Z 33004KT 10SM FEW220 22/M04 A3003 RMK AO2 SLP138 T02221039,M
TMT,2025-06-04 17:10,-117.1971,39.4643,1749.34,64.00,24.60,22.18,330.00,4.00,0.00,30.10,M,10.00,M,CLR,M,M,M,M,M,M,M,M,M,M,M,M,M,M,64.00,KTMT 041710Z AUTO 33004KT 10SM CLR 18/M04 A3010 RMK AO2 T01781041,M
BVU,2025-06-04 17:15,-114.8611,35.9475,671.00,84.20,44.60,25.04,0.00,0.00,0.00,29.83,M,10.00,M,CLR,M,M,M,M,M,M,M,M,M,M,M,M,M,M,81.73,KBVU 041715Z AUTO 00000KT 10SM CLR 29/07 A2983 RMK AO2,M
BAM,2025-06-04 17:15,-116.8743,40.5990,1382.36,64.40,32.00,29.63,360.00,3.00,0.00,30.08,M,10.00,M,CLR,M,M,M,M,M,M,M,M,M,M,M,M,M,M,64.40,KBAM 041715Z AUTO 36003KT 10SM CLR 18/00 A3008 RMK AO1,M
CXP,2025-06-04 17:15,-119.7326,39.1923,1431.00,69.80,23.00,16.98,M,6.00,0.00,30.06,M,10.00,12.00,CLR,M,M,M,M,M,M,M,M,M,M,M,M,M,M,69.80,KCXP 041715Z AUTO VRB06G12KT 10SM CLR 21/M05 A3006 RMK AO2,M
RTS,2025-06-04 17:15,-119.8764,39.6682,1539.00,66.20,23.00,19.21,50.00,5.00,0.00,30.08,M,10.00,M,CLR,M,M,M,M,M,M,M,M,M,M,M,M,M,M,66.20,KRTS 041715Z AUTO 05005KT 10SM CLR 19/M05 A3008 RMK AO2,M
HTH,2025-06-04 17:15,-118.6315,38.5448,1282.89,71.60,23.00,15.97,320.00,13.00,0.00,30.03,M,10.00,M,CLR,M,M,M,M,M,M,M,M,M,M,M,M,M,M,71.60,KHTH 041715Z AUTO 32013KT 10SM CLR 22/M05 A3003 RMK A01,M
CXP,2025-06-04 17:30,-119.7326,39.1923,1431.00,69.80,23.00,16.98,80.00,7.00,0.00,30.06,M,10.00,M,CLR,M,M,M,M,M,M,M,M,M,M,M,M,M,M,69.80,KCXP 041730Z AUTO 08007KT 050V120 10SM CLR 21/M05 A3006 RMK AO2,M
TMT,2025-06-04 17:30,-117.1971,39.4643,1749.34,63.70,24.40,22.23,20.00,5.00,0.00,30.09,M,10.00,M,CLR,M,M,M,M,M,M,M,M,M,M,M,M,M,M,63.70,KTMT 041730Z AUTO 02005KT 10SM CLR 18/M04 A3009 RMK AO2 T01761042,M
BVU,2025-06-04 17:35,-114.8611,35.9475,671.00,84.20,44.60,25.04,M,5.00,0.00,29.84,M,10.00,11.00,CLR,M,M,M,M,M,M,M,M,M,M,M,M,M,M,81.73,KBVU 041735Z AUTO VRB05G11KT 10SM CLR 29/07 A2984 RMK AO2,M
BAM,2025-06-04 17:35,-116.8743,40.5990,1382.36,64.40,32.00,29.63,340.00,4.00,0.00,30.08,M,10.00,M,CLR,M,M,M,M,M,M,M,M,M,M,M,M,M,M,64.40,KBAM 041735Z AUTO 34004KT 10SM CLR 18/00 A3008 RMK AO1,M
RTS,2025-06-04 17:35,-119.8764,39.6682,1539.00,66.20,23.00,19.21,0.00,0.00,0.00,30.08,M,10.00,M,CLR,M,M,M,M,M,M,M,M,M,M,M,M,M,M,66.20,KRTS 041735Z AUTO 00000KT 10SM CLR 19/M05 A3008 RMK AO2,M
HTH,2025-06-04 17:35,-118.6315,38.5448,1282.89,71.60,23.00,15.97,320.00,13.00,0.00,30.02,M,10.00,M,CLR,M,M,M,M,M,M,M,M,M,M,M,M,M,M,71.60,KHTH 041735Z AUTO 32013KT 10SM CLR 22/M05 A3002 RMK A01,M
TMT,2025-06-04 17:50,-117.1971,39.4643,1749.34,63.70,24.60,22.41,120.00,4.00,0.00,30.09,M,10.00,M,CLR,M,M,M,M,M,M,M,M,M,M,M,M,M,M,63.70,KTMT 041750Z AUTO 12004KT 10SM CLR 18/M04 A3009 RMK AO2 T01761041,M
P68,2025-06-04 17:53,-116.0056,39.6014,1993.00,62.00,23.00,22.25,M,M,0.00,30.07,1012.10,M,M,M,M,M,M,M,M,M,M,M,M,M,M,M,M,M,62.00,KP68 041753Z AUTO 17/M05 A3007 RMK AO1 SLP121 T01671050 10178 20011 58008,M
DRA,2025-06-04 17:53,-116.0278,36.6206,1009.00,82.00,47.00,29.44,210.00,9.00,0.00,29.90,1007.80,10.00,15.00,CLR,M,M,M,M,M,M,M,M,M,M,M,M,M,M,80.44,KDRA 041753Z AUTO 21009G15KT 10SM CLR 28/08 A2990 RMK AO2 SLP078 T02780083 10278 20172 58002,M
ELY,2025-06-04 17:53,-114.8453,39.2950,1909.00,63.00,22.00,20.59,M,3.00,0.00,30.07,1010.20,10.00,M,CLR,M,M,M,M,M,M,M,M,M,M,M,M,M,M,63.00,KELY 041753Z AUTO VRB03KT 10SM CLR 17/M06 A3007 RMK AO2 SLP102 T01721056 10178 20044 58009,M
VGT,2025-06-04 17:53,-115.1933,36.2111,667.00,86.00,47.00,25.89,0.00,0.00,0.00,29.84,1009.80,10.00,M,CLR,M,M,M,M,M,M,M,M,M,M,M,M,M,M,83.28,KVGT 041753Z 00000KT 10SM CLR 30/08 A2984 RMK AO2 SLP098 T03000083 10300 20217 58002,M
LOL,2025-06-04 17:53,-118.5701,40.0684,1192.43,72.00,26.00,17.86,50.00,6.00,0.00,30.02,1013.30,10.00,M,CLR,M,M,M,M,M,M,M,M,M,M,M,M,M,M,72.00,KLOL 041753Z AUTO 05006KT 10SM CLR 22/M03 A3002 RMK AO2 SLP133 T02221033 10222 20111 58005,M
INS,2025-06-04 17:55,-115.6733,36.5872,955.00,82.00,43.50,25.77,50.00,3.00,0.00,29.88,1007.00,10.00,M,CLR,M,M,M,M,M,M,M,M,M,M,M,M,M,M,80.18,KINS 041755Z AUTO 05003KT 10SM CLR 28/06 A2988 RMK AO2 SLP070 T02770064 10277 20152 58006 $,M
LSV,2025-06-04 17:55,-115.0343,36.2362,570.00,86.70,45.50,23.92,70.00,4.00,0.00,29.80,1006.40,10.00,M,FEW,M,M,M,18000.00,M,M,M,M,M,M,M,M,M,M,83.70,KLSV 041755Z 07004KT 10SM FEW180 30/08 A2980 RMK AO2A SLP064 T03040075 10304 20236 58002 $,M
BVU,2025-06-04 17:55,-114.8611,35.9475,671.00,86.00,48.20,27.08,80.00,7.00,0.00,29.84,M,10.00,M,CLR,M,M,M,M,M,M,M,M,M,M,M,M,M,M,83.41,KBVU 041755Z AUTO 08007KT 10SM CLR 30/09 A2984 RMK AO2,M
BAM,2025-06-04 17:55,-116.8743,40.5990,1382.36,66.20,32.00,27.84,340.00,5.00,0.00,30.08,M,10.00,M,CLR,M,M,M,M,M,M,M,M,M,M,M,M,M,M,66.20,KBAM 041755Z AUTO 34005KT 10SM CLR 19/00 A3008 RMK AO1,M
CXP,2025-06-04 17:55,-119.7326,39.1923,1431.00,71.60,23.00,15.97,M,4.00,0.00,30.05,M,10.00,11.00,CLR,M,M,M,M,M,M,M,M,M,M,M,M,M,M,71.60,KCXP 041755Z AUTO VRB04G11KT 10SM CLR 22/M05 A3005 RMK AO2,M
RNO,2025-06-04 17:55,-119.7711,39.4839,1341.00,72.00,24.00,16.43,10.00,8.00,0.00,30.03,1011.70,10.00,M,CLR,M,M,M,M,M,M,M,M,M,M,M,M,M,M,72.00,KRNO 041755Z 01008KT 10SM CLR 22/M04 A3003 RMK AO2 SLP117 T02221044 10222 20133 58010,M
RTS,2025-06-04 17:55,-119.8764,39.6682,1539.00,68.00,23.00,18.06,100.00,7.00,0.00,30.07,M,10.00,M,CLR,M,M,M,M,M,M,M,M,M,M,M,M,M,M,68.00,KRTS 041755Z AUTO 10007KT 10SM CLR 20/M05 A3007 RMK AO2,M
HTH,2025-06-04 17:55,-118.6315,38.5448,1282.89,73.40,23.00,15.03,330.00,12.00,0.00,30.02,M,10.00,17.00,CLR,M,M,M,M,M,M,M,M,M,M,M,M,M,M,73.40,KHTH 041755Z AUTO 33012G17KT 300V360 10SM CLR 23/M05 A3002 RMK A01,M
WMC,2025-06-04 17:56,-117.8072,40.9019,1315.00,68.00,28.00,22.23,M,5.00,0.00,30.05,1014.00,10.00,M,CLR,M,M,M,M,M,M,M,M,M,M,M,M,M,M,68.00,KWMC 041756Z AUTO VRB05KT 10SM CLR 20/M02 A3005 RMK AO2 SLP140 T02001022 10206 20061 58009 TSNO,M
HND,2025-06-04 17:56,-115.1344,35.9729,742.79,84.00,49.00,29.75,240.00,3.00,0.00,29.88,1010.80,10.00,M,CLR,M,M,M,M,M,M,M,M,M,M,M,M,M,M,81.98,KHND 041756Z 24003KT 10SM CLR 29/09 A2988 RMK AO2 SLP108 T02890094 10294 20211 58002 $,M
EKO,2025-06-04 17:56,-115.7860,40.8242,1367.00,65.00,29.00,25.69,M,4.00,0.00,30.05,1013.50,10.00,M,CLR,M,M,M,M,M,M,M,M,M,M,M,M,M,M,65.00,KEKO 041756Z AUTO VRB04KT 10SM CLR 18/M02 A3005 RMK AO2 SLP135 T01831017 10183 20028 58012,M
TPH,2025-06-04 17:56,-117.0904,38.0505,1654.00,74.00,24.00,15.36,290.00,9.00,0.00,30.02,1009.10,10.00,17.00,CLR,M,M,M,M,M,M,M,M,M,M,M,M,M,M,74.00,KTPH 041756Z AUTO 29009G17KT 250V320 10SM CLR 23/M04 A3002 RMK AO2 SLP091 T02331044 10250 20122 58006 $,M
LAS,2025-06-04 17:56,-115.1634,36.0719,663.00,85.00,48.00,27.75,M,3.00,0.00,29.86,1008.50,10.00,M,FEW,M,M,M,10000.00,M,M,M,M,M,M,M,M,M,M,82.61,KLAS 041756Z VRB03KT 10SM FEW100 29/09 A2986 RMK AO2 SLP085 T02940089 10294 20228 58002 $,M
NFL,2025-06-04 17:57,-118.7010,39.4166,1199.00,74.00,24.00,15.36,M,4.00,0.00,30.02,1013.50,10.00,M,FEW,M,M,M,22000.00,M,M,M,M,M,M,M,M,M,M,74.00,KNFL 041757Z VRB04KT 10SM FEW220 23/M04 A3002 RMK AO2 SLP135 T02331044 10239 20094 58008,M
TMT,2025-06-04 18:10,-117.1971,39.4643,1749.34,66.20,25.30,21.15,120.00,3.00,0.00,30.09,M,10.00,M,CLR,M,M,M,M,M,M,M,M,M,M,M,M,M,M,66.20,KTMT 041810Z AUTO 12003KT 10SM CLR 19/M04 A3009 RMK AO2 T01901037,M
BVU,2025-06-04 18:15,-114.8611,35.9475,671.00,86.00,48.20,27.08,140.00,8.00,0.00,29.84,M,10.00,M,CLR,M,M,M,M,M,M,M,M,M,M,M,M,M,M,83.41,KBVU 041815Z AUTO 14008KT 10SM CLR 30/09 A2984 RMK AO2,M
BAM,2025-06-04 18:15,-116.8743,40.5990,1382.36,68.00,32.00,26.16,290.00,10.00,0.00,30.07,M,10.00,M,CLR,M,M,M,M,M,M,M,M,M,M,M,M,M,M,68.00,KBAM 041815Z AUTO 29010KT 280V340 10SM CLR 20/00 A3007 RMK AO1,M
CXP,2025-06-04 18:15,-119.7326,39.1923,1431.00,71.60,23.00,15.97,M,4.00,0.00,30.05,M,10.00,11.00,CLR,M,M,M,M,M,M,M,M,M,M,M,M,M,M,71.60,KCXP 041815Z AUTO VRB04G11KT 10SM CLR 22/M05 A3005 RMK AO2,M
RTS,2025-06-04 18:15,-119.8764,39.6682,1539.00,68.00,23.00,18.06,0.00,0.00,0.00,30.07,M,10.00,M,CLR,M,M,M,M,M,M,M,M,M,M,M,M,M,M,68.00,KRTS 041815Z AUTO 00000KT 10SM CLR 20/M05 A3007 RMK AO2,M
HTH,2025-06-04 18:15,-118.6315,38.5448,1282.89,M,M,M,M,M,0.00,M,M,M,M,M,M,M,M,M,M,M,M,M,M,M,M,M,M,M,M,KHTH 041815Z AUTO RMK A01,M
TMT,2025-06-04 18:30,-117.1971,39.4643,1749.34,66.70,25.70,21.14,0.00,0.00,0.00,30.08,M,10.00,M,CLR,M,M,M,M,M,M,M,M,M,M,M,M,M,M,66.70,KTMT 041830Z AUTO 00000KT 10SM CLR 19/M03 A3008 RMK AO2 T01931035,M
BVU,2025-06-04 18:35,-114.8611,35.9475,671.00,86.00,48.20,27.08,120.00,7.00,0.00,29.84,M,10.00,M,CLR,M,M,M,M,M,M,M,M,M,M,M,M,M,M,83.41,KBVU 041835Z AUTO 12007KT 080V140 10SM CLR 30/09 A2984 RMK AO2 LTG DSNT NE,M
BAM,2025-06-04 18:35,-116.8743,40.5990,1382.36,68.00,30.20,24.32,260.00,3.00,0.00,30.07,M,10.00,M,CLR,M,M,M,M,M,M,M,M,M,M,M,M,M,M,68.00,KBAM 041835Z AUTO 26003KT 10SM CLR 20/M01 A3007 RMK AO1,M
CXP,2025-06-04 18:35,-119.7326,39.1923,1431.00,73.40,23.00,15.03,30.00,8.00,0.00,30.05,M,10.00,M,CLR,M,M,M,M,M,M,M,M,M,M,M,M,M,M,73.40,KCXP 041835Z AUTO 03008KT 010V080 10SM CLR 23/M05 A3005 RMK AO2,M
RTS,2025-06-04 18:35,-119.8764,39.6682,1539.00,69.80,23.00,16.98,130.00,6.00,0.00,30.07,M,10.00,M,CLR,M,M,M,M,M,M,M,M,M,M,M,M,M,M,69.80,KRTS 041835Z AUTO 13006KT 10SM CLR 21/M05 A3007 RMK AO2,M
HTH,2025-06-04 18:35,-118.6315,38.5448,1282.89,M,M,M,M,M,0.00,30.01,M,M,M,M,M,M,M,M,M,M,M,M,M,M,M,M,M,M,M,KHTH 041835Z AUTO A3001 RMK A01,M
CXP,2025-06-04 18:50,-119.7326,39.1923,1431.00,73.40,23.00,15.03,290.00,4.00,0.00,30.04,M,10.00,M,CLR,M,M,M,M,M,M,M,M,M,M,M,M,M,M,73.40,KCXP 041850Z AUTO 29004KT 10SM CLR 23/M05 A3004 RMK AO2,M
TMT,2025-06-04 18:50,-117.1971,39.4643,1749.34,67.30,25.30,20.36,120.00,3.00,0.00,30.07,M,10.00,M,CLR,M,M,M,M,M,M,M,M,M,M,M,M,M,M,67.30,KTMT 041850Z AUTO 12003KT 10SM CLR 20/M04 A3007 RMK AO2 T01961037,M
P68,2025-06-04 18:53,-116.0056,39.6014,1993.00,66.00,24.00,20.17,M,3.00,0.00,30.06,1011.60,M,M,M,M,M,M,M,M,M,M,M,M,M,M,M,M,M,66.00,KP68 041853Z AUTO VRB03KT 19/M04 A3006 RMK AO1 SLP116 T01891044,M
DRA,2025-06-04 18:53,-116.0278,36.6206,1009.00,84.00,47.00,27.60,210.00,9.00,0.00,29.89,M,10.00,M,CLR,M,M,M,M,M,M,M,M,M,M,M,M,M,M,81.78,KDRA 041853Z AUTO 21009KT 10SM CLR 29/08 A2989 RMK AO2 SLPNO T02890083,M
ELY,2025-06-04 18:53,-114.8453,39.2950,1909.00,69.00,22.00,16.73,40.00,8.00,0.00,30.04,1008.70,10.00,M,CLR,M,M,M,M,M,M,M,M,M,M,M,M,M,M,69.00,KELY 041853Z AUTO 04008KT 10SM CLR 21/M06 A3004 RMK AO2 SLP087 T02061056,M
VGT,2025-06-04 18:53,-115.1933,36.2111,667.00,88.00,47.00,24.30,M,M,0.00,29.83,1009.20,10.00,M,CLR,M,M,M,M,M,M,M,M,M,M,M,M,M,M,84.92,KVGT 041853Z 10SM CLR 31/08 A2983 RMK AO2 SLP092 T03110083,M
LOL,2025-06-04 18:53,-118.5701,40.0684,1192.43,74.00,26.00,16.70,360.00,9.00,0.00,30.01,1012.80,10.00,M,CLR,M,M,M,M,M,M,M,M,M,M,M,M,M,M,74.00,KLOL 041853Z AUTO 36009KT 10SM CLR 23/M03 A3001 RMK AO2 SLP128 T02331033,M
INS,2025-06-04 18:55,-115.6733,36.5872,955.00,84.00,42.30,23.07,0.00,0.00,0.00,29.87,1006.90,10.00,M,CLR,M,M,M,M,M,M,M,M,M,M,M,M,M,M,81.44,KINS 041855Z AUTO 00000KT 10SM CLR 29/06 A2987 RMK AO2 SLP069 T02890057 $,M
LSV,2025-06-04 18:55,-115.0343,36.2362,570.00,87.80,45.30,22.93,130.00,5.00,0.00,29.78,1005.70,10.00,M,FEW,FEW,M,M,15000.00,19000.00,M,M,M,M,M,M,M,M,M,84.59,KLSV 041855Z 13005KT 10SM FEW150 FEW190 31/07 A2978 RMK AO2A SLP057 T03100074 $,M
BVU,2025-06-04 18:55,-114.8611,35.9475,671.00,86.00,46.40,25.31,M,4.00,0.00,29.83,M,10.00,16.00,CLR,M,M,M,M,M,M,M,M,M,M,M,M,M,M,83.23,KBVU 041855Z AUTO VRB04G16KT 10SM CLR 30/08 A2983 RMK AO2,M
RNO,2025-06-04 18:55,-119.7711,39.4839,1341.00,74.00,25.00,16.02,290.00,3.00,0.00,30.02,1011.30,10.00,M,CLR,M,M,M,M,M,M,M,M,M,M,M,M,M,M,74.00,KRNO 041855Z 29003KT 10SM CLR 23/M04 A3002 RMK AO2 SLP113 T02331039,M
BAM,2025-06-04 18:55,-116.8743,40.5990,1382.36,69.80,32.00,24.60,30.00,5.00,0.00,30.06,M,10.00,8.00,CLR,M,M,M,M,M,M,M,M,M,M,M,M,M,M,69.80,KBAM 041855Z AUTO 03005G08KT 10SM CLR 21/00 A3006 RMK AO1,M
RTS,2025-06-04 18:55,-119.8764,39.6682,1539.00,69.80,23.00,16.98,M,3.00,0.00,30.07,M,10.00,M,CLR,M,M,M,M,M,M,M,M,M,M,M,M,M,M,69.80,KRTS 041855Z AUTO VRB03KT 10SM CLR 21/M05 A3007 RMK AO2,M
HTH,2025-06-04 18:55,-118.6315,38.5448,1282.89,75.20,21.20,13.11,320.00,9.00,0.00,30.01,M,10.00,16.00,M,M,M,M,M,M,M,M,M,M,M,M,M,M,M,75.20,KHTH 041855Z AUTO 32009G16KT 10SM 24/M06 A3001 RMK A01,M
EKO,2025-06-04 18:56,-115.7860,40.8242,1367.00,67.00,27.00,22.08,0.00,0.00,0.00,30.04,1013.50,10.00,M,CLR,M,M,M,M,M,M,M,M,M,M,M,M,M,M,67.00,KEKO 041856Z AUTO 00000KT 10SM CLR 19/M03 A3004 RMK AO2 SLP135 T01941028,M
WMC,2025-06-04 18:56,-117.8072,40.9019,1315.00,69.00,27.00,20.61,M,3.00,0.00,30.04,1014.10,10.00,M,CLR,M,M,M,M,M,M,M,M,M,M,M,M,M,M,69.00,KWMC 041856Z AUTO VRB03KT 10SM CLR 21/M03 A3004 RMK AO2 SLP141 T02061028 TSNO,M
HND,2025-06-04 18:56,-115.1344,35.9729,742.79,88.00,49.00,26.19,270.00,6.00,0.00,29.87,1010.10,10.00,M,CLR,M,M,M,M,M,M,M,M,M,M,M,M,M,M,85.15,KHND 041856Z 27006KT 10SM CLR 31/09 A2987 RMK AO2 SLP101 T03110094 $,M
TPH,2025-06-04 18:56,-117.0904,38.0505,1654.00,75.00,25.00,15.49,M,M,0.00,30.01,1009.10,M,M,M,M,M,M,M,M,M,M,M,M,M,M,M,M,M,75.00,KTPH 041856Z AUTO 24/M04 A3001 RMK AO2 SLP091 T02391039 $,M
LAS,2025-06-04 18:56,-115.1634,36.0719,663.00,86.00,47.00,25.89,310.00,6.00,0.00,29.84,1008.00,10.00,M,FEW,M,M,M,10000.00,M,M,M,M,M,M,M,M,M,M,83.28,KLAS 041856Z 31006KT 10SM FEW100 30/08 A2984 RMK AO2 SLP080 TCU DSNT N AND NW T03000083 $,M
NFL,2025-06-04 18:57,-118.7010,39.4166,1199.00,76.00,25.00,14.98,330.00,6.00,0.00,30.01,1013.10,10.00,M,FEW,M,M,M,22000.00,M,M,M,M,M,M,M,M,M,M,76.00,KNFL 041857Z 33006KT 10SM FEW220 24/M04 A3001 RMK AO2 SLP131 T02441039,M
RTS,2025-06-04 19:05,-119.8764,39.6682,1539.00,69.80,23.00,16.98,M,4.00,0.00,30.06,M,10.00,10.00,CLR,M,M,M,M,M,M,M,M,M,M,M,M,M,M,69.80,KRTS 041905Z AUTO VRB04G10KT 10SM CLR 21/M05 A3006 RMK AO2,M
CXP,2025-06-04 19:10,-119.7326,39.1923,1431.00,73.40,24.80,16.21,M,6.00,0.00,30.04,M,10.00,12.00,CLR,M,M,M,M,M,M,M,M,M,M,M,M,M,M,73.40,KCXP 041910Z AUTO VRB06G12KT 10SM CLR 23/M04 A3004 RMK AO2,M
TMT,2025-06-04 19:10,-117.1971,39.4643,1749.34,68.00,25.00,19.63,200.00,4.00,0.00,30.07,M,10.00,M,CLR,M,M,M,M,M,M,M,M,M,M,M,M,M,M,68.00,KTMT 041910Z AUTO 20004KT 10SM CLR 20/M04 A3007 RMK AO2 T01991038,M
BVU,2025-06-04 19:15,-114.8611,35.9475,671.00,86.00,44.60,23.64,90.00,6.00,0.00,29.82,M,10.00,13.00,CLR,M,M,M,M,M,M,M,M,M,M,M,M,M,M,83.08,KBVU 041915Z AUTO 09006G13KT 10SM CLR 30/07 A2982 RMK AO2,M
BAM,2025-06-04 19:15,-116.8743,40.5990,1382.36,69.80,30.20,22.87,330.00,8.00,0.00,30.05,M,10.00,M,CLR,M,M,M,M,M,M,M,M,M,M,M,M,M,M,69.80,KBAM 041915Z AUTO 33008KT 10SM CLR 21/M01 A3005 RMK AO1,M
HTH,2025-06-04 19:15,-118.6315,38.5448,1282.89,75.20,21.20,13.11,320.00,13.00,0.00,30.00,M,10.00,M,CLR,M,M,M,M,M,M,M,M,M,M,M,M,M,M,75.20,KHTH 041915Z AUTO 32013KT 10SM CLR 24/M06 A3000 RMK A01,M
TMT,2025-06-04 19:30,-117.1971,39.4643,1749.34,72.30,26.40,17.97,300.00,6.00,0.00,30.06,M,10.00,18.00,CLR,M,M,M,M,M,M,M,M,M,M,M,M,M,M,72.30,KTMT 041930Z AUTO 30006G18KT 250V350 10SM CLR 22/M03 A3006 RMK AO2 T02241031,M
BVU,2025-06-04 19:35,-114.8611,35.9475,671.00,87.80,44.60,22.33,M,5.00,0.00,29.82,M,10.00,12.00,CLR,M,M,M,M,M,M,M,M,M,M,M,M,M,M,84.53,KBVU 041935Z AUTO VRB05G12KT 10SM CLR 31/07 A2982 RMK AO2,M
BAM,2025-06-04 19:35,-116.8743,40.5990,1382.36,69.80,28.40,21.24,340.00,3.00,0.00,30.05,M,10.00,M,CLR,M,M,M,M,M,M,M,M,M,M,M,M,M,M,69.80,KBAM 041935Z AUTO 34003KT 10SM CLR 21/M02 A3005 RMK AO1,M
CXP,2025-06-04 19:35,-119.7326,39.1923,1431.00,73.40,24.80,16.21,M,6.00,0.00,30.03,M,10.00,M,CLR,M,M,M,M,M,M,M,M,M,M,M,M,M,M,73.40,KCXP 041935Z AUTO VRB06KT 10SM CLR 23/M04 A3003 RMK AO2,M
HTH,2025-06-04 19:35,-118.6315,38.5448,1282.89,77.00,21.20,12.35,320.00,14.00,0.00,29.99,M,10.00,M,CLR,M,M,M,M,M,M,M,M,M,M,M,M,M,M,77.00,KHTH 041935Z AUTO 32014KT 10SM CLR 25/M06 A2999 RMK A01,M
TMT,2025-06-04 19:50,-117.1971,39.4643,1749.34,69.30,25.50,19.17,50.00,3.00,0.00,30.05,M,10.00,M,CLR,M,M,M,M,M,M,M,M,M,M,M,M,M,M,69.30,KTMT 041950Z AUTO 05003KT 10SM CLR 21/M04 A3005 RMK AO2 T02071036,M
P68,2025-06-04 19:53,-116.0056,39.6014,1993.00,67.00,24.00,19.49,120.00,7.00,0.00,30.04,1011.70,M,M,M,M,M,M,M,M,M,M,M,M,M,M,M,M,M,67.00,KP68 041953Z AUTO 12007KT 19/M04 A3004 RMK AO1 SLP117 T01941044,M
DRA,2025-06-04 19:53,-116.0278,36.6206,1009.00,85.00,49.00,28.81,M,M,0.00,29.87,1006.70,10.00,M,CLR,M,M,M,M,M,M,M,M,M,M,M,M,M,M,82.72,KDRA 041953Z AUTO 10SM CLR 29/09 A2987 RMK AO2 SLP067 T02940094,M
ELY,2025-06-04 19:53,-114.8453,39.2950,1909.00,72.00,23.00,15.75,350.00,10.00,0.00,30.02,1007.70,10.00,17.00,FEW,M,M,M,10000.00,M,M,M,M,M,M,M,M,M,M,72.00,KELY 041953Z AUTO 35010G17KT 10SM FEW100 22/M05 A3002 RMK AO2 SLP077 T02221050,M
VGT,2025-06-04 19:53,-115.1933,36.2111,667.00,89.00,45.00,21.83,140.00,7.00,0.00,29.81,1008.40,10.00,15.00,CLR,M,M,M,M,M,M,M,M,M,M,M,M,M,M,85.58,KVGT 041953Z 14007G15KT 10SM CLR 32/07 A2981 RMK AO2 SLP084 T03170072,M
LOL,2025-06-04 19:53,-118.5701,40.0684,1192.43,75.00,25.00,15.49,M,M,0.00,29.98,1012.10,10.00,M,CLR,M,M,M,M,M,M,M,M,M,M,M,M,M,M,75.00,KLOL 041953Z AUTO 10SM CLR 24/M04 A2998 RMK AO2 SLP121 T02391039,M
INS,2025-06-04 19:55,-115.6733,36.5872,955.00,86.00,36.00,16.92,90.00,3.00,0.00,29.85,1006.00,10.00,M,BKN,M,M,M,16000.00,M,M,M,M,M,M,M,M,M,M,82.70,KINS 041955Z AUTO 09003KT 10SM BKN160 30/02 A2985 RMK AO2 SLP060 T03010023 $,M
LSV,2025-06-04 19:55,-115.0343,36.2362,570.00,90.00,43.70,20.13,70.00,3.00,0.00,29.76,1005.00,10.00,M,FEW,M,M,M,19000.00,M,M,M,M,M,M,M,M,M,M,86.35,KLSV 041955Z 07003KT 10SM FEW190 32/07 A2976 RMK AO2A SLP050 T03230065 $,M
BVU,2025-06-04 19:55,-114.8611,35.9475,671.00,87.80,44.60,22.33,120.00,7.00,0.00,29.81,M,10.00,M,CLR,M,M,M,M,M,M,M,M,M,M,M,M,M,M,84.53,KBVU 041955Z AUTO 12007KT 080V180 10SM CLR 31/07 A2981 RMK AO2,M
RNO,2025-06-04 19:55,-119.7711,39.4839,1341.00,76.00,25.00,14.98,10.00,4.00,0.00,29.99,1010.50,10.00,M,FEW,M,M,M,9000.00,M,M,M,M,M,M,M,M,M,M,76.00,KRNO 041955Z 01004KT 10SM FEW090 24/M04 A2999 RMK AO2 SLP105 T02441039,M
BAM,2025-06-04 19:55,-116.8743,40.5990,1382.36,71.60,28.40,19.98,290.00,8.00,0.00,30.04,M,10.00,M,CLR,M,M,M,M,M,M,M,M,M,M,M,M,M,M,71.60,KBAM 041955Z AUTO 29008KT 10SM CLR 22/M02 A3004 RMK AO1,M
CXP,2025-06-04 19:55,-119.7326,39.1923,1431.00,75.20,24.80,15.26,M,4.00,0.00,30.02,M,10.00,12.00,CLR,M,M,M,M,M,M,M,M,M,M,M,M,M,M,75.20,KCXP 041955Z AUTO VRB04G12KT 10SM CLR 24/M04 A3002 RMK AO2,M
RTS,2025-06-04 19:55,-119.8764,39.6682,1539.00,71.60,23.00,15.97,M,6.00,0.00,30.04,M,10.00,13.00,CLR,M,M,M,M,M,M,M,M,M,M,M,M,M,M,71.60,KRTS 041955Z AUTO VRB06G13KT 10SM CLR 22/M05 A3004 RMK AO2,M
HTH,2025-06-04 19:55,-118.6315,38.5448,1282.89,77.00,21.20,12.35,330.00,11.00,0.00,29.99,M,10.00,18.00,CLR,M,M,M,M,M,M,M,M,M,M,M,M,M,M,77.00,KHTH 041955Z AUTO 33011G18KT 10SM CLR 25/M06 A2999 RMK A01,M
EKO,2025-06-04 19:56,-115.7860,40.8242,1367.00,71.00,27.00,19.25,240.00,8.00,0.00,30.01,1012.50,10.00,M,CLR,M,M,M,M,M,M,M,M,M,M,M,M,M,M,71.00,KEKO 041956Z AUTO 24008KT 10SM CLR 22/M03 A3001 RMK AO2 SLP125 T02171028,M
WMC,2025-06-04 19:56,-117.8072,40.9019,1315.00,72.00,27.00,18.61,80.00,6.00,0.00,30.02,1013.30,10.00,M,CLR,M,M,M,M,M,M,M,M,M,M,M,M,M,M,72.00,KWMC 041956Z AUTO 08006KT 10SM CLR 22/M03 A3002 RMK AO2 SLP133 T02221028 TSNO,M
HND,2025-06-04 19:56,-115.1344,35.9729,742.79,89.00,49.00,25.38,70.00,5.00,0.00,29.84,1009.30,10.00,M,CLR,M,M,M,M,M,M,M,M,M,M,M,M,M,M,86.02,KHND 041956Z 07005KT 10SM CLR 32/09 A2984 RMK AO2 SLP093 T03170094 $,M
TPH,2025-06-04 19:56,-117.0904,38.0505,1654.00,78.00,25.00,14.02,M,M,0.00,30.00,1008.60,M,M,M,M,M,M,M,M,M,M,M,M,M,M,M,M,M,78.00,KTPH 041956Z AUTO 26/M04 A3000 RMK AO2 SLP086 T02561039 PWINO $,M
LAS,2025-06-04 19:56,-115.1634,36.0719,663.00,89.00,47.00,23.55,170.00,6.00,0.00,29.82,1007.00,10.00,M,FEW,M,M,M,10000.00,M,M,M,M,M,M,M,M,M,M,85.78,KLAS 041956Z 17006KT 10SM FEW100 32/08 A2982 RMK AO2 SLP070 CB DSNT W-NW T03170083 $,M
NFL,2025-06-04 19:57,-118.7010,39.4166,1199.00,78.00,26.00,14.62,350.00,8.00,0.00,29.98,1012.30,10.00,M,FEW,M,M,M,22000.00,M,M,M,M,M,M,M,M,M,M,78.00,KNFL 041957Z 35008KT 290V010 10SM FEW220 26/M03 A2998 RMK AO2 SLP123 T02561033,M
TMT,2025-06-04 20:10,-117.1971,39.4643,1749.34,72.30,26.20,17.83,360.00,8.00,0.00,30.05,M,10.00,15.00,CLR,M,M,M,M,M,M,M,M,M,M,M,M,M,M,72.30,KTMT 042010Z AUTO 36008G15KT 300V050 10SM CLR 22/M03 A3005 RMK AO2 T02241032,M
BVU,2025-06-04 20:15,-114.8611,35.9475,671.00,89.60,44.60,21.10,130.00,9.00,0.00,29.80,M,10.00,M,CLR,M,M,M,M,M,M,M,M,M,M,M,M,M,M,86.07,KBVU 042015Z AUTO 13009KT 10SM CLR 32/07 A2980 RMK AO2,M
BAM,2025-06-04 20:15,-116.8743,40.5990,1382.36,71.60,30.20,21.51,10.00,5.00,0.00,30.04,M,10.00,M,CLR,M,M,M,M,M,M,M,M,M,M,M,M,M,M,71.60,KBAM 042015Z AUTO 01005KT 10SM CLR 22/M01 A3004 RMK AO1,M
CXP,2025-06-04 20:15,-119.7326,39.1923,1431.00,77.00,24.80,14.37,60.00,8.00,0.00,30.01,M,10.00,M,CLR,M,M,M,M,M,M,M,M,M,M,M,M,M,M,77.00,KCXP 042015Z AUTO 06008KT 10SM CLR 25/M04 A3001 RMK AO2,M
RTS,2025-06-04 20:15,-119.8764,39.6682,1539.00,73.40,23.00,15.03,220.00,5.00,0.00,30.03,M,10.00,M,CLR,M,M,M,M,M,M,M,M,M,M,M,M,M,M,73.40,KRTS 042015Z AUTO 22005KT 10SM CLR 23/M05 A3003 RMK AO2,M
HTH,2025-06-04 20:15,-118.6315,38.5448,1282.89,77.00,21.20,12.35,320.00,12.00,0.00,29.98,M,10.00,18.00,CLR,M,M,M,M,M,M,M,M,M,M,M,M,M,M,77.00,KHTH 042015Z AUTO 32012G18KT 10SM CLR 25/M06 A2998 RMK A01,M
LSV,2025-06-04 20:20,-115.0343,36.2362,570.00,91.40,44.60,19.94,M,3.00,0.00,29.74,1004.20,10.00,M,FEW,M,M,M,11000.00,M,M,M,M,M,M,M,M,M,M,87.68,KLSV 042020Z COR VRB03KT 10SM FEW110 33/07 A2974 RMK A02A LTG DSNT W SLP042 $ COR 2022,M
TMT,2025-06-04 20:30,-117.1971,39.4643,1749.34,71.00,25.00,17.72,330.00,5.00,0.00,30.04,M,10.00,19.00,CLR,M,M,M,M,M,M,M,M,M,M,M,M,M,M,71.00,KTMT 042030Z AUTO 33005G19KT 10SM CLR 22/M04 A3004 RMK AO2 T02161038,M
BVU,2025-06-04 20:35,-114.8611,35.9475,671.00,89.60,44.60,21.10,160.00,11.00,0.00,29.79,M,10.00,M,CLR,M,M,M,M,M,M,M,M,M,M,M,M,M,M,86.07,KBVU 042035Z AUTO 16011KT 10SM CLR 32/07 A2979 RMK AO2,M
BAM,2025-06-04 20:35,-116.8743,40.5990,1382.36,71.60,28.40,19.98,320.00,7.00,0.00,30.03,M,10.00,M,CLR,M,M,M,M,M,M,M,M,M,M,M,M,M,M,71.60,KBAM 042035Z AUTO 32007KT 10SM CLR 22/M02 A3003 RMK AO1,M
CXP,2025-06-04 20:35,-119.7326,39.1923,1431.00,77.00,24.80,14.37,M,5.00,0.00,30.00,M,10.00,M,CLR,M,M,M,M,M,M,M,M,M,M,M,M,M,M,77.00,KCXP 042035Z AUTO VRB05KT 10SM CLR 25/M04 A3000 RMK AO2,M
RTS,2025-06-04 20:35,-119.8764,39.6682,1539.00,75.20,21.20,13.11,160.00,6.00,0.00,30.02,M,10.00,M,CLR,M,M,M,M,M,M,M,M,M,M,M,M,M,M,75.20,KRTS 042035Z AUTO 16006KT 10SM CLR 24/M06 A3002 RMK AO2,M
HTH,2025-06-04 20:35,-118.6315,38.5448,1282.89,78.80,21.20,11.64,320.00,10.00,0.00,29.96,M,10.00,18.00,CLR,M,M,M,M,M,M,M,M,M,M,M,M,M,M,78.80,KHTH 042035Z AUTO 32010G18KT 10SM CLR 26/M06 A2996 RMK A01,M
TMT,2025-06-04 20:50,-117.1971,39.4643,1749.34,71.80,25.50,17.61,330.00,10.00,0.00,30.03,M,10.00,14.00,CLR,M,M,M,M,M,M,M,M,M,M,M,M,M,M,71.80,KTMT 042050Z AUTO 33010G14KT 10SM CLR 22/M04 A3003 RMK AO2 T02211036,M
P68,2025-06-04 20:53,-116.0056,39.6014,1993.00,70.00,24.00,17.58,70.00,11.00,0.00,30.01,1010.80,M,18.00,M,M,M,M,M,M,M,M,M,M,M,M,M,M,M,70.00,KP68 042053Z AUTO 07011G18KT 21/M04 A3001 RMK AO1 SLP108 T02111044 58017,M
DRA,2025-06-04 20:53,-116.0278,36.6206,1009.00,88.00,48.00,25.23,230.00,11.00,0.00,29.85,1005.90,10.00,20.00,CLR,M,M,M,M,M,M,M,M,M,M,M,M,M,M,85.03,KDRA 042053Z AUTO 23011G20KT 10SM CLR 31/09 A2985 RMK AO2 SLP059 T03110089 58016,M
ELY,2025-06-04 20:53,-114.8453,39.2950,1909.00,72.00,21.00,14.48,M,6.00,0.00,30.00,1007.10,10.00,16.00,CLR,M,M,M,M,M,M,M,M,M,M,M,M,M,M,72.00,KELY 042053Z AUTO VRB06G16KT 10SM CLR 22/M06 A3000 RMK AO2 SLP071 T02221061 56018,M
VGT,2025-06-04 20:53,-115.1933,36.2111,667.00,90.00,45.00,21.15,70.00,4.00,0.00,29.78,1007.60,10.00,M,CLR,M,M,M,M,M,M,M,M,M,M,M,M,M,M,86.46,KVGT 042053Z 07004KT 10SM CLR 32/07 A2978 RMK AO2 SLP076 T03220072 58020,M
LOL,2025-06-04 20:53,-118.5701,40.0684,1192.43,78.00,24.00,13.45,90.00,7.00,0.00,29.96,1011.30,10.00,16.00,CLR,M,M,M,M,M,M,M,M,M,M,M,M,M,M,78.00,KLOL 042053Z AUTO 09007G16KT 10SM CLR 26/M04 A2996 RMK AO2 SLP113 T02561044 58020,M
BVU,2025-06-04 20:55,-114.8611,35.9475,671.00,89.60,44.60,21.10,M,5.00,0.00,29.78,M,10.00,14.00,CLR,M,M,M,M,M,M,M,M,M,M,M,M,M,M,86.07,KBVU 042055Z AUTO VRB05G14KT 10SM CLR 32/07 A2978 RMK AO2,M
RNO,2025-06-04 20:55,-119.7711,39.4839,1341.00,77.00,24.00,13.90,M,3.00,0.00,29.97,1009.70,10.00,M,FEW,M,M,M,9000.00,M,M,M,M,M,M,M,M,M,M,77.00,KRNO 042055Z VRB03KT 10SM FEW090 25/M04 A2997 RMK AO2 SLP097 T02501044 58018,M
BAM,2025-06-04 20:55,-116.8743,40.5990,1382.36,73.40,26.60,17.46,330.00,9.00,0.00,30.02,M,10.00,M,CLR,M,M,M,M,M,M,M,M,M,M,M,M,M,M,73.40,KBAM 042055Z AUTO 33009KT 10SM CLR 23/M03 A3002 RMK AO1,M
CXP,2025-06-04 20:55,-119.7326,39.1923,1431.00,77.00,24.80,14.37,M,5.00,0.00,29.99,M,10.00,10.00,CLR,M,M,M,M,M,M,M,M,M,M,M,M,M,M,77.00,KCXP 042055Z AUTO VRB05G10KT 10SM CLR 25/M04 A2999 RMK AO2,M
RTS,2025-06-04 20:55,-119.8764,39.6682,1539.00,75.20,21.20,13.11,90.00,8.00,0.00,30.02,M,10.00,M,CLR,M,M,M,M,M,M,M,M,M,M,M,M,M,M,75.20,KRTS 042055Z AUTO 09008KT 10SM CLR 24/M06 A3002 RMK AO2,M
HTH,2025-06-04 20:55,-118.6315,38.5448,1282.89,78.80,21.20,11.64,310.00,13.00,0.00,29.95,M,10.00,M,CLR,M,M,M,M,M,M,M,M,M,M,M,M,M,M,78.80,KHTH 042055Z AUTO 31013KT 10SM CLR 26/M06 A2995 RMK A01,M
INS,2025-06-04 20:55,-115.6733,36.5872,955.00,88.30,33.00,13.96,70.00,5.00,0.00,29.82,1004.90,10.00,M,CLR,M,M,M,M,M,M,M,M,M,M,M,M,M,M,84.50,KINS 042055Z AUTO 07005KT 10SM CLR 31/01 A2982 RMK AO2 LTG DSNT S SLP049 T03130006 57017 $,M
LSV,2025-06-04 20:55,-115.0343,36.2362,570.00,92.50,44.20,18.98,210.00,8.00,0.00,29.73,1003.80,10.00,M,FEW,SCT,M,M,10000.00,13000.00,M,M,M,M,M,M,M,M,M,88.66,KLSV 042055Z 21008KT 10SM FEW100 SCT130 34/07 A2973 RMK AO2A LTG DSNT SW SLP038 T03360068 57020 $,M
EKO,2025-06-04 20:56,-115.7860,40.8242,1367.00,73.00,26.00,17.27,250.00,13.00,0.00,29.99,1012.10,10.00,25.00,CLR,M,M,M,M,M,M,M,M,M,M,M,M,M,M,73.00,KEKO 042056Z AUTO 25013G25KT 190V300 10SM CLR 23/M03 A2999 RMK AO2 SLP121 T02281033 58018,M
WMC,2025-06-04 20:56,-117.8072,40.9019,1315.00,73.00,27.00,18.00,M,4.00,0.00,29.99,1012.40,10.00,M,CLR,M,M,M,M,M,M,M,M,M,M,M,M,M,M,73.00,KWMC 042056Z AUTO VRB04KT 10SM CLR 23/M03 A2999 RMK AO2 SLP124 T02281028 58018 TSNO,M
HND,2025-06-04 20:56,-115.1344,35.9729,742.79,90.00,49.00,24.60,M,3.00,0.00,29.82,1008.60,10.00,M,CLR,M,M,M,M,M,M,M,M,M,M,M,M,M,M,86.92,KHND 042056Z VRB03KT 10SM CLR 32/09 A2982 RMK AO2 LTG DSNT W SLP086 T03220094 57019 $,M
LAS,2025-06-04 20:56,-115.1634,36.0719,663.00,90.00,46.00,21.97,190.00,3.00,0.00,29.80,1006.40,10.00,M,FEW,FEW,M,M,10000.00,25000.00,M,M,M,M,M,M,M,M,M,86.56,KLAS 042056Z 19003KT 10SM FEW100 FEW250 32/08 A2980 RMK AO2 LTG DSNT W SLP064 CB DSNT SW-NW T03220078 58019 $,M
TPH,2025-06-04 20:56,-117.0904,38.0505,1654.00,79.00,27.00,14.74,M,5.00,0.00,29.98,1007.90,10.00,M,CLR,M,M,M,M,M,M,M,M,M,M,M,M,M,M,79.00,KTPH 042056Z AUTO VRB05KT 10SM CLR 26/M03 A2998 RMK AO2 SLP079 T02611028 58012 $,M
NFL,2025-06-04 20:57,-118.7010,39.4166,1199.00,78.00,26.00,14.62,M,5.00,0.00,29.96,1011.70,10.00,M,FEW,M,M,M,25000.00,M,M,M,M,M,M,M,M,M,M,78.00,KNFL 042057Z VRB05KT 10SM FEW250 26/M03 A2996 RMK AO2 SLP117 T02561033 58018,M
CXP,2025-06-04 21:10,-119.7326,39.1923,1431.00,77.00,24.80,14.37,M,3.00,0.00,29.98,M,10.00,M,CLR,M,M,M,M,M,M,M,M,M,M,M,M,M,M,77.00,KCXP 042110Z AUTO VRB03KT 10SM CLR 25/M04 A2998 RMK AO2,M
TMT,2025-06-04 21:10,-117.1971,39.4643,1749.34,72.00,25.30,17.35,0.00,0.00,0.00,30.03,M,10.00,M,CLR,M,M,M,M,M,M,M,M,M,M,M,M,M,M,72.00,KTMT 042110Z AUTO 00000KT 10SM CLR 22/M04 A3003 RMK AO2 T02221037,M
BVU,2025-06-04 21:15,-114.8611,35.9475,671.00,91.40,44.60,19.94,160.00,10.00,0.00,29.77,M,10.00,M,CLR,M,M,M,M,M,M,M,M,M,M,M,M,M,M,87.68,KBVU 042115Z AUTO 16010KT 10SM CLR 33/07 A2977 RMK AO2,M
BAM,2025-06-04 21:15,-116.8743,40.5990,1382.36,73.40,28.40,18.81,320.00,5.00,0.00,30.01,M,10.00,M,CLR,M,M,M,M,M,M,M,M,M,M,M,M,M,M,73.40,KBAM 042115Z AUTO 32005KT 10SM CLR 23/M02 A3001 RMK AO1,M
RTS,2025-06-04 21:15,-119.8764,39.6682,1539.00,75.20,21.20,13.11,M,4.00,0.00,30.01,M,10.00,11.00,CLR,M,M,M,M,M,M,M,M,M,M,M,M,M,M,75.20,KRTS 042115Z AUTO VRB04G11KT 10SM CLR 24/M06 A3001 RMK AO2,M
HTH,2025-06-04 21:15,-118.6315,38.5448,1282.89,78.80,21.20,11.64,330.00,11.00,0.00,29.95,M,10.00,17.00,CLR,M,M,M,M,M,M,M,M,M,M,M,M,M,M,78.80,KHTH 042115Z AUTO 33011G17KT 10SM CLR 26/M06 A2995 RMK A01,M
TMT,2025-06-04 21:30,-117.1971,39.4643,1749.34,72.30,24.60,16.68,220.00,8.00,0.00,30.02,M,10.00,M,CLR,M,M,M,M,M,M,M,M,M,M,M,M,M,M,72.30,KTMT 042130Z AUTO 22008KT 10SM CLR 22/M04 A3002 RMK AO2 T02241041,M
BVU,2025-06-04 21:35,-114.8611,35.9475,671.00,91.40,44.60,19.94,150.00,4.00,0.00,29.77,M,7.00,13.00,CLR,M,M,M,M,M,M,M,M,M,M,M,M,M,M,87.68,KBVU 042135Z AUTO 15004G13KT 7SM CLR 33/07 A2977 RMK AO2,M
CXP,2025-06-04 21:35,-119.7326,39.1923,1431.00,78.80,24.80,13.55,0.00,0.00,0.00,29.97,M,10.00,11.00,CLR,M,M,M,M,M,M,M,M,M,M,M,M,M,M,78.80,KCXP 042135Z AUTO 00000G11KT 10SM CLR 26/M04 A2997 RMK AO2,M
RTS,2025-06-04 21:35,-119.8764,39.6682,1539.00,77.00,19.40,11.44,360.00,10.00,0.00,30.00,M,10.00,M,CLR,M,M,M,M,M,M,M,M,M,M,M,M,M,M,77.00,KRTS 042135Z AUTO 36010KT 10SM CLR 25/M07 A3000 RMK AO2,M
HTH,2025-06-04 21:35,-118.6315,38.5448,1282.89,78.80,23.00,12.56,320.00,12.00,0.00,29.94,M,10.00,18.00,CLR,M,M,M,M,M,M,M,M,M,M,M,M,M,M,78.80,KHTH 042135Z AUTO 32012G18KT 10SM CLR 26/M05 A2994 RMK A01,M
BAM,2025-06-04 21:35,-116.8743,40.5990,1382.36,73.40,28.40,18.81,40.00,3.00,0.00,30.01,M,10.00,16.00,CLR,M,M,M,M,M,M,M,M,M,M,M,M,M,M,73.40,KBAM 042135Z AUTO 04003G16KT 10SM CLR 23/M02 A3001 RMK AO1,M
MEV,2025-06-04 21:45,-119.7500,38.9963,1441.42,78.80,24.80,13.55,310.00,8.00,0.00,29.95,M,10.00,14.00,CLR,M,M,M,M,M,M,M,M,M,M,M,M,M,M,78.80,KMEV 042145Z AUTO 31008G14KT 10SM CLR 26/M04 A2995 RMK AO2,M
RTS,2025-06-04 21:45,-119.8764,39.6682,1539.00,77.00,21.20,12.35,M,5.00,0.00,30.00,M,10.00,11.00,CLR,M,M,M,M,M,M,M,M,M,M,M,M,M,M,77.00,KRTS 042145Z AUTO VRB05G11KT 10SM CLR 25/M06 A3000 RMK AO2,M
CXP,2025-06-04 21:50,-119.7326,39.1923,1431.00,80.60,24.80,12.77,0.00,0.00,0.00,29.96,M,10.00,M,CLR,M,M,M,M,M,M,M,M,M,M,M,M,M,M,78.94,KCXP 042150Z AUTO 00000KT 10SM CLR 27/M04 A2996 RMK AO2,M
TMT,2025-06-04 21:50,-117.1971,39.4643,1749.34,72.30,24.60,16.68,0.00,0.00,0.00,30.02,M,10.00,M,CLR,M,M,M,M,M,M,M,M,M,M,M,M,M,M,72.30,KTMT 042150Z AUTO 00000KT 10SM CLR 22/M04 A3002 RMK AO2 T02241041,M
LOL,2025-06-04 21:53,-118.5701,40.0684,1192.43,79.00,24.00,13.02,60.00,9.00,0.00,29.93,1010.50,10.00,15.00,CLR,M,M,M,M,M,M,M,M,M,M,M,M,M,M,79.00,KLOL 042153Z AUTO 06009G15KT 010V080 10SM CLR 26/M04 A2993 RMK AO2 SLP105 T02611044,M
P68,2025-06-04 21:53,-116.0056,39.6014,1993.00,72.00,23.00,15.75,M,5.00,0.00,30.00,1010.40,M,15.00,M,M,M,M,M,M,M,M,M,M,M,M,M,M,M,72.00,KP68 042153Z AUTO VRB05G15KT 22/M05 A3000 RMK AO1 SLP104 T02221050,M
DRA,2025-06-04 21:53,-116.0278,36.6206,1009.00,88.00,45.00,22.53,220.00,11.00,0.00,29.82,1005.10,10.00,18.00,CLR,M,M,M,M,M,M,M,M,M,M,M,M,M,M,84.73,KDRA 042153Z AUTO 22011G18KT 10SM CLR 31/07 A2982 RMK AO2 SLP051 T03110072,M
ELY,2025-06-04 21:53,-114.8453,39.2950,1909.00,75.00,20.00,12.55,290.00,14.00,0.00,29.98,1006.30,10.00,23.00,CLR,M,M,M,M,M,M,M,M,M,M,M,M,M,M,75.00,KELY 042153Z AUTO 29014G23KT 10SM CLR 24/M07 A2998 RMK AO2 SLP063 T02391067,M
VGT,2025-06-04 21:53,-115.1933,36.2111,667.00,92.00,45.00,19.88,M,M,0.00,29.76,1006.80,10.00,M,CLR,M,M,M,M,M,M,M,M,M,M,M,M,M,M,88.28,KVGT 042153Z 10SM CLR 33/07 A2976 RMK AO2 SLP068 T03330072,M
BVU,2025-06-04 21:55,-114.8611,35.9475,671.00,91.40,44.60,19.94,M,4.00,0.00,29.76,M,10.00,M,CLR,M,M,M,M,M,M,M,M,M,M,M,M,M,M,87.68,KBVU 042155Z AUTO VRB04KT 10SM CLR 33/07 A2976 RMK AO2,M
RNO,2025-06-04 21:55,-119.7711,39.4839,1341.00,81.00,25.00,12.71,40.00,6.00,0.00,29.95,1008.90,10.00,15.00,FEW,M,M,M,9000.00,M,M,M,M,M,M,M,M,M,M,78.89,KRNO 042155Z 04006G15KT 10SM FEW090 27/M04 A2995 RMK AO2 SLP089 T02721039,M
BAM,2025-06-04 21:55,-116.8743,40.5990,1382.36,73.40,30.20,20.24,0.00,0.00,0.00,30.00,M,10.00,M,CLR,M,M,M,M,M,M,M,M,M,M,M,M,M,M,73.40,KBAM 042155Z AUTO 00000KT 10SM CLR 23/M01 A3000 RMK AO1,M
HTH,2025-06-04 21:55,-118.6315,38.5448,1282.89,80.60,23.00,11.84,330.00,7.00,0.00,29.93,M,10.00,17.00,CLR,M,M,M,M,M,M,M,M,M,M,M,M,M,M,78.80,KHTH 042155Z AUTO 33007G17KT 10SM CLR 27/M05 A2993 RMK A01,M
INS,2025-06-04 21:55,-115.6733,36.5872,955.00,89.20,37.20,16.04,90.00,8.00,0.00,29.80,1004.50,10.00,M,FEW,SCT,M,M,10000.00,15000.00,M,M,M,M,M,M,M,M,M,85.33,KINS 042155Z AUTO 09008KT 10SM FEW100 SCT150 32/03 A2980 RMK AO2 LTG DSNT S SLP045 T03180029 $,M
LSV,2025-06-04 21:55,-115.0343,36.2362,570.00,93.00,41.70,16.98,310.00,4.00,0.00,29.71,1003.10,10.00,M,BKN,M,M,M,15000.00,M,M,M,M,M,M,M,M,M,M,88.91,KLSV 042155Z COR 31004KT 10SM BKN150 34/05 A2971 RMK AO2A SLP031 T03390054 $ COR 2210,M
HND,2025-06-04 21:56,-115.1344,35.9729,742.79,91.00,46.00,21.30,M,4.00,0.00,29.80,1008.00,10.00,M,BKN,M,M,M,10000.00,M,M,M,M,M,M,M,M,M,M,87.46,KHND 042156Z VRB04KT 10SM BKN100 33/08 A2980 RMK AO2 SLP080 T03280078 $,M
EKO,2025-06-04 21:56,-115.7860,40.8242,1367.00,72.00,25.00,17.13,0.00,0.00,0.00,29.98,1011.70,10.00,M,CLR,M,M,M,M,M,M,M,M,M,M,M,M,M,M,72.00,KEKO 042156Z AUTO 00000KT 10SM CLR 22/M04 A2998 RMK AO2 SLP117 T02221039,M
WMC,2025-06-04 21:56,-117.8072,40.9019,1315.00,77.00,24.00,13.90,320.00,5.00,0.00,29.97,1011.30,10.00,M,CLR,M,M,M,M,M,M,M,M,M,M,M,M,M,M,77.00,KWMC 042156Z AUTO 32005KT 10SM CLR 25/M04 A2997 RMK AO2 SLP113 T02501044 TSNO,M
LAS,2025-06-04 21:56,-115.1634,36.0719,663.00,92.00,45.00,19.88,0.00,0.00,0.00,29.78,1005.50,10.00,M,FEW,FEW,M,M,10000.00,25000.00,M,M,M,M,M,M,M,M,M,88.28,KLAS 042156Z 00000KT 10SM FEW100 FEW250 33/07 A2978 RMK AO2 SLP055 VIRGA SW-NW CB DSNT SW-NW AND DSNT N T03330072 $,M
TPH,2025-06-04 21:56,-117.0904,38.0505,1654.00,80.00,30.00,16.14,310.00,5.00,0.00,29.96,1007.50,10.00,15.00,CLR,M,M,M,M,M,M,M,M,M,M,M,M,M,M,78.46,KTPH 042156Z AUTO 31005G15KT 10SM CLR 27/M01 A2996 RMK AO2 SLP075 T02671011 $,M
NFL,2025-06-04 21:57,-118.7010,39.4166,1199.00,80.00,25.00,13.13,20.00,5.00,0.00,29.93,1010.90,10.00,14.00,FEW,M,M,M,25000.00,M,M,M,M,M,M,M,M,M,M,78.32,KNFL 042157Z 02005G14KT 10SM FEW250 27/M04 A2993 RMK AO2 SLP109 T02671039,M
CXP,2025-06-04 22:10,-119.7326,39.1923,1431.00,82.40,26.60,12.98,M,4.00,0.00,29.96,M,10.00,11.00,CLR,M,M,M,M,M,M,M,M,M,M,M,M,M,M,79.92,KCXP 042210Z AUTO VRB04G11KT 10SM CLR 28/M03 A2996 RMK AO2,M
TMT,2025-06-04 22:10,-117.1971,39.4643,1749.34,73.60,25.00,16.23,10.00,5.00,0.00,30.00,M,10.00,M,CLR,M,M,M,M,M,M,M,M,M,M,M,M,M,M,73.60,KTMT 042210Z AUTO 01005KT 10SM CLR 23/M04 A3000 RMK AO2 T02311039,M
BVU,2025-06-04 22:15,-114.8611,35.9475,671.00,91.40,44.60,19.94,170.00,11.00,0.00,29.75,M,10.00,16.00,CLR,M,M,M,M,M,M,M,M,M,M,M,M,M,M,87.68,KBVU 042215Z AUTO 17011G16KT 140V200 10SM CLR 33/07 A2975 RMK AO2,M
BAM,2025-06-04 22:15,-116.8743,40.5990,1382.36,75.20,28.40,17.71,350.00,6.00,0.00,30.00,M,10.00,M,CLR,M,M,M,M,M,M,M,M,M,M,M,M,M,M,75.20,KBAM 042215Z AUTO 35006KT 10SM CLR 24/M02 A3000 RMK AO1,M
RTS,2025-06-04 22:15,-119.8764,39.6682,1539.00,77.00,23.00,13.33,230.00,5.00,0.00,29.98,M,10.00,M,CLR,M,M,M,M,M,M,M,M,M,M,M,M,M,M,77.00,KRTS 042215Z AUTO 23005KT 10SM CLR 25/M05 A2998 RMK AO2,M
MEV,2025-06-04 22:15,-119.7500,38.9963,1441.42,80.60,24.80,12.77,M,4.00,0.00,29.93,M,10.00,11.00,CLR,M,M,M,M,M,M,M,M,M,M,M,M,M,M,78.94,KMEV 042215Z AUTO VRB04G11KT 10SM CLR 27/M04 A2993 RMK AO2,M
HTH,2025-06-04 22:15,-118.6315,38.5448,1282.89,80.60,23.00,11.84,340.00,13.00,0.00,29.92,M,10.00,M,CLR,M,M,M,M,M,M,M,M,M,M,M,M,M,M,78.80,KHTH 042215Z AUTO 34013KT 10SM CLR 27/M05 A2992 RMK A01,M
RTS,2025-06-04 22:25,-119.8764,39.6682,1539.00,77.00,21.20,12.35,240.00,8.00,0.00,29.98,M,10.00,M,CLR,M,M,M,M,M,M,M,M,M,M,M,M,M,M,77.00,KRTS 042225Z AUTO 24008KT 10SM CLR 25/M06 A2998 RMK AO2,M
MEV,2025-06-04 22:25,-119.7500,38.9963,1441.42,80.60,24.80,12.77,280.00,9.00,0.00,29.93,M,10.00,14.00,CLR,M,M,M,M,M,M,M,M,M,M,M,M,M,M,78.94,KMEV 042225Z AUTO 28009G14KT 10SM CLR 27/M04 A2993 RMK AO2,M
CXP,2025-06-04 22:30,-119.7326,39.1923,1431.00,78.80,26.60,14.60,M,4.00,0.00,29.95,M,10.00,10.00,CLR,M,M,M,M,M,M,M,M,M,M,M,M,M,M,78.80,KCXP 042230Z AUTO VRB04G10KT 10SM CLR 26/M03 A2995 RMK AO2,M
TMT,2025-06-04 22:30,-117.1971,39.4643,1749.34,73.80,24.40,15.73,350.00,7.00,0.00,30.00,M,10.00,16.00,CLR,M,M,M,M,M,M,M,M,M,M,M,M,M,M,73.80,KTMT 042230Z AUTO 35007G16KT 10SM CLR 23/M04 A3000 RMK AO2 T02321042,M
BVU,2025-06-04 22:35,-114.8611,35.9475,671.00,93.20,44.60,18.86,140.00,12.00,0.00,29.75,M,10.00,22.00,CLR,M,M,M,M,M,M,M,M,M,M,M,M,M,M,89.35,KBVU 042235Z AUTO 14012G22KT 10SM CLR 34/07 A2975 RMK AO2,M
BAM,2025-06-04 22:35,-116.8743,40.5990,1382.36,75.20,28.40,17.71,10.00,4.00,0.00,29.99,M,10.00,M,CLR,M,M,M,M,M,M,M,M,M,M,M,M,M,M,75.20,KBAM 042235Z AUTO 01004KT 10SM CLR 24/M02 A2999 RMK AO1,M
HTH,2025-06-04 22:35,-118.6315,38.5448,1282.89,80.60,23.00,11.84,320.00,9.00,0.00,29.92,M,10.00,17.00,CLR,M,M,M,M,M,M,M,M,M,M,M,M,M,M,78.80,KHTH 042235Z AUTO 32009G17KT 10SM CLR 27/M05 A2992 RMK A01,M
INS,2025-06-04 22:41,-115.6733,36.5872,955.00,86.00,41.00,20.59,90.00,13.00,0.00,29.79,1004.40,10.00,19.00,BKN,OVC,M,M,10000.00,14000.00,M,M,VCTS,M,M,M,M,M,M,82.86,KINS 042241Z AUTO 09013G19KT 10SM VCTS BKN100 OVC140 30/05 A2979 RMK AO2 WSHFT 33 SLP044 $,M
CXP,2025-06-04 22:50,-119.7326,39.1923,1431.00,80.60,26.60,13.76,310.00,5.00,0.00,29.94,M,10.00,10.00,CLR,M,M,M,M,M,M,M,M,M,M,M,M,M,M,78.68,KCXP 042250Z AUTO 31005G10KT 10SM CLR 27/M03 A2994 RMK AO2 LTG DSNT S,M
TMT,2025-06-04 22:50,-117.1971,39.4643,1749.34,74.70,24.00,15.01,340.00,7.00,0.00,29.99,M,10.00,17.00,CLR,M,M,M,M,M,M,M,M,M,M,M,M,M,M,74.70,KTMT 042250Z AUTO 34007G17KT 10SM CLR 24/M04 A2999 RMK AO2 T02371045,M
P68,2025-06-04 22:53,-116.0056,39.6014,1993.00,74.00,18.00,11.91,M,5.00,0.00,29.98,1009.10,M,14.00,M,M,M,M,M,M,M,M,M,M,M,M,M,M,M,74.00,KP68 042253Z AUTO VRB05G14KT 23/M08 A2998 RMK AO1 SLP091 T02331078,M
DRA,2025-06-04 22:53,-116.0278,36.6206,1009.00,89.00,43.00,20.22,200.00,11.00,0.00,29.81,1004.50,10.00,19.00,CLR,M,M,M,M,M,M,M,M,M,M,M,M,M,M,85.43,KDRA 042253Z AUTO 20011G19KT 10SM CLR 32/06 A2981 RMK AO2 SLP045 T03170061,M
ELY,2025-06-04 22:53,-114.8453,39.2950,1909.00,75.00,19.00,12.02,310.00,13.00,0.00,29.97,1006.30,10.00,21.00,CLR,M,M,M,M,M,M,M,M,M,M,M,M,M,M,75.00,KELY 042253Z AUTO 31013G21KT 10SM CLR 24/M07 A2997 RMK AO2 SLP063 T02391072,M
VGT,2025-06-04 22:53,-115.1933,36.2111,667.00,92.00,41.00,17.05,270.00,4.00,0.00,29.74,1006.20,10.00,M,CLR,M,M,M,M,M,M,M,M,M,M,M,M,M,M,87.94,KVGT 042253Z 27004KT 10SM CLR 33/05 A2974 RMK AO2 SLP062 T03330050,M
LOL,2025-06-04 22:53,-118.5701,40.0684,1192.43,80.00,23.00,12.08,40.00,8.00,0.00,29.91,1009.70,10.00,16.00,CLR,M,M,M,M,M,M,M,M,M,M,M,M,M,M,78.19,KLOL 042253Z AUTO 04008G16KT 010V070 10SM CLR 27/M05 A2991 RMK AO2 SLP097 T02671050,M
BVU,2025-06-04 22:55,-114.8611,35.9475,671.00,91.40,46.40,21.35,180.00,13.00,0.00,29.74,M,10.00,20.00,CLR,M,M,M,M,M,M,M,M,M,M,M,M,M,M,87.87,KBVU 042255Z AUTO 18013G20KT 150V210 10SM CLR 33/08 A2974 RMK AO2 LTG DSNT E AND SW,M
BAM,2025-06-04 22:55,-116.8743,40.5990,1382.36,73.40,26.60,17.46,0.00,0.00,0.00,29.98,M,10.00,M,CLR,M,M,M,M,M,M,M,M,M,M,M,M,M,M,73.40,KBAM 042255Z AUTO 00000KT 10SM CLR 23/M03 A2998 RMK AO1,M
RNO,2025-06-04 22:55,-119.7711,39.4839,1341.00,82.00,22.00,10.85,350.00,6.00,0.00,29.93,1008.10,10.00,15.00,FEW,M,M,M,9000.00,M,M,M,M,M,M,M,M,M,M,79.34,KRNO 042255Z 35006G15KT 10SM FEW090 28/M06 A2993 RMK AO2 SLP081 CB DSNT S T02781056,M
RTS,2025-06-04 22:55,-119.8764,39.6682,1539.00,78.80,21.20,11.64,350.00,9.00,0.00,29.97,M,10.00,M,CLR,M,M,M,M,M,M,M,M,M,M,M,M,M,M,78.80,KRTS 042255Z AUTO 35009KT 10SM CLR 26/M06 A2997 RMK AO2,M
MEV,2025-06-04 22:55,-119.7500,38.9963,1441.42,78.80,26.60,14.60,0.00,0.00,0.00,29.93,M,10.00,M,CLR,M,M,M,M,M,M,M,M,M,M,M,M,M,M,78.80,KMEV 042255Z AUTO 00000KT 10SM CLR 26/M03 A2993 RMK AO2 LTG DSNT S,M
HTH,2025-06-04 22:55,-118.6315,38.5448,1282.89,80.60,23.00,11.84,320.00,10.00,0.00,29.92,M,10.00,16.00,CLR,M,M,M,M,M,M,M,M,M,M,M,M,M,M,78.80,KHTH 042255Z AUTO 32010G16KT 10SM CLR 27/M05 A2992 RMK A01,M
INS,2025-06-04 22:55,-115.6733,36.5872,955.00,86.40,41.70,20.88,190.00,15.00,0.00,29.79,1004.10,10.00,25.00,BKN,OVC,M,M,10000.00,13000.00,M,M,VCTS,M,M,M,M,M,M,83.21,KINS 042255Z AUTO 19015G25KT 10SM VCTS BKN100 OVC130 30/05 A2979 RMK AO2 SLP041 T03020054 $,M
LSV,2025-06-04 22:55,-115.0343,36.2362,570.00,93.60,40.60,15.97,250.00,8.00,0.00,29.68,1002.10,10.00,M,BKN,M,M,M,16000.00,M,M,M,M,M,M,M,M,M,M,89.38,KLSV 042255Z 25008KT 10SM BKN160 34/05 A2968 RMK AO2A LTG DSNT W SLP021 T03420048 $,M
EKO,2025-06-04 22:56,-115.7860,40.8242,1367.00,75.00,24.00,14.86,230.00,8.00,0.00,29.96,1011.00,10.00,20.00,CLR,M,M,M,M,M,M,M,M,M,M,M,26.00,230.00,2025-06-04 22:38,75.00,KEKO 042256Z AUTO 23008G20KT 10SM CLR 24/M04 A2996 RMK AO2 PK WND 23026/2238 SLP110 T02391044,M
LAS,2025-06-04 22:56,-115.1634,36.0719,663.00,92.00,43.00,18.41,M,3.00,0.00,29.75,1004.90,10.00,M,FEW,FEW,M,M,10000.00,25000.00,M,M,M,M,M,M,M,M,M,88.09,KLAS 042256Z VRB03KT 10SM FEW100 FEW250 33/06 A2975 RMK AO2 LTG DSNT S SLP049 VIRGA NW CB DSNT S AND NW T03330061 $,M
WMC,2025-06-04 22:56,-117.8072,40.9019,1315.00,77.00,20.00,11.74,300.00,9.00,0.00,29.96,1010.60,10.00,15.00,CLR,M,M,M,M,M,M,M,M,M,M,M,M,M,M,77.00,KWMC 042256Z AUTO 30009G15KT 10SM CLR 25/M07 A2996 RMK AO2 SLP106 T02501067 TSNO,M
HND,2025-06-04 22:56,-115.1344,35.9729,742.79,93.00,46.00,20.01,290.00,7.00,0.00,29.78,1007.00,10.00,M,CLR,M,M,M,M,M,M,M,M,M,M,M,M,M,M,89.32,KHND 042256Z 29007KT 10SM CLR 34/08 A2978 RMK AO2 LTG DSNT S SLP070 T03390078 $,M
TPH,2025-06-04 22:56,-117.0904,38.0505,1654.00,81.00,29.00,15.00,290.00,13.00,0.00,29.94,1006.80,10.00,19.00,M,M,M,M,M,M,M,M,M,M,M,M,M,M,M,79.00,KTPH 042256Z AUTO 29013G19KT 10SM 27/M02 A2994 RMK AO2 SLP068 T02721017 $,M
NFL,2025-06-04 22:57,-118.7010,39.4166,1199.00,83.00,24.00,11.43,M,5.00,0.00,29.91,1010.30,10.00,M,FEW,FEW,M,M,8000.00,25000.00,M,M,M,M,M,M,M,M,M,80.13,KNFL 042257Z VRB05KT 10SM FEW080 FEW250 28/M04 A2991 RMK AO2 SLP103 T02831044 $,M
MEV,2025-06-04 23:05,-119.7500,38.9963,1441.42,80.60,26.60,13.76,0.00,0.00,0.00,29.92,M,10.00,M,CLR,M,M,M,M,M,M,M,M,M,M,M,M,M,M,78.68,KMEV 042305Z AUTO 00000KT 10SM CLR 27/M03 A2992 RMK AO2 LTG DSNT S,M
TMT,2025-06-04 23:10,-117.1971,39.4643,1749.34,73.80,23.00,14.83,340.00,8.00,0.00,29.99,M,10.00,18.00,CLR,M,M,M,M,M,M,M,M,M,M,M,M,M,M,73.80,KTMT 042310Z AUTO 34008G18KT 10SM CLR 23/M05 A2999 RMK AO2 T02321050,M
BVU,2025-06-04 23:15,-114.8611,35.9475,671.00,91.40,46.40,21.35,150.00,16.00,0.00,29.74,M,10.00,21.00,CLR,M,M,M,M,M,M,M,M,M,M,M,M,M,M,87.87,KBVU 042315Z AUTO 15016G21KT 10SM CLR 33/08 A2974 RMK AO2,M
BAM,2025-06-04 23:15,-116.8743,40.5990,1382.36,75.20,28.40,17.71,250.00,4.00,0.00,29.97,M,10.00,M,CLR,M,M,M,M,M,M,M,M,M,M,M,M,M,M,75.20,KBAM 042315Z AUTO 25004KT 10SM CLR 24/M02 A2997 RMK AO1,M
CXP,2025-06-04 23:15,-119.7326,39.1923,1431.00,80.60,26.60,13.76,320.00,6.00,0.00,29.94,M,10.00,11.00,CLR,M,M,M,M,M,M,M,M,M,M,M,M,M,M,78.68,KCXP 042315Z AUTO 32006G11KT 10SM CLR 27/M03 A2994 RMK AO2,M
RTS,2025-06-04 23:15,-119.8764,39.6682,1539.00,78.80,21.20,11.64,360.00,11.00,0.00,29.97,M,10.00,M,CLR,M,M,M,M,M,M,M,M,M,M,M,M,M,M,78.80,KRTS 042315Z AUTO 36011KT 10SM CLR 26/M06 A2997 RMK AO2,M
HTH,2025-06-04 23:15,-118.6315,38.5448,1282.89,82.40,23.00,11.17,330.00,8.00,0.00,29.91,M,10.00,15.00,CLR,M,M,M,M,M,M,M,M,M,M,M,M,M,M,79.67,KHTH 042315Z AUTO 33008G15KT 10SM CLR 28/M05 A2991 RMK A01,M
TMT,2025-06-04 23:30,-117.1971,39.4643,1749.34,73.60,23.00,14.93,40.00,4.00,0.00,29.99,M,10.00,20.00,CLR,M,M,M,M,M,M,M,M,M,M,M,M,M,M,73.60,KTMT 042330Z AUTO 04004G20KT 10SM CLR 23/M05 A2999 RMK AO2 T02311049,M
BVU,2025-06-04 23:35,-114.8611,35.9475,671.00,91.40,46.40,21.35,160.00,15.00,0.00,29.73,M,10.00,21.00,CLR,M,M,M,M,M,M,M,M,M,M,M,M,M,M,87.87,KBVU 042335Z AUTO 16015G21KT 10SM CLR 33/08 A2973 RMK AO2,M
BAM,2025-06-04 23:35,-116.8743,40.5990,1382.36,77.00,28.40,16.68,30.00,4.00,0.00,29.97,M,10.00,M,CLR,M,M,M,M,M,M,M,M,M,M,M,M,M,M,77.00,KBAM 042335Z AUTO 03004KT 10SM CLR 25/M02 A2997 RMK AO1,M
CXP,2025-06-04 23:35,-119.7326,39.1923,1431.00,80.60,26.60,13.76,290.00,8.00,0.00,29.93,M,10.00,M,CLR,M,M,M,M,M,M,M,M,M,M,M,M,M,M,78.68,KCXP 042335Z AUTO 29008KT 10SM CLR 27/M03 A2993 RMK AO2,M
RTS,2025-06-04 23:35,-119.8764,39.6682,1539.00,77.00,21.20,12.35,M,6.00,0.00,29.96,M,10.00,14.00,CLR,M,M,M,M,M,M,M,M,M,M,M,M,M,M,77.00,KRTS 042335Z AUTO VRB06G14KT 10SM CLR 25/M06 A2996 RMK AO2,M
MEV,2025-06-04 23:35,-119.7500,38.9963,1441.42,80.60,26.60,13.76,330.00,9.00,0.00,29.91,M,10.00,M,CLR,M,M,M,M,M,M,M,M,M,M,M,M,M,M,78.68,KMEV 042335Z AUTO 33009KT 10SM CLR 27/M03 A2991 RMK AO2,M
HTH,2025-06-04 23:35,-118.6315,38.5448,1282.89,82.40,23.00,11.17,310.00,11.00,0.00,29.91,M,10.00,M,CLR,M,M,M,M,M,M,M,M,M,M,M,M,M,M,79.67,KHTH 042335Z AUTO 31011KT 10SM CLR 28/M05 A2991 RMK A01,M
TMT,2025-06-04 23:50,-117.1971,39.4643,1749.34,74.70,23.00,14.39,320.00,10.00,0.00,29.99,M,10.00,17.00,CLR,M,M,M,M,M,M,M,M,M,M,M,M,M,M,74.70,KTMT 042350Z AUTO 32010G17KT 310V070 10SM CLR 24/M05 A2999 RMK AO2 T02371050,M
P68,2025-06-04 23:53,-116.0056,39.6014,1993.00,73.00,22.00,14.60,10.00,16.00,0.00,29.96,1008.90,M,23.00,M,M,M,M,M,M,M,M,M,M,M,M,28.00,240.00,2025-06-04 22:56,73.00,KP68 042353Z AUTO 01016G23KT 23/M06 A2996 RMK AO1 PK WND 24028/2256 SLP089 T02281056 10244 20172 58015,M
DRA,2025-06-04 23:53,-116.0278,36.6206,1009.00,90.00,42.00,18.86,250.00,10.00,0.00,29.79,1003.90,10.00,22.00,CLR,M,M,M,M,M,M,M,M,M,M,M,M,M,M,86.23,KDRA 042353Z AUTO 25010G22KT 10SM CLR 32/06 A2979 RMK AO2 SLP039 T03220056 10322 20278 56018,M
ELY,2025-06-04 23:53,-114.8453,39.2950,1909.00,75.00,20.00,12.55,330.00,7.00,0.00,29.97,1006.40,10.00,19.00,SCT,M,M,M,12000.00,M,M,M,M,M,M,M,M,M,M,75.00,KELY 042353Z AUTO 33007G19KT 10SM SCT120 24/M07 A2997 RMK AO2 SLP064 T02391067 10244 20172 56010,M
VGT,2025-06-04 23:53,-115.1933,36.2111,667.00,94.00,39.00,14.83,310.00,17.00,0.00,29.74,1006.00,10.00,25.00,CLR,M,M,M,M,M,M,M,M,M,M,M,M,M,M,89.64,KVGT 042353Z 31017G25KT 10SM CLR 34/04 A2974 RMK AO2 SLP060 T03440039 10350 20289 56014,M
LOL,2025-06-04 23:53,-118.5701,40.0684,1192.43,81.00,23.00,11.69,50.00,11.00,0.00,29.89,1009.10,10.00,20.00,CLR,M,M,M,M,M,M,M,M,M,M,M,M,M,M,78.75,KLOL 042353Z AUTO 05011G20KT 10SM CLR 27/M05 A2989 RMK AO2 SLP091 T02721050 10272 20217 56020,M
BAM,2025-06-04 23:55,-116.8743,40.5990,1382.36,77.00,28.40,16.68,40.00,3.00,0.00,29.96,M,10.00,M,CLR,M,M,M,M,M,M,M,M,M,M,M,M,M,M,77.00,KBAM 042355Z AUTO 04003KT 10SM CLR 25/M02 A2996 RMK AO1,M
BVU,2025-06-04 23:55,-114.8611,35.9475,671.00,91.40,46.40,21.35,170.00,17.00,0.00,29.73,M,10.00,M,CLR,M,M,M,M,M,M,M,M,M,M,M,M,M,M,87.87,KBVU 042355Z AUTO 17017KT 10SM CLR 33/08 A2973 RMK AO2,M
RNO,2025-06-04 23:55,-119.7711,39.4839,1341.00,82.00,25.00,12.31,300.00,4.00,0.00,29.90,1007.60,10.00,15.00,FEW,SCT,M,M,9000.00,25000.00,M,M,M,M,M,M,M,M,M,79.54,KRNO 042355Z 30004G15KT 10SM FEW090 SCT250 28/M04 A2990 RMK AO2 SLP076 CB DSNT S T02781039 10289 20222 56020,M
CXP,2025-06-04 23:55,-119.7326,39.1923,1431.00,80.60,24.80,12.77,0.00,0.00,0.00,29.92,M,10.00,M,CLR,M,M,M,M,M,M,M,M,M,M,M,M,M,M,78.94,KCXP 042355Z AUTO 00000KT 10SM CLR 27/M04 A2992 RMK AO2,M
RTS,2025-06-04 23:55,-119.8764,39.6682,1539.00,77.00,21.20,12.35,50.00,8.00,0.00,29.96,M,10.00,13.00,CLR,M,M,M,M,M,M,M,M,M,M,M,M,M,M,77.00,KRTS 042355Z AUTO 05008G13KT 10SM CLR 25/M06 A2996 RMK AO2,M
MEV,2025-06-04 23:55,-119.7500,38.9963,1441.42,80.60,28.40,14.82,310.00,4.00,0.00,29.91,M,10.00,12.00,CLR,M,M,M,M,M,M,M,M,M,M,M,M,M,M,78.72,KMEV 042355Z AUTO 31004G12KT 10SM CLR 27/M02 A2991 RMK AO2,M
HTH,2025-06-04 23:55,-118.6315,38.5448,1282.89,80.60,23.00,11.84,M,5.00,0.00,29.91,M,10.00,13.00,CLR,M,M,M,M,M,M,M,M,M,M,M,M,M,M,78.80,KHTH 042355Z AUTO VRB05G13KT 10SM CLR 27/M05 A2991 RMK A01,M
INS,2025-06-04 23:55,-115.6733,36.5872,955.00,88.50,39.60,18.01,170.00,12.00,0.00,29.78,1003.80,10.00,M,FEW,BKN,BKN,M,9500.00,13000.00,15000.00,M,M,M,M,M,M,M,M,84.82,KINS 042355Z AUTO 17012KT 10SM FEW095 BKN130 BKN150 31/04 A2978 RMK AO2 SLP038 T03140042 10322 20278 57013 $,M
EKO,2025-06-04 23:56,-115.7860,40.8242,1367.00,75.00,22.00,13.66,290.00,12.00,0.00,29.95,1010.90,10.00,19.00,CLR,M,M,M,M,M,M,M,M,M,M,M,M,M,M,75.00,KEKO 042356Z AUTO 29012G19KT 180V350 10SM CLR 24/M06 A2995 RMK AO2 SLP109 T02391056 10239 20183 56012,M
WMC,2025-06-04 23:56,-117.8072,40.9019,1315.00,77.00,21.00,12.25,320.00,8.00,0.00,29.94,1010.40,10.00,M,CLR,M,M,M,M,M,M,M,M,M,M,M,M,M,M,77.00,KWMC 042356Z AUTO 32008KT 230V020 10SM CLR 25/M06 A2994 RMK AO2 SLP104 T02501061 10256 20194 56016 TSNO,M
HND,2025-06-04 23:56,-115.1344,35.9729,742.79,92.00,48.00,22.26,200.00,6.00,0.00,29.77,1006.90,10.00,M,OVC,M,M,M,10000.00,M,M,M,M,M,M,M,M,M,M,88.64,KHND 042356Z 20006KT 10SM OVC100 33/09 A2977 RMK AO2 LTG DSNT S SLP069 T03330089 10339 20289 56017 $,M
TPH,2025-06-04 23:56,-117.0904,38.0505,1654.00,80.00,28.00,14.87,300.00,10.00,0.00,29.93,1006.60,10.00,17.00,CLR,M,M,M,M,M,M,M,M,M,M,M,M,M,M,78.40,KTPH 042356Z AUTO 30010G17KT 10SM CLR 27/M02 A2993 RMK AO2 SLP066 T02671022 56014 $,M
LAS,2025-06-04 23:56,-115.1634,36.0719,663.00,93.00,42.00,17.18,360.00,7.00,0.00,29.75,1004.70,10.00,M,FEW,FEW,SCT,M,10000.00,15000.00,25000.00,M,M,M,M,M,M,M,M,88.93,KLAS 042356Z 36007KT 10SM FEW100TCU FEW150 SCT250 34/06 A2975 RMK AO2 SLP047 TCU E T03390056 10344 20289 56016 $,M
NFL,2025-06-04 23:57,-118.7010,39.4166,1199.00,83.00,24.00,11.43,M,5.00,0.00,29.89,1009.70,10.00,M,FEW,FEW,M,M,8000.00,25000.00,M,M,M,M,M,M,M,M,M,80.13,KNFL 042357Z VRB05KT 10SM FEW080 FEW250 28/M04 A2989 RMK AO2 SLP097 T02831044 10283 20228 56020 $,M
