station,valid,lon,lat,elevation,tmpf,dwpf,relh,drct,sknt,p01i,alti,mslp,vsby,gust,skyc1,skyc2,skyc3,skyc4,skyl1,skyl2,skyl3,skyl4,wxcodes,ice_accretion_1hr,ice_accretion_3hr,ice_accretion_6hr,peak_wind_gust,peak_wind_drct,peak_wind_time,feel,metar,snowdepth
BVU,2024-07-16 00:15,-114.8611,35.9475,671.00,104.00,41.00,11.79,200.00,9.00,0.00,29.85,M,10.00,15.00,CLR,M,M,M,M,M,M,M,M,M,M,M,M,M,M,98.97,KBVU 160015Z AUTO 20009G15KT 10SM CLR 40/05 A2985 RMK AO2,M
CXP,2024-07-16 00:15,-119.7326,39.1923,1431.00,86.00,41.00,20.54,190.00,13.00,0.00,30.21,M,10.00,22.00,CLR,M,M,M,M,M,M,M,M,M,M,M,M,M,M,82.86,KCXP 160015Z AUTO 19013G22KT 10SM CLR 30/05 A3021 RMK AO2,M
RTS,2024-07-16 00:15,-119.8764,39.6682,1539.00,78.80,41.00,25.95,250.00,23.00,0.00,30.20,M,10.00,31.00,CLR,M,M,M,M,M,M,M,M,M,M,M,M,M,M,78.80,KRTS 160015Z AUTO 25023G31KT 10SM CLR 26/05 A3020 RMK AO2,M
05U,2024-07-16 00:15,-116.0051,39.6042,1811.23,84.20,39.20,20.29,0.00,0.00,0.00,30.21,M,10.00,M,M,M,M,M,M,M,M,M,M,M,M,M,M,M,M,81.44,K05U 160015Z AUTO 00000KT 10SM 29/04 A3021 RMK A01,M
MEV,2024-07-16 00:15,-119.7500,38.9963,1441.42,77.00,48.20,36.22,180.00,18.00,0.00,30.22,M,10.00,23.00,CLR,M,M,M,M,M,M,M,M,M,M,M,M,M,M,77.00,KMEV 160015Z AUTO 18018G23KT 10SM CLR 25/09 A3022 RMK AO2,M
BAM,2024-07-16 00:15,-116.8743,40.5990,1382.36,86.00,53.60,33.01,310.00,5.00,0.00,30.15,M,10.00,M,SCT,M,M,M,12000.00,M,M,M,M,M,M,M,M,M,M,84.18,KBAM 160015Z AUTO 31005KT 10SM SCT120 30/12 A3015 RMK AO1,M
HTH,2024-07-16 00:15,-118.6315,38.5448,1282.89,93.20,32.00,11.48,320.00,11.00,0.00,30.09,M,10.00,16.00,CLR,M,M,M,M,M,M,M,M,M,M,M,M,M,M,88.31,KHTH 160015Z AUTO 32011G16KT 10SM CLR 34/00 A3009 RMK A01,M
TMT,2024-07-16 00:15,-117.1971,39.4643,1749.34,86.50,32.00,14.17,330.00,7.00,0.00,30.21,M,10.00,M,CLR,M,M,M,M,M,M,M,M,M,M,M,M,M,M,83.04,KTMT 160015Z AUTO 33007KT 10SM CLR 30/00 A3021 RMK AO2 T03030001,M
BVU,2024-07-16 00:35,-114.8611,35.9475,671.00,104.00,39.20,11.00,190.00,8.00,0.00,29.84,M,10.00,14.00,CLR,M,M,M,M,M,M,M,M,M,M,M,M,M,M,98.56,KBVU 160035Z AUTO 19008G14KT 10SM CLR 40/04 A2984 RMK AO2,M
CXP,2024-07-16 00:35,-119.7326,39.1923,1431.00,84.20,48.20,28.63,190.00,17.00,0.00,30.22,M,10.00,22.00,CLR,M,M,M,M,M,M,M,M,M,M,M,M,M,M,82.04,KCXP 160035Z AUTO 19017G22KT 10SM CLR 29/09 A3022 RMK AO2,M
RTS,2024-07-16 00:35,-119.8764,39.6682,1539.00,80.60,35.60,19.79,230.00,14.00,0.00,30.19,M,10.00,24.00,CLR,M,M,M,M,M,M,M,M,M,M,M,M,M,M,78.94,KRTS 160035Z AUTO 23014G24KT 10SM CLR 27/02 A3019 RMK AO2,M
05U,2024-07-16 00:35,-116.0051,39.6042,1811.23,87.80,37.40,16.86,0.00,0.00,0.00,30.21,M,10.00,10.00,M,M,M,M,M,M,M,M,M,M,M,M,M,M,M,84.16,K05U 160035Z AUTO 00000G10KT 10SM 31/03 A3021 RMK A01,M
MEV,2024-07-16 00:35,-119.7500,38.9963,1441.42,77.00,48.20,36.22,180.00,11.00,0.00,30.22,M,10.00,19.00,CLR,M,M,M,M,M,M,M,M,M,M,M,M,M,M,77.00,KMEV 160035Z AUTO 18011G19KT 10SM CLR 25/09 A3022 RMK AO2,M
HTH,2024-07-16 00:35,-118.6315,38.5448,1282.89,91.40,32.00,12.14,320.00,10.00,0.00,30.08,M,10.00,16.00,CLR,M,M,M,M,M,M,M,M,M,M,M,M,M,M,86.91,KHTH 160035Z AUTO 32010G16KT 10SM CLR 33/00 A3008 RMK A01,M
BAM,2024-07-16 00:35,-116.8743,40.5990,1382.36,86.00,55.40,35.25,350.00,7.00,0.00,30.15,M,10.00,M,CLR,M,M,M,M,M,M,M,M,M,M,M,M,M,M,84.54,KBAM 160035Z AUTO 35007KT 10SM CLR 30/13 A3015 RMK AO1,M
TMT,2024-07-16 00:35,-117.1971,39.4643,1749.34,86.70,32.00,14.08,340.00,5.00,0.00,30.20,M,10.00,M,CLR,M,M,M,M,M,M,M,M,M,M,M,M,M,M,83.20,KTMT 160035Z AUTO 34005KT 10SM CLR 30/00 A3020 RMK AO2 T03040001,M
05U,2024-07-16 00:50,-116.0051,39.6042,1811.23,86.00,39.20,19.15,0.00,0.00,0.00,30.21,M,10.00,11.00,M,M,M,M,M,M,M,M,M,M,M,M,M,M,M,82.79,K05U 160050Z AUTO 00000G11KT 10SM 30/04 A3021 RMK A01,M
DRA,2024-07-16 00:53,-116.0278,36.6206,1009.00,100.00,39.00,12.30,190.00,9.00,0.00,29.94,1008.30,10.00,M,CLR,M,M,M,M,M,M,M,M,M,M,M,M,M,M,95.05,KDRA 160053Z AUTO 19009KT 10SM CLR 38/04 A2994 RMK AO2 SLP083 T03780039,M
ELY,2024-07-16 00:53,-114.8453,39.2950,1909.00,77.00,45.00,32.10,M,M,0.02,30.21,1013.70,10.00,M,FEW,BKN,M,M,3400.00,11000.00,M,M,M,M,M,M,38.00,290.00,2024-07-16 00:04,77.00,KELY 160053Z AUTO 10SM FEW034 BKN110 25/07 A3021 RMK AO2 PK WND 29038/0004 RAB04E44 SLP137 P0002 T02500072 TSNO,M
VGT,2024-07-16 00:53,-115.1933,36.2111,667.00,105.00,46.00,13.86,180.00,6.00,0.00,29.84,1008.60,10.00,M,CLR,M,M,M,M,M,M,M,M,M,M,M,M,M,M,101.10,KVGT 160053Z 18006KT 10SM CLR 41/08 A2984 RMK AO2 SLP086 T04060078,M
LOL,2024-07-16 00:53,-118.5701,40.0684,1192.43,89.00,43.00,20.17,50.00,9.00,0.00,30.06,1014.30,10.00,M,CLR,M,M,M,M,M,M,M,M,M,M,M,M,M,M,85.42,KLOL 160053Z AUTO 05009KT 10SM CLR 32/06 A3006 RMK AO2 SLP143 T03170061,M
BVU,2024-07-16 00:55,-114.8611,35.9475,671.00,104.00,41.00,11.79,190.00,9.00,0.00,29.84,M,10.00,M,CLR,M,M,M,M,M,M,M,M,M,M,M,M,M,M,98.97,KBVU 160055Z AUTO 19009KT 10SM CLR 40/05 A2984 RMK AO2,M
CXP,2024-07-16 00:55,-119.7326,39.1923,1431.00,82.40,46.40,28.36,170.00,11.00,0.00,30.22,M,10.00,18.00,CLR,M,M,M,M,M,M,M,M,M,M,M,M,M,M,80.64,KCXP 160055Z AUTO 17011G18KT 10SM CLR 28/08 A3022 RMK AO2,M
INS,2024-07-16 00:55,-115.6733,36.5872,955.00,102.20,32.70,8.97,250.00,9.00,0.00,29.92,1006.90,10.00,M,BKN,BKN,M,M,16000.00,18000.00,M,M,M,M,M,M,M,M,M,95.84,KINS 160055Z AUTO 25009KT 10SM BKN160 BKN180 39/00 A2992 RMK AO2 SLP069 T03900004 $,M
RNO,2024-07-16 00:55,-119.7711,39.4839,1341.00,85.00,40.00,20.40,260.00,13.00,0.00,30.14,1015.40,10.00,25.00,BKN,BKN,M,M,12000.00,17000.00,M,M,M,M,M,M,32.00,290.00,2024-07-16 00:45,82.06,KRNO 160055Z 26013G25KT 10SM BKN120 BKN170 29/04 A3014 RMK AO2 PK WND 29032/0045 SLP154 T02940044,M
LSV,2024-07-16 00:55,-115.0343,36.2362,570.00,106.70,36.00,8.95,210.00,6.00,0.00,29.77,1004.70,10.00,M,SCT,M,M,M,16000.00,M,M,M,M,M,M,M,M,M,M,100.27,KLSV 160055Z 21006KT 10SM SCT160 42/02 A2977 RMK AO2A SLP047 T04150022 $,M
RTS,2024-07-16 00:55,-119.8764,39.6682,1539.00,82.40,37.40,20.04,230.00,12.00,0.00,30.19,M,10.00,18.00,CLR,M,M,M,M,M,M,M,M,M,M,M,M,M,M,80.14,KRTS 160055Z AUTO 23012G18KT 10SM CLR 28/03 A3019 RMK AO2,M
MEV,2024-07-16 00:55,-119.7500,38.9963,1441.42,77.00,50.00,38.74,170.00,12.00,0.00,30.22,M,10.00,17.00,FEW,M,M,M,12000.00,M,M,M,M,M,M,M,M,M,M,77.00,KMEV 160055Z AUTO 17012G17KT 10SM FEW120 25/10 A3022 RMK AO2,M
BAM,2024-07-16 00:55,-116.8743,40.5990,1382.36,82.40,55.40,39.58,350.00,17.00,0.00,30.15,M,10.00,20.00,CLR,M,M,M,M,M,M,M,M,M,M,M,M,M,M,81.75,KBAM 160055Z AUTO 35017G20KT 10SM CLR 28/13 A3015 RMK AO1,M
HTH,2024-07-16 00:55,-118.6315,38.5448,1282.89,89.60,37.40,15.92,330.00,17.00,0.00,30.08,M,10.00,M,CLR,M,M,M,M,M,M,M,M,M,M,M,M,M,M,85.67,KHTH 160055Z AUTO 33017KT 10SM CLR 32/03 A3008 RMK A01,M
TMT,2024-07-16 00:55,-117.1971,39.4643,1749.34,86.40,32.40,14.44,280.00,6.00,0.00,30.20,M,10.00,9.00,CLR,M,M,M,M,M,M,M,M,M,M,M,M,M,M,82.96,KTMT 160055Z AUTO 28006G09KT 10SM CLR 30/00 A3020 RMK AO2 T03020002,M
EKO,2024-07-16 00:56,-115.7860,40.8242,1367.00,86.00,45.00,23.95,320.00,12.00,0.00,30.16,1015.60,10.00,M,CLR,M,M,M,M,M,M,M,M,M,M,M,M,M,M,83.10,KEKO 160056Z AUTO 32012KT 10SM CLR 30/07 A3016 RMK AO2 SLP156 T03000072,M
WMC,2024-07-16 00:56,-117.8072,40.9019,1315.00,91.00,44.00,19.68,350.00,14.00,0.00,30.11,1014.50,10.00,M,CLR,M,M,M,M,M,M,M,M,M,M,M,M,M,M,87.26,KWMC 160056Z AUTO 35014KT 10SM CLR 33/07 A3011 RMK AO2 SLP145 T03280067,M
HND,2024-07-16 00:56,-115.1344,35.9729,742.79,103.00,47.00,15.28,200.00,4.00,0.00,29.89,1010.00,10.00,M,CLR,M,M,M,M,M,M,M,M,M,M,M,M,M,M,99.35,KHND 160056Z 20004KT 10SM CLR 39/08 A2989 RMK AO2 SLP100 T03940083,M
TPH,2024-07-16 00:56,-117.0904,38.0505,1654.00,88.00,33.00,14.06,240.00,5.00,0.00,30.15,1012.60,10.00,M,CLR,M,M,M,M,M,M,M,M,M,M,M,M,M,M,84.25,KTPH 160056Z AUTO 24005KT 10SM CLR 31/01 A3015 RMK AO2 SLP126 T03110006,M
LAS,2024-07-16 00:56,-115.1634,36.0719,663.00,107.00,45.00,12.58,150.00,4.00,0.00,29.84,1003.70,10.00,15.00,FEW,FEW,BKN,M,12000.00,16000.00,20000.00,M,M,M,M,M,M,M,M,102.73,KLAS 160056Z 15004G15KT 10SM FEW120 FEW160 BKN200 42/07 A2984 RMK AO2 SLP037 CB DSNT N AND E-S T04170072 $,M
NFL,2024-07-16 00:56,-118.7010,39.4166,1199.00,94.00,38.00,14.21,M,6.00,0.00,30.05,1014.60,10.00,M,SCT,BKN,BKN,M,8000.00,13000.00,22000.00,M,M,M,M,M,M,M,M,89.58,KNFL 160056Z COR VRB06KT 10SM SCT080 BKN130 BKN220 34/03 A3005 RMK SLP146 T03440033,M
ELY,2024-07-16 01:07,-114.8453,39.2950,1909.00,72.00,49.00,44.13,230.00,13.00,T,30.24,M,1.75,25.00,FEW,BKN,OVC,M,5500.00,8500.00,11000.00,M,+RA,M,M,M,M,M,M,72.00,KELY 160107Z AUTO 23013G25KT 1 3/4SM +RA FEW055 BKN085 OVC110 22/09 A3024 RMK AO2 RAB03 PRESRR P0000 T02220094 TSNO,M
BVU,2024-07-16 01:15,-114.8611,35.9475,671.00,104.00,41.00,11.79,190.00,8.00,0.00,29.84,M,10.00,M,CLR,M,M,M,M,M,M,M,M,M,M,M,M,M,M,98.97,KBVU 160115Z AUTO 19008KT 10SM CLR 40/05 A2984 RMK AO2,M
CXP,2024-07-16 01:15,-119.7326,39.1923,1431.00,82.40,46.40,28.36,180.00,13.00,0.00,30.21,M,10.00,22.00,SCT,M,M,M,12000.00,M,M,M,M,M,M,M,M,M,M,80.64,KCXP 160115Z AUTO 18013G22KT 10SM SCT120 28/08 A3021 RMK AO2,M
RTS,2024-07-16 01:15,-119.8764,39.6682,1539.00,82.40,35.60,18.67,270.00,6.00,0.00,30.19,M,10.00,13.00,CLR,M,M,M,M,M,M,M,M,M,M,M,M,M,M,80.08,KRTS 160115Z AUTO 27006G13KT 10SM CLR 28/02 A3019 RMK AO2,M
05U,2024-07-16 01:15,-116.0051,39.6042,1811.23,87.80,37.40,16.86,220.00,9.00,0.00,30.20,M,10.00,M,M,M,M,M,M,M,M,M,M,M,M,M,M,M,M,84.16,K05U 160115Z AUTO 22009KT 10SM 31/03 A3020 RMK A01,M
MEV,2024-07-16 01:15,-119.7500,38.9963,1441.42,77.00,48.20,36.22,180.00,13.00,0.00,30.20,M,10.00,M,FEW,M,M,M,12000.00,M,M,M,M,M,M,M,M,M,M,77.00,KMEV 160115Z AUTO 18013KT 10SM FEW120 25/09 A3020 RMK AO2,M
HTH,2024-07-16 01:15,-118.6315,38.5448,1282.89,89.60,37.40,15.92,330.00,14.00,0.00,30.08,M,10.00,M,CLR,M,M,M,M,M,M,M,M,M,M,M,M,M,M,85.67,KHTH 160115Z AUTO 33014KT 10SM CLR 32/03 A3008 RMK A01,M
BAM,2024-07-16 01:15,-116.8743,40.5990,1382.36,82.40,55.40,39.58,360.00,11.00,0.00,30.15,M,10.00,M,CLR,M,M,M,M,M,M,M,M,M,M,M,M,M,M,81.75,KBAM 160115Z AUTO 36011KT 10SM CLR 28/13 A3015 RMK AO1,M
TMT,2024-07-16 01:15,-117.1971,39.4643,1749.34,85.50,33.80,15.72,310.00,12.00,0.00,30.20,M,10.00,17.00,CLR,M,M,M,M,M,M,M,M,M,M,M,M,M,M,82.27,KTMT 160115Z AUTO 31012G17KT 10SM CLR 30/01 A3020 RMK AO2 T02970010,M
ELY,2024-07-16 01:17,-114.8453,39.2950,1909.00,73.00,49.00,42.67,80.00,10.00,0.13,30.21,M,3.00,20.00,SCT,BKN,OVC,M,4600.00,7000.00,11000.00,M,-RA,M,M,M,M,M,M,73.00,KELY 160117Z AUTO 08010G20KT 3SM -RA SCT046 BKN070 OVC110 23/09 A3021 RMK AO2 RAB03 P0013 T02280094 TSNO,M
BVU,2024-07-16 01:35,-114.8611,35.9475,671.00,104.00,41.00,11.79,180.00,7.00,0.00,29.83,M,10.00,M,CLR,M,M,M,M,M,M,M,M,M,M,M,M,M,M,98.97,KBVU 160135Z AUTO 18007KT 10SM CLR 40/05 A2983 RMK AO2,M
CXP,2024-07-16 01:35,-119.7326,39.1923,1431.00,82.40,46.40,28.36,180.00,15.00,0.00,30.21,M,10.00,20.00,FEW,M,M,M,12000.00,M,M,M,M,M,M,M,M,M,M,80.64,KCXP 160135Z AUTO 18015G20KT 10SM FEW120 28/08 A3021 RMK AO2,M
RTS,2024-07-16 01:35,-119.8764,39.6682,1539.00,82.40,35.60,18.67,300.00,13.00,0.00,30.20,M,10.00,18.00,CLR,M,M,M,M,M,M,M,M,M,M,M,M,M,M,80.08,KRTS 160135Z AUTO 30013G18KT 10SM CLR 28/02 A3020 RMK AO2,M
05U,2024-07-16 01:35,-116.0051,39.6042,1811.23,86.00,35.60,16.63,0.00,0.00,0.00,30.20,M,10.00,12.00,M,M,M,M,M,M,M,M,M,M,M,M,M,M,M,82.69,K05U 160135Z AUTO 00000G12KT 10SM 30/02 A3020 RMK A01,M
MEV,2024-07-16 01:35,-119.7500,38.9963,1441.42,77.00,48.20,36.22,200.00,6.00,0.00,30.20,M,10.00,M,CLR,M,M,M,M,M,M,M,M,M,M,M,M,M,M,77.00,KMEV 160135Z AUTO 20006KT 10SM CLR 25/09 A3020 RMK AO2,M
BAM,2024-07-16 01:35,-116.8743,40.5990,1382.36,80.60,53.60,39.30,350.00,9.00,0.00,30.15,M,10.00,M,CLR,M,M,M,M,M,M,M,M,M,M,M,M,M,M,80.29,KBAM 160135Z AUTO 35009KT 10SM CLR 27/12 A3015 RMK AO1,M
HTH,2024-07-16 01:35,-118.6315,38.5448,1282.89,87.80,37.40,16.86,350.00,11.00,0.00,30.08,M,10.00,19.00,CLR,M,M,M,M,M,M,M,M,M,M,M,M,M,M,84.16,KHTH 160135Z AUTO 35011G19KT 10SM CLR 31/03 A3008 RMK A01,M
TMT,2024-07-16 01:35,-117.1971,39.4643,1749.34,85.00,32.50,15.17,360.00,11.00,0.00,30.19,M,10.00,14.00,CLR,M,M,M,M,M,M,M,M,M,M,M,M,M,M,81.88,KTMT 160135Z AUTO 36011G14KT 10SM CLR 30/00 A3019 RMK AO2 T02950003,M
P68,2024-07-16 01:53,-116.0056,39.6014,1993.00,85.00,38.00,18.87,350.00,7.00,0.00,30.18,1013.30,M,M,M,M,M,M,M,M,M,M,M,M,M,M,M,M,M,81.99,KP68 160153Z AUTO 35007KT 29/03 A3018 RMK AO1 SLP133 T02940033,M
DRA,2024-07-16 01:53,-116.0278,36.6206,1009.00,99.00,41.00,13.70,240.00,13.00,0.00,29.94,1008.10,10.00,18.00,CLR,M,M,M,M,M,M,M,M,M,M,M,M,M,M,94.47,KDRA 160153Z AUTO 24013G18KT 10SM CLR 37/05 A2994 RMK AO2 SLP081 T03720050,M
ELY,2024-07-16 01:53,-114.8453,39.2950,1909.00,76.00,48.00,37.17,50.00,5.00,0.13,30.20,1013.40,10.00,M,CLR,M,M,M,M,M,M,M,M,M,M,M,M,M,M,76.00,KELY 160153Z AUTO 05005KT 10SM CLR 24/09 A3020 RMK AO2 RAB03E27 SLP134 P0013 T02440089,M
VGT,2024-07-16 01:53,-115.1933,36.2111,667.00,103.00,44.00,13.64,260.00,13.00,0.00,29.84,1008.50,10.00,24.00,CLR,M,M,M,M,M,M,M,M,M,M,M,M,M,M,98.74,KVGT 160153Z 26013G24KT 10SM CLR 39/07 A2984 RMK AO2 SLP085 T03940067,M
LOL,2024-07-16 01:53,-118.5701,40.0684,1192.43,89.00,42.00,19.41,20.00,8.00,T,30.06,1013.80,10.00,17.00,CLR,M,M,M,M,M,M,M,M,M,M,M,26.00,30.00,2024-07-16 01:34,85.36,KLOL 160153Z AUTO 02008G17KT 10SM CLR 32/06 A3006 RMK AO2 PK WND 03026/0134 RAB0054E32 SLP138 P0000 T03170056,M
BVU,2024-07-16 01:55,-114.8611,35.9475,671.00,102.20,41.00,12.44,160.00,9.00,0.00,29.83,M,10.00,M,CLR,M,M,M,M,M,M,M,M,M,M,M,M,M,M,97.39,KBVU 160155Z AUTO 16009KT 10SM CLR 39/05 A2983 RMK AO2,M
CXP,2024-07-16 01:55,-119.7326,39.1923,1431.00,82.40,46.40,28.36,190.00,8.00,0.00,30.20,M,10.00,14.00,CLR,M,M,M,M,M,M,M,M,M,M,M,M,M,M,80.64,KCXP 160155Z AUTO 19008G14KT 10SM CLR 28/08 A3020 RMK AO2,M
INS,2024-07-16 01:55,-115.6733,36.5872,955.00,101.00,29.00,8.00,250.00,6.00,0.00,29.91,1006.60,10.00,M,CLR,M,M,M,M,M,M,M,M,M,M,M,M,M,M,94.34,KINS 160155Z AUTO 25006KT 10SM CLR 38/M02 A2991 RMK AO2 SLP066 T03841017 $,M
RNO,2024-07-16 01:55,-119.7711,39.4839,1341.00,84.00,44.00,24.58,M,6.00,0.00,30.14,1015.30,10.00,M,SCT,BKN,M,M,11000.00,16000.00,M,M,M,M,M,M,M,M,M,81.54,KRNO 160155Z VRB06KT 10SM SCT110 BKN160 29/07 A3014 RMK AO2 SLP153 T02890067,M
LSV,2024-07-16 01:55,-115.0343,36.2362,570.00,104.40,39.40,10.95,240.00,9.00,0.00,29.76,1004.40,10.00,M,SCT,M,M,M,16000.00,M,M,M,M,M,M,M,M,M,M,98.95,KLSV 160155Z 24009KT 10SM SCT160 40/04 A2976 RMK AO2A SLP044 T04020041 $,M
RTS,2024-07-16 01:55,-119.8764,39.6682,1539.00,78.80,41.00,25.95,310.00,12.00,0.00,30.20,M,10.00,M,CLR,M,M,M,M,M,M,M,M,M,M,M,M,M,M,78.80,KRTS 160155Z AUTO 31012KT 10SM CLR 26/05 A3020 RMK AO2,M
05U,2024-07-16 01:55,-116.0051,39.6042,1811.23,86.00,37.40,17.85,0.00,0.00,0.00,30.21,M,10.00,M,M,M,M,M,M,M,M,M,M,M,M,M,M,M,M,82.73,K05U 160155Z AUTO 00000KT 10SM 30/03 A3021 RMK A01,M
MEV,2024-07-16 01:55,-119.7500,38.9963,1441.42,77.00,48.20,36.22,0.00,0.00,0.00,30.19,M,10.00,M,CLR,M,M,M,M,M,M,M,M,M,M,M,M,M,M,77.00,KMEV 160155Z AUTO 00000KT 10SM CLR 25/09 A3019 RMK AO2,M
BAM,2024-07-16 01:55,-116.8743,40.5990,1382.36,82.40,53.60,37.07,350.00,3.00,0.00,30.14,M,10.00,M,CLR,M,M,M,M,M,M,M,M,M,M,M,M,M,M,81.46,KBAM 160155Z AUTO 35003KT 10SM CLR 28/12 A3014 RMK AO1,M
HTH,2024-07-16 01:55,-118.6315,38.5448,1282.89,89.60,37.40,15.92,340.00,14.00,0.00,30.08,M,10.00,M,CLR,M,M,M,M,M,M,M,M,M,M,M,M,M,M,85.67,KHTH 160155Z AUTO 34014KT 10SM CLR 32/03 A3008 RMK A01,M
TMT,2024-07-16 01:55,-117.1971,39.4643,1749.34,84.40,32.00,15.15,330.00,8.00,0.00,30.20,M,10.00,M,CLR,M,M,M,M,M,M,M,M,M,M,M,M,M,M,81.42,KTMT 160155Z AUTO 33008KT 10SM CLR 29/00 A3020 RMK AO2 T02910000,M
EKO,2024-07-16 01:56,-115.7860,40.8242,1367.00,84.00,45.00,25.54,340.00,11.00,0.00,30.16,1015.40,10.00,M,CLR,M,M,M,M,M,M,M,M,M,M,M,M,M,M,81.61,KEKO 160156Z AUTO 34011KT 10SM CLR 29/07 A3016 RMK AO2 SLP154 T02890072,M
WMC,2024-07-16 01:56,-117.8072,40.9019,1315.00,89.00,43.00,20.17,350.00,10.00,0.00,30.11,1014.00,10.00,M,CLR,M,M,M,M,M,M,M,M,M,M,M,M,M,M,85.42,KWMC 160156Z AUTO 35010KT 10SM CLR 32/06 A3011 RMK AO2 SLP140 T03170061,M
HND,2024-07-16 01:56,-115.1344,35.9729,742.79,102.00,47.00,15.74,270.00,8.00,0.00,29.89,1009.90,10.00,M,CLR,M,M,M,M,M,M,M,M,M,M,M,M,M,M,98.36,KHND 160156Z 27008KT 240V310 10SM CLR 39/08 A2989 RMK AO2 SLP099 T03890083,M
TPH,2024-07-16 01:56,-117.0904,38.0505,1654.00,89.00,33.00,13.62,290.00,5.00,0.00,30.14,1011.90,10.00,M,CLR,M,M,M,M,M,M,M,M,M,M,M,M,M,M,85.08,KTPH 160156Z AUTO 29005KT 10SM CLR 32/01 A3014 RMK AO2 SLP119 T03170006,M
LAS,2024-07-16 01:56,-115.1634,36.0719,663.00,105.00,45.00,13.35,320.00,10.00,0.00,29.84,1003.70,10.00,M,FEW,FEW,SCT,M,12000.00,16000.00,22000.00,M,M,M,M,M,M,M,M,100.87,KLAS 160156Z 32010KT 10SM FEW120 FEW160 SCT220 41/07 A2984 RMK AO2 SLP037 CB DSNT S T04060072 $,M
NFL,2024-07-16 01:56,-118.7010,39.4166,1199.00,87.00,44.00,22.33,270.00,16.00,0.00,30.06,1014.60,10.00,27.00,SCT,BKN,BKN,M,8000.00,12000.00,22000.00,M,M,M,M,M,27.00,270.00,2024-07-15 05:10,83.82,KNFL 160156Z COR 27016G27KT 10SM SCT080 BKN120 BKN220 31/07 A3006 RMK PK WND 27027/0510 SLP146 T03060067,M
BVU,2024-07-16 02:15,-114.8611,35.9475,671.00,102.20,42.80,13.34,170.00,9.00,0.00,29.84,M,10.00,M,CLR,M,M,M,M,M,M,M,M,M,M,M,M,M,M,97.76,KBVU 160215Z AUTO 17009KT 10SM CLR 39/06 A2984 RMK AO2,M
CXP,2024-07-16 02:15,-119.7326,39.1923,1431.00,82.40,42.80,24.72,210.00,8.00,0.00,30.19,M,10.00,M,CLR,M,M,M,M,M,M,M,M,M,M,M,M,M,M,80.39,KCXP 160215Z AUTO 21008KT 10SM CLR 28/06 A3019 RMK AO2,M
RTS,2024-07-16 02:15,-119.8764,39.6682,1539.00,77.00,41.00,27.53,310.00,10.00,0.00,30.20,M,10.00,18.00,CLR,M,M,M,M,M,M,M,M,M,M,M,M,M,M,77.00,KRTS 160215Z AUTO 31010G18KT 10SM CLR 25/05 A3020 RMK AO2,M
05U,2024-07-16 02:15,-116.0051,39.6042,1811.23,84.20,37.40,18.91,180.00,11.00,0.00,30.21,M,10.00,M,M,M,M,M,M,M,M,M,M,M,M,M,M,M,M,81.38,K05U 160215Z AUTO 18011KT 10SM 29/03 A3021 RMK A01,M
MEV,2024-07-16 02:15,-119.7500,38.9963,1441.42,75.20,50.00,41.14,90.00,6.00,0.00,30.18,M,10.00,M,CLR,M,M,M,M,M,M,M,M,M,M,M,M,M,M,75.20,KMEV 160215Z AUTO 09006KT 10SM CLR 24/10 A3018 RMK AO2,M
HTH,2024-07-16 02:15,-118.6315,38.5448,1282.89,89.60,37.40,15.92,320.00,12.00,0.00,30.08,M,10.00,M,CLR,M,M,M,M,M,M,M,M,M,M,M,M,M,M,85.67,KHTH 160215Z AUTO 32012KT 10SM CLR 32/03 A3008 RMK A01,M
BAM,2024-07-16 02:15,-116.8743,40.5990,1382.36,80.60,55.40,41.97,300.00,3.00,0.00,30.14,M,10.00,M,CLR,M,M,M,M,M,M,M,M,M,M,M,M,M,M,80.53,KBAM 160215Z AUTO 30003KT 10SM CLR 27/13 A3014 RMK AO1,M
TMT,2024-07-16 02:15,-117.1971,39.4643,1749.34,83.30,32.00,15.70,350.00,10.00,0.00,30.20,M,10.00,15.00,CLR,M,M,M,M,M,M,M,M,M,M,M,M,M,M,80.62,KTMT 160215Z AUTO 35010G15KT 10SM CLR 29/00 A3020 RMK AO2 T02850000,M
BVU,2024-07-16 02:35,-114.8611,35.9475,671.00,100.40,42.80,14.08,170.00,10.00,0.00,29.84,M,10.00,M,CLR,M,M,M,M,M,M,M,M,M,M,M,M,M,M,96.04,KBVU 160235Z AUTO 17010KT 10SM CLR 38/06 A2984 RMK AO2,M
CXP,2024-07-16 02:35,-119.7326,39.1923,1431.00,80.60,42.80,26.22,190.00,5.00,0.00,30.19,M,10.00,M,CLR,M,M,M,M,M,M,M,M,M,M,M,M,M,M,79.30,KCXP 160235Z AUTO 19005KT 10SM CLR 27/06 A3019 RMK AO2,M
RTS,2024-07-16 02:35,-119.8764,39.6682,1539.00,77.00,41.00,27.53,300.00,8.00,0.00,30.21,M,10.00,M,CLR,M,M,M,M,M,M,M,M,M,M,M,M,M,M,77.00,KRTS 160235Z AUTO 30008KT 10SM CLR 25/05 A3021 RMK AO2,M
05U,2024-07-16 02:35,-116.0051,39.6042,1811.23,82.40,42.80,24.72,170.00,10.00,0.00,30.22,M,10.00,15.00,M,M,M,M,M,M,M,M,M,M,M,M,M,M,M,80.39,K05U 160235Z AUTO 17010G15KT 10SM 28/06 A3022 RMK A01,M
MEV,2024-07-16 02:35,-119.7500,38.9963,1441.42,75.20,48.20,38.46,140.00,8.00,0.00,30.18,M,10.00,M,CLR,M,M,M,M,M,M,M,M,M,M,M,M,M,M,75.20,KMEV 160235Z AUTO 14008KT 10SM CLR 24/09 A3018 RMK AO2,M
BAM,2024-07-16 02:35,-116.8743,40.5990,1382.36,80.60,57.20,44.80,300.00,6.00,0.00,30.14,M,10.00,M,CLR,M,M,M,M,M,M,M,M,M,M,M,M,M,M,80.81,KBAM 160235Z AUTO 30006KT 10SM CLR 27/14 A3014 RMK AO1,M
HTH,2024-07-16 02:35,-118.6315,38.5448,1282.89,87.80,37.40,16.86,330.00,10.00,0.00,30.09,M,10.00,M,CLR,M,M,M,M,M,M,M,M,M,M,M,M,M,M,84.16,KHTH 160235Z AUTO 33010KT 10SM CLR 31/03 A3009 RMK A01,M
TMT,2024-07-16 02:35,-117.1971,39.4643,1749.34,82.40,32.00,16.17,360.00,9.00,0.00,30.20,M,10.00,M,CLR,M,M,M,M,M,M,M,M,M,M,M,M,M,M,80.00,KTMT 160235Z AUTO 36009KT 10SM CLR 28/00 A3020 RMK AO2 T02800000,M
RTS,2024-07-16 02:50,-119.8764,39.6682,1539.00,77.00,41.00,27.53,280.00,9.00,0.00,30.21,M,10.00,M,CLR,M,M,M,M,M,M,M,M,M,M,M,M,M,M,77.00,KRTS 160250Z AUTO 28009KT 10SM CLR 25/05 A3021 RMK AO2,M
MEV,2024-07-16 02:50,-119.7500,38.9963,1441.42,75.20,48.20,38.46,160.00,4.00,0.00,30.18,M,10.00,M,SCT,M,M,M,12000.00,M,M,M,M,M,M,M,M,M,M,75.20,KMEV 160250Z AUTO 16004KT 10SM SCT120 24/09 A3018 RMK AO2,M
P68,2024-07-16 02:53,-116.0056,39.6014,1993.00,79.00,44.00,28.93,20.00,16.00,0.00,30.20,1013.80,M,21.00,M,M,M,M,M,M,M,M,M,M,M,M,M,M,M,79.00,KP68 160253Z AUTO 02016G21KT 26/07 A3020 RMK AO1 SLP138 T02610067 53002,M
DRA,2024-07-16 02:53,-116.0278,36.6206,1009.00,96.00,41.00,15.02,220.00,6.00,0.00,29.94,1008.30,10.00,M,CLR,M,M,M,M,M,M,M,M,M,M,M,M,M,M,91.64,KDRA 160253Z AUTO 22006KT 10SM CLR 36/05 A2994 RMK AO2 SLP083 T03560050 55006,M
ELY,2024-07-16 02:53,-114.8453,39.2950,1909.00,69.00,57.00,65.57,280.00,4.00,0.00,30.21,1013.30,10.00,M,CLR,M,M,M,M,M,M,M,M,M,M,M,M,M,M,69.00,KELY 160253Z AUTO 28004KT 10SM CLR 21/14 A3021 RMK AO2 SLP133 60015 T02060139 55001,M
VGT,2024-07-16 02:53,-115.1933,36.2111,667.00,103.00,44.00,13.64,310.00,4.00,0.00,29.84,1008.80,10.00,14.00,CLR,M,M,M,M,M,M,M,M,M,M,M,M,M,M,98.74,KVGT 160253Z 31004G14KT 10SM CLR 39/07 A2984 RMK AO2 SLP088 T03940067 55000,M
LOL,2024-07-16 02:53,-118.5701,40.0684,1192.43,83.00,45.00,26.37,20.00,7.00,0.00,30.06,1013.50,10.00,M,CLR,M,M,M,M,M,M,M,M,M,M,M,M,M,M,80.93,KLOL 160253Z AUTO 02007KT 10SM CLR 28/07 A3006 RMK AO2 SLP135 60000 T02830072 56003,M
BVU,2024-07-16 02:55,-114.8611,35.9475,671.00,100.40,42.80,14.08,160.00,8.00,0.00,29.85,M,10.00,M,CLR,M,M,M,M,M,M,M,M,M,M,M,M,M,M,96.04,KBVU 160255Z AUTO 16008KT 10SM CLR 38/06 A2985 RMK AO2,M
CXP,2024-07-16 02:55,-119.7326,39.1923,1431.00,80.60,42.80,26.22,190.00,4.00,0.00,30.19,M,10.00,M,CLR,M,M,M,M,M,M,M,M,M,M,M,M,M,M,79.30,KCXP 160255Z AUTO 19004KT 10SM CLR 27/06 A3019 RMK AO2,M
RNO,2024-07-16 02:55,-119.7711,39.4839,1341.00,83.00,45.00,26.37,M,3.00,0.00,30.15,1015.20,10.00,M,SCT,BKN,M,M,10000.00,16000.00,M,M,M,M,M,M,M,M,M,80.93,KRNO 160255Z VRB03KT 10SM SCT100 BKN160 28/07 A3015 RMK AO2 SLP152 T02830072 51002,M
LSV,2024-07-16 02:55,-115.0343,36.2362,570.00,104.00,39.00,10.91,270.00,5.00,0.00,29.77,1004.70,10.00,M,FEW,SCT,M,M,18000.00,21000.00,M,M,M,M,M,M,M,M,M,98.51,KLSV 160255Z 27005KT 10SM FEW180 SCT210 40/04 A2977 RMK AO2A SLP047 T04000039 55002 $,M
05U,2024-07-16 02:55,-116.0051,39.6042,1811.23,78.80,42.80,27.81,180.00,14.00,0.00,30.23,M,10.00,M,M,M,M,M,M,M,M,M,M,M,M,M,M,M,M,78.80,K05U 160255Z AUTO 18014KT 10SM 26/06 A3023 RMK A01,M
BAM,2024-07-16 02:55,-116.8743,40.5990,1382.36,78.80,57.20,47.52,290.00,5.00,0.00,30.14,M,10.00,M,CLR,M,M,M,M,M,M,M,M,M,M,M,M,M,M,78.80,KBAM 160255Z AUTO 29005KT 10SM CLR 26/14 A3014 RMK AO1,M
HTH,2024-07-16 02:55,-118.6315,38.5448,1282.89,86.00,35.60,16.63,330.00,12.00,0.00,30.09,M,10.00,M,CLR,M,M,M,M,M,M,M,M,M,M,M,M,M,M,82.69,KHTH 160255Z AUTO 33012KT 10SM CLR 30/02 A3009 RMK A01,M
TMT,2024-07-16 02:55,-117.1971,39.4643,1749.34,79.70,42.00,26.18,20.00,8.00,0.00,30.21,M,10.00,M,CLR,M,M,M,M,M,M,M,M,M,M,M,M,M,M,79.70,KTMT 160255Z AUTO 02008KT 10SM CLR 27/06 A3021 RMK AO2 T02650055,M
INS,2024-07-16 02:55,-115.6733,36.5872,955.00,98.00,29.50,8.95,250.00,9.00,0.00,29.92,1006.90,10.00,M,CLR,M,M,M,M,M,M,M,M,M,M,M,M,M,M,91.87,KINS 160255Z AUTO 25009KT 10SM CLR 37/M01 A2992 RMK AO2 SLP069 T03671014 55005 $,M
EKO,2024-07-16 02:56,-115.7860,40.8242,1367.00,82.00,44.00,26.23,330.00,5.00,0.00,30.16,1015.20,10.00,M,CLR,M,M,M,M,M,M,M,M,M,M,M,M,M,M,80.21,KEKO 160256Z AUTO 33005KT 10SM CLR 28/07 A3016 RMK AO2 SLP152 T02780067 53001,M
WMC,2024-07-16 02:56,-117.8072,40.9019,1315.00,85.00,43.00,22.91,10.00,7.00,0.00,30.10,1013.80,10.00,M,CLR,M,M,M,M,M,M,M,M,M,M,M,M,M,M,82.21,KWMC 160256Z AUTO 01007KT 10SM CLR 29/06 A3010 RMK AO2 SLP138 T02940061 58003,M
HND,2024-07-16 02:56,-115.1344,35.9729,742.79,100.00,48.00,17.36,330.00,6.00,0.00,29.90,1010.30,10.00,M,CLR,M,M,M,M,M,M,M,M,M,M,M,M,M,M,96.55,KHND 160256Z 33006KT 10SM CLR 38/09 A2990 RMK AO2 SLP103 T03780089 55001,M
TPH,2024-07-16 02:56,-117.0904,38.0505,1654.00,85.00,31.00,14.28,290.00,7.00,0.00,30.15,1012.00,10.00,M,CLR,M,M,M,M,M,M,M,M,M,M,M,M,M,M,81.87,KTPH 160256Z AUTO 29007KT 10SM CLR 29/M01 A3015 RMK AO2 SLP120 T02941006 55005,M
LAS,2024-07-16 02:56,-115.1634,36.0719,663.00,104.00,44.00,13.24,320.00,7.00,0.00,29.85,1004.10,10.00,M,FEW,FEW,SCT,M,12000.00,16000.00,22000.00,M,M,M,M,M,M,M,M,99.70,KLAS 160256Z 32007KT 10SM FEW120 FEW160 SCT220 40/07 A2985 RMK AO2 SLP041 CB DSNT S T04000067 55000 $,M
NFL,2024-07-16 02:56,-118.7010,39.4166,1199.00,84.00,45.00,25.54,270.00,13.00,0.00,30.07,1015.00,10.00,21.00,SCT,BKN,BKN,M,8000.00,12000.00,22000.00,M,M,M,M,M,27.00,290.00,2024-07-16 02:21,81.61,KNFL 160256Z COR 27013G21KT 10SM SCT080 BKN120 BKN220 29/07 A3007 RMK PK WND 29027/0221 SLP150 T02890072 53002,M
BVU,2024-07-16 03:15,-114.8611,35.9475,671.00,98.60,48.20,18.25,180.00,13.00,0.00,29.86,M,10.00,19.00,CLR,M,M,M,M,M,M,M,M,M,M,M,M,M,M,95.17,KBVU 160315Z AUTO 18013G19KT 10SM CLR 37/09 A2986 RMK AO2,M
CXP,2024-07-16 03:15,-119.7326,39.1923,1431.00,78.80,44.60,29.79,0.00,0.00,0.00,30.19,M,10.00,M,CLR,M,M,M,M,M,M,M,M,M,M,M,M,M,M,78.80,KCXP 160315Z AUTO 00000KT 10SM CLR 26/07 A3019 RMK AO2,M
RTS,2024-07-16 03:15,-119.8764,39.6682,1539.00,77.00,39.20,25.67,300.00,9.00,0.00,30.21,M,10.00,15.00,CLR,M,M,M,M,M,M,M,M,M,M,M,M,M,M,77.00,KRTS 160315Z AUTO 30009G15KT 10SM CLR 25/04 A3021 RMK AO2,M
05U,2024-07-16 03:15,-116.0051,39.6042,1811.23,77.00,42.80,29.51,160.00,8.00,0.00,30.24,M,10.00,M,M,M,M,M,M,M,M,M,M,M,M,M,M,M,M,77.00,K05U 160315Z AUTO 16008KT 10SM 25/06 A3024 RMK A01,M
MEV,2024-07-16 03:15,-119.7500,38.9963,1441.42,73.40,48.20,40.85,160.00,6.00,0.00,30.18,M,10.00,M,BKN,M,M,M,12000.00,M,M,M,M,M,M,M,M,M,M,73.40,KMEV 160315Z AUTO 16006KT 10SM BKN120 23/09 A3018 RMK AO2,M
HTH,2024-07-16 03:15,-118.6315,38.5448,1282.89,84.20,37.40,18.91,340.00,8.00,0.00,30.10,M,10.00,M,CLR,M,M,M,M,M,M,M,M,M,M,M,M,M,M,81.38,KHTH 160315Z AUTO 34008KT 10SM CLR 29/03 A3010 RMK A01,M
BAM,2024-07-16 03:15,-116.8743,40.5990,1382.36,75.20,59.00,57.12,280.00,3.00,0.00,30.15,M,10.00,M,CLR,M,M,M,M,M,M,M,M,M,M,M,M,M,M,75.20,KBAM 160315Z AUTO 28003KT 10SM CLR 24/15 A3015 RMK AO1,M
TMT,2024-07-16 03:15,-117.1971,39.4643,1749.34,77.50,44.20,30.63,10.00,11.00,0.00,30.21,M,10.00,M,CLR,M,M,M,M,M,M,M,M,M,M,M,M,M,M,77.50,KTMT 160315Z AUTO 01011KT 10SM CLR 25/07 A3021 RMK AO2 T02530068,M
CXP,2024-07-16 03:30,-119.7326,39.1923,1431.00,78.80,44.60,29.79,190.00,4.00,0.00,30.19,M,10.00,M,CLR,M,M,M,M,M,M,M,M,M,M,M,M,M,M,78.80,KCXP 160330Z AUTO 19004KT 10SM CLR 26/07 A3019 RMK AO2,M
BVU,2024-07-16 03:35,-114.8611,35.9475,671.00,96.80,46.40,18.02,160.00,11.00,0.00,29.87,M,10.00,M,CLR,M,M,M,M,M,M,M,M,M,M,M,M,M,M,93.05,KBVU 160335Z AUTO 16011KT 10SM CLR 36/08 A2987 RMK AO2,M
RTS,2024-07-16 03:35,-119.8764,39.6682,1539.00,75.20,39.20,27.26,270.00,9.00,0.00,30.21,M,10.00,M,CLR,M,M,M,M,M,M,M,M,M,M,M,M,M,M,75.20,KRTS 160335Z AUTO 27009KT 10SM CLR 24/04 A3021 RMK AO2,M
05U,2024-07-16 03:35,-116.0051,39.6042,1811.23,73.40,44.60,35.66,160.00,5.00,0.00,30.25,M,10.00,M,M,M,M,M,M,M,M,M,M,M,M,M,M,M,M,73.40,K05U 160335Z AUTO 16005KT 10SM 23/07 A3025 RMK A01,M
MEV,2024-07-16 03:35,-119.7500,38.9963,1441.42,71.60,48.20,43.42,170.00,6.00,0.00,30.18,M,10.00,M,SCT,M,M,M,12000.00,M,M,M,M,M,M,M,M,M,M,71.60,KMEV 160335Z AUTO 17006KT 10SM SCT120 22/09 A3018 RMK AO2,M
HTH,2024-07-16 03:35,-118.6315,38.5448,1282.89,84.20,37.40,18.91,330.00,6.00,0.00,30.10,M,10.00,M,CLR,M,M,M,M,M,M,M,M,M,M,M,M,M,M,81.38,KHTH 160335Z AUTO 33006KT 10SM CLR 29/03 A3010 RMK A01,M
BAM,2024-07-16 03:35,-116.8743,40.5990,1382.36,77.00,57.20,50.43,0.00,0.00,0.00,30.15,M,10.00,M,CLR,M,M,M,M,M,M,M,M,M,M,M,M,M,M,77.00,KBAM 160335Z AUTO 00000KT 10SM CLR 25/14 A3015 RMK AO1,M
TMT,2024-07-16 03:35,-117.1971,39.4643,1749.34,76.00,44.60,32.69,10.00,8.00,0.00,30.22,M,10.00,M,CLR,M,M,M,M,M,M,M,M,M,M,M,M,M,M,76.00,KTMT 160335Z AUTO 01008KT 10SM CLR 25/07 A3022 RMK AO2 T02450070,M
P68,2024-07-16 03:53,-116.0056,39.6014,1993.00,71.00,44.00,37.80,360.00,6.00,0.00,30.23,1014.80,M,M,M,M,M,M,M,M,M,M,M,M,M,M,M,M,M,71.00,KP68 160353Z AUTO 36006KT 22/07 A3023 RMK AO1 SLP148 T02170067,M
DRA,2024-07-16 03:53,-116.0278,36.6206,1009.00,92.00,42.00,17.67,240.00,4.00,0.00,29.95,1008.50,10.00,M,CLR,M,M,M,M,M,M,M,M,M,M,M,M,M,M,88.01,KDRA 160353Z AUTO 24004KT 10SM CLR 33/06 A2995 RMK AO2 SLP085 T03330056,M
ELY,2024-07-16 03:53,-114.8453,39.2950,1909.00,66.00,52.00,60.60,0.00,0.00,0.00,30.22,1013.10,10.00,M,CLR,M,M,M,M,M,M,M,M,M,M,M,M,M,M,66.00,KELY 160353Z AUTO 00000KT 10SM CLR 19/11 A3022 RMK AO2 SLP131 T01890111,M
VGT,2024-07-16 03:53,-115.1933,36.2111,667.00,102.00,46.00,15.16,240.00,7.00,0.00,29.86,1009.10,10.00,M,CLR,M,M,M,M,M,M,M,M,M,M,M,M,M,M,98.15,KVGT 160353Z AUTO 24007KT 10SM CLR 39/08 A2986 RMK AO2 SLP091 T03890078,M
LOL,2024-07-16 03:53,-118.5701,40.0684,1192.43,80.00,41.00,24.94,20.00,5.00,0.00,30.07,1013.80,10.00,M,CLR,M,M,M,M,M,M,M,M,M,M,M,M,M,M,78.87,KLOL 160353Z AUTO 02005KT 10SM CLR 27/05 A3007 RMK AO2 SLP138 T02670050,M
BVU,2024-07-16 03:55,-114.8611,35.9475,671.00,96.80,46.40,18.02,160.00,9.00,0.00,29.87,M,10.00,M,CLR,M,M,M,M,M,M,M,M,M,M,M,M,M,M,93.05,KBVU 160355Z AUTO 16009KT 10SM CLR 36/08 A2987 RMK AO2,M
CXP,2024-07-16 03:55,-119.7326,39.1923,1431.00,77.00,44.60,31.62,200.00,6.00,0.00,30.19,M,10.00,M,CLR,M,M,M,M,M,M,M,M,M,M,M,M,M,M,77.00,KCXP 160355Z AUTO 20006KT 10SM CLR 25/07 A3019 RMK AO2,M
INS,2024-07-16 03:55,-115.6733,36.5872,955.00,96.60,35.60,11.93,190.00,8.00,0.00,29.93,1007.10,10.00,M,CLR,M,M,M,M,M,M,M,M,M,M,M,M,M,M,91.56,KINS 160355Z AUTO 19008KT 10SM CLR 36/02 A2993 RMK AO2 SLP071 T03590020 $,M
RNO,2024-07-16 03:55,-119.7711,39.4839,1341.00,80.00,44.00,27.99,340.00,9.00,0.00,30.15,1015.40,10.00,M,SCT,M,M,M,16000.00,M,M,M,M,M,M,M,M,M,M,79.06,KRNO 160355Z 34009KT 10SM SCT160 27/07 A3015 RMK AO2 SLP154 T02670067,M
LSV,2024-07-16 03:55,-115.0343,36.2362,570.00,102.00,39.70,11.90,150.00,6.00,0.00,29.79,1005.40,10.00,M,BKN,M,M,M,18000.00,M,M,M,M,M,M,M,M,M,M,96.92,KLSV 160355Z 15006KT 10SM BKN180 39/04 A2979 RMK AO2A SLP054 T03890043 $,M
RTS,2024-07-16 03:55,-119.8764,39.6682,1539.00,73.40,39.20,28.96,330.00,4.00,0.00,30.22,M,10.00,M,CLR,M,M,M,M,M,M,M,M,M,M,M,M,M,M,73.40,KRTS 160355Z AUTO 33004KT 10SM CLR 23/04 A3022 RMK AO2,M
05U,2024-07-16 03:55,-116.0051,39.6042,1811.23,69.80,44.60,40.29,0.00,0.00,0.00,30.25,M,10.00,M,M,M,M,M,M,M,M,M,M,M,M,M,M,M,M,69.80,K05U 160355Z AUTO 00000KT 10SM 21/07 A3025 RMK A01,M
MEV,2024-07-16 03:55,-119.7500,38.9963,1441.42,69.80,50.00,49.37,150.00,5.00,0.00,30.19,M,10.00,M,SCT,M,M,M,12000.00,M,M,M,M,M,M,M,M,M,M,69.80,KMEV 160355Z AUTO 15005KT 10SM SCT120 21/10 A3019 RMK AO2,M
BAM,2024-07-16 03:55,-116.8743,40.5990,1382.36,73.40,59.00,60.67,310.00,3.00,0.00,30.15,M,10.00,M,CLR,M,M,M,M,M,M,M,M,M,M,M,M,M,M,73.40,KBAM 160355Z AUTO 31003KT 10SM CLR 23/15 A3015 RMK AO1,M
HTH,2024-07-16 03:55,-118.6315,38.5448,1282.89,80.60,39.20,22.81,360.00,5.00,0.00,30.10,M,10.00,M,CLR,M,M,M,M,M,M,M,M,M,M,M,M,M,M,79.10,KHTH 160355Z AUTO 36005KT 10SM CLR 27/04 A3010 RMK A01,M
TMT,2024-07-16 03:55,-117.1971,39.4643,1749.34,74.00,44.60,34.95,20.00,7.00,0.00,30.22,M,10.00,M,CLR,M,M,M,M,M,M,M,M,M,M,M,M,M,M,74.00,KTMT 160355Z AUTO 02007KT 10SM CLR 23/07 A3022 RMK AO2 T02330070,M
EKO,2024-07-16 03:56,-115.7860,40.8242,1367.00,76.00,44.00,31.95,100.00,4.00,0.00,30.17,1016.10,10.00,M,CLR,M,M,M,M,M,M,M,M,M,M,M,M,M,M,76.00,KEKO 160356Z AUTO 10004KT 10SM CLR 24/07 A3017 RMK AO2 SLP161 T02440067,M
WMC,2024-07-16 03:56,-117.8072,40.9019,1315.00,78.00,42.00,27.69,360.00,5.00,0.00,30.12,1014.70,10.00,M,CLR,M,M,M,M,M,M,M,M,M,M,M,M,M,M,78.00,KWMC 160356Z AUTO 36005KT 10SM CLR 26/06 A3012 RMK AO2 SLP147 T02560056,M
HND,2024-07-16 03:56,-115.1344,35.9729,742.79,97.00,50.00,20.49,200.00,17.00,0.00,29.91,1010.80,10.00,21.00,CLR,M,M,M,M,M,M,M,M,M,M,M,M,M,M,93.91,KHND 160356Z 20017G21KT 10SM CLR 36/10 A2991 RMK AO2 SLP108 T03610100,M
TPH,2024-07-16 03:56,-117.0904,38.0505,1654.00,79.00,30.00,16.66,290.00,8.00,0.00,30.16,1012.40,10.00,M,CLR,M,M,M,M,M,M,M,M,M,M,M,M,M,M,79.00,KTPH 160356Z AUTO 29008KT 10SM CLR 26/M01 A3016 RMK AO2 SLP124 T02611011,M
LAS,2024-07-16 03:56,-115.1634,36.0719,663.00,101.00,48.00,16.85,200.00,13.00,0.00,29.85,1003.70,10.00,19.00,SCT,SCT,SCT,M,12000.00,16000.00,22000.00,M,M,M,M,M,M,M,M,97.57,KLAS 160356Z 20013G19KT 10SM SCT120 SCT160 SCT220 38/09 A2985 RMK AO2 SLP037 T03830089 $,M
BVU,2024-07-16 04:15,-114.8611,35.9475,671.00,95.00,46.40,19.04,190.00,4.00,0.00,29.88,M,10.00,M,CLR,M,M,M,M,M,M,M,M,M,M,M,M,M,M,91.29,KBVU 160415Z AUTO 19004KT 10SM CLR 35/08 A2988 RMK AO2,M
CXP,2024-07-16 04:15,-119.7326,39.1923,1431.00,77.00,46.40,33.85,190.00,7.00,0.00,30.20,M,10.00,M,SCT,M,M,M,12000.00,M,M,M,M,M,M,M,M,M,M,77.00,KCXP 160415Z AUTO 19007KT 10SM SCT120 25/08 A3020 RMK AO2,M
RTS,2024-07-16 04:15,-119.8764,39.6682,1539.00,73.40,41.00,31.05,300.00,5.00,0.00,30.22,M,10.00,M,CLR,M,M,M,M,M,M,M,M,M,M,M,M,M,M,73.40,KRTS 160415Z AUTO 30005KT 10SM CLR 23/05 A3022 RMK AO2,M
05U,2024-07-16 04:15,-116.0051,39.6042,1811.23,68.00,42.80,40.00,0.00,0.00,0.00,30.26,M,10.00,M,M,M,M,M,M,M,M,M,M,M,M,M,M,M,M,68.00,K05U 160415Z AUTO 00000KT 10SM 20/06 A3026 RMK A01,M
MEV,2024-07-16 04:15,-119.7500,38.9963,1441.42,69.80,50.00,49.37,170.00,7.00,0.00,30.19,M,10.00,M,BKN,M,M,M,12000.00,M,M,M,M,M,M,M,M,M,M,69.80,KMEV 160415Z AUTO 17007KT 10SM BKN120 21/10 A3019 RMK AO2,M
HTH,2024-07-16 04:15,-118.6315,38.5448,1282.89,80.60,42.80,26.22,0.00,0.00,0.00,30.11,M,10.00,M,CLR,M,M,M,M,M,M,M,M,M,M,M,M,M,M,79.30,KHTH 160415Z AUTO 00000KT 10SM CLR 27/06 A3011 RMK A01,M
BAM,2024-07-16 04:15,-116.8743,40.5990,1382.36,69.80,60.80,73.09,140.00,7.00,0.00,30.16,M,10.00,M,CLR,M,M,M,M,M,M,M,M,M,M,M,M,M,M,69.80,KBAM 160415Z AUTO 14007KT 10SM CLR 21/16 A3016 RMK AO1,M
TMT,2024-07-16 04:15,-117.1971,39.4643,1749.34,72.00,45.00,37.96,10.00,5.00,0.00,30.24,M,10.00,M,CLR,M,M,M,M,M,M,M,M,M,M,M,M,M,M,72.00,KTMT 160415Z AUTO 01005KT 10SM CLR 22/07 A3024 RMK AO2 T02220072,M
05U,2024-07-16 04:30,-116.0051,39.6042,1811.23,68.00,42.80,40.00,0.00,0.00,0.00,30.26,M,10.00,M,M,M,M,M,M,M,M,M,M,M,M,M,M,M,M,68.00,K05U 160430Z AUTO 00000KT 10SM 20/06 A3026 RMK A01,M
BVU,2024-07-16 04:35,-114.8611,35.9475,671.00,95.00,46.40,19.04,0.00,0.00,0.00,29.89,M,10.00,M,CLR,M,M,M,M,M,M,M,M,M,M,M,M,M,M,91.29,KBVU 160435Z AUTO 00000KT 10SM CLR 35/08 A2989 RMK AO2,M
CXP,2024-07-16 04:35,-119.7326,39.1923,1431.00,75.20,46.40,35.94,0.00,0.00,0.00,30.21,M,10.00,M,FEW,M,M,M,12000.00,M,M,M,M,M,M,M,M,M,M,75.20,KCXP 160435Z AUTO 00000KT 10SM FEW120 24/08 A3021 RMK AO2,M
RTS,2024-07-16 04:35,-119.8764,39.6682,1539.00,71.60,41.00,33.00,M,4.00,0.00,30.23,M,10.00,M,CLR,M,M,M,M,M,M,M,M,M,M,M,M,M,M,71.60,KRTS 160435Z AUTO VRB04KT 10SM CLR 22/05 A3023 RMK AO2,M
MEV,2024-07-16 04:35,-119.7500,38.9963,1441.42,69.80,50.00,49.37,170.00,8.00,0.00,30.19,M,10.00,M,OVC,M,M,M,11000.00,M,M,M,M,M,M,M,M,M,M,69.80,KMEV 160435Z AUTO 17008KT 10SM OVC110 21/10 A3019 RMK AO2,M
HTH,2024-07-16 04:35,-118.6315,38.5448,1282.89,M,M,M,M,M,0.00,M,M,M,M,M,M,M,M,M,M,M,M,M,M,M,M,M,M,M,M,KHTH 160435Z AUTO RMK A01,M
BAM,2024-07-16 04:35,-116.8743,40.5990,1382.36,68.00,59.00,72.92,160.00,6.00,0.00,30.16,M,10.00,M,CLR,M,M,M,M,M,M,M,M,M,M,M,M,M,M,68.00,KBAM 160435Z AUTO 16006KT 10SM CLR 20/15 A3016 RMK AO1,M
TMT,2024-07-16 04:35,-117.1971,39.4643,1749.34,69.00,44.60,41.41,340.00,5.00,0.00,30.24,M,10.00,M,CLR,M,M,M,M,M,M,M,M,M,M,M,M,M,M,69.00,KTMT 160435Z AUTO 34005KT 10SM CLR 21/07 A3024 RMK AO2 T02060070,M
05U,2024-07-16 04:50,-116.0051,39.6042,1811.23,68.00,41.00,37.32,0.00,0.00,0.00,30.27,M,10.00,M,M,M,M,M,M,M,M,M,M,M,M,M,M,M,M,68.00,K05U 160450Z AUTO 00000KT 10SM 20/05 A3027 RMK A01,M
P68,2024-07-16 04:53,-116.0056,39.6014,1993.00,67.00,43.00,41.72,M,6.00,0.00,30.25,1015.50,M,M,M,M,M,M,M,M,M,M,M,M,M,M,M,M,M,67.00,KP68 160453Z AUTO VRB06KT 19/06 A3025 RMK AO1 SLP155 T01940061,M
DRA,2024-07-16 04:53,-116.0278,36.6206,1009.00,88.00,41.00,19.28,0.00,0.00,0.00,29.97,1008.90,10.00,M,CLR,M,M,M,M,M,M,M,M,M,M,M,M,M,M,84.46,KDRA 160453Z AUTO 00000KT 10SM CLR 31/05 A2997 RMK AO2 SLP089 T03110050,M
ELY,2024-07-16 04:53,-114.8453,39.2950,1909.00,60.00,50.00,69.49,320.00,4.00,0.00,30.25,1013.90,10.00,M,CLR,M,M,M,M,M,M,M,M,M,M,M,M,M,M,60.00,KELY 160453Z AUTO 32004KT 10SM CLR 16/10 A3025 RMK AO2 SLP139 T01560100,M
VGT,2024-07-16 04:53,-115.1933,36.2111,667.00,100.00,49.00,18.02,180.00,6.00,0.00,29.87,1009.70,10.00,M,FEW,M,M,M,11000.00,M,M,M,M,M,M,M,M,M,M,96.77,KVGT 160453Z AUTO 18006KT 10SM FEW110 38/09 A2987 RMK AO2 SLP097 T03780094,M
LOL,2024-07-16 04:53,-118.5701,40.0684,1192.43,71.00,42.00,35.01,130.00,7.00,0.00,30.09,1014.80,10.00,M,CLR,M,M,M,M,M,M,M,M,M,M,M,M,M,M,71.00,KLOL 160453Z AUTO 13007KT 10SM CLR 22/06 A3009 RMK AO2 SLP148 T02170056,M
BVU,2024-07-16 04:55,-114.8611,35.9475,671.00,93.20,46.40,20.13,180.00,4.00,0.00,29.89,M,10.00,M,CLR,M,M,M,M,M,M,M,M,M,M,M,M,M,M,89.55,KBVU 160455Z AUTO 18004KT 10SM CLR 34/08 A2989 RMK AO2,M
CXP,2024-07-16 04:55,-119.7326,39.1923,1431.00,75.20,46.40,35.94,M,4.00,0.00,30.21,M,10.00,M,CLR,M,M,M,M,M,M,M,M,M,M,M,M,M,M,75.20,KCXP 160455Z AUTO VRB04KT 10SM CLR 24/08 A3021 RMK AO2,M
RNO,2024-07-16 04:55,-119.7711,39.4839,1341.00,80.00,45.00,29.08,270.00,5.00,0.00,30.17,1015.40,10.00,M,SCT,M,M,M,14000.00,M,M,M,M,M,M,M,M,M,M,79.13,KRNO 160455Z 27005KT 10SM SCT140 27/07 A3017 RMK AO2 SLP154 T02670072,M
LSV,2024-07-16 04:55,-115.0343,36.2362,570.00,100.00,44.00,14.92,200.00,14.00,0.00,29.81,1006.10,10.00,M,FEW,BKN,M,M,16000.00,19000.00,M,M,M,M,M,M,M,M,M,95.83,KLSV 160455Z 20014KT 10SM FEW160 BKN190 38/07 A2981 RMK AO2A SLP061 T03780067 $,M
RTS,2024-07-16 04:55,-119.8764,39.6682,1539.00,68.00,41.00,37.32,310.00,5.00,0.00,30.22,M,10.00,M,CLR,M,M,M,M,M,M,M,M,M,M,M,M,M,M,68.00,KRTS 160455Z AUTO 31005KT 10SM CLR 20/05 A3022 RMK AO2,M
MEV,2024-07-16 04:55,-119.7500,38.9963,1441.42,69.80,50.00,49.37,190.00,7.00,0.00,30.20,M,10.00,M,OVC,M,M,M,11000.00,M,M,M,M,M,M,M,M,M,M,69.80,KMEV 160455Z AUTO 19007KT 10SM OVC110 21/10 A3020 RMK AO2,M
BAM,2024-07-16 04:55,-116.8743,40.5990,1382.36,66.20,55.40,68.15,150.00,3.00,0.00,30.16,M,10.00,M,CLR,M,M,M,M,M,M,M,M,M,M,M,M,M,M,66.20,KBAM 160455Z AUTO 15003KT 10SM CLR 19/13 A3016 RMK AO1,M
HTH,2024-07-16 04:55,-118.6315,38.5448,1282.89,82.40,41.00,23.07,M,3.00,0.00,30.12,M,10.00,M,M,M,M,M,M,M,M,M,M,M,M,M,M,M,M,80.29,KHTH 160455Z AUTO VRB03KT 10SM 28/05 A3012 RMK A01,M
TMT,2024-07-16 04:55,-117.1971,39.4643,1749.34,66.00,44.00,44.88,120.00,4.00,0.00,30.25,M,10.00,M,CLR,M,M,M,M,M,M,M,M,M,M,M,M,M,M,66.00,KTMT 160455Z AUTO 12004KT 10SM CLR 19/07 A3025 RMK AO2 T01890066,M
INS,2024-07-16 04:55,-115.6733,36.5872,955.00,92.30,39.60,15.95,230.00,5.00,0.00,29.95,1007.80,10.00,M,SCT,M,M,M,16000.00,M,M,M,M,M,M,M,M,M,M,88.13,KINS 160455Z AUTO 23005KT 10SM SCT160 34/04 A2995 RMK AO2 SLP078 T03350042 $,M
EKO,2024-07-16 04:56,-115.7860,40.8242,1367.00,74.00,45.00,35.48,90.00,4.00,0.00,30.18,1015.90,10.00,M,CLR,M,M,M,M,M,M,M,M,M,M,M,M,M,M,74.00,KEKO 160456Z AUTO 09004KT 10SM CLR 23/07 A3018 RMK AO2 SLP159 T02330072,M
WMC,2024-07-16 04:56,-117.8072,40.9019,1315.00,67.00,39.00,35.74,240.00,5.00,0.00,30.13,1015.30,10.00,M,CLR,M,M,M,M,M,M,M,M,M,M,M,M,M,M,67.00,KWMC 160456Z AUTO 24005KT 10SM CLR 19/04 A3013 RMK AO2 SLP153 T01940039,M
HND,2024-07-16 04:56,-115.1344,35.9729,742.79,95.00,50.00,21.79,200.00,14.00,0.00,29.93,1011.20,10.00,M,CLR,M,M,M,M,M,M,M,M,M,M,M,M,M,M,91.89,KHND 160456Z 20014KT 10SM CLR 35/10 A2993 RMK AO2 SLP112 T03500100,M
TPH,2024-07-16 04:56,-117.0904,38.0505,1654.00,78.00,31.00,17.93,280.00,4.00,0.00,30.17,1012.20,10.00,M,CLR,M,M,M,M,M,M,M,M,M,M,M,M,M,M,78.00,KTPH 160456Z AUTO 28004KT 10SM CLR 26/M01 A3017 RMK AO2 SLP122 T02561006,M
LAS,2024-07-16 04:56,-115.1634,36.0719,663.00,99.00,48.00,17.90,200.00,10.00,0.00,29.88,1004.80,10.00,16.00,FEW,BKN,BKN,M,12000.00,16000.00,22000.00,M,M,M,M,M,M,M,M,95.54,KLAS 160456Z 20010G16KT 10SM FEW120 BKN160 BKN220 37/09 A2988 RMK AO2 PRESRR SLP048 T03720089 $,M
05U,2024-07-16 05:10,-116.0051,39.6042,1811.23,68.00,41.00,37.32,0.00,0.00,0.00,30.27,M,10.00,M,M,M,M,M,M,M,M,M,M,M,M,M,M,M,M,68.00,K05U 160510Z AUTO 00000KT 10SM 20/05 A3027 RMK A01,M
BVU,2024-07-16 05:15,-114.8611,35.9475,671.00,93.20,46.40,20.13,160.00,5.00,0.00,29.89,M,10.00,M,CLR,M,M,M,M,M,M,M,M,M,M,M,M,M,M,89.55,KBVU 160515Z AUTO 16005KT 10SM CLR 34/08 A2989 RMK AO2,M
CXP,2024-07-16 05:15,-119.7326,39.1923,1431.00,75.20,46.40,35.94,0.00,0.00,0.00,30.21,M,10.00,M,FEW,FEW,SCT,M,4200.00,5500.00,6500.00,M,M,M,M,M,M,M,M,75.20,KCXP 160515Z AUTO 00000KT 10SM FEW042 FEW055 SCT065 24/08 A3021 RMK AO2,M
RTS,2024-07-16 05:15,-119.8764,39.6682,1539.00,69.80,41.00,35.09,350.00,4.00,0.00,30.22,M,10.00,M,CLR,M,M,M,M,M,M,M,M,M,M,M,M,M,M,69.80,KRTS 160515Z AUTO 35004KT 10SM CLR 21/05 A3022 RMK AO2,M
MEV,2024-07-16 05:15,-119.7500,38.9963,1441.42,68.00,51.80,56.13,180.00,4.00,0.00,30.20,M,10.00,M,BKN,M,M,M,11000.00,M,M,M,M,M,M,M,M,M,M,68.00,KMEV 160515Z AUTO 18004KT 10SM BKN110 20/11 A3020 RMK AO2,M
BAM,2024-07-16 05:15,-116.8743,40.5990,1382.36,64.40,55.40,72.56,140.00,7.00,0.00,30.16,M,10.00,M,CLR,M,M,M,M,M,M,M,M,M,M,M,M,M,M,64.40,KBAM 160515Z AUTO 14007KT 10SM CLR 18/13 A3016 RMK AO1,M
HTH,2024-07-16 05:15,-118.6315,38.5448,1282.89,82.40,41.00,23.07,0.00,0.00,0.00,30.12,M,10.00,M,M,M,M,M,M,M,M,M,M,M,M,M,M,M,M,80.29,KHTH 160515Z AUTO 00000KT 10SM 28/05 A3012 RMK A01,M
TMT,2024-07-16 05:15,-117.1971,39.4643,1749.34,68.00,44.60,42.85,110.00,3.00,0.00,30.25,M,10.00,M,CLR,M,M,M,M,M,M,M,M,M,M,M,M,M,M,68.00,KTMT 160515Z AUTO 11003KT 10SM CLR 20/07 A3025 RMK AO2 T02010070,M
BVU,2024-07-16 05:35,-114.8611,35.9475,671.00,93.20,46.40,20.13,180.00,6.00,0.00,29.88,M,10.00,M,CLR,M,M,M,M,M,M,M,M,M,M,M,M,M,M,89.55,KBVU 160535Z AUTO 18006KT 10SM CLR 34/08 A2988 RMK AO2,M
CXP,2024-07-16 05:35,-119.7326,39.1923,1431.00,75.20,48.20,38.46,240.00,3.00,0.00,30.21,M,10.00,M,FEW,FEW,BKN,M,5500.00,7000.00,12000.00,M,M,M,M,M,M,M,M,75.20,KCXP 160535Z AUTO 24003KT 10SM FEW055 FEW070 BKN120 24/09 A3021 RMK AO2,M
RTS,2024-07-16 05:35,-119.8764,39.6682,1539.00,66.20,39.20,37.03,320.00,5.00,0.00,30.22,M,10.00,M,CLR,M,M,M,M,M,M,M,M,M,M,M,M,M,M,66.20,KRTS 160535Z AUTO 32005KT 10SM CLR 19/04 A3022 RMK AO2,M
05U,2024-07-16 05:35,-116.0051,39.6042,1811.23,62.60,41.00,45.04,0.00,0.00,0.00,30.27,M,10.00,M,M,M,M,M,M,M,M,M,M,M,M,M,M,M,M,62.60,K05U 160535Z AUTO 00000KT 10SM 17/05 A3027 RMK A01,M
MEV,2024-07-16 05:35,-119.7500,38.9963,1441.42,68.00,50.00,52.51,140.00,5.00,0.00,30.20,M,10.00,M,BKN,M,M,M,12000.00,M,M,M,M,M,M,M,M,M,M,68.00,KMEV 160535Z AUTO 14005KT 10SM BKN120 20/10 A3020 RMK AO2,M
BAM,2024-07-16 05:35,-116.8743,40.5990,1382.36,64.40,53.60,67.95,140.00,6.00,0.00,30.16,M,10.00,M,CLR,M,M,M,M,M,M,M,M,M,M,M,M,M,M,64.40,KBAM 160535Z AUTO 14006KT 10SM CLR 18/12 A3016 RMK AO1,M
HTH,2024-07-16 05:35,-118.6315,38.5448,1282.89,80.60,42.80,26.22,0.00,0.00,0.00,30.13,M,10.00,M,M,M,M,M,M,M,M,M,M,M,M,M,M,M,M,79.30,KHTH 160535Z AUTO 00000KT 10SM 27/06 A3013 RMK A01,M
TMT,2024-07-16 05:35,-117.1971,39.4643,1749.34,65.70,45.30,47.65,40.00,3.00,0.00,30.25,M,10.00,M,CLR,M,M,M,M,M,M,M,M,M,M,M,M,M,M,65.70,KTMT 160535Z AUTO 04003KT 10SM CLR 19/07 A3025 RMK AO2 T01870074,M
DRA,2024-07-16 05:53,-116.0278,36.6206,1009.00,85.00,42.00,22.05,50.00,3.00,0.00,29.97,1009.20,10.00,M,CLR,M,M,M,M,M,M,M,M,M,M,M,M,M,M,82.15,KDRA 160553Z AUTO 05003KT 10SM CLR 29/06 A2997 RMK AO2 SLP092 T02940056 10389 20294 51009,M
ELY,2024-07-16 05:53,-114.8453,39.2950,1909.00,67.00,47.00,48.58,10.00,11.00,0.00,30.25,1013.40,10.00,M,CLR,M,M,M,M,M,M,M,M,M,M,M,M,M,M,67.00,KELY 160553Z AUTO 01011KT 10SM CLR 19/08 A3025 RMK AO2 SLP134 60015 T01940083 10289 20150 51012,M
VGT,2024-07-16 05:53,-115.1933,36.2111,667.00,98.00,48.00,18.45,210.00,5.00,0.00,29.87,1009.60,10.00,M,CLR,M,M,M,M,M,M,M,M,M,M,M,M,M,M,94.53,KVGT 160553Z AUTO 21005KT 10SM CLR 37/09 A2987 RMK AO2 SLP096 T03670089 10417 20367 50008,M
LOL,2024-07-16 05:53,-118.5701,40.0684,1192.43,75.00,41.00,29.43,100.00,3.00,0.00,30.09,1014.30,10.00,M,CLR,M,M,M,M,M,M,M,M,M,M,M,M,M,M,75.00,KLOL 160553Z AUTO 10003KT 10SM CLR 24/05 A3009 RMK AO2 SLP143 60000 T02390050 10322 20217 51010,M
BVU,2024-07-16 05:55,-114.8611,35.9475,671.00,91.40,46.40,21.29,0.00,0.00,0.00,29.88,M,10.00,M,CLR,M,M,M,M,M,M,M,M,M,M,M,M,M,M,87.86,KBVU 160555Z AUTO 00000KT 10SM CLR 33/08 A2988 RMK AO2,M
CXP,2024-07-16 05:55,-119.7326,39.1923,1431.00,73.40,48.20,40.85,210.00,5.00,0.00,30.21,M,10.00,M,SCT,M,M,M,12000.00,M,M,M,M,M,M,M,M,M,M,73.40,KCXP 160555Z AUTO 21005KT 10SM SCT120 23/09 A3021 RMK AO2,M
INS,2024-07-16 05:55,-115.6733,36.5872,955.00,89.00,40.00,17.96,250.00,9.00,0.00,29.95,1007.90,10.00,M,FEW,M,M,M,16000.00,M,M,M,M,M,M,M,M,M,M,85.26,KINS 160555Z AUTO 25009KT 10SM FEW160 32/04 A2995 RMK AO2 SLP079 T03170044 10392 20312 50008 $,M
RNO,2024-07-16 05:55,-119.7711,39.4839,1341.00,77.00,46.00,33.34,240.00,3.00,0.00,30.17,1015.30,10.00,M,SCT,M,M,M,14000.00,M,M,M,M,M,M,M,M,M,M,77.00,KRNO 160555Z 24003KT 10SM SCT140 25/08 A3017 RMK AO2 SLP153 T02500078 10306 20250 51006,M
RTS,2024-07-16 05:55,-119.8764,39.6682,1539.00,68.00,41.00,37.32,350.00,8.00,0.00,30.22,M,10.00,M,CLR,M,M,M,M,M,M,M,M,M,M,M,M,M,M,68.00,KRTS 160555Z AUTO 35008KT 10SM CLR 20/05 A3022 RMK AO2,M
05U,2024-07-16 05:55,-116.0051,39.6042,1811.23,M,M,M,0.00,0.00,0.00,30.27,M,10.00,M,M,M,M,M,M,M,M,M,M,M,M,M,M,M,M,M,K05U 160555Z AUTO 00000KT 10SM A3027 RMK A01,M
MEV,2024-07-16 05:55,-119.7500,38.9963,1441.42,66.20,50.00,55.88,150.00,3.00,0.00,30.20,M,10.00,M,BKN,M,M,M,12000.00,M,M,M,M,M,M,M,M,M,M,66.20,KMEV 160555Z AUTO 15003KT 10SM BKN120 19/10 A3020 RMK AO2,M
BAM,2024-07-16 05:55,-116.8743,40.5990,1382.36,64.40,53.60,67.95,140.00,6.00,0.00,30.15,M,10.00,M,CLR,M,M,M,M,M,M,M,M,M,M,M,M,M,M,64.40,KBAM 160555Z AUTO 14006KT 10SM CLR 18/12 A3015 RMK AO1,M
HTH,2024-07-16 05:55,-118.6315,38.5448,1282.89,78.80,46.40,31.90,0.00,0.00,0.00,30.13,M,10.00,M,CLR,M,M,M,M,M,M,M,M,M,M,M,M,M,M,78.80,KHTH 160555Z AUTO 00000KT 10SM CLR 26/08 A3013 RMK A01,M
TMT,2024-07-16 05:55,-117.1971,39.4643,1749.34,64.00,44.00,48.12,0.00,0.00,0.00,30.25,M,10.00,M,CLR,M,M,M,M,M,M,M,M,M,M,M,M,M,M,64.00,KTMT 160555Z AUTO 00000KT 10SM CLR 18/07 A3025 RMK AO2 T01780066 10308 20178,M
LSV,2024-07-16 05:55,-115.0343,36.2362,570.00,98.20,44.20,15.88,190.00,10.00,0.00,29.81,1006.10,10.00,M,FEW,FEW,SCT,M,15000.00,19000.00,21000.00,M,M,M,M,M,M,M,M,94.10,KLSV 160555Z AUTO 19010KT 10SM FEW150 FEW190 SCT210 37/07 A2981 RMK AO2 SLP061 T03680068 10417 20368 50011 $,M
EKO,2024-07-16 05:56,-115.7860,40.8242,1367.00,70.00,46.00,42.20,0.00,0.00,0.00,30.18,1015.70,10.00,M,CLR,M,M,M,M,M,M,M,M,M,M,M,M,M,M,70.00,KEKO 160556Z AUTO 00000KT 10SM CLR 21/08 A3018 RMK AO2 SLP157 T02110078 10311 20211 50005,M
WMC,2024-07-16 05:56,-117.8072,40.9019,1315.00,67.00,40.00,37.16,330.00,4.00,0.00,30.12,1015.00,10.00,M,CLR,M,M,M,M,M,M,M,M,M,M,M,M,M,M,67.00,KWMC 160556Z AUTO 33004KT 10SM CLR 19/04 A3012 RMK AO2 SLP150 T01940044 10339 20189 50006,M
HND,2024-07-16 05:56,-115.1344,35.9729,742.79,93.00,50.00,23.18,180.00,9.00,0.00,29.93,1011.40,10.00,M,CLR,M,M,M,M,M,M,M,M,M,M,M,M,M,M,89.90,KHND 160556Z 18009KT 10SM CLR 34/10 A2993 RMK AO2 SLP114 T03390100 10400 20339 51010,M
TPH,2024-07-16 05:56,-117.0904,38.0505,1654.00,79.00,31.00,17.35,290.00,5.00,0.00,30.16,1011.80,10.00,M,CLR,M,M,M,M,M,M,M,M,M,M,M,M,M,M,79.00,KTPH 160556Z AUTO 29005KT 10SM CLR 26/M01 A3016 RMK AO2 SLP118 T02611006 10322 20239 50004,M
LAS,2024-07-16 05:56,-115.1634,36.0719,663.00,98.00,47.00,17.77,210.00,6.00,0.00,29.88,1004.70,10.00,M,FEW,SCT,BKN,M,12000.00,16000.00,22000.00,M,M,M,M,M,M,M,M,94.34,KLAS 160556Z 21006KT 10SM FEW120 SCT160 BKN220 37/08 A2988 RMK AO2 SLP047 T03670083 10417 20367 52009 $,M
BVU,2024-07-16 06:15,-114.8611,35.9475,671.00,89.60,50.00,25.79,0.00,0.00,0.00,29.89,M,10.00,M,CLR,M,M,M,M,M,M,M,M,M,M,M,M,M,M,86.70,KBVU 160615Z AUTO 00000KT 10SM CLR 32/10 A2989 RMK AO2,M
CXP,2024-07-16 06:15,-119.7326,39.1923,1431.00,73.40,48.20,40.85,0.00,0.00,0.00,30.21,M,10.00,M,FEW,M,M,M,12000.00,M,M,M,M,M,M,M,M,M,M,73.40,KCXP 160615Z AUTO 00000KT 10SM FEW120 23/09 A3021 RMK AO2,M
RTS,2024-07-16 06:15,-119.8764,39.6682,1539.00,66.20,41.00,39.72,330.00,7.00,0.00,30.22,M,10.00,M,CLR,M,M,M,M,M,M,M,M,M,M,M,M,M,M,66.20,KRTS 160615Z AUTO 33007KT 10SM CLR 19/05 A3022 RMK AO2,M
05U,2024-07-16 06:15,-116.0051,39.6042,1811.23,60.80,39.20,44.76,0.00,0.00,0.00,30.27,M,10.00,M,M,M,M,M,M,M,M,M,M,M,M,M,M,M,M,60.80,K05U 160615Z AUTO 00000KT 10SM 16/04 A3027 RMK A01,M
MEV,2024-07-16 06:15,-119.7500,38.9963,1441.42,68.00,50.00,52.51,0.00,0.00,0.00,30.20,M,10.00,M,SCT,M,M,M,11000.00,M,M,M,M,M,M,M,M,M,M,68.00,KMEV 160615Z AUTO 00000KT 10SM SCT110 20/10 A3020 RMK AO2,M
BAM,2024-07-16 06:15,-116.8743,40.5990,1382.36,64.40,53.60,67.95,130.00,7.00,0.00,30.16,M,10.00,M,CLR,M,M,M,M,M,M,M,M,M,M,M,M,M,M,64.40,KBAM 160615Z AUTO 13007KT 10SM CLR 18/12 A3016 RMK AO1,M
HTH,2024-07-16 06:15,-118.6315,38.5448,1282.89,77.00,48.20,36.22,250.00,5.00,0.00,30.13,M,10.00,M,CLR,M,M,M,M,M,M,M,M,M,M,M,M,M,M,77.00,KHTH 160615Z AUTO 25005KT 10SM CLR 25/09 A3013 RMK A01,M
TMT,2024-07-16 06:15,-117.1971,39.4643,1749.34,60.00,43.00,53.34,150.00,4.00,0.00,30.25,M,10.00,M,CLR,M,M,M,M,M,M,M,M,M,M,M,M,M,M,60.00,KTMT 160615Z AUTO 15004KT 10SM CLR 16/06 A3025 RMK AO2 T01560061,M
05U,2024-07-16 06:30,-116.0051,39.6042,1811.23,60.80,41.00,48.00,0.00,0.00,0.00,30.28,M,10.00,M,M,M,M,M,M,M,M,M,M,M,M,M,M,M,M,60.80,K05U 160630Z AUTO 00000KT 10SM 16/05 A3028 RMK A01,M
BVU,2024-07-16 06:35,-114.8611,35.9475,671.00,91.40,46.40,21.29,0.00,0.00,0.00,29.89,M,10.00,M,CLR,M,M,M,M,M,M,M,M,M,M,M,M,M,M,87.86,KBVU 160635Z AUTO 00000KT 10SM CLR 33/08 A2989 RMK AO2,M
CXP,2024-07-16 06:35,-119.7326,39.1923,1431.00,71.60,48.20,43.42,230.00,4.00,0.00,30.21,M,10.00,M,FEW,M,M,M,12000.00,M,M,M,M,M,M,M,M,M,M,71.60,KCXP 160635Z AUTO 23004KT 10SM FEW120 22/09 A3021 RMK AO2,M
RTS,2024-07-16 06:35,-119.8764,39.6682,1539.00,64.40,41.00,42.28,340.00,7.00,0.00,30.22,M,10.00,M,CLR,M,M,M,M,M,M,M,M,M,M,M,M,M,M,64.40,KRTS 160635Z AUTO 34007KT 10SM CLR 18/05 A3022 RMK AO2,M
MEV,2024-07-16 06:35,-119.7500,38.9963,1441.42,66.20,50.00,55.88,0.00,0.00,0.00,30.20,M,9.00,M,FEW,M,M,M,12000.00,M,M,M,M,M,M,M,M,M,M,66.20,KMEV 160635Z AUTO 00000KT 9SM FEW120 19/10 A3020 RMK AO2,M
HTH,2024-07-16 06:35,-118.6315,38.5448,1282.89,78.80,46.40,31.90,270.00,5.00,0.00,30.13,M,10.00,M,CLR,M,M,M,M,M,M,M,M,M,M,M,M,M,M,78.80,KHTH 160635Z AUTO 27005KT 10SM CLR 26/08 A3013 RMK A01,M
BAM,2024-07-16 06:35,-116.8743,40.5990,1382.36,64.40,53.60,67.95,140.00,6.00,0.00,30.16,M,10.00,M,CLR,M,M,M,M,M,M,M,M,M,M,M,M,M,M,64.40,KBAM 160635Z AUTO 14006KT 10SM CLR 18/12 A3016 RMK AO1,M
TMT,2024-07-16 06:35,-117.1971,39.4643,1749.34,59.00,42.80,54.86,0.00,0.00,0.00,30.25,M,10.00,M,CLR,M,M,M,M,M,M,M,M,M,M,M,M,M,M,59.00,KTMT 160635Z AUTO 00000KT 10SM CLR 15/06 A3025 RMK AO2 T01500060,M
P68,2024-07-16 06:53,-116.0056,39.6014,1993.00,59.00,43.00,55.28,120.00,5.00,0.00,30.25,1016.00,M,M,M,M,M,M,M,M,M,M,M,M,M,M,M,M,M,59.00,KP68 160653Z AUTO 12005KT 15/06 A3025 RMK AO1 SLP160 T01500061,M
DRA,2024-07-16 06:53,-116.0278,36.6206,1009.00,86.00,43.00,22.19,0.00,0.00,0.00,29.98,1009.20,10.00,M,CLR,M,M,M,M,M,M,M,M,M,M,M,M,M,M,82.97,KDRA 160653Z AUTO 00000KT 10SM CLR 30/06 A2998 RMK AO2 SLP092 T03000061,M
ELY,2024-07-16 06:53,-114.8453,39.2950,1909.00,65.00,46.00,50.14,10.00,5.00,0.00,30.26,1013.40,10.00,M,CLR,M,M,M,M,M,M,M,M,M,M,M,M,M,M,65.00,KELY 160653Z AUTO 01005KT 10SM CLR 18/08 A3026 RMK AO2 SLP134 T01830078,M
VGT,2024-07-16 06:53,-115.1933,36.2111,667.00,98.00,47.00,17.77,190.00,8.00,0.00,29.87,1009.60,10.00,M,CLR,M,M,M,M,M,M,M,M,M,M,M,M,M,M,94.34,KVGT 160653Z AUTO 19008KT 10SM CLR 37/08 A2987 RMK AO2 SLP096 T03670083,M
LOL,2024-07-16 06:53,-118.5701,40.0684,1192.43,68.00,44.00,41.88,270.00,3.00,0.00,30.10,1014.90,10.00,M,FEW,M,M,M,12000.00,M,M,M,M,M,M,M,M,M,M,68.00,KLOL 160653Z AUTO 27003KT 10SM FEW120 20/07 A3010 RMK AO2 SLP149 T02000067,M
BVU,2024-07-16 06:55,-114.8611,35.9475,671.00,89.60,48.20,24.11,0.00,0.00,0.00,29.89,M,10.00,M,CLR,M,M,M,M,M,M,M,M,M,M,M,M,M,M,86.44,KBVU 160655Z AUTO 00000KT 10SM CLR 32/09 A2989 RMK AO2,M
CXP,2024-07-16 06:55,-119.7326,39.1923,1431.00,71.60,48.20,43.42,240.00,3.00,0.00,30.21,M,10.00,M,FEW,M,M,M,12000.00,M,M,M,M,M,M,M,M,M,M,71.60,KCXP 160655Z AUTO 24003KT 10SM FEW120 22/09 A3021 RMK AO2,M
INS,2024-07-16 06:55,-115.6733,36.5872,955.00,88.50,39.60,17.97,110.00,3.00,0.00,29.96,1008.30,10.00,M,CLR,M,M,M,M,M,M,M,M,M,M,M,M,M,M,84.82,KINS 160655Z AUTO 11003KT 10SM CLR 31/04 A2996 RMK AO2 SLP083 T03140042 $,M
RNO,2024-07-16 06:55,-119.7711,39.4839,1341.00,76.00,47.00,35.80,270.00,9.00,0.00,30.16,1014.90,10.00,M,FEW,BKN,M,M,13000.00,16000.00,M,M,M,M,M,M,M,M,M,76.00,KRNO 160655Z 27009KT 10SM FEW130 BKN160 24/08 A3016 RMK AO2 SLP149 T02440083,M
RTS,2024-07-16 06:55,-119.8764,39.6682,1539.00,64.40,41.00,42.28,350.00,7.00,0.00,30.22,M,10.00,M,CLR,M,M,M,M,M,M,M,M,M,M,M,M,M,M,64.40,KRTS 160655Z AUTO 35007KT 10SM CLR 18/05 A3022 RMK AO2,M
05U,2024-07-16 06:55,-116.0051,39.6042,1811.23,59.00,42.80,54.86,0.00,0.00,0.00,30.28,M,10.00,M,M,M,M,M,M,M,M,M,M,M,M,M,M,M,M,59.00,K05U 160655Z AUTO 00000KT 10SM 15/06 A3028 RMK A01,M
MEV,2024-07-16 06:55,-119.7500,38.9963,1441.42,66.20,50.00,55.88,0.00,0.00,0.00,30.20,M,8.00,M,FEW,M,M,M,11000.00,M,M,M,M,M,M,M,M,M,M,66.20,KMEV 160655Z AUTO 00000KT 8SM FEW110 19/10 A3020 RMK AO2,M
HTH,2024-07-16 06:55,-118.6315,38.5448,1282.89,77.00,46.40,33.85,230.00,5.00,0.00,30.13,M,10.00,M,CLR,M,M,M,M,M,M,M,M,M,M,M,M,M,M,77.00,KHTH 160655Z AUTO 23005KT 10SM CLR 25/08 A3013 RMK A01,M
BAM,2024-07-16 06:55,-116.8743,40.5990,1382.36,64.40,55.40,72.56,280.00,3.00,0.00,30.16,M,10.00,M,CLR,M,M,M,M,M,M,M,M,M,M,M,M,M,M,64.40,KBAM 160655Z AUTO 28003KT 10SM CLR 18/13 A3016 RMK AO1,M
TMT,2024-07-16 06:55,-117.1971,39.4643,1749.34,55.60,41.50,58.98,240.00,3.00,0.00,30.26,M,10.00,M,CLR,M,M,M,M,M,M,M,M,M,M,M,M,M,M,55.60,KTMT 160655Z AUTO 24003KT 10SM CLR 13/05 A3026 RMK AO2 T01310053,M
LSV,2024-07-16 06:55,-115.0343,36.2362,570.00,98.00,44.00,15.86,190.00,10.00,0.00,29.81,1006.00,10.00,M,CLR,M,M,M,M,M,M,M,M,M,M,M,M,M,M,93.88,KLSV 160655Z AUTO 19010KT 10SM CLR 37/07 A2981 RMK AO2 SLP060 T03660067 $,M
EKO,2024-07-16 06:56,-115.7860,40.8242,1367.00,68.00,45.00,43.51,70.00,3.00,0.00,30.19,1015.90,10.00,M,CLR,M,M,M,M,M,M,M,M,M,M,M,M,M,M,68.00,KEKO 160656Z AUTO 07003KT 10SM CLR 20/07 A3019 RMK AO2 SLP159 T02000072,M
WMC,2024-07-16 06:56,-117.8072,40.9019,1315.00,62.00,39.00,42.56,210.00,4.00,0.00,30.13,1015.30,10.00,M,CLR,M,M,M,M,M,M,M,M,M,M,M,M,M,M,62.00,KWMC 160656Z AUTO 21004KT 10SM CLR 17/04 A3013 RMK AO2 SLP153 T01670039,M
HND,2024-07-16 06:56,-115.1344,35.9729,742.79,92.00,49.00,23.04,190.00,9.00,0.00,29.94,1011.50,10.00,M,CLR,M,M,M,M,M,M,M,M,M,M,M,M,M,M,88.77,KHND 160656Z 19009KT 10SM CLR 33/09 A2994 RMK AO2 SLP115 T03330094 404220289,M
TPH,2024-07-16 06:56,-117.0904,38.0505,1654.00,75.00,37.00,25.17,290.00,10.00,0.00,30.17,1012.50,10.00,M,CLR,M,M,M,M,M,M,M,M,M,M,M,26.00,280.00,2024-07-16 06:27,75.00,KTPH 160656Z AUTO 29010KT 10SM CLR 24/03 A3017 RMK AO2 PK WND 28026/0627 SLP125 T02390028,M
LAS,2024-07-16 06:56,-115.1634,36.0719,663.00,99.00,46.00,16.60,210.00,6.00,0.00,29.89,1005.10,10.00,M,SCT,BKN,M,M,16000.00,21000.00,M,M,M,M,M,M,M,M,M,95.17,KLAS 160656Z 21006KT 10SM SCT160 BKN210 37/08 A2989 RMK AO2 SLP051 T03720078 $,M
BVU,2024-07-16 07:15,-114.8611,35.9475,671.00,87.80,48.20,25.52,0.00,0.00,0.00,29.89,M,10.00,M,CLR,M,M,M,M,M,M,M,M,M,M,M,M,M,M,84.87,KBVU 160715Z AUTO 00000KT 10SM CLR 31/09 A2989 RMK AO2,M
CXP,2024-07-16 07:15,-119.7326,39.1923,1431.00,71.60,48.20,43.42,0.00,0.00,0.00,30.21,M,10.00,M,FEW,FEW,M,M,6000.00,11000.00,M,M,M,M,M,M,M,M,M,71.60,KCXP 160715Z AUTO 00000KT 10SM FEW060 FEW110 22/09 A3021 RMK AO2,M
RTS,2024-07-16 07:15,-119.8764,39.6682,1539.00,64.40,41.00,42.28,340.00,7.00,0.00,30.22,M,10.00,M,CLR,M,M,M,M,M,M,M,M,M,M,M,M,M,M,64.40,KRTS 160715Z AUTO 34007KT 10SM CLR 18/05 A3022 RMK AO2,M
05U,2024-07-16 07:15,-116.0051,39.6042,1811.23,59.00,41.00,51.18,0.00,0.00,0.00,30.28,M,10.00,M,M,M,M,M,M,M,M,M,M,M,M,M,M,M,M,59.00,K05U 160715Z AUTO 00000KT 10SM 15/05 A3028 RMK A01,M
MEV,2024-07-16 07:15,-119.7500,38.9963,1441.42,64.40,50.00,59.50,170.00,4.00,0.00,30.20,M,10.00,M,CLR,M,M,M,M,M,M,M,M,M,M,M,M,M,M,64.40,KMEV 160715Z AUTO 17004KT 10SM CLR 18/10 A3020 RMK AO2,M
BAM,2024-07-16 07:15,-116.8743,40.5990,1382.36,62.60,55.40,77.29,0.00,0.00,0.00,30.16,M,10.00,M,CLR,M,M,M,M,M,M,M,M,M,M,M,M,M,M,62.60,KBAM 160715Z AUTO 00000KT 10SM CLR 17/13 A3016 RMK AO1,M
HTH,2024-07-16 07:15,-118.6315,38.5448,1282.89,77.00,46.40,33.85,240.00,5.00,0.00,30.13,M,10.00,M,CLR,M,M,M,M,M,M,M,M,M,M,M,M,M,M,77.00,KHTH 160715Z AUTO 24005KT 10SM CLR 25/08 A3013 RMK A01,M
TMT,2024-07-16 07:15,-117.1971,39.4643,1749.34,55.20,43.00,63.40,220.00,5.00,0.00,30.26,M,10.00,M,CLR,M,M,M,M,M,M,M,M,M,M,M,M,M,M,55.20,KTMT 160715Z AUTO 22005KT 10SM CLR 13/06 A3026 RMK AO2 T01290062,M
BVU,2024-07-16 07:35,-114.8611,35.9475,671.00,89.60,46.40,22.53,200.00,4.00,0.00,29.89,M,10.00,M,CLR,M,M,M,M,M,M,M,M,M,M,M,M,M,M,86.24,KBVU 160735Z AUTO 20004KT 10SM CLR 32/08 A2989 RMK AO2,M
CXP,2024-07-16 07:35,-119.7326,39.1923,1431.00,69.80,50.00,49.37,270.00,3.00,0.00,30.21,M,10.00,M,FEW,M,M,M,12000.00,M,M,M,M,M,M,M,M,M,M,69.80,KCXP 160735Z AUTO 27003KT 10SM FEW120 21/10 A3021 RMK AO2,M
RTS,2024-07-16 07:35,-119.8764,39.6682,1539.00,64.40,41.00,42.28,360.00,8.00,0.00,30.21,M,10.00,M,FEW,M,M,M,12000.00,M,M,M,M,M,M,M,M,M,M,64.40,KRTS 160735Z AUTO 36008KT 10SM FEW120 18/05 A3021 RMK AO2,M
05U,2024-07-16 07:35,-116.0051,39.6042,1811.23,57.20,39.20,50.91,0.00,0.00,0.00,30.27,M,10.00,M,M,M,M,M,M,M,M,M,M,M,M,M,M,M,M,57.20,K05U 160735Z AUTO 00000KT 10SM 14/04 A3027 RMK A01,M
MEV,2024-07-16 07:35,-119.7500,38.9963,1441.42,62.60,51.80,67.75,120.00,5.00,0.00,30.20,M,10.00,M,FEW,M,M,M,4900.00,M,M,M,M,M,M,M,M,M,M,62.60,KMEV 160735Z AUTO 12005KT 10SM FEW049 17/11 A3020 RMK AO2,M
HTH,2024-07-16 07:35,-118.6315,38.5448,1282.89,77.00,48.20,36.22,240.00,5.00,0.00,30.13,M,10.00,M,CLR,M,M,M,M,M,M,M,M,M,M,M,M,M,M,77.00,KHTH 160735Z AUTO 24005KT 10SM CLR 25/09 A3013 RMK A01,M
BAM,2024-07-16 07:35,-116.8743,40.5990,1382.36,64.40,55.40,72.56,0.00,0.00,0.00,30.16,M,10.00,M,CLR,M,M,M,M,M,M,M,M,M,M,M,M,M,M,64.40,KBAM 160735Z AUTO 00000KT 10SM CLR 18/13 A3016 RMK AO1,M
TMT,2024-07-16 07:35,-117.1971,39.4643,1749.34,57.00,45.00,64.12,210.00,6.00,0.00,30.25,M,10.00,M,CLR,M,M,M,M,M,M,M,M,M,M,M,M,M,M,57.00,KTMT 160735Z AUTO 21006KT 10SM CLR 14/07 A3025 RMK AO2 T01390072,M
P68,2024-07-16 07:53,-116.0056,39.6014,1993.00,60.00,40.00,47.51,180.00,5.00,0.00,30.25,1015.50,M,M,M,M,M,M,M,M,M,M,M,M,M,M,M,M,M,60.00,KP68 160753Z AUTO 18005KT 16/04 A3025 RMK AO1 SLP155 T01560044 403170094,M
DRA,2024-07-16 07:53,-116.0278,36.6206,1009.00,85.00,44.00,23.80,0.00,0.00,0.00,29.97,1009.00,10.00,M,CLR,M,M,M,M,M,M,M,M,M,M,M,M,M,M,82.27,KDRA 160753Z AUTO 00000KT 10SM CLR 29/07 A2997 RMK AO2 SLP090 T02940067 403890217,M
ELY,2024-07-16 07:53,-114.8453,39.2950,1909.00,62.00,46.00,55.71,300.00,4.00,0.00,30.26,1013.70,10.00,M,CLR,M,M,M,M,M,M,M,M,M,M,M,M,M,M,62.00,KELY 160753Z AUTO 30004KT 10SM CLR 17/08 A3026 RMK AO2 SLP137 T01670078 403170106,M
VGT,2024-07-16 07:53,-115.1933,36.2111,667.00,97.00,48.00,19.02,260.00,5.00,0.00,29.87,1009.50,10.00,M,CLR,M,M,M,M,M,M,M,M,M,M,M,M,M,M,93.52,KVGT 160753Z AUTO 26005KT 10SM CLR 36/09 A2987 RMK AO2 SLP095 T03610089 404280317,M
LOL,2024-07-16 07:53,-118.5701,40.0684,1192.43,67.00,42.00,40.15,0.00,0.00,0.00,30.10,1014.70,10.00,M,CLR,M,M,M,M,M,M,M,M,M,M,M,M,M,M,67.00,KLOL 160753Z AUTO 00000KT 10SM CLR 19/06 A3010 RMK AO2 SLP147 T01940056 403560128,M
BVU,2024-07-16 07:55,-114.8611,35.9475,671.00,86.00,51.80,30.90,0.00,0.00,0.00,29.88,M,10.00,M,CLR,M,M,M,M,M,M,M,M,M,M,M,M,M,M,83.87,KBVU 160755Z AUTO 00000KT 10SM CLR 30/11 A2988 RMK AO2,M
CXP,2024-07-16 07:55,-119.7326,39.1923,1431.00,69.80,50.00,49.37,0.00,0.00,0.00,30.21,M,10.00,M,FEW,M,M,M,12000.00,M,M,M,M,M,M,M,M,M,M,69.80,KCXP 160755Z AUTO 00000KT 10SM FEW120 21/10 A3021 RMK AO2,M
INS,2024-07-16 07:55,-115.6733,36.5872,955.00,89.00,41.40,18.97,50.00,5.00,0.00,29.95,1007.70,10.00,M,CLR,M,M,M,M,M,M,M,M,M,M,M,M,M,M,85.33,KINS 160755Z AUTO 05005KT 10SM CLR 32/05 A2995 RMK AO2 SLP077 T03170052 403950256 $,M
RNO,2024-07-16 07:55,-119.7711,39.4839,1341.00,74.00,48.00,39.74,300.00,5.00,0.00,30.16,1014.90,10.00,M,BKN,M,M,M,13000.00,M,M,M,M,M,M,M,M,M,M,74.00,KRNO 160755Z 30005KT 10SM BKN130 23/09 A3016 RMK AO2 SLP149 T02330089 403500150,M
LSV,2024-07-16 07:55,-115.0343,36.2362,570.00,97.00,43.30,15.91,190.00,9.00,0.00,29.81,1006.00,10.00,M,SCT,M,M,M,20000.00,M,M,M,M,M,M,M,M,M,M,92.82,KLSV 160755Z AUTO 19009KT 10SM SCT200 36/06 A2981 RMK AO2 SLP060 T03610063 404270306 $,M
RTS,2024-07-16 07:55,-119.8764,39.6682,1539.00,64.40,41.00,42.28,350.00,7.00,0.00,30.21,M,10.00,M,CLR,M,M,M,M,M,M,M,M,M,M,M,M,M,M,64.40,KRTS 160755Z AUTO 35007KT 10SM CLR 18/05 A3021 RMK AO2,M
05U,2024-07-16 07:55,-116.0051,39.6042,1811.23,59.00,39.20,47.72,0.00,0.00,0.00,30.27,M,10.00,M,M,M,M,M,M,M,M,M,M,M,M,M,M,M,M,59.00,K05U 160755Z AUTO 00000KT 10SM 15/04 A3027 RMK A01,M
MEV,2024-07-16 07:55,-119.7500,38.9963,1441.42,62.60,50.00,63.38,120.00,4.00,0.00,30.19,M,10.00,M,CLR,M,M,M,M,M,M,M,M,M,M,M,M,M,M,62.60,KMEV 160755Z AUTO 12004KT 10SM CLR 17/10 A3019 RMK AO2,M
HTH,2024-07-16 07:55,-118.6315,38.5448,1282.89,77.00,46.40,33.85,240.00,5.00,0.00,30.13,M,10.00,M,CLR,M,M,M,M,M,M,M,M,M,M,M,M,M,M,77.00,KHTH 160755Z AUTO 24005KT 10SM CLR 25/08 A3013 RMK A01,M
BAM,2024-07-16 07:55,-116.8743,40.5990,1382.36,62.60,57.20,82.50,0.00,0.00,0.00,30.17,M,10.00,M,CLR,M,M,M,M,M,M,M,M,M,M,M,M,M,M,62.60,KBAM 160755Z AUTO 00000KT 10SM CLR 17/14 A3017 RMK AO1,M
TMT,2024-07-16 07:55,-117.1971,39.4643,1749.34,57.20,44.60,62.69,230.00,4.00,0.00,30.25,M,10.00,M,CLR,M,M,M,M,M,M,M,M,M,M,M,M,M,M,57.20,KTMT 160755Z AUTO 23004KT 10SM CLR 14/07 A3025 RMK AO2 T01400070 403120072,M
EKO,2024-07-16 07:56,-115.7860,40.8242,1367.00,62.00,45.00,53.63,0.00,0.00,0.00,30.18,1016.10,10.00,M,CLR,M,M,M,M,M,M,M,M,M,M,M,M,M,M,62.00,KEKO 160756Z AUTO 00000KT 10SM CLR 17/07 A3018 RMK AO2 SLP161 T01670072 403280117,M
WMC,2024-07-16 07:56,-117.8072,40.9019,1315.00,61.00,42.00,49.54,150.00,4.00,0.00,30.13,1015.10,10.00,M,CLR,M,M,M,M,M,M,M,M,M,M,M,M,M,M,61.00,KWMC 160756Z AUTO 15004KT 10SM CLR 16/06 A3013 RMK AO2 SLP151 T01610056 403500156,M
HND,2024-07-16 07:56,-115.1344,35.9729,742.79,91.00,49.00,23.77,180.00,11.00,0.00,29.93,1011.20,10.00,M,CLR,M,M,M,M,M,M,M,M,M,M,M,M,M,M,87.83,KHND 160756Z 18011KT 10SM CLR 33/09 A2993 RMK AO2 SLP112 T03280094,M
TPH,2024-07-16 07:56,-117.0904,38.0505,1654.00,78.00,36.00,21.90,320.00,10.00,0.00,30.17,1011.80,10.00,M,CLR,M,M,M,M,M,M,M,M,M,M,M,M,M,M,78.00,KTPH 160756Z AUTO 32010KT 10SM CLR 26/02 A3017 RMK AO2 SLP118 T02560022 403390172,M
LAS,2024-07-16 07:56,-115.1634,36.0719,663.00,97.00,46.00,17.64,210.00,5.00,0.00,29.89,1005.00,10.00,M,FEW,SCT,M,M,16000.00,21000.00,M,M,M,M,M,M,M,M,M,93.19,KLAS 160756Z 21005KT 10SM FEW160 SCT210 36/08 A2989 RMK AO2 SLP050 T03610078 404330322 $,M
HTH,2024-07-16 08:10,-118.6315,38.5448,1282.89,77.00,48.20,36.22,220.00,5.00,0.00,30.13,M,10.00,M,FEW,FEW,M,M,5000.00,5500.00,M,M,M,M,M,M,M,M,M,77.00,KHTH 160810Z AUTO 22005KT 10SM FEW050 FEW055 25/09 A3013 RMK A01,M
BVU,2024-07-16 08:15,-114.8611,35.9475,671.00,89.60,48.20,24.11,0.00,0.00,0.00,29.88,M,10.00,M,CLR,M,M,M,M,M,M,M,M,M,M,M,M,M,M,86.44,KBVU 160815Z AUTO 00000KT 10SM CLR 32/09 A2988 RMK AO2,M
CXP,2024-07-16 08:15,-119.7326,39.1923,1431.00,69.80,50.00,49.37,M,3.00,0.00,30.20,M,10.00,M,FEW,M,M,M,7000.00,M,M,M,M,M,M,M,M,M,M,69.80,KCXP 160815Z AUTO VRB03KT 10SM FEW070 21/10 A3020 RMK AO2,M
RTS,2024-07-16 08:15,-119.8764,39.6682,1539.00,64.40,41.00,42.28,350.00,8.00,0.00,30.21,M,10.00,M,CLR,M,M,M,M,M,M,M,M,M,M,M,M,M,M,64.40,KRTS 160815Z AUTO 35008KT 10SM CLR 18/05 A3021 RMK AO2,M
05U,2024-07-16 08:15,-116.0051,39.6042,1811.23,57.20,39.20,50.91,0.00,0.00,0.00,30.27,M,10.00,M,M,M,M,M,M,M,M,M,M,M,M,M,M,M,M,57.20,K05U 160815Z AUTO 00000KT 10SM 14/04 A3027 RMK A01,M
MEV,2024-07-16 08:15,-119.7500,38.9963,1441.42,62.60,48.20,59.26,130.00,6.00,0.00,30.19,M,10.00,M,FEW,M,M,M,12000.00,M,M,M,M,M,M,M,M,M,M,62.60,KMEV 160815Z AUTO 13006KT 10SM FEW120 17/09 A3019 RMK AO2,M
BAM,2024-07-16 08:15,-116.8743,40.5990,1382.36,60.80,55.40,82.37,50.00,3.00,0.00,30.17,M,10.00,M,CLR,M,M,M,M,M,M,M,M,M,M,M,M,M,M,60.80,KBAM 160815Z AUTO 05003KT 10SM CLR 16/13 A3017 RMK AO1,M
TMT,2024-07-16 08:15,-117.1971,39.4643,1749.34,52.70,42.40,67.89,160.00,3.00,0.00,30.25,M,10.00,M,CLR,M,M,M,M,M,M,M,M,M,M,M,M,M,M,52.70,KTMT 160815Z AUTO 16003KT 10SM CLR 12/06 A3025 RMK AO2 T01150058,M
BVU,2024-07-16 08:35,-114.8611,35.9475,671.00,89.60,50.00,25.79,M,3.00,0.00,29.88,M,10.00,M,CLR,M,M,M,M,M,M,M,M,M,M,M,M,M,M,86.70,KBVU 160835Z AUTO VRB03KT 10SM CLR 32/10 A2988 RMK AO2,M
CXP,2024-07-16 08:35,-119.7326,39.1923,1431.00,68.00,50.00,52.51,290.00,4.00,0.00,30.20,M,10.00,M,CLR,M,M,M,M,M,M,M,M,M,M,M,M,M,M,68.00,KCXP 160835Z AUTO 29004KT 10SM CLR 20/10 A3020 RMK AO2,M
RTS,2024-07-16 08:35,-119.8764,39.6682,1539.00,64.40,41.00,42.28,340.00,10.00,0.00,30.21,M,10.00,M,FEW,M,M,M,12000.00,M,M,M,M,M,M,M,M,M,M,64.40,KRTS 160835Z AUTO 34010KT 10SM FEW120 18/05 A3021 RMK AO2,M
05U,2024-07-16 08:35,-116.0051,39.6042,1811.23,57.20,39.20,50.91,0.00,0.00,0.00,30.26,M,10.00,M,M,M,M,M,M,M,M,M,M,M,M,M,M,M,M,57.20,K05U 160835Z AUTO 00000KT 10SM 14/04 A3026 RMK A01,M
MEV,2024-07-16 08:35,-119.7500,38.9963,1441.42,62.60,48.20,59.26,140.00,4.00,0.00,30.19,M,10.00,M,FEW,FEW,SCT,M,3600.00,4600.00,12000.00,M,M,M,M,M,M,M,M,62.60,KMEV 160835Z AUTO 14004KT 10SM FEW036 FEW046 SCT120 17/09 A3019 RMK AO2,M
HTH,2024-07-16 08:35,-118.6315,38.5448,1282.89,75.20,48.20,38.46,210.00,6.00,0.00,30.13,M,10.00,M,FEW,M,M,M,6000.00,M,M,M,M,M,M,M,M,M,M,75.20,KHTH 160835Z AUTO 21006KT 10SM FEW060 24/09 A3013 RMK A01,M
BAM,2024-07-16 08:35,-116.8743,40.5990,1382.36,60.80,55.40,82.37,0.00,0.00,0.00,30.16,M,10.00,M,CLR,M,M,M,M,M,M,M,M,M,M,M,M,M,M,60.80,KBAM 160835Z AUTO 00000KT 10SM CLR 16/13 A3016 RMK AO1,M
TMT,2024-07-16 08:35,-117.1971,39.4643,1749.34,55.00,44.60,67.89,170.00,3.00,0.00,30.24,M,10.00,M,CLR,M,M,M,M,M,M,M,M,M,M,M,M,M,M,55.00,KTMT 160835Z AUTO 17003KT 10SM CLR 13/07 A3024 RMK AO2 T01280070,M
P68,2024-07-16 08:53,-116.0056,39.6014,1993.00,58.00,40.00,51.03,190.00,4.00,0.00,30.24,1015.00,M,M,M,M,M,M,M,M,M,M,M,M,M,M,M,M,M,58.00,KP68 160853Z AUTO 19004KT 14/04 A3024 RMK AO1 SLP150 T01440044 58002,M
DRA,2024-07-16 08:53,-116.0278,36.6206,1009.00,89.00,45.00,21.77,190.00,8.00,0.00,29.96,1008.40,10.00,M,CLR,M,M,M,M,M,M,M,M,M,M,M,M,M,M,85.58,KDRA 160853Z AUTO 19008KT 10SM CLR 32/07 A2996 RMK AO2 SLP084 T03170072 58002,M
ELY,2024-07-16 08:53,-114.8453,39.2950,1909.00,61.00,47.00,59.94,180.00,3.00,0.00,30.25,1013.50,10.00,M,FEW,M,M,M,12000.00,M,M,M,M,M,M,M,M,M,M,61.00,KELY 160853Z AUTO 18003KT 10SM FEW120 16/08 A3025 RMK AO2 SLP135 T01610083 50001,M
VGT,2024-07-16 08:53,-115.1933,36.2111,667.00,93.00,50.00,23.18,330.00,5.00,0.00,29.86,1009.30,10.00,M,CLR,M,M,M,M,M,M,M,M,M,M,M,M,M,M,89.90,KVGT 160853Z AUTO 33005KT 10SM CLR 34/10 A2986 RMK AO2 SLP093 T03390100 58003,M
LOL,2024-07-16 08:53,-118.5701,40.0684,1192.43,66.00,43.00,43.20,90.00,6.00,0.00,30.09,1014.20,10.00,M,CLR,M,M,M,M,M,M,M,M,M,M,M,M,M,M,66.00,KLOL 160853Z AUTO 09006KT 10SM CLR 19/06 A3009 RMK AO2 SLP142 T01890061 58001,M
BVU,2024-07-16 08:55,-114.8611,35.9475,671.00,84.20,51.80,32.73,0.00,0.00,0.00,29.87,M,10.00,M,CLR,M,M,M,M,M,M,M,M,M,M,M,M,M,M,82.48,KBVU 160855Z AUTO 00000KT 10SM CLR 29/11 A2987 RMK AO2,M
CXP,2024-07-16 08:55,-119.7326,39.1923,1431.00,68.00,50.00,52.51,M,3.00,0.00,30.20,M,10.00,M,CLR,M,M,M,M,M,M,M,M,M,M,M,M,M,M,68.00,KCXP 160855Z AUTO VRB03KT 10SM CLR 20/10 A3020 RMK AO2,M
INS,2024-07-16 08:55,-115.6733,36.5872,955.00,86.70,41.00,20.09,0.00,0.00,0.00,29.95,1007.80,10.00,M,OVC,M,M,M,17000.00,M,M,M,M,M,M,M,M,M,M,83.41,KINS 160855Z AUTO 00000KT 10SM OVC170 30/05 A2995 RMK AO2 SLP078 T03040049 58000 $,M
RNO,2024-07-16 08:55,-119.7711,39.4839,1341.00,71.00,48.00,43.98,0.00,0.00,0.00,30.16,1014.70,10.00,M,SCT,M,M,M,15000.00,M,M,M,M,M,M,M,M,M,M,71.00,KRNO 160855Z 00000KT 10SM SCT150 22/09 A3016 RMK AO2 SLP147 T02170089 56003,M
LSV,2024-07-16 08:55,-115.0343,36.2362,570.00,96.00,44.20,16.98,190.00,11.00,0.00,29.80,1005.60,10.00,M,CLR,M,M,M,M,M,M,M,M,M,M,M,M,M,M,91.97,KLSV 160855Z AUTO 19011KT 10SM CLR 36/07 A2980 RMK AO2 SLP056 T03560068 58003 $,M
RTS,2024-07-16 08:55,-119.8764,39.6682,1539.00,60.80,41.00,48.00,350.00,8.00,0.00,30.21,M,10.00,M,CLR,M,M,M,M,M,M,M,M,M,M,M,M,M,M,60.80,KRTS 160855Z AUTO 35008KT 10SM CLR 16/05 A3021 RMK AO2,M
05U,2024-07-16 08:55,-116.0051,39.6042,1811.23,55.40,39.20,54.34,0.00,0.00,0.00,30.26,M,10.00,M,M,M,M,M,M,M,M,M,M,M,M,M,M,M,M,55.40,K05U 160855Z AUTO 00000KT 10SM 13/04 A3026 RMK A01,M
MEV,2024-07-16 08:55,-119.7500,38.9963,1441.42,62.60,48.20,59.26,0.00,0.00,0.00,30.19,M,10.00,M,FEW,SCT,BKN,M,4100.00,7500.00,9000.00,M,M,M,M,M,M,M,M,62.60,KMEV 160855Z AUTO 00000KT 10SM FEW041 SCT075 BKN090 17/09 A3019 RMK AO2,M
HTH,2024-07-16 08:55,-118.6315,38.5448,1282.89,73.40,50.00,43.69,250.00,5.00,0.00,30.13,M,10.00,M,CLR,M,M,M,M,M,M,M,M,M,M,M,M,M,M,73.40,KHTH 160855Z AUTO 25005KT 10SM CLR 23/10 A3013 RMK A01,M
BAM,2024-07-16 08:55,-116.8743,40.5990,1382.36,60.80,55.40,82.37,0.00,0.00,0.00,30.16,M,10.00,M,CLR,M,M,M,M,M,M,M,M,M,M,M,M,M,M,60.80,KBAM 160855Z AUTO 00000KT 10SM CLR 16/13 A3016 RMK AO1,M
TMT,2024-07-16 08:55,-117.1971,39.4643,1749.34,55.00,45.00,68.93,230.00,3.00,0.00,30.24,M,10.00,M,CLR,M,M,M,M,M,M,M,M,M,M,M,M,M,M,55.00,KTMT 160855Z AUTO 23003KT 10SM CLR 13/07 A3024 RMK AO2 T01270072,M
EKO,2024-07-16 08:56,-115.7860,40.8242,1367.00,62.00,45.00,53.63,90.00,3.00,0.00,30.18,1016.00,10.00,M,CLR,M,M,M,M,M,M,M,M,M,M,M,M,M,M,62.00,KEKO 160856Z AUTO 09003KT 10SM CLR 17/07 A3018 RMK AO2 SLP160 T01670072 50001,M
WMC,2024-07-16 08:56,-117.8072,40.9019,1315.00,60.00,41.00,49.39,0.00,0.00,0.00,30.13,1015.00,10.00,M,CLR,M,M,M,M,M,M,M,M,M,M,M,M,M,M,60.00,KWMC 160856Z AUTO 00000KT 10SM CLR 16/05 A3013 RMK AO2 SLP150 T01560050 50001,M
HND,2024-07-16 08:56,-115.1344,35.9729,742.79,90.00,49.00,24.53,210.00,7.00,0.00,29.92,1010.90,10.00,M,CLR,M,M,M,M,M,M,M,M,M,M,M,M,M,M,86.91,KHND 160856Z 21007KT 10SM CLR 32/09 A2992 RMK AO2 SLP109 T03220094 58003,M
TPH,2024-07-16 08:56,-117.0904,38.0505,1654.00,74.00,37.00,26.03,350.00,6.00,0.00,30.17,1012.20,10.00,M,CLR,M,M,M,M,M,M,M,M,M,M,M,M,M,M,74.00,KTPH 160856Z AUTO 35006KT 10SM CLR 23/03 A3017 RMK AO2 SLP122 T02330028 50003,M
LAS,2024-07-16 08:56,-115.1634,36.0719,663.00,96.00,48.00,19.61,200.00,5.00,0.00,29.87,1004.30,10.00,M,FEW,M,M,M,22000.00,M,M,M,M,M,M,M,M,M,M,92.52,KLAS 160856Z 20005KT 10SM FEW220 36/09 A2987 RMK AO2 SLP043 T03560089 58003 $,M
CXP,2024-07-16 09:15,-119.7326,39.1923,1431.00,68.00,50.00,52.51,0.00,0.00,0.00,30.20,M,10.00,M,CLR,M,M,M,M,M,M,M,M,M,M,M,M,M,M,68.00,KCXP 160915Z AUTO 00000KT 10SM CLR 20/10 A3020 RMK AO2,M
BVU,2024-07-16 09:15,-114.8611,35.9475,671.00,84.20,53.60,34.97,40.00,4.00,0.00,29.87,M,10.00,M,CLR,M,M,M,M,M,M,M,M,M,M,M,M,M,M,82.76,KBVU 160915Z AUTO 04004KT 10SM CLR 29/12 A2987 RMK AO2,M
RTS,2024-07-16 09:15,-119.8764,39.6682,1539.00,62.60,41.00,45.04,350.00,6.00,0.00,30.21,M,10.00,M,CLR,M,M,M,M,M,M,M,M,M,M,M,M,M,M,62.60,KRTS 160915Z AUTO 35006KT 10SM CLR 17/05 A3021 RMK AO2,M
05U,2024-07-16 09:15,-116.0051,39.6042,1811.23,53.60,37.40,54.07,0.00,0.00,0.00,30.26,M,10.00,M,M,M,M,M,M,M,M,M,M,M,M,M,M,M,M,53.60,K05U 160915Z AUTO 00000KT 10SM 12/03 A3026 RMK A01,M
MEV,2024-07-16 09:15,-119.7500,38.9963,1441.42,59.00,48.20,67.33,0.00,0.00,0.00,30.19,M,3.00,M,BKN,BKN,OVC,M,7000.00,9000.00,11000.00,M,HZ,M,M,M,M,M,M,59.00,KMEV 160915Z AUTO 00000KT 3SM HZ BKN070 BKN090 OVC110 15/09 A3019 RMK AO2,M
HTH,2024-07-16 09:15,-118.6315,38.5448,1282.89,73.40,46.40,38.18,230.00,6.00,0.00,30.12,M,10.00,M,CLR,M,M,M,M,M,M,M,M,M,M,M,M,M,M,73.40,KHTH 160915Z AUTO 23006KT 10SM CLR 23/08 A3012 RMK A01,M
BAM,2024-07-16 09:15,-116.8743,40.5990,1382.36,59.00,55.40,87.83,160.00,5.00,0.00,30.16,M,10.00,M,CLR,M,M,M,M,M,M,M,M,M,M,M,M,M,M,59.00,KBAM 160915Z AUTO 16005KT 10SM CLR 15/13 A3016 RMK AO1,M
TMT,2024-07-16 09:15,-117.1971,39.4643,1749.34,54.50,45.30,71.01,240.00,5.00,0.00,30.24,M,10.00,M,CLR,M,M,M,M,M,M,M,M,M,M,M,M,M,M,54.50,KTMT 160915Z AUTO 24005KT 10SM CLR 13/07 A3024 RMK AO2 T01250074,M
BVU,2024-07-16 09:35,-114.8611,35.9475,671.00,84.20,51.80,32.73,40.00,7.00,0.00,29.87,M,10.00,M,CLR,M,M,M,M,M,M,M,M,M,M,M,M,M,M,82.48,KBVU 160935Z AUTO 04007KT 10SM CLR 29/11 A2987 RMK AO2,M
CXP,2024-07-16 09:35,-119.7326,39.1923,1431.00,68.00,48.20,49.10,0.00,0.00,0.00,30.20,M,10.00,M,SCT,M,M,M,11000.00,M,M,M,M,M,M,M,M,M,M,68.00,KCXP 160935Z AUTO 00000KT 10SM SCT110 20/09 A3020 RMK AO2,M
RTS,2024-07-16 09:35,-119.8764,39.6682,1539.00,60.80,41.00,48.00,330.00,6.00,0.00,30.20,M,10.00,M,CLR,M,M,M,M,M,M,M,M,M,M,M,M,M,M,60.80,KRTS 160935Z AUTO 33006KT 10SM CLR 16/05 A3020 RMK AO2,M
05U,2024-07-16 09:35,-116.0051,39.6042,1811.23,55.40,39.20,54.34,0.00,0.00,0.00,30.26,M,10.00,M,M,M,M,M,M,M,M,M,M,M,M,M,M,M,M,55.40,K05U 160935Z AUTO 00000KT 10SM 13/04 A3026 RMK A01,M
MEV,2024-07-16 09:35,-119.7500,38.9963,1441.42,60.80,48.20,63.15,0.00,0.00,0.00,30.19,M,10.00,M,OVC,M,M,M,7000.00,M,M,M,M,M,M,M,M,M,M,60.80,KMEV 160935Z AUTO 00000KT 10SM OVC070 16/09 A3019 RMK AO2,M
HTH,2024-07-16 09:35,-118.6315,38.5448,1282.89,71.60,46.40,40.57,220.00,5.00,0.00,30.13,M,10.00,M,CLR,M,M,M,M,M,M,M,M,M,M,M,M,M,M,71.60,KHTH 160935Z AUTO 22005KT 10SM CLR 22/08 A3013 RMK A01,M
BAM,2024-07-16 09:35,-116.8743,40.5990,1382.36,59.00,53.60,82.25,190.00,3.00,0.00,30.16,M,10.00,M,CLR,M,M,M,M,M,M,M,M,M,M,M,M,M,M,59.00,KBAM 160935Z AUTO 19003KT 10SM CLR 15/12 A3016 RMK AO1,M
TMT,2024-07-16 09:35,-117.1971,39.4643,1749.34,54.30,44.40,69.12,0.00,0.00,0.00,30.24,M,10.00,M,CLR,M,M,M,M,M,M,M,M,M,M,M,M,M,M,54.30,KTMT 160935Z AUTO 00000KT 10SM CLR 12/07 A3024 RMK AO2 T01240069,M
P68,2024-07-16 09:53,-116.0056,39.6014,1993.00,59.00,40.00,49.23,180.00,4.00,0.00,30.23,1014.80,M,M,M,M,M,M,M,M,M,M,M,M,M,M,M,M,M,59.00,KP68 160953Z AUTO 18004KT 15/04 A3023 RMK AO1 SLP148 T01500044,M
DRA,2024-07-16 09:53,-116.0278,36.6206,1009.00,86.00,45.00,23.95,0.00,0.00,0.00,29.96,1008.50,10.00,M,CLR,M,M,M,M,M,M,M,M,M,M,M,M,M,M,83.10,KDRA 160953Z AUTO 00000KT 10SM CLR 30/07 A2996 RMK AO2 SLP085 T03000072,M
ELY,2024-07-16 09:53,-114.8453,39.2950,1909.00,56.00,45.00,66.48,170.00,8.00,0.00,30.26,1014.30,10.00,M,CLR,M,M,M,M,M,M,M,M,M,M,M,M,M,M,56.00,KELY 160953Z AUTO 17008KT 10SM CLR 13/07 A3026 RMK AO2 SLP143 T01330072,M
VGT,2024-07-16 09:53,-115.1933,36.2111,667.00,91.00,50.00,24.68,360.00,5.00,0.00,29.86,1009.40,10.00,M,CLR,M,M,M,M,M,M,M,M,M,M,M,M,M,M,87.99,KVGT 160953Z AUTO 36005KT 10SM CLR 33/10 A2986 RMK AO2 SLP094 T03280100,M
LOL,2024-07-16 09:53,-118.5701,40.0684,1192.43,65.00,45.00,48.28,20.00,7.00,0.00,30.08,1014.10,10.00,M,CLR,M,M,M,M,M,M,M,M,M,M,M,M,M,M,65.00,KLOL 160953Z AUTO 02007KT 10SM CLR 18/07 A3008 RMK AO2 SLP141 T01830072,M
BVU,2024-07-16 09:55,-114.8611,35.9475,671.00,84.20,53.60,34.97,30.00,5.00,0.00,29.87,M,10.00,M,CLR,M,M,M,M,M,M,M,M,M,M,M,M,M,M,82.76,KBVU 160955Z AUTO 03005KT 10SM CLR 29/12 A2987 RMK AO2,M
CXP,2024-07-16 09:55,-119.7326,39.1923,1431.00,66.20,48.20,52.25,0.00,0.00,0.00,30.20,M,10.00,M,SCT,M,M,M,11000.00,M,M,M,M,M,M,M,M,M,M,66.20,KCXP 160955Z AUTO 00000KT 10SM SCT110 19/09 A3020 RMK AO2,M
RNO,2024-07-16 09:55,-119.7711,39.4839,1341.00,70.00,49.00,47.24,280.00,5.00,0.00,30.16,1014.90,10.00,M,FEW,M,M,M,15000.00,M,M,M,M,M,M,M,M,M,M,70.00,KRNO 160955Z 28005KT 10SM FEW150 21/09 A3016 RMK AO2 SLP149 T02110094,M
LSV,2024-07-16 09:55,-115.0343,36.2362,570.00,94.00,44.00,17.93,0.00,0.00,0.00,29.80,1005.60,10.00,M,CLR,M,M,M,M,M,M,M,M,M,M,M,M,M,M,90.04,KLSV 160955Z AUTO 00000KT 10SM CLR 35/07 A2980 RMK AO2 SLP056 T03450067 $,M
RTS,2024-07-16 09:55,-119.8764,39.6682,1539.00,59.00,41.00,51.18,350.00,6.00,0.00,30.21,M,10.00,M,CLR,M,M,M,M,M,M,M,M,M,M,M,M,M,M,59.00,KRTS 160955Z AUTO 35006KT 10SM CLR 15/05 A3021 RMK AO2,M
05U,2024-07-16 09:55,-116.0051,39.6042,1811.23,57.20,39.20,50.91,0.00,0.00,0.00,30.26,M,10.00,M,M,M,M,M,M,M,M,M,M,M,M,M,M,M,M,57.20,K05U 160955Z AUTO 00000KT 10SM 14/04 A3026 RMK A01,M
MEV,2024-07-16 09:55,-119.7500,38.9963,1441.42,57.20,48.20,71.83,0.00,0.00,0.00,30.18,M,10.00,M,SCT,SCT,M,M,7000.00,8000.00,M,M,M,M,M,M,M,M,M,57.20,KMEV 160955Z AUTO 00000KT 10SM SCT070 SCT080 14/09 A3018 RMK AO2,M
HTH,2024-07-16 09:55,-118.6315,38.5448,1282.89,73.40,46.40,38.18,230.00,5.00,0.00,30.12,M,10.00,M,CLR,M,M,M,M,M,M,M,M,M,M,M,M,M,M,73.40,KHTH 160955Z AUTO 23005KT 10SM CLR 23/08 A3012 RMK A01,M
BAM,2024-07-16 09:55,-116.8743,40.5990,1382.36,59.00,53.60,82.25,250.00,3.00,0.00,30.16,M,10.00,M,CLR,M,M,M,M,M,M,M,M,M,M,M,M,M,M,59.00,KBAM 160955Z AUTO 25003KT 10SM CLR 15/12 A3016 RMK AO1,M
TMT,2024-07-16 09:55,-117.1971,39.4643,1749.34,51.60,42.80,71.79,0.00,0.00,0.00,30.24,M,10.00,M,CLR,M,M,M,M,M,M,M,M,M,M,M,M,M,M,51.60,KTMT 160955Z AUTO 00000KT 10SM CLR 11/06 A3024 RMK AO2 T01090060,M
INS,2024-07-16 09:55,-115.6733,36.5872,955.00,83.00,40.30,22.02,0.00,0.00,0.00,29.95,1007.90,10.00,M,FEW,M,M,M,18000.00,M,M,M,M,M,M,M,M,M,M,80.65,KINS 160955Z AUTO 00000KT 10SM FEW180 28/05 A2995 RMK AO2 SLP079 T02840046 $,M
EKO,2024-07-16 09:56,-115.7860,40.8242,1367.00,56.00,44.00,63.99,160.00,3.00,0.00,30.19,1016.80,10.00,M,CLR,M,M,M,M,M,M,M,M,M,M,M,M,M,M,56.00,KEKO 160956Z AUTO 16003KT 10SM CLR 13/07 A3019 RMK AO2 SLP168 T01330067,M
WMC,2024-07-16 09:56,-117.8072,40.9019,1315.00,57.00,39.00,50.88,0.00,0.00,0.00,30.13,1015.30,10.00,M,CLR,M,M,M,M,M,M,M,M,M,M,M,M,M,M,57.00,KWMC 160956Z AUTO 00000KT 10SM CLR 14/04 A3013 RMK AO2 SLP153 T01390039,M
HND,2024-07-16 09:56,-115.1344,35.9729,742.79,90.00,50.00,25.46,180.00,10.00,0.00,29.92,1010.90,10.00,M,CLR,M,M,M,M,M,M,M,M,M,M,M,M,M,M,87.06,KHND 160956Z 18010KT 10SM CLR 32/10 A2992 RMK AO2 SLP109 T03220100,M
TPH,2024-07-16 09:56,-117.0904,38.0505,1654.00,71.00,38.00,29.96,330.00,3.00,0.00,30.18,1012.60,10.00,M,FEW,M,M,M,12000.00,M,M,M,M,M,M,M,M,M,M,71.00,KTPH 160956Z AUTO 33003KT 10SM FEW120 22/03 A3018 RMK AO2 SLP126 T02170033,M
LAS,2024-07-16 09:56,-115.1634,36.0719,663.00,93.00,49.00,22.34,190.00,6.00,0.00,29.87,1004.40,10.00,M,FEW,M,M,M,22000.00,M,M,M,M,M,M,M,M,M,M,89.73,KLAS 160956Z 19006KT 10SM FEW220 34/09 A2987 RMK AO2 SLP044 T03390094 $,M
BVU,2024-07-16 10:15,-114.8611,35.9475,671.00,84.20,51.80,32.73,360.00,6.00,0.00,29.86,M,10.00,M,CLR,M,M,M,M,M,M,M,M,M,M,M,M,M,M,82.48,KBVU 161015Z AUTO 36006KT 10SM CLR 29/11 A2986 RMK AO2,M
CXP,2024-07-16 10:15,-119.7326,39.1923,1431.00,64.40,48.20,55.63,0.00,0.00,0.00,30.19,M,10.00,M,FEW,M,M,M,12000.00,M,M,M,M,M,M,M,M,M,M,64.40,KCXP 161015Z AUTO 00000KT 10SM FEW120 18/09 A3019 RMK AO2,M
RTS,2024-07-16 10:15,-119.8764,39.6682,1539.00,57.20,41.00,54.60,330.00,6.00,0.00,30.20,M,10.00,M,CLR,M,M,M,M,M,M,M,M,M,M,M,M,M,M,57.20,KRTS 161015Z AUTO 33006KT 10SM CLR 14/05 A3020 RMK AO2,M
05U,2024-07-16 10:15,-116.0051,39.6042,1811.23,55.40,39.20,54.34,0.00,0.00,0.00,30.26,M,10.00,M,M,M,M,M,M,M,M,M,M,M,M,M,M,M,M,55.40,K05U 161015Z AUTO 00000KT 10SM 13/04 A3026 RMK A01,M
MEV,2024-07-16 10:15,-119.7500,38.9963,1441.42,55.40,48.20,76.66,120.00,3.00,0.00,30.18,M,10.00,M,FEW,FEW,FEW,M,5000.00,8000.00,10000.00,M,M,M,M,M,M,M,M,55.40,KMEV 161015Z AUTO 12003KT 10SM FEW050 FEW080 FEW100 13/09 A3018 RMK AO2,M
BAM,2024-07-16 10:15,-116.8743,40.5990,1382.36,59.00,53.60,82.25,40.00,3.00,0.00,30.16,M,10.00,M,CLR,M,M,M,M,M,M,M,M,M,M,M,M,M,M,59.00,KBAM 161015Z AUTO 04003KT 10SM CLR 15/12 A3016 RMK AO1,M
HTH,2024-07-16 10:15,-118.6315,38.5448,1282.89,71.60,46.40,40.57,230.00,4.00,0.00,30.13,M,10.00,M,CLR,M,M,M,M,M,M,M,M,M,M,M,M,M,M,71.60,KHTH 161015Z AUTO 23004KT 10SM CLR 22/08 A3013 RMK A01,M
TMT,2024-07-16 10:15,-117.1971,39.4643,1749.34,52.30,43.00,70.50,0.00,0.00,0.00,30.24,M,10.00,M,CLR,M,M,M,M,M,M,M,M,M,M,M,M,M,M,52.30,KTMT 161015Z AUTO 00000KT 10SM CLR 11/06 A3024 RMK AO2 T01130061,M
BVU,2024-07-16 10:35,-114.8611,35.9475,671.00,84.20,50.00,30.62,350.00,5.00,0.00,29.86,M,10.00,M,CLR,M,M,M,M,M,M,M,M,M,M,M,M,M,M,82.24,KBVU 161035Z AUTO 35005KT 10SM CLR 29/10 A2986 RMK AO2,M
CXP,2024-07-16 10:35,-119.7326,39.1923,1431.00,64.40,48.20,55.63,0.00,0.00,0.00,30.19,M,10.00,M,CLR,M,M,M,M,M,M,M,M,M,M,M,M,M,M,64.40,KCXP 161035Z AUTO 00000KT 10SM CLR 18/09 A3019 RMK AO2,M
RTS,2024-07-16 10:35,-119.8764,39.6682,1539.00,59.00,42.80,54.86,340.00,4.00,0.00,30.20,M,10.00,M,BKN,M,M,M,12000.00,M,M,M,M,M,M,M,M,M,M,59.00,KRTS 161035Z AUTO 34004KT 10SM BKN120 15/06 A3020 RMK AO2,M
05U,2024-07-16 10:35,-116.0051,39.6042,1811.23,55.40,39.20,54.34,0.00,0.00,0.00,30.26,M,10.00,M,M,M,M,M,M,M,M,M,M,M,M,M,M,M,M,55.40,K05U 161035Z AUTO 00000KT 10SM 13/04 A3026 RMK A01,M
MEV,2024-07-16 10:35,-119.7500,38.9963,1441.42,57.20,48.20,71.83,90.00,4.00,0.00,30.18,M,10.00,M,FEW,SCT,SCT,M,4200.00,5000.00,9500.00,M,M,M,M,M,M,M,M,57.20,KMEV 161035Z AUTO 09004KT 10SM FEW042 SCT050 SCT095 14/09 A3018 RMK AO2,M
HTH,2024-07-16 10:35,-118.6315,38.5448,1282.89,71.60,46.40,40.57,220.00,4.00,0.00,30.13,M,10.00,M,CLR,M,M,M,M,M,M,M,M,M,M,M,M,M,M,71.60,KHTH 161035Z AUTO 22004KT 10SM CLR 22/08 A3013 RMK A01,M
BAM,2024-07-16 10:35,-116.8743,40.5990,1382.36,55.40,53.60,93.65,50.00,4.00,0.00,30.16,M,10.00,M,CLR,M,M,M,M,M,M,M,M,M,M,M,M,M,M,55.40,KBAM 161035Z AUTO 05004KT 10SM CLR 13/12 A3016 RMK AO1,M
TMT,2024-07-16 10:35,-117.1971,39.4643,1749.34,53.60,44.00,69.84,0.00,0.00,0.00,30.24,M,10.00,M,CLR,M,M,M,M,M,M,M,M,M,M,M,M,M,M,53.60,KTMT 161035Z AUTO 00000KT 10SM CLR 12/07 A3024 RMK AO2 T01200066,M
P68,2024-07-16 10:53,-116.0056,39.6014,1993.00,51.00,40.00,65.87,140.00,5.00,0.00,30.23,1015.60,M,M,M,M,M,M,M,M,M,M,M,M,M,M,M,M,M,51.00,KP68 161053Z AUTO 14005KT 11/04 A3023 RMK AO1 SLP156 T01060044,M
DRA,2024-07-16 10:53,-116.0278,36.6206,1009.00,82.00,45.00,27.24,20.00,9.00,0.00,29.96,1008.60,10.00,M,CLR,M,M,M,M,M,M,M,M,M,M,M,M,M,M,80.28,KDRA 161053Z AUTO 02009KT 10SM CLR 28/07 A2996 RMK AO2 SLP086 T02780072,M
ELY,2024-07-16 10:53,-114.8453,39.2950,1909.00,53.00,43.00,68.71,160.00,7.00,0.00,30.26,1014.40,10.00,M,CLR,M,M,M,M,M,M,M,M,M,M,M,M,M,M,53.00,KELY 161053Z AUTO 16007KT 10SM CLR 12/06 A3026 RMK AO2 SLP144 T01170061,M
VGT,2024-07-16 10:53,-115.1933,36.2111,667.00,90.00,50.00,25.46,20.00,4.00,0.00,29.87,1009.50,10.00,M,CLR,M,M,M,M,M,M,M,M,M,M,M,M,M,M,87.06,KVGT 161053Z AUTO 02004KT 10SM CLR 32/10 A2987 RMK AO2 SLP095 T03220100,M
LOL,2024-07-16 10:53,-118.5701,40.0684,1192.43,62.00,45.00,53.63,0.00,0.00,0.00,30.09,1014.50,10.00,M,CLR,M,M,M,M,M,M,M,M,M,M,M,M,M,M,62.00,KLOL 161053Z AUTO 00000KT 10SM CLR 17/07 A3009 RMK AO2 SLP145 T01670072,M
BVU,2024-07-16 10:55,-114.8611,35.9475,671.00,84.20,51.80,32.73,0.00,0.00,0.00,29.86,M,10.00,M,CLR,M,M,M,M,M,M,M,M,M,M,M,M,M,M,82.48,KBVU 161055Z AUTO 00000KT 10SM CLR 29/11 A2986 RMK AO2,M
CXP,2024-07-16 10:55,-119.7326,39.1923,1431.00,64.40,48.20,55.63,0.00,0.00,0.00,30.19,M,10.00,M,CLR,M,M,M,M,M,M,M,M,M,M,M,M,M,M,64.40,KCXP 161055Z AUTO 00000KT 10SM CLR 18/09 A3019 RMK AO2,M
INS,2024-07-16 10:55,-115.6733,36.5872,955.00,80.80,38.30,21.87,0.00,0.00,0.00,29.95,1007.90,10.00,M,CLR,M,M,M,M,M,M,M,M,M,M,M,M,M,M,79.18,KINS 161055Z AUTO 00000KT 10SM CLR 27/04 A2995 RMK AO2 SLP079 T02710035 $,M
RNO,2024-07-16 10:55,-119.7711,39.4839,1341.00,69.00,49.00,48.88,290.00,4.00,0.00,30.15,1014.70,10.00,M,FEW,M,M,M,15000.00,M,M,M,M,M,M,M,M,M,M,69.00,KRNO 161055Z 29004KT 10SM FEW150 21/09 A3015 RMK AO2 SLP147 T02060094,M
LSV,2024-07-16 10:55,-115.0343,36.2362,570.00,91.00,48.00,22.90,310.00,3.00,0.00,29.81,1006.00,10.00,M,CLR,M,M,M,M,M,M,M,M,M,M,M,M,M,M,87.69,KLSV 161055Z AUTO 31003KT 10SM CLR 33/09 A2981 RMK AO2 SLP060 T03270088 $,M
RTS,2024-07-16 10:55,-119.8764,39.6682,1539.00,59.00,41.00,51.18,350.00,4.00,0.00,30.20,M,10.00,M,BKN,M,M,M,12000.00,M,M,M,M,M,M,M,M,M,M,59.00,KRTS 161055Z AUTO 35004KT 10SM BKN120 15/05 A3020 RMK AO2,M
05U,2024-07-16 10:55,-116.0051,39.6042,1811.23,51.80,39.20,61.99,300.00,4.00,0.00,30.26,M,10.00,M,M,M,M,M,M,M,M,M,M,M,M,M,M,M,M,51.80,K05U 161055Z AUTO 30004KT 10SM 11/04 A3026 RMK A01,M
MEV,2024-07-16 10:55,-119.7500,38.9963,1441.42,55.40,46.40,71.64,100.00,6.00,0.00,30.18,M,10.00,M,FEW,SCT,M,M,4400.00,5000.00,M,M,M,M,M,M,M,M,M,55.40,KMEV 161055Z AUTO 10006KT 10SM FEW044 SCT050 13/08 A3018 RMK AO2,M
HTH,2024-07-16 10:55,-118.6315,38.5448,1282.89,71.60,46.40,40.57,220.00,4.00,0.00,30.13,M,10.00,M,CLR,M,M,M,M,M,M,M,M,M,M,M,M,M,M,71.60,KHTH 161055Z AUTO 22004KT 10SM CLR 22/08 A3013 RMK A01,M
BAM,2024-07-16 10:55,-116.8743,40.5990,1382.36,55.40,53.60,93.65,90.00,4.00,0.00,30.16,M,10.00,M,CLR,M,M,M,M,M,M,M,M,M,M,M,M,M,M,55.40,KBAM 161055Z AUTO 09004KT 10SM CLR 13/12 A3016 RMK AO1,M
TMT,2024-07-16 10:55,-117.1971,39.4643,1749.34,50.00,42.30,74.73,0.00,0.00,0.00,30.24,M,10.00,M,CLR,M,M,M,M,M,M,M,M,M,M,M,M,M,M,50.00,KTMT 161055Z AUTO 00000KT 10SM CLR 10/06 A3024 RMK AO2 T01010057,M
EKO,2024-07-16 10:56,-115.7860,40.8242,1367.00,59.00,44.00,57.44,70.00,5.00,0.00,30.19,1016.60,10.00,M,CLR,M,M,M,M,M,M,M,M,M,M,M,M,M,M,59.00,KEKO 161056Z AUTO 07005KT 10SM CLR 15/07 A3019 RMK AO2 SLP166 T01500067,M
WMC,2024-07-16 10:56,-117.8072,40.9019,1315.00,57.00,41.00,54.99,0.00,0.00,0.00,30.13,1015.20,10.00,M,CLR,M,M,M,M,M,M,M,M,M,M,M,M,M,M,57.00,KWMC 161056Z AUTO 00000KT 10SM CLR 14/05 A3013 RMK AO2 SLP152 T01390050,M
HND,2024-07-16 10:56,-115.1344,35.9729,742.79,87.00,50.00,28.00,200.00,9.00,0.00,29.92,1010.90,10.00,M,CLR,M,M,M,M,M,M,M,M,M,M,M,M,M,M,84.43,KHND 161056Z 20009KT 10SM CLR 31/10 A2992 RMK AO2 SLP109 T03060100,M
TPH,2024-07-16 10:56,-117.0904,38.0505,1654.00,69.00,40.00,34.69,360.00,6.00,0.00,30.18,1012.90,10.00,M,CLR,M,M,M,M,M,M,M,M,M,M,M,M,M,M,69.00,KTPH 161056Z AUTO 36006KT 10SM CLR 21/04 A3018 RMK AO2 SLP129 T02060044,M
LAS,2024-07-16 10:56,-115.1634,36.0719,663.00,93.00,49.00,22.34,200.00,6.00,0.00,29.87,1004.40,10.00,M,FEW,M,M,M,22000.00,M,M,M,M,M,M,M,M,M,M,89.73,KLAS 161056Z 20006KT 10SM FEW220 34/09 A2987 RMK AO2 SLP044 T03390094 $,M
BVU,2024-07-16 11:15,-114.8611,35.9475,671.00,86.00,50.00,28.90,80.00,6.00,0.00,29.87,M,10.00,M,CLR,M,M,M,M,M,M,M,M,M,M,M,M,M,M,83.62,KBVU 161115Z AUTO 08006KT 10SM CLR 30/10 A2987 RMK AO2,M
CXP,2024-07-16 11:15,-119.7326,39.1923,1431.00,62.60,48.20,59.26,0.00,0.00,0.00,30.19,M,10.00,M,CLR,M,M,M,M,M,M,M,M,M,M,M,M,M,M,62.60,KCXP 161115Z AUTO 00000KT 10SM CLR 17/09 A3019 RMK AO2,M
RTS,2024-07-16 11:15,-119.8764,39.6682,1539.00,59.00,41.00,51.18,350.00,3.00,0.00,30.20,M,10.00,M,FEW,M,M,M,12000.00,M,M,M,M,M,M,M,M,M,M,59.00,KRTS 161115Z AUTO 35003KT 10SM FEW120 15/05 A3020 RMK AO2,M
05U,2024-07-16 11:15,-116.0051,39.6042,1811.23,53.60,37.40,54.07,0.00,0.00,0.00,30.26,M,10.00,M,M,M,M,M,M,M,M,M,M,M,M,M,M,M,M,53.60,K05U 161115Z AUTO 00000KT 10SM 12/03 A3026 RMK A01,M
MEV,2024-07-16 11:15,-119.7500,38.9963,1441.42,55.40,46.40,71.64,80.00,4.00,0.00,30.18,M,10.00,M,FEW,SCT,SCT,M,4600.00,5500.00,12000.00,M,M,M,M,M,M,M,M,55.40,KMEV 161115Z AUTO 08004KT 10SM FEW046 SCT055 SCT120 13/08 A3018 RMK AO2,M
HTH,2024-07-16 11:15,-118.6315,38.5448,1282.89,71.60,48.20,43.42,220.00,4.00,0.00,30.12,M,10.00,M,CLR,M,M,M,M,M,M,M,M,M,M,M,M,M,M,71.60,KHTH 161115Z AUTO 22004KT 10SM CLR 22/09 A3012 RMK A01,M
BAM,2024-07-16 11:15,-116.8743,40.5990,1382.36,57.20,53.60,87.74,0.00,0.00,0.00,30.16,M,10.00,M,CLR,M,M,M,M,M,M,M,M,M,M,M,M,M,M,57.20,KBAM 161115Z AUTO 00000KT 10SM CLR 14/12 A3016 RMK AO1,M
TMT,2024-07-16 11:15,-117.1971,39.4643,1749.34,50.00,41.70,73.02,0.00,0.00,0.00,30.24,M,10.00,M,CLR,M,M,M,M,M,M,M,M,M,M,M,M,M,M,50.00,KTMT 161115Z AUTO 00000KT 10SM CLR 10/05 A3024 RMK AO2 T01000054,M
BVU,2024-07-16 11:35,-114.8611,35.9475,671.00,82.40,53.60,37.07,30.00,6.00,0.00,29.88,M,10.00,M,CLR,M,M,M,M,M,M,M,M,M,M,M,M,M,M,81.46,KBVU 161135Z AUTO 03006KT 10SM CLR 28/12 A2988 RMK AO2,M
CXP,2024-07-16 11:35,-119.7326,39.1923,1431.00,62.60,46.40,55.37,0.00,0.00,0.00,30.19,M,10.00,M,FEW,M,M,M,12000.00,M,M,M,M,M,M,M,M,M,M,62.60,KCXP 161135Z AUTO 00000KT 10SM FEW120 17/08 A3019 RMK AO2,M
RTS,2024-07-16 11:35,-119.8764,39.6682,1539.00,60.80,42.80,51.45,360.00,4.00,0.00,30.20,M,10.00,M,SCT,M,M,M,12000.00,M,M,M,M,M,M,M,M,M,M,60.80,KRTS 161135Z AUTO 36004KT 10SM SCT120 16/06 A3020 RMK AO2,M
05U,2024-07-16 11:35,-116.0051,39.6042,1811.23,53.60,39.20,58.02,0.00,0.00,0.00,30.26,M,10.00,M,M,M,M,M,M,M,M,M,M,M,M,M,M,M,M,53.60,K05U 161135Z AUTO 00000KT 10SM 12/04 A3026 RMK A01,M
MEV,2024-07-16 11:35,-119.7500,38.9963,1441.42,51.80,44.60,76.34,120.00,5.00,0.00,30.18,M,10.00,M,FEW,FEW,FEW,M,4500.00,5000.00,12000.00,M,M,M,M,M,M,M,M,51.80,KMEV 161135Z AUTO 12005KT 10SM FEW045 FEW050 FEW120 11/07 A3018 RMK AO2,M
HTH,2024-07-16 11:35,-118.6315,38.5448,1282.89,71.60,46.40,40.57,210.00,3.00,0.00,30.13,M,10.00,M,CLR,M,M,M,M,M,M,M,M,M,M,M,M,M,M,71.60,KHTH 161135Z AUTO 21003KT 10SM CLR 22/08 A3013 RMK A01,M
BAM,2024-07-16 11:35,-116.8743,40.5990,1382.36,55.40,51.80,87.65,150.00,4.00,0.00,30.17,M,10.00,M,CLR,M,M,M,M,M,M,M,M,M,M,M,M,M,M,55.40,KBAM 161135Z AUTO 15004KT 10SM CLR 13/11 A3017 RMK AO1,M
TMT,2024-07-16 11:35,-117.1971,39.4643,1749.34,49.00,40.60,72.63,0.00,0.00,0.00,30.25,M,10.00,M,CLR,M,M,M,M,M,M,M,M,M,M,M,M,M,M,49.00,KTMT 161135Z AUTO 00000KT 10SM CLR 09/05 A3025 RMK AO2 T00940048,M
P68,2024-07-16 11:53,-116.0056,39.6014,1993.00,54.00,39.00,56.74,190.00,6.00,0.00,30.24,1015.70,M,M,M,M,M,M,M,M,M,M,M,M,M,M,M,M,M,54.00,KP68 161153Z AUTO 19006KT 12/04 A3024 RMK AO1 SLP157 T01220039 10172 20106 53001,M
DRA,2024-07-16 11:53,-116.0278,36.6206,1009.00,81.00,45.00,28.15,20.00,6.00,0.00,29.98,1009.10,10.00,M,CLR,M,M,M,M,M,M,M,M,M,M,M,M,M,M,79.68,KDRA 161153Z AUTO 02006KT 10SM CLR 27/07 A2998 RMK AO2 SLP091 T02720072 10322 20272 53004,M
ELY,2024-07-16 11:53,-114.8453,39.2950,1909.00,52.00,42.00,68.59,200.00,9.00,0.00,30.27,1015.20,10.00,M,CLR,M,M,M,M,M,M,M,M,M,M,M,M,M,M,52.00,KELY 161153Z AUTO 20009KT 10SM CLR 11/06 A3027 RMK AO2 SLP152 70015 T01110056 10194 20106 53004,M
VGT,2024-07-16 11:53,-115.1933,36.2111,667.00,89.00,49.00,25.32,290.00,4.00,0.00,29.88,1010.10,10.00,M,CLR,M,M,M,M,M,M,M,M,M,M,M,M,M,M,86.01,KVGT 161153Z AUTO 29004KT 10SM CLR 32/09 A2988 RMK AO2 SLP101 T03170094 10367 20311 53006,M
LOL,2024-07-16 11:53,-118.5701,40.0684,1192.43,60.00,45.00,57.58,160.00,10.00,0.00,30.10,1015.20,10.00,M,FEW,M,M,M,9500.00,M,M,M,M,M,M,M,M,M,M,60.00,KLOL 161153Z AUTO 16010KT 10SM FEW095 16/07 A3010 RMK AO2 SLP152 T01560072 10239 20156 53002,M
BVU,2024-07-16 11:55,-114.8611,35.9475,671.00,82.40,51.80,34.69,30.00,4.00,0.00,29.88,M,10.00,M,CLR,M,M,M,M,M,M,M,M,M,M,M,M,M,M,81.20,KBVU 161155Z AUTO 03004KT 10SM CLR 28/11 A2988 RMK AO2,M
CXP,2024-07-16 11:55,-119.7326,39.1923,1431.00,59.00,48.20,67.33,0.00,0.00,0.00,30.20,M,10.00,M,FEW,M,M,M,12000.00,M,M,M,M,M,M,M,M,M,M,59.00,KCXP 161155Z AUTO 00000KT 10SM FEW120 15/09 A3020 RMK AO2,M
INS,2024-07-16 11:55,-115.6733,36.5872,955.00,84.00,39.70,20.83,0.00,0.00,0.00,29.97,1008.50,10.00,M,CLR,M,M,M,M,M,M,M,M,M,M,M,M,M,M,81.32,KINS 161155Z AUTO 00000KT 10SM CLR 29/04 A2997 RMK AO2 SLP085 T02880043 10331 20264 53006 $,M
RNO,2024-07-16 11:55,-119.7711,39.4839,1341.00,66.00,49.00,54.21,160.00,4.00,0.00,30.16,1015.90,10.00,M,BKN,M,M,M,15000.00,M,M,M,M,M,M,M,M,M,M,66.00,KRNO 161155Z 16004KT 10SM BKN150 19/09 A3016 RMK AO2 SLP159 T01890094 10256 20189 53003,M
LSV,2024-07-16 11:55,-115.0343,36.2362,570.00,86.50,49.50,27.92,0.00,0.00,0.00,29.83,1006.80,10.00,M,FEW,M,M,M,20000.00,M,M,M,M,M,M,M,M,M,M,83.95,KLSV 161155Z AUTO 00000KT 10SM FEW200 30/10 A2983 RMK AO2 SLP068 T03030097 10369 20302 52011 $,M
RTS,2024-07-16 11:55,-119.8764,39.6682,1539.00,62.60,42.80,48.28,0.00,0.00,0.00,30.20,M,10.00,M,BKN,M,M,M,12000.00,M,M,M,M,M,M,M,M,M,M,62.60,KRTS 161155Z AUTO 00000KT 10SM BKN120 17/06 A3020 RMK AO2,M
05U,2024-07-16 11:55,-116.0051,39.6042,1811.23,55.40,39.20,54.34,0.00,0.00,0.00,30.27,M,10.00,M,M,M,M,M,M,M,M,M,M,M,M,M,M,M,M,55.40,K05U 161155Z AUTO 00000KT 10SM 13/04 A3027 RMK A01,M
MEV,2024-07-16 11:55,-119.7500,38.9963,1441.42,51.80,44.60,76.34,140.00,7.00,0.00,30.19,M,10.00,M,FEW,FEW,M,M,5500.00,12000.00,M,M,M,M,M,M,M,M,M,51.80,KMEV 161155Z AUTO 14007KT 10SM FEW055 FEW120 11/07 A3019 RMK AO2,M
HTH,2024-07-16 11:55,-118.6315,38.5448,1282.89,71.60,48.20,43.42,0.00,0.00,0.00,30.13,M,10.00,M,CLR,M,M,M,M,M,M,M,M,M,M,M,M,M,M,71.60,KHTH 161155Z AUTO 00000KT 10SM CLR 22/09 A3013 RMK A01,M
BAM,2024-07-16 11:55,-116.8743,40.5990,1382.36,53.60,51.80,93.60,0.00,0.00,0.00,30.18,M,10.00,M,CLR,M,M,M,M,M,M,M,M,M,M,M,M,M,M,53.60,KBAM 161155Z AUTO 00000KT 10SM CLR 12/11 A3018 RMK AO1,M
TMT,2024-07-16 11:55,-117.1971,39.4643,1749.34,51.00,42.40,72.28,0.00,0.00,0.00,30.25,M,10.00,M,CLR,M,M,M,M,M,M,M,M,M,M,M,M,M,M,51.00,KTMT 161155Z AUTO 00000KT 10SM CLR 11/06 A3025 RMK AO2 T01050058 10180 20090,M
EKO,2024-07-16 11:56,-115.7860,40.8242,1367.00,60.00,45.00,57.58,40.00,5.00,0.00,30.20,1016.90,10.00,M,CLR,M,M,M,M,M,M,M,M,M,M,M,M,M,M,60.00,KEKO 161156Z AUTO 04005KT 10SM CLR 16/07 A3020 RMK AO2 SLP169 T01560072 10206 20128 53006,M
WMC,2024-07-16 11:56,-117.8072,40.9019,1315.00,54.00,39.00,56.74,150.00,5.00,0.00,30.14,1015.80,10.00,M,CLR,M,M,M,M,M,M,M,M,M,M,M,M,M,M,54.00,KWMC 161156Z AUTO 15005KT 10SM CLR 12/04 A3014 RMK AO2 SLP158 T01220039 10206 20122 53004,M
HND,2024-07-16 11:56,-115.1344,35.9729,742.79,85.00,50.00,29.85,190.00,8.00,0.00,29.93,1011.60,10.00,M,CLR,M,M,M,M,M,M,M,M,M,M,M,M,M,M,82.83,KHND 161156Z 19008KT 10SM CLR 29/10 A2993 RMK AO2 SLP116 T02940100 10339 20294 53004,M
TPH,2024-07-16 11:56,-117.0904,38.0505,1654.00,67.00,40.00,37.16,340.00,8.00,0.00,30.19,1013.60,10.00,M,CLR,M,M,M,M,M,M,M,M,M,M,M,M,M,M,67.00,KTPH 161156Z AUTO 34008KT 10SM CLR 19/04 A3019 RMK AO2 SLP136 T01940044 10261 20172 53005,M
LAS,2024-07-16 11:56,-115.1634,36.0719,663.00,92.00,48.00,22.19,230.00,3.00,0.00,29.89,1005.10,10.00,M,BKN,M,M,M,20000.00,M,M,M,M,M,M,M,M,M,M,88.63,KLAS 161156Z 23003KT 10SM BKN200 33/09 A2989 RMK AO2 SLP051 T03330089 10372 20333 53006 $,M
05U,2024-07-16 12:10,-116.0051,39.6042,1811.23,53.60,39.20,58.02,0.00,0.00,0.00,30.27,M,10.00,M,M,M,M,M,M,M,M,M,M,M,M,M,M,M,M,53.60,K05U 161210Z AUTO 00000KT 10SM 12/04 A3027 RMK A01,M
BVU,2024-07-16 12:15,-114.8611,35.9475,671.00,82.40,51.80,34.69,20.00,5.00,0.00,29.88,M,10.00,M,CLR,M,M,M,M,M,M,M,M,M,M,M,M,M,M,81.20,KBVU 161215Z AUTO 02005KT 10SM CLR 28/11 A2988 RMK AO2,M
CXP,2024-07-16 12:15,-119.7326,39.1923,1431.00,60.80,48.20,63.15,0.00,0.00,0.00,30.21,M,10.00,M,CLR,M,M,M,M,M,M,M,M,M,M,M,M,M,M,60.80,KCXP 161215Z AUTO 00000KT 10SM CLR 16/09 A3021 RMK AO2,M
RTS,2024-07-16 12:15,-119.8764,39.6682,1539.00,60.80,42.80,51.45,200.00,3.00,0.00,30.21,M,10.00,M,SCT,M,M,M,12000.00,M,M,M,M,M,M,M,M,M,M,60.80,KRTS 161215Z AUTO 20003KT 10SM SCT120 16/06 A3021 RMK AO2,M
MEV,2024-07-16 12:15,-119.7500,38.9963,1441.42,53.60,44.60,71.45,140.00,4.00,0.00,30.19,M,10.00,M,FEW,FEW,FEW,M,4700.00,5500.00,12000.00,M,M,M,M,M,M,M,M,53.60,KMEV 161215Z AUTO 14004KT 10SM FEW047 FEW055 FEW120 12/07 A3019 RMK AO2,M
HTH,2024-07-16 12:15,-118.6315,38.5448,1282.89,71.60,48.20,43.42,220.00,4.00,0.00,30.13,M,10.00,M,CLR,M,M,M,M,M,M,M,M,M,M,M,M,M,M,71.60,KHTH 161215Z AUTO 22004KT 10SM CLR 22/09 A3013 RMK A01,M
BAM,2024-07-16 12:15,-116.8743,40.5990,1382.36,55.40,51.80,87.65,0.00,0.00,0.00,30.18,M,10.00,M,CLR,M,M,M,M,M,M,M,M,M,M,M,M,M,M,55.40,KBAM 161215Z AUTO 00000KT 10SM CLR 13/11 A3018 RMK AO1,M
TMT,2024-07-16 12:15,-117.1971,39.4643,1749.34,50.40,41.70,71.94,0.00,0.00,0.00,30.26,M,10.00,M,BKN,M,M,M,12000.00,M,M,M,M,M,M,M,M,M,M,50.40,KTMT 161215Z AUTO 00000KT 10SM BKN120 10/05 A3026 RMK AO2 T01020054,M
BVU,2024-07-16 12:35,-114.8611,35.9475,671.00,80.60,53.60,39.30,40.00,5.00,0.00,29.89,M,10.00,M,CLR,M,M,M,M,M,M,M,M,M,M,M,M,M,M,80.29,KBVU 161235Z AUTO 04005KT 10SM CLR 27/12 A2989 RMK AO2,M
CXP,2024-07-16 12:35,-119.7326,39.1923,1431.00,60.80,48.20,63.15,330.00,4.00,0.00,30.21,M,10.00,M,CLR,M,M,M,M,M,M,M,M,M,M,M,M,M,M,60.80,KCXP 161235Z AUTO 33004KT 10SM CLR 16/09 A3021 RMK AO2,M
RTS,2024-07-16 12:35,-119.8764,39.6682,1539.00,59.00,42.80,54.86,0.00,0.00,0.00,30.21,M,10.00,M,BKN,M,M,M,11000.00,M,M,M,M,M,M,M,M,M,M,59.00,KRTS 161235Z AUTO 00000KT 10SM BKN110 15/06 A3021 RMK AO2,M
05U,2024-07-16 12:35,-116.0051,39.6042,1811.23,M,M,M,0.00,0.00,0.00,30.28,M,10.00,M,M,M,M,M,M,M,M,M,M,M,M,M,M,M,M,M,K05U 161235Z AUTO 00000KT 10SM A3028 RMK A01,M
MEV,2024-07-16 12:35,-119.7500,38.9963,1441.42,53.60,46.40,76.50,0.00,0.00,0.00,30.20,M,10.00,M,CLR,M,M,M,M,M,M,M,M,M,M,M,M,M,M,53.60,KMEV 161235Z AUTO 00000KT 10SM CLR 12/08 A3020 RMK AO2,M
HTH,2024-07-16 12:35,-118.6315,38.5448,1282.89,71.60,48.20,43.42,180.00,5.00,0.00,30.14,M,10.00,M,CLR,M,M,M,M,M,M,M,M,M,M,M,M,M,M,71.60,KHTH 161235Z AUTO 18005KT 10SM CLR 22/09 A3014 RMK A01,M
BAM,2024-07-16 12:35,-116.8743,40.5990,1382.36,55.40,51.80,87.65,0.00,0.00,0.00,30.19,M,10.00,M,CLR,M,M,M,M,M,M,M,M,M,M,M,M,M,M,55.40,KBAM 161235Z AUTO 00000KT 10SM CLR 13/11 A3019 RMK AO1,M
TMT,2024-07-16 12:35,-117.1971,39.4643,1749.34,50.40,42.00,72.78,0.00,0.00,0.00,30.26,M,10.00,M,BKN,M,M,M,12000.00,M,M,M,M,M,M,M,M,M,M,50.40,KTMT 161235Z AUTO 00000KT 10SM BKN120 10/06 A3026 RMK AO2 T01020055,M
DRA,2024-07-16 12:53,-116.0278,36.6206,1009.00,79.00,45.00,30.05,40.00,7.00,0.00,30.00,1009.80,10.00,M,CLR,M,M,M,M,M,M,M,M,M,M,M,M,M,M,79.00,KDRA 161253Z AUTO 04007KT 10SM CLR 26/07 A3000 RMK AO2 SLP098 T02610072,M
ELY,2024-07-16 12:53,-114.8453,39.2950,1909.00,52.00,42.00,68.59,180.00,4.00,0.00,30.28,1016.40,10.00,M,CLR,M,M,M,M,M,M,M,M,M,M,M,M,M,M,52.00,KELY 161253Z AUTO 18004KT 10SM CLR 11/06 A3028 RMK AO2 SLP164 T01110056 $,M
VGT,2024-07-16 12:53,-115.1933,36.2111,667.00,88.00,49.00,26.13,20.00,4.00,0.00,29.90,1010.70,10.00,M,CLR,M,M,M,M,M,M,M,M,M,M,M,M,M,M,85.14,KVGT 161253Z 02004KT 10SM CLR 31/09 A2990 RMK AO2 SLP107 T03110094,M
LOL,2024-07-16 12:53,-118.5701,40.0684,1192.43,61.00,45.00,55.57,270.00,3.00,0.00,30.11,1015.70,10.00,M,CLR,M,M,M,M,M,M,M,M,M,M,M,M,M,M,61.00,KLOL 161253Z AUTO 27003KT 10SM CLR 16/07 A3011 RMK AO2 SLP157 T01610072,M
BVU,2024-07-16 12:55,-114.8611,35.9475,671.00,86.00,50.00,28.90,120.00,5.00,0.00,29.90,M,10.00,M,CLR,M,M,M,M,M,M,M,M,M,M,M,M,M,M,83.62,KBVU 161255Z AUTO 12005KT 10SM CLR 30/10 A2990 RMK AO2,M
CXP,2024-07-16 12:55,-119.7326,39.1923,1431.00,62.60,48.20,59.26,0.00,0.00,0.00,30.21,M,10.00,M,CLR,M,M,M,M,M,M,M,M,M,M,M,M,M,M,62.60,KCXP 161255Z AUTO 00000KT 10SM CLR 17/09 A3021 RMK AO2,M
INS,2024-07-16 12:55,-115.6733,36.5872,955.00,79.30,38.30,22.97,0.00,0.00,0.00,29.98,1009.10,10.00,M,FEW,M,M,M,15000.00,M,M,M,M,M,M,M,M,M,M,79.30,KINS 161255Z AUTO 00000KT 10SM FEW150 26/04 A2998 RMK AO2 SLP091 T02630035 $,M
RNO,2024-07-16 12:55,-119.7711,39.4839,1341.00,67.00,49.00,52.37,290.00,3.00,0.00,30.17,1016.00,10.00,M,BKN,M,M,M,15000.00,M,M,M,M,M,M,M,M,M,M,67.00,KRNO 161255Z 29003KT 10SM BKN150 19/09 A3017 RMK AO2 SLP160 T01940094,M
RTS,2024-07-16 12:55,-119.8764,39.6682,1539.00,59.00,42.80,54.86,350.00,4.00,0.00,30.21,M,10.00,M,SCT,M,M,M,12000.00,M,M,M,M,M,M,M,M,M,M,59.00,KRTS 161255Z AUTO 35004KT 10SM SCT120 15/06 A3021 RMK AO2,M
05U,2024-07-16 12:55,-116.0051,39.6042,1811.23,M,M,M,0.00,0.00,0.00,30.28,M,10.00,M,M,M,M,M,M,M,M,M,M,M,M,M,M,M,M,M,K05U 161255Z AUTO 00000KT 10SM A3028 RMK A01,M
MEV,2024-07-16 12:55,-119.7500,38.9963,1441.42,53.60,46.40,76.50,0.00,0.00,0.00,30.20,M,10.00,M,CLR,M,M,M,M,M,M,M,M,M,M,M,M,M,M,53.60,KMEV 161255Z AUTO 00000KT 10SM CLR 12/08 A3020 RMK AO2,M
HTH,2024-07-16 12:55,-118.6315,38.5448,1282.89,69.80,51.80,52.77,280.00,4.00,0.00,30.14,M,10.00,M,FEW,SCT,SCT,M,4600.00,5500.00,7500.00,M,M,M,M,M,M,M,M,69.80,KHTH 161255Z AUTO 28004KT 10SM FEW046 SCT055 SCT075 21/11 A3014 RMK A01,M
BAM,2024-07-16 12:55,-116.8743,40.5990,1382.36,57.20,51.80,82.12,0.00,0.00,0.00,30.19,M,10.00,M,CLR,M,M,M,M,M,M,M,M,M,M,M,M,M,M,57.20,KBAM 161255Z AUTO 00000KT 10SM CLR 14/11 A3019 RMK AO1,M
TMT,2024-07-16 12:55,-117.1971,39.4643,1749.34,49.00,40.60,72.63,0.00,0.00,0.00,30.27,M,10.00,M,SCT,M,M,M,12000.00,M,M,M,M,M,M,M,M,M,M,49.00,KTMT 161255Z AUTO 00000KT 10SM SCT120 10/05 A3027 RMK AO2 T00950048,M
LSV,2024-07-16 12:55,-115.0343,36.2362,570.00,87.60,50.40,27.88,50.00,3.00,0.00,29.85,1007.50,10.00,M,CLR,M,M,M,M,M,M,M,M,M,M,M,M,M,M,84.99,KLSV 161255Z AUTO 05003KT 10SM CLR 31/10 A2985 RMK AO2 SLP075 T03090102 $,M
EKO,2024-07-16 12:56,-115.7860,40.8242,1367.00,57.00,44.00,61.72,110.00,3.00,0.00,30.22,1018.00,10.00,M,CLR,M,M,M,M,M,M,M,M,M,M,M,M,M,M,57.00,KEKO 161256Z AUTO 11003KT 10SM CLR 14/07 A3022 RMK AO2 SLP180 T01390067,M
WMC,2024-07-16 12:56,-117.8072,40.9019,1315.00,57.00,41.00,54.99,0.00,0.00,0.00,30.15,1016.00,10.00,M,CLR,M,M,M,M,M,M,M,M,M,M,M,M,M,M,57.00,KWMC 161256Z AUTO 00000KT 10SM CLR 14/05 A3015 RMK AO2 SLP160 T01390050,M
HND,2024-07-16 12:56,-115.1344,35.9729,742.79,86.00,50.00,28.90,210.00,11.00,0.00,29.94,1011.90,10.00,M,CLR,M,M,M,M,M,M,M,M,M,M,M,M,M,M,83.62,KHND 161256Z 21011KT 10SM CLR 30/10 A2994 RMK AO2 SLP119 T03000100,M
TPH,2024-07-16 12:56,-117.0904,38.0505,1654.00,66.00,41.00,39.99,340.00,7.00,0.00,30.21,1014.40,10.00,M,CLR,M,M,M,M,M,M,M,M,M,M,M,M,M,M,66.00,KTPH 161256Z AUTO 34007KT 10SM CLR 19/05 A3021 RMK AO2 SLP144 T01890050,M
LAS,2024-07-16 12:59,-115.1634,36.0719,663.00,91.00,48.00,22.90,240.00,3.00,0.00,29.90,M,10.00,M,FEW,FEW,M,M,15000.00,20000.00,M,M,M,M,M,M,M,M,M,87.69,KLAS 161259Z 24003KT 10SM FEW150 FEW200 33/09 A2990 RMK AO2 T03280089 $,M
BVU,2024-07-16 13:15,-114.8611,35.9475,671.00,82.40,51.80,34.69,0.00,0.00,0.00,29.91,M,10.00,M,CLR,M,M,M,M,M,M,M,M,M,M,M,M,M,M,81.20,KBVU 161315Z AUTO 00000KT 10SM CLR 28/11 A2991 RMK AO2,M
CXP,2024-07-16 13:15,-119.7326,39.1923,1431.00,62.60,46.40,55.37,0.00,0.00,0.00,30.21,M,10.00,M,FEW,M,M,M,12000.00,M,M,M,M,M,M,M,M,M,M,62.60,KCXP 161315Z AUTO 00000KT 10SM FEW120 17/08 A3021 RMK AO2,M
RTS,2024-07-16 13:15,-119.8764,39.6682,1539.00,59.00,42.80,54.86,0.00,0.00,0.00,30.22,M,10.00,M,FEW,M,M,M,12000.00,M,M,M,M,M,M,M,M,M,M,59.00,KRTS 161315Z AUTO 00000KT 10SM FEW120 15/06 A3022 RMK AO2,M
05U,2024-07-16 13:15,-116.0051,39.6042,1811.23,M,M,M,0.00,0.00,0.00,30.29,M,10.00,M,M,M,M,M,M,M,M,M,M,M,M,M,M,M,M,M,K05U 161315Z AUTO 00000KT 10SM A3029 RMK A01,M
MEV,2024-07-16 13:15,-119.7500,38.9963,1441.42,53.60,46.40,76.50,0.00,0.00,0.00,30.20,M,10.00,M,FEW,M,M,M,12000.00,M,M,M,M,M,M,M,M,M,M,53.60,KMEV 161315Z AUTO 00000KT 10SM FEW120 12/08 A3020 RMK AO2,M
BAM,2024-07-16 13:15,-116.8743,40.5990,1382.36,55.40,50.00,81.99,110.00,5.00,0.00,30.19,M,10.00,M,CLR,M,M,M,M,M,M,M,M,M,M,M,M,M,M,55.40,KBAM 161315Z AUTO 11005KT 10SM CLR 13/10 A3019 RMK AO1,M
HTH,2024-07-16 13:15,-118.6315,38.5448,1282.89,69.80,50.00,49.37,280.00,5.00,0.00,30.15,M,10.00,M,FEW,SCT,BKN,M,3000.00,4200.00,6000.00,M,M,M,M,M,M,M,M,69.80,KHTH 161315Z AUTO 28005KT 10SM FEW030 SCT042 BKN060 21/10 A3015 RMK A01,M
TMT,2024-07-16 13:15,-117.1971,39.4643,1749.34,50.00,42.40,75.01,0.00,0.00,0.00,30.27,M,10.00,M,SCT,M,M,M,12000.00,M,M,M,M,M,M,M,M,M,M,50.00,KTMT 161315Z AUTO 00000KT 10SM SCT120 10/06 A3027 RMK AO2 T00990058,M
BVU,2024-07-16 13:35,-114.8611,35.9475,671.00,82.40,53.60,37.07,30.00,4.00,0.00,29.92,M,10.00,M,CLR,M,M,M,M,M,M,M,M,M,M,M,M,M,M,81.46,KBVU 161335Z AUTO 03004KT 10SM CLR 28/12 A2992 RMK AO2,M
CXP,2024-07-16 13:35,-119.7326,39.1923,1431.00,64.40,48.20,55.63,0.00,0.00,0.00,30.21,M,10.00,M,FEW,M,M,M,12000.00,M,M,M,M,M,M,M,M,M,M,64.40,KCXP 161335Z AUTO 00000KT 10SM FEW120 18/09 A3021 RMK AO2,M
RTS,2024-07-16 13:35,-119.8764,39.6682,1539.00,59.00,42.80,54.86,0.00,0.00,0.00,30.22,M,10.00,M,CLR,M,M,M,M,M,M,M,M,M,M,M,M,M,M,59.00,KRTS 161335Z AUTO 00000KT 10SM CLR 15/06 A3022 RMK AO2,M
05U,2024-07-16 13:35,-116.0051,39.6042,1811.23,M,M,M,0.00,0.00,0.00,30.29,M,10.00,M,M,M,M,M,M,M,M,M,M,M,M,M,M,M,M,M,K05U 161335Z AUTO 00000KT 10SM A3029 RMK A01,M
MEV,2024-07-16 13:35,-119.7500,38.9963,1441.42,53.60,44.60,71.45,120.00,4.00,0.00,30.20,M,10.00,M,FEW,M,M,M,12000.00,M,M,M,M,M,M,M,M,M,M,53.60,KMEV 161335Z AUTO 12004KT 10SM FEW120 12/07 A3020 RMK AO2,M
HTH,2024-07-16 13:35,-118.6315,38.5448,1282.89,68.00,50.00,52.51,0.00,0.00,0.00,30.15,M,10.00,M,FEW,FEW,FEW,M,3000.00,4000.00,6000.00,M,M,M,M,M,M,M,M,68.00,KHTH 161335Z AUTO 00000KT 10SM FEW030 FEW040 FEW060 20/10 A3015 RMK A01,M
BAM,2024-07-16 13:35,-116.8743,40.5990,1382.36,57.20,51.80,82.12,210.00,10.00,0.00,30.20,M,10.00,M,SCT,M,M,M,12000.00,M,M,M,M,M,M,M,M,M,M,57.20,KBAM 161335Z AUTO 21010KT 10SM SCT120 14/11 A3020 RMK AO1,M
TMT,2024-07-16 13:35,-117.1971,39.4643,1749.34,52.50,43.00,69.98,0.00,0.00,0.00,30.27,M,10.00,M,SCT,M,M,M,12000.00,M,M,M,M,M,M,M,M,M,M,52.50,KTMT 161335Z AUTO 00000KT 10SM SCT120 11/06 A3027 RMK AO2 T01140062,M
P68,2024-07-16 13:53,-116.0056,39.6014,1993.00,59.00,41.00,51.18,180.00,3.00,0.00,30.27,1016.30,M,M,M,M,M,M,M,M,M,M,M,M,M,M,M,M,M,59.00,KP68 161353Z AUTO 18003KT 15/05 A3027 RMK AO1 SLP163 T01500050,M
DRA,2024-07-16 13:53,-116.0278,36.6206,1009.00,82.00,46.00,28.30,0.00,0.00,0.00,30.01,1010.30,10.00,M,CLR,M,M,M,M,M,M,M,M,M,M,M,M,M,M,80.36,KDRA 161353Z AUTO 00000KT 10SM CLR 28/08 A3001 RMK AO2 SLP103 T02780078,M
ELY,2024-07-16 13:53,-114.8453,39.2950,1909.00,60.00,45.00,57.58,170.00,3.00,0.00,30.30,1016.10,10.00,M,CLR,M,M,M,M,M,M,M,M,M,M,M,M,M,M,60.00,KELY 161353Z AUTO 17003KT 10SM CLR 16/07 A3030 RMK AO2 SLP161 T01560072 $,M
VGT,2024-07-16 13:53,-115.1933,36.2111,667.00,89.00,48.00,24.39,310.00,3.00,0.00,29.92,1011.40,10.00,M,CLR,M,M,M,M,M,M,M,M,M,M,M,M,M,M,85.89,KVGT 161353Z 31003KT 10SM CLR 32/09 A2992 RMK AO2 SLP114 T03170089,M
LOL,2024-07-16 13:53,-118.5701,40.0684,1192.43,68.00,44.00,41.88,300.00,5.00,0.00,30.12,1015.40,10.00,M,CLR,M,M,M,M,M,M,M,M,M,M,M,M,M,M,68.00,KLOL 161353Z AUTO 30005KT 10SM CLR 20/07 A3012 RMK AO2 SLP154 T02000067,M
BVU,2024-07-16 13:55,-114.8611,35.9475,671.00,87.80,51.80,29.18,20.00,3.00,0.00,29.92,M,10.00,M,CLR,M,M,M,M,M,M,M,M,M,M,M,M,M,M,85.39,KBVU 161355Z AUTO 02003KT 10SM CLR 31/11 A2992 RMK AO2,M
CXP,2024-07-16 13:55,-119.7326,39.1923,1431.00,66.20,46.40,48.83,0.00,0.00,0.00,30.21,M,10.00,M,FEW,M,M,M,12000.00,M,M,M,M,M,M,M,M,M,M,66.20,KCXP 161355Z AUTO 00000KT 10SM FEW120 19/08 A3021 RMK AO2,M
INS,2024-07-16 13:55,-115.6733,36.5872,955.00,80.00,40.00,23.99,0.00,0.00,0.00,30.00,1009.60,10.00,M,CLR,M,M,M,M,M,M,M,M,M,M,M,M,M,M,78.83,KINS 161355Z AUTO 00000KT 10SM CLR 27/04 A3000 RMK AO2 SLP096 T02660044 $,M
RNO,2024-07-16 13:55,-119.7711,39.4839,1341.00,69.00,48.00,47.09,220.00,3.00,0.00,30.17,1016.00,10.00,M,BKN,M,M,M,15000.00,M,M,M,M,M,M,M,M,M,M,69.00,KRNO 161355Z 22003KT 10SM BKN150 21/09 A3017 RMK AO2 SLP160 T02060089,M
LSV,2024-07-16 13:55,-115.0343,36.2362,570.00,89.00,48.60,24.94,0.00,0.00,0.00,29.87,1008.20,10.00,M,FEW,M,M,M,14000.00,M,M,M,M,M,M,M,M,M,M,85.96,KLSV 161355Z AUTO 00000KT 10SM FEW140 32/09 A2987 RMK AO2 SLP082 T03170092 $,M
RTS,2024-07-16 13:55,-119.8764,39.6682,1539.00,60.80,44.60,55.12,0.00,0.00,0.00,30.22,M,10.00,M,CLR,M,M,M,M,M,M,M,M,M,M,M,M,M,M,60.80,KRTS 161355Z AUTO 00000KT 10SM CLR 16/07 A3022 RMK AO2,M
05U,2024-07-16 13:55,-116.0051,39.6042,1811.23,M,M,M,0.00,0.00,0.00,30.29,M,10.00,M,M,M,M,M,M,M,M,M,M,M,M,M,M,M,M,M,K05U 161355Z AUTO 00000KT 10SM A3029 RMK A01,M
MEV,2024-07-16 13:55,-119.7500,38.9963,1441.42,55.40,48.20,76.66,0.00,0.00,0.00,30.20,M,10.00,M,CLR,M,M,M,M,M,M,M,M,M,M,M,M,M,M,55.40,KMEV 161355Z AUTO 00000KT 10SM CLR 13/09 A3020 RMK AO2,M
BAM,2024-07-16 13:55,-116.8743,40.5990,1382.36,60.80,51.80,72.20,0.00,0.00,0.00,30.19,M,10.00,M,CLR,M,M,M,M,M,M,M,M,M,M,M,M,M,M,60.80,KBAM 161355Z AUTO 00000KT 10SM CLR 16/11 A3019 RMK AO1,M
HTH,2024-07-16 13:55,-118.6315,38.5448,1282.89,69.80,48.20,46.16,220.00,5.00,0.00,30.15,M,10.00,M,CLR,M,M,M,M,M,M,M,M,M,M,M,M,M,M,69.80,KHTH 161355Z AUTO 22005KT 10SM CLR 21/09 A3015 RMK A01,M
TMT,2024-07-16 13:55,-117.1971,39.4643,1749.34,55.00,44.00,66.36,0.00,0.00,0.00,30.27,M,10.00,M,CLR,M,M,M,M,M,M,M,M,M,M,M,M,M,M,55.00,KTMT 161355Z AUTO 00000KT 10SM CLR 13/07 A3027 RMK AO2 T01270067,M
EKO,2024-07-16 13:56,-115.7860,40.8242,1367.00,60.00,46.00,59.80,80.00,5.00,0.00,30.23,1018.30,10.00,M,CLR,M,M,M,M,M,M,M,M,M,M,M,M,M,M,60.00,KEKO 161356Z AUTO 08005KT 10SM CLR 16/08 A3023 RMK AO2 SLP183 T01560078,M
WMC,2024-07-16 13:56,-117.8072,40.9019,1315.00,63.00,42.00,46.16,100.00,4.00,0.00,30.16,1016.10,10.00,M,CLR,M,M,M,M,M,M,M,M,M,M,M,M,M,M,63.00,KWMC 161356Z AUTO 10004KT 10SM CLR 17/06 A3016 RMK AO2 SLP161 T01720056,M
NFL,2024-07-16 13:56,-118.7010,39.4166,1199.00,71.00,46.00,40.78,170.00,4.00,0.00,30.12,1016.60,10.00,M,SCT,SCT,M,M,8000.00,12000.00,M,M,M,M,M,M,M,M,M,71.00,KNFL 161356Z 17004KT 10SM SCT080 SCT120 22/08 A3012 RMK AO2 SLP166 T02170078,M
HND,2024-07-16 13:56,-115.1344,35.9729,742.79,86.00,51.00,30.00,210.00,9.00,0.00,29.97,1012.80,10.00,M,CLR,M,M,M,M,M,M,M,M,M,M,M,M,M,M,83.75,KHND 161356Z 21009KT 10SM CLR 30/11 A2997 RMK AO2 SLP128 T03000106,M
TPH,2024-07-16 13:56,-117.0904,38.0505,1654.00,71.00,41.00,33.68,360.00,10.00,0.00,30.21,1014.00,10.00,M,CLR,M,M,M,M,M,M,M,M,M,M,M,M,M,M,71.00,KTPH 161356Z AUTO 36010KT 10SM CLR 22/05 A3021 RMK AO2 SLP140 T02170050,M
LAS,2024-07-16 13:56,-115.1634,36.0719,663.00,91.00,51.00,25.61,150.00,3.00,0.00,29.92,1006.30,10.00,M,FEW,FEW,M,M,12000.00,15000.00,M,M,M,M,M,M,M,M,M,88.16,KLAS 161356Z 15003KT 10SM FEW120 FEW150 33/11 A2992 RMK AO2 SLP063 T03280106 $,M
BVU,2024-07-16 14:15,-114.8611,35.9475,671.00,89.60,51.80,27.56,30.00,3.00,0.00,29.93,M,10.00,M,CLR,M,M,M,M,M,M,M,M,M,M,M,M,M,M,87.00,KBVU 161415Z AUTO 03003KT 10SM CLR 32/11 A2993 RMK AO2,M
CXP,2024-07-16 14:15,-119.7326,39.1923,1431.00,66.20,48.20,52.25,0.00,0.00,0.00,30.21,M,10.00,M,CLR,M,M,M,M,M,M,M,M,M,M,M,M,M,M,66.20,KCXP 161415Z AUTO 00000KT 10SM CLR 19/09 A3021 RMK AO2,M
RTS,2024-07-16 14:15,-119.8764,39.6682,1539.00,64.40,44.60,48.55,340.00,3.00,0.00,30.22,M,10.00,M,CLR,M,M,M,M,M,M,M,M,M,M,M,M,M,M,64.40,KRTS 161415Z AUTO 34003KT 10SM CLR 18/07 A3022 RMK AO2,M
05U,2024-07-16 14:15,-116.0051,39.6042,1811.23,M,M,M,0.00,0.00,0.00,30.30,M,10.00,M,M,M,M,M,M,M,M,M,M,M,M,M,M,M,M,M,K05U 161415Z AUTO 00000KT 10SM A3030 RMK A01,M
MEV,2024-07-16 14:15,-119.7500,38.9963,1441.42,60.80,46.40,59.01,0.00,0.00,0.00,30.20,M,10.00,M,CLR,M,M,M,M,M,M,M,M,M,M,M,M,M,M,60.80,KMEV 161415Z AUTO 00000KT 10SM CLR 16/08 A3020 RMK AO2,M
BAM,2024-07-16 14:15,-116.8743,40.5990,1382.36,60.80,53.60,77.14,280.00,3.00,0.00,30.20,M,10.00,M,CLR,M,M,M,M,M,M,M,M,M,M,M,M,M,M,60.80,KBAM 161415Z AUTO 28003KT 10SM CLR 16/12 A3020 RMK AO1,M
HTH,2024-07-16 14:15,-118.6315,38.5448,1282.89,71.60,48.20,43.42,240.00,5.00,0.00,30.16,M,10.00,M,CLR,M,M,M,M,M,M,M,M,M,M,M,M,M,M,71.60,KHTH 161415Z AUTO 24005KT 10SM CLR 22/09 A3016 RMK A01,M
TMT,2024-07-16 14:15,-117.1971,39.4643,1749.34,57.40,45.00,63.20,0.00,0.00,0.00,30.28,M,10.00,M,CLR,M,M,M,M,M,M,M,M,M,M,M,M,M,M,57.40,KTMT 161415Z AUTO 00000KT 10SM CLR 14/07 A3028 RMK AO2 T01410072,M
BVU,2024-07-16 14:35,-114.8611,35.9475,671.00,89.60,51.80,27.56,0.00,0.00,0.00,29.93,M,10.00,M,CLR,M,M,M,M,M,M,M,M,M,M,M,M,M,M,87.00,KBVU 161435Z AUTO 00000KT 10SM CLR 32/11 A2993 RMK AO2,M
CXP,2024-07-16 14:35,-119.7326,39.1923,1431.00,68.00,48.20,49.10,200.00,4.00,0.00,30.22,M,10.00,M,CLR,M,M,M,M,M,M,M,M,M,M,M,M,M,M,68.00,KCXP 161435Z AUTO 20004KT 10SM CLR 20/09 A3022 RMK AO2,M
RTS,2024-07-16 14:35,-119.8764,39.6682,1539.00,68.00,44.60,42.85,0.00,0.00,0.00,30.22,M,10.00,M,FEW,M,M,M,12000.00,M,M,M,M,M,M,M,M,M,M,68.00,KRTS 161435Z AUTO 00000KT 10SM FEW120 20/07 A3022 RMK AO2,M
05U,2024-07-16 14:35,-116.0051,39.6042,1811.23,M,M,M,0.00,0.00,0.00,30.30,M,10.00,M,M,M,M,M,M,M,M,M,M,M,M,M,M,M,M,M,K05U 161435Z AUTO 00000KT 10SM A3030 RMK A01,M
MEV,2024-07-16 14:35,-119.7500,38.9963,1441.42,62.60,46.40,55.37,0.00,0.00,0.00,30.20,M,10.00,M,CLR,M,M,M,M,M,M,M,M,M,M,M,M,M,M,62.60,KMEV 161435Z AUTO 00000KT 10SM CLR 17/08 A3020 RMK AO2,M
HTH,2024-07-16 14:35,-118.6315,38.5448,1282.89,73.40,48.20,40.85,0.00,0.00,0.00,30.16,M,10.00,M,CLR,M,M,M,M,M,M,M,M,M,M,M,M,M,M,73.40,KHTH 161435Z AUTO 00000KT 10SM CLR 23/09 A3016 RMK A01,M
BAM,2024-07-16 14:35,-116.8743,40.5990,1382.36,62.60,53.60,72.38,50.00,3.00,0.00,30.20,M,10.00,M,CLR,M,M,M,M,M,M,M,M,M,M,M,M,M,M,62.60,KBAM 161435Z AUTO 05003KT 10SM CLR 17/12 A3020 RMK AO1,M
TMT,2024-07-16 14:35,-117.1971,39.4643,1749.34,60.40,43.30,53.20,190.00,3.00,0.00,30.28,M,10.00,M,CLR,M,M,M,M,M,M,M,M,M,M,M,M,M,M,60.40,KTMT 161435Z AUTO 19003KT 10SM CLR 16/06 A3028 RMK AO2 T01580063,M
P68,2024-07-16 14:53,-116.0056,39.6014,1993.00,65.00,43.00,44.73,0.00,0.00,0.00,30.27,1016.40,M,M,M,M,M,M,M,M,M,M,M,M,M,M,M,M,M,65.00,KP68 161453Z AUTO 00000KT 18/06 A3027 RMK AO1 SLP164 T01830061 51008,M
DRA,2024-07-16 14:53,-116.0278,36.6206,1009.00,87.00,45.00,23.20,230.00,4.00,0.00,30.03,1010.70,10.00,M,CLR,M,M,M,M,M,M,M,M,M,M,M,M,M,M,83.90,KDRA 161453Z AUTO 23004KT 10SM CLR 31/07 A3003 RMK AO2 SLP107 T03060072 51016,M
ELY,2024-07-16 14:53,-114.8453,39.2950,1909.00,67.00,47.00,48.58,190.00,5.00,0.00,30.30,1016.10,10.00,M,CLR,M,M,M,M,M,M,M,M,M,M,M,M,M,M,67.00,KELY 161453Z AUTO 19005KT 10SM CLR 19/08 A3030 RMK AO2 SLP161 T01940083 51007 $,M
VGT,2024-07-16 14:53,-115.1933,36.2111,667.00,92.00,53.00,26.72,360.00,5.00,0.00,29.94,1012.10,10.00,M,CLR,M,M,M,M,M,M,M,M,M,M,M,M,M,M,89.53,KVGT 161453Z 36005KT 10SM CLR 33/12 A2994 RMK AO2 SLP121 T03330117 53019,M
LOL,2024-07-16 14:53,-118.5701,40.0684,1192.43,75.00,47.00,37.01,90.00,5.00,0.00,30.12,1015.60,10.00,M,CLR,M,M,M,M,M,M,M,M,M,M,M,M,M,M,75.00,KLOL 161453Z AUTO 09005KT 10SM CLR 24/08 A3012 RMK AO2 SLP156 T02390083 51008,M
BVU,2024-07-16 14:55,-114.8611,35.9475,671.00,91.40,53.60,27.83,20.00,3.00,0.00,29.93,M,10.00,M,CLR,M,M,M,M,M,M,M,M,M,M,M,M,M,M,89.08,KBVU 161455Z AUTO 02003KT 10SM CLR 33/12 A2993 RMK AO2,M
CXP,2024-07-16 14:55,-119.7326,39.1923,1431.00,68.00,48.20,49.10,0.00,0.00,0.00,30.22,M,10.00,M,CLR,M,M,M,M,M,M,M,M,M,M,M,M,M,M,68.00,KCXP 161455Z AUTO 00000KT 10SM CLR 20/09 A3022 RMK AO2,M
RNO,2024-07-16 14:55,-119.7711,39.4839,1341.00,71.00,49.00,45.66,0.00,0.00,0.00,30.18,1016.10,10.00,M,SCT,M,M,M,11000.00,M,M,M,M,M,M,M,M,M,M,71.00,KRNO 161455Z 00000KT 10SM SCT110 22/09 A3018 RMK AO2 SLP161 T02170094 51004,M
LSV,2024-07-16 14:55,-115.0343,36.2362,570.00,94.60,46.00,18.99,0.00,0.00,0.00,29.89,1008.70,10.00,M,CLR,M,M,M,M,M,M,M,M,M,M,M,M,M,M,90.84,KLSV 161455Z AUTO 00000KT 10SM CLR 35/08 A2989 RMK AO2 SLP087 T03480077 52019 $,M
RTS,2024-07-16 14:55,-119.8764,39.6682,1539.00,69.80,44.60,40.29,0.00,0.00,0.00,30.23,M,10.00,M,CLR,M,M,M,M,M,M,M,M,M,M,M,M,M,M,69.80,KRTS 161455Z AUTO 00000KT 10SM CLR 21/07 A3023 RMK AO2,M
05U,2024-07-16 14:55,-116.0051,39.6042,1811.23,M,M,M,0.00,0.00,0.00,30.30,M,10.00,M,M,M,M,M,M,M,M,M,M,M,M,M,M,M,M,M,K05U 161455Z AUTO 00000KT 10SM A3030 RMK A01,M
MEV,2024-07-16 14:55,-119.7500,38.9963,1441.42,66.20,46.40,48.83,0.00,0.00,0.00,30.20,M,10.00,M,CLR,M,M,M,M,M,M,M,M,M,M,M,M,M,M,66.20,KMEV 161455Z AUTO 00000KT 10SM CLR 19/08 A3020 RMK AO2,M
HTH,2024-07-16 14:55,-118.6315,38.5448,1282.89,75.20,46.40,35.94,0.00,0.00,0.00,30.16,M,10.00,M,CLR,M,M,M,M,M,M,M,M,M,M,M,M,M,M,75.20,KHTH 161455Z AUTO 00000KT 10SM CLR 24/08 A3016 RMK A01,M
BAM,2024-07-16 14:55,-116.8743,40.5990,1382.36,64.40,53.60,67.95,60.00,3.00,0.00,30.20,M,10.00,M,CLR,M,M,M,M,M,M,M,M,M,M,M,M,M,M,64.40,KBAM 161455Z AUTO 06003KT 10SM CLR 18/12 A3020 RMK AO1,M
TMT,2024-07-16 14:55,-117.1971,39.4643,1749.34,64.20,45.00,49.64,0.00,0.00,0.00,30.27,M,10.00,M,CLR,M,M,M,M,M,M,M,M,M,M,M,M,M,M,64.20,KTMT 161455Z AUTO 00000KT 10SM CLR 18/07 A3027 RMK AO2 T01790073,M
INS,2024-07-16 14:55,-115.6733,36.5872,955.00,87.40,41.40,19.95,0.00,0.00,0.00,30.01,1009.90,10.00,M,FEW,M,M,M,13000.00,M,M,M,M,M,M,M,M,M,M,83.99,KINS 161455Z AUTO 00000KT 10SM FEW130 31/05 A3001 RMK AO2 SLP099 T03080052 52014 $,M
EKO,2024-07-16 14:56,-115.7860,40.8242,1367.00,65.00,47.00,52.07,0.00,0.00,0.00,30.24,1018.20,10.00,M,CLR,M,M,M,M,M,M,M,M,M,M,M,M,M,M,65.00,KEKO 161456Z AUTO 00000KT 10SM CLR 18/08 A3024 RMK AO2 SLP182 T01830083 51012,M
WMC,2024-07-16 14:56,-117.8072,40.9019,1315.00,75.00,39.00,27.23,40.00,10.00,0.00,30.16,1015.70,10.00,M,CLR,M,M,M,M,M,M,M,M,M,M,M,M,M,M,75.00,KWMC 161456Z AUTO 04010KT 10SM CLR 24/04 A3016 RMK AO2 SLP157 T02390039 51006,M
NFL,2024-07-16 14:56,-118.7010,39.4166,1199.00,77.00,46.00,33.34,0.00,0.00,0.00,30.13,1016.80,10.00,M,SCT,SCT,M,M,8000.00,12000.00,M,M,M,M,M,M,M,M,M,77.00,KNFL 161456Z 00000KT 10SM SCT080 SCT120 25/08 A3013 RMK AO2 SLP168 T02500078 51009,M
HND,2024-07-16 14:56,-115.1344,35.9729,742.79,91.00,51.00,25.61,220.00,7.00,0.00,29.98,1013.20,10.00,M,CLR,M,M,M,M,M,M,M,M,M,M,M,M,M,M,88.16,KHND 161456Z 22007KT 10SM CLR 33/11 A2998 RMK AO2 SLP132 T03280106 53015,M
TPH,2024-07-16 14:56,-117.0904,38.0505,1654.00,77.00,42.00,28.62,350.00,12.00,0.00,30.22,1014.00,10.00,M,CLR,M,M,M,M,M,M,M,M,M,M,M,M,M,M,77.00,KTPH 161456Z AUTO 35012KT 10SM CLR 25/06 A3022 RMK AO2 SLP140 T02500056 51008,M
LAS,2024-07-16 14:56,-115.1634,36.0719,663.00,91.00,50.00,24.68,0.00,0.00,0.00,29.94,1007.10,10.00,M,FEW,FEW,M,M,15000.00,20000.00,M,M,M,M,M,M,M,M,M,87.99,KLAS 161456Z 00000KT 10SM FEW150 FEW200 33/10 A2994 RMK AO2 SLP071 ACC DSNT NW T03280100 $,M
BVU,2024-07-16 15:15,-114.8611,35.9475,671.00,93.20,48.20,21.54,0.00,0.00,0.00,29.94,M,10.00,M,CLR,M,M,M,M,M,M,M,M,M,M,M,M,M,M,89.80,KBVU 161515Z AUTO 00000KT 10SM CLR 34/09 A2994 RMK AO2,M
CXP,2024-07-16 15:15,-119.7326,39.1923,1431.00,69.80,48.20,46.16,0.00,0.00,0.00,30.22,M,10.00,M,CLR,M,M,M,M,M,M,M,M,M,M,M,M,M,M,69.80,KCXP 161515Z AUTO 00000KT 10SM CLR 21/09 A3022 RMK AO2,M
RTS,2024-07-16 15:15,-119.8764,39.6682,1539.00,71.60,44.60,37.89,0.00,0.00,0.00,30.22,M,10.00,M,CLR,M,M,M,M,M,M,M,M,M,M,M,M,M,M,71.60,KRTS 161515Z AUTO 00000KT 10SM CLR 22/07 A3022 RMK AO2,M
05U,2024-07-16 15:15,-116.0051,39.6042,1811.23,M,M,M,0.00,0.00,0.00,30.30,M,10.00,M,M,M,M,M,M,M,M,M,M,M,M,M,M,M,M,M,K05U 161515Z AUTO 00000KT 10SM A3030 RMK A01,M
MEV,2024-07-16 15:15,-119.7500,38.9963,1441.42,68.00,46.40,45.88,0.00,0.00,0.00,30.20,M,10.00,M,CLR,M,M,M,M,M,M,M,M,M,M,M,M,M,M,68.00,KMEV 161515Z AUTO 00000KT 10SM CLR 20/08 A3020 RMK AO2,M
HTH,2024-07-16 15:15,-118.6315,38.5448,1282.89,77.00,48.20,36.22,0.00,0.00,0.00,30.16,M,10.00,M,CLR,M,M,M,M,M,M,M,M,M,M,M,M,M,M,77.00,KHTH 161515Z AUTO 00000KT 10SM CLR 25/09 A3016 RMK A01,M
BAM,2024-07-16 15:15,-116.8743,40.5990,1382.36,68.00,53.60,59.97,0.00,0.00,0.00,30.20,M,10.00,M,CLR,M,M,M,M,M,M,M,M,M,M,M,M,M,M,68.00,KBAM 161515Z AUTO 00000KT 10SM CLR 20/12 A3020 RMK AO1,M
TMT,2024-07-16 15:15,-117.1971,39.4643,1749.34,67.00,45.00,45.04,0.00,0.00,0.00,30.27,M,10.00,M,CLR,M,M,M,M,M,M,M,M,M,M,M,M,M,M,67.00,KTMT 161515Z AUTO 00000KT 10SM CLR 20/07 A3027 RMK AO2 T01950073,M
BVU,2024-07-16 15:35,-114.8611,35.9475,671.00,95.00,48.20,20.38,M,3.00,0.00,29.94,M,10.00,M,CLR,M,M,M,M,M,M,M,M,M,M,M,M,M,M,91.56,KBVU 161535Z AUTO VRB03KT 10SM CLR 35/09 A2994 RMK AO2,M
CXP,2024-07-16 15:35,-119.7326,39.1923,1431.00,69.80,48.20,46.16,0.00,0.00,0.00,30.22,M,10.00,M,CLR,M,M,M,M,M,M,M,M,M,M,M,M,M,M,69.80,KCXP 161535Z AUTO 00000KT 10SM CLR 21/09 A3022 RMK AO2,M
RTS,2024-07-16 15:35,-119.8764,39.6682,1539.00,71.60,44.60,37.89,0.00,0.00,0.00,30.22,M,10.00,M,CLR,M,M,M,M,M,M,M,M,M,M,M,M,M,M,71.60,KRTS 161535Z AUTO 00000KT 10SM CLR 22/07 A3022 RMK AO2,M
05U,2024-07-16 15:35,-116.0051,39.6042,1811.23,M,M,M,0.00,0.00,0.00,30.30,M,10.00,M,M,M,M,M,M,M,M,M,M,M,M,M,M,M,M,M,K05U 161535Z AUTO 00000KT 10SM A3030 RMK A01,M
MEV,2024-07-16 15:35,-119.7500,38.9963,1441.42,69.80,46.40,43.13,0.00,0.00,0.00,30.20,M,10.00,M,CLR,M,M,M,M,M,M,M,M,M,M,M,M,M,M,69.80,KMEV 161535Z AUTO 00000KT 10SM CLR 21/08 A3020 RMK AO2,M
HTH,2024-07-16 15:35,-118.6315,38.5448,1282.89,77.00,48.20,36.22,350.00,5.00,0.00,30.16,M,10.00,M,CLR,M,M,M,M,M,M,M,M,M,M,M,M,M,M,77.00,KHTH 161535Z AUTO 35005KT 10SM CLR 25/09 A3016 RMK A01,M
BAM,2024-07-16 15:35,-116.8743,40.5990,1382.36,71.60,53.60,53.03,50.00,3.00,0.00,30.20,M,10.00,M,CLR,M,M,M,M,M,M,M,M,M,M,M,M,M,M,71.60,KBAM 161535Z AUTO 05003KT 10SM CLR 22/12 A3020 RMK AO1,M
TMT,2024-07-16 15:35,-117.1971,39.4643,1749.34,69.40,45.50,42.26,0.00,0.00,0.00,30.27,M,10.00,M,CLR,M,M,M,M,M,M,M,M,M,M,M,M,M,M,69.40,KTMT 161535Z AUTO 00000KT 10SM CLR 21/08 A3027 RMK AO2 T02080075,M
P68,2024-07-16 15:53,-116.0056,39.6014,1993.00,75.00,44.00,33.03,M,5.00,0.00,30.27,1016.00,M,M,M,M,M,M,M,M,M,M,M,M,M,M,M,M,M,75.00,KP68 161553Z AUTO VRB05KT 24/07 A3027 RMK AO1 SLP160 T02390067,M
DRA,2024-07-16 15:53,-116.0278,36.6206,1009.00,91.00,46.00,21.24,0.00,0.00,0.00,30.03,1010.90,10.00,M,CLR,M,M,M,M,M,M,M,M,M,M,M,M,M,M,87.45,KDRA 161553Z AUTO 00000KT 10SM CLR 33/08 A3003 RMK AO2 SLP109 T03280078,M
ELY,2024-07-16 15:53,-114.8453,39.2950,1909.00,74.00,45.00,35.48,M,3.00,0.00,30.30,1015.70,10.00,M,CLR,M,M,M,M,M,M,M,M,M,M,M,M,M,M,74.00,KELY 161553Z AUTO VRB03KT 10SM CLR 23/07 A3030 RMK AO2 SLP157 T02330072,M
VGT,2024-07-16 15:53,-115.1933,36.2111,667.00,93.00,51.00,24.06,0.00,0.00,0.00,29.95,1012.40,10.00,M,CLR,M,M,M,M,M,M,M,M,M,M,M,M,M,M,90.09,KVGT 161553Z 00000KT 10SM CLR 34/11 A2995 RMK AO2 SLP124 T03390106,M
LOL,2024-07-16 15:53,-118.5701,40.0684,1192.43,80.00,44.00,27.99,40.00,6.00,0.00,30.12,1015.40,10.00,M,CLR,M,M,M,M,M,M,M,M,M,M,M,M,M,M,79.06,KLOL 161553Z AUTO 04006KT 10SM CLR 27/07 A3012 RMK AO2 SLP154 T02670067,M
BVU,2024-07-16 15:55,-114.8611,35.9475,671.00,95.00,48.20,20.38,0.00,0.00,0.00,29.94,M,10.00,M,CLR,M,M,M,M,M,M,M,M,M,M,M,M,M,M,91.56,KBVU 161555Z AUTO 00000KT 10SM CLR 35/09 A2994 RMK AO2,M
CXP,2024-07-16 15:55,-119.7326,39.1923,1431.00,71.60,46.40,40.57,0.00,0.00,0.00,30.21,M,10.00,M,CLR,M,M,M,M,M,M,M,M,M,M,M,M,M,M,71.60,KCXP 161555Z AUTO 00000KT 10SM CLR 22/08 A3021 RMK AO2,M
INS,2024-07-16 15:55,-115.6733,36.5872,955.00,91.80,42.30,17.98,0.00,0.00,0.00,30.01,1009.90,10.00,M,FEW,M,M,M,13000.00,M,M,M,M,M,M,M,M,M,M,87.85,KINS 161555Z AUTO 00000KT 10SM FEW130 33/06 A3001 RMK AO2 SLP099 T03320057 $,M
RNO,2024-07-16 15:55,-119.7711,39.4839,1341.00,76.00,48.00,37.17,0.00,0.00,0.00,30.17,1015.80,10.00,M,SCT,M,M,M,11000.00,M,M,M,M,M,M,M,M,M,M,76.00,KRNO 161555Z 00000KT 10SM SCT110 24/09 A3017 RMK AO2 SLP158 T02440089,M
LSV,2024-07-16 15:55,-115.0343,36.2362,570.00,95.50,48.00,19.91,50.00,4.00,0.00,29.90,1009.10,10.00,M,SCT,M,M,M,13000.00,M,M,M,M,M,M,M,M,M,M,92.02,KLSV 161555Z AUTO 05004KT 10SM SCT130 35/09 A2990 RMK AO2 SLP091 T03530089 $,M
RTS,2024-07-16 15:55,-119.8764,39.6682,1539.00,73.40,42.80,33.29,M,3.00,0.00,30.22,M,10.00,M,CLR,M,M,M,M,M,M,M,M,M,M,M,M,M,M,73.40,KRTS 161555Z AUTO VRB03KT 10SM CLR 23/06 A3022 RMK AO2,M
05U,2024-07-16 15:55,-116.0051,39.6042,1811.23,M,M,M,0.00,0.00,0.00,30.30,M,10.00,M,M,M,M,M,M,M,M,M,M,M,M,M,M,M,M,M,K05U 161555Z AUTO 00000KT 10SM A3030 RMK A01,M
MEV,2024-07-16 15:55,-119.7500,38.9963,1441.42,71.60,46.40,40.57,0.00,0.00,0.00,30.19,M,5.00,M,CLR,M,M,M,M,M,M,M,HZ,M,M,M,M,M,M,71.60,KMEV 161555Z AUTO 00000KT 5SM HZ CLR 22/08 A3019 RMK AO2,M
BAM,2024-07-16 15:55,-116.8743,40.5990,1382.36,73.40,51.80,46.71,70.00,5.00,0.00,30.20,M,10.00,M,CLR,M,M,M,M,M,M,M,M,M,M,M,M,M,M,73.40,KBAM 161555Z AUTO 07005KT 10SM CLR 23/11 A3020 RMK AO1,M
HTH,2024-07-16 15:55,-118.6315,38.5448,1282.89,78.80,46.40,31.90,360.00,7.00,0.00,30.16,M,10.00,M,CLR,M,M,M,M,M,M,M,M,M,M,M,M,M,M,78.80,KHTH 161555Z AUTO 36007KT 10SM CLR 26/08 A3016 RMK A01,M
TMT,2024-07-16 15:55,-117.1971,39.4643,1749.34,71.00,45.00,39.27,0.00,0.00,0.00,30.27,M,10.00,M,CLR,M,M,M,M,M,M,M,M,M,M,M,M,M,M,71.00,KTMT 161555Z AUTO 00000KT 10SM CLR 22/07 A3027 RMK AO2 T02160072,M
EKO,2024-07-16 15:56,-115.7860,40.8242,1367.00,71.00,49.00,45.66,0.00,0.00,0.00,30.23,1018.00,10.00,M,CLR,M,M,M,M,M,M,M,M,M,M,M,M,M,M,71.00,KEKO 161556Z AUTO 00000KT 10SM CLR 22/09 A3023 RMK AO2 SLP180 T02170094,M
WMC,2024-07-16 15:56,-117.8072,40.9019,1315.00,78.00,37.00,22.79,50.00,9.00,0.00,30.16,1015.80,10.00,M,CLR,M,M,M,M,M,M,M,M,M,M,M,M,M,M,78.00,KWMC 161556Z AUTO 05009KT 10SM CLR 26/03 A3016 RMK AO2 SLP158 T02560028,M
NFL,2024-07-16 15:56,-118.7010,39.4166,1199.00,81.00,46.00,29.23,0.00,0.00,0.00,30.12,1016.60,10.00,M,SCT,SCT,M,M,8000.00,12000.00,M,M,M,M,M,M,M,M,M,79.76,KNFL 161556Z 00000KT 10SM SCT080 SCT120 27/08 A3012 RMK AO2 SLP166 T02720078,M
HND,2024-07-16 15:56,-115.1344,35.9729,742.79,96.00,50.00,21.13,240.00,9.00,0.00,29.99,1013.30,10.00,M,CLR,M,M,M,M,M,M,M,M,M,M,M,M,M,M,92.89,KHND 161556Z 24009KT 10SM CLR 36/10 A2999 RMK AO2 SLP133 T03560100,M
TPH,2024-07-16 15:56,-117.0904,38.0505,1654.00,81.00,42.00,25.09,320.00,5.00,0.00,30.22,1014.10,10.00,M,CLR,M,M,M,M,M,M,M,M,M,M,M,M,M,M,79.48,KTPH 161556Z AUTO 32005KT 10SM CLR 27/06 A3022 RMK AO2 SLP141 T02720056,M
LAS,2024-07-16 15:56,-115.1634,36.0719,663.00,96.00,49.00,20.36,340.00,4.00,0.00,29.95,1007.40,10.00,M,FEW,FEW,M,M,12000.00,15000.00,M,M,M,M,M,M,M,M,M,92.70,KLAS 161556Z 34004KT 10SM FEW120 FEW150 36/09 A2995 RMK AO2 SLP074 T03560094 $,M
LSV,2024-07-16 16:07,-115.0343,36.2362,570.00,95.00,48.20,20.38,40.00,4.00,0.00,29.90,1009.10,10.00,M,FEW,M,M,M,13000.00,M,M,M,-DZ,M,M,M,M,M,M,91.56,KLSV 161607Z AUTO 04004KT 10SM -DZ FEW130 35/09 A2990 RMK AO2 DZB07 SLP091 $,M
BVU,2024-07-16 16:15,-114.8611,35.9475,671.00,96.80,48.20,19.28,0.00,0.00,0.00,29.94,M,10.00,M,CLR,M,M,M,M,M,M,M,M,M,M,M,M,M,M,93.36,KBVU 161615Z AUTO 00000KT 10SM CLR 36/09 A2994 RMK AO2,M
CXP,2024-07-16 16:15,-119.7326,39.1923,1431.00,73.40,48.20,40.85,0.00,0.00,0.00,30.20,M,10.00,M,CLR,M,M,M,M,M,M,M,M,M,M,M,M,M,M,73.40,KCXP 161615Z AUTO 00000KT 10SM CLR 23/09 A3020 RMK AO2,M
RTS,2024-07-16 16:15,-119.8764,39.6682,1539.00,75.20,42.80,31.34,M,3.00,0.00,30.22,M,10.00,M,CLR,M,M,M,M,M,M,M,M,M,M,M,M,M,M,75.20,KRTS 161615Z AUTO VRB03KT 10SM CLR 24/06 A3022 RMK AO2,M
05U,2024-07-16 16:15,-116.0051,39.6042,1811.23,78.80,44.60,29.79,0.00,0.00,0.00,30.30,M,10.00,M,M,M,M,M,M,M,M,M,M,M,M,M,M,M,M,78.80,K05U 161615Z AUTO 00000KT 10SM 26/07 A3030 RMK A01,M
MEV,2024-07-16 16:15,-119.7500,38.9963,1441.42,73.40,46.40,38.18,200.00,4.00,0.00,30.19,M,8.00,M,CLR,M,M,M,M,M,M,M,M,M,M,M,M,M,M,73.40,KMEV 161615Z AUTO 20004KT 8SM CLR 23/08 A3019 RMK AO2,M
BAM,2024-07-16 16:15,-116.8743,40.5990,1382.36,75.20,53.60,46.98,10.00,4.00,0.00,30.20,M,10.00,M,CLR,M,M,M,M,M,M,M,M,M,M,M,M,M,M,75.20,KBAM 161615Z AUTO 01004KT 10SM CLR 24/12 A3020 RMK AO1,M
HTH,2024-07-16 16:15,-118.6315,38.5448,1282.89,80.60,46.40,30.07,M,3.00,0.00,30.16,M,10.00,M,CLR,M,M,M,M,M,M,M,M,M,M,M,M,M,M,79.56,KHTH 161615Z AUTO VRB03KT 10SM CLR 27/08 A3016 RMK A01,M
TMT,2024-07-16 16:15,-117.1971,39.4643,1749.34,73.20,44.80,36.17,360.00,3.00,0.00,30.27,M,10.00,M,CLR,M,M,M,M,M,M,M,M,M,M,M,M,M,M,73.20,KTMT 161615Z AUTO 36003KT 10SM CLR 23/07 A3027 RMK AO2 T02290071,M
LSV,2024-07-16 16:16,-115.0343,36.2362,570.00,95.00,48.20,20.38,30.00,3.00,0.00,29.90,1009.10,10.00,M,FEW,M,M,M,14000.00,M,M,M,M,M,M,M,M,M,M,91.56,KLSV 161616Z AUTO 03003KT 10SM FEW140 35/09 A2990 RMK AO2 DZB07E16 SLP091 $,M
BVU,2024-07-16 16:35,-114.8611,35.9475,671.00,98.60,48.20,18.25,110.00,7.00,0.00,29.94,M,10.00,M,CLR,M,M,M,M,M,M,M,M,M,M,M,M,M,M,95.17,KBVU 161635Z AUTO 11007KT 10SM CLR 37/09 A2994 RMK AO2,M
CXP,2024-07-16 16:35,-119.7326,39.1923,1431.00,75.20,46.40,35.94,0.00,0.00,0.00,30.20,M,10.00,M,CLR,M,M,M,M,M,M,M,M,M,M,M,M,M,M,75.20,KCXP 161635Z AUTO 00000KT 10SM CLR 24/08 A3020 RMK AO2,M
RTS,2024-07-16 16:35,-119.8764,39.6682,1539.00,77.00,42.80,29.51,0.00,0.00,0.00,30.21,M,10.00,M,CLR,M,M,M,M,M,M,M,M,M,M,M,M,M,M,77.00,KRTS 161635Z AUTO 00000KT 10SM CLR 25/06 A3021 RMK AO2,M
05U,2024-07-16 16:35,-116.0051,39.6042,1811.23,78.80,42.80,27.81,0.00,0.00,0.00,30.29,M,10.00,M,M,M,M,M,M,M,M,M,M,M,M,M,M,M,M,78.80,K05U 161635Z AUTO 00000KT 10SM 26/06 A3029 RMK A01,M
MEV,2024-07-16 16:35,-119.7500,38.9963,1441.42,75.20,46.40,35.94,M,4.00,0.00,30.19,M,10.00,M,CLR,M,M,M,M,M,M,M,M,M,M,M,M,M,M,75.20,KMEV 161635Z AUTO VRB04KT 10SM CLR 24/08 A3019 RMK AO2,M
HTH,2024-07-16 16:35,-118.6315,38.5448,1282.89,80.60,46.40,30.07,M,4.00,0.00,30.15,M,10.00,M,CLR,M,M,M,M,M,M,M,M,M,M,M,M,M,M,79.56,KHTH 161635Z AUTO VRB04KT 10SM CLR 27/08 A3015 RMK A01,M
BAM,2024-07-16 16:35,-116.8743,40.5990,1382.36,77.00,55.40,47.25,20.00,4.00,0.00,30.20,M,10.00,M,CLR,M,M,M,M,M,M,M,M,M,M,M,M,M,M,77.00,KBAM 161635Z AUTO 02004KT 10SM CLR 25/13 A3020 RMK AO1,M
TMT,2024-07-16 16:35,-117.1971,39.4643,1749.34,75.00,45.50,34.97,0.00,0.00,0.00,30.26,M,10.00,M,CLR,M,M,M,M,M,M,M,M,M,M,M,M,M,M,75.00,KTMT 161635Z AUTO 00000KT 10SM CLR 24/08 A3026 RMK AO2 T02390075,M
P68,2024-07-16 16:53,-116.0056,39.6014,1993.00,79.00,44.00,28.93,360.00,5.00,0.00,30.26,1015.90,M,M,M,M,M,M,M,M,M,M,M,M,M,M,M,M,M,79.00,KP68 161653Z AUTO 36005KT 26/07 A3026 RMK AO1 SLP159 T02610067,M
DRA,2024-07-16 16:53,-116.0278,36.6206,1009.00,94.00,46.00,19.34,230.00,8.00,0.00,30.03,1011.10,10.00,M,CLR,M,M,M,M,M,M,M,M,M,M,M,M,M,M,90.27,KDRA 161653Z AUTO 23008KT 10SM CLR 34/08 A3003 RMK AO2 SLP111 T03440078,M
ELY,2024-07-16 16:53,-114.8453,39.2950,1909.00,77.00,45.00,32.10,30.00,6.00,0.00,30.29,1015.70,10.00,M,CLR,M,M,M,M,M,M,M,M,M,M,M,M,M,M,77.00,KELY 161653Z AUTO 03006KT 10SM CLR 25/07 A3029 RMK AO2 SLP157 T02500072,M
VGT,2024-07-16 16:53,-115.1933,36.2111,667.00,98.00,51.00,20.63,0.00,0.00,0.00,29.95,1012.40,10.00,M,CLR,M,M,M,M,M,M,M,M,M,M,M,M,M,M,95.17,KVGT 161653Z 00000KT 10SM CLR 37/11 A2995 RMK AO2 SLP124 T03670106,M
LOL,2024-07-16 16:53,-118.5701,40.0684,1192.43,85.00,44.00,23.80,0.00,0.00,0.00,30.12,1015.60,10.00,M,CLR,M,M,M,M,M,M,M,M,M,M,M,M,M,M,82.27,KLOL 161653Z AUTO 00000KT 10SM CLR 29/07 A3012 RMK AO2 SLP156 T02940067,M
NFL,2024-07-16 16:54,-118.7010,39.4166,1199.00,84.00,47.00,27.55,0.00,0.00,0.00,30.12,1016.40,10.00,M,FEW,SCT,M,M,9000.00,15000.00,M,M,M,M,M,M,M,M,M,81.78,KNFL 161654Z 00000KT 10SM FEW090 SCT150 29/08 A3012 RMK AO2 SLP164 T02890083,M
BVU,2024-07-16 16:55,-114.8611,35.9475,671.00,98.60,48.20,18.25,120.00,5.00,0.00,29.94,M,10.00,11.00,CLR,M,M,M,M,M,M,M,M,M,M,M,M,M,M,95.17,KBVU 161655Z AUTO 12005G11KT 10SM CLR 37/09 A2994 RMK AO2,M
CXP,2024-07-16 16:55,-119.7326,39.1923,1431.00,78.80,46.40,31.90,0.00,0.00,0.00,30.20,M,10.00,M,CLR,M,M,M,M,M,M,M,M,M,M,M,M,M,M,78.80,KCXP 161655Z AUTO 00000KT 10SM CLR 26/08 A3020 RMK AO2,M
INS,2024-07-16 16:55,-115.6733,36.5872,955.00,94.60,41.40,15.92,0.00,0.00,0.00,30.02,1010.20,10.00,M,FEW,M,M,M,17000.00,M,M,M,M,M,M,M,M,M,M,90.36,KINS 161655Z AUTO 00000KT 10SM FEW170 35/05 A3002 RMK AO2 SLP102 T03480052 $,M
RNO,2024-07-16 16:55,-119.7711,39.4839,1341.00,81.00,47.00,30.36,0.00,0.00,0.00,30.16,1015.10,10.00,M,SCT,M,M,M,12000.00,M,M,M,M,M,M,M,M,M,M,79.84,KRNO 161655Z 00000KT 10SM SCT120 27/08 A3016 RMK AO2 SLP151 T02720083,M
RTS,2024-07-16 16:55,-119.8764,39.6682,1539.00,78.80,42.80,27.81,0.00,0.00,0.00,30.21,M,10.00,M,FEW,M,M,M,12000.00,M,M,M,M,M,M,M,M,M,M,78.80,KRTS 161655Z AUTO 00000KT 10SM FEW120 26/06 A3021 RMK AO2,M
05U,2024-07-16 16:55,-116.0051,39.6042,1811.23,80.60,42.80,26.22,0.00,0.00,0.00,30.29,M,10.00,M,M,M,M,M,M,M,M,M,M,M,M,M,M,M,M,79.30,K05U 161655Z AUTO 00000KT 10SM 27/06 A3029 RMK A01,M
MEV,2024-07-16 16:55,-119.7500,38.9963,1441.42,77.00,48.20,36.22,M,4.00,0.00,30.18,M,9.00,M,CLR,M,M,M,M,M,M,M,M,M,M,M,M,M,M,77.00,KMEV 161655Z AUTO VRB04KT 9SM CLR 25/09 A3018 RMK AO2,M
BAM,2024-07-16 16:55,-116.8743,40.5990,1382.36,78.80,51.80,39.02,10.00,5.00,0.00,30.20,M,10.00,M,CLR,M,M,M,M,M,M,M,M,M,M,M,M,M,M,78.80,KBAM 161655Z AUTO 01005KT 10SM CLR 26/11 A3020 RMK AO1,M
HTH,2024-07-16 16:55,-118.6315,38.5448,1282.89,82.40,44.60,26.49,M,3.00,0.00,30.15,M,10.00,M,CLR,M,M,M,M,M,M,M,M,M,M,M,M,M,M,80.50,KHTH 161655Z AUTO VRB03KT 10SM CLR 28/07 A3015 RMK A01,M
TMT,2024-07-16 16:55,-117.1971,39.4643,1749.34,76.60,45.70,33.41,0.00,0.00,0.00,30.26,M,10.00,M,CLR,M,M,M,M,M,M,M,M,M,M,M,M,M,M,76.60,KTMT 161655Z AUTO 00000KT 10SM CLR 25/08 A3026 RMK AO2 T02480076,M
LSV,2024-07-16 16:55,-115.0343,36.2362,570.00,98.00,47.30,17.97,100.00,3.00,T,29.90,1009.10,10.00,M,CLR,M,M,M,M,M,M,M,M,M,M,M,M,M,M,94.40,KLSV 161655Z AUTO 10003KT 10SM CLR 37/09 A2990 RMK AO2 DZB07E16 SLP091 P0000 T03670085 $,M
EKO,2024-07-16 16:56,-115.7860,40.8242,1367.00,80.00,48.00,32.57,360.00,3.00,0.00,30.23,1017.30,10.00,M,CLR,M,M,M,M,M,M,M,M,M,M,M,M,M,M,79.37,KEKO 161656Z AUTO 36003KT 10SM CLR 27/09 A3023 RMK AO2 SLP173 T02670089,M
WMC,2024-07-16 16:56,-117.8072,40.9019,1315.00,85.00,37.00,18.14,60.00,10.00,0.00,30.15,1015.90,10.00,M,CLR,M,M,M,M,M,M,M,M,M,M,M,M,M,M,81.96,KWMC 161656Z AUTO 06010KT 10SM CLR 29/03 A3015 RMK AO2 SLP159 T02940028,M
HND,2024-07-16 16:56,-115.1344,35.9729,742.79,97.00,51.00,21.27,0.00,0.00,0.00,29.99,1013.60,10.00,M,CLR,M,M,M,M,M,M,M,M,M,M,M,M,M,M,94.14,KHND 161656Z 00000KT 10SM CLR 36/11 A2999 RMK AO2 SLP136 T03610106,M
TPH,2024-07-16 16:56,-117.0904,38.0505,1654.00,85.00,41.00,21.21,M,M,0.00,30.21,1013.60,10.00,M,CLR,M,M,M,M,M,M,M,M,M,M,M,M,M,M,82.10,KTPH 161656Z AUTO 10SM CLR 29/05 A3021 RMK AO2 SLP136 T02940050,M
LAS,2024-07-16 16:56,-115.1634,36.0719,663.00,98.00,51.00,20.63,70.00,3.00,0.00,29.96,1007.80,10.00,M,FEW,FEW,M,M,12000.00,15000.00,M,M,M,M,M,M,M,M,M,95.17,KLAS 161656Z 07003KT 10SM FEW120 FEW150 37/11 A2996 RMK AO2 SLP078 T03670106 $,M
BVU,2024-07-16 17:15,-114.8611,35.9475,671.00,98.60,48.20,18.25,40.00,6.00,0.00,29.94,M,10.00,M,CLR,M,M,M,M,M,M,M,M,M,M,M,M,M,M,95.17,KBVU 161715Z AUTO 04006KT 10SM CLR 37/09 A2994 RMK AO2,M
CXP,2024-07-16 17:15,-119.7326,39.1923,1431.00,80.60,44.60,28.08,0.00,0.00,0.00,30.19,M,10.00,M,CLR,M,M,M,M,M,M,M,M,M,M,M,M,M,M,79.42,KCXP 161715Z AUTO 00000KT 10SM CLR 27/07 A3019 RMK AO2,M
RTS,2024-07-16 17:15,-119.8764,39.6682,1539.00,80.60,41.00,24.46,170.00,4.00,0.00,30.21,M,10.00,M,FEW,M,M,M,12000.00,M,M,M,M,M,M,M,M,M,M,79.20,KRTS 161715Z AUTO 17004KT 10SM FEW120 27/05 A3021 RMK AO2,M
05U,2024-07-16 17:15,-116.0051,39.6042,1811.23,82.40,42.80,24.72,M,5.00,0.00,30.29,M,10.00,M,M,M,M,M,M,M,M,M,M,M,M,M,M,M,M,80.39,K05U 161715Z AUTO VRB05KT 10SM 28/06 A3029 RMK A01,M
MEV,2024-07-16 17:15,-119.7500,38.9963,1441.42,78.80,46.40,31.90,M,3.00,0.00,30.18,M,10.00,M,CLR,M,M,M,M,M,M,M,M,M,M,M,M,M,M,78.80,KMEV 161715Z AUTO VRB03KT 10SM CLR 26/08 A3018 RMK AO2,M
HTH,2024-07-16 17:15,-118.6315,38.5448,1282.89,82.40,42.80,24.72,M,5.00,0.00,30.15,M,10.00,M,CLR,M,M,M,M,M,M,M,M,M,M,M,M,M,M,80.39,KHTH 161715Z AUTO VRB05KT 10SM CLR 28/06 A3015 RMK A01,M
BAM,2024-07-16 17:15,-116.8743,40.5990,1382.36,80.60,51.80,36.79,360.00,6.00,0.00,30.19,M,10.00,M,CLR,M,M,M,M,M,M,M,M,M,M,M,M,M,M,80.08,KBAM 161715Z AUTO 36006KT 10SM CLR 27/11 A3019 RMK AO1,M
TMT,2024-07-16 17:15,-117.1971,39.4643,1749.34,78.40,46.40,32.32,0.00,0.00,0.00,30.25,M,10.00,M,CLR,M,M,M,M,M,M,M,M,M,M,M,M,M,M,78.40,KTMT 161715Z AUTO 00000KT 10SM CLR 26/08 A3025 RMK AO2 T02580080,M
BVU,2024-07-16 17:35,-114.8611,35.9475,671.00,100.40,48.20,17.28,40.00,4.00,0.00,29.93,M,10.00,M,CLR,M,M,M,M,M,M,M,M,M,M,M,M,M,M,97.00,KBVU 161735Z AUTO 04004KT 10SM CLR 38/09 A2993 RMK AO2,M
CXP,2024-07-16 17:35,-119.7326,39.1923,1431.00,80.60,44.60,28.08,0.00,0.00,0.00,30.18,M,10.00,M,CLR,M,M,M,M,M,M,M,M,M,M,M,M,M,M,79.42,KCXP 161735Z AUTO 00000KT 10SM CLR 27/07 A3018 RMK AO2,M
RTS,2024-07-16 17:35,-119.8764,39.6682,1539.00,80.60,39.20,22.81,120.00,4.00,0.00,30.21,M,10.00,M,CLR,M,M,M,M,M,M,M,M,M,M,M,M,M,M,79.10,KRTS 161735Z AUTO 12004KT 10SM CLR 27/04 A3021 RMK AO2,M
05U,2024-07-16 17:35,-116.0051,39.6042,1811.23,84.20,42.80,23.33,150.00,5.00,0.00,30.29,M,10.00,M,M,M,M,M,M,M,M,M,M,M,M,M,M,M,M,81.61,K05U 161735Z AUTO 15005KT 10SM 29/06 A3029 RMK A01,M
MEV,2024-07-16 17:35,-119.7500,38.9963,1441.42,80.60,44.60,28.08,0.00,0.00,0.00,30.17,M,10.00,M,CLR,M,M,M,M,M,M,M,M,M,M,M,M,M,M,79.42,KMEV 161735Z AUTO 00000KT 10SM CLR 27/07 A3017 RMK AO2,M
BAM,2024-07-16 17:35,-116.8743,40.5990,1382.36,80.60,53.60,39.30,350.00,6.00,0.00,30.19,M,10.00,M,CLR,M,M,M,M,M,M,M,M,M,M,M,M,M,M,80.29,KBAM 161735Z AUTO 35006KT 10SM CLR 27/12 A3019 RMK AO1,M
HTH,2024-07-16 17:35,-118.6315,38.5448,1282.89,84.20,41.00,21.76,0.00,0.00,0.00,30.14,M,10.00,M,CLR,M,M,M,M,M,M,M,M,M,M,M,M,M,M,81.52,KHTH 161735Z AUTO 00000KT 10SM CLR 29/05 A3014 RMK A01,M
TMT,2024-07-16 17:35,-117.1971,39.4643,1749.34,82.00,45.50,27.77,30.00,3.00,0.00,30.25,M,10.00,M,CLR,M,M,M,M,M,M,M,M,M,M,M,M,M,M,80.32,KTMT 161735Z AUTO 03003KT 10SM CLR 28/08 A3025 RMK AO2 T02770075,M
HTH,2024-07-16 17:40,-118.6315,38.5448,1282.89,84.20,41.00,21.76,M,5.00,0.00,30.14,M,10.00,M,CLR,M,M,M,M,M,M,M,M,M,M,M,M,M,M,81.52,KHTH 161740Z AUTO VRB05KT 10SM CLR 29/05 A3014 RMK A01,M
05U,2024-07-16 17:50,-116.0051,39.6042,1811.23,84.20,41.00,21.76,0.00,0.00,0.00,30.28,M,10.00,M,M,M,M,M,M,M,M,M,M,M,M,M,M,M,M,81.52,K05U 161750Z AUTO 00000KT 10SM 29/05 A3028 RMK A01,M
P68,2024-07-16 17:53,-116.0056,39.6014,1993.00,84.00,42.00,22.77,340.00,6.00,0.00,30.25,1015.40,M,M,M,M,M,M,M,M,M,M,M,M,M,M,M,M,M,81.42,KP68 161753Z AUTO 34006KT 29/06 A3025 RMK AO1 SLP154 T02890056 10289 20100 58006,M
DRA,2024-07-16 17:53,-116.0278,36.6206,1009.00,96.00,46.00,18.19,220.00,8.00,0.00,30.03,1011.00,10.00,M,CLR,M,M,M,M,M,M,M,M,M,M,M,M,M,M,92.21,KDRA 161753Z AUTO 22008KT 10SM CLR 36/08 A3003 RMK AO2 SLP110 T03560078 10356 20250 50001,M
ELY,2024-07-16 17:53,-114.8453,39.2950,1909.00,82.00,44.00,26.23,60.00,7.00,0.00,30.28,1013.90,10.00,M,CLR,M,M,M,M,M,M,M,M,M,M,M,M,M,M,80.21,KELY 161753Z AUTO 06007KT 10SM CLR 28/07 A3028 RMK AO2 LTG DSNT SW SLP139 T02780067 10278 20106 58006,M
VGT,2024-07-16 17:53,-115.1933,36.2111,667.00,99.00,49.00,18.58,140.00,4.00,0.00,29.94,1012.10,10.00,M,CLR,M,M,M,M,M,M,M,M,M,M,M,M,M,M,95.75,KVGT 161753Z 14004KT 10SM CLR 37/09 A2994 RMK AO2 SLP121 T03720094 10378 20311 50000,M
LOL,2024-07-16 17:53,-118.5701,40.0684,1192.43,89.00,45.00,21.77,M,3.00,0.00,30.10,1014.60,10.00,M,CLR,M,M,M,M,M,M,M,M,M,M,M,M,M,M,85.58,KLOL 161753Z AUTO VRB03KT 10SM CLR 32/07 A3010 RMK AO2 SLP146 T03170072 10317 20156 58006,M
NFL,2024-07-16 17:54,-118.7010,39.4166,1199.00,88.00,47.00,24.24,M,3.00,0.00,30.10,1016.10,10.00,M,FEW,SCT,M,M,9000.00,12000.00,M,M,M,M,M,M,M,M,M,84.91,KNFL 161754Z VRB03KT 10SM FEW090 SCT120 31/08 A3010 RMK AO2 SLP161 T03110083 10311 20189 58007,M
BVU,2024-07-16 17:55,-114.8611,35.9475,671.00,100.40,48.20,17.28,50.00,6.00,0.00,29.93,M,10.00,11.00,CLR,M,M,M,M,M,M,M,M,M,M,M,M,M,M,97.00,KBVU 161755Z AUTO 05006G11KT 10SM CLR 38/09 A2993 RMK AO2,M
CXP,2024-07-16 17:55,-119.7326,39.1923,1431.00,84.20,42.80,23.33,0.00,0.00,0.00,30.18,M,10.00,M,CLR,M,M,M,M,M,M,M,M,M,M,M,M,M,M,81.61,KCXP 161755Z AUTO 00000KT 10SM CLR 29/06 A3018 RMK AO2,M
RNO,2024-07-16 17:55,-119.7711,39.4839,1341.00,85.00,45.00,24.73,M,3.00,0.00,30.15,1014.60,10.00,M,FEW,M,M,M,11000.00,M,M,M,M,M,M,M,M,M,M,82.34,KRNO 161755Z VRB03KT 10SM FEW110 29/07 A3015 RMK AO2 SLP146 T02940072 10300 20189 58009,M
LSV,2024-07-16 17:55,-115.0343,36.2362,570.00,101.30,46.80,15.96,320.00,3.00,0.00,29.89,1008.70,10.00,M,CLR,M,M,M,M,M,M,M,M,M,M,M,M,M,M,97.61,KLSV 161755Z AUTO 32003KT 10SM CLR 39/08 A2989 RMK AO2 SLP087 60000 T03850082 10385 20297 58001 $,M
RTS,2024-07-16 17:55,-119.8764,39.6682,1539.00,82.40,39.20,21.51,90.00,6.00,0.00,30.20,M,10.00,M,CLR,M,M,M,M,M,M,M,M,M,M,M,M,M,M,80.21,KRTS 161755Z AUTO 09006KT 10SM CLR 28/04 A3020 RMK AO2,M
MEV,2024-07-16 17:55,-119.7500,38.9963,1441.42,82.40,44.60,26.49,0.00,0.00,0.00,30.17,M,10.00,M,CLR,M,M,M,M,M,M,M,M,M,M,M,M,M,M,80.50,KMEV 161755Z AUTO 00000KT 10SM CLR 28/07 A3017 RMK AO2,M
BAM,2024-07-16 17:55,-116.8743,40.5990,1382.36,82.40,53.60,37.07,360.00,5.00,0.00,30.19,M,10.00,M,CLR,M,M,M,M,M,M,M,M,M,M,M,M,M,M,81.46,KBAM 161755Z AUTO 36005KT 10SM CLR 28/12 A3019 RMK AO1,M
TMT,2024-07-16 17:55,-117.1971,39.4643,1749.34,83.30,44.00,25.14,0.00,0.00,0.00,30.24,M,10.00,M,CLR,M,M,M,M,M,M,M,M,M,M,M,M,M,M,81.06,KTMT 161755Z AUTO 00000KT 10SM CLR 29/07 A3024 RMK AO2 T02850067 10285 20091,M
INS,2024-07-16 17:55,-115.6733,36.5872,955.00,97.50,38.30,12.91,0.00,0.00,0.00,30.01,1009.90,10.00,M,FEW,SCT,M,M,12000.00,16000.00,M,M,M,M,M,M,M,M,M,92.79,KINS 161755Z AUTO 00000KT 10SM FEW120 SCT160 36/04 A3001 RMK AO2 SLP099 T03640035 10364 20249 58001 $,M
EKO,2024-07-16 17:56,-115.7860,40.8242,1367.00,85.00,47.00,26.67,350.00,3.00,0.00,30.21,1016.50,10.00,M,CLR,M,M,M,M,M,M,M,M,M,M,M,M,M,M,82.51,KEKO 161756Z AUTO 35003KT 10SM CLR 29/08 A3021 RMK AO2 SLP165 T02940083 10294 20133 58010,M
WMC,2024-07-16 17:56,-117.8072,40.9019,1315.00,90.00,36.00,14.88,30.00,10.00,0.00,30.14,1015.20,10.00,M,CLR,M,M,M,M,M,M,M,M,M,M,M,M,M,M,85.97,KWMC 161756Z AUTO 03010KT 10SM CLR 32/02 A3014 RMK AO2 SLP152 T03220022 10328 20122 58005,M
HND,2024-07-16 17:56,-115.1344,35.9729,742.79,100.00,49.00,18.02,0.00,0.00,0.00,29.99,1013.30,10.00,M,CLR,M,M,M,M,M,M,M,M,M,M,M,M,M,M,96.77,KHND 161756Z 00000KT 10SM CLR 38/09 A2999 RMK AO2 SLP133 T03780094 10378 20294 50002,M
TPH,2024-07-16 17:56,-117.0904,38.0505,1654.00,88.00,39.00,17.83,M,M,0.00,30.20,1012.90,10.00,M,CLR,M,M,M,M,M,M,M,M,M,M,M,M,M,M,84.38,KTPH 161756Z AUTO 10SM CLR 31/04 A3020 RMK AO2 SLP129 T03110039 10311 20183 58004,M
LAS,2024-07-16 17:56,-115.1634,36.0719,663.00,102.00,50.00,17.62,20.00,3.00,0.00,29.95,1007.30,10.00,M,FEW,M,M,M,12000.00,M,M,M,M,M,M,M,M,M,M,99.07,KLAS 161756Z 02003KT 10SM FEW120 39/10 A2995 RMK AO2 SLP073 T03890100 10389 20322 50004 $,M
05U,2024-07-16 18:10,-116.0051,39.6042,1811.23,86.00,41.00,20.54,190.00,5.00,0.00,30.27,M,10.00,M,M,M,M,M,M,M,M,M,M,M,M,M,M,M,M,82.86,K05U 161810Z AUTO 19005KT 10SM 30/05 A3027 RMK A01,M
BVU,2024-07-16 18:15,-114.8611,35.9475,671.00,100.40,48.20,17.28,120.00,8.00,0.00,29.93,M,10.00,M,CLR,M,M,M,M,M,M,M,M,M,M,M,M,M,M,97.00,KBVU 161815Z AUTO 12008KT 10SM CLR 38/09 A2993 RMK AO2,M
CXP,2024-07-16 18:15,-119.7326,39.1923,1431.00,84.20,41.00,21.76,0.00,0.00,0.00,30.17,M,10.00,M,CLR,M,M,M,M,M,M,M,M,M,M,M,M,M,M,81.52,KCXP 161815Z AUTO 00000KT 10SM CLR 29/05 A3017 RMK AO2,M
RTS,2024-07-16 18:15,-119.8764,39.6682,1539.00,82.40,37.40,20.04,0.00,0.00,0.00,30.20,M,10.00,M,CLR,M,M,M,M,M,M,M,M,M,M,M,M,M,M,80.14,KRTS 161815Z AUTO 00000KT 10SM CLR 28/03 A3020 RMK AO2,M
MEV,2024-07-16 18:15,-119.7500,38.9963,1441.42,84.20,44.60,24.99,0.00,0.00,0.00,30.17,M,10.00,M,CLR,M,M,M,M,M,M,M,M,M,M,M,M,M,M,81.73,KMEV 161815Z AUTO 00000KT 10SM CLR 29/07 A3017 RMK AO2,M
HTH,2024-07-16 18:15,-118.6315,38.5448,1282.89,86.00,41.00,20.54,340.00,6.00,0.00,30.13,M,10.00,11.00,CLR,M,M,M,M,M,M,M,M,M,M,M,M,M,M,82.86,KHTH 161815Z AUTO 34006G11KT 10SM CLR 30/05 A3013 RMK A01,M
BAM,2024-07-16 18:15,-116.8743,40.5990,1382.36,82.40,51.80,34.69,360.00,6.00,0.00,30.18,M,10.00,M,CLR,M,M,M,M,M,M,M,M,M,M,M,M,M,M,81.20,KBAM 161815Z AUTO 36006KT 10SM CLR 28/11 A3018 RMK AO1,M
TMT,2024-07-16 18:15,-117.1971,39.4643,1749.34,85.00,43.00,22.91,360.00,4.00,0.00,30.24,M,10.00,M,CLR,M,M,M,M,M,M,M,M,M,M,M,M,M,M,82.21,KTMT 161815Z AUTO 36004KT 10SM CLR 30/06 A3024 RMK AO2 T02950062,M
ELY,2024-07-16 18:17,-114.8453,39.2950,1909.00,82.00,43.00,25.24,0.00,0.00,0.00,30.27,M,10.00,M,CLR,M,M,M,M,M,M,M,VCTS,M,M,M,M,M,M,80.15,KELY 161817Z AUTO 00000KT 10SM VCTS CLR 28/06 A3027 RMK AO2 LTG DSNT SW T02780061,M
05U,2024-07-16 18:30,-116.0051,39.6042,1811.23,87.80,42.80,20.79,M,4.00,0.00,30.26,M,10.00,M,M,M,M,M,M,M,M,M,M,M,M,M,M,M,M,84.40,K05U 161830Z AUTO VRB04KT 10SM 31/06 A3026 RMK A01,M
BVU,2024-07-16 18:35,-114.8611,35.9475,671.00,102.20,48.20,16.37,130.00,6.00,0.00,29.93,M,10.00,M,CLR,M,M,M,M,M,M,M,M,M,M,M,M,M,M,98.83,KBVU 161835Z AUTO 13006KT 10SM CLR 39/09 A2993 RMK AO2,M
CXP,2024-07-16 18:35,-119.7326,39.1923,1431.00,86.00,42.80,22.02,0.00,0.00,0.00,30.17,M,9.00,M,CLR,M,M,M,M,M,M,M,M,M,M,M,M,M,M,82.95,KCXP 161835Z AUTO 00000KT 9SM CLR 30/06 A3017 RMK AO2,M
RTS,2024-07-16 18:35,-119.8764,39.6682,1539.00,84.20,39.20,20.29,0.00,0.00,0.00,30.20,M,10.00,M,CLR,M,M,M,M,M,M,M,M,M,M,M,M,M,M,81.44,KRTS 161835Z AUTO 00000KT 10SM CLR 29/04 A3020 RMK AO2,M
MEV,2024-07-16 18:35,-119.7500,38.9963,1441.42,84.20,42.80,23.33,0.00,0.00,0.00,30.16,M,10.00,M,CLR,M,M,M,M,M,M,M,M,M,M,M,M,M,M,81.61,KMEV 161835Z AUTO 00000KT 10SM CLR 29/06 A3016 RMK AO2,M
HTH,2024-07-16 18:35,-118.6315,38.5448,1282.89,87.80,41.00,19.40,330.00,5.00,0.00,30.13,M,10.00,M,CLR,M,M,M,M,M,M,M,M,M,M,M,M,M,M,84.30,KHTH 161835Z AUTO 33005KT 10SM CLR 31/05 A3013 RMK A01,M
BAM,2024-07-16 18:35,-116.8743,40.5990,1382.36,86.00,53.60,33.01,20.00,6.00,0.00,30.17,M,10.00,M,CLR,M,M,M,M,M,M,M,M,M,M,M,M,M,M,84.18,KBAM 161835Z AUTO 02006KT 10SM CLR 30/12 A3017 RMK AO1,M
TMT,2024-07-16 18:35,-117.1971,39.4643,1749.34,84.70,37.20,18.46,0.00,0.00,0.00,30.24,M,7.00,M,CLR,M,M,M,M,M,M,M,M,M,M,M,M,M,M,81.74,KTMT 161835Z AUTO 00000KT 7SM CLR 29/03 A3024 RMK AO2 T02930029,M
ELY,2024-07-16 18:37,-114.8453,39.2950,1909.00,84.00,42.00,22.77,20.00,3.00,0.00,30.26,M,10.00,M,CLR,M,M,M,M,M,M,M,M,M,M,M,M,M,M,81.42,KELY 161837Z AUTO 02003KT 10SM CLR 29/06 A3026 RMK AO2 LTG DSNT W T02890056,M
05U,2024-07-16 18:50,-116.0051,39.6042,1811.23,87.80,39.20,18.09,0.00,0.00,0.00,30.26,M,10.00,10.00,M,M,M,M,M,M,M,M,M,M,M,M,M,M,M,84.22,K05U 161850Z AUTO 00000G10KT 10SM 31/04 A3026 RMK A01,M
P68,2024-07-16 18:53,-116.0056,39.6014,1993.00,86.00,40.00,19.76,50.00,7.00,0.00,30.23,1014.70,M,M,M,M,M,M,M,M,M,M,M,M,M,M,M,M,M,82.82,KP68 161853Z AUTO 05007KT 30/04 A3023 RMK AO1 SLP147 T03000044,M
DRA,2024-07-16 18:53,-116.0278,36.6206,1009.00,99.00,45.00,15.98,M,3.00,0.00,30.02,1010.50,10.00,M,CLR,M,M,M,M,M,M,M,M,M,M,M,M,M,M,95.00,KDRA 161853Z AUTO VRB03KT 10SM CLR 37/07 A3002 RMK AO2 SLP105 T03720072,M
ELY,2024-07-16 18:53,-114.8453,39.2950,1909.00,83.00,39.00,20.93,M,3.00,0.00,30.25,1013.40,10.00,M,CLR,M,M,M,M,M,M,M,M,M,M,M,M,M,M,80.60,KELY 161853Z AUTO VRB03KT 10SM CLR 28/04 A3025 RMK AO2 SLP134 T02830039,M
VGT,2024-07-16 18:53,-115.1933,36.2111,667.00,102.00,49.00,16.97,90.00,7.00,0.00,29.93,1011.70,10.00,M,CLR,M,M,M,M,M,M,M,M,M,M,M,M,M,M,98.82,KVGT 161853Z 09007KT 10SM CLR 39/09 A2993 RMK AO2 SLP117 T03890094,M
LOL,2024-07-16 18:53,-118.5701,40.0684,1192.43,90.00,44.00,20.31,M,M,0.00,30.09,1014.50,10.00,M,CLR,M,M,M,M,M,M,M,M,M,M,M,M,M,M,86.37,KLOL 161853Z AUTO 10SM CLR 32/07 A3009 RMK AO2 SLP145 T03220067,M
NFL,2024-07-16 18:54,-118.7010,39.4166,1199.00,91.00,45.00,20.45,190.00,4.00,0.00,30.09,1015.70,10.00,M,SCT,SCT,M,M,9000.00,15000.00,M,M,M,M,M,M,M,M,M,87.35,KNFL 161854Z COR 19004KT 10SM SCT090 SCT150 33/07 A3009 RMK AO2 SLP157 T03280072,M
BVU,2024-07-16 18:55,-114.8611,35.9475,671.00,102.20,46.40,15.30,120.00,7.00,0.00,29.92,M,10.00,14.00,CLR,M,M,M,M,M,M,M,M,M,M,M,M,M,M,98.43,KBVU 161855Z AUTO 12007G14KT 10SM CLR 39/08 A2992 RMK AO2,M
CXP,2024-07-16 18:55,-119.7326,39.1923,1431.00,87.80,39.20,18.09,0.00,0.00,0.00,30.17,M,9.00,M,CLR,M,M,M,M,M,M,M,M,M,M,M,M,M,M,84.22,KCXP 161855Z AUTO 00000KT 9SM CLR 31/04 A3017 RMK AO2,M
RNO,2024-07-16 18:55,-119.7711,39.4839,1341.00,90.00,42.00,18.81,M,4.00,0.00,30.13,1013.80,10.00,M,SCT,M,M,M,11000.00,M,M,M,M,M,M,M,M,M,M,86.22,KRNO 161855Z VRB04KT 10SM SCT110 32/06 A3013 RMK AO2 SLP138 T03220056,M
RTS,2024-07-16 18:55,-119.8764,39.6682,1539.00,84.20,39.20,20.29,0.00,0.00,0.00,30.19,M,10.00,M,CLR,M,M,M,M,M,M,M,M,M,M,M,M,M,M,81.44,KRTS 161855Z AUTO 00000KT 10SM CLR 29/04 A3019 RMK AO2,M
MEV,2024-07-16 18:55,-119.7500,38.9963,1441.42,86.00,39.20,19.15,0.00,0.00,0.00,30.16,M,10.00,M,CLR,M,M,M,M,M,M,M,M,M,M,M,M,M,M,82.79,KMEV 161855Z AUTO 00000KT 10SM CLR 30/04 A3016 RMK AO2,M
BAM,2024-07-16 18:55,-116.8743,40.5990,1382.36,87.80,51.80,29.18,10.00,5.00,0.00,30.17,M,10.00,M,CLR,M,M,M,M,M,M,M,M,M,M,M,M,M,M,85.39,KBAM 161855Z AUTO 01005KT 10SM CLR 31/11 A3017 RMK AO1,M
HTH,2024-07-16 18:55,-118.6315,38.5448,1282.89,89.60,41.00,18.33,M,5.00,0.00,30.12,M,10.00,M,CLR,M,M,M,M,M,M,M,M,M,M,M,M,M,M,85.82,KHTH 161855Z AUTO VRB05KT 10SM CLR 32/05 A3012 RMK A01,M
TMT,2024-07-16 18:55,-117.1971,39.4643,1749.34,86.00,38.50,18.64,320.00,4.00,0.00,30.22,M,10.00,M,CLR,M,M,M,M,M,M,M,M,M,M,M,M,M,M,82.76,KTMT 161855Z AUTO 32004KT 10SM CLR 30/04 A3022 RMK AO2 T02990036,M
INS,2024-07-16 18:55,-115.6733,36.5872,955.00,98.40,37.00,11.94,0.00,0.00,0.00,30.00,1009.50,10.00,M,FEW,M,M,M,14000.00,M,M,M,M,M,M,M,M,M,M,93.30,KINS 161855Z AUTO 00000KT 10SM FEW140 37/03 A3000 RMK AO2 SLP095 T03690028 $,M
LSV,2024-07-16 18:55,-115.0343,36.2362,570.00,104.00,43.00,12.74,240.00,5.00,0.00,29.87,1008.00,10.00,M,CLR,M,M,M,M,M,M,M,M,M,M,M,M,M,M,99.47,KLSV 161855Z AUTO 24005KT 10SM CLR 40/06 A2987 RMK AO2 SLP080 T03990062 $,M
EKO,2024-07-16 18:56,-115.7860,40.8242,1367.00,89.00,41.00,18.68,290.00,5.00,0.00,30.19,1015.80,10.00,M,CLR,M,M,M,M,M,M,M,M,M,M,M,M,M,M,85.30,KEKO 161856Z AUTO 29005KT 10SM CLR 32/05 A3019 RMK AO2 SLP158 T03170050,M
WMC,2024-07-16 18:56,-117.8072,40.9019,1315.00,92.00,37.00,14.54,M,4.00,0.00,30.13,1015.00,10.00,14.00,CLR,M,M,M,M,M,M,M,M,M,M,M,M,M,M,87.74,KWMC 161856Z AUTO VRB04G14KT 10SM CLR 33/03 A3013 RMK AO2 SLP150 T03330028,M
HND,2024-07-16 18:56,-115.1344,35.9729,742.79,101.00,49.00,17.49,M,4.00,0.00,29.98,1012.90,10.00,M,CLR,M,M,M,M,M,M,M,M,M,M,M,M,M,M,97.79,KHND 161856Z VRB04KT 10SM CLR 38/09 A2998 RMK AO2 SLP129 T03830094,M
TPH,2024-07-16 18:56,-117.0904,38.0505,1654.00,90.00,39.00,16.74,M,M,0.00,30.19,1012.70,10.00,M,CLR,M,M,M,M,M,M,M,M,M,M,M,M,M,M,86.07,KTPH 161856Z AUTO 10SM CLR 32/04 A3019 RMK AO2 SLP127 T03220039,M
LAS,2024-07-16 18:56,-115.1634,36.0719,663.00,103.00,47.00,15.28,M,3.00,0.00,29.95,1007.30,10.00,M,FEW,M,M,M,12000.00,M,M,M,M,M,M,M,M,M,M,99.35,KLAS 161856Z VRB03KT 10SM FEW120 39/08 A2995 RMK AO2 SLP073 T03940083 $,M
05U,2024-07-16 19:10,-116.0051,39.6042,1811.23,86.00,39.20,19.15,280.00,5.00,0.00,30.25,M,10.00,M,M,M,M,M,M,M,M,M,M,M,M,M,M,M,M,82.79,K05U 161910Z AUTO 28005KT 10SM 30/04 A3025 RMK A01,M
BVU,2024-07-16 19:15,-114.8611,35.9475,671.00,104.00,46.40,14.50,10.00,8.00,0.00,29.91,M,10.00,M,CLR,M,M,M,M,M,M,M,M,M,M,M,M,M,M,100.21,KBVU 161915Z AUTO 01008KT 350V060 10SM CLR 40/08 A2991 RMK AO2,M
CXP,2024-07-16 19:15,-119.7326,39.1923,1431.00,89.60,41.00,18.33,M,4.00,0.00,30.16,M,10.00,11.00,CLR,M,M,M,M,M,M,M,M,M,M,M,M,M,M,85.82,KCXP 161915Z AUTO VRB04G11KT 10SM CLR 32/05 A3016 RMK AO2,M
RTS,2024-07-16 19:15,-119.8764,39.6682,1539.00,86.00,39.20,19.15,100.00,5.00,0.00,30.19,M,10.00,M,CLR,M,M,M,M,M,M,M,M,M,M,M,M,M,M,82.79,KRTS 161915Z AUTO 10005KT 10SM CLR 30/04 A3019 RMK AO2,M
MEV,2024-07-16 19:15,-119.7500,38.9963,1441.42,87.80,41.00,19.40,350.00,5.00,0.00,30.15,M,10.00,M,CLR,M,M,M,M,M,M,M,M,M,M,M,M,M,M,84.30,KMEV 161915Z AUTO 35005KT 10SM CLR 31/05 A3015 RMK AO2,M
HTH,2024-07-16 19:15,-118.6315,38.5448,1282.89,89.60,39.20,17.09,350.00,6.00,0.00,30.11,M,10.00,11.00,CLR,M,M,M,M,M,M,M,M,M,M,M,M,M,M,85.73,KHTH 161915Z AUTO 35006G11KT 10SM CLR 32/04 A3011 RMK A01,M
BAM,2024-07-16 19:15,-116.8743,40.5990,1382.36,87.80,51.80,29.18,10.00,5.00,0.00,30.16,M,10.00,M,CLR,M,M,M,M,M,M,M,M,M,M,M,M,M,M,85.39,KBAM 161915Z AUTO 01005KT 10SM CLR 31/11 A3016 RMK AO1,M
TMT,2024-07-16 19:15,-117.1971,39.4643,1749.34,87.00,39.00,18.41,360.00,3.00,0.00,30.22,M,10.00,M,CLR,M,M,M,M,M,M,M,M,M,M,M,M,M,M,83.57,KTMT 161915Z AUTO 36003KT 10SM CLR 31/04 A3022 RMK AO2 T03060039,M
05U,2024-07-16 19:20,-116.0051,39.6042,1811.23,86.00,39.20,19.15,0.00,0.00,0.00,30.25,M,10.00,13.00,M,M,M,M,M,M,M,M,M,M,M,M,M,M,M,82.79,K05U 161920Z AUTO 00000G13KT 10SM 30/04 A3025 RMK A01,M
HTH,2024-07-16 19:30,-118.6315,38.5448,1282.89,89.60,39.20,17.09,0.00,0.00,0.00,30.10,M,10.00,M,CLR,M,M,M,M,M,M,M,M,M,M,M,M,M,M,85.73,KHTH 161930Z AUTO 00000KT 10SM CLR 32/04 A3010 RMK A01,M
BVU,2024-07-16 19:35,-114.8611,35.9475,671.00,104.00,44.60,13.54,M,5.00,0.00,29.91,M,10.00,15.00,CLR,M,M,M,M,M,M,M,M,M,M,M,M,M,M,99.82,KBVU 161935Z AUTO VRB05G15KT 10SM CLR 40/07 A2991 RMK AO2,M
CXP,2024-07-16 19:35,-119.7326,39.1923,1431.00,89.60,41.00,18.33,290.00,5.00,0.00,30.16,M,10.00,M,CLR,M,M,M,M,M,M,M,M,M,M,M,M,M,M,85.82,KCXP 161935Z AUTO 29005KT 10SM CLR 32/05 A3016 RMK AO2,M
RTS,2024-07-16 19:35,-119.8764,39.6682,1539.00,86.00,39.20,19.15,0.00,0.00,0.00,30.18,M,10.00,M,FEW,FEW,M,M,10000.00,12000.00,M,M,M,M,M,M,M,M,M,82.79,KRTS 161935Z AUTO 00000KT 10SM FEW100 FEW120 30/04 A3018 RMK AO2,M
MEV,2024-07-16 19:35,-119.7500,38.9963,1441.42,89.60,41.00,18.33,280.00,6.00,0.00,30.15,M,10.00,M,CLR,M,M,M,M,M,M,M,M,M,M,M,M,M,M,85.82,KMEV 161935Z AUTO 28006KT 10SM CLR 32/05 A3015 RMK AO2,M
BAM,2024-07-16 19:35,-116.8743,40.5990,1382.36,89.60,48.20,24.11,20.00,5.00,0.00,30.15,M,10.00,M,CLR,M,M,M,M,M,M,M,M,M,M,M,M,M,M,86.44,KBAM 161935Z AUTO 02005KT 10SM CLR 32/09 A3015 RMK AO1,M
TMT,2024-07-16 19:35,-117.1971,39.4643,1749.34,87.60,38.00,17.37,0.00,0.00,0.00,30.21,M,10.00,M,CLR,M,M,M,M,M,M,M,M,M,M,M,M,M,M,84.02,KTMT 161935Z AUTO 00000KT 10SM CLR 31/03 A3021 RMK AO2 T03090034,M
P68,2024-07-16 19:53,-116.0056,39.6014,1993.00,90.00,39.00,16.74,M,M,0.00,30.20,1013.40,M,M,M,M,M,M,M,M,M,M,M,M,M,M,M,M,M,86.07,KP68 161953Z AUTO 32/04 A3020 RMK AO1 SLP134 T03220039,M
DRA,2024-07-16 19:53,-116.0278,36.6206,1009.00,102.00,44.00,14.05,250.00,10.00,0.00,30.00,1009.70,10.00,17.00,CLR,M,M,M,M,M,M,M,M,M,M,M,M,M,M,97.77,KDRA 161953Z AUTO 25010G17KT 200V280 10SM CLR 39/07 A3000 RMK AO2 SLP097 T03890067,M
ELY,2024-07-16 19:53,-114.8453,39.2950,1909.00,80.00,42.00,25.93,250.00,12.00,T,30.26,1014.20,10.00,24.00,SCT,BKN,M,M,7000.00,11000.00,M,M,M,M,M,M,M,M,M,78.92,KELY 161953Z AUTO 25012G24KT 10SM SCT070 BKN110 27/06 A3026 RMK AO2 LTG DSNT E RAB42E52 SLP142 P0000 T02670056,M
VGT,2024-07-16 19:53,-115.1933,36.2111,667.00,105.00,47.00,14.40,100.00,5.00,0.00,29.91,1010.80,10.00,M,CLR,M,M,M,M,M,M,M,M,M,M,M,M,M,M,101.34,KVGT 161953Z 10005KT 10SM CLR 41/08 A2991 RMK AO2 SLP108 T04060083,M
LOL,2024-07-16 19:53,-118.5701,40.0684,1192.43,93.00,44.00,18.49,M,5.00,0.00,30.07,1013.60,10.00,M,CLR,M,M,M,M,M,M,M,M,M,M,M,M,M,M,89.10,KLOL 161953Z AUTO VRB05KT 10SM CLR 34/07 A3007 RMK AO2 SLP136 T03390067,M
NFL,2024-07-16 19:54,-118.7010,39.4166,1199.00,95.00,43.00,16.73,0.00,0.00,0.00,30.07,1015.00,10.00,M,SCT,SCT,M,M,8000.00,15000.00,M,M,M,M,M,M,M,M,M,90.88,KNFL 161954Z 00000KT 10SM SCT080 SCT150 35/06 A3007 RMK AO2 SLP150 T03500061,M
BVU,2024-07-16 19:55,-114.8611,35.9475,671.00,104.00,44.60,13.54,M,6.00,0.00,29.90,M,10.00,M,CLR,M,M,M,M,M,M,M,M,M,M,M,M,M,M,99.82,KBVU 161955Z AUTO VRB06KT 10SM CLR 40/07 A2990 RMK AO2,M
CXP,2024-07-16 19:55,-119.7326,39.1923,1431.00,89.60,39.20,17.09,M,5.00,0.00,30.15,M,10.00,10.00,CLR,M,M,M,M,M,M,M,M,M,M,M,M,M,M,85.73,KCXP 161955Z AUTO VRB05G10KT 10SM CLR 32/04 A3015 RMK AO2,M
INS,2024-07-16 19:55,-115.6733,36.5872,955.00,103.00,38.30,10.94,90.00,13.00,0.00,29.98,1008.70,10.00,M,CLR,M,M,M,M,M,M,M,M,M,M,M,M,M,M,97.50,KINS 161955Z AUTO 09013KT 10SM CLR 39/04 A2998 RMK AO2 SLP087 T03940035 RVRNO $,M
RNO,2024-07-16 19:55,-119.7711,39.4839,1341.00,92.00,42.00,17.67,M,4.00,0.00,30.12,1013.20,10.00,M,SCT,M,M,M,11000.00,M,M,M,M,M,M,M,M,M,M,88.01,KRNO 161955Z VRB04KT 10SM SCT110TCU 33/06 A3012 RMK AO2 SLP132 TCU W T03330056,M
RTS,2024-07-16 19:55,-119.8764,39.6682,1539.00,86.00,39.20,19.15,210.00,8.00,0.00,30.18,M,10.00,14.00,SCT,SCT,M,M,9500.00,11000.00,M,M,M,M,M,M,M,M,M,82.79,KRTS 161955Z AUTO 21008G14KT 10SM SCT095 SCT110 30/04 A3018 RMK AO2,M
05U,2024-07-16 19:55,-116.0051,39.6042,1811.23,91.40,37.40,15.05,130.00,18.00,0.00,30.22,M,10.00,26.00,M,M,M,M,M,M,M,M,M,M,M,M,M,M,M,87.23,K05U 161955Z AUTO 13018G26KT 080V200 10SM 33/03 A3022 RMK A01,M
MEV,2024-07-16 19:55,-119.7500,38.9963,1441.42,89.60,41.00,18.33,320.00,7.00,0.00,30.14,M,10.00,M,CLR,M,M,M,M,M,M,M,M,M,M,M,M,M,M,85.82,KMEV 161955Z AUTO 32007KT 10SM CLR 32/05 A3014 RMK AO2,M
HTH,2024-07-16 19:55,-118.6315,38.5448,1282.89,89.60,39.20,17.09,0.00,0.00,0.00,30.09,M,10.00,M,CLR,M,M,M,M,M,M,M,M,M,M,M,M,M,M,85.73,KHTH 161955Z AUTO 00000KT 10SM CLR 32/04 A3009 RMK A01,M
BAM,2024-07-16 19:55,-116.8743,40.5990,1382.36,89.60,50.00,25.79,30.00,6.00,0.00,30.15,M,10.00,M,CLR,M,M,M,M,M,M,M,M,M,M,M,M,M,M,86.70,KBAM 161955Z AUTO 03006KT 10SM CLR 32/10 A3015 RMK AO1,M
TMT,2024-07-16 19:55,-117.1971,39.4643,1749.34,89.80,39.00,16.85,270.00,7.00,0.00,30.21,M,10.00,M,CLR,M,M,M,M,M,M,M,M,M,M,M,M,M,M,85.90,KTMT 161955Z AUTO 27007KT 250V310 10SM CLR 32/04 A3021 RMK AO2 T03210039,M
LSV,2024-07-16 19:55,-115.0343,36.2362,570.00,106.00,40.60,10.94,70.00,6.00,0.00,29.85,1007.30,10.00,M,CLR,M,M,M,M,M,M,M,M,M,M,M,M,M,M,100.64,KLSV 161955Z AUTO 07006KT 10SM CLR 41/05 A2985 RMK AO2 SLP073 T04110048 $,M
EKO,2024-07-16 19:56,-115.7860,40.8242,1367.00,91.00,41.00,17.54,M,M,0.00,30.17,1015.30,10.00,M,CLR,M,M,M,M,M,M,M,M,M,M,M,M,M,M,87.04,KEKO 161956Z AUTO 10SM CLR 33/05 A3017 RMK AO2 SLP153 T03280050,M
WMC,2024-07-16 19:56,-117.8072,40.9019,1315.00,93.00,37.00,14.09,90.00,4.00,0.00,30.11,1014.20,10.00,17.00,CLR,M,M,M,M,M,M,M,M,M,M,M,M,M,M,88.63,KWMC 161956Z AUTO 09004G17KT 10SM CLR 34/03 A3011 RMK AO2 SLP142 T03390028,M
HND,2024-07-16 19:56,-115.1344,35.9729,742.79,104.00,48.00,15.40,M,4.00,0.00,29.95,1011.90,10.00,M,CLR,M,M,M,M,M,M,M,M,M,M,M,M,M,M,100.60,KHND 161956Z VRB04KT 10SM CLR 40/09 A2995 RMK AO2 SLP119 T04000089,M
TPH,2024-07-16 19:56,-117.0904,38.0505,1654.00,93.00,39.00,15.24,210.00,11.00,0.00,30.17,1011.50,10.00,15.00,CLR,M,M,M,M,M,M,M,M,M,M,M,M,M,M,88.73,KTPH 161956Z AUTO 21011G15KT 10SM CLR 34/04 A3017 RMK AO2 SLP115 T03390039,M
LAS,2024-07-16 19:56,-115.1634,36.0719,663.00,106.00,48.00,14.51,120.00,6.00,0.00,29.95,1007.20,10.00,M,FEW,M,M,M,12000.00,M,M,M,M,M,M,M,M,M,M,102.59,KLAS 161956Z 12006KT 10SM FEW120 41/09 A2995 RMK AO2 SLP072 T04110089 $,M
05U,2024-07-16 20:10,-116.0051,39.6042,1811.23,87.80,37.40,16.86,0.00,0.00,0.00,30.23,M,10.00,10.00,M,M,M,M,M,M,M,M,M,M,M,M,M,M,M,84.16,K05U 162010Z AUTO 00000G10KT 10SM 31/03 A3023 RMK A01,M
BVU,2024-07-16 20:15,-114.8611,35.9475,671.00,105.80,44.60,12.84,200.00,12.00,0.00,29.89,M,10.00,M,CLR,M,M,M,M,M,M,M,M,M,M,M,M,M,M,101.53,KBVU 162015Z AUTO 20012KT 10SM CLR 41/07 A2989 RMK AO2,M
CXP,2024-07-16 20:15,-119.7326,39.1923,1431.00,93.20,39.20,15.27,M,14.00,0.00,30.11,M,7.00,26.00,SCT,M,M,M,12000.00,M,M,M,M,M,M,M,M,M,M,88.92,KCXP 162015Z AUTO VRB14G26KT 7SM SCT120 34/04 A3011 RMK AO2,M
RTS,2024-07-16 20:15,-119.8764,39.6682,1539.00,84.20,41.00,21.76,300.00,5.00,0.00,30.18,M,10.00,M,SCT,SCT,M,M,10000.00,12000.00,M,M,M,M,M,M,M,M,M,81.52,KRTS 162015Z AUTO 30005KT 10SM SCT100 SCT120 29/05 A3018 RMK AO2,M
MEV,2024-07-16 20:15,-119.7500,38.9963,1441.42,89.60,41.00,18.33,0.00,0.00,0.00,30.14,M,10.00,11.00,CLR,M,M,M,M,M,M,M,M,M,M,M,M,M,M,85.82,KMEV 162015Z AUTO 00000G11KT 10SM CLR 32/05 A3014 RMK AO2,M
HTH,2024-07-16 20:15,-118.6315,38.5448,1282.89,91.40,39.20,16.15,M,5.00,0.00,30.08,M,10.00,12.00,CLR,M,M,M,M,M,M,M,M,M,M,M,M,M,M,87.30,KHTH 162015Z AUTO VRB05G12KT 10SM CLR 33/04 A3008 RMK A01,M
BAM,2024-07-16 20:15,-116.8743,40.5990,1382.36,91.40,50.00,24.37,360.00,6.00,0.00,30.13,M,10.00,M,CLR,M,M,M,M,M,M,M,M,M,M,M,M,M,M,88.36,KBAM 162015Z AUTO 36006KT 10SM CLR 33/10 A3013 RMK AO1,M
TMT,2024-07-16 20:15,-117.1971,39.4643,1749.34,86.00,37.80,18.13,240.00,5.00,0.00,30.21,M,10.00,M,SCT,M,M,M,12000.00,M,M,M,M,M,M,M,M,M,M,82.74,KTMT 162015Z AUTO 24005KT 10SM SCT120 30/03 A3021 RMK AO2 T03010032,M
05U,2024-07-16 20:30,-116.0051,39.6042,1811.23,89.60,35.60,14.83,0.00,0.00,0.00,30.22,M,10.00,M,M,M,M,M,M,M,M,M,M,M,M,M,M,M,M,85.62,K05U 162030Z AUTO 00000KT 10SM 32/02 A3022 RMK A01,M
BVU,2024-07-16 20:35,-114.8611,35.9475,671.00,105.80,44.60,12.84,210.00,9.00,0.00,29.88,M,10.00,17.00,CLR,M,M,M,M,M,M,M,M,M,M,M,M,M,M,101.53,KBVU 162035Z AUTO 21009G17KT 10SM CLR 41/07 A2988 RMK AO2,M
CXP,2024-07-16 20:35,-119.7326,39.1923,1431.00,89.60,41.00,18.33,300.00,10.00,0.00,30.14,M,10.00,17.00,SCT,M,M,M,11000.00,M,M,M,M,M,M,M,M,M,M,85.82,KCXP 162035Z AUTO 30010G17KT 10SM SCT110 32/05 A3014 RMK AO2,M
RTS,2024-07-16 20:35,-119.8764,39.6682,1539.00,84.20,41.00,21.76,210.00,9.00,0.00,30.18,M,10.00,M,FEW,M,M,M,10000.00,M,M,M,M,M,M,M,M,M,M,81.52,KRTS 162035Z AUTO 21009KT 10SM FEW100 29/05 A3018 RMK AO2,M
MEV,2024-07-16 20:35,-119.7500,38.9963,1441.42,89.60,42.80,19.64,M,7.00,0.00,30.14,M,10.00,17.00,FEW,M,M,M,11000.00,M,M,M,M,M,M,M,M,M,M,85.93,KMEV 162035Z AUTO VRB07G17KT 200V260 10SM FEW110 32/06 A3014 RMK AO2,M
HTH,2024-07-16 20:35,-118.6315,38.5448,1282.89,93.20,39.20,15.27,300.00,7.00,0.00,30.07,M,10.00,M,CLR,M,M,M,M,M,M,M,M,M,M,M,M,M,M,88.92,KHTH 162035Z AUTO 30007KT 10SM CLR 34/04 A3007 RMK A01,M
BAM,2024-07-16 20:35,-116.8743,40.5990,1382.36,89.60,50.00,25.79,20.00,6.00,0.00,30.13,M,10.00,M,CLR,M,M,M,M,M,M,M,M,M,M,M,M,M,M,86.70,KBAM 162035Z AUTO 02006KT 10SM CLR 32/10 A3013 RMK AO1,M
TMT,2024-07-16 20:35,-117.1971,39.4643,1749.34,83.70,39.70,21.03,240.00,17.00,0.00,30.22,M,10.00,23.00,SCT,M,M,M,11000.00,M,M,M,M,M,M,M,M,M,M,81.11,KTMT 162035Z AUTO 24017G23KT 10SM SCT110 29/04 A3022 RMK AO2 T02870043,M
INS,2024-07-16 20:45,-115.6733,36.5872,955.00,102.20,39.20,11.60,120.00,16.00,0.00,29.96,1008.20,10.00,22.00,FEW,M,M,M,13000.00,M,M,M,M,M,M,M,M,M,M,96.99,KINS 162045Z AUTO 12016G22KT 10SM FEW130 39/04 A2996 RMK AO2 WSHFT 41 SLP082 $,M
CXP,2024-07-16 20:50,-119.7326,39.1923,1431.00,89.60,41.00,18.33,270.00,10.00,0.00,30.14,M,10.00,18.00,BKN,M,M,M,11000.00,M,M,M,M,M,M,M,M,M,M,85.82,KCXP 162050Z AUTO 27010G18KT 10SM BKN110 32/05 A3014 RMK AO2,M
05U,2024-07-16 20:50,-116.0051,39.6042,1811.23,87.80,35.60,15.70,40.00,8.00,0.00,30.22,M,10.00,M,M,M,M,M,M,M,M,M,M,M,M,M,M,M,M,84.12,K05U 162050Z AUTO 04008KT 10SM 31/02 A3022 RMK A01,M
P68,2024-07-16 20:53,-116.0056,39.6014,1993.00,86.00,36.00,16.89,M,M,0.00,30.20,1013.80,M,M,M,M,M,M,M,M,M,M,M,M,M,M,28.00,360.00,2024-07-16 19:55,82.70,KP68 162053Z AUTO 30/02 A3020 RMK AO1 PK WND 36028/1955 SLP138 T03000022 56015,M
DRA,2024-07-16 20:53,-116.0278,36.6206,1009.00,104.00,43.00,12.74,280.00,12.00,0.00,29.98,1008.70,10.00,26.00,CLR,M,M,M,M,M,M,M,M,M,M,M,26.00,270.00,2024-07-16 20:53,99.47,KDRA 162053Z AUTO 28012G26KT 210V310 10SM CLR 40/06 A2998 RMK AO2 PK WND 27026/2053 SLP087 T04000061 58016,M
ELY,2024-07-16 20:53,-114.8453,39.2950,1909.00,83.00,42.00,23.51,60.00,9.00,T,30.27,1014.40,10.00,17.00,FEW,FEW,SCT,M,3200.00,8500.00,11000.00,M,M,M,M,M,30.00,200.00,2024-07-16 20:05,80.74,KELY 162053Z AUTO 06009G17KT 10SM FEW032 FEW085 SCT110 28/06 A3027 RMK AO2 PK WND 20030/2005 RAB05E35 SLP144 P0000 60000 T02830056 55001,M
VGT,2024-07-16 20:53,-115.1933,36.2111,667.00,107.00,47.00,13.57,M,3.00,0.00,29.88,1010.10,10.00,M,CLR,M,M,M,M,M,M,M,M,M,M,M,M,M,M,103.30,KVGT 162053Z VRB03KT 10SM CLR 42/08 A2988 RMK AO2 SLP101 T04170083 58018,M
LOL,2024-07-16 20:53,-118.5701,40.0684,1192.43,94.00,40.00,15.37,120.00,7.00,0.00,30.04,1012.70,10.00,M,CLR,M,M,M,M,M,M,M,M,M,M,M,M,M,M,89.70,KLOL 162053Z AUTO 12007KT 100V170 10SM CLR 34/04 A3004 RMK AO2 SLP127 T03440044 58018,M
NFL,2024-07-16 20:54,-118.7010,39.4166,1199.00,98.00,43.00,15.26,220.00,8.00,0.00,30.05,1014.40,10.00,M,SCT,SCT,M,M,8000.00,15000.00,M,M,M,M,M,M,M,M,M,93.75,KNFL 162054Z 22008KT 10SM SCT080 SCT150 37/06 A3005 RMK AO2 SLP144 T03670061 58017,M
BVU,2024-07-16 20:55,-114.8611,35.9475,671.00,105.80,44.60,12.84,190.00,12.00,0.00,29.88,M,10.00,17.00,CLR,M,M,M,M,M,M,M,M,M,M,M,M,M,M,101.53,KBVU 162055Z AUTO 19012G17KT 10SM CLR 41/07 A2988 RMK AO2,M
INS,2024-07-16 20:55,-115.6733,36.5872,955.00,102.40,37.80,10.92,140.00,10.00,0.00,29.96,1008.00,10.00,20.00,CLR,M,M,M,M,M,M,M,M,M,M,M,M,M,M,96.88,KINS 162055Z AUTO 14010G20KT 10SM CLR 39/03 A2996 RMK AO2 SLP080 T03910032 57015 $,M
RNO,2024-07-16 20:55,-119.7711,39.4839,1341.00,94.00,43.00,17.25,240.00,9.00,0.00,30.09,1012.40,10.00,18.00,SCT,M,M,M,11000.00,M,M,M,M,M,M,M,M,M,M,89.94,KRNO 162055Z 24009G18KT 10SM SCT110 34/06 A3009 RMK AO2 SLP124 CB DSNT NW MOV N T03440061 58017,M
RTS,2024-07-16 20:55,-119.8764,39.6682,1539.00,86.00,42.80,22.02,190.00,6.00,0.00,30.17,M,10.00,M,CLR,M,M,M,M,M,M,M,M,M,M,M,M,M,M,82.95,KRTS 162055Z AUTO 19006KT 10SM CLR 30/06 A3017 RMK AO2,M
MEV,2024-07-16 20:55,-119.7500,38.9963,1441.42,89.60,42.80,19.64,260.00,9.00,0.00,30.13,M,10.00,18.00,CLR,M,M,M,M,M,M,M,M,M,M,M,M,M,M,85.93,KMEV 162055Z AUTO 26009G18KT 220V290 10SM CLR 32/06 A3013 RMK AO2,M
HTH,2024-07-16 20:55,-118.6315,38.5448,1282.89,93.20,39.20,15.27,M,4.00,0.00,30.06,M,10.00,14.00,CLR,M,M,M,M,M,M,M,M,M,M,M,M,M,M,88.92,KHTH 162055Z AUTO VRB04G14KT 10SM CLR 34/04 A3006 RMK A01,M
BAM,2024-07-16 20:55,-116.8743,40.5990,1382.36,91.40,44.60,19.89,20.00,4.00,0.00,30.12,M,10.00,M,CLR,M,M,M,M,M,M,M,M,M,M,M,M,M,M,87.68,KBAM 162055Z AUTO 02004KT 10SM CLR 33/07 A3012 RMK AO1,M
TMT,2024-07-16 20:55,-117.1971,39.4643,1749.34,86.00,40.00,19.76,180.00,4.00,0.00,30.22,M,10.00,16.00,SCT,M,M,M,11000.00,M,M,M,M,M,M,M,M,M,M,82.82,KTMT 162055Z AUTO 18004G16KT 10SM SCT110 30/04 A3022 RMK AO2 T03000044,M
LSV,2024-07-16 20:55,-115.0343,36.2362,570.00,107.20,36.30,8.93,190.00,8.00,0.00,29.83,1006.60,10.00,M,CLR,M,M,M,M,M,M,M,M,M,M,M,M,M,M,100.77,KLSV 162055Z AUTO 19008KT 10SM CLR 42/02 A2983 RMK AO2 SLP066 T04180024 57020 $,M
EKO,2024-07-16 20:56,-115.7860,40.8242,1367.00,93.00,38.00,14.66,M,4.00,0.00,30.15,1014.20,10.00,M,CLR,M,M,M,M,M,M,M,M,M,M,M,M,M,M,88.68,KEKO 162056Z AUTO VRB04KT 10SM CLR 34/03 A3015 RMK AO2 SLP142 T03390033 58019,M
WMC,2024-07-16 20:56,-117.8072,40.9019,1315.00,96.00,37.00,12.85,20.00,5.00,0.00,30.08,1013.20,10.00,M,CLR,M,M,M,M,M,M,M,M,M,M,M,M,M,M,91.31,KWMC 162056Z AUTO 02005KT 10SM CLR 36/03 A3008 RMK AO2 SLP132 T03560028 58018,M
HND,2024-07-16 20:56,-115.1344,35.9729,742.79,108.00,49.00,14.21,140.00,8.00,0.00,29.93,1011.10,10.00,M,CLR,M,M,M,M,M,M,M,M,M,M,M,M,M,M,104.87,KHND 162056Z 14008KT 10SM CLR 42/09 A2993 RMK AO2 SLP111 T04220094 58019,M
TPH,2024-07-16 20:56,-117.0904,38.0505,1654.00,92.00,38.00,15.12,M,M,0.00,30.15,1011.30,10.00,M,FEW,M,M,M,11000.00,M,M,M,M,M,M,M,M,M,M,87.78,KTPH 162056Z AUTO 10SM FEW110 33/03 A3015 RMK AO2 SLP113 T03330033 58015,M
LAS,2024-07-16 20:56,-115.1634,36.0719,663.00,108.00,46.00,12.69,M,3.00,0.00,29.95,1007.20,10.00,M,FEW,M,M,M,12000.00,M,M,M,M,M,M,M,M,M,M,103.95,KLAS 162056Z VRB03KT 10SM FEW120 42/08 A2995 RMK AO2 SLP072 T04220078 52000 $,M
05U,2024-07-16 21:00,-116.0051,39.6042,1811.23,87.80,35.60,15.70,50.00,11.00,0.00,30.23,M,10.00,M,M,M,M,M,M,M,M,M,M,M,M,M,M,M,M,84.12,K05U 162100Z AUTO 05011KT 10SM 31/02 A3023 RMK A01,M
BVU,2024-07-16 21:15,-114.8611,35.9475,671.00,105.80,42.80,11.98,200.00,10.00,0.00,29.87,M,10.00,M,CLR,M,M,M,M,M,M,M,M,M,M,M,M,M,M,101.02,KBVU 162115Z AUTO 20010KT 10SM CLR 41/06 A2987 RMK AO2,M
CXP,2024-07-16 21:15,-119.7326,39.1923,1431.00,91.40,42.80,18.56,240.00,11.00,0.00,30.13,M,10.00,17.00,FEW,M,M,M,11000.00,M,M,M,M,M,M,M,M,M,M,87.52,KCXP 162115Z AUTO 24011G17KT 200V290 10SM FEW110 33/06 A3013 RMK AO2,M
RTS,2024-07-16 21:15,-119.8764,39.6682,1539.00,87.80,41.00,19.40,M,4.00,0.00,30.16,M,10.00,10.00,CLR,M,M,M,M,M,M,M,M,M,M,M,M,M,M,84.30,KRTS 162115Z AUTO VRB04G10KT 10SM CLR 31/05 A3016 RMK AO2,M
MEV,2024-07-16 21:15,-119.7500,38.9963,1441.42,89.60,42.80,19.64,320.00,8.00,0.00,30.13,M,10.00,19.00,CLR,M,M,M,M,M,M,M,M,M,M,M,M,M,M,85.93,KMEV 162115Z AUTO 32008G19KT 260V010 10SM CLR 32/06 A3013 RMK AO2,M
HTH,2024-07-16 21:15,-118.6315,38.5448,1282.89,95.00,37.40,13.46,110.00,5.00,0.00,30.06,M,10.00,M,CLR,M,M,M,M,M,M,M,M,M,M,M,M,M,M,90.46,KHTH 162115Z AUTO 11005KT 10SM CLR 35/03 A3006 RMK A01,M
BAM,2024-07-16 21:15,-116.8743,40.5990,1382.36,91.40,39.20,16.15,360.00,3.00,0.00,30.12,M,10.00,M,CLR,M,M,M,M,M,M,M,M,M,M,M,M,M,M,87.30,KBAM 162115Z AUTO 36003KT 10SM CLR 33/04 A3012 RMK AO1,M
TMT,2024-07-16 21:15,-117.1971,39.4643,1749.34,87.40,39.70,18.68,40.00,7.00,0.00,30.21,M,10.00,M,CLR,M,M,M,M,M,M,M,M,M,M,M,M,M,M,83.91,KTMT 162115Z AUTO 04007KT 10SM CLR 31/04 A3021 RMK AO2 T03080043,M
05U,2024-07-16 21:30,-116.0051,39.6042,1811.23,77.00,44.60,31.62,10.00,15.00,0.00,30.26,M,4.00,31.00,M,M,M,M,M,M,M,M,HZ,M,M,M,M,M,M,77.00,K05U 162130Z AUTO 01015G31KT 4SM HZ 25/07 A3026 RMK A01,M
BVU,2024-07-16 21:35,-114.8611,35.9475,671.00,105.80,42.80,11.98,M,5.00,0.00,29.87,M,10.00,18.00,CLR,M,M,M,M,M,M,M,M,M,M,M,M,M,M,101.02,KBVU 162135Z AUTO VRB05G18KT 10SM CLR 41/06 A2987 RMK AO2,M
CXP,2024-07-16 21:35,-119.7326,39.1923,1431.00,91.40,42.80,18.56,270.00,12.00,0.00,30.13,M,10.00,M,CLR,M,M,M,M,M,M,M,M,M,M,M,M,M,M,87.52,KCXP 162135Z AUTO 27012KT 10SM CLR 33/06 A3013 RMK AO2,M
RTS,2024-07-16 21:35,-119.8764,39.6682,1539.00,86.00,41.00,20.54,290.00,7.00,0.00,30.15,M,10.00,M,FEW,M,M,M,9500.00,M,M,M,M,M,M,M,M,M,M,82.86,KRTS 162135Z AUTO 29007KT 10SM FEW095 30/05 A3015 RMK AO2,M
MEV,2024-07-16 21:35,-119.7500,38.9963,1441.42,91.40,44.60,19.89,300.00,11.00,0.00,30.12,M,10.00,19.00,CLR,M,M,M,M,M,M,M,M,M,M,M,M,M,M,87.68,KMEV 162135Z AUTO 30011G19KT 10SM CLR 33/07 A3012 RMK AO2,M
HTH,2024-07-16 21:35,-118.6315,38.5448,1282.89,95.00,37.40,13.46,M,3.00,0.00,30.05,M,10.00,M,CLR,M,M,M,M,M,M,M,M,M,M,M,M,M,M,90.46,KHTH 162135Z AUTO VRB03KT 10SM CLR 35/03 A3005 RMK A01,M
BAM,2024-07-16 21:35,-116.8743,40.5990,1382.36,93.20,41.00,16.37,330.00,5.00,0.00,30.11,M,10.00,M,CLR,M,M,M,M,M,M,M,M,M,M,M,M,M,M,89.03,KBAM 162135Z AUTO 33005KT 10SM CLR 34/05 A3011 RMK AO1,M
TMT,2024-07-16 21:35,-117.1971,39.4643,1749.34,85.60,39.20,19.40,80.00,4.00,0.00,30.19,M,10.00,M,CLR,M,M,M,M,M,M,M,M,M,M,M,M,M,M,82.48,KTMT 162135Z AUTO 08004KT 10SM CLR 30/04 A3019 RMK AO2 T02980040,M
05U,2024-07-16 21:50,-116.0051,39.6042,1811.23,75.20,39.20,27.26,150.00,7.00,0.00,30.25,M,4.00,16.00,M,M,M,M,M,M,M,M,HZ,M,M,M,M,M,M,75.20,K05U 162150Z AUTO 15007G16KT 120V200 4SM HZ 24/04 A3025 RMK A01,M
P68,2024-07-16 21:53,-116.0056,39.6014,1993.00,80.00,42.00,25.93,360.00,13.00,0.00,30.23,1015.10,M,20.00,M,M,M,M,M,M,M,M,M,M,M,M,39.00,290.00,2024-07-16 21:36,78.92,KP68 162153Z AUTO 36013G20KT 27/06 A3023 RMK AO1 PK WND 29039/2136 SLP151 T02670056,M
DRA,2024-07-16 21:53,-116.0278,36.6206,1009.00,103.00,42.00,12.63,240.00,12.00,0.00,29.95,1008.10,10.00,19.00,CLR,M,M,M,M,M,M,M,M,M,M,M,M,M,M,98.33,KDRA 162153Z AUTO 24012G19KT 10SM CLR 39/06 A2995 RMK AO2 SLP081 T03940056,M
ELY,2024-07-16 21:53,-114.8453,39.2950,1909.00,85.00,38.00,18.87,100.00,5.00,0.00,30.24,1013.40,10.00,14.00,CLR,M,M,M,M,M,M,M,M,M,M,M,27.00,90.00,2024-07-16 21:10,81.99,KELY 162153Z AUTO 10005G14KT 10SM CLR 29/03 A3024 RMK AO2 PK WND 09027/2110 SLP134 T02940033,M
VGT,2024-07-16 21:53,-115.1933,36.2111,667.00,108.00,47.00,13.18,M,M,0.00,29.85,1009.10,10.00,M,CLR,M,M,M,M,M,M,M,M,M,M,M,M,M,M,104.26,KVGT 162153Z 10SM CLR 42/08 A2985 RMK AO2 SLP091 T04220083,M
LOL,2024-07-16 21:53,-118.5701,40.0684,1192.43,97.00,38.00,12.96,220.00,6.00,0.00,30.02,1011.70,10.00,M,CLR,M,M,M,M,M,M,M,M,M,M,M,M,M,M,92.32,KLOL 162153Z AUTO 22006KT 10SM CLR 36/03 A3002 RMK AO2 SLP117 T03610033,M
NFL,2024-07-16 21:54,-118.7010,39.4166,1199.00,98.00,41.00,14.13,M,M,0.00,30.02,1013.60,10.00,M,SCT,BKN,M,M,8000.00,15000.00,M,M,M,M,M,M,M,M,M,93.52,KNFL 162154Z 10SM SCT080 BKN150 37/05 A3002 RMK AO2 SLP136 T03670050,M
BVU,2024-07-16 21:55,-114.8611,35.9475,671.00,105.80,42.80,11.98,220.00,10.00,0.00,29.85,M,10.00,17.00,CLR,M,M,M,M,M,M,M,M,M,M,M,M,M,M,101.02,KBVU 162155Z AUTO 22010G17KT 180V250 10SM CLR 41/06 A2985 RMK AO2,M
CXP,2024-07-16 21:55,-119.7326,39.1923,1431.00,91.40,44.60,19.89,270.00,15.00,0.00,30.13,M,10.00,M,CLR,M,M,M,M,M,M,M,M,M,M,M,M,M,M,87.68,KCXP 162155Z AUTO 27015KT 10SM CLR 33/07 A3013 RMK AO2,M
INS,2024-07-16 21:55,-115.6733,36.5872,955.00,101.50,37.20,10.96,50.00,3.00,0.00,29.94,1007.50,10.00,M,CLR,M,M,M,M,M,M,M,M,M,M,M,M,M,M,95.98,KINS 162155Z AUTO 05003KT 10SM CLR 39/03 A2994 RMK AO2 SLP075 T03860029 $,M
RNO,2024-07-16 21:55,-119.7711,39.4839,1341.00,94.00,41.00,15.97,M,6.00,0.00,30.07,1011.90,10.00,M,SCT,M,M,M,12000.00,M,M,M,M,M,M,M,26.00,310.00,2024-07-16 20:58,89.77,KRNO 162155Z VRB06KT 10SM SCT120TCU 34/05 A3007 RMK AO2 PK WND 31026/2058 SLP119 TCU NW T03440050,M
RTS,2024-07-16 21:55,-119.8764,39.6682,1539.00,86.00,41.00,20.54,230.00,5.00,0.00,30.15,M,10.00,M,SCT,M,M,M,10000.00,M,M,M,M,M,M,M,M,M,M,82.86,KRTS 162155Z AUTO 23005KT 10SM SCT100 30/05 A3015 RMK AO2,M
MEV,2024-07-16 21:55,-119.7500,38.9963,1441.42,91.40,46.40,21.29,280.00,10.00,0.00,30.12,M,10.00,19.00,CLR,M,M,M,M,M,M,M,M,M,M,M,M,M,M,87.86,KMEV 162155Z AUTO 28010G19KT 190V300 10SM CLR 33/08 A3012 RMK AO2,M
HTH,2024-07-16 21:55,-118.6315,38.5448,1282.89,95.00,37.40,13.46,10.00,6.00,0.00,30.04,M,10.00,M,CLR,M,M,M,M,M,M,M,M,M,M,M,M,M,M,90.46,KHTH 162155Z AUTO 01006KT 10SM CLR 35/03 A3004 RMK A01,M
BAM,2024-07-16 21:55,-116.8743,40.5990,1382.36,93.20,41.00,16.37,340.00,5.00,0.00,30.10,M,10.00,M,CLR,M,M,M,M,M,M,M,M,M,M,M,M,M,M,89.03,KBAM 162155Z AUTO 34005KT 10SM CLR 34/05 A3010 RMK AO1,M
TMT,2024-07-16 21:55,-117.1971,39.4643,1749.34,88.00,41.00,19.28,50.00,9.00,0.00,30.18,M,10.00,M,CLR,M,M,M,M,M,M,M,M,M,M,M,M,M,M,84.46,KTMT 162155Z AUTO 05009KT 10SM CLR 31/05 A3018 RMK AO2 T03110050,M
LSV,2024-07-16 21:55,-115.0343,36.2362,570.00,107.80,36.70,8.91,160.00,6.00,0.00,29.80,1005.60,10.00,M,CLR,M,M,M,M,M,M,M,M,M,M,M,M,M,M,101.37,KLSV 162155Z AUTO 16006KT 10SM CLR 42/03 A2980 RMK AO2 SLP056 T04210026 $,M
EKO,2024-07-16 21:56,-115.7860,40.8242,1367.00,93.00,38.00,14.66,210.00,6.00,0.00,30.12,1013.80,10.00,M,CLR,M,M,M,M,M,M,M,M,M,M,M,M,M,M,88.68,KEKO 162156Z AUTO 21006KT 10SM CLR 34/03 A3012 RMK AO2 SLP138 T03390033,M
WMC,2024-07-16 21:56,-117.8072,40.9019,1315.00,94.00,36.00,13.13,150.00,14.00,0.00,30.07,1013.00,10.00,22.00,CLR,M,M,M,M,M,M,M,M,M,M,M,M,M,M,89.49,KWMC 162156Z AUTO 15014G22KT 10SM CLR 34/02 A3007 RMK AO2 SLP130 T03440022,M
HND,2024-07-16 21:56,-115.1344,35.9729,742.79,107.00,48.00,14.09,200.00,11.00,0.00,29.90,1010.20,10.00,18.00,CLR,M,M,M,M,M,M,M,M,M,M,M,M,M,M,103.58,KHND 162156Z 20011G18KT 10SM CLR 42/09 A2990 RMK AO2 SLP102 T04170089,M
TPH,2024-07-16 21:56,-117.0904,38.0505,1654.00,93.00,37.00,14.09,180.00,11.00,0.00,30.13,1010.70,10.00,18.00,CLR,M,M,M,M,M,M,M,M,M,M,M,M,M,M,88.63,KTPH 162156Z AUTO 18011G18KT 10SM CLR 34/03 A3013 RMK AO2 SLP107 T03390028,M
LAS,2024-07-16 21:56,-115.1634,36.0719,663.00,108.00,46.00,12.69,120.00,5.00,0.00,29.95,1007.30,10.00,M,FEW,M,M,M,12000.00,M,M,M,M,M,M,M,M,M,M,103.95,KLAS 162156Z 12005KT 10SM FEW120 42/08 A2995 RMK AO2 SLP073 T04220078 $,M
05U,2024-07-16 22:10,-116.0051,39.6042,1811.23,84.20,41.00,21.76,M,6.00,0.00,30.24,M,10.00,14.00,M,M,M,M,M,M,M,M,M,M,M,M,M,M,M,81.52,K05U 162210Z AUTO VRB06G14KT 10SM 29/05 A3024 RMK A01,M
BVU,2024-07-16 22:15,-114.8611,35.9475,671.00,105.80,41.00,11.18,90.00,5.00,0.00,29.85,M,10.00,14.00,CLR,M,M,M,M,M,M,M,M,M,M,M,M,M,M,100.56,KBVU 162215Z AUTO 09005G14KT 10SM CLR 41/05 A2985 RMK AO2,M
CXP,2024-07-16 22:15,-119.7326,39.1923,1431.00,89.60,46.40,22.53,250.00,9.00,0.00,30.12,M,10.00,18.00,CLR,M,M,M,M,M,M,M,M,M,M,M,M,M,M,86.24,KCXP 162215Z AUTO 25009G18KT 220V280 10SM CLR 32/08 A3012 RMK AO2,M
RTS,2024-07-16 22:15,-119.8764,39.6682,1539.00,89.60,39.20,17.09,270.00,8.00,0.00,30.14,M,10.00,M,FEW,FEW,M,M,10000.00,12000.00,M,M,M,M,M,M,M,M,M,85.73,KRTS 162215Z AUTO 27008KT 240V310 10SM FEW100 FEW120 32/04 A3014 RMK AO2,M
MEV,2024-07-16 22:15,-119.7500,38.9963,1441.42,91.40,48.20,22.78,290.00,17.00,0.00,30.11,M,10.00,23.00,CLR,M,M,M,M,M,M,M,M,M,M,M,M,M,M,88.09,KMEV 162215Z AUTO 29017G23KT 10SM CLR 33/09 A3011 RMK AO2,M
HTH,2024-07-16 22:15,-118.6315,38.5448,1282.89,93.20,39.20,15.27,10.00,6.00,0.00,30.03,M,10.00,12.00,CLR,M,M,M,M,M,M,M,M,M,M,M,M,M,M,88.92,KHTH 162215Z AUTO 01006G12KT 10SM CLR 34/04 A3003 RMK A01,M
BAM,2024-07-16 22:15,-116.8743,40.5990,1382.36,93.20,41.00,16.37,0.00,0.00,0.00,30.09,M,10.00,M,CLR,M,M,M,M,M,M,M,M,M,M,M,M,M,M,89.03,KBAM 162215Z AUTO 00000KT 10SM CLR 34/05 A3009 RMK AO1,M
TMT,2024-07-16 22:15,-117.1971,39.4643,1749.34,87.80,40.00,18.66,60.00,3.00,0.00,30.18,M,10.00,M,CLR,M,M,M,M,M,M,M,M,M,M,M,M,M,M,84.25,KTMT 162215Z AUTO 06003KT 10SM CLR 31/05 A3018 RMK AO2 T03100045,M
DRA,2024-07-16 22:30,-116.0278,36.6206,1009.00,103.00,41.00,12.15,230.00,10.00,0.00,29.94,M,10.00,23.00,CLR,M,M,M,M,M,M,M,M,M,M,M,28.00,210.00,2024-07-16 22:19,98.09,KDRA 162230Z AUTO 23010G23KT 10SM CLR 39/05 A2994 RMK AO2 PK WND 21028/2219 WSHFT 2213 T03940050,M
05U,2024-07-16 22:30,-116.0051,39.6042,1811.23,86.00,39.20,19.15,330.00,8.00,0.00,30.23,M,10.00,13.00,M,M,M,M,M,M,M,M,M,M,M,M,M,M,M,82.79,K05U 162230Z AUTO 33008G13KT 10SM 30/04 A3023 RMK A01,M
BVU,2024-07-16 22:35,-114.8611,35.9475,671.00,107.60,41.00,10.60,160.00,9.00,0.00,29.84,M,10.00,15.00,CLR,M,M,M,M,M,M,M,M,M,M,M,M,M,M,102.16,KBVU 162235Z AUTO 16009G15KT 140V200 10SM CLR 42/05 A2984 RMK AO2,M
CXP,2024-07-16 22:35,-119.7326,39.1923,1431.00,89.60,46.40,22.53,270.00,15.00,0.00,30.12,M,10.00,22.00,CLR,M,M,M,M,M,M,M,M,M,M,M,M,M,M,86.24,KCXP 162235Z AUTO 27015G22KT 10SM CLR 32/08 A3012 RMK AO2,M
RTS,2024-07-16 22:35,-119.8764,39.6682,1539.00,91.40,39.20,16.15,220.00,8.00,0.00,30.14,M,10.00,18.00,FEW,M,M,M,10000.00,M,M,M,M,M,M,M,M,M,M,87.30,KRTS 162235Z AUTO 22008G18KT 10SM FEW100 33/04 A3014 RMK AO2,M
MEV,2024-07-16 22:35,-119.7500,38.9963,1441.42,87.80,46.40,23.85,300.00,14.00,0.00,30.11,M,10.00,21.00,CLR,M,M,M,M,M,M,M,M,M,M,M,M,M,M,84.68,KMEV 162235Z AUTO 30014G21KT 10SM CLR 31/08 A3011 RMK AO2,M
HTH,2024-07-16 22:35,-118.6315,38.5448,1282.89,96.80,37.40,12.73,290.00,6.00,0.00,30.03,M,10.00,M,CLR,M,M,M,M,M,M,M,M,M,M,M,M,M,M,92.04,KHTH 162235Z AUTO 29006KT 10SM CLR 36/03 A3003 RMK A01,M
BAM,2024-07-16 22:35,-116.8743,40.5990,1382.36,95.00,42.80,16.60,10.00,8.00,0.00,30.08,M,10.00,M,CLR,M,M,M,M,M,M,M,M,M,M,M,M,M,M,90.86,KBAM 162235Z AUTO 01008KT 10SM CLR 35/06 A3008 RMK AO1,M
TMT,2024-07-16 22:35,-117.1971,39.4643,1749.34,88.50,39.40,17.83,10.00,7.00,0.00,30.16,M,10.00,M,CLR,M,M,M,M,M,M,M,M,M,M,M,M,M,M,84.81,KTMT 162235Z AUTO 01007KT 10SM CLR 31/04 A3016 RMK AO2 T03140041,M
CXP,2024-07-16 22:50,-119.7326,39.1923,1431.00,89.60,44.60,21.04,280.00,11.00,0.00,30.12,M,10.00,16.00,CLR,M,M,M,M,M,M,M,M,M,M,M,M,M,M,86.07,KCXP 162250Z AUTO 28011G16KT 10SM CLR 32/07 A3012 RMK AO2,M
P68,2024-07-16 22:53,-116.0056,39.6014,1993.00,86.00,38.00,18.28,160.00,7.00,0.00,30.18,1013.80,M,M,M,M,M,M,M,M,M,M,M,M,M,M,M,M,M,82.75,KP68 162253Z AUTO 16007KT 30/03 A3018 RMK AO1 SLP138 T03000033,M
DRA,2024-07-16 22:53,-116.0278,36.6206,1009.00,104.00,41.00,11.79,250.00,10.00,0.00,29.94,1007.50,10.00,22.00,CLR,M,M,M,M,M,M,M,M,M,M,M,28.00,210.00,2024-07-16 22:19,98.97,KDRA 162253Z AUTO 25010G22KT 10SM CLR 40/05 A2994 RMK AO2 PK WND 21028/2219 WSHFT 2213 SLP075 T04000050,M
ELY,2024-07-16 22:53,-114.8453,39.2950,1909.00,87.00,39.00,18.41,100.00,4.00,0.00,30.22,1012.80,10.00,M,CLR,M,M,M,M,M,M,M,M,M,M,M,M,M,M,83.57,KELY 162253Z AUTO 10004KT 10SM CLR 31/04 A3022 RMK AO2 SLP128 T03060039,M
VGT,2024-07-16 22:53,-115.1933,36.2111,667.00,108.00,46.00,12.69,200.00,6.00,0.00,29.83,1008.30,10.00,18.00,CLR,M,M,M,M,M,M,M,M,M,M,M,M,M,M,103.95,KVGT 162253Z 20006G18KT 10SM CLR 42/08 A2983 RMK AO2 SLP083 T04220078,M
LOL,2024-07-16 22:53,-118.5701,40.0684,1192.43,97.00,39.00,13.48,M,3.00,0.00,29.99,1010.90,10.00,M,CLR,M,M,M,M,M,M,M,M,M,M,M,M,M,M,92.40,KLOL 162253Z AUTO VRB03KT 10SM CLR 36/04 A2999 RMK AO2 SLP109 T03610039,M
NFL,2024-07-16 22:54,-118.7010,39.4166,1199.00,98.00,41.00,14.13,270.00,9.00,0.00,29.99,1012.80,10.00,M,SCT,BKN,M,M,8000.00,15000.00,M,M,M,M,M,M,M,M,M,93.52,KNFL 162254Z 27009KT 10SM SCT080 BKN150 37/05 A2999 RMK AO2 SLP128 T03670050,M
BVU,2024-07-16 22:55,-114.8611,35.9475,671.00,105.80,42.80,11.98,M,4.00,0.00,29.83,M,10.00,10.00,CLR,M,M,M,M,M,M,M,M,M,M,M,M,M,M,101.02,KBVU 162255Z AUTO VRB04G10KT 10SM CLR 41/06 A2983 RMK AO2,M
RNO,2024-07-16 22:55,-119.7711,39.4839,1341.00,95.00,46.00,18.76,290.00,15.00,0.00,30.05,1011.10,10.00,24.00,FEW,M,M,M,12000.00,M,M,M,M,M,M,M,M,M,M,91.23,KRNO 162255Z 29015G24KT 10SM FEW120 35/08 A3005 RMK AO2 SLP111 T03500078,M
RTS,2024-07-16 22:55,-119.8764,39.6682,1539.00,89.60,42.80,19.64,290.00,8.00,0.00,30.13,M,10.00,17.00,FEW,M,M,M,10000.00,M,M,M,M,M,M,M,M,M,M,85.93,KRTS 162255Z AUTO 29008G17KT 10SM FEW100 32/06 A3013 RMK AO2,M
05U,2024-07-16 22:55,-116.0051,39.6042,1811.23,87.80,37.40,16.86,0.00,0.00,0.00,30.21,M,10.00,11.00,M,M,M,M,M,M,M,M,M,M,M,M,M,M,M,84.16,K05U 162255Z AUTO 00000G11KT 10SM 31/03 A3021 RMK A01,M
MEV,2024-07-16 22:55,-119.7500,38.9963,1441.42,87.80,46.40,23.85,280.00,16.00,0.00,30.10,M,10.00,M,SCT,M,M,M,10000.00,M,M,M,M,M,M,M,M,M,M,84.68,KMEV 162255Z AUTO 28016KT 10SM SCT100 31/08 A3010 RMK AO2,M
HTH,2024-07-16 22:55,-118.6315,38.5448,1282.89,95.00,39.20,14.44,340.00,11.00,0.00,30.02,M,10.00,17.00,CLR,M,M,M,M,M,M,M,M,M,M,M,M,M,M,90.57,KHTH 162255Z AUTO 34011G17KT 10SM CLR 35/04 A3002 RMK A01,M
BAM,2024-07-16 22:55,-116.8743,40.5990,1382.36,95.00,39.20,14.44,360.00,7.00,0.00,30.08,M,10.00,M,CLR,M,M,M,M,M,M,M,M,M,M,M,M,M,M,90.57,KBAM 162255Z AUTO 36007KT 10SM CLR 35/04 A3008 RMK AO1,M
TMT,2024-07-16 22:55,-117.1971,39.4643,1749.34,89.00,38.30,16.81,330.00,5.00,0.00,30.16,M,10.00,M,CLR,M,M,M,M,M,M,M,M,M,M,M,M,M,M,85.19,KTMT 162255Z AUTO 33005KT 10SM CLR 32/04 A3016 RMK AO2 T03160035,M
INS,2024-07-16 22:55,-115.6733,36.5872,955.00,101.70,37.20,10.89,290.00,5.00,0.00,29.91,1006.60,10.00,M,FEW,SCT,M,M,13000.00,16000.00,M,M,M,M,M,M,M,M,M,96.16,KINS 162255Z AUTO 29005KT 10SM FEW130 SCT160 39/03 A2991 RMK AO2 SLP066 T03870029 $,M
LSV,2024-07-16 22:55,-115.0343,36.2362,570.00,109.20,35.00,8.00,130.00,3.00,0.00,29.77,1004.60,10.00,M,CLR,M,M,M,M,M,M,M,M,M,M,M,M,M,M,102.28,KLSV 162255Z AUTO 13003KT 10SM CLR 43/02 A2977 RMK AO2 SLP046 T04290016 $,M
EKO,2024-07-16 22:56,-115.7860,40.8242,1367.00,93.00,36.00,13.55,360.00,7.00,0.00,30.10,1013.00,10.00,15.00,CLR,M,M,M,M,M,M,M,M,M,M,M,M,M,M,88.59,KEKO 162256Z AUTO 36007G15KT 10SM CLR 34/02 A3010 RMK AO2 SLP130 T03390022,M
WMC,2024-07-16 22:56,-117.8072,40.9019,1315.00,96.00,36.00,12.35,360.00,7.00,0.00,30.05,1012.30,10.00,19.00,CLR,M,M,M,M,M,M,M,M,M,M,M,30.00,310.00,2024-07-16 22:26,91.13,KWMC 162256Z AUTO 36007G19KT 320V030 10SM CLR 36/02 A3005 RMK AO2 PK WND 31030/2226 LTG DSNT N SLP123 T03560022,M
HND,2024-07-16 22:56,-115.1344,35.9729,742.79,107.00,48.00,14.09,M,5.00,0.00,29.89,1009.80,10.00,M,CLR,M,M,M,M,M,M,M,M,M,M,M,M,M,M,103.58,KHND 162256Z VRB05KT 10SM CLR 42/09 A2989 RMK AO2 SLP098 T04170089,M
TPH,2024-07-16 22:56,-117.0904,38.0505,1654.00,93.00,35.00,13.02,M,5.00,0.00,30.11,1010.20,10.00,16.00,CLR,M,M,M,M,M,M,M,M,M,M,M,M,M,M,88.56,KTPH 162256Z AUTO VRB05G16KT 10SM CLR 34/02 A3011 RMK AO2 SLP102 T03390017,M
LAS,2024-07-16 22:56,-115.1634,36.0719,663.00,108.00,45.00,12.22,M,3.00,0.00,29.84,1003.60,10.00,M,FEW,SCT,M,M,12000.00,18000.00,M,M,M,M,M,M,M,M,M,103.63,KLAS 162256Z VRB03KT 10SM FEW120 SCT180 42/07 A2984 RMK AO2 PRESFR SLP036 T04220072 $,M
05U,2024-07-16 23:05,-116.0051,39.6042,1811.23,87.80,37.40,16.86,0.00,0.00,0.00,30.21,M,10.00,M,M,M,M,M,M,M,M,M,M,M,M,M,M,M,M,84.16,K05U 162305Z AUTO 00000KT 10SM 31/03 A3021 RMK A01,M
BVU,2024-07-16 23:15,-114.8611,35.9475,671.00,107.60,41.00,10.60,M,6.00,0.00,29.82,M,10.00,14.00,CLR,M,M,M,M,M,M,M,M,M,M,M,M,M,M,102.16,KBVU 162315Z AUTO VRB06G14KT 10SM CLR 42/05 A2982 RMK AO2,M
CXP,2024-07-16 23:15,-119.7326,39.1923,1431.00,89.60,44.60,21.04,270.00,12.00,0.00,30.11,M,10.00,19.00,CLR,M,M,M,M,M,M,M,M,M,M,M,M,M,M,86.07,KCXP 162315Z AUTO 27012G19KT 250V310 10SM CLR 32/07 A3011 RMK AO2,M
RTS,2024-07-16 23:15,-119.8764,39.6682,1539.00,89.60,41.00,18.33,240.00,11.00,0.00,30.13,M,10.00,M,FEW,M,M,M,10000.00,M,M,M,M,M,M,M,M,M,M,85.82,KRTS 162315Z AUTO 24011KT 10SM FEW100 32/05 A3013 RMK AO2,M
MEV,2024-07-16 23:15,-119.7500,38.9963,1441.42,87.80,46.40,23.85,300.00,14.00,0.00,30.10,M,10.00,21.00,SCT,SCT,M,M,9500.00,11000.00,M,M,M,M,M,M,M,M,M,84.68,KMEV 162315Z AUTO 30014G21KT 10SM SCT095 SCT110 31/08 A3010 RMK AO2,M
BAM,2024-07-16 23:15,-116.8743,40.5990,1382.36,95.00,41.00,15.49,20.00,7.00,0.00,30.07,M,10.00,M,CLR,M,M,M,M,M,M,M,M,M,M,M,M,M,M,90.70,KBAM 162315Z AUTO 02007KT 10SM CLR 35/05 A3007 RMK AO1,M
HTH,2024-07-16 23:15,-118.6315,38.5448,1282.89,93.20,39.20,15.27,340.00,9.00,0.00,30.01,M,10.00,M,CLR,M,M,M,M,M,M,M,M,M,M,M,M,M,M,88.92,KHTH 162315Z AUTO 34009KT 10SM CLR 34/04 A3001 RMK A01,M
TMT,2024-07-16 23:15,-117.1971,39.4643,1749.34,90.00,39.00,16.74,50.00,6.00,0.00,30.16,M,10.00,M,SCT,M,M,M,12000.00,M,M,M,M,M,M,M,M,M,M,86.07,KTMT 162315Z AUTO 05006KT 10SM SCT120 32/04 A3016 RMK AO2 T03220038,M
05U,2024-07-16 23:30,-116.0051,39.6042,1811.23,89.60,35.60,14.83,0.00,0.00,0.00,30.20,M,10.00,M,M,M,M,M,M,M,M,M,M,M,M,M,M,M,M,85.62,K05U 162330Z AUTO 00000KT 10SM 32/02 A3020 RMK A01,M
BVU,2024-07-16 23:35,-114.8611,35.9475,671.00,107.60,41.00,10.60,240.00,8.00,0.00,29.82,M,10.00,15.00,CLR,M,M,M,M,M,M,M,M,M,M,M,M,M,M,102.16,KBVU 162335Z AUTO 24008G15KT 10SM CLR 42/05 A2982 RMK AO2,M
CXP,2024-07-16 23:35,-119.7326,39.1923,1431.00,89.60,44.60,21.04,270.00,13.00,0.00,30.11,M,10.00,20.00,CLR,M,M,M,M,M,M,M,M,M,M,M,M,M,M,86.07,KCXP 162335Z AUTO 27013G20KT 10SM CLR 32/07 A3011 RMK AO2,M
RTS,2024-07-16 23:35,-119.8764,39.6682,1539.00,89.60,42.80,19.64,230.00,14.00,0.00,30.12,M,10.00,19.00,FEW,M,M,M,10000.00,M,M,M,M,M,M,M,M,M,M,85.93,KRTS 162335Z AUTO 23014G19KT 10SM FEW100 32/06 A3012 RMK AO2,M
MEV,2024-07-16 23:35,-119.7500,38.9963,1441.42,87.80,44.60,22.27,280.00,15.00,0.00,30.10,M,10.00,26.00,SCT,M,M,M,9500.00,M,M,M,M,M,M,M,M,M,M,84.53,KMEV 162335Z AUTO 28015G26KT 10SM SCT095 31/07 A3010 RMK AO2,M
HTH,2024-07-16 23:35,-118.6315,38.5448,1282.89,95.00,37.40,13.46,0.00,0.00,0.00,30.00,M,10.00,11.00,CLR,M,M,M,M,M,M,M,M,M,M,M,M,M,M,90.46,KHTH 162335Z AUTO 00000G11KT 10SM CLR 35/03 A3000 RMK A01,M
BAM,2024-07-16 23:35,-116.8743,40.5990,1382.36,91.40,41.00,17.32,10.00,5.00,0.00,30.07,M,10.00,M,CLR,M,M,M,M,M,M,M,M,M,M,M,M,M,M,87.40,KBAM 162335Z AUTO 01005KT 10SM CLR 33/05 A3007 RMK AO1,M
TMT,2024-07-16 23:35,-117.1971,39.4643,1749.34,88.00,38.50,17.49,110.00,4.00,0.00,30.15,M,10.00,M,SCT,M,M,M,12000.00,M,M,M,M,M,M,M,M,M,M,84.36,KTMT 162335Z AUTO 11004KT 10SM SCT120 31/04 A3015 RMK AO2 T03120036,M
P68,2024-07-16 23:53,-116.0056,39.6014,1993.00,86.00,36.00,16.89,90.00,4.00,0.00,30.16,1012.60,M,M,M,M,M,M,M,M,M,M,M,M,M,M,M,M,M,82.70,KP68 162353Z AUTO 09004KT 30/02 A3016 RMK AO1 SLP126 T03000022 10328 20244 58012,M
DRA,2024-07-16 23:53,-116.0278,36.6206,1009.00,104.00,40.00,11.35,230.00,15.00,0.00,29.92,1006.80,10.00,21.00,CLR,M,M,M,M,M,M,M,M,M,M,M,M,M,M,98.73,KDRA 162353Z AUTO 23015G21KT 10SM CLR 40/04 A2992 RMK AO2 SLP068 T04000044 10406 20350 56019,M
ELY,2024-07-16 23:53,-114.8453,39.2950,1909.00,88.00,39.00,17.83,20.00,8.00,0.00,30.20,1012.40,10.00,M,CLR,M,M,M,M,M,M,M,M,M,M,M,M,M,M,84.38,KELY 162353Z AUTO 02008KT 10SM CLR 31/04 A3020 RMK AO2 SLP124 60000 T03110039 10317 20239 56019,M
VGT,2024-07-16 23:53,-115.1933,36.2111,667.00,108.00,46.00,12.69,M,M,0.00,29.81,1007.60,10.00,M,CLR,M,M,M,M,M,M,M,M,M,M,M,M,M,M,103.95,KVGT 162353Z 10SM CLR 42/08 A2981 RMK AO2 SLP076 T04220078 10433 20372 56024,M
LOL,2024-07-16 23:53,-118.5701,40.0684,1192.43,98.00,39.00,13.07,210.00,10.00,0.00,29.97,1010.40,10.00,16.00,CLR,M,M,M,M,M,M,M,M,M,M,M,M,M,M,93.33,KLOL 162353Z AUTO 21010G16KT 10SM CLR 37/04 A2997 RMK AO2 SLP104 T03670039 10372 20311 56022,M
NFL,2024-07-16 23:54,-118.7010,39.4166,1199.00,98.00,40.00,13.59,280.00,6.00,0.00,29.97,1012.20,10.00,M,SCT,SCT,M,M,8000.00,15000.00,M,M,M,M,M,M,M,M,M,93.42,KNFL 162354Z 28006KT 10SM SCT080 SCT150 37/04 A2997 RMK AO2 SLP122 T03670044 10378 20311 56022,M
BVU,2024-07-16 23:55,-114.8611,35.9475,671.00,105.80,41.00,11.18,0.00,0.00,0.00,29.81,M,10.00,M,CLR,M,M,M,M,M,M,M,M,M,M,M,M,M,M,100.56,KBVU 162355Z AUTO 00000KT 10SM CLR 41/05 A2981 RMK AO2,M
CXP,2024-07-16 23:55,-119.7326,39.1923,1431.00,89.60,42.80,19.64,270.00,12.00,0.00,30.11,M,10.00,22.00,CLR,M,M,M,M,M,M,M,M,M,M,M,M,M,M,85.93,KCXP 162355Z AUTO 27012G22KT 10SM CLR 32/06 A3011 RMK AO2,M
RNO,2024-07-16 23:55,-119.7711,39.4839,1341.00,93.00,45.00,19.21,290.00,18.00,0.00,30.04,1011.00,10.00,34.00,FEW,M,M,M,12000.00,M,M,M,M,M,M,M,34.00,270.00,2024-07-16 23:51,89.20,KRNO 162355Z 29018G34KT 10SM FEW120 34/07 A3004 RMK AO2 PK WND 27034/2351 SLP110 T03390072 10356 20294 56015,M
RTS,2024-07-16 23:55,-119.8764,39.6682,1539.00,89.60,42.80,19.64,220.00,15.00,0.00,30.12,M,10.00,23.00,CLR,M,M,M,M,M,M,M,M,M,M,M,M,M,M,85.93,KRTS 162355Z AUTO 22015G23KT 10SM CLR 32/06 A3012 RMK AO2,M
05U,2024-07-16 23:55,-116.0051,39.6042,1811.23,87.80,35.60,15.70,0.00,0.00,0.00,30.18,M,10.00,M,M,M,M,M,M,M,M,M,M,M,M,M,M,M,M,84.12,K05U 162355Z AUTO 00000KT 10SM 31/02 A3018 RMK A01,M
MEV,2024-07-16 23:55,-119.7500,38.9963,1441.42,89.60,44.60,21.04,290.00,14.00,0.00,30.09,M,10.00,26.00,FEW,FEW,M,M,9500.00,12000.00,M,M,M,M,M,M,M,M,M,86.07,KMEV 162355Z AUTO 29014G26KT 10SM FEW095 FEW120 32/07 A3009 RMK AO2,M
HTH,2024-07-16 23:55,-118.6315,38.5448,1282.89,95.00,39.20,14.44,310.00,9.00,0.00,30.00,M,10.00,M,CLR,M,M,M,M,M,M,M,M,M,M,M,M,M,M,90.57,KHTH 162355Z AUTO 31009KT 10SM CLR 35/04 A3000 RMK A01,M
BAM,2024-07-16 23:55,-116.8743,40.5990,1382.36,91.40,41.00,17.32,320.00,3.00,0.00,30.07,M,10.00,M,CLR,M,M,M,M,M,M,M,M,M,M,M,M,M,M,87.40,KBAM 162355Z AUTO 32003KT 10SM CLR 33/05 A3007 RMK AO1,M
TMT,2024-07-16 23:55,-117.1971,39.4643,1749.34,86.40,39.70,19.28,40.00,9.00,0.00,30.16,M,10.00,M,SCT,M,M,M,12000.00,M,M,M,M,M,M,M,M,M,M,83.12,KTMT 162355Z AUTO 04009KT 020V090 10SM SCT120 30/04 A3016 RMK AO2 T03020043 10325 20283,M
INS,2024-07-16 23:55,-115.6733,36.5872,955.00,101.30,39.20,11.92,150.00,5.00,0.00,29.89,1005.80,10.00,M,SCT,BKN,M,M,13000.00,17000.00,M,M,M,M,M,M,M,M,M,96.21,KINS 162355Z AUTO 15005KT 10SM SCT130 BKN170 39/04 A2989 RMK AO2 SLP058 T03850040 10398 20355 57021 $,M
LSV,2024-07-16 23:55,-115.0343,36.2362,570.00,108.00,37.00,8.96,190.00,3.00,0.00,29.75,1004.10,10.00,M,CLR,M,M,M,M,M,M,M,M,M,M,M,M,M,M,101.61,KLSV 162355Z AUTO 19003KT 10SM CLR 42/03 A2975 RMK AO2 SLP041 T04230028 10431 20379 57025 $,M
EKO,2024-07-16 23:56,-115.7860,40.8242,1367.00,92.00,35.00,13.43,110.00,3.00,0.00,30.09,1012.60,10.00,M,CLR,M,M,M,M,M,M,M,M,M,M,M,M,M,M,87.68,KEKO 162356Z AUTO 11003KT 10SM CLR 33/02 A3009 RMK AO2 SLP126 T03330017 10350 20289 56017,M
WMC,2024-07-16 23:56,-117.8072,40.9019,1315.00,97.00,36.00,11.98,340.00,8.00,0.00,30.03,1011.50,10.00,M,CLR,M,M,M,M,M,M,M,M,M,M,M,M,M,M,91.96,KWMC 162356Z AUTO 34008KT 10SM CLR 36/02 A3003 RMK AO2 SLP115 T03610022 10367 20322 58016,M
HND,2024-07-16 23:56,-115.1344,35.9729,742.79,106.00,48.00,14.51,160.00,8.00,0.00,29.86,1009.10,10.00,M,CLR,M,M,M,M,M,M,M,M,M,M,M,M,M,M,102.59,KHND 162356Z 16008KT 10SM CLR 41/09 A2986 RMK AO2 SLP091 T04110089 10422 20378 56021,M
TPH,2024-07-16 23:56,-117.0904,38.0505,1654.00,94.00,34.00,12.13,180.00,10.00,0.00,30.09,1009.50,10.00,M,FEW,M,M,M,12000.00,M,M,M,M,M,M,M,M,M,M,89.21,KTPH 162356Z AUTO 18010KT 10SM FEW120 34/01 A3009 RMK AO2 SLP095 T03440011 10356 20306 56018,M
LAS,2024-07-16 23:56,-115.1634,36.0719,663.00,109.00,45.00,11.87,70.00,3.00,0.00,29.84,1003.60,10.00,M,FEW,SCT,M,M,12000.00,18000.00,M,M,M,M,M,M,M,M,M,104.54,KLAS 162356Z 07003KT 10SM FEW120 SCT180 43/07 A2984 RMK AO2 SLP036 T04280072 10433 20383 57035 $,M
