station,valid,lon,lat,elevation,tmpf,dwpf,relh,drct,sknt,p01i,alti,mslp,vsby,gust,skyc1,skyc2,skyc3,skyc4,skyl1,skyl2,skyl3,skyl4,wxcodes,ice_accretion_1hr,ice_accretion_3hr,ice_accretion_6hr,peak_wind_gust,peak_wind_drct,peak_wind_time,feel,metar,snowdepth
LAS,2024-06-23 00:05,-115.1634,36.0719,663.00,109.00,40.00,9.79,200.00,7.00,0.00,29.80,M,10.00,16.00,FEW,M,M,M,14000.00,M,M,M,M,M,M,M,M,M,M,103.16,KLAS 230005Z 20007G16KT 150V220 10SM FEW140 43/04 A2980 RMK AO2 T04280044,M
BVU,2024-06-23 00:15,-114.8611,35.9475,671.00,107.60,37.40,9.21,170.00,17.00,0.00,29.78,M,10.00,M,CLR,M,M,M,M,M,M,M,M,M,M,M,M,M,M,101.34,KBVU 230015Z AUTO 17017KT 10SM CLR 42/03 A2978 RMK AO2,M
CXP,2024-06-23 00:15,-119.7326,39.1923,1431.00,91.40,35.60,14.02,280.00,14.00,0.00,30.00,M,10.00,25.00,CLR,M,M,M,M,M,M,M,M,M,M,M,M,M,M,87.17,KCXP 230015Z AUTO 28014G25KT 10SM CLR 33/02 A3000 RMK AO2,M
RTS,2024-06-23 00:15,-119.8764,39.6682,1539.00,91.40,28.40,10.48,260.00,14.00,0.00,30.04,M,10.00,20.00,CLR,M,M,M,M,M,M,M,M,M,M,M,M,M,M,86.53,KRTS 230015Z AUTO 26014G20KT 10SM CLR 33/M02 A3004 RMK AO2,M
MEV,2024-06-23 00:15,-119.7500,38.9963,1441.42,93.20,42.80,17.55,280.00,17.00,0.00,29.98,M,10.00,22.00,CLR,M,M,M,M,M,M,M,M,M,M,M,M,M,M,89.17,KMEV 230015Z AUTO 28017G22KT 10SM CLR 34/06 A2998 RMK AO2,M
HTH,2024-06-23 00:15,-118.6315,38.5448,1282.89,100.40,17.60,5.05,M,6.00,0.00,29.89,M,10.00,M,CLR,M,M,M,M,M,M,M,M,M,M,M,M,M,M,92.87,KHTH 230015Z AUTO VRB06KT 10SM CLR 38/M08 A2989 RMK A01,M
10U,2024-06-23 00:15,-116.1876,41.9532,1637.00,91.40,24.80,9.04,250.00,7.00,0.00,30.02,M,10.00,14.00,CLR,M,M,M,M,M,M,M,M,M,M,M,M,M,M,86.21,K10U 230015Z AUTO 25007G14KT 10SM CLR 33/M04 A3002 RMK AO2,M
BAM,2024-06-23 00:15,-116.8743,40.5990,1382.36,98.60,28.40,8.40,270.00,5.00,0.00,29.95,M,10.00,M,CLR,M,M,M,M,M,M,M,M,M,M,M,M,M,M,92.25,KBAM 230015Z AUTO 27005KT 10SM CLR 37/M02 A2995 RMK AO1,M
TMT,2024-06-23 00:15,-117.1971,39.4643,1749.34,93.00,25.00,8.67,230.00,8.00,0.00,30.05,M,10.00,M,CLR,M,M,M,M,M,M,M,M,M,M,M,M,M,M,87.43,KTMT 230015Z AUTO 23008KT 10SM CLR 34/M04 A3005 RMK AO2 T03391039,M
INS,2024-06-23 00:24,-115.6733,36.5872,955.00,M,M,M,200.00,17.00,0.00,M,M,10.00,26.00,M,M,M,M,M,M,M,M,M,M,M,M,M,M,M,M,KINS 230024Z AUTO 20017G26KT 10SM M M M RMK AO2 WSHFT 17 SLPNO RVRNO TSNO $,M
INS,2024-06-23 00:30,-115.6733,36.5872,955.00,M,M,M,250.00,18.00,0.00,M,M,10.00,28.00,M,M,M,M,M,M,M,M,M,M,M,M,M,M,M,M,KINS 230030Z AUTO 25018G28KT 10SM M M M RMK AO2 WSHFT 24 SLPNO RVRNO TSNO $,M
BVU,2024-06-23 00:35,-114.8611,35.9475,671.00,107.60,39.20,9.89,180.00,10.00,0.00,29.78,M,10.00,18.00,CLR,M,M,M,M,M,M,M,M,M,M,M,M,M,M,101.73,KBVU 230035Z AUTO 18010G18KT 10SM CLR 42/04 A2978 RMK AO2,M
CXP,2024-06-23 00:35,-119.7326,39.1923,1431.00,91.40,37.40,15.05,260.00,15.00,0.00,30.00,M,10.00,20.00,CLR,M,M,M,M,M,M,M,M,M,M,M,M,M,M,87.23,KCXP 230035Z AUTO 26015G20KT 10SM CLR 33/03 A3000 RMK AO2,M
RTS,2024-06-23 00:35,-119.8764,39.6682,1539.00,91.40,26.60,9.74,260.00,14.00,0.00,30.04,M,10.00,22.00,CLR,M,M,M,M,M,M,M,M,M,M,M,M,M,M,86.36,KRTS 230035Z AUTO 26014G22KT 10SM CLR 33/M03 A3004 RMK AO2,M
10U,2024-06-23 00:35,-116.1876,41.9532,1637.00,91.40,26.60,9.74,250.00,10.00,0.00,30.01,M,10.00,17.00,CLR,M,M,M,M,M,M,M,M,M,M,M,M,M,M,86.36,K10U 230035Z AUTO 25010G17KT 10SM CLR 33/M03 A3001 RMK AO2,M
BAM,2024-06-23 00:35,-116.8743,40.5990,1382.36,98.60,28.40,8.40,260.00,7.00,0.00,29.94,M,10.00,M,CLR,M,M,M,M,M,M,M,M,M,M,M,M,M,M,92.25,KBAM 230035Z AUTO 26007KT 10SM CLR 37/M02 A2994 RMK AO1,M
TMT,2024-06-23 00:35,-117.1971,39.4643,1749.34,92.30,24.40,8.64,230.00,8.00,0.00,30.05,M,10.00,M,CLR,M,M,M,M,M,M,M,M,M,M,M,M,M,M,86.86,KTMT 230035Z AUTO 23008KT 210V280 10SM CLR 34/M04 A3005 RMK AO2 T03351042,M
P68,2024-06-23 00:53,-116.0056,39.6014,1993.00,93.00,21.00,7.33,170.00,11.00,0.00,30.04,1008.00,M,M,M,M,M,M,M,M,M,M,M,M,M,M,M,M,M,87.13,KP68 230053Z AUTO 17011KT 34/M06 A3004 RMK AO1 SLP080 T03391061,M
DRA,2024-06-23 00:53,-116.0278,36.6206,1009.00,102.00,34.00,9.51,210.00,15.00,0.00,29.89,1006.70,10.00,24.00,CLR,M,M,M,M,M,M,M,M,M,M,M,26.00,210.00,2024-06-22 23:54,95.87,KDRA 230053Z AUTO 21015G24KT 10SM CLR 39/01 A2989 RMK AO2 PK WND 21026/2354 SLP067 T03890011,M
ELY,2024-06-23 00:53,-114.8453,39.2950,1909.00,89.00,21.00,8.30,M,6.00,0.00,30.12,1009.60,10.00,M,CLR,M,M,M,M,M,M,M,M,M,M,M,M,M,M,84.19,KELY 230053Z AUTO VRB06KT 10SM CLR 32/M06 A3012 RMK AO2 SLP096 T03171061,M
VGT,2024-06-23 00:53,-115.1933,36.2111,667.00,108.00,43.00,11.32,190.00,12.00,0.00,29.77,1006.50,10.00,17.00,CLR,M,M,M,M,M,M,M,M,M,M,M,M,M,M,103.04,KVGT 230053Z 19012G17KT 10SM CLR 42/06 A2977 RMK AO2 SLP065 T04220061,M
LOL,2024-06-23 00:53,-118.5701,40.0684,1192.43,99.00,28.00,8.16,220.00,8.00,0.00,29.87,1007.30,10.00,M,CLR,M,M,M,M,M,M,M,M,M,M,M,M,M,M,92.54,KLOL 230053Z AUTO 22008KT 10SM CLR 37/M02 A2987 RMK AO2 SLP073 T03721022,M
BVU,2024-06-23 00:55,-114.8611,35.9475,671.00,107.60,39.20,9.89,160.00,15.00,0.00,29.78,M,10.00,20.00,CLR,M,M,M,M,M,M,M,M,M,M,M,M,M,M,101.73,KBVU 230055Z AUTO 16015G20KT 10SM CLR 42/04 A2978 RMK AO2,M
CXP,2024-06-23 00:55,-119.7326,39.1923,1431.00,91.40,37.40,15.05,260.00,12.00,0.00,30.00,M,10.00,24.00,CLR,M,M,M,M,M,M,M,M,M,M,M,M,M,M,87.23,KCXP 230055Z AUTO 26012G24KT 10SM CLR 33/03 A3000 RMK AO2,M
RNO,2024-06-23 00:55,-119.7711,39.4839,1341.00,96.00,55.00,25.40,280.00,18.00,0.00,29.95,1007.70,10.00,29.00,FEW,M,M,M,10000.00,M,M,M,M,M,M,M,36.00,300.00,2024-06-23 00:34,94.16,KRNO 230055Z 28018G29KT 10SM FEW100 36/13 A2995 RMK AO2 PK WND 30036/0034 SLP077 T03560128,M
RTS,2024-06-23 00:55,-119.8764,39.6682,1539.00,89.60,26.60,10.30,270.00,17.00,0.00,30.04,M,10.00,24.00,CLR,M,M,M,M,M,M,M,M,M,M,M,M,M,M,85.02,KRTS 230055Z AUTO 27017G24KT 10SM CLR 32/M03 A3004 RMK AO2,M
MEV,2024-06-23 00:55,-119.7500,38.9963,1441.42,91.40,42.80,18.56,270.00,17.00,0.00,29.98,M,10.00,23.00,CLR,M,M,M,M,M,M,M,M,M,M,M,M,M,M,87.52,KMEV 230055Z AUTO 27017G23KT 10SM CLR 33/06 A2998 RMK AO2,M
HTH,2024-06-23 00:55,-118.6315,38.5448,1282.89,100.40,15.80,4.67,330.00,7.00,0.00,29.89,M,10.00,13.00,CLR,M,M,M,M,M,M,M,M,M,M,M,M,M,M,92.76,KHTH 230055Z AUTO 33007G13KT 280V350 10SM CLR 38/M09 A2989 RMK A01,M
10U,2024-06-23 00:55,-116.1876,41.9532,1637.00,91.40,24.80,9.04,M,5.00,0.00,30.00,M,10.00,12.00,CLR,M,M,M,M,M,M,M,M,M,M,M,M,M,M,86.21,K10U 230055Z AUTO VRB05G12KT 10SM CLR 33/M04 A3000 RMK AO2,M
BAM,2024-06-23 00:55,-116.8743,40.5990,1382.36,98.60,28.40,8.40,250.00,8.00,0.00,29.93,M,10.00,M,CLR,M,M,M,M,M,M,M,M,M,M,M,M,M,M,92.25,KBAM 230055Z AUTO 25008KT 210V270 10SM CLR 37/M02 A2993 RMK AO1,M
TMT,2024-06-23 00:55,-117.1971,39.4643,1749.34,92.00,24.40,8.72,240.00,11.00,0.00,30.05,M,10.00,16.00,CLR,M,M,M,M,M,M,M,M,M,M,M,M,M,M,86.63,KTMT 230055Z AUTO 24011G16KT 10SM CLR 33/M04 A3005 RMK AO2 T03331042,M
INS,2024-06-23 00:55,-115.6733,36.5872,955.00,M,M,M,240.00,18.00,0.00,M,M,10.00,25.00,M,M,M,M,M,M,M,M,M,M,M,M,28.00,270.00,2024-06-23 00:29,M,KINS 230055Z AUTO 24018G25KT 10SM M M M RMK AO2 PK WND 27028/29 SLPNO RVRNO TSNO $,M
LSV,2024-06-23 00:55,-115.0343,36.2362,570.00,109.00,27.70,5.99,180.00,10.00,0.00,29.72,1003.50,10.00,M,CLR,M,M,M,M,M,M,M,M,M,M,M,M,M,M,100.97,KLSV 230055Z AUTO 18010KT 10SM CLR 43/M02 A2972 RMK AO2 SLP035 T04281024 $,M
EKO,2024-06-23 00:56,-115.7860,40.8242,1367.00,94.00,31.00,10.75,240.00,13.00,0.00,29.97,1008.60,10.00,M,CLR,M,M,M,M,M,M,M,M,M,M,M,M,M,M,88.80,KEKO 230056Z AUTO 24013KT 10SM CLR 34/M01 A2997 RMK AO2 SLP086 T03441006,M
WMC,2024-06-23 00:56,-117.8072,40.9019,1315.00,99.00,21.00,6.09,250.00,16.00,0.00,29.90,1007.30,10.00,23.00,CLR,M,M,M,M,M,M,M,M,M,M,M,29.00,260.00,2024-06-22 23:59,91.93,KWMC 230056Z AUTO 25016G23KT 10SM CLR 37/M06 A2990 RMK AO2 PK WND 26029/2359 SLP073 T03721061,M
NFL,2024-06-23 00:56,-118.7010,39.4166,1199.00,100.00,28.00,7.92,0.00,0.00,0.00,29.88,1009.20,10.00,M,CLR,M,M,M,M,M,M,M,M,M,M,M,M,M,M,93.38,KNFL 230056Z 00000KT 10SM CLR 38/M02 A2988 RMK AO2 SLP092 T03781022,M
HND,2024-06-23 00:56,-115.1344,35.9729,742.79,106.00,45.00,12.96,M,5.00,0.00,29.83,1007.90,10.00,M,CLR,M,M,M,M,M,M,M,M,M,M,M,M,M,M,101.83,KHND 230056Z VRB05KT 10SM CLR 41/07 A2983 RMK AO2 SLP079 T04110072,M
TPH,2024-06-23 00:56,-117.0904,38.0505,1654.00,92.00,20.00,7.24,190.00,12.00,0.00,30.06,1009.50,10.00,M,CLR,M,M,M,M,M,M,M,M,M,M,M,28.00,160.00,2024-06-23 00:35,86.33,KTPH 230056Z AUTO 19012KT 10SM CLR 33/M07 A3006 RMK AO2 PK WND 16028/0035 SLP095 T03331067,M
LAS,2024-06-23 00:56,-115.1634,36.0719,663.00,109.00,42.00,10.58,210.00,9.00,0.00,29.79,1005.30,10.00,M,FEW,M,M,M,14000.00,M,M,M,M,M,M,M,M,M,M,103.67,KLAS 230056Z 21009KT 10SM FEW140 43/06 A2979 RMK AO2 SLP053 T04280056,M
BVU,2024-06-23 01:15,-114.8611,35.9475,671.00,105.80,39.20,10.43,180.00,16.00,0.00,29.78,M,10.00,M,CLR,M,M,M,M,M,M,M,M,M,M,M,M,M,M,100.14,KBVU 230115Z AUTO 18016KT 10SM CLR 41/04 A2978 RMK AO2,M
CXP,2024-06-23 01:15,-119.7326,39.1923,1431.00,89.60,39.20,17.09,270.00,13.00,0.00,30.00,M,4.00,25.00,CLR,M,M,M,M,M,M,M,-RA HZ,M,M,M,M,M,M,85.73,KCXP 230115Z AUTO 27013G25KT 240V300 4SM -RA HZ CLR 32/04 A3000 RMK AO2,M
RTS,2024-06-23 01:15,-119.8764,39.6682,1539.00,89.60,28.40,11.09,260.00,14.00,0.00,30.04,M,10.00,23.00,CLR,M,M,M,M,M,M,M,M,M,M,M,M,M,M,85.17,KRTS 230115Z AUTO 26014G23KT 10SM CLR 32/M02 A3004 RMK AO2,M
MEV,2024-06-23 01:15,-119.7500,38.9963,1441.42,89.60,42.80,19.64,270.00,15.00,0.00,29.98,M,10.00,22.00,CLR,M,M,M,M,M,M,M,M,M,M,M,M,M,M,85.93,KMEV 230115Z AUTO 27015G22KT 10SM CLR 32/06 A2998 RMK AO2,M
BAM,2024-06-23 01:15,-116.8743,40.5990,1382.36,96.80,30.20,9.55,250.00,8.00,0.00,29.93,M,10.00,15.00,CLR,M,M,M,M,M,M,M,M,M,M,M,M,M,M,90.96,KBAM 230115Z AUTO 25008G15KT 10SM CLR 36/M01 A2993 RMK AO1,M
HTH,2024-06-23 01:15,-118.6315,38.5448,1282.89,100.40,17.60,5.05,330.00,9.00,0.00,29.89,M,10.00,M,CLR,M,M,M,M,M,M,M,M,M,M,M,M,M,M,92.87,KHTH 230115Z AUTO 33009KT 10SM CLR 38/M08 A2989 RMK A01,M
10U,2024-06-23 01:15,-116.1876,41.9532,1637.00,91.40,26.60,9.74,250.00,9.00,0.00,30.00,M,10.00,M,CLR,M,M,M,M,M,M,M,M,M,M,M,M,M,M,86.36,K10U 230115Z AUTO 25009KT 230V290 10SM CLR 33/M03 A3000 RMK AO2,M
TMT,2024-06-23 01:15,-117.1971,39.4643,1749.34,92.00,25.70,9.21,270.00,8.00,0.00,30.05,M,10.00,M,CLR,M,M,M,M,M,M,M,M,M,M,M,M,M,M,86.74,KTMT 230115Z AUTO 27008KT 10SM CLR 33/M03 A3005 RMK AO2 T03331035,M
BVU,2024-06-23 01:35,-114.8611,35.9475,671.00,104.00,39.20,11.00,160.00,17.00,0.00,29.78,M,10.00,22.00,CLR,M,M,M,M,M,M,M,M,M,M,M,M,M,M,98.56,KBVU 230135Z AUTO 16017G22KT 10SM CLR 40/04 A2978 RMK AO2,M
CXP,2024-06-23 01:35,-119.7326,39.1923,1431.00,89.60,39.20,17.09,M,6.00,0.00,30.00,M,10.00,23.00,CLR,M,M,M,M,M,M,M,M,M,M,M,M,M,M,85.73,KCXP 230135Z AUTO VRB06G23KT 10SM CLR 32/04 A3000 RMK AO2,M
RTS,2024-06-23 01:35,-119.8764,39.6682,1539.00,89.60,26.60,10.30,250.00,19.00,0.00,30.04,M,10.00,M,CLR,M,M,M,M,M,M,M,M,M,M,M,M,M,M,85.02,KRTS 230135Z AUTO 25019KT 10SM CLR 32/M03 A3004 RMK AO2,M
MEV,2024-06-23 01:35,-119.7500,38.9963,1441.42,89.60,44.60,21.04,270.00,17.00,0.00,29.98,M,10.00,23.00,CLR,M,M,M,M,M,M,M,M,M,M,M,M,M,M,86.07,KMEV 230135Z AUTO 27017G23KT 10SM CLR 32/07 A2998 RMK AO2,M
BAM,2024-06-23 01:35,-116.8743,40.5990,1382.36,96.80,30.20,9.55,280.00,8.00,0.00,29.93,M,10.00,M,CLR,M,M,M,M,M,M,M,M,M,M,M,M,M,M,90.96,KBAM 230135Z AUTO 28008KT 10SM CLR 36/M01 A2993 RMK AO1,M
HTH,2024-06-23 01:35,-118.6315,38.5448,1282.89,98.60,19.40,5.76,330.00,9.00,0.00,29.89,M,10.00,M,CLR,M,M,M,M,M,M,M,M,M,M,M,M,M,M,91.49,KHTH 230135Z AUTO 33009KT 10SM CLR 37/M07 A2989 RMK A01,M
10U,2024-06-23 01:35,-116.1876,41.9532,1637.00,89.60,28.40,11.09,230.00,9.00,0.00,30.00,M,10.00,14.00,CLR,M,M,M,M,M,M,M,M,M,M,M,M,M,M,85.17,K10U 230135Z AUTO 23009G14KT 10SM CLR 32/M02 A3000 RMK AO2,M
TMT,2024-06-23 01:35,-117.1971,39.4643,1749.34,91.60,24.40,8.83,250.00,7.00,0.00,30.05,M,10.00,M,CLR,M,M,M,M,M,M,M,M,M,M,M,M,M,M,86.33,KTMT 230135Z AUTO 25007KT 10SM CLR 33/M04 A3005 RMK AO2 T03311042,M
P68,2024-06-23 01:53,-116.0056,39.6014,1993.00,92.00,21.00,7.56,200.00,10.00,0.00,30.05,1007.50,M,35.00,M,M,M,M,M,M,M,M,M,M,M,M,35.00,220.00,2024-06-23 01:49,86.40,KP68 230153Z AUTO 20010G35KT 33/M06 A3005 RMK AO1 PK WND 22035/0149 SLP075 T03331061,M
DRA,2024-06-23 01:53,-116.0278,36.6206,1009.00,100.00,35.00,10.51,230.00,16.00,0.00,29.89,1006.40,10.00,26.00,CLR,M,M,M,M,M,M,M,M,M,M,M,26.00,230.00,2024-06-23 01:46,94.32,KDRA 230153Z AUTO 23016G26KT 10SM CLR 38/02 A2989 RMK AO2 PK WND 23026/0146 SLP064 T03780017,M
ELY,2024-06-23 01:53,-114.8453,39.2950,1909.00,87.00,22.00,9.23,190.00,7.00,0.00,30.12,1009.10,10.00,M,CLR,M,M,M,M,M,M,M,M,M,M,M,M,M,M,82.80,KELY 230153Z AUTO 19007KT 10SM CLR 31/M06 A3012 RMK AO2 SLP091 T03061056,M
VGT,2024-06-23 01:53,-115.1933,36.2111,667.00,107.00,43.00,11.66,180.00,10.00,0.00,29.78,1006.60,10.00,M,CLR,M,M,M,M,M,M,M,M,M,M,M,M,M,M,102.15,KVGT 230153Z 18010KT 10SM CLR 42/06 A2978 RMK AO2 SLP066 T04170061,M
LOL,2024-06-23 01:53,-118.5701,40.0684,1192.43,97.00,33.00,10.63,280.00,13.00,0.00,29.87,1006.70,10.00,M,CLR,M,M,M,M,M,M,M,M,M,M,M,M,M,M,91.49,KLOL 230153Z AUTO 28013KT 10SM CLR 36/01 A2987 RMK AO2 SLP067 T03610006,M
BVU,2024-06-23 01:55,-114.8611,35.9475,671.00,104.00,39.20,11.00,200.00,11.00,0.00,29.78,M,10.00,19.00,CLR,M,M,M,M,M,M,M,M,M,M,M,M,M,M,98.56,KBVU 230155Z AUTO 20011G19KT 10SM CLR 40/04 A2978 RMK AO2,M
CXP,2024-06-23 01:55,-119.7326,39.1923,1431.00,87.80,41.00,19.40,270.00,11.00,0.00,30.00,M,9.00,22.00,CLR,M,M,M,M,M,M,M,M,M,M,M,M,M,M,84.30,KCXP 230155Z AUTO 27011G22KT 9SM CLR 31/05 A3000 RMK AO2,M
RNO,2024-06-23 01:55,-119.7711,39.4839,1341.00,92.00,52.00,25.76,290.00,20.00,0.00,29.96,1008.20,10.00,27.00,CLR,M,M,M,M,M,M,M,M,M,M,M,33.00,290.00,2024-06-23 00:57,89.31,KRNO 230155Z 29020G27KT 10SM CLR 33/11 A2996 RMK AO2 PK WND 29033/0057 SLP082 T03330111,M
RTS,2024-06-23 01:55,-119.8764,39.6682,1539.00,87.80,26.60,10.91,250.00,15.00,0.00,30.04,M,10.00,24.00,CLR,M,M,M,M,M,M,M,M,M,M,M,M,M,M,83.69,KRTS 230155Z AUTO 25015G24KT 10SM CLR 31/M03 A3004 RMK AO2,M
MEV,2024-06-23 01:55,-119.7500,38.9963,1441.42,87.80,42.80,20.79,270.00,16.00,0.00,29.99,M,10.00,24.00,CLR,M,M,M,M,M,M,M,M,M,M,M,M,M,M,84.40,KMEV 230155Z AUTO 27016G24KT 10SM CLR 31/06 A2999 RMK AO2,M
HTH,2024-06-23 01:55,-118.6315,38.5448,1282.89,98.60,19.40,5.76,320.00,11.00,0.00,29.89,M,10.00,M,CLR,M,M,M,M,M,M,M,M,M,M,M,M,M,M,91.49,KHTH 230155Z AUTO 32011KT 10SM CLR 37/M07 A2989 RMK A01,M
10U,2024-06-23 01:55,-116.1876,41.9532,1637.00,89.60,28.40,11.09,230.00,8.00,0.00,30.00,M,10.00,M,CLR,M,M,M,M,M,M,M,M,M,M,M,M,M,M,85.17,K10U 230155Z AUTO 23008KT 10SM CLR 32/M02 A3000 RMK AO2,M
BAM,2024-06-23 01:55,-116.8743,40.5990,1382.36,96.80,28.40,8.87,250.00,11.00,0.00,29.93,M,10.00,M,CLR,M,M,M,M,M,M,M,M,M,M,M,M,M,M,90.75,KBAM 230155Z AUTO 25011KT 10SM CLR 36/M02 A2993 RMK AO1,M
TMT,2024-06-23 01:55,-117.1971,39.4643,1749.34,90.00,28.40,10.96,250.00,5.00,0.00,30.05,M,10.00,M,CLR,M,M,M,M,M,M,M,M,M,M,M,M,M,M,85.47,KTMT 230155Z AUTO 25005KT 10SM CLR 32/M02 A3005 RMK AO2 T03231020,M
INS,2024-06-23 01:55,-115.6733,36.5872,955.00,M,M,M,240.00,17.00,0.00,M,M,10.00,M,M,M,M,M,M,M,M,M,M,M,M,M,M,M,M,M,KINS 230155Z AUTO 24017KT 10SM M M M RMK AO2 SLPNO RVRNO TSNO $,M
LSV,2024-06-23 01:55,-115.0343,36.2362,570.00,108.00,34.00,7.96,220.00,10.00,0.00,29.72,1003.40,10.00,20.00,CLR,M,M,M,M,M,M,M,M,M,M,M,M,M,M,101.04,KLSV 230155Z AUTO 22010G20KT 10SM CLR 42/01 A2972 RMK AO2 SLP034 T04230011 $,M
EKO,2024-06-23 01:56,-115.7860,40.8242,1367.00,94.00,27.00,9.13,310.00,7.00,0.00,29.97,1008.30,10.00,M,CLR,M,M,M,M,M,M,M,M,M,M,M,M,M,M,88.36,KEKO 230156Z AUTO 31007KT 10SM CLR 34/M03 A2997 RMK AO2 SLP083 T03441028,M
WMC,2024-06-23 01:56,-117.8072,40.9019,1315.00,97.00,20.00,6.21,200.00,8.00,0.00,29.90,1006.90,10.00,M,CLR,M,M,M,M,M,M,M,M,M,M,M,M,M,M,90.20,KWMC 230156Z AUTO 20008KT 10SM CLR 36/M07 A2990 RMK AO2 SLP069 T03611067,M
NFL,2024-06-23 01:56,-118.7010,39.4166,1199.00,100.00,30.00,8.59,340.00,5.00,0.00,29.87,1009.10,10.00,M,CLR,M,M,M,M,M,M,M,M,M,M,M,M,M,M,93.61,KNFL 230156Z 34005KT 10SM CLR 38/M01 A2987 RMK AO2 SLP091 T03781011,M
HND,2024-06-23 01:56,-115.1344,35.9729,742.79,104.00,46.00,14.28,220.00,10.00,0.00,29.84,1008.30,10.00,M,CLR,M,M,M,M,M,M,M,M,M,M,M,M,M,M,100.12,KHND 230156Z 22010KT 10SM CLR 40/08 A2984 RMK AO2 SLP083 T04000078,M
TPH,2024-06-23 01:56,-117.0904,38.0505,1654.00,91.00,21.00,7.80,180.00,10.00,0.00,30.06,1009.00,10.00,M,CLR,M,M,M,M,M,M,M,M,M,M,M,M,M,M,85.66,KTPH 230156Z AUTO 18010KT 10SM CLR 33/M06 A3006 RMK AO2 SLP090 T03281061,M
LAS,2024-06-23 01:56,-115.1634,36.0719,663.00,107.00,43.00,11.66,210.00,7.00,0.00,29.80,1005.60,10.00,16.00,FEW,M,M,M,14000.00,M,M,M,M,M,M,M,M,M,M,102.15,KLAS 230156Z 21007G16KT 10SM FEW140 42/06 A2980 RMK AO2 SLP056 T04170061,M
BVU,2024-06-23 02:15,-114.8611,35.9475,671.00,104.00,42.80,12.64,160.00,18.00,0.00,29.78,M,10.00,M,CLR,M,M,M,M,M,M,M,M,M,M,M,M,M,M,99.42,KBVU 230215Z AUTO 16018KT 10SM CLR 40/06 A2978 RMK AO2,M
CXP,2024-06-23 02:15,-119.7326,39.1923,1431.00,87.80,39.20,18.09,270.00,14.00,0.00,30.01,M,10.00,22.00,CLR,M,M,M,M,M,M,M,M,M,M,M,M,M,M,84.22,KCXP 230215Z AUTO 27014G22KT 240V300 10SM CLR 31/04 A3001 RMK AO2,M
RTS,2024-06-23 02:15,-119.8764,39.6682,1539.00,86.00,30.20,13.38,250.00,18.00,0.00,30.05,M,10.00,25.00,CLR,M,M,M,M,M,M,M,M,M,M,M,M,M,M,82.64,KRTS 230215Z AUTO 25018G25KT 10SM CLR 30/M01 A3005 RMK AO2,M
MEV,2024-06-23 02:15,-119.7500,38.9963,1441.42,86.00,42.80,22.02,270.00,16.00,0.00,29.99,M,10.00,23.00,CLR,M,M,M,M,M,M,M,M,M,M,M,M,M,M,82.95,KMEV 230215Z AUTO 27016G23KT 10SM CLR 30/06 A2999 RMK AO2,M
BAM,2024-06-23 02:15,-116.8743,40.5990,1382.36,96.80,26.60,8.24,270.00,10.00,0.00,29.93,M,10.00,14.00,CLR,M,M,M,M,M,M,M,M,M,M,M,M,M,M,90.57,KBAM 230215Z AUTO 27010G14KT 10SM CLR 36/M03 A2993 RMK AO1,M
HTH,2024-06-23 02:15,-118.6315,38.5448,1282.89,96.80,23.00,7.09,330.00,8.00,0.00,29.90,M,10.00,M,CLR,M,M,M,M,M,M,M,M,M,M,M,M,M,M,90.25,KHTH 230215Z AUTO 33008KT 10SM CLR 36/M05 A2990 RMK A01,M
10U,2024-06-23 02:15,-116.1876,41.9532,1637.00,87.80,28.40,11.74,220.00,6.00,0.00,30.00,M,10.00,12.00,CLR,M,M,M,M,M,M,M,M,M,M,M,M,M,M,83.84,K10U 230215Z AUTO 22006G12KT 10SM CLR 31/M02 A3000 RMK AO2,M
TMT,2024-06-23 02:15,-117.1971,39.4643,1749.34,88.70,28.00,11.23,230.00,8.00,0.00,30.05,M,10.00,M,CLR,M,M,M,M,M,M,M,M,M,M,M,M,M,M,84.47,KTMT 230215Z AUTO 23008KT 10SM CLR 32/M02 A3005 RMK AO2 T03151022,M
BVU,2024-06-23 02:35,-114.8611,35.9475,671.00,104.00,42.80,12.64,170.00,14.00,0.00,29.79,M,10.00,19.00,CLR,M,M,M,M,M,M,M,M,M,M,M,M,M,M,99.42,KBVU 230235Z AUTO 17014G19KT 10SM CLR 40/06 A2979 RMK AO2,M
CXP,2024-06-23 02:35,-119.7326,39.1923,1431.00,86.00,41.00,20.54,270.00,11.00,0.00,30.01,M,10.00,20.00,CLR,M,M,M,M,M,M,M,M,M,M,M,M,M,M,82.86,KCXP 230235Z AUTO 27011G20KT 230V290 10SM CLR 30/05 A3001 RMK AO2,M
RTS,2024-06-23 02:35,-119.8764,39.6682,1539.00,84.20,30.20,14.18,260.00,16.00,0.00,30.05,M,10.00,M,CLR,M,M,M,M,M,M,M,M,M,M,M,M,M,M,81.26,KRTS 230235Z AUTO 26016KT 10SM CLR 29/M01 A3005 RMK AO2,M
MEV,2024-06-23 02:35,-119.7500,38.9963,1441.42,84.20,44.60,24.99,280.00,10.00,0.00,30.00,M,10.00,16.00,CLR,M,M,M,M,M,M,M,M,M,M,M,M,M,M,81.73,KMEV 230235Z AUTO 28010G16KT 10SM CLR 29/07 A3000 RMK AO2,M
BAM,2024-06-23 02:35,-116.8743,40.5990,1382.36,95.00,28.40,9.38,260.00,7.00,0.00,29.93,M,10.00,M,CLR,M,M,M,M,M,M,M,M,M,M,M,M,M,M,89.27,KBAM 230235Z AUTO 26007KT 10SM CLR 35/M02 A2993 RMK AO1,M
HTH,2024-06-23 02:35,-118.6315,38.5448,1282.89,96.80,24.80,7.65,320.00,10.00,0.00,29.90,M,10.00,M,CLR,M,M,M,M,M,M,M,M,M,M,M,M,M,M,90.40,KHTH 230235Z AUTO 32010KT 10SM CLR 36/M04 A2990 RMK A01,M
10U,2024-06-23 02:35,-116.1876,41.9532,1637.00,86.00,33.80,15.48,220.00,4.00,0.00,30.00,M,10.00,M,CLR,M,M,M,M,M,M,M,M,M,M,M,M,M,M,82.66,K10U 230235Z AUTO 22004KT 10SM CLR 30/01 A3000 RMK AO2,M
TMT,2024-06-23 02:35,-117.1971,39.4643,1749.34,87.00,29.00,12.35,220.00,5.00,0.00,30.06,M,10.00,M,CLR,M,M,M,M,M,M,M,M,M,M,M,M,M,M,83.31,KTMT 230235Z AUTO 22005KT 10SM CLR 31/M02 A3006 RMK AO2 T03051017,M
P68,2024-06-23 02:53,-116.0056,39.6014,1993.00,85.00,20.00,9.04,250.00,6.00,0.00,30.06,1007.80,M,M,M,M,M,M,M,M,M,M,M,M,M,M,M,M,M,81.27,KP68 230253Z AUTO 25006KT 29/M07 A3006 RMK AO1 SLP078 T02941067 53003,M
DRA,2024-06-23 02:53,-116.0278,36.6206,1009.00,96.00,35.00,11.87,220.00,11.00,0.00,29.90,1006.50,10.00,M,CLR,M,M,M,M,M,M,M,M,M,M,M,M,M,M,90.97,KDRA 230253Z AUTO 22011KT 10SM CLR 36/02 A2990 RMK AO2 SLP065 T03560017 55000,M
ELY,2024-06-23 02:53,-114.8453,39.2950,1909.00,78.00,20.00,11.35,220.00,8.00,0.00,30.12,1009.00,10.00,M,CLR,M,M,M,M,M,M,M,M,M,M,M,M,M,M,78.00,KELY 230253Z AUTO 22008KT 10SM CLR 26/M07 A3012 RMK AO2 SLP090 T02561067 55000,M
VGT,2024-06-23 02:53,-115.1933,36.2111,667.00,105.00,43.00,12.37,230.00,10.00,0.00,29.79,1007.00,10.00,M,CLR,M,M,M,M,M,M,M,M,M,M,M,M,M,M,100.36,KVGT 230253Z AUTO 23010KT 10SM CLR 41/06 A2979 RMK AO2 SLP070 T04060061 53003,M
LOL,2024-06-23 02:53,-118.5701,40.0684,1192.43,93.00,31.00,11.09,300.00,18.00,0.00,29.88,1007.20,10.00,M,CLR,M,M,M,M,M,M,M,M,M,M,M,M,M,M,88.03,KLOL 230253Z AUTO 30018KT 10SM CLR 34/M01 A2988 RMK AO2 SLP072 T03391006 53001,M
BVU,2024-06-23 02:55,-114.8611,35.9475,671.00,102.20,44.60,14.29,160.00,13.00,0.00,29.79,M,10.00,18.00,CLR,M,M,M,M,M,M,M,M,M,M,M,M,M,M,98.07,KBVU 230255Z AUTO 16013G18KT 10SM CLR 39/07 A2979 RMK AO2,M
CXP,2024-06-23 02:55,-119.7326,39.1923,1431.00,84.20,41.00,21.76,260.00,10.00,0.00,30.02,M,10.00,16.00,CLR,M,M,M,M,M,M,M,M,M,M,M,M,M,M,81.52,KCXP 230255Z AUTO 26010G16KT 220V290 10SM CLR 29/05 A3002 RMK AO2,M
RNO,2024-06-23 02:55,-119.7711,39.4839,1341.00,89.00,49.00,25.32,290.00,15.00,0.00,29.98,1008.70,10.00,26.00,CLR,M,M,M,M,M,M,M,M,M,M,M,36.00,270.00,2024-06-23 02:24,86.01,KRNO 230255Z 29015G26KT 10SM CLR 32/09 A2998 RMK AO2 PK WND 27036/0224 SLP087 T03170094 53007,M
RTS,2024-06-23 02:55,-119.8764,39.6682,1539.00,84.20,35.60,17.61,270.00,12.00,0.00,30.06,M,10.00,17.00,CLR,M,M,M,M,M,M,M,M,M,M,M,M,M,M,81.34,KRTS 230255Z AUTO 27012G17KT 10SM CLR 29/02 A3006 RMK AO2,M
MEV,2024-06-23 02:55,-119.7500,38.9963,1441.42,82.40,42.80,24.72,270.00,7.00,0.00,30.01,M,10.00,15.00,CLR,M,M,M,M,M,M,M,M,M,M,M,M,M,M,80.39,KMEV 230255Z AUTO 27007G15KT 10SM CLR 28/06 A3001 RMK AO2,M
BAM,2024-06-23 02:55,-116.8743,40.5990,1382.36,91.40,28.40,10.48,260.00,6.00,0.00,29.93,M,10.00,M,CLR,M,M,M,M,M,M,M,M,M,M,M,M,M,M,86.53,KBAM 230255Z AUTO 26006KT 10SM CLR 33/M02 A2993 RMK AO1,M
HTH,2024-06-23 02:55,-118.6315,38.5448,1282.89,93.20,28.40,9.91,340.00,11.00,0.00,29.91,M,10.00,M,CLR,M,M,M,M,M,M,M,M,M,M,M,M,M,M,87.89,KHTH 230255Z AUTO 34011KT 10SM CLR 34/M02 A2991 RMK A01,M
10U,2024-06-23 02:55,-116.1876,41.9532,1637.00,82.40,35.60,18.67,230.00,4.00,0.00,30.00,M,10.00,M,CLR,M,M,M,M,M,M,M,M,M,M,M,M,M,M,80.08,K10U 230255Z AUTO 23004KT 10SM CLR 28/02 A3000 RMK AO2,M
TMT,2024-06-23 02:55,-117.1971,39.4643,1749.34,83.50,28.20,13.37,210.00,7.00,0.00,30.06,M,10.00,M,CLR,M,M,M,M,M,M,M,M,M,M,M,M,M,M,80.73,KTMT 230255Z AUTO 21007KT 10SM CLR 29/M02 A3006 RMK AO2 T02861021,M
INS,2024-06-23 02:55,-115.6733,36.5872,955.00,M,M,M,240.00,13.00,0.00,M,M,10.00,M,M,M,M,M,M,M,M,M,M,M,M,M,M,M,M,M,KINS 230255Z AUTO 24013KT 10SM M M M RMK AO2 SLPNO RVRNO TSNO $,M
LSV,2024-06-23 02:55,-115.0343,36.2362,570.00,105.00,37.20,9.87,210.00,11.00,0.00,29.73,1003.70,10.00,M,CLR,M,M,M,M,M,M,M,M,M,M,M,M,M,M,99.02,KLSV 230255Z AUTO 21011KT 10SM CLR 41/03 A2973 RMK AO2 SLP037 T04050029 55000 $,M
EKO,2024-06-23 02:56,-115.7860,40.8242,1367.00,87.00,32.00,13.94,340.00,7.00,0.00,29.98,1008.60,10.00,M,CLR,M,M,M,M,M,M,M,M,M,M,M,M,M,M,83.43,KEKO 230256Z AUTO 34007KT 10SM CLR 31/00 A2998 RMK AO2 SLP086 T03060000 55003,M
WMC,2024-06-23 02:56,-117.8072,40.9019,1315.00,89.00,23.00,9.04,190.00,7.00,0.00,29.90,1006.80,10.00,M,CLR,M,M,M,M,M,M,M,M,M,M,M,M,M,M,84.31,KWMC 230256Z AUTO 19007KT 10SM CLR 32/M05 A2990 RMK AO2 SLP068 T03171050 55004,M
HND,2024-06-23 02:56,-115.1344,35.9729,742.79,102.00,46.00,15.16,210.00,9.00,0.00,29.85,1008.50,10.00,M,CLR,M,M,M,M,M,M,M,M,M,M,M,M,M,M,98.15,KHND 230256Z 21009KT 10SM CLR 39/08 A2985 RMK AO2 SLP085 T03890078 53002,M
TPH,2024-06-23 02:56,-117.0904,38.0505,1654.00,86.00,22.00,9.53,180.00,11.00,0.00,30.07,1009.00,10.00,M,CLR,M,M,M,M,M,M,M,M,M,M,M,M,M,M,82.08,KTPH 230256Z AUTO 18011KT 10SM CLR 30/M06 A3007 RMK AO2 SLP090 T03001056 53001,M
LAS,2024-06-23 02:56,-115.1634,36.0719,663.00,106.00,43.00,12.01,200.00,8.00,0.00,29.81,1005.90,10.00,M,FEW,M,M,M,14000.00,M,M,M,M,M,M,M,M,M,M,101.25,KLAS 230256Z 20008KT 10SM FEW140 41/06 A2981 RMK AO2 SLP059 T04110061 53002,M
NFL,2024-06-23 02:56,-118.7010,39.4166,1199.00,94.00,37.00,13.66,290.00,10.00,0.00,29.89,1009.70,10.00,M,CLR,M,M,M,M,M,M,M,M,M,M,M,M,M,M,89.53,KNFL 230256Z 29010KT 10SM CLR 34/03 A2989 RMK AO2 SLP097 T03440028 53001,M
BVU,2024-06-23 03:15,-114.8611,35.9475,671.00,100.40,42.80,14.08,160.00,10.00,0.00,29.80,M,10.00,M,CLR,M,M,M,M,M,M,M,M,M,M,M,M,M,M,96.04,KBVU 230315Z AUTO 16010KT 10SM CLR 38/06 A2980 RMK AO2,M
CXP,2024-06-23 03:15,-119.7326,39.1923,1431.00,82.40,41.00,23.07,260.00,7.00,0.00,30.03,M,10.00,14.00,CLR,M,M,M,M,M,M,M,M,M,M,M,M,M,M,80.29,KCXP 230315Z AUTO 26007G14KT 240V310 10SM CLR 28/05 A3003 RMK AO2,M
RTS,2024-06-23 03:15,-119.8764,39.6682,1539.00,80.60,35.60,19.79,280.00,14.00,0.00,30.06,M,10.00,M,CLR,M,M,M,M,M,M,M,M,M,M,M,M,M,M,78.94,KRTS 230315Z AUTO 28014KT 10SM CLR 27/02 A3006 RMK AO2,M
MEV,2024-06-23 03:15,-119.7500,38.9963,1441.42,82.40,42.80,24.72,240.00,9.00,0.00,30.02,M,10.00,16.00,CLR,M,M,M,M,M,M,M,M,M,M,M,M,M,M,80.39,KMEV 230315Z AUTO 24009G16KT 10SM CLR 28/06 A3002 RMK AO2,M
BAM,2024-06-23 03:15,-116.8743,40.5990,1382.36,87.80,30.20,12.64,270.00,6.00,0.00,29.95,M,10.00,M,CLR,M,M,M,M,M,M,M,M,M,M,M,M,M,M,84.01,KBAM 230315Z AUTO 27006KT 10SM CLR 31/M01 A2995 RMK AO1,M
HTH,2024-06-23 03:15,-118.6315,38.5448,1282.89,91.40,24.80,9.04,360.00,8.00,0.00,29.92,M,10.00,M,CLR,M,M,M,M,M,M,M,M,M,M,M,M,M,M,86.21,KHTH 230315Z AUTO 36008KT 10SM CLR 33/M04 A2992 RMK A01,M
10U,2024-06-23 03:15,-116.1876,41.9532,1637.00,77.00,39.20,25.67,M,3.00,0.00,30.00,M,10.00,M,CLR,M,M,M,M,M,M,M,M,M,M,M,M,M,M,77.00,K10U 230315Z AUTO VRB03KT 10SM CLR 25/04 A3000 RMK AO2,M
TMT,2024-06-23 03:15,-117.1971,39.4643,1749.34,78.00,26.00,14.61,200.00,8.00,0.00,30.07,M,10.00,M,CLR,M,M,M,M,M,M,M,M,M,M,M,M,M,M,78.00,KTMT 230315Z AUTO 20008KT 10SM CLR 26/M03 A3007 RMK AO2 T02561034,M
BVU,2024-06-23 03:35,-114.8611,35.9475,671.00,100.40,42.80,14.08,160.00,12.00,0.00,29.81,M,10.00,M,CLR,M,M,M,M,M,M,M,M,M,M,M,M,M,M,96.04,KBVU 230335Z AUTO 16012KT 10SM CLR 38/06 A2981 RMK AO2,M
CXP,2024-06-23 03:35,-119.7326,39.1923,1431.00,82.40,41.00,23.07,270.00,10.00,0.00,30.03,M,10.00,17.00,CLR,M,M,M,M,M,M,M,M,M,M,M,M,M,M,80.29,KCXP 230335Z AUTO 27010G17KT 10SM CLR 28/05 A3003 RMK AO2,M
RTS,2024-06-23 03:35,-119.8764,39.6682,1539.00,78.80,35.60,21.00,280.00,11.00,0.00,30.06,M,10.00,17.00,CLR,M,M,M,M,M,M,M,M,M,M,M,M,M,M,78.80,KRTS 230335Z AUTO 28011G17KT 10SM CLR 26/02 A3006 RMK AO2,M
MEV,2024-06-23 03:35,-119.7500,38.9963,1441.42,78.80,42.80,27.81,240.00,6.00,0.00,30.03,M,10.00,M,CLR,M,M,M,M,M,M,M,M,M,M,M,M,M,M,78.80,KMEV 230335Z AUTO 24006KT 10SM CLR 26/06 A3003 RMK AO2,M
BAM,2024-06-23 03:35,-116.8743,40.5990,1382.36,82.40,30.20,15.03,270.00,6.00,0.00,29.95,M,10.00,M,CLR,M,M,M,M,M,M,M,M,M,M,M,M,M,M,79.97,KBAM 230335Z AUTO 27006KT 10SM CLR 28/M01 A2995 RMK AO1,M
HTH,2024-06-23 03:35,-118.6315,38.5448,1282.89,91.40,33.80,13.05,340.00,12.00,0.00,29.92,M,10.00,M,CLR,M,M,M,M,M,M,M,M,M,M,M,M,M,M,87.13,KHTH 230335Z AUTO 34012KT 10SM CLR 33/01 A2992 RMK A01,M
10U,2024-06-23 03:35,-116.1876,41.9532,1637.00,73.40,35.60,25.13,200.00,5.00,0.00,30.01,M,10.00,M,CLR,M,M,M,M,M,M,M,M,M,M,M,M,M,M,73.40,K10U 230335Z AUTO 20005KT 10SM CLR 23/02 A3001 RMK AO2,M
TMT,2024-06-23 03:35,-117.1971,39.4643,1749.34,76.00,24.60,14.73,220.00,8.00,0.00,30.07,M,10.00,M,CLR,M,M,M,M,M,M,M,M,M,M,M,M,M,M,76.00,KTMT 230335Z AUTO 22008KT 10SM CLR 24/M04 A3007 RMK AO2 T02441041,M
MEV,2024-06-23 03:50,-119.7500,38.9963,1441.42,78.80,42.80,27.81,240.00,9.00,0.00,30.03,M,10.00,M,CLR,M,M,M,M,M,M,M,M,M,M,M,M,M,M,78.80,KMEV 230350Z AUTO 24009KT 10SM CLR 26/06 A3003 RMK AO2,M
P68,2024-06-23 03:53,-116.0056,39.6014,1993.00,74.00,21.00,13.53,140.00,7.00,0.00,30.07,1009.00,M,M,M,M,M,M,M,M,M,M,M,M,M,M,M,M,M,74.00,KP68 230353Z AUTO 14007KT 23/M06 A3007 RMK AO1 SLP090 T02331061,M
DRA,2024-06-23 03:53,-116.0278,36.6206,1009.00,93.00,33.00,12.02,220.00,7.00,0.00,29.91,1007.00,10.00,M,CLR,M,M,M,M,M,M,M,M,M,M,M,M,M,M,88.28,KDRA 230353Z AUTO 22007KT 10SM CLR 34/01 A2991 RMK AO2 SLP070 T03390006,M
ELY,2024-06-23 03:53,-114.8453,39.2950,1909.00,70.00,22.00,16.17,160.00,10.00,0.00,30.14,1009.60,10.00,M,CLR,M,M,M,M,M,M,M,M,M,M,M,M,M,M,70.00,KELY 230353Z AUTO 16010KT 10SM CLR 21/M06 A3014 RMK AO2 SLP096 T02111056,M
VGT,2024-06-23 03:53,-115.1933,36.2111,667.00,103.00,44.00,13.64,260.00,6.00,0.00,29.81,1007.80,10.00,M,CLR,M,M,M,M,M,M,M,M,M,M,M,M,M,M,98.74,KVGT 230353Z AUTO 26006KT 10SM CLR 39/07 A2981 RMK AO2 SLP078 T03940067,M
LOL,2024-06-23 03:53,-118.5701,40.0684,1192.43,88.00,32.00,13.51,300.00,12.00,0.00,29.90,1007.50,10.00,M,CLR,M,M,M,M,M,M,M,M,M,M,M,M,M,M,84.24,KLOL 230353Z AUTO 30012KT 10SM CLR 31/00 A2990 RMK AO2 SLP075 T03110000,M
BVU,2024-06-23 03:55,-114.8611,35.9475,671.00,98.60,42.80,14.87,160.00,10.00,0.00,29.82,M,10.00,M,CLR,M,M,M,M,M,M,M,M,M,M,M,M,M,M,94.30,KBVU 230355Z AUTO 16010KT 10SM CLR 37/06 A2982 RMK AO2,M
CXP,2024-06-23 03:55,-119.7326,39.1923,1431.00,82.40,41.00,23.07,270.00,7.00,0.00,30.04,M,10.00,15.00,CLR,M,M,M,M,M,M,M,M,M,M,M,M,M,M,80.29,KCXP 230355Z AUTO 27007G15KT 10SM CLR 28/05 A3004 RMK AO2,M
RNO,2024-06-23 03:55,-119.7711,39.4839,1341.00,85.00,47.00,26.67,280.00,17.00,0.00,30.00,1009.40,10.00,28.00,CLR,M,M,M,M,M,M,M,M,M,M,M,29.00,270.00,2024-06-23 02:58,82.51,KRNO 230355Z 28017G28KT 10SM CLR 29/08 A3000 RMK AO2 PK WND 27029/0258 SLP094 T02940083,M
RTS,2024-06-23 03:55,-119.8764,39.6682,1539.00,77.00,35.60,22.28,280.00,8.00,0.00,30.07,M,10.00,13.00,CLR,M,M,M,M,M,M,M,M,M,M,M,M,M,M,77.00,KRTS 230355Z AUTO 28008G13KT 10SM CLR 25/02 A3007 RMK AO2,M
BAM,2024-06-23 03:55,-116.8743,40.5990,1382.36,78.80,28.40,15.71,270.00,7.00,0.00,29.95,M,10.00,M,CLR,M,M,M,M,M,M,M,M,M,M,M,M,M,M,78.80,KBAM 230355Z AUTO 27007KT 10SM CLR 26/M02 A2995 RMK AO1,M
HTH,2024-06-23 03:55,-118.6315,38.5448,1282.89,91.40,35.60,14.02,360.00,15.00,0.00,29.92,M,10.00,22.00,CLR,M,M,M,M,M,M,M,M,M,M,M,M,M,M,87.17,KHTH 230355Z AUTO 36015G22KT 10SM CLR 33/02 A2992 RMK A01,M
10U,2024-06-23 03:55,-116.1876,41.9532,1637.00,66.20,37.40,34.51,150.00,5.00,0.00,30.01,M,10.00,M,CLR,M,M,M,M,M,M,M,M,M,M,M,M,M,M,66.20,K10U 230355Z AUTO 15005KT 10SM CLR 19/03 A3001 RMK AO2,M
TMT,2024-06-23 03:55,-117.1971,39.4643,1749.34,73.40,26.80,17.60,220.00,8.00,0.00,30.08,M,10.00,M,CLR,M,M,M,M,M,M,M,M,M,M,M,M,M,M,73.40,KTMT 230355Z AUTO 22008KT 10SM CLR 23/M03 A3008 RMK AO2 T02301029,M
INS,2024-06-23 03:55,-115.6733,36.5872,955.00,M,M,M,240.00,8.00,0.00,M,M,10.00,M,M,M,M,M,M,M,M,M,M,M,M,M,M,M,M,M,KINS 230355Z AUTO 24008KT 10SM M M M RMK AO2 SLPNO RVRNO TSNO $,M
LSV,2024-06-23 03:55,-115.0343,36.2362,570.00,104.00,36.70,9.97,260.00,7.00,0.00,29.76,1004.60,10.00,M,CLR,M,M,M,M,M,M,M,M,M,M,M,M,M,M,98.05,KLSV 230355Z AUTO 26007KT 10SM CLR 40/03 A2976 RMK AO2 SLP046 T04010026 $,M
EKO,2024-06-23 03:56,-115.7860,40.8242,1367.00,78.00,34.00,20.23,0.00,0.00,0.00,29.99,1009.10,10.00,M,CLR,M,M,M,M,M,M,M,M,M,M,M,M,M,M,78.00,KEKO 230356Z AUTO 00000KT 10SM CLR 26/01 A2999 RMK AO2 SLP091 T02560011,M
WMC,2024-06-23 03:56,-117.8072,40.9019,1315.00,83.00,24.00,11.41,250.00,8.00,0.00,29.93,1007.50,10.00,M,CLR,M,M,M,M,M,M,M,M,M,M,M,M,M,M,80.13,KWMC 230356Z AUTO 25008KT 10SM CLR 28/M04 A2993 RMK AO2 SLP075 T02831044,M
NFL,2024-06-23 03:56,-118.7010,39.4166,1199.00,90.00,33.00,13.20,310.00,13.00,0.00,29.91,1010.40,10.00,M,CLR,M,M,M,M,M,M,M,M,M,M,M,M,M,M,85.92,KNFL 230356Z AUTO 31013KT 10SM CLR 32/01 A2991 RMK AO2 SLP104 T03220006,M
HND,2024-06-23 03:56,-115.1344,35.9729,742.79,100.00,47.00,16.72,220.00,9.00,0.00,29.87,1009.20,10.00,M,CLR,M,M,M,M,M,M,M,M,M,M,M,M,M,M,96.35,KHND 230356Z AUTO 22009KT 10SM CLR 38/08 A2987 RMK AO2 SLP092 T03780083,M
TPH,2024-06-23 03:56,-117.0904,38.0505,1654.00,77.00,21.00,12.24,190.00,6.00,0.00,30.09,1010.10,10.00,M,CLR,M,M,M,M,M,M,M,M,M,M,M,M,M,M,77.00,KTPH 230356Z AUTO 19006KT 10SM CLR 25/M06 A3009 RMK AO2 SLP101 T02501061,M
LAS,2024-06-23 03:58,-115.1634,36.0719,663.00,103.00,45.00,14.17,230.00,7.00,0.00,29.83,M,10.00,M,FEW,M,M,M,14000.00,M,M,M,M,M,M,M,M,M,M,98.93,KLAS 230358Z 23007KT 10SM FEW140 39/07 A2983 RMK AO2 T03940072 $,M
MEV,2024-06-23 04:00,-119.7500,38.9963,1441.42,78.80,41.00,25.95,250.00,7.00,0.00,30.03,M,10.00,12.00,CLR,M,M,M,M,M,M,M,M,M,M,M,M,M,M,78.80,KMEV 230400Z AUTO 25007G12KT 10SM CLR 26/05 A3003 RMK AO2,M
CXP,2024-06-23 04:10,-119.7326,39.1923,1431.00,80.60,41.00,24.46,M,6.00,0.00,30.04,M,10.00,11.00,CLR,M,M,M,M,M,M,M,M,M,M,M,M,M,M,79.20,KCXP 230410Z AUTO VRB06G11KT 10SM CLR 27/05 A3004 RMK AO2,M
BVU,2024-06-23 04:15,-114.8611,35.9475,671.00,98.60,42.80,14.87,170.00,9.00,0.00,29.83,M,10.00,M,CLR,M,M,M,M,M,M,M,M,M,M,M,M,M,M,94.30,KBVU 230415Z AUTO 17009KT 10SM CLR 37/06 A2983 RMK AO2,M
BAM,2024-06-23 04:15,-116.8743,40.5990,1382.36,78.80,28.40,15.71,0.00,0.00,0.00,29.96,M,10.00,M,CLR,M,M,M,M,M,M,M,M,M,M,M,M,M,M,78.80,KBAM 230415Z AUTO 00000KT 10SM CLR 26/M02 A2996 RMK AO1,M
HTH,2024-06-23 04:15,-118.6315,38.5448,1282.89,89.60,37.40,15.92,360.00,11.00,0.00,29.94,M,10.00,M,CLR,M,M,M,M,M,M,M,M,M,M,M,M,M,M,85.67,KHTH 230415Z AUTO 36011KT 10SM CLR 32/03 A2994 RMK A01,M
10U,2024-06-23 04:15,-116.1876,41.9532,1637.00,64.40,37.40,36.74,150.00,5.00,0.00,30.02,M,10.00,M,CLR,M,M,M,M,M,M,M,M,M,M,M,M,M,M,64.40,K10U 230415Z AUTO 15005KT 10SM CLR 18/03 A3002 RMK AO2,M
TMT,2024-06-23 04:15,-117.1971,39.4643,1749.34,74.00,28.40,18.42,280.00,4.00,0.00,30.09,M,10.00,M,CLR,M,M,M,M,M,M,M,M,M,M,M,M,M,M,74.00,KTMT 230415Z AUTO 28004KT 10SM CLR 23/M02 A3009 RMK AO2 T02331020,M
BVU,2024-06-23 04:35,-114.8611,35.9475,671.00,96.80,42.80,15.71,170.00,6.00,0.00,29.85,M,10.00,M,CLR,M,M,M,M,M,M,M,M,M,M,M,M,M,M,92.57,KBVU 230435Z AUTO 17006KT 10SM CLR 36/06 A2985 RMK AO2,M
CXP,2024-06-23 04:35,-119.7326,39.1923,1431.00,80.60,41.00,24.46,280.00,8.00,0.00,30.05,M,10.00,M,CLR,M,M,M,M,M,M,M,M,M,M,M,M,M,M,79.20,KCXP 230435Z AUTO 28008KT 10SM CLR 27/05 A3005 RMK AO2,M
RTS,2024-06-23 04:35,-119.8764,39.6682,1539.00,75.20,35.60,23.66,320.00,6.00,0.00,30.09,M,10.00,12.00,CLR,M,M,M,M,M,M,M,M,M,M,M,M,M,M,75.20,KRTS 230435Z AUTO 32006G12KT 10SM CLR 24/02 A3009 RMK AO2,M
MEV,2024-06-23 04:35,-119.7500,38.9963,1441.42,73.40,42.80,33.29,130.00,4.00,0.00,30.05,M,10.00,M,CLR,M,M,M,M,M,M,M,M,M,M,M,M,M,M,73.40,KMEV 230435Z AUTO 13004KT 10SM CLR 23/06 A3005 RMK AO2,M
BAM,2024-06-23 04:35,-116.8743,40.5990,1382.36,71.60,28.40,19.98,150.00,7.00,0.00,29.97,M,10.00,M,CLR,M,M,M,M,M,M,M,M,M,M,M,M,M,M,71.60,KBAM 230435Z AUTO 15007KT 10SM CLR 22/M02 A2997 RMK AO1,M
HTH,2024-06-23 04:35,-118.6315,38.5448,1282.89,87.80,39.20,18.09,360.00,13.00,0.00,29.95,M,10.00,M,CLR,M,M,M,M,M,M,M,M,M,M,M,M,M,M,84.22,KHTH 230435Z AUTO 36013KT 10SM CLR 31/04 A2995 RMK A01,M
10U,2024-06-23 04:35,-116.1876,41.9532,1637.00,66.20,35.60,32.14,140.00,8.00,0.00,30.02,M,10.00,M,CLR,M,M,M,M,M,M,M,M,M,M,M,M,M,M,66.20,K10U 230435Z AUTO 14008KT 10SM CLR 19/02 A3002 RMK AO2,M
TMT,2024-06-23 04:35,-117.1971,39.4643,1749.34,72.70,27.70,18.70,260.00,3.00,0.00,30.10,M,10.00,M,CLR,M,M,M,M,M,M,M,M,M,M,M,M,M,M,72.70,KTMT 230435Z AUTO 26003KT 10SM CLR 23/M02 A3010 RMK AO2 T02261024,M
P68,2024-06-23 04:53,-116.0056,39.6014,1993.00,71.00,23.00,16.30,130.00,9.00,0.00,30.10,1009.60,M,M,M,M,M,M,M,M,M,M,M,M,M,M,M,M,M,71.00,KP68 230453Z AUTO 13009KT 22/M05 A3010 RMK AO1 SLP096 T02171050,M
DRA,2024-06-23 04:53,-116.0278,36.6206,1009.00,91.00,37.00,15.00,180.00,6.00,0.00,29.93,1007.40,10.00,M,CLR,M,M,M,M,M,M,M,M,M,M,M,M,M,M,86.86,KDRA 230453Z AUTO 18006KT 10SM CLR 33/03 A2993 RMK AO2 SLP074 T03280028,M
ELY,2024-06-23 04:53,-114.8453,39.2950,1909.00,69.00,21.00,16.03,200.00,9.00,0.00,30.17,1009.90,10.00,M,CLR,M,M,M,M,M,M,M,M,M,M,M,M,M,M,69.00,KELY 230453Z AUTO 20009KT 10SM CLR 21/M06 A3017 RMK AO2 SLP099 T02061061,M
VGT,2024-06-23 04:53,-115.1933,36.2111,667.00,102.00,43.00,13.52,250.00,5.00,0.00,29.84,1008.50,10.00,M,CLR,M,M,M,M,M,M,M,M,M,M,M,M,M,M,97.60,KVGT 230453Z AUTO 25005KT 10SM CLR 39/06 A2984 RMK AO2 SLP085 T03890061,M
LOL,2024-06-23 04:53,-118.5701,40.0684,1192.43,86.00,28.00,12.23,300.00,13.00,0.00,29.93,1008.20,10.00,24.00,CLR,M,M,M,M,M,M,M,M,M,M,M,26.00,300.00,2024-06-23 04:40,82.50,KLOL 230453Z AUTO 30013G24KT 10SM CLR 30/M02 A2993 RMK AO2 PK WND 30026/0440 SLP082 T03001022,M
BVU,2024-06-23 04:55,-114.8611,35.9475,671.00,96.80,42.80,15.71,0.00,0.00,0.00,29.86,M,10.00,M,CLR,M,M,M,M,M,M,M,M,M,M,M,M,M,M,92.57,KBVU 230455Z AUTO 00000KT 10SM CLR 36/06 A2986 RMK AO2,M
CXP,2024-06-23 04:55,-119.7326,39.1923,1431.00,80.60,39.20,22.81,M,6.00,0.00,30.06,M,10.00,M,CLR,M,M,M,M,M,M,M,M,M,M,M,M,M,M,79.10,KCXP 230455Z AUTO VRB06KT 10SM CLR 27/04 A3006 RMK AO2,M
RNO,2024-06-23 04:55,-119.7711,39.4839,1341.00,83.00,46.00,27.39,290.00,12.00,0.00,30.03,1010.40,10.00,M,CLR,M,M,M,M,M,M,M,M,M,M,M,M,M,M,81.00,KRNO 230455Z 29012KT 10SM CLR 28/08 A3003 RMK AO2 SLP104 T02830078,M
RTS,2024-06-23 04:55,-119.8764,39.6682,1539.00,75.20,35.60,23.66,120.00,7.00,0.00,30.11,M,10.00,M,CLR,M,M,M,M,M,M,M,M,M,M,M,M,M,M,75.20,KRTS 230455Z AUTO 12007KT 10SM CLR 24/02 A3011 RMK AO2,M
MEV,2024-06-23 04:55,-119.7500,38.9963,1441.42,68.00,46.40,45.88,100.00,4.00,0.00,30.06,M,10.00,M,CLR,M,M,M,M,M,M,M,M,M,M,M,M,M,M,68.00,KMEV 230455Z AUTO 10004KT 10SM CLR 20/08 A3006 RMK AO2,M
BAM,2024-06-23 04:55,-116.8743,40.5990,1382.36,73.40,26.60,17.46,160.00,4.00,0.00,29.98,M,10.00,M,CLR,M,M,M,M,M,M,M,M,M,M,M,M,M,M,73.40,KBAM 230455Z AUTO 16004KT 10SM CLR 23/M03 A2998 RMK AO1,M
HTH,2024-06-23 04:55,-118.6315,38.5448,1282.89,87.80,41.00,19.40,360.00,10.00,0.00,29.96,M,10.00,M,CLR,M,M,M,M,M,M,M,M,M,M,M,M,M,M,84.30,KHTH 230455Z AUTO 36010KT 10SM CLR 31/05 A2996 RMK A01,M
10U,2024-06-23 04:55,-116.1876,41.9532,1637.00,66.20,33.80,29.92,140.00,7.00,0.00,30.02,M,10.00,M,CLR,M,M,M,M,M,M,M,M,M,M,M,M,M,M,66.20,K10U 230455Z AUTO 14007KT 10SM CLR 19/01 A3002 RMK AO2,M
TMT,2024-06-23 04:55,-117.1971,39.4643,1749.34,62.80,24.00,22.57,200.00,3.00,0.00,30.11,M,10.00,M,CLR,M,M,M,M,M,M,M,M,M,M,M,M,M,M,62.80,KTMT 230455Z AUTO 20003KT 10SM CLR 17/M04 A3011 RMK AO2 T01711045,M
INS,2024-06-23 04:55,-115.6733,36.5872,955.00,M,M,M,260.00,7.00,0.00,M,M,10.00,M,M,M,M,M,M,M,M,M,M,M,M,M,M,M,M,M,KINS 230455Z AUTO 26007KT 10SM M M M RMK AO2 SLPNO RVRNO TSNO $,M
LSV,2024-06-23 04:55,-115.0343,36.2362,570.00,99.70,38.00,11.94,220.00,3.00,0.00,29.79,1005.60,10.00,M,CLR,M,M,M,M,M,M,M,M,M,M,M,M,M,M,94.59,KLSV 230455Z AUTO 22003KT 10SM CLR 38/03 A2979 RMK AO2 SLP056 T03760033 $,M
EKO,2024-06-23 04:56,-115.7860,40.8242,1367.00,72.00,32.00,22.82,0.00,0.00,0.00,30.01,1009.80,10.00,M,CLR,M,M,M,M,M,M,M,M,M,M,M,M,M,M,72.00,KEKO 230456Z AUTO 00000KT 10SM CLR 22/00 A3001 RMK AO2 SLP098 T02220000,M
WMC,2024-06-23 04:56,-117.8072,40.9019,1315.00,83.00,28.00,13.47,270.00,11.00,0.00,29.95,1008.10,10.00,M,CLR,M,M,M,M,M,M,M,M,M,M,M,M,M,M,80.37,KWMC 230456Z AUTO 27011KT 10SM CLR 28/M02 A2995 RMK AO2 SLP081 T02831022,M
NFL,2024-06-23 04:56,-118.7010,39.4166,1199.00,87.00,32.00,13.94,290.00,11.00,0.00,29.95,1011.30,10.00,M,CLR,M,M,M,M,M,M,M,M,M,M,M,M,M,M,83.43,KNFL 230456Z AUTO 29011KT 10SM CLR 31/00 A2995 RMK AO2 SLP113 T03060000,M
HND,2024-06-23 04:56,-115.1344,35.9729,742.79,97.00,47.00,18.32,200.00,5.00,0.00,29.90,1010.20,10.00,M,CLR,M,M,M,M,M,M,M,M,M,M,M,M,M,M,93.35,KHND 230456Z AUTO 20005KT 10SM CLR 36/08 A2990 RMK AO2 SLP102 T03610083,M
TPH,2024-06-23 04:56,-117.0904,38.0505,1654.00,74.00,20.00,12.97,160.00,7.00,0.00,30.11,1010.80,10.00,M,CLR,M,M,M,M,M,M,M,M,M,M,M,M,M,M,74.00,KTPH 230456Z AUTO 16007KT 10SM CLR 23/M07 A3011 RMK AO2 SLP108 T02331067,M
LAS,2024-06-23 04:56,-115.1634,36.0719,663.00,101.00,43.00,13.94,210.00,5.00,0.00,29.85,1007.40,10.00,M,SCT,M,M,M,15000.00,M,M,M,M,M,M,M,M,M,M,96.64,KLAS 230456Z 21005KT 10SM SCT150 38/06 A2985 RMK AO2 SLP074 T03830061 $,M
BVU,2024-06-23 05:15,-114.8611,35.9475,671.00,95.00,42.80,16.60,300.00,5.00,0.00,29.86,M,10.00,M,CLR,M,M,M,M,M,M,M,M,M,M,M,M,M,M,90.86,KBVU 230515Z AUTO 30005KT 10SM CLR 35/06 A2986 RMK AO2,M
CXP,2024-06-23 05:15,-119.7326,39.1923,1431.00,78.80,39.20,24.19,0.00,0.00,0.00,30.07,M,10.00,M,CLR,M,M,M,M,M,M,M,M,M,M,M,M,M,M,78.80,KCXP 230515Z AUTO 00000KT 10SM CLR 26/04 A3007 RMK AO2,M
RTS,2024-06-23 05:15,-119.8764,39.6682,1539.00,77.00,33.80,20.74,250.00,10.00,0.00,30.11,M,10.00,M,CLR,M,M,M,M,M,M,M,M,M,M,M,M,M,M,77.00,KRTS 230515Z AUTO 25010KT 10SM CLR 25/01 A3011 RMK AO2,M
MEV,2024-06-23 05:15,-119.7500,38.9963,1441.42,66.20,46.40,48.83,0.00,0.00,0.00,30.06,M,10.00,M,CLR,M,M,M,M,M,M,M,M,M,M,M,M,M,M,66.20,KMEV 230515Z AUTO 00000KT 10SM CLR 19/08 A3006 RMK AO2,M
BAM,2024-06-23 05:15,-116.8743,40.5990,1382.36,71.60,26.60,18.55,150.00,5.00,0.00,29.98,M,10.00,M,CLR,M,M,M,M,M,M,M,M,M,M,M,M,M,M,71.60,KBAM 230515Z AUTO 15005KT 10SM CLR 22/M03 A2998 RMK AO1,M
HTH,2024-06-23 05:15,-118.6315,38.5448,1282.89,86.00,41.00,20.54,350.00,9.00,0.00,29.98,M,10.00,M,CLR,M,M,M,M,M,M,M,M,M,M,M,M,M,M,82.86,KHTH 230515Z AUTO 35009KT 10SM CLR 30/05 A2998 RMK A01,M
10U,2024-06-23 05:15,-116.1876,41.9532,1637.00,64.40,35.60,34.22,140.00,7.00,0.00,30.02,M,10.00,M,CLR,M,M,M,M,M,M,M,M,M,M,M,M,M,M,64.40,K10U 230515Z AUTO 14007KT 10SM CLR 18/02 A3002 RMK AO2,M
TMT,2024-06-23 05:15,-117.1971,39.4643,1749.34,59.00,26.40,28.54,130.00,6.00,0.00,30.11,M,10.00,M,CLR,M,M,M,M,M,M,M,M,M,M,M,M,M,M,59.00,KTMT 230515Z AUTO 13006KT 10SM CLR 15/M03 A3011 RMK AO2 T01511031,M
BVU,2024-06-23 05:35,-114.8611,35.9475,671.00,95.00,41.00,15.49,0.00,0.00,0.00,29.87,M,10.00,M,CLR,M,M,M,M,M,M,M,M,M,M,M,M,M,M,90.70,KBVU 230535Z AUTO 00000KT 10SM CLR 35/05 A2987 RMK AO2,M
CXP,2024-06-23 05:35,-119.7326,39.1923,1431.00,77.00,39.20,25.67,320.00,5.00,0.00,30.07,M,10.00,M,CLR,M,M,M,M,M,M,M,M,M,M,M,M,M,M,77.00,KCXP 230535Z AUTO 32005KT 10SM CLR 25/04 A3007 RMK AO2,M
RTS,2024-06-23 05:35,-119.8764,39.6682,1539.00,73.40,35.60,25.13,250.00,6.00,0.00,30.11,M,10.00,M,CLR,M,M,M,M,M,M,M,M,M,M,M,M,M,M,73.40,KRTS 230535Z AUTO 25006KT 10SM CLR 23/02 A3011 RMK AO2,M
MEV,2024-06-23 05:35,-119.7500,38.9963,1441.42,66.20,44.60,45.60,80.00,5.00,0.00,30.06,M,10.00,M,CLR,M,M,M,M,M,M,M,M,M,M,M,M,M,M,66.20,KMEV 230535Z AUTO 08005KT 10SM CLR 19/07 A3006 RMK AO2,M
BAM,2024-06-23 05:35,-116.8743,40.5990,1382.36,68.00,26.60,20.98,160.00,6.00,0.00,29.98,M,10.00,M,CLR,M,M,M,M,M,M,M,M,M,M,M,M,M,M,68.00,KBAM 230535Z AUTO 16006KT 10SM CLR 20/M03 A2998 RMK AO1,M
HTH,2024-06-23 05:35,-118.6315,38.5448,1282.89,86.00,41.00,20.54,330.00,8.00,0.00,29.98,M,10.00,M,CLR,M,M,M,M,M,M,M,M,M,M,M,M,M,M,82.86,KHTH 230535Z AUTO 33008KT 10SM CLR 30/05 A2998 RMK A01,M
10U,2024-06-23 05:35,-116.1876,41.9532,1637.00,60.80,35.60,38.85,180.00,5.00,0.00,30.03,M,10.00,M,CLR,M,M,M,M,M,M,M,M,M,M,M,M,M,M,60.80,K10U 230535Z AUTO 18005KT 10SM CLR 16/02 A3003 RMK AO2,M
TMT,2024-06-23 05:35,-117.1971,39.4643,1749.34,60.80,27.00,27.43,170.00,3.00,0.00,30.12,M,10.00,M,CLR,M,M,M,M,M,M,M,M,M,M,M,M,M,M,60.80,KTMT 230535Z AUTO 17003KT 10SM CLR 16/M03 A3012 RMK AO2 T01601028,M
10U,2024-06-23 05:50,-116.1876,41.9532,1637.00,60.80,33.80,36.16,150.00,8.00,0.00,30.03,M,10.00,M,CLR,M,M,M,M,M,M,M,M,M,M,M,M,M,M,60.80,K10U 230550Z AUTO 15008KT 10SM CLR 16/01 A3003 RMK AO2,M
P68,2024-06-23 05:53,-116.0056,39.6014,1993.00,69.00,20.00,15.37,160.00,7.00,0.00,30.12,1010.10,M,M,M,M,M,M,M,M,M,M,M,M,M,M,M,M,M,69.00,KP68 230553Z AUTO 16007KT 21/M07 A3012 RMK AO1 SLP101 T02061067 10344 20183 53019,M
DRA,2024-06-23 05:53,-116.0278,36.6206,1009.00,88.00,37.00,16.49,60.00,3.00,0.00,29.94,1007.50,10.00,M,CLR,M,M,M,M,M,M,M,M,M,M,M,M,M,M,84.32,KDRA 230553Z AUTO 06003KT 10SM CLR 31/03 A2994 RMK AO2 SLP075 T03110028 10394 20306 51012,M
ELY,2024-06-23 05:53,-114.8453,39.2950,1909.00,72.00,21.00,14.48,190.00,9.00,0.00,30.17,1009.50,10.00,M,CLR,M,M,M,M,M,M,M,M,M,M,M,M,M,M,72.00,KELY 230553Z AUTO 19009KT 10SM CLR 22/M06 A3017 RMK AO2 SLP095 T02221061 10328 20200 51014,M
VGT,2024-06-23 05:53,-115.1933,36.2111,667.00,97.00,45.00,16.98,140.00,6.00,0.00,29.85,1009.00,10.00,M,CLR,M,M,M,M,M,M,M,M,M,M,M,M,M,M,93.04,KVGT 230553Z AUTO 14006KT 10SM CLR 36/07 A2985 RMK AO2 SLP090 T03610072 10428 20356 51020,M
LOL,2024-06-23 05:53,-118.5701,40.0684,1192.43,82.00,29.00,14.50,M,6.00,0.00,29.95,1009.00,10.00,M,CLR,M,M,M,M,M,M,M,M,M,M,M,27.00,310.00,2024-06-23 05:02,79.67,KLOL 230553Z AUTO VRB06KT 10SM CLR 28/M02 A2995 RMK AO2 PK WND 31027/0502 SLP090 T02781017 10372 20278 53020,M
BVU,2024-06-23 05:55,-114.8611,35.9475,671.00,95.00,42.80,16.60,230.00,4.00,0.00,29.87,M,10.00,M,CLR,M,M,M,M,M,M,M,M,M,M,M,M,M,M,90.86,KBVU 230555Z AUTO 23004KT 10SM CLR 35/06 A2987 RMK AO2,M
CXP,2024-06-23 05:55,-119.7326,39.1923,1431.00,75.20,39.20,27.26,110.00,4.00,0.00,30.07,M,10.00,M,CLR,M,M,M,M,M,M,M,M,M,M,M,M,M,M,75.20,KCXP 230555Z AUTO 11004KT 10SM CLR 24/04 A3007 RMK AO2,M
INS,2024-06-23 05:55,-115.6733,36.5872,955.00,M,M,M,20.00,4.00,0.00,M,M,10.00,M,M,M,M,M,M,M,M,M,M,M,M,M,M,M,M,M,KINS 230555Z AUTO 02004KT 10SM M M M RMK AO2 SLPNO RVRNO TSNO $,M
RNO,2024-06-23 05:55,-119.7711,39.4839,1341.00,82.00,45.00,27.24,250.00,4.00,0.00,30.05,1010.70,10.00,M,CLR,M,M,M,M,M,M,M,M,M,M,M,M,M,M,80.28,KRNO 230555Z 25004KT 10SM CLR 28/07 A3005 RMK AO2 SLP107 T02780072 10367 20278 51020,M
RTS,2024-06-23 05:55,-119.8764,39.6682,1539.00,69.80,35.60,28.39,270.00,7.00,0.00,30.12,M,10.00,M,CLR,M,M,M,M,M,M,M,M,M,M,M,M,M,M,69.80,KRTS 230555Z AUTO 27007KT 10SM CLR 21/02 A3012 RMK AO2,M
MEV,2024-06-23 05:55,-119.7500,38.9963,1441.42,66.20,44.60,45.60,70.00,11.00,0.00,30.06,M,10.00,M,CLR,M,M,M,M,M,M,M,M,M,M,M,M,M,M,66.20,KMEV 230555Z AUTO 07011KT 10SM CLR 19/07 A3006 RMK AO2,M
BAM,2024-06-23 05:55,-116.8743,40.5990,1382.36,66.20,26.60,22.33,170.00,6.00,0.00,29.98,M,10.00,M,CLR,M,M,M,M,M,M,M,M,M,M,M,M,M,M,66.20,KBAM 230555Z AUTO 17006KT 10SM CLR 19/M03 A2998 RMK AO1,M
HTH,2024-06-23 05:55,-118.6315,38.5448,1282.89,84.20,41.00,21.76,M,4.00,0.00,29.99,M,10.00,M,CLR,M,M,M,M,M,M,M,M,M,M,M,M,M,M,81.52,KHTH 230555Z AUTO VRB04KT 10SM CLR 29/05 A2999 RMK A01,M
TMT,2024-06-23 05:55,-117.1971,39.4643,1749.34,60.00,29.00,30.64,230.00,4.00,0.00,30.12,M,10.00,M,CLR,M,M,M,M,M,M,M,M,M,M,M,M,M,M,60.00,KTMT 230555Z AUTO 23004KT 10SM CLR 16/M02 A3012 RMK AO2 T01561016 10342 20151,M
LSV,2024-06-23 05:55,-115.0343,36.2362,570.00,100.20,42.40,13.95,180.00,12.00,0.00,29.80,1005.90,10.00,M,CLR,M,M,M,M,M,M,M,M,M,M,M,M,M,M,95.79,KLSV 230555Z AUTO 18012KT 10SM CLR 38/06 A2980 RMK AO2 SLP059 T03790058 10432 20363 52021 $,M
EKO,2024-06-23 05:56,-115.7860,40.8242,1367.00,70.00,35.00,27.54,340.00,4.00,0.00,30.02,1010.10,10.00,M,CLR,M,M,M,M,M,M,M,M,M,M,M,M,M,M,70.00,KEKO 230556Z AUTO 34004KT 10SM CLR 21/02 A3002 RMK AO2 SLP101 T02110017 10356 20172 53015,M
WMC,2024-06-23 05:56,-117.8072,40.9019,1315.00,85.00,24.00,10.70,260.00,14.00,0.00,29.97,1008.10,10.00,22.00,CLR,M,M,M,M,M,M,M,M,M,M,M,26.00,260.00,2024-06-23 05:19,81.50,KWMC 230556Z AUTO 26014G22KT 10SM CLR 29/M04 A2997 RMK AO2 PK WND 26026/0519 SLP081 T02941044 10378 20244 51019,M
NFL,2024-06-23 05:56,-118.7010,39.4166,1199.00,82.00,36.00,19.21,340.00,4.00,0.00,29.97,1012.10,10.00,M,CLR,M,M,M,M,M,M,M,M,M,M,M,M,M,M,79.83,KNFL 230556Z AUTO 34004KT 10SM CLR 28/02 A2997 RMK AO2 SLP121 T02780022 10389 20278 53024,M
HND,2024-06-23 05:56,-115.1344,35.9729,742.79,95.00,47.00,19.48,200.00,10.00,0.00,29.91,1010.50,10.00,M,CLR,M,M,M,M,M,M,M,M,M,M,M,M,M,M,91.37,KHND 230556Z AUTO 20010KT 10SM CLR 35/08 A2991 RMK AO2 SLP105 T03500083 10422 20350 51020,M
TPH,2024-06-23 05:56,-117.0904,38.0505,1654.00,69.00,19.00,14.72,360.00,5.00,0.00,30.12,1011.20,10.00,M,CLR,M,M,M,M,M,M,M,M,M,M,M,M,M,M,69.00,KTPH 230556Z AUTO 36005KT 10SM CLR 21/M07 A3012 RMK AO2 SLP112 T02061072 10344 20200 51015,M
LAS,2024-06-23 05:56,-115.1634,36.0719,663.00,99.00,45.00,15.98,180.00,6.00,0.00,29.87,1007.90,10.00,M,FEW,M,M,M,15000.00,M,M,M,M,M,M,M,M,M,M,95.00,KLAS 230556Z 18006KT 10SM FEW150 37/07 A2987 RMK AO2 SLP079 T03720072 10433 20372 $,M
BVU,2024-06-23 06:15,-114.8611,35.9475,671.00,96.80,42.80,15.71,190.00,7.00,0.00,29.87,M,10.00,M,CLR,M,M,M,M,M,M,M,M,M,M,M,M,M,M,92.57,KBVU 230615Z AUTO 19007KT 10SM CLR 36/06 A2987 RMK AO2,M
CXP,2024-06-23 06:15,-119.7326,39.1923,1431.00,71.60,41.00,33.00,60.00,7.00,0.00,30.08,M,10.00,M,CLR,M,M,M,M,M,M,M,M,M,M,M,M,M,M,71.60,KCXP 230615Z AUTO 06007KT 10SM CLR 22/05 A3008 RMK AO2,M
RTS,2024-06-23 06:15,-119.8764,39.6682,1539.00,69.80,33.80,26.43,340.00,5.00,0.00,30.12,M,10.00,M,CLR,M,M,M,M,M,M,M,M,M,M,M,M,M,M,69.80,KRTS 230615Z AUTO 34005KT 10SM CLR 21/01 A3012 RMK AO2,M
MEV,2024-06-23 06:15,-119.7500,38.9963,1441.42,68.00,42.80,40.00,80.00,7.00,0.00,30.07,M,10.00,M,CLR,M,M,M,M,M,M,M,M,M,M,M,M,M,M,68.00,KMEV 230615Z AUTO 08007KT 10SM CLR 20/06 A3007 RMK AO2,M
BAM,2024-06-23 06:15,-116.8743,40.5990,1382.36,66.20,26.60,22.33,220.00,4.00,0.00,29.99,M,10.00,M,CLR,M,M,M,M,M,M,M,M,M,M,M,M,M,M,66.20,KBAM 230615Z AUTO 22004KT 10SM CLR 19/M03 A2999 RMK AO1,M
HTH,2024-06-23 06:15,-118.6315,38.5448,1282.89,84.20,41.00,21.76,240.00,6.00,0.00,30.00,M,10.00,M,CLR,M,M,M,M,M,M,M,M,M,M,M,M,M,M,81.52,KHTH 230615Z AUTO 24006KT 10SM CLR 29/05 A3000 RMK A01,M
10U,2024-06-23 06:15,-116.1876,41.9532,1637.00,62.60,33.80,33.93,160.00,9.00,0.00,30.03,M,10.00,M,CLR,M,M,M,M,M,M,M,M,M,M,M,M,M,M,62.60,K10U 230615Z AUTO 16009KT 10SM CLR 17/01 A3003 RMK AO2,M
TMT,2024-06-23 06:15,-117.1971,39.4643,1749.34,56.00,24.00,28.77,240.00,3.00,0.00,30.12,M,10.00,M,CLR,M,M,M,M,M,M,M,M,M,M,M,M,M,M,56.00,KTMT 230615Z AUTO 24003KT 10SM CLR 13/M04 A3012 RMK AO2 T01331045,M
BVU,2024-06-23 06:35,-114.8611,35.9475,671.00,95.00,42.80,16.60,0.00,0.00,0.00,29.88,M,10.00,M,CLR,M,M,M,M,M,M,M,M,M,M,M,M,M,M,90.86,KBVU 230635Z AUTO 00000KT 10SM CLR 35/06 A2988 RMK AO2,M
CXP,2024-06-23 06:35,-119.7326,39.1923,1431.00,73.40,41.00,31.05,70.00,6.00,0.00,30.08,M,10.00,M,CLR,M,M,M,M,M,M,M,M,M,M,M,M,M,M,73.40,KCXP 230635Z AUTO 07006KT 10SM CLR 23/05 A3008 RMK AO2,M
RTS,2024-06-23 06:35,-119.8764,39.6682,1539.00,66.20,32.00,27.83,310.00,6.00,0.00,30.12,M,10.00,M,CLR,M,M,M,M,M,M,M,M,M,M,M,M,M,M,66.20,KRTS 230635Z AUTO 31006KT 10SM CLR 19/00 A3012 RMK AO2,M
MEV,2024-06-23 06:35,-119.7500,38.9963,1441.42,64.40,41.00,42.28,80.00,8.00,0.00,30.07,M,10.00,M,CLR,M,M,M,M,M,M,M,M,M,M,M,M,M,M,64.40,KMEV 230635Z AUTO 08008KT 10SM CLR 18/05 A3007 RMK AO2,M
BAM,2024-06-23 06:35,-116.8743,40.5990,1382.36,64.40,26.60,23.77,0.00,0.00,0.00,30.00,M,10.00,M,CLR,M,M,M,M,M,M,M,M,M,M,M,M,M,M,64.40,KBAM 230635Z AUTO 00000KT 10SM CLR 18/M03 A3000 RMK AO1,M
HTH,2024-06-23 06:35,-118.6315,38.5448,1282.89,82.40,41.00,23.07,260.00,6.00,0.00,30.01,M,10.00,M,CLR,M,M,M,M,M,M,M,M,M,M,M,M,M,M,80.29,KHTH 230635Z AUTO 26006KT 10SM CLR 28/05 A3001 RMK A01,M
10U,2024-06-23 06:35,-116.1876,41.9532,1637.00,62.60,33.80,33.93,140.00,8.00,0.00,30.03,M,10.00,M,CLR,M,M,M,M,M,M,M,M,M,M,M,M,M,M,62.60,K10U 230635Z AUTO 14008KT 10SM CLR 17/01 A3003 RMK AO2,M
TMT,2024-06-23 06:35,-117.1971,39.4643,1749.34,59.00,29.50,32.41,230.00,6.00,0.00,30.13,M,10.00,M,CLR,M,M,M,M,M,M,M,M,M,M,M,M,M,M,59.00,KTMT 230635Z AUTO 23006KT 10SM CLR 15/M01 A3013 RMK AO2 T01501014,M
P68,2024-06-23 06:53,-116.0056,39.6014,1993.00,63.00,25.00,23.36,130.00,9.00,0.00,30.14,1010.80,M,M,M,M,M,M,M,M,M,M,M,M,M,M,M,M,M,63.00,KP68 230653Z AUTO 13009KT 17/M04 A3014 RMK AO1 SLP108 T01721039,M
DRA,2024-06-23 06:53,-116.0278,36.6206,1009.00,93.00,39.00,15.24,210.00,10.00,0.00,29.95,1007.80,10.00,14.00,CLR,M,M,M,M,M,M,M,M,M,M,M,M,M,M,88.73,KDRA 230653Z AUTO 21010G14KT 10SM CLR 34/04 A2995 RMK AO2 SLP078 T03390039,M
ELY,2024-06-23 06:53,-114.8453,39.2950,1909.00,70.00,21.00,15.50,220.00,7.00,0.00,30.19,1009.90,10.00,15.00,CLR,M,M,M,M,M,M,M,M,M,M,M,M,M,M,70.00,KELY 230653Z AUTO 22007G15KT 10SM CLR 21/M06 A3019 RMK AO2 SLP099 T02111061,M
VGT,2024-06-23 06:53,-115.1933,36.2111,667.00,97.00,46.00,17.64,200.00,7.00,0.00,29.86,1009.40,10.00,M,CLR,M,M,M,M,M,M,M,M,M,M,M,M,M,M,93.19,KVGT 230653Z AUTO 20007KT 10SM CLR 36/08 A2986 RMK AO2 SLP094 T03610078,M
LOL,2024-06-23 06:53,-118.5701,40.0684,1192.43,78.00,32.00,18.67,120.00,4.00,0.00,29.97,1009.70,10.00,M,CLR,M,M,M,M,M,M,M,M,M,M,M,M,M,M,78.00,KLOL 230653Z AUTO 12004KT 10SM CLR 26/00 A2997 RMK AO2 SLP097 T02560000,M
BVU,2024-06-23 06:55,-114.8611,35.9475,671.00,91.40,46.40,21.29,0.00,0.00,0.00,29.88,M,10.00,M,CLR,M,M,M,M,M,M,M,M,M,M,M,M,M,M,87.86,KBVU 230655Z AUTO 00000KT 10SM CLR 33/08 A2988 RMK AO2,M
CXP,2024-06-23 06:55,-119.7326,39.1923,1431.00,75.20,39.20,27.26,40.00,7.00,0.00,30.08,M,10.00,M,CLR,M,M,M,M,M,M,M,M,M,M,M,M,M,M,75.20,KCXP 230655Z AUTO 04007KT 10SM CLR 24/04 A3008 RMK AO2,M
RNO,2024-06-23 06:55,-119.7711,39.4839,1341.00,78.00,43.00,28.77,M,3.00,0.00,30.05,1010.80,10.00,M,CLR,M,M,M,M,M,M,M,M,M,M,M,M,M,M,78.00,KRNO 230655Z VRB03KT 10SM CLR 26/06 A3005 RMK AO2 SLP108 T02560061,M
RTS,2024-06-23 06:55,-119.8764,39.6682,1539.00,64.40,32.00,29.63,280.00,9.00,0.00,30.12,M,10.00,M,CLR,M,M,M,M,M,M,M,M,M,M,M,M,M,M,64.40,KRTS 230655Z AUTO 28009KT 10SM CLR 18/00 A3012 RMK AO2,M
MEV,2024-06-23 06:55,-119.7500,38.9963,1441.42,62.60,41.00,45.04,90.00,9.00,0.00,30.07,M,10.00,M,CLR,M,M,M,M,M,M,M,M,M,M,M,M,M,M,62.60,KMEV 230655Z AUTO 09009KT 10SM CLR 17/05 A3007 RMK AO2,M
BAM,2024-06-23 06:55,-116.8743,40.5990,1382.36,64.40,24.80,22.06,140.00,6.00,0.00,30.00,M,10.00,M,CLR,M,M,M,M,M,M,M,M,M,M,M,M,M,M,64.40,KBAM 230655Z AUTO 14006KT 10SM CLR 18/M04 A3000 RMK AO1,M
HTH,2024-06-23 06:55,-118.6315,38.5448,1282.89,82.40,41.00,23.07,290.00,6.00,0.00,30.01,M,10.00,M,CLR,M,M,M,M,M,M,M,M,M,M,M,M,M,M,80.29,KHTH 230655Z AUTO 29006KT 10SM CLR 28/05 A3001 RMK A01,M
10U,2024-06-23 06:55,-116.1876,41.9532,1637.00,60.80,33.80,36.16,140.00,7.00,0.00,30.03,M,10.00,M,CLR,M,M,M,M,M,M,M,M,M,M,M,M,M,M,60.80,K10U 230655Z AUTO 14007KT 10SM CLR 16/01 A3003 RMK AO2,M
TMT,2024-06-23 06:55,-117.1971,39.4643,1749.34,58.50,27.50,30.40,270.00,7.00,0.00,30.14,M,10.00,M,CLR,M,M,M,M,M,M,M,M,M,M,M,M,M,M,58.50,KTMT 230655Z AUTO 27007KT 10SM CLR 15/M02 A3014 RMK AO2 T01471025,M
INS,2024-06-23 06:55,-115.6733,36.5872,955.00,M,M,M,20.00,5.00,0.00,M,M,10.00,M,M,M,M,M,M,M,M,M,M,M,M,M,M,M,M,M,KINS 230655Z AUTO 02005KT 10SM M M M RMK AO2 SLPNO RVRNO TSNO $,M
LSV,2024-06-23 06:55,-115.0343,36.2362,570.00,98.00,40.60,13.91,190.00,9.00,0.00,29.81,1006.10,10.00,M,CLR,M,M,M,M,M,M,M,M,M,M,M,M,M,M,93.48,KLSV 230655Z AUTO 19009KT 10SM CLR 37/05 A2981 RMK AO2 SLP061 T03670048 $,M
EKO,2024-06-23 06:56,-115.7860,40.8242,1367.00,66.00,31.00,26.92,80.00,3.00,0.00,30.03,1010.10,10.00,M,CLR,M,M,M,M,M,M,M,M,M,M,M,M,M,M,66.00,KEKO 230656Z AUTO 08003KT 10SM CLR 19/M01 A3003 RMK AO2 SLP101 T01891006,M
WMC,2024-06-23 06:56,-117.8072,40.9019,1315.00,82.00,23.00,11.31,270.00,13.00,0.00,29.98,1008.60,10.00,20.00,CLR,M,M,M,M,M,M,M,M,M,M,M,27.00,260.00,2024-06-23 06:03,79.40,KWMC 230656Z AUTO 27013G20KT 10SM CLR 28/M05 A2998 RMK AO2 PK WND 26027/0603 SLP086 T02781050,M
HND,2024-06-23 06:56,-115.1344,35.9729,742.79,93.00,46.00,19.95,220.00,11.00,0.00,29.92,1010.90,10.00,M,CLR,M,M,M,M,M,M,M,M,M,M,M,M,M,M,89.31,KHND 230656Z AUTO 22011KT 10SM CLR 34/08 A2992 RMK AO2 SLP109 T03390078 404280267,M
TPH,2024-06-23 06:56,-117.0904,38.0505,1654.00,64.00,19.00,17.51,340.00,5.00,0.00,30.13,1011.70,10.00,M,CLR,M,M,M,M,M,M,M,M,M,M,M,M,M,M,64.00,KTPH 230656Z AUTO 34005KT 10SM CLR 18/M07 A3013 RMK AO2 SLP117 T01781072,M
LAS,2024-06-23 06:56,-115.1634,36.0719,663.00,98.00,45.00,16.47,200.00,11.00,0.00,29.88,1008.20,10.00,17.00,CLR,M,M,M,M,M,M,M,M,M,M,M,M,M,M,94.02,KLAS 230656Z 20011G17KT 10SM CLR 37/07 A2988 RMK AO2 SLP082 T03670072 $,M
NFL,2024-06-23 06:56,-118.7010,39.4166,1199.00,75.00,35.00,23.26,10.00,3.00,0.00,29.99,1012.60,10.00,M,CLR,M,M,M,M,M,M,M,M,M,M,M,M,M,M,75.00,KNFL 230656Z AUTO 01003KT 10SM CLR 24/02 A2999 RMK AO2 SLP126 T02390017,M
BVU,2024-06-23 07:15,-114.8611,35.9475,671.00,93.20,42.80,17.55,0.00,0.00,0.00,29.88,M,10.00,M,CLR,M,M,M,M,M,M,M,M,M,M,M,M,M,M,89.17,KBVU 230715Z AUTO 00000KT 10SM CLR 34/06 A2988 RMK AO2,M
CXP,2024-06-23 07:15,-119.7326,39.1923,1431.00,75.20,39.20,27.26,0.00,0.00,0.00,30.09,M,10.00,M,CLR,M,M,M,M,M,M,M,M,M,M,M,M,M,M,75.20,KCXP 230715Z AUTO 00000KT 10SM CLR 24/04 A3009 RMK AO2,M
RTS,2024-06-23 07:15,-119.8764,39.6682,1539.00,64.40,33.80,31.85,270.00,8.00,0.00,30.12,M,10.00,M,CLR,M,M,M,M,M,M,M,M,M,M,M,M,M,M,64.40,KRTS 230715Z AUTO 27008KT 10SM CLR 18/01 A3012 RMK AO2,M
MEV,2024-06-23 07:15,-119.7500,38.9963,1441.42,64.40,39.20,39.43,90.00,7.00,0.00,30.07,M,10.00,M,CLR,M,M,M,M,M,M,M,M,M,M,M,M,M,M,64.40,KMEV 230715Z AUTO 09007KT 10SM CLR 18/04 A3007 RMK AO2,M
BAM,2024-06-23 07:15,-116.8743,40.5990,1382.36,64.40,24.80,22.06,140.00,4.00,0.00,30.00,M,10.00,M,CLR,M,M,M,M,M,M,M,M,M,M,M,M,M,M,64.40,KBAM 230715Z AUTO 14004KT 10SM CLR 18/M04 A3000 RMK AO1,M
HTH,2024-06-23 07:15,-118.6315,38.5448,1282.89,80.60,41.00,24.46,320.00,6.00,0.00,30.02,M,10.00,M,CLR,M,M,M,M,M,M,M,M,M,M,M,M,M,M,79.20,KHTH 230715Z AUTO 32006KT 10SM CLR 27/05 A3002 RMK A01,M
10U,2024-06-23 07:15,-116.1876,41.9532,1637.00,55.40,33.80,43.90,160.00,6.00,0.00,30.03,M,10.00,M,CLR,M,M,M,M,M,M,M,M,M,M,M,M,M,M,55.40,K10U 230715Z AUTO 16006KT 10SM CLR 13/01 A3003 RMK AO2,M
TMT,2024-06-23 07:15,-117.1971,39.4643,1749.34,56.00,25.00,30.00,200.00,8.00,0.00,30.14,M,10.00,M,CLR,M,M,M,M,M,M,M,M,M,M,M,M,M,M,56.00,KTMT 230715Z AUTO 20008KT 10SM CLR 13/M04 A3014 RMK AO2 T01331039,M
HTH,2024-06-23 07:30,-118.6315,38.5448,1282.89,M,M,M,M,M,0.00,30.02,M,M,M,M,M,M,M,M,M,M,M,M,M,M,M,M,M,M,M,KHTH 230730Z AUTO A3002 RMK A01,M
10U,2024-06-23 07:30,-116.1876,41.9532,1637.00,57.20,33.80,41.13,160.00,6.00,0.00,30.03,M,10.00,M,CLR,M,M,M,M,M,M,M,M,M,M,M,M,M,M,57.20,K10U 230730Z AUTO 16006KT 10SM CLR 14/01 A3003 RMK AO2,M
BVU,2024-06-23 07:35,-114.8611,35.9475,671.00,95.00,44.60,17.78,210.00,9.00,0.00,29.88,M,10.00,M,CLR,M,M,M,M,M,M,M,M,M,M,M,M,M,M,91.06,KBVU 230735Z AUTO 21009KT 10SM CLR 35/07 A2988 RMK AO2,M
CXP,2024-06-23 07:35,-119.7326,39.1923,1431.00,71.60,39.20,30.77,0.00,0.00,0.00,30.08,M,10.00,M,CLR,M,M,M,M,M,M,M,M,M,M,M,M,M,M,71.60,KCXP 230735Z AUTO 00000KT 10SM CLR 22/04 A3008 RMK AO2,M
RTS,2024-06-23 07:35,-119.8764,39.6682,1539.00,62.60,33.80,33.93,310.00,7.00,0.00,30.12,M,10.00,M,CLR,M,M,M,M,M,M,M,M,M,M,M,M,M,M,62.60,KRTS 230735Z AUTO 31007KT 10SM CLR 17/01 A3012 RMK AO2,M
MEV,2024-06-23 07:35,-119.7500,38.9963,1441.42,62.60,41.00,45.04,90.00,10.00,0.00,30.07,M,10.00,M,CLR,M,M,M,M,M,M,M,M,M,M,M,M,M,M,62.60,KMEV 230735Z AUTO 09010KT 10SM CLR 17/05 A3007 RMK AO2,M
BAM,2024-06-23 07:35,-116.8743,40.5990,1382.36,64.40,24.80,22.06,160.00,4.00,0.00,30.01,M,10.00,M,CLR,M,M,M,M,M,M,M,M,M,M,M,M,M,M,64.40,KBAM 230735Z AUTO 16004KT 10SM CLR 18/M04 A3001 RMK AO1,M
TMT,2024-06-23 07:35,-117.1971,39.4643,1749.34,54.00,23.00,29.67,130.00,5.00,0.00,30.14,M,10.00,M,CLR,M,M,M,M,M,M,M,M,M,M,M,M,M,M,54.00,KTMT 230735Z AUTO 13005KT 10SM CLR 12/M05 A3014 RMK AO2 T01221049,M
P68,2024-06-23 07:53,-116.0056,39.6014,1993.00,63.00,22.00,20.60,160.00,12.00,0.00,30.14,1011.00,M,M,M,M,M,M,M,M,M,M,M,M,M,M,M,M,M,63.00,KP68 230753Z AUTO 16012KT 17/M06 A3014 RMK AO1 SLP110 T01721056 403500106,M
DRA,2024-06-23 07:53,-116.0278,36.6206,1009.00,85.00,37.00,18.14,360.00,6.00,0.00,29.95,1008.00,10.00,M,CLR,M,M,M,M,M,M,M,M,M,M,M,M,M,M,81.96,KDRA 230753Z AUTO 36006KT 10SM CLR 29/03 A2995 RMK AO2 SLP080 T02940028 404000183,M
ELY,2024-06-23 07:53,-114.8453,39.2950,1909.00,62.00,23.00,22.26,190.00,5.00,0.00,30.19,1010.80,10.00,M,CLR,M,M,M,M,M,M,M,M,M,M,M,M,M,M,62.00,KELY 230753Z AUTO 19005KT 10SM CLR 17/M05 A3019 RMK AO2 SLP108 T01671050 403330078,M
VGT,2024-06-23 07:53,-115.1933,36.2111,667.00,95.00,46.00,18.76,190.00,8.00,0.00,29.87,1009.60,10.00,M,CLR,M,M,M,M,M,M,M,M,M,M,M,M,M,M,91.23,KVGT 230753Z AUTO 19008KT 10SM CLR 35/08 A2987 RMK AO2 SLP096 T03500078 404330250,M
LOL,2024-06-23 07:53,-118.5701,40.0684,1192.43,67.00,32.00,27.07,M,3.00,0.00,29.98,1010.50,10.00,M,CLR,M,M,M,M,M,M,M,M,M,M,M,M,M,M,67.00,KLOL 230753Z AUTO VRB03KT 10SM CLR 19/00 A2998 RMK AO2 SLP105 T01940000 403780078,M
BVU,2024-06-23 07:55,-114.8611,35.9475,671.00,93.20,42.80,17.55,260.00,7.00,0.00,29.88,M,10.00,M,CLR,M,M,M,M,M,M,M,M,M,M,M,M,M,M,89.17,KBVU 230755Z AUTO 26007KT 10SM CLR 34/06 A2988 RMK AO2,M
CXP,2024-06-23 07:55,-119.7326,39.1923,1431.00,69.80,41.00,35.09,90.00,4.00,0.00,30.08,M,10.00,M,CLR,M,M,M,M,M,M,M,M,M,M,M,M,M,M,69.80,KCXP 230755Z AUTO 09004KT 10SM CLR 21/05 A3008 RMK AO2,M
RNO,2024-06-23 07:55,-119.7711,39.4839,1341.00,74.00,43.00,32.87,180.00,7.00,0.00,30.06,1010.90,10.00,M,CLR,M,M,M,M,M,M,M,M,M,M,M,M,M,M,74.00,KRNO 230755Z 18007KT 10SM CLR 23/06 A3006 RMK AO2 SLP109 T02330061 403830178,M
RTS,2024-06-23 07:55,-119.8764,39.6682,1539.00,59.00,30.20,33.35,320.00,6.00,0.00,30.12,M,10.00,M,CLR,M,M,M,M,M,M,M,M,M,M,M,M,M,M,59.00,KRTS 230755Z AUTO 32006KT 10SM CLR 15/M01 A3012 RMK AO2,M
MEV,2024-06-23 07:55,-119.7500,38.9963,1441.42,62.60,39.20,42.00,90.00,9.00,0.00,30.07,M,10.00,M,CLR,M,M,M,M,M,M,M,M,M,M,M,M,M,M,62.60,KMEV 230755Z AUTO 09009KT 10SM CLR 17/04 A3007 RMK AO2,M
BAM,2024-06-23 07:55,-116.8743,40.5990,1382.36,64.40,23.00,20.46,0.00,0.00,0.00,30.01,M,10.00,M,CLR,M,M,M,M,M,M,M,M,M,M,M,M,M,M,64.40,KBAM 230755Z AUTO 00000KT 10SM CLR 18/M05 A3001 RMK AO1,M
HTH,2024-06-23 07:55,-118.6315,38.5448,1282.89,77.00,41.00,27.53,0.00,0.00,0.00,30.03,M,10.00,M,M,M,M,M,M,M,M,M,M,M,M,M,M,M,M,77.00,KHTH 230755Z AUTO 00000KT 10SM 25/05 A3003 RMK A01,M
10U,2024-06-23 07:55,-116.1876,41.9532,1637.00,59.00,30.20,33.35,240.00,5.00,0.00,30.05,M,10.00,M,CLR,M,M,M,M,M,M,M,M,M,M,M,M,M,M,59.00,K10U 230755Z AUTO 24005KT 10SM CLR 15/M01 A3005 RMK AO2,M
TMT,2024-06-23 07:55,-117.1971,39.4643,1749.34,52.70,24.60,33.28,0.00,0.00,0.00,30.15,M,10.00,M,CLR,M,M,M,M,M,M,M,M,M,M,M,M,M,M,52.70,KTMT 230755Z AUTO 00000KT 10SM CLR 12/M04 A3015 RMK AO2 T01151041 403460021,M
INS,2024-06-23 07:55,-115.6733,36.5872,955.00,M,M,M,0.00,0.00,0.00,M,M,10.00,M,M,M,M,M,M,M,M,M,M,M,M,M,M,M,M,M,KINS 230755Z AUTO 00000KT 10SM M M M RMK AO2 SLPNO RVRNO TSNO $,M
LSV,2024-06-23 07:55,-115.0343,36.2362,570.00,96.00,41.00,15.02,200.00,5.00,0.00,29.82,1006.60,10.00,M,CLR,M,M,M,M,M,M,M,M,M,M,M,M,M,M,91.64,KLSV 230755Z AUTO 20005KT 10SM CLR 36/05 A2982 RMK AO2 SLP066 T03550049 404330239 $,M
EKO,2024-06-23 07:56,-115.7860,40.8242,1367.00,59.00,38.00,45.53,250.00,3.00,0.00,30.03,1010.70,10.00,M,CLR,M,M,M,M,M,M,M,M,M,M,M,M,M,M,59.00,KEKO 230756Z AUTO 25003KT 10SM CLR 15/03 A3003 RMK AO2 SLP107 T01500033 403560094,M
WMC,2024-06-23 07:56,-117.8072,40.9019,1315.00,76.00,28.00,16.95,330.00,6.00,0.00,29.99,1009.20,10.00,M,CLR,M,M,M,M,M,M,M,M,M,M,M,M,M,M,76.00,KWMC 230756Z AUTO 33006KT 10SM CLR 24/M02 A2999 RMK AO2 SLP092 T02441022 403830078,M
NFL,2024-06-23 07:56,-118.7010,39.4166,1199.00,75.00,34.00,22.35,110.00,3.00,0.00,30.00,1012.90,10.00,M,CLR,M,M,M,M,M,M,M,M,M,M,M,M,M,M,75.00,KNFL 230756Z AUTO 11003KT 10SM CLR 24/01 A3000 RMK AO2 SLP129 T02390011 403890139,M
HND,2024-06-23 07:56,-115.1344,35.9729,742.79,89.00,47.00,23.49,190.00,5.00,0.00,29.93,1011.10,10.00,M,CLR,M,M,M,M,M,M,M,M,M,M,M,M,M,M,85.77,KHND 230756Z AUTO 19005KT 10SM CLR 32/08 A2993 RMK AO2 SLP111 T03170083,M
TPH,2024-06-23 07:56,-117.0904,38.0505,1654.00,63.00,20.00,18.93,360.00,6.00,0.00,30.13,1011.90,10.00,M,CLR,M,M,M,M,M,M,M,M,M,M,M,M,M,M,63.00,KTPH 230756Z AUTO 36006KT 10SM CLR 17/M07 A3013 RMK AO2 SLP119 T01721067 403440133,M
LAS,2024-06-23 07:56,-115.1634,36.0719,663.00,96.00,46.00,18.19,190.00,7.00,0.00,29.89,1008.50,10.00,M,CLR,M,M,M,M,M,M,M,M,M,M,M,M,M,M,92.21,KLAS 230756Z 19007KT 10SM CLR 36/08 A2989 RMK AO2 SLP085 T03560078 404330283 $,M
BVU,2024-06-23 08:15,-114.8611,35.9475,671.00,91.40,42.80,18.56,210.00,5.00,0.00,29.88,M,10.00,M,CLR,M,M,M,M,M,M,M,M,M,M,M,M,M,M,87.52,KBVU 230815Z AUTO 21005KT 10SM CLR 33/06 A2988 RMK AO2,M
CXP,2024-06-23 08:15,-119.7326,39.1923,1431.00,71.60,39.20,30.77,0.00,0.00,0.00,30.09,M,10.00,M,CLR,M,M,M,M,M,M,M,M,M,M,M,M,M,M,71.60,KCXP 230815Z AUTO 00000KT 10SM CLR 22/04 A3009 RMK AO2,M
RTS,2024-06-23 08:15,-119.8764,39.6682,1539.00,57.20,30.20,35.57,360.00,7.00,0.00,30.12,M,10.00,M,CLR,M,M,M,M,M,M,M,M,M,M,M,M,M,M,57.20,KRTS 230815Z AUTO 36007KT 10SM CLR 14/M01 A3012 RMK AO2,M
MEV,2024-06-23 08:15,-119.7500,38.9963,1441.42,62.60,39.20,42.00,90.00,7.00,0.00,30.07,M,10.00,M,CLR,M,M,M,M,M,M,M,M,M,M,M,M,M,M,62.60,KMEV 230815Z AUTO 09007KT 10SM CLR 17/04 A3007 RMK AO2,M
BAM,2024-06-23 08:15,-116.8743,40.5990,1382.36,64.40,24.80,22.06,170.00,3.00,0.00,30.01,M,10.00,M,CLR,M,M,M,M,M,M,M,M,M,M,M,M,M,M,64.40,KBAM 230815Z AUTO 17003KT 10SM CLR 18/M04 A3001 RMK AO1,M
HTH,2024-06-23 08:15,-118.6315,38.5448,1282.89,77.00,44.60,31.62,360.00,5.00,0.00,30.03,M,10.00,M,CLR,M,M,M,M,M,M,M,M,M,M,M,M,M,M,77.00,KHTH 230815Z AUTO 36005KT 10SM CLR 25/07 A3003 RMK A01,M
10U,2024-06-23 08:15,-116.1876,41.9532,1637.00,59.00,30.20,33.35,200.00,9.00,0.00,30.05,M,10.00,M,CLR,M,M,M,M,M,M,M,M,M,M,M,M,M,M,59.00,K10U 230815Z AUTO 20009KT 10SM CLR 15/M01 A3005 RMK AO2,M
TMT,2024-06-23 08:15,-117.1971,39.4643,1749.34,50.00,25.00,37.39,90.00,3.00,0.00,30.15,M,10.00,M,CLR,M,M,M,M,M,M,M,M,M,M,M,M,M,M,50.00,KTMT 230815Z AUTO 09003KT 10SM CLR 10/M04 A3015 RMK AO2 T01001038,M
BVU,2024-06-23 08:35,-114.8611,35.9475,671.00,91.40,44.60,19.89,210.00,5.00,0.00,29.88,M,10.00,M,CLR,M,M,M,M,M,M,M,M,M,M,M,M,M,M,87.68,KBVU 230835Z AUTO 21005KT 10SM CLR 33/07 A2988 RMK AO2,M
CXP,2024-06-23 08:35,-119.7326,39.1923,1431.00,69.80,39.20,32.72,70.00,5.00,0.00,30.08,M,10.00,M,CLR,M,M,M,M,M,M,M,M,M,M,M,M,M,M,69.80,KCXP 230835Z AUTO 07005KT 10SM CLR 21/04 A3008 RMK AO2,M
RTS,2024-06-23 08:35,-119.8764,39.6682,1539.00,59.00,30.20,33.35,340.00,6.00,0.00,30.12,M,10.00,M,CLR,M,M,M,M,M,M,M,M,M,M,M,M,M,M,59.00,KRTS 230835Z AUTO 34006KT 10SM CLR 15/M01 A3012 RMK AO2,M
MEV,2024-06-23 08:35,-119.7500,38.9963,1441.42,64.40,39.20,39.43,80.00,8.00,0.00,30.07,M,10.00,M,CLR,M,M,M,M,M,M,M,M,M,M,M,M,M,M,64.40,KMEV 230835Z AUTO 08008KT 10SM CLR 18/04 A3007 RMK AO2,M
BAM,2024-06-23 08:35,-116.8743,40.5990,1382.36,64.40,26.60,23.77,210.00,3.00,0.00,30.03,M,10.00,M,CLR,M,M,M,M,M,M,M,M,M,M,M,M,M,M,64.40,KBAM 230835Z AUTO 21003KT 10SM CLR 18/M03 A3003 RMK AO1,M
HTH,2024-06-23 08:35,-118.6315,38.5448,1282.89,77.00,42.80,29.51,340.00,8.00,0.00,30.03,M,10.00,M,CLR,M,M,M,M,M,M,M,M,M,M,M,M,M,M,77.00,KHTH 230835Z AUTO 34008KT 10SM CLR 25/06 A3003 RMK A01,M
10U,2024-06-23 08:35,-116.1876,41.9532,1637.00,57.20,30.20,35.57,150.00,6.00,0.00,30.05,M,10.00,M,CLR,M,M,M,M,M,M,M,M,M,M,M,M,M,M,57.20,K10U 230835Z AUTO 15006KT 10SM CLR 14/M01 A3005 RMK AO2,M
TMT,2024-06-23 08:35,-117.1971,39.4643,1749.34,50.00,25.30,37.86,0.00,0.00,0.00,30.15,M,10.00,M,CLR,M,M,M,M,M,M,M,M,M,M,M,M,M,M,50.00,KTMT 230835Z AUTO 00000KT 10SM CLR 10/M04 A3015 RMK AO2 T01001037,M
P68,2024-06-23 08:53,-116.0056,39.6014,1993.00,63.00,21.00,19.75,210.00,3.00,0.00,30.14,1010.70,M,M,M,M,M,M,M,M,M,M,M,M,M,M,M,M,M,63.00,KP68 230853Z AUTO 21003KT 17/M06 A3014 RMK AO1 SLP107 T01721061 51005,M
DRA,2024-06-23 08:53,-116.0278,36.6206,1009.00,88.00,33.00,14.06,0.00,0.00,0.00,29.95,1007.90,10.00,M,CLR,M,M,M,M,M,M,M,M,M,M,M,M,M,M,84.25,KDRA 230853Z AUTO 00000KT 10SM CLR 31/01 A2995 RMK AO2 SLP079 T03110006 51005,M
ELY,2024-06-23 08:53,-114.8453,39.2950,1909.00,63.00,23.00,21.49,M,5.00,0.00,30.19,1010.40,10.00,M,CLR,M,M,M,M,M,M,M,M,M,M,M,M,M,M,63.00,KELY 230853Z AUTO VRB05KT 10SM CLR 17/M05 A3019 RMK AO2 SLP104 T01721050 50003,M
VGT,2024-06-23 08:53,-115.1933,36.2111,667.00,94.00,46.00,19.34,190.00,5.00,0.00,29.87,1009.50,10.00,M,CLR,M,M,M,M,M,M,M,M,M,M,M,M,M,M,90.27,KVGT 230853Z AUTO 19005KT 10SM CLR 34/08 A2987 RMK AO2 SLP095 T03440078 50005,M
LOL,2024-06-23 08:53,-118.5701,40.0684,1192.43,65.00,33.00,30.21,0.00,0.00,0.00,30.00,1010.90,10.00,M,CLR,M,M,M,M,M,M,M,M,M,M,M,M,M,M,65.00,KLOL 230853Z AUTO 00000KT 10SM CLR 18/01 A3000 RMK AO2 SLP109 T01830006 51014,M
BVU,2024-06-23 08:55,-114.8611,35.9475,671.00,87.80,50.00,27.29,30.00,6.00,0.00,29.88,M,10.00,M,CLR,M,M,M,M,M,M,M,M,M,M,M,M,M,M,85.11,KBVU 230855Z AUTO 03006KT 10SM CLR 31/10 A2988 RMK AO2,M
CXP,2024-06-23 08:55,-119.7326,39.1923,1431.00,68.00,37.40,32.43,0.00,0.00,0.00,30.08,M,10.00,M,CLR,M,M,M,M,M,M,M,M,M,M,M,M,M,M,68.00,KCXP 230855Z AUTO 00000KT 10SM CLR 20/03 A3008 RMK AO2,M
INS,2024-06-23 08:55,-115.6733,36.5872,955.00,M,M,M,0.00,0.00,0.00,M,M,10.00,M,M,M,M,M,M,M,M,M,M,M,M,M,M,M,M,M,KINS 230855Z AUTO 00000KT 10SM M M M RMK AO2 SLPNO RVRNO TSNO $,M
RNO,2024-06-23 08:55,-119.7711,39.4839,1341.00,75.00,42.00,30.59,0.00,0.00,0.00,30.06,1010.70,10.00,M,CLR,M,M,M,M,M,M,M,M,M,M,M,M,M,M,75.00,KRNO 230855Z 00000KT 10SM CLR 24/06 A3006 RMK AO2 SLP107 T02390056 51003,M
RTS,2024-06-23 08:55,-119.8764,39.6682,1539.00,59.00,30.20,33.35,350.00,6.00,0.00,30.12,M,10.00,M,CLR,M,M,M,M,M,M,M,M,M,M,M,M,M,M,59.00,KRTS 230855Z AUTO 35006KT 10SM CLR 15/M01 A3012 RMK AO2,M
MEV,2024-06-23 08:55,-119.7500,38.9963,1441.42,60.80,39.20,44.76,90.00,9.00,0.00,30.07,M,10.00,M,CLR,M,M,M,M,M,M,M,M,M,M,M,M,M,M,60.80,KMEV 230855Z AUTO 09009KT 10SM CLR 16/04 A3007 RMK AO2,M
BAM,2024-06-23 08:55,-116.8743,40.5990,1382.36,60.80,26.60,26.98,220.00,3.00,0.00,30.03,M,10.00,M,CLR,M,M,M,M,M,M,M,M,M,M,M,M,M,M,60.80,KBAM 230855Z AUTO 22003KT 10SM CLR 16/M03 A3003 RMK AO1,M
HTH,2024-06-23 08:55,-118.6315,38.5448,1282.89,75.20,42.80,31.34,330.00,6.00,0.00,30.03,M,10.00,M,CLR,M,M,M,M,M,M,M,M,M,M,M,M,M,M,75.20,KHTH 230855Z AUTO 33006KT 10SM CLR 24/06 A3003 RMK A01,M
10U,2024-06-23 08:55,-116.1876,41.9532,1637.00,55.40,32.00,40.84,0.00,0.00,0.00,30.05,M,10.00,M,CLR,M,M,M,M,M,M,M,M,M,M,M,M,M,M,55.40,K10U 230855Z AUTO 00000KT 10SM CLR 13/M00 A3005 RMK AO2,M
TMT,2024-06-23 08:55,-117.1971,39.4643,1749.34,48.00,23.70,38.16,0.00,0.00,0.00,30.15,M,10.00,M,CLR,M,M,M,M,M,M,M,M,M,M,M,M,M,M,48.00,KTMT 230855Z AUTO 00000KT 10SM CLR 09/M05 A3015 RMK AO2 T00891046,M
LSV,2024-06-23 08:55,-115.0343,36.2362,570.00,94.00,41.00,15.97,170.00,5.00,0.00,29.82,1006.60,10.00,M,CLR,M,M,M,M,M,M,M,M,M,M,M,M,M,M,89.77,KLSV 230855Z AUTO 17005KT 10SM CLR 34/05 A2982 RMK AO2 SLP066 T03440049 51009 $,M
EKO,2024-06-23 08:56,-115.7860,40.8242,1367.00,57.00,34.00,41.76,0.00,0.00,0.00,30.04,1011.10,10.00,M,CLR,M,M,M,M,M,M,M,M,M,M,M,M,M,M,57.00,KEKO 230856Z AUTO 00000KT 10SM CLR 14/01 A3004 RMK AO2 SLP111 T01390011 53005,M
WMC,2024-06-23 08:56,-117.8072,40.9019,1315.00,78.00,33.00,19.43,280.00,9.00,0.00,30.00,1009.30,10.00,M,CLR,M,M,M,M,M,M,M,M,M,M,M,M,M,M,78.00,KWMC 230856Z AUTO 28009KT 10SM CLR 26/01 A3000 RMK AO2 SLP093 T02560006 51011,M
NFL,2024-06-23 08:56,-118.7010,39.4166,1199.00,71.00,35.00,26.62,0.00,0.00,0.00,30.01,1013.10,10.00,M,CLR,M,M,M,M,M,M,M,M,M,M,M,M,M,M,71.00,KNFL 230856Z AUTO 00000KT 10SM CLR 22/02 A3001 RMK AO2 SLP131 T02170017 51010,M
HND,2024-06-23 08:56,-115.1344,35.9729,742.79,91.00,48.00,22.90,210.00,11.00,0.00,29.92,1011.00,10.00,M,CLR,M,M,M,M,M,M,M,M,M,M,M,M,M,M,87.69,KHND 230856Z AUTO 21011KT 10SM CLR 33/09 A2992 RMK AO2 SLP110 T03280089 50004,M
TPH,2024-06-23 08:56,-117.0904,38.0505,1654.00,62.00,21.00,20.46,360.00,8.00,0.00,30.13,1011.80,10.00,M,CLR,M,M,M,M,M,M,M,M,M,M,M,M,M,M,62.00,KTPH 230856Z AUTO 36008KT 10SM CLR 17/M06 A3013 RMK AO2 SLP118 T01671061 50003,M
LAS,2024-06-23 08:56,-115.1634,36.0719,663.00,94.00,45.00,18.62,210.00,4.00,0.00,29.88,1008.40,10.00,M,CLR,M,M,M,M,M,M,M,M,M,M,M,M,M,M,90.15,KLAS 230856Z 21004KT 10SM CLR 34/07 A2988 RMK AO2 SLP084 T03440072 50004 $,M
BVU,2024-06-23 09:15,-114.8611,35.9475,671.00,86.00,50.00,28.90,60.00,4.00,0.00,29.88,M,10.00,M,CLR,M,M,M,M,M,M,M,M,M,M,M,M,M,M,83.62,KBVU 230915Z AUTO 06004KT 10SM CLR 30/10 A2988 RMK AO2,M
CXP,2024-06-23 09:15,-119.7326,39.1923,1431.00,68.00,37.40,32.43,0.00,0.00,0.00,30.08,M,10.00,M,CLR,M,M,M,M,M,M,M,M,M,M,M,M,M,M,68.00,KCXP 230915Z AUTO 00000KT 10SM CLR 20/03 A3008 RMK AO2,M
RTS,2024-06-23 09:15,-119.8764,39.6682,1539.00,59.00,28.40,30.98,350.00,8.00,0.00,30.12,M,10.00,M,CLR,M,M,M,M,M,M,M,M,M,M,M,M,M,M,59.00,KRTS 230915Z AUTO 35008KT 10SM CLR 15/M02 A3012 RMK AO2,M
MEV,2024-06-23 09:15,-119.7500,38.9963,1441.42,60.80,39.20,44.76,90.00,8.00,0.00,30.06,M,10.00,M,CLR,M,M,M,M,M,M,M,M,M,M,M,M,M,M,60.80,KMEV 230915Z AUTO 09008KT 10SM CLR 16/04 A3006 RMK AO2,M
BAM,2024-06-23 09:15,-116.8743,40.5990,1382.36,62.60,26.60,25.32,170.00,5.00,0.00,30.03,M,10.00,M,CLR,M,M,M,M,M,M,M,M,M,M,M,M,M,M,62.60,KBAM 230915Z AUTO 17005KT 10SM CLR 17/M03 A3003 RMK AO1,M
HTH,2024-06-23 09:15,-118.6315,38.5448,1282.89,75.20,39.20,27.26,280.00,3.00,0.00,30.03,M,10.00,M,CLR,M,M,M,M,M,M,M,M,M,M,M,M,M,M,75.20,KHTH 230915Z AUTO 28003KT 10SM CLR 24/04 A3003 RMK A01,M
10U,2024-06-23 09:15,-116.1876,41.9532,1637.00,57.20,28.40,33.05,240.00,4.00,0.00,30.06,M,10.00,M,CLR,M,M,M,M,M,M,M,M,M,M,M,M,M,M,57.20,K10U 230915Z AUTO 24004KT 10SM CLR 14/M02 A3006 RMK AO2,M
TMT,2024-06-23 09:15,-117.1971,39.4643,1749.34,49.00,25.00,38.81,0.00,0.00,0.00,30.15,M,10.00,M,CLR,M,M,M,M,M,M,M,M,M,M,M,M,M,M,49.00,KTMT 230915Z AUTO 00000KT 10SM CLR 10/M04 A3015 RMK AO2 T00951039,M
BVU,2024-06-23 09:35,-114.8611,35.9475,671.00,89.60,50.00,25.79,90.00,4.00,0.00,29.88,M,10.00,M,CLR,M,M,M,M,M,M,M,M,M,M,M,M,M,M,86.70,KBVU 230935Z AUTO 09004KT 10SM CLR 32/10 A2988 RMK AO2,M
CXP,2024-06-23 09:35,-119.7326,39.1923,1431.00,68.00,37.40,32.43,0.00,0.00,0.00,30.08,M,10.00,M,CLR,M,M,M,M,M,M,M,M,M,M,M,M,M,M,68.00,KCXP 230935Z AUTO 00000KT 10SM CLR 20/03 A3008 RMK AO2,M
RTS,2024-06-23 09:35,-119.8764,39.6682,1539.00,59.00,28.40,30.98,340.00,9.00,0.00,30.11,M,10.00,M,CLR,M,M,M,M,M,M,M,M,M,M,M,M,M,M,59.00,KRTS 230935Z AUTO 34009KT 10SM CLR 15/M02 A3011 RMK AO2,M
HTH,2024-06-23 09:35,-118.6315,38.5448,1282.89,75.20,39.20,27.26,180.00,3.00,0.00,30.03,M,10.00,M,CLR,M,M,M,M,M,M,M,M,M,M,M,M,M,M,75.20,KHTH 230935Z AUTO 18003KT 10SM CLR 24/04 A3003 RMK A01,M
MEV,2024-06-23 09:35,-119.7500,38.9963,1441.42,59.00,41.00,51.18,M,4.00,0.00,30.06,M,10.00,M,CLR,M,M,M,M,M,M,M,M,M,M,M,M,M,M,59.00,KMEV 230935Z AUTO VRB04KT 10SM CLR 15/05 A3006 RMK AO2,M
BAM,2024-06-23 09:35,-116.8743,40.5990,1382.36,60.80,26.60,26.98,200.00,5.00,0.00,30.04,M,10.00,M,CLR,M,M,M,M,M,M,M,M,M,M,M,M,M,M,60.80,KBAM 230935Z AUTO 20005KT 10SM CLR 16/M03 A3004 RMK AO1,M
10U,2024-06-23 09:35,-116.1876,41.9532,1637.00,55.40,30.20,37.97,240.00,6.00,0.00,30.06,M,10.00,M,CLR,M,M,M,M,M,M,M,M,M,M,M,M,M,M,55.40,K10U 230935Z AUTO 24006KT 10SM CLR 13/M01 A3006 RMK AO2,M
TMT,2024-06-23 09:35,-117.1971,39.4643,1749.34,43.50,22.00,42.13,0.00,0.00,0.00,30.15,M,10.00,M,CLR,M,M,M,M,M,M,M,M,M,M,M,M,M,M,43.50,KTMT 230935Z AUTO 00000KT 10SM CLR 06/M06 A3015 RMK AO2 T00641056,M
P68,2024-06-23 09:53,-116.0056,39.6014,1993.00,61.00,21.00,21.19,220.00,7.00,0.00,30.14,1010.90,M,M,M,M,M,M,M,M,M,M,M,M,M,M,M,M,M,61.00,KP68 230953Z AUTO 22007KT 16/M06 A3014 RMK AO1 SLP109 T01611061,M
DRA,2024-06-23 09:53,-116.0278,36.6206,1009.00,85.00,32.00,14.86,200.00,4.00,0.00,29.96,1008.10,10.00,M,CLR,M,M,M,M,M,M,M,M,M,M,M,M,M,M,81.87,KDRA 230953Z AUTO 20004KT 10SM CLR 29/00 A2996 RMK AO2 SLP081 T02940000,M
ELY,2024-06-23 09:53,-114.8453,39.2950,1909.00,61.00,24.00,24.05,200.00,8.00,0.00,30.19,1010.60,10.00,M,CLR,M,M,M,M,M,M,M,M,M,M,M,M,M,M,61.00,KELY 230953Z AUTO 20008KT 10SM CLR 16/M04 A3019 RMK AO2 SLP106 T01611044,M
VGT,2024-06-23 09:53,-115.1933,36.2111,667.00,91.00,45.00,20.45,150.00,5.00,0.00,29.87,1009.70,10.00,M,CLR,M,M,M,M,M,M,M,M,M,M,M,M,M,M,87.35,KVGT 230953Z AUTO 15005KT 10SM CLR 33/07 A2987 RMK AO2 SLP097 T03280072,M
LOL,2024-06-23 09:53,-118.5701,40.0684,1192.43,65.00,31.00,27.87,0.00,0.00,0.00,30.00,1011.10,10.00,M,CLR,M,M,M,M,M,M,M,M,M,M,M,M,M,M,65.00,KLOL 230953Z AUTO 00000KT 10SM CLR 18/M01 A3000 RMK AO2 SLP111 T01831006,M
BVU,2024-06-23 09:55,-114.8611,35.9475,671.00,89.60,46.40,22.53,150.00,4.00,0.00,29.88,M,10.00,M,CLR,M,M,M,M,M,M,M,M,M,M,M,M,M,M,86.24,KBVU 230955Z AUTO 15004KT 10SM CLR 32/08 A2988 RMK AO2,M
CXP,2024-06-23 09:55,-119.7326,39.1923,1431.00,64.40,35.60,34.22,0.00,0.00,0.00,30.08,M,10.00,M,CLR,M,M,M,M,M,M,M,M,M,M,M,M,M,M,64.40,KCXP 230955Z AUTO 00000KT 10SM CLR 18/02 A3008 RMK AO2,M
RNO,2024-06-23 09:55,-119.7711,39.4839,1341.00,69.00,42.00,37.48,0.00,0.00,0.00,30.06,1011.00,10.00,M,CLR,M,M,M,M,M,M,M,M,M,M,M,M,M,M,69.00,KRNO 230955Z 00000KT 10SM CLR 21/06 A3006 RMK AO2 SLP110 T02060056,M
RTS,2024-06-23 09:55,-119.8764,39.6682,1539.00,59.00,28.40,30.98,350.00,7.00,0.00,30.11,M,10.00,M,CLR,M,M,M,M,M,M,M,M,M,M,M,M,M,M,59.00,KRTS 230955Z AUTO 35007KT 10SM CLR 15/M02 A3011 RMK AO2,M
MEV,2024-06-23 09:55,-119.7500,38.9963,1441.42,57.20,41.00,54.60,0.00,0.00,0.00,30.06,M,10.00,M,CLR,M,M,M,M,M,M,M,M,M,M,M,M,M,M,57.20,KMEV 230955Z AUTO 00000KT 10SM CLR 14/05 A3006 RMK AO2,M
BAM,2024-06-23 09:55,-116.8743,40.5990,1382.36,60.80,26.60,26.98,200.00,5.00,0.00,30.04,M,10.00,M,CLR,M,M,M,M,M,M,M,M,M,M,M,M,M,M,60.80,KBAM 230955Z AUTO 20005KT 10SM CLR 16/M03 A3004 RMK AO1,M
HTH,2024-06-23 09:55,-118.6315,38.5448,1282.89,73.40,39.20,28.96,150.00,5.00,0.00,30.03,M,10.00,M,CLR,M,M,M,M,M,M,M,M,M,M,M,M,M,M,73.40,KHTH 230955Z AUTO 15005KT 10SM CLR 23/04 A3003 RMK A01,M
10U,2024-06-23 09:55,-116.1876,41.9532,1637.00,55.40,30.20,37.97,210.00,3.00,0.00,30.07,M,10.00,M,CLR,M,M,M,M,M,M,M,M,M,M,M,M,M,M,55.40,K10U 230955Z AUTO 21003KT 10SM CLR 13/M01 A3007 RMK AO2,M
TMT,2024-06-23 09:55,-117.1971,39.4643,1749.34,47.30,22.60,37.41,0.00,0.00,0.00,30.15,M,10.00,M,CLR,M,M,M,M,M,M,M,M,M,M,M,M,M,M,47.30,KTMT 230955Z AUTO 00000KT 10SM CLR 09/M05 A3015 RMK AO2 T00851052,M
INS,2024-06-23 09:55,-115.6733,36.5872,955.00,M,M,M,0.00,0.00,0.00,M,M,10.00,M,M,M,M,M,M,M,M,M,M,M,M,M,M,M,M,M,KINS 230955Z AUTO 00000KT 10SM M M M RMK AO2 SLPNO RVRNO TSNO $,M
LSV,2024-06-23 09:55,-115.0343,36.2362,570.00,93.20,42.00,17.02,190.00,7.00,0.00,29.82,1006.60,10.00,M,CLR,M,M,M,M,M,M,M,M,M,M,M,M,M,M,89.11,KLSV 230955Z AUTO 19007KT 10SM CLR 34/06 A2982 RMK AO2 SLP066 T03400055 $,M
EKO,2024-06-23 09:56,-115.7860,40.8242,1367.00,58.00,33.00,38.70,60.00,3.00,0.00,30.05,1011.50,10.00,M,CLR,M,M,M,M,M,M,M,M,M,M,M,M,M,M,58.00,KEKO 230956Z AUTO 06003KT 10SM CLR 14/01 A3005 RMK AO2 SLP115 T01440006,M
WMC,2024-06-23 09:56,-117.8072,40.9019,1315.00,62.00,30.00,29.73,0.00,0.00,0.00,30.02,1010.60,10.00,M,CLR,M,M,M,M,M,M,M,M,M,M,M,M,M,M,62.00,KWMC 230956Z AUTO 00000KT 10SM CLR 17/M01 A3002 RMK AO2 SLP106 T01671011,M
NFL,2024-06-23 09:56,-118.7010,39.4166,1199.00,64.00,35.00,33.89,180.00,3.00,0.00,30.01,1013.10,10.00,M,CLR,M,M,M,M,M,M,M,M,M,M,M,M,M,M,64.00,KNFL 230956Z AUTO 18003KT 10SM CLR 18/02 A3001 RMK AO2 SLP131 T01780017,M
HND,2024-06-23 09:56,-115.1344,35.9729,742.79,89.00,47.00,23.49,200.00,10.00,0.00,29.92,1011.00,10.00,M,CLR,M,M,M,M,M,M,M,M,M,M,M,M,M,M,85.77,KHND 230956Z AUTO 20010KT 10SM CLR 32/08 A2992 RMK AO2 SLP110 T03170083,M
TPH,2024-06-23 09:56,-117.0904,38.0505,1654.00,60.00,21.00,21.96,350.00,7.00,0.00,30.13,1011.80,10.00,M,CLR,M,M,M,M,M,M,M,M,M,M,M,M,M,M,60.00,KTPH 230956Z AUTO 35007KT 10SM CLR 16/M06 A3013 RMK AO2 SLP118 T01561061,M
LAS,2024-06-23 09:56,-115.1634,36.0719,663.00,95.00,43.00,16.73,170.00,4.00,0.00,29.89,1008.60,10.00,M,CLR,M,M,M,M,M,M,M,M,M,M,M,M,M,M,90.88,KLAS 230956Z 17004KT 10SM CLR 35/06 A2989 RMK AO2 SLP086 T03500061 $,M
BVU,2024-06-23 10:15,-114.8611,35.9475,671.00,89.60,46.40,22.53,170.00,5.00,0.00,29.89,M,10.00,M,CLR,M,M,M,M,M,M,M,M,M,M,M,M,M,M,86.24,KBVU 231015Z AUTO 17005KT 10SM CLR 32/08 A2989 RMK AO2,M
CXP,2024-06-23 10:15,-119.7326,39.1923,1431.00,64.40,33.80,31.85,320.00,3.00,0.00,30.08,M,10.00,M,CLR,M,M,M,M,M,M,M,M,M,M,M,M,M,M,64.40,KCXP 231015Z AUTO 32003KT 10SM CLR 18/01 A3008 RMK AO2,M
RTS,2024-06-23 10:15,-119.8764,39.6682,1539.00,55.40,28.40,35.28,310.00,5.00,0.00,30.11,M,10.00,M,CLR,M,M,M,M,M,M,M,M,M,M,M,M,M,M,55.40,KRTS 231015Z AUTO 31005KT 10SM CLR 13/M02 A3011 RMK AO2,M
MEV,2024-06-23 10:15,-119.7500,38.9963,1441.42,59.00,39.20,47.72,0.00,0.00,0.00,30.07,M,10.00,M,CLR,M,M,M,M,M,M,M,M,M,M,M,M,M,M,59.00,KMEV 231015Z AUTO 00000KT 10SM CLR 15/04 A3007 RMK AO2,M
BAM,2024-06-23 10:15,-116.8743,40.5990,1382.36,60.80,26.60,26.98,180.00,4.00,0.00,30.04,M,10.00,M,CLR,M,M,M,M,M,M,M,M,M,M,M,M,M,M,60.80,KBAM 231015Z AUTO 18004KT 10SM CLR 16/M03 A3004 RMK AO1,M
HTH,2024-06-23 10:15,-118.6315,38.5448,1282.89,71.60,39.20,30.77,0.00,0.00,0.00,30.04,M,10.00,M,CLR,M,M,M,M,M,M,M,M,M,M,M,M,M,M,71.60,KHTH 231015Z AUTO 00000KT 10SM CLR 22/04 A3004 RMK A01,M
10U,2024-06-23 10:15,-116.1876,41.9532,1637.00,51.80,33.80,50.08,150.00,7.00,0.00,30.07,M,10.00,M,CLR,M,M,M,M,M,M,M,M,M,M,M,M,M,M,51.80,K10U 231015Z AUTO 15007KT 10SM CLR 11/01 A3007 RMK AO2,M
TMT,2024-06-23 10:15,-117.1971,39.4643,1749.34,46.20,22.00,38.02,0.00,0.00,0.00,30.15,M,10.00,M,CLR,M,M,M,M,M,M,M,M,M,M,M,M,M,M,46.20,KTMT 231015Z AUTO 00000KT 10SM CLR 08/M05 A3015 RMK AO2 T00791055,M
BVU,2024-06-23 10:35,-114.8611,35.9475,671.00,89.60,46.40,22.53,200.00,5.00,0.00,29.89,M,10.00,M,CLR,M,M,M,M,M,M,M,M,M,M,M,M,M,M,86.24,KBVU 231035Z AUTO 20005KT 10SM CLR 32/08 A2989 RMK AO2,M
CXP,2024-06-23 10:35,-119.7326,39.1923,1431.00,64.40,33.80,31.85,320.00,3.00,0.00,30.08,M,10.00,M,CLR,M,M,M,M,M,M,M,M,M,M,M,M,M,M,64.40,KCXP 231035Z AUTO 32003KT 10SM CLR 18/01 A3008 RMK AO2,M
RTS,2024-06-23 10:35,-119.8764,39.6682,1539.00,59.00,28.40,30.98,330.00,10.00,0.00,30.11,M,10.00,M,CLR,M,M,M,M,M,M,M,M,M,M,M,M,M,M,59.00,KRTS 231035Z AUTO 33010KT 10SM CLR 15/M02 A3011 RMK AO2,M
MEV,2024-06-23 10:35,-119.7500,38.9963,1441.42,55.40,39.20,54.34,80.00,6.00,0.00,30.07,M,10.00,M,CLR,M,M,M,M,M,M,M,M,M,M,M,M,M,M,55.40,KMEV 231035Z AUTO 08006KT 10SM CLR 13/04 A3007 RMK AO2,M
BAM,2024-06-23 10:35,-116.8743,40.5990,1382.36,62.60,26.60,25.32,220.00,6.00,0.00,30.04,M,10.00,M,CLR,M,M,M,M,M,M,M,M,M,M,M,M,M,M,62.60,KBAM 231035Z AUTO 22006KT 10SM CLR 17/M03 A3004 RMK AO1,M
HTH,2024-06-23 10:35,-118.6315,38.5448,1282.89,73.40,44.60,35.66,0.00,0.00,0.00,30.04,M,10.00,M,CLR,M,M,M,M,M,M,M,M,M,M,M,M,M,M,73.40,KHTH 231035Z AUTO 00000KT 10SM CLR 23/07 A3004 RMK A01,M
10U,2024-06-23 10:35,-116.1876,41.9532,1637.00,51.80,33.80,50.08,170.00,6.00,0.00,30.08,M,10.00,M,CLR,M,M,M,M,M,M,M,M,M,M,M,M,M,M,51.80,K10U 231035Z AUTO 17006KT 10SM CLR 11/01 A3008 RMK AO2,M
TMT,2024-06-23 10:35,-117.1971,39.4643,1749.34,45.50,31.00,56.64,310.00,3.00,0.00,30.15,M,10.00,M,CLR,M,M,M,M,M,M,M,M,M,M,M,M,M,M,44.12,KTMT 231035Z AUTO 31003KT 10SM CLR 08/M01 A3015 RMK AO2 T00751006,M
P68,2024-06-23 10:53,-116.0056,39.6014,1993.00,61.00,20.00,20.31,170.00,10.00,0.00,30.15,1011.30,M,M,M,M,M,M,M,M,M,M,M,M,M,M,M,M,M,61.00,KP68 231053Z AUTO 17010KT 16/M07 A3015 RMK AO1 SLP113 T01611067,M
DRA,2024-06-23 10:53,-116.0278,36.6206,1009.00,77.00,32.00,19.30,30.00,9.00,0.00,29.96,1008.70,10.00,M,CLR,M,M,M,M,M,M,M,M,M,M,M,M,M,M,77.00,KDRA 231053Z AUTO 03009KT 10SM CLR 25/00 A2996 RMK AO2 SLP087 T02500000,M
ELY,2024-06-23 10:53,-114.8453,39.2950,1909.00,60.00,24.00,24.92,210.00,5.00,0.00,30.20,1011.10,10.00,M,CLR,M,M,M,M,M,M,M,M,M,M,M,M,M,M,60.00,KELY 231053Z AUTO 21005KT 10SM CLR 16/M04 A3020 RMK AO2 SLP111 T01561044,M
VGT,2024-06-23 10:53,-115.1933,36.2111,667.00,91.00,45.00,20.45,0.00,0.00,0.00,29.88,1010.10,10.00,M,CLR,M,M,M,M,M,M,M,M,M,M,M,M,M,M,87.35,KVGT 231053Z AUTO 00000KT 10SM CLR 33/07 A2988 RMK AO2 SLP101 T03280072,M
LOL,2024-06-23 10:53,-118.5701,40.0684,1192.43,61.00,29.00,29.57,0.00,0.00,0.00,30.01,1011.60,10.00,M,CLR,M,M,M,M,M,M,M,M,M,M,M,M,M,M,61.00,KLOL 231053Z AUTO 00000KT 10SM CLR 16/M02 A3001 RMK AO2 SLP116 T01611017,M
BVU,2024-06-23 10:55,-114.8611,35.9475,671.00,89.60,46.40,22.53,260.00,5.00,0.00,29.89,M,10.00,M,CLR,M,M,M,M,M,M,M,M,M,M,M,M,M,M,86.24,KBVU 231055Z AUTO 26005KT 10SM CLR 32/08 A2989 RMK AO2,M
CXP,2024-06-23 10:55,-119.7326,39.1923,1431.00,60.80,35.60,38.85,0.00,0.00,0.00,30.09,M,10.00,M,CLR,M,M,M,M,M,M,M,M,M,M,M,M,M,M,60.80,KCXP 231055Z AUTO 00000KT 10SM CLR 16/02 A3009 RMK AO2,M
RNO,2024-06-23 10:55,-119.7711,39.4839,1341.00,67.00,43.00,41.72,220.00,3.00,0.00,30.06,1011.40,10.00,M,CLR,M,M,M,M,M,M,M,M,M,M,M,M,M,M,67.00,KRNO 231055Z 22003KT 10SM CLR 19/06 A3006 RMK AO2 SLP114 T01940061,M
RTS,2024-06-23 10:55,-119.8764,39.6682,1539.00,55.40,28.40,35.28,340.00,6.00,0.00,30.11,M,10.00,M,CLR,M,M,M,M,M,M,M,M,M,M,M,M,M,M,55.40,KRTS 231055Z AUTO 34006KT 10SM CLR 13/M02 A3011 RMK AO2,M
MEV,2024-06-23 10:55,-119.7500,38.9963,1441.42,57.20,37.40,47.44,110.00,3.00,0.00,30.07,M,10.00,M,CLR,M,M,M,M,M,M,M,M,M,M,M,M,M,M,57.20,KMEV 231055Z AUTO 11003KT 10SM CLR 14/03 A3007 RMK AO2,M
HTH,2024-06-23 10:55,-118.6315,38.5448,1282.89,73.40,44.60,35.66,0.00,0.00,0.00,30.04,M,10.00,M,CLR,M,M,M,M,M,M,M,M,M,M,M,M,M,M,73.40,KHTH 231055Z AUTO 00000KT 10SM CLR 23/07 A3004 RMK A01,M
10U,2024-06-23 10:55,-116.1876,41.9532,1637.00,51.80,33.80,50.08,200.00,5.00,0.00,30.08,M,10.00,M,CLR,M,M,M,M,M,M,M,M,M,M,M,M,M,M,51.80,K10U 231055Z AUTO 20005KT 10SM CLR 11/01 A3008 RMK AO2,M
BAM,2024-06-23 10:55,-116.8743,40.5990,1382.36,62.60,26.60,25.32,190.00,4.00,0.00,30.05,M,10.00,M,CLR,M,M,M,M,M,M,M,M,M,M,M,M,M,M,62.60,KBAM 231055Z AUTO 19004KT 10SM CLR 17/M03 A3005 RMK AO1,M
TMT,2024-06-23 10:55,-117.1971,39.4643,1749.34,41.50,24.80,51.17,0.00,0.00,0.00,30.16,M,10.00,M,CLR,M,M,M,M,M,M,M,M,M,M,M,M,M,M,41.50,KTMT 231055Z AUTO 00000KT 10SM CLR 05/M04 A3016 RMK AO2 T00531040,M
INS,2024-06-23 10:55,-115.6733,36.5872,955.00,M,M,M,0.00,0.00,0.00,M,M,10.00,M,M,M,M,M,M,M,M,M,M,M,M,M,M,M,M,M,KINS 231055Z AUTO 00000KT 10SM M M M RMK AO2 SLPNO RVRNO TSNO $,M
LSV,2024-06-23 10:55,-115.0343,36.2362,570.00,90.50,45.00,20.77,0.00,0.00,0.00,29.83,1006.90,10.00,M,CLR,M,M,M,M,M,M,M,M,M,M,M,M,M,M,86.90,KLSV 231055Z AUTO 00000KT 10SM CLR 33/07 A2983 RMK AO2 SLP069 T03250073 $,M
EKO,2024-06-23 10:56,-115.7860,40.8242,1367.00,59.00,33.00,37.34,0.00,0.00,0.00,30.07,1011.70,10.00,M,CLR,M,M,M,M,M,M,M,M,M,M,M,M,M,M,59.00,KEKO 231056Z AUTO 00000KT 10SM CLR 15/01 A3007 RMK AO2 SLP117 T01500006,M
WMC,2024-06-23 10:56,-117.8072,40.9019,1315.00,64.00,32.00,30.05,30.00,3.00,0.00,30.03,1011.00,10.00,M,CLR,M,M,M,M,M,M,M,M,M,M,M,M,M,M,64.00,KWMC 231056Z AUTO 03003KT 10SM CLR 18/00 A3003 RMK AO2 SLP110 T01780000,M
NFL,2024-06-23 10:56,-118.7010,39.4166,1199.00,64.00,42.00,44.57,0.00,0.00,0.00,30.01,1013.20,10.00,M,CLR,M,M,M,M,M,M,M,M,M,M,M,M,M,M,64.00,KNFL 231056Z AUTO 00000KT 10SM CLR 18/06 A3001 RMK AO2 SLP132 T01780056,M
HND,2024-06-23 10:56,-115.1344,35.9729,742.79,86.00,47.00,25.83,170.00,7.00,0.00,29.93,1011.40,10.00,M,CLR,M,M,M,M,M,M,M,M,M,M,M,M,M,M,83.28,KHND 231056Z AUTO 17007KT 10SM CLR 30/08 A2993 RMK AO2 SLP114 T03000083,M
TPH,2024-06-23 10:56,-117.0904,38.0505,1654.00,56.00,22.00,26.45,350.00,9.00,0.00,30.13,1012.30,10.00,M,CLR,M,M,M,M,M,M,M,M,M,M,M,M,M,M,56.00,KTPH 231056Z AUTO 35009KT 10SM CLR 13/M06 A3013 RMK AO2 SLP123 T01331056,M
LAS,2024-06-23 10:56,-115.1634,36.0719,663.00,93.00,45.00,19.21,180.00,8.00,0.00,29.89,1008.70,10.00,M,CLR,M,M,M,M,M,M,M,M,M,M,M,M,M,M,89.20,KLAS 231056Z 18008KT 10SM CLR 34/07 A2989 RMK AO2 SLP087 T03390072 $,M
BVU,2024-06-23 11:15,-114.8611,35.9475,671.00,87.80,48.20,25.52,0.00,0.00,0.00,29.89,M,10.00,M,CLR,M,M,M,M,M,M,M,M,M,M,M,M,M,M,84.87,KBVU 231115Z AUTO 00000KT 10SM CLR 31/09 A2989 RMK AO2,M
CXP,2024-06-23 11:15,-119.7326,39.1923,1431.00,60.80,35.60,38.85,0.00,0.00,0.00,30.09,M,10.00,M,CLR,M,M,M,M,M,M,M,M,M,M,M,M,M,M,60.80,KCXP 231115Z AUTO 00000KT 10SM CLR 16/02 A3009 RMK AO2,M
RTS,2024-06-23 11:15,-119.8764,39.6682,1539.00,55.40,28.40,35.28,340.00,6.00,0.00,30.11,M,10.00,M,CLR,M,M,M,M,M,M,M,M,M,M,M,M,M,M,55.40,KRTS 231115Z AUTO 34006KT 10SM CLR 13/M02 A3011 RMK AO2,M
MEV,2024-06-23 11:15,-119.7500,38.9963,1441.42,55.40,37.40,50.64,0.00,0.00,0.00,30.07,M,10.00,M,CLR,M,M,M,M,M,M,M,M,M,M,M,M,M,M,55.40,KMEV 231115Z AUTO 00000KT 10SM CLR 13/03 A3007 RMK AO2,M
HTH,2024-06-23 11:15,-118.6315,38.5448,1282.89,73.40,44.60,35.66,0.00,0.00,0.00,30.05,M,10.00,M,CLR,M,M,M,M,M,M,M,M,M,M,M,M,M,M,73.40,KHTH 231115Z AUTO 00000KT 10SM CLR 23/07 A3005 RMK A01,M
10U,2024-06-23 11:15,-116.1876,41.9532,1637.00,53.60,30.20,40.54,170.00,6.00,0.00,30.09,M,10.00,M,CLR,M,M,M,M,M,M,M,M,M,M,M,M,M,M,53.60,K10U 231115Z AUTO 17006KT 10SM CLR 12/M01 A3009 RMK AO2,M
BAM,2024-06-23 11:15,-116.8743,40.5990,1382.36,59.00,28.40,30.98,210.00,7.00,0.00,30.05,M,10.00,M,CLR,M,M,M,M,M,M,M,M,M,M,M,M,M,M,59.00,KBAM 231115Z AUTO 21007KT 10SM CLR 15/M02 A3005 RMK AO1,M
BVU,2024-06-23 11:35,-114.8611,35.9475,671.00,82.40,51.80,34.69,330.00,3.00,0.00,29.89,M,10.00,M,CLR,M,M,M,M,M,M,M,M,M,M,M,M,M,M,81.20,KBVU 231135Z AUTO 33003KT 10SM CLR 28/11 A2989 RMK AO2,M
CXP,2024-06-23 11:35,-119.7326,39.1923,1431.00,60.80,35.60,38.85,0.00,0.00,0.00,30.09,M,10.00,M,CLR,M,M,M,M,M,M,M,M,M,M,M,M,M,M,60.80,KCXP 231135Z AUTO 00000KT 10SM CLR 16/02 A3009 RMK AO2,M
RTS,2024-06-23 11:35,-119.8764,39.6682,1539.00,55.40,28.40,35.28,350.00,4.00,0.00,30.12,M,10.00,M,CLR,M,M,M,M,M,M,M,M,M,M,M,M,M,M,55.40,KRTS 231135Z AUTO 35004KT 10SM CLR 13/M02 A3012 RMK AO2,M
MEV,2024-06-23 11:35,-119.7500,38.9963,1441.42,55.40,37.40,50.64,0.00,0.00,0.00,30.08,M,10.00,M,FEW,M,M,M,5000.00,M,M,M,M,M,M,M,M,M,M,55.40,KMEV 231135Z AUTO 00000KT 10SM FEW050 13/03 A3008 RMK AO2,M
HTH,2024-06-23 11:35,-118.6315,38.5448,1282.89,71.60,41.00,33.00,0.00,0.00,0.00,30.05,M,10.00,M,CLR,M,M,M,M,M,M,M,M,M,M,M,M,M,M,71.60,KHTH 231135Z AUTO 00000KT 10SM CLR 22/05 A3005 RMK A01,M
10U,2024-06-23 11:35,-116.1876,41.9532,1637.00,53.60,32.00,43.61,150.00,4.00,0.00,30.10,M,10.00,M,CLR,M,M,M,M,M,M,M,M,M,M,M,M,M,M,53.60,K10U 231135Z AUTO 15004KT 10SM CLR 12/M00 A3010 RMK AO2,M
BAM,2024-06-23 11:35,-116.8743,40.5990,1382.36,55.40,28.40,35.28,210.00,7.00,0.00,30.05,M,10.00,M,CLR,M,M,M,M,M,M,M,M,M,M,M,M,M,M,55.40,KBAM 231135Z AUTO 21007KT 10SM CLR 13/M02 A3005 RMK AO1,M
TMT,2024-06-23 11:35,-117.1971,39.4643,1749.34,44.40,22.00,40.71,0.00,0.00,0.00,30.16,M,10.00,M,CLR,M,M,M,M,M,M,M,M,M,M,M,M,M,M,44.40,KTMT 231135Z AUTO 00000KT 10SM CLR 07/M05 A3016 RMK AO2 T00691055,M
P68,2024-06-23 11:53,-116.0056,39.6014,1993.00,54.00,20.00,26.13,190.00,4.00,0.00,30.16,1012.20,M,M,M,M,M,M,M,M,M,M,M,M,M,M,M,M,M,54.00,KP68 231153Z AUTO 19004KT 12/M07 A3016 RMK AO1 SLP122 T01221067 10222 20122 53006,M
DRA,2024-06-23 11:53,-116.0278,36.6206,1009.00,76.00,33.00,20.77,30.00,7.00,0.00,29.97,1009.10,10.00,M,CLR,M,M,M,M,M,M,M,M,M,M,M,M,M,M,76.00,KDRA 231153Z AUTO 03007KT 10SM CLR 24/01 A2997 RMK AO2 SLP091 T02440006 10339 20239 53006,M
ELY,2024-06-23 11:53,-114.8453,39.2950,1909.00,55.00,25.00,31.11,170.00,3.00,0.00,30.21,1012.20,10.00,M,CLR,M,M,M,M,M,M,M,M,M,M,M,M,M,M,55.00,KELY 231153Z AUTO 17003KT 10SM CLR 13/M04 A3021 RMK AO2 SLP122 T01281039 10233 20117 53006,M
VGT,2024-06-23 11:53,-115.1933,36.2111,667.00,87.00,46.00,24.10,0.00,0.00,0.00,29.89,1010.50,10.00,M,CLR,M,M,M,M,M,M,M,M,M,M,M,M,M,M,83.98,KVGT 231153Z AUTO 00000KT 10SM CLR 31/08 A2989 RMK AO2 SLP105 T03060078 10367 20300 53007,M
LOL,2024-06-23 11:53,-118.5701,40.0684,1192.43,58.00,30.00,34.28,0.00,0.00,0.00,30.02,1012.00,10.00,M,CLR,M,M,M,M,M,M,M,M,M,M,M,M,M,M,58.00,KLOL 231153Z AUTO 00000KT 10SM CLR 14/M01 A3002 RMK AO2 SLP120 T01441011 10294 20139 52006,M
BVU,2024-06-23 11:55,-114.8611,35.9475,671.00,84.20,50.00,30.62,340.00,5.00,0.00,29.90,M,10.00,M,CLR,M,M,M,M,M,M,M,M,M,M,M,M,M,M,82.24,KBVU 231155Z AUTO 34005KT 10SM CLR 29/10 A2990 RMK AO2,M
CXP,2024-06-23 11:55,-119.7326,39.1923,1431.00,60.80,35.60,38.85,0.00,0.00,0.00,30.10,M,10.00,M,CLR,M,M,M,M,M,M,M,M,M,M,M,M,M,M,60.80,KCXP 231155Z AUTO 00000KT 10SM CLR 16/02 A3010 RMK AO2,M
RNO,2024-06-23 11:55,-119.7711,39.4839,1341.00,65.00,44.00,46.47,150.00,3.00,0.00,30.08,1012.00,10.00,M,CLR,M,M,M,M,M,M,M,M,M,M,M,M,M,M,65.00,KRNO 231155Z 15003KT 10SM CLR 18/07 A3008 RMK AO2 SLP120 T01830067 10278 20183 53006,M
RTS,2024-06-23 11:55,-119.8764,39.6682,1539.00,55.40,30.20,37.97,0.00,0.00,0.00,30.12,M,10.00,M,CLR,M,M,M,M,M,M,M,M,M,M,M,M,M,M,55.40,KRTS 231155Z AUTO 00000KT 10SM CLR 13/M01 A3012 RMK AO2,M
MEV,2024-06-23 11:55,-119.7500,38.9963,1441.42,53.60,37.40,54.07,0.00,0.00,0.00,30.08,M,10.00,M,FEW,M,M,M,5000.00,M,M,M,M,M,M,M,M,M,M,53.60,KMEV 231155Z AUTO 00000KT 10SM FEW050 12/03 A3008 RMK AO2,M
BAM,2024-06-23 11:55,-116.8743,40.5990,1382.36,53.60,26.60,34.98,190.00,5.00,0.00,30.06,M,10.00,M,CLR,M,M,M,M,M,M,M,M,M,M,M,M,M,M,53.60,KBAM 231155Z AUTO 19005KT 10SM CLR 12/M03 A3006 RMK AO1,M
HTH,2024-06-23 11:55,-118.6315,38.5448,1282.89,69.80,39.20,32.72,0.00,0.00,0.00,30.05,M,10.00,M,CLR,M,M,M,M,M,M,M,M,M,M,M,M,M,M,69.80,KHTH 231155Z AUTO 00000KT 10SM CLR 21/04 A3005 RMK A01,M
10U,2024-06-23 11:55,-116.1876,41.9532,1637.00,53.60,32.00,43.61,150.00,5.00,0.00,30.10,M,10.00,M,CLR,M,M,M,M,M,M,M,M,M,M,M,M,M,M,53.60,K10U 231155Z AUTO 15005KT 10SM CLR 12/00 A3010 RMK AO2,M
TMT,2024-06-23 11:55,-117.1971,39.4643,1749.34,41.40,19.40,40.90,0.00,0.00,0.00,30.16,M,10.00,M,CLR,M,M,M,M,M,M,M,M,M,M,M,M,M,M,41.40,KTMT 231155Z AUTO 00000KT 10SM CLR 05/M07 A3016 RMK AO2 T00521070 10158 20040,M
INS,2024-06-23 11:55,-115.6733,36.5872,955.00,M,M,M,0.00,0.00,0.00,M,M,10.00,M,M,M,M,M,M,M,M,M,M,M,M,M,M,M,M,M,KINS 231155Z AUTO 00000KT 10SM M M M RMK AO2 SLPNO RVRNO TSNO $,M
LSV,2024-06-23 11:55,-115.0343,36.2362,570.00,89.20,45.30,21.88,320.00,3.00,0.00,29.84,1007.30,10.00,M,CLR,M,M,M,M,M,M,M,M,M,M,M,M,M,M,85.78,KLSV 231155Z AUTO 32003KT 10SM CLR 32/07 A2984 RMK AO2 SLP073 T03180074 10378 20317 53006 $,M
EKO,2024-06-23 11:56,-115.7860,40.8242,1367.00,55.00,34.00,44.90,0.00,0.00,0.00,30.08,1012.50,10.00,M,CLR,M,M,M,M,M,M,M,M,M,M,M,M,M,M,55.00,KEKO 231156Z AUTO 00000KT 10SM CLR 13/01 A3008 RMK AO2 SLP125 T01280011 10211 20111 53012,M
WMC,2024-06-23 11:56,-117.8072,40.9019,1315.00,57.00,32.00,38.54,0.00,0.00,0.00,30.04,1011.60,10.00,M,CLR,M,M,M,M,M,M,M,M,M,M,M,M,M,M,57.00,KWMC 231156Z AUTO 00000KT 10SM CLR 14/00 A3004 RMK AO2 SLP116 T01390000 10294 20139 51010,M
NFL,2024-06-23 11:56,-118.7010,39.4166,1199.00,60.00,37.00,42.24,60.00,4.00,0.00,30.02,1013.40,10.00,M,CLR,M,M,M,M,M,M,M,M,M,M,M,M,M,M,60.00,KNFL 231156Z AUTO 06004KT 10SM CLR 16/03 A3002 RMK AO2 SLP134 T01560028 10278 20156 53003,M
HND,2024-06-23 11:56,-115.1344,35.9729,742.79,87.00,47.00,25.02,180.00,8.00,0.00,29.94,1011.60,10.00,M,CLR,M,M,M,M,M,M,M,M,M,M,M,M,M,M,84.08,KHND 231156Z AUTO 18008KT 10SM CLR 31/08 A2994 RMK AO2 SLP116 T03060083 10350 20300 53005,M
TPH,2024-06-23 11:56,-117.0904,38.0505,1654.00,58.00,23.00,25.67,330.00,8.00,0.00,30.14,1012.30,10.00,M,CLR,M,M,M,M,M,M,M,M,M,M,M,M,M,M,58.00,KTPH 231156Z AUTO 33008KT 10SM CLR 14/M05 A3014 RMK AO2 SLP123 T01441050 10206 20133 53002,M
LAS,2024-06-23 11:56,-115.1634,36.0719,663.00,92.00,44.00,19.08,200.00,6.00,0.00,29.90,1009.00,10.00,M,FEW,M,M,M,18000.00,M,M,M,M,M,M,M,M,M,M,88.17,KLAS 231156Z 20006KT 10SM FEW180 33/07 A2990 RMK AO2 SLP090 T03330067 10372 20328 51005 $,M
RTS,2024-06-23 12:10,-119.8764,39.6682,1539.00,57.20,28.40,33.05,M,4.00,0.00,30.12,M,10.00,M,CLR,M,M,M,M,M,M,M,M,M,M,M,M,M,M,57.20,KRTS 231210Z AUTO VRB04KT 10SM CLR 14/M02 A3012 RMK AO2,M
BVU,2024-06-23 12:15,-114.8611,35.9475,671.00,84.20,50.00,30.62,0.00,0.00,0.00,29.90,M,10.00,M,CLR,M,M,M,M,M,M,M,M,M,M,M,M,M,M,82.24,KBVU 231215Z AUTO 00000KT 10SM CLR 29/10 A2990 RMK AO2,M
CXP,2024-06-23 12:15,-119.7326,39.1923,1431.00,59.00,33.80,38.56,0.00,0.00,0.00,30.10,M,10.00,M,CLR,M,M,M,M,M,M,M,M,M,M,M,M,M,M,59.00,KCXP 231215Z AUTO 00000KT 10SM CLR 15/01 A3010 RMK AO2,M
MEV,2024-06-23 12:15,-119.7500,38.9963,1441.42,55.40,37.40,50.64,180.00,3.00,0.00,30.09,M,10.00,M,CLR,M,M,M,M,M,M,M,M,M,M,M,M,M,M,55.40,KMEV 231215Z AUTO 18003KT 10SM CLR 13/03 A3009 RMK AO2,M
BAM,2024-06-23 12:15,-116.8743,40.5990,1382.36,53.60,26.60,34.98,190.00,3.00,0.00,30.07,M,10.00,M,CLR,M,M,M,M,M,M,M,M,M,M,M,M,M,M,53.60,KBAM 231215Z AUTO 19003KT 10SM CLR 12/M03 A3007 RMK AO1,M
HTH,2024-06-23 12:15,-118.6315,38.5448,1282.89,68.00,41.00,37.32,0.00,0.00,0.00,30.05,M,10.00,M,CLR,M,M,M,M,M,M,M,M,M,M,M,M,M,M,68.00,KHTH 231215Z AUTO 00000KT 10SM CLR 20/05 A3005 RMK A01,M
10U,2024-06-23 12:15,-116.1876,41.9532,1637.00,50.00,33.80,53.54,0.00,0.00,0.00,30.10,M,10.00,M,CLR,M,M,M,M,M,M,M,M,M,M,M,M,M,M,50.00,K10U 231215Z AUTO 00000KT 10SM CLR 10/01 A3010 RMK AO2,M
TMT,2024-06-23 12:15,-117.1971,39.4643,1749.34,43.30,26.40,51.03,320.00,3.00,0.00,30.17,M,10.00,M,CLR,M,M,M,M,M,M,M,M,M,M,M,M,M,M,41.61,KTMT 231215Z AUTO 32003KT 10SM CLR 06/M03 A3017 RMK AO2 T00631031,M
BVU,2024-06-23 12:35,-114.8611,35.9475,671.00,84.20,53.60,34.97,0.00,0.00,0.00,29.90,M,10.00,M,CLR,M,M,M,M,M,M,M,M,M,M,M,M,M,M,82.76,KBVU 231235Z AUTO 00000KT 10SM CLR 29/12 A2990 RMK AO2,M
CXP,2024-06-23 12:35,-119.7326,39.1923,1431.00,59.00,35.60,41.42,0.00,0.00,0.00,30.10,M,10.00,M,CLR,M,M,M,M,M,M,M,M,M,M,M,M,M,M,59.00,KCXP 231235Z AUTO 00000KT 10SM CLR 15/02 A3010 RMK AO2,M
HTH,2024-06-23 12:35,-118.6315,38.5448,1282.89,68.00,39.20,34.80,0.00,0.00,0.00,30.05,M,10.00,M,CLR,M,M,M,M,M,M,M,M,M,M,M,M,M,M,68.00,KHTH 231235Z AUTO 00000KT 10SM CLR 20/04 A3005 RMK A01,M
10U,2024-06-23 12:35,-116.1876,41.9532,1637.00,53.60,33.80,46.88,0.00,0.00,0.00,30.10,M,10.00,M,CLR,M,M,M,M,M,M,M,M,M,M,M,M,M,M,53.60,K10U 231235Z AUTO 00000KT 10SM CLR 12/01 A3010 RMK AO2,M
BAM,2024-06-23 12:35,-116.8743,40.5990,1382.36,53.60,26.60,34.98,180.00,3.00,0.00,30.07,M,10.00,M,CLR,M,M,M,M,M,M,M,M,M,M,M,M,M,M,53.60,KBAM 231235Z AUTO 18003KT 10SM CLR 12/M03 A3007 RMK AO1,M
TMT,2024-06-23 12:35,-117.1971,39.4643,1749.34,47.50,24.40,40.04,360.00,3.00,0.00,30.17,M,10.00,M,CLR,M,M,M,M,M,M,M,M,M,M,M,M,M,M,46.41,KTMT 231235Z AUTO 36003KT 10SM CLR 09/M04 A3017 RMK AO2 T00861042,M
P68,2024-06-23 12:53,-116.0056,39.6014,1993.00,54.00,21.00,27.27,180.00,6.00,0.00,30.17,1012.40,M,M,M,M,M,M,M,M,M,M,M,M,M,M,M,M,M,54.00,KP68 231253Z AUTO 18006KT 12/M06 A3017 RMK AO1 SLP124 T01221061,M
DRA,2024-06-23 12:53,-116.0278,36.6206,1009.00,75.00,33.00,21.47,M,4.00,0.00,29.98,1009.40,10.00,M,CLR,M,M,M,M,M,M,M,M,M,M,M,M,M,M,75.00,KDRA 231253Z AUTO VRB04KT 10SM CLR 24/01 A2998 RMK AO2 SLP094 T02390006,M
ELY,2024-06-23 12:53,-114.8453,39.2950,1909.00,53.00,25.00,33.46,0.00,0.00,0.00,30.21,1012.30,10.00,M,CLR,M,M,M,M,M,M,M,M,M,M,M,M,M,M,53.00,KELY 231253Z AUTO 00000KT 10SM CLR 12/M04 A3021 RMK AO2 SLP123 T01171039,M
VGT,2024-06-23 12:53,-115.1933,36.2111,667.00,86.00,48.00,26.82,340.00,4.00,0.00,29.90,1010.70,10.00,M,CLR,M,M,M,M,M,M,M,M,M,M,M,M,M,M,83.38,KVGT 231253Z 34004KT 10SM CLR 30/09 A2990 RMK AO2 SLP107 T03000089,M
LOL,2024-06-23 12:53,-118.5701,40.0684,1192.43,56.00,31.00,38.38,0.00,0.00,0.00,30.02,1012.20,10.00,M,CLR,M,M,M,M,M,M,M,M,M,M,M,M,M,M,56.00,KLOL 231253Z AUTO 00000KT 10SM CLR 13/M01 A3002 RMK AO2 SLP122 T01331006,M
BVU,2024-06-23 12:55,-114.8611,35.9475,671.00,82.40,55.40,39.58,0.00,0.00,0.00,29.90,M,10.00,M,CLR,M,M,M,M,M,M,M,M,M,M,M,M,M,M,81.75,KBVU 231255Z AUTO 00000KT 10SM CLR 28/13 A2990 RMK AO2,M
CXP,2024-06-23 12:55,-119.7326,39.1923,1431.00,57.20,35.60,44.19,0.00,0.00,0.00,30.10,M,10.00,M,CLR,M,M,M,M,M,M,M,M,M,M,M,M,M,M,57.20,KCXP 231255Z AUTO 00000KT 10SM CLR 14/02 A3010 RMK AO2,M
RNO,2024-06-23 12:55,-119.7711,39.4839,1341.00,64.00,44.00,48.12,160.00,4.00,0.00,30.08,1012.40,10.00,M,CLR,M,M,M,M,M,M,M,M,M,M,M,M,M,M,64.00,KRNO 231255Z 16004KT 10SM CLR 18/07 A3008 RMK AO2 SLP124 T01780067,M
RTS,2024-06-23 12:55,-119.8764,39.6682,1539.00,55.40,28.40,35.28,350.00,3.00,0.00,30.12,M,10.00,M,CLR,M,M,M,M,M,M,M,M,M,M,M,M,M,M,55.40,KRTS 231255Z AUTO 35003KT 10SM CLR 13/M02 A3012 RMK AO2,M
MEV,2024-06-23 12:55,-119.7500,38.9963,1441.42,51.80,37.40,57.77,140.00,4.00,0.00,30.09,M,10.00,M,CLR,M,M,M,M,M,M,M,M,M,M,M,M,M,M,51.80,KMEV 231255Z AUTO 14004KT 10SM CLR 11/03 A3009 RMK AO2,M
BAM,2024-06-23 12:55,-116.8743,40.5990,1382.36,55.40,28.40,35.28,190.00,5.00,0.00,30.08,M,10.00,M,CLR,M,M,M,M,M,M,M,M,M,M,M,M,M,M,55.40,KBAM 231255Z AUTO 19005KT 10SM CLR 13/M02 A3008 RMK AO1,M
HTH,2024-06-23 12:55,-118.6315,38.5448,1282.89,68.00,39.20,34.80,0.00,0.00,0.00,30.06,M,10.00,M,CLR,M,M,M,M,M,M,M,M,M,M,M,M,M,M,68.00,KHTH 231255Z AUTO 00000KT 10SM CLR 20/04 A3006 RMK A01,M
10U,2024-06-23 12:55,-116.1876,41.9532,1637.00,53.60,35.60,50.36,180.00,5.00,0.00,30.11,M,10.00,M,CLR,M,M,M,M,M,M,M,M,M,M,M,M,M,M,53.60,K10U 231255Z AUTO 18005KT 10SM CLR 12/02 A3011 RMK AO2,M
TMT,2024-06-23 12:55,-117.1971,39.4643,1749.34,45.70,26.80,47.34,300.00,3.00,0.00,30.18,M,10.00,M,CLR,M,M,M,M,M,M,M,M,M,M,M,M,M,M,44.35,KTMT 231255Z AUTO 30003KT 10SM CLR 08/M03 A3018 RMK AO2 T00761029,M
INS,2024-06-23 12:55,-115.6733,36.5872,955.00,M,M,M,0.00,0.00,0.00,M,M,10.00,M,M,M,M,M,M,M,M,M,M,M,M,M,M,M,M,M,KINS 231255Z AUTO 00000KT 10SM M M M RMK AO2 SLPNO RVRNO TSNO $,M
LSV,2024-06-23 12:55,-115.0343,36.2362,570.00,89.00,46.20,22.79,0.00,0.00,0.00,29.85,1007.70,10.00,M,CLR,M,M,M,M,M,M,M,M,M,M,M,M,M,M,85.69,KLSV 231255Z AUTO 00000KT 10SM CLR 32/08 A2985 RMK AO2 SLP077 T03160079 $,M
EKO,2024-06-23 12:56,-115.7860,40.8242,1367.00,56.00,38.00,50.73,0.00,0.00,0.00,30.09,1013.00,10.00,M,CLR,M,M,M,M,M,M,M,M,M,M,M,M,M,M,56.00,KEKO 231256Z AUTO 00000KT 10SM CLR 13/03 A3009 RMK AO2 SLP130 T01330033,M
WMC,2024-06-23 12:56,-117.8072,40.9019,1315.00,58.00,35.00,41.92,0.00,0.00,0.00,30.05,1012.00,10.00,M,CLR,M,M,M,M,M,M,M,M,M,M,M,M,M,M,58.00,KWMC 231256Z AUTO 00000KT 10SM CLR 14/02 A3005 RMK AO2 SLP120 T01440017,M
NFL,2024-06-23 12:56,-118.7010,39.4166,1199.00,62.00,40.00,44.25,190.00,4.00,0.00,30.02,1013.70,10.00,M,CLR,M,M,M,M,M,M,M,M,M,M,M,M,M,M,62.00,KNFL 231256Z AUTO 19004KT 10SM CLR 17/04 A3002 RMK AO2 SLP137 T01670044,M
HND,2024-06-23 12:56,-115.1344,35.9729,742.79,87.00,47.00,25.02,170.00,8.00,0.00,29.94,1011.80,10.00,M,CLR,M,M,M,M,M,M,M,M,M,M,M,M,M,M,84.08,KHND 231256Z AUTO 17008KT 10SM CLR 31/08 A2994 RMK AO2 SLP118 T03060083,M
TPH,2024-06-23 12:56,-117.0904,38.0505,1654.00,56.00,24.00,28.77,340.00,7.00,0.00,30.15,1012.90,10.00,M,CLR,M,M,M,M,M,M,M,M,M,M,M,M,M,M,56.00,KTPH 231256Z AUTO 34007KT 10SM CLR 13/M04 A3015 RMK AO2 SLP129 T01331044,M
LAS,2024-06-23 12:56,-115.1634,36.0719,663.00,90.00,45.00,21.10,0.00,0.00,0.00,29.91,1009.40,10.00,M,FEW,M,M,M,18000.00,M,M,M,M,M,M,M,M,M,M,86.45,KLAS 231256Z 00000KT 10SM FEW180 32/07 A2991 RMK AO2 SLP094 T03220072 $,M
BVU,2024-06-23 13:15,-114.8611,35.9475,671.00,86.00,55.40,35.25,0.00,0.00,0.00,29.90,M,10.00,M,CLR,M,M,M,M,M,M,M,M,M,M,M,M,M,M,84.54,KBVU 231315Z AUTO 00000KT 10SM CLR 30/13 A2990 RMK AO2,M
CXP,2024-06-23 13:15,-119.7326,39.1923,1431.00,59.00,35.60,41.42,0.00,0.00,0.00,30.11,M,10.00,M,CLR,M,M,M,M,M,M,M,M,M,M,M,M,M,M,59.00,KCXP 231315Z AUTO 00000KT 10SM CLR 15/02 A3011 RMK AO2,M
RTS,2024-06-23 13:15,-119.8764,39.6682,1539.00,57.20,28.40,33.05,350.00,6.00,0.00,30.12,M,10.00,M,CLR,M,M,M,M,M,M,M,M,M,M,M,M,M,M,57.20,KRTS 231315Z AUTO 35006KT 10SM CLR 14/M02 A3012 RMK AO2,M
MEV,2024-06-23 13:15,-119.7500,38.9963,1441.42,53.60,39.20,58.02,0.00,0.00,0.00,30.10,M,10.00,M,CLR,M,M,M,M,M,M,M,M,M,M,M,M,M,M,53.60,KMEV 231315Z AUTO 00000KT 10SM CLR 12/04 A3010 RMK AO2,M
BAM,2024-06-23 13:15,-116.8743,40.5990,1382.36,60.80,30.20,31.28,190.00,5.00,0.00,30.08,M,10.00,M,CLR,M,M,M,M,M,M,M,M,M,M,M,M,M,M,60.80,KBAM 231315Z AUTO 19005KT 10SM CLR 16/M01 A3008 RMK AO1,M
HTH,2024-06-23 13:15,-118.6315,38.5448,1282.89,68.00,41.00,37.32,90.00,4.00,0.00,30.06,M,10.00,M,CLR,M,M,M,M,M,M,M,M,M,M,M,M,M,M,68.00,KHTH 231315Z AUTO 09004KT 10SM CLR 20/05 A3006 RMK A01,M
10U,2024-06-23 13:15,-116.1876,41.9532,1637.00,57.20,35.60,44.19,170.00,5.00,0.00,30.11,M,10.00,M,CLR,M,M,M,M,M,M,M,M,M,M,M,M,M,M,57.20,K10U 231315Z AUTO 17005KT 10SM CLR 14/02 A3011 RMK AO2,M
TMT,2024-06-23 13:15,-117.1971,39.4643,1749.34,47.70,28.20,46.51,0.00,0.00,0.00,30.18,M,10.00,M,CLR,M,M,M,M,M,M,M,M,M,M,M,M,M,M,47.70,KTMT 231315Z AUTO 00000KT 10SM CLR 09/M02 A3018 RMK AO2 T00871021,M
BVU,2024-06-23 13:35,-114.8611,35.9475,671.00,86.00,55.40,35.25,80.00,4.00,0.00,29.91,M,10.00,M,CLR,M,M,M,M,M,M,M,M,M,M,M,M,M,M,84.54,KBVU 231335Z AUTO 08004KT 10SM CLR 30/13 A2991 RMK AO2,M
CXP,2024-06-23 13:35,-119.7326,39.1923,1431.00,60.80,37.40,41.71,0.00,0.00,0.00,30.12,M,10.00,M,FEW,M,M,M,1400.00,M,M,M,M,M,M,M,M,M,M,60.80,KCXP 231335Z AUTO 00000KT 10SM FEW014 16/03 A3012 RMK AO2,M
RTS,2024-06-23 13:35,-119.8764,39.6682,1539.00,60.80,30.20,31.28,0.00,0.00,0.00,30.13,M,10.00,M,CLR,M,M,M,M,M,M,M,M,M,M,M,M,M,M,60.80,KRTS 231335Z AUTO 00000KT 10SM CLR 16/M01 A3013 RMK AO2,M
MEV,2024-06-23 13:35,-119.7500,38.9963,1441.42,55.40,41.00,58.27,0.00,0.00,0.00,30.10,M,10.00,M,CLR,M,M,M,M,M,M,M,M,M,M,M,M,M,M,55.40,KMEV 231335Z AUTO 00000KT 10SM CLR 13/05 A3010 RMK AO2,M
BAM,2024-06-23 13:35,-116.8743,40.5990,1382.36,62.60,32.00,31.56,200.00,3.00,0.00,30.08,M,10.00,M,CLR,M,M,M,M,M,M,M,M,M,M,M,M,M,M,62.60,KBAM 231335Z AUTO 20003KT 10SM CLR 17/00 A3008 RMK AO1,M
HTH,2024-06-23 13:35,-118.6315,38.5448,1282.89,69.80,41.00,35.09,0.00,0.00,0.00,30.07,M,10.00,M,CLR,M,M,M,M,M,M,M,M,M,M,M,M,M,M,69.80,KHTH 231335Z AUTO 00000KT 10SM CLR 21/05 A3007 RMK A01,M
10U,2024-06-23 13:35,-116.1876,41.9532,1637.00,62.60,37.40,39.14,170.00,5.00,0.00,30.11,M,10.00,M,CLR,M,M,M,M,M,M,M,M,M,M,M,M,M,M,62.60,K10U 231335Z AUTO 17005KT 10SM CLR 17/03 A3011 RMK AO2,M
TMT,2024-06-23 13:35,-117.1971,39.4643,1749.34,53.80,30.00,39.92,0.00,0.00,0.00,30.18,M,10.00,M,CLR,M,M,M,M,M,M,M,M,M,M,M,M,M,M,53.80,KTMT 231335Z AUTO 00000KT 10SM CLR 12/M01 A3018 RMK AO2 T01211011,M
P68,2024-06-23 13:53,-116.0056,39.6014,1993.00,67.00,24.00,19.49,230.00,4.00,0.00,30.16,1011.30,M,M,M,M,M,M,M,M,M,M,M,M,M,M,M,M,M,67.00,KP68 231353Z AUTO 23004KT 19/M04 A3016 RMK AO1 SLP113 T01941044,M
DRA,2024-06-23 13:53,-116.0278,36.6206,1009.00,82.00,36.00,19.21,0.00,0.00,0.00,29.99,1009.50,10.00,M,CLR,M,M,M,M,M,M,M,M,M,M,M,M,M,M,79.83,KDRA 231353Z AUTO 00000KT 10SM CLR 28/02 A2999 RMK AO2 SLP095 T02780022,M
ELY,2024-06-23 13:53,-114.8453,39.2950,1909.00,68.00,30.00,24.12,110.00,3.00,0.00,30.21,1011.10,10.00,M,CLR,M,M,M,M,M,M,M,M,M,M,M,M,M,M,68.00,KELY 231353Z AUTO 11003KT 10SM CLR 20/M01 A3021 RMK AO2 SLP111 T02001011,M
VGT,2024-06-23 13:53,-115.1933,36.2111,667.00,88.00,51.00,28.15,330.00,4.00,0.00,29.90,1010.90,10.00,M,CLR,M,M,M,M,M,M,M,M,M,M,M,M,M,M,85.43,KVGT 231353Z 33004KT 10SM CLR 31/11 A2990 RMK AO2 SLP109 T03110106,M
LOL,2024-06-23 13:53,-118.5701,40.0684,1192.43,63.00,35.00,35.10,0.00,0.00,0.00,30.04,1012.40,10.00,M,CLR,M,M,M,M,M,M,M,M,M,M,M,M,M,M,63.00,KLOL 231353Z AUTO 00000KT 10SM CLR 17/02 A3004 RMK AO2 SLP124 T01720017,M
BVU,2024-06-23 13:55,-114.8611,35.9475,671.00,87.80,55.40,33.29,0.00,0.00,0.00,29.91,M,10.00,M,CLR,M,M,M,M,M,M,M,M,M,M,M,M,M,M,86.11,KBVU 231355Z AUTO 00000KT 10SM CLR 31/13 A2991 RMK AO2,M
CXP,2024-06-23 13:55,-119.7326,39.1923,1431.00,64.40,37.40,36.74,0.00,0.00,0.00,30.12,M,10.00,M,FEW,M,M,M,1400.00,M,M,M,M,M,M,M,M,M,M,64.40,KCXP 231355Z AUTO 00000KT 10SM FEW014 18/03 A3012 RMK AO2,M
RNO,2024-06-23 13:55,-119.7711,39.4839,1341.00,68.00,44.00,41.88,170.00,4.00,0.00,30.09,1012.60,10.00,M,CLR,M,M,M,M,M,M,M,M,M,M,M,M,M,M,68.00,KRNO 231355Z 17004KT 10SM CLR 20/07 A3009 RMK AO2 SLP126 T02000067,M
RTS,2024-06-23 13:55,-119.8764,39.6682,1539.00,64.40,32.00,29.63,0.00,0.00,0.00,30.13,M,10.00,M,CLR,M,M,M,M,M,M,M,M,M,M,M,M,M,M,64.40,KRTS 231355Z AUTO 00000KT 10SM CLR 18/00 A3013 RMK AO2,M
MEV,2024-06-23 13:55,-119.7500,38.9963,1441.42,60.80,39.20,44.76,0.00,0.00,0.00,30.10,M,10.00,M,CLR,M,M,M,M,M,M,M,M,M,M,M,M,M,M,60.80,KMEV 231355Z AUTO 00000KT 10SM CLR 16/04 A3010 RMK AO2,M
BAM,2024-06-23 13:55,-116.8743,40.5990,1382.36,66.20,32.00,27.83,150.00,4.00,0.00,30.08,M,10.00,M,CLR,M,M,M,M,M,M,M,M,M,M,M,M,M,M,66.20,KBAM 231355Z AUTO 15004KT 10SM CLR 19/00 A3008 RMK AO1,M
HTH,2024-06-23 13:55,-118.6315,38.5448,1282.89,75.20,42.80,31.34,0.00,0.00,0.00,30.07,M,10.00,M,CLR,M,M,M,M,M,M,M,M,M,M,M,M,M,M,75.20,KHTH 231355Z AUTO 00000KT 10SM CLR 24/06 A3007 RMK A01,M
10U,2024-06-23 13:55,-116.1876,41.9532,1637.00,64.40,39.20,39.43,150.00,4.00,0.00,30.11,M,10.00,M,CLR,M,M,M,M,M,M,M,M,M,M,M,M,M,M,64.40,K10U 231355Z AUTO 15004KT 10SM CLR 18/04 A3011 RMK AO2,M
TMT,2024-06-23 13:55,-117.1971,39.4643,1749.34,54.70,27.50,34.88,0.00,0.00,0.00,30.18,M,10.00,M,CLR,M,M,M,M,M,M,M,M,M,M,M,M,M,M,54.70,KTMT 231355Z AUTO 00000KT 10SM CLR 13/M02 A3018 RMK AO2 T01261025,M
INS,2024-06-23 13:55,-115.6733,36.5872,955.00,M,M,M,0.00,0.00,0.00,M,M,10.00,M,M,M,M,M,M,M,M,M,M,M,M,M,M,M,M,M,KINS 231355Z AUTO 00000KT 10SM M M M RMK AO2 SLPNO RVRNO TSNO $,M
LSV,2024-06-23 13:55,-115.0343,36.2362,570.00,91.60,47.30,21.89,50.00,3.00,0.00,29.86,1007.90,10.00,M,CLR,M,M,M,M,M,M,M,M,M,M,M,M,M,M,88.16,KLSV 231355Z AUTO 05003KT 10SM CLR 33/09 A2986 RMK AO2 SLP079 T03310085 $,M
EKO,2024-06-23 13:56,-115.7860,40.8242,1367.00,65.00,38.00,36.84,0.00,0.00,0.00,30.11,1012.70,10.00,M,CLR,M,M,M,M,M,M,M,M,M,M,M,M,M,M,65.00,KEKO 231356Z AUTO 00000KT 10SM CLR 18/03 A3011 RMK AO2 SLP127 T01830033,M
WMC,2024-06-23 13:56,-117.8072,40.9019,1315.00,65.00,33.00,30.21,0.00,0.00,0.00,30.05,1011.90,10.00,M,CLR,M,M,M,M,M,M,M,M,M,M,M,M,M,M,65.00,KWMC 231356Z AUTO 00000KT 10SM CLR 18/01 A3005 RMK AO2 SLP119 T01830006,M
NFL,2024-06-23 13:56,-118.7010,39.4166,1199.00,69.00,40.00,34.69,120.00,3.00,0.00,30.04,1014.00,9.00,M,CLR,M,M,M,M,M,M,M,M,M,M,M,M,M,M,69.00,KNFL 231356Z AUTO 12003KT 9SM CLR 21/04 A3004 RMK AO2 SLP140 T02060044,M
HND,2024-06-23 13:56,-115.1344,35.9729,742.79,91.00,48.00,22.90,180.00,10.00,0.00,29.95,1011.80,10.00,M,CLR,M,M,M,M,M,M,M,M,M,M,M,M,M,M,87.69,KHND 231356Z 18010KT 10SM CLR 33/09 A2995 RMK AO2 SLP118 T03280089,M
TPH,2024-06-23 13:56,-117.0904,38.0505,1654.00,64.00,26.00,23.51,350.00,7.00,0.00,30.16,1012.40,10.00,M,CLR,M,M,M,M,M,M,M,M,M,M,M,M,M,M,64.00,KTPH 231356Z AUTO 35007KT 10SM CLR 18/M03 A3016 RMK AO2 SLP124 T01781033,M
LAS,2024-06-23 13:56,-115.1634,36.0719,663.00,92.00,45.00,19.82,240.00,4.00,0.00,29.92,1009.50,10.00,M,FEW,M,M,M,16000.00,M,M,M,M,M,M,M,M,M,M,88.27,KLAS 231356Z 24004KT 10SM FEW160 33/07 A2992 RMK AO2 SLP095 T03330072 $,M
BVU,2024-06-23 14:15,-114.8611,35.9475,671.00,89.60,51.80,27.56,0.00,0.00,0.00,29.91,M,10.00,M,CLR,M,M,M,M,M,M,M,M,M,M,M,M,M,M,87.00,KBVU 231415Z AUTO 00000KT 10SM CLR 32/11 A2991 RMK AO2,M
CXP,2024-06-23 14:15,-119.7326,39.1923,1431.00,66.20,41.00,39.72,0.00,0.00,0.00,30.12,M,10.00,M,CLR,M,M,M,M,M,M,M,M,M,M,M,M,M,M,66.20,KCXP 231415Z AUTO 00000KT 10SM CLR 19/05 A3012 RMK AO2,M
RTS,2024-06-23 14:15,-119.8764,39.6682,1539.00,66.20,37.40,34.51,0.00,0.00,0.00,30.13,M,10.00,M,CLR,M,M,M,M,M,M,M,M,M,M,M,M,M,M,66.20,KRTS 231415Z AUTO 00000KT 10SM CLR 19/03 A3013 RMK AO2,M
MEV,2024-06-23 14:15,-119.7500,38.9963,1441.42,62.60,39.20,42.00,0.00,0.00,0.00,30.10,M,10.00,M,CLR,M,M,M,M,M,M,M,M,M,M,M,M,M,M,62.60,KMEV 231415Z AUTO 00000KT 10SM CLR 17/04 A3010 RMK AO2,M
BAM,2024-06-23 14:15,-116.8743,40.5990,1382.36,68.00,32.00,26.15,0.00,0.00,0.00,30.08,M,10.00,M,CLR,M,M,M,M,M,M,M,M,M,M,M,M,M,M,68.00,KBAM 231415Z AUTO 00000KT 10SM CLR 20/00 A3008 RMK AO1,M
HTH,2024-06-23 14:15,-118.6315,38.5448,1282.89,77.00,42.80,29.51,240.00,4.00,0.00,30.07,M,10.00,M,CLR,M,M,M,M,M,M,M,M,M,M,M,M,M,M,77.00,KHTH 231415Z AUTO 24004KT 10SM CLR 25/06 A3007 RMK A01,M
10U,2024-06-23 14:15,-116.1876,41.9532,1637.00,69.80,39.20,32.72,160.00,4.00,0.00,30.11,M,10.00,M,CLR,M,M,M,M,M,M,M,M,M,M,M,M,M,M,69.80,K10U 231415Z AUTO 16004KT 10SM CLR 21/04 A3011 RMK AO2,M
TMT,2024-06-23 14:15,-117.1971,39.4643,1749.34,60.00,28.20,29.65,0.00,0.00,0.00,30.18,M,10.00,M,CLR,M,M,M,M,M,M,M,M,M,M,M,M,M,M,60.00,KTMT 231415Z AUTO 00000KT 10SM CLR 16/M02 A3018 RMK AO2 T01561021,M
BVU,2024-06-23 14:35,-114.8611,35.9475,671.00,91.40,48.20,22.78,0.00,0.00,0.00,29.91,M,10.00,M,CLR,M,M,M,M,M,M,M,M,M,M,M,M,M,M,88.09,KBVU 231435Z AUTO 00000KT 10SM CLR 33/09 A2991 RMK AO2,M
CXP,2024-06-23 14:35,-119.7326,39.1923,1431.00,68.00,39.20,34.80,0.00,0.00,0.00,30.12,M,10.00,M,CLR,M,M,M,M,M,M,M,M,M,M,M,M,M,M,68.00,KCXP 231435Z AUTO 00000KT 10SM CLR 20/04 A3012 RMK AO2,M
RTS,2024-06-23 14:35,-119.8764,39.6682,1539.00,68.00,39.20,34.80,0.00,0.00,0.00,30.13,M,10.00,M,CLR,M,M,M,M,M,M,M,M,M,M,M,M,M,M,68.00,KRTS 231435Z AUTO 00000KT 10SM CLR 20/04 A3013 RMK AO2,M
MEV,2024-06-23 14:35,-119.7500,38.9963,1441.42,66.20,39.20,37.03,0.00,0.00,0.00,30.11,M,10.00,M,CLR,M,M,M,M,M,M,M,M,M,M,M,M,M,M,66.20,KMEV 231435Z AUTO 00000KT 10SM CLR 19/04 A3011 RMK AO2,M
BAM,2024-06-23 14:35,-116.8743,40.5990,1382.36,71.60,32.00,23.13,0.00,0.00,0.00,30.08,M,10.00,M,CLR,M,M,M,M,M,M,M,M,M,M,M,M,M,M,71.60,KBAM 231435Z AUTO 00000KT 10SM CLR 22/00 A3008 RMK AO1,M
HTH,2024-06-23 14:35,-118.6315,38.5448,1282.89,78.80,39.20,24.19,0.00,0.00,0.00,30.07,M,10.00,M,CLR,M,M,M,M,M,M,M,M,M,M,M,M,M,M,78.80,KHTH 231435Z AUTO 00000KT 10SM CLR 26/04 A3007 RMK A01,M
10U,2024-06-23 14:35,-116.1876,41.9532,1637.00,71.60,39.20,30.77,0.00,0.00,0.00,30.11,M,10.00,M,CLR,M,M,M,M,M,M,M,M,M,M,M,M,M,M,71.60,K10U 231435Z AUTO 00000KT 10SM CLR 22/04 A3011 RMK AO2,M
TMT,2024-06-23 14:35,-117.1971,39.4643,1749.34,64.60,29.50,26.59,0.00,0.00,0.00,30.19,M,10.00,M,CLR,M,M,M,M,M,M,M,M,M,M,M,M,M,M,64.60,KTMT 231435Z AUTO 00000KT 10SM CLR 18/M01 A3019 RMK AO2 T01811014,M
10U,2024-06-23 14:50,-116.1876,41.9532,1637.00,73.40,39.20,28.96,0.00,0.00,0.00,30.12,M,10.00,M,CLR,M,M,M,M,M,M,M,M,M,M,M,M,M,M,73.40,K10U 231450Z AUTO 00000KT 10SM CLR 23/04 A3012 RMK AO2,M
P68,2024-06-23 14:53,-116.0056,39.6014,1993.00,75.00,22.00,13.65,0.00,0.00,0.00,30.17,1011.50,M,M,M,M,M,M,M,M,M,M,M,M,M,M,M,M,M,75.00,KP68 231453Z AUTO 00000KT 24/M06 A3017 RMK AO1 SLP115 T02391056 52002,M
DRA,2024-06-23 14:53,-116.0278,36.6206,1009.00,91.00,34.00,13.32,0.00,0.00,0.00,29.99,1009.40,10.00,M,CLR,M,M,M,M,M,M,M,M,M,M,M,M,M,M,86.79,KDRA 231453Z AUTO 00000KT 10SM CLR 33/01 A2999 RMK AO2 SLP094 T03280011 52006,M
ELY,2024-06-23 14:53,-114.8453,39.2950,1909.00,77.00,30.00,17.80,200.00,8.00,0.00,30.22,1011.20,10.00,17.00,CLR,M,M,M,M,M,M,M,M,M,M,M,M,M,M,77.00,KELY 231453Z AUTO 20008G17KT 10SM CLR 25/M01 A3022 RMK AO2 SLP112 T02501011 53002,M
VGT,2024-06-23 14:53,-115.1933,36.2111,667.00,92.00,48.00,22.19,140.00,3.00,0.00,29.91,1011.10,10.00,M,CLR,M,M,M,M,M,M,M,M,M,M,M,M,M,M,88.63,KVGT 231453Z 14003KT 10SM CLR 33/09 A2991 RMK AO2 SLP111 T03330089 53007,M
LOL,2024-06-23 14:53,-118.5701,40.0684,1192.43,70.00,32.00,24.42,0.00,0.00,0.00,30.04,1012.50,10.00,M,CLR,M,M,M,M,M,M,M,M,M,M,M,M,M,M,70.00,KLOL 231453Z AUTO 00000KT 10SM CLR 21/00 A3004 RMK AO2 SLP125 T02110000 53008,M
BVU,2024-06-23 14:55,-114.8611,35.9475,671.00,93.20,50.00,23.04,0.00,0.00,0.00,29.92,M,10.00,M,CLR,M,M,M,M,M,M,M,M,M,M,M,M,M,M,90.10,KBVU 231455Z AUTO 00000KT 10SM CLR 34/10 A2992 RMK AO2,M
CXP,2024-06-23 14:55,-119.7326,39.1923,1431.00,69.80,39.20,32.72,0.00,0.00,0.00,30.12,M,10.00,M,CLR,M,M,M,M,M,M,M,M,M,M,M,M,M,M,69.80,KCXP 231455Z AUTO 00000KT 10SM CLR 21/04 A3012 RMK AO2,M
RNO,2024-06-23 14:55,-119.7711,39.4839,1341.00,75.00,45.00,34.31,0.00,0.00,0.00,30.09,1012.50,10.00,M,CLR,M,M,M,M,M,M,M,M,M,M,M,M,M,M,75.00,KRNO 231455Z 00000KT 10SM CLR 24/07 A3009 RMK AO2 SLP125 T02390072 51005,M
RTS,2024-06-23 14:55,-119.8764,39.6682,1539.00,73.40,37.40,26.98,0.00,0.00,0.00,30.13,M,10.00,M,CLR,M,M,M,M,M,M,M,M,M,M,M,M,M,M,73.40,KRTS 231455Z AUTO 00000KT 10SM CLR 23/03 A3013 RMK AO2,M
MEV,2024-06-23 14:55,-119.7500,38.9963,1441.42,71.60,37.40,28.68,0.00,0.00,0.00,30.11,M,10.00,M,CLR,M,M,M,M,M,M,M,M,M,M,M,M,M,M,71.60,KMEV 231455Z AUTO 00000KT 10SM CLR 22/03 A3011 RMK AO2,M
BAM,2024-06-23 14:55,-116.8743,40.5990,1382.36,75.20,32.00,20.49,0.00,0.00,0.00,30.08,M,10.00,M,CLR,M,M,M,M,M,M,M,M,M,M,M,M,M,M,75.20,KBAM 231455Z AUTO 00000KT 10SM CLR 24/00 A3008 RMK AO1,M
HTH,2024-06-23 14:55,-118.6315,38.5448,1282.89,78.80,39.20,24.19,0.00,0.00,0.00,30.08,M,10.00,M,CLR,M,M,M,M,M,M,M,M,M,M,M,M,M,M,78.80,KHTH 231455Z AUTO 00000KT 10SM CLR 26/04 A3008 RMK A01,M
TMT,2024-06-23 14:55,-117.1971,39.4643,1749.34,67.00,30.40,25.37,0.00,0.00,0.00,30.19,M,10.00,M,CLR,M,M,M,M,M,M,M,M,M,M,M,M,M,M,67.00,KTMT 231455Z AUTO 00000KT 10SM CLR 20/M01 A3019 RMK AO2 T01951009,M
INS,2024-06-23 14:55,-115.6733,36.5872,955.00,M,M,M,20.00,3.00,0.00,M,M,10.00,M,M,M,M,M,M,M,M,M,M,M,M,M,M,M,M,M,KINS 231455Z AUTO 02003KT 10SM M M M RMK AO2 SLPNO RVRNO TSNO $,M
LSV,2024-06-23 14:55,-115.0343,36.2362,570.00,95.00,48.70,20.76,0.00,0.00,0.00,29.87,1008.30,10.00,M,CLR,M,M,M,M,M,M,M,M,M,M,M,M,M,M,91.65,KLSV 231455Z AUTO 00000KT 10SM CLR 35/09 A2987 RMK AO2 SLP083 T03490093 52007 $,M
EKO,2024-06-23 14:56,-115.7860,40.8242,1367.00,73.00,39.00,29.12,190.00,5.00,0.00,30.11,1012.90,10.00,M,CLR,M,M,M,M,M,M,M,M,M,M,M,M,M,M,73.00,KEKO 231456Z AUTO 19005KT 10SM CLR 23/04 A3011 RMK AO2 SLP129 T02280039 51008,M
WMC,2024-06-23 14:56,-117.8072,40.9019,1315.00,75.00,30.00,19.02,0.00,0.00,0.00,30.06,1012.00,10.00,M,CLR,M,M,M,M,M,M,M,M,M,M,M,M,M,M,75.00,KWMC 231456Z AUTO 00000KT 10SM CLR 24/M01 A3006 RMK AO2 SLP120 T02391011 51006,M
NFL,2024-06-23 14:56,-118.7010,39.4166,1199.00,77.00,36.00,22.64,0.00,0.00,0.00,30.05,1014.30,10.00,M,CLR,M,M,M,M,M,M,M,M,M,M,M,M,M,M,77.00,KNFL 231456Z AUTO 00000KT 10SM CLR 25/02 A3005 RMK AO2 SLP143 T02500022 53009,M
HND,2024-06-23 14:56,-115.1344,35.9729,742.79,95.00,46.00,18.76,210.00,12.00,0.00,29.96,1012.10,10.00,M,CLR,M,M,M,M,M,M,M,M,M,M,M,M,M,M,91.23,KHND 231456Z 21012KT 10SM CLR 35/08 A2996 RMK AO2 SLP121 T03500078 53005,M
TPH,2024-06-23 14:56,-117.0904,38.0505,1654.00,74.00,27.00,17.39,0.00,0.00,0.00,30.17,1012.30,10.00,M,CLR,M,M,M,M,M,M,M,M,M,M,M,M,M,M,74.00,KTPH 231456Z AUTO 00000KT 10SM CLR 23/M03 A3017 RMK AO2 SLP123 T02331028 53007,M
LAS,2024-06-23 14:56,-115.1634,36.0719,663.00,95.00,45.00,18.06,220.00,5.00,0.00,29.93,1009.90,10.00,M,FEW,M,M,M,16000.00,M,M,M,M,M,M,M,M,M,M,91.10,KLAS 231456Z 22005KT 10SM FEW160 35/07 A2993 RMK AO2 SLP099 T03500072 51009 $,M
BVU,2024-06-23 15:15,-114.8611,35.9475,671.00,93.20,51.80,24.63,120.00,4.00,0.00,29.92,M,10.00,M,CLR,M,M,M,M,M,M,M,M,M,M,M,M,M,M,90.45,KBVU 231515Z AUTO 12004KT 10SM CLR 34/11 A2992 RMK AO2,M
CXP,2024-06-23 15:15,-119.7326,39.1923,1431.00,75.20,37.40,25.40,0.00,0.00,0.00,30.13,M,10.00,M,CLR,M,M,M,M,M,M,M,M,M,M,M,M,M,M,75.20,KCXP 231515Z AUTO 00000KT 10SM CLR 24/03 A3013 RMK AO2,M
RTS,2024-06-23 15:15,-119.8764,39.6682,1539.00,75.20,37.40,25.40,200.00,9.00,0.00,30.13,M,10.00,M,CLR,M,M,M,M,M,M,M,M,M,M,M,M,M,M,75.20,KRTS 231515Z AUTO 20009KT 10SM CLR 24/03 A3013 RMK AO2,M
MEV,2024-06-23 15:15,-119.7500,38.9963,1441.42,75.20,35.60,23.66,0.00,0.00,0.00,30.11,M,10.00,M,CLR,M,M,M,M,M,M,M,M,M,M,M,M,M,M,75.20,KMEV 231515Z AUTO 00000KT 10SM CLR 24/02 A3011 RMK AO2,M
BAM,2024-06-23 15:15,-116.8743,40.5990,1382.36,77.00,32.00,19.30,0.00,0.00,0.00,30.09,M,10.00,M,CLR,M,M,M,M,M,M,M,M,M,M,M,M,M,M,77.00,KBAM 231515Z AUTO 00000KT 10SM CLR 25/00 A3009 RMK AO1,M
HTH,2024-06-23 15:15,-118.6315,38.5448,1282.89,80.60,41.00,24.46,330.00,5.00,0.00,30.08,M,10.00,M,CLR,M,M,M,M,M,M,M,M,M,M,M,M,M,M,79.20,KHTH 231515Z AUTO 33005KT 10SM CLR 27/05 A3008 RMK A01,M
10U,2024-06-23 15:15,-116.1876,41.9532,1637.00,78.80,33.80,19.55,220.00,9.00,0.00,30.12,M,10.00,M,CLR,M,M,M,M,M,M,M,M,M,M,M,M,M,M,78.80,K10U 231515Z AUTO 22009KT 10SM CLR 26/01 A3012 RMK AO2,M
TMT,2024-06-23 15:15,-117.1971,39.4643,1749.34,68.70,33.80,27.45,0.00,0.00,0.00,30.19,M,10.00,M,CLR,M,M,M,M,M,M,M,M,M,M,M,M,M,M,68.70,KTMT 231515Z AUTO 00000KT 10SM CLR 20/01 A3019 RMK AO2 T02040010,M
BVU,2024-06-23 15:35,-114.8611,35.9475,671.00,95.00,50.00,21.79,150.00,6.00,0.00,29.92,M,10.00,M,CLR,M,M,M,M,M,M,M,M,M,M,M,M,M,M,91.89,KBVU 231535Z AUTO 15006KT 10SM CLR 35/10 A2992 RMK AO2,M
CXP,2024-06-23 15:35,-119.7326,39.1923,1431.00,78.80,33.80,19.55,0.00,0.00,0.00,30.13,M,10.00,M,CLR,M,M,M,M,M,M,M,M,M,M,M,M,M,M,78.80,KCXP 231535Z AUTO 00000KT 10SM CLR 26/01 A3013 RMK AO2,M
RTS,2024-06-23 15:35,-119.8764,39.6682,1539.00,78.80,32.00,18.18,210.00,12.00,0.00,30.13,M,10.00,19.00,CLR,M,M,M,M,M,M,M,M,M,M,M,M,M,M,78.80,KRTS 231535Z AUTO 21012G19KT 10SM CLR 26/00 A3013 RMK AO2,M
MEV,2024-06-23 15:35,-119.7500,38.9963,1441.42,78.80,35.60,21.00,0.00,0.00,0.00,30.11,M,10.00,M,CLR,M,M,M,M,M,M,M,M,M,M,M,M,M,M,78.80,KMEV 231535Z AUTO 00000KT 10SM CLR 26/02 A3011 RMK AO2,M
BAM,2024-06-23 15:35,-116.8743,40.5990,1382.36,78.80,32.00,18.18,0.00,0.00,0.00,30.09,M,10.00,M,CLR,M,M,M,M,M,M,M,M,M,M,M,M,M,M,78.80,KBAM 231535Z AUTO 00000KT 10SM CLR 26/00 A3009 RMK AO1,M
HTH,2024-06-23 15:35,-118.6315,38.5448,1282.89,80.60,39.20,22.81,350.00,3.00,0.00,30.08,M,10.00,M,CLR,M,M,M,M,M,M,M,M,M,M,M,M,M,M,79.10,KHTH 231535Z AUTO 35003KT 10SM CLR 27/04 A3008 RMK A01,M
10U,2024-06-23 15:35,-116.1876,41.9532,1637.00,78.80,33.80,19.55,210.00,8.00,0.00,30.12,M,10.00,14.00,CLR,M,M,M,M,M,M,M,-DZ,M,M,M,M,M,M,78.80,K10U 231535Z AUTO 21008G14KT 10SM -DZ CLR 26/01 A3012 RMK AO2,M
TMT,2024-06-23 15:35,-117.1971,39.4643,1749.34,71.00,33.40,24.97,0.00,0.00,0.00,30.19,M,10.00,M,CLR,M,M,M,M,M,M,M,M,M,M,M,M,M,M,71.00,KTMT 231535Z AUTO 00000KT 10SM CLR 22/01 A3019 RMK AO2 T02170008,M
P68,2024-06-23 15:53,-116.0056,39.6014,1993.00,81.00,25.00,12.70,0.00,0.00,0.00,30.17,1011.70,M,M,M,M,M,M,M,M,M,M,M,M,M,M,M,M,M,78.89,KP68 231553Z AUTO 00000KT 27/M04 A3017 RMK AO1 SLP117 T02721039,M
DRA,2024-06-23 15:53,-116.0278,36.6206,1009.00,96.00,36.00,12.35,200.00,11.00,0.00,30.00,1009.50,10.00,M,CLR,M,M,M,M,M,M,M,M,M,M,M,M,M,M,91.13,KDRA 231553Z AUTO 20011KT 10SM CLR 36/02 A3000 RMK AO2 SLP095 T03560022,M
ELY,2024-06-23 15:53,-114.8453,39.2950,1909.00,83.00,32.00,15.85,M,6.00,0.00,30.22,1011.40,10.00,M,CLR,M,M,M,M,M,M,M,M,M,M,M,M,M,M,80.41,KELY 231553Z AUTO VRB06KT 10SM CLR 28/00 A3022 RMK AO2 SLP114 T02830000,M
VGT,2024-06-23 15:53,-115.1933,36.2111,667.00,95.00,48.00,20.22,M,4.00,0.00,29.92,1011.20,10.00,M,CLR,M,M,M,M,M,M,M,M,M,M,M,M,M,M,91.53,KVGT 231553Z VRB04KT 10SM CLR 35/09 A2992 RMK AO2 SLP112 T03500089,M
LOL,2024-06-23 15:53,-118.5701,40.0684,1192.43,81.00,31.00,16.25,80.00,3.00,0.00,30.05,1012.20,10.00,M,CLR,M,M,M,M,M,M,M,M,M,M,M,M,M,M,79.04,KLOL 231553Z AUTO 08003KT 10SM CLR 27/M01 A3005 RMK AO2 SLP122 T02721006,M
BVU,2024-06-23 15:55,-114.8611,35.9475,671.00,96.80,48.20,19.28,M,5.00,0.00,29.92,M,10.00,M,CLR,M,M,M,M,M,M,M,M,M,M,M,M,M,M,93.36,KBVU 231555Z AUTO VRB05KT 10SM CLR 36/09 A2992 RMK AO2,M
CXP,2024-06-23 15:55,-119.7326,39.1923,1431.00,80.60,35.60,19.79,140.00,4.00,0.00,30.13,M,10.00,M,CLR,M,M,M,M,M,M,M,M,M,M,M,M,M,M,78.94,KCXP 231555Z AUTO 14004KT 10SM CLR 27/02 A3013 RMK AO2,M
RNO,2024-06-23 15:55,-119.7711,39.4839,1341.00,79.00,45.00,30.05,0.00,0.00,0.00,30.10,1012.70,10.00,M,CLR,M,M,M,M,M,M,M,M,M,M,M,M,M,M,79.00,KRNO 231555Z 00000KT 10SM CLR 26/07 A3010 RMK AO2 SLP127 T02610072,M
RTS,2024-06-23 15:55,-119.8764,39.6682,1539.00,80.60,33.80,18.42,200.00,13.00,0.00,30.14,M,10.00,20.00,CLR,M,M,M,M,M,M,M,M,M,M,M,M,M,M,78.88,KRTS 231555Z AUTO 20013G20KT 10SM CLR 27/01 A3014 RMK AO2,M
MEV,2024-06-23 15:55,-119.7500,38.9963,1441.42,78.80,35.60,21.00,0.00,0.00,0.00,30.11,M,10.00,M,CLR,M,M,M,M,M,M,M,M,M,M,M,M,M,M,78.80,KMEV 231555Z AUTO 00000KT 10SM CLR 26/02 A3011 RMK AO2,M
HTH,2024-06-23 15:55,-118.6315,38.5448,1282.89,80.60,37.40,21.25,330.00,5.00,0.00,30.08,M,10.00,M,CLR,M,M,M,M,M,M,M,M,M,M,M,M,M,M,79.02,KHTH 231555Z AUTO 33005KT 10SM CLR 27/03 A3008 RMK A01,M
10U,2024-06-23 15:55,-116.1876,41.9532,1637.00,78.80,33.80,19.55,220.00,10.00,0.00,30.12,M,10.00,M,CLR,M,M,M,M,M,M,M,M,M,M,M,M,M,M,78.80,K10U 231555Z AUTO 22010KT 10SM CLR 26/01 A3012 RMK AO2,M
BAM,2024-06-23 15:55,-116.8743,40.5990,1382.36,80.60,33.80,18.42,0.00,0.00,0.00,30.09,M,10.00,M,CLR,M,M,M,M,M,M,M,M,M,M,M,M,M,M,78.88,KBAM 231555Z AUTO 00000KT 10SM CLR 27/01 A3009 RMK AO1,M
TMT,2024-06-23 15:55,-117.1971,39.4643,1749.34,74.30,33.00,21.98,0.00,0.00,0.00,30.19,M,10.00,M,CLR,M,M,M,M,M,M,M,M,M,M,M,M,M,M,74.30,KTMT 231555Z AUTO 00000KT 10SM CLR 24/01 A3019 RMK AO2 T02350005,M
INS,2024-06-23 15:55,-115.6733,36.5872,955.00,M,M,M,0.00,0.00,0.00,M,M,10.00,M,M,M,M,M,M,M,M,M,M,M,M,M,M,M,M,M,KINS 231555Z AUTO 00000KT 10SM M M M RMK AO2 SLPNO RVRNO TSNO $,M
LSV,2024-06-23 15:55,-115.0343,36.2362,570.00,97.00,46.40,17.91,0.00,0.00,0.00,29.87,1008.30,10.00,M,CLR,M,M,M,M,M,M,M,M,M,M,M,M,M,M,93.25,KLSV 231555Z AUTO 00000KT 10SM CLR 36/08 A2987 RMK AO2 SLP083 T03610080 $,M
EKO,2024-06-23 15:56,-115.7860,40.8242,1367.00,82.00,39.00,21.62,210.00,6.00,0.00,30.11,1012.80,10.00,M,CLR,M,M,M,M,M,M,M,M,M,M,M,M,M,M,79.94,KEKO 231556Z AUTO 21006KT 10SM CLR 28/04 A3011 RMK AO2 SLP128 T02780039,M
WMC,2024-06-23 15:56,-117.8072,40.9019,1315.00,83.00,31.00,15.23,0.00,0.00,0.00,30.06,1012.00,10.00,M,CLR,M,M,M,M,M,M,M,M,M,M,M,M,M,M,80.40,KWMC 231556Z AUTO 00000KT 10SM CLR 28/M01 A3006 RMK AO2 SLP120 T02831006,M
NFL,2024-06-23 15:56,-118.7010,39.4166,1199.00,83.00,36.00,18.60,290.00,4.00,0.00,30.05,1014.50,10.00,M,CLR,M,M,M,M,M,M,M,M,M,M,M,M,M,M,80.50,KNFL 231556Z AUTO 29004KT 10SM CLR 28/02 A3005 RMK AO2 SLP145 T02830022,M
HND,2024-06-23 15:56,-115.1344,35.9729,742.79,97.00,46.00,17.64,210.00,12.00,0.00,29.96,1012.10,10.00,M,CLR,M,M,M,M,M,M,M,M,M,M,M,M,M,M,93.19,KHND 231556Z 21012KT 10SM CLR 36/08 A2996 RMK AO2 SLP121 T03610078,M
TPH,2024-06-23 15:56,-117.0904,38.0505,1654.00,79.00,26.00,14.13,170.00,6.00,0.00,30.17,1012.90,10.00,M,CLR,M,M,M,M,M,M,M,M,M,M,M,M,M,M,79.00,KTPH 231556Z AUTO 17006KT 10SM CLR 26/M03 A3017 RMK AO2 SLP129 T02611033,M
LAS,2024-06-23 15:56,-115.1634,36.0719,663.00,99.00,44.00,15.38,250.00,3.00,0.00,29.93,1009.70,10.00,M,FEW,M,M,M,16000.00,M,M,M,M,M,M,M,M,M,M,94.85,KLAS 231556Z 25003KT 10SM FEW160 37/07 A2993 RMK AO2 SLP097 T03720067 $,M
BVU,2024-06-23 16:15,-114.8611,35.9475,671.00,96.80,48.20,19.28,M,4.00,0.00,29.91,M,10.00,M,CLR,M,M,M,M,M,M,M,M,M,M,M,M,M,M,93.36,KBVU 231615Z AUTO VRB04KT 10SM CLR 36/09 A2991 RMK AO2,M
CXP,2024-06-23 16:15,-119.7326,39.1923,1431.00,80.60,33.80,18.42,0.00,0.00,0.00,30.12,M,10.00,M,CLR,M,M,M,M,M,M,M,M,M,M,M,M,M,M,78.88,KCXP 231615Z AUTO 00000KT 10SM CLR 27/01 A3012 RMK AO2,M
RTS,2024-06-23 16:15,-119.8764,39.6682,1539.00,80.60,33.80,18.42,220.00,16.00,0.00,30.13,M,10.00,M,CLR,M,M,M,M,M,M,M,M,M,M,M,M,M,M,78.88,KRTS 231615Z AUTO 22016KT 10SM CLR 27/01 A3013 RMK AO2,M
MEV,2024-06-23 16:15,-119.7500,38.9963,1441.42,80.60,35.60,19.79,150.00,3.00,0.00,30.11,M,10.00,M,CLR,M,M,M,M,M,M,M,M,M,M,M,M,M,M,78.94,KMEV 231615Z AUTO 15003KT 10SM CLR 27/02 A3011 RMK AO2,M
BAM,2024-06-23 16:15,-116.8743,40.5990,1382.36,82.40,37.40,20.04,0.00,0.00,0.00,30.09,M,10.00,M,CLR,M,M,M,M,M,M,M,M,M,M,M,M,M,M,80.14,KBAM 231615Z AUTO 00000KT 10SM CLR 28/03 A3009 RMK AO1,M
HTH,2024-06-23 16:15,-118.6315,38.5448,1282.89,82.40,37.40,20.04,320.00,4.00,0.00,30.08,M,10.00,M,CLR,M,M,M,M,M,M,M,M,M,M,M,M,M,M,80.14,KHTH 231615Z AUTO 32004KT 10SM CLR 28/03 A3008 RMK A01,M
10U,2024-06-23 16:15,-116.1876,41.9532,1637.00,80.60,35.60,19.79,210.00,9.00,0.00,30.12,M,10.00,15.00,CLR,M,M,M,M,M,M,M,-RA,M,M,M,M,M,M,78.94,K10U 231615Z AUTO 21009G15KT 10SM -RA CLR 27/02 A3012 RMK AO2,M
TMT,2024-06-23 16:15,-117.1971,39.4643,1749.34,76.50,32.40,19.94,30.00,3.00,0.00,30.18,M,10.00,M,CLR,M,M,M,M,M,M,M,M,M,M,M,M,M,M,76.50,KTMT 231615Z AUTO 03003KT 10SM CLR 25/00 A3018 RMK AO2 T02470002,M
BVU,2024-06-23 16:35,-114.8611,35.9475,671.00,98.60,50.00,19.52,180.00,6.00,0.00,29.91,M,10.00,M,CLR,M,M,M,M,M,M,M,M,M,M,M,M,M,M,95.56,KBVU 231635Z AUTO 18006KT 10SM CLR 37/10 A2991 RMK AO2,M
CXP,2024-06-23 16:35,-119.7326,39.1923,1431.00,84.20,32.00,15.25,190.00,8.00,0.00,30.12,M,10.00,M,CLR,M,M,M,M,M,M,M,M,M,M,M,M,M,M,81.28,KCXP 231635Z AUTO 19008KT 170V230 10SM CLR 29/M00 A3012 RMK AO2,M
RTS,2024-06-23 16:35,-119.8764,39.6682,1539.00,80.60,35.60,19.79,230.00,11.00,0.00,30.13,M,10.00,21.00,CLR,M,M,M,M,M,M,M,M,M,M,M,M,M,M,78.94,KRTS 231635Z AUTO 23011G21KT 10SM CLR 27/02 A3013 RMK AO2,M
MEV,2024-06-23 16:35,-119.7500,38.9963,1441.42,82.40,35.60,18.67,0.00,0.00,0.00,30.11,M,10.00,M,CLR,M,M,M,M,M,M,M,M,M,M,M,M,M,M,80.08,KMEV 231635Z AUTO 00000KT 10SM CLR 28/02 A3011 RMK AO2,M
HTH,2024-06-23 16:35,-118.6315,38.5448,1282.89,84.20,37.40,18.91,320.00,7.00,0.00,30.08,M,10.00,M,CLR,M,M,M,M,M,M,M,M,M,M,M,M,M,M,81.38,KHTH 231635Z AUTO 32007KT 10SM CLR 29/03 A3008 RMK A01,M
10U,2024-06-23 16:35,-116.1876,41.9532,1637.00,80.60,35.60,19.79,200.00,10.00,0.00,30.11,M,10.00,18.00,CLR,M,M,M,M,M,M,M,M,M,M,M,M,M,M,78.94,K10U 231635Z AUTO 20010G18KT 180V240 10SM CLR 27/02 A3011 RMK AO2,M
BAM,2024-06-23 16:35,-116.8743,40.5990,1382.36,84.20,32.00,15.25,0.00,0.00,0.00,30.08,M,10.00,M,CLR,M,M,M,M,M,M,M,M,M,M,M,M,M,M,81.28,KBAM 231635Z AUTO 00000KT 10SM CLR 29/00 A3008 RMK AO1,M
TMT,2024-06-23 16:35,-117.1971,39.4643,1749.34,79.00,31.60,17.77,40.00,6.00,0.00,30.18,M,10.00,M,CLR,M,M,M,M,M,M,M,M,M,M,M,M,M,M,79.00,KTMT 231635Z AUTO 04006KT 10SM CLR 26/00 A3018 RMK AO2 T02611002,M
P68,2024-06-23 16:53,-116.0056,39.6014,1993.00,85.00,26.00,11.63,M,4.00,0.00,30.15,1011.20,M,M,M,M,M,M,M,M,M,M,M,M,M,M,M,M,M,81.64,KP68 231653Z AUTO VRB04KT 29/M03 A3015 RMK AO1 SLP112 T02941033,M
DRA,2024-06-23 16:53,-116.0278,36.6206,1009.00,97.00,40.00,14.01,210.00,13.00,0.00,29.99,1009.20,10.00,19.00,CLR,M,M,M,M,M,M,M,M,M,M,M,M,M,M,92.49,KDRA 231653Z AUTO 21013G19KT 10SM CLR 36/04 A2999 RMK AO2 SLP092 T03610044,M
ELY,2024-06-23 16:53,-114.8453,39.2950,1909.00,85.00,34.00,16.11,220.00,17.00,0.00,30.20,1011.00,10.00,29.00,CLR,M,M,M,M,M,M,M,M,M,M,M,29.00,220.00,2024-06-23 16:46,81.90,KELY 231653Z AUTO 22017G29KT 10SM CLR 29/01 A3020 RMK AO2 PK WND 22029/1646 SLP110 T02940011,M
VGT,2024-06-23 16:53,-115.1933,36.2111,667.00,99.00,47.00,17.23,M,4.00,0.00,29.91,1010.80,10.00,M,CLR,M,M,M,M,M,M,M,M,M,M,M,M,M,M,95.35,KVGT 231653Z VRB04KT 10SM CLR 37/08 A2991 RMK AO2 SLP108 T03720083,M
LOL,2024-06-23 16:53,-118.5701,40.0684,1192.43,86.00,30.00,13.28,M,4.00,0.00,30.04,1011.80,10.00,M,CLR,M,M,M,M,M,M,M,M,M,M,M,M,M,M,82.64,KLOL 231653Z AUTO VRB04KT 10SM CLR 30/M01 A3004 RMK AO2 SLP118 T03001011,M
BVU,2024-06-23 16:55,-114.8611,35.9475,671.00,98.60,50.00,19.52,0.00,0.00,0.00,29.91,M,10.00,M,CLR,M,M,M,M,M,M,M,M,M,M,M,M,M,M,95.56,KBVU 231655Z AUTO 00000KT 10SM CLR 37/10 A2991 RMK AO2,M
CXP,2024-06-23 16:55,-119.7326,39.1923,1431.00,86.00,32.00,14.40,180.00,8.00,0.00,30.11,M,10.00,M,CLR,M,M,M,M,M,M,M,M,M,M,M,M,M,M,82.64,KCXP 231655Z AUTO 18008KT 150V220 10SM CLR 30/M00 A3011 RMK AO2,M
RNO,2024-06-23 16:55,-119.7711,39.4839,1341.00,83.00,44.00,25.39,110.00,4.00,0.00,30.08,1012.00,10.00,M,CLR,M,M,M,M,M,M,M,M,M,M,M,M,M,M,80.86,KRNO 231655Z 11004KT 10SM CLR 28/07 A3008 RMK AO2 SLP120 T02830067,M
RTS,2024-06-23 16:55,-119.8764,39.6682,1539.00,82.40,33.80,17.38,230.00,7.00,0.00,30.13,M,10.00,15.00,CLR,M,M,M,M,M,M,M,M,M,M,M,M,M,M,80.03,KRTS 231655Z AUTO 23007G15KT 10SM CLR 28/01 A3013 RMK AO2,M
MEV,2024-06-23 16:55,-119.7500,38.9963,1441.42,82.40,30.20,15.03,0.00,0.00,0.00,30.11,M,10.00,M,CLR,M,M,M,M,M,M,M,M,M,M,M,M,M,M,79.97,KMEV 231655Z AUTO 00000KT 10SM CLR 28/M01 A3011 RMK AO2,M
HTH,2024-06-23 16:55,-118.6315,38.5448,1282.89,86.00,35.60,16.63,360.00,6.00,0.00,30.07,M,10.00,M,CLR,M,M,M,M,M,M,M,M,M,M,M,M,M,M,82.69,KHTH 231655Z AUTO 36006KT 10SM CLR 30/02 A3007 RMK A01,M
10U,2024-06-23 16:55,-116.1876,41.9532,1637.00,82.40,35.60,18.67,230.00,12.00,0.00,30.11,M,10.00,17.00,CLR,M,M,M,M,M,M,M,M,M,M,M,M,M,M,80.08,K10U 231655Z AUTO 23012G17KT 10SM CLR 28/02 A3011 RMK AO2,M
BAM,2024-06-23 16:55,-116.8743,40.5990,1382.36,86.00,30.20,13.38,0.00,0.00,0.00,30.08,M,10.00,M,CLR,M,M,M,M,M,M,M,M,M,M,M,M,M,M,82.64,KBAM 231655Z AUTO 00000KT 10SM CLR 30/M01 A3008 RMK AO1,M
TMT,2024-06-23 16:55,-117.1971,39.4643,1749.34,81.00,31.60,16.65,0.00,0.00,0.00,30.18,M,10.00,M,CLR,M,M,M,M,M,M,M,M,M,M,M,M,M,M,79.06,KTMT 231655Z AUTO 00000KT 10SM CLR 27/00 A3018 RMK AO2 T02731002,M
INS,2024-06-23 16:55,-115.6733,36.5872,955.00,M,M,M,90.00,7.00,0.00,M,M,10.00,M,M,M,M,M,M,M,M,M,M,M,M,M,M,M,M,M,KINS 231655Z AUTO 09007KT 10SM M M M RMK AO2 SLPNO RVRNO TSNO $,M
LSV,2024-06-23 16:55,-115.0343,36.2362,570.00,99.00,46.60,16.98,190.00,6.00,0.00,29.86,1008.00,10.00,M,CLR,M,M,M,M,M,M,M,M,M,M,M,M,M,M,95.27,KLSV 231655Z AUTO 19006KT 10SM CLR 37/08 A2986 RMK AO2 SLP080 T03730081 $,M
EKO,2024-06-23 16:56,-115.7860,40.8242,1367.00,86.00,36.00,16.89,210.00,8.00,0.00,30.10,1012.50,10.00,M,CLR,M,M,M,M,M,M,M,M,M,M,M,M,M,M,82.70,KEKO 231656Z AUTO 21008KT 10SM CLR 30/02 A3010 RMK AO2 SLP125 T03000022,M
WMC,2024-06-23 16:56,-117.8072,40.9019,1315.00,87.00,32.00,13.94,0.00,0.00,0.00,30.05,1011.40,10.00,M,CLR,M,M,M,M,M,M,M,M,M,M,M,M,M,M,83.43,KWMC 231656Z AUTO 00000KT 10SM CLR 31/00 A3005 RMK AO2 SLP114 T03060000,M
NFL,2024-06-23 16:56,-118.7010,39.4166,1199.00,87.00,33.00,14.52,M,M,0.00,30.04,1014.30,10.00,M,CLR,M,M,M,M,M,M,M,M,M,M,M,M,M,M,83.44,KNFL 231656Z AUTO 10SM CLR 31/01 A3004 RMK AO2 SLP143 T03060006,M
HND,2024-06-23 16:56,-115.1344,35.9729,742.79,101.00,47.00,16.22,180.00,13.00,0.00,29.95,1011.80,10.00,M,CLR,M,M,M,M,M,M,M,M,M,M,M,M,M,M,97.35,KHND 231656Z 18013KT 10SM CLR 38/08 A2995 RMK AO2 SLP118 T03830083,M
TPH,2024-06-23 16:56,-117.0904,38.0505,1654.00,83.00,25.00,11.90,170.00,8.00,0.00,30.16,1012.60,10.00,M,CLR,M,M,M,M,M,M,M,M,M,M,M,M,M,M,80.20,KTPH 231656Z AUTO 17008KT 10SM CLR 28/M04 A3016 RMK AO2 SLP126 T02831039,M
LAS,2024-06-23 16:56,-115.1634,36.0719,663.00,101.00,44.00,14.48,180.00,7.00,0.00,29.91,1009.40,10.00,M,FEW,FEW,M,M,10000.00,16000.00,M,M,M,M,M,M,M,M,M,96.80,KLAS 231656Z 18007KT 10SM FEW100 FEW160 38/07 A2991 RMK AO2 SLP094 T03830067 $,M
BVU,2024-06-23 17:15,-114.8611,35.9475,671.00,98.60,51.80,20.87,130.00,5.00,0.00,29.90,M,10.00,M,CLR,M,M,M,M,M,M,M,M,M,M,M,M,M,M,96.00,KBVU 231715Z AUTO 13005KT 10SM CLR 37/11 A2990 RMK AO2,M
CXP,2024-06-23 17:15,-119.7326,39.1923,1431.00,86.00,32.00,14.40,180.00,9.00,0.00,30.11,M,10.00,M,CLR,M,M,M,M,M,M,M,M,M,M,M,M,M,M,82.64,KCXP 231715Z AUTO 18009KT 150V210 10SM CLR 30/M00 A3011 RMK AO2,M
RTS,2024-06-23 17:15,-119.8764,39.6682,1539.00,82.40,35.60,18.67,220.00,11.00,0.00,30.13,M,10.00,M,CLR,M,M,M,M,M,M,M,M,M,M,M,M,M,M,80.08,KRTS 231715Z AUTO 22011KT 10SM CLR 28/02 A3013 RMK AO2,M
MEV,2024-06-23 17:15,-119.7500,38.9963,1441.42,84.20,32.00,15.25,M,4.00,0.00,30.11,M,10.00,M,CLR,M,M,M,M,M,M,M,M,M,M,M,M,M,M,81.28,KMEV 231715Z AUTO VRB04KT 10SM CLR 29/M00 A3011 RMK AO2,M
HTH,2024-06-23 17:15,-118.6315,38.5448,1282.89,86.00,32.00,14.40,320.00,6.00,0.00,30.07,M,10.00,M,CLR,M,M,M,M,M,M,M,M,M,M,M,M,M,M,82.64,KHTH 231715Z AUTO 32006KT 10SM CLR 30/00 A3007 RMK A01,M
10U,2024-06-23 17:15,-116.1876,41.9532,1637.00,84.20,35.60,17.61,210.00,12.00,0.00,30.11,M,10.00,17.00,CLR,M,M,M,M,M,M,M,M,M,M,M,M,M,M,81.34,K10U 231715Z AUTO 21012G17KT 10SM CLR 29/02 A3011 RMK AO2,M
BAM,2024-06-23 17:15,-116.8743,40.5990,1382.36,87.80,32.00,13.59,250.00,3.00,0.00,30.08,M,10.00,M,CLR,M,M,M,M,M,M,M,M,M,M,M,M,M,M,84.08,KBAM 231715Z AUTO 25003KT 10SM CLR 31/00 A3008 RMK AO1,M
TMT,2024-06-23 17:15,-117.1971,39.4643,1749.34,82.00,31.50,16.05,0.00,0.00,0.00,30.18,M,10.00,M,CLR,M,M,M,M,M,M,M,M,M,M,M,M,M,M,79.71,KTMT 231715Z AUTO 00000KT 10SM CLR 28/00 A3018 RMK AO2 T02771003,M
10U,2024-06-23 17:30,-116.1876,41.9532,1637.00,84.20,35.60,17.61,190.00,12.00,0.00,30.11,M,10.00,17.00,CLR,M,M,M,M,M,M,M,M,M,M,M,M,M,M,81.34,K10U 231730Z AUTO 19012G17KT 10SM CLR 29/02 A3011 RMK AO2,M
BVU,2024-06-23 17:35,-114.8611,35.9475,671.00,100.40,51.80,19.76,0.00,0.00,0.00,29.90,M,10.00,12.00,CLR,M,M,M,M,M,M,M,M,M,M,M,M,M,M,97.90,KBVU 231735Z AUTO 00000G12KT 10SM CLR 38/11 A2990 RMK AO2,M
CXP,2024-06-23 17:35,-119.7326,39.1923,1431.00,86.00,30.20,13.38,250.00,12.00,0.00,30.12,M,10.00,17.00,CLR,M,M,M,M,M,M,M,M,M,M,M,M,M,M,82.64,KCXP 231735Z AUTO 25012G17KT 10SM CLR 30/M01 A3012 RMK AO2,M
RTS,2024-06-23 17:35,-119.8764,39.6682,1539.00,84.20,30.20,14.18,230.00,14.00,0.00,30.13,M,10.00,21.00,CLR,M,M,M,M,M,M,M,M,M,M,M,M,M,M,81.26,KRTS 231735Z AUTO 23014G21KT 10SM CLR 29/M01 A3013 RMK AO2,M
MEV,2024-06-23 17:35,-119.7500,38.9963,1441.42,84.20,30.20,14.18,100.00,8.00,0.00,30.11,M,10.00,M,CLR,M,M,M,M,M,M,M,M,M,M,M,M,M,M,81.26,KMEV 231735Z AUTO 10008KT 050V130 10SM CLR 29/M01 A3011 RMK AO2,M
BAM,2024-06-23 17:35,-116.8743,40.5990,1382.36,87.80,30.20,12.64,0.00,0.00,0.00,30.08,M,10.00,M,CLR,M,M,M,M,M,M,M,M,M,M,M,M,M,M,84.01,KBAM 231735Z AUTO 00000KT 10SM CLR 31/M01 A3008 RMK AO1,M
HTH,2024-06-23 17:35,-118.6315,38.5448,1282.89,87.80,32.00,13.59,340.00,6.00,0.00,30.07,M,10.00,M,CLR,M,M,M,M,M,M,M,M,M,M,M,M,M,M,84.08,KHTH 231735Z AUTO 34006KT 10SM CLR 31/M00 A3007 RMK A01,M
TMT,2024-06-23 17:35,-117.1971,39.4643,1749.34,82.40,31.50,15.84,0.00,0.00,0.00,30.17,M,10.00,M,CLR,M,M,M,M,M,M,M,M,M,M,M,M,M,M,79.99,KTMT 231735Z AUTO 00000KT 10SM CLR 28/00 A3017 RMK AO2 T02801003,M
P68,2024-06-23 17:53,-116.0056,39.6014,1993.00,87.00,25.00,10.47,M,4.00,0.00,30.14,1010.90,M,M,M,M,M,M,M,M,M,M,M,M,M,M,M,M,M,82.99,KP68 231753Z AUTO VRB04KT 31/M04 A3014 RMK AO1 SLP109 T03061039 10311 20111 58007,M
DRA,2024-06-23 17:53,-116.0278,36.6206,1009.00,98.00,41.00,14.13,230.00,10.00,0.00,29.99,1009.40,10.00,21.00,CLR,M,M,M,M,M,M,M,M,M,M,M,M,M,M,93.52,KDRA 231753Z AUTO 23010G21KT 10SM CLR 37/05 A2999 RMK AO2 SLP094 T03670050 10372 20233 55001,M
ELY,2024-06-23 17:53,-114.8453,39.2950,1909.00,87.00,33.00,14.52,200.00,15.00,0.00,30.21,1010.50,10.00,27.00,CLR,M,M,M,M,M,M,M,M,M,M,M,33.00,230.00,2024-06-23 16:58,83.44,KELY 231753Z AUTO 20015G27KT 10SM CLR 31/01 A3021 RMK AO2 PK WND 23033/1658 SLP105 T03060006 10311 20094 55002,M
VGT,2024-06-23 17:53,-115.1933,36.2111,667.00,104.00,47.00,14.83,140.00,8.00,0.00,29.90,1010.40,10.00,M,CLR,M,M,M,M,M,M,M,M,M,M,M,M,M,M,100.35,KVGT 231753Z 14008KT 10SM CLR 40/08 A2990 RMK AO2 SLP104 T04000083 10400 20294 58006,M
LOL,2024-06-23 17:53,-118.5701,40.0684,1192.43,89.00,30.00,12.07,M,3.00,0.00,30.03,1011.70,10.00,14.00,CLR,M,M,M,M,M,M,M,M,M,M,M,M,M,M,84.88,KLOL 231753Z AUTO VRB03G14KT 10SM CLR 32/M01 A3003 RMK AO2 SLP117 T03171011 10317 20117 58003,M
BVU,2024-06-23 17:55,-114.8611,35.9475,671.00,100.40,51.80,19.76,190.00,10.00,0.00,29.90,M,10.00,M,CLR,M,M,M,M,M,M,M,M,M,M,M,M,M,M,97.90,KBVU 231755Z AUTO 19010KT 10SM CLR 38/11 A2990 RMK AO2,M
CXP,2024-06-23 17:55,-119.7326,39.1923,1431.00,86.00,28.40,12.44,250.00,12.00,0.00,30.12,M,10.00,19.00,CLR,M,M,M,M,M,M,M,M,M,M,M,M,M,M,82.54,KCXP 231755Z AUTO 25012G19KT 10SM CLR 30/M02 A3012 RMK AO2,M
RNO,2024-06-23 17:55,-119.7711,39.4839,1341.00,87.00,48.00,25.98,0.00,0.00,0.00,30.08,1011.60,10.00,M,CLR,M,M,M,M,M,M,M,M,M,M,M,M,M,M,84.18,KRNO 231755Z 00000KT 10SM CLR 31/09 A3008 RMK AO2 SLP116 T03060089 10317 20172 58005,M
RTS,2024-06-23 17:55,-119.8764,39.6682,1539.00,84.20,33.80,16.39,210.00,11.00,0.00,30.14,M,10.00,23.00,CLR,M,M,M,M,M,M,M,M,M,M,M,M,M,M,81.30,KRTS 231755Z AUTO 21011G23KT 10SM CLR 29/01 A3014 RMK AO2,M
MEV,2024-06-23 17:55,-119.7500,38.9963,1441.42,86.00,30.20,13.38,M,6.00,0.00,30.11,M,10.00,M,CLR,M,M,M,M,M,M,M,M,M,M,M,M,M,M,82.64,KMEV 231755Z AUTO VRB06KT 10SM CLR 30/M01 A3011 RMK AO2,M
BAM,2024-06-23 17:55,-116.8743,40.5990,1382.36,89.60,30.20,11.94,50.00,5.00,0.00,30.08,M,10.00,M,CLR,M,M,M,M,M,M,M,M,M,M,M,M,M,M,85.34,KBAM 231755Z AUTO 05005KT 10SM CLR 32/M01 A3008 RMK AO1,M
HTH,2024-06-23 17:55,-118.6315,38.5448,1282.89,87.80,32.00,13.59,310.00,8.00,0.00,30.07,M,10.00,M,CLR,M,M,M,M,M,M,M,M,M,M,M,M,M,M,84.08,KHTH 231755Z AUTO 31008KT 10SM CLR 31/M00 A3007 RMK A01,M
10U,2024-06-23 17:55,-116.1876,41.9532,1637.00,86.00,30.20,13.38,240.00,9.00,0.00,30.10,M,10.00,16.00,CLR,M,M,M,M,M,M,M,M,M,M,M,M,M,M,82.64,K10U 231755Z AUTO 24009G16KT 10SM CLR 30/M01 A3010 RMK AO2,M
TMT,2024-06-23 17:55,-117.1971,39.4643,1749.34,82.60,32.50,16.39,280.00,4.00,0.00,30.16,M,10.00,M,CLR,M,M,M,M,M,M,M,M,M,M,M,M,M,M,80.14,KTMT 231755Z AUTO 28004KT 10SM CLR 28/00 A3016 RMK AO2 T02810003 10288 20049,M
INS,2024-06-23 17:55,-115.6733,36.5872,955.00,M,M,M,90.00,4.00,0.00,M,M,10.00,M,M,M,M,M,M,M,M,M,M,M,M,M,M,M,M,M,KINS 231755Z AUTO 09004KT 10SM M M M RMK AO2 SLPNO RVRNO TSNO $,M
LSV,2024-06-23 17:55,-115.0343,36.2362,570.00,102.00,45.50,14.88,150.00,6.00,0.00,29.85,1007.60,10.00,M,CLR,M,M,M,M,M,M,M,M,M,M,M,M,M,M,98.05,KLSV 231755Z AUTO 15006KT 10SM CLR 39/08 A2985 RMK AO2 SLP076 T03890075 10389 20311 58005 $,M
EKO,2024-06-23 17:56,-115.7860,40.8242,1367.00,88.00,32.00,13.51,210.00,7.00,0.00,30.10,1012.50,10.00,M,CLR,M,M,M,M,M,M,M,M,M,M,M,M,M,M,84.24,KEKO 231756Z AUTO 21007KT 10SM CLR 31/00 A3010 RMK AO2 SLP125 T03110000 10311 20122 58005,M
WMC,2024-06-23 17:56,-117.8072,40.9019,1315.00,90.00,31.00,12.18,M,4.00,0.00,30.05,1010.90,10.00,15.00,CLR,M,M,M,M,M,M,M,M,M,M,M,M,M,M,85.73,KWMC 231756Z AUTO VRB04G15KT 10SM CLR 32/M01 A3005 RMK AO2 SLP109 T03221006 10328 20117 58004,M
NFL,2024-06-23 17:56,-118.7010,39.4166,1199.00,91.00,31.00,11.80,M,4.00,0.00,30.04,1014.10,10.00,M,CLR,M,M,M,M,M,M,M,M,M,M,M,M,M,M,86.49,KNFL 231756Z AUTO VRB04KT 10SM CLR 33/M01 A3004 RMK AO2 SLP141 T03281006 10333 20150 58002,M
HND,2024-06-23 17:56,-115.1344,35.9729,742.79,101.00,49.00,17.49,210.00,8.00,0.00,29.95,1011.80,10.00,M,CLR,M,M,M,M,M,M,M,M,M,M,M,M,M,M,97.79,KHND 231756Z 21008KT 10SM CLR 38/09 A2995 RMK AO2 SLP118 T03830094 10389 20294 57003,M
TPH,2024-06-23 17:56,-117.0904,38.0505,1654.00,86.00,25.00,10.81,140.00,7.00,0.00,30.16,1012.50,10.00,M,CLR,M,M,M,M,M,M,M,M,M,M,M,M,M,M,82.27,KTPH 231756Z AUTO 14007KT 10SM CLR 30/M04 A3016 RMK AO2 SLP125 T03001039 10300 20133 58002,M
LAS,2024-06-23 17:56,-115.1634,36.0719,663.00,104.00,46.00,14.28,180.00,7.00,0.00,29.91,1009.20,10.00,16.00,FEW,FEW,M,M,10000.00,16000.00,M,M,M,M,M,M,M,M,M,100.12,KLAS 231756Z 18007G16KT 10SM FEW100 FEW160 40/08 A2991 RMK AO2 SLP092 TCU DSNT E T04000078 10400 20317 58006 $,M
BVU,2024-06-23 18:15,-114.8611,35.9475,671.00,102.20,51.80,18.72,170.00,8.00,0.00,29.90,M,10.00,M,CLR,M,M,M,M,M,M,M,M,M,M,M,M,M,M,99.80,KBVU 231815Z AUTO 17008KT 10SM CLR 39/11 A2990 RMK AO2,M
CXP,2024-06-23 18:15,-119.7326,39.1923,1431.00,86.00,30.20,13.38,250.00,12.00,0.00,30.12,M,10.00,20.00,CLR,M,M,M,M,M,M,M,M,M,M,M,M,M,M,82.64,KCXP 231815Z AUTO 25012G20KT 10SM CLR 30/M01 A3012 RMK AO2,M
RTS,2024-06-23 18:15,-119.8764,39.6682,1539.00,84.20,32.00,15.25,230.00,15.00,0.00,30.14,M,10.00,M,CLR,M,M,M,M,M,M,M,M,M,M,M,M,M,M,81.28,KRTS 231815Z AUTO 23015KT 10SM CLR 29/M00 A3014 RMK AO2,M
MEV,2024-06-23 18:15,-119.7500,38.9963,1441.42,86.00,30.20,13.38,M,5.00,0.00,30.10,M,10.00,M,CLR,M,M,M,M,M,M,M,M,M,M,M,M,M,M,82.64,KMEV 231815Z AUTO VRB05KT 10SM CLR 30/M01 A3010 RMK AO2,M
BAM,2024-06-23 18:15,-116.8743,40.5990,1382.36,91.40,32.00,12.14,20.00,7.00,0.00,30.07,M,10.00,M,CLR,M,M,M,M,M,M,M,M,M,M,M,M,M,M,86.91,KBAM 231815Z AUTO 02007KT 10SM CLR 33/00 A3007 RMK AO1,M
HTH,2024-06-23 18:15,-118.6315,38.5448,1282.89,87.80,30.20,12.64,330.00,8.00,0.00,30.06,M,10.00,M,CLR,M,M,M,M,M,M,M,M,M,M,M,M,M,M,84.01,KHTH 231815Z AUTO 33008KT 10SM CLR 31/M01 A3006 RMK A01,M
10U,2024-06-23 18:15,-116.1876,41.9532,1637.00,87.80,26.60,10.91,210.00,13.00,0.00,30.10,M,10.00,19.00,CLR,M,M,M,M,M,M,M,M,M,M,M,M,M,M,83.69,K10U 231815Z AUTO 21013G19KT 180V240 10SM CLR 31/M03 A3010 RMK AO2,M
TMT,2024-06-23 18:15,-117.1971,39.4643,1749.34,84.20,32.00,15.25,270.00,3.00,0.00,30.16,M,10.00,M,CLR,M,M,M,M,M,M,M,M,M,M,M,M,M,M,81.28,KTMT 231815Z AUTO 27003KT 10SM CLR 29/00 A3016 RMK AO2 T02900000,M
BVU,2024-06-23 18:35,-114.8611,35.9475,671.00,100.40,51.80,19.76,110.00,4.00,0.00,29.89,M,10.00,13.00,CLR,M,M,M,M,M,M,M,M,M,M,M,M,M,M,97.90,KBVU 231835Z AUTO 11004G13KT 10SM CLR 38/11 A2989 RMK AO2,M
CXP,2024-06-23 18:35,-119.7326,39.1923,1431.00,86.00,30.20,13.38,250.00,9.00,0.00,30.12,M,10.00,19.00,CLR,M,M,M,M,M,M,M,M,M,M,M,M,M,M,82.64,KCXP 231835Z AUTO 25009G19KT 220V290 10SM CLR 30/M01 A3012 RMK AO2,M
RTS,2024-06-23 18:35,-119.8764,39.6682,1539.00,86.00,30.20,13.38,230.00,14.00,0.00,30.13,M,10.00,20.00,CLR,M,M,M,M,M,M,M,M,M,M,M,M,M,M,82.64,KRTS 231835Z AUTO 23014G20KT 10SM CLR 30/M01 A3013 RMK AO2,M
MEV,2024-06-23 18:35,-119.7500,38.9963,1441.42,87.80,30.20,12.64,M,3.00,0.00,30.10,M,10.00,M,CLR,M,M,M,M,M,M,M,M,M,M,M,M,M,M,84.01,KMEV 231835Z AUTO VRB03KT 10SM CLR 31/M01 A3010 RMK AO2,M
BAM,2024-06-23 18:35,-116.8743,40.5990,1382.36,91.40,32.00,12.14,0.00,0.00,0.00,30.07,M,10.00,M,CLR,M,M,M,M,M,M,M,M,M,M,M,M,M,M,86.91,KBAM 231835Z AUTO 00000KT 10SM CLR 33/00 A3007 RMK AO1,M
HTH,2024-06-23 18:35,-118.6315,38.5448,1282.89,89.60,32.00,12.84,0.00,0.00,0.00,30.06,M,10.00,10.00,CLR,M,M,M,M,M,M,M,M,M,M,M,M,M,M,85.54,KHTH 231835Z AUTO 00000G10KT 10SM CLR 32/M00 A3006 RMK A01,M
10U,2024-06-23 18:35,-116.1876,41.9532,1637.00,87.80,26.60,10.91,240.00,14.00,0.00,30.10,M,10.00,20.00,CLR,M,M,M,M,M,M,M,M,M,M,M,M,M,M,83.69,K10U 231835Z AUTO 24014G20KT 10SM CLR 31/M03 A3010 RMK AO2,M
TMT,2024-06-23 18:35,-117.1971,39.4643,1749.34,85.00,32.00,14.86,0.00,0.00,0.00,30.16,M,10.00,M,CLR,M,M,M,M,M,M,M,M,M,M,M,M,M,M,81.87,KTMT 231835Z AUTO 00000KT 10SM CLR 30/00 A3016 RMK AO2 T02951001,M
P68,2024-06-23 18:53,-116.0056,39.6014,1993.00,90.00,24.00,9.13,M,4.00,0.00,30.12,1010.30,M,M,M,M,M,M,M,M,M,M,M,M,M,M,M,M,M,85.11,KP68 231853Z AUTO VRB04KT 32/M04 A3012 RMK AO1 SLP103 T03221044,M
DRA,2024-06-23 18:53,-116.0278,36.6206,1009.00,99.00,45.00,15.98,230.00,8.00,0.00,29.98,1008.90,10.00,20.00,CLR,M,M,M,M,M,M,M,M,M,M,M,M,M,M,95.00,KDRA 231853Z AUTO 23008G20KT 190V260 10SM CLR 37/07 A2998 RMK AO2 SLP089 T03720072,M
ELY,2024-06-23 18:53,-114.8453,39.2950,1909.00,88.00,31.00,12.97,210.00,9.00,0.00,30.20,1010.30,10.00,23.00,CLR,M,M,M,M,M,M,M,M,M,M,M,M,M,M,84.23,KELY 231853Z AUTO 21009G23KT 10SM CLR 31/M01 A3020 RMK AO2 SLP103 T03111006,M
VGT,2024-06-23 18:53,-115.1933,36.2111,667.00,105.00,47.00,14.40,M,M,0.00,29.88,1009.80,10.00,M,CLR,M,M,M,M,M,M,M,M,M,M,M,M,M,M,101.34,KVGT 231853Z 10SM CLR 41/08 A2988 RMK AO2 SLP098 T04060083,M
LOL,2024-06-23 18:53,-118.5701,40.0684,1192.43,92.00,29.00,10.55,180.00,16.00,0.00,30.02,1011.30,10.00,22.00,CLR,M,M,M,M,M,M,M,M,M,M,M,M,M,M,87.04,KLOL 231853Z AUTO 18016G22KT 10SM CLR 33/M02 A3002 RMK AO2 SLP113 T03331017,M
BVU,2024-06-23 18:55,-114.8611,35.9475,671.00,102.20,50.00,17.51,140.00,8.00,0.00,29.88,M,10.00,M,CLR,M,M,M,M,M,M,M,M,M,M,M,M,M,M,99.28,KBVU 231855Z AUTO 14008KT 10SM CLR 39/10 A2988 RMK AO2,M
CXP,2024-06-23 18:55,-119.7326,39.1923,1431.00,87.80,32.00,13.59,260.00,12.00,0.00,30.11,M,9.00,23.00,CLR,M,M,M,M,M,M,M,M,M,M,M,M,M,M,84.08,KCXP 231855Z AUTO 26012G23KT 210V280 9SM CLR 31/00 A3011 RMK AO2,M
RNO,2024-06-23 18:55,-119.7711,39.4839,1341.00,90.00,50.00,25.46,M,5.00,0.00,30.07,1011.50,10.00,M,CLR,M,M,M,M,M,M,M,M,M,M,M,M,M,M,87.06,KRNO 231855Z VRB05KT 10SM CLR 32/10 A3007 RMK AO2 SLP115 T03220100,M
RTS,2024-06-23 18:55,-119.8764,39.6682,1539.00,86.00,28.40,12.44,230.00,14.00,0.00,30.13,M,10.00,22.00,CLR,M,M,M,M,M,M,M,M,M,M,M,M,M,M,82.54,KRTS 231855Z AUTO 23014G22KT 10SM CLR 30/M02 A3013 RMK AO2,M
MEV,2024-06-23 18:55,-119.7500,38.9963,1441.42,89.60,32.00,12.84,210.00,7.00,0.00,30.10,M,10.00,M,CLR,M,M,M,M,M,M,M,M,M,M,M,M,M,M,85.54,KMEV 231855Z AUTO 21007KT 180V240 10SM CLR 32/M00 A3010 RMK AO2,M
BAM,2024-06-23 18:55,-116.8743,40.5990,1382.36,91.40,32.00,12.14,20.00,7.00,0.00,30.06,M,10.00,M,CLR,M,M,M,M,M,M,M,M,M,M,M,M,M,M,86.91,KBAM 231855Z AUTO 02007KT 10SM CLR 33/00 A3006 RMK AO1,M
HTH,2024-06-23 18:55,-118.6315,38.5448,1282.89,91.40,30.20,11.28,360.00,9.00,0.00,30.05,M,10.00,15.00,CLR,M,M,M,M,M,M,M,M,M,M,M,M,M,M,86.71,KHTH 231855Z AUTO 36009G15KT 320V030 10SM CLR 33/M01 A3005 RMK A01,M
10U,2024-06-23 18:55,-116.1876,41.9532,1637.00,87.80,28.40,11.74,220.00,12.00,0.00,30.09,M,10.00,20.00,CLR,M,M,M,M,M,M,M,M,M,M,M,M,M,M,83.84,K10U 231855Z AUTO 22012G20KT 10SM CLR 31/M02 A3009 RMK AO2,M
TMT,2024-06-23 18:55,-117.1971,39.4643,1749.34,86.00,32.50,14.69,240.00,5.00,0.00,30.15,M,10.00,M,CLR,M,M,M,M,M,M,M,M,M,M,M,M,M,M,82.65,KTMT 231855Z AUTO 24005KT 10SM CLR 30/00 A3015 RMK AO2 T03010003,M
INS,2024-06-23 18:55,-115.6733,36.5872,955.00,M,M,M,110.00,7.00,0.00,M,M,10.00,M,M,M,M,M,M,M,M,M,M,M,M,M,M,M,M,M,KINS 231855Z AUTO 11007KT 10SM M M M RMK AO2 SLPNO RVRNO TSNO $,M
LSV,2024-06-23 18:55,-115.0343,36.2362,570.00,104.70,44.00,12.96,210.00,4.00,0.00,29.83,1006.90,10.00,M,CLR,M,M,M,M,M,M,M,M,M,M,M,M,M,M,100.37,KLSV 231855Z AUTO 21004KT 10SM CLR 40/07 A2983 RMK AO2 SLP069 T04040066 $,M
EKO,2024-06-23 18:56,-115.7860,40.8242,1367.00,90.00,33.00,13.20,220.00,6.00,0.00,30.08,1012.00,10.00,M,CLR,M,M,M,M,M,M,M,M,M,M,M,M,M,M,85.92,KEKO 231856Z AUTO 22006KT 10SM CLR 32/01 A3008 RMK AO2 SLP120 T03220006,M
WMC,2024-06-23 18:56,-117.8072,40.9019,1315.00,94.00,26.00,8.76,240.00,10.00,0.00,30.04,1010.60,10.00,17.00,CLR,M,M,M,M,M,M,M,M,M,M,M,M,M,M,88.27,KWMC 231856Z AUTO 24010G17KT 10SM CLR 34/M03 A3004 RMK AO2 SLP106 T03441033,M
NFL,2024-06-23 18:56,-118.7010,39.4166,1199.00,93.00,32.00,11.55,M,6.00,0.00,30.03,1013.80,10.00,14.00,CLR,M,M,M,M,M,M,M,M,M,M,M,M,M,M,88.15,KNFL 231856Z AUTO VRB06G14KT 10SM CLR 34/00 A3003 RMK AO2 SLP138 T03390000,M
HND,2024-06-23 18:56,-115.1344,35.9729,742.79,104.00,51.00,17.22,220.00,10.00,0.00,29.93,1011.20,10.00,17.00,CLR,M,M,M,M,M,M,M,M,M,M,M,M,M,M,101.44,KHND 231856Z 22010G17KT 10SM CLR 40/11 A2993 RMK AO2 SLP112 T04000106,M
TPH,2024-06-23 18:56,-117.0904,38.0505,1654.00,91.00,22.00,8.14,210.00,13.00,0.00,30.14,1011.70,10.00,20.00,CLR,M,M,M,M,M,M,M,M,M,M,M,M,M,M,85.72,KTPH 231856Z AUTO 21013G20KT 10SM CLR 33/M06 A3014 RMK AO2 SLP117 T03281056,M
LAS,2024-06-23 18:56,-115.1634,36.0719,663.00,106.00,46.00,13.46,170.00,9.00,0.00,29.89,1008.70,10.00,15.00,FEW,M,M,M,10000.00,M,M,M,M,M,M,M,M,M,M,102.07,KLAS 231856Z 17009G15KT 10SM FEW100 41/08 A2989 RMK AO2 SLP087 TCU DSNT E T04110078 $,M
BVU,2024-06-23 19:15,-114.8611,35.9475,671.00,104.00,51.80,17.74,140.00,6.00,0.00,29.88,M,10.00,M,CLR,M,M,M,M,M,M,M,M,M,M,M,M,M,M,101.69,KBVU 231915Z AUTO 14006KT 10SM CLR 40/11 A2988 RMK AO2,M
CXP,2024-06-23 19:15,-119.7326,39.1923,1431.00,87.80,32.00,13.59,270.00,11.00,0.00,30.11,M,10.00,19.00,CLR,M,M,M,M,M,M,M,M,M,M,M,M,M,M,84.08,KCXP 231915Z AUTO 27011G19KT 10SM CLR 31/00 A3011 RMK AO2,M
RTS,2024-06-23 19:15,-119.8764,39.6682,1539.00,87.80,26.60,10.91,230.00,19.00,0.00,30.13,M,10.00,M,CLR,M,M,M,M,M,M,M,M,M,M,M,M,M,M,83.69,KRTS 231915Z AUTO 23019KT 10SM CLR 31/M03 A3013 RMK AO2,M
MEV,2024-06-23 19:15,-119.7500,38.9963,1441.42,87.80,30.20,12.64,M,5.00,0.00,30.09,M,10.00,11.00,CLR,M,M,M,M,M,M,M,M,M,M,M,M,M,M,84.01,KMEV 231915Z AUTO VRB05G11KT 10SM CLR 31/M01 A3009 RMK AO2,M
BAM,2024-06-23 19:15,-116.8743,40.5990,1382.36,91.40,32.00,12.14,360.00,5.00,0.00,30.05,M,10.00,M,CLR,M,M,M,M,M,M,M,M,M,M,M,M,M,M,86.91,KBAM 231915Z AUTO 36005KT 10SM CLR 33/00 A3005 RMK AO1,M
HTH,2024-06-23 19:15,-118.6315,38.5448,1282.89,91.40,30.20,11.28,320.00,7.00,0.00,30.04,M,10.00,M,CLR,M,M,M,M,M,M,M,M,M,M,M,M,M,M,86.71,KHTH 231915Z AUTO 32007KT 10SM CLR 33/M01 A3004 RMK A01,M
10U,2024-06-23 19:15,-116.1876,41.9532,1637.00,89.60,28.40,11.09,230.00,16.00,0.00,30.09,M,10.00,M,CLR,M,M,M,M,M,M,M,M,M,M,M,M,M,M,85.17,K10U 231915Z AUTO 23016KT 10SM CLR 32/M02 A3009 RMK AO2,M
TMT,2024-06-23 19:15,-117.1971,39.4643,1749.34,88.00,32.70,13.89,280.00,5.00,0.00,30.15,M,10.00,M,CLR,M,M,M,M,M,M,M,M,M,M,M,M,M,M,84.25,KTMT 231915Z AUTO 28005KT 10SM CLR 31/00 A3015 RMK AO2 T03120004,M
DRA,2024-06-23 19:19,-116.0278,36.6206,1009.00,102.00,43.00,13.52,210.00,10.00,0.00,29.97,M,10.00,21.00,CLR,M,M,M,M,M,M,M,M,M,M,M,M,M,M,97.60,KDRA 231919Z AUTO 21010G21KT 10SM CLR 39/06 A2997 RMK AO2 WSHFT 1902 T03890061,M
BVU,2024-06-23 19:35,-114.8611,35.9475,671.00,105.80,50.00,15.73,180.00,10.00,0.00,29.86,M,10.00,M,CLR,M,M,M,M,M,M,M,M,M,M,M,M,M,M,102.98,KBVU 231935Z AUTO 18010KT 10SM CLR 41/10 A2986 RMK AO2,M
CXP,2024-06-23 19:35,-119.7326,39.1923,1431.00,89.60,32.00,12.84,270.00,13.00,0.00,30.10,M,10.00,M,CLR,M,M,M,M,M,M,M,M,M,M,M,M,M,M,85.54,KCXP 231935Z AUTO 27013KT 10SM CLR 32/00 A3010 RMK AO2,M
RTS,2024-06-23 19:35,-119.8764,39.6682,1539.00,86.00,26.60,11.55,240.00,16.00,0.00,30.13,M,10.00,27.00,CLR,M,M,M,M,M,M,M,M,M,M,M,M,M,M,82.39,KRTS 231935Z AUTO 24016G27KT 10SM CLR 30/M03 A3013 RMK AO2,M
MEV,2024-06-23 19:35,-119.7500,38.9963,1441.42,87.80,32.00,13.59,M,6.00,0.00,30.09,M,10.00,11.00,CLR,M,M,M,M,M,M,M,M,M,M,M,M,M,M,84.08,KMEV 231935Z AUTO VRB06G11KT 10SM CLR 31/M00 A3009 RMK AO2,M
BAM,2024-06-23 19:35,-116.8743,40.5990,1382.36,95.00,30.20,10.09,230.00,8.00,0.00,30.05,M,10.00,M,CLR,M,M,M,M,M,M,M,M,M,M,M,M,M,M,89.48,KBAM 231935Z AUTO 23008KT 10SM CLR 35/M01 A3005 RMK AO1,M
HTH,2024-06-23 19:35,-118.6315,38.5448,1282.89,91.40,30.20,11.28,M,5.00,0.00,30.03,M,10.00,11.00,CLR,M,M,M,M,M,M,M,M,M,M,M,M,M,M,86.71,KHTH 231935Z AUTO VRB05G11KT 10SM CLR 33/M01 A3003 RMK A01,M
10U,2024-06-23 19:35,-116.1876,41.9532,1637.00,89.60,28.40,11.09,220.00,16.00,0.00,30.08,M,10.00,26.00,CLR,M,M,M,M,M,M,M,M,M,M,M,M,M,M,85.17,K10U 231935Z AUTO 22016G26KT 190V250 10SM CLR 32/M02 A3008 RMK AO2,M
TMT,2024-06-23 19:35,-117.1971,39.4643,1749.34,87.80,32.40,13.82,0.00,0.00,0.00,30.14,M,10.00,M,CLR,M,M,M,M,M,M,M,M,M,M,M,M,M,M,84.08,KTMT 231935Z AUTO 00000KT 10SM CLR 31/00 A3014 RMK AO2 T03100002,M
P68,2024-06-23 19:53,-116.0056,39.6014,1993.00,90.00,20.00,7.71,M,4.00,0.00,30.10,1009.70,M,15.00,M,M,M,M,M,M,M,M,M,M,M,M,M,M,M,84.86,KP68 231953Z AUTO VRB04G15KT 32/M07 A3010 RMK AO1 SLP097 T03221067,M
DRA,2024-06-23 19:53,-116.0278,36.6206,1009.00,103.00,44.00,13.64,230.00,10.00,0.00,29.96,1008.30,10.00,21.00,CLR,M,M,M,M,M,M,M,M,M,M,M,M,M,M,98.74,KDRA 231953Z AUTO 23010G21KT 10SM CLR 39/07 A2996 RMK AO2 WSHFT 1902 SLP083 T03940067,M
ELY,2024-06-23 19:53,-114.8453,39.2950,1909.00,89.00,33.00,13.62,230.00,10.00,0.00,30.17,1010.20,10.00,25.00,CLR,M,M,M,M,M,M,M,M,M,M,M,26.00,220.00,2024-06-23 19:30,85.08,KELY 231953Z AUTO 23010G25KT 10SM CLR 32/01 A3017 RMK AO2 PK WND 22026/1930 SLP102 T03170006,M
VGT,2024-06-23 19:53,-115.1933,36.2111,667.00,107.00,47.00,13.57,110.00,9.00,0.00,29.85,1009.00,10.00,14.00,CLR,M,M,M,M,M,M,M,M,M,M,M,M,M,M,103.30,KVGT 231953Z 11009G14KT 10SM CLR 42/08 A2985 RMK AO2 SLP090 T04170083,M
LOL,2024-06-23 19:53,-118.5701,40.0684,1192.43,94.00,30.00,10.32,220.00,17.00,0.00,30.00,1011.10,10.00,26.00,CLR,M,M,M,M,M,M,M,M,M,M,M,26.00,200.00,2024-06-23 19:44,88.68,KLOL 231953Z AUTO 22017G26KT 10SM CLR 34/M01 A3000 RMK AO2 PK WND 20026/1944 SLP111 T03441011,M
BVU,2024-06-23 19:55,-114.8611,35.9475,671.00,104.00,51.80,17.74,170.00,7.00,0.00,29.86,M,10.00,M,CLR,M,M,M,M,M,M,M,M,M,M,M,M,M,M,101.69,KBVU 231955Z AUTO 17007KT 140V200 10SM CLR 40/11 A2986 RMK AO2,M
CXP,2024-06-23 19:55,-119.7326,39.1923,1431.00,89.60,32.00,12.84,270.00,12.00,0.00,30.10,M,10.00,19.00,CLR,M,M,M,M,M,M,M,M,M,M,M,M,M,M,85.54,KCXP 231955Z AUTO 27012G19KT 10SM CLR 32/00 A3010 RMK AO2,M
RNO,2024-06-23 19:55,-119.7711,39.4839,1341.00,92.00,51.00,24.82,130.00,9.00,0.00,30.06,1011.10,10.00,20.00,CLR,M,M,M,M,M,M,M,M,M,M,M,M,M,M,89.11,KRNO 231955Z 13009G20KT 110V180 10SM CLR 33/11 A3006 RMK AO2 SLP111 T03330106,M
RTS,2024-06-23 19:55,-119.8764,39.6682,1539.00,86.00,28.40,12.44,230.00,15.00,0.00,30.12,M,10.00,21.00,CLR,M,M,M,M,M,M,M,M,M,M,M,M,M,M,82.54,KRTS 231955Z AUTO 23015G21KT 10SM CLR 30/M02 A3012 RMK AO2,M
MEV,2024-06-23 19:55,-119.7500,38.9963,1441.42,89.60,32.00,12.84,280.00,9.00,0.00,30.08,M,10.00,14.00,CLR,M,M,M,M,M,M,M,M,M,M,M,M,M,M,85.54,KMEV 231955Z AUTO 28009G14KT 10SM CLR 32/M00 A3008 RMK AO2,M
BAM,2024-06-23 19:55,-116.8743,40.5990,1382.36,96.80,30.20,9.55,210.00,6.00,0.00,30.04,M,10.00,9.00,CLR,M,M,M,M,M,M,M,M,M,M,M,M,M,M,90.96,KBAM 231955Z AUTO 21006G09KT 10SM CLR 36/M01 A3004 RMK AO1,M
HTH,2024-06-23 19:55,-118.6315,38.5448,1282.89,93.20,28.40,9.91,M,4.00,0.00,30.02,M,10.00,11.00,CLR,M,M,M,M,M,M,M,M,M,M,M,M,M,M,87.89,KHTH 231955Z AUTO VRB04G11KT 10SM CLR 34/M02 A3002 RMK A01,M
10U,2024-06-23 19:55,-116.1876,41.9532,1637.00,89.60,30.20,11.94,210.00,15.00,0.00,30.08,M,10.00,23.00,CLR,M,M,M,M,M,M,M,M,M,M,M,M,M,M,85.34,K10U 231955Z AUTO 21015G23KT 180V240 10SM CLR 32/M01 A3008 RMK AO2,M
TMT,2024-06-23 19:55,-117.1971,39.4643,1749.34,88.00,33.00,14.06,0.00,0.00,0.00,30.14,M,10.00,M,CLR,M,M,M,M,M,M,M,M,M,M,M,M,M,M,84.25,KTMT 231955Z AUTO 00000KT 10SM CLR 31/01 A3014 RMK AO2 T03110006,M
INS,2024-06-23 19:55,-115.6733,36.5872,955.00,M,M,M,250.00,6.00,0.00,M,M,10.00,M,M,M,M,M,M,M,M,M,M,M,M,M,M,M,M,M,KINS 231955Z AUTO 25006KT 10SM M M M RMK AO2 SLPNO RVRNO TSNO $,M
LSV,2024-06-23 19:55,-115.0343,36.2362,570.00,107.60,44.00,11.90,240.00,11.00,0.00,29.81,1006.10,10.00,17.00,CLR,M,M,M,M,M,M,M,M,M,M,M,M,M,M,102.97,KLSV 231955Z AUTO 24011G17KT 10SM CLR 42/07 A2981 RMK AO2 SLP061 T04200067 $,M
EKO,2024-06-23 19:56,-115.7860,40.8242,1367.00,94.00,36.00,13.13,230.00,11.00,0.00,30.06,1011.30,10.00,M,CLR,M,M,M,M,M,M,M,M,M,M,M,M,M,M,89.49,KEKO 231956Z AUTO 23011KT 10SM CLR 34/02 A3006 RMK AO2 SLP113 T03440022,M
WMC,2024-06-23 19:56,-117.8072,40.9019,1315.00,95.00,27.00,8.85,240.00,13.00,0.00,30.02,1010.10,10.00,25.00,CLR,M,M,M,M,M,M,M,M,M,M,M,M,M,M,89.12,KWMC 231956Z AUTO 24013G25KT 10SM CLR 35/M03 A3002 RMK AO2 SLP101 T03501028,M
HND,2024-06-23 19:56,-115.1344,35.9729,742.79,106.00,51.00,16.23,240.00,12.00,0.00,29.91,1010.60,10.00,19.00,CLR,M,M,M,M,M,M,M,M,M,M,M,M,M,M,103.51,KHND 231956Z 24012G19KT 10SM CLR 41/11 A2991 RMK AO2 SLP106 T04110106,M
TPH,2024-06-23 19:56,-117.0904,38.0505,1654.00,91.00,22.00,8.14,M,4.00,0.00,30.12,1011.30,10.00,21.00,CLR,M,M,M,M,M,M,M,M,M,M,M,M,M,M,85.72,KTPH 231956Z AUTO VRB04G21KT 10SM CLR 33/M06 A3012 RMK AO2 SLP113 T03281056,M
LAS,2024-06-23 19:56,-115.1634,36.0719,663.00,107.00,48.00,14.09,180.00,10.00,0.00,29.87,1007.80,10.00,19.00,FEW,M,M,M,10000.00,M,M,M,M,M,M,M,M,M,M,103.58,KLAS 231956Z 18010G19KT 10SM FEW100 42/09 A2987 RMK AO2 SLP078 TCU DSNT E T04170089 $,M
NFL,2024-06-23 19:56,-118.7010,39.4166,1199.00,96.00,28.00,8.94,180.00,9.00,0.00,30.01,1013.20,10.00,M,CLR,M,M,M,M,M,M,M,M,M,M,M,M,M,M,90.05,KNFL 231956Z AUTO 18009KT 140V210 10SM CLR 36/M02 A3001 RMK AO2 SLP132 T03561022,M
BVU,2024-06-23 20:15,-114.8611,35.9475,671.00,105.80,51.80,16.82,0.00,0.00,0.00,29.85,M,10.00,14.00,CLR,M,M,M,M,M,M,M,M,M,M,M,M,M,M,103.57,KBVU 232015Z AUTO 00000G14KT 10SM CLR 41/11 A2985 RMK AO2,M
CXP,2024-06-23 20:15,-119.7326,39.1923,1431.00,89.60,32.00,12.84,260.00,14.00,0.00,30.09,M,10.00,20.00,CLR,M,M,M,M,M,M,M,M,M,M,M,M,M,M,85.54,KCXP 232015Z AUTO 26014G20KT 220V280 10SM CLR 32/00 A3009 RMK AO2,M
RTS,2024-06-23 20:15,-119.8764,39.6682,1539.00,87.80,30.20,12.64,240.00,17.00,0.00,30.11,M,10.00,24.00,CLR,M,M,M,M,M,M,M,M,M,M,M,M,M,M,84.01,KRTS 232015Z AUTO 24017G24KT 10SM CLR 31/M01 A3011 RMK AO2,M
MEV,2024-06-23 20:15,-119.7500,38.9963,1441.42,89.60,32.00,12.84,M,5.00,0.00,30.07,M,10.00,10.00,CLR,M,M,M,M,M,M,M,M,M,M,M,M,M,M,85.54,KMEV 232015Z AUTO VRB05G10KT 10SM CLR 32/M00 A3007 RMK AO2,M
BAM,2024-06-23 20:15,-116.8743,40.5990,1382.36,95.00,30.20,10.09,290.00,9.00,0.00,30.04,M,10.00,15.00,CLR,M,M,M,M,M,M,M,M,M,M,M,M,M,M,89.48,KBAM 232015Z AUTO 29009G15KT 250V310 10SM CLR 35/M01 A3004 RMK AO1,M
HTH,2024-06-23 20:15,-118.6315,38.5448,1282.89,93.20,28.40,9.91,M,5.00,0.00,30.01,M,10.00,14.00,CLR,M,M,M,M,M,M,M,M,M,M,M,M,M,M,87.89,KHTH 232015Z AUTO VRB05G14KT 10SM CLR 34/M02 A3001 RMK A01,M
10U,2024-06-23 20:15,-116.1876,41.9532,1637.00,89.60,28.40,11.09,240.00,17.00,0.00,30.08,M,10.00,24.00,CLR,M,M,M,M,M,M,M,M,M,M,M,M,M,M,85.17,K10U 232015Z AUTO 24017G24KT 10SM CLR 32/M02 A3008 RMK AO2,M
TMT,2024-06-23 20:15,-117.1971,39.4643,1749.34,90.30,35.00,14.17,220.00,9.00,0.00,30.13,M,10.00,M,CLR,M,M,M,M,M,M,M,M,M,M,M,M,M,M,86.21,KTMT 232015Z AUTO 22009KT 10SM CLR 32/02 A3013 RMK AO2 T03240016,M
BVU,2024-06-23 20:35,-114.8611,35.9475,671.00,104.00,53.60,18.95,50.00,9.00,0.00,29.83,M,10.00,M,FEW,M,M,M,11000.00,M,M,M,M,M,M,M,M,M,M,102.31,KBVU 232035Z AUTO 05009KT 030V110 10SM FEW110 40/12 A2983 RMK AO2,M
CXP,2024-06-23 20:35,-119.7326,39.1923,1431.00,89.60,32.00,12.84,260.00,17.00,0.00,30.09,M,10.00,25.00,CLR,M,M,M,M,M,M,M,M,M,M,M,M,M,M,85.54,KCXP 232035Z AUTO 26017G25KT 10SM CLR 32/00 A3009 RMK AO2,M
RTS,2024-06-23 20:35,-119.8764,39.6682,1539.00,87.80,32.00,13.59,240.00,19.00,0.00,30.11,M,10.00,26.00,CLR,M,M,M,M,M,M,M,M,M,M,M,M,M,M,84.08,KRTS 232035Z AUTO 24019G26KT 10SM CLR 31/M00 A3011 RMK AO2,M
MEV,2024-06-23 20:35,-119.7500,38.9963,1441.42,91.40,32.00,12.14,M,6.00,0.00,30.07,M,8.00,15.00,CLR,M,M,M,M,M,M,M,M,M,M,M,M,M,M,86.91,KMEV 232035Z AUTO VRB06G15KT 8SM CLR 33/00 A3007 RMK AO2,M
BAM,2024-06-23 20:35,-116.8743,40.5990,1382.36,96.80,32.00,10.27,230.00,15.00,0.00,30.03,M,10.00,18.00,CLR,M,M,M,M,M,M,M,M,M,M,M,M,M,M,91.19,KBAM 232035Z AUTO 23015G18KT 10SM CLR 36/00 A3003 RMK AO1,M
HTH,2024-06-23 20:35,-118.6315,38.5448,1282.89,95.00,28.40,9.38,310.00,9.00,0.00,30.00,M,10.00,M,CLR,M,M,M,M,M,M,M,M,M,M,M,M,M,M,89.27,KHTH 232035Z AUTO 31009KT 270V340 10SM CLR 35/M02 A3000 RMK A01,M
10U,2024-06-23 20:35,-116.1876,41.9532,1637.00,89.60,30.20,11.94,230.00,18.00,0.00,30.07,M,10.00,28.00,CLR,M,M,M,M,M,M,M,M,M,M,M,M,M,M,85.34,K10U 232035Z AUTO 23018G28KT 10SM CLR 32/M01 A3007 RMK AO2,M
TMT,2024-06-23 20:35,-117.1971,39.4643,1749.34,90.30,33.00,13.08,200.00,9.00,0.00,30.12,M,10.00,M,CLR,M,M,M,M,M,M,M,M,M,M,M,M,M,M,86.17,KTMT 232035Z AUTO 20009KT 10SM CLR 32/01 A3012 RMK AO2 T03240005,M
P68,2024-06-23 20:53,-116.0056,39.6014,1993.00,94.00,23.00,7.73,210.00,15.00,0.00,30.08,1008.50,M,25.00,M,M,M,M,M,M,M,M,M,M,M,M,M,M,M,88.02,KP68 232053Z AUTO 21015G25KT 34/M05 A3008 RMK AO1 SLP085 T03441050 57018,M
DRA,2024-06-23 20:53,-116.0278,36.6206,1009.00,103.00,41.00,12.15,250.00,15.00,0.00,29.94,1007.30,10.00,27.00,CLR,M,M,M,M,M,M,M,M,M,M,M,27.00,230.00,2024-06-23 20:45,98.09,KDRA 232053Z AUTO 25015G27KT 10SM CLR 39/05 A2994 RMK AO2 PK WND 23027/2045 SLP073 T03940050 58017,M
ELY,2024-06-23 20:53,-114.8453,39.2950,1909.00,90.00,35.00,14.30,250.00,10.00,0.00,30.15,1008.90,10.00,20.00,CLR,M,M,M,M,M,M,M,M,M,M,M,M,M,M,85.95,KELY 232053Z AUTO 25010G20KT 10SM CLR 32/02 A3015 RMK AO2 SLP089 T03220017 58017,M
VGT,2024-06-23 20:53,-115.1933,36.2111,667.00,109.00,47.00,12.80,130.00,15.00,0.00,29.82,1007.70,10.00,20.00,CLR,M,M,M,M,M,M,M,M,M,M,M,M,M,M,105.20,KVGT 232053Z 13015G20KT 10SM CLR 43/08 A2982 RMK AO2 SLP077 T04280083 58025,M
LOL,2024-06-23 20:53,-118.5701,40.0684,1192.43,97.00,29.00,9.04,200.00,19.00,0.00,29.97,1010.10,10.00,28.00,CLR,M,M,M,M,M,M,M,M,M,M,M,28.00,180.00,2024-06-23 20:50,90.98,KLOL 232053Z AUTO 20019G28KT 10SM CLR 36/M02 A2997 RMK AO2 PK WND 18028/2050 SLP101 T03611017 58018,M
BVU,2024-06-23 20:55,-114.8611,35.9475,671.00,105.80,51.80,16.82,180.00,6.00,0.00,29.83,M,10.00,16.00,FEW,M,M,M,11000.00,M,M,M,M,M,M,M,M,M,M,103.57,KBVU 232055Z AUTO 18006G16KT 10SM FEW110 41/11 A2983 RMK AO2,M
CXP,2024-06-23 20:55,-119.7326,39.1923,1431.00,89.60,32.00,12.84,260.00,13.00,0.00,30.08,M,10.00,20.00,CLR,M,M,M,M,M,M,M,M,M,M,M,M,M,M,85.54,KCXP 232055Z AUTO 26013G20KT 210V280 10SM CLR 32/M00 A3008 RMK AO2,M
RNO,2024-06-23 20:55,-119.7711,39.4839,1341.00,95.00,53.00,24.35,190.00,16.00,0.00,30.04,1010.30,10.00,23.00,CLR,M,M,M,M,M,M,M,M,M,M,M,M,M,M,92.55,KRNO 232055Z 19016G23KT 10SM CLR 35/12 A3004 RMK AO2 SLP103 T03500117 58012,M
RTS,2024-06-23 20:55,-119.8764,39.6682,1539.00,87.80,30.20,12.64,250.00,14.00,0.00,30.11,M,10.00,23.00,CLR,M,M,M,M,M,M,M,M,M,M,M,M,M,M,84.01,KRTS 232055Z AUTO 25014G23KT 10SM CLR 31/M01 A3011 RMK AO2,M
MEV,2024-06-23 20:55,-119.7500,38.9963,1441.42,93.20,33.80,12.34,240.00,7.00,0.00,30.06,M,6.00,16.00,CLR,M,M,M,M,M,M,M,HZ,M,M,M,M,M,M,88.55,KMEV 232055Z AUTO 24007G16KT 200V290 6SM HZ CLR 34/01 A3006 RMK AO2,M
BAM,2024-06-23 20:55,-116.8743,40.5990,1382.36,96.80,30.20,9.55,270.00,8.00,0.00,30.02,M,10.00,M,CLR,M,M,M,M,M,M,M,M,M,M,M,M,M,M,90.96,KBAM 232055Z AUTO 27008KT 10SM CLR 36/M01 A3002 RMK AO1,M
HTH,2024-06-23 20:55,-118.6315,38.5448,1282.89,95.00,26.60,8.71,M,4.00,0.00,29.99,M,10.00,13.00,CLR,M,M,M,M,M,M,M,M,M,M,M,M,M,M,89.08,KHTH 232055Z AUTO VRB04G13KT 10SM CLR 35/M03 A2999 RMK A01,M
10U,2024-06-23 20:55,-116.1876,41.9532,1637.00,89.60,32.00,12.84,240.00,17.00,0.00,30.07,M,10.00,27.00,CLR,M,M,M,M,M,M,M,M,M,M,M,M,M,M,85.54,K10U 232055Z AUTO 24017G27KT 10SM CLR 32/M00 A3007 RMK AO2,M
TMT,2024-06-23 20:55,-117.1971,39.4643,1749.34,91.60,33.00,12.56,280.00,3.00,0.00,30.10,M,10.00,M,CLR,M,M,M,M,M,M,M,M,M,M,M,M,M,M,87.19,KTMT 232055Z AUTO 28003KT 10SM CLR 33/01 A3010 RMK AO2 T03310005,M
INS,2024-06-23 20:55,-115.6733,36.5872,955.00,M,M,M,340.00,5.00,0.00,M,M,10.00,15.00,M,M,M,M,M,M,M,M,M,M,M,M,M,M,M,M,KINS 232055Z AUTO 34005G15KT 10SM M M M RMK AO2 SLPNO RVRNO TSNO $,M
LSV,2024-06-23 20:55,-115.0343,36.2362,570.00,108.50,40.00,9.94,200.00,11.00,0.00,29.77,1004.80,10.00,15.00,CLR,M,M,M,M,M,M,M,M,M,M,M,M,M,M,102.71,KLSV 232055Z AUTO 20011G15KT 10SM CLR 43/04 A2977 RMK AO2 SLP048 T04250044 57025 $,M
EKO,2024-06-23 20:56,-115.7860,40.8242,1367.00,95.00,31.00,10.42,240.00,15.00,0.00,30.03,1010.60,10.00,20.00,CLR,M,M,M,M,M,M,M,M,M,M,M,M,M,M,89.58,KEKO 232056Z AUTO 24015G20KT 10SM CLR 35/M01 A3003 RMK AO2 SLP106 T03501006 58019,M
WMC,2024-06-23 20:56,-117.8072,40.9019,1315.00,97.00,28.00,8.67,260.00,14.00,0.00,29.99,1009.00,10.00,21.00,CLR,M,M,M,M,M,M,M,M,M,M,M,M,M,M,90.87,KWMC 232056Z AUTO 26014G21KT 10SM CLR 36/M02 A2999 RMK AO2 SLP090 T03611022 58017,M
HND,2024-06-23 20:56,-115.1344,35.9729,742.79,106.00,49.00,15.07,190.00,6.00,0.00,29.88,1009.60,10.00,18.00,CLR,M,M,M,M,M,M,M,M,M,M,M,M,M,M,102.88,KHND 232056Z 19006G18KT 10SM CLR 41/09 A2988 RMK AO2 SLP096 T04110094 58020,M
TPH,2024-06-23 20:56,-117.0904,38.0505,1654.00,95.00,20.00,6.60,160.00,15.00,0.00,30.09,1010.00,10.00,22.00,CLR,M,M,M,M,M,M,M,M,M,M,M,M,M,M,88.54,KTPH 232056Z AUTO 16015G22KT 10SM CLR 35/M07 A3009 RMK AO2 SLP100 T03501067 58020,M
LAS,2024-06-23 20:56,-115.1634,36.0719,663.00,109.00,45.00,11.87,150.00,6.00,0.00,29.84,1006.90,10.00,21.00,FEW,M,M,M,10000.00,M,M,M,M,M,M,M,M,M,M,104.54,KLAS 232056Z 15006G21KT 10SM FEW100 43/07 A2984 RMK AO2 SLP069 TCU DSNT E T04280072 58022 $,M
NFL,2024-06-23 20:56,-118.7010,39.4166,1199.00,97.00,30.00,9.41,M,5.00,0.00,29.98,1012.40,10.00,M,CLR,M,M,M,M,M,M,M,M,M,M,M,M,M,M,91.10,KNFL 232056Z COR VRB05KT 10SM CLR 36/M01 A2998 RMK AO2 SLP124 T03611011 58018,M
RNO,2024-06-23 21:13,-119.7711,39.4839,1341.00,96.00,55.00,25.40,240.00,9.00,0.00,30.04,M,10.00,21.00,CLR,M,M,M,M,M,M,M,M,M,M,M,M,M,M,94.16,KRNO 232113Z 24009G21KT 200V280 10SM CLR 36/13 A3004 RMK AO2 WSHFT 2053 T03560128,M
BVU,2024-06-23 21:15,-114.8611,35.9475,671.00,105.80,51.80,16.82,170.00,14.00,0.00,29.82,M,10.00,22.00,CLR,M,M,M,M,M,M,M,M,M,M,M,M,M,M,103.57,KBVU 232115Z AUTO 17014G22KT 10SM CLR 41/11 A2982 RMK AO2,M
CXP,2024-06-23 21:15,-119.7326,39.1923,1431.00,91.40,32.00,12.14,260.00,13.00,0.00,30.07,M,10.00,19.00,CLR,M,M,M,M,M,M,M,M,M,M,M,M,M,M,86.91,KCXP 232115Z AUTO 26013G19KT 10SM CLR 33/00 A3007 RMK AO2,M
RTS,2024-06-23 21:15,-119.8764,39.6682,1539.00,87.80,33.80,14.61,240.00,14.00,0.00,30.10,M,10.00,M,CLR,M,M,M,M,M,M,M,M,M,M,M,M,M,M,84.10,KRTS 232115Z AUTO 24014KT 10SM CLR 31/01 A3010 RMK AO2,M
MEV,2024-06-23 21:15,-119.7500,38.9963,1441.42,93.20,33.80,12.34,210.00,10.00,0.00,30.06,M,4.00,16.00,CLR,M,M,M,M,M,M,M,HZ,M,M,M,M,M,M,88.55,KMEV 232115Z AUTO 21010G16KT 4SM HZ CLR 34/01 A3006 RMK AO2,M
BAM,2024-06-23 21:15,-116.8743,40.5990,1382.36,96.80,32.00,10.27,210.00,3.00,0.00,30.01,M,10.00,M,CLR,M,M,M,M,M,M,M,M,M,M,M,M,M,M,91.19,KBAM 232115Z AUTO 21003KT 10SM CLR 36/00 A3001 RMK AO1,M
HTH,2024-06-23 21:15,-118.6315,38.5448,1282.89,96.80,26.60,8.24,310.00,9.00,0.00,29.98,M,10.00,M,CLR,M,M,M,M,M,M,M,M,M,M,M,M,M,M,90.57,KHTH 232115Z AUTO 31009KT 280V340 10SM CLR 36/M03 A2998 RMK A01,M
10U,2024-06-23 21:15,-116.1876,41.9532,1637.00,89.60,32.00,12.84,240.00,15.00,0.00,30.06,M,10.00,26.00,CLR,M,M,M,M,M,M,M,M,M,M,M,M,M,M,85.54,K10U 232115Z AUTO 24015G26KT 210V270 10SM CLR 32/M00 A3006 RMK AO2,M
TMT,2024-06-23 21:15,-117.1971,39.4643,1749.34,92.00,32.70,12.25,220.00,4.00,0.00,30.10,M,10.00,17.00,CLR,M,M,M,M,M,M,M,M,M,M,M,M,M,M,87.46,KTMT 232115Z AUTO 22004G17KT 10SM CLR 33/00 A3010 RMK AO2 T03330004,M
LAS,2024-06-23 21:32,-115.1634,36.0719,663.00,109.00,46.00,12.33,190.00,6.00,0.00,29.83,M,10.00,19.00,FEW,M,M,M,10000.00,M,M,M,M,M,M,M,M,M,M,104.86,KLAS 232132Z 19006G19KT 10SM FEW100 43/08 A2983 RMK AO2 TCU DSNT E T04280078 $,M
BVU,2024-06-23 21:35,-114.8611,35.9475,671.00,104.00,51.80,17.74,140.00,15.00,0.00,29.82,M,10.00,M,CLR,M,M,M,M,M,M,M,M,M,M,M,M,M,M,101.69,KBVU 232135Z AUTO 14015KT 10SM CLR 40/11 A2982 RMK AO2,M
CXP,2024-06-23 21:35,-119.7326,39.1923,1431.00,89.60,33.80,13.80,270.00,15.00,0.00,30.07,M,10.00,20.00,CLR,M,M,M,M,M,M,M,M,M,M,M,M,M,M,85.59,KCXP 232135Z AUTO 27015G20KT 10SM CLR 32/01 A3007 RMK AO2,M
RTS,2024-06-23 21:35,-119.8764,39.6682,1539.00,87.80,32.00,13.59,240.00,16.00,0.00,30.10,M,10.00,M,CLR,M,M,M,M,M,M,M,M,M,M,M,M,M,M,84.08,KRTS 232135Z AUTO 24016KT 10SM CLR 31/M00 A3010 RMK AO2,M
MEV,2024-06-23 21:35,-119.7500,38.9963,1441.42,93.20,35.60,13.25,210.00,12.00,0.00,30.06,M,10.00,24.00,CLR,M,M,M,M,M,M,M,M,M,M,M,M,M,M,88.76,KMEV 232135Z AUTO 21012G24KT 10SM CLR 34/02 A3006 RMK AO2,M
BAM,2024-06-23 21:35,-116.8743,40.5990,1382.36,96.80,32.00,10.27,220.00,7.00,0.00,30.00,M,10.00,17.00,CLR,M,M,M,M,M,M,M,M,M,M,M,M,M,M,91.19,KBAM 232135Z AUTO 22007G17KT 10SM CLR 36/00 A3000 RMK AO1,M
HTH,2024-06-23 21:35,-118.6315,38.5448,1282.89,96.80,24.80,7.65,320.00,11.00,0.00,29.98,M,10.00,18.00,CLR,M,M,M,M,M,M,M,M,M,M,M,M,M,M,90.40,KHTH 232135Z AUTO 32011G18KT 10SM CLR 36/M04 A2998 RMK A01,M
10U,2024-06-23 21:35,-116.1876,41.9532,1637.00,89.60,32.00,12.84,250.00,13.00,0.00,30.06,M,10.00,27.00,CLR,M,M,M,M,M,M,M,M,M,M,M,M,M,M,85.54,K10U 232135Z AUTO 25013G27KT 10SM CLR 32/M00 A3006 RMK AO2,M
TMT,2024-06-23 21:35,-117.1971,39.4643,1749.34,92.00,33.00,12.40,280.00,12.00,0.00,30.10,M,10.00,15.00,CLR,M,M,M,M,M,M,M,M,M,M,M,M,M,M,87.50,KTMT 232135Z AUTO 28012G15KT 240V300 10SM CLR 33/01 A3010 RMK AO2 T03340005,M
LSV,2024-06-23 21:50,-115.0343,36.2362,570.00,109.40,37.40,8.74,180.00,14.00,0.00,29.74,1003.80,10.00,19.00,CLR,M,M,M,M,M,M,M,M,M,M,M,M,M,M,102.93,KLSV 232150Z AUTO 18014G19KT 10SM CLR 43/03 A2974 RMK AO2 WSHFT 46 SLP038 $,M
P68,2024-06-23 21:53,-116.0056,39.6014,1993.00,95.00,21.00,6.89,230.00,12.00,0.00,30.06,1008.00,M,23.00,M,M,M,M,M,M,M,M,M,M,M,M,M,M,M,88.61,KP68 232153Z AUTO 23012G23KT 35/M06 A3006 RMK AO1 SLP080 T03501061,M
DRA,2024-06-23 21:53,-116.0278,36.6206,1009.00,104.00,40.00,11.35,230.00,12.00,0.00,29.92,1006.70,10.00,22.00,CLR,M,M,M,M,M,M,M,M,M,M,M,27.00,180.00,2024-06-23 21:37,98.73,KDRA 232153Z AUTO 23012G22KT 10SM CLR 40/04 A2992 RMK AO2 PK WND 18027/2137 SLP067 T04000044,M
ELY,2024-06-23 21:53,-114.8453,39.2950,1909.00,93.00,26.00,9.04,240.00,13.00,0.00,30.13,1008.30,10.00,27.00,CLR,M,M,M,M,M,M,M,M,M,M,M,27.00,240.00,2024-06-23 21:46,87.51,KELY 232153Z AUTO 24013G27KT 10SM CLR 34/M03 A3013 RMK AO2 PK WND 24027/2146 SLP083 T03391033,M
VGT,2024-06-23 21:53,-115.1933,36.2111,667.00,108.00,45.00,12.22,160.00,5.00,0.00,29.80,1007.20,10.00,M,CLR,M,M,M,M,M,M,M,M,M,M,M,27.00,200.00,2024-06-23 21:00,103.63,KVGT 232153Z 16005KT 10SM CLR 42/07 A2980 RMK AO2 PK WND 20027/2100 SLP072 T04220072,M
LOL,2024-06-23 21:53,-118.5701,40.0684,1192.43,98.00,28.00,8.41,230.00,16.00,0.00,29.95,1009.20,10.00,22.00,CLR,M,M,M,M,M,M,M,M,M,M,M,26.00,190.00,2024-06-23 21:21,91.71,KLOL 232153Z AUTO 23016G22KT 190V250 10SM CLR 37/M02 A2995 RMK AO2 PK WND 19026/2121 SLP092 T03671022,M
BVU,2024-06-23 21:55,-114.8611,35.9475,671.00,105.80,50.00,15.73,160.00,10.00,0.00,29.81,M,10.00,16.00,CLR,M,M,M,M,M,M,M,M,M,M,M,M,M,M,102.98,KBVU 232155Z AUTO 16010G16KT 10SM CLR 41/10 A2981 RMK AO2 LTG DSNT SE,M
CXP,2024-06-23 21:55,-119.7326,39.1923,1431.00,91.40,33.80,13.05,270.00,18.00,0.00,30.07,M,10.00,24.00,CLR,M,M,M,M,M,M,M,M,M,M,M,M,M,M,87.13,KCXP 232155Z AUTO 27018G24KT 10SM CLR 33/01 A3007 RMK AO2,M
RNO,2024-06-23 21:55,-119.7711,39.4839,1341.00,95.00,54.00,25.26,240.00,12.00,0.00,30.03,1010.30,10.00,24.00,CLR,M,M,M,M,M,M,M,M,M,M,M,27.00,240.00,2024-06-23 21:36,92.82,KRNO 232155Z 24012G24KT 10SM CLR 35/12 A3003 RMK AO2 PK WND 24027/2136 WSHFT 2053 SLP103 T03500122,M
LSV,2024-06-23 21:55,-115.0343,36.2362,570.00,110.00,38.50,8.97,210.00,17.00,0.00,29.74,1003.80,10.00,M,CLR,M,M,M,M,M,M,M,M,M,M,M,M,M,M,103.71,KLSV 232155Z AUTO 21017KT 10SM CLR 43/04 A2974 RMK AO2 SLP038 T04340036 $,M
RTS,2024-06-23 21:55,-119.8764,39.6682,1539.00,87.80,32.00,13.59,230.00,11.00,0.00,30.10,M,10.00,20.00,CLR,M,M,M,M,M,M,M,M,M,M,M,M,M,M,84.08,KRTS 232155Z AUTO 23011G20KT 10SM CLR 31/M00 A3010 RMK AO2,M
MEV,2024-06-23 21:55,-119.7500,38.9963,1441.42,91.40,37.40,15.05,240.00,14.00,0.00,30.05,M,10.00,M,CLR,M,M,M,M,M,M,M,M,M,M,M,M,M,M,87.23,KMEV 232155Z AUTO 24014KT 200V260 10SM CLR 33/03 A3005 RMK AO2,M
BAM,2024-06-23 21:55,-116.8743,40.5990,1382.36,96.80,32.00,10.27,230.00,5.00,0.00,29.99,M,10.00,18.00,CLR,M,M,M,M,M,M,M,M,M,M,M,M,M,M,91.19,KBAM 232155Z AUTO 23005G18KT 10SM CLR 36/00 A2999 RMK AO1,M
HTH,2024-06-23 21:55,-118.6315,38.5448,1282.89,96.80,26.60,8.24,320.00,12.00,0.00,29.97,M,10.00,20.00,CLR,M,M,M,M,M,M,M,M,M,M,M,M,M,M,90.57,KHTH 232155Z AUTO 32012G20KT 10SM CLR 36/M03 A2997 RMK A01,M
10U,2024-06-23 21:55,-116.1876,41.9532,1637.00,89.60,32.00,12.84,230.00,12.00,0.00,30.05,M,10.00,25.00,CLR,M,M,M,M,M,M,M,M,M,M,M,M,M,M,85.54,K10U 232155Z AUTO 23012G25KT 10SM CLR 32/M00 A3005 RMK AO2,M
TMT,2024-06-23 21:55,-117.1971,39.4643,1749.34,91.00,31.00,11.80,220.00,7.00,0.00,30.09,M,10.00,M,CLR,M,M,M,M,M,M,M,M,M,M,M,M,M,M,86.49,KTMT 232155Z AUTO 22007KT 10SM CLR 33/00 A3009 RMK AO2 T03281005,M
INS,2024-06-23 21:55,-115.6733,36.5872,955.00,M,M,M,310.00,10.00,0.00,M,M,10.00,17.00,M,M,M,M,M,M,M,M,M,M,M,M,M,M,M,M,KINS 232155Z AUTO 31010G17KT 10SM M M M RMK AO2 SLPNO RVRNO TSNO $,M
EKO,2024-06-23 21:56,-115.7860,40.8242,1367.00,94.00,31.00,10.75,M,6.00,0.00,30.01,1010.00,10.00,17.00,CLR,M,M,M,M,M,M,M,M,M,M,M,M,M,M,88.80,KEKO 232156Z AUTO VRB06G17KT 10SM CLR 34/M01 A3001 RMK AO2 SLP100 T03441006,M
WMC,2024-06-23 21:56,-117.8072,40.9019,1315.00,99.00,28.00,8.16,230.00,10.00,0.00,29.97,1009.00,10.00,26.00,CLR,M,M,M,M,M,M,M,M,M,M,M,26.00,260.00,2024-06-23 21:49,92.54,KWMC 232156Z AUTO 23010G26KT 10SM CLR 37/M02 A2997 RMK AO2 PK WND 26026/2149 SLP090 T03721022,M
HND,2024-06-23 21:56,-115.1344,35.9729,742.79,107.00,47.00,13.57,270.00,9.00,0.00,29.86,1008.70,10.00,M,CLR,M,M,M,M,M,M,M,M,M,M,M,M,M,M,103.30,KHND 232156Z 27009KT 10SM CLR 42/08 A2986 RMK AO2 SLP087 T04170083,M
TPH,2024-06-23 21:56,-117.0904,38.0505,1654.00,94.00,20.00,6.81,240.00,5.00,0.00,30.08,1009.90,10.00,M,CLR,M,M,M,M,M,M,M,M,M,M,M,M,M,M,87.81,KTPH 232156Z AUTO 24005KT 10SM CLR 34/M07 A3008 RMK AO2 SLP099 T03441067,M
LAS,2024-06-23 21:56,-115.1634,36.0719,663.00,110.00,45.00,11.53,210.00,7.00,0.00,29.82,1006.00,10.00,M,FEW,FEW,M,M,10000.00,25000.00,M,M,M,M,M,M,M,M,M,105.45,KLAS 232156Z 21007KT 10SM FEW100 FEW250 43/07 A2982 RMK AO2 SLP060 TCU DSNT E T04330072 $,M
NFL,2024-06-23 21:56,-118.7010,39.4166,1199.00,96.00,31.00,10.11,M,6.00,0.00,29.96,1011.70,10.00,M,CLR,M,M,M,M,M,M,M,M,M,M,M,M,M,M,90.40,KNFL 232156Z VRB06KT 10SM CLR 36/M01 A2996 RMK AO2 SLP117 T03561006,M
LSV,2024-06-23 21:56,-115.0343,36.2362,570.00,109.40,39.20,9.38,220.00,16.00,0.00,29.74,1003.80,10.00,19.00,CLR,M,M,M,M,M,M,M,M,M,M,M,M,M,M,103.33,KLSV 232156Z AUTO 22016G19KT 10SM CLR 43/04 A2974 RMK AO2 WSHFT 51 SLP038 $,M
BVU,2024-06-23 22:15,-114.8611,35.9475,671.00,107.60,51.80,15.95,140.00,14.00,0.00,29.80,M,10.00,19.00,CLR,M,M,M,M,M,M,M,M,M,M,M,M,M,M,105.43,KBVU 232215Z AUTO 14014G19KT 10SM CLR 42/11 A2980 RMK AO2,M
CXP,2024-06-23 22:15,-119.7326,39.1923,1431.00,91.40,33.80,13.05,280.00,14.00,0.00,30.06,M,10.00,23.00,CLR,M,M,M,M,M,M,M,M,M,M,M,M,M,M,87.13,KCXP 232215Z AUTO 28014G23KT 10SM CLR 33/01 A3006 RMK AO2,M
RTS,2024-06-23 22:15,-119.8764,39.6682,1539.00,87.80,30.20,12.64,240.00,14.00,0.00,30.10,M,10.00,26.00,CLR,M,M,M,M,M,M,M,M,M,M,M,M,M,M,84.01,KRTS 232215Z AUTO 24014G26KT 10SM CLR 31/M01 A3010 RMK AO2,M
MEV,2024-06-23 22:15,-119.7500,38.9963,1441.42,93.20,32.00,11.48,170.00,10.00,0.00,30.05,M,10.00,M,CLR,M,M,M,M,M,M,M,M,M,M,M,M,M,M,88.31,KMEV 232215Z AUTO 17010KT 10SM CLR 34/00 A3005 RMK AO2,M
BAM,2024-06-23 22:15,-116.8743,40.5990,1382.36,96.80,32.00,10.27,250.00,6.00,0.00,29.99,M,10.00,21.00,CLR,M,M,M,M,M,M,M,M,M,M,M,M,M,M,91.19,KBAM 232215Z AUTO 25006G21KT 10SM CLR 36/00 A2999 RMK AO1,M
HTH,2024-06-23 22:15,-118.6315,38.5448,1282.89,98.60,24.80,7.24,320.00,13.00,0.00,29.96,M,10.00,M,CLR,M,M,M,M,M,M,M,M,M,M,M,M,M,M,91.90,KHTH 232215Z AUTO 32013KT 10SM CLR 37/M04 A2996 RMK A01,M
10U,2024-06-23 22:15,-116.1876,41.9532,1637.00,89.60,32.00,12.84,230.00,15.00,0.00,30.05,M,10.00,21.00,CLR,M,M,M,M,M,M,M,M,M,M,M,M,M,M,85.54,K10U 232215Z AUTO 23015G21KT 10SM CLR 32/M00 A3005 RMK AO2,M
TMT,2024-06-23 22:15,-117.1971,39.4643,1749.34,93.00,30.20,10.74,260.00,13.00,0.00,30.09,M,10.00,21.00,CLR,M,M,M,M,M,M,M,M,M,M,M,M,M,M,87.93,KTMT 232215Z AUTO 26013G21KT 10SM CLR 34/M01 A3009 RMK AO2 T03381010,M
LSV,2024-06-23 22:19,-115.0343,36.2362,570.00,111.20,39.20,8.90,190.00,14.00,0.00,29.73,1003.50,10.00,20.00,CLR,M,M,M,M,M,M,M,M,M,M,M,M,M,M,104.98,KLSV 232219Z AUTO 19014G20KT 10SM CLR 44/04 A2973 RMK AO2 WSHFT 09 SLP035 $,M
INS,2024-06-23 22:30,-115.6733,36.5872,955.00,M,M,M,250.00,20.00,0.00,M,M,10.00,25.00,M,M,M,M,M,M,M,M,M,M,M,M,M,M,M,M,KINS 232230Z AUTO 25020G25KT 10SM M M M RMK AO2 WSHFT 19 SLPNO RVRNO TSNO $,M
BVU,2024-06-23 22:35,-114.8611,35.9475,671.00,107.60,48.20,13.95,150.00,11.00,0.00,29.78,M,10.00,16.00,CLR,M,M,M,M,M,M,M,M,M,M,M,M,M,M,104.23,KBVU 232235Z AUTO 15011G16KT 10SM CLR 42/09 A2978 RMK AO2,M
CXP,2024-06-23 22:35,-119.7326,39.1923,1431.00,91.40,33.80,13.05,260.00,13.00,0.00,30.06,M,10.00,18.00,CLR,M,M,M,M,M,M,M,M,M,M,M,M,M,M,87.13,KCXP 232235Z AUTO 26013G18KT 10SM CLR 33/01 A3006 RMK AO2,M
RTS,2024-06-23 22:35,-119.8764,39.6682,1539.00,87.80,28.40,11.74,260.00,18.00,0.00,30.09,M,10.00,23.00,CLR,M,M,M,M,M,M,M,M,M,M,M,M,M,M,83.84,KRTS 232235Z AUTO 26018G23KT 10SM CLR 31/M02 A3009 RMK AO2,M
MEV,2024-06-23 22:35,-119.7500,38.9963,1441.42,93.20,30.20,10.67,200.00,13.00,0.00,30.04,M,10.00,18.00,CLR,M,M,M,M,M,M,M,M,M,M,M,M,M,M,88.09,KMEV 232235Z AUTO 20013G18KT 10SM CLR 34/M01 A3004 RMK AO2,M
BAM,2024-06-23 22:35,-116.8743,40.5990,1382.36,96.80,32.00,10.27,270.00,13.00,0.00,29.98,M,10.00,20.00,CLR,M,M,M,M,M,M,M,M,M,M,M,M,M,M,91.19,KBAM 232235Z AUTO 27013G20KT 10SM CLR 36/00 A2998 RMK AO1,M
HTH,2024-06-23 22:35,-118.6315,38.5448,1282.89,98.60,24.80,7.24,320.00,9.00,0.00,29.95,M,10.00,15.00,CLR,M,M,M,M,M,M,M,M,M,M,M,M,M,M,91.90,KHTH 232235Z AUTO 32009G15KT 10SM CLR 37/M04 A2995 RMK A01,M
10U,2024-06-23 22:35,-116.1876,41.9532,1637.00,91.40,30.20,11.28,230.00,21.00,0.00,30.04,M,10.00,27.00,CLR,M,M,M,M,M,M,M,M,M,M,M,M,M,M,86.71,K10U 232235Z AUTO 23021G27KT 10SM CLR 33/M01 A3004 RMK AO2,M
TMT,2024-06-23 22:35,-117.1971,39.4643,1749.34,92.50,28.60,10.21,260.00,12.00,0.00,30.08,M,10.00,21.00,CLR,M,M,M,M,M,M,M,M,M,M,M,M,M,M,87.38,KTMT 232235Z AUTO 26012G21KT 10SM CLR 34/M02 A3008 RMK AO2 T03361019,M
INS,2024-06-23 22:43,-115.6733,36.5872,955.00,M,M,M,170.00,11.00,0.00,M,M,10.00,M,M,M,M,M,M,M,M,M,M,M,M,M,M,M,M,M,KINS 232243Z AUTO 17011KT 10SM M M M RMK AO2 WSHFT 41 SLPNO RVRNO TSNO $,M
LSV,2024-06-23 22:43,-115.0343,36.2362,570.00,109.40,39.20,9.38,240.00,11.00,0.00,29.72,1003.20,10.00,19.00,CLR,M,M,M,M,M,M,M,M,M,M,M,M,M,M,103.33,KLSV 232243Z AUTO 24011G19KT 10SM CLR 43/04 A2972 RMK AO2 WSHFT 33 SLP032 $,M
P68,2024-06-23 22:53,-116.0056,39.6014,1993.00,93.00,19.00,6.73,0.00,0.00,0.00,30.04,1007.40,M,M,M,M,M,M,M,M,M,M,M,M,M,M,M,M,M,87.01,KP68 232253Z AUTO 00000KT 34/M07 A3004 RMK AO1 SLP074 T03391072,M
DRA,2024-06-23 22:53,-116.0278,36.6206,1009.00,104.00,40.00,11.35,240.00,17.00,0.00,29.89,1006.10,10.00,27.00,CLR,M,M,M,M,M,M,M,M,M,M,M,29.00,220.00,2024-06-23 22:35,98.73,KDRA 232253Z AUTO 24017G27KT 10SM CLR 40/04 A2989 RMK AO2 PK WND 22029/2235 SLP061 T04000044,M
ELY,2024-06-23 22:53,-114.8453,39.2950,1909.00,93.00,30.00,10.65,240.00,14.00,0.00,30.11,1007.50,10.00,24.00,CLR,M,M,M,M,M,M,M,M,M,M,M,29.00,190.00,2024-06-23 21:58,87.91,KELY 232253Z AUTO 24014G24KT 10SM CLR 34/M01 A3011 RMK AO2 PK WND 19029/2158 SLP075 T03391011,M
VGT,2024-06-23 22:53,-115.1933,36.2111,667.00,110.00,47.00,12.43,200.00,13.00,0.00,29.77,1006.10,10.00,17.00,CLR,M,M,M,M,M,M,M,M,M,M,M,M,M,M,106.11,KVGT 232253Z 20013G17KT 10SM CLR 43/08 A2977 RMK AO2 SLP061 T04330083,M
LOL,2024-06-23 22:53,-118.5701,40.0684,1192.43,97.00,29.00,9.04,270.00,12.00,0.00,29.93,1008.80,10.00,21.00,CLR,M,M,M,M,M,M,M,M,M,M,M,29.00,260.00,2024-06-23 22:10,90.98,KLOL 232253Z AUTO 27012G21KT 10SM CLR 36/M02 A2993 RMK AO2 PK WND 26029/2210 SLP088 T03611017,M
BVU,2024-06-23 22:55,-114.8611,35.9475,671.00,107.60,48.20,13.95,150.00,14.00,0.00,29.78,M,10.00,22.00,CLR,M,M,M,M,M,M,M,M,M,M,M,M,M,M,104.23,KBVU 232255Z AUTO 15014G22KT 10SM CLR 42/09 A2978 RMK AO2,M
CXP,2024-06-23 22:55,-119.7326,39.1923,1431.00,89.60,35.60,14.83,240.00,13.00,0.00,30.05,M,10.00,23.00,CLR,M,M,M,M,M,M,M,M,M,M,M,M,M,M,85.62,KCXP 232255Z AUTO 24013G23KT 10SM CLR 32/02 A3005 RMK AO2,M
RNO,2024-06-23 22:55,-119.7711,39.4839,1341.00,95.00,55.00,26.19,270.00,15.00,0.00,30.01,1009.70,10.00,25.00,CLR,M,M,M,M,M,M,M,M,M,M,M,M,M,M,93.10,KRNO 232255Z 27015G25KT 10SM CLR 35/13 A3001 RMK AO2 SLP097 T03500128,M
RTS,2024-06-23 22:55,-119.8764,39.6682,1539.00,87.80,30.20,12.64,220.00,12.00,0.00,30.09,M,10.00,24.00,CLR,M,M,M,M,M,M,M,M,M,M,M,M,M,M,84.01,KRTS 232255Z AUTO 22012G24KT 10SM CLR 31/M01 A3009 RMK AO2,M
MEV,2024-06-23 22:55,-119.7500,38.9963,1441.42,93.20,35.60,13.25,250.00,13.00,0.00,30.04,M,10.00,19.00,CLR,M,M,M,M,M,M,M,M,M,M,M,M,M,M,88.76,KMEV 232255Z AUTO 25013G19KT 10SM CLR 34/02 A3004 RMK AO2,M
BAM,2024-06-23 22:55,-116.8743,40.5990,1382.36,98.60,32.00,9.72,250.00,16.00,0.00,29.98,M,10.00,21.00,CLR,M,M,M,M,M,M,M,M,M,M,M,M,M,M,92.69,KBAM 232255Z AUTO 25016G21KT 10SM CLR 37/00 A2998 RMK AO1,M
HTH,2024-06-23 22:55,-118.6315,38.5448,1282.89,98.60,23.00,6.71,330.00,10.00,0.00,29.94,M,10.00,16.00,CLR,M,M,M,M,M,M,M,M,M,M,M,M,M,M,91.75,KHTH 232255Z AUTO 33010G16KT 10SM CLR 37/M05 A2994 RMK A01,M
10U,2024-06-23 22:55,-116.1876,41.9532,1637.00,91.40,30.20,11.28,220.00,14.00,0.00,30.03,M,10.00,25.00,CLR,M,M,M,M,M,M,M,M,M,M,M,M,M,M,86.71,K10U 232255Z AUTO 22014G25KT 10SM CLR 33/M01 A3003 RMK AO2,M
TMT,2024-06-23 22:55,-117.1971,39.4643,1749.34,93.00,29.50,10.43,260.00,14.00,0.00,30.08,M,10.00,19.00,CLR,M,M,M,M,M,M,M,M,M,M,M,M,M,M,87.86,KTMT 232255Z AUTO 26014G19KT 10SM CLR 34/M01 A3008 RMK AO2 T03391014,M
INS,2024-06-23 22:55,-115.6733,36.5872,955.00,M,M,M,210.00,6.00,0.00,M,M,10.00,M,M,M,M,M,M,M,M,M,M,M,M,M,M,M,M,M,KINS 232255Z AUTO 21006KT 10SM M M M RMK AO2 SLPNO RVRNO TSNO $,M
LSV,2024-06-23 22:55,-115.0343,36.2362,570.00,110.00,35.40,7.94,210.00,15.00,0.00,29.72,1003.20,10.00,M,CLR,M,M,M,M,M,M,M,M,M,M,M,M,M,M,103.07,KLSV 232255Z AUTO 21015KT 10SM CLR 43/02 A2972 RMK AO2 SLP032 T04340019 $,M
EKO,2024-06-23 22:56,-115.7860,40.8242,1367.00,96.00,29.00,9.32,250.00,11.00,0.00,29.99,1008.80,10.00,17.00,CLR,M,M,M,M,M,M,M,M,M,M,M,M,M,M,90.16,KEKO 232256Z AUTO 25011G17KT 220V300 10SM CLR 36/M02 A2999 RMK AO2 SLP088 T03561017,M
WMC,2024-06-23 22:56,-117.8072,40.9019,1315.00,98.00,27.00,8.07,240.00,15.00,0.00,29.95,1008.20,10.00,22.00,CLR,M,M,M,M,M,M,M,M,M,M,M,29.00,260.00,2024-06-23 22:10,91.60,KWMC 232256Z AUTO 24015G22KT 10SM CLR 37/M03 A2995 RMK AO2 PK WND 26029/2210 SLP082 T03671028,M
NFL,2024-06-23 22:56,-118.7010,39.4166,1199.00,100.00,33.00,9.70,330.00,10.00,0.00,29.93,1010.90,10.00,M,CLR,M,M,M,M,M,M,M,M,M,M,M,M,M,M,94.01,KNFL 232256Z 33010KT 10SM CLR 38/01 A2993 RMK AO2 SLP109 T03780006,M
HND,2024-06-23 22:56,-115.1344,35.9729,742.79,108.00,47.00,13.18,230.00,11.00,0.00,29.83,1007.90,10.00,17.00,CLR,M,M,M,M,M,M,M,M,M,M,M,M,M,M,104.26,KHND 232256Z 23011G17KT 10SM CLR 42/08 A2983 RMK AO2 SLP079 T04220083,M
TPH,2024-06-23 22:56,-117.0904,38.0505,1654.00,97.00,19.00,5.95,260.00,13.00,0.00,30.05,1009.10,10.00,23.00,CLR,M,M,M,M,M,M,M,M,M,M,M,M,M,M,90.13,KTPH 232256Z AUTO 26013G23KT 10SM CLR 36/M07 A3005 RMK AO2 SLP091 T03611072,M
LAS,2024-06-23 22:56,-115.1634,36.0719,663.00,110.00,45.00,11.53,240.00,11.00,0.00,29.80,1005.30,10.00,19.00,FEW,FEW,M,M,10000.00,25000.00,M,M,M,M,M,M,M,M,M,105.45,KLAS 232256Z 24011G19KT 10SM FEW100 FEW250 43/07 A2980 RMK AO2 SLP053 TCU DSNT E T04330072 $,M
LSV,2024-06-23 23:07,-115.0343,36.2362,570.00,111.20,35.60,7.73,230.00,12.00,0.00,29.71,1002.80,10.00,M,CLR,M,M,M,M,M,M,M,M,M,M,M,M,M,M,104.21,KLSV 232307Z AUTO 23012KT 10SM CLR 44/02 A2971 RMK AO2 WSHFT 02 SLP028 $,M
INS,2024-06-23 23:08,-115.6733,36.5872,955.00,M,M,M,210.00,14.00,0.00,M,M,10.00,20.00,M,M,M,M,M,M,M,M,M,M,M,M,M,M,M,M,KINS 232308Z AUTO 21014G20KT 10SM M M M RMK AO2 WSHFT 06 SLPNO RVRNO TSNO $,M
BVU,2024-06-23 23:15,-114.8611,35.9475,671.00,107.60,50.00,14.92,150.00,15.00,0.00,29.77,M,10.00,M,CLR,M,M,M,M,M,M,M,M,M,M,M,M,M,M,104.80,KBVU 232315Z AUTO 15015KT 10SM CLR 42/10 A2977 RMK AO2,M
CXP,2024-06-23 23:15,-119.7326,39.1923,1431.00,89.60,37.40,15.92,250.00,14.00,0.00,30.05,M,10.00,22.00,CLR,M,M,M,M,M,M,M,M,M,M,M,M,M,M,85.67,KCXP 232315Z AUTO 25014G22KT 10SM CLR 32/03 A3005 RMK AO2,M
RTS,2024-06-23 23:15,-119.8764,39.6682,1539.00,89.60,26.60,10.30,230.00,18.00,0.00,30.08,M,10.00,24.00,CLR,M,M,M,M,M,M,M,M,M,M,M,M,M,M,85.02,KRTS 232315Z AUTO 23018G24KT 10SM CLR 32/M03 A3008 RMK AO2,M
MEV,2024-06-23 23:15,-119.7500,38.9963,1441.42,91.40,35.60,14.02,240.00,9.00,0.00,30.03,M,10.00,18.00,CLR,M,M,M,M,M,M,M,M,M,M,M,M,M,M,87.17,KMEV 232315Z AUTO 24009G18KT 10SM CLR 33/02 A3003 RMK AO2,M
BAM,2024-06-23 23:15,-116.8743,40.5990,1382.36,98.60,32.00,9.72,260.00,12.00,0.00,29.97,M,10.00,22.00,CLR,M,M,M,M,M,M,M,M,M,M,M,M,M,M,92.69,KBAM 232315Z AUTO 26012G22KT 10SM CLR 37/00 A2997 RMK AO1,M
HTH,2024-06-23 23:15,-118.6315,38.5448,1282.89,98.60,23.00,6.71,330.00,11.00,0.00,29.94,M,10.00,M,CLR,M,M,M,M,M,M,M,M,M,M,M,M,M,M,91.75,KHTH 232315Z AUTO 33011KT 10SM CLR 37/M05 A2994 RMK A01,M
10U,2024-06-23 23:15,-116.1876,41.9532,1637.00,91.40,30.20,11.28,220.00,14.00,0.00,30.03,M,10.00,20.00,CLR,M,M,M,M,M,M,M,M,M,M,M,M,M,M,86.71,K10U 232315Z AUTO 22014G20KT 10SM CLR 33/M01 A3003 RMK AO2,M
TMT,2024-06-23 23:15,-117.1971,39.4643,1749.34,92.70,28.40,10.07,240.00,11.00,0.00,30.08,M,10.00,21.00,CLR,M,M,M,M,M,M,M,M,M,M,M,M,M,M,87.51,KTMT 232315Z AUTO 24011G21KT 10SM CLR 34/M02 A3008 RMK AO2 T03371020,M
INS,2024-06-23 23:33,-115.6733,36.5872,955.00,M,M,M,250.00,12.00,0.00,M,M,10.00,20.00,M,M,M,M,M,M,M,M,M,M,M,M,M,M,M,M,KINS 232333Z AUTO 25012G20KT 10SM M M M RMK AO2 WSHFT 25 SLPNO RVRNO TSNO $,M
BVU,2024-06-23 23:35,-114.8611,35.9475,671.00,107.60,50.00,14.92,140.00,16.00,0.00,29.76,M,10.00,M,CLR,M,M,M,M,M,M,M,M,M,M,M,M,M,M,104.80,KBVU 232335Z AUTO 14016KT 10SM CLR 42/10 A2976 RMK AO2,M
CXP,2024-06-23 23:35,-119.7326,39.1923,1431.00,89.60,35.60,14.83,260.00,12.00,0.00,30.04,M,10.00,24.00,CLR,M,M,M,M,M,M,M,M,M,M,M,M,M,M,85.62,KCXP 232335Z AUTO 26012G24KT 220V280 10SM CLR 32/02 A3004 RMK AO2,M
RTS,2024-06-23 23:35,-119.8764,39.6682,1539.00,87.80,35.60,15.70,210.00,15.00,0.00,30.07,M,10.00,22.00,CLR,M,M,M,M,M,M,M,M,M,M,M,M,M,M,84.12,KRTS 232335Z AUTO 21015G22KT 10SM CLR 31/02 A3007 RMK AO2,M
MEV,2024-06-23 23:35,-119.7500,38.9963,1441.42,91.40,35.60,14.02,240.00,11.00,0.00,30.03,M,10.00,18.00,CLR,M,M,M,M,M,M,M,M,M,M,M,M,M,M,87.17,KMEV 232335Z AUTO 24011G18KT 10SM CLR 33/02 A3003 RMK AO2,M
BAM,2024-06-23 23:35,-116.8743,40.5990,1382.36,96.80,32.00,10.27,270.00,6.00,0.00,29.96,M,10.00,21.00,CLR,M,M,M,M,M,M,M,M,M,M,M,M,M,M,91.19,KBAM 232335Z AUTO 27006G21KT 10SM CLR 36/00 A2996 RMK AO1,M
HTH,2024-06-23 23:35,-118.6315,38.5448,1282.89,98.60,24.80,7.24,330.00,13.00,0.00,29.93,M,10.00,M,CLR,M,M,M,M,M,M,M,M,M,M,M,M,M,M,91.90,KHTH 232335Z AUTO 33013KT 10SM CLR 37/M04 A2993 RMK A01,M
10U,2024-06-23 23:35,-116.1876,41.9532,1637.00,89.60,30.20,11.94,230.00,13.00,0.00,30.02,M,10.00,23.00,CLR,M,M,M,M,M,M,M,M,M,M,M,M,M,M,85.34,K10U 232335Z AUTO 23013G23KT 10SM CLR 32/M01 A3002 RMK AO2,M
TMT,2024-06-23 23:35,-117.1971,39.4643,1749.34,92.50,29.70,10.68,240.00,16.00,0.00,30.08,M,10.00,M,CLR,M,M,M,M,M,M,M,M,M,M,M,M,M,M,87.50,KTMT 232335Z AUTO 24016KT 10SM CLR 34/M01 A3008 RMK AO2 T03361013,M
P68,2024-06-23 23:53,-116.0056,39.6014,1993.00,95.00,21.00,6.89,M,M,0.00,30.03,1007.30,M,M,M,M,M,M,M,M,M,M,M,M,M,M,M,M,M,88.61,KP68 232353Z AUTO 35/M06 A3003 RMK AO1 SLP073 T03501061 10361 20306 56015,M
DRA,2024-06-23 23:53,-116.0278,36.6206,1009.00,104.00,41.00,11.79,200.00,9.00,0.00,29.87,1005.50,10.00,25.00,CLR,M,M,M,M,M,M,M,M,M,M,M,29.00,210.00,2024-06-23 22:57,98.97,KDRA 232353Z AUTO 20009G25KT 10SM CLR 40/05 A2987 RMK AO2 PK WND 21029/2257 SLP055 T04000050 10406 20367 58021,M
ELY,2024-06-23 23:53,-114.8453,39.2950,1909.00,92.00,27.00,9.71,210.00,13.00,0.00,30.08,1007.40,10.00,25.00,CLR,M,M,M,M,M,M,M,M,M,M,M,34.00,220.00,2024-06-23 23:36,86.85,KELY 232353Z AUTO 21013G25KT 10SM CLR 33/M03 A3008 RMK AO2 PK WND 22034/2336 SLP074 T03331028 10339 20300 58018,M
VGT,2024-06-23 23:53,-115.1933,36.2111,667.00,110.00,45.00,11.53,220.00,12.00,0.00,29.75,1005.50,10.00,M,CLR,M,M,M,M,M,M,M,M,M,M,M,M,M,M,105.45,KVGT 232353Z 22012KT 10SM CLR 43/07 A2975 RMK AO2 SLP055 T04330072 10439 20394 58021,M
LOL,2024-06-23 23:53,-118.5701,40.0684,1192.43,97.00,32.00,10.21,260.00,14.00,0.00,29.91,1008.30,10.00,22.00,CLR,M,M,M,M,M,M,M,M,M,M,M,M,M,M,91.35,KLOL 232353Z AUTO 26014G22KT 10SM CLR 36/00 A2991 RMK AO2 SLP083 T03610000 10372 20317 56019,M
BVU,2024-06-23 23:55,-114.8611,35.9475,671.00,105.80,50.00,15.73,150.00,12.00,0.00,29.75,M,10.00,M,CLR,M,M,M,M,M,M,M,M,M,M,M,M,M,M,102.98,KBVU 232355Z AUTO 15012KT 10SM CLR 41/10 A2975 RMK AO2,M
CXP,2024-06-23 23:55,-119.7326,39.1923,1431.00,89.60,35.60,14.83,250.00,12.00,0.00,30.04,M,10.00,23.00,CLR,M,M,M,M,M,M,M,M,M,M,M,M,M,M,85.62,KCXP 232355Z AUTO 25012G23KT 210V290 10SM CLR 32/02 A3004 RMK AO2,M
RNO,2024-06-23 23:55,-119.7711,39.4839,1341.00,93.00,54.00,26.87,270.00,17.00,0.00,30.00,1009.50,10.00,29.00,CLR,M,M,M,M,M,M,M,M,M,M,M,29.00,260.00,2024-06-23 23:46,90.76,KRNO 232355Z 27017G29KT 10SM CLR 34/12 A3000 RMK AO2 PK WND 26029/2346 SLP095 T03390122 10361 20306 58012,M
RTS,2024-06-23 23:55,-119.8764,39.6682,1539.00,87.80,33.80,14.61,220.00,13.00,0.00,30.07,M,10.00,23.00,CLR,M,M,M,M,M,M,M,M,M,M,M,M,M,M,84.10,KRTS 232355Z AUTO 22013G23KT 10SM CLR 31/01 A3007 RMK AO2,M
MEV,2024-06-23 23:55,-119.7500,38.9963,1441.42,89.60,35.60,14.83,M,5.00,0.00,30.03,M,10.00,15.00,CLR,M,M,M,M,M,M,M,M,M,M,M,M,M,M,85.62,KMEV 232355Z AUTO VRB05G15KT 10SM CLR 32/02 A3003 RMK AO2,M
BAM,2024-06-23 23:55,-116.8743,40.5990,1382.36,96.80,32.00,10.27,280.00,12.00,0.00,29.96,M,10.00,17.00,CLR,M,M,M,M,M,M,M,M,M,M,M,M,M,M,91.19,KBAM 232355Z AUTO 28012G17KT 10SM CLR 36/00 A2996 RMK AO1,M
HTH,2024-06-23 23:55,-118.6315,38.5448,1282.89,98.60,24.80,7.24,320.00,9.00,0.00,29.93,M,10.00,M,CLR,M,M,M,M,M,M,M,M,M,M,M,M,M,M,91.90,KHTH 232355Z AUTO 32009KT 10SM CLR 37/M04 A2993 RMK A01,M
10U,2024-06-23 23:55,-116.1876,41.9532,1637.00,91.40,30.20,11.28,250.00,12.00,0.00,30.02,M,10.00,21.00,CLR,M,M,M,M,M,M,M,M,M,M,M,M,M,M,86.71,K10U 232355Z AUTO 25012G21KT 210V270 10SM CLR 33/M01 A3002 RMK AO2,M
INS,2024-06-23 23:55,-115.6733,36.5872,955.00,M,M,M,250.00,16.00,0.00,M,M,10.00,M,M,M,M,M,M,M,M,M,M,M,M,M,M,M,M,M,KINS 232355Z AUTO 25016KT 10SM M M M RMK AO2 SLPNO RVRNO TSNO $,M
LSV,2024-06-23 23:55,-115.0343,36.2362,570.00,109.80,38.30,8.95,230.00,16.00,0.00,29.69,1002.20,10.00,21.00,CLR,M,M,M,M,M,M,M,M,M,M,M,M,M,M,103.49,KLSV 232355Z AUTO 23016G21KT 10SM CLR 43/04 A2969 RMK AO2 SLP022 T04320035 10438 20390 57025 $,M
EKO,2024-06-23 23:56,-115.7860,40.8242,1367.00,95.00,30.00,10.01,270.00,13.00,0.00,29.98,1008.80,10.00,21.00,CLR,M,M,M,M,M,M,M,M,M,M,M,M,M,M,89.45,KEKO 232356Z AUTO 27013G21KT 10SM CLR 35/M01 A2998 RMK AO2 SLP088 T03501011 10361 20311 56016,M
WMC,2024-06-23 23:56,-117.8072,40.9019,1315.00,98.00,26.00,7.75,M,M,0.00,29.93,1007.90,10.00,M,CLR,M,M,M,M,M,M,M,M,M,M,M,M,M,M,91.51,KWMC 232356Z AUTO 10SM CLR 37/M03 A2993 RMK AO2 SLP079 T03671033 10372 20317 56019,M
NFL,2024-06-23 23:56,-118.7010,39.4166,1199.00,99.00,34.00,10.41,290.00,12.00,0.00,29.91,1010.30,10.00,M,CLR,M,M,M,M,M,M,M,M,M,M,M,M,M,M,93.31,KNFL 232356Z 29012KT 10SM CLR 37/01 A2991 RMK AO2 SLP103 T03720011 10378 20317 56021,M
HND,2024-06-23 23:56,-115.1344,35.9729,742.79,108.00,49.00,14.21,240.00,15.00,0.00,29.81,1007.10,10.00,20.00,CLR,M,M,M,M,M,M,M,M,M,M,M,M,M,M,104.87,KHND 232356Z 24015G20KT 10SM CLR 42/09 A2981 RMK AO2 SLP071 T04220094 10428 20383 56023,M
TPH,2024-06-23 23:56,-117.0904,38.0505,1654.00,95.00,19.00,6.32,0.00,0.00,0.00,30.03,1008.40,10.00,M,CLR,M,M,M,M,M,M,M,M,M,M,M,M,M,M,88.47,KTPH 232356Z AUTO 00000KT 10SM CLR 35/M07 A3003 RMK AO2 SLP084 T03501072 10367 20300 58016,M
LAS,2024-06-23 23:56,-115.1634,36.0719,663.00,110.00,46.00,11.97,220.00,6.00,0.00,29.77,1004.70,10.00,16.00,FEW,FEW,M,M,10000.00,25000.00,M,M,M,M,M,M,M,M,M,105.77,KLAS 232356Z 22006G16KT 10SM FEW100 FEW250 43/08 A2977 RMK AO2 SLP047 T04330078 10439 20400 56021 $,M
