station,valid,lon,lat,elevation,tmpf,dwpf,relh,drct,sknt,p01i,alti,mslp,vsby,gust,skyc1,skyc2,skyc3,skyc4,skyl1,skyl2,skyl3,skyl4,wxcodes,ice_accretion_1hr,ice_accretion_3hr,ice_accretion_6hr,peak_wind_gust,peak_wind_drct,peak_wind_time,feel,metar,snowdepth
05U,2024-07-05 00:10,-116.0051,39.6042,1811.23,89.60,15.80,6.52,170.00,7.00,0.00,30.31,M,10.00,13.00,M,M,M,M,M,M,M,M,M,M,M,M,M,M,M,84.37,K05U 050010Z AUTO 17007G13KT 10SM 32/M09 A3031 RMK A01,M
BVU,2024-07-05 00:15,-114.8611,35.9475,671.00,109.40,15.80,3.58,50.00,6.00,0.00,29.85,M,10.00,M,CLR,M,M,M,M,M,M,M,M,M,M,M,M,M,M,100.15,KBVU 050015Z AUTO 05006KT 10SM CLR 43/M09 A2985 RMK AO2,M
CXP,2024-07-05 00:15,-119.7326,39.1923,1431.00,95.00,28.40,9.38,250.00,5.00,0.00,30.20,M,10.00,11.00,CLR,M,M,M,M,M,M,M,M,M,M,M,M,M,M,89.27,KCXP 050015Z AUTO 25005G11KT 10SM CLR 35/M02 A3020 RMK AO2,M
RTS,2024-07-05 00:15,-119.8764,39.6682,1539.00,93.20,21.20,7.34,30.00,4.00,0.00,30.23,M,10.00,14.00,CLR,M,M,M,M,M,M,M,M,M,M,M,M,M,M,87.29,KRTS 050015Z AUTO 03004G14KT 10SM CLR 34/M06 A3023 RMK AO2,M
MEV,2024-07-05 00:15,-119.7500,38.9963,1441.42,95.00,30.20,10.09,320.00,12.00,0.00,30.19,M,10.00,17.00,CLR,M,M,M,M,M,M,M,M,M,M,M,M,M,M,89.48,KMEV 050015Z AUTO 32012G17KT 10SM CLR 35/M01 A3019 RMK AO2,M
BAM,2024-07-05 00:15,-116.8743,40.5990,1382.36,91.40,23.00,8.38,30.00,5.00,0.00,30.22,M,10.00,M,CLR,M,M,M,M,M,M,M,M,M,M,M,M,M,M,86.08,KBAM 050015Z AUTO 03005KT 10SM CLR 33/M05 A3022 RMK AO1,M
HTH,2024-07-05 00:15,-118.6315,38.5448,1282.89,98.60,15.80,4.93,320.00,13.00,0.00,30.13,M,10.00,M,CLR,M,M,M,M,M,M,M,M,M,M,M,M,M,M,91.27,KHTH 050015Z AUTO 32013KT 10SM CLR 37/M09 A3013 RMK A01,M
TMT,2024-07-05 00:15,-117.1971,39.4643,1749.34,89.80,21.20,8.17,60.00,7.00,0.00,30.28,M,10.00,15.00,CLR,M,M,M,M,M,M,M,M,M,M,M,M,M,M,84.79,KTMT 050015Z AUTO 06007G15KT 10SM CLR 32/M06 A3028 RMK AO2 T03211060,M
05U,2024-07-05 00:25,-116.0051,39.6042,1811.23,89.60,15.80,6.52,190.00,10.00,0.00,30.31,M,10.00,17.00,M,M,M,M,M,M,M,M,M,M,M,M,M,M,M,84.37,K05U 050025Z AUTO 19010G17KT 10SM 32/M09 A3031 RMK A01,M
BVU,2024-07-05 00:35,-114.8611,35.9475,671.00,109.40,15.80,3.58,50.00,6.00,0.00,29.84,M,10.00,M,CLR,M,M,M,M,M,M,M,M,M,M,M,M,M,M,100.15,KBVU 050035Z AUTO 05006KT 10SM CLR 43/M09 A2984 RMK AO2,M
CXP,2024-07-05 00:35,-119.7326,39.1923,1431.00,95.00,28.40,9.38,270.00,9.00,0.00,30.20,M,10.00,15.00,CLR,M,M,M,M,M,M,M,M,M,M,M,M,M,M,89.27,KCXP 050035Z AUTO 27009G15KT 10SM CLR 35/M02 A3020 RMK AO2,M
RTS,2024-07-05 00:35,-119.8764,39.6682,1539.00,93.20,21.20,7.34,20.00,8.00,0.00,30.22,M,10.00,M,CLR,M,M,M,M,M,M,M,M,M,M,M,M,M,M,87.29,KRTS 050035Z AUTO 02008KT 10SM CLR 34/M06 A3022 RMK AO2,M
MEV,2024-07-05 00:35,-119.7500,38.9963,1441.42,95.00,32.00,10.85,310.00,10.00,0.00,30.19,M,10.00,M,CLR,M,M,M,M,M,M,M,M,M,M,M,M,M,M,89.71,KMEV 050035Z AUTO 31010KT 10SM CLR 35/M00 A3019 RMK AO2,M
BAM,2024-07-05 00:35,-116.8743,40.5990,1382.36,91.40,24.80,9.04,350.00,5.00,0.00,30.21,M,10.00,M,CLR,M,M,M,M,M,M,M,M,M,M,M,M,M,M,86.21,KBAM 050035Z AUTO 35005KT 10SM CLR 33/M04 A3021 RMK AO1,M
HTH,2024-07-05 00:35,-118.6315,38.5448,1282.89,98.60,17.60,5.33,320.00,11.00,0.00,30.13,M,10.00,M,CLR,M,M,M,M,M,M,M,M,M,M,M,M,M,M,91.37,KHTH 050035Z AUTO 32011KT 10SM CLR 37/M08 A3013 RMK A01,M
TMT,2024-07-05 00:35,-117.1971,39.4643,1749.34,89.00,20.50,8.13,330.00,4.00,0.00,30.28,M,10.00,M,CLR,M,M,M,M,M,M,M,M,M,M,M,M,M,M,84.16,KTMT 050035Z AUTO 33004KT 10SM CLR 32/M06 A3028 RMK AO2 T03171064,M
05U,2024-07-05 00:45,-116.0051,39.6042,1811.23,89.60,15.80,6.52,190.00,11.00,0.00,30.30,M,10.00,18.00,M,M,M,M,M,M,M,M,M,M,M,M,M,M,M,84.37,K05U 050045Z AUTO 19011G18KT 10SM 32/M09 A3030 RMK A01,M
P68,2024-07-05 00:53,-116.0056,39.6014,1993.00,88.00,14.00,6.34,10.00,14.00,0.00,30.27,1017.60,M,20.00,M,M,M,M,M,M,M,M,M,M,M,M,M,M,M,83.14,KP68 050053Z AUTO 01014G20KT 31/M10 A3027 RMK AO1 SLP176 T03111100,M
DRA,2024-07-05 00:53,-116.0278,36.6206,1009.00,108.00,25.00,5.51,60.00,7.00,0.00,29.95,1007.90,10.00,M,CLR,M,M,M,M,M,M,M,M,M,M,M,M,M,M,99.79,KDRA 050053Z AUTO 06007KT 10SM CLR 42/M04 A2995 RMK AO2 SLP079 T04221039,M
ELY,2024-07-05 00:53,-114.8453,39.2950,1909.00,87.00,12.00,5.99,310.00,13.00,0.00,30.29,1016.80,10.00,25.00,CLR,M,M,M,M,M,M,M,M,M,M,M,M,M,M,82.35,KELY 050053Z AUTO 31013G25KT 10SM CLR 31/M11 A3029 RMK AO2 SLP168 T03061111,M
VGT,2024-07-05 00:53,-115.1933,36.2111,667.00,111.00,25.00,5.05,M,6.00,0.00,29.84,1008.70,10.00,M,CLR,M,M,M,M,M,M,M,M,M,M,M,M,M,M,102.41,KVGT 050053Z VRB06KT 10SM CLR 44/M04 A2984 RMK AO2 SLP087 T04391039,M
LOL,2024-07-05 00:53,-118.5701,40.0684,1192.43,95.00,24.00,7.81,120.00,7.00,0.00,30.13,1016.50,10.00,M,CLR,M,M,M,M,M,M,M,M,M,M,M,M,M,M,88.84,KLOL 050053Z AUTO 12007KT 10SM CLR 35/M04 A3013 RMK AO2 SLP165 T03501044 $,M
LSV,2024-07-05 00:55,-115.0343,36.2362,570.00,111.00,-11.00,0.98,170.00,4.00,0.00,29.79,1005.30,10.00,M,CLR,M,M,M,M,M,M,M,M,M,M,M,M,M,M,100.43,KLSV 050055Z AUTO 17004KT 10SM CLR 44/M24 A2979 RMK AO2 SLP053 T04391238 $,M
BVU,2024-07-05 00:55,-114.8611,35.9475,671.00,109.40,15.80,3.58,100.00,5.00,0.00,29.84,M,10.00,M,CLR,M,M,M,M,M,M,M,M,M,M,M,M,M,M,100.15,KBVU 050055Z AUTO 10005KT 10SM CLR 43/M09 A2984 RMK AO2,M
CXP,2024-07-05 00:55,-119.7326,39.1923,1431.00,95.00,28.40,9.38,280.00,8.00,0.00,30.20,M,10.00,M,CLR,M,M,M,M,M,M,M,M,M,M,M,M,M,M,89.27,KCXP 050055Z AUTO 28008KT 10SM CLR 35/M02 A3020 RMK AO2,M
INS,2024-07-05 00:55,-115.6733,36.5872,955.00,107.00,1.00,1.97,60.00,4.00,0.00,29.93,1007.40,10.00,M,CLR,M,M,M,M,M,M,M,M,M,M,M,M,M,M,97.46,KINS 050055Z AUTO 06004KT 10SM CLR 42/M17 A2993 RMK AO2 SLP074 T04161172 $,M
RNO,2024-07-05 00:55,-119.7711,39.4839,1341.00,98.00,27.00,8.07,120.00,5.00,0.00,30.15,1014.40,10.00,M,CLR,M,M,M,M,M,M,M,M,M,M,M,M,M,M,91.60,KRNO 050055Z 12005KT 10SM CLR 37/M03 A3015 RMK AO2 SLP144 T03671028,M
RTS,2024-07-05 00:55,-119.8764,39.6682,1539.00,93.20,23.00,7.92,260.00,6.00,0.00,30.22,M,10.00,12.00,CLR,M,M,M,M,M,M,M,M,M,M,M,M,M,M,87.42,KRTS 050055Z AUTO 26006G12KT 10SM CLR 34/M05 A3022 RMK AO2,M
MEV,2024-07-05 00:55,-119.7500,38.9963,1441.42,93.20,28.40,9.91,310.00,11.00,0.00,30.19,M,10.00,M,CLR,M,M,M,M,M,M,M,M,M,M,M,M,M,M,87.89,KMEV 050055Z AUTO 31011KT 10SM CLR 34/M02 A3019 RMK AO2,M
BAM,2024-07-05 00:55,-116.8743,40.5990,1382.36,91.40,24.80,9.04,350.00,4.00,0.00,30.21,M,10.00,M,CLR,M,M,M,M,M,M,M,M,M,M,M,M,M,M,86.21,KBAM 050055Z AUTO 35004KT 10SM CLR 33/M04 A3021 RMK AO1,M
HTH,2024-07-05 00:55,-118.6315,38.5448,1282.89,96.80,19.40,6.09,320.00,15.00,0.00,30.12,M,10.00,M,CLR,M,M,M,M,M,M,M,M,M,M,M,M,M,M,89.99,KHTH 050055Z AUTO 32015KT 10SM CLR 36/M07 A3012 RMK A01,M
TMT,2024-07-05 00:55,-117.1971,39.4643,1749.34,89.00,21.00,8.30,330.00,7.00,0.00,30.28,M,10.00,M,CLR,M,M,M,M,M,M,M,M,M,M,M,M,M,M,84.19,KTMT 050055Z AUTO 33007KT 10SM CLR 32/M06 A3028 RMK AO2 T03161062,M
EKO,2024-07-05 00:56,-115.7860,40.8242,1367.00,90.00,20.00,7.71,320.00,8.00,0.00,30.23,1018.60,10.00,M,CLR,M,M,M,M,M,M,M,M,M,M,M,M,M,M,84.86,KEKO 050056Z AUTO 32008KT 10SM CLR 32/M07 A3023 RMK AO2 SLP186 T03221067,M
WMC,2024-07-05 00:56,-117.8072,40.9019,1315.00,96.00,18.00,5.88,290.00,8.00,0.00,30.18,1017.80,10.00,M,CLR,M,M,M,M,M,M,M,M,M,M,M,M,M,M,89.24,KWMC 050056Z AUTO 29008KT 10SM CLR 36/M08 A3018 RMK AO2 SLP178 T03561078,M
NFL,2024-07-05 00:56,-118.7010,39.4166,1199.00,99.00,19.00,5.60,360.00,9.00,0.00,30.12,1016.50,10.00,M,CLR,M,M,M,M,M,M,M,M,M,M,M,M,M,M,91.79,KNFL 050056Z AUTO 36009KT 10SM CLR 37/M07 A3012 RMK AO2 SLP165 T03721072,M
HND,2024-07-05 00:56,-115.1344,35.9729,742.79,109.00,28.00,6.06,30.00,7.00,0.00,29.90,1010.30,10.00,M,CLR,M,M,M,M,M,M,M,M,M,M,M,M,M,M,101.00,KHND 050056Z 03007KT 360V070 10SM CLR 43/M02 A2990 RMK AO2 SLP103 T04281022,M
TPH,2024-07-05 00:56,-117.0904,38.0505,1654.00,95.00,9.00,4.08,300.00,7.00,0.00,30.20,1013.60,10.00,M,CLR,M,M,M,M,M,M,M,M,M,M,M,M,M,M,87.99,KTPH 050056Z AUTO 30007KT 10SM CLR 35/M13 A3020 RMK AO2 SLP136 T03501128,M
LAS,2024-07-05 00:56,-115.1634,36.0719,663.00,112.00,24.00,4.71,100.00,5.00,0.00,29.86,1007.70,10.00,M,FEW,M,M,M,12000.00,M,M,M,M,M,M,M,M,M,M,103.49,KLAS 050056Z 10005KT 10SM FEW120 44/M04 A2986 RMK AO2 SLP077 T04441044,M
05U,2024-07-05 01:10,-116.0051,39.6042,1811.23,87.80,15.80,6.90,190.00,11.00,0.00,30.30,M,10.00,17.00,M,M,M,M,M,M,M,M,M,M,M,M,M,M,M,83.07,K05U 050110Z AUTO 19011G17KT 10SM 31/M09 A3030 RMK A01,M
BVU,2024-07-05 01:15,-114.8611,35.9475,671.00,109.40,15.80,3.58,20.00,4.00,0.00,29.84,M,10.00,12.00,CLR,M,M,M,M,M,M,M,M,M,M,M,M,M,M,100.15,KBVU 050115Z AUTO 02004G12KT 10SM CLR 43/M09 A2984 RMK AO2,M
CXP,2024-07-05 01:15,-119.7326,39.1923,1431.00,95.00,28.40,9.38,270.00,8.00,0.00,30.19,M,10.00,M,CLR,M,M,M,M,M,M,M,M,M,M,M,M,M,M,89.27,KCXP 050115Z AUTO 27008KT 10SM CLR 35/M02 A3019 RMK AO2,M
RTS,2024-07-05 01:15,-119.8764,39.6682,1539.00,93.20,23.00,7.92,M,6.00,0.00,30.22,M,10.00,15.00,CLR,M,M,M,M,M,M,M,M,M,M,M,M,M,M,87.42,KRTS 050115Z AUTO VRB06G15KT 10SM CLR 34/M05 A3022 RMK AO2,M
MEV,2024-07-05 01:15,-119.7500,38.9963,1441.42,93.20,32.00,11.48,300.00,8.00,0.00,30.19,M,10.00,M,CLR,M,M,M,M,M,M,M,M,M,M,M,M,M,M,88.31,KMEV 050115Z AUTO 30008KT 10SM CLR 34/M00 A3019 RMK AO2,M
BAM,2024-07-05 01:15,-116.8743,40.5990,1382.36,91.40,23.00,8.38,320.00,3.00,0.00,30.21,M,10.00,M,CLR,M,M,M,M,M,M,M,M,M,M,M,M,M,M,86.08,KBAM 050115Z AUTO 32003KT 10SM CLR 33/M05 A3021 RMK AO1,M
HTH,2024-07-05 01:15,-118.6315,38.5448,1282.89,96.80,23.00,7.09,320.00,12.00,0.00,30.13,M,10.00,18.00,CLR,M,M,M,M,M,M,M,M,M,M,M,M,M,M,90.25,KHTH 050115Z AUTO 32012G18KT 10SM CLR 36/M05 A3013 RMK A01,M
TMT,2024-07-05 01:15,-117.1971,39.4643,1749.34,88.70,20.00,8.03,330.00,3.00,0.00,30.28,M,10.00,M,CLR,M,M,M,M,M,M,M,M,M,M,M,M,M,M,83.91,KTMT 050115Z AUTO 33003KT 10SM CLR 32/M07 A3028 RMK AO2 T03151066,M
05U,2024-07-05 01:30,-116.0051,39.6042,1811.23,87.80,14.00,6.38,190.00,14.00,0.00,30.31,M,10.00,M,M,M,M,M,M,M,M,M,M,M,M,M,M,M,M,83.00,K05U 050130Z AUTO 19014KT 10SM 31/M10 A3031 RMK A01,M
BVU,2024-07-05 01:35,-114.8611,35.9475,671.00,109.40,15.80,3.58,M,4.00,0.00,29.84,M,10.00,M,CLR,M,M,M,M,M,M,M,M,M,M,M,M,M,M,100.15,KBVU 050135Z AUTO VRB04KT 10SM CLR 43/M09 A2984 RMK AO2,M
CXP,2024-07-05 01:35,-119.7326,39.1923,1431.00,93.20,32.00,11.48,250.00,10.00,0.00,30.19,M,10.00,M,CLR,M,M,M,M,M,M,M,M,M,M,M,M,M,M,88.31,KCXP 050135Z AUTO 25010KT 10SM CLR 34/M00 A3019 RMK AO2,M
RTS,2024-07-05 01:35,-119.8764,39.6682,1539.00,91.40,19.40,7.19,M,3.00,0.00,30.23,M,10.00,M,CLR,M,M,M,M,M,M,M,M,M,M,M,M,M,M,85.86,KRTS 050135Z AUTO VRB03KT 10SM CLR 33/M07 A3023 RMK AO2,M
MEV,2024-07-05 01:35,-119.7500,38.9963,1441.42,91.40,35.60,14.02,290.00,9.00,0.00,30.18,M,10.00,M,CLR,M,M,M,M,M,M,M,M,M,M,M,M,M,M,87.17,KMEV 050135Z AUTO 29009KT 10SM CLR 33/02 A3018 RMK AO2,M
BAM,2024-07-05 01:35,-116.8743,40.5990,1382.36,91.40,26.60,9.74,340.00,7.00,0.00,30.21,M,10.00,M,CLR,M,M,M,M,M,M,M,M,M,M,M,M,M,M,86.36,KBAM 050135Z AUTO 34007KT 10SM CLR 33/M03 A3021 RMK AO1,M
HTH,2024-07-05 01:35,-118.6315,38.5448,1282.89,96.80,15.80,5.21,340.00,15.00,0.00,30.13,M,10.00,M,CLR,M,M,M,M,M,M,M,M,M,M,M,M,M,M,89.78,KHTH 050135Z AUTO 34015KT 10SM CLR 36/M09 A3013 RMK A01,M
TMT,2024-07-05 01:35,-117.1971,39.4643,1749.34,88.00,20.00,8.21,340.00,7.00,0.00,30.28,M,10.00,M,CLR,M,M,M,M,M,M,M,M,M,M,M,M,M,M,83.41,KTMT 050135Z AUTO 34007KT 10SM CLR 31/M07 A3028 RMK AO2 T03121066,M
05U,2024-07-05 01:50,-116.0051,39.6042,1811.23,86.00,15.80,7.31,190.00,13.00,0.00,30.31,M,10.00,M,M,M,M,M,M,M,M,M,M,M,M,M,M,M,M,81.78,K05U 050150Z AUTO 19013KT 10SM 30/M09 A3031 RMK A01,M
DRA,2024-07-05 01:53,-116.0278,36.6206,1009.00,106.00,25.00,5.85,170.00,9.00,0.00,29.95,1007.70,10.00,M,CLR,M,M,M,M,M,M,M,M,M,M,M,M,M,M,98.11,KDRA 050153Z AUTO 17009KT 10SM CLR 41/M04 A2995 RMK AO2 SLP077 T04111039,M
ELY,2024-07-05 01:53,-114.8453,39.2950,1909.00,86.00,13.00,6.46,360.00,11.00,0.00,30.30,1016.20,10.00,M,CLR,M,M,M,M,M,M,M,M,M,M,M,M,M,M,81.67,KELY 050153Z AUTO 36011KT 10SM CLR 30/M11 A3030 RMK AO2 SLP162 T03001106,M
VGT,2024-07-05 01:53,-115.1933,36.2111,667.00,110.00,24.00,4.99,M,M,0.00,29.84,1008.80,10.00,M,CLR,M,M,M,M,M,M,M,M,M,M,M,M,M,M,101.40,KVGT 050153Z 10SM CLR 43/M04 A2984 RMK AO2 SLP088 T04331044,M
LOL,2024-07-05 01:53,-118.5701,40.0684,1192.43,95.00,22.00,7.18,80.00,6.00,0.00,30.12,1015.70,10.00,M,CLR,M,M,M,M,M,M,M,M,M,M,M,M,M,M,88.68,KLOL 050153Z AUTO 08006KT 10SM CLR 35/M06 A3012 RMK AO2 SLP157 T03501056 $,M
LSV,2024-07-05 01:55,-115.0343,36.2362,570.00,110.70,-11.00,0.99,110.00,4.00,0.00,29.78,1005.00,10.00,M,CLR,M,M,M,M,M,M,M,M,M,M,M,M,M,M,100.16,KLSV 050155Z AUTO 11004KT 10SM CLR 44/M24 A2978 RMK AO2 SLP050 T04371239 $,M
BVU,2024-07-05 01:55,-114.8611,35.9475,671.00,109.40,17.60,3.87,30.00,6.00,0.00,29.84,M,10.00,M,CLR,M,M,M,M,M,M,M,M,M,M,M,M,M,M,100.28,KBVU 050155Z AUTO 03006KT 10SM CLR 43/M08 A2984 RMK AO2,M
CXP,2024-07-05 01:55,-119.7326,39.1923,1431.00,93.20,32.00,11.48,260.00,8.00,0.00,30.20,M,10.00,M,CLR,M,M,M,M,M,M,M,M,M,M,M,M,M,M,88.31,KCXP 050155Z AUTO 26008KT 10SM CLR 34/00 A3020 RMK AO2,M
INS,2024-07-05 01:55,-115.6733,36.5872,955.00,105.60,9.00,2.96,70.00,5.00,0.00,29.93,1007.10,10.00,M,CLR,M,M,M,M,M,M,M,M,M,M,M,M,M,M,96.65,KINS 050155Z AUTO 07005KT 10SM CLR 41/M13 A2993 RMK AO2 SLP071 T04091127 $,M
RNO,2024-07-05 01:55,-119.7711,39.4839,1341.00,97.00,29.00,9.04,300.00,8.00,0.00,30.15,1014.50,10.00,M,CLR,M,M,M,M,M,M,M,M,M,M,M,M,M,M,90.98,KRNO 050155Z 30008KT 10SM CLR 36/M02 A3015 RMK AO2 SLP145 T03611017,M
RTS,2024-07-05 01:55,-119.8764,39.6682,1539.00,91.40,12.20,5.26,M,4.00,0.00,30.23,M,10.00,16.00,CLR,M,M,M,M,M,M,M,M,M,M,M,M,M,M,85.53,KRTS 050155Z AUTO VRB04G16KT 10SM CLR 33/M11 A3023 RMK AO2,M
MEV,2024-07-05 01:55,-119.7500,38.9963,1441.42,91.40,35.60,14.02,290.00,9.00,0.00,30.19,M,10.00,M,CLR,M,M,M,M,M,M,M,M,M,M,M,M,M,M,87.17,KMEV 050155Z AUTO 29009KT 10SM CLR 33/02 A3019 RMK AO2,M
BAM,2024-07-05 01:55,-116.8743,40.5990,1382.36,91.40,28.40,10.48,330.00,8.00,0.00,30.21,M,10.00,M,CLR,M,M,M,M,M,M,M,M,M,M,M,M,M,M,86.53,KBAM 050155Z AUTO 33008KT 10SM CLR 33/M02 A3021 RMK AO1,M
HTH,2024-07-05 01:55,-118.6315,38.5448,1282.89,95.00,24.80,8.08,320.00,13.00,0.00,30.13,M,10.00,M,CLR,M,M,M,M,M,M,M,M,M,M,M,M,M,M,88.91,KHTH 050155Z AUTO 32013KT 10SM CLR 35/M04 A3013 RMK A01,M
TMT,2024-07-05 01:55,-117.1971,39.4643,1749.34,87.30,19.60,8.26,340.00,7.00,0.00,30.28,M,10.00,M,CLR,M,M,M,M,M,M,M,M,M,M,M,M,M,M,82.88,KTMT 050155Z AUTO 34007KT 10SM CLR 31/M07 A3028 RMK AO2 T03071069,M
EKO,2024-07-05 01:56,-115.7860,40.8242,1367.00,89.00,21.00,8.30,320.00,6.00,0.00,30.23,1018.20,10.00,M,CLR,M,M,M,M,M,M,M,M,M,M,M,M,M,M,84.19,KEKO 050156Z AUTO 32006KT 10SM CLR 32/M06 A3023 RMK AO2 SLP182 T03171061,M
WMC,2024-07-05 01:56,-117.8072,40.9019,1315.00,94.00,19.00,6.52,10.00,8.00,0.00,30.18,1016.30,10.00,M,CLR,M,M,M,M,M,M,M,M,M,M,M,M,M,M,87.74,KWMC 050156Z AUTO 01008KT 10SM CLR 34/M07 A3018 RMK AO2 SLP163 T03441072,M
HND,2024-07-05 01:56,-115.1344,35.9729,742.79,108.00,27.00,5.99,150.00,3.00,0.00,29.90,1010.20,10.00,M,CLR,M,M,M,M,M,M,M,M,M,M,M,M,M,M,100.02,KHND 050156Z 15003KT 10SM CLR 42/M03 A2990 RMK AO2 SLP102 T04221028,M
TPH,2024-07-05 01:56,-117.0904,38.0505,1654.00,94.00,9.00,4.21,340.00,11.00,0.00,30.20,1013.20,10.00,15.00,CLR,M,M,M,M,M,M,M,M,M,M,M,M,M,M,87.28,KTPH 050156Z AUTO 34011G15KT 10SM CLR 34/M13 A3020 RMK AO2 SLP132 T03441128,M
LAS,2024-07-05 01:56,-115.1634,36.0719,663.00,111.00,24.00,4.85,100.00,6.00,0.00,29.86,1007.60,10.00,M,FEW,M,M,M,12000.00,M,M,M,M,M,M,M,M,M,M,102.30,KLAS 050156Z 10006KT 10SM FEW120 44/M04 A2986 RMK AO2 SLP076 T04391044,M
NFL,2024-07-05 01:56,-118.7010,39.4166,1199.00,97.00,17.00,5.46,60.00,8.00,0.00,30.12,1016.50,10.00,M,CLR,M,M,M,M,M,M,M,M,M,M,M,M,M,M,90.01,KNFL 050156Z AUTO 06008KT 10SM CLR 36/M08 A3012 RMK AO2 SLP165 T03611083,M
05U,2024-07-05 02:05,-116.0051,39.6042,1811.23,84.20,15.80,7.74,180.00,10.00,0.00,30.31,M,10.00,15.00,M,M,M,M,M,M,M,M,M,M,M,M,M,M,M,80.51,K05U 050205Z AUTO 18010G15KT 10SM 29/M09 A3031 RMK A01,M
BVU,2024-07-05 02:15,-114.8611,35.9475,671.00,107.60,17.60,4.08,60.00,7.00,0.00,29.84,M,10.00,M,CLR,M,M,M,M,M,M,M,M,M,M,M,M,M,M,98.78,KBVU 050215Z AUTO 06007KT 10SM CLR 42/M08 A2984 RMK AO2,M
CXP,2024-07-05 02:15,-119.7326,39.1923,1431.00,91.40,32.00,12.14,270.00,8.00,0.00,30.20,M,10.00,M,CLR,M,M,M,M,M,M,M,M,M,M,M,M,M,M,86.91,KCXP 050215Z AUTO 27008KT 10SM CLR 33/00 A3020 RMK AO2,M
RTS,2024-07-05 02:15,-119.8764,39.6682,1539.00,89.60,8.60,4.74,40.00,7.00,0.00,30.23,M,10.00,M,CLR,M,M,M,M,M,M,M,M,M,M,M,M,M,M,84.12,KRTS 050215Z AUTO 04007KT 010V070 10SM CLR 32/M13 A3023 RMK AO2,M
MEV,2024-07-05 02:15,-119.7500,38.9963,1441.42,89.60,35.60,14.83,280.00,9.00,0.00,30.19,M,10.00,M,CLR,M,M,M,M,M,M,M,M,M,M,M,M,M,M,85.62,KMEV 050215Z AUTO 28009KT 10SM CLR 32/02 A3019 RMK AO2,M
BAM,2024-07-05 02:15,-116.8743,40.5990,1382.36,89.60,30.20,11.94,340.00,6.00,0.00,30.21,M,10.00,M,CLR,M,M,M,M,M,M,M,M,M,M,M,M,M,M,85.34,KBAM 050215Z AUTO 34006KT 10SM CLR 32/M01 A3021 RMK AO1,M
HTH,2024-07-05 02:15,-118.6315,38.5448,1282.89,93.20,26.60,9.21,310.00,14.00,0.00,30.14,M,10.00,M,CLR,M,M,M,M,M,M,M,M,M,M,M,M,M,M,87.72,KHTH 050215Z AUTO 31014KT 10SM CLR 34/M03 A3014 RMK A01,M
TMT,2024-07-05 02:15,-117.1971,39.4643,1749.34,86.40,20.00,8.64,20.00,7.00,0.00,30.28,M,10.00,M,CLR,M,M,M,M,M,M,M,M,M,M,M,M,M,M,82.26,KTMT 050215Z AUTO 02007KT 10SM CLR 30/M07 A3028 RMK AO2 T03021066,M
05U,2024-07-05 02:30,-116.0051,39.6042,1811.23,82.40,19.40,9.58,190.00,8.00,0.00,30.32,M,10.00,13.00,M,M,M,M,M,M,M,M,M,M,M,M,M,M,M,79.45,K05U 050230Z AUTO 19008G13KT 10SM 28/M07 A3032 RMK A01,M
BVU,2024-07-05 02:35,-114.8611,35.9475,671.00,105.80,21.20,5.01,50.00,6.00,0.00,29.84,M,10.00,M,CLR,M,M,M,M,M,M,M,M,M,M,M,M,M,M,97.58,KBVU 050235Z AUTO 05006KT 10SM CLR 41/M06 A2984 RMK AO2,M
CXP,2024-07-05 02:35,-119.7326,39.1923,1431.00,91.40,32.00,12.14,250.00,5.00,0.00,30.20,M,10.00,M,CLR,M,M,M,M,M,M,M,M,M,M,M,M,M,M,86.91,KCXP 050235Z AUTO 25005KT 10SM CLR 33/00 A3020 RMK AO2,M
RTS,2024-07-05 02:35,-119.8764,39.6682,1539.00,89.60,10.40,5.14,50.00,8.00,0.00,30.24,M,10.00,M,CLR,M,M,M,M,M,M,M,M,M,M,M,M,M,M,84.17,KRTS 050235Z AUTO 05008KT 10SM CLR 32/M12 A3024 RMK AO2,M
MEV,2024-07-05 02:35,-119.7500,38.9963,1441.42,89.60,35.60,14.83,280.00,9.00,0.00,30.19,M,10.00,M,CLR,M,M,M,M,M,M,M,M,M,M,M,M,M,M,85.62,KMEV 050235Z AUTO 28009KT 10SM CLR 32/02 A3019 RMK AO2,M
BAM,2024-07-05 02:35,-116.8743,40.5990,1382.36,87.80,32.00,13.59,340.00,7.00,0.00,30.21,M,10.00,M,CLR,M,M,M,M,M,M,M,M,M,M,M,M,M,M,84.08,KBAM 050235Z AUTO 34007KT 10SM CLR 31/00 A3021 RMK AO1,M
HTH,2024-07-05 02:35,-118.6315,38.5448,1282.89,93.20,26.60,9.21,320.00,11.00,0.00,30.14,M,10.00,M,CLR,M,M,M,M,M,M,M,M,M,M,M,M,M,M,87.72,KHTH 050235Z AUTO 32011KT 10SM CLR 34/M03 A3014 RMK A01,M
TMT,2024-07-05 02:35,-117.1971,39.4643,1749.34,84.40,23.00,10.46,10.00,4.00,0.00,30.29,M,10.00,M,CLR,M,M,M,M,M,M,M,M,M,M,M,M,M,M,81.02,KTMT 050235Z AUTO 01004KT 10SM CLR 29/M05 A3029 RMK AO2 T02911049,M
05U,2024-07-05 02:45,-116.0051,39.6042,1811.23,80.60,23.00,11.83,0.00,0.00,0.00,30.32,M,10.00,10.00,M,M,M,M,M,M,M,M,M,M,M,M,M,M,M,78.80,K05U 050245Z AUTO 00000G10KT 10SM 27/M05 A3032 RMK A01,M
P68,2024-07-05 02:53,-116.0056,39.6014,1993.00,78.00,24.00,13.44,20.00,7.00,0.00,30.29,1017.20,M,M,M,M,M,M,M,M,M,M,M,M,M,M,M,M,M,78.00,KP68 050253Z AUTO 02007KT 26/M04 A3029 RMK AO1 SLP172 T02561044 53003,M
DRA,2024-07-05 02:53,-116.0278,36.6206,1009.00,102.00,26.00,6.87,240.00,6.00,0.00,29.95,1007.90,10.00,M,CLR,M,M,M,M,M,M,M,M,M,M,M,M,M,M,94.86,KDRA 050253Z AUTO 24006KT 10SM CLR 39/M03 A2995 RMK AO2 SLP079 T03891033 55004,M
ELY,2024-07-05 02:53,-114.8453,39.2950,1909.00,78.00,18.00,10.42,10.00,8.00,0.00,30.31,1016.30,10.00,M,CLR,M,M,M,M,M,M,M,M,M,M,M,M,M,M,78.00,KELY 050253Z AUTO 01008KT 10SM CLR 26/M08 A3031 RMK AO2 SLP163 T02561078 53004,M
VGT,2024-07-05 02:53,-115.1933,36.2111,667.00,107.00,25.00,5.68,90.00,5.00,0.00,29.85,1008.80,10.00,M,CLR,M,M,M,M,M,M,M,M,M,M,M,M,M,M,98.95,KVGT 050253Z 09005KT 10SM CLR 42/M04 A2985 RMK AO2 SLP088 T04171039 55003,M
LOL,2024-07-05 02:53,-118.5701,40.0684,1192.43,91.00,27.00,10.02,0.00,0.00,0.00,30.12,1015.30,10.00,M,CLR,M,M,M,M,M,M,M,M,M,M,M,M,M,M,86.10,KLOL 050253Z AUTO 00000KT 10SM CLR 33/M03 A3012 RMK AO2 SLP153 T03281028 55005 $,M
LSV,2024-07-05 02:55,-115.0343,36.2362,570.00,108.00,-12.50,1.00,130.00,5.00,0.00,29.79,1005.20,10.00,M,CLR,M,M,M,M,M,M,M,M,M,M,M,M,M,M,97.92,KLSV 050255Z AUTO 13005KT 10SM CLR 42/M25 A2979 RMK AO2 SLP052 T04231247 55006 $,M
BVU,2024-07-05 02:55,-114.8611,35.9475,671.00,104.00,23.00,5.71,30.00,4.00,0.00,29.84,M,10.00,M,CLR,M,M,M,M,M,M,M,M,M,M,M,M,M,M,96.25,KBVU 050255Z AUTO 03004KT 10SM CLR 40/M05 A2984 RMK AO2,M
CXP,2024-07-05 02:55,-119.7326,39.1923,1431.00,89.60,32.00,12.84,0.00,0.00,0.00,30.21,M,10.00,M,FEW,M,M,M,1300.00,M,M,M,M,M,M,M,M,M,M,85.54,KCXP 050255Z AUTO 00000KT 10SM FEW013 32/00 A3021 RMK AO2,M
INS,2024-07-05 02:55,-115.6733,36.5872,955.00,103.50,7.70,2.97,0.00,0.00,0.00,29.93,1007.00,10.00,M,CLR,M,M,M,M,M,M,M,M,M,M,M,M,M,M,94.91,KINS 050255Z AUTO 00000KT 10SM CLR 40/M13 A2993 RMK AO2 SLP070 T03971135 55005 $,M
RNO,2024-07-05 02:55,-119.7711,39.4839,1341.00,95.00,18.00,6.06,330.00,7.00,0.00,30.17,1015.00,10.00,M,CLR,M,M,M,M,M,M,M,M,M,M,M,M,M,M,88.41,KRNO 050255Z 33007KT 10SM CLR 35/M08 A3017 RMK AO2 SLP150 T03501078 53002,M
RTS,2024-07-05 02:55,-119.8764,39.6682,1539.00,87.80,10.40,5.44,40.00,6.00,0.00,30.24,M,10.00,M,CLR,M,M,M,M,M,M,M,M,M,M,M,M,M,M,82.88,KRTS 050255Z AUTO 04006KT 10SM CLR 31/M12 A3024 RMK AO2,M
MEV,2024-07-05 02:55,-119.7500,38.9963,1441.42,86.00,35.60,16.63,280.00,10.00,0.00,30.19,M,10.00,M,CLR,M,M,M,M,M,M,M,M,M,M,M,M,M,M,82.69,KMEV 050255Z AUTO 28010KT 10SM CLR 30/02 A3019 RMK AO2,M
BAM,2024-07-05 02:55,-116.8743,40.5990,1382.36,86.00,32.00,14.40,340.00,5.00,0.00,30.21,M,10.00,M,CLR,M,M,M,M,M,M,M,M,M,M,M,M,M,M,82.64,KBAM 050255Z AUTO 34005KT 10SM CLR 30/00 A3021 RMK AO1,M
HTH,2024-07-05 02:55,-118.6315,38.5448,1282.89,91.40,21.20,7.77,310.00,9.00,0.00,30.15,M,10.00,15.00,CLR,M,M,M,M,M,M,M,M,M,M,M,M,M,M,85.96,KHTH 050255Z AUTO 31009G15KT 10SM CLR 33/M06 A3015 RMK A01,M
TMT,2024-07-05 02:55,-117.1971,39.4643,1749.34,81.30,24.80,12.47,360.00,6.00,0.00,30.29,M,10.00,M,CLR,M,M,M,M,M,M,M,M,M,M,M,M,M,M,79.07,KTMT 050255Z AUTO 36006KT 10SM CLR 27/M04 A3029 RMK AO2 T02741040,M
EKO,2024-07-05 02:56,-115.7860,40.8242,1367.00,85.00,25.00,11.16,30.00,4.00,0.00,30.23,1018.10,10.00,M,CLR,M,M,M,M,M,M,M,M,M,M,M,M,M,M,81.57,KEKO 050256Z AUTO 03004KT 10SM CLR 29/M04 A3023 RMK AO2 SLP181 T02941039 55001,M
WMC,2024-07-05 02:56,-117.8072,40.9019,1315.00,89.00,22.00,8.66,50.00,5.00,0.00,30.17,1016.20,10.00,M,CLR,M,M,M,M,M,M,M,M,M,M,M,M,M,M,84.25,KWMC 050256Z AUTO 05005KT 10SM CLR 32/M06 A3017 RMK AO2 SLP162 T03171056 56004,M
HND,2024-07-05 02:56,-115.1344,35.9729,742.79,105.00,29.00,7.10,0.00,0.00,0.00,29.90,1010.10,10.00,M,CLR,M,M,M,M,M,M,M,M,M,M,M,M,M,M,97.73,KHND 050256Z 00000KT 10SM CLR 41/M02 A2990 RMK AO2 SLP101 T04061017 55005,M
TPH,2024-07-05 02:56,-117.0904,38.0505,1654.00,90.00,9.00,4.77,320.00,8.00,0.00,30.21,1013.20,10.00,M,CLR,M,M,M,M,M,M,M,M,M,M,M,M,M,M,84.42,KTPH 050256Z AUTO 32008KT 10SM CLR 32/M13 A3021 RMK AO2 SLP132 T03221128 55001,M
LAS,2024-07-05 02:56,-115.1634,36.0719,663.00,108.00,26.00,5.75,120.00,3.00,0.00,29.86,1007.60,10.00,M,CLR,M,M,M,M,M,M,M,M,M,M,M,M,M,M,99.90,KLAS 050256Z 12003KT 10SM CLR 42/M03 A2986 RMK AO2 SLP076 T04221033 55004,M
NFL,2024-07-05 02:56,-118.7010,39.4166,1199.00,91.00,21.00,7.80,50.00,6.00,0.00,30.12,1016.50,10.00,M,CLR,M,M,M,M,M,M,M,M,M,M,M,M,M,M,85.66,KNFL 050256Z AUTO 05006KT 10SM CLR 33/M06 A3012 RMK AO2 SLP165 T03281061 55004,M
05U,2024-07-05 03:00,-116.0051,39.6042,1811.23,75.20,23.00,14.15,0.00,0.00,0.00,30.32,M,10.00,M,M,M,M,M,M,M,M,M,M,M,M,M,M,M,M,75.20,K05U 050300Z AUTO 00000KT 10SM 24/M05 A3032 RMK A01,M
BVU,2024-07-05 03:15,-114.8611,35.9475,671.00,100.40,28.40,7.95,30.00,5.00,0.00,29.84,M,10.00,M,CLR,M,M,M,M,M,M,M,M,M,M,M,M,M,M,93.77,KBVU 050315Z AUTO 03005KT 10SM CLR 38/M02 A2984 RMK AO2,M
CXP,2024-07-05 03:15,-119.7326,39.1923,1431.00,87.80,33.80,14.61,220.00,3.00,0.00,30.21,M,10.00,M,CLR,M,M,M,M,M,M,M,M,M,M,M,M,M,M,84.10,KCXP 050315Z AUTO 22003KT 10SM CLR 31/01 A3021 RMK AO2,M
RTS,2024-07-05 03:15,-119.8764,39.6682,1539.00,84.20,12.20,6.61,350.00,8.00,0.00,30.25,M,10.00,M,CLR,M,M,M,M,M,M,M,M,M,M,M,M,M,M,80.37,KRTS 050315Z AUTO 35008KT 10SM CLR 29/M11 A3025 RMK AO2,M
MEV,2024-07-05 03:15,-119.7500,38.9963,1441.42,84.20,37.40,18.91,270.00,8.00,0.00,30.20,M,10.00,M,CLR,M,M,M,M,M,M,M,M,M,M,M,M,M,M,81.38,KMEV 050315Z AUTO 27008KT 10SM CLR 29/03 A3020 RMK AO2,M
BAM,2024-07-05 03:15,-116.8743,40.5990,1382.36,84.20,32.00,15.25,330.00,3.00,0.00,30.21,M,10.00,M,CLR,M,M,M,M,M,M,M,M,M,M,M,M,M,M,81.28,KBAM 050315Z AUTO 33003KT 10SM CLR 29/00 A3021 RMK AO1,M
HTH,2024-07-05 03:15,-118.6315,38.5448,1282.89,89.60,17.60,7.05,310.00,9.00,0.00,30.15,M,10.00,14.00,CLR,M,M,M,M,M,M,M,M,M,M,M,M,M,M,84.45,KHTH 050315Z AUTO 31009G14KT 10SM CLR 32/M08 A3015 RMK A01,M
TMT,2024-07-05 03:15,-117.1971,39.4643,1749.34,76.60,24.60,14.44,20.00,5.00,0.00,30.29,M,10.00,M,CLR,M,M,M,M,M,M,M,M,M,M,M,M,M,M,76.60,KTMT 050315Z AUTO 02005KT 10SM CLR 25/M04 A3029 RMK AO2 T02481041,M
05U,2024-07-05 03:25,-116.0051,39.6042,1811.23,69.80,24.80,18.30,0.00,0.00,0.00,30.33,M,10.00,M,M,M,M,M,M,M,M,M,M,M,M,M,M,M,M,69.80,K05U 050325Z AUTO 00000KT 10SM 21/M04 A3033 RMK A01,M
BVU,2024-07-05 03:35,-114.8611,35.9475,671.00,96.80,35.60,11.86,30.00,5.00,0.00,29.85,M,10.00,M,CLR,M,M,M,M,M,M,M,M,M,M,M,M,M,M,91.72,KBVU 050335Z AUTO 03005KT 10SM CLR 36/02 A2985 RMK AO2,M
CXP,2024-07-05 03:35,-119.7326,39.1923,1431.00,86.00,33.80,15.48,0.00,0.00,0.00,30.21,M,10.00,M,CLR,M,M,M,M,M,M,M,M,M,M,M,M,M,M,82.66,KCXP 050335Z AUTO 00000KT 10SM CLR 30/01 A3021 RMK AO2,M
RTS,2024-07-05 03:35,-119.8764,39.6682,1539.00,84.20,17.60,8.37,320.00,7.00,0.00,30.25,M,10.00,M,CLR,M,M,M,M,M,M,M,M,M,M,M,M,M,M,80.59,KRTS 050335Z AUTO 32007KT 10SM CLR 29/M08 A3025 RMK AO2,M
MEV,2024-07-05 03:35,-119.7500,38.9963,1441.42,82.40,39.20,21.51,300.00,4.00,0.00,30.20,M,10.00,M,CLR,M,M,M,M,M,M,M,M,M,M,M,M,M,M,80.21,KMEV 050335Z AUTO 30004KT 10SM CLR 28/04 A3020 RMK AO2,M
BAM,2024-07-05 03:35,-116.8743,40.5990,1382.36,80.60,32.00,17.14,0.00,0.00,0.00,30.21,M,10.00,M,CLR,M,M,M,M,M,M,M,M,M,M,M,M,M,M,78.82,KBAM 050335Z AUTO 00000KT 10SM CLR 27/00 A3021 RMK AO1,M
HTH,2024-07-05 03:35,-118.6315,38.5448,1282.89,87.80,15.80,6.90,310.00,8.00,0.00,30.15,M,10.00,M,CLR,M,M,M,M,M,M,M,M,M,M,M,M,M,M,83.07,KHTH 050335Z AUTO 31008KT 10SM CLR 31/M09 A3015 RMK A01,M
TMT,2024-07-05 03:35,-117.1971,39.4643,1749.34,72.70,25.30,16.94,340.00,5.00,0.00,30.29,M,10.00,M,CLR,M,M,M,M,M,M,M,M,M,M,M,M,M,M,72.70,KTMT 050335Z AUTO 34005KT 10SM CLR 23/M04 A3029 RMK AO2 T02261037,M
05U,2024-07-05 03:45,-116.0051,39.6042,1811.23,64.40,26.60,23.77,0.00,0.00,0.00,30.33,M,10.00,M,M,M,M,M,M,M,M,M,M,M,M,M,M,M,M,64.40,K05U 050345Z AUTO 00000KT 10SM 18/M03 A3033 RMK A01,M
P68,2024-07-05 03:53,-116.0056,39.6014,1993.00,65.00,26.00,22.71,350.00,5.00,0.00,30.31,1018.30,M,M,M,M,M,M,M,M,M,M,M,M,M,M,M,M,M,65.00,KP68 050353Z AUTO 35005KT 18/M03 A3031 RMK AO1 SLP183 T01831033,M
DRA,2024-07-05 03:53,-116.0278,36.6206,1009.00,96.00,25.00,7.90,360.00,4.00,0.00,29.96,1008.40,10.00,M,CLR,M,M,M,M,M,M,M,M,M,M,M,M,M,M,89.75,KDRA 050353Z AUTO 36004KT 10SM CLR 36/M04 A2996 RMK AO2 SLP084 T03561039,M
ELY,2024-07-05 03:53,-114.8453,39.2950,1909.00,69.00,19.00,14.72,0.00,0.00,0.00,30.33,1017.20,10.00,M,CLR,M,M,M,M,M,M,M,M,M,M,M,M,M,M,69.00,KELY 050353Z AUTO 00000KT 10SM CLR 21/M07 A3033 RMK AO2 SLP172 T02061072,M
VGT,2024-07-05 03:53,-115.1933,36.2111,667.00,102.00,25.00,6.59,110.00,4.00,0.00,29.86,1009.00,10.00,M,CLR,M,M,M,M,M,M,M,M,M,M,M,M,M,M,94.76,KVGT 050353Z AUTO 11004KT 10SM CLR 39/M04 A2986 RMK AO2 SLP090 T03891039,M
LOL,2024-07-05 03:53,-118.5701,40.0684,1192.43,81.00,26.00,13.24,30.00,9.00,0.00,30.13,1015.90,10.00,M,CLR,M,M,M,M,M,M,M,M,M,M,M,M,M,M,78.94,KLOL 050353Z AUTO 03009KT 10SM CLR 27/M03 A3013 RMK AO2 SLP159 T02721033 $,M
LSV,2024-07-05 03:55,-115.0343,36.2362,570.00,101.70,-2.20,1.98,0.00,0.00,0.00,29.80,1005.60,10.00,M,CLR,M,M,M,M,M,M,M,M,M,M,M,M,M,M,93.17,KLSV 050355Z AUTO 00000KT 10SM CLR 39/M19 A2980 RMK AO2 SLP056 T03871190 $,M
BVU,2024-07-05 03:55,-114.8611,35.9475,671.00,96.80,30.20,9.55,30.00,4.00,0.00,29.85,M,10.00,M,CLR,M,M,M,M,M,M,M,M,M,M,M,M,M,M,90.96,KBVU 050355Z AUTO 03004KT 10SM CLR 36/M01 A2985 RMK AO2,M
CXP,2024-07-05 03:55,-119.7326,39.1923,1431.00,86.00,33.80,15.48,20.00,5.00,0.00,30.22,M,10.00,M,CLR,M,M,M,M,M,M,M,M,M,M,M,M,M,M,82.66,KCXP 050355Z AUTO 02005KT 10SM CLR 30/01 A3022 RMK AO2,M
INS,2024-07-05 03:55,-115.6733,36.5872,955.00,96.60,9.50,3.97,90.00,3.00,0.00,29.95,1007.70,10.00,M,CLR,M,M,M,M,M,M,M,M,M,M,M,M,M,M,89.34,KINS 050355Z AUTO 09003KT 10SM CLR 36/M12 A2995 RMK AO2 SLP077 T03591125 $,M
RNO,2024-07-05 03:55,-119.7711,39.4839,1341.00,91.00,32.00,12.29,310.00,9.00,0.00,30.18,1015.30,10.00,M,CLR,M,M,M,M,M,M,M,M,M,M,M,M,M,M,86.61,KRNO 050355Z 31009KT 10SM CLR 33/00 A3018 RMK AO2 SLP153 T03280000,M
RTS,2024-07-05 03:55,-119.8764,39.6682,1539.00,77.00,23.00,13.32,320.00,4.00,0.00,30.26,M,10.00,M,CLR,M,M,M,M,M,M,M,M,M,M,M,M,M,M,77.00,KRTS 050355Z AUTO 32004KT 10SM CLR 25/M05 A3026 RMK AO2,M
MEV,2024-07-05 03:55,-119.7500,38.9963,1441.42,78.80,39.20,24.19,0.00,0.00,0.00,30.20,M,10.00,M,CLR,M,M,M,M,M,M,M,M,M,M,M,M,M,M,78.80,KMEV 050355Z AUTO 00000KT 10SM CLR 26/04 A3020 RMK AO2,M
BAM,2024-07-05 03:55,-116.8743,40.5990,1382.36,78.80,32.00,18.18,350.00,6.00,0.00,30.21,M,10.00,M,CLR,M,M,M,M,M,M,M,M,M,M,M,M,M,M,78.80,KBAM 050355Z AUTO 35006KT 10SM CLR 26/00 A3021 RMK AO1,M
HTH,2024-07-05 03:55,-118.6315,38.5448,1282.89,86.00,15.80,7.31,300.00,8.00,0.00,30.16,M,10.00,M,CLR,M,M,M,M,M,M,M,M,M,M,M,M,M,M,81.78,KHTH 050355Z AUTO 30008KT 10SM CLR 30/M09 A3016 RMK A01,M
TMT,2024-07-05 03:55,-117.1971,39.4643,1749.34,69.00,22.30,16.94,350.00,4.00,0.00,30.30,M,7.00,M,CLR,M,M,M,M,M,M,M,M,M,M,M,M,M,M,69.00,KTMT 050355Z AUTO 35004KT 7SM CLR 21/M05 A3030 RMK AO2 T02061054,M
05U,2024-07-05 03:55,-116.0051,39.6042,1811.23,64.40,24.80,22.06,0.00,0.00,0.00,30.33,M,10.00,M,M,M,M,M,M,M,M,M,M,M,M,M,M,M,M,64.40,K05U 050355Z AUTO 00000KT 10SM 18/M04 A3033 RMK A01,M
EKO,2024-07-05 03:56,-115.7860,40.8242,1367.00,76.00,27.00,16.27,110.00,4.00,0.00,30.25,1018.80,10.00,M,CLR,M,M,M,M,M,M,M,M,M,M,M,M,M,M,76.00,KEKO 050356Z AUTO 11004KT 10SM CLR 24/M03 A3025 RMK AO2 SLP188 T02441028,M
WMC,2024-07-05 03:56,-117.8072,40.9019,1315.00,79.00,22.00,11.96,50.00,4.00,0.00,30.18,1016.90,10.00,M,CLR,M,M,M,M,M,M,M,M,M,M,M,M,M,M,79.00,KWMC 050356Z AUTO 05004KT 10SM CLR 26/M06 A3018 RMK AO2 SLP169 T02611056,M
NFL,2024-07-05 03:56,-118.7010,39.4166,1199.00,82.00,25.00,12.29,50.00,5.00,0.00,30.12,1016.60,10.00,M,CLR,M,M,M,M,M,M,M,M,M,M,M,M,M,M,79.54,KNFL 050356Z AUTO 05005KT 10SM CLR 28/M04 A3012 RMK AO2 SLP166 T02781039,M
HND,2024-07-05 03:56,-115.1344,35.9729,742.79,100.00,31.00,8.95,120.00,5.00,0.00,29.91,1010.50,10.00,M,CLR,M,M,M,M,M,M,M,M,M,M,M,M,M,M,93.74,KHND 050356Z AUTO 12005KT 10SM CLR 38/M01 A2991 RMK AO2 SLP105 T03781006,M
TPH,2024-07-05 03:56,-117.0904,38.0505,1654.00,83.00,6.00,5.20,310.00,9.00,0.00,30.21,1013.40,10.00,M,CLR,M,M,M,M,M,M,M,M,M,M,M,M,M,M,79.35,KTPH 050356Z AUTO 31009KT 10SM CLR 28/M14 A3021 RMK AO2 SLP134 T02831144,M
LAS,2024-07-05 03:56,-115.1634,36.0719,663.00,106.00,27.00,6.35,130.00,3.00,0.00,29.87,1007.80,10.00,M,CLR,M,M,M,M,M,M,M,M,M,M,M,M,M,M,98.33,KLAS 050356Z 13003KT 10SM CLR 41/M03 A2987 RMK AO2 SLP078 T04111028,M
BVU,2024-07-05 04:15,-114.8611,35.9475,671.00,95.00,32.00,10.85,30.00,5.00,0.00,29.85,M,10.00,M,CLR,M,M,M,M,M,M,M,M,M,M,M,M,M,M,89.71,KBVU 050415Z AUTO 03005KT 10SM CLR 35/M00 A2985 RMK AO2,M
CXP,2024-07-05 04:15,-119.7326,39.1923,1431.00,84.20,37.40,18.91,20.00,5.00,0.00,30.22,M,10.00,M,CLR,M,M,M,M,M,M,M,M,M,M,M,M,M,M,81.38,KCXP 050415Z AUTO 02005KT 10SM CLR 29/03 A3022 RMK AO2,M
RTS,2024-07-05 04:15,-119.8764,39.6682,1539.00,75.20,28.40,17.70,330.00,7.00,0.00,30.26,M,10.00,M,CLR,M,M,M,M,M,M,M,M,M,M,M,M,M,M,75.20,KRTS 050415Z AUTO 33007KT 10SM CLR 24/M02 A3026 RMK AO2,M
MEV,2024-07-05 04:15,-119.7500,38.9963,1441.42,69.80,44.60,40.29,120.00,5.00,0.00,30.21,M,10.00,M,CLR,M,M,M,M,M,M,M,M,M,M,M,M,M,M,69.80,KMEV 050415Z AUTO 12005KT 10SM CLR 21/07 A3021 RMK AO2,M
BAM,2024-07-05 04:15,-116.8743,40.5990,1382.36,73.40,32.00,21.76,320.00,4.00,0.00,30.23,M,10.00,M,CLR,M,M,M,M,M,M,M,M,M,M,M,M,M,M,73.40,KBAM 050415Z AUTO 32004KT 10SM CLR 23/00 A3023 RMK AO1,M
HTH,2024-07-05 04:15,-118.6315,38.5448,1282.89,84.20,14.00,7.16,300.00,7.00,0.00,30.17,M,10.00,M,CLR,M,M,M,M,M,M,M,M,M,M,M,M,M,M,80.44,KHTH 050415Z AUTO 30007KT 10SM CLR 29/M10 A3017 RMK A01,M
TMT,2024-07-05 04:15,-117.1971,39.4643,1749.34,63.00,23.00,21.49,0.00,0.00,0.00,30.31,M,10.00,M,CLR,M,M,M,M,M,M,M,M,M,M,M,M,M,M,63.00,KTMT 050415Z AUTO 00000KT 10SM CLR 17/M05 A3031 RMK AO2 T01721051,M
BVU,2024-07-05 04:35,-114.8611,35.9475,671.00,93.20,35.60,13.25,20.00,5.00,0.00,29.86,M,10.00,M,CLR,M,M,M,M,M,M,M,M,M,M,M,M,M,M,88.76,KBVU 050435Z AUTO 02005KT 10SM CLR 34/02 A2986 RMK AO2,M
CXP,2024-07-05 04:35,-119.7326,39.1923,1431.00,82.40,37.40,20.04,360.00,6.00,0.00,30.23,M,10.00,M,CLR,M,M,M,M,M,M,M,M,M,M,M,M,M,M,80.14,KCXP 050435Z AUTO 36006KT 10SM CLR 28/03 A3023 RMK AO2,M
RTS,2024-07-05 04:35,-119.8764,39.6682,1539.00,75.20,28.40,17.70,0.00,0.00,0.00,30.27,M,10.00,M,CLR,M,M,M,M,M,M,M,M,M,M,M,M,M,M,75.20,KRTS 050435Z AUTO 00000KT 10SM CLR 24/M02 A3027 RMK AO2,M
05U,2024-07-05 04:35,-116.0051,39.6042,1811.23,62.60,23.00,21.79,0.00,0.00,0.00,30.35,M,10.00,M,M,M,M,M,M,M,M,M,M,M,M,M,M,M,M,62.60,K05U 050435Z AUTO 00000KT 10SM 17/M05 A3035 RMK A01,M
MEV,2024-07-05 04:35,-119.7500,38.9963,1441.42,69.80,41.00,35.09,90.00,8.00,0.00,30.22,M,10.00,M,CLR,M,M,M,M,M,M,M,M,M,M,M,M,M,M,69.80,KMEV 050435Z AUTO 09008KT 10SM CLR 21/05 A3022 RMK AO2,M
BAM,2024-07-05 04:35,-116.8743,40.5990,1382.36,75.20,30.20,19.05,0.00,0.00,0.00,30.23,M,10.00,M,CLR,M,M,M,M,M,M,M,M,M,M,M,M,M,M,75.20,KBAM 050435Z AUTO 00000KT 10SM CLR 24/M01 A3023 RMK AO1,M
HTH,2024-07-05 04:35,-118.6315,38.5448,1282.89,82.40,15.80,8.20,0.00,0.00,0.00,30.18,M,10.00,M,CLR,M,M,M,M,M,M,M,M,M,M,M,M,M,M,79.28,KHTH 050435Z AUTO 00000KT 10SM CLR 28/M09 A3018 RMK A01,M
TMT,2024-07-05 04:35,-117.1971,39.4643,1749.34,64.60,23.00,20.32,0.00,0.00,0.00,30.31,M,10.00,M,CLR,M,M,M,M,M,M,M,M,M,M,M,M,M,M,64.60,KTMT 050435Z AUTO 00000KT 10SM CLR 18/M05 A3031 RMK AO2 T01811050,M
P68,2024-07-05 04:53,-116.0056,39.6014,1993.00,61.00,25.00,25.07,90.00,3.00,0.00,30.34,1019.10,M,M,M,M,M,M,M,M,M,M,M,M,M,M,M,M,M,61.00,KP68 050453Z AUTO 09003KT 16/M04 A3034 RMK AO1 SLP191 T01611039,M
DRA,2024-07-05 04:53,-116.0278,36.6206,1009.00,91.00,24.00,8.85,120.00,9.00,0.00,29.98,1009.00,10.00,M,CLR,M,M,M,M,M,M,M,M,M,M,M,M,M,M,85.86,KDRA 050453Z AUTO 12009KT 10SM CLR 33/M04 A2998 RMK AO2 SLP090 T03281044,M
ELY,2024-07-05 04:53,-114.8453,39.2950,1909.00,64.00,18.00,16.77,320.00,6.00,0.00,30.35,1018.10,10.00,M,CLR,M,M,M,M,M,M,M,M,M,M,M,M,M,M,64.00,KELY 050453Z AUTO 32006KT 10SM CLR 18/M08 A3035 RMK AO2 SLP181 T01781078,M
VGT,2024-07-05 04:53,-115.1933,36.2111,667.00,102.00,32.00,8.77,270.00,5.00,0.00,29.87,1009.50,4.00,M,CLR,M,M,M,M,M,M,M,HZ,M,M,M,M,M,M,95.57,KVGT 050453Z AUTO 27005KT 4SM HZ CLR 39/00 A2987 RMK AO2 SLP095 T03890000,M
LOL,2024-07-05 04:53,-118.5701,40.0684,1192.43,79.00,24.00,13.01,20.00,8.00,0.00,30.15,1016.30,10.00,M,CLR,M,M,M,M,M,M,M,M,M,M,M,M,M,M,79.00,KLOL 050453Z AUTO 02008KT 10SM CLR 26/M04 A3015 RMK AO2 SLP163 T02611044 $,M
BVU,2024-07-05 04:55,-114.8611,35.9475,671.00,91.40,33.80,13.05,10.00,5.00,0.00,29.86,M,10.00,M,CLR,M,M,M,M,M,M,M,M,M,M,M,M,M,M,87.13,KBVU 050455Z AUTO 01005KT 10SM CLR 33/01 A2986 RMK AO2,M
CXP,2024-07-05 04:55,-119.7326,39.1923,1431.00,82.40,37.40,20.04,340.00,3.00,0.00,30.24,M,10.00,M,CLR,M,M,M,M,M,M,M,M,M,M,M,M,M,M,80.14,KCXP 050455Z AUTO 34003KT 10SM CLR 28/03 A3024 RMK AO2,M
INS,2024-07-05 04:55,-115.6733,36.5872,955.00,94.00,1.40,2.97,200.00,3.00,0.00,29.97,1008.40,10.00,M,CLR,M,M,M,M,M,M,M,M,M,M,M,M,M,M,87.07,KINS 050455Z AUTO 20003KT 10SM CLR 34/M17 A2997 RMK AO2 SLP084 T03441170 $,M
RNO,2024-07-05 04:55,-119.7711,39.4839,1341.00,87.00,30.00,12.86,10.00,6.00,0.00,30.21,1016.30,10.00,M,CLR,M,M,M,M,M,M,M,M,M,M,M,M,M,M,83.40,KRNO 050455Z 01006KT 10SM CLR 31/M01 A3021 RMK AO2 SLP163 T03061011,M
RTS,2024-07-05 04:55,-119.8764,39.6682,1539.00,75.20,30.20,19.05,290.00,6.00,0.00,30.28,M,10.00,M,CLR,M,M,M,M,M,M,M,M,M,M,M,M,M,M,75.20,KRTS 050455Z AUTO 29006KT 10SM CLR 24/M01 A3028 RMK AO2,M
05U,2024-07-05 04:55,-116.0051,39.6042,1811.23,60.80,24.80,25.04,0.00,0.00,0.00,30.36,M,10.00,M,M,M,M,M,M,M,M,M,M,M,M,M,M,M,M,60.80,K05U 050455Z AUTO 00000KT 10SM 16/M04 A3036 RMK A01,M
MEV,2024-07-05 04:55,-119.7500,38.9963,1441.42,68.00,41.00,37.32,130.00,8.00,0.00,30.23,M,10.00,M,CLR,M,M,M,M,M,M,M,M,M,M,M,M,M,M,68.00,KMEV 050455Z AUTO 13008KT 10SM CLR 20/05 A3023 RMK AO2,M
BAM,2024-07-05 04:55,-116.8743,40.5990,1382.36,64.40,23.00,20.46,170.00,6.00,0.00,30.24,M,10.00,M,CLR,M,M,M,M,M,M,M,M,M,M,M,M,M,M,64.40,KBAM 050455Z AUTO 17006KT 10SM CLR 18/M05 A3024 RMK AO1,M
HTH,2024-07-05 04:55,-118.6315,38.5448,1282.89,84.20,15.80,7.74,0.00,0.00,0.00,30.18,M,10.00,M,CLR,M,M,M,M,M,M,M,M,M,M,M,M,M,M,80.51,KHTH 050455Z AUTO 00000KT 10SM CLR 29/M09 A3018 RMK A01,M
LSV,2024-07-05 04:55,-115.0343,36.2362,570.00,98.00,-4.40,2.00,50.00,8.00,0.00,29.81,1006.00,10.00,M,CLR,M,M,M,M,M,M,M,M,M,M,M,M,M,M,90.13,KLSV 050455Z AUTO 05008KT 10SM CLR 37/M20 A2981 RMK AO2 SLP060 T03671202 $,M
TMT,2024-07-05 04:55,-117.1971,39.4643,1749.34,62.00,22.30,21.61,0.00,0.00,0.00,30.32,M,10.00,M,CLR,M,M,M,M,M,M,M,M,M,M,M,M,M,M,62.00,KTMT 050455Z AUTO 00000KT 10SM CLR 17/M05 A3032 RMK AO2 T01671054,M
EKO,2024-07-05 04:56,-115.7860,40.8242,1367.00,72.00,24.00,16.43,0.00,0.00,0.00,30.27,1019.30,10.00,M,CLR,M,M,M,M,M,M,M,M,M,M,M,M,M,M,72.00,KEKO 050456Z AUTO 00000KT 10SM CLR 22/M04 A3027 RMK AO2 SLP193 T02221044,M
WMC,2024-07-05 04:56,-117.8072,40.9019,1315.00,68.00,24.00,18.83,0.00,0.00,0.00,30.19,1017.70,10.00,M,CLR,M,M,M,M,M,M,M,M,M,M,M,M,M,M,68.00,KWMC 050456Z AUTO 00000KT 10SM CLR 20/M04 A3019 RMK AO2 SLP177 T02001044,M
HND,2024-07-05 04:56,-115.1344,35.9729,742.79,95.00,30.00,10.01,190.00,7.00,0.00,29.92,1011.10,10.00,M,CLR,M,M,M,M,M,M,M,M,M,M,M,M,M,M,89.45,KHND 050456Z AUTO 19007KT 10SM CLR 35/M01 A2992 RMK AO2 SLP111 T03501011,M
TPH,2024-07-05 04:56,-117.0904,38.0505,1654.00,80.00,14.00,8.20,350.00,9.00,0.00,30.23,1013.90,10.00,M,CLR,M,M,M,M,M,M,M,M,M,M,M,M,M,M,77.67,KTPH 050456Z AUTO 35009KT 10SM CLR 27/M10 A3023 RMK AO2 SLP139 T02671100,M
LAS,2024-07-05 04:56,-115.1634,36.0719,663.00,103.00,28.00,7.24,210.00,3.00,0.00,29.88,1008.20,10.00,M,CLR,M,M,M,M,M,M,M,M,M,M,M,M,M,M,95.91,KLAS 050456Z 21003KT 10SM CLR 39/M02 A2988 RMK AO2 SLP082 T03941022,M
NFL,2024-07-05 04:56,-118.7010,39.4166,1199.00,76.00,32.00,19.95,0.00,0.00,0.00,30.14,1017.20,10.00,M,CLR,M,M,M,M,M,M,M,M,M,M,M,M,M,M,76.00,KNFL 050456Z AUTO 00000KT 10SM CLR 24/00 A3014 RMK AO2 SLP172 T02440000,M
05U,2024-07-05 05:05,-116.0051,39.6042,1811.23,59.00,19.40,21.26,0.00,0.00,0.00,30.36,M,10.00,M,M,M,M,M,M,M,M,M,M,M,M,M,M,M,M,59.00,K05U 050505Z AUTO 00000KT 10SM 15/M07 A3036 RMK A01,M
BVU,2024-07-05 05:15,-114.8611,35.9475,671.00,93.20,30.20,10.67,20.00,5.00,0.00,29.86,M,10.00,M,CLR,M,M,M,M,M,M,M,M,M,M,M,M,M,M,88.09,KBVU 050515Z AUTO 02005KT 10SM CLR 34/M01 A2986 RMK AO2,M
CXP,2024-07-05 05:15,-119.7326,39.1923,1431.00,78.80,39.20,24.19,0.00,0.00,0.00,30.25,M,10.00,M,CLR,M,M,M,M,M,M,M,M,M,M,M,M,M,M,78.80,KCXP 050515Z AUTO 00000KT 10SM CLR 26/04 A3025 RMK AO2,M
RTS,2024-07-05 05:15,-119.8764,39.6682,1539.00,75.20,32.00,20.49,270.00,5.00,0.00,30.28,M,10.00,M,CLR,M,M,M,M,M,M,M,M,M,M,M,M,M,M,75.20,KRTS 050515Z AUTO 27005KT 10SM CLR 24/M00 A3028 RMK AO2,M
MEV,2024-07-05 05:15,-119.7500,38.9963,1441.42,66.20,41.00,39.72,120.00,9.00,0.00,30.24,M,10.00,M,CLR,M,M,M,M,M,M,M,M,M,M,M,M,M,M,66.20,KMEV 050515Z AUTO 12009KT 10SM CLR 19/05 A3024 RMK AO2,M
BAM,2024-07-05 05:15,-116.8743,40.5990,1382.36,64.40,23.00,20.46,150.00,4.00,0.00,30.24,M,10.00,M,CLR,M,M,M,M,M,M,M,M,M,M,M,M,M,M,64.40,KBAM 050515Z AUTO 15004KT 10SM CLR 18/M05 A3024 RMK AO1,M
HTH,2024-07-05 05:15,-118.6315,38.5448,1282.89,82.40,15.80,8.20,0.00,0.00,0.00,30.19,M,10.00,M,CLR,M,M,M,M,M,M,M,M,M,M,M,M,M,M,79.28,KHTH 050515Z AUTO 00000KT 10SM CLR 28/M09 A3019 RMK A01,M
TMT,2024-07-05 05:15,-117.1971,39.4643,1749.34,59.50,27.70,29.57,300.00,5.00,0.00,30.32,M,10.00,M,CLR,M,M,M,M,M,M,M,M,M,M,M,M,M,M,59.50,KTMT 050515Z AUTO 30005KT 10SM CLR 15/M02 A3032 RMK AO2 T01531024,M
05U,2024-07-05 05:30,-116.0051,39.6042,1811.23,57.20,21.20,24.49,0.00,0.00,0.00,30.36,M,10.00,M,M,M,M,M,M,M,M,M,M,M,M,M,M,M,M,57.20,K05U 050530Z AUTO 00000KT 10SM 14/M06 A3036 RMK A01,M
BVU,2024-07-05 05:35,-114.8611,35.9475,671.00,91.40,32.00,12.14,20.00,4.00,0.00,29.87,M,10.00,M,CLR,M,M,M,M,M,M,M,M,M,M,M,M,M,M,86.91,KBVU 050535Z AUTO 02004KT 10SM CLR 33/M00 A2987 RMK AO2,M
CXP,2024-07-05 05:35,-119.7326,39.1923,1431.00,77.00,39.20,25.67,0.00,0.00,0.00,30.25,M,10.00,M,CLR,M,M,M,M,M,M,M,M,M,M,M,M,M,M,77.00,KCXP 050535Z AUTO 00000KT 10SM CLR 25/04 A3025 RMK AO2,M
RTS,2024-07-05 05:35,-119.8764,39.6682,1539.00,75.20,32.00,20.49,310.00,4.00,0.00,30.28,M,10.00,M,CLR,M,M,M,M,M,M,M,M,M,M,M,M,M,M,75.20,KRTS 050535Z AUTO 31004KT 10SM CLR 24/M00 A3028 RMK AO2,M
MEV,2024-07-05 05:35,-119.7500,38.9963,1441.42,62.60,42.80,48.28,130.00,6.00,0.00,30.24,M,10.00,M,CLR,M,M,M,M,M,M,M,M,M,M,M,M,M,M,62.60,KMEV 050535Z AUTO 13006KT 10SM CLR 17/06 A3024 RMK AO2,M
BAM,2024-07-05 05:35,-116.8743,40.5990,1382.36,62.60,21.20,20.20,140.00,6.00,0.00,30.24,M,10.00,M,CLR,M,M,M,M,M,M,M,M,M,M,M,M,M,M,62.60,KBAM 050535Z AUTO 14006KT 10SM CLR 17/M06 A3024 RMK AO1,M
HTH,2024-07-05 05:35,-118.6315,38.5448,1282.89,80.60,21.20,10.97,0.00,0.00,0.00,30.19,M,10.00,M,M,M,M,M,M,M,M,M,M,M,M,M,M,M,M,78.68,KHTH 050535Z AUTO 00000KT 10SM 27/M06 A3019 RMK A01,M
TMT,2024-07-05 05:35,-117.1971,39.4643,1749.34,50.70,21.20,31.05,0.00,0.00,0.00,30.33,M,10.00,M,CLR,M,M,M,M,M,M,M,M,M,M,M,M,M,M,50.70,KTMT 050535Z AUTO 00000KT 10SM CLR 10/M06 A3033 RMK AO2 T01041060,M
P68,2024-07-05 05:53,-116.0056,39.6014,1993.00,54.00,17.00,22.98,170.00,4.00,0.00,30.34,1019.80,M,M,M,M,M,M,M,M,M,M,M,M,M,M,M,M,M,54.00,KP68 050553Z AUTO 17004KT 12/M08 A3034 RMK AO1 SLP198 T01221083 10322 20111 51014,M
DRA,2024-07-05 05:53,-116.0278,36.6206,1009.00,89.00,24.00,9.42,100.00,7.00,0.00,29.99,1009.30,10.00,M,CLR,M,M,M,M,M,M,M,M,M,M,M,M,M,M,84.38,KDRA 050553Z AUTO 10007KT 10SM CLR 32/M04 A2999 RMK AO2 SLP093 T03171044 10422 20317 52012,M
ELY,2024-07-05 05:53,-114.8453,39.2950,1909.00,53.00,23.00,30.78,230.00,3.00,0.00,30.36,1019.10,10.00,M,CLR,M,M,M,M,M,M,M,M,M,M,M,M,M,M,53.00,KELY 050553Z AUTO 23003KT 10SM CLR 12/M05 A3036 RMK AO2 SLP191 T01171050 10322 20111 51015,M
VGT,2024-07-05 05:53,-115.1933,36.2111,667.00,97.00,33.00,10.63,340.00,6.00,0.00,29.89,1010.00,4.00,M,CLR,M,M,M,M,M,M,M,HZ,M,M,M,M,M,M,91.49,KVGT 050553Z AUTO 34006KT 4SM HZ CLR 36/01 A2989 RMK AO2 SLP100 T03610006 10450 20350 53012,M
LOL,2024-07-05 05:53,-118.5701,40.0684,1192.43,75.00,22.00,13.65,320.00,3.00,0.00,30.16,1016.50,10.00,M,CLR,M,M,M,M,M,M,M,M,M,M,M,M,M,M,75.00,KLOL 050553Z AUTO 32003KT 10SM CLR 24/M06 A3016 RMK AO2 SLP165 T02391056 10356 20228 51009 $,M
LSV,2024-07-05 05:55,-115.0343,36.2362,570.00,95.00,2.00,2.96,60.00,6.00,0.00,29.83,1006.70,10.00,M,CLR,M,M,M,M,M,M,M,M,M,M,M,M,M,M,87.78,KLSV 050555Z AUTO 06006KT 10SM CLR 35/M17 A2983 RMK AO2 SLP067 T03491166 10443 20349 52013 $,M
BVU,2024-07-05 05:55,-114.8611,35.9475,671.00,91.40,30.20,11.28,10.00,4.00,0.00,29.87,M,10.00,M,CLR,M,M,M,M,M,M,M,M,M,M,M,M,M,M,86.71,KBVU 050555Z AUTO 01004KT 10SM CLR 33/M01 A2987 RMK AO2,M
CXP,2024-07-05 05:55,-119.7326,39.1923,1431.00,75.20,39.20,27.26,0.00,0.00,0.00,30.26,M,10.00,M,CLR,M,M,M,M,M,M,M,M,M,M,M,M,M,M,75.20,KCXP 050555Z AUTO 00000KT 10SM CLR 24/04 A3026 RMK AO2,M
INS,2024-07-05 05:55,-115.6733,36.5872,955.00,88.00,12.70,5.99,0.00,0.00,0.00,29.98,1008.80,10.00,M,CLR,M,M,M,M,M,M,M,M,M,M,M,M,M,M,83.09,KINS 050555Z AUTO 00000KT 10SM CLR 31/M11 A2998 RMK AO2 SLP088 T03111107 10421 20298 52015 $,M
RNO,2024-07-05 05:55,-119.7711,39.4839,1341.00,85.00,39.00,19.62,330.00,3.00,0.00,30.22,1016.50,10.00,M,CLR,M,M,M,M,M,M,M,M,M,M,M,M,M,M,82.02,KRNO 050555Z 33003KT 10SM CLR 29/04 A3022 RMK AO2 SLP165 T02940039 10378 20294 51016,M
RTS,2024-07-05 05:55,-119.8764,39.6682,1539.00,73.40,32.00,21.76,320.00,6.00,0.00,30.29,M,10.00,M,CLR,M,M,M,M,M,M,M,M,M,M,M,M,M,M,73.40,KRTS 050555Z AUTO 32006KT 10SM CLR 23/M00 A3029 RMK AO2,M
05U,2024-07-05 05:55,-116.0051,39.6042,1811.23,53.60,15.80,22.13,0.00,0.00,0.00,30.36,M,10.00,M,M,M,M,M,M,M,M,M,M,M,M,M,M,M,M,53.60,K05U 050555Z AUTO 00000KT 10SM 12/M09 A3036 RMK A01,M
MEV,2024-07-05 05:55,-119.7500,38.9963,1441.42,62.60,42.80,48.28,150.00,8.00,0.00,30.25,M,10.00,M,CLR,M,M,M,M,M,M,M,M,M,M,M,M,M,M,62.60,KMEV 050555Z AUTO 15008KT 10SM CLR 17/06 A3025 RMK AO2,M
BAM,2024-07-05 05:55,-116.8743,40.5990,1382.36,60.80,21.20,21.53,170.00,4.00,0.00,30.24,M,10.00,M,CLR,M,M,M,M,M,M,M,M,M,M,M,M,M,M,60.80,KBAM 050555Z AUTO 17004KT 10SM CLR 16/M06 A3024 RMK AO1,M
HTH,2024-07-05 05:55,-118.6315,38.5448,1282.89,80.60,26.60,13.75,0.00,0.00,0.00,30.19,M,10.00,M,M,M,M,M,M,M,M,M,M,M,M,M,M,M,M,78.68,KHTH 050555Z AUTO 00000KT 10SM 27/M03 A3019 RMK A01,M
TMT,2024-07-05 05:55,-117.1971,39.4643,1749.34,59.00,24.60,26.48,60.00,4.00,0.00,30.34,M,10.00,M,CLR,M,M,M,M,M,M,M,M,M,M,M,M,M,M,59.00,KTMT 050555Z AUTO 06004KT 10SM CLR 15/M04 A3034 RMK AO2 T01501041 10324 20103,M
EKO,2024-07-05 05:56,-115.7860,40.8242,1367.00,64.00,28.00,25.54,300.00,3.00,0.00,30.28,1020.20,10.00,M,CLR,M,M,M,M,M,M,M,M,M,M,M,M,M,M,64.00,KEKO 050556Z AUTO 30003KT 10SM CLR 18/M02 A3028 RMK AO2 SLP202 T01781022 10328 20156 52015,M
WMC,2024-07-05 05:56,-117.8072,40.9019,1315.00,67.00,22.00,17.92,150.00,5.00,0.00,30.20,1017.70,10.00,M,CLR,M,M,M,M,M,M,M,M,M,M,M,M,M,M,67.00,KWMC 050556Z AUTO 15005KT 10SM CLR 19/M06 A3020 RMK AO2 SLP177 T01941056 10361 20156 53008,M
NFL,2024-07-05 05:56,-118.7010,39.4166,1199.00,73.00,31.00,21.18,310.00,8.00,0.00,30.16,1017.60,10.00,M,CLR,M,M,M,M,M,M,M,M,M,M,M,M,M,M,73.00,KNFL 050556Z AUTO 31008KT 10SM CLR 23/M01 A3016 RMK AO2 SLP176 T02281006 10372 20228 53011,M
HND,2024-07-05 05:56,-115.1344,35.9729,742.79,92.00,33.00,12.40,180.00,6.00,0.00,29.93,1011.40,10.00,M,CLR,M,M,M,M,M,M,M,M,M,M,M,M,M,M,87.50,KHND 050556Z AUTO 18006KT 10SM CLR 33/01 A2993 RMK AO2 SLP114 T03330006 10439 20333 51010,M
TPH,2024-07-05 05:56,-117.0904,38.0505,1654.00,76.00,16.00,10.21,350.00,11.00,0.00,30.25,1014.50,10.00,M,CLR,M,M,M,M,M,M,M,M,M,M,M,M,M,M,76.00,KTPH 050556Z AUTO 35011KT 10SM CLR 24/M09 A3025 RMK AO2 SLP145 T02441089 10356 20239 53013,M
LAS,2024-07-05 05:56,-115.1634,36.0719,663.00,97.00,33.00,10.63,340.00,4.00,0.00,29.90,1008.70,10.00,M,CLR,M,M,M,M,M,M,M,M,M,M,M,M,M,M,91.49,KLAS 050556Z 34004KT 10SM CLR 36/01 A2990 RMK AO2 SLP087 FU DSNT NW-NE T03610006 10450 20361 53011,M
05U,2024-07-05 06:10,-116.0051,39.6042,1811.23,51.80,23.00,32.17,0.00,0.00,0.00,30.37,M,10.00,M,M,M,M,M,M,M,M,M,M,M,M,M,M,M,M,51.80,K05U 050610Z AUTO 00000KT 10SM 11/M05 A3037 RMK A01,M
BVU,2024-07-05 06:15,-114.8611,35.9475,671.00,89.60,30.20,11.94,350.00,3.00,0.00,29.87,M,10.00,M,CLR,M,M,M,M,M,M,M,M,M,M,M,M,M,M,85.34,KBVU 050615Z AUTO 35003KT 10SM CLR 32/M01 A2987 RMK AO2,M
CXP,2024-07-05 06:15,-119.7326,39.1923,1431.00,73.40,39.20,28.96,0.00,0.00,0.00,30.26,M,10.00,M,CLR,M,M,M,M,M,M,M,M,M,M,M,M,M,M,73.40,KCXP 050615Z AUTO 00000KT 10SM CLR 23/04 A3026 RMK AO2,M
RTS,2024-07-05 06:15,-119.8764,39.6682,1539.00,71.60,32.00,23.13,310.00,6.00,0.00,30.28,M,10.00,M,CLR,M,M,M,M,M,M,M,M,M,M,M,M,M,M,71.60,KRTS 050615Z AUTO 31006KT 10SM CLR 22/M00 A3028 RMK AO2,M
MEV,2024-07-05 06:15,-119.7500,38.9963,1441.42,62.60,41.00,45.04,110.00,3.00,0.00,30.25,M,10.00,M,CLR,M,M,M,M,M,M,M,M,M,M,M,M,M,M,62.60,KMEV 050615Z AUTO 11003KT 10SM CLR 17/05 A3025 RMK AO2,M
BAM,2024-07-05 06:15,-116.8743,40.5990,1382.36,59.00,21.20,22.95,150.00,6.00,0.00,30.24,M,10.00,M,CLR,M,M,M,M,M,M,M,M,M,M,M,M,M,M,59.00,KBAM 050615Z AUTO 15006KT 10SM CLR 15/M06 A3024 RMK AO1,M
HTH,2024-07-05 06:15,-118.6315,38.5448,1282.89,78.80,26.60,14.59,0.00,0.00,0.00,30.19,M,10.00,M,CLR,M,M,M,M,M,M,M,M,M,M,M,M,M,M,78.80,KHTH 050615Z AUTO 00000KT 10SM CLR 26/M03 A3019 RMK A01,M
TMT,2024-07-05 06:15,-117.1971,39.4643,1749.34,52.30,23.00,31.58,200.00,3.00,0.00,30.34,M,10.00,M,CLR,M,M,M,M,M,M,M,M,M,M,M,M,M,M,52.30,KTMT 050615Z AUTO 20003KT 10SM CLR 11/M05 A3034 RMK AO2 T01131050,M
05U,2024-07-05 06:15,-116.0051,39.6042,1811.23,51.80,17.60,25.56,0.00,0.00,0.00,30.37,M,10.00,M,M,M,M,M,M,M,M,M,M,M,M,M,M,M,M,51.80,K05U 050615Z AUTO 00000KT 10SM 11/M08 A3037 RMK A01,M
BVU,2024-07-05 06:35,-114.8611,35.9475,671.00,89.60,30.20,11.94,0.00,0.00,0.00,29.87,M,10.00,M,CLR,M,M,M,M,M,M,M,M,M,M,M,M,M,M,85.34,KBVU 050635Z AUTO 00000KT 10SM CLR 32/M01 A2987 RMK AO2,M
CXP,2024-07-05 06:35,-119.7326,39.1923,1431.00,71.60,39.20,30.77,0.00,0.00,0.00,30.26,M,10.00,M,CLR,M,M,M,M,M,M,M,M,M,M,M,M,M,M,71.60,KCXP 050635Z AUTO 00000KT 10SM CLR 22/04 A3026 RMK AO2,M
RTS,2024-07-05 06:35,-119.8764,39.6682,1539.00,71.60,32.00,23.13,310.00,7.00,0.00,30.29,M,10.00,M,CLR,M,M,M,M,M,M,M,M,M,M,M,M,M,M,71.60,KRTS 050635Z AUTO 31007KT 10SM CLR 22/00 A3029 RMK AO2,M
MEV,2024-07-05 06:35,-119.7500,38.9963,1441.42,59.00,42.80,54.86,0.00,0.00,0.00,30.25,M,10.00,M,CLR,M,M,M,M,M,M,M,M,M,M,M,M,M,M,59.00,KMEV 050635Z AUTO 00000KT 10SM CLR 15/06 A3025 RMK AO2,M
BAM,2024-07-05 06:35,-116.8743,40.5990,1382.36,60.80,21.20,21.53,0.00,0.00,0.00,30.24,M,10.00,M,CLR,M,M,M,M,M,M,M,M,M,M,M,M,M,M,60.80,KBAM 050635Z AUTO 00000KT 10SM CLR 16/M06 A3024 RMK AO1,M
HTH,2024-07-05 06:35,-118.6315,38.5448,1282.89,77.00,24.80,14.37,180.00,3.00,0.00,30.20,M,10.00,M,CLR,M,M,M,M,M,M,M,M,M,M,M,M,M,M,77.00,KHTH 050635Z AUTO 18003KT 10SM CLR 25/M04 A3020 RMK A01,M
TMT,2024-07-05 06:35,-117.1971,39.4643,1749.34,49.50,21.00,32.20,230.00,3.00,0.00,30.34,M,10.00,M,CLR,M,M,M,M,M,M,M,M,M,M,M,M,M,M,48.69,KTMT 050635Z AUTO 23003KT 10SM CLR 10/M06 A3034 RMK AO2 T00971061,M
P68,2024-07-05 06:53,-116.0056,39.6014,1993.00,54.00,18.00,23.99,200.00,4.00,0.00,30.34,1019.60,M,M,M,M,M,M,M,M,M,M,M,M,M,M,M,M,M,54.00,KP68 050653Z AUTO 20004KT 12/M08 A3034 RMK AO1 SLP196 T01221078,M
DRA,2024-07-05 06:53,-116.0278,36.6206,1009.00,88.00,14.00,6.34,90.00,5.00,0.00,30.00,1009.50,10.00,M,CLR,M,M,M,M,M,M,M,M,M,M,M,M,M,M,83.14,KDRA 050653Z AUTO 09005KT 10SM CLR 31/M10 A3000 RMK AO2 SLP095 T03111100,M
ELY,2024-07-05 06:53,-114.8453,39.2950,1909.00,50.00,26.00,38.97,170.00,9.00,0.00,30.36,1019.00,10.00,M,CLR,M,M,M,M,M,M,M,M,M,M,M,M,M,M,50.00,KELY 050653Z AUTO 17009KT 10SM CLR 10/M03 A3036 RMK AO2 SLP190 T01001033,M
VGT,2024-07-05 06:53,-115.1933,36.2111,667.00,93.00,32.00,11.55,320.00,6.00,0.00,29.89,1010.30,5.00,M,CLR,M,M,M,M,M,M,M,HZ,M,M,M,M,M,M,88.15,KVGT 050653Z AUTO 32006KT 5SM HZ CLR 34/00 A2989 RMK AO2 SLP103 T03390000,M
LOL,2024-07-05 06:53,-118.5701,40.0684,1192.43,62.00,26.00,25.23,160.00,4.00,0.00,30.16,1017.30,10.00,M,CLR,M,M,M,M,M,M,M,M,M,M,M,M,M,M,62.00,KLOL 050653Z AUTO 16004KT 10SM CLR 17/M03 A3016 RMK AO2 SLP173 T01671033 $,M
TMT,2024-07-05 06:55,-117.1971,39.4643,1749.34,50.00,23.50,35.12,230.00,5.00,0.00,30.35,M,10.00,M,CLR,M,M,M,M,M,M,M,M,M,M,M,M,M,M,50.00,KTMT 050655Z AUTO 23005KT 10SM CLR 10/M05 A3035 RMK AO2 T00991047,M
LSV,2024-07-05 06:55,-115.0343,36.2362,570.00,93.00,1.00,3.01,60.00,7.00,0.00,29.84,1007.00,10.00,M,CLR,M,M,M,M,M,M,M,M,M,M,M,M,M,M,86.36,KLSV 050655Z AUTO 06007KT 10SM CLR 34/M17 A2984 RMK AO2 SLP070 T03391173 $,M
BVU,2024-07-05 06:55,-114.8611,35.9475,671.00,87.80,21.20,8.70,290.00,3.00,0.00,29.88,M,10.00,M,CLR,M,M,M,M,M,M,M,M,M,M,M,M,M,M,83.33,KBVU 050655Z AUTO 29003KT 10SM CLR 31/M06 A2988 RMK AO2,M
CXP,2024-07-05 06:55,-119.7326,39.1923,1431.00,69.80,37.40,30.49,0.00,0.00,0.00,30.26,M,10.00,M,CLR,M,M,M,M,M,M,M,M,M,M,M,M,M,M,69.80,KCXP 050655Z AUTO 00000KT 10SM CLR 21/03 A3026 RMK AO2,M
INS,2024-07-05 06:55,-115.6733,36.5872,955.00,86.00,11.30,6.00,200.00,3.00,0.00,29.99,1009.20,10.00,M,CLR,M,M,M,M,M,M,M,M,M,M,M,M,M,M,81.61,KINS 050655Z AUTO 20003KT 10SM CLR 30/M11 A2999 RMK AO2 SLP092 T03011115 $,M
RNO,2024-07-05 06:55,-119.7711,39.4839,1341.00,82.00,41.00,23.37,270.00,5.00,0.00,30.23,1016.50,10.00,M,CLR,M,M,M,M,M,M,M,M,M,M,M,M,M,M,80.04,KRNO 050655Z 27005KT 10SM CLR 28/05 A3023 RMK AO2 SLP165 T02780050,M
RTS,2024-07-05 06:55,-119.8764,39.6682,1539.00,71.60,30.20,21.50,10.00,3.00,0.00,30.29,M,10.00,M,CLR,M,M,M,M,M,M,M,M,M,M,M,M,M,M,71.60,KRTS 050655Z AUTO 01003KT 10SM CLR 22/M01 A3029 RMK AO2,M
05U,2024-07-05 06:55,-116.0051,39.6042,1811.23,53.60,17.60,23.93,0.00,0.00,0.00,30.36,M,10.00,M,M,M,M,M,M,M,M,M,M,M,M,M,M,M,M,53.60,K05U 050655Z AUTO 00000KT 10SM 12/M08 A3036 RMK A01,M
MEV,2024-07-05 06:55,-119.7500,38.9963,1441.42,59.00,41.00,51.18,110.00,5.00,0.00,30.26,M,10.00,M,CLR,M,M,M,M,M,M,M,M,M,M,M,M,M,M,59.00,KMEV 050655Z AUTO 11005KT 10SM CLR 15/05 A3026 RMK AO2,M
BAM,2024-07-05 06:55,-116.8743,40.5990,1382.36,60.80,19.40,19.94,60.00,3.00,0.00,30.25,M,10.00,M,CLR,M,M,M,M,M,M,M,M,M,M,M,M,M,M,60.80,KBAM 050655Z AUTO 06003KT 10SM CLR 16/M07 A3025 RMK AO1,M
HTH,2024-07-05 06:55,-118.6315,38.5448,1282.89,77.00,24.80,14.37,200.00,7.00,0.00,30.20,M,10.00,M,CLR,M,M,M,M,M,M,M,M,M,M,M,M,M,M,77.00,KHTH 050655Z AUTO 20007KT 10SM CLR 25/M04 A3020 RMK A01,M
EKO,2024-07-05 06:56,-115.7860,40.8242,1367.00,61.00,28.00,28.38,60.00,4.00,0.00,30.29,1020.30,10.00,M,CLR,M,M,M,M,M,M,M,M,M,M,M,M,M,M,61.00,KEKO 050656Z AUTO 06004KT 10SM CLR 16/M02 A3029 RMK AO2 SLP203 T01611022,M
WMC,2024-07-05 06:56,-117.8072,40.9019,1315.00,68.00,22.00,17.31,70.00,8.00,0.00,30.21,1017.90,10.00,M,CLR,M,M,M,M,M,M,M,M,M,M,M,M,M,M,68.00,KWMC 050656Z AUTO 07008KT 10SM CLR 20/M06 A3021 RMK AO2 SLP179 T02001056,M
NFL,2024-07-05 06:56,-118.7010,39.4166,1199.00,64.00,33.00,31.28,160.00,5.00,0.00,30.16,1017.80,10.00,M,CLR,M,M,M,M,M,M,M,M,M,M,M,M,M,M,64.00,KNFL 050656Z AUTO 16005KT 10SM CLR 18/01 A3016 RMK AO2 SLP178 T01780006,M
HND,2024-07-05 06:56,-115.1344,35.9729,742.79,88.00,32.00,13.51,150.00,5.00,0.00,29.94,1011.80,10.00,M,CLR,M,M,M,M,M,M,M,M,M,M,M,M,M,M,84.24,KHND 050656Z AUTO 15005KT 10SM CLR 31/00 A2994 RMK AO2 SLP118 T03110000 404390278,M
TPH,2024-07-05 06:56,-117.0904,38.0505,1654.00,73.00,15.00,10.81,360.00,13.00,0.00,30.26,1015.30,10.00,M,CLR,M,M,M,M,M,M,M,M,M,M,M,M,M,M,73.00,KTPH 050656Z AUTO 36013KT 10SM CLR 23/M09 A3026 RMK AO2 SLP153 T02281094,M
LAS,2024-07-05 06:56,-115.1634,36.0719,663.00,97.00,29.00,9.04,270.00,6.00,0.00,29.90,1008.90,9.00,M,CLR,M,M,M,M,M,M,M,M,M,M,M,M,M,M,90.98,KLAS 050656Z 27006KT 9SM CLR 36/M02 A2990 RMK AO2 SLP089 VIS LWR NW-N FU VC NW-N AND DSNT W-N-NE T03611017,M
BVU,2024-07-05 07:15,-114.8611,35.9475,671.00,87.80,32.00,13.59,40.00,4.00,0.00,29.88,M,10.00,M,CLR,M,M,M,M,M,M,M,M,M,M,M,M,M,M,84.08,KBVU 050715Z AUTO 04004KT 10SM CLR 31/00 A2988 RMK AO2,M
CXP,2024-07-05 07:15,-119.7326,39.1923,1431.00,69.80,37.40,30.49,0.00,0.00,0.00,30.27,M,10.00,M,CLR,M,M,M,M,M,M,M,M,M,M,M,M,M,M,69.80,KCXP 050715Z AUTO 00000KT 10SM CLR 21/03 A3027 RMK AO2,M
RTS,2024-07-05 07:15,-119.8764,39.6682,1539.00,73.40,30.20,20.23,0.00,0.00,0.00,30.29,M,10.00,M,CLR,M,M,M,M,M,M,M,M,M,M,M,M,M,M,73.40,KRTS 050715Z AUTO 00000KT 10SM CLR 23/M01 A3029 RMK AO2,M
05U,2024-07-05 07:15,-116.0051,39.6042,1811.23,51.80,17.60,25.56,0.00,0.00,0.00,30.36,M,10.00,M,M,M,M,M,M,M,M,M,M,M,M,M,M,M,M,51.80,K05U 050715Z AUTO 00000KT 10SM 11/M08 A3036 RMK A01,M
MEV,2024-07-05 07:15,-119.7500,38.9963,1441.42,59.00,39.20,47.72,140.00,7.00,0.00,30.26,M,10.00,M,CLR,M,M,M,M,M,M,M,M,M,M,M,M,M,M,59.00,KMEV 050715Z AUTO 14007KT 10SM CLR 15/04 A3026 RMK AO2,M
BAM,2024-07-05 07:15,-116.8743,40.5990,1382.36,57.20,21.20,24.49,0.00,0.00,0.00,30.25,M,10.00,M,CLR,M,M,M,M,M,M,M,M,M,M,M,M,M,M,57.20,KBAM 050715Z AUTO 00000KT 10SM CLR 14/M06 A3025 RMK AO1,M
HTH,2024-07-05 07:15,-118.6315,38.5448,1282.89,75.20,21.20,13.11,210.00,6.00,0.00,30.19,M,10.00,M,CLR,M,M,M,M,M,M,M,M,M,M,M,M,M,M,75.20,KHTH 050715Z AUTO 21006KT 10SM CLR 24/M06 A3019 RMK A01,M
TMT,2024-07-05 07:15,-117.1971,39.4643,1749.34,51.60,29.30,42.07,220.00,7.00,0.00,30.34,M,10.00,M,CLR,M,M,M,M,M,M,M,M,M,M,M,M,M,M,51.60,KTMT 050715Z AUTO 22007KT 10SM CLR 11/M01 A3034 RMK AO2 T01091015,M
05U,2024-07-05 07:30,-116.0051,39.6042,1811.23,50.00,19.40,29.52,0.00,0.00,0.00,30.36,M,10.00,M,M,M,M,M,M,M,M,M,M,M,M,M,M,M,M,50.00,K05U 050730Z AUTO 00000KT 10SM 10/M07 A3036 RMK A01,M
BVU,2024-07-05 07:35,-114.8611,35.9475,671.00,89.60,28.40,11.09,80.00,4.00,0.00,29.87,M,10.00,M,CLR,M,M,M,M,M,M,M,M,M,M,M,M,M,M,85.17,KBVU 050735Z AUTO 08004KT 10SM CLR 32/M02 A2987 RMK AO2,M
CXP,2024-07-05 07:35,-119.7326,39.1923,1431.00,69.80,37.40,30.49,0.00,0.00,0.00,30.27,M,10.00,M,CLR,M,M,M,M,M,M,M,M,M,M,M,M,M,M,69.80,KCXP 050735Z AUTO 00000KT 10SM CLR 21/03 A3027 RMK AO2,M
RTS,2024-07-05 07:35,-119.8764,39.6682,1539.00,73.40,28.40,18.80,290.00,3.00,0.00,30.29,M,10.00,M,CLR,M,M,M,M,M,M,M,M,M,M,M,M,M,M,73.40,KRTS 050735Z AUTO 29003KT 10SM CLR 23/M02 A3029 RMK AO2,M
BAM,2024-07-05 07:35,-116.8743,40.5990,1382.36,57.20,23.00,26.42,280.00,3.00,0.00,30.24,M,10.00,M,CLR,M,M,M,M,M,M,M,M,M,M,M,M,M,M,57.20,KBAM 050735Z AUTO 28003KT 10SM CLR 14/M05 A3024 RMK AO1,M
HTH,2024-07-05 07:35,-118.6315,38.5448,1282.89,75.20,23.00,14.15,0.00,0.00,0.00,30.19,M,10.00,M,CLR,M,M,M,M,M,M,M,M,M,M,M,M,M,M,75.20,KHTH 050735Z AUTO 00000KT 10SM CLR 24/M05 A3019 RMK A01,M
MEV,2024-07-05 07:35,-119.7500,38.9963,1441.42,59.00,37.40,44.47,130.00,8.00,0.00,30.26,M,10.00,M,CLR,M,M,M,M,M,M,M,M,M,M,M,M,M,M,59.00,KMEV 050735Z AUTO 13008KT 10SM CLR 15/03 A3026 RMK AO2,M
TMT,2024-07-05 07:35,-117.1971,39.4643,1749.34,50.40,30.00,45.25,220.00,6.00,0.00,30.34,M,10.00,M,CLR,M,M,M,M,M,M,M,M,M,M,M,M,M,M,50.40,KTMT 050735Z AUTO 22006KT 10SM CLR 10/M01 A3034 RMK AO2 T01021012,M
P68,2024-07-05 07:53,-116.0056,39.6014,1993.00,54.00,18.00,23.99,190.00,6.00,0.00,30.33,1018.80,M,M,M,M,M,M,M,M,M,M,M,M,M,M,M,M,M,54.00,KP68 050753Z AUTO 19006KT 12/M08 A3033 RMK AO1 SLP188 T01221078 403280044,M
DRA,2024-07-05 07:53,-116.0278,36.6206,1009.00,87.00,12.00,5.99,20.00,5.00,0.00,29.99,1009.30,10.00,M,CLR,M,M,M,M,M,M,M,M,M,M,M,M,M,M,82.35,KDRA 050753Z AUTO 02005KT 10SM CLR 31/M11 A2999 RMK AO2 SLP093 T03061111 404280244,M
ELY,2024-07-05 07:53,-114.8453,39.2950,1909.00,50.00,21.00,31.60,180.00,10.00,0.00,30.36,1018.60,10.00,M,CLR,M,M,M,M,M,M,M,M,M,M,M,M,M,M,50.00,KELY 050753Z AUTO 18010KT 10SM CLR 10/M06 A3036 RMK AO2 SLP186 T01001061 403220039,M
VGT,2024-07-05 07:53,-115.1933,36.2111,667.00,93.00,26.00,9.04,20.00,8.00,0.00,29.89,1010.40,10.00,M,CLR,M,M,M,M,M,M,M,M,M,M,M,M,M,M,87.51,KVGT 050753Z AUTO 02008KT 10SM CLR 34/M03 A2989 RMK AO2 SLP104 T03391033 404560311,M
LOL,2024-07-05 07:53,-118.5701,40.0684,1192.43,61.00,33.00,34.77,40.00,4.00,0.00,30.15,1017.00,10.00,M,CLR,M,M,M,M,M,M,M,M,M,M,M,M,M,M,61.00,KLOL 050753Z AUTO 04004KT 10SM CLR 16/01 A3015 RMK AO2 SLP170 T01610006 403560089 $,M
BVU,2024-07-05 07:55,-114.8611,35.9475,671.00,91.40,23.00,8.38,0.00,0.00,0.00,29.87,M,10.00,M,CLR,M,M,M,M,M,M,M,M,M,M,M,M,M,M,86.08,KBVU 050755Z AUTO 00000KT 10SM CLR 33/M05 A2987 RMK AO2,M
CXP,2024-07-05 07:55,-119.7326,39.1923,1431.00,68.00,37.40,32.43,0.00,0.00,0.00,30.26,M,10.00,M,CLR,M,M,M,M,M,M,M,M,M,M,M,M,M,M,68.00,KCXP 050755Z AUTO 00000KT 10SM CLR 20/03 A3026 RMK AO2,M
INS,2024-07-05 07:55,-115.6733,36.5872,955.00,81.70,14.50,7.93,0.00,0.00,0.00,29.98,1008.80,10.00,M,CLR,M,M,M,M,M,M,M,M,M,M,M,M,M,M,78.75,KINS 050755Z AUTO 00000KT 10SM CLR 28/M10 A2998 RMK AO2 SLP088 T02761097 404240220 $,M
RNO,2024-07-05 07:55,-119.7711,39.4839,1341.00,79.00,41.00,25.78,290.00,4.00,0.00,30.22,1016.50,10.00,M,CLR,M,M,M,M,M,M,M,M,M,M,M,M,M,M,79.00,KRNO 050755Z 29004KT 10SM CLR 26/05 A3022 RMK AO2 SLP165 FU DSNT S T02610050 403780167,M
RTS,2024-07-05 07:55,-119.8764,39.6682,1539.00,69.80,28.40,21.24,330.00,5.00,0.00,30.28,M,10.00,M,CLR,M,M,M,M,M,M,M,M,M,M,M,M,M,M,69.80,KRTS 050755Z AUTO 33005KT 10SM CLR 21/M02 A3028 RMK AO2,M
05U,2024-07-05 07:55,-116.0051,39.6042,1811.23,53.60,17.60,23.93,0.00,0.00,0.00,30.35,M,10.00,M,M,M,M,M,M,M,M,M,M,M,M,M,M,M,M,53.60,K05U 050755Z AUTO 00000KT 10SM 12/M08 A3035 RMK A01,M
MEV,2024-07-05 07:55,-119.7500,38.9963,1441.42,60.80,35.60,38.85,130.00,5.00,0.00,30.25,M,10.00,M,FEW,FEW,FEW,M,3100.00,4300.00,5000.00,M,M,M,M,M,M,M,M,60.80,KMEV 050755Z AUTO 13005KT 10SM FEW031 FEW043 FEW050 16/02 A3025 RMK AO2,M
BAM,2024-07-05 07:55,-116.8743,40.5990,1382.36,59.00,23.00,24.76,0.00,0.00,0.00,30.24,M,10.00,M,CLR,M,M,M,M,M,M,M,M,M,M,M,M,M,M,59.00,KBAM 050755Z AUTO 00000KT 10SM CLR 15/M05 A3024 RMK AO1,M
HTH,2024-07-05 07:55,-118.6315,38.5448,1282.89,69.80,21.20,15.73,130.00,5.00,0.00,30.20,M,10.00,M,CLR,M,M,M,M,M,M,M,M,M,M,M,M,M,M,69.80,KHTH 050755Z AUTO 13005KT 10SM CLR 21/M06 A3020 RMK A01,M
TMT,2024-07-05 07:55,-117.1971,39.4643,1749.34,44.40,23.00,42.46,220.00,4.00,0.00,30.34,M,10.00,M,CLR,M,M,M,M,M,M,M,M,M,M,M,M,M,M,41.90,KTMT 050755Z AUTO 22004KT 10SM CLR 07/M05 A3034 RMK AO2 T00691049 403300000,M
LSV,2024-07-05 07:55,-115.0343,36.2362,570.00,92.50,-8.00,1.99,70.00,11.00,0.00,29.84,1007.00,10.00,M,CLR,M,M,M,M,M,M,M,M,M,M,M,M,M,M,85.87,KLSV 050755Z AUTO 07011KT 10SM CLR 34/M22 A2984 RMK AO2 SLP070 T03361222 404460292 $,M
EKO,2024-07-05 07:56,-115.7860,40.8242,1367.00,61.00,29.00,29.57,60.00,4.00,0.00,30.29,1020.10,10.00,M,CLR,M,M,M,M,M,M,M,M,M,M,M,M,M,M,61.00,KEKO 050756Z AUTO 06004KT 10SM CLR 16/M02 A3029 RMK AO2 SLP201 T01611017 403330072,M
WMC,2024-07-05 07:56,-117.8072,40.9019,1315.00,72.00,23.00,15.75,80.00,7.00,0.00,30.21,1017.30,10.00,M,CLR,M,M,M,M,M,M,M,M,M,M,M,M,M,M,72.00,KWMC 050756Z AUTO 08007KT 10SM CLR 22/M05 A3021 RMK AO2 SLP173 T02221050 403610044,M
NFL,2024-07-05 07:56,-118.7010,39.4166,1199.00,63.00,36.00,36.52,180.00,6.00,0.00,30.16,1017.70,9.00,M,CLR,M,M,M,M,M,M,M,M,M,M,M,M,M,M,63.00,KNFL 050756Z AUTO 18006KT 9SM CLR 17/02 A3016 RMK AO2 SLP177 T01720022 403720117,M
HND,2024-07-05 07:56,-115.1344,35.9729,742.79,85.00,33.00,15.47,210.00,3.00,0.00,29.94,1011.90,10.00,M,CLR,M,M,M,M,M,M,M,M,M,M,M,M,M,M,81.88,KHND 050756Z AUTO 21003KT 10SM CLR 29/01 A2994 RMK AO2 SLP119 T02940006,M
TPH,2024-07-05 07:56,-117.0904,38.0505,1654.00,71.00,15.00,11.57,360.00,13.00,0.00,30.26,1015.20,10.00,M,CLR,M,M,M,M,M,M,M,M,M,M,M,M,M,M,71.00,KTPH 050756Z AUTO 36013KT 10SM CLR 22/M09 A3026 RMK AO2 SLP152 T02171094 403670172,M
LAS,2024-07-05 07:56,-115.1634,36.0719,663.00,94.00,34.00,12.13,0.00,0.00,0.00,29.91,1009.20,7.00,M,CLR,M,M,M,M,M,M,M,M,M,M,M,M,M,M,89.21,KLAS 050756Z 00000KT 7SM CLR 34/01 A2991 RMK AO2 SLP092 T03440011 404500311,M
05U,2024-07-05 08:10,-116.0051,39.6042,1811.23,53.60,15.80,22.13,0.00,0.00,0.00,30.35,M,10.00,M,M,M,M,M,M,M,M,M,M,M,M,M,M,M,M,53.60,K05U 050810Z AUTO 00000KT 10SM 12/M09 A3035 RMK A01,M
BVU,2024-07-05 08:15,-114.8611,35.9475,671.00,95.00,14.00,5.09,0.00,0.00,0.00,29.87,M,10.00,M,CLR,M,M,M,M,M,M,M,M,M,M,M,M,M,M,88.20,KBVU 050815Z AUTO 00000KT 10SM CLR 35/M10 A2987 RMK AO2,M
CXP,2024-07-05 08:15,-119.7326,39.1923,1431.00,66.20,35.60,32.14,300.00,3.00,0.00,30.26,M,10.00,M,CLR,M,M,M,M,M,M,M,M,M,M,M,M,M,M,66.20,KCXP 050815Z AUTO 30003KT 10SM CLR 19/02 A3026 RMK AO2,M
RTS,2024-07-05 08:15,-119.8764,39.6682,1539.00,64.40,30.20,27.55,320.00,6.00,0.00,30.28,M,10.00,M,CLR,M,M,M,M,M,M,M,M,M,M,M,M,M,M,64.40,KRTS 050815Z AUTO 32006KT 10SM CLR 18/M01 A3028 RMK AO2,M
MEV,2024-07-05 08:15,-119.7500,38.9963,1441.42,59.00,37.40,44.47,0.00,0.00,0.00,30.25,M,10.00,M,FEW,FEW,M,M,4300.00,5000.00,M,M,M,M,M,M,M,M,M,59.00,KMEV 050815Z AUTO 00000KT 10SM FEW043 FEW050 15/03 A3025 RMK AO2,M
BAM,2024-07-05 08:15,-116.8743,40.5990,1382.36,55.40,21.20,26.13,0.00,0.00,0.00,30.24,M,10.00,M,CLR,M,M,M,M,M,M,M,M,M,M,M,M,M,M,55.40,KBAM 050815Z AUTO 00000KT 10SM CLR 13/M06 A3024 RMK AO1,M
HTH,2024-07-05 08:15,-118.6315,38.5448,1282.89,71.60,21.20,14.80,250.00,5.00,0.00,30.20,M,10.00,M,CLR,M,M,M,M,M,M,M,M,M,M,M,M,M,M,71.60,KHTH 050815Z AUTO 25005KT 10SM CLR 22/M06 A3020 RMK A01,M
TMT,2024-07-05 08:15,-117.1971,39.4643,1749.34,50.50,30.70,46.39,220.00,8.00,0.00,30.34,M,10.00,M,CLR,M,M,M,M,M,M,M,M,M,M,M,M,M,M,50.50,KTMT 050815Z AUTO 22008KT 10SM CLR 10/M01 A3034 RMK AO2 T01031007,M
05U,2024-07-05 08:30,-116.0051,39.6042,1811.23,51.80,14.00,21.86,0.00,0.00,0.00,30.35,M,10.00,M,M,M,M,M,M,M,M,M,M,M,M,M,M,M,M,51.80,K05U 050830Z AUTO 00000KT 10SM 11/M10 A3035 RMK A01,M
BVU,2024-07-05 08:35,-114.8611,35.9475,671.00,91.40,19.40,7.19,0.00,0.00,0.00,29.87,M,10.00,M,CLR,M,M,M,M,M,M,M,M,M,M,M,M,M,M,85.86,KBVU 050835Z AUTO 00000KT 10SM CLR 33/M07 A2987 RMK AO2,M
CXP,2024-07-05 08:35,-119.7326,39.1923,1431.00,69.80,35.60,28.39,0.00,0.00,0.00,30.26,M,10.00,M,CLR,M,M,M,M,M,M,M,M,M,M,M,M,M,M,69.80,KCXP 050835Z AUTO 00000KT 10SM CLR 21/02 A3026 RMK AO2,M
RTS,2024-07-05 08:35,-119.8764,39.6682,1539.00,69.80,30.20,22.86,350.00,5.00,0.00,30.28,M,10.00,M,CLR,M,M,M,M,M,M,M,M,M,M,M,M,M,M,69.80,KRTS 050835Z AUTO 35005KT 10SM CLR 21/M01 A3028 RMK AO2,M
MEV,2024-07-05 08:35,-119.7500,38.9963,1441.42,57.20,39.20,50.91,120.00,3.00,0.00,30.25,M,10.00,M,CLR,M,M,M,M,M,M,M,M,M,M,M,M,M,M,57.20,KMEV 050835Z AUTO 12003KT 10SM CLR 14/04 A3025 RMK AO2,M
BAM,2024-07-05 08:35,-116.8743,40.5990,1382.36,59.00,21.20,22.95,120.00,3.00,0.00,30.24,M,10.00,M,CLR,M,M,M,M,M,M,M,M,M,M,M,M,M,M,59.00,KBAM 050835Z AUTO 12003KT 10SM CLR 15/M06 A3024 RMK AO1,M
HTH,2024-07-05 08:35,-118.6315,38.5448,1282.89,69.80,17.60,13.49,230.00,6.00,0.00,30.19,M,10.00,M,CLR,M,M,M,M,M,M,M,M,M,M,M,M,M,M,69.80,KHTH 050835Z AUTO 23006KT 10SM CLR 21/M08 A3019 RMK A01,M
TMT,2024-07-05 08:35,-117.1971,39.4643,1749.34,51.30,28.40,41.00,240.00,7.00,0.00,30.33,M,10.00,M,CLR,M,M,M,M,M,M,M,M,M,M,M,M,M,M,51.30,KTMT 050835Z AUTO 24007KT 10SM CLR 11/M02 A3033 RMK AO2 T01071020,M
05U,2024-07-05 08:50,-116.0051,39.6042,1811.23,51.80,14.00,21.86,0.00,0.00,0.00,30.35,M,10.00,M,M,M,M,M,M,M,M,M,M,M,M,M,M,M,M,51.80,K05U 050850Z AUTO 00000KT 10SM 11/M10 A3035 RMK A01,M
LOL,2024-07-05 08:53,-118.5701,40.0684,1192.43,56.00,28.00,33.96,140.00,6.00,0.00,30.16,1017.30,10.00,M,CLR,M,M,M,M,M,M,M,M,M,M,M,M,M,M,56.00,KLOL 050853Z AUTO 14006KT 10SM CLR 13/M02 A3016 RMK AO2 SLP173 T01331022 53001 $,M
P68,2024-07-05 08:53,-116.0056,39.6014,1993.00,50.00,16.00,25.50,170.00,6.00,0.00,30.33,1019.10,M,M,M,M,M,M,M,M,M,M,M,M,M,M,M,M,M,50.00,KP68 050853Z AUTO 17006KT 10/M09 A3033 RMK AO1 SLP191 T01001089 58003,M
DRA,2024-07-05 08:53,-116.0278,36.6206,1009.00,88.00,9.00,5.08,50.00,9.00,0.00,29.99,1009.10,10.00,M,CLR,M,M,M,M,M,M,M,M,M,M,M,M,M,M,82.98,KDRA 050853Z AUTO 05009KT 10SM CLR 31/M13 A2999 RMK AO2 SLP091 T03111128 50000,M
ELY,2024-07-05 08:53,-114.8453,39.2950,1909.00,48.00,22.00,35.53,170.00,10.00,0.00,30.35,1018.60,10.00,M,CLR,M,M,M,M,M,M,M,M,M,M,M,M,M,M,43.03,KELY 050853Z AUTO 17010KT 10SM CLR 09/M06 A3035 RMK AO2 SLP186 T00891056 58002,M
VGT,2024-07-05 08:53,-115.1933,36.2111,667.00,90.00,28.00,10.78,310.00,5.00,0.00,29.90,1010.50,10.00,M,CLR,M,M,M,M,M,M,M,M,M,M,M,M,M,M,85.43,KVGT 050853Z AUTO 31005KT 10SM CLR 32/M02 A2990 RMK AO2 SLP105 T03221022 51003,M
RNO,2024-07-05 08:55,-119.7711,39.4839,1341.00,75.00,40.00,28.31,250.00,3.00,0.00,30.23,1016.70,10.00,M,CLR,M,M,M,M,M,M,M,M,M,M,M,M,M,M,75.00,KRNO 050855Z 25003KT 10SM CLR 24/04 A3023 RMK AO2 SLP167 FU DSNT S THRU SW T02390044 52002,M
BVU,2024-07-05 08:55,-114.8611,35.9475,671.00,91.40,17.60,6.66,0.00,0.00,0.00,29.88,M,10.00,M,CLR,M,M,M,M,M,M,M,M,M,M,M,M,M,M,85.76,KBVU 050855Z AUTO 00000KT 10SM CLR 33/M08 A2988 RMK AO2,M
CXP,2024-07-05 08:55,-119.7326,39.1923,1431.00,69.80,37.40,30.49,0.00,0.00,0.00,30.27,M,10.00,M,CLR,M,M,M,M,M,M,M,M,M,M,M,M,M,M,69.80,KCXP 050855Z AUTO 00000KT 10SM CLR 21/03 A3027 RMK AO2,M
INS,2024-07-05 08:55,-115.6733,36.5872,955.00,79.50,13.00,7.98,200.00,4.00,0.00,30.00,1009.60,10.00,M,CLR,M,M,M,M,M,M,M,M,M,M,M,M,M,M,79.50,KINS 050855Z AUTO 20004KT 10SM CLR 26/M10 A3000 RMK AO2 SLP096 T02641105 50004 $,M
RTS,2024-07-05 08:55,-119.8764,39.6682,1539.00,68.00,30.20,24.32,350.00,6.00,0.00,30.28,M,10.00,M,CLR,M,M,M,M,M,M,M,M,M,M,M,M,M,M,68.00,KRTS 050855Z AUTO 35006KT 10SM CLR 20/M01 A3028 RMK AO2,M
MEV,2024-07-05 08:55,-119.7500,38.9963,1441.42,55.40,37.40,50.64,120.00,3.00,0.00,30.25,M,10.00,M,FEW,M,M,M,4900.00,M,M,M,M,M,M,M,M,M,M,55.40,KMEV 050855Z AUTO 12003KT 10SM FEW049 13/03 A3025 RMK AO2,M
BAM,2024-07-05 08:55,-116.8743,40.5990,1382.36,51.80,19.40,27.62,0.00,0.00,0.00,30.24,M,10.00,M,CLR,M,M,M,M,M,M,M,M,M,M,M,M,M,M,51.80,KBAM 050855Z AUTO 00000KT 10SM CLR 11/M07 A3024 RMK AO1,M
HTH,2024-07-05 08:55,-118.6315,38.5448,1282.89,71.60,19.40,13.71,250.00,4.00,0.00,30.19,M,10.00,M,CLR,M,M,M,M,M,M,M,M,M,M,M,M,M,M,71.60,KHTH 050855Z AUTO 25004KT 10SM CLR 22/M07 A3019 RMK A01,M
TMT,2024-07-05 08:55,-117.1971,39.4643,1749.34,46.60,30.20,52.60,0.00,0.00,0.00,30.34,M,10.00,M,CLR,M,M,M,M,M,M,M,M,M,M,M,M,M,M,46.60,KTMT 050855Z AUTO 00000KT 10SM CLR 08/M01 A3034 RMK AO2 T00811010,M
LSV,2024-07-05 08:55,-115.0343,36.2362,570.00,93.20,1.00,2.99,80.00,11.00,0.00,29.84,1007.00,10.00,M,CLR,M,M,M,M,M,M,M,M,M,M,M,M,M,M,86.50,KLSV 050855Z AUTO 08011KT 10SM CLR 34/M17 A2984 RMK AO2 SLP070 T03401172 50004 $,M
WMC,2024-07-05 08:56,-117.8072,40.9019,1315.00,66.00,21.00,17.78,160.00,3.00,0.00,30.21,1017.40,10.00,M,CLR,M,M,M,M,M,M,M,M,M,M,M,M,M,M,66.00,KWMC 050856Z AUTO 16003KT 10SM CLR 19/M06 A3021 RMK AO2 SLP174 T01891061 51002,M
NFL,2024-07-05 08:56,-118.7010,39.4166,1199.00,63.00,33.00,32.40,180.00,4.00,0.00,30.15,1017.50,10.00,M,CLR,M,M,M,M,M,M,M,M,M,M,M,M,M,M,63.00,KNFL 050856Z AUTO 18004KT 10SM CLR 17/01 A3015 RMK AO2 SLP175 T01720006 58001,M
EKO,2024-07-05 08:56,-115.7860,40.8242,1367.00,61.00,30.00,30.80,40.00,3.00,0.00,30.29,1019.90,10.00,M,CLR,M,M,M,M,M,M,M,M,M,M,M,M,M,M,61.00,KEKO 050856Z AUTO 04003KT 10SM CLR 16/M01 A3029 RMK AO2 SLP199 T01611011 50001,M
HND,2024-07-05 08:56,-115.1344,35.9729,742.79,83.00,33.00,16.50,170.00,6.00,0.00,29.95,1012.10,10.00,M,CLR,M,M,M,M,M,M,M,M,M,M,M,M,M,M,80.43,KHND 050856Z AUTO 17006KT 10SM CLR 28/01 A2995 RMK AO2 SLP121 T02830006 51005,M
TPH,2024-07-05 08:56,-117.0904,38.0505,1654.00,68.00,15.00,12.82,10.00,10.00,0.00,30.26,1015.50,10.00,M,CLR,M,M,M,M,M,M,M,M,M,M,M,M,M,M,68.00,KTPH 050856Z AUTO 01010KT 10SM CLR 20/M09 A3026 RMK AO2 SLP155 T02001094 51003,M
LAS,2024-07-05 08:56,-115.1634,36.0719,663.00,96.00,18.00,5.88,50.00,8.00,0.00,29.91,1009.30,10.00,M,CLR,M,M,M,M,M,M,M,M,M,M,M,M,M,M,89.24,KLAS 050856Z 05008KT 10SM CLR 36/M08 A2991 RMK AO2 SLP093 T03561078 53005,M
BVU,2024-07-05 09:15,-114.8611,35.9475,671.00,91.40,14.00,5.69,220.00,5.00,0.00,29.88,M,10.00,M,CLR,M,M,M,M,M,M,M,M,M,M,M,M,M,M,85.60,KBVU 050915Z AUTO 22005KT 10SM CLR 33/M10 A2988 RMK AO2,M
CXP,2024-07-05 09:15,-119.7326,39.1923,1431.00,66.20,39.20,37.03,0.00,0.00,0.00,30.26,M,10.00,M,CLR,M,M,M,M,M,M,M,M,M,M,M,M,M,M,66.20,KCXP 050915Z AUTO 00000KT 10SM CLR 19/04 A3026 RMK AO2,M
RTS,2024-07-05 09:15,-119.8764,39.6682,1539.00,62.60,30.20,29.35,360.00,8.00,0.00,30.28,M,10.00,M,CLR,M,M,M,M,M,M,M,M,M,M,M,M,M,M,62.60,KRTS 050915Z AUTO 36008KT 10SM CLR 17/M01 A3028 RMK AO2,M
05U,2024-07-05 09:15,-116.0051,39.6042,1811.23,50.00,17.60,27.33,0.00,0.00,0.00,30.35,M,10.00,M,M,M,M,M,M,M,M,M,M,M,M,M,M,M,M,50.00,K05U 050915Z AUTO 00000KT 10SM 10/M08 A3035 RMK A01,M
MEV,2024-07-05 09:15,-119.7500,38.9963,1441.42,55.40,35.60,47.16,40.00,4.00,0.00,30.25,M,10.00,M,FEW,M,M,M,5000.00,M,M,M,M,M,M,M,M,M,M,55.40,KMEV 050915Z AUTO 04004KT 10SM FEW050 13/02 A3025 RMK AO2,M
BAM,2024-07-05 09:15,-116.8743,40.5990,1382.36,51.80,19.40,27.62,0.00,0.00,0.00,30.24,M,10.00,M,CLR,M,M,M,M,M,M,M,M,M,M,M,M,M,M,51.80,KBAM 050915Z AUTO 00000KT 10SM CLR 11/M07 A3024 RMK AO1,M
HTH,2024-07-05 09:15,-118.6315,38.5448,1282.89,66.20,19.40,16.50,0.00,0.00,0.00,30.19,M,10.00,M,CLR,M,M,M,M,M,M,M,M,M,M,M,M,M,M,66.20,KHTH 050915Z AUTO 00000KT 10SM CLR 19/M07 A3019 RMK A01,M
TMT,2024-07-05 09:15,-117.1971,39.4643,1749.34,44.60,27.00,49.77,0.00,0.00,0.00,30.34,M,10.00,M,CLR,M,M,M,M,M,M,M,M,M,M,M,M,M,M,44.60,KTMT 050915Z AUTO 00000KT 10SM CLR 07/M03 A3034 RMK AO2 T00701027,M
05U,2024-07-05 09:35,-116.0051,39.6042,1811.23,50.00,12.20,21.59,0.00,0.00,0.00,30.35,M,10.00,M,M,M,M,M,M,M,M,M,M,M,M,M,M,M,M,50.00,K05U 050935Z AUTO 00000KT 10SM 10/M11 A3035 RMK A01,M
MEV,2024-07-05 09:35,-119.7500,38.9963,1441.42,57.20,35.60,44.19,0.00,0.00,0.00,30.25,M,10.00,M,FEW,FEW,SCT,M,3400.00,4300.00,4900.00,M,M,M,M,M,M,M,M,57.20,KMEV 050935Z AUTO 00000KT 10SM FEW034 FEW043 SCT049 14/02 A3025 RMK AO2,M
BAM,2024-07-05 09:35,-116.8743,40.5990,1382.36,51.80,21.20,29.82,10.00,3.00,0.00,30.24,M,10.00,M,CLR,M,M,M,M,M,M,M,M,M,M,M,M,M,M,51.80,KBAM 050935Z AUTO 01003KT 10SM CLR 11/M06 A3024 RMK AO1,M
HTH,2024-07-05 09:35,-118.6315,38.5448,1282.89,69.80,17.60,13.49,0.00,0.00,0.00,30.20,M,10.00,M,CLR,M,M,M,M,M,M,M,M,M,M,M,M,M,M,69.80,KHTH 050935Z AUTO 00000KT 10SM CLR 21/M08 A3020 RMK A01,M
BVU,2024-07-05 09:35,-114.8611,35.9475,671.00,89.60,12.20,5.57,260.00,5.00,0.00,29.89,M,10.00,M,CLR,M,M,M,M,M,M,M,M,M,M,M,M,M,M,84.23,KBVU 050935Z AUTO 26005KT 10SM CLR 32/M11 A2989 RMK AO2,M
CXP,2024-07-05 09:35,-119.7326,39.1923,1431.00,62.60,41.00,45.04,100.00,4.00,0.00,30.27,M,10.00,M,CLR,M,M,M,M,M,M,M,M,M,M,M,M,M,M,62.60,KCXP 050935Z AUTO 10004KT 10SM CLR 17/05 A3027 RMK AO2,M
RTS,2024-07-05 09:35,-119.8764,39.6682,1539.00,64.40,30.20,27.55,340.00,6.00,0.00,30.28,M,10.00,M,CLR,M,M,M,M,M,M,M,M,M,M,M,M,M,M,64.40,KRTS 050935Z AUTO 34006KT 10SM CLR 18/M01 A3028 RMK AO2,M
TMT,2024-07-05 09:35,-117.1971,39.4643,1749.34,47.00,25.50,42.71,0.00,0.00,0.00,30.34,M,10.00,M,CLR,M,M,M,M,M,M,M,M,M,M,M,M,M,M,47.00,KTMT 050935Z AUTO 00000KT 10SM CLR 08/M04 A3034 RMK AO2 T00831036,M
05U,2024-07-05 09:50,-116.0051,39.6042,1811.23,50.00,14.00,23.37,0.00,0.00,0.00,30.35,M,10.00,M,M,M,M,M,M,M,M,M,M,M,M,M,M,M,M,50.00,K05U 050950Z AUTO 00000KT 10SM 10/M10 A3035 RMK A01,M
P68,2024-07-05 09:53,-116.0056,39.6014,1993.00,50.00,17.00,26.63,190.00,6.00,0.00,30.33,1018.90,M,M,M,M,M,M,M,M,M,M,M,M,M,M,M,M,M,50.00,KP68 050953Z AUTO 19006KT 10/M08 A3033 RMK AO1 SLP189 T01001083,M
DRA,2024-07-05 09:53,-116.0278,36.6206,1009.00,88.00,11.00,5.55,60.00,12.00,0.00,30.01,1009.80,10.00,M,CLR,M,M,M,M,M,M,M,M,M,M,M,M,M,M,83.04,KDRA 050953Z AUTO 06012KT 10SM CLR 31/M12 A3001 RMK AO2 SLP098 T03111117,M
ELY,2024-07-05 09:53,-114.8453,39.2950,1909.00,47.00,19.00,32.47,180.00,11.00,0.00,30.35,1018.40,10.00,M,CLR,M,M,M,M,M,M,M,M,M,M,M,M,M,M,41.42,KELY 050953Z AUTO 18011KT 10SM CLR 08/M07 A3035 RMK AO2 SLP184 T00831072,M
VGT,2024-07-05 09:53,-115.1933,36.2111,667.00,87.00,29.00,12.35,300.00,4.00,0.00,29.91,1010.90,10.00,M,CLR,M,M,M,M,M,M,M,M,M,M,M,M,M,M,83.31,KVGT 050953Z AUTO 30004KT 10SM CLR 31/M02 A2991 RMK AO2 SLP109 T03061017,M
LOL,2024-07-05 09:53,-118.5701,40.0684,1192.43,56.00,30.00,36.85,M,4.00,0.00,30.17,1017.70,10.00,M,CLR,M,M,M,M,M,M,M,M,M,M,M,M,M,M,56.00,KLOL 050953Z AUTO VRB04KT 10SM CLR 13/M01 A3017 RMK AO2 SLP177 T01331011 $,M
BVU,2024-07-05 09:55,-114.8611,35.9475,671.00,89.60,12.20,5.57,M,5.00,0.00,29.89,M,10.00,M,CLR,M,M,M,M,M,M,M,M,M,M,M,M,M,M,84.23,KBVU 050955Z AUTO VRB05KT 10SM CLR 32/M11 A2989 RMK AO2,M
CXP,2024-07-05 09:55,-119.7326,39.1923,1431.00,62.60,41.00,45.04,0.00,0.00,0.00,30.26,M,10.00,M,CLR,M,M,M,M,M,M,M,M,M,M,M,M,M,M,62.60,KCXP 050955Z AUTO 00000KT 10SM CLR 17/05 A3026 RMK AO2,M
INS,2024-07-05 09:55,-115.6733,36.5872,955.00,76.00,7.30,6.94,220.00,3.00,0.00,30.00,1009.80,10.00,M,CLR,M,M,M,M,M,M,M,M,M,M,M,M,M,M,76.00,KINS 050955Z AUTO 22003KT 10SM CLR 24/M14 A3000 RMK AO2 SLP098 T02441137 $,M
RNO,2024-07-05 09:55,-119.7711,39.4839,1341.00,71.00,40.00,32.40,160.00,4.00,0.00,30.23,1016.90,10.00,M,CLR,M,M,M,M,M,M,M,M,M,M,M,M,M,M,71.00,KRNO 050955Z 16004KT 10SM CLR 22/04 A3023 RMK AO2 SLP169 FU S AND DSNT W T02170044,M
RTS,2024-07-05 09:55,-119.8764,39.6682,1539.00,60.80,30.20,31.28,360.00,7.00,0.00,30.28,M,10.00,M,CLR,M,M,M,M,M,M,M,M,M,M,M,M,M,M,60.80,KRTS 050955Z AUTO 36007KT 10SM CLR 16/M01 A3028 RMK AO2,M
MEV,2024-07-05 09:55,-119.7500,38.9963,1441.42,55.40,37.40,50.64,0.00,0.00,0.00,30.25,M,10.00,M,FEW,FEW,FEW,M,3400.00,4200.00,5000.00,M,M,M,M,M,M,M,M,55.40,KMEV 050955Z AUTO 00000KT 10SM FEW034 FEW042 FEW050 13/03 A3025 RMK AO2,M
BAM,2024-07-05 09:55,-116.8743,40.5990,1382.36,50.00,23.00,34.39,50.00,4.00,0.00,30.25,M,10.00,M,CLR,M,M,M,M,M,M,M,M,M,M,M,M,M,M,50.00,KBAM 050955Z AUTO 05004KT 10SM CLR 10/M05 A3025 RMK AO1,M
HTH,2024-07-05 09:55,-118.6315,38.5448,1282.89,68.00,23.00,18.06,250.00,4.00,0.00,30.20,M,10.00,M,CLR,M,M,M,M,M,M,M,M,M,M,M,M,M,M,68.00,KHTH 050955Z AUTO 25004KT 10SM CLR 20/M05 A3020 RMK A01,M
TMT,2024-07-05 09:55,-117.1971,39.4643,1749.34,45.00,25.00,45.12,290.00,3.00,0.00,30.34,M,10.00,M,CLR,M,M,M,M,M,M,M,M,M,M,M,M,M,M,43.55,KTMT 050955Z AUTO 29003KT 10SM CLR 07/M04 A3034 RMK AO2 T00721038,M
LSV,2024-07-05 09:55,-115.0343,36.2362,570.00,95.40,2.50,3.00,40.00,14.00,0.00,29.85,1007.20,10.00,M,CLR,M,M,M,M,M,M,M,M,M,M,M,M,M,M,88.12,KLSV 050955Z AUTO 04014KT 10SM CLR 35/M16 A2985 RMK AO2 SLP072 T03521164 $,M
EKO,2024-07-05 09:56,-115.7860,40.8242,1367.00,50.00,32.00,49.81,0.00,0.00,0.00,30.29,1020.70,10.00,M,CLR,M,M,M,M,M,M,M,M,M,M,M,M,M,M,50.00,KEKO 050956Z AUTO 00000KT 10SM CLR 10/00 A3029 RMK AO2 SLP207 T01000000,M
WMC,2024-07-05 09:56,-117.8072,40.9019,1315.00,69.00,23.00,17.45,70.00,9.00,0.00,30.22,1017.50,10.00,M,CLR,M,M,M,M,M,M,M,M,M,M,M,M,M,M,69.00,KWMC 050956Z AUTO 07009KT 10SM CLR 21/M05 A3022 RMK AO2 SLP175 T02061050,M
NFL,2024-07-05 09:56,-118.7010,39.4166,1199.00,67.00,35.00,30.53,0.00,0.00,0.00,30.16,1017.90,10.00,M,CLR,M,M,M,M,M,M,M,M,M,M,M,M,M,M,67.00,KNFL 050956Z AUTO 00000KT 10SM CLR 19/02 A3016 RMK AO2 SLP179 T01940017,M
HND,2024-07-05 09:56,-115.1344,35.9729,742.79,80.00,33.00,18.20,170.00,4.00,0.00,29.96,1012.40,10.00,M,CLR,M,M,M,M,M,M,M,M,M,M,M,M,M,M,78.56,KHND 050956Z AUTO 17004KT 10SM CLR 27/01 A2996 RMK AO2 SLP124 T02670006,M
TPH,2024-07-05 09:56,-117.0904,38.0505,1654.00,69.00,15.00,12.39,360.00,12.00,0.00,30.26,1015.20,10.00,M,CLR,M,M,M,M,M,M,M,M,M,M,M,M,M,M,69.00,KTPH 050956Z AUTO 36012KT 10SM CLR 21/M09 A3026 RMK AO2 SLP152 T02061094,M
LAS,2024-07-05 09:56,-115.1634,36.0719,663.00,94.00,21.00,7.10,350.00,5.00,0.00,29.92,1009.70,10.00,M,CLR,M,M,M,M,M,M,M,M,M,M,M,M,M,M,87.87,KLAS 050956Z 35005KT 10SM CLR 34/M06 A2992 RMK AO2 SLP097 T03441061,M
BVU,2024-07-05 10:15,-114.8611,35.9475,671.00,91.40,10.40,4.86,M,4.00,0.00,29.90,M,10.00,12.00,CLR,M,M,M,M,M,M,M,M,M,M,M,M,M,M,85.47,KBVU 051015Z AUTO VRB04G12KT 10SM CLR 33/M12 A2990 RMK AO2,M
CXP,2024-07-05 10:15,-119.7326,39.1923,1431.00,60.80,41.00,48.00,0.00,0.00,0.00,30.26,M,10.00,M,CLR,M,M,M,M,M,M,M,M,M,M,M,M,M,M,60.80,KCXP 051015Z AUTO 00000KT 10SM CLR 16/05 A3026 RMK AO2,M
RTS,2024-07-05 10:15,-119.8764,39.6682,1539.00,60.80,30.20,31.28,340.00,7.00,0.00,30.28,M,10.00,M,CLR,M,M,M,M,M,M,M,M,M,M,M,M,M,M,60.80,KRTS 051015Z AUTO 34007KT 10SM CLR 16/M01 A3028 RMK AO2,M
05U,2024-07-05 10:15,-116.0051,39.6042,1811.23,48.20,15.80,27.04,0.00,0.00,0.00,30.35,M,10.00,M,M,M,M,M,M,M,M,M,M,M,M,M,M,M,M,48.20,K05U 051015Z AUTO 00000KT 10SM 09/M09 A3035 RMK A01,M
MEV,2024-07-05 10:15,-119.7500,38.9963,1441.42,53.60,37.40,54.07,0.00,0.00,0.00,30.25,M,10.00,M,FEW,FEW,FEW,M,3400.00,4800.00,5500.00,M,M,M,M,M,M,M,M,53.60,KMEV 051015Z AUTO 00000KT 10SM FEW034 FEW048 FEW055 12/03 A3025 RMK AO2,M
BAM,2024-07-05 10:15,-116.8743,40.5990,1382.36,53.60,23.00,30.11,20.00,5.00,0.00,30.25,M,10.00,M,CLR,M,M,M,M,M,M,M,M,M,M,M,M,M,M,53.60,KBAM 051015Z AUTO 02005KT 10SM CLR 12/M05 A3025 RMK AO1,M
HTH,2024-07-05 10:15,-118.6315,38.5448,1282.89,68.00,24.80,19.47,180.00,4.00,0.00,30.20,M,10.00,M,CLR,M,M,M,M,M,M,M,M,M,M,M,M,M,M,68.00,KHTH 051015Z AUTO 18004KT 10SM CLR 20/M04 A3020 RMK A01,M
TMT,2024-07-05 10:15,-117.1971,39.4643,1749.34,44.40,26.20,48.52,0.00,0.00,0.00,30.34,M,10.00,M,CLR,M,M,M,M,M,M,M,M,M,M,M,M,M,M,44.40,KTMT 051015Z AUTO 00000KT 10SM CLR 07/M03 A3034 RMK AO2 T00691032,M
05U,2024-07-05 10:30,-116.0051,39.6042,1811.23,50.00,14.00,23.37,0.00,0.00,0.00,30.36,M,10.00,M,M,M,M,M,M,M,M,M,M,M,M,M,M,M,M,50.00,K05U 051030Z AUTO 00000KT 10SM 10/M10 A3036 RMK A01,M
BVU,2024-07-05 10:35,-114.8611,35.9475,671.00,95.00,10.40,4.34,0.00,0.00,0.00,29.90,M,10.00,M,CLR,M,M,M,M,M,M,M,M,M,M,M,M,M,M,88.04,KBVU 051035Z AUTO 00000KT 10SM CLR 35/M12 A2990 RMK AO2,M
CXP,2024-07-05 10:35,-119.7326,39.1923,1431.00,62.60,39.20,42.00,0.00,0.00,0.00,30.26,M,10.00,M,CLR,M,M,M,M,M,M,M,M,M,M,M,M,M,M,62.60,KCXP 051035Z AUTO 00000KT 10SM CLR 17/04 A3026 RMK AO2,M
RTS,2024-07-05 10:35,-119.8764,39.6682,1539.00,59.00,30.20,33.35,350.00,8.00,0.00,30.28,M,10.00,M,CLR,M,M,M,M,M,M,M,M,M,M,M,M,M,M,59.00,KRTS 051035Z AUTO 35008KT 10SM CLR 15/M01 A3028 RMK AO2,M
MEV,2024-07-05 10:35,-119.7500,38.9963,1441.42,53.60,37.40,54.07,120.00,4.00,0.00,30.25,M,10.00,M,FEW,FEW,M,M,4800.00,5500.00,M,M,M,M,M,M,M,M,M,53.60,KMEV 051035Z AUTO 12004KT 10SM FEW048 FEW055 12/03 A3025 RMK AO2,M
BAM,2024-07-05 10:35,-116.8743,40.5990,1382.36,50.00,21.20,31.87,0.00,0.00,0.00,30.25,M,10.00,M,CLR,M,M,M,M,M,M,M,M,M,M,M,M,M,M,50.00,KBAM 051035Z AUTO 00000KT 10SM CLR 10/M06 A3025 RMK AO1,M
HTH,2024-07-05 10:35,-118.6315,38.5448,1282.89,68.00,26.60,20.98,210.00,5.00,0.00,30.20,M,10.00,M,CLR,M,M,M,M,M,M,M,M,M,M,M,M,M,M,68.00,KHTH 051035Z AUTO 21005KT 10SM CLR 20/M03 A3020 RMK A01,M
TMT,2024-07-05 10:35,-117.1971,39.4643,1749.34,38.70,24.00,55.18,0.00,0.00,0.00,30.34,M,10.00,M,CLR,M,M,M,M,M,M,M,M,M,M,M,M,M,M,38.70,KTMT 051035Z AUTO 00000KT 10SM CLR 04/M04 A3034 RMK AO2 T00371044,M
P68,2024-07-05 10:53,-116.0056,39.6014,1993.00,51.00,17.00,25.66,190.00,6.00,0.00,30.33,1018.80,M,M,M,M,M,M,M,M,M,M,M,M,M,M,M,M,M,51.00,KP68 051053Z AUTO 19006KT 11/M08 A3033 RMK AO1 SLP188 T01061083,M
DRA,2024-07-05 10:53,-116.0278,36.6206,1009.00,85.00,11.00,6.11,50.00,11.00,0.00,30.02,1010.10,10.00,M,CLR,M,M,M,M,M,M,M,M,M,M,M,M,M,M,80.89,KDRA 051053Z AUTO 05011KT 10SM CLR 29/M12 A3002 RMK AO2 SLP101 T02941117,M
ELY,2024-07-05 10:53,-114.8453,39.2950,1909.00,44.00,19.00,36.39,180.00,12.00,0.00,30.36,1018.60,10.00,M,CLR,M,M,M,M,M,M,M,M,M,M,M,M,M,M,37.27,KELY 051053Z AUTO 18012KT 10SM CLR 07/M07 A3036 RMK AO2 SLP186 T00671072,M
VGT,2024-07-05 10:53,-115.1933,36.2111,667.00,88.00,28.00,11.48,330.00,4.00,0.00,29.92,1011.30,10.00,M,CLR,M,M,M,M,M,M,M,M,M,M,M,M,M,M,83.95,KVGT 051053Z AUTO 33004KT 10SM CLR 31/M02 A2992 RMK AO2 SLP113 T03111022,M
LOL,2024-07-05 10:53,-118.5701,40.0684,1192.43,56.00,27.00,32.59,320.00,3.00,0.00,30.17,1017.80,10.00,M,CLR,M,M,M,M,M,M,M,M,M,M,M,M,M,M,56.00,KLOL 051053Z AUTO 32003KT 10SM CLR 13/M03 A3017 RMK AO2 SLP178 T01331028 $,M
BVU,2024-07-05 10:55,-114.8611,35.9475,671.00,86.00,15.80,7.31,330.00,5.00,0.00,29.90,M,10.00,M,CLR,M,M,M,M,M,M,M,M,M,M,M,M,M,M,81.78,KBVU 051055Z AUTO 33005KT 10SM CLR 30/M09 A2990 RMK AO2,M
CXP,2024-07-05 10:55,-119.7326,39.1923,1431.00,60.80,39.20,44.76,0.00,0.00,0.00,30.27,M,10.00,M,CLR,M,M,M,M,M,M,M,M,M,M,M,M,M,M,60.80,KCXP 051055Z AUTO 00000KT 10SM CLR 16/04 A3027 RMK AO2,M
INS,2024-07-05 10:55,-115.6733,36.5872,955.00,73.00,10.80,8.98,0.00,0.00,0.00,30.01,1010.10,10.00,M,CLR,M,M,M,M,M,M,M,M,M,M,M,M,M,M,73.00,KINS 051055Z AUTO 00000KT 10SM CLR 23/M12 A3001 RMK AO2 SLP101 T02281118 $,M
RNO,2024-07-05 10:55,-119.7711,39.4839,1341.00,70.00,40.00,33.52,220.00,3.00,0.00,30.23,1017.00,10.00,M,CLR,M,M,M,M,M,M,M,M,M,M,M,M,M,M,70.00,KRNO 051055Z 22003KT 10SM CLR 21/04 A3023 RMK AO2 SLP170 FU DSNT S T02110044,M
RTS,2024-07-05 10:55,-119.8764,39.6682,1539.00,57.20,30.20,35.57,330.00,7.00,0.00,30.28,M,10.00,M,CLR,M,M,M,M,M,M,M,M,M,M,M,M,M,M,57.20,KRTS 051055Z AUTO 33007KT 10SM CLR 14/M01 A3028 RMK AO2,M
05U,2024-07-05 10:55,-116.0051,39.6042,1811.23,50.00,15.80,25.28,0.00,0.00,0.00,30.36,M,10.00,M,M,M,M,M,M,M,M,M,M,M,M,M,M,M,M,50.00,K05U 051055Z AUTO 00000KT 10SM 10/M09 A3036 RMK A01,M
MEV,2024-07-05 10:55,-119.7500,38.9963,1441.42,50.00,37.40,61.76,160.00,5.00,0.00,30.26,M,10.00,M,FEW,FEW,M,M,4900.00,5500.00,M,M,M,M,M,M,M,M,M,50.00,KMEV 051055Z AUTO 16005KT 10SM FEW049 FEW055 10/03 A3026 RMK AO2,M
BAM,2024-07-05 10:55,-116.8743,40.5990,1382.36,48.20,21.20,34.09,200.00,3.00,0.00,30.26,M,10.00,M,CLR,M,M,M,M,M,M,M,M,M,M,M,M,M,M,47.21,KBAM 051055Z AUTO 20003KT 10SM CLR 09/M06 A3026 RMK AO1,M
HTH,2024-07-05 10:55,-118.6315,38.5448,1282.89,68.00,26.60,20.98,200.00,4.00,0.00,30.20,M,10.00,M,CLR,M,M,M,M,M,M,M,M,M,M,M,M,M,M,68.00,KHTH 051055Z AUTO 20004KT 10SM CLR 20/M03 A3020 RMK A01,M
TMT,2024-07-05 10:55,-117.1971,39.4643,1749.34,37.40,23.00,55.68,170.00,3.00,0.00,30.34,M,10.00,M,CLR,M,M,M,M,M,M,M,M,M,M,M,M,M,M,34.86,KTMT 051055Z AUTO 17003KT 10SM CLR 03/M05 A3034 RMK AO2 T00301049,M
LSV,2024-07-05 10:55,-115.0343,36.2362,570.00,93.60,1.20,2.98,160.00,3.00,0.00,29.87,1008.00,10.00,M,CLR,M,M,M,M,M,M,M,M,M,M,M,M,M,M,86.79,KLSV 051055Z AUTO 16003KT 10SM CLR 34/M17 A2987 RMK AO2 SLP080 T03421171 $,M
EKO,2024-07-05 10:56,-115.7860,40.8242,1367.00,50.00,32.00,49.81,0.00,0.00,0.00,30.30,1020.80,10.00,M,CLR,M,M,M,M,M,M,M,M,M,M,M,M,M,M,50.00,KEKO 051056Z AUTO 00000KT 10SM CLR 10/00 A3030 RMK AO2 SLP208 T01000000,M
WMC,2024-07-05 10:56,-117.8072,40.9019,1315.00,49.00,26.00,40.45,130.00,3.00,0.00,30.22,1018.90,10.00,M,CLR,M,M,M,M,M,M,M,M,M,M,M,M,M,M,48.12,KWMC 051056Z AUTO 13003KT 10SM CLR 09/M03 A3022 RMK AO2 SLP189 T00941033,M
HND,2024-07-05 10:56,-115.1344,35.9729,742.79,79.00,32.00,18.06,170.00,6.00,0.00,29.97,1012.80,10.00,M,CLR,M,M,M,M,M,M,M,M,M,M,M,M,M,M,79.00,KHND 051056Z AUTO 17006KT 10SM CLR 26/00 A2997 RMK AO2 SLP128 T02610000,M
TPH,2024-07-05 10:56,-117.0904,38.0505,1654.00,67.00,15.00,13.27,350.00,13.00,0.00,30.27,1015.70,10.00,M,CLR,M,M,M,M,M,M,M,M,M,M,M,M,M,M,67.00,KTPH 051056Z AUTO 35013KT 10SM CLR 19/M09 A3027 RMK AO2 SLP157 T01941094,M
LAS,2024-07-05 10:56,-115.1634,36.0719,663.00,89.00,23.00,9.04,160.00,3.00,0.00,29.93,1010.10,10.00,M,CLR,M,M,M,M,M,M,M,M,M,M,M,M,M,M,84.31,KLAS 051056Z 16003KT 10SM CLR 32/M05 A2993 RMK AO2 SLP101 T03171050,M
NFL,2024-07-05 10:56,-118.7010,39.4166,1199.00,57.00,36.00,45.22,350.00,5.00,0.00,30.17,1018.00,10.00,M,CLR,M,M,M,M,M,M,M,M,M,M,M,M,M,M,57.00,KNFL 051056Z AUTO 35005KT 10SM CLR 14/02 A3017 RMK AO2 SLP180 T01390022,M
BVU,2024-07-05 11:15,-114.8611,35.9475,671.00,87.80,12.20,5.89,310.00,10.00,0.00,29.91,M,10.00,M,CLR,M,M,M,M,M,M,M,M,M,M,M,M,M,M,82.93,KBVU 051115Z AUTO 31010KT 10SM CLR 31/M11 A2991 RMK AO2,M
CXP,2024-07-05 11:15,-119.7326,39.1923,1431.00,59.00,41.00,51.18,0.00,0.00,0.00,30.27,M,10.00,M,CLR,M,M,M,M,M,M,M,M,M,M,M,M,M,M,59.00,KCXP 051115Z AUTO 00000KT 10SM CLR 15/05 A3027 RMK AO2,M
RTS,2024-07-05 11:15,-119.8764,39.6682,1539.00,60.80,32.00,33.64,360.00,6.00,0.00,30.28,M,10.00,M,CLR,M,M,M,M,M,M,M,M,M,M,M,M,M,M,60.80,KRTS 051115Z AUTO 36006KT 10SM CLR 16/M00 A3028 RMK AO2,M
05U,2024-07-05 11:15,-116.0051,39.6042,1811.23,46.40,15.80,28.93,0.00,0.00,0.00,30.36,M,10.00,M,M,M,M,M,M,M,M,M,M,M,M,M,M,M,M,46.40,K05U 051115Z AUTO 00000KT 10SM 08/M09 A3036 RMK A01,M
MEV,2024-07-05 11:15,-119.7500,38.9963,1441.42,50.00,33.80,53.54,120.00,6.00,0.00,30.26,M,10.00,M,FEW,FEW,M,M,4400.00,5000.00,M,M,M,M,M,M,M,M,M,50.00,KMEV 051115Z AUTO 12006KT 10SM FEW044 FEW050 10/01 A3026 RMK AO2,M
BAM,2024-07-05 11:15,-116.8743,40.5990,1382.36,48.20,21.20,34.09,0.00,0.00,0.00,30.26,M,10.00,M,CLR,M,M,M,M,M,M,M,M,M,M,M,M,M,M,48.20,KBAM 051115Z AUTO 00000KT 10SM CLR 09/M06 A3026 RMK AO1,M
HTH,2024-07-05 11:15,-118.6315,38.5448,1282.89,68.00,23.00,18.06,170.00,3.00,0.00,30.20,M,10.00,M,CLR,M,M,M,M,M,M,M,M,M,M,M,M,M,M,68.00,KHTH 051115Z AUTO 17003KT 10SM CLR 20/M05 A3020 RMK A01,M
TMT,2024-07-05 11:15,-117.1971,39.4643,1749.34,37.20,22.00,53.81,0.00,0.00,0.00,30.34,M,10.00,M,CLR,M,M,M,M,M,M,M,M,M,M,M,M,M,M,37.20,KTMT 051115Z AUTO 00000KT 10SM CLR 03/M06 A3034 RMK AO2 T00291056,M
05U,2024-07-05 11:35,-116.0051,39.6042,1811.23,44.60,17.60,33.49,0.00,0.00,0.00,30.36,M,10.00,M,M,M,M,M,M,M,M,M,M,M,M,M,M,M,M,44.60,K05U 051135Z AUTO 00000KT 10SM 07/M08 A3036 RMK A01,M
BVU,2024-07-05 11:35,-114.8611,35.9475,671.00,89.60,15.80,6.52,M,6.00,0.00,29.91,M,10.00,M,CLR,M,M,M,M,M,M,M,M,M,M,M,M,M,M,84.37,KBVU 051135Z AUTO VRB06KT 10SM CLR 32/M09 A2991 RMK AO2,M
CXP,2024-07-05 11:35,-119.7326,39.1923,1431.00,59.00,39.20,47.72,0.00,0.00,0.00,30.27,M,10.00,M,CLR,M,M,M,M,M,M,M,M,M,M,M,M,M,M,59.00,KCXP 051135Z AUTO 00000KT 10SM CLR 15/04 A3027 RMK AO2,M
RTS,2024-07-05 11:35,-119.8764,39.6682,1539.00,57.20,30.20,35.57,0.00,0.00,0.00,30.29,M,10.00,M,CLR,M,M,M,M,M,M,M,M,M,M,M,M,M,M,57.20,KRTS 051135Z AUTO 00000KT 10SM CLR 14/M01 A3029 RMK AO2,M
TMT,2024-07-05 11:35,-117.1971,39.4643,1749.34,39.40,23.40,52.36,250.00,3.00,0.00,30.35,M,10.00,M,CLR,M,M,M,M,M,M,M,M,M,M,M,M,M,M,37.15,KTMT 051135Z AUTO 25003KT 10SM CLR 04/M05 A3035 RMK AO2 T00411048,M
MEV,2024-07-05 11:35,-119.7500,38.9963,1441.42,51.80,35.60,53.81,120.00,5.00,0.00,30.26,M,10.00,M,FEW,FEW,M,M,4100.00,5000.00,M,M,M,M,M,M,M,M,M,51.80,KMEV 051135Z AUTO 12005KT 10SM FEW041 FEW050 11/02 A3026 RMK AO2,M
BAM,2024-07-05 11:35,-116.8743,40.5990,1382.36,48.20,23.00,36.78,0.00,0.00,0.00,30.27,M,10.00,M,CLR,M,M,M,M,M,M,M,M,M,M,M,M,M,M,48.20,KBAM 051135Z AUTO 00000KT 10SM CLR 09/M05 A3027 RMK AO1,M
HTH,2024-07-05 11:35,-118.6315,38.5448,1282.89,64.40,21.20,18.96,0.00,0.00,0.00,30.20,M,10.00,M,CLR,M,M,M,M,M,M,M,M,M,M,M,M,M,M,64.40,KHTH 051135Z AUTO 00000KT 10SM CLR 18/M06 A3020 RMK A01,M
P68,2024-07-05 11:53,-116.0056,39.6014,1993.00,50.00,16.00,25.50,170.00,6.00,0.00,30.34,1019.50,M,M,M,M,M,M,M,M,M,M,M,M,M,M,M,M,M,50.00,KP68 051153Z AUTO 17006KT 10/M09 A3034 RMK AO1 SLP195 T01001089 10133 20061 53005,M
DRA,2024-07-05 11:53,-116.0278,36.6206,1009.00,85.00,14.00,6.97,40.00,13.00,0.00,30.04,1010.90,10.00,M,CLR,M,M,M,M,M,M,M,M,M,M,M,M,M,M,81.00,KDRA 051153Z AUTO 04013KT 10SM CLR 29/M10 A3004 RMK AO2 SLP109 T02941100 10333 20283 53014,M
ELY,2024-07-05 11:53,-114.8453,39.2950,1909.00,43.00,19.00,37.81,180.00,12.00,0.00,30.37,1019.20,10.00,M,CLR,M,M,M,M,M,M,M,M,M,M,M,M,M,M,36.00,KELY 051153Z AUTO 18012KT 10SM CLR 06/M07 A3037 RMK AO2 SLP192 T00611072 10117 20061 53004,M
VGT,2024-07-05 11:53,-115.1933,36.2111,667.00,87.00,25.00,10.47,300.00,4.00,0.00,29.94,1011.90,10.00,M,CLR,M,M,M,M,M,M,M,M,M,M,M,M,M,M,82.99,KVGT 051153Z AUTO 30004KT 10SM CLR 31/M04 A2994 RMK AO2 SLP119 T03061039 10361 20294 53013,M
LOL,2024-07-05 11:53,-118.5701,40.0684,1192.43,52.00,32.00,46.25,100.00,4.00,0.00,30.19,1018.50,10.00,M,CLR,M,M,M,M,M,M,M,M,M,M,M,M,M,M,52.00,KLOL 051153Z AUTO 10004KT 10SM CLR 11/00 A3019 RMK AO2 SLP185 T01110000 10239 20100 53009 $,M
BVU,2024-07-05 11:55,-114.8611,35.9475,671.00,84.20,17.60,8.37,120.00,4.00,0.00,29.92,M,10.00,M,CLR,M,M,M,M,M,M,M,M,M,M,M,M,M,M,80.59,KBVU 051155Z AUTO 12004KT 10SM CLR 29/M08 A2992 RMK AO2,M
CXP,2024-07-05 11:55,-119.7326,39.1923,1431.00,59.00,41.00,51.18,0.00,0.00,0.00,30.27,M,10.00,M,CLR,M,M,M,M,M,M,M,M,M,M,M,M,M,M,59.00,KCXP 051155Z AUTO 00000KT 10SM CLR 15/05 A3027 RMK AO2,M
INS,2024-07-05 11:55,-115.6733,36.5872,955.00,73.60,11.30,9.00,90.00,5.00,0.00,30.03,1010.80,10.00,M,CLR,M,M,M,M,M,M,M,M,M,M,M,M,M,M,73.60,KINS 051155Z AUTO 09005KT 10SM CLR 23/M11 A3003 RMK AO2 SLP108 T02311115 10320 20223 52011 $,M
RNO,2024-07-05 11:55,-119.7711,39.4839,1341.00,70.00,40.00,33.52,260.00,3.00,0.00,30.24,1017.40,10.00,M,CLR,M,M,M,M,M,M,M,M,M,M,M,M,M,M,70.00,KRNO 051155Z 26003KT 10SM CLR 21/04 A3024 RMK AO2 SLP174 FU DSNT S T02110044 10294 20200 53004,M
RTS,2024-07-05 11:55,-119.8764,39.6682,1539.00,55.40,32.00,40.84,330.00,7.00,0.00,30.29,M,10.00,M,CLR,M,M,M,M,M,M,M,M,M,M,M,M,M,M,55.40,KRTS 051155Z AUTO 33007KT 10SM CLR 13/M00 A3029 RMK AO2,M
05U,2024-07-05 11:55,-116.0051,39.6042,1811.23,48.20,14.00,24.99,0.00,0.00,0.00,30.37,M,10.00,M,M,M,M,M,M,M,M,M,M,M,M,M,M,M,M,48.20,K05U 051155Z AUTO 00000KT 10SM 09/M10 A3037 RMK A01,M
MEV,2024-07-05 11:55,-119.7500,38.9963,1441.42,50.00,35.60,57.52,120.00,5.00,0.00,30.26,M,10.00,M,FEW,FEW,M,M,3900.00,4700.00,M,M,M,M,M,M,M,M,M,50.00,KMEV 051155Z AUTO 12005KT 10SM FEW039 FEW047 10/02 A3026 RMK AO2,M
BAM,2024-07-05 11:55,-116.8743,40.5990,1382.36,46.40,23.00,39.36,0.00,0.00,0.00,30.27,M,10.00,M,CLR,M,M,M,M,M,M,M,M,M,M,M,M,M,M,46.40,KBAM 051155Z AUTO 00000KT 10SM CLR 08/M05 A3027 RMK AO1,M
HTH,2024-07-05 11:55,-118.6315,38.5448,1282.89,60.80,17.60,18.46,0.00,0.00,0.00,30.21,M,10.00,M,CLR,M,M,M,M,M,M,M,M,M,M,M,M,M,M,60.80,KHTH 051155Z AUTO 00000KT 10SM CLR 16/M08 A3021 RMK A01,M
TMT,2024-07-05 11:55,-117.1971,39.4643,1749.34,39.60,28.80,64.98,0.00,0.00,0.00,30.35,M,10.00,M,CLR,M,M,M,M,M,M,M,M,M,M,M,M,M,M,39.60,KTMT 051155Z AUTO 00000KT 10SM CLR 04/M02 A3035 RMK AO2 T00421018 10134 20023,M
LSV,2024-07-05 11:55,-115.0343,36.2362,570.00,94.30,1.80,3.00,50.00,6.00,0.00,29.88,1008.20,10.00,M,CLR,M,M,M,M,M,M,M,M,M,M,M,M,M,M,87.29,KLSV 051155Z AUTO 05006KT 10SM CLR 35/M17 A2988 RMK AO2 SLP082 T03461168 10366 20316 52014 $,M
EKO,2024-07-05 11:56,-115.7860,40.8242,1367.00,52.00,27.00,37.72,80.00,3.00,0.00,30.31,1021.10,10.00,M,CLR,M,M,M,M,M,M,M,M,M,M,M,M,M,M,52.00,KEKO 051156Z AUTO 08003KT 10SM CLR 11/M03 A3031 RMK AO2 SLP211 T01111028 10183 20094 53007,M
WMC,2024-07-05 11:56,-117.8072,40.9019,1315.00,45.00,22.00,39.79,150.00,6.00,0.00,30.23,1019.60,10.00,M,CLR,M,M,M,M,M,M,M,M,M,M,M,M,M,M,41.19,KWMC 051156Z AUTO 15006KT 10SM CLR 07/M06 A3023 RMK AO2 SLP196 T00721056 10244 20072 53007,M
NFL,2024-07-05 11:56,-118.7010,39.4166,1199.00,60.00,34.00,37.50,230.00,3.00,0.00,30.18,1018.30,10.00,M,CLR,M,M,M,M,M,M,M,M,M,M,M,M,M,M,60.00,KNFL 051156Z AUTO 23003KT 10SM CLR 16/01 A3018 RMK AO2 SLP183 T01560011 10233 20139 52008,M
HND,2024-07-05 11:56,-115.1344,35.9729,742.79,77.00,31.00,18.53,150.00,4.00,0.00,29.98,1013.40,10.00,M,CLR,M,M,M,M,M,M,M,M,M,M,M,M,M,M,77.00,KHND 051156Z AUTO 15004KT 10SM CLR 25/M01 A2998 RMK AO2 SLP134 T02501006 10328 20250 53011,M
TPH,2024-07-05 11:56,-117.0904,38.0505,1654.00,65.00,15.00,14.22,360.00,14.00,0.00,30.28,1016.30,10.00,M,CLR,M,M,M,M,M,M,M,M,M,M,M,M,M,M,65.00,KTPH 051156Z AUTO 36014KT 10SM CLR 18/M09 A3028 RMK AO2 SLP163 T01831094 10244 20183 53006,M
LAS,2024-07-05 11:56,-115.1634,36.0719,663.00,87.00,23.00,9.63,250.00,4.00,0.00,29.95,1010.70,10.00,M,CLR,M,M,M,M,M,M,M,M,M,M,M,M,M,M,82.86,KLAS 051156Z 25004KT 10SM CLR 31/M05 A2995 RMK AO2 SLP107 T03061050 10372 20306 53012,M
BVU,2024-07-05 12:15,-114.8611,35.9475,671.00,82.40,23.00,11.16,0.00,0.00,0.00,29.93,M,10.00,M,CLR,M,M,M,M,M,M,M,M,M,M,M,M,M,M,79.67,KBVU 051215Z AUTO 00000KT 10SM CLR 28/M05 A2993 RMK AO2,M
CXP,2024-07-05 12:15,-119.7326,39.1923,1431.00,57.20,39.20,50.91,0.00,0.00,0.00,30.28,M,10.00,M,CLR,M,M,M,M,M,M,M,M,M,M,M,M,M,M,57.20,KCXP 051215Z AUTO 00000KT 10SM CLR 14/04 A3028 RMK AO2,M
RTS,2024-07-05 12:15,-119.8764,39.6682,1539.00,53.60,30.20,40.54,330.00,7.00,0.00,30.29,M,10.00,M,CLR,M,M,M,M,M,M,M,M,M,M,M,M,M,M,53.60,KRTS 051215Z AUTO 33007KT 10SM CLR 12/M01 A3029 RMK AO2,M
05U,2024-07-05 12:15,-116.0051,39.6042,1811.23,46.40,14.00,26.75,0.00,0.00,0.00,30.37,M,10.00,M,M,M,M,M,M,M,M,M,M,M,M,M,M,M,M,46.40,K05U 051215Z AUTO 00000KT 10SM 08/M10 A3037 RMK A01,M
MEV,2024-07-05 12:15,-119.7500,38.9963,1441.42,48.20,33.80,57.26,130.00,6.00,0.00,30.27,M,10.00,M,FEW,FEW,M,M,3900.00,4700.00,M,M,M,M,M,M,M,M,M,45.04,KMEV 051215Z AUTO 13006KT 10SM FEW039 FEW047 09/01 A3027 RMK AO2,M
BAM,2024-07-05 12:15,-116.8743,40.5990,1382.36,50.00,23.00,34.39,0.00,0.00,0.00,30.27,M,10.00,M,CLR,M,M,M,M,M,M,M,M,M,M,M,M,M,M,50.00,KBAM 051215Z AUTO 00000KT 10SM CLR 10/M05 A3027 RMK AO1,M
HTH,2024-07-05 12:15,-118.6315,38.5448,1282.89,64.40,19.40,17.56,0.00,0.00,0.00,30.21,M,10.00,M,CLR,M,M,M,M,M,M,M,M,M,M,M,M,M,M,64.40,KHTH 051215Z AUTO 00000KT 10SM CLR 18/M07 A3021 RMK A01,M
TMT,2024-07-05 12:15,-117.1971,39.4643,1749.34,39.70,27.00,60.11,0.00,0.00,0.00,30.36,M,10.00,M,CLR,M,M,M,M,M,M,M,M,M,M,M,M,M,M,39.70,KTMT 051215Z AUTO 00000KT 10SM CLR 04/M03 A3036 RMK AO2 T00431028,M
BVU,2024-07-05 12:35,-114.8611,35.9475,671.00,80.60,30.20,15.94,40.00,4.00,0.00,29.93,M,10.00,M,CLR,M,M,M,M,M,M,M,M,M,M,M,M,M,M,78.77,KBVU 051235Z AUTO 04004KT 10SM CLR 27/M01 A2993 RMK AO2,M
CXP,2024-07-05 12:35,-119.7326,39.1923,1431.00,60.80,39.20,44.76,0.00,0.00,0.00,30.28,M,10.00,M,CLR,M,M,M,M,M,M,M,M,M,M,M,M,M,M,60.80,KCXP 051235Z AUTO 00000KT 10SM CLR 16/04 A3028 RMK AO2,M
RTS,2024-07-05 12:35,-119.8764,39.6682,1539.00,51.80,28.40,40.25,350.00,8.00,0.00,30.29,M,10.00,M,CLR,M,M,M,M,M,M,M,M,M,M,M,M,M,M,51.80,KRTS 051235Z AUTO 35008KT 10SM CLR 11/M02 A3029 RMK AO2,M
05U,2024-07-05 12:35,-116.0051,39.6042,1811.23,46.40,19.40,33.79,0.00,0.00,0.00,30.37,M,10.00,M,M,M,M,M,M,M,M,M,M,M,M,M,M,M,M,46.40,K05U 051235Z AUTO 00000KT 10SM 08/M07 A3037 RMK A01,M
MEV,2024-07-05 12:35,-119.7500,38.9963,1441.42,50.00,33.80,53.54,0.00,0.00,0.00,30.27,M,10.00,M,CLR,M,M,M,M,M,M,M,M,M,M,M,M,M,M,50.00,KMEV 051235Z AUTO 00000KT 10SM CLR 10/01 A3027 RMK AO2,M
BAM,2024-07-05 12:35,-116.8743,40.5990,1382.36,46.40,23.00,39.36,0.00,0.00,0.00,30.28,M,10.00,M,CLR,M,M,M,M,M,M,M,M,M,M,M,M,M,M,46.40,KBAM 051235Z AUTO 00000KT 10SM CLR 08/M05 A3028 RMK AO1,M
HTH,2024-07-05 12:35,-118.6315,38.5448,1282.89,64.40,21.20,18.96,0.00,0.00,0.00,30.21,M,10.00,M,CLR,M,M,M,M,M,M,M,M,M,M,M,M,M,M,64.40,KHTH 051235Z AUTO 00000KT 10SM CLR 18/M06 A3021 RMK A01,M
TMT,2024-07-05 12:35,-117.1971,39.4643,1749.34,35.80,24.00,61.85,0.00,0.00,0.00,30.36,M,10.00,M,CLR,M,M,M,M,M,M,M,M,M,M,M,M,M,M,35.80,KTMT 051235Z AUTO 00000KT 10SM CLR 02/M04 A3036 RMK AO2 T00211044,M
P68,2024-07-05 12:53,-116.0056,39.6014,1993.00,46.00,19.00,33.72,210.00,7.00,0.00,30.35,1020.20,M,M,M,M,M,M,M,M,M,M,M,M,M,M,M,M,M,41.84,KP68 051253Z AUTO 21007KT 08/M07 A3035 RMK AO1 SLP202 T00781072,M
DRA,2024-07-05 12:53,-116.0278,36.6206,1009.00,83.00,15.00,7.77,40.00,14.00,0.00,30.05,1011.30,10.00,M,CLR,M,M,M,M,M,M,M,M,M,M,M,M,M,M,79.65,KDRA 051253Z AUTO 04014KT 10SM CLR 28/M09 A3005 RMK AO2 SLP113 T02831094,M
ELY,2024-07-05 12:53,-114.8453,39.2950,1909.00,41.00,20.00,42.62,180.00,11.00,0.00,30.38,1019.90,10.00,M,CLR,M,M,M,M,M,M,M,M,M,M,M,M,M,M,33.84,KELY 051253Z AUTO 18011KT 10SM CLR 05/M07 A3038 RMK AO2 SLP199 T00501067,M
VGT,2024-07-05 12:53,-115.1933,36.2111,667.00,84.00,29.00,13.59,150.00,3.00,0.00,29.96,1012.70,10.00,M,CLR,M,M,M,M,M,M,M,M,M,M,M,M,M,M,81.10,KVGT 051253Z 15003KT 10SM CLR 29/M02 A2996 RMK AO2 SLP127 T02891017,M
LOL,2024-07-05 12:53,-118.5701,40.0684,1192.43,50.00,30.00,45.93,0.00,0.00,0.00,30.20,1018.90,10.00,M,CLR,M,M,M,M,M,M,M,M,M,M,M,M,M,M,50.00,KLOL 051253Z AUTO 00000KT 10SM CLR 10/M01 A3020 RMK AO2 SLP189 T01001011 $,M
05U,2024-07-05 12:55,-116.0051,39.6042,1811.23,46.40,17.60,31.28,0.00,0.00,0.00,30.38,M,10.00,M,M,M,M,M,M,M,M,M,M,M,M,M,M,M,M,46.40,K05U 051255Z AUTO 00000KT 10SM 08/M08 A3038 RMK A01,M
MEV,2024-07-05 12:55,-119.7500,38.9963,1441.42,51.80,33.80,50.08,70.00,3.00,0.00,30.27,M,10.00,M,CLR,M,M,M,M,M,M,M,M,M,M,M,M,M,M,51.80,KMEV 051255Z AUTO 07003KT 10SM CLR 11/01 A3027 RMK AO2,M
BAM,2024-07-05 12:55,-116.8743,40.5990,1382.36,44.60,21.20,39.06,0.00,0.00,0.00,30.28,M,10.00,M,CLR,M,M,M,M,M,M,M,M,M,M,M,M,M,M,44.60,KBAM 051255Z AUTO 00000KT 10SM CLR 07/M06 A3028 RMK AO1,M
HTH,2024-07-05 12:55,-118.6315,38.5448,1282.89,66.20,19.40,16.50,260.00,3.00,0.00,30.22,M,10.00,M,CLR,M,M,M,M,M,M,M,M,M,M,M,M,M,M,66.20,KHTH 051255Z AUTO 26003KT 10SM CLR 19/M07 A3022 RMK A01,M
BVU,2024-07-05 12:55,-114.8611,35.9475,671.00,84.20,19.40,9.04,100.00,3.00,0.00,29.94,M,10.00,M,CLR,M,M,M,M,M,M,M,M,M,M,M,M,M,M,80.68,KBVU 051255Z AUTO 10003KT 10SM CLR 29/M07 A2994 RMK AO2,M
CXP,2024-07-05 12:55,-119.7326,39.1923,1431.00,60.80,39.20,44.76,0.00,0.00,0.00,30.28,M,10.00,M,CLR,M,M,M,M,M,M,M,M,M,M,M,M,M,M,60.80,KCXP 051255Z AUTO 00000KT 10SM CLR 16/04 A3028 RMK AO2,M
INS,2024-07-05 12:55,-115.6733,36.5872,955.00,73.80,5.70,6.95,240.00,3.00,0.00,30.05,1011.50,10.00,M,CLR,M,M,M,M,M,M,M,M,M,M,M,M,M,M,73.80,KINS 051255Z AUTO 24003KT 10SM CLR 23/M15 A3005 RMK AO2 SLP115 T02321146 $,M
RNO,2024-07-05 12:55,-119.7711,39.4839,1341.00,67.00,42.00,40.15,0.00,0.00,0.00,30.26,1018.10,10.00,M,CLR,M,M,M,M,M,M,M,M,M,M,M,M,M,M,67.00,KRNO 051255Z 00000KT 10SM CLR 19/06 A3026 RMK AO2 SLP181 T01940056,M
RTS,2024-07-05 12:55,-119.8764,39.6682,1539.00,55.40,30.20,37.97,0.00,0.00,0.00,30.29,M,10.00,M,CLR,M,M,M,M,M,M,M,M,M,M,M,M,M,M,55.40,KRTS 051255Z AUTO 00000KT 10SM CLR 13/M01 A3029 RMK AO2,M
TMT,2024-07-05 12:55,-117.1971,39.4643,1749.34,37.80,23.00,54.81,0.00,0.00,0.00,30.36,M,10.00,M,CLR,M,M,M,M,M,M,M,M,M,M,M,M,M,M,37.80,KTMT 051255Z AUTO 00000KT 10SM CLR 03/M05 A3036 RMK AO2 T00321050,M
LSV,2024-07-05 12:55,-115.0343,36.2362,570.00,93.00,1.00,3.01,60.00,9.00,0.00,29.91,1009.30,10.00,M,CLR,M,M,M,M,M,M,M,M,M,M,M,M,M,M,86.36,KLSV 051255Z AUTO 06009KT 10SM CLR 34/M17 A2991 RMK AO2 SLP093 T03391173 $,M
EKO,2024-07-05 12:56,-115.7860,40.8242,1367.00,51.00,29.00,42.49,100.00,4.00,0.00,30.32,1021.40,10.00,M,CLR,M,M,M,M,M,M,M,M,M,M,M,M,M,M,51.00,KEKO 051256Z AUTO 10004KT 10SM CLR 11/M02 A3032 RMK AO2 SLP214 T01061017,M
WMC,2024-07-05 12:56,-117.8072,40.9019,1315.00,49.00,22.00,34.22,150.00,7.00,0.00,30.24,1019.40,10.00,M,CLR,M,M,M,M,M,M,M,M,M,M,M,M,M,M,45.50,KWMC 051256Z AUTO 15007KT 10SM CLR 09/M06 A3024 RMK AO2 SLP194 T00941056,M
NFL,2024-07-05 12:56,-118.7010,39.4166,1199.00,60.00,36.00,40.61,230.00,6.00,0.00,30.19,1018.70,10.00,M,CLR,M,M,M,M,M,M,M,M,M,M,M,M,M,M,60.00,KNFL 051256Z AUTO 23006KT 10SM CLR 16/02 A3019 RMK AO2 SLP187 T01560022,M
HND,2024-07-05 12:56,-115.1344,35.9729,742.79,77.00,28.00,16.40,160.00,3.00,0.00,30.00,1014.10,10.00,M,CLR,M,M,M,M,M,M,M,M,M,M,M,M,M,M,77.00,KHND 051256Z AUTO 16003KT 10SM CLR 25/M02 A3000 RMK AO2 SLP141 T02501022,M
TPH,2024-07-05 12:56,-117.0904,38.0505,1654.00,65.00,15.00,14.22,360.00,11.00,0.00,30.30,1016.90,10.00,M,CLR,M,M,M,M,M,M,M,M,M,M,M,M,M,M,65.00,KTPH 051256Z AUTO 36011KT 10SM CLR 18/M09 A3030 RMK AO2 SLP169 T01831094,M
LAS,2024-07-05 12:56,-115.1634,36.0719,663.00,86.00,21.00,9.13,230.00,4.00,0.00,29.97,1011.50,10.00,M,CLR,M,M,M,M,M,M,M,M,M,M,M,M,M,M,82.02,KLAS 051256Z 23004KT 10SM CLR 30/M06 A2997 RMK AO2 SLP115 T03001061,M
BVU,2024-07-05 13:15,-114.8611,35.9475,671.00,84.20,21.20,9.76,0.00,0.00,0.00,29.95,M,10.00,M,CLR,M,M,M,M,M,M,M,M,M,M,M,M,M,M,80.77,KBVU 051315Z AUTO 00000KT 10SM CLR 29/M06 A2995 RMK AO2,M
CXP,2024-07-05 13:15,-119.7326,39.1923,1431.00,60.80,39.20,44.76,0.00,0.00,0.00,30.29,M,10.00,M,CLR,M,M,M,M,M,M,M,M,M,M,M,M,M,M,60.80,KCXP 051315Z AUTO 00000KT 10SM CLR 16/04 A3029 RMK AO2,M
RTS,2024-07-05 13:15,-119.8764,39.6682,1539.00,57.20,32.00,38.26,0.00,0.00,0.00,30.30,M,10.00,M,CLR,M,M,M,M,M,M,M,M,M,M,M,M,M,M,57.20,KRTS 051315Z AUTO 00000KT 10SM CLR 14/M00 A3030 RMK AO2,M
05U,2024-07-05 13:15,-116.0051,39.6042,1811.23,51.80,17.60,25.56,0.00,0.00,0.00,30.38,M,10.00,M,M,M,M,M,M,M,M,M,M,M,M,M,M,M,M,51.80,K05U 051315Z AUTO 00000KT 10SM 11/M08 A3038 RMK A01,M
MEV,2024-07-05 13:15,-119.7500,38.9963,1441.42,51.80,37.40,57.77,0.00,0.00,0.00,30.27,M,10.00,M,CLR,M,M,M,M,M,M,M,M,M,M,M,M,M,M,51.80,KMEV 051315Z AUTO 00000KT 10SM CLR 11/03 A3027 RMK AO2,M
BAM,2024-07-05 13:15,-116.8743,40.5990,1382.36,48.20,21.20,34.09,0.00,0.00,0.00,30.28,M,10.00,M,CLR,M,M,M,M,M,M,M,M,M,M,M,M,M,M,48.20,KBAM 051315Z AUTO 00000KT 10SM CLR 09/M06 A3028 RMK AO1,M
HTH,2024-07-05 13:15,-118.6315,38.5448,1282.89,66.20,21.20,17.81,260.00,7.00,0.00,30.22,M,10.00,M,CLR,M,M,M,M,M,M,M,M,M,M,M,M,M,M,66.20,KHTH 051315Z AUTO 26007KT 10SM CLR 19/M06 A3022 RMK A01,M
TMT,2024-07-05 13:15,-117.1971,39.4643,1749.34,41.70,24.60,50.36,0.00,0.00,0.00,30.36,M,10.00,M,CLR,M,M,M,M,M,M,M,M,M,M,M,M,M,M,41.70,KTMT 051315Z AUTO 00000KT 10SM CLR 05/M04 A3036 RMK AO2 T00541041,M
CXP,2024-07-05 13:30,-119.7326,39.1923,1431.00,60.80,39.20,44.76,300.00,3.00,0.00,30.29,M,10.00,M,CLR,M,M,M,M,M,M,M,M,M,M,M,M,M,M,60.80,KCXP 051330Z AUTO 30003KT 10SM CLR 16/04 A3029 RMK AO2,M
BVU,2024-07-05 13:35,-114.8611,35.9475,671.00,86.00,19.40,8.53,0.00,0.00,0.00,29.95,M,10.00,M,CLR,M,M,M,M,M,M,M,M,M,M,M,M,M,M,81.94,KBVU 051335Z AUTO 00000KT 10SM CLR 30/M07 A2995 RMK AO2,M
RTS,2024-07-05 13:35,-119.8764,39.6682,1539.00,59.00,33.80,38.56,10.00,3.00,0.00,30.30,M,10.00,M,CLR,M,M,M,M,M,M,M,M,M,M,M,M,M,M,59.00,KRTS 051335Z AUTO 01003KT 10SM CLR 15/01 A3030 RMK AO2,M
TMT,2024-07-05 13:35,-117.1971,39.4643,1749.34,46.20,24.60,42.40,0.00,0.00,0.00,30.36,M,10.00,M,CLR,M,M,M,M,M,M,M,M,M,M,M,M,M,M,46.20,KTMT 051335Z AUTO 00000KT 10SM CLR 08/M04 A3036 RMK AO2 T00791041,M
05U,2024-07-05 13:35,-116.0051,39.6042,1811.23,55.40,19.40,24.21,0.00,0.00,0.00,30.38,M,10.00,M,M,M,M,M,M,M,M,M,M,M,M,M,M,M,M,55.40,K05U 051335Z AUTO 00000KT 10SM 13/M07 A3038 RMK A01,M
MEV,2024-07-05 13:35,-119.7500,38.9963,1441.42,53.60,39.20,58.02,0.00,0.00,0.00,30.28,M,10.00,M,CLR,M,M,M,M,M,M,M,M,M,M,M,M,M,M,53.60,KMEV 051335Z AUTO 00000KT 10SM CLR 12/04 A3028 RMK AO2,M
BAM,2024-07-05 13:35,-116.8743,40.5990,1382.36,53.60,26.60,34.98,0.00,0.00,0.00,30.28,M,10.00,M,CLR,M,M,M,M,M,M,M,M,M,M,M,M,M,M,53.60,KBAM 051335Z AUTO 00000KT 10SM CLR 12/M03 A3028 RMK AO1,M
HTH,2024-07-05 13:35,-118.6315,38.5448,1282.89,64.40,17.60,16.26,290.00,5.00,0.00,30.24,M,10.00,M,CLR,M,M,M,M,M,M,M,M,M,M,M,M,M,M,64.40,KHTH 051335Z AUTO 29005KT 10SM CLR 18/M08 A3024 RMK A01,M
P68,2024-07-05 13:53,-116.0056,39.6014,1993.00,58.00,20.00,22.61,210.00,3.00,0.00,30.36,1019.40,M,M,M,M,M,M,M,M,M,M,M,M,M,M,M,M,M,58.00,KP68 051353Z AUTO 21003KT 14/M07 A3036 RMK AO1 SLP194 T01441067,M
DRA,2024-07-05 13:53,-116.0278,36.6206,1009.00,86.00,16.00,7.37,40.00,15.00,0.00,30.07,1012.00,10.00,M,CLR,M,M,M,M,M,M,M,M,M,M,M,M,M,M,81.78,KDRA 051353Z AUTO 04015KT 10SM CLR 30/M09 A3007 RMK AO2 SLP120 T03001089,M
ELY,2024-07-05 13:53,-114.8453,39.2950,1909.00,51.00,20.00,29.18,190.00,9.00,0.00,30.39,1019.10,10.00,M,CLR,M,M,M,M,M,M,M,M,M,M,M,M,M,M,51.00,KELY 051353Z AUTO 19009KT 10SM CLR 11/M07 A3039 RMK AO2 SLP191 T01061067,M
VGT,2024-07-05 13:53,-115.1933,36.2111,667.00,89.00,22.00,8.66,330.00,7.00,0.00,29.98,1013.20,10.00,M,CLR,M,M,M,M,M,M,M,M,M,M,M,M,M,M,84.25,KVGT 051353Z 33007KT 10SM CLR 32/M06 A2998 RMK AO2 SLP132 T03171056,M
LOL,2024-07-05 13:53,-118.5701,40.0684,1192.43,60.00,30.00,31.92,170.00,3.00,0.00,30.21,1018.60,10.00,M,CLR,M,M,M,M,M,M,M,M,M,M,M,M,M,M,60.00,KLOL 051353Z AUTO 17003KT 10SM CLR 16/M01 A3021 RMK AO2 SLP186 T01561011,M
BVU,2024-07-05 13:55,-114.8611,35.9475,671.00,87.80,17.60,7.46,0.00,0.00,0.00,29.96,M,10.00,M,CLR,M,M,M,M,M,M,M,M,M,M,M,M,M,M,83.14,KBVU 051355Z AUTO 00000KT 10SM CLR 31/M08 A2996 RMK AO2,M
CXP,2024-07-05 13:55,-119.7326,39.1923,1431.00,64.40,39.20,39.43,0.00,0.00,0.00,30.29,M,10.00,M,CLR,M,M,M,M,M,M,M,M,M,M,M,M,M,M,64.40,KCXP 051355Z AUTO 00000KT 10SM CLR 18/04 A3029 RMK AO2,M
INS,2024-07-05 13:55,-115.6733,36.5872,955.00,78.60,9.30,6.97,0.00,0.00,0.00,30.07,1012.10,10.00,M,CLR,M,M,M,M,M,M,M,M,M,M,M,M,M,M,78.60,KINS 051355Z AUTO 00000KT 10SM CLR 26/M13 A3007 RMK AO2 SLP121 T02591126 $,M
RNO,2024-07-05 13:55,-119.7711,39.4839,1341.00,71.00,40.00,32.40,260.00,3.00,0.00,30.26,1017.90,10.00,M,CLR,M,M,M,M,M,M,M,M,M,M,M,M,M,M,71.00,KRNO 051355Z 26003KT 10SM CLR 22/04 A3026 RMK AO2 SLP179 T02170044,M
RTS,2024-07-05 13:55,-119.8764,39.6682,1539.00,66.20,33.80,29.92,320.00,4.00,0.00,30.30,M,10.00,M,CLR,M,M,M,M,M,M,M,M,M,M,M,M,M,M,66.20,KRTS 051355Z AUTO 32004KT 10SM CLR 19/01 A3030 RMK AO2,M
05U,2024-07-05 13:55,-116.0051,39.6042,1811.23,59.00,19.40,21.26,0.00,0.00,0.00,30.38,M,10.00,M,M,M,M,M,M,M,M,M,M,M,M,M,M,M,M,59.00,K05U 051355Z AUTO 00000KT 10SM 15/M07 A3038 RMK A01,M
MEV,2024-07-05 13:55,-119.7500,38.9963,1441.42,59.00,37.40,44.47,0.00,0.00,0.00,30.28,M,10.00,M,CLR,M,M,M,M,M,M,M,M,M,M,M,M,M,M,59.00,KMEV 051355Z AUTO 00000KT 10SM CLR 15/03 A3028 RMK AO2,M
BAM,2024-07-05 13:55,-116.8743,40.5990,1382.36,55.40,26.60,32.76,0.00,0.00,0.00,30.29,M,10.00,M,CLR,M,M,M,M,M,M,M,M,M,M,M,M,M,M,55.40,KBAM 051355Z AUTO 00000KT 10SM CLR 13/M03 A3029 RMK AO1,M
HTH,2024-07-05 13:55,-118.6315,38.5448,1282.89,66.20,15.80,14.13,230.00,3.00,0.00,30.24,M,10.00,M,CLR,M,M,M,M,M,M,M,M,M,M,M,M,M,M,66.20,KHTH 051355Z AUTO 23003KT 10SM CLR 19/M09 A3024 RMK A01,M
TMT,2024-07-05 13:55,-117.1971,39.4643,1749.34,48.20,25.30,40.49,60.00,3.00,0.00,30.37,M,10.00,M,CLR,M,M,M,M,M,M,M,M,M,M,M,M,M,M,47.21,KTMT 051355Z AUTO 06003KT 10SM CLR 09/M04 A3037 RMK AO2 T00901037,M
LSV,2024-07-05 13:55,-115.0343,36.2362,570.00,90.00,5.00,3.98,250.00,5.00,0.00,29.93,1010.10,10.00,M,CLR,M,M,M,M,M,M,M,M,M,M,M,M,M,M,84.32,KLSV 051355Z AUTO 25005KT 10SM CLR 32/M15 A2993 RMK AO2 SLP101 T03231149 $,M
EKO,2024-07-05 13:56,-115.7860,40.8242,1367.00,56.00,29.00,35.38,90.00,3.00,0.00,30.33,1021.50,10.00,M,CLR,M,M,M,M,M,M,M,M,M,M,M,M,M,M,56.00,KEKO 051356Z AUTO 09003KT 10SM CLR 13/M02 A3033 RMK AO2 SLP215 T01331017,M
WMC,2024-07-05 13:56,-117.8072,40.9019,1315.00,58.00,24.00,26.77,0.00,0.00,0.00,30.25,1019.50,10.00,M,CLR,M,M,M,M,M,M,M,M,M,M,M,M,M,M,58.00,KWMC 051356Z AUTO 00000KT 10SM CLR 14/M04 A3025 RMK AO2 SLP195 T01441044,M
HND,2024-07-05 13:56,-115.1344,35.9729,742.79,85.00,29.00,13.16,190.00,4.00,0.00,30.03,1014.70,10.00,M,CLR,M,M,M,M,M,M,M,M,M,M,M,M,M,M,81.86,KHND 051356Z 19004KT 10SM CLR 29/M02 A3003 RMK AO2 SLP147 T02941017,M
TPH,2024-07-05 13:56,-117.0904,38.0505,1654.00,69.00,17.00,13.51,360.00,14.00,0.00,30.31,1016.90,10.00,M,CLR,M,M,M,M,M,M,M,M,M,M,M,M,M,M,69.00,KTPH 051356Z AUTO 36014KT 10SM CLR 21/M08 A3031 RMK AO2 SLP169 T02061083,M
LAS,2024-07-05 13:56,-115.1634,36.0719,663.00,89.00,22.00,8.66,210.00,4.00,0.00,29.99,1012.20,10.00,M,CLR,M,M,M,M,M,M,M,M,M,M,M,M,M,M,84.25,KLAS 051356Z 21004KT 10SM CLR 32/M06 A2999 RMK AO2 SLP122 T03171056,M
NFL,2024-07-05 13:56,-118.7010,39.4166,1199.00,66.00,37.00,34.21,0.00,0.00,0.00,30.20,1019.00,10.00,M,CLR,M,M,M,M,M,M,M,M,M,M,M,M,M,M,66.00,KNFL 051356Z AUTO 00000KT 10SM CLR 19/03 A3020 RMK AO2 SLP190 T01890028,M
05U,2024-07-05 14:10,-116.0051,39.6042,1811.23,62.60,21.20,20.20,0.00,0.00,0.00,30.39,M,10.00,M,M,M,M,M,M,M,M,M,M,M,M,M,M,M,M,62.60,K05U 051410Z AUTO 00000KT 10SM 17/M06 A3039 RMK A01,M
BVU,2024-07-05 14:15,-114.8611,35.9475,671.00,87.80,26.60,10.91,0.00,0.00,0.00,29.97,M,10.00,M,CLR,M,M,M,M,M,M,M,M,M,M,M,M,M,M,83.69,KBVU 051415Z AUTO 00000KT 10SM CLR 31/M03 A2997 RMK AO2,M
CXP,2024-07-05 14:15,-119.7326,39.1923,1431.00,66.20,39.20,37.03,0.00,0.00,0.00,30.30,M,10.00,M,CLR,M,M,M,M,M,M,M,M,M,M,M,M,M,M,66.20,KCXP 051415Z AUTO 00000KT 10SM CLR 19/04 A3030 RMK AO2,M
RTS,2024-07-05 14:15,-119.8764,39.6682,1539.00,68.00,35.60,30.20,0.00,0.00,0.00,30.31,M,10.00,M,CLR,M,M,M,M,M,M,M,M,M,M,M,M,M,M,68.00,KRTS 051415Z AUTO 00000KT 10SM CLR 20/02 A3031 RMK AO2,M
MEV,2024-07-05 14:15,-119.7500,38.9963,1441.42,62.60,35.60,36.45,0.00,0.00,0.00,30.28,M,10.00,M,CLR,M,M,M,M,M,M,M,M,M,M,M,M,M,M,62.60,KMEV 051415Z AUTO 00000KT 10SM CLR 17/02 A3028 RMK AO2,M
BAM,2024-07-05 14:15,-116.8743,40.5990,1382.36,59.00,24.80,26.70,0.00,0.00,0.00,30.29,M,10.00,M,CLR,M,M,M,M,M,M,M,M,M,M,M,M,M,M,59.00,KBAM 051415Z AUTO 00000KT 10SM CLR 15/M04 A3029 RMK AO1,M
HTH,2024-07-05 14:15,-118.6315,38.5448,1282.89,69.80,26.60,19.72,220.00,4.00,0.00,30.25,M,10.00,M,CLR,M,M,M,M,M,M,M,M,M,M,M,M,M,M,69.80,KHTH 051415Z AUTO 22004KT 10SM CLR 21/M03 A3025 RMK A01,M
TMT,2024-07-05 14:15,-117.1971,39.4643,1749.34,51.80,25.30,35.41,0.00,0.00,0.00,30.37,M,10.00,M,CLR,M,M,M,M,M,M,M,M,M,M,M,M,M,M,51.80,KTMT 051415Z AUTO 00000KT 10SM CLR 11/M04 A3037 RMK AO2 T01101037,M
BVU,2024-07-05 14:35,-114.8611,35.9475,671.00,89.60,23.00,8.87,M,6.00,0.00,29.98,M,10.00,M,CLR,M,M,M,M,M,M,M,M,M,M,M,M,M,M,84.75,KBVU 051435Z AUTO VRB06KT 10SM CLR 32/M05 A2998 RMK AO2,M
CXP,2024-07-05 14:35,-119.7326,39.1923,1431.00,66.20,39.20,37.03,0.00,0.00,0.00,30.30,M,10.00,M,CLR,M,M,M,M,M,M,M,M,M,M,M,M,M,M,66.20,KCXP 051435Z AUTO 00000KT 10SM CLR 19/04 A3030 RMK AO2,M
RTS,2024-07-05 14:35,-119.8764,39.6682,1539.00,69.80,35.60,28.39,0.00,0.00,0.00,30.31,M,10.00,M,CLR,M,M,M,M,M,M,M,M,M,M,M,M,M,M,69.80,KRTS 051435Z AUTO 00000KT 10SM CLR 21/02 A3031 RMK AO2,M
05U,2024-07-05 14:35,-116.0051,39.6042,1811.23,68.00,17.60,14.35,0.00,0.00,0.00,30.39,M,10.00,M,M,M,M,M,M,M,M,M,M,M,M,M,M,M,M,68.00,K05U 051435Z AUTO 00000KT 10SM 20/M08 A3039 RMK A01,M
MEV,2024-07-05 14:35,-119.7500,38.9963,1441.42,66.20,35.60,32.14,0.00,0.00,0.00,30.29,M,10.00,M,CLR,M,M,M,M,M,M,M,M,M,M,M,M,M,M,66.20,KMEV 051435Z AUTO 00000KT 10SM CLR 19/02 A3029 RMK AO2,M
BAM,2024-07-05 14:35,-116.8743,40.5990,1382.36,60.80,26.60,26.98,0.00,0.00,0.00,30.29,M,10.00,M,CLR,M,M,M,M,M,M,M,M,M,M,M,M,M,M,60.80,KBAM 051435Z AUTO 00000KT 10SM CLR 16/M03 A3029 RMK AO1,M
HTH,2024-07-05 14:35,-118.6315,38.5448,1282.89,71.60,37.40,28.68,230.00,3.00,0.00,30.25,M,10.00,M,CLR,M,M,M,M,M,M,M,M,M,M,M,M,M,M,71.60,KHTH 051435Z AUTO 23003KT 10SM CLR 22/03 A3025 RMK A01,M
TMT,2024-07-05 14:35,-117.1971,39.4643,1749.34,55.00,24.60,30.59,0.00,0.00,0.00,30.37,M,10.00,M,CLR,M,M,M,M,M,M,M,M,M,M,M,M,M,M,55.00,KTMT 051435Z AUTO 00000KT 10SM CLR 13/M04 A3037 RMK AO2 T01281041,M
05U,2024-07-05 14:50,-116.0051,39.6042,1811.23,71.60,17.60,12.69,0.00,0.00,0.00,30.39,M,10.00,M,M,M,M,M,M,M,M,M,M,M,M,M,M,M,M,71.60,K05U 051450Z AUTO 00000KT 10SM 22/M08 A3039 RMK A01,M
P68,2024-07-05 14:53,-116.0056,39.6014,1993.00,70.00,19.00,14.23,360.00,4.00,0.00,30.37,1019.40,M,M,M,M,M,M,M,M,M,M,M,M,M,M,M,M,M,70.00,KP68 051453Z AUTO 36004KT 21/M07 A3037 RMK AO1 SLP194 T02111072 53006,M
DRA,2024-07-05 14:53,-116.0278,36.6206,1009.00,89.00,18.00,7.31,30.00,15.00,0.00,30.09,1012.70,10.00,M,CLR,M,M,M,M,M,M,M,M,M,M,M,M,M,M,84.03,KDRA 051453Z AUTO 03015KT 10SM CLR 32/M08 A3009 RMK AO2 SLP127 T03171078 53016,M
ELY,2024-07-05 14:53,-114.8453,39.2950,1909.00,64.00,24.00,21.64,180.00,5.00,0.00,30.40,1018.90,10.00,M,CLR,M,M,M,M,M,M,M,M,M,M,M,M,M,M,64.00,KELY 051453Z AUTO 18005KT 10SM CLR 18/M04 A3040 RMK AO2 SLP189 T01781044 53007,M
VGT,2024-07-05 14:53,-115.1933,36.2111,667.00,92.00,29.00,10.55,0.00,0.00,0.00,30.00,1014.10,10.00,M,CLR,M,M,M,M,M,M,M,M,M,M,M,M,M,M,87.04,KVGT 051453Z 00000KT 10SM CLR 33/M02 A3000 RMK AO2 SLP141 T03331017 53020,M
LOL,2024-07-05 14:53,-118.5701,40.0684,1192.43,73.00,31.00,21.18,0.00,0.00,0.00,30.22,1018.50,10.00,M,CLR,M,M,M,M,M,M,M,M,M,M,M,M,M,M,73.00,KLOL 051453Z AUTO 00000KT 10SM CLR 23/M01 A3022 RMK AO2 SLP185 T02281006 53008,M
BVU,2024-07-05 14:55,-114.8611,35.9475,671.00,95.00,17.60,5.96,40.00,6.00,0.00,29.98,M,10.00,12.00,CLR,M,M,M,M,M,M,M,M,M,M,M,M,M,M,88.39,KBVU 051455Z AUTO 04006G12KT 10SM CLR 35/M08 A2998 RMK AO2,M
CXP,2024-07-05 14:55,-119.7326,39.1923,1431.00,69.80,41.00,35.09,0.00,0.00,0.00,30.30,M,10.00,M,CLR,M,M,M,M,M,M,M,M,M,M,M,M,M,M,69.80,KCXP 051455Z AUTO 00000KT 10SM CLR 21/05 A3030 RMK AO2,M
RNO,2024-07-05 14:55,-119.7711,39.4839,1341.00,73.00,40.00,30.28,0.00,0.00,0.00,30.27,1018.40,10.00,M,CLR,M,M,M,M,M,M,M,M,M,M,M,M,M,M,73.00,KRNO 051455Z 00000KT 10SM CLR 23/04 A3027 RMK AO2 SLP184 T02280044 51008,M
RTS,2024-07-05 14:55,-119.8764,39.6682,1539.00,71.60,33.80,24.86,0.00,0.00,0.00,30.31,M,10.00,M,CLR,M,M,M,M,M,M,M,M,M,M,M,M,M,M,71.60,KRTS 051455Z AUTO 00000KT 10SM CLR 22/01 A3031 RMK AO2,M
MEV,2024-07-05 14:55,-119.7500,38.9963,1441.42,66.20,39.20,37.03,0.00,0.00,0.00,30.29,M,10.00,M,CLR,M,M,M,M,M,M,M,M,M,M,M,M,M,M,66.20,KMEV 051455Z AUTO 00000KT 10SM CLR 19/04 A3029 RMK AO2,M
BAM,2024-07-05 14:55,-116.8743,40.5990,1382.36,64.40,26.60,23.77,0.00,0.00,0.00,30.30,M,10.00,M,CLR,M,M,M,M,M,M,M,M,M,M,M,M,M,M,64.40,KBAM 051455Z AUTO 00000KT 10SM CLR 18/M03 A3030 RMK AO1,M
HTH,2024-07-05 14:55,-118.6315,38.5448,1282.89,75.20,37.40,25.40,0.00,0.00,0.00,30.25,M,10.00,M,CLR,M,M,M,M,M,M,M,M,M,M,M,M,M,M,75.20,KHTH 051455Z AUTO 00000KT 10SM CLR 24/03 A3025 RMK A01,M
TMT,2024-07-05 14:55,-117.1971,39.4643,1749.34,58.60,27.50,30.29,0.00,0.00,0.00,30.38,M,10.00,M,CLR,M,M,M,M,M,M,M,M,M,M,M,M,M,M,58.60,KTMT 051455Z AUTO 00000KT 10SM CLR 15/M02 A3038 RMK AO2 T01481025,M
INS,2024-07-05 14:55,-115.6733,36.5872,955.00,86.70,7.70,4.99,0.00,0.00,0.00,30.09,1012.50,10.00,M,CLR,M,M,M,M,M,M,M,M,M,M,M,M,M,M,82.01,KINS 051455Z AUTO 00000KT 10SM CLR 30/M13 A3009 RMK AO2 SLP125 T03041135 52017 $,M
LSV,2024-07-05 14:55,-115.0343,36.2362,570.00,92.70,6.80,3.97,230.00,3.00,0.00,29.95,1010.80,10.00,M,CLR,M,M,M,M,M,M,M,M,M,M,M,M,M,M,86.29,KLSV 051455Z AUTO 23003KT 10SM CLR 34/M14 A2995 RMK AO2 SLP108 T03371140 52020 $,M
EKO,2024-07-05 14:56,-115.7860,40.8242,1367.00,63.00,27.00,25.38,0.00,0.00,0.00,30.33,1021.50,10.00,M,CLR,M,M,M,M,M,M,M,M,M,M,M,M,M,M,63.00,KEKO 051456Z AUTO 00000KT 10SM CLR 17/M03 A3033 RMK AO2 SLP215 T01721028 51006,M
WMC,2024-07-05 14:56,-117.8072,40.9019,1315.00,71.00,28.00,20.06,0.00,0.00,0.00,30.26,1019.20,10.00,M,CLR,M,M,M,M,M,M,M,M,M,M,M,M,M,M,71.00,KWMC 051456Z AUTO 00000KT 10SM CLR 22/M02 A3026 RMK AO2 SLP192 T02171022 53008,M
HND,2024-07-05 14:56,-115.1344,35.9729,742.79,92.00,24.00,8.58,60.00,5.00,0.00,30.05,1015.20,10.00,M,CLR,M,M,M,M,M,M,M,M,M,M,M,M,M,M,86.60,KHND 051456Z 06005KT 10SM CLR 33/M04 A3005 RMK AO2 SLP152 T03331044 51020,M
TPH,2024-07-05 14:56,-117.0904,38.0505,1654.00,76.00,18.00,11.14,360.00,15.00,0.00,30.32,1017.10,10.00,M,CLR,M,M,M,M,M,M,M,M,M,M,M,M,M,M,76.00,KTPH 051456Z AUTO 36015KT 10SM CLR 24/M08 A3032 RMK AO2 SLP171 T02441078 51010,M
LAS,2024-07-05 14:56,-115.1634,36.0719,663.00,94.00,24.00,8.06,180.00,4.00,0.00,30.02,1012.90,10.00,M,CLR,M,M,M,M,M,M,M,M,M,M,M,M,M,M,88.10,KLAS 051456Z 18004KT 10SM CLR 34/M04 A3002 RMK AO2 SLP129 T03441044 52021,M
05U,2024-07-05 15:10,-116.0051,39.6042,1811.23,71.60,19.40,13.71,0.00,0.00,0.00,30.40,M,10.00,M,M,M,M,M,M,M,M,M,M,M,M,M,M,M,M,71.60,K05U 051510Z AUTO 00000KT 10SM 22/M07 A3040 RMK A01,M
BVU,2024-07-05 15:15,-114.8611,35.9475,671.00,96.80,15.80,5.21,30.00,9.00,0.00,29.98,M,10.00,M,CLR,M,M,M,M,M,M,M,M,M,M,M,M,M,M,89.78,KBVU 051515Z AUTO 03009KT 10SM CLR 36/M09 A2998 RMK AO2,M
CXP,2024-07-05 15:15,-119.7326,39.1923,1431.00,71.60,39.20,30.77,0.00,0.00,0.00,30.31,M,10.00,M,CLR,M,M,M,M,M,M,M,M,M,M,M,M,M,M,71.60,KCXP 051515Z AUTO 00000KT 10SM CLR 22/04 A3031 RMK AO2,M
RTS,2024-07-05 15:15,-119.8764,39.6682,1539.00,71.60,42.80,35.37,130.00,3.00,0.00,30.31,M,10.00,M,CLR,M,M,M,M,M,M,M,M,M,M,M,M,M,M,71.60,KRTS 051515Z AUTO 13003KT 10SM CLR 22/06 A3031 RMK AO2,M
MEV,2024-07-05 15:15,-119.7500,38.9963,1441.42,69.80,39.20,32.72,0.00,0.00,0.00,30.30,M,10.00,M,CLR,M,M,M,M,M,M,M,M,M,M,M,M,M,M,69.80,KMEV 051515Z AUTO 00000KT 10SM CLR 21/04 A3030 RMK AO2,M
BAM,2024-07-05 15:15,-116.8743,40.5990,1382.36,69.80,30.20,22.86,60.00,4.00,0.00,30.30,M,10.00,M,CLR,M,M,M,M,M,M,M,M,M,M,M,M,M,M,69.80,KBAM 051515Z AUTO 06004KT 10SM CLR 21/M01 A3030 RMK AO1,M
HTH,2024-07-05 15:15,-118.6315,38.5448,1282.89,75.20,35.60,23.66,0.00,0.00,0.00,30.26,M,10.00,M,CLR,M,M,M,M,M,M,M,M,M,M,M,M,M,M,75.20,KHTH 051515Z AUTO 00000KT 10SM CLR 24/02 A3026 RMK A01,M
TMT,2024-07-05 15:15,-117.1971,39.4643,1749.34,62.60,28.00,26.82,0.00,0.00,0.00,30.38,M,10.00,M,CLR,M,M,M,M,M,M,M,M,M,M,M,M,M,M,62.60,KTMT 051515Z AUTO 00000KT 10SM CLR 17/M02 A3038 RMK AO2 T01701022,M
BVU,2024-07-05 15:35,-114.8611,35.9475,671.00,96.80,15.80,5.21,30.00,8.00,0.00,29.98,M,10.00,M,CLR,M,M,M,M,M,M,M,M,M,M,M,M,M,M,89.78,KBVU 051535Z AUTO 03008KT 10SM CLR 36/M09 A2998 RMK AO2,M
CXP,2024-07-05 15:35,-119.7326,39.1923,1431.00,75.20,41.00,29.23,170.00,3.00,0.00,30.31,M,10.00,M,CLR,M,M,M,M,M,M,M,M,M,M,M,M,M,M,75.20,KCXP 051535Z AUTO 17003KT 10SM CLR 24/05 A3031 RMK AO2,M
RTS,2024-07-05 15:35,-119.8764,39.6682,1539.00,75.20,37.40,25.40,130.00,3.00,0.00,30.32,M,10.00,M,CLR,M,M,M,M,M,M,M,M,M,M,M,M,M,M,75.20,KRTS 051535Z AUTO 13003KT 10SM CLR 24/03 A3032 RMK AO2,M
05U,2024-07-05 15:35,-116.0051,39.6042,1811.23,73.40,21.20,13.93,0.00,0.00,0.00,30.39,M,10.00,M,M,M,M,M,M,M,M,M,M,M,M,M,M,M,M,73.40,K05U 051535Z AUTO 00000KT 10SM 23/M06 A3039 RMK A01,M
MEV,2024-07-05 15:35,-119.7500,38.9963,1441.42,71.60,39.20,30.77,0.00,0.00,0.00,30.29,M,10.00,M,CLR,M,M,M,M,M,M,M,M,M,M,M,M,M,M,71.60,KMEV 051535Z AUTO 00000KT 10SM CLR 22/04 A3029 RMK AO2,M
BAM,2024-07-05 15:35,-116.8743,40.5990,1382.36,71.60,30.20,21.50,50.00,4.00,0.00,30.30,M,10.00,M,CLR,M,M,M,M,M,M,M,M,M,M,M,M,M,M,71.60,KBAM 051535Z AUTO 05004KT 10SM CLR 22/M01 A3030 RMK AO1,M
HTH,2024-07-05 15:35,-118.6315,38.5448,1282.89,77.00,30.20,17.94,290.00,4.00,0.00,30.26,M,10.00,M,CLR,M,M,M,M,M,M,M,M,M,M,M,M,M,M,77.00,KHTH 051535Z AUTO 29004KT 10SM CLR 25/M01 A3026 RMK A01,M
TMT,2024-07-05 15:35,-117.1971,39.4643,1749.34,64.20,31.00,28.66,0.00,0.00,0.00,30.37,M,10.00,M,CLR,M,M,M,M,M,M,M,M,M,M,M,M,M,M,64.20,KTMT 051535Z AUTO 00000KT 10SM CLR 18/00 A3037 RMK AO2 T01791005,M
P68,2024-07-05 15:53,-116.0056,39.6014,1993.00,73.00,23.00,15.23,0.00,0.00,0.00,30.36,1020.10,M,M,M,M,M,M,M,M,M,M,M,M,M,M,M,M,M,73.00,KP68 051553Z AUTO 00000KT 23/M05 A3036 RMK AO1 SLP201 T02281050,M
DRA,2024-07-05 15:53,-116.0278,36.6206,1009.00,94.00,19.00,6.52,20.00,11.00,0.00,30.09,1012.70,10.00,M,CLR,M,M,M,M,M,M,M,M,M,M,M,M,M,M,87.74,KDRA 051553Z AUTO 02011KT 10SM CLR 34/M07 A3009 RMK AO2 SLP127 T03441072,M
ELY,2024-07-05 15:53,-114.8453,39.2950,1909.00,71.00,22.00,15.62,0.00,0.00,0.00,30.39,1018.90,10.00,M,CLR,M,M,M,M,M,M,M,M,M,M,M,M,M,M,71.00,KELY 051553Z AUTO 00000KT 10SM CLR 22/M06 A3039 RMK AO2 SLP189 T02171056,M
VGT,2024-07-05 15:53,-115.1933,36.2111,667.00,98.00,25.00,7.43,0.00,0.00,0.00,30.01,1014.40,10.00,M,CLR,M,M,M,M,M,M,M,M,M,M,M,M,M,M,91.42,KVGT 051553Z 00000KT 10SM CLR 37/M04 A3001 RMK AO2 SLP144 T03671039,M
LOL,2024-07-05 15:53,-118.5701,40.0684,1192.43,81.00,26.00,13.24,40.00,9.00,0.00,30.22,1018.80,10.00,M,CLR,M,M,M,M,M,M,M,M,M,M,M,M,M,M,78.94,KLOL 051553Z AUTO 04009KT 10SM CLR 27/M03 A3022 RMK AO2 SLP188 T02721033,M
BVU,2024-07-05 15:55,-114.8611,35.9475,671.00,98.60,12.20,4.21,10.00,12.00,0.00,29.98,M,10.00,18.00,CLR,M,M,M,M,M,M,M,M,M,M,M,M,M,M,91.10,KBVU 051555Z AUTO 01012G18KT 10SM CLR 37/M11 A2998 RMK AO2,M
CXP,2024-07-05 15:55,-119.7326,39.1923,1431.00,77.00,39.20,25.67,0.00,0.00,0.00,30.30,M,10.00,M,CLR,M,M,M,M,M,M,M,M,M,M,M,M,M,M,77.00,KCXP 051555Z AUTO 00000KT 10SM CLR 25/04 A3030 RMK AO2,M
RNO,2024-07-05 15:55,-119.7711,39.4839,1341.00,79.00,39.00,23.85,220.00,3.00,0.00,30.27,1018.30,10.00,M,CLR,M,M,M,M,M,M,M,M,M,M,M,M,M,M,79.00,KRNO 051555Z 22003KT 10SM CLR 26/04 A3027 RMK AO2 SLP183 T02610039,M
RTS,2024-07-05 15:55,-119.8764,39.6682,1539.00,78.80,33.80,19.55,0.00,0.00,0.00,30.32,M,10.00,M,CLR,M,M,M,M,M,M,M,M,M,M,M,M,M,M,78.80,KRTS 051555Z AUTO 00000KT 10SM CLR 26/01 A3032 RMK AO2,M
05U,2024-07-05 15:55,-116.0051,39.6042,1811.23,75.20,23.00,14.15,0.00,0.00,0.00,30.39,M,10.00,M,M,M,M,M,M,M,M,M,M,M,M,M,M,M,M,75.20,K05U 051555Z AUTO 00000KT 10SM 24/M05 A3039 RMK A01,M
MEV,2024-07-05 15:55,-119.7500,38.9963,1441.42,73.40,41.00,31.05,0.00,0.00,0.00,30.29,M,10.00,M,CLR,M,M,M,M,M,M,M,M,M,M,M,M,M,M,73.40,KMEV 051555Z AUTO 00000KT 10SM CLR 23/05 A3029 RMK AO2,M
BAM,2024-07-05 15:55,-116.8743,40.5990,1382.36,73.40,32.00,21.76,20.00,5.00,0.00,30.29,M,10.00,M,CLR,M,M,M,M,M,M,M,M,M,M,M,M,M,M,73.40,KBAM 051555Z AUTO 02005KT 10SM CLR 23/00 A3029 RMK AO1,M
HTH,2024-07-05 15:55,-118.6315,38.5448,1282.89,78.80,24.80,13.54,M,3.00,0.00,30.26,M,10.00,M,CLR,M,M,M,M,M,M,M,M,M,M,M,M,M,M,78.80,KHTH 051555Z AUTO VRB03KT 10SM CLR 26/M04 A3026 RMK A01,M
TMT,2024-07-05 15:55,-117.1971,39.4643,1749.34,68.00,31.50,25.63,0.00,0.00,0.00,30.37,M,10.00,M,CLR,M,M,M,M,M,M,M,M,M,M,M,M,M,M,68.00,KTMT 051555Z AUTO 00000KT 10SM CLR 20/00 A3037 RMK AO2 T02011003,M
INS,2024-07-05 15:55,-115.6733,36.5872,955.00,93.70,1.40,3.00,0.00,0.00,0.00,30.08,1012.20,10.00,M,CLR,M,M,M,M,M,M,M,M,M,M,M,M,M,M,86.86,KINS 051555Z AUTO 00000KT 10SM CLR 34/M17 A3008 RMK AO2 SLP122 T03431170 $,M
LSV,2024-07-05 15:55,-115.0343,36.2362,570.00,97.70,4.00,2.99,190.00,3.00,0.00,29.96,1011.10,10.00,M,CLR,M,M,M,M,M,M,M,M,M,M,M,M,M,M,90.07,KLSV 051555Z AUTO 19003KT 10SM CLR 37/M16 A2996 RMK AO2 SLP111 T03651156 $,M
EKO,2024-07-05 15:56,-115.7860,40.8242,1367.00,71.00,32.00,23.60,0.00,0.00,0.00,30.33,1021.20,10.00,M,CLR,M,M,M,M,M,M,M,M,M,M,M,M,M,M,71.00,KEKO 051556Z AUTO 00000KT 10SM CLR 22/00 A3033 RMK AO2 SLP212 T02170000,M
WMC,2024-07-05 15:56,-117.8072,40.9019,1315.00,80.00,27.00,14.26,30.00,7.00,0.00,30.26,1019.10,10.00,M,CLR,M,M,M,M,M,M,M,M,M,M,M,M,M,M,78.37,KWMC 051556Z AUTO 03007KT 10SM CLR 27/M03 A3026 RMK AO2 SLP191 T02671028,M
NFL,2024-07-05 15:56,-118.7010,39.4166,1199.00,82.00,29.00,14.50,330.00,4.00,0.00,30.23,1019.80,10.00,M,CLR,M,M,M,M,M,M,M,M,M,M,M,M,M,M,79.67,KNFL 051556Z AUTO 33004KT 10SM CLR 28/M02 A3023 RMK AO2 SLP198 T02781017,M
HND,2024-07-05 15:56,-115.1344,35.9729,742.79,94.00,24.00,8.06,M,6.00,0.00,30.06,1015.60,10.00,M,CLR,M,M,M,M,M,M,M,M,M,M,M,M,M,M,88.10,KHND 051556Z VRB06KT 10SM CLR 34/M04 A3006 RMK AO2 SLP156 T03441044,M
TPH,2024-07-05 15:56,-117.0904,38.0505,1654.00,84.00,19.00,8.94,350.00,9.00,0.00,30.32,1016.80,10.00,M,CLR,M,M,M,M,M,M,M,M,M,M,M,M,M,M,80.52,KTPH 051556Z AUTO 35009KT 10SM CLR 29/M07 A3032 RMK AO2 SLP168 T02891072,M
LAS,2024-07-05 15:56,-115.1634,36.0719,663.00,99.00,23.00,6.63,0.00,0.00,0.00,30.02,1013.10,10.00,M,CLR,M,M,M,M,M,M,M,M,M,M,M,M,M,M,92.08,KLAS 051556Z 00000KT 10SM CLR 37/M05 A3002 RMK AO2 SLP131 T03721050,M
HTH,2024-07-05 16:10,-118.6315,38.5448,1282.89,80.60,23.00,11.83,360.00,4.00,0.00,30.25,M,10.00,M,CLR,M,M,M,M,M,M,M,M,M,M,M,M,M,M,78.80,KHTH 051610Z AUTO 36004KT 10SM CLR 27/M05 A3025 RMK A01,M
BVU,2024-07-05 16:15,-114.8611,35.9475,671.00,100.40,12.20,3.99,360.00,12.00,0.00,29.98,M,10.00,19.00,CLR,M,M,M,M,M,M,M,M,M,M,M,M,M,M,92.58,KBVU 051615Z AUTO 36012G19KT 10SM CLR 38/M11 A2998 RMK AO2,M
CXP,2024-07-05 16:15,-119.7326,39.1923,1431.00,78.80,39.20,24.19,0.00,0.00,0.00,30.30,M,10.00,M,CLR,M,M,M,M,M,M,M,M,M,M,M,M,M,M,78.80,KCXP 051615Z AUTO 00000KT 10SM CLR 26/04 A3030 RMK AO2,M
RTS,2024-07-05 16:15,-119.8764,39.6682,1539.00,80.60,32.00,17.14,140.00,3.00,0.00,30.31,M,10.00,M,CLR,M,M,M,M,M,M,M,M,M,M,M,M,M,M,78.82,KRTS 051615Z AUTO 14003KT 10SM CLR 27/00 A3031 RMK AO2,M
05U,2024-07-05 16:15,-116.0051,39.6042,1811.23,77.00,24.80,14.37,0.00,0.00,0.00,30.38,M,10.00,M,M,M,M,M,M,M,M,M,M,M,M,M,M,M,M,77.00,K05U 051615Z AUTO 00000KT 10SM 25/M04 A3038 RMK A01,M
MEV,2024-07-05 16:15,-119.7500,38.9963,1441.42,75.20,42.80,31.34,0.00,0.00,0.00,30.28,M,10.00,M,CLR,M,M,M,M,M,M,M,M,M,M,M,M,M,M,75.20,KMEV 051615Z AUTO 00000KT 10SM CLR 24/06 A3028 RMK AO2,M
BAM,2024-07-05 16:15,-116.8743,40.5990,1382.36,77.00,35.60,22.28,30.00,6.00,0.00,30.29,M,10.00,M,CLR,M,M,M,M,M,M,M,M,M,M,M,M,M,M,77.00,KBAM 051615Z AUTO 03006KT 10SM CLR 25/02 A3029 RMK AO1,M
TMT,2024-07-05 16:15,-117.1971,39.4643,1749.34,72.30,31.00,21.69,0.00,0.00,0.00,30.37,M,10.00,M,CLR,M,M,M,M,M,M,M,M,M,M,M,M,M,M,72.30,KTMT 051615Z AUTO 00000KT 10SM CLR 22/M01 A3037 RMK AO2 T02241006,M
BVU,2024-07-05 16:35,-114.8611,35.9475,671.00,100.40,12.20,3.99,360.00,15.00,0.00,29.98,M,10.00,M,CLR,M,M,M,M,M,M,M,M,M,M,M,M,M,M,92.58,KBVU 051635Z AUTO 36015KT 10SM CLR 38/M11 A2998 RMK AO2,M
CXP,2024-07-05 16:35,-119.7326,39.1923,1431.00,80.60,39.20,22.81,0.00,0.00,0.00,30.29,M,10.00,M,CLR,M,M,M,M,M,M,M,M,M,M,M,M,M,M,79.10,KCXP 051635Z AUTO 00000KT 10SM CLR 27/04 A3029 RMK AO2,M
RTS,2024-07-05 16:35,-119.8764,39.6682,1539.00,82.40,28.40,13.96,0.00,0.00,0.00,30.31,M,10.00,M,CLR,M,M,M,M,M,M,M,M,M,M,M,M,M,M,79.94,KRTS 051635Z AUTO 00000KT 10SM CLR 28/M02 A3031 RMK AO2,M
BAM,2024-07-05 16:35,-116.8743,40.5990,1382.36,80.60,33.80,18.42,30.00,9.00,0.00,30.28,M,10.00,M,CLR,M,M,M,M,M,M,M,M,M,M,M,M,M,M,78.88,KBAM 051635Z AUTO 03009KT 10SM CLR 27/01 A3028 RMK AO1,M
TMT,2024-07-05 16:35,-117.1971,39.4643,1749.34,75.20,27.30,16.92,0.00,0.00,0.00,30.36,M,10.00,M,CLR,M,M,M,M,M,M,M,M,M,M,M,M,M,M,75.20,KTMT 051635Z AUTO 00000KT 10SM CLR 24/M03 A3036 RMK AO2 T02401026,M
05U,2024-07-05 16:35,-116.0051,39.6042,1811.23,80.60,24.80,12.76,0.00,0.00,0.00,30.38,M,10.00,M,M,M,M,M,M,M,M,M,M,M,M,M,M,M,M,78.94,K05U 051635Z AUTO 00000KT 10SM 27/M04 A3038 RMK A01,M
HTH,2024-07-05 16:35,-118.6315,38.5448,1282.89,82.40,21.20,10.34,300.00,3.00,0.00,30.25,M,10.00,M,CLR,M,M,M,M,M,M,M,M,M,M,M,M,M,M,79.55,KHTH 051635Z AUTO 30003KT 10SM CLR 28/M06 A3025 RMK A01,M
MEV,2024-07-05 16:35,-119.7500,38.9963,1441.42,77.00,42.80,29.51,0.00,0.00,0.00,30.28,M,10.00,M,CLR,M,M,M,M,M,M,M,M,M,M,M,M,M,M,77.00,KMEV 051635Z AUTO 00000KT 10SM CLR 25/06 A3028 RMK AO2,M
P68,2024-07-05 16:53,-116.0056,39.6014,1993.00,79.00,25.00,13.56,320.00,4.00,0.00,30.35,1019.50,M,M,M,M,M,M,M,M,M,M,M,M,M,M,M,M,M,79.00,KP68 051653Z AUTO 32004KT 26/M04 A3035 RMK AO1 SLP195 T02611039,M
DRA,2024-07-05 16:53,-116.0278,36.6206,1009.00,98.00,19.00,5.77,M,6.00,0.00,30.09,1012.70,10.00,17.00,CLR,M,M,M,M,M,M,M,M,M,M,M,M,M,M,90.96,KDRA 051653Z AUTO VRB06G17KT 10SM CLR 37/M07 A3009 RMK AO2 SLP127 T03671072,M
ELY,2024-07-05 16:53,-114.8453,39.2950,1909.00,78.00,24.00,13.44,310.00,4.00,0.00,30.38,1018.30,10.00,M,CLR,M,M,M,M,M,M,M,M,M,M,M,M,M,M,78.00,KELY 051653Z AUTO 31004KT 10SM CLR 26/M04 A3038 RMK AO2 SLP183 T02561044,M
VGT,2024-07-05 16:53,-115.1933,36.2111,667.00,101.00,22.00,5.98,M,M,0.00,30.00,1014.10,10.00,M,CLR,M,M,M,M,M,M,M,M,M,M,M,M,M,M,93.67,KVGT 051653Z 10SM CLR 38/M06 A3000 RMK AO2 SLP141 T03831056,M
LOL,2024-07-05 16:53,-118.5701,40.0684,1192.43,85.00,33.00,15.47,0.00,0.00,0.00,30.21,1018.40,10.00,M,CLR,M,M,M,M,M,M,M,M,M,M,M,M,M,M,81.88,KLOL 051653Z AUTO 00000KT 10SM CLR 29/01 A3021 RMK AO2 SLP184 T02940006,M
BVU,2024-07-05 16:55,-114.8611,35.9475,671.00,102.20,14.00,4.09,20.00,12.00,0.00,29.98,M,10.00,19.00,CLR,M,M,M,M,M,M,M,M,M,M,M,M,M,M,94.14,KBVU 051655Z AUTO 02012G19KT 10SM CLR 39/M10 A2998 RMK AO2,M
CXP,2024-07-05 16:55,-119.7326,39.1923,1431.00,82.40,39.20,21.51,0.00,0.00,0.00,30.29,M,10.00,M,CLR,M,M,M,M,M,M,M,M,M,M,M,M,M,M,80.21,KCXP 051655Z AUTO 00000KT 10SM CLR 28/04 A3029 RMK AO2,M
RNO,2024-07-05 16:55,-119.7711,39.4839,1341.00,83.00,38.00,20.13,90.00,3.00,0.00,30.26,1017.90,10.00,M,CLR,M,M,M,M,M,M,M,M,M,M,M,M,M,M,80.56,KRNO 051655Z 09003KT 10SM CLR 28/03 A3026 RMK AO2 SLP179 T02830033,M
BAM,2024-07-05 16:55,-116.8743,40.5990,1382.36,82.40,33.80,17.38,30.00,7.00,0.00,30.28,M,10.00,M,CLR,M,M,M,M,M,M,M,M,M,M,M,M,M,M,80.03,KBAM 051655Z AUTO 03007KT 10SM CLR 28/01 A3028 RMK AO1,M
TMT,2024-07-05 16:55,-117.1971,39.4643,1749.34,78.40,26.00,14.42,0.00,0.00,0.00,30.36,M,10.00,M,CLR,M,M,M,M,M,M,M,M,M,M,M,M,M,M,78.40,KTMT 051655Z AUTO 00000KT 10SM CLR 26/M03 A3036 RMK AO2 T02581034,M
INS,2024-07-05 16:55,-115.6733,36.5872,955.00,96.00,3.00,3.01,250.00,3.00,0.00,30.08,1012.20,10.00,M,CLR,M,M,M,M,M,M,M,M,M,M,M,M,M,M,88.64,KINS 051655Z AUTO 25003KT 10SM CLR 36/M16 A3008 RMK AO2 SLP122 T03551162 $,M
LSV,2024-07-05 16:55,-115.0343,36.2362,570.00,102.60,-1.70,1.98,80.00,9.00,0.00,29.95,1010.80,10.00,M,CLR,M,M,M,M,M,M,M,M,M,M,M,M,M,M,93.90,KLSV 051655Z AUTO 08009KT 10SM CLR 39/M19 A2995 RMK AO2 SLP108 T03921187 $,M
EKO,2024-07-05 16:56,-115.7860,40.8242,1367.00,78.00,30.00,17.22,0.00,0.00,0.00,30.31,1020.50,10.00,M,CLR,M,M,M,M,M,M,M,M,M,M,M,M,M,M,78.00,KEKO 051656Z AUTO 00000KT 10SM CLR 26/M01 A3031 RMK AO2 SLP205 T02561011,M
WMC,2024-07-05 16:56,-117.8072,40.9019,1315.00,86.00,27.00,11.74,40.00,8.00,0.00,30.25,1019.20,10.00,M,CLR,M,M,M,M,M,M,M,M,M,M,M,M,M,M,82.42,KWMC 051656Z AUTO 04008KT 10SM CLR 30/M03 A3025 RMK AO2 SLP192 T03001028,M
HND,2024-07-05 16:56,-115.1344,35.9729,742.79,98.00,23.00,6.84,20.00,7.00,0.00,30.05,1015.40,10.00,M,CLR,M,M,M,M,M,M,M,M,M,M,M,M,M,M,91.25,KHND 051656Z 02007KT 10SM CLR 37/M05 A3005 RMK AO2 SLP154 T03671050,M
TPH,2024-07-05 16:56,-117.0904,38.0505,1654.00,89.00,19.00,7.63,M,4.00,0.00,30.30,1016.10,10.00,M,CLR,M,M,M,M,M,M,M,M,M,M,M,M,M,M,84.08,KTPH 051656Z AUTO VRB04KT 10SM CLR 32/M07 A3030 RMK AO2 SLP161 T03171072,M
LAS,2024-07-05 16:56,-115.1634,36.0719,663.00,102.00,22.00,5.81,20.00,7.00,0.00,30.02,1012.90,10.00,M,CLR,M,M,M,M,M,M,M,M,M,M,M,M,M,M,94.50,KLAS 051656Z 02007KT 10SM CLR 39/M06 A3002 RMK AO2 SLP129 T03891056,M
BVU,2024-07-05 17:15,-114.8611,35.9475,671.00,102.20,12.20,3.78,10.00,14.00,0.00,29.98,M,10.00,M,CLR,M,M,M,M,M,M,M,M,M,M,M,M,M,M,94.05,KBVU 051715Z AUTO 01014KT 10SM CLR 39/M11 A2998 RMK AO2,M
CXP,2024-07-05 17:15,-119.7326,39.1923,1431.00,84.20,39.20,20.29,0.00,0.00,0.00,30.28,M,10.00,M,CLR,M,M,M,M,M,M,M,M,M,M,M,M,M,M,81.44,KCXP 051715Z AUTO 00000KT 10SM CLR 29/04 A3028 RMK AO2,M
RTS,2024-07-05 17:15,-119.8764,39.6682,1539.00,86.00,26.60,11.55,130.00,7.00,0.00,30.31,M,10.00,M,CLR,M,M,M,M,M,M,M,M,M,M,M,M,M,M,82.39,KRTS 051715Z AUTO 13007KT 10SM CLR 30/M03 A3031 RMK AO2,M
05U,2024-07-05 17:15,-116.0051,39.6042,1811.23,82.40,24.80,12.03,0.00,0.00,0.00,30.38,M,10.00,M,M,M,M,M,M,M,M,M,M,M,M,M,M,M,M,79.79,K05U 051715Z AUTO 00000KT 10SM 28/M04 A3038 RMK A01,M
MEV,2024-07-05 17:15,-119.7500,38.9963,1441.42,82.40,39.20,21.51,290.00,3.00,0.00,30.27,M,10.00,M,CLR,M,M,M,M,M,M,M,M,M,M,M,M,M,M,80.21,KMEV 051715Z AUTO 29003KT 10SM CLR 28/04 A3027 RMK AO2,M
BAM,2024-07-05 17:15,-116.8743,40.5990,1382.36,82.40,35.60,18.67,10.00,5.00,0.00,30.28,M,10.00,M,CLR,M,M,M,M,M,M,M,M,M,M,M,M,M,M,80.08,KBAM 051715Z AUTO 01005KT 10SM CLR 28/02 A3028 RMK AO1,M
HTH,2024-07-05 17:15,-118.6315,38.5448,1282.89,86.00,17.60,7.90,M,6.00,0.00,30.25,M,10.00,M,CLR,M,M,M,M,M,M,M,M,M,M,M,M,M,M,81.85,KHTH 051715Z AUTO VRB06KT 10SM CLR 30/M08 A3025 RMK A01,M
TMT,2024-07-05 17:15,-117.1971,39.4643,1749.34,79.50,24.00,12.79,0.00,0.00,0.00,30.36,M,10.00,M,CLR,M,M,M,M,M,M,M,M,M,M,M,M,M,M,79.50,KTMT 051715Z AUTO 00000KT 10SM CLR 26/M04 A3036 RMK AO2 T02641044,M
BVU,2024-07-05 17:35,-114.8611,35.9475,671.00,102.20,12.20,3.78,20.00,13.00,0.00,29.97,M,10.00,M,CLR,M,M,M,M,M,M,M,M,M,M,M,M,M,M,94.05,KBVU 051735Z AUTO 02013KT 10SM CLR 39/M11 A2997 RMK AO2,M
CXP,2024-07-05 17:35,-119.7326,39.1923,1431.00,87.80,35.60,15.70,0.00,0.00,0.00,30.28,M,10.00,M,CLR,M,M,M,M,M,M,M,M,M,M,M,M,M,M,84.12,KCXP 051735Z AUTO 00000KT 10SM CLR 31/02 A3028 RMK AO2,M
RTS,2024-07-05 17:35,-119.8764,39.6682,1539.00,86.00,24.80,10.72,200.00,5.00,0.00,30.31,M,10.00,M,CLR,M,M,M,M,M,M,M,M,M,M,M,M,M,M,82.26,KRTS 051735Z AUTO 20005KT 10SM CLR 30/M04 A3031 RMK AO2,M
05U,2024-07-05 17:35,-116.0051,39.6042,1811.23,84.20,23.00,10.53,0.00,0.00,0.00,30.37,M,10.00,M,M,M,M,M,M,M,M,M,M,M,M,M,M,M,M,80.88,K05U 051735Z AUTO 00000KT 10SM 29/M05 A3037 RMK A01,M
MEV,2024-07-05 17:35,-119.7500,38.9963,1441.42,84.20,39.20,20.29,0.00,0.00,0.00,30.27,M,10.00,M,CLR,M,M,M,M,M,M,M,M,M,M,M,M,M,M,81.44,KMEV 051735Z AUTO 00000KT 10SM CLR 29/04 A3027 RMK AO2,M
BAM,2024-07-05 17:35,-116.8743,40.5990,1382.36,82.40,39.20,21.51,10.00,4.00,0.00,30.28,M,10.00,M,CLR,M,M,M,M,M,M,M,M,M,M,M,M,M,M,80.21,KBAM 051735Z AUTO 01004KT 10SM CLR 28/04 A3028 RMK AO1,M
HTH,2024-07-05 17:35,-118.6315,38.5448,1282.89,86.00,23.00,9.94,M,6.00,0.00,30.24,M,10.00,M,CLR,M,M,M,M,M,M,M,M,M,M,M,M,M,M,82.14,KHTH 051735Z AUTO VRB06KT 10SM CLR 30/M05 A3024 RMK A01,M
TMT,2024-07-05 17:35,-117.1971,39.4643,1749.34,82.20,27.70,13.66,0.00,0.00,0.00,30.35,M,10.00,M,CLR,M,M,M,M,M,M,M,M,M,M,M,M,M,M,79.79,KTMT 051735Z AUTO 00000KT 10SM CLR 28/M02 A3035 RMK AO2 T02791024,M
P68,2024-07-05 17:53,-116.0056,39.6014,1993.00,83.00,23.00,10.95,0.00,0.00,0.00,30.34,1019.30,M,M,M,M,M,M,M,M,M,M,M,M,M,M,M,M,M,80.07,KP68 051753Z AUTO 00000KT 28/M05 A3034 RMK AO1 SLP193 T02831050 10283 20072 $,M
DRA,2024-07-05 17:53,-116.0278,36.6206,1009.00,103.00,20.00,5.18,30.00,7.00,0.00,30.07,1012.00,10.00,M,CLR,M,M,M,M,M,M,M,M,M,M,M,M,M,M,95.17,KDRA 051753Z AUTO 03007KT 10SM CLR 39/M07 A3007 RMK AO2 SLP120 T03941067 10394 20283 58006,M
ELY,2024-07-05 17:53,-114.8453,39.2950,1909.00,83.00,22.00,10.49,50.00,11.00,0.00,30.37,1018.60,10.00,M,CLR,M,M,M,M,M,M,M,M,M,M,M,M,M,M,80.00,KELY 051753Z AUTO 05011KT 10SM CLR 28/M06 A3037 RMK AO2 SLP186 T02831056 10283 20050 58008,M
VGT,2024-07-05 17:53,-115.1933,36.2111,667.00,104.00,22.00,5.47,M,3.00,0.00,29.99,1013.80,10.00,M,CLR,M,M,M,M,M,M,M,M,M,M,M,M,M,M,96.16,KVGT 051753Z VRB03KT 10SM CLR 40/M06 A2999 RMK AO2 SLP138 T04001056 10400 20283 58002,M
LOL,2024-07-05 17:53,-118.5701,40.0684,1192.43,90.00,24.00,9.13,160.00,6.00,0.00,30.21,1018.00,10.00,M,CLR,M,M,M,M,M,M,M,M,M,M,M,M,M,M,85.11,KLOL 051753Z AUTO 16006KT 10SM CLR 32/M04 A3021 RMK AO2 SLP180 T03221044 10322 20089 58004,M
BVU,2024-07-05 17:55,-114.8611,35.9475,671.00,104.00,15.80,4.19,20.00,10.00,0.00,29.97,M,10.00,16.00,CLR,M,M,M,M,M,M,M,M,M,M,M,M,M,M,95.71,KBVU 051755Z AUTO 02010G16KT 10SM CLR 40/M09 A2997 RMK AO2,M
CXP,2024-07-05 17:55,-119.7326,39.1923,1431.00,87.80,35.60,15.70,0.00,0.00,0.00,30.27,M,10.00,M,CLR,M,M,M,M,M,M,M,M,M,M,M,M,M,M,84.12,KCXP 051755Z AUTO 00000KT 10SM CLR 31/02 A3027 RMK AO2,M
RNO,2024-07-05 17:55,-119.7711,39.4839,1341.00,89.00,33.00,13.62,0.00,0.00,0.00,30.25,1017.20,10.00,M,CLR,M,M,M,M,M,M,M,M,M,M,M,M,M,M,85.08,KRNO 051755Z 00000KT 10SM CLR 32/01 A3025 RMK AO2 SLP172 T03170006 10322 20189 58007,M
RTS,2024-07-05 17:55,-119.8764,39.6682,1539.00,87.80,21.20,8.70,90.00,7.00,0.00,30.30,M,10.00,M,CLR,M,M,M,M,M,M,M,M,M,M,M,M,M,M,83.33,KRTS 051755Z AUTO 09007KT 10SM CLR 31/M06 A3030 RMK AO2,M
05U,2024-07-05 17:55,-116.0051,39.6042,1811.23,86.00,23.00,9.94,0.00,0.00,0.00,30.37,M,10.00,M,M,M,M,M,M,M,M,M,M,M,M,M,M,M,M,82.14,K05U 051755Z AUTO 00000KT 10SM 30/M05 A3037 RMK A01,M
MEV,2024-07-05 17:55,-119.7500,38.9963,1441.42,87.80,39.20,18.09,M,5.00,0.00,30.26,M,10.00,M,CLR,M,M,M,M,M,M,M,M,M,M,M,M,M,M,84.22,KMEV 051755Z AUTO VRB05KT 10SM CLR 31/04 A3026 RMK AO2,M
BAM,2024-07-05 17:55,-116.8743,40.5990,1382.36,86.00,33.80,15.48,0.00,0.00,0.00,30.27,M,10.00,M,CLR,M,M,M,M,M,M,M,M,M,M,M,M,M,M,82.66,KBAM 051755Z AUTO 00000KT 10SM CLR 30/01 A3027 RMK AO1,M
HTH,2024-07-05 17:55,-118.6315,38.5448,1282.89,87.80,21.20,8.70,330.00,6.00,0.00,30.24,M,10.00,M,CLR,M,M,M,M,M,M,M,M,M,M,M,M,M,M,83.33,KHTH 051755Z AUTO 33006KT 10SM CLR 31/M06 A3024 RMK A01,M
TMT,2024-07-05 17:55,-117.1971,39.4643,1749.34,84.00,25.00,11.52,220.00,4.00,0.00,30.35,M,10.00,M,CLR,M,M,M,M,M,M,M,M,M,M,M,M,M,M,80.88,KTMT 051755Z AUTO 22004KT 10SM CLR 29/M04 A3035 RMK AO2 T02891038 10289 20020,M
INS,2024-07-05 17:55,-115.6733,36.5872,955.00,99.50,-3.50,1.99,330.00,6.00,0.00,30.07,1011.80,10.00,M,CLR,M,M,M,M,M,M,M,M,M,M,M,M,M,M,91.37,KINS 051755Z AUTO 33006KT 10SM CLR 38/M20 A3007 RMK AO2 SLP118 T03751197 10376 20231 57005 $,M
LSV,2024-07-05 17:55,-115.0343,36.2362,570.00,105.30,-14.30,0.99,30.00,9.00,0.00,29.94,1010.40,10.00,18.00,CLR,M,M,M,M,M,M,M,M,M,M,M,M,M,M,95.79,KLSV 051755Z AUTO 03009G18KT 10SM CLR 41/M26 A2994 RMK AO2 SLP104 T04071257 10407 20318 58004 $,M
EKO,2024-07-05 17:56,-115.7860,40.8242,1367.00,83.00,27.00,12.93,M,3.00,0.00,30.29,1019.90,10.00,M,CLR,M,M,M,M,M,M,M,M,M,M,M,M,M,M,80.35,KEKO 051756Z AUTO VRB03KT 10SM CLR 28/M03 A3029 RMK AO2 SLP199 T02831028 10283 20094 58013,M
WMC,2024-07-05 17:56,-117.8072,40.9019,1315.00,90.00,26.00,9.92,0.00,0.00,0.00,30.24,1018.60,10.00,M,CLR,M,M,M,M,M,M,M,M,M,M,M,M,M,M,85.26,KWMC 051756Z AUTO 00000KT 10SM CLR 32/M03 A3024 RMK AO2 SLP186 T03221033 10322 20078 58007,M
NFL,2024-07-05 17:56,-118.7010,39.4166,1199.00,89.00,26.00,10.24,0.00,0.00,0.00,30.21,1019.40,10.00,M,CLR,M,M,M,M,M,M,M,M,M,M,M,M,M,M,84.52,KNFL 051756Z AUTO 00000KT 10SM CLR 32/M03 A3021 RMK AO2 SLP194 T03171033 10322 20144 58001,M
HND,2024-07-05 17:56,-115.1344,35.9729,742.79,101.00,23.00,6.24,10.00,10.00,0.00,30.04,1015.00,10.00,M,CLR,M,M,M,M,M,M,M,M,M,M,M,M,M,M,93.75,KHND 051756Z 01010KT 10SM CLR 38/M05 A3004 RMK AO2 SLP150 T03831050 10383 20244 58003,M
TPH,2024-07-05 17:56,-117.0904,38.0505,1654.00,90.00,17.00,6.78,0.00,0.00,0.00,30.29,1016.30,10.00,M,CLR,M,M,M,M,M,M,M,M,M,M,M,M,M,M,84.71,KTPH 051756Z AUTO 00000KT 10SM CLR 32/M08 A3029 RMK AO2 SLP163 T03221083 10328 20178 58007,M
LAS,2024-07-05 17:56,-115.1634,36.0719,663.00,104.00,21.00,5.24,340.00,3.00,0.00,30.01,1012.70,10.00,M,CLR,M,M,M,M,M,M,M,M,M,M,M,M,M,M,96.08,KLAS 051756Z 34003KT 10SM CLR 40/M06 A3001 RMK AO2 SLP127 T04001061 10406 20294 58003,M
BVU,2024-07-05 18:15,-114.8611,35.9475,671.00,104.00,14.00,3.88,30.00,11.00,0.00,29.97,M,10.00,M,CLR,M,M,M,M,M,M,M,M,M,M,M,M,M,M,95.61,KBVU 051815Z AUTO 03011KT 10SM CLR 40/M10 A2997 RMK AO2,M
CXP,2024-07-05 18:15,-119.7326,39.1923,1431.00,91.40,32.00,12.14,0.00,0.00,0.00,30.27,M,10.00,M,CLR,M,M,M,M,M,M,M,M,M,M,M,M,M,M,86.91,KCXP 051815Z AUTO 00000KT 10SM CLR 33/00 A3027 RMK AO2,M
RTS,2024-07-05 18:15,-119.8764,39.6682,1539.00,87.80,23.00,9.39,120.00,4.00,0.00,30.30,M,10.00,10.00,CLR,M,M,M,M,M,M,M,M,M,M,M,M,M,M,83.43,KRTS 051815Z AUTO 12004G10KT 10SM CLR 31/M05 A3030 RMK AO2,M
05U,2024-07-05 18:15,-116.0051,39.6042,1811.23,87.80,17.60,7.46,M,6.00,0.00,30.37,M,10.00,11.00,M,M,M,M,M,M,M,M,M,M,M,M,M,M,M,83.14,K05U 051815Z AUTO VRB06G11KT 10SM 31/M08 A3037 RMK A01,M
MEV,2024-07-05 18:15,-119.7500,38.9963,1441.42,89.60,35.60,14.83,270.00,7.00,0.00,30.26,M,10.00,M,CLR,M,M,M,M,M,M,M,M,M,M,M,M,M,M,85.62,KMEV 051815Z AUTO 27007KT 250V310 10SM CLR 32/02 A3026 RMK AO2,M
BAM,2024-07-05 18:15,-116.8743,40.5990,1382.36,86.00,32.00,14.40,0.00,0.00,0.00,30.27,M,10.00,M,CLR,M,M,M,M,M,M,M,M,M,M,M,M,M,M,82.64,KBAM 051815Z AUTO 00000KT 10SM CLR 30/00 A3027 RMK AO1,M
HTH,2024-07-05 18:15,-118.6315,38.5448,1282.89,89.60,19.40,7.61,350.00,7.00,0.00,30.23,M,10.00,M,CLR,M,M,M,M,M,M,M,M,M,M,M,M,M,M,84.54,KHTH 051815Z AUTO 35007KT 310V010 10SM CLR 32/M07 A3023 RMK A01,M
TMT,2024-07-05 18:15,-117.1971,39.4643,1749.34,84.70,23.00,10.36,80.00,3.00,0.00,30.34,M,10.00,M,CLR,M,M,M,M,M,M,M,M,M,M,M,M,M,M,81.23,KTMT 051815Z AUTO 08003KT 10SM CLR 29/M05 A3034 RMK AO2 T02931050,M
BVU,2024-07-05 18:35,-114.8611,35.9475,671.00,104.00,12.20,3.58,50.00,12.00,0.00,29.96,M,10.00,M,CLR,M,M,M,M,M,M,M,M,M,M,M,M,M,M,95.51,KBVU 051835Z AUTO 05012KT 10SM CLR 40/M11 A2996 RMK AO2,M
CXP,2024-07-05 18:35,-119.7326,39.1923,1431.00,91.40,28.40,10.48,M,4.00,0.00,30.26,M,10.00,M,CLR,M,M,M,M,M,M,M,M,M,M,M,M,M,M,86.53,KCXP 051835Z AUTO VRB04KT 10SM CLR 33/M02 A3026 RMK AO2,M
RTS,2024-07-05 18:35,-119.8764,39.6682,1539.00,87.80,23.00,9.39,140.00,4.00,0.00,30.30,M,10.00,M,CLR,M,M,M,M,M,M,M,M,M,M,M,M,M,M,83.43,KRTS 051835Z AUTO 14004KT 10SM CLR 31/M05 A3030 RMK AO2,M
05U,2024-07-05 18:35,-116.0051,39.6042,1811.23,87.80,19.40,8.06,220.00,7.00,0.00,30.36,M,10.00,M,M,M,M,M,M,M,M,M,M,M,M,M,M,M,M,83.23,K05U 051835Z AUTO 22007KT 200V260 10SM 31/M07 A3036 RMK A01,M
MEV,2024-07-05 18:35,-119.7500,38.9963,1441.42,89.60,33.80,13.80,300.00,7.00,0.00,30.25,M,10.00,M,CLR,M,M,M,M,M,M,M,M,M,M,M,M,M,M,85.59,KMEV 051835Z AUTO 30007KT 10SM CLR 32/01 A3025 RMK AO2,M
BAM,2024-07-05 18:35,-116.8743,40.5990,1382.36,87.80,32.00,13.59,330.00,5.00,0.00,30.26,M,10.00,M,CLR,M,M,M,M,M,M,M,M,M,M,M,M,M,M,84.08,KBAM 051835Z AUTO 33005KT 10SM CLR 31/00 A3026 RMK AO1,M
HTH,2024-07-05 18:35,-118.6315,38.5448,1282.89,89.60,17.60,7.05,340.00,6.00,0.00,30.22,M,10.00,M,CLR,M,M,M,M,M,M,M,M,M,M,M,M,M,M,84.45,KHTH 051835Z AUTO 34006KT 10SM CLR 32/M08 A3022 RMK A01,M
TMT,2024-07-05 18:35,-117.1971,39.4643,1749.34,86.00,24.00,10.37,80.00,3.00,0.00,30.34,M,10.00,M,CLR,M,M,M,M,M,M,M,M,M,M,M,M,M,M,82.21,KTMT 051835Z AUTO 08003KT 10SM CLR 30/M04 A3034 RMK AO2 T03011044,M
P68,2024-07-05 18:53,-116.0056,39.6014,1993.00,87.00,20.00,8.48,40.00,11.00,0.00,30.33,1018.50,M,M,M,M,M,M,M,M,M,M,M,M,M,M,M,M,M,82.68,KP68 051853Z AUTO 04011KT 31/M07 A3033 RMK AO1 SLP185 T03061067 $,M
DRA,2024-07-05 18:53,-116.0278,36.6206,1009.00,104.00,17.00,4.42,120.00,10.00,0.00,30.05,1011.40,10.00,17.00,CLR,M,M,M,M,M,M,M,M,M,M,M,M,M,M,95.79,KDRA 051853Z AUTO 12010G17KT 10SM CLR 40/M08 A3005 RMK AO2 SLP114 T04001083,M
ELY,2024-07-05 18:53,-114.8453,39.2950,1909.00,84.00,22.00,10.16,360.00,7.00,0.00,30.35,1018.30,10.00,17.00,CLR,M,M,M,M,M,M,M,M,M,M,M,M,M,M,80.68,KELY 051853Z AUTO 36007G17KT 10SM CLR 29/M06 A3035 RMK AO2 SLP183 T02891056,M
VGT,2024-07-05 18:53,-115.1933,36.2111,667.00,106.00,22.00,5.16,70.00,11.00,0.00,29.97,1013.20,10.00,M,CLR,M,M,M,M,M,M,M,M,M,M,M,M,M,M,97.82,KVGT 051853Z 07011KT 10SM CLR 41/M06 A2997 RMK AO2 SLP132 T04111056,M
LOL,2024-07-05 18:53,-118.5701,40.0684,1192.43,93.00,25.00,8.67,M,3.00,0.00,30.19,1018.20,10.00,M,CLR,M,M,M,M,M,M,M,M,M,M,M,M,M,M,87.43,KLOL 051853Z AUTO VRB03KT 10SM CLR 34/M04 A3019 RMK AO2 SLP182 T03391039,M
BVU,2024-07-05 18:55,-114.8611,35.9475,671.00,104.00,12.20,3.58,50.00,11.00,0.00,29.96,M,10.00,16.00,CLR,M,M,M,M,M,M,M,M,M,M,M,M,M,M,95.51,KBVU 051855Z AUTO 05011G16KT 10SM CLR 40/M11 A2996 RMK AO2,M
CXP,2024-07-05 18:55,-119.7326,39.1923,1431.00,93.20,26.60,9.21,0.00,0.00,0.00,30.26,M,10.00,11.00,CLR,M,M,M,M,M,M,M,M,M,M,M,M,M,M,87.72,KCXP 051855Z AUTO 00000G11KT 10SM CLR 34/M03 A3026 RMK AO2,M
RNO,2024-07-05 18:55,-119.7711,39.4839,1341.00,93.00,32.00,11.55,80.00,4.00,0.00,30.23,1016.60,10.00,M,CLR,M,M,M,M,M,M,M,M,M,M,M,M,M,M,88.15,KRNO 051855Z COR 08004KT 10SM CLR 34/00 A3023 RMK AO2 SLP166 T03390000,M
RTS,2024-07-05 18:55,-119.8764,39.6682,1539.00,89.60,24.80,9.56,M,6.00,0.00,30.29,M,10.00,M,CLR,M,M,M,M,M,M,M,M,M,M,M,M,M,M,84.88,KRTS 051855Z AUTO VRB06KT 130V200 10SM CLR 32/M04 A3029 RMK AO2,M
05U,2024-07-05 18:55,-116.0051,39.6042,1811.23,89.60,21.20,8.22,180.00,9.00,0.00,30.36,M,10.00,M,M,M,M,M,M,M,M,M,M,M,M,M,M,M,M,84.64,K05U 051855Z AUTO 18009KT 10SM 32/M06 A3036 RMK A01,M
MEV,2024-07-05 18:55,-119.7500,38.9963,1441.42,91.40,32.00,12.14,310.00,6.00,0.00,30.25,M,10.00,M,CLR,M,M,M,M,M,M,M,M,M,M,M,M,M,M,86.91,KMEV 051855Z AUTO 31006KT 10SM CLR 33/M00 A3025 RMK AO2,M
BAM,2024-07-05 18:55,-116.8743,40.5990,1382.36,89.60,30.20,11.94,360.00,4.00,0.00,30.26,M,10.00,M,CLR,M,M,M,M,M,M,M,M,M,M,M,M,M,M,85.34,KBAM 051855Z AUTO 36004KT 10SM CLR 32/M01 A3026 RMK AO1,M
HTH,2024-07-05 18:55,-118.6315,38.5448,1282.89,91.40,15.80,6.16,320.00,6.00,0.00,30.22,M,10.00,M,CLR,M,M,M,M,M,M,M,M,M,M,M,M,M,M,85.68,KHTH 051855Z AUTO 32006KT 10SM CLR 33/M09 A3022 RMK A01,M
TMT,2024-07-05 18:55,-117.1971,39.4643,1749.34,88.00,24.80,10.06,90.00,6.00,0.00,30.34,M,10.00,M,CLR,M,M,M,M,M,M,M,M,M,M,M,M,M,M,83.70,KTMT 051855Z AUTO 09006KT 10SM CLR 31/M04 A3034 RMK AO2 T03111040,M
INS,2024-07-05 18:55,-115.6733,36.5872,955.00,100.60,-3.00,1.97,0.00,0.00,0.00,30.04,1010.90,10.00,M,CLR,M,M,M,M,M,M,M,M,M,M,M,M,M,M,92.27,KINS 051855Z AUTO 00000KT 10SM CLR 38/M19 A3004 RMK AO2 SLP109 T03811194 $,M
LSV,2024-07-05 18:55,-115.0343,36.2362,570.00,106.70,-13.40,0.99,80.00,11.00,0.00,29.92,1009.70,10.00,M,CLR,M,M,M,M,M,M,M,M,M,M,M,M,M,M,96.89,KLSV 051855Z AUTO 08011KT 10SM CLR 42/M25 A2992 RMK AO2 SLP097 T04151252 $,M
EKO,2024-07-05 18:56,-115.7860,40.8242,1367.00,88.00,29.00,11.96,M,6.00,0.00,30.27,1019.10,10.00,M,CLR,M,M,M,M,M,M,M,M,M,M,M,M,M,M,84.04,KEKO 051856Z AUTO VRB06KT 10SM CLR 31/M02 A3027 RMK AO2 SLP191 T03111017,M
WMC,2024-07-05 18:56,-117.8072,40.9019,1315.00,94.00,25.00,8.40,M,3.00,0.00,30.22,1017.80,10.00,M,CLR,M,M,M,M,M,M,M,M,M,M,M,M,M,M,88.18,KWMC 051856Z AUTO VRB03KT 10SM CLR 34/M04 A3022 RMK AO2 SLP178 T03441039,M
HND,2024-07-05 18:56,-115.1344,35.9729,742.79,103.00,23.00,5.88,40.00,8.00,0.00,30.02,1014.60,10.00,M,CLR,M,M,M,M,M,M,M,M,M,M,M,M,M,M,95.42,KHND 051856Z 04008KT 10SM CLR 39/M05 A3002 RMK AO2 SLP146 T03941050,M
TPH,2024-07-05 18:56,-117.0904,38.0505,1654.00,93.00,18.00,6.45,30.00,8.00,0.00,30.28,1015.60,10.00,M,CLR,M,M,M,M,M,M,M,M,M,M,M,M,M,M,86.95,KTPH 051856Z AUTO 03008KT 10SM CLR 34/M08 A3028 RMK AO2 SLP156 T03391078,M
LAS,2024-07-05 18:56,-115.1634,36.0719,663.00,106.00,20.00,4.74,40.00,7.00,0.00,29.99,1011.90,10.00,M,CLR,M,M,M,M,M,M,M,M,M,M,M,M,M,M,97.65,KLAS 051856Z 04007KT 10SM CLR 41/M07 A2999 RMK AO2 SLP119 T04111067,M
LSV,2024-07-05 19:04,-115.0343,36.2362,570.00,107.60,-13.00,0.98,50.00,11.00,0.00,29.91,1009.50,10.00,M,CLR,M,M,M,M,M,M,M,M,M,M,M,M,M,M,97.60,KLSV 051904Z AUTO 05011KT 10SM CLR 42/M25 A2991 RMK AO2 WSHFT 02 SLP095 $,M
BVU,2024-07-05 19:15,-114.8611,35.9475,671.00,105.80,12.20,3.40,40.00,12.00,0.00,29.95,M,10.00,M,CLR,M,M,M,M,M,M,M,M,M,M,M,M,M,M,96.97,KBVU 051915Z AUTO 04012KT 10SM CLR 41/M11 A2995 RMK AO2,M
CXP,2024-07-05 19:15,-119.7326,39.1923,1431.00,93.20,24.80,8.54,M,4.00,0.00,30.25,M,10.00,M,CLR,M,M,M,M,M,M,M,M,M,M,M,M,M,M,87.56,KCXP 051915Z AUTO VRB04KT 10SM CLR 34/M04 A3025 RMK AO2,M
RTS,2024-07-05 19:15,-119.8764,39.6682,1539.00,89.60,23.00,8.87,M,3.00,0.00,30.29,M,10.00,M,CLR,M,M,M,M,M,M,M,M,M,M,M,M,M,M,84.75,KRTS 051915Z AUTO VRB03KT 10SM CLR 32/M05 A3029 RMK AO2,M
05U,2024-07-05 19:15,-116.0051,39.6042,1811.23,89.60,21.20,8.22,190.00,9.00,0.00,30.35,M,10.00,14.00,M,M,M,M,M,M,M,M,M,M,M,M,M,M,M,84.64,K05U 051915Z AUTO 19009G14KT 10SM 32/M06 A3035 RMK A01,M
MEV,2024-07-05 19:15,-119.7500,38.9963,1441.42,91.40,30.20,11.28,M,3.00,0.00,30.24,M,10.00,M,CLR,M,M,M,M,M,M,M,M,M,M,M,M,M,M,86.71,KMEV 051915Z AUTO VRB03KT 10SM CLR 33/M01 A3024 RMK AO2,M
BAM,2024-07-05 19:15,-116.8743,40.5990,1382.36,91.40,28.40,10.48,310.00,3.00,0.00,30.25,M,10.00,M,CLR,M,M,M,M,M,M,M,M,M,M,M,M,M,M,86.53,KBAM 051915Z AUTO 31003KT 10SM CLR 33/M02 A3025 RMK AO1,M
HTH,2024-07-05 19:15,-118.6315,38.5448,1282.89,93.20,14.00,5.38,360.00,8.00,0.00,30.21,M,10.00,M,CLR,M,M,M,M,M,M,M,M,M,M,M,M,M,M,86.90,KHTH 051915Z AUTO 36008KT 330V030 10SM CLR 34/M10 A3021 RMK A01,M
TMT,2024-07-05 19:15,-117.1971,39.4643,1749.34,87.60,23.40,9.61,60.00,5.00,0.00,30.33,M,10.00,M,CLR,M,M,M,M,M,M,M,M,M,M,M,M,M,M,83.32,KTMT 051915Z AUTO 06005KT 10SM CLR 31/M05 A3033 RMK AO2 T03091048,M
BVU,2024-07-05 19:35,-114.8611,35.9475,671.00,105.80,10.40,3.14,60.00,10.00,0.00,29.94,M,10.00,M,CLR,M,M,M,M,M,M,M,M,M,M,M,M,M,M,96.88,KBVU 051935Z AUTO 06010KT 10SM CLR 41/M12 A2994 RMK AO2,M
CXP,2024-07-05 19:35,-119.7326,39.1923,1431.00,93.20,23.00,7.92,0.00,0.00,0.00,30.25,M,10.00,M,CLR,M,M,M,M,M,M,M,M,M,M,M,M,M,M,87.42,KCXP 051935Z AUTO 00000KT 10SM CLR 34/M05 A3025 RMK AO2,M
RTS,2024-07-05 19:35,-119.8764,39.6682,1539.00,91.40,19.40,7.19,0.00,0.00,0.00,30.29,M,10.00,12.00,CLR,M,M,M,M,M,M,M,M,M,M,M,M,M,M,85.86,KRTS 051935Z AUTO 00000G12KT 10SM CLR 33/M07 A3029 RMK AO2,M
05U,2024-07-05 19:35,-116.0051,39.6042,1811.23,89.60,21.20,8.22,190.00,8.00,0.00,30.35,M,10.00,16.00,M,M,M,M,M,M,M,M,M,M,M,M,M,M,M,84.64,K05U 051935Z AUTO 19008G16KT 10SM 32/M06 A3035 RMK A01,M
MEV,2024-07-05 19:35,-119.7500,38.9963,1441.42,93.20,33.80,12.34,M,6.00,0.00,30.23,M,10.00,M,CLR,M,M,M,M,M,M,M,M,M,M,M,M,M,M,88.55,KMEV 051935Z AUTO VRB06KT 10SM CLR 34/01 A3023 RMK AO2,M
BAM,2024-07-05 19:35,-116.8743,40.5990,1382.36,91.40,26.60,9.74,320.00,8.00,0.00,30.25,M,10.00,M,CLR,M,M,M,M,M,M,M,M,M,M,M,M,M,M,86.36,KBAM 051935Z AUTO 32008KT 10SM CLR 33/M03 A3025 RMK AO1,M
HTH,2024-07-05 19:35,-118.6315,38.5448,1282.89,95.00,14.00,5.09,310.00,8.00,0.00,30.20,M,10.00,M,CLR,M,M,M,M,M,M,M,M,M,M,M,M,M,M,88.20,KHTH 051935Z AUTO 31008KT 10SM CLR 35/M10 A3020 RMK A01,M
TMT,2024-07-05 19:35,-117.1971,39.4643,1749.34,88.00,23.40,9.48,140.00,5.00,0.00,30.32,M,10.00,M,CLR,M,M,M,M,M,M,M,M,M,M,M,M,M,M,83.61,KTMT 051935Z AUTO 14005KT 10SM CLR 31/M05 A3032 RMK AO2 T03111048,M
P68,2024-07-05 19:53,-116.0056,39.6014,1993.00,87.00,20.00,8.48,30.00,9.00,0.00,30.31,1017.90,M,16.00,M,M,M,M,M,M,M,M,M,M,M,M,M,M,M,82.68,KP68 051953Z AUTO 03009G16KT 31/M07 A3031 RMK AO1 SLP179 T03061067,M
DRA,2024-07-05 19:53,-116.0278,36.6206,1009.00,107.00,18.00,4.22,M,M,0.00,30.04,1010.70,10.00,M,CLR,M,M,M,M,M,M,M,M,M,M,M,M,M,M,98.32,KDRA 051953Z AUTO 10SM CLR 42/M08 A3004 RMK AO2 SLP107 T04171078,M
ELY,2024-07-05 19:53,-114.8453,39.2950,1909.00,86.00,22.00,9.53,60.00,9.00,0.00,30.33,1017.50,10.00,M,CLR,M,M,M,M,M,M,M,M,M,M,M,M,M,M,82.08,KELY 051953Z AUTO 06009KT 10SM CLR 30/M06 A3033 RMK AO2 SLP175 T03001056,M
VGT,2024-07-05 19:53,-115.1933,36.2111,667.00,109.00,22.00,4.72,90.00,8.00,0.00,29.95,1012.20,10.00,M,CLR,M,M,M,M,M,M,M,M,M,M,M,M,M,M,100.33,KVGT 051953Z 09008KT 10SM CLR 43/M06 A2995 RMK AO2 SLP122 T04281056,M
LOL,2024-07-05 19:53,-118.5701,40.0684,1192.43,97.00,22.00,6.76,110.00,6.00,0.00,30.17,1017.40,10.00,M,CLR,M,M,M,M,M,M,M,M,M,M,M,M,M,M,90.34,KLOL 051953Z AUTO 11006KT 10SM CLR 36/M06 A3017 RMK AO2 SLP174 T03611056,M
BVU,2024-07-05 19:55,-114.8611,35.9475,671.00,107.60,12.20,3.22,40.00,13.00,0.00,29.93,M,10.00,18.00,CLR,M,M,M,M,M,M,M,M,M,M,M,M,M,M,98.43,KBVU 051955Z AUTO 04013G18KT 10SM CLR 42/M11 A2993 RMK AO2,M
CXP,2024-07-05 19:55,-119.7326,39.1923,1431.00,95.00,24.80,8.08,0.00,0.00,0.00,30.24,M,10.00,M,CLR,M,M,M,M,M,M,M,M,M,M,M,M,M,M,88.91,KCXP 051955Z AUTO 00000KT 10SM CLR 35/M04 A3024 RMK AO2,M
INS,2024-07-05 19:55,-115.6733,36.5872,955.00,104.00,-15.00,0.99,250.00,3.00,0.00,30.03,1010.60,10.00,M,CLR,M,M,M,M,M,M,M,M,M,M,M,M,M,M,94.77,KINS 051955Z AUTO 25003KT 10SM CLR 40/M26 A3003 RMK AO2 SLP106 T03991261 $,M
RNO,2024-07-05 19:55,-119.7711,39.4839,1341.00,97.00,27.00,8.32,350.00,7.00,0.00,30.21,1015.90,10.00,M,CLR,M,M,M,M,M,M,M,M,M,M,M,M,M,M,90.77,KRNO 051955Z 35007KT 10SM CLR 36/M03 A3021 RMK AO2 SLP159 T03611028,M
RTS,2024-07-05 19:55,-119.8764,39.6682,1539.00,91.40,17.60,6.66,M,5.00,0.00,30.28,M,10.00,M,CLR,M,M,M,M,M,M,M,M,M,M,M,M,M,M,85.76,KRTS 051955Z AUTO VRB05KT 10SM CLR 33/M08 A3028 RMK AO2,M
05U,2024-07-05 19:55,-116.0051,39.6042,1811.23,89.60,21.20,8.22,170.00,9.00,0.00,30.34,M,10.00,14.00,M,M,M,M,M,M,M,M,M,M,M,M,M,M,M,84.64,K05U 051955Z AUTO 17009G14KT 10SM 32/M06 A3034 RMK A01,M
MEV,2024-07-05 19:55,-119.7500,38.9963,1441.42,95.00,32.00,10.85,290.00,6.00,0.00,30.22,M,10.00,M,CLR,M,M,M,M,M,M,M,M,M,M,M,M,M,M,89.71,KMEV 051955Z AUTO 29006KT 10SM CLR 35/00 A3022 RMK AO2,M
BAM,2024-07-05 19:55,-116.8743,40.5990,1382.36,91.40,26.60,9.74,10.00,7.00,0.00,30.24,M,10.00,M,CLR,M,M,M,M,M,M,M,M,M,M,M,M,M,M,86.36,KBAM 051955Z AUTO 01007KT 10SM CLR 33/M03 A3024 RMK AO1,M
HTH,2024-07-05 19:55,-118.6315,38.5448,1282.89,95.00,12.20,4.70,10.00,7.00,0.00,30.19,M,10.00,M,CLR,M,M,M,M,M,M,M,M,M,M,M,M,M,M,88.11,KHTH 051955Z AUTO 01007KT 340V040 10SM CLR 35/M11 A3019 RMK A01,M
TMT,2024-07-05 19:55,-117.1971,39.4643,1749.34,88.70,23.40,9.28,10.00,3.00,0.00,30.31,M,10.00,M,CLR,M,M,M,M,M,M,M,M,M,M,M,M,M,M,84.12,KTMT 051955Z AUTO 01003KT 10SM CLR 32/M05 A3031 RMK AO2 T03151048,M
LSV,2024-07-05 19:55,-115.0343,36.2362,570.00,M,M,M,70.00,13.00,0.00,29.89,M,10.00,M,CLR,M,M,M,M,M,M,M,M,M,M,M,M,M,M,M,KLSV 051955Z AUTO 07013KT 10SM CLR M A2989 RMK AO2 SLPNO ALSTG ESTMD $,M
EKO,2024-07-05 19:56,-115.7860,40.8242,1367.00,90.00,28.00,10.78,0.00,0.00,0.00,30.25,1018.30,10.00,M,CLR,M,M,M,M,M,M,M,M,M,M,M,M,M,M,85.43,KEKO 051956Z AUTO 00000KT 10SM CLR 32/M02 A3025 RMK AO2 SLP183 T03221022,M
WMC,2024-07-05 19:56,-117.8072,40.9019,1315.00,98.00,22.00,6.55,340.00,9.00,0.00,30.21,1016.90,10.00,M,CLR,M,M,M,M,M,M,M,M,M,M,M,M,M,M,91.17,KWMC 051956Z AUTO 34009KT 10SM CLR 37/M06 A3021 RMK AO2 SLP169 T03671056,M
NFL,2024-07-05 19:56,-118.7010,39.4166,1199.00,96.00,24.00,7.58,M,4.00,0.00,30.17,1018.20,10.00,M,CLR,M,M,M,M,M,M,M,M,M,M,M,M,M,M,89.67,KNFL 051956Z AUTO VRB04KT 10SM CLR 36/M04 A3017 RMK AO2 SLP182 T03561044,M
HND,2024-07-05 19:56,-115.1344,35.9729,742.79,106.00,22.00,5.16,30.00,9.00,0.00,30.00,1013.60,10.00,M,CLR,M,M,M,M,M,M,M,M,M,M,M,M,M,M,97.82,KHND 051956Z 03009KT 10SM CLR 41/M06 A3000 RMK AO2 SLP136 T04111056,M
TPH,2024-07-05 19:56,-117.0904,38.0505,1654.00,95.00,18.00,6.06,260.00,9.00,0.00,30.26,1015.10,10.00,16.00,CLR,M,M,M,M,M,M,M,M,M,M,M,M,M,M,88.41,KTPH 051956Z AUTO 26009G16KT 210V290 10SM CLR 35/M08 A3026 RMK AO2 SLP151 T03501078,M
LAS,2024-07-05 19:56,-115.1634,36.0719,663.00,109.00,19.00,4.16,30.00,4.00,0.00,29.96,1011.00,10.00,M,CLR,M,M,M,M,M,M,M,M,M,M,M,M,M,M,100.06,KLAS 051956Z 03004KT 10SM CLR 43/M07 A2996 RMK AO2 SLP110 T04281072,M
BVU,2024-07-05 20:15,-114.8611,35.9475,671.00,107.60,10.40,2.97,50.00,9.00,0.00,29.92,M,10.00,16.00,CLR,M,M,M,M,M,M,M,M,M,M,M,M,M,M,98.33,KBVU 052015Z AUTO 05009G16KT 10SM CLR 42/M12 A2992 RMK AO2,M
CXP,2024-07-05 20:15,-119.7326,39.1923,1431.00,95.00,23.00,7.49,0.00,0.00,0.00,30.23,M,10.00,M,CLR,M,M,M,M,M,M,M,M,M,M,M,M,M,M,88.76,KCXP 052015Z AUTO 00000KT 10SM CLR 35/M05 A3023 RMK AO2,M
RTS,2024-07-05 20:15,-119.8764,39.6682,1539.00,93.20,15.80,5.82,M,5.00,0.00,30.27,M,10.00,M,CLR,M,M,M,M,M,M,M,M,M,M,M,M,M,M,86.99,KRTS 052015Z AUTO VRB05KT 10SM CLR 34/M09 A3027 RMK AO2,M
05U,2024-07-05 20:15,-116.0051,39.6042,1811.23,89.60,23.00,8.87,M,4.00,0.00,30.33,M,10.00,11.00,M,M,M,M,M,M,M,M,M,M,M,M,M,M,M,84.75,K05U 052015Z AUTO VRB04G11KT 10SM 32/M05 A3033 RMK A01,M
BAM,2024-07-05 20:15,-116.8743,40.5990,1382.36,95.00,26.60,8.71,350.00,5.00,0.00,30.24,M,10.00,M,CLR,M,M,M,M,M,M,M,M,M,M,M,M,M,M,89.08,KBAM 052015Z AUTO 35005KT 10SM CLR 35/M03 A3024 RMK AO1,M
TMT,2024-07-05 20:15,-117.1971,39.4643,1749.34,90.00,24.60,9.36,110.00,4.00,0.00,30.31,M,10.00,M,CLR,M,M,M,M,M,M,M,M,M,M,M,M,M,M,85.16,KTMT 052015Z AUTO 11004KT 10SM CLR 32/M04 A3031 RMK AO2 T03221041,M
BVU,2024-07-05 20:35,-114.8611,35.9475,671.00,107.60,12.20,3.22,30.00,10.00,0.00,29.92,M,10.00,M,CLR,M,M,M,M,M,M,M,M,M,M,M,M,M,M,98.43,KBVU 052035Z AUTO 03010KT 10SM CLR 42/M11 A2992 RMK AO2,M
CXP,2024-07-05 20:35,-119.7326,39.1923,1431.00,95.00,23.00,7.49,M,4.00,0.00,30.23,M,10.00,M,CLR,M,M,M,M,M,M,M,M,M,M,M,M,M,M,88.76,KCXP 052035Z AUTO VRB04KT 10SM CLR 35/M05 A3023 RMK AO2,M
RTS,2024-07-05 20:35,-119.8764,39.6682,1539.00,91.40,15.80,6.16,M,4.00,0.00,30.27,M,10.00,12.00,CLR,M,M,M,M,M,M,M,M,M,M,M,M,M,M,85.68,KRTS 052035Z AUTO VRB04G12KT 10SM CLR 33/M09 A3027 RMK AO2,M
05U,2024-07-05 20:35,-116.0051,39.6042,1811.23,91.40,21.20,7.77,M,6.00,0.00,30.32,M,10.00,14.00,M,M,M,M,M,M,M,M,M,M,M,M,M,M,M,85.96,K05U 052035Z AUTO VRB06G14KT 10SM 33/M06 A3032 RMK A01,M
MEV,2024-07-05 20:35,-119.7500,38.9963,1441.42,95.00,30.20,10.09,M,4.00,0.00,30.21,M,10.00,M,CLR,M,M,M,M,M,M,M,M,M,M,M,M,M,M,89.48,KMEV 052035Z AUTO VRB04KT 10SM CLR 35/M01 A3021 RMK AO2,M
BAM,2024-07-05 20:35,-116.8743,40.5990,1382.36,93.20,26.60,9.21,350.00,6.00,0.00,30.23,M,10.00,M,CLR,M,M,M,M,M,M,M,M,M,M,M,M,M,M,87.72,KBAM 052035Z AUTO 35006KT 10SM CLR 34/M03 A3023 RMK AO1,M
HTH,2024-07-05 20:35,-118.6315,38.5448,1282.89,96.80,14.00,4.82,M,5.00,0.00,30.17,M,10.00,13.00,CLR,M,M,M,M,M,M,M,M,M,M,M,M,M,M,89.69,KHTH 052035Z AUTO VRB05G13KT 10SM CLR 36/M10 A3017 RMK A01,M
TMT,2024-07-05 20:35,-117.1971,39.4643,1749.34,89.00,24.00,9.42,80.00,3.00,0.00,30.30,M,10.00,M,CLR,M,M,M,M,M,M,M,M,M,M,M,M,M,M,84.38,KTMT 052035Z AUTO 08003KT 10SM CLR 32/M04 A3030 RMK AO2 T03171045,M
P68,2024-07-05 20:53,-116.0056,39.6014,1993.00,91.00,19.00,7.16,M,4.00,0.00,30.29,1017.00,M,15.00,M,M,M,M,M,M,M,M,M,M,M,M,M,M,M,85.54,KP68 052053Z AUTO VRB04G15KT 33/M07 A3029 RMK AO1 SLP170 T03281072 58016,M
DRA,2024-07-05 20:53,-116.0278,36.6206,1009.00,108.00,17.00,3.93,M,6.00,0.00,30.02,1009.90,10.00,16.00,CLR,M,M,M,M,M,M,M,M,M,M,M,M,M,M,99.07,KDRA 052053Z AUTO VRB06G16KT 10SM CLR 42/M08 A3002 RMK AO2 SLP099 T04221083 58017,M
ELY,2024-07-05 20:53,-114.8453,39.2950,1909.00,88.00,22.00,8.94,M,M,0.00,30.30,1016.40,10.00,M,CLR,M,M,M,M,M,M,M,M,M,M,M,M,M,M,83.52,KELY 052053Z AUTO 10SM CLR 31/M06 A3030 RMK AO2 SLP164 T03111056 58018,M
VGT,2024-07-05 20:53,-115.1933,36.2111,667.00,108.00,22.00,4.86,240.00,4.00,0.00,29.92,1011.40,10.00,M,CLR,M,M,M,M,M,M,M,M,M,M,M,M,M,M,99.49,KVGT 052053Z 24004KT 10SM CLR 42/M06 A2992 RMK AO2 SLP114 T04221056 58023,M
LOL,2024-07-05 20:53,-118.5701,40.0684,1192.43,97.00,25.00,7.66,150.00,10.00,0.00,30.15,1016.70,10.00,M,CLR,M,M,M,M,M,M,M,M,M,M,M,M,M,M,90.58,KLOL 052053Z AUTO 15010KT 10SM CLR 36/M04 A3015 RMK AO2 SLP167 T03611039 58017 $,M
BVU,2024-07-05 20:55,-114.8611,35.9475,671.00,107.60,10.40,2.97,40.00,7.00,0.00,29.91,M,10.00,15.00,CLR,M,M,M,M,M,M,M,M,M,M,M,M,M,M,98.33,KBVU 052055Z AUTO 04007G15KT 10SM CLR 42/M12 A2991 RMK AO2,M
CXP,2024-07-05 20:55,-119.7326,39.1923,1431.00,95.00,19.40,6.43,M,4.00,0.00,30.22,M,10.00,M,CLR,M,M,M,M,M,M,M,M,M,M,M,M,M,M,88.50,KCXP 052055Z AUTO VRB04KT 10SM CLR 35/M07 A3022 RMK AO2,M
RNO,2024-07-05 20:55,-119.7711,39.4839,1341.00,100.00,26.00,7.29,M,5.00,0.00,30.19,1015.20,10.00,M,CLR,M,M,M,M,M,M,M,M,M,M,M,M,M,M,93.18,KRNO 052055Z VRB05KT 10SM CLR 38/M03 A3019 RMK AO2 SLP152 T03781033 58017,M
RTS,2024-07-05 20:55,-119.8764,39.6682,1539.00,93.20,14.00,5.38,M,4.00,0.00,30.26,M,10.00,10.00,CLR,M,M,M,M,M,M,M,M,M,M,M,M,M,M,86.90,KRTS 052055Z AUTO VRB04G10KT 10SM CLR 34/M10 A3026 RMK AO2,M
05U,2024-07-05 20:55,-116.0051,39.6042,1811.23,91.40,21.20,7.77,M,6.00,0.00,30.31,M,10.00,12.00,M,M,M,M,M,M,M,M,M,M,M,M,M,M,M,85.96,K05U 052055Z AUTO VRB06G12KT 10SM 33/M06 A3031 RMK A01,M
MEV,2024-07-05 20:55,-119.7500,38.9963,1441.42,95.00,30.20,10.09,M,4.00,0.00,30.20,M,10.00,11.00,CLR,M,M,M,M,M,M,M,M,M,M,M,M,M,M,89.48,KMEV 052055Z AUTO VRB04G11KT 10SM CLR 35/M01 A3020 RMK AO2,M
BAM,2024-07-05 20:55,-116.8743,40.5990,1382.36,95.00,26.60,8.71,360.00,9.00,0.00,30.22,M,10.00,14.00,CLR,M,M,M,M,M,M,M,M,M,M,M,M,M,M,89.08,KBAM 052055Z AUTO 36009G14KT 10SM CLR 35/M03 A3022 RMK AO1,M
HTH,2024-07-05 20:55,-118.6315,38.5448,1282.89,96.80,14.00,4.82,M,3.00,0.00,30.16,M,10.00,13.00,CLR,M,M,M,M,M,M,M,M,M,M,M,M,M,M,89.69,KHTH 052055Z AUTO VRB03G13KT 10SM CLR 36/M10 A3016 RMK A01,M
TMT,2024-07-05 20:55,-117.1971,39.4643,1749.34,89.40,23.50,9.11,100.00,3.00,0.00,30.29,M,10.00,M,CLR,M,M,M,M,M,M,M,M,M,M,M,M,M,M,84.64,KTMT 052055Z AUTO 10003KT 10SM CLR 32/M05 A3029 RMK AO2 T03191047,M
INS,2024-07-05 20:55,-115.6733,36.5872,955.00,104.70,-14.40,1.00,220.00,5.00,0.00,30.00,1009.60,10.00,M,CLR,M,M,M,M,M,M,M,M,M,M,M,M,M,M,95.32,KINS 052055Z AUTO 22005KT 10SM CLR 40/M26 A3000 RMK AO2 SLP096 T04041258 57021 $,M
LSV,2024-07-05 20:55,-115.0343,36.2362,570.00,108.70,-12.00,1.00,90.00,8.00,0.00,29.86,1007.60,10.00,M,CLR,M,M,M,M,M,M,M,M,M,M,M,M,M,M,98.48,KLSV 052055Z AUTO 09008KT 10SM CLR 43/M24 A2986 RMK AO2 SLP076 T04261245 57025 $,M
EKO,2024-07-05 20:56,-115.7860,40.8242,1367.00,94.00,26.00,8.76,280.00,11.00,0.00,30.23,1017.20,10.00,M,CLR,M,M,M,M,M,M,M,M,M,M,M,M,M,M,88.27,KEKO 052056Z AUTO 28011KT 10SM CLR 34/M03 A3023 RMK AO2 SLP172 T03441033 58018,M
WMC,2024-07-05 20:56,-117.8072,40.9019,1315.00,96.00,22.00,6.97,M,4.00,0.00,30.19,1016.60,10.00,M,CLR,M,M,M,M,M,M,M,M,M,M,M,M,M,M,89.51,KWMC 052056Z AUTO VRB04KT 10SM CLR 36/M06 A3019 RMK AO2 SLP166 T03561056 58015,M
NFL,2024-07-05 20:56,-118.7010,39.4166,1199.00,98.00,19.00,5.77,M,3.00,0.00,30.15,1017.60,10.00,M,CLR,M,M,M,M,M,M,M,M,M,M,M,M,M,M,90.96,KNFL 052056Z AUTO VRB03KT 10SM CLR 37/M07 A3015 RMK AO2 SLP176 T03671072 58018,M
HND,2024-07-05 20:56,-115.1344,35.9729,742.79,108.00,20.00,4.47,10.00,8.00,0.00,29.97,1012.80,10.00,14.00,CLR,M,M,M,M,M,M,M,M,M,M,M,M,M,M,99.31,KHND 052056Z 01008G14KT 10SM CLR 42/M07 A2997 RMK AO2 SLP128 T04221067 58021,M
TPH,2024-07-05 20:56,-117.0904,38.0505,1654.00,98.00,16.00,5.07,260.00,13.00,0.00,30.24,1014.30,10.00,19.00,CLR,M,M,M,M,M,M,M,M,M,M,M,M,M,M,90.79,KTPH 052056Z AUTO 26013G19KT 10SM CLR 37/M09 A3024 RMK AO2 SLP143 T03671089 58016,M
LAS,2024-07-05 20:56,-115.1634,36.0719,663.00,109.00,18.00,3.98,0.00,0.00,0.00,29.94,1010.20,10.00,M,CLR,M,M,M,M,M,M,M,M,M,M,M,M,M,M,99.98,KLAS 052056Z 00000KT 10SM CLR 43/M08 A2994 RMK AO2 SLP102 T04281078 58022,M
BVU,2024-07-05 21:15,-114.8611,35.9475,671.00,107.60,10.40,2.97,70.00,7.00,0.00,29.90,M,10.00,15.00,CLR,M,M,M,M,M,M,M,M,M,M,M,M,M,M,98.33,KBVU 052115Z AUTO 07007G15KT 10SM CLR 42/M12 A2990 RMK AO2,M
CXP,2024-07-05 21:15,-119.7326,39.1923,1431.00,96.80,19.40,6.09,60.00,4.00,0.00,30.21,M,10.00,M,CLR,M,M,M,M,M,M,M,M,M,M,M,M,M,M,89.99,KCXP 052115Z AUTO 06004KT 10SM CLR 36/M07 A3021 RMK AO2,M
RTS,2024-07-05 21:15,-119.8764,39.6682,1539.00,95.00,14.00,5.09,M,5.00,0.00,30.26,M,10.00,11.00,CLR,M,M,M,M,M,M,M,M,M,M,M,M,M,M,88.20,KRTS 052115Z AUTO VRB05G11KT 10SM CLR 35/M10 A3026 RMK AO2,M
05U,2024-07-05 21:15,-116.0051,39.6042,1811.23,93.20,19.40,6.80,210.00,5.00,0.00,30.31,M,10.00,15.00,M,M,M,M,M,M,M,M,M,M,M,M,M,M,M,87.18,K05U 052115Z AUTO 21005G15KT 10SM 34/M07 A3031 RMK A01,M
MEV,2024-07-05 21:15,-119.7500,38.9963,1441.42,96.80,28.40,8.87,M,6.00,0.00,30.19,M,10.00,M,CLR,M,M,M,M,M,M,M,M,M,M,M,M,M,M,90.75,KMEV 052115Z AUTO VRB06KT 10SM CLR 36/M02 A3019 RMK AO2,M
BAM,2024-07-05 21:15,-116.8743,40.5990,1382.36,95.00,26.60,8.71,340.00,5.00,0.00,30.21,M,10.00,14.00,CLR,M,M,M,M,M,M,M,M,M,M,M,M,M,M,89.08,KBAM 052115Z AUTO 34005G14KT 10SM CLR 35/M03 A3021 RMK AO1,M
HTH,2024-07-05 21:15,-118.6315,38.5448,1282.89,98.60,15.80,4.93,320.00,9.00,0.00,30.15,M,10.00,M,CLR,M,M,M,M,M,M,M,M,M,M,M,M,M,M,91.27,KHTH 052115Z AUTO 32009KT 10SM CLR 37/M09 A3015 RMK A01,M
TMT,2024-07-05 21:15,-117.1971,39.4643,1749.34,90.30,23.00,8.67,360.00,3.00,0.00,30.29,M,10.00,8.00,CLR,M,M,M,M,M,M,M,M,M,M,M,M,M,M,85.27,KTMT 052115Z AUTO 36003G08KT 10SM CLR 32/M05 A3029 RMK AO2 T03241050,M
HTH,2024-07-05 21:30,-118.6315,38.5448,1282.89,98.60,14.00,4.56,340.00,7.00,0.00,30.15,M,10.00,M,CLR,M,M,M,M,M,M,M,M,M,M,M,M,M,M,91.18,KHTH 052130Z AUTO 34007KT 10SM CLR 37/M10 A3015 RMK A01,M
BVU,2024-07-05 21:35,-114.8611,35.9475,671.00,107.60,10.40,2.97,80.00,9.00,0.00,29.89,M,10.00,16.00,CLR,M,M,M,M,M,M,M,M,M,M,M,M,M,M,98.33,KBVU 052135Z AUTO 08009G16KT 10SM CLR 42/M12 A2989 RMK AO2,M
CXP,2024-07-05 21:35,-119.7326,39.1923,1431.00,96.80,19.40,6.09,0.00,0.00,0.00,30.20,M,10.00,M,CLR,M,M,M,M,M,M,M,M,M,M,M,M,M,M,89.99,KCXP 052135Z AUTO 00000KT 10SM CLR 36/M07 A3020 RMK AO2,M
RTS,2024-07-05 21:35,-119.8764,39.6682,1539.00,93.20,14.00,5.38,0.00,0.00,0.00,30.25,M,10.00,M,CLR,M,M,M,M,M,M,M,M,M,M,M,M,M,M,86.90,KRTS 052135Z AUTO 00000KT 10SM CLR 34/M10 A3025 RMK AO2,M
05U,2024-07-05 21:35,-116.0051,39.6042,1811.23,93.20,21.20,7.34,200.00,9.00,0.00,30.30,M,10.00,14.00,M,M,M,M,M,M,M,M,M,M,M,M,M,M,M,87.29,K05U 052135Z AUTO 20009G14KT 10SM 34/M06 A3030 RMK A01,M
MEV,2024-07-05 21:35,-119.7500,38.9963,1441.42,96.80,23.00,7.09,M,6.00,0.00,30.18,M,10.00,M,CLR,M,M,M,M,M,M,M,M,M,M,M,M,M,M,90.25,KMEV 052135Z AUTO VRB06KT 10SM CLR 36/M05 A3018 RMK AO2,M
BAM,2024-07-05 21:35,-116.8743,40.5990,1382.36,96.80,26.60,8.24,10.00,7.00,0.00,30.21,M,10.00,M,CLR,M,M,M,M,M,M,M,M,M,M,M,M,M,M,90.57,KBAM 052135Z AUTO 01007KT 10SM CLR 36/M03 A3021 RMK AO1,M
TMT,2024-07-05 21:35,-117.1971,39.4643,1749.34,91.00,23.00,8.49,260.00,4.00,0.00,30.28,M,10.00,M,CLR,M,M,M,M,M,M,M,M,M,M,M,M,M,M,85.79,KTMT 052135Z AUTO 26004KT 10SM CLR 33/M05 A3028 RMK AO2 T03271049,M
P68,2024-07-05 21:53,-116.0056,39.6014,1993.00,91.00,19.00,7.16,40.00,9.00,0.00,30.27,1016.30,M,20.00,M,M,M,M,M,M,M,M,M,M,M,M,M,M,M,85.54,KP68 052153Z AUTO 04009G20KT 350V070 33/M07 A3027 RMK AO1 SLP163 T03281072,M
DRA,2024-07-05 21:53,-116.0278,36.6206,1009.00,108.00,17.00,3.93,M,3.00,0.00,29.99,1009.00,10.00,M,CLR,M,M,M,M,M,M,M,M,M,M,M,M,M,M,99.07,KDRA 052153Z AUTO VRB03KT 10SM CLR 42/M08 A2999 RMK AO2 SLP090 T04221083,M
ELY,2024-07-05 21:53,-114.8453,39.2950,1909.00,88.00,21.00,8.57,M,6.00,0.00,30.28,1015.60,10.00,M,CLR,M,M,M,M,M,M,M,M,M,M,M,M,M,M,83.46,KELY 052153Z AUTO VRB06KT 10SM CLR 31/M06 A3028 RMK AO2 SLP156 T03111061,M
VGT,2024-07-05 21:53,-115.1933,36.2111,667.00,110.00,22.00,4.59,140.00,6.00,0.00,29.89,1010.40,10.00,M,CLR,M,M,M,M,M,M,M,M,M,M,M,M,M,M,101.19,KVGT 052153Z 14006KT 10SM CLR 43/M06 A2989 RMK AO2 SLP104 T04331056,M
LOL,2024-07-05 21:53,-118.5701,40.0684,1192.43,98.00,25.00,7.43,0.00,0.00,0.00,30.13,1016.00,10.00,M,CLR,M,M,M,M,M,M,M,M,M,M,M,M,M,M,91.42,KLOL 052153Z AUTO 00000KT 10SM CLR 37/M04 A3013 RMK AO2 SLP160 T03671039 $,M
BVU,2024-07-05 21:55,-114.8611,35.9475,671.00,109.40,10.40,2.82,70.00,12.00,0.00,29.88,M,10.00,M,CLR,M,M,M,M,M,M,M,M,M,M,M,M,M,M,99.80,KBVU 052155Z AUTO 07012KT 10SM CLR 43/M12 A2988 RMK AO2,M
CXP,2024-07-05 21:55,-119.7326,39.1923,1431.00,96.80,19.40,6.09,0.00,0.00,0.00,30.19,M,10.00,M,CLR,M,M,M,M,M,M,M,M,M,M,M,M,M,M,89.99,KCXP 052155Z AUTO 00000KT 10SM CLR 36/M07 A3019 RMK AO2,M
RNO,2024-07-05 21:55,-119.7711,39.4839,1341.00,101.00,24.00,6.51,330.00,10.00,0.00,30.17,1014.60,10.00,17.00,FEW,M,M,M,12000.00,M,M,M,M,M,M,M,M,M,M,93.83,KRNO 052155Z 33010G17KT 10SM FEW120 38/M04 A3017 RMK AO2 SLP146 T03831044,M
RTS,2024-07-05 21:55,-119.8764,39.6682,1539.00,95.00,12.20,4.70,240.00,6.00,0.00,30.24,M,10.00,M,CLR,M,M,M,M,M,M,M,M,M,M,M,M,M,M,88.11,KRTS 052155Z AUTO 24006KT 10SM CLR 35/M11 A3024 RMK AO2,M
05U,2024-07-05 21:55,-116.0051,39.6042,1811.23,93.20,21.20,7.34,190.00,10.00,0.00,30.29,M,10.00,16.00,M,M,M,M,M,M,M,M,M,M,M,M,M,M,M,87.29,K05U 052155Z AUTO 19010G16KT 160V220 10SM 34/M06 A3029 RMK A01,M
MEV,2024-07-05 21:55,-119.7500,38.9963,1441.42,96.80,21.20,6.57,M,5.00,0.00,30.18,M,10.00,10.00,CLR,M,M,M,M,M,M,M,M,M,M,M,M,M,M,90.11,KMEV 052155Z AUTO VRB05G10KT 10SM CLR 36/M06 A3018 RMK AO2,M
BAM,2024-07-05 21:55,-116.8743,40.5990,1382.36,96.80,26.60,8.24,360.00,10.00,0.00,30.20,M,10.00,16.00,CLR,M,M,M,M,M,M,M,M,M,M,M,M,M,M,90.57,KBAM 052155Z AUTO 36010G16KT 10SM CLR 36/M03 A3020 RMK AO1,M
HTH,2024-07-05 21:55,-118.6315,38.5448,1282.89,98.60,15.80,4.93,330.00,10.00,0.00,30.14,M,10.00,16.00,CLR,M,M,M,M,M,M,M,M,M,M,M,M,M,M,91.27,KHTH 052155Z AUTO 33010G16KT 320V020 10SM CLR 37/M09 A3014 RMK A01,M
TMT,2024-07-05 21:55,-117.1971,39.4643,1749.34,92.70,22.30,7.81,20.00,6.00,0.00,30.28,M,10.00,M,CLR,M,M,M,M,M,M,M,M,M,M,M,M,M,M,87.00,KTMT 052155Z AUTO 02006KT 10SM CLR 34/M05 A3028 RMK AO2 T03371054,M
INS,2024-07-05 21:55,-115.6733,36.5872,955.00,105.40,-14.00,1.00,110.00,4.00,0.00,29.98,1009.00,10.00,M,CLR,M,M,M,M,M,M,M,M,M,M,M,M,M,M,95.87,KINS 052155Z AUTO 11004KT 10SM CLR 41/M26 A2998 RMK AO2 SLP090 T04081256 $,M
LSV,2024-07-05 21:55,-115.0343,36.2362,570.00,M,M,M,360.00,4.00,0.00,29.83,M,10.00,M,CLR,M,M,M,M,M,M,M,M,M,M,M,M,M,M,M,KLSV 052155Z AUTO 36004KT 10SM CLR M A2983 RMK AO2 SLPNO ALSTG ESTMD $,M
EKO,2024-07-05 21:56,-115.7860,40.8242,1367.00,93.00,23.00,7.97,M,M,0.00,30.21,1017.40,10.00,M,CLR,M,M,M,M,M,M,M,M,M,M,M,M,M,M,87.27,KEKO 052156Z AUTO 10SM CLR 34/M05 A3021 RMK AO2 SLP174 T03391050,M
WMC,2024-07-05 21:56,-117.8072,40.9019,1315.00,99.00,22.00,6.36,310.00,10.00,0.00,30.17,1015.80,10.00,15.00,CLR,M,M,M,M,M,M,M,M,M,M,M,M,M,M,92.00,KWMC 052156Z AUTO 31010G15KT 270V330 10SM CLR 37/M06 A3017 RMK AO2 SLP158 T03721056,M
HND,2024-07-05 21:56,-115.1344,35.9729,742.79,108.00,21.00,4.66,300.00,5.00,0.00,29.95,1012.00,10.00,M,CLR,M,M,M,M,M,M,M,M,M,M,M,M,M,M,99.39,KHND 052156Z 30005KT 10SM CLR 42/M06 A2995 RMK AO2 SLP120 T04221061,M
TPH,2024-07-05 21:56,-117.0904,38.0505,1654.00,97.00,10.00,4.01,280.00,12.00,0.00,30.21,1013.50,10.00,21.00,CLR,M,M,M,M,M,M,M,M,M,M,M,M,M,M,89.69,KTPH 052156Z AUTO 28012G21KT 10SM CLR 36/M12 A3021 RMK AO2 SLP135 T03611122,M
LAS,2024-07-05 21:56,-115.1634,36.0719,663.00,110.00,19.00,4.04,M,3.00,0.00,29.91,1009.20,10.00,M,CLR,M,M,M,M,M,M,M,M,M,M,M,M,M,M,100.91,KLAS 052156Z VRB03KT 10SM CLR 43/M07 A2991 RMK AO2 SLP092 T04331072,M
RTS,2024-07-05 22:05,-119.8764,39.6682,1539.00,95.00,12.20,4.70,M,6.00,0.00,30.24,M,10.00,M,CLR,M,M,M,M,M,M,M,M,M,M,M,M,M,M,88.11,KRTS 052205Z AUTO VRB06KT 10SM CLR 35/M11 A3024 RMK AO2,M
BVU,2024-07-05 22:15,-114.8611,35.9475,671.00,109.40,10.40,2.82,30.00,9.00,0.00,29.87,M,10.00,M,CLR,M,M,M,M,M,M,M,M,M,M,M,M,M,M,99.80,KBVU 052215Z AUTO 03009KT 10SM CLR 43/M12 A2987 RMK AO2,M
CXP,2024-07-05 22:15,-119.7326,39.1923,1431.00,98.60,15.80,4.93,340.00,5.00,0.00,30.19,M,10.00,M,CLR,M,M,M,M,M,M,M,M,M,M,M,M,M,M,91.27,KCXP 052215Z AUTO 34005KT 10SM CLR 37/M09 A3019 RMK AO2,M
05U,2024-07-05 22:15,-116.0051,39.6042,1811.23,93.20,21.20,7.34,M,3.00,0.00,30.29,M,10.00,15.00,M,M,M,M,M,M,M,M,M,M,M,M,M,M,M,87.29,K05U 052215Z AUTO VRB03G15KT 10SM 34/M06 A3029 RMK A01,M
MEV,2024-07-05 22:15,-119.7500,38.9963,1441.42,96.80,21.20,6.57,M,5.00,0.00,30.17,M,10.00,10.00,CLR,M,M,M,M,M,M,M,M,M,M,M,M,M,M,90.11,KMEV 052215Z AUTO VRB05G10KT 10SM CLR 36/M06 A3017 RMK AO2,M
BAM,2024-07-05 22:15,-116.8743,40.5990,1382.36,96.80,24.80,7.65,330.00,12.00,0.00,30.19,M,10.00,M,CLR,M,M,M,M,M,M,M,M,M,M,M,M,M,M,90.40,KBAM 052215Z AUTO 33012KT 10SM CLR 36/M04 A3019 RMK AO1,M
HTH,2024-07-05 22:15,-118.6315,38.5448,1282.89,98.60,15.80,4.93,350.00,8.00,0.00,30.13,M,10.00,15.00,CLR,M,M,M,M,M,M,M,M,M,M,M,M,M,M,91.27,KHTH 052215Z AUTO 35008G15KT 300V010 10SM CLR 37/M09 A3013 RMK A01,M
TMT,2024-07-05 22:15,-117.1971,39.4643,1749.34,92.00,22.30,7.99,330.00,4.00,0.00,30.27,M,10.00,15.00,CLR,M,M,M,M,M,M,M,M,M,M,M,M,M,M,86.48,KTMT 052215Z AUTO 33004G15KT 10SM CLR 33/M05 A3027 RMK AO2 T03341054,M
05U,2024-07-05 22:30,-116.0051,39.6042,1811.23,93.20,19.40,6.80,210.00,8.00,0.00,30.28,M,10.00,14.00,M,M,M,M,M,M,M,M,M,M,M,M,M,M,M,87.18,K05U 052230Z AUTO 21008G14KT 10SM 34/M07 A3028 RMK A01,M
BVU,2024-07-05 22:35,-114.8611,35.9475,671.00,109.40,8.60,2.60,60.00,6.00,0.00,29.86,M,10.00,17.00,CLR,M,M,M,M,M,M,M,M,M,M,M,M,M,M,99.71,KBVU 052235Z AUTO 06006G17KT 10SM CLR 43/M13 A2986 RMK AO2,M
CXP,2024-07-05 22:35,-119.7326,39.1923,1431.00,98.60,14.00,4.56,300.00,5.00,0.00,30.18,M,10.00,10.00,CLR,M,M,M,M,M,M,M,M,M,M,M,M,M,M,91.18,KCXP 052235Z AUTO 30005G10KT 10SM CLR 37/M10 A3018 RMK AO2,M
MEV,2024-07-05 22:35,-119.7500,38.9963,1441.42,96.80,23.00,7.09,0.00,0.00,0.00,30.16,M,10.00,M,CLR,M,M,M,M,M,M,M,M,M,M,M,M,M,M,90.25,KMEV 052235Z AUTO 00000KT 10SM CLR 36/M05 A3016 RMK AO2,M
BAM,2024-07-05 22:35,-116.8743,40.5990,1382.36,96.80,26.60,8.24,360.00,9.00,0.00,30.19,M,10.00,M,CLR,M,M,M,M,M,M,M,M,M,M,M,M,M,M,90.57,KBAM 052235Z AUTO 36009KT 10SM CLR 36/M03 A3019 RMK AO1,M
HTH,2024-07-05 22:35,-118.6315,38.5448,1282.89,98.60,15.80,4.93,310.00,7.00,0.00,30.12,M,10.00,15.00,CLR,M,M,M,M,M,M,M,M,M,M,M,M,M,M,91.27,KHTH 052235Z AUTO 31007G15KT 10SM CLR 37/M09 A3012 RMK A01,M
TMT,2024-07-05 22:35,-117.1971,39.4643,1749.34,92.50,23.00,8.10,10.00,12.00,0.00,30.26,M,10.00,17.00,CLR,M,M,M,M,M,M,M,M,M,M,M,M,M,M,86.90,KTMT 052235Z AUTO 01012G17KT 10SM CLR 34/M05 A3026 RMK AO2 T03361049,M
P68,2024-07-05 22:53,-116.0056,39.6014,1993.00,92.00,17.00,6.37,10.00,14.00,0.00,30.24,1015.40,M,22.00,M,M,M,M,M,M,M,M,M,M,M,M,M,M,M,86.17,KP68 052253Z AUTO 01014G22KT 33/M08 A3024 RMK AO1 SLP154 T03331083,M
DRA,2024-07-05 22:53,-116.0278,36.6206,1009.00,107.00,16.00,3.87,170.00,4.00,0.00,29.96,1008.10,10.00,M,CLR,M,M,M,M,M,M,M,M,M,M,M,M,M,M,98.18,KDRA 052253Z AUTO 17004KT 10SM CLR 42/M09 A2996 RMK AO2 SLP081 T04171089,M
ELY,2024-07-05 22:53,-114.8453,39.2950,1909.00,91.00,21.00,7.80,20.00,14.00,0.00,30.26,1014.80,10.00,21.00,CLR,M,M,M,M,M,M,M,M,M,M,M,26.00,80.00,2024-07-05 22:21,85.66,KELY 052253Z AUTO 02014G21KT 10SM CLR 33/M06 A3026 RMK AO2 PK WND 08026/2221 SLP148 T03281061,M
VGT,2024-07-05 22:53,-115.1933,36.2111,667.00,111.00,22.00,4.46,170.00,7.00,0.00,29.86,1009.20,10.00,M,CLR,M,M,M,M,M,M,M,M,M,M,M,M,M,M,102.09,KVGT 052253Z 17007KT 10SM CLR 44/M06 A2986 RMK AO2 SLP092 T04391056,M
LOL,2024-07-05 22:53,-118.5701,40.0684,1192.43,99.00,28.00,8.16,130.00,9.00,0.00,30.11,1015.20,10.00,M,CLR,M,M,M,M,M,M,M,M,M,M,M,M,M,M,92.54,KLOL 052253Z AUTO 13009KT 10SM CLR 37/M02 A3011 RMK AO2 SLP152 T03721022 $,M
BVU,2024-07-05 22:55,-114.8611,35.9475,671.00,109.40,10.40,2.82,60.00,8.00,0.00,29.85,M,10.00,M,CLR,M,M,M,M,M,M,M,M,M,M,M,M,M,M,99.80,KBVU 052255Z AUTO 06008KT 10SM CLR 43/M12 A2985 RMK AO2,M
CXP,2024-07-05 22:55,-119.7326,39.1923,1431.00,98.60,14.00,4.56,310.00,10.00,0.00,30.17,M,10.00,M,CLR,M,M,M,M,M,M,M,M,M,M,M,M,M,M,91.18,KCXP 052255Z AUTO 31010KT 10SM CLR 37/M10 A3017 RMK AO2,M
RNO,2024-07-05 22:55,-119.7711,39.4839,1341.00,101.00,19.00,5.27,M,3.00,0.00,30.15,1014.00,10.00,M,FEW,M,M,M,12000.00,M,M,M,M,M,M,M,M,M,M,93.45,KRNO 052255Z VRB03KT 10SM FEW120 38/M07 A3015 RMK AO2 SLP140 T03831072,M
05U,2024-07-05 22:55,-116.0051,39.6042,1811.23,93.20,19.40,6.80,180.00,13.00,0.00,30.27,M,10.00,18.00,M,M,M,M,M,M,M,M,M,M,M,M,M,M,M,87.18,K05U 052255Z AUTO 18013G18KT 10SM 34/M07 A3027 RMK A01,M
MEV,2024-07-05 22:55,-119.7500,38.9963,1441.42,98.60,23.00,6.71,M,5.00,0.00,30.16,M,10.00,11.00,CLR,M,M,M,M,M,M,M,M,M,M,M,M,M,M,91.75,KMEV 052255Z AUTO VRB05G11KT 10SM CLR 37/M05 A3016 RMK AO2,M
BAM,2024-07-05 22:55,-116.8743,40.5990,1382.36,96.80,21.20,6.57,360.00,10.00,0.00,30.18,M,10.00,16.00,CLR,M,M,M,M,M,M,M,M,M,M,M,M,M,M,90.11,KBAM 052255Z AUTO 36010G16KT 10SM CLR 36/M06 A3018 RMK AO1,M
HTH,2024-07-05 22:55,-118.6315,38.5448,1282.89,100.40,14.00,4.32,340.00,12.00,0.00,30.11,M,10.00,M,CLR,M,M,M,M,M,M,M,M,M,M,M,M,M,M,92.67,KHTH 052255Z AUTO 34012KT 10SM CLR 38/M10 A3011 RMK A01,M
LSV,2024-07-05 22:55,-115.0343,36.2362,570.00,M,M,M,50.00,6.00,0.00,29.80,M,10.00,M,CLR,M,M,M,M,M,M,M,M,M,M,M,M,M,M,M,KLSV 052255Z AUTO 05006KT 10SM CLR M A2980 RMK AO2 SLPNO ALSTG ESTMD $,M
TMT,2024-07-05 22:55,-117.1971,39.4643,1749.34,93.00,21.00,7.33,350.00,14.00,0.00,30.26,M,10.00,18.00,CLR,M,M,M,M,M,M,M,M,M,M,M,M,M,M,87.13,KTMT 052255Z AUTO 35014G18KT 10SM CLR 34/M06 A3026 RMK AO2 T03381062,M
INS,2024-07-05 22:55,-115.6733,36.5872,955.00,106.30,-13.50,1.00,120.00,3.00,0.00,29.95,1008.00,10.00,M,CLR,M,M,M,M,M,M,M,M,M,M,M,M,M,M,96.58,KINS 052255Z AUTO 12003KT 10SM CLR 41/M25 A2995 RMK AO2 SLP080 T04131253 $,M
EKO,2024-07-05 22:56,-115.7860,40.8242,1367.00,94.00,22.00,7.41,20.00,13.00,0.00,30.19,1016.80,10.00,20.00,CLR,M,M,M,M,M,M,M,M,M,M,M,M,M,M,87.94,KEKO 052256Z AUTO 02013G20KT 10SM CLR 34/M06 A3019 RMK AO2 SLP168 T03441056,M
WMC,2024-07-05 22:56,-117.8072,40.9019,1315.00,99.00,18.00,5.36,M,6.00,0.00,30.16,1016.40,10.00,16.00,CLR,M,M,M,M,M,M,M,M,M,M,M,M,M,M,91.73,KWMC 052256Z AUTO VRB06G16KT 10SM CLR 37/M08 A3016 RMK AO2 SLP164 T03721078,M
NFL,2024-07-05 22:56,-118.7010,39.4166,1199.00,100.00,19.00,5.43,M,5.00,0.00,30.11,1016.30,10.00,M,CLR,M,M,M,M,M,M,M,M,M,M,M,M,M,M,92.62,KNFL 052256Z AUTO VRB05KT 10SM CLR 38/M07 A3011 RMK AO2 SLP163 T03781072,M
HND,2024-07-05 22:56,-115.1344,35.9729,742.79,109.00,21.00,4.53,340.00,7.00,0.00,29.92,1010.90,10.00,M,CLR,M,M,M,M,M,M,M,M,M,M,M,M,M,M,100.23,KHND 052256Z 34007KT 10SM CLR 43/M06 A2992 RMK AO2 SLP109 T04281061,M
TPH,2024-07-05 22:56,-117.0904,38.0505,1654.00,98.00,11.00,4.07,290.00,12.00,0.00,30.19,1012.60,10.00,21.00,CLR,M,M,M,M,M,M,M,M,M,M,M,M,M,M,90.55,KTPH 052256Z AUTO 29012G21KT 10SM CLR 37/M12 A3019 RMK AO2 SLP126 T03671117,M
LAS,2024-07-05 22:56,-115.1634,36.0719,663.00,112.00,19.00,3.81,M,3.00,0.00,29.88,1008.20,10.00,M,CLR,M,M,M,M,M,M,M,M,M,M,M,M,M,M,103.03,KLAS 052256Z VRB03KT 10SM CLR 44/M07 A2988 RMK AO2 SLP082 T04441072,M
BVU,2024-07-05 23:15,-114.8611,35.9475,671.00,109.40,10.40,2.82,40.00,10.00,0.00,29.85,M,10.00,M,CLR,M,M,M,M,M,M,M,M,M,M,M,M,M,M,99.80,KBVU 052315Z AUTO 04010KT 030V090 10SM CLR 43/M12 A2985 RMK AO2,M
CXP,2024-07-05 23:15,-119.7326,39.1923,1431.00,98.60,14.00,4.56,310.00,8.00,0.00,30.17,M,10.00,14.00,CLR,M,M,M,M,M,M,M,M,M,M,M,M,M,M,91.18,KCXP 052315Z AUTO 31008G14KT 10SM CLR 37/M10 A3017 RMK AO2,M
05U,2024-07-05 23:15,-116.0051,39.6042,1811.23,93.20,19.40,6.80,160.00,12.00,0.00,30.27,M,10.00,18.00,M,M,M,M,M,M,M,M,M,M,M,M,M,M,M,87.18,K05U 052315Z AUTO 16012G18KT 10SM 34/M07 A3027 RMK A01,M
MEV,2024-07-05 23:15,-119.7500,38.9963,1441.42,98.60,23.00,6.71,0.00,0.00,0.00,30.15,M,10.00,16.00,CLR,M,M,M,M,M,M,M,M,M,M,M,M,M,M,91.75,KMEV 052315Z AUTO 00000G16KT 10SM CLR 37/M05 A3015 RMK AO2,M
BAM,2024-07-05 23:15,-116.8743,40.5990,1382.36,96.80,24.80,7.65,340.00,13.00,0.00,30.17,M,10.00,M,CLR,M,M,M,M,M,M,M,M,M,M,M,M,M,M,90.40,KBAM 052315Z AUTO 34013KT 10SM CLR 36/M04 A3017 RMK AO1,M
HTH,2024-07-05 23:15,-118.6315,38.5448,1282.89,100.40,14.00,4.32,320.00,13.00,0.00,30.11,M,10.00,M,CLR,M,M,M,M,M,M,M,M,M,M,M,M,M,M,92.67,KHTH 052315Z AUTO 32013KT 10SM CLR 38/M10 A3011 RMK A01,M
TMT,2024-07-05 23:15,-117.1971,39.4643,1749.34,92.70,20.00,7.09,340.00,13.00,0.00,30.26,M,10.00,16.00,CLR,M,M,M,M,M,M,M,M,M,M,M,M,M,M,86.85,KTMT 052315Z AUTO 34013G16KT 10SM CLR 34/M07 A3026 RMK AO2 T03371066,M
BVU,2024-07-05 23:35,-114.8611,35.9475,671.00,109.40,10.40,2.82,30.00,11.00,0.00,29.84,M,10.00,M,CLR,M,M,M,M,M,M,M,M,M,M,M,M,M,M,99.80,KBVU 052335Z AUTO 03011KT 10SM CLR 43/M12 A2984 RMK AO2,M
05U,2024-07-05 23:35,-116.0051,39.6042,1811.23,93.20,21.20,7.34,170.00,12.00,0.00,30.27,M,10.00,M,M,M,M,M,M,M,M,M,M,M,M,M,M,M,M,87.29,K05U 052335Z AUTO 17012KT 10SM 34/M06 A3027 RMK A01,M
MEV,2024-07-05 23:35,-119.7500,38.9963,1441.42,98.60,23.00,6.71,0.00,0.00,0.00,30.15,M,10.00,M,CLR,M,M,M,M,M,M,M,M,M,M,M,M,M,M,91.75,KMEV 052335Z AUTO 00000KT 10SM CLR 37/M05 A3015 RMK AO2,M
BAM,2024-07-05 23:35,-116.8743,40.5990,1382.36,96.80,24.80,7.65,350.00,13.00,0.00,30.17,M,10.00,20.00,CLR,M,M,M,M,M,M,M,M,M,M,M,M,M,M,90.40,KBAM 052335Z AUTO 35013G20KT 10SM CLR 36/M04 A3017 RMK AO1,M
HTH,2024-07-05 23:35,-118.6315,38.5448,1282.89,100.40,14.00,4.32,310.00,12.00,0.00,30.10,M,10.00,M,CLR,M,M,M,M,M,M,M,M,M,M,M,M,M,M,92.67,KHTH 052335Z AUTO 31012KT 10SM CLR 38/M10 A3010 RMK A01,M
TMT,2024-07-05 23:35,-117.1971,39.4643,1749.34,92.30,21.00,7.49,330.00,9.00,0.00,30.25,M,10.00,14.00,CLR,M,M,M,M,M,M,M,M,M,M,M,M,M,M,86.62,KTMT 052335Z AUTO 33009G14KT 10SM CLR 34/M06 A3025 RMK AO2 T03351061,M
CXP,2024-07-05 23:35,-119.7326,39.1923,1431.00,98.60,14.00,4.56,M,3.00,0.00,30.16,M,10.00,10.00,CLR,M,M,M,M,M,M,M,M,M,M,M,M,M,M,91.18,KCXP 052335Z AUTO VRB03G10KT 10SM CLR 37/M10 A3016 RMK AO2,M
HND,2024-07-05 23:43,-115.1344,35.9729,742.79,107.60,21.20,4.76,70.00,4.00,0.00,29.90,M,1.75,M,CLR,M,M,M,M,M,M,M,HZ,M,M,M,M,M,M,99.08,KHND 052343Z 07004KT 1 3/4SM HZ CLR 42/M06 A2990 RMK AO2 VIS 1/2V5,M
HND,2024-07-05 23:52,-115.1344,35.9729,742.79,109.40,21.20,4.51,60.00,4.00,0.00,29.89,M,3.00,M,CLR,M,M,M,M,M,M,M,HZ,M,M,M,M,M,M,100.59,KHND 052352Z 06004KT 3SM HZ CLR 43/M06 A2989 RMK AO2,M
P68,2024-07-05 23:53,-116.0056,39.6014,1993.00,92.00,19.00,6.94,10.00,16.00,0.00,30.24,1015.20,M,23.00,M,M,M,M,M,M,M,M,M,M,M,M,M,M,M,86.28,KP68 052353Z AUTO 01016G23KT 33/M07 A3024 RMK AO1 SLP152 T03331072 10339 20283 56014,M
DRA,2024-07-05 23:53,-116.0278,36.6206,1009.00,109.00,17.00,3.81,230.00,10.00,0.00,29.94,1007.20,10.00,15.00,CLR,M,M,M,M,M,M,M,M,M,M,M,M,M,M,99.90,KDRA 052353Z AUTO 23010G15KT 10SM CLR 43/M08 A2994 RMK AO2 SLP072 T04281083 10433 20389 56025,M
ELY,2024-07-05 23:53,-114.8453,39.2950,1909.00,91.00,20.00,7.47,10.00,14.00,0.00,30.24,1014.60,10.00,19.00,CLR,M,M,M,M,M,M,M,M,M,M,M,27.00,300.00,2024-07-05 23:28,85.60,KELY 052353Z AUTO 01014G19KT 10SM CLR 33/M07 A3024 RMK AO2 PK WND 30027/2328 SLP146 T03281067 10333 20278 56017,M
VGT,2024-07-05 23:53,-115.1933,36.2111,667.00,111.00,22.00,4.46,110.00,5.00,0.00,29.84,1008.50,10.00,M,CLR,M,M,M,M,M,M,M,M,M,M,M,M,M,M,102.09,KVGT 052353Z 11005KT 10SM CLR 44/M06 A2984 RMK AO2 SLP085 T04391056 10444 20394 56027,M
LOL,2024-07-05 23:53,-118.5701,40.0684,1192.43,99.00,25.00,7.21,80.00,8.00,0.00,30.09,1014.90,10.00,M,CLR,M,M,M,M,M,M,M,M,M,M,M,M,M,M,92.25,KLOL 052353Z AUTO 08008KT 10SM CLR 37/M04 A3009 RMK AO2 SLP149 T03721039 10378 20317 56018 $,M
BVU,2024-07-05 23:55,-114.8611,35.9475,671.00,109.40,8.60,2.60,50.00,5.00,0.00,29.83,M,10.00,13.00,CLR,M,M,M,M,M,M,M,M,M,M,M,M,M,M,99.71,KBVU 052355Z AUTO 05005G13KT 10SM CLR 43/M13 A2983 RMK AO2,M
RNO,2024-07-05 23:55,-119.7711,39.4839,1341.00,100.00,20.00,5.67,M,4.00,0.00,30.13,1013.50,10.00,M,FEW,M,M,M,12000.00,M,M,M,M,M,M,M,M,M,M,92.69,KRNO 052355Z VRB04KT 10SM FEW120 38/M07 A3013 RMK AO2 SLP135 T03781067 10389 20317 57017,M
05U,2024-07-05 23:55,-116.0051,39.6042,1811.23,93.20,21.20,7.34,170.00,14.00,0.00,30.26,M,10.00,21.00,M,M,M,M,M,M,M,M,M,M,M,M,M,M,M,87.29,K05U 052355Z AUTO 17014G21KT 10SM 34/M06 A3026 RMK A01,M
MEV,2024-07-05 23:55,-119.7500,38.9963,1441.42,98.60,21.20,6.22,M,5.00,0.00,30.14,M,10.00,12.00,CLR,M,M,M,M,M,M,M,M,M,M,M,M,M,M,91.61,KMEV 052355Z AUTO VRB05G12KT 10SM CLR 37/M06 A3014 RMK AO2,M
BAM,2024-07-05 23:55,-116.8743,40.5990,1382.36,96.80,26.60,8.24,340.00,14.00,0.00,30.17,M,10.00,19.00,CLR,M,M,M,M,M,M,M,M,M,M,M,M,M,M,90.57,KBAM 052355Z AUTO 34014G19KT 10SM CLR 36/M03 A3017 RMK AO1,M
HTH,2024-07-05 23:55,-118.6315,38.5448,1282.89,100.40,14.00,4.32,320.00,13.00,0.00,30.10,M,10.00,M,CLR,M,M,M,M,M,M,M,M,M,M,M,M,M,M,92.67,KHTH 052355Z AUTO 32013KT 10SM CLR 38/M10 A3010 RMK A01,M
TMT,2024-07-05 23:55,-117.1971,39.4643,1749.34,92.30,20.00,7.18,350.00,12.00,0.00,30.25,M,10.00,20.00,CLR,M,M,M,M,M,M,M,M,M,M,M,M,M,M,86.56,KTMT 052355Z AUTO 35012G20KT 10SM CLR 34/M07 A3025 RMK AO2 T03351066 10340 20292,M
INS,2024-07-05 23:55,-115.6733,36.5872,955.00,106.30,-13.50,1.00,0.00,0.00,0.00,29.92,1007.00,10.00,M,CLR,M,M,M,M,M,M,M,M,M,M,M,M,M,M,96.58,KINS 052355Z AUTO 00000KT 10SM CLR 41/M25 A2992 RMK AO2 SLP070 T04131253 10421 20368 57025 $,M
LSV,2024-07-05 23:55,-115.0343,36.2362,570.00,M,M,M,100.00,5.00,0.00,29.78,M,10.00,M,CLR,M,M,M,M,M,M,M,M,M,M,M,M,M,M,M,KLSV 052355Z AUTO 10005KT 10SM CLR M A2978 RMK AO2 SLPNO ALSTG ESTMD 10431 20405 57025 $,M
EKO,2024-07-05 23:56,-115.7860,40.8242,1367.00,94.00,22.00,7.41,310.00,7.00,0.00,30.18,1016.10,10.00,M,CLR,M,M,M,M,M,M,M,M,M,M,M,M,M,M,87.94,KEKO 052356Z AUTO 31007KT 250V330 10SM CLR 34/M06 A3018 RMK AO2 SLP161 T03441056 10350 20283 56016,M
WMC,2024-07-05 23:56,-117.8072,40.9019,1315.00,99.00,19.00,5.60,290.00,6.00,0.00,30.14,1016.00,10.00,M,CLR,M,M,M,M,M,M,M,M,M,M,M,M,M,M,91.79,KWMC 052356Z AUTO 29006KT 10SM CLR 37/M07 A3014 RMK AO2 SLP160 T03721072 10378 20317 58015,M
HND,2024-07-05 23:56,-115.1344,35.9729,742.79,110.00,23.00,4.78,M,6.00,0.00,29.89,1010.00,10.00,M,CLR,M,M,M,M,M,M,M,M,M,M,M,M,M,M,101.29,KHND 052356Z VRB06KT 10SM CLR 43/M05 A2989 RMK AO2 SLP100 T04331050 10433 20383 58027,M
TPH,2024-07-05 23:56,-117.0904,38.0505,1654.00,97.00,12.00,4.39,300.00,9.00,0.00,30.18,1012.60,10.00,M,CLR,M,M,M,M,M,M,M,M,M,M,M,M,M,M,89.77,KTPH 052356Z AUTO 30009KT 10SM CLR 36/M11 A3018 RMK AO2 SLP126 T03611111 10372 20322 56018,M
LAS,2024-07-05 23:56,-115.1634,36.0719,663.00,111.00,19.00,3.92,M,3.00,0.00,29.85,1007.30,10.00,M,CLR,M,M,M,M,M,M,M,M,M,M,M,M,M,M,101.81,KLAS 052356Z VRB03KT 10SM CLR 44/M07 A2985 RMK AO2 SLP073 T04391072 10450 20400 56028,M
NFL,2024-07-05 23:56,-118.7010,39.4166,1199.00,101.00,20.00,5.50,M,4.00,0.00,30.09,1015.70,10.00,M,CLR,M,M,M,M,M,M,M,M,M,M,M,M,M,M,93.52,KNFL 052356Z AUTO VRB04KT 10SM CLR 38/M07 A3009 RMK AO2 SLP157 T03831067 10389 20317 58019,M
