station,valid,lon,lat,elevation,tmpf,dwpf,relh,drct,sknt,p01i,alti,mslp,vsby,gust,skyc1,skyc2,skyc3,skyc4,skyl1,skyl2,skyl3,skyl4,wxcodes,ice_accretion_1hr,ice_accretion_3hr,ice_accretion_6hr,peak_wind_gust,peak_wind_drct,peak_wind_time,feel,metar,snowdepth
BAM,2022-07-14 00:15,-116.8743,40.5990,1382.36,M,M,M,270.00,20.00,0.00,29.93,M,10.00,24.00,CLR,M,M,M,M,M,M,M,M,M,M,M,M,M,M,M,KBAM 140015Z AUTO 27020G24KT 10SM CLR A2993 RMK AO1,M
RTS,2022-07-14 00:15,-119.8764,39.6682,1539.00,87.80,26.60,10.91,250.00,17.00,0.00,30.08,M,10.00,23.00,CLR,M,M,M,M,M,M,M,M,M,M,M,M,M,M,83.69,KRTS 140015Z AUTO 25017G23KT 10SM CLR 31/M03 A3008 RMK AO2,M
CXP,2022-07-14 00:15,-119.7326,39.1923,1431.00,89.60,37.40,15.92,260.00,13.00,0.00,30.04,M,10.00,19.00,CLR,M,M,M,M,M,M,M,M,M,M,M,M,M,M,85.67,KCXP 140015Z AUTO 26013G19KT 10SM CLR 32/03 A3004 RMK AO2,M
BVU,2022-07-14 00:15,-114.8611,35.9475,671.00,105.80,44.60,12.84,250.00,12.00,0.00,29.82,M,10.00,18.00,CLR,M,M,M,M,M,M,M,M,M,M,M,M,M,M,101.53,KBVU 140015Z AUTO 25012G18KT 10SM CLR 41/07 A2982 RMK AO2,M
05U,2022-07-14 00:15,-116.0051,39.6042,1811.23,96.80,35.60,11.86,170.00,14.00,0.00,30.08,M,10.00,20.00,CLR,M,M,M,M,M,M,M,M,M,M,M,M,M,M,91.72,K05U 140015Z AUTO 17014G20KT 10SM CLR 36/02 A3008 RMK A01,M
MEV,2022-07-14 00:15,-119.7500,38.9963,1441.42,91.40,35.60,14.02,270.00,15.00,0.00,30.02,M,10.00,M,CLR,M,M,M,M,M,M,M,M,M,M,M,M,M,M,87.17,KMEV 140015Z AUTO 27015KT 10SM CLR 33/02 A3002 RMK AO2,M
HTH,2022-07-14 00:15,-118.6315,38.5448,1282.89,102.20,-0.40,2.13,250.00,15.00,0.00,29.91,M,10.00,M,CLR,M,M,M,M,M,M,M,M,M,M,M,M,M,M,93.61,KHTH 140015Z AUTO 25015KT 10SM CLR 39/M18 A2991 RMK A01,M
LAS,2022-07-14 00:18,-115.1634,36.0719,663.00,105.00,51.00,16.73,160.00,13.00,0.00,29.80,M,10.00,24.00,FEW,FEW,SCT,M,10000.00,15000.00,22000.00,M,M,M,M,M,30.00,170.00,2022-07-14 00:08,102.61,KLAS 140018Z 16013G24KT 10SM FEW100 FEW150 SCT220 41/11 A2980 RMK AO2 PK WND 17030/0008 WSHFT 0004 CB DSNT E T04060106,M
LSV,2022-07-14 00:21,-115.0343,36.2362,570.00,111.20,44.60,10.96,230.00,11.00,0.00,29.76,1004.50,10.00,19.00,FEW,M,M,M,14000.00,M,M,M,M,M,M,M,M,M,M,106.44,KLSV 140021Z AUTO 23011G19KT 10SM FEW140 44/07 A2976 RMK AO2 WSHFT 19 SLP045 $,M
ELY,2022-07-14 00:22,-114.8453,39.2950,1909.00,87.80,39.20,18.09,210.00,14.00,0.00,30.14,M,9.00,26.00,CLR,M,M,M,M,M,M,M,VCTS,M,M,M,M,M,M,84.22,KELY 140022Z AUTO 21014G26KT 9SM VCTS CLR 31/04 A3014,M
LOL,2022-07-14 00:30,-118.5701,40.0684,1192.43,100.00,33.00,9.74,280.00,16.00,0.00,29.90,M,10.00,21.00,CLR,M,M,M,M,M,M,M,M,M,M,M,M,M,M,94.03,KLOL 140030Z AUTO 28016G21KT 10SM CLR 38/01 A2990 RMK AO2 WSHFT 0010 T03780006,M
BAM,2022-07-14 00:35,-116.8743,40.5990,1382.36,M,M,M,260.00,11.00,0.00,29.92,M,10.00,22.00,CLR,M,M,M,M,M,M,M,M,M,M,M,M,M,M,M,KBAM 140035Z AUTO 26011G22KT 10SM CLR A2992 RMK AO1,M
HTH,2022-07-14 00:35,-118.6315,38.5448,1282.89,102.20,-2.20,1.95,220.00,11.00,0.00,29.90,M,10.00,23.00,CLR,M,M,M,M,M,M,M,M,M,M,M,M,M,M,93.57,KHTH 140035Z AUTO 22011G23KT 10SM CLR 39/M19 A2990 RMK A01,M
CXP,2022-07-14 00:35,-119.7326,39.1923,1431.00,87.80,37.40,16.86,270.00,18.00,0.00,30.05,M,10.00,24.00,CLR,M,M,M,M,M,M,M,M,M,M,M,M,M,M,84.16,KCXP 140035Z AUTO 27018G24KT 10SM CLR 31/03 A3005 RMK AO2,M
RTS,2022-07-14 00:35,-119.8764,39.6682,1539.00,87.80,23.00,9.39,250.00,17.00,0.00,30.08,M,10.00,26.00,CLR,M,M,M,M,M,M,M,M,M,M,M,M,M,M,83.43,KRTS 140035Z AUTO 25017G26KT 10SM CLR 31/M05 A3008 RMK AO2,M
05U,2022-07-14 00:35,-116.0051,39.6042,1811.23,96.80,35.60,11.86,150.00,19.00,0.00,30.07,M,10.00,24.00,CLR,M,M,M,M,M,M,M,M,M,M,M,M,M,M,91.72,K05U 140035Z AUTO 15019G24KT 10SM CLR 36/02 A3007 RMK A01,M
MEV,2022-07-14 00:35,-119.7500,38.9963,1441.42,91.40,33.80,13.05,290.00,13.00,0.00,30.03,M,10.00,M,CLR,M,M,M,M,M,M,M,M,M,M,M,M,M,M,87.13,KMEV 140035Z AUTO 29013KT 10SM CLR 33/01 A3003 RMK AO2,M
BVU,2022-07-14 00:35,-114.8611,35.9475,671.00,105.80,44.60,12.84,260.00,14.00,0.00,29.82,M,10.00,21.00,CLR,M,M,M,M,M,M,M,M,M,M,M,M,M,M,101.53,KBVU 140035Z AUTO 26014G21KT 10SM CLR 41/07 A2982 RMK AO2,M
ELY,2022-07-14 00:43,-114.8453,39.2950,1909.00,90.00,40.00,17.34,220.00,9.00,T,30.14,M,10.00,M,CLR,M,M,M,M,M,M,M,M,M,M,M,26.00,210.00,2022-07-14 00:19,86.11,KELY 140043Z AUTO 22009KT 10SM CLR 32/04 A3014 RMK AO2 PK WND 21026/0019 LTG DSNT S RAE02 P0000 T03220044,M
LOL,2022-07-14 00:53,-118.5701,40.0684,1192.43,99.00,34.00,10.41,280.00,13.00,0.00,29.89,1007.20,10.00,23.00,CLR,M,M,M,M,M,M,M,M,M,M,M,M,M,M,93.31,KLOL 140053Z AUTO 28013G23KT 10SM CLR 37/01 A2989 RMK AO2 WSHFT 0010 SLP072 T03720011,M
ELY,2022-07-14 00:53,-114.8453,39.2950,1909.00,89.00,39.00,17.22,220.00,9.00,T,30.13,1008.40,10.00,M,SCT,M,M,M,12000.00,M,M,M,M,M,M,M,26.00,210.00,2022-07-14 00:19,85.30,KELY 140053Z AUTO 22009KT 10SM SCT120 32/04 A3013 RMK AO2 PK WND 21026/0019 LTG DSNT S AND SW RAE02 SLP084 P0000 T03170039,M
DRA,2022-07-14 00:53,-116.0278,36.6206,1009.00,102.00,40.00,12.00,220.00,12.00,0.00,29.90,1006.30,10.00,21.00,CLR,M,M,M,M,M,M,M,M,M,M,M,M,M,M,96.96,KDRA 140053Z AUTO 22012G21KT 10SM CLR 39/04 A2990 RMK AO2 SLP063 T03890044,M
VGT,2022-07-14 00:53,-115.1933,36.2111,667.00,108.00,49.00,14.15,170.00,18.00,0.00,29.79,1006.80,10.00,M,CLR,M,M,M,M,M,M,M,M,M,M,M,M,M,M,104.83,KVGT 140053Z 17018KT 10SM CLR 42/09 A2979 RMK AO2 SLP068 T04220094,M
P68,2022-07-14 00:53,-116.0056,39.6014,1993.00,93.00,36.00,13.55,170.00,13.00,0.00,30.04,1006.70,M,24.00,M,M,M,M,M,M,M,M,M,M,M,M,30.00,180.00,2022-07-14 00:03,88.59,KP68 140053Z AUTO 17013G24KT 34/02 A3004 RMK AO1 PK WND 18030/0003 SLP067 T03390022,M
CXP,2022-07-14 00:55,-119.7326,39.1923,1431.00,87.80,35.60,15.70,240.00,12.00,0.00,30.04,M,10.00,20.00,CLR,M,M,M,M,M,M,M,M,M,M,M,M,M,M,84.12,KCXP 140055Z AUTO 24012G20KT 200V260 10SM CLR 31/02 A3004 RMK AO2,M
BVU,2022-07-14 00:55,-114.8611,35.9475,671.00,104.00,48.20,15.52,250.00,17.00,0.00,29.81,M,10.00,24.00,CLR,M,M,M,M,M,M,M,M,M,M,M,M,M,M,100.65,KBVU 140055Z AUTO 25017G24KT 10SM CLR 40/09 A2981 RMK AO2,M
BAM,2022-07-14 00:55,-116.8743,40.5990,1382.36,M,M,M,270.00,11.00,0.00,29.93,M,10.00,18.00,CLR,M,M,M,M,M,M,M,M,M,M,M,M,M,M,M,KBAM 140055Z AUTO 27011G18KT 10SM CLR A2993 RMK AO1,M
HTH,2022-07-14 00:55,-118.6315,38.5448,1282.89,102.20,-2.20,1.95,260.00,14.00,0.00,29.90,M,10.00,19.00,CLR,M,M,M,M,M,M,M,M,M,M,M,M,M,M,93.57,KHTH 140055Z AUTO 26014G19KT 10SM CLR 39/M19 A2990 RMK A01,M
RTS,2022-07-14 00:55,-119.8764,39.6682,1539.00,87.80,23.00,9.39,260.00,14.00,0.00,30.09,M,10.00,24.00,CLR,M,M,M,M,M,M,M,M,M,M,M,M,M,M,83.43,KRTS 140055Z AUTO 26014G24KT 10SM CLR 31/M05 A3009 RMK AO2,M
05U,2022-07-14 00:55,-116.0051,39.6042,1811.23,95.00,33.80,11.67,210.00,11.00,0.00,30.07,M,10.00,18.00,CLR,M,M,M,M,M,M,M,M,M,M,M,M,M,M,89.97,K05U 140055Z AUTO 21011G18KT 10SM CLR 35/01 A3007 RMK A01,M
MEV,2022-07-14 00:55,-119.7500,38.9963,1441.42,89.60,33.80,13.80,280.00,20.00,0.00,30.02,M,10.00,M,CLR,M,M,M,M,M,M,M,M,M,M,M,M,M,M,85.59,KMEV 140055Z AUTO 28020KT 10SM CLR 32/01 A3002 RMK AO2,M
RNO,2022-07-14 00:55,-119.7711,39.4839,1341.00,91.00,37.00,15.00,270.00,18.00,0.00,29.98,1008.90,10.00,28.00,CLR,M,M,M,M,M,M,M,M,M,M,M,30.00,280.00,2022-07-14 00:10,86.86,KRNO 140055Z 27018G28KT 10SM CLR 33/03 A2998 RMK AO2 PK WND 28030/0010 SLP089 T03280028,M
WMC,2022-07-14 00:56,-117.8072,40.9019,1315.00,98.00,32.00,9.87,300.00,17.00,0.00,29.93,1007.40,10.00,27.00,CLR,M,M,M,M,M,M,M,M,M,M,M,28.00,300.00,2022-07-14 00:33,92.27,KWMC 140056Z AUTO 30017G27KT 10SM CLR 37/00 A2993 RMK AO2 PK WND 30028/0033 SLP074 T03670000,M
TPH,2022-07-14 00:56,-117.0904,38.0505,1654.00,95.00,33.00,11.34,200.00,20.00,0.00,30.05,1008.50,10.00,30.00,CLR,M,M,M,M,M,M,M,M,M,M,M,31.00,190.00,2022-07-14 00:01,89.86,KTPH 140056Z AUTO 20020G30KT 10SM CLR 35/01 A3005 RMK AO2 PK WND 19031/0001 SLP085 T03500006,M
EKO,2022-07-14 00:56,-115.7860,40.8242,1367.00,97.00,34.00,11.06,280.00,19.00,0.00,29.96,1007.20,10.00,29.00,CLR,M,M,M,M,M,M,M,M,M,M,M,30.00,210.00,2022-07-14 00:04,91.64,KEKO 140056Z AUTO 28019G29KT 10SM CLR 36/01 A2996 RMK AO2 PK WND 21030/0004 SLP072 T03610011,M
NFL,2022-07-14 00:56,-118.7010,39.4166,1199.00,99.00,35.00,10.87,280.00,17.00,0.00,29.90,1009.80,10.00,27.00,FEW,M,M,M,8000.00,M,M,M,M,M,M,M,27.00,280.00,2022-07-14 00:47,93.48,KNFL 140056Z 28017G27KT 10SM FEW080 37/02 A2990 RMK AO2 PK WND 28027/0047 SLP098 T03720017,M
HND,2022-07-14 00:56,-115.1344,35.9729,742.79,103.00,54.00,19.87,140.00,11.00,0.00,29.85,1008.60,10.00,17.00,CLR,M,M,M,M,M,M,M,M,M,M,M,27.00,150.00,2022-07-14 00:01,101.27,KHND 140056Z 14011G17KT 10SM CLR 39/12 A2985 RMK AO2 PK WND 15027/0001 SLP086 T03940122,M
LAS,2022-07-14 00:56,-115.1634,36.0719,663.00,107.00,49.00,14.53,160.00,10.00,0.00,29.80,1005.70,10.00,18.00,FEW,SCT,SCT,M,10000.00,15000.00,22000.00,M,M,M,M,M,30.00,170.00,2022-07-14 00:08,103.95,KLAS 140056Z 16010G18KT 10SM FEW100 SCT150 SCT220 42/09 A2980 RMK AO2 PK WND 17030/0008 WSHFT 0004 SLP057 VIRGA E-SE CB DSNT NE-SE T04170094,M
LSV,2022-07-14 00:58,-115.0343,36.2362,570.00,111.60,44.80,10.92,180.00,18.00,0.00,29.75,1004.20,10.00,M,CLR,M,M,M,M,M,M,M,M,M,M,M,M,M,M,106.88,KLSV 140058Z AUTO 18018KT 10SM CLR 44/07 A2975 RMK AO2 SLP042 T04420071 $,M
INS,2022-07-14 00:58,-115.6733,36.5872,955.00,102.20,40.00,11.92,220.00,20.00,0.00,29.87,1005.70,10.00,M,CLR,M,M,M,M,M,M,M,M,M,M,M,M,M,M,97.14,KINS 140058Z AUTO 22020KT 10SM CLR 39/04 A2987 RMK AO2 SLP057 T03900044 $,M
P68,2022-07-14 01:04,-116.0056,39.6014,1993.00,93.00,30.90,11.04,210.00,13.00,0.00,30.04,M,M,23.00,M,M,M,M,M,M,M,M,M,M,M,M,M,M,M,88.02,KP68 140104Z AUTO 21013G23KT 34/M01 A3004 RMK AO1 WSHFT 0047 T03391006,M
EKO,2022-07-14 01:04,-115.7860,40.8242,1367.00,96.00,34.00,11.37,280.00,22.00,0.00,29.97,M,10.00,32.00,CLR,M,M,M,M,M,M,M,M,M,M,M,32.00,260.00,2022-07-14 00:59,90.89,KEKO 140104Z AUTO 28022G32KT 10SM CLR 36/01 A2997 RMK AO2 PK WND 26032/0059 WSHFT 0044 T03560011,M
MEV,2022-07-14 01:15,-119.7500,38.9963,1441.42,87.80,37.40,16.86,270.00,16.00,0.00,30.02,M,10.00,23.00,CLR,M,M,M,M,M,M,M,M,M,M,M,M,M,M,84.16,KMEV 140115Z AUTO 27016G23KT 10SM CLR 31/03 A3002 RMK AO2,M
HTH,2022-07-14 01:15,-118.6315,38.5448,1282.89,102.20,1.40,2.32,210.00,12.00,0.00,29.90,M,10.00,M,CLR,M,M,M,M,M,M,M,M,M,M,M,M,M,M,93.66,KHTH 140115Z AUTO 21012KT 10SM CLR 39/M17 A2990 RMK A01,M
05U,2022-07-14 01:15,-116.0051,39.6042,1811.23,95.00,30.20,10.09,210.00,14.00,0.00,30.07,M,10.00,M,CLR,M,M,M,M,M,M,M,M,M,M,M,M,M,M,89.48,K05U 140115Z AUTO 21014KT 10SM CLR 35/M01 A3007 RMK A01,M
BAM,2022-07-14 01:15,-116.8743,40.5990,1382.36,M,M,M,230.00,14.00,0.00,29.92,M,10.00,20.00,CLR,M,M,M,M,M,M,M,M,M,M,M,M,M,M,M,KBAM 140115Z AUTO 23014G20KT 10SM CLR A2992 RMK AO1,M
CXP,2022-07-14 01:15,-119.7326,39.1923,1431.00,86.00,37.40,17.85,290.00,15.00,0.00,30.04,M,10.00,23.00,CLR,M,M,M,M,M,M,M,M,M,M,M,M,M,M,82.73,KCXP 140115Z AUTO 29015G23KT 10SM CLR 30/03 A3004 RMK AO2,M
RTS,2022-07-14 01:15,-119.8764,39.6682,1539.00,86.00,23.00,9.94,240.00,16.00,0.00,30.09,M,10.00,M,CLR,M,M,M,M,M,M,M,M,M,M,M,M,M,M,82.14,KRTS 140115Z AUTO 24016KT 10SM CLR 30/M05 A3009 RMK AO2,M
BVU,2022-07-14 01:15,-114.8611,35.9475,671.00,104.00,46.40,14.50,250.00,9.00,0.00,29.81,M,10.00,M,CLR,M,M,M,M,M,M,M,M,M,M,M,M,M,M,100.21,KBVU 140115Z AUTO 25009KT 10SM CLR 40/08 A2981 RMK AO2,M
05U,2022-07-14 01:35,-116.0051,39.6042,1811.23,93.20,30.20,10.67,220.00,12.00,0.00,30.07,M,10.00,M,CLR,M,M,M,M,M,M,M,M,M,M,M,M,M,M,88.09,K05U 140135Z AUTO 22012KT 10SM CLR 34/M01 A3007 RMK A01,M
MEV,2022-07-14 01:35,-119.7500,38.9963,1441.42,87.80,35.60,15.70,260.00,11.00,0.00,30.03,M,10.00,25.00,CLR,M,M,M,M,M,M,M,M,M,M,M,M,M,M,84.12,KMEV 140135Z AUTO 26011G25KT 10SM CLR 31/02 A3003 RMK AO2,M
BAM,2022-07-14 01:35,-116.8743,40.5990,1382.36,M,M,M,200.00,6.00,0.00,29.93,M,10.00,9.00,CLR,M,M,M,M,M,M,M,M,M,M,M,M,M,M,M,KBAM 140135Z AUTO 20006G09KT 10SM CLR A2993 RMK AO1,M
HTH,2022-07-14 01:35,-118.6315,38.5448,1282.89,100.40,1.40,2.44,220.00,9.00,0.00,29.91,M,10.00,16.00,CLR,M,M,M,M,M,M,M,M,M,M,M,M,M,M,92.21,KHTH 140135Z AUTO 22009G16KT 10SM CLR 38/M17 A2991 RMK A01,M
CXP,2022-07-14 01:35,-119.7326,39.1923,1431.00,86.00,37.40,17.85,300.00,15.00,0.00,30.04,M,10.00,21.00,CLR,M,M,M,M,M,M,M,M,M,M,M,M,M,M,82.73,KCXP 140135Z AUTO 30015G21KT 10SM CLR 30/03 A3004 RMK AO2,M
BVU,2022-07-14 01:35,-114.8611,35.9475,671.00,104.00,46.40,14.50,250.00,5.00,0.00,29.81,M,10.00,M,CLR,M,M,M,M,M,M,M,M,M,M,M,M,M,M,100.21,KBVU 140135Z AUTO 25005KT 10SM CLR 40/08 A2981 RMK AO2,M
RTS,2022-07-14 01:35,-119.8764,39.6682,1539.00,86.00,26.60,11.55,290.00,19.00,0.00,30.08,M,10.00,24.00,CLR,M,M,M,M,M,M,M,M,M,M,M,M,M,M,82.39,KRTS 140135Z AUTO 29019G24KT 10SM CLR 30/M03 A3008 RMK AO2,M
ELY,2022-07-14 01:44,-114.8453,39.2950,1909.00,84.00,41.00,21.90,210.00,22.00,0.00,30.15,M,2.50,36.00,FEW,SCT,M,M,300.00,12000.00,M,M,HZ,M,M,M,36.00,210.00,2022-07-14 01:42,81.37,KELY 140144Z AUTO 21022G36KT 2 1/2SM HZ FEW003 SCT120 29/05 A3015 RMK AO2 PK WND 21036/0142 LTG DSNT SW T02890050,M
VGT,2022-07-14 01:53,-115.1933,36.2111,667.00,108.00,49.00,14.15,170.00,14.00,0.00,29.79,1006.70,10.00,M,CLR,M,M,M,M,M,M,M,M,M,M,M,M,M,M,104.83,KVGT 140153Z 17014KT 10SM CLR 42/09 A2979 RMK AO2 SLP067 T04220094,M
P68,2022-07-14 01:53,-116.0056,39.6014,1993.00,92.00,30.00,11.02,230.00,10.00,0.00,30.05,1006.80,M,17.00,M,M,M,M,M,M,M,M,M,M,M,M,M,M,M,87.07,KP68 140153Z AUTO 23010G17KT 33/M01 A3005 RMK AO1 WSHFT 0047 SLP068 T03331011,M
ELY,2022-07-14 01:53,-114.8453,39.2950,1909.00,86.00,39.00,19.01,200.00,11.00,0.00,30.14,1008.40,4.00,28.00,FEW,SCT,M,M,300.00,12000.00,M,M,HZ,M,M,M,36.00,210.00,2022-07-14 01:42,82.78,KELY 140153Z AUTO 20011G28KT 4SM HZ FEW003 SCT120 30/04 A3014 RMK AO2 PK WND 21036/0142 LTG DSNT S AND SW SLP084 T03000039,M
LOL,2022-07-14 01:53,-118.5701,40.0684,1192.43,96.00,32.00,10.49,310.00,16.00,0.00,29.91,1007.60,10.00,M,CLR,M,M,M,M,M,M,M,M,M,M,M,M,M,M,90.61,KLOL 140153Z AUTO 31016KT 10SM CLR 36/00 A2991 RMK AO2 SLP076 T03560000,M
DRA,2022-07-14 01:53,-116.0278,36.6206,1009.00,99.00,41.00,13.70,220.00,11.00,0.00,29.90,1006.10,10.00,M,CLR,M,M,M,M,M,M,M,M,M,M,M,M,M,M,94.47,KDRA 140153Z AUTO 22011KT 10SM CLR 37/05 A2990 RMK AO2 SLP061 T03720050,M
BVU,2022-07-14 01:55,-114.8611,35.9475,671.00,104.00,46.40,14.50,200.00,3.00,0.00,29.82,M,10.00,M,CLR,M,M,M,M,M,M,M,M,M,M,M,M,M,M,100.21,KBVU 140155Z AUTO 20003KT 10SM CLR 40/08 A2982 RMK AO2,M
MEV,2022-07-14 01:55,-119.7500,38.9963,1441.42,86.00,37.40,17.85,270.00,18.00,0.00,30.02,M,10.00,M,CLR,M,M,M,M,M,M,M,M,M,M,M,M,M,M,82.73,KMEV 140155Z AUTO 27018KT 10SM CLR 30/03 A3002 RMK AO2,M
05U,2022-07-14 01:55,-116.0051,39.6042,1811.23,91.40,28.40,10.48,230.00,8.00,0.00,30.08,M,10.00,18.00,CLR,M,M,M,M,M,M,M,M,M,M,M,M,M,M,86.53,K05U 140155Z AUTO 23008G18KT 10SM CLR 33/M02 A3008 RMK A01,M
BAM,2022-07-14 01:55,-116.8743,40.5990,1382.36,M,M,M,280.00,11.00,0.00,29.94,M,10.00,17.00,CLR,M,M,M,M,M,M,M,M,M,M,M,M,M,M,M,KBAM 140155Z AUTO 28011G17KT 10SM CLR A2994 RMK AO1,M
HTH,2022-07-14 01:55,-118.6315,38.5448,1282.89,100.40,-0.40,2.25,210.00,11.00,0.00,29.91,M,10.00,18.00,CLR,M,M,M,M,M,M,M,M,M,M,M,M,M,M,92.17,KHTH 140155Z AUTO 21011G18KT 10SM CLR 38/M18 A2991 RMK A01,M
RTS,2022-07-14 01:55,-119.8764,39.6682,1539.00,84.20,26.60,12.23,280.00,18.00,0.00,30.09,M,10.00,24.00,CLR,M,M,M,M,M,M,M,M,M,M,M,M,M,M,81.13,KRTS 140155Z AUTO 28018G24KT 10SM CLR 29/M03 A3009 RMK AO2,M
RNO,2022-07-14 01:55,-119.7711,39.4839,1341.00,89.00,35.00,14.77,280.00,19.00,0.00,30.00,1009.80,10.00,28.00,CLR,M,M,M,M,M,M,M,M,M,M,M,28.00,290.00,2022-07-14 01:33,85.19,KRNO 140155Z 28019G28KT 10SM CLR 32/02 A3000 RMK AO2 PK WND 29028/0133 SLP098 T03170017,M
CXP,2022-07-14 01:55,-119.7326,39.1923,1431.00,86.00,35.60,16.63,280.00,14.00,0.00,30.04,M,10.00,21.00,CLR,M,M,M,M,M,M,M,M,M,M,M,M,M,M,82.69,KCXP 140155Z AUTO 28014G21KT 10SM CLR 30/02 A3004 RMK AO2,M
EKO,2022-07-14 01:56,-115.7860,40.8242,1367.00,91.00,33.00,12.85,280.00,13.00,0.00,29.99,1008.60,10.00,27.00,CLR,M,M,M,M,M,M,M,M,M,M,M,32.00,260.00,2022-07-14 00:59,86.74,KEKO 140156Z AUTO 28013G27KT 10SM CLR 33/01 A2999 RMK AO2 PK WND 26032/0059 WSHFT 0044 SLP086 T03280006,M
WMC,2022-07-14 01:56,-117.8072,40.9019,1315.00,95.00,30.90,10.38,290.00,16.00,0.00,29.94,1007.50,9.00,22.00,FEW,M,M,M,6000.00,M,M,M,M,M,M,M,28.00,300.00,2022-07-14 01:03,89.56,KWMC 140156Z AUTO 29016G22KT 9SM FEW060 35/M01 A2994 RMK AO2 PK WND 30028/0103 SLP075 T03501006,M
NFL,2022-07-14 01:56,-118.7010,39.4166,1199.00,97.00,34.00,11.06,300.00,14.00,0.00,29.91,1010.20,10.00,M,FEW,M,M,M,8000.00,M,M,M,M,M,M,M,M,M,M,91.64,KNFL 140156Z 30014KT 10SM FEW080 36/01 A2991 RMK AO2 SLP102 BLDU DSNT N-NE T03610011,M
HND,2022-07-14 01:56,-115.1344,35.9729,742.79,105.00,52.00,17.30,240.00,3.00,0.00,29.85,1008.40,10.00,M,CLR,M,M,M,M,M,M,M,M,M,M,M,M,M,M,102.91,KHND 140156Z 24003KT 10SM CLR 41/11 A2985 RMK AO2 SLP084 T04060111,M
TPH,2022-07-14 01:56,-117.0904,38.0505,1654.00,93.00,32.00,11.55,210.00,15.00,0.00,30.05,1008.20,10.00,M,CLR,M,M,M,M,M,M,M,M,M,M,M,28.00,190.00,2022-07-14 01:08,88.15,KTPH 140156Z AUTO 21015KT 10SM CLR 34/00 A3005 RMK AO2 PK WND 19028/0108 SLP082 T03390000,M
LAS,2022-07-14 01:56,-115.1634,36.0719,663.00,106.00,50.00,15.64,200.00,7.00,0.00,29.80,1005.60,10.00,15.00,FEW,FEW,SCT,M,10000.00,15000.00,22000.00,M,M,M,M,M,M,M,M,103.18,KLAS 140156Z 20007G15KT 10SM FEW100 FEW150 SCT220 41/10 A2980 RMK AO2 SLP056 T04110100,M
LSV,2022-07-14 01:58,-115.0343,36.2362,570.00,108.30,46.80,12.97,180.00,12.00,0.00,29.75,1004.20,10.00,M,FEW,M,M,M,19000.00,M,M,M,M,M,M,M,M,M,M,104.49,KLSV 140158Z AUTO 18012KT 10SM FEW190 42/08 A2975 RMK AO2 SLP042 T04240082 $,M
INS,2022-07-14 01:58,-115.6733,36.5872,955.00,101.00,39.00,11.97,230.00,15.00,0.00,29.87,1005.50,10.00,M,CLR,M,M,M,M,M,M,M,M,M,M,M,M,M,M,95.82,KINS 140158Z AUTO 23015KT 10SM CLR 38/04 A2987 RMK AO2 SLP055 T03830039 $,M
LSV,2022-07-14 02:09,-115.0343,36.2362,570.00,107.60,46.40,13.04,170.00,10.00,0.00,29.76,1004.60,10.00,M,FEW,M,M,M,19000.00,M,M,M,M,M,M,M,M,M,M,103.71,KLSV 140209Z AUTO 17010KT 10SM FEW190 42/08 A2976 RMK AO2 WSHFT 0154 SLP046 $,M
05U,2022-07-14 02:10,-116.0051,39.6042,1811.23,89.60,26.60,10.30,250.00,7.00,0.00,30.08,M,10.00,13.00,CLR,M,M,M,M,M,M,M,M,M,M,M,M,M,M,85.02,K05U 140210Z AUTO 25007G13KT 10SM CLR 32/M03 A3008 RMK A01,M
MEV,2022-07-14 02:15,-119.7500,38.9963,1441.42,84.20,37.40,18.91,270.00,16.00,0.00,30.03,M,10.00,21.00,CLR,M,M,M,M,M,M,M,M,M,M,M,M,M,M,81.38,KMEV 140215Z AUTO 27016G21KT 10SM CLR 29/03 A3003 RMK AO2,M
CXP,2022-07-14 02:15,-119.7326,39.1923,1431.00,84.20,35.60,17.61,290.00,13.00,0.00,30.05,M,10.00,19.00,CLR,M,M,M,M,M,M,M,M,M,M,M,M,M,M,81.34,KCXP 140215Z AUTO 29013G19KT 10SM CLR 29/02 A3005 RMK AO2,M
RTS,2022-07-14 02:15,-119.8764,39.6682,1539.00,82.40,26.60,12.97,280.00,17.00,0.00,30.10,M,10.00,M,CLR,M,M,M,M,M,M,M,M,M,M,M,M,M,M,79.92,KRTS 140215Z AUTO 28017KT 10SM CLR 28/M03 A3010 RMK AO2,M
BVU,2022-07-14 02:15,-114.8611,35.9475,671.00,104.00,46.40,14.50,0.00,0.00,0.00,29.82,M,10.00,M,CLR,M,M,M,M,M,M,M,M,M,M,M,M,M,M,100.21,KBVU 140215Z AUTO 00000KT 10SM CLR 40/08 A2982 RMK AO2,M
HTH,2022-07-14 02:15,-118.6315,38.5448,1282.89,98.60,19.40,5.76,20.00,10.00,0.00,29.92,M,10.00,M,CLR,M,M,M,M,M,M,M,M,M,M,M,M,M,M,91.49,KHTH 140215Z AUTO 02010KT 10SM CLR 37/M07 A2992 RMK A01,M
BAM,2022-07-14 02:15,-116.8743,40.5990,1382.36,M,M,M,320.00,6.00,0.00,29.95,M,10.00,M,CLR,M,M,M,M,M,M,M,M,M,M,M,M,M,M,M,KBAM 140215Z AUTO 32006KT 10SM CLR A2995 RMK AO1,M
BAM,2022-07-14 02:35,-116.8743,40.5990,1382.36,M,M,M,340.00,13.00,0.00,29.95,M,10.00,17.00,CLR,M,M,M,M,M,M,M,M,M,M,M,M,M,M,M,KBAM 140235Z AUTO 34013G17KT 10SM CLR A2995 RMK AO1,M
HTH,2022-07-14 02:35,-118.6315,38.5448,1282.89,95.00,28.40,9.38,360.00,16.00,0.00,29.92,M,9.00,21.00,CLR,M,M,M,M,M,M,M,M,M,M,M,M,M,M,89.27,KHTH 140235Z AUTO 36016G21KT 9SM CLR 35/M02 A2992 RMK A01,M
BVU,2022-07-14 02:35,-114.8611,35.9475,671.00,104.00,44.60,13.54,150.00,12.00,0.00,29.81,M,10.00,M,CLR,M,M,M,M,M,M,M,M,M,M,M,M,M,M,99.82,KBVU 140235Z AUTO 15012KT 10SM CLR 40/07 A2981 RMK AO2,M
CXP,2022-07-14 02:35,-119.7326,39.1923,1431.00,84.20,32.00,15.25,280.00,8.00,0.00,30.05,M,10.00,16.00,CLR,M,M,M,M,M,M,M,M,M,M,M,M,M,M,81.28,KCXP 140235Z AUTO 28008G16KT 10SM CLR 29/00 A3005 RMK AO2,M
RTS,2022-07-14 02:35,-119.8764,39.6682,1539.00,82.40,26.60,12.97,270.00,15.00,0.00,30.10,M,10.00,M,CLR,M,M,M,M,M,M,M,M,M,M,M,M,M,M,79.92,KRTS 140235Z AUTO 27015KT 10SM CLR 28/M03 A3010 RMK AO2,M
05U,2022-07-14 02:35,-116.0051,39.6042,1811.23,87.80,30.20,12.64,300.00,10.00,0.00,30.09,M,10.00,17.00,CLR,M,M,M,M,M,M,M,M,M,M,M,M,M,M,84.01,K05U 140235Z AUTO 30010G17KT 10SM CLR 31/M01 A3009 RMK A01,M
MEV,2022-07-14 02:35,-119.7500,38.9963,1441.42,82.40,37.40,20.04,270.00,14.00,0.00,30.04,M,10.00,20.00,CLR,M,M,M,M,M,M,M,M,M,M,M,M,M,M,80.14,KMEV 140235Z AUTO 27014G20KT 10SM CLR 28/03 A3004 RMK AO2,M
ELY,2022-07-14 02:53,-114.8453,39.2950,1909.00,82.00,42.00,24.38,160.00,9.00,0.00,30.14,1008.00,10.00,M,CLR,M,M,M,M,M,M,M,M,M,M,M,30.00,220.00,2022-07-14 02:00,80.09,KELY 140253Z AUTO 16009KT 10SM CLR 28/06 A3014 RMK AO2 PK WND 22030/0200 LTG DSNT S SLP080 60000 T02780056 56001,M
P68,2022-07-14 02:53,-116.0056,39.6014,1993.00,86.00,32.00,14.40,290.00,12.00,0.00,30.07,1007.80,M,19.00,M,M,M,M,M,M,M,M,M,M,M,M,M,M,M,82.64,KP68 140253Z AUTO 29012G19KT 30/00 A3007 RMK AO1 SLP078 T03000000 53006,M
VGT,2022-07-14 02:53,-115.1933,36.2111,667.00,107.00,48.00,14.05,230.00,6.00,0.00,29.79,1006.80,10.00,M,CLR,M,M,M,M,M,M,M,M,M,M,M,M,M,M,103.68,KVGT 140253Z 23006KT 10SM CLR 42/09 A2979 RMK AO2 SLP068 T04170089 55005,M
DRA,2022-07-14 02:53,-116.0278,36.6206,1009.00,97.00,40.00,13.96,190.00,8.00,0.00,29.90,1006.30,10.00,M,CLR,M,M,M,M,M,M,M,M,M,M,M,M,M,M,92.48,KDRA 140253Z AUTO 19008KT 10SM CLR 36/04 A2990 RMK AO2 SLP063 T03610044 55005,M
LOL,2022-07-14 02:53,-118.5701,40.0684,1192.43,92.00,27.00,9.75,290.00,13.00,0.00,29.93,1008.20,10.00,M,CLR,M,M,M,M,M,M,M,M,M,M,M,M,M,M,86.77,KLOL 140253Z AUTO 29013KT 10SM CLR 33/M03 A2993 RMK AO2 SLP082 T03331028 53008,M
MEV,2022-07-14 02:55,-119.7500,38.9963,1441.42,80.60,35.60,19.79,260.00,5.00,0.00,30.04,M,10.00,12.00,CLR,M,M,M,M,M,M,M,M,M,M,M,M,M,M,78.94,KMEV 140255Z AUTO 26005G12KT 10SM CLR 27/02 A3004 RMK AO2,M
05U,2022-07-14 02:55,-116.0051,39.6042,1811.23,86.00,32.00,14.40,280.00,7.00,0.00,30.10,M,10.00,13.00,CLR,M,M,M,M,M,M,M,M,M,M,M,M,M,M,82.64,K05U 140255Z AUTO 28007G13KT 10SM CLR 30/M00 A3010 RMK A01,M
RTS,2022-07-14 02:55,-119.8764,39.6682,1539.00,80.60,26.60,13.75,280.00,12.00,0.00,30.11,M,10.00,M,CLR,M,M,M,M,M,M,M,M,M,M,M,M,M,M,78.68,KRTS 140255Z AUTO 28012KT 10SM CLR 27/M03 A3011 RMK AO2,M
CXP,2022-07-14 02:55,-119.7326,39.1923,1431.00,84.20,32.00,15.25,M,5.00,0.00,30.06,M,10.00,12.00,CLR,M,M,M,M,M,M,M,M,M,M,M,M,M,M,81.28,KCXP 140255Z AUTO VRB05G12KT 10SM CLR 29/00 A3006 RMK AO2,M
HTH,2022-07-14 02:55,-118.6315,38.5448,1282.89,93.20,26.60,9.21,360.00,19.00,0.00,29.93,M,9.00,M,CLR,M,M,M,M,M,M,M,M,M,M,M,M,M,M,87.72,KHTH 140255Z AUTO 36019KT 9SM CLR 34/M03 A2993 RMK A01,M
BAM,2022-07-14 02:55,-116.8743,40.5990,1382.36,M,M,M,340.00,15.00,0.00,29.96,M,10.00,22.00,CLR,M,M,M,M,M,M,M,M,M,M,M,M,M,M,M,KBAM 140255Z AUTO 34015G22KT 10SM CLR A2996 RMK AO1,M
BVU,2022-07-14 02:55,-114.8611,35.9475,671.00,102.20,46.40,15.30,150.00,15.00,0.00,29.81,M,10.00,M,CLR,M,M,M,M,M,M,M,M,M,M,M,M,M,M,98.43,KBVU 140255Z AUTO 15015KT 10SM CLR 39/08 A2981 RMK AO2,M
RNO,2022-07-14 02:55,-119.7711,39.4839,1341.00,85.00,36.00,17.50,310.00,14.00,0.00,30.02,1010.40,10.00,21.00,CLR,M,M,M,M,M,M,M,M,M,M,M,M,M,M,81.86,KRNO 140255Z 31014G21KT 10SM CLR 29/02 A3002 RMK AO2 SLP104 T02940022 53008,M
HND,2022-07-14 02:56,-115.1344,35.9729,742.79,103.00,51.00,17.86,210.00,9.00,0.00,29.85,1008.40,10.00,M,CLR,M,M,M,M,M,M,M,M,M,M,M,M,M,M,100.32,KHND 140256Z 21009KT 10SM CLR 39/11 A2985 RMK AO2 SLP084 T03940106 56007,M
TPH,2022-07-14 02:56,-117.0904,38.0505,1654.00,89.00,34.00,14.14,200.00,12.00,0.00,30.06,1008.10,10.00,M,CLR,M,M,M,M,M,M,M,M,M,M,M,26.00,210.00,2022-07-14 02:09,85.17,KTPH 140256Z AUTO 20012KT 10SM CLR 32/01 A3006 RMK AO2 PK WND 21026/0209 SLP081 T03170011 55000,M
LAS,2022-07-14 02:56,-115.1634,36.0719,663.00,105.00,49.00,15.42,190.00,8.00,0.00,29.81,1005.80,10.00,15.00,FEW,FEW,SCT,M,10000.00,15000.00,25000.00,M,M,M,M,M,M,M,M,101.94,KLAS 140256Z 19008G15KT 10SM FEW100 FEW150 SCT250 41/09 A2981 RMK AO2 SLP058 T04060094 55004,M
EKO,2022-07-14 02:56,-115.7860,40.8242,1367.00,91.00,33.00,12.85,300.00,6.00,0.00,29.99,1007.70,10.00,M,CLR,M,M,M,M,M,M,M,M,M,M,M,M,M,M,86.74,KEKO 140256Z AUTO 30006KT 10SM CLR 33/01 A2999 RMK AO2 SLP077 T03280006 50007,M
NFL,2022-07-14 02:56,-118.7010,39.4166,1199.00,91.00,32.00,12.29,300.00,12.00,0.00,29.94,1011.00,10.00,M,FEW,M,M,M,8000.00,M,M,M,M,M,M,M,M,M,M,86.61,KNFL 140256Z 30012KT 10SM FEW080 33/00 A2994 RMK AO2 SLP110 BLDU DSNT N-NE T03280000 53013,M
WMC,2022-07-14 02:56,-117.8072,40.9019,1315.00,90.00,28.90,11.18,290.00,7.00,0.00,29.97,1008.40,10.00,M,CLR,M,M,M,M,M,M,M,M,M,M,M,26.00,310.00,2022-07-14 02:02,85.52,KWMC 140256Z AUTO 29007KT 10SM CLR 32/M02 A2997 RMK AO2 PK WND 31026/0202 SLP084 T03221017 53009,M
INS,2022-07-14 02:58,-115.6733,36.5872,955.00,98.40,39.00,12.91,230.00,13.00,0.00,29.88,1005.90,10.00,M,CLR,M,M,M,M,M,M,M,M,M,M,M,M,M,M,93.68,KINS 140258Z AUTO 23013KT 10SM CLR 37/04 A2988 RMK AO2 SLP059 T03690039 55000 $,M
LSV,2022-07-14 02:58,-115.0343,36.2362,570.00,106.30,49.00,14.88,170.00,11.00,0.00,29.76,1004.50,10.00,M,CLR,M,M,M,M,M,M,M,M,M,M,M,M,M,M,103.15,KLSV 140258Z AUTO 17011KT 10SM CLR 41/09 A2976 RMK AO2 SLP045 T04130094 55002 $,M
05U,2022-07-14 03:15,-116.0051,39.6042,1811.23,84.20,32.00,15.25,0.00,0.00,0.00,30.10,M,10.00,M,CLR,M,M,M,M,M,M,M,M,M,M,M,M,M,M,81.28,K05U 140315Z AUTO 00000KT 10SM CLR 29/00 A3010 RMK A01,M
BVU,2022-07-14 03:15,-114.8611,35.9475,671.00,102.20,46.40,15.30,160.00,14.00,0.00,29.82,M,10.00,M,CLR,M,M,M,M,M,M,M,M,M,M,M,M,M,M,98.43,KBVU 140315Z AUTO 16014KT 10SM CLR 39/08 A2982 RMK AO2,M
CXP,2022-07-14 03:15,-119.7326,39.1923,1431.00,80.60,33.80,18.42,320.00,8.00,0.00,30.06,M,10.00,14.00,CLR,M,M,M,M,M,M,M,M,M,M,M,M,M,M,78.88,KCXP 140315Z AUTO 32008G14KT 10SM CLR 27/01 A3006 RMK AO2,M
RTS,2022-07-14 03:15,-119.8764,39.6682,1539.00,77.00,28.40,16.67,290.00,12.00,0.00,30.11,M,10.00,M,CLR,M,M,M,M,M,M,M,M,M,M,M,M,M,M,77.00,KRTS 140315Z AUTO 29012KT 10SM CLR 25/M02 A3011 RMK AO2,M
MEV,2022-07-14 03:15,-119.7500,38.9963,1441.42,78.80,35.60,21.00,250.00,6.00,0.00,30.04,M,10.00,M,CLR,M,M,M,M,M,M,M,M,M,M,M,M,M,M,78.80,KMEV 140315Z AUTO 25006KT 10SM CLR 26/02 A3004 RMK AO2,M
BAM,2022-07-14 03:15,-116.8743,40.5990,1382.36,M,M,M,340.00,13.00,0.00,29.97,M,10.00,19.00,CLR,M,M,M,M,M,M,M,M,M,M,M,M,M,M,M,KBAM 140315Z AUTO 34013G19KT 10SM CLR A2997 RMK AO1,M
HTH,2022-07-14 03:15,-118.6315,38.5448,1282.89,93.20,26.60,9.21,10.00,16.00,0.00,29.94,M,8.00,21.00,CLR,M,M,M,M,M,M,M,M,M,M,M,M,M,M,87.72,KHTH 140315Z AUTO 01016G21KT 8SM CLR 34/M03 A2994 RMK A01,M
CXP,2022-07-14 03:30,-119.7326,39.1923,1431.00,80.60,33.80,18.42,300.00,6.00,0.00,30.06,M,10.00,M,CLR,M,M,M,M,M,M,M,M,M,M,M,M,M,M,78.88,KCXP 140330Z AUTO 30006KT 10SM CLR 27/01 A3006 RMK AO2,M
RTS,2022-07-14 03:35,-119.8764,39.6682,1539.00,75.20,30.20,19.05,300.00,14.00,0.00,30.12,M,10.00,M,CLR,M,M,M,M,M,M,M,M,M,M,M,M,M,M,75.20,KRTS 140335Z AUTO 30014KT 10SM CLR 24/M01 A3012 RMK AO2,M
MEV,2022-07-14 03:35,-119.7500,38.9963,1441.42,78.80,35.60,21.00,240.00,4.00,0.00,30.05,M,10.00,14.00,CLR,M,M,M,M,M,M,M,M,M,M,M,M,M,M,78.80,KMEV 140335Z AUTO 24004G14KT 10SM CLR 26/02 A3005 RMK AO2,M
BVU,2022-07-14 03:35,-114.8611,35.9475,671.00,100.40,44.60,15.08,170.00,5.00,0.00,29.82,M,10.00,M,CLR,M,M,M,M,M,M,M,M,M,M,M,M,M,M,96.31,KBVU 140335Z AUTO 17005KT 10SM CLR 38/07 A2982 RMK AO2,M
HTH,2022-07-14 03:35,-118.6315,38.5448,1282.89,91.40,26.60,9.74,340.00,10.00,0.00,29.96,M,9.00,20.00,CLR,M,M,M,M,M,M,M,M,M,M,M,M,M,M,86.36,KHTH 140335Z AUTO 34010G20KT 9SM CLR 33/M03 A2996 RMK A01,M
BAM,2022-07-14 03:35,-116.8743,40.5990,1382.36,M,M,M,340.00,14.00,0.00,29.98,M,10.00,M,CLR,M,M,M,M,M,M,M,M,M,M,M,M,M,M,M,KBAM 140335Z AUTO 34014KT 10SM CLR A2998 RMK AO1,M
05U,2022-07-14 03:35,-116.0051,39.6042,1811.23,78.80,35.60,21.00,0.00,0.00,0.00,30.11,M,10.00,M,CLR,M,M,M,M,M,M,M,M,M,M,M,M,M,M,78.80,K05U 140335Z AUTO 00000KT 10SM CLR 26/02 A3011 RMK A01,M
CXP,2022-07-14 03:50,-119.7326,39.1923,1431.00,78.80,33.80,19.55,310.00,5.00,0.00,30.07,M,10.00,M,CLR,M,M,M,M,M,M,M,M,M,M,M,M,M,M,78.80,KCXP 140350Z AUTO 31005KT 10SM CLR 26/01 A3007 RMK AO2,M
P68,2022-07-14 03:53,-116.0056,39.6014,1993.00,75.00,33.00,21.56,100.00,8.00,0.00,30.09,1008.60,M,M,M,M,M,M,M,M,M,M,M,M,M,M,M,M,M,75.00,KP68 140353Z AUTO 10008KT 24/01 A3009 RMK AO1 SLP086 T02390006,M
ELY,2022-07-14 03:53,-114.8453,39.2950,1909.00,79.00,42.00,26.89,150.00,14.00,0.00,30.16,1008.60,10.00,M,CLR,M,M,M,M,M,M,M,M,M,M,M,M,M,M,79.00,KELY 140353Z AUTO 15014KT 10SM CLR 26/06 A3016 RMK AO2 SLP086 T02610056,M
LOL,2022-07-14 03:53,-118.5701,40.0684,1192.43,86.00,25.00,10.81,310.00,12.00,0.00,29.95,1008.90,10.00,M,CLR,M,M,M,M,M,M,M,M,M,M,M,M,M,M,82.27,KLOL 140353Z AUTO 31012KT 10SM CLR 30/M04 A2995 RMK AO2 SLP089 T03001039,M
DRA,2022-07-14 03:53,-116.0278,36.6206,1009.00,94.00,40.00,15.35,170.00,8.00,0.00,29.91,1006.40,10.00,M,CLR,M,M,M,M,M,M,M,M,M,M,M,M,M,M,89.60,KDRA 140353Z AUTO 17008KT 10SM CLR 34/04 A2991 RMK AO2 SLP064 T03440044,M
VGT,2022-07-14 03:53,-115.1933,36.2111,667.00,105.00,48.00,14.91,220.00,7.00,0.00,29.81,1007.30,10.00,M,CLR,M,M,M,M,M,M,M,M,M,M,M,M,M,M,101.70,KVGT 140353Z AUTO 22007KT 10SM CLR 41/09 A2981 RMK AO2 SLP073 T04060089,M
MEV,2022-07-14 03:55,-119.7500,38.9963,1441.42,78.80,37.40,22.54,M,6.00,0.00,30.05,M,10.00,14.00,CLR,M,M,M,M,M,M,M,M,M,M,M,M,M,M,78.80,KMEV 140355Z AUTO VRB06G14KT 10SM CLR 26/03 A3005 RMK AO2,M
05U,2022-07-14 03:55,-116.0051,39.6042,1811.23,75.20,32.00,20.49,100.00,8.00,0.00,30.11,M,10.00,M,CLR,M,M,M,M,M,M,M,M,M,M,M,M,M,M,75.20,K05U 140355Z AUTO 10008KT 10SM CLR 24/00 A3011 RMK A01,M
BAM,2022-07-14 03:55,-116.8743,40.5990,1382.36,M,M,M,340.00,11.00,0.00,29.98,M,10.00,M,CLR,M,M,M,M,M,M,M,M,M,M,M,M,M,M,M,KBAM 140355Z AUTO 34011KT 10SM CLR A2998 RMK AO1,M
HTH,2022-07-14 03:55,-118.6315,38.5448,1282.89,89.60,30.20,11.94,330.00,10.00,0.00,29.97,M,10.00,M,FEW,FEW,M,M,4600.00,5000.00,M,M,M,M,M,M,M,M,M,85.34,KHTH 140355Z AUTO 33010KT 10SM FEW046 FEW050 32/M01 A2997 RMK A01,M
BVU,2022-07-14 03:55,-114.8611,35.9475,671.00,100.40,44.60,15.08,150.00,7.00,0.00,29.83,M,10.00,12.00,CLR,M,M,M,M,M,M,M,M,M,M,M,M,M,M,96.31,KBVU 140355Z AUTO 15007G12KT 10SM CLR 38/07 A2983 RMK AO2,M
RTS,2022-07-14 03:55,-119.8764,39.6682,1539.00,75.20,33.80,22.02,290.00,17.00,0.00,30.12,M,10.00,22.00,CLR,M,M,M,M,M,M,M,M,M,M,M,M,M,M,75.20,KRTS 140355Z AUTO 29017G22KT 10SM CLR 24/01 A3012 RMK AO2,M
RNO,2022-07-14 03:55,-119.7711,39.4839,1341.00,82.00,36.00,19.21,290.00,16.00,0.00,30.04,1010.70,10.00,M,CLR,M,M,M,M,M,M,M,M,M,M,M,M,M,M,79.83,KRNO 140355Z 29016KT 10SM CLR 28/02 A3004 RMK AO2 SLP107 T02780022,M
HND,2022-07-14 03:56,-115.1344,35.9729,742.79,100.00,50.00,18.71,190.00,6.00,0.00,29.87,1009.00,10.00,M,CLR,M,M,M,M,M,M,M,M,M,M,M,M,M,M,97.00,KHND 140356Z AUTO 19006KT 10SM CLR 38/10 A2987 RMK AO2 SLP090 T03780100,M
NFL,2022-07-14 03:56,-118.7010,39.4166,1199.00,88.00,28.90,11.91,300.00,10.00,0.00,29.96,1011.70,10.00,M,FEW,M,M,M,8000.00,M,M,M,M,M,M,M,M,M,M,84.03,KNFL 140356Z 30010KT 10SM FEW080 31/M02 A2996 RMK AO2 SLP117 BLDU DSNT N-NE T03111017,M
WMC,2022-07-14 03:56,-117.8072,40.9019,1315.00,84.00,28.00,13.04,290.00,4.00,0.00,29.99,1009.20,10.00,M,CLR,M,M,M,M,M,M,M,M,M,M,M,M,M,M,81.10,KWMC 140356Z AUTO 29004KT 10SM CLR 29/M02 A2999 RMK AO2 SLP092 T02891022,M
EKO,2022-07-14 03:56,-115.7860,40.8242,1367.00,87.00,34.00,15.06,350.00,3.00,0.00,30.01,1008.30,10.00,M,CLR,M,M,M,M,M,M,M,M,M,M,M,M,M,M,83.53,KEKO 140356Z AUTO 35003KT 10SM CLR 31/01 A3001 RMK AO2 SLP083 T03060011,M
TPH,2022-07-14 03:56,-117.0904,38.0505,1654.00,85.00,34.00,16.16,200.00,10.00,0.00,30.07,1008.00,10.00,M,CLR,M,M,M,M,M,M,M,M,M,M,M,M,M,M,81.82,KTPH 140356Z AUTO 20010KT 10SM CLR 29/01 A3007 RMK AO2 SLP080 T02940011,M
LAS,2022-07-14 03:56,-115.1634,36.0719,663.00,103.00,47.00,15.27,230.00,8.00,0.00,29.82,1006.30,10.00,M,FEW,FEW,M,M,15000.00,25000.00,M,M,M,M,M,M,M,M,M,99.23,KLAS 140356Z 23008KT 10SM FEW150 FEW250 39/08 A2982 RMK AO2 SLP063 T03940083,M
INS,2022-07-14 03:58,-115.6733,36.5872,955.00,96.00,39.00,13.94,240.00,10.00,0.00,29.89,1005.90,10.00,M,CLR,M,M,M,M,M,M,M,M,M,M,M,M,M,M,91.38,KINS 140358Z AUTO 24010KT 10SM CLR 36/04 A2989 RMK AO2 SLP059 T03550039 $,M
LSV,2022-07-14 03:58,-115.0343,36.2362,570.00,104.20,49.00,15.83,140.00,10.00,0.00,29.77,1004.80,10.00,M,CLR,M,M,M,M,M,M,M,M,M,M,M,M,M,M,101.03,KLSV 140358Z AUTO 14010KT 10SM CLR 40/09 A2977 RMK AO2 SLP048 T04010094 $,M
CXP,2022-07-14 04:15,-119.7326,39.1923,1431.00,78.80,33.80,19.55,310.00,9.00,0.00,30.08,M,10.00,M,CLR,M,M,M,M,M,M,M,M,M,M,M,M,M,M,78.80,KCXP 140415Z AUTO 31009KT 10SM CLR 26/01 A3008 RMK AO2,M
BVU,2022-07-14 04:15,-114.8611,35.9475,671.00,100.40,44.60,15.08,150.00,6.00,0.00,29.84,M,10.00,M,CLR,M,M,M,M,M,M,M,M,M,M,M,M,M,M,96.31,KBVU 140415Z AUTO 15006KT 10SM CLR 38/07 A2984 RMK AO2,M
05U,2022-07-14 04:15,-116.0051,39.6042,1811.23,71.60,32.00,23.13,80.00,10.00,0.00,30.12,M,10.00,M,CLR,M,M,M,M,M,M,M,M,M,M,M,M,M,M,71.60,K05U 140415Z AUTO 08010KT 10SM CLR 22/00 A3012 RMK A01,M
HTH,2022-07-14 04:15,-118.6315,38.5448,1282.89,87.80,32.00,13.59,310.00,11.00,0.00,29.99,M,10.00,M,SCT,SCT,M,M,4500.00,5500.00,M,M,M,M,M,M,M,M,M,84.08,KHTH 140415Z AUTO 31011KT 10SM SCT045 SCT055 31/M00 A2999 RMK A01,M
MEV,2022-07-14 04:15,-119.7500,38.9963,1441.42,78.80,35.60,21.00,320.00,6.00,0.00,30.06,M,10.00,13.00,SCT,SCT,M,M,4600.00,5000.00,M,M,M,M,M,M,M,M,M,78.80,KMEV 140415Z AUTO 32006G13KT 10SM SCT046 SCT050 26/02 A3006 RMK AO2,M
RTS,2022-07-14 04:15,-119.8764,39.6682,1539.00,73.40,33.80,23.39,310.00,12.00,0.00,30.13,M,10.00,17.00,CLR,M,M,M,M,M,M,M,M,M,M,M,M,M,M,73.40,KRTS 140415Z AUTO 31012G17KT 10SM CLR 23/01 A3013 RMK AO2,M
BAM,2022-07-14 04:15,-116.8743,40.5990,1382.36,M,M,M,340.00,12.00,0.00,29.99,M,10.00,M,CLR,M,M,M,M,M,M,M,M,M,M,M,M,M,M,M,KBAM 140415Z AUTO 34012KT 10SM CLR A2999 RMK AO1,M
BAM,2022-07-14 04:35,-116.8743,40.5990,1382.36,M,M,M,340.00,11.00,0.00,30.00,M,10.00,M,CLR,M,M,M,M,M,M,M,M,M,M,M,M,M,M,M,KBAM 140435Z AUTO 34011KT 10SM CLR A3000 RMK AO1,M
MEV,2022-07-14 04:35,-119.7500,38.9963,1441.42,73.40,35.60,25.13,M,5.00,0.00,30.07,M,10.00,M,BKN,BKN,OVC,M,4000.00,4600.00,5000.00,M,M,M,M,M,M,M,M,73.40,KMEV 140435Z AUTO VRB05KT 10SM BKN040 BKN046 OVC050 23/02 A3007 RMK AO2,M
CXP,2022-07-14 04:35,-119.7326,39.1923,1431.00,77.00,33.80,20.74,320.00,12.00,0.00,30.09,M,10.00,17.00,CLR,M,M,M,M,M,M,M,M,M,M,M,M,M,M,77.00,KCXP 140435Z AUTO 32012G17KT 10SM CLR 25/01 A3009 RMK AO2,M
05U,2022-07-14 04:35,-116.0051,39.6042,1811.23,73.40,33.80,23.39,0.00,0.00,0.00,30.13,M,10.00,M,CLR,M,M,M,M,M,M,M,M,M,M,M,M,M,M,73.40,K05U 140435Z AUTO 00000KT 10SM CLR 23/01 A3013 RMK A01,M
RTS,2022-07-14 04:35,-119.8764,39.6682,1539.00,73.40,35.60,25.13,310.00,9.00,0.00,30.14,M,10.00,M,CLR,M,M,M,M,M,M,M,M,M,M,M,M,M,M,73.40,KRTS 140435Z AUTO 31009KT 10SM CLR 23/02 A3014 RMK AO2,M
BVU,2022-07-14 04:35,-114.8611,35.9475,671.00,98.60,42.80,14.87,150.00,4.00,0.00,29.85,M,10.00,M,CLR,M,M,M,M,M,M,M,M,M,M,M,M,M,M,94.30,KBVU 140435Z AUTO 15004KT 10SM CLR 37/06 A2985 RMK AO2,M
HTH,2022-07-14 04:35,-118.6315,38.5448,1282.89,87.80,32.00,13.59,330.00,13.00,0.00,30.00,M,10.00,25.00,FEW,SCT,SCT,M,4000.00,4600.00,5500.00,M,M,M,M,M,M,M,M,84.08,KHTH 140435Z AUTO 33013G25KT 10SM FEW040 SCT046 SCT055 31/M00 A3000 RMK A01,M
ELY,2022-07-14 04:53,-114.8453,39.2950,1909.00,78.00,40.00,25.44,150.00,12.00,0.00,30.17,1008.70,10.00,M,CLR,M,M,M,M,M,M,M,M,M,M,M,M,M,M,78.10,KELY 140453Z AUTO 15012KT 10SM CLR 26/04 A3017 RMK AO2 SLP087 T02560044,M
P68,2022-07-14 04:53,-116.0056,39.6014,1993.00,76.00,33.00,20.92,0.00,0.00,0.00,30.11,1009.10,M,M,M,M,M,M,M,M,M,M,M,M,M,M,M,M,M,75.90,KP68 140453Z AUTO 00000KT 24/01 A3011 RMK AO1 SLP091 T02440006,M
DRA,2022-07-14 04:53,-116.0278,36.6206,1009.00,90.00,40.00,17.34,100.00,3.00,0.00,29.92,1007.10,10.00,M,CLR,M,M,M,M,M,M,M,M,M,M,M,M,M,M,86.11,KDRA 140453Z AUTO 10003KT 10SM CLR 32/04 A2992 RMK AO2 SLP071 T03220044,M
LOL,2022-07-14 04:53,-118.5701,40.0684,1192.43,85.00,26.10,11.72,330.00,17.00,0.00,29.99,1010.00,10.00,23.00,CLR,M,M,M,M,M,M,M,M,M,M,M,M,M,M,81.58,KLOL 140453Z AUTO 33017G23KT 10SM CLR 29/M03 A2999 RMK AO2 SLP100 T02941033,M
VGT,2022-07-14 04:53,-115.1933,36.2111,667.00,103.00,48.00,15.91,220.00,5.00,0.00,29.82,1008.00,10.00,M,CLR,M,M,M,M,M,M,M,M,M,M,M,M,M,M,99.49,KVGT 140453Z AUTO 22005KT 10SM CLR 39/09 A2982 RMK AO2 SLP080 T03940089,M
MEV,2022-07-14 04:55,-119.7500,38.9963,1441.42,69.80,37.40,30.49,50.00,5.00,0.00,30.08,M,10.00,M,BKN,OVC,M,M,4200.00,4800.00,M,M,M,M,M,M,M,M,M,69.80,KMEV 140455Z AUTO 05005KT 10SM BKN042 OVC048 21/03 A3008 RMK AO2,M
RTS,2022-07-14 04:55,-119.8764,39.6682,1539.00,69.80,35.60,28.39,330.00,7.00,0.00,30.15,M,10.00,13.00,CLR,M,M,M,M,M,M,M,M,M,M,M,M,M,M,69.80,KRTS 140455Z AUTO 33007G13KT 10SM CLR 21/02 A3015 RMK AO2,M
RNO,2022-07-14 04:55,-119.7711,39.4839,1341.00,80.00,36.00,20.44,290.00,11.00,0.00,30.07,1011.80,10.00,M,CLR,M,M,M,M,M,M,M,M,M,M,M,M,M,M,78.77,KRNO 140455Z 29011KT 10SM CLR 27/02 A3007 RMK AO2 SLP118 T02670022,M
CXP,2022-07-14 04:55,-119.7326,39.1923,1431.00,77.00,33.80,20.74,320.00,12.00,0.00,30.10,M,10.00,M,CLR,M,M,M,M,M,M,M,M,M,M,M,M,M,M,77.00,KCXP 140455Z AUTO 32012KT 10SM CLR 25/01 A3010 RMK AO2,M
BVU,2022-07-14 04:55,-114.8611,35.9475,671.00,98.60,41.00,13.87,160.00,4.00,0.00,29.85,M,10.00,M,CLR,M,M,M,M,M,M,M,M,M,M,M,M,M,M,94.09,KBVU 140455Z AUTO 16004KT 10SM CLR 37/05 A2985 RMK AO2,M
BAM,2022-07-14 04:55,-116.8743,40.5990,1382.36,M,M,M,340.00,11.00,0.00,30.01,M,10.00,M,CLR,M,M,M,M,M,M,M,M,M,M,M,M,M,M,M,KBAM 140455Z AUTO 34011KT 10SM CLR A3001 RMK AO1,M
HTH,2022-07-14 04:55,-118.6315,38.5448,1282.89,86.00,37.40,17.85,300.00,11.00,0.00,30.02,M,10.00,17.00,CLR,M,M,M,M,M,M,M,M,M,M,M,M,M,M,82.73,KHTH 140455Z AUTO 30011G17KT 10SM CLR 30/03 A3002 RMK A01,M
05U,2022-07-14 04:55,-116.0051,39.6042,1811.23,75.20,32.00,20.49,0.00,0.00,0.00,30.13,M,10.00,M,CLR,M,M,M,M,M,M,M,M,M,M,M,M,M,M,75.20,K05U 140455Z AUTO 00000KT 10SM CLR 24/00 A3013 RMK A01,M
TPH,2022-07-14 04:56,-117.0904,38.0505,1654.00,79.00,34.00,19.57,190.00,5.00,0.00,30.10,1009.10,10.00,M,CLR,M,M,M,M,M,M,M,M,M,M,M,M,M,M,79.00,KTPH 140456Z AUTO 19005KT 10SM CLR 26/01 A3010 RMK AO2 SLP091 T02610011,M
EKO,2022-07-14 04:56,-115.7860,40.8242,1367.00,82.00,34.00,17.74,340.00,5.00,0.00,30.03,1009.10,10.00,M,CLR,M,M,M,M,M,M,M,M,M,M,M,M,M,M,79.77,KEKO 140456Z AUTO 34005KT 10SM CLR 28/01 A3003 RMK AO2 SLP091 T02780011,M
WMC,2022-07-14 04:56,-117.8072,40.9019,1315.00,83.00,24.10,11.50,270.00,8.00,0.00,30.02,1009.90,4.00,M,CLR,M,M,M,M,M,M,M,HZ,M,M,M,M,M,M,80.07,KWMC 140456Z AUTO 27008KT 4SM HZ CLR 28/M04 A3002 RMK AO2 SLP099 T02831044,M
NFL,2022-07-14 04:56,-118.7010,39.4166,1199.00,81.00,30.00,15.60,360.00,6.00,0.00,30.01,1013.30,10.00,M,CLR,M,M,M,M,M,M,M,M,M,M,M,M,M,M,79.02,KNFL 140456Z 36006KT 10SM CLR 27/M01 A3001 RMK AO2 SLP133 T02721011,M
LAS,2022-07-14 04:56,-115.1634,36.0719,663.00,101.00,47.00,16.21,200.00,3.00,0.00,29.84,1006.90,10.00,M,FEW,FEW,M,M,15000.00,25000.00,M,M,M,M,M,M,M,M,M,97.23,KLAS 140456Z 20003KT 10SM FEW150 FEW250 38/08 A2984 RMK AO2 SLP069 T03830083,M
HND,2022-07-14 04:56,-115.1344,35.9729,742.79,99.00,49.00,18.51,210.00,6.00,0.00,29.89,1009.60,10.00,M,CLR,M,M,M,M,M,M,M,M,M,M,M,M,M,M,95.72,KHND 140456Z AUTO 21006KT 10SM CLR 37/09 A2989 RMK AO2 SLP096 T03720094,M
LSV,2022-07-14 04:58,-115.0343,36.2362,570.00,102.70,47.80,15.89,160.00,9.00,0.00,29.79,1005.50,10.00,M,CLR,M,M,M,M,M,M,M,M,M,M,M,M,M,M,99.24,KLSV 140458Z AUTO 16009KT 10SM CLR 39/09 A2979 RMK AO2 SLP055 T03930088 $,M
INS,2022-07-14 04:58,-115.6733,36.5872,955.00,91.60,40.60,16.95,300.00,4.00,0.00,29.91,1006.70,10.00,M,CLR,M,M,M,M,M,M,M,M,M,M,M,M,M,M,87.56,KINS 140458Z AUTO 30004KT 10SM CLR 33/05 A2991 RMK AO2 SLP067 T03310048 $,M
HTH,2022-07-14 05:15,-118.6315,38.5448,1282.89,84.20,35.60,17.61,310.00,12.00,0.00,30.03,M,10.00,19.00,FEW,M,M,M,5000.00,M,M,M,M,M,M,M,M,M,M,81.34,KHTH 140515Z AUTO 31012G19KT 10SM FEW050 29/02 A3003 RMK A01,M
BAM,2022-07-14 05:15,-116.8743,40.5990,1382.36,M,M,M,340.00,9.00,0.00,30.02,M,10.00,M,CLR,M,M,M,M,M,M,M,M,M,M,M,M,M,M,M,KBAM 140515Z AUTO 34009KT 10SM CLR A3002 RMK AO1,M
MEV,2022-07-14 05:15,-119.7500,38.9963,1441.42,69.80,37.40,30.49,40.00,7.00,0.00,30.09,M,10.00,M,BKN,BKN,M,M,4400.00,5000.00,M,M,M,M,M,M,M,M,M,69.80,KMEV 140515Z AUTO 04007KT 10SM BKN044 BKN050 21/03 A3009 RMK AO2,M
RTS,2022-07-14 05:15,-119.8764,39.6682,1539.00,69.80,35.60,28.39,0.00,0.00,0.00,30.15,M,10.00,M,CLR,M,M,M,M,M,M,M,M,M,M,M,M,M,M,69.80,KRTS 140515Z AUTO 00000KT 10SM CLR 21/02 A3015 RMK AO2,M
BVU,2022-07-14 05:15,-114.8611,35.9475,671.00,98.60,42.80,14.87,140.00,4.00,0.00,29.86,M,10.00,M,CLR,M,M,M,M,M,M,M,M,M,M,M,M,M,M,94.30,KBVU 140515Z AUTO 14004KT 10SM CLR 37/06 A2986 RMK AO2,M
05U,2022-07-14 05:15,-116.0051,39.6042,1811.23,73.40,32.00,21.76,0.00,0.00,0.00,30.14,M,10.00,M,CLR,M,M,M,M,M,M,M,M,M,M,M,M,M,M,73.40,K05U 140515Z AUTO 00000KT 10SM CLR 23/M00 A3014 RMK A01,M
CXP,2022-07-14 05:15,-119.7326,39.1923,1431.00,77.00,32.00,19.30,310.00,14.00,0.00,30.10,M,10.00,M,CLR,M,M,M,M,M,M,M,M,M,M,M,M,M,M,77.00,KCXP 140515Z AUTO 31014KT 10SM CLR 25/00 A3010 RMK AO2,M
CXP,2022-07-14 05:35,-119.7326,39.1923,1431.00,77.00,30.20,17.94,310.00,9.00,0.00,30.11,M,10.00,15.00,CLR,M,M,M,M,M,M,M,M,M,M,M,M,M,M,77.00,KCXP 140535Z AUTO 31009G15KT 10SM CLR 25/M01 A3011 RMK AO2,M
HTH,2022-07-14 05:35,-118.6315,38.5448,1282.89,84.20,35.60,17.61,310.00,13.00,0.00,30.04,M,10.00,19.00,FEW,M,M,M,5000.00,M,M,M,M,M,M,M,M,M,M,81.34,KHTH 140535Z AUTO 31013G19KT 10SM FEW050 29/02 A3004 RMK A01,M
BAM,2022-07-14 05:35,-116.8743,40.5990,1382.36,M,M,M,330.00,9.00,0.00,30.03,M,10.00,M,CLR,M,M,M,M,M,M,M,M,M,M,M,M,M,M,M,KBAM 140535Z AUTO 33009KT 10SM CLR A3003 RMK AO1,M
MEV,2022-07-14 05:35,-119.7500,38.9963,1441.42,66.20,39.20,37.03,50.00,9.00,0.00,30.09,M,10.00,M,OVC,M,M,M,4200.00,M,M,M,M,M,M,M,M,M,M,66.20,KMEV 140535Z AUTO 05009KT 10SM OVC042 19/04 A3009 RMK AO2,M
05U,2022-07-14 05:35,-116.0051,39.6042,1811.23,73.40,33.80,23.39,0.00,0.00,0.00,30.14,M,10.00,10.00,CLR,M,M,M,M,M,M,M,M,M,M,M,M,M,M,73.40,K05U 140535Z AUTO 00000G10KT 10SM CLR 23/01 A3014 RMK A01,M
RTS,2022-07-14 05:35,-119.8764,39.6682,1539.00,68.00,37.40,32.43,0.00,0.00,0.00,30.16,M,10.00,M,CLR,M,M,M,M,M,M,M,M,M,M,M,M,M,M,68.00,KRTS 140535Z AUTO 00000KT 10SM CLR 20/03 A3016 RMK AO2,M
BVU,2022-07-14 05:35,-114.8611,35.9475,671.00,96.80,44.60,16.83,180.00,7.00,0.00,29.87,M,10.00,M,CLR,M,M,M,M,M,M,M,M,M,M,M,M,M,M,92.79,KBVU 140535Z AUTO 18007KT 10SM CLR 36/07 A2987 RMK AO2,M
P68,2022-07-14 05:53,-116.0056,39.6014,1993.00,71.00,34.00,25.49,160.00,5.00,0.00,30.12,1009.50,M,M,M,M,M,M,M,M,M,M,M,M,M,M,M,M,M,71.10,KP68 140553Z AUTO 16005KT 22/01 A3012 RMK AO1 SLP095 T02170011 10350 20217 51013,M
VGT,2022-07-14 05:53,-115.1933,36.2111,667.00,101.00,48.00,16.90,170.00,7.00,0.00,29.84,1008.40,10.00,M,CLR,M,M,M,M,M,M,M,M,M,M,M,M,M,M,97.46,KVGT 140553Z AUTO 17007KT 10SM CLR 38/09 A2984 RMK AO2 SLP084 T03830089 10433 20383 53016,M
LOL,2022-07-14 05:53,-118.5701,40.0684,1192.43,83.00,25.00,11.94,0.00,0.00,0.00,30.02,1011.00,10.00,M,CLR,M,M,M,M,M,M,M,M,M,M,M,M,M,M,80.13,KLOL 140553Z AUTO 00000KT 10SM CLR 28/M04 A3002 RMK AO2 SLP110 T02831039 10383 20267 53027,M
DRA,2022-07-14 05:53,-116.0278,36.6206,1009.00,89.00,40.00,17.84,250.00,5.00,0.00,29.93,1007.30,10.00,M,CLR,M,M,M,M,M,M,M,M,M,M,M,M,M,M,85.34,KDRA 140553Z AUTO 25005KT 10SM CLR 32/04 A2993 RMK AO2 SLP073 T03170044 10394 20317 51010,M
ELY,2022-07-14 05:53,-114.8453,39.2950,1909.00,76.00,41.00,28.56,190.00,9.00,0.00,30.17,1008.80,10.00,19.00,CLR,M,M,M,M,M,M,M,M,M,M,M,M,M,M,75.90,KELY 140553Z AUTO 19009G19KT 10SM CLR 24/05 A3017 RMK AO2 SLP088 60000 T02440050 10322 20222 51009,M
BVU,2022-07-14 05:55,-114.8611,35.9475,671.00,96.80,44.60,16.83,220.00,7.00,0.00,29.87,M,10.00,M,CLR,M,M,M,M,M,M,M,M,M,M,M,M,M,M,92.79,KBVU 140555Z AUTO 22007KT 10SM CLR 36/07 A2987 RMK AO2,M
CXP,2022-07-14 05:55,-119.7326,39.1923,1431.00,75.20,30.20,19.05,0.00,0.00,0.00,30.11,M,10.00,M,FEW,M,M,M,4400.00,M,M,M,M,M,M,M,M,M,M,75.20,KCXP 140555Z AUTO 00000KT 10SM FEW044 24/M01 A3011 RMK AO2,M
RTS,2022-07-14 05:55,-119.8764,39.6682,1539.00,68.00,35.60,30.20,0.00,0.00,0.00,30.16,M,10.00,M,CLR,M,M,M,M,M,M,M,M,M,M,M,M,M,M,68.00,KRTS 140555Z AUTO 00000KT 10SM CLR 20/02 A3016 RMK AO2,M
05U,2022-07-14 05:55,-116.0051,39.6042,1811.23,71.60,33.80,24.86,0.00,0.00,0.00,30.14,M,10.00,M,CLR,M,M,M,M,M,M,M,M,M,M,M,M,M,M,71.60,K05U 140555Z AUTO 00000KT 10SM CLR 22/01 A3014 RMK A01,M
MEV,2022-07-14 05:55,-119.7500,38.9963,1441.42,62.60,41.00,45.04,70.00,8.00,0.00,30.09,M,10.00,M,BKN,M,M,M,4300.00,M,M,M,M,M,M,M,M,M,M,62.60,KMEV 140555Z AUTO 07008KT 10SM BKN043 17/05 A3009 RMK AO2,M
BAM,2022-07-14 05:55,-116.8743,40.5990,1382.36,M,M,M,340.00,7.00,0.00,30.03,M,10.00,M,CLR,M,M,M,M,M,M,M,M,M,M,M,M,M,M,M,KBAM 140555Z AUTO 34007KT 10SM CLR A3003 RMK AO1,M
HTH,2022-07-14 05:55,-118.6315,38.5448,1282.89,84.20,33.80,16.39,320.00,13.00,0.00,30.05,M,10.00,M,SCT,M,M,M,5500.00,M,M,M,M,M,M,M,M,M,M,81.30,KHTH 140555Z AUTO 32013KT 10SM SCT055 29/01 A3005 RMK A01,M
RNO,2022-07-14 05:55,-119.7711,39.4839,1341.00,77.00,38.00,24.40,10.00,11.00,0.00,30.09,1012.50,10.00,M,CLR,M,M,M,M,M,M,M,M,M,M,M,M,M,M,77.00,KRNO 140555Z 01011KT 10SM CLR 25/03 A3009 RMK AO2 SLP125 T02500033 10356 20250 53021,M
HND,2022-07-14 05:56,-115.1344,35.9729,742.79,97.00,50.00,20.49,190.00,13.00,0.00,29.90,1010.10,10.00,M,CLR,M,M,M,M,M,M,M,M,M,M,M,M,M,M,93.91,KHND 140556Z AUTO 19013KT 10SM CLR 36/10 A2990 RMK AO2 SLP101 T03610100 10411 20361 51016,M
TPH,2022-07-14 05:56,-117.0904,38.0505,1654.00,77.00,34.00,20.91,0.00,0.00,0.00,30.11,1009.70,10.00,M,CLR,M,M,M,M,M,M,M,M,M,M,M,M,M,M,77.00,KTPH 140556Z AUTO 00000KT 10SM CLR 25/01 A3011 RMK AO2 SLP097 T02500011 10356 20244 53015,M
EKO,2022-07-14 05:56,-115.7860,40.8242,1367.00,78.00,34.00,20.16,230.00,7.00,0.00,30.04,1009.70,10.00,M,CLR,M,M,M,M,M,M,M,M,M,M,M,M,M,M,78.10,KEKO 140556Z AUTO 23007KT 10SM CLR 26/01 A3004 RMK AO2 SLP097 T02560011 10372 20256 51017,M
LAS,2022-07-14 05:56,-115.1634,36.0719,663.00,100.00,48.00,17.36,190.00,9.00,0.00,29.85,1007.40,10.00,M,FEW,M,M,M,25000.00,M,M,M,M,M,M,M,M,M,M,96.55,KLAS 140556Z 19009KT 10SM FEW250 38/09 A2985 RMK AO2 SLP074 T03780089 10422 20378 52015,M
WMC,2022-07-14 05:56,-117.8072,40.9019,1315.00,72.00,25.00,17.13,0.00,0.00,0.00,30.03,1010.80,4.00,M,CLR,M,M,M,M,M,M,M,HZ,M,M,M,M,M,M,72.00,KWMC 140556Z AUTO 00000KT 4SM HZ CLR 22/M04 A3003 RMK AO2 SLP108 T02221039 10378 20222 51018,M
NFL,2022-07-14 05:56,-118.7010,39.4166,1199.00,76.00,28.90,17.65,320.00,6.00,0.00,30.03,1013.90,10.00,M,FEW,M,M,M,8000.00,M,M,M,M,M,M,M,M,M,M,75.90,KNFL 140556Z 32006KT 10SM FEW080 24/M02 A3003 RMK AO2 SLP139 T02441017 10389 20244 51029,M
LSV,2022-07-14 05:58,-115.0343,36.2362,570.00,101.50,47.00,15.92,180.00,13.00,0.00,29.81,1006.10,10.00,M,CLR,M,M,M,M,M,M,M,M,M,M,M,M,M,M,97.83,KLSV 140558Z AUTO 18013KT 10SM CLR 39/08 A2981 RMK AO2 SLP061 T03860083 10444 20384 52017 $,M
INS,2022-07-14 05:58,-115.6733,36.5872,955.00,91.40,40.50,16.99,0.00,0.00,0.00,29.91,1006.70,10.00,M,CLR,M,M,M,M,M,M,M,M,M,M,M,M,M,M,87.37,KINS 140558Z AUTO 00000KT 10SM CLR 33/05 A2991 RMK AO2 SLP067 T03300047 10401 20328 52012 $,M
MEV,2022-07-14 06:15,-119.7500,38.9963,1441.42,57.20,39.20,50.91,110.00,6.00,0.00,30.10,M,10.00,M,BKN,M,M,M,4600.00,M,M,M,M,M,M,M,M,M,M,57.20,KMEV 140615Z AUTO 11006KT 10SM BKN046 14/04 A3010 RMK AO2,M
HTH,2022-07-14 06:15,-118.6315,38.5448,1282.89,84.20,33.80,16.39,310.00,11.00,0.00,30.05,M,10.00,M,FEW,M,M,M,5500.00,M,M,M,M,M,M,M,M,M,M,81.30,KHTH 140615Z AUTO 31011KT 10SM FEW055 29/01 A3005 RMK A01,M
BAM,2022-07-14 06:15,-116.8743,40.5990,1382.36,M,M,M,200.00,3.00,0.00,30.04,M,10.00,M,CLR,M,M,M,M,M,M,M,M,M,M,M,M,M,M,M,KBAM 140615Z AUTO 20003KT 10SM CLR A3004 RMK AO1,M
05U,2022-07-14 06:15,-116.0051,39.6042,1811.23,71.60,33.80,24.86,160.00,7.00,0.00,30.14,M,10.00,M,CLR,M,M,M,M,M,M,M,M,M,M,M,M,M,M,71.60,K05U 140615Z AUTO 16007KT 10SM CLR 22/01 A3014 RMK A01,M
RTS,2022-07-14 06:15,-119.8764,39.6682,1539.00,68.00,35.60,30.20,0.00,0.00,0.00,30.16,M,10.00,M,CLR,M,M,M,M,M,M,M,M,M,M,M,M,M,M,68.00,KRTS 140615Z AUTO 00000KT 10SM CLR 20/02 A3016 RMK AO2,M
CXP,2022-07-14 06:15,-119.7326,39.1923,1431.00,73.40,26.60,17.46,300.00,6.00,0.00,30.12,M,10.00,M,FEW,M,M,M,4400.00,M,M,M,M,M,M,M,M,M,M,73.40,KCXP 140615Z AUTO 30006KT 10SM FEW044 23/M03 A3012 RMK AO2,M
BVU,2022-07-14 06:15,-114.8611,35.9475,671.00,96.80,46.40,18.02,220.00,4.00,0.00,29.87,M,10.00,M,CLR,M,M,M,M,M,M,M,M,M,M,M,M,M,M,93.05,KBVU 140615Z AUTO 22004KT 10SM CLR 36/08 A2987 RMK AO2,M
05U,2022-07-14 06:35,-116.0051,39.6042,1811.23,69.80,32.00,24.59,310.00,3.00,0.00,30.16,M,10.00,M,CLR,M,M,M,M,M,M,M,M,M,M,M,M,M,M,69.80,K05U 140635Z AUTO 31003KT 10SM CLR 21/00 A3016 RMK A01,M
RTS,2022-07-14 06:35,-119.8764,39.6682,1539.00,68.00,35.60,30.20,180.00,4.00,0.00,30.16,M,10.00,M,CLR,M,M,M,M,M,M,M,M,M,M,M,M,M,M,68.00,KRTS 140635Z AUTO 18004KT 10SM CLR 20/02 A3016 RMK AO2,M
CXP,2022-07-14 06:35,-119.7326,39.1923,1431.00,75.20,28.40,17.70,300.00,9.00,0.00,30.12,M,10.00,M,CLR,M,M,M,M,M,M,M,M,M,M,M,M,M,M,75.20,KCXP 140635Z AUTO 30009KT 10SM CLR 24/M02 A3012 RMK AO2,M
BVU,2022-07-14 06:35,-114.8611,35.9475,671.00,93.20,48.20,21.54,0.00,0.00,0.00,29.87,M,10.00,M,CLR,M,M,M,M,M,M,M,M,M,M,M,M,M,M,89.80,KBVU 140635Z AUTO 00000KT 10SM CLR 34/09 A2987 RMK AO2,M
HTH,2022-07-14 06:35,-118.6315,38.5448,1282.89,84.20,32.00,15.25,330.00,12.00,0.00,30.06,M,10.00,M,FEW,FEW,M,M,6000.00,7000.00,M,M,M,M,M,M,M,M,M,81.28,KHTH 140635Z AUTO 33012KT 10SM FEW060 FEW070 29/00 A3006 RMK A01,M
BAM,2022-07-14 06:35,-116.8743,40.5990,1382.36,M,M,M,0.00,0.00,0.00,30.04,M,10.00,M,CLR,M,M,M,M,M,M,M,M,M,M,M,M,M,M,M,KBAM 140635Z AUTO 00000KT 10SM CLR A3004 RMK AO1,M
MEV,2022-07-14 06:35,-119.7500,38.9963,1441.42,59.00,35.60,41.42,110.00,9.00,0.00,30.10,M,10.00,M,OVC,M,M,M,4700.00,M,M,M,M,M,M,M,M,M,M,59.00,KMEV 140635Z AUTO 11009KT 10SM OVC047 15/02 A3010 RMK AO2,M
ELY,2022-07-14 06:53,-114.8453,39.2950,1909.00,72.00,41.00,32.56,220.00,9.00,0.00,30.19,1009.50,10.00,M,CLR,M,M,M,M,M,M,M,M,M,M,M,M,M,M,72.00,KELY 140653Z AUTO 22009KT 10SM CLR 22/05 A3019 RMK AO2 SLP095 T02220050,M
LOL,2022-07-14 06:53,-118.5701,40.0684,1192.43,78.00,26.10,14.62,30.00,5.00,0.00,30.03,1011.60,10.00,M,CLR,M,M,M,M,M,M,M,M,M,M,M,M,M,M,78.10,KLOL 140653Z AUTO 03005KT 10SM CLR 26/M03 A3003 RMK AO2 SLP116 T02561033,M
DRA,2022-07-14 06:53,-116.0278,36.6206,1009.00,87.00,39.00,18.35,10.00,4.00,0.00,29.94,1007.60,10.00,M,CLR,M,M,M,M,M,M,M,M,M,M,M,M,M,M,83.65,KDRA 140653Z AUTO 01004KT 10SM CLR 31/04 A2994 RMK AO2 SLP076 T03060039,M
VGT,2022-07-14 06:53,-115.1933,36.2111,667.00,100.00,48.00,17.36,200.00,8.00,0.00,29.85,1008.80,10.00,M,CLR,M,M,M,M,M,M,M,M,M,M,M,M,M,M,96.55,KVGT 140653Z AUTO 20008KT 10SM CLR 38/09 A2985 RMK AO2 SLP088 T03780089,M
P68,2022-07-14 06:53,-116.0056,39.6014,1993.00,73.00,30.90,21.10,320.00,7.00,0.00,30.14,1009.90,M,M,M,M,M,M,M,M,M,M,M,M,M,M,M,M,M,73.00,KP68 140653Z AUTO 32007KT 23/M01 A3014 RMK AO1 SLP099 T02281006,M
BAM,2022-07-14 06:55,-116.8743,40.5990,1382.36,M,M,M,0.00,0.00,0.00,30.05,M,10.00,M,CLR,M,M,M,M,M,M,M,M,M,M,M,M,M,M,M,KBAM 140655Z AUTO 00000KT 10SM CLR A3005 RMK AO1,M
RNO,2022-07-14 06:55,-119.7711,39.4839,1341.00,74.00,39.00,28.25,20.00,6.00,0.00,30.10,1012.80,10.00,M,CLR,M,M,M,M,M,M,M,M,M,M,M,M,M,M,73.90,KRNO 140655Z 02006KT 10SM CLR 23/04 A3010 RMK AO2 SLP128 T02330039,M
BVU,2022-07-14 06:55,-114.8611,35.9475,671.00,91.40,51.80,26.05,0.00,0.00,0.00,29.88,M,10.00,M,CLR,M,M,M,M,M,M,M,M,M,M,M,M,M,M,88.69,KBVU 140655Z AUTO 00000KT 10SM CLR 33/11 A2988 RMK AO2,M
CXP,2022-07-14 06:55,-119.7326,39.1923,1431.00,73.40,32.00,21.76,0.00,0.00,0.00,30.12,M,10.00,10.00,FEW,FEW,M,M,4100.00,5000.00,M,M,M,M,M,M,M,M,M,73.40,KCXP 140655Z AUTO 00000G10KT 10SM FEW041 FEW050 23/M00 A3012 RMK AO2,M
HTH,2022-07-14 06:55,-118.6315,38.5448,1282.89,82.40,33.80,17.38,320.00,10.00,0.00,30.07,M,10.00,M,FEW,FEW,M,M,7000.00,8000.00,M,M,M,M,M,M,M,M,M,80.03,KHTH 140655Z AUTO 32010KT 10SM FEW070 FEW080 28/01 A3007 RMK A01,M
MEV,2022-07-14 06:55,-119.7500,38.9963,1441.42,60.80,39.20,44.76,110.00,8.00,0.00,30.11,M,10.00,M,OVC,M,M,M,4800.00,M,M,M,M,M,M,M,M,M,M,60.80,KMEV 140655Z AUTO 11008KT 10SM OVC048 16/04 A3011 RMK AO2,M
05U,2022-07-14 06:55,-116.0051,39.6042,1811.23,71.60,30.20,21.50,320.00,7.00,0.00,30.17,M,10.00,M,CLR,M,M,M,M,M,M,M,M,M,M,M,M,M,M,71.60,K05U 140655Z AUTO 32007KT 10SM CLR 22/M01 A3017 RMK A01,M
RTS,2022-07-14 06:55,-119.8764,39.6682,1539.00,68.00,37.40,32.43,0.00,0.00,0.00,30.16,M,10.00,M,CLR,M,M,M,M,M,M,M,M,M,M,M,M,M,M,68.00,KRTS 140655Z AUTO 00000KT 10SM CLR 20/03 A3016 RMK AO2,M
HND,2022-07-14 06:56,-115.1344,35.9729,742.79,96.00,50.00,21.07,180.00,12.00,0.00,29.91,1010.30,10.00,M,CLR,M,M,M,M,M,M,M,M,M,M,M,M,M,M,93.00,KHND 140656Z AUTO 18012KT 10SM CLR 36/10 A2991 RMK AO2 SLP103 T03560100 404280317,M
WMC,2022-07-14 06:56,-117.8072,40.9019,1315.00,74.00,24.10,15.47,290.00,8.00,0.00,30.03,1010.80,8.00,M,CLR,M,M,M,M,M,M,M,M,M,M,M,M,M,M,73.90,KWMC 140656Z AUTO 29008KT 8SM CLR 23/M04 A3003 RMK AO2 SLP108 T02331044,M
NFL,2022-07-14 06:56,-118.7010,39.4166,1199.00,73.00,28.90,19.45,310.00,6.00,0.00,30.04,1014.20,10.00,M,FEW,M,M,M,8000.00,M,M,M,M,M,M,M,M,M,M,73.00,KNFL 140656Z 31006KT 10SM FEW080 23/M02 A3004 RMK AO2 SLP142 T02281017,M
TPH,2022-07-14 06:56,-117.0904,38.0505,1654.00,76.00,34.00,21.69,360.00,10.00,0.00,30.13,1010.20,10.00,M,CLR,M,M,M,M,M,M,M,M,M,M,M,M,M,M,75.90,KTPH 140656Z AUTO 36010KT 10SM CLR 24/01 A3013 RMK AO2 SLP102 T02440011,M
LAS,2022-07-14 06:56,-115.1634,36.0719,663.00,98.00,48.00,18.39,200.00,9.00,0.00,29.86,1007.60,10.00,M,FEW,M,M,M,15000.00,M,M,M,M,M,M,M,M,M,M,94.63,KLAS 140656Z 20009KT 10SM FEW150 37/09 A2986 RMK AO2 SLP076 T03670089,M
EKO,2022-07-14 06:56,-115.7860,40.8242,1367.00,78.00,33.00,19.45,M,3.00,0.00,30.06,1010.30,10.00,M,CLR,M,M,M,M,M,M,M,M,M,M,M,M,M,M,78.10,KEKO 140656Z AUTO VRB03KT 10SM CLR 26/01 A3006 RMK AO2 SLP103 T02560006,M
LSV,2022-07-14 06:58,-115.0343,36.2362,570.00,99.50,48.40,17.89,190.00,9.00,0.00,29.82,1006.40,10.00,M,CLR,M,M,M,M,M,M,M,M,M,M,M,M,M,M,96.13,KLSV 140658Z AUTO 19009KT 10SM CLR 38/09 A2982 RMK AO2 SLP064 T03750091 $,M
INS,2022-07-14 06:58,-115.6733,36.5872,955.00,88.50,41.00,18.97,120.00,3.00,0.00,29.92,1007.10,10.00,M,CLR,M,M,M,M,M,M,M,M,M,M,M,M,M,M,84.88,KINS 140658Z AUTO 12003KT 10SM CLR 31/05 A2992 RMK AO2 SLP071 T03140050 $,M
MEV,2022-07-14 07:15,-119.7500,38.9963,1441.42,57.20,39.20,50.91,90.00,8.00,0.00,30.11,M,10.00,M,OVC,M,M,M,4600.00,M,M,M,M,M,M,M,M,M,M,57.20,KMEV 140715Z AUTO 09008KT 10SM OVC046 14/04 A3011 RMK AO2,M
CXP,2022-07-14 07:15,-119.7326,39.1923,1431.00,71.60,32.00,23.13,0.00,0.00,0.00,30.13,M,10.00,M,CLR,M,M,M,M,M,M,M,M,M,M,M,M,M,M,71.60,KCXP 140715Z AUTO 00000KT 10SM CLR 22/00 A3013 RMK AO2,M
BVU,2022-07-14 07:15,-114.8611,35.9475,671.00,89.60,50.00,25.79,340.00,4.00,0.00,29.88,M,10.00,M,CLR,M,M,M,M,M,M,M,M,M,M,M,M,M,M,86.70,KBVU 140715Z AUTO 34004KT 10SM CLR 32/10 A2988 RMK AO2,M
BAM,2022-07-14 07:15,-116.8743,40.5990,1382.36,M,M,M,20.00,3.00,0.00,30.05,M,10.00,M,CLR,M,M,M,M,M,M,M,M,M,M,M,M,M,M,M,KBAM 140715Z AUTO 02003KT 10SM CLR A3005 RMK AO1,M
HTH,2022-07-14 07:15,-118.6315,38.5448,1282.89,80.60,32.00,17.14,320.00,9.00,0.00,30.07,M,10.00,M,SCT,M,M,M,7000.00,M,M,M,M,M,M,M,M,M,M,78.82,KHTH 140715Z AUTO 32009KT 10SM SCT070 27/00 A3007 RMK A01,M
RTS,2022-07-14 07:15,-119.8764,39.6682,1539.00,66.20,35.60,32.14,0.00,0.00,0.00,30.17,M,10.00,M,CLR,M,M,M,M,M,M,M,M,M,M,M,M,M,M,66.20,KRTS 140715Z AUTO 00000KT 10SM CLR 19/02 A3017 RMK AO2,M
05U,2022-07-14 07:15,-116.0051,39.6042,1811.23,71.60,30.20,21.50,0.00,0.00,0.00,30.18,M,10.00,M,CLR,M,M,M,M,M,M,M,M,M,M,M,M,M,M,71.60,K05U 140715Z AUTO 00000KT 10SM CLR 22/M01 A3018 RMK A01,M
HTH,2022-07-14 07:35,-118.6315,38.5448,1282.89,78.80,30.20,16.90,320.00,10.00,0.00,30.08,M,10.00,M,SCT,M,M,M,7000.00,M,M,M,M,M,M,M,M,M,M,78.80,KHTH 140735Z AUTO 32010KT 10SM SCT070 26/M01 A3008 RMK A01,M
MEV,2022-07-14 07:35,-119.7500,38.9963,1441.42,59.00,35.60,41.42,0.00,0.00,0.00,30.12,M,10.00,M,OVC,M,M,M,4100.00,M,M,M,M,M,M,M,M,M,M,59.00,KMEV 140735Z AUTO 00000KT 10SM OVC041 15/02 A3012 RMK AO2,M
05U,2022-07-14 07:35,-116.0051,39.6042,1811.23,69.80,32.00,24.59,0.00,0.00,0.00,30.18,M,10.00,M,CLR,M,M,M,M,M,M,M,M,M,M,M,M,M,M,69.80,K05U 140735Z AUTO 00000KT 10SM CLR 21/M00 A3018 RMK A01,M
RTS,2022-07-14 07:35,-119.8764,39.6682,1539.00,64.40,35.60,34.22,0.00,0.00,0.00,30.17,M,10.00,M,CLR,M,M,M,M,M,M,M,M,M,M,M,M,M,M,64.40,KRTS 140735Z AUTO 00000KT 10SM CLR 18/02 A3017 RMK AO2,M
CXP,2022-07-14 07:35,-119.7326,39.1923,1431.00,73.40,32.00,21.76,M,4.00,0.00,30.13,M,10.00,M,FEW,M,M,M,5500.00,M,M,M,M,M,M,M,M,M,M,73.40,KCXP 140735Z AUTO VRB04KT 10SM FEW055 23/M00 A3013 RMK AO2,M
BAM,2022-07-14 07:35,-116.8743,40.5990,1382.36,M,M,M,0.00,0.00,0.00,30.06,M,10.00,M,CLR,M,M,M,M,M,M,M,M,M,M,M,M,M,M,M,KBAM 140735Z AUTO 00000KT 10SM CLR A3006 RMK AO1,M
BVU,2022-07-14 07:35,-114.8611,35.9475,671.00,89.60,48.20,24.11,330.00,3.00,0.00,29.88,M,10.00,M,CLR,M,M,M,M,M,M,M,M,M,M,M,M,M,M,86.44,KBVU 140735Z AUTO 33003KT 10SM CLR 32/09 A2988 RMK AO2,M
05U,2022-07-14 07:50,-116.0051,39.6042,1811.23,68.00,32.00,26.15,0.00,0.00,0.00,30.18,M,10.00,M,CLR,M,M,M,M,M,M,M,M,M,M,M,M,M,M,68.00,K05U 140750Z AUTO 00000KT 10SM CLR 20/M00 A3018 RMK A01,M
LOL,2022-07-14 07:53,-118.5701,40.0684,1192.43,74.00,25.00,16.06,360.00,4.00,0.00,30.04,1012.00,10.00,M,CLR,M,M,M,M,M,M,M,M,M,M,M,M,M,M,73.90,KLOL 140753Z AUTO 36004KT 10SM CLR 23/M04 A3004 RMK AO2 SLP120 T02331039 403890200,M
DRA,2022-07-14 07:53,-116.0278,36.6206,1009.00,84.00,37.00,18.74,20.00,4.00,0.00,29.95,1008.00,10.00,M,CLR,M,M,M,M,M,M,M,M,M,M,M,M,M,M,81.23,KDRA 140753Z AUTO 02004KT 10SM CLR 29/03 A2995 RMK AO2 SLP080 T02890028 404110283,M
P68,2022-07-14 07:53,-116.0056,39.6014,1993.00,66.00,30.90,26.81,180.00,3.00,0.00,30.16,1011.20,M,M,M,M,M,M,M,M,M,M,M,M,M,M,M,M,M,66.00,KP68 140753Z AUTO 18003KT 19/M01 A3016 RMK AO1 SLP112 T01891006 403670139,M
ELY,2022-07-14 07:53,-114.8453,39.2950,1909.00,73.00,40.00,30.16,200.00,11.00,0.00,30.20,1009.70,10.00,M,CLR,M,M,M,M,M,M,M,M,M,M,M,M,M,M,73.00,KELY 140753Z AUTO 20011KT 10SM CLR 23/04 A3020 RMK AO2 SLP097 T02280044 403440178,M
VGT,2022-07-14 07:53,-115.1933,36.2111,667.00,98.00,48.00,18.39,190.00,7.00,0.00,29.86,1009.10,10.00,M,CLR,M,M,M,M,M,M,M,M,M,M,M,M,M,M,94.63,KVGT 140753Z AUTO 19007KT 10SM CLR 37/09 A2986 RMK AO2 SLP091 T03670089 404390322,M
RNO,2022-07-14 07:55,-119.7711,39.4839,1341.00,72.00,40.00,31.20,340.00,9.00,0.00,30.11,1013.10,10.00,M,CLR,M,M,M,M,M,M,M,M,M,M,M,M,M,M,72.00,KRNO 140755Z 34009KT 10SM CLR 22/04 A3011 RMK AO2 SLP131 T02220044 403720183,M
BVU,2022-07-14 07:55,-114.8611,35.9475,671.00,89.60,48.20,24.11,0.00,0.00,0.00,29.88,M,10.00,M,CLR,M,M,M,M,M,M,M,M,M,M,M,M,M,M,86.44,KBVU 140755Z AUTO 00000KT 10SM CLR 32/09 A2988 RMK AO2,M
CXP,2022-07-14 07:55,-119.7326,39.1923,1431.00,71.60,32.00,23.13,320.00,8.00,0.00,30.13,M,10.00,M,SCT,M,M,M,5000.00,M,M,M,M,M,M,M,M,M,M,71.60,KCXP 140755Z AUTO 32008KT 10SM SCT050 22/00 A3013 RMK AO2,M
MEV,2022-07-14 07:55,-119.7500,38.9963,1441.42,55.40,35.60,47.16,20.00,3.00,0.00,30.12,M,10.00,M,BKN,OVC,M,M,3200.00,3900.00,M,M,M,M,M,M,M,M,M,55.40,KMEV 140755Z AUTO 02003KT 10SM BKN032 OVC039 13/02 A3012 RMK AO2,M
BAM,2022-07-14 07:55,-116.8743,40.5990,1382.36,M,M,M,150.00,6.00,0.00,30.06,M,10.00,M,CLR,M,M,M,M,M,M,M,M,M,M,M,M,M,M,M,KBAM 140755Z AUTO 15006KT 10SM CLR A3006 RMK AO1,M
HTH,2022-07-14 07:55,-118.6315,38.5448,1282.89,78.80,28.40,15.71,320.00,8.00,0.00,30.08,M,10.00,M,SCT,SCT,M,M,6500.00,7500.00,M,M,M,M,M,M,M,M,M,78.80,KHTH 140755Z AUTO 32008KT 10SM SCT065 SCT075 26/M02 A3008 RMK A01,M
RTS,2022-07-14 07:55,-119.8764,39.6682,1539.00,62.60,33.80,33.93,270.00,4.00,0.00,30.17,M,10.00,M,CLR,M,M,M,M,M,M,M,M,M,M,M,M,M,M,62.60,KRTS 140755Z AUTO 27004KT 10SM CLR 17/01 A3017 RMK AO2,M
TPH,2022-07-14 07:56,-117.0904,38.0505,1654.00,70.00,33.00,25.53,0.00,0.00,0.00,30.13,1010.60,10.00,M,CLR,M,M,M,M,M,M,M,M,M,M,M,M,M,M,70.00,KTPH 140756Z AUTO 00000KT 10SM CLR 21/01 A3013 RMK AO2 SLP106 T02110006 403670156,M
HND,2022-07-14 07:56,-115.1344,35.9729,742.79,95.00,51.00,22.70,230.00,13.00,0.00,29.92,1010.60,10.00,17.00,CLR,M,M,M,M,M,M,M,M,M,M,M,M,M,M,92.11,KHND 140756Z AUTO 23013G17KT 10SM CLR 35/11 A2992 RMK AO2 SLP106 T03500106,M
LAS,2022-07-14 07:56,-115.1634,36.0719,663.00,97.00,50.00,20.49,200.00,9.00,0.00,29.86,1007.60,10.00,M,SCT,M,M,M,15000.00,M,M,M,M,M,M,M,M,M,M,93.91,KLAS 140756Z 20009KT 10SM SCT150 36/10 A2986 RMK AO2 SLP076 T03610100 404280328,M
NFL,2022-07-14 07:56,-118.7010,39.4166,1199.00,71.00,28.90,20.74,360.00,6.00,0.00,30.05,1014.40,10.00,M,CLR,M,M,M,M,M,M,M,M,M,M,M,M,M,M,71.10,KNFL 140756Z AUTO 36006KT 10SM CLR 22/M02 A3005 RMK AO2 SLP144 T02171017 403890178,M
EKO,2022-07-14 07:56,-115.7860,40.8242,1367.00,76.00,34.00,21.69,0.00,0.00,0.00,30.07,1010.50,10.00,M,CLR,M,M,M,M,M,M,M,M,M,M,M,M,M,M,75.90,KEKO 140756Z AUTO 00000KT 10SM CLR 24/01 A3007 RMK AO2 SLP105 T02440011 403830189,M
LSV,2022-07-14 07:58,-115.0343,36.2362,570.00,98.60,49.00,18.88,210.00,8.00,0.00,29.83,1006.80,10.00,M,CLR,M,M,M,M,M,M,M,M,M,M,M,M,M,M,95.36,KLSV 140758Z AUTO 21008KT 10SM CLR 37/10 A2983 RMK AO2 SLP068 T03700095 404530324 $,M
INS,2022-07-14 07:58,-115.6733,36.5872,955.00,86.50,40.60,19.91,150.00,3.00,0.00,29.93,1007.70,10.00,M,CLR,M,M,M,M,M,M,M,M,M,M,M,M,M,M,83.23,KINS 140758Z AUTO 15003KT 10SM CLR 30/05 A2993 RMK AO2 SLP077 T03030048 404010269 $,M
BAM,2022-07-14 08:15,-116.8743,40.5990,1382.36,M,M,M,360.00,5.00,0.00,30.06,M,10.00,M,CLR,M,M,M,M,M,M,M,M,M,M,M,M,M,M,M,KBAM 140815Z AUTO 36005KT 10SM CLR A3006 RMK AO1,M
MEV,2022-07-14 08:15,-119.7500,38.9963,1441.42,53.60,35.60,50.36,140.00,5.00,0.00,30.12,M,10.00,M,BKN,OVC,M,M,3100.00,3800.00,M,M,M,M,M,M,M,M,M,53.60,KMEV 140815Z AUTO 14005KT 10SM BKN031 OVC038 12/02 A3012 RMK AO2,M
05U,2022-07-14 08:15,-116.0051,39.6042,1811.23,66.20,32.00,27.83,0.00,0.00,0.00,30.19,M,10.00,M,CLR,M,M,M,M,M,M,M,M,M,M,M,M,M,M,66.20,K05U 140815Z AUTO 00000KT 10SM CLR 19/00 A3019 RMK A01,M
RTS,2022-07-14 08:15,-119.8764,39.6682,1539.00,59.00,33.80,38.56,290.00,4.00,0.00,30.17,M,10.00,M,CLR,M,M,M,M,M,M,M,M,M,M,M,M,M,M,59.00,KRTS 140815Z AUTO 29004KT 10SM CLR 15/01 A3017 RMK AO2,M
HTH,2022-07-14 08:15,-118.6315,38.5448,1282.89,M,M,M,M,M,0.00,30.07,M,10.00,M,M,M,M,M,M,M,M,M,M,M,M,M,M,M,M,M,KHTH 140815Z AUTO 10SM A3007 RMK A01,M
BVU,2022-07-14 08:15,-114.8611,35.9475,671.00,89.60,48.20,24.11,290.00,4.00,0.00,29.88,M,10.00,M,CLR,M,M,M,M,M,M,M,M,M,M,M,M,M,M,86.44,KBVU 140815Z AUTO 29004KT 10SM CLR 32/09 A2988 RMK AO2,M
CXP,2022-07-14 08:15,-119.7326,39.1923,1431.00,69.80,33.80,26.43,330.00,7.00,0.00,30.13,M,10.00,M,BKN,OVC,M,M,5000.00,5500.00,M,M,M,M,M,M,M,M,M,69.80,KCXP 140815Z AUTO 33007KT 10SM BKN050 OVC055 21/01 A3013 RMK AO2,M
CXP,2022-07-14 08:35,-119.7326,39.1923,1431.00,69.80,33.80,26.43,M,5.00,0.00,30.14,M,10.00,14.00,FEW,BKN,OVC,M,4300.00,5000.00,5500.00,M,M,M,M,M,M,M,M,69.80,KCXP 140835Z AUTO VRB05G14KT 10SM FEW043 BKN050 OVC055 21/01 A3014 RMK AO2,M
HTH,2022-07-14 08:35,-118.6315,38.5448,1282.89,M,M,M,M,M,0.00,30.08,M,10.00,M,M,M,M,M,M,M,M,M,M,M,M,M,M,M,M,M,KHTH 140835Z AUTO 10SM A3008 RMK A01,M
BAM,2022-07-14 08:35,-116.8743,40.5990,1382.36,M,M,M,160.00,5.00,0.00,30.07,M,10.00,M,CLR,M,M,M,M,M,M,M,M,M,M,M,M,M,M,M,KBAM 140835Z AUTO 16005KT 10SM CLR A3007 RMK AO1,M
MEV,2022-07-14 08:35,-119.7500,38.9963,1441.42,51.80,37.40,57.77,100.00,3.00,0.00,30.12,M,10.00,M,BKN,OVC,M,M,3700.00,4200.00,M,M,M,M,M,M,M,M,M,51.80,KMEV 140835Z AUTO 10003KT 10SM BKN037 OVC042 11/03 A3012 RMK AO2,M
05U,2022-07-14 08:35,-116.0051,39.6042,1811.23,60.80,33.80,36.16,0.00,0.00,0.00,30.19,M,10.00,M,CLR,M,M,M,M,M,M,M,M,M,M,M,M,M,M,60.80,K05U 140835Z AUTO 00000KT 10SM CLR 16/01 A3019 RMK A01,M
RTS,2022-07-14 08:35,-119.8764,39.6682,1539.00,60.80,35.60,38.85,280.00,9.00,0.00,30.17,M,10.00,M,CLR,M,M,M,M,M,M,M,M,M,M,M,M,M,M,60.80,KRTS 140835Z AUTO 28009KT 10SM CLR 16/02 A3017 RMK AO2,M
BVU,2022-07-14 08:35,-114.8611,35.9475,671.00,87.80,50.00,27.29,320.00,3.00,0.00,29.88,M,10.00,M,CLR,M,M,M,M,M,M,M,M,M,M,M,M,M,M,85.11,KBVU 140835Z AUTO 32003KT 10SM CLR 31/10 A2988 RMK AO2,M
DRA,2022-07-14 08:53,-116.0278,36.6206,1009.00,87.00,38.00,17.58,40.00,3.00,0.00,29.96,1008.30,10.00,M,CLR,M,M,M,M,M,M,M,M,M,M,M,M,M,M,83.61,KDRA 140853Z AUTO 04003KT 10SM CLR 31/03 A2996 RMK AO2 SLP083 T03060033 53009,M
VGT,2022-07-14 08:53,-115.1933,36.2111,667.00,96.00,47.00,18.76,160.00,7.00,0.00,29.86,1009.30,10.00,M,CLR,M,M,M,M,M,M,M,M,M,M,M,M,M,M,92.44,KVGT 140853Z AUTO 16007KT 10SM CLR 36/08 A2986 RMK AO2 SLP093 T03560083 51007,M
P68,2022-07-14 08:53,-116.0056,39.6014,1993.00,64.00,30.90,28.74,210.00,6.00,0.00,30.17,1011.50,M,M,M,M,M,M,M,M,M,M,M,M,M,M,M,M,M,64.00,KP68 140853Z AUTO 21006KT 18/M01 A3017 RMK AO1 SLP115 T01781006 51015,M
ELY,2022-07-14 08:53,-114.8453,39.2950,1909.00,71.00,40.00,32.16,200.00,12.00,0.00,30.21,1010.00,10.00,M,CLR,M,M,M,M,M,M,M,M,M,M,M,M,M,M,71.10,KELY 140853Z AUTO 20012KT 10SM CLR 22/04 A3021 RMK AO2 SLP100 T02170044 51009,M
LOL,2022-07-14 08:53,-118.5701,40.0684,1192.43,64.00,27.00,24.51,0.00,0.00,0.00,30.05,1012.70,10.00,M,CLR,M,M,M,M,M,M,M,M,M,M,M,M,M,M,64.00,KLOL 140853Z AUTO 00000KT 10SM CLR 18/M03 A3005 RMK AO2 SLP127 T01781028 51009,M
BAM,2022-07-14 08:55,-116.8743,40.5990,1382.36,M,M,M,20.00,6.00,0.00,30.06,M,10.00,M,CLR,M,M,M,M,M,M,M,M,M,M,M,M,M,M,M,KBAM 140855Z AUTO 02006KT 10SM CLR A3006 RMK AO1,M
05U,2022-07-14 08:55,-116.0051,39.6042,1811.23,62.60,30.20,29.35,0.00,0.00,0.00,30.19,M,10.00,M,CLR,M,M,M,M,M,M,M,M,M,M,M,M,M,M,62.60,K05U 140855Z AUTO 00000KT 10SM CLR 17/M01 A3019 RMK A01,M
RTS,2022-07-14 08:55,-119.8764,39.6682,1539.00,60.80,35.60,38.85,280.00,9.00,0.00,30.17,M,10.00,M,CLR,M,M,M,M,M,M,M,M,M,M,M,M,M,M,60.80,KRTS 140855Z AUTO 28009KT 10SM CLR 16/02 A3017 RMK AO2,M
RNO,2022-07-14 08:55,-119.7711,39.4839,1341.00,71.00,38.00,29.74,260.00,3.00,0.00,30.12,1013.30,10.00,M,CLR,M,M,M,M,M,M,M,M,M,M,M,M,M,M,71.10,KRNO 140855Z 26003KT 10SM CLR 22/03 A3012 RMK AO2 SLP133 T02170033 51009,M
CXP,2022-07-14 08:55,-119.7326,39.1923,1431.00,69.80,33.80,26.43,340.00,5.00,0.00,30.14,M,10.00,12.00,OVC,M,M,M,4700.00,M,M,M,M,M,M,M,M,M,M,69.80,KCXP 140855Z AUTO 34005G12KT 10SM OVC047 21/01 A3014 RMK AO2,M
BVU,2022-07-14 08:55,-114.8611,35.9475,671.00,87.80,51.80,29.18,330.00,4.00,0.00,29.88,M,10.00,M,CLR,M,M,M,M,M,M,M,M,M,M,M,M,M,M,85.39,KBVU 140855Z AUTO 33004KT 10SM CLR 31/11 A2988 RMK AO2,M
HTH,2022-07-14 08:55,-118.6315,38.5448,1282.89,78.80,30.20,16.90,340.00,9.00,0.00,30.08,M,10.00,M,M,M,M,M,M,M,M,M,M,M,M,M,M,M,M,78.80,KHTH 140855Z AUTO 34009KT 10SM 26/M01 A3008 RMK A01,M
MEV,2022-07-14 08:55,-119.7500,38.9963,1441.42,51.80,35.60,53.81,120.00,6.00,0.00,30.12,M,10.00,M,OVC,M,M,M,4100.00,M,M,M,M,M,M,M,M,M,M,51.80,KMEV 140855Z AUTO 12006KT 10SM OVC041 11/02 A3012 RMK AO2,M
NFL,2022-07-14 08:56,-118.7010,39.4166,1199.00,70.00,28.90,21.53,0.00,0.00,0.00,30.05,1014.60,10.00,M,CLR,M,M,M,M,M,M,M,M,M,M,M,M,M,M,70.00,KNFL 140856Z AUTO 00000KT 10SM CLR 21/M02 A3005 RMK AO2 SLP146 T02111017 51007,M
HND,2022-07-14 08:56,-115.1344,35.9729,742.79,95.00,45.00,18.06,200.00,10.00,0.00,29.92,1010.70,10.00,M,CLR,M,M,M,M,M,M,M,M,M,M,M,M,M,M,91.10,KHND 140856Z AUTO 20010KT 10SM CLR 35/07 A2992 RMK AO2 SLP107 T03500072 51007,M
TPH,2022-07-14 08:56,-117.0904,38.0505,1654.00,69.00,32.00,25.18,70.00,3.00,0.00,30.14,1010.90,10.00,M,CLR,M,M,M,M,M,M,M,M,M,M,M,M,M,M,69.10,KTPH 140856Z AUTO 07003KT 10SM CLR 21/00 A3014 RMK AO2 SLP109 T02060000 51007,M
LAS,2022-07-14 08:56,-115.1634,36.0719,663.00,96.00,45.00,17.46,190.00,5.00,0.00,29.87,1007.80,10.00,M,FEW,BKN,M,M,15000.00,21000.00,M,M,M,M,M,M,M,M,M,92.17,KLAS 140856Z 19005KT 10SM FEW150 BKN210 36/07 A2987 RMK AO2 SLP078 T03560072 51004,M
EKO,2022-07-14 08:56,-115.7860,40.8242,1367.00,70.00,32.00,24.42,270.00,4.00,0.00,30.08,1011.20,10.00,M,CLR,M,M,M,M,M,M,M,M,M,M,M,M,M,M,70.00,KEKO 140856Z AUTO 27004KT 10SM CLR 21/00 A3008 RMK AO2 SLP112 T02110000 51011,M
WMC,2022-07-14 08:56,-117.8072,40.9019,1315.00,71.00,30.00,21.69,290.00,4.00,0.00,30.06,1011.50,10.00,M,CLR,M,M,M,M,M,M,M,M,M,M,M,M,M,M,71.10,KWMC 140856Z AUTO 29004KT 10SM CLR 22/M01 A3006 RMK AO2 SLP115 T02171011 52010 TSNO,M
INS,2022-07-14 08:58,-115.6733,36.5872,955.00,83.30,40.50,21.97,300.00,5.00,0.00,29.94,1008.10,10.00,M,CLR,M,M,M,M,M,M,M,M,M,M,M,M,M,M,80.86,KINS 140858Z AUTO 30005KT 10SM CLR 29/05 A2994 RMK AO2 SLP081 T02850047 52009 $,M
LSV,2022-07-14 08:58,-115.0343,36.2362,570.00,96.00,49.80,20.91,190.00,6.00,0.00,29.84,1007.10,10.00,M,FEW,M,M,M,21000.00,M,M,M,M,M,M,M,M,M,M,92.96,KLSV 140858Z AUTO 19006KT 10SM FEW210 36/10 A2984 RMK AO2 SLP071 T03560099 52009 $,M
CXP,2022-07-14 09:15,-119.7326,39.1923,1431.00,66.20,33.80,29.92,0.00,0.00,0.00,30.14,M,10.00,M,OVC,M,M,M,4800.00,M,M,M,M,M,M,M,M,M,M,66.20,KCXP 140915Z AUTO 00000KT 10SM OVC048 19/01 A3014 RMK AO2,M
RTS,2022-07-14 09:15,-119.8764,39.6682,1539.00,62.60,37.40,39.14,350.00,3.00,0.00,30.17,M,10.00,M,CLR,M,M,M,M,M,M,M,M,M,M,M,M,M,M,62.60,KRTS 140915Z AUTO 35003KT 10SM CLR 17/03 A3017 RMK AO2,M
05U,2022-07-14 09:15,-116.0051,39.6042,1811.23,60.80,32.00,33.64,0.00,0.00,0.00,30.19,M,10.00,M,CLR,M,M,M,M,M,M,M,M,M,M,M,M,M,M,60.80,K05U 140915Z AUTO 00000KT 10SM CLR 16/00 A3019 RMK A01,M
MEV,2022-07-14 09:15,-119.7500,38.9963,1441.42,51.80,37.40,57.77,210.00,6.00,0.00,30.13,M,10.00,M,OVC,M,M,M,4200.00,M,M,M,M,M,M,M,M,M,M,51.80,KMEV 140915Z AUTO 21006KT 10SM OVC042 11/03 A3013 RMK AO2,M
BAM,2022-07-14 09:15,-116.8743,40.5990,1382.36,M,M,M,250.00,3.00,0.00,30.07,M,10.00,M,CLR,M,M,M,M,M,M,M,M,M,M,M,M,M,M,M,KBAM 140915Z AUTO 25003KT 10SM CLR A3007 RMK AO1,M
HTH,2022-07-14 09:15,-118.6315,38.5448,1282.89,75.20,33.80,22.02,320.00,9.00,0.00,30.08,M,10.00,M,M,M,M,M,M,M,M,M,M,M,M,M,M,M,M,75.20,KHTH 140915Z AUTO 32009KT 10SM 24/01 A3008 RMK A01,M
BVU,2022-07-14 09:15,-114.8611,35.9475,671.00,87.80,51.80,29.18,0.00,0.00,0.00,29.88,M,10.00,M,CLR,M,M,M,M,M,M,M,M,M,M,M,M,M,M,85.39,KBVU 140915Z AUTO 00000KT 10SM CLR 31/11 A2988 RMK AO2,M
MEV,2022-07-14 09:35,-119.7500,38.9963,1441.42,53.60,37.40,54.07,150.00,4.00,0.00,30.13,M,10.00,M,OVC,M,M,M,4000.00,M,M,M,M,M,M,M,M,M,M,53.60,KMEV 140935Z AUTO 15004KT 10SM OVC040 12/03 A3013 RMK AO2,M
05U,2022-07-14 09:35,-116.0051,39.6042,1811.23,59.00,30.20,33.35,0.00,0.00,0.00,30.19,M,10.00,M,CLR,M,M,M,M,M,M,M,M,M,M,M,M,M,M,59.00,K05U 140935Z AUTO 00000KT 10SM CLR 15/M01 A3019 RMK A01,M
BVU,2022-07-14 09:35,-114.8611,35.9475,671.00,86.00,53.60,33.01,50.00,4.00,0.00,29.89,M,10.00,M,CLR,M,M,M,M,M,M,M,M,M,M,M,M,M,M,84.18,KBVU 140935Z AUTO 05004KT 10SM CLR 30/12 A2989 RMK AO2,M
BAM,2022-07-14 09:35,-116.8743,40.5990,1382.36,M,M,M,220.00,3.00,0.00,30.08,M,10.00,M,CLR,M,M,M,M,M,M,M,M,M,M,M,M,M,M,M,KBAM 140935Z AUTO 22003KT 10SM CLR A3008 RMK AO1,M
HTH,2022-07-14 09:35,-118.6315,38.5448,1282.89,75.20,32.00,20.49,320.00,10.00,0.00,30.09,M,10.00,M,FEW,M,M,M,6000.00,M,M,M,M,M,M,M,M,M,M,75.20,KHTH 140935Z AUTO 32010KT 10SM FEW060 24/M00 A3009 RMK A01,M
RTS,2022-07-14 09:35,-119.8764,39.6682,1539.00,59.00,35.60,41.42,320.00,7.00,0.00,30.17,M,10.00,M,CLR,M,M,M,M,M,M,M,M,M,M,M,M,M,M,59.00,KRTS 140935Z AUTO 32007KT 10SM CLR 15/02 A3017 RMK AO2,M
CXP,2022-07-14 09:35,-119.7326,39.1923,1431.00,66.20,33.80,29.92,0.00,0.00,0.00,30.14,M,10.00,M,OVC,M,M,M,4700.00,M,M,M,M,M,M,M,M,M,M,66.20,KCXP 140935Z AUTO 00000KT 10SM OVC047 19/01 A3014 RMK AO2,M
CXP,2022-07-14 09:50,-119.7326,39.1923,1431.00,64.40,33.80,31.85,0.00,0.00,0.00,30.15,M,10.00,M,OVC,M,M,M,4700.00,M,M,M,M,M,M,M,M,M,M,64.40,KCXP 140950Z AUTO 00000KT 10SM OVC047 18/01 A3015 RMK AO2,M
P68,2022-07-14 09:53,-116.0056,39.6014,1993.00,60.00,32.00,34.49,190.00,6.00,0.00,30.17,1011.90,M,M,M,M,M,M,M,M,M,M,M,M,M,M,M,M,M,60.10,KP68 140953Z AUTO 19006KT 16/00 A3017 RMK AO1 SLP119 T01560000,M
ELY,2022-07-14 09:53,-114.8453,39.2950,1909.00,65.00,39.00,38.44,200.00,7.00,0.00,30.21,1010.70,10.00,M,CLR,M,M,M,M,M,M,M,M,M,M,M,M,M,M,64.90,KELY 140953Z AUTO 20007KT 10SM CLR 18/04 A3021 RMK AO2 SLP107 T01830039,M
LOL,2022-07-14 09:53,-118.5701,40.0684,1192.43,62.00,26.10,25.24,0.00,0.00,0.00,30.05,1012.80,10.00,M,CLR,M,M,M,M,M,M,M,M,M,M,M,M,M,M,62.10,KLOL 140953Z AUTO 00000KT 10SM CLR 17/M03 A3005 RMK AO2 SLP128 T01671033,M
VGT,2022-07-14 09:53,-115.1933,36.2111,667.00,96.00,43.00,16.17,200.00,6.00,0.00,29.87,1009.30,10.00,M,CLR,M,M,M,M,M,M,M,M,M,M,M,M,M,M,91.93,KVGT 140953Z AUTO 20006KT 10SM CLR 36/06 A2987 RMK AO2 SLP093 T03560061,M
DRA,2022-07-14 09:53,-116.0278,36.6206,1009.00,85.00,39.00,19.69,280.00,5.00,0.00,29.96,1008.40,10.00,M,CLR,M,M,M,M,M,M,M,M,M,M,M,M,M,M,81.95,KDRA 140953Z AUTO 28005KT 10SM CLR 29/04 A2996 RMK AO2 SLP084 T02940039,M
BVU,2022-07-14 09:55,-114.8611,35.9475,671.00,86.00,53.60,33.01,50.00,3.00,0.00,29.89,M,10.00,M,CLR,M,M,M,M,M,M,M,M,M,M,M,M,M,M,84.18,KBVU 140955Z AUTO 05003KT 10SM CLR 30/12 A2989 RMK AO2,M
RNO,2022-07-14 09:55,-119.7711,39.4839,1341.00,67.00,36.00,31.87,280.00,4.00,0.00,30.13,1013.70,10.00,M,CLR,M,M,M,M,M,M,M,M,M,M,M,M,M,M,66.90,KRNO 140955Z 28004KT 10SM CLR 19/02 A3013 RMK AO2 SLP137 T01940022,M
RTS,2022-07-14 09:55,-119.8764,39.6682,1539.00,57.20,35.60,44.19,350.00,5.00,0.00,30.17,M,10.00,M,CLR,M,M,M,M,M,M,M,M,M,M,M,M,M,M,57.20,KRTS 140955Z AUTO 35005KT 10SM CLR 14/02 A3017 RMK AO2,M
05U,2022-07-14 09:55,-116.0051,39.6042,1811.23,60.80,32.00,33.64,0.00,0.00,0.00,30.20,M,10.00,M,CLR,M,M,M,M,M,M,M,M,M,M,M,M,M,M,60.80,K05U 140955Z AUTO 00000KT 10SM CLR 16/M00 A3020 RMK A01,M
MEV,2022-07-14 09:55,-119.7500,38.9963,1441.42,51.80,35.60,53.81,140.00,5.00,0.00,30.14,M,10.00,M,OVC,M,M,M,3900.00,M,M,M,M,M,M,M,M,M,M,51.80,KMEV 140955Z AUTO 14005KT 10SM OVC039 11/02 A3014 RMK AO2,M
BAM,2022-07-14 09:55,-116.8743,40.5990,1382.36,M,M,M,310.00,4.00,0.00,30.07,M,10.00,M,CLR,M,M,M,M,M,M,M,M,M,M,M,M,M,M,M,KBAM 140955Z AUTO 31004KT 10SM CLR A3007 RMK AO1,M
HTH,2022-07-14 09:55,-118.6315,38.5448,1282.89,73.40,30.20,20.23,280.00,5.00,0.00,30.09,M,10.00,M,SCT,M,M,M,6000.00,M,M,M,M,M,M,M,M,M,M,73.40,KHTH 140955Z AUTO 28005KT 10SM SCT060 23/M01 A3009 RMK A01,M
HND,2022-07-14 09:56,-115.1344,35.9729,742.79,93.00,45.00,19.21,200.00,9.00,0.00,29.93,1011.10,10.00,M,CLR,M,M,M,M,M,M,M,M,M,M,M,M,M,M,89.20,KHND 140956Z AUTO 20009KT 10SM CLR 34/07 A2993 RMK AO2 SLP111 T03390072,M
TPH,2022-07-14 09:56,-117.0904,38.0505,1654.00,66.00,30.00,25.85,0.00,0.00,0.00,30.15,1011.60,10.00,M,CLR,M,M,M,M,M,M,M,M,M,M,M,M,M,M,66.00,KTPH 140956Z AUTO 00000KT 10SM CLR 19/M01 A3015 RMK AO2 SLP116 T01891011,M
EKO,2022-07-14 09:56,-115.7860,40.8242,1367.00,70.00,32.00,24.42,0.00,0.00,0.00,30.08,1011.40,10.00,M,CLR,M,M,M,M,M,M,M,M,M,M,M,M,M,M,70.00,KEKO 140956Z AUTO 00000KT 10SM CLR 21/00 A3008 RMK AO2 SLP114 T02110000,M
WMC,2022-07-14 09:56,-117.8072,40.9019,1315.00,65.00,30.90,27.85,0.00,0.00,0.00,30.07,1012.20,10.00,M,CLR,M,M,M,M,M,M,M,M,M,M,M,M,M,M,64.90,KWMC 140956Z AUTO 00000KT 10SM CLR 18/M01 A3007 RMK AO2 SLP122 T01831006 TSNO,M
NFL,2022-07-14 09:56,-118.7010,39.4166,1199.00,66.00,34.00,30.37,250.00,4.00,0.00,30.06,1014.80,10.00,M,CLR,M,M,M,M,M,M,M,M,M,M,M,M,M,M,66.00,KNFL 140956Z AUTO 25004KT 10SM CLR 19/01 A3006 RMK AO2 SLP148 T01890011,M
LAS,2022-07-14 09:56,-115.1634,36.0719,663.00,95.00,41.00,15.49,200.00,4.00,0.00,29.88,1008.10,10.00,M,BKN,M,M,M,21000.00,M,M,M,M,M,M,M,M,M,M,90.70,KLAS 140956Z 20004KT 10SM BKN210 35/05 A2988 RMK AO2 SLP081 T03500050,M
INS,2022-07-14 09:58,-115.6733,36.5872,955.00,82.40,38.50,20.93,0.00,0.00,0.00,29.95,1008.40,10.00,M,CLR,M,M,M,M,M,M,M,M,M,M,M,M,M,M,80.18,KINS 140958Z AUTO 00000KT 10SM CLR 28/04 A2995 RMK AO2 SLP084 T02800036 $,M
LSV,2022-07-14 09:58,-115.0343,36.2362,570.00,95.00,47.70,20.00,170.00,9.00,0.00,29.84,1007.10,10.00,M,SCT,M,M,M,21000.00,M,M,M,M,M,M,M,M,M,M,91.48,KLSV 140958Z AUTO 17009KT 10SM SCT210 35/09 A2984 RMK AO2 SLP071 T03500087 $,M
05U,2022-07-14 10:15,-116.0051,39.6042,1811.23,59.00,30.20,33.35,0.00,0.00,0.00,30.19,M,10.00,M,CLR,M,M,M,M,M,M,M,M,M,M,M,M,M,M,59.00,K05U 141015Z AUTO 00000KT 10SM CLR 15/M01 A3019 RMK A01,M
BVU,2022-07-14 10:15,-114.8611,35.9475,671.00,86.00,53.60,33.01,60.00,3.00,0.00,29.90,M,10.00,M,CLR,M,M,M,M,M,M,M,M,M,M,M,M,M,M,84.18,KBVU 141015Z AUTO 06003KT 10SM CLR 30/12 A2990 RMK AO2,M
CXP,2022-07-14 10:15,-119.7326,39.1923,1431.00,66.20,33.80,29.92,340.00,6.00,0.00,30.15,M,10.00,M,BKN,M,M,M,4900.00,M,M,M,M,M,M,M,M,M,M,66.20,KCXP 141015Z AUTO 34006KT 10SM BKN049 19/01 A3015 RMK AO2,M
RTS,2022-07-14 10:15,-119.8764,39.6682,1539.00,57.20,35.60,44.19,10.00,3.00,0.00,30.17,M,10.00,M,CLR,M,M,M,M,M,M,M,M,M,M,M,M,M,M,57.20,KRTS 141015Z AUTO 01003KT 10SM CLR 14/02 A3017 RMK AO2,M
MEV,2022-07-14 10:15,-119.7500,38.9963,1441.42,50.00,37.40,61.76,130.00,7.00,0.00,30.14,M,10.00,M,OVC,M,M,M,4000.00,M,M,M,M,M,M,M,M,M,M,50.00,KMEV 141015Z AUTO 13007KT 10SM OVC040 10/03 A3014 RMK AO2,M
BAM,2022-07-14 10:15,-116.8743,40.5990,1382.36,M,M,M,270.00,3.00,0.00,30.07,M,10.00,M,CLR,M,M,M,M,M,M,M,M,M,M,M,M,M,M,M,KBAM 141015Z AUTO 27003KT 10SM CLR A3007 RMK AO1,M
HTH,2022-07-14 10:15,-118.6315,38.5448,1282.89,75.20,28.40,17.70,250.00,5.00,0.00,30.09,M,10.00,M,BKN,M,M,M,6000.00,M,M,M,M,M,M,M,M,M,M,75.20,KHTH 141015Z AUTO 25005KT 10SM BKN060 24/M02 A3009 RMK A01,M
05U,2022-07-14 10:35,-116.0051,39.6042,1811.23,59.00,30.20,33.35,0.00,0.00,0.00,30.20,M,10.00,M,CLR,M,M,M,M,M,M,M,M,M,M,M,M,M,M,59.00,K05U 141035Z AUTO 00000KT 10SM CLR 15/M01 A3020 RMK A01,M
BVU,2022-07-14 10:35,-114.8611,35.9475,671.00,89.60,51.80,27.56,0.00,0.00,0.00,29.90,M,10.00,M,CLR,M,M,M,M,M,M,M,M,M,M,M,M,M,M,87.00,KBVU 141035Z AUTO 00000KT 10SM CLR 32/11 A2990 RMK AO2,M
RTS,2022-07-14 10:35,-119.8764,39.6682,1539.00,55.40,33.80,43.90,350.00,6.00,0.00,30.17,M,10.00,M,CLR,M,M,M,M,M,M,M,M,M,M,M,M,M,M,55.40,KRTS 141035Z AUTO 35006KT 10SM CLR 13/01 A3017 RMK AO2,M
CXP,2022-07-14 10:35,-119.7326,39.1923,1431.00,66.20,35.60,32.14,350.00,6.00,0.00,30.15,M,10.00,M,BKN,BKN,M,M,4800.00,5500.00,M,M,M,M,M,M,M,M,M,66.20,KCXP 141035Z AUTO 35006KT 10SM BKN048 BKN055 19/02 A3015 RMK AO2,M
BAM,2022-07-14 10:35,-116.8743,40.5990,1382.36,M,M,M,240.00,5.00,0.00,30.07,M,10.00,M,CLR,M,M,M,M,M,M,M,M,M,M,M,M,M,M,M,KBAM 141035Z AUTO 24005KT 10SM CLR A3007 RMK AO1,M
MEV,2022-07-14 10:35,-119.7500,38.9963,1441.42,48.20,35.60,61.52,120.00,8.00,0.00,30.14,M,10.00,M,OVC,M,M,M,4000.00,M,M,M,M,M,M,M,M,M,M,44.07,KMEV 141035Z AUTO 12008KT 10SM OVC040 09/02 A3014 RMK AO2,M
HTH,2022-07-14 10:35,-118.6315,38.5448,1282.89,73.40,26.60,17.46,240.00,5.00,0.00,30.09,M,10.00,M,SCT,M,M,M,6000.00,M,M,M,M,M,M,M,M,M,M,73.40,KHTH 141035Z AUTO 24005KT 10SM SCT060 23/M03 A3009 RMK A01,M
ELY,2022-07-14 10:53,-114.8453,39.2950,1909.00,65.00,39.00,38.44,180.00,3.00,0.00,30.23,1011.60,10.00,M,CLR,M,M,M,M,M,M,M,M,M,M,M,M,M,M,64.90,KELY 141053Z AUTO 18003KT 10SM CLR 18/04 A3023 RMK AO2 SLP116 T01830039,M
P68,2022-07-14 10:53,-116.0056,39.6014,1993.00,56.00,36.00,47.05,160.00,6.00,0.00,30.18,1012.40,M,M,M,M,M,M,M,M,M,M,M,M,M,M,M,M,M,55.90,KP68 141053Z AUTO 16006KT 13/02 A3018 RMK AO1 SLP124 T01330022,M
DRA,2022-07-14 10:53,-116.0278,36.6206,1009.00,82.00,38.00,20.71,20.00,5.00,0.00,29.98,1009.00,10.00,M,CLR,M,M,M,M,M,M,M,M,M,M,M,M,M,M,79.90,KDRA 141053Z AUTO 02005KT 10SM CLR 28/03 A2998 RMK AO2 SLP090 T02780033,M
VGT,2022-07-14 10:53,-115.1933,36.2111,667.00,94.00,48.00,20.92,230.00,4.00,0.00,29.88,1009.90,10.00,M,CLR,M,M,M,M,M,M,M,M,M,M,M,M,M,M,90.45,KVGT 141053Z AUTO 23004KT 10SM CLR 34/09 A2988 RMK AO2 SLP099 T03440089,M
LOL,2022-07-14 10:53,-118.5701,40.0684,1192.43,57.00,25.00,28.93,260.00,5.00,0.00,30.05,1013.20,10.00,M,CLR,M,M,M,M,M,M,M,M,M,M,M,M,M,M,57.00,KLOL 141053Z AUTO 26005KT 10SM CLR 14/M04 A3005 RMK AO2 SLP132 T01391039,M
HTH,2022-07-14 10:55,-118.6315,38.5448,1282.89,71.60,26.60,18.55,240.00,6.00,0.00,30.09,M,10.00,M,BKN,M,M,M,6000.00,M,M,M,M,M,M,M,M,M,M,71.60,KHTH 141055Z AUTO 24006KT 10SM BKN060 22/M03 A3009 RMK A01,M
CXP,2022-07-14 10:55,-119.7326,39.1923,1431.00,66.20,33.80,29.92,330.00,5.00,0.00,30.15,M,10.00,10.00,BKN,BKN,M,M,4500.00,5000.00,M,M,M,M,M,M,M,M,M,66.20,KCXP 141055Z AUTO 33005G10KT 10SM BKN045 BKN050 19/01 A3015 RMK AO2,M
RTS,2022-07-14 10:55,-119.8764,39.6682,1539.00,57.20,35.60,44.19,0.00,0.00,0.00,30.17,M,10.00,M,CLR,M,M,M,M,M,M,M,M,M,M,M,M,M,M,57.20,KRTS 141055Z AUTO 00000KT 10SM CLR 14/02 A3017 RMK AO2,M
05U,2022-07-14 10:55,-116.0051,39.6042,1811.23,55.40,33.80,43.90,0.00,0.00,0.00,30.20,M,10.00,M,CLR,M,M,M,M,M,M,M,M,M,M,M,M,M,M,55.40,K05U 141055Z AUTO 00000KT 10SM CLR 13/01 A3020 RMK A01,M
MEV,2022-07-14 10:55,-119.7500,38.9963,1441.42,48.20,33.80,57.26,120.00,7.00,0.00,30.15,M,10.00,M,OVC,M,M,M,3900.00,M,M,M,M,M,M,M,M,M,M,44.53,KMEV 141055Z AUTO 12007KT 10SM OVC039 09/01 A3015 RMK AO2,M
BAM,2022-07-14 10:55,-116.8743,40.5990,1382.36,M,M,M,190.00,4.00,0.00,30.08,M,10.00,M,CLR,M,M,M,M,M,M,M,M,M,M,M,M,M,M,M,KBAM 141055Z AUTO 19004KT 10SM CLR A3008 RMK AO1,M
RNO,2022-07-14 10:55,-119.7711,39.4839,1341.00,66.00,36.00,32.88,0.00,0.00,0.00,30.13,1013.90,10.00,M,CLR,M,M,M,M,M,M,M,M,M,M,M,M,M,M,66.00,KRNO 141055Z 00000KT 10SM CLR 19/02 A3013 RMK AO2 SLP139 T01890022,M
BVU,2022-07-14 10:55,-114.8611,35.9475,671.00,91.40,48.20,22.78,140.00,3.00,0.00,29.90,M,10.00,M,CLR,M,M,M,M,M,M,M,M,M,M,M,M,M,M,88.09,KBVU 141055Z AUTO 14003KT 10SM CLR 33/09 A2990 RMK AO2,M
HND,2022-07-14 10:56,-115.1344,35.9729,742.79,92.00,45.00,19.88,180.00,9.00,0.00,29.94,1011.50,10.00,M,CLR,M,M,M,M,M,M,M,M,M,M,M,M,M,M,88.17,KHND 141056Z AUTO 18009KT 10SM CLR 33/07 A2994 RMK AO2 SLP115 T03330072,M
EKO,2022-07-14 10:56,-115.7860,40.8242,1367.00,68.00,32.00,26.15,90.00,3.00,0.00,30.09,1011.80,10.00,M,CLR,M,M,M,M,M,M,M,M,M,M,M,M,M,M,68.00,KEKO 141056Z AUTO 09003KT 10SM CLR 20/00 A3009 RMK AO2 SLP118 T02000000,M
TPH,2022-07-14 10:56,-117.0904,38.0505,1654.00,64.00,28.90,26.50,20.00,3.00,0.00,30.15,1012.00,10.00,M,CLR,M,M,M,M,M,M,M,M,M,M,M,M,M,M,64.00,KTPH 141056Z AUTO 02003KT 10SM CLR 18/M02 A3015 RMK AO2 SLP120 T01781017,M
NFL,2022-07-14 10:56,-118.7010,39.4166,1199.00,63.00,36.00,36.52,M,3.00,0.00,30.06,1014.90,10.00,M,CLR,M,M,M,M,M,M,M,M,M,M,M,M,M,M,63.00,KNFL 141056Z AUTO VRB03KT 10SM CLR 17/02 A3006 RMK AO2 SLP149 T01720022,M
WMC,2022-07-14 10:56,-117.8072,40.9019,1315.00,62.00,30.00,29.63,0.00,0.00,0.00,30.07,1012.60,10.00,M,CLR,M,M,M,M,M,M,M,M,M,M,M,M,M,M,62.10,KWMC 141056Z AUTO 00000KT 10SM CLR 17/M01 A3007 RMK AO2 SLP126 T01671011 TSNO,M
LAS,2022-07-14 10:56,-115.1634,36.0719,663.00,94.00,42.00,16.72,180.00,5.00,0.00,29.90,1009.00,10.00,M,BKN,M,M,M,21000.00,M,M,M,M,M,M,M,M,M,M,89.76,KLAS 141056Z 18005KT 10SM BKN210 34/06 A2990 RMK AO2 SLP090 T03440056,M
LSV,2022-07-14 10:58,-115.0343,36.2362,570.00,95.50,43.70,16.92,180.00,10.00,0.00,29.85,1007.40,10.00,M,OVC,M,M,M,21000.00,M,M,M,M,M,M,M,M,M,M,91.43,KLSV 141058Z AUTO 18010KT 10SM OVC210 35/07 A2985 RMK AO2 SLP074 T03530065 $,M
INS,2022-07-14 10:58,-115.6733,36.5872,955.00,81.00,39.70,22.95,320.00,7.00,0.00,29.97,1009.10,10.00,M,CLR,M,M,M,M,M,M,M,M,M,M,M,M,M,M,79.36,KINS 141058Z AUTO 32007KT 10SM CLR 27/04 A2997 RMK AO2 SLP091 T02720043 $,M
BAM,2022-07-14 11:15,-116.8743,40.5990,1382.36,M,M,M,230.00,6.00,0.00,30.08,M,10.00,M,CLR,M,M,M,M,M,M,M,M,M,M,M,M,M,M,M,KBAM 141115Z AUTO 23006KT 10SM CLR A3008 RMK AO1,M
RTS,2022-07-14 11:15,-119.8764,39.6682,1539.00,55.40,33.80,43.90,0.00,0.00,0.00,30.18,M,10.00,M,CLR,M,M,M,M,M,M,M,M,M,M,M,M,M,M,55.40,KRTS 141115Z AUTO 00000KT 10SM CLR 13/01 A3018 RMK AO2,M
HTH,2022-07-14 11:15,-118.6315,38.5448,1282.89,71.60,26.60,18.55,0.00,0.00,0.00,30.10,M,10.00,M,BKN,M,M,M,6000.00,M,M,M,M,M,M,M,M,M,M,71.60,KHTH 141115Z AUTO 00000KT 10SM BKN060 22/M03 A3010 RMK A01,M
CXP,2022-07-14 11:15,-119.7326,39.1923,1431.00,60.80,33.80,36.16,0.00,0.00,0.00,30.16,M,10.00,M,BKN,BKN,M,M,4700.00,5000.00,M,M,M,M,M,M,M,M,M,60.80,KCXP 141115Z AUTO 00000KT 10SM BKN047 BKN050 16/01 A3016 RMK AO2,M
05U,2022-07-14 11:15,-116.0051,39.6042,1811.23,57.20,33.80,41.13,0.00,0.00,0.00,30.21,M,10.00,M,CLR,M,M,M,M,M,M,M,M,M,M,M,M,M,M,57.20,K05U 141115Z AUTO 00000KT 10SM CLR 14/01 A3021 RMK A01,M
BVU,2022-07-14 11:15,-114.8611,35.9475,671.00,87.80,51.80,29.18,0.00,0.00,0.00,29.90,M,10.00,M,CLR,M,M,M,M,M,M,M,M,M,M,M,M,M,M,85.39,KBVU 141115Z AUTO 00000KT 10SM CLR 31/11 A2990 RMK AO2,M
MEV,2022-07-14 11:15,-119.7500,38.9963,1441.42,48.20,33.80,57.26,120.00,5.00,0.00,30.15,M,10.00,M,OVC,M,M,M,3700.00,M,M,M,M,M,M,M,M,M,M,45.63,KMEV 141115Z AUTO 12005KT 10SM OVC037 09/01 A3015 RMK AO2,M
MEV,2022-07-14 11:35,-119.7500,38.9963,1441.42,48.20,35.60,61.52,0.00,0.00,0.00,30.16,M,10.00,M,OVC,M,M,M,3700.00,M,M,M,M,M,M,M,M,M,M,48.20,KMEV 141135Z AUTO 00000KT 10SM OVC037 09/02 A3016 RMK AO2,M
RTS,2022-07-14 11:35,-119.8764,39.6682,1539.00,50.00,32.00,49.81,10.00,3.00,0.00,30.18,M,10.00,M,CLR,M,M,M,M,M,M,M,M,M,M,M,M,M,M,50.00,KRTS 141135Z AUTO 01003KT 10SM CLR 10/M00 A3018 RMK AO2,M
CXP,2022-07-14 11:35,-119.7326,39.1923,1431.00,59.00,33.80,38.56,0.00,0.00,0.00,30.16,M,10.00,M,BKN,BKN,M,M,4700.00,6000.00,M,M,M,M,M,M,M,M,M,59.00,KCXP 141135Z AUTO 00000KT 10SM BKN047 BKN060 15/01 A3016 RMK AO2,M
BVU,2022-07-14 11:35,-114.8611,35.9475,671.00,86.00,53.60,33.01,0.00,0.00,0.00,29.91,M,10.00,M,CLR,M,M,M,M,M,M,M,M,M,M,M,M,M,M,84.18,KBVU 141135Z AUTO 00000KT 10SM CLR 30/12 A2991 RMK AO2,M
BAM,2022-07-14 11:35,-116.8743,40.5990,1382.36,M,M,M,240.00,4.00,0.00,30.09,M,10.00,M,CLR,M,M,M,M,M,M,M,M,M,M,M,M,M,M,M,KBAM 141135Z AUTO 24004KT 10SM CLR A3009 RMK AO1,M
HTH,2022-07-14 11:35,-118.6315,38.5448,1282.89,68.00,26.60,20.98,0.00,0.00,0.00,30.10,M,10.00,M,SCT,M,M,M,6000.00,M,M,M,M,M,M,M,M,M,M,68.00,KHTH 141135Z AUTO 00000KT 10SM SCT060 20/M03 A3010 RMK A01,M
05U,2022-07-14 11:35,-116.0051,39.6042,1811.23,59.00,30.20,33.35,0.00,0.00,0.00,30.21,M,10.00,M,CLR,M,M,M,M,M,M,M,M,M,M,M,M,M,M,59.00,K05U 141135Z AUTO 00000KT 10SM CLR 15/M01 A3021 RMK A01,M
VGT,2022-07-14 11:53,-115.1933,36.2111,667.00,93.00,48.00,21.51,270.00,4.00,0.00,29.89,1010.40,10.00,M,CLR,M,M,M,M,M,M,M,M,M,M,M,M,M,M,89.58,KVGT 141153Z AUTO 27004KT 10SM CLR 34/09 A2989 RMK AO2 SLP104 T03390089 10383 20333 53009,M
ELY,2022-07-14 11:53,-114.8453,39.2950,1909.00,65.00,40.00,39.82,200.00,11.00,0.00,30.24,1012.40,10.00,M,CLR,M,M,M,M,M,M,M,M,M,M,M,M,M,M,64.90,KELY 141153Z AUTO 20011KT 10SM CLR 18/04 A3024 RMK AO2 SLP124 T01830044 10239 20156 53009,M
LOL,2022-07-14 11:53,-118.5701,40.0684,1192.43,56.00,24.10,29.00,300.00,3.00,0.00,30.06,1013.50,10.00,M,CLR,M,M,M,M,M,M,M,M,M,M,M,M,M,M,55.90,KLOL 141153Z AUTO 30003KT 10SM CLR 13/M04 A3006 RMK AO2 SLP135 T01331044 10289 20128 53003,M
P68,2022-07-14 11:53,-116.0056,39.6014,1993.00,59.00,30.00,33.08,210.00,7.00,0.00,30.19,1012.60,M,M,M,M,M,M,M,M,M,M,M,M,M,M,M,M,M,59.00,KP68 141153Z AUTO 21007KT 15/M01 A3019 RMK AO1 SLP126 T01501011 10233 20133 53005,M
DRA,2022-07-14 11:53,-116.0278,36.6206,1009.00,88.00,40.00,18.47,M,4.00,0.00,29.98,1009.00,10.00,M,SCT,M,M,M,12000.00,M,M,M,M,M,M,M,M,M,M,84.41,KDRA 141153Z AUTO VRB04KT 10SM SCT120 31/04 A2998 RMK AO2 SLP090 T03110044 10317 20278 53007,M
BAM,2022-07-14 11:55,-116.8743,40.5990,1382.36,M,M,M,180.00,5.00,0.00,30.09,M,10.00,M,CLR,M,M,M,M,M,M,M,M,M,M,M,M,M,M,M,KBAM 141155Z AUTO 18005KT 10SM CLR A3009 RMK AO1,M
HTH,2022-07-14 11:55,-118.6315,38.5448,1282.89,69.80,26.60,19.72,220.00,3.00,0.00,30.10,M,10.00,M,FEW,M,M,M,5500.00,M,M,M,M,M,M,M,M,M,M,69.80,KHTH 141155Z AUTO 22003KT 10SM FEW055 21/M03 A3010 RMK A01,M
BVU,2022-07-14 11:55,-114.8611,35.9475,671.00,84.20,57.20,39.86,0.00,0.00,0.00,29.91,M,10.00,M,CLR,M,M,M,M,M,M,M,M,M,M,M,M,M,M,83.47,KBVU 141155Z AUTO 00000KT 10SM CLR 29/14 A2991 RMK AO2,M
RTS,2022-07-14 11:55,-119.8764,39.6682,1539.00,48.20,30.20,49.53,340.00,6.00,0.00,30.18,M,10.00,M,CLR,M,M,M,M,M,M,M,M,M,M,M,M,M,M,45.04,KRTS 141155Z AUTO 34006KT 10SM CLR 09/M01 A3018 RMK AO2,M
TMT,2022-07-14 11:55,-117.1971,39.4643,1749.34,50.20,29.30,44.31,220.00,5.00,0.00,30.19,M,10.00,M,CLR,M,M,M,M,M,M,M,M,M,M,M,M,M,M,50.20,KTMT 141155Z AUTO 22005KT 10SM CLR 10/M01 A3019 RMK AO2 T01011015 10254 20101,M
RNO,2022-07-14 11:55,-119.7711,39.4839,1341.00,62.00,39.00,42.41,0.00,0.00,0.00,30.14,1014.40,10.00,M,CLR,M,M,M,M,M,M,M,M,M,M,M,M,M,M,62.10,KRNO 141155Z 00000KT 10SM CLR 17/04 A3014 RMK AO2 SLP144 FU ALF DSNT N THRU E T01670039 10250 20167 52004,M
05U,2022-07-14 11:55,-116.0051,39.6042,1811.23,57.20,30.20,35.57,0.00,0.00,0.00,30.21,M,10.00,M,CLR,M,M,M,M,M,M,M,M,M,M,M,M,M,M,57.20,K05U 141155Z AUTO 00000KT 10SM CLR 14/M01 A3021 RMK A01,M
MEV,2022-07-14 11:55,-119.7500,38.9963,1441.42,48.20,37.40,66.05,0.00,0.00,0.00,30.16,M,10.00,M,OVC,M,M,M,3500.00,M,M,M,M,M,M,M,M,M,M,48.20,KMEV 141155Z AUTO 00000KT 10SM OVC035 09/03 A3016 RMK AO2,M
CXP,2022-07-14 11:55,-119.7326,39.1923,1431.00,59.00,33.80,38.56,0.00,0.00,0.00,30.16,M,10.00,M,BKN,BKN,M,M,4400.00,5000.00,M,M,M,M,M,M,M,M,M,59.00,KCXP 141155Z AUTO 00000KT 10SM BKN044 BKN050 15/01 A3016 RMK AO2,M
WMC,2022-07-14 11:56,-117.8072,40.9019,1315.00,54.00,28.00,36.52,170.00,4.00,0.00,30.08,1013.30,10.00,M,CLR,M,M,M,M,M,M,M,M,M,M,M,M,M,M,54.00,KWMC 141156Z AUTO 17004KT 10SM CLR 12/M02 A3008 RMK AO2 SLP133 T01221022 10256 20122 51006 TSNO,M
TPH,2022-07-14 11:56,-117.0904,38.0505,1654.00,62.00,28.90,28.33,10.00,5.00,0.00,30.16,1012.50,10.00,M,CLR,M,M,M,M,M,M,M,M,M,M,M,M,M,M,62.10,KTPH 141156Z AUTO 01005KT 10SM CLR 17/M02 A3016 RMK AO2 SLP125 7//// T01671017 10261 20161 52007,M
EKO,2022-07-14 11:56,-115.7860,40.8242,1367.00,66.00,35.00,31.73,70.00,6.00,0.00,30.10,1012.70,10.00,M,CLR,M,M,M,M,M,M,M,M,M,M,M,M,M,M,66.00,KEKO 141156Z AUTO 07006KT 10SM CLR 19/02 A3010 RMK AO2 SLP127 T01890017 10283 20189 53006,M
HND,2022-07-14 11:56,-115.1344,35.9729,742.79,90.00,44.00,20.39,170.00,7.00,0.00,29.95,1012.00,10.00,M,CLR,M,M,M,M,M,M,M,M,M,M,M,M,M,M,86.38,KHND 141156Z AUTO 17007KT 10SM CLR 32/07 A2995 RMK AO2 SLP120 T03220067 10361 20317 53009,M
LAS,2022-07-14 11:56,-115.1634,36.0719,663.00,93.00,42.00,17.19,200.00,5.00,0.00,29.90,1009.10,10.00,M,FEW,BKN,M,M,15000.00,22000.00,M,M,M,M,M,M,M,M,M,88.93,KLAS 141156Z 20005KT 10SM FEW150 BKN220 34/06 A2990 RMK AO2 SLP091 ACC DSNT N-NE T03390056 10378 20339 51012,M
NFL,2022-07-14 11:56,-118.7010,39.4166,1199.00,57.00,33.00,40.28,180.00,4.00,0.00,30.07,1015.00,10.00,M,CLR,M,M,M,M,M,M,M,M,M,M,M,M,M,M,57.00,KNFL 141156Z AUTO 18004KT 10SM CLR 14/01 A3007 RMK AO2 SLP150 T01390006 10250 20139 51005,M
LSV,2022-07-14 11:58,-115.0343,36.2362,570.00,94.00,44.00,17.94,220.00,4.00,0.00,29.87,1008.10,10.00,M,FEW,M,M,M,22000.00,M,M,M,M,M,M,M,M,M,M,90.14,KLSV 141158Z AUTO 22004KT 10SM FEW220 35/07 A2987 RMK AO2 SLP081 T03450067 10387 20345 53010 $,M
INS,2022-07-14 11:58,-115.6733,36.5872,955.00,81.00,39.70,22.88,0.00,0.00,0.00,29.98,1009.40,10.00,M,CLR,M,M,M,M,M,M,M,M,M,M,M,M,M,M,79.42,KINS 141158Z AUTO 00000KT 10SM CLR 27/04 A2998 RMK AO2 SLP094 T02730043 10329 20264 52012 $,M
BVU,2022-07-14 12:15,-114.8611,35.9475,671.00,82.40,53.60,37.07,360.00,4.00,0.00,29.92,M,10.00,M,CLR,M,M,M,M,M,M,M,M,M,M,M,M,M,M,81.46,KBVU 141215Z AUTO 36004KT 10SM CLR 28/12 A2992 RMK AO2,M
CXP,2022-07-14 12:15,-119.7326,39.1923,1431.00,59.00,33.80,38.56,210.00,3.00,0.00,30.17,M,10.00,M,BKN,OVC,M,M,4400.00,4900.00,M,M,M,M,M,M,M,M,M,59.00,KCXP 141215Z AUTO 21003KT 10SM BKN044 OVC049 15/01 A3017 RMK AO2,M
RTS,2022-07-14 12:15,-119.8764,39.6682,1539.00,48.20,30.20,49.53,340.00,5.00,0.00,30.18,M,10.00,M,CLR,M,M,M,M,M,M,M,M,M,M,M,M,M,M,45.63,KRTS 141215Z AUTO 34005KT 10SM CLR 09/M01 A3018 RMK AO2,M
05U,2022-07-14 12:15,-116.0051,39.6042,1811.23,55.40,30.20,37.97,0.00,0.00,0.00,30.22,M,10.00,M,CLR,M,M,M,M,M,M,M,M,M,M,M,M,M,M,55.40,K05U 141215Z AUTO 00000KT 10SM CLR 13/M01 A3022 RMK A01,M
MEV,2022-07-14 12:15,-119.7500,38.9963,1441.42,48.20,37.40,66.05,0.00,0.00,0.00,30.16,M,10.00,M,SCT,OVC,M,M,3300.00,4400.00,M,M,M,M,M,M,M,M,M,48.20,KMEV 141215Z AUTO 00000KT 10SM SCT033 OVC044 09/03 A3016 RMK AO2,M
BAM,2022-07-14 12:15,-116.8743,40.5990,1382.36,M,M,M,180.00,5.00,0.00,30.09,M,10.00,M,CLR,M,M,M,M,M,M,M,M,M,M,M,M,M,M,M,KBAM 141215Z AUTO 18005KT 10SM CLR A3009 RMK AO1,M
HTH,2022-07-14 12:15,-118.6315,38.5448,1282.89,68.00,26.60,20.98,0.00,0.00,0.00,30.11,M,10.00,M,CLR,M,M,M,M,M,M,M,M,M,M,M,M,M,M,68.00,KHTH 141215Z AUTO 00000KT 10SM CLR 20/M03 A3011 RMK A01,M
TMT,2022-07-14 12:15,-117.1971,39.4643,1749.34,46.00,28.20,49.59,0.00,0.00,0.00,30.20,M,10.00,M,CLR,M,M,M,M,M,M,M,M,M,M,M,M,M,M,46.00,KTMT 141215Z AUTO 00000KT 10SM CLR 08/M02 A3020 RMK AO2 T00781021,M
CXP,2022-07-14 12:30,-119.7326,39.1923,1431.00,57.20,33.80,41.13,0.00,0.00,0.00,30.17,M,10.00,M,BKN,OVC,M,M,4400.00,5000.00,M,M,M,M,M,M,M,M,M,57.20,KCXP 141230Z AUTO 00000KT 10SM BKN044 OVC050 14/01 A3017 RMK AO2,M
BVU,2022-07-14 12:35,-114.8611,35.9475,671.00,84.20,51.80,32.73,10.00,5.00,0.00,29.92,M,10.00,M,CLR,M,M,M,M,M,M,M,M,M,M,M,M,M,M,82.48,KBVU 141235Z AUTO 01005KT 10SM CLR 29/11 A2992 RMK AO2,M
BAM,2022-07-14 12:35,-116.8743,40.5990,1382.36,M,M,M,210.00,4.00,0.00,30.09,M,10.00,M,CLR,M,M,M,M,M,M,M,M,M,M,M,M,M,M,M,KBAM 141235Z AUTO 21004KT 10SM CLR A3009 RMK AO1,M
TMT,2022-07-14 12:35,-117.1971,39.4643,1749.34,47.00,28.00,47.54,200.00,4.00,0.00,30.21,M,10.00,M,CLR,M,M,M,M,M,M,M,M,M,M,M,M,M,M,44.82,KTMT 141235Z AUTO 20004KT 10SM CLR 08/M02 A3021 RMK AO2 T00831022,M
HTH,2022-07-14 12:35,-118.6315,38.5448,1282.89,66.20,28.40,24.04,220.00,3.00,0.00,30.11,M,10.00,M,CLR,M,M,M,M,M,M,M,M,M,M,M,M,M,M,66.20,KHTH 141235Z AUTO 22003KT 10SM CLR 19/M02 A3011 RMK A01,M
05U,2022-07-14 12:35,-116.0051,39.6042,1811.23,59.00,30.20,33.35,0.00,0.00,0.00,30.22,M,10.00,M,CLR,M,M,M,M,M,M,M,M,M,M,M,M,M,M,59.00,K05U 141235Z AUTO 00000KT 10SM CLR 15/M01 A3022 RMK A01,M
RTS,2022-07-14 12:35,-119.8764,39.6682,1539.00,48.20,32.00,53.27,340.00,5.00,0.00,30.18,M,10.00,M,CLR,M,M,M,M,M,M,M,M,M,M,M,M,M,M,45.63,KRTS 141235Z AUTO 34005KT 10SM CLR 09/M00 A3018 RMK AO2,M
MEV,2022-07-14 12:35,-119.7500,38.9963,1441.42,46.40,35.60,65.83,0.00,0.00,0.00,30.17,M,10.00,M,BKN,BKN,M,M,4300.00,4800.00,M,M,M,M,M,M,M,M,M,46.40,KMEV 141235Z AUTO 00000KT 10SM BKN043 BKN048 08/02 A3017 RMK AO2,M
DRA,2022-07-14 12:53,-116.0278,36.6206,1009.00,82.00,40.00,22.39,70.00,3.00,0.00,30.00,1009.80,10.00,M,CLR,M,M,M,M,M,M,M,M,M,M,M,M,M,M,79.98,KDRA 141253Z AUTO 07003KT 10SM CLR 28/04 A3000 RMK AO2 SLP098 T02780044,M
ELY,2022-07-14 12:53,-114.8453,39.2950,1909.00,65.00,40.00,39.82,0.00,0.00,0.00,30.25,1012.70,10.00,M,CLR,M,M,M,M,M,M,M,M,M,M,M,M,M,M,64.90,KELY 141253Z AUTO 00000KT 10SM CLR 18/04 A3025 RMK AO2 SLP127 T01830044,M
LOL,2022-07-14 12:53,-118.5701,40.0684,1192.43,53.00,27.00,36.22,110.00,3.00,0.00,30.07,1014.30,10.00,M,CLR,M,M,M,M,M,M,M,M,M,M,M,M,M,M,53.10,KLOL 141253Z AUTO 11003KT 10SM CLR 12/M03 A3007 RMK AO2 SLP143 T01171028,M
P68,2022-07-14 12:53,-116.0056,39.6014,1993.00,58.00,32.00,37.31,200.00,6.00,0.00,30.20,1013.30,M,M,M,M,M,M,M,M,M,M,M,M,M,M,M,M,M,57.90,KP68 141253Z AUTO 20006KT 14/00 A3020 RMK AO1 SLP133 T01440000,M
VGT,2022-07-14 12:53,-115.1933,36.2111,667.00,90.00,49.00,24.44,0.00,0.00,0.00,29.91,1011.10,9.00,M,CLR,M,M,M,M,M,M,M,M,M,M,M,M,M,M,86.90,KVGT 141253Z AUTO 00000KT 9SM CLR 32/09 A2991 RMK AO2 SLP111 T03220094,M
TMT,2022-07-14 12:55,-117.1971,39.4643,1749.34,44.20,27.10,50.75,120.00,5.00,0.00,30.21,M,10.00,M,CLR,M,M,M,M,M,M,M,M,M,M,M,M,M,M,40.88,KTMT 141255Z AUTO 12005KT 10SM CLR 07/M03 A3021 RMK AO2 T00681027,M
BVU,2022-07-14 12:55,-114.8611,35.9475,671.00,84.20,53.60,34.97,40.00,4.00,0.00,29.93,M,10.00,M,CLR,M,M,M,M,M,M,M,M,M,M,M,M,M,M,82.76,KBVU 141255Z AUTO 04004KT 10SM CLR 29/12 A2993 RMK AO2,M
CXP,2022-07-14 12:55,-119.7326,39.1923,1431.00,57.20,32.00,38.26,0.00,0.00,0.00,30.17,M,10.00,M,FEW,M,M,M,4600.00,M,M,M,M,M,M,M,M,M,M,57.20,KCXP 141255Z AUTO 00000KT 10SM FEW046 14/00 A3017 RMK AO2,M
RTS,2022-07-14 12:55,-119.8764,39.6682,1539.00,48.20,30.20,49.53,350.00,6.00,0.00,30.18,M,10.00,M,CLR,M,M,M,M,M,M,M,M,M,M,M,M,M,M,45.04,KRTS 141255Z AUTO 35006KT 10SM CLR 09/M01 A3018 RMK AO2,M
RNO,2022-07-14 12:55,-119.7711,39.4839,1341.00,62.00,35.00,36.37,280.00,5.00,0.00,30.14,1014.80,10.00,M,CLR,M,M,M,M,M,M,M,M,M,M,M,M,M,M,62.10,KRNO 141255Z 28005KT 10SM CLR 17/02 A3014 RMK AO2 SLP148 FU ALF DSNT N THRU E THRU S T01670017,M
05U,2022-07-14 12:55,-116.0051,39.6042,1811.23,59.00,32.00,35.87,0.00,0.00,0.00,30.22,M,10.00,M,CLR,M,M,M,M,M,M,M,M,M,M,M,M,M,M,59.00,K05U 141255Z AUTO 00000KT 10SM CLR 15/M00 A3022 RMK A01,M
MEV,2022-07-14 12:55,-119.7500,38.9963,1441.42,44.60,35.60,70.48,0.00,0.00,0.00,30.17,M,10.00,M,FEW,M,M,M,4200.00,M,M,M,M,M,M,M,M,M,M,44.60,KMEV 141255Z AUTO 00000KT 10SM FEW042 07/02 A3017 RMK AO2,M
BAM,2022-07-14 12:55,-116.8743,40.5990,1382.36,M,M,M,170.00,5.00,0.00,30.10,M,10.00,M,CLR,M,M,M,M,M,M,M,M,M,M,M,M,M,M,M,KBAM 141255Z AUTO 17005KT 10SM CLR A3010 RMK AO1,M
HTH,2022-07-14 12:55,-118.6315,38.5448,1282.89,66.20,28.40,24.04,230.00,4.00,0.00,30.12,M,10.00,M,CLR,M,M,M,M,M,M,M,M,M,M,M,M,M,M,66.20,KHTH 141255Z AUTO 23004KT 10SM CLR 19/M02 A3012 RMK A01,M
WMC,2022-07-14 12:56,-117.8072,40.9019,1315.00,54.00,32.00,42.98,160.00,6.00,0.00,30.09,1013.80,10.00,M,CLR,M,M,M,M,M,M,M,M,M,M,M,M,M,M,54.00,KWMC 141256Z AUTO 16006KT 10SM CLR 12/00 A3009 RMK AO2 SLP138 T01220000 TSNO,M
NFL,2022-07-14 12:56,-118.7010,39.4166,1199.00,56.00,32.00,40.10,170.00,5.00,0.00,30.08,1015.40,10.00,M,CLR,M,M,M,M,M,M,M,M,M,M,M,M,M,M,55.90,KNFL 141256Z AUTO 17005KT 10SM CLR 13/00 A3008 RMK AO2 SLP154 T01330000,M
HND,2022-07-14 12:56,-115.1344,35.9729,742.79,88.00,44.00,21.72,190.00,8.00,0.00,29.96,1012.60,10.00,M,CLR,M,M,M,M,M,M,M,M,M,M,M,M,M,M,84.65,KHND 141256Z 19008KT 10SM CLR 31/07 A2996 RMK AO2 SLP126 T03110067,M
EKO,2022-07-14 12:56,-115.7860,40.8242,1367.00,62.00,32.00,32.13,10.00,3.00,0.00,30.13,1013.40,10.00,M,CLR,M,M,M,M,M,M,M,M,M,M,M,M,M,M,62.10,KEKO 141256Z AUTO 01003KT 10SM CLR 17/00 A3013 RMK AO2 SLP134 T01670000,M
TPH,2022-07-14 12:56,-117.0904,38.0505,1654.00,60.00,27.00,28.13,350.00,8.00,0.00,30.19,1013.60,10.00,M,CLR,M,M,M,M,M,M,M,M,M,M,M,M,M,M,60.10,KTPH 141256Z AUTO 35008KT 10SM CLR 16/M03 A3019 RMK AO2 SLP136 T01561028,M
LAS,2022-07-14 12:56,-115.1634,36.0719,663.00,92.00,42.00,17.79,190.00,7.00,0.00,29.91,1009.50,10.00,M,FEW,SCT,BKN,M,12000.00,15000.00,22000.00,M,M,M,M,M,M,M,M,87.92,KLAS 141256Z 19007KT 10SM FEW120 SCT150 BKN220 33/06 A2991 RMK AO2 SLP095 ACC DSNT ALQDS T03330056,M
INS,2022-07-14 12:58,-115.6733,36.5872,955.00,79.20,41.40,26.01,0.00,0.00,0.00,30.00,1010.10,10.00,M,CLR,M,M,M,M,M,M,M,M,M,M,M,M,M,M,79.20,KINS 141258Z AUTO 00000KT 10SM CLR 26/05 A3000 RMK AO2 SLP101 T02620052 $,M
LSV,2022-07-14 12:58,-115.0343,36.2362,570.00,90.50,44.00,19.92,0.00,0.00,0.00,29.88,1008.60,10.00,M,FEW,M,M,M,21000.00,M,M,M,M,M,M,M,M,M,M,86.80,KLSV 141258Z AUTO 00000KT 10SM FEW210 33/07 A2988 RMK AO2 SLP086 T03250066 $,M
BVU,2022-07-14 13:15,-114.8611,35.9475,671.00,84.20,55.40,37.35,0.00,0.00,0.00,29.93,M,10.00,M,CLR,M,M,M,M,M,M,M,M,M,M,M,M,M,M,83.09,KBVU 141315Z AUTO 00000KT 10SM CLR 29/13 A2993 RMK AO2,M
RTS,2022-07-14 13:15,-119.8764,39.6682,1539.00,48.20,32.00,53.27,320.00,4.00,0.00,30.19,M,10.00,M,CLR,M,M,M,M,M,M,M,M,M,M,M,M,M,M,46.34,KRTS 141315Z AUTO 32004KT 10SM CLR 09/M00 A3019 RMK AO2,M
CXP,2022-07-14 13:15,-119.7326,39.1923,1431.00,57.20,33.80,41.13,290.00,3.00,0.00,30.18,M,10.00,M,CLR,M,M,M,M,M,M,M,M,M,M,M,M,M,M,57.20,KCXP 141315Z AUTO 29003KT 10SM CLR 14/01 A3018 RMK AO2,M
HTH,2022-07-14 13:15,-118.6315,38.5448,1282.89,68.00,30.20,24.32,220.00,4.00,0.00,30.12,M,10.00,M,CLR,M,M,M,M,M,M,M,M,M,M,M,M,M,M,68.00,KHTH 141315Z AUTO 22004KT 10SM CLR 20/M01 A3012 RMK A01,M
MEV,2022-07-14 13:15,-119.7500,38.9963,1441.42,46.40,37.40,70.68,0.00,0.00,0.00,30.17,M,10.00,M,CLR,M,M,M,M,M,M,M,M,M,M,M,M,M,M,46.40,KMEV 141315Z AUTO 00000KT 10SM CLR 08/03 A3017 RMK AO2,M
05U,2022-07-14 13:15,-116.0051,39.6042,1811.23,59.00,30.20,33.35,0.00,0.00,0.00,30.23,M,9.00,M,CLR,M,M,M,M,M,M,M,M,M,M,M,M,M,M,59.00,K05U 141315Z AUTO 00000KT 9SM CLR 15/M01 A3023 RMK A01,M
TMT,2022-07-14 13:15,-117.1971,39.4643,1749.34,47.50,28.40,47.24,0.00,0.00,0.00,30.22,M,10.00,M,CLR,M,M,M,M,M,M,M,M,M,M,M,M,M,M,47.50,KTMT 141315Z AUTO 00000KT 10SM CLR 09/M02 A3022 RMK AO2 T00861020,M
BAM,2022-07-14 13:15,-116.8743,40.5990,1382.36,M,M,M,180.00,6.00,0.00,30.10,M,10.00,M,CLR,M,M,M,M,M,M,M,M,M,M,M,M,M,M,M,KBAM 141315Z AUTO 18006KT 10SM CLR A3010 RMK AO1,M
05U,2022-07-14 13:30,-116.0051,39.6042,1811.23,62.60,30.20,29.35,0.00,0.00,0.00,30.23,M,9.00,M,CLR,M,M,M,M,M,M,M,M,M,M,M,M,M,M,62.60,K05U 141330Z AUTO 00000KT 9SM CLR 17/M01 A3023 RMK A01,M
CXP,2022-07-14 13:35,-119.7326,39.1923,1431.00,59.00,33.80,38.56,290.00,4.00,0.00,30.18,M,10.00,M,CLR,M,M,M,M,M,M,M,M,M,M,M,M,M,M,59.00,KCXP 141335Z AUTO 29004KT 10SM CLR 15/01 A3018 RMK AO2,M
RTS,2022-07-14 13:35,-119.8764,39.6682,1539.00,51.80,32.00,46.59,340.00,6.00,0.00,30.19,M,10.00,M,CLR,M,M,M,M,M,M,M,M,M,M,M,M,M,M,51.80,KRTS 141335Z AUTO 34006KT 10SM CLR 11/00 A3019 RMK AO2,M
BAM,2022-07-14 13:35,-116.8743,40.5990,1382.36,M,M,M,190.00,7.00,0.00,30.11,M,10.00,M,CLR,M,M,M,M,M,M,M,M,M,M,M,M,M,M,M,KBAM 141335Z AUTO 19007KT 10SM CLR A3011 RMK AO1,M
HTH,2022-07-14 13:35,-118.6315,38.5448,1282.89,69.80,33.80,26.43,210.00,4.00,0.00,30.13,M,10.00,M,CLR,M,M,M,M,M,M,M,M,M,M,M,M,M,M,69.80,KHTH 141335Z AUTO 21004KT 10SM CLR 21/01 A3013 RMK A01,M
TMT,2022-07-14 13:35,-117.1971,39.4643,1749.34,50.00,30.20,46.31,0.00,0.00,0.00,30.22,M,10.00,M,CLR,M,M,M,M,M,M,M,M,M,M,M,M,M,M,50.00,KTMT 141335Z AUTO 00000KT 10SM CLR 10/M01 A3022 RMK AO2 T01001010,M
MEV,2022-07-14 13:35,-119.7500,38.9963,1441.42,48.20,37.40,66.05,0.00,0.00,0.00,30.17,M,10.00,M,CLR,M,M,M,M,M,M,M,M,M,M,M,M,M,M,48.20,KMEV 141335Z AUTO 00000KT 10SM CLR 09/03 A3017 RMK AO2,M
BVU,2022-07-14 13:35,-114.8611,35.9475,671.00,87.80,53.60,31.17,0.00,0.00,0.00,29.94,M,10.00,M,CLR,M,M,M,M,M,M,M,M,M,M,M,M,M,M,85.72,KBVU 141335Z AUTO 00000KT 10SM CLR 31/12 A2994 RMK AO2,M
ELY,2022-07-14 13:53,-114.8453,39.2950,1909.00,73.00,42.00,32.84,200.00,8.00,0.00,30.26,1012.20,10.00,M,CLR,M,M,M,M,M,M,M,M,M,M,M,M,M,M,73.00,KELY 141353Z AUTO 20008KT 10SM CLR 23/06 A3026 RMK AO2 SLP122 T02280056,M
LOL,2022-07-14 13:53,-118.5701,40.0684,1192.43,59.00,30.00,33.08,0.00,0.00,0.00,30.09,1014.50,10.00,M,CLR,M,M,M,M,M,M,M,M,M,M,M,M,M,M,59.00,KLOL 141353Z AUTO 00000KT 10SM CLR 15/M01 A3009 RMK AO2 SLP145 T01501011,M
P68,2022-07-14 13:53,-116.0056,39.6014,1993.00,69.00,32.00,25.18,180.00,5.00,0.00,30.20,1012.50,M,M,M,M,M,M,M,M,M,M,M,M,M,M,M,M,M,69.10,KP68 141353Z AUTO 18005KT 21/00 A3020 RMK AO1 SLP125 T02060000,M
DRA,2022-07-14 13:53,-116.0278,36.6206,1009.00,89.00,42.00,19.42,20.00,3.00,0.00,30.01,1010.10,10.00,M,CLR,M,M,M,M,M,M,M,M,M,M,M,M,M,M,85.45,KDRA 141353Z AUTO 02003KT 10SM CLR 32/06 A3001 RMK AO2 SLP101 T03170056,M
VGT,2022-07-14 13:53,-115.1933,36.2111,667.00,91.00,51.00,25.70,0.00,0.00,0.00,29.93,1011.70,10.00,M,CLR,M,M,M,M,M,M,M,M,M,M,M,M,M,M,88.18,KVGT 141353Z 00000KT 10SM CLR 33/11 A2993 RMK AO2 SLP117 T03280106,M
BAM,2022-07-14 13:55,-116.8743,40.5990,1382.36,M,M,M,190.00,4.00,0.00,30.12,M,10.00,M,CLR,M,M,M,M,M,M,M,M,M,M,M,M,M,M,M,KBAM 141355Z AUTO 19004KT 10SM CLR A3012 RMK AO1,M
HTH,2022-07-14 13:55,-118.6315,38.5448,1282.89,71.60,35.60,26.71,0.00,0.00,0.00,30.13,M,10.00,M,CLR,M,M,M,M,M,M,M,M,M,M,M,M,M,M,71.60,KHTH 141355Z AUTO 00000KT 10SM CLR 22/02 A3013 RMK A01,M
TMT,2022-07-14 13:55,-117.1971,39.4643,1749.34,55.60,32.00,40.54,0.00,0.00,0.00,30.22,M,10.00,M,CLR,M,M,M,M,M,M,M,M,M,M,M,M,M,M,55.60,KTMT 141355Z AUTO 00000KT 10SM CLR 13/00 A3022 RMK AO2 T01310000,M
MEV,2022-07-14 13:55,-119.7500,38.9963,1441.42,51.80,39.20,61.99,0.00,0.00,0.00,30.17,M,10.00,M,CLR,M,M,M,M,M,M,M,M,M,M,M,M,M,M,51.80,KMEV 141355Z AUTO 00000KT 10SM CLR 11/04 A3017 RMK AO2,M
05U,2022-07-14 13:55,-116.0051,39.6042,1811.23,69.80,30.20,22.86,0.00,0.00,0.00,30.23,M,9.00,M,CLR,M,M,M,M,M,M,M,M,M,M,M,M,M,M,69.80,K05U 141355Z AUTO 00000KT 9SM CLR 21/M01 A3023 RMK A01,M
RTS,2022-07-14 13:55,-119.8764,39.6682,1539.00,55.40,33.80,43.90,0.00,0.00,0.00,30.19,M,10.00,M,CLR,M,M,M,M,M,M,M,M,M,M,M,M,M,M,55.40,KRTS 141355Z AUTO 00000KT 10SM CLR 13/01 A3019 RMK AO2,M
RNO,2022-07-14 13:55,-119.7711,39.4839,1341.00,64.00,36.00,35.26,0.00,0.00,0.00,30.15,1015.10,10.00,M,CLR,M,M,M,M,M,M,M,M,M,M,M,M,M,M,64.00,KRNO 141355Z 00000KT 10SM CLR 18/02 A3015 RMK AO2 SLP151 FU ALF DSNT N THRU E THRU S AND W T01780022,M
CXP,2022-07-14 13:55,-119.7326,39.1923,1431.00,60.80,33.80,36.16,0.00,0.00,0.00,30.18,M,10.00,M,CLR,M,M,M,M,M,M,M,M,M,M,M,M,M,M,60.80,KCXP 141355Z AUTO 00000KT 10SM CLR 16/01 A3018 RMK AO2,M
BVU,2022-07-14 13:55,-114.8611,35.9475,671.00,89.60,53.60,29.45,80.00,3.00,0.00,29.95,M,10.00,M,CLR,M,M,M,M,M,M,M,M,M,M,M,M,M,M,87.36,KBVU 141355Z AUTO 08003KT 10SM CLR 32/12 A2995 RMK AO2,M
LAS,2022-07-14 13:56,-115.1634,36.0719,663.00,93.00,44.00,18.56,180.00,8.00,0.00,29.93,1010.20,10.00,M,FEW,SCT,BKN,M,12000.00,15000.00,22000.00,M,M,M,M,M,M,M,M,89.11,KLAS 141356Z 18008KT 10SM FEW120 SCT150 BKN220 34/07 A2993 RMK AO2 SLP102 ACC DSNT ALQDS T03390067,M
EKO,2022-07-14 13:56,-115.7860,40.8242,1367.00,70.00,37.00,29.81,0.00,0.00,0.00,30.14,1013.80,10.00,M,CLR,M,M,M,M,M,M,M,M,M,M,M,M,M,M,70.00,KEKO 141356Z AUTO 00000KT 10SM CLR 21/03 A3014 RMK AO2 SLP138 T02110028,M
WMC,2022-07-14 13:56,-117.8072,40.9019,1315.00,65.00,30.90,27.85,0.00,0.00,0.00,30.10,1013.70,10.00,M,CLR,M,M,M,M,M,M,M,M,M,M,M,M,M,M,64.90,KWMC 141356Z AUTO 00000KT 10SM CLR 18/M01 A3010 RMK AO2 SLP137 T01831006 TSNO,M
NFL,2022-07-14 13:56,-118.7010,39.4166,1199.00,65.00,34.00,31.55,150.00,3.00,0.00,30.10,1015.90,10.00,M,CLR,M,M,M,M,M,M,M,M,M,M,M,M,M,M,64.90,KNFL 141356Z AUTO 15003KT 10SM CLR 18/01 A3010 RMK AO2 SLP159 T01830011,M
HND,2022-07-14 13:56,-115.1344,35.9729,742.79,93.00,45.00,19.21,180.00,9.00,0.00,29.98,1012.80,10.00,M,CLR,M,M,M,M,M,M,M,M,M,M,M,M,M,M,89.20,KHND 141356Z 18009KT 10SM CLR 34/07 A2998 RMK AO2 SLP128 T03390072,M
TPH,2022-07-14 13:56,-117.0904,38.0505,1654.00,68.00,32.00,26.15,360.00,7.00,0.00,30.19,1013.10,10.00,M,CLR,M,M,M,M,M,M,M,M,M,M,M,M,M,M,68.00,KTPH 141356Z AUTO 36007KT 10SM CLR 20/00 A3019 RMK AO2 SLP131 T02000000,M
LSV,2022-07-14 13:58,-115.0343,36.2362,570.00,91.40,50.50,24.83,30.00,7.00,0.00,29.90,1009.30,10.00,M,FEW,M,M,M,16000.00,M,M,M,M,M,M,M,M,M,M,88.45,KLSV 141358Z AUTO 03007KT 10SM FEW160 33/10 A2990 RMK AO2 SLP093 T03300103 $,M
INS,2022-07-14 13:58,-115.6733,36.5872,955.00,82.00,40.50,22.99,0.00,0.00,0.00,30.01,1010.50,10.00,M,CLR,M,M,M,M,M,M,M,M,M,M,M,M,M,M,79.95,KINS 141358Z AUTO 00000KT 10SM CLR 28/05 A3001 RMK AO2 SLP105 T02770047 $,M
BAM,2022-07-14 14:15,-116.8743,40.5990,1382.36,M,M,M,250.00,3.00,0.00,30.12,M,10.00,M,CLR,M,M,M,M,M,M,M,M,M,M,M,M,M,M,M,KBAM 141415Z AUTO 25003KT 10SM CLR A3012 RMK AO1,M
HTH,2022-07-14 14:15,-118.6315,38.5448,1282.89,73.40,41.00,31.05,0.00,0.00,0.00,30.13,M,10.00,M,CLR,M,M,M,M,M,M,M,M,M,M,M,M,M,M,73.40,KHTH 141415Z AUTO 00000KT 10SM CLR 23/05 A3013 RMK A01,M
MEV,2022-07-14 14:15,-119.7500,38.9963,1441.42,57.20,37.40,47.44,0.00,0.00,0.00,30.17,M,10.00,M,CLR,M,M,M,M,M,M,M,M,M,M,M,M,M,M,57.20,KMEV 141415Z AUTO 00000KT 10SM CLR 14/03 A3017 RMK AO2,M
05U,2022-07-14 14:15,-116.0051,39.6042,1811.23,73.40,32.00,21.76,0.00,0.00,0.00,30.22,M,9.00,M,CLR,M,M,M,M,M,M,M,M,M,M,M,M,M,M,73.40,K05U 141415Z AUTO 00000KT 9SM CLR 23/M00 A3022 RMK A01,M
CXP,2022-07-14 14:15,-119.7326,39.1923,1431.00,62.60,35.60,36.45,0.00,0.00,0.00,30.18,M,10.00,M,CLR,M,M,M,M,M,M,M,M,M,M,M,M,M,M,62.60,KCXP 141415Z AUTO 00000KT 10SM CLR 17/02 A3018 RMK AO2,M
RTS,2022-07-14 14:15,-119.8764,39.6682,1539.00,59.00,33.80,38.56,0.00,0.00,0.00,30.19,M,10.00,M,CLR,M,M,M,M,M,M,M,M,M,M,M,M,M,M,59.00,KRTS 141415Z AUTO 00000KT 10SM CLR 15/01 A3019 RMK AO2,M
BVU,2022-07-14 14:15,-114.8611,35.9475,671.00,91.40,48.20,22.78,0.00,0.00,0.00,29.95,M,10.00,M,CLR,M,M,M,M,M,M,M,M,M,M,M,M,M,M,88.09,KBVU 141415Z AUTO 00000KT 10SM CLR 33/09 A2995 RMK AO2,M
BAM,2022-07-14 14:35,-116.8743,40.5990,1382.36,M,M,M,230.00,3.00,0.00,30.13,M,10.00,M,CLR,M,M,M,M,M,M,M,M,M,M,M,M,M,M,M,KBAM 141435Z AUTO 23003KT 10SM CLR A3013 RMK AO1,M
RTS,2022-07-14 14:35,-119.8764,39.6682,1539.00,60.80,35.60,38.85,0.00,0.00,0.00,30.19,M,10.00,M,CLR,M,M,M,M,M,M,M,M,M,M,M,M,M,M,60.80,KRTS 141435Z AUTO 00000KT 10SM CLR 16/02 A3019 RMK AO2,M
05U,2022-07-14 14:35,-116.0051,39.6042,1811.23,77.00,32.00,19.30,0.00,0.00,0.00,30.22,M,10.00,M,CLR,M,M,M,M,M,M,M,M,M,M,M,M,M,M,77.00,K05U 141435Z AUTO 00000KT 10SM CLR 25/00 A3022 RMK A01,M
HTH,2022-07-14 14:35,-118.6315,38.5448,1282.89,73.40,39.20,28.96,0.00,0.00,0.00,30.13,M,10.00,M,CLR,M,M,M,M,M,M,M,M,M,M,M,M,M,M,73.40,KHTH 141435Z AUTO 00000KT 10SM CLR 23/04 A3013 RMK A01,M
BVU,2022-07-14 14:35,-114.8611,35.9475,671.00,91.40,50.00,24.37,60.00,3.00,0.00,29.96,M,10.00,M,CLR,M,M,M,M,M,M,M,M,M,M,M,M,M,M,88.36,KBVU 141435Z AUTO 06003KT 10SM CLR 33/10 A2996 RMK AO2,M
MEV,2022-07-14 14:35,-119.7500,38.9963,1441.42,60.80,35.60,38.85,0.00,0.00,0.00,30.17,M,10.00,M,CLR,M,M,M,M,M,M,M,M,M,M,M,M,M,M,60.80,KMEV 141435Z AUTO 00000KT 10SM CLR 16/02 A3017 RMK AO2,M
CXP,2022-07-14 14:35,-119.7326,39.1923,1431.00,62.60,35.60,36.45,0.00,0.00,0.00,30.18,M,10.00,M,CLR,M,M,M,M,M,M,M,M,M,M,M,M,M,M,62.60,KCXP 141435Z AUTO 00000KT 10SM CLR 17/02 A3018 RMK AO2,M
DRA,2022-07-14 14:53,-116.0278,36.6206,1009.00,93.00,42.00,17.19,0.00,0.00,0.00,30.02,1010.40,10.00,M,CLR,M,M,M,M,M,M,M,M,M,M,M,M,M,M,88.93,KDRA 141453Z AUTO 00000KT 10SM CLR 34/06 A3002 RMK AO2 SLP104 T03390056 51012,M
VGT,2022-07-14 14:53,-115.1933,36.2111,667.00,95.00,49.00,20.92,30.00,3.00,0.00,29.94,1012.00,10.00,M,CLR,M,M,M,M,M,M,M,M,M,M,M,M,M,M,91.68,KVGT 141453Z 03003KT 10SM CLR 35/09 A2994 RMK AO2 SLP120 T03500094 51015,M
P68,2022-07-14 14:53,-116.0056,39.6014,1993.00,79.00,36.00,21.19,200.00,5.00,0.00,30.19,1011.80,M,M,M,M,M,M,M,M,M,M,M,M,M,M,M,M,M,79.00,KP68 141453Z AUTO 20005KT 26/02 A3019 RMK AO1 SLP118 T02610022 50001,M
LOL,2022-07-14 14:53,-118.5701,40.0684,1192.43,72.00,30.00,21.04,0.00,0.00,0.00,30.09,1014.20,10.00,M,CLR,M,M,M,M,M,M,M,M,M,M,M,M,M,M,72.00,KLOL 141453Z AUTO 00000KT 10SM CLR 22/M01 A3009 RMK AO2 SLP142 T02221011 51010,M
ELY,2022-07-14 14:53,-114.8453,39.2950,1909.00,79.00,42.00,26.89,210.00,10.00,0.00,30.26,1012.20,10.00,M,CLR,M,M,M,M,M,M,M,M,M,M,M,M,M,M,79.00,KELY 141453Z AUTO 21010KT 10SM CLR 26/06 A3026 RMK AO2 SLP122 T02610056 51006,M
HTH,2022-07-14 14:55,-118.6315,38.5448,1282.89,73.40,39.20,28.96,320.00,4.00,0.00,30.13,M,10.00,M,CLR,M,M,M,M,M,M,M,M,M,M,M,M,M,M,73.40,KHTH 141455Z AUTO 32004KT 10SM CLR 23/04 A3013 RMK A01,M
BAM,2022-07-14 14:55,-116.8743,40.5990,1382.36,M,M,M,0.00,0.00,0.00,30.12,M,10.00,M,CLR,M,M,M,M,M,M,M,M,M,M,M,M,M,M,M,KBAM 141455Z AUTO 00000KT 10SM CLR A3012 RMK AO1,M
CXP,2022-07-14 14:55,-119.7326,39.1923,1431.00,64.40,33.80,31.85,0.00,0.00,0.00,30.18,M,10.00,M,CLR,M,M,M,M,M,M,M,M,M,M,M,M,M,M,64.40,KCXP 141455Z AUTO 00000KT 10SM CLR 18/01 A3018 RMK AO2,M
BVU,2022-07-14 14:55,-114.8611,35.9475,671.00,93.20,50.00,23.04,50.00,3.00,0.00,29.96,M,10.00,M,CLR,M,M,M,M,M,M,M,M,M,M,M,M,M,M,90.10,KBVU 141455Z AUTO 05003KT 10SM CLR 34/10 A2996 RMK AO2,M
RNO,2022-07-14 14:55,-119.7711,39.4839,1341.00,68.00,37.00,31.92,310.00,3.00,0.00,30.14,1014.90,10.00,M,CLR,M,M,M,M,M,M,M,M,M,M,M,M,M,M,68.00,KRNO 141455Z 31003KT 10SM CLR 20/03 A3014 RMK AO2 SLP149 HZ ALQDS T02000028 50002,M
MEV,2022-07-14 14:55,-119.7500,38.9963,1441.42,64.40,33.80,31.85,0.00,0.00,0.00,30.17,M,10.00,M,CLR,M,M,M,M,M,M,M,M,M,M,M,M,M,M,64.40,KMEV 141455Z AUTO 00000KT 10SM CLR 18/01 A3017 RMK AO2,M
RTS,2022-07-14 14:55,-119.8764,39.6682,1539.00,64.40,35.60,34.22,0.00,0.00,0.00,30.18,M,10.00,M,CLR,M,M,M,M,M,M,M,M,M,M,M,M,M,M,64.40,KRTS 141455Z AUTO 00000KT 10SM CLR 18/02 A3018 RMK AO2,M
05U,2022-07-14 14:55,-116.0051,39.6042,1811.23,80.60,35.60,19.79,0.00,0.00,0.00,30.22,M,10.00,M,CLR,M,M,M,M,M,M,M,M,M,M,M,M,M,M,78.94,K05U 141455Z AUTO 00000KT 10SM CLR 27/02 A3022 RMK A01,M
TPH,2022-07-14 14:56,-117.0904,38.0505,1654.00,76.00,34.00,21.69,0.00,0.00,0.00,30.20,1012.80,10.00,M,CLR,M,M,M,M,M,M,M,M,M,M,M,M,M,M,75.90,KTPH 141456Z AUTO 00000KT 10SM CLR 24/01 A3020 RMK AO2 SLP128 T02440011 51009,M
NFL,2022-07-14 14:56,-118.7010,39.4166,1199.00,73.00,34.00,23.90,160.00,3.00,0.00,30.10,1015.90,10.00,M,CLR,M,M,M,M,M,M,M,M,M,M,M,M,M,M,73.00,KNFL 141456Z 16003KT 10SM CLR 23/01 A3010 RMK AO2 SLP159 FU ALOFT ALQDS T02280011 51008,M
WMC,2022-07-14 14:56,-117.8072,40.9019,1315.00,71.00,37.00,28.71,0.00,0.00,0.00,30.11,1013.90,10.00,M,CLR,M,M,M,M,M,M,M,M,M,M,M,M,M,M,71.10,KWMC 141456Z AUTO 00000KT 10SM CLR 22/03 A3011 RMK AO2 SLP139 T02170028 51009 TSNO,M
LAS,2022-07-14 14:56,-115.1634,36.0719,663.00,96.00,44.00,16.87,190.00,9.00,0.00,29.95,1010.70,10.00,M,SCT,BKN,M,M,15000.00,22000.00,M,M,M,M,M,M,M,M,M,92.05,KLAS 141456Z 19009KT 10SM SCT150 BKN220 36/07 A2995 RMK AO2 SLP107 ACC DSNT ALQDS T03560067 53015,M
HND,2022-07-14 14:56,-115.1344,35.9729,742.79,97.00,46.00,17.64,180.00,7.00,0.00,29.99,1013.30,10.00,M,CLR,M,M,M,M,M,M,M,M,M,M,M,M,M,M,93.19,KHND 141456Z 18007KT 10SM CLR 36/08 A2999 RMK AO2 SLP133 T03610078 53014,M
EKO,2022-07-14 14:56,-115.7860,40.8242,1367.00,76.00,39.00,26.42,60.00,4.00,0.00,30.15,1013.60,10.00,M,CLR,M,M,M,M,M,M,M,M,M,M,M,M,M,M,75.90,KEKO 141456Z AUTO 06004KT 10SM CLR 24/04 A3015 RMK AO2 SLP136 T02440039 51013,M
INS,2022-07-14 14:58,-115.6733,36.5872,955.00,88.20,39.20,17.86,0.00,0.00,0.00,30.02,1010.70,10.00,M,SCT,M,M,M,14000.00,M,M,M,M,M,M,M,M,M,M,84.55,KINS 141458Z AUTO 00000KT 10SM SCT140 31/04 A3002 RMK AO2 SLP107 T03120040 52011 $,M
LSV,2022-07-14 14:58,-115.0343,36.2362,570.00,96.30,48.60,19.87,0.00,0.00,0.00,29.92,1009.90,10.00,M,CLR,M,M,M,M,M,M,M,M,M,M,M,M,M,M,92.93,KLSV 141458Z AUTO 00000KT 10SM CLR 36/09 A2992 RMK AO2 SLP099 T03570092 52015 $,M
BVU,2022-07-14 15:15,-114.8611,35.9475,671.00,96.80,50.00,20.62,M,4.00,0.00,29.97,M,10.00,M,CLR,M,M,M,M,M,M,M,M,M,M,M,M,M,M,93.71,KBVU 141515Z AUTO VRB04KT 10SM CLR 36/10 A2997 RMK AO2,M
CXP,2022-07-14 15:15,-119.7326,39.1923,1431.00,66.20,33.80,29.92,0.00,0.00,0.00,30.18,M,10.00,M,CLR,M,M,M,M,M,M,M,M,M,M,M,M,M,M,66.20,KCXP 141515Z AUTO 00000KT 10SM CLR 19/01 A3018 RMK AO2,M
RTS,2022-07-14 15:15,-119.8764,39.6682,1539.00,66.20,35.60,32.14,0.00,0.00,0.00,30.18,M,10.00,M,CLR,M,M,M,M,M,M,M,M,M,M,M,M,M,M,66.20,KRTS 141515Z AUTO 00000KT 10SM CLR 19/02 A3018 RMK AO2,M
05U,2022-07-14 15:15,-116.0051,39.6042,1811.23,84.20,35.60,17.61,180.00,5.00,0.00,30.22,M,10.00,M,CLR,M,M,M,M,M,M,M,M,M,M,M,M,M,M,81.34,K05U 141515Z AUTO 18005KT 10SM CLR 29/02 A3022 RMK A01,M
MEV,2022-07-14 15:15,-119.7500,38.9963,1441.42,64.40,39.20,39.43,0.00,0.00,0.00,30.17,M,10.00,M,CLR,M,M,M,M,M,M,M,M,M,M,M,M,M,M,64.40,KMEV 141515Z AUTO 00000KT 10SM CLR 18/04 A3017 RMK AO2,M
BAM,2022-07-14 15:15,-116.8743,40.5990,1382.36,M,M,M,0.00,0.00,0.00,30.13,M,10.00,M,CLR,M,M,M,M,M,M,M,M,M,M,M,M,M,M,M,KBAM 141515Z AUTO 00000KT 10SM CLR A3013 RMK AO1,M
HTH,2022-07-14 15:15,-118.6315,38.5448,1282.89,75.20,35.60,23.66,310.00,3.00,0.00,30.13,M,10.00,M,CLR,M,M,M,M,M,M,M,M,M,M,M,M,M,M,75.20,KHTH 141515Z AUTO 31003KT 10SM CLR 24/02 A3013 RMK A01,M
MEV,2022-07-14 15:35,-119.7500,38.9963,1441.42,66.20,39.20,37.03,0.00,0.00,0.00,30.17,M,10.00,M,CLR,M,M,M,M,M,M,M,M,M,M,M,M,M,M,66.20,KMEV 141535Z AUTO 00000KT 10SM CLR 19/04 A3017 RMK AO2,M
05U,2022-07-14 15:35,-116.0051,39.6042,1811.23,86.00,33.80,15.48,0.00,0.00,0.00,30.22,M,10.00,M,CLR,M,M,M,M,M,M,M,M,M,M,M,M,M,M,82.66,K05U 141535Z AUTO 00000KT 10SM CLR 30/01 A3022 RMK A01,M
RTS,2022-07-14 15:35,-119.8764,39.6682,1539.00,68.00,35.60,30.20,0.00,0.00,0.00,30.18,M,10.00,M,CLR,M,M,M,M,M,M,M,M,M,M,M,M,M,M,68.00,KRTS 141535Z AUTO 00000KT 10SM CLR 20/02 A3018 RMK AO2,M
CXP,2022-07-14 15:35,-119.7326,39.1923,1431.00,68.00,33.80,28.11,0.00,0.00,0.00,30.18,M,10.00,M,CLR,M,M,M,M,M,M,M,M,M,M,M,M,M,M,68.00,KCXP 141535Z AUTO 00000KT 10SM CLR 20/01 A3018 RMK AO2,M
BVU,2022-07-14 15:35,-114.8611,35.9475,671.00,96.80,50.00,20.62,150.00,6.00,0.00,29.97,M,10.00,M,CLR,M,M,M,M,M,M,M,M,M,M,M,M,M,M,93.71,KBVU 141535Z AUTO 15006KT 10SM CLR 36/10 A2997 RMK AO2,M
HTH,2022-07-14 15:35,-118.6315,38.5448,1282.89,77.00,33.80,20.74,330.00,4.00,0.00,30.14,M,10.00,M,CLR,M,M,M,M,M,M,M,M,M,M,M,M,M,M,77.00,KHTH 141535Z AUTO 33004KT 10SM CLR 25/01 A3014 RMK A01,M
BAM,2022-07-14 15:35,-116.8743,40.5990,1382.36,M,M,M,0.00,0.00,0.00,30.13,M,7.00,M,CLR,M,M,M,M,M,M,M,M,M,M,M,M,M,M,M,KBAM 141535Z AUTO 00000KT 7SM CLR A3013 RMK AO1,M
CXP,2022-07-14 15:50,-119.7326,39.1923,1431.00,69.80,33.80,26.43,0.00,0.00,0.00,30.18,M,10.00,M,CLR,M,M,M,M,M,M,M,M,M,M,M,M,M,M,69.80,KCXP 141550Z AUTO 00000KT 10SM CLR 21/01 A3018 RMK AO2,M
ELY,2022-07-14 15:53,-114.8453,39.2950,1909.00,84.00,40.00,20.99,170.00,11.00,0.00,30.27,1012.20,10.00,M,CLR,M,M,M,M,M,M,M,M,M,M,M,M,M,M,81.33,KELY 141553Z AUTO 17011KT 10SM CLR 29/04 A3027 RMK AO2 SLP122 T02890044,M
DRA,2022-07-14 15:53,-116.0278,36.6206,1009.00,94.00,46.00,19.40,180.00,12.00,0.00,30.03,1010.70,10.00,M,CLR,M,M,M,M,M,M,M,M,M,M,M,M,M,M,90.17,KDRA 141553Z AUTO 18012KT 10SM CLR 34/08 A3003 RMK AO2 SLP107 T03440078,M
P68,2022-07-14 15:53,-116.0056,39.6014,1993.00,85.00,34.00,16.16,260.00,8.00,0.00,30.20,1012.50,M,M,M,M,M,M,M,M,M,M,M,M,M,M,M,M,M,81.82,KP68 141553Z AUTO 26008KT 29/01 A3020 RMK AO1 SLP125 T02940011,M
LOL,2022-07-14 15:53,-118.5701,40.0684,1192.43,78.00,30.90,17.80,290.00,3.00,0.00,30.09,1014.20,10.00,M,CLR,M,M,M,M,M,M,M,M,M,M,M,M,M,M,78.10,KLOL 141553Z AUTO 29003KT 10SM CLR 26/M01 A3009 RMK AO2 SLP142 T02561006,M
VGT,2022-07-14 15:53,-115.1933,36.2111,667.00,99.00,46.00,16.60,0.00,0.00,0.00,29.95,1012.40,10.00,M,CLR,M,M,M,M,M,M,M,M,M,M,M,M,M,M,95.17,KVGT 141553Z 00000KT 10SM CLR 37/08 A2995 RMK AO2 SLP124 T03720078,M
RTS,2022-07-14 15:55,-119.8764,39.6682,1539.00,71.60,35.60,26.71,0.00,0.00,0.00,30.19,M,10.00,M,CLR,M,M,M,M,M,M,M,M,M,M,M,M,M,M,71.60,KRTS 141555Z AUTO 00000KT 10SM CLR 22/02 A3019 RMK AO2,M
RNO,2022-07-14 15:55,-119.7711,39.4839,1341.00,72.00,37.00,27.85,0.00,0.00,0.00,30.14,1014.90,10.00,M,CLR,M,M,M,M,M,M,M,M,M,M,M,M,M,M,72.00,KRNO 141555Z 00000KT 10SM CLR 22/03 A3014 RMK AO2 SLP149 HZ ALQDS T02220028,M
BVU,2022-07-14 15:55,-114.8611,35.9475,671.00,98.60,51.80,20.87,150.00,11.00,0.00,29.97,M,10.00,M,CLR,M,M,M,M,M,M,M,M,M,M,M,M,M,M,96.00,KBVU 141555Z AUTO 15011KT 10SM CLR 37/11 A2997 RMK AO2,M
05U,2022-07-14 15:55,-116.0051,39.6042,1811.23,86.00,32.00,14.40,250.00,5.00,0.00,30.23,M,10.00,10.00,CLR,M,M,M,M,M,M,M,M,M,M,M,M,M,M,82.64,K05U 141555Z AUTO 25005G10KT 10SM CLR 30/00 A3023 RMK A01,M
MEV,2022-07-14 15:55,-119.7500,38.9963,1441.42,68.00,37.40,32.43,0.00,0.00,0.00,30.17,M,10.00,M,CLR,M,M,M,M,M,M,M,M,M,M,M,M,M,M,68.00,KMEV 141555Z AUTO 00000KT 10SM CLR 20/03 A3017 RMK AO2,M
BAM,2022-07-14 15:55,-116.8743,40.5990,1382.36,M,M,M,0.00,0.00,0.00,30.13,M,10.00,M,CLR,M,M,M,M,M,M,M,M,M,M,M,M,M,M,M,KBAM 141555Z AUTO 00000KT 10SM CLR A3013 RMK AO1,M
HTH,2022-07-14 15:55,-118.6315,38.5448,1282.89,77.00,32.00,19.30,330.00,4.00,0.00,30.14,M,10.00,M,CLR,M,M,M,M,M,M,M,M,M,M,M,M,M,M,77.00,KHTH 141555Z AUTO 33004KT 10SM CLR 25/M00 A3014 RMK A01,M
TPH,2022-07-14 15:56,-117.0904,38.0505,1654.00,81.00,35.00,19.15,0.00,0.00,0.00,30.20,1013.00,10.00,M,CLR,M,M,M,M,M,M,M,M,M,M,M,M,M,M,79.17,KTPH 141556Z AUTO 00000KT 10SM CLR 27/02 A3020 RMK AO2 SLP130 T02720017,M
HND,2022-07-14 15:56,-115.1344,35.9729,742.79,99.00,48.00,17.90,180.00,8.00,0.00,30.00,1013.50,10.00,M,CLR,M,M,M,M,M,M,M,M,M,M,M,M,M,M,95.54,KHND 141556Z 18008KT 10SM CLR 37/09 A3000 RMK AO2 SLP135 T03720089,M
NFL,2022-07-14 15:56,-118.7010,39.4166,1199.00,79.00,32.00,18.06,260.00,5.00,0.00,30.10,1015.90,10.00,M,SCT,M,M,M,15000.00,M,M,M,M,M,M,M,M,M,M,79.00,KNFL 141556Z 26005KT 10SM SCT150 26/00 A3010 RMK AO2 SLP159 FU SCT150 T02610000,M
EKO,2022-07-14 15:56,-115.7860,40.8242,1367.00,82.00,34.00,17.74,0.00,0.00,0.00,30.15,1013.70,10.00,M,CLR,M,M,M,M,M,M,M,M,M,M,M,M,M,M,79.77,KEKO 141556Z AUTO 00000KT 10SM CLR 28/01 A3015 RMK AO2 SLP137 T02780011,M
LAS,2022-07-14 15:56,-115.1634,36.0719,663.00,100.00,46.00,16.10,170.00,7.00,0.00,29.96,1010.90,10.00,M,SCT,BKN,M,M,15000.00,22000.00,M,M,M,M,M,M,M,M,M,96.16,KLAS 141556Z 17007KT 10SM SCT150 BKN220 38/08 A2996 RMK AO2 SLP109 ACC DSNT NE AND SW-NW T03780078,M
WMC,2022-07-14 15:56,-117.8072,40.9019,1315.00,81.00,33.00,17.68,300.00,3.00,0.00,30.11,1013.70,10.00,M,CLR,M,M,M,M,M,M,M,M,M,M,M,M,M,M,79.10,KWMC 141556Z AUTO 30003KT 10SM CLR 27/01 A3011 RMK AO2 SLP137 T02720006 TSNO,M
LSV,2022-07-14 15:58,-115.0343,36.2362,570.00,105.80,46.80,13.96,0.00,0.00,0.00,29.92,1009.70,10.00,M,FEW,M,M,M,14000.00,M,M,M,M,M,M,M,M,M,M,102.08,KLSV 141558Z AUTO 00000KT 10SM FEW140 41/08 A2992 RMK AO2 SLP097 T04100082 $,M
INS,2022-07-14 15:58,-115.6733,36.5872,955.00,93.70,39.00,14.92,80.00,4.00,0.00,30.02,1010.50,10.00,M,OVC,M,M,M,14000.00,M,M,M,M,M,M,M,M,M,M,89.36,KINS 141558Z AUTO 08004KT 10SM OVC140 34/04 A3002 RMK AO2 SLP105 T03430039 $,M
CXP,2022-07-14 16:15,-119.7326,39.1923,1431.00,71.60,32.00,23.13,0.00,0.00,0.00,30.18,M,10.00,M,CLR,M,M,M,M,M,M,M,M,M,M,M,M,M,M,71.60,KCXP 141615Z AUTO 00000KT 10SM CLR 22/00 A3018 RMK AO2,M
HTH,2022-07-14 16:15,-118.6315,38.5448,1282.89,78.80,28.40,15.71,350.00,6.00,0.00,30.13,M,10.00,M,CLR,M,M,M,M,M,M,M,M,M,M,M,M,M,M,78.80,KHTH 141615Z AUTO 35006KT 10SM CLR 26/M02 A3013 RMK A01,M
BAM,2022-07-14 16:15,-116.8743,40.5990,1382.36,M,M,M,0.00,0.00,0.00,30.13,M,10.00,M,CLR,M,M,M,M,M,M,M,M,M,M,M,M,M,M,M,KBAM 141615Z AUTO 00000KT 10SM CLR A3013 RMK AO1,M
MEV,2022-07-14 16:15,-119.7500,38.9963,1441.42,71.60,37.40,28.68,0.00,0.00,0.00,30.17,M,10.00,M,CLR,M,M,M,M,M,M,M,M,M,M,M,M,M,M,71.60,KMEV 141615Z AUTO 00000KT 10SM CLR 22/03 A3017 RMK AO2,M
05U,2022-07-14 16:15,-116.0051,39.6042,1811.23,87.80,32.00,13.59,0.00,0.00,0.00,30.23,M,10.00,M,CLR,M,M,M,M,M,M,M,M,M,M,M,M,M,M,84.08,K05U 141615Z AUTO 00000KT 10SM CLR 31/00 A3023 RMK A01,M
RTS,2022-07-14 16:15,-119.8764,39.6682,1539.00,71.60,35.60,26.71,130.00,4.00,0.00,30.19,M,10.00,M,CLR,M,M,M,M,M,M,M,M,M,M,M,M,M,M,71.60,KRTS 141615Z AUTO 13004KT 10SM CLR 22/02 A3019 RMK AO2,M
BVU,2022-07-14 16:15,-114.8611,35.9475,671.00,100.40,51.80,19.76,170.00,14.00,0.00,29.96,M,10.00,M,CLR,M,M,M,M,M,M,M,M,M,M,M,M,M,M,97.90,KBVU 141615Z AUTO 17014KT 10SM CLR 38/11 A2996 RMK AO2,M
MEV,2022-07-14 16:35,-119.7500,38.9963,1441.42,73.40,35.60,25.13,0.00,0.00,0.00,30.16,M,10.00,M,CLR,M,M,M,M,M,M,M,M,M,M,M,M,M,M,73.40,KMEV 141635Z AUTO 00000KT 10SM CLR 23/02 A3016 RMK AO2,M
BAM,2022-07-14 16:35,-116.8743,40.5990,1382.36,M,M,M,10.00,4.00,0.00,30.13,M,10.00,M,CLR,M,M,M,M,M,M,M,M,M,M,M,M,M,M,M,KBAM 141635Z AUTO 01004KT 10SM CLR A3013 RMK AO1,M
HTH,2022-07-14 16:35,-118.6315,38.5448,1282.89,80.60,28.40,14.81,290.00,3.00,0.00,30.13,M,10.00,M,CLR,M,M,M,M,M,M,M,M,M,M,M,M,M,M,78.72,KHTH 141635Z AUTO 29003KT 10SM CLR 27/M02 A3013 RMK A01,M
CXP,2022-07-14 16:35,-119.7326,39.1923,1431.00,73.40,33.80,23.39,0.00,0.00,0.00,30.17,M,10.00,M,CLR,M,M,M,M,M,M,M,M,M,M,M,M,M,M,73.40,KCXP 141635Z AUTO 00000KT 10SM CLR 23/01 A3017 RMK AO2,M
BVU,2022-07-14 16:35,-114.8611,35.9475,671.00,100.40,53.60,21.11,150.00,13.00,0.00,29.96,M,10.00,19.00,CLR,M,M,M,M,M,M,M,M,M,M,M,M,M,M,98.44,KBVU 141635Z AUTO 15013G19KT 10SM CLR 38/12 A2996 RMK AO2,M
RTS,2022-07-14 16:35,-119.8764,39.6682,1539.00,75.20,32.00,20.49,120.00,5.00,0.00,30.19,M,10.00,M,CLR,M,M,M,M,M,M,M,M,M,M,M,M,M,M,75.20,KRTS 141635Z AUTO 12005KT 10SM CLR 24/M00 A3019 RMK AO2,M
05U,2022-07-14 16:35,-116.0051,39.6042,1811.23,89.60,33.80,13.80,0.00,0.00,0.00,30.23,M,10.00,M,CLR,M,M,M,M,M,M,M,M,M,M,M,M,M,M,85.59,K05U 141635Z AUTO 00000KT 10SM CLR 32/01 A3023 RMK A01,M
DRA,2022-07-14 16:53,-116.0278,36.6206,1009.00,96.00,46.00,18.13,210.00,12.00,0.00,30.03,1010.90,10.00,19.00,CLR,M,M,M,M,M,M,M,M,M,M,M,M,M,M,92.30,KDRA 141653Z AUTO 21012G19KT 10SM CLR 36/08 A3003 RMK AO2 SLP109 T03560078,M
VGT,2022-07-14 16:53,-115.1933,36.2111,667.00,103.00,47.00,15.27,130.00,9.00,0.00,29.94,1012.00,10.00,15.00,CLR,M,M,M,M,M,M,M,M,M,M,M,M,M,M,99.23,KVGT 141653Z 13009G15KT 10SM CLR 39/08 A2994 RMK AO2 SLP120 T03940083,M
P68,2022-07-14 16:53,-116.0056,39.6014,1993.00,86.00,33.00,15.05,M,4.00,0.00,30.20,1012.50,M,M,M,M,M,M,M,M,M,M,M,M,M,M,M,M,M,82.65,KP68 141653Z AUTO VRB04KT 30/01 A3020 RMK AO1 SLP125 T03000006,M
LOL,2022-07-14 16:53,-118.5701,40.0684,1192.43,84.00,28.90,13.53,0.00,0.00,0.00,30.08,1013.50,10.00,M,CLR,M,M,M,M,M,M,M,M,M,M,M,M,M,M,81.10,KLOL 141653Z AUTO 00000KT 10SM CLR 29/M02 A3008 RMK AO2 SLP135 T02891017,M
ELY,2022-07-14 16:53,-114.8453,39.2950,1909.00,86.00,40.00,19.68,M,5.00,0.00,30.26,1011.90,10.00,M,CLR,M,M,M,M,M,M,M,M,M,M,M,M,M,M,82.81,KELY 141653Z AUTO VRB05KT 10SM CLR 30/04 A3026 RMK AO2 SLP119 T03000044,M
RNO,2022-07-14 16:55,-119.7711,39.4839,1341.00,78.00,37.00,22.71,0.00,0.00,0.00,30.13,1014.20,10.00,M,CLR,M,M,M,M,M,M,M,M,M,M,M,M,M,M,78.10,KRNO 141655Z 00000KT 10SM CLR 26/03 A3013 RMK AO2 SLP142 HZ ALQDS T02560028,M
CXP,2022-07-14 16:55,-119.7326,39.1923,1431.00,75.20,33.80,22.02,0.00,0.00,0.00,30.17,M,10.00,M,CLR,M,M,M,M,M,M,M,M,M,M,M,M,M,M,75.20,KCXP 141655Z AUTO 00000KT 10SM CLR 24/01 A3017 RMK AO2,M
RTS,2022-07-14 16:55,-119.8764,39.6682,1539.00,75.20,32.00,20.49,M,4.00,0.00,30.18,M,10.00,M,CLR,M,M,M,M,M,M,M,M,M,M,M,M,M,M,75.20,KRTS 141655Z AUTO VRB04KT 10SM CLR 24/00 A3018 RMK AO2,M
05U,2022-07-14 16:55,-116.0051,39.6042,1811.23,89.60,33.80,13.80,0.00,0.00,0.00,30.23,M,10.00,M,CLR,M,M,M,M,M,M,M,M,M,M,M,M,M,M,85.59,K05U 141655Z AUTO 00000KT 10SM CLR 32/01 A3023 RMK A01,M
MEV,2022-07-14 16:55,-119.7500,38.9963,1441.42,75.20,33.80,22.02,0.00,0.00,0.00,30.15,M,10.00,M,CLR,M,M,M,M,M,M,M,M,M,M,M,M,M,M,75.20,KMEV 141655Z AUTO 00000KT 10SM CLR 24/01 A3015 RMK AO2,M
TMT,2022-07-14 16:55,-117.1971,39.4643,1749.34,81.00,33.00,17.48,0.00,0.00,0.00,30.22,M,10.00,M,CLR,M,M,M,M,M,M,M,M,M,M,M,M,M,M,79.16,KTMT 141655Z AUTO 00000KT 10SM CLR 27/01 A3022 RMK AO2 T02730005,M
BAM,2022-07-14 16:55,-116.8743,40.5990,1382.36,M,M,M,0.00,0.00,0.00,30.12,M,10.00,M,CLR,M,M,M,M,M,M,M,M,M,M,M,M,M,M,M,KBAM 141655Z AUTO 00000KT 10SM CLR A3012 RMK AO1,M
HTH,2022-07-14 16:55,-118.6315,38.5448,1282.89,80.60,28.40,14.81,350.00,4.00,0.00,30.12,M,10.00,M,CLR,M,M,M,M,M,M,M,M,M,M,M,M,M,M,78.72,KHTH 141655Z AUTO 35004KT 10SM CLR 27/M02 A3012 RMK A01,M
BVU,2022-07-14 16:55,-114.8611,35.9475,671.00,100.40,55.40,22.54,150.00,16.00,0.00,29.97,M,10.00,M,CLR,M,M,M,M,M,M,M,M,M,M,M,M,M,M,99.06,KBVU 141655Z AUTO 15016KT 10SM CLR 38/13 A2997 RMK AO2,M
EKO,2022-07-14 16:56,-115.7860,40.8242,1367.00,86.00,30.00,13.28,200.00,3.00,0.00,30.14,1013.30,10.00,M,CLR,M,M,M,M,M,M,M,M,M,M,M,M,M,M,82.64,KEKO 141656Z AUTO 20003KT 10SM CLR 30/M01 A3014 RMK AO2 SLP133 T03001011,M
LAS,2022-07-14 16:56,-115.1634,36.0719,663.00,102.00,51.00,18.35,180.00,10.00,0.00,29.95,1010.70,10.00,M,SCT,BKN,M,M,15000.00,22000.00,M,M,M,M,M,M,M,M,M,99.38,KLAS 141656Z 18010KT 10SM SCT150 BKN220 39/11 A2995 RMK AO2 SLP107 ACC DSNT NE AND SW-NW T03890106,M
WMC,2022-07-14 16:56,-117.8072,40.9019,1315.00,86.00,34.00,15.60,350.00,5.00,0.00,30.10,1013.10,10.00,M,CLR,M,M,M,M,M,M,M,M,M,M,M,M,M,M,82.66,KWMC 141656Z AUTO 35005KT 10SM CLR 30/01 A3010 RMK AO2 SLP131 T03000011 TSNO,M
HND,2022-07-14 16:56,-115.1344,35.9729,742.79,102.00,53.00,19.75,150.00,7.00,0.00,30.00,1013.30,10.00,M,CLR,M,M,M,M,M,M,M,M,M,M,M,M,M,M,100.00,KHND 141656Z 15007KT 10SM CLR 39/12 A3000 RMK AO2 SLP133 T03890117,M
NFL,2022-07-14 16:56,-118.7010,39.4166,1199.00,83.00,33.00,16.62,M,4.00,0.00,30.09,1015.70,10.00,M,CLR,M,M,M,M,M,M,M,M,M,M,M,M,M,M,80.36,KNFL 141656Z VRB04KT 10SM CLR 28/01 A3009 RMK AO2 SLP157 FU ALOFT DSNT SE-S T02830006,M
TPH,2022-07-14 16:56,-117.0904,38.0505,1654.00,85.00,37.00,18.20,180.00,7.00,0.00,30.20,1013.20,10.00,M,CLR,M,M,M,M,M,M,M,M,M,M,M,M,M,M,81.88,KTPH 141656Z AUTO 18007KT 10SM CLR 29/03 A3020 RMK AO2 SLP132 T02940028,M
LSV,2022-07-14 16:58,-115.0343,36.2362,570.00,105.60,48.40,14.91,140.00,9.00,0.00,29.92,1009.80,10.00,M,CLR,M,M,M,M,M,M,M,M,M,M,M,M,M,M,102.31,KLSV 141658Z AUTO 14009KT 10SM CLR 41/09 A2992 RMK AO2 SLP098 T04090091 $,M
BAM,2022-07-14 17:15,-116.8743,40.5990,1382.36,M,M,M,0.00,0.00,0.00,30.12,M,10.00,M,CLR,M,M,M,M,M,M,M,M,M,M,M,M,M,M,M,KBAM 141715Z AUTO 00000KT 10SM CLR A3012 RMK AO1,M
RTS,2022-07-14 17:15,-119.8764,39.6682,1539.00,77.00,30.20,17.94,M,4.00,0.00,30.18,M,10.00,M,CLR,M,M,M,M,M,M,M,M,M,M,M,M,M,M,77.00,KRTS 141715Z AUTO VRB04KT 10SM CLR 25/M01 A3018 RMK AO2,M
TMT,2022-07-14 17:15,-117.1971,39.4643,1749.34,82.60,33.40,16.99,0.00,0.00,0.00,30.21,M,10.00,M,CLR,M,M,M,M,M,M,M,M,M,M,M,M,M,M,80.16,KTMT 141715Z AUTO 00000KT 10SM CLR 28/01 A3021 RMK AO2 T02810008,M
05U,2022-07-14 17:15,-116.0051,39.6042,1811.23,91.40,33.80,13.05,0.00,0.00,0.00,30.23,M,10.00,M,CLR,M,M,M,M,M,M,M,M,M,M,M,M,M,M,87.13,K05U 141715Z AUTO 00000KT 10SM CLR 33/01 A3023 RMK A01,M
BVU,2022-07-14 17:15,-114.8611,35.9475,671.00,100.40,53.60,21.11,140.00,14.00,0.00,29.97,M,10.00,20.00,CLR,M,M,M,M,M,M,M,M,M,M,M,M,M,M,98.44,KBVU 141715Z AUTO 14014G20KT 10SM CLR 38/12 A2997 RMK AO2,M
CXP,2022-07-14 17:15,-119.7326,39.1923,1431.00,77.00,33.80,20.74,300.00,4.00,0.00,30.17,M,10.00,M,CLR,M,M,M,M,M,M,M,M,M,M,M,M,M,M,77.00,KCXP 141715Z AUTO 30004KT 10SM CLR 25/01 A3017 RMK AO2,M
MEV,2022-07-14 17:15,-119.7500,38.9963,1441.42,77.00,33.80,20.74,0.00,0.00,0.00,30.15,M,10.00,M,CLR,M,M,M,M,M,M,M,M,M,M,M,M,M,M,77.00,KMEV 141715Z AUTO 00000KT 10SM CLR 25/01 A3015 RMK AO2,M
HTH,2022-07-14 17:15,-118.6315,38.5448,1282.89,82.40,24.80,12.03,M,5.00,0.00,30.12,M,10.00,M,CLR,M,M,M,M,M,M,M,M,M,M,M,M,M,M,79.79,KHTH 141715Z AUTO VRB05KT 10SM CLR 28/M04 A3012 RMK A01,M
BAM,2022-07-14 17:35,-116.8743,40.5990,1382.36,M,M,M,0.00,0.00,0.00,30.12,M,10.00,M,CLR,M,M,M,M,M,M,M,M,M,M,M,M,M,M,M,KBAM 141735Z AUTO 00000KT 10SM CLR A3012 RMK AO1,M
BVU,2022-07-14 17:35,-114.8611,35.9475,671.00,102.20,53.60,20.00,180.00,13.00,0.00,29.96,M,10.00,M,CLR,M,M,M,M,M,M,M,M,M,M,M,M,M,M,100.38,KBVU 141735Z AUTO 18013KT 10SM CLR 39/12 A2996 RMK AO2,M
CXP,2022-07-14 17:35,-119.7326,39.1923,1431.00,78.80,33.80,19.55,0.00,0.00,0.00,30.16,M,10.00,M,CLR,M,M,M,M,M,M,M,M,M,M,M,M,M,M,78.80,KCXP 141735Z AUTO 00000KT 10SM CLR 26/01 A3016 RMK AO2,M
RTS,2022-07-14 17:35,-119.8764,39.6682,1539.00,78.80,28.40,15.71,160.00,4.00,0.00,30.18,M,10.00,M,CLR,M,M,M,M,M,M,M,M,M,M,M,M,M,M,78.80,KRTS 141735Z AUTO 16004KT 10SM CLR 26/M02 A3018 RMK AO2,M
05U,2022-07-14 17:35,-116.0051,39.6042,1811.23,91.40,33.80,13.05,0.00,0.00,0.00,30.23,M,10.00,M,CLR,M,M,M,M,M,M,M,M,M,M,M,M,M,M,87.13,K05U 141735Z AUTO 00000KT 10SM CLR 33/01 A3023 RMK A01,M
MEV,2022-07-14 17:35,-119.7500,38.9963,1441.42,78.80,33.80,19.55,0.00,0.00,0.00,30.15,M,10.00,M,CLR,M,M,M,M,M,M,M,M,M,M,M,M,M,M,78.80,KMEV 141735Z AUTO 00000KT 10SM CLR 26/01 A3015 RMK AO2,M
HTH,2022-07-14 17:35,-118.6315,38.5448,1282.89,84.20,24.80,11.35,360.00,6.00,0.00,30.11,M,10.00,M,CLR,M,M,M,M,M,M,M,M,M,M,M,M,M,M,81.00,KHTH 141735Z AUTO 36006KT 10SM CLR 29/M04 A3011 RMK A01,M
TMT,2022-07-14 17:35,-117.1971,39.4643,1749.34,84.60,34.00,16.32,280.00,4.00,0.00,30.21,M,7.00,M,CLR,M,M,M,M,M,M,M,M,M,M,M,M,M,M,81.60,KTMT 141735Z AUTO 28004KT 7SM CLR 29/01 A3021 RMK AO2 T02920011,M
CXP,2022-07-14 17:50,-119.7326,39.1923,1431.00,80.60,33.80,18.42,0.00,0.00,0.00,30.15,M,10.00,M,CLR,M,M,M,M,M,M,M,M,M,M,M,M,M,M,78.88,KCXP 141750Z AUTO 00000KT 10SM CLR 27/01 A3015 RMK AO2,M
VGT,2022-07-14 17:53,-115.1933,36.2111,667.00,106.00,50.00,15.64,160.00,13.00,0.00,29.94,1011.70,10.00,20.00,CLR,M,M,M,M,M,M,M,M,M,M,M,M,M,M,103.18,KVGT 141753Z 16013G20KT 10SM CLR 41/10 A2994 RMK AO2 SLP117 T04110100 10411 20322 58002,M
ELY,2022-07-14 17:53,-114.8453,39.2950,1909.00,87.00,42.00,20.70,210.00,10.00,0.00,30.26,1012.00,10.00,28.00,CLR,M,M,M,M,M,M,M,M,M,M,M,28.00,230.00,2022-07-14 17:18,83.79,KELY 141753Z AUTO 21010G28KT 10SM CLR 31/06 A3026 RMK AO2 PK WND 23028/1718 SLP120 T03060056 10317 20172 50000,M
P68,2022-07-14 17:53,-116.0056,39.6014,1993.00,89.00,34.00,14.14,180.00,8.00,0.00,30.19,1012.20,M,17.00,M,M,M,M,M,M,M,M,M,M,M,M,M,M,M,85.17,KP68 141753Z AUTO 18008G17KT 140V210 32/01 A3019 RMK AO1 SLP122 T03170011 10322 20128,M
LOL,2022-07-14 17:53,-118.5701,40.0684,1192.43,87.00,24.10,10.05,M,3.00,0.00,30.08,1013.40,10.00,M,CLR,M,M,M,M,M,M,M,M,M,M,M,M,M,M,83.00,KLOL 141753Z AUTO VRB03KT 10SM CLR 31/M04 A3008 RMK AO2 SLP134 T03061044 10306 20100 58004,M
DRA,2022-07-14 17:53,-116.0278,36.6206,1009.00,99.00,46.00,16.60,210.00,13.00,0.00,30.03,1010.80,10.00,20.00,CLR,M,M,M,M,M,M,M,M,M,M,M,M,M,M,95.17,KDRA 141753Z AUTO 21013G20KT 10SM CLR 37/08 A3003 RMK AO2 SLP108 T03720078 10378 20278 51004,M
RTS,2022-07-14 17:55,-119.8764,39.6682,1539.00,80.60,28.40,14.81,170.00,5.00,0.00,30.18,M,10.00,M,CLR,M,M,M,M,M,M,M,M,M,M,M,M,M,M,78.72,KRTS 141755Z AUTO 17005KT 10SM CLR 27/M02 A3018 RMK AO2,M
BAM,2022-07-14 17:55,-116.8743,40.5990,1382.36,M,M,M,330.00,3.00,0.00,30.12,M,10.00,M,CLR,M,M,M,M,M,M,M,M,M,M,M,M,M,M,M,KBAM 141755Z AUTO 33003KT 10SM CLR A3012 RMK AO1,M
HTH,2022-07-14 17:55,-118.6315,38.5448,1282.89,86.00,24.80,10.72,290.00,4.00,0.00,30.11,M,10.00,M,CLR,M,M,M,M,M,M,M,M,M,M,M,M,M,M,82.26,KHTH 141755Z AUTO 29004KT 10SM CLR 30/M04 A3011 RMK A01,M
TMT,2022-07-14 17:55,-117.1971,39.4643,1749.34,85.80,35.00,16.40,310.00,5.00,0.00,30.20,M,10.00,M,CLR,M,M,M,M,M,M,M,M,M,M,M,M,M,M,82.53,KTMT 141755Z AUTO 31005KT 10SM CLR 30/02 A3020 RMK AO2 T02990017 10299 20065,M
RNO,2022-07-14 17:55,-119.7711,39.4839,1341.00,84.00,36.00,18.01,M,5.00,0.00,30.12,1013.50,10.00,M,CLR,M,M,M,M,M,M,M,M,M,M,M,M,M,M,81.20,KRNO 141755Z VRB05KT 10SM CLR 29/02 A3012 RMK AO2 SLP135 HZ ALQDS T02890022 10294 20167 58007,M
BVU,2022-07-14 17:55,-114.8611,35.9475,671.00,102.20,53.60,20.00,140.00,16.00,0.00,29.96,M,10.00,22.00,CLR,M,M,M,M,M,M,M,M,M,M,M,M,M,M,100.38,KBVU 141755Z AUTO 14016G22KT 10SM CLR 39/12 A2996 RMK AO2,M
05U,2022-07-14 17:55,-116.0051,39.6042,1811.23,93.20,33.80,12.34,190.00,10.00,0.00,30.22,M,10.00,M,CLR,M,M,M,M,M,M,M,M,M,M,M,M,M,M,88.55,K05U 141755Z AUTO 19010KT 10SM CLR 34/01 A3022 RMK A01,M
MEV,2022-07-14 17:55,-119.7500,38.9963,1441.42,80.60,33.80,18.42,0.00,0.00,0.00,30.14,M,10.00,M,CLR,M,M,M,M,M,M,M,M,M,M,M,M,M,M,78.88,KMEV 141755Z AUTO 00000KT 10SM CLR 27/01 A3014 RMK AO2,M
WMC,2022-07-14 17:56,-117.8072,40.9019,1315.00,90.00,33.00,13.26,M,5.00,0.00,30.10,1013.40,10.00,M,CLR,M,M,M,M,M,M,M,M,M,M,M,M,M,M,85.92,KWMC 141756Z AUTO VRB05KT 10SM CLR 32/01 A3010 RMK AO2 SLP134 T03220006 10322 20117 58004 TSNO,M
NFL,2022-07-14 17:56,-118.7010,39.4166,1199.00,87.00,28.90,12.26,320.00,4.00,0.00,30.08,1015.50,10.00,M,CLR,M,M,M,M,M,M,M,M,M,M,M,M,M,M,83.37,KNFL 141756Z 32004KT 10SM CLR 31/M02 A3008 RMK AO2 SLP155 T03061017 10306 20133 58004,M
TPH,2022-07-14 17:56,-117.0904,38.0505,1654.00,89.00,39.00,17.22,200.00,12.00,0.00,30.20,1012.90,10.00,20.00,CLR,M,M,M,M,M,M,M,M,M,M,M,M,M,M,85.30,KTPH 141756Z AUTO 20012G20KT 10SM CLR 32/04 A3020 RMK AO2 SLP129 T03170039 10322 20150 50000,M
EKO,2022-07-14 17:56,-115.7860,40.8242,1367.00,91.00,30.90,11.76,M,5.00,0.00,30.13,1013.00,10.00,M,CLR,M,M,M,M,M,M,M,M,M,M,M,M,M,M,86.48,KEKO 141756Z AUTO VRB05KT 10SM CLR 33/M01 A3013 RMK AO2 SLP130 T03281006 10328 20150 58004,M
HND,2022-07-14 17:56,-115.1344,35.9729,742.79,104.00,54.00,19.23,220.00,13.00,0.00,29.99,1013.10,10.00,M,CLR,M,M,M,M,M,M,M,M,M,M,M,M,M,M,102.46,KHND 141756Z 22013KT 10SM CLR 40/12 A2999 RMK AO2 SLP131 T04000122 10400 20311 58001,M
LAS,2022-07-14 17:56,-115.1634,36.0719,663.00,103.00,51.00,17.86,160.00,9.00,0.00,29.96,1010.80,10.00,18.00,FEW,SCT,BKN,M,13000.00,15000.00,22000.00,M,M,M,M,M,M,M,M,100.32,KLAS 141756Z 16009G18KT 10SM FEW130 SCT150 BKN220 39/11 A2996 RMK AO2 SLP108 T03940106 10400 20333 51002,M
INS,2022-07-14 17:58,-115.6733,36.5872,955.00,98.40,41.00,13.96,60.00,8.00,0.00,30.02,1010.50,10.00,M,CLR,M,M,M,M,M,M,M,M,M,M,M,M,M,M,93.90,KINS 141758Z AUTO 06008KT 10SM CLR 37/05 A3002 RMK AO2 SLP105 T03690050 10369 20250 50000 $,M
LSV,2022-07-14 17:58,-115.0343,36.2362,570.00,105.80,48.60,14.93,160.00,7.00,0.00,29.92,1009.80,10.00,M,FEW,M,M,M,20000.00,M,M,M,M,M,M,M,M,M,M,102.56,KLSV 141758Z AUTO 16007KT 10SM FEW200 41/09 A2992 RMK AO2 SLP098 T04100092 10422 20323 50000 $,M
CXP,2022-07-14 18:15,-119.7326,39.1923,1431.00,82.40,30.20,15.03,0.00,0.00,0.00,30.15,M,10.00,M,CLR,M,M,M,M,M,M,M,M,M,M,M,M,M,M,79.97,KCXP 141815Z AUTO 00000KT 10SM CLR 28/M01 A3015 RMK AO2,M
05U,2022-07-14 18:15,-116.0051,39.6042,1811.23,95.00,32.00,10.85,170.00,9.00,0.00,30.22,M,10.00,19.00,CLR,M,M,M,M,M,M,M,M,M,M,M,M,M,M,89.71,K05U 141815Z AUTO 17009G19KT 10SM CLR 35/00 A3022 RMK A01,M
MEV,2022-07-14 18:15,-119.7500,38.9963,1441.42,80.60,33.80,18.42,300.00,4.00,0.00,30.14,M,10.00,M,CLR,M,M,M,M,M,M,M,M,M,M,M,M,M,M,78.88,KMEV 141815Z AUTO 30004KT 10SM CLR 27/01 A3014 RMK AO2,M
BAM,2022-07-14 18:15,-116.8743,40.5990,1382.36,M,M,M,0.00,0.00,0.00,30.11,M,10.00,M,CLR,M,M,M,M,M,M,M,M,M,M,M,M,M,M,M,KBAM 141815Z AUTO 00000KT 10SM CLR A3011 RMK AO1,M
TMT,2022-07-14 18:15,-117.1971,39.4643,1749.34,M,M,M,170.00,3.00,0.00,30.19,M,10.00,M,CLR,M,M,M,M,M,M,M,M,M,M,M,M,M,M,M,KTMT 141815Z AUTO 17003KT 10SM CLR A3019 RMK AO2,M
HTH,2022-07-14 18:15,-118.6315,38.5448,1282.89,86.00,23.00,9.94,20.00,4.00,0.00,30.10,M,10.00,M,CLR,M,M,M,M,M,M,M,M,M,M,M,M,M,M,82.14,KHTH 141815Z AUTO 02004KT 10SM CLR 30/M05 A3010 RMK A01,M
BVU,2022-07-14 18:15,-114.8611,35.9475,671.00,102.20,53.60,20.00,150.00,16.00,0.00,29.96,M,10.00,23.00,CLR,M,M,M,M,M,M,M,M,M,M,M,M,M,M,100.38,KBVU 141815Z AUTO 15016G23KT 10SM CLR 39/12 A2996 RMK AO2,M
RTS,2022-07-14 18:15,-119.8764,39.6682,1539.00,82.40,24.80,12.03,140.00,5.00,0.00,30.17,M,10.00,M,CLR,M,M,M,M,M,M,M,M,M,M,M,M,M,M,79.79,KRTS 141815Z AUTO 14005KT 10SM CLR 28/M04 A3017 RMK AO2,M
RTS,2022-07-14 18:35,-119.8764,39.6682,1539.00,84.20,24.80,11.35,150.00,4.00,0.00,30.17,M,10.00,M,CLR,M,M,M,M,M,M,M,M,M,M,M,M,M,M,81.00,KRTS 141835Z AUTO 15004KT 10SM CLR 29/M04 A3017 RMK AO2,M
CXP,2022-07-14 18:35,-119.7326,39.1923,1431.00,86.00,26.60,11.55,M,3.00,0.00,30.14,M,10.00,M,CLR,M,M,M,M,M,M,M,M,M,M,M,M,M,M,82.39,KCXP 141835Z AUTO VRB03KT 10SM CLR 30/M03 A3014 RMK AO2,M
BVU,2022-07-14 18:35,-114.8611,35.9475,671.00,104.00,53.60,18.95,140.00,15.00,0.00,29.96,M,10.00,M,CLR,M,M,M,M,M,M,M,M,M,M,M,M,M,M,102.31,KBVU 141835Z AUTO 14015KT 10SM CLR 40/12 A2996 RMK AO2,M
HTH,2022-07-14 18:35,-118.6315,38.5448,1282.89,87.80,23.00,9.39,0.00,0.00,0.00,30.09,M,10.00,M,CLR,M,M,M,M,M,M,M,M,M,M,M,M,M,M,83.43,KHTH 141835Z AUTO 00000KT 10SM CLR 31/M05 A3009 RMK A01,M
BAM,2022-07-14 18:35,-116.8743,40.5990,1382.36,M,M,M,0.00,0.00,0.00,30.11,M,10.00,M,CLR,M,M,M,M,M,M,M,M,M,M,M,M,M,M,M,KBAM 141835Z AUTO 00000KT 10SM CLR A3011 RMK AO1,M
TMT,2022-07-14 18:35,-117.1971,39.4643,1749.34,89.00,36.00,15.47,350.00,4.00,0.00,30.19,M,10.00,M,CLR,M,M,M,M,M,M,M,M,M,M,M,M,M,M,85.04,KTMT 141835Z AUTO 35004KT 10SM CLR 32/02 A3019 RMK AO2 T03160023,M
MEV,2022-07-14 18:35,-119.7500,38.9963,1441.42,84.20,32.00,15.25,0.00,0.00,0.00,30.13,M,10.00,M,CLR,M,M,M,M,M,M,M,M,M,M,M,M,M,M,81.28,KMEV 141835Z AUTO 00000KT 10SM CLR 29/00 A3013 RMK AO2,M
05U,2022-07-14 18:35,-116.0051,39.6042,1811.23,95.00,33.80,11.67,130.00,9.00,0.00,30.21,M,10.00,15.00,CLR,M,M,M,M,M,M,M,M,M,M,M,M,M,M,89.97,K05U 141835Z AUTO 13009G15KT 10SM CLR 35/01 A3021 RMK A01,M
ELY,2022-07-14 18:53,-114.8453,39.2950,1909.00,90.00,41.00,18.10,230.00,14.00,0.00,30.25,1011.70,10.00,20.00,FEW,M,M,M,10000.00,M,M,M,M,M,M,M,M,M,M,86.16,KELY 141853Z AUTO 23014G20KT 10SM FEW100 32/05 A3025 RMK AO2 SLP117 T03220050,M
VGT,2022-07-14 18:53,-115.1933,36.2111,667.00,108.00,52.00,15.88,160.00,14.00,0.00,29.92,1011.30,10.00,21.00,CLR,M,M,M,M,M,M,M,M,M,M,M,M,M,M,105.91,KVGT 141853Z 16014G21KT 10SM CLR 42/11 A2992 RMK AO2 SLP113 T04220111,M
DRA,2022-07-14 18:53,-116.0278,36.6206,1009.00,101.00,46.00,15.67,190.00,15.00,0.00,30.03,1010.70,10.00,26.00,CLR,M,M,M,M,M,M,M,M,M,M,M,26.00,190.00,2022-07-14 18:50,97.06,KDRA 141853Z AUTO 19015G26KT 10SM CLR 38/08 A3003 RMK AO2 PK WND 19026/1850 SLP107 T03830078,M
P68,2022-07-14 18:53,-116.0056,39.6014,1993.00,93.00,34.00,12.51,M,M,0.00,30.18,1011.30,M,M,M,M,M,M,M,M,M,M,M,M,M,M,M,M,M,88.42,KP68 141853Z AUTO 34/01 A3018 RMK AO1 SLP113 T03390011,M
LOL,2022-07-14 18:53,-118.5701,40.0684,1192.43,92.00,12.90,5.34,M,M,0.00,30.07,1013.00,10.00,M,CLR,M,M,M,M,M,M,M,M,M,M,M,M,M,M,85.92,KLOL 141853Z AUTO 10SM CLR 33/M11 A3007 RMK AO2 SLP130 T03331106,M
RNO,2022-07-14 18:55,-119.7711,39.4839,1341.00,87.00,33.00,14.53,70.00,5.00,0.00,30.11,1013.00,10.00,M,CLR,M,M,M,M,M,M,M,M,M,M,M,M,M,M,83.52,KRNO 141855Z 07005KT 10SM CLR 31/01 A3011 RMK AO2 SLP130 FU ALF ALQDS T03060006,M
RTS,2022-07-14 18:55,-119.8764,39.6682,1539.00,84.20,23.00,10.53,0.00,0.00,0.00,30.16,M,10.00,M,CLR,M,M,M,M,M,M,M,M,M,M,M,M,M,M,80.88,KRTS 141855Z AUTO 00000KT 10SM CLR 29/M05 A3016 RMK AO2,M
05U,2022-07-14 18:55,-116.0051,39.6042,1811.23,96.80,33.80,11.04,180.00,10.00,0.00,30.21,M,10.00,15.00,FEW,M,M,M,12000.00,M,M,M,M,M,M,M,M,M,M,91.44,K05U 141855Z AUTO 18010G15KT 150V220 10SM FEW120 36/01 A3021 RMK A01,M
MEV,2022-07-14 18:55,-119.7500,38.9963,1441.42,86.00,32.00,14.40,350.00,4.00,0.00,30.12,M,10.00,M,CLR,M,M,M,M,M,M,M,M,M,M,M,M,M,M,82.64,KMEV 141855Z AUTO 35004KT 10SM CLR 30/M00 A3012 RMK AO2,M
BAM,2022-07-14 18:55,-116.8743,40.5990,1382.36,M,M,M,160.00,3.00,0.00,30.10,M,10.00,M,CLR,M,M,M,M,M,M,M,M,M,M,M,M,M,M,M,KBAM 141855Z AUTO 16003KT 10SM CLR A3010 RMK AO1,M
HTH,2022-07-14 18:55,-118.6315,38.5448,1282.89,87.80,23.00,9.39,350.00,4.00,0.00,30.08,M,10.00,M,CLR,M,M,M,M,M,M,M,M,M,M,M,M,M,M,83.43,KHTH 141855Z AUTO 35004KT 10SM CLR 31/M05 A3008 RMK A01,M
TMT,2022-07-14 18:55,-117.1971,39.4643,1749.34,M,M,M,120.00,5.00,0.00,30.18,M,10.00,M,CLR,M,M,M,M,M,M,M,M,M,M,M,M,M,M,M,KTMT 141855Z AUTO 12005KT 10SM CLR A3018 RMK AO2,M
BVU,2022-07-14 18:55,-114.8611,35.9475,671.00,104.00,53.60,18.95,150.00,11.00,0.00,29.95,M,10.00,18.00,CLR,M,M,M,M,M,M,M,M,M,M,M,M,M,M,102.31,KBVU 141855Z AUTO 15011G18KT 10SM CLR 40/12 A2995 RMK AO2 LTG DSNT NE AND E,M
HND,2022-07-14 18:56,-115.1344,35.9729,742.79,104.00,54.00,19.23,230.00,13.00,0.00,29.98,1012.80,10.00,M,FEW,M,M,M,11000.00,M,M,M,M,M,M,M,M,M,M,102.46,KHND 141856Z 23013KT 10SM FEW110 40/12 A2998 RMK AO2 SLP128 T04000122,M
LAS,2022-07-14 18:56,-115.1634,36.0719,663.00,106.00,53.00,17.54,210.00,7.00,0.00,29.94,1010.40,10.00,14.00,FEW,SCT,BKN,M,13000.00,15000.00,22000.00,M,M,M,M,M,M,M,M,104.25,KLAS 141856Z 21007G14KT 180V260 10SM FEW130 SCT150 BKN220 41/12 A2994 RMK AO2 SLP104 CB DSNT E TCU DSNT N T04110117,M
WMC,2022-07-14 18:56,-117.8072,40.9019,1315.00,94.00,30.00,10.36,310.00,5.00,0.00,30.08,1012.60,10.00,M,CLR,M,M,M,M,M,M,M,M,M,M,M,M,M,M,88.60,KWMC 141856Z AUTO 31005KT 10SM CLR 34/M01 A3008 RMK AO2 SLP126 T03441011 TSNO,M
NFL,2022-07-14 18:56,-118.7010,39.4166,1199.00,91.00,26.10,9.66,360.00,7.00,0.00,30.07,1015.10,10.00,M,FEW,M,M,M,8000.00,M,M,M,M,M,M,M,M,M,M,86.02,KNFL 141856Z 36007KT 10SM FEW080 33/M03 A3007 RMK AO2 SLP151 T03281033,M
EKO,2022-07-14 18:56,-115.7860,40.8242,1367.00,95.00,33.00,11.34,240.00,8.00,0.00,30.12,1012.10,10.00,14.00,CLR,M,M,M,M,M,M,M,M,M,M,M,M,M,M,89.86,KEKO 141856Z AUTO 24008G14KT 10SM CLR 35/01 A3012 RMK AO2 SLP121 T03500006,M
TPH,2022-07-14 18:56,-117.0904,38.0505,1654.00,93.00,41.00,16.48,170.00,16.00,0.00,30.18,1011.80,10.00,28.00,CLR,M,M,M,M,M,M,M,M,M,M,M,28.00,180.00,2022-07-14 18:56,88.85,KTPH 141856Z AUTO 17016G28KT 10SM CLR 34/05 A3018 RMK AO2 PK WND 18028/1856 SLP118 T03390050,M
LSV,2022-07-14 18:58,-115.0343,36.2362,570.00,108.50,52.30,15.82,140.00,8.00,0.00,29.90,1009.20,10.00,15.00,FEW,FEW,M,M,17000.00,20000.00,M,M,M,M,M,M,M,M,M,106.54,KLSV 141858Z AUTO 14008G15KT 10SM FEW170 FEW200 43/11 A2990 RMK AO2 SLP092 T04250113 $,M
INS,2022-07-14 18:58,-115.6733,36.5872,955.00,99.50,41.70,13.87,120.00,6.00,0.00,30.01,1010.20,10.00,M,CLR,M,M,M,M,M,M,M,M,M,M,M,M,M,M,95.03,KINS 141858Z AUTO 12006KT 10SM CLR 38/05 A3001 RMK AO2 SLP102 T03750054 $,M
BAM,2022-07-14 19:15,-116.8743,40.5990,1382.36,M,M,M,80.00,5.00,0.00,30.09,M,10.00,M,CLR,M,M,M,M,M,M,M,M,M,M,M,M,M,M,M,KBAM 141915Z AUTO 08005KT 10SM CLR A3009 RMK AO1,M
HTH,2022-07-14 19:15,-118.6315,38.5448,1282.89,89.60,24.80,9.56,0.00,0.00,0.00,30.08,M,10.00,M,CLR,M,M,M,M,M,M,M,M,M,M,M,M,M,M,84.88,KHTH 141915Z AUTO 00000KT 10SM CLR 32/M04 A3008 RMK A01,M
MEV,2022-07-14 19:15,-119.7500,38.9963,1441.42,87.80,32.00,13.59,M,4.00,0.00,30.12,M,10.00,M,CLR,M,M,M,M,M,M,M,M,M,M,M,M,M,M,84.08,KMEV 141915Z AUTO VRB04KT 10SM CLR 31/M00 A3012 RMK AO2,M
TMT,2022-07-14 19:15,-117.1971,39.4643,1749.34,91.00,36.50,14.71,250.00,5.00,0.00,30.18,M,10.00,M,CLR,M,M,M,M,M,M,M,M,M,M,M,M,M,M,86.85,KTMT 141915Z AUTO 25005KT 10SM CLR 33/03 A3018 RMK AO2 T03280025,M
05U,2022-07-14 19:15,-116.0051,39.6042,1811.23,95.00,33.80,11.67,210.00,7.00,0.00,30.20,M,10.00,M,CLR,M,M,M,M,M,M,M,M,M,M,M,M,M,M,89.97,K05U 141915Z AUTO 21007KT 10SM CLR 35/01 A3020 RMK A01,M
RTS,2022-07-14 19:15,-119.8764,39.6682,1539.00,86.00,21.20,9.21,M,6.00,0.00,30.16,M,10.00,M,CLR,M,M,M,M,M,M,M,M,M,M,M,M,M,M,82.04,KRTS 141915Z AUTO VRB06KT 10SM CLR 30/M06 A3016 RMK AO2,M
CXP,2022-07-14 19:15,-119.7326,39.1923,1431.00,89.60,23.00,8.87,0.00,0.00,0.00,30.13,M,10.00,M,CLR,M,M,M,M,M,M,M,M,M,M,M,M,M,M,84.75,KCXP 141915Z AUTO 00000KT 10SM CLR 32/M05 A3013 RMK AO2,M
BVU,2022-07-14 19:15,-114.8611,35.9475,671.00,104.00,53.60,18.95,150.00,12.00,0.00,29.94,M,10.00,18.00,CLR,M,M,M,M,M,M,M,M,M,M,M,M,M,M,102.31,KBVU 141915Z AUTO 15012G18KT 120V180 10SM CLR 40/12 A2994 RMK AO2,M
LSV,2022-07-14 19:21,-115.0343,36.2362,570.00,107.60,53.60,17.04,150.00,10.00,0.00,29.89,1008.80,10.00,17.00,FEW,SCT,SCT,BKN,13000.00,16000.00,18000.00,21000.00,M,M,M,M,M,M,M,106.13,KLSV 141921Z AUTO 15010G17KT 10SM FEW130 SCT160 SCT180 BKN210 42/12 A2989 RMK AO2 WSHFT 19 SLP088 $,M
HTH,2022-07-14 19:35,-118.6315,38.5448,1282.89,89.60,23.00,8.87,M,5.00,0.00,30.06,M,10.00,M,CLR,M,M,M,M,M,M,M,M,M,M,M,M,M,M,84.75,KHTH 141935Z AUTO VRB05KT 10SM CLR 32/M05 A3006 RMK A01,M
BVU,2022-07-14 19:35,-114.8611,35.9475,671.00,104.00,53.60,18.95,150.00,9.00,0.00,29.93,M,10.00,19.00,CLR,M,M,M,M,M,M,M,M,M,M,M,M,M,M,102.31,KBVU 141935Z AUTO 15009G19KT 10SM CLR 40/12 A2993 RMK AO2,M
CXP,2022-07-14 19:35,-119.7326,39.1923,1431.00,91.40,23.00,8.38,150.00,5.00,0.00,30.12,M,10.00,M,CLR,M,M,M,M,M,M,M,M,M,M,M,M,M,M,86.08,KCXP 141935Z AUTO 15005KT 10SM CLR 33/M05 A3012 RMK AO2,M
RTS,2022-07-14 19:35,-119.8764,39.6682,1539.00,86.00,19.40,8.53,M,6.00,0.00,30.15,M,10.00,M,CLR,M,M,M,M,M,M,M,M,M,M,M,M,M,M,81.94,KRTS 141935Z AUTO VRB06KT 10SM CLR 30/M07 A3015 RMK AO2,M
05U,2022-07-14 19:35,-116.0051,39.6042,1811.23,96.80,33.80,11.04,M,5.00,0.00,30.19,M,10.00,13.00,CLR,M,M,M,M,M,M,M,M,M,M,M,M,M,M,91.44,K05U 141935Z AUTO VRB05G13KT 10SM CLR 36/01 A3019 RMK A01,M
MEV,2022-07-14 19:35,-119.7500,38.9963,1441.42,89.60,26.60,10.30,M,3.00,0.00,30.11,M,9.00,M,CLR,M,M,M,M,M,M,M,M,M,M,M,M,M,M,85.02,KMEV 141935Z AUTO VRB03KT 9SM CLR 32/M03 A3011 RMK AO2,M
BAM,2022-07-14 19:35,-116.8743,40.5990,1382.36,M,M,M,280.00,5.00,0.00,30.08,M,10.00,M,CLR,M,M,M,M,M,M,M,M,M,M,M,M,M,M,M,KBAM 141935Z AUTO 28005KT 10SM CLR A3008 RMK AO1,M
TMT,2022-07-14 19:35,-117.1971,39.4643,1749.34,M,M,M,250.00,9.00,0.00,30.18,M,7.00,21.00,CLR,M,M,M,M,M,M,M,M,M,M,M,M,M,M,M,KTMT 141935Z AUTO 25009G21KT 7SM CLR A3018 RMK AO2,M
05U,2022-07-14 19:50,-116.0051,39.6042,1811.23,96.80,33.80,11.04,0.00,0.00,0.00,30.19,M,10.00,14.00,CLR,M,M,M,M,M,M,M,M,M,M,M,M,M,M,91.44,K05U 141950Z AUTO 00000G14KT 10SM CLR 36/01 A3019 RMK A01,M
P68,2022-07-14 19:53,-116.0056,39.6014,1993.00,94.00,34.00,12.17,M,M,0.00,30.15,1011.00,M,M,M,M,M,M,M,M,M,M,M,M,M,M,M,M,M,89.13,KP68 141953Z AUTO 34/01 A3015 RMK AO1 SLP110 T03440011,M
DRA,2022-07-14 19:53,-116.0278,36.6206,1009.00,102.00,45.00,14.60,220.00,14.00,0.00,30.01,1010.00,10.00,23.00,CLR,M,M,M,M,M,M,M,M,M,M,M,M,M,M,97.95,KDRA 141953Z AUTO 22014G23KT 10SM CLR 39/07 A3001 RMK AO2 SLP100 T03890072,M
VGT,2022-07-14 19:53,-115.1933,36.2111,667.00,107.00,52.00,16.31,170.00,9.00,0.00,29.90,1010.40,10.00,23.00,CLR,M,M,M,M,M,M,M,M,M,M,M,M,M,M,104.99,KVGT 141953Z 17009G23KT 10SM CLR 42/11 A2990 RMK AO2 SLP104 T04170111,M
ELY,2022-07-14 19:53,-114.8453,39.2950,1909.00,92.00,39.00,15.77,220.00,15.00,0.00,30.23,1010.90,10.00,23.00,CLR,M,M,M,M,M,M,M,M,M,M,M,M,M,M,87.74,KELY 141953Z AUTO 22015G23KT 10SM CLR 33/04 A3023 RMK AO2 SLP109 T03330039,M
LOL,2022-07-14 19:53,-118.5701,40.0684,1192.43,93.00,21.90,7.61,10.00,3.00,0.00,30.05,1012.50,10.00,M,CLR,M,M,M,M,M,M,M,M,M,M,M,M,M,M,87.19,KLOL 141953Z AUTO 01003KT 10SM CLR 34/M06 A3005 RMK AO2 SLP125 T03391056,M
TMT,2022-07-14 19:55,-117.1971,39.4643,1749.34,M,M,M,230.00,9.00,0.00,30.17,M,10.00,M,CLR,M,M,M,M,M,M,M,M,M,M,M,M,M,M,M,KTMT 141955Z AUTO 23009KT 200V280 10SM CLR A3017 RMK AO2,M
CXP,2022-07-14 19:55,-119.7326,39.1923,1431.00,89.60,21.20,8.22,290.00,5.00,0.00,30.12,M,10.00,M,CLR,M,M,M,M,M,M,M,M,M,M,M,M,M,M,84.64,KCXP 141955Z AUTO 29005KT 10SM CLR 32/M06 A3012 RMK AO2,M
BVU,2022-07-14 19:55,-114.8611,35.9475,671.00,105.80,53.60,17.97,120.00,10.00,0.00,29.92,M,10.00,17.00,CLR,M,M,M,M,M,M,M,M,M,M,M,M,M,M,104.23,KBVU 141955Z AUTO 12010G17KT 100V160 10SM CLR 41/12 A2992 RMK AO2,M
RNO,2022-07-14 19:55,-119.7711,39.4839,1341.00,93.00,30.90,11.04,M,4.00,0.00,30.08,1012.00,10.00,M,CLR,M,M,M,M,M,M,M,M,M,M,M,M,M,M,88.02,KRNO 141955Z VRB04KT 10SM CLR 34/M01 A3008 RMK AO2 SLP120 FU ALF ALQDS T03391006,M
RTS,2022-07-14 19:55,-119.8764,39.6682,1539.00,87.80,19.40,8.06,130.00,9.00,0.00,30.14,M,10.00,M,CLR,M,M,M,M,M,M,M,M,M,M,M,M,M,M,83.23,KRTS 141955Z AUTO 13009KT 10SM CLR 31/M07 A3014 RMK AO2,M
MEV,2022-07-14 19:55,-119.7500,38.9963,1441.42,89.60,23.00,8.87,0.00,0.00,0.00,30.10,M,10.00,M,CLR,M,M,M,M,M,M,M,M,M,M,M,M,M,M,84.75,KMEV 141955Z AUTO 00000KT 10SM CLR 32/M05 A3010 RMK AO2,M
BAM,2022-07-14 19:55,-116.8743,40.5990,1382.36,M,M,M,190.00,5.00,0.00,30.08,M,10.00,M,CLR,M,M,M,M,M,M,M,M,M,M,M,M,M,M,M,KBAM 141955Z AUTO 19005KT 10SM CLR A3008 RMK AO1,M
HTH,2022-07-14 19:55,-118.6315,38.5448,1282.89,91.40,23.00,8.38,320.00,6.00,0.00,30.05,M,10.00,M,CLR,M,M,M,M,M,M,M,M,M,M,M,M,M,M,86.08,KHTH 141955Z AUTO 32006KT 10SM CLR 33/M05 A3005 RMK A01,M
NFL,2022-07-14 19:56,-118.7010,39.4166,1199.00,93.00,26.10,9.07,M,5.00,0.00,30.05,1014.50,10.00,M,FEW,SCT,M,M,8000.00,12000.00,M,M,M,M,M,M,M,M,M,87.52,KNFL 141956Z VRB05KT 10SM FEW080 SCT120 34/M03 A3005 RMK AO2 SLP145 T03391033,M
TPH,2022-07-14 19:56,-117.0904,38.0505,1654.00,94.00,38.00,14.20,210.00,14.00,0.00,30.16,1011.80,10.00,28.00,FEW,M,M,M,11000.00,M,M,M,M,M,M,M,29.00,200.00,2022-07-14 19:06,89.48,KTPH 141956Z AUTO 21014G28KT 10SM FEW110 34/03 A3016 RMK AO2 PK WND 20029/1906 SLP118 T03440033,M
WMC,2022-07-14 19:56,-117.8072,40.9019,1315.00,96.00,28.00,8.92,220.00,5.00,0.00,30.06,1011.70,10.00,M,CLR,M,M,M,M,M,M,M,M,M,M,M,M,M,M,90.13,KWMC 141956Z AUTO 22005KT 10SM CLR 36/M02 A3006 RMK AO2 SLP117 T03561022 TSNO,M
EKO,2022-07-14 19:56,-115.7860,40.8242,1367.00,99.00,34.00,10.41,M,M,0.00,30.09,1011.00,10.00,M,CLR,M,M,M,M,M,M,M,M,M,M,M,M,M,M,93.31,KEKO 141956Z AUTO 10SM CLR 37/01 A3009 RMK AO2 SLP110 T03720011,M
LAS,2022-07-14 19:56,-115.1634,36.0719,663.00,104.00,52.00,17.87,170.00,8.00,0.00,29.92,1009.60,10.00,M,FEW,SCT,BKN,M,13000.00,15000.00,22000.00,M,VCTS,M,M,M,M,M,M,101.76,KLAS 141956Z 17008KT 10SM VCTS FEW130 SCT150 BKN220 40/11 A2992 RMK AO2 SLP096 CB DSNT E TCU DSNT N T04000111,M
HND,2022-07-14 19:56,-115.1344,35.9729,742.79,103.00,53.00,19.23,200.00,3.00,0.00,29.96,1012.20,10.00,14.00,CLR,M,M,M,M,M,M,M,TS,M,M,M,M,M,M,100.96,KHND 141956Z 20003G14KT 10SM TS CLR 39/12 A2996 RMK AO2 TSB54 SLP122 T03940117,M
INS,2022-07-14 19:58,-115.6733,36.5872,955.00,100.00,42.00,13.92,210.00,3.00,0.00,29.99,1009.60,10.00,M,BKN,BKN,BKN,M,16000.00,18000.00,21000.00,M,M,M,M,M,M,M,M,95.46,KINS 141958Z AUTO 21003KT 10SM BKN160 BKN180 BKN210 38/06 A2999 RMK AO2 SLP096 T03770056 $,M
LSV,2022-07-14 19:58,-115.0343,36.2362,570.00,109.80,51.60,14.85,250.00,4.00,0.00,29.87,1008.10,10.00,M,FEW,SCT,BKN,BKN,9500.00,13000.00,16000.00,19000.00,M,M,M,M,M,M,M,107.58,KLSV 141958Z AUTO 25004KT 10SM FEW095 SCT130 BKN160 BKN190 43/11 A2987 RMK AO2 LTG DSNT S SLP081 T04320109 $,M
LAS,2022-07-14 20:01,-115.1634,36.0719,663.00,104.00,52.00,17.87,160.00,6.00,0.00,29.92,M,10.00,M,FEW,SCT,BKN,M,13000.00,15000.00,22000.00,M,VCTS,M,M,M,M,M,M,101.76,KLAS 142001Z 16006KT 10SM VCTS FEW130CB SCT150 BKN220 40/11 A2992 RMK AO2 CB VC S AND DSNT E TCU DSNT N T04000111,M
LAS,2022-07-14 20:14,-115.1634,36.0719,663.00,105.00,50.00,16.06,210.00,9.00,0.00,29.91,M,10.00,M,FEW,SCT,BKN,M,13000.00,15000.00,22000.00,M,TS,M,M,M,M,M,M,102.27,KLAS 142014Z 21009KT 170V240 10SM TS FEW130CB SCT150 BKN220 41/10 A2991 RMK AO2 TSB08 TS OHD MOV N CB DSNT E TCU DSNT N T04060100,M
HTH,2022-07-14 20:15,-118.6315,38.5448,1282.89,93.20,23.00,7.92,M,3.00,0.00,30.05,M,10.00,M,CLR,M,M,M,M,M,M,M,M,M,M,M,M,M,M,87.42,KHTH 142015Z AUTO VRB03KT 10SM CLR 34/M05 A3005 RMK A01,M
BVU,2022-07-14 20:15,-114.8611,35.9475,671.00,105.80,53.60,17.97,160.00,12.00,0.00,29.90,M,10.00,M,CLR,M,M,M,M,M,M,M,M,M,M,M,M,M,M,104.23,KBVU 142015Z AUTO 16012KT 120V200 10SM CLR 41/12 A2990 RMK AO2 LTG DSNT W AND NW,M
CXP,2022-07-14 20:15,-119.7326,39.1923,1431.00,91.40,21.20,7.77,0.00,0.00,0.00,30.12,M,10.00,M,CLR,M,M,M,M,M,M,M,M,M,M,M,M,M,M,85.96,KCXP 142015Z AUTO 00000KT 10SM CLR 33/M06 A3012 RMK AO2,M
RTS,2022-07-14 20:15,-119.8764,39.6682,1539.00,89.60,19.40,7.61,130.00,7.00,0.00,30.14,M,10.00,M,CLR,M,M,M,M,M,M,M,M,M,M,M,M,M,M,84.54,KRTS 142015Z AUTO 13007KT 10SM CLR 32/M07 A3014 RMK AO2,M
05U,2022-07-14 20:15,-116.0051,39.6042,1811.23,93.20,33.80,12.34,180.00,9.00,0.00,30.18,M,10.00,18.00,FEW,M,M,M,12000.00,M,M,M,M,M,M,M,M,M,M,88.55,K05U 142015Z AUTO 18009G18KT 10SM FEW120 34/01 A3018 RMK A01,M
MEV,2022-07-14 20:15,-119.7500,38.9963,1441.42,91.40,19.40,7.19,270.00,7.00,0.00,30.10,M,10.00,M,CLR,M,M,M,M,M,M,M,M,M,M,M,M,M,M,85.86,KMEV 142015Z AUTO 27007KT 10SM CLR 33/M07 A3010 RMK AO2,M
BAM,2022-07-14 20:15,-116.8743,40.5990,1382.36,M,M,M,260.00,10.00,0.00,30.07,M,10.00,17.00,CLR,M,M,M,M,M,M,M,M,M,M,M,M,M,M,M,KBAM 142015Z AUTO 26010G17KT 10SM CLR A3007 RMK AO1,M
TMT,2022-07-14 20:15,-117.1971,39.4643,1749.34,M,M,M,250.00,12.00,0.00,30.16,M,10.00,16.00,CLR,M,M,M,M,M,M,M,M,M,M,M,M,M,M,M,KTMT 142015Z AUTO 25012G16KT 10SM CLR A3016 RMK AO2,M
05U,2022-07-14 20:35,-116.0051,39.6042,1811.23,89.60,41.00,18.33,190.00,10.00,0.00,30.19,M,10.00,M,FEW,M,M,M,12000.00,M,M,M,M,M,M,M,M,M,M,85.82,K05U 142035Z AUTO 19010KT 10SM FEW120 32/05 A3019 RMK A01,M
BVU,2022-07-14 20:35,-114.8611,35.9475,671.00,105.80,53.60,17.97,120.00,13.00,0.00,29.90,M,10.00,M,FEW,M,M,M,11000.00,M,M,M,M,M,M,M,M,M,M,104.23,KBVU 142035Z AUTO 12013KT 10SM FEW110 41/12 A2990 RMK AO2,M
CXP,2022-07-14 20:35,-119.7326,39.1923,1431.00,91.40,19.40,7.19,290.00,4.00,0.00,30.11,M,10.00,M,CLR,M,M,M,M,M,M,M,M,M,M,M,M,M,M,85.86,KCXP 142035Z AUTO 29004KT 10SM CLR 33/M07 A3011 RMK AO2,M
RTS,2022-07-14 20:35,-119.8764,39.6682,1539.00,89.60,15.80,6.52,M,5.00,0.00,30.14,M,10.00,13.00,CLR,M,M,M,M,M,M,M,M,M,M,M,M,M,M,84.37,KRTS 142035Z AUTO VRB05G13KT 10SM CLR 32/M09 A3014 RMK AO2,M
MEV,2022-07-14 20:35,-119.7500,38.9963,1441.42,91.40,17.60,6.66,0.00,0.00,0.00,30.10,M,10.00,M,CLR,M,M,M,M,M,M,M,M,M,M,M,M,M,M,85.76,KMEV 142035Z AUTO 00000KT 10SM CLR 33/M08 A3010 RMK AO2,M
BAM,2022-07-14 20:35,-116.8743,40.5990,1382.36,M,M,M,40.00,4.00,0.00,30.06,M,10.00,M,CLR,M,M,M,M,M,M,M,M,M,M,M,M,M,M,M,KBAM 142035Z AUTO 04004KT 10SM CLR A3006 RMK AO1,M
HTH,2022-07-14 20:35,-118.6315,38.5448,1282.89,93.20,24.80,8.54,M,6.00,0.00,30.03,M,10.00,M,CLR,M,M,M,M,M,M,M,M,M,M,M,M,M,M,87.56,KHTH 142035Z AUTO VRB06KT 10SM CLR 34/M04 A3003 RMK A01,M
TMT,2022-07-14 20:35,-117.1971,39.4643,1749.34,M,M,M,240.00,14.00,0.00,30.16,M,10.00,18.00,CLR,M,M,M,M,M,M,M,M,M,M,M,M,M,M,M,KTMT 142035Z AUTO 24014G18KT 10SM CLR A3016 RMK AO2,M
LSV,2022-07-14 20:41,-115.0343,36.2362,570.00,107.60,50.00,14.92,200.00,13.00,0.00,29.85,1007.50,10.00,18.00,CLR,M,M,M,M,M,M,M,M,M,M,M,M,M,M,104.80,KLSV 142041Z AUTO 20013G18KT 10SM CLR 42/10 A2985 RMK AO2 WSHFT 40 LTG DSNT S SLP075 $,M
LAS,2022-07-14 20:48,-115.1634,36.0719,663.00,104.00,54.00,19.23,100.00,12.00,0.00,29.90,M,10.00,21.00,SCT,SCT,BKN,M,12000.00,15000.00,22000.00,M,TS,M,M,M,M,M,M,102.46,KLAS 142048Z 10012G21KT 10SM TS SCT120CB SCT150 BKN220 40/12 A2990 RMK AO2 LTG DSNT SE AND S TSB08E33B35 TS E-SE MOV N TCU DSNT N T04000122,M
P68,2022-07-14 20:53,-116.0056,39.6014,1993.00,92.00,34.00,12.95,180.00,14.00,0.00,30.15,1011.20,M,22.00,M,M,M,M,M,M,M,M,M,M,M,M,M,M,M,87.56,KP68 142053Z AUTO 18014G22KT 33/01 A3015 RMK AO1 SLP112 T03330011 56011,M
DRA,2022-07-14 20:53,-116.0278,36.6206,1009.00,104.00,46.00,14.28,220.00,16.00,0.00,29.99,1009.10,10.00,29.00,CLR,M,M,M,M,M,M,M,M,M,M,M,31.00,240.00,2022-07-14 20:39,100.12,KDRA 142053Z AUTO 22016G29KT 10SM CLR 40/08 A2999 RMK AO2 PK WND 24031/2039 SLP091 T04000078 58015,M
LOL,2022-07-14 20:53,-118.5701,40.0684,1192.43,97.00,21.00,6.48,230.00,8.00,0.00,30.03,1012.10,10.00,15.00,CLR,M,M,M,M,M,M,M,M,M,M,M,M,M,M,90.27,KLOL 142053Z AUTO 23008G15KT 10SM CLR 36/M06 A3003 RMK AO2 SLP121 T03611061 58015,M
ELY,2022-07-14 20:53,-114.8453,39.2950,1909.00,91.00,38.00,15.54,M,3.00,0.00,30.21,1010.40,10.00,18.00,CLR,M,M,M,M,M,M,M,M,M,M,M,M,M,M,86.90,KELY 142053Z AUTO VRB03G18KT 10SM CLR 33/03 A3021 RMK AO2 LTG DSNT E SLP104 T03280033 58015,M
VGT,2022-07-14 20:53,-115.1933,36.2111,667.00,107.00,50.00,15.14,200.00,11.00,0.00,29.88,1009.90,10.00,22.00,CLR,M,M,M,M,M,M,M,M,M,M,M,M,M,M,104.29,KVGT 142053Z 20011G22KT 10SM CLR 42/10 A2988 RMK AO2 LTG DSNT SE AND S SLP099 T04170100 58018,M
05U,2022-07-14 20:55,-116.0051,39.6042,1811.23,95.00,33.80,11.67,150.00,5.00,0.00,30.18,M,10.00,18.00,FEW,M,M,M,12000.00,M,M,M,M,M,M,M,M,M,M,89.97,K05U 142055Z AUTO 15005G18KT 10SM FEW120 35/01 A3018 RMK A01,M
BVU,2022-07-14 20:55,-114.8611,35.9475,671.00,105.80,53.60,17.97,140.00,15.00,0.00,29.89,M,10.00,23.00,FEW,M,M,M,11000.00,M,M,M,M,M,M,M,M,M,M,104.23,KBVU 142055Z AUTO 14015G23KT 10SM FEW110 41/12 A2989 RMK AO2 LTG DSNT SW,M
CXP,2022-07-14 20:55,-119.7326,39.1923,1431.00,95.00,17.60,5.96,240.00,8.00,0.00,30.10,M,10.00,M,CLR,M,M,M,M,M,M,M,M,M,M,M,M,M,M,88.39,KCXP 142055Z AUTO 24008KT 220V280 10SM CLR 35/M08 A3010 RMK AO2,M
RNO,2022-07-14 20:55,-119.7711,39.4839,1341.00,95.00,25.00,8.15,160.00,5.00,0.00,30.06,1011.30,10.00,M,CLR,M,M,M,M,M,M,M,M,M,M,M,M,M,M,88.93,KRNO 142055Z 16005KT 10SM CLR 35/M04 A3006 RMK AO2 SLP113 FU ALF DSNT NE THRU SE T03501039 58017,M
RTS,2022-07-14 20:55,-119.8764,39.6682,1539.00,91.40,17.60,6.66,250.00,10.00,0.00,30.13,M,10.00,18.00,CLR,M,M,M,M,M,M,M,M,M,M,M,M,M,M,85.76,KRTS 142055Z AUTO 25010G18KT 220V290 10SM CLR 33/M08 A3013 RMK AO2,M
MEV,2022-07-14 20:55,-119.7500,38.9963,1441.42,93.20,19.40,6.80,M,6.00,0.00,30.09,M,10.00,13.00,CLR,M,M,M,M,M,M,M,M,M,M,M,M,M,M,87.18,KMEV 142055Z AUTO VRB06G13KT 10SM CLR 34/M07 A3009 RMK AO2,M
BAM,2022-07-14 20:55,-116.8743,40.5990,1382.36,M,M,M,310.00,8.00,0.00,30.05,M,10.00,M,CLR,M,M,M,M,M,M,M,M,M,M,M,M,M,M,M,KBAM 142055Z AUTO 31008KT 260V340 10SM CLR A3005 RMK AO1,M
HTH,2022-07-14 20:55,-118.6315,38.5448,1282.89,95.00,24.80,8.08,M,4.00,0.00,30.02,M,10.00,13.00,CLR,M,M,M,M,M,M,M,M,M,M,M,M,M,M,88.91,KHTH 142055Z AUTO VRB04G13KT 10SM CLR 35/M04 A3002 RMK A01,M
TMT,2022-07-14 20:55,-117.1971,39.4643,1749.34,90.70,35.20,14.10,240.00,8.00,0.00,30.16,M,10.00,21.00,CLR,M,M,M,M,M,M,M,M,M,M,M,M,M,M,86.55,KTMT 142055Z AUTO 24008G21KT 10SM CLR 33/02 A3016 RMK AO2 T03260018,M
HND,2022-07-14 20:56,-115.1344,35.9729,742.79,102.00,57.00,22.77,50.00,8.00,0.00,29.93,1011.20,10.00,M,FEW,M,M,M,12000.00,M,M,M,VCTS,M,M,M,M,M,M,101.47,KHND 142056Z 05008KT 10SM VCTS FEW120 39/14 A2993 RMK AO2 LTG DSNT SE SLP112 T03890139 58019,M
LAS,2022-07-14 20:56,-115.1634,36.0719,663.00,104.00,53.00,18.61,100.00,10.00,0.00,29.89,1008.80,10.00,18.00,SCT,SCT,BKN,M,12000.00,15000.00,22000.00,M,TS,M,M,M,M,M,M,102.13,KLAS 142056Z 10010G18KT 10SM TS SCT120CB SCT150 BKN220 40/12 A2989 RMK AO2 LTG DSNT SE AND S TSB08E33B35 SLP088 OCNL LTGICCG E-S TS E-S MOV N TCU DSNT N T04000117 58020,M
NFL,2022-07-14 20:56,-118.7010,39.4166,1199.00,96.00,24.10,7.59,M,6.00,0.00,30.03,1013.90,10.00,M,FEW,SCT,M,M,8000.00,12000.00,M,M,M,M,M,M,M,M,M,89.76,KNFL 142056Z VRB06KT 10SM FEW080 SCT120 36/M04 A3003 RMK AO2 SLP139 T03561044 58016,M
WMC,2022-07-14 20:56,-117.8072,40.9019,1315.00,98.00,28.90,8.70,140.00,7.00,0.00,30.04,1011.20,10.00,M,CLR,M,M,M,M,M,M,M,M,M,M,M,M,M,M,91.89,KWMC 142056Z AUTO 14007KT 10SM CLR 37/M02 A3004 RMK AO2 SLP112 T03671017 58015 TSNO,M
EKO,2022-07-14 20:56,-115.7860,40.8242,1367.00,100.00,33.00,9.74,230.00,11.00,0.00,30.07,1010.80,10.00,17.00,CLR,M,M,M,M,M,M,M,M,M,M,M,M,M,M,94.03,KEKO 142056Z AUTO 23011G17KT 210V270 10SM CLR 38/01 A3007 RMK AO2 SLP108 T03780006 58018,M
TPH,2022-07-14 20:56,-117.0904,38.0505,1654.00,96.00,38.00,13.27,210.00,16.00,0.00,30.14,1010.90,10.00,23.00,FEW,M,M,M,11000.00,M,M,M,M,M,M,M,28.00,190.00,2022-07-14 20:32,91.49,KTPH 142056Z AUTO 21016G23KT 10SM FEW110 36/03 A3014 RMK AO2 PK WND 19028/2032 SLP109 T03560033 58016,M
LSV,2022-07-14 20:56,-115.0343,36.2362,570.00,108.00,52.00,15.88,190.00,15.00,0.00,29.85,1007.50,10.00,M,FEW,BKN,M,M,12000.00,16000.00,M,M,M,M,M,M,M,M,M,105.91,KLSV 142056Z 19015KT 10SM FEW120 BKN160 42/11 A2985 RMK A02A WSGFT 40 LGT DSNT S SLP075 T04220111 57020,M
INS,2022-07-14 20:58,-115.6733,36.5872,955.00,102.00,43.70,13.89,240.00,4.00,0.00,29.96,1008.60,10.00,M,FEW,M,M,M,22000.00,M,M,M,M,M,M,M,M,M,M,97.72,KINS 142058Z AUTO 24004KT 10SM FEW220 39/07 A2996 RMK AO2 SLP086 T03890065 57018 $,M
TMT,2022-07-14 21:15,-117.1971,39.4643,1749.34,92.80,33.30,12.24,0.00,0.00,0.00,30.14,M,10.00,M,CLR,M,M,M,M,M,M,M,M,M,M,M,M,M,M,88.16,KTMT 142115Z AUTO 00000KT 10SM CLR 34/01 A3014 RMK AO2 T03380007,M
BVU,2022-07-14 21:15,-114.8611,35.9475,671.00,104.00,51.80,17.74,200.00,20.00,0.00,29.87,M,10.00,M,SCT,M,M,M,11000.00,M,M,M,VCTS,M,M,M,M,M,M,101.69,KBVU 142115Z AUTO 20020KT 10SM VCTS SCT110 40/11 A2987 RMK AO2 LTG DSNT SW-N,M
CXP,2022-07-14 21:15,-119.7326,39.1923,1431.00,95.00,17.60,5.96,270.00,9.00,0.00,30.10,M,10.00,15.00,CLR,M,M,M,M,M,M,M,M,M,M,M,M,M,M,88.39,KCXP 142115Z AUTO 27009G15KT 10SM CLR 35/M08 A3010 RMK AO2,M
RTS,2022-07-14 21:15,-119.8764,39.6682,1539.00,91.40,19.40,7.19,240.00,11.00,0.00,30.13,M,10.00,M,CLR,M,M,M,M,M,M,M,M,M,M,M,M,M,M,85.86,KRTS 142115Z AUTO 24011KT 10SM CLR 33/M07 A3013 RMK AO2,M
05U,2022-07-14 21:15,-116.0051,39.6042,1811.23,91.40,32.00,12.14,190.00,18.00,0.00,30.19,M,10.00,32.00,FEW,M,M,M,12000.00,M,M,M,M,M,M,M,M,M,M,86.91,K05U 142115Z AUTO 19018G32KT 10SM FEW120 33/M00 A3019 RMK A01,M
MEV,2022-07-14 21:15,-119.7500,38.9963,1441.42,95.00,21.20,6.95,M,4.00,0.00,30.08,M,10.00,11.00,CLR,M,M,M,M,M,M,M,M,M,M,M,M,M,M,88.62,KMEV 142115Z AUTO VRB04G11KT 10SM CLR 35/M06 A3008 RMK AO2,M
BAM,2022-07-14 21:15,-116.8743,40.5990,1382.36,M,M,M,210.00,7.00,0.00,30.04,M,10.00,M,CLR,M,M,M,M,M,M,M,M,M,M,M,M,M,M,M,KBAM 142115Z AUTO 21007KT 10SM CLR A3004 RMK AO1,M
HTH,2022-07-14 21:15,-118.6315,38.5448,1282.89,95.00,24.80,8.08,340.00,5.00,0.00,30.01,M,10.00,11.00,CLR,M,M,M,M,M,M,M,M,M,M,M,M,M,M,88.91,KHTH 142115Z AUTO 34005G11KT 10SM CLR 35/M04 A3001 RMK A01,M
P68,2022-07-14 21:17,-116.0056,39.6014,1993.00,88.00,33.00,14.12,180.00,21.00,0.00,30.16,M,M,41.00,M,M,M,M,M,M,M,M,M,M,M,M,41.00,200.00,2022-07-14 21:13,84.25,KP68 142117Z AUTO 18021G41KT 31/01 A3016 RMK AO1 PK WND 20041/2113 WSHFT 2100 T03110006,M
LSV,2022-07-14 21:28,-115.0343,36.2362,570.00,105.80,50.00,15.73,170.00,12.00,0.00,29.84,1007.30,10.00,18.00,FEW,BKN,M,M,14000.00,19000.00,M,M,VCTS,M,M,M,M,M,M,102.98,KLSV 142128Z 17012G18KT 10SM VCTS FEW140CB BKN190 41/10 A2984 RMK A02A LTG DSNT S SLP073 $,M
RTS,2022-07-14 21:35,-119.8764,39.6682,1539.00,91.40,21.20,7.77,240.00,11.00,0.00,30.12,M,10.00,22.00,CLR,M,M,M,M,M,M,M,M,M,M,M,M,M,M,85.96,KRTS 142135Z AUTO 24011G22KT 10SM CLR 33/M06 A3012 RMK AO2,M
BVU,2022-07-14 21:35,-114.8611,35.9475,671.00,98.60,53.60,22.29,260.00,19.00,0.00,29.88,M,9.00,27.00,BKN,M,M,M,11000.00,M,M,M,TS,M,M,M,M,M,M,96.51,KBVU 142135Z AUTO 26019G27KT 9SM TS BKN110 37/12 A2988 RMK AO2 LTG DSNT SW-N,M
CXP,2022-07-14 21:35,-119.7326,39.1923,1431.00,95.00,19.40,6.43,240.00,6.00,0.00,30.09,M,10.00,15.00,CLR,M,M,M,M,M,M,M,M,M,M,M,M,M,M,88.50,KCXP 142135Z AUTO 24006G15KT 10SM CLR 35/M07 A3009 RMK AO2,M
05U,2022-07-14 21:35,-116.0051,39.6042,1811.23,86.00,37.40,17.85,140.00,18.00,0.00,30.19,M,8.00,31.00,FEW,M,M,M,12000.00,M,M,M,M,M,M,M,M,M,M,82.73,K05U 142135Z AUTO 14018G31KT 8SM FEW120 30/03 A3019 RMK A01,M
MEV,2022-07-14 21:35,-119.7500,38.9963,1441.42,95.00,21.20,6.95,250.00,8.00,0.00,30.08,M,10.00,17.00,CLR,M,M,M,M,M,M,M,M,M,M,M,M,M,M,88.62,KMEV 142135Z AUTO 25008G17KT 10SM CLR 35/M06 A3008 RMK AO2,M
BAM,2022-07-14 21:35,-116.8743,40.5990,1382.36,M,M,M,270.00,9.00,0.00,30.04,M,10.00,M,CLR,M,M,M,M,M,M,M,M,M,M,M,M,M,M,M,KBAM 142135Z AUTO 27009KT 10SM CLR A3004 RMK AO1,M
HTH,2022-07-14 21:35,-118.6315,38.5448,1282.89,96.80,24.80,7.65,320.00,8.00,0.00,30.00,M,10.00,14.00,CLR,M,M,M,M,M,M,M,M,M,M,M,M,M,M,90.40,KHTH 142135Z AUTO 32008G14KT 10SM CLR 36/M04 A3000 RMK A01,M
TMT,2022-07-14 21:35,-117.1971,39.4643,1749.34,95.70,33.30,11.19,260.00,15.00,0.00,30.14,M,10.00,22.00,CLR,M,M,M,M,M,M,M,M,M,M,M,M,M,M,90.46,KTMT 142135Z AUTO 26015G22KT 10SM CLR 35/01 A3014 RMK AO2 T03540007,M
LOL,2022-07-14 21:53,-118.5701,40.0684,1192.43,97.00,17.10,5.48,0.00,0.00,0.00,30.00,1011.30,10.00,M,CLR,M,M,M,M,M,M,M,M,M,M,M,M,M,M,90.02,KLOL 142153Z AUTO 00000KT 10SM CLR 36/M08 A3000 RMK AO2 SLP113 T03611083,M
VGT,2022-07-14 21:53,-115.1933,36.2111,667.00,106.00,51.00,16.29,170.00,12.00,0.00,29.86,1009.10,10.00,17.00,CLR,M,M,M,M,M,M,M,M,M,M,M,M,M,M,103.54,KVGT 142153Z 17012G17KT 10SM CLR 41/11 A2986 RMK AO2 LTG DSNT E-S SLP091 T04110106,M
P68,2022-07-14 21:53,-116.0056,39.6014,1993.00,89.00,32.00,13.05,110.00,14.00,0.00,30.16,1012.00,M,28.00,M,M,M,M,M,M,M,M,M,M,M,M,41.00,200.00,2022-07-14 21:13,85.15,KP68 142153Z AUTO 11014G28KT 32/00 A3016 RMK AO1 PK WND 20041/2113 WSHFT 2100 SLP120 T03170000,M
DRA,2022-07-14 21:53,-116.0278,36.6206,1009.00,105.00,45.00,13.31,230.00,16.00,0.00,29.96,1008.20,10.00,27.00,CLR,M,M,M,M,M,M,M,M,M,M,M,28.00,220.00,2022-07-14 21:09,100.97,KDRA 142153Z AUTO 23016G27KT 190V260 10SM CLR 41/07 A2996 RMK AO2 PK WND 22028/2109 SLP082 T04060072,M
ELY,2022-07-14 21:53,-114.8453,39.2950,1909.00,93.00,36.00,13.55,200.00,15.00,0.00,30.18,1009.70,10.00,22.00,FEW,M,M,M,11000.00,M,M,M,M,M,M,M,M,M,M,88.59,KELY 142153Z AUTO 20015G22KT 10SM FEW110 34/02 A3018 RMK AO2 LTG DSNT E SLP097 T03390022,M
HTH,2022-07-14 21:55,-118.6315,38.5448,1282.89,98.60,23.00,6.71,330.00,12.00,0.00,29.99,M,10.00,M,CLR,M,M,M,M,M,M,M,M,M,M,M,M,M,M,91.75,KHTH 142155Z AUTO 33012KT 10SM CLR 37/M05 A2999 RMK A01,M
RTS,2022-07-14 21:55,-119.8764,39.6682,1539.00,93.20,21.20,7.34,250.00,14.00,0.00,30.12,M,10.00,22.00,CLR,M,M,M,M,M,M,M,M,M,M,M,M,M,M,87.29,KRTS 142155Z AUTO 25014G22KT 10SM CLR 34/M06 A3012 RMK AO2,M
RNO,2022-07-14 21:55,-119.7711,39.4839,1341.00,100.00,25.00,6.99,M,5.00,0.00,30.05,1010.60,10.00,M,FEW,M,M,M,10000.00,M,M,M,M,M,M,M,M,M,M,93.09,KRNO 142155Z VRB05KT 10SM FEW100 38/M04 A3005 RMK AO2 SLP106 FU ALF DSNT NE THRU SE T03781039,M
BAM,2022-07-14 21:55,-116.8743,40.5990,1382.36,M,M,M,220.00,10.00,0.00,30.03,M,10.00,20.00,CLR,M,M,M,M,M,M,M,M,M,M,M,M,M,M,M,KBAM 142155Z AUTO 22010G20KT 10SM CLR A3003 RMK AO1,M
05U,2022-07-14 21:55,-116.0051,39.6042,1811.23,89.60,32.00,12.84,110.00,14.00,0.00,30.18,M,10.00,24.00,CLR,M,M,M,M,M,M,M,M,M,M,M,M,M,M,85.54,K05U 142155Z AUTO 11014G24KT 10SM CLR 32/M00 A3018 RMK A01,M
MEV,2022-07-14 21:55,-119.7500,38.9963,1441.42,96.80,17.60,5.63,230.00,18.00,0.00,30.07,M,9.00,24.00,CLR,M,M,M,M,M,M,M,M,M,M,M,M,M,M,89.88,KMEV 142155Z AUTO 23018G24KT 9SM CLR 36/M08 A3007 RMK AO2,M
BVU,2022-07-14 21:55,-114.8611,35.9475,671.00,93.20,59.00,31.99,290.00,14.00,0.00,29.90,M,9.00,31.00,FEW,BKN,M,M,6000.00,11000.00,M,M,VCTS,M,M,M,M,M,M,92.57,KBVU 142155Z AUTO 29014G31KT 9SM VCTS FEW060 BKN110 34/15 A2990 RMK AO2 LTG DSNT ALQDS,M
TMT,2022-07-14 21:55,-117.1971,39.4643,1749.34,M,M,M,260.00,13.00,0.00,30.13,M,10.00,17.00,CLR,M,M,M,M,M,M,M,M,M,M,M,M,M,M,M,KTMT 142155Z AUTO 26013G17KT 10SM CLR A3013 RMK AO2,M
CXP,2022-07-14 21:55,-119.7326,39.1923,1431.00,95.00,23.00,7.49,260.00,11.00,0.00,30.09,M,10.00,18.00,CLR,M,M,M,M,M,M,M,M,M,M,M,M,M,M,88.76,KCXP 142155Z AUTO 26011G18KT 10SM CLR 35/M05 A3009 RMK AO2,M
HND,2022-07-14 21:56,-115.1344,35.9729,742.79,99.00,59.00,26.78,130.00,16.00,T,29.92,1011.00,10.00,21.00,FEW,M,M,M,6500.00,M,M,M,VCTS,M,M,M,M,M,M,98.97,KHND 142156Z 13016G21KT 10SM VCTS FEW065 37/15 A2992 RMK AO2 LTG DSNT ALQDS RAB39E52 SLP110 P0000 T03720150,M
LAS,2022-07-14 21:56,-115.1634,36.0719,663.00,103.00,54.00,19.87,120.00,9.00,0.00,29.87,1008.10,10.00,M,BKN,BKN,BKN,M,12000.00,15000.00,22000.00,M,TS,M,M,M,M,M,M,101.27,KLAS 142156Z 12009KT 10SM TS BKN120CB BKN150 BKN220 39/12 A2987 RMK AO2 LTG DSNT E-SW SLP081 OCNL LTGICCG NE-SE-S TS NE-SE-S MOV N VCSH NE-SE-S CBMAM N CB DSNT N T03940122,M
TPH,2022-07-14 21:56,-117.0904,38.0505,1654.00,97.00,37.00,12.46,200.00,17.00,0.00,30.11,1010.10,10.00,23.00,FEW,M,M,M,11000.00,M,M,M,M,M,M,M,31.00,180.00,2022-07-14 21:29,92.13,KTPH 142156Z AUTO 20017G23KT 10SM FEW110 36/03 A3011 RMK AO2 PK WND 18031/2129 SLP101 T03610028,M
NFL,2022-07-14 21:56,-118.7010,39.4166,1199.00,96.00,19.00,6.11,0.00,0.00,0.00,30.00,1013.00,10.00,M,FEW,SCT,M,M,8000.00,12000.00,M,M,M,M,M,M,M,M,M,89.38,KNFL 142156Z 00000KT 10SM FEW080 SCT120 36/M07 A3000 RMK AO2 SLP130 T03561072,M
LSV,2022-07-14 21:56,-115.0343,36.2362,570.00,105.40,50.00,15.92,170.00,9.00,0.00,29.83,1006.90,10.00,M,FEW,BKN,M,M,19000.00,22000.00,M,M,VCTS,M,M,M,M,M,M,102.57,KLSV 142156Z 17009KT 10SM VCTS FEW190CB BKN220 41/10 A2983 RMK A02A LTG DSNT SE-S SLP069 T04080100 $,M
WMC,2022-07-14 21:56,-117.8072,40.9019,1315.00,100.00,28.90,8.22,M,3.00,0.00,30.01,1010.40,10.00,M,CLR,M,M,M,M,M,M,M,M,M,M,M,M,M,M,93.48,KWMC 142156Z AUTO VRB03KT 10SM CLR 38/M02 A3001 RMK AO2 SLP104 T03781017 TSNO,M
EKO,2022-07-14 21:56,-115.7860,40.8242,1367.00,98.00,30.90,9.44,M,3.00,0.00,30.05,1010.00,10.00,21.00,CLR,M,M,M,M,M,M,M,M,M,M,M,M,M,M,92.13,KEKO 142156Z AUTO VRB03G21KT 10SM CLR 37/M01 A3005 RMK AO2 SLP100 T03671006,M
INS,2022-07-14 21:58,-115.6733,36.5872,955.00,101.50,45.00,14.87,200.00,8.00,0.00,29.93,1007.60,10.00,M,SCT,M,M,M,11000.00,M,M,M,M,M,M,M,M,M,M,97.48,KINS 142158Z AUTO 20008KT 10SM SCT110 39/07 A2993 RMK AO2 SLP076 T03860073 $,M
HND,2022-07-14 22:13,-115.1344,35.9729,742.79,98.60,57.20,25.41,150.00,12.00,T,29.91,M,10.00,23.00,FEW,BKN,BKN,M,7000.00,9500.00,11000.00,M,-RA,M,M,M,29.00,170.00,2022-07-14 22:02,97.76,KHND 142213Z 15012G23KT 10SM -RA FEW070 BKN095 BKN110 37/14 A2991 RMK AO2 PK WND 17029/2202 LTG DSNT ALQDS TSE07RAB01 P0000,M
CXP,2022-07-14 22:15,-119.7326,39.1923,1431.00,95.00,24.80,8.08,240.00,6.00,0.00,30.08,M,10.00,21.00,CLR,M,M,M,M,M,M,M,M,M,M,M,M,M,M,88.91,KCXP 142215Z AUTO 24006G21KT 10SM CLR 35/M04 A3008 RMK AO2,M
RTS,2022-07-14 22:15,-119.8764,39.6682,1539.00,91.40,21.20,7.77,280.00,15.00,0.00,30.11,M,10.00,22.00,CLR,M,M,M,M,M,M,M,M,M,M,M,M,M,M,85.96,KRTS 142215Z AUTO 28015G22KT 10SM CLR 33/M06 A3011 RMK AO2,M
05U,2022-07-14 22:15,-116.0051,39.6042,1811.23,91.40,30.20,11.28,0.00,0.00,0.00,30.17,M,10.00,M,CLR,M,M,M,M,M,M,M,M,M,M,M,M,M,M,86.71,K05U 142215Z AUTO 00000KT 10SM CLR 33/M01 A3017 RMK A01,M
MEV,2022-07-14 22:15,-119.7500,38.9963,1441.42,96.80,15.80,5.21,230.00,14.00,0.00,30.07,M,10.00,21.00,CLR,M,M,M,M,M,M,M,M,M,M,M,M,M,M,89.78,KMEV 142215Z AUTO 23014G21KT 10SM CLR 36/M09 A3007 RMK AO2,M
BAM,2022-07-14 22:15,-116.8743,40.5990,1382.36,M,M,M,250.00,11.00,0.00,30.02,M,10.00,19.00,CLR,M,M,M,M,M,M,M,M,M,M,M,M,M,M,M,KBAM 142215Z AUTO 25011G19KT 10SM CLR A3002 RMK AO1,M
TMT,2022-07-14 22:15,-117.1971,39.4643,1749.34,M,M,M,230.00,4.00,0.00,30.12,M,10.00,15.00,CLR,M,M,M,M,M,M,M,M,M,M,M,M,M,M,M,KTMT 142215Z AUTO 23004G15KT 10SM CLR A3012 RMK AO2,M
HTH,2022-07-14 22:15,-118.6315,38.5448,1282.89,95.00,24.80,8.08,330.00,10.00,0.00,29.99,M,10.00,17.00,CLR,M,M,M,M,M,M,M,M,M,M,M,M,M,M,88.91,KHTH 142215Z AUTO 33010G17KT 10SM CLR 35/M04 A2999 RMK A01,M
BVU,2022-07-14 22:15,-114.8611,35.9475,671.00,93.20,60.80,34.11,10.00,10.00,0.00,29.90,M,4.00,20.00,FEW,SCT,OVC,M,900.00,3000.00,11000.00,M,VCTS RA,M,M,M,M,M,M,93.32,KBVU 142215Z AUTO 01010G20KT 4SM VCTS RA FEW009 SCT030 OVC110 34/16 A2990 RMK AO2 LTG DSNT SW-NW,M
HND,2022-07-14 22:32,-115.1344,35.9729,742.79,96.80,57.20,26.84,90.00,4.00,T,29.91,M,10.00,M,FEW,SCT,BKN,M,5500.00,7500.00,9500.00,M,VCTS -RA,M,M,M,29.00,170.00,2022-07-14 22:02,95.77,KHND 142232Z 09004KT 10SM VCTS -RA FEW055 SCT075 BKN095 36/14 A2991 RMK AO2 PK WND 17029/2202 LTG DSNT ALQDS TSE07B26RAB01 P0000,M
BVU,2022-07-14 22:35,-114.8611,35.9475,671.00,82.40,59.00,45.07,10.00,10.00,0.00,29.92,M,1.50,38.00,SCT,BKN,OVC,M,600.00,3400.00,6500.00,M,-TSRA,M,M,M,M,M,M,82.46,KBVU 142235Z AUTO 01010G38KT 1 1/2SM -TSRA SCT006 BKN034 OVC065 28/15 A2992 RMK AO2,M
CXP,2022-07-14 22:35,-119.7326,39.1923,1431.00,93.20,32.00,11.48,270.00,12.00,0.00,30.08,M,10.00,20.00,CLR,M,M,M,M,M,M,M,M,M,M,M,M,M,M,88.31,KCXP 142235Z AUTO 27012G20KT 10SM CLR 34/M00 A3008 RMK AO2,M
RTS,2022-07-14 22:35,-119.8764,39.6682,1539.00,91.40,23.00,8.38,260.00,15.00,0.00,30.11,M,10.00,22.00,CLR,M,M,M,M,M,M,M,M,M,M,M,M,M,M,86.08,KRTS 142235Z AUTO 26015G22KT 10SM CLR 33/M05 A3011 RMK AO2,M
05U,2022-07-14 22:35,-116.0051,39.6042,1811.23,93.20,33.80,12.34,0.00,0.00,0.00,30.16,M,10.00,10.00,CLR,M,M,M,M,M,M,M,M,M,M,M,M,M,M,88.55,K05U 142235Z AUTO 00000G10KT 10SM CLR 34/01 A3016 RMK A01,M
MEV,2022-07-14 22:35,-119.7500,38.9963,1441.42,95.00,26.60,8.71,250.00,13.00,0.00,30.07,M,10.00,M,CLR,M,M,M,M,M,M,M,M,M,M,M,M,M,M,89.08,KMEV 142235Z AUTO 25013KT 10SM CLR 35/M03 A3007 RMK AO2,M
BAM,2022-07-14 22:35,-116.8743,40.5990,1382.36,M,M,M,250.00,12.00,0.00,30.01,M,10.00,28.00,CLR,M,M,M,M,M,M,M,M,M,M,M,M,M,M,M,KBAM 142235Z AUTO 25012G28KT 220V280 10SM CLR A3001 RMK AO1,M
HTH,2022-07-14 22:35,-118.6315,38.5448,1282.89,98.60,23.00,6.71,330.00,11.00,0.00,29.97,M,10.00,M,CLR,M,M,M,M,M,M,M,M,M,M,M,M,M,M,91.75,KHTH 142235Z AUTO 33011KT 10SM CLR 37/M05 A2997 RMK A01,M
TMT,2022-07-14 22:35,-117.1971,39.4643,1749.34,M,M,M,230.00,13.00,0.00,30.12,M,10.00,19.00,CLR,M,M,M,M,M,M,M,M,M,M,M,M,M,M,M,KTMT 142235Z AUTO 23013G19KT 10SM CLR A3012 RMK AO2,M
LSV,2022-07-14 22:44,-115.0343,36.2362,570.00,100.40,53.60,21.11,130.00,16.00,0.00,29.81,1006.30,10.00,M,SCT,BKN,BKN,M,12000.00,19000.00,22000.00,M,TS,M,M,M,M,M,M,98.44,KLSV 142244Z COR 13016KT 10SM TS SCT120CB BKN190 BKN220 38/12 A2981 RMK AO2A LTG DSNT NE AND SE-S TSB34 SLP063 $ COR 2301,M
VGT,2022-07-14 22:51,-115.1933,36.2111,667.00,100.40,55.40,22.54,130.00,18.00,0.00,29.85,M,10.00,M,CLR,M,M,M,M,M,M,M,VCTS,M,M,M,29.00,120.00,2022-07-14 22:26,99.06,KVGT 142251Z 13018KT 10SM VCTS CLR 38/13 A2985 RMK AO2 PK WND 12029/2226 LTG DSNT SE-SW,M
DRA,2022-07-14 22:53,-116.0278,36.6206,1009.00,104.00,45.00,13.75,190.00,14.00,0.00,29.94,1007.60,10.00,21.00,CLR,M,M,M,M,M,M,M,M,M,M,M,26.00,240.00,2022-07-14 21:59,99.90,KDRA 142253Z AUTO 19014G21KT 10SM CLR 40/07 A2994 RMK AO2 PK WND 24026/2159 SLP076 T04000072,M
LOL,2022-07-14 22:53,-118.5701,40.0684,1192.43,99.00,16.00,4.92,260.00,9.00,0.00,29.98,1010.70,10.00,M,CLR,M,M,M,M,M,M,M,M,M,M,M,M,M,M,91.62,KLOL 142253Z AUTO 26009KT 10SM CLR 37/M09 A2998 RMK AO2 SLP107 T03721089,M
ELY,2022-07-14 22:53,-114.8453,39.2950,1909.00,91.00,35.00,13.91,240.00,10.00,0.00,30.16,1009.30,10.00,17.00,CLR,M,M,M,M,M,M,M,M,M,M,M,M,M,M,86.81,KELY 142253Z AUTO 24010G17KT 10SM CLR 33/02 A3016 RMK AO2 SLP093 T03280017,M
P68,2022-07-14 22:53,-116.0056,39.6014,1993.00,90.00,30.90,12.13,M,M,0.00,30.13,1011.20,M,M,M,M,M,M,M,M,M,M,M,M,M,M,M,M,M,85.72,KP68 142253Z AUTO 32/M01 A3013 RMK AO1 SLP112 T03221006,M
VGT,2022-07-14 22:53,-115.1933,36.2111,667.00,100.00,55.00,22.49,140.00,16.00,0.00,29.85,1009.00,10.00,M,CLR,M,M,M,M,M,M,M,VCTS,M,M,M,29.00,120.00,2022-07-14 22:26,98.48,KVGT 142253Z 14016KT 10SM VCTS CLR 38/13 A2985 RMK AO2 PK WND 12029/2226 LTG DSNT SE-SW SLP090 T03780128,M
BAM,2022-07-14 22:55,-116.8743,40.5990,1382.36,M,M,M,250.00,11.00,0.00,30.01,M,10.00,16.00,CLR,M,M,M,M,M,M,M,M,M,M,M,M,M,M,M,KBAM 142255Z AUTO 25011G16KT 10SM CLR A3001 RMK AO1,M
BVU,2022-07-14 22:55,-114.8611,35.9475,671.00,M,M,M,M,M,0.00,M,M,M,M,M,M,M,M,M,M,M,M,M,M,M,M,M,M,M,M,KBVU 142255Z AUTO RMK AO2 PNO PWINO TSNO,M
CXP,2022-07-14 22:55,-119.7326,39.1923,1431.00,93.20,32.00,11.48,270.00,12.00,0.00,30.08,M,10.00,24.00,CLR,M,M,M,M,M,M,M,M,M,M,M,M,M,M,88.31,KCXP 142255Z AUTO 27012G24KT 10SM CLR 34/00 A3008 RMK AO2,M
RNO,2022-07-14 22:55,-119.7711,39.4839,1341.00,98.00,26.10,7.76,160.00,12.00,0.00,30.03,1010.50,10.00,19.00,FEW,M,M,M,10000.00,M,M,M,M,M,M,M,M,M,M,91.60,KRNO 142255Z 16012G19KT 10SM FEW100 37/M03 A3003 RMK AO2 SLP105 FU ALF DSNT NE THRU SE T03671033,M
RTS,2022-07-14 22:55,-119.8764,39.6682,1539.00,91.40,23.00,8.38,240.00,15.00,0.00,30.11,M,10.00,20.00,CLR,M,M,M,M,M,M,M,M,M,M,M,M,M,M,86.08,KRTS 142255Z AUTO 24015G20KT 10SM CLR 33/M05 A3011 RMK AO2,M
05U,2022-07-14 22:55,-116.0051,39.6042,1811.23,91.40,32.00,12.14,100.00,8.00,0.00,30.16,M,10.00,M,CLR,M,M,M,M,M,M,M,M,M,M,M,M,M,M,86.91,K05U 142255Z AUTO 10008KT 10SM CLR 33/00 A3016 RMK A01,M
MEV,2022-07-14 22:55,-119.7500,38.9963,1441.42,95.00,28.40,9.38,260.00,11.00,0.00,30.07,M,10.00,21.00,CLR,M,M,M,M,M,M,M,M,M,M,M,M,M,M,89.27,KMEV 142255Z AUTO 26011G21KT 10SM CLR 35/M02 A3007 RMK AO2,M
HTH,2022-07-14 22:55,-118.6315,38.5448,1282.89,96.80,23.00,7.09,340.00,11.00,0.00,29.97,M,10.00,M,CLR,M,M,M,M,M,M,M,M,M,M,M,M,M,M,90.25,KHTH 142255Z AUTO 34011KT 10SM CLR 36/M05 A2997 RMK A01,M
TMT,2022-07-14 22:55,-117.1971,39.4643,1749.34,M,M,M,200.00,4.00,0.00,30.11,M,10.00,M,CLR,M,M,M,M,M,M,M,M,M,M,M,M,M,M,M,KTMT 142255Z AUTO 20004KT 10SM CLR A3011 RMK AO2,M
WMC,2022-07-14 22:56,-117.8072,40.9019,1315.00,101.00,24.10,6.56,260.00,15.00,0.00,30.00,1009.90,10.00,23.00,CLR,M,M,M,M,M,M,M,M,M,M,M,M,M,M,93.76,KWMC 142256Z AUTO 26015G23KT 10SM CLR 38/M04 A3000 RMK AO2 SLP099 T03831044 TSNO,M
LSV,2022-07-14 22:56,-115.0343,36.2362,570.00,100.20,54.50,21.95,130.00,15.00,0.00,29.81,1006.30,10.00,M,FEW,BKN,M,M,12000.00,16000.00,M,M,VCTS,M,M,M,M,M,M,98.52,KLSV 142256Z COR 13015KT 10SM VCTS FEW120CB BKN160 38/13 A2981 RMK A02A LTG DSNT NE AND SE-SW SLP063 T03790125 $ COR 2306,M
EKO,2022-07-14 22:56,-115.7860,40.8242,1367.00,98.00,32.00,9.87,210.00,9.00,0.00,30.03,1009.50,10.00,M,CLR,M,M,M,M,M,M,M,M,M,M,M,M,M,M,92.27,KEKO 142256Z AUTO 21009KT 10SM CLR 37/00 A3003 RMK AO2 SLP095 T03670000,M
TPH,2022-07-14 22:56,-117.0904,38.0505,1654.00,97.00,37.00,12.46,190.00,10.00,0.00,30.09,1009.60,10.00,29.00,CLR,M,M,M,M,M,M,M,M,M,M,M,29.00,180.00,2022-07-14 22:52,92.13,KTPH 142256Z AUTO 19010G29KT 10SM CLR 36/03 A3009 RMK AO2 PK WND 18029/2252 SLP096 T03610028,M
LAS,2022-07-14 22:56,-115.1634,36.0719,663.00,100.00,55.00,22.49,0.00,0.00,0.00,29.87,1008.00,10.00,M,BKN,BKN,BKN,M,12000.00,15000.00,22000.00,M,TS,M,M,M,M,M,M,98.48,KLAS 142256Z 00000KT 10SM TS BKN120CB BKN150 BKN220 38/13 A2987 RMK AO2 LTG DSNT E-SW SLP080 OCNL LTGICCG ALQDS TS ALQDS MOV N CB DSNT N T03780128,M
HND,2022-07-14 22:56,-115.1344,35.9729,742.79,96.00,58.00,28.12,150.00,15.00,T,29.91,1010.80,10.00,21.00,FEW,M,M,M,7000.00,M,M,M,VCTS,M,M,M,29.00,170.00,2022-07-14 22:02,95.27,KHND 142256Z 15015G21KT 10SM VCTS FEW070 36/14 A2991 RMK AO2 PK WND 17029/2202 LTG DSNT ALQDS TSE07B26RAB01E38 SLP108 P0000 T03560144,M
NFL,2022-07-14 22:56,-118.7010,39.4166,1199.00,98.00,19.00,5.75,M,3.00,0.00,29.98,1012.30,10.00,M,FEW,SCT,M,M,8000.00,14000.00,M,M,M,M,M,M,M,M,M,91.05,KNFL 142256Z VRB03KT 10SM FEW080 SCT140 37/M07 A2998 RMK AO2 SLP123 T03671072,M
INS,2022-07-14 22:58,-115.6733,36.5872,955.00,101.30,43.20,13.92,260.00,15.00,0.00,29.91,1007.00,10.00,M,SCT,M,M,M,12000.00,M,M,M,M,M,M,M,M,M,M,96.96,KINS 142258Z AUTO 26015KT 10SM SCT120 39/06 A2991 RMK AO2 SLP070 T03850062 $,M
LSV,2022-07-14 23:00,-115.0343,36.2362,570.00,100.40,53.60,21.11,130.00,15.00,0.00,29.81,1006.30,10.00,M,FEW,BKN,M,M,12000.00,16000.00,M,M,VCTS,M,M,M,M,M,M,98.44,KLSV 142300Z 13015KT 10SM VCTS FEW120CB BKN160 38/12 A2981 RMK A02A LTG DSNT SE AND SW TSB44E00 SLP063 $,M
LSV,2022-07-14 23:11,-115.0343,36.2362,570.00,100.40,53.60,21.11,170.00,10.00,0.00,29.82,1006.70,10.00,M,CLR,M,M,M,M,M,M,M,M,M,M,M,M,M,M,98.44,KLSV 142311Z AUTO 17010KT 10SM CLR 38/12 A2982 RMK AO2 WSHFT 01 LTG DSNT E-SW SLP067 $,M
BAM,2022-07-14 23:15,-116.8743,40.5990,1382.36,M,M,M,280.00,5.00,0.00,30.00,M,10.00,M,CLR,M,M,M,M,M,M,M,M,M,M,M,M,M,M,M,KBAM 142315Z AUTO 28005KT 10SM CLR A3000 RMK AO1,M
MEV,2022-07-14 23:15,-119.7500,38.9963,1441.42,95.00,28.40,9.38,250.00,13.00,0.00,30.06,M,10.00,19.00,CLR,M,M,M,M,M,M,M,M,M,M,M,M,M,M,89.27,KMEV 142315Z AUTO 25013G19KT 10SM CLR 35/M02 A3006 RMK AO2,M
05U,2022-07-14 23:15,-116.0051,39.6042,1811.23,91.40,32.00,12.14,0.00,0.00,0.00,30.15,M,10.00,M,CLR,M,M,M,M,M,M,M,M,M,M,M,M,M,M,86.91,K05U 142315Z AUTO 00000KT 10SM CLR 33/M00 A3015 RMK A01,M
RTS,2022-07-14 23:15,-119.8764,39.6682,1539.00,93.20,23.00,7.92,250.00,17.00,0.00,30.11,M,10.00,25.00,CLR,M,M,M,M,M,M,M,M,M,M,M,M,M,M,87.42,KRTS 142315Z AUTO 25017G25KT 10SM CLR 34/M05 A3011 RMK AO2,M
TMT,2022-07-14 23:15,-117.1971,39.4643,1749.34,M,M,M,250.00,8.00,0.00,30.11,M,10.00,15.00,CLR,M,M,M,M,M,M,M,M,M,M,M,M,M,M,M,KTMT 142315Z AUTO 25008G15KT 220V290 10SM CLR A3011 RMK AO2,M
HTH,2022-07-14 23:15,-118.6315,38.5448,1282.89,96.80,23.00,7.09,340.00,12.00,0.00,29.96,M,10.00,M,CLR,M,M,M,M,M,M,M,M,M,M,M,M,M,M,90.25,KHTH 142315Z AUTO 34012KT 10SM CLR 36/M05 A2996 RMK A01,M
CXP,2022-07-14 23:15,-119.7326,39.1923,1431.00,93.20,33.80,12.34,260.00,12.00,0.00,30.08,M,10.00,24.00,CLR,M,M,M,M,M,M,M,M,M,M,M,M,M,M,88.55,KCXP 142315Z AUTO 26012G24KT 10SM CLR 34/01 A3008 RMK AO2,M
BVU,2022-07-14 23:15,-114.8611,35.9475,671.00,M,M,M,M,M,0.00,M,M,M,M,M,M,M,M,M,M,M,M,M,M,M,M,M,M,M,M,KBVU 142315Z AUTO RMK AO2 PNO PWINO TSNO,M
HND,2022-07-14 23:17,-115.1344,35.9729,742.79,96.80,55.40,25.15,220.00,14.00,0.00,29.92,M,10.00,M,SCT,M,M,M,11000.00,M,M,M,VCTS,M,M,M,26.00,210.00,2022-07-14 23:05,95.14,KHND 142317Z 22014KT 10SM VCTS SCT110 36/13 A2992 RMK AO2 PK WND 21026/2305 WSHFT 2257 LTG DSNT ALQDS,M
INS,2022-07-14 23:17,-115.6733,36.5872,955.00,100.40,44.60,15.08,290.00,13.00,0.00,29.91,1007.20,10.00,M,FEW,FEW,SCT,M,12000.00,20000.00,22000.00,M,M,M,M,M,M,M,M,96.31,KINS 142317Z AUTO 29013KT 10SM FEW120 FEW200 SCT220 38/07 A2991 RMK AO2 WSHFT 09 SLP072 $,M
LSV,2022-07-14 23:24,-115.0343,36.2362,570.00,100.40,53.60,21.11,190.00,16.00,0.00,29.82,1006.70,10.00,21.00,FEW,BKN,M,M,16000.00,16000.00,M,M,VCTS,M,M,M,M,M,M,98.44,KLSV 142324Z 19016G21KT 10SM VCTS FEW160CB BKN160 38/12 A2982 RMK A02A LTG DSNT SE-S SLP067 $,M
LSV,2022-07-14 23:30,-115.0343,36.2362,570.00,100.40,53.60,21.11,150.00,14.00,0.00,29.82,1006.70,10.00,21.00,SCT,M,M,M,16000.00,M,M,M,M,M,M,M,M,M,M,98.44,KLSV 142330Z AUTO 15014G21KT 10SM SCT160 38/12 A2982 RMK AO2 WSHFT 23 LTG DSNT NE AND SE SLP067 $,M
CXP,2022-07-14 23:30,-119.7326,39.1923,1431.00,93.20,35.60,13.25,280.00,14.00,0.00,30.07,M,10.00,22.00,CLR,M,M,M,M,M,M,M,M,M,M,M,M,M,M,88.76,KCXP 142330Z AUTO 28014G22KT 240V300 10SM CLR 34/02 A3007 RMK AO2,M
05U,2022-07-14 23:35,-116.0051,39.6042,1811.23,91.40,33.80,13.05,190.00,10.00,0.00,30.15,M,10.00,M,CLR,M,M,M,M,M,M,M,M,M,M,M,M,M,M,87.13,K05U 142335Z AUTO 19010KT 10SM CLR 33/01 A3015 RMK A01,M
TMT,2022-07-14 23:35,-117.1971,39.4643,1749.34,M,M,M,190.00,5.00,0.00,30.10,M,10.00,M,CLR,M,M,M,M,M,M,M,M,M,M,M,M,M,M,M,KTMT 142335Z AUTO 19005KT 10SM CLR A3010 RMK AO2,M
LSV,2022-07-14 23:35,-115.0343,36.2362,570.00,100.40,51.80,19.76,190.00,16.00,0.00,29.83,1007.00,10.00,23.00,BKN,M,M,M,16000.00,M,M,M,M,M,M,M,M,M,M,97.90,KLSV 142335Z AUTO 19016G23KT 10SM BKN160 38/11 A2983 RMK AO2 WSHFT 31 LTG DSNT NE AND SE SLP070 $,M
HTH,2022-07-14 23:35,-118.6315,38.5448,1282.89,96.80,26.60,8.24,330.00,11.00,0.00,29.96,M,10.00,M,CLR,M,M,M,M,M,M,M,M,M,M,M,M,M,M,90.57,KHTH 142335Z AUTO 33011KT 10SM CLR 36/M03 A2996 RMK A01,M
BAM,2022-07-14 23:35,-116.8743,40.5990,1382.36,M,M,M,250.00,15.00,0.00,30.00,M,10.00,18.00,CLR,M,M,M,M,M,M,M,M,M,M,M,M,M,M,M,KBAM 142335Z AUTO 25015G18KT 10SM CLR A3000 RMK AO1,M
MEV,2022-07-14 23:35,-119.7500,38.9963,1441.42,93.20,23.00,7.92,220.00,9.00,0.00,30.06,M,10.00,21.00,CLR,M,M,M,M,M,M,M,M,M,M,M,M,M,M,87.42,KMEV 142335Z AUTO 22009G21KT 190V250 10SM CLR 34/M05 A3006 RMK AO2,M
RTS,2022-07-14 23:35,-119.8764,39.6682,1539.00,91.40,23.00,8.38,270.00,13.00,0.00,30.11,M,10.00,22.00,CLR,M,M,M,M,M,M,M,M,M,M,M,M,M,M,86.08,KRTS 142335Z AUTO 27013G22KT 10SM CLR 33/M05 A3011 RMK AO2,M
BVU,2022-07-14 23:35,-114.8611,35.9475,671.00,M,M,M,M,M,0.00,M,M,M,M,M,M,M,M,M,M,M,M,M,M,M,M,M,M,M,M,KBVU 142335Z AUTO RMK AO2 PNO PWINO TSNO,M
VGT,2022-07-14 23:53,-115.1933,36.2111,667.00,98.00,55.00,23.82,160.00,11.00,T,29.86,1009.40,10.00,M,CLR,M,M,M,M,M,M,M,VCTS,M,M,M,33.00,140.00,2022-07-14 23:22,96.41,KVGT 142353Z 16011KT 10SM VCTS CLR 37/13 A2986 RMK AO2 PK WND 14033/2322 LTG DSNT ALQDS RAB15E30 SLP094 P0000 60000 T03670128 10433 20367 53000,M
DRA,2022-07-14 23:53,-116.0278,36.6206,1009.00,104.00,45.00,13.75,190.00,13.00,0.00,29.92,1006.80,10.00,22.00,CLR,M,M,M,M,M,M,M,M,M,M,M,M,M,M,99.90,KDRA 142353Z AUTO 19013G22KT 10SM CLR 40/07 A2992 RMK AO2 SLP068 T04000072 10406 20372 56020,M
P68,2022-07-14 23:53,-116.0056,39.6014,1993.00,90.00,32.00,12.68,180.00,24.00,0.00,30.11,1010.40,M,36.00,M,M,M,M,M,M,M,M,M,M,M,M,36.00,190.00,2022-07-14 23:53,85.84,KP68 142353Z AUTO 18024G36KT 32/00 A3011 RMK AO1 PK WND 19036/2353 SLP104 T03220000 10344 20289 58011,M
LOL,2022-07-14 23:53,-118.5701,40.0684,1192.43,99.00,17.10,5.16,M,M,0.00,29.95,1009.80,10.00,M,CLR,M,M,M,M,M,M,M,M,M,M,M,M,M,M,91.68,KLOL 142353Z AUTO 10SM CLR 37/M08 A2995 RMK AO2 SLP098 T03721083 10383 20306 58023,M
ELY,2022-07-14 23:53,-114.8453,39.2950,1909.00,90.00,36.00,14.88,200.00,10.00,0.00,30.16,1009.10,10.00,M,CLR,M,M,M,M,M,M,M,M,M,M,M,M,M,M,85.97,KELY 142353Z AUTO 20010KT 10SM CLR 32/02 A3016 RMK AO2 SLP091 T03220022 10350 20306 56015,M
RTS,2022-07-14 23:55,-119.8764,39.6682,1539.00,91.40,24.80,9.04,240.00,16.00,0.00,30.11,M,10.00,23.00,CLR,M,M,M,M,M,M,M,M,M,M,M,M,M,M,86.21,KRTS 142355Z AUTO 24016G23KT 10SM CLR 33/M04 A3011 RMK AO2,M
BVU,2022-07-14 23:55,-114.8611,35.9475,671.00,M,M,M,M,M,0.00,M,M,M,M,M,M,M,M,M,M,M,M,M,M,M,M,M,M,M,M,KBVU 142355Z AUTO RMK AO2 PNO PWINO TSNO,M
CXP,2022-07-14 23:55,-119.7326,39.1923,1431.00,91.40,37.40,15.05,290.00,18.00,0.00,30.07,M,10.00,27.00,CLR,M,M,M,M,M,M,M,M,M,M,M,M,M,M,87.23,KCXP 142355Z AUTO 29018G27KT 10SM CLR 33/03 A3007 RMK AO2,M
RNO,2022-07-14 23:55,-119.7711,39.4839,1341.00,98.00,28.00,8.39,250.00,16.00,0.00,30.02,1010.20,10.00,23.00,FEW,M,M,M,10000.00,M,M,M,M,M,M,M,M,M,M,91.79,KRNO 142355Z 25016G23KT 10SM FEW100 37/M02 A3002 RMK AO2 SLP102 T03671022 10378 20289 56013,M
05U,2022-07-14 23:55,-116.0051,39.6042,1811.23,89.60,30.20,11.94,180.00,16.00,0.00,30.15,M,10.00,29.00,CLR,M,M,M,M,M,M,M,M,M,M,M,M,M,M,85.34,K05U 142355Z AUTO 18016G29KT 10SM CLR 32/M01 A3015 RMK A01,M
MEV,2022-07-14 23:55,-119.7500,38.9963,1441.42,95.00,28.40,9.38,240.00,11.00,0.00,30.06,M,10.00,22.00,CLR,M,M,M,M,M,M,M,M,M,M,M,M,M,M,89.27,KMEV 142355Z AUTO 24011G22KT 10SM CLR 35/M02 A3006 RMK AO2,M
BAM,2022-07-14 23:55,-116.8743,40.5990,1382.36,M,M,M,250.00,13.00,0.00,29.99,M,10.00,18.00,CLR,M,M,M,M,M,M,M,M,M,M,M,M,M,M,M,KBAM 142355Z AUTO 25013G18KT 10SM CLR A2999 RMK AO1,M
HTH,2022-07-14 23:55,-118.6315,38.5448,1282.89,98.60,23.00,6.71,340.00,13.00,0.00,29.95,M,10.00,18.00,CLR,M,M,M,M,M,M,M,M,M,M,M,M,M,M,91.75,KHTH 142355Z AUTO 34013G18KT 10SM CLR 37/M05 A2995 RMK A01,M
TMT,2022-07-14 23:55,-117.1971,39.4643,1749.34,M,M,M,240.00,7.00,0.00,30.10,M,10.00,M,CLR,M,M,M,M,M,M,M,M,M,M,M,M,M,M,M,KTMT 142355Z AUTO 24007KT 10SM CLR A3010 RMK AO2,M
LAS,2022-07-14 23:56,-115.1634,36.0719,663.00,90.00,63.00,40.75,120.00,7.00,0.01,29.89,1009.00,9.00,21.00,SCT,BKN,BKN,OVC,5500.00,10000.00,12000.00,18000.00,-TSRA,M,M,M,M,M,M,90.93,KLAS 142356Z 12007G21KT 9SM -TSRA SCT055 BKN100CB BKN120 OVC180 32/17 A2989 RMK AO2 LTG DSNT ALQDS RAB17 SLP090 OCNL LTGICCG OHD-ALQDS TS OHD-ALQDS MOV N P0001 60001 T03220172 10417 20322 55001,M
EKO,2022-07-14 23:56,-115.7860,40.8242,1367.00,97.00,30.00,9.41,270.00,17.00,0.00,30.03,1009.50,10.00,24.00,CLR,M,M,M,M,M,M,M,M,M,M,M,M,M,M,91.10,KEKO 142356Z AUTO 27017G24KT 10SM CLR 36/M01 A3003 RMK AO2 SLP095 T03611011 10389 20328 56013,M
WMC,2022-07-14 23:56,-117.8072,40.9019,1315.00,101.00,12.90,4.05,250.00,15.00,0.00,29.98,1009.80,10.00,23.00,FEW,M,M,M,11000.00,M,M,M,M,M,M,M,M,M,M,93.02,KWMC 142356Z AUTO 25015G23KT 10SM FEW110 38/M11 A2998 RMK AO2 SLP098 T03831106 10394 20322 56019 TSNO,M
TPH,2022-07-14 23:56,-117.0904,38.0505,1654.00,97.00,37.00,12.46,200.00,14.00,0.00,30.07,1009.20,10.00,20.00,FEW,M,M,M,12000.00,M,M,M,M,M,M,M,26.00,180.00,2022-07-14 23:31,92.13,KTPH 142356Z AUTO 20014G20KT 10SM FEW120 36/03 A3007 RMK AO2 PK WND 18026/2331 SLP092 T03610028 10367 20317 56019,M
NFL,2022-07-14 23:56,-118.7010,39.4166,1199.00,100.00,18.00,5.20,360.00,7.00,0.00,29.96,1011.60,10.00,M,FEW,SCT,M,M,9000.00,14000.00,M,M,M,M,M,M,M,M,M,92.56,KNFL 142356Z 36007KT 10SM FEW090 SCT140 38/M08 A2996 RMK AO2 SLP116 FU ALOFT ALQDS T03781078 10383 20300 56022,M
HND,2022-07-14 23:56,-115.1344,35.9729,742.79,94.00,60.00,32.56,50.00,4.00,0.00,29.95,1012.40,10.00,M,FEW,BKN,M,M,8000.00,11000.00,M,M,VCTS,M,M,M,26.00,210.00,2022-07-14 23:05,93.77,KHND 142356Z 05004KT 10SM VCTS FEW080 BKN110 34/16 A2995 RMK AO2 PK WND 21026/2305 WSHFT 2257 LTG DSNT ALQDS SLP124 60000 T03440156 10411 20344 53008,M
INS,2022-07-14 23:58,-115.6733,36.5872,955.00,100.40,44.20,14.86,180.00,7.00,0.00,29.91,1007.00,10.00,M,BKN,BKN,M,M,17000.00,19000.00,M,M,M,M,M,M,M,M,M,96.25,KINS 142358Z AUTO 18007KT 10SM BKN170 BKN190 38/07 A2991 RMK AO2 SLP070 T03800068 10394 20367 56017 $,M
LSV,2022-07-14 23:58,-115.0343,36.2362,570.00,97.70,57.00,25.93,180.00,18.00,0.00,29.83,1007.10,10.00,M,FEW,M,M,M,16000.00,M,M,M,M,M,M,M,31.00,190.00,2022-07-14 23:42,96.69,KLSV 142358Z AUTO 18018KT 10SM FEW160 37/14 A2983 RMK AO2 PK WND 19031/42 LTG DSNT SE-S SLP071 T03650139 10434 20365 55007 $,M
