station,valid,lon,lat,elevation,tmpf,dwpf,relh,drct,sknt,p01i,alti,mslp,vsby,gust,skyc1,skyc2,skyc3,skyc4,skyl1,skyl2,skyl3,skyl4,wxcodes,ice_accretion_1hr,ice_accretion_3hr,ice_accretion_6hr,peak_wind_gust,peak_wind_drct,peak_wind_time,feel,metar,snowdepth
CXP,2022-10-03 00:10,-119.7326,39.1923,1431.00,78.80,32.00,18.18,240.00,5.00,0.00,30.07,M,10.00,11.00,CLR,M,M,M,M,M,M,M,M,M,M,M,M,M,M,78.80,KCXP 030010Z AUTO 24005G11KT 10SM CLR 26/M00 A3007 RMK AO2,M
BVU,2022-10-03 00:15,-114.8611,35.9475,671.00,91.40,51.80,26.05,80.00,5.00,0.00,29.87,M,10.00,M,CLR,M,M,M,M,M,M,M,M,M,M,M,M,M,M,88.69,KBVU 030015Z AUTO 08005KT 10SM CLR 33/11 A2987 RMK AO2,M
BAM,2022-10-03 00:15,-116.8743,40.5990,1382.36,73.40,32.00,21.76,20.00,4.00,0.00,30.08,M,10.00,M,CLR,M,M,M,M,M,M,M,M,M,M,M,M,M,M,73.40,KBAM 030015Z AUTO 02004KT 10SM CLR 23/00 A3008 RMK AO1,M
HTH,2022-10-03 00:15,-118.6315,38.5448,1282.89,78.80,28.40,15.71,320.00,10.00,0.00,30.03,M,10.00,M,CLR,M,M,M,M,M,M,M,M,M,M,M,M,M,M,78.80,KHTH 030015Z AUTO 32010KT 10SM CLR 26/M02 A3003 RMK A01,M
05U,2022-10-03 00:15,-116.0051,39.6042,1811.23,73.40,24.80,16.20,30.00,11.00,0.00,30.13,M,10.00,M,CLR,M,M,M,M,M,M,M,M,M,M,M,M,M,M,73.40,K05U 030015Z AUTO 03011KT 10SM CLR 23/M04 A3013 RMK A01,M
TMT,2022-10-03 00:15,-117.1971,39.4643,1749.34,M,M,M,350.00,11.00,0.00,30.12,M,10.00,18.00,CLR,M,M,M,M,M,M,M,M,M,M,M,M,M,M,M,KTMT 030015Z AUTO 35011G18KT 10SM CLR A3012 RMK AO2,M
MEV,2022-10-03 00:15,-119.7500,38.9963,1441.42,77.00,33.80,20.74,300.00,7.00,0.00,30.06,M,4.00,M,CLR,M,M,M,M,M,M,M,HZ,M,M,M,M,M,M,77.00,KMEV 030015Z AUTO 30007KT 4SM HZ CLR 25/01 A3006 RMK AO2,M
RTS,2022-10-03 00:19,-119.8764,39.6682,1539.00,71.60,28.40,19.98,50.00,11.00,0.00,30.11,M,10.00,M,CLR,M,M,M,M,M,M,M,M,M,M,M,M,M,M,71.60,KRTS 030019Z AUTO 05011KT 10SM CLR 22/M02 A3011 RMK AO2,M
P68,2022-10-03 00:28,-116.0056,39.6014,1993.00,71.00,25.00,17.66,30.00,12.00,0.00,30.11,M,M,M,M,M,M,M,M,M,M,M,M,M,M,M,M,M,M,71.10,KP68 030028Z AUTO 03012KT 22/M04 A3011 RMK AO1 WSHFT 0011 T02171039,M
CXP,2022-10-03 00:30,-119.7326,39.1923,1431.00,77.00,32.00,19.30,280.00,6.00,0.00,30.07,M,10.00,M,CLR,M,M,M,M,M,M,M,M,M,M,M,M,M,M,77.00,KCXP 030030Z AUTO 28006KT 10SM CLR 25/M00 A3007 RMK AO2,M
TMT,2022-10-03 00:35,-117.1971,39.4643,1749.34,M,M,M,360.00,11.00,0.00,30.13,M,10.00,M,CLR,M,M,M,M,M,M,M,M,M,M,M,M,M,M,M,KTMT 030035Z AUTO 36011KT 10SM CLR A3013 RMK AO2,M
BVU,2022-10-03 00:35,-114.8611,35.9475,671.00,89.60,53.60,29.45,140.00,9.00,0.00,29.87,M,10.00,M,CLR,M,M,M,M,M,M,M,M,M,M,M,M,M,M,87.36,KBVU 030035Z AUTO 14009KT 10SM CLR 32/12 A2987 RMK AO2,M
05U,2022-10-03 00:35,-116.0051,39.6042,1811.23,71.60,24.80,17.22,30.00,10.00,0.00,30.14,M,10.00,M,CLR,M,M,M,M,M,M,M,M,M,M,M,M,M,M,71.60,K05U 030035Z AUTO 03010KT 10SM CLR 22/M04 A3014 RMK A01,M
MEV,2022-10-03 00:35,-119.7500,38.9963,1441.42,77.00,33.80,20.74,320.00,9.00,0.00,30.06,M,7.00,M,CLR,M,M,M,M,M,M,M,M,M,M,M,M,M,M,77.00,KMEV 030035Z AUTO 32009KT 7SM CLR 25/01 A3006 RMK AO2,M
BAM,2022-10-03 00:35,-116.8743,40.5990,1382.36,73.40,32.00,21.76,10.00,3.00,0.00,30.08,M,10.00,M,CLR,M,M,M,M,M,M,M,M,M,M,M,M,M,M,73.40,KBAM 030035Z AUTO 01003KT 10SM CLR 23/00 A3008 RMK AO1,M
HTH,2022-10-03 00:35,-118.6315,38.5448,1282.89,78.80,28.40,15.71,310.00,9.00,0.00,30.03,M,10.00,M,CLR,M,M,M,M,M,M,M,M,M,M,M,M,M,M,78.80,KHTH 030035Z AUTO 31009KT 10SM CLR 26/M02 A3003 RMK A01,M
RTS,2022-10-03 00:39,-119.8764,39.6682,1539.00,69.80,26.60,19.72,50.00,9.00,0.00,30.12,M,10.00,M,CLR,M,M,M,M,M,M,M,M,M,M,M,M,M,M,69.80,KRTS 030039Z AUTO 05009KT 10SM CLR 21/M03 A3012 RMK AO2,M
HND,2022-10-03 00:48,-115.1344,35.9729,742.79,89.60,46.40,22.53,230.00,8.00,0.00,29.91,M,10.00,M,CLR,M,M,M,M,M,M,M,M,M,M,M,M,M,M,86.24,KHND 030048Z 23008KT 10SM CLR 32/08 A2991 RMK FX,M
CXP,2022-10-03 00:50,-119.7326,39.1923,1431.00,77.00,32.00,19.30,270.00,7.00,0.00,30.08,M,10.00,12.00,CLR,M,M,M,M,M,M,M,M,M,M,M,M,M,M,77.00,KCXP 030050Z AUTO 27007G12KT 10SM CLR 25/M00 A3008 RMK AO2,M
P68,2022-10-03 00:53,-116.0056,39.6014,1993.00,69.00,25.00,18.91,30.00,9.00,0.00,30.12,1015.00,M,M,M,M,M,M,M,M,M,M,M,M,M,M,M,M,M,69.10,KP68 030053Z AUTO 03009KT 21/M04 A3012 RMK AO1 WSHFT 0011 SLP150 T02061039,M
ELY,2022-10-03 00:53,-114.8453,39.2950,1909.00,68.00,26.10,20.55,250.00,5.00,0.00,30.12,1014.40,10.00,M,BKN,M,M,M,11000.00,M,M,M,M,M,M,M,M,M,M,68.00,KELY 030053Z AUTO 25005KT 10SM BKN110 20/M03 A3012 RMK AO2 SLP144 T02001033,M
DRA,2022-10-03 00:53,-116.0278,36.6206,1009.00,85.00,37.00,18.20,220.00,10.00,0.00,29.95,1009.80,10.00,M,CLR,M,M,M,M,M,M,M,M,M,M,M,M,M,M,81.88,KDRA 030053Z AUTO 22010KT 10SM CLR 29/03 A2995 RMK AO2 SLP098 T02940028,M
VGT,2022-10-03 00:53,-115.1933,36.2111,667.00,93.00,45.00,19.21,230.00,9.00,0.00,29.86,1010.20,10.00,M,CLR,M,M,M,M,M,M,M,M,M,M,M,M,M,M,89.20,KVGT 030053Z 23009KT 10SM CLR 34/07 A2986 RMK AO2 SLP102 T03390072,M
LOL,2022-10-03 00:53,-118.5701,40.0684,1192.43,77.00,M,M,70.00,7.00,0.00,30.04,1015.30,10.00,M,CLR,M,M,M,M,M,M,M,M,M,M,M,M,M,M,M,KLOL 030053Z AUTO 07007KT 10SM CLR 25/ A3004 RMK AO2 SLP153 T0250 $,M
RNO,2022-10-03 00:55,-119.7711,39.4839,1341.00,79.00,34.00,19.57,30.00,6.00,0.00,30.05,1013.40,10.00,M,FEW,M,M,M,10000.00,M,M,M,M,M,M,M,M,M,M,79.00,KRNO 030055Z 03006KT 10SM FEW100 26/01 A3005 RMK AO2 SLP134 HZ VC SW THRU W T02610011 $,M
BVU,2022-10-03 00:55,-114.8611,35.9475,671.00,89.60,53.60,29.45,130.00,10.00,0.00,29.87,M,10.00,M,CLR,M,M,M,M,M,M,M,M,M,M,M,M,M,M,87.36,KBVU 030055Z AUTO 13010KT 10SM CLR 32/12 A2987 RMK AO2,M
05U,2022-10-03 00:55,-116.0051,39.6042,1811.23,69.80,24.80,18.30,30.00,9.00,0.00,30.14,M,10.00,M,CLR,M,M,M,M,M,M,M,M,M,M,M,M,M,M,69.80,K05U 030055Z AUTO 03009KT 10SM CLR 21/M04 A3014 RMK A01,M
MEV,2022-10-03 00:55,-119.7500,38.9963,1441.42,75.20,33.80,22.02,290.00,6.00,0.00,30.06,M,5.00,M,CLR,M,M,M,M,M,M,M,HZ,M,M,M,M,M,M,75.20,KMEV 030055Z AUTO 29006KT 5SM HZ CLR 24/01 A3006 RMK AO2,M
BAM,2022-10-03 00:55,-116.8743,40.5990,1382.36,73.40,32.00,21.76,360.00,4.00,0.00,30.09,M,10.00,M,CLR,M,M,M,M,M,M,M,M,M,M,M,M,M,M,73.40,KBAM 030055Z AUTO 36004KT 10SM CLR 23/00 A3009 RMK AO1,M
HTH,2022-10-03 00:55,-118.6315,38.5448,1282.89,77.00,28.40,16.67,310.00,10.00,0.00,30.04,M,10.00,M,CLR,M,M,M,M,M,M,M,M,M,M,M,M,M,M,77.00,KHTH 030055Z AUTO 31010KT 10SM CLR 25/M02 A3004 RMK A01,M
TMT,2022-10-03 00:55,-117.1971,39.4643,1749.34,M,M,M,350.00,11.00,0.00,30.14,M,10.00,M,CLR,M,M,M,M,M,M,M,M,M,M,M,M,M,M,M,KTMT 030055Z AUTO 35011KT 10SM CLR A3014 RMK AO2,M
TPH,2022-10-03 00:56,-117.0904,38.0505,1654.00,76.00,25.00,15.02,300.00,4.00,0.00,30.08,1013.50,10.00,M,CLR,M,M,M,M,M,M,M,M,M,M,M,M,M,M,75.90,KTPH 030056Z AUTO 30004KT 10SM CLR 24/M04 A3008 RMK AO2 SLP135 T02441039,M
LAS,2022-10-03 00:56,-115.1634,36.0719,663.00,91.00,45.00,20.45,230.00,8.00,0.00,29.87,1009.10,10.00,M,FEW,FEW,M,M,10000.00,25000.00,M,M,M,M,M,M,M,M,M,87.35,KLAS 030056Z 23008KT 10SM FEW100 FEW250 33/07 A2987 RMK AO2 SLP091 CB DSNT E T03280072 $,M
HND,2022-10-03 00:56,-115.1344,35.9729,742.79,90.00,47.00,22.67,240.00,11.00,0.00,29.91,1011.70,10.00,M,CLR,M,M,M,M,M,M,M,M,M,M,M,M,M,M,86.65,KHND 030056Z 24011KT 10SM CLR 32/08 A2991 RMK AO2 SLP117 T03220083,M
WMC,2022-10-03 00:56,-117.8072,40.9019,1315.00,75.00,30.90,19.73,340.00,5.00,0.00,30.07,1016.00,10.00,M,CLR,M,M,M,M,M,M,M,M,M,M,M,M,M,M,75.00,KWMC 030056Z AUTO 34005KT 10SM CLR 24/M01 A3007 RMK AO2 SLP160 T02391006,M
EKO,2022-10-03 00:56,-115.7860,40.8242,1367.00,68.00,28.90,23.06,220.00,7.00,0.00,30.09,1017.00,10.00,M,CLR,M,M,M,M,M,M,M,M,M,M,M,M,M,M,68.00,KEKO 030056Z AUTO 22007KT 10SM CLR 20/M02 A3009 RMK AO2 SLP170 T02001017,M
LSV,2022-10-03 00:56,-115.0343,36.2362,570.00,91.60,53.00,26.96,220.00,6.00,0.00,29.82,1007.50,10.00,M,CLR,M,M,M,M,M,M,M,M,M,M,M,M,M,M,89.11,KLSV 030056Z AUTO 22006KT 10SM CLR 33/12 A2982 RMK AO2 SLP075 T03310116 $,M
NFL,2022-10-03 00:56,-118.7010,39.4166,1199.00,77.00,28.90,17.01,40.00,7.00,0.00,30.03,1013.90,10.00,M,CLR,M,M,M,M,M,M,M,M,M,M,M,M,M,M,77.00,KNFL 030056Z 04007KT 10SM CLR 25/M02 A3003 RMK AO2 SLP139 T02501017,M
INS,2022-10-03 00:56,-115.6733,36.5872,955.00,86.20,42.80,21.88,0.00,0.00,0.00,29.92,1009.20,10.00,M,CLR,M,M,M,M,M,M,M,M,M,M,M,M,M,M,83.11,KINS 030056Z AUTO 00000KT 10SM CLR 30/06 A2992 RMK AO2 SLP092 T03010060 $,M
RTS,2022-10-03 00:59,-119.8764,39.6682,1539.00,68.00,28.40,22.59,50.00,8.00,0.00,30.12,M,10.00,M,CLR,M,M,M,M,M,M,M,M,M,M,M,M,M,M,68.00,KRTS 030059Z AUTO 05008KT 10SM CLR 20/M02 A3012 RMK AO2,M
CXP,2022-10-03 01:10,-119.7326,39.1923,1431.00,77.00,32.00,19.30,290.00,5.00,0.00,30.08,M,10.00,M,CLR,M,M,M,M,M,M,M,M,M,M,M,M,M,M,77.00,KCXP 030110Z AUTO 29005KT 10SM CLR 25/M00 A3008 RMK AO2,M
05U,2022-10-03 01:15,-116.0051,39.6042,1811.23,66.20,24.80,20.72,40.00,6.00,0.00,30.15,M,10.00,M,CLR,M,M,M,M,M,M,M,M,M,M,M,M,M,M,66.20,K05U 030115Z AUTO 04006KT 10SM CLR 19/M04 A3015 RMK A01,M
MEV,2022-10-03 01:15,-119.7500,38.9963,1441.42,73.40,35.60,25.13,290.00,7.00,0.00,30.07,M,4.00,M,CLR,M,M,M,M,M,M,M,HZ,M,M,M,M,M,M,73.40,KMEV 030115Z AUTO 29007KT 4SM HZ CLR 23/02 A3007 RMK AO2,M
BAM,2022-10-03 01:15,-116.8743,40.5990,1382.36,71.60,32.00,23.13,360.00,4.00,0.00,30.09,M,10.00,M,CLR,M,M,M,M,M,M,M,M,M,M,M,M,M,M,71.60,KBAM 030115Z AUTO 36004KT 10SM CLR 22/00 A3009 RMK AO1,M
HTH,2022-10-03 01:15,-118.6315,38.5448,1282.89,75.20,28.40,17.70,310.00,8.00,0.00,30.04,M,10.00,M,CLR,M,M,M,M,M,M,M,M,M,M,M,M,M,M,75.20,KHTH 030115Z AUTO 31008KT 10SM CLR 24/M02 A3004 RMK A01,M
TMT,2022-10-03 01:15,-117.1971,39.4643,1749.34,M,M,M,360.00,8.00,0.00,30.14,M,10.00,M,CLR,M,M,M,M,M,M,M,M,M,M,M,M,M,M,M,KTMT 030115Z AUTO 36008KT 10SM CLR A3014 RMK AO2,M
BVU,2022-10-03 01:15,-114.8611,35.9475,671.00,87.80,55.40,33.29,120.00,8.00,0.00,29.88,M,10.00,M,CLR,M,M,M,M,M,M,M,M,M,M,M,M,M,M,86.11,KBVU 030115Z AUTO 12008KT 10SM CLR 31/13 A2988 RMK AO2,M
RTS,2022-10-03 01:19,-119.8764,39.6682,1539.00,68.00,28.40,22.59,50.00,7.00,0.00,30.13,M,10.00,M,CLR,M,M,M,M,M,M,M,M,M,M,M,M,M,M,68.00,KRTS 030119Z AUTO 05007KT 10SM CLR 20/M02 A3013 RMK AO2,M
CXP,2022-10-03 01:30,-119.7326,39.1923,1431.00,73.40,32.00,21.76,340.00,4.00,0.00,30.09,M,10.00,M,CLR,M,M,M,M,M,M,M,M,M,M,M,M,M,M,73.40,KCXP 030130Z AUTO 34004KT 10SM CLR 23/00 A3009 RMK AO2,M
TMT,2022-10-03 01:35,-117.1971,39.4643,1749.34,M,M,M,360.00,6.00,0.00,30.15,M,10.00,M,CLR,M,M,M,M,M,M,M,M,M,M,M,M,M,M,M,KTMT 030135Z AUTO 36006KT 10SM CLR A3015 RMK AO2,M
BVU,2022-10-03 01:35,-114.8611,35.9475,671.00,86.00,55.40,35.25,110.00,7.00,0.00,29.88,M,10.00,M,CLR,M,M,M,M,M,M,M,M,M,M,M,M,M,M,84.54,KBVU 030135Z AUTO 11007KT 10SM CLR 30/13 A2988 RMK AO2,M
05U,2022-10-03 01:35,-116.0051,39.6042,1811.23,62.60,24.80,23.50,30.00,6.00,0.00,30.16,M,10.00,M,CLR,M,M,M,M,M,M,M,M,M,M,M,M,M,M,62.60,K05U 030135Z AUTO 03006KT 10SM CLR 17/M04 A3016 RMK A01,M
MEV,2022-10-03 01:35,-119.7500,38.9963,1441.42,69.80,35.60,28.39,280.00,3.00,0.00,30.07,M,4.00,M,CLR,M,M,M,M,M,M,M,HZ,M,M,M,M,M,M,69.80,KMEV 030135Z AUTO 28003KT 4SM HZ CLR 21/02 A3007 RMK AO2,M
BAM,2022-10-03 01:35,-116.8743,40.5990,1382.36,69.80,32.00,24.59,360.00,3.00,0.00,30.09,M,10.00,M,CLR,M,M,M,M,M,M,M,M,M,M,M,M,M,M,69.80,KBAM 030135Z AUTO 36003KT 10SM CLR 21/00 A3009 RMK AO1,M
HTH,2022-10-03 01:35,-118.6315,38.5448,1282.89,75.20,32.00,20.49,320.00,12.00,0.00,30.05,M,10.00,M,CLR,M,M,M,M,M,M,M,M,M,M,M,M,M,M,75.20,KHTH 030135Z AUTO 32012KT 10SM CLR 24/00 A3005 RMK A01,M
RTS,2022-10-03 01:39,-119.8764,39.6682,1539.00,64.40,28.40,25.60,240.00,6.00,0.00,30.13,M,10.00,M,CLR,M,M,M,M,M,M,M,M,M,M,M,M,M,M,64.40,KRTS 030139Z AUTO 24006KT 10SM CLR 18/M02 A3013 RMK AO2,M
CXP,2022-10-03 01:50,-119.7326,39.1923,1431.00,71.60,33.80,24.86,0.00,0.00,0.00,30.10,M,10.00,M,CLR,M,M,M,M,M,M,M,M,M,M,M,M,M,M,71.60,KCXP 030150Z AUTO 00000KT 10SM CLR 22/01 A3010 RMK AO2,M
VGT,2022-10-03 01:53,-115.1933,36.2111,667.00,91.00,44.00,19.76,220.00,9.00,0.00,29.87,1010.80,10.00,M,CLR,M,M,M,M,M,M,M,M,M,M,M,M,M,M,87.27,KVGT 030153Z 22009KT 10SM CLR 33/07 A2987 RMK AO2 SLP108 T03280067,M
DRA,2022-10-03 01:53,-116.0278,36.6206,1009.00,81.00,37.00,20.65,190.00,5.00,0.00,29.96,1010.50,10.00,M,CLR,M,M,M,M,M,M,M,M,M,M,M,M,M,M,79.24,KDRA 030153Z AUTO 19005KT 10SM CLR 27/03 A2996 RMK AO2 SLP105 T02720028,M
ELY,2022-10-03 01:53,-114.8453,39.2950,1909.00,64.00,27.00,24.51,320.00,4.00,0.00,30.14,1015.50,10.00,M,BKN,M,M,M,11000.00,M,M,M,M,M,M,M,M,M,M,64.00,KELY 030153Z AUTO 32004KT 10SM BKN110 18/M03 A3014 RMK AO2 SLP155 T01781028,M
LOL,2022-10-03 01:53,-118.5701,40.0684,1192.43,68.00,M,M,110.00,5.00,0.00,30.05,1016.10,10.00,M,CLR,M,M,M,M,M,M,M,M,M,M,M,M,M,M,M,KLOL 030153Z AUTO 11005KT 10SM CLR 20/ A3005 RMK AO2 SLP161 T0200 $,M
P68,2022-10-03 01:53,-116.0056,39.6014,1993.00,58.00,27.00,30.43,20.00,4.00,0.00,30.14,1017.30,M,M,M,M,M,M,M,M,M,M,M,M,M,M,M,M,M,57.90,KP68 030153Z AUTO 02004KT 14/M03 A3014 RMK AO1 SLP173 T01441028,M
BAM,2022-10-03 01:55,-116.8743,40.5990,1382.36,68.00,32.00,26.15,360.00,4.00,0.00,30.10,M,10.00,M,CLR,M,M,M,M,M,M,M,M,M,M,M,M,M,M,68.00,KBAM 030155Z AUTO 36004KT 10SM CLR 20/00 A3010 RMK AO1,M
TMT,2022-10-03 01:55,-117.1971,39.4643,1749.34,60.00,28.90,30.41,10.00,5.00,0.00,30.16,M,10.00,M,CLR,M,M,M,M,M,M,M,M,M,M,M,M,M,M,60.10,KTMT 030155Z AUTO 01005KT 10SM CLR 16/M02 A3016 RMK AO2 T01561017,M
RNO,2022-10-03 01:55,-119.7711,39.4839,1341.00,73.00,32.00,22.06,10.00,10.00,0.00,30.07,1014.80,10.00,M,FEW,M,M,M,11000.00,M,M,M,M,M,M,M,M,M,M,73.00,KRNO 030155Z 01010KT 10SM FEW110 23/00 A3007 RMK AO2 SLP148 T02280000 $,M
BVU,2022-10-03 01:55,-114.8611,35.9475,671.00,86.00,55.40,35.25,130.00,4.00,0.00,29.88,M,10.00,M,CLR,M,M,M,M,M,M,M,M,M,M,M,M,M,M,84.54,KBVU 030155Z AUTO 13004KT 10SM CLR 30/13 A2988 RMK AO2,M
05U,2022-10-03 01:55,-116.0051,39.6042,1811.23,57.20,26.60,30.69,0.00,0.00,0.00,30.16,M,10.00,M,CLR,M,M,M,M,M,M,M,M,M,M,M,M,M,M,57.20,K05U 030155Z AUTO 00000KT 10SM CLR 14/M03 A3016 RMK A01,M
MEV,2022-10-03 01:55,-119.7500,38.9963,1441.42,69.80,35.60,28.39,280.00,5.00,0.00,30.08,M,3.00,M,CLR,M,M,M,M,M,M,M,HZ,M,M,M,M,M,M,69.80,KMEV 030155Z AUTO 28005KT 3SM HZ CLR 21/02 A3008 RMK AO2,M
HTH,2022-10-03 01:55,-118.6315,38.5448,1282.89,73.40,33.80,23.39,320.00,13.00,0.00,30.06,M,10.00,M,CLR,M,M,M,M,M,M,M,M,M,M,M,M,M,M,73.40,KHTH 030155Z AUTO 32013KT 10SM CLR 23/01 A3006 RMK A01,M
HND,2022-10-03 01:56,-115.1344,35.9729,742.79,88.00,47.00,24.15,260.00,6.00,0.00,29.93,1012.20,10.00,M,CLR,M,M,M,M,M,M,M,M,M,M,M,M,M,M,84.90,KHND 030156Z 26006KT 10SM CLR 31/08 A2993 RMK AO2 SLP122 T03110083,M
LSV,2022-10-03 01:56,-115.0343,36.2362,570.00,88.20,44.40,21.83,170.00,5.00,0.00,29.83,1007.90,10.00,M,CLR,M,M,M,M,M,M,M,M,M,M,M,M,M,M,84.84,KLSV 030156Z AUTO 17005KT 10SM CLR 31/07 A2983 RMK AO2 SLP079 T03120069 $,M
INS,2022-10-03 01:56,-115.6733,36.5872,955.00,83.00,39.20,21.03,280.00,9.00,0.00,29.94,1009.90,10.00,M,CLR,M,M,M,M,M,M,M,M,M,M,M,M,M,M,80.67,KINS 030156Z AUTO 28009KT 10SM CLR 28/04 A2994 RMK AO2 SLP099 T02840040 $,M
EKO,2022-10-03 01:56,-115.7860,40.8242,1367.00,59.00,30.90,34.31,210.00,4.00,0.00,30.11,1018.30,10.00,M,CLR,M,M,M,M,M,M,M,M,M,M,M,M,M,M,59.00,KEKO 030156Z AUTO 21004KT 10SM CLR 15/M01 A3011 RMK AO2 SLP183 T01501006,M
NFL,2022-10-03 01:56,-118.7010,39.4166,1199.00,70.00,28.90,21.53,50.00,6.00,0.00,30.04,1014.30,10.00,M,CLR,M,M,M,M,M,M,M,M,M,M,M,M,M,M,70.00,KNFL 030156Z 05006KT 10SM CLR 21/M02 A3004 RMK AO2 SLP143 T02111017,M
TPH,2022-10-03 01:56,-117.0904,38.0505,1654.00,69.00,25.00,18.91,330.00,6.00,0.00,30.09,1014.50,10.00,M,CLR,M,M,M,M,M,M,M,M,M,M,M,M,M,M,69.10,KTPH 030156Z AUTO 33006KT 10SM CLR 21/M04 A3009 RMK AO2 SLP145 T02061039,M
LAS,2022-10-03 01:56,-115.1634,36.0719,663.00,89.00,45.00,21.70,220.00,7.00,0.00,29.89,1009.60,10.00,M,FEW,FEW,M,M,10000.00,25000.00,M,M,M,M,M,M,M,M,M,85.66,KLAS 030156Z 22007KT 10SM FEW100 FEW250 32/07 A2989 RMK AO2 SLP096 CB DSNT E T03170072 $,M
WMC,2022-10-03 01:56,-117.8072,40.9019,1315.00,67.00,30.00,25.05,50.00,3.00,0.00,30.08,1017.10,10.00,M,CLR,M,M,M,M,M,M,M,M,M,M,M,M,M,M,66.90,KWMC 030156Z AUTO 05003KT 10SM CLR 19/M01 A3008 RMK AO2 SLP171 T01941011,M
RTS,2022-10-03 01:59,-119.8764,39.6682,1539.00,60.80,28.40,29.06,260.00,3.00,0.00,30.14,M,10.00,M,CLR,M,M,M,M,M,M,M,M,M,M,M,M,M,M,60.80,KRTS 030159Z AUTO 26003KT 10SM CLR 16/M02 A3014 RMK AO2,M
CXP,2022-10-03 02:10,-119.7326,39.1923,1431.00,69.80,33.80,26.43,0.00,0.00,0.00,30.10,M,10.00,M,CLR,M,M,M,M,M,M,M,M,M,M,M,M,M,M,69.80,KCXP 030210Z AUTO 00000KT 10SM CLR 21/01 A3010 RMK AO2,M
TMT,2022-10-03 02:15,-117.1971,39.4643,1749.34,58.00,28.20,31.74,10.00,5.00,0.00,30.16,M,10.00,M,CLR,M,M,M,M,M,M,M,M,M,M,M,M,M,M,58.10,KTMT 030215Z AUTO 01005KT 10SM CLR 15/M02 A3016 RMK AO2 T01451021,M
BVU,2022-10-03 02:15,-114.8611,35.9475,671.00,84.20,55.40,37.35,0.00,0.00,0.00,29.89,M,10.00,M,CLR,M,M,M,M,M,M,M,M,M,M,M,M,M,M,83.09,KBVU 030215Z AUTO 00000KT 10SM CLR 29/13 A2989 RMK AO2,M
05U,2022-10-03 02:15,-116.0051,39.6042,1811.23,55.40,26.60,32.76,360.00,4.00,0.00,30.17,M,10.00,M,CLR,M,M,M,M,M,M,M,M,M,M,M,M,M,M,55.40,K05U 030215Z AUTO 36004KT 10SM CLR 13/M03 A3017 RMK A01,M
MEV,2022-10-03 02:15,-119.7500,38.9963,1441.42,68.00,37.40,32.43,300.00,9.00,0.00,30.08,M,4.00,M,CLR,M,M,M,M,M,M,M,HZ,M,M,M,M,M,M,68.00,KMEV 030215Z AUTO 30009KT 4SM HZ CLR 20/03 A3008 RMK AO2,M
BAM,2022-10-03 02:15,-116.8743,40.5990,1382.36,64.40,32.00,29.63,360.00,4.00,0.00,30.11,M,10.00,M,CLR,M,M,M,M,M,M,M,M,M,M,M,M,M,M,64.40,KBAM 030215Z AUTO 36004KT 10SM CLR 18/00 A3011 RMK AO1,M
HTH,2022-10-03 02:15,-118.6315,38.5448,1282.89,73.40,33.80,23.39,330.00,11.00,0.00,30.07,M,10.00,M,CLR,M,M,M,M,M,M,M,M,M,M,M,M,M,M,73.40,KHTH 030215Z AUTO 33011KT 10SM CLR 23/01 A3007 RMK A01,M
RTS,2022-10-03 02:19,-119.8764,39.6682,1539.00,62.60,30.20,29.35,290.00,4.00,0.00,30.15,M,10.00,M,CLR,M,M,M,M,M,M,M,M,M,M,M,M,M,M,62.60,KRTS 030219Z AUTO 29004KT 10SM CLR 17/M01 A3015 RMK AO2,M
CXP,2022-10-03 02:30,-119.7326,39.1923,1431.00,69.80,35.60,28.39,40.00,4.00,0.00,30.11,M,10.00,M,CLR,M,M,M,M,M,M,M,M,M,M,M,M,M,M,69.80,KCXP 030230Z AUTO 04004KT 10SM CLR 21/02 A3011 RMK AO2,M
BVU,2022-10-03 02:35,-114.8611,35.9475,671.00,84.20,53.60,34.97,110.00,3.00,0.00,29.90,M,10.00,M,CLR,M,M,M,M,M,M,M,M,M,M,M,M,M,M,82.76,KBVU 030235Z AUTO 11003KT 10SM CLR 29/12 A2990 RMK AO2,M
TMT,2022-10-03 02:35,-117.1971,39.4643,1749.34,58.30,27.90,31.13,40.00,3.00,0.00,30.17,M,10.00,M,CLR,M,M,M,M,M,M,M,M,M,M,M,M,M,M,58.30,KTMT 030235Z AUTO 04003KT 10SM CLR 15/M02 A3017 RMK AO2 T01461023,M
HTH,2022-10-03 02:35,-118.6315,38.5448,1282.89,71.60,32.00,23.13,310.00,12.00,0.00,30.08,M,10.00,M,CLR,M,M,M,M,M,M,M,M,M,M,M,M,M,M,71.60,KHTH 030235Z AUTO 31012KT 10SM CLR 22/M00 A3008 RMK A01,M
BAM,2022-10-03 02:35,-116.8743,40.5990,1382.36,64.40,32.00,29.63,360.00,4.00,0.00,30.11,M,10.00,M,CLR,M,M,M,M,M,M,M,M,M,M,M,M,M,M,64.40,KBAM 030235Z AUTO 36004KT 10SM CLR 18/00 A3011 RMK AO1,M
MEV,2022-10-03 02:35,-119.7500,38.9963,1441.42,62.60,35.60,36.45,30.00,6.00,0.00,30.10,M,10.00,M,CLR,M,M,M,M,M,M,M,M,M,M,M,M,M,M,62.60,KMEV 030235Z AUTO 03006KT 10SM CLR 17/02 A3010 RMK AO2,M
05U,2022-10-03 02:35,-116.0051,39.6042,1811.23,53.60,26.60,34.98,M,M,0.00,30.18,M,10.00,M,CLR,M,M,M,M,M,M,M,M,M,M,M,M,M,M,53.60,K05U 030235Z AUTO 10SM CLR 12/M03 A3018 RMK A01,M
RTS,2022-10-03 02:39,-119.8764,39.6682,1539.00,59.00,28.40,30.98,0.00,0.00,0.00,30.15,M,10.00,M,CLR,M,M,M,M,M,M,M,M,M,M,M,M,M,M,59.00,KRTS 030239Z AUTO 00000KT 10SM CLR 15/M02 A3015 RMK AO2,M
CXP,2022-10-03 02:50,-119.7326,39.1923,1431.00,69.80,37.40,30.49,350.00,6.00,0.00,30.12,M,10.00,11.00,CLR,M,M,M,M,M,M,M,M,M,M,M,M,M,M,69.80,KCXP 030250Z AUTO 35006G11KT 10SM CLR 21/03 A3012 RMK AO2,M
DRA,2022-10-03 02:53,-116.0278,36.6206,1009.00,79.00,37.00,22.05,190.00,5.00,0.00,29.97,1010.80,10.00,M,CLR,M,M,M,M,M,M,M,M,M,M,M,M,M,M,79.00,KDRA 030253Z AUTO 19005KT 10SM CLR 26/03 A2997 RMK AO2 SLP108 T02610028 53010,M
VGT,2022-10-03 02:53,-115.1933,36.2111,667.00,88.00,43.00,20.82,190.00,7.00,0.00,29.89,1011.30,10.00,M,CLR,M,M,M,M,M,M,M,M,M,M,M,M,M,M,84.58,KVGT 030253Z AUTO 19007KT 10SM CLR 31/06 A2989 RMK AO2 SLP113 T03110061 53012,M
LOL,2022-10-03 02:53,-118.5701,40.0684,1192.43,63.00,M,M,M,3.00,0.00,30.06,1016.60,10.00,M,CLR,M,M,M,M,M,M,M,M,M,M,M,M,M,M,M,KLOL 030253Z AUTO VRB03KT 10SM CLR 17/ A3006 RMK AO2 SLP166 T0172 53008 $,M
ELY,2022-10-03 02:53,-114.8453,39.2950,1909.00,59.00,28.00,30.48,0.00,0.00,0.00,30.16,1016.00,10.00,M,BKN,M,M,M,11000.00,M,M,M,M,M,M,M,M,M,M,59.00,KELY 030253Z AUTO 00000KT 10SM BKN110 15/M02 A3016 RMK AO2 SLP160 T01501022 53013,M
P68,2022-10-03 02:53,-116.0056,39.6014,1993.00,51.00,25.00,35.89,320.00,5.00,0.00,30.16,1017.80,M,M,M,M,M,M,M,M,M,M,M,M,M,M,M,M,M,51.10,KP68 030253Z AUTO 32005KT 11/M04 A3016 RMK AO1 SLP178 T01061039 53017,M
RNO,2022-10-03 02:55,-119.7711,39.4839,1341.00,71.00,32.00,23.52,330.00,4.00,0.00,30.10,1015.50,10.00,M,CLR,M,M,M,M,M,M,M,M,M,M,M,M,M,M,71.10,KRNO 030255Z 33004KT 10SM CLR 22/00 A3010 RMK AO2 SLP155 T02170000 53017 $,M
05U,2022-10-03 02:55,-116.0051,39.6042,1811.23,51.80,24.80,34.69,320.00,6.00,0.00,30.18,M,10.00,M,CLR,M,M,M,M,M,M,M,M,M,M,M,M,M,M,51.80,K05U 030255Z AUTO 32006KT 10SM CLR 11/M04 A3018 RMK A01,M
MEV,2022-10-03 02:55,-119.7500,38.9963,1441.42,66.20,37.40,34.51,350.00,8.00,0.00,30.10,M,10.00,M,FEW,M,M,M,4800.00,M,M,M,M,M,M,M,M,M,M,66.20,KMEV 030255Z AUTO 35008KT 10SM FEW048 19/03 A3010 RMK AO2,M
BAM,2022-10-03 02:55,-116.8743,40.5990,1382.36,59.00,30.20,33.35,0.00,0.00,0.00,30.11,M,10.00,M,CLR,M,M,M,M,M,M,M,M,M,M,M,M,M,M,59.00,KBAM 030255Z AUTO 00000KT 10SM CLR 15/M01 A3011 RMK AO1,M
HTH,2022-10-03 02:55,-118.6315,38.5448,1282.89,71.60,28.40,19.98,320.00,9.00,0.00,30.08,M,10.00,M,CLR,M,M,M,M,M,M,M,M,M,M,M,M,M,M,71.60,KHTH 030255Z AUTO 32009KT 10SM CLR 22/M02 A3008 RMK A01,M
TMT,2022-10-03 02:55,-117.1971,39.4643,1749.34,M,M,M,150.00,4.00,0.00,30.18,M,10.00,M,CLR,M,M,M,M,M,M,M,M,M,M,M,M,M,M,M,KTMT 030255Z AUTO 15004KT 10SM CLR A3018 RMK AO2,M
BVU,2022-10-03 02:55,-114.8611,35.9475,671.00,84.20,53.60,34.97,100.00,4.00,0.00,29.90,M,10.00,M,CLR,M,M,M,M,M,M,M,M,M,M,M,M,M,M,82.76,KBVU 030255Z AUTO 10004KT 10SM CLR 29/12 A2990 RMK AO2,M
WMC,2022-10-03 02:56,-117.8072,40.9019,1315.00,59.00,28.90,31.63,0.00,0.00,0.00,30.10,1017.60,10.00,M,CLR,M,M,M,M,M,M,M,M,M,M,M,M,M,M,59.00,KWMC 030256Z AUTO 00000KT 10SM CLR 15/M02 A3010 RMK AO2 SLP176 T01501017 53008,M
LAS,2022-10-03 02:56,-115.1634,36.0719,663.00,87.00,44.00,22.34,220.00,5.00,0.00,29.90,1010.00,10.00,M,CLR,M,M,M,M,M,M,M,M,M,M,M,M,M,M,83.91,KLAS 030256Z 22005KT 10SM CLR 31/07 A2990 RMK AO2 SLP100 T03060067 53011 $,M
EKO,2022-10-03 02:56,-115.7860,40.8242,1367.00,58.00,26.10,29.32,0.00,0.00,0.00,30.12,1018.50,10.00,M,CLR,M,M,M,M,M,M,M,M,M,M,M,M,M,M,57.90,KEKO 030256Z AUTO 00000KT 10SM CLR 14/M03 A3012 RMK AO2 SLP185 T01441033 53010,M
NFL,2022-10-03 02:56,-118.7010,39.4166,1199.00,64.00,32.00,30.05,40.00,3.00,0.00,30.06,1014.70,10.00,M,CLR,M,M,M,M,M,M,M,M,M,M,M,M,M,M,64.00,KNFL 030256Z 04003KT 10SM CLR 18/00 A3006 RMK AO2 SLP147 T01780000 53008,M
HND,2022-10-03 02:56,-115.1344,35.9729,742.79,85.00,46.00,25.77,230.00,5.00,0.00,29.94,1012.80,10.00,M,CLR,M,M,M,M,M,M,M,M,M,M,M,M,M,M,82.35,KHND 030256Z 23005KT 10SM CLR 29/08 A2994 RMK AO2 SLP128 T02940078 53012,M
TPH,2022-10-03 02:56,-117.0904,38.0505,1654.00,63.00,23.00,21.49,360.00,5.00,0.00,30.11,1015.20,10.00,M,CLR,M,M,M,M,M,M,M,M,M,M,M,M,M,M,63.00,KTPH 030256Z AUTO 36005KT 10SM CLR 17/M05 A3011 RMK AO2 SLP152 T01721050 53008,M
INS,2022-10-03 02:56,-115.6733,36.5872,955.00,79.00,38.00,22.84,260.00,9.00,0.00,29.96,1010.60,10.00,M,CLR,M,M,M,M,M,M,M,M,M,M,M,M,M,M,79.00,KINS 030256Z AUTO 26009KT 10SM CLR 26/03 A2996 RMK AO2 SLP106 T02610033 52013 $,M
LSV,2022-10-03 02:56,-115.0343,36.2362,570.00,83.80,46.20,26.90,150.00,4.00,0.00,29.85,1008.60,10.00,M,CLR,M,M,M,M,M,M,M,M,M,M,M,M,M,M,81.57,KLSV 030256Z AUTO 15004KT 10SM CLR 29/08 A2985 RMK AO2 SLP086 T02880079 52013 $,M
RTS,2022-10-03 02:59,-119.8764,39.6682,1539.00,57.20,28.40,33.05,0.00,0.00,0.00,30.16,M,10.00,M,CLR,M,M,M,M,M,M,M,M,M,M,M,M,M,M,57.20,KRTS 030259Z AUTO 00000KT 10SM CLR 14/M02 A3016 RMK AO2,M
CXP,2022-10-03 03:10,-119.7326,39.1923,1431.00,68.00,37.40,32.43,340.00,4.00,0.00,30.12,M,10.00,M,CLR,M,M,M,M,M,M,M,M,M,M,M,M,M,M,68.00,KCXP 030310Z AUTO 34004KT 10SM CLR 20/03 A3012 RMK AO2,M
TMT,2022-10-03 03:15,-117.1971,39.4643,1749.34,M,M,M,170.00,3.00,0.00,30.18,M,10.00,M,CLR,M,M,M,M,M,M,M,M,M,M,M,M,M,M,M,KTMT 030315Z AUTO 17003KT 10SM CLR A3018 RMK AO2 LTG DSNT SE,M
BAM,2022-10-03 03:15,-116.8743,40.5990,1382.36,59.00,32.00,35.87,0.00,0.00,0.00,30.12,M,10.00,M,CLR,M,M,M,M,M,M,M,M,M,M,M,M,M,M,59.00,KBAM 030315Z AUTO 00000KT 10SM CLR 15/00 A3012 RMK AO1,M
HTH,2022-10-03 03:15,-118.6315,38.5448,1282.89,71.60,28.40,19.98,320.00,11.00,0.00,30.09,M,10.00,M,CLR,M,M,M,M,M,M,M,M,M,M,M,M,M,M,71.60,KHTH 030315Z AUTO 32011KT 10SM CLR 22/M02 A3009 RMK A01,M
BVU,2022-10-03 03:15,-114.8611,35.9475,671.00,82.40,53.60,37.07,40.00,3.00,0.00,29.91,M,10.00,M,CLR,M,M,M,M,M,M,M,M,M,M,M,M,M,M,81.46,KBVU 030315Z AUTO 04003KT 10SM CLR 28/12 A2991 RMK AO2,M
05U,2022-10-03 03:15,-116.0051,39.6042,1811.23,53.60,24.80,32.46,330.00,6.00,0.00,30.19,M,10.00,M,CLR,M,M,M,M,M,M,M,M,M,M,M,M,M,M,53.60,K05U 030315Z AUTO 33006KT 10SM CLR 12/M04 A3019 RMK A01,M
MEV,2022-10-03 03:15,-119.7500,38.9963,1441.42,66.20,37.40,34.51,350.00,9.00,0.00,30.11,M,10.00,M,CLR,M,M,M,M,M,M,M,M,M,M,M,M,M,M,66.20,KMEV 030315Z AUTO 35009KT 10SM CLR 19/03 A3011 RMK AO2,M
RTS,2022-10-03 03:19,-119.8764,39.6682,1539.00,59.00,28.40,30.98,0.00,0.00,0.00,30.16,M,10.00,M,CLR,M,M,M,M,M,M,M,M,M,M,M,M,M,M,59.00,KRTS 030319Z AUTO 00000KT 10SM CLR 15/M02 A3016 RMK AO2,M
CXP,2022-10-03 03:30,-119.7326,39.1923,1431.00,64.40,35.60,34.22,0.00,0.00,0.00,30.13,M,10.00,M,CLR,M,M,M,M,M,M,M,M,M,M,M,M,M,M,64.40,KCXP 030330Z AUTO 00000KT 10SM CLR 18/02 A3013 RMK AO2,M
05U,2022-10-03 03:35,-116.0051,39.6042,1811.23,51.80,23.00,32.17,320.00,4.00,0.00,30.19,M,10.00,M,CLR,M,M,M,M,M,M,M,M,M,M,M,M,M,M,51.80,K05U 030335Z AUTO 32004KT 10SM CLR 11/M05 A3019 RMK A01,M
BVU,2022-10-03 03:35,-114.8611,35.9475,671.00,78.80,55.40,44.52,80.00,4.00,0.00,29.91,M,10.00,M,CLR,M,M,M,M,M,M,M,M,M,M,M,M,M,M,78.80,KBVU 030335Z AUTO 08004KT 10SM CLR 26/13 A2991 RMK AO2,M
TMT,2022-10-03 03:35,-117.1971,39.4643,1749.34,47.70,25.30,41.26,240.00,5.00,0.00,30.18,M,10.00,M,CLR,M,M,M,M,M,M,M,M,M,M,M,M,M,M,45.04,KTMT 030335Z AUTO 24005KT 10SM CLR 09/M04 A3018 RMK AO2 T00871037,M
HTH,2022-10-03 03:35,-118.6315,38.5448,1282.89,69.80,28.40,21.24,320.00,8.00,0.00,30.10,M,10.00,M,CLR,M,M,M,M,M,M,M,M,M,M,M,M,M,M,69.80,KHTH 030335Z AUTO 32008KT 10SM CLR 21/M02 A3010 RMK A01,M
BAM,2022-10-03 03:35,-116.8743,40.5990,1382.36,55.40,28.40,35.28,150.00,3.00,0.00,30.13,M,10.00,M,CLR,M,M,M,M,M,M,M,M,M,M,M,M,M,M,55.40,KBAM 030335Z AUTO 15003KT 10SM CLR 13/M02 A3013 RMK AO1,M
MEV,2022-10-03 03:35,-119.7500,38.9963,1441.42,62.60,35.60,36.45,50.00,7.00,0.00,30.12,M,10.00,M,CLR,M,M,M,M,M,M,M,M,M,M,M,M,M,M,62.60,KMEV 030335Z AUTO 05007KT 10SM CLR 17/02 A3012 RMK AO2,M
RTS,2022-10-03 03:39,-119.8764,39.6682,1539.00,53.60,28.40,37.67,350.00,6.00,0.00,30.17,M,10.00,M,CLR,M,M,M,M,M,M,M,M,M,M,M,M,M,M,53.60,KRTS 030339Z AUTO 35006KT 10SM CLR 12/M02 A3017 RMK AO2,M
CXP,2022-10-03 03:50,-119.7326,39.1923,1431.00,64.40,30.20,27.55,310.00,5.00,0.00,30.14,M,10.00,M,CLR,M,M,M,M,M,M,M,M,M,M,M,M,M,M,64.40,KCXP 030350Z AUTO 31005KT 10SM CLR 18/M01 A3014 RMK AO2,M
ELY,2022-10-03 03:53,-114.8453,39.2950,1909.00,55.00,26.10,32.56,330.00,4.00,0.00,30.17,1015.60,10.00,M,CLR,M,M,M,M,M,M,M,M,M,M,M,M,M,M,55.00,KELY 030353Z AUTO 33004KT 10SM CLR 13/M03 A3017 RMK AO2 SLP156 T01281033,M
DRA,2022-10-03 03:53,-116.0278,36.6206,1009.00,73.00,37.00,26.92,30.00,5.00,0.00,29.98,1011.10,10.00,M,CLR,M,M,M,M,M,M,M,M,M,M,M,M,M,M,73.00,KDRA 030353Z AUTO 03005KT 10SM CLR 23/03 A2998 RMK AO2 SLP111 T02280028,M
P68,2022-10-03 03:53,-116.0056,39.6014,1993.00,53.00,25.00,33.34,0.00,0.00,0.00,30.17,1017.00,M,M,M,M,M,M,M,M,M,M,M,M,M,M,M,M,M,53.10,KP68 030353Z AUTO 00000KT 12/M04 A3017 RMK AO1 SLP170 T01171039,M
VGT,2022-10-03 03:53,-115.1933,36.2111,667.00,87.00,42.00,20.70,200.00,8.00,0.00,29.90,1011.40,10.00,M,CLR,M,M,M,M,M,M,M,M,M,M,M,M,M,M,83.79,KVGT 030353Z AUTO 20008KT 10SM CLR 31/06 A2990 RMK AO2 SLP114 T03060056,M
LOL,2022-10-03 03:53,-118.5701,40.0684,1192.43,59.00,M,M,60.00,7.00,0.00,30.07,1016.80,10.00,M,CLR,M,M,M,M,M,M,M,M,M,M,M,M,M,M,M,KLOL 030353Z AUTO 06007KT 10SM CLR 15/ A3007 RMK AO2 SLP168 T0150 $,M
BAM,2022-10-03 03:55,-116.8743,40.5990,1382.36,55.40,28.40,35.28,0.00,0.00,0.00,30.13,M,10.00,M,CLR,M,M,M,M,M,M,M,M,M,M,M,M,M,M,55.40,KBAM 030355Z AUTO 00000KT 10SM CLR 13/M02 A3013 RMK AO1,M
BVU,2022-10-03 03:55,-114.8611,35.9475,671.00,78.80,55.40,44.52,70.00,4.00,0.00,29.92,M,10.00,M,CLR,M,M,M,M,M,M,M,M,M,M,M,M,M,M,78.80,KBVU 030355Z AUTO 07004KT 10SM CLR 26/13 A2992 RMK AO2,M
05U,2022-10-03 03:55,-116.0051,39.6042,1811.23,51.80,24.80,34.69,0.00,0.00,0.00,30.20,M,10.00,M,CLR,M,M,M,M,M,M,M,M,M,M,M,M,M,M,51.80,K05U 030355Z AUTO 00000KT 10SM CLR 11/M04 A3020 RMK A01,M
MEV,2022-10-03 03:55,-119.7500,38.9963,1441.42,57.20,33.80,41.13,60.00,7.00,0.00,30.13,M,10.00,M,FEW,M,M,M,4600.00,M,M,M,M,M,M,M,M,M,M,57.20,KMEV 030355Z AUTO 06007KT 10SM FEW046 14/01 A3013 RMK AO2,M
HTH,2022-10-03 03:55,-118.6315,38.5448,1282.89,68.00,28.40,22.59,320.00,6.00,0.00,30.11,M,10.00,M,CLR,M,M,M,M,M,M,M,M,M,M,M,M,M,M,68.00,KHTH 030355Z AUTO 32006KT 10SM CLR 20/M02 A3011 RMK A01,M
TMT,2022-10-03 03:55,-117.1971,39.4643,1749.34,46.40,24.60,42.08,220.00,3.00,0.00,30.19,M,10.00,M,CLR,M,M,M,M,M,M,M,M,M,M,M,M,M,M,45.15,KTMT 030355Z AUTO 22003KT 10SM CLR 08/M04 A3019 RMK AO2 LTG DSNT SE T00801041,M
RNO,2022-10-03 03:55,-119.7711,39.4839,1341.00,68.00,33.00,27.34,120.00,3.00,0.00,30.12,1016.10,10.00,M,CLR,M,M,M,M,M,M,M,M,M,M,M,M,M,M,68.00,KRNO 030355Z 12003KT 10SM CLR 20/01 A3012 RMK AO2 SLP161 T02000006 $,M
TPH,2022-10-03 03:56,-117.0904,38.0505,1654.00,60.00,24.10,24.93,150.00,7.00,0.00,30.13,1015.40,10.00,M,CLR,M,M,M,M,M,M,M,M,M,M,M,M,M,M,60.10,KTPH 030356Z AUTO 15007KT 10SM CLR 16/M04 A3013 RMK AO2 SLP154 T01561044,M
WMC,2022-10-03 03:56,-117.8072,40.9019,1315.00,52.00,27.00,37.72,250.00,4.00,0.00,30.11,1017.60,10.00,M,CLR,M,M,M,M,M,M,M,M,M,M,M,M,M,M,52.00,KWMC 030356Z AUTO 25004KT 10SM CLR 11/M03 A3011 RMK AO2 SLP176 T01111028,M
EKO,2022-10-03 03:56,-115.7860,40.8242,1367.00,54.00,28.90,37.89,0.00,0.00,0.00,30.14,1018.60,10.00,M,CLR,M,M,M,M,M,M,M,M,M,M,M,M,M,M,54.00,KEKO 030356Z AUTO 00000KT 10SM CLR 12/M02 A3014 RMK AO2 SLP186 T01221017,M
LAS,2022-10-03 03:56,-115.1634,36.0719,663.00,84.00,44.00,24.68,200.00,4.00,0.00,29.91,1010.40,10.00,M,CLR,M,M,M,M,M,M,M,M,M,M,M,M,M,M,81.55,KLAS 030356Z 20004KT 10SM CLR 29/07 A2991 RMK AO2 SLP104 T02890067 $,M
HND,2022-10-03 03:56,-115.1344,35.9729,742.79,79.00,48.00,33.66,170.00,7.00,0.00,29.95,1013.20,10.00,M,CLR,M,M,M,M,M,M,M,M,M,M,M,M,M,M,79.00,KHND 030356Z AUTO 17007KT 10SM CLR 26/09 A2995 RMK AO2 SLP132 T02610089,M
LSV,2022-10-03 03:56,-115.0343,36.2362,570.00,83.00,44.60,25.89,190.00,4.00,0.00,29.86,1008.70,10.00,M,CLR,M,M,M,M,M,M,M,M,M,M,M,M,M,M,80.96,KLSV 030356Z AUTO 19004KT 10SM CLR 28/07 A2986 RMK AO2 SLP087 T02840070 $,M
INS,2022-10-03 03:56,-115.6733,36.5872,955.00,77.70,38.00,23.84,270.00,5.00,0.00,29.97,1010.70,10.00,M,CLR,M,M,M,M,M,M,M,M,M,M,M,M,M,M,77.70,KINS 030356Z AUTO 27005KT 10SM CLR 25/03 A2997 RMK AO2 SLP107 T02540033 $,M
NFL,2022-10-03 03:56,-118.7010,39.4166,1199.00,62.00,30.90,30.73,0.00,0.00,0.00,30.08,1015.20,10.00,M,CLR,M,M,M,M,M,M,M,M,M,M,M,M,M,M,62.10,KNFL 030356Z 00000KT 10SM CLR 17/M01 A3008 RMK AO2 SLP152 T01671006,M
RTS,2022-10-03 03:59,-119.8764,39.6682,1539.00,55.40,28.40,35.28,360.00,4.00,0.00,30.17,M,10.00,M,CLR,M,M,M,M,M,M,M,M,M,M,M,M,M,M,55.40,KRTS 030359Z AUTO 36004KT 10SM CLR 13/M02 A3017 RMK AO2,M
CXP,2022-10-03 04:10,-119.7326,39.1923,1431.00,64.40,30.20,27.55,350.00,4.00,0.00,30.15,M,10.00,M,CLR,M,M,M,M,M,M,M,M,M,M,M,M,M,M,64.40,KCXP 030410Z AUTO 35004KT 10SM CLR 18/M01 A3015 RMK AO2,M
BAM,2022-10-03 04:15,-116.8743,40.5990,1382.36,55.40,28.40,35.28,0.00,0.00,0.00,30.13,M,10.00,M,CLR,M,M,M,M,M,M,M,M,M,M,M,M,M,M,55.40,KBAM 030415Z AUTO 00000KT 10SM CLR 13/M02 A3013 RMK AO1,M
TMT,2022-10-03 04:15,-117.1971,39.4643,1749.34,46.00,25.90,45.27,190.00,6.00,0.00,30.20,M,10.00,M,CLR,M,M,M,M,M,M,M,M,M,M,M,M,M,M,42.27,KTMT 030415Z AUTO 19006KT 10SM CLR 08/M03 A3020 RMK AO2 T00771034,M
BVU,2022-10-03 04:15,-114.8611,35.9475,671.00,77.00,53.60,44.25,80.00,3.00,0.00,29.92,M,10.00,M,CLR,M,M,M,M,M,M,M,M,M,M,M,M,M,M,77.00,KBVU 030415Z AUTO 08003KT 10SM CLR 25/12 A2992 RMK AO2,M
05U,2022-10-03 04:15,-116.0051,39.6042,1811.23,53.60,24.80,32.46,150.00,4.00,0.00,30.20,M,10.00,M,CLR,M,M,M,M,M,M,M,M,M,M,M,M,M,M,53.60,K05U 030415Z AUTO 15004KT 10SM CLR 12/M04 A3020 RMK A01,M
MEV,2022-10-03 04:15,-119.7500,38.9963,1441.42,55.40,30.20,37.97,0.00,0.00,0.00,30.13,M,10.00,M,FEW,FEW,M,M,4600.00,5500.00,M,M,M,M,M,M,M,M,M,55.40,KMEV 030415Z AUTO 00000KT 10SM FEW046 FEW055 13/M01 A3013 RMK AO2,M
HTH,2022-10-03 04:15,-118.6315,38.5448,1282.89,68.00,28.40,22.59,320.00,6.00,0.00,30.11,M,10.00,M,CLR,M,M,M,M,M,M,M,M,M,M,M,M,M,M,68.00,KHTH 030415Z AUTO 32006KT 10SM CLR 20/M02 A3011 RMK A01,M
RTS,2022-10-03 04:19,-119.8764,39.6682,1539.00,55.40,28.40,35.28,0.00,0.00,0.00,30.17,M,10.00,M,CLR,M,M,M,M,M,M,M,M,M,M,M,M,M,M,55.40,KRTS 030419Z AUTO 00000KT 10SM CLR 13/M02 A3017 RMK AO2,M
CXP,2022-10-03 04:30,-119.7326,39.1923,1431.00,66.20,30.20,25.88,330.00,6.00,0.00,30.15,M,10.00,M,CLR,M,M,M,M,M,M,M,M,M,M,M,M,M,M,66.20,KCXP 030430Z AUTO 33006KT 10SM CLR 19/M01 A3015 RMK AO2,M
05U,2022-10-03 04:30,-116.0051,39.6042,1811.23,50.00,24.80,37.08,120.00,4.00,0.00,30.21,M,10.00,M,CLR,M,M,M,M,M,M,M,M,M,M,M,M,M,M,50.00,K05U 030430Z AUTO 12004KT 10SM CLR 10/M04 A3021 RMK A01,M
MEV,2022-10-03 04:35,-119.7500,38.9963,1441.42,51.80,30.20,43.32,0.00,0.00,0.00,30.14,M,10.00,M,FEW,FEW,M,M,4600.00,5500.00,M,M,M,M,M,M,M,M,M,51.80,KMEV 030435Z AUTO 00000KT 10SM FEW046 FEW055 11/M01 A3014 RMK AO2,M
HTH,2022-10-03 04:35,-118.6315,38.5448,1282.89,68.00,28.40,22.59,310.00,3.00,0.00,30.12,M,10.00,M,CLR,M,M,M,M,M,M,M,M,M,M,M,M,M,M,68.00,KHTH 030435Z AUTO 31003KT 10SM CLR 20/M02 A3012 RMK A01,M
TMT,2022-10-03 04:35,-117.1971,39.4643,1749.34,47.50,25.70,42.26,220.00,7.00,0.00,30.21,M,10.00,M,CLR,M,M,M,M,M,M,M,M,M,M,M,M,M,M,43.67,KTMT 030435Z AUTO 22007KT 10SM CLR 09/M03 A3021 RMK AO2 T00861035,M
BVU,2022-10-03 04:35,-114.8611,35.9475,671.00,78.80,53.60,41.69,0.00,0.00,0.00,29.92,M,10.00,M,CLR,M,M,M,M,M,M,M,M,M,M,M,M,M,M,78.80,KBVU 030435Z AUTO 00000KT 10SM CLR 26/12 A2992 RMK AO2,M
BAM,2022-10-03 04:35,-116.8743,40.5990,1382.36,50.00,26.60,39.95,130.00,4.00,0.00,30.14,M,10.00,M,CLR,M,M,M,M,M,M,M,M,M,M,M,M,M,M,50.00,KBAM 030435Z AUTO 13004KT 10SM CLR 10/M03 A3014 RMK AO1,M
RTS,2022-10-03 04:39,-119.8764,39.6682,1539.00,51.80,28.40,40.25,70.00,3.00,0.00,30.18,M,10.00,M,CLR,M,M,M,M,M,M,M,M,M,M,M,M,M,M,51.80,KRTS 030439Z AUTO 07003KT 10SM CLR 11/M02 A3018 RMK AO2,M
CXP,2022-10-03 04:50,-119.7326,39.1923,1431.00,64.40,30.20,27.55,0.00,0.00,0.00,30.16,M,10.00,M,CLR,M,M,M,M,M,M,M,M,M,M,M,M,M,M,64.40,KCXP 030450Z AUTO 00000KT 10SM CLR 18/M01 A3016 RMK AO2,M
LOL,2022-10-03 04:53,-118.5701,40.0684,1192.43,58.00,M,M,0.00,0.00,0.00,30.09,1016.70,10.00,M,CLR,M,M,M,M,M,M,M,M,M,M,M,M,M,M,M,KLOL 030453Z AUTO 00000KT 10SM CLR 14/ A3009 RMK AO2 SLP167 T0144 $,M
VGT,2022-10-03 04:53,-115.1933,36.2111,667.00,84.00,43.00,23.66,190.00,6.00,0.00,29.90,1011.50,10.00,M,CLR,M,M,M,M,M,M,M,M,M,M,M,M,M,M,81.48,KVGT 030453Z AUTO 19006KT 10SM CLR 29/06 A2990 RMK AO2 SLP115 T02890061,M
ELY,2022-10-03 04:53,-114.8453,39.2950,1909.00,52.00,26.10,36.34,360.00,5.00,0.00,30.19,1015.60,10.00,M,CLR,M,M,M,M,M,M,M,M,M,M,M,M,M,M,52.00,KELY 030453Z AUTO 36005KT 10SM CLR 11/M03 A3019 RMK AO2 SLP156 T01111033,M
DRA,2022-10-03 04:53,-116.0278,36.6206,1009.00,73.00,37.00,26.92,70.00,3.00,0.00,29.99,1011.00,10.00,M,CLR,M,M,M,M,M,M,M,M,M,M,M,M,M,M,73.00,KDRA 030453Z AUTO 07003KT 10SM CLR 23/03 A2999 RMK AO2 SLP110 T02280028,M
P68,2022-10-03 04:53,-116.0056,39.6014,1993.00,46.00,25.00,43.44,130.00,3.00,0.00,30.19,1017.70,M,M,M,M,M,M,M,M,M,M,M,M,M,M,M,M,M,44.69,KP68 030453Z AUTO 13003KT 08/M04 A3019 RMK AO1 SLP177 T00781039,M
TMT,2022-10-03 04:55,-117.1971,39.4643,1749.34,43.20,23.70,45.78,190.00,4.00,0.00,30.21,M,10.00,M,CLR,M,M,M,M,M,M,M,M,M,M,M,M,M,M,40.50,KTMT 030455Z AUTO 19004KT 10SM CLR 06/M05 A3021 RMK AO2 LTG DSNT SE T00621046,M
BVU,2022-10-03 04:55,-114.8611,35.9475,671.00,75.20,55.40,50.17,0.00,0.00,0.00,29.92,M,10.00,M,CLR,M,M,M,M,M,M,M,M,M,M,M,M,M,M,75.20,KBVU 030455Z AUTO 00000KT 10SM CLR 24/13 A2992 RMK AO2 LTG DSNT NE,M
RNO,2022-10-03 04:55,-119.7711,39.4839,1341.00,64.00,35.00,34.02,260.00,4.00,0.00,30.13,1016.50,10.00,M,CLR,M,M,M,M,M,M,M,M,M,M,M,M,M,M,64.00,KRNO 030455Z 26004KT 10SM CLR 18/02 A3013 RMK AO2 SLP165 T01780017 $,M
HTH,2022-10-03 04:55,-118.6315,38.5448,1282.89,68.00,28.40,22.59,M,3.00,0.00,30.12,M,10.00,M,CLR,M,M,M,M,M,M,M,M,M,M,M,M,M,M,68.00,KHTH 030455Z AUTO VRB03KT 10SM CLR 20/M02 A3012 RMK A01,M
BAM,2022-10-03 04:55,-116.8743,40.5990,1382.36,48.20,26.60,42.73,140.00,4.00,0.00,30.14,M,10.00,M,CLR,M,M,M,M,M,M,M,M,M,M,M,M,M,M,46.34,KBAM 030455Z AUTO 14004KT 10SM CLR 09/M03 A3014 RMK AO1,M
MEV,2022-10-03 04:55,-119.7500,38.9963,1441.42,50.00,30.20,46.31,170.00,4.00,0.00,30.15,M,10.00,M,FEW,FEW,FEW,M,4400.00,5000.00,6000.00,M,M,M,M,M,M,M,M,50.00,KMEV 030455Z AUTO 17004KT 10SM FEW044 FEW050 FEW060 10/M01 A3015 RMK AO2,M
05U,2022-10-03 04:55,-116.0051,39.6042,1811.23,46.40,24.80,42.44,0.00,0.00,0.00,30.22,M,10.00,M,CLR,M,M,M,M,M,M,M,M,M,M,M,M,M,M,46.40,K05U 030455Z AUTO 00000KT 10SM CLR 08/M04 A3022 RMK A01,M
TPH,2022-10-03 04:56,-117.0904,38.0505,1654.00,58.00,24.10,26.98,330.00,3.00,0.00,30.15,1016.00,10.00,M,CLR,M,M,M,M,M,M,M,M,M,M,M,M,M,M,57.90,KTPH 030456Z AUTO 33003KT 10SM CLR 14/M04 A3015 RMK AO2 SLP160 T01441044,M
EKO,2022-10-03 04:56,-115.7860,40.8242,1367.00,52.00,28.00,39.30,60.00,3.00,0.00,30.15,1018.70,10.00,M,CLR,M,M,M,M,M,M,M,M,M,M,M,M,M,M,52.00,KEKO 030456Z AUTO 06003KT 10SM CLR 11/M02 A3015 RMK AO2 SLP187 T01111022,M
WMC,2022-10-03 04:56,-117.8072,40.9019,1315.00,48.00,26.10,42.17,0.00,0.00,0.00,30.12,1017.60,10.00,M,CLR,M,M,M,M,M,M,M,M,M,M,M,M,M,M,48.00,KWMC 030456Z AUTO 00000KT 10SM CLR 09/M03 A3012 RMK AO2 SLP176 T00891033,M
LAS,2022-10-03 04:56,-115.1634,36.0719,663.00,83.00,39.00,21.00,200.00,7.00,0.00,29.92,1010.40,10.00,M,CLR,M,M,M,M,M,M,M,M,M,M,M,M,M,M,80.53,KLAS 030456Z 20007KT 10SM CLR 28/04 A2992 RMK AO2 SLP104 T02830039 $,M
INS,2022-10-03 04:56,-115.6733,36.5872,955.00,76.00,37.80,25.04,0.00,0.00,0.00,29.98,1010.90,10.00,M,CLR,M,M,M,M,M,M,M,M,M,M,M,M,M,M,76.10,KINS 030456Z AUTO 00000KT 10SM CLR 25/03 A2998 RMK AO2 SLP109 T02450032 $,M
LSV,2022-10-03 04:56,-115.0343,36.2362,570.00,80.40,45.00,28.81,0.00,0.00,0.00,29.87,1009.10,10.00,M,CLR,M,M,M,M,M,M,M,M,M,M,M,M,M,M,79.35,KLSV 030456Z AUTO 00000KT 10SM CLR 27/07 A2987 RMK AO2 SLP091 T02690073 $,M
NFL,2022-10-03 04:56,-118.7010,39.4166,1199.00,56.00,33.00,41.92,240.00,7.00,0.00,30.09,1015.60,10.00,M,CLR,M,M,M,M,M,M,M,M,M,M,M,M,M,M,55.90,KNFL 030456Z 24007KT 10SM CLR 13/01 A3009 RMK AO2 SLP156 T01330006,M
HND,2022-10-03 04:56,-115.1344,35.9729,742.79,78.00,44.00,29.91,190.00,7.00,0.00,29.96,1013.30,10.00,M,CLR,M,M,M,M,M,M,M,M,M,M,M,M,M,M,78.10,KHND 030456Z AUTO 19007KT 10SM CLR 26/07 A2996 RMK AO2 SLP133 T02560067,M
RTS,2022-10-03 04:59,-119.8764,39.6682,1539.00,48.20,26.60,42.73,320.00,4.00,0.00,30.18,M,10.00,M,CLR,M,M,M,M,M,M,M,M,M,M,M,M,M,M,46.34,KRTS 030459Z AUTO 32004KT 10SM CLR 09/M03 A3018 RMK AO2,M
CXP,2022-10-03 05:10,-119.7326,39.1923,1431.00,59.00,32.00,35.87,0.00,0.00,0.00,30.17,M,10.00,M,CLR,M,M,M,M,M,M,M,M,M,M,M,M,M,M,59.00,KCXP 030510Z AUTO 00000KT 10SM CLR 15/M00 A3017 RMK AO2,M
BVU,2022-10-03 05:15,-114.8611,35.9475,671.00,77.00,53.60,44.25,0.00,0.00,0.00,29.93,M,10.00,M,CLR,M,M,M,M,M,M,M,M,M,M,M,M,M,M,77.00,KBVU 030515Z AUTO 00000KT 10SM CLR 25/12 A2993 RMK AO2 LTG DSNT NE,M
TMT,2022-10-03 05:15,-117.1971,39.4643,1749.34,42.00,23.50,47.72,230.00,4.00,0.00,30.22,M,10.00,M,CLR,M,M,M,M,M,M,M,M,M,M,M,M,M,M,38.98,KTMT 030515Z AUTO 23004KT 10SM CLR 06/M05 A3022 RMK AO2 LTG DSNT SE T00551047,M
HTH,2022-10-03 05:15,-118.6315,38.5448,1282.89,68.00,33.80,28.11,290.00,4.00,0.00,30.12,M,10.00,M,CLR,M,M,M,M,M,M,M,M,M,M,M,M,M,M,68.00,KHTH 030515Z AUTO 29004KT 10SM CLR 20/01 A3012 RMK A01,M
BAM,2022-10-03 05:15,-116.8743,40.5990,1382.36,46.40,24.80,42.44,160.00,5.00,0.00,30.15,M,10.00,M,CLR,M,M,M,M,M,M,M,M,M,M,M,M,M,M,43.50,KBAM 030515Z AUTO 16005KT 10SM CLR 08/M04 A3015 RMK AO1,M
MEV,2022-10-03 05:15,-119.7500,38.9963,1441.42,51.80,30.20,43.32,130.00,3.00,0.00,30.15,M,10.00,M,FEW,M,M,M,6000.00,M,M,M,M,M,M,M,M,M,M,51.80,KMEV 030515Z AUTO 13003KT 10SM FEW060 11/M01 A3015 RMK AO2,M
05U,2022-10-03 05:15,-116.0051,39.6042,1811.23,44.60,23.00,42.14,0.00,0.00,0.00,30.22,M,10.00,M,CLR,M,M,M,M,M,M,M,M,M,M,M,M,M,M,44.60,K05U 030515Z AUTO 00000KT 10SM CLR 07/M05 A3022 RMK A01,M
RTS,2022-10-03 05:19,-119.8764,39.6682,1539.00,48.20,30.20,49.53,320.00,4.00,0.00,30.18,M,10.00,M,CLR,M,M,M,M,M,M,M,M,M,M,M,M,M,M,46.34,KRTS 030519Z AUTO 32004KT 10SM CLR 09/M01 A3018 RMK AO2,M
CXP,2022-10-03 05:30,-119.7326,39.1923,1431.00,57.20,32.00,38.26,0.00,0.00,0.00,30.17,M,10.00,M,CLR,M,M,M,M,M,M,M,M,M,M,M,M,M,M,57.20,KCXP 030530Z AUTO 00000KT 10SM CLR 14/M00 A3017 RMK AO2,M
TMT,2022-10-03 05:35,-117.1971,39.4643,1749.34,40.30,24.60,53.16,250.00,7.00,0.00,30.22,M,10.00,M,CLR,M,M,M,M,M,M,M,M,M,M,M,M,M,M,34.90,KTMT 030535Z AUTO 25007KT 10SM CLR 05/M04 A3022 RMK AO2 T00461041,M
BVU,2022-10-03 05:35,-114.8611,35.9475,671.00,75.20,53.60,46.98,0.00,0.00,0.00,29.93,M,10.00,M,CLR,M,M,M,M,M,M,M,M,M,M,M,M,M,M,75.20,KBVU 030535Z AUTO 00000KT 10SM CLR 24/12 A2993 RMK AO2,M
MEV,2022-10-03 05:35,-119.7500,38.9963,1441.42,50.00,28.40,43.03,140.00,6.00,0.00,30.15,M,10.00,M,FEW,FEW,M,M,6000.00,7500.00,M,M,M,M,M,M,M,M,M,50.00,KMEV 030535Z AUTO 14006KT 10SM FEW060 FEW075 10/M02 A3015 RMK AO2,M
05U,2022-10-03 05:35,-116.0051,39.6042,1811.23,42.80,21.20,41.84,230.00,3.00,0.00,30.22,M,10.00,M,CLR,M,M,M,M,M,M,M,M,M,M,M,M,M,M,41.03,K05U 030535Z AUTO 23003KT 10SM CLR 06/M06 A3022 RMK A01,M
HTH,2022-10-03 05:35,-118.6315,38.5448,1282.89,64.40,28.40,25.60,220.00,3.00,0.00,30.13,M,10.00,M,CLR,M,M,M,M,M,M,M,M,M,M,M,M,M,M,64.40,KHTH 030535Z AUTO 22003KT 10SM CLR 18/M02 A3013 RMK A01,M
BAM,2022-10-03 05:35,-116.8743,40.5990,1382.36,48.20,26.60,42.73,160.00,5.00,0.00,30.15,M,10.00,M,CLR,M,M,M,M,M,M,M,M,M,M,M,M,M,M,45.63,KBAM 030535Z AUTO 16005KT 10SM CLR 09/M03 A3015 RMK AO1,M
RTS,2022-10-03 05:39,-119.8764,39.6682,1539.00,48.20,30.20,49.53,340.00,5.00,0.00,30.18,M,10.00,M,CLR,M,M,M,M,M,M,M,M,M,M,M,M,M,M,45.63,KRTS 030539Z AUTO 34005KT 10SM CLR 09/M01 A3018 RMK AO2,M
CXP,2022-10-03 05:50,-119.7326,39.1923,1431.00,57.20,28.40,33.05,0.00,0.00,0.00,30.17,M,10.00,M,CLR,M,M,M,M,M,M,M,M,M,M,M,M,M,M,57.20,KCXP 030550Z AUTO 00000KT 10SM CLR 14/M02 A3017 RMK AO2,M
P68,2022-10-03 05:53,-116.0056,39.6014,1993.00,44.00,24.10,44.98,180.00,6.00,0.00,30.20,1017.60,M,M,M,M,M,M,M,M,M,M,M,M,M,M,M,M,M,40.10,KP68 030553Z AUTO 18006KT 07/M04 A3020 RMK AO1 SLP176 T00671044 10233 20056 51011,M
VGT,2022-10-03 05:53,-115.1933,36.2111,667.00,82.00,44.00,26.33,0.00,0.00,0.00,29.91,1011.90,10.00,M,CLR,M,M,M,M,M,M,M,M,M,M,M,M,M,M,80.22,KVGT 030553Z AUTO 00000KT 10SM CLR 28/07 A2991 RMK AO2 SLP119 T02780067 10350 20272 53008,M
LOL,2022-10-03 05:53,-118.5701,40.0684,1192.43,50.00,M,M,130.00,5.00,0.00,30.10,1017.20,10.00,M,CLR,M,M,M,M,M,M,M,M,M,M,M,M,M,M,M,KLOL 030553Z AUTO 13005KT 10SM CLR 10/ A3010 RMK AO2 SLP172 T0100 10261 20094 51012 $,M
DRA,2022-10-03 05:53,-116.0278,36.6206,1009.00,69.00,37.00,30.74,70.00,4.00,0.00,29.99,1011.10,10.00,M,CLR,M,M,M,M,M,M,M,M,M,M,M,M,M,M,69.10,KDRA 030553Z AUTO 07004KT 10SM CLR 21/03 A2999 RMK AO2 SLP111 T02060028 10306 20206 51006,M
ELY,2022-10-03 05:53,-114.8453,39.2950,1909.00,51.00,25.00,35.89,320.00,3.00,0.00,30.20,1015.20,10.00,M,CLR,M,M,M,M,M,M,M,M,M,M,M,M,M,M,51.10,KELY 030553Z AUTO 32003KT 10SM CLR 11/M04 A3020 RMK AO2 SLP152 T01061039 10222 20100 51011,M
TMT,2022-10-03 05:55,-117.1971,39.4643,1749.34,40.80,23.90,50.64,210.00,3.00,0.00,30.22,M,10.00,M,CLR,M,M,M,M,M,M,M,M,M,M,M,M,M,M,38.75,KTMT 030555Z AUTO 21003KT 10SM CLR 05/M04 A3022 RMK AO2 T00491045 10222 20045,M
05U,2022-10-03 05:55,-116.0051,39.6042,1811.23,44.60,23.00,42.14,0.00,0.00,0.00,30.23,M,10.00,M,CLR,M,M,M,M,M,M,M,M,M,M,M,M,M,M,44.60,K05U 030555Z AUTO 00000KT 10SM CLR 07/M05 A3023 RMK A01,M
RNO,2022-10-03 05:55,-119.7711,39.4839,1341.00,63.00,36.00,36.52,0.00,0.00,0.00,30.14,1016.60,10.00,M,CLR,M,M,M,M,M,M,M,M,M,M,M,M,M,M,63.00,KRNO 030555Z 00000KT 10SM CLR 17/02 A3014 RMK AO2 SLP166 T01720022 10272 20167 51012 $,M
BVU,2022-10-03 05:55,-114.8611,35.9475,671.00,75.20,53.60,46.98,0.00,0.00,0.00,29.93,M,10.00,M,CLR,M,M,M,M,M,M,M,M,M,M,M,M,M,M,75.20,KBVU 030555Z AUTO 00000KT 10SM CLR 24/12 A2993 RMK AO2,M
MEV,2022-10-03 05:55,-119.7500,38.9963,1441.42,48.20,26.60,42.73,120.00,8.00,0.00,30.16,M,10.00,M,FEW,M,M,M,6000.00,M,M,M,M,M,M,M,M,M,M,44.07,KMEV 030555Z AUTO 12008KT 10SM FEW060 09/M03 A3016 RMK AO2,M
BAM,2022-10-03 05:55,-116.8743,40.5990,1382.36,46.40,26.60,45.73,160.00,7.00,0.00,30.14,M,10.00,M,CLR,M,M,M,M,M,M,M,M,M,M,M,M,M,M,42.33,KBAM 030555Z AUTO 16007KT 10SM CLR 08/M03 A3014 RMK AO1,M
HTH,2022-10-03 05:55,-118.6315,38.5448,1282.89,60.80,28.40,29.06,190.00,4.00,0.00,30.13,M,10.00,M,CLR,M,M,M,M,M,M,M,M,M,M,M,M,M,M,60.80,KHTH 030555Z AUTO 19004KT 10SM CLR 16/M02 A3013 RMK A01,M
WMC,2022-10-03 05:56,-117.8072,40.9019,1315.00,48.00,27.00,43.77,110.00,5.00,0.00,30.14,1018.00,10.00,M,CLR,M,M,M,M,M,M,M,M,M,M,M,M,M,M,45.40,KWMC 030556Z AUTO 11005KT 10SM CLR 09/M03 A3014 RMK AO2 SLP180 T00891028 10250 20078 53012,M
LSV,2022-10-03 05:56,-115.0343,36.2362,570.00,78.00,47.50,34.02,10.00,3.00,0.00,29.87,1009.00,10.00,M,CLR,M,M,M,M,M,M,M,M,M,M,M,M,M,M,78.10,KLSV 030556Z AUTO 01003KT 10SM CLR 26/09 A2987 RMK AO2 SLP090 T02560086 10338 20256 52007 $,M
INS,2022-10-03 05:56,-115.6733,36.5872,955.00,71.20,39.00,30.95,0.00,0.00,0.00,29.99,1011.30,10.00,M,CLR,M,M,M,M,M,M,M,M,M,M,M,M,M,M,71.20,KINS 030556Z AUTO 00000KT 10SM CLR 22/04 A2999 RMK AO2 SLP113 T02180039 10312 20218 52009 $,M
EKO,2022-10-03 05:56,-115.7860,40.8242,1367.00,50.00,26.10,39.14,70.00,5.00,0.00,30.16,1018.80,10.00,M,CLR,M,M,M,M,M,M,M,M,M,M,M,M,M,M,50.00,KEKO 030556Z AUTO 07005KT 10SM CLR 10/M03 A3016 RMK AO2 SLP188 T01001033 10222 20078 51012,M
NFL,2022-10-03 05:56,-118.7010,39.4166,1199.00,52.00,32.00,46.25,0.00,0.00,0.00,30.10,1015.80,10.00,M,CLR,M,M,M,M,M,M,M,M,M,M,M,M,M,M,52.00,KNFL 030556Z 00000KT 10SM CLR 11/00 A3010 RMK AO2 SLP158 T01110000 10261 20111 51011,M
HND,2022-10-03 05:56,-115.1344,35.9729,742.79,76.00,43.00,30.85,200.00,7.00,0.00,29.96,1013.40,10.00,M,CLR,M,M,M,M,M,M,M,M,M,M,M,M,M,M,75.90,KHND 030556Z AUTO 20007KT 10SM CLR 24/06 A2996 RMK AO2 SLP134 T02440061 10333 20244 51006,M
LAS,2022-10-03 05:56,-115.1634,36.0719,663.00,81.00,41.00,24.14,180.00,4.00,0.00,29.92,1010.50,10.00,M,CLR,M,M,M,M,M,M,M,M,M,M,M,M,M,M,79.43,KLAS 030556Z 18004KT 10SM CLR 27/05 A2992 RMK AO2 SLP105 T02720050 10333 20272 51006 $,M
TPH,2022-10-03 05:56,-117.0904,38.0505,1654.00,58.00,21.90,24.59,350.00,6.00,0.00,30.16,1015.60,10.00,M,CLR,M,M,M,M,M,M,M,M,M,M,M,M,M,M,57.90,KTPH 030556Z AUTO 35006KT 10SM CLR 14/M06 A3016 RMK AO2 SLP156 T01441056 10256 20139 51014,M
RTS,2022-10-03 05:59,-119.8764,39.6682,1539.00,50.00,30.20,46.31,320.00,5.00,0.00,30.18,M,10.00,M,CLR,M,M,M,M,M,M,M,M,M,M,M,M,M,M,50.00,KRTS 030559Z AUTO 32005KT 10SM CLR 10/M01 A3018 RMK AO2,M
CXP,2022-10-03 06:10,-119.7326,39.1923,1431.00,55.40,28.40,35.28,70.00,4.00,0.00,30.17,M,10.00,M,CLR,M,M,M,M,M,M,M,M,M,M,M,M,M,M,55.40,KCXP 030610Z AUTO 07004KT 10SM CLR 13/M02 A3017 RMK AO2,M
BVU,2022-10-03 06:15,-114.8611,35.9475,671.00,73.40,53.60,49.90,0.00,0.00,0.00,29.93,M,10.00,M,CLR,M,M,M,M,M,M,M,M,M,M,M,M,M,M,73.40,KBVU 030615Z AUTO 00000KT 10SM CLR 23/12 A2993 RMK AO2,M
MEV,2022-10-03 06:15,-119.7500,38.9963,1441.42,48.20,24.80,39.66,110.00,7.00,0.00,30.16,M,10.00,M,SCT,M,M,M,6000.00,M,M,M,M,M,M,M,M,M,M,44.53,KMEV 030615Z AUTO 11007KT 10SM SCT060 09/M04 A3016 RMK AO2,M
HTH,2022-10-03 06:15,-118.6315,38.5448,1282.89,60.80,28.40,29.06,210.00,3.00,0.00,30.13,M,10.00,M,CLR,M,M,M,M,M,M,M,M,M,M,M,M,M,M,60.80,KHTH 030615Z AUTO 21003KT 10SM CLR 16/M02 A3013 RMK A01,M
BAM,2022-10-03 06:15,-116.8743,40.5990,1382.36,46.40,26.60,45.73,180.00,3.00,0.00,30.15,M,10.00,M,CLR,M,M,M,M,M,M,M,M,M,M,M,M,M,M,45.15,KBAM 030615Z AUTO 18003KT 10SM CLR 08/M03 A3015 RMK AO1,M
TMT,2022-10-03 06:15,-117.1971,39.4643,1749.34,39.40,23.00,51.49,230.00,3.00,0.00,30.23,M,10.00,M,CLR,M,M,M,M,M,M,M,M,M,M,M,M,M,M,37.15,KTMT 030615Z AUTO 23003KT 10SM CLR 04/M05 A3023 RMK AO2 T00411050,M
05U,2022-10-03 06:15,-116.0051,39.6042,1811.23,42.80,23.00,45.14,170.00,5.00,0.00,30.23,M,10.00,M,CLR,M,M,M,M,M,M,M,M,M,M,M,M,M,M,39.22,K05U 030615Z AUTO 17005KT 10SM CLR 06/M05 A3023 RMK A01,M
RTS,2022-10-03 06:19,-119.8764,39.6682,1539.00,50.00,30.20,46.31,0.00,0.00,0.00,30.18,M,10.00,M,CLR,M,M,M,M,M,M,M,M,M,M,M,M,M,M,50.00,KRTS 030619Z AUTO 00000KT 10SM CLR 10/M01 A3018 RMK AO2,M
CXP,2022-10-03 06:30,-119.7326,39.1923,1431.00,55.40,28.40,35.28,0.00,0.00,0.00,30.17,M,10.00,M,CLR,M,M,M,M,M,M,M,M,M,M,M,M,M,M,55.40,KCXP 030630Z AUTO 00000KT 10SM CLR 13/M02 A3017 RMK AO2,M
HTH,2022-10-03 06:35,-118.6315,38.5448,1282.89,60.80,30.20,31.28,200.00,4.00,0.00,30.13,M,10.00,M,CLR,M,M,M,M,M,M,M,M,M,M,M,M,M,M,60.80,KHTH 030635Z AUTO 20004KT 10SM CLR 16/M01 A3013 RMK A01,M
05U,2022-10-03 06:35,-116.0051,39.6042,1811.23,42.80,23.00,45.14,180.00,5.00,0.00,30.23,M,10.00,M,CLR,M,M,M,M,M,M,M,M,M,M,M,M,M,M,39.22,K05U 030635Z AUTO 18005KT 10SM CLR 06/M05 A3023 RMK A01,M
BVU,2022-10-03 06:35,-114.8611,35.9475,671.00,73.40,53.60,49.90,0.00,0.00,0.00,29.93,M,10.00,M,CLR,M,M,M,M,M,M,M,M,M,M,M,M,M,M,73.40,KBVU 030635Z AUTO 00000KT 10SM CLR 23/12 A2993 RMK AO2,M
BAM,2022-10-03 06:35,-116.8743,40.5990,1382.36,46.40,26.60,45.73,0.00,0.00,0.00,30.15,M,10.00,M,CLR,M,M,M,M,M,M,M,M,M,M,M,M,M,M,46.40,KBAM 030635Z AUTO 00000KT 10SM CLR 08/M03 A3015 RMK AO1,M
MEV,2022-10-03 06:35,-119.7500,38.9963,1441.42,48.20,26.60,42.73,210.00,4.00,0.00,30.16,M,5.00,M,FEW,SCT,M,M,5500.00,6500.00,M,M,HZ,M,M,M,M,M,M,46.34,KMEV 030635Z AUTO 21004KT 5SM HZ FEW055 SCT065 09/M03 A3016 RMK AO2,M
TMT,2022-10-03 06:35,-117.1971,39.4643,1749.34,36.50,21.00,53.02,160.00,3.00,0.00,30.24,M,10.00,M,CLR,M,M,M,M,M,M,M,M,M,M,M,M,M,M,33.83,KTMT 030635Z AUTO 16003KT 10SM CLR 03/M06 A3024 RMK AO2 T00251061,M
RTS,2022-10-03 06:39,-119.8764,39.6682,1539.00,48.20,28.40,46.02,0.00,0.00,0.00,30.19,M,10.00,M,CLR,M,M,M,M,M,M,M,M,M,M,M,M,M,M,48.20,KRTS 030639Z AUTO 00000KT 10SM CLR 09/M02 A3019 RMK AO2,M
CXP,2022-10-03 06:50,-119.7326,39.1923,1431.00,55.40,28.40,35.28,0.00,0.00,0.00,30.17,M,10.00,M,CLR,M,M,M,M,M,M,M,M,M,M,M,M,M,M,55.40,KCXP 030650Z AUTO 00000KT 10SM CLR 13/M02 A3017 RMK AO2,M
LOL,2022-10-03 06:53,-118.5701,40.0684,1192.43,50.00,M,M,0.00,0.00,0.00,30.12,1017.50,9.00,M,CLR,M,M,M,M,M,M,M,M,M,M,M,M,M,M,M,KLOL 030653Z AUTO 00000KT 9SM CLR 10/ A3012 RMK AO2 SLP175 T0100 $,M
P68,2022-10-03 06:53,-116.0056,39.6014,1993.00,41.00,24.10,50.67,0.00,0.00,0.00,30.21,1018.00,M,M,M,M,M,M,M,M,M,M,M,M,M,M,M,M,M,41.00,KP68 030653Z AUTO 00000KT 05/M04 A3021 RMK AO1 SLP180 T00501044,M
DRA,2022-10-03 06:53,-116.0278,36.6206,1009.00,67.00,37.00,33.16,50.00,4.00,0.00,29.99,1011.30,10.00,M,CLR,M,M,M,M,M,M,M,M,M,M,M,M,M,M,66.90,KDRA 030653Z AUTO 05004KT 10SM CLR 19/03 A2999 RMK AO2 SLP113 T01940028,M
ELY,2022-10-03 06:53,-114.8453,39.2950,1909.00,44.00,27.00,50.73,180.00,7.00,0.00,30.21,1016.00,10.00,M,CLR,M,M,M,M,M,M,M,M,M,M,M,M,M,M,39.53,KELY 030653Z AUTO 18007KT 10SM CLR 07/M03 A3021 RMK AO2 SLP160 T00671028 402390000,M
VGT,2022-10-03 06:53,-115.1933,36.2111,667.00,80.00,43.00,26.85,290.00,6.00,0.00,29.92,1012.10,10.00,M,CLR,M,M,M,M,M,M,M,M,M,M,M,M,M,M,79.04,KVGT 030653Z AUTO 29006KT 10SM CLR 27/06 A2992 RMK AO2 SLP121 T02670061,M
RNO,2022-10-03 06:55,-119.7711,39.4839,1341.00,61.00,38.00,42.24,230.00,3.00,0.00,30.14,1016.30,10.00,M,CLR,M,M,M,M,M,M,M,M,M,M,M,M,M,M,61.00,KRNO 030655Z 23003KT 10SM CLR 16/03 A3014 RMK AO2 SLP163 T01610033 $,M
05U,2022-10-03 06:55,-116.0051,39.6042,1811.23,41.00,23.00,48.39,0.00,0.00,0.00,30.24,M,10.00,M,CLR,M,M,M,M,M,M,M,M,M,M,M,M,M,M,41.00,K05U 030655Z AUTO 00000KT 10SM CLR 05/M05 A3024 RMK A01,M
TMT,2022-10-03 06:55,-117.1971,39.4643,1749.34,38.30,22.50,52.63,200.00,5.00,0.00,30.23,M,10.00,M,CLR,M,M,M,M,M,M,M,M,M,M,M,M,M,M,33.88,KTMT 030655Z AUTO 20005KT 10SM CLR 04/M05 A3023 RMK AO2 T00351053,M
BAM,2022-10-03 06:55,-116.8743,40.5990,1382.36,44.60,24.80,45.44,60.00,4.00,0.00,30.16,M,10.00,M,CLR,M,M,M,M,M,M,M,M,M,M,M,M,M,M,42.13,KBAM 030655Z AUTO 06004KT 10SM CLR 07/M04 A3016 RMK AO1,M
MEV,2022-10-03 06:55,-119.7500,38.9963,1441.42,48.20,28.40,46.02,110.00,3.00,0.00,30.17,M,10.00,M,FEW,FEW,M,M,5500.00,6500.00,M,M,M,M,M,M,M,M,M,47.21,KMEV 030655Z AUTO 11003KT 10SM FEW055 FEW065 09/M02 A3017 RMK AO2,M
HTH,2022-10-03 06:55,-118.6315,38.5448,1282.89,59.00,30.20,33.35,160.00,3.00,0.00,30.13,M,10.00,M,CLR,M,M,M,M,M,M,M,M,M,M,M,M,M,M,59.00,KHTH 030655Z AUTO 16003KT 10SM CLR 15/M01 A3013 RMK A01,M
BVU,2022-10-03 06:55,-114.8611,35.9475,671.00,73.40,53.60,49.90,0.00,0.00,0.00,29.93,M,10.00,M,CLR,M,M,M,M,M,M,M,M,M,M,M,M,M,M,73.40,KBVU 030655Z AUTO 00000KT 10SM CLR 23/12 A2993 RMK AO2,M
HND,2022-10-03 06:56,-115.1344,35.9729,742.79,74.00,42.00,31.86,170.00,7.00,0.00,29.96,1013.50,10.00,M,CLR,M,M,M,M,M,M,M,M,M,M,M,M,M,M,73.90,KHND 030656Z AUTO 17007KT 10SM CLR 23/06 A2996 RMK AO2 SLP135 T02330056 403440222,M
EKO,2022-10-03 06:56,-115.7860,40.8242,1367.00,49.00,28.00,44.10,60.00,3.00,0.00,30.17,1018.40,10.00,M,CLR,M,M,M,M,M,M,M,M,M,M,M,M,M,M,48.01,KEKO 030656Z AUTO 06003KT 10SM CLR 09/M02 A3017 RMK AO2 SLP184 T00941022,M
LAS,2022-10-03 06:56,-115.1634,36.0719,663.00,80.00,40.00,23.82,230.00,6.00,0.00,29.92,1010.60,10.00,M,CLR,M,M,M,M,M,M,M,M,M,M,M,M,M,M,78.93,KLAS 030656Z 23006KT 10SM CLR 27/04 A2992 RMK AO2 SLP106 T02670044 $,M
INS,2022-10-03 06:56,-115.6733,36.5872,955.00,68.70,40.00,34.91,0.00,0.00,0.00,29.99,1011.30,10.00,M,CLR,M,M,M,M,M,M,M,M,M,M,M,M,M,M,68.70,KINS 030656Z AUTO 00000KT 10SM CLR 20/04 A2999 RMK AO2 SLP113 T02040044 $,M
WMC,2022-10-03 06:56,-117.8072,40.9019,1315.00,42.00,23.00,46.37,300.00,4.00,0.00,30.14,1018.20,10.00,M,CLR,M,M,M,M,M,M,M,M,M,M,M,M,M,M,39.21,KWMC 030656Z AUTO 30004KT 10SM CLR 06/M05 A3014 RMK AO2 SLP182 T00561050,M
NFL,2022-10-03 06:56,-118.7010,39.4166,1199.00,52.00,30.00,42.65,180.00,5.00,0.00,30.10,1016.10,10.00,M,CLR,M,M,M,M,M,M,M,M,M,M,M,M,M,M,52.00,KNFL 030656Z AUTO 18005KT 10SM CLR 11/M01 A3010 RMK AO2 SLP161 T01111011,M
TPH,2022-10-03 06:56,-117.0904,38.0505,1654.00,56.00,21.00,25.45,360.00,8.00,0.00,30.16,1015.60,10.00,M,CLR,M,M,M,M,M,M,M,M,M,M,M,M,M,M,55.90,KTPH 030656Z AUTO 36008KT 10SM CLR 13/M06 A3016 RMK AO2 SLP156 T01331061,M
LSV,2022-10-03 06:56,-115.0343,36.2362,570.00,77.00,51.40,40.81,90.00,3.00,0.00,29.88,1009.30,10.00,M,CLR,M,M,M,M,M,M,M,M,M,M,M,M,M,M,77.00,KLSV 030656Z AUTO 09003KT 10SM CLR 25/11 A2988 RMK AO2 SLP093 T02500108 $,M
RTS,2022-10-03 06:59,-119.8764,39.6682,1539.00,44.60,28.40,52.72,0.00,0.00,0.00,30.19,M,10.00,M,CLR,M,M,M,M,M,M,M,M,M,M,M,M,M,M,44.60,KRTS 030659Z AUTO 00000KT 10SM CLR 07/M02 A3019 RMK AO2,M
CXP,2022-10-03 07:10,-119.7326,39.1923,1431.00,53.60,28.40,37.67,0.00,0.00,0.00,30.18,M,10.00,M,CLR,M,M,M,M,M,M,M,M,M,M,M,M,M,M,53.60,KCXP 030710Z AUTO 00000KT 10SM CLR 12/M02 A3018 RMK AO2,M
TMT,2022-10-03 07:15,-117.1971,39.4643,1749.34,33.80,20.10,56.81,150.00,3.00,0.00,30.23,M,10.00,M,CLR,M,M,M,M,M,M,M,M,M,M,M,M,M,M,30.75,KTMT 030715Z AUTO 15003KT 10SM CLR 01/M07 A3023 RMK AO2 T00101066,M
HTH,2022-10-03 07:15,-118.6315,38.5448,1282.89,59.00,30.20,33.35,170.00,4.00,0.00,30.13,M,10.00,M,CLR,M,M,M,M,M,M,M,M,M,M,M,M,M,M,59.00,KHTH 030715Z AUTO 17004KT 10SM CLR 15/M01 A3013 RMK A01,M
BVU,2022-10-03 07:15,-114.8611,35.9475,671.00,71.60,51.80,49.64,0.00,0.00,0.00,29.93,M,10.00,M,CLR,M,M,M,M,M,M,M,M,M,M,M,M,M,M,71.60,KBVU 030715Z AUTO 00000KT 10SM CLR 22/11 A2993 RMK AO2,M
MEV,2022-10-03 07:15,-119.7500,38.9963,1441.42,44.60,28.40,52.72,110.00,5.00,0.00,30.17,M,10.00,M,CLR,M,M,M,M,M,M,M,M,M,M,M,M,M,M,41.36,KMEV 030715Z AUTO 11005KT 10SM CLR 07/M02 A3017 RMK AO2,M
BAM,2022-10-03 07:15,-116.8743,40.5990,1382.36,44.60,26.60,48.96,20.00,3.00,0.00,30.17,M,10.00,M,CLR,M,M,M,M,M,M,M,M,M,M,M,M,M,M,43.09,KBAM 030715Z AUTO 02003KT 10SM CLR 07/M03 A3017 RMK AO1,M
05U,2022-10-03 07:15,-116.0051,39.6042,1811.23,39.20,23.00,51.89,0.00,0.00,0.00,30.24,M,10.00,M,CLR,M,M,M,M,M,M,M,M,M,M,M,M,M,M,39.20,K05U 030715Z AUTO 00000KT 10SM CLR 04/M05 A3024 RMK A01,M
RTS,2022-10-03 07:19,-119.8764,39.6682,1539.00,44.60,30.20,56.74,350.00,6.00,0.00,30.19,M,10.00,M,CLR,M,M,M,M,M,M,M,M,M,M,M,M,M,M,40.71,KRTS 030719Z AUTO 35006KT 10SM CLR 07/M01 A3019 RMK AO2,M
CXP,2022-10-03 07:30,-119.7326,39.1923,1431.00,50.00,28.40,43.03,0.00,0.00,0.00,30.18,M,10.00,M,CLR,M,M,M,M,M,M,M,M,M,M,M,M,M,M,50.00,KCXP 030730Z AUTO 00000KT 10SM CLR 10/M02 A3018 RMK AO2,M
05U,2022-10-03 07:35,-116.0051,39.6042,1811.23,41.00,23.00,48.39,180.00,4.00,0.00,30.24,M,10.00,M,CLR,M,M,M,M,M,M,M,M,M,M,M,M,M,M,37.93,K05U 030735Z AUTO 18004KT 10SM CLR 05/M05 A3024 RMK A01,M
HTH,2022-10-03 07:35,-118.6315,38.5448,1282.89,59.00,28.40,30.98,160.00,3.00,0.00,30.13,M,10.00,M,CLR,M,M,M,M,M,M,M,M,M,M,M,M,M,M,59.00,KHTH 030735Z AUTO 16003KT 10SM CLR 15/M02 A3013 RMK A01,M
TMT,2022-10-03 07:35,-117.1971,39.4643,1749.34,34.50,20.30,55.72,300.00,4.00,0.00,30.23,M,10.00,M,CLR,M,M,M,M,M,M,M,M,M,M,M,M,M,M,30.34,KTMT 030735Z AUTO 30004KT 10SM CLR 01/M06 A3023 RMK AO2 T00141065,M
MEV,2022-10-03 07:35,-119.7500,38.9963,1441.42,42.80,28.40,56.48,0.00,0.00,0.00,30.17,M,10.00,M,FEW,FEW,M,M,6000.00,7000.00,M,M,M,M,M,M,M,M,M,42.80,KMEV 030735Z AUTO 00000KT 10SM FEW060 FEW070 06/M02 A3017 RMK AO2,M
BAM,2022-10-03 07:35,-116.8743,40.5990,1382.36,46.40,26.60,45.73,0.00,0.00,0.00,30.17,M,10.00,M,CLR,M,M,M,M,M,M,M,M,M,M,M,M,M,M,46.40,KBAM 030735Z AUTO 00000KT 10SM CLR 08/M03 A3017 RMK AO1,M
BVU,2022-10-03 07:35,-114.8611,35.9475,671.00,73.40,50.00,43.69,0.00,0.00,0.00,29.93,M,10.00,M,CLR,M,M,M,M,M,M,M,M,M,M,M,M,M,M,73.40,KBVU 030735Z AUTO 00000KT 10SM CLR 23/10 A2993 RMK AO2,M
RTS,2022-10-03 07:39,-119.8764,39.6682,1539.00,44.60,30.20,56.74,310.00,4.00,0.00,30.19,M,10.00,M,CLR,M,M,M,M,M,M,M,M,M,M,M,M,M,M,42.13,KRTS 030739Z AUTO 31004KT 10SM CLR 07/M01 A3019 RMK AO2,M
CXP,2022-10-03 07:50,-119.7326,39.1923,1431.00,51.80,28.40,40.25,0.00,0.00,0.00,30.18,M,10.00,M,CLR,M,M,M,M,M,M,M,M,M,M,M,M,M,M,51.80,KCXP 030750Z AUTO 00000KT 10SM CLR 11/M02 A3018 RMK AO2,M
VGT,2022-10-03 07:53,-115.1933,36.2111,667.00,78.00,44.00,29.91,0.00,0.00,0.00,29.93,1012.40,10.00,M,CLR,M,M,M,M,M,M,M,M,M,M,M,M,M,M,78.10,KVGT 030753Z AUTO 00000KT 10SM CLR 26/07 A2993 RMK AO2 SLP124 T02560067 403500217,M
DRA,2022-10-03 07:53,-116.0278,36.6206,1009.00,65.00,38.00,36.82,50.00,6.00,0.00,30.00,1011.60,10.00,M,CLR,M,M,M,M,M,M,M,M,M,M,M,M,M,M,64.90,KDRA 030753Z AUTO 05006KT 10SM CLR 18/03 A3000 RMK AO2 SLP116 T01830033 403170156,M
LOL,2022-10-03 07:53,-118.5701,40.0684,1192.43,46.00,M,M,0.00,0.00,0.00,30.12,1017.60,10.00,M,CLR,M,M,M,M,M,M,M,M,M,M,M,M,M,M,M,KLOL 030753Z AUTO 00000KT 10SM CLR 08/ A3012 RMK AO2 SLP176 T0078 402720017 $,M
ELY,2022-10-03 07:53,-114.8453,39.2950,1909.00,40.00,26.10,57.47,170.00,7.00,0.00,30.22,1016.50,10.00,M,CLR,M,M,M,M,M,M,M,M,M,M,M,M,M,M,34.41,KELY 030753Z AUTO 17007KT 10SM CLR 04/M03 A3022 RMK AO2 SLP165 T00441033,M
P68,2022-10-03 07:53,-116.0056,39.6014,1993.00,44.00,25.00,46.70,170.00,7.00,0.00,30.22,1017.60,M,M,M,M,M,M,M,M,M,M,M,M,M,M,M,M,M,39.53,KP68 030753Z AUTO 17007KT 07/M04 A3022 RMK AO1 SLP176 T00671039 402390006,M
BVU,2022-10-03 07:55,-114.8611,35.9475,671.00,73.40,50.00,43.69,0.00,0.00,0.00,29.94,M,10.00,M,CLR,M,M,M,M,M,M,M,M,M,M,M,M,M,M,73.40,KBVU 030755Z AUTO 00000KT 10SM CLR 23/10 A2994 RMK AO2,M
TMT,2022-10-03 07:55,-117.1971,39.4643,1749.34,34.50,22.80,61.94,260.00,5.00,0.00,30.24,M,10.00,M,CLR,M,M,M,M,M,M,M,M,M,M,M,M,M,M,29.36,KTMT 030755Z AUTO 26005KT 10SM CLR 01/M05 A3024 RMK AO2 T00141051,M
HTH,2022-10-03 07:55,-118.6315,38.5448,1282.89,59.00,26.60,28.77,220.00,5.00,0.00,30.13,M,10.00,M,CLR,M,M,M,M,M,M,M,M,M,M,M,M,M,M,59.00,KHTH 030755Z AUTO 22005KT 10SM CLR 15/M03 A3013 RMK A01,M
BAM,2022-10-03 07:55,-116.8743,40.5990,1382.36,42.80,23.00,45.14,140.00,4.00,0.00,30.17,M,10.00,M,CLR,M,M,M,M,M,M,M,M,M,M,M,M,M,M,40.03,KBAM 030755Z AUTO 14004KT 10SM CLR 06/M05 A3017 RMK AO1,M
MEV,2022-10-03 07:55,-119.7500,38.9963,1441.42,44.60,30.20,56.74,0.00,0.00,0.00,30.17,M,10.00,M,FEW,FEW,SCT,M,4400.00,5000.00,6500.00,M,M,M,M,M,M,M,M,44.60,KMEV 030755Z AUTO 00000KT 10SM FEW044 FEW050 SCT065 07/M01 A3017 RMK AO2,M
05U,2022-10-03 07:55,-116.0051,39.6042,1811.23,42.80,24.80,48.67,180.00,6.00,0.00,30.24,M,10.00,M,CLR,M,M,M,M,M,M,M,M,M,M,M,M,M,M,38.54,K05U 030755Z AUTO 18006KT 10SM CLR 06/M04 A3024 RMK A01,M
RNO,2022-10-03 07:55,-119.7711,39.4839,1341.00,57.00,37.00,47.04,0.00,0.00,0.00,30.15,1016.60,10.00,M,CLR,M,M,M,M,M,M,M,M,M,M,M,M,M,M,57.00,KRNO 030755Z 00000KT 10SM CLR 14/03 A3015 RMK AO2 SLP166 T01390028 402720078 $,M
EKO,2022-10-03 07:56,-115.7860,40.8242,1367.00,40.00,26.10,57.47,0.00,0.00,0.00,30.18,1019.40,10.00,M,CLR,M,M,M,M,M,M,M,M,M,M,M,M,M,M,39.90,KEKO 030756Z AUTO 00000KT 10SM CLR 04/M03 A3018 RMK AO2 SLP194 T00441033 402330006,M
WMC,2022-10-03 07:56,-117.8072,40.9019,1315.00,45.00,27.00,49.02,160.00,7.00,0.00,30.15,1018.00,10.00,M,CLR,M,M,M,M,M,M,M,M,M,M,M,M,M,M,40.63,KWMC 030756Z AUTO 16007KT 10SM CLR 07/M03 A3015 RMK AO2 SLP180 T00721028 402560000,M
LAS,2022-10-03 07:56,-115.1634,36.0719,663.00,79.00,41.00,25.78,210.00,4.00,0.00,29.93,1010.90,10.00,M,CLR,M,M,M,M,M,M,M,M,M,M,M,M,M,M,79.00,KLAS 030756Z 21004KT 10SM CLR 26/05 A2993 RMK AO2 SLP109 T02610050 403390233 $,M
TPH,2022-10-03 07:56,-117.0904,38.0505,1654.00,55.00,21.00,26.29,350.00,8.00,0.00,30.17,1015.80,10.00,M,FEW,M,M,M,12000.00,M,M,M,M,M,M,M,M,M,M,55.00,KTPH 030756Z AUTO 35008KT 10SM FEW120 13/M06 A3017 RMK AO2 SLP158 T01281061 402670078,M
LSV,2022-10-03 07:56,-115.0343,36.2362,570.00,73.00,49.80,43.96,0.00,0.00,0.00,29.89,1009.80,10.00,M,CLR,M,M,M,M,M,M,M,M,M,M,M,M,M,M,73.00,KLSV 030756Z AUTO 00000KT 10SM CLR 23/10 A2989 RMK AO2 SLP098 T02280099 403610222 $,M
INS,2022-10-03 07:56,-115.6733,36.5872,955.00,67.60,38.30,34.06,0.00,0.00,0.00,30.00,1011.40,10.00,M,CLR,M,M,M,M,M,M,M,M,M,M,M,M,M,M,67.60,KINS 030756Z AUTO 00000KT 10SM CLR 20/04 A3000 RMK AO2 SLP114 T01980035 403150145 $,M
HND,2022-10-03 07:56,-115.1344,35.9729,742.79,76.00,46.00,34.58,180.00,10.00,0.00,29.97,1013.50,10.00,M,CLR,M,M,M,M,M,M,M,M,M,M,M,M,M,M,75.90,KHND 030756Z AUTO 18010KT 10SM CLR 24/08 A2997 RMK AO2 SLP135 T02440078,M
NFL,2022-10-03 07:56,-118.7010,39.4166,1199.00,49.00,30.90,49.63,130.00,6.00,0.00,30.11,1016.30,10.00,M,CLR,M,M,M,M,M,M,M,M,M,M,M,M,M,M,45.88,KNFL 030756Z AUTO 13006KT 10SM CLR 09/M01 A3011 RMK AO2 SLP163 T00941006 402670050,M
RTS,2022-10-03 07:59,-119.8764,39.6682,1539.00,46.40,30.20,53.00,10.00,3.00,0.00,30.19,M,10.00,M,CLR,M,M,M,M,M,M,M,M,M,M,M,M,M,M,45.15,KRTS 030759Z AUTO 01003KT 10SM CLR 08/M01 A3019 RMK AO2,M
CXP,2022-10-03 08:10,-119.7326,39.1923,1431.00,50.00,28.40,43.03,310.00,4.00,0.00,30.18,M,10.00,M,CLR,M,M,M,M,M,M,M,M,M,M,M,M,M,M,50.00,KCXP 030810Z AUTO 31004KT 10SM CLR 10/M02 A3018 RMK AO2,M
BAM,2022-10-03 08:15,-116.8743,40.5990,1382.36,39.20,21.20,48.10,170.00,3.00,0.00,30.18,M,10.00,M,CLR,M,M,M,M,M,M,M,M,M,M,M,M,M,M,36.92,KBAM 030815Z AUTO 17003KT 10SM CLR 04/M06 A3018 RMK AO1,M
BVU,2022-10-03 08:15,-114.8611,35.9475,671.00,71.60,51.80,49.64,0.00,0.00,0.00,29.94,M,10.00,M,CLR,M,M,M,M,M,M,M,M,M,M,M,M,M,M,71.60,KBVU 030815Z AUTO 00000KT 10SM CLR 22/11 A2994 RMK AO2,M
HTH,2022-10-03 08:15,-118.6315,38.5448,1282.89,59.00,26.60,28.77,220.00,5.00,0.00,30.13,M,10.00,M,CLR,M,M,M,M,M,M,M,M,M,M,M,M,M,M,59.00,KHTH 030815Z AUTO 22005KT 10SM CLR 15/M03 A3013 RMK A01,M
TMT,2022-10-03 08:15,-117.1971,39.4643,1749.34,33.00,21.40,62.24,180.00,4.00,0.00,30.24,M,10.00,M,CLR,M,M,M,M,M,M,M,M,M,M,M,M,M,M,28.47,KTMT 030815Z AUTO 18004KT 10SM CLR 01/M06 A3024 RMK AO2 T00051059,M
05U,2022-10-03 08:15,-116.0051,39.6042,1811.23,42.80,23.00,45.14,170.00,6.00,0.00,30.24,M,10.00,M,CLR,M,M,M,M,M,M,M,M,M,M,M,M,M,M,38.54,K05U 030815Z AUTO 17006KT 10SM CLR 06/M05 A3024 RMK A01,M
MEV,2022-10-03 08:15,-119.7500,38.9963,1441.42,44.60,30.20,56.74,0.00,0.00,0.00,30.17,M,3.00,M,FEW,SCT,SCT,M,3400.00,4400.00,5000.00,M,HZ,M,M,M,M,M,M,44.60,KMEV 030815Z AUTO 00000KT 3SM HZ FEW034 SCT044 SCT050 07/M01 A3017 RMK AO2,M
RTS,2022-10-03 08:19,-119.8764,39.6682,1539.00,44.60,32.00,61.03,0.00,0.00,0.00,30.20,M,10.00,M,CLR,M,M,M,M,M,M,M,M,M,M,M,M,M,M,44.60,KRTS 030819Z AUTO 00000KT 10SM CLR 07/M00 A3020 RMK AO2,M
CXP,2022-10-03 08:30,-119.7326,39.1923,1431.00,51.80,30.20,43.32,0.00,0.00,0.00,30.19,M,10.00,M,CLR,M,M,M,M,M,M,M,M,M,M,M,M,M,M,51.80,KCXP 030830Z AUTO 00000KT 10SM CLR 11/M01 A3019 RMK AO2,M
TMT,2022-10-03 08:35,-117.1971,39.4643,1749.34,32.00,19.80,60.29,0.00,0.00,0.00,30.24,M,10.00,M,CLR,M,M,M,M,M,M,M,M,M,M,M,M,M,M,32.00,KTMT 030835Z AUTO 00000KT 10SM CLR 00/M07 A3024 RMK AO2 T00001068,M
BVU,2022-10-03 08:35,-114.8611,35.9475,671.00,71.60,51.80,49.64,330.00,4.00,0.00,29.94,M,10.00,M,CLR,M,M,M,M,M,M,M,M,M,M,M,M,M,M,71.60,KBVU 030835Z AUTO 33004KT 10SM CLR 22/11 A2994 RMK AO2,M
05U,2022-10-03 08:35,-116.0051,39.6042,1811.23,41.00,24.80,52.17,190.00,5.00,0.00,30.24,M,10.00,M,CLR,M,M,M,M,M,M,M,M,M,M,M,M,M,M,37.08,K05U 030835Z AUTO 19005KT 10SM CLR 05/M04 A3024 RMK A01,M
MEV,2022-10-03 08:35,-119.7500,38.9963,1441.42,41.00,26.60,56.22,60.00,3.00,0.00,30.18,M,10.00,M,FEW,FEW,SCT,M,3500.00,4200.00,4800.00,M,M,M,M,M,M,M,M,38.98,KMEV 030835Z AUTO 06003KT 10SM FEW035 FEW042 SCT048 05/M03 A3018 RMK AO2,M
BAM,2022-10-03 08:35,-116.8743,40.5990,1382.36,39.20,21.20,48.10,0.00,0.00,0.00,30.18,M,10.00,M,CLR,M,M,M,M,M,M,M,M,M,M,M,M,M,M,39.20,KBAM 030835Z AUTO 00000KT 10SM CLR 04/M06 A3018 RMK AO1,M
HTH,2022-10-03 08:35,-118.6315,38.5448,1282.89,59.00,28.40,30.98,220.00,4.00,0.00,30.14,M,10.00,M,CLR,M,M,M,M,M,M,M,M,M,M,M,M,M,M,59.00,KHTH 030835Z AUTO 22004KT 10SM CLR 15/M02 A3014 RMK A01,M
RTS,2022-10-03 08:39,-119.8764,39.6682,1539.00,48.20,32.00,53.27,350.00,4.00,0.00,30.20,M,10.00,M,CLR,M,M,M,M,M,M,M,M,M,M,M,M,M,M,46.34,KRTS 030839Z AUTO 35004KT 10SM CLR 09/00 A3020 RMK AO2,M
CXP,2022-10-03 08:50,-119.7326,39.1923,1431.00,50.00,32.00,49.81,0.00,0.00,0.00,30.19,M,10.00,M,CLR,M,M,M,M,M,M,M,M,M,M,M,M,M,M,50.00,KCXP 030850Z AUTO 00000KT 10SM CLR 10/M00 A3019 RMK AO2,M
VGT,2022-10-03 08:53,-115.1933,36.2111,667.00,77.00,43.00,29.74,350.00,4.00,0.00,29.93,1012.60,10.00,M,CLR,M,M,M,M,M,M,M,M,M,M,M,M,M,M,77.00,KVGT 030853Z AUTO 35004KT 10SM CLR 25/06 A2993 RMK AO2 SLP126 T02500061 53007,M
ELY,2022-10-03 08:53,-114.8453,39.2950,1909.00,40.00,27.00,59.65,170.00,10.00,0.00,30.23,1016.80,10.00,M,CLR,M,M,M,M,M,M,M,M,M,M,M,M,M,M,32.87,KELY 030853Z AUTO 17010KT 10SM CLR 04/M03 A3023 RMK AO2 SLP168 T00441028 51008,M
LOL,2022-10-03 08:53,-118.5701,40.0684,1192.43,44.00,M,M,110.00,6.00,0.00,30.12,1018.00,10.00,M,CLR,M,M,M,M,M,M,M,M,M,M,M,M,M,M,M,KLOL 030853Z AUTO 11006KT 10SM CLR 07/ A3012 RMK AO2 SLP180 T0067 51008 $,M
DRA,2022-10-03 08:53,-116.0278,36.6206,1009.00,64.00,38.00,38.00,20.00,3.00,0.00,30.01,1011.80,10.00,M,CLR,M,M,M,M,M,M,M,M,M,M,M,M,M,M,64.00,KDRA 030853Z AUTO 02003KT 10SM CLR 18/03 A3001 RMK AO2 SLP118 T01780033 53006,M
P68,2022-10-03 08:53,-116.0056,39.6014,1993.00,39.00,24.10,54.77,160.00,6.00,0.00,30.21,1017.50,M,M,M,M,M,M,M,M,M,M,M,M,M,M,M,M,M,33.96,KP68 030853Z AUTO 16006KT 04/M04 A3021 RMK AO1 SLP175 T00391044 50004,M
BVU,2022-10-03 08:55,-114.8611,35.9475,671.00,71.60,51.80,49.64,0.00,0.00,0.00,29.94,M,10.00,M,CLR,M,M,M,M,M,M,M,M,M,M,M,M,M,M,71.60,KBVU 030855Z AUTO 00000KT 10SM CLR 22/11 A2994 RMK AO2,M
05U,2022-10-03 08:55,-116.0051,39.6042,1811.23,39.20,23.00,51.89,160.00,4.00,0.00,30.24,M,10.00,M,CLR,M,M,M,M,M,M,M,M,M,M,M,M,M,M,35.83,K05U 030855Z AUTO 16004KT 10SM CLR 04/M05 A3024 RMK A01,M
MEV,2022-10-03 08:55,-119.7500,38.9963,1441.42,41.00,28.40,60.54,0.00,0.00,0.00,30.18,M,10.00,M,FEW,SCT,SCT,M,3600.00,4100.00,4700.00,M,M,M,M,M,M,M,M,41.00,KMEV 030855Z AUTO 00000KT 10SM FEW036 SCT041 SCT047 05/M02 A3018 RMK AO2,M
BAM,2022-10-03 08:55,-116.8743,40.5990,1382.36,41.00,23.00,48.39,250.00,4.00,0.00,30.18,M,10.00,M,CLR,M,M,M,M,M,M,M,M,M,M,M,M,M,M,37.93,KBAM 030855Z AUTO 25004KT 10SM CLR 05/M05 A3018 RMK AO1,M
HTH,2022-10-03 08:55,-118.6315,38.5448,1282.89,57.20,30.20,35.57,0.00,0.00,0.00,30.14,M,10.00,M,CLR,M,M,M,M,M,M,M,M,M,M,M,M,M,M,57.20,KHTH 030855Z AUTO 00000KT 10SM CLR 14/M01 A3014 RMK A01,M
RNO,2022-10-03 08:55,-119.7711,39.4839,1341.00,55.00,38.00,52.40,0.00,0.00,0.00,30.16,1016.90,10.00,M,CLR,M,M,M,M,M,M,M,M,M,M,M,M,M,M,55.00,KRNO 030855Z 00000KT 10SM CLR 13/03 A3016 RMK AO2 SLP169 T01280033 53006 $,M
TMT,2022-10-03 08:55,-117.1971,39.4643,1749.34,33.80,20.70,58.28,0.00,0.00,0.00,30.24,M,10.00,M,CLR,M,M,M,M,M,M,M,M,M,M,M,M,M,M,33.80,KTMT 030855Z AUTO 00000KT 10SM CLR 01/M06 A3024 RMK AO2 T00101063,M
NFL,2022-10-03 08:56,-118.7010,39.4166,1199.00,50.00,34.00,53.97,0.00,0.00,0.00,30.12,1016.60,10.00,M,CLR,M,M,M,M,M,M,M,M,M,M,M,M,M,M,50.00,KNFL 030856Z AUTO 00000KT 10SM CLR 10/01 A3012 RMK AO2 SLP166 T01000011 51007,M
LAS,2022-10-03 08:56,-115.1634,36.0719,663.00,76.00,42.00,29.80,260.00,4.00,0.00,29.94,1011.30,10.00,M,CLR,M,M,M,M,M,M,M,M,M,M,M,M,M,M,75.90,KLAS 030856Z 26004KT 10SM CLR 24/06 A2994 RMK AO2 SLP113 T02440056 53007 $,M
EKO,2022-10-03 08:56,-115.7860,40.8242,1367.00,39.00,25.00,56.86,230.00,3.00,0.00,30.19,1019.80,10.00,M,CLR,M,M,M,M,M,M,M,M,M,M,M,M,M,M,36.69,KEKO 030856Z AUTO 23003KT 10SM CLR 04/M04 A3019 RMK AO2 SLP198 T00391039 53008,M
LSV,2022-10-03 08:56,-115.0343,36.2362,570.00,71.80,51.60,48.94,90.00,3.00,0.00,29.90,1010.10,10.00,M,CLR,M,M,M,M,M,M,M,M,M,M,M,M,M,M,71.80,KLSV 030856Z AUTO 09003KT 10SM CLR 22/11 A2990 RMK AO2 SLP101 T02210109 52009 $,M
WMC,2022-10-03 08:56,-117.8072,40.9019,1315.00,39.00,25.00,56.86,140.00,7.00,0.00,30.16,1018.50,10.00,M,CLR,M,M,M,M,M,M,M,M,M,M,M,M,M,M,33.31,KWMC 030856Z AUTO 14007KT 10SM CLR 04/M04 A3016 RMK AO2 SLP185 T00391039 53006,M
INS,2022-10-03 08:56,-115.6733,36.5872,955.00,68.40,37.40,31.99,0.00,0.00,0.00,30.00,1011.40,10.00,M,CLR,M,M,M,M,M,M,M,M,M,M,M,M,M,M,68.40,KINS 030856Z AUTO 00000KT 10SM CLR 20/03 A3000 RMK AO2 SLP114 T02020030 52006 $,M
TPH,2022-10-03 08:56,-117.0904,38.0505,1654.00,54.00,23.00,29.67,10.00,6.00,0.00,30.17,1015.80,10.00,M,CLR,M,M,M,M,M,M,M,M,M,M,M,M,M,M,54.00,KTPH 030856Z AUTO 01006KT 10SM CLR 12/M05 A3017 RMK AO2 SLP158 T01221050 51005,M
HND,2022-10-03 08:56,-115.1344,35.9729,742.79,75.00,48.00,38.43,180.00,10.00,0.00,29.97,1013.70,10.00,M,CLR,M,M,M,M,M,M,M,M,M,M,M,M,M,M,75.00,KHND 030856Z AUTO 18010KT 10SM CLR 24/09 A2997 RMK AO2 SLP137 T02390089 53004,M
RTS,2022-10-03 08:59,-119.8764,39.6682,1539.00,48.20,32.00,53.27,340.00,6.00,0.00,30.19,M,10.00,M,CLR,M,M,M,M,M,M,M,M,M,M,M,M,M,M,45.04,KRTS 030859Z AUTO 34006KT 10SM CLR 09/M00 A3019 RMK AO2,M
CXP,2022-10-03 09:10,-119.7326,39.1923,1431.00,48.20,28.40,46.02,0.00,0.00,0.00,30.19,M,10.00,M,CLR,M,M,M,M,M,M,M,M,M,M,M,M,M,M,48.20,KCXP 030910Z AUTO 00000KT 10SM CLR 09/M02 A3019 RMK AO2,M
TMT,2022-10-03 09:15,-117.1971,39.4643,1749.34,33.60,21.20,60.01,290.00,4.00,0.00,30.24,M,10.00,M,CLR,M,M,M,M,M,M,M,M,M,M,M,M,M,M,29.29,KTMT 030915Z AUTO 29004KT 10SM CLR 01/M06 A3024 RMK AO2 T00091060,M
HTH,2022-10-03 09:15,-118.6315,38.5448,1282.89,57.20,28.40,33.05,240.00,4.00,0.00,30.14,M,10.00,M,CLR,M,M,M,M,M,M,M,M,M,M,M,M,M,M,57.20,KHTH 030915Z AUTO 24004KT 10SM CLR 14/M02 A3014 RMK A01,M
BVU,2022-10-03 09:15,-114.8611,35.9475,671.00,71.60,53.60,53.03,0.00,0.00,0.00,29.94,M,10.00,M,CLR,M,M,M,M,M,M,M,M,M,M,M,M,M,M,71.60,KBVU 030915Z AUTO 00000KT 10SM CLR 22/12 A2994 RMK AO2,M
MEV,2022-10-03 09:15,-119.7500,38.9963,1441.42,41.00,26.60,56.22,0.00,0.00,0.00,30.18,M,10.00,M,FEW,SCT,SCT,M,3000.00,4100.00,5500.00,M,M,M,M,M,M,M,M,41.00,KMEV 030915Z AUTO 00000KT 10SM FEW030 SCT041 SCT055 05/M03 A3018 RMK AO2,M
05U,2022-10-03 09:15,-116.0051,39.6042,1811.23,42.80,23.00,45.14,170.00,4.00,0.00,30.24,M,10.00,M,CLR,M,M,M,M,M,M,M,M,M,M,M,M,M,M,40.03,K05U 030915Z AUTO 17004KT 10SM CLR 06/M05 A3024 RMK A01,M
BAM,2022-10-03 09:15,-116.8743,40.5990,1382.36,41.00,23.00,48.39,270.00,4.00,0.00,30.18,M,10.00,M,CLR,M,M,M,M,M,M,M,M,M,M,M,M,M,M,37.93,KBAM 030915Z AUTO 27004KT 10SM CLR 05/M05 A3018 RMK AO1,M
RTS,2022-10-03 09:19,-119.8764,39.6682,1539.00,46.40,32.00,57.00,340.00,4.00,0.00,30.20,M,10.00,M,CLR,M,M,M,M,M,M,M,M,M,M,M,M,M,M,44.24,KRTS 030919Z AUTO 34004KT 10SM CLR 08/M00 A3020 RMK AO2,M
CXP,2022-10-03 09:30,-119.7326,39.1923,1431.00,48.20,28.40,46.02,0.00,0.00,0.00,30.19,M,10.00,M,CLR,M,M,M,M,M,M,M,M,M,M,M,M,M,M,48.20,KCXP 030930Z AUTO 00000KT 10SM CLR 09/M02 A3019 RMK AO2,M
BAM,2022-10-03 09:35,-116.8743,40.5990,1382.36,41.00,23.00,48.39,50.00,3.00,0.00,30.19,M,10.00,M,CLR,M,M,M,M,M,M,M,M,M,M,M,M,M,M,38.98,KBAM 030935Z AUTO 05003KT 10SM CLR 05/M05 A3019 RMK AO1,M
HTH,2022-10-03 09:35,-118.6315,38.5448,1282.89,55.40,26.60,32.76,0.00,0.00,0.00,30.15,M,10.00,M,CLR,M,M,M,M,M,M,M,M,M,M,M,M,M,M,55.40,KHTH 030935Z AUTO 00000KT 10SM CLR 13/M03 A3015 RMK A01,M
BVU,2022-10-03 09:35,-114.8611,35.9475,671.00,69.80,53.60,56.38,350.00,3.00,0.00,29.94,M,10.00,M,CLR,M,M,M,M,M,M,M,M,M,M,M,M,M,M,69.80,KBVU 030935Z AUTO 35003KT 10SM CLR 21/12 A2994 RMK AO2 LTG DSNT E,M
05U,2022-10-03 09:35,-116.0051,39.6042,1811.23,41.00,23.00,48.39,170.00,4.00,0.00,30.24,M,10.00,M,CLR,M,M,M,M,M,M,M,M,M,M,M,M,M,M,37.93,K05U 030935Z AUTO 17004KT 10SM CLR 05/M05 A3024 RMK A01,M
TMT,2022-10-03 09:35,-117.1971,39.4643,1749.34,32.00,21.20,63.99,270.00,4.00,0.00,30.24,M,10.00,M,CLR,M,M,M,M,M,M,M,M,M,M,M,M,M,M,27.42,KTMT 030935Z AUTO 27004KT 10SM CLR 00/M06 A3024 RMK AO2 T00001060,M
MEV,2022-10-03 09:35,-119.7500,38.9963,1441.42,42.80,26.60,52.45,0.00,0.00,0.00,30.18,M,10.00,M,FEW,SCT,BKN,M,3000.00,3800.00,4800.00,M,M,M,M,M,M,M,M,42.80,KMEV 030935Z AUTO 00000KT 10SM FEW030 SCT038 BKN048 06/M03 A3018 RMK AO2,M
RTS,2022-10-03 09:39,-119.8764,39.6682,1539.00,44.60,32.00,61.03,320.00,4.00,0.00,30.20,M,10.00,M,CLR,M,M,M,M,M,M,M,M,M,M,M,M,M,M,42.13,KRTS 030939Z AUTO 32004KT 10SM CLR 07/M00 A3020 RMK AO2,M
CXP,2022-10-03 09:50,-119.7326,39.1923,1431.00,48.20,32.00,53.27,0.00,0.00,0.00,30.19,M,10.00,M,CLR,M,M,M,M,M,M,M,M,M,M,M,M,M,M,48.20,KCXP 030950Z AUTO 00000KT 10SM CLR 09/M00 A3019 RMK AO2,M
DRA,2022-10-03 09:53,-116.0278,36.6206,1009.00,62.00,37.00,39.21,80.00,4.00,0.00,30.01,1012.00,10.00,M,CLR,M,M,M,M,M,M,M,M,M,M,M,M,M,M,62.10,KDRA 030953Z AUTO 08004KT 10SM CLR 17/03 A3001 RMK AO2 SLP120 T01670028,M
P68,2022-10-03 09:53,-116.0056,39.6014,1993.00,41.00,24.10,50.67,180.00,7.00,0.00,30.22,1017.50,M,M,M,M,M,M,M,M,M,M,M,M,M,M,M,M,M,35.75,KP68 030953Z AUTO 18007KT 05/M04 A3022 RMK AO1 SLP175 T00501044,M
ELY,2022-10-03 09:53,-114.8453,39.2950,1909.00,40.00,26.10,57.47,190.00,11.00,0.00,30.23,1016.80,10.00,M,CLR,M,M,M,M,M,M,M,M,M,M,M,M,M,M,32.45,KELY 030953Z AUTO 19011KT 10SM CLR 04/M03 A3023 RMK AO2 SLP168 T00441033,M
LOL,2022-10-03 09:53,-118.5701,40.0684,1192.43,43.00,M,M,0.00,0.00,0.00,30.13,1018.00,10.00,M,CLR,M,M,M,M,M,M,M,M,M,M,M,M,M,M,M,KLOL 030953Z AUTO 00000KT 10SM CLR 06/ A3013 RMK AO2 SLP180 T0061 $,M
VGT,2022-10-03 09:53,-115.1933,36.2111,667.00,74.00,42.00,31.86,0.00,0.00,0.00,29.93,1012.80,10.00,M,CLR,M,M,M,M,M,M,M,M,M,M,M,M,M,M,73.90,KVGT 030953Z AUTO 00000KT 10SM CLR 23/06 A2993 RMK AO2 SLP128 T02330056,M
TMT,2022-10-03 09:55,-117.1971,39.4643,1749.34,28.60,17.80,63.54,0.00,0.00,0.00,30.24,M,10.00,M,CLR,M,M,M,M,M,M,M,M,M,M,M,M,M,M,28.60,KTMT 030955Z AUTO 00000KT 10SM CLR M02/M08 A3024 RMK AO2 T10191079,M
BAM,2022-10-03 09:55,-116.8743,40.5990,1382.36,39.20,23.00,51.89,0.00,0.00,0.00,30.19,M,10.00,M,CLR,M,M,M,M,M,M,M,M,M,M,M,M,M,M,39.20,KBAM 030955Z AUTO 00000KT 10SM CLR 04/M05 A3019 RMK AO1,M
RNO,2022-10-03 09:55,-119.7711,39.4839,1341.00,55.00,38.00,52.40,0.00,0.00,0.00,30.16,1017.00,10.00,M,CLR,M,M,M,M,M,M,M,M,M,M,M,M,M,M,55.00,KRNO 030955Z 00000KT 10SM CLR 13/03 A3016 RMK AO2 SLP170 T01280033 $,M
MEV,2022-10-03 09:55,-119.7500,38.9963,1441.42,41.00,26.60,56.22,0.00,0.00,0.00,30.18,M,10.00,M,FEW,SCT,BKN,M,3300.00,3800.00,4500.00,M,M,M,M,M,M,M,M,41.00,KMEV 030955Z AUTO 00000KT 10SM FEW033 SCT038 BKN045 05/M03 A3018 RMK AO2,M
05U,2022-10-03 09:55,-116.0051,39.6042,1811.23,41.00,23.00,48.39,190.00,6.00,0.00,30.24,M,10.00,M,CLR,M,M,M,M,M,M,M,M,M,M,M,M,M,M,36.37,K05U 030955Z AUTO 19006KT 10SM CLR 05/M05 A3024 RMK A01,M
BVU,2022-10-03 09:55,-114.8611,35.9475,671.00,71.60,51.80,49.64,0.00,0.00,0.00,29.94,M,10.00,M,CLR,M,M,M,M,M,M,M,M,M,M,M,M,M,M,71.60,KBVU 030955Z AUTO 00000KT 10SM CLR 22/11 A2994 RMK AO2 LTG DSNT NE AND E,M
HTH,2022-10-03 09:55,-118.6315,38.5448,1282.89,57.20,28.40,33.05,250.00,3.00,0.00,30.15,M,10.00,M,CLR,M,M,M,M,M,M,M,M,M,M,M,M,M,M,57.20,KHTH 030955Z AUTO 25003KT 10SM CLR 14/M02 A3015 RMK A01,M
HND,2022-10-03 09:56,-115.1344,35.9729,742.79,74.00,50.00,42.97,200.00,8.00,0.00,29.98,1013.80,10.00,M,CLR,M,M,M,M,M,M,M,M,M,M,M,M,M,M,73.90,KHND 030956Z AUTO 20008KT 10SM CLR 23/10 A2998 RMK AO2 SLP138 T02330100,M
WMC,2022-10-03 09:56,-117.8072,40.9019,1315.00,39.00,25.00,56.86,150.00,5.00,0.00,30.16,1018.80,10.00,M,CLR,M,M,M,M,M,M,M,M,M,M,M,M,M,M,34.71,KWMC 030956Z AUTO 15005KT 10SM CLR 04/M04 A3016 RMK AO2 SLP188 T00391039,M
INS,2022-10-03 09:56,-115.6733,36.5872,955.00,63.00,40.30,43.07,270.00,3.00,0.00,30.01,1011.90,10.00,M,CLR,M,M,M,M,M,M,M,M,M,M,M,M,M,M,63.10,KINS 030956Z AUTO 27003KT 10SM CLR 17/05 A3001 RMK AO2 SLP119 T01730046 $,M
NFL,2022-10-03 09:56,-118.7010,39.4166,1199.00,49.00,35.00,58.75,150.00,3.00,0.00,30.12,1016.70,10.00,M,CLR,M,M,M,M,M,M,M,M,M,M,M,M,M,M,48.01,KNFL 030956Z AUTO 15003KT 10SM CLR 09/02 A3012 RMK AO2 SLP167 T00940017,M
EKO,2022-10-03 09:56,-115.7860,40.8242,1367.00,42.00,26.10,52.78,0.00,0.00,0.00,30.19,1019.50,10.00,M,CLR,M,M,M,M,M,M,M,M,M,M,M,M,M,M,42.10,KEKO 030956Z AUTO 00000KT 10SM CLR 06/M03 A3019 RMK AO2 SLP195 T00561033,M
TPH,2022-10-03 09:56,-117.0904,38.0505,1654.00,51.00,23.00,33.01,330.00,6.00,0.00,30.18,1016.20,10.00,M,CLR,M,M,M,M,M,M,M,M,M,M,M,M,M,M,51.10,KTPH 030956Z AUTO 33006KT 10SM CLR 11/M05 A3018 RMK AO2 SLP162 T01061050,M
LSV,2022-10-03 09:56,-115.0343,36.2362,570.00,69.00,49.00,48.87,60.00,3.00,0.00,29.90,1010.20,10.00,M,CLR,M,M,M,M,M,M,M,M,M,M,M,M,M,M,68.90,KLSV 030956Z AUTO 06003KT 10SM CLR 21/09 A2990 RMK AO2 SLP102 T02050094 $,M
LAS,2022-10-03 09:56,-115.1634,36.0719,663.00,77.00,42.00,28.73,0.00,0.00,0.00,29.94,1011.30,10.00,M,CLR,M,M,M,M,M,M,M,M,M,M,M,M,M,M,77.00,KLAS 030956Z 00000KT 10SM CLR 25/06 A2994 RMK AO2 SLP113 T02500056 $,M
RTS,2022-10-03 09:59,-119.8764,39.6682,1539.00,42.80,30.20,60.79,340.00,4.00,0.00,30.19,M,10.00,M,CLR,M,M,M,M,M,M,M,M,M,M,M,M,M,M,40.03,KRTS 030959Z AUTO 34004KT 10SM CLR 06/M01 A3019 RMK AO2,M
CXP,2022-10-03 10:10,-119.7326,39.1923,1431.00,46.40,30.20,53.00,0.00,0.00,0.00,30.19,M,10.00,M,CLR,M,M,M,M,M,M,M,M,M,M,M,M,M,M,46.40,KCXP 031010Z AUTO 00000KT 10SM CLR 08/M01 A3019 RMK AO2,M
TMT,2022-10-03 10:15,-117.1971,39.4643,1749.34,30.20,18.70,61.87,0.00,0.00,0.00,30.24,M,10.00,M,CLR,M,M,M,M,M,M,M,M,M,M,M,M,M,M,30.20,KTMT 031015Z AUTO 00000KT 10SM CLR M01/M07 A3024 RMK AO2 T10101074,M
BAM,2022-10-03 10:15,-116.8743,40.5990,1382.36,37.40,21.20,51.61,180.00,6.00,0.00,30.19,M,10.00,M,CLR,M,M,M,M,M,M,M,M,M,M,M,M,M,M,32.03,KBAM 031015Z AUTO 18006KT 10SM CLR 03/M06 A3019 RMK AO1,M
MEV,2022-10-03 10:15,-119.7500,38.9963,1441.42,39.20,26.60,60.29,50.00,3.00,0.00,30.18,M,10.00,M,SCT,BKN,BKN,M,3700.00,4500.00,5000.00,M,M,M,M,M,M,M,M,36.92,KMEV 031015Z AUTO 05003KT 10SM SCT037 BKN045 BKN050 04/M03 A3018 RMK AO2,M
05U,2022-10-03 10:15,-116.0051,39.6042,1811.23,41.00,23.00,48.39,190.00,6.00,0.00,30.24,M,10.00,M,CLR,M,M,M,M,M,M,M,M,M,M,M,M,M,M,36.37,K05U 031015Z AUTO 19006KT 10SM CLR 05/M05 A3024 RMK A01,M
BVU,2022-10-03 10:15,-114.8611,35.9475,671.00,71.60,53.60,53.03,30.00,4.00,0.00,29.94,M,10.00,M,CLR,M,M,M,M,M,M,M,M,M,M,M,M,M,M,71.60,KBVU 031015Z AUTO 03004KT 10SM CLR 22/12 A2994 RMK AO2,M
HTH,2022-10-03 10:15,-118.6315,38.5448,1282.89,55.40,28.40,35.28,230.00,4.00,0.00,30.15,M,10.00,M,CLR,M,M,M,M,M,M,M,M,M,M,M,M,M,M,55.40,KHTH 031015Z AUTO 23004KT 10SM CLR 13/M02 A3015 RMK A01,M
RTS,2022-10-03 10:19,-119.8764,39.6682,1539.00,44.60,32.00,61.03,310.00,3.00,0.00,30.20,M,10.00,M,CLR,M,M,M,M,M,M,M,M,M,M,M,M,M,M,43.09,KRTS 031019Z AUTO 31003KT 10SM CLR 07/M00 A3020 RMK AO2,M
CXP,2022-10-03 10:30,-119.7326,39.1923,1431.00,44.60,32.00,61.03,0.00,0.00,0.00,30.19,M,10.00,M,CLR,M,M,M,M,M,M,M,M,M,M,M,M,M,M,44.60,KCXP 031030Z AUTO 00000KT 10SM CLR 07/M00 A3019 RMK AO2,M
BAM,2022-10-03 10:35,-116.8743,40.5990,1382.36,37.40,21.20,51.61,200.00,6.00,0.00,30.19,M,10.00,M,CLR,M,M,M,M,M,M,M,M,M,M,M,M,M,M,32.03,KBAM 031035Z AUTO 20006KT 10SM CLR 03/M06 A3019 RMK AO1,M
HTH,2022-10-03 10:35,-118.6315,38.5448,1282.89,55.40,30.20,37.97,230.00,4.00,0.00,30.15,M,10.00,M,CLR,M,M,M,M,M,M,M,M,M,M,M,M,M,M,55.40,KHTH 031035Z AUTO 23004KT 10SM CLR 13/M01 A3015 RMK A01,M
TMT,2022-10-03 10:35,-117.1971,39.4643,1749.34,29.10,17.80,62.25,110.00,4.00,0.00,30.24,M,10.00,M,CLR,M,M,M,M,M,M,M,M,M,M,M,M,M,M,24.03,KTMT 031035Z AUTO 11004KT 10SM CLR M02/M08 A3024 RMK AO2 T10161079,M
05U,2022-10-03 10:35,-116.0051,39.6042,1811.23,41.00,24.80,52.17,200.00,6.00,0.00,30.24,M,10.00,M,CLR,M,M,M,M,M,M,M,M,M,M,M,M,M,M,36.37,K05U 031035Z AUTO 20006KT 10SM CLR 05/M04 A3024 RMK A01,M
MEV,2022-10-03 10:35,-119.7500,38.9963,1441.42,39.20,24.80,55.95,0.00,0.00,0.00,30.18,M,10.00,M,SCT,SCT,BKN,M,3700.00,4300.00,5000.00,M,M,M,M,M,M,M,M,39.20,KMEV 031035Z AUTO 00000KT 10SM SCT037 SCT043 BKN050 04/M04 A3018 RMK AO2,M
BVU,2022-10-03 10:35,-114.8611,35.9475,671.00,71.60,53.60,53.03,0.00,0.00,0.00,29.94,M,10.00,M,CLR,M,M,M,M,M,M,M,M,M,M,M,M,M,M,71.60,KBVU 031035Z AUTO 00000KT 10SM CLR 22/12 A2994 RMK AO2,M
RTS,2022-10-03 10:39,-119.8764,39.6682,1539.00,41.00,30.20,65.16,310.00,3.00,0.00,30.20,M,10.00,M,CLR,M,M,M,M,M,M,M,M,M,M,M,M,M,M,38.98,KRTS 031039Z AUTO 31003KT 10SM CLR 05/M01 A3020 RMK AO2,M
CXP,2022-10-03 10:50,-119.7326,39.1923,1431.00,44.60,32.00,61.03,0.00,0.00,0.00,30.20,M,10.00,M,CLR,M,M,M,M,M,M,M,M,M,M,M,M,M,M,44.60,KCXP 031050Z AUTO 00000KT 10SM CLR 07/M00 A3020 RMK AO2,M
DRA,2022-10-03 10:53,-116.0278,36.6206,1009.00,62.00,37.00,39.21,90.00,4.00,0.00,30.02,1012.10,10.00,M,CLR,M,M,M,M,M,M,M,M,M,M,M,M,M,M,62.10,KDRA 031053Z AUTO 09004KT 10SM CLR 17/03 A3002 RMK AO2 SLP121 T01670028,M
VGT,2022-10-03 10:53,-115.1933,36.2111,667.00,73.00,45.00,36.70,290.00,4.00,0.00,29.94,1013.00,10.00,M,CLR,M,M,M,M,M,M,M,M,M,M,M,M,M,M,73.00,KVGT 031053Z AUTO 29004KT 10SM CLR 23/07 A2994 RMK AO2 SLP130 T02280072,M
LOL,2022-10-03 10:53,-118.5701,40.0684,1192.43,45.00,M,M,0.00,0.00,0.00,30.13,1018.00,10.00,M,CLR,M,M,M,M,M,M,M,M,M,M,M,M,M,M,M,KLOL 031053Z AUTO 00000KT 10SM CLR 07/ A3013 RMK AO2 SLP180 T0072 $,M
P68,2022-10-03 10:53,-116.0056,39.6014,1993.00,42.00,24.10,48.56,200.00,7.00,0.00,30.22,1017.40,M,M,M,M,M,M,M,M,M,M,M,M,M,M,M,M,M,37.09,KP68 031053Z AUTO 20007KT 06/M04 A3022 RMK AO1 SLP174 T00561044,M
ELY,2022-10-03 10:53,-114.8453,39.2950,1909.00,37.00,26.10,64.38,230.00,6.00,0.00,30.23,1016.80,10.00,M,CLR,M,M,M,M,M,M,M,M,M,M,M,M,M,M,31.55,KELY 031053Z AUTO 23006KT 10SM CLR 03/M03 A3023 RMK AO2 SLP168 T00281033,M
MEV,2022-10-03 10:55,-119.7500,38.9963,1441.42,37.40,24.80,60.04,0.00,0.00,0.00,30.18,M,10.00,M,FEW,FEW,SCT,M,3700.00,4400.00,5000.00,M,M,M,M,M,M,M,M,37.40,KMEV 031055Z AUTO 00000KT 10SM FEW037 FEW044 SCT050 03/M04 A3018 RMK AO2,M
BVU,2022-10-03 10:55,-114.8611,35.9475,671.00,71.60,53.60,53.03,0.00,0.00,0.00,29.95,M,10.00,M,CLR,M,M,M,M,M,M,M,M,M,M,M,M,M,M,71.60,KBVU 031055Z AUTO 00000KT 10SM CLR 22/12 A2995 RMK AO2,M
RNO,2022-10-03 10:55,-119.7711,39.4839,1341.00,50.00,37.00,60.79,180.00,4.00,0.00,30.17,1017.40,10.00,M,CLR,M,M,M,M,M,M,M,M,M,M,M,M,M,M,50.00,KRNO 031055Z 18004KT 10SM CLR 10/03 A3017 RMK AO2 SLP174 T01000028 $,M
05U,2022-10-03 10:55,-116.0051,39.6042,1811.23,41.00,23.00,48.39,200.00,6.00,0.00,30.25,M,10.00,M,CLR,M,M,M,M,M,M,M,M,M,M,M,M,M,M,36.37,K05U 031055Z AUTO 20006KT 10SM CLR 05/M05 A3025 RMK A01,M
BAM,2022-10-03 10:55,-116.8743,40.5990,1382.36,37.40,21.20,51.61,0.00,0.00,0.00,30.19,M,10.00,M,CLR,M,M,M,M,M,M,M,M,M,M,M,M,M,M,37.40,KBAM 031055Z AUTO 00000KT 10SM CLR 03/M06 A3019 RMK AO1,M
HTH,2022-10-03 10:55,-118.6315,38.5448,1282.89,55.40,30.20,37.97,240.00,4.00,0.00,30.15,M,10.00,M,CLR,M,M,M,M,M,M,M,M,M,M,M,M,M,M,55.40,KHTH 031055Z AUTO 24004KT 10SM CLR 13/M01 A3015 RMK A01,M
TMT,2022-10-03 10:55,-117.1971,39.4643,1749.34,31.50,19.80,61.52,0.00,0.00,0.00,30.25,M,10.00,M,CLR,M,M,M,M,M,M,M,M,M,M,M,M,M,M,31.50,KTMT 031055Z AUTO 00000KT 10SM CLR 00/M07 A3025 RMK AO2 T10031068,M
TPH,2022-10-03 10:56,-117.0904,38.0505,1654.00,51.00,24.10,34.57,360.00,7.00,0.00,30.18,1016.10,10.00,M,CLR,M,M,M,M,M,M,M,M,M,M,M,M,M,M,51.10,KTPH 031056Z AUTO 36007KT 10SM CLR 11/M04 A3018 RMK AO2 SLP161 T01061044,M
INS,2022-10-03 10:56,-115.6733,36.5872,955.00,63.50,39.40,41.01,0.00,0.00,0.00,30.01,1011.90,10.00,M,CLR,M,M,M,M,M,M,M,M,M,M,M,M,M,M,63.50,KINS 031056Z AUTO 00000KT 10SM CLR 18/04 A3001 RMK AO2 SLP119 T01750041 $,M
WMC,2022-10-03 10:56,-117.8072,40.9019,1315.00,38.00,25.00,59.36,150.00,4.00,0.00,30.17,1018.90,10.00,M,CLR,M,M,M,M,M,M,M,M,M,M,M,M,M,M,34.31,KWMC 031056Z AUTO 15004KT 10SM CLR 03/M04 A3017 RMK AO2 SLP189 T00331039,M
NFL,2022-10-03 10:56,-118.7010,39.4166,1199.00,49.00,32.00,51.89,200.00,4.00,0.00,30.13,1016.80,10.00,M,CLR,M,M,M,M,M,M,M,M,M,M,M,M,M,M,47.16,KNFL 031056Z AUTO 20004KT 10SM CLR 09/00 A3013 RMK AO2 SLP168 T00940000,M
LAS,2022-10-03 10:56,-115.1634,36.0719,663.00,74.00,43.00,32.98,0.00,0.00,0.00,29.95,1011.80,10.00,M,CLR,M,M,M,M,M,M,M,M,M,M,M,M,M,M,73.90,KLAS 031056Z 00000KT 10SM CLR 23/06 A2995 RMK AO2 SLP118 T02330061 $,M
LSV,2022-10-03 10:56,-115.0343,36.2362,570.00,69.00,51.60,54.02,70.00,4.00,0.00,29.91,1010.70,10.00,M,CLR,M,M,M,M,M,M,M,M,M,M,M,M,M,M,68.90,KLSV 031056Z AUTO 07004KT 10SM CLR 21/11 A2991 RMK AO2 SLP107 T02050109 $,M
HND,2022-10-03 10:56,-115.1344,35.9729,742.79,74.00,49.00,41.24,230.00,7.00,0.00,29.98,1014.20,10.00,M,CLR,M,M,M,M,M,M,M,M,M,M,M,M,M,M,73.90,KHND 031056Z AUTO 23007KT 10SM CLR 23/09 A2998 RMK AO2 SLP142 T02330094,M
EKO,2022-10-03 10:56,-115.7860,40.8242,1367.00,41.00,26.10,55.07,70.00,4.00,0.00,30.21,1019.80,10.00,M,CLR,M,M,M,M,M,M,M,M,M,M,M,M,M,M,37.93,KEKO 031056Z AUTO 07004KT 10SM CLR 05/M03 A3021 RMK AO2 SLP198 T00501033,M
RTS,2022-10-03 10:59,-119.8764,39.6682,1539.00,41.00,30.20,65.16,0.00,0.00,0.00,30.20,M,10.00,M,CLR,M,M,M,M,M,M,M,M,M,M,M,M,M,M,41.00,KRTS 031059Z AUTO 00000KT 10SM CLR 05/M01 A3020 RMK AO2,M
TMT,2022-10-03 11:10,-117.1971,39.4643,1749.34,29.70,19.20,64.51,270.00,5.00,0.00,30.25,M,10.00,M,CLR,M,M,M,M,M,M,M,M,M,M,M,M,M,M,23.66,KTMT 031110Z AUTO 27005KT 10SM CLR M01/M07 A3025 RMK AO2 T10131071,M
CXP,2022-10-03 11:10,-119.7326,39.1923,1431.00,44.60,32.00,61.03,0.00,0.00,0.00,30.20,M,10.00,M,CLR,M,M,M,M,M,M,M,M,M,M,M,M,M,M,44.60,KCXP 031110Z AUTO 00000KT 10SM CLR 07/M00 A3020 RMK AO2,M
MEV,2022-10-03 11:15,-119.7500,38.9963,1441.42,35.60,24.80,64.46,0.00,0.00,0.00,30.19,M,10.00,M,FEW,FEW,SCT,M,3500.00,4100.00,5500.00,M,M,M,M,M,M,M,M,35.60,KMEV 031115Z AUTO 00000KT 10SM FEW035 FEW041 SCT055 02/M04 A3019 RMK AO2,M
HTH,2022-10-03 11:15,-118.6315,38.5448,1282.89,55.40,30.20,37.97,240.00,4.00,0.00,30.16,M,10.00,M,CLR,M,M,M,M,M,M,M,M,M,M,M,M,M,M,55.40,KHTH 031115Z AUTO 24004KT 10SM CLR 13/M01 A3016 RMK A01,M
05U,2022-10-03 11:15,-116.0051,39.6042,1811.23,41.00,24.80,52.17,180.00,7.00,0.00,30.25,M,10.00,M,CLR,M,M,M,M,M,M,M,M,M,M,M,M,M,M,35.75,K05U 031115Z AUTO 18007KT 10SM CLR 05/M04 A3025 RMK A01,M
BAM,2022-10-03 11:15,-116.8743,40.5990,1382.36,37.40,23.00,55.68,180.00,3.00,0.00,30.20,M,10.00,M,CLR,M,M,M,M,M,M,M,M,M,M,M,M,M,M,34.86,KBAM 031115Z AUTO 18003KT 10SM CLR 03/M05 A3020 RMK AO1,M
BVU,2022-10-03 11:15,-114.8611,35.9475,671.00,69.80,53.60,56.38,0.00,0.00,0.00,29.95,M,10.00,M,CLR,M,M,M,M,M,M,M,M,M,M,M,M,M,M,69.80,KBVU 031115Z AUTO 00000KT 10SM CLR 21/12 A2995 RMK AO2 LTG DSNT NE,M
RTS,2022-10-03 11:19,-119.8764,39.6682,1539.00,44.60,32.00,61.03,350.00,4.00,0.00,30.21,M,10.00,M,CLR,M,M,M,M,M,M,M,M,M,M,M,M,M,M,42.13,KRTS 031119Z AUTO 35004KT 10SM CLR 07/M00 A3021 RMK AO2,M
CXP,2022-10-03 11:30,-119.7326,39.1923,1431.00,42.80,30.20,60.79,0.00,0.00,0.00,30.20,M,10.00,M,CLR,M,M,M,M,M,M,M,M,M,M,M,M,M,M,42.80,KCXP 031130Z AUTO 00000KT 10SM CLR 06/M01 A3020 RMK AO2,M
05U,2022-10-03 11:35,-116.0051,39.6042,1811.23,41.00,24.80,52.17,0.00,0.00,0.00,30.25,M,10.00,M,CLR,M,M,M,M,M,M,M,M,M,M,M,M,M,M,41.00,K05U 031135Z AUTO 00000KT 10SM CLR 05/M04 A3025 RMK A01,M
TMT,2022-10-03 11:35,-117.1971,39.4643,1749.34,30.70,20.30,64.92,230.00,3.00,0.00,30.25,M,10.00,M,CLR,M,M,M,M,M,M,M,M,M,M,M,M,M,M,27.20,KTMT 031135Z AUTO 23003KT 10SM CLR M01/M06 A3025 RMK AO2 T10071065,M
HTH,2022-10-03 11:35,-118.6315,38.5448,1282.89,53.60,30.20,40.54,220.00,5.00,0.00,30.16,M,10.00,M,CLR,M,M,M,M,M,M,M,M,M,M,M,M,M,M,53.60,KHTH 031135Z AUTO 22005KT 10SM CLR 12/M01 A3016 RMK A01,M
BVU,2022-10-03 11:35,-114.8611,35.9475,671.00,69.80,51.80,52.77,0.00,0.00,0.00,29.95,M,10.00,M,CLR,M,M,M,M,M,M,M,M,M,M,M,M,M,M,69.80,KBVU 031135Z AUTO 00000KT 10SM CLR 21/11 A2995 RMK AO2 LTG DSNT NE AND SE,M
MEV,2022-10-03 11:35,-119.7500,38.9963,1441.42,35.60,24.80,64.46,90.00,4.00,0.00,30.19,M,8.00,M,FEW,FEW,SCT,M,3700.00,4700.00,5500.00,M,M,M,M,M,M,M,M,31.62,KMEV 031135Z AUTO 09004KT 8SM FEW037 FEW047 SCT055 02/M04 A3019 RMK AO2,M
BAM,2022-10-03 11:35,-116.8743,40.5990,1382.36,41.00,23.00,48.39,210.00,3.00,0.00,30.21,M,10.00,M,CLR,M,M,M,M,M,M,M,M,M,M,M,M,M,M,38.98,KBAM 031135Z AUTO 21003KT 10SM CLR 05/M05 A3021 RMK AO1,M
RTS,2022-10-03 11:39,-119.8764,39.6682,1539.00,42.80,32.00,65.38,350.00,3.00,0.00,30.21,M,10.00,M,CLR,M,M,M,M,M,M,M,M,M,M,M,M,M,M,41.03,KRTS 031139Z AUTO 35003KT 10SM CLR 06/M00 A3021 RMK AO2,M
CXP,2022-10-03 11:50,-119.7326,39.1923,1431.00,42.80,32.00,65.38,0.00,0.00,0.00,30.20,M,10.00,M,CLR,M,M,M,M,M,M,M,M,M,M,M,M,M,M,42.80,KCXP 031150Z AUTO 00000KT 10SM CLR 06/M00 A3020 RMK AO2,M
DRA,2022-10-03 11:53,-116.0278,36.6206,1009.00,59.00,36.00,42.08,150.00,3.00,0.00,30.03,1012.60,10.00,M,CLR,M,M,M,M,M,M,M,M,M,M,M,M,M,M,59.00,KDRA 031153Z AUTO 15003KT 10SM CLR 15/02 A3003 RMK AO2 SLP126 T01500022 10211 20150 53005,M
P68,2022-10-03 11:53,-116.0056,39.6014,1993.00,38.00,25.00,59.36,180.00,4.00,0.00,30.24,1018.50,M,M,M,M,M,M,M,M,M,M,M,M,M,M,M,M,M,34.31,KP68 031153Z AUTO 18004KT 03/M04 A3024 RMK AO1 SLP185 T00331039 10089 20033 53006,M
ELY,2022-10-03 11:53,-114.8453,39.2950,1909.00,36.00,26.10,66.97,170.00,9.00,0.00,30.24,1017.80,10.00,M,CLR,M,M,M,M,M,M,M,M,M,M,M,M,M,M,28.49,KELY 031153Z AUTO 17009KT 10SM CLR 02/M03 A3024 RMK AO2 SLP178 T00221033 10106 20017 53003,M
VGT,2022-10-03 11:53,-115.1933,36.2111,667.00,74.00,43.00,32.98,330.00,4.00,0.00,29.95,1013.30,10.00,M,CLR,M,M,M,M,M,M,M,M,M,M,M,M,M,M,73.90,KVGT 031153Z AUTO 33004KT 10SM CLR 23/06 A2995 RMK AO2 SLP133 T02330061 10278 20217 53005,M
LOL,2022-10-03 11:53,-118.5701,40.0684,1192.43,41.00,M,M,120.00,3.00,0.00,30.15,1018.80,10.00,M,CLR,M,M,M,M,M,M,M,M,M,M,M,M,M,M,M,KLOL 031153Z AUTO 12003KT 10SM CLR 05/ A3015 RMK AO2 SLP188 T0050 10111 20044 53007 $,M
HTH,2022-10-03 11:55,-118.6315,38.5448,1282.89,53.60,30.20,40.54,220.00,5.00,0.00,30.17,M,10.00,M,CLR,M,M,M,M,M,M,M,M,M,M,M,M,M,M,53.60,KHTH 031155Z AUTO 22005KT 10SM CLR 12/M01 A3017 RMK A01,M
RNO,2022-10-03 11:55,-119.7711,39.4839,1341.00,51.00,36.00,56.10,0.00,0.00,0.00,30.18,1017.60,10.00,M,CLR,M,M,M,M,M,M,M,M,M,M,M,M,M,M,51.10,KRNO 031155Z 00000KT 10SM CLR 11/02 A3018 RMK AO2 SLP176 T01060022 10172 20094 53006 $,M
MEV,2022-10-03 11:55,-119.7500,38.9963,1441.42,37.40,26.60,64.70,100.00,3.00,0.00,30.19,M,10.00,M,FEW,SCT,SCT,M,3700.00,4400.00,5500.00,M,M,M,M,M,M,M,M,34.86,KMEV 031155Z AUTO 10003KT 10SM FEW037 SCT044 SCT055 03/M03 A3019 RMK AO2,M
TMT,2022-10-03 11:55,-117.1971,39.4643,1749.34,28.60,18.70,66.05,0.00,0.00,0.00,30.26,M,10.00,M,CLR,M,M,M,M,M,M,M,M,M,M,M,M,M,M,28.60,KTMT 031155Z AUTO 00000KT 10SM CLR M02/M07 A3026 RMK AO2 LTG DSNT SE T10191074 10045 21021,M
BAM,2022-10-03 11:55,-116.8743,40.5990,1382.36,35.60,21.20,55.41,70.00,3.00,0.00,30.21,M,10.00,M,CLR,M,M,M,M,M,M,M,M,M,M,M,M,M,M,32.80,KBAM 031155Z AUTO 07003KT 10SM CLR 02/M06 A3021 RMK AO1,M
BVU,2022-10-03 11:55,-114.8611,35.9475,671.00,69.80,53.60,56.38,0.00,0.00,0.00,29.96,M,10.00,M,CLR,M,M,M,M,M,M,M,M,M,M,M,M,M,M,69.80,KBVU 031155Z AUTO 00000KT 10SM CLR 21/12 A2996 RMK AO2,M
05U,2022-10-03 11:55,-116.0051,39.6042,1811.23,37.40,24.80,60.04,170.00,4.00,0.00,30.26,M,10.00,M,CLR,M,M,M,M,M,M,M,M,M,M,M,M,M,M,33.73,K05U 031155Z AUTO 17004KT 10SM CLR 03/M04 A3026 RMK A01,M
LAS,2022-10-03 11:56,-115.1634,36.0719,663.00,74.00,44.00,34.40,190.00,3.00,0.00,29.96,1012.00,10.00,M,CLR,M,M,M,M,M,M,M,M,M,M,M,M,M,M,73.90,KLAS 031156Z 19003KT 10SM CLR 23/07 A2996 RMK AO2 SLP120 T02330067 10272 20228 53006 $,M
EKO,2022-10-03 11:56,-115.7860,40.8242,1367.00,39.00,27.00,61.78,0.00,0.00,0.00,30.22,1020.60,10.00,M,CLR,M,M,M,M,M,M,M,M,M,M,M,M,M,M,39.00,KEKO 031156Z AUTO 00000KT 10SM CLR 04/M03 A3022 RMK AO2 SLP206 T00391028 10106 20033 53008,M
TPH,2022-10-03 11:56,-117.0904,38.0505,1654.00,51.00,24.10,34.57,30.00,10.00,0.00,30.19,1016.50,10.00,M,CLR,M,M,M,M,M,M,M,M,M,M,M,M,M,M,51.10,KTPH 031156Z AUTO 03010KT 10SM CLR 11/M04 A3019 RMK AO2 SLP165 T01061044 10150 20100 53004,M
WMC,2022-10-03 11:56,-117.8072,40.9019,1315.00,37.00,25.00,61.50,M,3.00,0.00,30.18,1019.60,10.00,M,CLR,M,M,M,M,M,M,M,M,M,M,M,M,M,M,34.40,KWMC 031156Z AUTO VRB03KT 10SM CLR 03/M04 A3018 RMK AO2 SLP196 T00281039 10094 20017 53007,M
HND,2022-10-03 11:56,-115.1344,35.9729,742.79,71.00,49.00,45.33,170.00,6.00,0.00,29.99,1014.50,10.00,M,CLR,M,M,M,M,M,M,M,M,M,M,M,M,M,M,71.10,KHND 031156Z AUTO 17006KT 10SM CLR 22/09 A2999 RMK AO2 SLP145 T02170094 10244 20217 53005,M
LSV,2022-10-03 11:56,-115.0343,36.2362,570.00,68.40,52.00,55.78,70.00,3.00,0.00,29.92,1011.00,10.00,M,CLR,M,M,M,M,M,M,M,M,M,M,M,M,M,M,68.40,KLSV 031156Z AUTO 07003KT 10SM CLR 20/11 A2992 RMK AO2 SLP110 T02020111 10255 20202 52005 $,M
NFL,2022-10-03 11:56,-118.7010,39.4166,1199.00,50.00,28.90,43.92,200.00,6.00,0.00,30.14,1017.20,10.00,M,CLR,M,M,M,M,M,M,M,M,M,M,M,M,M,M,50.00,KNFL 031156Z AUTO 20006KT 10SM CLR 10/M02 A3014 RMK AO2 SLP172 T01001017 10117 20078 53007,M
INS,2022-10-03 11:56,-115.6733,36.5872,955.00,60.30,43.00,52.78,0.00,0.00,0.00,30.02,1012.50,10.00,M,CLR,M,M,M,M,M,M,M,M,M,M,M,M,M,M,60.30,KINS 031156Z AUTO 00000KT 10SM CLR 16/06 A3002 RMK AO2 SLP125 T01570061 10220 20157 53005 $,M
RTS,2022-10-03 11:59,-119.8764,39.6682,1539.00,44.60,32.00,61.03,0.00,0.00,0.00,30.22,M,10.00,M,CLR,M,M,M,M,M,M,M,M,M,M,M,M,M,M,44.60,KRTS 031159Z AUTO 00000KT 10SM CLR 07/M00 A3022 RMK AO2,M
CXP,2022-10-03 12:10,-119.7326,39.1923,1431.00,42.80,32.00,65.38,0.00,0.00,0.00,30.21,M,10.00,M,CLR,M,M,M,M,M,M,M,M,M,M,M,M,M,M,42.80,KCXP 031210Z AUTO 00000KT 10SM CLR 06/M00 A3021 RMK AO2,M
BVU,2022-10-03 12:15,-114.8611,35.9475,671.00,68.00,53.60,59.97,20.00,3.00,0.00,29.96,M,10.00,M,CLR,M,M,M,M,M,M,M,M,M,M,M,M,M,M,68.00,KBVU 031215Z AUTO 02003KT 10SM CLR 20/12 A2996 RMK AO2 LTG DSNT NE AND E,M
TMT,2022-10-03 12:15,-117.1971,39.4643,1749.34,29.80,19.80,65.92,0.00,0.00,0.00,30.26,M,10.00,M,CLR,M,M,M,M,M,M,M,M,M,M,M,M,M,M,29.80,KTMT 031215Z AUTO 00000KT 10SM CLR M01/M07 A3026 RMK AO2 T10121068,M
HTH,2022-10-03 12:15,-118.6315,38.5448,1282.89,51.80,30.20,43.32,230.00,5.00,0.00,30.17,M,10.00,M,CLR,M,M,M,M,M,M,M,M,M,M,M,M,M,M,51.80,KHTH 031215Z AUTO 23005KT 10SM CLR 11/M01 A3017 RMK A01,M
05U,2022-10-03 12:15,-116.0051,39.6042,1811.23,37.40,24.80,60.04,0.00,0.00,0.00,30.26,M,10.00,M,CLR,M,M,M,M,M,M,M,M,M,M,M,M,M,M,37.40,K05U 031215Z AUTO 00000KT 10SM CLR 03/M04 A3026 RMK A01,M
MEV,2022-10-03 12:15,-119.7500,38.9963,1441.42,37.40,26.60,64.70,160.00,4.00,0.00,30.20,M,7.00,M,FEW,SCT,BKN,M,3700.00,4400.00,5500.00,M,UP,M,M,M,M,M,M,33.73,KMEV 031215Z AUTO 16004KT 7SM UP FEW037 SCT044 BKN055 03/M03 A3020 RMK AO2,M
BAM,2022-10-03 12:15,-116.8743,40.5990,1382.36,33.80,19.40,55.14,0.00,0.00,0.00,30.22,M,10.00,M,CLR,M,M,M,M,M,M,M,M,M,M,M,M,M,M,33.80,KBAM 031215Z AUTO 00000KT 10SM CLR 01/M07 A3022 RMK AO1,M
RTS,2022-10-03 12:19,-119.8764,39.6682,1539.00,41.00,30.20,65.16,330.00,4.00,0.00,30.22,M,10.00,M,CLR,M,M,M,M,M,M,M,M,M,M,M,M,M,M,37.93,KRTS 031219Z AUTO 33004KT 10SM CLR 05/M01 A3022 RMK AO2,M
CXP,2022-10-03 12:30,-119.7326,39.1923,1431.00,42.80,30.20,60.79,0.00,0.00,0.00,30.21,M,10.00,M,CLR,M,M,M,M,M,M,M,M,M,M,M,M,M,M,42.80,KCXP 031230Z AUTO 00000KT 10SM CLR 06/M01 A3021 RMK AO2,M
BAM,2022-10-03 12:35,-116.8743,40.5990,1382.36,35.60,21.20,55.41,0.00,0.00,0.00,30.21,M,10.00,M,CLR,M,M,M,M,M,M,M,M,M,M,M,M,M,M,35.60,KBAM 031235Z AUTO 00000KT 10SM CLR 02/M06 A3021 RMK AO1,M
HTH,2022-10-03 12:35,-118.6315,38.5448,1282.89,51.80,32.00,46.59,220.00,6.00,0.00,30.18,M,10.00,M,CLR,M,M,M,M,M,M,M,M,M,M,M,M,M,M,51.80,KHTH 031235Z AUTO 22006KT 10SM CLR 11/M00 A3018 RMK A01,M
MEV,2022-10-03 12:35,-119.7500,38.9963,1441.42,37.40,26.60,64.70,0.00,0.00,0.00,30.20,M,10.00,M,FEW,SCT,BKN,M,3400.00,4100.00,4900.00,M,M,M,M,M,M,M,M,37.40,KMEV 031235Z AUTO 00000KT 10SM FEW034 SCT041 BKN049 03/M03 A3020 RMK AO2,M
05U,2022-10-03 12:35,-116.0051,39.6042,1811.23,35.60,23.00,59.79,0.00,0.00,0.00,30.26,M,10.00,M,CLR,M,M,M,M,M,M,M,M,M,M,M,M,M,M,35.60,K05U 031235Z AUTO 00000KT 10SM CLR 02/M05 A3026 RMK A01,M
TMT,2022-10-03 12:35,-117.1971,39.4643,1749.34,28.90,19.60,67.80,0.00,0.00,0.00,30.27,M,10.00,M,CLR,M,M,M,M,M,M,M,M,M,M,M,M,M,M,28.90,KTMT 031235Z AUTO 00000KT 10SM CLR M02/M07 A3027 RMK AO2 T10171069,M
BVU,2022-10-03 12:35,-114.8611,35.9475,671.00,69.80,53.60,56.38,0.00,0.00,0.00,29.96,M,10.00,M,CLR,M,M,M,M,M,M,M,M,M,M,M,M,M,M,69.80,KBVU 031235Z AUTO 00000KT 10SM CLR 21/12 A2996 RMK AO2 LTG DSNT NE AND E,M
RTS,2022-10-03 12:39,-119.8764,39.6682,1539.00,39.20,28.40,64.93,340.00,4.00,0.00,30.22,M,10.00,M,CLR,M,M,M,M,M,M,M,M,M,M,M,M,M,M,35.83,KRTS 031239Z AUTO 34004KT 10SM CLR 04/M02 A3022 RMK AO2,M
CXP,2022-10-03 12:50,-119.7326,39.1923,1431.00,42.80,32.00,65.38,0.00,0.00,0.00,30.22,M,10.00,M,CLR,M,M,M,M,M,M,M,M,M,M,M,M,M,M,42.80,KCXP 031250Z AUTO 00000KT 10SM CLR 06/M00 A3022 RMK AO2 LTG DSNT SE,M
LOL,2022-10-03 12:53,-118.5701,40.0684,1192.43,40.00,M,M,0.00,0.00,0.00,30.16,1019.40,10.00,M,CLR,M,M,M,M,M,M,M,M,M,M,M,M,M,M,M,KLOL 031253Z AUTO 00000KT 10SM CLR 04/ A3016 RMK AO2 SLP194 T0044 $,M
VGT,2022-10-03 12:53,-115.1933,36.2111,667.00,71.00,45.00,39.13,270.00,6.00,0.00,29.96,1014.00,10.00,M,CLR,M,M,M,M,M,M,M,M,M,M,M,M,M,M,71.10,KVGT 031253Z AUTO 27006KT 10SM CLR 22/07 A2996 RMK AO2 SLP140 T02170072,M
ELY,2022-10-03 12:53,-114.8453,39.2950,1909.00,34.00,26.10,72.52,180.00,9.00,0.00,30.25,1019.00,10.00,M,CLR,M,M,M,M,M,M,M,M,M,M,M,M,M,M,26.00,KELY 031253Z AUTO 18009KT 10SM CLR 01/M03 A3025 RMK AO2 SLP190 T00111033,M
DRA,2022-10-03 12:53,-116.0278,36.6206,1009.00,60.00,37.00,42.09,110.00,4.00,0.00,30.04,1013.20,10.00,M,CLR,M,M,M,M,M,M,M,M,M,M,M,M,M,M,60.10,KDRA 031253Z AUTO 11004KT 10SM CLR 16/03 A3004 RMK AO2 SLP132 T01560028,M
P68,2022-10-03 12:53,-116.0056,39.6014,1993.00,35.00,23.00,60.99,0.00,0.00,0.00,30.25,1019.90,M,M,M,M,M,M,M,M,M,M,M,M,M,M,M,M,M,35.10,KP68 031253Z AUTO 00000KT 02/M05 A3025 RMK AO1 SLP199 T00171050,M
BVU,2022-10-03 12:55,-114.8611,35.9475,671.00,69.80,53.60,56.38,10.00,3.00,0.00,29.97,M,10.00,M,CLR,M,M,M,M,M,M,M,M,M,M,M,M,M,M,69.80,KBVU 031255Z AUTO 01003KT 10SM CLR 21/12 A2997 RMK AO2 LTG DSNT NE AND E,M
05U,2022-10-03 12:55,-116.0051,39.6042,1811.23,33.80,23.00,64.23,0.00,0.00,0.00,30.27,M,10.00,M,CLR,M,M,M,M,M,M,M,M,M,M,M,M,M,M,33.80,K05U 031255Z AUTO 00000KT 10SM CLR 01/M05 A3027 RMK A01,M
MEV,2022-10-03 12:55,-119.7500,38.9963,1441.42,39.20,26.60,60.29,0.00,0.00,0.00,30.21,M,10.00,M,FEW,SCT,SCT,M,3800.00,4500.00,5000.00,M,M,M,M,M,M,M,M,39.20,KMEV 031255Z AUTO 00000KT 10SM FEW038 SCT045 SCT050 04/M03 A3021 RMK AO2,M
BAM,2022-10-03 12:55,-116.8743,40.5990,1382.36,35.60,21.20,55.41,0.00,0.00,0.00,30.22,M,10.00,M,CLR,M,M,M,M,M,M,M,M,M,M,M,M,M,M,35.60,KBAM 031255Z AUTO 00000KT 10SM CLR 02/M06 A3022 RMK AO1,M
HTH,2022-10-03 12:55,-118.6315,38.5448,1282.89,53.60,32.00,43.61,0.00,0.00,0.00,30.18,M,10.00,M,CLR,M,M,M,M,M,M,M,M,M,M,M,M,M,M,53.60,KHTH 031255Z AUTO 00000KT 10SM CLR 12/M00 A3018 RMK A01,M
TMT,2022-10-03 12:55,-117.1971,39.4643,1749.34,28.20,18.90,67.72,0.00,0.00,0.00,30.27,M,10.00,M,CLR,M,M,M,M,M,M,M,M,M,M,M,M,M,M,28.20,KTMT 031255Z AUTO 00000KT 10SM CLR M02/M07 A3027 RMK AO2 LTG DSNT SE T10211073,M
RNO,2022-10-03 12:55,-119.7711,39.4839,1341.00,49.00,36.00,60.88,0.00,0.00,0.00,30.19,1018.40,10.00,M,CLR,M,M,M,M,M,M,M,M,M,M,M,M,M,M,48.90,KRNO 031255Z 00000KT 10SM CLR 09/02 A3019 RMK AO2 SLP184 T00940022 $,M
INS,2022-10-03 12:56,-115.6733,36.5872,955.00,59.50,42.40,53.07,0.00,0.00,0.00,30.04,1013.10,10.00,M,CLR,M,M,M,M,M,M,M,M,M,M,M,M,M,M,59.50,KINS 031256Z AUTO 00000KT 10SM CLR 15/06 A3004 RMK AO2 SLP131 T01530058 $,M
EKO,2022-10-03 12:56,-115.7860,40.8242,1367.00,38.00,26.10,62.14,0.00,0.00,0.00,30.23,1021.40,10.00,M,CLR,M,M,M,M,M,M,M,M,M,M,M,M,M,M,37.90,KEKO 031256Z AUTO 00000KT 10SM CLR 03/M03 A3023 RMK AO2 SLP214 T00331033,M
HND,2022-10-03 12:56,-115.1344,35.9729,742.79,74.00,51.00,44.76,210.00,11.00,0.00,30.00,1014.80,10.00,M,CLR,M,M,M,M,M,M,M,M,M,M,M,M,M,M,73.90,KHND 031256Z AUTO 21011KT 10SM CLR 23/11 A3000 RMK AO2 SLP148 T02330106,M
WMC,2022-10-03 12:56,-117.8072,40.9019,1315.00,36.00,24.10,61.62,160.00,7.00,0.00,30.20,1020.30,10.00,M,CLR,M,M,M,M,M,M,M,M,M,M,M,M,M,M,29.65,KWMC 031256Z AUTO 16007KT 10SM CLR 02/M04 A3020 RMK AO2 SLP203 T00221044,M
NFL,2022-10-03 12:56,-118.7010,39.4166,1199.00,45.00,32.00,60.11,0.00,0.00,0.00,30.16,1017.70,10.00,M,CLR,M,M,M,M,M,M,M,M,M,M,M,M,M,M,45.00,KNFL 031256Z AUTO 00000KT 10SM CLR 07/00 A3016 RMK AO2 SLP177 T00720000,M
TPH,2022-10-03 12:56,-117.0904,38.0505,1654.00,50.00,24.10,36.01,20.00,10.00,0.00,30.20,1017.20,10.00,M,CLR,M,M,M,M,M,M,M,M,M,M,M,M,M,M,50.00,KTPH 031256Z AUTO 02010KT 10SM CLR 10/M04 A3020 RMK AO2 SLP172 T01001044,M
LSV,2022-10-03 12:56,-115.0343,36.2362,570.00,67.80,50.50,53.87,50.00,3.00,0.00,29.93,1011.30,10.00,M,CLR,M,M,M,M,M,M,M,M,M,M,M,M,M,M,67.80,KLSV 031256Z AUTO 05003KT 10SM CLR 20/10 A2993 RMK AO2 SLP113 T01990103 $,M
LAS,2022-10-03 12:56,-115.1634,36.0719,663.00,74.00,45.00,35.60,0.00,0.00,0.00,29.97,1012.50,10.00,M,CLR,M,M,M,M,M,M,M,M,M,M,M,M,M,M,73.90,KLAS 031256Z 00000KT 10SM CLR 23/07 A2997 RMK AO2 SLP125 T02330072 $,M
RTS,2022-10-03 12:59,-119.8764,39.6682,1539.00,41.00,30.20,65.16,0.00,0.00,0.00,30.23,M,10.00,M,CLR,M,M,M,M,M,M,M,M,M,M,M,M,M,M,41.00,KRTS 031259Z AUTO 00000KT 10SM CLR 05/M01 A3023 RMK AO2,M
CXP,2022-10-03 13:10,-119.7326,39.1923,1431.00,42.80,32.00,65.38,0.00,0.00,0.00,30.22,M,10.00,M,CLR,M,M,M,M,M,M,M,M,M,M,M,M,M,M,42.80,KCXP 031310Z AUTO 00000KT 10SM CLR 06/M00 A3022 RMK AO2,M
BVU,2022-10-03 13:15,-114.8611,35.9475,671.00,69.80,53.60,56.38,0.00,0.00,0.00,29.97,M,10.00,M,CLR,M,M,M,M,M,M,M,M,M,M,M,M,M,M,69.80,KBVU 031315Z AUTO 00000KT 10SM CLR 21/12 A2997 RMK AO2 LTG DSNT NE AND E,M
BAM,2022-10-03 13:15,-116.8743,40.5990,1382.36,35.60,19.40,51.33,0.00,0.00,0.00,30.22,M,10.00,M,CLR,M,M,M,M,M,M,M,M,M,M,M,M,M,M,35.60,KBAM 031315Z AUTO 00000KT 10SM CLR 02/M07 A3022 RMK AO1,M
HTH,2022-10-03 13:15,-118.6315,38.5448,1282.89,51.80,30.20,43.32,250.00,4.00,0.00,30.19,M,10.00,M,CLR,M,M,M,M,M,M,M,M,M,M,M,M,M,M,51.80,KHTH 031315Z AUTO 25004KT 10SM CLR 11/M01 A3019 RMK A01,M
TMT,2022-10-03 13:15,-117.1971,39.4643,1749.34,29.70,19.00,63.96,0.00,0.00,0.00,30.27,M,10.00,M,CLR,M,M,M,M,M,M,M,M,M,M,M,M,M,M,29.70,KTMT 031315Z AUTO 00000KT 10SM CLR M01/M07 A3027 RMK AO2 T10131072,M
05U,2022-10-03 13:15,-116.0051,39.6042,1811.23,32.00,21.20,63.99,240.00,4.00,0.00,30.28,M,10.00,M,CLR,M,M,M,M,M,M,M,M,M,M,M,M,M,M,27.42,K05U 031315Z AUTO 24004KT 10SM CLR 00/M06 A3028 RMK A01,M
MEV,2022-10-03 13:15,-119.7500,38.9963,1441.42,39.20,28.40,64.93,0.00,0.00,0.00,30.21,M,10.00,M,FEW,FEW,FEW,M,3800.00,4800.00,6000.00,M,M,M,M,M,M,M,M,39.20,KMEV 031315Z AUTO 00000KT 10SM FEW038 FEW048 FEW060 04/M02 A3021 RMK AO2,M
RTS,2022-10-03 13:19,-119.8764,39.6682,1539.00,42.80,30.20,60.79,0.00,0.00,0.00,30.24,M,10.00,M,CLR,M,M,M,M,M,M,M,M,M,M,M,M,M,M,42.80,KRTS 031319Z AUTO 00000KT 10SM CLR 06/M01 A3024 RMK AO2,M
CXP,2022-10-03 13:30,-119.7326,39.1923,1431.00,42.80,32.00,65.38,0.00,0.00,0.00,30.23,M,10.00,M,CLR,M,M,M,M,M,M,M,M,M,M,M,M,M,M,42.80,KCXP 031330Z AUTO 00000KT 10SM CLR 06/M00 A3023 RMK AO2,M
BAM,2022-10-03 13:35,-116.8743,40.5990,1382.36,33.80,19.40,55.14,0.00,0.00,0.00,30.23,M,10.00,M,CLR,M,M,M,M,M,M,M,M,M,M,M,M,M,M,33.80,KBAM 031335Z AUTO 00000KT 10SM CLR 01/M07 A3023 RMK AO1,M
HTH,2022-10-03 13:35,-118.6315,38.5448,1282.89,51.80,30.20,43.32,240.00,4.00,0.00,30.19,M,10.00,M,CLR,M,M,M,M,M,M,M,M,M,M,M,M,M,M,51.80,KHTH 031335Z AUTO 24004KT 10SM CLR 11/M01 A3019 RMK A01,M
05U,2022-10-03 13:35,-116.0051,39.6042,1811.23,33.80,21.20,59.53,230.00,5.00,0.00,30.28,M,10.00,M,CLR,M,M,M,M,M,M,M,M,M,M,M,M,M,M,28.53,K05U 031335Z AUTO 23005KT 10SM CLR 01/M06 A3028 RMK A01,M
TMT,2022-10-03 13:35,-117.1971,39.4643,1749.34,24.80,16.00,68.77,0.00,0.00,0.00,30.28,M,10.00,M,CLR,M,M,M,M,M,M,M,M,M,M,M,M,M,M,24.80,KTMT 031335Z AUTO 00000KT 10SM CLR M04/M09 A3028 RMK AO2 T10401089,M
BVU,2022-10-03 13:35,-114.8611,35.9475,671.00,69.80,51.80,52.77,330.00,3.00,0.00,29.98,M,10.00,M,CLR,M,M,M,M,M,M,M,M,M,M,M,M,M,M,69.80,KBVU 031335Z AUTO 33003KT 10SM CLR 21/11 A2998 RMK AO2,M
MEV,2022-10-03 13:35,-119.7500,38.9963,1441.42,35.60,24.80,64.46,0.00,0.00,0.00,30.22,M,10.00,M,CLR,M,M,M,M,M,M,M,M,M,M,M,M,M,M,35.60,KMEV 031335Z AUTO 00000KT 10SM CLR 02/M04 A3022 RMK AO2,M
RTS,2022-10-03 13:39,-119.8764,39.6682,1539.00,42.80,32.00,65.38,0.00,0.00,0.00,30.24,M,10.00,M,CLR,M,M,M,M,M,M,M,M,M,M,M,M,M,M,42.80,KRTS 031339Z AUTO 00000KT 10SM CLR 06/00 A3024 RMK AO2,M
CXP,2022-10-03 13:50,-119.7326,39.1923,1431.00,42.80,30.20,60.79,0.00,0.00,0.00,30.23,M,10.00,M,CLR,M,M,M,M,M,M,M,M,M,M,M,M,M,M,42.80,KCXP 031350Z AUTO 00000KT 10SM CLR 06/M01 A3023 RMK AO2,M
ELY,2022-10-03 13:53,-114.8453,39.2950,1909.00,34.00,27.00,75.26,180.00,7.00,0.00,30.27,1020.30,10.00,M,CLR,M,M,M,M,M,M,M,M,M,M,M,M,M,M,27.22,KELY 031353Z AUTO 18007KT 10SM CLR 01/M03 A3027 RMK AO2 SLP203 T00111028,M
LOL,2022-10-03 13:53,-118.5701,40.0684,1192.43,40.00,M,M,0.00,0.00,0.00,30.18,1020.80,10.00,M,CLR,M,M,M,M,M,M,M,M,M,M,M,M,M,M,M,KLOL 031353Z AUTO 00000KT 10SM CLR 04/ A3018 RMK AO2 SLP208 T0044 $,M
VGT,2022-10-03 13:53,-115.1933,36.2111,667.00,70.00,43.00,37.64,290.00,4.00,0.00,29.98,1014.70,10.00,M,CLR,M,M,M,M,M,M,M,M,M,M,M,M,M,M,70.00,KVGT 031353Z 29004KT 10SM CLR 21/06 A2998 RMK AO2 SLP147 T02110061 $,M
DRA,2022-10-03 13:53,-116.0278,36.6206,1009.00,60.00,37.00,42.09,90.00,5.00,0.00,30.05,1013.80,10.00,M,CLR,M,M,M,M,M,M,M,M,M,M,M,M,M,M,60.10,KDRA 031353Z AUTO 09005KT 10SM CLR 16/03 A3005 RMK AO2 SLP138 T01560028,M
P68,2022-10-03 13:53,-116.0056,39.6014,1993.00,34.00,21.90,60.83,200.00,4.00,0.00,30.27,1022.00,M,M,M,M,M,M,M,M,M,M,M,M,M,M,M,M,M,29.76,KP68 031353Z AUTO 20004KT 01/M06 A3027 RMK AO1 SLP220 T00111056,M
TMT,2022-10-03 13:55,-117.1971,39.4643,1749.34,25.30,16.70,69.43,0.00,0.00,0.00,30.28,M,10.00,M,CLR,M,M,M,M,M,M,M,M,M,M,M,M,M,M,25.30,KTMT 031355Z AUTO 00000KT 10SM CLR M04/M08 A3028 RMK AO2 LTG DSNT SE T10371085,M
05U,2022-10-03 13:55,-116.0051,39.6042,1811.23,33.80,21.20,59.53,200.00,3.00,0.00,30.29,M,10.00,M,CLR,M,M,M,M,M,M,M,M,M,M,M,M,M,M,30.75,K05U 031355Z AUTO 20003KT 10SM CLR 01/M06 A3029 RMK A01,M
RNO,2022-10-03 13:55,-119.7711,39.4839,1341.00,48.00,37.00,65.51,0.00,0.00,0.00,30.21,1019.40,10.00,M,CLR,M,M,M,M,M,M,M,M,M,M,M,M,M,M,48.00,KRNO 031355Z 00000KT 10SM CLR 09/03 A3021 RMK AO2 SLP194 T00890028 $,M
BVU,2022-10-03 13:55,-114.8611,35.9475,671.00,69.80,51.80,52.77,350.00,3.00,0.00,29.98,M,10.00,M,CLR,M,M,M,M,M,M,M,M,M,M,M,M,M,M,69.80,KBVU 031355Z AUTO 35003KT 10SM CLR 21/11 A2998 RMK AO2 LTG DSNT NE AND E,M
MEV,2022-10-03 13:55,-119.7500,38.9963,1441.42,35.60,24.80,64.46,110.00,3.00,0.00,30.22,M,10.00,M,CLR,M,M,M,M,M,M,M,M,M,M,M,M,M,M,32.80,KMEV 031355Z AUTO 11003KT 10SM CLR 02/M04 A3022 RMK AO2,M
HTH,2022-10-03 13:55,-118.6315,38.5448,1282.89,51.80,32.00,46.59,0.00,0.00,0.00,30.20,M,10.00,M,CLR,M,M,M,M,M,M,M,M,M,M,M,M,M,M,51.80,KHTH 031355Z AUTO 00000KT 10SM CLR 11/M00 A3020 RMK A01,M
BAM,2022-10-03 13:55,-116.8743,40.5990,1382.36,35.60,23.00,59.79,90.00,3.00,0.00,30.23,M,10.00,M,CLR,M,M,M,M,M,M,M,M,M,M,M,M,M,M,32.80,KBAM 031355Z AUTO 09003KT 10SM CLR 02/M05 A3023 RMK AO1,M
NFL,2022-10-03 13:56,-118.7010,39.4166,1199.00,43.00,30.90,62.06,0.00,0.00,0.00,30.17,1018.20,10.00,M,CLR,M,M,M,M,M,M,M,M,M,M,M,M,M,M,43.00,KNFL 031356Z AUTO 00000KT 10SM CLR 06/M01 A3017 RMK AO2 SLP182 T00611006,M
WMC,2022-10-03 13:56,-117.8072,40.9019,1315.00,36.00,24.10,61.62,130.00,4.00,0.00,30.21,1021.30,10.00,M,CLR,M,M,M,M,M,M,M,M,M,M,M,M,M,M,32.09,KWMC 031356Z AUTO 13004KT 10SM CLR 02/M04 A3021 RMK AO2 SLP213 T00221044,M
LAS,2022-10-03 13:56,-115.1634,36.0719,663.00,74.00,46.00,36.98,0.00,0.00,0.00,29.99,1013.10,10.00,M,FEW,M,M,M,15000.00,M,M,M,M,M,M,M,M,M,M,73.90,KLAS 031356Z 00000KT 10SM FEW150 23/08 A2999 RMK AO2 SLP131 T02330078 $,M
INS,2022-10-03 13:56,-115.6733,36.5872,955.00,59.70,41.00,49.92,0.00,0.00,0.00,30.05,1013.70,10.00,M,CLR,M,M,M,M,M,M,M,M,M,M,M,M,M,M,59.70,KINS 031356Z AUTO 00000KT 10SM CLR 15/05 A3005 RMK AO2 SLP137 T01540050 $,M
EKO,2022-10-03 13:56,-115.7860,40.8242,1367.00,36.00,26.10,66.97,0.00,0.00,0.00,30.24,1023.00,10.00,M,CLR,M,M,M,M,M,M,M,M,M,M,M,M,M,M,36.00,KEKO 031356Z AUTO 00000KT 10SM CLR 02/M03 A3024 RMK AO2 SLP230 T00221033,M
LSV,2022-10-03 13:56,-115.0343,36.2362,570.00,68.20,50.40,52.93,0.00,0.00,0.00,29.95,1012.10,10.00,M,CLR,M,M,M,M,M,M,M,M,M,M,M,M,M,M,68.20,KLSV 031356Z AUTO 00000KT 10SM CLR 20/10 A2995 RMK AO2 SLP121 T02010102 $,M
TPH,2022-10-03 13:56,-117.0904,38.0505,1654.00,52.00,25.00,34.72,20.00,13.00,0.00,30.22,1018.20,10.00,M,CLR,M,M,M,M,M,M,M,M,M,M,M,M,M,M,52.00,KTPH 031356Z AUTO 02013KT 10SM CLR 11/M04 A3022 RMK AO2 SLP182 T01111039,M
HND,2022-10-03 13:56,-115.1344,35.9729,742.79,73.00,52.00,47.69,230.00,6.00,0.00,30.02,1015.50,10.00,M,CLR,M,M,M,M,M,M,M,M,M,M,M,M,M,M,73.00,KHND 031356Z 23006KT 10SM CLR 23/11 A3002 RMK AO2 SLP155 T02280111,M
RTS,2022-10-03 13:59,-119.8764,39.6682,1539.00,39.20,30.20,69.88,0.00,0.00,0.00,30.24,M,10.00,M,CLR,M,M,M,M,M,M,M,M,M,M,M,M,M,M,39.20,KRTS 031359Z AUTO 00000KT 10SM CLR 04/M01 A3024 RMK AO2,M
CXP,2022-10-03 14:10,-119.7326,39.1923,1431.00,41.00,32.00,70.08,0.00,0.00,0.00,30.24,M,10.00,M,CLR,M,M,M,M,M,M,M,M,M,M,M,M,M,M,41.00,KCXP 031410Z AUTO 00000KT 10SM CLR 05/M00 A3024 RMK AO2,M
MEV,2022-10-03 14:15,-119.7500,38.9963,1441.42,37.40,26.60,64.70,90.00,4.00,0.00,30.23,M,10.00,M,CLR,M,M,M,M,M,M,M,M,M,M,M,M,M,M,33.73,KMEV 031415Z AUTO 09004KT 10SM CLR 03/M03 A3023 RMK AO2,M
BAM,2022-10-03 14:15,-116.8743,40.5990,1382.36,35.60,21.20,55.41,220.00,4.00,0.00,30.24,M,10.00,M,CLR,M,M,M,M,M,M,M,M,M,M,M,M,M,M,31.62,KBAM 031415Z AUTO 22004KT 10SM CLR 02/M06 A3024 RMK AO1,M
HTH,2022-10-03 14:15,-118.6315,38.5448,1282.89,51.80,32.00,46.59,240.00,4.00,0.00,30.20,M,10.00,M,CLR,M,M,M,M,M,M,M,M,M,M,M,M,M,M,51.80,KHTH 031415Z AUTO 24004KT 10SM CLR 11/M00 A3020 RMK A01,M
TMT,2022-10-03 14:15,-117.1971,39.4643,1749.34,27.70,19.40,70.61,190.00,3.00,0.00,30.29,M,10.00,M,CLR,M,M,M,M,M,M,M,M,M,M,M,M,M,M,23.77,KTMT 031415Z AUTO 19003KT 10SM CLR M02/M07 A3029 RMK AO2 LTG DSNT SE T10241070,M
BVU,2022-10-03 14:15,-114.8611,35.9475,671.00,69.80,53.60,56.38,0.00,0.00,0.00,29.99,M,10.00,M,CLR,M,M,M,M,M,M,M,M,M,M,M,M,M,M,69.80,KBVU 031415Z AUTO 00000KT 10SM CLR 21/12 A2999 RMK AO2 LTG DSNT NE AND E,M
05U,2022-10-03 14:15,-116.0051,39.6042,1811.23,33.80,23.00,64.23,180.00,3.00,0.00,30.29,M,10.00,M,CLR,M,M,M,M,M,M,M,M,M,M,M,M,M,M,30.75,K05U 031415Z AUTO 18003KT 10SM CLR 01/M05 A3029 RMK A01,M
RTS,2022-10-03 14:19,-119.8764,39.6682,1539.00,42.80,30.20,60.79,0.00,0.00,0.00,30.25,M,10.00,M,CLR,M,M,M,M,M,M,M,M,M,M,M,M,M,M,42.80,KRTS 031419Z AUTO 00000KT 10SM CLR 06/M01 A3025 RMK AO2,M
05U,2022-10-03 14:30,-116.0051,39.6042,1811.23,37.40,23.00,55.68,170.00,4.00,0.00,30.29,M,10.00,M,CLR,M,M,M,M,M,M,M,M,M,M,M,M,M,M,33.73,K05U 031430Z AUTO 17004KT 10SM CLR 03/M05 A3029 RMK A01,M
CXP,2022-10-03 14:30,-119.7326,39.1923,1431.00,42.80,32.00,65.38,0.00,0.00,0.00,30.25,M,10.00,M,CLR,M,M,M,M,M,M,M,M,M,M,M,M,M,M,42.80,KCXP 031430Z AUTO 00000KT 10SM CLR 06/00 A3025 RMK AO2,M
BVU,2022-10-03 14:35,-114.8611,35.9475,671.00,75.20,53.60,46.98,0.00,0.00,0.00,30.00,M,10.00,M,CLR,M,M,M,M,M,M,M,M,M,M,M,M,M,M,75.20,KBVU 031435Z AUTO 00000KT 10SM CLR 24/12 A3000 RMK AO2 LTG DSNT NE AND E,M
MEV,2022-10-03 14:35,-119.7500,38.9963,1441.42,37.40,28.40,69.67,0.00,0.00,0.00,30.23,M,10.00,M,CLR,M,M,M,M,M,M,M,M,M,M,M,M,M,M,37.40,KMEV 031435Z AUTO 00000KT 10SM CLR 03/M02 A3023 RMK AO2,M
BAM,2022-10-03 14:35,-116.8743,40.5990,1382.36,41.00,24.80,52.17,240.00,3.00,0.00,30.25,M,10.00,M,CLR,M,M,M,M,M,M,M,M,M,M,M,M,M,M,38.98,KBAM 031435Z AUTO 24003KT 10SM CLR 05/M04 A3025 RMK AO1,M
HTH,2022-10-03 14:35,-118.6315,38.5448,1282.89,53.60,32.00,43.61,250.00,3.00,0.00,30.21,M,10.00,M,CLR,M,M,M,M,M,M,M,M,M,M,M,M,M,M,53.60,KHTH 031435Z AUTO 25003KT 10SM CLR 12/M00 A3021 RMK A01,M
TMT,2022-10-03 14:35,-117.1971,39.4643,1749.34,31.30,20.10,62.82,0.00,0.00,0.00,30.30,M,10.00,M,CLR,M,M,M,M,M,M,M,M,M,M,M,M,M,M,31.30,KTMT 031435Z AUTO 00000KT 10SM CLR 00/M07 A3030 RMK AO2 T10041066,M
RTS,2022-10-03 14:39,-119.8764,39.6682,1539.00,46.40,32.00,57.00,0.00,0.00,0.00,30.25,M,10.00,M,CLR,M,M,M,M,M,M,M,M,M,M,M,M,M,M,46.40,KRTS 031439Z AUTO 00000KT 10SM CLR 08/00 A3025 RMK AO2,M
CXP,2022-10-03 14:50,-119.7326,39.1923,1431.00,44.60,32.00,61.03,0.00,0.00,0.00,30.25,M,10.00,M,CLR,M,M,M,M,M,M,M,M,M,M,M,M,M,M,44.60,KCXP 031450Z AUTO 00000KT 10SM CLR 07/M00 A3025 RMK AO2,M
ELY,2022-10-03 14:53,-114.8453,39.2950,1909.00,43.00,28.90,57.21,180.00,5.00,0.00,30.29,1020.20,10.00,M,CLR,M,M,M,M,M,M,M,M,M,M,M,M,M,M,39.46,KELY 031453Z AUTO 18005KT 10SM CLR 06/M02 A3029 RMK AO2 SLP202 T00611017 53013,M
VGT,2022-10-03 14:53,-115.1933,36.2111,667.00,76.00,43.00,30.85,300.00,4.00,0.00,30.00,1015.40,10.00,M,CLR,M,M,M,M,M,M,M,M,M,M,M,M,M,M,75.90,KVGT 031453Z 30004KT 10SM CLR 24/06 A3000 RMK AO2 SLP154 T02440061 53018 $,M
DRA,2022-10-03 14:53,-116.0278,36.6206,1009.00,66.00,37.00,34.21,0.00,0.00,0.00,30.07,1014.10,10.00,M,CLR,M,M,M,M,M,M,M,M,M,M,M,M,M,M,66.00,KDRA 031453Z AUTO 00000KT 10SM CLR 19/03 A3007 RMK AO2 SLP141 T01890028 51013,M
P68,2022-10-03 14:53,-116.0056,39.6014,1993.00,44.00,26.10,48.88,190.00,4.00,0.00,30.27,1021.60,M,M,M,M,M,M,M,M,M,M,M,M,M,M,M,M,M,41.55,KP68 031453Z AUTO 19004KT 07/M03 A3027 RMK AO1 SLP216 T00671033 51011,M
LOL,2022-10-03 14:53,-118.5701,40.0684,1192.43,44.00,28.00,52.86,0.00,0.00,0.00,30.20,1021.40,10.00,M,CLR,M,M,M,M,M,M,M,M,M,M,M,M,M,M,44.10,KLOL 031453Z AUTO 00000KT 10SM CLR 07/M02 A3020 RMK AO2 SLP214 T00671022 53016,M
BAM,2022-10-03 14:55,-116.8743,40.5990,1382.36,44.60,26.60,48.96,0.00,0.00,0.00,30.26,M,10.00,M,CLR,M,M,M,M,M,M,M,M,M,M,M,M,M,M,44.60,KBAM 031455Z AUTO 00000KT 10SM CLR 07/M03 A3026 RMK AO1,M
RNO,2022-10-03 14:55,-119.7711,39.4839,1341.00,50.00,37.00,60.79,0.00,0.00,0.00,30.22,1019.90,10.00,M,CLR,M,M,M,M,M,M,M,M,M,M,M,M,M,M,50.00,KRNO 031455Z 00000KT 10SM CLR 10/03 A3022 RMK AO2 SLP199 T01000028 51014 $,M
05U,2022-10-03 14:55,-116.0051,39.6042,1811.23,44.60,24.80,45.44,0.00,0.00,0.00,30.30,M,10.00,M,CLR,M,M,M,M,M,M,M,M,M,M,M,M,M,M,44.60,K05U 031455Z AUTO 00000KT 10SM CLR 07/M04 A3030 RMK A01,M
MEV,2022-10-03 14:55,-119.7500,38.9963,1441.42,41.00,30.20,65.16,0.00,0.00,0.00,30.24,M,10.00,M,CLR,M,M,M,M,M,M,M,M,M,M,M,M,M,M,41.00,KMEV 031455Z AUTO 00000KT 10SM CLR 05/M01 A3024 RMK AO2,M
HTH,2022-10-03 14:55,-118.6315,38.5448,1282.89,55.40,32.00,40.84,0.00,0.00,0.00,30.21,M,10.00,M,CLR,M,M,M,M,M,M,M,M,M,M,M,M,M,M,55.40,KHTH 031455Z AUTO 00000KT 10SM CLR 13/00 A3021 RMK A01,M
TMT,2022-10-03 14:55,-117.1971,39.4643,1749.34,36.00,22.60,57.86,230.00,3.00,0.00,30.30,M,10.00,M,CLR,M,M,M,M,M,M,M,M,M,M,M,M,M,M,33.26,KTMT 031455Z AUTO 23003KT 10SM CLR 02/M05 A3030 RMK AO2 LTG DSNT SE T00221052,M
BVU,2022-10-03 14:55,-114.8611,35.9475,671.00,77.00,53.60,44.25,0.00,0.00,0.00,30.00,M,10.00,M,CLR,M,M,M,M,M,M,M,M,M,M,M,M,M,M,77.00,KBVU 031455Z AUTO 00000KT 10SM CLR 25/12 A3000 RMK AO2 LTG DSNT NE AND E,M
TPH,2022-10-03 14:56,-117.0904,38.0505,1654.00,55.00,26.10,32.56,20.00,7.00,0.00,30.23,1018.90,10.00,M,CLR,M,M,M,M,M,M,M,M,M,M,M,M,M,M,55.00,KTPH 031456Z AUTO 02007KT 10SM CLR 13/M03 A3023 RMK AO2 SLP189 T01281033 51011,M
INS,2022-10-03 14:56,-115.6733,36.5872,955.00,62.80,41.20,45.07,0.00,0.00,0.00,30.06,1014.00,10.00,M,CLR,M,M,M,M,M,M,M,M,M,M,M,M,M,M,62.80,KINS 031456Z AUTO 00000KT 10SM CLR 17/05 A3006 RMK AO2 SLP140 T01710051 52013 $,M
WMC,2022-10-03 14:56,-117.8072,40.9019,1315.00,43.00,26.10,50.98,0.00,0.00,0.00,30.23,1022.10,10.00,M,CLR,M,M,M,M,M,M,M,M,M,M,M,M,M,M,43.00,KWMC 031456Z AUTO 00000KT 10SM CLR 06/M03 A3023 RMK AO2 SLP221 T00611033 53014,M
LAS,2022-10-03 14:56,-115.1634,36.0719,663.00,76.00,46.00,34.58,280.00,3.00,0.00,30.02,1014.00,10.00,M,FEW,M,M,M,15000.00,M,M,M,M,M,M,M,M,M,M,75.90,KLAS 031456Z 28003KT 10SM FEW150 24/08 A3002 RMK AO2 SLP140 T02440078 53018 $,M
HND,2022-10-03 14:56,-115.1344,35.9729,742.79,74.00,53.00,48.18,160.00,4.00,0.00,30.05,1016.50,10.00,M,CLR,M,M,M,M,M,M,M,M,M,M,M,M,M,M,73.90,KHND 031456Z 16004KT 10SM CLR 23/12 A3005 RMK AO2 SLP165 T02330117 53018,M
LSV,2022-10-03 14:56,-115.0343,36.2362,570.00,73.80,51.60,45.74,0.00,0.00,0.00,29.98,1013.20,10.00,M,CLR,M,M,M,M,M,M,M,M,M,M,M,M,M,M,73.80,KLSV 031456Z AUTO 00000KT 10SM CLR 23/11 A2998 RMK AO2 SLP132 T02320109 52019 $,M
EKO,2022-10-03 14:56,-115.7860,40.8242,1367.00,43.00,28.00,55.14,110.00,3.00,0.00,30.26,1022.90,10.00,M,CLR,M,M,M,M,M,M,M,M,M,M,M,M,M,M,41.26,KEKO 031456Z AUTO 11003KT 10SM CLR 06/M02 A3026 RMK AO2 SLP229 T00611022 53013,M
NFL,2022-10-03 14:56,-118.7010,39.4166,1199.00,48.00,33.00,56.10,0.00,0.00,0.00,30.19,1018.80,10.00,M,CLR,M,M,M,M,M,M,M,M,M,M,M,M,M,M,48.00,KNFL 031456Z 00000KT 10SM CLR 09/01 A3019 RMK AO2 SLP188 T00890006 53015,M
RTS,2022-10-03 14:59,-119.8764,39.6682,1539.00,50.00,32.00,49.81,0.00,0.00,0.00,30.26,M,10.00,M,CLR,M,M,M,M,M,M,M,M,M,M,M,M,M,M,50.00,KRTS 031459Z AUTO 00000KT 10SM CLR 10/00 A3026 RMK AO2,M
CXP,2022-10-03 15:10,-119.7326,39.1923,1431.00,48.20,32.00,53.27,0.00,0.00,0.00,30.25,M,10.00,M,CLR,M,M,M,M,M,M,M,M,M,M,M,M,M,M,48.20,KCXP 031510Z AUTO 00000KT 10SM CLR 09/00 A3025 RMK AO2 LTG DSNT SE,M
05U,2022-10-03 15:15,-116.0051,39.6042,1811.23,48.20,26.60,42.73,0.00,0.00,0.00,30.30,M,10.00,M,CLR,M,M,M,M,M,M,M,M,M,M,M,M,M,M,48.20,K05U 031515Z AUTO 00000KT 10SM CLR 09/M03 A3030 RMK A01,M
MEV,2022-10-03 15:15,-119.7500,38.9963,1441.42,44.60,30.20,56.74,0.00,0.00,0.00,30.24,M,8.00,M,CLR,M,M,M,M,M,M,M,M,M,M,M,M,M,M,44.60,KMEV 031515Z AUTO 00000KT 8SM CLR 07/M01 A3024 RMK AO2,M
BAM,2022-10-03 15:15,-116.8743,40.5990,1382.36,48.20,28.40,46.02,0.00,0.00,0.00,30.26,M,10.00,M,CLR,M,M,M,M,M,M,M,M,M,M,M,M,M,M,48.20,KBAM 031515Z AUTO 00000KT 10SM CLR 09/M02 A3026 RMK AO1,M
TMT,2022-10-03 15:15,-117.1971,39.4643,1749.34,37.00,22.80,56.09,0.00,0.00,0.00,30.30,M,10.00,M,CLR,M,M,M,M,M,M,M,M,M,M,M,M,M,M,37.00,KTMT 031515Z AUTO 00000KT 10SM CLR 03/M05 A3030 RMK AO2 LTG DSNT SE T00281051,M
HTH,2022-10-03 15:15,-118.6315,38.5448,1282.89,55.40,32.00,40.84,0.00,0.00,0.00,30.22,M,10.00,M,CLR,M,M,M,M,M,M,M,M,M,M,M,M,M,M,55.40,KHTH 031515Z AUTO 00000KT 10SM CLR 13/M00 A3022 RMK A01,M
BVU,2022-10-03 15:15,-114.8611,35.9475,671.00,77.00,53.60,44.25,0.00,0.00,0.00,30.01,M,10.00,M,CLR,M,M,M,M,M,M,M,M,M,M,M,M,M,M,77.00,KBVU 031515Z AUTO 00000KT 10SM CLR 25/12 A3001 RMK AO2 LTG DSNT NE AND E,M
RTS,2022-10-03 15:19,-119.8764,39.6682,1539.00,51.80,35.60,53.81,0.00,0.00,0.00,30.26,M,10.00,M,CLR,M,M,M,M,M,M,M,M,M,M,M,M,M,M,51.80,KRTS 031519Z AUTO 00000KT 10SM CLR 11/02 A3026 RMK AO2,M
CXP,2022-10-03 15:30,-119.7326,39.1923,1431.00,51.80,33.80,50.08,0.00,0.00,0.00,30.26,M,10.00,M,CLR,M,M,M,M,M,M,M,M,M,M,M,M,M,M,51.80,KCXP 031530Z AUTO 00000KT 10SM CLR 11/01 A3026 RMK AO2,M
HTH,2022-10-03 15:35,-118.6315,38.5448,1282.89,57.20,32.00,38.26,0.00,0.00,0.00,30.22,M,10.00,M,CLR,M,M,M,M,M,M,M,M,M,M,M,M,M,M,57.20,KHTH 031535Z AUTO 00000KT 10SM CLR 14/M00 A3022 RMK A01,M
TMT,2022-10-03 15:35,-117.1971,39.4643,1749.34,40.30,24.10,52.06,0.00,0.00,0.00,30.31,M,10.00,M,CLR,M,M,M,M,M,M,M,M,M,M,M,M,M,M,40.30,KTMT 031535Z AUTO 00000KT 10SM CLR 05/M04 A3031 RMK AO2 LTG DSNT SE T00461044,M
BAM,2022-10-03 15:35,-116.8743,40.5990,1382.36,50.00,28.40,43.03,0.00,0.00,0.00,30.26,M,10.00,M,CLR,M,M,M,M,M,M,M,M,M,M,M,M,M,M,50.00,KBAM 031535Z AUTO 00000KT 10SM CLR 10/M02 A3026 RMK AO1,M
MEV,2022-10-03 15:35,-119.7500,38.9963,1441.42,48.20,32.00,53.27,0.00,0.00,0.00,30.24,M,10.00,M,CLR,M,M,M,M,M,M,M,M,M,M,M,M,M,M,48.20,KMEV 031535Z AUTO 00000KT 10SM CLR 09/M00 A3024 RMK AO2 LTG DSNT SE,M
05U,2022-10-03 15:35,-116.0051,39.6042,1811.23,51.80,26.60,37.38,0.00,0.00,0.00,30.30,M,10.00,M,CLR,M,M,M,M,M,M,M,M,M,M,M,M,M,M,51.80,K05U 031535Z AUTO 00000KT 10SM CLR 11/M03 A3030 RMK A01,M
BVU,2022-10-03 15:35,-114.8611,35.9475,671.00,78.80,51.80,39.02,0.00,0.00,0.00,30.01,M,10.00,M,CLR,M,M,M,M,M,M,M,M,M,M,M,M,M,M,78.80,KBVU 031535Z AUTO 00000KT 10SM CLR 26/11 A3001 RMK AO2 LTG DSNT E,M
RTS,2022-10-03 15:39,-119.8764,39.6682,1539.00,55.40,33.80,43.90,0.00,0.00,0.00,30.26,M,10.00,M,CLR,M,M,M,M,M,M,M,M,M,M,M,M,M,M,55.40,KRTS 031539Z AUTO 00000KT 10SM CLR 13/01 A3026 RMK AO2,M
CXP,2022-10-03 15:50,-119.7326,39.1923,1431.00,53.60,33.80,46.88,0.00,0.00,0.00,30.26,M,10.00,M,CLR,M,M,M,M,M,M,M,M,M,M,M,M,M,M,53.60,KCXP 031550Z AUTO 00000KT 10SM CLR 12/01 A3026 RMK AO2 LTG DSNT SE,M
ELY,2022-10-03 15:53,-114.8453,39.2950,1909.00,51.00,28.90,42.16,M,4.00,0.00,30.29,1019.70,10.00,M,CLR,M,M,M,M,M,M,M,M,M,M,M,M,M,M,51.10,KELY 031553Z AUTO VRB04KT 10SM CLR 11/M02 A3029 RMK AO2 SLP197 T01061017,M
VGT,2022-10-03 15:53,-115.1933,36.2111,667.00,82.00,45.00,27.24,0.00,0.00,0.00,30.02,1015.60,10.00,M,CLR,M,M,M,M,M,M,M,M,M,M,M,M,M,M,80.28,KVGT 031553Z 00000KT 10SM CLR 28/07 A3002 RMK AO2 SLP156 T02780072,M
P68,2022-10-03 15:53,-116.0056,39.6014,1993.00,53.00,27.00,36.22,0.00,0.00,0.00,30.28,1020.70,M,M,M,M,M,M,M,M,M,M,M,M,M,M,M,M,M,53.10,KP68 031553Z AUTO 00000KT 12/M03 A3028 RMK AO1 SLP207 T01171028,M
DRA,2022-10-03 15:53,-116.0278,36.6206,1009.00,72.00,38.00,28.85,0.00,0.00,0.00,30.08,1014.50,10.00,M,CLR,M,M,M,M,M,M,M,M,M,M,M,M,M,M,72.00,KDRA 031553Z AUTO 00000KT 10SM CLR 22/03 A3008 RMK AO2 SLP145 T02220033,M
05U,2022-10-03 15:55,-116.0051,39.6042,1811.23,55.40,26.60,32.76,0.00,0.00,0.00,30.30,M,10.00,M,CLR,M,M,M,M,M,M,M,M,M,M,M,M,M,M,55.40,K05U 031555Z AUTO 00000KT 10SM CLR 13/M03 A3030 RMK A01,M
RNO,2022-10-03 15:55,-119.7711,39.4839,1341.00,56.00,37.00,48.95,0.00,0.00,0.00,30.23,1020.20,10.00,M,CLR,M,M,M,M,M,M,M,M,M,M,M,M,M,M,55.90,KRNO 031555Z 00000KT 10SM CLR 13/03 A3023 RMK AO2 SLP202 T01330028,M
TMT,2022-10-03 15:55,-117.1971,39.4643,1749.34,44.00,25.20,47.45,0.00,0.00,0.00,30.31,M,10.00,M,CLR,M,M,M,M,M,M,M,M,M,M,M,M,M,M,43.90,KTMT 031555Z AUTO 00000KT 10SM CLR 07/M04 A3031 RMK AO2 LTG DSNT SE T00661038,M
MEV,2022-10-03 15:55,-119.7500,38.9963,1441.42,51.80,32.00,46.59,0.00,0.00,0.00,30.24,M,2.50,M,CLR,M,M,M,M,M,M,M,-RA HZ,M,M,M,M,M,M,51.80,KMEV 031555Z AUTO 00000KT 2 1/2SM -RA HZ CLR 11/00 A3024 RMK AO2 LTG DSNT SE,M
BAM,2022-10-03 15:55,-116.8743,40.5990,1382.36,51.80,28.40,40.25,0.00,0.00,0.00,30.27,M,10.00,M,CLR,M,M,M,M,M,M,M,M,M,M,M,M,M,M,51.80,KBAM 031555Z AUTO 00000KT 10SM CLR 11/M02 A3027 RMK AO1,M
HTH,2022-10-03 15:55,-118.6315,38.5448,1282.89,59.00,32.00,35.87,0.00,0.00,0.00,30.22,M,10.00,M,CLR,M,M,M,M,M,M,M,M,M,M,M,M,M,M,59.00,KHTH 031555Z AUTO 00000KT 10SM CLR 15/00 A3022 RMK A01,M
BVU,2022-10-03 15:55,-114.8611,35.9475,671.00,80.60,51.80,36.79,0.00,0.00,0.00,30.01,M,10.00,M,CLR,M,M,M,M,M,M,M,M,M,M,M,M,M,M,80.08,KBVU 031555Z AUTO 00000KT 10SM CLR 27/11 A3001 RMK AO2 LTG DSNT E,M
TPH,2022-10-03 15:56,-117.0904,38.0505,1654.00,62.00,26.10,25.24,360.00,7.00,0.00,30.24,1018.80,10.00,M,CLR,M,M,M,M,M,M,M,M,M,M,M,M,M,M,62.10,KTPH 031556Z AUTO 36007KT 10SM CLR 17/M03 A3024 RMK AO2 SLP188 T01671033,M
LAS,2022-10-03 15:56,-115.1634,36.0719,663.00,81.00,48.00,31.52,10.00,6.00,0.00,30.03,1014.50,10.00,M,FEW,FEW,M,M,11000.00,15000.00,M,M,M,M,M,M,M,M,M,79.92,KLAS 031556Z 01006KT 10SM FEW110 FEW150 27/09 A3003 RMK AO2 SLP145 T02720089,M
EKO,2022-10-03 15:56,-115.7860,40.8242,1367.00,50.00,30.00,45.93,M,3.00,0.00,30.27,1023.00,10.00,M,CLR,M,M,M,M,M,M,M,M,M,M,M,M,M,M,50.00,KEKO 031556Z AUTO VRB03KT 10SM CLR 10/M01 A3027 RMK AO2 SLP230 T01001011,M
INS,2022-10-03 15:56,-115.6733,36.5872,955.00,69.60,40.80,35.05,0.00,0.00,0.00,30.08,1014.50,10.00,M,CLR,M,M,M,M,M,M,M,M,M,M,M,M,M,M,69.60,KINS 031556Z AUTO 00000KT 10SM CLR 21/05 A3008 RMK AO2 SLP145 T02090049 $,M
HND,2022-10-03 15:56,-115.1344,35.9729,742.79,80.00,49.00,33.58,360.00,3.00,0.00,30.06,1017.00,10.00,M,CLR,M,M,M,M,M,M,M,M,M,M,M,M,M,M,79.50,KHND 031556Z 36003KT 10SM CLR 27/09 A3006 RMK AO2 SLP170 T02670094,M
WMC,2022-10-03 15:56,-117.8072,40.9019,1315.00,57.00,32.00,38.54,0.00,0.00,0.00,30.24,1021.80,10.00,M,CLR,M,M,M,M,M,M,M,M,M,M,M,M,M,M,57.00,KWMC 031556Z AUTO 00000KT 10SM CLR 14/00 A3024 RMK AO2 SLP218 T01390000,M
NFL,2022-10-03 15:56,-118.7010,39.4166,1199.00,56.00,36.00,47.05,210.00,3.00,0.00,30.21,1019.20,10.00,M,CLR,M,M,M,M,M,M,M,M,M,M,M,M,M,M,55.90,KNFL 031556Z 21003KT 10SM CLR 13/02 A3021 RMK AO2 SLP192 T01330022,M
LSV,2022-10-03 15:56,-115.0343,36.2362,570.00,82.20,51.00,34.03,50.00,15.00,0.00,29.98,1013.00,10.00,M,CLR,M,M,M,M,M,M,M,M,M,M,M,M,M,M,80.98,KLSV 031556Z AUTO 05015KT 10SM CLR 28/11 A2998 RMK AO2 SLP130 T02790106 $,M
RTS,2022-10-03 15:59,-119.8764,39.6682,1539.00,59.00,33.80,38.56,0.00,0.00,0.00,30.26,M,10.00,M,CLR,M,M,M,M,M,M,M,M,M,M,M,M,M,M,59.00,KRTS 031559Z AUTO 00000KT 10SM CLR 15/01 A3026 RMK AO2,M
CXP,2022-10-03 16:10,-119.7326,39.1923,1431.00,55.40,33.80,43.90,0.00,0.00,0.00,30.26,M,10.00,M,CLR,M,M,M,M,M,M,M,M,M,M,M,M,M,M,55.40,KCXP 031610Z AUTO 00000KT 10SM CLR 13/01 A3026 RMK AO2,M
MEV,2022-10-03 16:15,-119.7500,38.9963,1441.42,55.40,33.80,43.90,0.00,0.00,0.00,30.25,M,3.00,M,CLR,M,M,M,M,M,M,M,HZ,M,M,M,M,M,M,55.40,KMEV 031615Z AUTO 00000KT 3SM HZ CLR 13/01 A3025 RMK AO2,M
BAM,2022-10-03 16:15,-116.8743,40.5990,1382.36,55.40,30.20,37.97,10.00,4.00,0.00,30.27,M,10.00,M,CLR,M,M,M,M,M,M,M,M,M,M,M,M,M,M,55.40,KBAM 031615Z AUTO 01004KT 10SM CLR 13/M01 A3027 RMK AO1,M
TMT,2022-10-03 16:15,-117.1971,39.4643,1749.34,48.00,26.40,42.70,0.00,0.00,0.00,30.31,M,10.00,M,CLR,M,M,M,M,M,M,M,M,M,M,M,M,M,M,48.00,KTMT 031615Z AUTO 00000KT 10SM CLR 09/M03 A3031 RMK AO2 LTG DSNT SE T00891031,M
HTH,2022-10-03 16:15,-118.6315,38.5448,1282.89,60.80,35.60,38.85,0.00,0.00,0.00,30.22,M,10.00,M,CLR,M,M,M,M,M,M,M,M,M,M,M,M,M,M,60.80,KHTH 031615Z AUTO 00000KT 10SM CLR 16/02 A3022 RMK A01,M
05U,2022-10-03 16:15,-116.0051,39.6042,1811.23,59.00,26.60,28.77,0.00,0.00,0.00,30.30,M,10.00,M,CLR,M,M,M,M,M,M,M,M,M,M,M,M,M,M,59.00,K05U 031615Z AUTO 00000KT 10SM CLR 15/M03 A3030 RMK A01,M
BVU,2022-10-03 16:15,-114.8611,35.9475,671.00,82.40,50.00,32.46,0.00,0.00,0.00,30.02,M,10.00,M,CLR,M,M,M,M,M,M,M,M,M,M,M,M,M,M,80.99,KBVU 031615Z AUTO 00000KT 10SM CLR 28/10 A3002 RMK AO2 LTG DSNT E,M
RTS,2022-10-03 16:19,-119.8764,39.6682,1539.00,60.80,35.60,38.85,0.00,0.00,0.00,30.26,M,10.00,M,CLR,M,M,M,M,M,M,M,M,M,M,M,M,M,M,60.80,KRTS 031619Z AUTO 00000KT 10SM CLR 16/02 A3026 RMK AO2,M
CXP,2022-10-03 16:30,-119.7326,39.1923,1431.00,59.00,33.80,38.56,0.00,0.00,0.00,30.26,M,10.00,M,CLR,M,M,M,M,M,M,M,M,M,M,M,M,M,M,59.00,KCXP 031630Z AUTO 00000KT 10SM CLR 15/01 A3026 RMK AO2,M
HTH,2022-10-03 16:35,-118.6315,38.5448,1282.89,62.60,33.80,33.93,330.00,5.00,0.00,30.23,M,10.00,M,CLR,M,M,M,M,M,M,M,M,M,M,M,M,M,M,62.60,KHTH 031635Z AUTO 33005KT 10SM CLR 17/01 A3023 RMK A01,M
BVU,2022-10-03 16:35,-114.8611,35.9475,671.00,84.20,51.80,32.73,60.00,4.00,0.00,30.02,M,10.00,M,CLR,M,M,M,M,M,M,M,M,M,M,M,M,M,M,82.48,KBVU 031635Z AUTO 06004KT 10SM CLR 29/11 A3002 RMK AO2 LTG DSNT E,M
05U,2022-10-03 16:35,-116.0051,39.6042,1811.23,60.80,26.60,26.98,0.00,0.00,0.00,30.31,M,10.00,M,CLR,M,M,M,M,M,M,M,M,M,M,M,M,M,M,60.80,K05U 031635Z AUTO 00000KT 10SM CLR 16/M03 A3031 RMK A01,M
MEV,2022-10-03 16:35,-119.7500,38.9963,1441.42,59.00,32.00,35.87,0.00,0.00,0.00,30.24,M,8.00,M,CLR,M,M,M,M,M,M,M,M,M,M,M,M,M,M,59.00,KMEV 031635Z AUTO 00000KT 8SM CLR 15/00 A3024 RMK AO2,M
BAM,2022-10-03 16:35,-116.8743,40.5990,1382.36,57.20,30.20,35.57,30.00,4.00,0.00,30.27,M,10.00,M,CLR,M,M,M,M,M,M,M,M,M,M,M,M,M,M,57.20,KBAM 031635Z AUTO 03004KT 10SM CLR 14/M01 A3027 RMK AO1,M
TMT,2022-10-03 16:35,-117.1971,39.4643,1749.34,52.20,27.90,38.85,0.00,0.00,0.00,30.30,M,10.00,M,CLR,M,M,M,M,M,M,M,M,M,M,M,M,M,M,52.20,KTMT 031635Z AUTO 00000KT 10SM CLR 11/M02 A3030 RMK AO2 T01121023,M
RTS,2022-10-03 16:39,-119.8764,39.6682,1539.00,62.60,33.80,33.93,0.00,0.00,0.00,30.26,M,10.00,M,CLR,M,M,M,M,M,M,M,M,M,M,M,M,M,M,62.60,KRTS 031639Z AUTO 00000KT 10SM CLR 17/01 A3026 RMK AO2,M
CXP,2022-10-03 16:50,-119.7326,39.1923,1431.00,60.80,32.00,33.64,190.00,3.00,0.00,30.26,M,10.00,M,CLR,M,M,M,M,M,M,M,M,M,M,M,M,M,M,60.80,KCXP 031650Z AUTO 19003KT 10SM CLR 16/M00 A3026 RMK AO2 LTG DSNT SE,M
ELY,2022-10-03 16:53,-114.8453,39.2950,1909.00,57.00,28.90,33.98,130.00,4.00,0.00,30.28,1019.00,10.00,M,CLR,M,M,M,M,M,M,M,M,M,M,M,M,M,M,57.00,KELY 031653Z AUTO 13004KT 10SM CLR 14/M02 A3028 RMK AO2 SLP190 T01391017,M
DRA,2022-10-03 16:53,-116.0278,36.6206,1009.00,79.00,39.00,23.85,250.00,5.00,0.00,30.08,1014.30,10.00,M,CLR,M,M,M,M,M,M,M,M,M,M,M,M,M,M,79.00,KDRA 031653Z AUTO 25005KT 10SM CLR 26/04 A3008 RMK AO2 SLP143 T02610039,M
LOL,2022-10-03 16:53,-118.5701,40.0684,1192.43,66.00,32.00,28.03,50.00,8.00,0.00,30.21,1020.70,10.00,M,M,M,M,M,M,M,M,M,M,M,M,M,M,M,M,66.00,KLOL 031653Z AUTO 05008KT 10SM 19/00 A3021 RMK AO2 SLP207 T01890000 $,M
VGT,2022-10-03 16:53,-115.1933,36.2111,667.00,84.00,50.00,30.82,140.00,5.00,0.00,30.02,1015.80,10.00,M,CLR,M,M,M,M,M,M,M,M,M,M,M,M,M,M,82.09,KVGT 031653Z 14005KT 10SM CLR 29/10 A3002 RMK AO2 SLP158 T02890100,M
P68,2022-10-03 16:53,-116.0056,39.6014,1993.00,59.00,27.00,29.25,0.00,0.00,0.00,30.28,1020.70,M,M,M,M,M,M,M,M,M,M,M,M,M,M,M,M,M,59.00,KP68 031653Z AUTO 00000KT 15/M03 A3028 RMK AO1 SLP207 T01501028,M
HTH,2022-10-03 16:55,-118.6315,38.5448,1282.89,62.60,33.80,33.93,310.00,5.00,0.00,30.23,M,10.00,M,CLR,M,M,M,M,M,M,M,M,M,M,M,M,M,M,62.60,KHTH 031655Z AUTO 31005KT 10SM CLR 17/01 A3023 RMK A01,M
TMT,2022-10-03 16:55,-117.1971,39.4643,1749.34,55.00,29.10,36.84,0.00,0.00,0.00,30.30,M,10.00,M,CLR,M,M,M,M,M,M,M,M,M,M,M,M,M,M,55.00,KTMT 031655Z AUTO 00000KT 10SM CLR 13/M02 A3030 RMK AO2 LTG DSNT SE T01281016,M
MEV,2022-10-03 16:55,-119.7500,38.9963,1441.42,60.80,33.80,36.16,0.00,0.00,0.00,30.24,M,9.00,M,CLR,M,M,M,M,M,M,M,M,M,M,M,M,M,M,60.80,KMEV 031655Z AUTO 00000KT 9SM CLR 16/01 A3024 RMK AO2,M
05U,2022-10-03 16:55,-116.0051,39.6042,1811.23,62.60,26.60,25.32,0.00,0.00,0.00,30.31,M,10.00,M,CLR,M,M,M,M,M,M,M,M,M,M,M,M,M,M,62.60,K05U 031655Z AUTO 00000KT 10SM CLR 17/M03 A3031 RMK A01,M
RNO,2022-10-03 16:55,-119.7711,39.4839,1341.00,62.00,38.00,40.62,0.00,0.00,0.00,30.24,1020.00,10.00,M,CLR,M,M,M,M,M,M,M,M,M,M,M,M,M,M,62.10,KRNO 031655Z 00000KT 10SM CLR 17/03 A3024 RMK AO2 SLP200 T01670033,M
BAM,2022-10-03 16:55,-116.8743,40.5990,1382.36,60.80,30.20,31.28,50.00,3.00,0.00,30.27,M,10.00,M,CLR,M,M,M,M,M,M,M,M,M,M,M,M,M,M,60.80,KBAM 031655Z AUTO 05003KT 10SM CLR 16/M01 A3027 RMK AO1,M
BVU,2022-10-03 16:55,-114.8611,35.9475,671.00,82.40,51.80,34.69,40.00,8.00,0.00,30.02,M,10.00,M,CLR,M,M,M,M,M,M,M,M,M,M,M,M,M,M,81.20,KBVU 031655Z AUTO 04008KT 10SM CLR 28/11 A3002 RMK AO2 LTG DSNT E,M
INS,2022-10-03 16:56,-115.6733,36.5872,955.00,76.80,39.40,26.05,0.00,0.00,0.00,30.08,1014.20,10.00,M,CLR,M,M,M,M,M,M,M,M,M,M,M,M,M,M,76.80,KINS 031656Z AUTO 00000KT 10SM CLR 25/04 A3008 RMK AO2 SLP142 T02490041 $,M
TPH,2022-10-03 16:56,-117.0904,38.0505,1654.00,68.00,26.10,20.55,M,4.00,0.00,30.24,1018.50,10.00,M,CLR,M,M,M,M,M,M,M,M,M,M,M,M,M,M,68.00,KTPH 031656Z AUTO VRB04KT 10SM CLR 20/M03 A3024 RMK AO2 SLP185 T02001033,M
WMC,2022-10-03 16:56,-117.8072,40.9019,1315.00,65.00,34.00,31.55,20.00,7.00,0.00,30.24,1021.60,10.00,M,CLR,M,M,M,M,M,M,M,M,M,M,M,M,M,M,64.90,KWMC 031656Z AUTO 02007KT 10SM CLR 18/01 A3024 RMK AO2 SLP216 T01830011,M
LSV,2022-10-03 16:56,-115.0343,36.2362,570.00,85.00,51.00,30.96,60.00,14.00,0.00,29.99,1013.30,10.00,M,CLR,M,M,M,M,M,M,M,M,M,M,M,M,M,M,82.88,KLSV 031656Z AUTO 06014KT 10SM CLR 29/11 A2999 RMK AO2 SLP133 T02940105 $,M
HND,2022-10-03 16:56,-115.1344,35.9729,742.79,82.00,50.00,32.88,330.00,4.00,0.00,30.07,1017.10,10.00,M,CLR,M,M,M,M,M,M,M,M,M,M,M,M,M,M,80.73,KHND 031656Z 33004KT 10SM CLR 28/10 A3007 RMK AO2 SLP171 T02780100,M
NFL,2022-10-03 16:56,-118.7010,39.4166,1199.00,65.00,32.00,29.12,0.00,0.00,0.00,30.21,1019.30,10.00,M,CLR,M,M,M,M,M,M,M,M,M,M,M,M,M,M,64.90,KNFL 031656Z 00000KT 10SM CLR 18/00 A3021 RMK AO2 SLP193 T01830000,M
EKO,2022-10-03 16:56,-115.7860,40.8242,1367.00,57.00,30.90,36.86,0.00,0.00,0.00,30.27,1022.50,10.00,M,CLR,M,M,M,M,M,M,M,M,M,M,M,M,M,M,57.00,KEKO 031656Z AUTO 00000KT 10SM CLR 14/M01 A3027 RMK AO2 SLP225 T01391006,M
LAS,2022-10-03 16:56,-115.1634,36.0719,663.00,82.00,50.00,32.88,50.00,8.00,0.00,30.03,1014.60,10.00,M,FEW,FEW,M,M,11000.00,15000.00,M,M,M,M,M,M,M,M,M,80.73,KLAS 031656Z 05008KT 10SM FEW110 FEW150 28/10 A3003 RMK AO2 SLP146 T02780100,M
RTS,2022-10-03 16:59,-119.8764,39.6682,1539.00,66.20,33.80,29.92,0.00,0.00,0.00,30.26,M,9.00,M,CLR,M,M,M,M,M,M,M,M,M,M,M,M,M,M,66.20,KRTS 031659Z AUTO 00000KT 9SM CLR 19/01 A3026 RMK AO2,M
CXP,2022-10-03 17:10,-119.7326,39.1923,1431.00,62.60,32.00,31.56,0.00,0.00,0.00,30.26,M,10.00,M,CLR,M,M,M,M,M,M,M,M,M,M,M,M,M,M,62.60,KCXP 031710Z AUTO 00000KT 10SM CLR 17/00 A3026 RMK AO2,M
MEV,2022-10-03 17:15,-119.7500,38.9963,1441.42,62.60,33.80,33.93,190.00,3.00,0.00,30.24,M,6.00,M,CLR,M,M,M,M,M,M,M,HZ,M,M,M,M,M,M,62.60,KMEV 031715Z AUTO 19003KT 6SM HZ CLR 17/01 A3024 RMK AO2,M
HTH,2022-10-03 17:15,-118.6315,38.5448,1282.89,64.40,30.20,27.55,340.00,4.00,0.00,30.23,M,10.00,M,CLR,M,M,M,M,M,M,M,M,M,M,M,M,M,M,64.40,KHTH 031715Z AUTO 34004KT 10SM CLR 18/M01 A3023 RMK A01,M
TMT,2022-10-03 17:15,-117.1971,39.4643,1749.34,M,M,M,0.00,0.00,0.00,30.30,M,10.00,M,CLR,M,M,M,M,M,M,M,M,M,M,M,M,M,M,M,KTMT 031715Z AUTO 00000KT 10SM CLR A3030 RMK AO2,M
05U,2022-10-03 17:15,-116.0051,39.6042,1811.23,62.60,26.60,25.32,0.00,0.00,0.00,30.31,M,10.00,M,CLR,M,M,M,M,M,M,M,M,M,M,M,M,M,M,62.60,K05U 031715Z AUTO 00000KT 10SM CLR 17/M03 A3031 RMK A01,M
BVU,2022-10-03 17:15,-114.8611,35.9475,671.00,84.20,53.60,34.97,70.00,7.00,0.00,30.02,M,10.00,M,CLR,M,M,M,M,M,M,M,M,M,M,M,M,M,M,82.76,KBVU 031715Z AUTO 07007KT 10SM CLR 29/12 A3002 RMK AO2 LTG DSNT E,M
BAM,2022-10-03 17:15,-116.8743,40.5990,1382.36,62.60,32.00,31.56,60.00,3.00,0.00,30.27,M,10.00,M,CLR,M,M,M,M,M,M,M,M,M,M,M,M,M,M,62.60,KBAM 031715Z AUTO 06003KT 10SM CLR 17/00 A3027 RMK AO1,M
RTS,2022-10-03 17:19,-119.8764,39.6682,1539.00,68.00,32.00,26.15,0.00,0.00,0.00,30.26,M,10.00,M,CLR,M,M,M,M,M,M,M,M,M,M,M,M,M,M,68.00,KRTS 031719Z AUTO 00000KT 10SM CLR 20/00 A3026 RMK AO2,M
CXP,2022-10-03 17:30,-119.7326,39.1923,1431.00,64.40,32.00,29.63,0.00,0.00,0.00,30.26,M,10.00,M,CLR,M,M,M,M,M,M,M,M,M,M,M,M,M,M,64.40,KCXP 031730Z AUTO 00000KT 10SM CLR 18/00 A3026 RMK AO2,M
MEV,2022-10-03 17:35,-119.7500,38.9963,1441.42,64.40,33.80,31.85,0.00,0.00,0.00,30.24,M,8.00,M,CLR,M,M,M,M,M,M,M,M,M,M,M,M,M,M,64.40,KMEV 031735Z AUTO 00000KT 8SM CLR 18/01 A3024 RMK AO2,M
BAM,2022-10-03 17:35,-116.8743,40.5990,1382.36,64.40,32.00,29.63,0.00,0.00,0.00,30.27,M,10.00,M,CLR,M,M,M,M,M,M,M,M,M,M,M,M,M,M,64.40,KBAM 031735Z AUTO 00000KT 10SM CLR 18/00 A3027 RMK AO1,M
HTH,2022-10-03 17:35,-118.6315,38.5448,1282.89,66.20,30.20,25.88,330.00,4.00,0.00,30.23,M,10.00,M,CLR,M,M,M,M,M,M,M,M,M,M,M,M,M,M,66.20,KHTH 031735Z AUTO 33004KT 10SM CLR 19/M01 A3023 RMK A01,M
TMT,2022-10-03 17:35,-117.1971,39.4643,1749.34,M,M,M,0.00,0.00,0.00,30.30,M,10.00,M,CLR,M,M,M,M,M,M,M,M,M,M,M,M,M,M,M,KTMT 031735Z AUTO 00000KT 10SM CLR A3030 RMK AO2,M
05U,2022-10-03 17:35,-116.0051,39.6042,1811.23,64.40,26.60,23.77,0.00,0.00,0.00,30.31,M,10.00,M,CLR,M,M,M,M,M,M,M,M,M,M,M,M,M,M,64.40,K05U 031735Z AUTO 00000KT 10SM CLR 18/M03 A3031 RMK A01,M
BVU,2022-10-03 17:35,-114.8611,35.9475,671.00,84.20,53.60,34.97,50.00,9.00,0.00,30.02,M,10.00,M,CLR,M,M,M,M,M,M,M,M,M,M,M,M,M,M,82.76,KBVU 031735Z AUTO 05009KT 10SM CLR 29/12 A3002 RMK AO2 LTG DSNT E AND SE,M
RTS,2022-10-03 17:39,-119.8764,39.6682,1539.00,69.80,30.20,22.86,120.00,7.00,0.00,30.25,M,10.00,M,CLR,M,M,M,M,M,M,M,M,M,M,M,M,M,M,69.80,KRTS 031739Z AUTO 12007KT 080V140 10SM CLR 21/M01 A3025 RMK AO2,M
CXP,2022-10-03 17:50,-119.7326,39.1923,1431.00,66.20,33.80,29.92,0.00,0.00,0.00,30.25,M,10.00,M,CLR,M,M,M,M,M,M,M,M,M,M,M,M,M,M,66.20,KCXP 031750Z AUTO 00000KT 10SM CLR 19/01 A3025 RMK AO2,M
VGT,2022-10-03 17:53,-115.1933,36.2111,667.00,87.00,50.00,27.91,100.00,12.00,0.00,30.01,1015.40,10.00,M,CLR,M,M,M,M,M,M,M,M,M,M,M,M,M,M,84.51,KVGT 031753Z 10012KT 10SM CLR 31/10 A3001 RMK AO2 SLP154 T03060100 10306 20211 50003,M
P68,2022-10-03 17:53,-116.0056,39.6014,1993.00,65.00,28.00,24.75,M,5.00,0.00,30.28,1020.20,M,M,M,M,M,M,M,M,M,M,M,M,M,M,M,M,M,64.90,KP68 031753Z AUTO VRB05KT 18/M02 A3028 RMK AO1 SLP202 T01831022 10183 20006 50001,M
LOL,2022-10-03 17:53,-118.5701,40.0684,1192.43,72.00,34.00,24.72,30.00,5.00,0.00,30.21,1020.20,10.00,M,CLR,M,M,M,M,M,M,M,M,M,M,M,M,M,M,72.00,KLOL 031753Z AUTO 03005KT 10SM CLR 22/01 A3021 RMK AO2 SLP202 6//// T02220011 10222 20028,M
ELY,2022-10-03 17:53,-114.8453,39.2950,1909.00,63.00,28.90,27.44,M,3.00,0.00,30.28,1018.10,10.00,M,CLR,M,M,M,M,M,M,M,M,M,M,M,M,M,M,63.00,KELY 031753Z AUTO VRB03KT 10SM CLR 17/M02 A3028 RMK AO2 SLP181 T01721017 10178 20011 58003,M
DRA,2022-10-03 17:53,-116.0278,36.6206,1009.00,81.00,41.00,24.14,M,3.00,0.00,30.08,1014.10,10.00,M,CLR,M,M,M,M,M,M,M,M,M,M,M,M,M,M,79.43,KDRA 031753Z AUTO VRB03KT 10SM CLR 27/05 A3008 RMK AO2 SLP141 T02720050 10278 20150 50002,M
BVU,2022-10-03 17:55,-114.8611,35.9475,671.00,84.20,53.60,34.97,50.00,9.00,0.00,30.01,M,10.00,M,CLR,M,M,M,M,M,M,M,M,M,M,M,M,M,M,82.76,KBVU 031755Z AUTO 05009KT 10SM CLR 29/12 A3001 RMK AO2 LTG DSNT E,M
RNO,2022-10-03 17:55,-119.7711,39.4839,1341.00,66.00,36.00,32.88,0.00,0.00,0.00,30.23,1019.40,10.00,M,CLR,M,M,M,M,M,M,M,M,M,M,M,M,M,M,66.00,KRNO 031755Z 00000KT 10SM CLR 19/02 A3023 RMK AO2 SLP194 T01890022 10189 20083 50000,M
05U,2022-10-03 17:55,-116.0051,39.6042,1811.23,66.20,26.60,22.33,350.00,5.00,0.00,30.31,M,10.00,M,CLR,M,M,M,M,M,M,M,M,M,M,M,M,M,M,66.20,K05U 031755Z AUTO 35005KT 10SM CLR 19/M03 A3031 RMK A01,M
MEV,2022-10-03 17:55,-119.7500,38.9963,1441.42,66.20,33.80,29.92,M,3.00,0.00,30.24,M,9.00,M,CLR,M,M,M,M,M,M,M,M,M,M,M,M,M,M,66.20,KMEV 031755Z AUTO VRB03KT 9SM CLR 19/01 A3024 RMK AO2,M
BAM,2022-10-03 17:55,-116.8743,40.5990,1382.36,64.40,32.00,29.63,0.00,0.00,0.00,30.26,M,10.00,M,CLR,M,M,M,M,M,M,M,M,M,M,M,M,M,M,64.40,KBAM 031755Z AUTO 00000KT 10SM CLR 18/00 A3026 RMK AO1,M
HTH,2022-10-03 17:55,-118.6315,38.5448,1282.89,66.20,33.80,29.92,330.00,6.00,0.00,30.23,M,10.00,M,CLR,M,M,M,M,M,M,M,M,M,M,M,M,M,M,66.20,KHTH 031755Z AUTO 33006KT 10SM CLR 19/01 A3023 RMK A01,M
TMT,2022-10-03 17:55,-117.1971,39.4643,1749.34,M,M,M,0.00,0.00,0.00,30.30,M,10.00,M,CLR,M,M,M,M,M,M,M,M,M,M,M,M,M,M,M,KTMT 031755Z AUTO 00000KT 10SM CLR A3030 RMK AO2,M
LSV,2022-10-03 17:56,-115.0343,36.2362,570.00,87.30,51.00,28.89,40.00,10.00,0.00,29.98,1013.00,10.00,M,CLR,M,M,M,M,M,M,M,M,M,M,M,M,M,M,84.84,KLSV 031756Z AUTO 04010KT 10SM CLR 31/11 A2998 RMK AO2 SLP130 T03070106 10307 20195 50000 $,M
EKO,2022-10-03 17:56,-115.7860,40.8242,1367.00,64.00,34.00,32.56,280.00,3.00,0.00,30.26,1021.60,10.00,M,CLR,M,M,M,M,M,M,M,M,M,M,M,M,M,M,64.00,KEKO 031756Z AUTO 28003KT 10SM CLR 18/01 A3026 RMK AO2 SLP216 T01780011 10178 20006 58002,M
WMC,2022-10-03 17:56,-117.8072,40.9019,1315.00,70.00,34.00,26.46,40.00,9.00,0.00,30.24,1021.20,10.00,M,CLR,M,M,M,M,M,M,M,M,M,M,M,M,M,M,70.00,KWMC 031756Z AUTO 04009KT 10SM CLR 21/01 A3024 RMK AO2 SLP212 T02110011 10211 20022 50002,M
NFL,2022-10-03 17:56,-118.7010,39.4166,1199.00,70.00,32.00,24.42,0.00,0.00,0.00,30.21,1019.20,10.00,M,CLR,M,M,M,M,M,M,M,M,M,M,M,M,M,M,70.00,KNFL 031756Z 00000KT 10SM CLR 21/00 A3021 RMK AO2 SLP192 T02110000 10211 20056 50004,M
HND,2022-10-03 17:56,-115.1344,35.9729,742.79,83.00,52.00,34.39,20.00,4.00,0.00,30.06,1016.90,10.00,M,CLR,M,M,M,M,M,M,M,M,M,M,M,M,M,M,81.57,KHND 031756Z 02004KT 10SM CLR 28/11 A3006 RMK AO2 SLP169 T02830111 10283 20217 50003,M
INS,2022-10-03 17:56,-115.6733,36.5872,955.00,80.00,37.60,21.92,0.00,0.00,0.00,30.07,1014.00,10.00,M,CLR,M,M,M,M,M,M,M,M,M,M,M,M,M,M,79.90,KINS 031756Z AUTO 00000KT 10SM CLR 27/03 A3007 RMK AO2 SLP140 T02660031 10266 20146 50001 $,M
TPH,2022-10-03 17:56,-117.0904,38.0505,1654.00,73.00,27.00,17.99,340.00,5.00,0.00,30.23,1017.60,10.00,M,CLR,M,M,M,M,M,M,M,M,M,M,M,M,M,M,73.00,KTPH 031756Z AUTO 34005KT 10SM CLR 23/M03 A3023 RMK AO2 SLP176 T02281028 10228 20100 50001,M
LAS,2022-10-03 17:56,-115.1634,36.0719,663.00,83.00,51.00,33.27,0.00,0.00,0.00,30.02,1014.30,10.00,M,FEW,M,M,M,11000.00,M,M,M,M,M,M,M,M,M,M,81.45,KLAS 031756Z 00000KT 10SM FEW110 28/11 A3002 RMK AO2 SLP143 CB DSNT E-SE TCU DSNT N T02830106 10294 20228 50002,M
RTS,2022-10-03 17:59,-119.8764,39.6682,1539.00,69.80,30.20,22.86,M,5.00,0.00,30.25,M,10.00,M,CLR,M,M,M,M,M,M,M,M,M,M,M,M,M,M,69.80,KRTS 031759Z AUTO VRB05KT 10SM CLR 21/M01 A3025 RMK AO2,M
CXP,2022-10-03 18:10,-119.7326,39.1923,1431.00,68.00,33.80,28.11,0.00,0.00,0.00,30.25,M,10.00,M,CLR,M,M,M,M,M,M,M,M,M,M,M,M,M,M,68.00,KCXP 031810Z AUTO 00000KT 10SM CLR 20/01 A3025 RMK AO2,M
MEV,2022-10-03 18:15,-119.7500,38.9963,1441.42,68.00,33.80,28.11,0.00,0.00,0.00,30.23,M,5.00,M,CLR,M,M,M,M,M,M,M,HZ,M,M,M,M,M,M,68.00,KMEV 031815Z AUTO 00000KT 5SM HZ CLR 20/01 A3023 RMK AO2,M
BAM,2022-10-03 18:15,-116.8743,40.5990,1382.36,68.00,32.00,26.15,0.00,0.00,0.00,30.26,M,10.00,M,CLR,M,M,M,M,M,M,M,M,M,M,M,M,M,M,68.00,KBAM 031815Z AUTO 00000KT 10SM CLR 20/00 A3026 RMK AO1,M
HTH,2022-10-03 18:15,-118.6315,38.5448,1282.89,68.00,33.80,28.11,330.00,6.00,0.00,30.22,M,10.00,M,CLR,M,M,M,M,M,M,M,M,M,M,M,M,M,M,68.00,KHTH 031815Z AUTO 33006KT 10SM CLR 20/01 A3022 RMK A01,M
TMT,2022-10-03 18:15,-117.1971,39.4643,1749.34,65.30,30.90,27.47,90.00,3.00,0.00,30.29,M,10.00,M,CLR,M,M,M,M,M,M,M,M,M,M,M,M,M,M,65.30,KTMT 031815Z AUTO 09003KT 10SM CLR 19/M01 A3029 RMK AO2 T01851006,M
BVU,2022-10-03 18:15,-114.8611,35.9475,671.00,86.00,53.60,33.01,40.00,9.00,0.00,30.01,M,10.00,M,CLR,M,M,M,M,M,M,M,M,M,M,M,M,M,M,84.18,KBVU 031815Z AUTO 04009KT 10SM CLR 30/12 A3001 RMK AO2 LTG DSNT E,M
05U,2022-10-03 18:15,-116.0051,39.6042,1811.23,66.20,28.40,24.04,340.00,5.00,0.00,30.30,M,10.00,M,CLR,M,M,M,M,M,M,M,M,M,M,M,M,M,M,66.20,K05U 031815Z AUTO 34005KT 10SM CLR 19/M02 A3030 RMK A01,M
RTS,2022-10-03 18:19,-119.8764,39.6682,1539.00,71.60,30.20,21.50,150.00,7.00,0.00,30.24,M,10.00,M,CLR,M,M,M,M,M,M,M,M,M,M,M,M,M,M,71.60,KRTS 031819Z AUTO 15007KT 100V180 10SM CLR 22/M01 A3024 RMK AO2,M
CXP,2022-10-03 18:30,-119.7326,39.1923,1431.00,69.80,32.00,24.59,M,4.00,0.00,30.24,M,10.00,M,CLR,M,M,M,M,M,M,M,M,M,M,M,M,M,M,69.80,KCXP 031830Z AUTO VRB04KT 10SM CLR 21/00 A3024 RMK AO2,M
MEV,2022-10-03 18:35,-119.7500,38.9963,1441.42,69.80,32.00,24.59,0.00,0.00,0.00,30.22,M,4.00,M,CLR,M,M,M,M,M,M,M,-RA HZ,M,M,M,M,M,M,69.80,KMEV 031835Z AUTO 00000KT 4SM -RA HZ CLR 21/00 A3022 RMK AO2,M
TMT,2022-10-03 18:35,-117.1971,39.4643,1749.34,M,M,M,0.00,0.00,0.00,30.28,M,10.00,M,CLR,M,M,M,M,M,M,M,M,M,M,M,M,M,M,M,KTMT 031835Z AUTO 00000KT 10SM CLR A3028 RMK AO2,M
BVU,2022-10-03 18:35,-114.8611,35.9475,671.00,86.00,53.60,33.01,40.00,9.00,0.00,30.00,M,10.00,M,CLR,M,M,M,M,M,M,M,M,M,M,M,M,M,M,84.18,KBVU 031835Z AUTO 04009KT 10SM CLR 30/12 A3000 RMK AO2 LTG DSNT E AND SE,M
HTH,2022-10-03 18:35,-118.6315,38.5448,1282.89,68.00,33.80,28.11,320.00,5.00,0.00,30.22,M,10.00,M,CLR,M,M,M,M,M,M,M,M,M,M,M,M,M,M,68.00,KHTH 031835Z AUTO 32005KT 10SM CLR 20/01 A3022 RMK A01,M
BAM,2022-10-03 18:35,-116.8743,40.5990,1382.36,69.80,32.00,24.59,50.00,3.00,0.00,30.25,M,10.00,M,CLR,M,M,M,M,M,M,M,M,M,M,M,M,M,M,69.80,KBAM 031835Z AUTO 05003KT 10SM CLR 21/00 A3025 RMK AO1,M
05U,2022-10-03 18:35,-116.0051,39.6042,1811.23,68.00,28.40,22.59,30.00,6.00,0.00,30.30,M,10.00,M,CLR,M,M,M,M,M,M,M,M,M,M,M,M,M,M,68.00,K05U 031835Z AUTO 03006KT 10SM CLR 20/M02 A3030 RMK A01,M
RTS,2022-10-03 18:39,-119.8764,39.6682,1539.00,73.40,28.40,18.80,110.00,11.00,0.00,30.24,M,10.00,M,CLR,M,M,M,M,M,M,M,M,M,M,M,M,M,M,73.40,KRTS 031839Z AUTO 11011KT 10SM CLR 23/M02 A3024 RMK AO2,M
CXP,2022-10-03 18:50,-119.7326,39.1923,1431.00,73.40,32.00,21.76,90.00,6.00,0.00,30.23,M,10.00,M,CLR,M,M,M,M,M,M,M,M,M,M,M,M,M,M,73.40,KCXP 031850Z AUTO 09006KT 10SM CLR 23/M00 A3023 RMK AO2,M
DRA,2022-10-03 18:53,-116.0278,36.6206,1009.00,85.00,41.00,21.28,M,4.00,0.00,30.06,1013.50,10.00,M,CLR,M,M,M,M,M,M,M,M,M,M,M,M,M,M,82.03,KDRA 031853Z AUTO VRB04KT 10SM CLR 29/05 A3006 RMK AO2 SLP135 T02940050,M
P68,2022-10-03 18:53,-116.0056,39.6014,1993.00,68.00,28.90,23.06,M,6.00,0.00,30.27,1019.80,M,M,M,M,M,M,M,M,M,M,M,M,M,M,M,M,M,68.00,KP68 031853Z AUTO VRB06KT 20/M02 A3027 RMK AO1 SLP198 T02001017,M
ELY,2022-10-03 18:53,-114.8453,39.2950,1909.00,68.00,28.00,22.23,30.00,9.00,0.00,30.26,1018.00,10.00,M,CLR,M,M,M,M,M,M,M,M,M,M,M,M,M,M,68.00,KELY 031853Z AUTO 03009KT 10SM CLR 20/M02 A3026 RMK AO2 SLP180 T02001022,M
VGT,2022-10-03 18:53,-115.1933,36.2111,667.00,88.00,50.00,27.12,90.00,7.00,0.00,29.99,1014.80,10.00,M,CLR,M,M,M,M,M,M,M,M,M,M,M,M,M,M,85.28,KVGT 031853Z 09007KT 10SM CLR 31/10 A2999 RMK AO2 SLP148 T03110100,M
LOL,2022-10-03 18:53,-118.5701,40.0684,1192.43,76.00,32.00,20.01,0.00,0.00,0.00,30.19,1020.10,10.00,M,CLR,M,M,M,M,M,M,M,M,M,M,M,M,M,M,75.90,KLOL 031853Z AUTO 00000KT 10SM CLR 24/00 A3019 RMK AO2 SLP201 T02440000,M
MEV,2022-10-03 18:55,-119.7500,38.9963,1441.42,71.60,33.80,24.86,0.00,0.00,0.00,30.22,M,6.00,M,M,M,M,M,M,M,M,M,UP HZ,M,M,M,M,M,M,71.60,KMEV 031855Z AUTO 00000KT 6SM UP HZ 22/01 A3022 RMK AO2,M
BAM,2022-10-03 18:55,-116.8743,40.5990,1382.36,71.60,32.00,23.13,30.00,3.00,0.00,30.24,M,10.00,M,CLR,M,M,M,M,M,M,M,M,M,M,M,M,M,M,71.60,KBAM 031855Z AUTO 03003KT 10SM CLR 22/00 A3024 RMK AO1,M
RNO,2022-10-03 18:55,-119.7711,39.4839,1341.00,73.00,35.00,24.97,M,3.00,0.00,30.21,1018.50,10.00,M,CLR,M,M,M,M,M,M,M,M,M,M,M,M,M,M,73.00,KRNO 031855Z VRB03KT 10SM CLR 23/02 A3021 RMK AO2 SLP185 T02280017,M
BVU,2022-10-03 18:55,-114.8611,35.9475,671.00,86.00,53.60,33.01,50.00,8.00,0.00,29.99,M,10.00,14.00,CLR,M,M,M,M,M,M,M,M,M,M,M,M,M,M,84.18,KBVU 031855Z AUTO 05008G14KT 10SM CLR 30/12 A2999 RMK AO2,M
HTH,2022-10-03 18:55,-118.6315,38.5448,1282.89,71.60,30.20,21.50,330.00,7.00,0.00,30.21,M,10.00,M,CLR,M,M,M,M,M,M,M,M,M,M,M,M,M,M,71.60,KHTH 031855Z AUTO 33007KT 10SM CLR 22/M01 A3021 RMK A01,M
TMT,2022-10-03 18:55,-117.1971,39.4643,1749.34,68.00,29.80,23.92,30.00,3.00,0.00,30.28,M,10.00,M,CLR,M,M,M,M,M,M,M,M,M,M,M,M,M,M,68.00,KTMT 031855Z AUTO 03003KT 10SM CLR 20/M01 A3028 RMK AO2 T02001012,M
05U,2022-10-03 18:55,-116.0051,39.6042,1811.23,68.00,28.40,22.59,M,5.00,0.00,30.29,M,10.00,10.00,CLR,M,M,M,M,M,M,M,M,M,M,M,M,M,M,68.00,K05U 031855Z AUTO VRB05G10KT 10SM CLR 20/M02 A3029 RMK A01,M
WMC,2022-10-03 18:56,-117.8072,40.9019,1315.00,74.00,34.00,23.19,30.00,6.00,0.00,30.22,1020.70,10.00,M,CLR,M,M,M,M,M,M,M,M,M,M,M,M,M,M,73.90,KWMC 031856Z AUTO 03006KT 10SM CLR 23/01 A3022 RMK AO2 SLP207 T02330011,M
TPH,2022-10-03 18:56,-117.0904,38.0505,1654.00,75.00,26.10,16.21,310.00,7.00,0.00,30.22,1017.10,10.00,M,CLR,M,M,M,M,M,M,M,M,M,M,M,M,M,M,75.00,KTPH 031856Z AUTO 31007KT 280V360 10SM CLR 24/M03 A3022 RMK AO2 SLP171 T02391033,M
LSV,2022-10-03 18:56,-115.0343,36.2362,570.00,90.30,51.80,26.96,60.00,9.00,0.00,29.96,1012.20,10.00,M,CLR,M,M,M,M,M,M,M,M,M,M,M,M,M,M,87.65,KLSV 031856Z AUTO 06009KT 10SM CLR 32/11 A2996 RMK AO2 SLP122 T03240110 $,M
EKO,2022-10-03 18:56,-115.7860,40.8242,1367.00,70.00,34.00,26.46,0.00,0.00,0.00,30.23,1020.40,10.00,M,CLR,M,M,M,M,M,M,M,M,M,M,M,M,M,M,70.00,KEKO 031856Z AUTO 00000KT 10SM CLR 21/01 A3023 RMK AO2 SLP204 T02110011,M
INS,2022-10-03 18:56,-115.6733,36.5872,955.00,84.20,37.40,18.91,0.00,0.00,0.00,30.05,1013.20,10.00,M,CLR,M,M,M,M,M,M,M,M,M,M,M,M,M,M,81.38,KINS 031856Z AUTO 00000KT 10SM CLR 29/03 A3005 RMK AO2 SLP132 T02900030 $,M
HND,2022-10-03 18:56,-115.1344,35.9729,742.79,85.00,53.00,33.57,M,4.00,0.00,30.04,1016.10,10.00,M,CLR,M,M,M,M,M,M,M,M,M,M,M,M,M,M,83.21,KHND 031856Z VRB04KT 10SM CLR 29/12 A3004 RMK AO2 SLP161 T02940117,M
LAS,2022-10-03 18:56,-115.1634,36.0719,663.00,86.00,51.00,30.11,50.00,7.00,0.00,30.00,1013.60,10.00,M,FEW,M,M,M,11000.00,M,M,M,M,M,M,M,M,M,M,83.77,KLAS 031856Z 05007KT 10SM FEW110 30/11 A3000 RMK AO2 SLP136 CB DSNT SE-S T03000106,M
NFL,2022-10-03 18:56,-118.7010,39.4166,1199.00,73.00,30.90,21.10,M,4.00,0.00,30.19,1018.70,10.00,M,CLR,M,M,M,M,M,M,M,M,M,M,M,M,M,M,73.00,KNFL 031856Z VRB04KT 10SM CLR 23/M01 A3019 RMK AO2 SLP187 T02281006 $,M
RTS,2022-10-03 18:59,-119.8764,39.6682,1539.00,73.40,24.80,16.20,100.00,10.00,0.00,30.24,M,10.00,16.00,CLR,M,M,M,M,M,M,M,M,M,M,M,M,M,M,73.40,KRTS 031859Z AUTO 10010G16KT 10SM CLR 23/M04 A3024 RMK AO2,M
CXP,2022-10-03 19:10,-119.7326,39.1923,1431.00,73.40,32.00,21.76,120.00,5.00,0.00,30.23,M,10.00,10.00,CLR,M,M,M,M,M,M,M,M,M,M,M,M,M,M,73.40,KCXP 031910Z AUTO 12005G10KT 10SM CLR 23/M00 A3023 RMK AO2,M
TMT,2022-10-03 19:15,-117.1971,39.4643,1749.34,M,M,M,360.00,5.00,0.00,30.27,M,10.00,M,CLR,M,M,M,M,M,M,M,M,M,M,M,M,M,M,M,KTMT 031915Z AUTO 36005KT 10SM CLR A3027 RMK AO2,M
BVU,2022-10-03 19:15,-114.8611,35.9475,671.00,86.00,53.60,33.01,50.00,8.00,0.00,29.99,M,10.00,M,CLR,M,M,M,M,M,M,M,M,M,M,M,M,M,M,84.18,KBVU 031915Z AUTO 05008KT 020V080 10SM CLR 30/12 A2999 RMK AO2 LTG DSNT SE,M
05U,2022-10-03 19:15,-116.0051,39.6042,1811.23,68.00,28.40,22.59,20.00,8.00,0.00,30.29,M,10.00,M,CLR,M,M,M,M,M,M,M,M,M,M,M,M,M,M,68.00,K05U 031915Z AUTO 02008KT 10SM CLR 20/M02 A3029 RMK A01,M
MEV,2022-10-03 19:15,-119.7500,38.9963,1441.42,73.40,30.20,20.23,320.00,3.00,0.00,30.21,M,9.00,M,M,M,M,M,M,M,M,M,M,M,M,M,M,M,M,73.40,KMEV 031915Z AUTO 32003KT 9SM 23/M01 A3021 RMK AO2,M
BAM,2022-10-03 19:15,-116.8743,40.5990,1382.36,71.60,32.00,23.13,40.00,4.00,0.00,30.24,M,10.00,M,CLR,M,M,M,M,M,M,M,M,M,M,M,M,M,M,71.60,KBAM 031915Z AUTO 04004KT 10SM CLR 22/00 A3024 RMK AO1,M
HTH,2022-10-03 19:15,-118.6315,38.5448,1282.89,71.60,28.40,19.98,340.00,7.00,0.00,30.20,M,10.00,M,CLR,M,M,M,M,M,M,M,M,M,M,M,M,M,M,71.60,KHTH 031915Z AUTO 34007KT 10SM CLR 22/M02 A3020 RMK A01,M
RTS,2022-10-03 19:19,-119.8764,39.6682,1539.00,73.40,24.80,16.20,80.00,6.00,0.00,30.23,M,10.00,16.00,CLR,M,M,M,M,M,M,M,M,M,M,M,M,M,M,73.40,KRTS 031919Z AUTO 08006G16KT 10SM CLR 23/M04 A3023 RMK AO2,M
CXP,2022-10-03 19:30,-119.7326,39.1923,1431.00,75.20,28.40,17.70,70.00,8.00,0.00,30.22,M,10.00,M,CLR,M,M,M,M,M,M,M,M,M,M,M,M,M,M,75.20,KCXP 031930Z AUTO 07008KT 10SM CLR 24/M02 A3022 RMK AO2,M
HTH,2022-10-03 19:35,-118.6315,38.5448,1282.89,73.40,28.40,18.80,320.00,6.00,0.00,30.20,M,10.00,M,CLR,M,M,M,M,M,M,M,M,M,M,M,M,M,M,73.40,KHTH 031935Z AUTO 32006KT 10SM CLR 23/M02 A3020 RMK A01,M
TMT,2022-10-03 19:35,-117.1971,39.4643,1749.34,M,M,M,70.00,6.00,0.00,30.27,M,10.00,M,CLR,M,M,M,M,M,M,M,M,M,M,M,M,M,M,M,KTMT 031935Z AUTO 07006KT 10SM CLR A3027 RMK AO2,M
BVU,2022-10-03 19:35,-114.8611,35.9475,671.00,87.80,51.80,29.18,60.00,9.00,0.00,29.99,M,10.00,M,CLR,M,M,M,M,M,M,M,M,M,M,M,M,M,M,85.39,KBVU 031935Z AUTO 06009KT 10SM CLR 31/11 A2999 RMK AO2,M
MEV,2022-10-03 19:35,-119.7500,38.9963,1441.42,M,M,M,M,M,0.00,M,M,M,M,M,M,M,M,M,M,M,M,M,M,M,M,M,M,M,M,KMEV 031935Z AUTO RMK AO2,M
05U,2022-10-03 19:35,-116.0051,39.6042,1811.23,69.80,28.40,21.24,30.00,8.00,0.00,30.29,M,10.00,M,CLR,M,M,M,M,M,M,M,M,M,M,M,M,M,M,69.80,K05U 031935Z AUTO 03008KT 360V060 10SM CLR 21/M02 A3029 RMK A01,M
BAM,2022-10-03 19:35,-116.8743,40.5990,1382.36,73.40,33.80,23.39,70.00,3.00,0.00,30.23,M,10.00,M,CLR,M,M,M,M,M,M,M,M,M,M,M,M,M,M,73.40,KBAM 031935Z AUTO 07003KT 10SM CLR 23/01 A3023 RMK AO1,M
RTS,2022-10-03 19:39,-119.8764,39.6682,1539.00,73.40,26.60,17.46,M,6.00,0.00,30.23,M,10.00,12.00,CLR,M,M,M,M,M,M,M,M,M,M,M,M,M,M,73.40,KRTS 031939Z AUTO VRB06G12KT 10SM CLR 23/M03 A3023 RMK AO2,M
CXP,2022-10-03 19:50,-119.7326,39.1923,1431.00,75.20,28.40,17.70,90.00,7.00,0.00,30.22,M,10.00,13.00,CLR,M,M,M,M,M,M,M,M,M,M,M,M,M,M,75.20,KCXP 031950Z AUTO 09007G13KT 10SM CLR 24/M02 A3022 RMK AO2,M
LOL,2022-10-03 19:53,-118.5701,40.0684,1192.43,78.00,30.90,17.80,340.00,7.00,0.00,30.17,1019.30,10.00,M,CLR,M,M,M,M,M,M,M,M,M,M,M,M,M,M,78.10,KLOL 031953Z AUTO 34007KT 10SM CLR 26/M01 A3017 RMK AO2 SLP193 T02561006,M
DRA,2022-10-03 19:53,-116.0278,36.6206,1009.00,86.00,42.00,21.43,230.00,5.00,0.00,30.04,1012.90,10.00,M,CLR,M,M,M,M,M,M,M,M,M,M,M,M,M,M,82.92,KDRA 031953Z AUTO 23005KT 10SM CLR 30/06 A3004 RMK AO2 SLP129 T03000056,M
VGT,2022-10-03 19:53,-115.1933,36.2111,667.00,91.00,50.00,24.68,100.00,8.00,0.00,29.97,1014.00,10.00,M,CLR,M,M,M,M,M,M,M,M,M,M,M,M,M,M,87.99,KVGT 031953Z 10008KT 10SM CLR 33/10 A2997 RMK AO2 LTG DSNT W SLP140 T03280100,M
ELY,2022-10-03 19:53,-114.8453,39.2950,1909.00,70.00,27.00,19.92,10.00,8.00,0.00,30.24,1017.60,10.00,M,CLR,M,M,M,M,M,M,M,M,M,M,M,M,M,M,70.00,KELY 031953Z AUTO 01008KT 10SM CLR 21/M03 A3024 RMK AO2 SLP176 T02111028,M
P68,2022-10-03 19:53,-116.0056,39.6014,1993.00,69.00,28.00,21.40,M,5.00,0.00,30.26,1019.00,M,M,M,M,M,M,M,M,M,M,M,M,M,M,M,M,M,69.10,KP68 031953Z AUTO VRB05KT 21/M02 A3026 RMK AO1 SLP190 T02061022,M
05U,2022-10-03 19:55,-116.0051,39.6042,1811.23,69.80,26.60,19.72,340.00,5.00,0.00,30.28,M,10.00,11.00,CLR,M,M,M,M,M,M,M,M,M,M,M,M,M,M,69.80,K05U 031955Z AUTO 34005G11KT 10SM CLR 21/M03 A3028 RMK A01,M
BVU,2022-10-03 19:55,-114.8611,35.9475,671.00,87.80,50.00,27.29,70.00,8.00,0.00,29.98,M,10.00,M,CLR,M,M,M,M,M,M,M,M,M,M,M,M,M,M,85.11,KBVU 031955Z AUTO 07008KT 10SM CLR 31/10 A2998 RMK AO2,M
RNO,2022-10-03 19:55,-119.7711,39.4839,1341.00,79.00,34.00,19.57,230.00,4.00,0.00,30.19,1017.60,10.00,M,CLR,M,M,M,M,M,M,M,M,M,M,M,M,M,M,79.00,KRNO 031955Z 23004KT 10SM CLR 26/01 A3019 RMK AO2 SLP176 T02610011,M
MEV,2022-10-03 19:55,-119.7500,38.9963,1441.42,75.20,30.20,19.05,M,4.00,0.00,30.20,M,2.00,M,M,M,M,M,M,M,M,M,-RA HZ,M,M,M,M,M,M,75.20,KMEV 031955Z AUTO VRB04KT 2SM -RA HZ 24/M01 A3020 RMK AO2 VIS 3/4V5,M
BAM,2022-10-03 19:55,-116.8743,40.5990,1382.36,73.40,32.00,21.76,320.00,3.00,0.00,30.23,M,10.00,M,CLR,M,M,M,M,M,M,M,M,M,M,M,M,M,M,73.40,KBAM 031955Z AUTO 32003KT 10SM CLR 23/00 A3023 RMK AO1,M
HTH,2022-10-03 19:55,-118.6315,38.5448,1282.89,75.20,28.40,17.70,330.00,8.00,0.00,30.19,M,10.00,M,CLR,M,M,M,M,M,M,M,M,M,M,M,M,M,M,75.20,KHTH 031955Z AUTO 33008KT 10SM CLR 24/M02 A3019 RMK A01,M
TMT,2022-10-03 19:55,-117.1971,39.4643,1749.34,M,M,M,20.00,5.00,0.00,30.26,M,10.00,M,CLR,M,M,M,M,M,M,M,M,M,M,M,M,M,M,M,KTMT 031955Z AUTO 02005KT 10SM CLR A3026 RMK AO2 LTG DSNT SE,M
NFL,2022-10-03 19:56,-118.7010,39.4166,1199.00,77.00,30.90,18.46,350.00,6.00,0.00,30.17,1018.10,10.00,M,CLR,M,M,M,M,M,M,M,M,M,M,M,M,M,M,77.00,KNFL 031956Z AUTO 35006KT 10SM CLR 25/M01 A3017 RMK AO2 SLP181 T02501006,M
EKO,2022-10-03 19:56,-115.7860,40.8242,1367.00,71.00,35.00,26.63,M,6.00,0.00,30.22,1020.50,10.00,M,CLR,M,M,M,M,M,M,M,M,M,M,M,M,M,M,71.10,KEKO 031956Z AUTO VRB06KT 10SM CLR 22/02 A3022 RMK AO2 SLP205 T02170017,M
TPH,2022-10-03 19:56,-117.0904,38.0505,1654.00,76.00,27.00,16.32,290.00,12.00,0.00,30.21,1016.90,10.00,18.00,CLR,M,M,M,M,M,M,M,M,M,M,M,M,M,M,75.90,KTPH 031956Z AUTO 29012G18KT 10SM CLR 24/M03 A3021 RMK AO2 SLP169 T02441028,M
HND,2022-10-03 19:56,-115.1344,35.9729,742.79,87.00,52.00,30.05,40.00,3.00,0.00,30.02,1015.30,10.00,M,CLR,M,M,M,M,M,M,M,M,M,M,M,M,M,M,84.82,KHND 031956Z 04003KT 10SM CLR 31/11 A3002 RMK AO2 LTG DSNT NW SLP153 T03060111,M
WMC,2022-10-03 19:56,-117.8072,40.9019,1315.00,77.00,33.00,20.17,350.00,7.00,0.00,30.20,1019.70,10.00,M,CLR,M,M,M,M,M,M,M,M,M,M,M,M,M,M,77.00,KWMC 031956Z AUTO 35007KT 10SM CLR 25/01 A3020 RMK AO2 SLP197 T02500006,M
LAS,2022-10-03 19:56,-115.1634,36.0719,663.00,86.00,51.00,30.11,0.00,0.00,0.00,29.98,1012.90,10.00,M,FEW,FEW,M,M,11000.00,25000.00,M,M,M,M,M,M,M,M,M,83.77,KLAS 031956Z 00000KT 10SM FEW110 FEW250 30/11 A2998 RMK AO2 LTG DSNT W AND NW SLP129 CB DSNT SE-S TCU DSNT W T03000106,M
LSV,2022-10-03 19:56,-115.0343,36.2362,570.00,91.60,50.70,24.86,50.00,7.00,0.00,29.93,1011.20,10.00,M,CLR,M,M,M,M,M,M,M,M,M,M,M,M,M,M,88.68,KLSV 031956Z AUTO 05007KT 10SM CLR 33/10 A2993 RMK AO2 SLP112 T03310104 $,M
INS,2022-10-03 19:56,-115.6733,36.5872,955.00,85.60,38.70,19.03,0.00,0.00,0.00,30.03,1012.50,10.00,M,CLR,M,M,M,M,M,M,M,M,M,M,M,M,M,M,82.46,KINS 031956Z AUTO 00000KT 10SM CLR 30/04 A3003 RMK AO2 SLP125 T02980037 $,M
RTS,2022-10-03 19:59,-119.8764,39.6682,1539.00,75.20,26.60,16.43,140.00,5.00,0.00,30.22,M,10.00,13.00,CLR,M,M,M,M,M,M,M,M,M,M,M,M,M,M,75.20,KRTS 031959Z AUTO 14005G13KT 10SM CLR 24/M03 A3022 RMK AO2,M
CXP,2022-10-03 20:10,-119.7326,39.1923,1431.00,75.20,28.40,17.70,M,5.00,0.00,30.21,M,10.00,11.00,CLR,M,M,M,M,M,M,M,M,M,M,M,M,M,M,75.20,KCXP 032010Z AUTO VRB05G11KT 10SM CLR 24/M02 A3021 RMK AO2,M
HTH,2022-10-03 20:15,-118.6315,38.5448,1282.89,77.00,28.40,16.67,340.00,9.00,0.00,30.18,M,10.00,M,CLR,M,M,M,M,M,M,M,M,M,M,M,M,M,M,77.00,KHTH 032015Z AUTO 34009KT 10SM CLR 25/M02 A3018 RMK A01,M
TMT,2022-10-03 20:15,-117.1971,39.4643,1749.34,M,M,M,350.00,8.00,0.00,30.25,M,10.00,M,CLR,M,M,M,M,M,M,M,M,M,M,M,M,M,M,M,KTMT 032015Z AUTO 35008KT 330V040 10SM CLR A3025 RMK AO2,M
BVU,2022-10-03 20:15,-114.8611,35.9475,671.00,89.60,48.20,24.11,40.00,8.00,0.00,29.97,M,10.00,M,CLR,M,M,M,M,M,M,M,M,M,M,M,M,M,M,86.44,KBVU 032015Z AUTO 04008KT 10SM CLR 32/09 A2997 RMK AO2,M
05U,2022-10-03 20:15,-116.0051,39.6042,1811.23,71.60,26.60,18.55,10.00,7.00,0.00,30.27,M,10.00,13.00,CLR,M,M,M,M,M,M,M,M,M,M,M,M,M,M,71.60,K05U 032015Z AUTO 01007G13KT 340V050 10SM CLR 22/M03 A3027 RMK A01,M
MEV,2022-10-03 20:15,-119.7500,38.9963,1441.42,75.20,30.20,19.05,300.00,6.00,0.00,30.19,M,M,M,M,M,M,M,M,M,M,M,M,M,M,M,M,M,M,75.20,KMEV 032015Z AUTO 30006KT 24/M01 A3019 RMK AO2,M
BAM,2022-10-03 20:15,-116.8743,40.5990,1382.36,75.20,32.00,20.49,340.00,4.00,0.00,30.21,M,10.00,M,CLR,M,M,M,M,M,M,M,M,M,M,M,M,M,M,75.20,KBAM 032015Z AUTO 34004KT 10SM CLR 24/00 A3021 RMK AO1,M
RTS,2022-10-03 20:19,-119.8764,39.6682,1539.00,75.20,23.00,14.15,120.00,8.00,0.00,30.22,M,10.00,M,CLR,M,M,M,M,M,M,M,M,M,M,M,M,M,M,75.20,KRTS 032019Z AUTO 12008KT 10SM CLR 24/M05 A3022 RMK AO2,M
CXP,2022-10-03 20:30,-119.7326,39.1923,1431.00,77.00,28.40,16.67,90.00,9.00,0.00,30.20,M,10.00,M,CLR,M,M,M,M,M,M,M,M,M,M,M,M,M,M,77.00,KCXP 032030Z AUTO 09009KT 10SM CLR 25/M02 A3020 RMK AO2,M
TMT,2022-10-03 20:35,-117.1971,39.4643,1749.34,M,M,M,20.00,3.00,0.00,30.25,M,10.00,M,CLR,M,M,M,M,M,M,M,M,M,M,M,M,M,M,M,KTMT 032035Z AUTO 02003KT 10SM CLR A3025 RMK AO2,M
BVU,2022-10-03 20:35,-114.8611,35.9475,671.00,87.80,48.20,25.52,M,6.00,0.00,29.96,M,10.00,14.00,CLR,M,M,M,M,M,M,M,M,M,M,M,M,M,M,84.87,KBVU 032035Z AUTO VRB06G14KT 10SM CLR 31/09 A2996 RMK AO2,M
05U,2022-10-03 20:35,-116.0051,39.6042,1811.23,71.60,26.60,18.55,M,5.00,0.00,30.27,M,10.00,M,CLR,M,M,M,M,M,M,M,M,M,M,M,M,M,M,71.60,K05U 032035Z AUTO VRB05KT 10SM CLR 22/M03 A3027 RMK A01,M
BAM,2022-10-03 20:35,-116.8743,40.5990,1382.36,75.20,32.00,20.49,10.00,6.00,0.00,30.21,M,10.00,M,CLR,M,M,M,M,M,M,M,M,M,M,M,M,M,M,75.20,KBAM 032035Z AUTO 01006KT 10SM CLR 24/00 A3021 RMK AO1,M
MEV,2022-10-03 20:35,-119.7500,38.9963,1441.42,77.00,30.20,17.94,340.00,6.00,0.00,30.19,M,6.00,M,M,M,M,M,M,M,M,M,HZ,M,M,M,M,M,M,77.00,KMEV 032035Z AUTO 34006KT 6SM HZ 25/M01 A3019 RMK AO2,M
HTH,2022-10-03 20:35,-118.6315,38.5448,1282.89,77.00,26.60,15.48,310.00,9.00,0.00,30.17,M,10.00,M,CLR,M,M,M,M,M,M,M,M,M,M,M,M,M,M,77.00,KHTH 032035Z AUTO 31009KT 10SM CLR 25/M03 A3017 RMK A01,M
RTS,2022-10-03 20:39,-119.8764,39.6682,1539.00,75.20,24.80,15.25,0.00,0.00,0.00,30.21,M,10.00,11.00,CLR,M,M,M,M,M,M,M,M,M,M,M,M,M,M,75.20,KRTS 032039Z AUTO 00000G11KT 10SM CLR 24/M04 A3021 RMK AO2,M
CXP,2022-10-03 20:50,-119.7326,39.1923,1431.00,77.00,28.40,16.67,50.00,4.00,0.00,30.20,M,10.00,12.00,CLR,M,M,M,M,M,M,M,M,M,M,M,M,M,M,77.00,KCXP 032050Z AUTO 05004G12KT 10SM CLR 25/M02 A3020 RMK AO2,M
P68,2022-10-03 20:53,-116.0056,39.6014,1993.00,70.00,27.00,19.92,20.00,8.00,0.00,30.23,1018.60,M,M,M,M,M,M,M,M,M,M,M,M,M,M,M,M,M,70.00,KP68 032053Z AUTO 02008KT 21/M03 A3023 RMK AO1 SLP186 T02111028 58013,M
DRA,2022-10-03 20:53,-116.0278,36.6206,1009.00,87.00,37.00,16.97,210.00,7.00,0.00,30.02,1012.00,10.00,M,CLR,M,M,M,M,M,M,M,M,M,M,M,M,M,M,83.59,KDRA 032053Z AUTO 21007KT 10SM CLR 31/03 A3002 RMK AO2 SLP120 T03060028 58018,M
ELY,2022-10-03 20:53,-114.8453,39.2950,1909.00,71.00,26.10,18.48,M,M,0.00,30.22,1016.60,10.00,M,CLR,M,M,M,M,M,M,M,M,M,M,M,M,M,M,71.10,KELY 032053Z AUTO 10SM CLR 22/M03 A3022 RMK AO2 SLP166 T02171033 58015,M
VGT,2022-10-03 20:53,-115.1933,36.2111,667.00,90.00,48.00,23.63,M,5.00,0.00,29.95,1013.30,10.00,M,CLR,M,M,M,M,M,M,M,M,M,M,M,M,M,M,86.78,KVGT 032053Z VRB05KT 10SM CLR 32/09 A2995 RMK AO2 SLP133 T03220089 58020,M
LOL,2022-10-03 20:53,-118.5701,40.0684,1192.43,80.00,32.00,17.42,M,4.00,0.00,30.15,1018.20,10.00,M,CLR,M,M,M,M,M,M,M,M,M,M,M,M,M,M,78.63,KLOL 032053Z AUTO VRB04KT 10SM CLR 27/00 A3015 RMK AO2 SLP182 T02670000 58017,M
BAM,2022-10-03 20:55,-116.8743,40.5990,1382.36,77.00,32.00,19.30,0.00,0.00,0.00,30.20,M,10.00,M,CLR,M,M,M,M,M,M,M,M,M,M,M,M,M,M,77.00,KBAM 032055Z AUTO 00000KT 10SM CLR 25/00 A3020 RMK AO1,M
HTH,2022-10-03 20:55,-118.6315,38.5448,1282.89,77.00,24.80,14.37,320.00,9.00,0.00,30.16,M,10.00,M,CLR,M,M,M,M,M,M,M,M,M,M,M,M,M,M,77.00,KHTH 032055Z AUTO 32009KT 10SM CLR 25/M04 A3016 RMK A01,M
05U,2022-10-03 20:55,-116.0051,39.6042,1811.23,71.60,26.60,18.55,0.00,0.00,0.00,30.26,M,10.00,11.00,CLR,M,M,M,M,M,M,M,M,M,M,M,M,M,M,71.60,K05U 032055Z AUTO 00000G11KT 10SM CLR 22/M03 A3026 RMK A01,M
TMT,2022-10-03 20:55,-117.1971,39.4643,1749.34,M,M,M,340.00,7.00,0.00,30.24,M,10.00,15.00,CLR,M,M,M,M,M,M,M,M,M,M,M,M,M,M,M,KTMT 032055Z AUTO 34007G15KT 10SM CLR A3024 RMK AO2,M
MEV,2022-10-03 20:55,-119.7500,38.9963,1441.42,77.00,30.20,17.94,330.00,4.00,0.00,30.18,M,3.00,10.00,CLR,M,M,M,M,M,M,M,HZ,M,M,M,M,M,M,77.00,KMEV 032055Z AUTO 33004G10KT 3SM HZ CLR 25/M01 A3018 RMK AO2,M
BVU,2022-10-03 20:55,-114.8611,35.9475,671.00,89.60,48.20,24.11,30.00,5.00,0.00,29.95,M,10.00,12.00,CLR,M,M,M,M,M,M,M,M,M,M,M,M,M,M,86.44,KBVU 032055Z AUTO 03005G12KT 10SM CLR 32/09 A2995 RMK AO2 LTG DSNT SE AND S,M
RNO,2022-10-03 20:55,-119.7711,39.4839,1341.00,81.00,33.00,17.68,M,3.00,0.00,30.17,1016.90,10.00,M,CLR,M,M,M,M,M,M,M,M,M,M,M,M,M,M,79.10,KRNO 032055Z VRB03KT 10SM CLR 27/01 A3017 RMK AO2 SLP169 T02720006 57017,M
NFL,2022-10-03 20:56,-118.7010,39.4166,1199.00,78.00,30.00,17.16,0.00,0.00,0.00,30.15,1017.50,10.00,M,CLR,M,M,M,M,M,M,M,M,M,M,M,M,M,M,78.10,KNFL 032056Z 00000KT 10SM CLR 26/M01 A3015 RMK AO2 SLP175 T02561011 58017,M
INS,2022-10-03 20:56,-115.6733,36.5872,955.00,87.00,39.60,18.90,0.00,0.00,0.00,30.00,1011.30,10.00,M,CLR,M,M,M,M,M,M,M,M,M,M,M,M,M,M,83.51,KINS 032056Z AUTO 00000KT 10SM CLR 31/04 A3000 RMK AO2 SLP113 T03050042 57020 $,M
TPH,2022-10-03 20:56,-117.0904,38.0505,1654.00,77.00,21.00,12.24,300.00,7.00,0.00,30.19,1016.30,10.00,M,CLR,M,M,M,M,M,M,M,M,M,M,M,M,M,M,77.00,KTPH 032056Z AUTO 30007KT 270V350 10SM CLR 25/M06 A3019 RMK AO2 SLP163 T02501061 58010,M
LAS,2022-10-03 20:56,-115.1634,36.0719,663.00,90.00,50.00,25.46,60.00,7.00,0.00,29.96,1012.00,10.00,M,FEW,FEW,M,M,11000.00,25000.00,M,M,M,M,M,M,M,M,M,87.06,KLAS 032056Z 06007KT 10SM FEW110 FEW250 32/10 A2996 RMK AO2 SLP120 CB DSNT SE-S TCU DSNT W AND N T03220100 58021,M
LSV,2022-10-03 20:56,-115.0343,36.2362,570.00,94.00,51.80,23.95,90.00,6.00,0.00,29.91,1010.50,10.00,M,CLR,M,M,M,M,M,M,M,M,M,M,M,M,M,M,91.35,KLSV 032056Z AUTO 09006KT 10SM CLR 35/11 A2991 RMK AO2 SLP105 T03450110 57021 $,M
HND,2022-10-03 20:56,-115.1344,35.9729,742.79,89.00,51.00,27.29,40.00,9.00,0.00,29.99,1014.40,10.00,M,CLR,M,M,M,M,M,M,M,M,M,M,M,M,M,M,86.42,KHND 032056Z 04009KT 10SM CLR 32/11 A2999 RMK AO2 SLP144 T03170106 58022,M
WMC,2022-10-03 20:56,-117.8072,40.9019,1315.00,78.00,32.00,18.61,M,4.00,0.00,30.18,1019.40,10.00,M,CLR,M,M,M,M,M,M,M,M,M,M,M,M,M,M,78.10,KWMC 032056Z AUTO VRB04KT 10SM CLR 26/00 A3018 RMK AO2 SLP194 T02560000 58016,M
EKO,2022-10-03 20:56,-115.7860,40.8242,1367.00,73.00,34.00,23.90,M,M,0.00,30.19,1019.60,10.00,M,CLR,M,M,M,M,M,M,M,M,M,M,M,M,M,M,73.00,KEKO 032056Z AUTO 10SM CLR 23/01 A3019 RMK AO2 SLP196 T02280011 58019,M
RTS,2022-10-03 20:59,-119.8764,39.6682,1539.00,75.20,24.80,15.25,120.00,8.00,0.00,30.21,M,10.00,M,CLR,M,M,M,M,M,M,M,M,M,M,M,M,M,M,75.20,KRTS 032059Z AUTO 12008KT 10SM CLR 24/M04 A3021 RMK AO2,M
CXP,2022-10-03 21:10,-119.7326,39.1923,1431.00,77.00,26.60,15.48,260.00,3.00,0.00,30.19,M,10.00,M,CLR,M,M,M,M,M,M,M,M,M,M,M,M,M,M,77.00,KCXP 032110Z AUTO 26003KT 10SM CLR 25/M03 A3019 RMK AO2,M
TMT,2022-10-03 21:15,-117.1971,39.4643,1749.34,M,M,M,360.00,8.00,0.00,30.24,M,10.00,M,CLR,M,M,M,M,M,M,M,M,M,M,M,M,M,M,M,KTMT 032115Z AUTO 36008KT 10SM CLR A3024 RMK AO2,M
BAM,2022-10-03 21:15,-116.8743,40.5990,1382.36,75.20,32.00,20.49,350.00,5.00,0.00,30.20,M,10.00,M,CLR,M,M,M,M,M,M,M,M,M,M,M,M,M,M,75.20,KBAM 032115Z AUTO 35005KT 10SM CLR 24/00 A3020 RMK AO1,M
MEV,2022-10-03 21:15,-119.7500,38.9963,1441.42,78.80,30.20,16.90,340.00,9.00,0.00,30.17,M,4.00,M,CLR,M,M,M,M,M,M,M,HZ,M,M,M,M,M,M,78.80,KMEV 032115Z AUTO 34009KT 4SM HZ CLR 26/M01 A3017 RMK AO2,M
05U,2022-10-03 21:15,-116.0051,39.6042,1811.23,73.40,24.80,16.20,350.00,9.00,0.00,30.25,M,10.00,M,CLR,M,M,M,M,M,M,M,M,M,M,M,M,M,M,73.40,K05U 032115Z AUTO 35009KT 10SM CLR 23/M04 A3025 RMK A01,M
BVU,2022-10-03 21:15,-114.8611,35.9475,671.00,89.60,46.40,22.53,M,5.00,0.00,29.95,M,10.00,11.00,CLR,M,M,M,M,M,M,M,M,M,M,M,M,M,M,86.24,KBVU 032115Z AUTO VRB05G11KT 10SM CLR 32/08 A2995 RMK AO2,M
HTH,2022-10-03 21:15,-118.6315,38.5448,1282.89,78.80,21.20,11.64,320.00,8.00,0.00,30.15,M,10.00,13.00,CLR,M,M,M,M,M,M,M,M,M,M,M,M,M,M,78.80,KHTH 032115Z AUTO 32008G13KT 10SM CLR 26/M06 A3015 RMK A01,M
RTS,2022-10-03 21:19,-119.8764,39.6682,1539.00,75.20,24.80,15.25,110.00,7.00,0.00,30.20,M,10.00,M,CLR,M,M,M,M,M,M,M,M,M,M,M,M,M,M,75.20,KRTS 032119Z AUTO 11007KT 070V130 10SM CLR 24/M04 A3020 RMK AO2,M
CXP,2022-10-03 21:30,-119.7326,39.1923,1431.00,78.80,26.60,14.59,100.00,8.00,0.00,30.18,M,10.00,13.00,CLR,M,M,M,M,M,M,M,M,M,M,M,M,M,M,78.80,KCXP 032130Z AUTO 10008G13KT 10SM CLR 26/M03 A3018 RMK AO2,M
MEV,2022-10-03 21:35,-119.7500,38.9963,1441.42,78.80,28.40,15.71,M,6.00,0.00,30.16,M,7.00,M,CLR,M,M,M,M,M,M,M,M,M,M,M,M,M,M,78.80,KMEV 032135Z AUTO VRB06KT 7SM CLR 26/M02 A3016 RMK AO2,M
TMT,2022-10-03 21:35,-117.1971,39.4643,1749.34,M,M,M,50.00,3.00,0.00,30.23,M,10.00,M,CLR,M,M,M,M,M,M,M,M,M,M,M,M,M,M,M,KTMT 032135Z AUTO 05003KT 10SM CLR A3023 RMK AO2,M
HTH,2022-10-03 21:35,-118.6315,38.5448,1282.89,78.80,23.00,12.55,320.00,9.00,0.00,30.15,M,10.00,M,CLR,M,M,M,M,M,M,M,M,M,M,M,M,M,M,78.80,KHTH 032135Z AUTO 32009KT 10SM CLR 26/M05 A3015 RMK A01,M
BAM,2022-10-03 21:35,-116.8743,40.5990,1382.36,77.00,32.00,19.30,310.00,3.00,0.00,30.19,M,10.00,M,CLR,M,M,M,M,M,M,M,M,M,M,M,M,M,M,77.00,KBAM 032135Z AUTO 31003KT 10SM CLR 25/00 A3019 RMK AO1,M
05U,2022-10-03 21:35,-116.0051,39.6042,1811.23,73.40,24.80,16.20,10.00,7.00,0.00,30.25,M,10.00,M,CLR,M,M,M,M,M,M,M,M,M,M,M,M,M,M,73.40,K05U 032135Z AUTO 01007KT 10SM CLR 23/M04 A3025 RMK A01,M
BVU,2022-10-03 21:35,-114.8611,35.9475,671.00,89.60,50.00,25.79,80.00,8.00,0.00,29.94,M,10.00,13.00,CLR,M,M,M,M,M,M,M,M,M,M,M,M,M,M,86.70,KBVU 032135Z AUTO 08008G13KT 10SM CLR 32/10 A2994 RMK AO2 LTG DSNT SE,M
RTS,2022-10-03 21:39,-119.8764,39.6682,1539.00,75.20,24.80,15.25,0.00,0.00,0.00,30.19,M,10.00,M,CLR,M,M,M,M,M,M,M,M,M,M,M,M,M,M,75.20,KRTS 032139Z AUTO 00000KT 10SM CLR 24/M04 A3019 RMK AO2,M
CXP,2022-10-03 21:50,-119.7326,39.1923,1431.00,78.80,26.60,14.59,0.00,0.00,0.00,30.18,M,10.00,10.00,CLR,M,M,M,M,M,M,M,M,M,M,M,M,M,M,78.80,KCXP 032150Z AUTO 00000G10KT 10SM CLR 26/M03 A3018 RMK AO2,M
DRA,2022-10-03 21:53,-116.0278,36.6206,1009.00,89.00,35.00,14.77,240.00,9.00,0.00,30.00,1011.40,10.00,M,CLR,M,M,M,M,M,M,M,M,M,M,M,M,M,M,85.19,KDRA 032153Z AUTO 24009KT 10SM CLR 32/02 A3000 RMK AO2 SLP114 T03170017,M
P68,2022-10-03 21:53,-116.0056,39.6014,1993.00,72.00,26.10,17.93,40.00,8.00,0.00,30.22,1017.60,M,M,M,M,M,M,M,M,M,M,M,M,M,M,M,M,M,72.00,KP68 032153Z AUTO 04008KT 22/M03 A3022 RMK AO1 SLP176 T02221033,M
LOL,2022-10-03 21:53,-118.5701,40.0684,1192.43,81.00,30.00,15.60,30.00,8.00,0.00,30.13,1018.00,10.00,M,CLR,M,M,M,M,M,M,M,M,M,M,M,M,M,M,79.02,KLOL 032153Z AUTO 03008KT 10SM CLR 27/M01 A3013 RMK AO2 SLP180 T02721011,M
ELY,2022-10-03 21:53,-114.8453,39.2950,1909.00,74.00,25.00,16.06,10.00,9.00,0.00,30.21,1015.60,10.00,M,CLR,M,M,M,M,M,M,M,M,M,M,M,M,M,M,73.90,KELY 032153Z AUTO 01009KT 10SM CLR 23/M04 A3021 RMK AO2 SLP156 T02331039,M
VGT,2022-10-03 21:53,-115.1933,36.2111,667.00,91.00,46.00,21.24,0.00,0.00,0.00,29.93,1012.80,10.00,M,CLR,M,M,M,M,M,M,M,M,M,M,M,M,M,M,87.45,KVGT 032153Z 00000KT 10SM CLR 33/08 A2993 RMK AO2 SLP128 T03280078,M
TMT,2022-10-03 21:55,-117.1971,39.4643,1749.34,M,M,M,300.00,6.00,0.00,30.22,M,10.00,M,CLR,M,M,M,M,M,M,M,M,M,M,M,M,M,M,M,KTMT 032155Z AUTO 30006KT 10SM CLR A3022 RMK AO2,M
HTH,2022-10-03 21:55,-118.6315,38.5448,1282.89,78.80,19.40,10.78,320.00,10.00,0.00,30.14,M,10.00,M,CLR,M,M,M,M,M,M,M,M,M,M,M,M,M,M,78.80,KHTH 032155Z AUTO 32010KT 10SM CLR 26/M07 A3014 RMK A01,M
BAM,2022-10-03 21:55,-116.8743,40.5990,1382.36,77.00,32.00,19.30,20.00,5.00,0.00,30.19,M,10.00,M,CLR,M,M,M,M,M,M,M,M,M,M,M,M,M,M,77.00,KBAM 032155Z AUTO 02005KT 10SM CLR 25/00 A3019 RMK AO1,M
BVU,2022-10-03 21:55,-114.8611,35.9475,671.00,89.60,46.40,22.53,80.00,5.00,0.00,29.94,M,10.00,11.00,CLR,M,M,M,M,M,M,M,M,M,M,M,M,M,M,86.24,KBVU 032155Z AUTO 08005G11KT 10SM CLR 32/08 A2994 RMK AO2,M
INS,2022-10-03 21:55,-115.6733,36.5872,955.00,86.00,39.20,19.15,50.00,5.00,0.00,29.99,1011.30,10.00,M,FEW,BKN,OVC,M,7500.00,10000.00,12000.00,M,-RA,M,M,M,M,M,M,82.79,KINS 032155Z AUTO 05005KT 10SM -RA FEW075 BKN100 OVC120 30/04 A2999 RMK AO2 RAB55 SLP113 $,M
RNO,2022-10-03 21:55,-119.7711,39.4839,1341.00,81.00,30.00,15.60,M,6.00,0.00,30.15,1016.20,10.00,M,CLR,M,M,M,M,M,M,M,M,M,M,M,M,M,M,79.02,KRNO 032155Z VRB06KT 10SM CLR 27/M01 A3015 RMK AO2 SLP162 T02721011,M
MEV,2022-10-03 21:55,-119.7500,38.9963,1441.42,78.80,28.40,15.71,0.00,0.00,0.00,30.16,M,10.00,11.00,CLR,M,M,M,M,M,M,M,M,M,M,M,M,M,M,78.80,KMEV 032155Z AUTO 00000G11KT 10SM CLR 26/M02 A3016 RMK AO2,M
05U,2022-10-03 21:55,-116.0051,39.6042,1811.23,73.40,24.80,16.20,M,6.00,0.00,30.24,M,10.00,12.00,CLR,M,M,M,M,M,M,M,M,M,M,M,M,M,M,73.40,K05U 032155Z AUTO VRB06G12KT 10SM CLR 23/M04 A3024 RMK A01,M
EKO,2022-10-03 21:56,-115.7860,40.8242,1367.00,76.00,30.90,19.14,300.00,4.00,0.00,30.17,1018.40,8.00,M,CLR,M,M,M,M,M,M,M,M,M,M,M,M,M,M,75.90,KEKO 032156Z AUTO 30004KT 8SM CLR 24/M01 A3017 RMK AO2 SLP184 T02441006,M
LAS,2022-10-03 21:56,-115.1634,36.0719,663.00,92.00,49.00,23.03,40.00,10.00,0.00,29.94,1011.30,10.00,14.00,FEW,SCT,M,M,11000.00,22000.00,M,M,M,M,M,M,M,M,M,88.66,KLAS 032156Z 04010G14KT 10SM FEW110CB SCT220 33/09 A2994 RMK AO2 SLP113 CB N AND DSNT SE-SW T03330094,M
HND,2022-10-03 21:56,-115.1344,35.9729,742.79,90.00,50.00,25.46,40.00,9.00,0.00,29.97,1013.90,10.00,14.00,CLR,M,M,M,M,M,M,M,M,M,M,M,M,M,M,87.06,KHND 032156Z 04009G14KT 010V070 10SM CLR 32/10 A2997 RMK AO2 SLP139 T03220100,M
LSV,2022-10-03 21:56,-115.0343,36.2362,570.00,94.30,50.70,22.85,100.00,3.00,0.00,29.90,1010.20,10.00,M,FEW,M,M,M,14000.00,M,M,M,M,M,M,M,M,M,M,91.32,KLSV 032156Z AUTO 10003KT 10SM FEW140 35/10 A2990 RMK AO2 SLP102 T03460104 $,M
TPH,2022-10-03 21:56,-117.0904,38.0505,1654.00,77.00,16.00,9.88,270.00,9.00,0.00,30.17,1015.90,10.00,M,CLR,M,M,M,M,M,M,M,M,M,M,M,M,M,M,77.00,KTPH 032156Z AUTO 27009KT 10SM CLR 25/M09 A3017 RMK AO2 SLP159 T02501089,M
WMC,2022-10-03 21:56,-117.8072,40.9019,1315.00,79.00,32.00,18.06,360.00,6.00,0.00,30.17,1018.80,10.00,M,CLR,M,M,M,M,M,M,M,M,M,M,M,M,M,M,79.00,KWMC 032156Z AUTO 36006KT 10SM CLR 26/00 A3017 RMK AO2 SLP188 T02610000,M
NFL,2022-10-03 21:56,-118.7010,39.4166,1199.00,81.00,28.90,14.92,360.00,5.00,0.00,30.13,1016.90,10.00,M,CLR,M,M,M,M,M,M,M,M,M,M,M,M,M,M,78.99,KNFL 032156Z 36005KT 10SM CLR 27/M02 A3013 RMK AO2 SLP169 T02721017,M
INS,2022-10-03 21:56,-115.6733,36.5872,955.00,86.40,40.50,19.89,50.00,6.00,T,29.99,1011.30,10.00,M,FEW,BKN,OVC,M,7500.00,10000.00,12000.00,M,-RA,M,M,M,M,M,M,83.15,KINS 032156Z AUTO 05006KT 10SM -RA FEW075 BKN100 OVC120 30/05 A2999 RMK AO2 RAB55 SLP113 P0000 T03020047 $,M
RTS,2022-10-03 21:59,-119.8764,39.6682,1539.00,77.00,24.80,14.37,140.00,6.00,0.00,30.19,M,10.00,11.00,CLR,M,M,M,M,M,M,M,M,M,M,M,M,M,M,77.00,KRTS 032159Z AUTO 14006G11KT 10SM CLR 25/M04 A3019 RMK AO2,M
LAS,2022-10-03 22:02,-115.1634,36.0719,663.00,91.00,49.00,23.68,30.00,7.00,0.00,29.94,M,10.00,M,FEW,SCT,M,M,11000.00,22000.00,M,M,M,M,M,M,M,M,M,87.82,KLAS 032202Z 03007KT 10SM FEW110CB SCT220 33/09 A2994 RMK AO2 CB N AND DSNT SE-SW T03280094,M
INS,2022-10-03 22:09,-115.6733,36.5872,955.00,82.40,46.40,28.36,100.00,11.00,0.00,29.98,1011.20,10.00,21.00,FEW,BKN,OVC,M,7000.00,10000.00,12000.00,M,-RA,M,M,M,M,M,M,80.64,KINS 032209Z AUTO 10011G21KT 10SM -RA FEW070 BKN100 OVC120 28/08 A2998 RMK AO2 WSHFT 04 SLP112 $,M
CXP,2022-10-03 22:10,-119.7326,39.1923,1431.00,78.80,26.60,14.59,M,4.00,0.00,30.17,M,10.00,M,CLR,M,M,M,M,M,M,M,M,M,M,M,M,M,M,78.80,KCXP 032210Z AUTO VRB04KT 10SM CLR 26/M03 A3017 RMK AO2,M
INS,2022-10-03 22:12,-115.6733,36.5872,955.00,84.20,44.60,24.99,100.00,9.00,0.00,29.99,1011.40,10.00,M,FEW,BKN,OVC,M,7000.00,10000.00,12000.00,M,M,M,M,M,M,M,M,81.73,KINS 032212Z AUTO 10009KT 10SM FEW070 BKN100 OVC120 29/07 A2999 RMK AO2 RAE12 SLP114 $,M
BAM,2022-10-03 22:15,-116.8743,40.5990,1382.36,77.00,32.00,19.30,0.00,0.00,0.00,30.19,M,10.00,M,CLR,M,M,M,M,M,M,M,M,M,M,M,M,M,M,77.00,KBAM 032215Z AUTO 00000KT 10SM CLR 25/00 A3019 RMK AO1,M
MEV,2022-10-03 22:15,-119.7500,38.9963,1441.42,78.80,28.40,15.71,340.00,8.00,0.00,30.15,M,10.00,M,CLR,M,M,M,M,M,M,M,M,M,M,M,M,M,M,78.80,KMEV 032215Z AUTO 34008KT 10SM CLR 26/M02 A3015 RMK AO2,M
05U,2022-10-03 22:15,-116.0051,39.6042,1811.23,73.40,26.60,17.46,M,6.00,0.00,30.24,M,10.00,M,CLR,M,M,M,M,M,M,M,M,M,M,M,M,M,M,73.40,K05U 032215Z AUTO VRB06KT 10SM CLR 23/M03 A3024 RMK A01,M
TMT,2022-10-03 22:15,-117.1971,39.4643,1749.34,M,M,M,10.00,3.00,0.00,30.22,M,10.00,M,CLR,M,M,M,M,M,M,M,M,M,M,M,M,M,M,M,KTMT 032215Z AUTO 01003KT 10SM CLR A3022 RMK AO2,M
HTH,2022-10-03 22:15,-118.6315,38.5448,1282.89,78.80,21.20,11.64,310.00,10.00,0.00,30.14,M,10.00,M,CLR,M,M,M,M,M,M,M,M,M,M,M,M,M,M,78.80,KHTH 032215Z AUTO 31010KT 10SM CLR 26/M06 A3014 RMK A01,M
BVU,2022-10-03 22:15,-114.8611,35.9475,671.00,89.60,48.20,24.11,M,3.00,0.00,29.94,M,10.00,M,CLR,M,M,M,M,M,M,M,M,M,M,M,M,M,M,86.44,KBVU 032215Z AUTO VRB03KT 10SM CLR 32/09 A2994 RMK AO2,M
RTS,2022-10-03 22:19,-119.8764,39.6682,1539.00,77.00,24.80,14.37,110.00,7.00,0.00,30.19,M,10.00,M,CLR,M,M,M,M,M,M,M,M,M,M,M,M,M,M,77.00,KRTS 032219Z AUTO 11007KT 10SM CLR 25/M04 A3019 RMK AO2,M
CXP,2022-10-03 22:30,-119.7326,39.1923,1431.00,78.80,24.80,13.54,80.00,6.00,0.00,30.17,M,10.00,15.00,CLR,M,M,M,M,M,M,M,M,M,M,M,M,M,M,78.80,KCXP 032230Z AUTO 08006G15KT 10SM CLR 26/M04 A3017 RMK AO2,M
BVU,2022-10-03 22:35,-114.8611,35.9475,671.00,89.60,48.20,24.11,M,4.00,0.00,29.93,M,10.00,M,CLR,M,M,M,M,M,M,M,M,M,M,M,M,M,M,86.44,KBVU 032235Z AUTO VRB04KT 10SM CLR 32/09 A2993 RMK AO2,M
MEV,2022-10-03 22:35,-119.7500,38.9963,1441.42,78.80,28.40,15.71,340.00,8.00,0.00,30.15,M,10.00,M,CLR,M,M,M,M,M,M,M,M,M,M,M,M,M,M,78.80,KMEV 032235Z AUTO 34008KT 10SM CLR 26/M02 A3015 RMK AO2,M
BAM,2022-10-03 22:35,-116.8743,40.5990,1382.36,77.00,32.00,19.30,330.00,6.00,0.00,30.18,M,10.00,M,CLR,M,M,M,M,M,M,M,M,M,M,M,M,M,M,77.00,KBAM 032235Z AUTO 33006KT 10SM CLR 25/00 A3018 RMK AO1,M
HTH,2022-10-03 22:35,-118.6315,38.5448,1282.89,78.80,17.60,9.98,320.00,10.00,0.00,30.13,M,10.00,M,CLR,M,M,M,M,M,M,M,M,M,M,M,M,M,M,78.80,KHTH 032235Z AUTO 32010KT 10SM CLR 26/M08 A3013 RMK A01,M
TMT,2022-10-03 22:35,-117.1971,39.4643,1749.34,M,M,M,350.00,8.00,0.00,30.22,M,10.00,M,CLR,M,M,M,M,M,M,M,M,M,M,M,M,M,M,M,KTMT 032235Z AUTO 35008KT 10SM CLR A3022 RMK AO2,M
05U,2022-10-03 22:35,-116.0051,39.6042,1811.23,73.40,24.80,16.20,M,4.00,0.00,30.24,M,10.00,12.00,CLR,M,M,M,M,M,M,M,M,M,M,M,M,M,M,73.40,K05U 032235Z AUTO VRB04G12KT 10SM CLR 23/M04 A3024 RMK A01,M
RTS,2022-10-03 22:39,-119.8764,39.6682,1539.00,75.20,24.80,15.25,M,3.00,0.00,30.19,M,10.00,10.00,CLR,M,M,M,M,M,M,M,M,M,M,M,M,M,M,75.20,KRTS 032239Z AUTO VRB03G10KT 10SM CLR 24/M04 A3019 RMK AO2,M
CXP,2022-10-03 22:50,-119.7326,39.1923,1431.00,78.80,24.80,13.54,M,6.00,0.00,30.16,M,10.00,14.00,CLR,M,M,M,M,M,M,M,M,M,M,M,M,M,M,78.80,KCXP 032250Z AUTO VRB06G14KT 360V140 10SM CLR 26/M04 A3016 RMK AO2,M
05U,2022-10-03 22:50,-116.0051,39.6042,1811.23,73.40,26.60,17.46,10.00,7.00,0.00,30.24,M,10.00,M,CLR,M,M,M,M,M,M,M,M,M,M,M,M,M,M,73.40,K05U 032250Z AUTO 01007KT 10SM CLR 23/M03 A3024 RMK A01,M
LOL,2022-10-03 22:53,-118.5701,40.0684,1192.43,82.00,30.00,15.10,70.00,10.00,0.00,30.12,1017.50,10.00,17.00,CLR,M,M,M,M,M,M,M,M,M,M,M,M,M,M,79.69,KLOL 032253Z AUTO 07010G17KT 10SM CLR 28/M01 A3012 RMK AO2 SLP175 T02781011,M
P68,2022-10-03 22:53,-116.0056,39.6014,1993.00,73.00,26.10,17.33,20.00,10.00,0.00,30.21,1017.30,M,16.00,M,M,M,M,M,M,M,M,M,M,M,M,M,M,M,73.00,KP68 032253Z AUTO 02010G16KT 23/M03 A3021 RMK AO1 SLP173 T02281033,M
VGT,2022-10-03 22:53,-115.1933,36.2111,667.00,92.00,47.00,21.36,30.00,4.00,0.00,29.93,1012.50,10.00,M,CLR,M,M,M,M,M,M,M,M,M,M,M,M,M,M,88.39,KVGT 032253Z 03004KT 10SM CLR 33/08 A2993 RMK AO2 SLP125 T03330083,M
DRA,2022-10-03 22:53,-116.0278,36.6206,1009.00,90.00,32.00,12.68,320.00,4.00,0.00,29.99,1011.20,10.00,16.00,CLR,M,M,M,M,M,M,M,M,M,M,M,M,M,M,85.84,KDRA 032253Z AUTO 32004G16KT 10SM CLR 32/00 A2999 RMK AO2 SLP112 T03220000,M
ELY,2022-10-03 22:53,-114.8453,39.2950,1909.00,73.00,24.10,15.95,10.00,7.00,0.00,30.20,1016.20,10.00,M,CLR,M,M,M,M,M,M,M,M,M,M,M,M,M,M,73.00,KELY 032253Z AUTO 01007KT 10SM CLR 23/M04 A3020 RMK AO2 SLP162 T02281044,M
TMT,2022-10-03 22:55,-117.1971,39.4643,1749.34,M,M,M,20.00,6.00,0.00,30.22,M,10.00,M,CLR,M,M,M,M,M,M,M,M,M,M,M,M,M,M,M,KTMT 032255Z AUTO 02006KT 10SM CLR A3022 RMK AO2,M
HTH,2022-10-03 22:55,-118.6315,38.5448,1282.89,78.80,21.20,11.64,320.00,10.00,0.00,30.13,M,10.00,M,CLR,M,M,M,M,M,M,M,M,M,M,M,M,M,M,78.80,KHTH 032255Z AUTO 32010KT 10SM CLR 26/M06 A3013 RMK A01,M
BAM,2022-10-03 22:55,-116.8743,40.5990,1382.36,77.00,32.00,19.30,340.00,6.00,0.00,30.18,M,10.00,M,CLR,M,M,M,M,M,M,M,M,M,M,M,M,M,M,77.00,KBAM 032255Z AUTO 34006KT 10SM CLR 25/00 A3018 RMK AO1,M
MEV,2022-10-03 22:55,-119.7500,38.9963,1441.42,78.80,26.60,14.59,300.00,7.00,0.00,30.15,M,10.00,M,CLR,M,M,M,M,M,M,M,M,M,M,M,M,M,M,78.80,KMEV 032255Z AUTO 30007KT 10SM CLR 26/M03 A3015 RMK AO2,M
RNO,2022-10-03 22:55,-119.7711,39.4839,1341.00,82.00,30.90,15.66,M,5.00,0.00,30.14,1016.30,10.00,M,CLR,M,M,M,M,M,M,M,M,M,M,M,M,M,M,79.70,KRNO 032255Z VRB05KT 10SM CLR 28/M01 A3014 RMK AO2 SLP163 T02781006,M
BVU,2022-10-03 22:55,-114.8611,35.9475,671.00,91.40,44.60,19.89,90.00,5.00,0.00,29.93,M,10.00,M,CLR,M,M,M,M,M,M,M,M,M,M,M,M,M,M,87.68,KBVU 032255Z AUTO 09005KT 10SM CLR 33/07 A2993 RMK AO2,M
NFL,2022-10-03 22:56,-118.7010,39.4166,1199.00,81.00,28.00,14.38,340.00,8.00,0.00,30.12,1016.60,10.00,M,CLR,M,M,M,M,M,M,M,M,M,M,M,M,M,M,78.98,KNFL 032256Z 34008KT 10SM CLR 27/M02 A3012 RMK AO2 SLP166 T02721022,M
LAS,2022-10-03 22:56,-115.1634,36.0719,663.00,90.00,49.00,24.44,90.00,7.00,0.00,29.94,1011.30,10.00,16.00,FEW,SCT,M,M,11000.00,22000.00,M,M,M,M,M,M,M,M,M,86.90,KLAS 032256Z 09007G16KT 10SM FEW110 SCT220 32/09 A2994 RMK AO2 SLP113 CB DSNT NE-E AND SE T03220094,M
HND,2022-10-03 22:56,-115.1344,35.9729,742.79,89.00,47.00,23.32,60.00,5.00,0.00,29.97,1013.90,10.00,M,CLR,M,M,M,M,M,M,M,M,M,M,M,M,M,M,85.85,KHND 032256Z 06005KT 10SM CLR 32/08 A2997 RMK AO2 SLP139 T03170083,M
EKO,2022-10-03 22:56,-115.7860,40.8242,1367.00,76.00,30.00,18.46,0.00,0.00,0.00,30.17,1018.20,10.00,M,CLR,M,M,M,M,M,M,M,M,M,M,M,M,M,M,75.90,KEKO 032256Z AUTO 00000KT 10SM CLR 24/M01 A3017 RMK AO2 SLP182 T02441011,M
WMC,2022-10-03 22:56,-117.8072,40.9019,1315.00,79.00,30.90,17.28,30.00,5.00,0.00,30.16,1018.60,10.00,M,CLR,M,M,M,M,M,M,M,M,M,M,M,M,M,M,79.00,KWMC 032256Z AUTO 03005KT 10SM CLR 26/M01 A3016 RMK AO2 SLP186 T02611006,M
LSV,2022-10-03 22:56,-115.0343,36.2362,570.00,93.60,51.30,23.88,170.00,9.00,0.00,29.88,1009.60,10.00,M,SCT,M,M,M,9000.00,M,M,M,M,M,M,M,M,M,M,90.74,KLSV 032256Z AUTO 17009KT 10SM SCT090 34/11 A2988 RMK AO2 SLP096 T03420107 $,M
TPH,2022-10-03 22:56,-117.0904,38.0505,1654.00,78.00,18.00,10.39,310.00,8.00,0.00,30.16,1015.30,10.00,19.00,CLR,M,M,M,M,M,M,M,M,M,M,M,M,M,M,78.10,KTPH 032256Z AUTO 31008G19KT 10SM CLR 26/M08 A3016 RMK AO2 SLP153 T02561078,M
INS,2022-10-03 22:56,-115.6733,36.5872,955.00,86.50,39.40,19.00,100.00,5.00,T,29.98,1010.90,10.00,M,BKN,M,M,M,11000.00,M,M,M,M,M,M,M,29.00,40.00,2022-10-03 21:57,83.18,KINS 032256Z AUTO 10005KT 10SM BKN110 30/04 A2998 RMK AO2 PK WND 04029/2157 RAE12 SLP109 P0000 T03030041 $,M
RTS,2022-10-03 22:59,-119.8764,39.6682,1539.00,75.20,23.00,14.15,M,3.00,0.00,30.18,M,10.00,M,CLR,M,M,M,M,M,M,M,M,M,M,M,M,M,M,75.20,KRTS 032259Z AUTO VRB03KT 10SM CLR 24/M05 A3018 RMK AO2,M
LAS,2022-10-03 23:01,-115.1634,36.0719,663.00,90.00,49.00,24.44,110.00,8.00,0.00,29.94,M,10.00,M,FEW,SCT,M,M,11000.00,22000.00,M,M,M,M,M,M,M,M,M,86.90,KLAS 032301Z 11008KT 10SM FEW110 SCT220 32/09 A2994 RMK AO2 CB DSNT NE-E AND SE T03220094,M
CXP,2022-10-03 23:10,-119.7326,39.1923,1431.00,80.60,24.80,12.76,80.00,11.00,0.00,30.16,M,10.00,M,CLR,M,M,M,M,M,M,M,M,M,M,M,M,M,M,78.94,KCXP 032310Z AUTO 08011KT 10SM CLR 27/M04 A3016 RMK AO2,M
TMT,2022-10-03 23:15,-117.1971,39.4643,1749.34,73.40,25.30,16.54,20.00,6.00,0.00,30.22,M,10.00,M,CLR,M,M,M,M,M,M,M,M,M,M,M,M,M,M,73.40,KTMT 032315Z AUTO 02006KT 10SM CLR 23/M04 A3022 RMK AO2 T02301037,M
HTH,2022-10-03 23:15,-118.6315,38.5448,1282.89,78.80,21.20,11.64,320.00,11.00,0.00,30.13,M,10.00,M,CLR,M,M,M,M,M,M,M,M,M,M,M,M,M,M,78.80,KHTH 032315Z AUTO 32011KT 10SM CLR 26/M06 A3013 RMK A01,M
MEV,2022-10-03 23:15,-119.7500,38.9963,1441.42,78.80,26.60,14.59,340.00,9.00,0.00,30.14,M,10.00,M,CLR,M,M,M,M,M,M,M,M,M,M,M,M,M,M,78.80,KMEV 032315Z AUTO 34009KT 300V020 10SM CLR 26/M03 A3014 RMK AO2,M
BAM,2022-10-03 23:15,-116.8743,40.5990,1382.36,77.00,32.00,19.30,310.00,6.00,0.00,30.17,M,10.00,M,CLR,M,M,M,M,M,M,M,M,M,M,M,M,M,M,77.00,KBAM 032315Z AUTO 31006KT 10SM CLR 25/00 A3017 RMK AO1,M
05U,2022-10-03 23:15,-116.0051,39.6042,1811.23,73.40,24.80,16.20,360.00,7.00,0.00,30.24,M,10.00,12.00,CLR,M,M,M,M,M,M,M,M,M,M,M,M,M,M,73.40,K05U 032315Z AUTO 36007G12KT 340V040 10SM CLR 23/M04 A3024 RMK A01,M
BVU,2022-10-03 23:15,-114.8611,35.9475,671.00,89.60,44.60,21.04,120.00,3.00,0.00,29.93,M,10.00,M,CLR,M,M,M,M,M,M,M,M,M,M,M,M,M,M,86.07,KBVU 032315Z AUTO 12003KT 10SM CLR 32/07 A2993 RMK AO2,M
RTS,2022-10-03 23:19,-119.8764,39.6682,1539.00,77.00,24.80,14.37,70.00,5.00,0.00,30.18,M,10.00,M,CLR,M,M,M,M,M,M,M,M,M,M,M,M,M,M,77.00,KRTS 032319Z AUTO 07005KT 10SM CLR 25/M04 A3018 RMK AO2,M
CXP,2022-10-03 23:30,-119.7326,39.1923,1431.00,78.80,24.80,13.54,80.00,10.00,0.00,30.16,M,10.00,16.00,CLR,M,M,M,M,M,M,M,M,M,M,M,M,M,M,78.80,KCXP 032330Z AUTO 08010G16KT 10SM CLR 26/M04 A3016 RMK AO2,M
MEV,2022-10-03 23:35,-119.7500,38.9963,1441.42,78.80,26.60,14.59,310.00,8.00,0.00,30.14,M,10.00,M,CLR,M,M,M,M,M,M,M,M,M,M,M,M,M,M,78.80,KMEV 032335Z AUTO 31008KT 10SM CLR 26/M03 A3014 RMK AO2,M
BVU,2022-10-03 23:35,-114.8611,35.9475,671.00,91.40,44.60,19.89,110.00,6.00,0.00,29.93,M,10.00,M,CLR,M,M,M,M,M,M,M,M,M,M,M,M,M,M,87.68,KBVU 032335Z AUTO 11006KT 10SM CLR 33/07 A2993 RMK AO2,M
05U,2022-10-03 23:35,-116.0051,39.6042,1811.23,73.40,24.80,16.20,20.00,9.00,0.00,30.23,M,10.00,M,CLR,M,M,M,M,M,M,M,M,M,M,M,M,M,M,73.40,K05U 032335Z AUTO 02009KT 10SM CLR 23/M04 A3023 RMK A01,M
HTH,2022-10-03 23:35,-118.6315,38.5448,1282.89,78.80,17.60,9.98,310.00,7.00,0.00,30.12,M,10.00,M,CLR,M,M,M,M,M,M,M,M,M,M,M,M,M,M,78.80,KHTH 032335Z AUTO 31007KT 10SM CLR 26/M08 A3012 RMK A01,M
BAM,2022-10-03 23:35,-116.8743,40.5990,1382.36,77.00,32.00,19.30,320.00,7.00,0.00,30.17,M,10.00,M,CLR,M,M,M,M,M,M,M,M,M,M,M,M,M,M,77.00,KBAM 032335Z AUTO 32007KT 10SM CLR 25/00 A3017 RMK AO1,M
TMT,2022-10-03 23:35,-117.1971,39.4643,1749.34,M,M,M,350.00,5.00,0.00,30.22,M,10.00,M,CLR,M,M,M,M,M,M,M,M,M,M,M,M,M,M,M,KTMT 032335Z AUTO 35005KT 10SM CLR A3022 RMK AO2,M
RTS,2022-10-03 23:39,-119.8764,39.6682,1539.00,75.20,24.80,15.25,100.00,6.00,0.00,30.18,M,10.00,M,CLR,M,M,M,M,M,M,M,M,M,M,M,M,M,M,75.20,KRTS 032339Z AUTO 10006KT 10SM CLR 24/M04 A3018 RMK AO2,M
CXP,2022-10-03 23:50,-119.7326,39.1923,1431.00,78.80,24.80,13.54,70.00,11.00,0.00,30.15,M,10.00,M,CLR,M,M,M,M,M,M,M,M,M,M,M,M,M,M,78.80,KCXP 032350Z AUTO 07011KT 10SM CLR 26/M04 A3015 RMK AO2,M
VGT,2022-10-03 23:53,-115.1933,36.2111,667.00,92.00,48.00,22.26,0.00,0.00,0.00,29.92,1012.40,10.00,M,CLR,M,M,M,M,M,M,M,M,M,M,M,M,M,M,88.53,KVGT 032353Z 00000KT 10SM CLR 33/09 A2992 RMK AO2 SLP124 T03330089 10339 20272 56009,M
ELY,2022-10-03 23:53,-114.8453,39.2950,1909.00,72.00,21.00,14.48,30.00,7.00,0.00,30.20,1016.40,10.00,M,CLR,M,M,M,M,M,M,M,M,M,M,M,M,M,M,72.00,KELY 032353Z AUTO 03007KT 10SM CLR 22/M06 A3020 RMK AO2 SLP164 T02221061 10233 20172 56006,M
P68,2022-10-03 23:53,-116.0056,39.6014,1993.00,71.00,26.10,18.48,40.00,9.00,0.00,30.21,1017.70,M,M,M,M,M,M,M,M,M,M,M,M,M,M,M,M,M,71.10,KP68 032353Z AUTO 04009KT 22/M03 A3021 RMK AO1 SLP177 T02171033 10228 20183 56007,M
LOL,2022-10-03 23:53,-118.5701,40.0684,1192.43,81.00,28.90,14.92,50.00,5.00,0.00,30.11,1017.30,10.00,M,CLR,M,M,M,M,M,M,M,M,M,M,M,M,M,M,78.99,KLOL 032353Z AUTO 05005KT 10SM CLR 27/M02 A3011 RMK AO2 SLP173 T02721017 10283 20217 56012,M
DRA,2022-10-03 23:53,-116.0278,36.6206,1009.00,88.00,30.00,12.46,M,M,0.00,29.99,1011.10,10.00,M,CLR,M,M,M,M,M,M,M,M,M,M,M,M,M,M,84.13,KDRA 032353Z AUTO 10SM CLR 31/M01 A2999 RMK AO2 SLP111 T03111011 10322 20272 56009,M
BAM,2022-10-03 23:55,-116.8743,40.5990,1382.36,77.00,32.00,19.30,300.00,8.00,0.00,30.17,M,10.00,M,CLR,M,M,M,M,M,M,M,M,M,M,M,M,M,M,77.00,KBAM 032355Z AUTO 30008KT 10SM CLR 25/00 A3017 RMK AO1,M
RNO,2022-10-03 23:55,-119.7711,39.4839,1341.00,80.00,30.00,16.07,60.00,5.00,0.00,30.13,1015.90,10.00,M,CLR,M,M,M,M,M,M,M,M,M,M,M,M,M,M,78.57,KRNO 032355Z 06005KT 10SM CLR 27/M01 A3013 RMK AO2 SLP159 T02671011 10283 20189 56011,M
05U,2022-10-03 23:55,-116.0051,39.6042,1811.23,71.60,24.80,17.22,20.00,10.00,0.00,30.23,M,10.00,M,CLR,M,M,M,M,M,M,M,M,M,M,M,M,M,M,71.60,K05U 032355Z AUTO 02010KT 10SM CLR 22/M04 A3023 RMK A01,M
MEV,2022-10-03 23:55,-119.7500,38.9963,1441.42,78.80,24.80,13.54,330.00,5.00,0.00,30.14,M,10.00,12.00,CLR,M,M,M,M,M,M,M,M,M,M,M,M,M,M,78.80,KMEV 032355Z AUTO 33005G12KT 10SM CLR 26/M04 A3014 RMK AO2,M
BVU,2022-10-03 23:55,-114.8611,35.9475,671.00,91.40,42.80,18.56,50.00,7.00,0.00,29.93,M,10.00,M,CLR,M,M,M,M,M,M,M,M,M,M,M,M,M,M,87.52,KBVU 032355Z AUTO 05007KT 10SM CLR 33/06 A2993 RMK AO2,M
HTH,2022-10-03 23:55,-118.6315,38.5448,1282.89,78.80,19.40,10.78,320.00,12.00,0.00,30.12,M,10.00,M,CLR,M,M,M,M,M,M,M,M,M,M,M,M,M,M,78.80,KHTH 032355Z AUTO 32012KT 10SM CLR 26/M07 A3012 RMK A01,M
TMT,2022-10-03 23:55,-117.1971,39.4643,1749.34,M,M,M,350.00,7.00,0.00,30.21,M,10.00,M,CLR,M,M,M,M,M,M,M,M,M,M,M,M,M,M,M,KTMT 032355Z AUTO 35007KT 10SM CLR A3021 RMK AO2,M
NFL,2022-10-03 23:56,-118.7010,39.4166,1199.00,81.00,27.00,13.80,10.00,7.00,0.00,30.11,1016.40,10.00,M,CLR,M,M,M,M,M,M,M,M,M,M,M,M,M,M,78.96,KNFL 032356Z 01007KT 10SM CLR 27/M03 A3011 RMK AO2 SLP164 T02721028 10278 20206 56012,M
WMC,2022-10-03 23:56,-117.8072,40.9019,1315.00,78.00,28.90,16.41,M,M,0.00,30.15,1018.40,10.00,M,CLR,M,M,M,M,M,M,M,M,M,M,M,M,M,M,78.10,KWMC 032356Z AUTO 10SM CLR 26/M02 A3015 RMK AO2 SLP184 T02561017 10267 20211 56009,M
LAS,2022-10-03 23:56,-115.1634,36.0719,663.00,90.00,48.00,23.63,40.00,6.00,0.00,29.93,1011.10,10.00,M,FEW,SCT,M,M,11000.00,22000.00,M,M,M,M,M,M,M,M,M,86.78,KLAS 032356Z 04006KT 10SM FEW110 SCT220 32/09 A2993 RMK AO2 SLP111 CB DSNT NE-E AND SE-S T03220089 10333 20289 56008,M
LSV,2022-10-03 23:56,-115.0343,36.2362,570.00,92.00,50.00,23.84,110.00,5.00,0.00,29.88,1009.60,10.00,M,FEW,FEW,M,M,9000.00,13000.00,M,M,M,M,M,M,M,M,M,89.03,KLSV 032356Z AUTO 11005KT 10SM FEW090 FEW130 33/10 A2988 RMK AO2 SLP096 T03340100 10346 20308 56009 $,M
INS,2022-10-03 23:56,-115.6733,36.5872,955.00,86.00,38.80,18.86,80.00,3.00,0.00,29.97,1010.70,10.00,M,CLR,M,M,M,M,M,M,M,M,M,M,M,M,M,M,82.77,KINS 032356Z AUTO 08003KT 10SM CLR 30/04 A2997 RMK AO2 SLP107 60000 T03000038 10310 20267 57008 $,M
EKO,2022-10-03 23:56,-115.7860,40.8242,1367.00,76.00,30.00,18.46,0.00,0.00,0.00,30.16,1018.10,10.00,M,CLR,M,M,M,M,M,M,M,M,M,M,M,M,M,M,75.90,KEKO 032356Z AUTO 00000KT 10SM CLR 24/M01 A3016 RMK AO2 SLP181 T02441011 10250 20178 56009,M
HND,2022-10-03 23:56,-115.1344,35.9729,742.79,89.00,47.00,23.32,40.00,5.00,0.00,29.97,1013.70,10.00,M,CLR,M,M,M,M,M,M,M,M,M,M,M,M,M,M,85.85,KHND 032356Z 04005KT 10SM CLR 32/08 A2997 RMK AO2 SLP137 T03170083 10328 20283 56007,M
TPH,2022-10-03 23:56,-117.0904,38.0505,1654.00,78.00,21.00,11.81,290.00,10.00,0.00,30.15,1015.00,10.00,17.00,CLR,M,M,M,M,M,M,M,M,M,M,M,M,M,M,78.10,KTPH 032356Z AUTO 29010G17KT 10SM CLR 26/M06 A3015 RMK AO2 SLP150 T02561061 10261 20222 56013,M
RTS,2022-10-03 23:59,-119.8764,39.6682,1539.00,75.20,24.80,15.25,80.00,7.00,0.00,30.18,M,10.00,M,CLR,M,M,M,M,M,M,M,M,M,M,M,M,M,M,75.20,KRTS 032359Z AUTO 08007KT 10SM CLR 24/M04 A3018 RMK AO2,M
